{"station_id": ["AGGA", "AGGC", "AGGH", "AGGK", "AGGL", "AGGM", "AGGN", "AGGR", "ANYN", "AYPY", "BGAA", "BGBW", "BGCO", "BGGH", "BGJN", "BGKK", "BGMQ", "BGPT", "BGQQ", "BGSF", "BGSS", "BGTL", "BGUK", "BGUQ", "BIBD", "BIGJ", "BIHN", "BIHU", "BIIS", "BITN", "BIVM", "BIVO", "BKPR", "CBBC", "CWSA", "CWWU", "CYAB", "CYAH", "CYAM", "CYAS", "CYAT", "CYAW", "CYAY", "CYBB", "CYBC", "CYBG", "CYBK", "CYBR", "CYBW", "CYBX", "CYCA", "CYCB", "CYCO", "CYCX", "CYCY", "CYDB", "CYDF", "CYDL", "CYDN", "CYDP", "CYDQ", "CYEG", "CYEK", "CYEN", "CYER", "CYEU", "CYEV", "CYFB", "CYFC", "CYFS", "CYGK", "CYGL", "CYGP", "CYGQ", "CYGR", "CYGT", "CYGV", "CYGW", "CYGX", "CYHA", "CYHD", "CYHK", "CYHM", "CYHU", "CYHY", "CYHZ", "CYIK", "CYIO", "CYIV", "CYJT", "CYKA", "CYKF", "CYKG", "CYKJ", "CYKL", "CYLD", "CYLL", "CYLT", "CYLW", "CYMA", "CYMH", "CYMM", "CYMO", "CYMT", "CYMX", "CYNA", "CYND", "CYNE", "CYOD", "CYOJ", "CYOO", "CYOW", "CYOY", "CYPA", "CYPE", "CYPG", "CYPH", "CYPL", "CYPQ", "CYPR", "CYPX", "CYPY", "CYQA", "CYQB", "CYQD", "CYQF", "CYQG", "CYQH", "CYQI", "CYQK", "CYQL", "CYQM", "CYQQ", "CYQR", "CYQT", "CYQU", "CYQV", "CYQW", "CYQX", "CYQY", "CYQZ", "CYRB", "CYRJ", "CYRL", "CYRQ", "CYRT", "CYSB", "CYSC", "CYSF", "CYSJ", "CYSM", "CYSN", "CYSP", "CYTE", "CYTH", "CYTL", "CYTQ", "CYTR", "CYTS", "CYTZ", "CYUL", "CYUT", "CYUX", "CYUY", "CYVC", "CYVM", "CYVO", "CYVP", "CYVQ", "CYVR", "CYVT", "CYVV", "CYWE", "CYWG", "CYWK", "CYWL", "CYXC", "CYXE", "CYXH", "CYXJ", "CYXL", "CYXP", "CYXR", "CYXS", "CYXT", "CYXU", "CYXX", "CYXY", "CYXZ", "CYYB", "CYYC", "CYYD", "CYYE", "CYYF", "CYYG", "CYYH", "CYYJ", "CYYL", "CYYN", "CYYQ", "CYYR", "CYYT", "CYYU", "CYYY", "CYYZ", "CYZE", "CYZF", "CYZG", "CYZH", "CYZP", "CYZR", "CYZT", "CYZV", "CYZX", "CZBF", "CZMD", "CZSJ", "CZUM", "CZVL", "DAAD", "DAAE", "DAAG", "DAAJ", "DAAP", "DAAS", "DAAT", "DAAV", "DAAY", "DABB", "DABC", "DABS", "DABT", "DAFH", "DAOB", "DAOF", "DAOI", "DAON", "DAOO", "DAOR", "DAOV", "DATM", "DAUA", "DAUB", "DAUG", "DAUH", "DAUI", "DAUK", "DAUL", "DAUO", "DAUT", "DAUU", "DAUZ", "DBBB", "DFFD", "DFOO", "DGAA", "DGLE", "DGSI", "DIAP", "DIBK", "DIYO", "DNAA", "DNAK", "DNBE", "DNGO", "DNIB", "DNIL", "DNJO", "DNKA", "DNKN", "DNKT", "DNMA", "DNMM", "DNSO", "DNSU", "DNYO", "DRRN", "DRZA", "DRZR", "DTKA", "DTMB", "DTNH", "DTTA", "DTTB", "DTTF", "DTTG", "DTTJ", "DTTR", "DTTX", "DTTZ", "DXNG", "DXXX", "EBAW", "EBBR", "EBCI", "EBCV", "EBDT", "EBFN", "EBLG", "EBOS", "EDAC", "EDAH", "EDDB", "EDDC", "EDDE", "EDDF", "EDDG", "EDDH", "EDDK", "EDDL", "EDDM", "EDDN", "EDDP", "EDDR", "EDDS", "EDDV", "EDDW", "EDFH", "EDFM", "EDGS", "EDHK", "EDHL", "EDJA", "EDLN", "EDLP", "EDLV", "EDLW", "EDMA", "EDMO", "EDNY", "EDQM", "EDSB", "EDTL", "EDTY", "EDVE", "EDVK", "EDXW", "EEEI", "EEKA", "EETN", "EFHA", "EFHK", "EFIV", "EFJY", "EFKE", "EFKI", "EFKK", "EFKT", "EFKU", "EFMA", "EFOU", "EFPO", "EFRO", "EFSA", "EFSI", "EFTP", "EFTU", "EFUT", "EFVA", "EGAA", "EGAC", "EGAE", "EGBB", "EGBJ", "EGCC", "EGCK", "EGCN", "EGDR", "EGEC", "EGEO", "EGFF", "EGGD", "EGGP", "EGGW", "EGHC", "EGHE", "EGHH", "EGHI", "EGHQ", "EGJA", "EGJB", "EGJJ", "EGKA", "EGKB", "EGKK", "EGLC", "EGLF", "EGLL", "EGMC", "EGMD", "EGNH", "EGNJ", "EGNM", "EGNO", "EGNR", "EGNS", "EGNT", "EGNV", "EGNX", "EGPA", "EGPB", "EGPC", "EGPD", "EGPE", "EGPF", "EGPH", "EGPI", "EGPK", "EGPL", "EGPN", "EGPO", "EGPU", "EGSC", "EGSH", "EGSS", "EGSY", "EGTC", "EGTE", "EGTK", "EGUL", "EGUN", "EGVA", "EHAM", "EHBK", "EHEH", "EHGG", "EHGR", "EHKD", "EHLE", "EHLW", "EHRD", "EHVK", "EHWO", "EICK", "EIDL", "EIDW", "EIKN", "EIKY", "EIME", "EINN", "EISG", "EIWF", "EKAH", "EKBI", "EKCH", "EKEB", "EKGC", "EKHD", "EKKA", "EKOD", "EKRK", "EKRN", "EKSB", "EKSP", "EKVD", "EKVG", "EKVJ", "EKYT", "ELLX", "ENAL", "ENAN", "ENAT", "ENBN", "ENBO", "ENBR", "ENBS", "ENBV", "ENCN", "ENDU", "ENEV", "ENFL", "ENGC", "ENGM", "ENHD", "ENHE", "ENHF", "ENHV", "ENKB", "ENKR", "ENLE", "ENML", "ENMS", "ENNA", "ENNE", "ENNO", "ENOA", "ENOL", "ENOV", "ENRA", "ENRO", "ENRY", "ENSB", "ENSD", "ENSH", "ENSK", "ENSO", "ENSR", "ENTC", "ENTO", "ENVA", "ENVD", "ENZV", "EPBY", "EPDE", "EPGD", "EPKK", "EPKT", "EPLB", "EPLL", "EPMM", "EPMO", "EPPO", "EPPR", "EPPW", "EPRA", "EPRZ", "EPSC", "EPSN", "EPSY", "EPWA", "EPWR", "EPZG", "ESCF", "ESCM", "ESDF", "ESGG", "ESGJ", "ESGP", "ESGT", "ESIB", "ESKN", "ESMK", "ESMQ", "ESMS", "ESMT", "ESMX", "ESNG", "ESNK", "ESNQ", "ESNS", "ESNU", "ESNX", "ESNZ", "ESOE", "ESOK", "ESOW", "ESPA", "ESSA", "ESSB", "ESSD", "ESSL", "ESSP", "ESSV", "ESTA", "ESTL", "ETAD", "ETAR", "ETEB", "ETHF", "ETIK", "ETNL", "ETNW", "ETOU", "ETSN", "EVLA", "EYKA", "EYPA", "EYVI", "FABL", "FACT", "FAEL", "FAGG", "FAHS", "FAKM", "FAKN", "FALA", "FALE", "FAMM", "FAOR", "FAPE", "FAPM", "FAPP", "FARB", "FAUP", "FAUT", "FAWB", "FAWK", "FBKE", "FBMN", "FBPM", "FBSK", "FCBB", "FCPP", "FDMS", "FDSK", "FEFF", "FGBT", "FGSL", "FIMP", "FIMR", "FJDG", "FKKD", "FKKL", "FKKR", "FKYS", "FLCP", "FLHN", "FLKK", "FLKS", "FLMA", "FLMF", "FLSK", "FLSW", "FMCH", "FMCZ", "FMEE", "FMEP", "FMMI", "FMMS", "FMMT", "FMNA", "FMNM", "FMNN", "FMSD", "FMST", "FNBG", "FNCA", "FNCT", "FNDU", "FNGI", "FNHU", "FNKU", "FNLU", "FNMA", "FNME", "FNMO", "FNSA", "FNSO", "FNUB", "FNUE", "FOOG", "FOOL", "FSIA", "FTTJ", "FWCL", "FWKI", "FYGF", "FYKM", "FYLZ", "FYOA", "FYRU", "FYWB", "FYWE", "FYWH", "GABS", "GAGO", "GBYD", "GCFV", "GCGM", "GCHI", "GCLA", "GCLP", "GCRR", "GCTS", "GCXO", "GECE", "GEML", "GGOV", "GMAD", "GMAG", "GMFF", "GMFK", "GMFM", "GMFO", "GMME", "GMMH", "GMMI", "GMML", "GMMN", "GMMW", "GMMX", "GMMZ", "GMTA", "GMTT", "GOBD", "GOGS", "GOOY", "GOSS", "GQNO", "GQPP", "GVAC", "GVBA", "GVNP", "GVSV", "HAAB", "HADR", "HBBA", "HCMM", "HDAM", "HEAL", "HEAR", "HEAT", "HEAX", "HEBA", "HEBL", "HECA", "HEGN", "HELX", "HEMA", "HEMM", "HEOW", "HEPS", "HESC", "HESG", "HESH", "HESN", "HETB", "HETR", "HKEL", "HKJK", "HKKI", "HKML", "HKMO", "HKNW", "HLGD", "HLGT", "HLKF", "HLLB", "HLLM", "HLLQ", "HLLS", "HLMS", "HLON", "HLTD", "HLTQ", "HLUB", "HRYR", "HRZA", "HSSJ", "HSSK", "HTAR", "HTDA", "HTDO", "HTKA", "HTKJ", "HTMW", "HTTB", "HTZA", "HUEN", "HUSO", "KABE", "KABI", "KABQ", "KABR", "KABY", "KACK", "KACT", "KACV", "KACY", "KADF", "KADW", "KAEG", "KAEX", "KAFF", "KAFW", "KAGC", "KAGS", "KAHN", "KAIA", "KALB", "KALI", "KALO", "KALS", "KALW", "KAMA", "KANB", "KAND", "KAOO", "KAPA", "KAPC", "KAPF", "KAPN", "KARA", "KART", "KASD", "KASE", "KASN", "KAST", "KATL", "KATW", "KATY", "KAUG", "KAUS", "KAUW", "KAVL", "KAVP", "KAXN", "KAZO", "KBAB", "KBAD", "KBAF", "KBAM", "KBBD", "KBBG", "KBCB", "KBCE", "KBDL", "KBDN", "KBDR", "KBED", "KBFD", "KBFF", "KBFI", "KBFL", "KBFM", "KBGM", "KBGR", "KBHB", "KBHM", "KBIF", "KBIH", "KBIL", "KBIS", "KBIX", "KBJC", "KBJI", "KBKE", "KBKF", "KBKW", "KBLF", "KBLH", "KBLI", "KBLV", "KBMG", "KBMI", "KBNA", "KBNO", "KBOI", "KBOS", "KBPI", "KBPK", "KBPT", "KBRD", "KBRL", "KBRO", "KBTL", "KBTM", "KBTR", "KBTV", "KBUF", "KBUR", "KBVI", "KBVO", "KBWG", "KBWI", "KBYI", "KBZN", "KCAE", "KCAK", "KCAR", "KCBM", "KCDC", "KCDR", "KCDS", "KCEC", "KCEF", "KCGI", "KCHA", "KCHO", "KCHS", "KCID", "KCIU", "KCKB", "KCKV", "KCLE", "KCLL", "KCLM", "KCLT", "KCMA", "KCMH", "KCMI", "KCMX", "KCNM", "KCNU", "KCNY", "KCOD", "KCOE", "KCOF", "KCON", "KCOS", "KCOT", "KCOU", "KCPR", "KCPS", "KCRE", "KCRG", "KCRP", "KCRQ", "KCRW", "KCSG", "KCSM", "KCSV", "KCTB", "KCUB", "KCVG", "KCVS", "KCWA", "KCXO", "KCXP", "KCYS", "KDAA", "KDAB", "KDAG", "KDAL", "KDAN", "KDAY", "KDBQ", "KDCA", "KDDC", "KDEC", "KDEN", "KDET", "KDFW", "KDHN", "KDHT", "KDIJ", "KDIK", "KDLF", "KDLH", "KDLS", "KDMA", "KDMN", "KDNL", "KDOV", "KDPA", "KDRO", "KDRT", "KDSM", "KDTW", "KDUJ", "KDVL", "KDVT", "KDYS", "KEAR", "KEAT", "KEAU", "KECG", "KECP", "KEDW", "KEED", "KEET", "KEFD", "KEFK", "KEGE", "KEGI", "KEKN", "KEKO", "KEKS", "KELD", "KELM", "KELP", "KELY", "KEND", "KENV", "KENW", "KERI", "KEUG", "KEUL", "KEVV", "KEVW", "KEWN", "KEWR", "KEYW", "KFAF", "KFAR", "KFAT", "KFAY", "KFBG", "KFCS", "KFDY", "KFFO", "KFHU", "KFKL", "KFLG", "KFLL", "KFLO", "KFMH", "KFMN", "KFMY", "KFNT", "KFOD", "KFOE", "KFPR", "KFRI", "KFSD", "KFSM", "KFST", "KFTK", "KFTW", "KFTY", "KFVE", "KFWA", "KFXE", "KFYV", "KGBD", "KGCC", "KGCK", "KGCN", "KGDV", "KGEG", "KGFA", "KGFK", "KGFL", "KGGG", "KGGW", "KGJT", "KGKY", "KGLH", "KGLS", "KGMU", "KGNV", "KGON", "KGPI", "KGPT", "KGRB", "KGRF", "KGRI", "KGRK", "KGRR", "KGSB", "KGSO", "KGSP", "KGTB", "KGTF", "KGTR", "KGUC", "KGUP", "KGUR", "KGUS", "KGUY", "KGWO", "KGYY", "KHBG", "KHCR", "KHDC", "KHDN", "KHIB", "KHIE", "KHIF", "KHIO", "KHKS", "KHKY", "KHLG", "KHLN", "KHMN", "KHNB", "KHND", "KHOB", "KHON", "KHOP", "KHOT", "KHOU", "KHPN", "KHQM", "KHRL", "KHRO", "KHRT", "KHST", "KHSV", "KHTS", "KHUA", "KHUF", "KHUL", "KHUM", "KHUT", "KHVR", "KHYA", "KHYR", "KHYS", "KIAB", "KIAD", "KIAG", "KIAH", "KICT", "KIDA", "KIFP", "KILG", "KILM", "KILN", "KIND", "KINK", "KINL", "KINS", "KINT", "KINW", "KIPL", "KIPT", "KISM", "KISO", "KISP", "KITH", "KIWA", "KIWD", "KIXD", "KJAC", "KJAN", "KJAX", "KJBR", "KJCT", "KJEF", "KJER", "KJFK", "KJHW", "KJKA", "KJKL", "KJLN", "KJMS", "KJST", "KJVL", "KJXN", "KJZI", "KLAF", "KLAL", "KLAN", "KLAR", "KLAS", "KLAW", "KLAX", "KLBB", "KLBE", "KLBF", "KLBL", "KLBT", "KLBX", "KLCH", "KLCK", "KLEB", "KLEE", "KLEX", "KLFI", "KLFK", "KLFT", "KLGA", "KLGB", "KLGU", "KLIT", "KLLQ", "KLMT", "KLND", "KLNK", "KLNS", "KLOZ", "KLRD", "KLRF", "KLRU", "KLSE", "KLSF", "KLSV", "KLTS", "KLUF", "KLUK", "KLVK", "KLVM", "KLVS", "KLWB", "KLWS", "KLWT", "KLYH", "KMAF", "KMBG", "KMBL", "KMBS", "KMCB", "KMCC", "KMCE", "KMCF", "KMCI", "KMCK", "KMCN", "KMCO", "KMCW", "KMDT", "KMDW", "KMEI", "KMEM", "KMER", "KMEV", "KMFD", "KMFE", "KMFR", "KMGE", "KMGM", "KMGW", "KMHK", "KMHR", "KMHT", "KMIA", "KMIB", "KMIV", "KMKC", "KMKE", "KMKG", "KMKL", "KMKT", "KMLB", "KMLC", "KMLI", "KMLS", "KMLU", "KMMH", "KMMT", "KMOB", "KMOD", "KMOT", "KMPV", "KMQY", "KMRB", "KMRY", "KMSL", "KMSN", "KMSO", "KMSP", "KMSS", "KMSY", "KMTC", "KMTH", "KMTJ", "KMTN", "KMTW", "KMUI", "KMUO", "KMVN", "KMWH", "KMXF", "KMYL", "KMYR", "KNBC", "KNBG", "KNCA", "KNEW", "KNFG", "KNFL", "KNFW", "KNGP", "KNGU", "KNHK", "KNIP", "KNJK", "KNKT", "KNKX", "KNLC", "KNMM", "KNPA", "KNQI", "KNQX", "KNRB", "KNSE", "KNTD", "KNTU", "KNUC", "KNUW", "KNXP", "KNYG", "KNYL", "KNZY", "KOAJ", "KOAK", "KOFF", "KOFK", "KOGB", "KOGD", "KOKC", "KOLF", "KOLM", "KOLS", "KOMA", "KONP", "KONT", "KOPF", "KORD", "KORF", "KORH", "KOTH", "KOTM", "KOUN", "KOWB", "KOXR", "KOZR", "KPAE", "KPAH", "KPAM", "KPBF", "KPBG", "KPBI", "KPDK", "KPDT", "KPDX", "KPEQ", "KPGA", "KPGD", "KPGV", "KPHF", "KPHL", "KPHX", "KPIA", "KPIB", "KPIE", "KPIH", "KPIR", "KPIT", "KPKB", "KPLN", "KPMD", "KPNA", "KPNC", "KPNE", "KPNS", "KPOE", "KPOU", "KPQI", "KPRB", "KPRC", "KPSC", "KPSF", "KPSM", "KPSP", "KPTK", "KPUB", "KPUW", "KPVD", "KPVU", "KPVW", "KPWM", "KPWT", "KRAP", "KRBG", "KRBL", "KRCA", "KRDD", "KRDG", "KRDM", "KRDR", "KRDU", "KRFD", "KRHI", "KRIC", "KRIL", "KRIV", "KRIW", "KRKD", "KRKS", "KRME", "KRND", "KRNH", "KRNO", "KROA", "KROC", "KROG", "KROW", "KRSL", "KRST", "KRSW", "KRUT", "KRVS", "KRWF", "KRWI", "KRWL", "KRYY", "KSAC", "KSAF", "KSAN", "KSAT", "KSAV", "KSAW", "KSBA", "KSBD", "KSBM", "KSBN", "KSBP", "KSBY", "KSCK", "KSDF", "KSDL", "KSDY", "KSEA", "KSEZ", "KSFB", "KSFF", "KSFO", "KSGF", "KSGJ", "KSGR", "KSGU", "KSHR", "KSHV", "KSJC", "KSJS", "KSJT", "KSKA", "KSKF", "KSLC", "KSLE", "KSLI", "KSLK", "KSLN", "KSME", "KSMF", "KSMN", "KSMO", "KSMX", "KSNA", "KSNS", "KSNY", "KSOA", "KSPI", "KSPS", "KSRQ", "KSSC", "KSSF", "KSSI", "KSTC", "KSTJ", "KSTL", "KSTS", "KSUA", "KSUN", "KSUS", "KSUU", "KSUX", "KSVN", "KSWF", "KSWO", "KSYM", "KSYR", "KSZL", "KTBN", "KTCC", "KTCL", "KTCM", "KTCS", "KTEB", "KTEX", "KTIK", "KTIX", "KTLH", "KTMB", "KTOI", "KTOL", "KTOP", "KTPA", "KTPH", "KTRI", "KTRK", "KTRM", "KTTD", "KTTN", "KTUL", "KTUP", "KTUS", "KTVC", "KTVF", "KTVL", "KTWF", "KTXK", "KTYR", "KTYS", "KUAO", "KUES", "KUIN", "KUKI", "KUNV", "KUTS", "KVAD", "KVBG", "KVCT", "KVEL", "KVGT", "KVIS", "KVLD", "KVNY", "KVOK", "KVPS", "KVQQ", "KVRB", "KVTN", "KWJF", "KWMC", "KWRB", "KWRI", "KWRL", "KWWR", "KXNA", "KXWA", "KYIP", "KYKM", "KYNG", "KZZV", "LATI", "LBBG", "LBGO", "LBPD", "LBSF", "LBWN", "LCEN", "LCLK", "LCPH", "LDDU", "LDOS", "LDPL", "LDRI", "LDSP", "LDZA", "LDZD", "LEAB", "LEAG", "LEAL", "LEAM", "LEAO", "LEAS", "LEBA", "LEBB", "LEBG", "LEBL", "LEBR", "LEBZ", "LECO", "LECV", "LEEC", "LEGA", "LEGE", "LEGR", "LEGT", "LEHC", "LEIB", "LEJR", "LELC", "LELL", "LELN", "LELO", "LEMD", "LEMG", "LEMH", "LEMO", "LEPA", "LEPP", "LERI", "LERL", "LERS", "LERT", "LESA", "LESO", "LEST", "LESU", "LETO", "LEVC", "LEVD", "LEVS", "LEVT", "LEVX", "LEXJ", "LEZG", "LEZL", "LFAQ", "LFAT", "LFBA", "LFBC", "LFBD", "LFBE", "LFBG", "LFBH", "LFBI", "LFBL", "LFBM", "LFBO", "LFBP", "LFBT", "LFBU", "LFBZ", "LFCK", "LFCR", "LFGJ", "LFJL", "LFKB", "LFKC", "LFKF", "LFKJ", "LFLB", "LFLC", "LFLL", "LFLN", "LFLP", "LFLS", "LFLW", "LFLX", "LFLY", "LFMD", "LFMI", "LFMK", "LFML", "LFMN", "LFMO", "LFMP", "LFMT", "LFMU", "LFMV", "LFOB", "LFOE", "LFOH", "LFOJ", "LFOK", "LFOP", "LFOT", "LFPB", "LFPG", "LFPN", "LFPO", "LFPV", "LFQQ", "LFRB", "LFRC", "LFRD", "LFRG", "LFRH", "LFRI", "LFRK", "LFRM", "LFRN", "LFRQ", "LFRS", "LFRZ", "LFSB", "LFSI", "LFSL", "LFST", "LFTH", "LFTW", "LFVP", "LGAL", "LGAV", "LGEL", "LGHI", "LGIO", "LGIR", "LGKC", "LGKF", "LGKO", "LGKR", "LGKV", "LGMK", "LGMT", "LGPZ", "LGRP", "LGSA", "LGSK", "LGSM", "LGSR", "LGST", "LGTS", "LGZA", "LHBP", "LHDC", "LHKE", "LHPA", "LHPP", "LHPR", "LHSM", "LHSN", "LIBA", "LIBC", "LIBD", "LIBF", "LIBG", "LIBN", "LIBP", "LIBR", "LIBV", "LICA", "LICB", "LICC", "LICD", "LICG", "LICJ", "LICR", "LICT", "LICZ", "LIEA", "LIED", "LIEE", "LIEO", "LIMC", "LIME", "LIMF", "LIMG", "LIMJ", "LIML", "LIMN", "LIMP", "LIMW", "LIMZ", "LIPA", "LIPB", "LIPC", "LIPE", "LIPH", "LIPI", "LIPK", "LIPL", "LIPO", "LIPQ", "LIPR", "LIPS", "LIPX", "LIPY", "LIPZ", "LIQW", "LIRA", "LIRE", "LIRF", "LIRG", "LIRL", "LIRM", "LIRN", "LIRP", "LIRQ", "LIRS", "LIRU", "LIRV", "LIRZ", "LJLJ", "LJMB", "LKCV", "LKKB", "LKKV", "LKMT", "LKNA", "LKPD", "LKPR", "LKTB", "LLBG", "LLER", "LLHA", "LLHZ", "LLIB", "LMML", "LOAN", "LOAV", "LOWG", "LOWI", "LOWK", "LOWL", "LOWS", "LOWW", "LOXZ", "LPAR", "LPAZ", "LPBJ", "LPCS", "LPFR", "LPHR", "LPLA", "LPMA", "LPMR", "LPMT", "LPOV", "LPPD", "LPPR", "LPPS", "LPPT", "LPST", "LQBK", "LQMO", "LQSA", "LQTZ", "LRAR", "LRBC", "LRBM", "LRBO", "LRBS", "LRCK", "LRCL", "LRCT", "LRCV", "LRFT", "LRIA", "LROD", "LROP", "LRSB", "LRSM", "LRSV", "LRTC", "LRTM", "LRTR", "LRTZ", "LSGC", "LSGG", "LSGS", "LSZA", "LSZB", "LSZC", "LSZG", "LSZH", "LSZL", "LSZR", "LSZS", "LTAC", "LTAF", "LTAG", "LTAI", "LTAJ", "LTAP", "LTAT", "LTAU", "LTAZ", "LTBA", "LTBJ", "LTBR", "LTBS", "LTBU", "LTCC", "LTCE", "LTCG", "LTCJ", "LTCS", "LTCV", "LTFC", "LTFE", "LTFJ", "LTFM", "LUBM", "LUKK", "LWOH", "LWSK", "LYBE", "LYBT", "LYKV", "LYNI", "LYPG", "LYTV", "LYVR", "LZIB", "LZKZ", "LZPP", "LZTT", "LZZI", "MBGT", "MBPV", "MDBH", "MDCY", "MDJB", "MDLR", "MDPC", "MDPP", "MDSD", "MDST", "MGGT", "MGMM", "MGPB", "MGSJ", "MHLC", "MHLM", "MHPR", "MHRO", "MHTG", "MKJP", "MKJS", "MMAA", "MMAN", "MMAS", "MMBT", "MMCB", "MMCE", "MMCL", "MMCM", "MMCN", "MMCP", "MMCS", "MMCU", "MMCV", "MMCZ", "MMDO", "MMEP", "MMGL", "MMGM", "MMHO", "MMIA", "MMIO", "MMLM", "MMLO", "MMLP", "MMLT", "MMMA", "MMMD", "MMML", "MMMM", "MMMT", "MMMV", "MMMX", "MMMY", "MMMZ", "MMNL", "MMOX", "MMPA", "MMPB", "MMPG", "MMPN", "MMPQ", "MMPR", "MMPS", "MMQT", "MMRX", "MMSD", "MMSL", "MMSM", "MMSP", "MMTC", "MMTG", "MMTJ", "MMTM", "MMTO", "MMTP", "MMUN", "MMVA", "MMVR", "MMZC", "MMZH", "MMZO", "MNBL", "MNMG", "MNPC", "MPDA", "MPMG", "MPPA", "MPSM", "MPTO", "MRLB", "MRLM", "MROC", "MRPV", "MSLP", "MSSS", "MTCH", "MTPP", "MUCC", "MUCF", "MUCL", "MUCM", "MUCU", "MUGM", "MUHA", "MUHG", "MUSC", "MUVR", "MWCB", "MWCR", "MYGF", "MYNN", "MZBZ", "NCRG", "NFFN", "NFNA", "NFTF", "NFTV", "NGFU", "NGTA", "NIUE", "NLWF", "NLWW", "NSFA", "NSTU", "NTAA", "NVSC", "NVSG", "NVSL", "NVSP", "NVSS", "NVVA", "NVVV", "NVVW", "NWWD", "NWWE", "NWWK", "NWWL", "NWWM", "NWWR", "NWWU", "NWWW", "NZAA", "NZCH", "NZFX", "NZQN", "NZSP", "NZWD", "NZWN", "OBBI", "OEAB", "OEAH", "OEAO", "OEBA", "OEBH", "OEDF", "OEDM", "OEDR", "OEGN", "OEGS", "OEGT", "OEHL", "OEJN", "OEKJ", "OEKM", "OEMA", "OENG", "OEPA", "OEPS", "OERF", "OERK", "OERR", "OESH", "OESK", "OETB", "OETF", "OETR", "OEWD", "OEWJ", "OEYN", "OIAA", "OIAW", "OIBB", "OIBK", "OIBP", "OICC", "OICI", "OIFM", "OIGG", "OIIE", "OIII", "OIIP", "OIKB", "OIKK", "OIMM", "OING", "OINZ", "OISL", "OISS", "OITL", "OITR", "OITT", "OIYY", "OIZH", "OJAI", "OJAM", "OJAQ", "OKAS", "OKBK", "OLBA", "OMAA", "OMAD", "OMAL", "OMDB", "OMDW", "OMFJ", "OMRK", "OMSJ", "OODQ", "OOMS", "OOSA", "OOSH", "OPBW", "OPDG", "OPFA", "OPGD", "OPIS", "OPKC", "OPLA", "OPMT", "OPNH", "OPPS", "OPRK", "OPSK", "OPST", "ORBI", "ORER", "ORMM", "ORNI", "ORSU", "OSAP", "OSDI", "OSLK", "OTBD", "OTBH", "OTHH", "PAAQ", "PABE", "PABR", "PABT", "PACD", "PACV", "PADL", "PADQ", "PADU", "PAED", "PAEI", "PAEN", "PAFA", "PAFB", "PAGA", "PAGK", "PAGS", "PAGY", "PAHN", "PAHO", "PAIL", "PAJN", "PAKN", "PAKT", "PAKW", "PANC", "PAOM", "PAOR", "PAOT", "PAPG", "PAQT", "PASC", "PASD", "PASI", "PASN", "PASY", "PATA", "PATK", "PAUN", "PAVD", "PAWG", "PAYA", "PGRO", "PGSN", "PGUA", "PGUM", "PGWT", "PHHI", "PHJH", "PHJR", "PHKO", "PHLI", "PHMK", "PHNL", "PHNY", "PHOG", "PHTO", "PKMJ", "PKWA", "PLCH", "PMDY", "PTKK", "PTPN", "PTRO", "PTSA", "PTYA", "PWAK", "RCFN", "RCKH", "RCMQ", "RCNN", "RCSS", "RCTP", "RJAA", "RJAH", "RJBB", "RJCB", "RJCC", "RJCH", "RJCK", "RJCM", "RJEC", "RJFF", "RJFK", "RJFM", "RJFO", "RJFR", "RJFS", "RJFT", "RJFU", "RJGG", "RJNK", "RJNS", "RJNT", "RJOA", "RJOB", "RJOC", "RJOH", "RJOI", "RJOK", "RJOM", "RJOO", "RJOT", "RJSA", "RJSF", "RJSI", "RJSK", "RJSN", "RJSS", "RJTT", "RJTY", "RKJB", "RKJK", "RKNY", "RKPC", "RKPK", "RKSG", "RKSI", "RKSM", "RKSO", "RKSS", "RKTN", "RKTU", "ROAH", "RODN", "ROIG", "ROTM", "RPLB", "RPLC", "RPLI", "RPLL", "RPMD", "RPMR", "RPMZ", "RPVD", "RPVM", "RPVP", "SAAR", "SABE", "SACO", "SADF", "SAEZ", "SAME", "SANR", "SANT", "SARE", "SARF", "SARI", "SARP", "SASA", "SASJ", "SAVC", "SAVV", "SAWE", "SAWG", "SAWH", "SAZM", "SAZN", "SAZS", "SBAC", "SBAF", "SBAN", "SBAR", "SBAT", "SBBE", "SBBG", "SBBI", "SBBR", "SBBU", "SBBV", "SBBW", "SBCB", "SBCF", "SBCG", "SBCJ", "SBCO", "SBCP", "SBCR", "SBCT", "SBCY", "SBCZ", "SBDN", "SBEG", "SBFI", "SBFL", "SBFN", "SBFZ", "SBGL", "SBGO", "SBGR", "SBGW", "SBIH", "SBIL", "SBIZ", "SBJE", "SBJP", "SBJV", "SBKG", "SBKP", "SBLO", "SBMA", "SBME", "SBMN", "SBMO", "SBMQ", "SBNF", "SBNT", "SBOI", "SBPA", "SBPB", "SBPJ", "SBPK", "SBPL", "SBPP", "SBPS", "SBPV", "SBRB", "SBRF", "SBRJ", "SBRP", "SBSC", "SBSG", "SBSJ", "SBSL", "SBSM", "SBSN", "SBSP", "SBSV", "SBTD", "SBTE", "SBTF", "SBTT", "SBUG", "SBUL", "SBUR", "SBVH", "SBVT", "SBYS", "SCAR", "SCAT", "SCBA", "SCCF", "SCCI", "SCCY", "SCDA", "SCEL", "SCFA", "SCIE", "SCIP", "SCJO", "SCNT", "SCQP", "SCSE", "SCTE", "SCVM", "SEGU", "SELT", "SEMT", "SEQM", "SGAS", "SGCO", "SGEN", "SGES", "SKAR", "SKBG", "SKBO", "SKBQ", "SKCC", "SKCG", "SKCL", "SKLT", "SKPE", "SKRG", "SKSM", "SKSP", "SLAL", "SLCB", "SLCO", "SLET", "SLLP", "SLTJ", "SLTR", "SLVR", "SMJP", "SMZO", "SOCA", "SPCL", "SPEO", "SPGM", "SPHI", "SPHO", "SPHY", "SPJC", "SPJI", "SPJL", "SPJR", "SPLO", "SPME", "SPMS", "SPNC", "SPPY", "SPQT", "SPQU", "SPRU", "SPSO", "SPST", "SPTN", "SPTU", "SPYL", "SPZO", "SUAA", "SUCA", "SUDU", "SULS", "SUMU", "SURV", "SUSO", "SVBC", "SVJC", "SVMC", "SVMG", "SVMI", "SVPR", "SVSA", "SVVA", "SYCJ", "SYEB", "SYEC", "SYKA", "SYKM", "SYLT", "SYMB", "TAPA", "TBPB", "TDPD", "TGPY", "TIST", "TISX", "TJBQ", "TJPS", "TJSJ", "TKPK", "TKPN", "TLPC", "TLPL", "TNCA", "TNCB", "TNCC", "TNCM", "TQPF", "TRPG", "TTCP", "TTPP", "TUPJ", "TVSA", "TXKF", "UAAA", "UAAH", "UAAT", "UACC", "UACK", "UACP", "UADD", "UAII", "UAIT", "UAKD", "UAKK", "UAOO", "UARR", "UASK", "UASP", "UASS", "UATE", "UATG", "UATT", "UAUU", "UBBB", "UBBG", "UBBL", "UBBN", "UBBQ", "UCFL", "UCFM", "UCFO", "UDSG", "UDYZ", "UEEE", "UERP", "UERR", "UGAM", "UGKO", "UGMS", "UGSB", "UGTB", "UHBB", "UHHH", "UHMA", "UHMM", "UHPP", "UHSS", "UHWW", "UIAA", "UIBB", "UIII", "UIUU", "ULAA", "ULLI", "ULMM", "ULOO", "ULPB", "ULWC", "UMBB", "UMGG", "UMII", "UMIO", "UMKK", "UMMG", "UMMS", "UMOO", "UNAA", "UNBB", "UNEE", "UNKL", "UNNT", "UNOO", "UNTT", "UNWW", "UOOO", "URKA", "URKK", "URMG", "URML", "URMM", "URMN", "URMO", "URMT", "URRP", "URSS", "URWA", "URWI", "URWW", "USCC", "USCM", "USDA", "USHH", "USNN", "USPP", "USRR", "USSS", "USTR", "UTAA", "UTAK", "UTAM", "UTAT", "UTAV", "UTDD", "UTDK", "UTDL", "UTDT", "UTFF", "UTFN", "UTNN", "UTNU", "UTSA", "UTSB", "UTSK", "UTSS", "UTST", "UTTT", "UUBC", "UUBP", "UUBW", "UUDD", "UUDL", "UUEE", "UUMO", "UUOB", "UUOK", "UUOL", "UUOO", "UUWW", "UUYY", "UWGG", "UWKD", "UWKE", "UWKS", "UWLL", "UWLW", "UWOO", "UWOR", "UWPS", "UWSG", "UWUU", "UWWW", "VAAH", "VAAU", "VABJ", "VABO", "VABP", "VABV", "VADU", "VAID", "VAJB", "VAJL", "VAJM", "VAKE", "VAKP", "VANP", "VAOZ", "VAPO", "VAPR", "VARK", "VASD", "VASL", "VASU", "VAUD", "VCBI", "VCRI", "VDPP", "VDSR", "VDSV", "VEAB", "VEAT", "VEBD", "VEBI", "VEBN", "VEBS", "VEBU", "VECC", "VECX", "VEDG", "VEDZ", "VEGK", "VEGT", "VEGY", "VEIM", "VEJH", "VEJR", "VEJS", "VEJT", "VEKO", "VELP", "VELR", "VEMN", "VEMR", "VEPT", "VEPY", "VERC", "VERP", "VERU", "VETJ", "VETZ", "VEZO", "VGEG", "VGHS", "VIAG", "VIBR", "VIBT", "VIBY", "VICG", "VIDN", "VIGG", "VIGR", "VIJO", "VIJP", "VIKG", "VILK", "VIPT", "VISM", "VISR", "VLLB", "VLLN", "VLPS", "VLSK", "VLVT", "VMMC", "VNKT", "VOAR", "VOBM", "VOCB", "VOCP", "VOGB", "VOGO", "VOJV", "VOKU", "VOLT", "VOMD", "VOMM", "VOMY", "VOND", "VOSR", "VOTR", "VOVZ", "VRMG", "VRMH", "VRMM", "VTBD", "VTBO", "VTBS", "VTBU", "VTCC", "VTCH", "VTCL", "VTCN", "VTCP", "VTCT", "VTPB", "VTPH", "VTPM", "VTPO", "VTPP", "VTSB", "VTSC", "VTSE", "VTSF", "VTSG", "VTSM", "VTSP", "VTSR", "VTSS", "VTST", "VTUD", "VTUI", "VTUK", "VTUL", "VTUO", "VTUQ", "VTUU", "VTUV", "VTUW", "VVCI", "VVCR", "VVCT", "VVDN", "VVNB", "VVPB", "VVPQ", "VVTS", "VYMD", "VYNT", "VYYY", "WAAA", "WABB", "WADD", "WADL", "WALL", "WALS", "WAMM", "WAOO", "WAPP", "WAQA", "WAQD", "WAQJ", "WAQQ", "WAQT", "WARR", "WATT", "WBGB", "WBGG", "WBGR", "WBGS", "WBKK", "WBKL", "WBKS", "WBKW", "WBSB", "WIDD", "WIEE", "WIHH", "WIII", "WIMM", "WIPP", "WIPY", "WITT", "WMAP", "WMBT", "WMKA", "WMKB", "WMKC", "WMKE", "WMKI", "WMKJ", "WMKK", "WMKL", "WMKM", "WMKN", "WMKP", "WMPA", "WMSA", "WPDL", "WSAP", "WSSL", "WSSS", "YAMB", "YBAS", "YBBN", "YBCG", "YBCS", "YBHM", "YBLN", "YBMA", "YBRK", "YBRM", "YBTL", "YBWW", "YCFS", "YCIN", "YFRT", "YGEL", "YGLA", "YHID", "YLHI", "YMAV", "YMHB", "YMLT", "YMML", "YPAD", "YPCC", "YPDN", "YPEA", "YPGV", "YPJT", "YPKG", "YPKU", "YPLM", "YPPD", "YPPH", "YPTN", "YPWR", "YPXM", "YSCB", "YSDU", "YSNF", "YSRI", "YSSY", "YSTW", "YWLM", "ZBAA", "ZBAD", "ZBHH", "ZBSJ", "ZBTJ", "ZBYN", "ZGGG", "ZGHA", "ZGKL", "ZGNN", "ZGOW", "ZGSZ", "ZHCC", "ZHHH", "ZJHK", "ZJSY", "ZKPY", "ZKWS", "ZLLL", "ZLXY", "ZMCK", "ZMUB", "ZPPP", "ZSAM", "ZSFZ", "ZSHC", "ZSJN", "ZSNB", "ZSNJ", "ZSOF", "ZSPD", "ZSQD", "ZSSS", "ZUCK", "ZUGY", "ZUUU", "ZWSH", "ZWWW", "ZYCC", "ZYHB", "ZYTL", "ZYTX"], "raw_text": ["TAF AGGA 302310Z 3100/3124 11007KT 9999 FEW017 SCT028", "TAF AGGC 302310Z 3100/3124 02007KT 9999 FEW017 SCT028 PROB30 INTER 3103/3106 8000 TSSH SCT015 FEW016CB BKN027", "TAF AGGH 311140Z 3112/0112 18004KT 9999 FEW016 SCT100 T 25 24 24 27 Q 1009 1007 1007 1009", "TAF AGGK 302310Z 3100/3124 34008KT 9999 FEW017 SCT028", "TAF AGGL 302310Z 3100/3124 34008KT 9999 FEW017 SCT028 PROB40 INTER 3100/3104 8000 TSSH SCT015 FEW016CB BKN027", "TAF AGGM 311140Z 3112/0112 VRB03KT 9999 FEW016 SCT100 Q 1008 1006 1006 1008", "TAF AGGN 311140Z 3112/0112 VRB03KT 9999 FEW016 SCT100 Q 1008 1006 1006 1008", "TAF AGGR 302310Z 3100/3124 14010KT 9999 FEW018 SCT018", "TAF ANYN 311034Z 3112/0112 07008KT 9999 FEW020 T 27 27 28 30 Q 1009 1007 1008 1010", "TAF AYPY 311030Z 3112/0112 17006KT 9999 SCT040 FM311800 VRB03KT 9999 SCT030 FM312200 34006KT 9999 SCT018 SCT140 FM010200 22010KT 9999 -SHRA BKN020 PROB30 INTER 0103/0109 5000 TSRA BKN010 FEW018CB PROB30 3119/3121 VRB03KT 0700 FG", "TAF BGAA 311150Z 3112/3118 VRB05KT 9999 FEW008 BKN030 TEMPO 3112/3118 34007KT 3500 -SN BKN008", "TAF BGBW 311101Z 3112/3121 06008KT 9999 FEW090", "TAF AMD BGCO 311301Z 3113/3117 34020KT 9999 DRSN FEW011 SCT030 BKN050 TEMPO 3113/3117 34030G40KT 1200 SN BLSN BKN010", "TAF AMD BGGH 311221Z 3112/3121 36005KT 9999 FEW008 SCT012 BKN090 TEMPO 3112/3116 36015KT 2000 SHSN BKN008 BKN012TCU", "TAF BGJN 311101Z 3112/3121 VRB05KT 9999 FEW200 PROB40 3117/3121 BKN012", "TAF BGKK 311101Z 3112/3120 08020KT 8000 -SNRA FEW005 SCT012 BKN020 TEMPO 3112/3114 08032G42KT 1500 -SN SCT005 BKN010 TEMPO 3114/3118 08038G50KT 1000 SN BLSN VV005", "TAF BGMQ 311150Z 3112/3119 VRB06KT 9999 FEW020 PROB40 3112/3118 4000 -SHSN BKN020", "TAF BGPT 311150Z 3112/3120 33007KT 9999 FEW008 SCT015 TEMPO 3112/3120 33018KT 3000 -SHSN BKN008 SCT015TCU", "TAF BGQQ 311150Z 3112/3120 VRB08KT 9999 BKN070 TEMPO 3112/3120 SCT070", "TAF AMD BGSF 311300Z 3112/0118 VRB06KT 9999 FEW007 BKN040 TEMPO 3112/3120 6000 -SN SCT007 BKN009 TEMPO 3120/0101 36005KT 4000 -SN SCT008 BKN010", "TAF BGSS 311150Z 3112/3121 09005KT 9999 FEW020 BKN100 BECMG 3115/3118 35010KT TEMPO 3115/3121 3000 -SHSN BKN008", "TAF BGTL 311100Z 3111/0117 10009KT 9999 SCT050 QNH2928INS BECMG 3115/3116 13012KT 9999 BKN060 620604 QNH2932INS TXM11/3118Z TNM19/3112Z", "TAF BGUK 311150Z 3112/3120 08005KT 9999 BKN100", "TAF BGUQ 311150Z 3112/3121 23008KT 9999 SCT200", "TAF BIBD 311310Z 3114/3116 VRB02KT 9999 -SHRA FEW018 BKN025", "TAF BIGJ 311022Z 3111/3116 20005KT 9999 FEW018 SCT025 BECMG 3114/3116 35010KT", "TAF BIHN 311314Z 3114/3120 07010KT 9999 -DZ FEW015 SCT020 BKN030 TEMPO 3114/3117 4000 DZRA BR BKN012 BECMG 3117/3119 23020G30KT", "TAF BIHU 311312Z 3114/3118 17015KT 9999 FEW035 SCT060", "TAF BIIS 311309Z 3114/3118 VRB02KT 9999 -SHRA FEW015 SCT025 BKN035 BECMG 3114/3116 02010KT", "TAF BITN 310812Z 3109/3118 21016KT 9999 FEW025 SCT050 BECMG 3111/3113 15012KT TEMPO 3116/3118 RA BKN014", "TAF BIVM 311319Z 3114/3123 20022G32KT 9999 -SHRA FEW008 SCT025 BKN030", "TAF BIVO 311021Z 3111/3115 22015G25KT 9999 SCT025 BECMG 3113/3115 14010KT RA BKN013", "TAF BKPR 311130Z 3112/0112 35007KT CAVOK TEMPO 0103/0106 3000 BR", "TAF AMD CBBC 311334Z 3113/0101 VRB03KT 6SM RA BR FEW008 BKN030 TEMPO 3113/0101 4SM -SHRA BR BKN008 RMK FCST BASED ON AUTO OBS. NXT FCST BY 311900Z", "TAF CWSA 311340Z 3114/3124 20010KT P6SM SKC BECMG 3116/3118 25012KT RMK FCST BASED ON AUTO OBS. NXT FCST BY 312000Z", "TAF CWWU 311200Z 3112/0112 21005KT P6SM FEW020 FEW180 FM311500 24012G22KT P6SM FEW030 BKN220 BECMG 3117/3119 24018G28KT FM312300 28010KT P6SM SKC FM010600 36010KT P6SM BKN015 RMK NXT FCST BY 311800Z", "TAF CYAB 311240Z 3113/3122 VRB03KT P6SM -SN OVC025 TEMPO 3113/3122 5SM -SN OVC020 BECMG 3114/3116 10008KT RMK NXT FCST BY 311900Z", "TAF CYAH 311040Z 3111/3121 27005KT P6SM FEW007 BKN030 TEMPO 3111/3115 4SM BR BKN007 FM311500 18010KT P6SM BKN030 TEMPO 3115/3121 BKN015 RMK FCST BASED ON AUTO OBS. NXT FCST BY 311800Z", "TAF CYAM 311340Z 3114/0102 08006KT P6SM SCT120 BKN160 BKN200 TEMPO 3114/3115 2SM BR FM311800 10006KT P6SM FEW160 SCT230 FM312000 VRB03KT P6SM SKC RMK NXT FCST BY 312000Z", "TAF CYAS 311340Z 3114/3121 30015G25KT P6SM FEW020 SCT040 BECMG 3115/3117 30010KT FM311700 30010KT P6SM FEW020 SCT040 TEMPO 3117/3121 SCT020 BKN040 RMK NXT FCST BY 011400Z", "TAF CYAT 310840Z 3109/3119 VRB03KT P6SM SCT220 BECMG 3111/3113 18010KT FM311700 18012G22KT P6SM BKN150 RMK FCST BASED ON AUTO OBS. NXT FCST BY 311500Z", "TAF CYAW 311140Z 3112/3124 VRB03KT P6SM BKN220 BECMG 3112/3114 24010KT FM311900 24010KT P6SM SCT180 RMK NXT FCST BY 311800Z", "TAF CYAY 311340Z 3114/0102 18012G22KT P6SM -SHRA BKN020 BKN050 TEMPO 3114/3115 SCT020 BKN050 BECMG 3114/3115 23025G35KT FM311500 23025G35KT P6SM SCT030 SCT100 TEMPO 3115/3118 P6SM -SHRA FEW020 BKN030 BKN100 FM311800 25025G35KT P6SM -SHRA FEW020 BKN030 BECMG 3118/3120 32020G30KT FM312100 32018G28KT P6SM BKN020 FM010100 32012KT P6SM SCT025 RMK FCST BASED ON AUTO OBS. NXT FCST BY 312000Z", "TAF CYBB 311340Z 3114/3124 24015KT P6SM BKN020 TEMPO 3114/3116 SCT020 FM311600 25015KT P6SM -SN SCT010 BKN020 TEMPO 3116/3124 P6SM NSW SCT015 BKN030 RMK NXT FCST BY 311900Z", "TAF CYBC 311340Z 3114/0102 27008KT P6SM SCT240 BECMG 3116/3118 22005KT BKN240 FM010000 04005KT P6SM BKN120 OVC200 RMK FCST BASED ON AUTO OBS. NXT FCST BY 312000Z", "TAF CYBG 311140Z 3112/0112 VRB03KT P6SM BKN220 FM312000 09005KT P6SM BKN100 FM010800 VRB03KT P6SM FEW100 RMK NXT FCST BY 311500Z", "TAF CYBK 311140Z 3112/3124 02018G28KT 2SM -SN BKN015 OVC040 TEMPO 3112/3115 6SM -SN SCT015 BKN040 BECMG 3113/3115 02025G35KT FM311500 02025G35KT 1SM -SN BLSN OVC006 TEMPO 3115/3124 3SM -SN BLSN SCT006 OVC012 RMK NXT FCST BY 311800Z", "TAF CYBR 311140Z 3112/3124 20005KT P6SM SKC BECMG 3114/3116 26012KT BKN220 FM311700 27015KT P6SM BKN180 BECMG 3120/3122 28008KT FM312300 32004KT P6SM BKN080 RMK NXT FCST BY 311800Z", "TAF CYBW 311144Z 3112/3124 VRB03KT P6SM FEW020 BKN100 FM311300 VRB03KT P6SM BKN030 TEMPO 3113/3117 4SM -SHSN OVC015 FM311700 16007KT P6SM BKN040 BECMG 3117/3119 FEW040 FM312100 16010KT P6SM SKC RMK FCST BASED ON AUTO OBS. NXT FCST BY 311800Z", "TAF CYBX 311340Z 3114/0102 24015KT 5SM -SHRA BR FEW007 BKN010 OVC050 TEMPO 3114/3115 P6SM NSW SCT012 BKN050 PROB30 3114/3115 4SM -RA BR OVC007 FM311500 25015G25KT P6SM SCT012 BKN040 TEMPO 3115/3117 5SM -SHRA BR BKN012 FM311700 28015G25KT P6SM -SHRA FEW020 BKN040 BECMG 3117/3119 34015G25KT FM312000 34015G25KT P6SM FEW020 BECMG 3122/3124 24008G18KT RMK NXT FCST BY 312000Z", "TAF CYCA 311340Z 3114/0102 07004KT 4SM -SHRASN BR FEW006 BKN020 TEMPO 3114/3118 P6SM -SHRASN BKN040 OVC060 BECMG 3114/3115 03008KT FM311800 33010G20KT P6SM -SHRA BKN020 TEMPO 3118/3121 P6SM NSW BKN030 FM312100 32010G20KT P6SM BKN030 RMK FCST BASED ON AUTO OBS. NXT FCST BY 312000Z", "TAF CYCB 311240Z 3113/0101 32010KT P6SM FEW015 TEMPO 3117/0101 BKN015 RMK NXT FCST BY 311900Z", "TAF CYCO 311240Z 3113/0101 21010KT P6SM SCT012 BKN025 TEMPO 3113/0101 3SM -SN BKN012 RMK NXT FCST BY 311900Z", "TAF AMD CYCX 311008Z 3110/3122 23005KT P6SM FEW020 SCT230 BECMG 3111/3113 BKN230 RMK NXT FCST BY 311500Z", "TAF AMD CYCY 311315Z 3113/0101 VRB03KT P6SM -SN FEW015 SCT030 BKN150 TEMPO 3113/0101 4SM -SN -SG BKN015 OVC030 BECMG 3114/3116 30012KT RMK FCST BASED ON AUTO OBS. NXT FCST BY 311900Z", "TAF CYDB 311140Z 3112/3124 30008KT P6SM SCT030 BKN060 TEMPO 3112/3124 3SM -SN BKN020 OVC040 RMK FCST BASED ON AUTO OBS. NXT FCST BY 311800Z", "TAF CYDF 311340Z 3114/0102 VRB03KT P6SM FEW025 FEW200 BECMG 3114/3116 24012G22KT FM311700 24015G25KT P6SM FEW030 FEW240 BECMG 3120/3122 25010KT FM010000 31005KT P6SM FEW240 RMK NXT FCST BY 312000Z", "TAF CYDL 311240Z 3113/3124 VRB03KT P6SM FEW050 SCT080 BKN140 FM311500 15007KT P6SM SCT040 BKN080 TEMPO 3115/3124 5SM -SHSN BKN030 RMK FCST BASED ON AUTO OBS. NXT FCST BY 311800Z", "TAF CYDN 311140Z 3112/3124 23015KT P6SM SKC BECMG 3114/3116 26015KT BKN220 FM311800 27015KT P6SM BKN220 FM312300 27008KT P6SM BKN130 RMK FCST BASED ON AUTO OBS. NXT FCST BY 311800Z", "TAF CYDP 311340Z 3114/3123 30018G28KT P6SM FEW150 FEW230 BECMG 3115/3117 FEW040 RMK NXT FCST BY 312000Z", "TAF CYDQ 311240Z 3113/0101 VRB03KT P6SM SKC FM311900 23006KT P6SM SCT140 FM312300 26007KT P6SM VCSH BKN060 RMK FCST BASED ON AUTO OBS. NXT FCST BY 311900Z", "TAF CYEG 311140Z 3112/0112 20005KT P6SM FEW120 FM312000 18010KT P6SM FEW100 FM010300 16007KT P6SM VCSH BKN070 FM010600 VRB03KT P6SM FEW080 RMK NXT FCST BY 311500Z", "TAF AMD CYEK 311323Z 3113/3124 14010KT P6SM SCT005 BKN010 TEMPO 3113/3124 2SM -SN BKN005 OVC010 BECMG 3117/3119 32010KT RMK FCST BASED ON AUTO OBS. NXT FCST BY 311800Z", "TAF CYEN 311200Z 3112/3124 24010G20KT P6SM BKN240 BECMG 3115/3117 28010KT BKN200 FM311800 28010KT P6SM SCT200 FM312100 25008KT P6SM BKN080 BECMG 3123/3124 20007KT RMK FCST BASED ON AUTO OBS. NXT FCST BY 311800Z", "TAF CYER 310840Z 3109/3119 18010G20KT P6SM FEW007 BKN100 TEMPO 3109/3112 4SM BR BKN007 FM311500 18015G25KT P6SM BKN100 BECMG 3117/3119 23015G25KT RMK FCST BASED ON AUTO OBS. NXT FCST BY 311500Z", "TAF CYEU 311040Z 3111/3123 35010KT P6SM SKC TEMPO 3111/3123 4SM IC RMK ADVISORY OFFSITE. NXT FCST BY 311800Z", "TAF CYEV 311240Z 3113/0101 06005KT P6SM BKN025 TEMPO 3113/0101 6SM -SN BKN020 RMK NXT FCST BY 311900Z", "TAF CYFB 311140Z 3112/0112 32020G30KT P6SM SCT030 BKN100 TEMPO 3112/3115 3SM -SN BLSN BKN020 BECMG 3113/3115 33020KT FM311500 33018KT P6SM SCT020 TEMPO 3115/3124 BKN020 BECMG 3119/3121 35008KT FM010900 13015KT P6SM -SN SCT005 BKN015 RMK NXT FCST BY 311800Z", "TAF CYFC 311140Z 3112/3124 21005KT P6SM BKN220 BECMG 3113/3115 24010KT FM312200 18005KT P6SM OVC130 RMK FCST BASED ON AUTO OBS. NXT FCST BY 311800Z", "TAF CYFS 311140Z 3112/3124 33008KT P6SM -SN FEW008 SCT015 OVC030 TEMPO 3112/3115 2SM -SN BKN008 OVC015 FM311500 33012KT P6SM SCT015 BKN030 TEMPO 3115/3124 5SM -SN FEW008 BKN015 RMK NXT FCST BY 311800Z", "TAF CYGK 311340Z 3114/0102 18010KT P6SM BKN170 FM311800 18010KT P6SM SCT030 OVC060 TEMPO 3118/3121 P6SM -SHRA FM312100 15007KT P6SM -SHRA SCT015 OVC030 TEMPO 3121/0102 5SM -SHRA BR BKN015 OVC030 RMK NXT FCST BY 312000Z", "TAF CYGL 311140Z 3112/0112 VRB03KT P6SM SCT015 BKN160 TEMPO 3112/3118 BKN015 BKN160 BECMG 3114/3116 16010G20KT FM311800 18010G20KT P6SM BKN030 FM312000 18012KT P6SM FEW050 BKN150 FM010200 17015KT P6SM BKN020 OVC100 FM010500 24015G25KT P6SM SCT100 FM011100 27012G22KT P6SM BKN030 RMK NXT FCST BY 311800Z", "TAF CYGP 311340Z 3114/0102 32008KT P6SM BKN220 BECMG 3120/3122 VRB03KT RMK NXT FCST BY 312000Z", "TAF CYGQ 311340Z 3114/0102 VRB03KT P6SM BKN170 BECMG 3114/3116 21008KT SCT170 FM312000 20012G22KT P6SM FEW240 FM010000 21010KT P6SM BKN200 RMK FCST BASED ON AUTO OBS. NXT FCST BY 312000Z", "TAF CYGR 311340Z 3114/0102 25015G25KT P6SM SCT240 FM311800 28010G20KT P6SM SCT150 BKN200 BECMG 3118/3120 30010KT BECMG 3123/0101 VRB03KT RMK NXT FCST BY 312000Z", "TAF CYGT 311140Z 3112/3122 25015KT P6SM FEW015 BKN030 TEMPO 3112/3122 6SM -SN BKN015 RMK NXT FCST BY 311900Z", "TAF CYGV 311340Z 3114/0102 27012G22KT P6SM SKC BECMG 3116/3118 32010KT FM312100 02006KT P6SM BKN240 RMK FCST BASED ON AUTO OBS. NXT FCST BY 312000Z", "TAF CYGW 311140Z 3112/3124 VRB03KT P6SM BKN020 BKN190 TEMPO 3112/3114 SCT020 BKN190 FM311400 18010G20KT P6SM SCT020 BKN160 TEMPO 3114/3118 BKN020 BKN160 FM311800 16010G20KT P6SM BKN030 BKN160 FM312300 17015G25KT P6SM BKN100 RMK FCST BASED ON AUTO OBS. NXT FCST BY 311800Z", "TAF CYGX 311240Z 3113/0101 19012KT P6SM FEW120 BECMG 3114/3116 BKN100 FM311600 23010KT P6SM OVC090 TEMPO 3116/3118 P6SM -SHRA BKN050 FM311800 24012KT P6SM SCT020 BKN040 BECMG 3119/3120 P6SM -SHRA OVC015 FM312000 28015G25KT P6SM -SHRA OVC015 TEMPO 3120/3123 5SM -SHRA BR OVC010 FM312300 29015G25KT P6SM VCSH SCT008 OVC012 TEMPO 3123/0101 3SM -SHRASN BR OVC008 RMK NXT FCST BY 311900Z", "TAF CYHA 311340Z 3114/3121 32020G30KT P6SM OVC025 TEMPO 3114/3119 P6SM -SN FEW008 OVC015 BECMG 3117/3119 33015KT FM311900 33015KT P6SM OVC025 TEMPO 3119/3121 P6SM -SN OVC015 BECMG 3119/3121 30008KT RMK NXT FCST BY 011400Z", "TAF CYHD 311340Z 3114/0102 17009KT P6SM SCT220 BECMG 3114/3116 20010G20KT FM311800 22010G20KT P6SM BKN220 FM312100 24015G25KT P6SM BKN180 FM010000 25012KT P6SM OVC150 RMK FCST BASED ON AUTO OBS. NXT FCST BY 312000Z", "TAF CYHK 311140Z 3112/3124 27010KT 6SM -SN OVC015 TEMPO 3112/3124 P6SM NSW SCT015 BKN025 BECMG 3113/3115 30015KT RMK FCST BASED ON AUTO OBS. NXT FCST BY 311800Z", "TAF AMD CYHM 311219Z 3112/0112 07005KT P6SM -SHRA SCT008 OVC030 TEMPO 3112/3115 1 1/2SM -SHRA BR OVC008 FM311500 07005KT 2SM SHRA BR OVC004 TEMPO 3115/3117 6SM -SHRA BR SCT004 OVC030 FM311700 20007KT 5SM -SHRA BR BKN006 OVC015 TEMPO 3117/3124 P6SM NSW SCT006 OVC015 FM010000 21010KT P6SM SCT006 OVC012 PROB30 0100/0112 OVC005 RMK NXT FCST BY 311800Z", "TAF CYHU 311140Z 3112/0112 VRB03KT P6SM BKN200 FM311400 VRB03KT P6SM BKN150 BKN200 BECMG 3115/3117 17008KT FM312200 16006KT P6SM BKN100 BKN200 FM010300 VRB03KT P6SM -RA SCT015 OVC030 FM010600 VRB03KT 5SM -RA BR FEW008 OVC015 FM010800 VRB03KT 2SM -RA -DZ BR OVC008 PROB30 0110/0112 1SM -DZ BR OVC004 RMK FCST BASED ON AUTO OBS. NXT FCST BY 311800Z", "TAF CYHY 311140Z 3112/3124 35008KT P6SM -SN SCT012 OVC025 TEMPO 3112/3124 3SM -SHSN OVC012 BECMG 3114/3116 03006KT RMK NXT FCST BY 311800Z", "TAF CYHZ 311140Z 3112/0112 22008KT P6SM SCT100 SCT250 BECMG 3112/3114 24012KT BECMG 3120/3122 20005KT FM010300 23005KT P6SM BKN020 FM010500 22005KT 3SM BR OVC008 FM011000 22010KT 2 1/2SM -RA BR OVC005 RMK NXT FCST BY 311500Z", "TAF CYIK 311340Z 3114/3121 14005KT P6SM -SN BKN020 BKN050 TEMPO 3114/3116 P6SM NSW SCT020 BKN050 BECMG 3114/3116 14015KT FM311600 14015KT P6SM SCT020 BKN050 BECMG 3116/3118 14020G30KT BECMG 3119/3121 14025G35KT RMK NXT FCST BY 011400Z", "TAF CYIO 311240Z 3113/0101 VRB03KT 6SM -SN SCT012 OVC030 TEMPO 3113/3116 2SM -SN BKN008 OVC012 BECMG 3114/3116 23008KT FM311600 23008KT P6SM -SN BKN030 TEMPO 3116/0101 4SM -SN BKN020 RMK FCST BASED ON AUTO OBS. NXT FCST BY 311900Z", "TAF CYIV 311240Z 3113/0101 18005KT P6SM SCT130 TEMPO 3114/3116 BKN130 BECMG 3114/3116 21010KT FM311700 25015G25KT P6SM SCT050 BKN090 TEMPO 3117/3119 BKN050 FM312100 28015G25KT P6SM SCT050 TEMPO 3121/3123 BKN050 FM312300 29015G25KT P6SM BKN030 RMK FCST BASED ON AUTO OBS. NXT FCST BY 311900Z", "TAF CYJT 311140Z 3112/0112 36004KT P6SM FEW040 FEW220 BECMG 3112/3114 23012G22KT FM311500 25015G25KT P6SM FEW030 FEW240 BECMG 3115/3117 25018G28KT BECMG 3118/3120 29012G22KT FM312100 29012KT P6SM FEW020 FEW240 BECMG 3122/3124 31005KT FM010000 32005KT P6SM FEW240 FM010300 05007KT P6SM FEW006 BKN220 FM010900 06009KT P6SM FEW006 BKN100 RMK NXT FCST BY 311800Z", "TAF CYKA 311240Z 3113/0101 VRB03KT P6SM FEW080 BKN160 BECMG 3115/3117 21012KT RMK NXT FCST BY 311900Z", "TAF CYKF 311340Z 3114/0102 14005KT 3/4SM -SHRA BR OVC004 TEMPO 3114/3115 3SM BR SCT004 OVC015 FM311500 14008KT 3/4SM -SHRA BR OVC004 TEMPO 3115/3117 6SM -SHRA BR SCT004 OVC008 FM311700 14008KT 5SM -SHRA BR OVC004 TEMPO 3117/3119 P6SM NSW SCT004 OVC012 FM311900 19008KT 4SM -SHRA -DZ BR BKN004 OVC015 TEMPO 3119/0102 P6SM NSW SCT004 OVC015 RMK FCST BASED ON AUTO OBS. AUTO OBS REP NON-REPRESENTATIVE PCPN. NXT FCST BY 312000Z", "TAF CYKG 311340Z 3114/3121 33015G25KT P6SM -SN OVC020 TEMPO 3114/3119 P6SM NSW OVC025 FM311900 27008KT P6SM SCT020 BKN050 BECMG 3119/3121 20010KT RMK NXT FCST BY 011400Z", "TAF AMD CYKJ 311302Z 3113/3124 30012G22KT P6SM FEW012 OVC030 TEMPO 3113/3118 1 1/2SM -SHSN OVC012 FM311800 33008KT P6SM BKN030 TEMPO 3118/3124 5SM -SN OVC020 RMK FCST BASED ON AUTO OBS. NXT FCST BY 311900Z", "TAF CYKL 311340Z 3114/0102 31008G18KT P6SM BKN020 TEMPO 3114/3116 BKN030 FM311800 28008KT P6SM FEW015 BKN240 BECMG 3120/3122 26004KT FM312200 26004KT P6SM FEW005 BKN160 RMK FCST BASED ON AUTO OBS. NXT FCST BY 312000Z", "TAF CYLD 311340Z 3114/0101 20005KT P6SM BKN200 FM311700 21008KT P6SM SCT200 RMK NXT FCST BY 312000Z", "TAF CYLL 311140Z 3112/3124 28012KT P6SM BKN120 RMK FCST BASED ON AUTO OBS. NXT FCST BY 311800Z", "TAF AMD CYLT 311311Z 3113/0101 29010KT P6SM SCT030 TEMPO 3113/3116 BKN030 BECMG 3114/3116 31012G22KT FM311600 31012G22KT P6SM BKN030 TEMPO 3116/0101 4SM -SN BLSN OVC020 PROB30 3116/0101 3/4SM -SN BLSN OVC008 RMK NXT FCST BY 311800Z", "TAF CYLW 311240Z 3113/0101 VRB03KT P6SM BKN140 BECMG 3115/3117 24012KT FM311700 24012KT P6SM SCT060 TEMPO 3117/0101 P6SM -SHRA BKN060 RMK FCST BASED ON AUTO OBS. NXT FCST BY 311900Z", "TAF CYMA 311140Z 3112/3124 01010KT P6SM SCT030 BKN060 TEMPO 3112/3124 5SM -SN BKN020 OVC050 RMK NXT FCST BY 311800Z", "TAF CYMH 311340Z 3114/0102 18008KT 5SM -SHRA BR BKN020 BKN100 TEMPO 3114/3118 P6SM NSW BKN100 BECMG 3114/3116 29012G22KT FM311800 34015G25KT 5SM -RA -DZ BR FEW008 BKN012 TEMPO 3118/3121 P6SM NSW BKN020 BECMG 3119/3121 33015G25KT FM312100 33015G25KT P6SM BKN020 FM010000 32010G20KT P6SM SCT030 RMK FCST BASED ON AUTO OBS. NXT FCST BY 312000Z", "TAF CYMM 311240Z 3113/0101 35005KT P6SM BKN030 TEMPO 3113/3120 BKN020 FM312000 06007KT P6SM BKN040 RMK FCST BASED ON AUTO OBS. NXT FCST BY 311900Z", "TAF CYMO 311140Z 3112/3124 VRB03KT P6SM SKC FM311500 16008KT P6SM SCT200 FM311700 16010KT P6SM BKN180 FM312200 20006KT P6SM FEW180 RMK FCST BASED ON AUTO OBS. NXT FCST BY 311800Z", "TAF CYMT 311140Z 3112/3124 VRB03KT P6SM SKC PROB30 3112/3113 2SM BR FM311600 15008KT P6SM BKN180 RMK FCST BASED ON AUTO OBS. NXT FCST BY 311800Z", "TAF CYMX 311140Z 3112/0112 VRB03KT P6SM BKN220 FM311400 22005KT P6SM BKN150 BKN200 FM312200 VRB03KT P6SM BKN100 BKN200 FM010200 27005KT P6SM -RA SCT015 OVC030 FM010400 VRB03KT 5SM -RA BR FEW008 OVC015 FM010600 VRB03KT 2SM -RA -DZ BR OVC008 PROB30 0108/0112 3/4SM -DZ BR OVC003 RMK NXT FCST BY 311800Z", "TAF CYNA 311340Z 3114/0102 26012G22KT P6SM SKC BECMG 3117/3119 33010KT FM010000 02005KT P6SM BKN240 RMK FCST BASED ON AUTO OBS. NXT FCST BY 312000Z", "TAF CYND 311240Z 3113/0101 VRB03KT P6SM BKN170 BKN220 FM312300 VRB03KT P6SM BKN030 OVC090 RMK NXT FCST BY 311800Z", "TAF CYNE 311240Z 3113/0101 18008KT P6SM SCT100 TEMPO 3113/3116 BKN100 BECMG 3114/3116 25010KT FM311700 27012G22KT P6SM SKC FM312300 27012G22KT P6SM SCT040 TEMPO 3123/0101 BKN040 RMK FCST BASED ON AUTO OBS. NXT FCST BY 311900Z", "TAF CYOD 311140Z 3112/0112 24010KT P6SM FEW150 BECMG 3118/3120 27010G20KT FM010100 VRB03KT P6SM BKN120 FM010800 09005KT P6SM FEW060 BKN080 BKN120 RMK NXT FCST BY 311500Z", "TAF CYOJ 311240Z 3113/0101 35005KT P6SM BKN025 TEMPO 3113/0101 FEW008 BKN020 RMK FCST BASED ON AUTO OBS. NXT FCST BY 311900Z", "TAF CYOO 311340Z 3114/0102 VRB03KT P6SM -SHRA SCT020 OVC090 TEMPO 3114/3116 5SM -SHRA BR BKN020 OVC090 FM311600 08005KT 3SM -SHRA BR SCT005 OVC030 TEMPO 3116/3120 2SM -SHRA BR OVC008 FM312000 08007KT P6SM SCT007 OVC015 TEMPO 3120/3124 5SM -SHRA BR BKN007 OVC015 FM010000 VRB03KT 3SM -RA -DZ BR OVC005 RMK FCST BASED ON AUTO OBS. NXT FCST BY 312000Z", "TAF CYOW 311140Z 3112/0112 17008KT P6SM BKN180 FM312200 18006KT P6SM BKN030 OVC090 FM010000 18005KT P6SM -RA SCT015 OVC025 FM010200 18005KT 5SM -RA BR SCT008 OVC015 FM010400 VRB03KT 2SM -RA BR OVC006 PROB30 0104/0112 3/4SM -RA -DZ BR OVC003 RMK NXT FCST BY 311500Z", "TAF AMD CYOY 311204Z 3112/3124 VRB03KT P6SM FEW080 BKN170 RMK NXT FCST BY 311800Z", "TAF CYPA 311242Z 3113/0101 25008KT P6SM SCT110 BKN250 TEMPO 3113/3116 BKN110 FM311700 27008KT P6SM FEW140 BECMG 3117/3119 29012KT FM312300 28005KT P6SM SKC RMK NXT FCST BY 311900Z", "TAF CYPE 311240Z 3113/0101 27010KT P6SM SKC TEMPO 3113/3116 18008KT RMK NXT FCST BY 311900Z", "TAF AMD CYPG 311205Z 3112/3124 22015KT P6SM SCT220 FM311800 26015KT P6SM BKN180 BKN220 RMK NXT FCST BY 311800Z", "TAF CYPH 311140Z 3112/3124 10005KT P6SM OVC025 TEMPO 3112/3114 OVC020 FM311400 13012G22KT P6SM SCT020 BKN200 TEMPO 3114/3117 BKN020 BKN200 FM311700 17015G25KT P6SM SCT020 BKN160 FM312000 17020G30KT P6SM BKN150 FM312300 17020G30KT 4SM -RA BR OVC007 RMK FCST BASED ON AUTO OBS. NXT FCST BY 311800Z", "TAF CYPL 311340Z 3114/0102 19010G20KT P6SM SCT160 BKN190 FM311700 22012G22KT P6SM SKC BECMG 3117/3119 22015G25KT FM010000 25012G22KT P6SM SCT230 BECMG 0100/0102 26012KT RMK FCST BASED ON AUTO OBS. NXT FCST BY 312000Z", "TAF CYPQ 311340Z 3114/0102 VRB03KT P6SM OVC120 FM311500 16006KT P6SM -SHRA SCT010 OVC060 TEMPO 3115/3117 5SM -SHRA BR FM311700 16006KT 6SM -SHRA BR SCT008 OVC030 TEMPO 3117/3121 2SM -SHRA BR OVC008 FM312100 16006KT 3SM -SHRA BR BKN005 OVC030 TEMPO 3121/3123 P6SM NSW SCT005 OVC030 PROB30 3121/3123 1SM -SHRA BR OVC003 FM312300 VRB03KT 3SM -SHRA BR BKN005 OVC012 TEMPO 3123/0102 P6SM NSW SCT005 OVC012 PROB40 3123/0102 1SM -SHRA BR OVC003 RMK FCST BASED ON AUTO OBS. NXT FCST BY 312000Z", "TAF CYPR 311240Z 3113/0101 VRB03KT P6SM SCT015 BKN025 TEMPO 3113/0101 4SM -SHRA BR BKN015 RMK FCST BASED ON AUTO OBS. NXT FCST BY 311900Z", "TAF CYPX 311140Z 3112/3124 VRB03KT P6SM OVC030 TEMPO 3112/3124 6SM -SN OVC020 BECMG 3113/3115 12015KT RMK FCST BASED ON AUTO OBS. NXT FCST BY 311800Z", "TAF CYPY 311149Z 3112/3124 32008KT P6SM SCT020 OVC040 TEMPO 3112/3119 5SM -SN BKN020 OVC040 RMK FCST BASED ON AUTO OBS. NXT FCST BY 311800Z", "TAF CYQA 311340Z 3114/0102 13005KT P6SM OVC120 TEMPO 3114/3118 P6SM -SHRA FM311800 16006KT P6SM -SHRA BKN025 OVC050 TEMPO 3118/3122 5SM -SHRA BR SCT008 OVC020 FM312200 16006KT 5SM -SHRA BR BKN006 OVC030 TEMPO 3122/0102 P6SM NSW SCT006 OVC030 RMK FCST BASED ON AUTO OBS. NXT FCST BY 312000Z", "TAF CYQB 311140Z 3112/0112 VRB03KT P6SM BKN190 PROB30 3112/3113 1/2SM FG VV002 FM311600 24008KT P6SM BKN150 BECMG 3122/3124 VRB03KT FM010500 VRB03KT P6SM OVC080 FM010900 VRB03KT P6SM OVC030 FM011100 VRB03KT P6SM OVC020 RMK NXT FCST BY 311800Z", "TAF CYQD 311240Z 3113/0101 23005KT P6SM FEW100 FM311500 26008KT P6SM SKC BECMG 3117/3119 27012G22KT FM312300 29012G22KT P6SM SCT040 BECMG 0100/0101 BKN040 RMK FCST BASED ON AUTO OBS. NXT FCST BY 311900Z", "TAF CYQF 311140Z 3112/3124 VRB03KT P6SM OVC040 TEMPO 3112/3116 5SM -SN OVC020 FM311600 VRB03KT P6SM BKN040 BECMG 3118/3120 FEW050 FM312100 16008KT P6SM SKC RMK NXT FCST BY 311800Z", "TAF CYQG 311140Z 3112/0112 14005KT 2SM -SHRA BR OVC005 TEMPO 3112/3115 6SM BR SCT005 OVC010 FM311500 20008KT 6SM -SHRA BR OVC006 TEMPO 3115/3118 5SM -SHRA BR OVC005 FM311800 21010KT P6SM -SHRA SCT006 OVC015 FM312000 21010KT P6SM SCT020 BKN030 FM010000 23007KT P6SM FEW004 OVC015 FM010300 20005KT 2SM BR OVC004 BECMG 0106/0108 27008KT RMK FCST BASED ON AUTO OBS. NXT FCST BY 311800Z", "TAF CYQH 311140Z 3112/3124 VRB03KT P6SM FEW040 SCT080 TEMPO 3112/3124 SCT040 BKN080 RMK NXT FCST BY 311800Z", "TAF CYQI 311140Z 3112/3124 24007KT P6SM FEW150 BKN220 BECMG 3112/3114 24012KT FM312100 22012KT P6SM BKN010 BKN180 RMK NXT FCST BY 311800Z", "TAF CYQK 311340Z 3114/0102 19010KT P6SM SCT160 BECMG 3114/3116 19010G20KT FM311800 22010G20KT P6SM SCT220 BECMG 3119/3121 SCT170 BECMG 3122/3124 27008KT RMK NXT FCST BY 312000Z", "TAF CYQL 311145Z 3112/3124 VRB03KT P6SM BKN220 BECMG 3116/3118 29010G20KT FM311800 29010G20KT P6SM BKN080 OVC220 RMK FCST BASED ON AUTO OBS. NXT FCST BY 311800Z", "TAF CYQM 311140Z 3112/0112 23010KT P6SM BKN220 BECMG 3119/3121 24006KT FM010300 22005KT 5SM BR BKN010 BKN120 FM010600 22005KT 2 1/2SM -RA -DZ BR OVC100 RMK NXT FCST BY 311800Z", "TAF AMD CYQQ 311336Z 3113/0112 VRB03KT P6SM SCT010 BKN030 TEMPO 3113/3121 4SM -RA BR BKN005 OVC030 FM010500 VRB03KT P6SM SCT030 RMK NXT FCST BY 311800Z", "TAF CYQR 311158Z 3112/0112 27008KT P6SM SKC BECMG 3114/3116 BKN180 FM311800 31006KT P6SM SCT100 SCT180 FM312100 VRB03KT P6SM BKN070 TEMPO 3121/0102 P6SM -SHRA OVC050 BECMG 3123/0101 05005KT FM010300 04012KT P6SM SCT010 BKN060 TEMPO 0104/0106 BKN010 FM010600 04008KT P6SM BKN008 TEMPO 0107/0109 1/2SM FG VV004 FM010900 09008KT 1/2SM FG VV004 TEMPO 0110/0112 1/4SM FG VV002 BECMG 0110/0112 12008KT RMK NXT FCST BY 311800Z", "TAF CYQT 311340Z 3114/0102 VRB03KT P6SM SCT240 BECMG 3116/3118 15009KT FM312100 19010KT P6SM BKN240 FM010000 22009KT P6SM SCT200 RMK NXT FCST BY 312000Z", "TAF CYQU 311240Z 3113/0101 25005KT P6SM SKC FM312000 10007KT P6SM SCT180 RMK NXT FCST BY 311900Z", "TAF CYQV 311200Z 3112/3124 24010KT P6SM SKC BECMG 3115/3117 29010KT FM312100 29010KT P6SM BKN120 BECMG 3122/3124 28005KT RMK FCST BASED ON AUTO OBS. NXT FCST BY 311800Z", "TAF CYQW 311148Z 3112/3124 27008KT P6SM OVC100 FM311800 31012KT P6SM BKN110 BECMG 3120/3122 32008KT SCT110 FM312300 01004KT P6SM SKC RMK FCST BASED ON AUTO OBS. NXT FCST BY 311800Z", "TAF CYQX 311140Z 3112/0112 23012G22KT P6SM FEW012 FEW080 FEW200 BECMG 3114/3116 23018G28KT FM311600 23018G28KT P6SM FEW040 FEW240 FM312100 29015G25KT P6SM SCT040 BECMG 3122/3124 33010KT SCT030 FM010300 36008KT P6SM FEW005 BKN015 PROB30 0103/0109 3SM BR BKN008 FM010900 06008KT P6SM BKN015 BKN180 BECMG 0110/0112 14008KT RMK NXT FCST BY 311800Z", "TAF CYQY 311140Z 3112/3124 22008KT P6SM FEW120 SCT250 FM311500 24012G22KT P6SM BKN220 BECMG 3120/3122 27010KT RMK NXT FCST BY 311800Z", "TAF CYQZ 311140Z 3112/3124 VRB03KT P6SM SCT050 BKN090 TEMPO 3112/3115 P6SM -SN BKN050 FM311500 VRB03KT P6SM -SHRASN SCT025 BKN050 TEMPO 3115/3121 3SM -SHSN FEW008 BKN020 FM312100 VRB03KT P6SM FEW030 SCT080 RMK FCST BASED ON AUTO OBS. NXT FCST BY 311900Z", "TAF CYRB 311140Z 3112/0112 32008KT P6SM OVC030 TEMPO 3112/3118 5SM -SN OVC020 FM311800 02012KT P6SM SCT030 TEMPO 3118/0112 5SM IC BECMG 3122/3124 02018KT RMK NXT FCST BY 311800Z", "TAF CYRJ 311340Z 3114/0102 24008KT P6SM FEW160 BKN220 BECMG 3116/3118 11005KT FM312100 10005KT P6SM OVC090 BECMG 0100/0102 22008KT RMK NXT FCST BY 312000Z", "TAF CYRL 311340Z 3114/0102 18006KT P6SM BKN150 BKN240 BECMG 3114/3116 21010G20KT SCT240 FM311800 24012G22KT P6SM BKN240 FM312100 25012G22KT P6SM BKN200 BECMG 3122/3124 26010KT SCT200 RMK NXT FCST BY 312000Z", "TAF CYRQ 311340Z 3114/0102 VRB03KT P6SM BKN200 FM311600 20006KT P6SM BKN150 BKN200 FM010100 VRB03KT P6SM BKN100 BKN150 RMK FCST BASED ON AUTO OBS. NXT FCST BY 312000Z", "TAF CYRT 311140Z 3112/3124 13018KT 3/4SM -SN BLSN BKN004 OVC015 TEMPO 3112/3115 3SM -SN SCT005 BKN015 BECMG 3119/3121 04030G40KT FM312100 04030G40KT 1/2SM SHSN BLSN VV002 TEMPO 3121/3124 2SM -SN BLSN OVC010 RMK NXT FCST BY 311800Z", "TAF CYSB 311340Z 3114/0102 12005KT 1/2SM FG VV001 BECMG 3114/3116 P6SM NSW FEW004 BKN140 FM311800 21008KT P6SM FEW020 BKN140 FM312200 18008KT P6SM SCT120 PROB30 0101/0102 2SM BR RMK NXT FCST BY 312000Z", "TAF CYSC 311040Z 3111/3123 10005KT P6SM FEW025 SCT200 RMK FCST BASED ON AUTO OBS. NXT FCST BY 311800Z", "TAF AMD CYSF 311230Z 3112/3124 34008G18KT P6SM BKN030 TEMPO 3112/3118 5SM -SN BKN020 FM311800 36007KT P6SM FEW030 RMK FCST BASED ON AUTO OBS. NXT FCST BY 311800Z", "TAF CYSJ 311140Z 3112/3124 VRB03KT P6SM BKN220 BECMG 3113/3115 23010KT FM312300 22010KT P6SM BKN008 OVC150 RMK NXT FCST BY 311800Z", "TAF AMD CYSM 311318Z 3113/3124 03008KT P6SM -SN FEW010 OVC020 TEMPO 3113/3117 3SM -SN SCT008 OVC015 FM311700 VRB03KT P6SM SCT015 OVC025 TEMPO 3117/3124 P6SM -SN SCT015 OVC020 RMK NXT FCST BY 311800Z", "TAF CYSN 311240Z 3113/0101 VRB03KT P6SM -SHRA SCT020 OVC060 TEMPO 3113/3115 2SM -SHRA BR BKN007 OVC060 FM311500 19008KT P6SM -SHRA SCT007 OVC015 TEMPO 3115/3117 5SM -SHRA BR OVC007 FM311700 19008KT P6SM SCT007 OVC030 TEMPO 3117/0101 5SM -SHRA BR BKN007 OVC030 RMK NXT FCST BY 312000Z", "TAF CYSP 311340Z 3114/3121 16005KT P6SM SCT170 TEMPO 3114/3118 BKN004 BKN170 FM311800 20008KT P6SM FEW008 TEMPO 3118/3121 BKN006 RMK NXT FCST BY 011400Z", "TAF CYTE 311240Z 3113/0101 29008KT P6SM -SN OVC025 TEMPO 3113/0101 5SM -SN OVC015 BECMG 3116/3118 14010KT RMK FCST BASED ON AUTO OBS. NXT FCST BY 311900Z", "TAF CYTH 311240Z 3113/0101 21006KT P6SM BKN080 TEMPO 3113/3115 P6SM -SHRA BKN040 BECMG 3115/3116 SCT120 FM311600 25006KT P6SM FEW140 BECMG 3117/3118 27012G22KT BKN030 FM311800 27015G25KT P6SM -SHRA BKN025 TEMPO 3118/3122 BKN020 FM312200 29015G25KT P6SM BKN025 TEMPO 3122/0101 5SM -SHRASN BKN020 BECMG 3123/0101 29010G20KT RMK NXT FCST BY 311900Z", "TAF CYTL 311340Z 3114/0102 18010KT P6SM BKN090 BECMG 3114/3116 19012G22KT FM311700 22015G25KT P6SM SCT100 BECMG 3118/3120 24012G22KT FM312100 24012KT P6SM SCT040 TEMPO 3121/3124 BKN040 FM010000 27012KT P6SM BKN050 RMK FCST BASED ON AUTO OBS. NXT FCST BY 312000Z", "TAF CYTQ 311340Z 3114/3121 33012KT P6SM SCT030 TEMPO 3114/3118 SCT020 BKN030 FM311800 27010KT P6SM BKN030 TEMPO 3118/3121 BKN020 RMK NXT FCST BY 011400Z", "TAF CYTR 311140Z 3112/0112 VRB03KT P6SM BKN140 OVC200 FM311600 VRB03KT P6SM OVC070 TEMPO 3116/3118 P6SM -SHRA FM311800 VRB03KT 5SM -RA BR OVC012 TEMPO 3118/3122 P6SM -RA SCT012 OVC030 FM312200 VRB03KT 3SM -RA BR OVC008 FM010100 VRB03KT 2SM -DZ BR OVC005 RMK NXT FCST BY 311800Z", "TAF CYTS 311340Z 3114/0102 VRB03KT P6SM FEW060 BKN150 BKN220 TEMPO 3114/3115 5SM BR FM311900 18006KT P6SM BKN200 FM010000 20005KT P6SM SCT200 RMK NXT FCST BY 312000Z", "TAF CYTZ 311340Z 3114/0114 VRB03KT P6SM -SHRA OVC040 TEMPO 3114/3115 2SM -SHRA BR BKN008 OVC040 FM311500 05010KT 6SM -SHRA BR SCT005 OVC030 TEMPO 3115/3117 2SM -SHRA BR BKN005 OVC030 FM311700 07007KT 5SM -SHRA BR BKN005 OVC015 TEMPO 3117/3120 P6SM NSW SCT005 OVC015 PROB30 3120/3123 1SM -SHRA BR OVC003 FM312300 VRB03KT 1/2SM -DZ FG VV002 FM010700 VRB03KT 2SM BR BKN003 OVC010 PROB30 0107/0112 1/2SM FG VV002 FM011200 26005KT 6SM BR BKN005 OVC040 RMK FCST BASED ON AUTO OBS. NXT FCST BY 312000Z", "TAF CYUL 311140Z 3112/0112 VRB03KT P6SM BKN220 FM311400 VRB03KT P6SM BKN150 BKN200 BECMG 3115/3117 15008KT FM312200 16006KT P6SM BKN100 BKN200 FM010300 VRB03KT P6SM -RA SCT015 OVC030 FM010500 VRB03KT 5SM -RA BR FEW008 OVC015 FM010700 VRB03KT 2SM -RA -DZ BR OVC008 PROB30 0110/0112 3/4SM -DZ BR OVC003 RMK NXT FCST BY 311500Z", "TAF CYUT 311340Z 3114/3122 02005KT P6SM SCT040 TEMPO 3114/3122 FEW015 BKN040 BECMG 3114/3116 02010KT RMK NXT FCST BY 311900Z", "TAF CYUX 311240Z 3113/0101 28010KT P6SM BKN030 TEMPO 3113/0101 5SM -SN BKN020 BECMG 3114/3116 27015KT RMK FCST BASED ON AUTO OBS. NXT FCST BY 311900Z", "TAF CYUY 311140Z 3112/3124 VRB03KT P6SM BKN180 FM311500 19010KT P6SM OVC090 BECMG 3116/3118 20012KT FM312300 20005KT P6SM FEW100 RMK NXT FCST BY 311800Z", "TAF CYVC 311243Z 3113/0101 27012G22KT P6SM SKC BECMG 3116/3118 BKN040 FM311800 28015G25KT P6SM BKN040 FM312000 30012G22KT P6SM BKN030 TEMPO 3120/3123 5SM -SHRASN BKN025 BECMG 3123/0101 31008KT RMK NXT FCST BY 311900Z", "TAF CYVM 311240Z 3113/0101 19006KT P6SM FEW020 TEMPO 3113/0101 P6SM -SN BKN020 BECMG 3116/3118 34008KT RMK FCST BASED ON AUTO OBS. NXT FCST BY 311900Z", "TAF CYVO 311140Z 3112/3124 VRB03KT P6SM BKN200 FM311500 18010KT P6SM OVC090 BECMG 3116/3118 20012KT FM312300 19005KT P6SM SCT090 RMK NXT FCST BY 311800Z", "TAF CYVP 311140Z 3112/3124 30010G20KT P6SM BKN030 TEMPO 3112/3120 BKN020 BECMG 3116/3118 27007KT FM312000 23007KT P6SM SCT030 RMK NXT FCST BY 311800Z", "TAF CYVQ 311140Z 3112/3124 29010KT P6SM SCT020 BKN030 OVC060 TEMPO 3112/3124 3SM -SN FEW008 OVC020 RMK NXT FCST BY 311800Z", "TAF CYVR 311140Z 3112/0118 09008KT P6SM FEW004 SCT020 OVC080 TEMPO 3112/3120 4SM -SHRA BR BKN020 FM312000 29008KT P6SM SCT030 TEMPO 3120/0118 BKN030 BECMG 0102/0104 09008KT RMK NXT FCST BY 311500Z", "TAF CYVT 311340Z 3114/0102 29012KT P6SM SCT015 BKN030 TEMPO 3114/3121 5SM -SN BKN015 OVC030 BECMG 3116/3118 32008KT FM312100 32006KT P6SM SCT020 BKN040 TEMPO 3121/0102 4SM -SN BR BKN020 OVC040 BECMG 0100/0102 03005KT RMK FCST BASED ON AUTO OBS. NXT FCST BY 312100Z", "TAF CYVV 311340Z 3114/3123 13005KT P6SM BKN060 BKN100 TEMPO 3114/3115 P6SM -SHRA FM311500 19006KT P6SM -SHRA BKN025 OVC050 TEMPO 3115/3120 5SM -SHRA BR SCT008 OVC020 FM312000 VRB03KT 5SM -DZ -RA BR BKN005 OVC030 TEMPO 3120/3123 P6SM NSW SCT005 OVC030 PROB30 3122/3123 OVC003 RMK NXT FCST BY 312000Z", "TAF CYWE 311240Z 3113/0101 08010G20KT P6SM -SN FEW025 SCT050 BKN090 TEMPO 3113/0101 5SM -SN BKN020 RMK FCST BASED ON AUTO OBS. NXT FCST BY 311900Z", "TAF CYWG 311140Z 3112/0112 22012G22KT P6SM SCT220 FM311700 27015KT P6SM BKN200 FM312100 29015KT P6SM BKN150 BECMG 3123/0101 29008KT BECMG 0101/0103 17005KT FM010300 17005KT P6SM BKN090 FM010800 13004KT P6SM SCT080 FM011100 07010KT P6SM BKN080 RMK NXT FCST BY 311800Z", "TAF CYWK 311340Z 3114/0102 33008G18KT P6SM BKN020 TEMPO 3114/3116 BKN030 FM311600 32010KT P6SM SCT020 TEMPO 3116/3118 BKN020 FM311800 29006KT P6SM FEW015 BKN220 BECMG 3121/3123 VRB03KT FM312300 VRB03KT P6SM FEW005 BKN180 RMK NXT FCST BY 312000Z", "TAF CYWL 311240Z 3113/0101 08005KT P6SM SCT060 BKN100 FM311500 12007KT P6SM SCT030 BKN060 TEMPO 3115/3121 5SM -SHRASN BR BKN030 OVC060 FM312100 12007KT P6SM FEW040 SCT070 RMK NXT FCST BY 311900Z", "TAF CYXC 311240Z 3113/0101 27007KT P6SM -SHRA BKN050 TEMPO 3113/0101 P6SM NSW RMK NXT FCST BY 311900Z", "TAF CYXE 311152Z 3112/0112 27010KT P6SM BKN100 BECMG 3119/3121 31008KT FM312100 31006KT P6SM SCT100 BECMG 0100/0102 04003KT FM010500 06004KT P6SM SCT250 BECMG 0107/0109 12004KT FM011100 09006KT P6SM BKN060 RMK NXT FCST BY 311800Z", "TAF CYXH 311147Z 3112/3124 VRB03KT P6SM BKN070 FM311900 36010G20KT P6SM BKN080 BECMG 3119/3121 06008KT RMK FCST BASED ON AUTO OBS. NXT FCST BY 311800Z", "TAF CYXJ 311240Z 3113/0101 20006KT P6SM SKC FM311900 21007KT P6SM SCT120 FM312300 18007KT P6SM VCSH BKN060 RMK NXT FCST BY 311900Z", "TAF CYXL 311340Z 3114/0102 18007KT P6SM SCT120 BECMG 3114/3116 21010G20KT SCT240 FM311800 24010G20KT P6SM SCT200 FM312100 24012G22KT P6SM BKN190 FM010000 26010KT P6SM OVC150 RMK NXT FCST BY 312000Z", "TAF CYXP 311240Z 3113/3122 25012KT P6SM -SN BKN030 TEMPO 3113/3122 5SM -SN BKN020 RMK NXT FCST BY 311900Z", "TAF CYXR 311140Z 3112/3124 VRB03KT P6SM BKN150 FM311600 20010KT P6SM BKN100 FM312100 20008KT P6SM SCT100 RMK FCST BASED ON AUTO OBS. NXT FCST BY 311800Z", "TAF CYXS 311240Z 3113/0101 VRB03KT P6SM FEW060 SCT120 FM311500 19007KT P6SM SCT030 BKN050 TEMPO 3115/3121 5SM -SHRASN BR BKN030 FM312100 21010KT P6SM FEW040 SCT080 RMK FCST BASED ON AUTO OBS. NXT FCST BY 311900Z", "TAF CYXT 311240Z 3113/0101 17007KT P6SM SCT004 BKN015 OVC030 TEMPO 3113/0101 4SM -SHRA BR BKN004 RMK NXT FCST BY 311900Z", "TAF CYXU 311140Z 3112/0112 08005KT 1 1/2SM -SHRA BR SCT002 BKN005 OVC010 TEMPO 3112/3114 6SM -SHRA BR SCT005 OVC010 PROB30 3112/3114 OVC002 FM311400 14008KT 5SM -SHRA BR OVC004 TEMPO 3114/3119 P6SM -SHRA OVC006 FM311900 18008KT P6SM -SHRA BKN004 OVC015 FM010000 21008KT 6SM BR BKN004 OVC010 FM010600 23006KT 1SM BR OVC003 RMK NXT FCST BY 311800Z", "TAF CYXX 311140Z 3112/0112 VRB03KT P6SM FEW040 BKN060 OVC100 TEMPO 3112/3122 5SM -SHRA BR OVC040 BECMG 3115/3117 21010KT FM312200 18010KT P6SM SCT030 TEMPO 3122/0112 BKN030 BECMG 0104/0106 VRB03KT RMK NXT FCST BY 311800Z", "TAF CYXY 311140Z 3112/3124 36003KT P6SM SCT005 BKN025 TEMPO 3112/3116 BKN005 FM311600 19005KT P6SM FEW030 SCT050 TEMPO 3116/3124 FEW005 BKN030 RMK NXT FCST BY 311800Z", "TAF CYXZ 311240Z 3113/3124 VRB03KT P6SM FEW050 SCT150 FM311600 22007KT P6SM FEW040 RMK NXT FCST BY 312000Z", "TAF CYYB 311340Z 3114/0102 VRB03KT P6SM BKN150 BECMG 3115/3117 20008KT FM312300 22005KT P6SM SCT150 RMK NXT FCST BY 312000Z", "TAF CYYC 311140Z 3112/0112 10005KT P6SM SCT060 BKN120 FM311300 06008KT P6SM BKN040 OVC120 TEMPO 3113/3117 6SM BR VCSH SCT012 OVC030 FM311700 07005KT P6SM FEW015 BKN050 BECMG 3117/3119 16010KT FEW040 FM312100 18009KT P6SM FEW090 FM010900 29008KT P6SM BKN080 BKN180 BECMG 0109/0111 36012KT RMK NXT FCST BY 311500Z", "TAF CYYD 311340Z 3114/0102 18005KT 5SM -SNRA BR OVC015 TEMPO 3114/3115 P6SM NSW SCT015 BKN070 FM311500 18005KT P6SM SCT015 TEMPO 3115/3119 5SM BR BKN015 FM311900 VRB03KT P6SM SCT040 TEMPO 3119/0102 BKN040 RMK FCST BASED ON AUTO OBS. NXT FCST BY 311900Z", "TAF CYYE 311240Z 3113/0101 VRB03KT P6SM FEW015 BKN080 TEMPO 3113/3114 BKN015 FM311400 30004KT P6SM SCT012 BECMG 3114/3116 OVC010 FM312000 34008KT P6SM BKN020 RMK NXT FCST BY 311900Z", "TAF CYYF 311240Z 3113/0101 20012KT P6SM SCT060 OVC120 BECMG 3115/3117 24012KT FM311700 17012KT P6SM SCT060 TEMPO 3117/0101 P6SM -SHRA BKN060 RMK NXT FCST BY 311900Z", "TAF CYYG 311140Z 3112/3124 22010KT P6SM FEW100 BKN220 BECMG 3119/3121 30005KT RMK NXT FCST BY 311800Z", "TAF CYYH 311140Z 3112/3124 32015G25KT P6SM BKN025 TEMPO 3112/3115 2SM -SN BLSN BKN015 FM311500 27010KT P6SM BKN030 TEMPO 3115/3124 6SM -SN BKN020 RMK NXT FCST BY 311800Z", "TAF CYYJ 311140Z 3112/0112 VRB03KT P6SM FEW009 SCT020 OVC050 TEMPO 3112/3117 5SM -SHRA BR BKN020 BECMG 3115/3117 26010KT FM311700 26010KT P6SM SCT030 RMK NXT FCST BY 311800Z", "TAF CYYL 311240Z 3113/0101 23008KT P6SM SCT110 TEMPO 3113/3114 P6SM -SHRA BKN030 FM311400 29012G22KT P6SM -SHRA SCT010 OVC020 TEMPO 3114/3116 2SM -SHRASN OVC010 FM311700 31018G28KT P6SM BKN025 TEMPO 3117/3124 4SM -SHSN BKN020 BECMG 3122/3124 33012G22KT RMK FCST BASED ON AUTO OBS. NXT FCST BY 311900Z", "TAF CYYN 311154Z 3112/3124 18005KT P6SM BKN220 FM311700 07005KT P6SM BKN070 TEMPO 3118/3123 P6SM -SHRA FM312300 04010KT P6SM SCT012 BKN060 TEMPO 3123/3124 P6SM -SHRA RMK FCST BASED ON AUTO OBS. NXT FCST BY 311800Z", "TAF CYYQ 311146Z 3112/0112 19012KT P6SM FEW080 BECMG 3114/3116 FEW080 BKN140 FM311800 24012KT P6SM SCT080 BKN120 FM312000 27015G25KT P6SM BKN015 TEMPO 3120/3123 5SM -SHRASN OVC010 BECMG 3122/3123 30025G35KT FM312300 30028G38KT 6SM -SHSN OVC012 TEMPO 3123/0102 2SM -SHSN OVC008 FM010200 31030G40KT 1 1/2SM -SN VV012 TEMPO 0102/0106 3/4SM -SN BLSN VV006 FM010600 32032G43KT 6SM -SHSN OVC020 TEMPO 0106/0110 1 1/2SM -SHSN BLSN VV012 FM011100 33027G37KT P6SM -SN BKN025 TEMPO 0111/0112 5SM -SHSN BKN020 RMK NXT FCST BY 311800Z", "TAF CYYR 311140Z 3112/0112 VRB03KT P6SM -RA BKN030 OVC050 TEMPO 3112/3113 5SM SHRA BR OVC025 FM311300 32012G27KT P6SM SCT020 BKN050 TEMPO 3113/3116 5SM -SHRA BR BKN020 OVC050 FM311600 32010G20KT P6SM BKN030 FM311900 30010G20KT P6SM SCT030 FM312200 29005KT P6SM SKC FM010600 VRB03KT P6SM BKN220 PROB30 0106/0112 1 1/2SM BR RMK NXT FCST BY 311800Z", "TAF CYYT 311141Z 3112/0112 27010G20KT P6SM FEW015 FEW160 BECMG 3112/3114 27015G25KT FM311500 26018G28KT P6SM FEW030 FEW240 BECMG 3122/3124 30015G25KT BECMG 0101/0103 32012G22KT FM010400 32010G20KT P6SM FEW015 FEW030 FM010700 35010KT P6SM BKN015 BKN240 BECMG 0109/0111 02012G22KT RMK NXT FCST BY 311800Z", "TAF CYYU 311340Z 3114/0102 18005KT P6SM FEW230 TEMPO 3114/3115 3SM BR FM311700 21010KT P6SM BKN180 FM312200 21008KT P6SM SCT200 RMK NXT FCST BY 312000Z", "TAF CYYY 311340Z 3114/0102 24010KT P6SM BKN220 BECMG 3118/3120 VRB03KT FM010000 VRB03KT P6SM BKN100 OVC200 RMK NXT FCST BY 312000Z", "TAF AMD CYYZ 311308Z 3113/0118 VRB03KT P6SM -SHRA SCT020 OVC040 TEMPO 3113/3115 2SM -SHRA OVC020 FM311500 13005KT 6SM -SHRA BR SCT005 OVC030 TEMPO 3115/3120 2SM -SHRA BR OVC005 FM312000 13005KT 5SM -SHRA BR BKN005 OVC030 PROB30 3120/3123 2SM -SHRA BR OVC003 FM312300 13005KT 1SM -DZ BR OVC003 FM010600 18006KT 6SM BR BKN004 OVC010 PROB30 0106/0112 1SM BR OVC003 FM011200 26005KT P6SM BKN015 OVC050 FM011700 33005KT P6SM SCT050 RMK NXT FCST BY 311500Z", "TAF AMD CYZE 311402Z 3114/3122 12005KT 1 1/2SM BR BKN002 BKN150 BECMG 3114/3116 P6SM NSW SCT150 FM311600 18008KT P6SM SCT150 RMK FCST BASED ON AUTO OBS. NXT FCST BY 312000Z", "TAF CYZF 311140Z 3112/0112 05008KT P6SM BKN030 OVC080 TEMPO 3112/3121 P6SM -SN OVC020 FM312100 08008KT P6SM -SN SCT012 OVC025 TEMPO 3121/0112 2SM -SN BKN008 OVC020 RMK NXT FCST BY 311800Z", "TAF CYZG 311340Z 3114/3121 23010KT P6SM -SN OVC020 TEMPO 3114/3116 P6SM NSW OVC025 FM311600 19020KT P6SM SCT020 BKN050 BECMG 3119/3121 18025G35KT RMK NXT FCST BY 011400Z", "TAF CYZH 311240Z 3113/0101 26010KT P6SM SKC BECMG 3120/3122 VRB03KT RMK FCST BASED ON AUTO OBS. NXT FCST BY 311900Z", "TAF CYZP 311240Z 3113/0101 20007KT P6SM SCT020 TEMPO 3113/0101 P6SM -SHRA BKN020 RMK FCST BASED ON AUTO OBS. NXT FCST BY 311900Z", "TAF CYZR 311340Z 3114/0102 15005KT 1SM -SHRA BR OVC005 TEMPO 3114/3116 6SM -SHRA BR SCT005 OVC010 FM311600 16008KT 5SM -SHRA BR OVC006 TEMPO 3116/3118 P6SM NSW OVC010 FM311800 21010KT P6SM -SHRA SCT006 OVC015 TEMPO 3118/3123 4SM -SHRA BR BKN006 OVC015 FM312300 21008KT P6SM SCT006 OVC030 TEMPO 3123/0102 5SM -DZ -RA BR BKN006 OVC030 RMK FCST BASED ON AUTO OBS. NXT FCST BY 312000Z", "TAF CYZT 311240Z 3113/0101 27006KT P6SM FEW020 BKN040 TEMPO 3113/0101 5SM -SHRA BR BKN020 PROB30 3113/3116 BKN005 RMK NXT FCST BY 311900Z", "TAF CYZV 311140Z 3112/0112 VRB03KT P6SM FEW100 SCT220 FM311500 30008KT P6SM BKN200 BECMG 3120/3122 VRB03KT FM010300 07008KT P6SM FEW040 OVC130 FM010900 08008KT P6SM -SHRA SCT020 OVC080 RMK NXT FCST BY 311800Z", "TAF CYZX 311140Z 3112/0112 22005KT P6SM BKN250 FM311500 25010KT P6SM BKN200 FM010000 21005KT P6SM BKN020 BKN150 FM010200 22005KT P6SM -DZ OVC015 FM010800 22005KT 5SM -DZ BR OVC010 RMK NXT FCST BY 311800Z", "TAF CZBF 311340Z 3114/0102 25006KT P6SM BKN200 FM311800 27005KT P6SM BKN120 OVC200 BECMG 3118/3120 VRB03KT RMK FCST BASED ON AUTO OBS. NXT FCST BY 312000Z", "TAF CZMD 310940Z 3110/3122 19007KT P6SM BKN120 BECMG 3113/3115 21012G22KT RMK FCST BASED ON AUTO OBS. NXT FCST BY 311600Z", "TAF CZSJ 310940Z 3110/3122 20007KT P6SM BKN100 BECMG 3113/3115 21012G22KT RMK FCST BASED ON AUTO OBS. NXT FCST BY 311600Z", "TAF CZUM 311340Z 3114/0102 35012G22KT 5SM -SHRA BR BKN015 BKN030 TEMPO 3114/3115 P6SM NSW FEW015 BKN030 FM311600 32012G22KT P6SM BKN030 TEMPO 3116/3118 SCT030 FM311800 32012KT P6SM FEW030 SCT240 BECMG 3122/3124 VRB03KT FM010000 VRB03KT P6SM FEW005 BKN160 RMK FCST BASED ON AUTO OBS. NXT FCST BY 312000Z", "TAF CZVL 311140Z 3112/3124 26007KT P6SM FEW120 BECMG 3118/3120 18009KT RMK FCST BASED ON AUTO OBS. NXT FCST BY 311800Z", "TAF DAAD 311100Z 3112/3121 VRB02KT 8000 NSC", "TAF DAAE 311100Z 3112/0112 14008KT 8000 FEW020 PROB30 0104/0107 3000 BR SCT010", "TAF DAAG 311100Z 3112/0112 02010KT 8000 NSC BECMG 3117/3119 VRB02KT PROB40 TEMPO 3120/0108 4000 BR PROB30 TEMPO 3122/0107 0800 FG BKN008 BECMG 0111/0112 02010KT", "TAF DAAJ 311100Z 3112/0112 06008KT CAVOK", "TAF DAAP 311100Z 3112/3121 14008KT CAVOK", "TAF DAAS 311100Z 3112/0112 25008KT CAVOK", "TAF DAAT 311100Z 3112/0112 08010KT CAVOK TEMPO 3114/3116 34010KT BECMG 3120/3122 VRB02KT", "TAF DAAV 311100Z 3112/0112 33008KT 8000 FEW020 PROB30 0104/0107 3000 BR SCT010", "TAF DAAY 311100Z 3112/3121 22010KT CAVOK BECMG 3114/3116 32010KT", "TAF DABB 311100Z 3112/0112 06008KT CAVOK PROB30 0104/0107 3000 BR SCT010", "TAF DABC 311100Z 3112/0112 22008KT CAVOK", "TAF DABS 311100Z 3112/0112 33008KT CAVOK", "TAF DABT 311100Z 3112/0112 23008KT CAVOK", "TAF DAFH 311100Z 3112/3121 25010KT CAVOK", "TAF DAOB 311100Z 3112/0112 10008KT CAVOK", "TAF DAOF 311100Z 3112/3121 06006KT 8000 NSC", "TAF DAOI 311100Z 3112/0112 06010KT CAVOK BECMG 3120/3122 VRB02KT", "TAF DAON 311100Z 3112/0112 VRB02KT CAVOK BECMG 3114/3116 02010KT BECMG 3120/3122 VRB02KT PROB30 TEMPO 0106/0108 4000 BR SCT010 BECMG 0108/0110 20005KT", "TAF DAOO 311100Z 3112/0112 VRB02KT 6000 NSC BECMG 3114/3116 04010KT CAVOK BECMG 3120/3122 VRB02KT PROB40 TEMPO 0104/0108 4000 BR SCT010 BECMG 0110/0112 16010KT", "TAF DAOR 311100Z 3112/3121 24006KT CAVOK", "TAF DAOV 311100Z 3112/3121 VRB02KT CAVOK BECMG 3114/3116 34010KT", "TAF DATM 311100Z 3112/3121 14010KT CAVOK", "TAF DAUA 311100Z 3112/0112 06015KT CAVOK", "TAF DAUB 311100Z 3112/0112 14008KT CAVOK", "TAF DAUG 311100Z 3112/0112 16006KT CAVOK", "TAF DAUH 311100Z 3112/0112 08006KT CAVOK", "TAF DAUI 311100Z 3112/0112 04015KT CAVOK", "TAF DAUK 311100Z 3112/3121 VRB02KT CAVOK", "TAF DAUL 311100Z 3112/3121 VRB02KT CAVOK BECMG 3112/3113 22010KT", "TAF DAUO 311100Z 3112/3121 VRB02KT CAVOK", "TAF DAUT 311100Z 3112/3121 04010KT CAVOK", "TAF DAUU 311100Z 3112/3121 VRB02KT CAVOK", "TAF DAUZ 311100Z 3112/0112 09006KT CAVOK", "TAF DBBB 311100Z 3112/0118 20010KT 9999 SCT012 TEMPO 3114/3120 TS BKN012 FEW023CB", "TAF DFFD 311100Z 3112/0118 08010KT 8000 NSC TEMPO 3117/3120 4000 HZ TEMPO 0106/0110 3500 HZ", "TAF DFOO 311100Z 3112/0112 10010KT CAVOK TEMPO 3117/3120 4000 HZ TEMPO 0106/0110 3500 HZ", "TAF DGAA 311100Z 3112/0118 19010KT 9999 SCT016 TEMPO 3114/3118 FEW028CB BECMG 0100/0102 27006KT CAVOK", "TAF DGLE 311100Z 3112/0112 09005KT 9999 FEW012", "TAF DGSI 311100Z 3112/0112 18010KT 9999 SCT016 TEMPO 3117/3123 6000 -TSRA BKN010 FEW028CB BECMG 0104/0106 BKN010", "TAF DIAP 311110Z 3112/0118 20010KT 8000 SCT013 PROB40 TEMPO 3117/3123 TS BKN012 FEW020CB BKN030 PROB30 TEMPO 3119/3122 4000 TSRA BKN010 FEW020CB BKN030", "TAF DIBK 311117Z 3112/0112 21007KT 8000 BKN011 BECMG 3113/3114 SCT013 PROB40 TEMPO 3117/3122 TS BKN012 FEW020CB PROB40 0105/0108 2500 BR OVC010 PROB40 0108/0112 BKN011", "TAF DIYO 311115Z 3112/0112 21008KT 8000 SCT013 PROB40 TEMPO 3117/3122 TS BKN012 FEW020CB PROB40 0105/0108 3000 BR BKN010 PROB40 0108/0112 BKN012", "TAF DNAA 311100Z 3112/0118 13004KT 4000 HZ NSC TEMPO 3118/3122 05004KT TEMPO 0104/0110 0800 DU", "TAF DNAK 311100Z 3112/0118 24010KT 9999 BKN013 TEMPO 3112/3118 SCT013 FEW020CB BECMG 3118/3120 VRB02KT SCT011 TEMPO 0105/0108 5000 BR BECMG 0108/0110 23010KT BKN013 TEMPO 0112/0118 SCT013 FEW020CB", "TAF DNBE 311100Z 3112/0118 25010KT 9999 BKN012 TEMPO 3112/3118 SCT012 FEW020CB PROB30 3115/3118 TS BECMG 3118/3120 VRB02KT SCT010 TEMPO 0104/0108 3000 BR BECMG 0108/0110 24010KT BKN012 FEW020CB TEMPO 0114/0118 SCT012 FEW020CB", "TAF DNGO 311100Z 3112/0118 05008KT CAVOK", "TAF DNIB 311100Z 3112/0118 20010KT 9999 BKN013 TEMPO 3112/3118 SCT013 FEW020CB BECMG 3118/3120 VRB02KT SCT011 TEMPO 0105/0108 5000 BR BECMG 0108/0110 22010KT BKN013 TEMPO 0113/0118 SCT013 FEW020CB", "TAF DNIL 311100Z 3112/0118 00000KT CAVOK TEMPO 0105/0111 08005KT 5000 HZ", "TAF DNJO 311100Z 3112/0118 08017KT CAVOK TEMPO 0104/0110 5000 HZ", "TAF DNKA 311100Z 3112/0118 04015KT 5000 HZ TEMPO 0104/0110 3000", "TAF DNKN 311100Z 3112/0118 07008KT CAVOK", "TAF DNKT 311100Z 3112/0118 05007KT CAVOK", "TAF DNMA 311100Z 3112/0118 08010KT CAVOK", "TAF DNMM 311100Z 3112/0118 22010KT 9999 BKN013 FEW020CB TEMPO 3114/3120 TS SCT013 FEW020CB BECMG 3120/3122 VRB02KT SCT011 TEMPO 0105/0108 5000 BR BECMG 0108/0110 23010KT BKN013 TEMPO 0113/0118 SCT013 FEW020CB", "TAF DNSO 311100Z 3112/0118 07009KT CAVOK", "TAF DNSU 311100Z 3112/0118 23010KT 9999 BKN012 TEMPO 3112/3118 SCT012 FEW020CB PROB30 3115/3118 TS BECMG 3118/3120 VRB02KT SCT010 TEMPO 0104/0108 3000 BR BECMG 0108/0110 22010KT BKN012 FEW020CB TEMPO 0114/0118 SCT012 FEW020CB", "TAF DNYO 311100Z 3112/0118 07005KT CAVOOK", "TAF DRRN 311100Z 3112/0118 06008KT 8000 NSC TEMPO 3112/3116 10018KT TEMPO 3117/3120 4000 DU", "TAF DRZA 311100Z 3112/0112 10015KT 6000 NSC TEMPO 3112/3116 3500 BLDU", "TAF DRZR 311100Z 3112/0112 02010KT 8000 NSC TEMPO 3112/3116 08016KT 4000 BLDU", "TAF DTKA 311200Z 3113/3122 35010KT CAVOK BECMG 3119/3121 12010KT", "TAF DTMB 311100Z 3112/0112 24010KT 9999 FEW026 BECMG 3113/3115 10012KT BECMG 3115/3117 16010KT", "TAF DTNH 311100Z 3112/0112 17010KT CAVOK BECMG 3115/3117 11014KT BECMG 3121/3123 VRB02KT", "TAF DTTA 311100Z 3112/0112 VRB02KT CAVOK BECMG 3113/3115 05010KT BECMG 3115/3117 12010KT BECMG 3121/3124 VRB02KT", "TAF DTTB 311200Z 3113/3122 08008KT 9999 FEW020", "TAF DTTF 311200Z 3113/3122 22010KT CAVOK BECMG 3119/3121 VRB02KT", "TAF DTTG 311200Z 3113/3122 VRB03KT CAVOK BECMG 3119/3121 12010KT", "TAF DTTJ 311100Z 3112/0112 17010KT 8000 FEW020 BECMG 3115/3117 09010KT BECMG 3122/3124 19010KT", "TAF DTTR 311200Z 3113/3122 07006KT CAVOK BECMG 3113/3115 01010KT BECMG 3118/3120 VRB02KT", "TAF DTTX 311100Z 3112/0112 17010KT 9999 FEW030 BECMG 0101/0103 VRB02KT", "TAF DTTZ 311100Z 3112/0112 VRB03KT CAVOK", "TAF DXNG 311100Z 3112/0112 VRB05KT 8000 NSC", "TAF DXXX 311100Z 3112/0118 20010KT 9999 SCT015 PROB30 TEMPO 3115/3119 TS BKN010 FEW020CB BECMG 3122/3124 VRB03KT BECMG 0108/0110 20010KT", "TAF EBAW 311113Z 3112/3121 11007KT CAVOK BECMG 3119/3121 18010KT ", "TAF EBBR 311105Z 3112/0118 14007KT 9999 SCT035 TEMPO 3121/0101 4000 RA SHRA BKN014 BECMG 0100/0102 19016G27KT TEMPO 0102/0109 23020G39KT", "TAF EBCI 311105Z 3112/0118 14008KT 9999 SCT035 TEMPO 3120/3124 4000 RA SHRA BKN012 BECMG 3122/3124 17015G25KT BECMG 0101/0103 21020G38KT BECMG 0109/0111 21017G28KT", "TAF EBCV 311141Z 3113/3122 10008KT 9999 SCT110 BECMG 3116/3118 15010KT TEMPO 3120/3122 17012G24KT 7000 -RA FEW050 BKN100 BY EBWM", "TAF EBDT 310715Z 3107/3116 15005KT 0800 FG SCT001 BKN100 BECMG 3107/3109 5000 FEW005 SCT090 TEMPO 3108/3110 7000 -RA SCT010 BKN090 BECMG 3111/3113 9999 SCT090", "TAF EBFN 311141Z 3113/3122 12010KT 9999 BKN080 BECMG 3118/3120 16012KT 9999 SCT030 BKN070 TEMPO 3118/3122 16015KT 5000 -RA SCT025 BKN070 BY EBWM", "TAF EBLG 311105Z 3112/0118 14008KT 9999 SCT035 BECMG 3122/3124 18015G25KT TEMPO 3122/0102 4000 RA SHRA BKN012 BECMG 0102/0104 21020G35KT BECMG 0113/0115 20015G25KT", "TAF EBOS 311105Z 3112/0118 12008KT 9999 SCT020 SCT040 TEMPO 3120/0124 4000 RA SHRA BKN014 BECMG 3121/3123 18018G28KT BECMG 0101/0103 21020G35KT PROB40 0105/0108 24030G45KT PROB30 TEMPO 0116/0118 4000 SHRA", "TAF EDAC 311100Z 3112/3121 VRB03KT CAVOK", "TAF EDAH 311100Z 3112/3121 VRB03KT 0300 FG OVC000 PROB30 TEMPO 3112/3118 1500 BR BKN003", "TAF EDDB 311100Z 3112/0112 08004KT CAVOK BECMG 3118/3121 2500 BR PROB40 TEMPO 3121/0109 0500 FG BKN001 BECMG 3123/0101 14006KT BECMG 0105/0108 20008KT 8000", "TAF EDDC 311100Z 3112/0112 VRB03KT CAVOK BECMG 3117/3119 15008KT BECMG 0108/0110 21006KT", "TAF EDDE 311100Z 3112/0112 06004KT CAVOK PROB30 TEMPO 3118/3123 1000 BCFG BECMG 3120/3123 19007KT BECMG 0106/0108 23013KT TEMPO 0109/0112 24015G25KT", "TAF EDDF 311100Z 3112/0118 06005KT CAVOK PROB30 TEMPO 3122/0103 4000 BR BKN008 BECMG 0100/0104 20006KT TEMPO 0103/0105 RA BKN012 TEMPO 0105/0109 BKN025 BECMG 0106/0109 22011KT PROB30 TEMPO 0110/0114 21015G25KT", "TAF EDDG 311100Z 3112/0112 12004KT CAVOK BECMG 0102/0104 19009KT BECMG 0107/0110 20015G25KT PROB40 TEMPO 0111/0112 22020G30KT", "TAF EDDH 311100Z 3112/0118 VRB03KT 9999 BKN006 BECMG 3112/3115 10006KT FEW015 PROB40 TEMPO 3120/0107 4500 BR BKN009 BECMG 0101/0103 16007KT BECMG 0105/0107 22010KT TEMPO 0108/0114 22015G30KT", "TAF EDDK 311100Z 3112/0118 12008KT CAVOK PROB30 TEMPO 0100/0103 RA BECMG 0103/0106 21011KT PROB40 TEMPO 0110/0114 22015G25KT", "TAF EDDL 311100Z 3112/0118 13007KT CAVOK BECMG 3118/3120 15012KT TEMPO 0100/0103 RA BECMG 0104/0107 21015G25KT TEMPO 0110/0113 21020G30KT BECMG 0115/0118 19013KT", "TAF EDDM 311100Z 3112/0118 VRB03KT CAVOK TEMPO 3112/3116 08005KT BECMG 3119/3122 1200 BCFG TEMPO 3122/0106 0700 FG PROB30 TEMPO 0100/0106 0400 FG VV001 BECMG 0106/0108 25006KT CAVOK PROB30 TEMPO 0116/0118 SHRA SCT025TCU", "TAF EDDN 311100Z 3112/0112 10004KT CAVOK PROB40 TEMPO 0100/0106 0700 FG BECMG 0108/0110 21006KT", "TAF EDDP 311100Z 3112/0112 07004KT CAVOK PROB30 TEMPO 3118/3123 2000 BCFG BECMG 3122/3124 15006KT BECMG 0105/0107 21010KT", "TAF EDDR 311100Z 3112/0112 09005KT CAVOK BECMG 3121/3123 17006KT TEMPO 3122/0101 4000 BR BKN008 BECMG 0100/0104 21011KT TEMPO 0101/0104 RA BKN008 TEMPO 0104/0110 BKN012 PROB30 TEMPO 0104/0109 22015G25KT", "TAF EDDS 311100Z 3112/0112 VRB03KT CAVOK TEMPO 3122/0103 4000 BR BKN008 BECMG 0106/0109 23005KT", "TAF EDDV 311100Z 3112/0112 12005KT CAVOK BECMG 0102/0104 18008KT BECMG 0104/0107 23013KT TEMPO 0108/0112 24015G30KT", "TAF AMD EDDW 311228Z 3112/0112 09004KT 8000 BKN005 PROB30 TEMPO 3112/3113 4000 BR BKN004 BECMG 3113/3115 SCT008 BECMG 3118/3120 14009KT PROB30 TEMPO 3119/0103 4500 BR BKN009 BECMG 0103/0105 22012KT TEMPO 0107/0112 24015G30KT", "TAF EDFH 311100Z 3112/0112 14010KT CAVOK BECMG 0101/0103 22012KT TEMPO 0101/0104 RA BKN008 TEMPO 0104/0110 BKN012 TEMPO 0106/0112 24015G25KT", "TAF EDFM 311100Z 3112/3121 VRB03KT CAVOK", "TAF EDGS 311100Z 3112/3121 13010KT CAVOK", "TAF EDHK 311100Z 3112/3119 23005KT 9999 BKN005 BECMG 3112/3114 14004KT SCT013", "TAF EDHL 311100Z 3112/3121 VRB03KT 9999 BKN005 BECMG 3112/3115 10006KT FEW014 BECMG 3119/3121 4500 BR BKN007", "TAF EDJA 311100Z 3112/3121 VRB03KT CAVOK TEMPO 3117/3121 1200 BCFG", "TAF EDLN 311100Z 3112/3121 13007KT CAVOK", "TAF EDLP 311100Z 3112/0112 12007KT CAVOK BECMG 0100/0103 18011KT BECMG 0107/0110 22015G25KT PROB40 TEMPO 0110/0112 23020G30KT", "TAF EDLV 311100Z 3112/0112 11007KT 9999 SCT020 BECMG 3123/0102 18011KT TEMPO 0101/0103 RA BECMG 0107/0110 21015G25KT", "TAF EDLW 311100Z 3112/0112 08005KT CAVOK BECMG 3117/3120 16007KT BECMG 0102/0105 21014KT TEMPO 0106/0112 21015G25KT PROB40 TEMPO 0110/0112 22020G30KT", "TAF EDMA 311100Z 3112/3121 VRB03KT CAVOK TEMPO 3112/3115 05005KT BECMG 3117/3119 1200 BCFG BECMG 3119/3121 0300 FG VV001", "TAF EDMO 311100Z 3112/3121 VRB03KT CAVOK TEMPO 3112/3115 07005KT TEMPO 3119/3121 1200 BCFG", "TAF EDNY 311100Z 3112/0112 VRB02KT 3000 BR BKN003 PROB30 TEMPO 3113/3117 5000 BR SCT005 BECMG 3117/3120 0700 FG BKN001 TEMPO 3119/0107 0300 FG BECMG 0108/0111 23005KT 8000 FEW006", "TAF EDQM 311100Z 3112/3121 VRB03KT CAVOK TEMPO 3112/3115 07005KT", "TAF EDSB 311100Z 3112/0112 VRB03KT CAVOK BECMG 3118/3121 4000 BR BKN008 TEMPO 3121/0102 0500 FG BKN001 BECMG 0101/0103 21007KT 7000 BKN015 TEMPO 0102/0106 RA BKN008", "TAF EDTL 311100Z 3112/3121 VRB03KT CAVOK", "TAF EDTY 311100Z 3112/3121 VRB03KT CAVOK TEMPO 3112/3115 06005KT", "TAF EDVE 311100Z 3112/3121 12005KT 9999 FEW015", "TAF EDVK 311100Z 3112/3121 10005KT CAVOK", "TAF EDXW 311100Z 3112/3118 20007KT 9999 FEW015 PROB30 TEMPO 3112/3114 BKN009 BECMG 3114/3116 14007KT", "TAF EEEI 311130Z 3112/0112 21008KT 9999 BKN015 TEMPO 3115/3121 4000 RADZ BKN004 OVC010 FEW020TCU TEMPO 3121/0106 2000 DZ BR BKN002 BECMG 0101/0103 27005KT", "TAF EEKA 311300Z 3114/3120 23008KT 9999 SCT008 OVC013 TEMPO 3115/3117 2500 SHRA BR BKN006 SCT020CB TEMPO 3117/3120 1500 RADZ BR OVC003", "TAF EETN 311130Z 3112/0112 22010KT 9999 SCT020 BECMG 3115/3117 BKN010 OVC015 TEMPO 3117/3119 3000 RA BKN008 TEMPO 3119/0101 0500 DZ FG OVC002 BECMG 3122/3124 28008KT BECMG 0104/0106 BKN005 OVC010", "TAF EFHA 311130Z 3112/3115 18005KT CAVOK TEMPO 3112/3113 BKN014 BECMG 3113/3115 BKN010", "TAF EFHK 311130Z 3112/0112 20005KT CAVOK BECMG 3114/3117 BKN012 BECMG 3117/3119 2500 RADZ BKN004 TEMPO 3119/0101 0500 FG VV001 BECMG 0101/0103 9999 NSW BKN009 TEMPO 0104/0112 BKN004", "TAF EFIV 311123Z 3112/3121 21006KT CAVOK BECMG 3119/3121 BKN004", "TAF EFJY 311130Z 3112/0112 19004KT CAVOK BECMG 3114/3117 5000 -RA BKN007 BECMG 3118/3120 0700 FG OVC002 TEMPO 3121/0102 0500 VV001 BECMG 0102/0104 5000 BKN007 TEMPO 0108/0112 4000 BR BKN004", "TAF AMD EFKE 311253Z 3112/3121 17007KT 9999 SCT003 BKN015 TEMPO 3112/3118 2000 BR BKN002 BECMG 3118/3120 5000 RA BKN004 TEMPO 3120/3121 8000 -RADZ BKN005", "TAF AMD EFKI 311200Z 3112/3118 18003KT CAVOK BECMG 3115/3117 BKN007", "TAF EFKK 311135Z 3112/3121 19010KT 9999 BKN007 TEMPO 3113/3121 2500 -DZRA BR BKN003", "TAF EFKT 311123Z 3112/3118 15004KT CAVOK TEMPO 3116/3118 1200 BR BKN002", "TAF EFKU 311126Z 3112/0112 24005KT CAVOK TEMPO 3119/3124 6000 RA BKN013 BECMG 0100/0102 1500 BR BKN003 PROB30 0102/0106 0500 FG VV001", "TAF AMD EFMA 311224Z 3112/3121 19008KT 9999 BKN003 TEMPO 3112/3114 2500 -RADZ PROB30 TEMPO 3112/3114 BKN001 BECMG 3114/3116 26010KT SCT008 BKN018 PROB30 TEMPO 3116/3120 BKN009", "TAF EFOU 311123Z 3112/0112 16007KT CAVOK BECMG 3117/3119 7000 -RA BKN012 BECMG 3119/3121 4000 DZ OVC003 PROB30 3122/0105 1500 BR BKN001 BECMG 0105/0107 5000 BCFG TEMPO 0107/0109 1200 BR BKN001 BECMG 0109/0111 9999 BKN005", "TAF AMD EFPO 311311Z 3113/3121 17005KT 9999 -SHRA BKN006 TEMPO 3113/3117 3500 DZRA BR BKN003 FEW070CB BECMG 3117/3119 24010KT BKN010 BECMG 3119/3121 SCT009 BKN019", "TAF AMD EFRO 311331Z 3113/0112 15005KT 0300 FZFG VV001 TEMPO 3113/0112 0900 FG VV002 PROB40 3122/0106 8000 NSW", "TAF EFSA 311126Z 3112/3118 31006KT CAVOK", "TAF EFSI 311135Z 3112/3121 16008KT 9999 BKN006 OVC027 TEMPO 3112/3121 2500 -DZRA BR BKN002 PROB30 3115/3120 1200", "TAF EFTP 311130Z 3112/0112 20008KT 9999 BKN010 BECMG 3112/3115 BKN007 BECMG 3115/3117 2000 -DZ BR OVC004 TEMPO 3117/3123 0500 FG VV001 TEMPO 3123/0104 5000 BKN008 BECMG 0104/0106 0500 FG VV001 TEMPO 0109/0112 5000", "TAF EFTU 311130Z 3112/0112 20004KT 9999 BKN015 BECMG 3112/3114 BKN008 BECMG 3114/3116 OVC003 TEMPO 3116/3121 0700 FG TEMPO 3121/0104 BKN015 TEMPO 0104/0112 0700 FG", "TAF EFUT 311126Z 3112/3115 27003KT CAVOK", "TAF EFVA 311135Z 3112/0112 17008KT 9999 OVC005 TEMPO 3112/3118 4500 -DZRA BKN004 BECMG 3118/3120 24010KT SCT008 PROB30 0104/0112 1500 BCFG", "TAF EGAA 311055Z 3112/0112 19005KT 9999 FEW008 BKN020 OVC030 BECMG 3112/3115 BKN010 TEMPO 3112/0104 5000 RA PROB40 TEMPO 3112/3114 19015G25KT PROB40 TEMPO 3112/0101 3000 +RA RADZ BKN007 TEMPO 3118/0101 BKN040 TEMPO 0101/0107 BKN004 PROB30 TEMPO 0102/0105 BKN001 BECMG 0107/0110 FEW025", "TAF AMD EGAC 311322Z 3113/3121 17017G28KT 9999 SCT018 BKN030 TEMPO 3113/3121 6000 RA PROB40 TEMPO 3113/3121 2500 +SHRA +TSRA BKN012 BECMG 3115/3118 22006KT", "TAF EGAE 311105Z 3112/3121 20010KT 9999 SCT020 BKN040 TEMPO 3112/3121 6000 RA PROB30 TEMPO 3115/3121 3000 +RA RADZ BKN014 BECMG 3117/3119 VRB03KT", "TAF EGBB 311102Z 3112/0112 18010KT 9999 FEW045 BECMG 3112/3115 12008KT PROB40 TEMPO 3112/3117 BKN008 TEMPO 3117/3122 7000 RA SHRA BKN008 PROB30 TEMPO 3117/3122 BKN004 TEMPO 3122/0110 7000 RA SHRA BKN014 PROB30 TEMPO 3122/0102 2000 +RA +SHRA BR BKN004 BECMG 0100/0103 20010KT PROB30 TEMPO 0102/0110 3000 +RA +SHRA BKN008 BECMG 0103/0106 26015KT PROB30 TEMPO 0104/0106 27018G28KT PROB30 TEMPO 0110/0112 7000 SHRA BKN010", "TAF EGBJ 311103Z 3112/3120 17010KT 9999 SCT020 PROB30 TEMPO 3112/3114 9000 -SHRA BKN008 BECMG 3115/3118 11010KT TEMPO 3116/3120 7000 RA SHRA BKN012 PROB40 TEMPO 3116/3120 13015G25KT 4000 +RA +SHRA BKN008", "TAF AMD EGCC 311332Z 3113/0118 17009KT 9999 SCT020 BECMG 3118/3121 09010KT TEMPO 3119/0107 6000 RA BKN010 PROB30 TEMPO 3120/0107 3000 +RA BKN005 BECMG 0104/0107 22010KT PROB30 TEMPO 0104/0108 24015G25KT PROB30 TEMPO 0107/0110 7000 SHRA BKN010 TEMPO 0117/0118 7000 SHRA", "TAF EGCK 311056Z 3112/3121 17013KT 9999 SCT018 BECMG 3118/3121 11010KT TEMPO 3118/3121 12015G25KT", "TAF AMD EGCN 311331Z 3113/0112 16010KT 9999 SCT018 PROB40 TEMPO 3113/3114 9000 BKN014 BECMG 3118/3121 09008KT TEMPO 3118/0108 6000 RA BKN007 PROB30 TEMPO 3120/0103 3000 +RA BKN003 BECMG 0106/0109 24012KT PROB30 TEMPO 0108/0112 7000 SHRA BKN014", "TAF AMD EGDR 311124Z 3112/3121 14017G30KT 9999 BKN030 TEMPO 3112/3118 SCT008 PROB40 TEMPO 3112/3118 SCT005 BECMG 3114/3118 5000 RA BKN005 TEMPO 3116/3121 2000 +RA TSRA SCT002 BKN015CB PROB30 TEMPO 3118/3121 1400 BR SCT001 BECMG 3119/3121 03025G45KT", "TAF EGEC 311058Z 3112/3118 16022KT 9999 SCT015 BECMG 3112/3114 22010KT TEMPO 3112/3118 7000 RA SHRA PROB30 TEMPO 3112/3118 3000 +RA BKN010 BECMG 3116/3118 14005KT", "TAF EGEO 311058Z 3112/3117 17020G30KT 9999 FEW016 SCT030 BECMG 3112/3115 18007KT TEMPO 3112/3117 6000 RA PROB30 TEMPO 3112/3117 4000 +RA BKN012", "TAF EGFF 311100Z 3112/0112 12012KT 9999 SCT020 PROB40 TEMPO 3115/3120 4000 +SHRA BKN006 TEMPO 3120/0105 4000 RA SHRA BKN005 PROB40 TEMPO 3120/0105 1200 +RA +SHGS BKN002 BKN009CB BECMG 3122/0101 20006KT BECMG 0101/0104 27025G35KT BECMG 0104/0106 23015KT PROB40 TEMPO 0106/0112 24020G30KT 6000 SHRA BKN012CB", "TAF EGGD 311100Z 3112/0112 13012KT 9999 FEW012 PROB40 TEMPO 3115/3120 4000 +SHRA BKN004 TEMPO 3120/0105 4000 RA SHRA BKN005 PROB40 TEMPO 3120/0105 1200 +RA +SHGS BKN002 BKN009CB BECMG 3123/0101 20008KT BECMG 0101/0104 26025G35KT BECMG 0104/0106 22014KT PROB30 TEMPO 0106/0112 22018G28KT 6000 SHRA BKN010CB", "TAF EGGP 311053Z 3112/0112 16010KT 9999 SCT020 BECMG 3119/3122 09008KT TEMPO 3119/0106 6000 RA BKN010 PROB30 TEMPO 3120/0106 3000 +RA BKN005 BECMG 0104/0107 26012KT TEMPO 0104/0108 27015G25KT PROB30 TEMPO 0106/0112 7000 SHRA BKN010", "TAF EGGW 311101Z 3112/0112 13010KT 9999 FEW020 TEMPO 3115/0106 6000 RA SHRA BKN005 PROB40 TEMPO 3115/3121 BKN002 PROB40 TEMPO 3121/0106 1200 +RA SHGS BKN003 BKN009CB PROB30 TEMPO 3121/0101 16015G25KT BECMG 3123/0102 19010KT BECMG 0103/0106 25025G38KT BECMG 0106/0109 21015KT TEMPO 0109/0112 22018G28KT", "TAF EGHC 311102Z 3112/3118 13017KT 9999 SCT010 TEMPO 3112/3118 14021G31KT PROB40 TEMPO 3112/3114 BKN009 TEMPO 3116/3118 6000 RA SHRA BKN008 PROB30 TEMPO 3116/3118 4000 +RA +SHRA BKN004", "TAF EGHE 311102Z 3112/3118 14020KT 9999 FEW010 TEMPO 3112/3118 15025G35KT PROB40 TEMPO 3112/3114 BKN009 TEMPO 3114/3118 6000 RA SHRA BKN008 PROB30 TEMPO 3114/3118 4000 +RA +SHRA BKN004", "TAF AMD EGHH 311132Z 3112/3121 17008KT 9999 SCT020 BECMG 3112/3114 11010KT PROB40 TEMPO 3114/3121 4000 +SHRA BKN009 PROB40 TEMPO 3116/3121 13018G30KT", "TAF AMD EGHI 311332Z 3113/3121 12008KT 9999 SCT020 TEMPO 3113/3121 7000 SHRA PROB40 TEMPO 3113/3121 4000 +SHRA BKN009 PROB30 TEMPO 3116/3121 13018G30KT", "TAF EGHQ 311102Z 3112/3121 14014KT 9999 SCT015 TEMPO 3112/3121 15018G28KT BKN010 PROB30 TEMPO 3112/3115 BKN009 TEMPO 3116/3118 6000 RA SHRA BKN008 PROB30 TEMPO 3116/3118 4000 +RA +SHRA BKN004", "TAF EGJA 311105Z 3112/3121 15016KT 9999 FEW005 SCT007 PROB30 TEMPO 3112/3116 9000 SHRA BKN006 BKN012TCU TEMPO 3116/3121 8000 SHRA SCT006 BKN012TCU BECMG 3119/3121 19023KT", "TAF EGJB 311105Z 3112/3121 15016KT 9999 FEW005 SCT007 PROB30 TEMPO 3112/3116 9000 SHRA BKN006 BKN012TCU TEMPO 3116/3121 8000 SHRA SCT006 BKN012TCU BECMG 3119/3121 19023KT", "TAF EGJJ 311105Z 3112/3121 14016KT 9999 FEW005 SCT007 PROB30 TEMPO 3112/3115 9000 SHRA BKN006 BKN012TCU TEMPO 3115/3121 8000 SHRA SCT006 BKN012TCU BECMG 3118/3121 20022KT", "TAF EGKA 311053Z 3112/3120 18008KT 9999 SCT015 BECMG 3112/3114 11013KT TEMPO 3112/3120 BKN012 TEMPO 3113/3120 6000 SHRA PROB30 TEMPO 3116/3118 13018G30KT PROB40 TEMPO 3119/3120 15020G30KT", "TAF EGKB 311053Z 3112/3121 17008KT 9999 SCT045 BECMG 3113/3116 11010KT TEMPO 3114/3121 6000 SHRA BKN012 PROB30 TEMPO 3115/3120 BKN008 PROB30 TEMPO 3120/3121 16020G30KT 2500 +SHRA SHGS BKN008 BKN015CB", "TAF EGKK 311052Z 3112/0118 16005KT 9999 FEW015 TEMPO 3114/0118 6000 SHRA BKN012 PROB40 TEMPO 3115/3120 BKN009 PROB40 TEMPO 3120/0101 2500 +SHRA SHGS BKN008 BKN015CB PROB30 TEMPO 3120/0101 16020G35KT BECMG 0101/0104 24015G26KT PROB30 TEMPO 0103/0107 25020G36KT BECMG 0106/0109 23012KT PROB30 TEMPO 0106/0112 4000 +SHRA PROB30 TEMPO 0112/0118 24015G30KT 2500 +SHRA SHGS", "TAF EGLC 311053Z 3112/3121 14008KT 9999 FEW020 TEMPO 3114/3118 6000 SHRA BKN012 PROB30 TEMPO 3120/3121 2500 +SHRA SHGS BKN008 BKN015CB", "TAF EGLF 311053Z 3112/3121 17008KT 9999 FEW020 BECMG 3112/3114 11010KT TEMPO 3114/3118 8000 SHRA BKN012 PROB30 TEMPO 3115/3118 BKN008", "TAF AMD EGLL 311119Z 3112/0118 13010KT 9999 SCT020 PROB30 TEMPO 3115/3119 7000 SHRA BKN014 TEMPO 3119/0108 7000 SHRA BKN012 PROB30 TEMPO 3121/0106 3000 +SHRA +RA BECMG 3123/0102 22014KT PROB40 TEMPO 0103/0108 25020G35KT PROB30 TEMPO 0108/0113 23018G28KT 7000 SHRA PROB40 TEMPO 0113/0118 23018G28KT 3000 +SHRA", "TAF EGMC 311053Z 3112/3121 17007KT 9999 FEW030 BECMG 3112/3114 11010KT TEMPO 3114/3118 6000 SHRA BKN012 PROB30 TEMPO 3115/3120 BKN009 PROB30 TEMPO 3120/3121 2500 +SHRA SHGS BKN008 BKN015CB", "TAF EGMD 311053Z 3112/3121 18008KT 9999 SCT015 BECMG 3112/3114 11013KT TEMPO 3112/3121 BKN012 TEMPO 3113/3121 6000 SHRA PROB30 TEMPO 3116/3118 13018G30KT PROB40 TEMPO 3119/3121 15020G30KT", "TAF EGNH 311056Z 3112/3121 15012KT 9999 FEW030 BECMG 3118/3121 09009KT TEMPO 3120/3121 6000 RA BKN010", "TAF AMD EGNJ 311202Z 3112/3121 17012KT 9999 FEW007 PROB30 TEMPO 3112/3114 BKN009 BECMG 3116/3119 11007KT TEMPO 3118/3120 6000 RA BKN010 PROB30 TEMPO 3118/3120 3000 +RA BKN005", "TAF EGNM 311055Z 3112/0112 15010KT 9999 FEW010 SCT018 PROB30 TEMPO 3118/3120 8000 BKN008 BECMG 3120/3123 06005KT TEMPO 3120/0108 4000 RA BKN005 PROB40 TEMPO 3120/0107 0300 +RA FG BKN001 BECMG 0106/0109 25010KT TEMPO 0106/0112 26016G28KT PROB40 TEMPO 0108/0112 7000 SHRA BKN014", "TAF EGNO 311056Z 3112/3119 15012KT 9999 FEW030 BECMG 3117/3119 09009KT", "TAF EGNR 311056Z 3112/3120 16010KT 9999 SCT020 BECMG 3118/3120 10004KT TEMPO 3118/3120 6000 RA BKN010 PROB30 TEMPO 3118/3120 3000 +RA BKN005", "TAF EGNS 311100Z 3112/3121 18018KT 9999 FEW012 BKN020 PROB30 TEMPO 3112/3114 8000 -SHRA BKN012 BECMG 3116/3118 12013KT", "TAF EGNT 311055Z 3112/0112 17010KT 9999 FEW008 PROB30 TEMPO 3118/3121 8000 BKN007 BECMG 3120/3123 VRB04KT TEMPO 3121/0109 6000 RA BKN004 PROB30 TEMPO 3121/0109 2000 +RA BR BKN001 BECMG 0108/0111 25012KT TEMPO 0108/0112 26018G28KT", "TAF EGNV 311056Z 3112/3121 17012KT 9999 SCT025 BECMG 3118/3121 11004KT", "TAF EGNX 311102Z 3112/0112 19010KT 9999 FEW045 BECMG 3112/3115 13006KT PROB40 TEMPO 3112/3118 BKN008 TEMPO 3118/3122 7000 RA SHRA BKN008 PROB30 TEMPO 3118/3122 BKN004 TEMPO 3122/0110 7000 RA SHRA BKN014 PROB30 TEMPO 3122/0102 2000 +RA +SHRA BR BKN004 BECMG 0100/0103 20010KT PROB30 TEMPO 0102/0110 3000 +RA +SHRA BKN008 BECMG 0103/0106 26015KT PROB30 TEMPO 0104/0106 27018G28KT PROB30 TEMPO 0110/0112 7000 SHRA BKN010", "TAF EGPA 311056Z 3112/3121 16015KT 9999 FEW040 TEMPO 3112/3119 17020G32KT PROB40 TEMPO 3116/3121 6000 RA SHRA", "TAF EGPB 311056Z 3112/3121 19009KT 9999 FEW040 BECMG 3112/3115 18019KT PROB30 TEMPO 3112/3121 18028G38KT PROB30 TEMPO 3118/3121 6000 SHRA", "TAF EGPC 311056Z 3112/3121 16015KT 9999 FEW044 TEMPO 3112/3117 17022G34KT PROB40 TEMPO 3115/3121 6000 RA SHRA", "TAF EGPD 311055Z 3112/0112 18014KT 9999 FEW015 TEMPO 3112/3119 19018G30KT PROB30 TEMPO 3112/3115 8000 -RA BKN009 PROB40 TEMPO 3119/3124 9000 BKN007 BECMG 0100/0103 11007KT BKN008 TEMPO 0100/0103 5000 BR BKN004 TEMPO 0103/0110 2000 RA BKN002 PROB30 TEMPO 0103/0110 1300 +RA BKN001 BECMG 0110/0112 23010KT FEW030", "TAF EGPE 311056Z 3112/3121 21012KT 9999 FEW028 PROB30 TEMPO 3112/3114 23018G28KT 7000 RA TEMPO 3114/3121 6000 RA SHRA", "TAF EGPF 311055Z 3112/0112 18010KT 9999 SCT025 TEMPO 3112/3115 18015G25KT TEMPO 3112/3118 6000 SHRA PROB30 TEMPO 3112/3118 4000 +SHRA BECMG 3120/3123 09005KT TEMPO 0103/0109 6000 -RA BKN012 PROB30 TEMPO 0103/0109 4000 RA BKN007 BECMG 0108/0111 24010KT", "TAF EGPH 311055Z 3112/0112 18015KT 9999 SCT025 TEMPO 3112/3116 20020G30KT PROB30 TEMPO 3112/3117 6000 SHRA BECMG 3121/3124 09005KT TEMPO 0100/0110 5000 RA BKN008 PROB30 TEMPO 0102/0109 3000 +RA BR BKN003 BECMG 0106/0109 27010KT PROB30 TEMPO 0110/0112 25015G25KT BKN014", "TAF AMD EGPI 311206Z 3112/3119 16015KT 9999 SCT020 BECMG 3112/3114 22012KT PROB40 TEMPO 3112/3113 19018G28KT TEMPO 3112/3118 7000 RA SHRA PROB30 TEMPO 3112/3118 3000 +RA BKN010 BECMG 3115/3118 15009KT", "TAF EGPK 311055Z 3112/0112 18012KT 9999 FEW025 TEMPO 3112/3115 18018G30KT TEMPO 3112/3119 6000 RA PROB30 TEMPO 3112/3119 3000 +RA BKN008 BECMG 3120/3123 10005KT TEMPO 0103/0109 7000 -RA PROB30 TEMPO 0103/0106 4000 RA BKN008 BECMG 0107/0110 24010KT PROB30 TEMPO 0110/0112 25015G25KT BKN014", "TAF EGPL 311056Z 3112/3118 20015KT 9999 SCT015 PROB40 TEMPO 3112/3115 22018G28KT 6000 SHRA BKN011", "TAF EGPN 311058Z 3112/3121 17009KT 9999 SCT020 PROB30 TEMPO 3112/3115 18015G25KT 8000 -RA BKN014 PROB30 TEMPO 3115/3118 6000 SHRA", "TAF EGPO 311056Z 3112/3121 17022KT 9999 SCT020 BECMG 3112/3114 21014KT PROB40 TEMPO 3112/3115 21018G28KT 6000 SHRA BECMG 3115/3118 24004KT", "TAF EGPU 311058Z 3112/3119 21017KT 9999 SCT015 TEMPO 3112/3119 6000 RA SHRA BKN014 PROB40 TEMPO 3112/3115 22020G30KT BECMG 3115/3118 16007KT", "TAF EGSC 311053Z 3112/3118 17008KT 9999 SCT025 BECMG 3113/3116 11010KT TEMPO 3116/3118 8000 SHRA BKN012", "TAF EGSH 311053Z 3112/3121 14009KT 9999 SCT008 TEMPO 3116/3119 6000 RA SHRA BKN005 PROB30 TEMPO 3116/3119 3000 +RA +SHRA BKN004 TEMPO 3119/3121 6000 BKN006", "TAF EGSS 311101Z 3112/0118 13010KT 9999 FEW014 PROB30 TEMPO 3112/3113 BKN014 TEMPO 3115/0107 6000 RA SHRA BKN005 PROB30 TEMPO 3115/3121 BKN003 PROB40 TEMPO 3121/0108 1200 +RA SHGS BKN004 BKN009CB PROB30 TEMPO 3121/0101 16015G25KT BECMG 3122/0101 19012KT BECMG 0103/0106 24020G35KT BECMG 0106/0109 22012KT PROB30 TEMPO 0108/0112 6000 SHRA BKN014 TEMPO 0109/0118 23018G28KT PROB30 TEMPO 0112/0118 3000 SHRA", "TAF EGSY 311103Z 3112/3121 12010KT 9999 SCT030 PROB40 TEMPO 3112/3115 BKN010 TEMPO 3115/3121 7000 RA SHRA BKN012 PROB40 TEMPO 3115/3121 13015G25KT 4000 +RA +SHRA BKN006", "TAF EGTC 311053Z 3112/3119 17009KT 9999 FEW025 BECMG 3113/3116 11010KT TEMPO 3116/3119 8000 SHRA BKN012 PROB30 TEMPO 3117/3119 BKN008", "TAF AMD EGTE 311138Z 3112/3121 15010KT 9999 SCT015 PROB30 TEMPO 3112/3121 16015G25KT PROB40 TEMPO 3115/3121 6000 RA SHRA BKN008", "TAF EGTK 311053Z 3112/3121 17007KT 9999 FEW020 BECMG 3113/3116 11010KT TEMPO 3116/3121 6000 SHRA PROB30 TEMPO 3116/3121 3000 +SHRA BKN014CB", "TAF EGUL 311400Z 3114/0120 14015KT 9999 SCT020 BKN060 QNH2970INS BECMG 3118/3119 15012KT 9999 VCSH SCT010 BKN020 QNH2958INS BECMG 3121/3122 16012KT 8000 -RA BKN010 620805 QNH2937INS TEMPO 0100/0106 18012G22KT 4800 SHRA BR BKN007 510003 TEMPO 0106/0108 21015G30KT 520003 BECMG 0106/0108 25015G25KT 9999 VCSH FEW010 BKN020 QNH2958INS TX17/3114Z TN11/0105Z", "TAF EGUN 311200Z 3112/0118 16010G20KT 9999 FEW030 FEW200 QNH2983INS BECMG 3114/3115 14010G20KT 9999 FEW020 BKN080 620803 QNH2973INS BECMG 3117/3118 12010G20KT 9999 VCSH BKN020 OVC040 610804 QNH2961INS BECMG 3120/3121 14010G20KT 8000 -SHRA SCT010 OVC020 610805 QNH2938INS BECMG 0100/0101 16010G20KT 9000 -RA SCT006 OVC015 610805 QNH2938INS BECMG 0103/0105 25015G30KT 6000 -SHRA VCTS SCT004 OVC020CB 610802 520003 QNH2952INS TEMPO 0105/0108 24020G35KT 1600 SHRA 550005 BECMG 0107/0109 23010G20KT 9999 NSW SCT030 QNH2962INS BECMG 0109/0111 21010G25KT 8000 -RA SCT010 OVC020 610705 510003 QNH2961INS TX18/3114Z TN11/0106Z", "TAF EGVA 311300Z 3113/0119 12009KT 9999 SCT020 BKN040 QNH2970INS BECMG 3116/3117 11012KT 8000 -RA BR FEW008 BKN015 OVC030 QNH2937INS BECMG 0104/0105 26015G25KT 9999 VCSH FEW009 BKN015 OVC030 QNH2942INS BECMG 0110/0111 22012G18KT 8000 -SHRA FEW020 BKN040 510053 QNH2965INS TEMPO 0112/0116 23020G30KT 6000 -TSRA BKN020CB OVC040 TX15/3114Z TN10/0105Z", "TAF COR EHAM 311121Z 3112/0118 12009KT CAVOK BECMG 3118/3121 15012KT TEMPO 0100/0103 15015G25KT 6000 RA SHRA SCT014 BKN018 FEW025CB BECMG 0103/0106 21023G35KT BKN025 PROB40 TEMPO 0106/0111 23027G40KT 7000 -SHRA BKN020 SCT025TCU BECMG 0110/0113 21018G30KT TEMPO 0115/0118 22022G33KT 5000 SHRA BKN018 BKN020CB", "TAF EHBK 311107Z 3112/0118 12007KT CAVOK BECMG 3118/3121 18012KT PROB40 TEMPO 0100/0103 6000 RA SHRA SCT020CB BKN030 BECMG 0102/0105 22020G32KT", "TAF EHEH 311120Z 3112/0118 11007KT 7000 NSC BECMG 3117/3120 15008KT BECMG 3123/0101 20012KT 4000 RA SCT018 BKN025 TEMPO 0100/0103 23020G30KT SCT010 SCT015CB BKN025 BECMG 0102/0104 22020G32KT 9999 NSW PROB40 TEMPO 0107/0112 SCT020CB", "TAF EHGG 311107Z 3112/0118 14006KT CAVOK BECMG 3115/3118 10010KT BECMG 3121/3124 15010KT BECMG 0103/0106 18015KT PROB30 TEMPO 0103/0106 6000 -RADZ BKN020 BECMG 0106/0109 21022G35KT BKN020 PROB30 TEMPO 0106/0111 6000 -SHRA FEW018TCU BECMG 0113/0116 20015G25KT", "TAF AMD EHGR 311111Z 3111/3122 11005KT 8000 NSC TEMPO 3111/3113 3500 BR", "TAF EHKD 311325Z 3114/0102 13010KT CAVOK BECMG 3115/3117 10012KT BECMG 3119/3121 15012KT TEMPO 0101/0102 4000 SHRA RA SCT010 SCT015CB BKN020", "TAF COR EHLE 311122Z 3112/0118 10009KT CAVOK BECMG 3118/3121 15012KT TEMPO 0100/0103 15015G25KT 6000 RA SHRA SCT014 BKN018 FEW025CB BECMG 0103/0106 21023G35KT BKN025 PROB40 TEMPO 0106/0111 23025G38KT 7000 -SHRA BKN020 SCT025TCU BECMG 0110/0113 21018G30KT", "TAF EHLW 311323Z 3114/0102 13007KT CAVOK BECMG 3123/0101 15010KT", "TAF COR EHRD 311122Z 3112/0118 12009KT CAVOK BECMG 3118/3121 15012KT TEMPO 3123/0103 15015G25KT 6000 RA SHRA SCT014 BKN018 FEW025CB BECMG 0102/0105 21023G35KT BKN025 PROB40 TEMPO 0105/0111 23027G40KT 7000 -SHRA BKN020 SCT025TCU BECMG 0110/0113 21018G30KT TEMPO 0115/0118 22022G33KT 5000 SHRA BKN018 BKN020CB", "TAF EHVK 311328Z 3114/0102 11008KT CAVOK BECMG 3122/3124 16010KT TEMPO 0100/0102 22010G20KT 4000 SHRA RA SCT010 SCT015CB BKN025", "TAF EHWO 310903Z 3110/3122 12005KT CAVOK", "TAF EICK 311100Z 3112/0112 18012KT 7000 -RA SCT007 BKN040 PROB40 TEMPO 3112/3119 3000 RA PROB30 TEMPO 3112/3117 VRB03KT 1500 +RA BKN007 FEW020CB BECMG 3113/3115 32012KT BECMG 3118/3120 27010KT BECMG 3123/0101 23010KT TEMPO 3123/0102 SHRA FEW018CB BECMG 0102/0104 SCT030 TEMPO 0110/0112 SHRA SCT018CB", "TAF EIDL 311100Z 3112/3121 20010KT 9999 -RA FEW028 BECMG 3112/3114 23010KT PROB30 TEMPO 3112/3116 4000 RA BKN012 BECMG 3115/3117 15005KT", "TAF EIDW 311100Z 3112/0112 17013KT 9999 FEW010 BKN030 PROB30 TEMPO 3112/3113 19015G25KT BECMG 3113/3115 16008KT TEMPO 3113/0104 -RA BKN014 PROB40 TEMPO 3117/3124 VRB03KT 3000 RA BKN009 FEW015CB BECMG 3122/3124 24010KT PROB30 TEMPO 0100/0103 BKN008 PROB30 TEMPO 0103/0106 SHRA BECMG 0105/0107 24015KT TEMPO 0106/0112 25017G28KT TEMPO 0110/0112 FEW018CB", "TAF EIKN 311100Z 3112/0112 20010KT 7000 -RA SCT002 BKN003 BECMG 3112/3114 VRB03KT PROB40 TEMPO 3112/3116 4000 RA PROB30 TEMPO 3112/3116 BKN006 BECMG 3116/3118 SCT010 PROB40 TEMPO 3118/0102 BKN003 PROB30 TEMPO 3122/0104 3000 BR BECMG 0100/0102 17010KT PROB40 TEMPO 0104/0107 4000 SHRA FEW018CB TEMPO 0109/0112 SHRA SCT018CB", "TAF EIKY 311100Z 3112/3121 VRB03KT 9999 -RA FEW020 TEMPO 3112/3114 4000 RA BKN010 BECMG 3119/3121 20010KT", "TAF EIME 311100Z 3112/3121 19015KT 9999 FEW018 SCT030 TEMPO 3112/3115 20016G28KT -RA BECMG 3116/3118 13005KT PROB30 TEMPO 3116/3121 4000 RA BKN009", "TAF EINN 311100Z 3112/0112 VRB03KT 9999 -RA SCT006 BKN035 PROB40 TEMPO 3112/3118 4000 RA BKN006 BECMG 0100/0102 15010KT PROB40 TEMPO 0102/0110 SHRA SCT018CB BECMG 0103/0105 23011KT TEMPO 0110/0112 SHRA SCT018CB", "TAF EISG 311100Z 3112/3121 VRB03KT 9999 -RA FEW010 BKN040 PROB40 TEMPO 3112/3117 RA BKN010", "TAF AMD EIWF 311211Z 3112/3121 18015KT 9999 -RA SCT010 BKN030 PROB40 TEMPO 3112/3117 19020G30KT 4000 RA PROB30 TEMPO 3112/3116 TSRA SCT018CB TEMPO 3117/3119 3000 RA BR BKN010 BECMG 3118/3120 27008KT PROB30 TEMPO 3119/3121 4000 RA BKN012", "TAF EKAH 311124Z 3112/0112 21005KT 8000 BKN008 BECMG 3112/3115 SCT010 BKN018 TEMPO 3115/3124 BKN008 BECMG 0100/0102 12012KT BKN006 TEMPO 0102/0112 2000 BR BKN003", "TAF EKBI 311124Z 3112/0112 20006KT 8000 SCT008 BKN015 TEMPO 3112/3121 BKN008 BECMG 3121/3123 12012KT BKN006 BECMG 3123/0101 2000 BR BKN003 TEMPO 0101/0109 13015G25KT 6000 NSW BKN008 BECMG 0109/0111 21015KT 6000 RADZ BKN015", "TAF EKCH 311102Z 3112/0112 27004KT 9000 BKN008 TEMPO 3112/3118 BKN018 TEMPO 3118/3121 4000 BR BKN012 BECMG 3121/3123 12015KT 3000 BR BKN004 TEMPO 3123/0105 5000 NSW BKN008 TEMPO 0105/0112 12018G28KT 7000 NSW BKN010", "TAF EKEB 311125Z 3112/3121 17008KT 8000 BKN006 TEMPO 3112/3121 4000 BR SCT008 BKN015", "TAF EKGC 311126Z 3112/3121 19018KT 9999 FEW010 TEMPO 3112/3121 BKN005", "TAF EKHD 311126Z 3112/3121 19020KT 9999 FEW008 TEMPO 3112/3121 BKN006", "TAF EKKA 311100Z 3112/0112 20006KT 9999 BKN015 TEMPO 3112/3120 7000 BKN010 BECMG 3115/3118 13005KT TEMPO 3120/0102 4000 BR BKN006 BECMG 0102/0105 14015G25KT TEMPO 0102/0110 2000 BR BKN003 TEMPO 0110/0112 18018G30KT 3000 RA BKN005", "TAF EKOD 311156Z 3112/3116 22005KT 8000 SCT015 TEMPO 3112/3116 BKN008", "TAF EKRK 311121Z 3112/3121 25002KT 9999 BKN008 TEMPO 3112/3118 BKN015 TEMPO 3118/3121 2000 BR BKN004", "TAF EKRN 311101Z 3112/3121 31005KT 8000 BKN005 BECMG 3112/3114 0500 FG BKN002 TEMPO 3114/3118 5000 BR BKN005 BECMG 3117/3119 VRB02KT", "TAF EKSB 311156Z 3112/3121 20005KT 9000 SCT015 TEMPO 3112/3119 BKN008 BECMG 3119/3121 12010KT 2000 BR BKN004", "TAF EKSP 311100Z 3112/0112 20005KT 9999 SCT015 SCT200 TEMPO 3112/3118 7000 BKN008 BECMG 3115/3117 13005KT TEMPO 3118/3121 3000 BR BKN004 BECMG 3121/3123 11015KT 0500 FG BKN002 TEMPO 3123/0107 11015G25KT 3000 -RADZ BR BKN004 BECMG 0107/0109 18018KT 4000 RA BKN008 BECMG 0109/0112 21020G32KT 9999 NSW BKN020", "TAF EKVD 311156Z 3112/3117 19008KT 8000 SCT012 TEMPO 3112/3117 BKN008", "TAF EKVG 311122Z 3112/3121 16017G32KT 9999 -DZ FEW007 BKN013 BECMG 3113/3115 18027KT TEMPO 3113/3121 4000 DZRA OVC005", "TAF EKVJ 311156Z 3112/3116 19009KT 9000 SCT012 TEMPO 3112/3116 BKN008", "TAF AMD EKYT 311202Z 3112/0112 22008KT 9999 BKN008 BECMG 3112/3113 SCT010 BKN015 TEMPO 3113/3121 7000 BKN010 BECMG 3117/3120 13008KT TEMPO 3121/0102 4000 BR BKN006 BECMG 0101/0104 12017G27KT TEMPO 0102/0111 2500 BR BKN003 BECMG 0105/0108 13020G32KT TEMPO 0111/0112 3000 RA BKN005", "TAF ELLX 311100Z 3112/0118 13006KT CAVOK BECMG 0100/0103 21010KT TEMPO 0100/0105 -RA BKN008 TEMPO 0102/0108 23015G25KT PROB40 TEMPO 0103/0106 23020G30KT", "TAF ENAL 311100Z 3112/3121 16008KT 9999 BKN035", "TAF ENAN 3112/0112 18008KT 9999 BKN030 BECMG 3117/3119 BKN012 TEMPO 3118/3123 3000 -RADZ BR BKN005 BECMG 3123/0101 BKN020 TEMPO 0101/0109 BKN008", "TAF ENAT 311100Z 3112/3121 16005KT CAVOK", "TAF ENBN 311100Z 3112/3121 15008KT 9999 -RA FEW010 BKN018 TEMPO 3112/3115 RA BKN009 PROB40 3115/3121 BKN005", "TAF ENBO 3112/0112 10012KT 9999 -RA BKN035 TEMPO 3112/3116 RA BKN012 TEMPO 3116/0106 18009KT 4000 RADZ BKN006 TEMPO 0102/0106 21015KT", "TAF ENBR 3112/0112 18015KT 9999 SCT008 BKN015 TEMPO 3112/3118 BKN012 TEMPO 3118/3123 17018G30KT BECMG 3123/0101 14005KT TEMPO 0110/0112 12015G30KT SHRA SCT020CB", "TAF ENBS 311100Z 3112/3121 20008KT 9999 FEW008 BKN020 TEMPO 3112/3115 4000 SHRASN BKN008", "TAF ENBV 311100Z 3112/3121 22008KT 9999 -SHRA FEW008 BKN025 PROB40 TEMPO 3112/3115 BKN012", "TAF ENCN 311100Z 3112/3121 21007KT 9999 SCT008 BKN018 TEMPO 3112/3118 BKN008", "TAF ENDU 3112/0112 VRB03KT 9999 -RA FEW003 BKN040 TEMPO 3118/0106 RA BKN014 TEMPO 0106/0110 4000 -RADZ BR BKN012", "TAF ENEV 3112/0112 20008KT 9999 -RA FEW015 BKN030 TEMPO 3114/3118 RA BKN012 TEMPO 3118/0109 3000 RADZ BR BKN006", "TAF ENFL 311100Z 3112/3121 15015KT 9999 FEW012 BKN025 TEMPO 3112/3121 19020G30KT", "TAF ENGC 3112/0112 18025KT 9999 SCT008 TEMPO 3112/3116 4000 BR BKN008 BECMG 3115/3117 18035KT BKN008 BECMG 0103/0106 16022KT FEW008 BECMG 0108/0110 12035KT TEMPO 0109/0112 4000 SHRA SCT020CB", "TAF ENGM 3112/0112 19005KT 9999 BKN012 PROB40 3112/3118 SCT012 BECMG 3118/3120 0500 FG VV001 TEMPO 3120/0112 4000 BR OVC003", "TAF ENHD 311100Z 3112/3121 17015KT 9999 SCT008 BKN015 TEMPO 3112/3118 BKN008 TEMPO 3118/3121 BKN012", "TAF ENHE 311100Z 3112/3121 20022KT 9999 SCT008 BKN015 TEMPO 3112/3116 1500 BR VV003", "TAF ENHF 311100Z 3112/3121 21008KT 9999 -SHRA BKN020 PROB40 TEMPO 3112/3114 BKN014", "TAF ENHV 311100Z 3112/3121 20008KT 9999 -SHRA BKN030", "TAF ENKB 311100Z 3112/3121 11008KT 9999 BKN060", "TAF ENKR 311100Z 3112/3121 22008KT 9999 BKN020", "TAF ENLE 311100Z 3112/3121 18025KT 9999 FEW008 TEMPO 3117/3121 BKN008", "TAF ENML 311100Z 3112/3121 05005KT 9999 BKN060", "TAF ENMS 311100Z 3112/3121 19005KT 9999 -RA FEW001 BKN020 PROB40 3112/3121 2000 DZ BR VV006", "TAF ENNA 3112/0112 18009KT 9999 FEW025 SCT040 BKN100 PROB30 TEMPO 3121/3124 -FZRA PROB40 TEMPO 0105/0109 BKN012", "TAF ENNE 311100Z 3112/3118 19020KT 9999 BKN012 TEMPO 3112/3118 1500 BR VV003", "TAF ENNO 311100Z 3112/3118 VRB03KT 9999 FEW012 PROB30 3117/3118 3000 BR BKN002", "ENOA 3112/0112 18025KT 9999 SCT008 TEMPO 3112/3115 4000 BR BKN008 BECMG 3115/3117 18035KT BKN008 BECMG 0104/0107 14025KT BKN030 TEMPO 0109/0112 4000 SHRA SCT020CB", "TAF ENOL 3112/0112 13014KT 9999 FEW020 BKN040 PROB30 TEMPO 3112/3114 SHRA SCT030CB", "TAF ENOV 311100Z 3112/3121 VRB03KT 9999 BKN035 TEMPO 3112/3118 22010KT", "TAF ENRA 311100Z 3112/3121 10005KT 9999 -RA BKN035 TEMPO 3115/3118 BKN008 PROB40 3118/3121 2500 BR VV002", "TAF ENRO 311100Z 3112/3119 VRB05KT 9999 FEW008 SCT040 PROB30 3117/3119 0800 FZFG VV002", "TAF ENRY 3112/0112 20008KT 9999 SCT008 PROB30 TEMPO 3112/3119 BKN008 BECMG 3119/3121 0800 FG VV002 TEMPO 3121/0109 3000 BR OVC003 BECMG 0109/0111 12012KT NSW BKN008", "TAF ENSB 3112/0112 12008KT 9999 FEW020 BKN030", "TAF ENSD 311100Z 3112/3121 04005KT 9999 BKN040", "TAF ENSH 311100Z 3112/3121 17009KT 9999 BKN020 TEMPO 3112/3115 4000 RADZ BKN008 TEMPO 3115/3121 2000 -DZ BR BKN003", "TAF AMD ENSK 311220Z 3112/3121 15009KT 9999 -SHRA FEW020 BKN030 TEMPO 3112/3115 RA TEMPO 3115/3118 4000 RADZ BKN008 TEMPO 3118/3121 BKN005", "TAF ENSO 311100Z 3112/3119 17012KT 9999 SCT010 BKN015 TEMPO 3112/3115 BKN012", "TAF ENSR 311100Z 3112/3120 16009KT 9999 FEW040", "TAF ENTC 3112/0112 22008KT 9999 FEW025 BKN045 TEMPO 3120/3124 4000 RADZ BKN008 TEMPO 0100/0110 BKN008", "TAF ENTO 3112/0112 21008KT 9999 SCT008 PROB30 TEMPO 3112/3119 BKN008 BECMG 3119/3121 0500 FG VV001 TEMPO 3121/0109 3000 BR OVC003 BECMG 0109/0112 12012KT 9000 -RA BKN008", "TAF ENVA 3112/0112 12008KT 9999 FEW040 BKN060", "TAF ENVD 311100Z 3112/3121 29006KT 9999 FEW005 BKN018 TEMPO 3112/3114 BKN012 TEMPO 3118/3121 20010KT", "TAF ENZV 3112/0112 18012KT 9999 SCT008 BKN015 TEMPO 3112/3117 BKN008 BECMG 0102/0104 12008KT TEMPO 0106/0109 12020G30KT TEMPO 0109/0112 12022G38KT SHRA SCT020CB", "TAF EPBY 311130Z 3112/0112 VRB02KT 0400 FG OVC002 TEMPO 3112/3115 1500 BR BKN003 BECMG 0108/0111 12005KT 3000 BR BKN004", "TAF EPDE 311100Z 3112/3121 16004KT 8000 NSC BECMG 3115/3118 1500 BR BKN005", "TAF EPGD 311130Z 3112/0112 25004KT 4000 BR OVC003 TEMPO 3112/3116 6000 BKN005 BECMG 3116/3119 0600 FG OVC001 TEMPO 3119/0108 0100 FG BECMG 0108/0110 3000 BR OVC002", "TAF EPKK 311130Z 3112/0112 22010KT CAVOK BECMG 3113/3116 VRB02KT BECMG 3121/3124 1500 BR BECMG 0100/0103 0100 FG OVC001 BECMG 0108/0111 CAVOK", "TAF EPKT 311130Z 3112/0112 26004KT CAVOK BECMG 3117/3120 1500 BR TEMPO 3120/0107 0500 FG BECMG 0107/0110 20010KT CAVOK", "TAF EPLB 311130Z 3112/0112 VRB05KT 7000 SCT015 TEMPO 3112/3114 4000 BR BKN002 BECMG 3116/3119 3000 BR BKN003 BKN008 TEMPO 3120/0107 0600 FG BKN001 BECMG 0104/0106 18010KT BECMG 0107/0109 CAVOK", "TAF EPLL 311130Z 3112/0112 VRB05KT 2500 BR BKN002 BECMG 3112/3114 CAVOK TEMPO 3115/3119 1500 BR BECMG 3116/3119 0600 FG TEMPO 3121/0106 0100 FG OVC001 BECMG 0108/0111 18010KT 9999 SCT015", "TAF EPMM 311100Z 3112/3121 13004KT CAVOK BECMG 3115/3118 17003KT 2000 BR BKN004 PROB30 3117/3121 0500 FG OVC003", "TAF EPMO 311130Z 3112/0112 VRB05KT CAVOK BECMG 3116/3119 4000 BR BKN008 BKN014 BECMG 3120/3123 1400 BR BKN002 BKN005 PROB40 TEMPO 3122/0106 0300 FG OVC001 BECMG 0108/0111 9999 SCT015", "TAF EPPO 311130Z 3112/0112 26004KT CAVOK BECMG 3115/3117 1200 BR OVC002 BECMG 3117/3120 0100 FG OVC001 BECMG 0107/0110 CAVOK", "TAF EPPR 311100Z 3112/3121 18004KT 5000 BR BKN004 OVC010", "TAF EPPW 311100Z 3112/3121 29004KT 0600 FG BKN002 BECMG 3113/3115 3000 BR NSC BECMG 3115/3117 VRB02KT 1500 BR OVC002 PROB30 3117/3121 0500 FG", "TAF EPRA 311130Z 3112/3121 15006KT 0500 FG OVC002 PROB40 3113/3116 4000 BR BKN005", "TAF EPRZ 311130Z 3112/0112 25004KT CAVOK TEMPO 3117/0101 4000 BR BECMG 0101/0104 18010KT", "TAF AMD EPSC 311333Z 3113/0112 VRB02KT 0500 FG OVC001 PROB40 TEMPO 3113/3115 1500 BR OVC002 TEMPO 3116/0106 0100 FG BECMG 0105/0108 3000 BR OVC002 BECMG 0110/0112 BKN005", "TAF EPSN 311100Z 3112/3121 30004KT 0500 FG OVC002 TEMPO 3112/3115 2000 BR BKN004", "TAF EPSY 311130Z 3112/3121 16005KT 5000 BR OVC004 BECMG 3115/3118 0400 FG OVC001", "TAF EPWA 311130Z 3112/0112 16005KT CAVOK BECMG 3116/3119 4000 BR BKN009 BKN014 BECMG 3120/3123 1400 BR BKN003 BKN006 PROB40 TEMPO 3122/0106 0600 FG OVC001 BECMG 0108/0111 9999 SCT015", "TAF EPWR 311130Z 3112/0112 30010KT CAVOK BECMG 3113/3116 VRB02KT BECMG 3117/3120 3000 BR TEMPO 3120/0107 0600 FG BKN003 PROB40 TEMPO 3122/0107 0200 FG BKN001 BECMG 0107/0109 CAVOK", "TAF EPZG 311130Z 3112/3121 VRB02KT CAVOK BECMG 3115/3117 1200 BR BECMG 3117/3120 0100 FG OVC001", "TAF ESCF 311130Z 3112/3116 25008KT 9999 BKN015 RMK MIL", "TAF ESCM 311130Z 3112/3115 19005KT 9999 BKN004 BECMG 3112/3114 BKN020 TEMPO 3114/3115 BKN014 RMK MIL", "TAF ESDF 311130Z 3112/3120 30003KT 9999 BKN015 TEMPO 3112/3117 BKN007 PROB40 3117/3120 0200 FG VV001 RMK MIL", "TAF ESGG 311130Z 3112/0112 22006KT 9999 BKN015 TEMPO 3112/3115 BKN008 PROB40 3115/0112 0500 FG VV002", "TAF ESGJ 311130Z 3112/3121 22007KT 6000 SCT010 BKN020 PROB40 3118/3121 0800 FG VV002", "TAF ESGP 311130Z 3112/3121 20007KT 5000 SCT009 BKN020 PROB40 3116/3121 0800 FG VV002", "TAF ESGT 311130Z 3112/3118 21009KT 9999 BKN020 PROB40 3115/3118 BKN008", "TAF ESIB 311130Z 3112/3116 22010KT 9999 SCT015 PROB30 3115/3116 BKN010 RMK MIL", "TAF ESKN 311130Z 3112/0112 24008KT 9999 FEW010 BKN025 PROB40 3112/3113 BKN009 PROB40 3119/0108 3000 BR", "TAF ESMK 311102Z 3112/3120 25005KT 8000 BKN008 TEMPO 3112/3118 4000 BR BKN015 TEMPO 3118/3120 2000 BR BKN004", "TAF ESMQ 311130Z 3112/3120 26005KT 8000 BKN015 TEMPO 3112/3114 BKN005", "TAF ESMS 311102Z 3112/0112 24005KT 0200 BCFG OVC002 BECMG 3112/3114 8000 NSW BKN008 TEMPO 3114/3118 BKN015 TEMPO 3118/3121 3000 BR BKN004 BECMG 3121/3123 12015KT 3000 BR BKN004 TEMPO 3123/0106 5000 NSW BKN008 TEMPO 0106/0112 12015G28KT 8000 NSW BKN010", "TAF AMD ESMT 311202Z 3112/3120 28005KT 9999 BKN015 TEMPO 3112/3118 BKN008 TEMPO 3118/3120 2000 BR BKN004", "TAF AMD ESMX 311238Z 3112/3121 20004KT 4000 BR BKN002 BECMG 3112/3114 9000 SCT010 BKN020 PROB40 3114/3118 BKN012 PROB40 3118/3121 BKN009", "TAF ESNG 311130Z 3112/3121 VRB02KT 9999 FEW005 PROB40 3119/3121 4000 -FZRA BR BKN014", "TAF ESNK 311130Z 3112/3118 VRB02KT CAVOK", "TAF ESNQ 311130Z 3112/3119 23005KT CAVOK PROB40 3118/3119 4000 -FZRA BR BKN014", "TAF ESNS 311130Z 3112/3119 16004KT 9999 SCT007 TEMPO 3112/3115 2000 -RA BR BKN004 PROB40 3115/3119 2000 BR BKN003", "TAF ESNU 311130Z 3112/3121 VRB02KT 9999 OVC005 PROB40 3112/3116 0300 FG VV002 BECMG 3116/3118 NSC", "TAF ESNX 311130Z 3112/3121 VRB02KT CAVOK PROB40 3112/3120 BKN004", "TAF ESNZ 311130Z 3112/3120 24003KT CAVOK PROB40 3112/3115 0200 FG VV001", "TAF ESOE 311230Z 3113/3121 24008KT 9999 FEW015 BKN030 PROB40 3119/3121 3000 BR BKN004", "TAF ESOK 311130Z 3112/3115 22005KT 9999 SCT015 BKN030", "TAF ESOW 311130Z 3112/3121 22007KT 9999 FEW006 BKN020 PROB40 3112/3113 BKN004 PROB40 3119/3121 3000 BR", "TAF ESPA 311130Z 3112/3121 19006KT CAVOK PROB40 3112/3117 3000 DZ BR BKN005 BECMG 3117/3119 0200 FG VV002 TEMPO 3119/3121 3000 BR", "TAF ESSA 311130Z 3112/0112 24008KT 9999 BKN004 TEMPO 3112/3113 SCT005 BKN015 BECMG 3113/3115 BKN018 PROB40 3119/0109 2000 BCFG BKN004", "TAF ESSB 311130Z 3112/3121 22005KT 9999 BKN004 BECMG 3112/3114 FEW006 BKN016", "TAF ESSD 311130Z 3112/3116 25010KT 9999 SCT013 BKN019 TEMPO 3112/3113 BKN012", "TAF ESSL 311130Z 3112/3118 26007KT 9999 BKN014 BECMG 3112/3113 BKN020", "TAF ESSP 311130Z 3112/3116 23006KT 9999 BKN020 PROB40 3112/3113 BKN013", "TAF ESSV 311130Z 3112/3121 23009KT 9999 SCT005 BKN020 PROB40 3112/3121 4000 -RADZ BR BKN004", "TAF ESTA 311102Z 3112/3121 27005KT 0200 FG VV001 BECMG 3112/3114 7000 NSW BKN008 TEMPO 3114/3118 4000 BR BKN015 TEMPO 3118/3121 3000 BR BKN004", "TAF ESTL 311102Z 3112/3121 VRB02KT 7000 BKN008 TEMPO 3112/3118 4000 BR BKN015 TEMPO 3118/3121 2000 BR BKN004", "TAF ETAD 311300Z 3113/0119 12006KT 9999 BKN100 QNH2997INS BECMG 3117/3118 19006KT 9999 BKN090 QNH2991INS BECMG 0100/0101 21010G15KT 6000 -SHRA BKN015 QNH2988INS BECMG 0102/0103 24012KT 9999 NSW BKN005 QNH2988INS BECMG 0108/0109 24015G25KT 9999 SCT018 QNH3004INS BECMG 0114/0115 24012KT 9999 BKN020 QNH3005INS TX18/3113Z TN09/0106Z", "TAF ETAR 311000Z 3110/0116 09009KT 9999 BKN100 510006 QNH2996INS BECMG 3123/3124 21010G20KT 8000 -SHRA BKN025 510006 QNH2993INS TEMPO 0103/0106 23015G25KT 6000 SHRA BKN015 520006 BECMG 0114/0115 22009KT 9999 NSW SCT030 BKN040 QNH3010INS TX19/3113Z TN06/0106Z", "TAF ETEB 310700Z 3107/0113 VRB06KT 8000 BR FEW150 QNH3017INS BECMG 3108/3109 13006KT 9999 NSW FEW150 QNH3001INS BECMG 0104/0105 22006KT 9999 SCT020 BKN050 QNH3004INS BECMG 0110/0111 26010G15KT 9999 SCT010 BKN020 QNH3009INS TX16/3112Z TN11/0104Z", "TAF AMD ETHF 311153Z 3112/3121 14005KT 9999 NSW SCT140 BKN300", "TAF ETIK 311400Z 3114/0120 VRB06KT 9999 BKN100 QNH3003INS BECMG 3122/3123 VRB06KT 4800 BR SCT040 SCT100 QNH3003INS BECMG 0109/0110 08009KT 9999 NSW BKN020 OVC030 QNH3006INS BECMG 0116/0117 VRB06KT 9999 SCT060 QNH3004INS TX18/3114Z TN07/0104Z", "TAF ETNL 311138Z 3112/3124 26003KT 2000 BR BKN005 BKN150 BECMG 3112/3114 26005KT 5000 BR BKN007 SCT150 BECMG 3117/3119 09003KT 3000 BR BKN005 SCT150 BECMG 3119/3120 12003KT 0400 FG OVC001 BY ETGL", "TAF ETNW 311102Z 3112/0112 11006KT 9999 NSW BKN140 BECMG 0104/0106 19012KT 9999 NSW FEW020 BKN130 BECMG 0107/0109 21015G28KT 9999 NSW SCT030 BY ETGL", "TAF ETOU 311200Z 3112/0118 VRB06KT 9999 BKN120 QNH3001INS BECMG 3119/3120 VRB06KT 8000 BR SCT040 QNH2995INS BECMG 0102/0103 19006KT 9999 NSW SCT015 BKN025 QNH2993INS BECMG 0104/0105 20009KT 8000 -SHRA BKN012 QNH2994INS BECMG 0107/0108 23012G18KT 9999 NSW SCT015 BKN020 QNH2998INS TX17/3114Z TN10/0104Z", "TAF ETSN 311140Z 3112/3121 09001KT 0400 FG VV001 BECMG 3113/3115 VRB03KT 1500 BR SCT005 SCT150 BECMG 3117/3119 VRB02KT 0300 FG VVV001 SCT150 BY ETGL", "TAF EVLA 311105Z 3112/0112 16007KT 9999 OVC014 BECMG 3117/3119 OVC007 TEMPO 3120/0109 0600 FG BKN001 BECMG 0109/0110 BKN015", "TAF EYKA 311100Z 3112/0112 VRB03KT 9000 NSC TEMPO 3116/3120 5000 BR SCT005 BECMG 3120/3122 5000 BR SCT005 BKN015 BECMG 3123/0101 3000 OVC005 TEMPO 0103/0112 0600 FG VV002", "TAF EYPA 311100Z 3112/0112 VRB05KT 9000 BKN015 TEMPO 3112/3116 BKN010 BECMG 3116/3118 5000 BR OVC010 BECMG 3118/3120 OVC005 TEMPO 3120/0106 3000 BECMG 0108/0110 8000 NSW BKN010", "TAF EYVI 311100Z 3112/0112 VRB04KT 9000 NSC BECMG 3118/3120 5000 BR TEMPO 3120/3124 1500 SCT003 TEMPO 0100/0106 0800 FG VV002 BECMG 0106/0108 8000 NSW BKN005 OVC010", "TAF FABL 311000Z 3112/0112 23005KT 9999 SCT025 TX30/3112Z TN12/0104Z BECMG 3120/3122 08010KT BECMG 0110/0112 SCT035TCU", "TAF FACT 311000Z 3112/0118 17020KT CAVOK TX29/0112Z TN13/0104Z PROB40 TEMPO 3112/3115 17020G32KT BECMG 3118/3120 VRB03KT BECMG 0108/0110 16018KT", "TAF FAEL 310900Z 3110/3119 18012KT 9999 FEW014 BKN030 TX16/3110Z TN15/3118Z PROB40 TEMPO 3110/3115 4000 SHRA BKN010 FEW030TCU BECMG 3117/3119 07005KT", "TAF FAGG 311000Z 3112/0112 17012KT 9999 SCT035 TX21/0112Z TN12/0104Z FM311900 11008KT 9999 FEW045", "TAF FAHS 310900Z 3110/3118 16010KT 9999 BKN025 TX28/3110Z TN18/3118Z PROB40 TEMPO 3110/3118 -SHRA BKN015 FEW040TCU PROB30 TEMPO 3112/3118 4000 TSRA FEW030CB", "TAF FAKM 310900Z 3110/3118 22005KT 9999 SCT035 TX30/3112Z TN20/3118Z", "TAF FAKN 310915Z 3110/3118 VRB03KT 9999 BKN015 TX19/3110Z TN18/3118Z PROB30 TEMPO 3110/3112 5000 -RA BR BKN010 PROB40 TEMPO 3110/3118 3000 TSRA BCFG OVC005 FEW030CB PROB30 TEMPO 3116/3118 0500 FG OVC003", "TAF AMD FALA 311300Z 3112/0112 32012KT 9999 SCT045 TX28/3112Z TN16/0103Z PROB40 TEMPO 3113/3121 5000 TSRA FEW040CB BECMG 3116/3118 VRB03KT BECMG 3120/3122 09008KT BKN012 PROB30 TEMPO 0100/0106 5000 BR BKN008 BECMG 0106/0108 02012KT BKN020", "TAF FALE 311000Z 3112/0118 17012KT 9999 BKN015 OVC025 TX20/0112Z TN15/0103Z TEMPO 3112/3120 4000 RA SCT008 BKN013 BECMG 3121/3123 VRB03KT PROB30 TEMPO 0100/0110 5000 -RA BKN015 FM011000 08006KT 9999 BKN025 OVC040", "TAF FAMM 310900Z 3110/3118 VRB03KT CAVOK TX29/3112Z TN20/3118Z PROB40 TEMPO 3112/3118 -TSRA FEW040CB PROB30 TEMPO 3115/3118 5000 TSRA FEW040CB", "TAF AMD FAOR 311305Z 3112/0118 30009KT 9999 SCT045 TX26/3113Z TN13/0103Z PROB40 TEMPO 3113/3118 5000 TSRA BKN008 FEW035CB BECMG 3119/3121 08011KT BKN010 PROB30 TEMPO 3122/0106 4500 BR BKN004 BECMG 0107/0109 01011KT BKN020 PROB30 TEMPO 0114/0118 01015G25KT BKN012", "TAF FAPE 311000Z 3112/0112 18010KT 9999 SCT030 TX20/0110Z TN13/0104Z BECMG 3115/3117 09010KT BECMG 0109/0111 09020KT", "TAF FAPM 310900Z 3110/3121 15008KT 9999 SCT012 OVC020 TX17/3111Z TN13/3121Z TEMPO 3110/3121 4000 RA BKN007 OVC015", "TAF FAPP 310900Z 3110/3118 08012KT 9999 SCT035 TX29/3112Z TN18/3118Z PROB30 TEMPO 3110/3113 -TSRA FEW035CB PROB40 TEMPO 3113/3118 4000 TSRA FEW030CB", "TAF FARB 310900Z 3110/3118 17012KT 9999 BKN015 OVC030 TX21/3112Z TN18/3118Z TEMPO 3110/3116 4000 RA BKN012", "TAF FAUP 311000Z 3112/0112 VRB03KT CAVOK TX32/3113Z TN13/0104Z FM011200 35010KT 9999 FEW070TCU", "TAF FAUT 310900Z 3110/3118 19010KT 6000 -DZ BKN010 OVC025 TX14/3110Z TN10/3118Z TEMPO 3110/3118 3000 RA BR BKN005", "TAF FAWB 310900Z 3110/3118 32010KT 9999 SCT035 TX26/3112Z TN20/3118Z PROB30 TEMPO 3110/3112 -SHRA FEW035TCU PROB40 TEMPO 3111/3118 5000 TSRA FEW030CB", "TAF FAWK 310900Z 3110/3118 31012KT 9999 SCT035 TX25/3112Z TN18/3118Z PROB30 TEMPO 3110/3112 -SHRA FEW035TCU PROB40 TEMPO 3111/3118 5000 TSRA FEW030CB", "TAF COR FBKE 311155Z 3112/3121 12008KT CAVOK BECMG 3114/3116 FEW035CB", "FBMN 311000Z 3112/0112 13010KT 9999 FEW035CB BKN060 PROB30 TEMPO 3112/3118 TSRA BECMG 3119/3121 CAVOK BECMG 0104/0106 04014KT", "FBPM 311000Z 3112/0112 16010KT 9999 FEW035CB BKN060 PROB30 TEMPO 3112/3118 TSRA BECMG 3119/3121 CAVOK BECMG 0101/0103 09015G25KT OVC010 BECMG 0110/0112 10014KT BKN025 FEW035CB", "TAF FBSK 311000Z 3112/0118 29010KT 9999 FEW035CB BKN060 PROB30 TEMPO 3116/3120 TSRA BECMG 3121/3123 CAVOK BECMG 0102/0104 04014KT OVC012 B ECMG 0110/0112 FEW025 FEW035CB", "TAF COR FCBB 311100Z 3112/0118 26004KT 9000 SCT020 BECMG 3113/3115 FEW020 FEW030CB BECMG 3119/3121 FEW020 BECMG 0100/0102 SCT018 FEW030CB PROB40 0108/0114 -TSRA BECMG 0114/0116 FEW020", "TAF FCPP 311100Z 3112/0112 20010KT 9000 SCT012 BKN023 FEW030CB BECMG 3118/3120 VRB03KT SCT015 BECMG 3123/0101 SCT016 FEW030CB PROB40 0101/0104 -TSRA PROB40 0110/0112 -TSRA BKN010 FEW030CB", "FDMS 311000Z 3112/3118 11010KT 9999 SCT020 BKN030 PROB TEMPO 3113/3118 8000 -SHRA SCT015 FEW040CB", "FDSK 311000Z 3112/3118 16013KT 9999 SCT015 BKN025 TEMPO 3112/14 8000 -RA PROB30 TEMPO 3114/3118 5000 -SHRA SCT010 FEW040CB", "TAF FEFF 311100Z 3112/0118 18006KT 9999 SCT020 FEW040CB PROB30 TEMPO 0100/0104 VRB12KT 4000 TSRA BECMG 0107/0109 BKN013 BECMG 0110/0112 SCT023 FEW033CB TEMPO 0113/0117 4000 TSRA", "TAF FGBT 311100Z 3112/0112 23006KT 9999 SCT010 PROB40 TEMPO 3115/3121 3000 TSRA BKN010 FEW018CB PROB30 TEMPO 0104/0108 TS BKN008 FEW018CB", "TAF FGSL 311100Z 3112/0118 24006KT 9999 SCT010 PROB30 TEMPO 3112/3116 3500 TSRA BKN010 FEW020CB PROB40 TEMPO 3123/0105 2000 +TSRA BKN008 SCT018CB TEMPO 0105/0109 TS BKN008 FEW018CB", "TAF FIMP 311115Z 3112/0118 10010KT 9999 SCT017 TEMPO 3112/3114 3000 SHRA FEW008 FEW013TCU BKN014 TEMPO 3118/0103 7000 -SHRA FEW010 BKN014", "TAF FIMR 311120Z 3112/0106 09018G30KT 9999 SCT018", "TAF FJDG 310900Z 3109/0115 VRB06KT 9999 FEW025 SCT250 QNH2979INS BECMG 3114/3115 12009KT 9999 FEW025 SCT250 QNH2980INS TX32/3110Z TN26/3122Z FOR MIL USE ONLY", "TAF FKKD 311100Z 3112/0118 VRB03KT 9999 BKN016 FEW020CB PROB40 3115/3119 TS BECMG 3120/3122 BKN013 FEW016CB TEMPO 3121/0103 4000 TSRA TEMPO 0105/0108 3000 BR BECMG 0108/0110 BKN016 FEW020CB", "TAF FKKL 310500Z 3106/3118 VRB04KT CAVOK", "TAF FKKR 310500Z 3106/3118 12004KT CAVOK", "TAF FKYS 311100Z 3112/0112 17005KT 9999 BKN016 TEMPO 3115/3120 4000 TSRA BKN014 FEW020CB BECMG 3121/3123 BKN006 BECMG 0108/0110 BKN016", "TAF FLCP 301000Z 3012/3118 12005G15KT 9999 BKN040 BECMG 3015/3017 09005KT CAVOK BECMG 3108/3110 06010KT 9999 SCT030 BECMG 3112/3114 12010KT FEW040CB SCT040TCU", "TAF FLHN 301000Z 3012/3118 10010KT 9000 HZ FEW040 FM301600 08005KT CAVOK BECMG 3020/3022 VRB03KT BECMG 3104/3106 10005G15 9000 HZ NSC", "TAF FLKK 301000Z 3012/3118 10010G20KT 9000 HZ SCT040TCU PROB30 TEMPO 3013/3015 -TS FEW040CB FM301600 13010KT CAVOK FM302100 11005KT", "TAF FLKS 301000Z 3012/3118 12005G15KT 9999 BKN040 FM301600 10005KT CAVOK FM302200 VRB03KT BECMG 3107/3109 07005G15KT 9999 SCT025", "TAF FLMA 301000Z 3012/3118 08010KT 9999 SCT040TCU PROB30 TEMPO 3013/3015 9000 -TS FEW040CB BECMG 3017/3019 12005KT CAVOK FM310400 08005KT", "TAF FLMF 301000Z 3012/3118 12005G15KT 9999 BKN040 BECMG 3015/3017 09005KT CAVOK BECMG 3108/3110 06010KT 9999 SCT030 BECMG 3112/3114 12010KT FEW040CB SCT040TCU", "TAF FLSK 301000Z 3012/3118 11015KT 9000 FU FEW040 BECMG 3014/3016 05010KT CAVOK BECMG 3019/3021 12005KT BECMG 3103/3105 9000 FU NSC", "TAF FLSW 301000Z 3012/3118 08005KT 9999 SCT040 PROB30 TEMPO 3013/3015 9000 -TSRA FEW040CB FM301600 VRB03KT CAVOK BECMG 3107/3109 07005KT 9999 FEW025", "TAF FMCH 311100Z 3112/0118 12018KT 9999 FEW020 BECMG 3115/3117 10004KT BECMG 0104/0106 13015KT", "TAF FMCZ 311100Z 3112/0112 06012KT 9999 FEW023", "TAF FMEE 311100Z 3112/0118 08015KT 9999 SCT040 BECMG 3113/3115 14010KT PROB40 TEMPO 3115/3121 2500 SHRA SCT025TCU BECMG 0102/0104 08018KT BECMG 0109/0111 14008KT", "TAF FMEP 311100Z 3112/3121 26012KT 9999 FEW040 BECMG 3113/3115 06006KT", "TAF COR FMMI 311100Z 3112/0118 12010KT 9999 SCT020CB SCT023 BECMG 3119/3122 00000KT FEW017 SCT020 PROB40 0100/0105 3000 BR BECMG 0105/0107 11010KT BECMG 0113/0115 FEW023CB", "TAF FMMS 311100Z 3112/0112 12008KT 9999 FEW020 SCT040 PROB30 TEMPO 0100/0109 4000 SHRA", "TAF FMMT 311100Z 3112/0112 10010KT 9999 SCT017TCU CHECK TEXT NEW ENDING ADDED LEEEYQYX ", "TAF FMNA 311100Z 3112/0112 14012KT 9999 FEW020", "TAF COR FMNM 311100Z 3112/0112 34010KT 9999 FEW020CB BECMG 3119/3122 12006KT BECMG 0106/0108 FEW020 BECMG 0110/0112 34010KT FEW020CB", "TAF FMNN 311100Z 3112/0112 VRB05KT 9999 SCT020 PROB30 TEMPO 3121/0106 4500 SHRA", "TAF FMSD 311100Z 3112/0112 10023G33KT 9999 FEW020 BECMG 3122/3124 08010KT BECMG 0107/0109 10020G30KT", "TAF FMST 311100Z 3112/0112 26012KT 9999 SCT020CB BKN040 PROB40 TEMPO 3112/3119 4000 TSRA BECMG 3119/3121 04005KT SCT020 BECMG 0107/0109 26012KT", "TAF FNBG 311100Z 3112/3124 31008KT 9999 SCT020", "TAF FNCA 311100Z 3112/3124 18008KT 8000 SCT012 BKN020 TEMPO 3112/3116 TS FEW023CB", "TAF FNCT 311100Z 3112/3124 32010KT 9999 SCT018 BECMG 3117/3119 21006KT", "TAF FNDU 311100Z 3112/3124 03005KT 9999 FEW010 SCT020 PROB30 TEMPO 3115/3121 5000 -TSRA FEW028CB", "TAF FNGI 311100Z 3112/3124 22006KT 9999 FEW020 FEW023TCU", "TAF FNHU 311100Z 3112/3124 16007KT 9999 FEW018 TEMPO 3113/3119 31010KT 3000 TSRA BKN014 FEW018CB", "TAF FNKU 311100Z 3112/3124 13005KT 9999 SCT023 PROB30 TEMPO 3113/3118 4000 -TSRA", "TAF FNLU 311100Z 3112/0118 25010KT 9999 SCT020 TEMPO 3113/3117 FEW025TCU BECMG 3119/3121 17006KT", "TAF FNMA 311100Z 3112/3124 26008KT 7000 SCT015 TEMPO 3114/3118 TS FEW018CB", "TAF FNME 311100Z 3112/3124 08008KT 9999 SCT020 TEMPO 3113/3117 FEW023CB", "TAF FNMO 311100Z 3112/3124 28012KT 9999 SCT020", "TAF FNSA 311100Z 3112/3124 27007KT 9999 FEW018 PROB30 TEMPO 3114/3119 5000 -TSRA SCT022 FEW026CB", "TAF FNSO 311100Z 3112/3124 25010KT 9000 SCT012 BKN040 TEMPO 3113/3117 FEW018CB", "TAF FNUB 311100Z 3112/3124 25008KT 9999 SCT020 PROB30 TEMPO 3113/3117 4000 -TSRA FEW023CB", "TAF FNUE 311100Z 3112/3124 27008KT 9999 FEW020 PROB30 TEMPO 3113/3117 TS FEW025CB", "TAF FOOG 311100Z 3112/0112 21010KT 9999 SCT012 BKN030 TEMPO 3115/3121 TS BKN010 FEW020CB TEMPO 3123/0106 4000 TSRA BKN008 FEW020CB", "TAF FOOL 311100Z 3112/0118 20006KT 9999 SCT012 TEMPO 3125/3121 TS BKN010 FEW020CB TEMPO 3124/0106 4500 TSRA BKN008 FEW020CB", "TAF FSIA 310501Z 3106/0106 13011KT 9999 FEW022", "TAF FTTJ 311100Z 3112/0118 01012KT 8000 NSC", "TAF FWCL 310900Z 3112/0118 05012KT 9999 FEW030 BECMG 3112/3114 11004KT 9999 SCT035 BECMG 3115/3117 09006KT 9999 FEW035 FM311800 10008KT CAVOK BECMG 0106/0108 06008KT 9999 BKN025 PROB30 TEMPO 0109/0113 12007KT 8000 -TSRA FEW030CB BKN080 FM011400 17010KT 9999 FEW035CB BKN080", "TAF FWKI 311000Z 3112/0118 10014KT 9999 FEW035CB SCT040 FM311600 09012KT CAVOK", "TAF FYGF 311100Z 3112/3121 31004KT 9999 SCT040 TEMPO 3113/3117 04006KT FEW035CB", "TAF FYKM 311100Z 3112/3121 09008KT 9999 SCT035 TEMPO 3113/3117 FEW030CB", "TAF FYLZ 311100Z 3112/3121 21015KT CAVOK", "TAF FYOA 311100Z 3112/3121 22005KT 9999 SCT045 BECMG 3117/3119 00000KT NSC", "TAF FYRU 311100Z 3112/3121 06006KT 9999 SCT045 TEMPO 3113/3117 -TSRA FEW040CB", "TAF FYWB 311000Z 3112/0112 26012KT CAVOK", "TAF FYWE 311100Z 3112/3121 32008KT CAVOK", "TAF FYWH 311000Z 3112/0112 34010KT CAVOK", "TAF GABS 311100Z 3112/0118 08010G20KT 8000 FEW030 PROB40 TEMPO 3117/3122 4500 HZ PROB40 TEMPO 0106/0110 4000 HZ", "TAF GAGO 311100Z 3112/0112 06010G20KT 8000 NSC PROB40 TEMPO 3112/3116 08016G26KT 4000 BLDU TEMPO 0108/0114 06016G26KT 4000 BLDU", "TAF GBYD 311100Z 3112/0118 34008KT CAVOK", "TAF GCFV 310800Z 3109/0109 05009KT CAVOK TX26/3114Z TN19/0106Z", "TAF GCGM 310800Z 3109/0109 VRB05KT CAVOK TX26/3114Z TN19/0106Z", "TAF GCHI 310800Z 3109/0109 01012KT 9999 FEW015 TX25/3114Z TN21/0106Z", "TAF GCLA 310800Z 3109/0109 01006KT 9999 FEW020 TX25/3114Z TN22/0106Z BECMG 3117/3119 32010KT", "TAF GCLP 310800Z 3109/0109 02016KT 9999 FEW020 TX27/3114Z TN20/0106Z", "TAF AMD GCRR 311204Z 3112/0109 36008KT CAVOK TX28/3114Z TN19/0106Z TEMPO 3112/3119 06010KT", "TAF GCTS 310800Z 3109/0109 07013KT CAVOK TX27/3114Z TN19/0106Z PROB30 TEMPO 3109/3110 01005KT PROB30 TEMPO 3115/3119 VRB05KT", "TAF GCXO 310800Z 3109/0109 29010KT 9999 FEW003 TX24/3114Z TN16/0106Z TEMPO 3112/3119 13006KT PROB30 TEMPO 3119/0107 3000 BCFG BKN002", "TAF GECE 310800Z 3109/0109 07004KT 9999 FEW010 BKN020 TX22/3113Z TN19/0105Z TEMPO 3109/3113 BKN014", "TAF GEML 311100Z 3112/0112 27006KT CAVOK TX25/3113Z TN19/0106Z", "TAF GGOV 311100Z 3112/0112 VRB05KT 8000 SCT012 PROB30 TEMPO 0105/0108 1200 BR BKN006", "TAF GMAD 311100Z 3112/0118 05008KT CAVOK", "TAF GMAG 311100Z 3112/0118 15009KT CAVOK", "TAF GMFF 311100Z 3112/0118 30006KT CAVOK TEMPO 3112/3117 32012KT FEW033 BKN200", "TAF GMFK 311100Z 3112/0118 19008KT CAVOK", "TAF GMFM 311100Z 3112/0118 36003KT CAVOK BECMG 3114/3117 32013KT", "TAF GMFO 311100Z 3112/0118 26010KT CAVOK", "TAF GMME 311100Z 3112/0118 34008KT 6000 SCT020 PROB30 TEMPO 3122/0107 VRB02KT 4000 BR BKN010", "TAF GMMH 311100Z 3112/0118 05006KT CAVOK PROB30 0100/0108 4000 BR", "TAF GMMI 311100Z 3112/0118 30008KT 8000 NSC", "TAF GMML 311100Z 3112/0118 13004KT CAVOK PROB30 0102/0108 4000 BR", "TAF GMMN 311100Z 3112/0118 34012KT CAVOK BECMG 3121/3124 14006KT TEMPO 0100/0107 2000 BR SCT004 BKN090 BECMG 0110/0113 36012KT", "TAF GMMW 311100Z 3112/0118 03006KT 6000 NSC", "TAF GMMX 311100Z 3112/0118 34008KT 8000 NSC", "TAF GMMZ 311100Z 3112/0118 VRB02KT CAVOK", "TAF GMTA 311100Z 3112/0118 36007KT 8000 NSC", "TAF GMTT 311100Z 3112/0118 VRB02KT 6000 NSC PROB40 0100/0108 3000 BR", "TAF GOBD 311100Z 3112/0118 04010KT 7000 NSC", "TAF GOGS 311100Z 3112/0112 34006KT CAVOK", "TAF GOOY 311100Z 3112/0118 04010KT 8000 NSC", "TAF GOSS 311100Z 3112/0112 06010KT 6000 NSC", "TAF GQNO 311100Z 3112/0118 08012KT 6000 NSC", "TAF GQPP 311100Z 3112/0112 02015KT 6000 NSC", "TAF GVAC 311100Z 3112/0118 05012KT 9999 FEW013", "TAF GVBA 311100Z 3112/0118 06012KT 9000 FEW014", "TAF GVNP 311100Z 3112/0118 03011KT 9000 FEW016", "TAF GVSV 311100Z 3112/0118 05018KT 9000 FEW018", "TAF HAAB 310930Z 3112/0118 VRB10KT 9999 FEW060", "TAF HADR 301530Z 3018/3124 18005KT CAVOK", "TAF HBBA 310500Z 3106/0112 36004KT 9999 FEW030 SCT100 BECMG 3107/3109 18006KT PROB30 TEMPO 3113/3117 09010G20KT 7000 TSRA FEW025CB SCT030 BKN100 BECMG 3118/3120 00000KT CAVOK BECMG 0102/0104 36003KT 9999 FEW030 SCT100 BECMG 0107/0109 18006KT", "TAF HCMM 311100Z 3112/0118 13010KT 9999 SCT024 BECMG 3118/3122 12005KT BKN019 BECMG 0106/0109 14010KT 9999 SCT023", "TAF HDAM 311100Z 3112/0112 08010KT 9999 SCT023 FEW133 FEW266 BECMG 3115/3121 VRB05KT SCT023 BECMG 0100/0106 15010KT SCT023 SCT133", "TAF HEAL 311100Z 3112/0118 32012KT 9999 SCT020 TEMPO 3112/0110 7000 -RA BKN020 PROB40 3122/0103 6000 TSRA FEW017CB", "TAF HEAR 311100Z 3112/0118 32010KT 9999 SCT025", "TAF HEAT 311100Z 3112/0118 36014KT CAVOK", "TAF HEAX 311100Z 3112/0118 31010KT 9999 SCT020 TEMPO 3116/0112 8000 -RA BKN020", "TAF HEBA 311100Z 3112/0118 31011KT 9999 SCT020 TEMPO 3116/0112 8000 -RA BKN020", "TAF HEBL 311100Z 3112/0118 02010KT CAVOK", "TAF HECA 311100Z 3112/0118 33008KT 9999 SCT025", "TAF HEGN 311100Z 3112/0118 34015KT CAVOK", "TAF HELX 311100Z 3112/0118 35010KT CAVOK", "TAF HEMA 311100Z 3112/0118 36015KT CAVOK", "TAF HEMM 311100Z 3112/0118 32012KT 9999 SCT020 TEMPO 3112/0110 7000 -RA BKN020 PROB40 3122/0103 6000 TSRA FEW017CB", "TAF HEOW 311100Z 3112/0118 35015KT CAVOK", "TAF HEPS 311100Z 3112/0118 31008KT 9999 SCT025", "TAF HESC 311100Z 3112/0118 34006KT CAVOK", "TAF HESG 311100Z 3112/0118 35012KT CAVOK", "TAF HESH 311100Z 3112/0118 02012KT CAVOK", "TAF HESN 311100Z 3112/0118 03012KT CAVOK", "TAF HETB 311100Z 3112/0118 35012KT CAVOK", "TAF HETR 311100Z 3112/0118 30012G22KT CAVOK", "TAF HKEL 311100Z 3112/0118 16011KT 9999 FEW021CB SCT022 PROB40 TEMPO 3113/3117 -TSRA FEW020CB SCT021 BKN080 BECMG 3120/3123 CAVOK BECMG 0106/0109 18010KT 9999 FEW024CB SCT025 PROB30 TEMPO 0113/0117 -TSRA FEW020CB SCT021 BKN080", "TAF HKJK 311100Z 3112/0118 07012KT 9999 BKN026 PROB30 TEMPO 3114/3118 -SHRA FEW020CB SCT021 BKN080 BECMG 3120/3123 CAVOK BECMG 0103/0106 9999 BKN018 BECMG 0109/0112 SCT025", "TAF HKKI 311100Z 3112/0118 22010KT 9999 SCT027 PROB40 TEMPO 3113/3117 -TSRA FEW022CB SCT023 BKN080 BECMG 3120/3123 CAVOK BECMG 0106/0110 36010KT 9999 FEW026CB PROB40 TEMPO 0113/0117 -TSRA FEW022CB SCT023 BKN080", "TAF HKML 311100Z 3112/0112 14010KT 9999 SCT022 TEMPO 0100/0104 00000KT -RA SCT020 BKN080 BECMG 0109/0112 15010KT NSW SCT023", "TAF HKMO 311100Z 3112/0118 13010KT 9999 BKN024 TEMPO 0100/0104 22005KT -SHRA FEW019CB BKN020 OVC080 BECMG 0109/0112 14010KT NSW SCT025", "TAF HKNW 311100Z 3111/0111 06010KT 9999 BKN026 BECMG 3120/3123 CAVOK BECMG 0102/0105 9999 BKN017 BECMG 0107/0110 SCT025", "TAF HLGD 311100Z 3112/0112 33010KT 8000 SCT025 BECMG 3118/3120 VRB02KT", "TAF HLGT 311100Z 3112/0112 VRB02KT 8000 NSC", "TAF HLKF 311100Z 3112/0112 36008KT CAVOK BECMG0100/0102 VRB02KT", "TAF HLLB 311100Z 3112/0112 33010KT 8000 SCT025 BKN080 FL115FL115BECMG 3118/3120 VRB02KT", "TAF HLLM 311100Z 3112/0112 33010KT 8000 SCT025 BECMG3118/3120 VRB02KT ", "TAF HLLQ 311100Z 3112/0112 VRB02KT 8000 SCT020", "TAF HLLS 311100Z 3112/0112 36010KT 8000 NSC BECMG 0100/0102 VRB02KT", "TAF HLMS 311100Z 3112/0112 36010KT 8000 SCT025 BECMG 3118/3120 VRB02KT", "TAF HLON 311100Z 3112/0112 VRB02KT 8000 NSC", "TAF HLTD 311100Z 3112/0112 36008KT 8000 NSC", "TAF HLTQ 311100Z 3112/0112 34012KT 8000 SCT025", "TAF HLUB 311100Z 3112/0112 36010KT 8000 NSC BECMG 0100/0102 VRB02KT", "HRYR 311100Z 3112/0118 08006KT 9999 BKN025 PROB30 TEMPO 3114/3118 02010G20KT -TSRA FEW023CB BKN025 BECMG 3119/3123 34005KT NSW SCT026 SCT100 BECMG 0105/0108 04007KT BKN025 BECMG 0110/0113 12015KT TSRA FEW020CB BKN025", "TAF HRZA 311100Z 3112/0118 20005KT 9999 FEW023CB SCT025 BECMG 3114/3116 24006KT -TSRA FEW023CB BKN025 BECMG 3121/3123 32005KT BKN025 FM 010200 00000KT 9000 SCT025 TEMPO 0108/0110 24004KT 9999 RA BECMG 0113/0115 18006KT -TSRA FEW023CB BKN025", "TAF HSSJ 311000Z 3112/0118 09005KT 9999 SCT040 BKN120 PROB30 TEMPO 3115/3121 VRB05G15KT 6000 -TSRA FEW030CB BKN090", "TAF HSSK 311100Z 3112/0118 02013G23KT CAVOK", "HTAR 311100Z 3112/0112 12010KT 9999 SCT036 FEW038CB BECMG 3115/3118 FEW030", "HTDA 311100Z 3112/0118 07010KT 9999 SCT035 BECMG 3117/3120 12005KT SCT015", "HTDO 311100Z 3112/0112 12016KT 9999 FEW030", "HTKA 311100Z 3112/0112 00000KT 9999 FEW020 FEW021CB TEMPO 3112/3115 30010KT", "HTKJ 311100Z 3112/0112 09015KT 9999 FEW034 BECMG 3122/3124 09005KT BKN022", "HTMW 311100Z 3112/0112 30010KT 9999 FEW025 FEW026CB BECMG 0106/0108 10010KT NSW", "HTTB 311100Z 3112/0112 09010KT 9999 FEW026", "HTZA 311100Z 3112/0112 12015KT 9999 SCT022 BECMG 3118/3120 00000KT", "TAF HUEN 311100Z 3112/0118 35010KT 9999 FEW023 FEW025CB BECMG 0103/0105 VRB08KT 9000 -TSRA SCT018 FEW020CB BKN100 BECMG 0107/0118 16008KT", "TAF HUSO 311100Z 3112/0112 16007KT 9999 SCT021 FEW023CB FM 311400 05006KT TS SCT020 FEW0222CB BECMG 0101/0106 36004KT CAVOK BECMG 0108/0112 07007KT SCT021 FEW023CB", "KABE 311326Z 3113/0112 00000KT P6SM SCT030 SCT150 TEMPO 3113/3115 BKN015 FM311500 19005KT P6SM BKN035 OVC100 FM010000 17003KT P6SM VCSH OVC020 FM010600 16003KT P6SM VCSH OVC009", "KABI 311120Z 3112/0112 VRB05KT P6SM BKN250", "KABQ 311120Z 3112/0112 01008KT P6SM SKC FM311500 VRB05KT P6SM SKC FM010200 13007KT P6SM SKC", "KABR 311120Z 3112/0112 20008KT P6SM SCT250 FM312000 24010G17KT P6SM FEW250 FM312300 22006KT P6SM FEW250", "KABY 311245Z 3113/0112 VRB03KT P6SM OVC006 TEMPO 3113/3115 2SM BR FM311600 20006KT P6SM BKN015 FM311900 25006KT P6SM SCT040", "KACK 311120Z 3112/0112 15005KT P6SM BKN130 FM312200 17009KT P6SM BKN019 FM010800 24007KT P6SM VCSH OVC007 FM011100 24007KT P6SM -SHRA OVC010", "KACT 311120Z 3112/0112 VRB03KT P6SM BKN250 FM312100 14005KT P6SM SCT150 BKN250", "KACV 311258Z 3113/0112 VRB04KT 6SM BR BKN020 FM311800 31005KT 6SM HZ SCT020 SCT200 FM010000 VRB03KT 6SM HZ BKN025 FM010400 15005KT 6SM BR VCSH SCT007 BKN015 FM010900 29007KT 4SM -RA BR OVC015", "KACY 311121Z 3112/0112 00000KT P6SM OVC035 FM311500 19005KT P6SM SCT040 BKN100 FM010500 20003KT P6SM VCSH OVC015", "KADF 311207Z 3112/0112 VRB03KT P6SM SCT025 BKN050 TEMPO 3112/3114 5SM BR FM311400 28006KT P6SM SCT060 SCT250 FM010000 VRB03KT P6SM SKC AMD NOT SKED", "TAF AMD KADW 311225Z 3112/0115 19004KT 6000 BR SCT006 BKN025 QNH3005INS TEMPO 3112/3114 BKN006 BECMG 3113/3114 21010G15KT 9999 NSW SCT006 BKN025 OVC080 QNH3002INS BECMG 3118/3119 21010G15KT 9999 -SHRA OVC020 QNH3000INS BECMG 3123/3124 20010KT 8000 -SHRA OVC020 QNH3000INS BECMG 0106/0107 17008KT 4800 -SHRA BR SCT002 BKN006 OVC020 QNH3000INS BECMG 0108/0109 18005KT 3200 -SHRA BR BKN002 OVC006 QNH3000INS BECMG 0111/0112 VRB03KT 3200 -DZ BR OVC002 QNH3002INS TX18/3119Z TN13/3112Z", "KAEG 311120Z 3112/0112 36008KT P6SM SKC FM312000 VRB05KT P6SM SKC FM010300 25006KT P6SM SKC", "KAEX 311237Z 3113/0112 00000KT P6SM SKC TEMPO 3113/3114 3SM BR FM311400 32003KT P6SM SCT050 FM010000 00000KT P6SM SKC", "TAF KAFF 311101Z 3111/0117 34009KT 9999 SKC 510203 QNH3002INS BECMG 3115/3116 01006KT 9999 FEW200 QNH2996INS WND 16012KT AFT 3118 BECMG 3120/3121 16010G18KT 9999 FEW150 SCT200 QNH2995INS BECMG 3123/3124 16009KT 9999 FEW150 SCT200 QNH2998INS WND 34009KT AFT 0104 BECMG 0110/0111 34009KT 9999 FEW150 SCT200 520006 QNH3005INS WND 240V030 ROTOR CONDS EXIST BECMG 0115/0116 27012KT 9999 FEW150 SCT200 520006 QNH3006INS TX17/3121Z TNM05/3113Z", "KAFW 311120Z 3112/0112 VRB03KT P6SM BKN250 FM312200 14005KT P6SM SCT250", "KAGC 311403Z 3114/0112 16005KT 2SM -SHRA BR BKN003 OVC011 FM311500 17005KT 4SM -SHRA BR BKN008 OVC013 FM311600 19005KT P6SM OVC013 FM312300 18003KT P6SM VCSH OVC035", "KAGS 311308Z 3113/0112 15004KT 2SM BR VCSH OVC007 TEMPO 3113/3114 1/2SM -RA FG VV002 FM311700 18005KT P6SM VCSH SCT008 OVC015 FM312000 20006KT P6SM -RA BKN045", "KAHN 311151Z 3112/0112 11006KT 3SM -SHRA BR OVC002 FM311500 VRB04KT 4SM BR VCSH OVC003 FM311900 VRB04KT P6SM OVC004 FM312100 VRB03KT P6SM VCSH BKN006 BKN009 FM010100 VRB03KT P6SM BKN015 FM010400 VRB03KT 6SM BR BKN040 FM010800 00000KT 2SM BR OVC004", "KAIA 311120Z 3112/0112 25009KT P6SM SKC FM311700 27012KT P6SM SKC FM010000 20006KT P6SM SKC", "KALB 311132Z 3112/0112 16003KT P6SM BKN150 FM311700 17009KT P6SM BKN150 FM312300 17004KT P6SM BKN070 FM010600 16003KT P6SM VCSH BKN040", "KALI 311121Z 3112/0112 VRB05KT P6SM SCT250 FM311600 11009KT P6SM BKN050 BKN250 FM010000 10010KT P6SM VCSH BKN050 OVC250 FM010300 09006KT P6SM -RA SCT030 OVC050 TEMPO 0108/0112 4SM -TSRA BKN025CB", "KALO 311123Z 3112/0112 28006KT P6SM FEW250 TEMPO 3112/3114 4SM BR", "KALS 311150Z 3112/0112 VRB05KT P6SM FEW200 FM312000 22008KT P6SM FEW200", "KALW 311120Z 3112/0112 15007KT P6SM BKN050 OVC090 FM311900 21008G18KT P6SM VCSH BKN050 OVC070 FM010200 20009KT P6SM -RA BKN035 OVC050 FM010700 20008KT 5SM -RA BR BKN025 OVC040", "KAMA 311130Z 3112/0112 23008KT P6SM SCT300 FM311800 19012KT P6SM SCT300", "KANB 311312Z 3113/0112 00000KT 6SM BR SCT002 OVC009 FM311400 VRB03KT P6SM BKN022 FM311600 25007KT P6SM BKN035 FM010200 00000KT P6SM SCT250 FM010900 00000KT 1SM BR SCT250", "KAND 311128Z 3112/0112 00000KT 3SM BR VCSH OVC002 TEMPO 3112/3114 2SM -RA BR FM311500 11005KT 3SM -RA BR OVC002 PROB30 3121/0103 2SM -RA BR OVC001 FM010300 VRB02KT 5SM BR BKN008 FM011000 29003KT 2SM BR OVC006", "KAOO 311130Z 3112/0112 VRB04KT P6SM VCSH BKN080 FM311700 17006KT P6SM VCSH OVC035 FM010500 19005KT 5SM -SHRA BR OVC025 FM010900 21005KT 5SM BR OVC018", "KAPA 311120Z 3112/0112 18005KT P6SM SKC FM311400 VRB05KT P6SM FEW200 FM312100 07006KT P6SM FEW150 FM010200 15010KT P6SM FEW150 FM010400 19009KT P6SM FEW150", "KAPC 311126Z 3112/0112 00000KT 6SM BR SCT010 TEMPO 3112/3116 BKN010 FM311700 VRB04KT 5SM BR FEW006 BKN250 FM312000 19010KT P6SM BKN250 FM010600 VRB05KT P6SM SCT012 BKN250 FM011000 24008KT P6SM VCSH BKN010", "KAPF 311120Z 3112/0112 VRB05KT P6SM FEW040 SCT250 FM311500 10007KT P6SM SCT040 SCT100 FM311800 22008KT P6SM SCT040 SCT100 FM312100 28007KT P6SM SCT040 BKN100 FM010100 VRB03KT P6SM FEW040 SCT250", "KAPN 311258Z 3113/0112 VRB03KT P6SM BKN190 FM312000 16004KT P6SM SCT250 FM010400 00000KT P6SM FEW240", "KARA 311239Z 3113/0112 00000KT P6SM BKN060 TEMPO 3113/3114 2SM BR FM311400 VRB05KT P6SM SCT040 FM010000 00000KT P6SM SKC", "KART 311120Z 3112/0112 20005KT P6SM SCT150 BKN250 FM311600 18007KT P6SM BKN100 OVC250 FM312000 18006KT P6SM OVC050 FM010400 18007KT P6SM OVC025", "KASD 311323Z 3113/0112 00000KT 5SM BR SCT005 TEMPO 3113/3114 2SM BR VV001 FM311500 VRB04KT P6SM BKN250", "KASE 311120Z 3112/0112 20005KT P6SM SKC FM312100 34006KT P6SM SKC FM010000 19007KT P6SM FEW250 FM010600 20004KT P6SM SKC", "KASN 311400Z 3114/0112 00000KT 1/4SM FG OVC002 FM311600 VRB03KT P6SM BKN022 FM311800 25007KT P6SM BKN035 FM010200 00000KT P6SM SCT250 FM010900 00000KT 1SM BR SCT250", "KAST 311120Z 3112/0112 22012KT 5SM -RADZ BKN015 OVC030 FM311900 29008KT P6SM -SHRA SCT025 BKN040", "KATL 311356Z 3114/0118 15005KT 5SM -DZ BR VCSH BKN003 OVC006 FM311500 20006KT P6SM VCSH BKN004 BKN009 FM311800 23007KT P6SM BKN006 BKN012 FM312000 25007KT P6SM SCT009 BKN030 BKN050 FM312200 24004KT P6SM SCT030 SCT050 BKN150 FM010300 31007KT P6SM SCT050 SCT090 BKN150", "KATW 311124Z 3112/0112 30003KT P6SM BKN120 BKN200 FM311600 24005KT P6SM SCT200", "KATY 311120Z 3112/0112 19005KT P6SM FEW250 FM311900 23011G20KT P6SM FEW250 FM312300 23006KT P6SM FEW250", "KAUG 311120Z 3112/0112 18005KT P6SM BKN250", "KAUS 311135Z 3112/0118 VRB04KT P6SM BKN250 FM311800 11006KT P6SM FEW080 BKN150 FM010100 VRB04KT P6SM OVC080 FM010700 VRB04KT P6SM -SHRA VCTS FEW028 OVC080CB FM011600 14005KT P6SM VCSH BKN028", "KAUW 311331Z 3114/0112 30003KT 6SM BR SKC", "KAVL 311158Z 3112/0112 19005KT 5SM -RA BR BKN005 OVC012 TEMPO 3112/3116 OVC004 FM312100 16006KT 6SM BR BKN010 PROB30 3121/0101 2SM -SHRA BR OVC006 FM010100 VRB03KT 5SM BR BKN017 FM010900 32004KT 1 1/2SM BR BKN006", "KAVP 311120Z 3112/0112 VRB04KT P6SM SCT120 FM311800 21004KT P6SM BKN060 FM010000 VRB03KT P6SM -SHRA BKN035 FM010200 VRB03KT P6SM -DZ OVC020 FM010700 VRB03KT 4SM -DZ BR BKN008", "KAXN 311120Z 3112/0112 22008KT P6SM SKC", "KAZO 311207Z 3112/0112 11003KT 1SM -SHRA BR OVC003 TEMPO 3112/3114 1/4SM -DZ FG VV002 FM311600 VRB03KT 4SM -SHRA BR OVC006 FM010400 25003KT 1 1/2SM -DZ BR OVC003", "TAF KBAB 311100Z 3111/0117 16006KT 9999 SCT200 QNH2988INS BECMG 3122/3123 18009KT 9999 SCT200 QNH2981INS BECMG 0110/0111 16010G15KT 9999 SCT010 BKN100 QNH2978INS TX21/3122Z TN08/3115Z", "TAF KBAD 311206Z 3112/0118 21005KT 9999 BKN250 QNH2997INS TEMPO 3112/3114 3200 BR TX22/3120Z TN10/3112Z", "KBAF 311120Z 3112/0112 00000KT P6SM SCT220 FM311400 19003KT P6SM BKN220 FM311800 21007KT P6SM SCT230 FM010600 18003KT P6SM VCSH OVC045 FM010700 18003KT P6SM VCSH OVC030 FM011000 00000KT P6SM OVC016", "KBAM 311213Z 3112/0112 VRB06KT P6SM SCT200", "KBBD 311120Z 3112/0112 VRB03KT P6SM BKN250", "KBBG 311358Z 3114/0112 26004KT 3SM BR OVC003 FM311600 29006KT P6SM SKC", "KBCB 311120Z 3112/0112 20002KT P6SM -RA OVC013 TEMPO 3112/3113 3SM -RA BR SCT008 OVC015 FM311500 16003KT 5SM -RA BR OVC007 FM311800 20004KT 6SM -RA BR SCT008 OVC017 FM010000 13002KT 4SM BR OVC007 FM010300 23003KT 4SM BR OVC004", "KBCE 311132Z 3112/0112 27007KT P6SM SKC FM311800 16008KT P6SM FEW250 FM010200 27006KT P6SM SCT250", "KBDL 311120Z 3112/0118 00000KT P6SM BKN020 BKN080 FM311400 19004KT P6SM SCT080 BKN250 FM010700 19004KT P6SM VCSH OVC029 FM011400 19003KT 5SM BR OVC026 FM011600 21003KT P6SM BKN035", "KBDN 311120Z 3112/0112 22010G20KT P6SM SCT080 BKN120 FM312200 28007KT P6SM BKN060 OVC080 FM010400 32008KT P6SM -RA BKN040 OVC060 FM010900 30007KT 5SM -RA BR BKN030 OVC045", "KBDR 311136Z 3112/0112 00000KT P6SM BKN035 TEMPO 3112/3113 BKN025 FM311400 20006KT P6SM SCT040 BKN200 FM312100 20005KT P6SM SCT050 BKN100 FM010300 21004KT P6SM OVC050 PROB30 0104/0107 -SHRA OVC015 FM010700 VRB04KT 4SM -SHRA OVC015 FM011000 21005KT 4SM -SHRA OVC008", "KBED 311120Z 3112/0112 21003KT P6SM SCT029 FM311400 22005KT P6SM BKN230 FM010400 21003KT P6SM BKN070 FM011000 22004KT P6SM VCSH OVC050", "KBFD 311130Z 3112/0112 15005KT P6SM VCSH BKN035 TEMPO 3112/3115 OVC030 FM311500 18006KT P6SM VCSH OVC025 FM010500 17005KT 5SM -SHRA BR OVC015 FM010800 19005KT 4SM BR OVC009", "KBFF 311120Z 3112/0112 29007KT P6SM SKC FM312100 25012KT P6SM FEW250 FM010000 13006KT P6SM FEW250", "KBFI 311122Z 3112/0112 17008KT P6SM -RA SCT010 OVC024 FM311600 18010G15KT P6SM VCSH OVC025 FM312000 22007KT P6SM OVC035 FM010200 18005KT P6SM SCT050 BKN200 FM010700 15003KT P6SM BKN020 BKN050", "KBFL 311120Z 3112/0112 VRB06KT P6SM SCT200", "KBFM 311127Z 3112/0112 00000KT 5SM BR FEW040 SCT250 FM311400 25006KT P6SM SCT200 FM010300 VRB03KT P6SM FEW250 FM010800 00000KT 5SM BR SKC", "KBGM 311120Z 3112/0112 19005KT P6SM SCT200 FM311600 19007KT P6SM FEW060 BKN100 FM312200 18005KT P6SM BKN040 FM010400 19004KT P6SM BKN020 FM010800 19005KT P6SM OVC013", "KBGR 311235Z 3113/0112 20004KT P6SM FEW100 FM010300 00000KT 2SM BR BKN007 FM010500 00000KT 1SM BR BKN005", "KBHB 311120Z 3112/0112 23006KT P6SM BKN100 FM311900 21007KT P6SM BKN010 FM312300 21006KT 6SM BR BKN005 FM010500 21005KT 1SM BR BKN003", "KBHM 311125Z 3112/0112 00000KT P6SM SCT027 OVC040 TEMPO 3112/3113 4SM BR BKN025 FM311500 24007KT P6SM SCT025 OVC035 FM010200 00000KT P6SM SCT250 FM011000 00000KT 4SM BR SCT250", "TAF KBIF 311400Z 3114/0120 VRB06KT 9999 FEW130 SCT180 QNH2998INS TX23/0120Z TN03/0112Z", "KBIH 311120Z 3112/0112 34006KT P6SM FEW250 FM311900 16009KT P6SM FEW150 BKN250 FM010600 34006KT P6SM BKN150", "KBIL 311120Z 3112/0112 24011KT P6SM FEW100 SCT200 FM312000 25015G25KT P6SM FEW120 SCT200 FM010200 22011KT P6SM SCT100 BKN200", "KBIS 311126Z 3112/0112 VRB03KT P6SM SCT250 FM311600 27010KT P6SM SCT250 FM312300 20005KT P6SM SCT250", "TAF KBIX 311000Z 3110/0116 VRB06KT 8000 BR FEW004 SCT250 QNH2993INS TEMPO 3110/3113 3200 BR BKN004 BECMG 3113/3114 32009KT 9999 NSW SCT030 BKN250 QNH2996INS BECMG 3122/3123 VRB06KT 9999 SCT250 QNH3000INS TX26/3121Z TN14/3110Z", "KBJC 311120Z 3112/0112 VRB05KT P6SM SKC FM311500 VRB05KT P6SM FEW200 FM311900 09006KT P6SM FEW150 FM010200 VRB04KT P6SM FEW150 FM010400 25005KT P6SM FEW150", "KBJI 311138Z 3112/0112 VRB04KT P6SM FEW250 FM311500 22006KT P6SM SCT250", "KBKE 311120Z 3112/0112 VRB04KT P6SM BKN150 FM311600 11006KT P6SM BKN120 FM312200 16008KT P6SM VCSH BKN090 FM010600 19006KT P6SM -RA OVC050", "TAF KBKF 310902Z 3109/0115 VRB06KT 9999 SKC QNH2998INS TX15/3122Z TN00/3113Z", "KBKW 311302Z 3113/0112 14007KT 6SM -RA BR SCT025 OVC040 TEMPO 3113/3115 1 1/2SM RA BR BKN015 OVC025 FM311700 17008KT 6SM BR VCSH OVC017 FM312300 16005KT P6SM OVC025 FM010200 19004KT P6SM BKN018", "KBLF 311344Z 3114/0112 16004KT P6SM -RA SCT020 OVC050 FM311800 17005KT P6SM -RA OVC020 FM010000 18002KT 2SM -RA BR OVC003 FM010600 23003KT 3SM BR BKN003", "KBLH 311120Z 3112/0112 VRB05KT P6SM SKC", "KBLI 311122Z 3112/0112 00000KT P6SM SCT025 BKN060 OVC080 TEMPO 3112/3115 -SHRA BKN025 OVC060 FM311500 18005KT P6SM BKN020 OVC050 FM311800 19010G15KT P6SM SCT025 BKN070 FM010000 19004KT P6SM SCT070 BKN200", "TAF AMD KBLV 311030Z 3110/0114 26006KT 6000 BR OVC010 QNH2981INS BECMG 3115/3116 28009KT 6000 BR OVC010 QNH2986INS BECMG 3122/3123 28006KT 9999 NSW BKN020 QNH2990INS BECMG 0103/0104 VRB06KT 9999 SKC QNH2999INS TX17/3119Z TN10/0108Z", "KBMG 311120Z 3112/0112 19006KT P6SM SCT005 OVC008 FM311500 20007KT P6SM VCSH OVC006 FM311900 22008KT P6SM VCSH OVC012 FM010200 25003KT P6SM OVC015 FM010600 26003KT P6SM OVC007 FM010900 28002KT P6SM OVC020", "KBMI 311404Z 3114/0112 32005KT 1/4SM -RA FG OVC002 FM311700 07005KT 2SM -SHRA BR OVC003 FM311900 30005KT 4SM -SHRA BR OVC004 FM312200 29005KT P6SM BKN015 FM010300 26005KT P6SM SKC", "KBNA 311120Z 3112/0112 19005KT P6SM FEW008 SCT030 BKN060 TEMPO 3112/3114 5SM BR BKN008 FM311400 21007KT P6SM BKN070 FM311900 22007KT P6SM VCSH SCT030 BKN060 FM010100 24003KT P6SM SCT080 FM010600 24002KT 4SM BR SCT025", "KBNO 311120Z 3112/0112 VRB04KT P6SM BKN150 FM312000 19007KT P6SM BKN120 FM010800 23005KT P6SM VCSH BKN070", "KBOI 311120Z 3112/0112 13006KT P6SM SKC FM311800 14007KT P6SM BKN200 FM010900 13012KT P6SM BKN150", "KBOS 311120Z 3112/0118 23006KT P6SM SCT040 FM311800 21008KT P6SM SCT035 BKN090 FM011100 23005KT P6SM VCSH OVC028 FM011500 23005KT P6SM OVC040", "KBPI 311120Z 3112/0112 VRB05KT P6SM SCT200 FM312100 33007KT P6SM SCT200 FM010500 VRB05KT P6SM SCT200", "KBPK 311207Z 3112/0112 28004KT P6SM SCT012 OVC020 TEMPO 3112/3114 5SM BR BKN012 FM311400 29005KT P6SM SCT025 BKN050 FM311700 30006KT P6SM SCT050 SCT250 FM010000 VRB03KT P6SM SKC", "KBPT 311120Z 3112/0112 00000KT 1/4SM FG VV002 TEMPO 3112/3114 3SM BR SCT002 FM311400 VRB05KT P6SM SCT045 FM010000 00000KT P6SM SKC", "KBRD 311120Z 3112/0112 20004KT P6SM FEW250 FM311700 22008G16KT P6SM FEW250 FM010000 21005KT P6SM FEW250", "KBRL 311120Z 3112/0112 33006KT P6SM BKN120 FM010000 24005KT P6SM SKC", "KBRO 311120Z 3112/0112 08005KT P6SM FEW060 SCT250 FM311500 09010KT P6SM BKN070 PROB30 3121/3122 4SM -SHRA BR OVC025 FM312200 10014KT P6SM OVC029 PROB30 3122/0104 4SM -SHRA BR OVC015 FM010600 11011KT 6SM -SHRA BR OVC022 FM010900 11010KT 6SM -SHRA BR OVC016", "KBTL 311136Z 3112/0112 11003KT 1 1/2SM -SHRA BR OVC003 TEMPO 3112/3114 1/2SM -DZ FG VV002 FM311600 VRB03KT 4SM -SHRA BR OVC006 FM010400 25003KT 1 1/2SM -DZ BR OVC003", "KBTM 311120Z 3112/0112 18005KT P6SM BKN060 FM311800 22014G25KT P6SM BKN070 FM010100 20009KT P6SM BKN070", "KBTR 311238Z 3113/0112 VRB04KT P6SM SCT060 FM311500 VRB04KT P6SM SCT040 BKN250 FM010100 VRB03KT P6SM SKC", "KBTV 311120Z 3112/0112 17005KT P6SM SCT100 BKN200 FM010600 17005KT P6SM VCSH BKN045 FM010900 17006KT P6SM OVC025", "KBUF 311120Z 3112/0112 17004KT P6SM VCSH BKN100 OVC150 FM311300 18005KT P6SM VCSH BKN035 OVC050 FM312100 18005KT P6SM OVC025 FM010700 22005KT P6SM OVC015", "KBUR 311145Z 3112/0112 VRB03KT P6SM SCT250 FM312100 17008KT P6SM SCT250 FM010300 VRB03KT P6SM SCT200", "KBVI 311354Z 3114/0112 VRB02KT 3SM -SHRA BR BKN004 OVC009 FM311500 14003KT 6SM -SHRA BR SCT004 OVC007 FM311600 15003KT 6SM BR OVC007 FM311700 17004KT P6SM OVC013 FM312200 18003KT P6SM VCSH OVC022 FM010100 19003KT P6SM BKN045", "KBVO 311125Z 3112/0112 00000KT 6SM BR SCT100 FM311500 24005KT P6SM SKC FM010000 19003KT P6SM SKC", "KBWG 311120Z 3112/0112 21006KT P6SM BKN015 FM312000 22010KT P6SM VCSH BKN040 FM312300 24005KT P6SM BKN040", "KBWI 311136Z 3112/0118 00000KT 6SM BR BKN006 FM311400 19004KT P6SM SCT006 BKN020 FM311700 19004KT P6SM BKN050 FM312100 19004KT 6SM -SHRA OVC025 FM010100 00000KT 6SM -SHRA OVC008 FM010600 00000KT 4SM -DZ BR OVC008 FM011000 00000KT 2SM BR OVC008 FM011400 27003KT P6SM BKN025", "KBYI 311120Z 3112/0112 19005KT P6SM BKN250 FM312200 19012KT P6SM SCT250 FM010200 17006KT P6SM BKN200 FM010600 16010G20KT P6SM SCT120 BKN160", "KBZN 311120Z 3112/0118 VRB06KT P6SM FEW080 FM312000 24014G20KT P6SM BKN100 FM010100 19009KT P6SM FEW110", "KCAE 311138Z 3112/0112 VRB03KT P6SM OVC008 TEMPO 3112/3116 5SM -RA BR BKN015 FM311600 VRB05KT P6SM BKN025 FM312000 14006KT P6SM VCSH BKN045", "KCAK 311402Z 3114/0112 17007KT P6SM VCSH OVC007 TEMPO 3114/3116 2SM -SHRA BR OVC002 FM311800 19005KT P6SM VCSH OVC025 TEMPO 3118/3119 BKN007 FM312200 20005KT P6SM BKN045 FM010300 20006KT P6SM VCSH OVC035", "KCAR 311120Z 3112/0112 21003KT P6SM BKN100 FM311900 20003KT P6SM SCT100 FM312200 00000KT P6SM BKN100", "TAF AMD KCBM 311105Z 3111/0115 20006KT 9999 BKN055 QNH2993INS BECMG 3115/3116 25006KT 9999 SCT025 QNH2993INS BECMG 3121/3122 25006KT 9999 SCT035 QNH2994INS BECMG 0103/0104 VRB06KT 9999 SKC QNH3004INS TX22/3120Z TN13/3111Z", "KCDC 311132Z 3112/0112 VRB05KT P6SM SKC FM311800 34007KT P6SM FEW250 FM010200 17005KT P6SM FEW250", "KCDR 311120Z 3112/0112 24006KT P6SM FEW250 FM311700 26010KT P6SM FEW250 FM010000 22004KT P6SM SKC", "KCDS 311120Z 3112/0112 VRB03KT P6SM BKN250 FM311800 18008KT P6SM BKN250", "KCEC 311320Z 3113/0112 VRB05KT 6SM BR BKN025 FM311900 VRB05KT 5SM HZ SCT025 SCT250 FM010100 14007KT 4SM BR VCSH SCT007 OVC020 FM010600 27010KT 3SM -RA BR OVC015", "TAF KCEF 311104Z 3111/0117 VRB03KT 9999 BKN018 WS020/22025KT QNH3006INS BECMG 3113/3114 VRB06KT 9999 SCT020 BKN250 QNH3005INS BECMG 3114/3115 22012KT 9999 SCT025 BKN150 510204 QNH3001INS BECMG 3121/3122 20007KT 9999 FEW035 BKN090 QNH3001INS BECMG 0105/0106 VRB06KT 8000 -RA BR FEW006 SCT020 OVC070 QNH3002INS BECMG 0110/0111 VRB06KT 9999 NSW OVC006 QNH3003INS BECMG 0114/0115 VRB06KT 9999 SCT006 BKN050 QNH3002INS TX19/3119Z TN07/3111Z", "KCGI 311125Z 3112/0112 23004KT P6SM VCSH OVC007 TEMPO 3112/3114 SCT007 OVC020 FM311400 26007KT P6SM VCSH BKN015 FM311900 27007KT P6SM BKN022 FM312100 28006KT P6SM SCT050 FM010100 00000KT P6SM SKC FM010900 00000KT 2SM BR SKC", "KCHA 311356Z 3114/0112 21005KT P6SM VCSH SCT005 OVC015 TEMPO 3114/3116 4SM -DZ BR OVC005 FM311600 VRB03KT P6SM BKN025 FM311900 22005KT P6SM BKN040 FM010100 00000KT P6SM SCT050 FM011000 00000KT 3SM BR SCT020", "KCHO 311136Z 3112/0112 00000KT P6SM BKN030 OVC040 FM311700 20005KT P6SM -SHRA OVC030 FM312300 00000KT 4SM -DZ BR OVC025 FM010600 00000KT 4SM BR OVC008 FM011000 00000KT 1SM BR OVC003", "KCHS 311131Z 3112/0112 VRB03KT 5SM BR SCT008 SCT060 FM311400 13007KT P6SM BKN035 FM311800 16008KT P6SM BKN040 FM010200 19003KT P6SM BKN080", "KCID 311120Z 3112/0112 31006KT P6SM SCT250 TEMPO 3112/3114 3SM BR FM010000 23005KT P6SM SKC", "KCIU 311400Z 3114/0112 VRB03KT 3/4SM BR VV002 FM311430 VRB03KT P6SM BKN170 FM311800 17005KT P6SM SCT220 FM010300 00000KT P6SM FEW230 FM010600 00000KT 1SM BR FEW002", "KCKB 311138Z 3112/0112 VRB03KT 5SM -SHRA BR OVC028 TEMPO 3112/3115 2SM RA BR BKN015 FM311500 VRB03KT P6SM VCSH BKN015 FM311700 20007KT P6SM OVC015 FM312200 19006KT P6SM OVC040 FM010900 22004KT P6SM BKN025", "KCKV 311154Z 3112/0112 20005KT 6SM BR SCT010 OVC080 FM311400 21007KT P6SM BKN070 FM311800 24008KT P6SM VCSH SCT030 BKN060 FM010000 26003KT P6SM SCT070 FM010600 26002KT 3SM BR SCT025", "KCLE 311359Z 3114/0118 19006KT P6SM VCSH BKN020 TEMPO 3114/3115 BKN010 FM311900 20005KT P6SM BKN035 TEMPO 3119/3120 BKN025 FM010600 19006KT P6SM VCSH BKN025 FM010900 21007KT P6SM OVC008 FM011700 21007KT P6SM OVC025", "KCLL 311135Z 3112/0112 VRB04KT P6SM BKN250", "KCLM 311122Z 3112/0112 00000KT P6SM -SHRA FEW005 OVC070 FM311800 28012G18KT P6SM SCT030 BKN050 FM312300 29008KT P6SM SCT060 BKN200", "KCLT 311358Z 3114/0118 00000KT P6SM VCSH BKN013 OVC021 FM311500 16005KT P6SM VCSH OVC008 FM312000 15004KT 6SM -RA BR OVC011 TEMPO 3121/0101 2SM RA BKN004 OVC009 FM010300 VRB02KT 4SM -RA BR OVC004 FM011000 25004KT 1SM BR BKN009 FM011400 33005KT P6SM SCT070", "KCMA 311143Z 3112/0112 VRB03KT P6SM SCT250 FM312000 24008KT P6SM SCT250 FM010400 VRB03KT 5SM BR OVC008", "KCMH 311133Z 3112/0112 17005KT P6SM VCSH OVC013 FM311700 20009KT P6SM BKN022 FM311900 21009KT P6SM BKN035 FM010400 22005KT P6SM VCSH BKN027 FM010600 23005KT P6SM VCSH BKN018 FM010900 23005KT P6SM BKN009", "KCMI 311120Z 3112/0112 VRB05KT 1SM -SHRA BR OVC004 FM311700 24007KT 4SM -SHRA BR OVC004 FM312200 26007KT P6SM VCSH OVC008 FM010200 27005KT P6SM BKN015 FM010500 VRB03KT P6SM SKC", "KCMX 311120Z 3112/0112 25006KT P6SM SKC TEMPO 3112/3113 2SM BR", "KCNM 311126Z 3112/0112 34005KT P6SM SCT250 FM311800 14007KT P6SM FEW150", "KCNU 311134Z 3112/0112 VRB03KT P6SM SCT120 SCT250", "KCNY 311120Z 3112/0112 VRB04KT P6SM SKC", "KCOD 311120Z 3112/0112 26016G26KT P6SM SCT110 BKN200 FM010200 23012G18KT P6SM SCT200", "KCOE 311120Z 3112/0112 22012KT P6SM -RA SCT015 OVC025 FM311400 20012G20KT P6SM -RA OVC030 FM312100 22018G26KT P6SM -RA BKN030 OVC040 FM010400 23010KT P6SM VCSH BKN035", "TAF KCOF 311000Z 3110/0116 11006KT 9999 VCSH FEW020 SCT050 QNH2994INS BECMG 3116/3117 10010KT 9999 NSW FEW030 QNH2993INS BECMG 0102/0103 VRB06KT 9999 SCT020 QNH3000INS TX29/3118Z TN23/0110Z", "KCON 311120Z 3112/0112 00000KT P6SM SCT200 FM311600 21007KT P6SM BKN200", "KCOS 311150Z 3112/0112 02006KT P6SM FEW120 FM311700 16007KT P6SM FEW250 FM010300 02006KT P6SM SKC", "KCOT 311121Z 3112/0112 13007KT P6SM BKN050 BKN250 FM312200 13008KT P6SM VCSH BKN050 OVC250 FM010200 09007KT P6SM -RA SCT030 OVC050 TEMPO 0103/0106 4SM -TSRA BKN025CB FM010600 08006KT P6SM -RA OVC030 TEMPO 0106/0110 4SM -TSRA BKN025CB", "KCOU 311122Z 3112/0112 28005KT 5SM -RA BR FEW015 OVC035 FM311400 29005KT P6SM OVC060 FM010000 22004KT P6SM FEW250", "KCPR 311120Z 3112/0112 23016G26KT P6SM SCT200 FM010100 23012KT P6SM SCT200 FM010800 22010KT P6SM SCT200", "KCPS 311218Z 3112/0112 27005KT 6SM BR VCSH OVC015 TEMPO 3112/3115 4SM -DZ BR OVC008 FM312000 28007KT P6SM BKN012 OVC020 FM312300 28004KT P6SM SCT040 SCT250 FM010800 00000KT 3SM BR SKC", "KCRE 311130Z 3112/0112 05004KT P6SM SCT100 FM311400 09006KT P6SM SCT070 FM311600 14006KT P6SM BKN070 FM010100 16004KT P6SM VCSH BKN060", "KCRG 311224Z 3112/0112 VRB02KT 6SM BR FEW020 FM311300 14006KT P6SM SCT020 SCT030 BKN250 FM311600 15008KT P6SM VCSH SCT035 BKN100 FM010000 VRB04KT P6SM SCT035 BKN100 FM010900 28002KT 2SM BR FEW015 SCT250", "KCRP 311121Z 3112/0112 VRB05KT P6SM SCT250 FM311600 10011KT P6SM BKN050 BKN250 FM010000 09009KT P6SM VCSH OVC050 FM010400 08008KT P6SM -RA SCT030 OVC050 TEMPO 0108/0112 4SM -TSRA BKN025CB", "KCRQ 311136Z 3112/0112 VRB04KT 6SM BR SCT003 TEMPO 3112/3114 1/4SM FG BKN001 FM311900 25008KT P6SM SCT200 FM010100 VRB04KT P6SM SCT007 BKN200 TEMPO 0108/0112 BKN006", "KCRW 311359Z 3114/0112 14004KT 6SM -RA BR FEW010 BKN022 TEMPO 3114/3116 3SM RA BR OVC015 FM311700 19007KT P6SM VCSH OVC018 FM311900 19007KT P6SM OVC022 FM312200 VRB03KT P6SM OVC045 FM010900 VRB03KT P6SM SCT015 BKN025", "KCSG 311151Z 3112/0112 19003KT P6SM SCT003 BKN006 OVC010 FM311600 25004KT P6SM SCT007 BKN010 FM311800 26005KT P6SM SCT020 BKN035 FM010000 VRB03KT P6SM SCT030 SCT050 BKN150", "KCSM 311120Z 3112/0112 VRB04KT P6SM FEW250 FM010500 19008KT P6SM SKC", "KCSV 311120Z 3112/0112 19005KT P6SM SCT004 OVC015 TEMPO 3112/3114 3SM BR BKN004 FM311400 23006KT P6SM OVC015 FM311800 23007KT P6SM BKN030 FM312100 23006KT P6SM VCSH BKN050 FM010200 23004KT P6SM FEW004 SCT012 BKN040 FM010600 26002KT 2SM BR SCT008", "KCTB 311120Z 3112/0112 22025G35KT P6SM BKN100 FM311700 24019G28KT P6SM OVC080 FM010500 21012KT P6SM OVC090 PROB30 0111/0112 4SM -RA BR OVC025", "KCUB 311138Z 3112/0112 VRB03KT P6SM OVC009 TEMPO 3112/3116 5SM -RA BR BKN015 FM311600 VRB04KT P6SM BKN025 FM312000 14006KT P6SM VCSH BKN045", "KCVG 311133Z 3112/0118 19008KT P6SM BKN015 FM311600 20009G16KT P6SM BKN022 FM010400 23005KT P6SM VCSH BKN013 FM011000 25005KT 4SM BR BKN006 FM011700 27005KT P6SM SCT250", "TAF KCVS 311000Z 3110/0116 VRB06KT 9999 SCT120 QNH3004INS BECMG 3118/3119 21010G15KT 9999 FEW120 QNH3001INS BECMG 3123/3124 21006KT 9999 SKC QNH3002INS TX19/3122Z TN05/3113Z", "KCWA 311330Z 3114/0112 34004KT P6SM SCT120 FM311500 24005KT P6SM SCT200", "KCXO 311135Z 3112/0112 VRB04KT P6SM BKN250 TEMPO 3112/3114 4SM BR FEW003", "KCXP 311137Z 3112/0112 VRB03KT P6SM FEW220 FM311700 06006KT P6SM FEW110 SCT220 FM312200 23010KT P6SM SCT110 BKN220 FM010600 21008KT P6SM SCT110 SCT220 WS020/22035KT", "KCYS 311120Z 3112/0112 24010KT P6SM SKC FM311700 27012G18KT P6SM SKC FM010000 22009KT P6SM SKC", "TAF KDAA 311200Z 3112/0118 19006KT 9999 FEW015 BKN025 OVC040 QNH3002INS TEMPO 3112/3118 BKN014 BECMG 3118/3119 21009KT 9000 -SHRA SCT015 OVC020 QNH3002INS BECMG 0101/0102 VRB06KT 8000 -SHRA BKN010 OVC015 QNH3002INS BECMG 0106/0107 VRB06KT 9000 BR OVC010 QNH3001INS BECMG 0111/0112 VRB06KT 6000 BR SCT015 OVC020 QNH3002INS TX18/3118Z TN13/0111Z", "KDAB 311125Z 3112/0112 04003KT 6SM BR FEW010 FM311400 10006KT P6SM SCT015 FM311500 11010KT P6SM VCSH SCT030 FM010100 12005KT P6SM FEW040 FEW200 FM010800 06004KT 6SM BR FEW010", "KDAG 311120Z 3112/0112 27008KT P6SM SKC FM311900 08006KT P6SM SCT250 FM010300 VRB06KT P6SM SCT150 SCT250 FM010600 27008KT P6SM BKN150", "KDAL 311120Z 3112/0112 VRB03KT P6SM BKN250 FM312200 14005KT P6SM SCT250", "KDAN 311342Z 3114/0112 21003KT P6SM SCT025 BKN050 OVC090 TEMPO 3114/3118 BKN025 FM311800 21007KT P6SM OVC030 FM312200 24004KT P6SM -RA OVC025 FM010200 25004KT 4SM -RA BR SCT006 OVC030 FM010900 29003KT 3SM BR BKN003", "KDAY 311133Z 3112/0112 18007KT 5SM BR VCSH OVC009 FM311400 19007KT P6SM OVC011 FM311700 20010G18KT P6SM VCSH BKN022 FM010400 23007KT P6SM VCSH BKN018 FM010700 24006KT 5SM BR OVC008 FM011000 25006KT 3SM BR BKN005", "KDBQ 311120Z 3112/0112 33006KT P6SM SCT250 TEMPO 3112/3114 5SM BR FM010000 26005KT P6SM SKC", "KDCA 311136Z 3112/0118 17006KT P6SM BKN008 OVC025 FM311300 19005KT P6SM SCT008 BKN025 FM311600 19005KT P6SM BKN050 FM312000 19005KT 6SM -SHRA OVC060 FM010000 00000KT 6SM -SHRA OVC008 FM010500 19003KT 4SM -DZ BR BKN015 FM011000 00000KT 2SM BR OVC008 FM011400 27005KT P6SM BKN040", "KDDC 311120Z 3112/0112 VRB06KT P6SM SKC FM311800 21008KT P6SM SKC", "KDEC 311120Z 3112/0112 VRB05KT 1SM -SHRA BR OVC003 FM311600 29005KT 3SM -SHRA BR OVC004 FM312100 29006KT P6SM OVC015 FM312300 27005KT P6SM SCT015 BKN060 FM010300 VRB03KT P6SM SKC", "KDEN 311120Z 3112/0118 22010KT P6SM SKC FM312000 18006KT P6SM FEW150 FM312200 12007KT P6SM FEW150 FM010200 15010KT P6SM FEW150 FM010400 21012KT P6SM FEW150", "KDET 311120Z 3112/0112 13003KT 1 1/2SM SHRA BR BKN003 OVC010 TEMPO 3112/3114 3/4SM -SHRA BR OVC003 FM311600 17005KT 6SM -SHRA BR OVC007 FM312000 20006KT P6SM OVC015 FM010000 25005KT P6SM -SHRA OVC010 FM010600 29004KT 5SM BR OVC008", "KDFW 311120Z 3112/0118 VRB03KT P6SM BKN250 FM312200 14005KT P6SM SCT250", "KDHN 311120Z 3112/0112 VRB02KT P6SM BKN030 FM311400 28004KT P6SM OVC050 FM311800 27006KT P6SM SCT100", "KDHT 311130Z 3112/0112 26007KT P6SM FEW300 FM311700 21013KT P6SM SKC FM010000 20007KT P6SM SKC", "KDIJ 311120Z 3112/0112 16008KT P6SM BKN060 OVC100 FM312000 19008KT P6SM SCT090 BKN120 FM010100 16007KT P6SM BKN120 FM011000 17012KT P6SM BKN120 AMD LTD TO CLD VIS AND WIND", "KDIK 311126Z 3112/0112 25007KT P6SM SCT250 FM311600 26012G20KT P6SM SCT250 FM312300 23008KT P6SM SCT250", "TAF AMD KDLF 311350Z 3113/0117 08006KT 9999 FEW150 BKN250 QNH3000INS BECMG 3115/3116 12009KT 9999 SCT060 SCT150 BKN220 QNH2995INS BECMG 3122/3123 14012KT 9999 VCSH SCT055 BKN100 QNH2992INS BECMG 0101/0102 17010KT 8000 -SHRA VCTS BKN040CB OVC080 QNH2996INS TEMPO 0103/0106 18025G35KT 6000 -TSRAGR OVC025CB BECMG 0108/0109 VRB06KT 9999 VCSH SCT060 BKN100 QNH3006INS BECMG 0112/0113 12008KT 9999 NSW BKN015 OVC040 QNH3010INS BECMG 0116/0117 15010KT 9999 SCT020 BKN040 QNH3016INS TX25/3121Z TN10/0111Z", "KDLH 311120Z 3112/0112 24004KT P6SM FEW250 FM311700 23008G15KT P6SM FEW250 FM312300 23008KT P6SM SCT250", "KDLS 311120Z 3112/0112 VRB05KT P6SM BKN050 OVC070 FM311600 31008KT P6SM VCSH BKN040 OVC060 FM312100 31010G20KT P6SM -RA BKN035 OVC050 FM010600 30007G15KT 5SM -RA BR BKN025 OVC040", "TAF KDMA 311400Z 3114/0120 VRB06KT 9999 SKC QNH2999INS BECMG 3118/3119 30009KT 9999 SKC QNH2991INS BECMG 0102/0103 VRB06KT 9999 SKC QNH2995ONS TX26/3120Z TN09/3114Z", "KDMN 311120Z 3112/0112 04005KT P6SM SCT180 FM312000 14005KT P6SM SKC", "KDNL 311309Z 3113/0112 VRB03KT 2SM BR VCSH OVC002 TEMPO 3113/3114 1/2SM -RA FG FM311500 VRB04KT P6SM OVC007 FM311800 18006KT P6SM VCSH SCT008 OVC015 FM312000 20006KT P6SM -RA BKN045", "TAF KDOV 310800Z 3108/0114 20006KT 9999 BKN030 QNH3001INS TEMPO 3108/3113 3200 BR BECMG 0103/0104 20006KT 8000 -SHRA BKN020 QNH3001INS TX20/3119Z TN10/3109Z", "KDPA 311315Z 3113/0112 01003KT 3SM BR OVC004 TEMPO 3113/3115 1SM BR OVC002 FM311700 36003KT 4SM BR VCSH OVC008 FM312100 34005KT 6SM BR BKN015 OVC035 FM010000 27005KT P6SM SCT015 BKN040 FM010600 26003KT 4SM BR SKC", "KDRO 311120Z 3112/0112 02004KT P6SM SKC FM312100 23007KT P6SM SKC FM010200 36005KT P6SM SKC", "KDRT 311135Z 3112/0112 09003KT P6SM FEW070 BKN200 FM311600 14012KT P6SM BKN060 FM312100 14010KT P6SM -SHRA VCTS OVC060CB FM010700 10005KT P6SM BKN035", "KDSM 311123Z 3112/0112 27007KT P6SM SCT250", "KDTW 311120Z 3112/0118 13003KT 1 1/2SM SHRA BR BKN003 OVC010 TEMPO 3112/3114 3/4SM -SHRA BR OVC003 FM311600 17005KT 6SM -SHRA BR OVC007 FM312000 20006KT P6SM OVC015 FM010000 25005KT P6SM -SHRA OVC010 FM010600 29004KT 5SM BR OVC008 FM011200 28008KT P6SM BKN020", "KDUJ 311137Z 3112/0112 14003KT 6SM -SHRA BR SCT013 BKN070 FM311700 17005KT P6SM VCSH BKN013 FM311800 17005KT P6SM OVC009 FM312000 18005KT P6SM OVC005 FM010100 16004KT P6SM OVC009 FM011000 23003KT P6SM VCSH OVC004", "KDVL 311138Z 3112/0112 19010KT P6SM BKN250 FM311500 25013G18KT P6SM BKN250 FM312000 26016G23KT P6SM BKN250 FM010000 27006KT P6SM BKN250", "KDVT 311120Z 3112/0112 05004KT P6SM SKC FM311700 18004KT P6SM SKC FM010200 05005KT P6SM FEW250", "TAF KDYS 311100Z 3111/0117 VRB06KT 9999 SCT150 QNH2998INS BECMG 0103/0104 16012KT 9999 FEW120 QNH2999INS TX21/3121Z TN09/3113Z", "KEAR 311128Z 3112/0112 25005KT P6SM FEW150 FM311700 22012G16KT P6SM SKC FM312300 19006KT P6SM SKC", "KEAT 311120Z 3112/0112 VRB04KT P6SM OVC060 FM311500 33006KT P6SM VCSH OVC045 FM312000 29012G20KT P6SM SCT100 BKN200 FM010200 30008KT P6SM SCT150 BKN200", "KEAU 311359Z 3114/0112 00000KT 2SM BR FEW002 FM311430 22003KT 3SM BR FEW003 FM311530 22006KT P6SM SKC", "TAF COR KECG 311155Z 3112/0112 00000KT 3SM BR SCT003 FM311300 17005KT P6SM BKN040 FM011100 VRB03KT P6SM BKN030", "KECP 311120Z 3112/0112 31005KT P6SM OVC040 FM312000 27006KT P6SM SKC", "TAF KEDW 311242Z 3113/0119 VRB06KT 9999 FEW250 QNH2989INS BECMG 3122/3123 24009KT 9999 FEW250 QNH2987INS BECMG 0102/0103 VRB06KT 9999 FEW250 QNH2990INS BECMG 0117/0118 21014G24KT 9999 FEW150 SCT220 510005 QNH2991INS TX24/3122Z TN02/3113Z", "KEED 311120Z 3112/0112 33007KT P6SM SKC FM311600 36007KT P6SM FEW250 FM312000 VRB06KT P6SM SCT250 FM010200 22006KT P6SM SCT150 BKN250", "KEET 311236Z 3113/0112 00000KT 3SM BR OVC035 FM311400 24007KT P6SM BKN035 FM010200 00000KT P6SM SCT250 FM010900 00000KT 1SM BR SCT250", "TAF KEFD 311200Z 3112/0118 VRB06KT 9999 FEW290 QNH2998INS BECMG 0114/0115 VRB06KT 8000 -RA FEW020 QNH3017INS TX23/3121Z TN12/3112Z", "KEFK 311120Z 3112/0112 VRB04KT P6SM BKN150 FM311600 22006KT P6SM SCT100 BKN150 FM010300 VRB03KT P6SM VCSH BKN040", "KEGE 311120Z 3112/0112 VRB04KT P6SM SKC", "TAF AMD KEGI 311150Z 3111/0115 31009KT 9999 SCT050 QNH2997INS TEMPO 3112/3114 6000 BR BECMG 0108/0109 04009KT 8000 BR FEW060 QNH3008INS TX22/3119Z TN14/0109Z", "KEKN 311138Z 3112/0112 VRB03KT 6SM -SHRA BR SCT025 BKN035 TEMPO 3112/3114 2SM RA BR SCT015 OVC025 FM311500 VRB03KT P6SM VCSH BKN015 TEMPO 3115/3116 4SM -SHRA BR FM312300 VRB03KT P6SM OVC025 FM010600 00000KT 1 1/2SM BR OVC015", "KEKO 311213Z 3112/0112 VRB06KT P6SM SCT200 AMD NOT SKED", "KEKS 311120Z 3112/0112 17011G19KT P6SM OVC070 FM010000 16014G24KT P6SM BKN120 FM010600 17020G37KT P6SM SCT200", "KELD 311141Z 3112/0112 00000KT 3SM BR SKC TEMPO 3112/3113 00000KT 1/4SM FG OVC001 FM311300 VRB03KT 6SM BR SCT010 SCT250 FM311500 29005KT P6SM SCT250 FM010000 00000KT P6SM SKC FM010600 00000KT 4SM BR FEW250", "KELM 311120Z 3112/0112 VRB03KT P6SM SCT200 FM311500 19005KT P6SM FEW060 SCT120 FM312100 18003KT P6SM BKN040 FM010300 VRB03KT P6SM BKN030 FM010800 VRB02KT P6SM OVC018", "KELP 311120Z 3112/0112 01005KT P6SM BKN170 FM010000 11005KT P6SM SKC", "KELY 311213Z 3112/0112 17009KT P6SM SKC FM010400 18015G25KT P6SM BKN200 FM010900 18022G32KT P6SM BKN250", "TAF KEND 311000Z 3110/0116 27006KT 9999 FEW120 QNH2996INS BECMG 3119/3120 VRB06KT 9999 FEW250 QNH2998INS BECMG 0101/0102 17007KT 9999 SKC QNH3000INS TX22/3121Z TN04/3112Z", "KENV 311132Z 3112/0112 VRB04KT P6SM SCT250 FM311900 11006KT P6SM SCT200 FM010200 VRB04KT P6SM BKN200", "KENW 311257Z 3113/0112 VRB03KT 3SM BR SCT016 OVC035 TEMPO 3113/3114 1/2SM FG SCT002 BKN013 FM311400 VRB03KT P6SM SCT016 BKN035 FM312000 VRB04KT P6SM SCT045 BKN250", "KERI 311257Z 3113/0112 17007KT P6SM VCSH BKN035 TEMPO 3116/3120 BKN020 FM010100 18005KT P6SM BKN035 FM010900 20006KT P6SM VCSH BKN025", "KEUG 311120Z 3112/0112 18005KT P6SM OVC070 FM311900 19008KT P6SM VCSH SCT040 OVC070 FM312200 23008KT P6SM -RA OVC050 FM010000 VRB03KT 4SM RA OVC015", "KEUL 311120Z 3112/0112 13005KT P6SM SKC FM311800 13006KT P6SM BKN200 FM010900 12012KT P6SM BKN150 AMD NOT SKED", "KEVV 311125Z 3112/0112 20007KT P6SM VCSH OVC012 FM311500 24008KT P6SM VCSH SCT007 BKN015 FM311700 23008KT P6SM VCSH OVC012 FM312300 26005KT P6SM SCT023 FM010200 00000KT P6SM SCT035", "KEVW 311132Z 3112/0112 23009KT P6SM SCT250 FM311800 24011G18KT P6SM SCT200 FM010200 22009KT P6SM BKN200", "KEWN 311120Z 3112/0112 00000KT P6SM SCT090 FM010400 VRB03KT 6SM BR BKN070 FM010500 VRB03KT 5SM BR BKN070 FM010800 00000KT 6SM BR BKN070", "KEWR 311136Z 3112/0118 VRB02KT P6SM BKN035 TEMPO 3112/3113 BKN025 FM311500 22006KT P6SM FEW035 BKN120 FM010000 22004KT P6SM SCT035 OVC070 PROB30 0103/0106 -SHRA OVC025 FM010600 22004KT 4SM -SHRA OVC015 FM010900 22005KT 4SM -SHRA BR OVC008 FM011500 25006KT 5SM BR VCSH OVC015", "KEYW 311129Z 3112/0112 05006KT P6SM FEW015 SCT060 FM311500 10007KT P6SM FEW025", "TAF AMD KFAF 311230Z 3112/0116 VRB06KT 9999 BKN050 QNH3004INS BECMG 3118/3119 17006KT 9999 BKN030 QNH3002INS BECMG 0102/0103 VRB06KT 9000 -SHRA BKN040 OVC055 QNH3004INS TX20/3119Z TN13/3112Z", "KFAR 311138Z 3112/0112 21005KT P6SM BKN250 FM311500 22011KT P6SM BKN250 FM010300 22005KT P6SM FEW250", "KFAT 311120Z 3112/0112 VRB05KT P6SM SCT200", "KFAY 311120Z 3112/0112 09003KT P6SM SCT025 BKN040 FM312200 16005KT P6SM VCSH SCT025 BKN040 TEMPO 0102/0106 2SM -SHRA BR BKN025 FM010600 VRB03KT 2SM BR OVC004", "TAF AMD KFBG 311300Z 3113/0115 13006KT 9999 SCT010 BKN035 QNH3007INS BECMG 3120/3121 15008KT 9000 -SHRA BKN005 OVC015 QNH3002INS TEMPO 3123/0102 14015G25KT 8000 VCTS -SHRA BKN010CB OVC020 BECMG 0104/0105 18004KT 6000 BR OVC005 QNH3004INS BECMG 0107/0108 VRB06KT 2400 BR OVC005 QNH3002INS TX24/3121Z TN15/0109Z", "TAF KFCS 311300Z 3113/0119 33010KT 9999 SKC QNH3005INS BECMG 3114/3115 14010KT 9999 SKC QNH3004INS BECMG 3123/0100 27010KT 9999 SKC QNH300INS TX1920Z TNM01/0106Z", "KFDY 311120Z 3112/0112 15006KT 5SM BR VCSH OVC015 TEMPO 3112/3114 1SM -SHRA BR OVC007 FM311700 20008KT P6SM BKN025 FM312000 22008KT P6SM VCSH BKN035 FM010200 21004KT P6SM VCSH BKN025 FM010500 24004KT P6SM BKN015", "TAF AMD KFFO 311305Z 3113/0117 19009KT 9999 VCSH BKN015 BKN070 QNH2983INS BECMG 3114/3115 19012KT 9999 NSW SCT015 BKN070 QNH2985INS BECMG 3115/3117 20010G15KT 9999 VCSH BKN015 OVC070 QNH2984INS BECMG 3117/3119 21012G18KT 9000 -RA SCT015 BKN070 QNH2985INS BECMG 3121/3122 22009KT 8000 -SHRA BKN010 OVC035 QNH2986INS BECMG 0103/0104 22006KT 9999 NSW SCT009 BKN018 QNH2988INS BECMG 0116/0117 28012KT 9999 SCT022 QNH3009INS TX17/3120Z TN12/0111Z", "TAF KFHU 311343Z 3114/0120 20009KT 9999 SKC QNH3006INS BECMG 3115/3116 13009KT 9999 SKC QNH2999INS TEMPO 3119/3124 13010G16KT 510005 BECMG 0103/0104 18009KT 9999 SCT250 QNH3005INS BECMG 0118/0119 19012G18KT 9999 BKN200 510007 QNH3011INS TX22/3121Z TN07/0112Z", "KFKL 311137Z 3112/0112 15004KT 6SM -SHRA BR SCT022 OVC027 FM311400 16005KT 6SM -SHRA BR OVC022 FM311500 16006KT 6SM BR VCSH OVC015 FM311600 16006KT P6SM OVC006 FM312200 17005KT P6SM BKN011 FM010600 20004KT P6SM VCSH OVC027", "KFLG 311128Z 3112/0112 VRB06KT P6SM SKC FM010300 19005KT P6SM SKC", "KFLL 311120Z 3112/0118 08008KT P6SM VCSH SCT025 FM311400 10010KT P6SM VCSH SCT035 SCT100 FM312100 10010KT P6SM SCT030 BKN250 FM010500 VRB05KT P6SM FEW030 FM011400 10010KT P6SM SCT030 SCT100", "KFLO 311132Z 3112/0112 09005KT P6SM SCT040 FM311700 16007KT P6SM VCSH BKN030 FM010100 16003KT P6SM VCSH BKN060 FM011000 27003KT 1SM BR BKN003", "KFMH 311250Z 3113/0112 00000KT 6SM BR FEW018 OVC024 FM311400 19004KT P6SM BKN030 FM010400 22004KT P6SM VCSH OVC019 FM010900 24005KT P6SM -SHRA OVC009", "KFMN 311120Z 3112/0112 08005KT P6SM SKC FM311900 27006KT P6SM SKC FM010400 08006KT P6SM SKC", "KFMY 311214Z 3112/0112 06003KT P6SM BKN100 FM311900 30006KT P6SM SCT035 BKN120 FM010000 01004KT P6SM SCT040 SCT150", "KFNT 311312Z 3113/0112 07003KT 1SM -SHRA BR OVC005 FM311800 VRB03KT 6SM -SHRA BR OVC007 FM010000 28004KT P6SM OVC010 FM010600 29004KT 5SM BR BKN008 OVC040", "KFOD 311123Z 3112/0112 25007KT P6SM FEW250 TEMPO 3112/3114 4SM BR", "KFOE 311120Z 3112/0112 29006KT P6SM SCT120", "KFPR 311125Z 3112/0112 07005KT P6SM FEW035 FM311500 11011KT P6SM SCT035 FM010100 12005KT P6SM FEW040 FEW200", "TAF KFRI 311200Z 3112/0118 21006KT 9999 BKN100 QNH2995INS BECMG 3115/3116 23006KT 9999 SKC QNH2997INS BECMG 0104/0105 15006KT 9999 SKC QNH3013INS TX21/3121Z TN09/3112Z", "KFSD 311124Z 3112/0112 VRB05KT P6SM SKC FM311800 21010KT P6SM FEW250 FM010100 18005KT P6SM SKC", "KFSM 311125Z 3112/0112 27003KT P6SM SCT040 BKN080 FM311400 27005KT P6SM SKC", "KFST 311126Z 3112/0112 15009KT P6SM SCT250", "TAF AMD KFTK 311250Z 3112/0117 19006KT 9999 SCT008 BKN040 OVC065 QNH2986INS TEMPO 3113/3116 6000 BR BKN008 BECMG 3115/3116 19010KT 9999 VCSH BKN015 OVC050 QNH2982INS BECMG 3119/3120 21010G15KT 9999 VCSH SCT015 OVC020 QNH2980INS BECMG 0102/0103 24005KT 8000 BR OVC040 QNH2980INS BECMG 0109/0110 26006KT 9999 NSW BKN020 QNH2985INS TX19/3120Z TN14/3112Z", "KFTW 311120Z 3112/0112 VRB03KT P6SM BKN250 FM312200 14005KT P6SM SCT250", "KFTY 311141Z 3112/0112 05005KT 5SM -DZ BR OVC004 FM311500 VRB03KT P6SM VCSH BKN004 BKN009 FM311800 22004KT P6SM BKN008 BKN012 FM312000 25005KT P6SM SCT009 BKN030 BKN050 FM312200 24004KT P6SM SCT030 SCT050 BKN150 FM010300 31004KT P6SM SCT050 SCT090 BKN150", "KFVE 311120Z 3112/0112 25003KT P6SM BKN080 FM311500 00000KT P6SM BKN080", "KFWA 311130Z 3112/0112 18005KT 1SM -DZ BR OVC003 TEMPO 3113/3115 3SM -RA BR OVC005 FM311500 19007KT 5SM -RA BR OVC007 FM311600 21009KT 6SM -SHRA BR OVC015 FM312300 23007KT P6SM VCSH OVC015 FM010200 24006KT 4SM BR OVC008", "KFXE 311120Z 3112/0112 08007KT P6SM VCSH SCT025 FM311400 10008KT P6SM VCSH SCT035 SCT100 FM312100 10010KT P6SM SCT030 BKN250 FM010500 VRB05KT P6SM FEW030", "KFYV 311232Z 3113/0112 00000KT 0SM FG VV003 TEMPO 3113/3115 1/4SM FG FM311500 27006KT P6SM SKC FM010000 00000KT P6SM SKC", "KGBD 311134Z 3112/0112 26005KT P6SM FEW250 FM312000 23007KT P6SM SKC FM010000 16007KT P6SM SKC", "KGCC 311120Z 3112/0112 20008KT P6SM BKN250", "KGCK 311120Z 3112/0112 VRB06KT P6SM SKC FM311700 21008KT P6SM SKC", "KGCN 311128Z 3112/0112 VRB04KT P6SM SKC FM311800 08008KT P6SM SKC", "KGDV 311120Z 3112/0112 VRB05KT P6SM SCT200 FM311600 22008KT P6SM FEW070 FM311900 23012KT P6SM FEW060 FM312300 23009KT P6SM FEW070 FM010000 22007KT P6SM FEW070", "KGEG 311120Z 3112/0112 21017G26KT P6SM -RA SCT028 OVC040 FM010300 21014KT P6SM VCSH OVC030 FM010600 22011KT P6SM VCSH OVC040", "TAF KGFA 311158Z 3112/0118 22015G25KT 9999 FEW080 SCT090 510003 QNH2972INS BECMG 3115/3116 24020G30KT 9999 FEW090 SCT100 520004 QNH2965INS TEMPO 3117/3121 25025G35KT 530005 BECMG 3123/3124 23015G25KT 9999 FEW080 520004 QNH2967INS BECMG 0103/0104 22012G18KT 9999 FEW060 FEW080 510003 QNH2954INS TX17/3121Z TN06/0110Z", "KGFK 311138Z 3112/0112 17007KT P6SM BKN250 FM311500 23012KT P6SM BKN250 FM311800 24013G20KT P6SM SCT250 FM312300 26006KT P6SM BKN250", "KGFL 311132Z 3112/0112 00000KT P6SM SCT200 FM311700 17005KT P6SM BKN150 FM312300 00000KT P6SM BKN070 FM010600 00000KT P6SM VCSH BKN040", "KGGG 311207Z 3112/0112 00000KT 2SM BR FEW002 TEMPO 3112/3114 VRB03KT 1SM BR BKN002 FM311400 30005KT P6SM BKN250 FM010000 VRB03KT P6SM FEW250", "KGGW 311120Z 3112/0112 VRB05KT P6SM FEW120 WS020/29035KT FM311600 20008KT P6SM FEW070 FM312000 24012KT P6SM FEW050 FM010100 21007KT P6SM FEW150", "KGJT 311120Z 3112/0112 11005KT P6SM SKC FM311400 13009KT P6SM SKC FM311930 32003KT P6SM SKC FM010300 07003KT P6SM SKC", "KGKY 311120Z 3112/0112 VRB03KT P6SM BKN250 FM312200 14005KT P6SM SCT250", "KGLH 311131Z 3112/0112 27005KT P6SM SCT020 BKN050", "KGLS 311135Z 3112/0112 VRB05KT P6SM BKN250 FM311700 07006KT P6SM SCT250 FM312100 11007KT P6SM BKN250 FM010700 08006KT P6SM VCSH SCT090 OVC150", "KGMU 311128Z 3112/0112 07005KT 5SM BR VCSH OVC003 TEMPO 3112/3113 2SM -RA BR OVC002 FM311500 08006KT 3SM -RA BR OVC003 PROB30 3121/0103 2SM -RA BR OVC001 FM010300 00000KT 4SM BR BKN008 FM011000 31003KT 1SM BR OVC006", "KGNV 311232Z 3113/0112 VRB02KT 2SM BR SCT003 OVC013 FM311330 13002KT 5SM BR SCT007 BKN015 FM311400 15004KT P6SM SCT010 SCT020 BKN250 FM311600 17006KT P6SM SCT040 BKN100 FM010000 VRB03KT P6SM SCT035 BKN100 FM010500 00000KT 5SM BR BKN250 FM010900 00000KT 4SM BR FEW002 SCT250", "KGON 311259Z 3113/0112 02003KT 6SM BR SCT010 BKN025 TEMPO 3113/3115 4SM BR BKN019 FM311500 19006KT P6SM SCT020 BKN035 FM312200 VRB04KT P6SM BKN070 FM010400 VRB04KT 6SM BR OVC050 PROB30 0104/0108 -SHRA OVC015 FM010800 VRB04KT 4SM -SHRA OVC015 FM011000 22005KT 4SM -SHRA OVC008", "KGPI 311334Z 3114/0112 16011G20KT P6SM VCSH OVC040 FM010200 19010G18KT P6SM -SHRA OVC040 FM010400 17009KT P6SM VCSH OVC040", "KGPT 311130Z 3112/0112 VRB04KT P6SM SCT040 BKN250 FM311900 17008KT P6SM BKN250 FM010100 00000KT P6SM BKN250", "KGRB 311124Z 3112/0112 VRB03KT P6SM BKN120 BKN200 TEMPO 3112/3114 4SM BR FM311600 24004KT P6SM SCT200", "TAF KGRF 311300Z 3113/0119 14012KT 9999 -RA BKN035 OVC065 620709 QNH2981INS TEMPO 3114/3117 13012G18KT BECMG 3118/3119 15012KT 9999 NSW SCT035 BKN200 QNH2980INS BECMG 3121/3122 17009KT 9999 BKN045 BKN200 620454 QNH2984INS BECMG 0100/0101 14007KT 9999 SCT050 BKN170 QNH2974INS BECMG 0111/0112 VRB03KT 9000 BR BKN110 QNH2972INS BECMG 0113/0114 VRB03KT 8000 BR BKN015 BKN100 QNH2973INS BECMG 0117/0118 20004KT 9999 NSW BKN020 QNH2972INS TX12/3122Z TN06/0113Z", "KGRI 311128Z 3112/0112 25005KT P6SM FEW150 FM311700 22010G14KT P6SM SKC FM312300 19005KT P6SM SKC", "TAF KGRK 310800Z 3108/0114 30006KT 9999 SCT250 QNH2996INS BECMG 0102/0103 11006KT 9999 BKN140 QNH3000INS BECMG 0109/0110 10006KT 9999 -RA SCT040 BKN100 QNH3005INS TX23/3120Z TN14/3111Z", "KGRR 311136Z 3112/0112 09003KT 4SM -DZ BR OVC003 TEMPO 3112/3116 2SM -RA BR FM311600 VRB03KT P6SM VCSH OVC007 FM312100 31003KT 6SM BR VCSH OVC015 FM010600 25003KT 3SM BR BKN005", "TAF AMD KGSB 311300Z 3113/0118 15009KT 9999 FEW005 SCT050 BKN100 QNH2999INS BECMG 0101/0102 18012G18KT 4800 -DZ BR BKN015 OVC050 QNH3000INS BECMG 0110/0111 23012G18KT 3200 -RA BR BKN008 OVC030 QNH3002INS TEMPO 0114/0118 26012G18KT 1600 -TSRA BKN005CB TX23/3118Z TN11/3113Z", "KGSO 311146Z 3112/0112 14003KT 6SM BR VCSH BKN015 OVC025 TEMPO 3112/3115 3SM -RADZ BR BKN004 FM312000 21006KT 6SM -RADZ VCSH BKN009 OVC015 FM010200 24004KT 4SM -DZ BR BKN004 OVC012 FM010600 VRB03KT 2SM BR OVC004", "KGSP 311128Z 3112/0112 06003KT 4SM BR VCSH OVC002 TEMPO 3112/3114 2SM -RA BR FM311500 06005KT 3SM -RA BR OVC003 PROB30 3121/0103 2SM -RA BR OVC001 FM010300 00000KT 4SM BR BKN009 FM011000 31003KT 1SM BR OVC007", "TAF KGTB 310900Z 3109/0115 VRB06KT 9999 SCT200 QNH3001INS BECMG 3111/3112 17005KT 9999 BKN140 QNH2998INS BECMG 3118/3119 17005KT 9000 -SHRA BKN090 QNH2992INS BECMG 3121/3122 18005KT 9000 -SHRA OVC050 QNH2992INS BECMG 0102/0103 19005KT 9000 -SHRA BKN010 OVC030 QNH2993INS TX13/3118Z TN07/3110Z", "KGTF 311120Z 3112/0112 21018G26KT P6SM BKN100 FM311800 23019G33KT P6SM OVC100 FM010200 22011KT P6SM OVC080", "KGTR 311131Z 3112/0112 25005KT P6SM OVC060 FM010900 00000KT 4SM BR SCT040", "KGUC 311120Z 3112/0112 VRB04KT P6SM SKC", "KGUP 311120Z 3112/0112 VRB04KT P6SM SKC FM312000 27006KT P6SM SKC FM010200 VRB03KT P6SM SKC", "TAF KGUR 311300Z 3113/0119 VRB06KT 9999 SKC QNH2994INS BECMG 3117/3118 VRB06KT 9999 SKC QNH2989INS BECMG 0105/0106 VRB06KT 9999 SKC QNH2995INS BECMG 0118/0119 22010G15KT 9999 SKC QNH2989INS TX20/3122Z TNM03/3113Z", "TAF KGUS 311300Z 3113/0119 VRB06KT 4800 BR FEW003 BKN009 OVC015 QNH2980INS TEMPO 3114/3116 2400 -SHRA BR SCT003 BKN006 OVC010 BECMG 3115/3116 20009KT 4800 RADZ BR SCT002 OVC009 QNH2982INS TEMPO 3116/3118 6000 BR SCT006 BKN020 BECMG 3117/3118 22012G18KT 8000 -SHRA FEW008 OVC015 QNH2982INS BECMG 3123/3124 22009KT 4800 -DZ BR OVC004 QNH2986INS BECMG 0111/0112 VRB06KT 8000 BR SCT004 BKN010 QNH3010INS TX17/3117Z TN11/0112Z", "KGUY 311130Z 3112/0112 22007KT P6SM SCT300 FM311700 21011KT P6SM SKC FM010000 20008KT P6SM SKC", "KGWO 311402Z 3114/0112 22003KT P6SM OVC008 FM311500 26006KT P6SM BKN070", "KGYY 311319Z 3113/0112 VRB03KT 2SM BR VCSH OVC002 TEMPO 3113/3115 1/2SM -SHRADZ FG FM311800 VRB03KT 3SM BR VCSH OVC005 TEMPO 3119/3123 -SHRADZ FM010300 27003KT 4SM BR VCSH BKN010 FM010600 24003KT 1SM BR FEW100", "KHBG 311131Z 3112/0112 00000KT 6SM BR OVC060 TEMPO 3112/3113 4SM BR FEW003 OVC050 FM311400 27005KT P6SM BKN070 FM010900 00000KT 4SM BR SCT025", "KHCR 311132Z 3112/0112 VRB04KT P6SM FEW250 FM312000 23009KT P6SM SCT250 FM010200 VRB04KT P6SM SCT200", "KHDC 311325Z 3113/0112 VRB04KT P6SM BKN250", "KHDN 311120Z 3112/0112 10008KT P6SM FEW250 FM311930 26007KT P6SM FEW250 FM010100 17005KT P6SM SKC FM010600 10007KT P6SM SKC", "KHIB 311120Z 3112/0112 VRB02KT P6SM FEW250 FM311700 22008G16KT P6SM FEW250 FM312300 22006KT P6SM SCT250", "KHIE 311120Z 3112/0112 00000KT P6SM SCT250 FM311600 25003KT P6SM BKN200", "TAF KHIF 311300Z 3113/0119 11012KT 9999 FEW200 QNH3013INS BECMG 3118/3119 21006KT 9999 FEW080 FEW150 QNH3002INS BECMG 0102/0103 12012G20KT 9999 BKN120 QNH2988INS TX15/3122Z TN03/3113Z", "KHIO 311120Z 3112/0112 18009KT P6SM -SHRA BKN025 OVC040 FM311400 17011KT 5SM -RA BR OVC018 FM311700 20010KT 3SM RA BR SCT015 OVC025 FM311900 VRB03KT 5SM -RADZ BR OVC015 FM010200 29006KT P6SM VCSH SCT025 BKN040 FM010800 00000KT 5SM MIFG BR FEW001 SCT035", "KHKS 311319Z 3113/0112 00000KT 6SM BR OVC050 FM311400 27005KT P6SM BKN050 FM010900 00000KT 4SM BR SCT035", "KHKY 311128Z 3112/0112 00000KT 3SM BR VCSH BKN003 OVC008 FM311300 07003KT 2SM -RA BR OVC006 FM312200 05003KT 4SM BR OVC004 PROB30 3122/0103 2SM -RA BR OVC003 FM010300 VRB02KT 2SM BR BKN004 FM010900 VRB02KT 1/2SM FG OVC004", "KHLG 311252Z 3113/0112 17005KT 3SM -SHRA BR BKN005 OVC008 FM311400 18004KT 3SM -SHRA BR BKN008 OVC015 FM311500 18005KT P6SM BKN015 OVC025 FM312100 19005KT P6SM OVC035 FM010700 22004KT P6SM VCSH BKN022 FM010800 22004KT P6SM BKN013 FM011000 22004KT P6SM OVC007", "KHLN 311120Z 3112/0112 VRB06KT P6SM OVC060 FM311900 23010KT P6SM SCT090", "TAF KHMN 310905Z 3109/0115 VRB06KT 9999 SCT240 QNH3003INS BECMG 3118/3119 28009KT 9999 SKC QNH3001INS BECMG 0101/0102 VRB06KT 9999 SKC QNH3004INS TX21/3122Z TN04/3113Z", "KHNB 311120Z 3112/0112 21008KT P6SM VCSH OVC008 FM311700 22010G18KT P6SM VCSH BKN015 FM010000 26005KT P6SM BKN018 FM010800 26005KT P6SM BKN040", "KHND 311120Z 3112/0112 19006KT P6SM SKC FM311800 02006KT P6SM SCT250 FM010300 19007KT P6SM SCT150 BKN250", "KHOB 311126Z 3112/0112 02003KT P6SM SCT250 FM311500 12005KT P6SM FEW250", "KHON 311124Z 3112/0112 16007KT P6SM SKC FM311600 20008KT P6SM FEW250 FM312000 23009KT P6SM FEW250 FM010100 17005KT P6SM SKC", "TAF AMD KHOP 311300Z 3113/0114 20005KT 8000 BR BKN020 BKN080 QNH2988INS TEMPO 3113/3115 BKN008 BECMG 3114/3115 21007KT 9999 NSW BKN070 QNH2991INS BECMG 3117/3118 23010G15KT 9999 SCT030 BKN060 QNH2993INS BECMG 3123/3124 26003KT 9999 SCT070 QNH2995INS TX17/3119Z TN13/0108Z", "KHOT 311359Z 3114/0112 00000KT 5SM BR SKC TEMPO 3114/3115 1/4SM FG FM311500 28005KT P6SM SCT050 SCT250 FM010000 VRB03KT P6SM SKC", "KHOU 311135Z 3112/0112 VRB03KT P6SM SCT250 FM311900 11007KT P6SM SCT045 BKN250 FM010100 VRB03KT P6SM SCT050 BKN250 FM010900 VRB05KT P6SM VCSH SCT030 OVC090", "KHPN 311136Z 3112/0112 00000KT P6SM BKN035 OVC200 TEMPO 3112/3113 BKN025 FM311500 22005KT P6SM FEW040 BKN100 FM010300 VRB03KT P6SM OVC040 PROB30 0103/0107 -SHRA OVC015 FM010700 VRB03KT 4SM -SHRA OVC015 FM011000 VRB03KT 4SM -SHRA OVC008 AMD NOT SKED", "KHQM 311122Z 3112/0112 22013G21KT P6SM -SHRA SCT007 SCT040 OVC060 TEMPO 3112/3116 4SM -SHRA BR BKN007 OVC040 FM312000 27008KT P6SM SCT020 BKN060 FM010000 VRB04KT P6SM SCT060 BKN200", "KHRL 311120Z 3112/0112 08005KT P6SM SCT070 SCT250 FM311400 08007KT P6SM SCT080 FM311600 10012KT P6SM BKN045 FM312100 09015KT P6SM BKN030 PROB30 3121/0103 4SM -SHRA BR OVC015 FM010300 10010KT 6SM -SHRA BR BKN018", "KHRO 311207Z 3112/0112 28005KT P6SM SCT007 BKN040 TEMPO 3112/3114 5SM BR BKN007 FM311400 29006KT P6SM SCT020 BKN050 FM311700 30008KT P6SM SCT050 SCT250 FM010000 VRB03KT P6SM SKC", "TAF KHRT 311000Z 3110/0116 35005KT 8000 BR BKN045 QNH2996INS BECMG 3113/3114 35005KT 9999 NSW FEW030 SCT250 QNH2995INS WND 25005KT AFT 3117 BECMG 0101/0102 35005KT 9999 SKC QNH3000INS TX24/3120Z TN17/3111Z", "TAF KHST 311100Z 3111/0117 06007KT 9999 VCSH FEW018 SCT025 SCT045 QNH2991INS TEMPO 3111/3113 VRB06KT 8000 -SHRA BR BKN018 OVC035 BECMG 3113/3114 10012KT 9999 NSW FEW025 SCT045 QNH2989INS BECMG 3123/3124 07007KT 9999 SCT025 SCT045 QNH2990INS BECMG 0114/0115 10010KT 9999 SCT025 SCT045 QNH3004INS TX30/3119Z TN23/0110Z", "KHSV 311120Z 3112/0112 23006KT P6SM BKN035", "KHTS 311402Z 3114/0112 20005KT 6SM BR VCSH BKN015 OVC050 TEMPO 3114/3116 4SM -SHRA BR BKN006 FM311700 20007KT P6SM OVC025 FM312000 21007KT P6SM BKN035 FM010200 VRB03KT P6SM BKN070 FM010800 22004KT P6SM SCT018 BKN025", "TAF KHUA 311200Z 3112/0118 VRB06KT 9000 BR OVC050 QNH2998INS BECMG 3115/3116 VRB06KT 9999 NSW OVC035 QNH2995INS BECMG 0106/0107 VRB06KT 9999 BKN008 QNH3008INS BECMG 0116/0117 VRB06KT 8000 BR SCT008 QNH3021INS TX18/3121Z TN13/0111Z", "KHUF 311120Z 3112/0112 19006KT P6SM VCSH SCT004 OVC007 FM311400 20007KT P6SM VCSH OVC006 FM311800 23008KT P6SM VCSH OVC012 FM010100 25004KT P6SM OVC015 FM010900 27003KT P6SM SCT020 BKN090", "KHUL 311120Z 3112/0112 22003KT P6SM BKN100 FM312200 00000KT P6SM SCT100 FM010500 00000KT 6SM BR BKN008", "KHUM 311322Z 3113/0112 00000KT 1/2SM FG SKC FM311500 VRB04KT P6SM BKN250", "KHUT 311134Z 3112/0112 30005KT P6SM FEW250 FM010400 18007KT P6SM FEW250", "KHVR 311120Z 3112/0112 22015G20KT P6SM BKN100 FM312000 24019G29KT P6SM SCT100", "KHYA 311120Z 3112/0112 20004KT 6SM BR BKN010 FM311300 19005KT P6SM BKN030 FM311400 19006KT P6SM BKN080 FM312300 18006KT P6SM BKN030 FM010000 19007KT P6SM BKN012 FM011000 23005KT P6SM -SHRA OVC009", "KHYR 311120Z 3112/0112 00000KT 6SM BR SCT250 FM311400 00000KT P6SM SCT250 FM311800 23006KT P6SM FEW200", "KHYS 311120Z 3112/0112 VRB06KT P6SM SKC FM311800 22007KT P6SM SKC", "TAF KIAB 311000Z 3110/0116 VRB06KT 9999 FEW065 FEW200 QNH2993INS BECMG 0114/0115 18010G15KT 9999 SKC QNH3010INS TX22/3122Z TN08/0110Z", "KIAD 311136Z 3112/0118 00000KT P6SM SCT080 BKN150 FM311300 18006KT P6SM BKN150 FM311900 18005KT 6SM -SHRA BKN050 FM010000 00000KT 6SM -SHRA OVC008 FM010400 19003KT 4SM -DZ BR OVC008 FM011000 00000KT 2SM BR BKN020 FM011400 29004KT P6SM SCT060", "KIAG 311120Z 3112/0112 17004KT P6SM VCSH BKN100 OVC150 FM311300 18005KT P6SM VCSH BKN025 OVC035 FM312100 19005KT P6SM OVC025 FM010700 21007KT P6SM OVC015", "KIAH 311135Z 3112/0118 VRB03KT P6SM SCT250 TEMPO 3112/3113 6SM BR FM312000 10006KT P6SM SCT040 BKN250 FM010000 VRB04KT P6SM SCT050 BKN250 FM010900 VRB05KT P6SM VCSH SCT050 OVC110", "KICT 311134Z 3112/0112 31005KT P6SM SCT250", "KIDA 311120Z 3112/0112 VRB06KT P6SM SCT080 BKN120 FM311900 21010G18KT P6SM FEW120 SCT250 FM010200 VRB05KT P6SM SCT120 BKN200 FM010800 15012KT P6SM FEW080 SCT120", "KIFP 311120Z 3112/0112 02012KT P6SM SKC FM311500 36014G20KT P6SM FEW250 FM312100 VRB06KT P6SM SCT250 FM010200 16006KT P6SM SCT150 BKN250", "KILG 311239Z 3113/0112 00000KT 6SM BR BKN003 FM311400 19005KT P6SM BKN040 OVC100 FM010000 19003KT P6SM VCSH OVC020 FM010500 19003KT P6SM VCSH OVC009", "KILM 311129Z 3112/0112 06003KT 6SM BR FEW080 FM311400 09005KT P6SM SCT060 FM311700 13006KT P6SM SCT060 FM010000 12004KT P6SM BKN060 FM010600 16003KT P6SM VCSH BKN060", "KILN 311133Z 3112/0112 18007KT 4SM BR VCSH OVC008 FM311500 21010G21KT P6SM BKN011 FM311700 21010G19KT P6SM BKN027 FM312200 22007KT P6SM VCSH BKN025 FM010500 23006KT P6SM BKN013 FM010800 24007KT 5SM BR BKN008", "KIND 311120Z 3112/0118 16007KT P6SM SCT003 OVC007 FM311400 18008KT P6SM VCSH OVC008 FM311700 21008KT P6SM VCSH OVC012 FM010300 25006KT 6SM BR OVC009 FM011000 27005KT P6SM OVC020", "KINK 311126Z 3112/0112 07006KT P6SM SCT250 FM311500 12009KT P6SM FEW200", "KINL 311120Z 3112/0112 19006KT P6SM FEW250 FM311400 21008G15KT P6SM FEW250 FM312300 23007KT P6SM BKN250", "TAF KINS 3113/0119 VRB06KT 9999 SKC QNH3001INS BECMG 3117/3118 14009KT 9999 SCT210 QNH2999INS BECMG 0104/0105 VRB06KT 9999 FEW180 BKN210 QNH2991INS BECMG 0114/0115 15009KT 9999 OVC110 QNH2993INS BECMG 0117/0118 21010G19KT 9999 SCT090 BKN130 QNH2990INS TX22/3123Z TN03/3113Z", "KINT 311141Z 3112/0112 14003KT 6SM BR VCSH BKN015 OVC025 TEMPO 3112/3115 3SM -RADZ BR BKN009 FM312000 21006KT 6SM -RADZ VCSH BKN009 OVC015 FM010200 24004KT 4SM -DZ BR BKN004 OVC012 FM010600 VRB03KT 2SM BR OVC004", "KINW 311128Z 3112/0112 VRB04KT P6SM SKC", "KIPL 311120Z 3112/0112 VRB04KT P6SM SKC FM311900 12004KT P6SM FEW250 FM010400 23005KT P6SM BKN250", "KIPT 311156Z 3112/0112 10003KT P6SM FEW003 FM311400 14002KT P6SM OVC100 FM311900 12006KT P6SM VCSH OVC050 FM010500 07005KT P6SM -SHRA OVC025 FM010700 06005KT 5SM BR OVC018", "KISM 311125Z 3112/0112 05004KT P6SM FEW035 FM311500 10009KT P6SM SCT035 FM010100 11005KT P6SM FEW040 FEW200 FM010800 06004KT 6SM BR FEW010", "KISO 311120Z 3112/0112 00000KT 1SM BR OVC005 FM311300 00000KT P6SM BKN070 FM010500 VRB03KT 4SM BR BKN035 FM011000 VRB03KT P6SM BKN024 AMD LTD TO CLD VIS AND WIND", "KISP 311301Z 3113/0112 00000KT P6SM BKN035 TEMPO 3113/3115 BKN025 FM311500 20006KT P6SM SCT030 BKN150 FM312100 21004KT P6SM SCT050 BKN100 FM010300 VRB03KT 6SM BR OVC040 PROB30 0104/0107 -SHRA OVC015 FM010700 VRB03KT 4SM -SHRA OVC015 FM011000 21005KT 4SM -SHRA OVC008", "KITH 311120Z 3112/0112 15008KT P6SM SCT200 FM311700 19008KT P6SM FEW050 SCT100 FM312200 16005KT P6SM BKN040 FM010300 17005KT P6SM BKN026 FM011100 VRB03KT P6SM BKN019", "KIWA 311120Z 3112/0112 11008KT P6SM SKC FM311600 VRB03KT P6SM SKC FM312200 26005KT P6SM SKC FM010400 10007KT P6SM SCT250", "KIWD 311120Z 3112/0112 23005KT P6SM SKC TEMPO 3112/3113 2SM BR", "KIXD 311120Z 3112/0112 28007KT P6SM SCT100 FM010500 17006KT P6SM SKC", "KJAC 311120Z 3112/0112 01006KT P6SM OVC070 FM312100 21008KT P6SM SCT090 SCT200 FM010400 01006KT P6SM SCT200", "KJAN 311131Z 3112/0112 22004KT 6SM BR OVC050 TEMPO 3112/3113 4SM BR FM311400 27005KT P6SM BKN070 FM010900 00000KT 4SM BR SCT035", "KJAX 311223Z 3112/0112 VRB02KT P6SM FEW008 SCT040 SCT250 FM311400 14006KT P6SM FEW010 SCT045 BKN250 FM311800 15008KT P6SM VCSH SCT035 BKN100 FM010000 VRB04KT P6SM SCT035 BKN100 FM010900 00000KT 3SM BR FEW015 SCT250", "KJBR 311132Z 3112/0112 23006KT P6SM BKN006 FM311400 27006KT P6SM OVC015 FM311800 26008KT P6SM OVC025 FM312300 26004KT P6SM BKN250 FM010200 VRB02KT P6SM SKC", "KJCT 311120Z 3112/0112 VRB05KT P6SM BKN250 FM010100 VRB06KT P6SM VCSH BKN200", "KJEF 311221Z 3112/0112 VRB04KT P6SM VCSH FEW020 OVC040 TEMPO 3112/3114 5SM -RA FM311400 29005KT P6SM OVC070 FM010000 VRB04KT P6SM FEW250", "KJER 311120Z 3112/0112 12008KT P6SM SKC FM010300 06012KT P6SM BKN200", "KJFK 311136Z 3112/0118 VRB03KT P6SM BKN035 TEMPO 3112/3113 6SM BR BKN025 FM311500 21006KT P6SM FEW040 BKN120 FM010000 21005KT P6SM SCT040 OVC070 PROB30 0103/0106 -SHRA OVC025 FM010600 22005KT 4SM -SHRA OVC015 FM010900 22005KT 4SM -SHRA BR OVC008 FM011500 22005KT 5SM BR VCSH OVC015", "KJHW 311133Z 3112/0112 17006KT P6SM -SHRA BKN020 FM311600 17007KT P6SM VCSH OVC025 FM311800 18009KT P6SM VCSH SCT007 OVC015 FM010000 18006KT P6SM OVC007", "KJKA 311127Z 3112/0112 00000KT 4SM BR FEW250 TEMPO 3112/3114 1SM BR FM311400 25006KT P6SM SCT200 FM010300 VRB03KT P6SM FEW250 FM010800 00000KT 5SM BR SKC", "KJKL 311248Z 3113/0112 00000KT 1SM BR VCSH BKN004 OVC010 FM311500 22006KT P6SM OVC015 FM311800 22006KT P6SM OVC035 FM311900 VRB05KT P6SM BKN025 FM312000 22006KT P6SM BKN050 FM010800 00000KT P6SM BKN010", "KJLN 311357Z 3114/0112 21005KT 1SM BR BKN002 TEMPO 3114/3115 SCT002 FM311500 22005KT 3SM BR BKN005 FM311600 25005KT P6SM SKC", "KJMS 311126Z 3112/0112 24009KT P6SM SCT250 FM311700 27012G20KT P6SM SCT250 FM312300 23006KT P6SM SCT250", "KJST 311130Z 3112/0112 19006KT P6SM VCSH BKN040 FM311500 19007KT P6SM VCSH OVC030 FM010500 18006KT 5SM -SHRA OVC015 FM010800 21006KT 3SM BR OVC009", "KJVL 311120Z 3112/0112 VRB04KT P6SM BKN050 OVC250 TEMPO 3112/3114 6SM BR SCT012 BKN035 FM311800 VRB03KT P6SM FEW120 SCT250", "KJXN 311136Z 3112/0112 09003KT 1 1/2SM -SHRA BR OVC003 TEMPO 3112/3116 1/2SM -DZ FG VV002 FM311800 21004KT 4SM -SHRA BR OVC006 FM010400 25003KT 1 1/2SM -DZ BR OVC003", "KJZI 311131Z 3112/0112 04004KT 5SM BR SCT005 SCT060 FM311400 10006KT P6SM BKN035 FM311800 16008KT P6SM BKN040 FM010200 17003KT P6SM BKN100", "KLAF 311250Z 3113/0112 VRB04KT 2SM -SHRA BR OVC005 FM311500 20005KT 4SM -SHRA BR OVC006 FM311800 22007KT 6SM -SHRA BR OVC007 FM312200 25007KT 5SM -SHRA BR OVC009 FM010400 27004KT 4SM BR OVC015 FM010700 28002KT 3SM BR SCT020 AMD NOT SKED", "KLAL 311133Z 3112/0112 00000KT 6SM BR SCT025 FM311300 VRB03KT P6SM FEW250 FM311700 13006KT P6SM SCT040 SCT250 FM010300 05002KT P6SM SCT250", "KLAN 311136Z 3112/0112 09003KT 1 1/2SM -SHRA BR OVC003 TEMPO 3112/3114 3/4SM -DZ BR FM311600 VRB03KT 4SM -SHRA BR OVC006 FM010600 25003KT 1 1/2SM BR OVC003", "KLAR 311120Z 3112/0112 22011KT P6SM SKC FM311900 27012G20KT P6SM SKC FM010000 24009KT P6SM SKC", "KLAS 311120Z 3112/0118 22005KT P6SM SKC FM311800 08006KT P6SM SCT250 FM010300 25005KT P6SM SCT150 BKN250 FM011200 VRB05KT P6SM SCT150 SCT250", "KLAW 311120Z 3112/0112 VRB03KT P6SM FEW250", "KLAX 311143Z 3112/0118 07005KT P6SM SCT005 SCT250 FM311600 VRB03KT P6SM SCT250 FM312000 26010KT P6SM SCT250 FM010500 VRB03KT 5SM BR OVC010 FM010900 12006KT P6SM OVC015", "KLBB 311120Z 3112/0112 VRB04KT P6SM BKN250 FM311700 18009KT P6SM BKN250", "KLBE 311359Z 3114/0112 VRB02KT 6SM -SHRA BR BKN025 OVC030 FM311600 19006KT P6SM OVC015 FM312200 19004KT P6SM VCSH OVC027", "KLBF 311129Z 3112/0112 VRB03KT P6SM FEW250 FM311800 24007KT P6SM FEW250 FM010100 VRB03KT P6SM FEW250", "KLBL 311120Z 3112/0112 VRB06KT P6SM SKC FM311600 21008KT P6SM SKC", "KLBT 311133Z 3112/0112 10004KT P6SM SCT020 BKN050 FM311700 14005KT P6SM VCSH BKN030 FM010600 17004KT P6SM VCSH BKN070 FM011100 25003KT 1SM BR BKN002 AMD NOT SKED", "KLBX 311210Z 3112/0112 VRB03KT P6SM BKN250 TEMPO 3112/3114 2SM BR FM311800 11006KT P6SM SCT040 SCT250 FM010000 VRB03KT P6SM SCT040 BKN250 FM010800 VRB04KT P6SM VCSH SCT030 OVC110", "KLCH 311120Z 3112/0112 00000KT 1/4SM FG VV002 TEMPO 3112/3114 3SM BR SCT002 FM311400 VRB05KT P6SM SCT040 FM010000 00000KT P6SM SKC", "KLCK 311133Z 3112/0112 17005KT P6SM VCSH OVC013 FM311700 20009KT P6SM BKN022 FM311900 21009KT P6SM BKN035 FM010400 22005KT P6SM VCSH BKN027 FM010600 23005KT P6SM VCSH BKN018 FM010900 23005KT P6SM BKN009", "KLEB 311120Z 3112/0112 00000KT P6SM SCT250 FM311400 22004KT P6SM BKN200", "KLEE 311125Z 3112/0112 05004KT 6SM BR SCT010 FM311300 09006KT P6SM SCT015 FM311600 10009KT P6SM SCT035 FM010100 08005KT P6SM FEW040 FEW200 FM010800 06004KT 6SM BR FEW010", "KLEX 311120Z 3112/0112 18008KT P6SM SCT008 OVC015 FM311500 22011G18KT P6SM VCSH BKN050 FM312200 21007KT P6SM VCSH BKN050 FM010400 23005KT P6SM BKN015", "TAF AMD KLFI 311110Z 3111/0115 VRB06KT 9000 BR SCT020 BKN035 QNH3007INS BECMG 3113/3114 VRB06KT 9999 NSW SCT020 BKN030 QNH3004INS BECMG 0105/0106 17009KT 9000 -SHRA SCT020 OVC035 628288 QNH3004INS TEMPO 0112/0114 20009KT 8000 -TSRA BKN020CB OVC030 BECMG 0114/0115 VRB06KT 9000 -SHRA BKN005 OVC015 QNH3005INS TX20/0107Z TN10/0109Z", "KLFK 311140Z 3112/0112 00000KT 6SM BR SKC TEMPO 3112/3113 00000KT 4SM BR BKN001 FM311500 30005KT P6SM BKN250 FM010000 00000KT P6SM BKN250", "KLFT 311238Z 3113/0112 00000KT P6SM BKN060 TEMPO 3113/3114 2SM BR FM311400 VRB05KT P6SM SCT040 FM010000 00000KT P6SM SKC", "KLGA 311136Z 3112/0118 VRB03KT P6SM BKN035 TEMPO 3112/3113 BKN025 FM311500 20006KT P6SM FEW040 BKN120 FM010000 20005KT P6SM SCT040 OVC070 PROB30 0103/0106 -SHRA OVC025 FM010600 21005KT 4SM -SHRA OVC015 FM010900 22005KT 4SM -SHRA BR OVC008 FM011500 24005KT 5SM BR VCSH OVC015", "KLGB 311240Z 3113/0112 VRB03KT P6SM SCT006 FM311600 VRB03KT P6SM SCT250 FM311800 18008KT P6SM SCT250 FM010000 29008KT P6SM SCT250 FM010500 VRB03KT 5SM BR OVC010", "KLGU 311132Z 3112/0112 VRB03KT 4SM BR SCT250 TEMPO 3112/3115 1SM BR FM311500 VRB04KT P6SM SCT250", "KLIT 311207Z 3112/0112 27004KT P6SM SCT025 BKN060 FM311400 28007KT P6SM SCT060 SCT250 FM010000 VRB03KT P6SM SKC", "KLLQ 311304Z 3113/0112 26004KT 5SM BR SCT025 BKN060 TEMPO 3113/3115 1/4SM FG VV002 FM311500 28006KT P6SM SCT060 SCT250 FM010000 VRB03KT P6SM SKC", "KLMT 311120Z 3112/0112 VRB03KT P6SM SCT200 FM312200 25008KT P6SM BKN100 FM010800 18010KT P6SM VCSH BKN045", "KLND 311120Z 3112/0112 VRB04KT P6SM BKN200 FM010100 VRB04KT P6SM SCT200", "KLNK 311120Z 3112/0112 VRB04KT P6SM SCT250 FM311800 21011KT P6SM SKC FM312300 18005KT P6SM SKC", "KLNS 311310Z 3113/0112 00000KT P6SM OVC008 FM311400 VRB05KT P6SM BKN035 FM311800 14006KT P6SM VCSH OVC040 FM010500 12005KT 5SM -SHRA BR OVC025 FM010800 VRB05KT 2SM BR OVC015", "KLOZ 311138Z 3112/0112 VRB04KT P6SM OVC007 FM311400 VRB05KT P6SM OVC010 FM311600 21007KT P6SM OVC025 FM311700 23008KT P6SM BKN050 FM312300 VRB04KT P6SM BKN070 FM010800 00000KT P6SM BKN010", "KLRD 311121Z 3112/0112 11008KT P6SM BKN050 BKN250 FM312000 13007KT P6SM VCSH OVC050 FM010000 09007KT P6SM -RA SCT030 OVC050 TEMPO 0102/0106 4SM -TSRA BKN025CB FM010600 07006KT P6SM -RA OVC030 TEMPO 0106/0110 4SM -TSRA OVC025CB", "TAF KLRF 310700Z 3107/0113 VRB06KT 9999 SCT080 QNH2989INS TEMPO 3108/3112 8000 BR OVC020 BECMG 3113/3114 VRB06KT 9999 SCT040 QNH2997INS BECMG 3117/3118 VRB06KT 9999 FEW080 QNH2996INS TX21/3120Z TN13/3112Z", "KLRU 311120Z 3112/0112 04005KT P6SM SCT180 FM312000 23005KT P6SM SKC", "KLSE 311251Z 3113/0112 VRB03KT 6SM BCFG SCT002 TEMPO 3113/3114 1 1/2SM BR BKN005 FM311400 28004KT P6SM SKC", "TAF KLSF 311300Z 3113/0119 19003KT 9999 FEW006 SCT012 BKN018 BKN040 QNH2996INS TEMPO 3113/3115 8000 BR SCT006 BKN012 BECMG 3114/3115 24005KT 9999 SCT015 BKN035 QNH2995INS TEMPO 3115/3117 BKN015 BECMG 3117/3118 25007KT 9999 FEW040 QNH2994INS BECMG 0100/0101 29003KT 8000 BR FEW020 QNH3003INS BECMG 0102/0103 31002KT 4800 BR SKC QNH3005INS BECMG 0107/0108 00000KT 1600 BR SKC QNH3006INS TEMPO 0108/0112 0800 FG BECMG 0112/0113 35007KT 9999 NSW SCT250 QNH3013INS TX26/3120Z TN10/0111Z", "TAF KLSV 310700Z 3107/0113 05009KT 9999 SKC QNH3001INS BECMG 3108/3109 03006KT 9999 SKC QNH3002INS BECMG 3121/3122 16006KT 9999 FEW220 SCT250 QNH2998INS BECMG 0105/0106 20009KT 9999 FEW200 BKN250 QNH2994INS BECMG 0109/0110 20009KT 9999 SCT150 BKN200 QNH2993INS TX27/3123Z TN08/3114Z", "TAF KLTS 310900Z 3109/0115 VRB06KT 9999 FEW250 QNH2995INS BECMG 0100/0101 18008KT 9999 SKC QNH2999INS TX23/3121Z TN07/3112Z", "TAF KLUF 311200Z 3112/0118 VRB06KT 9999 SKC QNH2990INS BECMG 0112/0113 VRB06KT 9999 FEW150 SCT200 QNH2993INS TX27/3123Z TN11/3113Z", "KLUK 311133Z 3112/0112 19006KT P6SM BKN011 FM311400 20009KT P6SM BKN018 FM311600 20009G16KT P6SM BKN025 FM010400 23005KT 5SM BR VCSH BKN016 FM011000 25005KT 2SM BR BKN006", "KLVK 311126Z 3112/0112 00000KT P6SM SCT008 TEMPO 3112/3116 5SM BR BKN008 FM311700 VRB03KT P6SM FEW007 BKN250 FM312300 29008KT P6SM BKN250 FM010300 25005KT P6SM VCSH SCT010 BKN250 FM010600 24010KT P6SM VCSH BKN010", "KLVM 311120Z 3112/0112 24025G43KT P6SM FEW070 BKN200 FM311600 22020G35KT P6SM FEW070 BKN150 FM010200 24025G43KT P6SM SCT080 BKN200", "KLVS 311120Z 3112/0112 22009KT P6SM SKC FM312000 19012G20KT P6SM SKC FM010200 20007KT P6SM SKC", "KLWB 311345Z 3114/0112 00000KT P6SM BKN014 OVC020 FM311500 00000KT 4SM -RA BR SCT007 OVC015 FM311800 00000KT 2SM -RA BR OVC007 FM312000 17002KT P6SM OVC013 FM010300 00000KT 3SM -DZ BR OVC006 FM010700 00000KT 1/4SM FG OVC001", "KLWS 311120Z 3112/0112 20007KT P6SM VCSH OVC060 FM010000 24005KT P6SM -RA OVC040 FM010700 25006KT 5SM -RA OVC025", "KLWT 311120Z 3112/0112 22012G20KT P6SM SCT100 FM311700 24015G28KT P6SM FEW150 FM010300 21009KT P6SM BKN180", "KLYH 311120Z 3112/0112 22002KT P6SM BKN016 TEMPO 3112/3115 SCT016 OVC060 FM311500 21005KT P6SM -RA OVC020 FM312200 19003KT 5SM -RA SCT007 OVC020 FM010300 20003KT 4SM -RA BR OVC004 FM010600 25002KT 3SM BR OVC003", "KMAF 311126Z 3112/0112 02004KT P6SM SCT250 FM311500 16008KT P6SM FEW250", "KMBG 311120Z 3112/0112 16005KT P6SM SCT250 FM311700 27009KT P6SM FEW250 FM010300 16006KT P6SM FEW250", "KMBL 311257Z 3113/0112 VRB03KT P6SM BKN190 FM312000 28004KT P6SM BKN240 FM312200 00000KT P6SM SCT240 FM010600 10003KT 2SM BR FEW250", "KMBS 311120Z 3112/0112 07003KT 4SM -SHRA BR OVC035 FM311500 02003KT 5SM -SHRA BR BKN012 OVC025 FM311900 VRB03KT 5SM BR OVC015 FM010000 30004KT P6SM BKN025 FM010600 28003KT P6SM BKN040", "KMCB 311322Z 3113/0112 VRB03KT P6SM BKN250 TEMPO 3113/3115 2SM BR BKN002", "KMCC 311127Z 3112/0112 VRB05KT P6SM SCT250 FM010600 15007KT P6SM BKN250", "KMCE 311120Z 3112/0112 VRB05KT P6SM SCT200", "TAF KMCF 310900Z 3109/0115 VRB06KT 9999 SCT050 QNH2989INS BECMG 0106/0107 VRB06KT 9999 BKN020 QNH2999INS TX29/3121Z TN20/3111Z", "KMCI 311120Z 3112/0112 28007KT P6SM SCT100 FM010700 17005KT P6SM SKC", "KMCK 311120Z 3112/0112 25006KT P6SM SKC FM312000 21009KT P6SM SKC", "KMCN 311151Z 3112/0112 11007KT 3SM -SHRA BR BKN003 OVC005 FM311400 16006KT 5SM BR VCSH OVC003 FM311800 20006KT P6SM VCSH SCT008 BKN015 FM312100 24005KT P6SM BKN040 FM010000 VRB03KT P6SM SCT030 SCT050 BKN150", "KMCO 311125Z 3112/0118 11007KT P6SM SCT035 FM010100 11005KT P6SM FEW040 FEW200 FM010800 06004KT 6SM BR FEW010 FM011300 07006KT P6SM SCT020", "KMCW 311123Z 3112/0112 26007KT P6SM FEW250", "KMDT 311307Z 3113/0112 00000KT P6SM OVC006 FM311330 12005KT P6SM SCT035 BKN100 FM311900 14006KT P6SM VCSH OVC040 FM010400 08005KT 5SM -SHRA BR OVC025 FM010700 VRB05KT 2SM BR OVC015", "KMDW 311312Z 3113/0118 03005KT 2SM BR OVC003 TEMPO 3113/3115 1/2SM -DZ FG OVC002 FM311900 36003KT 3SM -SHRADZ BR OVC008 FM312300 33007KT 6SM BR VCSH BKN012 OVC035 FM010200 27005KT 6SM BR SCT015 BKN040 FM010600 26004KT 2SM BR FEW003 FM011400 23007KT P6SM SKC", "KMEI 311131Z 3112/0112 22003KT P6SM SCT025 OVC050 FM010900 00000KT 3SM BR SCT025", "KMEM 311132Z 3112/0118 25007KT P6SM OVC015 FM311600 27008KT P6SM OVC025 FM312000 28009KT P6SM OVC050 FM010100 29003KT P6SM FEW250 FM010700 00000KT 6SM BR SKC FM011200 18004KT P6SM FEW250", "KMER 311120Z 3112/0112 VRB05KT P6SM SCT200", "KMEV 311137Z 3112/0112 12003KT P6SM FEW220 FM312000 32006KT P6SM FEW110 SCT220 FM010200 16007KT P6SM SCT110 BKN220 FM010600 16009KT P6SM SCT110 SCT220 WS020/21035KT", "KMFD 311233Z 3113/0112 17008KT P6SM VCSH OVC007 FM311700 19006KT P6SM VCSH OVC015 TEMPO 3117/3118 BKN007 FM312200 21004KT P6SM VCSH BKN045 FM010700 22004KT P6SM BKN025", "KMFE 311120Z 3112/0112 VRB04KT P6SM FEW100 SCT250 FM311600 09011KT P6SM BKN040 FM312000 09012KT P6SM VCSH OVC025 PROB30 3121/3123 4SM -SHRA BR OVC015 FM312300 09011KT P6SM BKN019 PROB30 3123/0103 4SM -SHRA BR OVC008 FM010400 08008KT 6SM -SHRA BR BKN009", "KMFR 311120Z 3112/0112 VRB03KT P6SM SCT250 FM312300 30004KT P6SM SCT050 BKN150 FM010500 17008KT P6SM -RA SCT010 OVC025", "TAF KMGE 311300Z 3113/0119 VRB05KT 2400 -DZ BR OVC003 QNH2998INS BECMG 3117/3118 26006KT 8000 BR VCSH OVC007 QNH3000INS BECMG 3118/3119 27007KT 9999 VCSH OVC010 QNH3000INS BECMG 3120/3121 28007KT 9999 NSW BKN035 QNH3000INS BECMG 0102/0103 29005KT 9999 BKN100 QNH3006INS BECMG 0115/0116 32005KT 9999 SCT060 QNH3018INS TX20/3120Z TN11/0112Z", "KMGM 311401Z 3114/0112 VRB04KT P6SM BKN250 FM311800 27007KT P6SM SCT060 FM010200 00000KT P6SM SCT250", "KMGW 311357Z 3114/0112 18003KT 2SM SHRA BR SCT010 OVC020 FM311600 19004KT 4SM -SHRA BR OVC013 FM311700 19005KT P6SM OVC015 FM312000 20005KT P6SM OVC022 FM010200 18003KT P6SM VCSH BKN045", "KMHK 311120Z 3112/0112 26005KT P6SM FEW120", "KMHR 311127Z 3112/0112 VRB04KT P6SM SCT250 FM010600 VRB03KT P6SM BKN250", "KMHT 311120Z 3112/0112 VRB02KT P6SM SCT200 FM311400 20006KT P6SM BKN200", "KMIA 311120Z 3112/0118 08006KT P6SM VCSH SCT025 FM311400 10008KT P6SM VCSH SCT035 SCT100 FM312100 10010KT P6SM SCT030 BKN250 FM010500 VRB05KT P6SM FEW030 FM011400 10010KT P6SM SCT030 SCT100", "TAF KMIB 310900Z 3109/0115 24012KT 9999 SCT040 QNH2966INS BECMG 3116/3117 26010G20KT 9999 FEW100 QNH2965INS BECMG 3121/3122 23009KT 9999 FEW090 QNH2965INS TX17/3121Z TN04/3113Z", "KMIV 311257Z 3113/0112 00000KT 3SM BR OVC035 TEMPO 3113/3114 1SM BR OVC001 FM311400 19004KT P6SM BKN040 OVC100 FM010300 20003KT P6SM VCSH OVC015", "KMKC 311120Z 3112/0112 28007KT P6SM SCT100 FM010700 17005KT P6SM SKC", "KMKE 311120Z 3112/0118 VRB03KT 5SM BR SCT030 OVC040 FM311400 VRB04KT P6SM SCT030 BKN050 FM312200 26003KT P6SM BKN250", "KMKG 311359Z 3114/0112 10003KT P6SM VCSH BKN025 OVC035 FM312100 31003KT P6SM BKN025 FM010000 25003KT 6SM BR BKN050 FM010900 25003KT 3SM BR BKN005", "KMKL 311132Z 3112/0112 20006KT P6SM OVC015 FM311800 27008KT P6SM OVC025 FM312200 29007KT P6SM OVC050 FM010300 24002KT 6SM BR FEW250 FM010800 00000KT 4SM BR FEW250 FM011100 23002KT P6SM FEW250", "KMKT 311120Z 3112/0112 00000KT P6SM SKC TEMPO 3112/3114 5SM BR FM311600 22007KT P6SM SKC", "KMLB 311125Z 3112/0112 10007KT P6SM VCSH SCT035 SCT060 FM311500 11010KT P6SM VCSH SCT035 FM010100 12007KT P6SM FEW040 FEW200", "KMLC 311254Z 3113/0112 00000KT 3SM BR SCT002 SCT080 TEMPO 3113/3116 5SM BR FM311600 26005KT P6SM SKC FM010000 21003KT P6SM SKC", "KMLI 311120Z 3112/0112 35006KT P6SM BKN150 TEMPO 3112/3114 3SM BR SCT010 FM010000 24005KT P6SM SKC", "KMLS 311120Z 3112/0112 VRB06KT P6SM FEW080 BKN200 FM311900 26012G20KT P6SM SCT080 BKN200 FM010200 26011KT P6SM SCT070 BKN200", "KMLU 311140Z 3112/0112 21003KT P6SM BKN250 FM311500 29005KT P6SM BKN250 FM010000 00000KT P6SM SKC FM010900 00000KT 6SM BR BKN250", "KMMH 311137Z 3112/0112 VRB04KT P6SM FEW220 FM311600 12004KT P6SM SCT220 FM010000 26006KT P6SM BKN220 FM010600 23009KT P6SM BKN250 WS020/21035KT", "TAF AMD KMMT 311358Z 3113/0113 11006KT 8000 BR OVC005 QNH2998INS TEMPO 3113/3115 4800 BR OVC002 BECMG 0100/0101 VRB06KT 8000 BR BKN024 QNH2995INS TX23/3121Z TN13/3113Z", "KMOB 311127Z 3112/0112 00000KT 5SM BR FEW040 SCT250 FM311400 25006KT P6SM SCT200 FM010300 VRB03KT P6SM FEW250 FM010800 00000KT 5SM BR SKC", "KMOD 311127Z 3112/0112 VRB05KT P6SM FEW250 FM010600 VRB05KT P6SM OVC250", "KMOT 311126Z 3112/0112 22011KT P6SM BKN250 FM311600 25012G20KT P6SM BKN250 FM312300 22007KT P6SM SCT250", "KMPV 311120Z 3112/0112 VRB03KT P6SM BKN150 FM010900 VRB04KT P6SM BKN028", "KMQY 311120Z 3112/0112 19005KT P6SM FEW008 SCT030 BKN060 TEMPO 3112/3114 5SM BR BKN008 FM311400 21007KT P6SM BKN070 FM311900 22007KT P6SM VCSH SCT030 BKN060 FM010100 24003KT P6SM SCT080 FM010600 24002KT 4SM BR SCT025", "KMRB 311136Z 3112/0112 34004KT P6SM -SHRA BKN080 FM311300 17003KT P6SM BKN060 FM311600 17003KT P6SM -SHRA BKN050 FM312300 00000KT P6SM OVC035 FM010300 00000KT P6SM OVC015 FM010500 00000KT P6SM BKN008", "KMRY 311126Z 3112/0112 VRB03KT 1/2SM FG OVC001 TEMPO 3112/3113 1/4SM FG FM311600 VRB04KT 4SM BR OVC004 FM311900 27008KT P6SM OVC011 FM010300 VRB03KT P6SM VCSH OVC010", "KMSL 311120Z 3112/0112 23008KT P6SM BKN035", "KMSN 311120Z 3112/0112 VRB03KT P6SM FEW120 SCT250 TEMPO 3112/3113 6SM BR", "KMSO 311120Z 3112/0112 10005KT P6SM BKN060 FM311800 18007KT P6SM BKN060 FM312200 21010G20KT P6SM OVC060 FM010200 27008KT P6SM OVC050", "KMSP 311120Z 3112/0118 00000KT P6SM SKC FM311700 20006KT P6SM SKC", "KMSS 311120Z 3112/0112 VRB03KT P6SM SCT120 BKN150 FM312200 VRB04KT P6SM SCT090 BKN150 FM010500 00000KT P6SM VCSH OVC028 FM010900 VRB04KT P6SM VCSH OVC012", "KMSY 311319Z 3113/0118 00000KT 4SM BR FEW010 BKN250 FM011400 VRB05KT P6SM SCT040 OVC250", "TAF AMD KMTC 311225Z 3112/0117 VRB06KT 2400 -DZ BR OVC003 QNH2980INS TEMPO 3112/3115 OVC005 BECMG 0101/0102 VRB06KT 9999 NSW OVC010 QNH2985INS BECMG 0111/0112 VRB06KT 4800 BR BKN004 OVC010 QNH2988INS TX13/3122Z TN06/3112Z", "KMTH 311129Z 3112/0112 04008KT P6SM VCSH SCT015 BKN060 FM311400 11006KT P6SM FEW030", "KMTJ 311120Z 3112/0112 15005KT P6SM SKC FM311800 33004KT P6SM SKC FM010300 15008KT P6SM SKC", "KMTN 311136Z 3112/0112 00000KT P6SM BKN007 OVC015 FM311400 19004KT P6SM SCT007 BKN020 FM311700 19004KT P6SM BKN050 FM312100 19004KT 6SM -SHRA OVC025 FM010100 00000KT 6SM -SHRA OVC020 FM010600 00000KT 4SM -DZ BR OVC008 FM011000 00000KT 2SM BR OVC008", "KMTW 311352Z 3114/0112 31003KT 3SM BR BKN120 BKN200 FM311500 21005KT P6SM SKC FM010300 25004KT P6SM SCT200", "TAF AMD KMUI 311250Z 3112/0117 VRB06KT 9999 BKN012 QNH3002INS TEMPO 3112/3116 SCT012 BKN050 BECMG 3116/3118 VRB06KT 9999 BKN025 OVC050 QNH3000INS BECMG 3123/3124 VRB06KT 8000 -SHRA OVC007 QNH3000INS BECMG 0105/0106 VRB06KT 3200 -SHRA BR OVC007 QNH3001INS TEMPO 0106/0112 0800 -SHRA FG OVC003 BECMG 0111/0112 VRB06KT 4800 BR OVC012 QNH3005INS TX19/3119Z TN05/3112Z", "TAF KMUO 311000Z 3110/0116 12009KT 9999 FEW120 SCT180 QNH3003INS BECMG 3116/3117 12012G18KT 9999 FEW120 SCT180 QNH2979INS BECMG 0104/0105 10012G18KT 9999 FEW140 SCT180 BKN220 QNH2968INS BECMG 0113/0114 12012G18KT 9999 SCT120 BKN180 QNH2963INS TX18/3123Z TNM01/3112Z", "KMVN 311125Z 3112/0112 24004KT 6SM BR VCSH SCT007 OVC021 TEMPO 3112/3115 BKN007 FM311500 25006KT P6SM VCSH BKN015 FM311900 26007KT P6SM BKN015 FM010000 00000KT P6SM BKN025 FM010100 00000KT P6SM SCT060 FM010900 00000KT 2SM BR SKC", "KMWH 311120Z 3112/0112 18010KT P6SM SCT080 BKN120 FM311600 20010G16KT P6SM SCT070 OVC100 FM311800 23017G22KT P6SM SCT060 OVC080 FM010100 24011KT P6SM SCT080 BKN120 FM010600 23008KT P6SM SCT100 BKN120", "TAF AMD KMXF 311245Z 3112/0117 VRB06KT 0400 FG VV001 QNH2994INS TEMPO 3112/3115 1600 BR BECMG 3114/3115 VRB06KT 4800 BR BKN030 BKN050 QNH2994INS BECMG 3115/3116 VRB06KT 9999 NSW SCT040 QNH2993INS BECMG 0100/0101 VRB06KT 8000 BR FEW030 QNH3000INS BECMG 0102/0103 VRB06KT 4800 BR FEW020 QNH3000INS TX21/3118Z TN13/0111Z", "KMYL 311120Z 3112/0112 VRB03KT P6SM BKN060 FM312100 16006KT P6SM OVC100 FM010800 13006KT P6SM VCSH BKN060", "KMYR 311218Z 3112/0112 06005KT P6SM SCT010 BKN100 FM311400 09006KT P6SM BKN070 FM311700 14009KT P6SM BKN070 FM010100 17005KT P6SM BKN060", "TAF KNBC 3109/0109 VRB05KT 9999 BKN006 QNH3000INS BECMG 3111/3113 12007KT 9999 BKN015 QNH2997INS BECMG 3113/3115 12008KT 9999 BKN035 QNH2994INS FM312100 13007KT 9999 SCT035 QNH2994INS T26/3119Z T17/0109Z", "TAF AMD KNBG 3108/0107 VRB06KT 4800 BR FEW020 FEW250 QNH2996INS TEMPO 3108/3111 0800 FG VV002 BECMG 3111/3113 VRB06KT 9999 SCT030 QNH2997INS BECMG 3121/3123 VRB06KT 9999 SCT020 QNH2999INS AUTOMATED SENSOR METWATCH 3107 TIL 3110 T14/3111Z T26/3119Z AMD 0753 FN00259", "TAF KNCA 3109/0109 VRB06KT 9999 SCT060 BKN080 QNH3003INS FM311800 12006KT 9999 SCT060 BKN100 QNH3001INS T23/3118Z T19/0102Z", "KNEW 311325Z 3113/0112 VRB03KT 3SM BR BKN250 FM311430 VRB05KT P6SM BKN250", "TAF KNFG 3109/0109 VRB06KT 9999 SKC QNH2989INS FM311930 21008KT 9999 FEW250 QNH2987INS BECMG 0100/0102 VRB06KT BKN210 QNH2984INS T14/3114Z T20/3120Z", "TAF KNFL 3107/0107 VRB06KT 9999 SCT200 QNH2983INS AUTOMATED SENSOR METWATCH 3107 TIL 3114 TM01/3114Z T17/3123Z FS30201", "TAF KNFW 3107/0107 VRB06KT 9999 FEW030 QNH3000INS AUTOMATED SENSOR METWATCH 3107 TIL 3111 T11/3109Z T22/3121Z FN002591", "TAF AMD KNGP 3109/0107 14005KT 9999 FEW300 QNH2995INS FM311200 10007KT 9999 FEW025 SCT300 QNH2997INS FM311700 09012KT 9999 FEW025 SCT070 BKN300 QNH2994INS FM312000 08014G20KT 9999 FEW025 BKN060 BKN300 QNH2992INS FM010300 10012KT 9999 -RA SCT025 BKN050 OVC100 QNH2999INS FM010500 10010KT 8000 -RA BR VCTS SCT020CB OVC050 QNH3000INS TEMPO 0105/0107 +SHRA BR BKN018CB OVC040 AUTOMATED SENSOR METWATCH 3109 TIL 3111 T18/3109Z T28/3120Z AMD 0935 FN20044", "TAF KNGU 3107/0107 VRB06KT 9999 FEW010 SCT100 QNH3004INS BECMG 3110/3112 VRB06KT 9999 BKN030 BKN120 QNH2998INS BECMG 3121/3123 18010KT 9999 SCT030 SCT150 QNH2997INS T13/3109Z T22/3121Z FN00259", "TAF AMD KNHK 3110/0107 VRB06KT 9999 BKN028 BKN100 BKN240 QNH3001INS BECMG 3118/3120 16006KT 9999 VCSH FEW028 BKN050 OVC120 QNH2999INS TEMPO 0100/0106 4800 SHRA BKN030 T13/3111Z T18/3119Z AMD 1002 FN20090", "TAF KNIP 3107/0107 VRB06KT 3200 BR BKN010 QNH2997INS TEMPO 3107/3110 0800 FG VV002 BECMG 3110/3112 VRB06KT 4800 BR BKN030 QNH3000INS BECMG 3115/3117 VRB06KT 9999 VCSH SCT020 BKN080 QNH2993INS TEMPO 3117/3122 6000 -SHRA BKN020 BECMG 0100/0102 VRB06KT 9999 NSW SCT020 SCT080 QNH2998INS T19/3109Z T30/3121Z AMD 0716 FN00259", "TAF KNJK 3107/0107 VRB06KT 9999 FEW250 QNH2975INS TEMPO 3107/3110 26010KT AUTOMATED SENSOR METWATCH 3107 TIL 3113 T14/3113Z T31/3123Z FS30201", "TAF KNKT 3109/0109 VRB06KT 9999 SCT060 BKN080 QNH3003INS FM311800 12006KT 9999 SCT060 BKN100 QNH3001INS T23/3118Z T19/0102Z", "TAF KNKX 3109/0109 VRB06KT 9999 SKC QNH2990INS FM312030 28008KT 9999 FEW250 QNH2988INS BECMG 0101/0103 VRB06KT BKN200 QNH2985INS T15/3114Z T21/3120Z", "TAF KNLC 3107/0107 VRB06KT 9999 FEW250 QNH2995INS FM311200 VRB06KT 9999 BKN250 QNH2980INS AUTOMATED SENSOR METWATCH 3107 TIL 3114 T07/3114Z T24/3123Z FS30201", "TAF KNMM 3107/0107 VRB05KT 9999 SCT030 BKN040 QNH2985INS T13/3109Z T22/3115Z FN002591", "TAF AMD KNPA 3109/0107 VRB05KT 6000 BR FEW002 BKN250 QNH2996INS FM311300 30005KT 9999 FEW015 SCT040 BKN250 QNH2998INS FM311800 24007KT SCT040 BKN250 QNH2994INS FM010000 30005KT 9999 FEW040 BKN250 QNH2996INS T13/3112Z T24/3120Z AMD 0949Z FN20033", "TAF AMD KNQI 3112/0107 VRB05KT 9999 FEW020 FEW180 SCT250 QNH2994INS TEMPO 3115/3119 10011G17KT BKN055 BKN250 BECMG 3119/3121 11016G22KT 9999 VCSH BKN050 OVC200 510406 QNH2988INS TEMPO 3121/0102 11018KT 8000 -RA BKN028 OVC055 FM010200 07008KT 9999 VCSH BKN025 OVC055 510405 QNH2992INS T14/3112Z T27/3120Z AMD 1240 FN20042", "TAF KNQX 3107/0107 06012KT 9999 FEW010 SCT030 QNH2990INS BECMG 3118/3120 07014KT 9999 SCT010 SCT030 QNH2997INS AUTOMATED SENSOR METWATCH 3107 TIL 3110 T29/3018Z T25/3100Z FN00259", "TAF KNRB 3107/0107 VRB06KT 9999 VCSH SCT025 BKN040 QNH2997INS TEMPO 3107/3113 4800 SHRA BKN025 BKN040 BECMG 3116/3118 16007KT 9999 VCSH SCT020 SCT080 QNH2993INS TEMPO 3118/3123 6000 -SHRA BKN030 BKN080 BECMG 0100/0102 VRB06KT 9999 NSW FEW030 FEW080 QNH2997INS T19/3109Z T27/3115Z FN00259", "TAF KNSE 3107/0107 VRB05KT 9999 FEW010 QNH2997INS T12/3112Z T24/3120Z FN002591", "TAF KNTD 3107/0107 VRB06KT 9999 SKC QNH2987INS FM311500 VRB06KT 9999 FEW250 QNH2982INS AUTOMATED SENSOR METWATCH 3107 TIL 3115 T10/3111Z T23/3120Z FS30197", "TAF KNTU 3107/0107 VRB06KT 9999 SCT030 SCT080 QNH3004INS TEMPO 3107/3111 4800 BR BECMG 3113/3115 VRB06KT 9999 BKN030 BKN120 QNH3000INS BECMG 0100/0102 19011KT 9999 SCT040 SCT120 QNH2999INS T12/3109Z T21/3121Z FN00259", "TAF KNUC 3023/3123 31012KT 9999 SKC QNH2988INS FM310600 29008KT 9999 SKC QNH2987INS LAST NO AMDS AFT 3104 NEXT 3115 T14/3112Z T20/3122Z FS30171", "TAF AMD KNUW 3113/0107 15012KT 9999 -RA SCT008 BKN020 OVC060 640609 520209 QNH2978INS TEMPO 3113/3118 18008KT 6000 SHRA BR SCT020 BKN060 OVC130 FM311800 27016G24KT 9999 VCSH SCT009 SCT018 BKN035 OVC060 640609 500000 QNH2978INS TEMPO 3118/3121 27019G28KT BKN020 OVC035 FM312100 26011KT 9999 SCT012 SCT030 BKN065 BKN080 OVC220 640609 651507 QNH2976INS FM010600 VRB06KT 9999 SCT012 SCT060 BKN220 650609 651507 QNH2975INS T08/3113Z T12/3123Z AMD 1315 FS30046", "TAF KNXP 3109/0109 31008KT 9999 SKC QNH3005INS FM311130 30007KT 9999 SKC QNH2999INS FM311330 VRB05KT 9999 SKC QNH2998INS BECMG 0101/0103 19007KT SCT200 QNH2996INS T08/3114Z T25/3123Z", "TAF KNYG 3109/0109 17008KT 9999 BKN025 QNH3000INS BECMG 3118/3120 20005KT 8000 -SHRA BR BKN020 QNH2998INS FM010600 VRB04KT 6000 BR BKN004 QNH2998INS T18/3119Z T14/0109Z", "TAF KNYL 3109/0109 VRB06KT 9999 SKC QNH2988INS BECMG 3118/3119 05007KT 9999 SKC QNH2986INS FM312030 VRB05KT 9999 FEW250 QNH2984INS T12/3114Z T30/3121Z", "TAF AMD KNZY 3108/0107 VRB06KT 8000 BR VCFG FEW015 QNH2989INS TEMPO 3108/3114 0800 FG VV004 FM311700 24009KT 9999 FEW250 QNH2985INS FM312200 27009KT 9999 SKC QNH2984INS AUTOMATED SENSOR METWATCH 3107 TIL 3114 T14/3112Z T23/3122Z AMD 0821 FS30099", "KOAJ 311120Z 3112/0112 00000KT 2SM BR SCT060 FM311300 VRB03KT P6SM BKN130 FM312000 14005KT P6SM BKN060 FM010500 VRB03KT 5SM BR BKN070 AMD LTD TO CLD VIS AND WIND", "KOAK 311355Z 3114/0118 VRB04KT P6SM SCT008 BKN012 TEMPO 3114/3116 BKN008 FM312300 27015KT P6SM FEW010 BKN250 FM010400 26009KT P6SM SCT008 BKN012 FM011200 18008KT P6SM VCSH BKN010 FM011700 27016KT P6SM -RA BKN010", "TAF KOFF 311000Z 3110/0116 30006KT 9999 SKC QNH2991INS BECMG 3117/3118 20006KT 9999 SKC QNH2988INS TX21/3120Z TN04/3112Z", "KOFK 311120Z 3112/0112 VRB04KT P6SM SCT250 FM311700 21008KT P6SM SKC FM311900 21012KT P6SM SKC FM312300 18005KT P6SM SKC", "KOGB 311322Z 3113/0112 VRB03KT P6SM BKN004 OVC015 TEMPO 3113/3116 5SM -RA BR BKN015 FM311600 17005KT P6SM BKN020 FM311900 20006KT P6SM VCSH BKN045", "KOGD 311132Z 3112/0112 16007KT P6SM SCT250 FM312100 27006KT P6SM SCT250 FM010200 17007KT P6SM SCT200", "KOKC 311120Z 3112/0112 VRB04KT P6SM SKC FM010100 20006KT P6SM FEW250", "KOLF 311120Z 3112/0112 25008KT P6SM FEW120 FM311900 23011KT P6SM FEW080 FM010000 VRB06KT P6SM FEW070 FM010300 22007KT P6SM FEW070 WS020/29040KT FM011100 VRB04KT P6SM SCT150", "KOLM 311122Z 3112/0112 20007KT P6SM -RA SCT013 OVC080 FM311500 23008KT P6SM -SHRA BKN015 OVC025 FM311900 27006KT P6SM SCT030 BKN060 FM010000 VRB03KT P6SM SCT060 BKN200 FM010800 00000KT 2SM BR FEW003 BKN200 FM011000 00000KT 1/2SM FG VV002", "KOLS 311123Z 3112/0112 VRB04KT P6SM SKC", "KOMA 311120Z 3112/0112 VRB04KT P6SM SCT250 FM311800 21009KT P6SM SKC FM312300 16005KT P6SM SKC", "KONP 311120Z 3112/0112 20014G25KT 4SM BR VCSH OVC012 FM311400 20014G25KT 2SM RADZ BR BKN008 OVC012 FM311800 22010KT 1SM -RADZ BR OVC006 FM312300 25012G20KT 1SM RA BR OVC006 FM010700 29007KT P6SM -SHRA SCT025 BKN040 OVC070", "KONT 311136Z 3112/0118 VRB05KT P6SM SCT250 FM312100 26009KT P6SM SCT200 FM010400 VRB04KT P6SM BKN200", "KOPF 311120Z 3112/0112 08006KT P6SM VCSH SCT025 FM311400 10008KT P6SM VCSH SCT035 SCT100 FM312100 10010KT P6SM SCT030 BKN250 FM010500 VRB05KT P6SM FEW030", "KORD 311130Z 3112/0118 01003KT 3SM BR OVC004 TEMPO 3112/3114 2SM -DZ BR OVC002 FM311700 36003KT 4SM BR VCSH OVC008 FM312100 34005KT 6SM BR BKN015 OVC035 FM010000 27005KT P6SM SCT015 BKN040 FM010600 26003KT 4SM BR FEW003 FM011400 23007KT P6SM SKC", "KORF 311120Z 3112/0112 00000KT P6SM BKN200 FM311400 20006KT P6SM BKN040 FM010900 20004KT 6SM -SHRA BR OVC025", "KORH 311120Z 3112/0112 24006KT P6SM BKN020 FM311800 23009KT P6SM SCT200 FM010500 24007KT P6SM VCSH OVC050 FM010900 24006KT P6SM VCSH OVC014", "KOTH 311120Z 3112/0112 18006KT P6SM OVC025 FM311500 18007KT P6SM VCSH OVC020 FM311800 21008G15KT 6SM -RA BR SCT010 OVC020 FM010300 34005KT P6SM -SHRA BKN025", "KOTM 311123Z 3112/0112 27007KT P6SM SCT250", "KOUN 311120Z 3112/0112 VRB04KT P6SM SKC FM010100 20006KT P6SM FEW250", "KOWB 311125Z 3112/0112 19006KT P6SM VCSH OVC008 FM311500 24008KT P6SM VCSH SCT007 BKN015 FM311700 22009KT P6SM VCSH BKN012 FM312100 24007KT P6SM VCSH BKN022 FM010000 26004KT P6SM BKN040 FM010200 00000KT P6SM SCT035", "KOXR 311143Z 3112/0112 VRB03KT P6SM SCT250 FM311800 26008KT P6SM SCT250 FM010300 VRB03KT 5SM BR OVC008", "TAF AMD KOZR 310830Z 3108/0114 27005KT 9999 FEW006 SCT012 SCT030 QNH2994INS TEMPO 3108/3114 3200 BR BKN006 OVC012 FM311500 32005KT 9999 NSW FEW020 SCT060 QNH2997INS TX24/3121Z TN14/0112Z", "KPAE 311122Z 3112/0112 19006KT P6SM SCT006 BKN040 BKN110 TEMPO 3112/3115 -SHRA BKN006 OVC040 FM311800 33006KT 5SM -SHRA BKN010 OVC020 FM010500 04004KT P6SM BKN030", "KPAH 311125Z 3112/0112 22004KT P6SM VCSH OVC007 TEMPO 3112/3116 6SM -DZ BR SCT007 OVC012 FM311600 23006KT P6SM VCSH BKN012 FM312000 25006KT P6SM BKN021 FM312200 26006KT P6SM BKN040 FM010000 00000KT P6SM SCT090 FM010900 00000KT 2SM BR SKC", "TAF KPAM 311100Z 3111/0117 36009KT 9999 BKN030 QNH2997INS BECMG 3114/3115 33009KT 9999 SCT020 BKN040 QNH3003INS BECMG 3117/3118 30009KT 9999 FEW030 QNH3000INS BECMG 0105/0106 36006KT 9999 SCT020 QNH3006INS TX25/3118Z TN18/3111Z", "KPBF 311207Z 3112/0112 24004KT P6SM SCT025 BKN060 FM311400 28006KT P6SM SCT060 SCT250 FM010000 VRB03KT P6SM SKC", "KPBG 311120Z 3112/0112 VRB03KT P6SM SCT200 FM311500 16007KT P6SM SCT100 BKN200 FM010900 00000KT P6SM BKN030", "KPBI 311120Z 3112/0112 08008KT P6SM VCSH SCT025 FM311400 10010KT P6SM VCSH SCT035 SCT100 FM312100 10010KT P6SM SCT030 BKN250 FM010500 VRB05KT P6SM FEW030", "KPDK 311141Z 3112/0112 00000KT 5SM -DZ BR OVC004 FM311500 VRB03KT P6SM VCSH BKN004 BKN009 FM311900 22004KT P6SM BKN008 BKN012 FM312100 25005KT P6SM SCT009 BKN030 BKN050 FM312200 24004KT P6SM SCT030 SCT050 BKN150 FM010300 31004KT P6SM SCT050 SCT090 BKN150", "KPDT 311120Z 3112/0112 VRB05KT P6SM SCT060 BKN090 FM311800 28008G18KT P6SM VCSH BKN050 OVC070 FM010100 28009KT P6SM -RA BKN035 OVC050 FM010600 19007KT 5SM -RA BR BKN025 OVC040", "KPDX 311120Z 3112/0112 20014G22KT P6SM -SHRA BKN025 OVC040 FM311400 20015G25KT 5SM -RA BR OVC025 FM311700 23006KT 4SM RA BR SCT015 OVC025 FM311900 VRB03KT 5SM -RADZ BR OVC015 FM010400 29006KT P6SM VCSH SCT025 BKN040", "KPEQ 311126Z 3112/0112 09006KT P6SM SCT250", "KPGA 311128Z 3112/0112 VRB04KT P6SM SKC FM311400 00000KT P6SM SKC", "KPGD 311133Z 3112/0112 06004KT P6SM SCT250 FM312100 32005KT P6SM SCT100 FM010200 07003KT P6SM BKN250", "KPGV 311124Z 3111/0112 00000KT P6SM SCT003 OVC070 FM311400 00000KT P6SM BKN060 FM010500 VRB03KT 4SM BR BKN030 AMD LTD TO CLD VIS AND WIND", "KPHF 311231Z 3113/0112 VRB03KT P6SM FEW002 BKN070 FM311400 20004KT P6SM BKN035 FM311800 18006KT P6SM BKN040 FM010800 00000KT 6SM -SHRA BR OVC007", "KPHL 311219Z 3112/0118 20005KT P6SM BKN040 OVC100 FM010000 20003KT P6SM VCSH OVC020 FM010600 20003KT P6SM VCSH OVC009 FM011400 23005KT P6SM BKN025", "KPHX 311120Z 3112/0118 10004KT P6SM SKC FM312000 VRB04KT P6SM SKC FM010000 25004KT P6SM SKC FM010500 10005KT P6SM SCT250", "KPIA 311120Z 3112/0112 01005KT 3SM -SHRA BR OVC004 FM311700 34005KT 6SM BR VCSH OVC008 FM311900 32005KT P6SM VCSH OVC015 FM312100 31005KT P6SM SCT025 BKN060 FM010200 VRB03KT P6SM SKC", "KPIB 311320Z 3113/0112 00000KT 6SM BR OVC040 FM311400 25005KT P6SM BKN040 FM010900 00000KT 2SM BR SCT025", "KPIE 311133Z 3112/0112 VRB03KT P6SM FEW110 FM311900 31007KT P6SM SCT040 SCT150 FM010100 36004KT P6SM FEW050 SCT150", "KPIH 311120Z 3112/0112 VRB06KT P6SM SCT080 BKN120 FM311800 19010G18KT P6SM SCT120 BKN250 FM010200 16009KT P6SM BKN120 FM011000 16015KT P6SM BKN120", "KPIR 311120Z 3112/0112 25006KT P6SM FEW250", "KPIT 311353Z 3114/0118 15006KT 1SM -SHRA BR BKN005 OVC013 FM311500 15005KT 3SM BR SCT005 OVC013 FM311600 16005KT 5SM BR BKN013 OVC030 FM311700 17005KT P6SM OVC015 FM312100 18005KT P6SM OVC022 FM010100 18003KT P6SM VCSH BKN060 FM011500 25005KT P6SM BKN008", "KPKB 311138Z 3112/0112 18004KT P6SM VCSH SCT015 OVC025 TEMPO 3112/3114 5SM -SHRA BR BKN015 FM311400 18005KT P6SM OVC012 FM312000 20007KT P6SM OVC025 FM312200 20005KT P6SM BKN045 FM010800 VRB03KT P6SM SCT015 BKN025", "KPLN 311120Z 3112/0112 00000KT P6SM BKN220 FM312000 26004KT P6SM FEW250 FM010000 00000KT P6SM SKC FM010600 00000KT 2SM BR SKC", "KPMD 311146Z 3112/0112 VRB05KT P6SM SKC FM312300 23008KT P6SM SKC", "KPNA 311120Z 3112/0112 30007KT P6SM SCT200", "KPNC 311120Z 3112/0112 VRB03KT P6SM SKC FM010300 19007KT P6SM SKC", "KPNE 311327Z 3113/0112 VRB03KT 3SM BR OVC001 FM311400 21004KT P6SM BKN035 OVC100 FM010000 20003KT P6SM VCSH OVC020 FM010600 19003KT P6SM VCSH OVC009", "KPNS 311127Z 3112/0112 00000KT 6SM BR FEW250 FM311400 25006KT P6SM SCT200 FM010300 VRB04KT P6SM FEW250 FM010800 00000KT 5SM BR SKC", "TAF KPOE 302300Z 3023/0105 VRB06KT 9999 BKN045 QNH2991INS BECMG 3108/3109 VRB06KT 8000 BR BKN007 OVC040 QNH2997INS BECMG 3111/3112 VRB06KT 3200 BR OVC004 QNH3000INS BECMG 3114/3115 31007KT 9999 NSW BKN015 QNH3004INS BECMG 3117/3118 31009KT 9999 SCT035 QNH3000INS BECMG 3122/3123 VRB06KT 9999 SCT035 QNH3003INS TX24/3120Z TN12/3113Z LAST NO AMDS AFT 3105 NEXT 3115", "KPOU 311157Z 3112/0112 00000KT P6SM SCT030 SCT150 TEMPO 3112/3114 BKN030 FM311800 21005KT P6SM SCT035 SCT120 FM312300 00000KT P6SM BKN060 FM010600 00000KT P6SM VCSH OVC040", "KPQI 311120Z 3112/0112 20003KT P6SM BKN100 FM312200 00000KT P6SM BKN100", "KPRB 311143Z 3112/0112 VRB03KT P6SM SCT250 FM312100 18008KT P6SM SCT250 FM010500 VRB03KT P6SM SCT200", "KPRC 311128Z 3112/0112 19004KT P6SM SKC FM311500 VRB04KT P6SM SKC FM010300 18008KT P6SM SKC", "KPSC 311120Z 3112/0112 22010G20KT P6SM BKN070 OVC090 FM312100 25008G15KT P6SM BKN060 OVC080 FM010200 23009KT P6SM VCSH BKN050 OVC070 FM010900 22007KT 5SM -RA BR BKN040 OVC060", "KPSF 311358Z 3114/0112 00000KT P6SM SCT200 TEMPO 3114/3116 BKN018 FM311600 22006KT P6SM FEW025 SCT150 FM312300 21004KT P6SM BKN070 FM010800 22003KT P6SM VCSH BKN035", "KPSM 311120Z 3112/0112 21003KT P6SM FEW025 SCT250 FM311400 20007KT P6SM BKN200", "KPSP 311136Z 3112/0112 VRB05KT P6SM SCT250 FM311900 12006KT P6SM SCT200 FM010100 VRB05KT P6SM BKN200", "KPTK 311320Z 3113/0112 09003KT 1SM -SHRA BR OVC003 FM311700 17005KT 6SM -SHRA BR OVC007 FM312000 20006KT P6SM OVC015 FM010000 25005KT P6SM -SHRA OVC010 FM010600 29004KT 5SM BR OVC008", "KPUB 311150Z 3112/0112 30005KT P6SM FEW250 FM311700 19005KT P6SM FEW250 FM312000 14007KT P6SM FEW250 FM010200 05005KT P6SM SKC", "KPUW 311120Z 3112/0112 20010KT P6SM -RA OVC050 FM311800 24012G20KT 6SM -RA SCT025 OVC040 FM010200 24009KT P6SM -RA BKN025 OVC035 FM010600 24006KT 6SM -RA OVC030", "KPVD 311120Z 3112/0112 00000KT P6SM BKN020 FM311600 20006KT P6SM BKN023 FM311900 20007KT P6SM BKN035 FM011100 21004KT 4SM BR VCSH OVC007", "KPVU 311132Z 3112/0112 VRB04KT P6SM SCT250", "KPVW 311120Z 3112/0112 VRB04KT P6SM BKN250 FM311700 20010KT P6SM BKN250", "KPWM 311120Z 3112/0112 21006KT P6SM SCT180", "KPWT 311401Z 3114/0112 19011KT P6SM -RA BKN003 OVC015 FM311600 20006KT P6SM BKN020 BKN050 FM311900 19010KT P6SM SCT025 BKN060 FM312300 20006KT P6SM SCT060 BKN200 FM010400 00000KT P6SM BKN015 BKN060 FM010900 00000KT 2SM BR BKN007 OVC015", "KRAP 311120Z 3112/0112 VRB06KT P6SM SCT250", "KRBG 311120Z 3112/0112 00000KT P6SM OVC025 FM311600 VRB02KT P6SM VCSH SCT030 OVC040 FM312200 34004KT P6SM -RA SCT010 OVC025 FM010300 32005KT P6SM -RA SCT020 OVC035 FM010800 33005KT P6SM -SHRA SCT025 OVC040", "KRBL 311127Z 3112/0112 34005KT P6SM FEW250 FM312100 17008KT P6SM SCT250", "TAF KRCA 311100Z 3111/0117 VRB06KT 9999 SKC QNH2975INS TX20/3121Z TN04/3112Z", "KRDD 311127Z 3112/0112 VRB05KT P6SM SCT250 FM011000 VRB05KT P6SM BKN100", "KRDG 311121Z 3112/0112 00000KT 5SM BR BKN040 FM311300 00000KT P6SM FEW030 SCT150 FM311600 19007KT P6SM BKN035 OVC100 FM010000 16003KT P6SM VCSH OVC020 FM010600 16003KT P6SM VCSH OVC009", "KRDM 311120Z 3112/0112 VRB04KT P6SM SCT060 BKN100 FM312000 22010KT P6SM BKN070 OVC090 FM010400 31008KT P6SM -RA BKN040 OVC060 FM010900 32007KT 5SM -RA BR BKN035 OVC050", "TAF KRDR 311000Z 3110/0116 VRB06KT 9999 FEW100 QNH2969INS BECMG 3114/3115 26012G18KT 9999 BKN070 QNH2969INS BECMG 3122/3123 VRB06KT 9999 SCT100 QNH2971INS TX15/3122Z TN02/0110Z", "KRDU 311120Z 3112/0112 10003KT P6SM SCT015 BKN040 TEMPO 3112/3115 BKN009 FM312000 17005KT P6SM VCSH BKN025 BKN045 OVC110 FM312300 16005KT P6SM VCSH SCT025 BKN040 TEMPO 0102/0106 3SM -SHRA BR BKN025 FM010600 VRB03KT 2SM BR OVC004", "KRFD 311130Z 3112/0112 VRB03KT P6SM FEW015 BKN035 FM311500 34005KT P6SM FEW050 BKN100 FM010000 27005KT P6SM FEW100 FM010600 26003KT 6SM BR SKC", "KRHI 311329Z 3113/0112 VRB03KT 6SM BR SKC TEMPO 3113/3115 3SM BR VV002 FM311500 24005KT P6SM SCT200", "KRIC 311153Z 3112/0112 VRB03KT P6SM SCT005 BKN025 FM311500 19005KT P6SM BKN035 FM010300 VRB03KT 6SM -SHRA BR OVC025 FM010600 VRB03KT 6SM -SHRA BR OVC007", "KRIL 311120Z 3112/0112 VRB04KT P6SM SKC", "TAF KRIV 311205Z 3112/0118 15005KT 9999 FEW250 QNH2995INS BECMG 3115/3116 16009KT 9999 BKN250 QNH2989INS BECMG 3121/3122 32009KT 9999 BKN250 QNH2986INS TEMPO 3122/0101 32012G18KT BECMG 0103/0104 16006KT 9999 FEW150 BKN200 QNH2989INS BECMG 0111/0112 16009KT 9000 HZ SCT150 BKN250 520508 QNH2990INS BECMG 0115/0116 16009KT 9999 NSW SCT010 BKN130 BKN250 520508 QNH2994INS TX28/3121Z TN07/3113Z", "KRIW 311120Z 3112/0112 27008KT P6SM BKN200 FM311600 VRB05KT P6SM SCT200 FM312300 29008KT P6SM SCT200", "KRKD 311120Z 3112/0112 22003KT P6SM SCT250 FM311600 21008KT P6SM BKN200 AMD NOT SKED", "KRKS 311120Z 3112/0112 24012KT P6SM SCT200 FM311600 26014G24KT P6SM SCT200 FM010100 25011KT P6SM SCT200 FM010400 20007KT P6SM SCT200", "KRME 311120Z 3112/0112 14005KT P6SM BKN200 FM311800 15005KT P6SM FEW060 BKN100 FM010400 11003KT P6SM -SHRA FEW020 OVC030 FM011100 VRB03KT P6SM OVC018", "TAF KRND 310930Z 3110/0116 VRB06KT 9999 FEW060 BKN230 QNH2993INS BECMG 0104/0105 VRB06KT 9000 -SHRA FEW030 BKN080 OVC110 QNH3007INS BECMG 0111/0112 VRB06KT 8000 BR VCSH SCT020 OVC060 QNH3007INS BECMG 0113/0114 VRB06KT 9999 NSW SCT020 BKN060 QNH3008INS TX26/3121Z TN11/3112Z", "KRNH 311120Z 3112/0112 00000KT 3SM BR SKC FM311430 21006KT P6SM SKC", "KRNO 311137Z 3112/0112 VRB03KT P6SM FEW220 FM312100 21005KT P6SM SCT110 BKN220 FM010600 19008KT P6SM SCT110 SCT220 WS020/22035KT", "KROA 311340Z 3114/0112 12004KT P6SM -RA OVC008 TEMPO 3115/3118 4SM RA BR SCT005 OVC012 FM311800 14003KT 6SM -RA OVC012 FM312300 14003KT 5SM BR OVC007 FM010300 21002KT 2SM BR OVC003 FM010700 24002KT 3SM BR SCT002 BKN020", "KROC 311120Z 3112/0112 19005KT P6SM SCT100 BKN150 FM311400 19005KT P6SM VCSH SCT030 OVC050 FM312100 17004KT P6SM OVC025 FM010400 20006KT P6SM BKN035", "KROG 311258Z 3113/0112 00000KT 1/4SM FG OVC003 TEMPO 3113/3116 2SM BR SCT004 FM311600 26006KT P6SM SKC FM010000 00000KT P6SM SKC", "KROW 311120Z 3112/0112 36005KT P6SM FEW150 BKN250 FM311800 16011KT P6SM SCT250 FM010200 20006KT P6SM SKC", "KRSL 311134Z 3112/0112 25006KT P6SM FEW250 FM312000 23007KT P6SM SKC FM010000 17007KT P6SM FEW250", "KRST 311132Z 3112/0112 25006KT P6SM SKC FM010300 20007KT P6SM SKC", "KRSW 311214Z 3112/0112 05004KT P6SM BKN100 FM311600 17006KT P6SM SCT035 BKN120 FM312100 29006KT P6SM SCT040 BKN100 FM010000 VRB03KT P6SM SCT040 BKN100", "KRUT 311120Z 3112/0112 15004KT P6SM FEW200 FM010800 VRB04KT P6SM BKN045", "KRVS 311333Z 3114/0112 00000KT 6SM BR SKC FM311500 23005KT P6SM SKC FM010000 20003KT P6SM SKC", "KRWF 311120Z 3112/0112 27005KT P6SM SKC FM311600 22009KT P6SM SKC", "KRWI 311225Z 3112/0112 VRB03KT P6SM SCT002 BKN040 FM311400 14004KT P6SM SCT025 BKN040 FM010000 16005KT P6SM VCSH SCT025 BKN040 TEMPO 0102/0106 3SM -SHRA BR BKN025 FM010600 VRB03KT 2SM BR OVC003", "KRWL 311120Z 3112/0112 24013G20KT P6SM SKC FM311600 23015G25KT P6SM FEW250 FM010100 23011KT P6SM SKC", "KRYY 311141Z 3112/0112 VRB04KT 5SM -DZ BR OVC004 FM311500 VRB03KT P6SM VCSH BKN004 BKN009 FM311900 22004KT P6SM BKN008 BKN012 FM312100 25005KT P6SM SCT009 BKN030 BKN050 FM312200 24004KT P6SM SCT030 SCT050 BKN150 FM010300 31004KT P6SM SCT050 SCT090 BKN150", "KSAC 311127Z 3112/0112 VRB03KT P6SM SCT250 FM010600 VRB04KT P6SM OVC250", "KSAF 311120Z 3112/0112 01011KT P6SM SKC FM312000 23009KT P6SM SKC FM010300 02007KT P6SM SKC", "KSAN 311136Z 3112/0118 VRB03KT P6SM FEW005 FEW010 FM311900 28009KT P6SM SCT200 FM010200 VRB04KT P6SM SCT010 SCT200 TEMPO 0105/0109 BKN009 FM010900 18005KT P6SM OVC010 FM011700 21005KT P6SM SCT015 SCT200", "KSAT 311135Z 3112/0118 30005KT P6SM BKN250 FM311600 13006KT P6SM SCT070 BKN150 FM312100 11005KT P6SM OVC070 FM010500 VRB05KT P6SM -SHRA VCTS FEW028 OVC070CB FM011600 12006KT P6SM VCSH BKN025", "TAF COR KSAV 311155Z 3112/0112 05004KT 2SM BR OVC003 TEMPO 3112/3113 1/2SM FG OVC002 FM311400 11004KT P6SM BKN010 FM311600 15008KT P6SM BKN045 FM010300 18004KT P6SM BKN080 FM010800 VRB03KT 1SM BR SCT003 BKN070", "KSAW 311120Z 3112/0112 VRB04KT P6SM SKC TEMPO 3112/3113 5SM BR", "KSBA 311143Z 3112/0112 VRB03KT P6SM SCT250 FM311600 16008KT P6SM SCT250 FM312100 22008KT P6SM SCT250 FM010300 VRB03KT 5SM BR OVC008", "KSBD 311136Z 3112/0112 VRB05KT P6SM SCT250 FM312100 26009KT P6SM SCT200 FM010400 VRB04KT P6SM BKN200", "KSBM 311120Z 3112/0112 00000KT 5SM BR FEW120 BKN150 FM311400 VRB03KT P6SM BKN150", "KSBN 311130Z 3112/0112 VRB03KT 1/4SM FG VV001 TEMPO 3113/3115 3/4SM -RA BR OVC003 FM311500 18004KT 3SM -SHRA BR OVC005 FM312000 28007KT 5SM -SHRA BR OVC006 FM010000 29005KT 2SM BR OVC006 FM010800 27003KT 1SM BR SCT010", "KSBP 311143Z 3112/0112 VRB03KT 1/4SM FG VV002 FM311400 VRB03KT 3SM BR BKN005 FM311600 31006KT P6SM SCT250 FM312000 31012KT P6SM SCT250 FM010200 31006KT P6SM BKN005 FM010800 VRB03KT P6SM OVC007", "KSBY 311151Z 3112/0112 00000KT P6SM SCT005 OVC030 FM311400 19006KT P6SM BKN035 FM010500 00000KT 6SM -SHRA BR OVC025 FM010800 00000KT 6SM -SHRA BR OVC010", "KSCK 311127Z 3112/0112 VRB05KT P6SM FEW250 FM010600 25006KT P6SM OVC250", "KSDF 311120Z 3112/0118 20007KT P6SM FEW022 BKN050 FM311500 21010G17KT P6SM VCSH OVC025 FM312300 24005KT P6SM VCSH BKN025 FM010900 26004KT P6SM BKN050", "KSDL 311120Z 3112/0112 VRB04KT P6SM SKC", "KSDY 311120Z 3112/0112 VRB05KT P6SM SCT200 FM311600 23009KT P6SM SCT220 FM010000 22007KT P6SM SCT050 FM010300 22007KT P6SM SCT090", "KSEA 311122Z 3112/0118 18006KT P6SM -RA FEW005 BKN015 OVC021 FM311600 22010G18KT P6SM OVC025 FM312000 21010KT P6SM SCT030 BKN050 FM010000 23005KT P6SM SCT050 BKN200 FM010700 16004KT P6SM BKN015 BKN050", "KSEZ 311128Z 3112/0112 04012G16KT P6SM SKC FM311700 16005KT P6SM SKC FM010200 04012KT P6SM SKC", "KSFB 311125Z 3112/0112 05004KT P6SM FEW035 FM311400 10007KT P6SM SCT040 FM010100 12005KT P6SM FEW040 FEW200 FM010800 06004KT 6SM BR FEW010", "KSFF 311120Z 3112/0112 22012G19KT P6SM -RA SCT025 OVC040 FM010300 23010KT P6SM VCSH BKN025 OVC040 FM010700 22008KT P6SM VCSH BKN040", "KSFO 311348Z 3114/0118 VRB05KT P6SM FEW008 SCT012 TEMPO 3114/3116 BKN012 FM312200 28014G20KT P6SM FEW007 BKN250 FM010300 25008KT P6SM FEW006 BKN012 FM011200 17008KT P6SM VCSH BKN010 FM011700 28014KT P6SM -RA BKN010", "KSGF 311123Z 3111/0112 28004KT P6SM BKN070 FM311900 21005KT P6SM SKC", "KSGJ 311233Z 3113/0112 VRB04KT P6SM FEW030 SCT250 FM311500 12010KT P6SM SCT025 BKN200 FM010000 16006KT P6SM SCT025 BKN200 FM011000 13005KT 6SM BR SCT006 BKN030", "KSGR 311135Z 3112/0112 VRB03KT P6SM SCT250 TEMPO 3112/3113 4SM BR FM312000 11005KT P6SM SCT050 BKN250 FM010100 VRB03KT P6SM SCT050 BKN250 FM010900 VRB05KT P6SM VCSH SCT030 OVC090", "KSGU 311132Z 3112/0112 VRB05KT P6SM SKC", "KSHR 311120Z 3112/0112 VRB06KT P6SM FEW100 SCT200", "KSHV 311140Z 3112/0112 24003KT P6SM BKN250 TEMPO 3112/3113 00000KT 4SM BR FM311300 27003KT P6SM BKN250 FM311500 30005KT P6SM BKN250 FM010000 00000KT P6SM SCT250 FM010600 00000KT 6SM BR BKN250", "KSJC 311126Z 3112/0112 VRB03KT P6SM SCT009 TEMPO 3112/3116 BKN009 FM311800 VRB05KT P6SM BKN250 FM312200 33011KT P6SM BKN250 FM010300 33008KT P6SM VCSH SCT010 BKN250 FM010600 VRB06KT P6SM VCSH BKN020", "KSJS 311138Z 3112/0112 VRB05KT P6SM VCSH BKN008 OVC015 FM311300 VRB05KT P6SM VCSH OVC025 FM311500 VRB04KT P6SM OVC015 FM311900 VRB05KT P6SM OVC035 FM312200 VRB04KT P6SM BKN070 FM010900 00000KT P6SM BKN015", "KSJT 311120Z 3112/0112 VRB05KT P6SM BKN250", "TAF AMD KSKA 311400Z 3114/0117 20012G22KT 9999 BKN060 OVC100 620609 QNH2975INS BECMG 3117/3118 18015G25KT 8000 -RA BKN020 OVC060 620609 QNH2972INS BECMG 3120/3121 22012G20KT 8000 -RA BKN020 OVC050 620509 QNH2969INS BECMG 0100/0101 22012KT 9999 NSW SCT012 BKN030 620309 QNH2964INS BECMG 0112/0113 25008KT 9000 -RA BKN015 BKN030 620309 QNH2961INS TX12/3122Z TN09/3114Z", "TAF KSKF 311000Z 3110/0116 VRB06KT 9999 SCT200 QNH2990INS BECMG 0102/0103 09006KT 9999 VCSH BKN080 QNH2997INS BECMG 0105/0106 10010G15KT 8000 SHRA BKN040 OVC050 QNH2999INS TEMPO 0108/0112 VRB15G25KT 6000 -TSRA BKN030CB OVC050 BECMG 0112/0113 04009KT 9999 VCSH BKN040 QNH3003INS TX25/3121Z TN12/3113Z", "KSLC 311132Z 3112/0118 15005KT P6SM SCT250 FM312100 32007KT P6SM SCT250 FM010200 15008KT P6SM SCT250 FM011200 17014G22KT P6SM SCT150 BKN200", "KSLE 311120Z 3112/0112 18012G20KT P6SM BKN025 OVC040 FM311700 18015G25KT 6SM -RA BR OVC025 FM311900 22006KT 4SM RA BR OVC015 FM312100 24008KT P6SM -SHRA SCT025 BKN040 FM312300 VRB03KT 5SM -RA BR BKN015 OVC025 FM010700 33004KT P6SM VCSH SCT025 BKN040", "TAF KSLI 311300Z 3113/0119 VRB06KT 9999 SKC QNH2983INS BECMG 0112/0113 VRB06KT 8000 BR BKN009 OVC150 QNH2986INS BECMG 0113/0114 VRB06KT 8000 BR BKN010 BKN140 QNH2987INS BECMG 0116/0117 VRB06KT 8000 BR SCT010 SCT017 BKN150 QNH2991INS BECMG 0118/0119 VRB06KT 9999 NSW BKN017 BKN025 QNH2993INS TX23/0100Z TN13/3115Z", "KSLK 311120Z 3112/0112 VRB03KT P6SM BKN150 FM311600 22007KT P6SM SCT100 BKN120 FM010300 21005KT P6SM VCSH OVC035 FM010700 21006KT P6SM VCSH OVC022 FM011000 21005KT P6SM VCSH OVC010", "KSLN 311134Z 3112/0112 28004KT P6SM SCT250 FM010600 19007KT P6SM SKC", "KSME 311138Z 3112/0112 VRB03KT P6SM BKN015 OVC025 FM311400 VRB05KT P6SM OVC035 FM311500 21007KT P6SM BKN050 FM010000 00000KT P6SM BKN070 FM010900 00000KT P6SM BKN007", "KSMF 311127Z 3112/0112 16005KT P6SM SCT250 FM010600 16006KT P6SM BKN250", "KSMN 311120Z 3112/0112 00000KT P6SM BKN100 FM312000 01007KT P6SM BKN100", "KSMO 311143Z 3112/0112 VRB03KT P6SM SCT250 FM312000 23008KT P6SM SCT250 FM010500 VRB03KT 5SM BR OVC010", "KSMX 311143Z 3112/0112 VRB03KT 1/4SM FG VV001 FM311400 VRB03KT 2SM BR OVC003 FM311630 VRB03KT P6SM SCT250 FM312000 29008KT P6SM SCT250 FM010200 VRB03KT 4SM BR OVC004", "KSNA 311136Z 3112/0112 VRB04KT P6SM SCT250 FM311900 21008KT P6SM SCT200 FM010300 VRB04KT P6SM SCT010 BKN200 TEMPO 0108/0112 BKN010", "KSNS 311126Z 3112/0112 VRB03KT 1/2SM FG OVC002 FM311800 28007KT P6SM BKN010 FM312200 29011KT P6SM SCT012 BKN200 FM010200 29008KT P6SM VCSH BKN012", "KSNY 311120Z 3112/0112 31012KT P6SM SKC FM311900 28010G18KT P6SM SKC FM010000 22008KT P6SM SKC", "KSOA 311120Z 3112/0112 VRB03KT P6SM BKN250 FM010100 VRB06KT P6SM VCSH BKN200", "KSPI 311120Z 3112/0112 VRB05KT 1SM -SHRA BR OVC002 FM311600 29005KT 3SM -SHRA BR OVC004 FM312100 29006KT P6SM OVC015 FM312300 27005KT P6SM SCT015 BKN060 FM010200 VRB03KT P6SM SKC", "KSPS 311120Z 3112/0112 VRB04KT P6SM SCT250 FM010200 15006KT P6SM SCT250", "KSRQ 311133Z 3112/0112 07003KT P6SM SCT250 FM311800 27006KT P6SM FEW250 FM010100 02004KT P6SM FEW050 FEW250", "TAF AMD KSSC 311230Z 3112/0113 05006KT 9999 VCSH BKN006 OVC150 QNH3004INS TEMPO 3113/3114 4800 -RA OVC005 BECMG 3114/3115 09006KT 9999 VCSH BKN010 OVC040 QNH3002INS BECMG 3116/3117 15006KT 8000 -SHRA BKN015 OVC025 QNH2999INS BECMG 3123/3124 15006KT 9999 NSW OVC010 QNH3000INS BECMG 0107/0108 18006KT 8000 BR OVC004 QNH3003INS TX24/3120Z TN14/3112Z", "KSSF 311135Z 3112/0112 VRB04KT P6SM BKN250 FM311600 11006KT P6SM SCT070 BKN150 FM312100 11004KT P6SM OVC070 FM010600 VRB05KT P6SM -SHRA VCTS FEW028 OVC070CB", "KSSI 311231Z 3113/0112 00000KT P6SM FEW028 BKN060 OVC080 FM311500 13008KT P6SM VCSH SCT030 SCT045 BKN100 FM010000 15006KT P6SM SCT025 BKN100 FM011000 30003KT 6SM BR SCT250", "KSTC 311120Z 3112/0112 00000KT P6SM SKC FM311600 21010KT P6SM SKC FM010000 21004KT P6SM SKC", "KSTJ 311120Z 3112/0112 28007KT P6SM SCT100 FM010700 17005KT P6SM SKC", "KSTL 311220Z 3112/0118 27005KT 5SM -DZ BKN006 OVC012 TEMPO 3112/3115 SCT006 OVC012 FM312000 28007KT P6SM FEW012 OVC020 FM312200 28005KT P6SM SCT040 SCT250", "KSTS 311126Z 3112/0112 00000KT 1/4SM FG OVC002 FM311700 VRB03KT P6SM FEW004 BKN250 FM312200 17006KT P6SM BKN250 FM010200 VRB04KT P6SM BKN250 FM011000 VRB03KT P6SM VCSH BKN020", "KSUA 311125Z 3112/0112 05005KT P6SM SCT030 FM311500 11011KT P6SM SCT035 FM010100 12005KT P6SM FEW040 FEW200 AMD NOT SKED", "KSUN 311120Z 3112/0118 31008KT P6SM FEW080 SCT120 BKN200 FM311800 14008G20KT P6SM SCT080 BKN150 FM010300 31008KT P6SM SCT160 FM011700 14010KT P6SM BKN120 AMD LTD TO CLD VIS AND WIND TIL 311400", "KSUS 311122Z 3112/0112 27005KT 6SM BR VCSH SCT009 OVC015 TEMPO 3112/3115 4SM -DZ BR OVC006 FM311900 28007KT P6SM FEW012 OVC020 FM312200 28004KT P6SM SCT040 SCT250 FM010600 00000KT 3SM BR SKC", "TAF KSUU 311100Z 3111/0117 23012KT 9999 SKC QNH2997INS TEMPO 3114/3116 1600 BR BECMG 3118/3119 23012KT 9999 BKN120 QNH2980INS BECMG 0111/0112 23015G25KT 9000 -RA OVC005 QNH2978INS TEMPO 0114/0117 VCTS OVC010CB TX20/3123Z TN05/3113Z", "KSUX 311124Z 3112/0112 VRB05KT P6SM SKC FM311800 22009KT P6SM SKC FM010000 17005KT P6SM SKC", "TAF KSVN 311145Z 3112/0118 08005KT 0800 FG BKN001 QNH2999INS BECMG 3114/3115 VRB06KT 9999 NSW FEW006 SCT020 BKN040 QNH2999INS BECMG 0105/0106 VRB06KT 8000 BR BKN005 BKN020 QNH3002INS BECMG 0115/0116 30009KT 9999 NSW BKN012 OVC020 QNH2999INS TX26/3117Z TN20/3113Z", "KSWF 311136Z 3112/0118 VRB04KT P6SM BKN035 TEMPO 3112/3113 BKN025 FM311500 25007KT P6SM SCT150 BKN200 FM311900 23005KT P6SM SCT035 BKN100 FM010000 VRB03KT P6SM SCT035 OVC070 PROB30 0103/0107 -SHRA OVC015 FM010700 VRB03KT 4SM -SHRA OVC015 FM011000 VRB03KT 4SM -SHRA BR OVC008 FM011500 26005KT 5SM BR VCSH OVC015 AMD NOT SKED", "KSWO 311120Z 3112/0112 VRB04KT P6SM SKC FM010300 19007KT P6SM SKC", "KSYM 311138Z 3112/0112 18006KT P6SM OVC015 FM311400 20006KT P6SM OVC025 FM311500 22008KT P6SM BKN040 FM010800 VRB03KT P6SM BKN015", "KSYR 311120Z 3112/0112 13004KT P6SM SCT150 BKN220 FM311800 17006KT P6SM SCT060 BKN100 FM312200 14005KT P6SM -SHRA BKN045 FM010500 14004KT P6SM -SHRA OVC035 FM011000 VRB03KT P6SM OVC022", "TAF AMD KSZL 311228Z 3112/0117 27009KT 9999 BKN060 OVC120 QNH2991INS BECMG 3118/3119 28006KT 9999 SCT120 QNH2993INS BECMG 3121/3123 24006KT 9999 SKC QNH2992INS BECMG 0114/0115 18009KT 9999 SKC QNH3010INS TX20/3121Z TN07/0111Z", "TAF KTBN 311300Z 3113/0119 VRB06KT 8000 BR FEW006 OVC047 QNH2991INS BECMG 3114/3115 VRB06KT 9000 -RA BR SCT006 BKN020 QNH2992INS TEMPO 3115/3117 25008KT 9999 BKN006 BECMG 3116/3117 29010G15KT 9999 FEW006 BKN045 QNH2995INS BECMG 3122/3123 VRB06KT 9999 FEW100 QNH2994INS TX19/3120Z TN07/0113Z", "KTCC 311120Z 3112/0112 33006KT P6SM FEW250 FM311900 22009G17KT P6SM SKC FM010100 22010KT P6SM SKC", "KTCL 311125Z 3112/0112 00000KT 3SM BR OVC035 FM311430 25007KT P6SM BKN035 FM010200 00000KT P6SM SCT250 FM010900 00000KT 1SM BR SCT250", "TAF KTCM 311300Z 3113/0119 21012KT 8000 -RA SCT040 BKN060 620709 QNH2978INS BECMG 3116/3117 19012G18KT 9999 VCSH BKN030 OVC040 610709 QNH2977INS BECMG 0101/0102 23010KT 9999 NSW SCT030 BKN050 OVC070 620509 QNH2975INS BECMG 0111/0112 VRB06KT 9999 SCT020 BKN040 620409 QNH2972INS BECMG 0115/0116 VRB06KT 9999 SCT010 OVC020 620409 QNH2971INS TX12/3122Z TN10/3115Z", "KTCS 311120Z 3112/0112 02006KT P6SM SCT180 FM312100 25006KT P6SM SKC", "KTEB 311136Z 3112/0118 00000KT P6SM BKN035 TEMPO 3112/3113 BKN025 FM311500 22005KT P6SM FEW040 BKN100 FM010000 22003KT P6SM SCT050 OVC070 PROB30 0103/0106 -SHRA OVC025 FM010600 21003KT 4SM -SHRA OVC015 FM010900 22004KT 4SM -SHRA BR OVC008 FM011500 25005KT 5SM BR VCSH OVC015", "KTEX 311120Z 3112/0112 13005KT P6SM SKC FM312000 28007KT P6SM SKC FM010200 15006KT P6SM SKC", "TAF KTIK 310900Z 3109/0115 VRB06KT 9999 FEW100 QNH2989INS TX20/3120Z TN04/3111Z", "KTIX 311125Z 3112/0112 09007KT P6SM VCSH SCT030 FM311900 11008KT P6SM SCT040 FM010200 12006KT P6SM FEW040 FEW200", "KTLH 311403Z 3114/0112 VRB02KT P6SM OVC004 TEMPO 3114/3115 1SM BR OVC002 FM311500 17004KT P6SM SCT007 BKN050 FM311800 21005KT P6SM SCT250", "KTMB 311120Z 3112/0112 VRB05KT P6SM VCSH SCT025 FM311400 10008KT P6SM VCSH SCT035 SCT100 FM312100 11010KT P6SM SCT030 BKN250 FM010500 VRB05KT P6SM FEW030", "KTOI 311125Z 3112/0112 00000KT 1/2SM FG OVC001 FM311400 00000KT 3SM BR OVC004 FM311500 VRB04KT P6SM BKN250 FM311800 27007KT P6SM SCT060 FM010200 00000KT P6SM SCT250", "KTOL 311120Z 3112/0112 13002KT 3SM BR VCSH OVC006 TEMPO 3112/3115 1SM -SHRA BR OVC003 FM311500 20005KT P6SM VCSH OVC008 FM311700 21007KT P6SM VCSH BKN015 FM312200 22004KT P6SM VCSH BKN035 FM010400 24003KT P6SM BKN025", "KTOP 311120Z 3112/0112 29005KT P6SM SCT120", "KTPA 311133Z 3112/0118 VRB03KT P6SM SCT250 FM311700 27006KT P6SM SCT040 SCT150 FM010100 VRB03KT P6SM FEW050 SCT150", "KTPH 311213Z 3112/0112 36008KT P6SM FEW250 FM312000 19009KT P6SM BKN200 FM010800 12010KT P6SM BKN200", "KTRI 311400Z 3114/0112 VRB03KT P6SM VCSH SCT020 OVC040 TEMPO 3114/3117 2SM -SHRA BR SCT009 OVC020 FM312300 VRB02KT P6SM SCT020 BKN035 FM010600 00000KT 4SM BR SCT010 BKN020", "KTRK 311137Z 3112/0112 00000KT P6SM FEW220 FM311800 24010KT P6SM FEW090 SCT220 FM010200 19006KT P6SM SCT090 BKN220 FM010300 20007KT P6SM SCT090 SCT220 WS020/20035KT", "KTRM 311136Z 3112/0112 VRB05KT P6SM SCT250 FM311900 15006KT P6SM SCT200 FM010100 VRB05KT P6SM BKN200", "KTTD 311120Z 3112/0112 20014G22KT P6SM -SHRA BKN025 OVC040 FM311400 20015G25KT 5SM -RA BR OVC025 FM311700 24005KT 4SM RA BR SCT015 OVC025 FM311900 VRB03KT 5SM -RADZ BR OVC015 FM010400 29006KT P6SM VCSH SCT025 BKN040", "KTTN 311403Z 3114/0112 00000KT 3SM BR SCT002 FM311500 21004KT P6SM BKN035 OVC100 FM010000 19003KT P6SM VCSH OVC020 FM010600 19003KT P6SM VCSH OVC009", "KTUL 311125Z 3112/0112 00000KT 6SM BR FEW120 FM311400 24006KT P6SM SKC FM010000 19003KT P6SM SKC", "KTUP 311132Z 3112/0112 19005KT P6SM FEW015 BKN060 FM311400 23005KT P6SM OVC020 FM311800 27007KT P6SM OVC050 FM010600 00000KT 6SM BR FEW250 FM011000 00000KT 3SM BR SKC", "KTUS 311123Z 3112/0112 14008KT P6SM SKC FM311800 VRB04KT P6SM SKC FM312200 34006KT P6SM SKC FM010600 14006KT P6SM FEW250", "KTVC 311120Z 3112/0112 00000KT P6SM BKN180 FM311700 22004KT P6SM SCT240 FM010000 00000KT P6SM FEW250", "KTVF 311138Z 3112/0112 21005KT P6SM BKN250 FM311500 21011KT P6SM BKN250 FM010600 21005KT P6SM SKC", "KTVL 311137Z 3112/0112 18003KT P6SM FEW220 FM311800 20008KT P6SM FEW090 BKN220 FM010300 20009G18KT P6SM SCT090 SCT220 WS020/21040KT", "KTWF 311120Z 3112/0112 21012KT P6SM SKC FM311800 06007KT P6SM SCT200 FM010300 17012KT P6SM BKN200", "KTXK 311140Z 3112/0112 23005KT P6SM BKN250 FM311500 27005KT P6SM SCT100 BKN250 FM010000 00000KT P6SM SKC FM010600 00000KT 6SM BR SKC", "KTYR 311140Z 3112/0112 00000KT P6SM BKN250 FM311300 30003KT 6SM BR SCT100 BKN250 FM311500 29005KT P6SM BKN250 FM010000 VRB03KT P6SM FEW250", "KTYS 311348Z 3114/0112 24004KT P6SM VCSH SCT010 OVC060 TEMPO 3114/3116 5SM -RA BR BKN007 FM311600 24005KT P6SM VCSH SCT010 BKN015 FM312100 24005KT P6SM BKN035 FM010100 VRB03KT P6SM BKN060 FM010900 VRB03KT 4SM BR BKN025", "KUAO 311120Z 3112/0112 19012G20KT P6SM BKN025 OVC040 FM311500 20015G25KT 6SM -RA BR OVC025 FM311800 22006KT 4SM RA BR SCT015 OVC025 FM312000 VRB03KT 6SM -RADZ BR OVC015 FM010700 29006KT P6SM VCSH SCT025 BKN040", "KUES 311120Z 3112/0112 00000KT 6SM BR SCT040 BKN090 FM311400 VRB03KT P6SM FEW015 BKN080", "KUIN 311341Z 3114/0112 31005KT 3SM -RA BR SCT005 BKN025 TEMPO 3114/3116 1SM -DZ BR BKN005 FM311600 31006KT P6SM SCT015 BKN080 FM311800 31007KT P6SM SCT080 FM010000 23004KT P6SM FEW250", "KUKI 311134Z 3112/0112 VRB03KT P6SM FEW003 BKN200 FM311800 VRB06KT P6SM SCT200 FM010400 VRB03KT P6SM SCT025 BKN200 FM011100 VRB03KT 5SM BR BKN015", "KUNV 311130Z 3112/0112 VRB04KT P6SM VCSH BKN070 FM311700 VRB02KT P6SM VCSH OVC040 FM010500 20003KT P6SM -SHRA OVC025 FM010900 21006KT 5SM BR OVC018", "KUTS 311135Z 3112/0112 VRB04KT P6SM BKN250", "TAF KVAD 310800Z 3108/0114 13006KT 9999 OVC005 QNH2996INS TEMPO 3110/3114 3200 BR OVC002 BECMG 3115/3116 13010G15KT 9999 BKN020 BKN060 QNH2999INS BECMG 3117/3118 18010G15KT 9999 BKN020 QNH2994INS TEMPO 3120/3124 9000 -SHRA BKN015 BECMG 0101/0102 31009KT 9999 BKN020 QNH3007INS BECMG 0113/0114 35009KT 9999 SCT030 QNH3014INS TX29/3120Z TN18/3112Z", "TAF KVBG 311402Z 3114/0120 VRB06KT 0800 FG VV000 QNH2997INS FG VV000 BECMG 3116/3117 VRB06KT 4800 BR BKN003 BKN200 QNH2999INS BECMG 3117/3118 33009KT 9999 NSW FEW005 BKN180 QNH2997INS BECMG 3123/3124 33012KT 9999 SCT005 BKN150 QNH2994INS BECMG 0101/0102 35006KT 4800 BR OVC003 QNH2992INS BECMG 0103/0104 35006KT 0400 FG VV001 QNH2995INS TEMPO 0110/0116 1600 -DZ BR OVC003 BECMG 0115/0116 35006KT 3200 BR OVC003 QNH2997INS BECMG 0117/0118 31009KT 9999 NSW BKN005 BKN200 QNH2994INS BECMG 0119/0120 30012KT 9999 FEW007 SCT120 BKN200 QNH2990INS TX19/3121Z TN08/0114Z", "KVCT 311121Z 3112/0112 VRB03KT P6SM SCT250 TEMPO 3112/3113 4SM BR FM311500 11007KT P6SM SCT050 BKN250 FM010300 09006KT P6SM VCSH BKN050 OVC250 FM010800 04005KT P6SM -RA OVC030 TEMPO 0108/0112 4SM -TSRA BKN025CB", "KVEL 311120Z 3112/0112 VRB03KT P6SM FEW250", "KVGT 311120Z 3112/0112 33008KT P6SM SKC FM311800 12006KT P6SM SCT250 FM010300 33005KT P6SM SCT150 BKN250", "KVIS 311120Z 3112/0112 VRB05KT P6SM SCT200", "KVLD 311120Z 3112/0112 VRB02KT P6SM OVC004 FM311400 15004KT P6SM OVC015 FM311600 20006KT P6SM BKN025 FM311800 15004KT P6SM SCT050", "KVNY 311145Z 3112/0112 VRB03KT P6SM SCT250 FM312100 14008KT P6SM SCT250 FM010300 VRB03KT P6SM SCT200", "TAF KVOK 310900Z 3109/0115 VRB06KT 9999 FEW140 BKN160 QNH2980INS TX12/3120Z TNM02/3111Z", "TAF KVPS 310900Z 3109/0115 30009KT 9999 SCT030 BKN200 QNH2994INS BECMG 3111/3112 30009KT 9999 SCT020 BKN030 BKN250 QNH2998INS BECMG 3117/3118 18009KT 9999 FEW040 SCT250 QNH2999INS BECMG 0101/0102 34009KT 9999 FEW200 QNH2996INS TX25/3119Z TN15/3112Z", "KVQQ 311227Z 3112/0112 VRB02KT 3SM BR FEW008 FEW040 FM311300 13002KT 6SM BR FEW010 SCT020 SCT250 FM311400 14004KT P6SM FEW015 SCT025 BKN250 FM311600 15006KT P6SM VCSH SCT035 BKN100 FM010000 VRB04KT P6SM SCT035 BKN100 FM010400 00000KT 4SM BR BKN250 FM010600 00000KT 1 1/2SM BR SCT250 FM010900 00000KT 1/2SM FG SCT002 BKN015", "KVRB 311125Z 3112/0112 10006KT P6SM FEW035 FM311500 11011KT P6SM VCSH SCT035 FM010100 12007KT P6SM FEW040 FEW200", "KVTN 311129Z 3112/0112 25005KT P6SM FEW250 FM311800 25007KT P6SM SCT250 FM010100 22004KT P6SM BKN250", "KWJF 311146Z 3112/0112 VRB05KT P6SM SKC FM312300 22008KT P6SM SKC FM010300 26008KT P6SM SKC", "KWMC 311213Z 3112/0112 VRB06KT P6SM SCT200 FM010200 15007KT P6SM BKN200", "TAF AMD KWRB 311313Z 3113/0114 13006KT 9999 OVC008 QNH2997INS BECMG 3117/3118 19009KT 9999 VCSH BKN015 OVC020 QNH2995INS BECMG 3120/3121 25006KT 9999 NSW SCT020 OVC035 QNH2994INS BECMG 3123/3124 30006KT 9999 BKN050 QNH2999INS BECMG 0111/0112 VRB03KT 8000 BR OVC020 QNH3016INS TX24/3119Z TN16/0112Z", "TAF AMD KWRI 311330Z 3113/0116 VRB03KT 0600 FG BKN001 QNH3007INS BECMG 3114/3115 21005KT 9999 NSW BKN040 BKN100 QNH3000INS BECMG 3119/3120 20006KT 9999 VCSH OVC030 QNH2999INS BECMG 0103/0104 20006KT 4800 -SHRA BR OVC015 QNH3001INS BECMG 0107/0108 21005KT 3200 -SHRA BR OVC007 QNH3001INS BECMG 0115/0116 30005KT 4800 BR OVC010 QNH3003INS TX19/3119Z TN07/0112Z", "KWRL 311120Z 3112/0112 VRB05KT P6SM BKN200 FM010100 VRB05KT P6SM SCT200", "KWWR 311120Z 3112/0112 24006KT P6SM SKC FM311800 22008KT P6SM SKC FM010100 18007KT P6SM SKC", "KXNA 311257Z 3113/0112 24005KT 1/4SM FG VV002 TEMPO 3114/3116 1/2SM FG VV003 FM311600 27006KT P6SM SKC FM010000 00000KT P6SM SKC", "KXWA 311126Z 3112/0112 26011KT P6SM SCT250 FM311900 23013KT P6SM SCT250 FM312300 22008KT P6SM SCT250", "KYIP 311120Z 3112/0112 13003KT 1SM -SHRA BR OVC003 TEMPO 3112/3114 1/2SM -SHRA FG OVC003 FM311600 17005KT 6SM -SHRA BR OVC007 FM312000 20006KT P6SM OVC015 FM010000 25005KT P6SM -SHRA OVC010 FM010600 29004KT 5SM BR OVC008", "KYKM 311258Z 3113/0112 VRB05KT P6SM BKN070 OVC120 TEMPO 3113/3117 20018G30KT FM312000 24009KT P6SM BKN060 OVC080 FM010500 27007KT P6SM VCSH BKN050 OVC070", "KYNG 311253Z 3113/0112 13009KT P6SM -SHRA OVC025 TEMPO 3114/3115 BKN008 FM311500 16004KT P6SM VCSH BKN008 FM311800 19004KT P6SM VCSH OVC015 TEMPO 3118/3119 BKN008 FM312100 18004KT P6SM BKN025 FM010400 18006KT P6SM VCSH OVC025", "KZZV 311137Z 3112/0112 VRB02KT P6SM -SHRA OVC004 FM311500 18005KT P6SM -SHRA OVC011 FM311800 20006KT P6SM VCSH OVC022 FM311900 20006KT P6SM BKN035 FM010500 21003KT P6SM VCSH BKN027 FM010700 VRB02KT P6SM BKN015", "TAF LATI 311100Z 3112/0112 VRB05KT CAVOK TX26/3113Z TN08/0105Z", "TAF LBBG 311100Z 3112/0112 12010KT 9999 SCT030 BECMG 3117/3119 VRB04KT BECMG 0100/0102 3000 BR BKN010 PROB40 TEMPO 0102/0107 0600 BCFG SCT002 BKN005 BECMG 0109/0111 12010KT 9999 SCT030", "TAF LBGO 311100Z 3112/0112 30010KT CAVOK BECMG 3116/3117 VRB04KT BECMG 0100/0102 5000 BR TEMPO 0102/0106 1200 BR SCT007 BECMG 0107/0109 9999 SCT060", "TAF LBPD 311100Z 3112/0112 30010KT 9999 BKN080 BECMG 3114/3116 VRB04KT", "TAF LBSF 311100Z 3112/0112 VRB04KT 9999 SCT070 BECMG 0100/0102 5000 BR SCT015 TEMPO 0103/0106 1500 BR BKN007 PROB40 0104/0106 0500 BCFG OVC003 BECMG 0106/0108 9999 SCT070", "TAF LBWN 311100Z 3112/0112 VRB04KT 9999 SCT040 BECMG 3112/3114 36010KT BECMG 3119/3121 VRB04KT BKN030 TEMPO 0101/0106 3000 BR BKN010 BECMG 0110/0112 12010KT", "TAF LCEN 311040Z 3112/0112 33015KT 9999 SCT025 SCT100 PROB40 TEMPO 3112/3116 33015G25KT 4000 TSRA FEW020CB SCT025 BKN080", "TAF LCLK 311130Z 3112/0112 19012KT 9999 FEW030 PROB30 TEMPO 3112/3116 VRB15G25KT 5000 TSRA SCT035CB SCT040TCU BECMG 3114/3117 33008KT BECMG 0108/0111 20010KT", "TAF LCPH 311130Z 3112/0112 31015KT 9999 FEW030 PROB30 TEMPO 3112/3116 SCT030TCU BECMG 3115/3118 01008KT BECMG 0108/0111 31012KT ", "TAF LDDU 311125Z 3112/0112 29007KT CAVOK TX25/3112Z TN16/0105Z BECMG 3115/3117 VRB02KT PROB30 TEMPO 0100/0107 03010KT BECMG 0108/0110 15008KT", "TAF LDOS 311125Z 3112/0112 VRB02KT 1500 BR OVC002 TX19/0111Z TN10/0105Z PROB40 TEMPO 3112/3116 6000 NSW SCT007 BECMG 3116/3118 0200 FG VV001 BECMG 0108/0110 6000 NSW SCT007", "TAF LDPL 311125Z 3112/0112 VRB02KT CAVOK TX23/3112Z TN09/0105Z TEMPO 3112/3115 27008KT BECMG 0109/0111 27008KT", "TAF LDRI 311125Z 3112/0112 VRB02KT CAVOK TX23/3113Z TN12/0105Z", "TAF LDSP 311125Z 3112/0112 VRB02KT CAVOK TX25/3112Z TN14/0103Z TEMPO 3112/3115 23007KT", "TAF LDZA 311125Z 3112/0112 VRB02KT 4000 BR BKN004 TX22/0111Z TN08/0103Z BECMG 3112/3114 8000 NSW SCT007 BECMG 3116/3119 0400 FG VV002 TEMPO 3119/0106 0100 VV001 BECMG 0106/0108 23007KT 6000 NSW NSC BECMG 0110/0112 23012KT", "TAF LDZD 311125Z 3112/0112 VRB02KT CAVOK TX24/3112Z TN10/0105Z TEMPO 3112/3115 30007KT BECMG 3117/3119 1200 BCFG BECMG 3119/3121 0600 FG TEMPO 3121/0106 0300 VV002 PROB40 TEMPO 3121/0105 0100 BECMG 0106/0108 CAVOK", "TAF LEAB 311100Z 3112/0112 16008KT CAVOK TX24/3115Z TN11/0106Z BECMG 3113/3114 25008KT PROB30 TEMPO 0106/0110 BKN008", "TAF LEAG 310800Z 3109/0109 07010KT 9999 SCT020 TX23/3115Z TN19/0105Z TEMPO 3109/3114 BKN014 BECMG 3115/3117 VRB03KT", "TAF LEAL 311100Z 3112/0112 12007KT 9999 SCT025 TX24/3112Z TN17/0104Z BECMG 3115/3117 VRB04KT TEMPO 0103/0108 33010KT", "TAF LEAM 311100Z 3112/0112 19010KT CAVOK TX25/3113Z TN18/0106Z BECMG 3120/3122 34005KT BECMG 0110/0112 19010KT", "TAF LEAO 310800Z 3109/0109 VRB05KT 9999 SCT020 SCT030 TX23/3115Z TN13/0107Z TEMPO 3109/3116 10010KT PROB40 TEMPO 3109/3114 10015G25KT PROB30 TEMPO 3119/0102 4000 RA SHRA SCT030TCU", "TAF LEAS 310800Z 3109/0109 22007KT 9999 FEW045 TX20/3112Z TN08/0103Z BECMG 3112/3114 29010KT TEMPO 3113/3118 29017G27KT PROB40 TEMPO 3113/3117 29022G32KT 3000 RA BKN010 PROB30 TEMPO 3113/3116 29029G40KT", "TAF LEBA 310800Z 3109/0109 VRB03KT CAVOK TX25/3115Z TN14/0106Z BECMG 3111/3113 26010KT BECMG 3116/3118 VRB03KT", "TAF LEBB 311100Z 3112/0112 12007KT CAVOK TX20/3114Z TN11/0106Z BECMG 3112/3114 20010KT TEMPO 3112/3117 20015G27KT BECMG 3116/3118 29010KT TEMPO 3116/3119 29019G29KT PROB40 TEMPO 3116/3121 3000 RA BKN010 BECMG 3119/3123 23006KT", "TAF AMD LEBG 310900Z 3109/0109 16010KT 9999 SCT045 TX15/3115Z TN03/0104Z TEMPO 3110/3118 18015G30KT PROB40 TEMPO 3110/3122 3000 RA SHRA SCT030TCU PROB40 TEMPO 3122/0109 1500 BR BCFG BKN008 PROB40 TEMPO 0100/0109 0600 FG VV001", "TAF LEBL 311100Z 3112/0112 20006KT 9999 FEW020 TX24/3112Z TN15/0105Z BECMG 3120/3123 27008KT BECMG 0102/0104 35008KT PROB30 TEMPO 0102/0108 3000 SHRA FEW040TCU BECMG 0110/0112 09008KT", "TAF LEBR 310800Z 3109/0109 13012KT 9999 BKN020 TX21/3114Z TN10/0107Z TEMPO 3109/3113 12019G29KT PROB30 TEMPO 3115/0103 RA BECMG 3120/3124 VRB04KT", "TAF LEBZ 310800Z 3109/0109 21010KT 9999 SCT020 TX21/3115Z TN12/0106Z PROB40 TEMPO 3109/3118 4000 SHRA BKN014 SCT030CB PROB30 TEMPO 3122/0109 BKN014", "TAF AMD LECO 310904Z 3109/0109 27009KT 9999 SCT030 TX17/3110Z TN08/0103Z TEMPO 3109/3111 24017G27KT TEMPO 3110/3116 29017G29KT PROB40 TEMPO 3109/3112 3000 RA BKN010", "TAF LECV 311100Z 3112/0112 20008KT 9999 SCT020 BKN025 TX14/3115Z TN10/0106Z PROB40 TEMPO 3112/3119 2000 RA SHRA SCT030TCU PROB40 TEMPO 0100/0108 1200 BR BCFG BKN005 PROB30 TEMPO 0102/0108 0500 FG VV001", "TAF LEEC 310800Z 3109/0109 31005KT CAVOK TX25/3116Z TN16/0105Z BECMG 3109/3111 22010KT BECMG 3117/3119 VRB02KT", "TAF LEGA 311100Z 3112/0112 19010KT CAVOK TX29/3115Z TN12/0106Z BECMG 3117/3119 VRB02KT", "TAF LEGE 311100Z 3112/0112 18015KT 9999 FEW040 TX25/3113Z TN14/0105Z BECMG 3122/3124 VRB04KT PROB30 TEMPO 0102/0106 3000 SHRA FEW060CB", "TAF LEGR 311100Z 3112/0112 26010KT CAVOK TX29/3115Z TN10/0106Z BECMG 3118/3120 VRB02KT", "TAF LEGT 311100Z 3112/0112 21010KT 9999 SCT025 BKN040 TX18/3115Z TN12/0106Z PROB40 TEMPO 3112/3119 RA SHRA BKN014 SCT030TCU PROB40 TEMPO 0100/0108 1500 BR BCFG BKN008 PROB30 TEMPO 0102/0108 0800 FG VV002", "TAF LEHC 310800Z 3109/0109 11015KT 9999 SCT020 TX21/3113Z TN09/0105Z TEMPO 3115/3124 3000 SHRA FEW030CB PROB40 TEMPO 3115/3124 3000 TSRA FEW030CB BECMG 3117/3119 VRB04KT PROB30 TEMPO 0106/0109 0800 BCFG SCT001", "TAF AMD LEIB 311234Z 3112/0109 15008KT 9999 BKN020 TX24/3112Z TN15/0104Z PROB30 TEMPO 3113/3120 BKN014 BECMG 3117/3119 VRB04KT PROB30 TEMPO 0100/0106 3000 BR BKN010", "TAF LEJR 310800Z 3109/0109 18010KT CAVOK TX27/3115Z TN15/0106Z BECMG 3112/3114 24010KT BECMG 3117/3119 VRB02KT PROB30 TEMPO 3120/0107 4000 BR BKN014", "TAF LELC 311100Z 3112/0112 10010KT 9999 FEW020 TX24/3113Z TN16/0106Z BECMG 3117/3119 35004KT BECMG 0110/0112 10010KT", "TAF AMD LELL 311230Z 3112/0109 VRB03KT 9999 SCT020 BKN035 TX25/3112Z TN12/0105Z BECMG 3112/3114 19008KT BECMG 3117/3119 VRB04KT", "TAF LELN 310800Z 3109/0109 VRB05KT 9999 SCT015 BKN025 TX14/3115Z TN01/0104Z PROB40 TEMPO 3109/3110 3500 BR BCFG BKN006 PROB40 TEMPO 3109/3118 18010G25KT 0400 FG SHRA SCT030TCU PROB40 TEMPO 3109/3118 18010G25KT 1500 RA SHRA SCT030TCU PROB40 TEMPO 3122/0109 2500 BR BCFG BKN009 PROB30 TEMPO 0100/0109 0800 FG BKN004", "TAF LELO 310800Z 3109/0109 10010KT 9999 FEW015 SCT025 TX17/3115Z TN07/0104Z PROB40 TEMPO 3109/3114 10015G25KT BECMG 3112/3114 VRB05KT PROB30 TEMPO 3118/3124 RA SHRA SCT030TCU PROB40 TEMPO 3122/0109 2000 BR BCFG BKN010", "TAF AMD LEMD 311211Z 3112/0118 VRB05KT 9999 SCT025 BKN040 TX20/0115Z TN09/0106Z PROB40 TEMPO 3114/3118 22008KT PROB40 TEMPO 3112/3119 RA SHRA BKN014 SCT030TCU TEMPO 3120/0108 BKN008 PROB40 TEMPO 0102/0107 1500 BR BCFG BKN008", "TAF LEMG 311100Z 3112/0112 13005KT 9999 SCT020 TX25/3113Z TN17/0106Z BECMG 3117/3119 29006KT BECMG 0110/0112 13006KT", "TAF LEMH 310800Z 3109/0109 15010KT 9999 SCT020 TX25/3112Z TN16/0104Z BECMG 3123/0101 VRB04KT", "TAF LEMO 310800Z 3109/0109 VRB03KT CAVOK TX26/3115Z TN13/0106Z", "TAF LEPA 311100Z 3112/0112 20008KT 9999 FEW020 TX26/3112Z TN16/0105Z BECMG 3117/3119 05004KT PROB40 TEMPO 3120/0108 3000 BR BKN010 PROB30 TEMPO 3122/0106 0800 BCFG BKN002 BECMG 0109/0111 22008KT", "TAF LEPP 310800Z 3109/0109 17009KT 9999 FEW020 BKN030 TX19/3113Z TN09/0107Z PROB40 TEMPO 3109/3118 16017G27KT PROB30 TEMPO 3112/3118 RA PROB40 TEMPO 3120/0103 3000 RA BR BKN010", "TAF LERI 311100Z 3112/0112 VRB03KT 9999 FEW020 TX25/3114Z TN15/0106Z", "TAF LERL 310800Z 3109/0109 VRB05KT 9999 SCT020 SCT030 TX23/3115Z TN13/0107Z TEMPO 3109/3116 10010KT PROB40 TEMPO 3109/3114 10015G25KT PROB30 TEMPO 3119/0102 4000 RA SHRA SCT030TCU", "TAF LERS 310800Z 3109/0109 VRB04KT 9999 SCT020 SCT035 TX24/3112Z TN13/0105Z BECMG 3110/3112 18008KT BECMG 3118/3120 VRB04KT PROB40 TEMPO 3118/0103 28015KT 3000 SHRA FEW060CB", "TAF LERT 310800Z 3109/0109 18010KT CAVOK TX24/3115Z TN20/0106Z BECMG 3117/3119 VRB02KT PROB30 TEMPO 3118/0108 4000 BR BKN014", "TAF LESA 310800Z 3109/0109 VRB05KT 9999 SCT025 TX17/3115Z TN03/0105Z TEMPO 3109/3118 25010KT PROB40 TEMPO 3109/3118 25015G25KT RA SHRA SCT030TCU BKN040 PROB40 TEMPO 0100/0109 2500 BR BCFG BKN008 PROB40 TEMPO 0102/0109 0200 FG BKN006", "TAF LESO 311100Z 3112/0112 18009KT 9999 FEW020 TX22/3114Z TN13/0107Z PROB40 TEMPO 3112/3114 18015G25KT PROB30 TEMPO 3112/3118 RA BECMG 3116/3119 27010KT TEMPO 3118/0101 3000 RA BKN010 PROB40 TEMPO 3117/3120 27019G29KT", "TAF LEST 311100Z 3112/0112 31009KT 9999 SCT010 BKN020 TX16/3114Z TN07/0106Z PROB30 TEMPO 3112/3114 20010KT 3000 RA BKN010 PROB30 TEMPO 3112/3115 30015G25KT", "TAF LESU 310800Z 3109/0109 VRB03KT 9999 FEW025 TX20/3113Z TN06/0105Z TEMPO 3112/3115 22010KT TEMPO 3114/0102 3000 SHRA FEW040CB PROB40 TEMPO 3114/0102 3000 TSRA FEW040CB PROB40 TEMPO 0100/0108 3000 BR BKN010", "TAF LETO 311100Z 3112/0112 22010KT 9999 SCT025 BKN040 TX17/3115Z TN08/0106Z PROB40 TEMPO 3112/3119 RA SHRA BKN014 SCT030TCU BECMG 3118/3119 20006KT TEMPO 3120/0108 BKN008 PROB40 TEMPO 0102/0107 1500 BR BCFG BKN008", "TAF LEVC 311100Z 3112/0112 12006KT 9999 SCT025 TX24/3112Z TN17/0105Z BECMG 3115/3117 VRB04KT", "TAF LEVD 310800Z 3109/0109 VRB05KT 9999 SCT020 SCT030 TX17/3115Z TN05/0105Z PROB40 TEMPO 3109/3118 3000 RA SHRA SCT030TCU BKN040 TEMPO 3109/3120 20010KT PROB30 TEMPO 3110/3120 20015G25KT PROB40 TEMPO 0100/0109 2500 BR BCFG BKN006 PROB40 TEMPO 0102/0109 0100 FG VV001", "TAF LEVS 311100Z 3112/0112 21010KT 9999 SCT030 BKN040 TX17/3115Z TN11/0106Z PROB40 TEMPO 3112/3119 RA SHRA BKN014 SCT030TCU PROB40 TEMPO 3120/0107 BKN008 PROB40 TEMPO 0100/0108 1500 BR BCFG BKN008 PROB30 TEMPO 0102/0108 0800 FG VV002", "TAF LEVT 311100Z 3112/0112 22009KT 9999 OVC032 TX18/3113Z TN09/0107Z TEMPO 3112/3115 16010KT TEMPO 3112/3115 16015G25KT TEMPO 3114/3118 22015G25KT PROB30 TEMPO 3114/3120 RA PROB40 TEMPO 3120/0102 3000 RA BKN010", "TAF LEVX 311100Z 3112/0112 31009KT 9999 SCT010 BKN020 TX16/3114Z TN07/0106Z PROB30 TEMPO 3112/3114 20010KT 3000 RA BKN010 PROB30 TEMPO 3112/3115 30015G25KT", "TAF LEXJ 310800Z 3109/0109 20009KT 9999 FEW020 BKN040 TX22/3115Z TN12/0103Z TEMPO 3109/3117 20015G25KT PROB40 TEMPO 3114/3117 20022G35KT BECMG 3115/3117 28012KT PROB40 TEMPO 3115/3121 28015G25KT 3000 RA BKN010 PROB40 TEMPO 3115/3118 28025G35KT BECMG 3120/3122 20007KT", "TAF LEZG 311100Z 3112/0112 12008KT 9999 FEW010 TX23/3113Z TN13/0105Z BECMG 3114/3116 22007KT PROB40 TEMPO 3114/3124 4000 SHRA FEW060TCU PROB30 TEMPO 3114/3124 3000 TSRA FEW060CB BECMG 0100/0102 28008KT BECMG 0109/0111 VRB04KT", "TAF LEZL 310800Z 3109/0109 VRB03KT CAVOK TX25/3116Z TN16/0105Z TEMPO 3111/3115 25010KT", "TAF LFAQ 311100Z 3112/3121 12010KT CAVOK BECMG 3118/3120 19020G30KT TEMPO 3118/3121 4000 RA BKN014 OVC040", "TAF LFAT 311100Z 3112/3121 13010KT CAVOK BECMG 3118/3120 19015G25KT TEMPO 3119/3121 4000 RA BKN014 OVC040", "TAF LFBA 311100Z 3112/3121 14010KT CAVOK BECMG 3117/3119 26010KT PROB30 TEMPO 3117/3119 28015G35KT -TSRA SCT060CB BKN080 TEMPO 3119/3121 -RA SCT035TCU BKN060", "TAF LFBC 310800Z 3109/0109 16006KT CAVOK BECMG 3112/3114 4900 -RA TEMPO 3115/3120 20015G25KT SHRA BKN050TCU BECMG 3118/3120 27012KT 9999 NSW TEMPO 3118/3122 28015G30KT BECMG 0104/0106 VRB02KT", "TAF LFBD 311100Z 3112/0118 18008KT CAVOK TX20/3113Z TN10/0103Z TEMPO 3112/3120 -SHRA BKN050TCU PROB30 TEMPO 3116/3120 20015G25KT 3000 TSRA BKN020CB BECMG 3120/3122 26010KT BECMG 0100/0102 20004KT", "TAF LFBE 311100Z 3112/0112 17012KT CAVOK TEMPO 3112/3122 20015G25KT SHRA BKN040TCU PROB30 TEMPO 3116/3122 3000 TSRA BKN010 BKN030CB BECMG 3122/3124 25005KT", "TAF LFBG 310800Z 3109/0109 15012KT CAVOK BECMG 3111/3113 4000 -RA SCT040 BKN060 TEMPO 3113/3122 16015G25KT 2000 SHRA BKN030CB", "TAF LFBH 311100Z 3112/0112 15010KT CAVOK BECMG 3112/3114 16015G30KT TEMPO 3112/3120 3000 SHRA BKN025CB PROB40 TEMPO 3117/3120 21025G40KT BECMG 3118/3122 26020G37KT 9999 SCT030 BECMG 0100/0102 26015G27KT BECMG 0102/0104 25011KT", "TAF LFBI 311100Z 3112/0112 17010KT CAVOK BECMG 3112/3114 20016G30KT TEMPO 3114/3121 3000 SHRA BKN014 BKN025CB PROB40 TEMPO 3118/3121 20020G40KT FM312100 24020G35KT 9999 SCT025 BECMG 3121/3124 25011KT", "TAF LFBL 311100Z 3112/0112 18015KT CAVOK TEMPO 3112/3116 19015G25KT BKN050TCU TEMPO 3116/3122 22015G30KT 3000 SHRA BKN030TCU PROB30 TEMPO 3116/3122 TSRA BKN008 BKN025CB BECMG 3122/3124 25010KT PROB40 TEMPO 3122/0108 BKN007", "TAF LFBM 310800Z 3109/0109 09005KT CAVOK TEMPO 3116/3123 4000 SHRA BKN045TCU", "TAF LFBO 311100Z 3112/0118 14013KT CAVOK PROB40 TEMPO 3112/3117 14015G25KT BECMG 3119/3121 28010KT PROB30 TEMPO 3119/3122 VRB15G30KT 4000 SHRA SCT050CB BKN130 PROB40 TEMPO 3122/0101 28015G30KT -RA BKN020 SCT040TCU BECMG 0102/0104 22005KT BECMG 0106/0108 VRB03KT PROB40 TEMPO 0111/0117 SCT035", "TAF LFBP 311100Z 3112/0112 12005KT CAVOK BECMG 3112/3114 22007KT BECMG 3115/3117 BKN090 PROB40 TEMPO 3116/3119 -SHRA SCT060CB BECMG 3119/3121 28010KT BKN035 TEMPO 3119/0101 4000 -RA BKN014 PROB30 TEMPO 3120/3122 29015G35KT BECMG 0100/0102 20004KT BECMG 0105/0107 12005KT BECMG 0107/0109 CAVOK", "TAF LFBT 311100Z 3112/0112 20008KT CAVOK BECMG 3116/3118 VRB03KT BKN090 PROB30 TEMPO 3117/3119 28015G25KT -SHRA SCT035CB BECMG 3120/3122 27010KT TEMPO 3120/0101 4000 RA BKN011 BECMG 0101/0103 VRB03KT BKN040 BECMG 0105/0107 CAVOK", "TAF LFBU 311100Z 3112/0112 19013KT CAVOK TEMPO 3112/3115 20015G25KT -SHRA BKN050TCU TEMPO 3115/3121 22015G30KT 3000 SHRA BKN030TCU PROB30 TEMPO 3115/3121 SCT030CB BECMG 3121/3123 25010KT BECMG 0102/0104 18005KT", "TAF LFBZ 311100Z 3112/0112 10005KT CAVOK TEMPO 3112/3122 20015G25KT SHRA BKN030TCU PROB30 TEMPO 3115/3122 TSRA BKN008 BKN030CB BECMG 3122/3124 28010KT BECMG 0103/0105 21005KT", "TAF LFCK 311100Z 3112/3121 13025G35KT CAVOK", "TAF LFCR 311100Z 3112/0112 14018G28KT CAVOK BECMG 3121/3123 27010KT TEMPO 3121/0101 4000 SHRA BKN014 SCT030CB PROB40 TEMPO 3121/3124 28015G30KT -TSRA BECMG 0101/0103 BKN012 BECMG 0104/0106 VRB03KT BKN020 BECMG 0108/0110 SCT025", "TAF LFGJ 311100Z 3112/3121 19012KT CAVOK TEMPO 3113/3121 19015G25KT", "TAF LFJL 311100Z 3112/0112 13006KT CAVOK BECMG 3121/3124 22010KT BKN020 TEMPO 0100/0109 4500 RA BKN014 PROB40 TEMPO 0103/0109 23015G25KT", "TAF LFKB 310800Z 3109/0109 22004KT 9999 FEW010 TX22/3112Z TN12/0105Z BECMG 3109/3111 05006KT TEMPO 3111/3121 BKN010 PROB30 TEMPO 3121/0106 5000 BR BECMG 3117/3119 23005KT", "TAF LFKC 310800Z 3109/0109 18005KT CAVOK TX24/3113Z TN11/0106Z BECMG 3109/3110 35006KT BECMG 3116/3118 18004KT", "TAF LFKF 310800Z 3109/0109 23006KT CAVOK BECMG 3117/3119 05004KT", "TAF LFKJ 310800Z 3109/0109 04005KT CAVOK BECMG 3110/3112 23010KT BECMG 3118/3119 04005KT", "TAF LFLB 310800Z 3109/0109 VRB03KT CAVOK BECMG 3118/3120 22010KT BECMG 3123/0102 BKN040 TEMPO 0102/0108 4000 RA SCT035TCU OVC040 PROB30 TEMPO 0103/0106 VRB15KT 2000 +RA SCT020CB BKN030", "TAF LFLC 311100Z 3112/0112 18015G28KT CAVOK BECMG 3119/3123 18010KT TEMPO 3121/0102 4000 RA SCT040TCU OVC050 PROB30 TEMPO 3121/3124 26020G35KT 2000 TSRA BKN040CB BECMG 0100/0102 24010KT 9999 BKN030 BECMG 0108/0110 CAVOK", "TAF LFLL 311100Z 3112/0118 18015KT CAVOK TEMPO 3112/3122 18020G33KT TEMPO 3122/0101 RA FEW030TCU BKN090 TEMPO 0101/0104 3000 RA BKN014 PROB40 TEMPO 0101/0103 20020G35KT TSRA SCT040CB PROB30 TEMPO 0104/0107 VRB03KT -RA BKN012 BECMG 0107/0109 02008KT BKN045 BECMG 0114/0116 CAVOK", "TAF LFLN 311100Z 3112/3121 18010KT CAVOK PROB30 TEMPO 3112/3121 18015G25KT", "TAF LFLP 310800Z 3109/0109 VRB03KT CAVOK BECMG 3123/0102 BKN040 TEMPO 0102/0103 4000 RA SCT030TCU OVC040 PROB30 TEMPO 0103/0106 VRB15KT 2000 +RA SCT015CB BKN025", "TAF LFLS 310800Z 3109/0109 09005KT CAVOK BECMG 3109/3111 22009KT PROB30 TEMPO 3115/3122 22015G25KT BECMG 3122/3124 BKN040 TEMPO 0100/0106 4000 RA SCT030TCU OVC040 PROB30 TEMPO 0101/0105 VRB15G30KT 2000 TSRA SCT015 BKN040CB", "TAF LFLW 311100Z 3112/3121 13012KT CAVOK TEMPO 3112/3115 14015G27KT TEMPO 3117/3121 3000 RA BKN020 SCT030CB PROB30 TEMPO 3119/3121 VRB15G25KT 1300 TSRA SCT010 BKN020CB", "TAF LFLX 311100Z 3112/0118 18010KT CAVOK TEMPO 3115/0101 22015G25KT 4000 SHRA SCT040TCU PROB40 TEMPO 3115/0101 22020G33KT PROB40 TEMPO 3115/3120 2500 TSRA SCT030CB BECMG 3122/3124 25015KT BECMG 0104/0106 19008KT", "TAF LFLY 311100Z 3112/0112 18012KT CAVOK TEMPO 3112/3122 18015G30KT TEMPO 3122/0101 RA FEW030TCU BKN090 TEMPO 0101/0104 3000 RA BKN014 PROB40 TEMPO 0101/0103 20020G35KT TSRA SCT040CB PROB30 TEMPO 0104/0107 VRB03KT -RA BKN012 BECMG 0107/0109 02008KT BKN045", "TAF LFMD 310800Z 3109/0109 VRB03KT CAVOK PROB40 TEMPO 3115/3121 BKN010 BECMG 3122/3123 36010KT BKN015 BECMG 0104/0106 VRB15KT RA BKN009", "TAF LFMI 310800Z 3109/0109 12012KT 9999 BKN035 TX24/3112Z TN17/0106Z TEMPO 3112/0104 15015G25KT TEMPO 3123/0107 4000 SHRA BKN014 BKN020TCU PROB40 TEMPO 0101/0107 VRB20G30KT 2000 TSRA BKN009 BKN020CB BECMG 0104/0106 VRB05KT TEMPO 0107/0109 BKN014", "TAF LFMK 310800Z 3109/0109 08015KT 9999 BKN014 BECMG 3109/3111 SCT020 TEMPO 3109/3120 09017G27KT BECMG 3111/3113 CAVOK BECMG 3120/3122 VRB03KT BECMG 3123/0101 27010KT BKN025 PROB30 TEMPO 0100/0103 28022G35KT -RA BKN013 BECMG 0106/0108 CAVOK", "TAF LFML 310800Z 3109/0115 13012KT 9999 BKN030 TX25/3112Z TN18/0106Z TEMPO 3123/0106 14015G25KT TEMPO 3123/0108 4000 SHRA BKN014 BKN020TCU PROB40 TEMPO 0101/0108 VRB20G30KT 2000 TSRA BKN009 BKN020CB BECMG 0106/0108 34006KT BECMG 0109/0111 CAVOK", "TAF LFMN 310800Z 3109/0115 12010KT CAVOK PROB40 TEMPO 3115/3121 BKN010 BECMG 3122/3123 33010KT BKN015 BECMG 0104/0106 VRB15KT RA BKN009 BECMG 0109/0111 NSW BECMG 0112/0114 11008KT CAVOK", "TAF LFMO 310800Z 3109/0109 17010KT 9999 BKN020 BKN030 BECMG 3110/3112 SCT050 TEMPO 3111/3121 3100 SHRA BKN030TCU PROB30 TEMPO 3112/0103 TSRA BKN030CB", "TAF LFMP 310800Z 3109/0109 VRB03KT CAVOK BECMG 3110/3112 17017G27KT TEMPO 3112/3116 17020G30KT BECMG 0100/0102 33020G33KT BECMG 0103/0105 33012KT", "TAF AMD LFMT 311001Z 3110/0109 14013KT 9999 SCT020 BKN040 TEMPO 3110/3124 OVC007 TEMPO 3121/0103 4000 RA SCT030TCU BECMG 0103/0105 FEW020 BKN090 TEMPO 3113/0102 14015G25KT", "TAF LFMU 310800Z 3109/0109 12010KT 9999 BKN010 BKN025 TEMPO 3109/3121 OVC008 BECMG 3110/3112 12015G25KT BECMG 3122/3124 26006KT", "TAF LFMV 310800Z 3109/0109 14012KT 9999 BKN035 TEMPO 3112/3116 16015G25KT TEMPO 3121/0104 14015G25KT TEMPO 3123/0101 4000 SHRA SCT070TCU TEMPO 0101/0107 VRB20G30KT 2000 TSRA BKN012 BKN025CB BECMG 0104/0106 06006KT", "TAF LFOB 311100Z 3112/0112 12012KT CAVOK BECMG 3112/3114 18012KT BECMG 3116/3119 18015G25KT TEMPO 3117/3123 4000 RA BKN014 OVC040 FM312330 22020G35KT 9999 SCT025 TEMPO 0100/0103 4000 SHRA BKN020TCU BECMG 0104/0106 22015G25KT", "TAF LFOE 310800Z 3109/0109 11006KT CAVOK BECMG 3116/3117 17015G25KT 4000 RA SCT010 BKN015 BKN020TCU PROB40 TEMPO 3117/3119 18020G30KT 2000 TSRA BKN015CB BECMG 3120/3121 20015G25KT 9999 NSW BKN020 TEMPO 3122/0104 21020G35KT 4000 SHRA BKN030TCU PROB40 TEMPO 3122/3124 23020G40KT 2000 TSRA BKN015CB", "TAF LFOH 311100Z 3112/0112 12013KT CAVOK BECMG 3113/3116 18015G25KT TEMPO 3118/3123 4000 RA BKN014 OVC040 FM312300 22025G40KT 9999 SCT025 TEMPO 3123/0102 3000 SHRA BKN020TCU BECMG 0104/0106 21020G30KT", "TAF LFOJ 310800Z 3109/0109 09007KT CAVOK TX21/3114Z TN10/0103Z BECMG 3111/3113 18012KT TEMPO 3115/3124 4000 -SHRA SCT040TCU PROB40 TEMPO 3116/3122 22020G30KT 2000 SHRA BKN012 SCT040CB BECMG 3122/0102 24012KT", "TAF LFOK 311100Z 3112/0112 16012KT CAVOK BECMG 3118/3120 18020G30KT TEMPO 3120/0101 4000 RA FM010130 21025G35KT 9999 SCT030 BECMG 0103/0105 22015G25KT BECMG 0105/0108 22012KT", "TAF LFOP 311100Z 3112/0112 12013KT CAVOK BECMG 3114/3117 18015G25KT TEMPO 3117/3123 4000 RA BKN014 OVC040 FM312300 22020G35KT 9999 SCT025 TEMPO 3123/0102 4000 SHRA BKN020TCU BECMG 0104/0106 22015G25KT", "TAF LFOT 311100Z 3112/0112 19010KT CAVOK TEMPO 3114/0101 19015G25KT 4000 SHRA SCT040CB PROB40 TEMPO 3114/3117 20018G35KT 2000 TSRA BKN040CB PROB40 TEMPO 3121/0101 24020G35KT BECMG 0101/0103 25013KT BECMG 0106/0108 19008KT TEMPO 0111/0112 19015G25KT", "TAF LFPB 311100Z 3112/0112 11010KT CAVOK TEMPO 3117/0101 4000 SHRA BKN014 SCT030TCU BECMG 3119/3121 20015G30KT BECMG 0105/0107 22010G20KT BECMG 0111/0112 21020G30KT", "TAF LFPG 311100Z 3112/0118 14010KT CAVOK TX20/3115Z TN11/0107Z TEMPO 3117/0101 4000 SHRA BKN014 SCT030TCU BECMG 3119/3121 20018G28KT BECMG 0106/0108 22010KT BECMG 0111/0113 21020G30KT", "TAF LFPN 311100Z 3112/3121 15010KT CAVOK TEMPO 3116/3120 17015G25KT 4000 SHRA SCT030CB PROB40 TEMPO 3117/3119 17020G35KT 2000 TSRA BKN030CB", "TAF LFPO 311100Z 3112/0118 16010KT 9999 SCT030 TEMPO 3117/3121 18015G25KT 4000 SHRA BKN025TCU PROB30 TEMPO 3117/3121 18020G35KT 2000 TSRA BKN012 SCT025CB BECMG 3121/3123 20015G25KT PROB30 TEMPO 3121/3123 4000 -RA TEMPO 3123/0106 20020G35KT PROB40 TEMPO 0117/0118 21015G35KT 3000 SHRA SCT025CB", "TAF LFPV 310800Z 3109/0109 08007KT CAVOK TX20/3115Z TN11/0105Z BECMG 3117/3118 22015G25KT 4000 RA TEMPO 3119/0101 22015G30KT 3000 SHRA BKN025CB PROB40 TEMPO 3120/0101 22020G35KT 2500 TSRA BKN020CB BECMG 0102/0103 20015KT 9999 OVC020 TEMPO 0103/0106 22015G25KT", "TAF LFQQ 311100Z 3112/0118 12010KT CAVOK BECMG 3113/3115 18012KT BECMG 3117/3119 18015G25KT TEMPO 3119/3124 4000 RA BKN014 OVC040 FM010030 22020G35KT 9999 SCT025 TEMPO 0101/0104 4000 SHRA BKN020TCU", "TAF LFRB 311100Z 3112/0118 15015G25KT 9999 SCT025 PROB40 TEMPO 3112/3115 BKN012 TEMPO 3115/3121 16020G30KT 3000 SHRA BKN008 BKN020CB PROB30 TEMPO 3118/3121 TSRA BECMG 3118/3120 28025G45KT PROB40 TEMPO 3120/3123 26030G55KT BECMG 3122/0101 24015G30KT BECMG 0103/0106 22020G40KT TEMPO 0104/0118 24020G45KT 4000 SHRA BKN015CB PROB40 TEMPO 0108/0115 2000 TSRAGS", "TAF LFRC 311100Z 3112/3121 13010KT 9999 SCT008 BKN040 PROB40 TEMPO 3113/3121 16015G25KT 4000 SHRA BKN008 BKN030CB BECMG 3119/3121 18020G30KT", "TAF LFRD 311100Z 3112/0112 13012KT 9999 SCT010 BKN040 PROB40 TEMPO 3112/3115 BKN008 BECMG 3116/3118 17015G30KT TEMPO 3117/3124 3000 SHRA BKN008 BKN015CB TEMPO 3120/3124 23020G40KT BECMG 0100/0103 23013KT BECMG 0106/0108 21015G30KT PROB40 TEMPO 0106/0110 4000 SHRA BKN020TCU TEMPO 0110/0112 21025G40KT 4000 SHRA BKN020CB PROB30 0110/0112 2000 TSRAGS", "TAF LFRG 311100Z 3112/3121 14010KT 9999 SCT020 PROB40 TEMPO 3112/3114 BKN010 PROB40 TEMPO 3115/3118 16015G25KT 3000 SHRA SCT008 BKN030CB", "TAF AMD LFRH 311212Z 3112/0112 13010KT 9999 OVC008 BECMG 3113/3115 18015G25KT BKN020 TEMPO 3113/3121 4000 SHRA BKN008 SCT012CB OVC025 BECMG 3116/3118 22020G40KT TEMPO 3120/3122 27030G50KT BECMG 3123/0101 25020G30KT TEMPO 0105/0112 SCT018TCU BKN020 PROB40 TEMPO 0110/0112 4000 SHRA SCT010CB BKN015 BECMG 0109/0111 22020G40KT", "TAF LFRI 311100Z 3112/0112 16010KT CAVOK BECMG 3112/3114 18015G25KT TEMPO 3112/3120 3000 SHRA BKN010 BKN020CB BECMG 3118/3122 26020G35KT 9999 SCT030 BECMG 3122/3124 26015G25KT BECMG 0100/0102 26010KT BECMG 0109/0112 22015G25KT", "TAF LFRK 311100Z 3112/3121 13007KT 9999 SCT005 BKN040 PROB40 TEMPO 3112/3114 BKN008 PROB40 TEMPO 3115/3118 16015G25KT 3000 SHRA SCT008 BKN030CB", "TAF LFRM 311100Z 3112/0112 17010KT 9999 BKN040 TEMPO 3114/3122 3000 SHRA BKN012 BKN020CB PROB40 TEMPO 3120/3122 20020G37KT FM312300 24015G25KT 9999 SCT025 BECMG 0101/0103 22010KT BECMG 0109/0112 21015G25KT", "TAF LFRN 311100Z 3112/0112 13010KT 7000 SCT008 BKN040 PROB40 TEMPO 3112/3115 BKN008 PROB40 TEMPO 3115/3118 15015G25KT TEMPO 3116/3121 3000 SHRA BKN008 BKN015CB BECMG 3117/3119 20020G30KT TEMPO 3120/3124 23020G40KT BECMG 0100/0103 22012KT PROB40 TEMPO 0106/0110 4000 SHRA BKN020TCU TEMPO 0110/0112 21020G35KT 4000 SHRA BKN020CB PROB30 0110/0112 2000 TSRAGS", "TAF LFRQ 311100Z 3112/0112 15015G25KT 9999 BKN015 PROB40 TEMPO 3112/3114 BKN008 PROB40 TEMPO 3114/3121 3000 SHRA BKN008 BKN020CB BECMG 3115/3117 20020G35KT PROB30 TEMPO 3117/3120 TSRA BECMG 3118/3120 26020G40KT TEMPO 3118/3122 28030G50KT BECMG 3121/3124 26018G30KT TEMPO 0104/0112 22025G45KT 4000 SHRA BKN015CB PROB40 TEMPO 0108/0112 22030G45KT 2000 TSRAGS", "TAF LFRS 311100Z 3112/0118 14010KT CAVOK BECMG 3112/3114 17015G25KT BKN020 BECMG 3115/3117 20020G30KT TEMPO 3112/3120 3000 SHRA BKN012 BKN020CB PROB40 TEMPO 3117/3120 22025G42KT FM312000 25020G35KT 9999 SCT030 BECMG 3123/0101 25012KT BECMG 0107/0109 22017G30KT PROB40 TEMPO 0109/0118 4500 SHRA BKN025TCU", "TAF LFRZ 311100Z 3112/0112 13010KT CAVOK BECMG 3112/3114 18015G25KT BKN020 BECMG 3114/3116 18020G35KT TEMPO 3112/3120 3000 SHRA BKN012 BKN020CB PROB40 TEMPO 3117/3120 21025G45KT BECMG 3118/3122 26025G42KT 9999 SCT030 BECMG 3122/3124 26018G30KT BECMG 0100/0104 25012G24KT BECMG 0107/0109 22017G30KT PROB40 TEMPO 0109/0112 4500 SHRA BKN025TCU ", "TAF LFSB 311100Z 3112/0112 16006KT CAVOK BECMG 0100/0103 BKN045 TEMPO 0103/0106 -RA PROB40 TEMPO 0104/0106 25010KT 2000 RA BKN014 FEW030TCU TEMPO 0109/0112 28012KT", "TAF LFSI 310800Z 3109/0109 15005KT CAVOK BECMG 3120/3123 23012KT TEMPO 3122/0104 23015G35KT 3000 SHRA BKN050CB", "TAF LFSL 311100Z 3112/3121 16010KT 9999 SCT030 TEMPO 3113/3121 15015G25KT SHRA BKN050TCU PROB30 TEMPO 3116/3121 3000 TSRA BKN040CB", "TAF LFST 311100Z 3112/0112 VRB03KT CAVOK PROB30 TEMPO 3118/3121 4500 BR BECMG 0100/0102 20010KT FEW030 BKN050 TEMPO 0102/0109 -RA", "TAF LFTH 310800Z 3109/0109 02003KT 9999 BKN025 BECMG 3109/3111 10012KT TEMPO 3111/3115 -SHRA FEW080TCU TEMPO 3117/0103 BKN005 PROB40 TEMPO 0100/0103 VRB03KT 3000 BR TEMPO 0105/0109 VRB15G25KT 2000 TSRA BKN010 BKN020CB BECMG 0107/0109 03006KT", "TAF LFTW 310800Z 3109/0109 10010KT 9999 BKN020 TEMPO 3109/3112 BKN009 BECMG 3110/3112 16012KT TEMPO 3112/0105 15015G25KT 4000 SHRA BKN012 BKN020CB PROB40 TEMPO 3120/0105 VRB20G30KT 2000 TSRA BKN009 BKN020CB BECMG 0103/0105 29010KT", "TAF LFVP 311100Z 3112/3121 22015KT 9999 FEW015 BECMG 3113/3116 24020KT", "TAF LGAL 311100Z 3112/3121 05014KT 9999 FEW025", "TAF LGAV 311100Z 3112/0112 03015KT 9999 FEW025 BECMG 0107/0109 02018G28KT", "TAF LGEL 311100Z 3112/0112 36010KT 9999 FEW025 BECMG 0107/0109 36014G24KT", "TAF LGHI 311100Z 3112/3121 01012KT 9999 FEW020 TEMPO 3115/3120 01012G22KT", "TAF LGIO 311100Z 3112/3121 VRB03KT 9999 FEW025", "TAF LGIR 311100Z 3112/0112 31012KT 9999 SCT025 BECMG 0104/0106 FEW018 BKN030", "TAF LGKC 311100Z 3112/3121 04010KT 9999 FEW018 BECMG 3114/3116 VRB05KT", "TAF LGKF 311100Z 3112/3121 VRB05KT 9999 FEW018", "TAF LGKO 311100Z 3112/0112 34012KT 9999 FEW020", "TAF LGKR 311100Z 3112/0112 VRB05KT 9999 FEW018", "TAF LGKV 311100Z 3112/0112 VRB03KT 9999 FEW025 SCT080 BECMG 3112/3114 FEW030", "TAF LGMK 311100Z 3112/3121 36015KT 9999 FEW020 BECMG 3115/3117 36015G25KT", "TAF LGMT 311100Z 3112/3121 01012KT 9999 FEW020 TEMPO 3115/3118 05012G22KT", "TAF LGPZ 311100Z 3112/0112 28010KT 9999 FEW020 BECMG 3118/3120 08008KT", "TAF LGRP 311100Z 3112/0112 27014KT 9999 FEW020", "TAF LGSA 311100Z 3112/0112 VRB05KT 9999 FEW020 BECMG 0105/0107 36010KT FEW018 BKN030", "TAF LGSK 311100Z 3112/3121 35012KT 9999 FEW016", "TAF LGSM 311100Z 3112/3121 36010KT 9999 FEW020", "TAF LGSR 311100Z 3112/0112 34012KT 9999 FEW018", "TAF LGST 311100Z 3112/3121 30012KT 9999 FEW020", "TAF LGTS 311100Z 3112/0112 VRB03KT 9999 FEW030", "TAF LGZA 311100Z 3112/3121 VRB05KT 9999 FEW018", "TAF LHBP 311115Z 3112/0112 VRB03KT 3000 -DZ BR OVC004 TEMPO 3112/3118 7000 NSW BKN010 BECMG 3112/3115 11005KT TEMPO 3120/0108 0500 FG VV001", "TAF LHDC 311115Z 3112/3121 VRB02KT 9999 OVC010 TEMPO 3112/3115 5000 BR OVC005 BECMG 3115/3118 3000 BR OVC002", "TAF LHKE 311115Z 3112/3121 VRB03KT 3000 BR OVC005 TEMPO 3112/3116 5000 BR BKN010 BECMG 3116/3119 0800 FG OVC002", "TAF LHPA 311115Z 3112/0112 VRB03KT 3000 BR OVC003 TEMPO 3112/3115 1500 -DZ BR BECMG 3115/3118 0800 FG OVC002 TEMPO 3118/3124 0150 FG -DZ VV002 BECMG 0100/0103 17010KT 5000 BR SCT007 SCT200 BECMG 0104/0107 8000 NSW SCT010 BKN200 TEMPO 0107/0112 20010G20KT", "TAF LHPP 311115Z 3112/3121 VRB02KT 0350 FG VV002 PROB40 TEMPO 3112/3115 1500 BR FEW010 SCT200 BECMG 3115/3118 0100 FG OVC002", "TAF LHPR 311115Z 3112/3121 VRB02KT 9999 OVC007 TEMPO 3112/3115 5000 BR OVC003 BECMG 3115/3118 0800 FG OVC002 TEMPO 3118/3121 0300 FG OVC001", "TAF LHSM 311115Z 3112/3121 VRB02KT 0800 FG VV002 PROB40 TEMPO 3112/3115 4000 BR SCT004 SCT180 BECMG 3115/3118 0300 FG OVC002 TEMPO 3118/3121 0100 OVC001", "TAF LHSN 311115Z 3112/3121 VRB02KT 5000 BR OVC007 BECMG 3112/3114 7000 NSW BKN015 PROB30 TEMPO 3114/3118 8000 NSC BECMG 3119/3121 3000 BR NSC", "TAF LIBA 311100Z 3112/3121 28008KT CAVOK BECMG 3112/3114 09008KT", "TAF LIBC 311100Z 3112/0112 02012KT CAVOK", "TAF LIBD 311100Z 3112/0112 34012KT CAVOK BECMG 3116/3118 22007KT BECMG 0107/0109 03010KT", "TAF LIBF 311100Z 3112/0112 33012KT CAVOK BECMG 3116/3118 26007KT BECMG 0107/0109 08010KT", "TAF LIBG 311100Z 3112/3121 02010KT CAVOK", "TAF LIBN 311100Z 3112/3121 36015KT CAVOK BECMG 3119/3121 34005KT 5000 BR SCT008", "TAF LIBP 311100Z 3112/0112 05010KT CAVOK BECMG 3115/3117 22006KT BECMG 0107/0109 04010KT", "TAF LIBR 311100Z 3112/0112 33016KT 8000 SCT010 BECMG 0100/0102 32006KT", "TAF LIBV 311100Z 3112/3121 36012KT 9999 SCT035 BECMG 3118/3120 35006KT CAVOK", "TAF LICA 311100Z 3112/0112 24010KT 9999 SCT020 BECMG 3117/3119 VRB05KT BECMG 0110/0112 26010KT", "TAF LICB 311100Z 3112/0112 26010KT 9999 FEW020 BECMG 3116/3118 VRB05KT", "TAF LICC 311100Z 3112/0112 08010KT 9999 FEW030 BECMG 3116/3118 VRB05KT BECMG 0110/0112 08010KT", "TAF LICD 311100Z 3112/0112 24007KT 9999 SCT030", "TAF LICG 311100Z 3112/3121 12008KT CAVOK", "TAF LICJ 311100Z 3112/0112 03010KT CAVOK BECMG 3117/3119 VRB05KT BECMG 0110/0112 02010KT", "TAF LICR 311100Z 3112/0112 36012KT 9999 FEW020", "TAF LICT 311100Z 3112/3121 32006KT CAVOK BECMG 3117/3119 05006KT TEMPO 3119/3121 5000 BR", "TAF LICZ 311100Z 3112/0112 VRB03KT CAVOK TEMPO 3114/3119 09007KT BECMG 3119/3121 28007KT", "TAF LIEA 311100Z 3112/0112 VRB05KT 9999 FEW040 TEMPO 0100/0105 3000 MIFG", "TAF LIED 311200Z 3112/3121 15010KT 9999 FEW020", "TAF LIEE 311100Z 3112/0112 16010KT 9999 FEW030 BECMG 3117/3119 34007KT BECMG 0110/0112 16010KT", "TAF LIEO 311100Z 3112/0112 08010KT 9999 SCT020 BECMG 3117/3119 VRB05KT", "TAF LIMC 311100Z 3112/0118 VRB05KT CAVOK TEMPO 3123/0106 4000 BR", "TAF LIME 311100Z 3112/0112 VRB05KT CAVOK", "TAF LIMF 311100Z 3112/0112 VRB04KT CAVOK", "TAF LIMG 311100Z 3112/0112 08010KT CAVOK BECMG 3114/3116 VRB05KT", "TAF LIMJ 311100Z 3112/0112 VRB05KT 9999 FEW012 BECMG 0108/0110 16010KT", "TAF LIML 311100Z 3112/0112 VRB05KT CAVOK", "TAF LIMN 311100Z 3112/3121 VRB03KT CAVOK", "TAF LIMP 311100Z 3112/0112 VRB05KT CAVOK", "TAF LIMW 311100Z 3112/3121 VRB04KT CAVOK TEMPO 3112/3116 10010KT", "TAF LIMZ 311100Z 3112/0112 VRB04KT CAVOK", "TAF LIPA 311100Z 3112/3121 VRB03KT CAVOK", "TAF LIPB 311100Z 3112/0112 VRB04KT CAVOK", "TAF LIPC 311100Z 3112/3121 06005KT CAVOK", "TAF LIPE 311100Z 3112/0112 VRB05KT CAVOK", "TAF LIPH 311100Z 3112/0112 VRB04KT 8000 NSC BECMG 3119/3121 1200 BCFG TEMPO 3122/0106 0600 FG OVC001 BECMG 0109/0111 7000", "TAF LIPI 311100Z 3112/3121 VRB03KT CAVOK", "TAF LIPK 311100Z 3112/0112 VRB05KT CAVOK TEMPO 0102/0106 3000 BR", "TAF LIPL 311100Z 3112/3121 VRB03KT CAVOK", "TAF LIPO 311100Z 3112/0112 VRB05KT CAVOK", "TAF LIPQ 311100Z 3112/0112 VRB05KT 8000 NSC TEMPO 3118/0106 1200 BCFG BKN004", "TAF LIPR 311100Z 3112/0112 VRB05KT CAVOK", "TAF LIPS 311100Z 3112/3121 06004KT CAVOK", "TAF LIPX 311100Z 3112/0112 VRB05KT CAVOK TEMPO 3123/0107 4000 BR", "TAF LIPY 311100Z 3112/0112 04010KT CAVOK BECMG 3117/3119 20007KT", "TAF LIPZ 311100Z 3112/0118 VRB05KT 7000 NSC BECMG 3117/3120 1200 BCFG TEMPO 3122/0108 0350 FG OVC001 BECMG 0110/0112 4000 BR", "TAF LIQW 311100Z 3112/3121 VRB03KT CAVOK", "TAF LIRA 311100Z 3112/0112 VRB05KT CAVOK", "TAF LIRE 311100Z 3112/3121 29008KT CAVOK", "TAF COR LIRF 311151Z 3112/0118 29010KT CAVOK BECMG 3117/3119 VRB05KT TEMPO 3123/0104 2000 BR", "TAF LIRG 311100Z 3112/3121 25005KT CAVOK", "TAF LIRL 311100Z 3112/3121 24006KT CAVOK", "TAF LIRM 311100Z 3112/3121 25006KT CAVOK", "TAF LIRN 311100Z 3112/0112 VRB04KT CAVOK", "TAF LIRP 311100Z 3112/0112 VRB03KT CAVOK", "TAF LIRQ 311100Z 3112/0112 VRB04KT CAVOK TEMPO 0100/0105 3000 BR", "TAF LIRS 311100Z 3112/3121 23005KT CAVOK", "TAF LIRU 311100Z 3112/3121 VRB05KT CAVOK", "TAF LIRV 311100Z 3112/3121 34005KT CAVOK", "TAF LIRZ 311100Z 3112/0112 VRB05KT CAVOK", "TAF LJLJ 311100Z 3112/0112 VRB02KT CAVOK TEMPO 0102/0107 PRFG PROB30 TEMPO 0103/0106 0400 FG VV001", "TAF LJMB 311100Z 3112/0112 18005KT 9999 FEW005 TEMPO 0100/0112 20015G25KT", "TAF LKCV 311100Z 3112/0112 VRB02KT 0300 FG VV001 TEMPO 3112/3117 32004KT 3000 BR BKN005 PROB30 TEMPO 3113/3116 6000 NSC BECMG 3119/3121 13006KT TEMPO 3120/0103 5000 BR NSC BECMG 0107/0110 32005KT 5000 BR NSC", "TAF LKKB 311100Z 3112/0112 VRB02KT 0400 FG SCT002 BKN007 TEMPO 3112/3116 6000 NSC TEMPO 3116/0108 0250 FG VV001 BECMG 0107/0109 5000 BR NSC TEMPO 0107/0112 SCT012 BECMG 0110/0112 CAVOK", "TAF LKKV 311100Z 3112/0118 VRB02KT CAVOK TEMPO 3120/0108 2000 BCFG SCT005 PROB30 TEMPO 3120/0108 0500 FG BKN003 BECMG 0108/0110 26012KT", "TAF LKMT 311100Z 3112/0118 23010KT 8000 NSC TEMPO 3112/3119 4000 BR OVC002 BECMG 3119/3121 5000 BR SCT003 TEMPO 3121/0107 1200 BR BKN003 PROB40 TEMPO 3121/0107 0800 FG VV002 BECMG 0107/0109 22015KT CAVOK", "TAF LKNA 311100Z 3112/0112 13005KT 0500 FG VV002 TEMPO 3112/0112 1200 BCFG BKN002 TEMPO 3120/0112 0200 DZ FG VV001", "TAF LKPD 311100Z 3112/0112 VRB02KT 0400 FG VV002 TEMPO 3112/3118 3000 BR BKN005 PROB30 TEMPO 3113/3116 5000 BR SCT005 TEMPO 3118/0108 0100 FG DZ VV001 BECMG 0110/0112 30006KT 4000 BR BKN005", "TAF LKPR 311100Z 3112/0118 04003KT 7000 NSC TEMPO 3112/3116 3000 BR SCT003 PROB30 TEMPO 3112/3116 0800 FG BKN002 BECMG 3116/3118 2000 BR TEMPO 3118/0109 1100 BCFG BKN003 PROB40 TEMPO 3118/0108 0400 FG VV001 BECMG 0109/0111 22008KT CAVOK", "TAF LKTB 311100Z 3112/0118 VRB02KT 2000 BR OVC003 TEMPO 3112/3116 6000 BKN010 PROB40 TEMPO 3116/0109 0300 -DZ FG VV001 TEMPO 0109/0116 6000 SCT005 TEMPO 0116/0118 0600 FG VV002", "TAF LLBG 311108Z 3112/0112 30010KT 9999 SCT035 BECMG 3115/3117 VRB03KT BECMG 0106/0108 28010KT PROB40 TEMPO 0108/0112 8000 RA FEW025TCU BKN030 TX27/3112Z TN18/0104Z", "TAF LLER 311107Z 3112/0112 36010KT CAVOK TEMPO 0107/0112 9999 FEW030 TX29/3113Z TN19/0104Z", "TAF LLHA 311109Z 3112/0112 29010KT 9999 SCT035 BECMG 3115/3117 VRB04KT PROB40 TEMPO 3117/0106 -RA BKN030 BECMG 0106/0108 30010KT PROB40 TEMPO 0108/0112 8000 RA FEW025TCU BKN030 TX27/3112Z TN20/0104Z", "TAF LLHZ 311108Z 3112/0112 30008KT 9999 SCT035 BECMG 3115/3117 VRB03KT PROB40 TEMPO 3117/0106 -RA BKN030 BECMG 0106/0108 27008KT PROB40 TEMPO 0108/0112 8000 RA FEW025TCU BKN030 TX25/3112Z TN19/0104Z", "TAF LLIB 311111Z 3112/0112 33010KT 9999 SCT040 BECMG 3116/3118 VRB03KT CAVOK BECMG 0106/0108 12005KT 9999 SCT035 TX25/3112Z TN16/0103Z", "TAF LMML 311100Z 3112/0112 32012KT 9999 FEW020", "TAF LOAN 311125Z 3112/3121 VRB03KT 0500 FG VV002 BECMG 3112/3114 13006KT 3000 SCT003 OVC005 PROB30 TEMPO 3114/3116 SCT005 BECMG 3117/3119 1200 BCFG OVC002", "TAF LOAV 311125Z 3112/3121 VRB03KT 3000 VV005 BECMG 3112/3114 13006KT 6000 NSW SCT003 OVC008 PROB30 TEMPO 3114/3116 SCT008 BECMG 3117/3119 1200 BCFG OVC002", "TAF LOWG 311115Z 3112/0112 VRB04KT CAVOK TX20/0112Z TN05/0106Z TEMPO 3119/3123 0500 BCFG NSC TEMPO 3123/0109 0300 FG VV001", "TAF LOWI 311115Z 3112/0112 27007KT 9999 FEW090 TX21/3113Z TN05/0106Z TEMPO 3113/3121 12015G25KT", "TAF LOWK 311115Z 3112/0112 VRB03KT CAVOK TX18/3114Z TN06/0106Z TEMPO 3120/3124 0500 BCFG FEW002 TEMPO 0100/0108 0300 FG VV001 BECMG 0109/0111 CAVOK", "TAF LOWL 311115Z 3112/0112 VRB03KT 0300 FG VV001 TX14/3115Z TN07/0106Z TEMPO 3112/3113 0800 OVC003 BECMG 3113/3115 08007KT 5000 SCT005 BECMG 3117/3119 1200 BCFG BECMG 3119/3122 0800 FG OVC002 TEMPO 3122/0109 0300 VV001 BECMG 0111/0112 33006KT 3000 BKN006", "TAF LOWS 311115Z 3112/0112 34005KT CAVOK TX21/3113Z TN11/0105Z BECMG 3117/3119 15007KT BECMG 0110/0112 34006KT", "TAF LOWW 311115Z 3112/0118 13006KT 3000 SCT002 OVC003 TX13/0114Z TN10/0105Z TEMPO 3112/3114 1800 BCFG PROB30 3114/3117 5000 BKN005 PROB30 TEMPO 3118/0109 1000 BCFG VV001 FM011500 34007KT 9999 SCT012", "TAF LOXZ 311115Z 3112/3121 VRB03KT 9999 SCT300", "TAF LPAR 311108Z 3112/3121 26010KT 9999 FEW010 SCT020 TEMPO 3112/3116 4000 RADZ BR SCT006 BKN009 FEW025CB BECMG 3115/3117 35008KT FEW025", "TAF LPAZ 311100Z 3112/0118 09005KT 9999 FEW025 SCT035 BECMG 0101/0103 14008KT BECMG 0110/0112 14013KT 6000 -RA SCT010 BKN020 TEMPO 0112/0118 3000 RADZ BR SCT003 BKN006", "TAF LPBJ 311107Z 3112/0112 22008KT 7000 -RA SCT014 BKN025 TEMPO 3112/3116 2000 RADZ BR SCT004 BKN008 FEW025CB BECMG 3115/3117 VRB02KT 9999 NSW FEW015 SCT030 PROB40 TEMPO 3122/0107 3000 -DZ BR SCT002 BKN004 BECMG 0106/0108 35008KT", "TAF LPCS 311100Z 3112/3121 26008KT 9999 SCT010 BKN022 PROB40 TEMPO 3112/3114 6000 -RA SCT006 BKN010 BECMG 3114/3116 34012KT FEW020", "TAF LPFR 311100Z 3112/0112 19005KT 9999 SCT018 PROB30 TEMPO 3112/3116 5000 -RA SCT008 BKN013 BECMG 3116/3118 23008KT BECMG 3119/3121 VRB02KT FEW012 BKN030 BECMG 0110/0112 25008KT SCT040", "TAF LPHR 311100Z 3112/3121 VRB05KT 9999 FEW025 SCT040 TEMPO 3112/3117 15008KT", "TAF LPLA 311107Z 3112/0112 VRB05KT 9999 FEW035 BECMG 3112/3114 18008KT BECMG 3121/3123 VRB05KT BECMG 0106/0109 14012KT FEW020 BKN035 TEMPO 0110/0112 15015G28KT", "TAF LPMA 311100Z 3112/0112 VRB05KT 9999 SCT015 TEMPO 3112/0107 BKN013 BECMG 0107/0110 01012KT PROB30 TEMPO 0107/0112 6000 -RA SCT010 BKN013", "TAF AMD LPMR 311401Z 3114/0112 34012KT 7000 -RA SCT010 BKN020 TEMPO 3114/3117 1800 DZRA BR SCT004 BKN008 BECMG 3117/3120 07005KT 9999 NSW SCT020 PROB30 0102/0109 3000 BR BKN004", "TAF LPMT 311106Z 3112/0112 26010KT 9999 BKN025 TEMPO 3112/3115 4000 RADZ BR SCT006 BKN009 FEW025CB BECMG 3114/3116 36008KT FEW025", "TAF AMD LPOV 311203Z 3112/0112 24010KT 2500 -RADZ BR SCT006 BKN014 BECMG 3112/3114 34010KT 9999 NSW SCT015 BECMG 3117/3119 VRB02KT FEW030 PROB40 0102/0109 2000 BR BKN002 BECMG 0108/0110 07008KT", "TAF LPPD 311100Z 3112/0112 VRB05KT 9999 FEW025 SCT035 BECMG 3112/3115 14008KT BECMG 3117/3119 VRB05KT BECMG 0102/0105 13008KT BECMG 0110/0112 15013KT", "TAF LPPR 311100Z 3112/0112 20012KT 9999 SCT008 BKN015 TEMPO 3112/3113 3000 RADZ BR SCT003 BKN006 BECMG 3113/3115 33012KT SCT020 BECMG 3120/3123 VRB02KT FEW008 PROB30 TEMPO 0102/0108 08007KT 3000 BR SCT003 BECMG 0109/0112 31007KT SCT045", "TAF LPPS 311100Z 3112/0118 29008KT 9999 SCT015 TEMPO 3112/0107 VRB05KT SCT012 BKN030 BECMG 0107/0110 05012KT PROB30 TEMPO 0110/0118 5000 -RADZ SCT006 BKN012", "TAF LPPT 311100Z 3112/0118 25008KT 9999 SCT012 BKN025 PROB40 TEMPO 3112/3114 5000 -RADZ BR SCT008 BKN010 BECMG 3114/3116 34008KT SCT025 BECMG 0100/0103 03007KT FEW012 BECMG 0113/0115 35012KT FEW035", "TAF LPST 311108Z 3112/3121 27010KT 9999 FEW006 SCT016 TEMPO 3112/3115 3000 DZRA BR SCT004 BKN008 FEW025CB BECMG 3114/3117 35008KT FEW025", "TAF LQBK 311100Z 3112/0112 VRB02KT CAVOK TX19/3113Z TN06/0105Z BECMG 3122/3124 2000 BR TEMPO 0102/0107 0200 FG BKN001 BECMG 0109/0111 CAVOK", "TAF LQMO 311100Z 3112/0112 VRB02KT CAVOK TX27/3113Z TN07/0105Z", "TAF LQSA 311100Z 3112/0112 VRB02KT CAVOK TX24/3113Z TN04/0105Z PROB40 TEMPO 3121/0109 3000 BR PROB30 0104/0108 0600 FG BKN001", "TAF LQTZ 311100Z 3112/0112 VRB02KT CAVOK TX25/3113Z TN05/0105Z BECMG 0101/0103 3000 BR PROB30 TEMPO 0103/0106 0300 FG BKN001 BECMG 0108/0110 CAVOK", "TAF LRAR 311100Z 3112/3121 VRB04KT 3000 BR OVC005 TEMPO 3112/3116 9999 NSW BKN010 BECMG 3118/3120 1500 BR BKN002", "TAF LRBC 311100Z 3112/3121 VRB04KT 9999 BKN040 TEMPO 3112/3115 35012KT", "TAF LRBM 311100Z 3112/3121 VRB04KT 9999 OVC010 TEMPO 3112/3116 BKN020 BECMG 3118/3120 3000 BR OVC005", "TAF LRBO 311100Z 3112/0112 22008KT 9999 SCT100 BECMG 3113/3115 02008KT BECMG 0106/0108 22006KT", "TAF LRBS 311100Z 3112/0112 VRB04KT CAVOK", "TAF LRCK 311100Z 3112/0112 33014KT CAVOK TEMPO 3112/3115 33018G28KT BECMG 3117/3119 VRB04KT", "TAF LRCL 311100Z 3112/3121 VRB04KT 9999 OVC010 TEMPO 3112/3115 BKN015 BECMG 3117/3119 3000 BR BKN005", "TAF LRCT 311100Z 3112/0112 02005KT 9999 SCT080 BECMG 3121/3123 VRB01KT 3000 BR OVC010 TEMPO 0102/0106 0500 FG OVC005", "TAF LRCV 311100Z 3112/3121 VRB04KT CAVOK", "TAF LRFT 311100Z 3112/0112 32012KT 9999 BKN050 BECMG 3118/3120 07004KT SCT060", "TAF LRIA 311100Z 3112/3121 33012KT CAVOK BECMG 3114/3116 VRB04KT", "TAF LROD 311100Z 3112/3121 VRB04KT 5000 BR OVC005 TEMPO 3112/3116 9999 NSW BKN010 BECMG 3119/3121 1500 BR OVC002", "TAF LROP 311100Z 3112/0112 VRB04KT CAVOK", "TAF LRSB 311100Z 3112/0112 VRB04KT CAVOK BECMG 3120/3122 BKN010 BECMG 3122/0100 3000 BR BKN005 TEMPO 0100/0107 0600 FG OVC002 PROB30 TEMPO 0101/0106 0150 FG VV001 BECMG 0108/0110 5000 BKN010 BECMG 0110/0112 CAVOK", "TAF LRSM 311100Z 3112/3121 VRB04KT 9999 OVC010 TEMPO 3112/3116 BKN015 BECMG 3117/3119 3000 BR OVC005 BECMG 3119/3121 0800 FG OVC002", "TAF LRSV 311100Z 3112/3121 34010KT 9999 BKN030 BECMG 3115/3117 VRB04KT", "TAF LRTC 311100Z 3112/3121 33014KT CAVOK TEMPO 3112/3114 33018G28KT BECMG 3116/3118 VRB04KT", "TAF LRTM 311100Z 3112/3121 VRB04KT 9999 BKN015 TEMPO 3112/3115 BKN020 BECMG 3117/3119 5000 BR BKN010 BECMG 3119/3121 3000 BR BKN005", "TAF LRTR 311100Z 3112/0112 VRB04KT 5000 BR BKN005 TEMPO 3112/3116 9999 NSW BKN010 BECMG 3118/3120 1500 BR OVC002 BECMG 3120/3122 0600 FG VV001 PROB40 TEMPO 0100/0106 0150 FG BECMG 0106/0108 14010KT 1500 BR BKN005 BECMG 0108/0110 9999 NSW SCT020", "TAF LRTZ 311100Z 3112/0112 33016KT 9999 SCT040 BECMG 3115/3117 03008KT SCT200 BECMG 0108/0110 12010KT SKC", "TAF LSGC 311125Z 3112/3121 VRB02KT CAVOK BECMG 3117/3120 21010KT", "TAF LSGG 311125Z 3112/0118 VRB02KT 9999 FEW010 TX19/3115Z TN10/0106Z TX17/0115Z BECMG 3112/3115 CAVOK BECMG 0100/0103 23007KT RA SCT020 BKN050 PROB30 TEMPO 0103/0106 4500 +RA BKN008", "TAF LSGS 311125Z 3112/3121 VRB02KT CAVOK PROB30 TEMPO 3112/3120 08010KT", "TAF LSZA 311125Z 3112/3121 VRB02KT CAVOK", "TAF LSZB 311125Z 3112/3121 VRB02KT CAVOK", "TAF LSZC 311125Z 3112/3121 VRB02KT CAVOK TEMPO 3112/3121 9999 SCT140", "TAF LSZG 311125Z 3112/3121 VRB02KT CAVOK BECMG 3116/3120 8000 NSC PROB30 3119/3121 4000 MIFG FEW003", "TAF LSZH 311125Z 3112/0118 VRB02KT 0600 BCFG NSC TX15/3114Z TN08/0105Z TX16/0112Z BECMG 3112/3113 5000 BR SCT005 BECMG 3113/3115 CAVOK BECMG 3118/3121 3000 MIFG NSC BECMG 3121/3124 0800 PRFG BECMG 0100/0102 0500 FG VV002 BECMG 0102/0104 1500 BR BKN004 BECMG 0104/0106 8000 FEW004 SCT050 TEMPO 0106/0110 4000 SHRA BKN014 PROB30 TEMPO 0110/0114 30008KT", "TAF LSZL 311125Z 3112/3121 VRB02KT CAVOK", "TAF AMD LSZR 311243Z 3112/3121 VRB02KT 4500 BR BKN002 BECMG 3113/3115 6000 SCT008 PROB30 3115/3117 CAVOK BECMG 3118/3121 3000 BR PROB30 3118/3121 1500 BKN004", "TAF AMD LSZS 311249Z 3112/3121 22012KT CAVOK TX18/3114Z BECMG 3115/3118 VRB03KT", "TAF LTAC 311040Z 3112/0112 VRB02KT 9999 FEW040 SCT100 BECMG 3114/3116 CAVOK BECMG 0100/0102 4000 BR BECMG 0106/0108 9999 NSW FEW040", "TAF LTAF 311040Z 3112/0112 VRB02KT 9999 SCT035 BKN100 BECMG 3117/3119 CAVOK", "TAF LTAG 311040Z 3112/0112 VRB02KT CAVOK TEMPO 3113/3117 22012KT", "TAF LTAI 311040Z 3112/0112 18010KT CAVOK BECMG 3115/3118 34008KT BECMG 0109/0111 18010KT", "TAF LTAJ 311040Z 3112/0112 VRB02KT 9999 FEW040 SCT120 TEMPO 3112/3115 -SHRA FEW025TCU BKN035 TEMPO 3116/3118 36012KT BECMG 3118/3120 CAVOK TEMPO 0106/0110 01012KT", "TAF LTAP 311040Z 3112/0112 VRB02KT CAVOK BECMG 3112/3115 SCT040 SCT170 PROB30 0103/0106 4000 BR BECMG 0110/0112 03012KT", "TAF LTAT 311040Z 3112/0112 10007KT 9999 SCT040 BKN100 TEMPO 3113/3117 21015KT -TSRA FEW030CB BKN035 BKN090 BECMG 3119/3121 21011KT BECMG 3121/3123 CAVOK BECMG 0102/0104 FEW015 SCT040 BKN100 BECMG 0105/0107 10007KT", "TAF LTAU 311040Z 3112/0112 VRB02KT CAVOK BECMG 0101/0104 SCT040", "TAF LTAZ 311040Z 3112/0112 VRB02KT CAVOK PROB40 0101/0105 SCT040", "TAF LTBA 311040Z 3112/0112 03008KT CAVOK", "TAF LTBJ 311040Z 3112/0112 35013KT CAVOK", "TAF LTBR 311040Z 3112/0112 35012KT 9999 SCT040 BKN100 BECMG 3115/3118 VRB02KT CAVOK BECMG 3122/0102 4000 BR PROB30 0103/0106 0200 FG VV002 BECMG 0106/0110 CAVOK BECMG 0110/0112 35012KT", "TAF LTBS 311040Z 3112/0112 22012KT CAVOK BECMG 3115/3117 VRB02KT BECMG 0107/0109 21012KT", "TAF LTBU 311040Z 3112/0112 03009KT CAVOK BECMG 3119/3122 3200 BR SCT011 TEMPO 0100/0103 1600 BCFG BKN004 PROB30 0103/0106 0600 FG VV002 BECMG 0106/0109 9999 NSW", "TAF LTCC 311040Z 3112/0112 VRB02KT 9999 SCT040 BKN100 TEMPO 3112/3114 -SHRA BKN035 BKN090 BECMG 3116/3118 CAVOK BECMG 0100/0103 4000 BR PROB40 TEMPO 0103/0106 0800 FG VV008", "TAF LTCE 311040Z 3112/0112 26014KT 9999 FEW040 BECMG 3116/3118 VRB02KT BECMG 3120/3122 26012KT BECMG 0107/0109 CAVOK", "TAF LTCG 311040Z 3112/0112 30012KT CAVOK BECMG 3112/3115 24008KT SCT035 BECMG 3116/3119 30012KT TEMPO 3118/3121 -SHRA SCT012 FEW020CB BKN028 PROB40 TEMPO 3121/3124 3500 SHRA SCT012 FEW020CB BKN028", "TAF LTCJ 311040Z 3112/0112 VRB02KT 9999 SCT040 BKN100 TEMPO 3112/3115 -SHRA BECMG 3115/3118 CAVOK BECMG 3122/3124 4000 BR PROB40 0100/0104 1200 BCFG BKN008 BECMG 0106/0108 CAVOK", "TAF LTCS 311040Z 3112/0112 VRB02KT 9999 SCT040 BKN100 TEMPO 3112/3115 -SHRA FEW025TCU BKN035 BECMG 3116/3118 CAVOK", "TAF LTCV 311040Z 3112/0112 29012KT 9999 FEW040 SCT100 BECMG 3115/3118 CAVOK", "TAF LTFC 311040Z 3112/0112 VRB02KT CAVOK", "TAF LTFE 311040Z 3112/0112 26012KT CAVOK BECMG 3114/3116 VRB02KT PROB40 0102/0106 4000 BR BECMG 0109/0111 26012KT", "TAF LTFJ 311040Z 3112/0112 03009KT CAVOK BECMG 3116/3120 SCT008 BECMG 3122/0101 2500 BR BKN006 PROB40 TEMPO 0102/0106 0900 FG BKN004 BECMG 0106/0109 9999 NSW SCT035", "TAF LTFM 311040Z 3112/0118 03009KT CAVOK TEMPO 3115/3119 SCT032", "TAF LUBM 311120Z 3112/3121 33012KT CAVOK BECMG 3115/3117 VRB05KT", "TAF LUKK 311120Z 3112/0112 35012KT CAVOK BECMG 3115/3117 VRB05KT BECMG 3122/3124 1500 BR TEMPO 0100/0106 0200 FG VV/// BECMG 0107/0109 17006KT CAVOK", "TAF LWOH 311130Z 3109/0109 33006KT CAVOK", "TAF LWSK 311130Z 3109/0109 VRB02KT CAVOK", "TAF LYBE 311100Z 3112/0112 04004KT 3000 BR BKN006 TX23/0112Z TN08/0106Z TEMPO 3112/3113 OVC004 TEMPO 3113/3117 7000 NSW SCT010 BECMG 3120/3122 0300 FG VV001 BECMG 0109/0111 8000 NSW NSC", "TAF LYBT 311100Z 3112/0112 04004KT CAVOK TX23/0112Z TN09/0105Z TEMPO 3112/3113 5000 BR BKN007 BECMG 3118/3120 3000 BR BECMG 3120/3122 0300 FG VV002 BECMG 0107/0109 3000 BR BKN005 BECMG 0109/0110 CAVOK", "TAF LYKV 311100Z 3112/0112 VRB02KT CAVOK TX24/3113Z TN03/0105Z TEMPO 0104/0107 1000 BR", "TAF LYNI 311100Z 3112/0112 33006KT CAVOK TX22/3113Z TN04/0106Z TEMPO 0105/0107 0800 FG", "TAF LYPG 311100Z 3112/0112 18005KT CAVOK TX26/3113Z TN09/0105Z", "TAF LYTV 311100Z 3112/0112 23006KT CAVOK TX26/3113Z TN07/0104Z", "TAF LYVR 311100Z 3112/0112 05003KT 5000 BR BKN008 TX23/0112Z TN07/0106Z TEMPO 3112/3117 8000 NSW SCT010 BECMG 3119/3121 0200 FG VV001 BECMG 0108/0110 12010KT CAVOK", "TAF AMD LZIB 311403Z 3114/0112 VRB02KT 6000 OVC002 BECMG 3118/3120 2500 BR BKN001 TEMPO 3120/0107 0500 FG OVC001 BECMG 0106/0108 4000 BR SCT002 BKN004 BECMG 0109/0111 9999 SCT007 BKN012", "TAF LZKZ 311115Z 3112/0112 VRB02KT 6000 OVC009 BECMG 3120/3122 2000 BR BKN002 TEMPO 3122/0107 0700 FG OVC002 BECMG 0106/0108 3000 BR FEW002 BKN005 BECMG 0109/0111 6000 BKN009", "TAF LZPP 311115Z 3112/3121 VRB02KT 9999 OVC006 PROB40 TEMPO 3112/3116 BKN010 TEMPO 3116/3121 OVC004", "TAF LZTT 311115Z 3112/0112 VRB02KT CAVOK BECMG 3120/3122 2000 BCFG BKN002 TEMPO 3122/0107 0500 FG OVC001 BECMG 0106/0108 18005KT 6000 FEW008 BECMG 0108/0110 24007KT", "TAF LZZI 311115Z 3112/3121 05005KT 9999 FEW002 BECMG 3113/3114 VRB02KT PROB40 TEMPO 3112/3116 SCT012 BECMG 3116/3118 4000 BR BKN005 TEMPO 3118/3121 0400 FG OVC002", "MBGT 310915Z 3112/0112 10012KT 9999 SCT022", "MBPV 310915Z 3112/0112 10012KT 9999 SCT022", "TAF MDBH 311000Z 3112/0112 00000KT 9999 FEW016CB BKN016 SCT070 PROB30 3114/3118 7000 -TSRA FEW014CB BKN014 SCT070 BECMG 3113/3115 13012KT", "TAF MDCY 311000Z 3112/0112 00000KT 9999 FEW015CB BKN016 SCT070 PROB40 3118/0100 7000 -TSRA FEW014CB BKN016 OVC070", "TAF MDJB 311000Z 3112/0112 05004KT 8000 -RA FEW016CB BKN016 BKN070 PRO30 3118/3122 7000 ?TSRA FEW014CB BKN016 BKN070", "TAF MDLR 311000Z 3112/0112 00000KT 8000 -RA FEW015CB BKN016 BKN070 PROB40 3118/0100 6000 TSRA FEW015CB BKN016 BKN070", "TAF MDPC 311000Z 3112/0112 00000KT 9999 SCT018 SCT070 PROB30 3111/3117 8000 -RA SCT018 SCT070 BECMG 3113/3115 07010KT", "TAF MDPP 311000Z 3112/0112 00000KT 9999 BKN018 BECMG 3115/3117 10012KT", "TAF MDSD 311000Z 3112/0112 13006KT 8000 -RA FEW015CB BKN016 BKN070 TEMPO 3118/0100 7000 -TSRA FEW015CB BKN015 BKN070 BEMC 3113/3115 05010KT", "TAF MDST 311000Z 3112/0112 12006KT 9999 SCT020 BKN300 TEMPO 3119/3123 7000 TSRA FEW016CB SCT018 BKN300", "MGGT 311100Z 3112/0112 03012KT 9999 SCT014 TX26/3120Z TN15/3112Z PROB30 TEMPO 3112/3116 8000 SCT012 BECMG 3116/3118 SCT018 PROB40 TEMPO 3120/0104 01016KT SCT020TCU BECMG 0100/0102 SCT016", "MGMM 311100Z 3112/0112 14008KT 9999 FEW014 TX34/3120Z TN20/3112Z TEMPO 3112/3116 00000KT CAVOK BECMG 3116/3118 FEW020 BECMG 0100/0102 FEW018", "MGPB 311100Z 3112/0112 00000KT 9999 SCT016 SCT080 TX33/3120Z TN21/3112Z TEMPO 3112/3116 FEW016 BECMG 3116/3118 06008KT FEW018 BECMG 0100/0102 00000KT FEW016", "MGSJ 311100Z 3112/0112 00000KT 9999 SCT016 SCT080 TX32/3120Z TN21/3112Z BECMG 3116/3118 18008KT SCT018 PROB40 TEMPO 3118/0106 20012KT 8000 VCTSRA SCT020TCU FEW025CB BECMG 0100/0102 00000KT SCT016", "TAF COR MHLC 311010Z 3112/0112 VRB04KT 9999 SCT026 SCT080 TX31/3120Z TN21/0112Z BECMG 3118/3120 FEW028", "TAF MHLM 311010Z 3112/0112 VRB03KT 9999 FEW025 TX32/3121Z TN23/0112Z BECMG 0109/0111 SCT028 SCT080", "TAF MHPR 311100Z 3112/0112 33006KT 9999 SCT046 TX30/3119Z TN18/0110Z BECMG 3116/3118 36014KT", "TAF MHRO 311010Z 3112/0112 03010KT 9999 FEW024 TX31/3120Z TN24/0112Z", "TAF MHTG 311010Z 3112/0112 04004KT 9999 FEW016 BKN024 TX28/3120Z TN18/0112Z BECMG 3115/3117 SCT034", "TAF MKJP 311115Z 3112/0112 35008KT 9999 FEW020 FEW022CB BECMG 3114/3116 14020G30KT SCT018 SCT020CB TEMPO 3117/0104 2000 TSRA SQ BKN016 BKN018CB BECMG 0105/0107 12020KT", "TAF MKJS 311115Z 3112/0112 10010KT 9999 FEW022 FEW024CB BECMG 3114/3116 06015G25KT TEMPO 3118/0102 5000 TSRA BKN020CB BKN034 BECMG 0103/0105 10010KT SCT020 FEW022CB", "TAF MMAA 311058Z 3112/0118 34005KT 5SM HZ SCT080 SCT250 TX29/3119Z TN25/3112Z FM311800 24008KT 6SM HZ SCT015 SCT100 BKN250 FM010600 34005KT 6SM HZ SCT100 FM011700 24008KT 6SM HZ SCT015 BKN100 BKN250", "TAF AMD MMAN 311314Z 3113/0106 00000KT 1 1/2SM BR -RA OVC010 FM311600 05005KT P6SM SCT010 TEMPO 3123/0103 4SM -RA BKN030 FM010300 34005KT 5SM HZ SCT020 BKN040", "TAF MMAS 310510Z 3106/0106 16005KT P6SM SKC FM311600 24005KT P6SM SKC FM010300 00000KT P6SM SKC", "TAF MMBT 310503Z 3106/0106 35005KT P6SM SCT010 SCT030 FM311600 14005KT P6SM SCT020 FM010300 00000KT P6SM SCT020", "TAF MMCB 310503Z 3106/0106 26005KT 6SM HZ BKN020 BKN070 TEMPO 3111/3115 3SM BR FM311800 16005KT 6SM HZ SCT020 SCT200 TEMPO 3121/0101 4SM TSRA BKN020CB", "TAF MMCE 310557Z 3106/0106 12005KT P6SM SCT015 TEMPO 3112/3115 3SM HZ BKN015 FM311800 12010KT 5SM HZ SCT015 PROB40 3122/0101 5SM TSRA BKN015CB", "TAF MMCL 310500Z 3106/0106 00000KT P6SM SKC FM311900 25010KT P6SM SKC BECMG 0101/0102 00000KT", "TAF MMCM 310557Z 3106/0106 13010KT P6SM SCT020 FM311200 12005KT P6SM SCT015 FM311800 13010KT P6SM SCT020 FM010300 13005KT P6SM BKN015", "TAF MMCN 310516Z 3106/0106 00000KT P6SM SCT100 FM311600 12005KT P6SM SCT020 SCT200 FM010300 24010KT P6SM SKC", "TAF MMCP 310557Z 3106/0106 12010KT 6SM HZ SCT020 FM311200 12005KT 5SM HZ BKN020 TEMPO 3112/3115 3SM BR BKN010 FM311600 12012KT P6SM SCT020 FM312200 13015KT P6SM SCT040 FM010300 13008KT 5SM HZ BKN020", "TAF MMCS 310442Z 3106/0106 00000KT P6SM SCT100 FM311800 09008KT P6SM SCT100 BKN250 FM010500 00000KT P6SM SCT250", "TAF MMCU 310442Z 3106/0106 30005KT P6SM BKN250 FM311800 18010KT P6SM SCT080 BKN250 FM010500 16005KT P6SM BKN250", "TAF MMCV 310543Z 3106/0106 18009KT P6SM SCT040 BECMG 3108/3110 16005KT FM311700 13012KT P6SM SCT040 BKN100 BECMG 3122/3124 16005KT SCT030 SCT100", "TAF MMCZ 311027Z 3112/0118 00000KT P6SM SCT015 FM311800 06008KT P6SM BKN015 FM010600 04005KT P6SM SCT015 FM011700 12008KT P6SM BKN015", "TAF MMDO 310516Z 3106/0106 20005KT P6SM SKC FM311600 22010KT P6SM SKC FM010300 00000KT P6SM SKC", "TAF MMEP 310510Z 3106/0106 02005KT P6SM SKC FM311000 00000KT 3SM BR SCT020 TEMPO 3111/3114 1SM BR BKN005 FM311600 26005KT P6SM SKC FM010300 34005KT P6SM SKC", "TAF MMGL 311049Z 3112/0118 00000KT P6SM SKC TX28/3119Z TN10/3112Z FM311800 26012KT P6SM SCT030 SCT250 FM010600 26005KT P6SM SKC FM011700 32010KT P6SM SCT030 SCT250", "TAF MMGM 310516Z 3106/0106 24005KT P6SM BKN220 FM311200 26005KT P6SM SCT220 FM311800 25010KT P6SM SCT220 FM010300 00000KT P6SM SKC", "TAF MMHO 310500Z 3106/0106 00000KT P6SM SKC FM311800 13005KT P6SM SKC BECMG 0101/0102 00000KT", "TAF MMIA 310510Z 3106/0106 00000KT P6SM BKN100 FM311000 00000KT 4SM HZ SCT015 TEMPO 3111/3114 2SM BR BKN010 FM311600 04005KT P6SM SCT015 FM312100 24010KT P6SM SCT020 PROB40 3123/0102 5SM RA BKN020CB", "TAF MMIO 310442Z 3106/0106 00000KT P6SM SKC TEMPO 3111/3115 3SM BR HZ BKN010 FM311800 36010KT P6SM SCT030 BKN250 PROB40 0103/0106 4SM -RA BKN010", "TAF MMLM 310516Z 3106/0106 00000KT P6SM SKC FM311200 05005KT 5SM HZ SCT020 TEMPO 3112/3115 3SM BR FM311800 24010KT P6SM SKC FM010300 00000KT P6SM SKC", "TAF MMLO 310510Z 3106/0106 00000KT P6SM SKC FM311600 20005KT P6SM SCT030 TEMPO 3121/0101 BKN030", "TAF MMLP 310500Z 3106/0106 19005KT P6SM SKC FM311900 35010KT P6SM SCT025 FM010200 18005KT P6SM SKC", "TAF MMLT 310516Z 3106/0106 00000KT P6SM SKC FM311600 04010KT P6SM SCT200 FM010300 00000KT P6SM SKC", "TAF MMMA 310543Z 3106/0106 12010KT P6SM SCT025 BKN070 FM310900 12010KT P6SM HZ BKN020 BKN070 BECMG 3121/3123 BKN020 OVC070 FM010000 13020KT P6SM OVC020", "TAF MMMD 311027Z 3112/0118 00000KT P6SM SCT250 TX33/3120Z TN22/3112Z FM311800 07008KT P6SM BKN020 FM010600 09005KT P6SM SCT020 FM011700 04010KT P6SM BKN020", "TAF MMML 310500Z 3106/0106 34005KT P6SM SKC FM311800 01010KT P6SM SCT200 FM010200 00000KT P6SM BKN200", "TAF MMMM 311049Z 3112/0118 24005KT 5SM HZ SKC TEMPO 3112/3116 3SM BR HZ BKN015 FM311800 25008KT P6SM SCT030 SCT090 BKN250 TEMPO 3121/0101 BKN030CB FM010600 24005KT 5SM HZ SKC FM011700 23010KT P6SM SCT030 SCT080 BKN250", "TAF MMMT 310557Z 3106/0106 02005KT 5SM HZ BKN030 BKN060 FM311200 32005KT 4SM BR BKN015 BKN050 TEMPO 3112/3115 1SM -DZ BR OVC010 FM311600 04005KT 5SM -RA BKN015 OVC040 TEMPO 3118/3120 3SM RA FM312200 02010KT 5SM HZ BKN020 OVC070 TEMPO 0101/0104 3SM RA", "TAF MMMV 310442Z 3106/0106 04008KT P6SM SCT100 FM311800 04012KT P6SM SCT030 BKN100 PROB40 0102/0106 5SM -RA BKN020", "TAF MMMX 311058Z 3112/0118 04005KT P6SM SCT250 TX25/3121Z TN12/3112Z FM311800 26012KT 6SM HZ SCT020 BKN080 BKN250 TEMPO 3122/0102 5SM TSRA BKN020CB FM010600 34005KT P6SM SCT020 BKN080 BKN250 FM011700 03010KT P6SM SCT020 SCT080 BKN250", "TAF COR MMMY 311319Z 3112/0118 00000KT 5SM HZ OVC008 TX26/3120Z TN15/3112Z TEMPO 3112/3116 1SM -DZ HZ OVC006 FM311800 12008KT P6SM BKN030 BKN250 FM312300 04008KT 5SM -RA BKN020 BKN080 TEMPO 0102/0106 3SM RA BKN015 FM010700 04008KT 5SM -RA BKN015 OVC070 TEMPO 0111/0115 3SM -RA BR BKN010 FM011500 04007KT P6SM BKN020 BKN080", "TAF MMMZ 311048Z 3112/0118 00000KT P6SM SKC TX29/3119Z TN18/3112Z FM311900 25010KT P6SM SCT030 BECMG 0101/0102 07005KT TEMPO 0110/0114 3SM BR HZ BKN010", "TAF MMNL 310543Z 3106/0106 12005KT P6SM SCT070 BECMG 3112/3114 00000KT SCT020 SCT200 FM311800 18005KT P6SM SCT200 BECMG 0100/0102 00000KT", "TAF MMOX 310503Z 3106/0106 00000KT P6SM SCT020 SCT070 TEMPO 3112/3114 3SM BR HZ SCT015 FM311600 10005KT P6SM SCT030 PROB40 3122/0101 5SM RA BKN030CB", "TAF MMPA 310543Z 3106/0106 00000KT 4SM HZ BKN030 TEMPO 3112/3115 3SM BR BKN012 FM311600 13008KT P6SM BKN030 BECMG 3121/3123 5SM TSRA BKN020CB FM010300 00000KT 4SM HZ BKN030", "TAF MMPB 310503Z 3106/0106 26005KT P6SM BKN020 BKN070 FM311100 00000KT 3SM BR BKN020 TEMPO 3112/3115 2SM BR BKN015 FM311600 33005KT 6SM HZ BKN025 FM312100 15010KT P6SM BKN030CB BKN080 TEMPO 3122/0102 4SM TSRA", "TAF MMPG 310543Z 3106/0106 28005KT P6SM BKN220 BECMG 3115/3117 13005KT SCT220 FM312200 00000KT P6SM BKN020 BKN070", "TAF MMPN 310510Z 3106/0106 00000KT 5SM HZ SCT030 BKN090 FM311000 00000KT 3SM BR BKN020 TEMPO 3111/3115 2SM BR BKN010 FM311600 20008KT 5SM HZ BKN020 FM311800 24010KT P6SM SCT030CB TEMPO 3121/0101 4SM TSRA BKN025CB", "TAF MMPQ 310557Z 3106/0106 00000KT P6SM SCT040 FM311200 00000KT 3SM HZ BKN015 TEMPO 3111/3115 3SM BR OVC010 FM311800 02005KT P6SM BKN040 BKN070 PROB40 3122/0102 5SM RA", "TAF MMPR 311049Z 3112/0118 04005KT P6SM SCT080 TX30/3121Z TN24/3112Z FM311800 23008KT P6SM SCT025 BKN100 FM010600 34005KT P6SM SCT250 FM011700 23008KT P6SM SCT030 BKN100 BKN250", "TAF MMPS 310503Z 3106/0106 33005KT P6SM SCT015 SCT070 FM311200 03005KT P6SM SCT015 FM311800 24010KT P6SM SCT020 PROB40 3121/0101 4SM TSRA BKN020CB", "TAF MMQT 310510Z 3106/0106 12005KT P6SM SKC FM311100 12005KT P6SM SCT020 TEMPO 3111/3115 3SM BR BKN020 FM311600 12010KT P6SM SCT020 TEMPO 3122/0102 4SM TSRA BKN020CB", "TAF MMRX 310543Z 3106/0106 15005KT P6SM SKC BECMG 3112/3114 03005KT SCT250 FM311600 00000KT P6SM SCT020 SCT100 TEMPO 3117/3120 BKN020 FM312100 10015KT P6SM BKN020 FM010000 10015KT P6SM BKN015 BKN080", "TAF MMSD 310516Z 3106/0106 27005KT P6SM SCT020 FM311200 33005KT P6SM SKC FM311800 14010KT P6SM SKC FM010300 00000KT P6SM SKC", "TAF MMSL 310516Z 3106/0106 32010KT P6SM SCT030 FM311600 14010KT P6SM SKC FM010300 30010KT P6SM SCT040", "TAF MMSM 311058Z 3112/0118 05005KT P6SM SCT250 TEMPO 3112/3116 4SM HZ SCT020 FM311800 26012KT 6SM HZ SCT020 BKN080 BKN250 TEMPO 3122/0102 5SM TSRA BKN020CB FM010600 34005KT P6SM SCT020 BKN080 BKN250 TEMPO 0112/0116 4SM HZ FM011700 03010KT P6SM SCT020 BKN080 BKN250", "TAF COR MMSP 311229Z 3112/0118 00000KT 2SM BR OVC005 TX28/3121Z TN06/3112Z TEMPO 0112/0116 1/2SM FG VV002 FM311600 00000KT 3SM BR HZ SCT005 BKN010 FM311800 12008KT P6SM SCT100 FM010600 00000KT P6SM SKC FM011100 00000KT 2SM BR HZ BKN006 TEMPO 0111/0115 1/2SM FG VV002 FM011700 12008KT 4SM HZ BKN015", "TAF MMTC 310442Z 3106/0106 00000KT P6SM SKC FM311800 20008KT P6SM SCT090 SCT250 FM010500 00000KT P6SM SKC", "TAF MMTG 310333Z 3106/0106 30005KT P6SM SKC TEMPO 3111/3115 3SM BR HZ BKN010 FM311800 03012KT P6SM SCT030 BKN090 FM010500 32005KT P6SM SKC", "TAF MMTJ 311048Z 3112/0118 12005KT 6SM HZ SKC TX30/3121Z TN13/3112Z FM311900 28010KT P6SM SCT200 FM010200 27005KT P6SM BKN200 FM011200 00000KT 6SM HZ SCT020 SCT200", "TAF COR MMTM 311127Z 3106/0106 00000KT 5SM HZ SCT010 BKN040 FM310900 00000KT 4SM -RA BKN012 OVC040 TEMPO 3111/3115 2SM -DZ BR BKN004 FM312200 09008KT P6SM BKN015 OVC070 FM010500 09005KT P6SM SCT015 BKN070", "TAF COR MMTO 311157Z 3112/0118 00000KT 4SM HZ SCT020 BKN080 TX21/3120Z TN09/3112Z TEMPO 3112/3116 1SM BR HZ BKN010 FM311800 26012KT P6SM SCT020 BKN080 BKN250 TEMPO 3122/0102 5SM TSRA BKN020CB FM010600 34005KT P6SM SCT020 BKN080 BKN250 FM011000 00000KT 4SM HZ SCT020 TEMPO 0112/0116 3SM BR HZ SCT015 FM011700 03010KT P6SM SCT020 BKN080 BKN250", "TAF MMTP 311027Z 3112/0118 00000KT P6SM SCT080 TEMPO 3112/3114 6SM -RA BKN030 FM311800 22008KT P6SM SCT030 BKN080 TEMPO 3122/0102 BKN030CB FM010600 00000KT P6SM SCT100 FM011700 22008KT P6SM SCT030 BKN080", "TAF MMUN 311027Z 3112/0118 00000KT P6SM SCT015 TX31/3119Z TN20/3112Z FM311800 06008KT P6SM BKN015 FM010600 04005KT P6SM SCT015 FM011700 07010KT P6SM BKN015", "TAF AMD MMVA 311159Z 3112/0106 09005KT 5SM BR SCT015 TEMPO 3112/3115 3SM BR BKN010 FM311600 10005KT 4SM HZ BKN012 FM311800 10010KT P6SM BKN030 FM312100 04010KT P6SM SCT030 BKN070 PROB40 0100/0104 6SM -RA BKN020 BKN070", "TAF MMVR 310504Z 3106/0106 25005KT P6SM SKC TX29/3119Z TN21/3112Z TEMPO 3111/3115 4SM HZ BKN012 FM311800 02008KT P6SM SCT015 SCT080 FM010500 00000KT P6SM SCT015", "TAF MMZC 311049Z 3112/0118 16010KT P6SM SKC TX25/3121Z TN05/3112Z FM311800 20018KT P6SM SCT040 SCT100 FM010600 20007KT P6SM SKC FM011700 12018KT P6SM SCT040 SCT250", "TAF MMZH 310503Z 3106/0106 00000KT P6SM SKC FM311600 04005KT P6SM BKN015 BECMG 3117/3118 SKC FM312000 24010KT P6SM SKC FM010300 00000KT P6SM SKC", "TAF MMZO 310412Z 3106/0106 00000KT P6SM SKC FM311800 24010KT P6SM SCT020 BKN250 FM010500 00000KT P6SM SKC", "MNBL 302115Z 3100/3124 VRB04KT 9999 SCT018 TEMPO 3110/3114 VRB08KT 6000 DZ/RA BKN016TCU BECMG 3117/3120 08010KT 8000 VCRA", "MNMG 310913Z 3112/0112 11004KT 9999 FEW021 SCT300 TEMPO 3115/3123 07010KT FEW023", "MNPC 302115Z 3100/3124 VRB04KT 7000 HZ SCT016TCU TEMPO 3111/3115 VRB10KT 8000 VCRA BKN017TCU FM312100 6000 DZ/RA", "TAF MPDA 311100Z 3112/0118 24008KT 9999 SCT018 PROB40 3118/3122 5000 TSRA SCT015CB BKN080", "TAF MPMG 311100Z 3112/0118 19007KT 9999 SCT018 TEMPO 3113/3117 34006KT PROB40 3118/3122 6000 TSRA SCT015CB BKN080", "TAF MPPA 311100Z 3112/0118 20007KT 9999 SCT018 TEMPO 3113/3117 34006KT PROB40 3118/3122 6000 TSRA SCT015CB BKN080", "TAF MPSM 311100Z 3112/0118 16006KT 9999 SCT018 TEMPO 3113/3117 35006KT PROB40 3118/3122 6000 TSRA SCT015CB BKN080", "TAF MPTO 311100Z 3112/0118 19007KT 9999 SCT018 TEMPO 3113/3117 04006KT PROB40 3118/3122 6000 TSRA SCT015CB BKN080", "MRLB 311100Z 3112/0112 12005KT 9999 SCT025 TX32/3120Z TN22/0111Z TEMPO 3112/3115 VRB02KT 5000 BR SCT005 BECMG 3115/3118 27007KT PROB30 TEMPO 3121/3124 SHRA FEW015TCU BECMG 3100/3103 12004KT ", "MRLM 311100Z 3112/0112 24005KT 9999 FEW020 SCT200 TX31/3120Z TN22/0111Z BECMG 3114/3117 04006KT BECMG 0100/0103 25004KT ", "MROC 311100Z 3112/0112 09007KT 9999 FEW040 SCT200 TX27/3118Z TN17/0110Z BECMG 3114/3117 24008KT TEMPO 3121/3124 RA FEW015TCU BKN020 TEMPO 0100/0105 VRB02KT BKN010 BECMG 0105/0108 06005KT ", "MRPV 311100Z 3112/0112 12006KT 9999 FEW035 SCT200 TX27/3118Z TN17/0110Z BECMG 3116/3119 29007KT TEMPO 3120/3124 RA FEW010TCU BKN015 TEMPO 0100/0103 VRB02KT BKN010 BECMG 0103/0106 12005KT ", "TAF MSLP 310925Z 3112/0112 05006KT 9999 FEW023 TX32/3118Z TN24/0111Z FM311800 22010KT 9999 SCT023 FEW037CB SCT050 FM010100 VRB03KT 9999 SCT020 FEW037CB", "TAF MSSS 310925Z 3112/0112 34006KT CAVOK TX30/3119Z TN20/0111Z FM312000 17008KT 9999 SCT023 FEW037CB FM010000 34005KT 9999 SCT020 FEW037CB FM010600 36005KT 9999 FEW020", "TAF MTCH 311130Z 3112/0112 VRB02KT 8000 FEW022 BECMG 3114/3118 02012KT PROB40 TEMPO 3122/0104 4000 TSRA SCT024CB BKN040 BECMG 0108/0112 VRB02KT 8000 FEW022", "TAF AMD MTPP 311135Z 3112/0112 12006KT 9000 FEW020 SCT070 BECMG 3118/3122 27012KT PROB30 TEMPO 0100/0103 4000 TSRA SCT014CB SCTO4O BECMG 0106/0110 VRB02KT 8000 NSW FEW016", "MUCC 311100Z 3112/0112 04010KT 9000 SCT020 BECMG 3115/3117 06012KT TEMPO 3118/3124 5000 RA FEW020CB BKN030 BECMG 0103/0105 VRB03KT", "MUCF 311100Z 3112/3124 VRB03KT 9000 SCT020 TEMPO 3118/3124 5000 RA FEW020CB BKN030", "MUCL 311100Z 3112/3124 VRB03KT 9000 SCT020 TEMPO 3118/3124 5000 RA FEW020CB BKN030", "MUCM 311100Z 3112/0112 03010KT 9000 SCT020 BECMG 3115/3117 04012KT TEMPO 3118/3124 5000 RA FEW020CB BKN030 BECMG 0103/0105 VRB03KT", "MUCU 311100Z 3112/0112 36005KT 9000 SCT020 BECMG 3115/3117 VRB03KT TEMPO 3118/3124 5000 RA FEW020CB BKN030 BECMG 0103/0105 36005KT", "TAF MUGM 3107/0107 31005KT 9999 SCT015 QNH2985INS BECMG 3117/3119 09011KT 8000 SHRA SCT015 BKN060 QNH2988INS TEMPO 3121/0103 09013G22KT 4800 TSRA BKN015CB OVC060 QNH2988INS BECMG 0105/0107 09015KT 9999 SCT030 BKN065 QNH2994INS T30/3118Z T25/0106Z FN002591", "MUHA 311100Z 3112/0112 VRB03KT 9000 FEW030 TEMPO 3112/3113 3000 PRFG BECMG 3116/3118 06010KT", "MUHG 311100Z 3112/0112 07010KT 9000 SCT020 TEMPO 3112/3114 3000 BR BECMG 3115/3117 07012KT TEMPO 3118/3124 5000 RA FEW020CB BKN030 BECMG 0103/0105 VRB03KT", "MUSC 311100Z 3112/0112 05010KT 9000 SCT020 TEMPO 3112/3114 3000 BR BECMG 3115/3117 07010KT TEMPO 3118/3124 5000 RA FEW020CB BKN030 BECMG 0103/0105 VRB03KT", "MUVR 311100Z 3112/0112 04010KT 9000 SCT020 BECMG 3115/3117 04010KT TEMPO 3118/3124 5000 RA FEW020CB BKN030 BECMG 0103/0105 VRB03KT", "TAF MWCB 301700Z 3018/3118 06013KT 9999 VCSH FEW018 SCT035", "TAF MWCR 311100Z 3112/0112 07013KT 9999 VCSH FEW018 SCT035 TEMPO 3115/3119 9000 SHRA SCT016 SCT030 BECMG 0100/0102 9000 SHRA SCT016 BKN030", "MYGF 310915Z 3112/0112 08007KT 9999 SCT022 BKN040 PROB30 TEMPO 3112/3115 9000 SHRA BKN018", "MYNN 310915Z 3112/0112 10010KT 9999 SCT022 PROB30 TEMPO 3113/3115 9000 SHRA BKN018", "TAF MZBZ 310900Z 3112/0112 07005KT 9999 FEW023", "TAF NCRG 311113Z 3112/0112 09018KT 9999 -SHRA BKN015 BKN030 TEMPO 3112/3121 3000 +TSRA BKN008 SCT015CB TEMPO 3112/0112 10018G28KT", "TAF NFFN 311112Z 3112/0112 01006KT 9999 FEW028 SCT048 BKN100 PROB40 TEMPO 3115/3120 5000 TSRA BKN015 FEW017CB", "TAF NFNA 311114Z 3112/0112 05005KT 9999 FEW020 SCT100 PROB40 TEMPO 3116/3121 5000 TSRA FEW016CB BKN018 PROB40 TEMPO 0103/0106 5000 TSRA BKN015 FEW016CB", "TAF NFTF 311113Z 3112/0112 07009KT 9000 -RA SCT008 BKN016 OVC030 TEMPO 3112/3124 3000 +TSRA BKN008 SCT014CB PROB40 TEMPO 0100/0112 5000 TSRA BKN015 FEW017CB", "TAF NFTV 311115Z 3112/0112 03007KT 9999 SCT016 BKN100 PROB40 TEMPO 0103/0109 5000 TSRA BKN015 FEW017CB", "TAF NGFU 311115Z 3112/0112 36012KT 9999 -SHRA SCT018 BKN100 PROB40 TEMPO 3112/3121 5000 TSRA BKN015 FEW017CB PROB40 TEMPO 0103/0106 5000 TSRA BKN015 FEW017CB", "TAF NGTA 311114Z 3112/0112 10008KT 9999 FEW020 PROB40 TEMPO 0103/0106 5000 TSRA BKN015 FEW016CB", "TAF NIUE 311115Z 3112/0112 09006KT 9999 SCT018 BKN030 PROB40 TEMPO 0105/0112 5000 TSRA BKN015 FEW017CB", "TAF NLWF 311100Z 3112/0112 07005KT 9999 FEW025 TEMPO 3112/0112 4000 SHRA BKN014 SCT018TCU PROB40 TEMPO 3112/3115 2000 TSRA BKN008 BKN015CB PROB40 TEMPO 0106/0112 2000 TSRA BKN008 BKN015CB", "TAF NLWW 311100Z 3112/0112 05008KT 9999 FEW015 SCT030 TEMPO 3112/0112 4000 SHRA BKN014 SCT018TCU PROB40 TEMPO 3112/3118 2000 TSRA BKN008 BKN015CB PROB40 TEMPO 0100/0112 2000 TSRA BKN008 BKN015CB", "TAF NSFA 311114Z 3112/0112 04009KT 9999 FEW018 SCT024 BKN040 PROB40 TEMPO 3115/0106 3000 +TSRA BKN015 SCT016CB PROB30 TEMPO 0106/0112 5000 SHRA BKN015 FEW016CB", "NSTU 311125Z 3112/0112 07006KT P6SM SCT025 SCT040 SCT100 FM010000 06009KT P6SM VCSH SCT020 BKN045 BKN100", "TAF NTAA 311100Z 3112/0118 VRB05KT 9999 FEW023 SCT040 PROB40 TEMPO 3116/0116 20012KT 3000 SHRA FEW018TCU SCT018 BKN040 BECMG 0100/0102 20015G25KT FEW016TCU BKN016 BKN040 PROB30 0102/0112 20020G30KT 1500 TSRA FEW013CB SCT015 BKN035", "TAF NVSC 311100Z 3112/0112 VRB02KT 9999 FEW020", "TAF NVSG 311100Z 3112/0112 VRB02KT 9999 FEW020", "TAF NVSL 311100Z 3112/0112 VRB02KT 9999 FEW020", "TAF NVSP 311100Z 3112/0112 VRB02KT 9999 FEW020", "TAF NVSS 311100Z 3112/0112 VRB02KT 9999 FEW020", "TAF NVVA 311100Z 3112/0112 VRB02KT 9999 FEW020", "TAF NVVV 311100Z 3112/0112 VRB02KT 9999 FEW020", "TAF NVVW 311100Z 3112/0112 VRB02KT 9999 FEW020", "TAF NWWD 310500Z 3106/0106 20010KT 9999 FEW030 BECMG 3106/3108 VRB02KT", "TAF NWWE 301700Z 3018/3118 18005KT 9999 FEW025 TEMPO 3018/3021 0500 FG VV/// PROB40 TEMPO 3018/3022 BKN010 TEMPO 3100/3106 4000 SHRA BKN014 FEW020TCU", "TAF NWWK 310500Z 3106/0106 14012KT 9999 FEW020 BECMG 3108/3110 VRB02KT", "TAF NWWL 311100Z 3112/0112 10008KT 9999 FEW020 SCT035 TEMPO 0102/0108 SHRA FEW020TCU", "TAF NWWM 311100Z 3112/0112 14010KT 9999 FEW020 SCT035 TEMPO 0100/0106 4500 SHRA FEW020TCU", "TAF NWWR 311100Z 3112/0112 09008KT 9999 FEW020 PROB40 TEMPO 3113/3119 3500 BR PROB30 TEMPO 3115/3118 0900 FG VV/// PROB30 TEMPO 0102/0108 SHRA FEW020TCU", "TAF NWWU 301700Z 3018/3118 20005KT 9999 FEW025 TEMPO 3100/3109 SHRA BKN014 FEW020TCU", "TAF NWWW 311100Z 3112/0112 05005KT 9999 FEW030 TEMPO 0100/0106 4500 SHRA FEW020TCU BECMG 3123/0101 19010KT", "TAF NZAA 311142Z 3112/0118 18005KT 9999 FEW015 SCT030 TEMPO 3112/3120 BKN012 PROB30 3115/3119 1500 BR BECMG 0100/0102 24010KT BECMG 0108/0110 VRB02KT PROB30 0115/0118 1500 BR", "TAF NZCH 311142Z 3112/0118 30005KT CAVOK PROB30 3114/3119 0500 FG BKN003 BECMG 3122/0100 05010KT BECMG 0102/0104 32012KT BECMG 0107/0109 02005KT BECMG 0115/0117 02015KT", "TAF NZFX 310857Z 3109/0109 VRB06KT 9999 FEW025 SCT140 QNH2881INS", "TAF NZQN 311142Z 3112/0106 03005KT 9999 SCT065 BECMG 3121/3123 27010KT BECMG 0102/0104 01012KT", "TAF AMD NZSP 302329Z 3023/3121 05011KT 1600 IC BLSN FEW000 BKN010 QNH2858INS BLSN FEW000 ALL WINDS GRID TEMPO 3100/3106 04013KT 1200 IC BLSN SCT000 BKN010 OVC020 BLSN SCT000 BECMG 3106/3108 03014KT 0400 IC BLSN BKN000 OVC010 QNH2830INS BLSN BKN000 LAST NO ANDS ", "TAF NZWD 310857Z 3109/0109 VRB06KT 9999 FEW025 SCT140 QNH2880INS", "TAF NZWN 311142Z 3112/0118 35015KT 9999 FEW015 SCT025 BECMG 3122/0100 33018G30KT", "TAF OBBI 311100Z 3112/0118 VRB05KT 8000 SCT025 BECMG 3113/3115 13010KT", "TAF OEAB 311100Z 3112/0118 20010KT 9999 FEW020 PROB30 TEMPO 3112/3118 SCT020 FEW025CB BECMG 3118/3120 VRB03KT 7000 NSC BECMG 0109/0108 20008KT CAVOK", "TAF OEAH 311000Z 3112/0118 VRB03KT CAVOK BECMG 3120/3122 20010KT PROB30 TEMPO 0103/0109 5000 HZ NSC", "TAF OEAO 311100Z 3112/0118 24012KT CAVOK BECMG 3120/3122 VRB03KT BECMG 0109/0111 23010KT", "TAF OEBA 311100Z 3112/0118 15008KT 9999 FEW030 PROB30 TEMPO 3112/3118 FEW025CB BECMG 3118/3120 VRB03KT CAVOK BECMG 0106/0108 14010KT", "TAF OEBH 311100Z 3112/0118 11010KT CAVOK BECMG 3120/3122 18008KT BECMG 0109/0111 11010KT", "TAF OEDF 311000Z 3112/0118 13008KT CAVOK TEMPO 3121/0105 5000 HZ NSC BECMG 3121/3123 19007KT", "TAF OEDM 310400Z 3105/3121 19015KT CAVOK BECMG 3116/3118 15010KT", "TAF OEDR 311000Z 3112/0118 12008KT CAVOK TEMPO 3121/0105 5000 BR NSC BECMG 3121/3123 20006KT", "TAF OEGN 311100Z 3112/0118 23012KT 9999 FEW030 PROB30 TEMPO 3112/3118 SCT030 FEW035CB BECMG 3118/3120 VRB03KT BECMG 0106/0108 23010KT", "TAF OEGS 311100Z 3112/0118 23006KT 9999 FEW040 BECMG 3118/3120 VRB03KT BECMG 0106/0108 22012KT", "TAF OEGT 311100Z 3112/0118 31012KT CAVOK PROB40 TEMPO 3122/0104 3000 BR FEW020 BECMG 0100/0102 29006KT BECMG 0106/0108 32014KT", "TAF OEHL 311100Z 3112/0118 21010KT 9999 FEW040 BECMG 3118/3120 29012KT BECMG 0100/0102 VRB03KT BECMG 0106/0108 24010KT", "TAF OEJN 311100Z 3112/0118 29010KT CAVOK BECMG 3120/3122 VRB03KT 7000 BECMG 0106/0108 31012KT", "TAF OEKJ 311100Z 3112/0118 21013KT CAVOK BECMG 3120/3122 VRB03KT BECMG 0106/0108 21008KT", "TAF OEKM 311100Z 3112/0118 20010KT 9999 FEW020 PROB30 TEMPO 3112/3118 SCT020 FEW025CB BECMG 3118/3120 VRB03KT 7000 NSC BECMG 0109/0108 20008KT CAVOK", "TAF OEMA 311100Z 3112/0118 25010KT CAVOK BECMG 3120/3122 VRB03KT BECMG 0106/0108 21010KT", "TAF OENG 311100Z 3112/0118 07010KT CAVOK BECMG 3118/3120 VRB03KT BECMG 0106/0108 09010KT", "TAF OEPA 311000Z 3112/0118 16008KT CAVOK BECMG 0100/0102 23010KT", "TAF OEPS 310900Z 3109/0115 18010G15KT 9999 FEW250 QNH3010INS BECMG 3116/3117 16009KT 9999 FEW250 QNH3004INS BECMG 3122/3123 VRB06KT 9999 FEW250 QNH3004INS BECMG 0108/0109 18010G15KT 9999 FEW250 QNH3006INS TX35/3111Z TN21/0102Z", "TAF OERF 311100Z 3112/0118 27010KT 9999 FEW040 BECMG 3118/3120 VRB03KT BECMG 0106/0108 02010KT", "TAF OERK 311100Z 3112/0118 16008KT CAVOK BECMG 3120/3122 VRB03KT BECMG 0106/0108 200010KT", "TAF OERR 311100Z 3112/0118 31012KT 7000 NSC BECMG 0106/0108 36010KT", "TAF OESH 311100Z 3112/0118 09012KT CAVOK", "TAF OESK 311100Z 3112/0118 28010KT 9999 FEW040 BECMG 3118/3120 VRB03KT", "TAF OETB 311100Z 3112/0118 29008KT CAVOK BECMG 3120/3122 VRB03KT 7000 NSC BECMG 0108/0110 29010KT", "TAF OETF 311100Z 3112/0118 28012KT 7000 FEW030 PROB30 TEMPO 3112/3118 FEW025CB SCT030 BECMG 3120/3122 VRB03KT TEMPO 3121/0103 3000 BR BECMG 0104/0106 17006KT BECMG 0110/0112 28013KT", "TAF OETR 311100Z 3112/0118 26013KT CAVOK BECMG 3118/3120 VRB03KT 7000 NSC BECMG 0108/0110 35010KT CAVOK", "TAF OEWD 311100Z 3112/0118 10010KT CAVOK BECMG 0102/0104 VRB03KT BECMG 0109/0111 11008KT", "TAF OEWJ 311100Z 3112/0118 31014KT CAVOK BECMG 3121/3123 03008KT BECMG 0108/0110 30015KT", "TAF OEYN 311100Z 3112/0118 27012KT CAVOK BECMG 3120/3122 VRB03KT 7000 NSC BECMG 0108/0110 30018KT", "TAF OIAA 311100Z 3112/0118 19010KT 8000 FEW035 BKN090 BECMG 3118/3120 4000 HZ NSC TEMPO 0100/0104 2000 BR BECMG 0105/0107 6000 NSC", "TAF OIAW 311100Z 3112/0118 25010KT 7000 FEW040 SCT100 TEMPO 3112/3115 FEW035TCU SCT040 BKN100 BECMG 3118/3120 4000 HZ NSC TEMPO 0100/0104 2000 BR BECMG 0105/0107 6000 NSC TEMPO 0107/0118 16020KT 5000 SA NSC", "TAF OIBB 311110Z 3112/3121 22008KT 4000 HZ/BR FEW020 PROB30 TEMPO 3112/3115 22018KT 4000 SA/HZ", "TAF OIBK 311100Z 3112/0118 29008KT 5000 HZ/BR NSC TEMPO 3112/3115 2500 HZ TEMPO 0100/0105 1000 BR TEMPO 0109/0115 20014KT", "TAF OIBP 311110Z 3112/3121 29008KT 3000 HZ/BR FEW040 SCT100 PROB30 TEMPO 3112/3118 22014KT 3000 SA/HZ FEW030TCU SCT090", "TAF OICC 311110Z 3112/3121 23008KT 7000 FEW045CB BKN100 TEMPO 3112/3116 23014G24KT 4000 RA/DZ SA FEW040CB SCT045 BKN090 PROB30 TEMPO 3113/3116 2000 TS/SHRA SA SCT035CB SCT040 OVC080 TEMPO 31016/3121 26014KT 2000 TS/SHRA SA FEW035CB SCT040 OVC080 PROB30 TEMPO 3120/3121 1000", "TAF OICI 311100Z 3112/0118 18004KT 7000 FEW040 BKN090 TEMPO 3115/0103 24018G30KT 3000 SA TEMPO 0103/0109 22018KT 5000 SHRA FEW030CB SCT035 BKN090 PROB30 TSRA SCT030CB SCT035 BKN090", "TAF OIFM 311100Z 3112/0118 27008KT 7000 FEW040 TEMPO 3112/3118 26018KT FEW035CB SCT040 BKN100 BECMG 0106/0108 FEW035CB BKN100 TEMPO 0109/0118 26018KT SCT035CB SCT040 BKN100", "TAF OIGG 311110Z 3112/3121 13008KT 7000 FEW020 SCT090 PROB30 TEMPO 3112/3118 FEW020CB SCT025 BKN090 TEMPO 3118/3121 3000 BR SCT020 BKN090 PROB30 TEMPO 3120/3121 1500 BR SCT015", "TAF OIIE 311100Z 3112/0118 28010KT 8000 FEW035 SCT100 TEMPO 3112/3115 32018KT FEW035TCU SCT040 BKN100 TEMPO 3115/0103 32016G28KT 4000 SA SHRA FEW030CB SCT035 BKN100 PROB30 TSRA SCT030CB SCT035 BKN090 TEMPO 0112/0118 27018KT 5000 TS/SHRA SCT030CB SCT035 BKN090", "TAF OIII 311100Z 3112/0118 28010KT 8000 FEW040 SCT100 TEMPO 3112/3115 28020KT TEMPO 3115/3124 30020KT 5000 SHRA FEW035CB SCT040 BKN100 PROB30 TSRA SCT030CB SCT035 BKN090 BECMG 3124/0102 FEW030CB SCT035 BKN100 TEMPO 0103/0109 34018G28 3000 SA TEMPO 0106/0115 4000 TSRA SCT030CB SCT035 OVC090", "TAF OIIP 311110Z 3112/3121 32008KT 7000 FEW030CB SCT035 BKN100 TEMPO 3112/3116 32016KT 5000 RA PROB30 TEMPO 3113/3116 TSRA SA SCT030CB SCT035 OVC090 TEMPO 3116/3121 33020KT 3000 TS/SHRA SA SCT030CB SCT035 OVC080", "TAF OIKB 311100Z 3112/0118 02006KT 6000 FEW030 BECMG 3118/3120 01006KT 4000 BR TEMPO 0100/0105 1000 BR BKN025 BECMG 0106/0108 5000 HZ TEMPO 0109/0115 22014KT", "TAF OIKK 311100Z 3112/0118 35008KT 8000 FEW040 SCT100 TEMPO 3112/3115 25014KT TEMPO 0109/0115 26018KT FEW040TCU SCT100", "TAF OIMM 311100Z 3112/0118 07004KT 7000 NSC PROB30 TEMPO 3123/0105 4000 HZ TEMPO 0109/0118 33018G24KT 5000 SHRA FEW030CB SCT035 BKN100", "TAF OING 311110Z 3112/3121 06008KT 7000 FEW040 TEMPO 3112/3118 27014KT PROB30 TEMPO 3118/3121 3000 BR SCT030", "TAF OINZ 311110Z 3112/3121 10008KT 7000 NSC TEMPO 3112/3120 FEW030TCU SCT035 SCT100 PROB30 TEMPO 3120/3121 4000 BR RA/DZ SCT030 FEW035CB BKN100", "TAF OISL 311100Z 3112/0118 23006KT 8000 NSC PROB30 TEMPO 3120/0104 4000 HZ/BR", "TAF OISS 311100Z 3112/0118 03006KT 7000 NSC PROB30 TEMPO 3120/0104 4000 HZ/BR", "TAF OITL 311110Z 3112/3121 27008KT 7000 FEW030 SCT100 TEMPO 3112/3116 26014G24KT PROB30 TEMPO 3120/3121 3000 BR SCT025", "TAF OITR 311100Z 3112/0118 10008KT 8000 FEW040 BECMG 0106/0108 02008KT", "TAF OITT 311100Z 3112/0118 25008KT 8000 FEW040 TEMPO 3112/3116 22020KT TEMPO 0109/0115 33020KT 6000 FEW035CB SCT040 BKN090 PROB40 5000 TSRA SCT030CB SCT035 BKN100", "TAF OIYY 311110Z 3112/3121 10008KT 7000 FEW040 SCT100 TEMPO 3112/3116 10014KT FEW040TCU SCT045 BKN100 PROB30 TEMPO 3113/3116 02014KT FEW035CB SCT040 BKN100", "TAF OIZH 311100Z 3112/0118 06008KT 8000 NSC TEMPO 3112/3118 14014KT TEMPO 0106/0115 24018KT FEW040 SCT100", "TAF OJAI 310915Z 3112/0118 29014KT 5000 HZ SCT030 PROB30 3112/3116 4000 DU FEW030TCU SCT030 PROB40 0100/0106 VRB02KT 0500 FG", "TAF OJAM 310915Z 3112/0118 27010KT 5000 HZ FEW030 PROB30 3112/3115 4000 -RA DU FEW030TCU SCT030 PROB30 0102/0106 3000 BR", "TAF OJAQ 310915Z 3112/0118 36012KT 6000 FEW030 PROB30 0110/0115 4000 DU", "TAF AMD OKAS 310843Z 3108/0114 15012G18KT 9999 FEW250 QNH2987INS BECMG 3113/3114 12012KT 9999 SKC QNH2988INS BECMG 3120/3121 17012KT 9999 SKC QNH2986INS BECMG 0103/0104 23006KT 9999 SKC QNH2990INS BECMG 0107/0108 26012G18KT 9999 SKC QNH2983INS TX37/3111Z TN21/0103Z", "TAF OKBK 311100Z 3112/0118 16008G18KT 7000 NSC TEMPO 0100/0103 VRB03KT 4000 BR", "TAF OLBA 311000Z 3112/0118 23012KT 8000 -RA BKN026 PROB40 TEMPO 3112/3118 23012G25KT 5000 -TSRA FEW020CB BKN022 TEMPO 0106/0115 23012G25KT 5000 -TSRA FEW020CB BKN022", "TAF OMAA 311100Z 3112/0118 34012KT 8000 NSC BECMG 3118/3120 06006KT PROB40 3122/0105 4000 HZ PROB30 0101/0105 1500 BR BECMG 0101/0103 12006KT BECMG 0108/0110 33011KT", "TAF OMAD 311100Z 3112/0118 33011KT 8000 NSC BECMG 3118/3120 06005KT PROB40 3122/0105 4000 HZ PROB30 0101/0105 1500 BR BECMG 0102/0104 12005KT BECMG 0108/0110 33010KT", "TAF OMAL 311100Z 3112/0118 33010KT 8000 NSC BECMG 3119/3121 07006KT BECMG 0101/0103 14010KT BECMG 0110/0112 31010KT", "TAF COR OMDB 311059Z 3112/0118 33012KT 8000 NSC BECMG 3115/3117 13005KT PROB40 3122/0106 4000 HZ PROB30 0100/0105 1500 BR BECMG 0107/0109 33012KT BECMG 0116/0118 13005KT", "TAF OMDW 311100Z 3112/0118 33012KT 7000 NSC BECMG 3115/3117 10005KT PROB40 3120/0106 3000 BR PROB30 0100/0105 0100 FG VV/// BECMG 0108/0110 33012KT BECMG 0116/0118 12005KT", "TAF OMFJ 311100Z 3112/0118 09006KT 6000 NSC BECMG 3114/3116 VRB03KT BECMG 3121/3123 29006KT TEMPO 3122/0100 4000 HZ FEW020 BECMG 0106/0108 10010KT", "TAF OMRK 311100Z 3112/0118 33010KT 8000 NSC BECMG 3114/3116 VRB02KT PROB40 3120/0106 3000 BR PROB30 0101/0105 0100 FG VV/// BECMG 0107/0109 33010KT BECMG 0115/0117 VRB02KT", "TAF OMSJ 311100Z 3112/0118 33012KT 8000 NSC BECMG 3115/3117 13005KT PROB40 3120/0106 3000 BR PROB30 0101/0105 0100 FG VV/// BECMG 0107/0109 33012KT BECMG 0116/0118 13005KT", "TAF OODQ 310500Z 3106/0106 10012KT 8000 NSC BECMG 3118/3120 VRB02KT PROB30 TEMPO 3120/0104 VRB02KT 4000 BR BKN010", "TAF OOMS 310500Z 3106/0112 01011KT 8000 NSC BECMG 3114/3116 VRB02KT BECMG 0101/0103 28010KT", "TAF OOSA 311140Z 3112/0118 17010KT 9999 FEW025 BECMG 3117/3119 VRB03KT BECMG 0107/0109 17010KT", "TAF OOSH 310500Z 3106/0112 VRB02KT 8000 NSC TEMPO 3107/3113 07010KT PROB30 TEMPO 3118/3124 4500 BR BECMG 0107/0109 07012KT", "TAF OPBW 310945Z 3112/0106 23010KT 3500 FU NSC TN18/0101Z PROB30 TEMPO 0101/0105 36005KT 2000 BR NSC", "TAF OPDG 310945Z 3112/0106 18010KT 4000 FU NSC TN16/0101Z", "TAF OPFA 310945Z 3112/0106 09004KT 4000 FU NSC TN17/0101Z PROB30 TEMPO 3116/3119 09008G18KT 3000 DRDU SCT100 TEMPO 0100/0106 VRB02KT 1000 BR SCT100", "TAF OPGD 310930Z 3112/0112 23012KT 5000 HZ NSC BECMG 3119/3121 23005KT 3000 BR NSC TEMPO 0100/0104 00000KT 1500 BR BECMG 0104/0106 24012KT 5000 HZ NSC", "TAF OPIS 310930Z 3112/0118 12008KT 5000 FU FEW040 PROB30 TEMPO 3112/3116 27010G20KT 4000 -TSRA FEW040CB SCT040 BKN100 TEMPO 0100/0103 09006G16KT 3000 -TSRA FEW040CB SCT040 BKN100 BECMG 0103/0106 27008KT 5000 FU FEW040", "TAF OPKC 310930Z 3112/0118 27012KT 6000 NSC BECMG 3119/3121 34006KT 4000 FU NSC TEMPO 0100/0104 00000KT 2000 BR NSC BECMG 0104/0106 27012KT 6000 NSC", "TAF OPLA 310945Z 3112/0118 15004KT 4000 FU NSC TX31/0110Z TN16/0101Z BECMG 3118/3120 14003KT 3000 FU SCT100 FM010000 13003KT 1500 BR NSC TEMPO 0101/0105 00000KT 1000 BR BECMG 0106/0108 12005KT 4000 HZ SCT100", "TAF OPMT 310945Z 3112/0106 23010KT 3500 FU NSC TN17/0101Z PROB30 TEMPO 0101/0105 36005KT 1500 BR NSC", "TAF OPNH 310930Z 3112/0118 18010KT 4000 FU NSC BECMG 3119/3121 21004KT 3000 BR NSC TEMPO 0100/0104 00000KT 1500 BR NSC BECMG 0104/0106 22010KT 3000 FU NSC ", "TAF OPPS 310930Z 3112/0118 31006KT 3000 FU SCT060 SCT100 TEMPO 3112/3116 2000 FU TEMPO 3116/3121 2000 -RA SCT040 BKN100 TEMO 3121/0102 VRB02KT 2000 BR NSC", "TAF OPRK 310945Z 3112/0106 23010KT 4000 FU NSC TN17/0110Z", "TAF OPSK 310930Z 3112/0112 21008KT 4000 HZ NSC BECMG 3118/3120 00000KT 3000 BR NSC TEMPO 0100/0104 00000KT 1500 BR NSC BECMG 01045/01067 23010KT 3000 HZ NSC", "TAF OPST 310945Z 3112/0118 05006KT 4000 FU FEW040 SCT100 TX28/0110Z TN19/0101Z TEMPO 0100/0104 00000KT 2000 BR", "TAF ORBI 311100Z 3112/0112 12012KT 8000 SCT030 PROB30 TEMPO 3112/3117 -TSSHRA FEW025CB SCT030", "TAF ORER 311100Z 3112/0112 34009KT 7000 SCT040 BKN090 PROB30 3118/0103 -TSRA FEW025CB BECMG 0105/0107 25008KT NSC", "TAF ORMM 311000Z 3112/0112 16008KT CAVOK ", "TAF ORNI 311100Z 3112/0112 13015KT 3000 BLDU SCT040 BKN080 BECMG 3116/3118 6000", "TAF ORSU 311100Z 3112/0112 07010KT 7000 RA BKN040 OVC080 TEMPO 3112/3118 4000 TSSHRA FEW035CB BECMG 3122/3124 SCT045 SCT080", "OSAP 311000Z 3112/0112 06010KT 9999 FEW030 BECMG 3115/3107 33006KT 9999 FEW030", "TAF OSDI 311000Z 3112/0118 24010KT CAVOK TEMPO 3112/0118 22010KT 9999 FEW030 SCT100", "OSLK 311000Z 3112/0112 12008KT 5000HZ BECMG 3116/3118 17006KT 6000SHRA FEW025CB BKN030", "TAF OTBD 311130Z 3112/0118 14008KT 8000 NSC TEMPO 3118/0104 VRB03KT TEMPO 3121/0109 19008KT TEMPO 0100/0105 5000 HZ", "TAF OTBH 310800Z 3108/0114 16006KT 9999 FEW230 QNH2994INS BECMG 3112/3113 11008KT 9999 FEW250 QNH2990INS WND 09005KT AFT 3114 BECMG 3118/3119 15006KT 9000 HZ FEW250 QNH2991INS BECMG 0100/0101 VRB05KT 8000 BR SKC QNH2990INS TEMPO 0102/0105 5000 BR TX35/3110Z TN23/0105Z", "TAF OTHH 311130Z 3112/0118 14008KT 8000 NSC TEMPO 3118/0104 VRB03KT TEMPO 3121/0109 19008KT TEMPO 0100/0105 5000 HZ", "PAAQ 311120Z 3112/0112 VRB06KT P6SM OVC070", "PABE 311126Z 3112/0112 VRB06KT P6SM SCT050", "PABR 311147Z 3112/0112 11020KT P6SM OVC025 TEMPO 3114/3118 1SM -SHSN BR BKN015 FM311800 16015KT 5SM -SHSN OVC025", "PABT 311147Z 3112/0112 35006KT P6SM VCSH BKN050", "PACD 311120Z 3112/0112 30011KT P6SM VCSH FEW040 BKN050 FM311500 28008KT P6SM BKN060 FM312100 15011KT P6SM SCT035 OVC050 FM010400 14011KT 6SM -RA BR SCT015 OVC035 FM010800 13013G23KT 4SM -RA BR OVC015", "PACV 311139Z 3112/0112 VRB03KT P6SM VCSH OVC045 FM010900 08005KT 6SM -SN SCT015 OVC030", "PADL 311126Z 3112/0112 VRB06KT P6SM BKN100", "PADQ 311139Z 3112/0112 29030G50KT P6SM FEW040 FM312200 29025G40KT P6SM FEW040 FM010400 29012G22KT P6SM SKC", "PADU 311120Z 3112/0112 24007KT P6SM FEW030 OVC050 FM312200 16011KT 6SM -RA BR FEW010 OVC020 FM010200 16012G22KT 2SM -RA BR OVC009", "TAF PAED 311300Z 3113/0119 35006KT 9999 BKN045 BKN080 620458 QNH2957INS BECMG 3116/3117 36012KT 9999 FEW050 SCT070 BKN120 QNH2966INS BECMG 0106/0107 35009KT 9999 FEW055 BKN080 620806 QNH2991INS TXM03/3123Z TNM10/3116Z", "TAF PAEI 310600Z 3106/0112 VRB06KT 9999 BKN025 620253 QNH2938INS TEMPO 3106/3112 9000 -SN BKN010 620102 BECMG 3112/3113 VRB03KT 9999 -SN BKN040 620405 QNH2963INS BECMG 3123/3124 VRB03KT 9999 NSW SCT040 QNH2987INS TXM14/3106Z TNM24/3116Z LAST NO AMDS AFT 3106 NEXT 3114", "PAEN 311120Z 3112/0112 35009KT P6SM OVC060", "PAFA 311147Z 3112/0118 05003KT P6SM VCSH BKN050 FM312100 05003KT P6SM SCT050 BKN080", "TAF PAFB 311400Z 3114/0120 VRB04KT 9999 BKN040 620405 QNH2975INS TXM16/0100Z TNM23/3114Z", "PAGA 311147Z 3112/0112 30005KT P6SM VCSH BKN050 AMD LTD TO CLD VIS WX", "PAGK 311139Z 3112/0112 35006KT P6SM BKN080 FM010900 35005KT P6SM VCSH SCT020 OVC045", "PAGS 311135Z 3112/0112 12010KT P6SM -SHRA SCT015 OVC025 TEMPO 3112/3116 5SM -SHRA BR BKN015 OVC025 FM311600 VRB05KT P6SM VCSH BKN025 OVC040 FM010000 34005KT P6SM BKN050 AMD LTD TO CLD VIS AND WIND", "PAGY 311135Z 3112/0112 03004KT P6SM VCSH BKN020 OVC050 TEMPO 3112/3116 00000KT 6SM -SHRASN OVC020 FM010300 02012G20KT P6SM BKN060 AMD LTD TO CLD VIS AND WIND", "PAHN 311135Z 3112/0112 07008KT P6SM VCSH SCT040 OVC060 FM311300 31007KT 6SM -SHSNRA BKN020 OVC040 FM312100 31010KT P6SM VCSH BKN040 FM010400 30012KT P6SM BKN060 AMD LTD TO CLD VIS AND WIND", "PAHO 311120Z 3112/0112 35011KT P6SM SCT030 BKN090 TEMPO 3112/3115 34011G21KT 6SM -SHSN BKN030 FM311500 01009KT P6SM BKN100 FM312100 01012G22KT P6SM BKN100 FM010000 36010KT P6SM BKN100", "PAIL 311126Z 3112/0112 29010KT P6SM VCSH BKN025 OVC030 FM311500 30011KT P6SM SCT025 OVC050", "PAJN 311135Z 3112/0112 12014KT P6SM -SHRA SCT025 OVC040 TEMPO 3112/3116 5SM -SHRA BR BKN025 OVC040 FM312000 09008KT P6SM VCSH SCT025 OVC050 FM010300 VRB03KT P6SM BKN050", "PAKN 311126Z 3112/0112 31010KT P6SM SCT045 FM312000 32012G20KT P6SM FEW250", "PAKT 311135Z 3112/0112 16005KT P6SM VCSH BKN040 TEMPO 3112/3116 VRB04KT 6SM -SHRA SCT025 OVC040 FM010300 VRB05KT P6SM VCSH BKN050 AMD LTD TO CLD VIS AND WIND 3112/3115", "PAKW 311135Z 3112/0112 13008KT P6SM -SHRA BKN035 BKN060 TEMPO 3112/3116 5SM SHRA BKN015 OVC035 FM312100 VRB05KT P6SM VCSH BKN040 BKN060 FM010900 04006KT P6SM BKN060 AMD LTD TO CLD VIS AND WIND", "PANC 311120Z 3112/0118 01010KT P6SM SCT050 BKN100 TEMPO 3112/3116 01011G21KT FM311600 36011KT P6SM SCT080 BKN100 FM010500 36012G22KT P6SM SCT050 OVC080 FM011000 01011KT P6SM SCT050 BKN090", "PAOM 311147Z 3112/0112 30015KT P6SM SCT025 FM311500 27008KT P6SM VCSH OVC025 TEMPO 3115/3119 3SM -SHSN BKN025 FM312100 08005KT P6SM VCSH BKN050", "PAOR 311147Z 3112/0112 31010G18KT 6SM -SN BR SCT015 OVC035 TEMPO 3114/3118 3SM -SN BR BKN015 FM010000 30005KT 6SM -SN BR SCT025 BKN050", "PAOT 311147Z 3112/0112 10010KT P6SM VCSH OVC006 FM311800 13005KT 3SM -SHSN BR BKN010 FM312200 23005KT 5SM -SHSN BR BKN015 FM010600 11010KT P6SM SCT015", "PAPG 311135Z 3112/0112 12006KT P6SM -SHRA SCT025 OVC035 TEMPO 3112/3116 VRB04KT 6SM -SHRA BKN025 OVC035 FM311700 06005KT P6SM VCSH BKN035 BKN050 AMD LTD TO CLD VIS AND WIND 3112/3115", "PAQT 311147Z 3112/0112 15005KT P6SM SCT015", "PASC 311147Z 3112/0112 15005KT P6SM SCT015", "PASD 311120Z 3112/0112 29012KT P6SM SCT040 OVC060 TEMPO 3112/3116 30012G22KT FM311600 30008KT P6SM BKN050 FM312200 21009KT P6SM SCT020 OVC040 FM010600 16011KT 6SM -RA BR SCT010 OVC020 FM010900 16013KT 4SM -RA BR OVC010", "PASI 311135Z 3112/0112 12010KT 6SM -SHRA SCT015 OVC035 TEMPO 3112/3114 VRB05G15KT 2SM +SHRAPL BR BKN015 OVC025 FM311500 10007KT P6SM VCSH BKN035 OVC050 FM010000 09006KT P6SM BKN050", "PASN 311120Z 3112/0112 19012KT P6SM VCSH FEW030 OVC060 FM312100 18015KT 5SM -RA BR SCT009 OVC020 FM010100 17015KT 3SM -RA BR OVC009 FM010400 16015KT 2SM RA BR OVC007", "TAF PASY 310600Z 3106/0112 23020KT 9999 FEW020 OVC035 QNH3002INS BECMG 3108/3109 24015KT 9999 BKN020 OVC035 QNH2997INS BECMG 3112/3113 30012KT 9999 SCT020 OVC050 QNH2982INS BECMG 3121/3122 34025KT 9999 FEW030 SCT200 QNH2978INS TX08/3109Z TN03/0105Z LIMITED METWATCH 3106 TIL 3117", "PATA 311147Z 3112/0112 VRB03KT P6SM VCSH OVC040", "PATK 311120Z 3112/0112 01010KT P6SM OVC070", "PAUN 311147Z 3112/0112 10007KT P6SM VCSH BKN025 TEMPO 3112/3116 SCT025 FM311800 25008KT 5SM -SHSN SCT015 BKN025 FM312200 30005KT P6SM VCSH SCT025 BKN050", "PAVD 311139Z 3112/0112 08010G22KT P6SM FEW060 BKN120 TEMPO 3112/3116 VRB06KT FM011000 VRB05KT P6SM VCSH SCT030 OVC040 AMD LTD TO CLD AND WIND 3112/3115", "PAWG 311135Z 3112/0112 15007KT P6SM VCSH SCT035 OVC060 TEMPO 3112/3116 VRB03KT 6SM -SHRA BR BKN025 OVC035 FM311700 11008KT P6SM VCSH SCT035 BKN060 AMD LTD TO CLD VIS AND WIND 3112/3115", "PAYA 311135Z 3112/0112 09010KT 6SM -SHSNRA OVC020 WS020/11040KT TEMPO 3112/3116 08010G18KT 4SM -SHSN OVC015 FM311700 06008KT P6SM VCSH SCT020 OVC040 AMD LTD TO CLD VIS AND WIND", "PGRO 310524Z 3106/0106 10014KT P6SM VCSH SCT015", "PGSN 311122Z 3112/0112 10008KT P6SM VCSH SCT018", "TAF PGUA 311000Z 3110/0116 06009KT 9999 SCT015 QNH2977INS TEMPO 3117/0103 09010G15KT 6000 -SHRA BKN012 TX30/0102Z TN25/3118Z", "PGUM 311122Z 3112/0118 10006KT P6SM VCSH SCT019 SCT040", "PGWT 310524Z 3106/0106 09010KT P6SM VCSH SCT017 SCT100", "TAF PHHI 310700Z 3107/0113 VRB06KT 9999 FEW025 SCT035 QNH3001INS TEMPO 3120/0103 07012G18KT BECMG 0102/0103 06009KT 9999 SCT020 BKN040 QNH2998INS TX28/3123Z TN20/3115Z", "PHJH 302320Z 3100/3124 05015KT P6SM FEW050 FM310900 04008KT P6SM FEW050 FM312000 05015KT P6SM FEW050 AMD NOT SKED", "PHJR 311125Z 3112/0112 05006KT P6SM FEW025 FEW050 FM312000 08011KT P6SM FEW025 SCT050 FM010500 05006KT P6SM FEW025 FEW050", "PHKO 311125Z 3112/0112 10005KT P6SM FEW030 FM312000 23010KT P6SM FEW025 SCT050 FM010400 10006KT P6SM FEW030 SCT070", "PHLI 311125Z 3112/0112 05013KT P6SM SCT025 SCT045", "PHMK 311125Z 3112/0112 04008KT P6SM FEW025 SCT045 FM312000 03013G21KT P6SM FEW025 SCT040 FM010600 04009KT P6SM FEW025 SCT045", "PHNL 311125Z 3112/0118 05007KT P6SM FEW025 SCT045 FM312000 05014G20KT P6SM SCT025 SCT045 FM010500 05008KT P6SM SCT025 SCT045", "PHNY 311125Z 3112/0112 04010KT P6SM FEW025 FM312100 04014G22KT P6SM SCT025 BKN035 FM010600 04010KT P6SM FEW025", "PHOG 311125Z 3112/0112 04010KT P6SM FEW025 SCT050 FM312000 04017G24KT P6SM FEW030 SCT050 FM010500 04010KT P6SM FEW025 SCT050", "PHTO 311125Z 3112/0112 23005KT P6SM VCSH SCT025 SCT040 SCT060 FM312000 05008KT P6SM SCT025 SCT045 FM010600 23005KT P6SM SCT025 SCT040", "PKMJ 311122Z 3112/0112 11010KT P6SM VCSH FEW016 SCT050 BKN120", "PKWA 311122Z 3112/0112 07007KT P6SM VCSH SCT020 SCT050 BKN120", "TAF PLCH 311114Z 3112/0112 10008KT 9999 FEW020", "PMDY 311125Z 3112/0112 09010KT P6SM SCT025 SCT050 FM010000 12010KT P6SM SCT025 SCT050 FM011000 13010KT P6SM VCSH SCT020 BKN035", "PTKK 311122Z 3112/0112 09007KT P6SM FEW014", "PTPN 302321Z 3100/3124 13010KT P6SM SCT017 BKN130 TEMPO 3100/3104 -SHRA BKN017 OVC130", "PTRO 311122Z 3112/0112 13007KT P6SM VCSH SCT014 BKN100 TEMPO 3112/3116 4SM SHRA BKN014 OVC100", "PTSA 310524Z 3106/0106 10007KT P6SM SCT020 BKN120 TEMPO 3106/3108 BKN020 BKN120", "PTYA 311122Z 3112/0112 10007KT P6SM FEW017", "TAF PWAK 310600Z 3106/0112 09010KT 9999 FEW020 SCT040 QNH2988INS TEMPO 3118/3123 07015KT 9000 -SHRA BKN025 TX31/3107Z TN27/3112Z FOR MIL USE ONLY", "TAF RCFN 311100Z 3112/0112 01005KT 6000 -RA FEW008 BKN015 TEMPO 3112/3118 01010KT 2200 SHRA FEW007 FEW010CB BKN012 BECMG 3122/3124 02010KT 9999 FEW016 BKN032 TEMPO 0102/0109 05010KT FEW010 BKN018", "TAF RCKH 311100Z 3112/0118 36007KT 7000 -RA FEW007 BKN012 TEMPO 3119/0102 04005KT 5000 RA FEW008 BKN017 TEMPO 0102/0108 25005KT 9000 FEW016 BKN032 BECMG 0108/0110 9000 FEW016 BKN032", "TAF RCMQ 311100Z 3112/0112 02020G30KT 9999 -RA BKN012 BKN025 TX27/0105Z TN19/3121Z BECMG 3113/3116 02026G36KT TEMPO 3117/3122 5000 -RA BR SCT002 BKN006 BKN016 BECMG 0100/0103 9000 -RA TEMPO 0106/0111 SCT010 BKN020 BKN040", "TAF RCNN 311100Z 3112/0112 36006KT 8000 -RA FEW012 BKN050 TX26/0105Z TN19/3121Z TEMPO 3113/3118 9999 FEW012 BKN060 BECMG 3119/3122 36004KT 9999 FEW012 BKN060 TEMPO 3123/0104 8000 -RA FEW012 BKN050 BECMG 0105/0108 34008KT", "TAF RCSS 311100Z 3112/0112 08005KT 8000 -RA FEW010 BKN025 TEMPO 3118/3124 11009KT 5000 RA FEW007 BKN015 TEMPO 0100/0106 10010KT FEW016 BKN032 TEMPO 0106/0112 09010KT 9999 FEW016 BKN032", "TAF RCTP 311100Z 3112/0118 03017KT 7000 -RA FEW008 BKN011 TEMPO 3112/3118 4000 RA FEW003 BKN006 TEMPO 3118/3124 07012KT 5000 RA FEW004 BKN007 TEMPO 0100/0106 04022KT FEW010 BKN017 BECMG 0106/0108 06020KT FEW010 BKN016", "TAF RJAA 311105Z 3112/0118 36006KT 9999 FEW030", "TAF RJAH 311105Z 3112/0118 36006KT 9999 FEW030", "TAF RJBB 311105Z 3112/0118 07010KT 9999 FEW020 BKN045 TEMPO 0100/0109 4000 SHRA BR", "TAF RJCB 311107Z 3112/0118 17005KT 9999 FEW020 BECMG 3114/3116 33005KT BECMG 3122/0100 15011KT TEMPO 0112/0115 FEW005 BKN008 TEMPO 0115/0118 4000 SHRA BR FEW002 BKN005 FEW025CB", "TAF RJCC 311105Z 3112/0118 14007KT 9999 FEW015 BKN040 BECMG 0100/0103 15018KT TEMPO 0112/0115 4000 SHRA BR FEW005 BKN008 FEW025CB TEMPO 0115/0118 FEW005 BKN008", "TAF RJCH 311105Z 3112/0118 12013KT 9999 FEW020 BKN035 TEMPO 0109/0115 FEW010 BKN025 FEW025CB BECMG 0112/0115 25018KT", "TAF RJCK 311116Z 3112/0118 34006KT 9999 FEW020 BECMG 0100/0103 18011KT TEMPO 0115/0118 3000 SHRA BR FEW003 BKN005 FEW025CB", "TAF RJCM 311105Z 3112/0118 20005KT 9999 FEW015 TEMPO 3118/3122 3000 BR BECMG 0115/0118 18015KT", "TAF RJEC 311110Z 3112/0118 17007KT 9999 FEW008 SCT015 TEMPO 0112/0118 4000 SHRA BR FEW003 BKN006", "TAF RJFF 311105Z 3112/0118 14004KT 9999 FEW040 BECMG 0100/0103 36011KT", "TAF RJFK 311105Z 3112/0118 03003KT 9999 FEW030 SCT050", "TAF RJFM 311105Z 3112/0118 02014KT 9999 -SHRA FEW020 BKN030 BECMG 3120/3122 33007KT BECMG 0100/0103 01011KT", "TAF RJFO 311105Z 3112/0118 33005KT 9999 FEW030 SCT050", "TAF RJFR 311105Z 3112/0118 36008KT 9999 FEW030", "TAF RJFS 311106Z 3112/0118 02010KT CAVOK", "TAF RJFT 311106Z 3112/0118 05010KT 9999 FEW040 BECMG 3122/0100 32006KT BECMG 0106/0109 03007KT", "TAF RJFU 311106Z 3112/0118 36010KT CAVOK", "TAF RJGG 311105Z 3112/0118 24008KT 9999 FEW030 BKN050 BECMG 3114/3116 09012KT BECMG 0100/0103 01010KT TEMPO 0106/0112 4000 -RA BR TEMPO 0112/0115 4000 RA BR FEW004 BKN008", "TAF RJNK 311105Z 3112/0118 18004KT 9999 FEW030 BKN060 BECMG 3122/0100 02006KT BECMG 0103/0106 18004KT", "TAF RJNS 311105Z 3112/0118 04006KT 9999 FEW030 SCT060 BECMG 0109/0112 35004KT", "TAF RJNT 311105Z 3112/0118 18004KT 9999 FEW030 BKN060 TEMPO 0103/0109 4000 -SHRA BR FEW005 BKN008", "TAF RJOA 311106Z 3112/0118 02004KT 9999 FEW020 TEMPO 3121/0100 4000 -SHRA BR BCFG FEW000 SCT003 BKN008 TEMPO 0100/0106 3000 -SHRA BR BCFG FEW000 SCT003 BKN008", "TAF RJOB 311105Z 3112/0118 03005KT 9999 FEW020 SCT040 TEMPO 3121/0100 4000 -SHRA BR BCFG FEW000 BKN008 BKN015 TEMPO 0100/0109 3500 -SHRA BR BCFG FEW000 BKN005 BKN012", "TAF RJOC 311107Z 3112/0118 17006KT CAVOK BECMG 0100/0103 36005KT BECMG 0112/0115 17005KT", "TAF RJOH 311108Z 3112/0118 08007KT 9999 FEW030 BECMG 3112/3114 18005KT BECMG 0100/0103 14004KT BECMG 0112/0115 17005KT", "TAF RJOI 3109/0109 13006KT 9999 FEW030 FEW100 SCT230 QNH3010INS FM311500 31008KT 9999 FEW020 BKN050 BKN240 QNH3008INS BECMG 3119/3121 01006KT 9000 BR FEW010 BKN030 BKN140 QNH3002INS FM010200 03008KT 8000 -SHRA BR SCT010 BKN020 OVC040 550405 QNH3000INS BECMG 0105/0107 03008KT 9999 NSW FEW020 BKN040 550405 QNH3003INS T12/3121Z T19/0106Z", "TAF RJOK 311106Z 3112/0118 35010KT 9000 -SHRA FEW020 BKN035 TEMPO 3121/0106 4000 SHRA BR", "TAF RJOM 311108Z 3112/0118 12005KT 9999 FEW020 BKN050 BECMG 3120/3122 01012KT TEMPO 0100/0106 4000 SHRA BR", "TAF RJOO 311105Z 3112/0118 06010KT 9999 FEW025 SCT045 TEMPO 0100/0109 4000 SHRA BR BECMG 0109/0112 33007KT", "TAF RJOT 311109Z 3112/0118 15005KT 9999 FEW015 BKN025 TEMPO 3120/0100 4000 -SHRA BR FEW001 SCT005 BKN008 TEMPO 0100/0106 3000 SHRA BR BCFG FEW000 SCT003 BKN008 TEMPO 0109/0118 4000 BR BCFG FEW000 SCT003 BKN008", "TAF RJSA 311105Z 3112/0118 21004KT 9999 FEW020 TEMPO 0112/0118 4000 SHRA BR", "TAF RJSF 311105Z 3112/0118 20004KT 9999 FEW020 TEMPO 3118/0100 1500 BR FEW001 BKN003", "TAF RJSI 311105Z 3112/0118 19005KT 9999 FEW030 BKN050 BECMG 3113/3115 01004KT BECMG 0100/0103 19008KT BECMG 0112/0115 01004KT TEMPO 0112/0118 4000 SHRA BR FEW005 BKN008 BKN015", "TAF RJSK 311105Z 3112/0118 13007KT 9999 FEW010 TEMPO 0109/0118 3000 SHRA BR FEW002 BKN005 BKN008", "TAF RJSN 311105Z 3112/0118 15008KT 9999 FEW030 BECMG 0100/0103 20012KT", "TAF RJSS 311106Z 3112/0118 08005KT 9999 FEW020 BKN030 BECMG 3114/3116 34004KT BECMG 0103/0106 12008KT BECMG 0109/0112 25004KT", "TAF RJTT 311105Z 3112/0118 35012KT 9999 FEW020", "TAF RJTY 311300Z 3113/0119 VRB06KT 9999 FEW015 SCT020 BKN070 QNH3027INS BECMG 0100/0101 34009KT 9999 SCT025 BKN030 OVC070 QNH3014INS TEMPO 0109/0114 9000 VCSH SCT020 BKN025 TX19/0105Z TN08/3121Z LAST NO AMDS AFT 3113 NEXT 3121", "TAF RKJB 311100Z 3112/0118 05006KT CAVOK TN08/3121Z TX19/0105Z BECMG 3114/3115 3500 BR NSC TEMPO 3118/3122 0800 FG BKN002 BECMG 0100/0101 35010KT 7000 NSW BECMG 0112/0113 05006KT 4000 BR", "TAF AMD RKJK 310905Z 3109/0114 31006KT 9999 FEW150 QNH3019INS BECMG 3113/3114 35006KT 6000 BR FEW030 SCT140 QNH3018INS BECMG 3116/3117 VRB06KT 4800 BR FEW020 SCT120 QNH3016INS TEMPO 3118/3121 3200 BR BECMG 3122/3123 01006KT 9000 HZ FEW015 BKN030 QNH3013INS BECMG 0101/0102 03006KT 9999 NSW FEW010 BKN020 QNH3012INS BECMG 0105/0106 33009KT 9999 SCT030 QNH3010INS BECMG 0111/0112 35009KT 9999 SKC QNH3014INS TX16/0105Z TN10/3122Z", "TAF RKNY 311100Z 3112/0118 25010KT 9999 SCT030 TN12/3121Z TX19/0104Z TEMPO 0102/0106 01006KT BECMG 0106/0108 34006KT BECMG 0112/0114 27010KT", "TAF RKPC 311100Z 3112/0118 12007KT 9999 FEW030 TN15/3120Z TX19/0105Z BECMG 3116/3117 01008KT TEMPO 0110/0115 36015G25KT", "TAF RKPK 311100Z 3112/0118 06008KT CAVOK TN08/3121Z TX23/0106Z", "TAF RKSG 311100Z 3111/0117 VRB06KT 9999 FEW027 QNH3021INS BECMG 3119/3120 VRB06KT 2400 BR SCT012 QNH3018INS BECMG 3123/3124 VRB06KT 9000 BR SCT015 QNH3013INS BECMG 0107/0108 30012KT 9999 NSW FEW019 QNH3013INS TX16/0105Z TN08/3120Z", "TAF RKSI 311100Z 3112/0118 30006KT 6000 NSC TN11/3121Z TX17/0105Z BECMG 3116/3118 13006KT 4000 BR TEMPO 3121/3124 25006KT FEW010 BKN025 OVC070 BECMG 0100/0102 31007KT 6000 NSW BECMG 0105/0107 33015G25KT CAVOK BECMG 0110/0112 34008KT", "TAF RKSM 311100Z 3112/0118 24006KT 9999 SCT030 SCT130 BECMG 3117/3118 27006KT 4800 BR BKN015 BECMG 0102/0103 30008KT 9999 NSW SCT015 TN09/3121Z TX19/0106Z", "TAF RKSO 311300Z 3113/0119 VRB06KT 4800 BR SCT015 QNH3022INS BECMG 3114/3115 VRB06KT 3200 BR SCT015 QNH3021INS BECMG 3116/3117 VRB06KT 1600 BR BKN010 QNH3019INS TEMPO 3118/3122 0800 FG VV001 BECMG 3123/3124 VRB06KT 4800 BR BKN015 QNH3021INS BECMG 0102/0103 28009KT 8000 HZ BKN020 QNH3017INS BECMG 0106/0107 31006KT 9999 NSW FEW020 QNH3014INS TX18/0106Z TN08/3121Z", "TAF RKSS 311100Z 3112/0118 31005KT 4000 BR FEW012 SCT120 TN08/3121Z TX18/0106Z BECMG 3119/3121 12005KT 2000 FEW012 BKN025 OVC080 BECMG 3122/3124 17005KT 4000 BECMG 0102/0104 32006G17KT 6000 NSW SCT035 BECMG 0116/0118 06005KT", "TAF RKTN 311100Z 3112/0118 13006KT 9999 SCT030 SCT200 TN06/3121Z TX22/0106Z", "TAF RKTU 311100Z 3112/0118 09006KT CAVOK TN06/3121Z TX20/0106Z BECMG 3120/3121 33006KT 4800 BR NSC BECMG 3123/3124 CAVOK", "TAF ROAH 311108Z 3112/0118 04020KT 9999 -SHRA FEW008 BKN015 TEMPO 3118/0100 FEW005 BKN008 BKN012 TEMPO 0100/0112 4000 SHRA FEW005 BKN008 BKN012 FEW020CB", "TAF AMD RODN 311340Z 3113/0114 06015G20KT 9999 VCSH SCT030 BKN050 QNH2979INS TEMPO 3115/3120 6000 RA SCT007 BKN018 BECMG 0100/0101 06015G25KT 8000 RA BKN015 QNH2983INS TX24/0103Z TN22/3118Z", "TAF ROIG 311110Z 3112/0118 07010KT 9999 -SHRA FEW008 BKN015 TEMPO 3112/0109 4000 SHRA FEW005 BKN008 BKN012 FEW020CB BECMG 0100/0103 04028KT TEMPO 0109/0115 04030G40KT", "TAF ROTM 3109/0109 03013G18KT 8000 -SHRA BKN007 BKN015 OVC050 631409 622304 510503 QNH2978INS TEMPO 3109/3115 03010KT 3200 SHRA BKN007 BKN012 OVC040 FM311500 03012KT 8000 -SHRA BKN010 BKN007 BKN015 OVC050 631409 622304 510503 QNH2976INS TEMPO 3115/3121 04010KT 3200 SHRA BKN007 BKN012 OVC040 BECMG 3120/3122 03012G20KT 8000 -SHRA BKN007 BKN012 OVC040 QNH2976INS TEMPO 0101/0107 03015G25KT 1600 SHRA BKN007 BKN012 OVC040 T21/3118Z T24/0105Z", "TAF RPLB 311100Z 3112/0112 19015KT 8000 -RA SCT018 OVC070 TX28/0106Z TN25/3121Z TEMPO 3112/3118 20020G35KT 6000 RA SCT018 OVC080", "TAF RPLC 311100Z 3112/0118 18012KT 5000 -RA SCT018 OVC080 TX28/0106Z TN24/3121Z TEMPO 3112/3118 16012KT 6000 SCT018 OVC090", "TAF RPLI 311100Z 3112/0112 20007KT 9999 FEW018 SCT090 BKN280 TEMPO 3112/3118 18010KT 8000 -RA FEW017CB SCT018 BKN090", "TAF RPLL 311100Z 3112/0118 21008KT 9999 SCT023 BKN090 TX29/0106Z TN25/3121Z TEMPO 3112/3118 18012KT 8000 -SHRA FEW020CB SCT022 OVC090 TEMPO 3118/3124 16005KT SCT023 OVC090 BECMG 0103/0105 26008KT", "TAF RPMD 311100Z 3112/0112 16006KT 9999 FEW016 SCT290 TEMPO 3112/3118 19010KT FEW015CB SCT016 BKN090", "TAF RPMR 311100Z 3112/0112 19006KT 9999 FEW018 SCT290 TEMPO 3112/3118 23008KT FEW017CB SCT018 SCT080", "TAF RPMZ 311100Z 3112/0112 13006KT 9999 FEW017 BKN300 TEMPO 3112/3118 17008KT FEW016CB SCT017 BKN090 BECMG 0100/0102 27006KT", "TAF RPVD 311100Z 3112/0112 14008KT 9999 FEW015 SCT070 TEMPO 3112/3118 25010KT FEW014CB FEW015 BKN070", "TAF RPVM 311100Z 3112/0118 23005KT 9999 FEW020 SCT300 TEMPO 3112/3118 25006KT FEW020 SCT100 TEMPO 3118/3124 FEW020 BKN300", "TAF RPVP 311100Z 3112/0112 21008KT 9999 FEW019 BKN080 TEMPO 3112/3118 21012KT 8000 -SHRA FEW017CB SCT019 OVC080", "TAF SAAR 311100Z 3112/0112 20015KT CAVOK TX19/3118Z TN07/0109Z BECMG 3123/0102 VRB03KT ", "TAF SABE 311100Z 3112/0112 20015G25KT CAVOK TX18/3118Z TN09/0109Z BECMG 3116/3118 9999 SCT040 BECMG 0100/0102 20010KT CAVOK ", "TAF SACO 310500Z 3106/0106 19016G25KT CAVOK TX19/3118Z TN07/3110Z BECMG 3112/315 18015KT BECMG 0102/0104 27005KT", "TAF SADF 311100Z 3112/0112 19010KT CAVOK TX18/3118Z TN07/0109Z BECMG 3112/3114 20015G25KT 9999 SCT030 BECMG 3122/3124 18010KT CAVOK", "TAF SAEZ 311100Z 3112/0112 20010G20KT CAVOK TX18/3118Z TN07/0109Z BECMG 3115/3118 9999 BKN050 BECMG 0100/0103 20005KT CAVOK", "TAF SAME 311100Z 3112/0112 18005KT 9999 FEW040 TX19/3120Z TN05/0110Z BECMG 3113/3115 05010KT CAVOK", "TAF SANR 311100Z 3112/0112 18005KT CAVOK TX21/3118Z TN12/0110Z BECMG 0103/0106 VRB03KT CAVOK", "TAF SANT 311100Z 3112/0112 20005KT 7000 HZ NSC TX22/3018Z TN07/0110Z BECMG 0103/0106 VRB03KT 7000 HZ NSC", "TAF AMD SARE 311344Z 3114/0112 18015KT CAVOK TX19/3118Z TN08/0110Z PROB30 0108/0111 1500 BR NSC", "TAF SARF 311100Z 3112/0112 18015G25KT 6000 -TSRA SCT015 BKN030 FEW050CB TX21/3119Z TN10/0110Z BECMG 3117/3119 9999 NSW SCT015 BECMG 0100/0102 CAVOK", "TAF SARI 311100Z 3112/0112 VRB02KT 5000 TSRA BKN010 FEW050CB BKN050 TX19/3119Z TN12/0110Z BECMG 3115/3117 18010KT BECMG 0106/0108 1500 BR BKN015 BECMG 0110/0112 CAVOK", "TAF SARP 311100Z 3112/0112 18015KT 5000 TSRA BKN015 FEW050CB BKN050 TX19/3119Z TN10/0110Z BECMG 0100/0102 9999 NSW SCT015 BECMG 0106/0108 CAVOK", "TAF SASA 311100Z 3112/0112 09010KT 9999 BKN040 TX20/3118Z TN05/0110Z BECMG 0103/0106 27005KT SCT045", "TAF SASJ 311100Z 3112/0112 18015KT 9999 BKN050 TX20/3118Z TN07/0110Z BECMG 3118/3121 18015G25KT 5000 PO BKN040 BECMG 0103/0106 20010G20KT 8000 SCT030", "TAF SAVC 311100Z 3112/0112 32005KT CAVOK TX21/3119Z TN09/0109Z BECMG 3118/3120 29010KT", "TAF AMD SAVV 301830Z 3018/3118 20025G35KT 9999 DZ SCT020 BKN035 TX15/3019Z TN04/3110Z TEMPO 3018/3022 14025G35KT 4000 RA BKN020 SCT030TCU BECMG 3023/3101 25010KT CAVOK BECMG 3112/3114 18010KT ", "TAF SAWE 311100Z 3112/0112 27020G30KT 9999 SCT040 TX09/3118Z TN03/0109Z BECMG 3112/3114 29025G35KT 9999 SCT030 BKN080 PROB30 3112/3115 9000 -RA SCT030 BKN040 BECMG 3119/3121 6000 RA BKN020 OVC040 TEMPO 3122/0102 3000 RA OVC030 BECMG 0103/0105 27015G25KT 9999 SCT020 SCT030", "TAF SAWG 311100Z 3112/0112 28015KT CAVOK TX17/3118Z TN06/0109Z BECMG 3112/3114 28020G30KT 9999 SCT030 BECMG 3122/3124 25015G25KT 9999 SCT020 BKN035", "TAF SAWH 311100Z 3112/0112 VRB05KT 9999 SCT040 TX08/3118Z TN02/0109Z BECMG 3112/3114 27015G30KT 7000 RA SCT020 BKN040 TEMPO 3116/3121 3000 RA BKN010 BKN030 BECMG 3124/0102 29010G20KT 8000 SCT009 SCT015 0106/0109 27010KT 9999 SCT015 ", "TAF SAZM 311100Z 3112/0112 22015KT 9999 SCT035 SCT045 TX13/3117Z TN00/0108Z TEMPO 3113/3117 21015G25KT 7000 SHRA BKN030 FEW040TCU BECMG 3121/3123 20010KT CAVOK BECMG 0102/0104 27005KT ", "TAF SAZN 311100Z 3112/0112 VRB03KT CAVOK TX21/3119Z TN07/0110Z BECMG 3116/3118 30010KT BECMG 3120/3122 VRB03KT ", "TAF SAZS 311100Z 3112/0112 VRB03KT CAVOK TX17/3119Z TN03/0110Z ", "TAF SBAC 310805Z 3112/3124 06015KT 9999 FEW025 TX32/3116Z TN28/3121Z RMK PHI", "TAF SBAF 310900Z 3112/3124 34007KT 9999 FEW030 TX35/3116Z TN23/3123Z BECMG 3112/3114 34012G22KT BECMG 3115/3117 34012KT BECMG 3119/3121 18007KT 6000 TSRA BKN015 FEW030CB RMK PFO", "TAF SBAN 310900Z 3112/3124 35002KT 9999 FEW030 TX29/3117Z TN21/3123Z BECMG 3116/3118 30010KT 8000 TSRA SCT035 FEW040CB BECMG 3121/3123 24007KT NSW SCT035 FEW035TCU RMK PFO", "TAF SBAR 310805Z 3112/0112 08010KT 9999 SCT020 TX29/3116Z TN24/0108Z RMK PHI", "TAF SBAT 310900Z 3112/3124 35005KT 9999 FEW025 TN29/3112Z TX34/3117Z BECMG 3115/3117 02010KT 8000 BKN025 FEW030TCU TEMPO 3118/3123 25015KT 6000 TSRA BKN020 FEW027CB RMK PGB", "TAF SBBE 310900Z 3112/0112 06010KT 8000 SCT025 TX33/3117Z TN25/0109Z BECMG 3115/3117 01010KT BKN030 FEW040TCU BECMG 3120/3122 04010KT 9999 FEW030 BECMG 0104/0107 07007KT 8000 BECMG 0110/0112 6000 BKN020 RMK PGB", "TAF SBBG 310900Z 3112/3124 18012KT 8000 SCT010 BKN020 TN18/3112Z TX30/3115Z TEMPO 3113/3114 SCT035 BECMG 3120/3122 24006KT CAVOK RMK PFM", "TAF SBBI 310900Z 3112/3124 30010KT 5000 TSRA BKN010 FEW030CB TX22/3116Z TN13/3123Z BECMG 3113/3115 8000 NSW BKN015 BECMG 3115/3116 11012KT 4500 TSRA BKN015 FEW030CB BECMG 3118/3120 8000 NSW BKN012 RMK PFO", "TAF SBBR 310800Z 3112/0112 34006KT 8000 SCT030 TX29/3117Z TN20/0109Z BECMG 3113/3115 30007KT SCT030 FEW050TCU TEMPO 3116/3120 VCTS SCT030 FEW050CB TEMPO 3121/3124 VRB05KT TSRA SCT045 FEW050CB BECMG 0101/0103 VRB04KT RA SCT040 BECMG 0104/0106 00000KT CAVOK RMK PGH", "TAF SBBU 310830Z 3112/3124 35010KT 9999 SCT045 FEW050TCU TX29/3115Z TN21/3123Z TEMPO 3112/3118 30012G24KT 8000 TSRA BKN040 FEW045CB TEMPO 3118/3124 19015KT 7000 TSRA BKN030 FEW040CB RMK PGL", "TAF SBBV 310900Z 3112/0112 08010KT 7000 SCT010 BKN025 TX34/3117Z TN25/0109Z BECMG 3115/3117 10010KT 9999 SCT035 FEW040TCU PROB30 3118/3121 6000 TSRA BKN020 FEW030CB BECMG 3122/3124 08007KT SCT030 BECMG 0105/0107 05007KT BECMG 0110/0112 8000 SCT020 RMK PGB", "TAF SBBW 310800Z 3112/3124 00000KT 9999 SCT020 TX30/3117Z TN24/3124Z BECMG 3113/3115 25005KT SCT020 FEW025TCU TEMPO 3116/3120 VRB07KT TSRA SCT020 FEW025CB BECMG 3121/3123 VRB05KT VCTS SCT020 FEW025CB RMK PGH", "TAF SBCB 310805Z 3112/3124 05007KT 9999 SCT015 BKN040 TX32/3117Z TN25/3124Z BECMG 3112/3114 07017KT PROB40 3120/3123 TS BKN025 FEW030CB RMK PHI", "TAF SBCF 310800Z 3112/0112 01005KT 8000 SCT030 TX28/3117Z TN20/0109Z BECMG 3113/3115 35009KT SCT040 FEW045TCU TEMPO 3115/3119 TSRA BKN040 FEW045CB TEMPO 3120/3124 VRB07KT VCTS BKN040 FEW045CB BECMG 0101/0103 00000KT 8000 RA BKN015 PROB30 0107/0111 4000 RA BR BKN008 RMK PGH", "TAF SBCG 310800Z 3112/0112 33012KT 8000 SCT040 TX29/3117Z TN17/0109Z TEMPO 3112/3116 25014KT 4000 TSRA BR BKN006 SCT040 FEW045CB BECMG 3117/3119 19013KT RA BKN018 BECMG 0109/0111 NSW SCT040 RMK PGH", "TAF SBCJ 310900Z 3112/3124 02007KT 9999 SCT030 TN26/3112Z TX32/3119Z BECMG 3114/3116 05007KT BECMG 3119/3121 08007KT 8000 SCT025 RMK PGB", "TAF SBCO 310900Z 3112/3124 18012KT 8000 -RA SCT013 BKN040 TN20/3112Z TX28/3116Z BECMG 3114/3116 19015G25KT 4000 TSRA SCT030 FEW040CB BECMG 3121/3122 SCT018 RMK P FM", "TAF SBCP 310805Z 3112/3124 36007KT 9999 FEW020 TX32/3116Z TN25/3124Z BECMG 3115/3117 06015KT PROB30 3122/3124 TS SCT020 FEW025CB RMK PHI", "TAF SBCR 310800Z 3112/0112 24015KT 8000 SCT040 TX28/3118Z TN16/0109Z TEMPO 3112/3116 22019KT 4000 TSRA BR BKN006 SCT015 FEW035CB BECMG 3117/3119 21015KT BKN015 RMK PGH", "TAF SBCT 310900Z 3112/0112 30010KT 5000 TSRA BKN010 FEW030CB TX21/3115Z TN10/0108Z BECMG 3113/3115 8000 NSW BKN015 BECMG 3115/3116 11012KT 4500 TSRA BKN015 FEW030CB BECMG 3118/3120 8000 NSW BKN012 RMK PFO", "TAF SBCY 310900Z 3112/0112 32010KT 9999 SCT025 TX34/3116Z TN16/0109Z BECMG 3115/3117 28010KT 8000 BKN025 FEW030TCU TEMPO 3119/0102 21020G30KT 2000 TSRA BKN015 FEW025CB BECMG 0103/0106 21015KT 6000 DZ SCT007 OVC020 RMK PGB", "TAF SBCZ 310900Z 3112/0112 34005KT 9999 FEW020 TX32/3118Z TN24/0112Z BECMG 3115/3117 35007KT 8000 BKN025 FEW030TCU BECMG 3118/3119 4500 TSRA BKN017 FEW025CB BECMG 3121/3122 02007KT 9999 NSW SCT025 BECMG 0110/0112 16010KT 6000 TSRA BKN015 FEW023CB RMK PGB", "TAF SBDN 310830Z 3112/3124 35010KT 9999 SCT045 FEW050TCU TX26/3116Z TN22/3123Z TEMPO 3112/3118 23010KT 8000 TSRA BKN025 FEW045CB TEMPO 3118/3124 27008KT 9000 TSRA BKN030 FEW040CB RMK PGL", "TAF SBEG 310900Z 3112/0112 01007KT 9999 SCT025 TX33/3118Z TN26/0108Z BECMG 3115/3117 05007KT 8000 SCT025 FEW035TCU BECMG 3120/3122 08007KT 9999 FEW025 BECMG 0104/0106 13010KT SCT030 BECMG 0110/0112 24010KT 5000 TSRA BKN015 FEW027CB RMK PGB", "TAF SBFI 310900Z 3112/0112 18012KT 8000 BKN015 TX19/3115Z TN08/0108Z BECMG 3114/3115 18015G25KT BECMG 3116/3117 6000 TSRA BKN014 FEW030CB BECMG 3117/3119 8000 NSW BKN020 BECMG 3121/3124 18008KT BECMG 0110/0112 18012G22KT RMK PFO", "TAF SBFL 310900Z 3112/0112 17010KT 9999 FEW040 TX24/3117Z TN20/0108Z BECMG 3113/3115 36010KT SCT030 BECMG 3115/3117 12013G25KT 9999 SCT020 BECMG 3118/3120 20010KT 8000 RA BKN015 FEW030TCU BECMG 3122/3124 18012KT 9999 NSW BKN010 RMK PCQ", "TAF SBFN 310805Z 3112/3124 16005KT 9999 SCT017 TX30/3115Z TN26/3124Z RMK PHI", "TAF SBFZ 310805Z 3112/0112 10015KT 9999 SCT025 TX31/3117Z TN25/0109Z BECMG 0107/0109 16008KT BECMG 0110/0112 10015KT RMK PHI", "TAF SBGL 310805Z 3112/0118 34010KT 8000 FEW020 BKN040 TX34/3117Z TN23/0108Z TEMPO 3112/3115 25010KT 4000 RA BKN013 BECMG 3117/3119 32015G30KT 4000 TSRA BKN017 FEW030CB BECMG 3120/3122 28008KT 6000 NSW BKN013 BECMG 0103/0105 22007KT TEMPO 0108/0114 24017KT 4000 RA BR BKN007 RMK PHI", "TAF SBGO 310800Z 3112/0112 34005KT 8000 SCT035 TX30/3117Z TN21/0109Z BECMG 3114/3116 30008KT SCT040 FEW050TCU TEMPO 3117/3121 TSRA SCT040 FEW050CB TEMPO 3122/0102 VCTS SCT040 FEW050CB BECMG 0103/0105 VRB05KT RA SCT040 BECMG 0106/0108 00000KT CAVOK RMK PGH", "TAF SBGR 310830Z 3112/0118 35010KT 7000 RA SCT010 BKN030 TX28/3116Z TN14/0108Z BECMG 3114/3116 29015KT 9999 NSW SCT030 BECMG 3116/3118 BKN035 FEW040TCU TEMPO 3118/3124 23012G23KT 5000 TSRA BR BKN015 FEW045CB TEMPO 0100/0112 17007KT 8000 RA BKN011 TEMPO 0112/0118 17015KT 6000 RA BKN015 RMK PGL", "TAF SBGW 310900Z 3112/3124 34005KT 9999 SCT030 TX31/3117Z TN22/3123Z BECMG 3114/3115 8000 SCT015 FEW025TCU BECMG 3117/3119 4000 TSRA SCT013 FEW030CB BECMG 3121/3123 8000 NSW SCT015 FEW025TCU RMK PFO", "TAF SBIH 310900Z 3112/3124 08007KT 9999 SCT023 TN29/3112Z TX35/3118Z BECMG 3114/3116 05010KT SCT020 FEW027TCU PROB30 3118/3120 08010KT 6000 TSRA BKN020 FEW025CB BECMG 3121/3122 06007KT FEW030 RMK PGB", "TAF SBIL 310800Z 3112/3124 04008KT 8000 SCT020 TX28/3117Z TN25/3124Z PROB30 3112/3113 7000 RA SCT008 BKN015 BECMG 3113/3115 06011KT TEMPO 3115/3119 VCSH SCT020 FEW035TCU RMK PGH", "TAF SBIZ 310900Z 3112/3124 03010KT 9999 SCT030 TN30/3112Z TX37/3119Z BECMG 3114/3116 07007KT BKN030 BECMG 3119/3121 01007KT SCT025 RMK PGB", "TAF SBJE 310805Z 3112/3124 07015KT 9999 SCT020 TX37/3117Z TN31/3121Z RMK PHI", "TAF SBJP 310805Z 3112/0112 11015KT 9999 BKN025 TX30/3116Z TN22/0108Z BECMG 3121/3123 13005KT BECMG 0102/0104 19005KT PROB30 TEMPO 0104/0110 3500 RA BKN010 BECMG 0110/0112 11015KT RMK PHI", "TAF SBJV 310900Z 3112/3124 31005KT 5000 BR BKN008 TN22/3112Z TX25/3117Z BECMG 3116/3118 05007KT 8000 RA SCT030 BECMG 3121/3123 36006KT 9999 NSW SCT015 RMK PCQ", "TAF SBKG 310805Z 3112/3124 10013KT 9999 BKN020 TX31/3117Z TN22/3124Z RMK PHI", "TAF AMD SBKP 311311Z 3114/0112 35010KT 3000 TSRA FEW009 BKN020 FEW040CB TX28/3116Z TN16/0109Z TEMPO 3116/3124 26013G23KT 6000 TSRA BKN030 FEW040CB TEMPO 0100/0106 15010KT 8000 RA BKN020 BECMG 0106/0108 16015KT 6000 NSW BKN030 FEW040TCU RMK PHH", "TAF AMD SBLO 311311Z 3114/3124 20005KT 2000 TSRA BKN005 FEW035CB TX25/3116Z TN20/3123Z TEMPO 3114/3118 25018G28KT 6000 TSRA BKN015 FEW030CB TEMPO 3118/3124 20006KT 8000 RA BKN015 RMK PHH", "TAF SBMA 310900Z 3112/3124 36010KT 9999 SCT030 TX38/3118Z TN29/3123Z BECMG 3115/3117 03010KT BKN030 FEW040TCU BECMG 3119/3121 32007KT SCT025 RMK PGB", "TAF SBME 310805Z 3112/3124 04010KT 9999 SCT020 TX34/3117Z TN25/3124Z BECMG 3116/3118 10012KT BECMG 3119/3121 04010KT PROB40 3121/3124 32007KT TS SCT020 FEW025CB RMK PHI", "TAF SBMN 310900Z 3112/3124 30003KT CAVOK TN28/3112Z TX33/3116Z BECMG 3112/3114 06005KT 9999 SCT015 BECMG 3119/3121 02005KT SCT020 FEW025TCU BECMG 3121/3123 08005KT FEW020 RMK PCQ", "TAF SBMO 310805Z 3112/0112 08010KT 9999 SCT023 TX30/3116Z TN21/0108Z BECMG 0101/0103 02005KT BECMG 0104/0106 32005KT BECMG 0109/0111 08010KT RMK PHI", "TAF SBMQ 310900Z 3112/0112 08010KT 8000 SCT025 TX35/3117Z TN25/0109Z BECMG 3116/3118 SCT020 FEW040TCU BECMG 3121/3123 05010KT 9999 FEW030 BECMG 0102/0104 02007KT SCT017 BECMG 0108/0110 07010KT SCT012 BKN030 RMK PGB", "TAF SBNF 310900Z 3112/0112 28005KT 9999 SCT020 TX24/3117Z TN20/0108Z BECMG 3119/3121 04010KT 8000 RA BKN012 FEW030TCU BECMG 3122/3124 18008KT 9999 NSW BKN015 RMK PCQ", "TAF SBNT 310805Z 3112/3124 11017KT 9999 BKN020 TX30/3116Z TN25/3124Z BECMG 3121/3123 15007KT RMK PHI", "TAF SBOI 310900Z 3112/3124 09007KT 8000 SCT020 FEW027TCU TN27/3112Z TX31/3117Z BECMG 3116/3118 06007KT 9999 SCT030 BECMG 3121/3123 FEW030 RMK PGB", "TAF SBPA 310900Z 3112/0112 18012KT 8000 -RA SCT013 BKN040 TX28/3116Z TN17/0109Z BECMG 3114/3116 19015G25KT 4000 TSRA SCT030 FEW040CB BECMG 3121/3122 SCT018 RMK PFM", "TAF SBPB 310805Z 3112/3124 13017G27KT 9999 FEW020 TX33/3116Z TN30/3121Z RMK PHI", "TAF SBPJ 310805Z 3112/0112 20005KT 9999 FEW030 TX35/3118Z TN23/0109Z BECMG 3115/3117 26005KT TS FEW030 FEW033CB BECMG 3121/3123 19005KT NSW FEW030 BECMG 0101/0103 13005KT TEMPO 0106/0112 4000 TSRA BKN020 FEW030CB RMK PHI", "TAF SBPK 310900Z 3112/0112 18012KT 8000 SCT010 BKN020 TX28/3115Z TN15/0109Z TEMPO 3113/3114 SCT035 BECMG 3120/3122 24006KT CAVOK RMK PFM", "TAF SBPL 310805Z 3112/0112 15010KT 9999 SCT025 TX35/3118Z TN23/0108Z RMK PHI", "TAF AMD SBPP 311311Z 3114/0112 18014KT 0200 FG OVC001 TX20/3115Z TN10/0108Z TEMPO 3116/3118 25015G35KT 5000 RA BR SCT006 BKN010 BECMG 3118/3120 19015KT 8000 BKN015 TEMPO 0100/0106 8000 RA RMK PHH", "TAF SBPS 310805Z 3112/0112 03005KT 8000 BKN020 TX28/3116Z TN23/0108Z TEMPO 3112/3115 4000 RA BKN010 BECMG 3115/3117 06015KT BECMG 3123/0101 04005KT BECMG 0106/0108 34005KT BECMG 0110/0112 04007KT RMK PHI", "TAF SBPV 310900Z 3112/0112 35005KT CAVOK TX33/3118Z TN20/0110Z BECMG 3115/3117 8000 SCT025 FEW035TCU PROB30 3118/3120 28010KT 6000 TSRA BKN020 FEW030CB BECMG 3122/3124 18010KT 9999 SCT030 FEW045TCU TEMPO 0105/0112 16015G25KT 3000 TSRA BKN012 FEW020CB RMK PGB", "TAF SBRB 310900Z 3112/3124 32007KT CAVOK TX34/3116Z TN25/3123Z BECMG 3115/3117 28010KT 8000 BKN025 FEW030TCU BECMG 3118/3119 24010KT 5000 TSRA BKN020 FEW025CB BECMG 3121/3122 20007KT 9999 NSW SCT025 RMK PGB", "TAF SBRF 310805Z 3112/0112 12008KT 9999 SCT023 TX29/3116Z TN26/0108Z TEMPO 0106/0112 4000 RA BKN012 RMK PHI", "TAF SBRJ 310805Z 3112/3124 34008KT 8000 FEW020 BKN040 TX33/3117Z TN23/3124Z TEMPO 3112/3115 4000 RA BKN013 BECMG 3117/3119 33015G30KT 4000 TSRA BKN017 FEW030CB BECMG 3121/3123 20010KT 6000 NSW BKN013 RMK PHI", "TAF SBRP 310800Z 3112/3124 34008KT 8000 SCT035 TX29/3118Z TN24/3124Z BECMG 3113/3115 30009KT SCT035 FEW045TCU TEMPO 3116/3120 28010KT TSRA SCT035 FEW045CB TEMPO 3121/3124 VRB05KT VCTS SCT035 FEW045CB RMK PGH", "TAF SBSC 310900Z 3112/3124 34010KT 9999 FEW030 TX35/3116Z TN23/3123Z BECMG 3112/3114 34012G22KT BECMG 3115/3117 34012KT BECMG 3119/3121 18012KT 6000 TSRA BKN015 FEW030CB RMK PFO", "TAF SBSG 310805Z 3112/0112 16015KT 9999 BKN025 TX31/3116Z TN22/0108Z BECMG 3120/3122 17005KT BECMG 0100/0103 23005KT BECMG 0109/0111 16012KT RMK PHI", "TAF AMD SBSJ 311311Z 3114/3124 09005KT 8000 RA BKN006 BKN025 FEW030TCU TX29/3117Z TN20/3123Z BECMG 3114/3115 35008KT BECMG 3115/3117 28010KT BKN040 FEW045TCU TEMPO 3118/3124 23012KT 7000 TSRA BKN035 FEW040CB RMK PHH", "TAF SBSL 310805Z 3112/0112 05013KT 9999 SCT025 TX34/3117Z TN27/0109Z RMK PHI", "TAF SBSM 310900Z 3112/3124 18012KT 8000 -RA SCT012 BKN030 TX27/3115Z TN20/3123Z TEMPO 3113/3115 5000 TSRA SCT014 FEW040CB BECMG 3116/3117 SCT030 RMK P FM", "TAF SBSN 310900Z 3112/0112 07010KT 9999 SCT023 TX33/3119Z TN27/0109Z BECMG 3114/3116 10010KT SCT020 FEW027TCU BECMG 3120/3122 08007KT FEW025 BECMG 0100/0102 14007KT CAVOK BECMG 0107/0109 08007KT 9999 FEW020 RMK PGB", "TAF SBSP 310830Z 3112/3124 34015KT 6000 RA SCT008 BKN030 TX28/3116Z TN18/3123Z BECMG 3113/3115 30015KT 9999 NSW SCT030 BECMG 3115/3117 BKN035 FEW045TCU TEMPO 3118/3124 19013G25KT 6000 TSRA BKN030 FEW040CB RMK PGL", "TAF SBSV 310800Z 3112/0112 07009KT 8000 SCT018 TX29/3116Z TN24/0109Z BECMG 3113/3115 07014KT BECMG 0102/0104 07010KT BECMG 0105/0107 VCSH SCT018 FEW023TCU RMK PGH", "TAF SBTD 310830Z 3112/3124 34005KT 9999 BKN020 FEW040TCU TX23/3115Z TN14/3123Z TEMPO 3112/3118 23010KT 7000 TSRA BKN025 FEW045CB RMK PGL", "TAF SBTE 310805Z 3112/3124 10005KT 9999 SCT040 TX37/3118Z TN30/3124Z BECMG 3120/3122 31002KT RMK PHI", "TAF SBTF 310900Z 3112/3124 02005KT 9999 SCT020 TX34/3116Z TN27/3123Z BECMG 3115/3117 06007KT 8000 BKN023 FEW030TCU PROB40 3118/3121 23010KT 6000 TSRA BKN020 FEW027CB BECMG 3121/3122 18007KT 9999 FEW025 RMK PGB", "TAF SBTT 310900Z 3112/0112 04005KT 9999 FEW020 TX30/3118Z TN24/0110Z BECMG 3115/3117 35007KT SCT025 FEW030TCU BECMG 3118/3119 24010KT 5000 TSRA BKN020 FEW025CB BECMG 3121/3122 9999 NSW FEW025 BECMG 0110/0112 33007KT 5000 SHRA BKN015 FEW023TCU RMK PGB", "TAF SBUG 310900Z 3112/3124 18015KT 9999 BKN010 BKN030 TX27/3115Z TN20/3123Z BECMG 3113/3114 SCT014 SCT030 RMK PFM", "TAF SBUL 310800Z 3112/3124 35007KT CAVOK TX28/3117Z TN22/3124Z BECMG 3113/3115 33013KT SCT035 FEW040TCU TEMPO 3116/3120 27015KT TSRA SCT035 FEW040CB TEMPO 3121/3124 VRB05KT VCTS SCT035 FEW040CB RMK PGH", "TAF SBUR 310800Z 3112/3124 34008KT CAVOK TX29/3117Z TN23/3124Z BECMG 3113/3115 30013KT SCT035 FEW040TCU TEMPO 3116/3120 29017KT TSRA SCT035 FEW040CB TEMPO 3121/3124 VRB05KT VCTS SCT035 FEW040CB RMK PGH", "TAF SBVH 310900Z 3112/3124 30007KT CAVOK TX30/3116Z TN20/3123Z BECMG 3115/3117 27015KT 8000 SCT025 FEW035TCU BECMG 3120/3122 21015G30KT 4000 TSRA BKN017 FEW030CB RMK PGB", "TAF SBVT 310805Z 3112/0112 36015KT 9999 SCT025 TX34/3115Z TN24/0108Z BECMG 3114/3116 06017KT BECMG 3123/0101 01007KT PROB30 TEMPO 0106/0110 4000 RA BKN010 BECMG 0110/0112 01017KT RMK PHI", "TAF SBYS 310900Z 3112/3124 34012KT 8000 RA SCT015 FEW025TCU TX30/3117Z TN21/3123Z BECMG 3113/3114 NSW SCT025 BECMG 3115/3117 33012G22KT 6000 TSRA BKN014 FEW030CB BECMG 3117/3119 36008KT BECMG 3119/3121 8000 NSW FEW030TCU RMK PFO", "TAF SCAR 311010Z 3112/0112 10007KT CAVOK TX19/3118Z TN14/0110Z BECMG 3113/3114 20006KT BECMG 3115/3117 22012KT BECMG 3122/0100 21004KT BECMG 0101/0103 10004KT", "TAF SCAT 311010Z 3112/0112 36010KT 9999 OVC015 TX20/3118Z TN11/0110Z BECMG 3115/3117 31010KT CAVOK BECMG 3122/0100 24008KT BKN015 BECMG 0102/0104 23004KT OVC010 BECMG 0108/0110 34006KT", "TAF SCBA 311021Z 3112/0112 29013KT 9999 FEW030 TN03/3112Z TX15/3119Z BECMG 3114/3116 30023KT CAVOK TEMPO 3118/3122 30023G33KT BECMG 0103/0106 28015KT", "TAF SCCF 311010Z 3112/0112 11015KT CAVOK TX22/3118Z TN02/0110Z BECMG 3113/3114 09008KT BECMG 3116/3118 27020KT BECMG 3123/0100 26012KT BECMG 0103/0105 11015KT", "TAF SCCI 311020Z 3112/0112 30025G39KT 9999 SCT040 TN07/3112Z TX11/3118Z TEMPO 3112/3116 30035G48KT BECMG 3117/3119 SHRA SCT022 BKN040 TEMPO 0102/0105 28035G48KT BECMG 0108/0110 24030KT CAVOK", "TAF SCCY 311029Z 3112/3124 VRB02KT CAVOK TN05/3112Z TX16/3119Z BECMG 3114/3116 28007KT BECMG 3122/3124 VEB02KT", "TAF SCDA 311010Z 3112/0112 10004KT CAVOK TX19/3118Z TN13/0110Z BECMG 3114/3116 23012KT BECMG 0100/0102 20010KT BECMG 0103/0105 14004KT BECMG 0110/0112 10004KT", "TAF SCEL 311010Z 3112/0112 VRB02KT CAVOK TX29/3119Z TN10/0110Z BECMG 3114/3116 17008KT BECMG 3116/3118 21016KT BECMG 0101/0103 16006KT BECMG 0106/0108 VRB02KT", "TAF SCFA 311010Z 3112/0112 21004KT 9999 BKN018 TX17/3118Z TN13/0110Z BECMG 3114/3116 20012KT FEW020 BECMG 0100/0102 20008KT BECMG 0103/0105 20004KT BECMG 0106/0108 34004KT BKN020", "TAF SCIE 311010Z 3112/0112 16012KT CAVOK TX21/3119Z TN10/0110Z BECMG 3116/3118 19018KT BECMG 0101/0103 16010KT", "TAF SCIP 311041Z 3112/0112 08004KT 9999 SCT030 TX23/3120Z TN15/0110Z TEMPO 3118/3120 7000 SHRA SCT015 BKN035 TEMPO 0108/01012 04004KT 7000 SHRA BKN017 BKN020", "TAF SCJO 311025Z 3112/3124 19004KT 9999 BKN012 TN08/3112Z TX18/3119Z BECMG 3113/3115 18010KT FEW025 BECMG 3116/3118 CAVOK", "TAF SCNT 311020Z 3112/0100 34015KT 9999 SCT040 TN06/3112Z TX13/3118Z BECMG 3114/3116 30015G33KT BECMG 3119/3121 SCT020 BKN035", "TAF SCQP 311019Z 3112/0112 17004KT CAVOK TN09/3112Z TX22/3120Z BECMG 3113/3115 19013KT BECMG 0100/0102 16005KT", "TAF SCSE 311010Z 3112/0112 28005KT 9999 BKN017 TX19/3119Z TN11/0110Z BECMG 3115/3117 29012KT FEW020 BECMG 3118/3120 CAVOK BECMG 0100/0102 29005KT BECMG 0106/0108 11004KT BKN012", "TAF SCTE 311019Z 3112/0112 20004KT 9999 FEW018 BKN025 TN09/3112Z TX15/3119Z BECMG 3113/3115 16012KT CAVOK BECMG 0106/0108 18004KT SCT010 TEMPO 0107/0112 18012KT BKN013", "TAF SCVM 311010Z 3112/0112 15004KT CAVOK TX22/3119Z TN10/0110Z BECMG 3113/3115 27008KT BECMG 3116/3118 33014KT TEMPO 3118/3122 22015KT BECMG 0101/0103 30006KT", "SEGU 311015Z 3112/0112 22008KT 9999 FEW010 SCT030 BECMG 3113/3114 FEW030 BECMG 3117/3119 16006KT BECMG 0102/0104 22012KT FEW010 BKN026 TX29/3120Z TN20/0110Z", "SELT 311015Z 3112/0112 35005KT 9999 SCT030 BECMG 3117/3119 35015KT FEW040 BECMG 0100/0102 34004KT SCT030 BECMG 0106/0108 FEW010 BKN020 TX22/3119Z TN03/0111Z", "SEMT 311015Z 3112/0112 21007KT 9999 OVC020 BECMG 3114/3116 29010KT SCT023 BECMG 0102/0104 21007KT BKN020 TX25/3120Z TN20/0110Z", "SEQM 311015Z 3112/0112 12003KT 9999 FEW030 SCT100 BECMG 3117/3119 36016KT BECMG 3123/0101 02006KT FEW005 SCT030 BECMG 0103/0105 VRB03KT SCT005 BKN020 TX25/3119Z TN08/0111Z", "TAF SGAS 310950Z 3112/0112 21020KT 4000 RA BR OVC005 TX17/3119Z TN08/0110Z TEMPO 3114/3117 7000 RADZ OVC010 BECMG 3118/3121 9999 BKN020 BECMG 0100/0103 17010KT CAVOK", "TAF SGCO 310950Z 3112/0112 18020KT 6000 TSRA BKN006 OVC020 FEW040CB TX19/3119Z TN10/0110Z BECMG 3117/3120 20020KT 6000 RA OVC010 BECMG 0102/0105 18012KT 9999 BKN020", "TAF SGEN 310950Z 3112/0112 18015KT 4000 DZ OVC008 TX16/3118Z TN09/0110Z BECMG 3116/3119 22020KT 8000 -RA OVC010 BECMG 3122/0101 9999 BKN020 BECMG 0106/0109 CAVOK", "TAF SGES 310950Z 3112/0112 24008KT 7000 TSRA OVC008 FEW040CB TX19/3113Z TN09/0110Z TEMPO 3114/3117 24020KT 5000 TSRA OVC010 FEW040CB BECMG 3120/3123 18015KT 6000 RA OVC010 BECMG 0102/0105 21012KT CAVOK", "TAF SKAR 311030Z 3112/0112 VRB02KT 9999 SCT017 TEMPO 3120/3123 SCT017TCU TX28/3120Z TN18/0110Z", "TAF SKBG 311030Z 3112/0112 VRB02KT 9999 FEW010 BECMG 3115/3117 32006KT SCT017 BECMG 0101/0103 VRB02KT TEMPO 0103/0105 RA SCT010TCU TEMPO 0109/0111 3000 BCFG SCT006 TX26/3119Z TN17/0110Z", "TAF SKBO 311030Z 3112/0112 VRB02KT 9999 FEW015 BECMG 3115/3117 27010KT SCT020 TEMPO 3121/0101 RA SCT017TCU BECMG 0101/0103 VRB02KT SCT015 TX20/3119Z TN08/0110Z", "TAF SKBQ 311030Z 3112/0112 22004KT 9999 FEW015 PROB40 TEMPO 3119/3121 FEW010CB TX32/3117Z TN22/0109Z", "TAF SKCC 311030Z 3112/0112 VRB02KT 9999 SCT015 BECMG 3115/3117 36010KT SCT020 TEMPO 3122/0102 RA SCT017TCU BECMG 0102/0104 VRB02KT SCT015 TEMPO 0109/0111 5000 BR SCT010 TX32/3118Z TN23/0110Z", "TAF SKCG 311030Z 3112/0112 VRB02KT 9999 FEW015 BECMG 3117/3119 29010KT SCT018 BECMG 0103/0105 VRB02KT FEW015 TX32/3119Z TN25/0110Z", "TAF SKCL 311030Z 3112/0112 VRB02KT 9999 SCT030 TEMPO 3117/3120 SCT030TCU BECMG 3120/3121 32012KT BECMG 0101/0103 03005KT TX32/3120Z TN19/0111Z", "TAF SKLT 311030Z 3112/0112 VRB02KT 9999 FEW015 BECMG 3115/3117 24006KT SCT015 TEMPO 3122/0102 DZ BKN010 BECMG 0102/0104 VRB02KT FEW015 TX32/3118Z TN22/0110Z", "TAF SKPE 311030Z 3112/0112 11005KT 9999 SCT017 TEMPO 3119/3122 SCT017TCU TX29/3120Z TN18/0110Z", "TAF SKRG 311030Z 3112/0112 VRB02KT 5000 BCFG BKN008 BECMG 3113/3115 12008KT 9999 NSW SCT015 TEMPO 3120/3123 DZ SCT020TCU BECMG 0100/0202 VRB02KT TEMPO 0103/0106 DZ BKN012 TEMPO 0108/0112 4000 DZ BCFG BKN005 TX23/3119Z TN13/0110Z", "TAF SKSM 311030Z 3112/0112 18010KT 9999 FEW020 PROB30 TEMPO 3118/3120 FEW015CB TX33/3118Z TN29/0111Z", "TAF SKSP 311030Z 3112/0112 05006KT 9999 FEW018 TEMPO 3115/3118 RA SCT015TCU BKN080 TX32/3119Z TN25/0109Z", "TAF SLAL 311000Z 3112/0112 00000KT 9999 SCT010 BKN070 TX16/3119Z TN11/0111Z BECMG 3115/3117 01012KT SCT017 FEW033CB BECMG 0102/0104 00000KT SCT017 BKN070", "TAF SLCB 311000Z 3112/0112 00000KT 9999 FEW033 SCT070 TX26/3119Z TN11/0111Z PROB30 TEMPO 3114/3116 24015KT 8000 TSRA SCT033 FEW036CB BKN070 BECMG 3116/3118 04010KT FEW033 FEW036CB BKN070 BECMG 0102/0104 00000KT SCT030 BKN070", "TAF SLCO 311000Z 3112/0112 33006KT 9999 BKN010 BKN070 TX31/3119Z TN18 /0110Z BECMG 3113/3115 SCT020 TEMPO 3117/3121 16015KT 7000 TSRA FEW023CB BECMG 3122/0101 15005KT", "TAF SLET 311000Z 3112/0112 17018G33KT 5000 TSRA BKN015 OVC070 TX23/3120Z TN19/0110Z TEMPO 3112/3114 8000 RA BKN017 BKN070 BECMG 3115/3118 9999 NSW BKN020 BECMG 3122/0101 18025KT SCT025 BKN070", "TAF SLLP 311000Z 3112/0112 27005KT 9999 FEW015 TX19/3119Z TN00/0110Z BECMG 3115/3118 07010KT TEMPO 3119/3123 05015G25KT 5000 TSRA BKN015 FEW017CB BKN070 BECMG 0101/0105 03005KT 3000E BCFG SCT005", "TAF SLTJ 311000Z 3112/0112 00000KT 9999 BKN023 BKN070 TX18/3119Z TN06/0111Z BECMG 3114/3116 13010KT SCT030 BKN070 BECMG 0102/0104 00000KT SCT030", "TAF SLTR 311000Z 3112/0112 03005KT 9999 SCT020 BKN080 TX29/3119Z TN19 /0110Z TEMPO 3116/3120 15014G24KT 8000 TSRA FEW023CB BECMG 3122/0101 15005KT BKN010", "TAF SLVR 311000Z 3112/0112 17018G33KT 5000 TSRA BKN015 OVC070 TX23/3120Z TN19/0110Z TEMPO 3112/3114 8000 RA BKN017 BKN070 BECMG 3115/3118 9999 NSW BKN020 BECMG 3122/0101 18025KT SCT025 BKN070 ", "TAF SMJP 311000Z 3112/0112 11006KT 9999 SCT012 TX32/3117Z TN23/0108Z TEMPO 3118/3122 VRB06G18KT 4000 SHRA FEW015CB SCT020 TEMPO 3118/3120 TS BECMG 0107/0109 VRB01KT 0800 FG BKN002 FM011100 08005KT 9999 SCT010", "TAF SMZO 311000Z 3112/0112 10006KT 9999 SCT012 TX32/3117Z TN23/0108Z TEMPO 3117/3121 5000 TSRA FEW015CB SCT020 TEMPO 3118/3120 TS PROB30 0108/0110 VRB01KT 2000 BR SCT005", "TAF SOCA 311000Z 3112/0112 VRB02KT 9999 BKN010 FM311400 07010KT 9999 SCT020 PROB30 TEMPO 3117/3121 3000 SHRA BKN020TCU BECMG 3120/3122 VRB02KT", "TAF SPCL 311100Z 3112/0112 01005KT 9999 FEW015 TX34/3120Z TN22/0111Z TEMPO 3111/3114 4000 BCFG TEMPO 3121/0101 35015KT 2000 SHRA BKN010 FEW025CB BKN080", "TAF SPEO 311105Z 3112/0112 18010KT 9999 OVC012 TX20/3119Z TN14/0111Z BECMG 3115/3117 SCT014 BECMG 0104/0106 OVC012", "TAF SPGM 311100Z 3112/0112 07003KT 9999 SCT015 BKN080 TX31/3120Z TN22/0111Z BECMG 3115/3117 05010KT SCT030 SCT100 BECMG 3122/0100 00000KT", "TAF SPHI 311105Z 3112/0112 18010KT 9999 OVC010 TX22/3119Z TN15/0111Z BECMG 3114/3116 BKN015 FM311800 18015KT CAVOK BECMG 0103/0105 17005KT", "SPHO 311100Z 3112/0112 09002KT CAVOK TX29/3119Z TN12/0111Z TEMPO 3118/3122 19010KT FEW050TCU SCT100", "SPHY 311100Z 3112/0112 00000KT CAVOK TX22/3119Z TNM02/0111Z BECMG 3117/3118 36010KT BECMG 3122/3123 VRB05KT", "TAF SPJC 311100Z 3112/0112 25005KT 8000 OVC011 TX19/3119Z TN15/0111Z FM311800 19010KT 9999 BKN016 BECMG 0103/0106 16005KT 7000 OVC011", "TAF SPJI 311100Z 3112/0112 12005KT 9999 SCT020 SCT100 TX31/3120Z TN20/0111Z TEMPO 3112/3116 4000 BR BKN010 BKN080 TEMPO 3121/0101 36015KT 3000 SHRA BKN010 FEW025CB BKN080", "TAF SPJL 311124Z 3112/0112 02005KT CAVOK TX21/3119Z TN01/0110Z BECMG 3119/3121 11010KT TEMPO 3121/3123 07015G25KT BECMG 0100/0102 20005KT", "TAF SPJR 311100Z 3112/0112 16003KT 9999 SCT025 SCT050 TX25/3119Z TN05/0111Z BECMG 3117/3119 18012KT FEW030 BKN060 BECMG 0102/0104 VRB02KT", "TAF SPLO 311124Z 3112/0112 15008KT 9999 BKN030 TX21/3119Z TN15/0111Z", "TAF SPME 311105Z 3112/0112 33010KT 9999 OVC012 TX25/3119Z TN19/0111Z BECMG 3116/3118 OVC016 BECMG 3121/3123 27005KT BECMG 0104/0106 OVC013", "TAF SPMS 311100Z 3112/0112 03005KT 9999 SCT015 TX33/3120Z TN22/0111Z TEMPO 3112/3114 4000 BR TEMPO 3120/3124 36015KT 3000 SHRA BKN010 FEW025CB BKN080", "TAF SPNC 311100Z 3112/0112 10005KT 9999 FEW015 BKN110 TX29/3119Z TN16/0111Z TEMPO 3119/3122 06018KT BECMG 0100/0102 VRB02KT", "TAF SPPY 311100Z 3112/0112 06008KT 9999 FEW015 SCT100 TX23/3120Z TN10/0111Z TEMPO 3112/3116 3000 BCFG BKN010 BKN050", "TAF SPQT 311100Z 3112/0112 00000KT 9999 FEW003 TX34/3120Z TN22/0111Z BECMG 3113/3116 02006KT BKN015 TEMPO 3121/0101 12015KT 2000 TSRA BKN010 FEW025CB BKN080 TEMPO 0104/0107 4000 DZRA BKN007 FEW025CB BKN080 TEMPO 0108/0112 DZ BCFG BKN004 BKN080", "TAF SPQU 311124Z 3112/0112 04006KT CAVOK TX20/3118Z TN06/0110Z BECMG 3115/3117 25011KT BECMG 3122/3124 06005KT", "TAF SPRU 311105Z 3112/0112 14005KT 6000 OVC010 TX20/3119Z TN14/0111Z BECMG 3114/3116 OVC015 FM311800 17012KT 8000 SCT015 FM010200 14005KT 6000 BKN012", "TAF SPSO 311100Z 3112/0112 30007KT 7000 0VC010 TX20/3119Z TN12/0111Z TEMPO 3112/3113 02003KT 4900 FU BR BECMG 3116/3118 9000 SCT012 BECMG 3120/3121 24010KT CAVOK FM010300 05005KT 7000 BKN010", "TAF SPST 311100Z 3112/0112 10003KT 9999 SCT015 SCT100 TX35/3120Z TN23/0111Z BECMG 3117/3119 16010KT SCT020 BKN090 BECMG 3123/0101 00000KT", "TAF SPTN 311124Z 3112/0112 VRB02KT 9999 BKN023 TX21/3119Z TN13/0111Z FM311430 25005KT CAVOK BECMG 3116/3118 19010KT FM010100 25005KT 9999 BKN025", "SPTU 311300Z 3112/0112 02003KT CAVOK TX33/3119Z TN20/0111Z BECMG 3119/3120 15013KT BKN025 FEW030TCU BECMG 3121/3122 VRB05KT -TSRA BKN020 FEW030CB OVC100 TEMPO 3123/0101 TSRA BKN015 FEW020CB OVC100 BECMG 0102/0103 NSW OVC010", "TAF SPYL 311105Z 3112/0112 14010KT 9999 BKN015 TX24/3119Z TN13/0111Z FM311400 16015KT CAVOK BECMG 0104/0106 14005KT", "TAF SPZO 311100Z 3112/0112 VRB02KT 9999 NSC TX26/3119Z TN05/0111Z BECMG 3117/3118 01012KT BECMG 3123/3124 VRB04KT", "TAF SUAA 311150Z 3112/0112 19010KT 9999 SCT030 TX14/3116Z TN09/0109Z TEMPO 3112/3119 19015G25KT TEMPO 3112/3123 SHRA BKN020", "TAF SUCA 311150Z 3112/0112 19017KT 9999 FEW017 TX17/3116Z TN08/0109Z TEMPO 3112/3116 19015G25KT PROB30 TEMPO 3116/3124 SHRA BKN020", "TAF SUDU 311150Z 3112/0112 19015KT 9999 FEW020 TX17/3116Z TN05/0109Z TEMPO 3112/3116 19015G25KT PROB30 TEMPO 3113/3120 SHRA BKN020 BECMG 0101/0103 VRB03KT", "TAF SULS 311150Z 3112/0112 19015KT 9999 SCT030 TX14/3116Z TN07/0109Z TEMPO 3112/3121 19017G27KT TEMPO 3112/3123 SHRA BKN020", "TAF SUMU 311150Z 3112/0112 19015KT 9999 SCT030 TX15/3116Z TN09/0109Z TEMPO 3112/3119 19015G25KT TEMPO 3112/3123 SHRA BKN020", "TAF SURV 311150Z 3112/0112 17015KT 9999 BKN030 TX16/3116Z TN04/0109Z TEMPO 3112/3121 18015G25KT 5000 RA BKN020 BKN080 BECMG 0101/0103 18005KT", "TAF SUSO 311150Z 3112/0112 20015KT 9999 SCT030 TX18/3116Z TN04/0109Z TEMPO 3112/3119 19015G25KT BKN020 BECMG 0101/0103 13005KT", "TAF SVBC 311000Z 3112/0112 00000KT 9000 DZ BKN010 TX33/3018Z TN22/0107Z TEMPO 3116/3120 07003KT 9000 -DZ SCT013 SCT070", "TAF SVJC 311000Z 3112/0112 09003KT 9000 DZ BKN013 TX31/2719Z TN23/0108Z TEMPO 3115/3120 07011KT 9000 DZ BKN013", "TAF SVMC 311000Z 3112/0112 00000KT 8000 DZ BKN013 CB TX34/3019Z TN22/0108Z TEMPO 3115/3119 18005KT 9000 DZ BKN013", "TAF SVMG 311000Z 3112/0112 07003KT 9900 DZ SCT010 TX32/3018Z TN25/0108Z BECMG 3116/3121 07012KT 9999 SCT010 SCT080", "TAF SVMI 311000Z 3112/0112 00000KT 9000 DZ BKN016 TX32/3018Z TN21/0107Z TEMPO 3115/3119 05006KT 9000 DZ BKN013", "TAF SVPR 311000Z 3112/0112 00000KT 9000 DZ BKN013 TX33/2719Z TN22/0108Z TEMPO 3115/3120 06006KT 9000 DZ BKN013", "TAF SVSA 311000Z 3112/0112 00000KT 9000 DZ BKN020 TX33/2719Z TN22/0108Z TEMPO 3116/3120 17005KT 9000 DZ BKN017", "TAF SVVA 311000Z 3112/0112 25005KT 9999 SCT016 BKN080 TX32/3119 TN23/0109 BECMG 3118/3122 VRB05KT 9000 DZ BKN020 FM 312230 07005KT 9999 SCT020 BKN100", "TAF SYCJ 311100Z 3112/0112 09008KT 9999 SCT018 SCT040 BKN090 BECMG 0100/0102 VRB04KT 9999 SCT015 BKN040 TEMPO 0106/0112 7000 SHRA", "TAF SYEB 311100Z 3112/3123 13006KT 8000 VCSH SHRA SCT018 BKN038 BKN090", "TAF SYEC 311100Z 3112/0112 08008KT 9999 SCT016 BKN040 BKN090 PROB30 TEMPO 3116/3120 8000 TS VCSH FEW015CB BECMG 0100/0103 06006KT 9999 BKN017 BKN100 TEMPO 0106/0112 5000 SHRA", "TAF SYKA 311100Z 3112/3123 08010KT 9999 VCSH BKN017 BKN040", "TAF SYKM 311100Z 3112/3123 08008KT 9999 VCSH BKN018 BKN100 BECMG 3120/3123 5000 TSRA SCT016CB BKN034", "TAF SYLT 311100Z 3112/3123 05008KT 9999 VCSH BKN017 BKN038", "TAF SYMB 311100Z 3112/3123 13006KT 7000 SHRA FEW015CB BKN034 BKN090 BECMG 3116/3118 9999 BKN018 BKN040", "TAF TAPA 311100Z 3112/0112 10009KT 9999 SCT018 PROB30 TEMPO 3012/3018 SHRA", "TAF TBPB 311100Z 3112/0112 10015KT 9999 SCT018", "TAF TDPD 311100Z 3112/0112 12010KT 9999 SCT020", "TGPY 311000Z 3112/0112 09016KT 9999 SCT018", "TIST 311140Z 3112/0112 08012KT P6SM VCSH FEW025 SCT050 FM312200 09006KT P6SM SCT030 SCT060 SCT100", "TISX 311140Z 3112/0112 VRB04KT P6SM FEW024 SCT030 BKN100 FM311300 10012KT P6SM FEW030 SCT050 FM312130 06005KT P6SM VCSH SCT025 SCT045 BKN080", "TJBQ 311140Z 3112/0112 12003KT P6SM VCSH FEW025 SCT050 SCT100 FM311300 06011KT P6SM SCT025 FM311700 08011KT P6SM VCSH SCT020 SCT050 BKN090 FM312130 12006KT P6SM VCSH SCT020 BKN050 OVC090 AMD NOT SKED 0102/0111", "TJPS 311140Z 3112/0112 06005KT P6SM VCSH SCT017 BKN035 OVC050 FM311400 14010KT 6SM RA FEW018 SCT030 BKN060 FM312200 10006KT P6SM VCSH SCT030 SCT080 BKN100 AMD NOT SKED", "TJSJ 311140Z 3112/0112 00000KT P6SM FEW030 SCT100 FM311400 07011KT P6SM FEW035 SCT050 FM311600 09013KT P6SM VCSH SCT030 BKN050 BKN100 FM312200 10006KT P6SM VCSH FEW030 SCT050 SCT100", "TAF TKPK 311100Z 3112/0112 10009KT 9999 SCT018 PROB30 TEMPO 3012/3018 SHRA", "TAF TKPN 311100Z 3112/0112 10009KT 9999 SCT018 PROB30 TEMPO 3012/3018 SHRA", "TAF TLPC 311100Z 3112/0112 10010KT 9999 SCT024 SCT040 TEMPO 0106/0112 SHRA BKN018", "TAF TLPL 311100Z 3112/0112 09016KT 9999 SCT024 SCT040 TEMPO 0106/0112 SHRA BKN018", "TAF TNCA 311115Z 3106/0106 08013KT 9999 SCT018 PROB30 TEMPO 3112/3116 5000 SHRA BKN015", "TAF COR TNCB 311335Z 3112/0118 08012KT 9999 FEW018 PROB40 TEMPO 3112/3120 11015G25KT 2500 SHRA TSRA BKN014 SCT018CB PROB30 TEMPO 0102/0120 11015G25KT 2500 SHRA TSRA BKN014 SCT018CB", "TAF TNCC 311115Z 3112/0112 09010KT 9999 SCT018 PROB30 TEMPO 3112/3116 5000 SHRA BKN015", "TNCM 311000Z 3112/0112 12009KT 9999 SCT016 ", "TAF TQPF 311100Z 3112/0112 10009KT 9999 SCT018 TEMPO 3012/3018 SHRA", "TAF TRPG 311100Z 3112/0112 10009KT 9999 SCT018 PROB30 TEMPO 3012/3018 SHRA", "TAF TTCP 311000Z 3112/0112 10010KT 9999 VCSH SCT018 PROB30 TEMPO 3116/3120 5000 SHRA FEW012CB BKN015 BECMG 0100/0102 07005KT 9999 FEW016", "TAF TTPP 311000Z 3112/0112 10010KT 9999 VCSH SCT018 TEMPO 3116/3120 5000 SHRA FEW012CB BKN015 BECMG 0100/0102 00000KT FEW016", "TAF TUPJ 302300Z 3100/3124 11006KT SCT018 SCT036 PROB40 TEMPO 3100/3124 SHRA", "TAF TVSA 311100Z 3112/0112 08012KT 9999 SCT018", "TAF TXKF 311144Z 3112/0112 34016KT 9999 VCSH FEW010 SCT015 PROB30 TEMPO 3112/3118 35018G28KT 6000 -SHRA BKN020 OVC035 ", "TAF UAAA 311101Z 3112/0112 16003MPS 3100 BR FU SCT030CB OVC100 TX14/0109Z TN01/0101Z TEMPO 3112/3121 04003MPS 1700 SCT011 BKN020CB BECMG 3121/3122 22003MPS 1500 BKN005 OVC011CB TEMPO 3121/0104 VRB01MPS 0300 FG VV001 FM010500 02003MPS 9999 SCT050CB BKN100 TEMPO 0105/0112 07003G08MPS", "TAF UAAH 311100Z 3112/3121 20003MPS 9999 BKN020CB BKN100", "TAF UAAT 311100Z 3112/3121 22003G08MPS 9999 SCT011 BKN050CB BKN100 TEMPO 3112/3115 26003G08MPS 5000 BR SCT007", "TAF UACC 311106Z 3112/0112 19005MPS 9999 BKN011 BKN020 TX07/0109Z TNM02/3124Z TEMPO 3115/0103 3100 -SHSNRA BKN005 BKN020CB BECMG 0103/0105 18006MPS TEMPO 0103/0112 16008MPS", "TAF UACK 311106Z 3112/3121 17006MPS 9999 SCT040 BKN100 TEMPO 3115/3121 19008MPS 3100 -SNRA BKN007 BKN015", "TAF UACP 310801Z 3109/3118 18005MPS 9999 SCT007 TEMPO 3109/3112 16005MPS BKN011", "TAF UADD 311100Z 3112/3121 34003MPS 9999 SCT050 BKN100", "TAF UAII 311104Z 3112/0112 35003G08MPS 6000 SCT030 TX19/0110Z TN05/0101Z TEMPO 3112/3116 29005MPS 3100 FU SCT011 BKN033CB FM311600 05003G08MPS 3100 BR FU SCT011 BKN030CB TEMPO 3116/0103 11005MPS 1200 BR SCT003 BECMG 0103/0105 6000 NSW", "TAF UAIT 311100Z 3112/3121 28003G08MPS 6000 SCT030 TEMPO 3112/3114 VRB01MPS TEMPO 3114/3118 05003G08MPS 1200 BR SCT011", "TAF UAKD 311104Z 3112/3121 18005MPS 9999 SCT011 OVC020 TEMPO 3112/3115 21008MPS 3100 BR SCT005 BKN011CB BECMG 3115/3117 5000 BR SCT007 TEMPO 3115/3121 18008MPS 1500 SCT004", "TAF UAKK 311102Z 3112/0112 18003MPS 9999 BKN011 BKN100 TX03/0109Z TNM02/0102Z TEMPO 3112/3116 22005MPS 3100 -SNRA BKN005 TEMPO 3116/0103 3100 -SN BR BKN005 BECMG 0103/0105 16006MPS BKN020", "TAF UAOO 311100Z 3112/3121 15005MPS CAVOK", "TAF UARR 311100Z 3112/3121 VRB02MPS 3100 -SHRA BR BKN011 BKN033CB TEMPO 3112/3118 31006MPS BKN004 BKN020CB TEMPO 3118/3121 -SHRASN BKN004 BKN020CB", "TAF COR UASK 311100Z 3112/3121 VRB01MPS 7000 OVC033CB TEMPO 3112/3118 3100 -SHRASN BR FEW004 BKN017CB TEMPO 3118/3121 0200 FG VV002", "TAF UASP 311100Z 3112/3121 25005G10MPS 1000 BR FU OVC004 TEMPO 3113/3118 20003MPS 0400 -FZDZ FZFG OVC001 TEMPO 3118/3121 18003MPS 0400 FZFG OVC002", "TAF UASS 311102Z 3112/3121 27006G11MPS 9999 BKN020CB BKN100 TEMPO 3112/3115 30005MPS 3100 -SHRASN BKN007 BKN011CB", "TAF UATE 311100Z 3112/0112 VRB03MPS 9999 SCT011 BKN033CB TX16/0109Z TN07/0102Z TEMPO 3115/3122 3100 BR BECMG 3122/3124 31010G17MPS TEMPO 3122/0110 -TSRA BKN015CB", "TAF UATG 311059Z 3112/0112 21010G15MPS 5000 BR BKN005 BKN020CB TX04/0110Z TN01/0103Z BECMG 3114/3116 23009MPS TEMPO 3118/3124 2000 SHRA BECMG 0100/0102 29010G15MPS TEMPO 0100/0106 2000 SHRA BKN003 BKN015CB", "TAF UATT 311100Z 3112/0112 20007MPS 3100 -SHRA BR BKN011 BKN020CB TX10/0110Z TN03/0112Z TEMPO 3112/3124 20012MPS 0500 FG VV002 TEMPO 0100/0108 16013MPS 1000 SHRA OVC003 BKN015CB TEMPO 0108/0112 24016MPS 1000 SHRASN OVC003 BKN015CB", "TAF UAUU 311102Z 3112/3121 16008MPS 3100 -RA BR BKN006 BKN011 TEMPO 3112/3115 18010G15MPS 1500 SNRA BR BKN003 TEMPO 3115/3121 0300 +SHRASN FZFG BKN002 BKN011CB", "TAF AMD UBBB 311308Z 3113/0112 31012KT 9999 FEW030 TX18/3113Z TN12/0102Z TEMPO 3113/3115 VRB04KT TEMPO 3115/3122 24006KT 5000 BR SCT007 BECMG 3122/3124 33020G30KT FEW030CB TEMPO 0100/0112 36028G38KT -SHRA SCT020CB BKN020", "TAF UBBG 311100Z 3112/0112 29014KT 9999 FEW040 SCT100 TX21/3112Z TN10/0102Z TEMPO 3116/3124 31020G30KT", "TAF UBBL 311051Z 3112/0112 VRB04KT 9000 SCT040 TX18/3112Z TN10/0100Z TEMPO 3120/0104 1200 BR BCFG SCT008 BECMG 0104/0106 30010KT TEMPO 0106/0112 36016KT -SHRA SCT014 SCT030CB BKN030", "TAF UBBN 311050Z 3112/0112 23012KT 9999 FEW050 SCT100 TX19/3112Z TN04/0103Z TEMPO 3112/3115 VRB02KT TEMPO 3118/3124 23014G24KT", "TAF UBBQ 311056Z 3112/0112 26010KT 9999 FEW040 TX17/3112Z TN02/0102Z TEMPO 3120/0104 VRB04KT 1200 BR BCFG SCT006 TEMPO 0104/0112 31014KT -SHRA SCT012 SCT030CB BKN030", "TAF UCFL 311039Z 3112/0112 16003G08MPS 9999 BKN025CB TEMPO 3112/3115 2000 SHRA BR SCT007 BKN015CB BECMG 3115/3116 34003G08MPS", "TAF UCFM 311047Z 3112/0112 13003G08MPS 1500 BR BKN030CB TEMPO 3112/3118 0500 FZFG FEW002 BKN005 OVC020CB TEMPO 3118/0102 VRB01MPS 0300 FZFG VV002 BECMG 0105/0106 32003G08MPS 9999 NSW", "TAF UCFO 311047Z 3112/0112 16003G08MPS 3000 BR FU SCT020CB BKN050 TEMPO 3112/3118 06003G08MPS 0200 FG VV002 BECMG 0102/0104 33003G08MPS 5000 BR", "TAF UDSG 311058Z 3112/0112 VRB06KT 9999 FEW050 TEMPO 3112/3118 24016KT", "TAF UDYZ 311100Z 3112/0112 VRB06KT CAVOK", "TAF UEEE 311100Z 3112/0118 35003G08MPS 9999 SCT030CB BKN100 TEMPO 3112/0103 VRB01MPS 0300 SHSN FZFG VV002", "TAF UERP 311100Z 3112/0112 18003MPS 9999 SCT016 BKN100 TEMPO 3115/3121 2500 BR", "TAF UERR 311100Z 3112/0112 VRB01MPS 9999 -SHSN SCT007 BKN020CB OVC100 TEMPO 3115/3118 0500 FZFG VV003", "TAF UGAM 311000Z 3111/3117 27007KT 9999 BKN050 TEMPO 3114/3117 2000 SHRA BKN015CB OVC030 ", "TAF UGKO 311100Z 3112/0112 26007KT 9999 BKN050 TX17/3112Z TN11/0103Z TEMPO 3114/3121 VRB16KT 3000 TSRA BKN015CB OVC030 TEMPO 3121/0105 27017G27KT 4000 SHRA BKN017CB OVC050 TEMPO 0105/0112 CAVOK", "TAF UGMS 311000Z 3111/3117 VRB02KT 6000 OVC030 TEMPO 3111/3114 4500 SHRA BR BKN022CB OVC030 TEMPO 3114/3117 2500 SNRA BR OVC020", "TAF UGSB 311100Z 3112/0112 25010KT 9999 FEW026 SCT100 TX19/3112Z TN10/0102Z BECMG 3114/3117 SHRA SCT025CB BKN035 TEMPO 3115/0103 23022KT 4000 TSRA SCT010 BKN023CB TEMPO 0103/0112 25020KT 4000 RA SCT010 OVC023CB", "TAF UGTB 311100Z 3112/0112 31022KT CAVOK TX18/0111Z TN07/0102Z TEMPO 3114/3121 31032G42KT TEMPO 0107/0112 31033KT", "TAF AMD UHBB 311219Z 3112/0112 18003G08MPS 4000 BR SCT011 BKN030CB BECMG 3119/3121 24005G11MPS TEMPO 3121/0112 3100 -SHRASN BKN007 BKN020CB BECMG 0101/0103 27006G11MPS", "TAF UHHH 311047Z 3112/0118 18005MPS 3100 -SHRA SCT011 BKN020CB TEMPO 3112/0102 21008G13MPS 2000 SHRA BKN003 BKN015CB FM010300 25007MPS 9999 SCT020CB TEMPO 0103/0112 24009G14MPS 3100 -SHRA SCT011 BKN020CB", "TAF UHMA 311052Z 3112/0112 02007G12MPS 9999 SCT012 BKN020 TEMPO 3112/3121 34003G08MPS 5000 BR DRSN SCT004 BKN012 TEMPO 3121/0106 35012G18MPS -SN DRSN BKN015 TEMPO 0106/0112 34013G18MPS 3100 -SHSN BLSN SCT002 BKN010CB", "TAF UHMM 311058Z 3112/0118 09003MPS 9999 NSC", "TAF UHPP 311034Z 3112/0118 35003G12MPS 9999 SCT040", "TAF UHSS 311100Z 3112/0118 17003MPS 9999 BKN007 BKN025CB BECMG 3118/3120 0700 FG BKN002 BKN020CB BECMG 3122/3124 9999 NSW BKN016CB BECMG 0103/0106 6000 -SHRA BKN020CB", "TAF UHWW 311058Z 3112/0112 18003G08MPS 9999 BKN030 BECMG 3113/3115 6000 -SHRA FEW003 BKN016CB TEMPO 3118/0101 -TSRA BECMG 0101/0103 32003G08MPS BKN030CB BECMG 0103/0106 9999 NSW", "TAF UIAA 311100Z 3112/0112 28005G10MPS 9999 BKN040CB TEMPO 3112/0112 22003G08MPS", "TAF UIBB 311100Z 3112/0112 10003MPS 9999 FEW001 SCT020CB", "TAF UIII 311100Z 3112/0112 VRB01MPS 9999 NSC TEMPO 3115/3120 0500 FZFG VV001 BECMG 3120/3122 0500 FZFG VV001 TEMPO 3122/0101 3100 BR BKN004 BECMG 0101/0102 9999 NSW NSC", "TAF AMD UIUU 311213Z 3112/0112 25003G08MPS 1900 FU NSC BECMG 0100/0102 9999 NSW", "TAF ULAA 311100Z 3112/0112 33003MPS 9999 BKN016 TEMPO 3112/3115 35003G09MPS 6000 -SHRA BKN014CB BECMG 3117/3119 6000 FEW011 BKN016 TEMPO 0103/0107 0300 FZFG SCT003 BECMG 0107/0109 26003MPS", "TAF ULLI 311056Z 3112/0112 30005G10MPS 9999 SCT016 FM312100 18003MPS 6000 -RA BKN010 OVC016 TEMPO 3123/0105 2000 -SHRA BR BKN004 BKN016CB TEMPO 0105/0112 BKN004", "TAF ULMM 311058Z 3112/0112 22003MPS 3100 BR OVC005 TEMPO 3112/3115 0300 FZFG VV001 BECMG 3115/3116 0800 FZFG BECMG 3119/3120 6000 NSW BKN016", "TAF ULOO 311058Z 3112/3121 32006G11MPS 9999 SCT020 BECMG 3116/3118 26003MPS", "TAF ULPB 311057Z 3112/3121 34005MPS 9999 SCT020 BECMG 3115/3117 28003MPS BECMG 3118/3120 4000 BR", "TAF ULWC 311100Z 3112/3121 33003G08MPS 6000 BKN007 BKN017CB TEMPO 3112/3115 33006G13MPS 1500 SHSNRA BKN004 BKN013CB TEMPO 3115/3118 2100 -SHRA BR BKN003 BKN013CB", "TAF UMBB 311100Z 3112/3121 VRB02MPS 6000 SCT020 TEMPO 3113/3121 12003MPS", "TAF UMGG 311101Z 3112/0112 31006G11MPS 9999 SCT020 TX08/3112Z TNM00/0103Z TEMPO 3112/3115 32009G14MPS BECMG 3115/3117 28005MPS TEMPO 3121/0106 2000 BR BKN005 BECMG 0106/0108 VRB02MPS BKN015", "TAF UMII 311114Z 3112/3121 32004G09MPS 9999 BKN020 TEMPO 3112/3116 33007G12MPS SCT010 TEMPO 3116/3121 31003G08MPS 2000 BR BKN005", "TAF UMIO 311101Z 3112/3121 32005G10MPS 9999 SCT020 TEMPO 3112/3121 34010G15MPS SCT010", "TAF UMKK 311055Z 3112/0112 VRB01MPS 6000 BKN006 TEMPO 3112/3115 BKN011 BECMG 3115/3117 3100 BR BECMG 3117/3119 1500 BR BKN004 TEMPO 3119/0109 0200 -DZ FG VV002", "TAF UMMG 311101Z 3112/3121 33003G08MPS 9000 BKN016 TEMPO 3112/3115 VRB02MPS", "TAF UMMS 311102Z 3112/0112 30005G10MPS 9999 BKN020 TX08/3113Z TNM01/0103Z TEMPO 3112/3116 32009G14MPS BECMG 3116/3117 27006MPS 5000 BR SCT010 TEMPO 3117/3119 3000 BCFG TEMPO 3119/0108 0200 FZFG VV001 BECMG 0108/0109 24006MPS 9999 NSW BKN020", "TAF UMOO 311102Z 3112/3121 30007G12MPS 9999 BKN020 TEMPO 3112/3121 34009G14MPS", "TAF UNAA 311059Z 3112/0112 16003MPS 9999 SCT030CB TEMPO 3112/0102 3500 -SHSN", "TAF UNBB 311100Z 3112/0112 24003G08MPS 6000 -SHRASN SCT007 BKN016CB TEMPO 3112/3118 3000 -SHSNRA SCT003 BKN010CB TEMPO 3118/0103 0150 -SHSN FZFG SCT002 BKN010CB BECMG 0103/0104 BKN020CB FM010900 17003G08MPS 9999 SCT040", "TAF UNEE 311100Z 3112/0112 09003MPS 8000 BKN040 TEMPO 3112/3121 -SHSNRA BKN016CB TEMPO 3121/0112 3000 -SHRASN BKN004 BKN011CB", "TAF UNKL 311050Z 3112/0112 11003MPS 9999 SCT030", "TAF UNNT 311100Z 3112/0112 02003MPS 8000 SCT040 TEMPO 3112/3119 -SHSN BKN020CB TEMPO 3120/0103 0300 FZFG BKN002 BECMG 0104/0106 18003G08MPS", "TAF UNOO 311100Z 3112/0112 16003MPS 5000 BR BKN007 BKN020 TEMPO 3112/0103 0500 FZFG VV002 FM010400 15003G09MPS 8000 SCT020", "TAF UNTT 311100Z 3112/3121 06003G08MPS 8000 BKN040CB TEMPO 3118/3121 -SHSN BKN016CB", "TAF UNWW 311100Z 3112/0112 18003G08MPS 8000 BKN030CB TEMPO 3112/3115 -SHSNRA BKN016CB BECMG 3115/3118 -SHSN BKN016CB TEMPO 3118/0112 3000 -SHSN SCT005 BKN011CB", "TAF UOOO 311055Z 3112/0112 20009G17MPS 6000 -SN BLSN OVC006 TEMPO 3112/3115 2500 -SN BLSN BECMG 3115/3118 OVC011 TEMPO 3118/0103 OVC016 TEMPO 0103/0112 18014G21MPS 2000 SN BLSN OVC005", "TAF URKA 311055Z 3112/0112 32010G17MPS 9999 BKN020 BECMG 3117/3119 36005G10MPS SCT030 TEMPO 0105/0112 32006G12MPS", "TAF URKK 311049Z 3112/0112 29007G12MPS 9999 BKN030CB TEMPO 3112/3115 27010G16MPS TEMPO 3115/0103 32005G10MPS -SHRA BKN020CB", "TAF URMG 311100Z 3112/3121 15003G08MPS 9999 SCT030 TEMPO 3115/3121 6000 -SHRA BKN016 BKN020CB", "TAF URML 311100Z 3112/3121 14003G10MPS 9999 SCT025 TEMPO 3112/3115 05003G08MPS BECMG 3115/3118 26003G11MPS BKN016 SCT040CB", "TAF AMD URMM 311334Z 3113/0112 30005G12MPS 9999 BKN030 TX10/0111Z TN05/0103Z TEMPO 3113/0112 32008G18MPS 6000 -SHRA BKN016 BKN020CB", "TAF URMN 311100Z 3112/3121 12003G08MPS 9999 SCT030 TEMPO 3118/3121 6000 -SHRA BKN020CB", "TAF URMO 311100Z 3112/3121 12003G08MPS 9999 BKN030 TEMPO 3112/3121 6000 -SHRA BKN016 BKN030CB", "TAF URMT 311100Z 3112/3121 29011G18MPS 9999 SCT016 BKN030 TEMPO 3112/3118 30014G22MPS 6000 -SHRA SCT010 BKN020CB", "TAF URRP 311056Z 3112/0112 28006G13MPS 9999 SCT016 SCT020CB TEMPO 3112/3115 32008G16MPS 6000 -SHRA FEW007 BKN020CB", "TAF URSS 311055Z 3112/0112 05004G09MPS 6000 -SHRA SCT009 BKN020CB OVC100 TEMPO 3112/3124 VRB07G12MPS 1500 TSRA BKN006 BKN020CB OVC100 FM010000 04006MPS 9999 SCT030 SCT100 BECMG 0107/0109 28007G12MPS SCT025", "TAF URWA 311057Z 3112/3121 23007G14MPS 9999 BKN016 SCT030CB TEMPO 3112/3118 20006G11MPS 3000 -SHRA BKN007 BKN020CB TEMPO 3118/3121 30009G14MPS", "TAF URWI 311057Z 3112/3121 27010G20MPS 6000 -SHRA BKN016 BKN020CB BECMG 3115/3116 32009G18MPS", "TAF AMD URWW 311321Z 3113/3121 30007G14MPS 6000 BKN016 BKN020CB TEMPO 3113/3121 33009G16MPS 3200 -SHRASN BKN006 BKN020CB", "TAF USCC 311100Z 3112/0112 17005G13MPS 6000 BKN011CB TEMPO 3112/0112 18010G18MPS 1100 SHSNRA BR BKN005CB", "TAF AMD USCM 311301Z 3113/3121 17008G13MPS 0300 DZ FG VV001 TEMPO 3113/3121 18012G17MPS 1200 SHSNRA BKN003 BKN011CB", "TAF USDA 311051Z 3112/3121 21009G14MPS 6000 SCT016 TEMPO 3112/3118 FEW006 SCT011", "TAF USHH 311040Z 3112/0112 15006G14MPS 3100 -SHSN BKN017CB TEMPO 3112/3115 1000 SHSN SCT003 BKN010CB FM311500 15005G10MPS 1600 SN OVC010 TEMPO 3115/0103 0600 +SHSN VV003 FM010300 17005G10MPS 6000 BKN016 TEMPO 0103/0112 4000 -SHRASN SCT004 BKN010CB", "TAF USNN 311051Z 3112/0112 18005G10MPS 9999 BKN016 BECMG 0105/0106 6000 -SN", "TAF USPP 311056Z 3112/0112 15003G12MPS 6000 OVC011 TEMPO 3112/3119 1100 DZ BR OVC004 BECMG 3116/3117 26003G08MPS BECMG 3119/3121 -SNRA", "TAF USRR 311055Z 3112/0112 17006G14MPS 9999 FEW011 BKN017 TEMPO 3112/3122 -SHSN FEW005 BKN016CB BECMG 3122/3124 3100 -SHSN SCT007 BKN020CB TEMPO 0100/0109 0800 +SHSN SCT005 BKN016CB", "TAF USSS 311049Z 3112/0112 15005G15MPS 9999 -SHRASN BKN008 SCT016CB BECMG 3114/3116 6000 -SHRASN TEMPO 3118/0106 BKN004 SCT016CB", "TAF USTR 311048Z 3112/0112 17006G13MPS 6000 -SHRA BKN020CB TEMPO 3112/3118 18014MPS 2100 -SHSNRA SCT005 BKN016CB TEMPO 3121/0112 3100 -SHRA SCT007 BKN016CB", "TAF UTAA 311045Z 3112/0112 09014KT 6000 SCT050 TEMPO 3112/3116 12016KT BECMG 3116/3118 15012KT TEMPO 3120/3124 3000 BR SCT010 TEMPO 0100/0103 1000 BR BKN003 BECMG 0106/0108 32016KT SCT050CB", "TAF UTAK 311030Z 3112/0112 18014KT CAVOK TEMPO 3112/3116 23012G22KT 6000 SCT020 TEMPO 3118/3122 30012KT 3000 BR BKN005 TEMPO 3122/0104 VRB03KT 0500 FG VV001", "TAF UTAM 311030Z 3112/0112 12012KT 5000 NSC TEMPO 3112/3118 09012G22KT 3000 DRDU SCT020 TEMPO 3118/0104 17010KT 2000 BR SCT007 BECMG 0104/0105 19014KT 6000 SCT030 BKN100 TEMPO 0105/0112 25016KT", "TAF UTAT 311032Z 3112/0112 12012KT CAVOK TEMPO 3112/3118 21010KT", "TAF UTAV 311030Z 3112/0112 04014KT 6000 NSC TEMPO 3112/3116 12014KT TEMPO 3116/3124 VRB04KT 2000 BR SCT007", "TAF UTDD 311200Z 3113/0101 VRB02MPS 8000 SCT066CB BKN100", "TAF UTDK 311200Z 3113/3122 VRB02MPS 8000 SCT066CB BKN100 TEMPO 3113/3114 21005MPS BECMG 3115/3116 03005MPS", "TAF UTDL 311200Z 3113/0101 08008MPS 6000 NSC", "TAF UTDT 311200Z 3113/3122 VRB02MPS 8000 SCT050CB BKN100", "TAF UTFF 311200Z 3113/3122 14010KT 5000 BR NSC TEMPO 3113/3121 VRB02KT 0700 FG", "TAF COR UTFN 311100Z 3112/0112 33010KT 5000 BR SCT050CB TEMPO 3112/3122 VRB02KT 0700 FG", "TAF UTNN 311100Z 3112/0112 17008G18KT CAVOK BECMG 0104/0106 22012G22KT", "TAF UTNU 311100Z 3112/0112 17008G18KT CAVOK BECMG 0104/0106 21012G22KT", "TAF UTSA 311101Z 3112/0112 VRB03KT 7000 NSC TEMPO 3112/3123 09010KT 4000 BR FU FEW033", "TAF UTSB 311100Z 3112/0112 VRB03KT 7000 NSC TEMPO 3112/3123 09010KT 4500 BR FEW033", "TAF UTSK 311159Z 3113/3122 06010KT CAVOK TEMPO 3113/3122 14010KT", "TAF AMD UTSS 311257Z 3112/0112 10010G20KT 7000 NSC TEMPO 3115/3123 15010KT 1500 BR SCT007", "TAF UTST 311100Z 3112/0112 VRB06KT 6000 SCT060CB BKN100 TEMPO 3112/3123 09012G22KT 1500 BR BKN050CB BKN100", "TAF COR UTTT 311100Z 3112/0112 VRB04KT 7000 NSC TEMPO 3114/3120 3000 BR TEMPO 3120/0103 1000 BR SCT007", "TAF UUBC 311057Z 3112/3121 32008G13MPS 9999 BKN016 TEMPO 3112/3118 3100 -SHSN SCT004 BKN011CB", "TAF UUBP 311056Z 3112/3121 29008G13MPS 9999 BKN020", "TAF UUBW 311052Z 3112/0112 30008MPS 6000 BKN016 TX04/3112Z TN00/0103Z TEMPO 3112/3118 32010G16MPS 1200 SHSN SCT005 BKN012CB", "TAF UUDD 311056Z 3112/0118 33007G12MPS 8000 BKN016 TX03/3112Z TNM01/0118Z TEMPO 3112/3119 33012G17MPS 1500 SHSN FEW005 BKN016CB", "TAF UUDL 311100Z 3112/0112 32006G12MPS 8000 -SN OVC016 TX02/3113Z TN01/0104Z TEMPO 3112/3118 OVC006", "TAF UUEE 311055Z 3112/0112 32007G13MPS 6000 FEW005 BKN016 TX03/3112Z TN00/0103Z TEMPO 3112/3118 -SHSN BKN012CB TEMPO 3118/0106 1200 RASN BR BKN004", "TAF UUMO 311056Z 3112/3121 32008G13MPS 6000 BKN016 TEMPO 3112/3118 1200 SHSN BKN007 BKN011CB", "TAF UUOB 311059Z 3112/3121 33006MPS 6000 BKN020 TEMPO 3112/3116 32011G16MPS -SHSN BKN011CB", "TAF UUOK 311057Z 3112/3121 32011G16MPS 6000 OVC016 TEMPO 3112/3118 3100 -SN BKN011", "TAF UUOL 311100Z 3112/3121 32007MPS 9999 BKN020", "TAF UUOO 311100Z 3112/3121 31006G12MPS 9999 BKN020 TEMPO 3112/3118 -SHSNRA BKN016CB", "TAF UUWW 311057Z 3112/0112 32006G12MPS 8000 BKN016 TX02/3112Z TNM00/0103Z TEMPO 3112/3118 30011G17MPS 1000 SHSN BKN005 BKN020CB", "TAF UUYY 311100Z 3112/0112 02003G08MPS 9999 SCT011 BKN017CB TEMPO 3112/3118 6000 -SHRASN SCT006 BKN016CB BECMG 3115/3117 36003G10MPS FM311800 36003G10MPS 6000 -SHSN BKN011 BKN017CB TEMPO 3118/0108 3100 -SHSN -FZDZ BKN005 BKN016CB BECMG 0108/0110 FEW011 BKN016CB", "TAF UWGG 311053Z 3112/0112 29003G09MPS 6000 BKN012CB TX02/3112Z TN01/0106Z TEMPO 3112/0103 31008G14MPS 1500 SHSN BKN005CB", "TAF UWKD 311059Z 3112/0112 26005G12MPS 6000 -SNRA OVC016 TX00/3112Z TNM02/0103Z TEMPO 3112/3115 0500 +SHSNRA BKN003 BKN017CB TEMPO 3115/3120 27009G16MPS 1000 SHSN BLSN BKN010CB", "TAF UWKE 311053Z 3112/0112 23003G10MPS 8000 BKN016 TEMPO 3112/3118 27003G14MPS 0700 +SHRASN BKN003 SCT020CB TEMPO 3118/3124 3100 -SHSN BKN007 SCT020CB BECMG 0100/0102 36003G10MPS", "TAF UWKS 311058Z 3112/3121 26005G12MPS 3100 -SHSN OVC010CB TX00/3112Z TNM01/3121Z TEMPO 3112/3120 0800 +SHSN VV002", "TAF UWLL 311058Z 3112/0112 29007G12MPS 9999 BKN016 TX02/3112Z TNM00/3118Z TEMPO 3112/3115 25005MPS 2100 -SHRASN BKN005 BKN016CB", "TAF UWLW 311058Z 3112/0112 24003MPS 9999 BKN016 TX02/3112Z TNM02/0102Z TEMPO 3112/3118 27003G09MPS 3100 -SHRASN BKN010 BKN013CB", "TAF UWOO 311042Z 3112/0112 18006G14MPS 6000 -RA BKN010 TX08/3112Z TN01/0103Z TEMPO 3112/3116 1000 BR BKN005 BECMG 3114/3116 27003MPS TEMPO 3116/0106 VRB01MPS 0300 FG VV002", "TAF UWOR 311041Z 3112/3121 19009G14MPS 6000 -RA BKN010 TX08/3112Z TN05/3121Z TEMPO 3112/3121 20010G18MPS BKN007", "TAF UWPS 311050Z 3112/3121 29006G13MPS 8000 BKN016CB TX01/3112Z TNM01/3121Z", "TAF UWSG 311057Z 3112/3121 31003G08MPS 9999 BKN020 TX04/3112Z TNM01/3121Z", "TAF UWUU 311057Z 3112/0112 28003G09MPS 6000 -RA OVC010 TX05/3112Z TN00/0102Z TEMPO 3112/3115 18003G12MPS 4000 -SHRA BR SCT004 BKN010CB TEMPO 3115/0103 32003G09MPS 2100 -SHRASN BR SCT004 BKN006CB TEMPO 0103/0112 28006G14MPS 4000 -SHRASN SCT004 BKN016CB", "TAF UWWW 311051Z 3112/0112 29005G12MPS 6000 BKN016 TX04/3112Z TNM00/0103Z TEMPO 3112/3115 33008G14MPS 1000 SHSNRA BKN004 BKN011CB BECMG 3115/3117 33003G10MPS TEMPO 3117/0107 OVC003", "TAF VAAH 311100Z 3112/3121 05006KT 6000 NSC BECMG 3112/3114 4000 FU HZ", "TAF VAAU 311100Z 3112/3121 07005KT 5000 FU HZ NSC BECMG 3115/3117 02005KT 4000 FU HZ BECMG 3120/3121 VRB03KT 3000 HZ", "TAF VABJ 310930Z 3112/3124 02005KT 6000 NSC BECMG 3114/3116 VRB02KT", "TAF VABO 311100Z 3112/3121 04006KT 6000 NSC", "TAF VABP 311100Z 3112/3121 05005KT 5000 HZ NSC BECMG 3118/3120 09005KT 4000 HZ", "TAF VABV 311100Z 3112/3121 02006KT 5000 FU NSC BECMG 3114/3116 4000 FU", "TAF VADU 311100Z 3112/3121 14008KT 6000 NSC BECMG 3114/3116 VRB03KT 4000 HZ BECMG 3116/3118 01005KT", "TAF VAID 311100Z 3112/3121 05008KT 5000 HZ NSC BECMG 3118/3120 09005KT 4000 HZ", "TAF VAJB 311100Z 3112/3121 36005KT 4000 HZ NSC BECMG 3118/3120 3000 HZ", "TAF VAJL 310500Z 3106/3115 05007KT 4000 FU NSC BECMG 3109/3111 12008KT 5000 FU", "TAF VAJM 310930Z 3112/3124 32006KT 6000 NSC BECMG 3115/3117 VRB02KT", "TAF VAKE 311100Z 3112/3121 05008KT 6000 NSC BECMG 3114/3116 4000 FU BECMG 3116/3118 09005KT", "TAF VAKP 311100Z 3112/3121 08005KT 4000 HZ NSC BECMG 3115/3117 3000 HZ BECMG 3118/3120 VRB03KT 2500 HZ FEW100", "TAF VANP 311100Z 3112/0118 07003KT 3000 HZ NSC BECMG 0100/0102 01004KT 2000 BR/HZ FEW100 BECMG 0105/0107 10005KT 5000 HZ NSC BECMG 0113/0115 03003KT 3000 HZ NSC", "TAF VAOZ 310800Z 3109/3121 07010KT 6000 NSC TEMPO 3112/3114 5000 BR", "TAF VAPO 311100Z 3112/0118 07005KT 6000 NSC TEMPO 3123/0103 VRB02KT 4000 BR", "TAF VAPR 311100Z 3112/3121 02008KT 6000 NSC", "TAF VARK 311100Z 3112/3121 07008KT 6000 NSC", "TAF VASD 310800Z 3109/3118 12008KT 5000 FU NSC BECMG 3114/3116 04005KT 3000 FU", "TAF VASL 311100Z 3112/3121 09005KT 4000 HZ NSC BECMG 3115/3117 3000 HZ BECMG 3118/3120 VRB03KT 2500 HZ FEW020", "TAF VASU 311100Z 3112/3121 05006KT 6000 NSC", "TAF VAUD 311100Z 3112/3121 VRB03KT 3000 HZ NSC", "TAF VCBI 311100Z 3112/0118 VRB05KT 9999 SCT016 TX31/0107Z TN24/0100Z PROB30 TEMPO 3112/3116 7000 -TSRA/SHRA SCT016 FEW020CB", "TAF VCRI 311100Z 3112/0118 21008KT 9999 SCT018 TX32/0107Z TN23/0100Z PROB30 TEMPO 3112/3116 7000 -TSRA/SHRA SCT016 FEW018CB BKN080 ", "TAF VDPP 311100Z 3112/0106 05007KT 9999 SCT017 TEMPO 3112/3117 SCT015 FEW017CB", "TAF VDSR 311100Z 3112/0106 01007KT 9999 SCT017 TEMPO 3112/3117 SCT015 FEW017CB", "TAF VDSV 311100Z 3112/0106 32006KT 9999 SCT017 TEMPO 3112/3117 SCT015 FEW017CB", "TAF VEAB 310930Z 3112/3124 VRB02KT 6000 NSC BECMG 3120/3124 3000 BR", "TAF VEAT 311100Z 3112/3121 00000KT 5000 HZ NSC BECMG 3116/3118 2800 BR", "TAF VEBD 311100Z 3112/0118 09005KT 6000 FEW030 TEMPO 0101/0103 4000 BR", "TAF VEBI 310800Z 3109/3118 09006KT 5000 HZ FEW018 BECMG 3113/3115 00000KT 3000 BR", "TAF VEBN 311100Z 3112/0118 VRB02KT 3000 BR NSC BECMG 3119/3121 1500 BR BECMG 3123/0101 0800 MIFG BECMG 0102/0104 1500 BR BECMG 0107/0109 3000 HZ BR BECMG 0116/0118 1500 BR", "TAF VEBS 311100Z 3112/3121 05003KT 4000 HZ NSC", "TAF VEBU 310500Z 3106/3115 33004KT 4000 HZ NSC BECMG 3113/3115 06004KT 4000 BR/HZ FEW100", "TAF VECC 311100Z 3112/3121 34005KT 3500 HZ FEW100", "TAF VECX 310930Z 3112/3124 VRB02KT 3000 HZ SKC BECMG 3114/3115 00000KT 2000 BR SKC", "TAF VEDG 311100Z 3112/0118 33005KT 3500 HZ FEW100 BECMG 3122/3124 1800 BR BECMG 0103/0105 3500 HZ FEW020 BECMG 0106/0108 5000 HZ FEW100 BECMG 0114/0116 3200 HZ", "TAF VEDZ 310500Z 3106/3115 03005KT 5000 HZ FEW018 BECMG 3113/3115 00000KT 3000 BR", "TAF VEGK 310930Z 3112/3124 VRB02KT 5000 BR NSC BECMG 3114/3116 4000 BR BECMG 3118/3120 3000 BR BECMG 3123/3124 1000 BR", "TAF VEGT 311100Z 3112/3121 00000KT 3000 BR FEW018", "TAF VEGY 311100Z 3112/0118 00000KT 3500 HZ FEW018 SCT100 BECMG 3113/3115 2500 BR FEW100 BECMG 3123/0101 1400 MIFG BR BECMG 0103/0105 01004KT 2500 HZ BECMG 0106/0108 4000 HZ BECMG 0112/0114 00000KT 2500 BR", "TAF VEIM 311100Z 3112/3121 00000KT 3000 BR FEW018", "TAF VEJH 311100Z 3112/3121 03003KT 4000 HZ NSC BECMG 3116/3118 2500 BR NSC", "TAF VEJR 310500Z 3106/3115 36004KT 5000 HZ FEW020 BECMG 3113/3115 05004KT 3000 HZ FEW100", "TAF VEJS 311100Z 3112/3121 00000KT 3000 HZ FEW100", "TAF VEJT 310930Z 3112/3124 04005KT 6000 SCT025 BECMG 3115/3116 VRB02KT 5000 BR BECMG 3118/3119 3000 BR BECMG 3121/3122 1500 BR TEMPO 3122/3124", "TAF VEKO 311100Z 3112/3121 36005KT 4000 HZ NSC BECMG 3118/3120 3000 HZ", "TAF VELP 310800Z 3109/3118 11005KT 5000 HZ FEW018 BECMG 3111/3113 00000KT 2800 BR NSC", "TAF VELR 310800Z 3109/3118 04005KT 5000 HZ FEW020 BECMG 3113/3115 00000KT 3000 BR", "TAF VEMN 311100Z 3112/3121 00000KT 5000 HZ FEW025 BECMG 3112/3114 3000 BR FEW100", "TAF VEMR 310800Z 3109/3118 05006KT 5000 HZ FEW020 BECMG 3113/3115 00000KT 3000 BR", "TAF VEPT 311100Z 3112/0118 03003KT 3500 HZ FEW018 SCT100 BECMG 3113/3115 00000KT 2500 BR FEW100 BECMG 0100/0102 1400 MIFG BR BECMG 0103/0105 03004KT 2500 HZ BECMG 0106/0108 4000 HZ BECMG 0113/0115 00000KT 2500 BR", "TAF VEPY 310800Z 3109/3118 20005KT 5000 HZ FEW015 BECMG 3113/3115 00000KT 3500 HZ", "TAF VERC 311100Z 3112/0118 00000KT 4000 HZ FEW100 BECMG 3122/3124 2500 BR BECMG 0101/0103 4000 HZ BECMG 0104/0106 36004KT 6000 NSC BECMG 0112/0114 00000KT 4000 HZ", "TAF VERP 311100Z 3112/3121 VRB03KT 3000 HZ NSC", "TAF VERU 310500Z 3106/3115 07006KT 5000 HZ FEW018 BECMG 3113/3115 00000KT 3000 BR", "TAF VETJ 310500Z 3106/3115 09005KT 5000 HZ FEW018 BECMG 3113/3115 00000KT 3000 BR", "TAF VETZ 310930Z 3112/3124 07010KT 6000 FEW025 TEMPO 3120/3124 VRB02KT 5000 BR", "TAF VEZO 310500Z 3106/3115 32005KT 5000 HZ FEW018 BECMG 3113/3115 00000KT 3000 BR", "TAF VGEG 311100Z 3112/0118 35008KT 4000 HZ FEW016 TEMPO 3120/0102 00000KT 3500 HZ SCT015 BECMG 0103/0105 09010KT 5000 HZ SCT019 BECMG 0110/0112 28008KT 4500 HZ FEW016", "TAF VGHS 311100Z 3112/0118 34006KT 4000 HZ NSC BECMG 3120/3122 00000KT 3200 HZ NSC BECMG 0100/0102 2000 BR NSC BECMG 0104/0106 35006KT 4000 HZ NSC", "TAF VIAG 311100Z 3112/0118 VRB02KT 1500 HZ NSC BECMG 3116/3118 1000 BR BECMG 3119/3121 0600 FG BECMG 0103/0105 1000 BR BECMG 0105/0107 20005KT 2000 HZ NSC TEMPO 0109/0112 3000 HZ BECMG 0115/0117 VRB02KT 1000 BR NSC", "TAF VIBR 310500Z 3106/3115 23006KT 4000 FEW030 BECMG 3111/3113 VRB02KT 2000 BR", "TAF VIBT 310930Z 3112/3124 VRB02KT 3000 FU SKC BECMG 3122/3123 VRB02KT 1500 BR SKC", "TAF VIBY 310930Z 3112/3124 VRB02KT 4000 HZ NSC BECMG 3115/3116 2500 BR BECMG 3123/3124 0800 FG", "TAF VICG 311100Z 3112/0118 VRB02KT 5000 BR NSC TEMPO 3122/0100 VRB02KT 3000 BR NSC BECMG 0102/0104 30010KT 6000 NSC TEMPO 0112/0114 VRB02KT 5000 BR NSC", "TAF VIDN 311100Z 3112/3121 VRB02KT 3000 HZ BR FEW025", "TAF VIGG 310500Z 3106/3115 22004KT 4000 HZ FEW030 BECMG 3111/3113 VRB02KT 2000 BR SCT030", "TAF VIGR 310930Z 3112/3124 02005KT 4000 HZ NSC BECMG 3113/3115 VRB02KT 3000 HZ NSC BECMG 3117/3118 VRB02KT 2000 BR NSC", "TAF VIJO 310930Z 3112/3124 25010KT 6000 NSC", "TAF VIJP 311100Z 3112/3121 VRB03KT 2500 HZ FU NSC", "TAF VIKG 310500Z 3106/3115 VRB03KT 3000 HZ NSC", "TAF VILK 311100Z 3112/0118 00000KT 2500 BR NSC BECMG 3119/3121 1500 BR BECMG 3123/0101 0800 MIFG BECMG 0102/0104 1500 BR BECMG 0107/0109 VRB02KT 3000 HZ BECMG 0116/0118 1500 BR", "TAF VIPT 311100Z 3112/3121 VRB02KT 3000 HZ BR NSC", "TAF VISM 310500Z 3106/3115 27004KT 4000 BR FEW025 BECMG 3111/3113 VRB02KT 1800 BR", "TAF VISR 310930Z 3112/3124 VRB02KT 2000 HZ SCT025 BKN090 TEMPO 3122/3124 1500 BR", "TAF VLLB 310500Z 3106/0106 34004KT 9999 FEW020 FEW060", "TAF VLLN 310500Z 3106/0106 09004KT 8000 FEW020 FEW100", "TAF VLPS 310500Z 3106/0106 36010KT 8000 FEW020 SCT200", "TAF VLSK 310500Z 3106/0106 06004KT 8000 FEW020 SCT100", "TAF VLVT 310500Z 3106/0106 36006KT 8000 FEW020 FEW200", "TAF VMMC 311100Z 3112/0118 35020KT 9999 FEW040 TEMPO 3112/0106 35025G35KT TEMPO 0112/0118 35022G32KT 4500 SHRA", "TAF VNKT 311100Z 3112/0112 26006KT 8000 FEW020 BECMG 3114/3115 VRB02KT 7000 FEW015 PROB40 0100/0103 5000 BR BECMG 0104/0105 12003KT 7000 FEW015 BECMG 0107/0108 28008KT 8000 FEW020", "TAF VOAR 311100Z 3112/0118 03008KT 3400 HZ SCT018 OVC090 TEMPO 3114/3118 2500 RA/DZ BECMG 3118/3119 VRB02KT 3122/0102 2500 RA/DZ BECMG 0102/0104 04010KT TEMPO 0106/0112 2000 TSRA/RA SCT016 FEW025TCU/CB OVC080 BECMG 0115/0116 VRB02KT", "TAF VOBM 310800Z 3109/3118 07010KT 8000 FEW015", "TAF VOCB 311100Z 3112/0118 05010KT 4000 BR SCT012 BKN080 BECMG 3118/3119 VRB02KT 3000 -DZ/BR TEMPO 0100/0103 1500 BR BECMG 0103/0104 05010KT 5000 BR TEMPO 0112/0118 SCT015 FEW020TCU/CB BKN080", "TAF VOCP 310800Z 3109/3118 05008KT 5000 HZ SCT015 BECMG 3115/3117 05006KT 5000 HZ SCT015 SCT100", "TAF VOGB 310800Z 3109/3118 05005KT 8000 FEW015", "TAF COR VOGO 310800Z 3109/3118 08010KT 6000 NSC BECMG 3110/3112 28010KT", "TAF VOJV 310800Z 3109/3118 07008KT 8000 FEW015", "TAF VOKU 310800Z 3109/3118 05008KT 5000 HZ SCT015 BECMG 3115/3117 05006KT 5000 HZ SCT015 BKN100", "TAF VOLT 311100Z 3112/3121 09005KT 4000 HZ NSC BECMG 3115/3117 3000 HZ BECMG 3118/3120 VRB03KT 2500 HZ FEW020", "TAF VOMD 311100Z 3112/0118 05010KT 5000 BR SCT020 BKN100 BECMG 3121/3122 3000 BR BECMG 0103/0104 5000 BR BECMG 0106/0107 6000 BECMG 0112/0113 5000 BR TEMPO 0115/0118 3000 TSRA/RA SCT018 FEW025TCU/CB OVC080", "TAF VOMM 311100Z 3112/0118 02010KT 4000 -DZ/BR SCT020 BKN100 BECMG 3118/3119 3000 RA/BR TEMPO 3121/0103 2000 TSRA/RA SCT018 FEW025TCU/CB OVC080 BECMG 0106/0107 4000 -DZ/BR TEMPO 0109/0115 3000 TSRA/RA SCT018 FEW025TCU/CB OVC080 BECMG 0112/0113 3000 -RZ/BR", "TAF VOMY 310800Z 3109/3118 07010KT 6000 FEW015", "TAF VOND 311100Z 3112/3121 07005KT 5000 FU HZ NSC BECMG 3115/3117 02005KT 4000 FU HZ BECMG 3120/3121 VRB03KT 3000 HZ", "TAF VOSR 311100Z 3112/3121 08005KT 4000 HZ NSC BECMG 3115/3117 3000 HZ BECMG 3118/3120 VRB03KT 2500 HZ FEW100", "TAF VOTR 311100Z 3112/0118 02010KT 4000 HZ SCT016 BKN100 BECMG 3118/3119 3000 BR TEMPO 0100/0103 2000 BR BECMG 0103/0104 4000 HZ TEMPO 0109/0115 3000 TSRA/RA SCT016 FEW025TCU/CB OVC080 BECMG 0112/0113 3000 DZ/BR", "TAF VOVZ 311100Z 3112/0118 06004KT 4000 BR HZ FEW018 SCT080 BECMG 3114/3116 VRB02KT 4000 BR FEW018 TEMPO 3122/0102 2000 BR BECMG 0102/0104 05005KT 4500 HZ NSC TEMPO 0108/0110 05010KT 5000 HZ BECMG 0114/0116 VRB02KT 4000 BR FEW018", "TAF VRMG 311100Z 3112/0118 34010KT 9000 FEW017TCU BKN110 TEMPO 3112/3118 26016G35KT 3000 SHRA SCT018CB", "TAF VRMH 311100Z 3112/0118 27005KT 9999 FEW018 TEMPO 3112/3118 FEW019CB", "TAF VRMM 311100Z 3112/0118 30006KT 9000 FEW018 TEMPO 3112/3118 FEW018CB", "TAF VTBD 311100Z 3112/0118 03005KT 9999 FEW020", "TAF VTBO 311100Z 3112/0112 03010KT 8000 FEW030", "TAF VTBS 311100Z 3112/0118 06008KT 9000 FEW030", "TAF VTBU 311100Z 3112/0112 05005KT 6000 NSC BECMG 3112/3114 34005KT 4000 BR BECMG 0101/0103 05008KT 6000 NSW", "TAF VTCC 311100Z 3112/0118 28005KT 9999 FEW035 BECMG 3116/3118 34005KT BECMG 0102/0104 04005KT BECMG 0108/0110 32005KT", "TAF VTCH 311100Z 3112/0112 34005KT 9999 FEW025 BECMG 3120/3122 00000KT 1500 BR BECMG 0100/0102 36005KT 9999 NSW", "TAF VTCL 311100Z 3112/0112 06005KT 9999 FEW025 BECMG 3120/3122 00000KT 2000 BR BECMG 0100/0102 04005KT 9999 NSW", "TAF VTCN 311100Z 3112/0112 04005KT 9999 FEW025 BECMG 3120/3122 00000KT 1000 BR BECMG 0100/0102 02005KT 9999 NSW", "TAF VTCP 311100Z 3112/0112 36005KT 9999 FEW040 BECMG 3120/3122 00000KT 1500 BR BECMG 0100/0102 02005KT 9999 NSW", "TAF VTCT 311100Z 3112/0118 06005KT 9999 FEW025 BECMG 3116/3118 36005KT", "TAF VTPB 311100Z 3112/0112 36005KT 9999 FEW030", "TAF VTPH 311100Z 3112/0112 33003KT 9999 FEW020 BECMG 0102/0104 05010KT", "TAF VTPM 311100Z 3112/0112 08008KT 9999 FEW040", "TAF VTPO 311100Z 3112/0112 02005KT 9999 FEW025", "TAF VTPP 311100Z 3112/0112 28005KT 9999 FEW030", "TAF VTSB 311100Z 3112/0112 00000KT 9999 SCT020 SCT100 BECMG 3121/3123 1500 BR BKN005 BECMG 0100/0102 9999 NSW FEW020 BECMG 0103/0105 04010KT TEMPO 0106/0112 VRB15G25KT 4000 TSRA FEW016CB SCT018 BKN100", "TAF VTSC 311100Z 3112/0112 19004KT 9999 SCT020 BKN100 TEMPO 3112/3118 4000 RA BECMG 0101/0103 09008KT TEMPO 0106/0112 VRB15G25KT 4000 TSRA FEW016CB SCT018 BKN100", "TAF VTSE 311100Z 3112/0112 00000KT 9999 FEW020 BECMG 0103/0105 05010KT", "TAF VTSF 311100Z 3112/0112 20003KT 9999 SCT020 SCT100 TEMPO 3112/3118 4000 RA BECMG 0101/0103 04008KT TEMPO 0105/0112 VRB15G25KT 4000 TSRA FEW016CB SCT018 BKN100", "TAF VTSG 311100Z 3112/0112 00000KT 9999 FEW020 TEMPO 3112/3116 08015G25KT 3000 TSRA FEW016CB SCT018 BKN100 BECMG 3120/3122 3000 BR BECMG 0100/0102 06006KT 9999 NSW", "TAF VTSM 311100Z 3112/0112 36005KT 9999 FEW020 TEMPO 0105/0112 4000 RA", "TAF VTSP 311100Z 3112/0118 00000KT 9999 FEW020 TEMPO 3112/3116 08015G25KT 3000 TSRA FEW016CB SCT018 BKN100 BECMG 0100/0102 08006KT BECMG 0104/0106 28006KT", "TAF VTSR 311100Z 3112/0112 00000KT 9999 FEW020 BECMG 0100/0102 06006KT", "TAF VTSS 311100Z 3112/0112 24003KT 9999 FEW020 BKN100 TEMPO 3112/3118 4000 RA BECMG 3121/3123 1500 BR BKN005 BECMG 0101/0103 07010KT 9999 NSW FEW020 TEMPO 0105/0112 VRB15G25KT 3000 TSRA FEW016CB SCT018 BKN100", "TAF VTST 311100Z 3112/0112 00000KT 9999 FEW020 TEMPO 3112/3116 08015G25KT 3000 TSRA FEW016CB SCT018 BKN100 BECMG 3120/3122 3000 BR BECMG 0100/0102 06006KT 9999 NSW", "TAF VTUD 311100Z 3112/0112 04006KT 8000 FEW030", "TAF VTUI 311100Z 3112/0112 05007KT 8000 FEW030", "TAF VTUK 311100Z 3112/0112 04006KT 8000 FEW030 SCT080", "TAF VTUL 311100Z 3112/0112 07006KT 7000 FEW030", "TAF VTUO 311100Z 3112/0112 06010KT 8000 FEW035", "TAF VTUQ 311100Z 3112/0112 05006KT 8000 NSC", "TAF VTUU 311100Z 3112/0112 02010KT CAVOK", "TAF VTUV 311100Z 3112/0112 05006KT 8000 NSC", "TAF VTUW 311100Z 3112/0112 05007KT 8000 FEW030", "TAF VVCI 311100Z 3112/0112 01010KT 9999 FEW030", "TAF VVCR 311100Z 3112/0112 33006KT 9999 FEW015 BECMG 0103/0104 06010KT", "TAF VVCT 311100Z 3112/0112 VRB03KT 9999 SCT015 SCT050", "TAF VVDN 311100Z 3112/0112 34011KT 9999 FEW015 SCT060", "TAF VVNB 311100Z 3112/0112 35008KT 9999 FEW030", "TAF VVPB 311100Z 3112/0112 32010KT 7000 SCT015 BKN050", "TAF VVPQ 311100Z 3112/0112 25005KT 9999 SCT017", "TAF VVTS 311100Z 3112/0118 33005KT 9999 FEW017 SCT050", "TAF VYMD 311100Z 3112/0112 34005KT 7000 SCT025 TEMPO 3112/3118 36007KT 6000 SCT020 SCT120", "TAF VYNT 311100Z 3112/0112 30006KT 7000 SCT020 FEW025CB SCT120 TEMPO 3112/3118 32005KT 6000 SCT020 FEW025CB SCT110", "TAF VYYY 311100Z 3112/0112 34007KT 7000 SCT020 FEW025TCU SCT110 BECMG 3115/3118 16006KT 020V130 6000 SCT020 BECMG 3122/0100 04003KT 5000 BR", "TAF WAAA 311100Z 3112/0118 12003KT 8000 FEW019 TEMPO 3120/3123 5000 TSRA FEW018CB BECMG 0101/0103 29012KT", "TAF WABB 311100Z 3112/0118 32004KT 9999 FEW018", "TAF WADD 311100Z 3112/0112 VRB05KT 9999 SCT016", "TAF WADL 311100Z 3112/0112 13005KT 7000 SCT016 BECMG 0102/0104 20010KT BKN016", "TAF WALL 311100Z 3112/0118 29002KT 9999 FEW020", "TAF WALS 311100Z 3112/3124 16006KT 8000 SCT017 TEMPO 3112/3115 FEW016CB SCT017", "TAF WAMM 311100Z 3112/0118 VRB03KT 9999 SCT020 BECMG 0100/0102 16009KT", "TAF WAOO 311100Z 3112/0112 15006KT 9999 SCT018", "TAF WAPP 311100Z 3112/0112 34005KT 9999 SCT017", "TAF WAQA 311100Z 3112/3124 10004KT 8000 FEW012", "TAF WAQD 311100Z 3112/3124 00000KT 8000 FEW015", "TAF WAQJ 311100Z 3112/3124 26004KT 7000 BKN015", "TAF WAQQ 311100Z 3112/3124 08003KT 8000 FEW015", "TAF WAQT 311100Z 3112/3124 VRB01KT 9999 SCT015", "TAF WARR 311100Z 3112/0112 10008KT 8000 FEW020 BECMG 3118/3120 25005KT 5000 HZ BECMG 0101/0103 08010KT 9999 NSW", "TAF COR WATT 311100Z 3112/0112 08004KT 8000 SCT016 TEMPO 0106/0110 12012KT 4000 -RA FEW015CB BKN016", "TAF WBGB 311100Z 3112/0112 23006KT 9999 SCT016 TEMPO 3112/3116 3000 TSRA FEW015CB SCT016", "TAF WBGG 311100Z 3112/0112 25005KT 9999 SCT018 TEMPO 3114/3118 3000 TSRA FEW015CB SCT016", "TAF WBGR 311100Z 3112/0112 26010KT 9999 SCT016 TEMPO 3112/3116 3000 TSRA FEW015CB SCT016 TEMPO 3117/3121 5000 RA FEW005 SCT016", "TAF WBGS 311100Z 3112/0112 23005KT 9999 SCT018 TEMPO 3112/3116 3000 TSRA FEW015CB SCT016", "TAF AMD WBKK 311146Z 3112/0112 17005KT 9999 FEW014 TEMPO 3112/3118 29012G25KT 3000 +RA FEW008 FEW016CB SCT035 BECMG 3118/3120 6000 RA FEW010 SCT035 BECMG 0102/0104 NSW", "TAF WBKL 311100Z 3112/0112 23005KT 9999 FEW015 TEMPO 3112/3118 20008G20KT 4000 RA FEW008 FEW016CB SCT030", "TAF WBKS 311100Z 3112/0112 22005KT 9999 FEW016 TEMPO 3112/3116 21006G17KT 5000 TSRA FEW010 FEW016CB SCT030", "TAF WBKW 311100Z 3112/0112 16005KT 9999 FEW016 TEMPO 3116/3120 30010KT 3000 +TSRA FEW016CB SCT030", "TAF WBSB 311100Z 3112/0118 24006KT 9999 SCT014 FEW015CB TEMPO 3114/3118 22015G25KT 5000 SHRA TEMPO 3118/3122 7000 -RA", "TAF WIDD 311100Z 3112/0112 29006KT 9999 SCT014", "TAF WIEE 311100Z 3112/0112 02003KT 9999 SCT020 TEMPO 3123/0101 3000 RA BKN018", "TAF WIHH 311100Z 3112/0112 12006KT 6000 FEW020 BECMG 3119/3121 03004KT 5000 HZ", "TAF WIII 311100Z 3112/0118 02010KT 8000 SCT020 TEMPO 3113/3116 5000 -RA BECMG 3116/3118 22003KT 5000 HZ BECMG 0101/0103 03010KT 9000 NSW TEMPO 0109/0112 VCTS FEW018CB", "TAF WIMM 311100Z 3112/0112 VRB03KT 5000 HZ SCT018 TEMPO 3120/0100 -TSRA FEW016CB BKN017 BECMG 0102/0104 36010KT 9999", "TAF WIPP 311100Z 3112/0112 06005KT 9999 SCT010 TEMPO 3121/3124 3000 BR", "TAF WIPY 310500Z 3106/3118 22007KT 9999 SCT010 TEMPO 3109/3112 5000 -RA FEW009CB BKN010", "TAF WITT 311100Z 3112/0112 13005KT 9999 SCT018 TEMPO 3113/3116 4000 TSRA FEW016CB", "TAF WMAP 311100Z 3112/0112 VRB02KT 9999 FEW024 PROB40 TEMPO 0106/0110 31006KT 5000 TSRA FEW017CB SCT018", "TAF WMBT 311100Z 3112/0112 VRB02KT 9999 FEW025", "TAF WMKA 311100Z 3112/0112 VRB02KT 9000 SCT030", "TAF WMKB 311100Z 3112/0112 VRB02KT 8000 SCT024 TEMPO 3122/0102 6000 TSRA FEW017CB", "TAF WMKC 311100Z 3112/0112 VRB03KT 9999 FEW020 TEMPO 3114/3118 5000 TSRA FEW010 FEW017CB", "TAF WMKE 311100Z 3112/0112 VRB03KT 9999 FEW017", "TAF WMKI 311100Z 3112/0112 05005KT 8000 SCT025 BECMG 0100/0102 03003KT 9000 FEW019 TEMPO 0108/0112 22008KT 5000 TSRA FEW017CB", "TAF WMKJ 311100Z 3112/0112 VRB02KT 9999 FEW022 PROB40 TEMPO 0106/0110 34006KT 5000 TSRA FEW016CB SCT018", "TAF WMKK 311100Z 3112/0118 VRB02KT 9999 FEW030 PROB40 TEMPO 0104/0108 31006KT 5000 TSRA FEW017CB SCT018", "TAF WMKL 311100Z 3112/0112 VRB02KT 9999 SCT026 TEMPO 3119/3124 6000 TSRA FEW017CB", "TAF WMKM 311100Z 3112/0112 VRB02KT 9999 FEW028 PROB30 TEMPO 0105/0109 28006KT 5000 TSRA FEW017CB SCT020", "TAF WMKN 311100Z 3112/0112 VRB03KT 9999 FEW022", "TAF AMD WMKP 311306Z 3113/0112 00000KT 8000 FEW025 TEMPO 3113/3116 7000 TSRA FEW017CB PROB30 TEMPO 3119/0100 6000 TSRA FEW017CB BECMG 0104/0106 23007KT 9999 FEW020", "TAF WMPA 310500Z 3106/0106 VRB02KT 8000 FEW021 TEMPO 3111/3115 6000 TSRA FEW017CB", "TAF WMSA 311100Z 3112/0112 VRB02KT 9999 FEW026 PROB30 TEMPO 0104/0108 29006KT 5000 TSRA FEW017CB SCT018", "TAF AMD WPDL 311111Z 3111/0100 27007KT 9999 SCT025 FM311200 15006KT 9999 SCT025", "TAF WSAP 311100Z 3112/0118 27006KT 9999 FEW015 BKN020 TEMPO 0103/0106 3000 TSRA FEW012CB BKN015", "TAF WSSL 311100Z 3112/0118 27006KT 9999 FEW015 BKN020 TEMPO 0103/0106 3000 TSRA FEW012CB BKN015", "TAF WSSS 311100Z 3112/0118 27006KT 9999 FEW015 BKN020 TEMPO 0103/0106 3000 TSRA FEW012CB BKN015", "TAF AMD YAMB 311123Z 3112/0112 34008KT 9999 -SHRA SCT040 BKN120 FM311800 30013KT 8000 -RA SCT020 BKN040 FM010200 28013G25KT 9999 NSW SCT035 FM010900 28012KT CAVOK TEMPO 3116/0101 VRB30G45KT 3000 RA BKN010 PROB30 TEMPO 3116/0101 VRB35G50KT 1000 TSRA SCT015 SCT070CB", "TAF YBAS 311112Z 3112/0112 22014KT CAVOK FM312300 20015G25KT CAVOK FM010200 20014KT CAVOK FM011000 17008KT CAVOK", "TAF AMD YBBN 311113Z 3112/0118 36017KT 9999 FEW010 FM311500 35014KT 9999 -RA SCT015 FM312100 35015G30KT 8000 -RA SCT010 BKN040 FM010000 29015G25KT 8000 -RA SCT010 BKN040 FM010400 29015G28KT 9999 NSW FEW020 FM010900 27013KT CAVOK TEMPO 3118/0104 VRB30G45KT 3000 RA BKN010 PROB30 TEMPO 3118/0104 VRB35G50KT 1000 TSRA BKN008 SCT070CB", "TAF AMD YBCG 311129Z 3112/0112 35015KT 9999 FEW010 FM311500 35018G30KT 9999 -RA SCT010 FM010000 31015G25KT 9000 -RA BKN020 FM010400 31015G25KT 9999 NSW FEW020 SCT040 FM010900 33013KT CAVOK TEMPO 3118/0103 VRB30G45KT 3000 RA BKN010 PROB30 TEMPO 3118/0103 VRB35G50KT 1000 TSRA BKN008 SCT070CB", "TAF YBCS 311120Z 3112/0112 34008KT 9999 SCT018 BKN025 FM010000 01014KT 9999 FEW035 FM010900 34010KT 9999 SCT018 BKN025 PROB30 TEMPO 0108/0112 VRB20G35KT 1000 TSRA BKN010 SCT025CB", "TAF YBHM 311121Z 3112/0100 34018KT 9999 SCT015 FM311800 34020KT 9999 SCT012 BKN020 PROB30 TEMPO 3123/0100 VRB20G40KT 1000 TSRA BKN010 SCT020CB", "TAF YBLN 311107Z 3112/0112 20012KT 9999 BKN030 BECMG 3118/3120 18005KT 9999 FEW015 BKN020 FM010100 15006KT 9999 SCT020 BKN040 FM010600 18010KT 9999 BKN035", "TAF AMD YBMA 311231Z 3112/0100 29008KT CAVOK FM311400 18014KT 9999 SCT050 PROB30 TEMPO 3112/3116 VRB20G40KT 1000 TSRA BKN010 SCT060CB", "TAF AMD YBRK 311126Z 3112/0112 36007KT 9999 SCT012 FM312000 35010KT 9999 -SHRA SCT010 FM312300 33012KT 9999 -SHRA BKN025 FM010800 31007KT 9999 NSW SCT010 TEMPO 3114/3120 9999 BKN012 TEMPO 3120/0107 3000 SHRA BKN010 PROB30 TEMPO 3120/0100 VRB30G45KT 1000 TSRA BKN008 SCT080CB PROB30 TEMPO 0100/0107 VRB30G45KT 1000 TSRA BKN008 SCT030CB", "TAF YBRM 311112Z 3112/0112 16012KT CAVOK FM312200 12015G25KT CAVOK FM010300 14014KT CAVOK FM010700 21010KT CAVOK", "TAF AMD YBTL 311121Z 3111/0112 35012KT 9999 FEW015 SCT020 FM312100 33014KT 9999 SCT025 FM010200 01016KT 9999 -SHRA SCT025 FM010600 33014KT 9999 -SHRA SCT025 TEMPO 3111/3120 9999 BKN016 PROB40 TEMPO 3123/0110 VRB20G35KT 1000 TSRA BKN010 SCT030CB", "TAF AMD YBWW 311144Z 3112/0112 36011KT CAVOK FM311600 35014KT 9999 -RA SCT030 FM311900 28012KT 8000 -RA SCT010 BKN020 FM010200 29013KT 9999 NSW SCT030 FM010900 27012KT CAVOK TEMPO 3117/0102 VRB30G45KT 3000 RA BKN010 PROB30 TEMPO 3113/3120 VRB35G50KT 1000 TSRA BKN008 SCT070CB", "TAF AMD YCFS 311118Z 3112/0112 36014KT 9999 -RA SCT020 BECMG 3120/3121 30014KT 9999 -RA SCT015 BECMG 0100/0101 36015G25KT 9999 -RA SCT020 FM010300 02018KT 9999 NSW SCT040 INTER 3112/3120 36025G45KT 4000 RA BKN010 INTER 3120/0101 30030G40KT 5000 RA SCT015", "TAF YCIN 311312Z 3114/0102 16010KT CAVOK BECMG 3122/3123 14020G30KT CAVOK", "TAF YFRT 311206Z 3114/0102 24015G25KT 9999 SCT030 BECMG 3117/3119 22015G25KT 9999 -SHRA BKN015 BECMG 0100/0101 20014KT 9999 NSW BKN025 TEMPO 3120/0100 4000 SHRA BKN008", "TAF AMD YGEL 311107Z 3111/0106 18016KT CAVOK FM311400 15007KT CAVOK FM010400 19016G26KT CAVOK", "TAF AMD YGLA 311209Z 3112/0100 35010KT 9999 SCT015 FM312200 34014KT 9999 BKN020 TEMPO 3112/3122 9999 BKN012 PROB30 TEMPO 3122/0100 VRB35G45KT 1000 TSRA BKN010 SCT080CB", "TAF YHID 311121Z 3112/0112 10012KT 9999 SCT025 FM010200 03010KT 9999 SCT030", "TAF YLHI 311123Z 3112/0112 01020G30KT 9999 SCT015 FM010400 35030G40KT 9999 -SHRA SCT020 BKN035 FM010600 34030G40KT 9999 -SHRA BKN015 TEMPO 0104/0106 4000 SHRA BKN015 TEMPO 0106/0112 3000 SHRA BKN008", "TAF AMD YMAV 311231Z 3112/0112 29010KT 9999 -SHRA SCT020 BKN030 FM312100 26010KT 9999 NSW SCT040 FM010000 26010KT 9999 -SHRA SCT030 BKN040 INTER 3112/3116 5000 SHRA BKN020 INTER 0100/0109 3000 SHRA SCT015 FEW035TCU", "TAF YMHB 311124Z 3112/0112 28010KT 9999 SCT050 FM010000 27010KT 9999 -SHRA SCT050 FM010400 22014KT 9999 -SHRA SCT020 BKN035 FM010800 31010KT 9999 NSW SCT025", "TAF AMD YMLT 311127Z 3111/0112 34008KT CAVOK FM010200 30015G25KT CAVOK FM010700 30014KT CAVOK FM011000 17008KT CAVOK", "TAF YMML 311101Z 3112/0118 24010KT 9999 -SHRA SCT015 BKN020 FM311800 28010KT 9999 NSW SCT030 FM010200 24010KT 9999 -SHRA SCT020 BKN030 FM011100 26010KT 9999 NSW FEW030 INTER 3112/3118 4000 SHRA BKN010 INTER 0101/0108 3000 SHRA SCT015 FEW035TCU", "TAF AMD YPAD 311126Z 3112/0118 28014KT 9999 -SHRA FEW030 SCT040 FM311400 26014KT 9999 -SHRA FEW015 BKN025 FM312000 23015G25KT 9999 -SHRA BKN030 FM010200 22020G30KT 9999 -SHRA SCT030 FM011200 22015G25KT 9999 -SHRA SCT030 INTER 3112/3116 25022G36KT 3000 SHRA BKN010 INTER 3116/0109 VRB20G30KT 3000 SHRAGS SCT015 SCT025TCU INTER 0109/0115 VRB20G30KT 4000 SHRA SCT015", "TAF AMD YPCC 311127Z 3112/0112 12013KT 9999 SCT030 FM311800 11015KT 9999 -SHRA SCT020 INTER 3118/0103 3000 SHRA BKN010", "TAF YPDN 311112Z 3112/0118 27010KT 9999 FEW020 FM010300 29014KT 9999 FEW040 FM011000 27010KT 9999 FEW020", "TAF YPEA 311016Z 3111/0100 20012KT 9999 FEW040 FM311300 18008KT CAVOK", "TAF YPGV 311317Z 3114/0102 35005KT 9999 SCT016 FM311800 31005KT 9999 SCT016 FM010000 35012KT CAVOK", "TAF YPJT 311106Z 3112/0106 19010KT 9999 FEW040 FM311900 14005KT 9999 FEW025 FM010400 23014KT CAVOK", "TAF YPKG 311106Z 3112/0112 21012KT 9999 BKN050 FM311600 20010KT 9999 SCT030 FM312000 18010KT 9999 SCT015 BECMG 0100/0102 18010KT 9999 BKN050 FM011000 16010KT 9999 SCT030", "TAF YPKU 311314Z 3114/0102 36007KT CAVOK FM311900 15012KT CAVOK", "TAF YPLM 311131Z 3112/0112 20010KT CAVOK FM312300 11015G25KT CAVOK FM010300 09010KT CAVOK BECMG 0109/0110 24017KT CAVOK", "TAF YPPD 311133Z 3112/0112 14010KT CAVOK FM312200 11020G30KT CAVOK FM010400 10016KT CAVOK FM010600 07010KT CAVOK FM011000 32010KT CAVOK", "TAF YPPH 311106Z 3112/0118 19010KT 9999 FEW050 FM311900 13006KT 9999 FEW025 FM010500 23014KT CAVOK FM011300 18008KT 9999 SCT050 FM011600 10005KT 9999 SCT050", "TAF YPTN 311112Z 3112/0112 30008KT CAVOK FM312200 23010KT CAVOK", "TAF AMD YPWR 311119Z 3112/0106 28018G28KT 9999 FEW030 BKN040 FM311600 27018G28KT 9999 -SHRA SCT015 BKN025 FM312200 23022G35KT 9999 NSW FEW025 SCT040 INTER 3116/3121 26022G36KT 5000 SHRA BKN010 SCT025TCU", "TAF AMD YPXM 311142Z 3112/0112 13012KT 9999 -SHRA BKN005 FM312300 13012KT 9999 -SHRA BKN012 TEMPO 3112/0100 3000 SHRA BKN003 INTER 3112/3118 0300 DZ BKN001 TEMPO 0108/0112 3000 SHRA BKN003", "TAF AMD YSCB 311246Z 3112/0112 35020G30KT 9999 -RA BKN015 FM311500 30015G25KT 9999 -RA SCT020 BKN030 FM010700 30012KT 9999 -RA SCT015 BKN025 TEMPO 3112/3115 VRB30G40KT 3000 SHRA BKN005 INTER 3115/3120 VRB20G30KT 5000 RA BKN020 TEMPO 0102/0112 VRB20G30KT 3000 RA BKN010 PROB30 INTER 3112/3115 VRB35G45KT 1500 TSRA BKN008 SCT030CB", "TAF AMD YSDU 311109Z 3111/0106 33015G25KT 9999 -SHRA BKN006 BECMG 3113/3115 30014KT 9999 -SHRA SCT020 FM312100 29016G26KT 9999 NSW BKN030 FM010500 29018G28KT 9999 -SHRA NSC INTER 3111/3118 4000 SHRA BKN004", "TAF YSNF 311126Z 3112/0112 15006KT 9999 SCT025 FM311500 09006KT 9999 SCT025 FM312300 04008KT 9999 SCT020 FM010600 01008KT 9999 BKN020", "TAF YSRI 311120Z 3112/0112 35010KT 9999 -RA SCT030 FM312100 30018G32KT CAVOK FM010700 30015G25KT CAVOK FM010900 30014KT 9999 -RA SCT050 INTER 3112/3117 35020G35KT 4000 RA SCT010", "TAF AMD YSSY 311116Z 3112/0118 35014KT 9999 -RA BKN050 FM312000 30020G35KT 9999 NSW SCT040 FM010700 30015G25KT 9999 -SHRA FEW045 INTER 3112/3118 30020G45KT 5000 RA SCT020 INTER 0106/0112 28025G40KT 4000 SHRA SCT020", "TAF AMD YSTW 311109Z 3112/0106 35015G25KT 9999 -SHRA SCT045 FM311500 29015G25KT 9999 -SHRA BKN030 FM312300 30020G30KT 9999 NSW SCT045 INTER 3112/3121 VRB15G25KT 4000 SHRA BKN015 PROB30 INTER 3112/3115 VRB35G45KT 2000 TSRA BKN010 SCT030CB", "TAF YWLM 311119Z 3112/0112 01014KT 9999 -RA NSC FM311700 31018G32KT 9999 NSW FEW040 FM312200 30024G39KT 9999 FEW050 FM010400 30020G30KT CAVOK FM010600 30015G25KT CAVOK FM011000 30018G30KT 9999 -RA SCT030 INTER 3112/3119 4000 RA SCT020", "TAF ZBAA 310901Z 3112/0112 35004MPS CAVOK TX15/0107Z TN02/3121Z", "TAF COR ZBAD 311001Z 3112/0112 34004MPS CAVOK TX15/0107Z TN01/3121Z", "TAF ZBHH 310901Z 3112/0112 08004MPS CAVOK TX10/0107Z TNM05/3122Z", "TAF ZBSJ 310902Z 3112/0112 33004MPS 5000 HZ NSC TX16/0107Z TN04/3121Z", "TAF ZBTJ 310903Z 3112/0112 34003MPS 5000 HZ NSC TX15/0106Z TN05/3121Z BECMG 3123/3124 07005MPS BECMG 0103/0104 15004MPS", "TAF ZBYN 310901Z 3112/0112 18004MPS 6000 NSC TX19/0107Z TN00/3122Z", "TAF ZGGG 310901Z 3112/0112 36006MPS 8000 BKN040 TX26/0107Z TN19/3122Z BECMG 0100/0101 36011G16MPS BECMG 0105/0106 36008MPS", "TAF ZGHA 310903Z 3112/0112 35005MPS 6000 NSC TX25/0107Z TN13/3122Z", "TAF ZGKL 310905Z 3112/0112 34002MPS CAVOK TX27/0107Z TN14/3122Z BECMG 0100/0101 05006MPS", "TAF ZGNN 310908Z 3112/0112 36004MPS 8000 FEW036 TX29/0107Z TN18/3122Z", "TAF AMD ZGOW 311140Z 3112/0112 03006G12MPS 6000 BKN040 TX27/0106Z TN20/3122Z TEMPO 3112/3115 SHRA SCT012 FEW026CB BKN030 TEMPO 3118/3124 SHRA SCT012 FEW026CB BKN030 TEMPO 0100/0106 SHRA SCT012 FEW026CB BKN030", "TAF ZGSZ 310913Z 3112/0112 01009G16MPS 8000 BKN040 TX27/0106Z TN21/3122Z", "TAF ZHCC 310903Z 3112/0112 03003MPS 4000 HZ NSC TX20/0107Z TN10/3122Z", "TAF ZHHH 310901Z 3112/0112 04003MPS 6000 NSC TX25/0107Z TN12/3122Z", "TAF ZJHK 310904Z 3112/0112 35004G10MPS 9999 SCT020 TX27/0106Z TN20/3121Z", "TAF ZJSY 310900Z 3112/0112 33004MPS 9999 FEW020 TX30/0106Z TN21/3121Z", "TAF ZKPY 310430Z 3106/0106 23003MPS 9999 OVC033 TX17/3106Z TN10/3121Z TEMPO 3109/3118 7000 -RA", "TAF ZKWS 310430Z 3106/0106 24003MPS 9999 OVC030 TX17/3106Z TN10/3121Z", "TAF ZLLL 310905Z 3112/0112 35003MPS 6000 NSC TX15/0107Z TNM02/3123Z", "TAF ZLXY 310901Z 3112/0112 06004MPS 3000 BR NSC TX21/0107Z TN06/3122Z", "TAF ZMCK 311043Z 3112/0118 VRB02MPS 9999 SCT100 TNM15/3122Z TXM02/0107Z BECMG 0104/0106 32005MPS BECMG 0110/0112 VRB02MPS", "TAF ZMUB 311043Z 3112/0118 VRB02MPS 9999 SCT100 TNM17/3122Z TXM02/0107Z BECMG 3122/3124 6000 BECMG 0105/0107 33005MPS 9999 NSW BECMG 0110/0112 VRB02MPS", "TAF ZPPP 310908Z 3112/0112 04004MPS 9999 SCT026 TX18/0108Z TN05/3123Z", "TAF ZSAM 310908Z 3112/0112 05008G14MPS 8000 BKN030 TX24/0106Z TN19/3121Z", "TAF ZSFZ 310909Z 3112/0112 03007MPS 6000 BKN015 TX22/0105Z TN17/3121Z BECMG 0104/0106 03012G17MPS", "TAF ZSHC 310917Z 3112/0112 06003MPS 3000 BR BKN025 TX23/0106Z TN15/3121Z", "TAF ZSJN 310905Z 3112/0112 05003MPS 2400 BR NSC TX18/0106Z TN04/3121Z BECMG 0100/0101 3500", "TAF ZSNB 310905Z 3112/0112 06004G10MPS 6000 SCT030 TX21/0106Z TN16/3121Z", "TAF ZSNJ 310904Z 3112/0112 04003MPS 3000 BR NSC TX21/0106Z TN12/3121Z", "TAF ZSOF 310904Z 3112/0112 05003MPS 3000 HZ NSC TX21/0107Z TN10/3122Z BECMG 3121/3122 2000 BECMG 3123/3124 3000", "TAF ZSPD 310908Z 3112/0112 04006MPS 6000 BKN020 TX22/0106Z TN15/3121Z", "TAF ZSQD 310901Z 3112/0112 33004MPS 2000 BR NSC TX18/0106Z TN06/3121Z BECMG 3123/3124 3500", "TAF ZSSS 310907Z 3112/0112 04004MPS 6000 BKN020 TX22/0106Z TN16/3121Z", "TAF ZUCK 310902Z 3112/0112 30003MPS 6000 FEW050 TX24/0108Z TN13/3122Z", "TAF ZUGY 310901Z 3112/0112 02004MPS 6000 SCT033 TX21/0107Z TN09/3122Z TEMPO 3118/3124 2500 BR", "TAF ZUUU 310910Z 3112/0112 22003MPS 6000 SCT030 TX24/0107Z TN14/3121Z BECMG 3122/3123 2300 BR BECMG 0101/0102 5000", "TAF ZWSH 310910Z 3112/0112 16004MPS 9999 FEW040 TX16/0109Z TN04/0100Z BECMG 3117/3118 32005MPS BECMG 0105/0106 12004MPS", "TAF ZWWW 310902Z 3112/0112 20004MPS 9999 -SHRA BKN040 TX08/0109Z TN02/3123Z BECMG 0103/0104 36004MPS CAVOK", "TAF ZYCC 310902Z 3112/0112 26006G12MPS 6000 SCT030 TX08/3112Z TNM01/3122Z", "TAF ZYHB 310903Z 3112/0112 22004MPS 6000 FEW030 TX06/0106Z TNM01/3121Z", "TAF ZYTL 310911Z 3112/0112 33004G10MPS 3000 BR SCT033 TX13/0106Z TN08/3122Z TEMPO 3112/3118 1600", "TAF ZYTX 310901Z 3112/0112 34003MPS 6000 NSC TX10/0106Z TNM01/3121Z"]}