{"station_id": ["AGGH", "ANYN", "AYPY", "BGBW", "BGGH", "BGJN", "BGKK", "BGSF", "BGTL", "BGUQ", "BIAR", "BIEG", "BIKF", "BIRK", "BKPR", "CBBC", "CWSA", "CWWU", "CYAM", "CYAW", "CYAY", "CYAZ", "CYBB", "CYBC", "CYBG", "CYBK", "CYBL", "CYBR", "CYBW", "CYBX", "CYCA", "CYCB", "CYCD", "CYCG", "CYCO", "CYCY", "CYDA", "CYDB", "CYDF", "CYDL", "CYDN", "CYDP", "CYDQ", "CYED", "CYEG", "CYEK", "CYEN", "CYEU", "CYEV", "CYFB", "CYFC", "CYFS", "CYGH", "CYGK", "CYGL", "CYGP", "CYGQ", "CYGR", "CYGV", "CYGW", "CYGX", "CYHD", "CYHK", "CYHM", "CYHU", "CYHY", "CYHZ", "CYIO", "CYIV", "CYJT", "CYKA", "CYKF", "CYKJ", "CYKL", "CYLD", "CYLL", "CYLT", "CYLW", "CYMA", "CYMH", "CYMJ", "CYMM", "CYMO", "CYMT", "CYMX", "CYNA", "CYND", "CYNE", "CYOC", "CYOD", "CYOJ", "CYOO", "CYOW", "CYOY", "CYPA", "CYPC", "CYPE", "CYPG", "CYPH", "CYPL", "CYPQ", "CYPR", "CYPX", "CYPY", "CYQA", "CYQB", "CYQD", "CYQF", "CYQG", "CYQH", "CYQI", "CYQK", "CYQL", "CYQM", "CYQQ", "CYQR", "CYQT", "CYQU", "CYQV", "CYQW", "CYQX", "CYQY", "CYQZ", "CYRA", "CYRB", "CYRJ", "CYRL", "CYRQ", "CYRT", "CYSB", "CYSC", "CYSF", "CYSJ", "CYSM", "CYSN", "CYTE", "CYTH", "CYTL", "CYTR", "CYTS", "CYTZ", "CYUB", "CYUL", "CYUX", "CYUY", "CYVC", "CYVM", "CYVO", "CYVP", "CYVQ", "CYVR", "CYVT", "CYVV", "CYWA", "CYWE", "CYWG", "CYWH", "CYWJ", "CYWK", "CYWL", "CYXC", "CYXE", "CYXH", "CYXJ", "CYXL", "CYXS", "CYXT", "CYXU", "CYXX", "CYXY", "CYXZ", "CYYB", "CYYC", "CYYD", "CYYE", "CYYF", "CYYG", "CYYH", "CYYJ", "CYYL", "CYYN", "CYYQ", "CYYR", "CYYT", "CYYU", "CYYY", "CYYZ", "CYZF", "CYZH", "CYZP", "CYZR", "CYZS", "CYZT", "CYZU", "CYZV", "CYZW", "CYZX", "CYZY", "CZBF", "CZFA", "CZFM", "CZMT", "CZUM", "CZVL", "DAAD", "DAAE", "DAAG", "DAAJ", "DAAP", "DAAS", "DAAT", "DAAV", "DAAY", "DABB", "DABC", "DABS", "DABT", "DAFH", "DAOB", "DAOF", "DAOI", "DAON", "DAOO", "DAOR", "DAOV", "DATM", "DAUA", "DAUB", "DAUG", "DAUH", "DAUI", "DAUK", "DAUL", "DAUO", "DAUT", "DAUU", "DAUZ", "DBBB", "DFFD", "DFOO", "DGAA", "DGLE", "DGSI", "DIAP", "DIBK", "DIYO", "DNAA", "DNAK", "DNBE", "DNGO", "DNIB", "DNIL", "DNJO", "DNKA", "DNKN", "DNKT", "DNMA", "DNMM", "DNSO", "DNSU", "DNYO", "DRRN", "DRZA", "DRZR", "DTKA", "DTMB", "DTNH", "DTTA", "DTTB", "DTTF", "DTTG", "DTTJ", "DTTR", "DTTX", "DTTZ", "DXNG", "DXXX", "EBAW", "EBBE", "EBBL", "EBBR", "EBCI", "EBCV", "EBFN", "EBFS", "EBLG", "EBOS", "EDAC", "EDAH", "EDBC", "EDDB", "EDDC", "EDDE", "EDDF", "EDDG", "EDDH", "EDDK", "EDDL", "EDDM", "EDDN", "EDDP", "EDDR", "EDDS", "EDDV", "EDDW", "EDFH", "EDGS", "EDJA", "EDLN", "EDLP", "EDLV", "EDLW", "EDMA", "EDMO", "EDNY", "EDQM", "EDSB", "EDTL", "EDTY", "EDVK", "EEEI", "EETN", "EFHK", "EFJY", "EFKU", "EFMA", "EFOU", "EFRO", "EFSI", "EFTP", "EFTU", "EFVA", "EGAA", "EGBB", "EGCC", "EGCK", "EGFF", "EGGD", "EGGP", "EGGW", "EGHH", "EGHQ", "EGJA", "EGJB", "EGJJ", "EGKK", "EGLL", "EGMD", "EGNJ", "EGNM", "EGNT", "EGNX", "EGPA", "EGPB", "EGPC", "EGPD", "EGPE", "EGPF", "EGPH", "EGPK", "EGPO", "EGQL", "EGQS", "EGSH", "EGSS", "EGSY", "EGTE", "EGUL", "EGUN", "EGVA", "EGVN", "EGVO", "EGWU", "EGXC", "EGXW", "EGYP", "EHAM", "EHBK", "EHEH", "EHGG", "EHKD", "EHLE", "EHLW", "EHRD", "EHVK", "EICK", "EIDL", "EIDW", "EIKN", "EIKY", "EIME", "EINN", "EISG", "EIWF", "EKAH", "EKBI", "EKCH", "EKKA", "EKRK", "EKRN", "EKSP", "EKYT", "ELLX", "ENAL", "ENAN", "ENBN", "ENBO", "ENBR", "ENBV", "ENDU", "ENEV", "ENFL", "ENGC", "ENGM", "ENHD", "ENHE", "ENHF", "ENKR", "ENLE", "ENML", "ENNA", "ENOA", "ENOL", "ENRY", "ENSB", "ENTC", "ENTO", "ENVA", "ENVD", "ENZV", "EPBY", "EPCE", "EPDA", "EPDE", "EPGD", "EPIR", "EPKK", "EPKS", "EPKT", "EPLB", "EPLK", "EPLL", "EPLY", "EPMB", "EPMI", "EPMM", "EPMO", "EPOK", "EPPO", "EPPR", "EPPW", "EPRA", "EPRZ", "EPSC", "EPSN", "EPSY", "EPTM", "EPWA", "EPWR", "EPZG", "ESGG", "ESKN", "ESMS", "ESNU", "ESPA", "ESSA", "ETAD", "ETAR", "ETEB", "ETIC", "ETIK", "ETNG", "ETNL", "ETNW", "ETOU", "ETSN", "EVGA", "EVLA", "EVRA", "EVVA", "EYKA", "EYPA", "EYSA", "EYVI", "FABL", "FACT", "FAGG", "FALA", "FALE", "FAOR", "FAPE", "FAPM", "FAUP", "FBKE", "FCBB", "FCPP", "FEFF", "FGBT", "FGSL", "FHAW", "FIMP", "FIMR", "FJDG", "FKKD", "FKYS", "FLCP", "FLHN", "FLKK", "FLKS", "FLMA", "FLMF", "FLSK", "FLSW", "FMCH", "FMCZ", "FMEE", "FMMI", "FMMS", "FMMT", "FMNA", "FMNM", "FMNN", "FMSD", "FMST", "FNBG", "FNCA", "FNCT", "FNDU", "FNGI", "FNHU", "FNKU", "FNLU", "FNMA", "FNME", "FNMO", "FNSA", "FNSO", "FNUB", "FNUE", "FOOG", "FOOL", "FPST", "FQBR", "FQCH", "FQIN", "FQLC", "FQMA", "FQNC", "FQNP", "FQPB", "FQQL", "FQTT", "FQVL", "FQXA", "FSIA", "FTTJ", "FVJN", "FWCL", "FWKI", "FYGF", "FYKM", "FYKT", "FYLZ", "FYOA", "FYRU", "FYWB", "FYWE", "FYWH", "FZAA", "FZIC", "FZNA", "FZQA", "GABS", "GAGO", "GBYD", "GCFV", "GCGM", "GCHI", "GCLA", "GCLP", "GCRR", "GCTS", "GCXO", "GECE", "GEML", "GFLL", "GGOV", "GLRB", "GMAD", "GMAG", "GMFF", "GMFK", "GMFM", "GMFO", "GMME", "GMMH", "GMMI", "GMML", "GMMN", "GMMW", "GMMX", "GMMZ", "GMTA", "GMTT", "GOBD", "GOGS", "GOOY", "GOSS", "GQNO", "GQPP", "GUCY", "GVAC", "GVBA", "GVNP", "GVSV", "HAAB", "HADR", "HBBA", "HCMM", "HDAM", "HEAL", "HEAR", "HEAT", "HEAX", "HEBA", "HEBL", "HECA", "HEGN", "HELX", "HEMA", "HEMM", "HEOW", "HEPS", "HESC", "HESG", "HESH", "HESN", "HETB", "HETR", "HKEL", "HKJK", "HKKI", "HKML", "HKMO", "HKNW", "HLKF", "HLLB", "HLLM", "HLLS", "HLMS", "HRYR", "HRZA", "HSSJ", "HSSM", "HTAR", "HTBU", "HTDA", "HTDO", "HTKA", "HTKJ", "HTMW", "HTTB", "HTZA", "HUEN", "HUSO", "KABE", "KABI", "KABQ", "KABR", "KABY", "KACK", "KACT", "KACV", "KACY", "KADF", "KADW", "KAEG", "KAEX", "KAFF", "KAFW", "KAGC", "KAGS", "KAHN", "KAIA", "KALB", "KALI", "KALO", "KALS", "KALW", "KAMA", "KANB", "KAND", "KAOO", "KAPA", "KAPC", "KAPF", "KAPN", "KARA", "KART", "KASD", "KASE", "KASN", "KAST", "KATL", "KATW", "KATY", "KAUG", "KAUS", "KAUW", "KAVL", "KAVP", "KAXN", "KAZO", "KBAB", "KBAD", "KBAF", "KBAM", "KBBD", "KBBG", "KBCB", "KBCE", "KBDL", "KBDN", "KBDR", "KBED", "KBFD", "KBFF", "KBFI", "KBFL", "KBFM", "KBGM", "KBGR", "KBHB", "KBHM", "KBIF", "KBIH", "KBIL", "KBIS", "KBIX", "KBJC", "KBJI", "KBKE", "KBKF", "KBKW", "KBLF", "KBLH", "KBLI", "KBLV", "KBMG", "KBMI", "KBNA", "KBNO", "KBOI", "KBOS", "KBPI", "KBPK", "KBPT", "KBRD", "KBRL", "KBRO", "KBTL", "KBTM", "KBTR", "KBTV", "KBUF", "KBUR", "KBVI", "KBVO", "KBWG", "KBWI", "KBYI", "KBZN", "KCAE", "KCAK", "KCAR", "KCBM", "KCDC", "KCDR", "KCDS", "KCEC", "KCEF", "KCGI", "KCHA", "KCHO", "KCHS", "KCID", "KCIU", "KCKB", "KCKV", "KCLE", "KCLL", "KCLM", "KCLT", "KCMA", "KCMH", "KCMI", "KCMX", "KCNM", "KCNU", "KCNY", "KCOD", "KCOE", "KCOF", "KCON", "KCOS", "KCOT", "KCOU", "KCPR", "KCPS", "KCRE", "KCRG", "KCRP", "KCRQ", "KCRW", "KCSG", "KCSM", "KCSV", "KCTB", "KCUB", "KCVG", "KCVS", "KCWA", "KCXO", "KCXP", "KCYS", "KDAA", "KDAB", "KDAG", "KDAL", "KDAN", "KDAY", "KDBQ", "KDCA", "KDDC", "KDEC", "KDEN", "KDET", "KDFW", "KDHN", "KDHT", "KDIJ", "KDIK", "KDLF", "KDLH", "KDLS", "KDMA", "KDMN", "KDNL", "KDOV", "KDPA", "KDRO", "KDRT", "KDSM", "KDTW", "KDUG", "KDUJ", "KDVL", "KDVT", "KDYS", "KEAR", "KEAT", "KEAU", "KECG", "KECP", "KEDW", "KEED", "KEET", "KEFD", "KEFK", "KEGE", "KEGI", "KEKN", "KEKO", "KEKS", "KELD", "KELM", "KELP", "KELY", "KEND", "KENV", "KENW", "KERI", "KEUG", "KEUL", "KEVV", "KEVW", "KEWN", "KEWR", "KEYW", "KFAF", "KFAR", "KFAT", "KFAY", "KFBG", "KFCS", "KFDY", "KFFO", "KFHU", "KFKL", "KFLG", "KFLL", "KFLO", "KFMH", "KFMN", "KFMY", "KFNT", "KFOD", "KFOE", "KFPR", "KFRI", "KFSD", "KFSM", "KFST", "KFTK", "KFTW", "KFTY", "KFVE", "KFWA", "KFXE", "KFYV", "KGBD", "KGCC", "KGCK", "KGCN", "KGDV", "KGEG", "KGFA", "KGFK", "KGFL", "KGGG", "KGGW", "KGJT", "KGKY", "KGLD", "KGLH", "KGLS", "KGMU", "KGNV", "KGON", "KGPI", "KGPT", "KGRB", "KGRF", "KGRI", "KGRK", "KGRR", "KGSB", "KGSO", "KGSP", "KGTB", "KGTF", "KGTR", "KGUC", "KGUP", "KGUR", "KGUS", "KGUY", "KGWO", "KGYY", "KHBG", "KHCR", "KHDC", "KHDN", "KHEZ", "KHIB", "KHIE", "KHIF", "KHIO", "KHKS", "KHKY", "KHLG", "KHLN", "KHMN", "KHNB", "KHND", "KHOB", "KHON", "KHOP", "KHOT", "KHOU", "KHPN", "KHQM", "KHRF", "KHRL", "KHRO", "KHRT", "KHST", "KHSV", "KHTS", "KHUA", "KHUF", "KHUL", "KHUM", "KHUT", "KHVR", "KHYA", "KHYR", "KHYS", "KIAB", "KIAD", "KIAG", "KIAH", "KICT", "KIDA", "KIFP", "KILG", "KILM", "KILN", "KIND", "KINK", "KINL", "KINS", "KINT", "KINW", "KIPL", "KIPT", "KISM", "KISO", "KISP", "KITH", "KIWA", "KIWD", "KIXD", "KJAC", "KJAN", "KJAX", "KJBR", "KJCT", "KJEF", "KJER", "KJFK", "KJHW", "KJKA", "KJKL", "KJLN", "KJMS", "KJST", "KJVL", "KJXN", "KJZI", "KLAF", "KLAL", "KLAN", "KLAR", "KLAS", "KLAW", "KLAX", "KLBB", "KLBE", "KLBF", "KLBL", "KLBT", "KLBX", "KLCH", "KLCK", "KLEB", "KLEE", "KLEX", "KLFI", "KLFK", "KLFT", "KLGA", "KLGB", "KLGU", "KLIT", "KLLQ", "KLMT", "KLND", "KLNK", "KLNS", "KLOZ", "KLRD", "KLRF", "KLRU", "KLSE", "KLSF", "KLSV", "KLTS", "KLUF", "KLUK", "KLVK", "KLVM", "KLVS", "KLWB", "KLWS", "KLWT", "KLYH", "KMAF", "KMBG", "KMBL", "KMBS", "KMCB", "KMCC", "KMCE", "KMCF", "KMCI", "KMCK", "KMCN", "KMCO", "KMCW", "KMDT", "KMDW", "KMEI", "KMEM", "KMER", "KMEV", "KMFD", "KMFE", "KMFR", "KMGE", "KMGM", "KMGW", "KMHK", "KMHR", "KMHT", "KMIA", "KMIB", "KMIV", "KMKC", "KMKE", "KMKG", "KMKL", "KMKT", "KMLB", "KMLC", "KMLI", "KMLS", "KMLU", "KMMH", "KMMT", "KMOB", "KMOD", "KMOT", "KMPV", "KMQY", "KMRB", "KMRY", "KMSL", "KMSN", "KMSO", "KMSP", "KMSS", "KMSY", "KMTC", "KMTH", "KMTJ", "KMTN", "KMTW", "KMUI", "KMUO", "KMVN", "KMWH", "KMXF", "KMYL", "KMYR", "KNBC", "KNBG", "KNCA", "KNEW", "KNFG", "KNFL", "KNFW", "KNGP", "KNGU", "KNHK", "KNID", "KNIP", "KNJK", "KNKT", "KNKX", "KNLC", "KNMM", "KNPA", "KNQI", "KNQX", "KNRB", "KNSE", "KNTD", "KNTU", "KNUC", "KNUW", "KNXP", "KNYG", "KNYL", "KNZY", "KOAJ", "KOAK", "KOFF", "KOFK", "KOGB", "KOGD", "KOKC", "KOLF", "KOLM", "KOLS", "KOMA", "KONP", "KONT", "KOPF", "KORD", "KORF", "KORH", "KOTH", "KOTM", "KOUN", "KOWB", "KOXR", "KOZR", "KPAE", "KPAH", "KPAM", "KPBF", "KPBG", "KPBI", "KPDK", "KPDT", "KPDX", "KPEQ", "KPGA", "KPGD", "KPGV", "KPHF", "KPHL", "KPHX", "KPIA", "KPIB", "KPIE", "KPIH", "KPIR", "KPIT", "KPKB", "KPLN", "KPMD", "KPNA", "KPNC", "KPNE", "KPNS", "KPOB", "KPOE", "KPOU", "KPQI", "KPRB", "KPRC", "KPSC", "KPSF", "KPSM", "KPSP", "KPTK", "KPUB", "KPUW", "KPVD", "KPVU", "KPVW", "KPWM", "KPWT", "KRAP", "KRBG", "KRBL", "KRCA", "KRDD", "KRDG", "KRDM", "KRDR", "KRDU", "KRFD", "KRHI", "KRIC", "KRIL", "KRIV", "KRIW", "KRKD", "KRKS", "KRME", "KRND", "KRNH", "KRNO", "KROA", "KROC", "KROG", "KROW", "KRSL", "KRST", "KRSW", "KRUT", "KRVS", "KRWF", "KRWI", "KRWL", "KRYY", "KSAC", "KSAF", "KSAN", "KSAT", "KSAV", "KSAW", "KSBA", "KSBD", "KSBM", "KSBN", "KSBP", "KSBY", "KSCK", "KSDF", "KSDL", "KSDY", "KSEA", "KSEZ", "KSFB", "KSFF", "KSFO", "KSGF", "KSGJ", "KSGR", "KSGU", "KSHR", "KSHV", "KSJC", "KSJS", "KSJT", "KSKA", "KSKF", "KSLC", "KSLE", "KSLI", "KSLK", "KSLN", "KSME", "KSMF", "KSMN", "KSMO", "KSMX", "KSNA", "KSNS", "KSNY", "KSOA", "KSPI", "KSPS", "KSRB", "KSRQ", "KSSC", "KSSF", "KSSI", "KSTC", "KSTJ", "KSTL", "KSTS", "KSUA", "KSUN", "KSUS", "KSUU", "KSUX", "KSVN", "KSWF", "KSWO", "KSYM", "KSYR", "KSZL", "KTBN", "KTCC", "KTCL", "KTCM", "KTCS", "KTEB", "KTEX", "KTIK", "KTIX", "KTLH", "KTMB", "KTOI", "KTOL", "KTOP", "KTPA", "KTPH", "KTRI", "KTRK", "KTRM", "KTTD", "KTTN", "KTUL", "KTUP", "KTUS", "KTVC", "KTVF", "KTVL", "KTWF", "KTXK", "KTYR", "KTYS", "KUAO", "KUES", "KUIN", "KUKI", "KUNV", "KUTS", "KVAD", "KVBG", "KVCT", "KVEL", "KVGT", "KVIS", "KVLD", "KVNY", "KVOK", "KVPS", "KVQQ", "KVRB", "KVTN", "KWJF", "KWMC", "KWRB", "KWRI", "KWRL", "KWWR", "KWYS", "KXNA", "KXWA", "KYIP", "KYKM", "KYNG", "KZZV", "LAKU", "LATI", "LBBG", "LBGO", "LBPD", "LBSF", "LBWN", "LCEN", "LCLK", "LCPH", "LCRA", "LDDU", "LDLO", "LDOS", "LDPL", "LDRI", "LDSB", "LDSP", "LDZA", "LDZD", "LEAB", "LEAG", "LEAL", "LEAM", "LEAO", "LEAS", "LEBA", "LEBB", "LEBG", "LEBL", "LEBR", "LEBZ", "LECO", "LECV", "LEEC", "LEGA", "LEGE", "LEGR", "LEGT", "LEHC", "LEIB", "LEJR", "LELC", "LELL", "LELN", "LELO", "LEMD", "LEMG", "LEMH", "LEMO", "LEPA", "LEPP", "LERI", "LERL", "LERS", "LERT", "LESA", "LESO", "LEST", "LESU", "LETO", "LEVC", "LEVD", "LEVS", "LEVT", "LEVX", "LEXJ", "LEZG", "LEZL", "LFAQ", "LFAT", "LFBA", "LFBC", "LFBD", "LFBE", "LFBG", "LFBH", "LFBI", "LFBL", "LFBM", "LFBO", "LFBP", "LFBT", "LFBU", "LFBZ", "LFCK", "LFCR", "LFGJ", "LFJL", "LFKB", "LFKC", "LFKF", "LFKJ", "LFKS", "LFLB", "LFLC", "LFLL", "LFLN", "LFLP", "LFLS", "LFLW", "LFLX", "LFLY", "LFMD", "LFMI", "LFMK", "LFML", "LFMN", "LFMO", "LFMP", "LFMT", "LFMU", "LFMV", "LFMY", "LFOA", "LFOB", "LFOE", "LFOH", "LFOJ", "LFOK", "LFOP", "LFOT", "LFPB", "LFPG", "LFPN", "LFPO", "LFPV", "LFQQ", "LFRB", "LFRC", "LFRD", "LFRG", "LFRH", "LFRI", "LFRK", "LFRL", "LFRM", "LFRN", "LFRQ", "LFRS", "LFRZ", "LFSB", "LFSI", "LFSL", "LFSO", "LFST", "LFSX", "LFTH", "LFTW", "LFVP", "LFYR", "LGAD", "LGAL", "LGAV", "LGBL", "LGEL", "LGHI", "LGIO", "LGIR", "LGKC", "LGKF", "LGKL", "LGKO", "LGKP", "LGKR", "LGKV", "LGLM", "LGLR", "LGMK", "LGMT", "LGPZ", "LGRP", "LGRX", "LGSA", "LGSK", "LGSM", "LGSR", "LGST", "LGSY", "LGTG", "LGTL", "LGTS", "LGZA", "LHBP", "LHDC", "LHKE", "LHPA", "LHPP", "LHPR", "LHSN", "LIBA", "LIBC", "LIBD", "LIBF", "LIBG", "LIBN", "LIBP", "LIBR", "LIBV", "LICA", "LICB", "LICC", "LICD", "LICG", "LICJ", "LICR", "LICT", "LICZ", "LIEA", "LIED", "LIEE", "LIEO", "LIMC", "LIME", "LIMF", "LIMG", "LIMJ", "LIML", "LIMN", "LIMP", "LIMW", "LIMZ", "LIPA", "LIPB", "LIPC", "LIPE", "LIPH", "LIPK", "LIPL", "LIPO", "LIPQ", "LIPR", "LIPS", "LIPX", "LIPY", "LIPZ", "LIRA", "LIRF", "LIRG", "LIRH", "LIRL", "LIRM", "LIRN", "LIRP", "LIRQ", "LIRS", "LIRU", "LIRV", "LIRZ", "LJCE", "LJLJ", "LJMB", "LJPZ", "LKCV", "LKKB", "LKKV", "LKMT", "LKNA", "LKPD", "LKPR", "LKTB", "LLBG", "LLER", "LLHA", "LLHZ", "LLIB", "LMML", "LOWG", "LOWI", "LOWK", "LOWL", "LOWS", "LOWW", "LOXZ", "LPAR", "LPAZ", "LPBJ", "LPCS", "LPFR", "LPHR", "LPLA", "LPMA", "LPMR", "LPMT", "LPOV", "LPPD", "LPPR", "LPPS", "LPPT", "LPST", "LQBK", "LQMO", "LQSA", "LQTZ", "LRAR", "LRBC", "LRBM", "LRBS", "LRCK", "LRCL", "LRCV", "LRIA", "LROD", "LROP", "LRSB", "LRSM", "LRSV", "LRTC", "LRTM", "LRTR", "LSGC", "LSGG", "LSGS", "LSZA", "LSZB", "LSZC", "LSZG", "LSZH", "LSZL", "LSZR", "LSZS", "LTAB", "LTAC", "LTAD", "LTAE", "LTAF", "LTAG", "LTAH", "LTAI", "LTAJ", "LTAL", "LTAN", "LTAO", "LTAP", "LTAR", "LTAS", "LTAT", "LTAU", "LTAV", "LTAW", "LTAY", "LTAZ", "LTBA", "LTBD", "LTBF", "LTBG", "LTBH", "LTBI", "LTBJ", "LTBK", "LTBL", "LTBN", "LTBO", "LTBP", "LTBQ", "LTBR", "LTBS", "LTBT", "LTBU", "LTBV", "LTBX", "LTBY", "LTBZ", "LTCA", "LTCB", "LTCC", "LTCD", "LTCE", "LTCF", "LTCG", "LTCI", "LTCJ", "LTCK", "LTCL", "LTCM", "LTCN", "LTCO", "LTCP", "LTCR", "LTCS", "LTCT", "LTCU", "LTCV", "LTCW", "LTDA", "LTFA", "LTFB", "LTFC", "LTFD", "LTFE", "LTFG", "LTFH", "LTFJ", "LTFK", "LTFM", "LTFO", "LUKK", "LWOH", "LWSK", "LYBE", "LYBT", "LYKV", "LYNI", "LYPG", "LYTV", "LYVR", "LZIB", "LZKZ", "LZMC", "LZPP", "LZPW", "LZSL", "LZTT", "LZZI", "MBGT", "MBPV", "MDBH", "MDCY", "MDJB", "MDLR", "MDPC", "MDPP", "MDSD", "MDST", "MGGT", "MGMM", "MGPB", "MHLC", "MHLM", "MHPR", "MHRO", "MHTG", "MKJP", "MKJS", "MMAA", "MMAN", "MMAS", "MMBT", "MMCB", "MMCE", "MMCL", "MMCM", "MMCN", "MMCP", "MMCS", "MMCU", "MMCV", "MMCZ", "MMDO", "MMEP", "MMGL", "MMGM", "MMHO", "MMIA", "MMIO", "MMLM", "MMLO", "MMLP", "MMLT", "MMMA", "MMMD", "MMML", "MMMM", "MMMT", "MMMV", "MMMX", "MMMY", "MMMZ", "MMNL", "MMOX", "MMPA", "MMPB", "MMPG", "MMPN", "MMPQ", "MMPR", "MMPS", "MMQT", "MMRX", "MMSD", "MMSL", "MMSM", "MMSP", "MMTC", "MMTG", "MMTJ", "MMTM", "MMTO", "MMTP", "MMUN", "MMVA", "MMVR", "MMZC", "MMZH", "MMZO", "MPDA", "MPMG", "MPPA", "MPSM", "MPTO", "MRLB", "MRLM", "MROC", "MRPV", "MTCH", "MTPP", "MUCC", "MUCF", "MUCL", "MUCM", "MUCU", "MUGM", "MUHA", "MUHG", "MUSC", "MUVR", "MWCB", "MWCR", "MYGF", "MYNN", "NCRG", "NFFN", "NFNA", "NFTF", "NFTV", "NGFU", "NGTA", "NIUE", "NLWF", "NLWW", "NSFA", "NSTU", "NTAA", "NVSC", "NVSG", "NVSL", "NVSP", "NVSS", "NVVA", "NVVV", "NVVW", "NWWD", "NWWE", "NWWK", "NWWL", "NWWM", "NWWR", "NWWU", "NWWW", "NZAA", "NZCH", "NZQN", "NZWN", "OBBI", "OEAB", "OEAH", "OEAO", "OEBA", "OEBH", "OEDF", "OEDM", "OEDR", "OEGN", "OEGS", "OEGT", "OEHL", "OEJN", "OEKJ", "OEKM", "OEMA", "OENG", "OEPA", "OEPS", "OERF", "OERK", "OERR", "OESH", "OESK", "OETB", "OETF", "OETR", "OEWD", "OEWJ", "OEYN", "OIAA", "OIAW", "OIBB", "OIBK", "OIBP", "OICC", "OICI", "OIFM", "OIGG", "OIIE", "OIII", "OIIP", "OIKB", "OIKK", "OIMM", "OING", "OINZ", "OISL", "OISS", "OITL", "OITR", "OITT", "OIYY", "OIZH", "OJAI", "OJAM", "OJAQ", "OKAS", "OMAA", "OMAD", "OMAL", "OMDB", "OMDW", "OMFJ", "OMRK", "OMSJ", "OODQ", "OOMS", "OOSA", "OOSH", "OPFA", "OPGD", "OPIS", "OPKC", "OPLA", "OPMT", "OPNH", "OPPS", "OPSK", "OPST", "ORER", "ORSU", "OTBD", "OTBH", "OTHH", "PAAQ", "PABE", "PABI", "PABR", "PABT", "PACD", "PACV", "PADL", "PADQ", "PADU", "PAED", "PAEI", "PAEN", "PAFA", "PAFB", "PAGA", "PAGK", "PAGS", "PAGY", "PAHN", "PAHO", "PAIL", "PAJN", "PAKN", "PAKT", "PAKW", "PAMC", "PANC", "PAOM", "PAOR", "PAOT", "PAPG", "PAQT", "PASC", "PASD", "PASI", "PASN", "PASY", "PATA", "PATK", "PAUN", "PAVD", "PAWG", "PAYA", "PGRO", "PGSN", "PGUA", "PGUM", "PGWT", "PHHI", "PHJH", "PHJR", "PHKO", "PHLI", "PHMK", "PHNG", "PHNL", "PHNY", "PHOG", "PHTO", "PKMJ", "PKWA", "PLCH", "PMDY", "PTKK", "PTPN", "PTRO", "PTSA", "PTYA", "PWAK", "RCFN", "RCKH", "RCMQ", "RCNN", "RCSS", "RCTP", "RJAA", "RJAH", "RJBB", "RJCB", "RJCC", "RJCH", "RJCK", "RJCM", "RJEC", "RJFF", "RJFK", "RJFM", "RJFO", "RJFR", "RJFS", "RJFT", "RJFU", "RJGG", "RJNK", "RJNS", "RJNT", "RJOA", "RJOB", "RJOC", "RJOH", "RJOI", "RJOK", "RJOM", "RJOO", "RJOT", "RJSA", "RJSF", "RJSI", "RJSK", "RJSN", "RJSS", "RJTT", "RJTY", "RKJB", "RKJK", "RKNN", "RKNW", "RKNY", "RKPC", "RKPK", "RKSG", "RKSI", "RKSM", "RKSO", "RKSS", "RKSW", "RKTE", "RKTI", "RKTN", "RKTP", "RKTU", "RKTY", "ROAH", "RODN", "ROIG", "ROTM", "RPLB", "RPLC", "RPLI", "RPLL", "RPMD", "RPMR", "RPMZ", "RPVD", "RPVM", "RPVP", "SAAR", "SABE", "SACO", "SADF", "SAEZ", "SAME", "SANR", "SANT", "SARE", "SARF", "SARI", "SARP", "SASA", "SASJ", "SAVC", "SAVT", "SAWE", "SAWG", "SAWH", "SAZM", "SAZN", "SAZS", "SBAC", "SBAF", "SBAN", "SBAT", "SBBI", "SBBU", "SBBW", "SBCO", "SBCZ", "SBDN", "SBGW", "SBIH", "SBIL", "SBIZ", "SBJV", "SBKG", "SBME", "SBNT", "SBPK", "SBSC", "SBSM", "SBUG", "SBUL", "SBUR", "SBVH", "SBYS", "SCAR", "SCAT", "SCBA", "SCCF", "SCCH", "SCCI", "SCCY", "SCDA", "SCEL", "SCFA", "SCFM", "SCGE", "SCGZ", "SCHR", "SCIC", "SCIE", "SCIP", "SCIR", "SCJO", "SCMK", "SCNT", "SCPQ", "SCRD", "SCRG", "SCSE", "SCSN", "SCTB", "SCTE", "SCTN", "SCVD", "SCVM", "SEGU", "SELT", "SEMT", "SEQM", "SKAR", "SKBG", "SKBO", "SKBQ", "SKCC", "SKCG", "SKCL", "SKLT", "SKPE", "SKRG", "SKSM", "SKSP", "SLAL", "SLCB", "SLCO", "SLET", "SLLP", "SLTJ", "SLTR", "SLVR", "SLYA", "SMJP", "SMZO", "SOCA", "SPCL", "SPEO", "SPGM", "SPHI", "SPHO", "SPJC", "SPJI", "SPJJ", "SPJL", "SPJR", "SPLO", "SPME", "SPMS", "SPNC", "SPPY", "SPQT", "SPQU", "SPRU", "SPSO", "SPST", "SPTN", "SPTU", "SPUR", "SPYL", "SPZO", "SUAA", "SUCA", "SUDU", "SULS", "SUMU", "SURV", "SYCJ", "SYEB", "SYEC", "SYKA", "SYKM", "SYLT", "SYMB", "TAPA", "TBPB", "TDPD", "TFFF", "TFFR", "TGPY", "TIST", "TISX", "TJBQ", "TJPS", "TJSJ", "TKPK", "TKPN", "TLPC", "TLPL", "TNCA", "TNCB", "TNCC", "TQPF", "TRPG", "TTCP", "TTPP", "TUPJ", "TVSA", "TXKF", "UAAA", "UACC", "UACP", "UADD", "UAII", "UAIT", "UAKK", "UAOO", "UARR", "UASK", "UASP", "UATE", "UATG", "UATT", "UAUU", "UBBB", "UBBF", "UBBG", "UBBL", "UBBN", "UBBQ", "UBBY", "UBBZ", "UBEE", "UCFL", "UCFM", "UCFO", "UDSG", "UDYZ", "UEEE", "UERP", "UERR", "UGKO", "UGSB", "UGTB", "UHBB", "UHHH", "UHMA", "UHMM", "UHPP", "UHSS", "UHWW", "UIAA", "UIBB", "UIII", "UIUU", "ULLI", "ULMM", "ULOO", "ULPB", "ULWC", "UMBB", "UMGG", "UMII", "UMKK", "UMMS", "UNAA", "UNBB", "UNEE", "UNKL", "UNNT", "UNOO", "UNTT", "UNWW", "UOOO", "URKA", "URKK", "URMG", "URML", "URMM", "URMN", "URMO", "URMT", "URRP", "URSS", "URWA", "URWW", "USCC", "USCM", "USHH", "USNN", "USPP", "USRR", "USSS", "USTR", "UTAA", "UTAK", "UTAM", "UTAT", "UTAV", "UTDD", "UTDK", "UTDL", "UTDT", "UTFF", "UTFN", "UTNN", "UTNU", "UTSA", "UTSB", "UTSK", "UTSS", "UTST", "UTTT", "UUBC", "UUBW", "UUDD", "UUDL", "UUEE", "UUMO", "UUOB", "UUOK", "UUOL", "UUOO", "UUWW", "UUYY", "UWGG", "UWKD", "UWKE", "UWKS", "UWLL", "UWLW", "UWOO", "UWOR", "UWPS", "UWSG", "UWUU", "UWWW", "VAAH", "VAAU", "VABB", "VABJ", "VABO", "VABP", "VABV", "VADU", "VAID", "VAJB", "VAJM", "VANP", "VAPO", "VAPR", "VARK", "VASU", "VAUD", "VCBI", "VCRI", "VDPP", "VDSR", "VDSV", "VEAT", "VEBD", "VEBN", "VEBS", "VECC", "VEDG", "VEGT", "VEGY", "VEIM", "VEKI", "VEKO", "VEMN", "VEMR", "VEPT", "VERC", "VERP", "VETZ", "VGEG", "VGHS", "VHHH", "VIAG", "VIAR", "VICG", "VIDP", "VIJP", "VIJU", "VILH", "VILK", "VISR", "VLLB", "VLLN", "VLPS", "VLSK", "VLVT", "VMMC", "VNKT", "VOAR", "VOBG", "VOBL", "VOBM", "VOBZ", "VOCB", "VOCI", "VOCL", "VOGO", "VOHB", "VOHS", "VOHY", "VOKN", "VOMD", "VOML", "VOMM", "VOPB", "VORY", "VOTP", "VOTR", "VOTV", "VRMG", "VRMH", "VRMM", "VTBD", "VTBO", "VTBS", "VTBU", "VTCC", "VTCH", "VTCL", "VTCN", "VTCP", "VTCT", "VTPB", "VTPH", "VTPM", "VTPO", "VTPP", "VTPT", "VTSB", "VTSC", "VTSE", "VTSF", "VTSG", "VTSM", "VTSP", "VTSR", "VTSS", "VTST", "VTSY", "VTUD", "VTUI", "VTUK", "VTUL", "VTUO", "VTUQ", "VTUU", "VTUV", "VTUW", "VVCI", "VVCR", "VVCT", "VVDN", "VVNB", "VVPB", "VVPQ", "VVTS", "VVVD", "VYMD", "VYNT", "VYYY", "WAAA", "WABB", "WADD", "WADL", "WALL", "WALS", "WAMM", "WAOO", "WAPP", "WAQA", "WAQD", "WAQJ", "WAQQ", "WAQT", "WARR", "WATT", "WBGB", "WBGG", "WBGR", "WBGS", "WBKK", "WBKL", "WBKS", "WBKW", "WBSB", "WIDD", "WIEE", "WIHH", "WIII", "WIMM", "WIPP", "WITT", "WMAP", "WMBT", "WMKA", "WMKB", "WMKC", "WMKE", "WMKI", "WMKJ", "WMKK", "WMKL", "WMKM", "WMKN", "WMKP", "WMPA", "WMSA", "WPDL", "WSAP", "WSSL", "WSSS", "YAMB", "YBAS", "YBBN", "YBCG", "YBCS", "YBHM", "YBLN", "YBMA", "YBRK", "YBRM", "YBSU", "YBTL", "YBWW", "YCFS", "YCIN", "YFRT", "YGEL", "YGLA", "YHID", "YLHI", "YMAV", "YMHB", "YMLT", "YMML", "YPAD", "YPCC", "YPDN", "YPEA", "YPGV", "YPJT", "YPKG", "YPKU", "YPLM", "YPPD", "YPPH", "YPTN", "YPWR", "YPXM", "YSCB", "YSDU", "YSNF", "YSRI", "YSSY", "YSTW", "YWLM", "ZMCK", "ZMUB"], "raw_text": ["TAF AGGH 071120Z 0712/0812 13010KT 9999 FEW017 SCT100 FM071200 14006KT 9999 FEW014 T 26 25 24 23 Q 1011 1009 1008 1010 0000008900 30332", "TAF AMD ANYN 070907Z 0712/0812 09005KT 9999 -SHRA SCT020 INTER 0712/0812 4000 +SHRA BKN008 T 26 25 26 28 Q 1009 1007 1008 1010", "TAF AYPY 071520Z 0718/0818 12005KT 9999 FEW017 SCT040 BKN140 FM072300 15015KT 9999 SCT018 BKN040 FM080600 15015KT 9999 -SHRA SCT018 BKN040 PROB30 0717/0721 0500 FG", "TAF BGBW 071712Z 0718/0723 24006KT 9999 BKN200", "TAF BGGH 072010Z 0721/0806 17006KT 9999 FEW002 BKN200 TEMPO 0722/0806 0400 FG BKN002", "TAF AMD BGJN 072051Z 0721/0806 VRB02KT 0800 -RA FG BKN003 BECMG 0721/0723 13015KT 8000 NSW SCT012 BKN050 TEMPO 0723/0806 5000 BKN012", "TAF BGKK 072010Z 0721/0806 26006KT 9999 FEW190 PROB40 0721/0806 0500 BCFG VV002", "TAF BGSF 071701Z 0718/0824 06010KT 9999 FEW060 BKN120 TEMPO 0718/0804 30008KT BKN050 TEMPO 0804/0813 BKN050", "TAF BGTL 071900Z 0719/0901 14020G30KT 8000 -RA OVC025 530005 QNH2967INS BECMG 0807/0808 15025G35KT 9999 NSW BKN020 OVC040 530004 QNH2990INS TEMPO 0810/0818 15030G40KT BECMG 0900/0901 13015G25KT 9999 BKN025 BKN045 530004 QNH2998INS TX08/0719Z TN04/0818Z LAST NO AMDS AFT 0719 NEXT 1011", "TAF BGUQ 071718Z 0718/0723 20018KT 9000 -RA SCT030 BKN070 TEMPO 0718/0723 13022G35KT BKN030", "TAF BIAR 071937Z 0721/0821 12012KT 9999 FEW040 SCT053 TX19/0812Z TN08/0806Z BECMG 0812/0814 35005KT", "TAF BIEG 071940Z 0721/0821 01012KT 9999 FEW008 BKN015 OVC025 TX19/0815Z TN07/0803Z TEMPO 0723/0810 2000 -DZ BR OVC004 BECMG 0807/0809 VRB03KT BECMG 0812/0814 20012KT FEW025 BKN035", "TAF BIKF 071935Z 0721/0821 01010KT 9999 FEW030 TX18/0815Z TN08/0806Z BECMG 0800/0802 19010KT BECMG 0803/0805 03004KT", "TAF BIRK 071935Z 0721/0821 33010KT 9999 FEW040 TX17/0815Z TN09/0806Z BECMG 0721/0723 18004KT BECMG 0813/0815 33012KT", "TAF BKPR 071730Z 0718/0818 01007KT 9999 SCT050 SCT080 TEMPO 0718/0720 VRB12G22KT 5000 TSRA SCT030CB TEMPO 0803/0806 2000 BR", "TAF CBBC 071840Z 0719/0805 VRB03KT P6SM SCT004 SCT110 FM072100 27005KT P6SM FEW006 SCT120 RMK FCST BASED ON AUTO OBS. NXT FCST BY 080100Z", "TAF CWSA 071940Z 0720/0724 27010KT P6SM FEW005 FEW010 TEMPO 0720/0722 5SM -SHRA BR SCT005 BKN008 BKN090 FM072200 24010KT P6SM FEW005 FEW090 TEMPO 0722/0724 5SM -SHRA BR BKN005 BKN070 RMK FCST BASED ON AUTO OBS. NXT FCST BY 080800Z", "TAF CWWU 071800Z 0718/0818 35004KT P6SM SCT020 BKN030 BKN035 FM072100 30004KT P6SM SCT015 BKN025 FM080100 27004KT 3SM BR OVC007 FM080400 VRB03KT 1SM -DZ BR VV004 FM080800 24004KT 4SM BR BKN006 OVC010 TEMPO 0810/0812 2SM -SHRA BR FM081300 28004KT P6SM SCT010 BKN025 FM081600 28005KT P6SM SCT025 SCT045 RMK NXT FCST BY 080000Z ", "TAF CYAM 071940Z 0720/0808 29010KT P6SM FEW040 FEW160 BECMG 0723/0801 VRB03KT FM080600 VRB03KT P6SM BKN160 RMK NXT FCST BY 080200Z", "TAF CYAW 071140Z 0712/0724 27005KT P6SM BKN250 BECMG 0713/0715 22008KT FM071700 20012KT P6SM FEW050 SCT250 RMK NXT FCST BY 071800Z", "TAF CYAY 071943Z 0720/0808 02012KT P6SM OVC015 TEMPO 0720/0724 5SM BR OVC008 FM080000 VRB03KT 3SM -DZ -RA BR BKN004 OVC010 TEMPO 0800/0802 6SM BR SCT004 OVC010 BECMG 0802/0803 22005KT RMK FCST BASED ON AUTO OBS. NXT FCST BY 080200Z", "TAF AMD CYAZ 072014Z 0720/0801 16010KT P6SM SCT015 BKN025 TEMPO 0720/0801 BKN015 BKN025 RMK NXT FCST BY 081500Z", "TAF CYBB 071840Z 0719/0724 VRB03KT P6SM SCT030 BKN100 TEMPO 0719/0724 P6SM -SHRA BKN020 BECMG 0722/0724 12010KT RMK NXT FCST BY 081600Z", "TAF CYBC 071940Z 0720/0808 12012KT 5SM -SHRA BR OVC003 TEMPO 0720/0722 P6SM NSW FEW005 FEW080 FM072200 VRB03KT 2SM -SHRA BR OVC004 TEMPO 0722/0808 P6SM NSW SCT004 SCT080 PROB30 0722/0808 1/2SM FG VV002 RMK FCST BASED ON AUTO OBS. NXT FCST BY 080200Z", "TAF AMD CYBG 072130Z 0721/0818 28008KT P6SM SCT040 BKN080 TEMPO 0721/0724 6SM SHRA BR SCT020 BKN040 FM080000 27005KT P6SM SCT020 BKN040 BKN080 PROB30 0806/0811 1SM BR BKN006 FM081400 VRB03KT P6SM SCT040 RMK NXT FCST BY 080000Z", "TAF CYBK 071740Z 0718/0806 28010KT P6SM FEW015 BKN040 OVC110 TEMPO 0718/0724 P6SM -SHRA SCT015 OVC030 FM080000 30010KT P6SM BKN050 TEMPO 0800/0806 4SM -SHRA BR SCT005 OVC012 RMK NXT FCST BY 080000Z", "TAF CYBL 071840Z 0719/0804 07006KT P6SM FEW120 SCT240 RMK NXT FCST BY 080100Z", "TAF CYBR 071740Z 0718/0806 01010KT P6SM BKN040 FM072000 35012KT P6SM BKN060 FM080400 04006KT P6SM FEW060 RMK NXT FCST BY 080000Z", "TAF CYBW 071740Z 0718/0804 VRB03KT P6SM FEW070 SCT120 BKN240 BECMG 0718/0720 12007KT FM072100 12010KT P6SM BKN070 TEMPO 0721/0804 P6SM -SHRA PROB30 0721/0804 VRB20G30KT 5SM TSRA BKN060CB RMK FCST BASED ON AUTO OBS. NXT FCST BY 080000Z", "TAF CYBX 071943Z 0720/0808 11010KT P6SM FEW025 TEMPO 0720/0724 BKN025 FM080000 07006KT P6SM BKN020 TEMPO 0800/0808 BKN025 RMK NXT FCST BY 080200Z", "TAF CYCA 071940Z 0720/0808 VRB03KT P6SM SCT050 TEMPO 0720/0803 BKN050 BECMG 0722/0724 14008KT FM080300 15005KT P6SM SKC PROB40 0803/0808 1/2SM FG VV002 RMK FCST BASED ON AUTO OBS. NXT FCST BY 080200Z", "TAF CYCB 071840Z 0719/0807 24008KT P6SM FEW030 SCT150 BKN240 FM080000 28010KT P6SM SCT060 BECMG 0801/0803 04006KT RMK NXT FCST BY 080100Z", "TAF CYCD 071740Z 0718/0804 VRB03KT P6SM FEW012 SCT160 BKN210 BECMG 0718/0720 08007KT FM080200 VRB03KT P6SM VCSH BKN100 RMK NXT FCST BY 080000Z", "TAF CYCG 071840Z 0719/0804 35006KT P6SM FEW060 SCT180 BKN250 FM072000 36008KT P6SM BKN080 BKN250 TEMPO 0720/0803 P6SM -SHRA VCTS BKN060CB RMK NXT FCST BY 080100Z", "TAF CYCO 071840Z 0719/0807 25010KT P6SM BKN070 TEMPO 0719/0807 P6SM -SHRA BECMG 0722/0724 03010KT RMK NXT FCST BY 080100Z", "TAF CYCY 071840Z 0719/0807 VRB03KT P6SM -RA SCT020 OVC040 TEMPO 0719/0722 4SM -SHRA BR BKN015 OVC040 FM072200 20010KT P6SM SCT020 BKN060 TEMPO 0722/0801 P6SM -RA BKN015 OVC050 FM080100 23008KT P6SM FEW040 RMK FCST BASED ON AUTO OBS. NXT FCST BY 080100Z", "TAF CYDA 072040Z 0721/0802 04005KT P6SM FEW140 FM072300 VRB03KT P6SM SCT080 TEMPO 0723/0802 P6SM -SHRA VCTS BKN080CB RMK NXT FCST BY 081400Z", "TAF CYDB 071740Z 0718/0806 10006KT P6SM FEW090 FM080300 12010KT P6SM SKC RMK NXT FCST BY 080000Z", "TAF CYDF 071943Z 0720/0808 VRB03KT P6SM BKN015 OVC030 TEMPO 0720/0802 SCT015 OVC030 FM080200 VRB03KT P6SM SCT006 OVC015 PROB30 0802/0806 BKN006 FM080600 VRB03KT 4SM BR BKN006 OVC012 PROB30 0806/0808 2SM BR BKN004 RMK NXT FCST BY 080200Z", "TAF CYDL 071740Z 0718/0723 05005KT P6SM SKC RMK FCST BASED ON AUTO OBS. NXT FCST BY 081200Z", "TAF CYDN 071740Z 0718/0806 34012G22KT P6SM BKN060 FM080200 VRB03KT P6SM FEW060 BECMG 0804/0806 22008KT RMK FCST BASED ON AUTO OBS. NXT FCST BY 080000Z", "TAF AMD CYDP 072024Z 0720/0723 09010KT P6SM FEW005 BKN230 TEMPO 0720/0723 FEW005 BKN008 BKN230 RMK NXT FCST BY 081000Z", "TAF CYDQ 071840Z 0719/0805 03007KT P6SM FEW080 SCT240 TEMPO 0719/0805 5SM FU RMK FCST BASED ON AUTO OBS. NXT FCST BY 080100Z", "TAF CYED 071740Z 0718/0806 04005KT P6SM FEW050 SCT250 BECMG 0802/0804 VRB03KT RMK NXT FCST BY 080000Z", "TAF CYEG 072040Z 0721/0818 VRB03KT P6SM BKN050 TEMPO 0721/0803 SCT050 FM080300 12005KT P6SM SKC PROB40 0811/0813 3/4SM BR FM081500 18006KT P6SM FEW240 RMK NXT FCST BY 080000Z", "TAF CYEK 071740Z 0718/0806 34012KT P6SM OVC050 TEMPO 0718/0806 P6SM -SHRA BECMG 0801/0803 18010KT RMK NXT FCST BY 080000Z", "TAF CYEN 071740Z 0718/0724 34010KT P6SM BKN080 FM072100 35012KT P6SM FEW080 RMK FCST BASED ON AUTO OBS. NXT FCST BY 081200Z", "TAF CYEU 071740Z 0718/0802 30010G20KT P6SM SCT060 BKN090 RMK ADVISORY OFFSITE. NXT FCST BY 080000Z", "TAF CYEV 071840Z 0719/0807 06006KT P6SM FEW090 BKN160 BKN220 FM080300 05010KT P6SM BKN090 BKN160 BKN220 TEMPO 0803/0807 P6SM -SHRA RMK NXT FCST BY 080100Z", "TAF CYFB 071740Z 0718/0818 VRB03KT P6SM FEW030 SCT040 FM080000 14006KT P6SM SCT040 BKN220 FM080700 33005KT P6SM OVC180 FM081100 33005KT P6SM BKN040 OVC100 FM081500 VRB03KT P6SM -RA FEW006 OVC012 RMK NXT FCST BY 080000Z", "TAF CYFC 071740Z 0718/0806 20010G20KT P6SM FEW040 FEW100 TEMPO 0718/0722 P6SM -SHRA BKN040 FM072200 18012G22KT P6SM BKN040 TEMPO 0722/0802 P6SM -SHRA BKN020 PROB30 0722/0724 3SM -TSRA BR OVC040CB FM080200 18008KT P6SM -SHRA SCT020 BKN040 RMK FCST BASED ON AUTO OBS. NXT FCST BY 080000Z", "TAF CYFS 071740Z 0718/0806 20005KT P6SM FEW220 BKN250 BECMG 0722/0724 12005KT RMK NXT FCST BY 080000Z", "TAF CYGH 071740Z 0718/0723 VRB03KT P6SM FEW150 SCT200 RMK NXT FCST BY 081400Z", "TAF AMD CYGK 072050Z 0720/0803 19012KT P6SM SCT040 BKN130 TEMPO 0720/0722 P6SM -SHRA BKN030 FM072200 20008KT P6SM FEW030 RMK NXT FCST BY 081200Z", "TAF CYGL 071741Z 0718/0818 VRB03KT P6SM FEW040 FEW240 BECMG 0804/0806 12005KT FM081200 22010KT P6SM BKN100 FM081500 24010KT P6SM BKN050 RMK NXT FCST BY 080000Z", "TAF CYGP 071944Z 0720/0808 06008KT P6SM SCT080 TEMPO 0720/0802 P6SM -SHRA BKN040 BKN060 PROB30 0720/0724 2SM TSRA BR BKN020 OVC060CB FM080200 VRB03KT P6SM -SHRA SCT020 BKN080 RMK NXT FCST BY 080200Z", "TAF AMD CYGQ 072020Z 0720/0808 24012KT P6SM BKN060 TEMPO 0720/0721 P6SM -SHRA PROB30 0720/0721 VRB20G30KT 2SM TSRA BR BKN020 OVC060CB FM072030 24012KT P6SM BKN060 TEMPO 0720/0722 VRB15G25KT 2SM TSRA BR BKN020 OVC060CB FM072200 24012KT P6SM SCT020 BKN060 TEMPO 0722/0802 P6SM -SHRA BKN020 BKN060 PROB30 0722/0802 VRB20G30KT 2SM TSRA BR BKN008 OVC020CB FM080200 29008KT P6SM -SHRA SCT008 OVC015 RMK FCST BASED ON AUTO OBS. NXT FCST BY 080200Z", "TAF CYGR 071944Z 0720/0802 10010KT P6SM FEW005 SCT240 FM072100 15008KT P6SM SCT012 RMK NXT FCST BY 081100Z", "TAF CYGV 071940Z 0720/0808 15010KT P6SM FEW020 FM080300 VRB03KT P6SM BKN060 PROB30 0803/0808 1/2SM FG VV002 RMK FCST BASED ON AUTO OBS. NXT FCST BY 080200Z", "TAF CYGW 071741Z 0718/0806 VRB03KT P6SM FEW070 RMK FCST BASED ON AUTO OBS. NXT FCST BY 080000Z", "TAF CYGX 071840Z 0719/0807 32012G22KT P6SM BKN060 TEMPO 0719/0804 P6SM -SHRA VCTS BKN030CB OVC060 FM080400 22008KT P6SM SCT060 RMK NXT FCST BY 080100Z", "TAF CYHD 071940Z 0720/0808 32008KT P6SM BKN050 TEMPO 0720/0802 SCT050 FM080200 VRB03KT P6SM BKN060 RMK FCST BASED ON AUTO OBS. NXT FCST BY 080200Z", "TAF AMD CYHK 072117Z 0721/0806 VRB03KT P6SM SCT020 BKN050 TEMPO 0721/0801 4SM -DZ BR OVC015 FM080100 02008KT 3SM BR SCT005 OVC012 TEMPO 0801/0806 P6SM NSW SCT012 BKN040 BECMG 0801/0803 02015KT RMK NXT FCST BY 080000Z", "TAF CYHM 071740Z 0718/0818 32010KT P6SM SKC BECMG 0723/0801 31006KT FM081600 VRB03KT P6SM BKN100 BKN240 RMK NXT FCST BY 080000Z", "TAF AMD CYHU 072008Z 0720/0818 23010KT P6SM SCT050 BKN130 OVC220 TEMPO 0720/0723 P6SM VCTS SCT050 BKN090CB OVC140 FM080200 VRB03KT P6SM SCT040 TEMPO 0805/0814 3SM BR BKN005 BKN030 PROB30 0807/0812 2SM BR BKN003 BKN020 FM081400 18005KT P6SM SCT015 BKN040 TEMPO 0814/0816 BKN015 BKN030 FM081600 18005KT P6SM -SHRA BKN030 RMK FCST BASED ON AUTO OBS. NXT FCST BY 080000Z", "TAF CYHY 071740Z 0718/0806 30005KT P6SM SCT100 BKN140 BKN250 FM072100 04005KT P6SM SCT070 TEMPO 0721/0802 4SM -SHRA FU BKN070 BKN140 BKN250 PROB30 0721/0802 2SM FU FM080200 VRB03KT P6SM FEW060 BKN140 RMK NXT FCST BY 080000Z", "TAF CYHZ 072040Z 0721/0818 22012G22KT P6SM FEW050 SCT250 TEMPO 0721/0723 P6SM -SHRA BKN050 BECMG 0721/0723 21010KT FM080300 VRB03KT P6SM FEW250 PROB30 0808/0811 3/4SM BR BKN002 FM081200 20007KT P6SM FEW012 BECMG 0812/0814 21012KT FEW030 RMK NXT FCST BY 080000Z", "TAF CYIO 071840Z 0719/0807 23006KT P6SM -RA FEW002 OVC012 TEMPO 0719/0807 2SM -RA BR SCT002 OVC008 PROB40 0719/0807 1SM -RA BR OVC002 RMK NXT FCST BY 080100Z", "TAF CYIV 071840Z 0719/0807 36012G22KT P6SM BKN080 TEMPO 0719/0807 P6SM -SHRA BKN060 BECMG 0800/0802 26006KT RMK FCST BASED ON AUTO OBS. NXT FCST BY 080100Z", "TAF CYJT 071740Z 0718/0818 22008KT P6SM SCT040 FM080000 VRB03KT P6SM FEW010 SCT080 PROB30 0806/0808 2SM BR BKN004 BKN040 FM080800 06006KT P6SM FEW020 BKN080 FM081600 26008KT P6SM FEW004 BKN030 OVC080 RMK NXT FCST BY 080000Z", "TAF CYKA 071840Z 0719/0807 11008KT P6SM SCT080 SCT120 TEMPO 0719/0803 VRB15G30KT P6SM -SHRA VCTS BKN080CB BKN120 BECMG 0803/0805 VRB03KT RMK NXT FCST BY 080100Z", "TAF CYKF 071940Z 0720/0808 31012KT P6SM SKC BECMG 0723/0801 32006KT RMK FCST BASED ON AUTO OBS. NXT FCST BY 080200Z", "TAF CYKJ 071840Z 0719/0724 28010KT P6SM SCT060 TEMPO 0719/0724 BKN060 RMK FCST BASED ON AUTO OBS. NXT FCST BY 081000Z", "TAF CYKL 071940Z 0720/0808 34010KT P6SM OVC004 TEMPO 0720/0724 1 1/2SM -RA BR OVC002 PROB40 0720/0724 2SM TSRA BR BKN003 OVC008CB FM080000 34010KT P6SM OVC006 TEMPO 0800/0808 5SM -RA -DZ BR OVC003 RMK FCST BASED ON AUTO OBS. NXT FCST BY 080200Z", "TAF CYLD 071940Z 0720/0801 26008KT P6SM SCT070 BKN250 RMK NXT FCST BY 081200Z", "TAF CYLL 071740Z 0718/0806 08008KT P6SM SCT280 FM072100 35010KT P6SM FEW050 FM080300 VRB03KT P6SM SKC RMK NXT FCST BY 080000Z", "TAF CYLT 071740Z 0718/0806 02005KT P6SM FEW020 SCT220 TEMPO 0718/0722 BKN020 RMK NXT FCST BY 080000Z", "TAF CYLW 071840Z 0719/0807 33010KT P6SM SCT080 SCT120 TEMPO 0719/0803 VRB15G30KT P6SM -SHRA VCTS BKN080CB BKN120 BECMG 0803/0805 VRB03KT RMK FCST BASED ON AUTO OBS. NXT FCST BY 080100Z", "TAF CYMA 071740Z 0718/0806 VRB03KT P6SM FEW220 FM080300 02005KT P6SM SKC RMK NXT FCST BY 080000Z", "TAF CYMH 071940Z 0720/0803 VRB03KT 5SM -DZ BR OVC003 TEMPO 0720/0803 P6SM NSW SCT003 OVC010 RMK FCST BASED ON AUTO OBS. NXT FCST BY 080900Z", "TAF CYMJ 071740Z 0718/0806 33008KT P6SM SCT090 FM072000 03005KT P6SM BKN060 RMK NXT FCST BY 080000Z", "TAF CYMM 071840Z 0719/0807 28006KT P6SM SCT240 FM072100 27008KT P6SM FEW060 SCT140 BKN240 TEMPO 0721/0802 5SM FU FM080200 24007KT P6SM SCT100 BKN220 RMK FCST BASED ON AUTO OBS. NXT FCST BY 080100Z", "TAF CYMO 071741Z 0718/0806 VRB03KT P6SM SCT070 RMK FCST BASED ON AUTO OBS. NXT FCST BY 080000Z", "TAF CYMT 071740Z 0718/0724 26007KT P6SM SCT015 BKN030 TEMPO 0718/0724 P6SM -SHRA BKN015 BKN030 RMK FCST BASED ON AUTO OBS. NXT FCST BY 081200Z", "TAF CYMX 071740Z 0718/0818 23006KT P6SM FEW050 BKN130 OVC220 TEMPO 0718/0722 P6SM -SHRA SCT050 BKN090 OVC140 FM080200 VRB03KT P6SM SCT040 TEMPO 0804/0814 3SM BR BKN005 BKN030 PROB30 0806/0812 1/2SM FG VV002 FM081400 20005KT P6SM BKN010 BKN030 TEMPO 0814/0816 BKN005 BKN030 FM081600 20005KT P6SM -SHRA BKN020 RMK NXT FCST BY 080000Z", "TAF CYNA 071940Z 0720/0808 15008KT P6SM FEW060 FM080600 16006KT P6SM BKN060 PROB30 0806/0808 1/2SM FG VV002 RMK FCST BASED ON AUTO OBS. NXT FCST BY 080200Z", "TAF CYND 071740Z 0718/0801 28008KT P6SM SCT030 BKN140 BKN240 FM072100 28006KT P6SM SCT040 BKN240 RMK NXT FCST BY 081300Z", "TAF CYNE 071840Z 0719/0807 32008KT P6SM BKN080 TEMPO 0719/0807 P6SM -SHRA BKN060 BECMG 0800/0802 22006KT RMK FCST BASED ON AUTO OBS. NXT FCST BY 080100Z", "TAF CYOC 071840Z 0719/0801 VRB03KT P6SM FEW040 SCT080 FM072100 VRB03KT P6SM SCT040 BKN080 TEMPO 0721/0801 P6SM -SHRA RMK NXT FCST BY 081500Z", "TAF CYOD 072040Z 0721/0818 05005KT P6SM SCT050 BKN250 FM080800 25005KT P6SM FEW080 SCT180 FM081600 27008KT P6SM BKN160 RMK NXT FCST BY 080000Z", "TAF CYOJ 071840Z 0719/0807 23005KT P6SM FEW030 SCT100 BKN260 TEMPO 0719/0724 5SM FU FM080000 23005KT P6SM SCT080 SCT200 BKN260 TEMPO 0800/0807 5SM FU BKN080 BKN200 BKN260 RMK NXT FCST BY 080100Z", "TAF CYOO 071940Z 0720/0808 35012KT P6SM FEW050 FM080000 34008KT P6SM SKC RMK FCST BASED ON AUTO OBS. NXT FCST BY 080200Z", "TAF CYOW 072040Z 0721/0818 28010KT P6SM SCT040 BKN150 BECMG 0723/0801 28005KT FM080500 VRB03KT P6SM SCT030 TEMPO 0808/0814 BKN020 FM081500 25008KT P6SM SCT040 RMK NXT FCST BY 080000Z", "TAF CYOY 071740Z 0718/0806 25006KT P6SM FEW025 SCT040 TEMPO 0718/0802 6SM -SHRA BR SCT012 BKN025 PROB30 0718/0802 VRB15G30KT 1 1/2SM +TSRA BR BKN008 OVC025CB FM080200 VRB03KT P6SM SCT040 TEMPO 0802/0806 6SM BR PROB30 0804/0806 1/2SM FG OVC002 RMK NXT FCST BY 080000Z", "TAF CYPA 071840Z 0719/0807 34006KT P6SM FEW060 BECMG 0800/0802 22005KT RMK NXT FCST BY 080100Z", "TAF CYPC 071840Z 0719/0723 35005KT P6SM BKN080 TEMPO 0719/0723 P6SM -SHRA BECMG 0720/0722 05008KT RMK NXT FCST BY 081500Z", "TAF CYPE 071840Z 0719/0807 14006KT P6SM FEW240 TEMPO 0719/0721 5SM FU FM080100 32007KT P6SM SCT240 RMK NXT FCST BY 080100Z", "TAF AMD CYPG 071835Z 0718/0806 01012KT P6SM BKN040 TEMPO 0718/0721 VRB15G25KT 5SM -SHRA BR BKN020 OVC040 FM072200 34010G20KT P6SM FEW050 BECMG 0802/0804 36005KT RMK NXT FCST BY 080000Z", "TAF CYPH 071741Z 0718/0806 19015KT P6SM FEW060 BECMG 0722/0724 18012KT BECMG 0801/0803 15008KT RMK FCST BASED ON AUTO OBS. NXT FCST BY 080000Z", "TAF CYPL 071940Z 0720/0808 32010G20KT P6SM SCT020 BKN080 TEMPO 0720/0721 P6SM -SHRA BKN020 OVC080 FM072100 32010G20KT P6SM BKN030 BKN060 TEMPO 0721/0806 BKN020 BKN060 BECMG 0723/0801 33008KT FM080600 28006KT P6SM FEW060 RMK FCST BASED ON AUTO OBS. NXT FCST BY 080200Z", "TAF CYPQ 071940Z 0720/0802 31010KT P6SM FEW030 BECMG 0800/0802 30005KT RMK FCST BASED ON AUTO OBS. NXT FCST BY 081000Z", "TAF CYPR 071840Z 0719/0807 VRB03KT P6SM SCT120 TEMPO 0719/0720 5SM BR SCT002 RMK FCST BASED ON AUTO OBS. NXT FCST BY 080100Z", "TAF CYPX 071740Z 0718/0806 12015KT P6SM FEW090 TEMPO 0718/0724 P6SM -SHRA VCTS BKN060CB FM080000 18008KT P6SM SCT060 BKN120 BECMG 0804/0806 12015KT RMK FCST BASED ON AUTO OBS. NXT FCST BY 080000Z", "TAF CYPY 071740Z 0718/0806 24008KT 3SM FU BKN090 BKN120 TEMPO 0718/0721 6SM FU FM072100 28012KT 6SM FU BKN080 BKN160 TEMPO 0721/0803 3SM -SHRA FU FM080300 28006KT 4SM FU BKN080 BKN160 TEMPO 0803/0806 1SM FU RMK FCST BASED ON AUTO OBS. NXT FCST BY 080000Z", "TAF CYQA 071940Z 0720/0802 26012KT P6SM SKC BECMG 0723/0801 VRB03KT RMK FCST BASED ON AUTO OBS. NXT FCST BY 081200Z", "TAF CYQB 071740Z 0718/0818 23008G18KT P6SM FEW030 SCT060 BKN120 TEMPO 0718/0802 P6SM -SHRA BKN030 BKN060 PROB30 0721/0723 VRB12G22KT 2SM TSRA BR BKN020 BKN040CB FM080200 VRB03KT P6SM SCT030 SCT090 FM080500 VRB03KT 3SM BR FEW002 SCT040 PROB30 0806/0812 1/2SM FG VV002 FM081200 08004KT P6SM SCT010 FM081500 08008KT P6SM -SHRA BKN030 RMK NXT FCST BY 080000Z", "TAF CYQD 071840Z 0719/0807 30010KT P6SM BKN060 FM080400 24008KT P6SM SCT060 RMK FCST BASED ON AUTO OBS. NXT FCST BY 080100Z", "TAF CYQF 071740Z 0718/0806 VRB03KT P6SM SKC FM072000 06008KT P6SM FEW060 PROB30 0722/0803 VRB15G25KT 5SM TSRA BKN050CB FM080400 08005KT P6SM SCT050 RMK FCST BASED ON AUTO OBS. NXT FCST BY 080000Z", "TAF CYQG 071740Z 0718/0818 03008KT P6SM FEW050 FM080600 10005KT P6SM BKN060 BKN220 FM081100 13006KT P6SM -SHRA OVC050 FM081600 17010KT 5SM SHRA BR BKN015 OVC030 BECMG 0816/0818 26010KT RMK FCST BASED ON AUTO OBS. NXT FCST BY 080000Z", "TAF CYQH 071740Z 0718/0806 16005KT P6SM SKC RMK NXT FCST BY 080000Z", "TAF CYQI 071740Z 0718/0806 19008KT P6SM FEW008 SCT250 TEMPO 0718/0721 2SM BR BKN007 FM072100 20006KT 2SM BR OVC007 TEMPO 0721/0723 P6SM NSW SCT007 SCT250 FM080300 19007KT 1/2SM FG VV002 RMK NXT FCST BY 080000Z", "TAF CYQK 071940Z 0720/0808 32010G20KT P6SM FEW060 SCT200 FM080200 35008KT P6SM BKN050 RMK NXT FCST BY 080200Z", "TAF CYQL 071740Z 0718/0806 29005KT P6SM SCT080 BKN120 BKN240 BECMG 0718/0719 08008KT FM072200 10008KT P6SM BKN090 TEMPO 0722/0804 P6SM -SHRA VCTS BKN070CB RMK NXT FCST BY 080000Z", "TAF CYQM 071740Z 0718/0818 24012KT P6SM FEW080 SCT230 FM080200 20012KT P6SM SCT020 FM080800 23010KT P6SM SCT015 BKN025 FM081500 24012KT P6SM -SHRA BKN030 RMK NXT FCST BY 080000Z", "TAF CYQQ 071740Z 0718/0824 VRB03KT P6SM SCT200 FM072100 12007KT P6SM SCT100 FM080800 VRB03KT P6SM FEW008 BKN100 FM081300 VRB03KT P6SM SCT100 RMK NXT FCST BY 080000Z", "TAF CYQR 071740Z 0718/0818 34010KT P6SM BKN080 BECMG 0802/0804 14010KT FM081600 26008KT P6SM SCT080 RMK NXT FCST BY 080000Z", "TAF CYQT 071940Z 0720/0808 28010G20KT P6SM SCT030 BKN080 TEMPO 0720/0724 P6SM -SHRA BKN030 BKN080 PROB30 0720/0724 VRB15G25KT 2SM TSRA BR BKN020 OVC030CB FM080000 28010G20KT P6SM -SHRA BKN020 OVC060 TEMPO 0800/0805 P6SM NSW BKN030 OVC060 PROB30 0800/0803 VRB15G25KT 2SM TSRA BR BKN008 OVC020CB FM080500 28006KT P6SM SCT012 BKN040 RMK NXT FCST BY 080200Z", "TAF CYQU 071840Z 0719/0807 08008KT P6SM FEW140 RMK NXT FCST BY 080100Z", "TAF CYQV 071740Z 0718/0806 02010KT P6SM FEW060 BECMG 0800/0802 VRB03KT RMK FCST BASED ON AUTO OBS. NXT FCST BY 080000Z", "TAF CYQW 071740Z 0718/0806 12008KT P6SM FEW080 FM072100 32008KT P6SM SKC BECMG 0804/0806 08006KT RMK FCST BASED ON AUTO OBS. NXT FCST BY 080000Z", "TAF CYQX 071740Z 0718/0818 31010KT 5SM -DZ BR BKN006 OVC010 TEMPO 0718/0724 P6SM NSW SCT006 OVC012 FM080000 24008KT 2SM -DZ BR OVC004 FM080200 VRB03KT 3/4SM -DZ BR OVC003 PROB30 0802/0810 1/4SM -DZ FG VV002 FM081300 34006KT 5SM BR OVC004 FM081600 03005KT P6SM SCT005 BKN010 RMK NXT FCST BY 080000Z", "TAF CYQY 071748Z 0718/0806 08008KT P6SM FEW005 FEW015 SCT240 TEMPO 0720/0723 SCT005 BKN015 FM080200 20005KT 6SM BR SCT020 PROB30 0802/0806 1/2SM FG VV002 RMK NXT FCST BY 080000Z", "TAF CYQZ 071840Z 0719/0806 VRB03KT P6SM SCT120 TEMPO 0800/0804 P6SM VCTS SCT080CB RMK FCST BASED ON AUTO OBS. NXT FCST BY 080100Z", "TAF CYRA 071840Z 0719/0724 34010KT P6SM FEW020 SCT160 BKN200 RMK NXT FCST BY 081700Z", "TAF CYRB 071740Z 0718/0818 30010KT P6SM SCT020 SCT040 OVC080 FM080100 27012KT P6SM BKN040 TEMPO 0801/0804 BKN020 BECMG 0802/0804 VRB03KT FM080400 VRB03KT P6SM BKN020 OVC040 PROB30 0810/0813 1/2SM FG FM081300 09005KT P6SM FEW020 SCT120 RMK NXT FCST BY 080000Z", "TAF CYRJ 071940Z 0720/0802 32008KT P6SM SCT025 BKN040 TEMPO 0720/0802 5SM -SHRA BR FEW008 BKN020 OVC040 PROB30 0720/0723 2 1/2SM SHRA BR BKN008 RMK NXT FCST BY 081200Z", "TAF CYRL 071940Z 0720/0802 34010G20KT P6SM BKN030 TEMPO 0720/0724 P6SM -SHRA BKN020 FM080000 36008KT P6SM BKN050 RMK NXT FCST BY 081100Z", "TAF AMD CYRQ 072126Z 0721/0808 20010KT P6SM FEW020 BKN070 TEMPO 0721/0724 P6SM -SHRA BKN020 OVC060 PROB30 0721/0724 3SM TSRA BR OVC040CB FM080000 21008KT P6SM SCT008 SCT020 BKN060 TEMPO 0800/0805 3SM -SHRA BR BKN008 OVC012 FM080500 VRB03KT 3SM -SHRA BR BKN005 RMK FCST BASED ON AUTO OBS. NXT FCST BY 080200Z", "TAF CYRT 071740Z 0718/0806 36012KT P6SM SCT050 BKN080 TEMPO 0718/0806 P6SM -SHRA BKN040 OVC060 BECMG 0801/0803 25008KT RMK NXT FCST BY 080000Z", "TAF CYSB 071940Z 0720/0808 VRB03KT P6SM SCT030 TEMPO 0720/0722 BKN030 FM072200 22008KT P6SM SCT030 FM080400 18005KT P6SM FEW200 RMK NXT FCST BY 080200Z", "TAF AMD CYSC 072007Z 0720/0803 VRB03KT P6SM FEW015 BKN030 TEMPO 0720/0721 VRB15G25KT 3SM TSRA BR BKN015 OVC030CB FM072030 VRB03KT P6SM SCT040 BKN120 TEMPO 0720/0724 P6SM -SHRA BKN020 BKN050 PROB30 0720/0722 2SM TSRA BR BKN015 OVC040CB FM080000 VRB03KT 6SM BR SCT015 BKN060 RMK FCST BASED ON AUTO OBS. NXT FCST BY 080000Z", "TAF CYSF 071740Z 0718/0806 30010G20KT P6SM FEW070 BKN090 TEMPO 0718/0802 P6SM -SHRA BKN060 FM080200 29008KT P6SM SCT030 BKN060 TEMPO 0802/0806 5SM -SHRA BR OVC020 RMK FCST BASED ON AUTO OBS. NXT FCST BY 080000Z", "TAF CYSJ 071740Z 0718/0806 20009KT P6SM FEW002 TEMPO 0721/0724 2SM BR BKN002 FM080000 20009KT 2SM BR BKN002 TEMPO 0800/0802 1/4SM FG VV002 FM080200 18005KT 1/4SM FG VV002 TEMPO 0802/0806 1/2SM FG RMK NXT FCST BY 080000Z", "TAF AMD CYSM 071951Z 0719/0806 24005KT 6SM FU BKN080 TEMPO 0719/0804 1 1/2SM -SHRA FU BECMG 0719/0721 28010KT FM080400 32005KT P6SM SCT070 SCT160 BKN250 TEMPO 0804/0806 4SM FU RMK NXT FCST BY 080000Z", "TAF CYSN 071940Z 0720/0801 30010KT P6SM FEW030 FM080000 30006KT P6SM SKC RMK NXT FCST BY 081300Z", "TAF CYTE 071840Z 0719/0807 24012G22KT P6SM SCT020 BKN070 OVC100 FM072000 25010KT P6SM OVC050 BECMG 0723/0801 11010KT RMK NXT FCST BY 080100Z", "TAF CYTH 071840Z 0719/0807 30012G22KT P6SM BKN080 TEMPO 0719/0802 P6SM -SHRA VCTS OVC060CB FM080200 VRB03KT P6SM SCT060 RMK NXT FCST BY 080100Z", "TAF CYTL 071940Z 0720/0808 36008G18KT P6SM SCT015 BKN060 TEMPO 0720/0724 BKN015 BKN060 BECMG 0722/0724 VRB03KT RMK FCST BASED ON AUTO OBS. NXT FCST BY 080200Z", "TAF CYTR 071740Z 0718/0818 28008KT P6SM SCT030 SCT120 BKN250 FM072300 32008KT P6SM SKC FM080800 32005KT P6SM FEW020 FEW300 BECMG 0814/0816 23010KT RMK NXT FCST BY 080000Z", "TAF CYTS 071940Z 0720/0808 22008KT P6SM BKN060 FM072300 26005KT P6SM FEW060 FM080200 VRB03KT P6SM FEW060 RMK NXT FCST BY 080200Z", "TAF CYTZ 071940Z 0720/0820 28012KT P6SM FEW050 FM072300 30010KT P6SM SKC FM080400 33006KT P6SM SKC FM081700 22010KT P6SM BKN120 BKN240 RMK FCST BASED ON AUTO OBS. NXT FCST BY 080200Z", "TAF CYUB 071840Z 0719/0805 VRB03KT P6SM FEW030 BKN080 TEMPO 0719/0805 P6SM -SHRA SCT030 BKN070 BECMG 0720/0722 09010KT RMK NXT FCST BY 080100Z", "TAF CYUL 072040Z 0721/0818 21010KT P6SM SCT050 BKN130 OVC220 TEMPO 0721/0723 P6SM VCTS SCT050 BKN090CB OVC140 FM080200 VRB03KT P6SM SCT040 TEMPO 0806/0814 5SM BR BKN007 BKN030 FM081400 20005KT P6SM SCT015 BKN040 TEMPO 0814/0816 BKN015 BKN030 FM081600 20005KT P6SM -SHRA BKN030 RMK NXT FCST BY 080000Z", "TAF CYUX 071840Z 0719/0807 16006KT P6SM BKN040 BKN080 TEMPO 0719/0721 BKN020 FM072100 15008KT P6SM FEW040 FM080400 14010KT P6SM FEW002 SCT050 TEMPO 0804/0807 2SM BR SCT002 OVC012 PROB40 0804/0807 1/2SM FG VV002 RMK NXT FCST BY 080100Z", "TAF CYUY 071740Z 0718/0806 VRB03KT P6SM SCT020 BKN030 TEMPO 0718/0721 BKN020 OVC030 FM072100 VRB03KT P6SM BKN060 BECMG 0723/0801 SCT060 RMK NXT FCST BY 080000Z", "TAF CYVC 071840Z 0719/0807 VRB03KT P6SM FEW060 BECMG 0719/0721 28006KT RMK NXT FCST BY 080100Z", "TAF CYVM 071840Z 0719/0807 20007KT P6SM FEW120 BECMG 0722/0724 18006KT RMK NXT FCST BY 080100Z", "TAF CYVO 071740Z 0718/0806 VRB03KT P6SM SCT020 BKN030 TEMPO 0718/0802 BKN020 OVC030 FM080200 31005KT P6SM SCT040 RMK NXT FCST BY 080000Z", "TAF CYVP 071741Z 0718/0806 02010KT P6SM SCT015 BKN030 TEMPO 0718/0803 P6SM -SHRA BKN015 FM080300 36006KT P6SM OVC020 TEMPO 0803/0806 SCT004 OVC006 RMK NXT FCST BY 080000Z", "TAF AMD CYVQ 072011Z 0720/0806 13006KT P6SM FEW120 SCT250 RMK NXT FCST BY 080000Z", "TAF CYVR 072040Z 0721/0824 15008KT P6SM FEW050 FEW120 SCT230 BECMG 0801/0803 11010KT FM080300 11010KT P6SM BKN120 TEMPO 0803/0808 P6SM -SHRA VCTS BKN100CB FM080800 09012KT P6SM SCT080 BKN120 TEMPO 0808/0810 P6SM -SHRA BKN080 BKN120 FM081200 10010KT P6SM SCT120 SCT220 FM081800 14010KT P6SM SCT220 BECMG 0818/0820 18008KT RMK NXT FCST BY 080000Z", "TAF CYVT 072040Z 0721/0804 32006KT P6SM SCT070 RMK FCST BASED ON AUTO OBS. NXT FCST BY 081400Z", "TAF CYVV 071940Z 0720/0723 26010KT P6SM FEW040 RMK NXT FCST BY 081100Z", "TAF CYWA 071740Z 0718/0818 35008KT P6SM SCT050 BECMG 0801/0803 VRB03KT FM080800 VRB03KT P6SM FEW020 SCT050 BKN300 FM081400 10005KT P6SM FEW030 BKN200 RMK NXT FCST BY 080000Z", "TAF AMD CYWE 072137Z 0721/0801 32012KT P6SM FEW060 BKN150 TEMPO 0721/0801 4SM FU BKN060 BKN150 RMK FCST BASED ON AUTO OBS. NXT FCST BY 081300Z", "TAF CYWG 071740Z 0718/0818 34015G25KT P6SM BKN060 FM080200 36010KT P6SM SCT060 FM080600 32008KT P6SM SKC RMK NXT FCST BY 080000Z", "TAF CYWH 072040Z 0721/0804 17008KT P6SM FEW005 BECMG 0721/0723 23015KT FM080200 23012KT P6SM VCSH BKN100 RMK NXT FCST BY 081400Z", "TAF CYWJ 071740Z 0718/0723 12005KT P6SM FEW090 BKN140 RMK NXT FCST BY 081400Z", "TAF AMD CYWK 072109Z 0721/0808 20010KT P6SM BKN050 TEMPO 0721/0723 VRB15G25KT 2SM TSRA BR OVC040CB FM072300 30008KT P6SM -SHRA BKN015 TEMPO 0723/0803 P6SM NSW BKN025 FM080300 30008KT P6SM OVC015 TEMPO 0803/0808 5SM -SHRA BR OVC008 RMK NXT FCST BY 080200Z", "TAF CYWL 071840Z 0719/0807 VRB03KT P6SM BKN100 TEMPO 0719/0720 P6SM -SHRA FM072000 31007KT P6SM BKN100 TEMPO 0720/0803 P6SM VCTS BKN080CB BECMG 0803/0805 VRB03KT RMK NXT FCST BY 080100Z", "TAF CYXC 071840Z 0719/0807 VRB03KT P6SM FEW090 SCT250 FM072000 07007KT P6SM BKN100 TEMPO 0720/0803 P6SM VCTS BKN080CB FM080300 05007KT P6SM SCT120 BECMG 0803/0805 VRB03KT RMK NXT FCST BY 080100Z", "TAF CYXE 071740Z 0718/0818 04006KT P6SM BKN060 FM072100 06010KT P6SM SCT060 FM080600 12008KT P6SM SKC BECMG 0814/0816 30012KT RMK NXT FCST BY 080000Z", "TAF CYXH 071740Z 0718/0806 26006KT P6SM BKN110 TEMPO 0718/0721 P6SM -SHRA FM072100 09006KT P6SM BKN090 TEMPO 0721/0806 VRB15G25KT P6SM -SHRA VCTS BKN080CB RMK NXT FCST BY 080000Z", "TAF CYXJ 071840Z 0719/0807 10006KT P6SM FEW080 BKN220 TEMPO 0719/0724 5SM FU FM080300 VRB03KT P6SM SKC TEMPO 0803/0807 2SM FU RMK NXT FCST BY 080100Z", "TAF CYXL 071940Z 0720/0808 32010G20KT P6SM BKN050 TEMPO 0720/0802 SCT050 BECMG 0723/0801 34008KT FM080200 VRB03KT P6SM BKN060 RMK NXT FCST BY 080200Z", "TAF CYXS 071840Z 0719/0807 34005KT P6SM FEW120 FM080000 VRB03KT P6SM SCT100 TEMPO 0800/0804 P6SM VCTS SCT100CB RMK FCST BASED ON AUTO OBS. NXT FCST BY 080100Z", "TAF CYXT 071840Z 0719/0807 36008KT P6SM FEW090 BKN120 BKN230 FM072000 36008KT P6SM BKN100 TEMPO 0720/0804 VRB15G25KT P6SM -SHRA VCTS BKN080CB RMK NXT FCST BY 080100Z", "TAF CYXU 071740Z 0718/0818 33012KT P6SM SKC BECMG 0723/0801 32005KT FM081100 VRB03KT P6SM BKN160 BKN240 FM081400 17006KT P6SM BKN070 OVC220 RMK NXT FCST BY 080000Z", "TAF CYXX 071740Z 0718/0818 23008KT P6SM SCT140 SCT220 TEMPO 0718/0720 BKN140 BKN220 FM072100 22010KT P6SM FEW120 SCT220 BECMG 0803/0805 VRB03KT FM080500 VRB03KT P6SM BKN120 TEMPO 0805/0808 P6SM -SHRA VCTS BKN100CB FM080800 VRB03KT P6SM SCT080 BKN120 TEMPO 0808/0812 P6SM -SHRA BKN080 BKN120 FM081200 VRB03KT P6SM SCT120 SCT220 BECMG 0815/0817 24006KT RMK NXT FCST BY 080000Z", "TAF CYXY 071740Z 0718/0818 16015KT P6SM SCT250 FM080600 16010KT P6SM SKC RMK NXT FCST BY 080000Z", "TAF CYXZ 071940Z 0720/0724 23008KT P6SM SKC RMK NXT FCST BY 081300Z", "TAF CYYB 071940Z 0720/0808 VRB03KT P6SM SCT030 BKN070 TEMPO 0720/0721 BKN030 BKN070 FM072100 27005KT P6SM SCT030 FM080200 27005KT P6SM FEW200 BECMG 0802/0804 VRB03KT RMK NXT FCST BY 080200Z", "TAF CYYC 072040Z 0721/0818 10010KT P6SM BKN060 TEMPO 0721/0803 VRB15G25KT P6SM -SHRA VCTS BKN050CB FM080300 02005KT P6SM FEW060 SCT100 FM080900 32005KT P6SM FEW080 FM081700 18007KT P6SM SKC RMK NXT FCST BY 080000Z", "TAF CYYD 071840Z 0719/0806 VRB03KT 6SM FU BKN120 TEMPO 0719/0720 P6SM NSW SCT120 FM072000 VRB03KT P6SM BKN080 TEMPO 0720/0806 6SM -SHRA VCTS FU BKN060CB RMK NXT FCST BY 080100Z", "TAF CYYE 071840Z 0719/0807 VRB03KT P6SM FEW220 TEMPO 0719/0807 5SM FU RMK NXT FCST BY 080100Z", "TAF AMD CYYF 072050Z 0720/0807 36008KT P6SM SCT070 BKN140 OVC240 TEMPO 0720/0723 VRB15G30KT 4SM TSRA BKN070CB OVC140 FM072300 36008KT P6SM SCT070 SCT120 TEMPO 0723/0807 VRB15G30KT P6SM VCTS BKN070CB BKN120 RMK NXT FCST BY 080100Z", "TAF CYYG 071745Z 0718/0806 VRB03KT P6SM FEW015 SCT230 BECMG 0722/0724 22010KT FM080200 22010KT P6SM FEW008 PROB30 0805/0806 3SM BR BKN008 RMK NXT FCST BY 080000Z", "TAF AMD CYYH 072118Z 0721/0806 05010KT P6SM SCT015 BKN030 TEMPO 0721/0724 P6SM -SHRA BKN020 BECMG 0722/0724 06015KT FM080000 06015KT P6SM FEW020 BKN060 TEMPO 0800/0806 3SM BR RMK NXT FCST BY 080000Z", "TAF CYYJ 071740Z 0718/0818 12006KT P6SM FEW030 BKN210 BECMG 0719/0721 12010KT FM080200 VRB03KT P6SM VCSH BKN100 FM081000 VRB03KT P6SM FEW100 SCT220 BECMG 0815/0817 12008KT RMK NXT FCST BY 080000Z", "TAF CYYL 071840Z 0719/0807 32015G25KT P6SM BKN080 TEMPO 0719/0724 P6SM -SHRA VCTS BKN060CB RMK FCST BASED ON AUTO OBS. NXT FCST BY 080100Z", "TAF CYYN 071740Z 0718/0806 VRB03KT P6SM BKN080 TEMPO 0718/0802 P6SM VCTS BKN060CB BECMG 0718/0720 32012KT RMK FCST BASED ON AUTO OBS. NXT FCST BY 080000Z", "TAF CYYQ 071740Z 0718/0818 34008KT P6SM SCT040 BKN080 TEMPO 0718/0723 P6SM -SHRA VCTS BKN040CB OVC080 FM072300 04008KT P6SM SCT060 BECMG 0800/0802 16008KT FM080800 16010KT P6SM BKN120 OVC200 FM081000 14006KT P6SM -SHRA BKN060 OVC120 TEMPO 0810/0814 5SM -SHRA BR SCT006 OVC040 FM081400 12012KT 6SM -SHRA OVC040 TEMPO 0814/0818 3SM -SHRA BR SCT006 OVC012 RMK NXT FCST BY 080000Z", "TAF CYYR 071740Z 0718/0824 06008KT P6SM FEW050 SCT280 FM080400 VRB03KT P6SM BKN080 BKN250 FM080900 19005KT P6SM -SHRA SCT020 BKN040 FM081300 VRB03KT P6SM -SHRA OVC040 PROB30 0815/0821 VRB15G30KT 2SM TSRA BR BKN008 OVC020CB FM082300 VRB03KT P6SM BKN020 OVC040 RMK NXT FCST BY 080000Z", "TAF AMD CYYT 072014Z 0720/0818 VRB03KT 1/4SM -DZ FG OVC002 TEMPO 0720/0724 6SM BR FEW002 SCT010 BKN020 FM080000 28005KT 1/4SM -DZ FG VV002 TEMPO 0800/0802 2SM BR BKN004 PROB30 0800/0802 1/8SM FG FM080200 28007KT 3/4SM -DZ BR OVC003 PROB30 0802/0810 1/8SM FG VV002 FM081000 28008KT 2SM -RA BR OVC005 PROB30 0810/0812 OVC003 FM081400 29008KT 3SM -RA BR OVC010 FM081600 29010KT P6SM BKN015 OVC040 RMK NXT FCST BY 080000Z", "TAF CYYU 071940Z 0720/0808 26008KT P6SM BKN060 FM072300 22008KT P6SM FEW060 FM080600 26005KT P6SM BKN060 RMK NXT FCST BY 080200Z", "TAF CYYY 071940Z 0720/0808 09008KT P6SM FEW030 BKN220 TEMPO 0720/0801 P6SM -SHRA BKN030 OVC120 PROB30 0723/0801 3SM TSRA BR BKN015 OVC040CB FM080100 24008KT P6SM SCT015 BKN040 TEMPO 0801/0808 5SM -SHRA BR SCT005 BKN015 PROB30 0803/0808 1SM BR BKN005 RMK NXT FCST BY 080200Z", "TAF CYYZ 072040Z 0721/0824 31012KT P6SM FEW030 FM080100 34008KT P6SM SKC FM081700 26010KT P6SM BKN120 BKN240 FM082200 22008KT P6SM BKN070 BKN120 OVC220 RMK NXT FCST BY 080000Z", "TAF CYZF 071740Z 0718/0818 24006KT P6SM FEW050 BKN080 BKN240 TEMPO 0718/0724 P6SM -SHRA BKN050 BKN080 BKN240 BECMG 0718/0720 30012KT FM080000 32012KT P6SM SCT140 SCT240 FM080600 32006KT P6SM FEW100 FEW280 FM081600 36006KT P6SM FEW080 RMK NXT FCST BY 080000Z", "TAF CYZH 071840Z 0719/0807 12010KT P6SM FEW240 FM080400 VRB03KT P6SM SKC RMK FCST BASED ON AUTO OBS. NXT FCST BY 080100Z", "TAF CYZP 071840Z 0719/0807 09008KT P6SM SKC RMK FCST BASED ON AUTO OBS. NXT FCST BY 080100Z", "TAF CYZR 071940Z 0720/0802 01010KT P6SM SKC BECMG 0800/0802 03005KT RMK FCST BASED ON AUTO OBS. NXT FCST BY 080800Z", "TAF AMD CYZS 072117Z 0721/0807 18010KT 1SM -RA BR OVC005 TEMPO 0721/0807 P6SM -RA OVC015 RMK NXT FCST BY 080100Z", "TAF AMD CYZT 072015Z 0720/0807 04005KT P6SM FEW120 BECMG 0722/0724 33008KT RMK NXT FCST BY 080100Z", "TAF CYZU 071840Z 0719/0723 08006KT P6SM FEW240 FM072100 12010KT P6SM SCT060 RMK NXT FCST BY 081400Z", "TAF AMD CYZV 072110Z 0721/0818 09010KT P6SM SCT004 SCT007 OVC012 TEMPO 0721/0802 BKN004 OVC010 FM080200 VRB03KT 1SM -DZ BR BKN004 BKN020 PROB40 0802/0812 1/2SM -DZ FG VV002 FM081200 VRB03KT P6SM BKN050 FM081500 VRB03KT P6SM FEW030 RMK NXT FCST BY 080000Z", "TAF CYZW 071740Z 0718/0801 18005KT P6SM SKC RMK NXT FCST BY 081500Z", "TAF CYZX 071740Z 0718/0818 28010KT P6SM FEW050 SCT250 BECMG 0722/0724 26005KT FM080300 VRB03KT P6SM SCT008 SCT250 TEMPO 0803/0808 BKN008 FM080800 VRB03KT 1SM BR BKN004 FM081100 VRB03KT P6SM SCT004 SCT250 FM081400 29010KT P6SM BKN250 RMK NXT FCST BY 080000Z", "TAF CYZY 071840Z 0719/0807 32005KT P6SM FEW060 SCT080 TEMPO 0719/0807 P6SM -SHRA VCTS BKN060CB RMK FCST BASED ON AUTO OBS. NXT FCST BY 080100Z", "TAF AMD CZBF 072114Z 0721/0803 35008G18KT P6SM -SHRA SCT020 BKN030 OVC070 TEMPO 0721/0723 2SM +TSRAGR BR BKN020 OVC040CB FM072300 VRB03KT P6SM FEW008 BKN080 TEMPO 0723/0803 5SM -SHRA BR SCT008 BKN030 PROB40 0723/0803 VRB12G22KT 2SM TSRA BR SCT006 BKN008 OVC040CB RMK FCST BASED ON AUTO OBS. NXT FCST BY 080900Z", "TAF CZFA 071740Z 0718/0801 VRB03KT P6SM SKC RMK NXT FCST BY 081500Z", "TAF CZFM 071840Z 0719/0723 33005KT P6SM SCT080 BKN100 TEMPO 0719/0723 P6SM -SHRA BKN080 RMK NXT FCST BY 081500Z", "TAF CZMT 071840Z 0719/0724 32008KT P6SM SKC RMK NXT FCST BY 081400Z", "TAF CZUM 071940Z 0720/0808 VRB03KT P6SM SCT060 TEMPO 0720/0722 VRB15G25KT 2SM TSRA BR OVC060CB FM072200 VRB03KT P6SM SCT060 TEMPO 0722/0802 P6SM -SHRA BKN060 PROB30 0722/0802 VRB15G25KT 2SM TSRA BR OVC060CB FM080200 VRB03KT P6SM BKN060 TEMPO 0802/0808 P6SM -SHRA BECMG 0804/0806 31008KT RMK FCST BASED ON AUTO OBS. NXT FCST BY 080200Z", "TAF CZVL 071740Z 0718/0806 VRB03KT P6SM SCT240 BECMG 0718/0720 07008KT FM072100 08010KT P6SM SCT060 FM080300 VRB03KT P6SM SKC RMK FCST BASED ON AUTO OBS. NXT FCST BY 080000Z", "TAF DAAD 071700Z 0718/0803 22014KT 1500 DRSA SCT030 SCT200 BECMG 0719/0721 16014KT 4000 SA", "TAF DAAE 071700Z 0718/0818 13015KT 8000 FEW016 SCT090 PROB40 TEMPO 0718/0724 13015G25KT FEW023TCU PROB30 TEMPO 0718/0724 4000 -TSRA FEW020CB", "TAF DAAG 071700Z 0718/0818 06005KT 6000 SCT026 FEW030CB BKN070 TEMPO 0718/0721 TS PROB30 0718/0722 4000 HZ PROB40 0800/0806 4000 BR BKN010", "TAF DAAJ 071700Z 0718/0818 02010KT CAVOK", "TAF DAAP 072000Z 0721/0806 08008KT CAVOK", "TAF DAAS 071700Z 0718/0818 20014KT 9999 FEW026 SCT090 PROB40 TEMPO 0718/0724 20015G25KT FEW030TCU PROB30 TEMPO 0718/0724 4000 -TSRA FEW023CB", "TAF DAAT 071700Z 0718/0818 36015KT 9999 FEW040 SCT100 TEMPO 0718/0720 36016G30KT SCT046TCU BECMG 0720/0722 VRB02KT", "TAF DAAV 071700Z 0718/0818 13015KT 8000 FEW016 SCT090 PROB40 TEMPO 0718/0724 13015G25KT FEW023TCU PROB30 TEMPO 0718/0724 4000 -TSRA FEW020CB", "TAF DAAY 072000Z 0721/0806 20025KT 6000 SCT030 SCT100 TEMPO 0721/0724 20025G35KT 2000 BLSA BECMG 0801/0803 14012KT", "TAF DABB 071700Z 0718/0818 18008KT CAVOK TEMPO 0718/0724 02012KT FEW026CB", "TAF DABC 071700Z 0718/0818 23015KT 9999 FEW030 SCT090 PROB40 TEMPO 0718/0724 23015G25KT FEW030TCU PROB30 TEMPO 0718/0724 4000 -TSRA FEW026CB BECMG 0720/0722 35008KT", "TAF DABS 071700Z 0718/0818 21014KT CAVOK PROB40 TEMPO 0718/0724 21015G25KT FEW030TCU PROB30 TEMPO 0718/0724 4000 -TSRA FEW026CB BECMG 0720/0722 31008KT", "TAF DABT 071700Z 0718/0818 20014KT 9999 FEW026 SCT090 PROB40 TEMPO 0718/0724 20016G26KT FEW030TCU PROB30 TEMPO 0718/0724 4000 -TSRA FEW026CB", "TAF DAFH 071700Z 0718/0803 16014KT CAVOK", "TAF DAOB 071700Z 0718/0818 19025KT 6000 SCT030 SCT100 TEMPO 0718/0723 20025G35KT 3000 DRSA BECMG 0722/0801 VRB02KT BECMG 0809/0812 19020KT PROB40 TEMPO 0810/0815 19020G30KT 3000 DRSA FEW026CB", "TAF DAOF 072000Z 0721/0806 30012KT 8000 NSC", "TAF DAOI 071700Z 0718/0818 34018KT 8000 SCT030 BKN233 BECMG 0719/0721 34008KT", "TAF DAON 071700Z 0718/0818 01006KT 8000 FEW026 SCT100 BECMG 0718/0720 31010KT PROB30 TEMPO 0718/0723 FEW026TCU BECMG 0720/0723 VRB02KT PROB40 TEMPO 0805/0809 3000 BR BKN015 BECMG 0809/0812 01014KT", "TAF DAOO 071700Z 0718/0818 33010KT 8000 SCT030 SCT100 BECMG 0720/0723 VRB02KT PROB40 TEMPO 0803/0807 5000 BR BKN015 BECMG 0808/0812 35012KT", "TAF DAOR 072000Z 0721/0806 18008KT 6000 SCT033 PROB30 0721/0724 4000 DU", "TAF DAOV 072000Z 0721/0806 10008KT 6000 FEW030 SCT100 TEMPO 0721/0801 FEW026CB", "TAF DATM 071700Z 0718/0803 34008KT 4000 SA FEW046 PROB30 TEMPO 0718/0721 VRB15G25KT TS FEW040CB", "TAF DAUA 071700Z 0718/0818 02006KT CAVOK BECMG 0720/0722 08010KT PROB40 0802/0810 10020KT DRSA", "TAF DAUB 071700Z 0718/0818 13015KT CAVOK PROB30 TEMPO 0718/0724 FEW030TCU PROB40 TEMPO 0718/0724 13020G35KT 2000 DRSA", "TAF DAUG 071700Z 0718/0818 14012KT CAVOK BECMG 0801/0803 VRB02KT", "TAF DAUH 071700Z 0718/0818 14010KT CAVOK PROB30 TEMPO 0718/0722 14015G25KT", "TAF DAUI 071700Z 0718/0818 10010KT 8000 NSC PROB40 0720/0810 10015G30KT 4000 DRSA", "TAF DAUK 072000Z 0721/0806 14008KT CAVOK", "TAF DAUL 072000Z 0721/0806 20012KT 8000 NSC", "TAF DAUO 072000Z 0721/0806 VRB02KT CAVOK", "TAF DAUT 072000Z 0721/0806 06010KT CAVOK", "TAF DAUU 072000Z 0721/0806 14008KT CAVOK", "TAF DAUZ 071700Z 0718/0818 08015KT CAVOK BECMG 0719/0721 VRB02KT", "TAF DBBB 071700Z 0718/0824 22012KT 9999 SCT012 TEMPO 0721/0801 BKN010", "TAF DFFD 071700Z 0718/0824 24008KT 9999 SCT023 TEMPO 0718/0802 09025G45KT 2500 SQ BLSA TSRA SCT023 SCT033CB TEMPO 0816/0824 4000 TSRA SCT020 SCT033CB", "TAF DFOO 071700Z 0718/0818 24008KT 9999 SCT020 TEMPO 0718/0802 4000 TSRA SCT020 SCT030CB", "TAF DGAA 071700Z 0718/0824 20008KT 9999 SCT012 PROB30 TEMPO 0718/0722 8000 -RA BKN010 BECMG 0803/0805 27005KT PROB30 TEMPO 0806/0810 8000 -RA BECMG 0812/0814 19012KT", "TAF DGLE 070500Z 0706/0806 23005KT 9999 FEW015 PROB30 TEMPO 0718/0722 5000 TSRA BKN010 FEW030CB", "TAF DGSI 071100Z 0712/0812 23010KT 9999 SCT015 PROB30 TEMPO 0716/0720 6000 TSRA BKN010 FEW030CB BECMG 0800/0802 BKN012", "TAF DIAP 071754Z 0718/0824 24010KT 8000 SCT012 SCT020 PROB30 TEMPO 0812/0818 4000 RA BKN012", "TAF DIBK 071755Z 0718/0818 24004KT 9999 SCT013 PROB30 TEMPO 0805/0808 4000 BR PROB30 TEMPO 0815/0818 BKN013 FEW025CB", "TAF DIYO 071756Z 0718/0818 26004KT 9999 SCT013 PROB30 TEMPO 0805/0808 4000 BR PROB30 TEMPO 0815/0818 BKN013 FEW025CB", "TAF DNAA 071700Z 0718/0824 23010KT 9999 FEW011 FEW020CB TEMPO 0718/0722 06014KT 5000 -TSRA BKN008 FEW018CB BECMG 0722/0724 VRB02KT FEW007 BECMG 0808/0810 23010KT SCT011 TEMPO 0815/0820 TS FEW020CB BECMG 0820/0822 VRB02KT FEW008", "TAF DNAK 071100Z 0712/0818 24010KT 9999 BKN013 TEMPO 0712/0718 TS SCT013 FEW020CB BECMG 0718/0720 VRB02KT SCT011 BECMG 0808/0810 25010KT BKN013", "TAF DNBE 071100Z 0712/0818 21010KT 9999 BKN012 TEMPO 0713/0718 TS BKN012 FEW020CB PROB30 0714/0718 5000 -TSRA BKN008 FEW018CB BECMG 0718/0720 VRB02KT SCT010 TEMPO 0805/0808 3000 BR BECMG 0808/0810 22010KT BKN012", "TAF DNGO 071700Z 0718/0824 24010KT 9999 FEW012 TEMPO 0718/0723 TS SCT011 FEW020CB TEMPO 0719/0800 5000 TSRA BKN011 FEW019CB", "TAF DNIB 071100Z 0712/0818 25010KT 9999 BKN013 PROB30 TEMPO 0714/0719 TS SCT013 FEW020CB BECMG 0719/0721 VRB02KT SCT011 BECMG 0808/0810 2300KT BKN013", "TAF DNIL 071700Z 0718/0824 22010KT 9999 SCT012 FEW020CB TEMPO 0718/0722 11015KT 3000 -TSRA BKN008 FEW018CB BECMG 0722/0724 FEW009 BECMG 0808/0810 20010KT BKN011 TEMPO 0815/0821 TS SCT012 FEW020CB BECMG 0821/0823 VRB02KT FEW009", "TAF DNJO 071700Z 0718/0824 VRB02KT 9999 TS BKN010 FEW019CB TEMPO 0721/0804 06018KT 5000 -TSRA BKN006 FEW015CB BECMG 0804/0807 NSW BECMG 0809/0812 23010KT BKN009 TEMPO 0815/0819 TS SCT011 FEW018CB BECMG 0819/0821 VRB02KT FEW007", "TAF DNKA 071700Z 0718/0824 26010KT 9999 BKN010 TEMPO 0718/0721 09018KT 5000 -TSRA BKN008 FEW019CB BECMG 0721/0723 VRB02KT FEW008 TEMPO0801/0806 05014KT -TSRA BKN007 FEW017CB BECMG 0710/0813 24010KT SCT012 TEMPO 0817/0822 TS SCT012 FEW020CB BECMG 0822/0824 13007KT FEW009", "TAF DNKN 071700Z 0718/0824 23008KT 9999 TS SCT012 FEW020CB TEMPO 0719/0724 5000 TSRA BKN011 FEW019CB BECMG 0805/0807 NSW FEW011", "TAF DNKT 071700Z 0718/0824 24008KT 9999 SCT012 TEMPO 0718/0723 TS SCT011 FEW020CB TEMPO 0719/0723 5000 TSRA BKN011 FEW019CB", "TAF DNMA 071700Z 0718/0824 22010KT 999 TS SCT012 FEW020CB TEMPO 0718/0723 5000 TSRA BKN011 FEW019CB BECMG 0804/0807 NSW FEW011", "TAF DNMM 071100Z 0712/0818 23010KT 9999 TS BKN009 FEW019CB BECMG 0713/0715 NSW BKN012 BECMG 0718/0720 VRB02KT SCT010 PROB30 0805/0807 5000 BR BECMG 0808/0810 22010KT BKN013", "TAF DNSO 071700Z 0718/0824 26010KT 9999 TS SCT012 FEW020CB TEMPO 0718/0724 5000 TSRA BKN011 FEW019CB BECMG 0805/0807 NSW FEW011", "TAF DNSU 071100Z 0712/0818 22010KT 9999 BKN012 TEMPO 0713/0718 TS BKN012 FEW020CB PROB30 0714/0718 5000 -TSRA BKN008 FEW018CB BECMG 0718/0720 VRB02KT SCT010 TEMPO 0805/0808 3000 BR BECMG 0808/0810 21010KT BKN012", "TAF DNYO 071700Z 0718/0824 27009KT 5000 TSRA BKN011 FEW019CB BECMG 0803/0805 9999 NSW SCT011", "TAF AMD DRRN 072050Z 0721/0824 20005KT 9999 FEW026 BECMG 0800/0802 TS SCT026 FEW035CB TEMPO 0803/0805 14025G40KT 0800 SQ BLDU TSRA FM080700 26010KT CAVOK", "TAF AMD DRZA 071950Z 0720/0818 22008KT CAVOK", "TAF AMD DRZR 071950Z 0720/0818 24008KT 9999 FEW033", "TAF DTKA 072100Z 0722/0807 VRB02KT 9999 FEW020", "TAF DTMB 071700Z 0718/0818 17016KT CAVOK BECMG 0719/0721 15006KT BECMG 0812/0814 12016KT", "TAF DTNH 071700Z 0718/0818 12015KT CAVOK PROB30 TEMPO 0718/0720 -TS FEW030CB BECMG 0720/0722 18008KT BECMG 0810/0812 09010KT BECMG 0816/0818 03010KT", "TAF DTTA 071700Z 0718/0818 12015G27KT 9999 FEW036 PROB30 TEMPO 0718/0720 -TSRA FEW030CB BECMG 0720/0722 15010KT BECMG 0800/0802 VRB03KT BECMG 0812/0814 06012KT", "TAF DTTB 072100Z 0722/0807 09010KT 9999 FEW020 BECMG 0800/0802 VRB03KT", "TAF DTTF 072100Z 0722/0807 19005KT CAVOK", "TAF DTTG 072100Z 0722/0807 11010KT CAVOK BECMG 0722/0724 VRB03KT", "TAF DTTJ 071700Z 0718/0818 12015KT CAVOK BECMG 0802/0804 13005KT BECMG 0816/0818 12015KT", "TAF DTTR 072100Z 0722/0807 09010KT CAVOK", "TAF DTTX 071700Z 0718/0818 15010KT CAVOK BECMG 0719/0721 17006KT BECMG 0800/0802 VRB03KT BECMG 0806/0808 16005KT PROB30 TEMPO 0815/0818 14015KT", "TAF DTTZ 071700Z 0718/0818 15005KT CAVOK BECMG 0721/0723 09010KT BECMG 0808/0810 18004KT", "TAF DXNG 071100Z 0712/0812 VRB05KT 9999 SCT006 PROB30 TEMPO 0716/0722 4000 TSRA BKN006 FEW016CB", "TAF DXXX 071700Z 0718/0824 20010KT 9999 FEW012 PROB30 TEMPO 0718/0721 TS BECMG 0800/0802 26006KT BECMG 0809/0811 20012KT", "TAF EBAW 072000Z 0721/0806 09004KT CAVOK", "TAF EBBE 071541Z 0719/0807 09005KT 9999 SKC TEMPO 0719/0721 FEW060", "TAF EBBL 071541Z 0719/0807 10004KT 9999 SKC", "TAF EBBR 071706Z 0718/0824 10008KT CAVOK BECMG 0816/0819 29010KT", "TAF EBCI 071706Z 0718/0824 13008KT CAVOK BECMG 0816/0819 29010KT", "TAF EBCV 071541Z 0719/0807 11006KT 9999 SKC BY EBWM", "TAF EBFN 071541Z 0719/0807 09006KT 9999 SKC", "TAF EBFS 071541Z 0719/0807 14005KT 9999 FEW060 SCT300", "TAF EBLG 071706Z 0718/0824 11007KT CAVOK", "TAF EBOS 071706Z 0718/0824 09010KT CAVOK BECMG 0811/0813 32014KT BECMG 0817/0820 29004KT", "TAF EDAC 071700Z 0718/0803 VRB03KT CAVOK", "TAF EDAH 071400Z 0715/0724 07005KT CAVOK", "TAF EDBC 071400Z 0715/0724 06004KT CAVOK", "TAF EDDB 071700Z 0718/0818 36004KT CAVOK BECMG 0803/0806 06005KT", "TAF EDDC 071700Z 0718/0818 04006KT CAVOK BECMG 0718/0721 14005KT BECMG 0809/0812 08005KT", "TAF EDDE 071700Z 0718/0818 06005KT CAVOK BECMG 0721/0723 24004KT BECMG 0807/0809 05006KT", "TAF EDDF 071700Z 0718/0824 05004KT CAVOK BECMG 0808/0810 11005KT BECMG 0811/0813 18006KT BECMG 0819/0821 VRB03KT", "TAF EDDG 071700Z 0718/0818 07004KT CAVOK BECMG 0808/0811 13006KT", "TAF EDDH 071700Z 0718/0824 01007KT CAVOK BECMG 0720/0722 08004KT BECMG 0804/0807 10009KT", "TAF EDDK 071700Z 0718/0824 09004KT CAVOK TEMPO 0809/0814 15009KT", "TAF EDDL 071700Z 0718/0824 06007KT CAVOK TEMPO 0802/0805 VRB03KT BECMG 0805/0808 15008KT TEMPO 0815/0819 24007KT", "TAF EDDM 071700Z 0718/0824 VRB03KT CAVOK", "TAF EDDN 071700Z 0718/0818 10004KT CAVOK", "TAF EDDP 071700Z 0718/0818 VRB03KT CAVOK", "TAF AMD EDDR 072129Z 0721/0818 07006KT CAVOK TEMPO 0721/0806 SHRA SCT050CB BECMG 0806/0808 18006KT", "TAF EDDS 071700Z 0718/0818 VRB03KT CAVOK BECMG 0805/0808 22005KT BECMG 0816/0818 VRB03KT", "TAF EDDV 071700Z 0718/0818 09005KT CAVOK BECMG 0809/0812 15008KT", "TAF EDDW 071700Z 0718/0818 05007KT CAVOK BECMG 0811/0814 12008KT BECMG 0816/0818 09003KT", "TAF EDFH 071700Z 0718/0818 12007KT CAVOK BECMG 0811/0813 18008KT", "TAF EDGS 071700Z 0718/0803 09006KT CAVOK", "TAF EDJA 071700Z 0718/0803 35004KT CAVOK", "TAF EDLN 072000Z 0721/0806 VRB03KT CAVOK", "TAF EDLP 071700Z 0718/0818 12006KT CAVOK TEMPO 0810/0814 12011KT", "TAF EDLV 071700Z 0718/0818 05005KT CAVOK BECMG 0806/0809 13007KT BECMG 0815/0817 23005KT", "TAF EDLW 071700Z 0718/0818 08006KT CAVOK", "TAF EDMA 071700Z 0718/0803 06005KT CAVOK", "TAF EDMO 071700Z 0718/0803 05008KT CAVOK", "TAF EDNY 071700Z 0718/0818 04004KT CAVOK BECMG 0809/0811 23005KT", "TAF EDQM 071700Z 0718/0803 18004KT CAVOK", "TAF EDSB 071700Z 0718/0818 VRB03KT CAVOK BECMG 0808/0811 23005KT", "TAF EDTL 071700Z 0718/0724 VRB03KT CAVOK", "TAF EDTY 071700Z 0718/0803 11007KT CAVOK BECMG 0718/0720 VRB02KT", "TAF EDVK 071700Z 0718/0803 06004KT CAVOK", "TAF EEEI 071730Z 0718/0818 23010KT 9999 SCT025 TEMPO 0719/0803 VRB02KT 3000 SHRA BR BKN004 BKN010 SCT020CB PROB40 TEMPO 0723/0803 TSRA BECMG 0803/0805 32012KT BKN012 TEMPO 0803/0810 5000 SHRA BKN006 FEW015CB TEMPO 0810/0818 31015G25KT 3000 SHRA BKN008 SCT015CB", "TAF EETN 071730Z 0718/0818 23007KT 9999 SCT012 SCT025CB BKN040 TEMPO 0723/0804 3000 SHRA BR BKN005 SCT015CB PROB40 TEMPO 0800/0804 TSRA PROB40 TEMPO 0804/0808 BKN010 BECMG 0804/0806 32010KT TEMPO 0808/0818 5000 SHRA PROB40 TEMPO 0812/0817 VRB20KT TSRA BKN010 BKN020CB", "TAF EFHK 072036Z 0721/0821 23005KT 9999 SCT023 PROB30 TEMPO 0800/0809 FEW025CB TEMPO 0809/0818 FEW025CB BECMG 0809/0811 30010KT PROB30 0809/0814 TS", "TAF EFJY 072036Z 0721/0821 23005KT 9999 FEW020 PROB30 TEMPO 0721/0722 SCT030CB TEMPO 0800/0807 FEW030CB PROB40 TEMPO 0800/0807 3000 BR BKN004 FEW020CB TEMPO 0807/0815 7000 TSRA SCT020CB PROB30 0815/0821 BKN009", "TAF AMD EFKU 072046Z 0721/0821 13002KT 9999 SCT020 TEMPO 0721/0724 TS BKN008 SCT025CB BECMG 0800/0803 3000 SHRA BR BKN006 SCT020CB BECMG 0803/0806 9999 -SHRA BKN015 TEMPO 0806/0812 TSRA BKN009 SCT020CB BECMG 0809/0812 05010KT TEMPO 0812/0817 BKN012", "TAF EFMA 072036Z 0721/0806 34002KT 9999 MIFG NSC TEMPO 0721/0804 2000 BCFG", "TAF EFOU 072033Z 0721/0821 04003KT CAVOK PROB40 0721/0724 TSRA SCT040CB", "TAF EFRO 072033Z 0721/0821 03008KT CAVOK", "TAF EFSI 072036Z 0721/0806 31003KT 9999 FEW030 TEMPO 0721/0724 SCT025CB PROB30 0800/0806 2000 BR BKN003", "TAF EFTP 072036Z 0721/0821 VRB02KT CAVOK PROB30 TEMPO 0721/0723 SCT030CB PROB40 TEMPO 0800/0804 2500 BR BKN003 PROB30 TEMPO 0804/0808 BKN008 FEW020CB PROB30 0808/0817 FEW030CB BECMG 0810/0812 34010KT", "TAF EFTU 072036Z 0721/0821 30003KT 9999 BKN025 PROB30 0801/0806 3000 BR BKN005 TEMPO 0808/0817 FEW025CB PROB40 TEMPO 0810/0817 4000 TSRA", "TAF EFVA 072033Z 0721/0821 32005KT CAVOK PROB40 0721/0724 1200 BR BKN003 TEMPO 0800/0806 5000 TSRA SCT030CB", "TAF EGAA 071705Z 0718/0818 17012KT 9999 FEW018 SCT030 TEMPO 0718/0719 17015G27KT BECMG 0720/0724 09012KT BECMG 0800/0804 11017G28KT BECMG 0806/0809 14022G38KT PROB30 TEMPO 0806/0809 7000 SHRA BKN012 BECMG 0809/0813 18013KT", "TAF EGBB 071654Z 0718/0818 17008KT CAVOK BECMG 0719/0722 11010KT PROB30 TEMPO 0802/0807 12015G25KT PROB40 TEMPO 0807/0817 13015G25KT 3000 +SHRA TSGS BKN040CB", "TAF AMD EGCC 072136Z 0722/0824 09009KT 9999 FEW040 PROB30 TEMPO 0722/0808 13015G25KT PROB40 TEMPO 0808/0820 VRB15G25KT 3000 +SHRA +TSRAGR PROB30 TEMPO 0816/0818 36008KT", "TAF EGCK 071957Z 0721/0806 VRB03KT 9999 SCT045 BECMG 0721/0723 13015KT PROB40 TEMPO 0722/0806 14017G27KT", "TAF EGFF 071654Z 0718/0818 12010KT 9999 FEW040 TEMPO 0806/0810 7000 -RA BKN012 PROB30 TEMPO 0806/0810 3000 +RA BKN008 BECMG 0808/0811 18008KT BECMG 0812/0815 27010KT", "TAF EGGD 071654Z 0718/0818 14010KT 9999 FEW040 PROB40 TEMPO 0800/0809 15015G25KT PROB30 TEMPO 0806/0809 3000 +SHRA TEMPO 0809/0812 7000 -RA BKN009 PROB30 TEMPO 0809/0811 4000 RA BKN004 BECMG 0815/0818 24010KT", "TAF AMD EGGP 071839Z 0718/0818 17012KT 9999 FEW040 BECMG 0718/0721 11012KT PROB30 TEMPO 0721/0801 12015G25KT PROB40 TEMPO 0808/0816 VRB15G25KT 3000 +SHRA +TSRAGR BECMG 0812/0815 33005KT PROB30 TEMPO 0816/0818 6000 SHRA", "TAF EGGW 071654Z 0718/0818 12012KT CAVOK BECMG 0805/0808 18010KT TEMPO 0811/0818 6000 RA SHRA PROB40 TEMPO 0811/0818 VRB17G27KT 2000 +SHRA +TSGR BKN040CB", "TAF EGHH 071954Z 0721/0724 09006KT CAVOK", "TAF EGHQ 071955Z 0721/0806 14015KT CAVOK PROB40 TEMPO 0721/0806 16016G30KT PROB30 TEMPO 0803/0806 BKN012", "TAF EGJA 071403Z 0715/0800 07011KT 9999 FEW049 PROB30 TEMPO 0715/0721 BKN045CB BECMG 0720/0722 13011KT", "TAF EGJB 072001Z 0721/0806 09010KT CAVOK BECMG 0723/0801 22008KT PROB40 TEMPO 0804/0806 6000 TSRA BKN060CB", "TAF EGJJ 072001Z 0721/0806 10010KT 9999 FEW045 PROB30 TEMPO 0721/0800 TS SCT045CB BECMG 0800/0802 19008KT PROB40 TEMPO 0804/0806 6000 TSRA BKN060CB", "TAF EGKK 071658Z 0718/0824 16010KT CAVOK BECMG 0718/0721 10003KT BECMG 0806/0809 21010KT PROB30 TEMPO 0806/0808 7000 RA TEMPO 0808/0814 6000 RA SHRA PROB40 TEMPO 0808/0812 VRB18G28KT 3000 +SHRA +TSGR BKN040CB PROB30 TEMPO 0814/0818 4000 +SHRA TS BECMG 0818/0821 VRB04KT", "TAF EGLL 071655Z 0718/0824 15010KT CAVOK BECMG 0720/0723 09006KT BECMG 0806/0809 20010KT TEMPO 0807/0814 6000 RA SHRA PROB40 TEMPO 0808/0814 VRB15G25KT 3000 +SHRA +TSGR BKN040CB PROB30 TEMPO 0814/0818 4000 +SHRA +TSGR BKN025CB BECMG 0818/0821 VRB03KT", "TAF EGMD 072004Z 0721/0806 08012KT 9999 FEW048 PROB30 TEMPO 0721/0724 10015G25KT BECMG 0803/0806 14006KT", "TAF EGNJ 071957Z 0721/0806 11012KT 9999 FEW045 PROB30 TEMPO 0721/0803 12015G25KT", "TAF AMD EGNM 072001Z 0720/0818 17008KT 9999 SCT040 BECMG 0720/0723 11010KT PROB40 TEMPO 0808/0818 VRB15G25KT 3000 +SHRA +TSRAGR BECMG 0812/0814 18008KT", "TAF EGNT 071657Z 0718/0818 13008KT 9999 SCT040 PROB40 TEMPO 0810/0818 VRB15G25KT 3000 +SHRA +TSRAGR", "TAF EGNX 071654Z 0718/0818 18010KT CAVOK BECMG 0718/0721 12011KT PROB30 TEMPO 0804/0808 13015G25KT PROB40 TEMPO 0808/0818 13015G25KT 3000 +SHRA TSGS BKN040CB", "TAF EGPA 071956Z 0721/0806 15012KT 9999 FEW030", "TAF EGPB 071956Z 0721/0806 13010KT 9999 FEW035", "TAF EGPC 071956Z 0721/0806 14009KT 9999 SCT035 PROB30 TEMPO 0722/0801 16015G25KT", "TAF EGPD 071657Z 0718/0818 16012KT 9999 FEW030 BECMG 0721/0724 10005KT PROB30 TEMPO 0802/0806 4000 BR BECMG 0809/0812 14015KT", "TAF EGPE 071956Z 0721/0806 08006KT 9999 FEW035", "TAF EGPF 071657Z 0718/0818 15009KT 9999 SCT045 BECMG 0719/0722 08010KT PROB30 TEMPO 0722/0809 08015G25KT BECMG 0809/0812 16009KT PROB30 TEMPO 0809/0812 16015G25KT TEMPO 0812/0818 7000 SHRA PROB30 TEMPO 0812/0818 4000 +TSRAGR", "TAF EGPH 071657Z 0718/0818 21010KT 9999 FEW030 BECMG 0718/0721 05009KT PROB30 TEMPO 0809/0812 4000 +SHRA PROB40 0810/0813 16010KT TEMPO 0812/0818 7000 SHRA PROB30 TEMPO 0812/0818 4000 +TSRAGR", "TAF EGPK 071657Z 0718/0818 16015KT 9999 FEW020 SCT045 BECMG 0718/0721 10007KT BECMG 0722/0801 11018G30KT BECMG 0806/0809 17018G28KT BECMG 0812/0815 14009KT TEMPO 0812/0818 7000 SHRA", "TAF EGPO 071956Z 0721/0806 16012KT 9999 FEW030 SCT040 TEMPO 0721/0724 16015G25KT BECMG 0800/0803 09015G28KT", "TAF EGQL 071941Z 0721/0806 08006KT 9999 SCT045", "TAF EGQS 071934Z 0721/0815 12006KT CAVOK PROB30 TEMPO 0804/0810 11015G25KT TEMPO 0810/0815 13015G25KT", "TAF EGSH 071953Z 0721/0806 10012KT CAVOK PROB30 TEMPO 0721/0805 12015G25KT", "TAF EGSS 071654Z 0718/0824 11011KT CAVOK BECMG 0806/0809 18010KT PROB40 TEMPO 0811/0817 VRB17G27KT 2000 +SHRA +TSGR BKN040CB PROB30 TEMPO 0817/0823 7000 SHRA BECMG 0819/0822 25007KT", "TAF EGSY 071954Z 0721/0806 13008KT CAVOK PROB30 TEMPO 0804/0806 9000 -RA", "TAF EGTE 071955Z 0721/0803 14011KT CAVOK", "TAF AMD EGUL 071516Z 0715/0819 17010G15KT 9999 FEW055 SCT140 QNH2992INS TX27/0716Z TN13/0805Z LAST NO AMDS AFT 0715 NEXT 1005", "TAF EGUN 072000Z 0720/0902 11008KT 9999 FEW040 SCT070 WS010/13023KT QNH2998INS BECMG 0800/0802 12010KT 9999 FEW015 SCT060 WS010/14029KT QNH2994INS BECMG 0807/0809 15012G18KT 8000 -SHRA VCTS FEW015 BKN060CB BKN120 QNH2994INS TEMPO 0811/0817 VRB20G30KT 4000 TSRAGS SCT020 BKN050CB OVC100 BECMG 0817/0818 21010KT 9000 -SHRA VCTS BKN013CB BKN024 OVC050 QNH2994INS BECMG 0900/0902 26007KT 9999 NSW SCT020 BKN030 QNH3001INS TX24/0810Z TN13/0804Z", "TAF AMD EGVA 071800Z 0718/0818 16010G15KT 9999 FEW020 SCT045 QNH2994INS BECMG 0719/0720 14012KT 9999 FEW050 QNH2984INS BECMG 0806/0807 VRB06KT 9000 -SHRA FEW010 SCT015 BKN020 QNH2990INS BECMG 0807/0808 16015G25KT 9000 -TSRA FEW015 BKN030CB QNH2992INS BECMG 0814/0815 20010G15KT 9999 VCSH FEW015 BKN030 QNH2996INS BECMG 0817/0818 21012KT 9999 NSW BKN035 BKN050 510013 QNH2998INS TX27/0718Z TN11/0804Z LAST NO AMDS AFT 0718 NEXT 1004", "TAF EGVN 071937Z 0721/0821 16008KT CAVOK PROB30 TEMPO 0805/0809 7000 SHRA SCT070CB TEMPO 0809/0813 4000 SHRA BKN050CB PROB40 TEMPO 0809/0813 20015G25KT 3000 +SHRA SCT018 BKN050CB PROB30 TEMPO 0813/0819 4000 SHRA BKN020CB", "TAF EGVO 071344Z 0715/0803 15011KT CAVOK", "TAF EGWU 071956Z 0721/0815 14006KT CAVOK TEMPO 0808/0814 7000 SHRA PROB30 TEMPO 0808/0814 22015G25KT 3000 +TSRAGS BKN060CB PROB30 TEMPO 0814/0815 6000 SHRA SCT022TCU", "TAF EGXC 071925Z 0721/0815 10010KT CAVOK TEMPO 0810/0815 7000 SHRA BKN030CB PROB40 TEMPO 0811/0815 15015G30KT 2000 +TSRA TSGR BKN018CB", "TAF EGXW 071341Z 0715/0809 16012KT CAVOK", "TAF EGYP 071919Z 0721/0815 21012KT 9999 BKN025 PROB30 TEMPO 0721/0724 BKN018 BECMG 0722/0801 25015KT PROB30 TEMPO 0803/0810 26015G25KT 4000 -SHSN SCT012 PROB40 TEMPO 0810/0812 3000 SHRASN BKN010 PROB30 TEMPO 0810/0814 26015G25KT 1500 SHSN BKN004 PROB30 TEMPO 0814/0815 24015G25KT 4000 -SHSN SCT012", "TAF EHAM 071656Z 0718/0824 09010KT CAVOK BECMG 0816/0818 27007KT", "TAF EHBK 071656Z 0718/0824 09007KT CAVOK PROB30 TEMPO 0814/0818 VRB15G25KT 6000 TSRA FEW060CB", "TAF EHEH 071716Z 0718/0824 08005KT CAVOK BECMG 0810/0813 21007KT PROB30 TEMPO 0814/0820 VRB15G30KT 4000 SHRA TSRA SCT080CB BECMG 0820/0822 VRB03KT", "TAF EHGG 071656Z 0718/0824 09007KT CAVOK BECMG 0813/0816 VRB02KT", "TAF EHKD 071605Z 0717/0805 09009KT CAVOK", "TAF EHLE 071656Z 0718/0824 09010KT CAVOK BECMG 0819/0821 23008KT", "TAF EHLW 072022Z 0721/0809 09008KT CAVOK", "TAF EHRD 071656Z 0718/0824 09010KT CAVOK BECMG 0814/0817 27007KT", "TAF EHVK 072021Z 0721/0809 07006KT CAVOK", "TAF AMD EICK 072107Z 0721/0818 13022KT 9999 FEW005 BKN020 BECMG 0723/0801 14022G35KT 4000 -RA BKN005 TEMPO 0801/0805 2000 RA BKN002 BECMG 0804/0806 20025G40KT 9999 NSW BKN018 BECMG 0807/0809 23018G30KT BECMG 0810/0812 20012KT", "TAF EIDL 071700Z 0718/0803 16015KT 9999 BKN030 TEMPO 0718/0803 15018G30KT", "TAF AMD EIDW 071925Z 0719/0818 13009KT 9999 FEW030 BECMG 0802/0804 14016G28KT PROB30 TEMPO 0804/0807 -RA BKN012 BECMG 0805/0807 17016G28KT BECMG 0807/0809 20016G28KT BECMG 0809/0811 20013KT", "TAF EIKN 071700Z 0718/0818 14016G28KT 9999 SCT024 BECMG 0721/0723 11016G28KT BECMG 0804/0806 13020G38KT TEMPO 0806/0809 -RA BKN012 PROB40 TEMPO 0806/0809 4000 RA BKN007 BECMG 0807/0809 20022G40KT BECMG 0809/0811 20018G30KT BECMG 0812/0814 20012KT", "TAF EIKY 071700Z 0718/0803 15015KT 9999 BKN030 TEMPO 0718/0724 14020G32KT TEMPO 0719/0803 -RA BKN012 PROB40 TEMPO 0722/0724 4000 RA BKN007", "TAF EIME 072000Z 0721/0806 11010KT 9999 FEW030 BECMG 0801/0803 14015G25KT TEMPO 0803/0806 16020G35KT -RA BKN012", "TAF EINN 071700Z 0718/0818 15018KT 9999 FEW022 BKN030 TEMPO 0718/0806 14022G32KT TEMPO 0803/0807 -RA BKN012 PROB40 TEMPO 0803/0807 4000 RA BECMG 0806/0808 21022G40KT BECMG 0808/0810 21018G30KT BECMG 0810/0812 19010KT", "TAF EISG 072000Z 0721/0806 12010KT 9999 FEW020 SCT045 TEMPO 0721/0806 14018G28KT", "TAF EIWF 072000Z 0721/0806 13015KT 9999 SCT010 BKN045 TEMPO 0721/0804 15018G28KT BKN007 BECMG 0804/0806 20022G35KT TEMPO 0804/0806 2500 -RA BKN004", "TAF EKAH 071707Z 0718/0818 VRB02KT CAVOK BECMG 0810/0813 16012KT", "TAF EKBI 071707Z 0718/0818 VRB02KT CAVOK PROB40 TEMPO 0723/0805 1200 BCFG BECMG 0813/0815 13012KT", "TAF EKCH 071707Z 0718/0818 VRB03KT CAVOK TEMPO 0810/0816 18012KT", "TAF EKKA 072004Z 0721/0821 VRB03KT 9999 FEW220 PROB40 0722/0805 1200 BCFG BECMG 0819/0821 09008KT", "TAF EKRK 072004Z 0721/0806 VRB03KT 9999 FEW045", "TAF EKRN 072004Z 0721/0806 23005KT 9999 FEW200", "TAF EKSP 072004Z 0721/0821 VRB03KT 9999 FEW050 PROB40 0800/0805 1200 BCFG BECMG 0806/0809 11008KT", "TAF EKYT 072004Z 0721/0821 26005KT 9999 FEW220 PROB40 0723/0805 1200 BCFG BECMG 0809/0812 VRB04KT", "TAF ELLX 071700Z 0718/0824 08006KT CAVOK BECMG 0809/0811 20010KT PROB30 TEMPO 0814/0820 VRB15G25KT 6000 SHRA SCT050CB BECMG 0820/0822 08006KT", "TAF ENAL 071400Z 0715/0723 33008KT 9999 FEW015 SCT050", "TAF ENAN 071700Z 0718/0818 30006KT CAVOK PROB30 0806/0818 0300 FG VV001", "TAF ENBN 072000Z 0721/0806 33006KT 9999 BKN006 PROB40 0721/0806 0300 FG VV002", "TAF ENBO 071700Z 0718/0818 27010KT 6000 VV003 TEMPO 0718/0809 0200 FG VV001 BECMG 0808/0811 BKN012", "TAF ENBR 071700Z 0718/0818 13005KT 9999 SCT045 BKN070", "TAF ENBV 071400Z 0715/0723 04008KT 9999 BKN012 TEMPO 0715/0723 BKN016", "TAF ENDU 071700Z 0718/0818 30005KT 9999 FEW050CB SCT060 BECMG 0721/0724 FEW060", "TAF ENEV 071700Z 0718/0818 23005KT 9999 SCT040 TEMPO 0718/0724 FEW050TCU PROB30 TEMPO 0800/0806 BKN004", "TAF ENFL 072000Z 0721/0806 33008KT 9999 FEW040 SCT080", "TAF ENGC 072000Z 0721/0821 16022KT 9999 FEW010 BKN030 PROB40 TEMPO 0721/0804 4000 BR BKN005 BECMG 0801/0803 15012KT", "TAF ENGM 071700Z 0718/0818 VRB05KT 9999 FEW030TCU BKN060 PROB30 TEMPO 0718/0719 4000 TSRA SCT025CB BKN040 BECMG 0721/0723 36010KT BECMG 0811/0813 30005KT TEMPO 0812/0817 FEW040CB SCT060", "TAF ENHD 071400Z 0715/0723 12008KT 9999 FEW020 SCT060", "TAF ENHE 072000Z 0721/0806 01008KT 9999 OVC015 TEMPO 0721/0806 BKN012", "TAF ENHF 072000Z 0721/0806 05008KT CAVOK", "TAF ENKR 072000Z 0721/0806 06008KT 9999 FEW015 PROB40 0721/0806 BKN008", "TAF ENLE 072000Z 0721/0806 16018KT CAVOK", "TAF ENML 071700Z 0718/0723 24008KT 9999 FEW010 BKN040", "TAF ENNA 071700Z 0718/0818 35006KT CAVOK PROB40 0800/0806 BKN006", "TAF ENOA 072000Z 0721/0821 14022KT 9999 FEW008 BKN030 TEMPO 0721/0803 4000 BR BKN005 BECMG 0801/0803 15012KT", "TAF ENOL 071700Z 0718/0818 33008KT 9999 FEW008 BKN015 TEMPO 0721/0809 SCT007 BKN010", "TAF ENRY 071700Z 0718/0818 VRB05KT CAVOK TEMPO 0812/0817 FEW040CB SCT060 BECMG 0813/0815 21010KT", "TAF ENSB 071700Z 0718/0818 25015KT 9999 VCFG FEW001 PROB40 TEMPO 0721/0818 2000 BR BKN003", "TAF ENTC 071700Z 0718/0818 04012KT 9999 FEW060 TEMPO 0718/0721 FEW040TCU BECMG 0721/0724 VRB03KT BECMG 0809/0812 02010KT", "TAF ENTO 071700Z 0718/0818 22010KT CAVOK BECMG 0720/0722 35005KT TEMPO 0812/0817 FEW040CB SCT060 BECMG 0813/0815 20010KT", "TAF ENVA 071700Z 0718/0818 27008KT 9999 BKN030 PROB40 0800/0806 BKN012", "TAF AMD ENVD 071916Z 0719/0723 11006KT 9999 FEW012 TEMPO 0719/0723 BKN010", "TAF ENZV 071700Z 0718/0818 18006KT 9999 FEW040 BKN060", "TAF EPBY 071730Z 0718/0818 VRB03KT CAVOK BECMG 0807/0809 33008KT", "TAF EPCE 071700Z 0718/0806 30005KT CAVOK BECMG 0718/0720 VRB03KT", "TAF EPDA 071700Z 0718/0806 33004KT CAVOK TEMPO 0718/0806 VRB02KT", "TAF EPDE 071100Z 0712/0724 02010KT CAVOK BECMG 0718/0720 VRB03KT", "TAF EPGD 071730Z 0718/0818 08010KT CAVOK BECMG 0718/0720 VRB02KT BECMG 0807/0809 31012KT PROB40 0812/0817 06010KT", "TAF EPIR 071100Z 0712/0724 31012KT CAVOK BECMG 0712/0714 VRB02KT", "TAF EPKK 072030Z 0721/0821 VRB02KT CAVOK", "TAF EPKS 071700Z 0718/0806 VRB02KT CAVOK", "TAF EPKT 071730Z 0718/0818 02010KT CAVOK BECMG 0718/0720 VRB02KT", "TAF EPLB 071730Z 0718/0818 35010KT CAVOK BECMG 0718/0720 VRB02KT BECMG 0808/0811 33010KT", "TAF EPLK 071700Z 0718/0806 VRB02KT CAVOK", "TAF EPLL 071730Z 0718/0818 35010KT CAVOK BECMG 0718/0720 VRB02KT BECMG 0808/0811 33010KT", "TAF EPLY 071700Z 0718/0806 VRB03KT CAVOK", "TAF EPMB 071700Z 0718/0806 03008KT CAVOK BECMG 0718/0721 18006KT", "TAF EPMI 071700Z 0718/0806 VRB03KT CAVOK BECMG 0804/0806 01005KT", "TAF EPMM 071700Z 0718/0806 36008KT CAVOK BECMG 0721/0723 VRB03KT", "TAF EPMO 071730Z 0718/0818 30010KT CAVOK BECMG 0718/0720 VRB02KT BECMG 0808/0810 28010KT", "TAF EPOK 071700Z 0718/0806 30010KT CAVOK BECMG 0718/0720 22007KT TEMPO 0719/0806 VRB03KT", "TAF EPPO 071730Z 0718/0818 02004KT CAVOK", "TAF EPPR 071100Z 0712/0724 26010KT CAVOK BECMG 0713/0715 02012KT BECMG 0717/0720 VRB02KT", "TAF EPPW 071700Z 0718/0806 VRB03KT CAVOK", "TAF EPRA 071730Z 0718/0803 VRB02KT CAVOK", "TAF EPRZ 071730Z 0718/0818 01010KT CAVOK BECMG 0718/0721 VRB02KT", "TAF EPSC 071730Z 0718/0818 VRB02KT CAVOK BECMG 0807/0809 03010KT", "TAF EPSN 071700Z 0718/0806 VRB03KT CAVOK BECMG 0803/0806 02005KT", "TAF EPSY 072030Z 0721/0806 VRB03KT CAVOK", "TAF EPTM 071100Z 0712/0724 33008KT CAVOK BECMG 0718/0720 VRB02KT", "TAF EPWA 072030Z 0721/0821 VRB02KT CAVOK BECMG 0808/0810 28010KT BECMG 0815/0818 34010KT", "TAF EPWR 072030Z 0721/0821 VRB02KT CAVOK", "TAF EPZG 072030Z 0721/0806 VRB02KT CAVOK", "TAF ESGG 072030Z 0721/0821 23005KT 9999 FEW025 PROB40 0800/0805 1400 BR", "TAF ESKN 072030Z 0721/0821 30006KT CAVOK PROB40 0814/0820 4000 SHRA BKN040CB", "TAF ESMS 072003Z 0721/0821 34004KT 9999 FEW040 TEMPO 0809/0816 32014KT", "TAF ESNU 072030Z 0721/0806 VRB02KT CAVOK", "TAF ESPA 072030Z 0721/0723 34006KT CAVOK", "TAF ESSA 072030Z 0721/0821 30005KT CAVOK PROB40 0803/0806 BKN006 TEMPO 0812/0819 SHRA BKN040CB PROB40 0812/0817 VRB15KT 4000 TSRA", "TAF ETAD 072100Z 0721/0903 10009KT 9999 FEW095 QNH3008INS BECMG 0808/0809 11009KT 9999 SCT060 SCT100 QNH3004INS TEMPO 0812/0816 8000 -SHRA BKN050 TX29/0815Z TN15/0803Z", "TAF AMD ETAR 072135Z 0721/0824 09009KT 9999 SKC QNH3008INS TEMPO 0721/0723 3200 TSRA BKN100CB TX31/0814Z TN06/0802Z", "TAF ETEB 071500Z 0715/0821 12009KT 9999 FEW070 QNH3012INS TX27/0715Z TN14/0804Z LAST NO AMDS AFT 0721 NEXT 1007", "TAF ETIC 071800Z 0718/0824 VRB03KT 9999 FEW080 QNH3016INS BECMG 0813/0814 12006KT 9999 FEW100 SCT200 QNH3015INS TX30/0815Z TN11/0803Z LAST NO AMDS AFT 0721 NEXT 1010", "TAF ETIK 072100Z 0721/0903 VRB06KT 9999 SKC QNH3009INS BECMG 0807/0808 11009KT 9999 FEW090 QNH3006INS BECMG 0815/0816 12006KT 9999 SKC QNH3007INS TX33/0815Z TN06/0803Z LAST NO AMDS AFT 0721 NEXT 1006", "TAF ETNG 071400Z 0715/0806 07007KT CAVOK", "TAF ETNL 071603Z 0717/0805 36008KT 9999 NSW SCT070 SCT300 BECMG 0719/0721 07004KT 9999 NSW FEW300 BY ETGL", "TAF ETNW 071603Z 0717/0817 07005KT 9999 NSW SCT280 BECMG 0807/0809 12008KT 9999 NSW SCT070 SCT280 BY ETGL", "TAF AMD ETOU 071900Z 0719/0818 VRB06KT 9999 FEW050 QNH3005INS BECMG 0802/0803 VRB06KT 9999 BKN090 QNH3010INS BECMG 0810/0811 09006KT 9999 SCT070 QNH3007INS TX32/0815Z TN15/0804Z LAST NO AMDS AFT 0719 NEXT 0812", "TAF ETSN 071913Z 0720/0805 02005KT 9999 NSW FEW300 BY ETGL", "TAF EVGA 072006Z 0721/0821 23005KT CAVOK TEMPO 0803/0806 SCT020CB BECMG 0807/0809 29010KT TEMPO 0810/0816 4000 -SHRA BKN015CB PROB40 TEMPO 0810/0816 TS", "TAF EVLA 072007Z 0721/0821 24010KT CAVOK TEMPO 0722/0807 BKN010 TEMPO 0807/0815 SCT015CB", "TAF EVRA 072003Z 0721/0821 22005KT CAVOK TEMPO 0800/0806 SCT020CB TEMPO 0806/0810 BKN012 TEMPO 0810/0815 4000 -SHRA BKN015CB PROB40 TEMPO 0810/0814 TS BECMG 0813/0815 34010KT", "TAF EVVA 071706Z 0718/0803 23010KT 9999 SCT020 TEMPO 0723/0803 4000 -SHRA BKN010 BKN015CB BECMG 0800/0802 29010KT", "TAF EYKA 071700Z 0718/0818 27006KT 9000 NSC TEMPO 0807/0818 BKN045", "TAF EYPA 071700Z 0718/0818 26006KT 9000 NSC TEMPO 0800/0806 SCT045", "TAF EYSA 072000Z 0721/0806 26006KT CAVOK", "TAF EYVI 071700Z 0718/0818 27006KT 9000 NSC TEMPO 0807/0818 BKN045", "TAF FABL 071600Z 0718/0818 34010KT CAVOK TX20/0812Z TN03/0803Z BECMG 0812/0814 26015KT", "TAF FACT 071600Z 0718/0824 30015KT 9999 BKN020 TX14/0816Z TN09/0805Z PROB40 TEMPO 0802/0804 4000 RA PROB40 TEMPO 0809/0815 4000 RA BECMG 0813/0815 24012KT BECMG 0817/0819 34008KT", "TAF FAGG 071600Z 0718/0818 VRB03KT CAVOK TX16/0812Z TN10/0805Z BECMG 0722/0724 30013KT FM080700 30018KT 9999 BKN035 PROB40 TEMPO 0812/0815 4500 -SHRA", "TAF FALA 071600Z 0718/0818 VRB03KT CAVOK TX21/0812Z TN03/0805Z PROB30 TEMPO 0803/0806 5000 HZ NSC BECMG 0810/0812 31010KT BECMG 0816/0818 VRB03KT", "TAF FALE 071600Z 0718/0824 VRB03KT CAVOK TX28/0812Z TN14/0804Z BECMG 0806/0808 34010KT FM081400 19015KT 9999 SCT030", "TAF FAOR 071600Z 0718/0824 VRB03KT CAVOK TX19/0812Z TN07/0805Z BECMG 0808/0810 30012KT", "TAF FAPE 071600Z 0718/0818 24013KT CAVOK TX19/0810Z TN11/0804Z PROB30 TEMPO 0718/0721 24015G25KT BECMG 0809/0811 26020G30KT SCT045 TEMPO 0812/0818 26029G40KT PROB40 TEMPO 0812/0818 5000 SHRA FEW040TCU", "TAF FAPM 071800Z 0719/0806 35005KT CAVOK TX12/0806Z TN09/0803Z", "TAF FAUP 071600Z 0718/0818 35010KT CAVOK TX16/0813Z TN08/0803Z BECMG 0804/0806 24010KT BKN015", "TAF FBKE 071200Z 0715/0724 11010KT CAVOK", "TAF FCBB 071700Z 0718/0824 22004KT 7000 FEW020 PROB40 0719/0721 4000 HZ PROB40 0802/0808 4000 BR", "TAF FCPP 071700Z 0718/0818 18005KT 7000 FEW013 BKN023 BECMG 0722/0801 3000 BR BECMG 0807/0809 7000 NSW", "TAF FEFF 071700Z 0718/0824 00000KT 7000 -TSRA BKN008 FEW033CB BECMG 0717/0719 NSW TEMPO 0805/0807 2000 BR BECMG 0809/0811 BKN014 FEW033CB TEMPO 0814/0818 4000 TSRA", "TAF FGBT 071700Z 0718/0818 23008KT 9999 FEW010 PROB30 TEMPO 0812/0818 4500 DZRA BKN008", "TAF FGSL 071700Z 0718/0824 26008KT 9999 SCT010 PROB40 TEMPO 0802/0808 3000 TSRA BKN008 FEW016CB TEMPO 0810/0816 2000 TS +DZRA BKN008", "TAF FHAW 071825Z 0721/0815 14011KT 9999 FEW030 SCT040 PROB30 TEMPO 0721/0724 7000 -SHRA SCT024 PROB30 TEMPO 0803/0809 7000 -SHRA SCT024 ", "TAF FIMP 071720Z 0718/0900 15012G25KT 9999 SCT017", "TAF FIMR 071720Z 0718/0812 12017G27KT 9999 SCT018 PROB30 TEMPO 0806/0812 7000 -SHRA SCT016 BKN050", "TAF AMD FJDG 071937Z 0719/0823 VRB06KT 9000 -SHRA SCT020 BKN090 QNH2983INS TEMPO 0719/0805 01012G18KT 4800 SHRA TX30/0815Z TN25/0723Z", "TAF FKKD 071700Z 0718/0824 20005KT 9999 BKN013 FEW016CB TEMPO 0720/0723 3000 TSRADZ PROB30 TEMPO 0804/0808 2500 TSRADZ", "TAF FKYS 071700Z 0718/0818 29004KT 9999 SCT013 FEW020CB TEMPO 0718/0723 TS PROB30 0719/0721 4000 TSRA BECMG 0721/0723 BKN006 BECMG 0808/0810 BKN016", "TAF FLCP 071600Z 0718/0824 15005KT CAVOK BECMG 0803/0805 15010KT BECMG 0807/0809 09010G15KT 9999 FEW020 BECMG 0810/0812 09005KT BKN035", "TAF FLHN 071600Z 0718/0824 15005KT CAVOK FM071900 VRB03KT BECMG 0808/0810 09005KT FM081500 15005KT", "TAF FLKK 071600Z 0718/0824 13005KT CAVOK BECMG 0804/0806 09010G15KT BECMG 0807/0809 09010KT 9999 BKN020 BECMG 0811/0813 06005KT SCT040", "TAF FLKS 071600Z 0718/0824 15005KT CAVOK BECMG 0800/0802 VRB03KT BECMG 0807/0809 09010KT 9999 FEW020 BECMG 0810/0812 09005KT BKN040", "TAF FLMA 071600Z 0718/0824 15010G15KT CAVOK BECMG 0800/0802 15005KT BECMG 0807/0809 09010G20KT 9999 FEW020 BECMG 0811/0813 VRB03KT SCT040", "TAF FLMF 071600Z 0718/0824 15005KT CAVOK BECMG 0803/0805 15010KT BECMG 0807/0809 09010G15KT 9999 FEW020 BECMG 0810/0812 09005KT BKN035", "TAF FLSK 071600Z 0718/0824 15005KT CAVOK BECMG 0804/0806 9000 FU NSC BECMG 0807/0809 09010KT FEW020 BECMG 0811/0813 VRB03KT BKN040", "TAF FLSW 071600Z 0718/0824 13005KT CAVOK BECMG 0808/0810 09005KT 9999 FEW020 BECMG 0811/0813 VRB03KT BKN045 FM081500 15005KT CAVOK", "TAF FMCH 071700Z 0718/0824 12005KT 9999 FEW020 BECMG 0804/0806 20014KT BECMG 0816/0818 10005KT", "TAF FMCZ 071700Z 0718/0818 16008KT 9999 SCT023 TEMPO 0723/0806 12015KT", "TAF FMEE 071700Z 0718/0824 15012KT 9999 FEW030 SCT060 BECMG 0804/0806 12015G28KT BECMG 0812/0815 14013KT", "TAF FMMI 071700Z 0718/0824 13010KT 9999 FEW017 BKN020 PROB30 TEMPO 08 00/0809 4500 DZRA", "TAF FMMS 071700Z 0718/0818 14014KT 9999 SCT017 SCT033 PROB30 TEMPO 07 18/0803 4500 SHRA PROB30 TEMPO 0812/0818 4500 SHRA", "TAF FMMT 071700Z 0718/0818 20008KT 9999 SCT017 BKN033 PROB40 TEMPO 07 18/0808 4000 SHRA PROB30 TEMPO 0815/0818 4500 SHRA", "TAF FMNA 071700Z 0718/0818 14015G28KT 9999 SCT020", "TAF FMNM 071700Z 0718/0818 12011KT 9999 FEW023", "TAF FMNN 071700Z 0718/0818 VRB05KT 9999 FEW020", "TAF FMSD 071700Z 0718/0818 08007KT 9999 SCT016 BKN033 PROB30 TEMPO 07 21/0808 4000 SHRA BECMG 0805/0808 08017G27KT", "TAF FMST 071700Z 0718/0818 11009KT 9999 FEW023 BECMG 0808/0811 24011K T", "TAF FNBG 071100Z 0712/0724 30008KT 9000 NSC BECMG 0719/0722 VRB03KT CAVOK", "TAF FNCA 071100Z 0712/0724 20007KT 9000 SCT015 BKN040", "TAF FNCT 071100Z 0712/0724 28008KT 9999 SCT022 BECMG 0718/0720 VRB03KT CAVOK", "TAF FNDU 071100Z 0712/0724 VRB03KT 9000 NSC", "TAF COR FNGI 071100Z 0712/0724 05009KT 9000 FEW022", "TAF FNHU 071100Z 0712/0724 09005KT CAVOK", "TAF FNKU 071100Z 0712/0724 10005KT CAVOK", "TAF FNLU 071700Z 0718/0812 23011KT 9999 FEW022 TEMPO 0803/0808 VRB03KT 5000 BR BECMG 0810/0812 29008KT", "TAF FNMA 071100Z 0712/0724 11007KT 9000 FEW022", "TAF FNME 071100Z 0712/0724 07006KT CAVOK", "TAF FNMO 071100Z 0712/0724 28007KT CAVOK", "TAF FNSA 071100Z 0712/0724 12006KT CAVOK", "TAF FNSO 071100Z 0712/0724 18006KT 9000 SCT015 BKN022", "TAF FNUB 071100Z 0712/0724 08004KT 9999 FEW018", "TAF FNUE 071100Z 0712/0724 VRB03KT CAVOK", "TAF FOOG 071700Z 0718/0818 18010KT 8000 SCT008 BKN026", "TAF FOOL 071700Z 0718/0824 23007KT 9999 SCT012", "TAF FPST 071000Z 0712/0818 16010KT 999 FEW023 BKN040 BECMG 0713/0717 FEW020 SCT040", "TAF FQBR 071600Z 0718/0824 10007KT 9999 FEW020 TX27/0813Z TN17/0803Z BECMG 0800/0802 VRB02KT PROB30 TEMPO 0800/0806 0500 FG BKN005 BECMG 0806/0808 27006KT BECMG 0813/0815 09010KT", "TAF FQCH 071600Z 0718/0818 VRB02KT 9999 FEW020 TX23/0813Z TN12/0803Z PROB40 TEMPO 0802/0808 0500 FG BKN005 BECMG 0807/0809 36008KT BECMG 0813/0815 06010KT", "TAF FQIN 071600Z 0718/0818 06008KT 9999 FEW020 TX27/0813Z TN20/0803Z BECMG 0800/0802 36006KT BECMG 0812/0814 36013KT", "TAF FQLC 071600Z 0718/0818 09014KT 9999 FEW018 TX21/0813Z TN11/0803Z BECMG 0718/0720 10008KT CAVOK PROB30 TEMPO 0800/0806 0500 FG BKN005", "TAF FQMA 071600Z 0718/0824 36010KT 9999 SCT020 TX30/0813Z TN16/0803Z", "TAF FQNC 071600Z 0718/0824 16010KT 9999 FEW020 TX28/0813Z TN19/0803Z BECMG 0800/0802 24008KT BECMG 0812/0814 15012KT BECMG 0818/0820 17007KT", "TAF FQNP 071600Z 0718/0818 16008KT 9999 SCT020 TX27/0813Z TN17/0803Z BECMG 0800/0802 24007KT BECMG 0806/0808 16007KT BECMG 0812/0814 15012KT", "TAF FQPB 071600Z 0718/0818 18010KT 9999 FEW020 TX28/0813Z TN18/0803Z BECMG 0806/0808 24007KT", "TAF FQQL 071600Z 0718/0818 16007KT 9999 SCT020 TX28/0813Z TN21/0803Z BECMG 0718/0720 VRB02KT PROB30 TEMPO 0800/0806 0500 FG BKN005 BECMG 0806/0808 27006KT BECMG 0812/0814 10010KT", "TAF FQTT 071600Z 0718/0818 16007KT 9999 BKN020 TX30/0813Z TN16/0803Z BECMG 0800/0802 22006KT BECMG 0806/0808 16006KT BECMG 0812/0814 15012KT", "TAF FQVL 071600Z 0718/0818 10008KT 9999 FEW020 TX26/0813Z TN20/0803Z PROB30 TEMPO 0800/0806 0700 FG BKN005 BECMG 0806/0808 04006KT BECMG 0812/0814 03012KT", "TAF FQXA 071600Z 0718/0818 33008KT 9999 FEW020 TX30/0813Z TN15/0803Z BECMG 0812/0814 33015G25KT", "TAF FSIA 071103Z 0712/0812 12015G25KT 9999 FEW021 TEMPO 0720/0806 8000 SHRA FEW010 BKN018", "TAF FTTJ 071700Z 0718/0824 22014KT 6000 TS SCT026 FEW040CB TEMPO 0718/0721 3000 TSRA BECMG 0721/0723 NSW PROB30 TEMPO 0816/0820 4000 TSRA", "TAF FVJN 071600Z 0718/0824 VRB04KT CAVOK", "TAF FWCL 070900Z 0712/0818 12008KT 9999 BKN020 BECMG 0804/0806 10006KT 9999 FEW007 SCT070 BECMG 0809/0811 03007KT 9999 SCT020 BKN070", "TAF FWKI 071500Z 0718/0824 08012KT CAVOK BECMG 0807/0809 11010KT 9999 FEW020", "TAF FYGF 071700Z 0718/0803 07006KT CAVOK", "TAF FYKM 071700Z 0718/0803 09004KT 9999 FEW025", "TAF FYKT 071600Z 0718/0818 25006KT CAVOK PROB30 TEMPO 0804/0807 32005KT 9999 SCT025", "TAF FYLZ 071700Z 0718/0803 18007KT 9999 BKN025 TEMPO 0720/0803 OVC010", "TAF FYOA 071700Z 0718/0803 05006KT CAVOK", "TAF FYRU 071700Z 0718/0803 10006KT CAVOK", "TAF FYWB 071600Z 0718/0818 20007KT CAVOK BECMG 0720/0722 9999 BKN020 TEMPO 0723/0806 08007KT 0700 FG OVC007", "TAF FYWE 071700Z 0718/0803 33007KT CAVOK", "TAF FYWH 071600Z 0718/0818 34006KT CAVOK", "TAF FZAA 071700Z 0718/0824 22006KT 4000 BR FEW018 BECMG 0719/0721 7000 NSW TEMPO 0805/0809 3000 BR BKN014", "TAF FZIC 071100Z 0712/0818 16006KT 7000 SCT024 FEW034CB BECMG 0715/0717 00000KT NSC BECMG 0800/0802 1500 BR FM080600 25006KT 8000 BKN010 BECMG 0809/0811 SCT024 FEW034CB", "TAF FZNA 071100Z 0712/0818 18006KT 7000 SCT016 BECMG 0803/0805 4000 BR FM080900 2310KT 7000 SCT018", "TAF FZQA 071100Z 0712/0818 09008KT 9999 SCT024 BECMG 0715/0718 18010KT CAVOK BECMG 0805/0808 12015G20KT", "TAF GABS 071700Z 0718/0824 22008KT 9999 FEW020 PROB30 TEMPO 0718/0721 4500 -TSRA SCT020 FEW033CB PROB40 TEMPO 0721/0724 10020G40KT 4000 TSRA SQ SCT020 FEW033CB TEMPO 0800/0808 10020G45KT 3000 TSRA SQ BKN020 FEW033CB PROB40 TEMPO 0814/0822 VRB16G30KT 4000 TSRA BKN020 FEW033CB", "TAF GAGO 071700Z 0718/0818 26010KT 8000 FEW030 PROB30 TEMPO 0718/0722 TS SCT030 FEW040CB PROB40 TEMPO 0722/0805 VRB18G30KT 3000 TSRA BLDU SCT030 FEW040CB PROB40 TEMPO 0814/0818 TS SCT030 FEW040CB", "TAF GBYD 071700Z 0718/0824 20008KT 9999 BKN012 FEW018CB TEMPO 0805/0811 08012KT 4000 TSRA BECMG 0811/0813 SCT012", "TAF GCFV 072000Z 0721/0821 36014KT 9999 SCT025 TX28/0814Z TN21/0806Z BECMG 0809/0811 06014KT BECMG 0817/0820 36012KT", "TAF GCGM 072000Z 0721/0821 25004KT 9999 FEW025 TX26/0814Z TN20/0806Z", "TAF GCHI 072000Z 0721/0821 36016KT 9999 SCT025 TX26/0814Z TN22/0806Z", "TAF GCLA 072000Z 0721/0821 02010KT 9999 SCT025 TX25/0814Z TN21/0806Z TEMPO 0721/0808 32009KT", "TAF GCLP 072000Z 0721/0821 01019KT 9999 SCT025 TX27/0814Z TN22/0806Z PROB30 TEMPO 0812/0819 02023G33KT", "TAF GCRR 072000Z 0721/0821 01010KT 9999 SCT025 TX29/0814Z TN21/0806Z PROB30 TEMPO 0811/0821 36015G26KT", "TAF GCTS 072000Z 0721/0821 07012KT 9999 SCT025 TX28/0814Z TN22/0806Z", "TAF GCXO 072000Z 0721/0821 30016KT 9999 SCT010 TX23/0814Z TN16/0806Z TEMPO 0721/0810 BKN010 PROB30 TEMPO 0806/0808 2500 BCFG BKN005 PROB40 TEMPO 0815/0821 32015G25KT", "TAF GECE 071400Z 0715/0815 29010KT 9999 FEW010 TX26/0813Z TN21/0805Z PROB40 TEMPO 0721/0801 VRB02KT", "TAF GEML 071700Z 0718/0818 05010KT 9999 FEW015 TX29/0814Z TN24/0805Z BECMG 0718/0720 VRB03KT BECMG 0809/0811 05010KT", "TAF GFLL 071102Z 0712/0818 12004KT 9999 BKN011 FEW027CB BECMG 0712/0714 24008KT BKN013 TEMPO 0716/0720 30010KT 8000 -TSRA BKN011 FEW026CB PROB30 TEMPO 0721/0802 21007KT 9999 BKN010 FEW027CB", "TAF GGOV 071700Z 0718/0818 VRB05KT 7000 SCT010 TEMPO 0800/0805 TS BKN012 FEW018CB", "TAF GLRB 070500Z 0706/0806 22008KT 9999 BKN016 BECMG 0707/0709 08004KT 8000 -RA BKN012 FEW023CB TEMPO 2011/2015 21009KT 9999 BKN016 FEW025CB", "TAF GMAD 071700Z 0718/0824 18006KT 8000 NSC TEMPO 0723/0809 BKN013 BECMG 0812/0814 28012KT", "TAF GMAG 071700Z 0718/0824 35017KT 6000 NSC", "TAF GMFF 071700Z 0718/0824 32007KT CAVOK BECMG 0812/0814 03012KT FEW040", "TAF GMFK 071700Z 0718/0824 21014KT CAVOK BECMG 0719/0720 36009KT", "TAF GMFM 071700Z 0718/0824 34012KT CAVOK BECMG 0720/0724 26005KT PROB30 TEMPO 0804/0808 4000 BR SCT010", "TAF GMFO 071700Z 0718/0824 36016KT 9999 SCT040 BECMG 0722/0801 VRB02KT 8000 NSC PROB30 TEMPO 0804/0809 1500 BR BKN010", "TAF GMME 071700Z 0718/0824 31010KT 5000 SCT020 TEMPO 0721/0808 VRB02KT BKN010", "TAF GMMH 071700Z 0718/0824 03024KT 6000 NSC", "TAF GMMI 071700Z 0718/0824 33013KT 8000 NSC", "TAF GMML 071700Z 0718/0824 36016KT 8000 NSC", "TAF GMMN 071700Z 0718/0824 33014KT 9999 FEW030 BECMG 0722/0724 36003KT BKN016 BECMG 0810/0812 36013KT SCT016", "TAF GMMW 071700Z 0718/0824 06008KT 8000 FEW024", "TAF GMMX 071700Z 0718/0824 32012KT CAVOK TEMPO 0805/0809 24005KT 5000 BKN013", "TAF GMMZ 071700Z 0718/0824 24013KT CAVOK TEMPO 0719/0722 25016G27KT TEMPO 0815/0822 21017G30KT", "TAF GMTA 071700Z 0718/0824 VRB02KT 9999 FEW020", "TAF GMTT 071700Z 0718/0824 24009KT CAVOK", "TAF GOBD 071700Z 0718/0824 25010KT 9999 SCT014 FEW025CB TEMPO 0804/0810 09015G35KT 2000 TSRA BKN012 BECMG 0811/0813 SCT012", "TAF GOGS 071700Z 0718/0818 20006KT 9999 SCT014 TEMPO 0807/0813 06015KT 4000 TSRA BKN013 FEW030CB", "TAF COR GOOY 071700Z 0718/0824 25008KT 9999 SCT013 FEW030CB TEMPO 0805/0811 09015KT 4000 TSRA BKN012 BECMG 0811/0813 SCT012", "TAF GOSS 071700Z 0718/0818 28010KT 9999 SCT012 TEMPO 0803/0809 08015KT 4000 TSRA BKN012 FEW020CB", "TAF GQNO 071700Z 0718/0824 27012KT 6000 FEW010 PROB30 TEMPO 0800/0806 -TSRA FEW030CB", "TAF GQPP 071700Z 0718/0818 34015KT 7000 NSC", "TAF GUCY 071700Z 0718/0824 27008KT 9999 SCT015 SCT110 PROB30 TEMPO 0718/0723 19014KT 4000 TSRA BKN012 FEW023B BKN100 TEMPO 0800/0806 09014KT 4000 TSRA BKN013 FEW020CB OVC100", "TAF GVAC 071700Z 0718/0824 05014KT 9999 BKN014 TEMPO 0802/0809 8000 SCT012 BKN017", "TAF GVBA 071100Z 0712/0818 03012KT 9999 BKN015 TEMPO 0722/0808 17006KT SCT014", "TAF GVNP 071700Z 0718/0824 05016KT 9999 SCT018 TEMPO 0800/0808 VRB06KT BKN016", "TAF GVSV 071700Z 0718/0824 06025KT 9999 SCT020 BECMG 0801/0803 05015KT", "TAF HAAB 071530Z 0718/0824 21005KT 9999 BKN025 SCT090 BECMG 0718/0719 20006 KT 9000 RA BKN020", "TAF HADR 071530Z 0718/0824 06008KT 9999 SCT025 BKN090 BECMG 0718/0719 14006 KT 9000 -RA SCT 022", "TAF HBBA 071700Z 0718/0824 18008KT 9999 FEW030 BECMG 0720/0722 36004KT BECMG 0803/0805 36003KT 5000 HZ FEW020 BECMG 0808/0810 18009KT 9999 FEW025", "TAF HCMM 071100Z 0712/0818 21020KT 9999 SCT020 BKN080", "TAF HDAM 071100Z 0712/0812 29014KT CAVOK BECMG 0800/0806 00000KT BECMG 0806/0812 27015KT 8000 HZ NSC", "TAF HEAL 071700Z 0718/0824 30014KT CAVOK", "TAF HEAR 071700Z 0718/0824 31008KT 9999 SCT025", "TAF HEAT 071700Z 0718/0824 34013KT CAVOK", "TAF HEAX 071700Z 0718/0824 28012KT CAVOK", "TAF HEBA 071700Z 0718/0824 28012KT CAVOK", "TAF HEBL 071700Z 0718/0824 33013KT CAVOK", "TAF HECA 071700Z 0718/0824 35010KT CAVOK TEMPO 0801/0806 VRB03KT 4000 BR NSC", "TAF HEGN 071700Z 0718/0824 33008G20KT CAVOK", "TAF HELX 071700Z 0718/0824 32010KT CAVOK", "TAF HEMA 071700Z 0718/0824 33008G20KT CAVOK", "TAF HEMM 071700Z 0718/0824 30014KT CAVOK", "TAF HEOW 071700Z 0718/0824 36010KT CAVOK", "TAF HEPS 071700Z 0718/0824 02010KT CAVOK", "TAF HESC 071700Z 0718/0824 34009KT CAVOK", "TAF HESG 071700Z 0718/0824 34012KT CAVOK", "TAF HESH 071700Z 0718/0824 34014KT CAVOK", "TAF HESN 071700Z 0718/0824 33012KT CAVOK", "TAF HETB 071700Z 0718/0824 35010KT CAVOK", "TAF HETR 071700Z 0718/0824 32010G24KT CAVOK TEMPO 0803/0815 4000 SA NSC", "TAF HKEL 071700Z 0718/0824 VRB02KT 9999 FEW014 BKN080 BECMG 0808/0811 30010KT FEW020CB BKN021 BKN080 TEMPO 0812/0816 -TSRA BECMG 0820/0823 VRB02KT NSW FEW014 BKN080", "TAF HKJK 071700Z 0718/0824 VRB02KT 9999 BKN015 BECMG 0808/0811 15010KT BKN023 BECMG 0820/0823 VRB02KT BKN015", "TAF HKKI 071700Z 0718/0824 06005KT 9999 FEW020 BKN080 BECMG 0808/0811 21010KT FEW022CB SCT023 PROB30 TEMPO 0812/0816 -TSRA BECMG 0820/0823 06005KT NSW FEW020 BKN080", "TAF HKML 071700Z 0718/0818 18010KT 9999 FEW020 TEMPO 0802/0805 18005KT -RA SCT018 BKN080 BECMG 0809/0812 21015KT NSW FEW023 SCT090", "TAF HKMO 071700Z 0718/0824 22005KT 9999 SCT021 TEMPO 0802/0805 -RA SCT019 BKN080 BECMG 0809/0812 18015KT NSW FEW025 BKN080 BECMG 0821/0824 23005KT FEW019 SCT080", "TAF HKNW 071700Z 0718/0818 VRB02KT 9999 BKN015 BECMG 0808/0811 16010KT BKN022", "TAF HLKF 070500Z 0706/0806 35010KT CAVOK", "TAF HLLB 070500Z 0706/0806 35014KT 8000 SCT025", "TAF HLLM 070500Z 0706/0806 11005KT CAVOK BECMG0712 /0714 05010KT", "TAF HLLS 070500Z 0706/0806 05010KT CAVOK", "TAF HLMS 070500Z 0706/0806 19005KT CAVOK BECMG 0715/0717 06010KT", "TAF HRYR 071700Z 0718/0824 19006KT 9999 SCT026 BECMG 0801/0804 32004KT SCT026 BKN100 FM080900 16010KT SCT025 BECMG 0818/0821 24006KT", "TAF HRZA 071100Z 0712/0818 11008KT 9999 SCT025 TEMPO 0713/0718 18008G15KT TS FEW023CB BKN025 FM 080100 08006KT 9000 SCT025 BKN100 BECMG 0806/0808 VRB03KT 9999 BKN025 TEMPO 0812/0816 14010KT FEW023CB BKN025", "TAF HSSJ 070500Z 0706/0812 21004KT 9999 SCT040BKN140 TEMPO 0708/0714 VRB05KT 9999 SCT030 BKN140 PROB030 TEMPO 0712/0718 VRB05G15KT 4000 TSRA FEW045CB BKN090", "TAF HSSM 070500Z 0706/0812 20005KT 9999 FEW140 SCT040 TEMPO 0708/0714 18005KT 9999 SCT030BKN140 PROB30 TEMPO 0715/0721 18005KT 6000 TSRA FEW045CB SCT140", "TAF HTAR 071700Z 0718/0818 10005KT 9999 SCT024", "TAF HTBU 071100Z 0712/0812 1601KT 9999 FEW020 FEW022CB SCT080", "TAF HTDA 071700Z 0718/0824 18010KT 9999 SCT012", "TAF HTDO 071700Z 0718/0818 09015KT 9999 FEW023", "TAF HTKA 070500Z 0706/0806 03008KT 9999 FEW016 FEW017CB BKN080 BECMG 0706/0710 27010KT FEW024", "TAF HTKJ 071700Z 0718/0818 06005KT 9999 SCT026", "TAF HTMW 071700Z 0718/0818 13010KT 9999 SCT020 FEW021CB BECMG 0811/0813 34010KT", "TAF HTTB 071700Z 0718/0818 12010KT 9999 FEW018", "TAF HTZA 071700Z 0718/0818 15010KT 9999 FEW016 BECMG 0802/0804 21010KT BKN014 BECMG 0810/0812 15015KT FEW022", "TAF HUEN 071700Z 0718/0824 17012KT 9999 FEW022 FEW024CB BECMG 0802/0807 VRB10KT 8000 RA SCT017 FEW019CB OVC090", "TAF HUSO 070500Z 0706/0806 09006KT 9999 FEW020 BKN100 BECMG 0709/0713 VRB03KT TS BKN021 FEW023CB FM071500 16004KT 9000 -TSRA SCT019 FEW021CB BECMG 0800/0804 07005KT -RA FEW018 BKN090", "KABE 072059Z 0721/0818 VRB04KT P6SM VCTS FEW025 BKN090CB TEMPO 0721/0723 VRB10KT 3SM TSRA BR OVC025CB FM072300 VRB03KT P6SM SCT030 BKN150 FM080600 VRB02KT 5SM BR BKN050 FM081000 VRB02KT 5SM BR BKN020 FM081300 VRB03KT P6SM BKN040", "KABI 071733Z 0718/0818 17015G25KT P6SM FEW050 FM080200 16010KT P6SM FEW150 SCT250", "KABQ 071745Z 0718/0818 22006KT P6SM SCT150 FM072100 23010G20KT P6SM VCSH BKN130 FM080400 19006KT P6SM BKN150 FM081700 26009G16KT P6SM SKC", "KABR 071720Z 0718/0818 20011KT P6SM SCT090 BKN250 FM072200 21009KT P6SM VCTS BKN060CB BKN120 FM080000 28008KT P6SM BKN080 FM080200 01005KT P6SM BKN110 FM081700 07006KT P6SM SKC", "KABY 072123Z 0721/0818 28005KT P6SM VCTS BKN040CB TEMPO 0722/0801 VRB15G30KT 2SM TSRA BKN025CB FM080500 25003KT P6SM SCT050 FM081400 28005KT P6SM SCT070", "KACK 072010Z 0720/0818 13005KT 1/4SM FG VV002 FM081200 10004KT 3SM BR BKN004 FM081500 10007KT P6SM BKN007", "KACT 072057Z 0721/0818 18008KT P6SM VCSH SCT230 FM080100 17010KT P6SM SCT250", "KACV 071741Z 0718/0818 31010KT P6SM FEW008 OVC015 TEMPO 0723/0803 6SM BR OVC008 FM080300 01004KT 6SM BR OVC008 FM080700 VRB03KT 3SM -DZ BR OVC005", "KACY 071721Z 0718/0818 13007KT P6SM SCT200 FM080500 VRB02KT 4SM BR BKN020 FM080700 VRB02KT 2SM BR BKN008 FM081300 VRB02KT 6SM BR SCT008 FM081500 15005KT P6SM BKN040", "KADF 071903Z 0719/0818 22005KT P6SM VCTS OVC025CB FM080000 18007KT P6SM VCSH BKN150 PROB30 0812/0818 4SM TSRA BR OVC025CB", "TAF AMD KADW 071740Z 0717/0823 06010KT 9000 -SHRA VCTS BKN020CB BKN030 QNH2981INS TEMPO 0717/0719 34020G35KT 1600 TSRA BKN010CB BECMG 0718/0719 12008KT 9999 VCTS FEW030CB SCT040 BKN150 QNH2978INS BECMG 0800/0801 14008KT 9999 NSW SCT030 BKN050 BKN100 QNH2980INS BECMG 0806/0807 VRB06KT 9000 BR SCT020 BKN040 QNH2981INS BECMG 0811/0812 35006KT 9999 NSW SCT030 BKN080 QNH2983INS BECMG 0816/0817 03006KT 9999 VCTS FEW020CB SCT030 SCT250 QNH2978INS TX28/0817Z TN22/0810Z", "KAEG 071745Z 0718/0818 24010G16KT P6SM FEW130 FM072100 24012G22KT P6SM VCSH BKN130 FM080400 25007KT P6SM BKN150 FM081700 26014G24KT P6SM FEW120", "KAEX 071837Z 0719/0818 VRB04KT P6SM BKN100 FM072000 24007KT P6SM VCTS SCT035CB FM080100 VRB04KT P6SM BKN150", "TAF KAFF 071909Z 0719/0901 05012KT 9999 VCTS BKN050CB QNH3011INS WND 010V160 TEMPO 0720/0724 VRB35G45KT 3200 +TSRAGR BKN040CB BECMG 0723/0724 09009KT 9999 VCTS BKN050CB QNH3016INS WND 020V160 TEMPO 0800/0804 VRB20G30KT 8000 -TSRAGR BKN040CB BECMG 0803/0804 35009KT 9999 VCSH SCT015 BKN030 QNH3024INS BECMG 0807/0808 VRB06KT 9999 NSW BKN015 QNH3021INS BECMG 0810/0811 15012KT 9999 BKN010 QNH3016INS BECMG 0817/0818 18012G18KT 9999 VCSH SCT015 BKN080 QNH3009INS TEMPO 0818/0822 18015G25KT 520009 BECMG 0822/0823 18012G22KT 9999 VCTS BKN060CB QNH3011INS TX23/0721Z TN12/0812Z LAST NO AMDS AFT 0802 NEXT 0811", "KAFW 072057Z 0721/0818 18014KT P6SM FEW050 BKN250", "KAGC 071740Z 0718/0818 34007KT P6SM SCT040 FM080000 VRB03KT P6SM SKC", "KAGS 072048Z 0721/0818 27006KT P6SM VCTS SCT050CB TEMPO 0722/0724 3SM TSRA BKN040CB FM080100 VRB03KT P6SM BKN100 FM080800 00000KT 2SM BR SCT005 FM081300 VRB04KT P6SM SCT100", "KAHN 072148Z 0722/0818 VRB04KT P6SM VCSH SCT040 TEMPO 0722/0724 4SM TSRA BR BKN025CB FM080200 00000KT P6SM SCT120 FM081600 29004KT P6SM SCT035", "KAIA 071737Z 0718/0818 34012KT P6SM FEW120 FM072000 36012G20KT P6SM SCT120 FM080000 05009KT P6SM SKC FM081100 17010KT P6SM VCTS BKN080CB", "KALB 071725Z 0718/0818 19006KT P6SM VCTS FEW040CB BKN150CB TEMPO 0718/0722 4SM TSRA OVC028CB FM072200 24005KT P6SM VCSH BKN060 TEMPO 0722/0723 4SM -SHRA OVC028 FM080500 00000KT 1SM BR BKN005 FM081300 00000KT P6SM BKN070", "KALI 071938Z 0720/0818 09014G22KT P6SM SCT060 TEMPO 0720/0724 1SM -SHRA BKN030 FM080100 14010KT P6SM FEW020 SCT035 FM081000 15007KT 5SM BR FEW035 SCT040 FM081200 16006KT 1 1/2SM BR BKN013 FM081500 17007KT P6SM FEW029 FEW250", "KALO 071726Z 0718/0818 17005KT P6SM BKN150 FM072200 31005KT P6SM -RA OVC080 FM080300 03006KT P6SM -RA OVC045 FM080700 01005KT P6SM OVC030 FM081100 35006KT P6SM BKN035", "KALS 071736Z 0718/0818 23010KT P6SM SKC FM071900 25020G30KT P6SM FEW110 FM080100 26012KT P6SM SCT110 SCT250 FM080300 VRB06KT P6SM FEW250", "KALW 071720Z 0718/0818 VRB06KT P6SM FEW250 FM080800 17007KT P6SM SKC", "KAMA 071720Z 0718/0818 17020G30KT P6SM SKC FM072300 20019G29KT P6SM VCTS BKN080CB FM080100 11013G23KT P6SM VCSH BKN030 FM080300 14009KT P6SM BKN200", "KANB 071857Z 0719/0818 32005KT P6SM VCTS BKN040CB TEMPO 0720/0724 4SM TSRA BR BKN035CB FM080300 00000KT P6SM FEW050 FM081300 26005KT P6SM VCSH BKN050", "KAND 071740Z 0718/0818 VRB03KT P6SM SCT045 FM072200 30006KT P6SM VCTS BKN050CB FM080300 VRB02KT P6SM BKN230 FM081000 35003KT 5SM BR BKN230 FM081200 35003KT P6SM SCT200", "KAOO 072110Z 0721/0818 32009KT P6SM SCT035 BKN050 FM080300 32005KT P6SM SCT250 FM080700 VRB02KT 1SM BR VCFG SCT002 FM081100 00000KT 4SM BR SKC FM081200 35002KT P6SM SKC", "KAPA 071729Z 0718/0818 36008KT P6SM FEW010 SCT050 FM072100 07011KT P6SM VCTS FEW020 SCT040CB BKN090 TEMPO 0722/0802 VRB17G27KT -TSRA BKN040CB FM080300 VRB06KT P6SM SCT035 SCT080 FM081500 17012KT P6SM SCT060 BKN120", "KAPC 072028Z 0720/0818 21016KT P6SM SKC FM080600 23010KT P6SM SCT008 FM081100 23008KT P6SM BKN008 FM081745 26010KT P6SM SCT012", "KAPF 072130Z 0721/0818 26010KT P6SM VCTS SCT025CB SCT070 TEMPO 0721/0723 VRB15G25KT 5SM TSRA SCT015 BKN030CB FM080100 VRB05KT P6SM FEW025 SCT250 FM081400 23007KT P6SM SCT030 SCT250 FM081600 25008KT P6SM VCTS SCT025CB BKN070", "KAPN 071750Z 0718/0818 31010KT P6SM FEW050 FM080100 00000KT P6SM BKN250 FM081400 17004KT P6SM SCT050 OVC100", "KARA 071837Z 0719/0818 VRB04KT P6SM BKN120 TEMPO 0719/0722 VRB15G25KT 1SM TSRA OVC025CB FM080100 VRB05KT P6SM BKN150", "KART 071740Z 0718/0818 26010KT P6SM SCT050 BKN250 FM072300 23005KT P6SM SCT250 FM080300 VRB03KT P6SM SKC FM081500 24008KT P6SM SCT250", "KASD 071720Z 0718/0818 28007KT P6SM VCTS BKN110CB FM072100 25007KT P6SM -SHRA SCT090 TEMPO 0721/0722 4SM TSRA BR BKN090CB FM072200 24007KT P6SM VCTS BKN100CB FM081500 26007KT P6SM FEW110", "KASE 071720Z 0718/0818 33003KT P6SM SCT110 FM071900 28011G21KT P6SM FEW120 FM080300 20008KT P6SM SKC FM081300 VRB03KT P6SM SKC", "KASN 071857Z 0719/0818 32005KT P6SM VCTS BKN040CB TEMPO 0719/0723 4SM TSRA BR BKN035CB FM080300 00000KT P6SM FEW050 FM081300 26005KT P6SM VCSH BKN050", "KAST 071738Z 0718/0818 24003KT P6SM OVC022 FM072000 26008KT P6SM SCT020 FM080300 27006KT P6SM OVC015 FM081700 VRB03KT P6SM SCT015 BKN021", "KATL 072148Z 0722/0824 16008KT P6SM VCSH SCT040 SCT120 TEMPO 0722/0724 VRB10G20KT 4SM TSRA BR BKN025CB FM080100 29004KT P6SM SCT120 FM081600 29007KT P6SM FEW040 PROB30 0820/0824 4SM TSRA BR BKN025CB", "KATW 071727Z 0718/0818 16004KT P6SM SCT250 FM080200 18005KT P6SM BKN090 FM080600 26004KT P6SM BKN070 FM081600 30005KT P6SM SCT120", "KATY 071720Z 0718/0818 22007KT P6SM SCT016 BKN090 OVC250 FM080200 24005KT P6SM VCTS BKN080CB BKN150 FM080400 30005KT P6SM BKN120 FM081200 36006KT P6SM SCT250", "KAUG 071742Z 0718/0818 17007KT P6SM SCT100 FM080300 VRB03KT 6SM BR BKN007 FM080700 VRB03KT 1/4SM FG BKN001 FM081500 VRB03KT P6SM SCT010", "KAUS 072157Z 0722/0824 16012KT P6SM FEW045 SCT100 FM081000 18003KT P6SM BKN018 FM081500 18010KT P6SM FEW040 SCT250", "KAUW 071727Z 0718/0818 23003KT P6SM BKN250 FM080400 31003KT P6SM BKN090 FM081500 32005KT P6SM SCT250", "KAVL 072123Z 0721/0818 34006KT P6SM VCSH SCT045 BKN150 FM080000 33003KT P6SM SCT250 FM081000 33003KT 4SM BR BKN160 FM081200 33004KT P6SM BKN120 FM081500 35006KT P6SM SCT040", "KAVP 072134Z 0721/0818 VRB03KT P6SM SCT035 FM072145 25015G35KT 3SM -TSRAGR OVC035CB FM072230 VRB04KT P6SM BKN050 FM081300 33004KT P6SM SCT050", "KAXN 071720Z 0718/0818 21011KT P6SM BKN230 FM072300 24009KT P6SM OVC070 TEMPO 0723/0803 3SM -TSRA BR BKN040CB FM080300 31008KT P6SM OVC050 FM080500 27005KT P6SM BKN060 FM081200 01006KT P6SM FEW200", "KAZO 071740Z 0718/0818 VRB03KT P6SM FEW060 FM080000 VRB03KT P6SM BKN150 FM080800 VRB03KT P6SM -SHRA OVC080 FM081500 22005KT P6SM -RA OVC050", "TAF AMD KBAB 072122Z 0721/0901 19012KT 9999 SKC QNH2971INS BECMG 0804/0805 16008KT 9999 SKC QNH2973INS WND 19009KT AFT 0819 TX32/0723Z TN14/0813Z LAST NO AMDS AFT 0721 NEXT 1012", "TAF KBAD 072001Z 0720/0902 23010KT 9999 SCT050 BKN200 QNH2983INS BECMG 0820/0821 24010G15KT 9999 VCTS BKN050CB QNH2979INS BECMG 0900/0901 18006KT 9999 NSW SCT050 QNH2979INS TX34/0721Z TN24/0812Z", "KBAF 071740Z 0718/0818 18006KT P6SM SCT040 FM072000 18008KT P6SM VCSH BKN040 FM080200 00000KT P6SM SCT040 FM080600 00000KT 4SM BR SCT007 OVC015 FM081500 16003KT P6SM BKN040", "KBAM 071720Z 0718/0818 03006KT P6SM FEW100 FM072100 36010G16KT P6SM VCTS BKN100CB FM080400 02005KT P6SM SCT100", "KBBD 071733Z 0718/0818 18012G22KT P6SM SCT035 BKN050 FM072100 17012G22KT P6SM SCT070 FM080200 VRB06KT P6SM SKC FM081400 18010KT P6SM BKN015", "KBBG 071720Z 0718/0818 23005KT P6SM SCT040 BKN200 PROB30 0805/0809 4SM TSRA BR OVC025CB FM080900 VRB04KT 6SM -TSRA BKN040CB TEMPO 0809/0813 2SM TSRA BR BKN025CB FM081400 29005KT P6SM BKN040", "KBCB 071938Z 0720/0818 30005KT P6SM SCT045 FM080800 00000KT 4SM BR SCT100 FM081200 00000KT P6SM SCT100 BKN250", "KBCE 071723Z 0718/0818 18010G18KT P6SM SKC FM071900 23013G23KT P6SM SKC FM080300 26006KT P6SM SKC", "KBDL 072010Z 0720/0824 18008G15KT P6SM VCSH BKN040 FM080200 VRB03KT P6SM SCT040 FM080600 00000KT 4SM BR SCT007 BKN012 FM081400 VRB03KT P6SM SCT035 FM081800 16003KT P6SM VCSH BKN040", "KBDN 071720Z 0718/0818 VRB06KT P6SM SKC FM072300 34010G20KT P6SM FEW120 FEW250 FM080300 VRB05KT P6SM SKC", "KBDR 071955Z 0720/0818 15008KT P6SM FEW025 SCT250 FM080200 19003KT P6SM SCT012 BKN025 TEMPO 0802/0803 4SM BR BKN012 FM080400 VRB03KT P6SM BKN012 TEMPO 0808/0812 3SM BR BKN007 FM081500 16006KT P6SM SCT007 BKN020 FM081700 16007KT P6SM FEW006 SCT020 BKN250", "KBED 071740Z 0718/0818 18007KT P6SM FEW200 FM080300 VRB03KT P6SM SCT250 FM080600 00000KT 3SM BR FEW006 BKN010 FM080800 00000KT 1SM BR BKN006 FM081200 VRB03KT P6SM BKN012 FM081500 14005KT P6SM BKN040", "KBFD 072110Z 0721/0818 33008KT P6SM SCT030 BKN040 FM072300 33005KT P6SM SCT250 FM080500 00000KT 4SM BR FEW250 FM080600 VRB02KT 1SM BR VCFG SCT002 FM081200 00000KT 6SM BR SCT250 FM081500 30004KT P6SM SCT250", "KBFF 071737Z 0718/0818 VRB06KT P6SM SKC FM072200 05010KT P6SM FEW240 FM080500 09006KT P6SM FEW220 FM080900 10006KT P6SM VCSH BKN100 FM081400 11009KT P6SM BKN050", "KBFI 071744Z 0718/0818 18008KT P6SM OVC015 TEMPO 0718/0720 BKN018 FM072000 21007KT P6SM FEW250 FM081100 24006KT P6SM BKN015 TEMPO 0813/0816 OVC012", "KBFL 071720Z 0718/0818 27008KT P6SM SKC", "KBFM 071725Z 0718/0818 26008KT P6SM VCTS SCT035CB BKN120 TEMPO 0720/0724 4SM TSRA BR BKN030CB FM080200 31002KT P6SM FEW030 BKN120 FM081200 29003KT P6SM SCT250", "KBGM 072003Z 0720/0818 33007KT P6SM SCT025 OVC050 FM080000 34004KT P6SM BKN040 FM080900 31004KT P6SM SCT035", "KBGR 071720Z 0718/0818 18009KT P6SM SKC FM080400 18004KT 2SM BR BKN006 FM080600 18004KT 1SM BR BKN003 FM081100 VRB03KT P6SM BKN003 FM081500 17004KT P6SM SCT011 FM081700 17006KT P6SM SCT035", "KBHB 072100Z 0721/0818 20008KT P6SM OVC005 TEMPO 0721/0723 3SM BR FM080000 20006KT 1 1/2SM BR OVC004 FM080400 18004KT 1/2SM FG BKN001 FM081200 VRB03KT 2SM BR BKN002 FM081500 16004KT P6SM BKN011", "KBHM 071730Z 0718/0818 34006KT P6SM VCTS BKN040CB TEMPO 0720/0724 4SM TSRA BR BKN025CB FM080300 30004KT P6SM SCT030 FM081100 27007KT P6SM VCSH BKN050", "TAF KBIF 072200Z 0722/0904 19010G15KT 9999 FEW120 QNH2990INS BECMG 0800/0801 17010KT 9999 FEW110 BKN180 QNH2982INS TEMPO 0803/0806 9000 SHRA BKN100 BECMG 0806/0807 VRB06KT 9999 NSW FEW130 SCT180 QNH2990INS TX41/0723Z TN23/0812Z", "KBIH 071722Z 0718/0818 31005KT P6SM SKC FM072200 21008KT P6SM SKC FM080400 34006KT P6SM SKC", "KBIL 071720Z 0718/0818 09009KT P6SM FEW200", "KBIS 071720Z 0718/0818 02012G16KT P6SM SCT060 SCT250 FM080200 05006KT P6SM FEW250 FM081000 12005KT P6SM FEW250", "TAF KBIX 071800Z 0718/0824 VRB06KT 9999 FEW055 QNH2993INS BECMG 0720/0721 24012KT 9000 -SHRA FEW040 QNH2991INS TEMPO 0720/0723 VRB15G22KT 4800 TSRA FEW025CB SCT055 BKN085 BECMG 0723/0724 VRB06KT 9999 NSW BKN030 QNH2988INS TX33/0821Z TN26/0812Z", "KBJC 072045Z 0721/0818 04007KT P6SM BKN050 BKN100 TEMPO 0722/0801 VRB16G27KT -TSRA BKN050CB FM080300 VRB06KT P6SM SCT030 BKN070 FM081500 02007KT P6SM SCT060 BKN120", "KBJI 071720Z 0718/0818 26010KT P6SM VCTS BKN050CB TEMPO 0718/0722 P6SM -TSRA OVC025CB FM072200 33008KT P6SM -SHRA VCTS BKN070CB FM080200 34007KT P6SM VCSH BKN050 FM081200 VRB03KT P6SM FEW200", "KBKE 071738Z 0718/0818 VRB04KT P6SM FEW200 FM072100 33008KT P6SM VCSH BKN150 FM080500 VRB04KT P6SM SCT200", "TAF KBKF 071818Z 0718/0823 VRB06KT 9999 FEW110 FEW140 QNH3012INS BECMG 0721/0722 03006KT 9000 -SHRA SCT045 OVC065 QNH3014INS TEMPO 0722/0801 VRB25G35KT 8000 -TSRA BECMG 0811/0812 VRB06KT 9000 -SHRA SCT009 OVC018 QNH3014INS BECMG 0814/0815 VRB06KT 9999 NSW FEW035 QNH3006INS TX23/0820Z TN12/0811Z", "KBKW 072031Z 0721/0818 33008KT P6SM BKN035 FM080000 34005KT P6SM BKN250 FM080300 00000KT P6SM SCT240 FM081400 06004KT P6SM SCT200", "KBLF 071937Z 0720/0818 30006KT P6SM FEW090 BKN250 FM080600 26003KT 4SM BR BKN001 FM080800 25002KT 1/4SM FG OVC001 FM081300 VRB03KT 5SM BR BKN015 FM081500 VRB03KT P6SM FEW100 OVC200", "KBLH 071720Z 0718/0818 16010KT P6SM SKC FM072000 21012G21KT P6SM SKC FM080200 23010KT P6SM SKC FM080700 19007KT P6SM SKC", "KBLI 071744Z 0718/0818 19010G20KT P6SM SCT005 FM080600 17008KT P6SM SCT250 FM081300 18006KT P6SM SCT015", "TAF AMD KBLV 072104Z 0721/0822 VRB06KT 9999 SCT070 BKN250 QNH2991INS BECMG 0802/0803 15009KT 9000 -SHRA FEW028 SCT040 BKN060 QNH2985INS TEMPO 0803/0806 15015G25KT 4800 -TSRA SCT030CB BKN040 OVC250 BECMG 0808/0809 18009KT 9999 VCSH BKN015 OVC030 QNH2983INS BECMG 0815/0816 15009KT 8000 -SHRA BKN015 OVC030 QNH2980INS TEMPO 0816/0820 18015G25KT 4800 -TSRA BKN030CB BECMG 0820/0821 VRB06KT 9000 BR OVC040 QNH2975INS TX30/0721Z TN18/0803Z", "KBMG 071725Z 0718/0818 VRB03KT P6SM SCT040 FM080700 14005KT P6SM BKN070 FM081400 18007KT P6SM VCSH BKN035", "KBMI 071738Z 0718/0818 VRB05KT P6SM FEW040 BKN250 FM080000 15006KT P6SM VCSH BKN090 FM080800 16009KT P6SM -SHRA VCTS OVC060CB FM081200 22012KT P6SM VCSH OVC015 FM081600 27012KT P6SM BKN015", "KBNA 071727Z 0718/0818 36005KT P6SM FEW035 BKN170 BKN250 FM080300 23003KT P6SM BKN250 FM081700 24006KT P6SM FEW040 BKN100 BKN250", "KBNO 071738Z 0718/0818 11006KT P6SM SCT200 FM080000 05007KT P6SM VCTS BKN090CB BKN150 FM080600 30005KT P6SM VCSH BKN150", "KBOI 071738Z 0718/0818 33008KT P6SM SCT200 FM080500 14006KT P6SM BKN150", "KBOS 072154Z 0722/0824 20010KT P6SM SCT200 FM080500 20004KT 5SM BR FEW006 BKN010 FM081400 12004KT P6SM SCT035 FM082000 10009KT P6SM BKN040", "KBPI 071727Z 0718/0818 19008KT P6SM FEW100 SCT150 FM072030 VRB20G30KT P6SM VCTS SCT070CB BKN100 FM080200 12008KT P6SM VCSH SCT060 BKN100 FM080600 01007KT P6SM SCT080 BKN120 FM081500 VRB06KT P6SM FEW080 SCT150", "KBPK 072106Z 0721/0818 18009KT P6SM VCTS SCT050CB BKN150 FM080200 27008KT 6SM -SHRA BR VCTS BKN015CB", "KBPT 071928Z 0719/0818 VRB04KT P6SM VCTS FEW035CB BKN120 FM080100 VRB05KT P6SM BKN150 FM081700 19006KT P6SM VCTS SCT050CB", "KBRD 072154Z 0722/0818 22010KT 6SM -SHRA VCTS BKN050CB OVC100 TEMPO 0722/0723 31010G23KT 4SM -TSRA FM072300 31010G18KT 6SM -SHRA VCTS BKN050CB OVC100 TEMPO 0723/0801 5SM -TSRA FM080200 31005KT P6SM BKN050 FM081200 36005KT P6SM FEW060 AMD NOT SKED", "KBRL 072110Z 0721/0818 VRB03KT 6SM -RA OVC090 FM080000 05005KT 6SM -SHRA BKN050 FM081100 03006KT P6SM OVC015", "KBRO 071720Z 0718/0818 12011G21KT P6SM VCSH SCT030 SCT050 BKN090 FM080300 14005KT P6SM BKN250 PROB30 0812/0815 P6SM -SHRA SKC FM081500 16012KT P6SM BKN100 PROB30 0815/0818 P6SM -RA BKN100", "KBTL 071740Z 0718/0818 VRB04KT P6SM SCT060 FM080000 VRB03KT P6SM BKN150 FM080800 12003KT P6SM VCSH OVC080 FM081600 20007KT P6SM -SHRA OVC030", "KBTM 072123Z 0721/0818 12013G23KT P6SM VCTS BKN100CB FM080200 11006KT P6SM SCT100", "KBTR 071720Z 0718/0818 27005KT P6SM VCTS BKN110CB FM072100 27007KT P6SM -SHRA SCT100 TEMPO 0721/0722 4SM TSRA BR BKN100CB FM072200 26006KT P6SM VCTS SCT100CB FM080900 VRB03KT P6SM FEW250 FM081600 22007KT P6SM FEW110", "KBTV 071740Z 0718/0818 33007KT P6SM -TSRA BKN050CB FM071900 34008KT P6SM VCTS OVC060CB FM072100 28006KT P6SM -SHRA OVC080 FM072300 VRB04KT P6SM VCSH OVC080 FM080600 00000KT 5SM BR VCSH BKN110", "KBUF 071809Z 0718/0818 33012KT P6SM SCT035 TEMPO 0718/0721 BKN035 FM072200 29008KT P6SM SCT250 FM080200 26004KT P6SM SKC FM080600 VRB03KT P6SM SKC FM081400 24006KT P6SM BKN250", "KBUR 071742Z 0718/0818 VRB05KT P6SM SCT020 FM072000 17010KT P6SM SKC FM080300 14006KT P6SM SKC FM081000 VRB03KT 5SM BR BKN007", "KBVI 071740Z 0718/0818 34007KT P6SM SCT045 FM080000 VRB03KT P6SM SKC", "KBVO 071720Z 0718/0818 15010KT P6SM VCSH SCT014 TEMPO 0718/0722 4SM -TSRA BKN016CB FM072200 19006KT P6SM SCT025 BKN250 FM080100 VRB04KT P6SM BKN100 TEMPO 0805/0809 VRB15G25KT 4SM -TSRA BKN025CB FM080900 VRB04KT P6SM VCTS BKN025CB FM081500 VRB04KT P6SM BKN015", "KBWG 071739Z 0718/0818 VRB04KT P6SM SCT040 SCT250 FM081400 23007KT P6SM SCT035 BKN100 PROB30 0817/0818 2SM TSRA BR BKN025CB", "KBWI 072202Z 0722/0824 13005KT 6SM -TSRA SCT035CB BKN250 FM072300 14005KT P6SM VCSH SCT030 BKN250 FM080200 14005KT P6SM BKN250 FM080800 00000KT 6SM BR SCT025 BKN050 FM081300 36004KT P6SM SCT035 BKN100 FM081800 10004KT P6SM VCSH SCT035 BKN045 FM082100 16005KT P6SM VCSH SCT035 BKN060", "KBYI 071720Z 0718/0818 08010KT P6SM SCT130 FM072100 VRB10KT P6SM VCTS FEW110CB SCT130 TEMPO 0722/0801 VRB20G35KT FM080100 19010KT P6SM SCT200 FM080500 VRB05KT P6SM FEW140 SCT180 FM081000 06010KT P6SM FEW110 SCT140 FM081400 09015KT P6SM FEW110", "KBZN 071730Z 0718/0824 VRB03KT P6SM FEW070 SCT110 FM080600 14005KT P6SM SCT090", "KCAE 072105Z 0721/0818 26005KT P6SM VCTS SCT050CB TEMPO 0721/0722 VRB10G30KT 1SM +TSRA BKN040CB FM080000 VRB03KT P6SM BKN100 FM080900 VRB03KT 3SM BR SCT005 FM081300 27004KT P6SM SCT100", "KCAK 071720Z 0718/0818 02007KT P6SM SCT035 FM080200 VRB03KT P6SM FEW250 FM081700 19006KT P6SM BKN100", "KCAR 071720Z 0718/0818 19008KT P6SM -SHRA VCTS BKN200CB FM080200 20004KT P6SM VCSH OVC080 FM080900 20004KT 3SM BR BKN027 FM081200 VRB03KT P6SM SCT027 FM081500 VRB03KT P6SM SCT035", "TAF AMD KCBM 072000Z 0720/0823 25008KT 9999 VCTS SCT025CB QNH2990INS TEMPO 0720/0722 29025G35KT 3200 TSRA BKN025CB BECMG 0721/0722 01006KT 9999 -SHRA VCTS SCT030CB QNH2984INS BECMG 0722/0723 VRB06KT 9999 NSW SCT030 QNH2983INS BECMG 0810/0811 20004KT 8000 BR SCT015 BKN030 QNH2986INS TEMPO 0811/0813 SCT004 BECMG 0813/0814 24009KT 9999 NSW SCT014 QNH2988INS BECMG 0816/0817 23012G18KT 9999 VCSH SCT035 QNH2987INS BECMG 0818/0819 25012G18KT 9000 -SHRA VCTS BKN040CB QNH2983INS TEMPO 0819/0823 26020G30KT 3200 -TSRA SCT012 BKN040CB TX31/0819Z TN22/0810Z", "KCDC 071723Z 0718/0818 23015G25KT P6SM SKC FM080400 19006KT P6SM SKC FM081000 VRB04KT P6SM SKC FM081600 23010KT P6SM SKC", "KCDR 071737Z 0718/0818 35010G17KT P6SM SCT140 FM072200 05006KT P6SM FEW140 FM081300 18008KT P6SM VCTS BKN100CB", "KCDS 071742Z 0718/0818 14015KT P6SM VCTS FEW250CB FM080100 02011KT P6SM BKN100", "KCEC 072012Z 0720/0818 31009KT P6SM FEW006 SCT015 OVC020 TEMPO 0721/0801 BKN015 FM080100 33005KT P6SM OVC007 FM080600 VRB04KT 4SM BR OVC004 FM081200 VRB03KT 6SM -DZ BR BKN006 OVC010", "TAF AMD KCEF 071930Z 0719/0823 20009KT 9999 FEW035 SCT100 SCT250 QNH2978INS BECMG 0800/0801 VRB06KT 9999 SCT060 BKN100 QNH2982INS BECMG 0806/0807 18006KT 6000 BR BKN015 QNH2982INS BECMG 0807/0808 19006KT 4800 BR BKN006 QNH2984INS BECMG 0812/0813 22009KT 9999 NSW BKN010 QNH2984INS BECMG 0813/0814 22009KT 9999 SCT015 QNH2980INS BECMG 0817/0818 22009KT 9999 VCSH BKN040 QNH2982INS TEMPO 0819/0823 VCTS BKN040CB TX32/0721Z TN20/0809Z", "KCGI 071728Z 0718/0818 VRB05KT P6SM SCT060 FM080100 19004KT P6SM VCSH SCT060 OVC250 FM081300 24008KT P6SM SHRA SCT020 BKN080 PROB30 0814/0817 4SM TSRA BKN020CB", "KCHA 071720Z 0718/0818 02007KT P6SM VCSH SCT250 FM080200 22002KT P6SM BKN250", "KCHO 072146Z 0722/0818 28003KT 6SM -SHRA VCTS BKN050CB FM072300 03005KT P6SM SCT050 BKN250 FM080600 00000KT 4SM BR SCT025 SCT060 FM081300 06003KT P6SM FEW100 SCT200", "KCHS 072058Z 0721/0818 15006KT P6SM VCTS SCT045CB TEMPO 0721/0723 VRB10G20KT 4SM TSRA BKN040CB FM072300 20008KT P6SM VCTS SCT050CB FM080100 21007KT P6SM FEW060 FM081500 30005KT P6SM FEW050", "KCID 072107Z 0721/0818 VRB03KT P6SM -RA OVC100 FM080000 05005KT 6SM -SHRA BKN050 FM080900 01006KT P6SM OVC015", "KCIU 071750Z 0718/0818 26010KT P6SM FEW050 FM072100 36006KT P6SM SKC FM080100 VRB03KT P6SM BKN250 FM080900 VRB03KT P6SM OVC060", "KCKB 072031Z 0721/0818 30007KT P6SM VCSH BKN040 FM080100 35005KT P6SM SCT250 FM080900 00000KT 3SM BR FEW005 BKN024 FM081200 00000KT 6SM BR BKN080 FM081400 19002KT P6SM BKN250", "KCKV 071727Z 0718/0818 36006KT P6SM FEW040 BKN250 FM080200 00000KT P6SM OVC250 FM081600 22006KT P6SM FEW040 BKN100 BKN250", "KCLE 072107Z 0721/0824 02010KT P6SM FEW250 FM080700 13004KT P6SM FEW250 FM081800 19007KT P6SM BKN070", "KCLL 071731Z 0718/0818 18010KT P6SM VCSH SCT080 FM072000 16011KT P6SM SCT090 FM080500 17006KT P6SM FEW250 FM081200 19005KT P6SM SCT020", "KCLM 071744Z 0718/0818 27010KT P6SM OVC008 TEMPO 0718/0721 BKN015 FM072100 31009KT P6SM SKC FM080900 29005KT P6SM BKN005", "KCLT 072154Z 0722/0824 VRB05KT P6SM VCSH SCT050 BKN120 TEMPO 0722/0724 4SM TSRA BR BKN050CB FM080000 VRB03KT P6SM FEW060 BKN250 FM081700 VRB04KT P6SM SCT050 PROB30 0819/0824 4SM TSRA BR BKN050CB", "KCMA 071915Z 0719/0818 23005KT P6SM OVC021 FM072000 25010KT P6SM SCT021 FM080600 27005KT P6SM BKN008 FM080800 VRB03KT 5SM BR OVC006", "KCMH 071724Z 0718/0818 35007KT P6SM SCT025 BKN250 FM080000 VRB03KT P6SM SCT250 FM081000 10005KT P6SM BKN250 FM081500 18007KT P6SM SCT040 BKN150", "KCMI 071738Z 0718/0818 VRB05KT P6SM FEW050 BKN250 FM080900 14008KT P6SM -SHRA VCTS OVC050CB FM081300 22012KT P6SM VCSH OVC015 FM081600 25012KT P6SM OVC015", "KCMX 071732Z 0718/0818 26012G20KT P6SM SCT180 FM080000 31006KT P6SM BKN080 FM080800 28006KT 5SM -SHRA BR BKN025 FM081200 35008KT 6SM BR BKN015", "KCNM 072055Z 0721/0818 15012G18KT P6SM VCTS SCT120CB SCT250 FM080000 16014G22KT P6SM SCT120 FM080700 15010KT P6SM BKN250", "KCNU 071742Z 0718/0818 12006KT P6SM BKN100 FM081000 28008KT P6SM VCSH SCT015 BKN025", "KCNY 071720Z 0718/0818 16006KT P6SM SKC FM071900 24011G21KT P6SM SKC FM080100 22009KT P6SM SKC FM080400 19006KT P6SM SKC FM081200 16003KT P6SM SKC", "KCOD 071727Z 0718/0818 04007KT P6SM FEW070 SCT150 FM072100 05010KT P6SM VCTS SCT080CB BKN150 FM080100 36012G18KT P6SM VCSH SCT060 BKN120 FM080300 VRB06KT P6SM VCSH SCT090 BKN150 FM080500 23007KT P6SM SCT100 SCT200 FM081600 02007KT P6SM FEW120", "KCOE 071720Z 0718/0818 03008KT P6SM FEW070 SCT250 FM080600 04011KT P6SM BKN250", "TAF KCOF 071800Z 0718/0824 26010G15KT 9999 VCTS SCT025CB BKN050 QNH2987INS TEMPO 0718/0724 26012G20KT 4800 TSRA BKN020CB BECMG 0800/0801 25008KT 9999 NSW SCT035 QNH2986INS BECMG 0819/0820 26010G15KT 9999 VCTS SCT025CB QNH2985INS TX33/0718Z TN26/0810Z", "KCON 071742Z 0718/0818 17008KT P6SM SKC FM080000 VRB03KT P6SM SCT040 FM080900 00000KT 1SM BR BKN002 FM081300 00000KT P6SM BKN035", "KCOS 071736Z 0718/0818 12007KT P6SM FEW050 SCT070 FM072000 14012KT P6SM VCTS SCT040CB BKN120 BKN250 TEMPO 0721/0801 VRB20G40KT 3SM TSRA BKN030CB FM080200 03012KT P6SM VCTS SCT040CB BKN060 BKN220 FM080600 08007KT P6SM VCSH BKN025 OVC050 FM080900 13008KT 5SM BR BKN005 OVC008 FM081400 16014KT P6SM SCT009 BKN015", "KCOT 071757Z 0718/0818 09006KT P6SM -RA SCT018 OVC060 FM072000 13010KT P6SM SCT030 BKN045 FM080200 13010KT P6SM FEW025 SCT035", "KCOU 072142Z 0722/0818 07007KT P6SM SHRA VCTS BKN050CB FM072300 14005KT P6SM OVC050 FM081000 VRB04KT P6SM VCSH OVC020", "KCPR 071727Z 0718/0818 05008KT P6SM FEW040 SCT060 FM072300 07010KT P6SM VCSH SCT050 BKN080 TEMPO 0801/0805 VRB20G30KT -TSRA SCT050 BKN080CB FM080800 09007KT P6SM SCT060 BKN090 FM081500 15008KT P6SM FEW080 SCT120", "KCPS 071738Z 0718/0818 11006KT P6SM SCT060 BKN250 FM080000 15005KT 6SM -SHRA VCTS BKN040CB FM080400 15005KT P6SM OVC040 FM081000 18005KT P6SM VCSH OVC025", "KCRE 071720Z 0718/0818 19008KT P6SM VCTS SCT050CB FM080100 VRB03KT P6SM BKN100 FM081300 19004KT P6SM VCTS SCT030 BKN060CB", "KCRG 071721Z 0718/0818 24006KT P6SM VCTS FEW025CB BKN045 BKN100 TEMPO 0718/0722 VRB10G25KT 3SM -TSRA SCT025CB BKN045 FM072200 15008KT P6SM VCTS SCT025CB BKN050 TEMPO 0722/0802 VRB15G30KT 3SM -TSRA BR SCT025CB BKN040 FM080200 24006KT P6SM VCSH SCT040 BKN080 TEMPO 0802/0806 5SM -SHRA SCT040 BKN060 FM080600 24005KT P6SM FEW030 SCT080 BKN120 FM080900 27005KT P6SM SCT100 FM081500 27008KT P6SM SCT030 BKN100", "KCRP 071752Z 0718/0818 10011KT P6SM SCT025 SCT050 BKN250 FM080100 14007KT P6SM SCT015 BKN100", "KCRQ 071727Z 0718/0818 26009KT P6SM SKC FM080000 VRB04KT P6SM SCT012 FM080400 VRB04KT P6SM OVC010 FM081700 26005KT P6SM SCT015", "KCRW 072031Z 0721/0818 21004KT P6SM FEW040 BKN250 FM080700 00000KT 2SM BR FEW001 FM080900 00000KT 1/2SM FG BKN001 FM081300 VRB03KT 5SM BR FEW001 BKN150 FM081400 00000KT P6SM SCT250", "KCSG 072148Z 0722/0818 27006KT P6SM VCSH SCT040 TEMPO 0722/0724 4SM TSRA BR BKN025CB FM080100 32004KT P6SM SCT120 FM081600 29006KT P6SM FEW035", "KCSM 071720Z 0718/0818 17013G19KT P6SM FEW250 FM080200 20015KT P6SM BKN100 OVC250 PROB30 0803/0807 VRB40KT 3SM TSRA BR OVC025CB FM080700 09008KT P6SM BKN050", "KCSV 071727Z 0718/0818 34006KT P6SM BKN035 BKN050 FM080800 00000KT 4SM BR SCT250 TEMPO 0810/0813 2SM BR SCT002 BKN250 FM081300 25004KT P6SM FEW025 BKN250", "KCTB 072122Z 0721/0818 VRB06KT P6SM SCT080 BKN110 TEMPO 0721/0723 VRB15G25KT 1SM +TSRA BKN040CB FM080200 VRB06KT P6SM SCT120", "KCUB 072038Z 0721/0818 26005KT P6SM VCTS SCT040CB TEMPO 0721/0722 VRB10G20KT 3SM -TSRA FM080000 VRB03KT P6SM BKN100 FM080900 00000KT 3SM BR SCT005 FM081300 VRB04KT P6SM SCT100", "KCVG 072100Z 0721/0824 VRB04KT P6SM FEW250 FM081000 11005KT P6SM SCT250 FM081400 15006KT P6SM BKN180 FM081600 21007KT P6SM SCT050 BKN120 FM082100 21007KT P6SM VCSH SCT012 BKN030 OVC050 TEMPO 0822/0824 5SM -TSRA BR BKN018CB", "TAF KCVS 071800Z 0718/0824 23010G20KT 9999 SCT130 QNH2993INS BECMG 0720/0721 28015G30KT 8000 -TSRA OVC120CB QNH2988INS TEMPO 0721/0723 28025G45KT 6000 TSRAGS BECMG 0723/0800 20010G15KT 9999 NSW SCT120 QNH2990INS BECMG 0810/0811 05006KT 6000 BR BKN030 QNH2999INS BECMG 0817/0818 15012G18KT 9999 NSW SCT120 QNH2990INS TEMPO 0821/0824 20015G35KT 8000 -TSRA OVC120CB TX37/0721Z TN19/0812Z", "KCWA 071727Z 0718/0818 24005KT P6SM BKN250 FM080300 28003KT P6SM BKN090 FM080800 32004KT P6SM SCT080 FM081500 32005KT P6SM SCT250", "KCXO 071731Z 0718/0818 18009KT P6SM VCSH BKN150 FM072000 18010KT P6SM FEW040 SCT100 FM080200 VRB05KT P6SM FEW250 FM081100 VRB03KT 6SM BR SCT020", "KCXP 071720Z 0718/0818 VRB04KT P6SM SKC FM072100 27012G21KT P6SM FEW110 FM080400 VRB04KT P6SM SKC", "KCYS 071737Z 0718/0818 01010KT P6SM SCT120 FM071900 04010G18KT P6SM SCT120 FM072200 04011KT P6SM VCTS SCT080CB TEMPO 0722/0724 4SM TSRA SCT040 BKN080CB FM080200 VRB06KT P6SM BKN100 FM081300 15008KT P6SM SCT025 BKN035", "TAF KDAA 072000Z 0720/0902 13005KT 9000 -SHRA VCTS SCT040CB BKN090 OVC120 QNH2978INS TEMPO 0720/0724 VRB15G25KT 8000 -TSRA FEW020 BKN030CB OVC050 BECMG 0723/0724 VRB05KT 9999 NSW FEW050 BKN100 QNH2981INS BECMG 0805/0806 23005KT 8000 -SHRA VCTS BKN040CB OVC070 QNH2980INS BECMG 0808/0809 VRB05KT 9999 VCSH SCT050 BKN120 QNH2982INS BECMG 0812/0813 25006KT 9000 -SHRA SCT030 BKN050 QNH2985INS BECMG 0817/0818 15012G20KT 8000 -TSRA FEW020 BKN030CB OVC050 QNH2978INS TX33/0720Z TN21/0810Z LAST NO AMDS AFT 0801 NEXT 1012", "TAF COR KDAB 072130Z 0721/0818 25008KT P6SM VCTS SCT035CB BKN070 TEMPO 0721/0723 3SM TSRA BKN035CB FM080000 23005KT P6SM FEW070 SCT150 SCT250 FM081700 26010KT P6SM VCSH SCT040 SCT250", "KDAG 071722Z 0718/0818 29014G24KT P6SM SKC FM080100 25022G32KT P6SM SKC FM080800 27013KT P6SM SKC", "KDAL 072057Z 0721/0818 18013KT P6SM FEW050 BKN250", "KDAN 071936Z 0720/0818 00000KT P6SM VCSH SCT029 BKN040 FM080000 06003KT P6SM SCT100 BKN250 FM080800 00000KT P6SM BKN100 FM081200 VRB03KT P6SM SCT050 BKN080 FM081600 05003KT P6SM -SHRA BKN050", "KDAY 071724Z 0718/0818 35006KT P6SM SCT035 FM080000 VRB03KT P6SM SCT250 FM080600 09004KT P6SM BKN250 FM081400 15006KT P6SM BKN250 FM081600 18009KT P6SM SCT040 BKN100", "KDBQ 072107Z 0721/0818 VRB04KT P6SM -RA OVC100 FM080000 05005KT 6SM -SHRA BKN050 FM080900 01006KT P6SM OVC025 FM081400 03007KT P6SM SCT025", "KDCA 072102Z 0721/0824 21004KT P6SM FEW050 BKN250 FM072200 18004KT 6SM -SHRA VCTS SCT030CB BKN250 FM080200 15003KT P6SM SCT060 BKN100 FM080800 09003KT 6SM BR SCT025 BKN050 FM081300 36004KT P6SM SCT035 BKN090 FM081800 12005KT P6SM VCSH SCT035 BKN080 FM082100 18005KT P6SM VCSH SCT035 BKN070", "KDDC 071720Z 0718/0818 00000KT P6SM BKN060 OVC080 FM071900 16010KT P6SM BKN035 FM080400 03008KT P6SM SHRA VCTS OVC024CB FM080500 04007KT P6SM VCTS OVC045CB FM081500 02010KT P6SM SCT027", "KDEC 071738Z 0718/0818 VRB05KT P6SM FEW040 BKN250 FM080000 VRB03KT P6SM VCSH BKN090 FM080800 15006KT P6SM -SHRA VCTS OVC050CB FM081200 22010KT P6SM VCSH OVC015 FM081600 26010KT P6SM BKN015", "KDEN 072036Z 0721/0824 07012KT P6SM SCT050 SCT100 TEMPO 0723/0802 VRB17G28KT -TSRA BKN050CB FM080400 VRB06KT P6SM SCT040 BKN090 FM080800 14007KT P6SM SCT030 SCT060 BKN120 FM081500 15012KT P6SM SCT060 BKN120 FM082100 10013KT P6SM VCTS SCT050CB BKN100", "KDET 071736Z 0718/0818 34005KT P6SM SCT040 SCT070 FM071900 03005KT P6SM SCT060 FM080200 11004KT P6SM FEW070 SCT150 FM080800 12005KT P6SM OVC100 FM081400 19005KT P6SM SCT030 OVC050", "KDFW 072057Z 0721/0824 18014KT P6SM FEW050 BKN250", "KDHN 071720Z 0718/0818 27007KT P6SM SCT030 FM072000 27008KT P6SM VCTS BKN040CB TEMPO 0801/0804 3SM -TSRA FM080500 27004KT P6SM SCT050 FM081300 30005KT P6SM SCT070", "KDHT 072149Z 0722/0818 19012G22KT 1SM TSRA FEW030 BKN060CB FM072330 03014KT P6SM VCTS BKN030CB FM080900 05011KT P6SM BKN150", "KDIJ 071720Z 0718/0818 23008KT P6SM FEW070 FM072000 VRB10KT P6SM VCTS FEW070CB SCT110 TEMPO 0721/0801 VRB20G35KT FM080300 VRB05KT P6SM FEW100 FEW140 FM081200 VRB02KT P6SM SCT100 BKN120 AMD LTD TO CLD VIS AND WIND", "KDIK 071720Z 0718/0818 03012G17KT P6SM FEW040 FM080200 06007KT P6SM FEW250 FM081200 16005KT P6SM FEW250", "TAF KDLF 071800Z 0718/0824 12012KT 9999 FEW020 BKN060 QNH2987INS BECMG 0719/0720 12012G18KT 9999 SCT060 QNH2980INS BECMG 0720/0721 13012G18KT 9999 FEW060 QNH2983INS BECMG 0802/0803 11009KT 9999 SCT040 QNH2985INS BECMG 0807/0808 12009KT 9999 SCT030 QNH2984INS BECMG 0809/0810 13009KT 9999 BKN020 QNH2983INS BECMG 0810/0811 11009KT 9999 BKN015 QNH2986INS TEMPO 0811/0816 BKN010 BECMG 0818/0819 13012G18KT 9999 SCT020 BKN030 QNH2976INS TX35/0723Z TN25/0811Z", "KDLH 072145Z 0722/0818 24010G16KT P6SM VCSH SCT200 FM080000 25009KT 6SM BR VCSH BKN040 FM080500 32006KT P6SM BKN070 FM080900 34007KT 6SM BR SCT070", "KDLS 071720Z 0718/0818 32015G25KT P6SM SKC", "TAF KDMA 072200Z 0722/0904 27010G15KT 9999 SCT150 QNH2975INS WND 150V300 BECMG 0804/0805 VRB06KT 9999 FEW150 QNH2986INS BECMG 0818/0819 30012KT 9999 FEW150 QNH2986INS TX41/0722Z TN27/0811Z", "KDMN 071722Z 0718/0818 25010KT P6SM SCT150 FM080200 29007KT P6SM FEW150", "KDNL 072049Z 0721/0818 27006KT P6SM VCTS SCT050CB TEMPO 0722/0724 3SM TSRA BKN040CB FM080100 VRB03KT P6SM BKN100 FM080900 VRB03KT 3SM BR SCT005 FM081300 VRB04KT P6SM SCT100", "TAF AMD KDOV 071845Z 0718/0822 14012KT 9000 -SHRA VCTS SCT020CB BKN200 QNH2980INS TEMPO 0718/0724 25012G20KT 4800 -TSRA BKN020CB BECMG 0723/0724 13006KT 9999 NSW SCT015 BKN020 QNH2981INS WND 22006KT AFT 0805 BECMG 0807/0808 VRB06KT 4800 BR BKN015 QNH2982INS BECMG 0812/0813 12006KT 9999 NSW SCT020 QNH2983INS BECMG 0817/0818 13006KT 9000 -SHRA VCTS SCT020CB QNH2981INS TX30/0718Z TN22/0810Z", "KDPA 072100Z 0721/0818 17007KT P6SM SCT050 BKN150 FM072330 08006KT P6SM -RA SCT050 OVC100 FM080300 06005KT P6SM VCSH BKN080 TEMPO 0807/0811 4SM -SHRA BR SCT010 OVC020 FM081100 04004KT P6SM VCSH SCT010 OVC020", "KDRO 071720Z 0718/0818 26010G20KT P6SM SKC FM071900 26018G28KT P6SM FEW130 FM080200 30008KT P6SM FEW130 FM080500 02004KT P6SM SKC FM081200 08004KT P6SM SKC", "KDRT 071721Z 0718/0818 14010KT P6SM VCSH BKN035 BKN250 FM072000 13014KT P6SM FEW050 BKN250 FM080300 12009KT P6SM FEW250", "KDSM 072156Z 0722/0818 10009KT P6SM -SHRA FEW008 SCT022 OVC060 TEMPO 0722/0801 BKN022 FM080100 07008KT P6SM -SHRA OVC022 FM080600 04008KT P6SM OVC015 FM080900 36007KT P6SM BKN010 FM081600 01009KT P6SM BKN040", "KDTW 072141Z 0722/0824 03005KT P6SM SCT060 FM080200 11004KT P6SM FEW070 SCT150 FM080700 12005KT P6SM -RA OVC070 FM081000 13006KT P6SM OVC040 FM081500 16005KT P6SM SCT030 OVC050 TEMPO 0819/0823 2SM TSRA OVC025CB", "KDUG 071720Z 0718/0818 20004KT P6SM FEW100 FM072100 25010G18KT P6SM VCTS BKN100CB FM080100 31009KT P6SM BKN100 FM080500 VRB04KT P6SM SCT100", "KDUJ 071740Z 0718/0818 30007KT P6SM SCT035 TEMPO 0718/0720 -SHRA FM080200 VRB03KT P6SM SKC", "KDVL 071720Z 0718/0818 02014KT P6SM FEW250 FM072100 36012KT P6SM SCT150 FM080600 VRB05KT P6SM FEW200 FM081500 19005KT P6SM FEW250", "KDVT 071720Z 0718/0818 22006KT P6SM SKC FM072100 24011G20KT P6SM SKC FM080200 26009KT P6SM SKC FM080600 VRB03KT P6SM SKC", "TAF KDYS 071600Z 0716/0822 16012KT 9999 SCT040 QNH2988INS BECMG 0719/0720 17015G25KT 9999 SCT060 QNH2977INS BECMG 0801/0802 16009KT 9999 SCT060 QNH2978INS BECMG 0811/0812 20009KT 9999 BKN020 QNH2984INS BECMG 0814/0815 19010G15KT 9999 SCT050 QNH2981INS TX37/0722Z TN24/0813Z", "KEAR 071827Z 0718/0818 22007KT P6SM VCTS OVC015CB FM071900 27008KT P6SM VCTS BKN022CB FM071930 34010KT P6SM SCT025 SCT040 FM072300 34009KT P6SM SCT200 FM080800 02008KT P6SM BKN011 FM081500 04011KT P6SM SCT015", "KEAT 071720Z 0718/0818 14005KT P6SM SCT100 SCT250 FM080300 24009KT P6SM SCT100 BKN250 FM080600 30009KT P6SM BKN250", "KEAU 071720Z 0718/0818 20006KT P6SM FEW250 FM072100 22007KT P6SM BKN150 FM080800 27004KT P6SM BKN120", "KECG 072102Z 0721/0818 11006KT P6SM VCTS SCT040CB TEMPO 0721/0724 VRB25KT 2SM TSRA OVC030CB FM080100 12005KT P6SM BKN100 FM081600 10006KT P6SM SCT040", "KECP 071720Z 0718/0818 24008KT P6SM SCT050 FM071900 24009KT P6SM VCTS BKN040CB TEMPO 0721/0724 VRB10G20KT 3SM -TSRA FM080200 27005KT P6SM SCT050 FM081200 30005KT P6SM VCTS BKN040CB PROB30 0812/0818 3SM -TSRA", "TAF COR KEDW 072046Z 0721/0903 27015G25KT 9999 SKC 520009 QNH2975INS TEMPO 0722/0801 27020G30KT 530009 BECMG 0802/0803 24009KT 9999 SKC QNH3000INS BECMG 0821/0822 24015G25KT 9999 SKC 520009 QNH2984INS TX34/0723Z TN17/0814Z", "KEED 071722Z 0718/0818 19009KT P6SM SKC FM072100 17012G22KT P6SM SKC FM080400 20009KT P6SM SKC FM080900 VRB06KT P6SM SKC", "KEET 071730Z 0718/0818 32007KT P6SM VCTS BKN040CB TEMPO 0720/0724 4SM TSRA BR BKN025CB FM080300 30004KT P6SM SCT030 FM081100 28007KT P6SM VCSH BKN050", "TAF KEFD 072000Z 0720/0902 15009KT 9999 SCT030 BKN100 QNH2987INS BECMG 0812/0813 VRB06KT 8000 BR FEW010 QNH2990INS BECMG 0816/0817 VRB06KT 9000 -SHRA SCT030 QNH2992INS BECMG 0817/0818 19009KT 9000 -SHRA SCT030 QNH2989INS TEMPO 0818/0821 18012G20KT 8000 -TSRA BKN030CB BECMG 0821/0822 19012KT 9000 -SHRA SCT040 QNH2985INS BECMG 0823/0824 19012KT 9999 NSW FEW030 QNH2983INS TX32/0820Z TN26/0811Z", "KEFK 071740Z 0718/0818 33003KT P6SM -RA SCT035 TEMPO 0718/0720 4SM TSRA BR OVC025CB FM072100 22006KT P6SM -SHRA OVC090 FM080100 00000KT P6SM VCSH OVC100 FM080500 00000KT 6SM BR VCSH BKN100 FM080600 00000KT 3SM BR VCSH BKN100 FM081200 00000KT P6SM VCSH BKN045", "KEGE 071720Z 0718/0818 00000KT P6SM SKC FM071900 27007KT P6SM SKC FM072000 26014G23KT P6SM FEW120 FM080200 23009KT P6SM SKC FM080400 11006KT P6SM SKC FM081000 00000KT P6SM SKC", "TAF AMD KEGI 071804Z 0718/0823 29006KT 9999 VCSH SCT035 SCT180 QNH2990INS TEMPO 0719/0801 24015G25KT 8000 -TSRA BKN025CB BECMG 0801/0802 27006KT 9999 NSW SCT035 SCT180 QNH2986INS BECMG 0818/0819 26006KT 9999 VCSH BKN035 QNH2988INS TX34/0719Z TN22/0810Z", "KEKN 072031Z 0721/0818 28007KT P6SM VCSH BKN040 FM080600 00000KT 4SM BR SCT250 FM080800 00000KT 2SM BR FEW005 BKN070 FM081300 00000KT 6SM BR BKN100 FM081500 32004KT P6SM BKN250", "KEKO 071720Z 0718/0818 VRB04KT P6SM FEW100 FM072100 28007KT P6SM VCTS BKN100CB FM080200 04010KT P6SM SCT100", "KEKS 071730Z 0718/0818 VRB06KT P6SM SCT100 FM072000 34011KT P6SM FEW070 SCT110 FM080300 VRB06KT P6SM SCT090", "KELD 072006Z 0720/0818 24006KT P6SM VCSH SCT025 BKN035 BKN060 FM080200 16003KT P6SM BKN100 BKN250 FM080900 VRB03KT P6SM SCT250 FM081500 20007KT P6SM FEW100 SCT150 BKN250", "KELM 071935Z 0720/0818 05005KT P6SM BKN060 FM080000 VRB03KT P6SM BKN080 FM080900 00000KT 3SM BR SCT120 TEMPO 0809/0812 1SM BR SCT002 FM081200 24004KT P6SM FEW040", "KELP 071722Z 0718/0818 21009KT P6SM FEW120 FM080300 15006KT P6SM FEW150", "KELY 071720Z 0718/0818 17008KT P6SM SKC FM072000 20010G18KT P6SM SCT150 FM080400 18008KT P6SM FEW100 AMD NOT SKED", "TAF KEND 071800Z 0718/0824 15006KT 9999 BKN100 OVC150 QNH2989INS TEMPO 0718/0720 02010G20KT 8000 -TSRA BKN100CB BECMG 0805/0806 03012KT 8000 -SHRA VCTS OVC011CB QNH2981INS TEMPO 0806/0810 06018G28KT 8000 -TSRA OVC007CB TX28/0800Z TN21/0811Z", "KENV 071723Z 0718/0818 10010KT P6SM VCSH FEW150 FM080400 33010G18KT P6SM FEW150 FM080800 32009KT P6SM FEW150 FM081600 10007KT P6SM FEW150", "KENW 072104Z 0721/0818 12008KT P6SM SCT250 FM080600 VRB03KT P6SM OVC070 PROB30 0808/0812 4SM -SHRA BR OVC025 FM081200 01006KT P6SM BKN018 PROB30 0812/0818 4SM -SHRA BR OVC008", "KERI 071720Z 0718/0818 35008KT P6SM FEW250 FM080500 17004KT P6SM FEW250 FM081700 02008KT P6SM SCT250", "KEUG 072104Z 0721/0818 23005KT P6SM SCT250 FM080000 25010KT P6SM FEW250 FM081300 22004KT P6SM BKN030", "KEUL 071738Z 0718/0818 07007KT P6SM FEW200 FM072000 VRB06KT P6SM SCT200", "KEVV 071728Z 0718/0818 VRB04KT P6SM FEW045 SCT100 FM080100 VRB04KT P6SM SCT100 BKN250 FM081200 21006KT P6SM VCSH BKN060 PROB30 0816/0818 6SM SHRA BR", "KEVW 072125Z 0721/0818 04011G19KT P6SM VCTS FEW100CB BKN140 FM072230 06011KT P6SM VCSH FEW100 BKN140 FM080100 08011KT P6SM SCT150", "KEWN 071743Z 0718/0818 VRB03KT P6SM SCT040 FM072100 16007KT P6SM VCTS SCT050CB FM080200 VRB03KT P6SM VCSH SCT050 FM081000 00000KT 5SM BR BKN120 FM081200 VRB03KT P6SM BKN110 FM081500 VRB04KT P6SM VCSH SCT030 BKN070", "KEWR 071955Z 0720/0824 17010KT P6SM SCT035 SCT050 BKN250 FM072100 14008KT P6SM VCTS SCT030 BKN050CB BKN250 FM080000 16004KT P6SM SCT030 BKN250 FM080600 VRB04KT P6SM SCT010 BKN015 FM081400 VRB04KT P6SM FEW010 SCT025 FM081600 16005KT P6SM SCT025 BKN250 FM081800 16007KT P6SM SCT035 BKN250 FM082000 17010KT P6SM VCSH BKN040 BKN250", "KEYW 071801Z 0718/0818 22007KT P6SM FEW030", "TAF KFAF 071800Z 0718/0824 14006KT 9999 SCT040 QNH2979INS BECMG 0719/0720 14009KT 9000 -SHRA VCTS SCT040CB QNH2976INS TEMPO 0721/0722 VRB10G20KT 8000 -TSRA BKN030CB BECMG 0722/0723 VRB06KT 9999 NSW SCT025 BKN040 QNH2979INS TEMPO 0815/0822 VRB30G40KT 8000 -TSRA SCT025CB BKN040 OVC055 BECMG 0822/0823 VRB06KT 9000 -SHRA FEW030 FEW045 SCT065 QNH2977INS TX32/0719Z TN22/0810Z", "KFAR 071942Z 0720/0818 30009KT P6SM VCSH BKN040 FM080200 30005KT P6SM BKN060 FM080900 VRB04KT P6SM FEW250 FM081200 VRB04KT P6SM FEW200", "KFAT 071720Z 0718/0818 29006KT P6SM SKC", "KFAY 071856Z 0719/0818 VRB05KT P6SM VCTS SCT050CB TEMPO 0719/0721 3SM -TSRA BKN050CB FM080200 24004KT P6SM BKN100 FM081000 VRB03KT 3SM BR SCT003 FM081300 VRB03KT P6SM SCT020", "TAF COR KFBG 071852Z 0718/0823 27006KT 9999 BKN065 QNH2985INS BECMG 0718/0719 23002KT 9000 -SHRA BKN040 QNH2982INS TEMPO 0719/0802 26010G15KT 8000 -TSRA SCT040 BKN055CB BECMG 0801/0802 24002KT 9999 NSW BKN045 QNH2982INS QNH2982IN BECMG 0817/0818 20003KT 9000 -SHRA BKN045 QNH2982INS QNH2981IN TX32/0720Z TN24/0810Z", "TAF KFCS 072100Z 0721/0903 13010G15KT 8000 -SHRA VCTS BKN030CB QNH3006INS TEMPO 0721/0801 VRB35G45KT 3200 +TSRAGR OVC020CB BECMG 0800/0801 02010KT 8000 -SHRA VCTS BKN030CB QNH3014INS BECMG 0802/0803 03010KT 9999 VCTS BKN030CB QNH3017INS TEMPO 0805/0807 VRB15G25KT 8000 -TSRA BKN020CB BECMG 0806/0807 16009KT 8000 BR BKN007 QNH3019INS BECMG 0811/0812 16006KT 1600 BR OVC005 QNH3017INS BECMG 0816/0817 16009KT 9999 NSW SCT010 QNH3012INS BECMG 0820/0821 14010G15KT 9999 -SHRA VCTS SCT030CB QNH3007INS TEMPO 0823/0903 VRB25G35KT 4800 TSRAGR BKN020CB TX23/0722Z TN15/0809Z", "KFDY 071720Z 0718/0818 06005KT P6SM SCT040 FM080000 VRB03KT P6SM FEW250 FM081700 18007KT P6SM VCSH BKN080", "TAF KFFO 071900Z 0719/0901 VRB06KT 9999 FEW050 FEW200 QNH2987INS BECMG 0810/0811 12012KT 9999 FEW040 SCT075 BKN130 QNH2985INS BECMG 0815/0816 17014KT 9999 VCSH FEW035 BKN070 BKN130 QNH2979INS BECMG 0820/0821 20012G18KT 8000 -SHRA VCTS SCT030CB OVC060 QNH2975INS TEMPO 0822/0901 VRB15G25KT 4800 -TSRA BKN025CB OVC050 TX30/0819Z TN18/0811Z", "TAF KFHU 072200Z 0722/0904 30009KT 9999 BKN120 BKN180 601203 QNH2996INS TEMPO 0722/0801 30010G17KT 510004 BECMG 0801/0802 28009KT 9999 FEW100 QNH2997INS BECMG 0807/0808 VRB06KT 9999 SCT090 QNH3002INS BECMG 0814/0815 28007KT 9999 SCT100 QNH3003INS BECMG 0820/0821 30010G16KT 9999 VCTS SCT100CB 510005 QNH2998INS TEMPO 0821/0904 VRB18G35KT 9000 -TSRA BKN080CB TX37/0722Z TN22/0812Z LAST NO AMDS AFT 0806 NEXT 1006", "KFKL 071740Z 0718/0818 25007KT P6SM SCT040 FM080200 VRB03KT P6SM SKC", "KFLG 071720Z 0718/0818 22018G28KT P6SM SKC FM080300 24007KT P6SM SKC FM081600 22010G20KT P6SM SKC", "KFLL 072052Z 0721/0824 21010KT P6SM VCTS SCT025CB SCT070 TEMPO 0721/0723 VRB15G25KT 4SM TSRA SCT015 BKN030CB FM080200 VRB04KT P6SM SCT030 BKN250 FM081400 24008KT P6SM FEW025 SCT050 FM081700 22008KT P6SM VCTS SCT030CB SCT070 PROB30 0818/0821 5SM TSRA BKN025CB", "KFLO 072122Z 0721/0818 VRB03KT P6SM VCTS SCT050CB TEMPO 0721/0723 VRB15G25KT 3SM TSRA BR BKN045CB FM080500 00000KT P6SM BKN030 TEMPO 0808/0812 3SM BR BKN015", "KFMH 071740Z 0718/0818 17007KT P6SM SCT020 FM080000 19005KT 3SM BR BKN003 FM080300 00000KT 3/4SM BR OVC003 FM080800 00000KT 1/2SM FG VV002 FM081300 16003KT 5SM BR BKN005 FM081500 16006KT P6SM BKN010", "KFMN 071745Z 0718/0818 25011KT P6SM FEW140 FM072000 26016G26KT P6SM SCT140 FM080200 29008KT P6SM FEW150 FM081700 27015G25KT P6SM SKC", "KFMY 071741Z 0718/0818 26008KT P6SM VCTS SCT025CB BKN100 BKN250 TEMPO 0718/0722 VRB12G25KT 5SM TSRA BKN030CB BKN250 FM072200 27008KT P6SM VCSH SCT030 SCT100 BKN250 FM080200 21004KT P6SM SCT025 SCT250 FM081500 25008KT P6SM OVC250 PROB30 0815/0818 P6SM TSRA BKN050CB", "KFNT 071736Z 0718/0818 01005KT P6SM SCT040 SCT070 FM080200 11004KT P6SM FEW070 SCT150 FM080800 12005KT P6SM SCT050 OVC100 FM081500 18005KT 6SM -SHRA BKN030 OVC050", "KFOD 071726Z 0718/0818 16007KT P6SM -RA OVC050 FM072000 08008KT P6SM -RA OVC050 FM080000 06009KT 6SM -RA BR OVC025 FM080300 04007KT P6SM SCT025 OVC060 FM080800 01005KT P6SM BKN070 FM081600 35007KT P6SM SCT040", "KFOE 071858Z 0719/0818 VRB06KT P6SM SCT025 BKN120 TEMPO 0719/0720 01010G20KT BKN030 FM072300 26008KT P6SM VCTS BKN070CB FM080200 30005KT P6SM BKN060 FM080800 36008KT P6SM OVC009", "KFPR 071724Z 0718/0818 26010KT P6SM VCTS SCT035CB BKN060 TEMPO 0719/0723 3SM TSRA BKN035CB FM080000 22005KT P6SM BKN070 BKN150 FM081700 26010KT P6SM VCSH SCT040 SCT250", "TAF AMD KFRI 072100Z 0721/0902 VRB06KT 9999 FEW025 BKN050 QNH2986INS BECMG 0723/0724 VRB06KT 6000 -TSRA BKN025 OVC070CB QNH2983INS TEMPO 0802/0803 VRB06KT 8000 VCTS BKN025 OVC070CB BECMG 0810/0811 01015KT 8000 VCTS BKN025CB OVC050 QNH2991INS BECMG 0818/0819 04009KT 9999 NSW FEW040 QNH2998INS TX27/0721Z TN15/0811Z LAST NO AMDS AFT 0721 NEXT 1012", "KFSD 071913Z 0719/0818 13008KT P6SM -SHRA BKN012 OVC080 FM072100 13009KT P6SM -SHRA OVC018 FM072300 12008KT P6SM OVC050 FM080200 12005KT P6SM SCT100 FM081000 33003KT 5SM BR SCT002 FM081400 35007KT P6SM SCT020", "KFSM 071857Z 0719/0818 00000KT P6SM VCSH SCT030 BKN250 FM080100 14006KT P6SM BKN150 PROB30 0810/0816 4SM -TSRA BKN025CB FM081600 27005KT P6SM BKN050", "KFST 071740Z 0718/0818 14011KT P6SM SKC FM072200 15017G26KT P6SM SKC FM081000 16014KT P6SM FEW250", "TAF KFTK 071900Z 0719/0901 33005KT 9999 FEW040 FEW200 QNH2988INS BECMG 0808/0809 17006KT 9999 BKN200 QNH2978INS BECMG 0819/0820 22009KT 9000 -SHRA VCTS BKN035CB BKN120 BKN200 QNH2975INS TEMPO 0820/0823 23012G18KT 3200 TSRA BKN035CB OVC120 TX29/0720Z TN19/0809Z LAST NO AMDS AFT 0803 NEXT 1011", "KFTW 072057Z 0721/0818 18014KT P6SM FEW050 BKN250", "KFTY 072148Z 0722/0818 04006KT P6SM VCSH SCT040 FM080000 35004KT P6SM SCT120 FM081600 29006KT P6SM SCT040", "KFVE 071720Z 0718/0818 20007KT P6SM -SHRA VCTS BKN200CB FM080700 VRB03KT P6SM BKN023 FM080900 VRB03KT 2SM BR BKN008 FM081200 VRB03KT P6SM SCT012 FM081500 VRB03KT P6SM SCT035", "KFWA 071720Z 0718/0818 20004KT P6SM SCT050 FM080300 VRB02KT P6SM BKN100 FM081300 15008KT P6SM VCSH BKN035", "KFXE 072052Z 0721/0818 21010KT P6SM VCTS SCT025CB SCT070 TEMPO 0721/0723 VRB15G25KT 4SM TSRA SCT015 BKN030CB FM080200 VRB05KT P6SM SCT030 BKN250 FM081400 24008KT P6SM FEW025 SCT050 FM081700 22008KT P6SM VCTS SCT030CB SCT070", "KFYV 071945Z 0720/0818 19007KT P6SM VCSH SCT020 TEMPO 0720/0724 BKN020 FM080000 VRB03KT P6SM BKN100 PROB30 0809/0815 4SM -TSRA BKN025CB FM081500 27005KT P6SM BKN035", "KGBD 071743Z 0718/0818 24008KT P6SM BKN060 FM080100 01009KT P6SM VCTS SCT015 BKN025CB FM080600 04008KT P6SM BKN040", "KGCC 072202Z 0722/0818 04006KT P6SM SCT100 FM080000 07007KT P6SM SCT250 FM080800 15012G22KT P6SM SCT250", "KGCK 071720Z 0718/0818 23003KT P6SM OVC045 FM080900 01008KT P6SM OVC040 FM081200 03011KT P6SM BKN006 FM081500 04011KT P6SM SCT035", "KGCN 071720Z 0718/0818 22016G26KT P6SM SKC FM080300 VRB06KT P6SM SKC FM081600 22009G18KT P6SM SKC", "KGDV 071720Z 0718/0818 04010KT P6SM SKC FM080200 VRB06KT P6SM FEW160", "KGEG 071720Z 0718/0818 05007KT P6SM FEW070 SCT150 FM080600 04005KT P6SM BKN250", "TAF KGFA 072000Z 0720/0902 VRB06KT 9999 FEW070 QNH3001INS BECMG 0721/0722 17012G20KT 9000 -SHRA SCT070 BKN100 QNH3000INS BECMG 0801/0802 13010KT 9999 NSW FEW075 QNH2998INS BECMG 0812/0813 VRB06KT 9999 SKC QNH3001INS TX27/0820Z TN11/0812Z LAST NO AMDS AFT 0722 NEXT 1012", "KGFK 071720Z 0718/0818 36012KT P6SM BKN020 FM072100 35014G20KT P6SM FEW120 FM080200 36010KT P6SM FEW240 FM080900 VRB05KT P6SM FEW240 FM081100 VRB03KT P6SM FEW250", "KGFL 072139Z 0722/0818 36010KT 3SM RA BR SCT040 OVC100 TEMPO 0722/0723 5SM -RA BR BKN040 FM080300 00000KT 2SM BR BKN070 FM080500 00000KT 1/2SM FG BKN002 FM081400 00000KT P6SM BKN070", "KGGG 071741Z 0718/0818 23008KT P6SM SCT035 BKN045 BKN070 FM080100 17008KT P6SM SCT250 FM080600 19006KT P6SM FEW250 FM081500 22009KT P6SM FEW100 SCT150 BKN250", "KGGW 071720Z 0718/0818 VRB06KT P6SM FEW090", "KGJT 071720Z 0718/0818 15006KT P6SM SKC FM072000 27013G22KT P6SM FEW130 FM080200 26009KT P6SM SKC FM080400 10005KT P6SM SKC FM080700 10011KT P6SM SKC FM081300 14006KT P6SM SKC", "KGKY 072057Z 0721/0818 17013KT P6SM FEW050 BKN250", "KGLD 071720Z 0718/0818 32008KT P6SM BKN020 FM072200 03010G20KT P6SM SCT250 FM080300 05007KT P6SM BKN110 FM081600 09008KT P6SM FEW110", "KGLH 071750Z 0718/0818 26007KT P6SM VCSH SCT025 SCT060 FM072000 26006KT P6SM VCTS SCT040CB FM080000 16003KT P6SM SCT100 FM081400 24009G18KT P6SM SCT025 SCT100", "KGLS 071731Z 0718/0818 16010KT P6SM VCSH FEW020 BKN040 FM072000 16012KT P6SM BKN050 FM080000 17010KT P6SM SCT050 FM081200 18009KT P6SM SCT025", "KGMU 072155Z 0722/0818 VRB04KT P6SM VCSH SCT045 BKN100 FM080000 33005KT P6SM SCT050 BKN250 FM080500 34003KT P6SM BKN200 FM081500 VRB04KT P6SM SCT045", "KGNV 071721Z 0718/0818 24010G15KT P6SM VCTS SCT025CB BKN040 FM072000 24008KT P6SM VCTS FEW015 BKN025CB BKN080 TEMPO 0720/0724 VRB15G25KT 5SM TSRA BR SCT015 BKN030CB FM080000 24007KT P6SM VCTS FEW015 FEW030CB SCT040 TEMPO 0800/0804 VRB20G40KT 3SM TSRA BR SCT010 BKN025CB FM080400 VRB04KT P6SM SCT045 SCT080 BKN120 FM080800 VRB03KT P6SM FEW100 SCT250 FM081500 27008KT P6SM SCT040", "KGON 071955Z 0720/0818 13008KT 4SM BR BKN005 BKN250 TEMPO 0722/0724 1SM BR FM080000 15004KT 3SM BR SCT007 BKN012 TEMPO 0800/0804 BKN007 FM080400 VRB03KT 1SM BR BKN006 FM081500 14005KT 5SM BR SCT006 BKN020 FM081700 17007KT P6SM FEW006 SCT020 BKN250", "KGPI 071720Z 0718/0818 03010KT P6SM SKC FM080200 03011G18KT P6SM SCT250 FM080400 01005KT P6SM SKC", "KGPT 071720Z 0718/0818 24007KT P6SM VCTS SCT110CB FM072100 23009KT P6SM -SHRA SCT090 TEMPO 0721/0723 4SM TSRA BR BKN090CB FM072300 25009KT P6SM VCTS SCT100CB FM080400 28005KT P6SM SCT110", "KGRB 071727Z 0718/0818 15005KT P6SM SCT250 FM080400 22004KT P6SM BKN100 FM081700 34005KT P6SM SCT150", "TAF KGRF 072100Z 0721/0903 24007KT 9999 FEW250 QNH2985INS BECMG 0805/0806 25006KT 9999 SCT020 QNH2993INS BECMG 0809/0810 23005KT 9999 SCT012 QNH2993INS BECMG 0811/0812 22004KT 9999 OVC009 QNH2994INS BECMG 0815/0816 22005KT 9999 OVC016 QNH2996INS BECMG 0817/0818 22006KT 9999 BKN023 QNH2996INS BECMG 0818/0819 23007KT 9999 SKC QNH2987INS TX21/0723Z TN12/0812Z", "KGRI 072003Z 0720/0818 22008KT P6SM SCT018 FM072030 34010KT P6SM SCT025 FM080000 36010KT P6SM SCT200 FM080700 02008KT P6SM BKN011 FM081500 04009KT P6SM SCT015", "TAF KGRK 071558Z 0716/0822 15012G18KT 9999 SCT030 BKN050 QNH2992INS BECMG 0718/0719 15012G18KT 9999 SCT050 QNH2983INS BECMG 0800/0801 15009KT 9999 SCT060 QNH2985INS BECMG 0809/0810 17009KT 9999 BKN015 QNH2988INS BECMG 0815/0816 16012G18KT 9999 SCT040 QNH2981INS TX36/0722Z TN24/0812Z", "KGRR 071740Z 0718/0818 VRB03KT P6SM SCT060 BKN250 FM080000 VRB03KT P6SM BKN150 FM080700 VRB03KT P6SM VCSH OVC080 FM081500 02005KT P6SM -SHRA OVC019", "TAF AMD KGSB 072100Z 0721/0902 18009KT 9999 SCT050 QNH2977INS TEMPO 0721/0724 VRB10G21KT 6000 -TSRA BKN020CB BECMG 0801/0802 22009KT 9999 BKN050 QNH2980INS TEMPO 0820/0824 18010G21KT 6000 -TSRA BKN020CB TX34/0721Z TN24/0809Z LAST NO AMDS AFT 0721 NEXT 1004", "KGSO 071738Z 0718/0818 VRB03KT P6SM SCT040 FM071900 33005KT P6SM VCTS SCT040CB FM080000 31003KT P6SM BKN100", "KGSP 072155Z 0722/0818 VRB04KT P6SM VCSH SCT045 BKN100 FM080000 33005KT P6SM SCT050 BKN250 FM080500 34003KT P6SM BKN200 FM081500 VRB04KT P6SM SCT045", "TAF AMD KGTB 071915Z 0719/0823 29007KT 9999 SCT025 SCT040 BKN100 QNH2986INS BECMG 0723/0724 VRB06KT 9999 FEW025 FEW065 BKN100 QNH2986INS BECMG 0812/0813 24006KT 9999 BKN025 QNH2989INS BECMG 0817/0818 26008KT 9999 SCT200 QNH2986INS TX26/0719Z TN17/0810Z", "KGTF 072159Z 0722/0818 11010KT P6SM SCT090 SCT120 TEMPO 0722/0723 13020G30KT FM080200 VRB06KT P6SM FEW120", "KGTR 071750Z 0718/0818 VRB03KT P6SM VCTS BKN020CB FM072200 19004KT P6SM SCT100 FM081200 26004KT P6SM BKN025", "KGUC 071720Z 0718/0818 VRB04KT P6SM SKC FM071900 26017G26KT P6SM FEW120 FM080200 31006KT P6SM FEW120 FM080500 02005KT P6SM SKC FM081200 VRB03KT P6SM SKC", "KGUP 071745Z 0718/0818 23012G22KT P6SM FEW130 FM072000 25018G30KT P6SM SCT130 SCT180 FM080200 25008KT P6SM SCT150 FM081700 25018G26KT P6SM SKC", "TAF COR KGUR 072100Z 0721/0903 36009KT 9999 SKC QNH3003INS BECMG 0816/0817 15010G15KT 9999 FEW030 SCT045 BKN065 QNH3007INS BECMG 0819/0820 14015KT 9000 -SHRA BKN045 OVC065 QNH3002INS BECMG 0901/0902 13010G15KT 9999 NSW BKN045 OVC065 QNH3004INS TX24/0722Z TN13/0812Z", "TAF KGUS 072100Z 0721/0903 VRB06KT 9999 SKC QNH2987INS BECMG 0807/0808 VRB06KT 9999 SCT030 BKN060 QNH2986INS TEMPO 0809/0813 VRB15G25KT 2400 TSRA BKN018CB BECMG 0812/0813 35009KT 9999 VCSH BKN020 OVC040 QNH2979INS TEMPO 0817/0820 VRB15G25KT 1600 TSRA OVC010CB BECMG 0819/0820 VRB06KT 9999 NSW BKN025 BKN060 QNH2977INS TX28/0721Z TN18/0809Z LAST NO AMDS AFT 0803 NEXT 0813", "KGUY 071846Z 0719/0818 16008KT P6SM SCT022 SCT040 BKN060 FM072300 02013KT P6SM VCTS BKN080CB FM080100 19012KT P6SM VCSH BKN030 FM080300 09009KT P6SM BKN100 FM081400 05008KT P6SM BKN020", "KGWO 071750Z 0718/0818 23004KT P6SM VCSH SCT020 SCT060 FM072000 24004KT P6SM VCTS BKN040CB FM080000 18003KT P6SM SCT025 SCT100", "KGYY 072100Z 0721/0818 04008KT P6SM SCT050 BKN150 FM080100 06006KT P6SM VCSH SCT050 OVC100 FM080500 06007KT P6SM VCSH BKN070 TEMPO 0809/0813 4SM -SHRA BR SCT010 OVC020 FM081300 04008KT P6SM VCSH SCT010 OVC020", "KHBG 071750Z 0718/0818 33004KT P6SM SCT030 FM072100 28006KT P6SM VCTS BKN050CB FM080200 26005KT P6SM SCT090 FM081000 28003KT P6SM SCT008 SCT015", "KHCR 071723Z 0718/0818 VRB03KT P6SM FEW150 FM072000 24007KT P6SM SKC FM080300 VRB03KT P6SM SKC AMD LTD TO CLD WX VIS", "KHDC 071720Z 0718/0818 28005KT P6SM VCTS BKN100CB FM072000 27007KT P6SM VCTS SCT100CB FM080400 23005KT P6SM SCT250 FM081000 00000KT P6SM FEW250 FM081300 27005KT P6SM FEW110 FM081700 23007KT P6SM FEW110", "KHDN 071720Z 0718/0818 VRB04KT P6SM SKC FM071900 31008KT P6SM FEW110 FM080300 10008KT P6SM FEW100", "KHEZ 071750Z 0718/0818 30005KT P6SM SCT030 FM072200 27006KT P6SM VCSH BKN050 FM080200 21003KT P6SM SCT100 FM080800 23004KT P6SM SCT008 SCT015", "KHIB 071720Z 0718/0818 25010G16KT P6SM SCT090 FM072100 26012KT 6SM SHRA VCTS BKN050CB FM080400 32005KT P6SM BKN070", "KHIE 072102Z 0721/0818 22004KT P6SM -SHRA VCTS SCT050CB BKN200 TEMPO 0721/0722 3SM TSRA BR FM080300 00000KT P6SM BKN090 FM080600 00000KT 1/2SM FG OVC002 FM081400 00000KT P6SM BKN040", "TAF KHIF 072100Z 0721/0903 34009KT 9999 SCT180 QNH2986INS BECMG 0802/0803 08015G25KT 9999 SCT160 510009 QNH2987INS TEMPO 0806/0809 VCSH FEW140 SCT170 BECMG 0818/0819 25012KT 9999 FEW160 QNH2986INS BECMG 0902/0903 09012KT 9999 SCT150 QNH2987INS TX32/0722Z TN17/0812Z", "KHIO 071738Z 0718/0818 VRB03KT P6SM OVC018 FM072000 34005KT P6SM FEW050 FM081000 VRB02KT P6SM BKN020", "KHKS 071750Z 0718/0818 29005KT P6SM SCT020 SCT060 FM072100 29006KT P6SM VCTS BKN040CB FM080100 21003KT P6SM SCT015 SCT100 FM081200 24004KT P6SM SCT020", "KHKY 071740Z 0718/0818 34004KT P6SM SCT045 BKN080 TEMPO 0719/0723 4SM -TSRA BKN045CB FM072300 01003KT P6SM VCTS BKN050CB FM080500 34003KT P6SM FEW050 BKN120 FM080900 33003KT 6SM BR SCT130 FM081300 VRB04KT P6SM SCT040", "KHLG 071740Z 0718/0818 34007KT P6SM SCT050 FM080000 VRB03KT P6SM SKC", "KHLN 071730Z 0718/0818 08010KT P6SM FEW070 BKN110 FM080300 VRB06KT P6SM SCT090", "TAF AMD KHMN 072030Z 0720/0823 18015G25KT 9999 FEW150 QNH2989INS TS OMTNS AFT 19Z BECMG 0721/0722 36030G40KT 9000 -SHRA BKN100 520003 QNH2984INS BECMG 0804/0805 15010G15KT 9999 NSW SCT150 QNH2988INS TX39/0721Z TN23/0808Z", "KHNB 071739Z 0718/0818 VRB04KT P6SM SCT250 FM081200 19005KT P6SM BKN100 FM081500 22007KT 6SM -SHRA VCTS SCT035CB BKN060 PROB30 0815/0818 2SM TSRA BR BKN025CB", "KHND 071722Z 0718/0818 20007KT P6SM SKC FM071900 24014G22KT P6SM SKC FM080400 19010KT P6SM SKC", "KHOB 071740Z 0718/0818 16014G22KT P6SM SCT100 FM080600 15011KT P6SM SCT100 BKN250", "KHON 071943Z 0720/0818 15008KT P6SM SCT018 OVC080 FM080700 27003KT 4SM BR BKN250 FM080900 VRB03KT 1 1/2SM BR SCT002 FM081400 01004KT P6SM SKC", "TAF KHOP 071600Z 0716/0822 VRB06KT 9999 SCT100 QNH2988INS BECMG 0813/0814 VRB06KT 8000 BR SCT020 BKN040 QNH2988INS BECMG 0816/0817 20010G18KT 9000 -SHRA BKN027 OVC040 QNH2980INS TEMPO 0818/0822 VRB20G35KT 6000 -TSRA BKN020CB OVC040 TX29/0721Z TN20/0810Z", "KHOT 071903Z 0719/0818 22005KT P6SM VCTS OVC015CB FM080000 18007KT P6SM VCSH BKN150 PROB30 0812/0818 4SM TSRA BR OVC025CB", "KHOU 072054Z 0721/0818 17008KT P6SM VCSH FEW025 SCT100 FM072300 16009KT P6SM SCT200 FM080300 VRB05KT P6SM FEW250 FM081200 19007KT P6SM SCT020", "KHPN 071955Z 0720/0818 14007KT P6SM SCT030 BKN250 FM072200 16005KT P6SM VCTS SCT030 BKN050CB BKN250 FM080100 VRB03KT P6SM SCT050 BKN250 FM080500 VRB03KT P6SM SCT007 BKN012 TEMPO 0808/0812 2SM BR BKN007 FM081400 12005KT P6SM SCT012 SCT025 FM081600 15006KT P6SM SCT025 BKN250 AMD NOT SKED", "KHQM 071744Z 0718/0818 25006KT P6SM OVC015 FM080000 25011KT P6SM OVC030 FM080600 26005KT P6SM OVC020 TEMPO 0812/0815 OVC012", "KHRF 071720Z 0718/0818 02005KT P6SM SKC", "KHRL 071905Z 0719/0818 06010G24KT P6SM VCTS FEW030CB FM080500 14010KT P6SM SCT019 BKN250 FM081000 14007KT P6SM FEW021 SCT170 FM081500 15011KT P6SM SCT025 BKN110", "KHRO 071720Z 0718/0818 18009KT P6SM VCSH SCT050 BKN150 PROB30 0803/0809 4SM TSRA BR BKN050CB FM081200 27008KT 6SM -SHRA BR VCTS BKN015CB", "TAF KHRT 071800Z 0718/0900 24010G15KT 9999 SCT030 SCT150 QNH2993INS BECMG 0718/0719 24010G15KT 9000 -SHRA SCT030 BKN150 QNH3000INS TEMPO 0719/0723 8000 -TSRA BKN030CB BECMG 0722/0723 28008KT 9999 NSW SCT030 BKN150 QNH2989INS BECMG 0802/0803 32006KT 9999 SCT150 QNH2990INS BECMG 0813/0814 28009KT 9999 SCT040 BKN150 QNH2992INS TEMPO 0819/0823 20012G18KT 8000 TSRA BKN030CB TX31/0719Z TN24/0811Z", "TAF KHST 071900Z 0719/0901 22009KT 9999 VCSH FEW020 BKN030 BKN180 QNH2993INS TEMPO 0719/0723 VRB12G18KT 4800 -TSRA BKN020CB BECMG 0723/0724 VRB06KT 9999 NSW SCT025 SCT045 BKN180 QNH2995INS BECMG 0814/0815 22009KT 9999 SCT025 BKN035 BKN250 QNH2993INS TEMPO 0820/0823 VRB10G15KT 9000 -SHRA BKN025 BECMG 0823/0824 VRB04KT 9000 -SHRA FEW025 QNH2997INS TX33/0719Z TN25/0811Z", "KHSV 071720Z 0718/0818 35006KT P6SM SCT025 SCT050 BKN200 FM080000 04003KT P6SM FEW035 FEW060 SCT200 FM081500 22006KT P6SM SCT035 BKN060 BKN200", "KHTS 072031Z 0721/0818 VRB05KT P6SM SCT050 FM080100 31003KT P6SM SCT250 FM081400 17003KT P6SM SCT250", "TAF KHUA 072000Z 0720/0902 VRB06KT 9999 VCTS FEW110CB QNH2989INS BECMG 0816/0817 VRB06KT 9000 -SHRA FEW035 QNH2991INS TEMPO 0818/0900 VRB30G40KT 9000 -TSRA SCT030CB BKN050 OVC065 BECMG 0900/0901 VRB06KT 8000 BR SCT030 QNH2983INS BECMG 0901/0902 VRB06KT 9000 -SHRA SCT026 QNH2984INS TX31/0721Z TN20/0811Z LAST NO AMDS AFT 0800 NEXT 1012", "KHUF 071725Z 0718/0818 25004KT P6SM SCT040 FM080200 VRB03KT P6SM SCT070 FM080600 08005KT P6SM OVC070 FM081200 11007KT P6SM VCSH BKN035", "KHUL 071720Z 0718/0818 20008KT P6SM -SHRA VCTS BKN250CB FM080100 23004KT P6SM VCSH SKC FM080200 22004KT P6SM VCSH BKN070 FM080900 VRB03KT P6SM BKN026 FM081400 20004KT P6SM SCT045", "KHUM 071720Z 0718/0818 26005KT P6SM TSRA BKN100CB FM072000 20006KT P6SM VCTS BKN100CB FM080300 VRB04KT P6SM SCT250 FM081100 00000KT P6SM SCT250 FM081400 25005KT P6SM -SHRA FEW090 FM081700 21007KT P6SM -SHRA SCT090", "KHUT 072058Z 0721/0818 19008KT P6SM VCTS SCT040CB BKN100 TEMPO 0721/0722 5SM -TSRA BKN040CB FM072200 19008KT P6SM SCT040 BKN100 FM080100 16007KT P6SM VCTS SCT030CB BKN100 TEMPO 0802/0806 3SM TSRA BKN030CB FM080700 35008KT P6SM SCT015 BKN025", "KHVR 072002Z 0720/0818 09014KT P6SM SCT080 BKN110 TEMPO 0723/0801 -TSRA BKN060CB FM080200 08008KT P6SM SCT120", "KHYA 072010Z 0720/0818 18006KT 4SM BR BKN006 FM080100 18005KT 1SM BR BKN003 FM080600 00000KT 1/2SM FG OVC003 FM081200 14004KT 3SM BR OVC003 FM081500 12004KT P6SM BKN010", "KHYR 071720Z 0718/0818 23008KT P6SM SCT070 FM080800 35004KT P6SM VCSH BKN080", "KHYS 071720Z 0718/0818 33013KT P6SM FEW019 OVC090 FM071900 18009KT P6SM BKN030 FM080900 01008KT P6SM BKN025 FM081200 36009KT P6SM BKN017 FM081400 02010KT P6SM SCT030", "TAF AMD KIAB 072045Z 0720/0824 12006KT 9999 VCTS FEW025CB BKN100 BKN200 QNH2987INS TEMPO 0720/0723 VRB20G30KT 8000 -TSRA BKN025CB OVC100 BECMG 0722/0723 12009KT 9999 NSW SCT050 BKN080 BKN200 QNH2982INS BECMG 0802/0803 09008KT 8000 -SHRA VCTS SCT010 BKN020CB QNH2985INS TEMPO 0802/0808 VRB20G30KT 4800 TSRA SCT008 OVC015CB BECMG 0809/0810 VRB06KT 9999 NSW SCT006 BKN025 BKN200 QNH2989INS TEMPO 0810/0814 BKN006 OVC025 BECMG 0813/0814 02015G22KT 9999 SCT008 BKN015 BKN200 QNH2992INS BECMG 0817/0818 03010G17KT 9999 SCT025 BKN065 QNH2994INS TX25/0721Z TN18/0812Z", "KIAD 072102Z 0721/0824 17007KT 6SM -SHRA VCTS SCT050CB FM080000 30004KT P6SM SCT035 BKN250 FM080600 33003KT 6SM BR SCT030 BKN100 FM081200 36004KT P6SM SCT035 BKN090 FM081800 12005KT P6SM VCSH SCT040 BKN100 FM082100 20005KT P6SM VCSH SCT040 BKN100", "KIAG 071740Z 0718/0818 30010KT P6SM FEW035 SCT080 FM080000 29004KT P6SM SKC FM080600 VRB03KT P6SM SKC FM081500 25006KT P6SM BKN250", "KIAH 072054Z 0721/0824 16008KT P6SM VCSH SCT040 FM072300 15008KT P6SM SCT050 FM080600 VRB05KT P6SM SCT025 FM081900 17007KT P6SM VCSH SCT120", "KICT 072156Z 0722/0818 19006KT P6SM VCTS BKN040CB TEMPO 0722/0724 5SM -TSRA BKN030CB FM080000 19008KT P6SM BKN100 FM080200 16006KT P6SM VCTS SCT030CB BKN100 TEMPO 0803/0807 3SM TSRA BKN030CB FM080800 35008KT P6SM SCT015 BKN025", "KIDA 071720Z 0718/0818 35008KT P6SM FEW110 FM072200 35010KT P6SM VCTS FEW070CB FEW130 FM080100 04008KT P6SM SCT130 FM080300 VRB04KT P6SM FEW120 FM080900 01008KT P6SM SCT110 FM081400 VRB08KT P6SM VCSH SCT100 BKN120 BKN180", "KIFP 071722Z 0718/0818 19015G23KT P6SM SKC FM080400 16011KT P6SM SKC FM081700 20013G21KT P6SM SKC", "KILG 072058Z 0721/0818 15004KT P6SM VCTS FEW025 SCT100CB TEMPO 0721/0724 VRB10KT 3SM TSRA BR OVC025CB FM080100 17003KT P6SM SCT030 BKN150 FM080700 VRB02KT 5SM BR BKN015 FM081300 VRB03KT P6SM BKN040", "KILM 071720Z 0718/0818 19007KT P6SM VCTS SCT050CB FM080100 VRB02KT P6SM BKN080 TEMPO 0808/0812 4SM BR BKN030 FM081300 VRB03KT P6SM VCTS BKN050CB", "KILN 071724Z 0718/0818 34005KT P6SM SCT025 BKN250 FM080000 06005KT P6SM SCT250 FM080900 10005KT P6SM BKN250 FM081500 16006KT P6SM SCT040 BKN120", "KIND 072037Z 0721/0824 29008KT P6SM SCT060 TEMPO 0723/0803 VRB04KT FM080300 16004KT P6SM SCT070 FM081400 18007KT P6SM VCSH BKN070 FM081900 20007KT P6SM VCTS BKN035CB", "KINK 071740Z 0718/0818 15014G22KT P6SM SCT250 AMD NOT SKED", "KINL 071720Z 0718/0818 28009KT 6SM -SHRA VCTS BKN045CB FM072200 30009KT P6SM SCT045 FM080000 33007KT P6SM SCT045 FM080500 01006KT P6SM FEW045", "TAF AMD KINS 072204Z 0722/0903 08012G21KT 9999 SKC 510009 QNH2973INS BECMG 0801/0802 22012G21KT 9999 SKC 510009 QNH2974INS BECMG 0804/0805 VRB06KT 9999 SKC QNH2981INS BECMG 0817/0818 15012G18KT 9999 SKC QNH2980INS BECMG 0820/0821 13015G22KT 9999 SKC QNH2977INS TX37/0722Z TN19/0812Z", "KINT 071738Z 0718/0818 35005KT P6SM SCT040 FM071900 33005KT P6SM VCTS SCT040CB FM080000 31003KT P6SM BKN100", "KINW 071720Z 0718/0818 22020G30KT P6SM SKC FM080100 21012G22KT P6SM SKC FM080300 20009KT P6SM SKC", "KIPL 071720Z 0718/0818 VRB05KT P6SM SKC FM072100 22008KT P6SM SKC FM080000 26013G23KT P6SM SKC FM080600 28010KT P6SM SKC", "KIPT 072110Z 0721/0818 19008KT P6SM VCTS SCT035CB BKN050 FM072300 29005KT P6SM SCT035 BKN050 FM080300 VRB03KT P6SM SCT250 FM080800 VRB02KT 2SM BR SCT004 FM081200 27003KT P6SM SKC", "KISM 072016Z 0720/0818 27009KT P6SM VCTS SCT045CB BKN060 BKN250 TEMPO 0720/0723 3SM TSRA BKN035CB FM080000 24005KT P6SM FEW070 SCT150 SCT250 FM081600 26011KT P6SM VCTS SCT040CB BKN200", "KISO 071743Z 0718/0818 VRB03KT P6SM SCT040 FM072100 VRB04KT P6SM VCTS SCT050CB FM080200 00000KT P6SM VCSH BKN120 FM080900 00000KT 5SM BR BKN100 FM081200 VRB03KT P6SM BKN050 FM081500 VRB04KT P6SM VCSH SCT030 BKN060 AMD LTD TO CLD VIS AND WIND", "KISP 072011Z 0720/0818 18008KT P6SM SCT025 BKN250 TEMPO 0720/0724 BKN025 FM080000 19003KT P6SM SCT012 BKN025 TEMPO 0801/0804 4SM BR BKN012 FM080400 VRB02KT P6SM BKN012 TEMPO 0806/0810 2SM BR BKN007 FM081000 VRB03KT 4SM BR OVC007 FM081400 17006KT P6SM SCT007 BKN020 FM081700 18008KT P6SM FEW006 SCT020 BKN250", "KITH 071948Z 0720/0818 33010KT P6SM OVC035 FM072300 33005KT P6SM BKN035 FM080500 VRB03KT P6SM SCT035 FM080800 VRB03KT 3SM BR SKC FM081200 28004KT P6SM SCT040", "KIWA 071720Z 0718/0818 21008KT P6SM SKC FM072100 26009G18KT P6SM SKC FM080200 29009KT P6SM SKC FM080900 13007KT P6SM SKC", "KIWD 071732Z 0718/0818 25010G18KT P6SM SCT130 FM080000 23005KT P6SM BKN070 FM081200 VRB04KT P6SM VCSH BKN025 FM081600 35006KT P6SM BKN035", "KIXD 071720Z 0718/0818 14011KT P6SM SCT050 BKN120 FM080100 20008KT P6SM VCTS BKN050CB OVC100 TEMPO 0801/0803 5SM TSRA OVC030CB FM080400 VRB05KT P6SM VCSH BKN050 OVC100 FM081000 35006KT 6SM BR OVC015", "KJAC 071727Z 0718/0818 19007KT P6SM FEW080 SCT120 FM072100 22009KT P6SM VCTS SCT070CB BKN120 FM080200 01007KT P6SM SCT090 BKN150 FM080900 VRB06KT P6SM FEW100 SCT150", "KJAN 071750Z 0718/0818 29005KT P6SM SCT020 SCT060 FM072100 29006KT P6SM VCTS BKN040CB FM080100 21003KT P6SM SCT015 SCT100 FM081200 24004KT P6SM SCT020", "KJAX 071721Z 0718/0818 21010KT P6SM VCTS SCT035CB BKN050 TEMPO 0718/0722 VRB10G25KT 4SM -TSRA FEW012 SCT035CB BKN040 FM072200 21008KT P6SM VCTS SCT035CB BKN050 TEMPO 0722/0802 VRB15G30KT 3SM -TSRA BR FEW010 SCT035CB BKN050 FM080200 21006KT P6SM VCSH SCT040 BKN080 TEMPO 0802/0806 5SM -SHRA SCT040 BKN060 FM080600 24005KT P6SM FEW030 SCT080 BKN120 FM080900 VRB02KT P6SM SCT100 FM081500 27008KT P6SM SCT040 BKN100", "KJBR 071725Z 0718/0818 15006KT P6SM SCT200 FM080100 19003KT P6SM FEW050 SCT200 FM081400 23008KT P6SM VCTS BKN030CB OVC100", "KJCT 071733Z 0718/0818 14010KT P6SM BKN025 FM072100 16010G20KT P6SM SCT250 FM080200 VRB06KT P6SM FEW250 FM081200 18010KT P6SM BKN015", "KJEF 072151Z 0722/0818 17007KT P6SM SHRA VCTS BKN050CB FM072300 14005KT P6SM OVC050 FM081000 VRB04KT P6SM VCSH OVC020", "KJER 071738Z 0718/0818 11015KT P6SM VCSH FEW200 FM072100 05007KT P6SM VCTS SCT080CB BKN200 FM080300 12007KT P6SM BKN150 FM080700 08012KT P6SM BKN150", "KJFK 071955Z 0720/0824 15012KT P6SM SCT035 SCT250 FM072200 16010KT P6SM VCTS SCT030 BKN040CB BKN250 FM080100 16007KT P6SM SCT025 BKN250 FM080300 17005KT P6SM SCT008 BKN012 FM080800 VRB03KT P6SM BKN008 FM081400 14005KT P6SM SCT008 BKN015 FM081600 15007KT P6SM SCT025 BKN250 FM081800 17009KT P6SM SCT035 BKN250 FM082000 18010KT P6SM VCSH BKN040 BKN250", "KJHW 071740Z 0718/0818 34010KT P6SM SCT015 BKN060 FM072300 32005KT P6SM SCT250 FM080300 VRB03KT P6SM SKC FM080700 00000KT 2SM BR SCT015 FM080900 00000KT 1/2SM FG BKN007 FM081300 18005KT P6SM SCT025", "KJKA 071725Z 0718/0818 25009KT P6SM VCTS SCT035CB BKN120 TEMPO 0720/0724 4SM TSRA BR BKN030CB FM080200 29002KT P6SM FEW030 OVC250 FM081200 30004KT P6SM SCT250", "KJKL 071739Z 0718/0818 VRB04KT P6SM FEW020 SCT250 FM080800 VRB03KT 4SM BR SCT003 BKN015 FM081000 VRB03KT 1SM BR FEW003 SCT015 FM081300 VRB03KT P6SM SCT200", "KJLN 071720Z 0718/0818 22008KT P6SM SCT040 BKN200 PROB30 0803/0806 4SM TSRA BR OVC025CB FM080600 22008KT 6SM -TSRA BKN045CB TEMPO 0806/0810 2SM TSRA BR BKN030CB FM081100 29008KT P6SM BKN035", "KJMS 072140Z 0722/0818 36012KT P6SM FEW050 OVC100 FM080200 35005KT P6SM FEW250", "KJST 072110Z 0721/0818 33011KT P6SM SCT025 BKN040 TEMPO 0721/0723 BKN025 FM080300 33006KT P6SM SCT250 FM080800 33004KT 6SM BR SCT004 FM081200 28006KT P6SM FEW030 BKN250", "KJVL 072104Z 0721/0818 VRB04KT P6SM SCT060 BKN250 FM080800 01006KT P6SM OVC021 PROB30 0808/0814 4SM -SHRA BR OVC015 FM081700 03008KT P6SM BKN035", "KJXN 071740Z 0718/0818 30006KT P6SM BKN060 FM080000 04003KT P6SM BKN200 FM080900 16004KT P6SM -SHRA OVC080 FM081400 18006KT P6SM OVC050 FM081600 VRB05KT P6SM -RA OVC050", "KJZI 072100Z 0721/0818 19010KT P6SM VCTS SCT050CB TEMPO 0721/0722 VRB15G25KT 3SM TSRA BKN035CB FM080000 19004KT P6SM SCT250 FM081500 30005KT P6SM FEW050", "KLAF 071725Z 0718/0818 34005KT P6SM SCT040 FM080600 10004KT P6SM BKN070 FM081200 11005KT P6SM VCSH BKN060 TEMPO 0813/0817 5SM -SHRA BR OVC035", "KLAL 071741Z 0718/0818 27007KT P6SM VCTS SCT030CB BKN100 TEMPO 0718/0722 VRB12G25KT 3SM TSRA BKN030CB FM080000 26005KT P6SM SCT040 SCT100 FM080400 22003KT P6SM FEW020 FEW250 FM081400 29008KT P6SM VCTS SCT030CB BKN100 PROB30 0816/0818 P6SM TS BKN030CB", "KLAN 071740Z 0718/0818 10003KT P6SM SKC FM080000 35004KT P6SM BKN200 FM080900 16005KT P6SM -SHRA OVC080 FM081400 VRB05KT P6SM -RA OVC050", "KLAR 071737Z 0718/0818 01007KT P6SM SCT100 FM072100 05010G18KT P6SM VCTS SCT090CB FM080100 13012KT P6SM BKN100 FM081100 16011KT P6SM BKN050", "KLAS 072123Z 0721/0824 16007KT P6SM SKC FM072300 22012G20KT P6SM SKC FM080400 21009KT P6SM SKC FM081200 VRB05KT P6SM SKC FM081900 15006KT P6SM SKC", "KLAW 071720Z 0718/0818 15007KT P6SM FEW250 FM072000 15015G20KT P6SM FEW250 FM080200 15011KT P6SM BKN100 PROB30 0803/0809 4SM TSRA BR OVC025CB FM081000 VRB05KT P6SM BKN100 PROB30 0810/0812 4SM TSRA BR OVC025CB", "KLAX 072129Z 0721/0824 24011KT P6SM SKC FM080300 26008KT P6SM SCT009 FM080600 VRB03KT P6SM OVC012 FM081730 25006KT P6SM SCT016 FM082000 26012KT P6SM SKC", "KLBB 071741Z 0718/0818 16015KT P6SM FEW120 FM080000 17011KT P6SM VCTS BKN090CB FM080400 15009KT P6SM BKN100", "KLBE 072026Z 0720/0818 31008KT P6SM SCT040 FM080200 VRB03KT P6SM SKC", "KLBF 071949Z 0720/0818 01012G21KT P6SM FEW080 FM080300 04007KT P6SM SCT250", "KLBL 071720Z 0718/0818 19020G24KT P6SM BKN020 FM072000 12010KT P6SM SCT190 FM072300 06011KT P6SM VCTS BKN170CB TEMPO 0800/0803 4SM TSRA BR OVC025CB FM080500 04010KT P6SM -SHRA VCTS BKN090CB FM080800 36008KT P6SM VCTS BKN090CB FM081400 04011KT P6SM BKN019", "KLBT 072138Z 0722/0818 24003KT P6SM VCTS SCT050CB TEMPO 0722/0724 VRB15G30KT 3SM TSRA BR BKN050CB FM080500 00000KT P6SM BKN060 TEMPO 0808/0812 3SM BR BKN030", "KLBX 071731Z 0718/0818 17009KT P6SM FEW030 BKN100 FM080300 VRB04KT P6SM FEW100 FM081000 VRB04KT 6SM BR SCT020", "KLCH 071837Z 0719/0818 VRB04KT P6SM BKN120 TEMPO 0719/0723 VRB15G25KT 1SM TSRA OVC025CB FM080100 VRB05KT P6SM BKN150", "KLCK 071724Z 0718/0818 35007KT P6SM SCT025 BKN250 FM080000 VRB03KT P6SM SCT250 FM081000 10005KT P6SM BKN250 FM081500 18007KT P6SM SCT040 BKN150", "KLEB 072024Z 0720/0818 21007KT P6SM -SHRA VCTS SCT050CB FM080300 00000KT P6SM BKN090 FM080600 00000KT 1SM BR SCT002 FM081200 00000KT P6SM BKN005 FM081400 00000KT P6SM -SHRA BKN040", "KLEE 072002Z 0720/0818 27007KT P6SM VCTS SCT035CB BKN060 FM072300 24005KT P6SM FEW070 SCT150 SCT250 FM081500 26011KT P6SM VCTS SCT040CB BKN200", "KLEX 071739Z 0718/0818 VRB04KT P6SM SCT250 FM081500 20006KT P6SM SCT100 BKN250", "TAF KLFI 071700Z 0717/0823 09009KT 9999 SCT025 QNH2975INS TEMPO 0717/0723 12015G25KT 8000 -TSRA BKN020CB BECMG 0722/0723 11009KT 9000 -SHRA BKN030 QNH2974INS TEMPO 0801/0804 14015G25KT 8000 -TSRA BKN030CB BECMG 0807/0808 VRB06KT 6000 BR FEW020 BKN030 QNH2983INS BECMG 0818/0819 17015G25KT 8000 -TSRA BKN030CB QNH2978INS TX31/0718Z TN22/0811Z", "KLFK 072007Z 0720/0818 25007KT P6SM VCTS SCT050CB BKN070 BKN100 FM080100 16005KT P6SM SCT250 FM080600 16004KT P6SM FEW150 SCT250 FM081500 20008KT P6SM BKN035 BKN250", "KLFT 071837Z 0719/0818 VRB04KT P6SM BKN120 TEMPO 0720/0723 VRB15G25KT 1SM TSRA OVC025CB FM080100 VRB05KT P6SM BKN150", "KLGA 071955Z 0720/0824 14010KT P6SM SCT040 BKN250 FM072200 16010KT P6SM VCTS SCT030 BKN040CB BKN250 FM080100 16005KT P6SM SCT025 BKN250 FM080600 17004KT P6SM SCT008 BKN012 FM081400 04006KT P6SM FEW012 SCT025 FM081600 06007KT P6SM SCT025 BKN250 FM081900 16009KT P6SM SCT035 BKN250 FM082000 18010KT P6SM VCSH BKN040 BKN250", "KLGB 071742Z 0718/0818 19005KT P6SM SKC FM071900 19008KT P6SM SKC FM080000 29009KT P6SM SKC FM080700 VRB03KT P6SM BKN011 FM081100 14004KT P6SM OVC016", "KLGU 071723Z 0718/0818 35006KT P6SM FEW150 FM080400 VRB05KT P6SM BKN150", "KLIT 071720Z 0718/0818 25007KT P6SM VCSH SCT025 BKN035 FM071900 22005KT P6SM VCTS OVC035CB FM080000 18007KT P6SM VCSH BKN150 PROB30 0812/0818 4SM TSRA BR OVC025CB", "KLLQ 071720Z 0718/0818 20006KT P6SM VCSH OVC050 FM072000 25007KT P6SM VCTS BKN050CB FM080000 18007KT P6SM VCSH BKN150 PROB30 0815/0818 4SM TSRA BR OVC025CB", "KLMT 071725Z 0718/0818 VRB04KT P6SM SKC FM072200 31012G22KT P6SM VCTS SCT080CB FM080300 31010KT P6SM SKC FM080500 VRB03KT P6SM SKC", "KLND 071727Z 0718/0818 12007KT P6SM SCT100 SCT150 FM072100 06006KT P6SM VCSH SCT070 BKN120 TEMPO 0722/0802 VRB20G30KT -TSRA SCT050 BKN080CB FM080400 25007KT P6SM SCT060 BKN090 FM081300 VRB06KT P6SM FEW080 SCT120", "KLNK 071731Z 0718/0818 20009KT P6SM BKN035 TEMPO 0720/0723 4SM -TSRA BKN030CB FM080100 33007KT P6SM BKN015 FM080400 36009KT P6SM BKN008 FM081400 01008KT P6SM SCT050", "KLNS 072110Z 0721/0818 12006KT P6SM VCTS SCT035CB BKN060 FM080000 30004KT P6SM SCT035 BKN050 FM080500 VRB03KT P6SM SCT250 FM080900 32003KT 4SM BR SCT050 FM081200 33006KT P6SM BKN050", "KLOZ 071739Z 0718/0818 VRB04KT P6SM FEW035 SCT250 FM080800 VRB03KT 3SM BR FEW250 FM081000 VRB03KT 1 1/2SM BR FEW003 SCT015 FM081200 VRB03KT 3SM BR SCT150 FM081400 VRB03KT P6SM FEW250", "KLRD 071752Z 0718/0818 13008G16KT P6SM BKN035 FM080200 12008KT P6SM FEW025 SCT050 FM080600 14010KT P6SM SCT025", "TAF KLRF 071500Z 0715/0821 VRB06KT 9999 FEW200 QNH2981INS TEMPO 0719/0722 18010G15KT 8000 -TSRA BKN030CB BECMG 0814/0815 VRB06KT 9999 SCT080 QNH2977INS TX30/0720Z TN25/0812Z", "KLRU 071722Z 0718/0818 24009KT P6SM FEW120 FM080800 VRB05KT P6SM FEW150", "KLSE 071721Z 0718/0818 VRB04KT P6SM BKN250 FM072200 23005KT P6SM VCSH BKN100 BKN250 FM080100 25004KT P6SM BKN150", "TAF COR KLSF 072157Z 0721/0903 30008KT 9999 VCSH SCT030 BKN055 QNH2984INS TEMPO 0721/0724 VRB12G20KT 6000 -TSRA BKN025CB OVC055 BECMG 0801/0802 29005KT 9999 NSW SCT030 SCT055 QNH2986INS TEMPO 0802/0805 8000 -SHRA VCTS BKN025CB BKN055 BECMG 0806/0807 VRB04KT 8000 BR FEW030 FEW200 QNH2987INS BECMG 0815/0816 30005KT 9999 NSW FEW030 SCT150 QNH2986INS BECMG 0818/0819 26006KT 9999 VCSH BKN030 BKN060 QNH2983INS TX32/0721Z TN22/0810Z LAST NO AMDS AFT 0803 NEXT 1013", "TAF KLSV 071500Z 0715/0821 15010KT 9999 SKC QNH2965INS BECMG 0723/0724 20010G20KT 9999 SKC 510009 QNH2960INS BECMG 0808/0809 10010KT 9999 SKC QNH2972INS BECMG 0819/0820 15010G20KT 9999 SKC 510009 QNH2974INS TX40/0723Z TN23/0813Z", "TAF KLTS 071700Z 0717/0823 14010G15KT 9999 VCTS SCT035CB BKN160 QNH2990INS TEMPO 0717/0718 13015G25KT 8000 -TSRA SCT030CB BKN160 BECMG 0717/0718 15015G25KT 9999 NSW BKN170 QNH2990INS BECMG 0800/0801 17012KT 9999 SKC 510151 QNH2977INS BECMG 0802/0803 15015G25KT 9000 -SHRA VCTS BKN050CB QNH2976INS TEMPO 0803/0806 33035G50KT 4800 TSRAGR OVC050CB BECMG 0809/0810 17012KT 9000 -SHRA VCTS BKN042 OVC050CB QNH2988INS TEMPO 0810/0814 04015G25KT 8000 -TSRA BKN020CB BECMG 0814/0815 16012KT 9999 NSW SCT035 BKN150 QNH2992INS TX37/0721Z TN21/0812Z", "TAF COR KLUF 072004Z 0720/0902 21012G20KT 9999 SKC QNH2964INS WND VRB06KT AFT 0803 TX43/0723Z TN20/0812Z LAST NO AMDS AFT 0723 NEXT 1012", "KLUK 071724Z 0718/0818 35006KT P6SM SCT040 BKN250 FM080000 00000KT P6SM SCT250 TEMPO 0807/0810 4SM BR FM081000 VRB03KT P6SM BKN250 FM081400 15006KT P6SM BKN200 FM081600 21007KT P6SM SCT050 BKN100", "KLVK 072032Z 0721/0818 29015KT P6SM SKC FM080400 29010KT P6SM SCT010 FM080600 29008KT P6SM OVC010 FM081745 29012KT P6SM SCT012", "KLVM 071720Z 0718/0818 09015KT P6SM VCTS SCT060CB FM080000 09015KT P6SM FEW150 FM080300 VRB05KT P6SM FEW100", "KLVS 071745Z 0718/0818 24010G20KT P6SM FEW150 FM072200 26018G30KT P6SM VCSH BKN120 FM080300 16011KT P6SM BKN120 FM080600 05009KT P6SM SCT020 FM081700 20014G22KT P6SM SKC", "KLWB 071938Z 0720/0818 33005KT P6SM SCT045 BKN250 FM080600 00000KT 4SM BR FEW001 FM080900 00000KT 1/4SM FG VV001 FM081300 VRB03KT 5SM BR BKN015 FM081430 VRB03KT P6SM SCT250", "KLWS 071720Z 0718/0818 05005KT P6SM FEW100 SCT250 FM080500 16004KT P6SM SKC", "KLWT 071959Z 0720/0818 14009KT P6SM SCT070 BKN100 TEMPO 0720/0723 -TSRA BKN050CB", "KLYH 071934Z 0720/0818 00000KT P6SM BKN040 TEMPO 0720/0721 5SM TSRA BKN030CB FM072300 06004KT P6SM FEW100 FM080800 00000KT 5SM BR BKN100 FM081200 VRB03KT P6SM BKN040 FM081700 10003KT P6SM VCSH BKN050", "KMAF 071740Z 0718/0818 16017G26KT P6SM FEW250 FM080500 17013KT P6SM SCT250", "KMBG 072154Z 0722/0818 28010KT P6SM VCTS BKN080CB BKN150 FM072300 35012G18KT P6SM SCT250 FM080200 03009KT P6SM FEW250 FM080800 07005KT P6SM FEW250", "KMBL 071750Z 0718/0818 31010KT P6SM FEW050 FM072200 27008KT P6SM BKN250 FM080200 09003KT P6SM OVC250 FM081400 13003KT P6SM OVC110", "KMBS 071736Z 0718/0818 01005KT P6SM SCT040 SCT070 FM080200 11004KT P6SM FEW070 SCT150 FM080800 12005KT P6SM SCT050 OVC100 FM081500 18005KT 6SM -SHRA BKN030 OVC050", "KMCB 071720Z 0718/0818 28007KT P6SM VCTS SCT250CB FM072000 28008KT P6SM TSRA FEW100CB FM072100 28008KT P6SM VCTS FEW100CB FM080100 27005KT P6SM FEW110 FM081700 24009KT P6SM FEW250", "KMCC 071728Z 0718/0818 20011KT P6SM SKC FM080300 19014KT P6SM SKC FM080600 16012KT P6SM SKC", "KMCE 071720Z 0718/0818 31007KT P6SM SKC", "TAF KMCF 071700Z 0717/0823 27006KT 9999 FEW085 BKN130 QNH2993INS TEMPO 0717/0720 VRB12G18KT 8000 -TSRA BKN040CB BECMG 0803/0804 26006KT 9999 FEW050 QNH2989INS BECMG 0815/0816 27009KT 9000 -SHRA VCTS BKN030CB QNH2993INS TEMPO 0817/0821 VRB10G15KT 6000 -TSRA BKN030CB TX33/0717Z TN27/0809Z", "KMCI 071720Z 0718/0818 14011KT P6SM SCT050 BKN120 FM080000 20008KT P6SM VCTS BKN050CB OVC100 TEMPO 0800/0802 5SM TSRA OVC030CB FM080300 VRB05KT P6SM VCSH BKN050 OVC100 FM080600 33004KT P6SM OVC050 FM081000 35006KT 6SM BR OVC015", "KMCK 071720Z 0718/0818 26007KT P6SM BKN027 FM072200 01009KT P6SM FEW045 FM080700 03005KT P6SM FEW250 FM081500 06007KT P6SM BKN250", "KMCN 072148Z 0722/0818 VRB03KT P6SM VCSH FEW040 TEMPO 0722/0724 4SM TSRA BR BKN025CB FM080300 00000KT P6SM SCT120 FM081600 30005KT P6SM SCT035", "KMCO 072131Z 0721/0824 22009KT P6SM VCTS SCT040CB BKN060 BKN250 TEMPO 0721/0723 VRB15G25KT 3SM TSRA BKN030CB FM080000 24005KT P6SM FEW070 SCT150 SCT250 FM081400 25011KT P6SM VCSH SCT035 BKN120 FM081600 26011KT P6SM VCTS SCT040CB BKN200", "KMCW 071726Z 0718/0818 17005KT P6SM OVC100 FM071900 18005KT P6SM -RA OVC080 FM072100 21006KT P6SM -RA OVC060 FM080400 34005KT P6SM OVC050 FM081400 34007KT P6SM SCT040", "KMDT 072147Z 0722/0818 VRB10G20KT 1 1/2SM +TSRA SCT025 OVC050CB FM072230 16007KT P6SM VCTS SCT035CB BKN060 FM080000 VRB04KT P6SM VCSH SCT035 BKN060 FM080500 VRB03KT P6SM SCT250 FM080900 VRB03KT 4SM BR SCT050 FM081200 33006KT P6SM BKN050", "KMDW 072100Z 0721/0824 07010KT P6SM SCT050 BKN150 FM080000 06006KT P6SM -RA SCT050 OVC100 FM080400 05005KT P6SM VCSH BKN080 TEMPO 0808/0812 4SM -SHRA BR SCT010 OVC020 FM081200 04004KT P6SM VCSH SCT010 OVC020 FM081800 02009KT P6SM BKN035", "KMEI 071750Z 0718/0818 29005KT P6SM SCT020 SCT060 FM072100 30006KT P6SM VCTS BKN040CB FM080100 24003KT P6SM SCT015 SCT100 FM081200 26004KT P6SM SCT020", "KMEM 072041Z 0721/0824 VRB03KT P6SM VCSH BKN050 BKN150 FM080000 20005KT P6SM BKN250 FM081800 25006KT P6SM TSRA BKN030CB OVC100 FM082200 23005KT P6SM BKN080", "KMER 071720Z 0718/0818 31008KT P6SM SKC", "KMEV 071720Z 0718/0818 12005KT P6SM SKC FM072100 28014G23KT P6SM FEW110 FM080400 12005KT P6SM SKC", "KMFD 071720Z 0718/0818 01006KT P6SM BKN040 FM080000 VRB03KT P6SM FEW250 FM081700 18007KT P6SM BKN100", "KMFE 071904Z 0719/0818 09014G22KT P6SM VCSH SCT040 BKN050 BKN060 FM072100 12011KT P6SM SCT027 BKN110 FM080500 14011KT P6SM FEW022 SCT250", "KMFR 071725Z 0718/0818 35005KT P6SM SKC FM080000 31010G20KT P6SM SKC FM080400 VRB05KT P6SM SKC", "TAF KMGE 072105Z 0721/0903 32010KT 9999 VCTS FEW050CB SCT100 BKN250 QNH2985INS TEMPO 0721/0724 VRB15G25KT 3200 -TSRAGR BKN025CB OVC050 BECMG 0723/0724 30005KT 9999 NSW SCT100 BKN250 QNH2985INS BECMG 0814/0815 32005KT 9999 FEW030 BKN100 BKN250 QNH2980INS BECMG 0819/0820 34010KT 9999 VCTS BKN035CB BKN100 BKN250 QNH2978INS TX32/0821Z TN21/0812Z LAST NO AMDS AFT 0803 NEXT 0811", "KMGM 071730Z 0718/0818 29005KT P6SM VCSH BKN050 FM072000 30006KT P6SM VCTS BKN035CB TEMPO 0721/0801 4SM TSRA BR BKN025CB FM080200 28004KT P6SM VCSH SCT040 FM081300 28007KT P6SM SCT045", "KMGW 071951Z 0720/0818 24007KT 2SM RA VCTS BKN045CB FM072030 24007KT P6SM SCT060 FM080200 VRB03KT P6SM SKC TEMPO 0808/0812 3SM BR BKN015", "KMHK 071720Z 0718/0818 VRB05KT P6SM SCT028 BKN120 FM072200 27005KT P6SM VCTS BKN070CB FM080100 32004KT P6SM BKN050 FM080700 01007KT P6SM OVC009", "KMHR 071728Z 0718/0818 20010KT P6SM SKC FM072100 22007G15KT P6SM SKC FM080400 15008KT P6SM SKC", "KMHT 071742Z 0718/0818 18007KT P6SM SKC FM080600 00000KT 4SM BR SCT002 SCT015 FM081200 00000KT P6SM BKN035", "KMIA 072052Z 0721/0824 20010KT P6SM VCTS SCT025CB SCT070 TEMPO 0721/0723 VRB15G25KT 4SM TSRA SCT015 BKN030CB FM080100 VRB04KT P6SM SCT030 BKN250 FM081400 24008KT P6SM FEW025 SCT050 FM081700 22008KT P6SM VCTS SCT030CB SCT070 PROB30 0818/0821 5SM TSRA BKN025CB", "TAF KMIB 071700Z 0717/0823 02012G18KT 9999 FEW180 QNH2996INS BECMG 0800/0801 VRB06KT 9999 FEW120 QNH2996INS BECMG 0814/0815 19010G15KT 9999 BKN100 QNH2989INS BECMG 0818/0819 27012G18KT 9999 BKN100 QNH2983INS TX24/0817Z TN12/0810Z", "KMIV 072008Z 0720/0818 18005KT P6SM FEW035 SCT200 TEMPO 0720/0722 4SM TSRA BR BKN025CB FM080400 VRB02KT 5SM BR BKN080 FM080700 VRB02KT 2SM BR BKN008 FM081100 VRB02KT 3SM BR BKN008 FM081300 VRB02KT P6SM BKN010 FM081500 18005KT P6SM BKN040", "KMKC 071720Z 0718/0818 14011KT P6SM SCT050 BKN120 FM080100 20008KT P6SM VCTS BKN050CB OVC100 TEMPO 0801/0803 5SM TSRA OVC030CB FM080400 VRB05KT P6SM VCSH BKN050 OVC100 FM081000 35006KT 6SM BR OVC015", "KMKE 072104Z 0721/0824 11011KT P6SM FEW060 BKN250 FM080300 VRB03KT P6SM OVC090 FM080900 03007KT P6SM OVC023 PROB30 0810/0816 4SM -SHRA BR OVC015 FM081900 03009KT P6SM BKN035", "KMKG 071740Z 0718/0818 34005KT P6SM SCT040 BKN250 FM080000 30003KT P6SM SCT050 BKN100 FM080500 36003KT P6SM -SHRA OVC040 FM081200 36005KT P6SM -RA OVC030 FM081500 02006KT P6SM -RA OVC025", "KMKL 071954Z 0720/0818 VRB04KT P6SM VCTS BKN100CB FM080000 VRB02KT P6SM FEW050 SCT200 FM081600 22006KT P6SM VCTS BKN030CB OVC100", "KMKT 071720Z 0718/0818 18009KT P6SM BKN150 FM072100 21008KT P6SM OVC100 FM080600 25005KT P6SM SCT140 FM081600 32007KT P6SM SCT070", "KMLB 072006Z 0720/0818 25009KT P6SM VCTS SCT035CB BKN060 TEMPO 0720/0724 VRB15G25KT 3SM TSRA BKN035CB FM080200 23005KT P6SM FEW070 SCT150 SCT250 FM081700 26010KT P6SM VCSH SCT040 SCT250", "KMLC 071720Z 0718/0818 16004KT P6SM VCTS SCT050CB FM072200 19007KT P6SM SCT025 BKN250 FM080100 VRB03KT P6SM BKN100 PROB30 0807/0813 4SM -TSRA BKN025CB FM081300 VRB05KT P6SM BKN050", "KMLI 072109Z 0721/0818 VRB04KT 6SM -RA OVC100 FM080000 05005KT 6SM -SHRA BKN050 FM081100 03006KT P6SM OVC015", "KMLS 072201Z 0722/0818 05010KT P6SM VCTS SCT070CB SCT100 FM080100 06008KT P6SM FEW100", "KMLU 072139Z 0722/0818 30005KT P6SM VCSH SCT060 SCT150 TEMPO 0722/0724 VRB10KT 4SM -SHRA BKN050 FM080200 24003KT P6SM BKN250 FM080900 21004KT P6SM SCT250 FM081500 20007KT P6SM FEW100 SCT150 BKN250", "KMMH 071720Z 0718/0818 12006KT P6SM SKC FM072000 28016G25KT P6SM FEW090 FM080300 30010KT P6SM SKC", "TAF AMD KMMT 071918Z 0719/0821 VRB06KT 9999 SCT035 QNH2982INS BECMG 0719/0720 VRB06KT 9000 -SHRA BKN045 QNH2985INS TEMPO 0719/0722 VRB15G25KT 9000 -TSRA SCT045CB BKN060 OVC090 BECMG 0801/0802 VRB06KT 9999 NSW BKN031 QNH2983INS BECMG 0815/0816 VRB06KT 9000 -SHRA SCT030 QNH2989INS TX33/0719Z TN25/0810Z", "KMOB 071725Z 0718/0818 28007KT P6SM VCTS SCT035CB BKN120 TEMPO 0720/0724 4SM TSRA BR BKN030CB FM080200 30002KT P6SM FEW030 BKN120 FM081200 28003KT P6SM SCT250", "KMOD 071728Z 0718/0818 32010KT P6SM SKC", "KMOT 071720Z 0718/0818 36012KT P6SM SCT040 FM080200 02007KT P6SM FEW250 FM081200 19005KT P6SM FEW250", "KMPV 071931Z 0720/0818 11010G19KT 3SM -TSRA VCTS BKN040CB FM072030 16008KT 6SM -RA BR OVC090 FM072200 22005KT P6SM -SHRA OVC090 FM080200 00000KT P6SM VCSH OVC090 FM080800 00000KT 2SM BR VCSH BKN060 FM081700 00000KT P6SM VCSH BKN070", "KMQY 071727Z 0718/0818 36006KT P6SM FEW035 BKN170 BKN250 FM080300 23003KT P6SM BKN250 FM081700 24006KT P6SM FEW040 BKN100 BKN250", "KMRB 071728Z 0718/0818 30005KT P6SM VCSH SCT035 BKN150 FM071900 30005KT 6SM -SHRA VCTS SCT030CB BKN100 FM072300 31003KT P6SM VCSH SCT035 BKN100 FM080700 32003KT 5SM BR SCT030 BKN050 FM081000 00000KT 3SM BR SCT025 BKN050 FM081300 35004KT P6SM SCT035 BKN060", "KMRY 072033Z 0721/0818 28010KT P6SM BKN015 FM072200 28012KT P6SM SCT015 FM080300 27007KT P6SM OVC008 FM081000 25004KT P6SM OVC008 FM081730 29008KT P6SM OVC012", "KMSL 072008Z 0720/0818 35006KT P6SM VCTS SCT025CB SCT050 BKN200 TEMPO 0720/0722 4SM TSRA BR BKN050CB FM080000 04003KT P6SM FEW035 FEW060 SCT200 FM081500 22006KT P6SM SCT035 BKN060 BKN200 PROB30 0815/0818 4SM TSRA BR BKN035CB", "KMSN 072104Z 0721/0818 VRB03KT P6SM FEW060 BKN250 FM080400 VRB04KT P6SM OVC080 FM081300 VRB03KT P6SM BKN040 FM081600 04006KT P6SM SCT027 FM081700 04006KT P6SM FEW025", "KMSO 071720Z 0718/0818 11012KT P6SM SKC FM080300 35006KT P6SM SKC", "KMSP 071926Z 0719/0824 24009KT P6SM BKN200 FM080000 26008KT P6SM BKN090 FM080600 28005KT P6SM BKN150 FM081600 34008KT P6SM SCT080", "KMSS 071740Z 0718/0818 27005KT P6SM VCSH SCT035 FM072200 27005KT P6SM VCSH BKN090 FM080000 VRB03KT P6SM VCSH BKN120 FM080600 VRB04KT 5SM BR SCT210 FM080800 VRB03KT 3SM BR BKN190 FM081200 VRB04KT P6SM SCT180", "KMSY 071720Z 0718/0824 30006KT P6SM VCTS BKN100CB FM072100 27006KT P6SM -SHRA BKN100 TEMPO 0721/0722 4SM TSRA BR OVC025CB FM072200 24007KT P6SM VCTS BKN100CB FM081000 VRB03KT P6SM FEW250 FM081600 24007KT P6SM FEW100", "TAF KMTC 071900Z 0719/0901 VRB06KT 9999 SCT060 QNH2992INS BECMG 0812/0813 VRB06KT 9999 FEW020 BKN025 OVC040 QNH2995INS BECMG 0814/0815 VRB06KT 9999 BKN035 OVC050 QNH2992INS BECMG 0818/0819 VRB06KT 8000 -RA BKN025 OVC040 QNH2991INS TX25/0721Z TN15/0810Z LAST NO AMDS AFT 0803 NEXT 0811", "KMTH 071801Z 0718/0818 22004KT P6SM FEW030", "KMTJ 071901Z 0719/0818 26014G24KT P6SM FEW130 TEMPO 0719/0721 5SM HZ FM080200 24006KT P6SM SKC FM080400 14009KT P6SM SKC FM081300 35004KT P6SM SKC", "KMTN 071728Z 0718/0818 14003KT P6SM VCTS SCT035CB BKN150 FM071900 14004KT P6SM VCSH SCT035 BKN100 FM072200 14005KT P6SM -SHRA VCTS SCT060CB BKN150 FM080200 14003KT P6SM VCSH SCT050 BKN100 FM080800 00000KT 5SM BR FEW005 SCT020 BKN050 FM081300 04003KT P6SM SCT035 BKN050", "KMTW 071727Z 0718/0818 12006KT P6SM SCT250 FM080300 18004KT P6SM BKN090 FM080500 24004KT P6SM BKN070 FM081700 14006KT P6SM SCT150", "TAF AMD KMUI 072200Z 0722/0901 VRB06KT 9000 -SHRA FEW025 BKN045 QNH2979INS TEMPO 0722/0724 28025G35KT 4800 -TSRA BKN030CB OVC075 BECMG 0800/0801 VRB06KT 9000 BR BKN025 OVC040 QNH2984INS BECMG 0805/0806 VRB06KT 4800 -SHRA BKN020 OVC025 QNH2985INS BECMG 0817/0818 VRB06KT 9999 NSW FEW025 SCT040 QNH2982INS TX27/0722Z TN22/0810Z LAST NO AMDS AFT 0803 NEXT 1003", "TAF AMD KMUO 071456Z 0714/0816 VRB06KT 9999 FEW100 QNH2985INS BECMG 0717/0718 11012G20KT 9999 FEW110 QNH2979INS BECMG 0719/0720 VRB06KT 9999 FEW120 QNH2973INS BECMG 0722/0723 32010G15KT 9999 FEW140 QNH2971INS BECMG 0805/0806 VRB06KT 9999 FEW120 QNH2974INS TX35/0723Z TN22/0714Z LAST NO AMDS AFT 0714 NEXT 0810", "KMVN 071728Z 0718/0818 VRB04KT P6SM FEW050 SCT250 FM080000 VRB04KT P6SM VCSH SCT050 BKN150 FM081200 24007KT P6SM SHRA BKN035 PROB30 0813/0816 4SM TSRA BKN015CB", "KMWH 071720Z 0718/0818 03007KT P6SM SCT100 BKN200 FM071900 17008KT P6SM FEW100 SCT250 FM080300 01015G25KT P6SM FEW100 SCT250 FM080600 01010KT P6SM SKC", "TAF KMXF 071900Z 0719/0901 VRB06KT 9000 -SHRA SCT045 QNH2988INS TEMPO 0720/0721 VRB25G35KT 9000 -TSRA SCT045CB SCT065 BKN130 BECMG 0723/0724 VRB06KT 9999 NSW FEW040 QNH2986INS BECMG 0816/0817 VRB06KT 9000 -SHRA FEW040 QNH2991INS TEMPO 0817/0821 VRB30G40KT 9000 -TSRA FEW040CB FEW055 SCT080 BECMG 0822/0823 VRB06KT 9999 NSW FEW045 QNH2984INS TX31/0722Z TN23/0811Z LAST NO AMDS AFT 0803 NEXT 0812", "KMYL 071738Z 0718/0818 VRB04KT P6SM FEW200 FM072100 28006KT P6SM SCT120 FM080300 01005KT P6SM FEW150 FM080800 VRB04KT P6SM SCT150", "KMYR 071720Z 0718/0818 19008KT P6SM VCTS SCT050CB FM080100 VRB03KT P6SM BKN100 FM081300 19004KT P6SM VCTS SCT030 BKN060CB", "TAF KNBC 0715/0815 VRB06KT 9999 SKC QNH2979INS BECMG 0719/0721 20007KT 9999 SCT035 QNH2977INS TEMPO 0723/0805 21010KT 8000 -SHRA BKN035 FM080600 VRB06KT 9999 SKC QNH2979INS T34/0717Z T25/0809Z", "TAF KNBG 0715/0815 32006KT 9999 FEW030 BKN110 BKN250 QNH2992INS BECMG 0718/0720 26008KT 9999 VCSH SCT030CB SCT050 BKN110 BKN250 QNH2987INS TEMPO 0720/0800 VRB25G35KT 1600 TSRA BR BKN025CB BKN050 OVC120 BECMG 0800/0802 27006KT 9999 NSW SCT030 BKN100 BKN250 QNH2987INS BECMG 0810/0812 29008KT 9999 VCSH SCT025 BKN080 BKN250 QNH2989INS TX32/0718Z TN27/0811Z FN20040", "TAF KNCA 0721/0821 17009KT 9999 FEW050 SCT070 QNH2977INS BECMG 0723/0801 20008KT 6000 VCTS -RA BR BKN030 OVC060 QNH2980INS FM080200 20007KT 9999 FEW050 SCT070 QNH2981INS FM080500 22008KT 9999 FEW040 SCT060 QNH2982INS TEMPO 0805/0809 8000 -SHRA BR BKN040 BKN070 T23/0809Z T30/0818Z", "KNEW 071720Z 0718/0818 30008KT P6SM VCTS BKN100CB FM072000 29008KT P6SM TSRA BKN100CB FM072100 27008KT P6SM -SHRA BKN100 TEMPO 0721/0722 4SM TSRA BR OVC025CB FM072200 25008KT P6SM VCTS BKN100CB FM080800 27006KT P6SM FEW250 FM081400 27007KT P6SM FEW100", "TAF KNFG 0721/0821 24007KT 9999 SKC QNH2980INS TEMPO 0721/0803 24007G17KT FM0805 VRB03KT 9999 OVC010 QNH2982INS TEMPO 0810/0814 8000 BR FM081730 23006KT 9999 FEW015 QNH2982INS 24/0722Z T15/0806Z", "TAF KNFL 0715/0815 28008KT 9999 SCT070 SCT120 QNH2978INS FM080000 31012G20KT 9999 SCT070 SCT120 QNH2975INS TEMPO 0803/0807 30015G24KT FM080800 26006KT 9999 FEW070 SCT120 QNH2987INS TX35/0723Z TN18/0813Z FS30003", "TAF KNFW 0715/0815 17014G22KT 9999 FEW030 SCT250 QNH2990INS FM072100 18015G27KT 9999 SCT060 BKN250 QNH2976INS FM080200 17013KT 9999 FEW060 SCT250 QNH2983INS TX37/0722Z TN26/0112Z FN20048", "TAF KNGP 0715/0815 11014KT 9999 VCSH SCT030 BKN100 BKN250 611604 QNH2990INS TEMPO 0717/0722 12018G25KT 9000 -SHRA BR SCT020CB BKN065 BKN100 BKN200 FM072200 13016G24KT 9999 FEW020 SCT080 BKN150 BKN250 621604 QNH2985INS FM080200 16010KT 9999 SCT015 SCT180 BKN250 600000 QNH2985INS FM081200 15013KT 9999 VCSH SCT012 BKN040 BKN250 QNH2987INS TX32/0721Z TN27/0811Z FN20061", "TAF KNGU 0715/0815 05005KT 9999 SCT030 SCT300 QNH2980INS FM071900 07007KT 9999 VCSH BKN030CB BKN250 QNH2977INS TEMPO 0720/0802 VRB15G30KT 3200 TSRA BR BKN020CB OVC100 FM080200 VRB04KT 9999 SCT030 BKN100 QNH2980INS FM080900 VRB04KT 9000 BR BKN030 BKN100 QNH2982INS TX31/0719Z TN23/0810Z FN20004", "TAF COR KNHK 0715/0815 14006KT 9999 FEW030 SCT250 QNH2980INS BECMG 0718/0719 15008KT 9999 VCSH FEW030 SCT130 BKN180 QNH2978INS BECMG 0719/0721 15006KT 8000 -SHRA VCTS SCT030CB BKN080 BKN180 QNH2978INS TEMPO 0723/0802 VRB15G25KT 4800 TSRA SCT035CB BKN090 BKN200 BECMG 0802/0803 20004KT 9999 NSW SCT020 SCT040 BKN220 QNH2978INS BECMG 0810/0811 VRB03KT 6000 -RA BR FEW005 SCT015 BKN040 OVC080 QNH2979INS TX32/0717Z TN24/0810Z COR 1117 FN20090", "TAF KNID 0623/0723 16010G20KT 9999 SKC QNH2966INS WND 130V200 TEMPO 0623/0705 20020G30KT BECMG 0705/0707 23012KT 9999 SKC QNH2971INS BECMG 0715/0717 VRB05K 9999 SKC QNH2976INS BECMG 0721/0723 17012G22KT 9999 FEW250 QNH2965INS WND 140V210 LAST NO AMD AFT 0623 NEXT 1015 T19/0713Z T40/0722Z", "TAF KNIP 0715/0815 30006KT 9999 SCT035 BKN250 QNH2986INS FM071900 13008KT 9999 VCTS SCT050CB SCT100 BKN250 QNH2982INS TEMPO 0719/0801 VRB15G35KT 3200 TSRA FEW010 BKN045CB BKN080 BKN250 FM080200 23006KT 9999 VCTS SCT040CB SCT120 BKN250 QNH2983INS TEMPO 0811/0814 4800 -SHRA FEW010 BKN045 BKN080 BKN250 TX35/0720Z TN26/0811Z FN20077", "TAF AMD KNJK 0719/0815 26010G20KT 9999 SKC QNH2956INS FM080000 26018G28KT 9999 SKC 520009 QNH2958INS TEMPO 0801/0807 25015G24KT FM080800 27008G18KT 9999 SKC 520109 QNH2965INS TX43/0723Z TN22/0812Z AMD 1956 FS30195", "TAF KNKT 0721/0821 VRB06KT 9999 FEW040 BKN055 QNH2980INS TEMPO 0722/0802 17015KT 9000 VCTS FEW030CB SCT045 FM080300 VRB06KT 9999 FEW120 QNH2982INS BECMG 0811/0813 VRB06KT 8000 BR SCT025 QNH2986INS FM081500 19012KT 9999 BKN045 OVC065 QNH2980INS T25/0805Z T32/0818Z", "TAF KNKX 0721/0821 25008KT 9999 SKC QNH2980INS BECMG 0803/0805 VRB03KT OVC010 QNH284INS BECMG 0809/0811 OVC012 QNH2982INS FM081330 VRB03KT 9999 OVC015 QNH2982INS BECMG 0815/0817 25008KT SKC QNH2980INS T14/0814Z T24/0821Z", "TAF KNLC 0715/0815 30009KT 9999 SKC QNH2968INS TEMPO 0721/0803 32010G15KT FEW080 TX35/0723Z BECMG 0803/0805 34012G17KT 9999 SKC QNH2971INS WND 33009KT AFT 0807 TN14/0812Z FS30206", "TAF AMD KNMM 0722/0815 27007KT 9999 VCSH FEW020 SCT050 BKN120 QNH2988 TEMPO 0722/0801 VRB15G30KT -TSRA SCT010 BKN025CB FM080200 VRB06KT 9999 NSW FEW030 SCT060 SCT160 QNH2990INS LAST NO AMDS AFT 0723/NEXT 0907 AUTOMATED SENSOR METWATCH 0723 TIL 0920 TX34/0821Z TN22/0811Z AMD 2133 FN20088", "TAF KNPA 0715/0815 VRB06KT 9999 FEW025 FEW120 SCT250 QNH2991INS FM071800 23010KT 9999 VCTS SCT030CB BKN120 BKN250 QNH2986INS TEMPO 0720/0723 VRB15G25KT 4800 TSRA BKN025CB FM080100 30006KT 9999 FEW035 SCT140 BKN250 QNH2988INS FM080600 VRB04KT 9999 FEW020 SCT120 SCT250 QNH2988INS TX33/0718Z TN24/0811Z FN20053", "TAF AMD KNQI 0720/0815 13015G23KT 9999 VCTS SCT035CB BKN150 BKN250 611657 QNH2981INS TEMPO 0720/0723 VRB25G35KT 1600 +TSRA BR BKN015CB BKN080 BKN250 FM072300 13017G25KT 9999 SCT040 BKN150 BKN250 611657 QNH2981INS FM080100 14006KT 9999 FEW020 BKN180 BKN250 600000 QNH2983INS TEMPO 0808/0813 VRB03KT 8000 BR BKN018 BKN250 TX36/0720Z TN25/0812Z AMD 2000 FN20081", "TAF KNQX 0715/0815 25007KT 9999 SCT025 SCT250 QNH2991INS BECMG 0722/0800 VRB05KT 9999 FEW025 FEW250 QNH2991INS TX33/0719Z TN29/0811Z FN20027", "TAF AMD KNRB 0719/0815 15010G15KT 9999 VCSH FEW020 SCT040CB BKN250 QNH2981INS TEMPO 0719/0721 VRB30G55KT 0800 +TSRA BKN006 OVC010CB TEMPO 0721/0801 VRB25G35KT 2400 +TSRA BKN008 OVC010CB FM080200 26008KT 9999 VCSH SCT030 BKN100 OVC250 QNH2984INS TEMPO 0804/0808 6000 -SHRA BKN025 OVC100 LAST NO AMDS AFT 0723 NEXT 1007 AUTOMATED SENSOR METWATCH 0723 TIL 1009 TX35/0719Z TN25/0810Z AMD 1930 FN20022", "TAF AMD KNSE 0720/0815 27008G12KT 9999 VCTS SCT040CB BKN150 BKN250 QNH2989INS TEMPO 0720/0723 VRB15G25KT 4800 TSRA SCT035CB BKN080 FM080100 27004KT 9999 FEW050 SCT080 SCT150 BKN250 QNH2990INS FM080700 30005KT 9999 FEW030 SCT130 SCT250 QNH2988INS TX33/0718Z TN23/0810Z AMD 2034Z FN20030", "TAF KNTD 0715/0815 VRB06KT 8000 BR SCT006 OVC012 QNH2985INS TEMPO 0715/0719 BKN015 BECMG 0719/0721 25009KT 9999 FEW010 SCT018 QNH2974INS FM080400 VRB06KT 9999 FEW008 BKN014 QNH2977INS TEMPO 0809/0815 OVC006 TX21/0722Z TN13/0812Z COR 1510 FS30159", "TAF KNTU 0715/0815 VRB06KT 9999 FEW015 SCT030 SCT120 BKN250 QNH2978INS FM071900 12007KT 9999 VCTS BKN030CB BKN100 BKN250 QNH2977INS TEMPO 0719/0801 VRB15G30KT 1600 TSRA BR BKN020CB OVC100 FM080200 VRB06KT 9999 SCT030 BKN050 BKN150 QNH2977INS TEMPO 0805/0811 VRB06KT 1600 BR BKN005 FM08100 VRB06KT 9000 BR BKN030 BKN100 QNH2978INS TX32/0719Z TN23/0810Z FN20008", "TAF KNUC 0715/0815 30009KT 9999 OVC008 QNH2989INS BECMG 0716/0718 30009KT 9999 OVC010 QNH2980INS FM072300 31015G20KT 9999 OVC013 QNH2981INS FM080300 31015G20KT 9999 OVC010 QNH2982INS FM080900 31009KT 9999 OVC008 QNH2977INS TEMPO 0809/0815 8000 BR OVC005 TX19/0721Z TN15/0811Z FS30173", "TAF KNUW 0715/0815 VRB06KT 4800 BR BKN006 OVC220 QNH2985INS TEMPO 0715/0719 23004KT 0400 FG VV002 FM071900 27008KT 9999 FEW003 BKN150 OVC250 QNH2980INS FM080100 28009KT 9999 FEW030 SCT250 QNH2981INS FM080500 VRB06KT 9999 BKN005 OVC120 QNH2978INS TX22/0722Z TN10/0812Z FS30028", "TAF KNXP 0721/0821 VRB05KT 9999 SKC QNH2980INS BECMG 0723/0801 22010KT QNH2981INS BECMG 0803/0805 30012KT QNH2987INS FM081330 30005KT 9999 SKC QNH2992INS BECMG 0815/0817 VRB05KT QNH2985INS T22/0814Z T39/0821Z", "TAF KNYG 0721/0821 VRB06KT 9999 BKN 030BKN080 OVC210 QNH2985INS TEMPO 0721/0803 05010G25KT 8000 TSRA OVC050CB BECMG 0803/0805 VRB06KT 9999 OVC040 QNH2982INS FM081200 VRB06KT 9999 OVC025 QNH2982INS TEMPO 0812/0818 19010G25KT 6000 TSRA BKN015 OVC050CB BECMG 0818/0820 9999 VRB06KT 9999 SCT050 BKN060 QNH2979INS LAST NO AMENDS AFTER 0721 NEXT 0809 AUTOMATED SENSOR METWATCH 0723 TIL 0812 T30/0712Z T24/0806Z", "TAF KNYL 0721/0821 22006KT 9999 SKC QNH2962INS FM072230 24006KT 9999 SKC QNH2956INS BECMG 0805/0807 VRB05KT 9999 SKC QNH2964INS BECMG 0814/0816 16008KT 9999 SKC QNH2970INS FM081900 18010KT 9999 SKC QNH2965INS T41/0723Z T24/0813Z", "TAF KNZY 0715/0815 27009KT 9999 OVC012 QNH2983INS BECMG 0719/0721 27009KT 9999 FEW012 SCT015 QNH2977INS FM080300 27009KT 9999 BKN015 QNH2978INS TEMPO 0809/0815 VRB06KT OVC012 TX22/0722Z TN17/0812Z FS30142", "KOAJ 071743Z 0718/0818 VRB03KT P6SM SCT040 FM072100 18005KT P6SM VCTS SCT040CB FM080200 00000KT P6SM BKN200 FM080900 00000KT 5SM BR BKN080 FM081200 VRB03KT P6SM BKN080 FM081500 VRB04KT P6SM VCSH SCT030 BKN070 AMD LTD TO CLD VIS AND WIND", "KOAK 072024Z 0720/0824 27011KT P6SM OVC012 FM072200 28017G27KT P6SM FEW015 FM080300 27013KT P6SM OVC008 FM081000 27008KT P6SM OVC008 FM081800 27010KT P6SM OVC010 FM082100 27015G25KT P6SM BKN015", "TAF AMD KOFF 072200Z 0722/0824 04006KT 9999 OVC040 QNH2990INS BECMG 0723/0724 15012KT 9999 OVC015 QNH2979INS BECMG 0801/0802 35012KT 9999 OVC008 QNH2980INS BECMG 0809/0810 35012KT 9999 OVC015 QNH2990INS BECMG 0811/0812 35012KT 9999 OVC040 QNH2995INS TX21/0723Z TN15/0810Z", "KOFK 072206Z 0722/0818 02008KT P6SM SCT010 OVC015 TEMPO 0722/0724 BKN007 FM080000 02007KT P6SM BKN007 FM080800 35006KT P6SM BKN015 FM081500 36006KT P6SM SCT050", "KOGB 072041Z 0721/0818 23006KT P6SM SCT050 TEMPO 0723/0801 VRB10G20KT 2SM TSRA BKN040CB FM080200 VRB03KT P6SM BKN100 FM080900 VRB03KT 2SM BR SCT005 FM081300 27004KT P6SM SCT100", "KOGD 071723Z 0718/0818 18008KT P6SM VCSH SCT150 FM072100 28010KT P6SM FEW150 FM080300 16007KT P6SM FEW180 FM080800 13009KT P6SM FEW180", "KOKC 072054Z 0721/0818 08007KT P6SM VCTS SCT070CB SCT250 FM080000 16008KT P6SM OVC250 TEMPO 0804/0808 VRB30KT 4SM TSRA BR BKN100CB", "KOLF 071720Z 0718/0818 06009KT P6SM FEW060 FM080000 VRB06KT P6SM FEW140", "KOLM 071744Z 0718/0818 22007KT P6SM OVC015 TEMPO 0718/0720 BKN018 FM072000 23010KT P6SM FEW250 FM081100 VRB02KT P6SM OVC015 TEMPO 0813/0816 OVC008", "KOLS 071720Z 0718/0818 20005KT P6SM FEW100 FM072000 24012G20KT P6SM BKN100 FM080300 26005KT P6SM SCT100 FM080600 12004KT P6SM SCT100", "KOMA 072011Z 0720/0818 VRB03KT P6SM SCT020 BKN070 OVC100 TEMPO 0720/0722 4SM -SHRA BKN015 FM072300 13007KT P6SM BKN015 FM080200 36007KT P6SM BKN007 FM081400 36008KT P6SM SCT050", "KONP 071738Z 0718/0818 25007KT P6SM OVC025 FM080300 23003KT P6SM OVC017", "KONT 071727Z 0718/0824 26004KT 5SM HZ FEW020 FM071900 26007KT P6SM SKC FM072100 26012KT P6SM SKC FM080500 26006KT P6SM SCT009 FM081000 VRB04KT 6SM BR BKN010 FM081600 26004KT P6SM FEW015 FM082100 26011KT P6SM SKC", "KOPF 072052Z 0721/0818 20010KT P6SM VCTS SCT025CB SCT070 TEMPO 0721/0723 VRB15G25KT 4SM TSRA SCT015 BKN030CB FM080100 VRB04KT P6SM SCT030 BKN250 FM081400 24008KT P6SM FEW025 SCT050 FM081700 22008KT P6SM VCTS SCT030CB SCT070", "KORD 072100Z 0721/0824 07008KT P6SM SCT050 BKN150 FM080000 06006KT P6SM -RA SCT050 OVC100 FM080400 06005KT P6SM VCSH BKN080 TEMPO 0808/0812 4SM -SHRA BR SCT010 OVC020 FM081200 04004KT P6SM VCSH SCT010 OVC020 FM081800 02009KT P6SM BKN035", "KORF 071720Z 0718/0818 04007KT P6SM VCSH SCT040 FM080000 13005KT P6SM BKN100 FM080600 VRB03KT P6SM BKN090 FM081500 07006KT P6SM SCT040", "KORH 071740Z 0718/0818 19007KT P6SM FEW200 FM080300 VRB03KT P6SM BKN150 FM080500 00000KT 4SM BR SCT005 FM080700 00000KT 1SM BR BKN003 FM081300 20005KT P6SM BKN035", "KOTH 071725Z 0718/0818 35005KT P6SM OVC020 FM071900 32011KT P6SM BKN025 FM080400 VRB04KT P6SM OVC015", "KOTM 071726Z 0718/0818 14005KT P6SM -SHRA OVC060 FM072200 09007KT P6SM -SHRA BKN100 FM080200 06009KT P6SM -SHRA OVC060 FM080700 04008KT P6SM -SHRA SCT015 OVC025 FM081000 02009KT 6SM BR SCT008 OVC012 FM081700 01009KT P6SM BKN029", "KOUN 072055Z 0721/0818 07007KT P6SM VCTS SCT070CB SCT250 FM080200 16008KT P6SM OVC250 TEMPO 0804/0808 VRB30KT 4SM TSRA BR BKN100CB", "KOWB 071728Z 0718/0818 VRB04KT P6SM FEW045 SCT100 FM080100 VRB04KT P6SM FEW100 BKN250 FM081200 21007KT P6SM VCSH BKN060 PROB30 0817/0818 6SM SHRA BR", "KOXR 072114Z 0721/0818 27014KT P6SM FEW019 FM072200 27012KT P6SM SCT015 FM080400 29006KT P6SM BKN009 FM080800 VRB03KT 6SM BR OVC006", "TAF KOZR 071800Z 0718/0824 27006KT 9999 VCTS SCT040CB BKN250 QNH2986INS TEMPO 0723/0801 VRB15G25KT 3200 TSRA BKN030CB BKN100 OVC250 BECMG 0802/0803 VRB06KT 9999 NSW SCT025 BKN150 QNH2988INS BECMG 0807/0808 VRB06KT 9999 FEW008 SCT150 QNH2988INS BECMG 0813/0814 30006KT 9999 SCT030 SCT150 QNH2990INS BECMG 0817/0818 30006KT 9999 VCTS SCT040CB SCT150 QNH2987INS TX33/0720Z TN22/0810Z", "KPAE 072101Z 0721/0818 23010KT P6SM SKC FM072300 33008KT P6SM SKC FM081100 VRB03KT P6SM BKN015 TEMPO 0813/0816 OVC010", "KPAH 071728Z 0718/0818 VRB05KT P6SM SCT060 FM080100 19004KT P6SM SCT060 OVC250 FM081300 24008KT P6SM SHRA SCT025 BKN090 PROB30 0815/0818 4SM TSRA BKN025CB", "TAF KPAM 071900Z 0719/0901 24012KT 9999 SCT030 BKN100 QNH2993INS TEMPO 0721/0801 27012G20KT 4800 -SHRA VCTS BKN015CB BECMG 0800/0801 30006KT 9999 SCT020 BKN040 QNH2989INS WND 27006KT AFT 0811 BECMG 0819/0820 24012KT 9999 SCT025 QNH2990INS TEMPO 0820/0824 27015G26KT 4800 TSRA BKN015CB BECMG 0823/0824 24009KT 9999 FEW020 SCT060 QNH2987INS TX33/0719Z TN25/0810Z", "KPBF 071720Z 0718/0818 VRB06KT P6SM VCSH OVC045 FM072000 25007KT P6SM VCTS BKN050CB FM080000 18007KT P6SM VCSH BKN150 PROB30 0812/0818 4SM TSRA BR OVC025CB", "KPBG 072056Z 0721/0818 25003KT P6SM -RA OVC070 TEMPO 0721/0722 -TSRA OVC040CB FM072200 20005KT P6SM -SHRA OVC090 FM072300 VRB04KT P6SM VCSH OVC090 FM080800 00000KT 6SM BR VCSH BKN080 FM081500 VRB04KT P6SM VCSH SCT120", "KPBI 072052Z 0721/0818 20010KT P6SM VCTS SCT025CB SCT070 FM080300 VRB05KT P6SM SCT030 BKN250 FM081400 24008KT P6SM FEW025 SCT050 FM081700 22008KT P6SM VCTS SCT030CB SCT070", "KPDK 072148Z 0722/0818 15006KT P6SM VCSH SCT040 TEMPO 0722/0724 VRB15G20KT 4SM TSRA BR BKN025CB FM080000 35004KT P6SM SCT120 FM081600 29006KT P6SM SCT040", "KPDT 071720Z 0718/0818 VRB06KT P6SM SKC", "KPDX 072058Z 0721/0818 34005KT P6SM FEW050 FM081100 32002KT P6SM BKN025", "KPEQ 071740Z 0718/0818 11009KT P6SM SKC FM072200 11015G23KT P6SM FEW250 FM080700 10010KT P6SM SCT250", "KPGA 071720Z 0718/0818 24009G18KT P6SM SKC FM080400 22006KT P6SM SKC FM080800 VRB06KT P6SM SKC", "KPGD 071741Z 0718/0818 27008KT P6SM VCTS SCT025CB BKN100 BKN250 TEMPO 0718/0721 VRB12G25KT 5SM TSRA BKN030CB BKN250 FM072200 26008KT P6SM VCSH SCT030 BKN250 FM080200 24004KT P6SM SCT025 SCT250 FM081500 26008KT P6SM OVC250 PROB30 0815/0818 P6SM TSRA BKN050CB", "KPGV 071743Z 0718/0818 VRB03KT P6SM SCT040 FM072100 VRB03KT P6SM VCTS SCT050CB FM080200 00000KT P6SM VCSH BKN120 FM080900 00000KT 5SM BR BKN100 FM081200 VRB03KT 6SM BR BKN060 FM081500 VRB04KT P6SM VCSH SCT030 BKN060 AMD LTD TO CLD VIS AND WIND", "KPHF 071720Z 0718/0818 09006KT P6SM VCSH SCT030 FM071900 09007KT P6SM VCTS BKN040CB FM080000 10005KT P6SM VCSH BKN090 FM080300 00000KT P6SM BKN150 FM081200 VRB03KT P6SM BKN090 FM081600 VRB05KT P6SM SCT040", "KPHL 072040Z 0721/0824 16004KT P6SM VCTS FEW025 SCT100CB TEMPO 0721/0724 VRB10KT 3SM TSRA BR OVC025CB FM080100 18003KT P6SM SCT030 BKN150 FM080600 VRB02KT 5SM BR BKN050 FM080800 VRB02KT 3SM BR BKN015 FM081300 10003KT P6SM BKN035 FM082100 18005KT P6SM BKN070", "KPHX 072051Z 0721/0824 20008KT P6SM FEW150 FM072200 26012G20KT P6SM FEW150 FM080300 27010KT P6SM SKC FM081000 10005KT P6SM SKC FM081800 17008KT P6SM SKC", "KPIA 072048Z 0721/0818 VRB03KT P6SM SCT090 OVC250 FM072200 VRB03KT P6SM -SHRA BKN090 FM080000 VRB03KT P6SM BKN090 FM080600 14005KT P6SM -SHRA VCTS BKN040CB FM081100 21008KT P6SM VCSH OVC015 FM081500 32008KT P6SM BKN015", "KPIB 071750Z 0718/0818 33004KT P6SM SCT030 FM072100 28006KT P6SM VCTS BKN050CB FM080200 26005KT P6SM SCT090 FM081000 28003KT P6SM SCT008 SCT015", "KPIE 071741Z 0718/0818 28009KT P6SM SHRA VCTS SCT025CB BKN100 TEMPO 0718/0720 VRB15G25KT 4SM TSRA BKN030CB FM072100 27011KT P6SM SCT040 SCT100 BKN250 FM080200 26006KT P6SM SCT025 BKN250 FM080800 24005KT P6SM VCSH SCT020 BKN040 FM081500 26007KT 6SM SHRA VCTS SCT025CB BKN100 PROB30 0816/0818 P6SM TS BKN030CB", "KPIH 071720Z 0718/0818 01006KT P6SM SCT130 FM072200 VRB03KT P6SM VCTS SCT120CB FM080100 24015KT P6SM FEW130 FM080500 15006KT P6SM FEW090 FEW200 FM080900 VRB04KT P6SM SCT090 SCT180 FM081500 02008KT P6SM FEW080 FEW140", "KPIR 071720Z 0718/0818 15005KT P6SM SCT016 SCT022 FM072000 10008KT P6SM FEW100 FM080300 06006KT P6SM SKC FM080700 02005KT P6SM SCT250 FM081600 10007KT P6SM FEW250", "KPIT 072055Z 0721/0824 34007KT P6SM BKN040 FM080000 VRB03KT P6SM SKC", "KPKB 072031Z 0721/0818 VRB03KT P6SM BKN035 FM072300 33005KT P6SM SCT250 FM081100 00000KT 6SM BR OVC003 FM081300 08002KT P6SM FEW003 BKN250", "KPLN 071750Z 0718/0818 30010KT P6SM SKC FM072100 26007KT P6SM BKN250 FM080200 00000KT P6SM OVC250 FM081100 00000KT P6SM SCT090 OVC150", "KPMD 071742Z 0718/0818 25009G17KT P6SM SKC FM072200 24020G30KT P6SM SKC FM080300 23012KT P6SM SKC FM080800 21008KT P6SM SKC", "KPNA 071727Z 0718/0818 15007KT P6SM FEW080 SCT120 FM072100 VRB20G30KT P6SM VCTS SCT070CB BKN100 FM080200 09008KT P6SM VCSH SCT060 BKN100 FM080700 32007KT P6SM SCT080 BKN120 FM081400 VRB06KT P6SM FEW080 SCT120", "KPNC 072058Z 0721/0818 06008KT P6SM VCTS SCT050CB BKN120 TEMPO 0721/0724 4SM -TSRA OVC040CB FM080000 12010KT P6SM BKN060 OVC250 TEMPO 0805/0809 VRB30KT 4SM TSRA BR OVC025CB FM081000 VRB04KT P6SM OVC100", "KPNE 072058Z 0721/0818 VRB04KT P6SM VCTS FEW025 SCT100CB TEMPO 0721/0724 VRB10KT 3SM TSRA BR OVC025CB FM080100 VRB03KT P6SM SCT030 BKN150 FM080700 VRB02KT 3SM BR BKN020 FM081200 VRB02KT P6SM BKN020 FM081400 VRB03KT P6SM SCT100", "KPNS 071725Z 0718/0818 25009KT P6SM VCTS SCT035CB BKN120 TEMPO 0720/0724 4SM TSRA BR BKN030CB FM080200 29003KT P6SM FEW030 OVC250 FM081200 30004KT P6SM SCT250", "TAF KPOB 071710Z 0717/0823 25006KT 9999 SCT050 QNH2981INS BECMG 0718/0719 VRB06KT 8000 -SHRA VCTS FEW035 SCT050CB BKN110 BKN200 QNH2978INS TEMPO 0720/0724 VRB18G28KT 1600 +TSRA SCT005 BKN035CB OVC100 BECMG 0800/0801 22003KT 9999 NSW FEW030 SCT100 QNH2981INS BECMG 0809/0810 18003KT 8000 BR SCT005 QNH2981INS BECMG 0813/0814 18006KT 9999 NSW SCT020 SCT035 SCT200 QNH2982INS BECMG 0817/0818 18006KT 9999 VCTS SCT040CB SCT120 BKN200 QNH2977INS TX35/0720Z TN22/0810Z", "TAF KPOE 071500Z 0715/0821 25009KT 9999 SCT035 BKN100 QNH2997INS BECMG 0718/0719 21012KT 9999 VCTS BKN045CB QNH2987INS TEMPO 0719/0723 VRB15G25KT 4800 TSRA BECMG 0723/0724 19009KT 9999 VCSH SCT060 SCT120 QNH2987INS BECMG 0801/0802 VRB06KT 9999 NSW SCT250 QNH2988INS BECMG 0808/0809 VRB03KT 9999 OVC005 QNH2989INS BECMG 0812/0813 VRB06KT 9999 OVC007 QNH2993INS BECMG 0813/0814 22006KT 9999 SCT015 SCT050 QNH2992INS BECMG 0818/0819 21006KT 9999 VCTS BKN045CB QNH2985INS TX35/0721Z TN23/0811Z", "KPOU 071725Z 0718/0818 18005KT P6SM FEW030 SCT140 TEMPO 0722/0802 VRB04KT 4SM -SHRA OVC025 FM080600 00000KT 2SM BR BKN010 FM081300 00000KT P6SM BKN070", "KPQI 071720Z 0718/0818 19008KT P6SM -SHRA VCTS BKN250CB FM080600 VRB03KT P6SM VCSH BKN080 FM080900 VRB03KT 4SM BR BKN027 FM081100 VRB03KT P6SM BKN027 FM081400 VRB03KT P6SM SCT035", "KPRB 071742Z 0718/0818 31005KT P6SM SCT010 FM072000 20012KT P6SM SKC FM072200 21015G22KT P6SM SKC FM080300 20010KT P6SM SKC FM080600 29008KT P6SM SKC FM081200 VRB03KT P6SM SCT006", "KPRC 071720Z 0718/0818 20014G24KT P6SM SKC FM080300 18007KT P6SM SKC FM081600 20009G18KT P6SM SKC", "KPSC 071720Z 0718/0818 VRB05KT P6SM FEW250", "KPSF 071725Z 0718/0818 VRB05KT P6SM SCT150 TEMPO 0722/0802 4SM -SHRA BKN050 FM080400 00000KT 2SM BR BKN050 FM080800 00000KT 1SM BR BKN010 FM081400 00000KT P6SM BKN040", "KPSM 071742Z 0718/0818 15009KT P6SM SKC FM080700 18004KT 2SM BR BKN003 FM081200 VRB03KT P6SM SCT003 FM081400 VRB03KT P6SM BKN024", "KPSP 071727Z 0718/0818 VRB04KT P6SM SKC FM072100 33013G20KT P6SM SKC FM080000 33018G27KT P6SM SKC FM080900 33010KT P6SM SKC FM081100 VRB04KT P6SM SKC", "KPTK 071736Z 0718/0818 01005KT P6SM SCT040 SCT070 FM080200 11004KT P6SM FEW070 SCT150 FM080800 12005KT P6SM SCT050 OVC100 FM081500 18005KT 6SM -SHRA BKN030 OVC050", "KPUB 071736Z 0718/0818 11008KT P6SM SCT045 FM072000 11012G22KT P6SM SCT050 SCT100 FM072100 11012G22KT P6SM VCTS SCT040CB BKN150 BKN250 TEMPO 0722/0802 VRB20G40KT 3SM TSRA BKN040CB FM080300 05012KT P6SM VCTS BKN030CB OVC080 FM080700 03008KT P6SM VCSH SCT020 BKN025 FM080900 VRB04KT P6SM SCT008 OVC012 FM081400 12006KT P6SM SCT015 BKN025", "KPUW 071720Z 0718/0818 09005KT P6SM SCT070 SCT200 FM080100 05004KT P6SM SCT070 SCT200 FM080600 07001KT P6SM BKN250", "KPVD 072010Z 0720/0818 16010KT P6SM FEW020 FM080100 18004KT 4SM BR BKN003 FM080500 00000KT 1SM BR BKN003 FM081300 00000KT 5SM BR BKN010 FM081500 13003KT P6SM BKN035", "KPVU 071723Z 0718/0818 29006KT P6SM SKC FM080200 32010KT P6SM SKC FM080700 15007KT P6SM SKC", "KPVW 071742Z 0718/0818 16018KT P6SM FEW120 FM080000 17011KT P6SM VCTS BKN090CB FM080300 16011KT P6SM BKN100", "KPWM 072130Z 0721/0818 17012KT P6SM SKC FM080100 15004KT P6SM VCFG FEW004 FM080300 15004KT 3/4SM BR BKN004 FM080900 15004KT 1/2SM FG BKN003 FM081500 13004KT 6SM BCFG SCT010", "KPWT 071744Z 0718/0818 21007KT P6SM OVC012 TEMPO 0718/0720 BKN018 FM072000 22008KT P6SM FEW250 FM080800 21004KT P6SM BKN008 FM081000 VRB04KT P6SM OVC005", "KRAP 072202Z 0722/0818 03011KT P6SM SCT150 FM080000 VRB05KT P6SM SCT250 FM081700 17012KT P6SM SCT160", "KRBG 071819Z 0718/0818 35008KT P6SM SCT025 FM081400 01005KT P6SM BKN030", "KRBL 071728Z 0718/0818 16010KT P6SM SKC", "TAF KRCA 071900Z 0719/0901 33012G18KT 9999 SCT030 QNH3001INS TEMPO 0719/0722 32015G25KT VCTS SCT030CB BECMG 0721/0722 01008KT 9999 FEW010 SCT040 QNH2998INS BECMG 0802/0803 VRB06KT 9999 FEW030 SCT095 QNH2999INS BECMG 0818/0819 15010KT 9999 SCT030 BKN050 QNH3005INS TS OVR BLKHLS TEMPO 0820/0901 17012G18KT 9000 -SHRA BKN030 TX26/0721Z TN11/0812Z", "KRDD 071728Z 0718/0818 18010KT P6SM SKC", "KRDG 072059Z 0721/0818 VRB04KT P6SM VCTS FEW025 BKN090CB TEMPO 0721/0723 VRB10KT 3SM TSRA BR OVC025CB FM072300 VRB03KT P6SM SCT030 BKN150 FM080600 VRB02KT 5SM BR SCT025 BKN050 FM081000 VRB02KT 5SM BR BKN025 FM081300 VRB03KT P6SM SCT025", "KRDM 071720Z 0718/0818 VRB06KT P6SM SKC FM072300 33012G20KT P6SM FEW120 FEW250 FM080300 VRB06KT P6SM FEW150", "TAF KRDR 071800Z 0718/0824 01010G15KT 9999 BKN060 QNH2990INS TEMPO 0719/0721 9000 -SHRA VCTS BKN060CB BECMG 0803/0804 VRB06KT 9999 FEW080 QNH2994INS TX24/0721Z TN10/0810Z", "KRDU 072153Z 0722/0818 12008KT P6SM SCT040 TEMPO 0722/0723 4SM -TSRA BR BKN045CB FM081000 00000KT 3SM BR SCT003 FM081300 08004KT P6SM SCT020", "KRFD 072100Z 0721/0818 22005KT P6SM SCT050 BKN150 FM072200 25006KT 6SM -RA SCT050 OVC100 FM080200 05006KT P6SM VCSH BKN080 TEMPO 0806/0810 4SM -SHRA BR SCT010 OVC020 FM081000 02007KT P6SM VCSH SCT010 OVC020 FM081600 02006KT P6SM BKN035", "KRHI 071727Z 0718/0818 24005KT 6SM BR SCT250 FM072100 23005KT 6SM BR BKN110 FM072300 24004KT P6SM BKN110 FM080800 31003KT P6SM BKN090 FM081700 33006KT P6SM -SHRA BKN090", "KRIC 071727Z 0718/0818 09005KT P6SM VCTS BKN050CB TEMPO 0718/0720 VRB25KT 1SM +TSRA BR OVC030CB FM072200 10005KT P6SM VCSH BKN100 FM080300 00000KT P6SM BKN080 FM081600 06004KT P6SM SCT050", "KRIL 071720Z 0718/0818 30004KT P6SM SKC FM071900 28014G24KT P6SM FEW150 FM080200 26008KT P6SM SKC FM080400 10006KT P6SM SKC FM081200 06003KT P6SM SKC", "TAF KRIV 072000Z 0720/0902 32009KT 9999 SKC QNH2980INS TEMPO 0721/0802 32012G18KT BECMG 0804/0805 VRB04KT 9999 SKC QNH2982INS BECMG 0819/0820 32009KT 9999 SKC QNH2980INS TEMPO 0821/0902 32012G18KT TX30/0722Z TN12/0813Z", "KRIW 071727Z 0718/0818 10007KT P6SM FEW100 SCT150 FM072200 08010KT P6SM VCSH SCT080 BKN120 TEMPO 0722/0802 VRB20G30KT -TSRA SCT060 BKN080CB FM080400 32008KT P6SM SCT080 BKN120 FM081400 VRB06KT P6SM FEW080 SCT120", "KRKD 071742Z 0718/0818 20010KT P6SM VCFG FEW003 FM072300 19005KT 4SM BR BKN004 FM080100 20006KT 1/2SM FG OVC002 FM081500 VRB03KT P6SM BKN006", "KRKS 071727Z 0718/0818 08012KT P6SM SCT080 BKN150 FM072100 03010KT P6SM VCSH SCT070 BKN120 TEMPO 0722/0802 VRB25G35KT -TSRA SCT070 BKN090CB FM080500 07010KT P6SM SCT090 SCT150", "KRME 071745Z 0718/0818 27006KT P6SM -SHRA BKN040 OVC120 TEMPO 0718/0721 2SM TSRA BR BKN025 OVC040CB FM072300 30005KT P6SM SCT050 BKN120 FM080800 00000KT 5SM BR SCT070 BKN120 FM081200 27005KT P6SM SCT070", "TAF KRND 071600Z 0716/0822 16010G15KT 9999 SCT015 BKN020 BKN050 QNH2983INS TEMPO 0716/0718 BKN015 BECMG 0718/0719 16012KT 9999 SCT030 SCT050 QNH2985INS BECMG 0808/0809 19012KT 9999 BKN012 BKN020 QNH2988INS BECMG 0814/0815 VRB06KT 9999 BKN025 BKN050 QNH2989INS BECMG 0817/0818 17012KT 9999 SCT020 BKN050 QNH2979INS TX32/0720Z TN24/0811Z LAST NO AMDS AFT 0800 NEXT 0918", "KRNH 071720Z 0718/0818 21007KT P6SM SCT250 FM072000 22005KT P6SM BKN200 FM080500 VRB03KT P6SM BKN100 FM081700 34007KT P6SM BKN070", "KRNO 071720Z 0718/0818 30008KT P6SM SKC FM072200 29016G25KT P6SM FEW110 FM080400 30008KT P6SM SKC FM081000 VRB03KT P6SM SKC", "KROA 071933Z 0720/0818 31007KT P6SM SCT050 FM080700 VRB04KT P6SM OVC100 FM081500 09003KT P6SM BKN050", "KROC 071740Z 0718/0818 32010KT P6SM SCT025 BKN080 FM072200 31008KT P6SM SCT100 FM080200 27004KT P6SM SKC FM081400 25006KT P6SM BKN250", "KROG 071720Z 0718/0818 20012G15KT P6SM VCSH BKN030 FM080000 VRB03KT P6SM BKN100 PROB30 0808/0814 4SM -TSRA BKN025CB FM081400 27005KT P6SM BKN030", "KROW 071745Z 0718/0818 18010KT P6SM SCT110 FM072030 19010G18KT P6SM VCTS SCT110CB BKN150 FM072300 19010G16KT P6SM VCSH BKN110 FM080500 12010KT P6SM BKN120 FM081100 03006KT P6SM SKC", "KRSL 071742Z 0718/0818 18007KT P6SM VCSH BKN015 FM071900 21006KT P6SM BKN070 FM080100 06008KT P6SM BKN035", "KRST 071721Z 0718/0818 16006KT P6SM BKN230 FM072100 21007KT P6SM VCSH OVC100 FM080100 25006KT P6SM BKN150 FM081400 30007KT P6SM BKN150", "KRSW 071741Z 0718/0818 25007KT P6SM VCTS SCT025CB BKN100 BKN250 TEMPO 0718/0722 VRB12G25KT 5SM TSRA BKN030CB BKN250 FM072200 27008KT P6SM VCSH SCT030 SCT100 BKN250 FM080200 21003KT P6SM SCT025 SCT250 FM081500 25006KT P6SM OVC250 PROB30 0815/0818 P6SM TSRA BKN030CB", "KRUT 072143Z 0722/0818 27007KT 2SM TSRA BR BKN025CB FM072215 21007KT 5SM -RA BR BKN035 FM080000 00000KT P6SM VCSH BKN100 FM080600 00000KT 4SM BR VCSH BKN090 FM080900 00000KT 2SM BR BKN060 FM081000 00000KT 6SM BR BKN060 FM081200 00000KT P6SM VCSH BKN050", "KRVS 072046Z 0721/0818 VRB06KT P6SM VCSH BKN120 TEMPO 0721/0724 4SM -RA BKN040 FM080000 19007KT P6SM BKN100 TEMPO 0806/0810 VRB15G25KT 4SM -TSRA BKN025CB FM081000 VRB05KT P6SM VCTS BKN025CB FM081500 32004KT P6SM BKN025", "KRWF 071720Z 0718/0818 19008KT P6SM BKN250 FM072100 21010KT P6SM OVC100 FM080300 22005KT P6SM BKN120 FM080900 29006KT P6SM BKN060 FM081400 33007KT P6SM SCT050", "KRWI 072104Z 0721/0818 07005KT P6SM VCTS SCT040CB FM072300 VRB02KT P6SM BKN100 FM081000 00000KT 4SM BR BKN050 FM081300 07003KT P6SM SCT020", "KRWL 071737Z 0718/0818 VRB06KT P6SM FEW200 FM072200 04008KT P6SM FEW200 FM080300 03015G25KT P6SM SCT080 FM080600 05012KT P6SM SCT110", "KRYY 072148Z 0722/0818 VRB04KT P6SM VCSH SCT040 FM080000 29004KT P6SM SCT120 FM081600 30006KT P6SM SCT040", "KSAC 071728Z 0718/0818 20010G15KT P6SM SKC FM080800 19009KT P6SM SKC", "KSAF 071745Z 0718/0818 24010G20KT P6SM FEW120 FM072200 24014G24KT P6SM VCSH BKN120 FM080400 22010KT P6SM BKN150 FM080700 10010KT P6SM BKN150 FM081600 26015G25KT P6SM SCT150", "KSAN 072043Z 0721/0824 28008KT P6SM FEW023 FM080200 30004KT P6SM SCT020 FM080400 VRB04KT P6SM OVC015 FM081300 VRB04KT P6SM BKN020 FM081800 22008KT P6SM FEW020", "KSAT 072059Z 0721/0824 16010KT P6SM VCSH BKN035 FM080100 16012KT P6SM SCT035 FM080800 16006KT P6SM BKN012 FM081600 16010KT P6SM FEW040 SCT250", "KSAV 071736Z 0718/0818 28006KT P6SM SCT040 FM072200 22008KT P6SM VCTS SCT050CB FM080200 24003KT P6SM SCT250 FM081500 28005KT P6SM FEW050", "KSAW 071732Z 0718/0818 20007KT P6SM FEW190 FM080000 16006KT P6SM BKN080 FM081300 VRB04KT P6SM VCSH BKN025", "KSBA 072001Z 0720/0818 14008KT P6SM OVC015 FM072130 19008KT P6SM FEW015 FM080400 VRB03KT P6SM SKC FM081300 14005KT P6SM SCT008", "KSBD 071727Z 0718/0818 VRB04KT 5SM HZ SKC FM072000 26010KT P6SM SKC FM080400 VRB04KT P6SM SKC FM081200 VRB03KT P6SM FEW010", "KSBM 072104Z 0721/0818 11007KT P6SM BKN250 FM080400 00000KT P6SM OVC110 PROB30 0807/0808 4SM -SHRA BR OVC025 FM080800 VRB03KT P6SM OVC080 PROB30 0808/0814 4SM -SHRA BR OVC025 FM081500 33005KT P6SM BKN050 FM081700 06007KT P6SM FEW070", "KSBN 071720Z 0718/0818 30006KT P6SM SCT050 FM080000 VRB02KT P6SM BKN100 FM081000 14005KT 6SM -SHRA VCTS OVC030CB", "KSBP 071801Z 0718/0818 30008KT P6SM SCT016 FM072000 30015KT P6SM SKC FM080400 30008KT P6SM BKN010 FM080900 VRB03KT 5SM BR OVC007", "KSBY 072007Z 0720/0818 VRB05KT P6SM VCTS BKN040CB TEMPO 0720/0722 VRB25KT 1SM +TSRA OVC030CB FM080000 00000KT P6SM BKN090 FM080900 00000KT 1 1/2SM BR SCT002 FM081200 VRB03KT P6SM SKC FM081600 16004KT P6SM SCT040", "KSCK 071728Z 0718/0818 30010KT P6SM SKC", "KSDF 071739Z 0718/0824 VRB03KT P6SM FEW250 FM080600 00000KT P6SM BKN250 FM081300 18005KT P6SM BKN250 FM081700 21007KT P6SM BKN070 PROB30 0817/0818 2SM -TSRA BR OVC025CB FM081800 23008KT 6SM -SHRA BR VCTS SCT035CB OVC090 FM082100 25009KT P6SM VCSH OVC090", "KSDL 071720Z 0718/0818 VRB05KT P6SM SKC FM072200 23008G16KT P6SM SKC FM080200 26006KT P6SM SKC FM080600 VRB03KT P6SM SKC", "KSDY 071720Z 0718/0818 03010KT P6SM SKC FM080500 VRB06KT P6SM FEW110", "KSEA 072055Z 0721/0824 22010KT P6SM SKC FM080300 25008KT P6SM SKC FM080600 20007KT P6SM FEW060 FM081000 22005KT P6SM BKN015 TEMPO 0813/0816 OVC008 FM081800 20008KT P6SM SKC", "KSEZ 071720Z 0718/0818 19014G24KT P6SM SKC FM080300 15006KT P6SM SKC FM081000 06009KT P6SM SKC FM081500 20009KT P6SM SKC", "KSFB 072106Z 0721/0818 26008KT P6SM VCTS SCT035CB BKN060 BKN250 TEMPO 0721/0723 VRB15G22KT 3SM TSRA BKN035CB FM080000 24005KT P6SM FEW070 SCT150 SCT250 FM081600 25011KT P6SM VCTS SCT040CB BKN200", "KSFF 071720Z 0718/0818 05005KT P6SM FEW080 SCT250 FM080600 05002KT P6SM BKN250", "KSFO 072103Z 0721/0824 27020G25KT P6SM OVC014 FM072200 28020G25KT P6SM SCT015 FM080200 28018G30KT P6SM BKN012 FM080600 27015KT P6SM OVC010 FM081100 27010KT P6SM OVC009 FM081730 29015KT P6SM OVC011 FM082100 29020G30KT P6SM SCT015", "KSGF 071720Z 0718/0818 20009KT P6SM SCT045 BKN200 PROB30 0804/0808 4SM TSRA BR OVC025CB FM080800 22008KT 6SM -TSRA BKN045CB TEMPO 0808/0812 2SM TSRA BR BKN030CB FM081300 29008KT P6SM BKN040", "KSGJ 071721Z 0718/0818 24005KT P6SM VCTS SCT025CB SCT050 TEMPO 0718/0722 VRB15G25KT 3SM TSRA SCT025CB BKN040 FM072200 19008KT P6SM VCTS SCT025CB SCT040 BKN080 TEMPO 0722/0802 VRB15G25KT 3SM TSRA BR SCT020CB BKN040 FM080200 24006KT P6SM VCSH SCT030 SCT080 BKN120 FM080600 VRB02KT P6SM SCT020 FM081500 27008KT P6SM SCT025", "KSGR 072048Z 0721/0818 17008KT P6SM VCTS SCT040CB SCT150 FM072200 16008KT P6SM SCT200 FM080400 VRB05KT P6SM FEW250 FM081000 VRB05KT 6SM BR SCT020", "KSGU 071723Z 0718/0818 25012G20KT P6SM SKC FM080400 15008KT P6SM SKC FM081200 VRB05KT P6SM SKC FM081700 25007KT P6SM SKC", "KSHR 071720Z 0718/0818 VRB05KT P6SM VCTS SCT070CB FM080200 VRB04KT P6SM SCT100 BKN200", "KSHV 072107Z 0721/0818 23007KT P6SM VCSH SCT040 SCT100 BKN250 FM080100 18006KT P6SM FEW150 SCT250 FM080600 21005KT P6SM SCT150 BKN250 FM081500 22009KT P6SM FEW100 SCT150 BKN250", "KSJC 072030Z 0721/0818 32010KT P6SM FEW030 FM072230 32014G21KT P6SM FEW200 FM080400 33010KT P6SM FEW015 FM081000 30005KT P6SM SCT010 TEMPO 0812/0816 BKN010 FM081730 31008KT P6SM FEW015", "KSJS 072106Z 0721/0818 VRB03KT P6SM SCT030 FM080700 VRB03KT 3SM BR FEW003 SCT015 FM081000 VRB03KT 1SM BR BKN003 OVC015 FM081300 VRB03KT P6SM BKN050", "KSJT 071733Z 0718/0818 18010G20KT P6SM SCT070 FM080400 17008KT P6SM SKC FM081300 15008KT P6SM BKN015", "TAF KSKA 071900Z 0719/0901 06008KT 9999 SKC QNH2982INS TX31/0720Z TN18/0810Z", "TAF KSKF 071800Z 0718/0824 15010G15KT 9999 SCT025 BKN050 QNH2983INS TEMPO 0718/0720 BKN025 BECMG 0801/0802 14010G15KT 9999 SCT018 QNH2985INS BECMG 0803/0804 15009KT 9999 BKN015 QNH2987INS BECMG 0808/0809 16005KT 9999 BKN009 QNH2988INS BECMG 0815/0816 16010G15KT 9999 SCT020 QNH2987INS BECMG 0818/0819 16010G15KT 9999 FEW035 QNH2978INS TX33/0723Z TN25/0812Z", "KSLC 072030Z 0721/0824 17010KT P6SM FEW150 FM072200 32011KT P6SM FEW150 FM080400 15008KT P6SM FEW180 FM082000 32009KT P6SM FEW150", "KSLE 071738Z 0718/0818 VRB04KT P6SM BKN015 FM072000 VRB03KT P6SM FEW050 FM080000 29009KT P6SM SKC FM081300 VRB03KT P6SM BKN030 AMD NOT SKED", "TAF KSLI 072100Z 0721/0903 VRB06KT 9999 SKC QNH2977INS TX24/0823Z TN15/0814Z", "KSLK 072127Z 0721/0818 VRB04KT P6SM VCTS BKN035CB TEMPO 0721/0723 4SM TSRA BR OVC025CB FM080100 00000KT P6SM VCSH BKN100 FM080500 00000KT 6SM BR VCSH BKN110 FM080900 00000KT 1SM BR BKN014 FM081600 00000KT P6SM VCSH SCT200", "KSLN 071742Z 0718/0818 14007KT P6SM VCSH OVC080 FM071900 21006KT P6SM BKN070 FM080100 01009KT P6SM SCT015 BKN025", "KSME 071739Z 0718/0818 VRB04KT P6SM FEW035 BKN100 FM080500 VRB03KT 4SM BR SCT250 FM080700 VRB03KT 1SM BR SCT005 TEMPO 0808/0812 1/4SM FG BKN002 FM081300 VRB03KT P6SM SCT250", "KSMF 071728Z 0718/0818 19010KT P6SM SKC FM080000 16014KT P6SM SKC", "KSMN 072141Z 0722/0818 35005KT P6SM SCT100 FM080000 35010KT P6SM VCTS BKN090CB FM080200 VRB06KT P6SM SCT100", "KSMO 071913Z 0719/0818 24009KT P6SM SKC FM072000 24010KT P6SM SKC FM080300 24006KT P6SM SCT009 FM080600 VRB03KT P6SM OVC012", "KSMX 071913Z 0719/0818 VRB04KT P6SM SCT014 FM072000 31015KT P6SM SKC FM080300 30008KT P6SM BKN009 FM080900 VRB03KT 4SM BR OVC007", "KSNA 071727Z 0718/0818 VRB04KT P6SM SCT025 FM071900 21009KT P6SM SKC FM080300 19006KT P6SM SCT015 FM080500 VRB04KT P6SM OVC015 FM081100 VRB04KT P6SM OVC020 FM081700 20007KT P6SM SCT020", "KSNS 072034Z 0721/0818 30013G22KT P6SM FEW020 FM080200 29013KT P6SM OVC010 FM080400 29011KT P6SM OVC008 FM081200 29007KT P6SM OVC008 FM081745 29010KT P6SM BKN014", "KSNY 071737Z 0718/0818 01012G20KT P6SM FEW100 FM080300 06007KT P6SM FEW230 FM081000 17009KT P6SM VCSH BKN060", "KSOA 071733Z 0718/0818 16009KT P6SM BKN025 FM072000 17008KT P6SM FEW025 SCT050 FM081100 18010KT P6SM BKN015", "KSPI 071738Z 0718/0818 VRB03KT P6SM FEW040 BKN250 FM072300 VRB03KT P6SM VCSH BKN090 FM080700 17006KT P6SM -SHRA VCTS OVC050CB FM081200 22010KT P6SM VCSH OVC015 FM081600 27010KT P6SM BKN015", "KSPS 071720Z 0718/0818 16013G18KT P6SM FEW250 FM080200 15010KT P6SM BKN250 PROB30 0806/0812 4SM TSRA BR BKN100CB", "KSRB 071727Z 0718/0818 34005KT P6SM FEW035 SCT050 SCT250 FM080800 00000KT 3SM BR SCT250 TEMPO 0810/0813 1SM BR BKN002 BKN250 FM081300 25004KT P6SM FEW025 BKN250", "KSRQ 071741Z 0718/0818 27012KT P6SM VCSH SCT035 SCT100 BKN250 FM080200 26006KT P6SM SCT020 SCT100 FM081200 26009KT 6SM SHRA VCTS SCT025CB BKN100", "TAF AMD KSSC 072200Z 0722/0821 25008KT 9999 SCT045 SCT100 BKN200 QNH2979INS TEMPO 0722/0801 28015G31KT 3200 TSRA FEW010 BKN040CB BECMG 0801/0802 33005KT 9999 SCT110 BKN220 QNH2985INS BECMG 0810/0811 26004KT 8000 BR BKN010 QNH2987INS BECMG 0814/0815 28007KT 9999 NSW SCT025 SCT250 QNH2983INS BECMG 0818/0819 25009KT 9999 VCTS BKN035CB BKN090 BKN220 QNH2978INS TX30/0722Z TN24/0810Z", "KSSF 072059Z 0721/0818 14008KT P6SM VCSH BKN060 FM080100 14010KT P6SM SCT050 FM080800 14004KT P6SM BKN012 FM081600 16008KT P6SM FEW040 SCT250", "KSSI 071721Z 0718/0818 12008G12KT P6SM VCTS SCT025CB BKN040 TEMPO 0718/0722 VRB15G25KT 5SM TSRA SCT025CB BKN040 FM072200 21010KT P6SM VCTS FEW025CB SCT040 BKN080 TEMPO 0722/0802 VRB15G25KT 3SM TSRA BR SCT020CB BKN040 FM080200 24006KT P6SM VCSH SCT030 FM080600 27006KT P6SM SCT030 SCT100 FM081500 24008KT P6SM SCT030", "KSTC 071720Z 0718/0818 22009KT P6SM BKN200 FM072300 24008KT P6SM BKN080 FM080400 27007KT P6SM BKN090 FM080600 30005KT P6SM BKN100 FM081500 35007KT P6SM FEW150", "KSTJ 071720Z 0718/0818 13009KT P6SM VCSH SCT050 OVC150 FM080100 20008KT P6SM VCTS BKN050CB OVC100 TEMPO 0801/0803 5SM TSRA OVC030CB FM080400 VRB05KT P6SM VCSH BKN050 OVC100 FM081000 35006KT 6SM BR OVC015", "KSTL 072057Z 0721/0824 12008KT P6SM SCT060 BKN250 FM080000 15005KT 6SM -SHRA VCTS BKN040CB FM080400 15005KT P6SM OVC040 FM081000 18005KT P6SM VCSH OVC025 FM081800 31007KT P6SM BKN040", "KSTS 071741Z 0718/0818 20008KT P6SM FEW020 FM072100 16012KT P6SM SKC FM080300 17008KT P6SM SKC FM080600 19005KT P6SM FEW008 FM081000 19003KT P6SM BKN008", "KSUA 071724Z 0718/0818 26007KT P6SM VCSH SCT040 BKN250 FM071900 VRB06G15KT P6SM VCTS SCT035CB BKN050 TEMPO 0720/0724 3SM TSRA BKN035CB FM080000 22005KT P6SM BKN070 BKN150 FM081700 26010KT P6SM VCSH SCT040 SCT250 AMD NOT SKED", "KSUN 071720Z 0718/0824 VRB04KT P6SM SKC FM072100 19010KT P6SM VCTS FEW090CB SCT110 TEMPO 0721/0801 VRB15G30KT FM080100 31008KT P6SM VCSH SCT100 BKN120 TEMPO 0803/0807 VRB15KT FM080700 32008KT P6SM FEW090 FM081400 32015KT P6SM VCSH FEW080 FEW130 FM081600 VRB05KT P6SM VCSH FEW080 FEW120", "KSUS 071738Z 0718/0818 08006KT P6SM SCT060 BKN250 FM080000 15005KT 6SM -SHRA VCTS BKN040CB FM080400 15005KT P6SM OVC040 FM081000 18005KT P6SM VCSH OVC025", "TAF KSUU 071900Z 0719/0901 23015G25KT 9999 SKC QNH2976INS BECMG 0900/0901 23025G35KT 9999 SKC 510003 QNH2980INS TX29/0723Z TN11/0812Z", "KSUX 071944Z 0720/0818 12009KT 5SM -RA BKN009 OVC050 FM072200 09009KT P6SM SCT008 OVC015 FM080000 09010G15KT P6SM OVC009 FM080200 06009KT P6SM SCT015 OVC100 FM081000 VRB03KT 5SM BR SCT002 FM081400 33006KT P6SM SCT250", "TAF KSVN 071700Z 0717/0823 30006KT 9999 SCT040 QNH2987INS BECMG 0719/0720 VRB06KT 9999 VCTS SCT040CB BKN180 QNH2984INS TEMPO 0721/0804 27020G30KT 6000 -TSRA BKN040CB BKN180 BECMG 0806/0807 VRB06KT 4800 BR FEW005 QNH2984INS BECMG 0812/0813 24006KT 9999 NSW FEW050 QNH2986INS BECMG 0819/0820 24006KT 9999 VCTS SCT050CB QNH2983INS TX34/0718Z TN23/0810Z", "KSWF 071955Z 0720/0824 15009KT P6SM VCTS SCT035 BKN060CB BKN250 TEMPO 0720/0724 4SM -TSRA BR BKN050CB FM080000 VRB03KT P6SM SCT050 SCT250 FM080800 VRB03KT P6SM BKN020 TEMPO 0808/0812 3SM BR FM081200 13004KT P6SM SCT020 BKN035 FM081500 16007KT P6SM SCT035 BKN250 FM081800 17006KT P6SM VCSH BKN040 BKN250 AMD NOT SKED", "KSWO 072059Z 0721/0818 08007KT P6SM VCTS SCT050CB BKN120 TEMPO 0721/0724 4SM -TSRA BKN040CB FM080000 12010KT P6SM BKN060 OVC250 TEMPO 0805/0809 VRB30KT 4SM TSRA BR OVC025CB FM081000 VRB04KT P6SM OVC100", "KSYM 071739Z 0718/0818 VRB04KT P6SM FEW020 FM080900 VRB03KT 5SM BR BKN250 FM081300 VRB03KT P6SM SCT250", "KSYR 072004Z 0720/0818 29008KT P6SM SCT015 BKN080 BKN140 FM072300 28005KT P6SM SCT070", "TAF AMD KSZL 072000Z 0720/0901 20009KT 9999 BKN050 OVC140 QNH2986INS BECMG 0722/0723 21008KT 9999 BKN025 OVC120 QNH2985INS BECMG 0801/0802 25010KT 9000 -SHRA BKN025 OVC120 QNH2973INS TEMPO 0803/0810 VRB15G25KT 8000 -TSRA OVC020CB BECMG 0810/0811 34008KT 9999 NSW OVC025 QNH2977INS BECMG 0819/0820 36008KT 9999 BKN050 QNH2983INS TX30/0722Z TN20/0811Z LAST NO AMDS AFT 0720 NEXT 0811", "TAF KTBN 071300Z 0713/0819 10006KT 9999 FEW250 QNH2986INS BECMG 0724/0801 16008KT 8000 -SHRA VCTS SCT029CB SCT045 OVC060 QNH2986INS TEMPO 0724/0809 27020G25KT 4800 -TSRA BKN029CB OVC045 BECMG 0810/0811 VRB06KT 9000 -SHRA BKN035 OVC050 QNH2986INS TEMPO 0817/0819 27020G30KT 9000 -TSRA BKN035CB OVC050 TX31/0720Z TN17/0713Z LAST NO AMDS AFT 0720 NEXT 1013", "KTCC 072138Z 0722/0818 VRB20G35KT 6SM -TSRA BKN100CB FM072230 18010G20KT P6SM VCSH BKN120 FM080000 25011KT P6SM BKN120 FM080200 13012KT P6SM BKN120 FM081700 15011KT P6SM SKC", "KTCL 071730Z 0718/0818 34006KT P6SM VCTS BKN050CB TEMPO 0720/0724 4SM TSRA BR BKN025CB FM080200 30004KT P6SM SCT050 FM081300 26006KT P6SM VCSH BKN040", "TAF KTCM 072100Z 0721/0903 24006KT 9999 FEW050 QNH2987INS BECMG 0811/0812 22006KT 9999 OVC012 QNH2996INS TEMPO 0812/0815 BKN007 BECMG 0818/0819 22006KT 9999 FEW020 QNH2997INS BECMG 0820/0821 25006KT 9999 SKC QNH2990INS TX25/0800Z TN11/0813Z", "KTCS 071722Z 0718/0818 19010G18KT P6SM SCT120 FM080000 35009KT P6SM SCT120 BKN250 FM080300 32007KT P6SM FEW150", "KTEB 071955Z 0720/0824 18010KT P6SM FEW040 SCT060 BKN250 FM072100 16008KT P6SM VCTS SCT040 BKN060CB BKN250 FM080000 17003KT P6SM SCT040 BKN250 FM080400 VRB04KT P6SM SCT007 BKN015 TEMPO 0807/0810 P6SM BKN007 FM081400 14004KT P6SM SCT015 SCT025 FM081600 16005KT P6SM SCT025 BKN250 FM081800 16007KT P6SM SCT025 BKN250 FM082000 18010KT P6SM VCSH BKN040 BKN250", "KTEX 071720Z 0718/0818 24007G18KT P6SM SKC FM071900 24015G25KT P6SM FEW110 FM080200 25006KT P6SM SKC FM080400 14008KT P6SM SKC FM081400 20003KT P6SM SKC", "TAF KTIK 071700Z 0717/0823 21012G18KT 9999 SCT028 BKN110 BKN250 QNH2988INS TEMPO 0717/0719 4800 -TSRA SCT012 BKN020CB BKN190 BECMG 0804/0805 18012KT 8000 -SHRA FEW060 BKN090 OVC120 510042 QNH2983INS TEMPO 0805/0807 26020G25KT 3200 TSRA BKN025CB BKN090 OVC120 BECMG 0806/0807 01009KT 9999 NSW BKN070 BKN230 QNH2976INS BECMG 0812/0813 35006KT 4800 SHRA BKN020 OVC028 QNH2986INS TEMPO 0813/0815 26020G25KT 4800 -TSRA BKN020CB OVC028 BECMG 0814/0815 02008KT 9999 NSW BKN020 OVC120 QNH2989INS TX30/0722Z TN22/0812Z", "KTIX 072005Z 0720/0818 17008KT P6SM VCTS SCT035CB BKN050 TEMPO 0722/0724 3SM TSRA BKN035CB FM080100 23005KT P6SM FEW070 SCT150 SCT250 FM081700 26010KT P6SM VCSH SCT040 SCT250", "KTLH 072124Z 0721/0818 24006KT P6SM VCTS BKN040CB FM072300 23006KT P6SM SCT030 BKN150 FM080200 25003KT P6SM SCT050 FM081500 29005KT P6SM VCTS BKN040CB PROB30 0815/0818 3SM -TSRA", "KTMB 072052Z 0721/0818 21010KT P6SM VCTS SCT025CB SCT070 TEMPO 0721/0723 VRB15G25KT 4SM TSRA SCT015 BKN030CB FM080100 VRB05KT P6SM SCT030 BKN250 FM081500 24008KT P6SM FEW025 SCT050 FM081700 21008KT P6SM VCTS SCT030CB SCT070", "KTOI 071730Z 0718/0818 29005KT P6SM VCSH BKN050 FM072000 30008KT P6SM VCTS BKN035CB TEMPO 0721/0801 4SM TSRA BR BKN025CB FM080200 28004KT P6SM VCSH SCT040 FM081300 28007KT P6SM SCT045", "KTOL 071720Z 0718/0818 VRB03KT P6SM SCT040 FM080000 VRB03KT P6SM FEW250 FM081600 18006KT P6SM VCSH BKN060", "KTOP 071857Z 0719/0818 VRB05KT P6SM SCT027 BKN120 TEMPO 0719/0720 01010G20KT BKN030 FM072300 26008KT P6SM VCTS BKN070CB FM080200 30004KT P6SM BKN060 FM080800 36007KT P6SM OVC011", "KTPA 072102Z 0721/0824 26010G18KT P6SM VCTS SCT035CB BKN200 FM072200 26012KT P6SM FEW040 SCT100 BKN250 FM080000 25006KT P6SM SCT030 BKN250 FM080800 24007KT P6SM VCSH SCT020 BKN040 FM081500 26007KT 6SM SHRA VCTS SCT025CB BKN100 PROB30 0817/0819 P6SM TS BKN030CB", "KTPH 071720Z 0718/0818 19009G17KT P6SM FEW150 FM080600 33007KT P6SM SKC", "KTRI 071720Z 0718/0818 32005KT P6SM SCT025 BKN050 FM080100 VRB03KT P6SM FEW250 FM080900 00000KT 4SM BR BKN015 FM081300 00000KT P6SM SCT200", "KTRK 071720Z 0718/0818 VRB03KT P6SM SKC FM072100 25011G20KT P6SM FEW090 FM080300 VRB03KT P6SM SKC", "KTRM 071727Z 0718/0818 15004KT P6SM SKC FM080200 34012KT P6SM SKC FM080400 34018G28KT P6SM SKC FM081000 34010KT P6SM SKC FM081400 VRB04KT P6SM SKC", "KTTD 071738Z 0718/0818 00000KT P6SM OVC015 FM072000 VRB05KT P6SM FEW050 FM081000 21003KT P6SM SCT010 OVC020", "KTTN 072058Z 0721/0818 VRB04KT P6SM VCTS FEW025 SCT100CB TEMPO 0721/0724 VRB10KT 3SM TSRA BR OVC025CB FM080100 VRB03KT P6SM SCT030 BKN150 FM080700 VRB02KT 3SM BR BKN010 FM081000 VRB02KT 3SM BR BKN008 FM081300 VRB02KT P6SM BKN015 FM081500 VRB03KT P6SM SCT090", "KTUL 072046Z 0721/0818 32007KT P6SM VCSH FEW015 SCT060 OVC110 TEMPO 0721/0724 4SM -RA BKN040 FM080000 19007KT P6SM BKN100 TEMPO 0806/0810 VRB15G25KT 4SM -TSRA BKN025CB FM081000 VRB05KT P6SM VCTS BKN025CB FM081500 32004KT P6SM BKN025", "KTUP 071725Z 0718/0818 VRB04KT P6SM VCTS BKN040CB BKN200 FM080100 19003KT P6SM FEW050 SCT200 FM081400 23005KT P6SM BKN250", "KTUS 071720Z 0718/0818 25007KT P6SM FEW120 FM072100 28011G19KT P6SM SCT120 FM080300 28008KT P6SM FEW120 FM080800 15005KT P6SM SKC", "KTVC 071750Z 0718/0818 03009KT P6SM SCT045 FM080100 00000KT P6SM OVC250 FM081400 13003KT P6SM OVC150", "KTVF 071720Z 0718/0818 35008KT P6SM BKN030 FM072100 35014G20KT P6SM FEW120 FM080200 36010KT P6SM FEW240 FM080900 VRB05KT P6SM FEW240 FM081100 VRB03KT P6SM FEW250", "KTVL 071720Z 0718/0818 04008KT P6SM SKC FM072100 19010G18KT P6SM FEW090 FM080200 19004KT P6SM SKC", "KTWF 071738Z 0718/0818 08010KT P6SM VCSH FEW200 FM072100 03008KT P6SM VCTS SCT080CB BKN200 FM080200 18009KT P6SM BKN150 FM081500 07009KT P6SM SCT200", "KTXK 071741Z 0718/0818 24008KT P6SM BKN035 BKN100 BKN250 FM080100 18005KT P6SM FEW150 SCT250 FM080600 21007KT P6SM SCT150 BKN250 FM081500 23008KT P6SM FEW100 SCT150 BKN250", "KTYR 071741Z 0718/0818 21010KT P6SM SCT035 BKN045 BKN070 FM080100 18009KT P6SM SCT250 FM080600 19007KT P6SM FEW250 FM081500 21009KT P6SM FEW100 SCT150 BKN250", "KTYS 071720Z 0718/0818 01005KT P6SM SCT025 BKN200 FM080300 06004KT P6SM SCT250 FM080900 00000KT 4SM BR BKN015 FM081300 25005KT P6SM SCT250", "KUAO 071738Z 0718/0818 VRB04KT P6SM SCT015 BKN019 FM072000 19003KT P6SM FEW250 FM081200 18003KT P6SM BKN022", "KUES 072104Z 0721/0818 12009KT P6SM BKN060 FM080800 00000KT P6SM BKN070 PROB30 0808/0814 4SM -SHRA BR OVC025 FM081700 04008KT P6SM BKN023", "KUIN 072137Z 0722/0818 01005KT P6SM SHRA VCTS OVC040CB FM072300 05006KT P6SM OVC050 FM081000 VRB04KT P6SM VCSH OVC020", "KUKI 071741Z 0718/0818 VRB03KT P6SM SKC FM071930 33007KT P6SM SKC TEMPO 0721/0724 33010G17KT P6SM SCT040 FM080200 01010KT P6SM SKC FM080700 02004KT P6SM SKC", "KUNV 072110Z 0721/0818 34005KT P6SM SCT035 BKN050 FM080300 34003KT P6SM SCT250 FM080800 VRB02KT 1SM BR VCFG SCT002 FM081200 26003KT P6SM SCT250", "KUTS 071731Z 0718/0818 18008KT P6SM VCTS SCT040CB SCT250 TEMPO 0718/0719 VRB10G20KT 5SM TSRA FM072000 17010KT P6SM VCSH SCT080 FM080000 VRB05KT P6SM FEW250 FM081200 19006KT P6SM SCT020", "TAF AMD KVAD 071820Z 0718/0822 24009KT 9999 SCT040 QNH2983INS TEMPO 0722/0802 24015G25KT 4800 -TSRA BKN020CB BECMG 0803/0804 24006KT 9999 BKN020 QNH2986INS BECMG 0807/0808 26006KT 9999 BKN005 QNH2986INS BECMG 0813/0814 30009KT 9999 SCT050 QNH2983INS TX34/0720Z TN23/0810Z LAST NO AMDS AFT 0718 NEXT 1108", "TAF KVBG 072200Z 0722/0904 30012G18KT 9999 BKN009 QNH2992INS TEMPO 0722/0803 30015G22KT OVC010 510006 BECMG 0802/0803 33012KT 9999 OVC007 QNH2998INS BECMG 0805/0806 34009KT 8000 BR OVC005 QNH3000INS BECMG 0817/0818 31012G20KT 9999 NSW BKN008 510006 QNH2998INS BECMG 0820/0821 30015G25KT 9999 SCT010 520006 QNH2995INS BECMG 0822/0823 30015G25KT 9999 BKN011 520006 QNH2993INS BECMG 0902/0903 33012KT 9999 OVC009 QNH2996INS TX17/0820Z TN12/0813Z LAST NO AMDS AFT 0800 NEXT 0921", "KVCT 071752Z 0718/0818 12009KT P6SM SCT040 FM071900 15009KT P6SM VCTS BKN070CB FM080200 15009KT P6SM FEW025 SCT040 FM081200 VRB04KT 3SM BR SCT019 BKN250 FM081400 VRB04KT P6SM FEW028 FEW250", "KVEL 071720Z 0718/0818 VRB03KT P6SM SKC FM071900 16005KT P6SM FEW250 FM072200 01008KT P6SM SCT250 FM081100 32006KT P6SM FEW250", "KVGT 071722Z 0718/0818 13007KT P6SM SKC FM072200 21012G20KT P6SM SKC FM080400 20007KT P6SM SKC FM080900 VRB06KT P6SM SKC FM081600 14007KT P6SM SKC", "KVIS 071720Z 0718/0818 VRB04KT P6SM SKC", "KVLD 071720Z 0718/0818 26006KT P6SM SCT045 FM072000 25006KT P6SM VCTS BKN040CB TEMPO 0721/0724 VRB10G20KT 3SM -TSRA FM080400 24003KT P6SM SCT050 FM081500 27005KT P6SM VCTS BKN040CB PROB30 0815/0818 3SM -TSRA", "KVNY 071742Z 0718/0818 17005KT P6SM SCT020 FM072000 14010KT P6SM SKC FM080300 12006KT P6SM SKC FM081100 VRB03KT 5SM BR BKN007", "TAF KVOK 071700Z 0717/0823 VRB06KT 9999 SKC QNH2994INS BECMG 0800/0801 VRB06KT 9999 SCT130 QNH2992INS TX26/0721Z TN14/0811Z LAST NO AMDS AFT 0721 NEXT 0909", "TAF AMD KVPS 072055Z 0720/0823 26009KT 9999 VCTS FEW035CB FEW045 SCT090 QNH2989INS TEMPO 0720/0723 21012G18KT 8000 -TSRA SCT030CB SCT045 BKN065 BECMG 0801/0802 28006KT 9999 NSW FEW015 SCT025 BKN045 QNH2991INS BECMG 0815/0816 30006KT 9000 VCSH FEW025 SCT040 BKN100 QNH2991INS BECMG 0818/0819 27009KT 9000 -SHRA SCT030 SCT045 BKN065 QNH2989INS TEMPO 0818/0823 30020G30KT 9000 -TSRA FEW017CB FEW040 SCT055 TX33/0720Z TN22/0810Z", "KVQQ 071721Z 0718/0818 27008KT P6SM VCTS SCT025CB BKN040 TEMPO 0718/0722 VRB10G25KT 3SM -TSRA SCT025CB BKN040 FM072200 24008KT P6SM VCTS SCT025CB BKN045 TEMPO 0722/0802 VRB15G30KT 3SM -TSRA BR SCT025CB BKN045 FM080200 24006KT P6SM VCSH SCT040 BKN080 TEMPO 0802/0806 5SM -SHRA SCT040 BKN060 FM080600 24005KT P6SM FEW030 SCT080 BKN120 FM080900 00000KT P6SM SCT100 FM081500 27008KT P6SM SCT040 BKN100", "KVRB 072052Z 0721/0818 26010KT P6SM VCTS SCT035CB BKN060 TEMPO 0721/0723 3SM TSRA BKN035CB FM080000 22005KT P6SM BKN070 BKN150 FM081700 26010KT P6SM VCSH SCT040 SCT250", "KVTN 072134Z 0722/0818 01012G20KT P6SM VCTS FEW035CB SCT050 BKN070 FM080200 07006KT P6SM FEW250", "KWJF 071742Z 0718/0818 24013KT P6SM SKC FM072100 23022G32KT P6SM SKC FM080400 24014KT P6SM SKC", "KWMC 071720Z 0718/0818 VRB05KT P6SM FEW100 FM072100 34008G14KT P6SM VCTS SCT100CB FM080200 VRB05KT P6SM FEW100", "TAF AMD KWRB 071845Z 0718/0822 25009KT 9999 VCSH FEW035 FEW055 QNH2987INS TEMPO 0719/0724 VRB10G20KT 8000 -TSRA SCT035CB OVC055 BECMG 0802/0803 VRB06KT 9999 NSW SCT030 OVC045 QNH2981INS TX34/0720Z TN24/0808Z", "TAF KWRI 071800Z 0718/0824 14006KT 9999 SCT030 BKN250 QNH2980INS TEMPO 0722/0801 4800 TSRA SCT010 BKN025CB BECMG 0804/0805 VRB02KT 6000 BR BKN008 QNH2983INS BECMG 0811/0812 10005KT 9999 NSW SCT008 BKN015 QNH2982INS BECMG 0816/0817 16008KT 9999 SCT020 BKN030 QNH2981INS BECMG 0821/0822 16008KT 9999 VCSH BKN030 QNH2981INS TX33/0720Z TN23/0809Z", "KWRL 071727Z 0718/0818 VRB06KT P6SM FEW120 FM072100 01007KT P6SM SCT090 BKN120 FM072300 24015G25KT P6SM VCTS SCT080CB BKN120 FM080400 15007KT P6SM FEW080 SCT150 FM081100 VRB05KT P6SM FEW120", "KWWR 071720Z 0718/0818 15015G22KT P6SM SCT140 FM080300 20008G14KT P6SM BKN060 PROB30 0803/0807 VRB40KT 3SM TSRA BR OVC025CB FM080700 VRB04KT P6SM OVC100", "KWYS 071730Z 0718/0818 27010KT P6SM FEW070 SCT110 FM080300 VRB06KT P6SM SCT090", "KXNA 072106Z 0721/0818 25008KT P6SM VCSH FEW040 FM080000 VRB03KT P6SM BKN100 PROB30 0808/0814 4SM -TSRA BKN025CB FM081400 27005KT P6SM BKN035", "KXWA 071720Z 0718/0818 03012G17KT P6SM SCT040 FM080200 03007KT P6SM FEW250 FM080900 16005KT P6SM SCT150", "KYIP 071736Z 0718/0818 34005KT P6SM SCT040 SCT070 FM080200 11004KT P6SM FEW070 SCT150 FM080800 12005KT P6SM OVC100 FM081400 19005KT P6SM SCT030 OVC050", "KYKM 071720Z 0718/0818 24009KT P6SM FEW250 FM080300 31006KT P6SM FEW250", "KYNG 071720Z 0718/0818 01008KT P6SM SCT035 FM080200 VRB03KT P6SM FEW250 FM081700 19005KT P6SM SCT250", "KZZV 071740Z 0718/0818 23007KT P6SM SCT080 FM080000 VRB03KT P6SM SKC", "TAF LAKU 071700Z 0718/0818 VRB03KT CAVOK TX29/0812Z TN17/0803Z TEMPO 0810/0817 35012KT", "TAF LATI 071700Z 0718/0818 VRB03KT CAVOK TX33/0812Z TN19/0803Z TEMPO 0810/0817 34014KT", "TAF LBBG 071700Z 0718/0818 30010KT 9999 SCT040 TEMPO 0718/0721 34016G28KT 3000 TSRA SCT030CB BKN040 PROB40 TEMPO 0812/0816 5000 SHRA FEW030CB", "TAF LBGO 071700Z 0718/0818 27010KT 9999 SCT060 TEMPO 0718/0720 3000 TSRA SCT015 SCT030CB BKN040 TEMPO 0721/0806 3000 SHRA SCT010 FEW030CB OVC040 TEMPO 0810/0817 5000 TSRA FEW030CB BKN040", "TAF LBPD 071700Z 0718/0818 28016KT 9999 SCT060 TEMPO 0810/0817 5000 TSRA FEW030CB BKN050", "TAF LBSF 071700Z 0718/0818 28010KT 9999 SCT060 TEMPO 0800/0805 BKN009 PROB40 TEMPO 0810/0817 5000 TSRA FEW030CB BKN050", "TAF LBWN 071700Z 0718/0818 33010KT 9999 SCT045 TEMPO 0718/0721 5000 TSRA FEW030CB BKN040 BECMG 0800/0802 BKN015 OVC040", "TAF LCEN 071640Z 0718/0818 28012KT CAVOK PROB40 TEMPO 0800/0803 VRB02KT 3000 BR BKN008", "TAF LCLK 071730Z 0718/0818 20015G25KT 9999 FEW020 BECMG 0720/0723 26008KT PROB30 TEMPO 0800/0806 5000 BR BKN005 PROB30 TEMPO 0801/0805 0500 BCFG BKN001 BECMG 0807/0810 20018KT", "TAF LCPH 071730Z 0718/0818 32012KT 9999 FEW015 BECMG 0720/0723 02007KT PROB30 TEMPO 0800/0807 5000 BR BKN005 BECMG 0806/0809 26012KT BECMG 0815/0818 32010KT", "TAF LCRA 071921Z 0721/0815 26010KT 9999 FEW015 TEMPO 0721/0807 5000 HZ PROB40 TEMPO 0721/0807 4000 BR SCT010 PROB30 TEMPO 0723/0805 2000 SCT004", "TAF LDDU 071725Z 0718/0818 02015KT CAVOK TX28/0812Z TN25/0803Z TEMPO 0719/0803 03022G32KT BECMG 0807/0809 24006KT BECMG 0812/0814 30012KT", "TAF LDLO 071125Z 0712/0812 04007KT CAVOK TX30/0713Z TN22/0803Z BECMG 0713/0715 33010KT BECMG 0718/0720 03005KT BECMG 0810/0812 22008KT", "TAF LDOS 071725Z 0718/0818 35005KT CAVOK TX29/0812Z TN15/0802Z BECMG 0814/0816 11006KT", "TAF LDPL 071725Z 0718/0818 04007KT CAVOK TX30/0813Z TN17/0803Z TEMPO 0807/0811 09009KT BECMG 0811/0813 27009KT", "TAF LDRI 071725Z 0718/0818 05007KT CAVOK TX31/0813Z TN19/0803Z PROB40 TEMPO 0810/0816 30007KT", "TAF LDSB 071125Z 0712/0812 32009KT CAVOK TX25/0713Z TN20/0803Z BECMG 0716/0718 02015KT TEMPO 0722/0803 02015G25KT BECMG 0808/0810 32008KT", "TAF LDSP 071725Z 0718/0818 31015KT CAVOK TX31/0812Z TN21/0803Z BECMG 0720/0722 35005KT PROB30 0720/0722 04010KT BECMG 0809/0811 23015KT BECMG 0815/0816 31015KT", "TAF LDZA 071725Z 0718/0818 VRB02KT CAVOK TX30/0814Z TN13/0802Z", "TAF LDZD 071725Z 0718/0818 07006KT CAVOK TX31/0813Z TN16/0803Z BECMG 0810/0812 30008KT TEMPO 0813/0816 30012KT", "TAF LEAB 071700Z 0718/0818 15008KT 9999 FEW045 TX35/0816Z TN20/0805Z PROB40 TEMPO 0718/0720 16015G25KT BECMG 0800/0802 VRB05KT BECMG 0810/0812 16008KT", "TAF COR LEAG 071525Z 0715/0815 17010KT 9999 FEW015 TX27/0814Z TN20/0805Z BECMG 0715/0719 26010KT BECMG 0720/0722 VRB03KT", "TAF LEAL 071700Z 0718/0818 09008KT 9999 FEW020 TX35/0812Z TN24/0806Z BECMG 0720/0722 VRB04KT BECMG 0808/0810 16010KT BECMG 0815/0817 10007KT", "TAF LEAM 071700Z 0718/0818 22010KT CAVOK TX32/0813Z TN25/0805Z BECMG 0801/0803 VRB02KT BECMG 0809/0811 19010KT", "TAF LEAO 072000Z 0721/0821 24009KT CAVOK TX36/0815Z TN17/0805Z BECMG 0802/0804 VRB05KT BECMG 0810/0812 24008KT BECMG 0820/0821 VRB04KT", "TAF LEAS 072000Z 0721/0821 24007KT 9999 FEW010 TX23/0812Z TN17/0723Z PROB40 TEMPO 0809/0812 33010KT PROB30 TEMPO 0812/0817 03010KT PROB30 TEMPO 0815/0821 BKN010", "TAF LEBA 071400Z 0715/0815 27011KT CAVOK TX37/0715Z TN19/0805Z PROB30 TEMPO 0715/0719 24015G25KT BECMG 0801/0803 VRB02KT", "TAF LEBB 071700Z 0718/0818 29007KT 9999 FEW030 TX27/0812Z TN17/0805Z PROB30 TEMPO 0722/0807 3000 BR BKN010 TEMPO 0812/0818 04010KT", "TAF LEBG 072000Z 0721/0821 22010KT CAVOK TX30/0815Z TN13/0805Z TEMPO 0811/0817 24015KT BECMG 0819/0820 VRB04KT", "TAF AMD LEBL 072000Z 0720/0818 07011KT 9999 FEW020 TX29/0812Z TN21/0805Z PROB40 TEMPO 0720/0801 BKN010 PROB30 TEMPO 0721/0801 35008KT BECMG 0801/0803 35006KT BECMG 0808/0810 14007KT", "TAF LEBR 072000Z 0721/0821 12009KT CAVOK TX35/0817Z TN17/0805Z PROB30 TEMPO 0721/0806 3000 BR BKN010", "TAF LEBZ 072000Z 0721/0821 27009KT CAVOK TX33/0815Z TN17/0805Z", "TAF LECO 072000Z 0721/0821 20009KT 9999 SCT020 TX23/0812Z TN16/0805Z PROB40 TEMPO 0721/0723 20019G29KT PROB30 TEMPO 0721/0723 20029G39KT PROB40 TEMPO 0722/0808 3000 RA BR BKN010", "TAF LECV 071700Z 0718/0818 20012KT 9999 FEW030 TX29/0816Z TN17/0805Z PROB30 TEMPO 0718/0719 22013G25KT BECMG 0720/0722 VRB05KT BECMG 0809/0810 24010KT PROB30 TEMPO 0812/0818 24015G25KT", "TAF LEEC 070800Z 0709/0809 22010KT CAVOK TX36/0715Z TN20/0805Z BECMG 0800/0802 VRB02KT", "TAF LEGA 071100Z 0712/0812 18010KT CAVOK TX36/0715Z TN19/0805Z PROB30 TEMPO 0712/0716 18015G25KT BECMG 0722/0724 VRB02KT", "TAF LEGE 071700Z 0718/0818 01008KT 9999 FEW040 TX35/0812Z TN19/0806Z BECMG 0813/0815 10008KT", "TAF LEGR 071700Z 0718/0818 31010KT CAVOK TX37/0815Z TN19/0805Z BECMG 0723/0801 VRB02KT BECMG 0813/0815 25010KT", "TAF LEGT 071700Z 0718/0818 23012KT CAVOK TX35/0816Z TN21/0805Z PROB40 TEMPO 0718/0719 23015G28KT BECMG 0720/0722 24008KT BECMG 0809/0810 24010KT PROB30 TEMPO 0812/0818 24015G25KT", "TAF LEHC 071400Z 0715/0815 12012KT 9999 FEW050 TX33/0814Z TN20/0805Z TEMPO 0715/0718 12020G30KT TEMPO 0715/0722 VRB20G30KT 3000 TSRA SCT060CB PROB40 TEMPO 0715/0722 35030G43KT 1500 +TSRAGR BKN060CB", "TAF LEIB 072000Z 0721/0821 35006KT 9999 FEW015 TX33/0812Z TN23/0805Z PROB40 TEMPO 0800/0809 BKN010 TEMPO 0808/0814 22010KT BECMG 0813/0815 09008KT", "TAF LEJR 072000Z 0721/0821 15005KT 9999 FEW020 TX36/0815Z TN19/0805Z PROB30 TEMPO 0802/0806 4000 BR BECMG 0813/0815 29010KT", "TAF LELC 071700Z 0718/0818 07010KT 9999 FEW025 TX33/0813Z TN25/0805Z BECMG 0718/0720 18010KT BECMG 0723/0801 VRB02KT BECMG 0809/0811 13010KT", "TAF AMD LELL 071804Z 0718/0815 VRB04KT 9999 FEW060 TX32/0813Z TN18/0805Z TEMPO 0718/0720 15010KT BECMG 0809/0811 14010KT", "TAF LELN 072000Z 0721/0821 24010KT CAVOK TX28/0815Z TN11/0805Z BECMG 0723/0801 VRB04KT BECMG 0809/0811 23012KT PROB40 TEMPO 0812/0819 24015G28KT BECMG 0819/0820 VRB04KT", "TAF LELO 072000Z 0721/0821 09007KT 9999 FEW035 TX35/0815Z TN15/0805Z BECMG 0800/0802 VRB05KT PROB30 TEMPO 0802/0808 4000 BR NSC", "TAF LEMD 071700Z 0718/0824 22012KT CAVOK TX35/0816Z TN20/0805Z TEMPO 0718/0719 22015G28KT BECMG 0720/0722 24008KT BECMG 0809/0810 24010KT PROB30 TEMPO 0812/0818 24015G25KT BECMG 0818/0819 27010KT", "TAF LEMG 071700Z 0718/0818 15010KT 9999 FEW020 TX33/0813Z TN23/0805Z BECMG 0718/0720 VRB03KT BECMG 0802/0804 29010KT BECMG 0809/0811 13010KT", "TAF LEMH 072000Z 0721/0821 06008KT 9999 FEW015 TX32/0812Z TN22/0805Z PROB30 TEMPO 0800/0809 BKN010 BECMG 0807/0809 27010KT BECMG 0813/0815 06006KT", "TAF LEMO 072000Z 0721/0821 21010KT CAVOK TX35/0815Z TN20/0805Z BECMG 0802/0804 VRB03KT BECMG 0814/0816 27010KT", "TAF AMD LEPA 072202Z 0722/0818 06007KT 9999 FEW020 TX35/0812Z TN23/0805Z BECMG 0800/0802 VRB03KT PROB30 TEMPO 0722/0809 FEW090TCU BECMG 0808/0810 22010KT", "TAF LEPP 072000Z 0721/0821 VRB05KT CAVOK TX29/0815Z TN14/0805Z PROB30 TEMPO 0721/0806 3000 BR BKN010 BECMG 0815/0817 32010KT", "TAF LERI 071700Z 0718/0818 07010KT 9999 FEW020 TX36/0813Z TN23/0805Z BECMG 0719/0721 20010KT BECMG 0722/0724 VRB03KT BECMG 0812/0814 11010KT", "TAF LERL 071400Z 0715/0815 22012KT CAVOK TX36/0715Z TN17/0805Z TEMPO 0715/0719 24015G25KT BECMG 0802/0804 VRB05KT BECMG 0810/0812 24008KT", "TAF LERS 072000Z 0721/0821 VRB03KT 9999 FEW020 TX32/0812Z TN20/0805Z TEMPO 0801/0806 27010KT BECMG 0808/0810 16010KT BECMG 0817/0819 VRB04KT", "TAF LERT 072000Z 0721/0821 20010KT CAVOK TX29/0813Z TN19/0805Z BECMG 0800/0802 34007KT BECMG 0809/0811 19014KT", "TAF LESA 072000Z 0721/0821 26010KT 9999 FEW045 TX30/0815Z TN11/0805Z BECMG 0800/0802 VRB04KT BECMG 0809/0810 22010KT BECMG 0820/0821 VRB04KT", "TAF LESO 071700Z 0718/0818 16009KT 9999 FEW045 TX26/0814Z TN21/0805Z PROB40 TEMPO 0800/0807 26010KT PROB30 TEMPO 0800/0806 3000 BR BKN005 PROB30 TEMPO 0803/0809 BKN010 TEMPO 0810/0818 02010KT", "TAF LEST 071700Z 0718/0818 22009KT 9999 SCT020 TX21/0813Z TN15/0806Z PROB40 TEMPO 0718/0721 22017G27KT PROB40 TEMPO 0722/0811 3000 RA BR BKN010 PROB30 TEMPO 0803/0807 0800 BCFG BKN002", "TAF LESU 071400Z 0715/0815 VRB04KT 9999 FEW060 TX34/0814Z TN16/0806Z TEMPO 0715/0718 20010KT PROB40 TEMPO 0715/0719 3000 TSRA SCT060CB TEMPO 0811/0815 20010KT", "TAF LETO 071700Z 0718/0818 22012KT 9999 FEW040 TX34/0816Z TN19/0805Z PROB40 TEMPO 0718/0719 22015G28KT BECMG 0720/0722 24008KT BECMG 0809/0810 24010KT PROB30 TEMPO 0812/0818 24015G25KT", "TAF LEVC 071700Z 0718/0818 08008KT 9999 FEW020 TX34/0812Z TN20/0806Z BECMG 0720/0722 VRB04KT BECMG 0808/0810 11010KT", "TAF LEVD 072000Z 0721/0821 25010KT CAVOK TX30/0815Z TN13/0805Z BECMG 0800/0802 20006KT BECMG 0809/0810 20010KT BECMG 0820/0821 25006KT", "TAF LEVS 071700Z 0718/0818 23010KT 9999 FEW030 TX34/0816Z TN22/0805Z PROB40 TEMPO 0718/0719 23015G28KT BECMG 0720/0722 24008KT BECMG 0809/0810 24010KT PROB30 TEMPO 0812/0818 24015G25KT", "TAF LEVT 071700Z 0718/0818 VRB05KT 9999 FEW035 TX33/0815Z TN15/0805Z TEMPO 0809/0815 22010KT TEMPO 0815/0818 02010KT", "TAF LEVX 071700Z 0718/0818 20009KT 9999 FEW020 SCT030 TX22/0815Z TN17/0806Z PROB40 TEMPO 0721/0808 BKN010 PROB40 TEMPO 0721/0808 3000 RA BR BKN005 PROB30 TEMPO 0800/0807 0350 FG VV001 TEMPO 0812/0818 27010KT", "TAF LEXJ 072000Z 0721/0821 24009KT 9999 SCT010 TX28/0813Z TN19/0805Z PROB40 TEMPO 0721/0803 BKN010 PROB30 TEMPO 0721/0806 3000 BR BKN005 BECMG 0807/0810 04010KT PROB30 TEMPO 0810/0815 04015G25KT", "TAF AMD LEZG 071829Z 0718/0818 30008KT 9999 SCT060 TX36/0815Z TN20/0806Z TEMPO 0718/0720 VRB15G25KT 3000 TSRA FEW060CB PROB30 TEMPO 0718/0720 36030G43KT 1500 +TSRAGR SCT060CB TEMPO 0721/0806 VRB04KT", "TAF LEZL 072000Z 0721/0821 20010KT CAVOK TX37/0815Z TN19/0805Z BECMG 0801/0803 VRB03KT BECMG 0815/0817 29010KT", "TAF LFAQ 071400Z 0715/0724 12012KT CAVOK", "TAF LFAT 071400Z 0715/0724 12008KT CAVOK", "TAF LFBA 071400Z 0715/0724 12008KT CAVOK BECMG 0715/0717 22012KT SCT040 FEW060CB BKN120 TEMPO 0715/0720 23020G30KT 4000 TSRA PROB40 TEMPO 0717/0719 VRB25G40KT 2000 +SHRA", "TAF LFBC 072000Z 0721/0821 14015KT CAVOK TEMPO 0807/0809 24010G20KT BKN014", "TAF LFBD 071700Z 0718/0824 13010KT CAVOK TX29/0718Z TN18/0804Z PROB40 TEMPO 0718/0721 4000 TSRA BKN050CB BECMG 0807/0809 30007KT BKN020 BECMG 0810/0812 CAVOK BECMG 0816/0818 02007KT", "TAF AMD LFBE 071519Z 0715/0812 13010KT CAVOK PROB40 TEMPO 0716/0721 4000 TSRA BKN050CB PROB30 TEMPO 0717/0721 15015G40KT 1500 TSGR BKN050CB BECMG 0721/0723 21005KT", "TAF LFBG 071400Z 0715/0815 15012KT CAVOK PROB40 TEMPO 0718/0722 3000 TSRA BKN080CB PROB30 TEMPO 0718/0720 21020G45KT 1200 TSRAGR", "TAF LFBH 071700Z 0718/0818 16008KT CAVOK PROB30 TEMPO 0718/0724 -SHRA SCT070CB PROB30 TEMPO 0806/0809 -SHRA SCT040CB BECMG 0807/0809 31010KT", "TAF LFBI 071700Z 0718/0818 15006KT 9999 FEW035 TEMPO 0718/0724 VRB20G40KT 4000 TSRA BKN070CB BECMG 0809/0811 31010KT", "TAF LFBL 071700Z 0718/0818 16010KT CAVOK TEMPO 0718/0722 4000 TSRA BKN070CB PROB40 TEMPO 0718/0721 15015G45KT 1500 TSGR SCT010 BKN060CB BECMG 0800/0802 09010KT BECMG 0809/0811 20010KT", "TAF LFBM 070800Z 0709/0809 08010KT CAVOK TEMPO 0715/0718 22015G40KT 1300 TSRAGR SCT060CB TEMPO 0718/0722 SHRA SCT060TCU BECMG 0803/0805 BKN007 BECMG 0806/0809 SCT020", "TAF LFBO 071700Z 0718/0824 06010KT 9999 FEW060CB BKN110 TEMPO 0718/0721 28020G30KT 4000 TSRA PROB40 TEMPO 0718/0719 VRB25G45KT 1500 +SHRA BECMG 0721/0723 12008KT PROB30 TEMPO 0802/0807 BKN010", "TAF LFBP 071700Z 0718/0818 12008KT 9999 TS FEW030 FEW060CB BKN120 BECMG 0718/0720 CAVOK PROB40 0804/0808 OVC005 PROB30 0805/0807 3000 BR", "TAF AMD LFBT 071905Z 0719/0818 18010KT 9999 SCT040 FEW060CB BKN120 TEMPO 0719/0720 28020G30KT TSRA BECMG 0720/0722 VRB03KT CAVOK", "TAF LFBU 071700Z 0718/0818 12007KT CAVOK TEMPO 0718/0721 4000 TSRA BKN050CB PROB30 TEMPO 0718/0721 VRB15G40KT 1500 TSGR BKN050CB BECMG 0808/0810 25007KT BECMG 0814/0816 32005KT", "TAF LFBZ 071700Z 0718/0818 10007KT CAVOK PROB30 TEMPO 0718/0720 VRB15G40KT 4000 TSRA BKN050CB BECMG 0721/0723 20010KT PROB40 TEMPO 0800/0805 3000 BR BKN005", "TAF LFCK 071700Z 0718/0803 12028G38KT 9999 FEW060CB BKN120 BECMG 0718/0720 22010KT TEMPO 0718/0722 VRB20G30KT TSRA PROB30 0719/0721 2000 +SHRA BECMG 0722/0724 CAVOK", "TAF LFCR 071700Z 0718/0818 14015G25KT CAVOK BECMG 0718/0720 18010KT FEW060CB BKN120 PROB40 TEMPO 0719/0722 VRB20G30KT 3000 TSRA PROB30 TEMPO 0720/0721 VRB25G40KT 1500 BECMG 0722/0724 09008KT CAVOK BECMG 0806/0808 14010KT BECMG 0813/0815 24006KT", "TAF LFGJ 071400Z 0715/0724 18005KT CAVOK TEMPO 0715/0724 -SHRA FEW070CB PROB40 TEMPO 0715/0724 VRB15G30KT 2000 TSRA BKN050CB", "TAF LFJL 071700Z 0718/0818 12008KT CAVOK TEMPO 0718/0722 VRB15G25KT -SHRA FEW060CB", "TAF LFKB 072000Z 0721/0821 13005KT CAVOK TX34/0815Z TN21/0804Z BECMG 0721/0722 VRB03KT PROB30 TEMPO 0800/0805 BKN010 BECMG 0807/0809 13010KT TEMPO 0809/0817 13015G25KT BECMG 0819/0821 VRB03KT", "TAF LFKC 071400Z 0715/0815 32010KT CAVOK TX34/0809Z TN24/0802Z BECMG 0715/0717 VRB03KT PROB30 TEMPO 0721/0723 FEW050CB", "TAF LFKF 071400Z 0715/0815 06015KT CAVOK TEMPO 0715/0805 07015G25KT PROB30 TEMPO 0717/0723 FEW050CB BECMG 0805/0807 06020G30KT BECMG 0812/0814 07012KT", "TAF LFKJ 072000Z 0721/0821 VRB03KT CAVOK BECMG 0807/0809 21010KT BECMG 0819/0821 05005KT", "TAF LFKS 070800Z 0709/0809 08010KT CAVOK BECMG 0710/0712 14010KT BECMG 0718/0720 27005KT BECMG 0801/0803 BKN014 BECMG 0806/0808 14010KT CAVOK", "TAF LFLB 071400Z 0715/0815 VRB03KT CAVOK PROB40 TEMPO 0717/0722 VRB15G25KT 4000 TSRA SCT060CB OVC090 PROB30 TEMPO 0717/0720 VRB20G35KT 1500 TSRAGR PROB40 TEMPO 0722/0802 -SHRA FEW080TCU OVC090 BECMG 0809/0811 36006KT", "TAF AMD LFLC 072043Z 0720/0818 06005KT 9999 FEW070TCU TEMPO 0720/0722 VRB20G35KT 2000 TSRA SCT060CB BKN070 PROB40 TEMPO 0722/0801 VRB12KT SHRA SCT070TCU BKN090 FM080100 VRB03KT CAVOK TEMPO 0804/0810 18008KT FM081000 02006KT CAVOK PROB30 TEMPO 0815/0818 FEW070CB SCT080", "TAF LFLL 071700Z 0718/0824 17010KT CAVOK PROB30 TEMPO 0719/0721 SCT080TCU PROB40 TEMPO 0723/0802 SHRA SCT070TCU PROB30 TEMPO 0723/0802 SCT070CB PROB30 TEMPO 0810/0815 17015G25KT PROB30 TEMPO 0815/0818 FEW070TCU", "TAF LFLN 071700Z 0718/0803 16005KT CAVOK TEMPO 0718/0724 -SHRA FEW070CB PROB40 TEMPO 0718/0724 VRB15G30KT 2000 TSRA BKN050CB PROB30 TEMPO 0718/0724 1200 +TSRAGR", "TAF LFLP 071400Z 0715/0815 VRB03KT CAVOK PROB40 TEMPO 0718/0723 VRB15G25KT 4000 TSRA SCT060CB OVC090 PROB30 TEMPO 0718/0721 VRB20G35KT 1500 TSRAGR PROB40 TEMPO 0723/0803 -SHRA FEW070TCU OVC080 BECMG 0809/0811 24006KT", "TAF AMD LFLS 071543Z 0715/0815 21010KT CAVOK PROB40 TEMPO 0717/0721 FEW070CB BKN080 PROB40 TEMPO 0717/0720 VRB15G30KT 3000 TSRA SCT050CB BKN070 PROB40 TEMPO 0721/0802 09008KT -SHRA FEW080TCU OVC090 FM080200 09006KT CAVOK BECMG 0806/0809 20010KT", "TAF AMD LFLW 071656Z 0716/0724 16010KT CAVOK PROB40 TEMPO 0716/0718 16015G25KT FEW080TCU PROB40 TEMPO 0718/0722 VRB15G30KT 3000 TSRA SCT050CB BKN080 PROB30 TEMPO 0718/0720 VRB25G40KT 1500 +TSRAGR", "TAF LFLX 071700Z 0718/0824 12005KT CAVOK PROB40 TEMPO 0721/0724 VRB15G30KT 3000 -TSRA SCT080CB PROB30 TEMPO 0721/0724 TSRAGR BECMG 0810/0812 30010KT", "TAF LFLY 071700Z 0718/0818 18010KT CAVOK PROB40 TEMPO 0723/0802 SHRA SCT070TCU PROB30 TEMPO 0723/0802 SCT070CB PROB40 TEMPO 0810/0815 18015G25KT PROB30 TEMPO 0815/0818 SCT070TCU", "TAF LFMD 071400Z 0715/0815 08012KT CAVOK BECMG 0718/0720 36005KT PROB30 TEMPO 0721/0802 VRB10KT -SHRA FEW130TCU BECMG 0806/0808 09010KT", "TAF LFMI 072000Z 0721/0821 VRB04KT CAVOK TX34/0812Z TN21/0804Z PROB40 0722/0802 VRB15KT TS SCT090CB BECMG 0810/0812 18012KT BECMG 0819/0821 VRB04KT", "TAF LFMK 071400Z 0715/0815 09018G28KT CAVOK BECMG 0716/0718 FEW020 FEW100CB BECMG 0718/0721 10012KT TEMPO 0717/0721 30020G30KT 4000 TSRA PROB30 TEMPO 0718/0720 VRB25G40KT 2000 SHRA BECMG 0721/0723 SCT016 PROB40 TEMPO 0804/0808 BKN013", "TAF LFML 072000Z 0721/0903 11005KT CAVOK TX35/0813Z TN22/0805Z PROB40 TEMPO 0722/0802 VRB15KT TS SCT090CB BECMG 0807/0809 27010KT BECMG 0813/0815 18010KT BECMG 0818/0820 VRB03KT", "TAF LFMN 072000Z 0721/0903 08010KT CAVOK BECMG 0721/0722 35010KT BECMG 0806/0808 09015KT BECMG 0819/0821 35005KT", "TAF LFMO 072000Z 0721/0821 23012KT CAVOK TX36/0815Z TN20/0804Z TEMPO 0721/0723 SHRA SCT060TCU PROB30 TEMPO 0721/0723 3000 TSRA SCT060CB BECMG 0803/0805 35005KT BECMG 0812/0814 21012KT PROB30 TEMPO 0813/0818 22015G25KT", "TAF LFMP 071400Z 0715/0815 10017G27KT CAVOK BECMG 0715/0717 10012KT BECMG 0717/0719 VRB05KT PROB30 TEMPO 0718/0721 VRB15KT SHRA FEW050CB TEMPO 0802/0808 BKN012 BECMG 0808/0810 09010KT", "TAF LFMT 072000Z 0721/0821 01006KT CAVOK PROB40 TEMPO 0721/0722 VRB15KT SHRA FEW050CB PROB30 TEMPO 0800/0805 BKN010 BECMG 0809/0811 18010KT BECMG 0819/0821 VRB03KT", "TAF LFMU 071400Z 0715/0815 14010KT CAVOK BECMG 0717/0719 VRB03KT PROB40 TEMPO 0717/0721 SHRA FEW050CB BECMG 0809/0811 14010KT", "TAF LFMV 071400Z 0715/0815 22010KT CAVOK BECMG 0718/0720 VRB03KT TEMPO 0720/0724 VRB15KT FEW090CB BECMG 0811/0813 23010KT", "TAF LFMY 070800Z 0709/0809 13005KT CAVOK TX33/0713Z TN19/0804Z BECMG 0709/0711 20012KT BECMG 0718/0720 10005KT", "TAF LFOA 071400Z 0715/0815 12010KT CAVOK TX33/0715Z TN16/0804Z PROB30 TEMPO 0715/0718 12015G25KT 4000 SHRA BKN070CB TEMPO 0718/0724 VRB15G35KT 3000 SHRA BKN070CB PROB40 0718/0724 VRB25G45KT 1000 TSRAGR BKN010 BKN070CB PROB30 0800/0803 12015G25KT BKN070CB", "TAF LFOB 071700Z 0718/0818 14008KT CAVOK PROB30 TEMPO 0718/0720 VRB15G25KT 3000 TSRA BKN070CB PROB30 TEMPO 0812/0818 VRB15G30KT 3000 TSRA BKN060CB", "TAF LFOE 072000Z 0721/0821 15010KT CAVOK PROB30 TEMPO 0721/0723 18015G30KT BECMG 0806/0808 24010KT TEMPO 0810/0816 4000 -SHRA SCT060CB PROB40 TEMPO 0811/0815 VRB20G30KT 2000 TSRAGS BKN060CB BECMG 0812/0814 30010KT", "TAF LFOH 071100Z 0712/0812 14008KT CAVOK BECMG 0806/0808 27010KT PROB40 TEMPO 0810/0812 VRB15G25KT 3000 SHRA BKN050CB", "TAF LFOJ 072000Z 0721/0821 08010KT CAVOK TX32/0815Z TN16/0804Z PROB40 TEMPO 0722/0802 22020G30KT 4000 SHRA SCT080CB BECMG 0800/0803 17008KT BECMG 0810/0812 26012KT PROB30 TEMPO 0811/0816 SCT060TCU BECMG 0816/0818 20010KT", "TAF LFOK 071700Z 0718/0818 15008KT CAVOK PROB30 TEMPO 0718/0720 VRB15G25KT -SHRA BKN060TCU", "TAF LFOP 071400Z 0715/0724 12012KT CAVOK PROB30 TEMPO 0716/0721 VRB15G25KT 3000 TSRA BKN070CB", "TAF LFOT 071700Z 0718/0818 12008KT CAVOK PROB40 TEMPO 0718/0721 VRB15G35KT 4000 -TSRA SCT080CB PROB40 TEMPO 0721/0724 -SHRA SCT080CB BECMG 0810/0812 30010KT", "TAF LFPB 071700Z 0718/0818 12010KT CAVOK PROB30 TEMPO 0718/0720 FEW060TCU BECMG 0805/0807 18010KT TEMPO 0815/0818 16015G25KT PROB30 TEMPO 0816/0818 FEW070TCU", "TAF LFPG 071700Z 0718/0824 14010KT CAVOK TX33/0815Z TN19/0805Z PROB30 TEMPO 0718/0720 FEW060TCU TEMPO 0808/0812 20010KT TEMPO 0815/0819 16015G25KT PROB30 TEMPO 0816/0818 FEW070TCU", "TAF LFPN 071700Z 0718/0803 13010KT CAVOK PROB30 TEMPO 0718/0721 11015G25KT -SHRA SCT080TCU", "TAF LFPO 071700Z 0718/0824 13010KT CAVOK BECMG 0722/0724 VRB03KT PROB30 TEMPO 0811/0815 -SHRA BKN090TCU", "TAF LFPV 072000Z 0721/0821 08006KT CAVOK TX33/0815Z TN20/0805Z TEMPO 0721/0724 BKN090TCU PROB30 TEMPO 0721/0724 -SHRA PROB30 TEMPO 0812/0818 BKN090TCU", "TAF LFQQ 071700Z 0718/0824 13010KT CAVOK PROB30 TEMPO 0816/0819 VRB20G30KT 3000 TSRA BKN070CB BECMG 0819/0821 33010KT", "TAF LFRB 071700Z 0718/0824 19012KT 9999 SCT040 PROB30 TEMPO 0721/0724 BKN007 TEMPO 0802/0808 VRB15G25KT 3000 SHRA BKN005 BKN015CB BECMG 0806/0808 24010KT BECMG 0818/0821 VRB05KT", "TAF LFRC 071400Z 0715/0724 10010KT CAVOK PROB30 TEMPO 0718/0721 10015G30KT 5000 SHRA BKN060CB", "TAF LFRD 071700Z 0718/0818 VRB05KT CAVOK PROB30 TEMPO 0718/0724 VRB15G30KT 2000 TSRAGR BKN040CB PROB40 TEMPO 0806/0816 VRB15G25KT 2000 TSRA BKN030CB", "TAF LFRG 071400Z 0715/0724 18010KT CAVOK PROB40 TEMPO 0717/0724 VRB15G30KT 2000 TSRAGR BKN050CB", "TAF LFRH 071700Z 0718/0818 17010KT CAVOK PROB40 TEMPO 0722/0802 4000 BR SCT003 BECMG 0723/0801 VRB03KT PROB40 TEMPO 0802/0810 4000 SHRA BKN012 BKN060CB BECMG 0806/0808 18010KT BECMG 0809/0811 24010KT", "TAF LFRI 071700Z 0718/0818 18008KT CAVOK PROB30 TEMPO 0718/0721 TSRA SCT060CB TEMPO 0804/0812 -SHRA SCT050CB BECMG 0812/0814 26010KT", "TAF LFRK 071400Z 0715/0724 17010KT CAVOK PROB40 TEMPO 0715/0718 02010KT PROB40 TEMPO 0717/0722 VRB15G30KT 2000 TSRAGR BKN050CB", "TAF LFRL 071100Z 0712/0812 16012KT CAVOK BECMG 0800/0802 BKN014 TEMPO 0802/0808 4000 SHRA BKN008 PROB40 TEMPO 0802/0808 18015G25KT 2000 SHRA BKN014CB BECMG 0808/0810 23010KT CAVOK", "TAF LFRM 071700Z 0718/0818 15007KT CAVOK PROB40 TEMPO 0718/0724 VRB20G40KT 4000 TSRA SCT080CB TEMPO 0800/0803 SHRA SCT060CB TEMPO 0808/0818 SHRA SCT050CB PROB30 0809/0816 TSRA", "TAF LFRN 071700Z 0718/0818 VRB05KT CAVOK PROB30 TEMPO 0718/0724 VRB15G30KT 2000 TSRAGR BKN040CB PROB40 TEMPO 0805/0815 VRB15G25KT 2000 TSRA BKN030CB BECMG 0812/0815 23010KT", "TAF LFRQ 071700Z 0718/0818 17008KT CAVOK PROB40 TEMPO 0720/0724 3000 BR BKN003 PROB30 TEMPO 0721/0724 0500 FG VV/// TEMPO 0802/0808 3000 SHRA BKN004 BKN015CB BECMG 0806/0809 24008KT", "TAF LFRS 071700Z 0718/0824 18008KT CAVOK PROB30 TEMPO 0718/0722 VRB15G30KT TSRA SCT070CB TEMPO 0804/0811 SHRA SCT050CB PROB30 TEMPO 0804/0810 TSRA BECMG 0813/0815 26010KT", "TAF LFRZ 071700Z 0718/0818 19006KT CAVOK TEMPO 0803/0812 SHRA SCT050CB PROB30 0803/0809 TSRA BECMG 0811/0813 21010KT", "TAF LFSB 071700Z 0718/0818 08006KT CAVOK PROB40 TEMPO 0720/0806 VRB15G25KT -SHRA FEW060CB PROB30 TEMPO 0720/0806 4000 -TSRA SCT050CB", "TAF LFSI 072000Z 0721/0821 14005KT CAVOK", "TAF AMD LFSL 071644Z 0716/0724 15010KT CAVOK TEMPO 0717/0721 14015G30KT 3000 TSRA BKN035CB PROB40 TEMPO 0718/0720 15020G45KT TSGR OVC030CB", "TAF LFSO 070800Z 0709/0809 11005KT CAVOK PROB30 TEMPO 0718/0801 VRB15G35KT 1200 TSRA FEW090CB", "TAF LFST 071700Z 0718/0818 16005KT CAVOK PROB30 TEMPO 0718/0803 VRB15G25KT -SHRA FEW060CB", "TAF LFSX 070800Z 0709/0809 13007KT CAVOK PROB30 TEMPO 0719/0723 28010G30KT 1000 TSRA OVC050CB", "TAF LFTH 072000Z 0721/0821 08010KT CAVOK PROB40 TEMPO 0721/0802 VRB15KT TS FEW090CB BECMG 0805/0807 08015G25KT BECMG 0819/0821 VRB03KT", "TAF LFTW 071400Z 0715/0815 19012KT CAVOK BECMG 0719/0721 VRB03KT TEMPO 0721/0724 VRB15KT FEW090CB BECMG 0811/0813 18012KT", "TAF LFVP 071700Z 0718/0803 25008KT 9999 FEW010 BKN033 TEMPO 0800/0803 1800 BR BKN003", "TAF LFYR 070800Z 0709/0809 10005KT CAVOK BECMG 0712/0714 21010KT TEMPO 0714/0720 VRB15G25KT 4000 SHRA BKN070CB PROB40 TEMPO 0717/0720 VRB30G50KT 1000 TSRAGR BKN070CB TEMPO 0720/0723 13010G20KT 4000 SHRA SCT070CB BECMG 0723/0801 15005KT", "TAF LGAD 072000Z 0721/0806 30015KT 9999 FEW025", "TAF LGAL 072000Z 0721/0806 02015KT 9999 SCT030 PROB40 TEMPO 0800/0806 5000 SHRA FEW020TCU SCT030 PROB30 TEMPO 0802/0806 3000 TSRA FEW018CB SCT025", "TAF LGAV 071700Z 0718/0818 04010KT 9999 FEW020 BECMG 0718/0720 VRB05KT BECMG 0807/0809 02012G22KT", "TAF LGBL 072000Z 0721/0806 28008KT 9999 FEW025", "TAF LGEL 071700Z 0718/0818 VRB05KT 9999 FEW020 BECMG 0801/0803 35010KT TEMPO 0805/0810 35012G22KT", "TAF LGHI 072000Z 0721/0806 36015KT CAVOK TEMPO 0721/0806 36015G25KT", "TAF LGIO 072000Z 0721/0806 35010KT CAVOK", "TAF LGIR 071700Z 0718/0818 30012KT 9999 FEW020", "TAF LGKC 072000Z 0721/0806 24010KT 9999 FEW018 BECMG 0800/0802 04010KT", "TAF LGKF 072000Z 0721/0806 33020KT 9999 FEW015 TEMPO 0721/0803 33020G30KT", "TAF LGKL 072000Z 0721/0806 33012KT 9999 FEW025", "TAF LGKO 071700Z 0718/0818 32018KT 9999 FEW020 BECMG 0803/0805 33025G35KT", "TAF LGKP 072000Z 0721/0806 30025G35KT 9999 FEW018", "TAF LGKR 071700Z 0718/0818 33016KT 9999 FEW020 TEMPO 0718/0818 33016G27KT", "TAF LGKV 071700Z 0718/0818 VRB03KT 9999 FEW030 SCT080 PROB40 TEMPO 0721/0806 5000 SHRA FEW020TCU SCT030 BKN080 PROB30 TEMPO 0722/0806 3000 TSRA FEW018CB SCT025 BKN070 PROB40 TEMPO 0810/0818 6000 SHRA FEW020TCU SCT030 BKN080", "TAF LGLM 072000Z 0721/0806 01008KT 9999 FEW020 PROB30 TEMPO 0801/0803 5000 TSRA FEW018CB SCT020 BKN034", "TAF LGLR 072000Z 0721/0806 01006KT 9999 FEW025", "TAF LGMK 072000Z 0721/0806 36018KT 9999 FEW020 TEMPO 0800/0806 01018G28KT", "TAF LGMT 072000Z 0721/0806 35010KT 9999 FEW020", "TAF LGPZ 071700Z 0718/0818 27015KT 9999 FEW025 TEMPO 0718/0803 27015G25KT BECMG 0813/0815 28014G24KT", "TAF LGRP 071700Z 0718/0818 25018KT 9999 FEW020 TEMPO 0718/0809 29018G28KT BECMG 0809/0811 26025G35KT", "TAF LGRX 072000Z 0721/0806 29015KT 9999 FEW025", "TAF LGSA 071700Z 0718/0818 VRB05KT 9999 FEW020", "TAF LGSK 072000Z 0721/0806 35008KT 9999 FEW018 TEMPO 0722/0806 34017G30KT", "TAF LGSM 072000Z 0721/0806 34012G22KT 9999 FEW025", "TAF LGSR 071700Z 0718/0818 34016KT 9999 FEW020 TEMPO 0800/0818 34016G26KT", "TAF LGST 072000Z 0721/0806 31018G28KT 9999 FEW020", "TAF LGSY 072000Z 0721/0806 32010KT 9999 FEW020", "TAF LGTG 072000Z 0721/0806 36008KT 9999 FEW025", "TAF LGTL 072000Z 0721/0806 35015KT 9999 FEW020", "TAF LGTS 071700Z 0718/0818 35012KT 9999 FEW030 PROB30 TEMPO 0718/0724 7000 SHRA FEW020TCU SCT030 BECMG 0722/0724 35015G25KT", "TAF LGZA 072000Z 0721/0806 33014KT 9999 FEW025 TEMPO 0721/0803 31016G28KT", "TAF LHBP 071715Z 0718/0818 06007KT CAVOK BECMG 0718/0720 VRB03KT", "TAF LHDC 072015Z 0721/0806 36008KT CAVOK", "TAF LHKE 072015Z 0721/0806 04004KT CAVOK BECMG 0721/0724 33004KT", "TAF LHPA 071715Z 0718/0818 36010KT CAVOK BECMG 0718/0720 VRB03KT TEMPO 0808/0816 20006KT", "TAF LHPP 071415Z 0715/0724 02008KT CAVOK BECMG 0715/0718 VRB02KT", "TAF LHPR 071715Z 0718/0803 35007KT CAVOK BECMG 0718/0721 VRB02KT", "TAF LHSN 072015Z 0721/0806 02006KT CAVOK BECMG 0721/0723 34004KT", "TAF LIBA 072000Z 0721/0806 30010KT CAVOK", "TAF LIBC 071100Z 0712/0812 05010KT CAVOK BECMG 0715/0717 VRB06KT BECMG 0803/0805 36012KT", "TAF LIBD 071700Z 0718/0818 35010KT 9999 FEW030 BECMG 0719/0721 29008KT BECMG 0806/0808 35010KT", "TAF LIBF 071700Z 0718/0818 30010KT 9999 FEW040 BECMG 0810/0812 08010KT", "TAF LIBG 071400Z 0715/0724 36012KT CAVOK BECMG 0717/0719 30008KT", "TAF LIBN 071400Z 0715/0724 34010KT CAVOK TEMPO 0715/0718 34018KT", "TAF LIBP 071700Z 0718/0818 VRB05KT 9999 FEW040 BECMG 0809/0811 06010KT BECMG 0816/0818 VRB05KT", "TAF LIBR 071700Z 0718/0818 33015KT 9999 FEW020", "TAF LIBV 072000Z 0721/0806 34010KT CAVOK BECMG 0803/0805 36013KT 9999 SCT040", "TAF LICA 071700Z 0718/0818 VRB05KT CAVOK BECMG 0810/0812 26010KT BECMG 0816/0818 VRB05KT", "TAF LICB 071700Z 0718/0818 VRB05KT CAVOK BECMG 0809/0811 23010KT BECMG 0816/0818 VRB05KT", "TAF LICC 071700Z 0718/0818 08010KT CAVOK BECMG 0718/0720 VRB05KT BECMG 0807/0809 09012KT", "TAF LICD 071700Z 0718/0818 15012KT CAVOK", "TAF LICG 071400Z 0715/0724 16012KT CAVOK", "TAF LICJ 071700Z 0718/0818 19006KT CAVOK BECMG 0809/0811 07012KT", "TAF LICR 071700Z 0718/0818 VRB05KT CAVOK BECMG 0806/0808 20010KT", "TAF LICT 072000Z 0721/0806 18012KT CAVOK", "TAF LICZ 071700Z 0718/0818 08010KT CAVOK BECMG 0718/0720 VRB03KT BECMG 0808/0810 09015KT", "TAF LIEA 071700Z 0718/0818 03006KT 9999 FEW050 PROB30 TEMPO 0800/0804 TSRA BECMG 0809/0811 23010KT", "TAF LIED 072000Z 0721/0806 16005KT CAVOK PROB40 TEMPO 0721/0800 32015KT 7000 RATSRA FEW030CB SCT040", "TAF LIEE 071700Z 0718/0818 20010KT 9999 FEW050 BECMG 0718/0720 VRB05KT PROB30 TEMPO 0801/0805 TSRA BECMG 0809/0811 17012KT", "TAF LIEO 071700Z 0718/0818 09013KT 9999 SCT015 TEMPO 0721/0806 BKN008", "TAF LIMC 071700Z 0718/0824 VRB06KT CAVOK PROB30 TEMPO 0800/0806 4000 TSRA BKN010 BECMG 0802/0804 01010KT BECMG 0808/0810 VRB05KT", "TAF LIME 071700Z 0718/0818 VRB06KT CAVOK TEMPO 0800/0806 RA", "TAF LIMF 071700Z 0718/0818 VRB06KT CAVOK TEMPO 0720/0806 4000 TSRA BKN010", "TAF LIMG 071100Z 0712/0812 09012KT CAVOK BECMG 0718/0720 VRB05KT BECMG 0722/0724 35015KT BECMG 0810/0812 09012KT", "TAF LIMJ 071700Z 0718/0818 VRB05KT CAVOK BECMG 0720/0722 01012KT BECMG 0812/0814 VRB05KT", "TAF LIML 071700Z 0718/0818 VRB06KT CAVOK PROB40 TEMPO 0800/0806 RA", "TAF LIMN 071700Z 0718/0803 23005KT 9999 SCT030 TEMPO 0722/0803 5000 TSRA FEW015CB SCT020", "TAF LIMP 071700Z 0718/0818 08010KT CAVOK BECMG 0800/0802 VRB05KT", "TAF LIMW 071700Z 0718/0803 09020G30KT 9999 SCT040 PROB40 TEMPO 0718/0720 4000 TSRA BECMG 0719/0721 VRB05KT", "TAF LIMZ 071700Z 0718/0818 08012KT CAVOK PROB30 TEMPO 0718/0721 4000 TSRA BKN010 BECMG 0800/0802 VRB06KT", "TAF LIPA 071700Z 0718/0803 18005KT CAVOK", "TAF LIPB 071700Z 0718/0818 17010KT CAVOK BECMG 0718/0720 VRB05KT BECMG 0810/0812 19012KT", "TAF LIPC 072000Z 0721/0806 06008KT CAVOK", "TAF LIPE 071700Z 0718/0818 09010KT CAVOK BECMG 0719/0721 VRB05KT BECMG 0810/0812 09010KT", "TAF LIPH 071700Z 0718/0818 VRB05KT CAVOK", "TAF LIPK 071700Z 0718/0818 09010KT CAVOK BECMG 0718/0720 VRB05KT BECMG 0810/0812 09012KT", "TAF LIPL 072000Z 0721/0806 VRB03KT CAVOK", "TAF LIPO 071700Z 0718/0818 07010KT CAVOK TEMPO 0800/0806 BKN010 BECMG 0807/0809 VRB05KT", "TAF LIPQ 071700Z 0718/0818 VRB05KT CAVOK BECMG 0811/0813 20010KT BECMG 0816/0818 VRB05KT", "TAF LIPR 071700Z 0718/0818 VRB05KT 9999 FEW030 BECMG 0808/0810 02010KT", "TAF LIPS 072000Z 0721/0806 VRB03KT CAVOK", "TAF LIPX 071700Z 0718/0818 VRB05KT CAVOK TEMPO 0800/0806 BKN010", "TAF LIPY 071700Z 0718/0818 35010KT CAVOK BECMG 0718/0720 VRB05KT BECMG 0810/0812 09012KT", "TAF LIPZ 071700Z 0718/0824 03006KT CAVOK BECMG 0810/0812 16010KT BECMG 0817/0819 03006KT", "TAF LIRA 071700Z 0718/0818 VRB05KT CAVOK BECMG 0810/0812 21010KT BECMG 0816/0818 VRB05KT", "TAF LIRF 071700Z 0718/0824 VRB05KT CAVOK BECMG 0800/0802 05010KT BECMG 0809/0811 21011KT BECMG 0816/0818 VRB05KT", "TAF AMD LIRG 071806Z 0718/0724 25008KT CAVOK", "TAF LIRH 071400Z 0715/0724 30006KT 9999 FEW040 BECMG 0720/0722 VRB03KT CAVOK", "TAF AMD LIRL 071808Z 0718/0724 22005KT 9999 SCT060", "TAF LIRM 072000Z 0721/0806 08010KT CAVOK", "TAF LIRN 071700Z 0718/0818 04006KT 9999 FEW030 BECMG 0810/0812 24010KT BECMG 0815/0817 VRB05KT", "TAF LIRP 071700Z 0718/0818 26007KT CAVOK BECMG 0718/0720 VRB03KT 9999 SCT060 BECMG 0806/0808 09010KT CAVOK", "TAF LIRQ 071700Z 0718/0818 VRB05KT 9999 FEW040", "TAF LIRS 072000Z 0721/0806 VRB03KT CAVOK TEMPO 0800/0804 9999 FEW030 SCT060 BECMG 0804/0806 18010KT", "TAF LIRU 071400Z 0715/0724 25010KT CAVOK BECMG 0716/0718 VRB05KT", "TAF AMD LIRV 071808Z 0718/0724 24008KT CAVOK", "TAF LIRZ 071700Z 0718/0818 VRB05KT 9999 FEW060", "TAF LJCE 072000Z 0721/0806 VRB02KT CAVOK", "TAF LJLJ 071700Z 0718/0818 13005KT 9999 FEW060 PROB40 TEMPO 0809/0818 24012KT", "TAF LJMB 071700Z 0718/0818 VRB02KT CAVOK BECMG 0807/0809 18010KT", "TAF LJPZ 072000Z 0721/0806 12005KT CAVOK", "TAF LKCV 071700Z 0718/0818 15004KT CAVOK BECMG 0807/0809 10007KT", "TAF LKKB 071700Z 0718/0818 07006KT CAVOK BECMG 0808/0810 11008KT", "TAF LKKV 071700Z 0718/0818 16006KT CAVOK BECMG 0813/0815 20006KT", "TAF LKMT 071700Z 0718/0818 02006KT CAVOK BECMG 0719/0721 VRB02KT BECMG 0810/0812 10006KT", "TAF LKNA 071700Z 0718/0818 VRB02KT CAVOK TEMPO 0808/0818 11008KT", "TAF LKPD 071700Z 0718/0818 VRB02KT CAVOK", "TAF LKPR 072000Z 0721/0903 13006KT CAVOK TEMPO 0811/0817 10012KT", "TAF LKTB 071700Z 0718/0818 08006KT CAVOK BECMG 0813/0815 16010KT", "TAF LLBG 071702Z 0718/0818 28006KT 9999 SCT025 BECMG 0719/0721 VRB03KT PROB40 TEMPO 0721/0806 18006KT BKN020 BECMG 0806/0808 27012KT FEW030 TX31/0810Z TN24/0803Z", "TAF LLER 071701Z 0718/0818 33015KT CAVOK BECMG 0719/0721 36010KT BECMG 0807/0809 01015KT TX38/0813Z TN26/0803Z", "TAF LLHA 071703Z 0718/0818 27006KT 9999 SCT025 BECMG 0719/0721 VRB04KT PROB40 TEMPO 0721/0806 19006KT BKN020 BECMG 0806/0808 24012KT FEW025 TX31/0810Z TN25/0803Z", "TAF LLHZ 071702Z 0718/0818 VRB04KT 9999 SCT020 TEMPO 0718/0806 19006KT BKN017 BECMG 0806/0808 25010KT SCT025 TX30/0810Z TN24/0803Z", "TAF LLIB 071101Z 0712/0812 31010KT CAVOK BECMG 0716/0718 VRB04KT BECMG 0722/0724 9999 SCT025 PROB30 0800/0805 8000 BKN020 BECMG 0807/0809 18008KT FEW030 TX33/0712Z TN18/0804Z", "TAF LMML 071700Z 0718/0818 18008KT CAVOK", "TAF LOWG 071715Z 0718/0818 17005KT CAVOK TX27/0814Z TN12/0803Z PROB30 TEMPO 0800/0804 BCFG", "TAF LOWI 071715Z 0718/0818 08007KT 9999 FEW070 TX30/0814Z TN15/0804Z BECMG 0718/0720 VRB03KT BECMG 0809/0811 08008KT TEMPO 0814/0818 FEW070CB PROB30 TEMPO 0814/0817 -TSRA", "TAF LOWK 071715Z 0718/0818 09005KT CAVOK TX29/0816Z TN13/0804Z", "TAF LOWL 071715Z 0718/0818 10006KT CAVOK TX30/0815Z TN15/0804Z", "TAF LOWS 071715Z 0718/0818 03006KT CAVOK TX30/0816Z TN15/0802Z BECMG 0718/0720 15006KT BECMG 0808/0810 34005KT 9999 FEW060 TEMPO 0814/0818 FEW050CB SCT060 PROB30 TEMPO 0814/0818 25015G25KT TSRA", "TAF LOWW 072015Z 0721/0903 VRB03KT CAVOK TX30/0814Z TN14/0803Z BECMG 0806/0808 16010KT BECMG 0820/0822 VRB03KT", "TAF LOXZ 071415Z 0715/0724 VRB03KT 9999 FEW055", "TAF LPAR 071401Z 0715/0724 32008KT CAVOK", "TAF LPAZ 071700Z 0718/0824 01015KT 9999 SCT018 PROB30 TEMPO 0718/0720 5000 BR SCT004 BKN008 TEMPO 0720/0824 SCT018 BKN030 BECMG 0800/0803 34007KT", "TAF LPBJ 071708Z 0718/0818 29008KT CAVOK PROB40 0802/0806 0500 FG BKN002", "TAF LPCS 071400Z 0715/0724 27010KT 9999 FEW015 BECMG 0722/0724 24007KT SCT012", "TAF LPFR 071700Z 0718/0818 25013KT CAVOK BECMG 0718/0721 32010KT BECMG 0804/0806 VRB02KT BECMG 0809/0811 24010KT BECMG 0813/0815 25015KT BECMG 0816/0818 31010KT", "TAF LPHR 071400Z 0715/0724 VRB05KT 9999 SCT012 BECMG 0715/0718 01010KT TEMPO 0715/0724 SCT012 BKN030", "TAF LPLA 071708Z 0718/0818 35010KT 9999 FEW025 BECMG 0800/0802 VRB05KT", "TAF LPMA 071700Z 0718/0818 VRB05KT 9999 SCT015 PROB30 0810/0816 20010KT TEMPO 0814/0818 BKN013", "TAF LPMR 071707Z 0718/0818 28010KT 9999 FEW020 BECMG 0722/0724 20005KT SCT014 BECMG 0801/0803 SCT006 BKN020 PROB40 TEMPO 0802/0808 3000 -DZRA BR FEW003 BKN006 BECMG 0810/0812 27008KT FEW020", "TAF LPMT 071707Z 0718/0818 26010KT CAVOK BECMG 0721/0724 VRB02KT BECMG 0805/0807 SCT014 PROB30 TEMPO 0807/0811 6000 -DZ BKN012", "TAF LPOV 071706Z 0718/0818 23010KT 9999 FEW015 BECMG 0720/0723 17010KT SCT012 BECMG 0800/0802 7000 SCT008 BKN018 TEMPO 0801/0807 2500 DZRA BR SCT003 BKN006 PROB40 TEMPO 0807/0810 4000 -DZ BR BKN009 BECMG 0810/0812 24008KT 9999 FEW015 PROB30 TEMPO 0811/0814 3000 BR SCT002", "TAF LPPD 071700Z 0718/0818 02013KT 9999 SCT018 TEMPO 0718/0818 SCT018 BKN035 BECMG 0721/0724 34007KT", "TAF LPPR 071700Z 0718/0818 19012KT 9999 FEW012 BECMG 0722/0724 5000 -DZ BR SCT004 BKN008 TEMPO 0800/0808 1500 DZRA BR SCT002 BKN004 BECMG 0808/0810 24007KT 9999 NSW SCT015 PROB30 TEMPO 0810/0818 3000 BR SCT002 BKN004 BECMG 0814/0816 27008KT", "TAF LPPS 071700Z 0718/0824 29007KT 9999 SCT015 TEMPO 0814/0824 BKN012 BECMG 0818/0821 VRB05KT", "TAF LPPT 071700Z 0718/0824 29010KT CAVOK BECMG 0722/0724 24005KT BECMG 0802/0804 9999 SCT008 BKN015 PROB30 TEMPO 0804/0809 5000 -DZ BR BKN008 BECMG 0809/0812 BKN030 BECMG 0814/0817 32010KT FEW025", "TAF LPST 071401Z 0715/0724 31010KT 9999 FEW015 PROB30 TEMPO 0719/0724 BKN014", "TAF LQBK 071700Z 0718/0818 19005KT CAVOK TX29/0814Z TN16/0804Z", "TAF LQMO 071700Z 0718/0818 32007KT CAVOK TX34/0814Z TN18/0804Z PROB40 TEMPO 0718/0723 02015KT", "TAF LQSA 071700Z 0718/0818 VRB04KT CAVOK TX28/0813Z TN16/0804Z PROB30 TEMPO 0803/0807 1500 BCFG BKN004 PROB40 TEMPO 0809/0815 34010KT", "TAF LQTZ 071700Z 0718/0818 28005KT CAVOK TX29/0814Z TN16/0804Z PROB30 TEMPO 0802/0805 1500 BCFG TEMPO 0811/0817 09010KT", "TAF LRAR 071400Z 0715/0800 35012KT CAVOK BECMG 0720/0722 VRB04KT", "TAF LRBC 072000Z 0721/0806 34014KT CAVOK", "TAF LRBM 071400Z 0715/0800 28008KT 9999 SCT035CB BKN040 BECMG 0717/0719 NSC", "TAF LRBS 071700Z 0718/0818 VRB04KT CAVOK TEMPO 0718/0720 5000 -TSRA SCT040CB PROB30 TEMPO 0802/0807 -SHRA SCT035CB", "TAF LRCK 071700Z 0718/0818 33016KT CAVOK PROB40 TEMPO 0800/0806 VRB15G25KT 3000 TSRA BKN010 BKN035CB TEMPO 0815/0818 3000 TSRA BKN035CB", "TAF LRCL 072000Z 0721/0806 25006KT CAVOK", "TAF LRCV 072000Z 0721/0806 32006KT CAVOK", "TAF LRIA 072000Z 0721/0806 34014KT CAVOK TEMPO 0721/0723 SCT030CB PROB30 TEMPO 0723/0805 5000 -TSRA BKN010 BKN025CB", "TAF LROD 071700Z 0718/0803 01016KT CAVOK BECMG 0718/0720 03006KT", "TAF LROP 071700Z 0718/0818 VRB04KT CAVOK TEMPO 0718/0720 5000 -TSRA SCT040CB PROB30 TEMPO 0802/0807 -SHRA SCT035CB", "TAF LRSB 071700Z 0718/0818 VRB04KT 9999 SCT050 PROB30 TEMPO 0718/0721 3000 TSRA BKN030CB TEMPO 0721/0801 5000 -SHRA SCT040CB", "TAF LRSM 071400Z 0715/0800 01010KT 9999 FEW040CB BECMG 0717/0719 VRB04KT NSC", "TAF LRSV 072000Z 0721/0806 34014KT CAVOK", "TAF LRTC 071400Z 0715/0800 33018KT CAVOK TEMPO 0715/0718 VRB20G30KT 3000 TSRA SCT010 BKN035CB", "TAF LRTM 071400Z 0715/0800 23008KT 9999 SCT035CB PROB40 TEMPO 0715/0718 VRB18KT 5000 TSRA SCT010 BKN030CB BECMG 0718/0720 CAVOK", "TAF LRTR 071700Z 0718/0818 01010KT CAVOK", "TAF AMD LSGC 071631Z 0716/0724 16005KT 9999 FEW040 FEW060TCU TEMPO 0717/0724 24015G30KT 4500 TSRA SCT050CB", "TAF LSGG 072025Z 0721/0903 VRB02KT CAVOK TX32/0815Z TN18/0805Z PROB30 TEMPO 0723/0807 23010KT SHRA FEW060TCU BKN090 BECMG 0808/0810 04007KT BECMG 0813/0815 23010KT 9999 FEW040 BECMG 0818/0820 VRB02KT CAVOK", "TAF LSGS 071425Z 0715/0724 25013KT 9999 FEW100 BKN140 TEMPO 0715/0718 FEW080TCU BECMG 0718/0720 VRB02KT", "TAF LSZA 071425Z 0715/0724 19005KT 9999 FEW060 TEMPO 0722/0724 SHRA SCT060TCU PROB40 TEMPO 0722/0724 19012G25KT 7000 TSRA SCT060CB", "TAF LSZB 071425Z 0715/0724 29006KT CAVOK BECMG 0715/0717 9999 SCT070 PROB40 0720/0724 SHRA SCT070TCU PROB30 0720/0724 25012G25KT 7000 TSRA SCT070CB", "TAF LSZC 071425Z 0715/0724 08005KT CAVOK TEMPO 0715/0719 9999 FEW070 PROB30 0716/0724 9999 SHRA SCT050TCU", "TAF LSZG 071425Z 0715/0724 08005KT 9999 FEW060 PROB30 TEMPO 0715/0718 SHRA FEW070TCU TEMPO 0718/0721 CAVOK PROB40 TEMPO 0721/0724 23012G25KT TSRA FEW060CB", "TAF LSZH 072025Z 0721/0903 VRB02KT CAVOK TX32/0815Z TN15/0804Z TEMPO 0721/0812 9999 SCT070 PROB40 TEMPO 0723/0807 27010KT SHRA SCT050TCU PROB30 TEMPO 0800/0807 30015G28KT TSRA FEW050CB", "TAF LSZL 071725Z 0718/0803 28006KT 9999 FEW070 PROB40 TEMPO 0718/0721 CAVOK PROB40 TEMPO 0723/0803 SHRA SCT060TCU PROB30 TEMPO 0801/0803 09012G25KT 4000 TSRA FEW060CB", "TAF LSZR 071425Z 0715/0724 32004KT 9999 FEW060", "TAF LSZS 071425Z 0715/0724 22013KT 9999 FEW070 TX19/0715Z PROB30 TEMPO 0715/0718 22015G28KT PROB40 TEMPO 0715/0719 SHRA SCT050TCU BECMG 0719/0721 VRB02KT", "TAF LTAB 071940Z 0721/0806 VRB02KT CAVOK", "TAF LTAC 071640Z 0718/0818 VRB02KT 9999 SCT040 BECMG 0720/0722 CAVOK BECMG 0804/0806 SCT040 TEMPO 0806/0810 -SHRA FEW025CB BKN030 TEMPO 0813/0817 30015G25KT -TSRA SCT025CB BKN030", "TAF LTAD 071940Z 0721/0806 VRB02KT CAVOK BECMG 0800/0803 SCT040", "TAF LTAE 071940Z 0721/0806 01007KT 9999 FEW040", "TAF LTAF 071640Z 0718/0818 VRB02KT 9999 SCT030 BECMG 0808/0810 21012KT BECMG 0816/0818 VRB02KT", "TAF LTAG 071640Z 0718/0818 VRB02KT 9999 BKN030 PROB40 0802/0806 FEW025CB BKN030 BECMG 0809/0811 21012KT SCT035 BECMG 0816/0818 VRB02KT", "TAF LTAH 071340Z 0715/0724 32012KT 9999 SCT035 BKN100 TEMPO 0716/0718 -TSRA FEW020CB BKN030", "TAF LTAI 071640Z 0718/0818 VRB02KT 9999 FEW030 BECMG 0719/0722 34012KT CAVOK BECMG 0809/0812 20015KT SCT030 BECMG 0814/0816 34015G25KT CAVOK", "TAF LTAJ 071640Z 0718/0818 31012KT CAVOK BECMG 0805/0807 25015KT", "TAF LTAL 071940Z 0721/0806 20009KT 9999 FEW030 SCT100", "TAF LTAN 071940Z 0721/0806 34015KT 9999 FEW040", "TAF LTAO 071940Z 0721/0806 21007KT CAVOK", "TAF LTAP 071640Z 0718/0818 03016KT 9999 FEW040 BECMG 0720/0723 VRB02KT CAVOK BECMG 0805/0808 SCT040 TEMPO 0813/0817 -TSRA FEW030CB BKN035", "TAF LTAR 071940Z 0721/0806 35006KT 9999 FEW040 SCT100 TEMPO 0721/0723 35018G28KT -TSRA FEW025CB BKN030 BECMG 0723/0801 CAVOK", "TAF LTAS 071340Z 0715/0724 30012KT 9999 SCT040 SCT100 BECMG 0715/0717 VRB02KT", "TAF LTAT 071640Z 0718/0818 31016KT 9999 SCT040 BECMG 0718/0721 21009KT CAVOK PROB40 0721/0801 27018KT PROB40 0801/0805 28018KT BECMG 0805/0807 31014KT BECMG 0807/0809 FEW040 SCT100", "TAF LTAU 071640Z 0718/0818 36008KT 9999 FEW040 SCT100 TEMPO 0718/0722 VRB15G25KT -TSRA FEW025CB BKN030 BECMG 0721/0724 CAVOK BECMG 0805/0808 SCT040 TEMPO 0813/0817 35018G28KT -TSRA FEW025CB BKN030", "TAF LTAV 071940Z 0721/0806 VRB02KT CAVOK", "TAF LTAW 071340Z 0715/0724 05012KT 9999 FEW040 SCT100 BECMG 0718/0721 VRB02KT CAVOK", "TAF LTAY 071640Z 0718/0818 27008KT CAVOK BECMG 0808/0810 34015KT SCT035 PROB30 TEMPO 0812/0816 34017G27KT -TSRA FEW020CB BKN030", "TAF LTAZ 071640Z 0718/0818 21008KT 9999 FEW040 SCT100 TEMPO 0718/0721 34015G30KT -TSRA FEW027CB BKN033 BECMG 0721/0724 CAVOK BECMG 0804/0807 FEW040 SCT100 PROB40 TEMPO 0811/0815 29015G25KT -TSRA FEW025CB BKN030 TEMPO 0815/0818 32015G25KT -TSRA FEW025CB BKN030", "TAF LTBA 071640Z 0718/0818 34006KT CAVOK BECMG 0801/0804 34017G27KT BKN025 TEMPO 0804/0808 -TSRA FEW018CB BKN025 BECMG 0811/0814 SCT032", "TAF LTBD 071940Z 0721/0806 VRB02KT CAVOK", "TAF LTBF 071940Z 0721/0806 VRB02KT 9999 FEW035", "TAF LTBG 071940Z 0721/0806 05008KT CAVOK BECMG 0801/0803 SCT035 TEMPO 0804/0806 -SHRA", "TAF LTBH 071940Z 0721/0806 07008KT CAVOK", "TAF LTBI 071940Z 0721/0806 VRB02KT CAVOK", "TAF LTBJ 071640Z 0718/0818 35017G27KT 9999 FEW030 BECMG 0718/0721 35013KT CAVOK BECMG 0806/0810 36017G27KT SCT030 PROB30 TEMPO 0810/0814 -TSRA FEW020CB BKN030", "TAF LTBK 071340Z 0715/0724 34017G27KT 9999 FEW030 BECMG 0718/0720 CAVOK BECMG 0720/0723 34012KT", "TAF LTBL 071940Z 0721/0806 36007KT CAVOK", "TAF LTBN 071340Z 0715/0724 01012KT 9999 SCT040 TEMPO 0715/0718 -SHRA FEW025CB BKN030 BECMG 0717/0720 VRB02KT", "TAF LTBO 071340Z 0715/0724 VRB02KT 9999 BKN035 BECMG 0716/0720 CAVOK", "TAF LTBP 071340Z 0715/0724 27008KT CAVOK", "TAF LTBQ 071940Z 0721/0806 VRB02KT 9999 SCT035 PROB40 TEMPO 0803/0806 27012KT -TSRA FEW025CB BKN030", "TAF LTBR 071640Z 0718/0818 VRB02KT CAVOK BECMG 0721/0724 SCT035 BKN100 PROB30 0801/0805 -SHRA FEW027CB BKN030 BECMG 0806/0809 34012KT -SHRA PROB40 TEMPO 0808/0812 28015G25KT 4000 TSRA SCT020CB SCT025", "TAF LTBS 071640Z 0718/0818 34007KT CAVOK BECMG 0722/0724 34017KT BECMG 0807/0809 24015KT BECMG 0816/0818 34009KT", "TAF LTBT 071940Z 0721/0806 36007KT CAVOK", "TAF LTBU 071640Z 0718/0818 33010KT 9999 SCT032 SCT090 BECMG 0803/0806 35015G25KT TEMPO 0810/0814 -TSRA FEW018CB BKN025", "TAF LTBV 071340Z 0715/0724 30014KT 9999 FEW035 BECMG 0715/0718 VRB02KT CAVOK", "TAF LTBX 071340Z 0715/0724 36009KT CAVOK", "TAF LTBY 071940Z 0721/0806 VRB02KT CAVOK", "TAF LTBZ 071940Z 0721/0806 VRB02KT CAVOK", "TAF LTCA 071940Z 0721/0806 24009KT CAVOK", "TAF LTCB 071940Z 0721/0806 VRB02KT 9999 SCT035 BKN090", "TAF LTCC 071640Z 0718/0818 18012KT CAVOK BECMG 0718/0721 VRB02KT BECMG 0808/0811 18012KT FEW040 BECMG 0814/0817 30007KT CAVOK", "TAF LTCD 071940Z 0721/0806 27013KT 9999 FEW080 BECMG 0721/0724 VRB02KT", "TAF LTCE 071640Z 0718/0818 09012KT 9999 SCT040 BECMG 0720/0722 VRB02KT CAVOK BECMG 0801/0803 08012KT BECMG 0804/0806 SCT040 BECMG 0806/0808 FEW025CB BKN035 TEMPO 0808/0812 27012KT -TSRA TEMPO 0812/0816 27012KT -TSRA BECMG 0816/0818 VRB02KT SCT040", "TAF COR LTCF 071640Z 0718/0818 08015KT CAVOK BECMG 0718/0721 03005KT FEW040 BECMG 0802/0804 CAVOK BECMG 0809/0812 SCT040 BKN070 TEMPO 0815/0818 -TSRA FEW025CB", "TAF LTCG 071640Z 0718/0818 VRB02KT 9999 BKN035 TEMPO 0718/0721 -TSRA SCT012 FEW020CB BKN028 TEMPO 0721/0801 -SHRA SCT008 FEW020CB BKN028 TEMPO 0801/0805 -SHRA SCT012 FEW020CB BKN028 TEMPO 0812/0816 -TSRA SCT012 FEW020CB BKN028", "TAF LTCI 071940Z 0721/0806 10007KT 9999 FEW040 BECMG 0805/0806 20014KT", "TAF LTCJ 071640Z 0718/0818 VRB02KT CAVOK BECMG 0807/0810 18012KT FEW040 SCT100", "TAF LTCK 071340Z 0715/0724 VRB02KT 9999 FEW040", "TAF LTCL 071340Z 0715/0724 19007KT CAVOK", "TAF LTCM 071340Z 0715/0724 28016KT 9999 SCT025", "TAF LTCN 071940Z 0721/0806 27020KT CAVOK", "TAF LTCO 071340Z 0715/0724 06012KT 9999 SCT080", "TAF LTCP 071340Z 0715/0724 21009KT 9999 FEW035 BECMG 0715/0717 CAVOK", "TAF LTCR 071340Z 0715/0724 21013KT CAVOK BECMG 0716/0719 28007KT", "TAF LTCS 071640Z 0718/0818 28009KT CAVOK", "TAF LTCT 071940Z 0721/0806 14012KT 9999 SCT100 BECMG 0722/0802 VRB02KT CAVOK", "TAF LTCU 071340Z 0715/0724 18008KT 9999 FEW035 BECMG 0719/0721 CAVOK", "TAF LTCV 071640Z 0718/0818 VRB02KT CAVOK BECMG 0807/0810 18012G25KT FEW040 SCT100", "TAF LTCW 071940Z 0721/0806 VRB02KT 9999 FEW040", "TAF LTDA 071940Z 0721/0806 26017KT 9999 FEW040", "TAF COR LTFA 071340Z 0715/0724 32013KT 9999 FEW040 BECMG 0716/0720 VRB02KT CAVOK", "TAF LTFB 071340Z 0715/0724 28013KT 9999 FEW035 TEMPO 0715/0719 34016G26KT BECMG 0719/0721 36012KT CAVOK", "TAF LTFC 071640Z 0718/0818 34015KT 9999 FEW035 BECMG 0718/0721 VRB02KT CAVOK BECMG 0806/0809 34015G25KT SCT035", "TAF LTFD 071940Z 0721/0806 08008KT 9999 FEW035", "TAF LTFE 071640Z 0718/0818 VRB02KT CAVOK BECMG 0808/0810 30012KT", "TAF LTFG 071940Z 0721/0806 11006KT CAVOK", "TAF LTFH 071940Z 0721/0806 VRB02KT 9999 FEW036 SCT100", "TAF LTFJ 071640Z 0718/0818 06006KT CAVOK BECMG 0718/0721 SCT035 PROB30 TEMPO 0802/0806 -SHRA FEW020CB BKN030 TEMPO 0806/0810 33012KT -TSRA FEW020CB BKN030 TEMPO 0810/0814 -TSRA FEW020CB BKN030", "TAF LTFK 071340Z 0715/0724 02012KT CAVOK", "TAF LTFM 071640Z 0718/0824 30008KT CAVOK BECMG 0801/0804 34015G25KT BKN025 TEMPO 0803/0807 -TSRA FEW018CB BKN025 BECMG 0811/0814 SCT032 BECMG 0819/0822 BKN025", "TAF LTFO 071940Z 0721/0806 VRB02KT 9999 BKN035 TEMPO 0721/0724 -TSRA SCT012 FEW020CB BKN028 PROB40 0800/0803 -SHRA SCT008 FEW020CB BKN028 TEMPO 0803/0806 -TSRA SCT008 FEW020CB BKN028", "TAF LUKK 071653Z 0718/0818 34012KT 9999 SCT035 TEMPO 0718/0722 VRB18G28KT 2000 TSRA BKN020CB TEMPO 0722/0806 01016G26KT 5000 SHRA BKN010 SCT030CB BECMG 0805/0807 35016KT TEMPO 0807/0816 36020G34KT SCT035CB", "TAF LWOH 072030Z 0721/0821 34005KT 9999 FEW040", "TAF LWSK 072030Z 0721/0821 33010KT 9999 BKN050", "TAF LYBE 071700Z 0718/0818 28006KT CAVOK TX29/0814Z TN16/0803Z", "TAF COR LYBT 071700Z 0718/0818 28006KT CAVOK TX29/0813Z TN15/0803Z", "TAF LYKV 071700Z 0718/0818 33006KT CAVOK TX28/0813Z TN15/0803Z TEMPO 0802/0805 3000 BR", "TAF COR LYNI 071700Z 0718/0818 26006KT 9999 SCT040 TX28/0813Z TN16/0803Z BECMG 0808/0810 32015KT", "TAF LYPG 071700Z 0718/0818 36012KT 9999 FEW040 TX32/0814Z TN21/0718Z TEMPO 0718/0818 36018G30KT", "TAF LYTV 071700Z 0718/0818 34008KT CAVOK TX30/0813Z TN24/0803Z TEMPO 0718/0809 02015G25KT", "TAF LYVR 071700Z 0718/0818 32008KT 9999 SCT040 TX28/0813Z TN15/0803Z", "TAF LZIB 071715Z 0718/0818 01007KT CAVOK BECMG 0806/0808 07006KT", "TAF LZKZ 071715Z 0718/0818 01011KT CAVOK BECMG 0718/0720 36005KT BECMG 0807/0809 04007KT", "TAF LZMC 071930Z 0721/0806 14003KT CAVOK", "TAF LZPP 071715Z 0718/0803 36009KT CAVOK BECMG 0719/0721 VRB02KT", "TAF LZPW 071930Z 0721/0806 VRB04KT CAVOK", "TAF LZSL 071930Z 0721/0806 VRB03KT CAVOK", "TAF LZTT 071715Z 0718/0818 04012KT CAVOK BECMG 0718/0720 26005KT BECMG 0808/0810 06007KT", "TAF LZZI 072015Z 0721/0806 VRB02KT CAVOK", "MBGT 070500Z 0706/0806 12010KT 9999 FEW020", "MBPV 070500Z 0706/0806 12010KT 9999 FEW020", "TAF MDBH 071600Z 0718/0818 13015KT 9999 FEW025 SCT300", "TAF MDCY 071600Z 0718/0818 09015KT 9999 SCT022 BECMG 0802/0804 00000KT", "TAF MDJB 071600Z 0718/0818 18010KT 9999 SCT020 FM 030000 00000KT 9999 FEW018 SCT300 BECMG 0313/0315 03005KT", "TAF MDLR 071600Z 0718/0818 09010KT 9999 SCT020 PROB30 0722/0804 7000 -TSRA FEW016CB BKN016 BECMG 0800/0802 00000KT", "TAF MDPC 071600Z 0718/0818 10016KT 9999 SCT024", "TAF MDPP 071600Z 0718/0818 09013KT 9999 SCT023 PROB30 0718/0800 8000 -SH BKN018 BECMG 0720/0722 00000K", "TAF MDSD 071600Z 0718/0818 15015KT 9999 SCT025 PROB30 0722/0804 8000 -SH FEW017CB SCT018 SCT300 BECMG 0801/0804 05006KT", "TAF MDST 071600Z 0718/0818 11010KT 9999 FEW022 SCT300 BECMG 0720/0722 VRB03KT", "MGGT 071700Z 0718/0818 02012KT 9999 FEW018 TX28/0720Z TN16/0812Z TEMPO 0721/0804 7000 TSRA SCT020TCU FEW025CB BECMG 0802/0804 VRB03KT SCT016 TEMPO 0808/0812 5000 BR BKN014 BECMG 0814/0816 03008KT 9999 FEW018", "MGMM 071700Z 0718/0818 00000KT CAVOK TX37/0720Z TN23/0812Z BECMG 0714/0716 11008KT FEW018 TEMPO 0720/0724 8000 VCTSRA FEW025CB BECMG 0801/0903 00000KT BKN016 BECMG 0806/0808 CAVOK", "MGPB 071700Z 0718/0818 00000KT 9999 SCT018 TX32/0720Z TN24/0812Z TEMPO 0721/0804 8000 TSRA SCT020TCU FEW025CB BECMG 0801/0803 00000KT SCT017 BECMG 0808/0810 06006KT FEW016 BECMG 0815/017 00000KT FEW020", "TAF MHLC 071650Z 0718/0818 VRB05KT 9999 SCT030TCU FEW032CB TX30/0719Z TN24/0812Z TEMPO 0720/0800 5000 TSSHRA SCT032CB FM080200 VRB03KT 9999 SCT026", "TAF MHLM 071650Z 0718/0818 04010KT 9999 SCT030TCU FEW034CB TX33/0720Z TN24/0812Z TEMPO 0722/0802 5000 TSRA BECMG 0802/0803 VRB03KT FEW030", "TAF MHPR 071700Z 0718/0818 35010KT 9999 SCT050 SCT052CU TX30/0719Z TN21/0811Z TEMPO 0721/0802 7000 TSSHRA SCT048CTU FEW050CB FM080400 VRB05KT 9999 SCT048 BKN080", "TAF MHRO 071650Z 0718/0818 09024KT 9999 SCT024TCU FEW028CB TX30/0719Z TN27/0812Z BECMG 0800/0801 CAVOK BECMG 0813/0815 SCT024TCU FEW028CB", "TAF MHTG 071650Z 0718/0818 09010KT 9999 SCT030TCU FEW036CB TX29/0719Z TN19/0812Z TEMPO 0721/0801 5000 TSRA BECMG 0801/0803 VRB03KT FEW008 SCT028 BECMG 0814/0816 SCT030TCU FEW034CB", "TAF MKJP 071715Z 0718/0818 13021KT 9999 FEW022 FEW024CB BECMG 0804/0806 34005KT BECMG 0814/0816 14020KT", "TAF MKJS 071715Z 0718/0818 07016KT 9999 FEW022 PROB30 TEMPO 0718/0724 TSRA SCT020 SCT022CB BECMG 0802/0804 15005KT BECMG 0814/0816 07015KT", "TAF MMAA 071621Z 0718/0818 24010KT P6SM SCT020 BKN300 TX32/0721Z TN25/0812Z PROB40 0803/0807 5SM TSRA BKN020CB FM080700 35005KT P6SM SCT020 BKN090 BKN250 FM081700 25010KT P6SM SCT020 BKN250", "TAF MMAN 071735Z 0718/0818 12010KT P6SM BKN020 TEMPO 0722/0802 13010G20KT 4SM TSRA BKN020CB FM080200 15005KT P6SM BKN030 FM080700 00000KT 5SM HZ BKN015 TEMPO 0809/0813 2SM BR HZ BKN010", "TAF AMD MMAS 072201Z 0722/0818 19006G30KT 6SM SQ BKN030CB TEMPO 0722/0802 3SM TSRA BKN030CB BKN080 FM080300 08006KT P6SM SCT030 BKN080 BECMG 0805/0806 15005KT FM081700 17008KT P6SM SCT030", "TAF MMBT 071636Z 0718/0818 25010KT 6SM HZ SCT020 SCT200 TEMPO 0800/0804 5SM TSRA BKN020CB FM080400 13005KT 6SM HZ SCT020CB BKN250 TEMPO 0804/0808 5SM RA BKN015CB FM080800 00000KT 6SM HZ SCT020 BKN100 TEMPO 0810/0814 5SM RA BKN010CB FM081600 23010KT P6SM SCT025 BKN250", "TAF MMCB 071636Z 0718/0818 15010KT 6SM HZ SCT015 BKN080 BECMG 0720/0721 BKN020CB TEMPO 0722/0802 5SM TSRA BKN020CB FM080400 14005KT 6SM HZ SCT020 BKN080 BKN200 TEMPO 0812/0815 1SM BR OVC002 FM081500 13005KT 3SM HZ BKN010", "TAF MMCE 071720Z 0718/0818 14012KT P6SM SCT020 SCT250 TEMPO 0722/0802 6SM -TSRA BKN020CB FM080200 13010KT 6SM HZ SCT020CB BKN100 BKN250 TEMPO 0802/0806 5SM TSRA BKN015CB FM080800 12005KT 6SM HZ SCT015 BKN250 BECMG 0811/0812 13015KT FM081800 13015KT P6SM SCT030", "TAF MMCL 071711Z 0718/0818 23015KT P6SM SCT035 BECMG 0722/0723 VC RA BKN030CB TEMPO 0801/0805 4SM TSRA FM080600 18005KT 6SM HZ SCT020 BKN080 PROB40 0809/0813 00000KT 4SM HZ SCT015", "TAF MMCM 071720Z 0718/0818 12012KT 6SM HZ BKN015 TEMPO 0718/0722 5SM TSRA BKN010CB FM080200 13010KT 6SM HZ SCT015 BKN080 TEMPO 0805/0809 5SM TSRA BKN010CB FM081200 12005KT 5SM HZ BKN015 FM081800 13010KT P6SM BKN020", "TAF MMCN 071653Z 0718/0818 16010KT P6SM SKC FM080200 16005KT 6SM HZ SCT030 BKN200 TEMPO 0802/0806 BKN020CB FM081600 20005KT P6SM SCT030", "TAF AMD MMCP 072108Z 0721/0818 09015KT 5SM -RA BKN025CB BKN300 TEMPO 0721/0801 2SM TSRA OVC020CB FM080300 10008KT 6SM HZ BKN020 OVC080 BECMG 0805/0806 08006KT SCT020 FM081600 12010KT 6SM HZ SCT020", "TAF MMCS 071735Z 0718/0818 22010KT P6SM SKC FM080300 19005KT P6SM SCT100 FM080900 13005KT P6SM SKC", "TAF MMCU 071735Z 0718/0818 10006KT P6SM SKC BECMG 0721/0722 08013KT SCT030 FM080200 14005KT P6SM SKC FM081500 08010KT P6SM SKC", "TAF MMCV 071709Z 0718/0818 15015G25KT P6SM BKN020 BKN100 TEMPO 0721/0801 5SM -TSRA BKN020CB OVC100 FM080100 18005KT P6SM BKN020 BKN100 BECMG 0815/0816 16012KT SCT020 BKN100", "TAF MMCZ 071702Z 0718/0818 13015KT P6SM SCT015 BKN250 TEMPO 0723/0803 5SM TSRA BKN015CB FM080300 13010KT P6SM SCT015 BKN090 BKN250 TEMPO 0810/0814 BKN015 FM081400 13015KT P6SM SCT015 BKN250", "TAF MMDO 071653Z 0718/0818 08010KT P6SM SCT030 SCT200 BECMG 0721/0722 BKN030CB TEMPO 0722/0802 5SM TSRA FM080200 08005KT 6SM HZ SCT020CB BKN070 TEMPO 0802/0806 6SM TSRA FM080800 00000KT 6SM HZ SCT015 BKN070 BKN200 TEMPO 0810/0814 2SM BR FM081600 08005KT 6SM HZ SCT015", "TAF MMEP 071656Z 0718/0818 30005KT 6SM HZ SCT010 BKN030 BECMG 0719/0720 BKN020CB TEMPO 0721/0801 5SM TSRA FM080100 00000KT 6SM HZ BKN025 FM080800 00000KT 4SM HZ SCT012 BECMG 0815/0816 SCT020CB", "TAF COR MMGL 072051Z 0718/0818 13005KT 4SM HZ SCT020 BKN100 TX28/0721Z TN20/0812Z FM072200 18012KT P6SM SCT020 PROB40 0722/0802 5SM TSRA BKN020CB FM080200 25005KT 4SM -TSRA BKN015CB OVC060 FM080800 00000KT P6SM SCT020 BKN090 FM081700 17005KT P6SM SCT030 BKN120 BKN250", "TAF MMGM 071653Z 0718/0818 22010KT P6SM SCT200 FM080400 24005KT P6SM SCT100 BKN200 FM081800 23010KT P6SM SCT200", "TAF MMHO 071711Z 0718/0818 16010KT P6SM SKC FM072100 22010G20KT P6SM SKC FM080200 14005KT P6SM SCT080 FM081500 23005KT P6SM SKC", "TAF MMIA 071656Z 0718/0818 24012KT 6SM HZ SCT020 BKN100 BECMG 0719/0720 BKN020CB TEMPO 0721/0801 5SM -TSRA FM080100 08005KT 6SM -RA HZ BKN020 BKN100 FM080500 00000KT 6SM HZ SCT020 SCT100 BECMG 0816/0817 24010KT", "TAF MMIO 071735Z 0718/0818 36010KT P6SM SCT040 TEMPO 0722/0802 6SM HZ VC RA BKN40CB FM080200 03005KT P6SM SCT040 FM080900 00000KT 6SM HZ SCT030 FM081400 04007KT P6SM SCT040 BKN080", "TAF MMLM 071653Z 0718/0818 16010KT P6SM SCT200 FM080200 16008KT P6SM SCT030CB BKN200 TEMPO 0802/0806 6SM -RA BKN030CB FM080700 16005KT 6SM HZ SCT020 SCT100 BKN250 TEMPO 0812/0815 BKN015 FM081800 20010KT P6SM SCT025 SCT200", "TAF MMLO 071656Z 0718/0818 15008KT P6SM SCT030 SCT120 BECMG 0720/0721 BKN020CB OVC100 TEMPO 0721/0801 5SM -TSRA FM080100 14005KT 6SM HZ BKN020 TEMPO 0804/0808 3SM TSRA BKN020CB OVC100 FM080800 27005KT 5SM -RA HZ BKN020 BKN100 BECMG 0810/0811 6SM HZ SCT020 BKN100 FM081500 14005KT P6SM SCT030 SCT120", "TAF MMLP 071711Z 0718/0818 22010KT P6SM SCT200 BECMG 0721/0722 19015KT FM080400 22005KT P6SM SKC BECMG 0810/0811 18010KT SCT200", "TAF MMLT 071653Z 0718/0818 16012KT P6SM SKC FM080400 16005KT P6SM SKC FM081800 16012KT P6SM SKC", "TAF MMMA 071709Z 0718/0818 13015KT P6SM BKN020CB BKN080 TEMPO 0719/0723 5SM -TSRA FM072300 12012KT 6SM HZ BKN015 BKN080 BECMG 0815/0816 14012G22KT", "TAF AMD MMMD 071915Z 0719/0818 25006KT 6SM HZ SCT020CB SCT080 BKN300 TX36/0720Z TN24/0812Z TEMPO 0720/0724 3SM TSRA BKN020CB FM080100 13010KT P6SM SCT015 BKN080 BKN250 FM081700 04010KT P6SM SCT020 BKN250", "TAF MMML 071711Z 0718/0818 23005KT P6SM SKC BECMG 0722/0723 32012KT FM080500 33005KT P6SM SKC BECMG 0814/0815 21005KT", "TAF MMMM 071649Z 0718/0818 19010KT P6SM SCT012 BKN100 PROB40 0722/0802 5SM TSRA BKN015CB FM080200 13005KT 5SM HZ SCT020CB BKN090 BKN250 TEMPO 0810/0814 3SM BR HZ FM081400 03005KT P6SM SCT020 BKN090", "TAF MMMT 071720Z 0718/0818 02010KT 6SM HZ SCT020 SCT100 FM080300 03005KT 6SM HZ SCT020 BKN090 TEMPO 0805/0809 6SM TSRA BKN020CB FM080900 03005KT 5SM HZ SCT015CB BKN070 SCT050 TEMPO 0810/0814 5SM TSRA BKN015CB FM081500 03004KT 5SM HZ SCT020 BKN080", "TAF MMMV 071735Z 0718/0818 04010KT P6SM SCT030 BECMG 0721/0722 BKN030 FM080200 16005KT P6SM SCT030 SCT100 PROB40 0810/0814 00000KT 6SM HZ BKN030", "TAF COR MMMX 072159Z 0718/0818 24005KT P6SM SCT025 TX25/0721Z TN15/0812Z FM072100 13010G20KT P6SM SCT020CB BKN250 TEMPO 0722/0802 3SM TSRA BKN015CB FM080200 13005G15KT 5SM -TSRA BKN015CB BKN080 OVC250 FM080600 00000KT P6SM SCT020 OVC080 FM081700 07005KT P6SM SCT020 BKN100", "TAF COR MMMY 072138Z 0718/0818 12015KT 6SM HZ BKN020 TX33/0721Z TN23/0812Z TEMPO 0722/0802 14015KT 4SM TSRA BKN020CB FM080200 15005KT 6SM HZ BKN030 FM080700 00000KT 5SM HZ OVC015 TEMPO 0809/0813 3SM BR HZ OVC010", "TAF MMMZ 071711Z 0718/0818 22007KT P6SM SCT025 BKN080 TX31/0721Z TN26/0812Z FM072100 27012KT P6SM VC RA BKN025CB TEMPO 0722/0802 5SM TSRA FM080200 32007KT P6SM SCT020 BKN080 TEMPO 0809/0813 4SM HZ BKN015", "TAF MMNL 071709Z 0718/0818 13015KT P6SM SCT030 BKN080 BECMG 0802/0803 14010KT SKC FM080900 13005KT 5SM HZ SCT020 TEMPO 0811/0813 2SM BR HZ BKN010 FM081300 13010KT 6SM HZ SCT020", "TAF AMD MMOX 072045Z 0721/0818 02015KT P6SM -RA BKN025CB BKN080 TEMPO 0721/0801 02020KT 3SM TSRA FM080200 04005KT 6SM HZ BKN020 OVC080 BECMG 0805/0805 5SM RA FM081000 04005KT 6SM BR HZ BKN020 BKN080 BECMG 0816/0817 06006KT SCT020 BKN080", "TAF MMPA 071709Z 0718/0818 08010KT 5SM HZ BKN020CB TEMPO 0721/0801 3SM -TSRA FM080100 09005KT 5SM HZ BKN020 BKN080 FM080900 00000KT 3SM BR HZ BKN012 BECMG 0814/0815 08005KT 5SM HZ BKN020", "TAF MMPB 071636Z 0718/0818 16010KT 6SM HZ SCT020 BKN100 BECMG 0720/0721 BKN020CB TEMPO 0722/0802 5SM TSRA FM080200 14005KT 6SM HZ SCT020CB BKN080 BKN200 TEMPO 0802/0806 6SM TSRA BKN015CB FM080800 15005KT 5SM HZ SCT015 BKN070 FM081800 14010KT P6SM SCT030 BKN200", "TAF MMPG 071709Z 0718/0818 13015KT P6SM BKN020 TEMPO 0721/0801 6SM -RA BKN020CB FM080100 12010KT P6SM SCT020 SCT080 BECMG 0803/0804 12010KT SKC FM081000 12010KT 4SM HZ SCT015 BECMG 0815/0816 12015KT P6SM SKC", "TAF MMPN 071656Z 0718/0818 18005KT P6SM SCT010 BKN080 BECMG 0720/0721 BKN020CB OVC080 TEMPO 0722/0802 5SM -TSRA FM080200 00000KT 6SM HZ BKN020 BKN080 TEMPO 0804/0808 5SM -RA FM080800 00000KT P6SM OVC010 BECMG 0814/0815 18005KT SCT020 SCT080", "TAF MMPQ 071720Z 0718/0818 09015KT 6SM HZ SCT030 SCT200 TEMPO 0722/0802 6SM TSRA BKN020CB FM080200 08008KT 6SM HZ SCT020CB BKN100 TEMPO 0802/0806 5SM TSRA BKN020CB FM080800 08005KT 6SM HZ SCT015 BKN070 TEMPO 0812/0815 3SM BR BKN010", "TAF COR MMPR 072107Z 0718/0818 24010KT P6SM SCT025 BKN100 BKN230 TX35/0721Z TN25/0812Z TEMPO 0723/0803 3SM TSRA BKN025CB FM080300 07005KT P6SM SCT030 BKN100 BKN230 PROB40 0804/0808 4SM TSRA BKN020CB FM080800 07005KT 5SM HZ SCT020 BKN090 BKN250 TEMPO 0810/0814 3SM -RA BKN015 OVC060 FM081700 24010KT P6SM SCT020 BKN090 BKN250", "TAF MMPS 071636Z 0718/0818 24010KT P6SM SCT020 BKN200 TEMPO 0800/0804 6SM TSRA BKN020CB FM080400 24005KT 6SM HZ SCT020 BKN100 BKN200 TEMPO 0804/0808 5SM TSRA BKN020CB FM081600 24005KT 6SM HZ SCT020 SCT100", "TAF MMQT 071656Z 0718/0818 11012KT 6SM HZ BKN020 OVC100 TEMPO 0721/0801 11012G22KT 3SM TSRA BKN020CB OVC100 FM080100 12005KT 6SM -RA HZ BKN020 BKN100 BECMG 0804/0805 00000KT 6SM HZ SCT020 BKN100 TEMPO 0811/0813 3SM BR HZ", "TAF COR MMRX 071911Z 0718/0818 13010G20KT P6SM BKN015CB BKN070 TEMPO 0720/0724 5SM -TSRA FM080000 12010KT 6SM HZ BKN012 BKN070 FM080600 13005KT 4SM HZ BKN010 TEMPO 0810/0813 2SM BR HZ BKN008 FM081600 13010KT 6SM HZ SCT015", "TAF MMSD 071653Z 0718/0818 14010KT P6SM SKC FM080300 16005KT P6SM SKC BECMG 0812/0813 33005KT FM081800 20010KT P6SM SKC", "TAF MMSL 071653Z 0718/0818 26010KT P6SM SCT030 FM080400 26005KT P6SM SKC FM081800 26010KT P6SM SKC", "TAF COR MMSM 072047Z 0718/0818 07010KT P6SM SCT020 SCT090 BECMG 0720/0721 12015KT BKN020CB TEMPO 0722/0802 4SM TSRA OVC020CB FM080200 33005KT 5SM -TSRA BKN020CB OVC080 FM080900 00000KT P6SM SCT020 BKN090 FM081700 04010KT P6SM SCT020 BKN090", "TAF COR MMSP 072052Z 0718/0818 04010KT P6SM SCT020 TX26/0721Z TN16/0812Z BECMG 0720/0721 10010G20KT SCT020CB TEMPO 0722/0802 4SM TSRA BKN020CB FM080200 10005KT 5SM -TSRA BKN020CB OVC080 FM080700 09005KT 5SM -RA BKN015 OVC080 TEMPO 0810/0814 2SM DZ BR OVC010 FM081400 09010KT P6SM SCT020 BKN080", "TAF COR MMTC 072007Z 0718/0818 06010KT P6SM SCT020 BECMG 0720/0721 BKN020 TEMPO 0722/0802 08010G20KT 3SM BLDU FM080900 04006KT P6SM SCT100", "TAF AMD MMTG 072106Z 0721/0818 13004KT 10SM TS SCT040CB BKN300 TEMPO 0721/0800 5SM TSRA BKN020CB FM080000 34005KT 6SM HZ BKN020 OVC060 TEMPO 0801/0805 3SM TSRA OVC020CB FM080600 00000KT 5SM HZ BKN020 BKN060 TEMPO 0810/0814 2SM BR HZ OVC020 FM081400 07005KT P6SM SCT020 BKN250", "TAF MMTJ 071711Z 0718/0818 28010KT P6SM SKC TX23/0721Z TN15/0812Z FM080500 25005KT 6SM BKN015 TEMPO 0809/0813 3SM BR OVC010", "TAF MMTM 071621Z 0718/0818 13010KT 5SM HZ SCT015 BKN080 TEMPO 0720/0724 5SM TSRA FM080000 09010KT P6SM SCT015 BKN250 PROB40 0804/0808 5SM TSRA BKN020CB FM080800 13005KT P6SM SCT015 BKN250 TEMPO 0810/0814 4SM -RA BR OVC010 FM081700 13010KT P6SM SCT020 BKN090 BKN250", "TAF COR MMTO 072049Z 0718/0818 10005KT P6SM SCT020 BKN100 TX20/0721Z TN11/0812Z BECMG 0720/0721 15015KT SCT015CB TEMPO 0723/0803 3SM TSRA BKN015CB OVC080 FM080300 04005KT 5SM HZ SCT015CB BKN080 BKN250 BECMG 0808/0809 3SM BR HZ SCT010 TEMPO 0810/0814 1/2SM FG VV005 FM081400 19005KT 5SM HZ SCT015 BKN070", "TAF MMTP 071702Z 0718/0818 24010KT P6SM SCT030 BKN200 BECMG 0720/0721 BKN020CB TEMPO 0723/0803 5SM TSRA FM080300 13010KT 5SM -TSRA BKN020CB BKN080 FM080800 07005KT P6SM SCT020 BKN090 FM081700 23010KT P6SM SCT020 BKN200", "TAF MMUN 071702Z 0718/0818 16015KT P6SM SCT015 TX30/0720Z TN28/0812Z TEMPO 0720/0724 5SM TSRA BKN015CB FM080100 13015KT P6SM SCT015 BKN090 BKN250 BECMG 0808/0809 13005KT FM081700 13010KT P6SM SCT015 BKN250", "TAF MMVA 071720Z 0718/0818 08010KT 6SM HZ SCT020 SCT070 TEMPO 0723/0803 6SM TSRA BKN020CB FM080300 08008KT 5SM HZ SCT020CB BKN070 TEMPO 0804/0808 4SM TSRA BKN015CB FM080800 06005KT 5SM HZ SCT015 BKN080 TEMPO 0810/0814 2SM -RA BR BKN010 FM081500 08005KT 5SM HZ SCT015 BKN070", "TAF MMVR 071621Z 0718/0818 07010KT 4SM HZ SCT015 BKN300 TX31/0721Z TN25/0812Z TEMPO 0803/0807 4SM TSRA OVC015CB FM080700 05005KT 4SM HZ SCT015 BKN300 FM081700 07010KT P6SM SCT020 SCT090 BKN250", "TAF COR MMZC 071941Z 0718/0818 17010KT P6SM SCT040 BKN200 TX28/0721Z TN16/0812Z BECMG 0720/0722 5SM -RA BKN020CB TEMPO 0723/0803 3SM TSRA FM080300 04005KT 5SM -TSRA BKN020CB OVC070 FM080800 23005KT 5SM -RA BKN020 OVC080 BECMG 0810/0811 4SM HZ FM081700 23005KT P6SM SCT020 BKN250", "TAF COR MMZH 072049Z 0718/0818 15010G25KT 6SM HZ SCT020 BKN090 BKN250 TEMPO 0802/0806 6SM TSRA BKN020CB FM080600 24005KT 6SM HZ SCT020 BKN250 FM081600 20005KT 6SM HZ SCT020 BKN090", "TAF MMZO 071649Z 0718/0818 24010KT P6SM SCT020 BKN120 BKN250 TEMPO 0722/0802 BKN020CB VC TS FM080200 13005KT P6SM SCT020CB BKN130 BKN090 PROB40 0810/0814 5SM TSRA BKN020CB FM081400 17010KT P6SM SCT020 BKN090 BKN250", "TAF MPDA 071700Z 0718/0806 03006KT 9999 SCT018 PROB40 0720/0724 18005KT 6000 TSRA SCT014CB BKN070", "TAF MPMG 071700Z 0718/0806 32006KT 9999 SCT018 SCT090 PROB30 TEMPO 0720/0724 17005KT 6000 TSRA SCT014CB BKN070", "TAF MPPA 071700Z 0718/0824 33004KT 9999 SCT018 SCT090 PROB30 TEMPO 0720/0724 19004KT 6000 TSRA SCT014CB BKN070 TEMPO 0808/0812 00000KT PROB40 TEMPO 0818/0820 5000 TSRA SCT014CB BKN070", "TAF MPSM 071700Z 0718/0824 32006KT 9999 SCT018 SCT090 PROB30 0820/0824 17009KT 6000 TSRA SCT014CB BKN070", "TAF COR MPTO 071712Z 0718/0824 27004KT 9999 SCT018 SCT090 PROB30 TEMPO 0720/0724 6000 TSRA SCT014CB BKN070 TEMPO 0808/0812 VRB02KT PROB40 TEMPO 0818/0820 5000 TSRA SCT014CB BKN070", "MRLB 071700Z 0718/0818 26007KT 9999 SCT035 BKN140 TX33/0719Z TN22/0811Z TEMPO 0721/0803 RA FEW025TCU TEMPO 0808/0814 VRB02KT BCFG SCT010 ", "MRLM 071700Z 0718/0818 22004KT 9999 FEW020 BKN100 TX32/0720Z TN23/0811Z TEMPO 0800/0804 DZ FEW020TCU TEMPO 0815/0817 06007KT ", "MROC 071700Z 0718/0818 12005KT 9999 FEW030 BKN120 TX29/0718Z TN19/0811Z TEMPO 0720/0724 24007KT SHRA SCT020TCU BKN030 TEMPO 0800/0805 VRB02KT 5000 BR BKN015 BECMG 0804/0806 07005KT BECMG 0815/0818 25006KT ", "TAF COR MRPV 071725Z 0718/0818 13006KT 9999 FEW025 BKN130 TX28/0718Z TN18/0810Z TEMPO 0720/0723 28005KT RA SCT015TCU BKN030 TEMPO 0723/0804 VRB02KT 5000 DZ BR BKN015 BECMG 0804/0806 12005KT", "TAF MTCH 071600Z 0718/0818 05010KT 9000 FEW030TCU BECMG 0808/0812 VRB02KT FM081400 01010KT 9000 FEW025", "TAF MTPP 071600Z 0718/0818 10016KT 9000 FEW027 BECMG 0719/0723 10015G25KT TEMPO 0802/0806 30010KT FM080800 VRB02KT 8000 NSC TEMPO 0812/0816 10012KT", "MUCC 071700Z 0718/0818 09010KT 9000 SCT020 BECMG 0801/0803 VRB03KT FEW020 BECMG 0814/0815 10008KT SCT020", "MUCF 071700Z 0718/0806 21006KT 9000 SCT025 TEMPO 0720/0723 5000 SHRA RA FEW018CB BKN020", "MUCL 071700Z 0718/0806 12010KT 9000 SCT020 BECMG 0802/0804 VRB04KT", "MUCM 071700Z 0718/0818 06010KT 9000 SCT020 TEMPO 0720/0723 5000 SHRA RA FEW018CB BKN030 BECMG 0801/0802 VRB03KT FEW020 BECMG 0814/0816 05008KT SCT020", "MUCU 071700Z 0718/0818 16008KT 9000 SCT020 TEMPO 0721/0723 5000 SHRA RA FEW020CB BKN020 BECMG 0801/0802 35005KT BECMG 0814/0815 15006KT", "TAF MUGM 0715/0815 11006KT 9999 FEW140 FEW250 QNH2995INS BECMG 0716/0718 14010KT 9999 FEW030 FEW150 SCT250 QNH2992INS BECMG 0722/0724 07006KT 9999 FEW030 FEW250 QNH2994INS FM080200 33006KT 9999 FEW025 FEW250 QNH2993INS TX33/0718Z TN25/0811Z FN20097", "MUHA 071700Z 0718/0818 VRB05KT 9000 FEW030", "MUHG 071700Z 0718/0818 07010KT 9000 FEW020 TEMPO 0720/0724 BKN030 BECMG 0801/0802 VRB03KT FEW025 BECMG 0814/0815 09008KT SCT025", "MUSC 071700Z 0718/0818 07008KT 9000 SCT020 TEMPO 0720/0723 5000 SHRA RA FEW018CB BKN030 BECMG 0801/0802 VRB03KT FEW020 BECMG 0814/0816 08007KT SCT020", "MUVR 071700Z 0718/0818 05007KT 9000 SCT020 TEMPO 0721/0801 5000 SHRA RA FEW020CB BKN020 BECMG 0802/0803 VRB03KT FEW020 BECMG 0814/0816 08006KT SCT020", "TAF MWCB 071700Z 0718/0818 10012KT 9999 FEW018", "TAF MWCR 071700Z 0718/0818 10012KT 9999 FEW018", "TAF MYGF 071530Z 0718/0818 23008KT 9000 VCTS SHRA FEW015CB BKN020 BECMG 0800/0802 VRB02KT 9999 VCSH FEW018CB SCT025 BECMG 0812/0814 25010KT", "MYNN 071530Z 0718/0818 16008KT 9999 SCT022 TEMPO 0804/0810 VRB02KT CAVOK PROB30 TEMPO 0812/0818 9000 HZ", "TAF NCRG 071704Z 0718/0818 11003KT 9999 -SHRA SCT030 PROB40 TEMPO 0806/0818 5000 SHRA BKN015", "TAF NFFN 071702Z 0718/0818 12003KT 9999 FEW030 BECMG 0722/0724 28010KT BECMG 0804/0806 12006KT", "TAF NFNA 071703Z 0718/0818 11005KT 9999 SCT018 BKN045", "TAF NFTF 071703Z 0718/0818 10005KT 9999 FEW016 SCT040", "TAF NFTV 071703Z 0718/0818 14005KT 9999 FEW996 SCT018", "TAF NGFU 071706Z 0718/0818 09012KT 9999 SCT018 PROB30 TEMPO 0720/0812 11015G25KT", "TAF NGTA 071705Z 0718/0818 09006KT 9999 -SHRA SCT018 SCT040 PROB30 TEMPO 0806/0818 5000 TSRA BKN015 FEW017CB", "TAF NIUE 071703Z 0718/0818 13003KT 9999 SCT018", "TAF NLWF 071700Z 0718/0818 09018KT 9999 FEW025 SCT030 PROB30 TEMPO 0718/0721 4500 SHRA BKN014 SCT020TCU", "TAF NLWW 071700Z 0718/0818 11008KT 9999 FEW020 SCT045 PROB30 TEMPO 0718/0721 4500 SHRA BKN014 SCT020TCU TEMPO 0808/0812 4500 SHRA BKN014 SCT020TCU", "TAF NSFA 071704Z 0718/0818 10004KT 9999 FEW028", "NSTU 071720Z 0718/0818 12013KT P6SM SCT020 SCT050", "TAF NTAA 071700Z 0718/0824 VRB05KT 9999 FEW026 BECMG 0718/0720 05020G30KT BECMG 0802/0804 VRB05KT", "TAF NVSC 071700Z 0718/0818 VRB02KT 9999 FEW020", "TAF NVSG 071700Z 0718/0818 VRB02KT 9999 FEW020 BKN130", "TAF NVSL 071700Z 0718/0818 VRB02KT 9999 FEW020", "TAF NVSP 071700Z 0718/0818 VRB02KT 9999 FEW020", "TAF NVSS 071700Z 0718/0818 VRB02KT 9999 FEW020", "TAF NVVA 071700Z 0718/0818 VRB02KT 9999 SCT020 BKN130", "TAF NVVV 071700Z 0718/0818 VRB02KT 9999 SCT020 BKN130", "TAF NVVW 071700Z 0718/0818 VRB02KT 9999 SCT020 BKN130", "TAF NWWD 071700Z 0718/0818 VRB02KT 9999 BKN045 PROB30 TEMPO 0718/0724 SHRA BKN012 BKN025 BECMG 0723/0802 24010KT", "TAF NWWE 071700Z 0718/0818 VRB02KT 9999 BKN035 PROB30 TEMPO 0718/0721 SHRA BECMG 0722/0801 27010KT", "TAF NWWK 071700Z 0718/0818 VRB02KT 9999 SCT045 PROB30 TEMPO 0718/0724 SHRA BKN012 BKN025 BECMG 0722/0724 18010KT", "TAF NWWL 071700Z 0718/0818 VRB02KT 9999 BKN035 PROB30 TEMPO 0718/0724 SHRA TEMPO 0810/0818 4000 SHRA BKN010", "TAF NWWM 071700Z 0718/0818 VRB02KT 9999 BKN035 PROB30 TEMPO 0718/0722 4000 SHRA BKN014 BECMG 0722/0724 26010KT TEMPO 0805/0815 4000 SHRA BKN010", "TAF NWWR 071700Z 0718/0818 VRB02KT 9999 BKN035 PROB30 TEMPO 0718/0724 SHRA BKN010 TEMPO 0810/0818 4000 SHRA BKN010", "TAF NWWU 071700Z 0718/0818 VRB02KT 9999 SCT040", "TAF NWWW 071700Z 0718/0818 VRB02KT 9999 FEW035 BKN045 PROB30 TEMPO 0718/0722 SHRA BKN012 BKN025 BECMG 0800/0803 19012KT TEMPO 0805/0815 4000 SHRA BKN010", "TAF NZAA 072014Z 0721/0900 04008KT 9999 -SHRA FEW008 BKN020 TEMPO 0723/0806 6000 SHRA BKN012 SCT020TCU PROB30 TEMPO 0801/0805 2000 TSRA SCT020CB BECMG 0802/0804 34010KT BECMG 0807/0809 VRB02KT PROB30 0812/0815 0500 FG BECMG 0813/0815 22010KT TEMPO 0815/0818 6000 SHRA BECMG 0820/0822 24020KT", "TAF AMD NZCH 072130Z 0721/0900 01005KT 9999 -RA FEW015 BKN030 TEMPO 0721/0805 5000 RA BKN014 BECMG 0800/0802 04015KT BECMG 0803/0805 BKN012 TEMPO 0805/0821 4000 RA BKN008", "TAF NZQN 071700Z 0718/0812 03008KT 9999 SCT040", "TAF NZWN 072014Z 0721/0900 04008KT 9999 SCT060 TEMPO 0721/0803 6000 RA BECMG 0802/0804 14010KT BECMG 0804/0806 04008KT TEMPO 0818/0900 5000 RA", "TAF OBBI 071700Z 0718/0900 VRB05KT 9000 NSC", "TAF OEAB 071100Z 0712/0818 20012KT 7000 SCT020 TEMPO 0712/0718 TSRA BKN020 FEW025CB BECMG 0718/0720 34005KT 9999 FEW020 BECMG 0806/0808 02010KT BECMG 0810/0812 20013KT 7000 SCT020 TEMPO 0810/0818 TSRA FEW025CB BKN020", "TAF OEAH 070920Z 0712/0818 02010KT CAVOK BECMG 0719/0721 24010KT BECMG 0804/0806 33012KT", "TAF OEAO 071100Z 0712/0818 27012KT CAVOK BECMG 0718/0720 20006KT BECMG 0802/0804 36014KT BECMG 0808/0810 25012KT", "TAF OEBA 071100Z 0712/0818 27015KT 7000 SCT030 TEMPO 0712/0718 FEW025CB BECMG 0720/0722 35010KT CAVOK BECMG 0810/0812 27016KT 7000 SCT030", "TAF OEBH 071100Z 0712/0818 03010KT 9999 FEW030 BECMG 0718/0720 30006KT CAVOK BECMG 0800/0802 VRB03KT BECMG 0806/0808 35010KT 9999 FEW030", "TAF OEDF 071550Z 0718/0824 VRB03KT CAVOK BECMG 0721/0723 24007KT BECMG 0804/0806 34012KT", "TAF OEDM 071100Z 0712/0818 36010KT CAVOK BECMG 0718/0720 10010KT BECMG 0802/0804 20006KT BECMG 0810/0812 27008KT", "TAF OEDR 070920Z 0712/0818 04012KT CAVOK BECMG 0716/0718 19008KT BECMG 0722/0800 VRB02KT PROB30 TEMPO 0801/0805 5000 HZ NSC BECMG 0806/0808 05008KT ", "TAF OEGN 071100Z 0712/0818 30012KT 7000 SCT030 PROB30 TEMPO 0712/0718 TS FEW035CB BECMG 0720/0722 VRB03KT FEW030 BECMG 0806/0808 24012KT SCT030", "TAF OEGS 071100Z 0712/0818 35010KT CAVOK BECMG 0722/0800 VRB03KT BECMG 0808/0810 27008KT", "TAF OEGT 071100Z 0712/0818 32016KT CAVOK BECMG 0718/0720 34006KT 7000 NSC BECMG 0804/0806 28014KT CAVOK", "TAF OEHL 071100Z 0712/0818 36008KT CAVOK BECMG 0720/0722 VRB03KT BECMG 0808/0810 27010KT", "TAF OEJN 071700Z 0718/0824 36005KT CAVOK BECMG 0806/0808 30014KT BECMG 0818/0820 36005KT", "TAF OEKJ 071100Z 0712/0818 36012KT CAVOK BECMG 0720/0722 VRB03KT BECMG 0806/0808 02012KT", "TAF OEKM 071100Z 0712/0818 20012KT 7000 SCT020 TEMPO 0712/0718 TSRA BKN020 FEW025CB BECMG 0718/0720 34005KT 9999 FEW020 BECMG 0806/0808 02010KT BECMG 0810/0812 20013KT 7000 SCT020 TEMPO 0810/0818 TSRA FEW025CB BKN020", "TAF OEMA 071700Z 0718/0824 35005KT CAVOK BECMG 0806/0808 28012KT BECMG 0818/0820 35005KT", "TAF OENG 071100Z 0712/0818 04010KT 9999 FEW030 BECMG 0718/0720 34008KT BECMG 0808/0810 04012KT", "TAF OEPA 070920Z 0712/0818 35012KT CAVOK", "TAF OEPS 071700Z 0717/0823 VRB06KT 9999 SKC QNH2957INS BECMG 0806/0807 36010G20KT 9999 SKC QNH2963INS TEMPO 0810/0814 36015G25KT BECMG 0815/0816 VRB06KT 9999 SKC QNH2960INS TX45/0812Z TN29/0801Z", "TAF OERF 071100Z 0712/0818 32010KT CAVOK BECMG 0720/0722 VRB03KT BECMG 0800/0802 26006KT", "TAF OERK 071700Z 0718/0824 VRB03KT CAVOK BECMG 0806/0808 36012KT 7000 NSC BECMG 0818/0820 02006KT", "TAF OERR 071100Z 0712/0818 33012KT CAVOK BECMG 0808/0810 27008KT", "TAF OESH 071100Z 0712/0818 02010KT 9999 SCT040 BECMG 0718/0720 VRB03KT FEW040 BECMG 0804/0806 20006KT BECMG 0808/0810 36010KT", "TAF OESK 071100Z 0712/0818 27010KT CAVOK BECMG 0718/0720 33010KT", "TAF OETB 071100Z 0712/0818 27008KT CAVOK BECMG 0716/0718 33010KT BECMG 0800/0802 VRB03KT BECMG 0808/0810 27008KT", "TAF OETF 071100Z 0712/0818 30018KT 9999 FEW030 PROB30 TEMPO 0712/0718 FEW025CB SCT030 BECMG 0718/0720 30008KT CAVOK BECMG 0806/0808 30018KT 9999 FEW030", "TAF OETR 071100Z 0712/0818 28013KT CAVOK BECMG 0718/0720 34006KT BECMG 0806/0808 27010KT", "TAF OEWD 071100Z 0712/0818 02010KT CAVOK BECMG 0720/0722 VRB03KT BECMG 0808/0810 36010KT", "TAF OEWJ 071100Z 0712/0818 30016KT CAVOK BECMG 0718/0720 VRB03KT 7000 NSC PROB30 TEMPO 0800/0805 3000 BR BECMG 0804/0806 12010KT BECMG 0808/0810 30015KT CAVOK", "TAF OEYN 071100Z 0712/0818 28020KT 7000 NSC BECMG 0718/0720 30008KT CAVOK BECMG 0806/0808 27018KT 7000 NSC", "TAF OIAA 071710Z 0718/0824 14006KT 7000 NSC TEMPO 0800/0806 4000 HZ BECMG 0806/0807 30006KT TEMPO 0807/0815 31014KT", "TAF OIAW 071710Z 0718/0824 24006KT 7000 NSC TEMPO 0800/0808 5000 HZ", "TAF OIBB 072000Z 0721/0806 16006KT CAVOK BECMG 0723/0724 5000 BR/HZ NSC PROB40 0800/0803 2000 BR BECMG 0805/0806 24010KT 6000", "TAF OIBK 071710Z 0718/0824 29008KT 6000 NSC BECMG 0718/0720 4000 BR FEW030 TEMPO 0720/0804 2000 BR PROB30 1500 BR BKN030 BECMG 0804/0806 6000 HZ TEMPO 0807/0814 28016KT 4000 HZ BECMG 0815/0817 3000 BR", "TAF OIBP 072000Z 0721/0806 03006KT 7000 NSC BECMG 0722/0724 4000 BR/HZ TEMPO 0800/0803 2000 BR BECMG 0803/0804 6000", "TAF OICC 072000Z 0721/0806 08008KT CAVOK", "TAF OICI 071710Z 0718/0824 12008KT 8000 NSC TEMPO 0810/0816 25012KT", "TAF OIFM 071710Z 0718/0824 07008KT 8000 NSC TEMPO 0802/0806 4000 HZ SCT030 TEMPO 0809/0812 16016KT PROB30 TEMPO 0817/0820 09018G28KT 4000 SA", "TAF OIGG 072000Z 0721/0806 18006KT 5000 BR FEW025 PROB40 0721/0804 1500 BR BECMG 0804/0805 6000", "TAF OIIE 071710Z 0718/0824 12006KT 8000 NSC BECMG 0804/0806 11016KT BECMG 0818/0820 12006KT", "TAF OIII 071710Z 0718/0824 14006KT 8000 NSC TEMPO 0807/0815 15015KT", "TAF OIIP 072000Z 0721/0806 09010KT 8000 NSC TEMPO 0801/0805 5000 HZ", "TAF OIKB 071710Z 0718/0824 10008KT 5000 HZ FEW100 TEMPO 0720/0803 4000 BR/HZ FEW035CB SCT040 BKN090 PROB30 TEMPO 0803/0807 4000 HZ FEW035TCU TEMPO 0809/0814 21016G24KT 3000 SA PROB30 1500 SA", "TAF OIKK 071710Z 0718/0824 35008KT 8000 FEW050 TEMPO 0808/0815 01018G30KT 3000 DU/SA", "TAF OIMM 071710Z 0718/0824 35006KT 8000 FEW040 BECMG 0805/0807 07008KT TEMPO 0808/0818 06018KT FEW035TCU SCT040", "TAF OING 072000Z 0721/0806 15006KT 7000 NSC PROB30 0721/0803 5000 BR/HZ", "TAF OINZ 072000Z 0721/0806 12006KT 7000 NSC PROB40 0723/0802 2500 BR", "TAF OISL 071710Z 0718/0824 11006KT 8000 FEW040 TEMPO 0810/0816 22012KT", "TAF OISS 071710Z 0718/0824 12006KT 8000 FEW040 TEMPO 0810/0818 27014KT", "TAF OITL 072000Z 0721/0806 25006KT 7000 NSC PROB40 0800/0805 2000 BR BECMG 0805/0806 09010KT", "TAF OITR 071710Z 0718/0824 27006KT 8000 FEW040 BECMG 0806/0808 22008KT TEMPO 0808/0816 23012G24KT BECMG 0818/0820 28006KT", "TAF OITT 071710Z 0718/0824 06008KT 8000 FEW030 TEMPO 0718/0724 05012G22KT BECMG 0806/0808 24008KT TEMPO 0808/0817 24018KT FEW035TCU SCT040 BECMG 0818/0820 08008KT", "TAF OIYY 072000Z 0721/0806 24006KT CAVOK", "TAF OIZH 071710Z 0718/0824 03014KT 3000 SA NSC BECMG 0720/0722 03010KT 7000 BECMG 0803/0805 32016KT 3000 DU SA TEMPO 0806/0815 34018G28KT 1500 SA/DU PROB30 TEMPO 0808/0814 03020G36KT 0800 DS BECMG 0816/0818 03012KT", "TAF OJAI 071643Z 0718/0824 30012KT 5000 HZ NSC PROB30 TEMPO 0718/0721 29018KT 3000 BLDU PROB30 TEMPO 0800/0805 VRB02KT 2000 BR", "TAF OJAM 071643Z 0718/0824 27012KT 5000 HZ NSC PROB30 TEMPO 0800/0805 VRB02KT 3000 BR", "TAF OJAQ 071643Z 0718/0824 36014KT 7000 NSC", "TAF OKAS 071600Z 0716/0822 31012KT 9999 SKC QNH2948INS BECMG 0805/0806 31012G20KT 9999 SKC QNH2953INS BECMG 0815/0816 31012KT 9999 SKC QNH2948INS TX48/0811Z TN31/0802Z", "TAF OMAA 071700Z 0718/0900 36006KT 8000 NSC PROB30 0800/0803 4000 HZ BECMG 0803/0805 16008KT BECMG 0808/0810 32013KT BECMG 0818/0820 02005KT", "TAF OMAD 071700Z 0718/0900 02006KT 8000 NSC PROB30 0800/0803 4000 HZ BECMG 0803/0805 15006KT BECMG 0807/0809 33012KT BECMG 0815/0817 03005KT", "TAF OMAL 071700Z 0718/0900 32009KT 8000 NSC BECMG 0719/0720 05005KT BECMG 0723/0801 16014KT BECMG 0811/0813 32012KT BECMG 0819/0821 03005KT", "TAF OMDB 071700Z 0718/0900 06005KT CAVOK BECMG 0803/0805 16010KT BECMG 0808/0810 34013KT BECMG 0816/0818 12005KT", "TAF OMDW 071700Z 0718/0900 VRB02KT 7000 NSC PROB30 0801/0805 4000 DU BECMG 0802/0804 16014KT BECMG 0809/0811 33015KT BECMG 0816/0818 14005KT", "TAF OMFJ 071700Z 0718/0900 14005KT 6000 NSC PROB30 0722/0804 VRB03KT 4000 BR FEW018 BECMG 0805/0807 10010KT BECMG 0815/0817 VRB03KT", "TAF OMRK 071700Z 0718/0900 12008KT CAVOK PROB40 0808/0810 34013KT BECMG 0815/0817 10005KT", "TAF OMSJ 071700Z 0718/0900 14008KT CAVOK BECMG 0809/0811 33014KT BECMG 0816/0818 12005KT", "TAF OODQ 071700Z 0718/0818 20018KT 7000 FEW020 PROB40 TEMPO 0722/0804 4000 BR BKN010 PROB30 TEMPO 0723/0802 0800 FG", "TAF OOMS 071700Z 0718/0824 VRB02KT 8000 NSC BECMG 0720/0722 21012KT BECMG 0806/0808 05014KT BECMG 0815/0817 VRB02KT BECMG 0820/0822 21012KT", "TAF OOSA 071740Z 0718/0900 VRB03KT 7000 FEW009 BKN013 OVC025 TEMPO 0720/0806 3000 DZ SCT003 BKN009 OVC018 BECMG 0806/0808 19010KT", "TAF OOSH 071700Z 0718/0824 VRB02KT 8000 NSC PROB30 TEMPO 0723/0803 4000 BR BKN020 BECMG 0806/0808 08012KT BECMG 0815/0817 VRB02KT", "TAF OPFA 071735Z 0718/0824 07006KT 4000 FU SCT040 BKN100 TX34/0810Z TN25/0800Z TEMPO 0722/0802 05020G35KT 1500 TSRA FEW030CB SCT040 BKN100 FM080500 09008KT 5000 FU SCT040 SCT100 TEMPO 0810/0814 36015G30KT 2000 TSRA FEW030CB SCT040 BKN100", "TAF OPGD 071735Z 0718/0818 23008KT 5000 HZ FEW030 TEMPO 0800/0804 VRB03KT 2000 BR SCT025 FM080600 23010G20KT 5000 HZ SCT030", "TAF OPIS 071735Z 0718/0824 23009KT 6000 SCT040 BKN100 PROB30 TEMPO 0722/0804 13015G30KT 1500 TSRA FEW030CB SCT040 OVC100 BECMG 0804/0808 12006G16KT 6000 FEW040 SCT100 FM081300 25009KT 6000 NSC TEMPO 0820/0824 10009KT 4000 FU FEW040", "TAF OPKC 071735Z 0718/0824 25010G20KT 5000 FU SCT030 BKN100 TEMPO 0718/0724 05020G30KT 1500 DS/-TSRA FEW025CB BKN030 OVC080 TEMPO 0809/0815 05020G30KT 1500 DS/-TSRA FEW205CB BKN030 OVC080", "TAF OPLA 071735Z 0718/0824 12010KT 5000 FU SCT040 SCT100 TX30/0810Z TN24/0800Z TEMPO 0800/0806 15020G45KT 0800 TSRA FEW030CB SCT040 OVC100 TEMPO 0818/0824 04015G35KT 0800 TSRA FEW030CB SCT040 OVC100", "TAF OPMT 071735Z 0718/0824 05010KT 4000 FU FEW040 SCT100 TN29/0801Z TX38/0810Z PROB30 TEMPO 0809/0813 05025KT 2000 TSRA FEW030CB SCT040 BKN100 TEMPO 0820/0824 05025KT 2000 TSRA FEW030CB SCT040 BKN100", "TAF OPNH 071735Z 0718/0824 24010KT 5000 HZ SCT030 SCT100 TEMPO 0718/0724 04020G30KT 1500 DS/TSRA FEW025CB BKN030 OVC090 TEMPO 0809/0815 04020G30KT 1500 DS/TSRA FEW025CB SCT030 OVC090", "TAF OPPS 071700Z 0718/0824 05008KT 5000 HZ SCT060 BKN100 TEMPO 0722/0802 18010G25KT 4000 TSRA FEW035CB BECMG 0804/0807 05008KT 5000 HZ FEW060 SCT080 BKN100", "TAF OPSK 071735Z 0718/0818 13010KT 4000 HZ SCT040 BKN100 TEMPO 0718/0724 04020G30KT 1500 DS/TSRA FEW025CB SCT030 OVC090 TEMPO 0806/0812 04020G30KT 1500 DS/TSRA FEW025CB SCT030 OVC090", "TAF OPST 071735Z 0718/0824 13007KT 4000 FU SCT040 SCT100 TX31/0810Z TN24/0800Z TEMPO 0718/0724 05015G35KT 1500 TSRA FEW030CB SCT040 BKN100 TEMPO 0800/0806 05015G30KT 2000 TSRA FEW030CB BKN040 OVC100 TEMPO 0806/0812 13015G25KT 2500 -TSRA FEW030CB SCT040 OVC100", "TAF ORER 071700Z 0718/0818 23008KT 8000 NSC BECMG 0722/0724 VRB02KT", "TAF ORSU 071700Z 0718/0818 29006KT CAVOK BECMG 0808/0810 25015KT 8000 NSC BECMG 0816/0818 31006KT", "TAF OTBD 071703Z 0718/0824 09005KT CAVOK TEMPO 0718/0807 VRB02KT PROB30 TEMPO 0722/0804 5000 HZ NSC", "TAF OTBH 071600Z 0716/0822 VRB06KT 9999 SKC QNH2948INS BECMG 0810/0811 33010G15KT 9999 SKC QNH2945INS BECMG 0817/0818 VRB06KT 9999 SKC QNH2946INS TX47/0812Z TN29/0802Z", "TAF OTHH 071703Z 0718/0824 09005KT CAVOK TEMPO 0718/0807 VRB02KT PROB30 TEMPO 0722/0804 5000 HZ NSC", "PAAQ 071750Z 0718/0818 23006KT P6SM OVC015 FM072200 25006KT P6SM -SHRA SCT015 OVC035 FM080400 VRB04KT 5SM SHRA BR SCT010 OVC025 FM081000 VRB04KT P6SM -SHRA SCT005 OVC012 FM081700 12003KT P6SM OVC035", "PABE 071731Z 0718/0818 22008KT P6SM VCSH SCT015 SCT025 TEMPO 0718/0722 5SM -RA BR BKN025 FM080000 20011KT P6SM SCT030 OVC050", "TAF AMD PABI 072031Z 0720/0820 24025G30KT 9999 FEW060 BKN085 OVC110 520003 QNH2977INS TEMPO 0720/0722 20030G35KT 520004 BECMG 0804/0805 18020G30KT 9999 FEW085 SCT110 OVC160 520002 QNH2969INS BECMG 0807/0808 VRB06KT 9999 BKN025 OVC040 510032 QNH2975INS BECMG 0810/0811 31012G20KT 9000 -SHRA BKN011 OVC018 520032 QNH2980INS BECMG 0814/0815 30006KT 9000 -SHRA BKN019 OVC026 520043 QNH2988INS BECMG 0816/0817 VRB06KT 9000 BR FEW015 BKN019 OVC027 510043 QNH2992INS TX25/0800Z TN10/0810Z", "PABR 072014Z 0720/0818 08007KT 1/2SM -SHRA FG BKN002 FM080000 05008KT P6SM SCT005 OVC010", "PABT 071727Z 0718/0818 VRB05KT P6SM -SHRA SCT015 BKN035 FM080300 25013KT 5SM SHRA BR BKN025", "PACD 071731Z 0718/0818 25005KT P6SM BKN015 OVC025 TEMPO 0718/0720 BKN025 FM072100 18011G20KT P6SM SCT020 OVC030 FM080400 16020G28KT 6SM -RA BR BKN007 OVC015", "PACV 072017Z 0720/0818 20003KT P6SM OVC007 TEMPO 0721/0724 2SM -DZ OVC007 FM081600 VRB02KT P6SM OVC015", "PADL 071731Z 0718/0818 22008KT P6SM -SHRA SCT015 OVC030 TEMPO 0718/0722 4SM -RA BR BKN015 FM072200 18010KT P6SM -SHRA SCT030 BKN040 FM080600 15006KT P6SM OVC015", "PADQ 072021Z 0720/0818 18012KT P6SM BKN120 FM072100 20010KT P6SM VCSH OVC020 FM081200 21005KT P6SM OVC012", "PADU 071731Z 0718/0818 VRB05KT P6SM SCT025 OVC045 FM072200 20014KT P6SM SCT020 OVC045", "TAF PAED 072100Z 0721/0903 23010G15KT 9999 VCSH SCT010 BKN020 OVC040 620804 510309 QNH2994INS TEMPO 0721/0802 9000 -SHRA BECMG 0803/0804 19006KT 9999 -RA SCT030 BKN050 OVC080 620804 510309 QNH2995INS BECMG 0810/0811 VRB06KT 9999 NSW SCT015 BKN030 OVC050 QNH2998INS BECMG 0818/0819 VRB06KT 9999 SCT040 SCT080 QNH3003INS TX14/0820Z TN10/0810Z", "TAF PAEI 071400Z 0714/0820 VRB03KT 9999 VCSH BKN100 621008 QNH2970INS TEMPO 0718/0721 28009KT 9999 -SHRA BKN060 620804 BECMG 0800/0801 32008KT 9000 -SHRA OVC060 620806 QNH2965INS TEMPO 0804/0812 24012G18KT 9999 VCTS SCT050CB BECMG 0812/0813 23012G18KT 8000 -RA OVC040 620808 QNH2982INS BECMG 0818/0819 22012G20KT 9999 NSW SCT070 BKN100 621002 QNH2986INS TX21/0800Z TN10/0814Z", "PAEN 071736Z 0718/0818 22013KT P6SM VCSH SCT015 BKN035 FM080600 19010KT P6SM BKN015", "PAFA 071727Z 0718/0824 VRB04KT P6SM -SHRA SCT025 BKN040 FM072100 24006KT P6SM VCSH BKN050 BKN090 FM080400 25010KT 6SM -SHRA BR BKN025", "TAF PAFB 071400Z 0714/0820 VRB05KT 8000 -SHRA BKN050 OVC080 621004 QNH2976INS BECMG 0718/0719 VRB05KT 9999 NSW SCT060 BKN090 621005 QNH2971INS BECMG 0723/0724 VRB06KT 9000 -SHRA SCT040 OVC060 620908 QNH2966INS TEMPO 0801/0805 VCTS BKN040CB BECMG 0809/0810 24015G25KT 6000 -SHRA OVC020 620805 QNH2968INS BECMG 0815/0816 24015G25KT 9999 NSW SCT020 OVC035 620607 QNH2975INS TX23/0723Z TN09/0812Z", "PAGA 071727Z 0718/0818 15005KT P6SM -SHRA BKN035 AMD NOT SKED", "PAGK 071736Z 0718/0818 17012G24KT P6SM SCT200 FM072000 16020G30KT P6SM BKN100 FM081000 17007KT P6SM OVC035 FM081500 16007KT P6SM OVC050", "PAGS 071736Z 0718/0818 24007KT P6SM SKC FM080800 19005KT P6SM SKC FM081000 VRB04KT 4SM BR BKN010 AMD LTD TO CLD VIS AND WIND", "PAGY 071736Z 0718/0818 21005KT P6SM SKC FM072300 22015KT P6SM SKC FM080600 21006KT P6SM SKC AMD LTD TO CLD VIS AND WIND", "PAHN 071736Z 0718/0818 29007KT P6SM SKC FM072100 11012KT P6SM SKC FM081600 29004KT P6SM SKC AMD LTD TO CLD VIS AND WIND", "PAHO 071736Z 0718/0818 24009KT P6SM BKN035 TEMPO 0718/0720 SCT035 FM080700 23006KT P6SM SCT030 OVC045", "PAIL 071731Z 0718/0818 11008KT P6SM -SHRA BKN045 OVC070 TEMPO 0718/0722 5SM -RA BR FM080000 12011KT P6SM -SHRA SCT030 OVC040 FM080600 VRB04KT P6SM BKN050", "PAJN 071736Z 0718/0818 24009KT P6SM SKC FM080600 12004KT P6SM SKC", "PAKN 071731Z 0718/0818 17013G20KT P6SM -SHRA BKN025 OVC030 FM080000 22009KT P6SM VCSH BKN040 FM080900 16005KT P6SM BKN100", "PAKT 071736Z 0718/0818 33004KT P6SM SKC FM071900 32012KT P6SM SKC FM080200 14008KT P6SM SKC AMD LTD TO CLD VIS AND WIND 0806/0815", "PAKW 071736Z 0718/0818 00000KT P6SM SKC FM072000 21010KT P6SM SCT020 FM081000 VRB03KT 6SM BR SKC AMD LTD TO CLD VIS AND WIND", "PAMC 071727Z 0718/0818 18005KT 5SM -SHRA BR BKN015 OVC025", "PANC 072152Z 0722/0824 28011KT 5SM -RA BR SCT008 OVC020 FM080000 VRB05KT 5SM -RA BR SCT010 OVC035 FM080700 18010G19KT P6SM VCSH SCT015 BKN025 FM081200 18010G19KT 3SM BR VCFG SCT010 OVC015 FM081700 18009KT 3SM BR VCFG SCT015 OVC025", "PAOM 071727Z 0718/0818 24010KT P6SM VCSH BKN012 BKN040 BKN100 FM072000 18008KT P6SM OVC015 FM080200 18009KT P6SM BKN025 OVC050", "PAOR 071727Z 0718/0818 00000KT P6SM SCT200 FM080000 27010KT P6SM VCTS SCT060CB FM080800 30013KT P6SM VCSH BKN060", "PAOT 071727Z 0718/0818 18008KT P6SM -SHRA BKN008 FM072100 18007KT P6SM -SHRA SCT025 BKN050", "PAPG 071736Z 0718/0818 08006KT P6SM SKC FM080600 VRB04KT P6SM SKC AMD LTD TO CLD VIS AND WIND 0806/0815", "PAQT 071727Z 0718/0818 09010KT P6SM VCSH SCT015 OVC060 FM081000 06006KT 2SM BR OVC010", "PASC 072014Z 0720/0818 08011KT P6SM VCSH BKN035 FM080800 09010KT 2SM BR OVC010", "PASD 071731Z 0718/0818 20005KT P6SM SCT010 OVC025 FM081200 18010KT 2SM BR OVC015", "PASI 071736Z 0718/0818 32007KT P6SM SCT015 FM072000 32015KT P6SM FEW015 FM081000 31006KT 4SM BR FEW120", "PASN 071731Z 0718/0818 17009KT 6SM -RA BR OVC005 TEMPO 0718/0722 3SM BR FM072200 16016KT 2SM -RA BR OVC004 FM080400 20012KT 1/2SM FG OVC002 FM081500 20010KT 1 1/2SM BR OVC001", "TAF AMD PASY 071850Z 0718/0820 23009KT 0400 FG OVC002 QNH2963INS TEMPO 0720/0723 1600 BR OVC003 BECMG 0800/0801 16010KT 4800 -SHRA BR OVC003 QNH2935INS BECMG 0809/0810 20009KT 8000 BR OVC005 QNH2932INS BECMG 0815/0816 24012G18KT 8000 BR OVC004 QNH2930INS TX09/0722Z TN08/0814Z", "PATA 071727Z 0718/0818 29005KT P6SM OVC012 FM072100 27010KT 6SM -SHRA BR BKN025 OVC050 FM080600 27013KT 5SM SHRA BR BKN025", "PATK 071750Z 0718/0818 VRB03KT P6SM -SHRA SCT007 BKN015 OVC035 FM072000 20007KT P6SM -SHRA SCT025 OVC035 FM080300 18007KT 4SM RA BR SCT015 OVC025 FM080900 18006KT 3SM -SHRA BR BKN015 FM081300 19006KT 6SM -RA BR BKN015 OVC025", "PAUN 071727Z 0718/0818 12006KT 6SM -SHRA BR OVC020 FM072000 22008KT 6SM -RA BR BKN015 OVC030 FM080800 11007KT P6SM OVC050", "PAVD 072138Z 0722/0818 26005KT 4SM -DZ BR BKN005 FM072300 27003KT P6SM OVC009 FM080000 26005KT P6SM OVC015", "PAWG 071736Z 0718/0818 VRB04KT P6SM SKC AMD NOT SKED 0806/0815", "PAYA 071736Z 0718/0818 27005KT P6SM SKC FM080900 26010KT P6SM OVC015 AMD LTD TO CLD VIS AND WIND", "PGRO 072028Z 0720/0818 09015KT P6SM VCSH SCT012 SCT025 BKN050 TEMPO 0720/0724 6SM -SHRA BKN012", "PGSN 071918Z 0719/0818 09015G21KT P6SM VCSH FEW015 SCT025 BKN050 TEMPO 0719/0723 6SM -SHRA SCT015 BKN025", "TAF PGUA 071800Z 0718/0824 08012KT 9999 VCSH BKN011 BKN120 QNH2984INS TEMPO 0718/0802 09010G15KT 3200 SHRA BKN010 BKN020 BECMG 0802/0803 11012G18KT 9999 VCSH SCT011 QNH2983INS TEMPO 0808/0824 4800 SHRA BKN010 BKN020 TX30/0802Z TN26/0718Z", "PGUM 071918Z 0719/0824 09013G19KT P6SM VCSH FEW015 SCT025 BKN050 TEMPO 0719/0723 6SM -SHRA SCT015 BKN025", "PGWT 072204Z 0722/0818 08014KT P6SM VCSH SCT015 SCT025 BKN050 TEMPO 0722/0802 6SM -SHRA BKN015", "TAF PHHI 071500Z 0715/0821 VRB06KT 9999 SCT020 BKN035 QNH3010INS TEMPO 0715/0720 6000 -SHRA SCT015 BKN020 BECMG 0723/0724 07013G22KT 9999 SCT025 BKN035 QNH3008INS BECMG 0805/0806 08009KT 9999 SCT025 SCT035 BKN050 QNH3009INS TEMPO 0809/0813 6000 -SHRA SCT020 BKN025 TX27/0723Z TN19/0715Z", "PHJH 071720Z 0718/0818 04011KT P6SM SCT030 BKN050 FM072100 05020KT P6SM FEW040 SCT060", "PHJR 071720Z 0718/0818 05005KT P6SM FEW045 SCT060 FM072000 08011G19KT P6SM FEW045 SCT060 FM080600 05005KT P6SM FEW045 SCT060", "PHKO 071720Z 0718/0818 16009KT P6SM FEW050 FM072200 22012KT P6SM SCT040 BKN070 FM080400 VRB06KT P6SM SCT040 BKN070", "PHLI 071720Z 0718/0818 07014KT P6SM VCSH FEW025 BKN040 FM072000 05015KT P6SM SCT040 BKN060 FM081000 07015KT P6SM -SHRA SCT025 OVC040", "PHMK 071720Z 0718/0818 04010G16KT P6SM FEW025 SCT045 FM072000 04014G24KT P6SM FEW045 SCT060 FM080600 04012G18KT P6SM FEW045", "TAF PHNG 0721/0821 07010KT 9999 FEW020 SCT030 QNH3002INS TEMPO 0721/0803 08012G19KT 8000 -SHRA FEW020 BKN035 BKN060 FM080300 08012G20KT 9999 FEW020 BKN035 BKN060 QNH3002INS TEMPO 0815/0821 06012KT 8000 -SHRA BKN025 OVC040 T29/0723Z T24/0816Z", "PHNL 072107Z 0721/0824 06018G26KT P6SM VCSH SCT025 BKN045 FM080600 06012KT P6SM FEW025 SCT060 FM082100 06015G25KT P6SM FEW025 SCT045", "PHNY 071720Z 0718/0818 06008KT P6SM SCT025 FM072000 22008KT P6SM BKN025 FM080000 06014KT P6SM SCT025", "PHOG 071720Z 0718/0818 05015KT P6SM FEW040 SCT060 FM072000 05021G31KT P6SM FEW040 SCT060 FM080600 05011KT P6SM SCT060", "PHTO 072131Z 0722/0818 05008KT P6SM VCSH SCT030 BKN040 FM080600 30005KT P6SM VCSH SCT025 OVC040", "PKMJ 071720Z 0718/0818 08016KT P6SM VCSH SCT015 SCT045", "PKWA 071720Z 0718/0818 08015KT P6SM VCSH SCT015 SCT045", "TAF PLCH 071705Z 0718/0818 08008KT 9999 -SHRA SCT019 BKN040 PROB40 TEMPO 0812/0818 5000 TSRA BKN015 FEW018CB", "PMDY 071720Z 0718/0818 09006KT P6SM SCT025 SCT120 AMD NOT SKED", "PTKK 071720Z 0718/0818 VRB06KT P6SM VCSH SCT012 SCT040 BKN120 FM080400 02009KT 6SM -SHRA SCT012 BKN040", "PTPN 062335Z 0700/0724 10010KT P6SM VCSH SCT018", "PTRO 071720Z 0718/0818 VRB06KT P6SM VCSH SCT015 SCT050 BKN120", "PTSA 070523Z 0706/0806 05013KT P6SM VCSH SCT020", "PTYA 071720Z 0718/0818 VRB06KT P6SM VCSH FEW015 SCT050 BKN120", "TAF PWAK 072200Z 0722/0904 07014KT 9999 FEW021 SCT025 BKN040 QNH2990INS TX32/0723Z TN27/0813Z FOR MIL USE ONLY", "TAF RCFN 071700Z 0718/0818 30005KT 9999 FEW020 BECMG 0722/0724 09005KT TEMPO 0808/0812 18005KT FEW015 FEW020TCU BKN032 BECMG 0812/0814 30005KT", "TAF RCKH 071700Z 0718/0824 30005KT 9999 FEW015 BKN032 TEMPO 0719/0801 03005KT FEW010 BKN020 BKN040 BECMG 0801/0803 28010KT TEMPO 0808/0812 09005KT FEW010 FEW015TCU BKN020 BKN040 BECMG 0812/0814 27005KT TEMPO 0818/0824 08005KT FEW010 BKN020 BKN040", "TAF RCMQ 071700Z 0718/0818 20012KT 9999 FEW012 SCT200 TX35/0805Z TN27/0720Z TEMPO 0719/0723 FEW010 BKN200 BECMG 0801/0804 FEW010 BKN200 TEMPO 0805/0810 FEW010 SCT200 BECMG 0811/0814 FEW010 SCT200", "TAF RCNN 071700Z 0718/0818 18004KT 9999 FEW012 SCT080 TX36/0805Z TN27/0721Z BECMG 0801/0804 27008KT FEW012 SCT040 BKN050 BECMG 0808/0811 18004KT FEW012 BKN080 TEMPO 0812/0817 FEW012", "TAF RCSS 071700Z 0718/0818 29005KT 9999 FEW020 SCT200 TEMPO 0800/0806 27010KT BECMG 0808/0810 08005KT", "TAF RCTP 071700Z 0718/0824 23010KT 9999 FEW020 SCT200 BECMG 0722/0724 25018KT BECMG 0808/0810 23010KT TEMPO 0814/0820 21005KT", "TAF RJAA 071705Z 0718/0900 22010KT 8000 -SHRA FEW010 BKN020 TEMPO 0721/0800 4000 -SHRA BR FEW005 BKN008 TEMPO 0803/0809 22016G28KT", "TAF RJAH 071707Z 0718/0900 18006KT 8000 -SHRA FEW010 BKN020 BECMG 0721/0723 04004KT TEMPO 0721/0800 3000 SHRA BR FEW003 BKN005 BECMG 0801/0803 20012KT TEMPO 0821/0900 4000 -SHRA BR FEW004 BKN008", "TAF RJBB 071705Z 0718/0900 20020KT 9999 FEW020 SCT045", "TAF RJCB 071705Z 0718/0900 14005KT 9999 FEW005 BKN015 TEMPO 0718/0721 FEW001 BKN003 TEMPO 0809/0812 FEW002 BKN005 TEMPO 0812/0900 1500 BR FEW001 BKN003", "TAF RJCC 071705Z 0718/0900 18012KT 9999 FEW015 TEMPO 0718/0723 4000 BR FEW003 BKN006 TEMPO 0809/0815 1500 BR FEW001 BKN003 TEMPO 0815/0900 0700 FG VV001", "TAF RJCH 071709Z 0718/0900 04005KT 9999 FEW015", "TAF RJCK 071709Z 0718/0900 35003KT 9999 FEW006 BKN015 TEMPO 0718/0723 3000 BR FEW003 BKN005 BECMG 0721/0723 17005KT TEMPO 0806/0809 1500 BR FEW001 BKN003 TEMPO 0809/0815 0700 FG VV001 TEMPO 0815/0900 0500 FG VV001", "TAF AMD RJCM 072005Z 0720/0900 21005KT 9999 FEW015 SCT030 TEMPO 0720/0722 0700 FG VV001 BECMG 0722/0800 04011KT TEMPO 0806/0809 FEW015 BKN025 FEW025CB BECMG 0812/0815 19005KT BECMG 0821/0900 04004KT", "TAF RJEC 071705Z 0718/0900 18004KT 9999 FEW008 SCT015 BECMG 0721/0723 36005KT TEMPO 0803/0809 FEW010 BKN025 FEW025CB BECMG 0809/0812 15003KT", "TAF RJFF 071705Z 0718/0900 16010KT 9000 -SHRA FEW008 SCT015 BKN025 TEMPO 0800/0809 4000 TSRA BR FEW005 SCT010 BKN020 FEW025CB TEMPO 0818/0900 4000 TSRA BR FEW005 SCT010 BKN020 FEW025CB", "TAF RJFK 071706Z 0718/0900 21010KT 9000 -SHRA FEW005 SCT010 BKN015 TEMPO 0718/0801 FEW005 BKN008 BKN015 TEMPO 0801/0809 23017G28KT TEMPO 0809/0815 FEW005 BKN008 BKN015 TEMPO 0815/0821 FEW002 BKN005 BKN008 TEMPO 0821/0900 FEW005 BKN008 BKN015", "TAF RJFM 071706Z 0718/0900 24007KT 9999 FEW020 SCT040 TEMPO 0803/0809 24017G27KT", "TAF RJFO 071706Z 0718/0900 15005KT 9000 FEW005 SCT010 BKN040", "TAF RJFR 071705Z 0718/0900 18011KT 7000 -SHRA FEW005 SCT010 BKN015 TEMPO 0801/0809 3000 TSRA BR FEW005 SCT010 BKN015 FEW025CB TEMPO 0818/0900 3000 TSRA BR FEW005 SCT010 BKN015 FEW025CB", "TAF RJFS 071706Z 0718/0900 20015KT 8000 -SHRA FEW008 SCT010 BKN015 TEMPO 0719/0721 4000 -SHRA BR TEMPO 0721/0806 3000 TSRA BR FEW008 SCT010 BKN015 FEW020CB TEMPO 0809/0818 4000 -SHRA BR TEMPO 0818/0900 3000 TSRA BR FEW008 SCT010 BKN015 FEW020CB", "TAF RJFT 071706Z 0718/0900 21012KT 8000 -SHRA FEW008 SCT010 BKN015 TEMPO 0718/0800 4000 -SHRA BR FEW003 SCT005 BKN008 TEMPO 0800/0803 22018G30KT -TSRA FEW008 SCT010 BKN015 FEW020CB TEMPO 0803/0809 22018G30KT TEMPO 0812/0821 3000 TSRA BR FEW003 BKN005 BKN008 FEW020CB", "TAF AMD RJFU 072054Z 0720/0900 21024KT 7000 -SHRA FEW008 SCT010 BKN015 TEMPO 0720/0722 21025G35KT TEMPO 0722/0805 21025G35KT 3000 TSRA BR FEW008 SCT010 BKN015 FEW020CB TEMPO 0809/0815 FEW005 BKN008 BKN015 TEMPO 0815/0821 3000 TSRA BR FEW005 BKN008 BKN015 FEW020CB", "TAF AMD RJGG 071844Z 0718/0900 13010KT 9999 FEW010 BKN020 TEMPO 0806/0812 4000 -TSRA BR FEW004 BKN008 FEW020CB TEMPO 0815/0821 4000 -SHRA BR", "TAF RJNK 071705Z 0718/0900 18012KT 8000 -SHRA FEW015 BKN030 TEMPO 0718/0800 4000 SHRA BR TEMPO 0803/0809 3000 TSRA BR FEW010 BKN020 FEW020CB TEMPO 0815/0821 4000 SHRA BR FEW003 BKN008", "TAF RJNS 071707Z 0718/0900 24012KT 8000 -SHRA FEW005 BKN008 TEMPO 0718/0721 3000 SHRA BR FEW003 BKN005 TEMPO 0818/0900 4000 SHRA BR FEW003 BKN005", "TAF RJNT 071705Z 0718/0900 18012KT 8000 -SHRA FEW015 BKN030 TEMPO 0718/0800 4000 SHRA BR TEMPO 0806/0812 3000 TSRA BR FEW010 BKN020 FEW020CB BECMG 0812/0815 35004KT TEMPO 0812/0818 4000 SHRA BR FEW003 BKN008 BECMG 0818/0821 23005KT", "TAF RJOA 071707Z 0718/0900 24005KT 8000 FEW001 SCT005 BKN015 BECMG 0723/0801 4000 -SHRA BR BCFG FEW000 BKN008 BKN015 TEMPO 0803/0809 3000 SHRA BR BCFG FEW000 SCT003 BKN005 TEMPO 0809/0815 3000 -SHRA BR BCFG FEW000 SCT001 BKN003 TEMPO 0815/0900 1500 -SHRA BR BCFG FEW000 SCT001 BKN003", "TAF RJOB 071707Z 0718/0900 03004KT 4000 BR FEW003 BKN008 BKN015 TEMPO 0720/0800 0700 FG FEW000 SCT001 BKN003 BECMG 0721/0723 22005KT TEMPO 0803/0806 3000 SHRA BR BCFG FEW000 SCT001 BKN003 TEMPO 0806/0815 1500 SHRA BR BCFG FEW000 SCT001 BKN003 TEMPO 0821/0900 3000 SHRA BR BCFG FEW000 SCT001 BKN003", "TAF RJOC 071707Z 0718/0900 20007KT 7000 -SHRA FEW008 SCT015 BKN025 TEMPO 0718/0800 2000 TSRA BR FEW005 SCT008 BKN015 FEW020CB TEMPO 0800/0806 2000 TSRA BR FEW005 BKN008 BKN015 FEW020CB TEMPO 0806/0812 3000 SHRA BR FEW005 BKN008 BKN015 TEMPO 0812/0818 FEW005 BKN008 BKN015 TEMPO 0818/0900 3000 SHRA BR FEW005 BKN008 BKN015", "TAF RJOH 071707Z 0718/0900 22007KT 7000 -SHRA FEW008 SCT015 BKN025 TEMPO 0718/0800 2000 TSRA BR FEW005 SCT008 BKN015 FEW020CB TEMPO 0800/0806 2000 TSRA BR FEW005 BKN008 BKN015 FEW020CB TEMPO 0806/0812 3000 SHRA BR FEW005 BKN008 BKN015 TEMPO 0812/0818 FEW005 BKN008 BKN015 TEMPO 0818/0900 3000 SHRA BR FEW005 BKN008 BKN015", "TAF RJOI 0721/0821 21006KT 8000 BR SCT015 BKN030 OVC050 621808 QNH2966INS TEMPO 0721/0802 6000 -SHRA BR BKN015 BKN030 OVC050 FM080600 21008KT 6000 -SHRA BR VCTS FEW010CB BKN015 OVC030 621808 QNH2960INS TEMPO 0809/0815 VRB06KT 4800 TSRA BR FEW008CB BKN015 OVC025 FM081500 21006KT 6000 SHRA BR VCTS FEW008CB BKN015 OVC030 621609 622501 QNH2963INS BECMG 0818/0820 21006KT 8000 SHRA BR FEW008 BKN015 OVC030 621609 622501 QNH2964INS T25/0721Z T27/0803Z", "TAF RJOK 071705Z 0718/0900 19010KT 9999 FEW020 BKN040 BECMG 0809/0812 12004KT", "TAF RJOM 071707Z 0718/0900 16008KT 9999 FEW015 BKN050 TEMPO 0809/0818 4000 SHRA BR FEW003 SCT005 BKN008", "TAF RJOO 071705Z 0718/0900 22008KT 9999 FEW020 SCT045 BECMG 0803/0805 24006KT", "TAF RJOT 071707Z 0718/0900 24006KT 9999 FEW015 SCT045 BECMG 0806/0809 03004KT TEMPO 0809/0818 4000 -SHRA BR FEW003 BKN008 BKN015 BECMG 0812/0815 21006KT", "TAF RJSA 071705Z 0718/0900 21006KT 9999 FEW010 BECMG 0803/0805 04004KT TEMPO 0815/0821 4000 BR FEW003 BKN008", "TAF RJSF 071708Z 0718/0900 18006KT 8000 -SHRA FEW008 BKN015 TEMPO 0719/0804 4000 SHRA BR FEW005 BKN008 TEMPO 0815/0900 4000 SHRA BR FEW005 BKN008", "TAF RJSI 071706Z 0718/0900 02004KT 9999 FEW008 BKN015 BECMG 0723/0801 18006KT TEMPO 0723/0803 4000 -SHRA BR FEW003 BKN008", "TAF RJSK 071706Z 0718/0900 13004KT 9999 FEW010 TEMPO 0723/0803 4000 -SHRA BR FEW003 BKN008", "TAF RJSN 071708Z 0718/0900 16010KT 8000 -SHRA FEW008 BKN015 TEMPO 0718/0804 3000 SHRA BR FEW003 BKN005 BECMG 0802/0804 19008KT TEMPO 0804/0812 4000 -SHRA BR FEW003 BKN008 TEMPO 0812/0821 3000 SHRA BR FEW003 BKN005", "TAF RJSS 071708Z 0718/0900 36004KT 8000 -SHRA FEW008 BKN015 TEMPO 0720/0803 4000 SHRA BR FEW005 BKN008 BECMG 0801/0803 13010KT BECMG 0809/0812 02004KT TEMPO 0809/0818 3000 SHRA BR FEW001 BKN003 TEMPO 0818/0900 4000 -SHRA BR FEW001 BKN003", "TAF RJTT 071706Z 0718/0900 20018KT 9999 FEW020 TEMPO 0719/0722 4000 SHRA BR FEW005 BKN008 TEMPO 0803/0809 21022G32KT TEMPO 0818/0900 FEW005 BKN008", "TAF RJTY 072100Z 0721/0903 20006KT 9999 FEW020 SCT040 BKN150 QNH2974INS BECMG 0801/0802 20010G15KT 9999 VCTS FEW020CB BKN150 QNH2969INS BECMG 0812/0813 21009KT 9000 -SHRA VCTS SCT010CB BKN020 OVC100 QNH2966INS BECMG 0817/0818 20009KT 8000 -RA BR SCT010 BKN020 OVC100 QNH2966INS TEMPO 0821/0824 VRB12G18KT 6000 TSRA BKN010CB BECMG 0900/0901 20010G15KT 9999 NSW SCT020 BKN100 QNH2966INS TX32/0805Z TN24/0721Z", "TAF RKJB 071700Z 0718/0824 19007KT 7000 BKN010 BKN020 TN24/0720Z TX28/0805Z TN24/0820Z TEMPO 0718/0721 4000 -DZ BKN003 BKN020 BECMG 0811/0812 4000 BR TEMPO 0818/0821 0800 FG BKN002 BECMG 0822/0823 7000 NSW", "TAF RKJK 070755Z 0708/0814 07010G15KT 6000 -RA BR SCT008 BKN010 OVC020 QNH2950INS TEMPO 0712/0717 3200 -TSRA BKN006CB BECMG 0716/0717 21006KT 4800 SHRA BR BKN006 BKN010 QNH2952INS BECMG 0720/0721 VRB06KT 3200 -SHRA BR BKN007 OVC010 QNH2954INS BECMG 0802/0803 23009KT 9999 NSW SCT007 BKN020 QNH2957INS BECMG 0810/0811 20006KT 8000 -SHRA BR SCT007 BKN010 QNH2961INS TX27/0805Z TN20/0715Z LAST NO AMDS AFT 0708 NEXT 1000", "TAF RKNN 071700Z 0718/0824 24006KT 8000 BR BKN015 BKN025 BECMG 0721/0722 24006KT 4800 -RA BR BKN015 BKN025 WND 09006KT AFT 0800 BECMG 0806/0807 09006KT 8000 BR SCT015 BKN025 BECMG 0818/0819 24006KT 4800 -RA BR BKN015 BKN025 TX25/0806Z TN21/0821Z ", "TAF RKNW 071700Z 0718/0824 03006KT 4800 BR SCT030 BECMG 0718/0719 03006KT 4800 BR BKN030 VIS 9999 NSW AFT 0800 WND 24006KT AFT 0801 TN20/0720Z TX33/0806Z ", "TAF RKNY 071700Z 0718/0824 36006KT 3500 BR SCT010 BKN020 TN18/0718Z TX23/0803Z TN20/0819Z TEMPO 0720/0723 2000 BKN005 BECMG 0723/0801 03006KT 6000 NSW FEW010 BKN028 BECMG 0808/0810 3500 BR BKN005 TEMPO 0817/0823 12005KT 0800 FG BKN003 BECMG 0823/0824 09006KT 6000 NSW SCT010 SCT025", "TAF AMD RKPC 072200Z 0722/0824 05006KT 2500 RA SCT010 BKN030 OVC100 TN24/0722Z TX29/0806Z TN24/0816Z TEMPO 0722/0801 TSRA SCT010CB BKN025 OVC080 BECMG 0803/0804 25008KT 6000 NSW BECMG 0806/0807 SCT030 BKN120 BECMG 0812/0813 06006KT FEW010 BKN035", "TAF RKPK 071700Z 0718/0824 36006KT 6000 SCT010 BKN020 TN20/0721Z TX26/0806Z TEMPO 0718/0723 4800 -RA BR SCT010 BKN015 BECMG 0723/0724 21006KT 4800 -RA BR BKN010 OVC020", "TAF AMD RKSG 072135Z 0721/0901 VRB06KT 9000 BR OVC020 QNH2956INS TEMPO 0821/0824 OVC010 BECMG 0800/0801 VRB06KT 9999 NSW BKN020 QNH2960INS BECMG 0804/0805 19009KT 9999 SCT030 QNH2960INS BECMG 0814/0815 VRB06KT 8000 BR BKN030 QNH2963INS BECMG 0820/0821 VRB06KT 6000 BR BKN020 QNH2962INS TX29/0807Z TN21/0721Z", "TAF AMD RKSI 072100Z 0721/0824 12007KT 9999 SCT007 BKN020 TN21/0721Z TX29/0805Z TN23/0818Z TEMPO 0721/0723 7000 -DZ BKN005 BECMG 0802/0804 18010KT FEW010 BKN025 BECMG 0806/0808 24007KT 7000 FEW012 SCT025 BECMG 0814/0816 16005KT 3500 BR SCT010 BKN020 TEMPO 0822/0824 2800 -SHRA SCT005CB BKN025 OVC060", "TAF AMD RKSM 071930Z 0719/0824 18006KT 9999 BKN020 BKN030 BECMG 0723/0724 15006KT 9999 BKN030 TN21/0721Z TX31/0806Z ", "TAF RKSO 072100Z 0721/0903 13006KT 9999 BKN015 BKN060 BKN210 QNH2958INS BECMG 0803/0804 12009KT 9000 HZ BKN020 QNH2958INS BECMG 0900/0902 10010G15KT 8000 -SHRA BR BKN020 OVC040 QNH2957INS TX31/0806Z TN20/0721Z", "TAF AMD RKSS 072100Z 0721/0824 15006KT 9999 BKN030 TN22/0721Z TX32/0806Z TN23/0820Z BECMG 0809/0811 24005KT FEW011 SCT030 BECMG 0814/0816 17005KT 6000 BECMG 0820/0822 BKN025", "TAF AMD RKSW 072035Z 0720/0824 18006KT 9999 BKN015 OVC030 BECMG 0800/0801 18006KT 9999 SCT030 TX32/0806Z TN24/0821Z ", "TAF AMD RKTE 072031Z 0720/0824 18006KT 9999 BKN015 BKN030 TX29/0806Z TN24/0821Z ", "TAF RKTI 071700Z 0718/0824 24006KT 4800 -RA BR BKN015 OVC025 BECMG 0718/0719 24006KT 4800 BR BKN015 BKN025 BECMG 0801/0802 24006KT 9999 NSW SCT015 BKN030 TN20/0720Z TX30/0806Z ", "TAF RKTN 071700Z 0718/0824 15006KT 4800 BR SCT010 BKN020 OVC025 TX32/0806Z TN23/0821Z BECMG 0800/0801 9999 NSW BKN030", "TAF AMD RKTP 071810Z 0718/0824 18006KT 4800 -RA BR BKN005 BKN010 BECMG 0721/0722 09006KT 4800 BR SCT005 BKN010 BKN250 VIS 9999 NSW AFT 0801 BECMG 0803/0804 18006KT 9999 SCT015 SCT250 TN22/0721Z TX28/0806Z ", "TAF AMD RKTU 072000Z 0720/0824 15006KT 9999 BKN015 OVC030 TN21/0721Z TX31/0806Z BECMG 0800/0801 18006KT BKN030", "TAF AMD RKTY 072025Z 0720/0824 28006KT 3200 BR BKN010 BKN025 BECMG 0723/0724 28006KT 4800 BR BKN030 VIS 9999 NSW AFT 0801 TN19/0721Z TX29/0806Z ", "TAF ROAH 071705Z 0718/0900 21015KT 9999 FEW010 BKN020", "TAF RODN 071600Z 0716/0822 21009KT 9999 SCT015 QNH2979INS TEMPO 0716/0722 BKN015 BECMG 0800/0801 20010G15KT 9999 FEW015 SCT030 QNH2980INS TEMPO 0816/0822 BKN015 TX33/0805Z TN28/0721Z", "TAF ROIG 071705Z 0718/0900 20015KT 9999 FEW010 BKN020", "TAF ROTM 0721/0821 20010G16KT 9999 FEW015 SCT200 QNH2986INS TEMPO 0800/0806 21014G26KT 9999 SCT025 FM081000 21012KT 9999 FEW025 QNH2986INS BECMG 0818/0820 20011KT 9999 SCT015 QNH2985INS T28/0721Z T32/0804Z", "TAF RPLB 071700Z 0718/0818 07004KT 9999 FEW020 BKN080 TX34/0806Z TN26/0721Z TEMPO 0718/0724 03007KT 8000 SCT020 OVC080", "TAF RPLC 071700Z 0718/0824 25005KT 9999 SCT020 BKN300 TX36/0806Z TN26/0721Z TEMPO 0718/0724 27004KT FEW020 BKN300", "TAF RPLI 071700Z 0718/0818 11005KT 9999 FEW018 BKN290 TEMPO 0718/0724 FEW018 SCT100 BECMG 0801/0803 33007KT", "TAF RPLL 071700Z 0718/0824 11007KT 9999 FEW025 TX35/0806Z TN28/0721Z TEMPO 0718/0724 VRB02KT FEW023 BKN100 TEMPO 0800/0806 VRB05KT TEMPO 0806/0812 25012KT FEW023CB SCT100", "TAF RPMD 071700Z 0718/0818 33004KT 9999 FEW016 SCT090 BKN260 TEMPO 0718/0724 02003KT FEW015CB BKN090 BECMG 0802/0804 16007KT", "TAF RPMR 071700Z 0718/0818 36005KT 9999 FEW018 SCT080 TEMPO 0718/0724 FEW017CB BKN080 BECMG 0804/0806 15008KT", "TAF RPMZ 071700Z 0718/0818 25006KT 9999 FEW017 TEMPO 0718/0724 VRB02KT BECMG 0800/0802 FEW017 BKN090 TEMPO 0803/0809 17006KT -SHRA FEW016CB BKN090", "TAF RPVD 071700Z 0718/0818 07006KT 9999 FEW015 SCT220 TEMPO 0718/0724 27004KT TEMPO 0803/0809 34006KT FEW014CB SCT070", "TAF RPVM 071700Z 0718/0824 09004KT 9999 FEW020 SCT300 TEMPO 0718/0724 VRB02KT -SHRA FEW018CB BKN100 TEMPO 0800/0806 VRB02KT", "TAF RPVP 071700Z 0718/0818 27004KT 9999 FEW019 BECMG 0801/0802 12008KT TEMPO 0803/0809 18008KT FEW017CB SCT080", "TAF SAAR 071700Z 0718/0818 15010KT 9999 SCT020 BKN100 TX16/0718Z TN11/0810Z BECMG 0800/0803 7000 -RA OVC015 ", "TAF SABE 071700Z 0718/0818 11015KT CAVOK TX15/0718Z TN11/0810Z TEMPO 0718/0723 10015G25KT", "TAF SACO 071700Z 0718/0818 18005KT 5000 -DZ BR SCT010 OVC025 TX18/0818Z TN04/0811Z BECMG 0720/0723 14005KT 4000 DZ BR BKN008 OVC040 PROB40 TEMPO 0806/0810 VRB04KT 2000 +DZ BR OVC005 BECMG 0813/0816 05010KT 6000 SCT025 OVC045", "TAF COR SADF 071700Z 0718/0818 12015KT 9999 FEW020 TX14/0818Z TN10/0810Z", "TAF SAEZ 071700Z 0718/0818 11010KT CAVOK TX15/0718Z TN06/0810Z BECMG 0805/0807 VRB05KT 5000 BR SCT020 BECMG 0809/0812 09010KT CAVOK", "TAF SAME 071700Z 0718/0818 05005KT CAVOK TX14/0818Z TNM01/0811Z BECMG 0721/0723 VRB03KT BECMG 0815/0817 07008KT", "TAF SANR 071700Z 0718/0818 18010KT 8000 OVC020 FEW040CB TX17/0818Z TN13/0811Z BECMG 0721/0800 20005KT 5000 DZ BR BKN015 OVC040 BECMG 0806/0809 16005KT 1500 DZ BR BKN005 OVC010", "TAF SANT 070500Z 0706/0806 09005KT 4000 RA BR SCT008 OVC020 TX16/0718Z TN13/0711Z PROB40 TEMPO 0706/0711 18005KT 2000 +RA DZ SCT003 OVC008 BECMG 0716/0718 5000 DZ BR SCT010 OVC015", "TAF SARE 071700Z 0718/0818 09005KT 5000 FU NSC TX26/0719Z TN17/0810Z BECMG 0800/0802 5000 RADZ OVC010 PROB40 0808/0811 2000 BR BECMG 0812/0814 9999 BKN020", "TAF SARF 071700Z 0718/0818 36010KT 9999 BKN020 BKN100 TX29/0719Z TN18/0810Z PROB40 TEMPO 0719/0723 5000 TSRA FEW050CB", "TAF SARI 071700Z 0718/0818 02005KT 9999 BKN020 OVC100 TX28/0718Z TN17/0810Z PROB40 TEMPO 0719/0723 5000 TSRA FEW050CB", "TAF SARP 071700Z 0718/0818 07005KT 5000 TSRA SCT010 FEW050CB TX22/0718Z TN18/0810Z BECMG 0723/0801 9999 BKN020 PROB40 0808/0811 2000 BR", "TAF SASA 071700Z 0718/0818 VRB04KT 8000 BKN025 BKN050 TX21/0818Z TN10/0811Z BECMG 0723/0802 09005KT 5000 DZ BR SCT012 OVC025 PROB40 TEMPO 0807/0811 VRB03KT 3000 +DZ BR OVC003 BECMG 0814/0817 05010KT 8000 SCT035 BKN045", "TAF SASJ 071700Z 0718/0818 14010KT 8000 SCT030 BKN050 TX24/0818Z TN10/0811Z BECMG 0723/0802 09005KT 5000 DZ BR SCT012 OVC025 PROB40 TEMPO 0807/0811 VRB02KT 0800 +DZ BR OVC003 BECMG 0814/0817 11005KT 8000 SCT015 BKN040", "TAF SAVC 071700Z 0718/0818 25008KT CAVOK TX08/0718Z TNM00/0810Z TEMPO 0718/0722 14010KT BECMG 0806/0808 SCT030 BKN100 ", "TAF SAVT 071700Z 0718/0818 29008KT CAVOK TX10/0718Z TNM03/0810Z BECMG 0802/0804 VRB03KT SCT030 BKN080 BECMG 0810/0812 -RA BKN030 OVC060", "TAF SAWE 071700Z 0718/0818 25010KT CAVOK TX01/0718Z TNM05/0810Z BECMG 0803/0805 SCT030 ", "TAF SAWG 071700Z 0718/0818 25015KT CAVOK TX04/0718Z TNM04/0806Z BECMG 0713/0715 9999 BKN020 ", "TAF SAWH 071700Z 0718/0818 21020G30KT 9999 BKN030 TX03/0718Z TN01/0711Z ", "TAF SAZM 071100Z 0712/0812 2503KT CAVOK TX12/0718Z TN04/0811Z BECMG 0712/0714 24005KT BECMG 0723/0801 16005KT 9999 SCT030 BECMG 0809/0811 05005KT SCT020 BKN060", "TAF SAZN 071700Z 0718/0818 04010G20KT CAVOK TX10/0718Z TN05/0810Z BECMG 0802/0809 09005KT 8000 -RA SCT040 BKN060 TEMPO 0809/0815 5000 RA", "TAF SAZS 071700Z 0718/0818 14010KT 9999 BKN025 BKN100 TX04/0718Z TN01/0811Z TEMPO 0720/0802 9000 -RA SCT010 OVC025 BECMG 0803/0804 5000 SN BKN010 OVC025", "TAF SBAC 070829Z 0712/0724 09007KT 9999 BKN020 TX29/0716Z TN25/0724Z RMK PHP", "TAF SBAF 071500Z 0718/0806 35005KT CAVOK TX28/0718Z TN15/0806Z RMK PFQ", "TAF SBAN 071500Z 0718/0806 06006KT CAVOK TX26/0718Z TN14/0806Z RMK PFQ", "TAF SBAT 071533Z 0718/0806 12007KT 9999 FEW030 TX35/0718Z TN24/0806Z BECMG 0718/0720 06005KT RMK PHC", "TAF SBBI 071500Z 0718/0806 32007KT CAVOK TX23/0718Z TN15/0806Z BECMG 0802/0804 35010KT 9999 SCT020 RMK PFQ", "TAF SBBU 071500Z 0718/0806 35006KT CAVOK TX26/0718Z TN15/0806Z BECMG 0720/0723 07003KT RMK PGH", "TAF SBBW 071500Z 0718/0806 04005KT CAVOK TX32/0718Z TN18/0806Z BECMG 0719/0721 00000KT RMK PGN", "TAF SBCO 071500Z 0718/0806 12005KT 4000 RA BKN010 BKN035 TX19/0718Z TN15/0806Z TEMPO 0722/0802 12009KT 2000 TSRA BKN010 BKN025 FEW025CB BECMG 0804/0806 16012KT 8000 -RA SCT015 BKN025 RMK PFQ", "TAF SBCZ 071533Z 0718/0818 30005KT 8000 SCT030 TX33/0718Z TN23/0811Z BECMG 0718/0720 33005KT TEMPO 0720/0723 03005KT SCT030 FEW035TCU BECMG 0723/0801 FEW023 TEMPO 0809/0812 27005KT 4000 BR BECMG 0812/0814 30005KT SCT030 RMK PHC", "TAF SBDN 071500Z 0718/0806 01010KT CAVOK TX28/0718Z TN17/0806Z BECMG 0719/0722 06005KT RMK PGH", "TAF SBGW 071500Z 0718/0806 02004KT CAVOK TX25/0718Z TN10/0806Z RMK PFQ", "TAF SBIH 071533Z 0718/0806 06005KT 9999 SCT020 TX33/0718Z TN24/0806Z RMK PHC", "TAF SBIL 071500Z 0718/0806 13005KT 9999 SCT025 TX26/0718Z TN22/0806Z BECMG 0800/0802 16005KT BECMG 0803/0805 25003KT RMK PGN", "TAF SBIZ 071533Z 0718/0806 09007KT 9999 FEW030 TX35/0718Z TN23/0805Z BECMG 0721/0723 06005KT RMK PHC", "TAF SBJV 071500Z 0718/0806 35003KT CAVOK TX24/0718Z TN16/0805Z BECMG 0722/0724 20006KT 9999 SCT030 PROB30 0802/0806 2500 BR BKN008 RMK PFQ", "TAF SBKG 071446Z 0718/0806 13008KT 3000 RA SCT004 BKN006 TX24/0718Z TN21/0806Z BECMG 0720/0722 8000 NSW SCT010 BKN020 PROB30 TEMPO 0801/0805 4000 RA SCT005 BKN010 RMK PHQ", "TAF SBME 071446Z 0718/0806 05006KT CAVOK TX29/0718Z TN15/0806Z BECMG 0800/0802 02005KT RMK PGW", "TAF SBNT 071446Z 0718/0806 17006KT 9999 BKN020 TX28/0718Z TN23/0806Z TEMPO 0718/0724 15012KT 4000 BR BKN016 FEW030TCU TEMPO 0802/0806 4000 BR SCT006 BKN013 RMK PGW", "TAF SBPK 071500Z 0718/0818 15011KT 9999 SCT015 BKN025 TX18/0718Z TN13/0808Z BECMG 0720/0722 6000 -RA BKN015 BKN025 BECMG 0806/0808 09007KT 9999 NSW BKN020 RMK PFQ", "TAF SBSC 071500Z 0718/0806 03006KT CAVOK TX27/0718Z TN15/0806Z RMK PFQ", "TAF SBSM 071500Z 0718/0806 09005KT 8000 -RA BKN015 TX18/0718Z TN15/0806Z BECMG 0718/0720 4000 RA BKN010 BKN023 PROB40 0722/0802 12011G22KT TSRA BKN008 FEW030CB RMK PFQ", "TAF SBUG 071500Z 0718/0806 12010KT 8000 -RA BKN015 BKN035 TX20/0718Z TN15/0806Z TEMPO 0720/0724 12012G25KT 4000 TSRA BKN010 FEW030CB BKN035 BECMG 0802/0804 09007KT 9999 NSW SCT020 BKN030 RMK PFQ", "TAF SBUL 071500Z 0718/0806 34010KT CAVOK TX25/0718Z TN14/0806Z BECMG 0719/0721 05005KT BECMG 0722/0724 08005KT RMK PGN", "TAF SBUR 071500Z 0718/0806 34005KT 8000 NSC TX26/0718Z TN15/0806Z BECMG 0719/0721 17005KT BECMG 0722/0724 03005KT CAVOK RMK PGN", "TAF SBVH 071533Z 0718/0806 06007KT 9999 FEW030 TX30/0718Z TN19/0806Z BECMG 0718/0720 36007KT RMK PHC", "TAF SBYS 071500Z 0718/0806 01005KT CAVOK TX26/0718Z TN10/0806Z RMK PFQ", "TAF SCAR 071623Z 0718/0818 23010KT 9999 FEW030 TX20/0718Z TN18/0810Z BECMG 0722/0800 18004KT OVC025 BECMG 0816/0818 23010KT FEW030", "TAF SCAT 071623Z 0718/0818 25010KT CAVOK TX18/0718Z TN11/0810Z BECMG 0800/0802 11006KT BECMG 0816/0818 25012KT", "TAF SCBA 071610Z 0718/0818 VRB02KT 9999 SCT008 BKN020 TX01/0719Z TNM06/0811Z TEMPO 0718/0722 2000 BR BKN005 BECMG 0723/0801 13004KT 0500 FG OVC002 BECMG 0814/0816 9999 NSW BKN010 TEMPO 0813/0818 VRB02KT 6000 SHSN OVC020", "TAF SCCF 071623Z 0718/0818 27018KT CAVOK TX22/0718Z TNM01/0809Z BECMG 0723/0801 27008KT BECMG 0802/0804 11020KT BECMG 0815/0816 11010KT BECMG 0817/0818 27018KT", "TAF SCCH 071020Z 0712/0724 36006KT 3000 BR NSC TX10/0719Z TN05/0712Z TEMPO 0712/0714 VRB02KT 0200 FG BKN003 BECMG 0716/0718 5000 HZ FEW025 BKN120 BECMG 0721/0722 8000 SCT015 BKN035", "TAF SCCI 071616Z 0718/0818 25008KT CAVOK TNM03/0812Z TX03/0718Z TEMPO 0809/0812 SCT020 TEMPO 0810/0815 VRB02KT", "TAF SCCY 071047Z 0712/0724 03005KT 9999 BKN035 TNM01/0712Z TX03/0718Z BECMG 0716/0718 VRB02KT FEW040", "TAF SCDA 071623Z 0718/0818 22016KT CAVOK TX21/0718Z TN17/0810Z BECMG 0722/0800 OVC025 BECMG 0804/0806 18004KT BECMG 0810/0812 11004KT FEW030 BECMG 0815/0817 22015KT", "TAF COR SCEL 071755Z 0718/0818 VRB02KT 8000 BKN120 BKN180 TX13/0718Z TN05/0810Z BECMG 0720/0722 SCT170 TEMPO 0806/0812 5000 HZ", "TAF COR SCFA 071750Z 0718/0818 20016KT 9999 BKN025 TX18/0718Z TN14/0810Z BECMG 0722/0800 OVC020 BECMG 0804/0806 20004KT BECMG 0815/0817 22010KT BECMG 0817/0818 SCT025", "TAF SCFM 071020Z 0712/0800 22015KT CAVOK TNM00/0712Z TX04/0718Z TEMPO 0712/0716 SCT040", "TAF SCGE 071100Z 0712/0724 18005KT 7000 NSC TX10/0719Z TN04/0712Z TEMPO 0712/0715 VRB02KT 2000 BR BKN003 BECMG 0716/0718 01006KT SCT025 BKN060 BECMG 0721/0722 01015G30KT 7000 -RA SCT010 BKN025", "TAF SCGZ 071020Z 0712/0800 25005KT 5000 SHSN SCT010 BKN022 TNM00/0712Z TX03/0718Z BECMG 0713/0715 25015KT 9999 NSW SCT012 BKN030 TEMPO 0717/0721 SCT025", "TAF SCHR 071020Z 0712/0800 VRB02KT 9999 SCT010 BKN025 TNM02/0712Z TX05/0718Z TEMPO 0712/0715 5000 SHSN SCT008 BKN015 BECMG 0717/0719 SCT030", "TAF SCIC 071100Z 0712/0724 20004KT 5000 BR SCT003 OVC006 TX11/0719Z TN06/0712Z TEMPO 0712/0716 VRB02KT 0500 FG OVC002 BECMG 0714/0716 SCT006 BKN012 BECMG 0718/0720 36006KT 7000 SCT020 BKN100", "TAF SCIE 071600Z 0718/0818 16004KT 8000 NSC TX11/0718Z TN05/0810Z BECMG 0719/0721 6000 -SHRA SCT015 BKN035 BECMG 0722/0800 01015G30KT FEW008 BKN020 BECMG 0802/0804 3000 +RA BKN008 OVC012 BECMG 0812/0814 33010KT 7000 FEW012 BKN030", "TAF SCIP 071641Z 0718/0818 18006KT 9999 BKN030 TX20/0719Z TN14/0811Z BECMG 0801/0803 17015KT TEMPO 0803/0809 5000 -SHRA SCT015 BKN025 BECMG 0810/0812 SCT030", "TAF SCIR 071100Z 0712/0724 35027KT 7000 SHRA FEW008 BKN015 TX12/0718Z TN11/0712Z TEMPO 0713/0718 36025G35KT 3000 +SHRA SCT012 OVC025 BECMG 0721/0723 27025KT 9999 NSW SCT020 BKN035", "TAF AMD SCJO 071510Z 0715/0724 VRB02KT 0200 FG BKN002 TN04/0716Z TX07/0719Z BECMG 0716/0718 03007KT FEW030 BECMG 0721/0723 03017KT 7000 RA OVC020", "TAF SCMK 071046Z 0712/0724 01010KT 9999 BKN025 TN06/0712Z TX08/0718Z TEMPO 0713/0715 7000 -SHRA BECMG 0716/0718 16008KT FEW020", "TAF SCNT 071020Z 0712/0800 32004KT CAVOK TNM02/0712Z TX04/0718Z TEMPO 0718/0722 SCT035", "TAF SCPQ 071045Z 0712/0724 VRB02KT 0800 FG BKN002 TN01/0712Z TX08/0718Z BECMG 0714/0716 9999 NSW SCT015 BECMG 0719/0721 17007KT CAVOK", "TAF AMD SCRD 071943Z 0720/0724 01010KT BKN005 OVC010 TX12/0720Z TN10/ 0723Z TEMPO 0720/0721 4000 -DZ", "TAF SCRG 071100Z 0712/0724 VRB02KT 9999 SCT080 BKN120 TX12/0718Z TN07/0712Z TEMPO 0712/0714 36004KT 4000 BR BECMG 0717/0719 30004KT SCT160", "TAF SCSE 071600Z 0718/0818 VRB03KT 9999 SCT015 BKN030 TX14/0718Z TN07/0810Z BECMG 0801/0803 30004KT TEMPO 0806/0812 VRB02KT 4000 BR BKN002 BECMG 0814/0816 29010KT CAVOK", "TAF AMD SCSN 071943Z 0720/0724 02008KT 7000 BKN010 OVC020 TX12/0720Z TN10/0723Z TEMPO 0720/0721 3000 -DZ BECMG 0722/0800 SCT008", "TAF SCTB 071100Z 0712/0724 VRB02KT 8000 SCT100 BKN140 TX12/0719Z TN07/0712Z BECMG 0716/0718 24006KT FEW025 BKN150 BECMG 0722/0800 SCT160", "TAF SCTE 071610Z 0718/0818 06004KT 9999 FEW025 SCT090 TX09/0719Z TN04/0800Z BECMG 0800/0801 06014KT 5000 RA SCT015 OVC025 TEMPO 0803/0807 2000 RA BKN010 OVC015 BECMG 0811/0813 9999 NSW BKN025 TEMPO 0813/0818 06024G34KT 7000 SHRA", "TAF SCTN 071046Z 0712/0724 08005KT 9999 BKN040 TN04/0712Z TX08/0718Z BECMG 0714/0716 CAVOK", "TAF SCVD 071044Z 0712/0724 VRB02KT 0800 FG BKN003 TN03/0712Z TX09/0719Z BECMG 0713/0715 4000 BR SCT010 BECMG 0715/0717 9999 NSW NSC BECMG 0721/0723 06007KT 7000 -RA BKN020 OVC050", "TAF SCVM 071600Z 0718/0818 VRB02KT 7000 OVC020 TX13/0718Z TN05/0810Z BECMG 0801/0803 02004KT BKN015 TEMPO 0806/0812 SCT010 BKN090 BECMG 0814/0816 30008KT BKN025", "SEGU 071630Z 0718/0818 15006KT 9999 SCT026 BKN100 TEMPO 0720/0722 TSRA FEW020CB SCT023 BKN100 BECMG 0723/0801 21006KT BKN020 BKN100 TEMPO 0803/0805 RA FEW006 BKN020 BKN100 BECMG 0810/0812 27004KT SCT023 BKN100 TX31/0720Z TN24/0810Z", "SELT 071630Z 0718/0818 18014KT 9999 BKN030 BKN100 TEMPO 0720/0722 TS FEW023CB SCT100 BECMG 0800/0802 04004KT SCT010 BKN020 BECMG 0804/0806 6000 BCFG SCT020 BKN100 BECMG 0810/0812 20005KT 9999 BKN023 BKN100 TX17/0719Z TN06/0811Z", "SEMT 071630Z 0718/0818 27010KT 9999 SCT023 SCT100 BECMG 0723/0801 21010KT BKN020 BKN090 BECMG 0810/0812 05004KT SCT020 BKN090 TX30/0720Z TN24/0810Z", "SEQM 071711Z 0718/0818 36012KT 9999 SCT030 BKN100 TEMPO 0720/0723 TSRA FEW023CB BKN030 BKN100 BECMG 0801/0803 03004KT RA SCT010 BKN020 BKN090 FM080400 VRB03KT 5000 BCFG SCT003 BKN020 BKN090 BECMG 0811/0813 9999 BKN026 BKN100 TX23/0719Z TN11/0811Z", "TAF SKAR 071630Z 0718/0818 VRB04KT 9999 SCT025TCU TEMPO 0720/0724 TSRA SCT023CB BECMG 0801/0802 SCT020 BECMG 0810/0812 3000 BR BKN010 BECMG 0814/0816 9999 NSW SCT020 TX28/0719Z TN18/0811Z", "TAF SKBG 071630Z 0718/0818 32008KT 9999 SCT015 TEMPO 0720/0723 FZRA SCT015TCU BECMG 0802/0804 VRB02KT SCT010 PROB40 TEMPO 0810/0813 5000 BCFG SCT010 TX27/0719Z TN20/0810Z", "TAF SKBO 071630Z 0718/0818 14010KT 9999 SCT020 TEMPO 0718/0723 5000 RADZ BKN017TCU BECMG 0801/0803 VRB02KT SCT015 TX20/0719Z TN08/0811Z", "TAF SKBQ 071630Z 0718/0818 01004KT 9999 FEW015 PROB40 TEMPO 0718/0721 TSRA FEW015CB TEMPO 0811/0813 5000 BR TX32/0719Z TN25/0810Z", "TAF SKCC 071630Z 0718/0818 17012KT 9999 SCT023 BECMG 0800/0802 VRB02KT SCT015 TX34/0718Z TN25/0810Z", "TAF SKCG 071630Z 0718/0818 01005KT 9999 FEW017 TEMPO 0718/0721 TSRA FEW017 TX32/0719Z TN25/0810Z", "TAF SKCL 071630Z 0718/0818 VRB04KT 9999 SCT023TCU TEMPO 0720/0724 33012KT TS SCT020CB BECMG 0801/0802 SCT018 TX31/0719Z TN19/0810Z", "TAF SKLT 071630Z 0718/0818 25006KT 9999 SCT015 TEMPO 0819/0823 RA BKN015 TX33/0719Z TN23/0810Z", "TAF SKPE 071630Z 0718/0818 10006KT 9999 SCT017TCU TEMPO 0720/0724 TSRA SCT020CB BECMG 0801/0802 BKN015 TEMPO 0802/0806 DZ BECMG 0810/0812 3000 BCFG BKN010 BECMG 0814/0816 9999 NSW SCT020 TX27/0719Z TN18/0810Z", "TAF SKRG 071630Z 0718/0818 10010KT 9999 SCT020 TEMPO 0719/0723 RA SCT018CB BECMG 0800/0802 VRB02KT TEMPO 0802/0806 5000 RA BKN010CB BECMG 0809/0811 3000 BR BKN005 BECMG 0813/0815 11010KT 9999 NSW SCT015 TX24/0719Z TN14/0810Z", "TAF SKSM 071630Z 0718/0818 23006KT 9999 FEW020 PROB30 TEMPO 0719/0721 TSRA FEW020CB TX32/0719Z TN25/0811Z", "TAF SKSP 071630Z 0718/0818 06010KT 9999 SCT018 TEMPO 0718/0721 5000 TSRA SCT017CB PROB40 TEMPO 0808/0813 3000 TSRA BKN015CB TX30/0719Z TN25/0810Z", "TAF SLAL 071600Z 0718/0818 21005KT 9999 NSC TX25/0719Z TN05/0811Z BECMG 0720/0722 34010KT BECMG 0801/0803 00000KT", "TAF SLCB 071600Z 0718/0818 25005KT 9999 NSC TX30/0719Z TN02/0811Z TEMPO 0721/0723 03012KT", "TAF SLCO 071600Z 0718/0818 35008KT 9999 FEW027 TX34/0719Z TN21/0810Z BECMG 0722/0801 00000KT BECMG 0812/0815 35008KT", "TAF COR SLET 071600Z 0718/0818 34020G30KT 8000 SCT020 SCT027 TX31/079Z TN23/0810Z BECMG 0723/0801 34012KT SCT023 BECMG 0804/0806 34008KT BKN020 BKN070 PROB30 TEMPO 0810/0812 6000 SHRA FEW027TCU BECMG 0813/0815 34015G25KT 9999 SCT023 BKN070", "TAF SLLP 071600Z 0718/0818 25010KT 9999 NSC TX18/0719Z TNM02/0811Z BECMG 0723/0802 02005KT BECMG 0814/0816 24010KT", "TAF SLTJ 071600Z 0718/0818 00000KT 9999 FEW030 TX27/0719Z TN10/0811Z BECMG 0719/0721 15010KT NSC BECMG 0723/0801 00000KT BKN025", "TAF SLTR 071600Z 0718/0818 34010KT 9999 FEW023 SCT080 TX33/0719Z TN20/0810Z BECMG 0722/0801 00000KT BECMG 0812/0815 33008KT", "TAF SLVR 071600Z 0718/0818 34020G30KT 8000 SCT020 SCT027 TX31/0719Z TN23/0810Z BECMG 0723/0801 34012KT SCT023 BECMG 0804/0806 34008KT BKN020 BKN070 PROB30 TEMPO 0810/0812 6000 SHRA FEW027TCU BECMG 0813/0815 34015G25KT 9999 SCT023 BKN070", "TAF SLYA 071000Z 0712/0812 00000KT 9999 SCT020 TX27/0719Z TN15/0811Z BECMG 0722/0724 5000 DZ SCT010 OVC070 BECMG 0803/0805 9999 NSW", "TAF SMJP 071600Z 0718/0818 07007KT 9999 SCT025 TX32/0718Z TN23/0809Z TEMPO 0718/0721 4000 SHRA FEW015CB SCT020 TEMPO 0718/0720 TS PROB30 TEMPO 0808/0810 VRB02KT 2000 BR SCT002", "TAF SMZO 071600Z 0718/0818 06008KT 9999 SCT025 TX32/0718Z TN24/0809Z TEMPO 0718/0721 4000 SHRA FEW015CB SCT020 TEMPO 0718/0720 TS", "TAF SOCA 071600Z 0718/0818 11010G20KT 9999 FEW030 TEMPO 0718/0722 SCT012CB SCT018TCU BECMG 0722/0724 VRB02KT PROB30 TEMPO 0803/0812 3000 SHRA SCT012 BKN015TCU BECMG 0813/0815 09010KT PROB40 0815/0818 2500 SHRA SCT015TCU BKN025", "TAF SPCL 071700Z 0718/0818 02005KT 9999 BKN020 TX34/0719Z TN23/0811Z TEMPO 0812/0814 1000 BR SCT005", "TAF SPEO 071715Z 0718/0818 21015KT 9999 SCT015 TX26/0719Z TN22/0811Z BECMG 0804/0806 20005KT BECMG 0815/0817 20015KT", "TAF SPGM 071700Z 0718/0818 05005KT 9999 SCT040 SCT100 TX32/0719Z TN21/0810Z", "TAF SPHI 071715Z 0718/0818 20006KT 9999 OVC025 TX26/0719Z TN21/0811Z BECMG 0719/0720 19016KT BECMG 0803/0805 18005T", "TAF COR SPHO 071700Z 0718/0818 08005KT CAVOK TX25/0719Z TN07/0811Z", "TAF AMD SPJC 071730Z 0718/0818 18010KT 9999 SCT020 OVC040 TX23/0719Z TN20/0811Z FM080700 VRB03KT 8000 SCT014 OVC030 TEMPO 0811/0813 3000 BR OVC014", "TAF SPJI 071700Z 0718/0818 12005KT 9999 SCT020 TX34/0720Z TN22/0811Z TEMPO 0811/0814 1000 BR SCT005", "TAF COR SPJJ 071700Z 0718/0818 14005KT CAVOK TX22/0720Z TNM01/0811Z TEMPO 0720/0723 32015KT", "TAF SPJL 071700Z 0718/0818 12008KT CAVOK TX18/0719Z TNM08/0810Z FM080000 VRB02KT CAVOK", "TAF SPJR 071700Z 0718/0818 20008KT 9999 FEW030 SCT130 TX24/0719Z TN06/0811Z FM072300 VRB03KT 9999 SCT030 BKN100", "TAF SPLO 071700Z 0718/0818 20009KT 9999 BKN030 TX24/0719Z TN17/0810Z FM072330 15006KT 7000 OVC020", "TAF AMD SPME 071900Z 0719/0818 35005KT 9999 BKN013 TX29/0719Z TN22/0811Z TEMPO 0720/0723 SCT015 BECMG 0813/0816 SCT020", "TAF SPMS 071700Z 0718/0818 01005KT 9999 SCT015 SCT070 TX33/0720Z TN23/0811Z TEMPO 0718/0722 4000 RADZ BKN010 BKN070 TEMPO 0810/0813 1000 BR SCT005", "TAF SPNC 071700Z 0718/0818 05013KT 9999 SCT040 SCT100 TX28/0719Z TN11/0810Z BECMG 0801/0805 15005KT", "TAF SPPY 071700Z 0718/0818 02010KT 9999 SCT020 TX21/0719Z TN10/0811Z TEMPO 0811/0814 2000 BCFG BKN010", "TAF SPQT 071700Z 0718/0818 01005KT 9999 BKN015 BKN100 TX32/0720Z TN23/0811Z TEMPO 0718/0722 130015KT 2000 TSRA BKN010 FEW020CB BKN080 BECMG 0801/0804 00000KT FEW010 TEMPO 0808/0812 1000 BCFG BKN002 BKN080", "TAF SPQU 071700Z 0718/0818 26010KT CAVOK TX22/0718Z TN07/0810Z BECMG 0800/0802 05007KT FM081430 25007KT CAVOK", "TAF SPRU 071750Z 0718/0818 18012KT 7000 BKN040 TX26/0719Z TN22/0811Z BECMG 0722/0724 4500 BR BECMG 0802/0804 12004KT BECMG 0813/0815 7000 NSW", "TAF SPSO 071700Z 0718/0818 24008KT CAVOK TX25/0719Z TN18/0811Z BECMG 0720/0721 21014KT FM080400 15005KT 8000 OVC025 BECMG 0814/0816 27010KT CAVOK", "TAF SPST 071700Z 0718/0818 16005KT 9999 SCT020 BKN100 TX34/0719Z TN22/0810Z BECMG 0720/0722 05007KT SCT015TCU BKN080 BECMG 0810/0812 4500 BR SCT008 SCT100", "TAF SPTN 071700Z 0718/0818 23010KT CAVOK TX21/0719Z TN14/0810Z FM080000 23003KT 8000 OVC022 FM081600 22007KT 9999 FEW030", "TAF COR SPTU 071700Z 0718/0818 31005KT 9999 SCT030 TX34/0720Z TN20/0811Z", "TAF SPUR 071715Z 0718/0818 18006KT 9999 FEW025 BKN040 TX30/0719Z TN21/0811Z TEMPO 0720/0722 20015KT", "TAF AMD SPYL 072105Z 0721/0818 24005KT 9999 SCT040 TX30/0721Z TN18/0811Z BECMG 0723/0801 14010KT BECMG 0810/0812 20016KT", "TAF COR SPZO 071700Z 0718/0818 34005KT 9999 NSC TX24/0719Z TN02/0811Z TEMPO 0719/0723 34012KT", "TAF SUAA 071730Z 0718/0818 13012KT 9999 FEW020 TX14/0818Z TN07/0810Z TEMPO 0718/0722 BKN015 TEMPO 0800/0811 3000 BR BKN008", "TAF SUCA 071730Z 0718/0818 14012KT 9999 SCT010 BKN020 TX14/0818Z TN08/0810Z TEMPO 0718/0722 14015G25KT TEMPO 0800/0811 3000 BR BKN008", "TAF SUDU 071730Z 0718/0818 10006KT CAVOK TX16/0818Z TN04/0810Z TEMPO 0718/0722 12016KT 9999 SCT015 PROB40 TEMPO 0808/0812 00000KT 0600 FG BKN005", "TAF SULS 071730Z 0718/0818 13010KT 9999 SCT026 TX14/0818Z TN06/0810Z TEMPO 0718/0722 BKN015 TEMPO 0800/0811 3000 BR BKN008", "TAF SUMU 071730Z 0718/0818 13012KT 9999 SCT020 TX14/0818Z TN07/0810Z TEMPO 0718/0722 BKN015 TEMPO 0800/0811 3000 BR BKN008", "TAF SURV 071730Z 0718/0818 13010KT 6000 OVC006 TX16/0818Z TN10/0810Z TEMPO 0718/0800 1500 DZ BR OVC003 TEMPO 0718/0802 3000 TSRA BKN005 FEW040CB OVC060 TEMPO 0802/0812 0500 FG OVC002 BECMG 0613/0615 9999 BKN012", "TAF SYCJ 071700Z 0718/0818 08010KT 5000 SHRA FEW015CB BKN018 BECMG 0723/0801 07006KT 9999 FEW016 SCT045 BECMG 0805/0807 VRB02KT 5000 SHRA BKN014 BKN038", "TAF SYEB 071100Z 0712/0723 06012KT 9999 SCT018 SCT090 TEMPO 0717/0721 5000 SHRA BKN014 BKN032", "TAF SYEC 071700Z 0718/0818 08010KT 9999 SCT018 SCT100 BECMG 0722/0800 07006KT 9999 FEW015 TEMPO 0804/0810 5000 SHRA BKN014 BKN038", "TAF SYKA 071100Z 0712/0723 08008KT 9999 BKN014 BKN036 TEMPO 0716/0722 VRB10KT 5000 TSRA RA FEW015CB BKN060", "TAF SYKM 071100Z 0712/0723 08008KT 9999 BKN014 BKN038 TEMPO 0716/0722 VRB12KT 5000 TSRA RA FEW015CB BKN060", "TAF SYLT 071100Z 0712/0723 07010KT 9999 BKN018 BKN090 TEMPO 0716/0722 VRB10KT 5000 TSRA RA FEW015CB BKN032", "TAF SYMB 071100Z 0712/0723 06008KT 9999 SCT018 TEMPO 0715/0721 5000 SHRA FEW014CB SCT015 BKN032", "TAF TAPA 071700Z 0718/0818 09010KT 9999 SCT018 PROB40 TEMPO 0719/0724 SHRA FEW015CB BKN016 TEMPO 0800/0818 4000 TSRA FEW015CB BKN016 PROB40 TEMPO 0812/0816 +TSRA", "TAF TBPB 071700Z 0718/0818 12015KT 9999 FEW010 SCT032 PROB30 TEMPO 0719/0802 13015G25KT 5000 SHRA RA BKN008 SCT012CB", "TAF TDPD 071700Z 0718/0818 10011KT 9999 SCT020 BECMG 0722/0724 BKN015 PROB30 TEMPO 0800/0804 RA BKN008 BKN030", "TAF TFFF 071700Z 0718/0818 10012KT 9999 SCT018TCU SCT030 BKN050 TEMPO 0718/0818 3500 SHRA FEW013CB BKN018TCU PROB30 TEMPO 0721/0802 2000 -TSRA SCT010 SCT013CB PROB30 TEMPO 0806/0815 VRB15G25KT 1200 TSRA BKN007 SCT012CB BKN015TCU BECMG 0802/0804 16010KT", "TAF AMD TFFR 071813Z 0718/0818 08012KT 9999 SCT020TCU SCT030 BKN060 TEMPO 0718/0818 3500 SHRA FEW013CB BKN018TCU PROB30 TEMPO 0720/0802 2000 -TSRA SCT010 SCT013CB PROB30 TEMPO 0806/0815 VRB15G25KT 1200 TSRA BKN007 SCT011CB BKN018TCU BECMG 0810/0812 14010KT", "TAF TGPY 071600Z 0718/0818 10016KT 9999 SCT019 BECMG 0800/0802 FEW014CB SCT018 SCT038 PROB40 TEMPO 0806/0812 5000 TS SHRA FEW012CB BKN016 BKN036 ", "TIST 071739Z 0718/0818 06012G22KT P6SM VCSH SCT030 SCT045 FM072200 07010KT P6SM FEW030 FM080600 07012KT P6SM VCTS SCT023CB SCT030 BKN050 FM081300 10015KT P6SM VCSH SCT025 BKN035 BKN060", "TISX 071739Z 0718/0818 11015G25KT P6SM VCSH FEW025 SCT035 SCT060 FM072100 07010KT P6SM FEW030 FM080600 06012KT P6SM VCTS SCT023CB SCT030 BKN050 FM081300 12015KT P6SM VCSH SCT025 BKN035 BKN060", "TJBQ 071739Z 0718/0818 08016G25KT P6SM VCTS SCT030CB SCT035 FM072300 10011KT P6SM SCT030 FM081300 08012G22KT P6SM SKC FM081700 08015G25KT P6SM VCSH SCT025 BKN035 BKN060 AMD NOT SKED 0802/0811", "TAF COR TJPS 071746Z 0718/0818 15017G23KT P6SM FEW060 FM072300 08006KT P6SM FEW030 FM080800 07010KT P6SM VCTS SCT023CB SCT030 BKN050 FM081400 15015KT P6SM VCSH SCT025 BKN035 BKN060", "TJSJ 071739Z 0718/0818 06016KT P6SM SCT024 SCT040 SCT070 FM072300 08011KT P6SM FEW035 FM080600 08009KT P6SM VCTS SCT023CB SCT030 BKN050 FM081400 06015KT P6SM VCSH SCT025 BKN035 BKN060", "TAF TKPK 071700Z 0718/0818 07012KT 9999 SCT018 PROB40 TEMPO 0719/0724 SHRA FEW015CB BKN016 TEMPO 0800/0818 4000 TSRA FEW015CB BKN016 PROB40 TEMPO 0812/0816 +TSRA", "TAF TKPN 071700Z 0718/0818 09014KT 9999 SCT018 PROB40 TEMPO 0719/0801 SHRA FEW015CB BKN016 TEMPO 0801/0818 4000 TSRA FEW015CB BKN016 PROB40 TEMPO 0812/0816 +TSRA", "TAF TLPC 071100Z 0712/0812 08008KT 9999 SCT026 TEMPO 0715/0812 SHRA BKN020 PROB40 TEMPO 0800/0806 14005G15KT 5000 TSRA FEW012CB BKN015 BKN040", "TAF TLPL 071100Z 0712/0812 07015KT 9999 SCT026 TEMPO 0715/0812 SHRA BKN020 PROB40 TEMPO 0800/0806 13010G20KT 5000 TSRA FEW012CB BKN015 BKN040", "TAF TNCA 071715Z 0718/0818 09020KT 9999 SCT020 PROB30 TEMPO 0806/0812 BKN014", "TAF TNCB 071657Z 0718/0824 09015KT 9999 FEW019", "TAF TNCC 071715Z 0718/0818 10013KT 9999 SCT020 PROB30 TEMPO 0806/0812 BKN014", "TAF TQPF 071700Z 0718/0818 09013KT 9999 SCT018 PROB30 TEMPO 0719/0724 SHRA PROB40 TEMPO 0800/0812 SHRA FEW015CB BKN016 TEMPO 0812/0818 4000 TSRA FEW015CB BKN016", "TAF TRPG 071700Z 0718/0818 09010KT 9999 SCT018 PROB40 TEMPO 0719/0724 SHRA FEW015CB BKN016 TEMPO 0800/0818 4000 TSRA FEW015CB BKN016 PROB40 TEMPO 0812/0816 +TSRA", "TAF TTCP 071600Z 0718/0818 VRB05KT 9999 FEW022 TEMPO 0802/0804 4000 SCT015 SCT035 BECMG 0812/0814 11010KT SCT018 TEMPO 0814/0818 4000 FEW010CB BKN015", "TAF TTPP 071600Z 0718/0818 11010KT 9999 SCT018 TEMPO 0720/0802 3000 FEW010CB BKN015 BECMG 0800/0803 00000KT FEW015 BECMG 0812/0814 12010KT SCT022 TEMPO 0814/0818 5000 SCT015", "TAF TUPJ 071700Z 0718/0818 10010KT 9999 SCT018 ", "TAF TVSA 071700Z 0718/0818 05013KT 9999 SCT020 BECMG 0720/0722 11015KT BKN015 PROB30 TEMPO 0722/0804 RA BKN008 BKN030", "TAF TXKF 071739Z 0718/0818 23008KT 9999 VCSH FEW014 SCT050 BKN300 PROB40 TEMPO 0718/0818 4000 SHRA SCT010 BKN016 PROB30 TEMPO 0718/0803 2000 +TSRA SCT008CB BKN010 ", "TAF UAAA 071700Z 0718/0818 22003MPS 9999 SCT050CB BKN100 TX28/0809Z TN16/0801Z TEMPO 0718/0802 28003G08MPS PROB40 TEMPO 0718/0802 -TSRA TEMPO 0802/0806 34003G08MPS TEMPO 0806/0814 26006G15MPS 5000 -TSRA BKN040CB OVC100 TEMPO 0814/0818 17003G08MPS -SHRA BKN030CB OVC100", "TAF UACC 071705Z 0718/0818 33005MPS 9999 SCT030 BKN100 TX29/0809Z TN15/0723Z TEMPO 0718/0802 29004MPS BECMG 0802/0804 35006MPS TEMPO 0804/0813 33008G13MPS -SHRA BKN030CB PROB40 TEMPO 0804/0813 TS BKN030CB", "TAF UACP 071700Z 0718/0803 32003MPS 9999 BKN030CB TEMPO 0718/0721 34004MPS", "TAF UADD 072000Z 0721/0806 18003G08MPS 9999 SCT050 BKN100 TEMPO 0803/0806 02005G10MPS", "TAF UAII 071703Z 0718/0818 08003G08MPS 8000 SCT040CB TX33/0810Z TN20/0801Z TEMPO 0718/0803 16005G10MPS TS BKN040CB TEMPO 0803/0806 32003G08MPS TEMPO 0806/0818 06008G16MPS -TSRA BKN033CB", "TAF UAIT 072003Z 0721/0806 07003G08MPS 9999 SCT040CB TEMPO 0800/0806 35003G08MPS", "TAF UAKK 071700Z 0718/0818 VRB02MPS 9999 BKN040 BKN100 TX26/0810Z TN10/0723Z TEMPO 0718/0722 VRB15MPS 5000 -TSRA SQ BKN020CB TEMPO 0722/0802 3100 BR SCT011 BECMG 0802/0804 35005MPS TEMPO 0804/0812 34008MPS -TSRA BKN020CB", "TAF UAOO 071700Z 0718/0803 VRB01MPS CAVOK", "TAF UARR 072001Z 0721/0806 06005MPS CAVOK TEMPO 0721/0724 VRB02MPS TEMPO 0800/0806 10005MPS", "TAF UASK 072005Z 0721/0806 11003MPS 3100 BR FEW004 BKN090 TEMPO 0721/0724 0600 FG BKN002 TEMPO 0800/0806 13008G13MPS -TSRA BKN025CB", "TAF UASP 072000Z 0721/0806 29008MPS 3100 -SHRA BR BKN020CB TEMPO 0721/0723 VRB01MPS 0200 FG VV001 TEMPO 0723/0804 VRB18MPS 0500 +TSRA BKN007 OVC011CB", "TAF UATE 071700Z 0718/0818 34005MPS CAVOK TX40/0810Z TN26/0801Z TEMPO 0718/0724 VRB03MPS BECMG 0800/0802 07005MPS BECMG 0804/0806 14006MPS BECMG 0808/0810 19007G13MPS BECMG 0814/0816 24005MPS", "TAF UATG 071701Z 0718/0818 34005MPS 9999 SCT033CB TX40/0809Z TN25/0801Z TEMPO 0718/0722 27005MPS BECMG 0800/0802 09005MPS BECMG 0806/0808 16008MPS", "TAF UATT 071702Z 0718/0818 09001MPS CAVOK TX37/0812Z TN20/0801Z BECMG 0802/0804 15006MPS", "TAF UAUU 072002Z 0721/0806 31003MPS CAVOK TEMPO 0721/0803 VRB02MPS BECMG 0803/0804 35005MPS TEMPO 0803/0806 35006G11MPS", "TAF UBBB 071653Z 0718/0818 16006KT CAVOK TX38/0810Z TN23/0801Z TEMPO 0720/0806 VRB04KT TEMPO 0808/0812 17014G24KT TEMPO 0814/0818 VRB04KT", "TAF UBBF 071400Z 0715/0724 04010KT 9999 FEW100 TEMPO 0715/0718 08014KT BECMG 0718/0720 32008KT", "TAF UBBG 071700Z 0718/0818 VRB04KT 9999 FEW100 TX35/0812Z TN21/0801Z TEMPO 0718/0722 10008KT TEMPO 0723/0804 27008KT", "TAF UBBL 071655Z 0718/0818 13010KT 9999 SCT100 TX32/0810Z TN22/0801Z BECMG 0720/0722 VRB04KT BECMG 0805/0807 13006KT TEMPO 0808/0816 16016G26KT", "TAF UBBN 071647Z 0718/0818 12010KT 9999 NSC TX37/0812Z TN23/0803Z TEMPO 0718/0724 15018KT TEMPO 0800/0804 07008KT", "TAF UBBQ 071657Z 0718/0818 17006KT 9999 SCT100 TX37/0810Z TN20/0801Z BECMG 0720/0722 03006KT TEMPO 0722/0806 VRB04KT BECMG 0807/0809 13010KT", "TAF UBBY 072000Z 0721/0806 09010KT 9999 FEW050 SCT100", "TAF UBBZ 071400Z 0715/0724 03012KT 9999 SCT100 TEMPO 0712/0716 08016KT FEW040 BECMG 0718/0720 33008KT", "TAF UBEE 072000Z 0721/0806 14008KT CAVOK", "TAF UCFL 071648Z 0718/0818 36003G08MPS 9999 SCT030CB BKN100 TEMPO 0718/0724 VRB10G15MPS 2000 TSRA BKN015CB PROB40 TEMPO 0800/0805 TS BECMG 0805/0806 15003G08MPS", "TAF UCFM 071658Z 0718/0818 12003G08MPS 9999 SCT050CB BKN100 TEMPO 0718/0724 24003G08MPS 2000 TSRA FEW003 BKN020CB BECMG 0804/0806 34003G08MPS TEMPO 0809/0815 VRB08G13MPS 2000 TSRA BKN030CB", "TAF UCFO 071642Z 0718/0818 15003G08MPS 9999 FEW050CB BKN100 TEMPO 0718/0724 VRB07G12MPS -TSRA SCT030CB BECMG 0802/0804 32003G08MPS", "TAF UDSG 071700Z 0718/0818 06006KT 9999 FEW050 TEMPO 0718/0721 06020KT", "TAF UDYZ 071700Z 0718/0818 04006KT 9999 FEW040 TEMPO 0718/0724 04026G36KT", "TAF UEEE 072000Z 0721/0903 30006G12MPS 9999 BKN020CB TEMPO 0721/0803 VRB15MPS 3200 -TSRA SCT007 BKN020CB", "TAF UERP 072000Z 0721/0821 29006G12MPS 9999 SCT023CB TEMPO 0721/0806 4000 -SHRA BKN017CB BECMG 0811/0813 VRB01MPS", "TAF UERR 072000Z 0721/0821 32004G11MPS 9999 SCT023CB", "TAF AMD UGKO 072036Z 0721/0818 26007KT 9999 BKN050 TX29/0810Z TN20/0802Z TEMPO 0721/0801 VRB16KT 4000 TSRA SCT015 BKN030CB TEMPO 0812/0818 VRB16KT 4000 TSRA BKN017CB OVC040", "TAF UGSB 071700Z 0718/0818 22007KT 9999 SCT020 BKN035 TX27/0812Z TN22/0801Z TEMPO 0718/0724 VRB12KT 3000 TSRA SCT008 BKN017CB BECMG 0720/0722 13010KT TEMPO 0800/0810 VRB10KT 3000 TSRA SCT008 BKN017CB", "TAF UGTB 071700Z 0718/0818 33007KT CAVOK TX33/0812Z TN20/0802Z BECMG 0806/0808 14010KT", "TAF AMD UHBB 072036Z 0721/0821 15003MPS 0300 FG VV002 BECMG 0722/0724 9999 NSW SCT030CB TEMPO 0800/0815 3100 -SHRA SCT011 BKN020CB", "TAF UHHH 071946Z 0721/0903 25003MPS 9999 SCT030 TEMPO 0721/0722 SCT011 SCT030 TEMPO 0800/0809 26008MPS", "TAF UHMA 071952Z 0721/0821 11003G08MPS 6000 SCT005 BKN013 TEMPO 0721/0821 10008G13MPS 0400 -RA FG BKN002", "TAF UHMM 071959Z 0721/0903 11003G08MPS 9999 SCT040 FM081800 13003G08MPS 9999 -SHRA BKN030CB TEMPO 0818/0903 3100 -SHRA BR BKN011 OVC020CB", "TAF UHPP 071947Z 0721/0903 18003G12MPS 6000 -SHRA BKN006 OVC016CB TEMPO 0721/0810 1000 SHRA BR BKN002 OVC015CB TEMPO 0810/0822 0700 SHRA FG VV002", "TAF UHSS 071950Z 0721/0903 22003MPS 9999 SCT040CB", "TAF UHWW 072000Z 0721/0821 18003MPS 6000 FEW003 BKN010 TEMPO 0721/0724 VRB01MPS BKN005 FM080000 20003G08MPS 9999 SCT020", "TAF UIAA 072000Z 0721/0821 24003MPS 9999 SCT026CB TEMPO 0721/0801 0500 FG VV001 TEMPO 0801/0815 04005G10MPS 4500 -TSRA", "TAF UIBB 072000Z 0721/0821 06003MPS 9999 NSC", "TAF UIII 072000Z 0721/0821 VRB01MPS 0300 FG VV001 TEMPO 0721/0723 3100 BR SCT003 BECMG 0723/0801 9999 NSW NSC", "TAF UIUU 072000Z 0721/0821 VRB01MPS 9999 SCT040CB TEMPO 0721/0802 0300 FG VV001", "TAF ULLI 071955Z 0721/0821 28003MPS 6000 BKN020 TEMPO 0723/0803 0500 FG TEMPO 0809/0818 -TSRA BKN016CB", "TAF ULMM 071950Z 0721/0821 04003G08MPS 6000 BKN016 TEMPO 0722/0805 35003MPS BKN011", "TAF ULOO 071954Z 0721/0806 24003MPS 9999 SCT030 PROB40 TEMPO 0722/0804 1000 MIFG BR TEMPO 0804/0806 5000 -SHRA BR BKN025CB", "TAF ULPB 071957Z 0721/0806 29003MPS 9999 BKN030 TEMPO 0721/0806 5000 -SHRA BR BKN016CB", "TAF ULWC 072000Z 0721/0806 26003MPS 6000 SCT006 BKN020 TEMPO 0721/0724 0700 -SHRA FG BKN003 BKN015CB", "TAF UMBB 071955Z 0721/0806 34003MPS 6000 SCT020 TEMPO 0721/0805 3100 BR SCT011", "TAF UMGG 071701Z 0718/0818 34006MPS 9999 BKN015 TEMPO 0718/0721 2000 SHRA BR BKN005 SCT025CB TEMPO 0721/0804 1200 BR BKN004 TEMPO 0804/0806 BKN005 TEMPO 0806/0816 34006G11MPS", "TAF UMII 071401Z 0715/0724 33003G08MPS 6000 BKN016 TEMPO 0715/0724 31003G08MPS 3000 -SHRA BR BKN005 BKN017CB", "TAF UMKK 071955Z 0721/0821 23003MPS 9999 SCT040 BECMG 0806/0808 29003G10MPS TEMPO 0809/0817 31006G11MPS BECMG 0817/0819 VRB01MPS", "TAF UMMS 071710Z 0718/0818 33005MPS 9999 SCT020 TEMPO 0718/0806 VRB02MPS 3000 BR FEW005 BECMG 0806/0807 32006G11MPS", "TAF UNAA 071950Z 0721/0821 16003G08MPS 9999 SCT030CB TEMPO 0721/0801 -TSRA BECMG 0802/0805 21005G12MPS TEMPO 0805/0815 26010G18MPS -TSRA", "TAF UNBB 072000Z 0721/0821 20003G08MPS 9999 SCT030CB TEMPO 0803/0817 28008G15MPS -TSRA BECMG 0817/0818 27005MPS", "TAF UNEE 072000Z 0721/0821 19003G08MPS 8000 SCT040CB TEMPO 0721/0801 0600 FG BKN002 BKN040CB TEMPO 0801/0821 24007G20MPS -TSRA BKN016CB", "TAF UNKL 071939Z 0721/0821 09003G08MPS 9999 SCT026CB BECMG 0804/0807 22008G20MPS -TSRA BECMG 0808/0811 24003G08MPS NSW TEMPO 0811/0813 -TSRA", "TAF COR UNNT 072032Z 0720/0821 18003G08MPS 8000 SCT040 TEMPO 0720/0801 0150 -TSRA FG BKN002 BKN040CB FM080100 13003G09MPS 8000 -SHRA BKN039CB TEMPO 0801/0819 1000 TSRA BECMG 0813/0817 29003G09MPS", "TAF UNOO 071955Z 0721/0821 33003G08MPS 8000 SCT033CB TEMPO 0721/0801 0200 FG VV003 BECMG 0802/0803 34006G13MPS", "TAF UNTT 072000Z 0721/0806 12003G08MPS 8000 -SHRA BKN040CB TEMPO 0721/0724 0300 FG BKN002 BKN016CB PROB40 TEMPO 0800/0806 -TSRA", "TAF UNWW 072000Z 0721/0821 20003MPS 8000 BKN040CB TEMPO 0721/0801 0300 -TSRA FG SCT002 BKN020CB TEMPO 0801/0818 34006G17MPS -TSRA BKN020CB", "TAF UOOO 071947Z 0721/0821 11003G08MPS 6000 BKN016CB BECMG 0723/0801 18008G18MPS TEMPO 0801/0815 -TSRA BECMG 0816/0818 12003G08MPS", "TAF URKA 071957Z 0721/0821 18003G08MPS CAVOK FM080300 16006G12MPS 9999 SCT030CB TEMPO 0803/0821 6000 -TSRA BKN020CB", "TAF URKK 071953Z 0721/0821 23003G08MPS 9999 SCT030CB TEMPO 0721/0815 18006G14MPS 6000 -TSRA BKN016CB", "TAF URMG 072000Z 0721/0806 28003G08MPS 6000 BKN016", "TAF URML 072000Z 0721/0806 17003G10MPS 6000 SCT016 SCT060 TEMPO 0721/0724 15005G11MPS PROB40 TEMPO 0800/0805 3000 BR SCT007 SCT050", "TAF URMM 072000Z 0721/0821 29003G08MPS 9999 BKN055 TX29/0812Z TN18/0802Z TEMPO 0721/0821 VRB06G14MPS 6000 -TSRA BKN016 BKN030CB", "TAF URMN 072000Z 0721/0806 25003G08MPS 9999 BKN020CB TEMPO 0721/0806 34006G13MPS 6000 -TSRA BKN016CB", "TAF URMO 072000Z 0721/0806 28003G08MPS 9999 BKN055 TEMPO 0721/0806 6000 -SHRA BKN016 BKN030CB", "TAF URMT 072000Z 0721/0806 14003G08MPS 9999 SCT030 FM080000 24003G09MPS 9999 SCT030CB TEMPO 0800/0806 6000 -SHRA BKN020CB", "TAF AMD URRP 072028Z 0721/0821 09003G12MPS 9999 SCT030CB TX31/0814Z TN22/0804Z TEMPO 0721/0818 12006G13MPS 6000 -TSRA SCT016 BKN030CB BECMG 0819/0821 22003G12MPS", "TAF URSS 071956Z 0721/0821 05003G08MPS 9999 BKN030CB OVC100 TEMPO 0721/0809 VRB07G12MPS 1500 TSRA FC BECMG 0809/0810 14005G10MPS BKN040CB TEMPO 0810/0818 VRB07MPS -TSRA FC BECMG 0818/0819 05003G08MPS", "TAF URWA 071957Z 0721/0806 07003G08MPS CAVOK TEMPO 0803/0806 11006G12MPS", "TAF URWW 071957Z 0721/0806 10007G12MPS 9999 BKN020 SCT040CB TEMPO 0721/0806 07008G15MPS", "TAF USCC 072000Z 0721/0821 30003G08MPS CAVOK", "TAF USCM 072000Z 0721/0806 34003G08MPS 9999 NSC", "TAF USHH 071932Z 0721/0821 29003G10MPS 9999 BKN020 TEMPO 0721/0809 5000 -SHRA BR FEW003 BKN016CB BECMG 0803/0805 31003G12MPS", "TAF USNN 071950Z 0721/0821 29003G10MPS 9999 SCT020 TEMPO 0721/0803 0500 -TSRA FG FEW002 BKN016CB TEMPO 0806/0818 28006G15MPS -TSRA FEW010 BKN016CB", "TAF USPP 071955Z 0721/0821 24003G08MPS CAVOK BECMG 0806/0808 20003G13MPS", "TAF USRR 071955Z 0721/0821 28003MPS 9999 SCT020 TEMPO 0721/0802 VRB01MPS 0200 FG VV002 BECMG 0802/0804 30006G14MPS TEMPO 0804/0818 5000 -SHRA FEW005 BKN016CB", "TAF USSS 071952Z 0721/0821 25003G08MPS 6000 SCT020 FM080600 29003G13MPS CAVOK BECMG 0815/0818 18003G08MPS", "TAF USTR 071955Z 0721/0821 27003G08MPS 9999 SCT020 TEMPO 0721/0803 30003MPS 2100 BR MIFG SCT005 BECMG 0805/0806 32006G12MPS BECMG 0815/0817 16003MPS", "TAF UTAA 071645Z 0718/0818 34016KT 6000 SCT050 TEMPO 0718/0802 VRB04KT TEMPO 0802/0808 29014G24KT 4000 DRDU TEMPO 0808/0814 02010G20KT", "TAF UTAK 071630Z 0718/0818 05014KT CAVOK TEMPO 0718/0724 33012KT 5000 SCT020", "TAF UTAM 071630Z 0718/0818 02012KT 6000 SCT050 TEMPO 0718/0724 32010KT TEMPO 0800/0804 VRB04KT 3000 HZ NSC BECMG 0804/0805 04016KT TEMPO 0806/0815 36014G24KT 3000 DRDU", "TAF UTAT 071647Z 0718/0818 32012KT CAVOK TEMPO 0718/0724 36012KT", "TAF UTAV 071630Z 0718/0818 03010KT 5000 NSC TEMPO 0718/0722 33018KT 2000 HZ SCT050 TEMPO 0722/0801 VRB04KT 3000 HZ FU SKC BECMG 0803/0805 05012KT CAVOK TX41/0809Z TEMPO 0803/0815 01016G26KT 3000 BLDU NSC", "TAF UTDD 072100Z 0722/0810 VRB02MPS 7000 SCT060CB BKN100", "TAF UTDK 072100Z 0722/0807 VRB02MPS 9999 SCT066CB BKN100 TEMPO 0722/0804 03006MPS", "TAF UTDL 072100Z 0722/0810 VRB02MPS 9999 SCT080 BECMG 0800/0802 08006MPS TEMPO 0804/0810 07012MPS", "TAF UTDT 072100Z 0722/0807 VRB02MPS 8000 SCT050CB BKN100 TEMPO 0722/0807 3100 HZ", "TAF UTFF 072100Z 0722/0807 14010KT 9999 NSC TEMPO 0722/0804 28015KT FEW060CB", "TAF UTFN 071700Z 0718/0818 33010KT 9999 SCT050CB BKN100 TEMPO 0718/0802 24016G26KT 6000 -SHRA BKN040CB", "TAF UTNN 071700Z 0718/0818 03008G18KT CAVOK TX38/0812Z TN23/0801Z TEMPO 0718/0803 VRB04KT", "TAF UTNU 071700Z 0718/0818 30008G18KT CAVOK TX38/0811Z TN20/0801Z TEMPO 0718/0724 VRB04KT", "TAF UTSA 071701Z 0718/0818 VRB03KT 7000 NSC TX37/0811Z TN22/0800Z TEMPO 0718/0805 03014KT SCT033", "TAF UTSB 071702Z 0718/0818 VRB03KT 7000 NSC TX38/0811Z TN23/0800Z TEMPO 0718/0805 36014KT SCT033", "TAF UTSK 072100Z 0722/0807 05010KT CAVOK TEMPO 0722/0803 33008KT", "TAF UTSS 071700Z 0718/0818 12010KT 9999 NSC TEMPO 0718/0803 07012G22KT FEW066CB", "TAF UTST 071700Z 0718/0818 VRB06KT 6000 NSC TX39/0811Z TN23/0801Z TEMPO 0718/0804 25019G29KT 2400 -DS SCT060CB BKN100", "TAF UTTT 071700Z 0718/0818 07010KT 7000 FEW060CB SCT100 TEMPO 0718/0803 35012KT TS SCT050CB BKN100", "TAF UUBC 071957Z 0721/0806 33003MPS 6000 SCT020 PROB40 TEMPO 0721/0724 -TSRA BKN016CB", "TAF UUBW 071955Z 0721/0821 32003MPS 6000 SCT030 TX24/0812Z TN17/0821Z TEMPO 0721/0803 1000 BR BKN003 PROB40 TEMPO 0721/0809 -TSRA SCT016CB TEMPO 0806/0815 33008MPS", "TAF UUDD 071954Z 0721/0903 33003MPS 6000 SCT020 TX22/0813Z TN18/0801Z TEMPO 0721/0803 0300 FG BKN002 TEMPO 0803/0809 33008MPS 2900 -SHRA BR FEW004 BKN016CB PROB40 TEMPO 0809/0812 -TSRA BKN020CB", "TAF UUDL 072000Z 0721/0821 27003MPS 9999 BKN040 TX23/0812Z TN17/0802Z TEMPO 0721/0803 0300 FG VV002 PROB40 TEMPO 0721/0803 -TSRA BKN010CB", "TAF UUEE 071950Z 0721/0821 33005MPS 9999 SCT040 TX21/0813Z TN16/0801Z TEMPO 0721/0812 4900 -SHRA BKN004 SCT016CB", "TAF AMD UUMO 072140Z 0721/0806 32003MPS 0300 FG FEW003 BECMG 0801/0803 6000 NSW BKN016", "TAF UUOB 071955Z 0721/0806 04003G08MPS 9999 BKN040 TEMPO 0721/0724 4000 -TSRA BKN020CB", "TAF UUOK 071657Z 0718/0803 01003G08MPS 9999 SCT030", "TAF UUOL 072000Z 0721/0806 09003MPS 9999 SCT030", "TAF UUOO 072000Z 0721/0806 09003MPS 9999 BKN030CB PROB40 TEMPO 0721/0803 -TSRA", "TAF UUWW 071956Z 0721/0821 34003G08MPS 9000 SCT040 TX21/0813Z TN16/0821Z TEMPO 0721/0809 2500 -SHRA BR BKN004 BKN016CB PROB40 TEMPO 0809/0814 -TSRA BKN020CB", "TAF UUYY 072000Z 0721/0821 06003G12MPS 9999 BKN017CB TEMPO 0721/0802 0300 -SHRA FG BKN002 BKN016CB FM080200 09003G14MPS 6000 -SHRA FEW011 BKN017CB TEMPO 0802/0815 12003MPS -TSRA BKN016CB TEMPO 0815/0821 12003G14MPS -TSRA SCT007 BKN016CB", "TAF UWGG 071950Z 0721/0821 18003G09MPS 8000 SCT030 TX24/0812Z TN20/0803Z TEMPO 0800/0818 20008G14MPS -TSRA BKN014CB", "TAF UWKD 072000Z 0721/0821 19003MPS CAVOK TX32/0812Z TN17/0801Z", "TAF UWKE 071959Z 0721/0821 VRB01MPS 9999 SCT040 BECMG 0803/0805 17003G09MPS", "TAF UWKS 071941Z 0721/0806 VRB01MPS 9999 SCT040 TX29/0806Z TN20/0801Z", "TAF UWLL 072000Z 0721/0821 18003G08MPS 9999 SCT020 TX30/0810Z TN17/0803Z TEMPO 0803/0818 22006G12MPS", "TAF UWLW 071948Z 0721/0821 15003MPS 9999 SCT030 TX33/0811Z TN19/0801Z TEMPO 0806/0816 18005G10MPS", "TAF UWOO 071941Z 0721/0821 01003G10MPS 9999 SCT040 TX36/0811Z TN18/0801Z BECMG 0805/0806 15003G08MPS TEMPO 0806/0815 18005G14MPS SCT030CB", "TAF UWOR 071943Z 0721/0806 06003MPS 9999 SCT030 TX29/0806Z TN18/0802Z TEMPO 0721/0803 11003G10MPS", "TAF UWPS 071950Z 0721/0806 16003MPS 9999 SCT040 TX21/0721Z TN17/0803Z", "TAF UWSG 071954Z 0721/0806 04003MPS CAVOK TX22/0721Z TN18/0803Z TEMPO 0721/0806 08003G08MPS SCT040", "TAF UWUU 071954Z 0721/0821 29003G08MPS 9999 BKN040 TX32/0811Z TN15/0801Z TEMPO 0721/0806 VRB01MPS TEMPO 0806/0821 18003G08MPS SCT030CB", "TAF UWWW 071954Z 0721/0821 05003G09MPS 9999 SCT033 TX33/0812Z TN19/0801Z BECMG 0802/0804 15005G11MPS", "TAF VAAH 072000Z 0721/0806 21006KT 3000 RA BR SCT015 SCT020 BKN080 TEMPO 0722/0803 23010G20KT 1000 TSRA RA SCT012 SCT018 FEW030CB OVC080 BECMG 0801/0803 25005KT 2000 RA BR BECMG 0804/0806 23006KT 4000 RA BR", "VAAU 071700Z 0718/0824 25006KT 3000 -RA -SHRA SCT018 SCT025 BKN090 BECMG 0721/0723 00000KT 2500 -RA SHRA BECMG 0804/0806 25008KT 4000 DZ HZ TEMPO 0806/0812 25007G17KT 2000 -TSRA SHRA SCT012 SCT018 FEW030CB OVC080 BECMG 0815/0817 25006KT 3000 HZ BECMG 0821/0823 00000KT 2500 HZ", "TAF VABB 072000Z 0721/0806 23010KT 1500 RA DZ SCT012 SCT015 FEW025TCU OVC080 TEMPO 0721/0724 1000 +SHRA +RA SCT010 SCT018 FEW030CB/TCU OVC080 TEMPO 0803/0806 23010G20KT 0800 TSRA SHRA SCT008 SCT015 FEW030CB OVC080", "TAF VABJ 072000Z 0721/0806 23006KT 4000 RA BR FEW015 SCT020 OVC080 TEMPO 0721/0803 20010G20KT 1000 -TSRA +RA SCT012 SCT018 FEW030CB OVC080 BECMG 0801/0803 25006KT 3000 RA BR SCT010 SCT015 BKN080 BECMG 0804/0806 27006KT 6000 FEW015 SCT020 BKN080", "TAF VABO 072000Z 0721/0806 23006KT 4000 RA BR FEW015 SCT020 BKN080 TEMPO 0723/0803 18010G20KT 1000 TSRA RA FEW015 SCT020 FEW030CB OVC080 BECMG 0801/0803 21005KT 3000 RA BR BECMG 0804/0806 4000 RA BR", "TAF VABP 072000Z 0721/0806 23010KT 5000 -RA HZ SCT020 BKN100 BECMG 0801/0803 4000 -RA HZ SCT010 SCT020 BKN100 BECMG 0804/0806 5000 -RA HZ SCT020 BKN100", "TAF VABV 072000Z 0721/0806 25005KT 4000 RA BR SCT015 SCT020 BKN080 TEMPO 0722/0803 23010G20KT 1000 TSRA RA SCT012 SCT018 FEW030CB OVC080 BECMG 0801/0803 23005KT 2000 RA BR BECMG 0804/0806 5000 -DZ HZ", "TAF VADU 072000Z 0721/0806 27008KT 4000 RA BR SCT015 SCT020 BKN080 TEMPO 0722/0803 23010G20KT 1000 TSRA RA SCT012 SCT018 FEW030CB OVC080 BECMG 0801/0803 2000 RA BR BECMG 0804/0806 25010KT 3000 RA BR", "TAF VAID 072000Z 0721/0806 23010KT 5000 -RA HZ SCT020 BKN100 BECMG 0801/0803 3000 -RA HZ SCT010 SCT020 BKN100 BECMG 0804/0806 5000 -RA HZ SCT020 BKN100", "TAF VAJB 072000Z 0721/0806 23010KT 3000 -RA HZ SCT008 BKN018 OVC080 BECMG 0801/0803 2000 -RA HZ SCT010 BKN018 BKN080", "TAF VAJM 072000Z 0721/0806 24006KT 5000 RA HZ FEW015 SCT020 BKN080 TEMPO 0721/0803 20010G20KT 0800 TSRA +RA SCT010 SCT018 FEW030CB OVC080 BECMG 0801/0803 2000 RA BR SCT010 SCT015 BKN080 BECMG 0804/0806 4000 RA BR", "TAF VANP 072000Z 0721/0806 18003KT 3000 RA/HZ SCT018 FEW030CB BKN090", "TAF VAPO 071100Z 0712/0818 26010KT 5000 -RA FEW010 SCT015 BKN090 BECMG 0715/0716 27008KT 6000 SCT015 SCT020 BKN100 TEMPO 0801/0804 4000 RABR SCT010 SCT012 BKN080 TEMPO 0812/0815 27010G20KT 4000 RA SCT008 SCT012 BKN080", "TAF VAPR 072000Z 0721/0806 27006KT 4000 RA BR FEW015 SCT020 FEW030TCU OVC080 TEMPO 0721/0803 32010G20KT 0800 TSRA +RA SCT010 SCT018 FEW030CB OVC080 BECMG 0801/0803 3000 RA BR SCT010 SCT015 BKN080 BECMG 0804/0806 4000 RA BR", "TAF VARK 072000Z 0721/0806 23006KT 5000 DZ HZ FEW015 SCT020 BKN080 TEMPO 0722/0803 23010G20KT 0800 TSRA +RA SCT012 SCT018 FEW030CB OVC080 BECMG 0801/0803 3000 RA BR SCT010 SCT015 BKN080 BECMG 0804/0806 25008KT 6000 FEW012 SCT018 BKN080", "TAF VASU 072000Z 0721/0806 20008KT 5000 DZ HZ FEW012 SCT018 BKN080 TEMPO 0722/0803 1500 TSRA -RA SCT010 SCT018 FEW030CB OVC080 BECMG 0801/0803 22008KT 4000 RA BR BECMG 0804/0806 18006KT 6000 FEW020 SCT025 BKN080", "TAF VAUD 071700Z 0718/0824 18005KT 2500 BR -TSRA BKN025 FEW035CB BKN080", "TAF VCBI 071700Z 0718/0824 18005KT 9999 FEW016 TX30/0807Z TN26/0800Z BECMG 0720/0722 VRB05KT PROB30 TEMPO 0722/0804 7000 -SHRA FEW012 BKN016 BECMG 0803/0805 25008KT", "TAF VCRI 071700Z 0718/0824 26010KT 9999 FEW018 SCT060 TX34/0808Z TN25/0800Z BECMG 0803/0805 27012G22KT PROB30 TEMPO 0808/0816 8000 -TSRA/SHRA FEW018 FEW020CB BKN080 BECMG 0814/0816 25008KT", "TAF VDPP 071700Z 0718/0812 16009KT 9999 SCT017 SCT040 TEMPO 0720/0800 5000 TSRA SCT015 FEW017CB BKN040 TEMPO 0807/0811 SCT015 FEW017 SCT040", "TAF VDSR 071700Z 0718/0812 21007KT 9999 SCT017 SCT040 TEMPO 0808/0812 5000 TSRA SCT015 FEW017CB BKN040", "TAF VDSV 071700Z 0718/0812 24007KT 9999 SCT017 SCT040 TEMPO 0808/0812 SCT015 FEW017CB BKN040", "TAF VEAT 072000Z 0718/0803 18005KT 3000 -RA BR FEW010 SCT018 FEW025CB BKN090 BECMG 0801/0803 5000 BR HZ FEW020 BKN100", "TAF VEBD 071100Z 0712/0818 11010KT 6000 SCT025 BKN090 TEMPO 0716/0720 3000 TSRABR SCT010 SCT020 FEW030CB BKN090 TEMPO 0801/0804 5000 RABR SCT015 SCT025 BKN090", "TAF VEBN 072000Z 0721/0806 08007KT 2500 BR SCT020 FEW030CB BKN100 TEMPO 0721/0801 2000 -TSRA -RA SCT018 FEW030CB OVC090 BECMG 0804/0806 13006KT 4000 HZ SCT020 BKN090", "TAF VEBS 072000Z 0721/0806 16005KT 3500 -RA HZ SCT018 BKN090 TEMPO 0721/0801 1500 TSRA BKN016 FEW030CB OVC080", "TAF VECC 072000Z 0721/0806 13007KT 3500 -RA HZ SCT018 SCT100 BECMG 0723/0801 2500 -RA HZ BECMG 0803/0805 3500 -RA HZ", "TAF VEDG 072000Z 0721/0806 15007KT 3200 -RA HZ SCT018 SCT100 BECMG 0800/0802 00000KT 2500 -RA HZ BECMG 0803/0805 15007KT 3500 -RA HZ", "TAF VEGT 072000Z 0721/0806 20005KT 3000 -RA BR FEW010 SCT018 FEW025CB BKN090", "TAF VEGY 071400Z 0715/0724 08006KT 3000 -RA BR SCT020 FEW030CB BKN100 TEMPO 0721/0723 1400 -TSRA SCT010 SCT015 FEW030CB OVC080", "TAF VEIM 072000Z 0721/0806 18005KT 2500 -RA BR FEW010 SCT018 FEW025CB BKN090 BECMG 0804/0806 27005KT 5000 BR HZ SCT018 BKN100", "TAF VEKI 071100Z 0712/0818 09014KT 3000 BR SCT020 BKN100 TEMPO 0715/0719 1500 -RA -TSRA SCT018 FEW030CB BKN090 BECMG 0723/0801 09004KT 2000 BR TEMPO 0802/0806 2000 -RA -TSRA SCT018 FEW030CB BKN090 BECMG 0806/0808 09004KT 4000 BR HZ", "TAF VEKO 072000Z 0721/0806 18010KT 2500 -RA HZ SCT010 SCT018 OVC080 BECMG 0801/0803 2000 -RA HZ SCT008 BKN018 OVC080 BECMG 0804/0806 3000 -RA HZ SCT020 BKN080", "TAF VEMN 072000Z 0721/0806 13005KT 2500 -RA BR FEW008 SCT018 FEW025CB OVC090", "TAF VEMR 072000Z 0721/0806 12005KT 2500 -RA BR FEW010 SCT018 FEW025CB BKN090 BECMG 0804/0806 25005KT 5000 BR HZ SCT018 SCT100", "TAF VEPT 072000Z 0721/0806 12006KT 2500 -RA BR SCT010 SCT015 OVC080 BECMG 0803/0805 3500 BR", "TAF VERC 072000Z 0721/0806 15006KT 3000 -RA BR SCT020 BKN100 BECMG 0803/0805 5000 HZ", "TAF VERP 072000Z 0721/0806 15003KT 3000 RA/HZ SCT018 FEW030CB BKN090", "TAF VETZ 071530Z 0718/0806 25010KT 6000 SCT015 FEW030CB BKN090 TEMPO 0720/0802 3000 TSRA SCT010 SCT015 FEW030CB BKN090", "TAF VGEG 071700Z 0718/0824 16015KT 4000 HZ SCT016 SCT100 TEMPO 0722/0802 16025G35KT 1500 RA/TSRA BKN008 FEW025CB OVC080 BECMG 0802/0804 12012KT 5000 HZ SCT016 SCT100 BECMG 0808/0810 21015KT 5000 SCT016 SCT100 BECMG 0816/0818 23012KT 3500 SCT016 BKN100", "TAF VGHS 071700Z 0718/0824 15008KT 3500 HZ FEW015 SCT100 TEMPO 0800/0809 15015G25KT 2000 RA/TSRA BKN008 FEW025CB OVC090 BECMG 0809/0811 17012KT 4000 HZ SCT015 BKN100", "TAF VHHH 072000Z 0721/0903 21010KT 9999 FEW020 TX33/0806Z TN29/0722Z TN28/0822Z", "TAF VIAG 071700Z 0718/0900 04005KT 6000 SCT020 SCT100 TEMPO 0720/0724 08010KT 4000 RABR SCT015 BKN090 TEMPO 0800/0803 3000 BR TEMPO 0806/0810 12015G25KT 3000 TSRA SCT012 FEW030CB BKN090 TEMPO 0814/0818 04005KT 5000 RABR SCT012 SCT015 BKN090 BECMG 0820/0821 5000 BR", "TAF VIAR 072000Z 0721/0806 07004KT 3500 BR SCT030 BKN090 TEMPO 0722/0802 21015G25KT 1500 TSRA BKN025 FEW035CB OVC080 BECMG 0804/0806 13010KT 3000 BR -RA SCT030 BKN090", "TAF VICG 071100Z 0712/0818 16005KT 6000 SCT025 FEW030TCU CB BKN090 BECMG 0715/0716 VRB02KT 6000 SCT025 BKN090 BECMG 0800/0802 16010G20KT 4000 TSRA SCT020 FEW030CB BKN090 BECMG 0803/0804 16010KT 5000 -RABR FEW015 SCT020 FEW030 TCU CB BKN090 TEMPO 0809/0812 16010G20KT 4000 TSRA", "TAF VIDP 072001Z 0721/0806 13020G30KT 1500 TSRA BKN025 FEW035CB OVC080 BECMG 0723/0802 13010KT 2500 BR RA SCT030 BKN090 BECMG 0804/0806 13008KT 3000 BR DZ SCT030 BKN090", "TAF VIJP 071700Z 0718/0803 11006KT 2000 BR -TSRA BKN025 FEW035CB BKN080", "TAF VIJU 070930Z 0718/0812 01005KT 6000 FEW025 BKN090 TEMPO 0805/0809 01010KT 4000 TSRA SCT025 OVC090 FEW030TCU/CB", "TAF VILH 070930Z 0718/0812 29005KT 6000 FEW050 SCT060 BKN100 TEMPO 0804/0807 24010KT 5000 RA SCT050 SCT060 BKN100 TEMPO 0810/0812 30010G20KT 4000 RA FEW050CB SCT050 BKN090", "TAF VILK 072000Z 0721/0806 09005KT 2500 BR SCT020 FEW030CB TEMPO 0721/0801 2000 -TSRA -RA SCT018 FEW030CB OVC090 BECMG 0801/0803 09004KT 3000 BR SCT020 FEW030CB OVC090 BECMG 0804/0806 11008KT 4000 BR SCT020 BKN100", "TAF VISR 071530Z 0718/0806 VRB02KT 4000 RABR SCT015 BKN080", "TAF VLLB 071700Z 0718/0818 24004KT 5000 BR SCT020 FEW060", "TAF VLLN 071700Z 0718/0818 27004KT 5000 BR FEW020 SCT100", "TAF VLPS 071700Z 0718/0818 22004KT 6000 FEW020 FEW050", "TAF VLSK 071700Z 0718/0818 18004KT 4000 BR FEW020 SCT100", "TAF VLVT 071700Z 0718/0818 22002KT 4000 BR FEW050 FEW200", "TAF VMMC 071700Z 0718/0824 20008KT 9999 FEW015", "TAF VNKT 071700Z 0718/0818 12003KT 7000 FEW015 SCT025 BKN100 BECMG 0800/0802 VRB02KT 6000 FEW010 SCT025 BKN100 BECMG 0806/0807 22008KT 8000 FEW015 SCT030 BKN100 PROB40 0808/0812 VRB12KT 4000 -TSRA FEW025CB BECMG 0814/0815 20004KT 7000 FEW015 SCT025 BKN100", "TAF VOAR 070500Z 0706/0812 26012KT 6000 SCT018 BKN090 TEMPO 0710/0714 29010G20KT 3400 -TSRA/RA SCT016 FEW025TCU/CB OVC080 BECMG 0714/0715 4500 DZ/BR BECMG 0802/0803 6000", "TAF VOBG 072000Z 0721/0806 27010KT 6000 SCT008 SCT012 BKN080", "TAF VOBL 072000Z 0721/0806 27010KT 6000 SCT008 SCT012 BKN080", "TAF VOBM 071700Z 0718/0803 27010KT 6000 SCT008 SCT012 BKN080", "TAF VOBZ 072000Z 0721/0806 25010KT 5000 DZ HZ SCT015 BKN100 TEMPO 0721/0803 21015KT 3000 TSRA BKN010 FEW030CB BKN080 BECMG 0804/0806 26010G20KT 6000 SCT015 SCT025 BKN100", "TAF VOCB 071700Z 0718/0824 23010KT 4000 -DZ/BR SCT015 BKN080 BECMG 0805/0806 23015KT 6000 TEMPO 0809/0815 SCT015 FEW020TCU/CB BKN080 BECMG 0818/0819 23010KT 4000 BR", "TAF VOCI 072000Z 0721/0806 VRB03KT 2000 RA BR FEW006 SCT012 FEW025CB OVC080 TEMPO 0722/0802 VRB03KT 1500 +RA BR SCT006 SCT012 FEW025CB OVC080 BECMG 0803/0805 30010KT 4000 -RA BR FEW008 SCT012 FEW025CB BKN080 ", "TAF VOCL 072000Z 0721/0806 24005KT 3000 RA BR FEW006 SCT012 SCT012 FEW025CB OVC080 TEMPO 0722/0802 VRB03KT 1500 +RA BR SCT002 SCT012 FEW025CB OVC080 BECMG 0803/0805 24010KT 3000 RA BR FEW006 SCT012 FEW025CB OVC080 ", "TAF VOGO 071700Z 0718/0803 31010KT 5000 -RA DZ FEW010 SCT018 OVC080 TEMPO 0720/0724 27010KT", "TAF VOHB 072000Z 0721/0806 27010KT 6000 SCT008 SCT012 BKN080", "TAF VOHS 072000Z 0721/0806 27010KT 5000 DZ HZ SCT015 BKN100 TEMPO 0721/0803 21015KT 3000 RA BKN010 FEW030CB BKN080 BECMG 0804/0806 26010G20KT 6000 SCT010 SCT015 BKN100", "TAF VOHY 071400Z 0715/0724 27010KT 5000 DZ HZ SCT015 BKN100 TEMPO 0715/0718 23020KT 3000 TSRA BKN010 FEW030CB OVC080 TEMPO 0721/0724 27015KT 3000 TSRA BKN010 FEW030CB BKN080", "TAF VOKN 072000Z 0721/0806 VRB03KT 2000 RA BR FEW004 SCT012 FEW025CB OVC080 BECMG 0722/0802 VRB03KT 1200 +RA BR SCT003 SCT012 FEW025CB OVC080 BECMG 0803/0805 32010KT 3000 RA BR FEW006 SCT012 FEW025CB BKN080 ", "TAF VOMD 071700Z 0718/0824 27010KT 6000 FEW020 BKN100 BECMG 0803/0804 27015KT TEMPO 0809/0815 FEW020 FEW025TCU/CB BKN100 BECMG 0818/0819 27010KT", "TAF VOML 072000Z 0721/0806 25010KT 3000 -RA DZ BR SCT002 SCT012 FEW025CB BKN080 TEMPO 0721/0803 1500 RA DZ BR", "TAF VOMM 071700Z 0718/0824 25010KT 6000 SCT020 BKN100 TEMPO 0718/0724 SCT020 FEW025TCU/CB BKN100 BECMG 0721/0722 4000 HZ BECMG 0803/0804 25015KT 6000 BECMG 0821/0822 25010KT 4000 HZ", "TAF VOPB 072000Z 0721/0806 25008KT 5000 BR SCT014 BKN080 TEMPO 0721/0724 25010G20KT 3000 TSRA RA SCT012 FEW022TCU/CB OVC080", "TAF VORY 072000Z 0721/0806 26010KT 5000 .DZ HZ SCT015 BKN100 TEMPO 0721/0803 21015KT 3000 .TSRA BKN010 FEW030CB BKN080 BECMG 0804/0806 26010G20KT 6000 SCT015 SCT025 BKN100", "TAF VOTP 072000Z 0721/0806 24010KT 5000 .DZ HZ SCT015 SCT100 TEMPO 0721/0803 21015KT 3000 .RA BKN010 FEW030TCU BKN080 BECMG 0804/0806 26010G20KT 6000 SCT015 SCT025", "TAF VOTR 071700Z 0718/0824 27010KT 4000 HZ SCT020 BKN100 BECMG 0803/0804 27015KT 6000 BECMG 0815/0816 27010KT 4000 HZ", "TAF VOTV 072000Z 0721/0806 30005KT 2500 -RA BR FEW008 SCT012 FEW025CB BKN080 BECMG 0722/0802 32010KT 2000 RA BR FEW008 SCT012 FEW025CB OVC080 BECMG 0803/0805 32010G20KT 4000 -RA BR FEW008 SCT015 FEW025TCU BKN080 ", "TAF VRMG 071700Z 0718/0824 01006KT 9999 FEW018TCU TEMPO 0718/0724 5000 TSRA FEW017CB", "TAF VRMH 071700Z 0718/0824 28008KT 9999 SCT018TCU TEMPO 0721/0803 5000 TSRA FEW017CB", "TAF VRMM 071700Z 0718/0824 27008KT 9999 FEW018TCU TEMPO 0718/0724 FEW017CB", "TAF VTBD 071700Z 0718/0824 18008KT 9999 FEW020 SCT040 TEMPO 0805/0810 VRB15KT 4000 TSRA FEW018CB SCT035 BKN100", "TAF VTBO 071700Z 0718/0818 18005KT 9000 SCT020 TEMPO 0721/0801 VRB15KT 4000 TSRA FEW018CB SCT030 TEMPO 0804/0808 VRB15KT 3000 TSRA FEW018CB SCT030 BKN100", "TAF VTBS 071700Z 0718/0824 18008KT 9999 FEW020 SCT040 TEMPO 0805/0810 VRB15KT 4000 TSRA FEW018CB SCT035 BKN100", "TAF VTBU 071700Z 0718/0818 17005KT 9999 FEW020 BECMG 0719/0721 35004KT BECMG 0801/0803 18008KT TEMPO 0805/0810 VRB15KT 4000 TSRA FEW018CB SCT035 BKN100", "TAF VTCC 071700Z 0718/0824 24005KT 9999 SCT035 TEMPO 0806/0812 -TSRA FEW025CB BKN035 TEMPO 0814/0820 -TSRA FEW025CB BKN035", "TAF VTCH 071700Z 0718/0818 29005KT 9999 SCT025 TEMPO 0809/0815 -TSRA FEW020CB BKN025", "TAF VTCL 071700Z 0718/0818 20005KT 9999 SCT025 TEMPO 0809/0815 17010G25KT 4000 TSRA FEW020CB BKN025", "TAF VTCN 071700Z 0718/0818 22005KT 9999 SCT025 TEMPO 0812/0818 -TSRA FEW020CB BKN025", "TAF VTCP 071700Z 0718/0818 17005KT 9999 SCT035 TEMPO 0809/0812 -TSRA FEW020CB BKN025", "TAF VTCT 071700Z 0718/0824 20005KT 9999 SCT035 TEMPO 0806/0812 -TSRA FEW018CB BKN025", "TAF VTPB 071700Z 0718/0818 27005KT 9999 SCT030 TEMPO 0809/0815 -TSRA FEW020CB BKN025", "TAF VTPH 071700Z 0718/0818 23003KT 9999 FEW020 BECMG 0803/0805 13008KT TEMPO 0806/0812 VRB15G25KT 3000 TSRA FEW016CB SCT018 BKN100 BECMG 0813/0815 23003KT", "TAF VTPM 071700Z 0718/0818 25005KT 9999 SCT025 TEMPO 0809/0815 26010G25KT 4000 TSRA FEW020CB BKN025", "TAF VTPO 071700Z 0718/0818 18005KT 9999 SCT025 TEMPO 0815/0818 16010G25KT 4000 TSRA FEW020CB BKN025", "TAF VTPP 071700Z 0718/0818 20005KT 9999 SCT030 TEMPO 0809/0815 -TSRA FEW020CB BKN025", "TAF VTPT 071700Z 0718/0818 17005KT 9999 SCT026 TEMPO 0809/0815 20010G25KT 4000 TSRA FEW020CB BKN025", "TAF VTSB 071700Z 0718/0818 18004KT 9999 FEW020 TEMPO 0718/0724 VRB15G25KT 4000 TSRA FEW016CB SCT018 BKN100 BECMG 0803/0805 24008KT TEMPO 0807/0814 VRB15G25KT 3000 TSRA FEW016CB SCT018 BKN100", "TAF VTSC 071700Z 0718/0818 20004KT 9999 FEW020 TEMPO 0718/0724 VRB15G25KT 4000 TSRA FEW016CB SCT018 BKN100 BECMG 0804/0806 04010KT TEMPO 0807/0813 VRB15G25KT 3000 TSRA FEW016CB SCT018 BKN100 BECMG 0813/0815 20004KT", "TAF VTSE 071700Z 0718/0818 27005KT 9999 FEW020 TEMPO 0807/0814 27015G25KT 3000 TSRA FEW016CB SCT018 BKN100", "TAF VTSF 071700Z 0718/0818 20003KT 9999 FEW020 TEMPO 0718/0724 VRB15G25KT 4000 TSRA FEW016CB SCT018 BKN100 BECMG 0804/0806 06008KT TEMPO 0807/0813 VRB15G25KT 3000 TSRA FEW016CB SCT018 BKN100 BECMG 0813/0815 20003KT", "TAF VTSG 071700Z 0718/0818 24005KT 9999 SCT020 TEMPO 0804/0812 -TSRA FEW018CB SCT020 BKN100", "TAF VTSM 071700Z 0718/0818 14005KT 9999 FEW020 TEMPO 0718/0724 VRB15G25KT 3000 TSRA FEW016CB SCT018 BKN100 BECMG 0801/0803 33010KT TEMPO 0809/0818 33015G25KT 3000 TSRA FEW016CB SCT018 BKN100", "TAF VTSP 071700Z 0718/0824 28008KT 9999 SCT020 TEMPO 0720/0804 -TSRA FEW018CB SCT020 BKN100 TEMPO 0806/0814 -TSRA FEW018CB SCT020 BKN100", "TAF VTSR 071700Z 0718/0818 24005KT 9999 SCT020 TEMPO 0720/0804 -TSRA FEW018CB SCT020 BKN100 TEMPO 0806/0814 -TSRA FEW018CB SCT020 BKN100", "TAF VTSS 071700Z 0718/0818 12003KT 9999 FEW020 BECMG 0802/0804 24010KT TEMPO 0804/0812 24015G25KT 3000 TSRA FEW016CB SCT018 BKN100 BECMG 0813/0815 12003KT", "TAF VTST 071700Z 0718/0818 20005KT 9999 SCT020 TEMPO 0804/0812 -TSRA FEW018CB SCT020 BKN100", "TAF VTSY 071700Z 0718/0818 00000KT 9999 SCT020 TEMPO 0718/0721 VRB15G25KT 4000 TSRA FEW016CB SCT018 BKN100 BECMG 0721/0723 2000 BR BKN005 BECMG 0803/0805 23006KT 9999 NSW FEW020 TEMPO 0806/0812 VRB15G25KT 3000 TSRA FEW016CB SCT018 BKN100", "TAF VTUD 071700Z 0718/0818 19005KT 8000 FEW030 TEMPO 0807/0813 VRB15KT 4000 TSRA FEW018CB BKN025 BKN080", "TAF VTUI 071700Z 0718/0818 19005KT 8000 FEW030 TEMPO 0807/0813 VRB15KT 4000 TSRA FEW018CB BKN025 BKN080", "TAF VTUK 071700Z 0718/0818 19005KT 8000 FEW030 TEMPO 0807/0813 VRB15KT 4000 TSRA FEW018CB BKN025 BKN080", "TAF VTUL 071700Z 0718/0818 19005KT 8000 FEW030", "TAF VTUO 071700Z 0718/0818 18005KT 9000 SCT030 TEMPO 0808/0812 -TSRA FEW020CB BKN030", "TAF VTUQ 071700Z 0718/0818 18005KT 9000 SCT030 TEMPO 0808/0812 -TSRA FEW020CB BKN030", "TAF VTUU 071700Z 0718/0818 16005KT 9000 SCT030 TEMPO 0808/0812 -TSRA FEW020CB BKN030", "TAF VTUV 071700Z 0718/0818 17005KT 9000 FEW030", "TAF VTUW 071700Z 0718/0818 19005KT 8000 FEW030 TEMPO 0807/0813 VRB15KT 4000 TSRA FEW018CB BKN025 BKN080", "TAF VVCI 071100Z 0712/0812 16008KT 9999 SCT017", "TAF VVCR 071700Z 0718/0818 32005KT 9999 FEW015 BECMG 0802/0803 12010KT TEMPO 0808/0812 TS SCT013 FEW017CB SCT060 BECMG 0813/0814 32005KT", "TAF VVCT 071700Z 0718/0818 VRB02KT 9999 SCT015 BECMG 0801/0803 23010KT TEMPO 0806/0810 3000 TSRA SCT013 SCT015CB", "TAF VVDN 071700Z 0718/0818 20005KT 9999 FEW015 BECMG 0803/0804 11010KT PROB30 TEMPO 0809/0813 4500 TSRA SCT013 FEW017CB BKN050 BECMG 0813/0814 20005KT", "TAF VVNB 071100Z 0712/0812 12012KT 9999 FEW030", "TAF VVPB 071700Z 0718/0818 22004KT 9999 FEW017 BECMG 0802/0803 08010KT TEMPO 0808/0812 4000 TSRA SCT012 FEW015CB BKN050 BECMG 0812/0813 22005KT", "TAF VVPQ 071700Z 0718/0818 VRB02KT 9999 SCT015 BECMG 0800/0802 25010KT TEMPO 0804/0810 5000 TSRA SCT015 FEW017CB", "TAF VVTS 071700Z 0718/0824 VRB03KT 9999 SCT017 SCT040 BECMG 0800/0801 17010KT TEMPO 0805/0809 5000 TSRA BKN013 FEW015CB BKN040", "TAF VVVD 071100Z 0712/0812 18008KT 9999 FEW030", "TAF VYMD 071700Z 0718/0818 17008KT 7000 BKN020 FEW025CB BKN120 TEMPO 0718/0724 22010G20KT 4000 -TSRA BKN015 FEW020CB BKN100", "TAF VYNT 071700Z 0718/0818 24006KT 7000 BKN020 FEW025CB BKN120 TEMPO 0718/0724 21005KT 5000 -RA BKN015 FEW020CB OVC100", "TAF VYYY 071700Z 0718/0818 22005KT 7000 SCT020 FEW025TCU SCT110 TEMPO 0718/0724 24003KT 7000 SCT020 SCT110", "TAF WAAA 071700Z 0718/0824 09003KT 8000 SCT019 BECMG 0801/0803 28010KT", "TAF WABB 071700Z 0718/0900 33003KT 9999 SCT018", "TAF WADD 071700Z 0718/0818 13015KT 9999 SCT016 TEMPO 0722/0803 5000 RA FEW014CB BKN014", "TAF WADL 071700Z 0718/0818 12010KT 7000 BKN016 PROB40 TEMPO 0718/0720 5000 -RA FEW015CB", "TAF WALL 071700Z 0718/0824 26004KT 9000 SCT020 TEMPO 0721/0724 4000 RA BKN015", "TAF AMD WALS 072000Z 0721/0806 32004KT 5000 -RA BKN015 BECMG 0722/0724 NSW SCT015", "TAF WAMM 071700Z 0718/0824 VRB03KT 9999 SCT020 BECMG 0801/0802 30009KT TEMPO 0805/0808 5000 TSRA FEW016CB", "TAF WAOO 071700Z 0718/0818 14005KT 9999 SCT018", "TAF WAPP 071700Z 0718/0818 35006KT 7000 BKN017 TEMPO 0720/0722 4000 -TSRA FEW015CB SCT018", "TAF WAQA 071700Z 0718/0806 31003KT 8000 SCT012", "TAF AMD WAQD 072000Z 0718/0806 00000KT 6000 SCT015 PROB30 TEMPO 0721/0724 4000 SHRA BKN015", "TAF WAQJ 071700Z 0718/0806 25006KT 7000 BKN017 BECMG 0720/0721 1000 BR BKN006 BECMG 0800/0801 8000 NSW BKN015", "TAF AMD WAQQ 072000Z 0721/0806 34004KT 8000 FEW015CB SCT015 TEMPO 0721/0724 3000 TSRA", "TAF WAQT 071700Z 0718/0806 VRB02KT 8000 BKN018 TEMPO 0721/0724 3000 BR", "TAF WARR 071700Z 0718/0818 23005KT 4000 HZ FEW020 BECMG 0800/0802 09010KT 9999 NSW", "TAF COR WATT 071700Z 0718/0818 12007KT 8000 FEW018 BECMG 0800/0802 10018G28KT", "TAF WBGB 071700Z 0718/0818 19005KT 9999 SCT014 TEMPO 0718/0722 5000 TSRA FEW015CB", "TAF WBGG 071700Z 0718/0818 23005KT 9999 SCT020 TEMPO 0722/0801 5000 RA FEW008", "TAF WBGR 071700Z 0718/0818 25005KT 9999 SCT014 TEMPO 0718/0722 5000 RA FEW008 TEMPO 0808/0812 4000 TSRA FEW015CB", "TAF AMD WBGS 072110Z 0721/0818 16005KT 9999 SCT016 TEMPO 0721/0801 5000 RA FEW007", "TAF WBKK 071700Z 0718/0818 VRB03KT 9999 FEW014 TEMPO 0808/0812 4000 TSRA FEW010 FEW015CB SCT035", "TAF WBKL 071700Z 0718/0818 VRB02KT 9999 FEW014", "TAF AMD WBKS 071746Z 0718/0818 VRB03KT 9999 FEW016 BECMG 0802/0804 06007KT", "TAF WBKW 071700Z 0718/0818 VRB03KT 9999 FEW016 PROB30 TEMPO 0803/0806 5000 TSRA FEW015CB SCT016", "TAF WBSB 071650Z 0718/0900 15003KT 9999 FEW003 FEW015CB BECMG 0802/0804 25005KT FEW014 FEW015CB TEMPO 0807/0811 6000 -TSRA", "TAF WIDD 071700Z 0718/0818 26003KT 9999 FEW014", "TAF WIEE 071700Z 0718/0818 36004KT 5000 -RA SCT018 BECMG 0719/0721 9999 NSW", "TAF WIHH 071700Z 0718/0818 24003KT 4000 HZ SCT020 BECMG 0802/0804 11006KT 6000", "TAF WIII 071700Z 0718/0824 VRB02KT 3000 BR SCT020 TEMPO 0718/0722 SHRA FEW013CB BECMG 0801/0803 01010KT 8000 NSW TEMPO 0808/0812 3000 TSRA FEW013CB", "TAF WIMM 071700Z 0718/0818 VRB05KT 5000 HZ FEW016CB SCT018 TEMPO 0718/0720 -TSRA BECMG 0802/0804 08010KT 9000 NSW BECMG 0811/0813 VRB05KT 5000 HZ", "TAF WIPP 071700Z 0718/0818 16008KT 9999 SCT010 TEMPO 0721/0724 3000 BR", "TAF WITT 071700Z 0718/0818 14006KT 9999 SCT018 BECMG 0802/0804 27009KT BECMG 0715/0717 14005KT", "TAF WMAP 071700Z 0718/0818 VRB02KT 9000 FEW010 PROB40 0720/0800 5000 BR FEW003 TEMPO 0805/0810 4000 TSRA FEW008 FEW016CB", "TAF WMBT 071700Z 0718/0818 24004KT 9999 FEW025", "TAF WMKA 071700Z 0718/0818 VRB03KT 9000 SCT030 PROB40 TEMPO 0719/0800 6000 TSRA FEW010 FEW017CB TEMPO 0806/0811 27006KT 6000 TSRA FEW017CB", "TAF WMKB 071700Z 0718/0818 VRB02KT 9000 FEW024 PROB30 TEMPO 0720/0724 6000 TSRA FEW017CB", "TAF WMKC 071700Z 0718/0818 VRB03KT 9999 FEW020 TEMPO 0718/0720 7000 -TSRA FEW017CB TEMPO 0809/0813 7000 -TSRA FEW017CB", "TAF WMKE 071700Z 0718/0818 VRB02KT 9999 FEW020", "TAF WMKI 071700Z 0718/0818 04005KT 8000 FEW024 TEMPO 0806/0810 23006KT 6000 TSRA FEW017CB", "TAF WMKJ 071700Z 0718/0818 VRB03KT 9000 FEW010 TEMPO 0806/0810 4000 TSRA FEW017CB SCT020", "TAF WMKK 071700Z 0718/0900 VRB02KT 9000 FEW010 PROB30 TEMPO 0718/0722 5000 RA FEW017CB SCT026 TEMPO 0804/0809 3000 +TSRA FEW008 FEW016CB", "TAF WMKL 071700Z 0718/0818 VRB03KT 9999 FEW026 TEMPO 0720/0802 5000 TSRA FEW010 FEW017CB", "TAF WMKM 071700Z 0718/0818 VRB03KT 9000 FEW010 PROB40 TEMPO 0718/0800 5000 RA FEW008 FEW017CB", "TAF WMKN 071700Z 0718/0818 VRB03KT 9999 FEW022", "TAF WMKP 071700Z 0718/0818 VRB03KT 8000 FEW025 TEMPO 0720/0801 5000 TSRA FEW010 FEW017CB TEMPO 0805/0810 22007KT 5000 TSRA FEW017CB", "TAF WMPA 070500Z 0706/0806 04003KT 9000 SCT020 TEMPO 0706/0710 29007KT 6000 TSRA FEW017CB", "TAF WMSA 071700Z 0718/0818 VRB03KT 9000 FEW026 PROB40 TEMPO 0718/0722 5000 RA FEW017CB SCT020 TEMPO 0805/0809 24010KT 4000 TSRA FEW010 FEW016CB", "TAF WPDL 071728Z 0718/0806 16006KT 9999 FEW030 FM080000 35008KT CAVOK", "TAF WSAP 071700Z 0718/0900 16006KT 9999 FEW015 SCT020 TEMPO 0803/0806 3000 TSRA FEW012CB BKN015", "TAF WSSL 071700Z 0718/0900 16006KT 9999 FEW015 SCT020 TEMPO 0803/0806 3000 TSRA FEW012CB BKN015", "TAF WSSS 071700Z 0718/0900 16006KT 9999 FEW015 SCT020 TEMPO 0803/0806 3000 TSRA FEW012CB BKN015", "TAF YAMB 071705Z 0718/0818 29010KT CAVOK", "TAF YBAS 071728Z 0718/0818 30005KT 9999 FEW010 FM080100 14010KT CAVOK FM081200 09005KT CAVOK", "TAF YBBN 072003Z 0721/0900 25010KT CAVOK FM080400 06008KT CAVOK FM080900 24012KT CAVOK", "TAF YBCG 072002Z 0721/0818 24006KT CAVOK FM080000 36009KT CAVOK FM080800 30006KT CAVOK", "TAF YBCS 072004Z 0721/0818 16008KT 9999 SCT040 FM080000 15012KT 9999 SCT030 FM080900 16008KT 9999 SCT025 BKN040", "TAF YBHM 071721Z 0718/0806 15016KT 9999 BKN050 FM080000 15017KT CAVOK", "TAF YBLN 071703Z 0718/0818 11003KT 9999 SCT035 BECMG 0800/0802 30012KT 9999 -SHRA BKN025 PROB30 0718/0800 0300 FG", "TAF YBMA 071721Z 0718/0806 16006KT CAVOK FM072300 14014KT CAVOK", "TAF YBRK 071702Z 0718/0818 18004KT CAVOK FM080000 21009KT CAVOK FM080900 19004KT CAVOK", "TAF YBRM 071708Z 0718/0818 13010KT CAVOK FM080100 11014KT CAVOK FM080400 14008KT CAVOK", "TAF YBSU 071704Z 0718/0818 27007KT CAVOK FM080000 21009KT CAVOK FM080900 26006KT CAVOK", "TAF YBTL 071722Z 0718/0818 19005KT CAVOK FM080000 16010KT CAVOK FM080300 07010KT CAVOK FM080800 17006KT 9999 FEW020", "TAF AMD YBWW 071705Z 0718/0818 24007KT 9999 FEW015 FM080000 23014KT 9999 FEW020 FM080800 25007KT CAVOK", "TAF YCFS 071706Z 0718/0818 27008KT CAVOK FM080100 01012KT CAVOK FM080900 25010KT CAVOK", "TAF YCIN 071902Z 0720/0808 12014KT CAVOK", "TAF YFRT 071923Z 0720/0808 25012KT 9999 SCT040", "TAF YGEL 071704Z 0718/0812 04007KT 9999 FEW040 FM080600 10005KT CAVOK", "TAF YGLA 071706Z 0718/0806 20007KT CAVOK", "TAF YHID 071723Z 0718/0818 13014KT 9999 SCT010 BKN020 FM080000 12019KT 9999 SCT025", "TAF AMD YLHI 071721Z 0718/0818 24016G26KT 9999 -SHRA SCT035 FM080300 26015G25KT 9999 NSW SCT030 FM081100 29016G28KT 9999 BKN035", "TAF YMAV 071711Z 0718/0818 33025G35KT 9999 -SHRA BKN040 FM080100 29025G42KT 9999 -SHRA SCT030 FM080700 28020G32KT 9999 -SHRA SCT035", "TAF AMD YMHB 072135Z 0721/0818 35015G25KT 9999 -SHRA SCT040 FM080000 32015G32KT 9999 NSW SCT035 FM080800 33015G25KT 9999 -SHRA SCT020 BKN040 FM081100 30015G25KT 9999 -SHRA SCT030", "TAF AMD YMLT 071732Z 0718/0818 34020G32KT 9999 -SHRA SCT015 BKN020 FM080100 32018G28KT 9999 -SHRA FEW015 BKN030 FM081000 33015G25KT 9999 NSW FEW025 SCT030 TEMPO 0718/0801 34022G38KT 3000 SHRA BKN008 BKN014 INTER 0801/0810 4000 SHRA SCT012 BKN020", "TAF YMML 072010Z 0721/0900 35017G27KT 9999 -SHRA FEW035 FM080100 29025G42KT 9999 -SHRA FEW035 FM080700 29018G30KT 9999 NSW FEW035", "TAF YPAD 072009Z 0721/0900 28018G30KT 9999 -SHRA SCT015 BKN030 FM080800 27013KT 9999 -SHRA SCT015 BKN030 FM081800 29010KT 9999 -SHRA SCT010 BKN020 INTER 0721/0802 28020G35KT 3000 SHRA SCT007 BKN010 SCT025TCU", "TAF AMD YPCC 071708Z 0717/0818 11016KT 9999 SCT020 INTER 0717/0803 11016G26KT 3000 SHRA BKN010", "TAF YPDN 072003Z 0721/0900 09005KT CAVOK FM080000 12012KT CAVOK FM080800 32008KT CAVOK FM081200 14010KT CAVOK", "TAF AMD YPEA 071927Z 0719/0812 VRB03KT 9999 FEW001 SCT045 FM080100 36005KT 9999 FEW005 SCT035 FM080300 27008KT 9999 -SHRA FEW020 BKN030 INTER 0808/0812 4000 SHRA BKN010 PROB30 0719/0801 0300 FG BKN001", "TAF YPGV 071852Z 0720/0814 14014KT 9999 FEW025", "TAF AMD YPJT 072002Z 0720/0812 VRB03KT 4000 BR FEW001 SCT040 BECMG 0723/0800 35005KT 9999 -SHRA SCT015 BKN025 FM080600 29006KT 9999 -SHRA FEW020 BKN030 INTER 0803/0806 4000 SHRA BKN015 PROB30 0720/0800 0300 FG BKN001", "TAF AMD YPKG 072131Z 0721/0818 28005KT 9999 SCT008 FM072300 27003KT 9999 BKN008 BECMG 0801/0802 25008KT 9999 SCT025 FM080600 23008KT 9999 BKN040", "TAF YPKU 071852Z 0720/0808 16006KT CAVOK FM072300 12014KT CAVOK FM080400 15010KT CAVOK", "TAF YPLM 071704Z 0718/0818 20010KT CAVOK FM080100 12014KT CAVOK FM080700 15008KT CAVOK FM081100 20010KT CAVOK", "TAF YPPD 071703Z 0718/0818 14010KT CAVOK FM080100 10018G28KT CAVOK FM080500 12012KT CAVOK FM081000 15008KT CAVOK", "TAF AMD YPPH 072006Z 0720/0900 03006KT 9999 BKN001 FM072130 04005KT 9999 SCT003 SCT040 FM072300 02005KT 9999 FEW005 SCT020 FM080100 36005KT 9999 BKN025 FM080300 27008KT 9999 -SHRA FEW020 BKN030 FM081400 04005KT 9999 -SHRA FEW010 SCT020 INTER 0808/0900 4000 SHRA BKN010 PROB30 0720/0800 0300 FG BKN001", "TAF YPTN 071727Z 0718/0818 14005KT CAVOK FM080000 12012KT CAVOK FM081200 15008KT CAVOK", "TAF YPWR 071744Z 0718/0812 27014KT CAVOK FM072200 28014KT 9999 SCT020 BKN025 FM080300 25015G25KT 9999 -SHRA SCT020 BKN030 FM080800 24012KT 9999 -SHRA BKN030", "TAF AMD YPXM 072032Z 0720/0818 13016KT 4000 SHRA BKN005 BECMG 0800/0802 12014KT 9999 NSW BKN016 TEMPO 0720/0802 0500 SHRA BKN002 TEMPO 0812/0818 9999 BKN012", "TAF AMD YSCB 072128Z 0721/0818 34016G28KT 9999 FEW015 SCT025 BKN030 FM080000 34020G32KT 9999 -RA SCT025 FM081200 29015KT 9999 NSW SCT025 TEMPO 0721/0801 9999 BKN015 TEMPO 0801/0804 3000 RA BKN010 INTER 0804/0810 4000 SHRA BKN015", "TAF AMD YSDU 072057Z 0720/0812 30004KT 9999 BKN040 FM080000 30012KT 9999 SCT040 FM080100 30015G25KT CAVOK FM080700 30010KT 9999 SCT035 PROB30 0720/0722 0500 FG", "TAF AMD YSNF 071721Z 0718/0818 25020G30KT 9999 -SHRA SCT025 FM081000 24015G25KT 9999 NSW SCT030 FM081500 25014KT 9999 SCT030", "TAF AMD YSRI 071725Z 0718/0818 29009KT CAVOK FM072100 35010KT CAVOK FM080200 29015G30KT CAVOK FM080900 28014KT CAVOK", "TAF YSSY 072031Z 0721/0900 29012KT CAVOK FM072300 29016KT CAVOK FM080100 30020G30KT CAVOK FM080900 29016KT CAVOK FM081200 29012KT CAVOK", "TAF AMD YSTW 072136Z 0721/0812 32005KT 9999 BKN040 FM080100 32012KT 9999 FEW040 FM080700 32006KT 9999 SCT035", "TAF YWLM 071730Z 0718/0818 29014KT CAVOK FM072100 29018G28KT CAVOK FM072300 29030G40KT CAVOK FM080800 29017G28KT CAVOK FM081200 29014KT CAVOK", "TAF ZMCK 071649Z 0718/0824 VRB02MPS 6000 FEW030CB SCT033 TN11/0721Z TX23/0807Z BECMG 0800/0802 9999 NSW TEMPO 0802/0814 VRB08MPS SHRA SCT027CB SCT030", "TAF ZMUB 071645Z 0718/0824 VRB02MPS 9999 FEW030CB SCT033 TN11/0721Z TX23/0807Z TEMPO 0802/0814 VRB08MPS SHRA SCT027CB SCT030"]}