{"station_id": ["AGGA", "AGGC", "AGGH", "AGGK", "AGGL", "AGGM", "AGGN", "AGGR", "ANYN", "AYPY", "BGGH", "BGJN", "BGMQ", "BGSF", "BGUK", "BGUQ", "BIVM", "BKPR", "CBBC", "CWSA", "CWWU", "CYAH", "CYAM", "CYAS", "CYAT", "CYAY", "CYBC", "CYBG", "CYBK", "CYBR", "CYBW", "CYBX", "CYCA", "CYCB", "CYCO", "CYCY", "CYDB", "CYDF", "CYDL", "CYDN", "CYDP", "CYDQ", "CYEG", "CYEK", "CYEN", "CYER", "CYEU", "CYEV", "CYFB", "CYFC", "CYFS", "CYGK", "CYGL", "CYGP", "CYGQ", "CYGR", "CYGV", "CYGW", "CYGX", "CYHA", "CYHD", "CYHK", "CYHM", "CYHU", "CYHY", "CYHZ", "CYIO", "CYIV", "CYJT", "CYKA", "CYKF", "CYKJ", "CYKL", "CYLD", "CYLL", "CYLW", "CYMA", "CYMH", "CYMM", "CYMO", "CYMT", "CYMX", "CYNA", "CYND", "CYNE", "CYOD", "CYOJ", "CYOO", "CYOW", "CYPA", "CYPE", "CYPH", "CYPL", "CYPQ", "CYPR", "CYPX", "CYPY", "CYQA", "CYQB", "CYQD", "CYQF", "CYQG", "CYQH", "CYQI", "CYQK", "CYQL", "CYQM", "CYQQ", "CYQR", "CYQT", "CYQU", "CYQV", "CYQW", "CYQX", "CYQY", "CYQZ", "CYRB", "CYRJ", "CYRL", "CYRQ", "CYRT", "CYSB", "CYSC", "CYSF", "CYSJ", "CYSM", "CYSN", "CYTE", "CYTH", "CYTL", "CYTQ", "CYTR", "CYTS", "CYTZ", "CYUL", "CYUX", "CYUY", "CYVC", "CYVM", "CYVO", "CYVP", "CYVQ", "CYVR", "CYVT", "CYVV", "CYWE", "CYWG", "CYWK", "CYWL", "CYXC", "CYXE", "CYXH", "CYXJ", "CYXL", "CYXR", "CYXS", "CYXT", "CYXU", "CYXX", "CYXY", "CYXZ", "CYYB", "CYYC", "CYYD", "CYYE", "CYYF", "CYYG", "CYYH", "CYYJ", "CYYL", "CYYN", "CYYQ", "CYYR", "CYYT", "CYYU", "CYYY", "CYYZ", "CYZE", "CYZF", "CYZG", "CYZH", "CYZP", "CYZR", "CYZS", "CYZT", "CYZV", "CYZX", "CZBF", "CZMD", "CZUM", "CZVL", "DAAD", "DAAE", "DAAG", "DAAJ", "DAAP", "DAAS", "DAAT", "DAAV", "DAAY", "DABB", "DABC", "DABS", "DABT", "DAFH", "DAOB", "DAOF", "DAOI", "DAON", "DAOO", "DAOR", "DAOV", "DATM", "DAUA", "DAUB", "DAUG", "DAUH", "DAUI", "DAUK", "DAUL", "DAUO", "DAUT", "DAUU", "DAUZ", "DBBB", "DFFD", "DFOO", "DGAA", "DGLE", "DGSI", "DIAP", "DIBK", "DIYO", "DNAA", "DNAK", "DNBE", "DNGO", "DNIB", "DNIL", "DNJO", "DNKA", "DNKN", "DNKT", "DNMA", "DNMM", "DNSO", "DNSU", "DNYO", "DRRN", "DRZA", "DRZR", "DTKA", "DTMB", "DTNH", "DTTA", "DTTB", "DTTF", "DTTG", "DTTJ", "DTTR", "DTTX", "DTTZ", "DXNG", "DXXX", "EBAW", "EBBL", "EBBR", "EBCI", "EBCV", "EBFN", "EBLG", "EBOS", "EDAC", "EDAH", "EDDB", "EDDC", "EDDE", "EDDF", "EDDG", "EDDH", "EDDK", "EDDL", "EDDM", "EDDN", "EDDP", "EDDR", "EDDS", "EDDV", "EDDW", "EDFH", "EDGS", "EDHK", "EDHL", "EDJA", "EDLN", "EDLP", "EDLV", "EDLW", "EDMA", "EDNY", "EDQM", "EDSB", "EDTL", "EDTY", "EDVE", "EDVK", "EDWE", "EDXW", "EEEI", "EEKA", "EETN", "EFHK", "EFJY", "EFKT", "EFKU", "EFLP", "EFMA", "EFOU", "EFRO", "EFSI", "EFTP", "EFTU", "EFVA", "EGAA", "EGBB", "EGCC", "EGFF", "EGGD", "EGGP", "EGGW", "EGKK", "EGLL", "EGNM", "EGNT", "EGNX", "EGPD", "EGPF", "EGPH", "EGPK", "EGSS", "EGUN", "EHAM", "EHBK", "EHEH", "EHGG", "EHKD", "EHLE", "EHLW", "EHRD", "EHVK", "EICK", "EIDL", "EIDW", "EIKN", "EIKY", "EIME", "EINN", "EISG", "EIWF", "EKAH", "EKBI", "EKCH", "EKEB", "EKGC", "EKHD", "EKKA", "EKOD", "EKRK", "EKRN", "EKSB", "EKSP", "EKVD", "EKVG", "EKYT", "ELLX", "ENAL", "ENAN", "ENAT", "ENBN", "ENBO", "ENBR", "ENCN", "ENDU", "ENEV", "ENFL", "ENGC", "ENGM", "ENHD", "ENHE", "ENHF", "ENKB", "ENKR", "ENLE", "ENML", "ENMS", "ENNA", "ENNE", "ENOA", "ENOL", "ENOV", "ENRM", "ENRO", "ENRY", "ENSB", "ENSK", "ENTC", "ENTO", "ENVA", "ENZV", "EPBY", "EPCE", "EPDA", "EPDE", "EPGD", "EPKK", "EPKS", "EPKT", "EPLB", "EPLK", "EPLL", "EPMB", "EPMI", "EPMM", "EPMO", "EPOK", "EPPO", "EPPW", "EPRZ", "EPSC", "EPSN", "EPSY", "EPWA", "EPWR", "EPZG", "ESDF", "ESGG", "ESGP", "ESKN", "ESKS", "ESMK", "ESMQ", "ESMS", "ESMT", "ESMX", "ESNQ", "ESNS", "ESNU", "ESNZ", "ESPA", "ESSA", "ESSB", "ESSL", "ESSV", "ESTA", "ETAD", "ETAR", "ETNL", "ETNW", "ETOU", "ETSN", "EYKA", "EYPA", "EYVI", "FABL", "FACT", "FAEL", "FAGG", "FAHS", "FAKM", "FAKN", "FALA", "FALE", "FAMM", "FAOR", "FAPE", "FAPM", "FAPP", "FARB", "FAUP", "FAUT", "FAWB", "FBMN", "FBPM", "FBSK", "FCBB", "FCPP", "FDMS", "FDSK", "FEFF", "FGBT", "FGSL", "FIMP", "FIMR", "FJDG", "FKKD", "FKYS", "FLCP", "FLHN", "FLKK", "FLKS", "FLMA", "FLMF", "FLSK", "FLSW", "FMCH", "FMCZ", "FMEE", "FMEP", "FMMI", "FMMS", "FMMT", "FMNA", "FMNM", "FMNN", "FMSD", "FMST", "FNBG", "FNCA", "FNCT", "FNDU", "FNGI", "FNHU", "FNKU", "FNLU", "FNMA", "FNME", "FNMO", "FNSA", "FNSO", "FNUB", "FNUE", "FOOG", "FOOL", "FQBR", "FQCH", "FQIN", "FQLC", "FQMA", "FQNC", "FQNP", "FQPB", "FQQL", "FQTT", "FQVL", "FQXA", "FSIA", "FTTJ", "FVJN", "FVRG", "FWCL", "FWKI", "FYGF", "FYKM", "FYLZ", "FYOA", "FYWE", "FYWH", "FZQA", "GABS", "GAGO", "GBYD", "GCFV", "GCGM", "GCHI", "GCLA", "GCLP", "GCRR", "GCTS", "GCXO", "GECE", "GEML", "GFLL", "GGOV", "GLRB", "GMAD", "GMAG", "GMFF", "GMFK", "GMFM", "GMFO", "GMME", "GMMH", "GMMI", "GMML", "GMMN", "GMMW", "GMMX", "GMMZ", "GMTA", "GMTT", "GOBD", "GOGS", "GOOY", "GOSS", "GQNO", "GQPP", "GUCY", "GVAC", "GVBA", "GVNP", "GVSV", "HAAB", "HADR", "HBBA", "HCMM", "HDAM", "HEAL", "HEAR", "HEAT", "HEAX", "HEBA", "HEBL", "HECA", "HEGN", "HELX", "HEMA", "HEMM", "HEOW", "HEPS", "HESC", "HESG", "HESH", "HESN", "HETB", "HETR", "HKEL", "HKJK", "HKKI", "HKML", "HKMO", "HKNW", "HLGD", "HLGT", "HLKF", "HLLB", "HLLM", "HLLQ", "HLLS", "HLMS", "HLON", "HLTD", "HLTQ", "HLUB", "HRYR", "HRZA", "HSKA", "HSOB", "HSPN", "HSSJ", "HSSK", "HTAR", "HTBU", "HTDA", "HTDO", "HTKA", "HTKJ", "HTMW", "HTTB", "HTZA", "HUEN", "HUSO", "KABE", "KABI", "KABQ", "KABR", "KABY", "KACK", "KACT", "KACV", "KACY", "KADF", "KADW", "KAEG", "KAEX", "KAFW", "KAGC", "KAGS", "KAHN", "KAIA", "KALB", "KALI", "KALO", "KALS", "KALW", "KAMA", "KANB", "KAND", "KAOO", "KAPA", "KAPC", "KAPF", "KAPN", "KARA", "KART", "KASD", "KASE", "KASN", "KAST", "KATL", "KATW", "KATY", "KAUG", "KAUS", "KAUW", "KAVL", "KAVP", "KAXN", "KAZO", "KBAB", "KBAD", "KBAF", "KBAM", "KBBD", "KBBG", "KBCB", "KBCE", "KBDL", "KBDN", "KBDR", "KBED", "KBFD", "KBFF", "KBFI", "KBFL", "KBFM", "KBGM", "KBGR", "KBHB", "KBHM", "KBIF", "KBIH", "KBIL", "KBIS", "KBJC", "KBJI", "KBKE", "KBKF", "KBKW", "KBLF", "KBLH", "KBLI", "KBLV", "KBMG", "KBMI", "KBNA", "KBNO", "KBOI", "KBOS", "KBPI", "KBPK", "KBPT", "KBRD", "KBRL", "KBRO", "KBTL", "KBTM", "KBTR", "KBTV", "KBUF", "KBUR", "KBVI", "KBVO", "KBWG", "KBWI", "KBYI", "KBZN", "KCAE", "KCAK", "KCAR", "KCDC", "KCDR", "KCDS", "KCEC", "KCEF", "KCGI", "KCHA", "KCHO", "KCHS", "KCID", "KCIU", "KCKB", "KCKV", "KCLE", "KCLL", "KCLM", "KCLT", "KCMA", "KCMH", "KCMI", "KCMX", "KCNM", "KCNU", "KCNY", "KCOD", "KCOE", "KCOF", "KCON", "KCOS", "KCOT", "KCOU", "KCPR", "KCPS", "KCRE", "KCRG", "KCRP", "KCRQ", "KCRW", "KCSG", "KCSM", "KCSV", "KCTB", "KCUB", "KCVG", "KCVS", "KCWA", "KCXO", "KCXP", "KCYS", "KDAB", "KDAG", "KDAL", "KDAN", "KDAY", "KDBQ", "KDCA", "KDDC", "KDEC", "KDEN", "KDET", "KDFW", "KDHN", "KDHT", "KDIJ", "KDIK", "KDLH", "KDLS", "KDMA", "KDMN", "KDNL", "KDOV", "KDPA", "KDRO", "KDRT", "KDSM", "KDTW", "KDUG", "KDUJ", "KDVL", "KDVT", "KDYS", "KEAR", "KEAT", "KEAU", "KECG", "KECP", "KEED", "KEET", "KEFD", "KEFK", "KEGE", "KEKN", "KEKO", "KEKS", "KELD", "KELM", "KELP", "KELY", "KENV", "KENW", "KERI", "KEUG", "KEUL", "KEVV", "KEVW", "KEWN", "KEWR", "KEYW", "KFAR", "KFAT", "KFAY", "KFBG", "KFCS", "KFDY", "KFFO", "KFKL", "KFLG", "KFLL", "KFLO", "KFMH", "KFMN", "KFMY", "KFNT", "KFOD", "KFOE", "KFPR", "KFSD", "KFSM", "KFST", "KFTW", "KFTY", "KFVE", "KFWA", "KFXE", "KFYV", "KGBD", "KGCC", "KGCK", "KGCN", "KGDV", "KGEG", "KGFK", "KGFL", "KGGG", "KGGW", "KGJT", "KGKY", "KGLD", "KGLH", "KGLS", "KGMU", "KGNV", "KGON", "KGPI", "KGPT", "KGRB", "KGRF", "KGRI", "KGRK", "KGRR", "KGSB", "KGSO", "KGSP", "KGTF", "KGTR", "KGUC", "KGUP", "KGUS", "KGUY", "KGWO", "KGYY", "KHBG", "KHCR", "KHDC", "KHDN", "KHIB", "KHIE", "KHIF", "KHIO", "KHKS", "KHKY", "KHLG", "KHLN", "KHNB", "KHND", "KHOB", "KHON", "KHOP", "KHOT", "KHOU", "KHPN", "KHQM", "KHRF", "KHRL", "KHRO", "KHRT", "KHST", "KHSV", "KHTS", "KHUF", "KHUL", "KHUM", "KHUT", "KHVR", "KHYA", "KHYR", "KHYS", "KIAB", "KIAD", "KIAG", "KIAH", "KICT", "KIDA", "KIFP", "KILG", "KILM", "KILN", "KIND", "KINK", "KINL", "KINT", "KINW", "KIPL", "KIPT", "KISM", "KISO", "KISP", "KITH", "KIWA", "KIWD", "KIXD", "KJAC", "KJAN", "KJAX", "KJBR", "KJCT", "KJEF", "KJER", "KJFK", "KJHW", "KJKA", "KJKL", "KJLN", "KJMS", "KJST", "KJVL", "KJXN", "KJZI", "KLAF", "KLAL", "KLAN", "KLAR", "KLAS", "KLAW", "KLAX", "KLBB", "KLBE", "KLBF", "KLBL", "KLBT", "KLBX", "KLCH", "KLCK", "KLEB", "KLEE", "KLEX", "KLFI", "KLFK", "KLFT", "KLGA", "KLGB", "KLGU", "KLIT", "KLLQ", "KLMT", "KLND", "KLNK", "KLNS", "KLOZ", "KLRD", "KLRF", "KLRU", "KLSE", "KLSV", "KLUK", "KLVK", "KLVM", "KLVS", "KLWB", "KLWS", "KLWT", "KLYH", "KMAF", "KMBG", "KMBL", "KMBS", "KMCB", "KMCC", "KMCE", "KMCF", "KMCI", "KMCK", "KMCN", "KMCO", "KMCW", "KMDT", "KMDW", "KMEI", "KMEM", "KMER", "KMEV", "KMFD", "KMFE", "KMFR", "KMGE", "KMGM", "KMGW", "KMHK", "KMHR", "KMHT", "KMIA", "KMIV", "KMKC", "KMKE", "KMKG", "KMKL", "KMKT", "KMLB", "KMLC", "KMLI", "KMLS", "KMLU", "KMMH", "KMMT", "KMOB", "KMOD", "KMOT", "KMPV", "KMQY", "KMRB", "KMRY", "KMSL", "KMSN", "KMSO", "KMSP", "KMSS", "KMSY", "KMTC", "KMTH", "KMTJ", "KMTN", "KMTW", "KMVN", "KMWH", "KMXF", "KMYL", "KMYR", "KNBC", "KNBG", "KNCA", "KNEW", "KNFG", "KNGP", "KNGU", "KNHK", "KNIP", "KNKT", "KNKX", "KNQX", "KNSE", "KNTD", "KNTU", "KNUW", "KNXP", "KNYG", "KNYL", "KNZY", "KOAJ", "KOAK", "KOFF", "KOFK", "KOGB", "KOGD", "KOKC", "KOLF", "KOLM", "KOLS", "KOMA", "KONP", "KONT", "KOPF", "KORD", "KORF", "KORH", "KOTH", "KOTM", "KOUN", "KOWB", "KOXR", "KPAE", "KPAH", "KPAM", "KPBF", "KPBG", "KPBI", "KPDK", "KPDT", "KPDX", "KPEQ", "KPGA", "KPGD", "KPGV", "KPHF", "KPHL", "KPHX", "KPIA", "KPIB", "KPIE", "KPIH", "KPIR", "KPIT", "KPKB", "KPLN", "KPMD", "KPNA", "KPNC", "KPNE", "KPNS", "KPOE", "KPOU", "KPQI", "KPRB", "KPRC", "KPSC", "KPSF", "KPSM", "KPSP", "KPTK", "KPUB", "KPUW", "KPVD", "KPVU", "KPVW", "KPWM", "KPWT", "KRAP", "KRBG", "KRBL", "KRDD", "KRDG", "KRDM", "KRDU", "KRFD", "KRHI", "KRIC", "KRIL", "KRIV", "KRIW", "KRKD", "KRKS", "KRME", "KRNH", "KRNO", "KROA", "KROC", "KROG", "KROW", "KRSL", "KRST", "KRSW", "KRUT", "KRVS", "KRWF", "KRWI", "KRWL", "KRYY", "KSAC", "KSAF", "KSAN", "KSAT", "KSAV", "KSAW", "KSBA", "KSBD", "KSBM", "KSBN", "KSBP", "KSBY", "KSCK", "KSDF", "KSDL", "KSDY", "KSEA", "KSEZ", "KSFB", "KSFF", "KSFO", "KSGF", "KSGJ", "KSGR", "KSGU", "KSHR", "KSHV", "KSJC", "KSJS", "KSJT", "KSKA", "KSKF", "KSLC", "KSLE", "KSLI", "KSLK", "KSLN", "KSME", "KSMF", "KSMN", "KSMO", "KSMX", "KSNA", "KSNS", "KSNY", "KSOA", "KSPI", "KSPS", "KSRQ", "KSSC", "KSSF", "KSSI", "KSTC", "KSTJ", "KSTL", "KSTS", "KSUA", "KSUN", "KSUS", "KSUU", "KSUX", "KSWF", "KSWO", "KSYM", "KSYR", "KTCC", "KTCL", "KTCM", "KTCS", "KTEB", "KTEX", "KTIK", "KTIX", "KTLH", "KTMB", "KTOI", "KTOL", "KTOP", "KTPA", "KTPH", "KTRI", "KTRK", "KTRM", "KTTD", "KTTN", "KTUL", "KTUP", "KTUS", "KTVC", "KTVF", "KTVL", "KTWF", "KTXK", "KTYR", "KTYS", "KUAO", "KUES", "KUIN", "KUKI", "KUNV", "KUTS", "KVCT", "KVEL", "KVGT", "KVIS", "KVLD", "KVNY", "KVOK", "KVPS", "KVQQ", "KVRB", "KVTN", "KWJF", "KWMC", "KWRB", "KWRI", "KWRL", "KWWR", "KXNA", "KXWA", "KYIP", "KYKM", "KYNG", "KZZV", "LAKU", "LATI", "LBBG", "LBGO", "LBPD", "LBSF", "LBWN", "LCEN", "LCLK", "LCPH", "LDDU", "LDLO", "LDOS", "LDPL", "LDRI", "LDSP", "LDZA", "LDZD", "LEAB", "LEAG", "LEAL", "LEAM", "LEAO", "LEAS", "LEBA", "LEBB", "LEBG", "LEBL", "LEBZ", "LECO", "LECV", "LEGE", "LEGR", "LEGT", "LEHC", "LEIB", "LEJR", "LELC", "LELL", "LELN", "LELO", "LEMD", "LEMG", "LEMH", "LEMO", "LEPA", "LEPP", "LERI", "LERL", "LERS", "LERT", "LESA", "LESO", "LEST", "LESU", "LETO", "LEVC", "LEVD", "LEVS", "LEVT", "LEVX", "LEXJ", "LEZG", "LEZL", "LFAQ", "LFAT", "LFBA", "LFBD", "LFBE", "LFBH", "LFBI", "LFBL", "LFBM", "LFBO", "LFBP", "LFBT", "LFBU", "LFBZ", "LFCK", "LFCR", "LFGJ", "LFJL", "LFKB", "LFKC", "LFKF", "LFKJ", "LFKS", "LFLB", "LFLC", "LFLL", "LFLN", "LFLP", "LFLS", "LFLW", "LFLX", "LFLY", "LFMD", "LFMI", "LFMK", "LFML", "LFMN", "LFMO", "LFMP", "LFMT", "LFMU", "LFMV", "LFOA", "LFOB", "LFOH", "LFOK", "LFOP", "LFOT", "LFPB", "LFPG", "LFPN", "LFPO", "LFPV", "LFQQ", "LFRB", "LFRC", "LFRD", "LFRG", "LFRH", "LFRI", "LFRK", "LFRM", "LFRN", "LFRQ", "LFRS", "LFRZ", "LFSB", "LFSL", "LFST", "LFSX", "LFTH", "LFTW", "LFVP", "LGAL", "LGAV", "LGEL", "LGHI", "LGIO", "LGIR", "LGKC", "LGKF", "LGKO", "LGKR", "LGKV", "LGMK", "LGMT", "LGPZ", "LGRP", "LGSA", "LGSK", "LGSM", "LGSR", "LGST", "LGTS", "LGZA", "LHBP", "LHDC", "LHKE", "LHPA", "LHPP", "LHPR", "LHSM", "LIBA", "LIBC", "LIBD", "LIBF", "LIBG", "LIBP", "LIBR", "LIBV", "LICA", "LICB", "LICC", "LICD", "LICG", "LICJ", "LICR", "LICT", "LICZ", "LIEA", "LIED", "LIEE", "LIEO", "LIMC", "LIME", "LIMF", "LIMG", "LIMJ", "LIML", "LIMP", "LIMW", "LIMZ", "LIPB", "LIPC", "LIPE", "LIPH", "LIPK", "LIPL", "LIPO", "LIPQ", "LIPR", "LIPS", "LIPX", "LIPY", "LIPZ", "LIRA", "LIRE", "LIRF", "LIRM", "LIRN", "LIRP", "LIRQ", "LIRS", "LIRU", "LIRV", "LIRZ", "LJLJ", "LJMB", "LKCV", "LKKB", "LKKV", "LKMT", "LKNA", "LKPR", "LKTB", "LLBG", "LLER", "LLHA", "LLHZ", "LLIB", "LMML", "LOAN", "LOAV", "LOWG", "LOWI", "LOWK", "LOWL", "LOWS", "LOWW", "LOXZ", "LPAZ", "LPBJ", "LPCS", "LPFR", "LPHR", "LPLA", "LPMA", "LPMR", "LPMT", "LPOV", "LPPD", "LPPR", "LPPS", "LPPT", "LQBK", "LQMO", "LQSA", "LQTZ", "LRAR", "LRBC", "LRBM", "LRBS", "LRCK", "LRCL", "LRCV", "LRIA", "LROD", "LROP", "LRSB", "LRSV", "LRTM", "LRTR", "LSGC", "LSGG", "LSGS", "LSZA", "LSZB", "LSZG", "LSZH", "LSZL", "LSZR", "LSZS", "LTAC", "LTAF", "LTAG", "LTAI", "LTAJ", "LTAP", "LTAT", "LTAU", "LTAY", "LTAZ", "LTBA", "LTBJ", "LTBR", "LTBS", "LTBU", "LTCC", "LTCE", "LTCF", "LTCG", "LTCJ", "LTCS", "LTCV", "LTFC", "LTFE", "LTFJ", "LTFM", "LUKK", "LWOH", "LWSK", "LYBE", "LYBT", "LYKV", "LYNI", "LYPG", "LYTV", "LYVR", "LZIB", "LZKZ", "LZTT", "MBGT", "MBPV", "MDBH", "MDCY", "MDJB", "MDLR", "MDPC", "MDPP", "MDSD", "MDST", "MGGT", "MGMM", "MGPB", "MHLC", "MHLM", "MHPR", "MHRO", "MHTG", "MKJP", "MKJS", "MMAA", "MMAN", "MMAS", "MMBT", "MMCB", "MMCE", "MMCL", "MMCM", "MMCN", "MMCP", "MMCS", "MMCU", "MMCV", "MMCZ", "MMDO", "MMEP", "MMGL", "MMGM", "MMHO", "MMIA", "MMIO", "MMLM", "MMLO", "MMLP", "MMLT", "MMMA", "MMMD", "MMML", "MMMM", "MMMT", "MMMV", "MMMX", "MMMY", "MMMZ", "MMNL", "MMOX", "MMPA", "MMPB", "MMPG", "MMPN", "MMPQ", "MMPR", "MMPS", "MMQT", "MMRX", "MMSD", "MMSL", "MMSM", "MMSP", "MMTC", "MMTG", "MMTJ", "MMTM", "MMTO", "MMTP", "MMUN", "MMVA", "MMVR", "MMZC", "MMZH", "MMZO", "MNBL", "MNMG", "MNPC", "MPDA", "MPMG", "MPPA", "MPSM", "MPTO", "MRLB", "MRLM", "MROC", "MRPV", "MSLP", "MSSS", "MTCH", "MTPP", "MUCC", "MUCF", "MUCL", "MUCM", "MUCU", "MUGM", "MUHA", "MUHG", "MUSC", "MUVR", "MWCB", "MWCR", "MYGF", "MYNN", "MZBZ", "NCRG", "NFFN", "NFNA", "NFTF", "NFTV", "NGFU", "NGTA", "NIUE", "NLWF", "NLWW", "NSFA", "NSTU", "NTAA", "NVSC", "NVSG", "NVSL", "NVSP", "NVSS", "NVVA", "NVVV", "NVVW", "NWWD", "NWWE", "NWWK", "NWWL", "NWWM", "NWWR", "NWWU", "NWWW", "NZAA", "NZCH", "NZQN", "NZWN", "OBBI", "OEAB", "OEAH", "OEAO", "OEBA", "OEBH", "OEDF", "OEDM", "OEDR", "OEGN", "OEGS", "OEGT", "OEHL", "OEJN", "OEKJ", "OEKM", "OEMA", "OENG", "OEPA", "OEPS", "OERF", "OERK", "OERR", "OESH", "OESK", "OETB", "OETF", "OETR", "OEWD", "OEWJ", "OEYN", "OIAA", "OIAW", "OIBB", "OIBK", "OIBP", "OICC", "OICI", "OIFM", "OIGG", "OIIE", "OIII", "OIIP", "OIKB", "OIKK", "OIMM", "OING", "OINZ", "OISL", "OISS", "OITL", "OITR", "OITT", "OIYY", "OIZH", "OJAI", "OJAM", "OJAQ", "OKAS", "OLBA", "OMAA", "OMAD", "OMAL", "OMDB", "OMDW", "OMFJ", "OMRK", "OMSJ", "OODQ", "OOMS", "OOSA", "OOSH", "OPBW", "OPDG", "OPFA", "OPGD", "OPIS", "OPKC", "OPLA", "OPMT", "OPNH", "OPPS", "OPRK", "OPSK", "OPST", "ORBI", "ORER", "ORMM", "ORSU", "OSAP", "OSDI", "OSLK", "OTBD", "OTBH", "OTHH", "PAAQ", "PABE", "PABR", "PABT", "PACD", "PACV", "PADL", "PADQ", "PADU", "PAED", "PAEI", "PAEN", "PAFA", "PAGA", "PAGK", "PAGS", "PAGY", "PAHN", "PAHO", "PAIL", "PAJN", "PAKN", "PAKT", "PAKW", "PAMC", "PANC", "PAOM", "PAOR", "PAOT", "PAPG", "PAQT", "PASC", "PASD", "PASI", "PASN", "PASY", "PATA", "PATK", "PAUN", "PAVD", "PAWG", "PAYA", "PGRO", "PGSN", "PGUA", "PGUM", "PGWT", "PHJH", "PHJR", "PHKO", "PHLI", "PHMK", "PHNL", "PHNY", "PHOG", "PHTO", "PKMJ", "PKWA", "PLCH", "PMDY", "PTKK", "PTRO", "PTYA", "PWAK", "RCFN", "RCKH", "RCMQ", "RCNN", "RCSS", "RCTP", "RJAA", "RJAH", "RJBB", "RJCB", "RJCC", "RJCH", "RJCK", "RJCM", "RJEC", "RJFF", "RJFK", "RJFM", "RJFO", "RJFR", "RJFS", "RJFT", "RJFU", "RJGG", "RJNK", "RJNS", "RJNT", "RJOA", "RJOB", "RJOC", "RJOH", "RJOI", "RJOK", "RJOM", "RJOO", "RJOT", "RJSA", "RJSF", "RJSI", "RJSK", "RJSN", "RJSS", "RJTT", "RJTY", "RKJB", "RKNN", "RKNW", "RKNY", "RKPC", "RKPK", "RKSG", "RKSI", "RKSM", "RKSO", "RKSS", "RKSW", "RKTE", "RKTI", "RKTN", "RKTP", "RKTU", "RKTY", "ROAH", "RODN", "ROIG", "ROTM", "RPLB", "RPLC", "RPLI", "RPLL", "RPMD", "RPMR", "RPMZ", "RPVD", "RPVM", "RPVP", "SAAR", "SABE", "SACO", "SADF", "SAEZ", "SAME", "SANR", "SANT", "SARE", "SARF", "SARI", "SARP", "SASA", "SASJ", "SAVC", "SAVT", "SAWE", "SAWG", "SAWH", "SAZM", "SAZN", "SAZS", "SBAC", "SBAF", "SBAN", "SBAR", "SBAT", "SBBE", "SBBG", "SBBI", "SBBR", "SBBU", "SBBV", "SBBW", "SBCB", "SBCF", "SBCG", "SBCJ", "SBCO", "SBCP", "SBCR", "SBCT", "SBCY", "SBCZ", "SBDN", "SBEG", "SBFI", "SBFL", "SBFN", "SBFZ", "SBGL", "SBGO", "SBGR", "SBGW", "SBIH", "SBIL", "SBIZ", "SBJE", "SBJP", "SBJV", "SBKG", "SBKP", "SBLO", "SBMA", "SBME", "SBMN", "SBMO", "SBMQ", "SBNF", "SBNT", "SBOI", "SBPA", "SBPB", "SBPJ", "SBPK", "SBPL", "SBPP", "SBPS", "SBPV", "SBRB", "SBRF", "SBRJ", "SBRP", "SBSC", "SBSG", "SBSJ", "SBSL", "SBSM", "SBSN", "SBSP", "SBSV", "SBTD", "SBTE", "SBTF", "SBTT", "SBUG", "SBUL", "SBUR", "SBVH", "SBVT", "SBYS", "SCAR", "SCAT", "SCBA", "SCCF", "SCCH", "SCCI", "SCCY", "SCDA", "SCEL", "SCFA", "SCGE", "SCIC", "SCIE", "SCIP", "SCIR", "SCJO", "SCMK", "SCNT", "SCPQ", "SCQP", "SCRD", "SCRG", "SCSE", "SCSN", "SCTB", "SCTE", "SCTN", "SCVD", "SCVM", "SEGU", "SELT", "SEMT", "SEQM", "SGAS", "SGCO", "SGEN", "SGES", "SKAR", "SKBG", "SKBO", "SKBQ", "SKCC", "SKCG", "SKCL", "SKLT", "SKPE", "SKRG", "SKSM", "SKSP", "SLAL", "SLCB", "SLCO", "SLET", "SLLP", "SLTJ", "SLTR", "SLVR", "SMJP", "SMZO", "SOCA", "SPCL", "SPEO", "SPGM", "SPHI", "SPHO", "SPJC", "SPJI", "SPJJ", "SPJR", "SPLO", "SPME", "SPMS", "SPNC", "SPPY", "SPQT", "SPQU", "SPRU", "SPSO", "SPST", "SPTN", "SPTU", "SPUR", "SPYL", "SPZO", "SUAA", "SUCA", "SUDU", "SULS", "SUMU", "SURV", "SUSO", "SVBC", "SVJC", "SVMC", "SVMG", "SVMI", "SVPR", "SVSA", "SYCJ", "SYEB", "SYEC", "SYKA", "SYKM", "SYLT", "SYMB", "TAPA", "TBPB", "TDPD", "TFFF", "TFFR", "TGPY", "TIST", "TISX", "TJBQ", "TJPS", "TJSJ", "TKPK", "TKPN", "TLPC", "TLPL", "TNCA", "TNCB", "TNCC", "TNCM", "TQPF", "TRPG", "TTCP", "TTPP", "TUPJ", "TVSA", "TXKF", "UAAA", "UAAH", "UAAT", "UACC", "UACK", "UACP", "UADD", "UAII", "UAIT", "UAKD", "UAKK", "UAOO", "UARR", "UASK", "UASP", "UASS", "UATE", "UATG", "UATT", "UAUU", "UBBB", "UBBG", "UBBL", "UBBN", "UBBQ", "UCFL", "UCFM", "UCFO", "UDSG", "UDYZ", "UEEE", "UERP", "UERR", "UGAM", "UGKO", "UGMS", "UGSB", "UGTB", "UHBB", "UHHH", "UHMA", "UHMM", "UHPP", "UHSS", "UHWW", "UIAA", "UIBB", "UIII", "UIUU", "ULAA", "ULLI", "ULMM", "ULOO", "ULPB", "ULWC", "UMBB", "UMGG", "UMII", "UMKK", "UMMG", "UMMS", "UMOO", "UNAA", "UNBB", "UNEE", "UNKL", "UNNT", "UNOO", "UNTT", "UNWW", "UOOO", "URKA", "URKK", "URMG", "URML", "URMM", "URMN", "URMO", "URMT", "URRP", "URSS", "URWA", "URWI", "URWW", "USCC", "USCM", "USDA", "USHH", "USNN", "USPP", "USRR", "USSS", "USTR", "UTAA", "UTAK", "UTAM", "UTAT", "UTAV", "UTDD", "UTDK", "UTDL", "UTDT", "UTFF", "UTFN", "UTNN", "UTNU", "UTSA", "UTSB", "UTSK", "UTSS", "UTST", "UTTT", "UUBC", "UUBP", "UUBW", "UUDD", "UUDL", "UUEE", "UUMO", "UUOB", "UUOK", "UUOL", "UUOO", "UUWW", "UUYY", "UWGG", "UWKD", "UWKE", "UWKS", "UWLL", "UWLW", "UWOO", "UWOR", "UWPS", "UWSG", "UWUU", "UWWW", "VAAH", "VAAU", "VABB", "VABJ", "VABO", "VABP", "VABV", "VADU", "VAID", "VAJB", "VAJL", "VAJM", "VAKE", "VAKP", "VAOZ", "VAPO", "VAPR", "VARK", "VARP", "VASD", "VASL", "VASU", "VAUD", "VCBI", "VCRI", "VDPP", "VDSR", "VDSV", "VEAB", "VEAN", "VEBD", "VEBI", "VEBU", "VECC", "VECX", "VEDG", "VEDO", "VEDZ", "VEGK", "VEGT", "VEIM", "VEJH", "VEJR", "VEJS", "VEJT", "VEKI", "VEKO", "VEKU", "VELP", "VELR", "VEMN", "VEMR", "VEPY", "VERC", "VERK", "VERP", "VERU", "VETJ", "VETZ", "VEZO", "VGEG", "VGHS", "VIAG", "VIBR", "VIBT", "VIBY", "VICG", "VIDN", "VIGG", "VIGR", "VIJO", "VIJR", "VIJU", "VILH", "VIPT", "VISM", "VISP", "VISR", "VIUT", "VLLB", "VLLN", "VLPS", "VLSK", "VLVT", "VMMC", "VNKT", "VOAR", "VOBG", "VOBL", "VOBM", "VOBZ", "VOCB", "VOCP", "VOGB", "VOGO", "VOHB", "VOHS", "VOHY", "VOJV", "VOKU", "VOLT", "VOMD", "VOML", "VOMM", "VOMY", "VOND", "VOPB", "VORY", "VOSR", "VOTP", "VOTR", "VOVZ", "VRMG", "VRMH", "VRMM", "VTBD", "VTBO", "VTBS", "VTBU", "VTCC", "VTCH", "VTCL", "VTCN", "VTCP", "VTCT", "VTPB", "VTPH", "VTPM", "VTPO", "VTPP", "VTPT", "VTSB", "VTSC", "VTSE", "VTSF", "VTSG", "VTSM", "VTSP", "VTSR", "VTSS", "VTST", "VTSY", "VTUD", "VTUI", "VTUK", "VTUL", "VTUO", "VTUQ", "VTUU", "VTUV", "VTUW", "VVCI", "VVCR", "VVCT", "VVDN", "VVNB", "VVPB", "VVPQ", "VVTS", "VVVD", "VYMD", "VYNT", "VYYY", "WAAA", "WABB", "WADD", "WADL", "WALL", "WALS", "WAMM", "WAOO", "WAPP", "WAQA", "WAQD", "WAQJ", "WAQQ", "WAQT", "WARR", "WATT", "WBGB", "WBGG", "WBGR", "WBGS", "WBKK", "WBKL", "WBKS", "WBKW", "WBSB", "WIDD", "WIEE", "WIHH", "WIII", "WIMM", "WIPB", "WIPP", "WIPY", "WITT", "WMAP", "WMBT", "WMKA", "WMKB", "WMKC", "WMKE", "WMKI", "WMKJ", "WMKK", "WMKL", "WMKM", "WMKN", "WMKP", "WMPA", "WMSA", "WPDL", "WSAP", "WSSL", "WSSS", "YAMB", "YBAS", "YBBN", "YBCG", "YBCS", "YBHM", "YBLN", "YBMA", "YBRK", "YBRM", "YBSU", "YBTL", "YBWW", "YCFS", "YCIN", "YFRT", "YGEL", "YGLA", "YHID", "YLHI", "YMAV", "YMHB", "YMLT", "YMML", "YPAD", "YPCC", "YPDN", "YPEA", "YPGV", "YPJT", "YPKG", "YPKU", "YPLM", "YPPD", "YPPH", "YPTN", "YPWR", "YPXM", "YSCB", "YSDU", "YSNF", "YSRI", "YSSY", "YSTW", "YWLM", "ZBAA", "ZBAD", "ZBHH", "ZBSJ", "ZBTJ", "ZBYN", "ZGGG", "ZGHA", "ZGKL", "ZGNN", "ZGOW", "ZGSZ", "ZHCC", "ZHHH", "ZJHK", "ZJSY", "ZKPY", "ZKWS", "ZLLL", "ZLXY", "ZMCK", "ZMUB", "ZPPP", "ZSAM", "ZSFZ", "ZSHC", "ZSJN", "ZSNB", "ZSNJ", "ZSOF", "ZSPD", "ZSQD", "ZSSS", "ZUCK", "ZUGY", "ZUUU", "ZWSH", "ZWWW", "ZYCC", "ZYHB", "ZYTL", "ZYTX"], "raw_text": ["TAF AGGA 081710Z 0818/0918 09008KT 9999 FEW018 SCT030 PROB40 INTER 0818/0821 8000 TSRA SCT016 FEW017CB", "TAF AGGC 081710Z 0818/0918 11008KT 9999 SCT018 PROB40 INTER 0818/0821 5000 TSRA SCT016 FEW017CB", "TAF AGGH 091110Z 0912/1012 13008KT 9999 FEW016 PROB40 INTER 0913/0918 8000 TSRA SCT015 FEW016CB T 25 24 26 28 Q 1010 1008 1007 1009", "TAF AGGK 081710Z 0818/0918 09015KT 9999 FEW018 PROB30 INTER 0818/0821 8000 TSRA SCT016 FEW017CB", "TAF AGGL 081710Z 0818/0918 09015KT 9999 FEW018", "TAF AGGM 091110Z 0912/1012 VRB04KT 9999 FEW016 SCT028 PROB40 INTER 0913/0918 5000 TSRA SCT015 FEW016CB Q 1011 1009 1008 1010", "TAF AGGN 091110Z 0912/1012 VRB04KT 9999 FEW016 SCT028 PROB40 INTER 0913/0918 5000 TSRA SCT015 FEW016CB Q 1011 1009 1008 1010", "TAF AGGR 081710Z 0818/0918 12010KT 9999 FEW018", "TAF ANYN 090230Z 0906/1006 08007KT 9999 -SHRA SCT020 BKN120 T 29 28 27 27 Q 1007 1008 1010 1009", "TAF AYPY 090230Z 0906/1006 32008KT 9999 -SHRA SCT016 BKN030 INTER 0906/0909 4000 +TSRA BKN008 FEW017CB", "TAF AMD BGGH 091328Z 0913/0921 34012KT 9999 SCT008 BKN015 BECMG 0915/0918 34022KT TEMPO 0915/0919 SCT015 BKN160", "TAF BGJN 091107Z 0912/0920 04005KT 9999 BKN012 TEMPO 0912/0920 SCT012 BKN120", "TAF BGMQ 091155Z 0912/0921 34005KT 9999 SCT020 TEMPO 0912/0915 BKN020 BECMG 0913/0915 32018KT TEMPO 0917/0921 32020G30KT BKN070", "TAF BGSF 091101Z 0912/0921 06006KT 9999 BKN130 TEMPO 0912/0921 BKN070", "TAF BGUK 091155Z 0912/0919 10003KT 9999 BKN080 TEMPO 0912/0919 34010KT BKN120", "TAF BGUQ 091155Z 0912/0919 32010KT 9999 FEW020 BKN200 TEMPO 0914/0919 SCT003 BKN009", "TAF BIVM 091321Z 0914/0918 12035G48KT 7000 RA BKN006 OVC010 BECMG 0914/0916 11028G38KT TEMPO 0914/0918 2000 RADZ BKN002 OVC005", "TAF BKPR 091130Z 0912/1012 01008KT 9999 BKN040 TEMPO 0912/1006 4000 -RA BR", "TAF CBBC 091240Z 0913/1001 14006KT 6SM -RA OVC040 TEMPO 0913/0918 2SM RA BR OVC020 BECMG 0916/0918 20007KT FM091800 20008KT P6SM -SHRA SCT008 OVC030 TEMPO 0918/1001 2SM -SHRA BR BKN008 OVC020 RMK FCST BASED ON AUTO OBS. NXT FCST BY 091900Z", "TAF CWSA 091340Z 0914/0924 30012KT P6SM SCT040 TEMPO 0914/0924 BKN040 BECMG 0914/0916 30012G22KT RMK FCST BASED ON AUTO OBS. NXT FCST BY 092000Z", "TAF CWWU 091200Z 0912/1012 28012G22KT P6SM SCT040 FM091500 27015G25KT P6SM BKN060 TEMPO 0919/0924 P6SM -SHSN BKN040 OVC060 FM100000 28013G23KT P6SM BKN040 TEMPO 1003/1009 P6SM SCT040 FM100900 22015G25KT P6SM -SHSN BKN030 TEMPO 1009/1012 4SM -SHSN BKN015 OVC030 RMK NXT FCST BY 091800Z", "TAF CYAH 091040Z 0911/0921 23010KT P6SM SCT080 BKN120 FM091700 25015G25KT P6SM FEW030 SCT120 RMK FCST BASED ON AUTO OBS. NXT FCST BY 091800Z", "TAF CYAM 091340Z 0914/1002 10008KT 3/4SM BR OVC003 TEMPO 0914/0916 6SM BR SCT003 FM091600 12008KT P6SM SKC BECMG 0922/0924 BKN120 BECMG 1000/1002 VRB03KT RMK NXT FCST BY 092000Z", "TAF CYAS 091340Z 0914/0921 35005KT P6SM SCT060 BECMG 0915/0917 08010KT RMK NXT FCST BY 101400Z", "TAF CYAT 090840Z 0909/0919 23008KT P6SM SKC RMK FCST BASED ON AUTO OBS. NXT FCST BY 091500Z", "TAF CYAY 091340Z 0914/1002 26012G22KT P6SM SKC FM091800 27015G25KT P6SM BKN040 TEMPO 0918/1002 SCT040 BECMG 0922/0924 23010KT RMK FCST BASED ON AUTO OBS. NXT FCST BY 092000Z", "TAF CYBC 091340Z 0914/1002 24005KT P6SM FEW040 SCT180 BECMG 0914/0916 24015G25KT BKN120 FM100000 25012KT P6SM BKN120 RMK FCST BASED ON AUTO OBS. NXT FCST BY 092000Z", "TAF CYBG 091140Z 0912/1012 27005KT P6SM FEW240 FM091400 28008KT P6SM FEW050 SCT140 BKN240 BECMG 0914/0916 28012G22KT FM091700 28012G22KT P6SM SCT050 BKN100 FM092300 27008KT P6SM SCT250 FM100900 28005KT P6SM SKC RMK NXT FCST BY 091500Z", "TAF AMD CYBK 091213Z 0912/0924 VRB03KT P6SM SCT004 BKN090 TEMPO 0912/0914 2SM -SN BR BKN004 FM091400 31015KT 3SM -SN BR OVC006 TEMPO 0914/0918 P6SM -SN OVC012 FM091800 31020KT 6SM -SN OVC012 TEMPO 0918/0924 P6SM NSW OVC025 RMK NXT FCST BY 091800Z", "TAF CYBR 091140Z 0912/0924 26008KT P6SM SKC PROB30 0912/0914 1/2SM FZFG VV002 FM091400 26012KT P6SM SKC RMK NXT FCST BY 091800Z", "TAF CYBW 091140Z 0912/0924 VRB03KT P6SM FEW240 BECMG 0912/0914 23008KT FM091800 22012G22KT P6SM SCT060 RMK FCST BASED ON AUTO OBS. NXT FCST BY 091800Z", "TAF CYBX 091340Z 0914/1002 27010G20KT P6SM SKC FM091800 27012G22KT P6SM BKN040 TEMPO 0918/0924 SCT040 FM100000 29007KT P6SM SCT020 OVC030 TEMPO 1000/1002 5SM -SN OVC020 BECMG 1000/1002 VRB03KT RMK NXT FCST BY 092000Z", "TAF CYCA 091340Z 0914/1002 30010G20KT P6SM SKC FM091800 29010G20KT P6SM SCT040 TEMPO 0918/0924 P6SM -SHSN BKN040 FM100000 26005KT P6SM -SHSN BKN040 BECMG 1000/1002 VRB03KT RMK FCST BASED ON AUTO OBS. NXT FCST BY 092000Z", "TAF CYCB 091240Z 0913/1001 02022KT 1 1/2SM -SN SCT005 OVC012 TEMPO 0913/0914 3/4SM -SN BLSN BR VV005 FM091400 02020KT 3SM BLSN FEW010 OVC030 TEMPO 0914/0917 1SM -SN BLSN BR VV010 FM091700 03018KT 6SM BLSN FEW015 BKN030 TEMPO 0917/0920 3SM -SN BLSN BKN015 FM092000 02015KT P6SM FEW020 RMK NXT FCST BY 091900Z", "TAF CYCO 091240Z 0913/1001 33008KT P6SM SCT012 OVC020 TEMPO 0913/0915 5SM -SN BR OVC012 FM091500 03005KT P6SM SCT015 OVC025 TEMPO 0915/1001 6SM -SN BR OVC015 BECMG 0922/0924 08012KT RMK NXT FCST BY 091900Z", "TAF CYCY 091240Z 0913/1001 28005KT P6SM SKC RMK FCST BASED ON AUTO OBS. NXT FCST BY 091900Z", "TAF CYDB 091141Z 0912/0924 13015G25KT P6SM FEW020 SCT180 TEMPO 0912/0921 SCT020 BKN150 FM092100 10015KT P6SM SCT040 BKN120 TEMPO 0921/0924 6SM -SHSN BKN040 BKN100 RMK FCST BASED ON AUTO OBS. NXT FCST BY 091800Z", "TAF CYDF 091340Z 0914/1002 27012G22KT P6SM BKN040 TEMPO 0916/0924 5SM -SHSN FM100000 24012KT 3SM -SHSN BKN015 BKN030 PROB30 1000/1002 2SM -SHSN RMK NXT FCST BY 092000Z", "TAF CYDL 091144Z 0912/0923 15008KT P6SM SCT080 BKN180 FM091700 15015G25KT P6SM SCT040 BKN120 TEMPO 0917/0923 5SM -SHRASN BR BKN040 BKN100 RMK FCST BASED ON AUTO OBS. NXT FCST BY 091800Z", "TAF CYDN 091140Z 0912/0924 24008KT P6SM SKC PROB30 0912/0914 3/4SM BR BKN002 FM091400 27012KT P6SM SKC BECMG 0916/0918 27018G28KT RMK FCST BASED ON AUTO OBS. NXT FCST BY 091800Z", "TAF CYDP 091340Z 0914/0923 30012G22KT P6SM SKC FM091800 30010G20KT P6SM SCT030 TEMPO 0918/0923 6SM -SHSN BKN030 BECMG 0921/0923 08008KT RMK NXT FCST BY 092000Z", "TAF CYDQ 091240Z 0913/1001 VRB03KT P6SM SKC BECMG 0919/0921 18012KT FM092100 18012KT P6SM SCT060 TEMPO 0921/1001 BKN060 RMK FCST BASED ON AUTO OBS. NXT FCST BY 091900Z", "TAF CYEG 091140Z 0912/1012 19008KT P6SM SKC BECMG 0918/0920 20015G25KT FM100200 20012KT P6SM SKC BECMG 1009/1011 30008KT RMK NXT FCST BY 091500Z", "TAF CYEK 091140Z 0912/0924 23012KT P6SM SCT090 BKN140 FM091600 28012KT P6SM SCT250 FM092000 29012KT P6SM FEW015 BKN060 TEMPO 0920/0924 BKN015 BECMG 0922/0924 31015KT RMK FCST BASED ON AUTO OBS. NXT FCST BY 091800Z", "TAF CYEN 091140Z 0912/0924 25012KT P6SM SKC RMK FCST BASED ON AUTO OBS. NXT FCST BY 091800Z", "TAF CYER 090840Z 0909/0919 23012KT P6SM FEW250 FM091700 23015KT P6SM BKN250 RMK FCST BASED ON AUTO OBS. NXT FCST BY 091500Z", "TAF CYEU 091045Z 0911/0923 VRB03KT P6SM FEW030 RMK ADVISORY OFFSITE. NXT FCST BY 091800Z", "TAF CYEV 091240Z 0913/1001 06008KT P6SM FEW020 SCT060 BKN080 TEMPO 0913/1001 3SM -SN BR BKN020 OVC060 RMK NXT FCST BY 091900Z", "TAF CYFB 091140Z 0912/1012 32010KT P6SM FEW008 TEMPO 0912/0917 5SM IC FM091700 33012KT P6SM FEW012 BECMG 1000/1002 35006KT RMK NXT FCST BY 091800Z", "TAF CYFC 091140Z 0912/0924 27005KT P6SM FEW040 BECMG 0912/0914 31010KT BECMG 0922/0924 24008KT RMK FCST BASED ON AUTO OBS. NXT FCST BY 091800Z", "TAF CYFS 091142Z 0912/0924 VRB03KT P6SM FEW080 PROB30 0912/0915 2SM BR BKN008 FM091800 12008KT P6SM FEW020 SCT220 RMK NXT FCST BY 091800Z", "TAF CYGK 091340Z 0914/1002 VRB03KT P6SM SKC BECMG 0916/0918 19012KT BECMG 0923/0924 19006KT RMK NXT FCST BY 092000Z", "TAF CYGL 091140Z 0912/1012 22007KT P6SM BKN130 FM091400 22015G25KT P6SM FEW120 FM092100 21012KT P6SM SKC FM100400 21015KT P6SM FEW015 BKN120 FM100600 21015G25KT P6SM BKN015 BKN080 FM100900 21015G25KT P6SM -RA SCT006 OVC015 RMK NXT FCST BY 091800Z", "TAF CYGP 091340Z 0914/1002 30005KT P6SM FEW040 BECMG 0914/0916 28010G20KT FM091800 28012G22KT P6SM BKN060 OVC120 BECMG 0922/0924 28010KT RMK NXT FCST BY 092000Z", "TAF CYGQ 091340Z 0914/1002 17005KT P6SM SKC BECMG 0914/0916 20012G22KT FM091700 20012G22KT P6SM SCT080 BKN180 BECMG 0917/0919 20015G25KT FM092300 20012KT P6SM SCT120 RMK FCST BASED ON AUTO OBS. NXT FCST BY 092000Z", "TAF CYGR 091340Z 0914/1002 33015G25KT P6SM SCT040 TEMPO 0914/0917 5SM -SHSN BKN040 FM091700 29015G25KT P6SM FEW040 FM092000 26015G25KT P6SM BKN140 RMK NXT FCST BY 092000Z", "TAF CYGV 091340Z 0914/1002 27015KT P6SM FEW120 BECMG 0914/0916 27015G25KT BKN120 FM092000 27020G30KT P6SM SCT020 BKN080 TEMPO 0920/1002 5SM -SHSN BKN020 OVC080 BECMG 1000/1002 28015G25KT RMK FCST BASED ON AUTO OBS. NXT FCST BY 092000Z", "TAF CYGW 091140Z 0912/0924 18007KT P6SM BKN100 FM091400 21012G22KT P6SM FEW140 RMK FCST BASED ON AUTO OBS. NXT FCST BY 091800Z", "TAF CYGX 091240Z 0913/1001 21008KT P6SM FEW140 SCT250 FM091600 25012KT P6SM FEW025 SCT100 RMK NXT FCST BY 091900Z", "TAF CYHA 091340Z 0914/0921 34008KT 5SM -SN OVC015 TEMPO 0914/0919 P6SM -SN OVC025 BECMG 0916/0918 VRB03KT FM091900 13008KT P6SM SCT020 TEMPO 0919/0921 BKN020 RMK NXT FCST BY 101400Z", "TAF CYHD 091340Z 0914/1002 17012KT P6SM SCT180 FM091500 20012G22KT P6SM FEW040 SCT120 BECMG 0916/0918 22015G25KT FM092100 22015G25KT P6SM SKC BECMG 0921/0923 24012KT RMK FCST BASED ON AUTO OBS. NXT FCST BY 092000Z", "TAF AMD CYHK 091340Z 0913/0924 08022KT 1/8SM +SN BLSN VV008 TEMPO 0913/0922 1SM -SN OVC025 BECMG 0915/0917 05025G35KT FM092200 03025G35KT 1/4SM SN BLSN BKN015 TEMPO 0922/0924 5SM BLSN SCT015 RMK NXT FCST BY 091800Z", "TAF CYHM 091140Z 0912/1012 06006KT P6SM SKC BECMG 0923/0924 VRB03KT FM100200 25006KT P6SM SKC RMK NXT FCST BY 091800Z", "TAF CYHU 091140Z 0912/1012 VRB03KT P6SM SKC FM091400 23007KT P6SM SKC BECMG 0916/0918 25008G18KT BECMG 0922/0924 24010KT RMK FCST BASED ON AUTO OBS. NXT FCST BY 091800Z", "TAF AMD CYHY 091335Z 0913/0924 VRB03KT P6SM FEW008 SCT220 TEMPO 0913/0916 1/4SM FZFG VV002 FM092000 11012KT P6SM FEW220 RMK NXT FCST BY 091800Z", "TAF CYHZ 091140Z 0912/1012 27008KT P6SM FEW050 BECMG 0912/0914 30012G22KT FM091900 31012G22KT P6SM FEW050 BECMG 0922/0924 25010KT BECMG 1010/1012 28010G20KT RMK NXT FCST BY 091500Z", "TAF CYIO 091240Z 0913/1001 20006KT P6SM SKC RMK FCST BASED ON AUTO OBS. NXT FCST BY 091900Z", "TAF CYIV 091240Z 0913/1001 18008KT P6SM SCT200 FM091700 25010KT P6SM SCT025 RMK FCST BASED ON AUTO OBS. NXT FCST BY 091900Z", "TAF CYJT 091140Z 0912/1012 28012KT P6SM FEW040 TEMPO 0912/0914 BKN040 BECMG 0912/0914 29015G25KT FM091400 29015G25KT P6SM -SHSN BKN030 TEMPO 0914/0921 2 1/2SM -SHSN OVC020 FM092100 27015G25KT 1 1/2SM -SHSN OVC015 TEMPO 0921/0924 6SM -SHSN FEW015 OVC025 FM100000 25015G25KT 3/4SM -SHSN VV008 FM100900 27015G25KT 4SM -SHSN OVC020 RMK NXT FCST BY 091800Z", "TAF CYKA 091240Z 0913/1001 10012KT P6SM FEW050 BKN100 BECMG 0914/0916 10015G25KT FM092000 12020G30KT P6SM SCT060 BKN100 TEMPO 0920/1001 P6SM -SHRA RMK NXT FCST BY 091900Z", "TAF CYKF 091340Z 0914/1002 22005KT P6SM SKC RMK FCST BASED ON AUTO OBS. NXT FCST BY 092000Z", "TAF CYKJ 091240Z 0913/0924 23006KT P6SM SKC BECMG 0917/0919 25012KT RMK FCST BASED ON AUTO OBS. NXT FCST BY 091900Z", "TAF CYKL 091340Z 0914/1002 25012G22KT P6SM FEW030 BKN080 TEMPO 0914/0918 5SM -SHSN BKN030 BKN080 FM091800 27012G22KT P6SM -SN SCT020 BKN040 TEMPO 0918/1002 2 1/2SM -SHSN BKN020 OVC040 BECMG 0922/0924 29010KT RMK FCST BASED ON AUTO OBS. NXT FCST BY 092000Z", "TAF CYLD 091340Z 0914/1001 20005KT P6SM SKC BECMG 0914/0916 20008G18KT FM092300 20010KT P6SM SCT140 RMK NXT FCST BY 092000Z", "TAF CYLL 091140Z 0912/0924 27012KT P6SM SKC BECMG 0919/0921 18012KT RMK FCST BASED ON AUTO OBS. NXT FCST BY 091800Z", "TAF CYLW 091240Z 0913/1001 VRB03KT P6SM BKN090 BECMG 0914/0916 18008KT FM091800 20015G25KT P6SM SCT050 BKN080 RMK FCST BASED ON AUTO OBS. NXT FCST BY 091900Z", "TAF CYMA 091142Z 0912/0924 09008KT P6SM FEW020 SCT060 BKN080 TEMPO 0912/0924 6SM -SHSNRA BKN020 OVC060 BECMG 0917/0919 10010G20KT RMK NXT FCST BY 091800Z", "TAF CYMH 091340Z 0914/1002 30010G20KT P6SM SKC FM091600 28012G22KT P6SM SCT030 TEMPO 0916/1002 BKN030 BECMG 0923/1001 28006KT RMK FCST BASED ON AUTO OBS. NXT FCST BY 092000Z", "TAF CYMM 091240Z 0913/1001 23008KT P6SM SKC BECMG 0923/1001 16010KT RMK FCST BASED ON AUTO OBS. NXT FCST BY 091900Z", "TAF CYMO 091140Z 0912/0924 23007KT P6SM SKC BECMG 0912/0914 22012KT RMK FCST BASED ON AUTO OBS. NXT FCST BY 091800Z", "TAF CYMT 091140Z 0912/0924 VRB03KT P6SM SCT140 FM091500 25010G20KT P6SM BKN140 BECMG 0916/0918 25012G22KT FM092300 23010KT P6SM SKC RMK FCST BASED ON AUTO OBS. NXT FCST BY 091800Z", "TAF CYMX 091140Z 0912/1012 VRB03KT P6SM SKC FM091600 23007KT P6SM FEW050 FM092300 26005KT P6SM SKC BECMG 1010/1012 24012KT RMK NXT FCST BY 091800Z", "TAF CYNA 091340Z 0914/1002 29015G25KT P6SM FEW040 FM092000 27020G30KT P6SM SCT020 BKN080 TEMPO 0920/1002 5SM -SHSN BKN020 BKN080 BECMG 0922/0924 27015G25KT RMK FCST BASED ON AUTO OBS. NXT FCST BY 092000Z", "TAF CYND 091240Z 0913/1001 VRB03KT P6SM SKC BECMG 0917/0918 24010KT BECMG 0923/0924 VRB03KT RMK NXT FCST BY 091800Z", "TAF CYNE 091240Z 0913/1001 20010KT P6SM SKC RMK FCST BASED ON AUTO OBS. NXT FCST BY 091900Z", "TAF CYOD 091140Z 0912/1012 25005KT P6SM FEW220 PROB30 0912/0915 3/4SM BR VV002 FM092000 17008KT P6SM SCT240 FM100800 22010KT P6SM SKC BECMG 1010/1012 28012KT RMK NXT FCST BY 091500Z", "TAF CYOJ 091240Z 0913/1001 VRB03KT P6SM SKC BECMG 0917/0919 15010KT FM100000 12010KT P6SM SCT080 RMK FCST BASED ON AUTO OBS. NXT FCST BY 091900Z", "TAF CYOO 091340Z 0914/1002 01008KT P6SM SKC BECMG 0915/0917 15010KT BECMG 0922/0924 VRB03KT RMK FCST BASED ON AUTO OBS. NXT FCST BY 092000Z", "TAF CYOW 091140Z 0912/1012 VRB03KT P6SM SKC BECMG 0915/0917 29008KT BECMG 0922/0924 VRB03KT FM100300 22007KT P6SM SKC RMK NXT FCST BY 091500Z", "TAF AMD CYPA 091248Z 0913/1001 VRB03KT 1/4SM FZFG BKN002 BECMG 0913/0915 P6SM NSW SKC FM091500 26008KT P6SM SKC BECMG 0919/0921 20008KT RMK NXT FCST BY 091900Z", "TAF CYPE 091240Z 0913/1001 23006KT P6SM SCT210 BECMG 0916/0918 18012KT FM092200 19015KT P6SM SCT080 BKN120 RMK NXT FCST BY 091900Z", "TAF CYPH 091140Z 0912/0924 18012KT P6SM BKN070 FM091700 22012G22KT P6SM SCT100 FM092300 22012KT P6SM SKC RMK FCST BASED ON AUTO OBS. AUTO OBS REP NON-REPRESENTATIVE PCPN. NXT FCST BY 091800Z", "TAF CYPL 091340Z 0914/1002 17012KT P6SM SCT180 BECMG 0914/0916 17012G22KT FM091700 20015G25KT P6SM SCT040 BKN160 FM092200 25012G22KT P6SM SCT040 BECMG 0922/0924 25012KT RMK FCST BASED ON AUTO OBS. NXT FCST BY 092000Z", "TAF CYPQ 091340Z 0914/1002 VRB03KT P6SM SKC FM091900 20008KT P6SM SKC RMK FCST BASED ON AUTO OBS. NXT FCST BY 092000Z", "TAF CYPR 091240Z 0913/1001 14012G22KT P6SM -RA SCT020 OVC040 TEMPO 0913/0920 2 1/2SM RA BR BKN020 OVC040 FM092000 16018G28KT P6SM SCT015 BKN040 TEMPO 0920/1001 4SM -SHRA BR BKN015 OVC030 RMK FCST BASED ON AUTO OBS. NXT FCST BY 091900Z", "TAF CYPX 091140Z 0912/0924 14010KT P6SM -SN OVC006 TEMPO 0912/0916 P6SM NSW SCT006 OVC080 FM091600 15015KT P6SM SCT008 BKN100 TEMPO 0916/0924 BKN008 BECMG 0922/0924 19015KT RMK FCST BASED ON AUTO OBS. NXT FCST BY 091800Z", "TAF CYPY 091140Z 0912/0924 VRB03KT P6SM SKC BECMG 0913/0915 26008KT BECMG 0922/0924 12008KT RMK FCST BASED ON AUTO OBS. NXT FCST BY 091800Z", "TAF CYQA 091340Z 0914/1002 VRB03KT P6SM SKC RMK FCST BASED ON AUTO OBS. NXT FCST BY 092000Z", "TAF CYQB 091140Z 0912/1012 VRB03KT P6SM FEW220 BECMG 0912/0914 26010KT FM091800 24012G22KT P6SM SCT050 FM092200 25010KT P6SM SCT220 FM100300 25008KT P6SM SKC RMK NXT FCST BY 091800Z", "TAF CYQD 091240Z 0913/1001 VRB03KT P6SM SKC BECMG 0913/0915 24010KT RMK FCST BASED ON AUTO OBS. NXT FCST BY 091900Z", "TAF CYQF 091140Z 0912/0924 VRB03KT P6SM SKC BECMG 0914/0916 21012KT RMK FCST BASED ON AUTO OBS. NXT FCST BY 091800Z", "TAF CYQG 091140Z 0912/1012 VRB03KT P6SM SKC BECMG 0914/0916 16010KT FM100100 17005KT P6SM SKC RMK FCST BASED ON AUTO OBS. NXT FCST BY 091800Z", "TAF CYQH 091141Z 0912/0924 11008KT P6SM BKN120 BECMG 0915/0917 14012G22KT FM092000 11015G25KT P6SM SCT050 BKN100 TEMPO 0920/0924 6SM -SHRASN BR BKN050 OVC080 RMK NXT FCST BY 091800Z", "TAF CYQI 091140Z 0912/0924 32008KT P6SM FEW240 BECMG 0912/0914 33012G22KT BECMG 0920/0922 26008KT RMK NXT FCST BY 091800Z", "TAF CYQK 091340Z 0914/1002 19012KT P6SM FEW150 FM091800 20012G22KT P6SM SKC BECMG 0921/0923 20010KT RMK NXT FCST BY 092000Z", "TAF AMD CYQL 091404Z 0914/0924 23010KT P6SM SCT120 SCT250 BECMG 0916/0918 24020G30KT FM091800 24020G30KT P6SM FEW060 SCT250 RMK FCST BASED ON AUTO OBS. NXT FCST BY 091800Z", "TAF CYQM 091140Z 0912/1012 29008KT P6SM FEW080 BECMG 0916/0918 26012G22KT BECMG 0923/1001 25012KT RMK NXT FCST BY 091800Z", "TAF CYQQ 091140Z 0912/1012 14030G40KT P6SM -RA SCT012 OVC030 TEMPO 0912/0922 3SM -RA BR BKN012 OVC020 BECMG 0920/0922 14020G30KT FM092200 15015G25KT P6SM BKN030 TEMPO 0922/0924 P6SM -SHRA FM100000 19010KT P6SM BKN050 FM100400 17008KT P6SM SCT040 RMK NXT FCST BY 091800Z", "TAF CYQR 091140Z 0912/1012 25008KT P6SM SKC BECMG 0913/0915 25012KT FM100000 19012KT P6SM SKC RMK NXT FCST BY 091800Z", "TAF CYQT 091340Z 0914/1002 VRB03KT P6SM SCT080 BKN180 FM091600 20012G22KT P6SM BKN100 FM092200 22010KT P6SM SCT120 RMK NXT FCST BY 092000Z", "TAF CYQU 091240Z 0913/1001 VRB03KT P6SM FEW170 BECMG 0917/0919 14010KT FM091900 14010KT P6SM SCT150 FM092100 16010KT P6SM SCT060 TEMPO 0921/1001 BKN060 BECMG 0922/0924 19015G25KT RMK NXT FCST BY 091900Z", "TAF CYQV 091140Z 0912/0924 VRB03KT P6SM SKC BECMG 0913/0915 24010KT RMK FCST BASED ON AUTO OBS. NXT FCST BY 091800Z", "TAF CYQW 091140Z 0912/0924 VRB03KT P6SM SKC BECMG 0913/0915 26008KT FM092300 12010KT P6SM SCT250 RMK FCST BASED ON AUTO OBS. NXT FCST BY 091800Z", "TAF CYQX 091140Z 0912/1012 27010KT P6SM FEW030 BKN250 TEMPO 0913/0915 BKN030 BKN250 FM091500 29015G25KT P6SM BKN040 TEMPO 0915/0922 6SM -SHSN BECMG 0920/0922 28012G22KT FM100900 21010G20KT 5SM -SHSN BKN030 OVC060 RMK NXT FCST BY 091800Z", "TAF CYQY 091140Z 0912/0924 27012KT P6SM FEW040 FM091400 30015G25KT P6SM BKN040 TEMPO 0914/0920 5SM -SHSN FM092000 29015G25KT P6SM FEW040 BECMG 0922/0924 25008KT RMK NXT FCST BY 091800Z", "TAF CYQZ 091148Z 0912/0924 13010KT P6SM OVC090 FM091400 18015G25KT P6SM SCT040 BKN080 TEMPO 0916/0924 6SM -SHRA BR BKN040 OVC080 BECMG 0916/0918 17020G30KT RMK FCST BASED ON AUTO OBS. NXT FCST BY 091900Z", "TAF CYRB 091140Z 0912/1012 VRB03KT P6SM SKC BECMG 0915/0917 36008KT RMK NXT FCST BY 091800Z", "TAF CYRJ 091340Z 0914/1002 24008KT P6SM SCT120 BECMG 0914/0916 27010G20KT BKN120 FM100000 25010KT P6SM FEW120 RMK NXT FCST BY 092000Z", "TAF CYRL 091340Z 0914/1002 14010KT P6SM BKN240 FM091600 22012KT P6SM SKC RMK NXT FCST BY 092000Z", "TAF CYRQ 091340Z 0914/1002 VRB03KT P6SM SKC BECMG 0914/0916 22010KT BECMG 0922/0924 22007KT RMK FCST BASED ON AUTO OBS. NXT FCST BY 092000Z", "TAF AMD CYRT 091241Z 0912/0924 VRB03KT P6SM FEW002 BKN110 TEMPO 0912/0915 1 1/2SM BR SCT002 BKN080 FM091500 25008KT P6SM FEW005 SCT110 FM091800 30010KT P6SM SCT006 BKN015 TEMPO 0918/0924 6SM -RASN BKN006 OVC015 BECMG 0922/0924 33015KT RMK NXT FCST BY 091800Z", "TAF CYSB 091340Z 0914/1002 22006KT 1/4SM FZFG VV001 BECMG 0914/0916 P6SM NSW FEW008 FM091700 21012KT P6SM SKC BECMG 0923/1001 20006KT RMK NXT FCST BY 092000Z", "TAF CYSC 091040Z 0911/0923 VRB03KT P6SM FEW240 BECMG 0914/0916 27010KT RMK FCST BASED ON AUTO OBS. NXT FCST BY 091800Z", "TAF CYSF 091140Z 0912/0924 VRB03KT P6SM FEW004 OVC100 FM091500 27006KT P6SM SKC BECMG 0915/0917 27010KT RMK FCST BASED ON AUTO OBS. NXT FCST BY 091800Z", "TAF CYSJ 091140Z 0912/0924 31008KT P6SM SKC BECMG 0912/0914 33010G20KT RMK NXT FCST BY 091800Z", "TAF CYSM 091142Z 0912/0924 VRB03KT P6SM FEW110 TEMPO 0912/0915 2 1/4SM BR BKN008 PROB30 0912/0915 1SM BR OVC006 FM092000 12005KT P6SM SKC RMK NXT FCST BY 091800Z", "TAF CYSN 091240Z 0913/1001 VRB03KT P6SM SKC BECMG 0914/0916 02010KT BECMG 0923/1001 VRB03KT RMK NXT FCST BY 092000Z", "TAF CYTE 091240Z 0913/1001 11005KT 1SM -SN BR OVC003 TEMPO 0913/0916 P6SM NSW BKN008 FM091600 11012KT P6SM -SN BKN008 OVC090 TEMPO 0916/0923 P6SM NSW SCT008 OVC090 FM092300 10018KT 6SM -SN FEW012 OVC060 TEMPO 0923/1001 2SM -SN BLSN BKN012 OVC030 RMK FCST BASED ON AUTO OBS. NXT FCST BY 091900Z", "TAF CYTH 091240Z 0913/1001 20006KT P6SM SCT160 SCT220 FM091700 26008KT P6SM FEW025 RMK NXT FCST BY 091900Z", "TAF CYTL 091340Z 0914/1002 19007KT P6SM SKC FM091600 22010KT P6SM SCT160 FM091900 22010KT P6SM SCT040 BKN160 FM100000 25008KT P6SM SCT040 RMK FCST BASED ON AUTO OBS. NXT FCST BY 092000Z", "TAF CYTQ 091340Z 0914/0921 VRB03KT P6SM SCT020 BKN050 TEMPO 0914/0921 BKN020 BKN050 RMK NXT FCST BY 101400Z", "TAF CYTR 091140Z 0912/1012 VRB03KT P6SM SKC BECMG 0916/0918 20010KT BECMG 0923/1001 VRB03KT RMK NXT FCST BY 091800Z", "TAF CYTS 091340Z 0914/1002 18005KT P6SM FEW150 BECMG 0917/0919 20012G22KT BECMG 0922/0924 20010KT RMK NXT FCST BY 092000Z", "TAF CYTZ 091340Z 0914/1014 VRB03KT P6SM SKC BECMG 0915/0917 10008KT FM100200 34006KT P6SM SKC BECMG 1013/1014 21008KT RMK FCST BASED ON AUTO OBS. NXT FCST BY 092000Z", "TAF CYUL 091140Z 0912/1012 24005KT P6SM SKC FM091400 22008KT P6SM SKC BECMG 0916/0918 23008G18KT BECMG 0922/0924 24010KT RMK NXT FCST BY 091500Z", "TAF CYUX 091240Z 0913/1001 16012KT P6SM FEW005 SCT050 BKN140 TEMPO 0913/0915 3SM IC BR BKN005 FM091500 13015KT P6SM -SN SCT006 OVC040 TEMPO 0915/1001 2 1/2SM -SN BLSN OVC006 RMK FCST BASED ON AUTO OBS. NXT FCST BY 091900Z", "TAF CYUY 091140Z 0912/0924 VRB03KT P6SM SCT140 BECMG 0912/0914 23008KT BECMG 0916/0918 22012KT RMK NXT FCST BY 091800Z", "TAF CYVC 091240Z 0913/1001 25006KT P6SM FEW100 RMK NXT FCST BY 091900Z", "TAF CYVM 091240Z 0913/1001 VRB03KT P6SM SKC BECMG 0914/0916 33010KT RMK FCST BASED ON AUTO OBS. NXT FCST BY 091900Z", "TAF CYVO 091140Z 0912/0924 22006KT P6SM FEW140 FM091800 22010KT P6SM SKC RMK NXT FCST BY 091800Z", "TAF CYVP 091140Z 0912/0924 VRB03KT P6SM SCT020 BKN050 TEMPO 0912/0916 P6SM -SN FM091600 VRB03KT P6SM SCT020 BKN050 TEMPO 0916/0924 BKN020 BKN050 RMK NXT FCST BY 091800Z", "TAF CYVQ 091142Z 0912/0924 09005KT P6SM FEW040 BECMG 0912/0914 10012KT FM091800 11012G22KT P6SM SCT040 RMK NXT FCST BY 091800Z", "TAF CYVR 091140Z 0912/1018 10012KT 6SM -RA BR BKN025 OVC040 TEMPO 0912/0920 2SM RA BR BKN008 OVC020 BECMG 0914/0916 11015G25KT FM092000 14018G28KT P6SM -RA SCT015 OVC040 TEMPO 0920/0924 5SM -SHRA BR BKN015 BECMG 0922/0924 19015G25KT FM100000 20012G22KT P6SM SCT030 BKN070 FM100200 24010KT P6SM FEW050 SCT200 FM100900 10008KT P6SM SCT030 BKN200 RMK NXT FCST BY 091500Z", "TAF CYVT 091340Z 0914/1002 24007KT P6SM FEW100 RMK FCST BASED ON AUTO OBS. NXT FCST BY 092100Z", "TAF CYVV 091340Z 0914/0923 VRB03KT P6SM FEW008 FM091700 19008KT P6SM SKC RMK NXT FCST BY 092000Z", "TAF CYWE 091240Z 0913/1001 04005KT P6SM SCT005 OVC010 TEMPO 0913/0918 2SM BR OVC005 FM091800 09008KT P6SM SCT010 BECMG 0920/0922 11012KT RMK FCST BASED ON AUTO OBS. NXT FCST BY 091900Z", "TAF CYWG 091140Z 0912/1012 22008KT P6SM FEW006 FEW240 TEMPO 0912/0915 3SM BR PROB30 0912/0914 1/2SM FZFG VV003 FM091500 20012KT P6SM SKC RMK NXT FCST BY 091800Z", "TAF CYWK 091340Z 0914/1002 25010KT P6SM SCT030 BKN080 TEMPO 0914/0917 5SM -SHSN BKN030 BKN080 BECMG 0914/0916 27015G25KT FM091700 27015G25KT P6SM -SN SCT020 BKN040 TEMPO 0917/0921 2 1/2SM -SN BKN020 OVC040 PROB30 0917/0921 1 1/2SM -SHSN VV012 FM092100 28015G25KT 6SM -SN OVC030 TEMPO 0921/1002 1 1/2SM -SHSN VV012 RMK NXT FCST BY 092000Z", "TAF CYWL 091240Z 0913/1001 12015G25KT P6SM FEW050 SCT140 BECMG 0914/0916 13025G35KT RMK NXT FCST BY 091900Z", "TAF CYXC 091240Z 0913/1001 VRB03KT P6SM BKN070 BECMG 0914/0916 16008KT FM092100 19012G22KT P6SM BKN080 RMK NXT FCST BY 091900Z", "TAF CYXE 091140Z 0912/1012 21008KT P6SM SKC FM092200 17012KT P6SM SCT250 RMK NXT FCST BY 091800Z", "TAF CYXH 091140Z 0912/0924 21010KT P6SM SKC BECMG 0920/0922 22018G28KT RMK FCST BASED ON AUTO OBS. NXT FCST BY 091800Z", "TAF CYXJ 091240Z 0913/1001 14010KT P6SM SCT180 FM091800 14012KT P6SM SCT050 TEMPO 0918/0924 BKN050 FM100000 16015G25KT P6SM OVC050 TEMPO 1000/1001 3SM -RA BR OVC025 RMK NXT FCST BY 091900Z", "TAF CYXL 091340Z 0914/1002 16007KT P6SM SCT180 BECMG 0914/0915 20012G22KT FM091700 22012G22KT P6SM FEW040 SCT120 FM092200 25010KT P6SM SKC RMK NXT FCST BY 092000Z", "TAF CYXR 091140Z 0912/0924 VRB03KT P6SM SKC BECMG 0917/0919 19012KT RMK FCST BASED ON AUTO OBS. NXT FCST BY 091800Z", "TAF CYXS 091240Z 0913/1001 17012G22KT P6SM BKN100 BKN120 FM091600 16015G25KT P6SM SCT060 BKN120 TEMPO 0916/0920 P6SM -SHRA BKN050 BKN100 FM092000 18020G30KT P6SM SCT040 BKN080 TEMPO 0920/1001 18025G35KT 3SM SHRA BR BKN030 OVC050 PROB30 0922/1001 2SM TSRA BR BKN020 OVC040CB RMK FCST BASED ON AUTO OBS. NXT FCST BY 091900Z", "TAF CYXT 091240Z 0913/1001 VRB03KT 6SM -RA BR SCT006 OVC030 TEMPO 0913/0919 2SM -RA BR BKN006 OVC020 FM091900 17010KT P6SM -SHRA FEW020 BKN040 TEMPO 0919/1001 4SM -SHRA BR BKN020 BKN040 BECMG 0919/0921 18022G32KT RMK NXT FCST BY 091900Z", "TAF CYXU 091140Z 0912/1012 VRB03KT P6SM SKC FM092000 20010KT P6SM SKC BECMG 0923/1001 20005KT RMK NXT FCST BY 091800Z", "TAF CYXX 091140Z 0912/1012 03008KT 6SM -RA BR FEW010 OVC040 TEMPO 0912/0921 2SM RA BR BKN008 OVC030 BECMG 0914/0916 18008KT FM092100 19018G28KT P6SM -RA SCT015 OVC030 TEMPO 0921/1004 3SM -SHRA BR BKN015 OVC030 BECMG 1002/1004 18006KT FM100400 VRB03KT P6SM SCT030 BKN180 FM100800 VRB03KT 6SM BR FEW005 BKN200 PROB30 1008/1012 1/2SM FG VV003 RMK NXT FCST BY 091800Z", "TAF CYXY 091141Z 0912/0924 15015G25KT P6SM FEW040 SCT200 FM091500 16018G28KT P6SM SCT030 BKN120 TEMPO 0915/0924 6SM -SHRASN BR BKN030 BKN080 RMK NXT FCST BY 091800Z", "TAF CYXZ 091240Z 0913/0924 VRB03KT P6SM SKC PROB30 0913/0915 1SM BR FM091500 20010KT P6SM SKC BECMG 0915/0917 20015KT FM092100 20010G20KT P6SM SCT140 RMK NXT FCST BY 092000Z", "TAF CYYB 091340Z 0914/1002 23006KT 1/8SM FZFG VV001 TEMPO 0914/0915 1/2SM FZFG VV003 BECMG 0915/0917 P6SM NSW SKC FM091800 22010KT P6SM SKC BECMG 0923/1001 22005KT RMK NXT FCST BY 092000Z", "TAF CYYC 091140Z 0912/1012 19004KT P6SM SKC BECMG 0913/0915 19008KT BECMG 0917/0919 20015G25KT FM091900 20015G25KT P6SM FEW060 FM100300 20012KT P6SM SKC BECMG 1010/1012 26012KT RMK NXT FCST BY 091500Z", "TAF CYYD 091340Z 0914/1002 15008KT P6SM OVC060 TEMPO 0914/0916 P6SM -RA FM091600 16012G22KT P6SM OVC040 TEMPO 0916/0922 6SM -RA BR OVC020 FM092200 20012G22KT P6SM BKN050 TEMPO 0922/1002 5SM -SHRA BR BKN020 RMK FCST BASED ON AUTO OBS. NXT FCST BY 091900Z", "TAF CYYE 091240Z 0913/1001 21005KT P6SM SCT220 FM091700 15008KT P6SM BKN180 FM092100 13012G22KT P6SM BKN060 BKN100 RMK NXT FCST BY 091900Z", "TAF CYYF 091240Z 0913/1001 16015KT P6SM OVC090 BECMG 0915/0917 17022G32KT RMK NXT FCST BY 091900Z", "TAF CYYG 091140Z 0912/0924 29008KT P6SM FEW050 BECMG 0912/0914 32012G22KT BECMG 0919/0921 25010KT RMK NXT FCST BY 091800Z", "TAF CYYH 090540Z 0906/0918 06022KT 5/8SM -SN BLSN OVC020 RMK NXT FCST BY 091200Z", "TAF CYYJ 091140Z 0912/1012 15010KT P6SM -RA FEW020 OVC050 TEMPO 0912/0917 5SM -RA BR BKN020 OVC050 FM092300 24015G25KT P6SM SCT050 BKN100 FM100200 24010KT P6SM FEW030 BKN200 FM100600 26006KT P6SM SCT020 BKN040 BKN180 FM101000 VRB03KT P6SM FEW008 BKN020 RMK NXT FCST BY 091800Z", "TAF CYYL 091240Z 0913/1001 23006KT P6SM FEW100 SCT130 FM091600 25010KT P6SM FEW080 RMK FCST BASED ON AUTO OBS. NXT FCST BY 091900Z", "TAF CYYN 091140Z 0912/0924 26018G28KT P6SM SKC BECMG 0920/0922 22018G28KT RMK FCST BASED ON AUTO OBS. NXT FCST BY 091800Z", "TAF CYYQ 091140Z 0912/1012 23015KT P6SM FEW140 BKN250 FM091700 25012KT P6SM SCT050 BKN140 TEMPO 0917/0920 P6SM -SHRA SCT020 OVC050 FM092000 27012KT P6SM SCT200 FM100200 30012G22KT P6SM -RASN SCT006 OVC010 FM100800 34010KT 6SM -SN SCT008 OVC015 RMK NXT FCST BY 091800Z", "TAF CYYR 091140Z 0912/1012 26012KT P6SM FEW030 BECMG 0912/0913 27012G22KT FM091400 27012G22KT P6SM BKN030 TEMPO 0914/1001 P6SM -SHSN BECMG 0922/0924 25005KT RMK NXT FCST BY 091800Z", "TAF CYYT 091140Z 0912/1012 29012G22KT P6SM FEW025 FM091400 29015G25KT P6SM SCT040 TEMPO 0914/0918 P6SM -SHSN BKN040 FM091800 29015G25KT P6SM -SHSN BKN040 TEMPO 0918/0922 3SM -SHSN BECMG 0920/0922 29012G22KT FM100200 29012G22KT P6SM BKN040 FM100400 26010G20KT P6SM FEW040 FM100900 21010G20KT 5SM -SHSN BKN030 OVC060 RMK NXT FCST BY 091800Z", "TAF CYYU 091340Z 0914/1002 20008KT P6SM SKC BECMG 0914/0916 21015KT BECMG 0917/0919 22015G25KT FM092300 22015KT P6SM SCT120 RMK NXT FCST BY 092000Z", "TAF CYYY 091340Z 0914/1002 25008KT P6SM SCT180 BKN240 BECMG 0914/0916 24015G25KT FM091800 24020G30KT P6SM BKN120 BECMG 0922/0924 24015G25KT RMK NXT FCST BY 092000Z", "TAF CYYZ 091140Z 0912/1018 36005KT P6SM SKC BECMG 0914/0916 15010KT FM091600 15010KT P6SM SKC BECMG 1000/1002 22005KT FM101400 23015KT P6SM SKC RMK NXT FCST BY 091500Z", "TAF CYZE 091340Z 0914/0922 16006KT 1SM BR OVC004 TEMPO 0914/0916 P6SM NSW BKN010 FM091600 17010KT P6SM SCT012 TEMPO 0916/0917 BKN008 FM091800 17012KT P6SM SKC RMK FCST BASED ON AUTO OBS. NXT FCST BY 092000Z", "TAF CYZF 091142Z 0912/1012 32005KT P6SM FEW012 SCT220 TEMPO 0912/0916 3SM BR BKN012 BECMG 0912/0914 05005KT FM091600 07005KT P6SM SCT020 BECMG 0917/0919 15008KT FM100200 10015KT P6SM SCT220 FM100600 10018KT P6SM FEW010 BKN180 FM100900 09020KT P6SM FEW008 BKN120 RMK NXT FCST BY 091800Z", "TAF CYZG 091340Z 0914/0921 VRB03KT P6SM FEW060 BKN120 BECMG 0914/0916 17028KT FM091700 17022G32KT P6SM SCT020 BKN040 TEMPO 0917/0919 2SM -SN OVC020 FM091900 17025G35KT 1/2SM SN BLSN VV003 RMK NXT FCST BY 101400Z", "TAF CYZH 091240Z 0913/1001 13005KT P6SM SKC FM092100 15010KT P6SM FEW070 RMK FCST BASED ON AUTO OBS. NXT FCST BY 091900Z", "TAF CYZP 091240Z 0913/1001 14025G40KT 6SM -RA BR SCT008 OVC025 TEMPO 0913/0916 2SM -RA BR BKN007 OVC015 BECMG 0915/0916 20015G25KT FM091600 22020G30KT P6SM SCT030 BKN050 TEMPO 0916/1001 P6SM -SHRA RMK FCST BASED ON AUTO OBS. NXT FCST BY 091900Z", "TAF CYZR 091340Z 0914/1002 VRB03KT P6SM SKC BECMG 0915/0917 19008KT RMK FCST BASED ON AUTO OBS. NXT FCST BY 092000Z", "TAF CYZS 091240Z 0913/1001 10015G25KT 6SM -SN OVC025 TEMPO 0913/0916 1 1/2SM -SN BLSN OVC015 FM091600 11020G30KT 1/2SM -SN BLSN OVC012 TEMPO 0916/0922 2SM -SN BLSN OVC025 FM092200 10018KT P6SM -SN SCT015 BKN050 TEMPO 0922/1001 5SM -SN OVC015 RMK NXT FCST BY 091900Z", "TAF CYZT 091240Z 0913/1001 12015G25KT P6SM -RA OVC030 TEMPO 0913/0918 4SM -RA BR OVC020 FM091800 22012G22KT P6SM BKN040 TEMPO 0918/1001 P6SM -SHRA RMK NXT FCST BY 091900Z", "TAF CYZV 091140Z 0912/1012 28008KT P6SM SKC FM091400 23012KT P6SM SCT040 BKN180 FM091700 28012KT P6SM BKN040 BECMG 1003/1005 28008KT FM100600 28010KT P6SM SCT040 RMK NXT FCST BY 091800Z", "TAF CYZX 091140Z 0912/1012 31005KT P6SM SCT060 BECMG 0912/0914 30010KT BECMG 0915/0917 30010G20KT FM100000 25008KT P6SM SKC BECMG 1000/1002 VRB03KT RMK NXT FCST BY 091800Z", "TAF CZBF 091340Z 0914/1002 31008KT P6SM FEW040 BECMG 0914/0916 28012G22KT FM092100 27012G22KT P6SM SCT120 BKN240 BECMG 0922/0924 26008KT RMK FCST BASED ON AUTO OBS. NXT FCST BY 092000Z", "TAF CZMD 090940Z 0910/0922 22008KT P6SM SCT220 BECMG 0916/0918 22010KT FM091900 24010G20KT P6SM SCT040 BKN180 RMK FCST BASED ON AUTO OBS. NXT FCST BY 091600Z", "TAF CZUM 091340Z 0914/1002 26008KT P6SM FEW020 BKN060 TEMPO 0914/0918 6SM -SN BKN020 OVC060 FM091800 27010G20KT P6SM SCT020 BKN030 TEMPO 0918/0924 3SM -SN BKN020 OVC030 PROB30 0920/0924 2 1/2SM -SHSN FM100000 29006KT 5SM -SN BKN020 OVC030 RMK FCST BASED ON AUTO OBS. NXT FCST BY 092000Z", "TAF CZVL 091140Z 0912/0924 VRB03KT P6SM SKC BECMG 0912/0914 22006KT BECMG 0916/0918 22012G22KT RMK FCST BASED ON AUTO OBS. NXT FCST BY 091800Z", "TAF DAAD 091100Z 0912/0921 02006KT CAVOK", "TAF DAAE 091100Z 0912/1012 06008KT CAVOK", "TAF DAAG 091100Z 0912/1012 VRB02KT CAVOK BECMG 0912/0914 06010KT BECMG 0918/0920 VRB02KT", "TAF DAAJ 091100Z 0912/1012 06010KT 3500 SA NSC TEMPO 0912/0916 24010KT BECMG 0915/0917 6000 NSW PROB30 TEMPO 0920/1003 06015G25KT 3000 DRSA", "TAF DAAP 091100Z 0912/0921 04008KT 6000 NSC", "TAF DAAS 091100Z 0912/1012 34012KT CAVOK BECMG 0917/0919 26008KT", "TAF DAAT 091100Z 0912/1012 30008KT CAVOK BECMG 0922/0924 06010KT", "TAF DAAV 091100Z 0912/1012 04008KT 9999 FEW020", "TAF DAAY 091100Z 0912/0921 02010KT CAVOK", "TAF DABB 091100Z 0912/1012 02008KT 9999 FEW023", "TAF DABC 091100Z 0912/1012 33008KT CAVOK", "TAF DABS 091100Z 0912/1012 33014KT CAVOK BECMG 0917/0919 27008KT", "TAF DABT 091100Z 0912/1012 36012KT CAVOK BECMG 0917/0919 28008KT", "TAF DAFH 091100Z 0912/0921 04008KT CAVOK", "TAF DAOB 091100Z 0912/1012 35010KT CAVOK BECMG 0921/0924 VRB02KT", "TAF DAOF 091100Z 0912/0921 11022KT 6000 DRSA FEW040 SCT200 TEMPO 0912/0915 4000 BECMG 0915/0917 11012KT NSW", "TAF DAOI 091100Z 0912/1012 34010KT CAVOK BECMG 0917/0919 VRB02KT BECMG 1010/1012 28010KT", "TAF DAON 091100Z 0912/1012 35010KT CAVOK BECMG 0920/0923 VRB02KT BECMG 1001/1005 6000 SCT010 TEMPO 1002/1008 2000 BR PROB40 TEMPO 1003/1007 0800 FG BKN010", "TAF DAOO 091100Z 0912/1012 35010KT CAVOK BECMG 0911/0915 BECMG 0921/0924 VRB02KT 8000 SCT010 TEMPO 1000/1008 1500 BR PROB40 TEMPO 1002/1008 0400 FG BKN010", "TAF DAOR 091100Z 0912/0921 VRB02KT 8000 NSC BECMG 0916/0918 18010KT", "TAF DAOV 091100Z 0912/0921 33010KT CAVOK", "TAF DATM 091100Z 0912/0921 01012KT 4000 SA FEW046 SCT100 BECMG 0913/0915 6000 NSW", "TAF DAUA 091100Z 0912/1012 04014KT 8000 NSC PROB30 1009/1012 04024KT 4000 DRSA", "TAF DAUB 091100Z 0912/1012 24008KT CAVOK", "TAF DAUG 091100Z 0912/1012 28010KT 8000 NSC BECMG 0916/0918 06008KT", "TAF DAUH 091100Z 0912/1012 VRB02KT CAVOK", "TAF DAUI 091100Z 0912/1012 06022KT 8000 DRSA NSC PROB30 0912/0916 4000 BECMG 0916/0918 NSW BECMG 0919/0921 06012KT BECMG 1007/1009 06022KT PROB30 1008/1012 4000 DRSA", "TAF DAUK 091100Z 0912/0921 24006KT CAVOK", "TAF DAUL 091100Z 0912/0921 04008KT CAVOK", "TAF DAUO 091100Z 0912/0921 22006KT CAVOK", "TAF DAUT 091100Z 0912/0921 08008KT CAVOK", "TAF DAUU 091100Z 0912/0921 22006KT CAVOK", "TAF DAUZ 091100Z 0912/1012 06012KT 8000 NSC", "TAF DBBB 091100Z 0912/1018 22012KT 9999 SCT012 TEMPO 0913/0919 TS BKN012 FEW023CB PROB30 0914/0918 09015G25KT 4000 TSRA", "TAF DFFD 091100Z 0912/1018 04008KT 8000 NSC", "TAF DFOO 091100Z 0912/1012 VRB08KT CAVOK", "TAF DGAA 091100Z 0912/1018 19012KT 9999 SCT016 PROB30 TEMPO 0912/0916 6000 RA BKN009 BECMG 0922/1000 27008KT CAVOK PROB30 TEMPO 1006/1009 5000 BR", "TAF DGLE 091100Z 0912/1012 18010KT 9999 SCT017 BECMG 0920/0922 CAVOK", "TAF DGSI 091100Z 0912/1012 23010KT 9999 BKN010 TEMPO 0912/0916 6000 RA BECMG 0918/0920 SCT015", "TAF DIAP 091145Z 0912/1018 20012KT 9999 SCT012 PROB30 TEMPO 0915/0921 BKN012 FEW020CB TEMPO 1014/1020 TS BKN012 FEW020CB", "TAF DIBK 091146Z 0912/1012 20010KT 9999 SCT013 PROB30 TEMPO 0918/0924 BKN013 FEW030CB TEMPO 1006/1009 4000 BR", "TAF DIYO 091148Z 0912/1012 23010KT 9999 SCT013 PROB30 TEMPO 0917/0923 BKN013 FEW025CB TEMPO 1006/1009 3000 BR", "TAF DNAA 091100Z 0912/1018 17003KT CAVOK BECMG 0912/0914 25010KT BKN012 TEMPO 0915/0920 TS SCT014 FEW020CB PROB30 0916/0919 06018G32KT 5000 -TSRA BKN009 FEW019CB BECMG 0920/0922 14005KT CAVOK", "TAF DNAK 091100Z 0912/1018 22010KT 9999 BKN013 TEMPO 0915/0921 TS SCT013 FEW020CB BECMG 0921/0923 VRB02KT SCT011 BECMG 1008/1010 24010KT BKN013 TEMPO 1014/1018 SCT013 FEW020CB", "TAF DNBE 091100Z 0912/1018 25010KT 9999 BKN012 TEMPO 0912/0918 TS BKN012 FEW02CB PROB30 0913/0917 5000 -TSRA BKN008 FEW018CB BECMG 0918/0920 VRB02KT SCT009 TEMPO 1004/1008 5000 BR BECMG 1008/1010 26010KT BKN012 TEMPO 1013/1018 SCT012 FEW020CB", "TAF DNGO 091100Z 0912/1018 25008KT 9999 FEW013 BECMG 0918/0920 CAVOK", "TAF DNIB 091100Z 0912/1018 24010KT 9999 BKN013 TEMPO 0915/0921 TS SCT013 FEW020CB BECMG 0921/0923 VRB02KT SCT11 BECMG 1008/1010 25010KT BKN013 TEMPO 1014/1018 SCT013 FEW020CB", "TAF DNIL 091100Z 0912/1018 19003KT CAVOK BECMG 0912/0914 BKN012 TEMPO 0916/0920 SCT013 FEW020CB", "TAF DNJO 091100Z 0912/1018 28010KT 9999 BKN010 TEMPO 0914/0919 TS SCT010 FEW018CB PROB30 0914/0918 08019G32KT 5000 -TSRA BKN007 FEW017CB BECMG 0919/0921 16005KT", "TAF DNKA 091100Z 0912/1018 19004KT CAVOK BECMG 0913/0916 SCT014 TEMPO921/0923 14010KT", "TAF DNKN 091100Z 0912/1018 27010KT CAVOK", "TAF DNKT 091100Z 0912/1018 25009KT CAVOK", "TAF DNMA 091100Z 0912/1018 23010KT CAVOK", "TAF DNMM 091100Z 0912/1018 23010KT 9999 BKN013 TEMPO 0912/0918 TS BKN013 FEW020CB PROB30 0913/0918 5000 -TSRA BKN009 FEW019CB BECMG 0918/0921 SCT010 BECMG 0922/0924 VRB02KT BECMG 1008/1010 22010KT BKN013 TEMPO 1013/1018 SCT013 FEW020CB", "TAF DNSO 091100Z 0912/1018 05009KT CAVOK", "TAF DNSU 091100Z 0912/1018 22010KT 9999 BKN012 TEMPO 0912/0918 TS BKN012 FEW020CB PROB30 0913/0917 5000 -TSRA BKN008 FEW018CB BECMG 0918/0920 VRB02KT SCT009 TEMPO 1004/1008 5000 BR BECMG 1008/1010 25010KT BKN012 TEMPO 1013/1018 SCT012 FEW020CB", "TAF DNYO 091100Z 0912/1018 28007KT CAVOK", "TAF DRRN 091100Z 0912/1018 04012KT 8000 NSC TEMPO 0917/0920 4000 DU", "TAF DRZA 091100Z 0912/1012 35014KT 8000 NSC", "TAF DRZR 091100Z 0912/1012 01010KT 8000 NSC", "TAF DTKA 091200Z 0913/0922 30010KT 9999 SCT020 BECMG 0916/0918 VRB02KT", "TAF DTMB 091100Z 0912/1012 01012KT 8000 FEW023 BECMG 0913/0915 07012KT BECMG 0921/0923 34004KT", "TAF DTNH 091100Z 0912/1012 34015KT 9999 FEW026 PROB40 TEMPO 0914/0917 07013KT BECMG 0922/0924 VRB02KT", "TAF DTTA 091100Z 0912/1012 35013KT 9999 SCT026 BECMG 0919/0921 VRB02KT BECMG 1010/1012 02010KT", "TAF DTTB 091200Z 0913/0922 32010KT 9999 SCT020", "TAF DTTF 091200Z 0913/0922 24005KT CAVOK BECMG 0913/0915 01010KT", "TAF DTTG 091200Z 0913/0922 25012KT 8000 FEW020 BECMG 0914/0916 09010KT", "TAF DTTJ 091100Z 0912/1012 01015KT CAVOK BECMG 0916/0918 07015KT BECMG 0921/0923 07005KT", "TAF DTTR 091200Z 0913/0922 VRB02KT CAVOK", "TAF DTTX 091100Z 0912/1012 01012KT CAVOK BECMG 0913/0915 08014KT BECMG 0919/0924 07004KT BECMG 1010/1012 17010KT", "TAF DTTZ 091100Z 0912/1012 28006KT CAVOK BECMG 0913/0915 22010KT BECMG 0922/0924 10017KT BECMG 1004/1006 11007KT", "TAF DXNG 091100Z 0912/1012 VRB05KT 9999 FEW008", "TAF DXXX 091100Z 0912/1018 20010KT 9999 FEW013 BECMG 0922/0924 VRB03KT BECMG 1008/1010 20010KT", "TAF EBAW 091100Z 0912/0921 14004KT CAVOK", "TAF EBBL 091141Z 0913/0922 13005KT 9999 SCT045", "TAF EBBR 091100Z 0912/1018 14005KT CAVOK BECMG 1013/1015 20012KT TEMPO 1013/1017 20015G25KT 4000 RA", "TAF EBCI 091100Z 0912/1018 VRB03KT CAVOK BECMG 1014/1016 20012KT TEMPO 1014/1018 20015G25KT 4000 RA", "TAF EBCV 091141Z 0913/0922 VRB03KT 9999 FEW030 TEMPO 0913/0922 17005KT SCT035 SCT250 BY EBWM", "TAF EBFN 091141Z 0913/0922 16008KT 9999 SCT030 BKN130 TEMPO 0913/0916 BKN035 BY EBWM", "TAF EBLG 091100Z 0912/1018 VRB03KT CAVOK BECMG 1014/1016 20012KT TEMPO 1014/1018 20015G25KT 4000 RA", "TAF EBOS 091100Z 0912/1018 14005KT CAVOK TEMPO 1011/1016 19015G25KT 4000 RA BECMG 1016/1018 23015G25KT", "TAF EDAC 091100Z 0912/0921 08004KT CAVOK", "TAF EDAH 091100Z 0912/0921 03008KT 9999 SCT015 BKN030", "TAF EDDB 091100Z 0912/1012 33005KT CAVOK BECMG 0916/0918 06004KT BECMG 1002/1005 0500 FG BKN001 BECMG 1006/1009 16006KT CAVOK", "TAF EDDC 091100Z 0912/1012 36006KT CAVOK BECMG 0920/0923 16004KT BECMG 1002/1004 3000 BR PROB30 TEMPO 1004/1007 0700 FG BKN001 BECMG 1006/1008 9999", "TAF EDDE 091100Z 0912/1012 11004KT CAVOK BECMG 1008/1011 16010KT", "TAF EDDF 091100Z 0912/1018 11005KT 9999 FEW040 PROB30 TEMPO 0912/0914 BKN040 BECMG 0918/0921 04004KT BECMG 1008/1011 18006KT", "TAF EDDG 091100Z 0912/1012 12005KT 9999 BKN030 BECMG 0915/0918 VRB03KT BECMG 1003/1006 13006KT BECMG 1009/1012 17011KT", "TAF EDDH 091100Z 0912/1018 11006KT 9999 BKN015 BECMG 1006/1008 16013KT TEMPO 1010/1018 17015G25KT", "TAF EDDK 091100Z 0912/1018 13007KT 9999 BKN030 BECMG 1008/1011 16013KT PROB30 TEMPO 1011/1015 17015G25KT BECMG 1015/1018 17008KT", "TAF EDDL 091100Z 0912/1018 15007KT 9999 BKN030 BECMG 1003/1006 16013KT TEMPO 1010/1017 18015G25KT", "TAF COR EDDM 091145Z 0912/1018 07006KT 9999 SCT040 BECMG 0918/0920 VRB02KT BECMG 1000/1003 2500 BCFG TEMPO 1003/1007 0800 FG PROB30 TEMPO 1003/1006 0400 FZFG BECMG 1006/1008 10008KT CAVOK", "TAF EDDN 091100Z 0912/1012 10005KT 9999 FEW045", "TAF EDDP 091100Z 0912/1012 08004KT CAVOK BECMG 1008/1011 16010KT", "TAF EDDR 091100Z 0912/1012 09008KT 9999 SCT040 BECMG 1009/1011 19008KT", "TAF EDDS 091100Z 0912/1012 10009KT 9999 SCT040 BECMG 0917/0919 09004KT BECMG 1008/1010 16007KT", "TAF EDDV 091100Z 0912/1012 11006KT 9999 BKN020 BECMG 1007/1009 16012KT", "TAF EDDW 091100Z 0912/1012 13006KT 9999 SCT025 BECMG 1006/1008 15012KT PROB30 TEMPO 1010/1012 16015G25KT", "TAF EDFH 091100Z 0912/1012 14008KT 9999 SCT035", "TAF EDGS 091100Z 0912/0921 13008KT 9999 BKN020", "TAF EDHK 091100Z 0912/0919 08007KT 9999 FEW020", "TAF EDHL 091100Z 0912/0921 07004KT 9999 BKN012 BECMG 0912/0913 BKN020", "TAF EDJA 091100Z 0912/0921 10006KT 9999 FEW040", "TAF EDLN 091100Z 0912/0921 13007KT 9999 BKN030", "TAF EDLP 091100Z 0912/1012 12007KT 9999 BKN030 BECMG 1008/1011 17014KT PROB40 TEMPO 1010/1012 16015G25KT", "TAF EDLV 091100Z 0912/1012 13007KT 9999 BKN030 BECMG 1010/1012 17012KT", "TAF EDLW 091100Z 0912/1012 12006KT 9999 BKN030 BECMG 1007/1010 18013KT PROB40 TEMPO 1010/1012 18015G25KT", "TAF EDMA 091100Z 0912/0921 09005KT 9999 SCT040", "TAF EDNY 091100Z 0912/1012 04006KT 9999 FEW040 BECMG 1008/1010 VRB03KT", "TAF EDQM 091100Z 0912/0921 06005KT 9999 SCT045", "TAF EDSB 091100Z 0912/1012 05006KT 9999 SCT045 TEMPO 1002/1008 VRB03KT BECMG 1008/1010 21005KT", "TAF EDTL 091100Z 0912/0921 08004KT 9999 FEW040", "TAF EDTY 091100Z 0912/0921 10005KT CAVOK", "TAF EDVE 091100Z 0912/0921 14005KT 9999 BKN020", "TAF EDVK 091100Z 0912/0921 13004KT 9999 SCT035", "TAF EDWE 091100Z 0912/0921 13008KT 9999 SCT020", "TAF EDXW 091100Z 0912/0921 13009KT 6000 SCT006 TEMPO 0912/0915 BKN006 TEMPO 0913/0917 19009KT", "TAF EEEI 091130Z 0912/1012 03010KT CAVOK PROB30 TEMPO 0922/1005 2000 BR BKN003", "TAF EEKA 091200Z 0913/0919 02006KT CAVOK", "TAF EETN 091130Z 0912/1012 05010KT CAVOK TEMPO 0922/1004 VRB02KT", "TAF EFHK 091125Z 0912/1012 05005KT CAVOK BECMG 0913/0915 14010KT BECMG 0915/0918 01003KT BECMG 1011/1012 16010KT", "TAF EFJY 091120Z 0912/1012 07008KT CAVOK", "TAF EFKT 091122Z 0912/0921 35004KT CAVOK", "TAF EFKU 091120Z 0912/1012 07007KT CAVOK", "TAF EFLP 091120Z 0912/0921 04005KT CAVOK", "TAF EFMA 091124Z 0912/0921 36006KT 9999 FEW035", "TAF EFOU 091122Z 0912/1012 07006KT CAVOK", "TAF EFRO 091122Z 0912/1012 02004KT CAVOK", "TAF EFSI 091124Z 0912/0921 09007KT CAVOK", "TAF EFTP 091120Z 0912/1012 07007KT CAVOK", "TAF EFTU 091125Z 0912/1012 07006KT CAVOK", "TAF EFVA 091124Z 0912/1012 02007KT CAVOK PROB30 1009/1012 FEW040TCU", "TAF EGAA 091102Z 0912/1012 16020G32KT 9999 SCT030 TEMPO 0913/0922 7000 RA BKN012 PROB30 TEMPO 0916/0921 4000 +RA BECMG 0919/0922 20012KT PROB40 TEMPO 1002/1006 6000 SHRA BKN014", "TAF EGBB 091057Z 0912/1012 16012KT 9999 FEW045 PROB30 TEMPO 0920/1003 18015G25KT PROB40 TEMPO 0922/1002 8000 -RA BECMG 1000/1003 BKN014 TEMPO 1002/1010 8000 -RA PROB40 TEMPO 1002/1009 4000 RADZ BKN006 BECMG 1007/1010 23010KT SCT020 TEMPO 1010/1012 6000 SHRA PROB30 TEMPO 1010/1012 3000 +SHRA", "TAF EGCC 091103Z 0912/1018 16010KT 9999 SCT020 PROB40 TEMPO 0918/1006 18015G25KT TEMPO 0921/1006 6000 RA BKN014 PROB30 TEMPO 1000/1006 3000 +RA RADZ BKN007 BECMG 1006/1009 25009KT PROB40 TEMPO 1007/1012 3000 +SHRA BKN014 BECMG 1010/1013 31011KT TEMPO 1012/1018 3000 +SHRA BKN014 BECMG 1015/1018 25007KT", "TAF EGFF 091058Z 0912/1012 14010KT 9999 FEW045 TEMPO 0920/1007 6000 -RADZ SCT006 BKN010 PROB40 TEMPO 1000/1006 3000 RADZ BKN006 BECMG 1005/1008 26014KT TEMPO 1009/1012 27020G30KT 7000 SHRA PROB30 TEMPO 1010/1012 4000 +SHRA", "TAF EGGD 091058Z 0912/1012 16012KT 9999 FEW045 BECMG 0921/0924 SCT004 BKN008 TEMPO 0921/1008 3000 RADZ BKN004 PROB30 TEMPO 1001/1006 1200 DZ BR BKN001 BECMG 1007/1010 25012KT SCT022 TEMPO 1010/1012 26018G30KT 7000 SHRA PROB30 TEMPO 1010/1012 4000 +SHRA", "TAF EGGP 091103Z 0912/1012 16012KT 9999 FEW030 PROB30 TEMPO 0915/1002 18015G25KT PROB40 TEMPO 0920/1002 6000 RA BKN014 TEMPO 1002/1005 6000 RA BKN014 PROB40 TEMPO 1003/1005 3000 +RA RADZ BKN008 BECMG 1006/1009 25008KT PROB40 TEMPO 1007/1012 3000 +SHRA BKN014 PROB30 1010/1012 31011KT", "TAF EGGW 091059Z 0912/1012 17008KT 9999 FEW045 BECMG 1001/1004 6000 -RA BKN008 TEMPO 1004/1010 3000 RADZ BKN004 BECMG 1009/1012 26010KT 9999 NSW SCT026", "TAF EGKK 091055Z 0912/1018 16008KT 9999 SCT045 BECMG 1002/1005 BKN007 TEMPO 1002/1011 6000 RA PROB30 TEMPO 1003/1011 4000 RADZ BKN004 BECMG 1008/1012 23015KT SCT030 TEMPO 1010/1017 23018G28KT TEMPO 1011/1018 6000 SHRA PROB30 TEMPO 1011/1018 3000 +SHRA BKN012CB", "TAF EGLL 091053Z 0912/1018 17008KT 9999 FEW030 BECMG 1001/1004 -RA BKN010 TEMPO 1001/1010 7000 RA BKN008 PROB30 TEMPO 1004/1009 4000 RADZ BKN004 BECMG 1010/1012 24012KT NSW SCT040 TEMPO 1012/1018 25015G25KT PROB30 TEMPO 1012/1018 4000 +SHRA", "TAF EGNM 091104Z 0912/1012 14009KT 2000 BR BKN004 BECMG 0912/0914 9999 NSW SCT020 PROB30 TEMPO 0914/0915 7000 BKN010 PROB30 TEMPO 0922/1003 8000 -RA BKN014 BECMG 1003/1006 20010KT TEMPO 1003/1007 6000 RA BKN008 PROB40 TEMPO 1003/1007 3000 RADZ +RA BKN004 PROB30 TEMPO 1007/1012 3000 +SHRA BKN014 BECMG 1009/1012 27010KT", "TAF EGNT 091104Z 0912/1012 17007KT 9999 FEW045 PROB40 TEMPO 0912/0914 6000 BKN012 PROB30 TEMPO 0921/1003 8000 -RA BKN014 PROB40 TEMPO 0923/1008 18015G25KT PROB40 TEMPO 1003/1006 6000 RA BKN014 BECMG 1008/1011 26012KT TEMPO 1008/1011 27015G25KT", "TAF EGNX 091057Z 0912/1012 15010KT 9999 FEW045 PROB30 TEMPO 0920/1003 17015G25KT PROB40 TEMPO 0923/1002 8000 -RA BECMG 1001/1004 BKN014 TEMPO 1002/1011 8000 -RA PROB40 TEMPO 1002/1010 4000 RADZ BKN006 BECMG 1008/1011 22008KT SCT020", "TAF AMD EGPD 091124Z 0912/1012 15012KT 9999 BKN010 TEMPO 0912/0921 8000 BKN008 TEMPO 0912/0918 16015G25KT PROB40 TEMPO 0912/0915 5000 BR OVC006 BECMG 0918/0921 16015G28KT TEMPO 0921/1008 6000 -RA BKN008 PROB40 TEMPO 0921/1007 3000 +RA BR BKN005 BECMG 1005/1008 22008KT FEW025", "TAF EGPF 091056Z 0912/1012 15012KT 9999 FEW035 TEMPO 0918/1001 6000 -RA BKN014 PROB40 TEMPO 0920/0924 16015G25KT 3000 +RA BR BKN008 BECMG 0923/1002 21006KT PROB30 TEMPO 1005/1012 23015G25KT 7000 SHRA", "TAF EGPH 091056Z 0912/1012 16010KT 9999 FEW040 TEMPO 0920/1004 7000 -RA PROB40 TEMPO 1000/1004 4000 RA BKN010 BECMG 1002/1005 22009KT PROB30 TEMPO 1008/1012 23015G25KT 6000 SHRA", "TAF EGPK 091056Z 0912/1012 15012KT 9999 FEW035 PROB40 TEMPO 0912/0924 16015G25KT TEMPO 0919/1001 6000 -RA BKN012 PROB40 TEMPO 0920/0924 3000 +RA BR BKN006 BECMG 0923/1002 21009KT PROB40 TEMPO 1005/1012 23015G25KT 7000 SHRA", "TAF EGSS 091059Z 0912/1018 17008KT 9999 FEW045 BECMG 1002/1005 6000 -RA SCT006 BKN010 TEMPO 1005/1011 4000 RADZ BKN006 PROB40 TEMPO 1005/1010 BKN004 BECMG 1010/1013 26010KT 9999 NSW SCT028 TEMPO 1013/1018 27018G30KT 7000 SHRA PROB30 TEMPO 1013/1018 4000 +SHRA", "TAF EGUN 091200Z 0912/1018 17009KT 9999 BKN030 BKN120 QNH3006INS TEMPO 0913/0918 16010G15KT SCT050 SCT150 BECMG 0917/0918 15012KT 9999 FEW060 SCT120 QNH2996INS BECMG 1000/1001 17010G15KT 9999 SCT030 BKN100 QNH2987INS BECMG 1004/1006 18012G20KT 8000 -RA BR SCT010 OVC015 610703 QNH2968INS TEMPO 1006/1011 20015G25KT 5000 RA BR OVC008 540109 BECMG 1012/1013 23015G25KT 9999 NSW SCT020 BKN030 620505 QNH2967INS TX15/0915Z TN06/1004Z", "TAF EHAM 091105Z 0912/1018 15006KT 9999 SCT025 BECMG 1008/1011 17012KT CAVOK BECMG 1012/1015 19015G25KT 7000 -RADZ SCT015 BKN020 TEMPO 1015/1018 4500 RADZ BKN008", "TAF EHBK 091106Z 0912/1018 12005KT 9999 SCT040 BECMG 1005/1008 17010KT BECMG 1015/1018 20010KT PROB30 TEMPO 1017/1018 7000 -RA", "TAF EHEH 091107Z 0912/1018 13004KT 9999 FEW035 SCT040 BECMG 1009/1011 18010G20KT BECMG 1013/1015 20013G25KT", "TAF EHGG 091105Z 0912/1018 14005KT 9999 SCT035 BECMG 1007/1010 17012KT PROB30 TEMPO 1017/1018 7000 -RA", "TAF EHKD 091202Z 0913/1001 13007KT 9999 BKN020", "TAF EHLE 091106Z 0912/1018 15006KT 9999 SCT025 BECMG 1008/1011 17012KT CAVOK BECMG 1013/1016 19015G25KT 7000 -RADZ SCT015 BKN020 TEMPO 1014/1018 4500 RADZ BKN008", "TAF EHLW 091202Z 0913/1001 13006KT 9999 BKN020", "TAF EHRD 091106Z 0912/1018 15006KT 9999 SCT025 BECMG 1008/1011 17012KT CAVOK BECMG 1012/1015 19015G25KT 7000 -RADZ SCT015 BKN020 TEMPO 1015/1018 4500 RADZ BKN008", "TAF EHVK 091202Z 0913/1001 13005KT 9999 SCT040 BECMG 0923/1001 16006KT", "TAF EICK 091100Z 0912/1012 19017KT 9999 SCT003 BKN005 BECMG 0912/0914 SCT005 BKN012 TEMPO 0912/0915 21018G30KT PROB40 TEMPO 0912/0913 2000 -RADZ BKN003 BECMG 0914/0916 4000 -RA SCT003 BKN007 TEMPO 0915/0922 2000 -RADZ BKN003 BECMG 0917/0919 22007KT PROB40 TEMPO 0917/0921 0500 FG BECMG 0921/0923 24010KT 9999 NSW FEW010 BKN020 BECMG 1001/1003 21008KT BECMG 1005/1007 27012KT TEMPO 1005/1012 -SHRA FEW018CB PROB40 TEMPO 1005/1008 4000 SHRA BKN010 SCT018CB BECMG 1010/1012 27017G28KT", "TAF EIDL 091100Z 0912/0921 15023KT 9999 FEW012 BKN025 TEMPO 0912/0916 16025G35KT PROB40 TEMPO 0912/0913 -RA BKN012 BECMG 0916/0918 18015KT TEMPO 0916/0918 18017G27KT TEMPO 0916/0920 -RA BKN012 PROB30 TEMPO 0916/0918 4000 RA BKN009 BECMG 0918/0920 22013KT", "TAF EIDW 091100Z 0912/1012 16014KT 9999 FEW014 SCT018 TEMPO 0912/0915 17015G26KT BECMG 0915/0917 19013KT TEMPO 0918/0921 21015G25KT BECMG 0923/1001 22010KT TEMPO 1000/1003 -SHRA BKN012 BECMG 1001/1003 26013KT BECMG 1003/1005 23010KT PROB40 TEMPO 1006/1012 -SHRA FEW018CB", "TAF EIKN 091100Z 0912/1012 18016KT 4000 -RA BKN003 BECMG 0912/0914 9999 FEW003 BKN015 TEMPO 0912/0915 18017G28KT BECMG 0915/0917 21017G28KT 4000 -RA SCT003 BKN007 TEMPO 0916/0918 2000 -RADZ BKN003 BECMG 0918/0920 23010KT 9999 FEW010 BKN020 BECMG 0920/0922 18008KT PROB30 TEMPO 0920/0923 3000 BR BKN003 BECMG 0923/1001 24012KT TEMPO 0923/1002 24015G26KT 3000 -SHRA BKN005 BECMG 1002/1004 21007KT PROB40 TEMPO 1004/1008 4000 -SHRA BKN007 BECMG 1008/1010 25012KT TEMPO 1008/1012 4000 -SHRA BKN007 SCT018CB PROB40 TEMPO 1008/1010 2500 SHRA BKN004", "TAF EIKY 091100Z 0912/0921 19014KT 9999 FEW010 BKN025 TEMPO 0912/0916 20017G28KT TEMPO 0913/0916 4000 -RA BKN010 BECMG 0916/0918 23010KT PROB30 TEMPO 0920/0921 4000 -SHRA BKN012 FEW018CB", "TAF EIME 091100Z 0912/0921 19015KT 9999 FEW018 SCT025 TEMPO 0912/0916 19016G27KT BECMG 0916/0918 21018G30KT BECMG 0919/0921 21012KT", "TAF EINN 091100Z 0912/1012 17014KT 9999 SCT012 BKN025 TEMPO 0912/0916 18016G27KT TEMPO 0915/0918 -RA BKN012 PROB30 TEMPO 0916/0918 4000 BKN008 BECMG 0916/0918 20011KT BECMG 0918/0920 16007KT BECMG 0921/0923 22013KT PROB30 TEMPO 0921/0924 4000 -SHRA BKN014 FEW018CB BECMG 1002/1004 17007KT TEMPO 1004/1012 -SHRA SCT018CB PROB30 TEMPO 1004/1010 4000 BKN014 BECMG 1006/1008 20010KT BECMG 1008/1010 24015KT TEMPO 1009/1012 25017G28KT", "TAF EISG 091100Z 0912/0921 15015KT 9999 FEW012 BKN025 TEMPO 0912/0916 16016G26KT TEMPO 0912/0913 -RA BKN012 BECMG 0916/0918 20013KT TEMPO 0916/0918 -RA BKN012 PROB30 TEMPO 0916/0918 20015G25KT 4000 -RADZ BKN009 BECMG 0918/0920 23008KT", "TAF EIWF 091100Z 0912/0921 18016KT 9999 BKN015 BECMG 0912/0914 5000 -RA SCT002 BKN005 TEMPO 0912/0918 19018G30KT TEMPO 0913/0918 1500 -RADZ BKN002 BECMG 0918/0920 22015KT 3000 -RADZ BKN003 TEMPO 0918/0921 22018G30KT 0600 FG BKN001", "TAF EKAH 091101Z 0912/1012 14005KT 9999 FEW030", "TAF EKBI 091101Z 0912/1012 13008KT 9999 FEW030", "TAF EKCH 091114Z 0912/1012 11008KT 9999 SCT040 PROB40 0912/0915 19010KT", "TAF EKEB 091101Z 0912/0921 14008KT CAVOK", "TAF EKGC 091102Z 0912/0920 15012KT 1500 BR BKN002 TEMPO 0912/0918 9000 NSW BKN020 BECMG 0918/0920 9999 NSW SCT030", "TAF AMD EKHD 091255Z 0912/0921 15012KT 4000 BR BKN010 TEMPO 0912/0918 0700 FG BKN003", "TAF EKKA 091103Z 0912/1012 VRB05KT 9999 FEW030 BKN120 BECMG 0912/0914 14006KT", "TAF EKOD 090804Z 0909/0915 VRB02KT 9999 FEW040", "TAF EKRK 091115Z 0912/0921 14005KT 9999 SCT040", "TAF EKRN 091103Z 0912/0921 06014KT 9999 FEW120", "TAF EKSB 091247Z 0913/0917 14008KT CAVOK", "TAF EKSP 091103Z 0912/1012 13008KT 9999 FEW120", "TAF EKVD 090804Z 0909/0915 13008KT 9999 FEW040", "TAF EKVG 091101Z 0912/0921 12023KT 9999 BKN012 TEMPO 0912/0921 12025G35KT BKN008 OVC020", "TAF EKYT 091104Z 0912/1012 08006KT 9999 FEW030 BKN100 BECMG 0923/1001 14008KT", "TAF ELLX 091100Z 0912/1018 11007KT 9999 BKN040 BECMG 1010/1013 18010KT", "TAF ENAL 091100Z 0912/0921 35005KT CAVOK", "TAF ENAN 091100Z 0912/1012 16005KT 9999 FEW015 BKN025", "TAF ENAT 091100Z 0912/0921 VRB03KT 9999 FEW020 BKN040", "TAF ENBN 091100Z 0912/0921 10005KT CAVOK BECMG 0920/0921 12015KT", "TAF ENBO 091100Z 0912/1012 09008KT CAVOK TEMPO 1002/1011 09018KT", "TAF ENBR 091100Z 0912/1012 13008KT 9999 BKN040 TEMPO 0915/0919 RA TEMPO 1003/1012 15015G25KT", "TAF ENCN 091100Z 0912/0921 07005KT 9999 -RA FEW030 BKN040 BECMG 0920/0921 4000 -RA BR BKN012", "TAF ENDU 091100Z 0912/1012 28005KT 9999 FEW025 SCT040", "TAF ENEV 091100Z 0912/1012 VRB03KT 9999 FEW015 SCT035", "TAF ENFL 091100Z 0912/0921 23008KT 9999 BKN050 BECMG 0919/0921 09012KT", "TAF ENGC 091100Z 0912/1012 16025KT 9999 BKN035 BECMG 0912/0915 BKN012 BECMG 0918/0920 16035KT TEMPO 0913/1003 RA BKN008 TEMPO 1003/1012 4000 -RADZ BR BKN004 BECMG 1006/1009 16045KT", "TAF ENGM 091100Z 0912/1012 09010KT 9999 SCT050 BECMG 0918/0920 VRB03KT TEMPO 0922/1005 2500 -RADZ BR BKN005 BECMG 1005/1007 12010KT TEMPO 1005/1008 0800 -SNRA BR VV004 TEMPO 1008/1010 BKN008", "TAF ENHD 091100Z 0912/0921 12010KT 9999 -RA BKN040 TEMPO 0912/0914 RA", "TAF ENHE 091100Z 0912/0921 10022KT 9999 FEW025", "TAF AMD ENHF 091243Z 0912/0921 24009KT 9999 FEW010 BKN020 TEMPO 0912/0918 BKN012", "TAF ENKB 091100Z 0912/0921 07005KT CAVOK", "TAF ENKR 091100Z 0912/0921 32008KT 9999 BKN030", "TAF AMD ENLE 091258Z 0912/0921 13020KT 9999 -RA FEW005 BKN020 TEMPO 0912/0921 3000 BR BKN004", "TAF ENML 091100Z 0912/0921 07005KT CAVOK", "TAF ENMS 091100Z 0912/0921 VRB03KT CAVOK", "TAF ENNA 091100Z 0912/1012 VRB03KT 9999 FEW020 BKN035", "TAF ENNE 090800Z 0909/0917 10020KT 9999 BKN020", "TAF ENOA 091100Z 0912/1012 16028KT 9999 BKN020 TEMPO 0912/1009 RA BKN008 BECMG 0922/0924 16038KT BECMG 1008/1009 15048KT TEMPO 1008/1012 -RADZ BR BKN005", "TAF ENOL 091100Z 0912/1012 12015KT CAVOK", "TAF ENOV 091100Z 0912/0920 VRB03KT CAVOK", "TAF ENRM 091100Z 0912/0921 11008KT CAVOK", "TAF ENRO 090800Z 0909/0917 12008KT 9999 FEW030", "TAF ENRY 091100Z 0912/1012 VRB03KT 9999 SCT060 PROB30 TEMPO 1001/1006 4000 -RADZ BR BKN002 BECMG 1004/1006 17010KT", "TAF ENSB 091100Z 0912/1012 25025KT 1000 SNRA VV006 TEMPO 0912/0917 5000 -SNRA BKN015 PROB40 TEMPO 0912/0917 0700 SN VV004 TEMPO 0912/0917 25025G35KT BECMG 0917/0920 27015KT 9999 -SN BKN020 TEMPO 0920/0924 BKN008", "TAF ENSK 091100Z 0912/0920 VRB03KT 9999 FEW006 BKN025", "TAF ENTC 091100Z 0912/1012 21006KT 9999 FEW010 BKN025", "TAF ENTO 091100Z 0912/1012 VRB03KT 9999 SCT060 PROB40 TEMPO 1000/1006 4000 -RADZ BR BKN002 BECMG 1004/1006 17010KT PROB30 1011/1012 17015G25KT", "TAF ENVA 091100Z 0912/1012 14008KT CAVOK BECMG 1006/1008 17018KT TEMPO 1007/1012 17018G28KT", "TAF ENZV 091100Z 0912/1012 13012KT 9999 -RA BKN030 TEMPO 1000/1012 13018G28KT", "TAF EPBY 091130Z 0912/1012 02006KT 9999 SCT040 TEMPO 0912/0916 BKN025TCU TEMPO 0920/1008 2000 BR BKN005 PROB40 TEMPO 0921/1006 0600 FG OVC002", "TAF EPCE 091100Z 0912/0924 02006KT CAVOK TEMPO 0912/0920 9999 SCT025 BECMG 0920/0924 VRB02KT 3000 BR NSC PROB30 0922/0924 0500 FG BKN002", "TAF EPDA 091100Z 0912/0924 02010KT CAVOK BECMG 0920/0922 07005KT", "TAF EPDE 091100Z 0912/0924 VRB03KT CAVOK PROB30 TEMPO 0912/0915 6000 SHRA BKN027CB BECMG 0919/0921 5000 BR BECMG 0922/0924 2500 BR PROB30 0922/0924 0600 FG BKN003", "TAF EPGD 091130Z 0912/1012 03010KT 9999 SCT020 BECMG 0917/0920 VRB02KT PROB40 1001/1006 3000 BR", "TAF EPKK 091130Z 0912/1012 VRB02KT 9999 SCT035 TEMPO 0912/0916 BKN030TCU BECMG 0921/0923 2000 BR BKN008 TEMPO 1000/1004 0600 FG BKN004 BKN008 BECMG 1007/1009 9999 BKN040", "TAF EPKS 091100Z 0912/0924 33006KT 9999 BKN030 PROB30 TEMPO 0913/0918 SHRA BKN020TCU BECMG 0918/0920 5000 BR", "TAF EPKT 091130Z 0912/1012 VRB02KT 9999 BKN030 TEMPO 0912/0916 SHRA BKN020CB BECMG 0920/0922 4000 BR BKN012 TEMPO 0922/1006 1400 BR BKN006 BKN012 BECMG 1006/1008 9999 BKN030", "TAF EPLB 091130Z 0912/1012 VRB04KT 9999 BKN030 TEMPO 0912/0917 -SHRA BKN025CB BECMG 0920/0922 3000 BR PROB40 0922/1006 0500 FG BKN001", "TAF EPLK 091100Z 0912/0924 34008KT 9999 BKN030 TEMPO 0912/0920 5000 SHRA BKN015CB", "TAF EPLL 091130Z 0912/1012 VRB04KT 9999 BKN030 TEMPO 0913/0921 -SHRA BKN025CB PROB30 TEMPO 0913/0919 TSRA BKN020CB BECMG 0919/0922 3000 BR BECMG 1000/1002 0500 FG BKN001 BECMG 1008/1010 9999 BKN030", "TAF EPMB 091100Z 0912/0924 36006KT 9999 SCT015 BKN020 BECMG 0913/0916 SCT025", "TAF COR EPMI 091203Z 0912/0924 01006KT 9999 SCT020 PROB30 0921/0924 4000 BR", "TAF EPMM 091100Z 0912/0924 VRB04KT 9999 SCT033 TEMPO 0912/0917 5000 TSRA BKN013CB BECMG 0920/0922 3000 BR PROB30 0923/0924 0500 FG BKN002", "TAF EPMO 091130Z 0912/1012 VRB04KT 9999 SCT035 TEMPO 0912/0919 SHRA BKN030CB PROB40 TEMPO 0912/0917 4000 TSRA BKN020CB BECMG 0920/0922 2000 BR TEMPO 0923/1007 0500 FG BKN001 BECMG 1007/1009 9999 SCT030", "TAF EPOK 091100Z 0912/0924 35008KT CAVOK", "TAF EPPO 091130Z 0912/1012 30010KT 9999 BKN030 PROB30 TEMPO 0912/0919 4000 SHRA BKN012 BKN018CB BECMG 0921/0923 01002KT 2000 BR BECMG 0923/1001 0800 FG BKN002 TEMPO 1001/1007 0300 FG OVC001 PROB40 TEMPO 1001/1007 DZ BECMG 1007/1010 17010KT 9999 SCT020", "TAF EPPW 091100Z 0912/0924 01006KT 9999 BKN040 TEMPO 0912/0914 BKN025", "TAF AMD EPRZ 091157Z 0912/1012 VRB02KT CAVOK TEMPO 0912/0916 -SHRA BKN030CB BECMG 0922/0924 2000 BR BECMG 1000/1002 0600 FG BKN006 BECMG 1007/1009 9999 BKN012 BECMG 1009/1011 SCT030", "TAF EPSC 091130Z 0912/1012 02005KT 9999 SCT045 BECMG 1000/1003 3000 BR BKN006 PROB30 1000/1006 0400 FG OVC001 BECMG 1008/1011 18010KT CAVOK", "TAF EPSN 091100Z 0912/0924 02006KT 9999 SCT025", "TAF EPSY 091130Z 0912/0921 01005KT 9999 SCT040 TEMPO 0912/0920 -SHRA SCT014 BKN025CB PROB30 TEMPO 0912/0918 VRB15G25KT 4000 TSRA", "TAF EPWA 091130Z 0912/1012 VRB04KT 9999 SCT035 TEMPO 0912/0919 SHRA BKN030CB PROB40 TEMPO 0912/0917 4000 TSRA BKN020CB BECMG 0921/0923 2000 BR TEMPO 0923/1007 0500 FG BKN001 BECMG 1007/1009 9999 SCT030", "TAF AMD EPWR 091404Z 0914/1012 29010KT 9999 SCT015 BKN030 TEMPO 0914/0919 4000 RA BR BKN005 OVC010 BECMG 0919/0921 VRB02KT 4000 BR OVC007 TEMPO 0921/1008 1200 DZRA BR BKN003 PROB30 TEMPO 0923/1006 0500 DZ FG OVC001 BECMG 1008/1011 9999 BKN020", "TAF EPZG 091130Z 0912/0921 31006KT 9999 FEW020 BKN040 TEMPO 0912/0918 4000 RA BR BKN012 BECMG 0918/0921 1200 BR", "TAF ESDF 091130Z 0912/0919 04009KT CAVOK", "TAF ESGG 091130Z 0912/1012 12007KT CAVOK", "TAF ESGP 091130Z 0912/0921 VRB03KT CAVOK", "TAF ESKN 091130Z 0912/1012 11007KT CAVOK", "TAF ESKS 091130Z 0912/0919 10004KT CAVOK", "TAF ESMK 091231Z 0913/0918 13008KT CAVOK", "TAF ESMQ 091130Z 0912/0917 04012KT CAVOK", "TAF ESMS 091115Z 0912/1012 11006KT 9999 FEW040", "TAF ESMT 091115Z 0912/0919 18005KT 9999 SCT040", "TAF ESMX 091130Z 0912/0916 03006KT CAVOK", "TAF ESNQ 091130Z 0912/0919 20003KT CAVOK", "TAF ESNS 091130Z 0912/0919 05007KT CAVOK", "TAF ESNU 091130Z 0912/0921 04007KT CAVOK", "TAF ESNZ 091130Z 0912/0919 09003KT CAVOK", "TAF ESPA 091130Z 0912/0921 04004KT CAVOK", "TAF ESSA 091130Z 0912/1012 35006KT CAVOK PROB40 0921/0923 0700 BCFG PROB40 0923/1006 0300 FG VV002", "TAF ESSB 091130Z 0912/0921 02006KT CAVOK", "TAF ESSL 091230Z 0913/0917 08008KT CAVOK", "TAF ESSV 091130Z 0912/0920 01011KT CAVOK", "TAF ESTA 091115Z 0912/0919 14008KT 9999 SCT040 PROB40 0912/0918 28008KT", "TAF ETAD 091304Z 0913/1019 10009KT 9999 SCT035 QNH3017INS BECMG 0923/0924 13006KT 9999 FEW035 FEW210 QNH3008INS BECMG 1008/1009 17009KT 9999 FEW060 SCT210 QNH3000INS TEMPO 1013/1015 20010G20KT SCT060 BKN190 BECMG 1014/1015 20010G15KT 9999 SCT030 BKN060 OVC170 QNH2994INS TX13/1013Z TN02/1005Z", "TAF ETAR 091000Z 0910/1016 10010G15KT 9999 BKN050 QNH3023INS BECMG 0917/0918 VRB06KT 9999 SCT050 QNH3021INS BECMG 0921/0922 11006KT 9999 FEW015 FEW240 QNH3020INS BECMG 1010/1011 15012KT 9999 FEW030 SCT200 QNH3010INS BECMG 1014/1015 20012KT 9999 SCT040 BKN140 QNH3001INS TX13/0913Z TN02/1004Z", "TAF ETNL 091018Z 0911/0923 08003KT 6000 NSW BKN010 BKN030 BECMG 0911/0913 08005KT 9999 NSW SCT020 BKN050 BY ETGL", "TAF ETNW 091022Z 0911/1011 11007KT 7000 NSW BKN010 BECMG 0911/0913 12007KT 9999 NSW SCT040 PROB30 1002/1005 VRB03KT 0500 FG FEW200 BY ETGL", "TAF AMD ETOU 081728Z 0817/0917 02006KT 9999 OVC020 QNH3021INS BECMG 0823/0900 VRB06KT 9999 BKN035 BKN050 QNH3023INS TEMPO 0906/0907 3200 BR OVC025 TX13/0913Z TN03/0903Z LAST NO AMDS AFT 0815 NEXT 1104", "TAF ETSN 091302Z 0914/0923 08006KT 9999 NSW SCT060 PROB30 0914/0917 09010KT 5000 -SHRA BKN040TCU BY ETGL", "TAF COR EYKA 091208Z 0912/1012 VRB05KT 9000 SCT035CB BKK040 TEMPO 0913/0916 1500 TSRA SCT006 BKN020CB TEMPO 0916/0919 5000 TSRA BECMG 0919/0921 5000 MIFG BR SCT003 TEMPO 0920/1005 0500 FG VV002 TEMPO 1005/1008 BKN005 BECMG 1008/1009 9000 NSW BKN030", "TAF EYPA 091100Z 0912/1012 VRB05KT 9000 SCT040", "TAF EYVI 091100Z 0912/1012 VRB05KT 9000 BKN030 TEMPO 0912/0920 VRB20KT 1500 TSRA BKN005 BKN015CB BECMG 0920/0921 3000 BR BKN005 BECMG 0921/0922 0350 FG VV001 BECMG 1007/1008 9000 NSW SCT005 BKN020 TEMPO 1009/1012 BKN015CB", "TAF FABL 091000Z 0912/1012 04009KT 9999 SCT035 TX20/1012Z TN11/1004Z TEMPO 0912/1003 -TSRA BKN005 SCT030CB", "TAF FACT 091000Z 0912/1018 22010KT CAVOK TX21/0912Z TN13/1004Z FM091800 33010KT 9999 SCT020 PROB30 TEMPO 0921/1002 4500 -RA BKN010 PROB30 TEMPO 1002/1005 BKN012 FM100400 23010KT 9999 BKN030", "TAF FAEL 090900Z 0910/0919 24013KT 9999 SCT010 BKN016 TX21/0911Z TN19/0918Z PROB30 TEMPO 0912/0918 4500 -TSRA BKN010 FEW070CB", "TAF FAGG 091000Z 0912/1012 29010KT 9999 SCT030 BKN040 TX18/0913Z TN13/1002Z FM092200 35005KT CAVOK FM100300 27015KT 9999 SCT012 BKN030 PROB40 TEMPO 1006/1011 3500 -RA BKN012", "TAF FAHS 090900Z 0910/0918 VRB03KT 9999 SCT030 TX30/0913Z TN25/0918Z BECMG 0914/0916 CAVOK", "TAF FAKM 090900Z 0910/0918 34010KT 9999 SCT030 TX24/0912Z TN15/0910Z PROB30 TEMPO 0910/0918 26015G25KT -TSRA FEW050CB", "TAF FAKN 090900Z 0910/0918 VRB03KT 9999 SCT030 TX28/0913Z TN22/0918Z BECMG 0910/0912 04009KT PROB30 TEMPO 0911/0915 TS FEW040CB BECMG 0915/0917 VRB03KT CAVOK", "TAF FALA 091000Z 0912/1012 34012KT 9999 SCT035 TX28/0913Z TN14/1003Z PROB30 TEMPO 0912/0921 -TSRA FEW035CB BECMG 0916/0918 VRB03KT BECMG 0920/0922 18013KT PROB40 TEMPO 0921/1002 5000 SHRA BKN015 FEW030TCU BECMG 1000/1002 VRB03KT TEMPO 1002/1010 5000 TSRA BKN012 FEW030CB BECMG 1010/1012 35008KT PROB30 TEMPO 1010/1012 -SHRA FEW030TCU", "TAF FALE 091000Z 0912/1018 04015KT 9999 SCT025 TX29/0912Z TN21/1004Z PROB40 TEMPO 0916/0921 4000 TSRA BKN015 FEW030CB TEMPO 0917/0919 20015G30KT FM100400 19010KT 9999 BKN020 PROB40 TEMPO 1014/1018 5000 RA BKN010", "TAF FAMM 090900Z 0910/0918 03012KT 9999 SCT045 TX26/0914Z TN18/0918Z BECMG 0910/0912 33013KT PROB40 TEMPO 0912/0918 -TSRA FEW040CB PROB30 TEMPO 0912/0914 33015G25KT BECMG 0916/0918 20010KT", "TAF FAOR 091000Z 0912/1018 34015KT 9999 SCT030 TX26/0913Z TN13/1003Z PROB30 TEMPO 0912/0921 -TSRA FEW035CB BECMG 0916/0918 35005KT BECMG 0919/0921 19013KT PROB40 TEMPO 0921/1003 5000 SHRA BKN012 FEW030TCU BECMG 1002/1004 VRB03KT TEMPO 1003/1011 5000 TSRA BKN010 FEW030CB BECMG 1008/1010 33012KT PROB40 TEMPO 1011/1014 -SHRA BKN008 FEW030TCU PROB40 TEMPO 1015/1018 3500 TSRA FEW030CB", "TAF FAPE 091000Z 0912/1012 25019KT 9999 SCT012 BKN020 TX20/1012Z TN13/1004Z PROB30 TEMPO 0913/0915 25022G34KT 5000 -RA BKN012 BECMG 0920/0922 27011KT CAVOK BECMG 1008/1010 26025G35KT", "TAF FAPM 090900Z 0910/0921 01008KT 9999 SCT020 TX28/0912Z TN20/0921Z PROB30 TEMPO 0916/0919 5000 TSRA BKN015 FEW035CB", "TAF FAPP 090900Z 0910/0918 03009KT CAVOK TX29/0913Z TN19/0918Z BECMG 0910/0912 SCT035 BECMG 0914/0916 CAVOK BECMG 0916/0918 VRB03KT", "TAF FARB 090900Z 0910/0918 06012KT CAVOK TX32/0912Z TN24/0918Z PROB30 TEMPO 0915/0918 5000 TSRA BKN015 FEW035CB", "TAF FAUP 091000Z 0912/1012 21008KT CAVOK TX23/1012Z TN09/1004Z", "TAF FAUT 090900Z 0910/0918 VRB03KT 9999 FEW030 TX23/0912Z TN14/0918Z TEMPO 0911/0916 4500 TSRA FEW060CB BECMG 0916/0918 OVC010", "TAF FAWB 090900Z 0910/0918 33009KT CAVOK TX29/0913Z TN20/0918Z BECMG 0915/0917 VRB03KT PROB30 TEMPO 0916/0918 TS FEW050CB", "FBMN 091000Z 0912/1012 05005KT CAVOK", "FBPM 091000Z 0912/1012 07007KT CAVOK", "TAF FBSK 091000Z 0912/1018 34010KT 9999 SCT030 FEW035CB BKN070 PROB30 TEMPO 0915/0918 TSRA BECMG 0919/0921 CAVOK BECMG 0923/1001 SCT015 BKN065 PROB30 TEMPO 1001/1005 RA BECMG 1006/1008 CAVOK", "TAF FCBB 091100Z 0912/1018 24004KT 9000 FEW015 BECMG 0914/0916 SCT018 FEW030CB PROB30 TEMPO 0918/0921 TS PROB30 TEMPO 1002/1008 4000 TSRA BECMG 1008/1010 SCT020", "TAF FCPP 091100Z 0912/1012 21007KT 8000 SCT018 FEW030CB BECMG 0912/0914 TS BECMG 0920/0922 NSW SCT016", "TAF FDMS 091000Z 0912/0918 03005KT 9999 SCT035 PROB30 TEMPO 7000 -TSRA SCT030 FEW035CB", "TAF FDSK 091000Z 0912/0918 04005KT 9999 SCT035 PROB30 TEMPO -TSRA SCT035 FEW040CB", "TAF FEFF 081700Z 0818/0924 14010KT 6000 TS BKN010 FEW033CB TEMPO 0818/0901 4000 TSRA BECMG 0823/0901 00000KT NSW BKN007 BECMG 0909/0911 20010KT BKN014 PROB30 TEMPO 0914/0918 4000 TSRA BKN020 FEW033CB", "TAF FGBT 090500Z 0906/1006 20005KT 9999 SCT010 FEW018CB PROB40 TEMPO 0908/0912 3000 TSRA BKN008 FEW018CB", "TAF FGSL 090500Z 0906/1012 22005KT 9999 FEW010", "TAF COR FIMP 091125Z 0912/1018 07010KT 9999 SCT017 TEMPO 0912/1018 7000 -SHRA FEW010 BKN016 PROB30 TEMPO 0918/1012 3000 SHRA TSRA FEW006 FEW012CB BKN013", "TAF FIMR 091130Z 0912/1006 08018G30KT 9999 SCT017 TEMPO 0912/1006 7000 -SHRA BKN016 PROB30 TEMPO 0918/1006 3000 SHRA/TSRA FEW006 FEW012CB BKN013", "TAF FJDG 090900Z 0909/1015 VRB06KT 9999 FEW020 SCT040 BKN090 QNH2981INS TX32/1006Z TN26/0919Z FOR MIL USE ONLY", "TAF FKKD 091100Z 0912/1018 VRB03KT 8000 TS BKN013 FEW016CB BECMG 0914/0916 NSW PROB30 0923/1003 4000 TSRA TEMPO 1005/1007 2500 TS BR BECMG 1007/1009 BKN016 FEW020CB", "TAF FKYS 091100Z 0912/1012 VRB04KT 8000 BKN013 PROB40 0914/0919 3000 TSRA BKN013 FEW020CB BECMG 0920/0922 BKN006 TEMPO 1003/1008 2000 BR PROB40 1004/1006 0800 FG", "TAF FLCP 082200Z 0900/1006 12005KT CAVOK BECMG 0903/0905 9999 SCT008 BECMG 0907/0909 08010KT SCT020 BECMG 0911/0913 BKN035TCU", "TAF FLHN 082200Z 0900/1006 07005KT CAVOK BECMG 0907/0909 08010KT 9999 FEW010 BECMG 0912/0914 07005KT SCT040 FM091500 10005KT CAVOK", "TAF FLKK 082200Z 0900/1006 13005KT CAVOK BECMG 0905/0907 08005KT 9999 FEW010 BECMG 0907/0909 09010KT BKN020 BECMG 0912/0914 11005KT SCT040", "TAF FLKS 082200Z 0900/1006 VRB03KT CAVOK BECMG 0903/0905 11005KT 9999 BKN007 BECMG 0907/0909 09010KT BKN015 PROB30 TEMPO 0910/0914 9000 -TSRA FEW030CB BKN035", "TAF FLMA 082200Z 0900/1006 09005KT CAVOK BECMG 0903/0905 9999 SCT008 BECMG 0906/0908 10010KT BKN010 PROB3 TEMPO 0910/0914 9000 -SHRA BKN030", "TAF FLMF 082200Z 0900/1006 12005KT CAVOK BECMG 0903/0905 9999 SCT008 BECMG 0907/0909 08010KT SCT020 BECMG 0911/0913 BKN035TCU", "TAF FLSK 082200Z 0900/1006 16005KT CAVOK BECMG 0903/0905 9000 FU FEW009 BECMG 0907/0909 08010KT SCT020 BECMG 0912/0914 SCT040", "TAF FLSW 082200Z 0900/1006 VRB03KT CAVOK BECMG 0906/0908 09005KT 9999 SCT010 BECMG 0911/0913 SCT035 BECMG 0915/0917 VRB03KT CAVOK", "TAF FMCH 091100Z 0912/1018 18010KT 9999 FEW020 SCT030 BECMG 0915/0917 09005KT PROB30 TEMPO 1003/1012 4500 TS SHRA SCT020CB BKN030 BECMG 1006/1008 27010KT BECMG 1015/1017 10005KT", "TAF FMCZ 091100Z 0912/1012 12006KT 9999 FEW025 TEMPO 1001/1006 3000 SHRA SCT020TCU", "TAF FMEE 091100Z 0912/1018 12010KT 9999 SCT040 BKN150 PROB40 TEMPO 0915/0918 VRB10G25KT 2500 SHRA SCT025TCU PROB30 TEMPO 0918/1003 3500 SHRA SCT025TCU BECMG 1003/1005 06012KT", "TAF FMEP 091100Z 0912/0921 28010KT 9999 SCT033 SCT050 BKN150 PROB30 TEMPO 0912/0915 VRB10G25KT 2500 SHRA SCT020TCU BECMG 0912/0914 06006KT", "TAF FMMI 091100Z 0912/1018 14012KT 9999 BKN020CB PROB40 TEMPO 0914/0921 4000 TSRA BECMG 0920/0923 VRB02KT FEW017 SCT020 PROB40 1002/1006 1500 BR BKN005 BECMG 1008/1011 32012KT BKN020CB PROB30 TEMPO 1012/1018 4500 TSRA", "TAF FMMS 091100Z 0912/1012 18010KT 9000 SCT017CB BKN033 PROB40 TEMPO 0912/0918 TSRA PROB40 TEMPO 0918/1012 4000 TSRA", "TAF FMMT 091100Z 0912/1012 20010KT 9000 SCT017CB BKN033 PROB40 TEMPO 0912/1012 4000 TSRA", "TAF FMNA 091100Z 0912/1012 14010KT 9999 SCT020CB PROB30 TEMPO 0912/0918 4500 TSRA BECMG 0918/0920 FEW020 BKN040 BECMG 1008/1010 SCT020CB", "TAF FMNM 091100Z 0912/1012 33010KT 9999 SCT020CB SCT040 PROB40 TEMPO 0916/1002 4000 TSRA BECMG 0918/0920 12008KT", "TAF FMNN 091100Z 0912/1012 VRB05KT 9999 SCT020CB PROB30 TEMPO 0912/0920 4000 TSRA PROB30 TEMPO 1003/1012 4500 TSRA", "TAF FMSD 091100Z 0912/1012 10016KT 9999 FEW020 SCT033", "TAF FMST 091100Z 0912/1012 22012KT 9999 FEW020 BECMG 0917/0919 12005KT", "TAF FNBG 091100Z 0912/0924 30010KT 9999 SCT018 TEMPO 0913/0917 7000 -TSRA FEW015 BKN020 FEW023CB", "TAF FNCA 091100Z 0912/0924 22006KT 9999 FEW018 BECMG 0913/0916 8000 DZ BKN020", "TAF FNCT 091100Z 0912/0924 32010KT 9999 FEW020 TEMPO 0913/0917 7000 DZ BKN020", "TAF FNDU 091100Z 0912/0924 04008KT 9999 SCT025 PROB30 TEMPO 0914/0917 700 -TSRA FEW015 BKN020 FEW023CB", "TAF FNGI 091100Z 0912/0924 08010KT 9999 FEW020", "TAF FNHU 091100Z 0912/0924 07008KT 9999 SCT020", "TAF FNKU 091100Z 0912/0924 10008KT 9999 SCT025", "TAF FNLU 091100Z 0912/1018 27010KT 9999 FEW020 FEW023CB SCT030 TEMPO 0919/0923 21010KT 2000 TSRA SCT018 OVC023 BECMG 1004/1007 VRB03KT", "TAF FNMA 091100Z 0912/0924 05008KT SCT020 FEW025CB PROB30 TEMPO 0914/0918 7000 -TSRA FEW015 BKN018", "TAF FNME 091100Z 0912/0924 27010KT 9999 SCT022", "TAF FNMO 091100Z 0912/0924 33015KT 9999 SCT025", "TAF FNSA 091100Z 0912/0924 28008KT 9999 SCT023 PROB30 TEMPO 0914/0918 -TSRA BKN018 FEW023CB", "TAF FNSO 091100Z 0912/0924 20005KT 9999 SCT018", "TAF FNUB 091100Z 0912/0924 07008KT 9999 SCT023 PROB30 TEMPO 0914/0918 8000 -TSRA FEW012 BKN018 FEW023CB", "TAF FNUE 091100Z 0912/0924 10008 9999 FEW020 PROB30 TEMPO 0914/0918 7000 -TSRA SCT012 BKN020 FEW023CB", "TAF FOOG 091100Z 0912/1012 08005KT 8000 SCT010 FEW020CB TEMPO 0913/0918 TS BECMG 0918/0920 BKN010 FEW020CB PROB30 TEMPO 0920/0924 4000 TSRA BECMG 1000/1002 SCT010", "TAF FOOL 091100Z 0912/1018 24004KT 9999 SCT010 TEMPO 0915/0922 TS BKN010 FEW020CB TEMPO 0923/1005 4000 TSRA BKN010 FEW020CB OVC024 TEMPO 1013/1018 4000 TSRA BKN010 FEW020CB OVC026", "TAF FQBR 091000Z 0912/1018 10010KT 9999 SCT018 TX33/0913Z TN22/1003Z BECMG 1000/1002 06007KT BECMG 1006/1008 36007KT BECMG 1012/1014 09012KT", "TAF FQCH 091000Z 0912/1012 10010KT CAVOK TX31/0913Z TN16/1003Z BECMG 0918/0920 10005KT BECMG 1000/1002 VRB02KT PROB30 TEMPO 1000/1006 0700 FG BKN001 BECMG 1006/1008 36007KT", "TAF FQIN 091000Z 0912/1012 06014KT 9999 FEW020 TX31/0913Z TN23/1003Z BECMG 1000/1002 36007KT BECMG 1010/1012 36012KT", "TAF FQLC 091000Z 0912/1012 10010KT 9999 SCT018 FEW025CB TX24/0913Z TN13/1003Z TEMPO 0912/0918 4000 -TSRA SCT015 BKN018 FEW020CB BECMG 1000/1002 VRB02KT PROB30 TEMPO 1000/1006 0800 FG BKN001 BECMG 1006/1008 06007KT", "TAF FQMA 091000Z 0912/1018 06010KT 9999 SCT020 TX32/0913Z TN21/1003Z BECMG 1000/1002 36007KT BECMG 1010/1012 33012KT", "TAF FQNC 091000Z 0912/1018 16010KT 9999 SCT020 TX31/0913Z TN24/1003Z PROB30 TEMPO 0912/0918 5000 -TSRA SCT012 BKN018 FEW020CB BECMG 1000/1002 23006KT BECMG 1012/1014 14010KT", "TAF FQNP 091000Z 0912/1012 10008KT 9999 BKN020 TX31/0913Z TN24/1003Z PROB30 TEMPO 0912/0918 5000 -TSRA SCT015 BKN018 FEW020CB BECMG 1000/1002 VRB02KT PROB30 TEMPO 1000/1006 0900 FG BKN001 BECMG 1006/1008 09007KT", "TAF FQPB 091000Z 0912/1012 16010KT 9999 SCT020 TX31/0913Z TN24/1003Z PROB30 TEMPO 0912/0918 5000 -TSRA SCT012 BKN018 FEW020CB BECMG 1000/1002 22006KT BECMG 1010/1012 12010KT", "TAF FQQL 091000Z 0912/1012 10010KT 9999 SCT020 TX33/0913Z TN25/1003Z PROB30 TEMPO 0912/0918 5000 -TSRA SCT015 BKN018 FEW020CB BECMG 0918/0920 10005KT BECMG 1000/1002 06006KT BECMG 1006/1008 36007KT", "TAF FQTT 091000Z 0912/1012 14010KT 9999 BKN020 //END PART 01//", "TAF FQVL 091000Z 0912/1012 06012KT 9999 SCT020 TX30/0913Z TN21/1003Z", "TAF FQXA 091000Z 0912/1012 36010KT 9999 SCT020 TX33/0913Z TN22/1003Z BECMG 0918/0920 10008KT BECMG 1000/1002 06010KT", "TAF FSIA 091104Z 0912/1012 35010KT 9999 SCT021 TEMPO 0912/0918 8000 TSRA FEW010 FE", "TAF FTTJ 091100Z 0912/1018 25008KT 7000 FEW040 TEMPO 0915/0920 TS TEMPO 1005/1009 4000 DU", "TAF FVJN 091000Z 0912/1018 VRB05KT CAVOK", "TAF FVRG 091000Z 0912/1018 06012KT CAVOK", "TAF FWCL 090900Z 0912/1018 07008KT 9999 FEW020TCU BKN025 PROB30 TEMPO 0912/0913 8000 -SHRA FEW020CB BKN025 FM091600 08006KT 9999 SCT030 BECMG 1004/1008 03007KT 9999 FEW020 SCT070", "TAF FWKI 090900Z 0912/1018 10011KT 9999 FEW032CB BKN035 BECMG 0916/0918 08006KT 9999 FEW030CB SCT080 BECMG 0921/0923 04006KT 9999 FEW008 SCT090", "TAF FYGF 091100Z 0912/0921 36007KT 9999 -TSRA FEW035CB BECMG 0916/0918 09005KT NSW NSC", "TAF FYKM 091100Z 0912/0921 04007KT 9999 SCT035 BECMG 0916/0918 15005KT NSC", "TAF FYLZ 091100Z 0912/0921 21018G36KT 2000 +SS NSC BECMG 0916/0918 18015KT CAVOK", "TAF FYOA 091100Z 0912/0921 04007KT 9999 -TSRA FEW045CB BECMG 0916/0918 31005KT NSW NSC", "TAF FYWE 091100Z 0912/0921 32012KT 9999 SCT045 BECMG 0916/0918 24006KT NSC", "TAF FYWH 091000Z 0912/1012 31013KT 9999 FEW045TCU PROB30 TEMPO 0913/0919 -TSRA FEW040CB BECMG 0919/0921 24005KT NSC", "TAF FZQA 081700Z 0818/0924 07005KT CAVOK BECMG 0906/0908 14010KT BKN020 BECMG 0910/0912 BKN022 FEW030CB BECMG 0915/0917 VRB03KT CAVOK", "TAF GABS 091100Z 0912/1018 18006KT 9999 FEW030 TEMPO 0915/0921 VRB20G35KT 4000 TSRA DRDU SCT030 FEW040CB", "TAF GAGO 091100Z 0912/1012 36010G20KT 8000 NSC TEMPO 0912/0918 4000 DU TEMPO 1008/1012 4000 DU", "TAF GBYD 091100Z 0912/1018 34010KT CAVOK", "TAF GCFV 090800Z 0909/1009 02008KT 9999 FEW030 TX23/0914Z TN20/1006Z TEMPO 0911/0917 08012KT", "TAF GCGM 090800Z 0909/1009 24005KT 9999 SCT030 TX22/0914Z TN18/1006Z PROB30 TEMPO 0914/0922 VRB10KT TEMPO 1000/1009 VRB20G30KT", "TAF GCHI 090800Z 0909/1009 04012KT 9999 SCT035 TX23/0914Z TN20/1006Z PROB30 TEMPO 0921/1009 01017G27KT", "TAF GCLA 090800Z 0909/1009 33005KT 9999 BKN035 TX22/0914Z TN19/1006Z BECMG 0910/0912 03010KT BECMG 0918/0920 33009KT", "TAF GCLP 090800Z 0909/1009 02014KT 9999 SCT035 TX25/0914Z TN18/1006Z TEMPO 0916/1008 01018G28KT", "TAF AMD GCRR 091257Z 0912/1009 07014KT 9999 SCT030 TX23/0914Z TN20/1006Z TEMPO 0912/1001 36016KT PROB40 TEMPO 0917/0921 36018G28KT", "TAF GCTS 090800Z 0909/1009 07014KT 9999 SCT030 TX23/0914Z TN19/1006Z TEMPO 0918/1005 VRB05KT PROB40 TEMPO 1005/1009 07022G32KT", "TAF AMD GCXO 091312Z 0913/1009 02005KT 9999 SCT020 TX20/0914Z TN14/1006Z PROB40 TEMPO 0913/0916 09010KT BECMG 0917/0919 31010KT PROB30 TEMPO 0920/1008 2000 BCFG BKN010", "TAF GECE 090800Z 0909/1009 11006KT 9999 FEW025 TX23/0913Z TN17/1006Z", "TAF GEML 091100Z 0912/1012 08005KT 9999 FEW015 TX21/0912Z TN13/1006Z", "TAF GFLL 091047Z 0912/1018 24008KT 9999 SCT011 BECMG 0914/0916 27010KT FEW014 TEMPO 0917/0921 24008KT FEW012 PROB30 TEMPO 0922/1002 21006KT 9999 BKN010 FEW027CB", "TAF GGOV 091100Z 0912/1012 VRB06KT 8000 NSC", "TAF GLRB 091100Z 0912/1012 25010KT 9999 SCT018 BECMG 0916/0918 19012KT SCT015 FEW024CB TEMPO 0920/1000 02005KT 9999 TS BKN012 FEW023CB", "TAF GMAD 091100Z 0912/1018 26012KT 6000 NSC BECMG 1002/1004 06008KT", "TAF GMAG 091100Z 0912/1018 10018KT CAVOK PROB30 TEMPO 0912/0916 10018G30KT PROB30 TEMPO 0916/0922 5000 -TSRA FEW030TCU BECMG 0920/0922 02012KT", "TAF GMFF 091100Z 0912/1018 06010KT 9999 SCT030 BECMG 0912/0914 SCT030 FEW040CB PROB30 TEMPO 0915/0922 02012G30KT TSRA BECMG 0922/0924 20008KT", "TAF GMFK 091100Z 0912/1018 16007KT CAVOK", "TAF GMFM 091100Z 0912/1018 05010KT CAVOK PROB30 TEMPO 0916/0920 16016G30KT 6000 -TS SCT020 FEW026CB", "TAF GMFO 091100Z 0912/1018 01004KT CAVOK TEMPO 0914/0918 35014KT", "TAF GMME 091100Z 0912/1018 04010KT 5000 NSC TEMPO 0912/0920 32014G26KT BECMG 0921/0924 28008KT SCT020 BKN100 TEMPO 1000/1006 22004KT 3000 BR BKN010", "TAF GMMH 091100Z 0912/1018 03016KT 8000 NSC BECMG 1000/1002 OVC006 BECMG 1010/1012 SCT010", "TAF GMMI 091100Z 0912/1018 26015KT 6000 NSC", "TAF GMML 091100Z 0912/1018 03016KT 8000 NSC PROB30 TEMPO 0918/1010 5000 -TSRA FEW030CB BKN100", "TAF GMMN 091100Z 0912/1018 02012KT CAVOK BECMG 0921/0924 09006KT BECMG 1012/1015 36014KT", "TAF GMMW 091100Z 0912/1018 02006KT CAVOK BECMG 0920/0922 22003KT", "TAF GMMX 091100Z 0912/1018 08007KT 7000 SCT090 PROB30 TEMPO 0915/0920 34016G26KT 4000 TSRA SCT026 FEW030CB", "TAF GMMZ 091100Z 0912/1018 10010KT 6000 NSC", "TAF GMTA 091100Z 0912/1018 34006KT CAVOK PROB30 TEMPO 0918/1000 BKN013 BECMG 0922/1000 23003KT", "TAF GMTT 091100Z 0912/1018 06009KT CAVOK PROB30 TEMPO 1001/1009 4000 BR BKN003", "TAF GOBD 091100Z 0912/1018 36017KT CAVOK", "TAF GOGS 091100Z 0912/1012 34010KT CAVOK", "TAF GOOY 091100Z 0912/1018 36016KT CAVOK", "TAF GOSS 091100Z 0912/1012 35010KT CAVOK", "TAF GQNO 091100Z 0912/1018 34012KT 8000 NSC TEMPO 0915/0918 4000 BLSA", "TAF GQPP 091100Z 0912/1012 35015KT 8000 NSC TEMPO 1005/1008 BKN006", "TAF GUCY 091100Z 0912/1018 27006KT 9999 FEW015 SCT110 TEMPO 0914/0918 22012KT CAVOK", "TAF GVAC 091100Z 0912/1018 04018KT 9999 SCT013", "TAF GVBA 091100Z 0912/1018 03018KT 9999 SCT014", "TAF GVNP 091100Z 0912/1018 03020KT 9999 FEW016", "TAF GVSV 091100Z 0912/1018 05020KT 9999 FEW022 TEMPO 0915/0921 05020G30KT", "TAF HAAB 082130Z 0900/1006 14007KT 9999 SCT030 SCT090", "TAF HADR 082130Z 0900/1006 32007KT 9999 SCT030 SCT090", "TAF HBBA 091100Z 0912/1018 18010KT FEW030 SCT060 BKN060 PROB40 TEMPO0912/0918 09012G25KT FEW030CB BKN090 BECMG1002/1004 36003KT FEW025 BECMG1007/1009 18010KT", "TAF HCMM 091100Z 0912/1018 09010KT 9999 SCT024 BECMG 1000/1003 BKN020", "TAF HDAM 090500Z 0906/1006 08010G15KT 9999 SCT023 SCT030 BECMG 0915/0921 VRB05KT FEW020 FEW030CB BECMG 1000/1006 12010KT 9000 HZ SCT020", "TAF HEAL 091100Z 0912/1018 32013KT 9999 SCT020 SCT0200 TEMPO 0912/0918 8000 -RA BKN020", "TAF HEAR 091100Z 0912/1018 27012KT 9999 SCT025", "TAF HEAT 091100Z 0912/1018 20012KT 6000 NSC", "TAF HEAX 091100Z 0912/1018 14011KT 9999 SCT020 BECMG 0913/0915 33012KT TEMPO 0913/0920 8000 -RA BKN020 PROB30 TEMPO 0913/0918 6000 TSRA FEW017CB", "TAF HEBA 091100Z 0912/1018 15013KT 6000 NSC TEMPO 0912/0915 3000 SA BECMG 0914/0916 32014KT 9999 SCT020 TEMPO 0915/0920 8000 -RA BKN020 PROB30 TEMPO 0915/0918 6000 TSRA FEW017CB", "TAF HEBL 091100Z 0912/1018 35010KT CAVOK", "TAF HECA 091100Z 0912/1018 02010KT 9999 SCT025 TEMPO 1000/1006 VRB03KT 4000 BR NSC", "TAF HEGN 091100Z 0912/1018 11014KT CAVOK", "TAF HELX 091100Z 0912/1018 30010KT 8000 NSC", "TAF HEMA 091100Z 0912/1018 12014KT CAVOK", "TAF HEMM 091100Z 0912/1018 32013KT 9999 SCT020 SCT0200 TEMPO 0912/0918 8000 -RA BKN020", "TAF HEOW 091100Z 0912/1018 32015KT 8000 NSC", "TAF HEPS 091100Z 0912/1018 32012KT 9999 SCT025 TEMPO 0912/0918 8000 RA BKN020", "TAF HESC 091100Z 0912/1018 17012KT CAVOK", "TAF HESG 091100Z 0912/1018 20012KT 6000 NSC", "TAF HESH 091100Z 0912/1018 16014KT CAVOK", "TAF HESN 091100Z 0912/1018 35010KT CAVOK", "TAF HETB 091100Z 0912/1018 18015KT CAVOK", "TAF HETR 091100Z 0912/1018 15012G22KT 6000 NSC TEMPO 0912/0916 4000 SA", "TAF HKEL 091100Z 0912/1018 13015KT 9999 FEW022 BECMG 0917/0921 CAVOK BECMG 1008/1011 9999 FEW020 TEMPO 1014/1017 FEW024CB SCT025", "TAF HKJK 091100Z 0912/1018 06010KT 9999 -SHRA FEW022CB BKN080 BECMG 0918/0922 NSW BKN021 BECMG 1000/1004 -RA SCT007 BKN017 OVC080 B ECMG 1008/1011 NSW SCT024 BKN080 TEMPO 1014/1017 -SHRA FEW022CB SCT02 4 BKN080", "TAF HKKI 091100Z 0912/1018 24010KT 9999 FEW028 BECMG 1000/1004 05005KT FEW018 BECMG 1008/1011 24010KT SCT026 BECMG 1014/1017 FEW022CB", "TAF HKML 091100Z 0912/1012 15010KT 9999 SCT025 BECMG 1000/1003 00000KT FEW019CB SCT020", "TAF HKMO 091100Z 0912/1018 13010KT 9999 SCT027 TEMPO 1000/1003 -SHRA 21005KT FEW020CB BKN021 BECMG 1013/1016 SCT026", "TAF HKNW 091100Z 0912/1012 06010KT 9999 -SHRA FEW022CB BKN080 BECMG 0918/0922 NSW BKN021 BECMG 1000/1004 -RA SCT007 BKN017 OVC080 BECMG 1008/1011 NSW SCT024 BKN080", "TAF HLGD 091100Z 0912/1012 33012KT 8000 SCT025 BECMG 0918/0920 VRB02KT BECMG1009/1011 33014KT", "TAF HLGT 091100Z 0912/1012 36010KT 3000 HZ BECMG 0918/0920 VRB02KT6000 NSW", "TAF HLKF 091100Z 0912/1012 30010KT CAVOK BECMG 0921/0923 36014KT", "TAF HLLB 091100Z 0912/1012 33014KT 8000 BKN020", "TAF HLLM 091100Z 0912/1012 33010KT 8000 SCT025 BECMG1000/1002 VRB02KT ", "TAF HLLQ 091100Z 0912/1012 VRB02KT 8000 SCT020 BECMG 1003/1005 27010KT", "TAF HLLS 090500Z 0906/1006 35014KT 6000 FEW035 BKN080", "TAF HLMS 091100Z 0912/1012 33010KT 8000 SCT025 BECMG 0921/0923 VRB02KT BECMG 1006/1008 33012KT", "TAF HLON 091100Z 0912/1012 36010KT 8000 NSC BECMG 1000/1002 VRB02KT", "TAF HLTD 091100Z 0912/1012 36010KT 8000 NSC BECMG 1000/1002 VRB02KT", "TAF HLTQ 091100Z 0912/1012 03010KT 8000 SCT025 BECMG 0921/0923 VRB02KT", "TAF HLUB 091100Z 0912/1012 36012KT 8000 NSC BECMG 1000/1002 06012KT", "TAF HRYR 091100Z 0912/1018 16006KT 9999 SCT025 TEMPO 0913/0917 09012KT TS FEW023CB SCT025 BECMG 0918/0921 34004KT NSW FEW026 BECMG 1003/1006 00000KT 3000 BR FEW008 SCT024 BECMG 1009/1012 15010KT 9999 FEW023CB BKN025", "TAF HRZA 091100Z 0912/1018 25004KT 9999 FEW023CB BKN025 TEMPO 0913/0917 18010KT -TSRA BECMG 0920/0922 00000KT BKN025 TEMPO 1001/1003 19004KT 9000 -RA BECMG 1006/1008 07004KT 9999 SCT025 BKN100 BECMG 1011/1015 16008KT -TSRA FEW023CB BKN025", "TAF HSKA 091100Z 0912/1018 VRB03KT CAVOK", "TAF HSOB 091100Z 0912/1018 35007G17KT CAVOK", "TAF HSPN 091100Z 0912/1018 03010G20KT CAVOK BECMG 0921/0923 32008KT", "TAF HSSJ 090400Z 0906/1012 18006KT 9999 FEW040 SCT030 TEMPO 0909/0915 VRB04KT 9999 SCT040 BKN120 PROB030 TEMPO 0912/0918 VRB05G15KT 7000 -SHRA FEW045CB BKN120", "TAF HSSK 091100Z 0912/1018 35007G17KT CAVOK", "TAF HTAR 091100Z 0912/1012 12010KT 9999 BKN028 FEW032CB PROB30 TEMPO 0912/1914 TSSHRA BECMG 0915/0918 00000KT SCT028 FEW030CB", "TAF HTBU 091100Z 0912/1012 12010KT 9999 FEW023 FEW025CB TEMPO 1005/1009 -TSRA SCT020 FEW022CB BECMG 1010/1011 NSW FEW022 FEW024CB", "TAF COR HTDA 091100Z 0912/1018 16005KT 9999 BKN016 FEW017CB TEMPO 0922/1004 5000 TSRA BECMG 1011/1014 9999 NSW", "TAF HTDO 091100Z 0912/1012 09005KT 9999 SCT031 FEW033CB", "TAF HTKA 091100Z 0912/1012 27008KT 9999 SCT024 FEW025CB BECMG 0915/0919 0000KT PROB30 TEMPO 1003/1007 21008KT -TSRA SCT018 FEW019CB BKN090", "TAF HTKJ 091100Z 0912/1012 09010KT 9999 SCT035 BECMG 1008/1012 FEW034CB BKN035", "TAF HTMW 091100Z 0912/1012 32010KT 9999 FEW027 FEW028CB BECMG 1002/1004 12010KT", "TAF HTTB 091100Z 0912/1012 10010KT 9999 FEW025", "TAF HTZA 091100Z 0912/1012 13015KT 9999 SCT020 FEW022CB BECMG 0919/0921 13005KT BECMG 1002/1004 22010KT BKN014 FEW016CB", "TAF HUEN 091100Z 0912/1018 17009KT 9999 FEW023 FEW025CB BECMG 0923/1003 29007KT TEMPO 1006/1008 9000 TSRA SCT020 FEW022CB", "TAF HUSO 091050Z 0912/1012 07008KT 9999 SCT021 FEW023CB FM 091700 18004KT FEW020 BECMG 1009/1012 09006KT BKN021 FEW023CB", "KABE 091120Z 0912/1012 05006KT P6SM SKC FM100200 00000KT P6SM SKC", "KABI 091139Z 0912/1012 16006KT P6SM BKN005 TEMPO 0912/0914 4SM BR SCT005 FM091400 15008KT P6SM SCT020 FM100200 10009KT P6SM VCTS BKN050CB FM100600 15009KT P6SM VCTS BKN020CB FM101000 VRB06KT P6SM VCTS BKN009CB", "KABQ 091128Z 0912/1012 35007KT P6SM SCT250 FM091900 32010KT P6SM SCT200 FM100200 02010KT P6SM SKC", "KABR 091120Z 0912/1012 17006KT P6SM OVC200 FM100200 VRB03KT P6SM BKN015 FM100500 VRB04KT 1SM BR BKN015 FM101000 VRB04KT P6SM BKN045", "KABY 091120Z 0912/1012 04013G20KT P6SM OVC010 FM091600 05014G22KT P6SM OVC020 FM100300 06010KT P6SM OVC040 WS010/06045KT", "KACK 091120Z 0912/1012 04009KT P6SM FEW250 FM091900 07009KT P6SM SKC FM092200 10007KT P6SM SKC FM100000 16006KT P6SM SKC FM100500 26009KT P6SM SKC", "KACT 091120Z 0912/1012 VRB04KT P6SM BKN035 FM091300 VRB04KT P6SM BKN025 FM092000 13006KT P6SM SCT035", "KACV 091120Z 0912/1012 VRB05KT P6SM BKN100 OVC200 FM091900 28010KT P6SM BKN060 OVC200 FM100300 VRB03KT P6SM FEW015 OVC050", "KACY 091120Z 0912/1012 07007KT P6SM SKC FM091900 11010KT P6SM SKC FM100100 VRB03KT P6SM SKC", "KADF 091323Z 0913/1012 03004KT P6SM OVC009 FM091500 10005KT P6SM OVC015 FM091800 10008KT P6SM OVC035 FM100000 09004KT P6SM SCT035 OVC060", "TAF KADW 090900Z 0909/1015 VRB06KT 9999 SKC QNH3040INS TX15/0920Z TN03/1011Z", "KAEG 091128Z 0912/1012 34006KT P6SM SCT250 FM091900 32010KT P6SM SCT200 FM100400 01010KT P6SM SKC", "KAEX 091120Z 0912/1012 04007KT P6SM OVC020 TEMPO 0912/0914 OVC008 FM092000 04008KT P6SM BKN030", "KAFW 091120Z 0912/1012 11005KT P6SM BKN035 FM091700 13006KT P6SM SCT040", "KAGC 091120Z 0912/1012 01005KT P6SM SKC FM100900 VRB03KT P6SM SKC", "KAGS 091139Z 0912/1012 02012G16KT P6SM BKN010 FM091400 05010G18KT P6SM BKN015 FM091800 05012G20KT P6SM SCT035 FM100000 04006KT P6SM SKC", "KAHN 091121Z 0912/1012 05012G22KT P6SM SCT025 BKN050 FM091400 06014G24KT P6SM SCT035 SCT050 FM091800 06014G24KT P6SM FEW250 FM092300 05011KT P6SM SKC", "KAIA 091120Z 0912/1012 30010KT P6SM SKC FM091800 34010G20KT P6SM SKC FM100100 27006KT P6SM SKC", "KALB 091120Z 0912/1012 33005KT P6SM FEW090 FM091600 32007KT P6SM SKC FM092300 VRB03KT P6SM SKC FM100200 00000KT P6SM SKC", "KALI 091255Z 0913/1012 03008KT P6SM OVC008 TEMPO 0913/0916 4SM BR OVC005 FM092100 10008KT P6SM SCT025 BKN035 TEMPO 1001/1004 BKN025 FM100400 VRB04KT P6SM BKN020", "KALO 091123Z 0912/1012 16010KT P6SM SCT250 FM091500 18013G19KT P6SM BKN250 FM100100 17009KT P6SM BKN240", "KALS 091120Z 0912/1012 32005KT P6SM FEW250 FM092100 32009KT P6SM SCT200 FM100200 01008KT P6SM FEW250 FM100700 VRB05KT P6SM SKC", "KALW 091120Z 0912/1012 13004KT P6SM OVC150 FM092300 16009KT P6SM OVC050 FM100100 12011KT 6SM -RA BR OVC050 FM100600 17006KT P6SM -RA OVC050", "KAMA 091232Z 0913/1012 21011KT P6SM VCSH SCT100 TEMPO 0913/0915 6SM -TSRA BKN080CB FM091500 20008KT P6SM SCT150 FM092300 17009KT P6SM SCT200 FM100700 VRB06KT P6SM FEW200", "KANB 091409Z 0914/1012 07008KT P6SM FEW040 FM100000 06004KT P6SM SKC FM100600 07007KT P6SM SKC", "KAND 091120Z 0912/1012 06011G20KT P6SM FEW070 FM091400 06016G26KT P6SM SKC FM092200 06011G18KT P6SM SKC FM100100 05008KT P6SM FEW250", "KAOO 091120Z 0912/1012 VRB03KT P6SM SKC", "KAPA 091120Z 0912/1012 VRB05KT P6SM SCT200 FM092000 02009KT P6SM FEW120 SCT200 FM100300 VRB06KT P6SM FEW220", "KAPC 091130Z 0912/1012 03003KT P6SM SKC FM092200 21009KT P6SM SCT250 FM100300 26005KT P6SM SKC FM101100 30003KT P6SM SCT015", "KAPF 091131Z 0912/1012 VRB04KT P6SM SCT040 BKN070 FM091500 30010KT P6SM SCT030 BKN050 FM091900 32015G25KT P6SM VCTS BKN025CB BKN050 FM100300 02008KT P6SM VCSH BKN030 BKN060", "KAPN 091356Z 0914/1012 15008KT 5SM BR BKN003 FM091600 15010G18KT P6SM SCT200", "KARA 091120Z 0912/1012 03008KT 5SM BR OVC006 FM091500 05008KT P6SM BKN015 FM092000 04009KT P6SM BKN025", "KART 091120Z 0912/1012 VRB03KT P6SM SKC FM091600 25010KT P6SM SKC FM100000 21004KT P6SM SKC", "KASD 091328Z 0913/1012 05010KT P6SM BKN010 OVC030 FM091400 05012KT P6SM BKN015 FM091600 05012KT P6SM BKN035 FM100000 04007KT P6SM SCT030 FM100300 06006KT P6SM BKN020", "KASE 091120Z 0912/1012 VRB04KT P6SM FEW080 SCT200 FM091800 35008KT P6SM FEW080 FM100200 20006KT P6SM SKC", "KASN 091131Z 0912/1012 07005KT P6SM BKN035 FM091400 07009KT P6SM BKN050 FM100000 VRB03KT P6SM SKC", "KAST 091130Z 0912/1012 16010KT 5SM -RA BR OVC018 FM091500 16013G21KT 3SM RA BR SCT007 OVC015 FM092000 19020G28KT 2SM RA BR OVC006 FM100200 25009KT 5SM RA BR BKN006 OVC015 FM100800 32006KT P6SM -SHRA SCT007 BKN015 OVC025", "KATL 091335Z 0914/1018 06012G22KT P6SM SCT020 BKN040 TEMPO 0914/0915 BKN020 FM091500 07015G25KT P6SM FEW025 SCT050 FM091800 07013G23KT P6SM FEW060 SCT250 FM100000 07011KT P6SM SKC FM101500 08013G23KT P6SM SCT250", "KATW 091133Z 0912/1012 VRB03KT P6SM SCT250 FM091400 20010G18KT P6SM BKN200 FM100100 20009KT P6SM BKN200 FM100400 21009KT P6SM BKN150 WS014/23035KT", "KATY 091120Z 0912/1012 18007KT P6SM OVC120", "KAUG 091120Z 0912/1012 30004KT P6SM SKC FM091400 32009KT P6SM SKC", "KAUS 091352Z 0914/1018 00000KT 4SM BR FEW005 BKN015 OVC030 FM091800 01007KT P6SM OVC025 FM092100 12006KT P6SM OVC035 FM100900 10003KT P6SM BKN015 FM101500 03003KT P6SM VCSH OVC007 TEMPO 1015/1018 4SM -RA BR OVC007", "KAUW 091133Z 0912/1012 16006KT P6SM BKN250 WS017/22030KT FM091500 20011G18KT P6SM BKN200 FM100000 20008KT P6SM BKN150 FM100400 20007KT P6SM BKN120 WS017/23040KT", "KAVL 091120Z 0912/1012 34005KT P6SM SCT035 FM091500 05010G17KT P6SM SKC FM092100 08008KT P6SM SKC FM100100 VRB03KT P6SM SKC", "KAVP 091120Z 0912/1012 10005KT P6SM SKC FM091400 35005KT P6SM SKC FM100200 00000KT P6SM SKC", "KAXN 091120Z 0912/1012 21011KT P6SM BKN120 FM092000 25008KT P6SM SCT110 FM100500 26006KT 5SM BR SCT015", "KAZO 091125Z 0912/1012 18007KT P6SM SKC", "TAF AMD KBAB 090355Z 0903/1009 VRB06KT 9999 FEW100 QNH3008INS BECMG 0917/0918 32009KT 9999 SKC QNH2996INS WND VRB06KT AFT 1000 TX15/0903Z TN07/0914Z LAST NO AMDS AFT 0903 NEXT 1013", "TAF KBAD 091200Z 0912/1018 35003KT 9999 OVC015 QNH3020INS TEMPO 0912/0914 OVC009 BECMG 0915/0916 06007KT 9999 BKN030 QNH3022INS BECMG 0916/0917 08007KT 9999 SCT150 QNH3017INS BECMG 1006/1007 03007KT 9999 BKN100 QNH3015INS TX22/0920Z TN11/1012Z", "KBAF 091120Z 0912/1012 36005KT P6SM SKC FM100100 28004KT P6SM SKC FM100200 00000KT P6SM SKC", "KBAM 091120Z 0912/1012 VRB06KT P6SM SKC", "KBBD 091139Z 0912/1012 17006KT 1/2SM FG OVC002 TEMPO 0912/0914 1/4SM FG OVC002 FM091500 VRB05KT 5SM BR BKN005 FM091700 VRB05KT P6SM BKN012 FM091800 11009KT P6SM SCT100 FM100400 11006KT P6SM VCTS BKN012CB FM100600 11006KT P6SM VCTS BKN008CB", "KBBG 091309Z 0913/1012 VRB04KT P6SM BKN018 FM091600 14008KT P6SM SCT040 FM091800 13007KT P6SM BKN050 FM100100 VRB04KT P6SM BKN250", "KBCB 091120Z 0912/1012 VRB04KT P6SM SKC FM091500 07007KT P6SM SKC", "KBCE 091120Z 0912/1012 29006KT P6SM SCT150 FM091700 VRB05KT P6SM SKC FM092300 28006KT P6SM SKC", "KBDL 091120Z 0912/1018 36005KT P6SM FEW110 FEW250 FM092300 05005KT P6SM SKC FM100000 17005KT P6SM SKC FM100300 00000KT P6SM SKC FM101400 25003KT P6SM SKC", "KBDN 091120Z 0912/1012 17006KT P6SM BKN110 FM092200 17009KT P6SM OVC050 FM100000 16006KT 4SM BR OVC050 FM100400 16004KT 6SM -RA BR OVC050", "KBDR 091120Z 0912/1012 04007KT P6SM FEW250 FM091400 09010KT P6SM FEW250 FM091700 14011KT P6SM FEW250 FM091900 17008KT P6SM FEW250 FM100200 VRB03KT P6SM FEW250", "KBED 091120Z 0912/1012 00000KT P6SM SKC FM091500 34007KT P6SM SKC FM092300 09005KT P6SM SKC FM100000 14004KT P6SM SKC FM100200 21003KT P6SM SKC FM100600 25004KT P6SM SKC", "KBFD 091120Z 0912/1012 VRB03KT P6SM SKC", "KBFF 091120Z 0912/1012 30008KT P6SM SKC FM091700 32010G20KT P6SM SKC FM100100 33005KT P6SM SKC", "KBFI 091136Z 0912/1012 15008KT P6SM -RA OVC050 FM091900 17012G22KT 5SM -RA BR OVC025 FM092200 17018G28KT 4SM -RA OVC016 FM100600 19010KT 4SM -RA OVC016 FM100900 VRB03KT 3SM -RA OVC010", "KBFL 091120Z 0912/1012 VRB05KT P6SM SCT200", "KBFM 091120Z 0912/1012 01013KT P6SM OVC008 FM091500 03012KT P6SM BKN015 FM100500 06011KT P6SM BKN025", "KBGM 091120Z 0912/1012 03004KT P6SM SKC FM091300 02005KT P6SM SKC FM100200 00000KT P6SM SKC", "KBGR 091120Z 0912/1012 29007KT P6SM SKC FM091800 31009KT P6SM FEW090 FM100400 24004KT P6SM FEW100", "KBHB 091120Z 0912/1012 30004KT P6SM SKC FM091400 30007KT P6SM SKC FM092300 26005KT P6SM SKC", "KBHM 091157Z 0912/1012 07005KT P6SM SCT016 FM091400 08011G20KT P6SM SCT035 FM091800 07008KT P6SM SCT060 FM100000 07004KT P6SM SKC", "TAF KBIF 090600Z 0906/1012 VRB06KT 9999 FEW200 QNH3005INS TX27/0922Z TN06/0913Z", "KBIH 091120Z 0912/1012 32007KT P6SM SCT200 FM091800 17008KT P6SM FEW200 FM100400 33006KT P6SM SCT200", "KBIL 091120Z 0912/1012 23007KT P6SM SCT160 BKN240", "KBIS 091120Z 0912/1012 VRB05KT 6SM BR SCT090 FM091500 26008KT P6SM SCT200", "KBJC 091120Z 0912/1012 27006KT P6SM SCT080 FM091300 VRB05KT P6SM SCT220 FM091800 07009KT P6SM SCT100 BKN200 FM100100 34008KT P6SM SCT220 FM100400 27006KT P6SM SKC", "KBJI 091120Z 0912/1012 VRB03KT P6SM FEW200 FM091500 22008KT P6SM SCT200 FM100800 VRB05KT P6SM FEW250", "KBKE 091121Z 0912/1012 VRB04KT P6SM BKN120 FM091600 10006KT P6SM BKN100 FM092100 10015KT P6SM BKN100 FM100200 VRB04KT P6SM OVC100", "TAF KBKF 090900Z 0909/1015 VRB06KT 9999 SKC 510013 QNH3018INS TX17/0923Z TN02/0913Z", "KBKW 091120Z 0912/1012 10004KT P6SM SKC FM091500 08007KT P6SM SKC FM092200 03005KT P6SM FEW250 FM100600 14005KT P6SM SKC", "KBLF 091120Z 0912/1012 VRB04KT P6SM SKC FM091500 08007KT P6SM SKC", "KBLH 091120Z 0912/1012 VRB05KT P6SM SKC", "KBLI 091136Z 0912/1012 15020G34KT P6SM -RA OVC050 FM092000 15020G34KT 5SM -RA BR OVC025 FM100300 20008KT P6SM -RA SCT020 OVC035 FM100600 VRB03KT P6SM SCT030 BKN050", "TAF KBLV 090800Z 0908/1014 VRB06KT 9999 SKC QNH3030INS BECMG 0915/0916 12010G15KT 9999 SKC QNH3030INS BECMG 0921/0922 11006KT 9999 SKC QNH3030INS TX21/0922Z TN04/0912Z", "KBMG 091125Z 0912/1012 00000KT P6SM SKC FM091400 10008KT P6SM SKC FM100000 09002KT P6SM FEW250", "KBMI 091120Z 0912/1012 14008KT P6SM FEW250 FM091500 16013KT P6SM SCT250 FM100100 15008KT P6SM SCT250", "KBNA 091132Z 0912/1012 01005KT P6SM SCT035 SCT150 FM091700 07009G18KT P6SM SKC FM100300 05005KT P6SM SKC", "KBNO 091121Z 0912/1012 VRB04KT P6SM BKN120 FM091800 11006KT P6SM BKN100 FM092300 26011KT P6SM BKN100 FM100300 VRB05KT P6SM BKN100", "KBOI 091121Z 0912/1012 14008KT P6SM SCT100 FM100600 13012KT P6SM SCT200", "KBOS 091120Z 0912/1018 36005KT P6SM FEW250 FM091600 09005KT P6SM SKC FM091700 12007KT P6SM SKC FM100200 22007KT P6SM SKC FM100900 26005KT P6SM SKC", "KBPI 091121Z 0912/1012 29006KT P6SM SCT050 BKN120 FM091800 27010KT P6SM SCT250", "KBPK 091120Z 0912/1012 11005KT P6SM SCT010 BKN025 FM091400 13007KT P6SM OVC015 FM091800 12009KT P6SM SCT025 OVC040 FM100000 11003KT P6SM BKN100", "KBPT 091120Z 0912/1012 04007KT P6SM OVC015 FM091800 04009KT P6SM BKN025", "KBRD 091126Z 0912/1012 19011KT P6SM BKN110 WS020/22040KT TEMPO 0912/0914 20012G23KT FM091500 21009KT P6SM BKN110 FM100000 20007KT 6SM BR BKN017 FM100500 23005KT 2SM BR SCT003", "KBRL 091120Z 0912/1012 17006KT P6SM SKC FM091600 17012G20KT P6SM SKC", "KBRO 091129Z 0912/1012 35005KT P6SM OVC060 FM091500 04008KT P6SM BKN035 FM100300 06009KT P6SM BKN030 FM101000 05006KT P6SM BKN021", "KBTL 091125Z 0912/1012 18007KT P6SM SKC", "KBTM 091120Z 0912/1012 20005KT P6SM SKC FM091800 20010G15KT P6SM SCT100 FM100300 17008KT P6SM BKN100", "KBTR 091120Z 0912/1012 04009KT P6SM BKN008 OVC015 FM091400 06012KT P6SM BKN015 BKN090 FM091800 05011KT P6SM BKN035 FM100300 07005KT P6SM BKN025", "KBTV 091120Z 0912/1012 32005KT P6SM FEW170 FM101100 16005KT P6SM FEW180", "KBUF 091120Z 0912/1012 VRB04KT P6SM SKC FM091900 24007KT P6SM SKC FM100000 VRB04KT P6SM SKC", "KBUR 091342Z 0914/1012 10004KT 1/4SM FG OVC002 FM091500 VRB03KT 3SM BR BKN005 FM091600 VRB03KT P6SM SKC FM092000 16008KT P6SM SCT200 FM100500 VRB03KT P6SM SCT200", "KBVI 091120Z 0912/1012 02005KT P6SM SKC FM100900 VRB02KT P6SM SKC", "KBVO 091120Z 0912/1012 15007KT P6SM SCT250", "KBWG 091120Z 0912/1012 05003KT P6SM SKC FM091400 08011G17KT P6SM SKC FM100000 VRB03KT P6SM SKC FM100600 00000KT P6SM SKC", "KBWI 091127Z 0912/1018 00000KT P6SM FEW250 FM091400 07008KT P6SM SKC FM092100 07006KT P6SM SCT070 FM100300 00000KT P6SM SKC FM101400 24005KT P6SM SKC", "KBYI 091127Z 0912/1012 10006KT P6SM FEW200", "KBZN 091120Z 0912/1018 VRB06KT P6SM SCT080 SCT200 FM091900 24012G20KT P6SM SCT250 FM100200 16008KT P6SM SCT250", "KCAE 091139Z 0912/1012 02011KT 6SM BR SCT015 TEMPO 0912/0914 BKN015 FM091400 04014G22KT P6SM SCT020 SCT040 FM091800 03012G22KT P6SM SCT035 FM100000 04004KT P6SM SKC", "KCAK 091120Z 0912/1012 04005KT P6SM SKC", "KCAR 091120Z 0912/1012 30005KT P6SM SCT100 FM091300 30007KT P6SM SCT090 FM100200 26011G20KT P6SM FEW100 WS007/28040KT FM101000 25006KT P6SM FEW100", "KCDC 091120Z 0912/1012 01005KT P6SM SKC FM100000 12006KT P6SM SKC", "KCDR 091120Z 0912/1012 28008KT P6SM SKC FM091800 33008KT P6SM SKC FM100200 24006KT P6SM SKC", "KCDS 091120Z 0912/1012 VRB06KT P6SM BKN250 FM091800 10011KT P6SM VCTS BKN040CB OVC100 FM100000 11011KT P6SM OVC250", "KCEC 091120Z 0912/1012 14009KT P6SM BKN035 OVC100 FM091700 16014G22KT P6SM OVC050 FM092100 16012G22KT P6SM VCSH BKN030 OVC050 FM100000 17008KT 5SM -SHRA FEW007 BKN025 OVC050", "TAF KCEF 081700Z 0817/0923 35009KT 9999 SCT270 QNH3038INS TEMPO 0817/0823 01010G15KT 510005 BECMG 0823/0824 VRB06KT 9999 FEW110 BKN270 QNH3042INS BECMG 0907/0908 VRB06KT 9999 FEW270 QNH3043INS WND 36009KT AFT 0915 TX11/0917Z TNM06/0910Z LAST NO AMDS AFT 0821 NEXT 0917", "KCGI 091120Z 0912/1012 00000KT P6SM FEW250 FM091500 09011G18KT P6SM FEW250 FM100000 11003KT P6SM FEW050 SCT250", "KCHA 091127Z 0912/1012 03006KT P6SM SCT030 SCT070 TEMPO 0912/0914 BKN025 FM091700 05006KT P6SM SCT035 BKN070 FM100000 VRB03KT P6SM SCT150 FM100600 00000KT P6SM BKN250", "KCHO 091127Z 0912/1012 35004KT P6SM SKC FM091400 05007KT P6SM SKC FM092300 08004KT P6SM SKC FM100200 00000KT P6SM SKC", "KCHS 091120Z 0912/1012 01015G23KT 6SM -DZ BKN009 OVC015 FM091500 02018G25KT P6SM BKN007 OVC015 FM091700 03016G23KT P6SM SCT009 OVC015 FM092100 03015G24KT P6SM BKN025 FM092300 03013G18KT P6SM BKN040 FM100300 03011KT P6SM SCT100", "KCID 091120Z 0912/1012 16006KT P6SM SKC FM091600 18012G22KT P6SM SKC", "KCIU 091357Z 0914/1012 13010KT 1SM BR OVC001 FM091600 14011KT P6SM BKN004 FM091800 15010G18KT P6SM SCT120 BKN200", "KCKB 091120Z 0912/1012 00000KT P6SM SKC FM091500 03007KT P6SM SKC FM100400 00000KT P6SM SKC", "KCKV 091132Z 0912/1012 07004KT P6SM SKC FM091700 07008G16KT P6SM SKC FM100300 06005KT P6SM SKC", "KCLE 091120Z 0912/1018 VRB04KT P6SM SKC FM091700 04010KT P6SM SKC FM100100 VRB04KT P6SM SKC FM101600 35010KT P6SM FEW250", "KCLL 091122Z 0912/1012 36004KT P6SM OVC025 FM091600 05005KT P6SM BKN022 FM092000 08006KT P6SM BKN045 FM100700 VRB04KT P6SM BKN029", "KCLM 091136Z 0912/1012 VRB03KT P6SM VCSH OVC050 FM100100 29006KT P6SM BKN030 OVC050 FM100500 29006KT P6SM SCT030 BKN060", "KCLT 091350Z 0914/1018 03010KT P6SM SKC FM091500 04014G23KT P6SM SKC FM092100 05011G19KT P6SM SKC FM100000 06007KT P6SM SKC", "KCMA 091147Z 0912/1012 VRB03KT 1/4SM FG VV002 FM091500 VRB03KT 2SM BR OVC004 FM091600 24006KT 3SM BR OVC007 FM091800 24010KT P6SM SCT250 FM100300 VRB03KT P6SM SCT250 FM100700 VRB03KT 2SM BR OVC003", "KCMH 091130Z 0912/1012 07003KT P6SM SKC FM091600 06007KT P6SM SKC FM092300 08005KT P6SM SKC", "KCMI 091120Z 0912/1012 10007KT P6SM SCT250 FM091500 15010KT P6SM SCT250 FM100100 13005KT P6SM SCT250", "KCMX 091128Z 0912/1012 14010KT P6SM SCT200 WS015/22035KT FM091600 20012G20KT P6SM BKN200 FM092000 24013G20KT P6SM BKN080 FM100000 25011KT P6SM BKN070 WS020/25045KT", "KCNM 091133Z 0912/1012 15009KT P6SM SCT250 FM091500 11007KT P6SM SCT250", "KCNU 091122Z 0912/1012 13007KT P6SM SCT250 FM091700 15010KT P6SM BKN200 FM100000 14007KT P6SM SCT100 OVC200", "KCNY 091120Z 0912/1012 VRB04KT P6SM SCT200 FM091800 26005KT P6SM SKC FM100200 35004KT P6SM SKC", "KCOD 091121Z 0912/1012 24012G18KT P6SM SCT200 FM100000 24016G24KT P6SM SCT250", "KCOE 091139Z 0912/1012 07006KT P6SM BKN060 OVC100 FM091700 17007KT P6SM OVC050 FM100000 13009KT P6SM -RA OVC035 FM100200 16008KT P6SM -RA OVC027 FM100900 17008KT 5SM -RA BR OVC022", "TAF KCOF 091300Z 0913/1019 36010G15KT 9999 BKN040 QNH2996INS BECMG 1004/1005 03010G15KT 8000 -SHRA BKN030 QNH2999INS BECMG 1011/1012 06010G15KT 9999 NSW BKN030 QNH3002INS TX25/0918Z TN20/1011Z", "KCON 091120Z 0912/1012 00000KT P6SM SKC FM091300 31012KT P6SM SKC FM100100 00000KT P6SM SKC", "KCOS 091120Z 0912/1012 34005KT P6SM FEW250 FM091700 16007KT P6SM FEW250 FM092100 10009KT P6SM SCT150 FM100200 02007KT P6SM FEW250", "KCOT 091255Z 0913/1012 07007KT P6SM OVC008 TEMPO 0913/0916 4SM BR OVC004 FM091600 11006KT P6SM BKN015 FM092000 12006KT P6SM SCT025 BKN040 FM100600 11005KT P6SM OVC015", "KCOU 091120Z 0912/1012 13009KT P6SM SCT250 FM100100 VRB05KT P6SM FEW250", "KCPR 091121Z 0912/1012 24012KT P6SM FEW090 BKN120 FM091500 23014G22KT P6SM SCT120 FM100000 21016G26KT P6SM SCT250", "KCPS 091120Z 0912/1012 VRB03KT P6SM FEW250 FM091500 13010KT P6SM FEW250 FM100100 VRB04KT P6SM FEW250", "KCRE 091120Z 0912/1012 02018G27KT 6SM -RA OVC010 FM091300 02016G24KT P6SM VCSH OVC010 TEMPO 0913/0915 BKN009 FM091700 03016G24KT P6SM BKN015 FM092200 03014G23KT P6SM SCT030", "KCRG 091143Z 0912/1012 36016G26KT 5SM -DZ BR VCSH OVC006 FM091400 03019G32KT 6SM -DZ BR VCSH OVC007 FM092200 02022G35KT P6SM VCSH BKN008 OVC010 FM100200 02017G27KT 6SM -DZ VCSH BKN010 OVC015 FM100900 02019G29KT 4SM -DZ VCSH BKN015 OVC025", "KCRP 091120Z 0912/1012 05008KT P6SM FEW008 BKN020 TEMPO 0912/0914 SCT020 FM091400 06008KT P6SM BKN020 TEMPO 0917/0921 SCT020 BKN035 FM092100 10010KT P6SM SCT025 BKN035 FM100600 06006KT P6SM BKN025", "KCRQ 091120Z 0912/1012 VRB04KT 5SM BR OVC003 TEMPO 0912/0915 1/2SM FG OVC002 FM091800 26007KT P6SM SCT005 FM092000 26010KT P6SM FEW010 FM100200 VRB03KT 3SM BR BKN003 TEMPO 1006/1010 1/2SM FG OVC002", "KCRW 091120Z 0912/1012 00000KT P6SM SKC FM091500 05007KT P6SM SKC FM100400 00000KT P6SM SKC", "KCSG 091121Z 0912/1012 07012G22KT P6SM OVC012 FM091300 06012G22KT P6SM BKN010 FM091500 06012G22KT P6SM BKN020 FM091700 07013G23KT P6SM BKN035 FM092200 07011G21KT P6SM SCT040 SCT250 FM100100 06009KT P6SM FEW250", "KCSM 091120Z 0912/1012 18008KT P6SM SCT250 FM091500 19011KT P6SM VCTS BKN090CB FM092300 16008KT P6SM BKN100 PROB30 0923/1005 6SM -TSRA OVC025CB FM100700 17005KT P6SM BKN050", "KCSV 091248Z 0913/1012 08006KT P6SM SCT001 FM091400 07008KT P6SM SKC FM100300 00000KT P6SM SKC", "KCTB 091120Z 0912/1012 25012G20KT P6SM FEW250 FM091800 22018G28KT P6SM BKN250 FM100700 25028G38KT P6SM SCT250", "KCUB 091139Z 0912/1012 04011KT 6SM BR SCT015 TEMPO 0912/0914 BKN015 FM091400 04011G18KT P6SM SCT020 SCT040 FM091800 03011G20KT P6SM SCT035 FM100000 04004KT P6SM SKC", "KCVG 091130Z 0912/1018 08005KT P6SM SKC FM091600 07010KT P6SM SKC FM100000 08004KT P6SM SCT250 FM101400 11005KT P6SM SCT250", "TAF KCVS 081745Z 0818/0924 20010KT 9999 FEW150 QNH3008INS BECMG 0822/0823 VRB06KT 9999 FEW150 QNH3006INS BECMG 0907/0908 VRB06KT 9999 BKN080 QNH3011INS BECMG 0911/0912 22012KT 8000 -SHRA SCT050 OVC080 QNH3014INS BECMG 0917/0918 22010G20KT 9999 VCTS OVC080CB QNH3016INS TX22/0821Z TN03/0907Z LAST NO AMDS AFT 0822 NEXT 0918", "KCWA 091133Z 0912/1012 13005KT P6SM BKN250 WS017/22030KT FM091500 20011G19KT P6SM BKN200 FM100000 20008KT P6SM BKN150 FM100400 20007KT P6SM BKN120 WS017/23040KT", "KCXO 091122Z 0912/1012 VRB03KT P6SM OVC027 FM091500 04005KT P6SM BKN035 FM091800 07005KT P6SM BKN050 FM100600 VRB03KT P6SM BKN022", "KCXP 091120Z 0912/1012 VRB03KT P6SM FEW250 FM092000 09008KT P6SM FEW090 SCT250 FM100200 VRB03KT P6SM SCT250", "KCYS 091120Z 0912/1012 28010KT P6SM SKC FM091800 31014G25KT P6SM SKC FM100100 28008KT P6SM SKC", "KDAB 091123Z 0912/1012 36014G22KT P6SM VCSH OVC008 FM091500 01022G29KT P6SM VCSH BKN015 FM100200 02018G25KT P6SM VCSH BKN025", "KDAG 091120Z 0912/1012 26009KT P6SM FEW250 FM091800 07008KT P6SM SKC FM100300 VRB06KT P6SM SKC", "KDAL 091120Z 0912/1012 11005KT P6SM BKN035 FM091700 13006KT P6SM SCT040", "KDAN 091120Z 0912/1012 03008KT P6SM FEW250", "KDAY 091130Z 0912/1012 06005KT P6SM SKC FM091500 09008KT P6SM SKC FM100000 10005KT P6SM SCT250", "KDBQ 091120Z 0912/1012 18004KT P6SM SKC FM091600 18012G22KT P6SM SKC", "KDCA 091127Z 0912/1018 06004KT P6SM FEW250 FM091400 08008KT P6SM SKC FM092000 05006KT P6SM FEW070 FM100300 18004KT P6SM SKC FM101300 23005KT P6SM SKC", "KDDC 091256Z 0913/1012 17013KT P6SM VCTS BKN100CB FM091400 19013G20KT P6SM BKN110 FM092000 16008KT P6SM SKC", "KDEC 091120Z 0912/1012 10007KT P6SM SCT250 FM091500 15010KT P6SM SCT250 FM100100 13005KT P6SM SCT250", "KDEN 091120Z 0912/1018 22007KT P6SM SKC FM091600 VRB06KT P6SM SCT120 BKN200 FM092000 02010KT P6SM FEW150 SCT220 FM100400 14008KT P6SM FEW220 FM100600 19007KT P6SM SKC", "KDET 091120Z 0912/1012 09003KT P6SM SKC FM091400 14007KT P6SM SKC FM100800 21003KT P6SM SCT250", "KDFW 091120Z 0912/1018 11005KT P6SM BKN035 FM091700 13006KT P6SM SCT040 FM101000 10006KT P6SM BKN012", "KDHN 091120Z 0912/1012 04012G20KT P6SM OVC009 FM091500 05013G20KT P6SM OVC015 FM092100 06013G20KT P6SM BKN025 FM100600 05011KT P6SM OVC040 WS010/06040KT", "KDHT 091134Z 0912/1012 23007KT P6SM BKN120 FM091500 33009KT P6SM BKN200 FM100200 VRB06KT P6SM FEW250", "KDIJ 091127Z 0912/1012 13004KT P6SM BKN060 FM091900 30006KT P6SM FEW060 FM100200 13004KT P6SM FEW200 AMD LTD TO CLD VIS AND WIND", "KDIK 091120Z 0912/1012 26008KT P6SM SCT250 FM091500 27012KT P6SM FEW200 FM100200 25005KT P6SM SKC", "KDLH 091126Z 0912/1012 13010KT P6SM BKN110 WS020/21045KT TEMPO 0912/0915 18011KT FM091600 21010G15KT P6SM BKN110 FM100400 25009KT 6SM BR BKN045 FM100700 26009KT 5SM BR BKN007", "KDLS 091120Z 0912/1012 VRB02KT P6SM OVC100 FM091800 00000KT P6SM OVC050 FM092000 VRB02KT P6SM -RA OVC050 FM100000 VRB02KT 6SM -RA BR HZ OVC050", "TAF KDMA 091405Z 0914/1020 VRB06KT 9999 FEW250 QNH3008INS BECMG 0919/0920 30009KT 9999 SKC QNH3001INS BECMG 1001/1002 VRB06KT 9999 SKC QNH3002INS BECMG 1006/1007 12009KT 9999 SKC QNH3007INS TX30/0922Z TN11/0914Z", "KDMN 091126Z 0912/1012 27008KT P6SM SKC", "KDNL 091139Z 0912/1012 02011KT P6SM BKN010 FM091400 05012G20KT P6SM BKN015 FM091800 05014G22KT P6SM SCT035 FM100000 04006KT P6SM SKC", "TAF KDOV 090800Z 0908/1014 36006KT 9999 FEW200 QNH3041INS BECMG 0913/0914 04009KT 9999 FEW050 QNH3045INS BECMG 0919/0920 07009KT 9999 SCT040 QNH3045INS BECMG 1003/1004 09006KT 9999 SKC QNH3050INS BECMG 1011/1012 03006KT 9999 SKC QNH3054INS TX13/0920Z TN03/0908Z", "KDPA 091120Z 0912/1012 15003KT P6SM SKC FM091500 18010KT P6SM BKN250 FM100100 16004KT P6SM BKN200", "KDRO 091120Z 0912/1012 VRB04KT P6SM FEW200 FM092000 26010G16KT P6SM SKC FM100000 29008KT P6SM SKC FM100600 VRB04KT P6SM SKC", "KDRT 091130Z 0912/1012 10009KT P6SM BKN008 OVC030 FM091600 13009KT P6SM BKN015 FM092000 13011KT P6SM SCT035 FM100300 12006KT P6SM OVC100 FM101100 10008KT P6SM OVC015", "KDSM 091123Z 0912/1012 15009KT P6SM BKN250 FM091500 18013G18KT P6SM BKN250 FM100100 17009KT P6SM BKN200 FM100900 18006KT P6SM VCSH BKN080", "KDTW 091120Z 0912/1018 07003KT P6SM SKC FM091400 14007KT P6SM SKC FM100800 20003KT P6SM SCT250 FM101700 23007KT P6SM SCT200", "KDUG 091131Z 0912/1012 VRB04KT P6SM BKN250 FM091900 33007KT P6SM SCT250 FM100500 02006KT P6SM SKC", "KDUJ 091120Z 0912/1012 05005KT P6SM SKC FM101000 11002KT P6SM SKC", "KDVL 091120Z 0912/1012 24005KT P6SM FEW250 FM091700 24011KT P6SM FEW200 FM092100 26013KT P6SM FEW200 FM100100 27010KT P6SM FEW150 FM100600 25008KT P6SM FEW200", "KDVT 091120Z 0912/1012 04004KT P6SM FEW250 FM091600 VRB03KT P6SM SKC FM092000 24006KT P6SM SKC FM100300 04004KT P6SM SKC", "TAF KDYS 091300Z 0913/1019 VRB06KT 6000 BR BKN003 QNH3011INS BECMG 0923/0924 12012G18KT 9999 NSW FEW055 BKN080 BKN110 510012 QNH3006INS BECMG 1002/1003 08012KT 8000 -RA BKN016 OVC024 QNH3017INS BECMG 1005/1006 11009KT 6000 RA FEW009 FEW055 BKN085 QNH3020INS BECMG 1008/1009 10009KT 8000 -RA SCT009 BKN017 BKN024 QNH3019INS BECMG 1011/1012 VRB06KT 8000 BR BKN002 OVC009 QNH3023INS BECMG 1014/1015 VRB06KT 9999 NSW OVC017 QNH3027INS TX25/0920Z TN12/0913Z", "KEAR 091120Z 0912/1012 16012KT P6SM VCSH OVC100 FM091500 19016KT P6SM BKN100 FM092300 19010KT P6SM BKN100 FM100200 16006KT P6SM BKN120 FM100900 32005KT P6SM FEW120", "KEAT 091142Z 0912/1012 VRB05KT P6SM BKN070 OVC120 FM091400 VRB03KT P6SM -RA OVC070 FM092200 VRB03KT P6SM -RA OVC060 FM100000 25006KT P6SM -RA OVC050 FM100500 30007KT P6SM -RA OVC040", "KEAU 091120Z 0912/1012 16010KT P6SM SCT210 WS020/21040KT FM091400 18010G20KT P6SM SCT220 FM092100 21010G16KT P6SM BKN170 FM100000 22009KT P6SM BKN080", "KECG 091120Z 0912/1012 04021G31KT P6SM OVC040 FM092000 04021G31KT P6SM FEW200 FM100000 04017G26KT P6SM SKC FM100900 03012KT P6SM SKC", "KECP 091120Z 0912/1012 02013G20KT P6SM OVC010 FM092000 04013G20KT P6SM OVC025 FM100200 05012KT P6SM OVC015 WS010/06040KT", "KEED 091120Z 0912/1012 VRB05KT P6SM FEW250 FM091700 36007KT P6SM SKC FM100300 33008KT P6SM SKC", "KEET 091131Z 0912/1012 07007KT P6SM BKN015 FM091500 08011KT P6SM BKN045 FM100000 VRB03KT P6SM SKC", "TAF AMD KEFD 091332Z 0913/1018 06006KT 9999 OVC014 QNH3010INS BECMG 0920/0921 VRB06KT 9999 SCT027 QNH3010INS TX19/0922Z TN15/1012Z", "KEFK 091120Z 0912/1012 VRB04KT P6SM FEW240", "KEGE 091120Z 0912/1012 VRB04KT P6SM SCT200 FM092100 27008KT P6SM FEW080 FM100200 VRB04KT P6SM SKC", "KEKN 091120Z 0912/1012 00000KT P6SM SKC FM091400 05006KT P6SM SKC FM100200 00000KT P6SM SKC FM100800 00000KT P6SM BCFG FEW001", "KEKO 091120Z 0912/1012 VRB06KT P6SM SCT200", "KEKS 091120Z 0912/1012 17012KT P6SM FEW080 SCT250 FM091900 18017G25KT P6SM SCT250", "KELD 091137Z 0912/1012 07004KT P6SM OVC008 FM091600 07007KT P6SM OVC013 FM091800 06007KT P6SM BKN023 FM092000 05007KT P6SM BKN035 FM100000 05004KT P6SM BKN035", "KELM 091120Z 0912/1012 00000KT P6SM SKC FM091400 03005KT P6SM SKC FM100100 00000KT P6SM SKC", "KELP 091126Z 0912/1012 30008KT P6SM FEW250", "KELY 091120Z 0912/1012 VRB06KT P6SM SKC", "KENV 091120Z 0912/1012 VRB05KT P6SM SCT180 FM091700 12007KT P6SM FEW180 FM100400 VRB05KT P6SM SKC", "KENW 091120Z 0912/1012 20003KT P6SM SKC FM091400 20010KT P6SM SKC FM092300 17008KT P6SM SCT250 FM100300 18007KT P6SM FEW250", "KERI 091120Z 0912/1012 VRB04KT P6SM SKC FM091500 03010KT P6SM SKC FM100100 VRB04KT P6SM SKC", "KEUG 091130Z 0912/1012 16007KT P6SM OVC070 FM092000 18011KT P6SM -RA OVC040 FM092200 19011KT 5SM -RA BR BKN022 OVC035 FM100100 20010KT 5SM RA BR OVC018 FM100800 24007KT 6SM -RA BR BKN015 OVC025", "KEUL 091121Z 0912/1012 15006KT P6SM SCT100", "KEVV 091120Z 0912/1012 05004KT P6SM FEW250 FM091500 09011G18KT P6SM FEW250 FM100000 07003KT P6SM FEW250", "KEVW 091120Z 0912/1012 VRB05KT P6SM BKN120 FM091800 27009KT P6SM FEW180 FM100300 15006KT P6SM FEW180", "KEWN 091408Z 0914/1012 03014G23KT P6SM VCSH BKN025 TEMPO 0914/0915 -RA BKN015 FM091600 04015G25KT P6SM BKN035 FM091800 04015G25KT P6SM SCT100 FM092300 03013KT P6SM SKC FM100300 02007KT P6SM SKC", "KEWR 091120Z 0912/1018 03007KT P6SM SCT250 FM091500 07008KT P6SM FEW250 FM091700 10008KT P6SM FEW250 FM091900 14009KT P6SM FEW250 FM100100 17006KT P6SM FEW250 FM100400 23004KT P6SM FEW250 FM101300 28006KT P6SM FEW250", "KEYW 091129Z 0912/1012 VRB03KT P6SM SCT020 FM091300 33008KT P6SM FEW025 FM100200 02010G17KT P6SM SCT030 SCT100", "KFAR 091120Z 0912/1012 VRB05KT P6SM FEW250 FM091600 18008KT P6SM FEW200 FM092200 22010KT P6SM FEW200 FM100500 VRB05KT P6SM FEW150", "KFAT 091120Z 0912/1012 VRB03KT P6SM SCT200", "KFAY 091258Z 0913/1012 03014G20KT P6SM BKN015 FM091400 04015G22KT P6SM FEW250 FM092300 04008KT P6SM SKC", "TAF KFBG 090902Z 0909/1015 03010G15KT 4800 RA BR BKN007 BKN009 OVC070 QNH3027INS BECMG 0912/0913 03015G25KT 9999 NSW FEW010 SCT020 SCT080 QNH3036INS BECMG 0917/0918 04010G20KT 9999 FEW025 QNH3035INS BECMG 0923/0924 04010G15KT 9999 SKC QNH3037INS TX16/0920Z TN05/0909Z", "TAF KFCS 090500Z 0905/1011 35010KT 9999 FEW100 QNH3007INS BECMG 0919/0920 15010KT 9999 SKC QNH3029INS BECMG 1005/1006 34010KT 9999 SKC QNH3035INS TX18/0921Z TN02/0912Z LAST NO AMDS 0905 NEXT 1005Z", "KFDY 091120Z 0912/1012 10005KT P6SM FEW250", "TAF KFFO 091100Z 0911/1017 06006KT 9999 FEW250 QNH3037INS WND 08009KT AFT 0915 BECMG 0922/0923 VRB06KT 9999 FEW250 QNH3038INS BECMG 1014/1015 20008KT 9999 SCT250 QNH3040INS TX16/0920Z TN02/1010Z", "KFKL 091120Z 0912/1012 05005KT P6SM SKC FM100800 10002KT P6SM SKC", "KFLG 091120Z 0912/1012 VRB03KT P6SM FEW250 FM091800 07009KT P6SM SKC", "KFLL 091131Z 0912/1018 VRB04KT P6SM FEW030 SCT050 BKN100 FM091500 32010KT P6SM SCT030 BKN050 FM091800 01011KT P6SM VCTS SCT030CB BKN050 TEMPO 0919/0922 VRB15G25KT 5SM TSRA BKN025CB BKN040 FM100300 04012G22KT P6SM VCSH SCT030 BKN060 BKN250 FM101500 06015G25KT P6SM VCSH SCT030 BKN050", "KFLO 091120Z 0912/1012 02014G23KT P6SM VCSH OVC010 FM091600 04016G27KT P6SM BKN015 FM091800 04016G24KT P6SM SCT020", "KFMH 091120Z 0912/1012 06007KT P6SM SKC FM092000 10008KT P6SM SKC FM092100 13007KT P6SM SKC FM092200 16006KT P6SM SKC FM100200 23007KT P6SM SKC FM101000 27005KT P6SM SKC", "KFMN 091128Z 0912/1012 08006KT P6SM SCT250 FM091800 28007KT P6SM SKC FM092000 31011G19KT P6SM SKC FM100200 33006KT P6SM SKC FM100600 05005KT P6SM SKC", "KFMY 091123Z 0912/1012 33004KT P6SM SCT025 BKN120 FM091500 34010KT P6SM VCTS SCT025CB BKN050 BKN100 FM092100 01013G22KT P6SM SCT020 BKN050 FM100200 03010KT P6SM SCT050 SCT250", "KFNT 091120Z 0912/1012 11002KT P6SM SKC FM091500 17006KT P6SM SKC FM100800 21006KT P6SM SCT250", "KFOD 091123Z 0912/1012 17014G19KT P6SM BKN250 FM091500 19013G19KT P6SM BKN200 FM100100 17009KT P6SM BKN120 FM100800 20006KT P6SM VCSH BKN080", "KFOE 091120Z 0912/1012 14005KT P6SM SCT200 FM091400 16010KT P6SM SCT200 FM100100 14006KT P6SM BKN120 FM100700 14006KT P6SM VCSH SCT070 BKN110", "KFPR 091347Z 0914/1012 35012G20KT P6SM BKN011 FM091600 01013G21KT P6SM VCSH BKN020 FM100000 03016G24KT P6SM VCSH BKN035", "KFSD 091122Z 0912/1012 19011KT P6SM OVC130 WS014/20040KT FM091400 19011G16KT P6SM VCSH OVC090 FM092100 16008KT P6SM BKN130 FM092300 VRB05KT P6SM BKN150 FM100300 32004KT P6SM FEW250", "KFSM 091120Z 0912/1012 08007KT P6SM SCT018 TEMPO 0913/0917 BKN018 FM091800 08007KT P6SM SCT045 SCT250", "KFST 091133Z 0912/1012 16011KT P6SM SCT250 FM091700 10013KT P6SM SCT250", "KFTW 091120Z 0912/1012 11005KT P6SM BKN035 FM091700 13006KT P6SM SCT040", "KFTY 091121Z 0912/1012 06011KT P6SM SCT020 BKN040 FM091400 07013G23KT P6SM SCT025 BKN050 FM091800 07012G22KT P6SM FEW060 FEW250 FM100000 07009KT P6SM SKC", "KFVE 091120Z 0912/1012 30007KT P6SM SCT090 FM091700 28011G20KT P6SM SCT050 FM100100 26011G22KT P6SM FEW080 WS007/27040KT FM100700 26006KT P6SM SKC WS003/29040KT", "KFWA 091120Z 0912/1012 08004KT P6SM SKC FM091500 11007KT P6SM SKC", "KFXE 091131Z 0912/1012 VRB04KT P6SM SCT050 BKN100 FM091500 32010KT P6SM SCT030 BKN050 FM091800 01011KT P6SM VCTS SCT030CB BKN050 TEMPO 0919/0922 VRB15G25KT 5SM TSRA BKN025CB BKN040 FM100300 04012G22KT P6SM VCSH SCT030 BKN060 BKN250", "KFYV 091120Z 0912/1012 13007KT P6SM SCT018 TEMPO 0913/0917 BKN018 FM091800 13007KT P6SM SCT050 SCT250", "KGBD 091122Z 0912/1012 16013KT P6SM VCTS SCT050 OVC110CB TEMPO 0912/0914 VRB15G30KT 6SM TSRA BKN050CB FM091700 18015G22KT P6SM VCTS OVC090CB FM100100 20009KT P6SM VCSH OVC100", "KGCC 091120Z 0912/1012 22008KT P6SM SCT200", "KGCK 091256Z 0913/1012 20007KT P6SM SKC FM091600 36010KT P6SM SKC FM091800 01009KT P6SM SKC", "KGCN 091120Z 0912/1012 VRB03KT P6SM FEW250 FM091700 05009KT P6SM SKC FM100300 09009KT P6SM SKC", "KGDV 091123Z 0912/1012 VRB05KT P6SM SCT150 FM091800 28015KT P6SM SKC FM100200 VRB05KT P6SM SKC FM100800 21010KT P6SM SKC", "KGEG 091139Z 0912/1012 11005KT P6SM FEW060 SCT080 OVC120 FM091500 14006KT P6SM BKN060 OVC080 FM092000 17009KT P6SM OVC060 FM092300 19009KT P6SM -RA SCT030 OVC050 FM100200 18008KT 6SM -RA BR SCT018 OVC035 FM100600 17008KT 5SM -RA BR OVC020", "KGFK 091120Z 0912/1012 VRB05KT P6SM FEW200 FM091500 18008KT P6SM FEW200 FM091900 20011KT P6SM FEW200 FM100500 23006KT P6SM FEW150", "KGFL 091120Z 0912/1012 VRB03KT P6SM SKC FM091800 15006KT P6SM SKC FM092300 00000KT P6SM SKC", "KGGG 091137Z 0912/1012 08005KT P6SM SCT030 TEMPO 0914/0916 BKN020 FM091600 09007KT P6SM BKN020 FM091800 08007KT P6SM BKN030 FM092000 08007KT P6SM BKN035 FM100200 08004KT P6SM BKN035", "KGGW 091123Z 0912/1012 27007KT P6SM FEW150 FM092300 VRB05KT P6SM SKC FM100300 12008KT P6SM SCT130", "KGJT 091120Z 0912/1012 VRB04KT P6SM SCT200 FM091500 16006KT P6SM SCT200 FM092000 26007KT P6SM SKC FM100200 02005KT P6SM SKC FM100400 06005KT P6SM SKC", "KGKY 091120Z 0912/1012 11005KT P6SM BKN035 FM091700 13006KT P6SM SCT040", "KGLD 091120Z 0912/1012 33008KT P6SM FEW250 FM091500 34013G21KT P6SM SKC FM100000 01010KT P6SM FEW250 FM100300 VRB04KT P6SM SKC", "KGLH 091120Z 0912/1012 07005KT P6SM OVC010 FM091600 07011KT P6SM BKN015 OVC025 FM100000 07006KT P6SM BKN040 FM100700 07003KT P6SM SCT040 BKN100", "KGLS 091122Z 0912/1012 02007KT P6SM SCT016 BKN035 FM091500 06010KT P6SM BKN035 FM100400 05008KT P6SM SCT012 BKN025", "KGMU 091120Z 0912/1012 05013G19KT P6SM SKC FM091500 05016G26KT P6SM SKC FM092100 05012G20KT P6SM SKC FM100100 06008KT P6SM SKC", "KGNV 091143Z 0912/1012 36009KT 5SM -DZ BR VCSH OVC004 FM091400 02012G20KT 6SM -DZ BR OVC007 FM091900 03015G25KT 5SM -DZ BR VCSH OVC010 FM100400 01012G18KT 5SM BR VCSH BKN007 OVC012", "KGON 091120Z 0912/1012 04006KT P6SM FEW250 FM091400 11008KT P6SM FEW250 FM091900 18009KT P6SM FEW250 FM100200 VRB03KT P6SM FEW250", "KGPI 091120Z 0912/1012 19006KT P6SM BKN080 FM091900 19010KT P6SM BKN050", "KGPT 091327Z 0913/1012 05012G22KT P6SM OVC010 FM091500 05012G21KT P6SM BKN050 BKN100 FM100200 06010KT P6SM BKN025", "KGRB 091133Z 0912/1012 VRB03KT 3SM BR SCT003 TEMPO 0912/0913 1SM BR VV003 FM091300 15004KT 6SM BR SCT005 FM091430 20010G18KT P6SM BKN200 FM100100 19009KT P6SM BKN200 FM100400 21008KT P6SM BKN150 WS016/23040KT", "TAF KGRF 091313Z 0913/1019 17009KT 9000 -RA BKN030 OVC040 620609 520105 QNH2999INS BECMG 0917/0918 18015G25KT 8000 -RA BKN025 OVC040 620805 530006 QNH2995INS TEMPO 0921/1001 19020G30KT BKN020 BECMG 1001/1002 20010KT 6000 -RA BKN010 OVC020 620609 QNH2996INS BECMG 1008/1009 30005KT 4800 -RA BR BKN005 OVC020 620409 QNH3000INS TX12/0923Z TN07/1005Z", "KGRI 091232Z 0913/1012 17014G22KT P6SM VCSH OVC100 FM091500 19016KT P6SM BKN100 FM092300 19010KT P6SM -SHRA VCTS SCT060CB BKN100 FM100200 16006KT P6SM BKN120 FM100900 32005KT P6SM FEW120", "TAF AMD KGRK 091300Z 0913/1019 VRB06KT 9999 OVC025 QNH3016INS BECMG 0916/0917 VRB06KT 9999 BKN030 QNH3023INS BECMG 1000/1001 VRB06KT 9999 SCT050 QNH3019INS TX20/0922Z TN13/0913Z", "KGRR 091125Z 0912/1012 VRB04KT P6SM SKC FM091500 19007KT P6SM SKC", "TAF KGSB 091200Z 0912/1018 03009KT 8000 -RA OVC010 QNH3020INS BECMG 0913/0914 03010G20KT 9999 NSW SCT010 BKN030 QNH3021INS TEMPO 0914/0918 04020G30KT 510003 BECMG 0917/0918 03012KT 9999 FEW050 QNH3030INS TX16/0920Z TN06/0912Z LAST NO AMDS AFT 0912 NEXT 0920", "KGSO 091120Z 0912/1012 03010KT P6SM FEW150 FM091400 05011G20KT P6SM FEW250 FM092200 04005KT P6SM SKC", "KGSP 091120Z 0912/1012 03010G18KT P6SM FEW030 FEW080 FM091500 05016G25KT P6SM SKC FM092100 05011G20KT P6SM SKC FM100100 05008KT P6SM SKC", "KGTF 091120Z 0912/1012 22012G20KT P6SM SCT250 FM092000 23018G26KT P6SM FEW250 FM100500 20022G30KT P6SM SCT250", "KGTR 091120Z 0912/1012 05006KT P6SM OVC015 FM091900 07014G20KT P6SM BKN040 FM100000 07009KT P6SM BKN100 FM100800 10005KT P6SM FEW100 SCT250", "KGUC 091120Z 0912/1012 VRB03KT P6SM FEW080 SCT200 FM091800 25006KT P6SM FEW080 FM092100 26010KT P6SM FEW080 FM100200 33004KT P6SM SKC", "KGUP 091128Z 0912/1012 VRB03KT P6SM SCT250 FM091700 03006KT P6SM FEW250 FM100200 VRB03KT P6SM SKC", "TAF KGUS 091300Z 0913/1019 13008KT 9999 SKC QNH3036INS TX18/0920Z TN03/1011Z", "KGUY 091134Z 0912/1012 19012G22KT P6SM FEW150 FM091300 25009KT P6SM BKN150 FM091700 33008KT P6SM BKN200 FM100200 VRB06KT P6SM FEW250", "KGWO 091120Z 0912/1012 09007KT P6SM OVC012 FM091600 08012KT P6SM BKN015 OVC025 FM100000 05007KT P6SM BKN040 FM100500 08003KT P6SM SCT040 BKN100", "KGYY 091120Z 0912/1012 00000KT P6SM SKC FM091500 17008KT P6SM BKN250", "KHBG 091157Z 0912/1012 05005KT P6SM OVC010 FM091900 05010KT P6SM BKN040 FM101000 04003KT P6SM SCT250", "KHCR 091120Z 0912/1012 VRB04KT P6SM SCT090 FM091900 22008KT P6SM FEW180 FM100000 VRB03KT P6SM FEW180", "KHDC 091120Z 0912/1012 03006KT P6SM OVC008 FM091400 05011KT P6SM BKN025 FM091600 05010KT P6SM BKN035 FM100200 09011KT P6SM BKN020", "KHDN 091120Z 0912/1012 10007KT P6SM SCT200 FM091800 28008KT P6SM SCT200 FM092100 30008KT P6SM SKC FM100300 VRB04KT P6SM SKC", "KHIB 091126Z 0912/1012 16008KT P6SM BKN110 WS020/21045KT TEMPO 0912/0916 20010G15KT FM091600 21010G15KT P6SM BKN110 FM100300 22008KT P6SM BKN019 FM100600 24006KT 5SM BR SCT004 AMD NOT SKED", "KHIE 091120Z 0912/1012 00000KT P6SM SKC FM091330 31007KT P6SM FEW250", "TAF KHIF 091257Z 0913/1019 10012G18KT 9999 FEW090 SCT150 QNH3023INS BECMG 0918/0919 24007KT 9999 FEW200 QNH3029INS BECMG 1003/1004 11012G20KT FEW070 QNH3022INS TX14/0923Z TN04/0913Z", "KHIO 091130Z 0912/1012 13005KT P6SM -RA OVC050 FM091800 17010G18KT 5SM -RA BR BKN018 OVC035 FM100000 19009KT 5SM -RA BR BKN012 OVC025 FM100700 23005KT 5SM -RA BR SCT008 OVC016", "KHKS 091120Z 0912/1012 08005KT P6SM OVC012 FM091600 08010KT P6SM BKN015 OVC025 FM092300 07007KT P6SM BKN040 FM100800 10004KT P6SM SCT250", "KHKY 091120Z 0912/1012 03009KT P6SM FEW040 FM091500 05011G20KT P6SM SKC FM100000 06005KT P6SM SKC", "KHLG 091120Z 0912/1012 04005KT P6SM SKC FM100900 VRB02KT P6SM SKC", "KHLN 091120Z 0912/1012 26007KT P6SM SCT250 FM092000 23012G20KT P6SM SCT250 FM100400 17009KT P6SM SCT250", "KHNB 091120Z 0912/1012 06003KT P6SM SKC FM091400 09012G18KT P6SM SKC FM100000 08005KT P6SM SKC FM100600 VRB03KT P6SM SKC", "KHND 091120Z 0912/1012 20006KT P6SM FEW250 FM091700 04007KT P6SM SKC FM100400 22006KT P6SM SKC", "KHOB 091133Z 0912/1012 16008KT P6SM SCT250 TEMPO 0912/0916 4SM BR BKN007 FM091600 12010KT P6SM SCT250", "KHON 091122Z 0912/1012 VRB04KT P6SM OVC120 FM091600 27005KT P6SM SCT200 FM092100 33006KT P6SM SCT210 FM100700 VRB03KT 4SM BR SCT250", "TAF KHOP 090800Z 0908/1014 VRB06KT 9999 SKC QNH3032INS BECMG 0915/0916 08010G15KT 9999 SKC QNH3033INS BECMG 0922/0923 VRB06KT 9999 SKC QNH3034INS TX18/0920Z TN06/0911Z", "KHOT 091322Z 0913/1012 09002KT P6SM OVC009 FM091500 10005KT P6SM OVC015 FM091800 10008KT P6SM OVC035 FM100000 09004KT P6SM SCT035 OVC060", "KHOU 091122Z 0912/1012 04008KT P6SM OVC022 FM091600 06009KT P6SM BKN040 FM100200 VRB04KT P6SM BKN024", "KHPN 091120Z 0912/1012 03007KT P6SM FEW250 FM091400 09007KT P6SM FEW250 FM091800 12007KT P6SM FEW250 FM092300 17004KT P6SM FEW250 FM100100 VRB03KT P6SM FEW250 AMD NOT SKED", "KHQM 091136Z 0912/1012 16010KT P6SM -RA OVC012 FM091600 15025G35KT 4SM -RA BR OVC008 FM092000 15025G35KT 2SM -RA BR OVC004 FM100200 20018G28KT 4SM BR VCSH OVC006 FM100600 VRB03KT P6SM SCT008 BKN015 OVC030", "KHRF 091120Z 0912/1012 17008KT P6SM BKN100 FM091700 19010KT P6SM SCT100 FM092300 16006KT P6SM BKN100", "KHRL 091129Z 0912/1012 35006KT P6SM OVC070 FM091500 04009KT P6SM BKN035 FM100600 07008KT P6SM BKN022", "KHRO 091321Z 0913/1012 14006KT P6SM OVC015 FM091700 12011KT P6SM SCT025 OVC040 FM100000 13005KT P6SM BKN100", "TAF KHRT 091335Z 0913/1019 04012KT 9999 OVC009 QNH3014INS BECMG 0918/0919 06015G20KT 9999 FEW020 SCT027 OVC040 QNH3022INS BECMG 1017/1018 05015G20KT 9999 BKN027 OVC040 QNH3025INS TX17/0920Z TN10/0913Z LAST NO AMDS AFT 0913 NEXT 1010", "TAF KHST 091100Z 0911/1017 VRB06KT 9999 SCT025 SCT050 QNH2995INS BECMG 0918/0919 06010KT 9999 VCSH BKN030 BKN050 QNH2991INS BECMG 0922/0923 04010KT 9999 VCTS BKN025 BKN040CB QNH2995INS BECMG 1003/1004 35008KT 9999 NSW FEW014 SCT025 BKN045 QNH2993INS BECMG 1012/1013 02008KT 9999 -SHRA SCT014 BKN025 BKN085 QNH2996INS TX29/0917Z TN20/0911Z", "KHSV 091120Z 0912/1012 13005KT P6SM SCT024 FM091500 08006KT P6SM BKN017 FM091800 05005KT P6SM SCT040", "KHTS 091120Z 0912/1012 VRB04KT P6SM SKC FM091700 05007KT P6SM SKC FM100400 00000KT P6SM SKC", "KHUF 091125Z 0912/1012 05004KT P6SM SKC FM091500 11007KT P6SM FEW250 FM100000 10003KT P6SM FEW250", "KHUL 091120Z 0912/1012 32004KT P6SM FEW100 FM091400 31007KT P6SM FEW090 FM091800 28010G20KT P6SM FEW050 FM100300 25009KT P6SM FEW100 WS007/29040KT", "KHUM 091120Z 0912/1012 02012KT P6SM OVC007 FM091500 04011KT P6SM BKN025 FM091800 04012KT P6SM BKN050 FM100300 05005KT P6SM BKN025", "KHUT 091122Z 0912/1012 15007KT P6SM BKN250 FM091700 17012KT P6SM SCT100 OVC200 FM100100 16007KT P6SM VCSH OVC090", "KHVR 091120Z 0912/1012 23009KT P6SM SCT250 FM092000 23014G22KT P6SM SCT250 FM100800 23018G26KT P6SM FEW250", "KHYA 091120Z 0912/1012 00000KT P6SM SKC FM091400 04008KT P6SM SKC FM092200 15006KT P6SM SKC FM100000 19007KT P6SM SKC FM100500 25008KT P6SM SKC", "KHYR 091126Z 0912/1012 18008KT P6SM SCT120 WS020/22040KT FM091700 20013G17KT P6SM BKN120 FM091900 23011G18KT 6SM -SHRA BKN080 FM092300 23009KT P6SM BKN070 FM100900 21006KT P6SM BKN023", "KHYS 091257Z 0913/1012 18010KT P6SM BKN150 FM100100 VRB06KT P6SM SKC", "TAF KIAB 091000Z 0910/1016 VRB06KT 9999 SKC QNH3013INS BECMG 0915/0916 15010G15KT 9999 SKC QNH3022INS BECMG 0922/0923 12006KT 9999 SCT060 OVC085 QNH3015INS TEMPO 1003/1012 8000 -SHRA BKN025 OVC070 TX22/0921Z TN07/0912Z", "KIAD 091127Z 0912/1018 VRB03KT P6SM FEW200 FM091400 06006KT P6SM SKC FM092000 03005KT P6SM FEW070 FM100200 00000KT P6SM SKC FM101400 21005KT P6SM SKC", "KIAG 091120Z 0912/1012 03005KT P6SM SKC FM091800 01007KT P6SM SKC FM100000 VRB04KT P6SM SKC", "KIAH 091122Z 0912/1018 35003KT P6SM BKN028 FM091700 04006KT P6SM BKN035 FM092100 07009KT P6SM BKN045 FM100300 VRB04KT P6SM SCT015 BKN024 FM101500 06008KT P6SM SCT015 BKN060", "KICT 091122Z 0912/1012 15007KT P6SM SCT250 FM091700 17012KT P6SM SCT100 BKN200 FM100100 16008KT P6SM VCSH OVC090", "KIDA 091127Z 0912/1012 36006KT P6SM SCT070 FM092000 22007KT P6SM FEW070 FM100100 VRB05KT P6SM FEW200", "KIFP 091120Z 0912/1012 VRB05KT P6SM FEW250 FM091500 35010KT P6SM SKC FM100400 01010KT P6SM SKC", "KILG 091120Z 0912/1012 06005KT P6SM SKC FM092300 15006KT P6SM SKC FM100300 00000KT P6SM SKC", "KILM 091120Z 0912/1012 02017G25KT 6SM -RA OVC010 FM091400 02018G27KT P6SM VCSH OVC010 TEMPO 0914/0916 BKN009 FM091700 03020G29KT P6SM BKN015 FM092100 03017G26KT P6SM SCT025", "KILN 091130Z 0912/1012 07005KT P6SM SKC FM091500 07009KT P6SM SKC FM100000 08005KT P6SM SCT250", "KIND 091125Z 0912/1018 10006KT P6SM SKC FM100000 11004KT P6SM SKC FM101300 18006KT P6SM FEW250", "KINK 091133Z 0912/1012 13008KT P6SM SCT250 TEMPO 0912/0916 5SM BR BKN008 FM091600 11011KT P6SM SCT250", "KINL 091126Z 0912/1012 17009KT P6SM BKN110 WS020/22040KT FM091500 22010G16KT P6SM SCT120 FM100300 23008KT 6SM BR BKN022 FM100600 24007KT 5SM BR SCT005", "KINT 091120Z 0912/1012 03008KT P6SM FEW250 FM091400 05010G20KT P6SM SKC FM092200 05007KT P6SM SKC", "KINW 091120Z 0912/1012 13004KT P6SM FEW250 FM091700 03006KT P6SM SKC FM092300 34009KT P6SM SKC FM100600 VRB04KT P6SM SKC", "KIPL 091120Z 0912/1012 26005KT P6SM SKC FM091600 VRB04KT P6SM SKC FM100400 26005KT P6SM SKC", "KIPT 091120Z 0912/1012 VRB03KT P6SM SKC", "KISM 091123Z 0912/1012 01012KT P6SM BKN010 BKN018 TEMPO 0912/0914 BKN008 FM091500 01015G25KT P6SM VCSH SCT012 BKN020 FM100200 02014KT P6SM BKN025", "KISO 091407Z 0914/1012 03015G22KT P6SM BKN035 BKN100 TEMPO 0914/0915 BKN015 FM091600 03015G22KT P6SM SCT100 FM092300 04011KT P6SM SKC FM100400 02005KT P6SM SKC AMD LTD TO CLD VIS AND WIND", "KISP 091120Z 0912/1012 04008KT P6SM SCT250 FM091500 07010KT P6SM FEW250 FM091700 14010KT P6SM FEW250 FM092100 18008KT P6SM FEW250 FM100300 VRB03KT P6SM FEW250", "KITH 091120Z 0912/1012 07003KT P6SM SKC FM091400 32005KT P6SM SKC FM100200 11003KT P6SM SKC", "KIWA 091120Z 0912/1012 10005KT P6SM FEW250 FM091900 30005KT P6SM SKC FM100500 11005KT P6SM SKC", "KIWD 091128Z 0912/1012 18011KT P6SM BKN200 WS015/22045KT FM091400 20012G23KT P6SM BKN200 WS015/22045KT FM091700 21015G26KT P6SM BKN150 FM092000 22014G23KT P6SM BKN080 FM100000 21010KT P6SM BKN080 WS015/24040KT", "KIXD 091120Z 0912/1012 13009KT P6SM SKC FM091400 14010KT P6SM FEW050", "KJAC 091121Z 0912/1012 19006KT P6SM BKN060 FM091800 VRB04KT P6SM SCT200", "KJAN 091352Z 0914/1012 07005KT 1 1/2SM BR OVC007 FM091500 06012G19KT P6SM BKN015 OVC025 FM092300 05011KT P6SM BKN040 FM100700 06006KT P6SM SCT250", "KJAX 091143Z 0912/1012 36015G23KT 5SM -DZ BR VCSH OVC007 FM091400 02018G30KT 6SM -DZ BR VCSH OVC008 FM092200 03020G32KT P6SM VCSH BKN012 FM100300 02014G22KT P6SM VCSH BKN009 OVC015 FM100900 02017G27KT 6SM BR VCSH BKN012 OVC025", "KJBR 091120Z 0912/1012 06005KT P6SM OVC025 FM091800 08006KT P6SM OVC050 FM100300 05004KT P6SM OVC100", "KJCT 091139Z 0912/1012 VRB03KT 3SM BR BKN004 TEMPO 0912/0914 1/2SM FG OVC002 FM091500 15007KT P6SM BKN015 FM091800 12009KT P6SM BKN035 FM100600 VRB03KT P6SM VCTS BKN007CB", "KJEF 091120Z 0912/1012 13009KT P6SM SCT250 FM100100 VRB05KT P6SM FEW250", "KJER 091121Z 0912/1012 07010KT P6SM SCT070 FM091900 15007KT P6SM BKN200 FM100100 05012KT P6SM BKN200", "KJFK 091120Z 0912/1018 03007KT P6SM SCT250 FM091400 07010KT P6SM FEW250 FM091600 15010KT P6SM FEW250 FM092100 18007KT P6SM FEW250 FM100400 23005KT P6SM FEW250 FM101200 26006KT P6SM FEW250 FM101700 21008KT P6SM FEW250", "KJHW 091120Z 0912/1012 VRB05KT P6SM SKC FM091800 02007KT P6SM SKC FM100000 VRB03KT P6SM SKC", "KJKA 091120Z 0912/1012 03007G16KT P6SM OVC007 FM091700 06010KT P6SM BKN015 FM100200 06007KT P6SM BKN025", "KJKL 091131Z 0912/1012 VRB04KT P6SM SKC FM091400 07008KT P6SM SKC", "KJLN 091120Z 0912/1012 13008KT P6SM SKC FM092100 14008KT P6SM BKN250", "KJMS 091120Z 0912/1012 24007KT P6SM SCT250 FM092200 28009KT P6SM SCT200", "KJST 091120Z 0912/1012 VRB03KT P6SM SKC", "KJVL 091120Z 0912/1012 15005KT P6SM SKC FM091300 18008KT P6SM SKC FM091500 19010KT P6SM FEW250 FM092000 20012KT P6SM SCT250 FM100100 18008KT P6SM SCT250", "KJXN 091125Z 0912/1012 17006KT P6SM SKC", "KJZI 091120Z 0912/1012 01015G23KT 6SM -DZ BKN008 OVC011 FM091500 02018G25KT P6SM BKN009 OVC015 FM091700 03016G23KT P6SM SCT009 OVC015 FM092100 03015G24KT P6SM BKN025 FM092300 03013G18KT P6SM BKN040 FM100300 03011KT P6SM SCT100", "KLAF 091125Z 0912/1012 09006KT P6SM SKC FM100000 12002KT P6SM SKC", "KLAL 091123Z 0912/1012 03010KT P6SM VCSH SCT015 BKN025 FM091600 04012G21KT P6SM SCT020 BKN050 FM100200 03010KT P6SM BKN050", "KLAN 091125Z 0912/1012 19006KT P6SM SKC", "KLAR 091120Z 0912/1012 23010KT P6SM SKC FM091900 29013G23KT P6SM SKC FM100100 19009KT P6SM SKC", "KLAS 091120Z 0912/1018 24005KT P6SM FEW250 FM091600 06008KT P6SM SKC FM100400 24006KT P6SM SKC FM101500 06005KT P6SM SKC", "KLAW 091120Z 0912/1012 VRB04KT P6SM SCT250 FM091500 17007KT P6SM BKN100 BKN180 FM100900 14006KT P6SM BKN030", "KLAX 091307Z 0913/1018 VRB03KT 1SM BR OVC003 FM091430 VRB03KT 2SM BR OVC004 FM091600 26006KT 4SM BR OVC007 FM091900 26012KT P6SM SCT250 FM100300 26006KT P6SM SCT008 FM100600 VRB03KT 3SM BR OVC005 FM101500 VRB03KT 5SM BR BKN008", "KLBB 091120Z 0912/1012 VRB06KT P6SM OVC250 FM092000 16011KT P6SM VCTS BKN040CB OVC100 FM100300 VRB06KT P6SM SCT035", "KLBE 091120Z 0912/1012 05005KT P6SM SKC FM101000 VRB03KT P6SM SKC", "KLBF 091120Z 0912/1012 VRB04KT P6SM BKN150 FM091600 32007KT P6SM FEW250 FM100100 36007KT P6SM SCT250", "KLBL 091257Z 0913/1012 22007KT P6SM SCT100 FM091900 33008KT P6SM SKC", "KLBT 091120Z 0912/1012 03015G22KT P6SM VCSH OVC010 FM091600 04017G27KT P6SM BKN015 FM091800 04017G26KT P6SM SCT020", "KLBX 091248Z 0913/1012 36003KT 6SM BR SCT011 OVC040 FM091500 05006KT P6SM BKN014 FM091700 05008KT P6SM BKN024 FM091900 08008KT P6SM BKN035 FM100300 VRB04KT P6SM BKN024", "KLCH 091120Z 0912/1012 05009KT P6SM OVC015 FM091900 03009KT P6SM BKN025", "KLCK 091130Z 0912/1012 07003KT P6SM SKC FM091600 06007KT P6SM SKC FM092300 08004KT P6SM SKC", "KLEB 091120Z 0912/1012 00000KT P6SM SKC FM091330 32006KT P6SM SKC", "KLEE 091123Z 0912/1012 01012KT P6SM OVC007 FM091500 03014G22KT P6SM VCSH SCT010 SCT020 FM100200 02012KT P6SM BKN025", "KLEX 091120Z 0912/1012 07006KT P6SM SKC FM091300 07013G20KT P6SM SKC FM100000 06007KT P6SM SKC FM100600 VRB04KT P6SM SKC", "TAF KLFI 091200Z 0912/1018 04015G25KT 9999 SCT150 510073 QNH3038INS BECMG 0913/0914 05020G25KT 9999 SKC 510073 QNH3041INS BECMG 0922/0923 06015KT 9999 SKC 510083 QNH3045INS TX11/0917Z TN08/1011Z", "KLFK 091137Z 0912/1012 06004KT P6SM BKN026 TEMPO 0912/0915 SCT025 FM091500 07006KT P6SM BKN020 FM091700 06006KT P6SM BKN025 FM092000 06006KT P6SM BKN035 FM100200 04003KT P6SM BKN035", "KLFT 091120Z 0912/1012 02006KT P6SM OVC008 FM091500 04008KT P6SM BKN015 FM091900 03008KT P6SM BKN025", "KLGA 091120Z 0912/1018 05010KT P6SM FEW250 FM092100 17008KT P6SM FEW250 FM100400 23005KT P6SM FEW250 FM101300 28006KT P6SM FEW250", "KLGB 091147Z 0912/1012 VRB03KT 4SM BR OVC003 FM091700 VRB03KT P6SM SCT010 FM092000 21006KT P6SM SCT250 FM092300 29008KT P6SM SCT250 FM100400 VRB03KT P6SM SCT250 FM100800 VRB03KT 4SM BR OVC007", "KLGU 091356Z 0914/1012 VRB03KT 1SM BR VV004 TEMPO 0914/0917 1/2SM FZFG VV001 FM091700 VRB04KT P6SM FEW150 FM100600 VRB03KT 6SM BR SKC", "KLIT 091120Z 0912/1012 09006KT P6SM OVC010 FM091900 08007KT P6SM OVC030 FM092200 VRB05KT P6SM OVC040", "KLLQ 091120Z 0912/1012 09007KT 5SM BR OVC006 FM091600 08008KT P6SM OVC015 FM092100 07008KT P6SM OVC035 FM100000 04003KT P6SM OVC040", "KLMT 091123Z 0912/1012 15007KT P6SM FEW070 OVC100 FM092100 22010G19KT P6SM OVC080 FM100000 25005KT P6SM OVC080", "KLND 091121Z 0912/1012 22008KT P6SM SCT070 SCT100 FM091500 VRB06KT P6SM SKC", "KLNK 091125Z 0912/1012 17010KT P6SM BKN250 FM091800 18014KT P6SM BKN200 FM100000 16008KT 6SM -TSRA BKN100CB FM100300 15005KT P6SM SCT100", "KLNS 091120Z 0912/1012 VRB03KT P6SM SKC", "KLOZ 091131Z 0912/1012 07007KT P6SM SKC FM091600 07010KT P6SM SKC FM100000 VRB05KT P6SM SKC", "KLRD 091120Z 0912/1012 10004KT P6SM BKN020 OVC070 TEMPO 0912/0916 5SM BR OVC008 FM092100 13008KT P6SM BKN025 BKN035 TEMPO 1000/1004 SCT025 FM100400 11006KT P6SM OVC020", "TAF KLRF 090702Z 0907/1013 VRB06KT 9999 SCT030 BKN050 QNH3019INS BECMG 0909/0910 VRB06KT 9999 BKN020 OVC060 QNH3021INS TEMPO 0912/0915 VRB06KT 8000 -RA BR OVC010 BECMG 0915/0916 VRB06KT 9999 BKN060 QNH3021INS BECMG 1005/1006 VRB06KT 9999 BKN080 QNH3026INS TX20/0920Z TN08/0912Z", "KLRU 091126Z 0912/1012 28004KT P6SM SKC", "KLSE 091120Z 0912/1012 14007KT P6SM SKC FM091400 18010G20KT P6SM SCT250 FM092000 20012G20KT P6SM BKN200", "TAF KLSV 090700Z 0907/1013 01009KT 9999 FEW250 QNH3005KT BECMG 0916/0917 04006KT 9999 FEW250 QNH3011INS BECMG 0921/0922 06010G15KT 9999 FEW250 QNH3009INS BECMG 1010/1011 36009KT 9999 FEW250 QNH3009INS TX29/0923Z TN13/0912Z", "KLUK 091130Z 0912/1012 07003KT P6SM SKC FM091600 07008KT P6SM SKC FM100000 00000KT P6SM SCT250", "KLVK 091130Z 0912/1012 07004KT P6SM SKC FM092300 29008KT P6SM FEW250 FM100400 30003KT P6SM SKC", "KLVM 091120Z 0912/1012 24019G29KT P6SM BKN080 FM100000 22018G32KT P6SM SCT200", "KLVS 091128Z 0912/1012 VRB06KT P6SM FEW250 FM092000 19008KT P6SM FEW100 SCT200 FM100200 02006KT P6SM FEW120", "KLWB 091120Z 0912/1012 VRB03KT P6SM SKC", "KLWS 091139Z 0912/1012 10004KT P6SM SCT150 BKN200 FM091800 12007KT P6SM BKN100 OVC120 FM100200 VRB05KT P6SM VCSH OVC080", "KLWT 091120Z 0912/1012 22012KT P6SM SCT250 FM092300 26014G22KT P6SM SCT250", "KLYH 091120Z 0912/1012 03005KT P6SM SKC FM091300 03007KT P6SM SKC FM091500 05009KT P6SM SKC FM092200 07007KT P6SM SKC FM100000 08005KT P6SM SKC FM100400 VRB02KT P6SM SKC", "KMAF 091133Z 0912/1012 15008KT P6SM BKN025 TEMPO 0912/0916 5SM BR BKN007 FM091600 16011KT P6SM SCT250", "KMBG 091120Z 0912/1012 13007KT P6SM SKC FM091400 20007KT P6SM SCT150 FM091500 VRB05KT P6SM SCT200", "KMBL 091132Z 0912/1012 11004KT P6SM SKC FM091500 19010G18KT P6SM SKC FM100000 22013G22KT P6SM SCT200", "KMBS 091120Z 0912/1012 11004KT 6SM BR SCT004 FM091500 17006KT P6SM SKC FM100800 21006KT P6SM SCT250", "KMCB 091120Z 0912/1012 03006KT 4SM BR OVC005 FM091400 06010KT P6SM BKN015 FM091600 06010KT P6SM BKN050 FM100300 08007KT P6SM SCT030", "KMCC 091120Z 0912/1012 VRB04KT P6SM SCT250", "KMCE 091120Z 0912/1012 33005KT P6SM SCT200", "TAF AMD KMCF 090045Z 0900/0923 24009KT 9999 BKN020 QNH2990INS BECMG 0912/0913 21012KT 6000 -SHRA BKN015 OVC040 QNH2993INS TEMPO 0913/0921 22010G20KT 2400 +TSRA BKN005 BKN018CB TX31/0917Z TN21/0911Z LAST NO AMDS AFT 0901 NEXT 0918", "KMCI 091120Z 0912/1012 14010KT P6SM SCT250 FM091400 14010KT P6SM FEW050", "KMCK 091120Z 0912/1012 VRB06KT P6SM BKN250 FM091600 32010KT P6SM FEW250 FM100300 VRB06KT P6SM SKC", "KMCN 091121Z 0912/1012 04012G22KT P6SM OVC010 FM091400 04015G25KT P6SM BKN012 FM091800 05013G23KT P6SM BKN030 FM092200 06012G22KT P6SM SCT035 FM100100 06008KT P6SM FEW250", "KMCO 091123Z 0912/1018 36013KT P6SM BKN011 OVC020 TEMPO 0912/0914 BKN008 FM091500 01015G25KT P6SM VCSH SCT012 BKN020 FM092000 02018G27KT P6SM VCSH SCT015 BKN025 FM100200 02015KT P6SM BKN025 FM101400 05018KT P6SM BKN035", "KMCW 091123Z 0912/1012 17011KT P6SM BKN250 FM091500 19014G22KT P6SM BKN200 FM100100 18010KT P6SM VCSH BKN080", "KMDT 091120Z 0912/1012 VRB03KT P6SM SKC", "KMDW 091120Z 0912/1018 16003KT P6SM SKC FM091500 19011KT P6SM BKN250 FM100100 17005KT P6SM BKN200 FM101400 21008KT P6SM BKN150 OVC250", "KMEI 091120Z 0912/1012 05010KT P6SM OVC007 FM091500 06015G21KT P6SM BKN012 OVC025 FM092100 06011KT P6SM SCT025 BKN040 FM100900 05005KT P6SM SCT250", "KMEM 091120Z 0912/1018 09006KT P6SM OVC015 TEMPO 0914/0915 09006KT P6SM OVC009 FM091900 07008KT P6SM OVC050 FM100900 10005KT P6SM BKN100 FM101500 15009KT P6SM FEW250", "KMER 091120Z 0912/1012 32005KT P6SM SCT200", "KMEV 091120Z 0912/1012 13005KT P6SM FEW250 FM091900 31007KT P6SM FEW090 SCT250 FM100300 13005KT P6SM SCT250", "KMFD 091120Z 0912/1012 06005KT P6SM SKC", "KMFE 091129Z 0912/1012 36006KT P6SM SCT025 BKN045 OVC050 TEMPO 0912/0916 BKN025 FM091600 04007KT P6SM BKN040 FM100300 08009KT P6SM BKN030 FM101000 05006KT P6SM BKN012", "KMFR 091123Z 0912/1012 VRB03KT P6SM BKN120 FM092100 19004KT P6SM FEW060 OVC090 FM100200 30006KT P6SM BKN070 OVC090", "TAF KMGE 091305Z 0913/1019 08010G20KT 9999 SCT050 QNH3030INS BECMG 0913/0914 09015G25KT 9999 FEW050 QNH3030INS BECMG 0920/0921 08010G15KT 9999 SKC QNH3035INS WND 07010KT AFT 0923 BECMG 1008/1009 07010G15KT 9999 SKC QNH3040INS BECMG 1011/1012 07015G25KT 9999 FEW250 QNH3035INS TX16/0921Z TN05/1012Z LAST NO AMDS AFT 0920 NEXT 1011", "KMGM 091131Z 0912/1012 05012KT P6SM OVC015 FM091600 07014G20KT P6SM OVC020 FM092000 07012G17KT P6SM BKN035 FM100300 07007KT P6SM FEW230", "KMGW 091120Z 0912/1012 04005KT P6SM SKC FM101000 VRB02KT P6SM SKC", "KMHK 091120Z 0912/1012 15008KT P6SM SCT200 FM091400 16010KT P6SM SCT200 FM092300 16008KT P6SM VCSH SCT070 BKN110", "KMHR 091120Z 0912/1012 VRB04KT P6SM SCT250 AMD NOT SKED", "KMHT 091120Z 0912/1012 00000KT P6SM FEW200 FM091300 31010KT P6SM SKC FM100100 00000KT P6SM SKC", "KMIA 091131Z 0912/1018 VRB04KT P6SM FEW030 SCT100 SCT250 FM091500 29008KT P6SM SCT030 BKN050 FM091800 35010KT P6SM VCTS BKN025CB BKN050 TEMPO 0919/0922 VRB15G25KT 5SM TSRA BKN025CB FM100100 03010KT P6SM VCSH SCT030 BKN060 BKN250 FM101500 05012KT P6SM VCSH SCT030 BKN060", "KMIV 091120Z 0912/1012 06006KT P6SM SKC FM092000 13008KT P6SM SKC FM100100 VRB02KT P6SM SKC", "KMKC 091120Z 0912/1012 12006KT P6SM SCT250 FM091400 14010KT P6SM FEW050", "KMKE 091120Z 0912/1018 00000KT P6SM SKC FM091400 20008KT P6SM FEW250 FM092000 17010KT P6SM SCT240 FM100500 20009KT P6SM SCT230 FM101000 22009KT P6SM BKN200", "KMKG 091125Z 0912/1012 VRB04KT P6SM SKC FM091600 19010KT P6SM SKC", "KMKL 091218Z 0912/1012 09007KT P6SM OVC009 FM091300 09007KT P6SM OVC015 FM091900 08007KT P6SM BKN050 FM100100 VRB02KT P6SM OVC250", "KMKT 091137Z 0912/1012 17011KT P6SM BKN230 WS020/20045KT FM091400 21016G21KT P6SM BKN220 TEMPO 0919/0923 5SM -SHRA BR BKN040 FM092300 20009KT P6SM BKN090 FM100700 24007KT P6SM SCT150", "KMLB 091253Z 0913/1012 36016G24KT P6SM BKN016 OVC020 FM091500 01015G24KT P6SM VCSH BKN020 FM100000 03016G24KT P6SM VCSH BKN035", "KMLC 091120Z 0912/1012 13007KT P6SM SCT250 FM100000 14007KT P6SM SCT050 SCT250", "KMLI 091120Z 0912/1012 15005KT P6SM SKC FM091600 17012G20KT P6SM SKC", "KMLS 091120Z 0912/1012 26009KT P6SM SKC FM091700 26012KT P6SM FEW250 FM100000 21007KT P6SM SKC", "KMLU 091137Z 0912/1012 VRB05KT 4SM BR OVC008 TEMPO 0912/0915 1 1/2SM BR OVC006 FM091500 06007KT P6SM SCT008 OVC015 FM091700 06008KT P6SM BKN023 FM092000 06007KT P6SM BKN035 FM100000 05004KT P6SM BKN035", "KMMH 091120Z 0912/1012 VRB02KT P6SM SKC FM091800 12006KT P6SM FEW250 FM100200 VRB02KT P6SM SCT250", "TAF AMD KMMT 090910Z 0909/1013 36010KT 9000 -RA OVC007 510202 520403 QNH3020INS BECMG 0911/0912 03012KT 9000 DZ OVC011 WS020/06043KT 520473 QNH3029INS BECMG 0913/0914 03012KT 9000 DZ OVC011 WS020/06043KT 530473 QNH3029INS BECMG 0914/0915 03020G25KT 9999 NSW SCT011 510043 530554 QNH3035INS BECMG 0917/0918 04020G25KT 9999 SCT060 510043 530553 QNH3029INS BECMG 0923/0924 04006KT 9999 SKC 510043 510703 QNH3033INS TX14/0920Z TN05/1007Z", "KMOB 091120Z 0912/1012 03010KT 6SM BR OVC007 FM091600 05011KT P6SM BKN015 FM100100 06011KT P6SM BKN025", "KMOD 091120Z 0912/1012 33007KT P6SM SCT250", "KMOT 091120Z 0912/1012 22010KT P6SM SCT090 FM091800 27014G21KT P6SM FEW200 FM100000 27009KT P6SM FEW250", "KMPV 091120Z 0912/1012 32005KT P6SM SKC", "KMQY 091132Z 0912/1012 00000KT P6SM SKC FM091700 05007G15KT P6SM SKC FM100200 04003KT P6SM SKC", "KMRB 091127Z 0912/1012 00000KT P6SM SKC FM091400 07005KT P6SM SKC FM100000 00000KT P6SM SKC", "KMRY 091130Z 0912/1012 11003KT P6SM SKC FM092300 31009KT P6SM SCT250 FM100300 14003KT P6SM FEW020 FM101000 12003KT P6SM BKN007", "KMSL 091120Z 0912/1012 09003KT P6SM SCT024 FM091400 09006KT P6SM BKN015 FM092000 VRB04KT P6SM SCT080", "KMSN 091120Z 0912/1012 00000KT P6SM FEW250 FM091400 19011KT P6SM FEW240 FM100000 19009KT P6SM BKN240", "KMSO 091120Z 0912/1012 VRB04KT P6SM OVC080 FM091500 15005KT P6SM SCT100 FM100000 25008KT P6SM BKN060 FM100600 10006KT P6SM OVC050", "KMSP 091120Z 0912/1018 17011KT P6SM SCT230 WS020/21040KT FM091400 20014G21KT P6SM BKN170 TEMPO 0920/0924 5SM -SHRA BR BKN040 FM100000 21009KT P6SM BKN080 FM100500 23005KT P6SM SCT090 FM100900 25006KT P6SM FEW180", "KMSS 091120Z 0912/1012 VRB04KT P6SM FEW250 FM100900 22008KT P6SM FEW180", "KMSY 091120Z 0912/1018 03009KT P6SM OVC015 FM091600 05013KT P6SM BKN050 FM100100 08010KT P6SM BKN020 FM101500 05012G22KT P6SM BKN050", "TAF KMTC 091100Z 0911/1017 VRB06KT 9999 SKC QNH3043INS TX14/0921Z TNM02/0911Z", "KMTH 091129Z 0912/1012 VRB03KT P6SM SCT020 FM091400 31009KT P6SM FEW025 FM100000 03012G19KT P6SM VCSH SCT030 BKN100", "KMTJ 091120Z 0912/1012 14006KT P6SM SCT200 FM091500 VRB04KT P6SM SCT150 FM092000 34008KT P6SM SKC FM100200 14010KT P6SM SKC", "KMTN 091127Z 0912/1012 00000KT P6SM FEW250 FM091500 06004KT P6SM SKC FM091800 09006KT P6SM SCT070 FM100300 00000KT P6SM SKC", "KMTW 091133Z 0912/1012 VRB03KT 6SM BR SCT250 FM091330 19007KT P6SM SCT200 FM091600 18012G18KT P6SM BKN200 FM100000 19009KT P6SM SCT150 FM100600 21009KT P6SM BKN150 WS015/24035KT", "KMVN 091120Z 0912/1012 05003KT P6SM FEW250 FM091500 10010G17KT P6SM FEW250 FM092300 00000KT P6SM FEW250", "KMWH 091139Z 0912/1012 VRB03KT P6SM SCT060 BKN080 OVC120 FM091500 11004KT P6SM -RA OVC060 FM100300 16005KT P6SM -RA OVC050", "TAF KMXF 091100Z 0911/1017 05012KT 9999 OVC015 QNH3020INS BECMG 0913/0914 06015G20KT 9999 OVC020 510053 QNH3026INS BECMG 0923/0924 07006KT 9999 BKN040 510043 QNH3023INS BECMG 1014/1015 08015G20KT 9999 SCT040 QNH3035INS TX21/0922Z TN09/0911Z", "KMYL 091121Z 0912/1012 VRB03KT P6SM BKN060 FM091700 17008KT P6SM BKN080 FM092200 17008KT P6SM BKN060 FM100200 VRB03KT P6SM BKN080 AMD NOT SKED", "KMYR 091120Z 0912/1012 02012G27KT 6SM -RA OVC010 FM091300 02014G22KT P6SM VCSH OVC010 TEMPO 0913/0915 BKN009 FM091700 03016G24KT P6SM BKN015 FM092200 03014G23KT P6SM SCT020", "TAF KNBC 0909/1009 02020G25KT 8000 -RA BKN006 OVC027 QNH3013INS BECMG 0923/0924 04012KT 9999 FEW035 SCT065 BKN200 QNH3020INS FM100200 04012KT 9999 SKC QNH3025INS T08/0909Z T14/0920Z", "TAF AMD KNBG 0909/1007 04010KT 9999 SCT008 OVC010 QNH3001INS TEMPO 0909/0915 BKN007 OVC010 BECMG 0916/0918 06012KT 9999 BKN012 OVC025 QNH3008INS AUTOMATED SENSOR METWATCH 0909 TIL 0913 TX20/0922Z TN17/0913Z AMD 0838 FN00262", "TAF KNCA 0909/1009 02020G30KT 4800 -RA BR BKN010 OVC020 QNH3020INS BECMG 0912/0914 02020G30KT 4800 -RA BR OVC015 QNH3028INS BECMG 0916/0918 02020G30KT 9999 BKN040 QNH3028INS T14/0920Z T08/1009Z", "KNEW 091329Z 0913/1012 06015KT P6SM BKN010 OVC025 FM091400 05012KT P6SM BKN015 FM091600 06015KT P6SM BKN035 FM100300 06015KT P6SM BKN020", "TAF KNFG 0903/1003 VRB05KT 9999 SKC 523209 QNH3005INS FM090530 6000 BR BKN005 523209 QNH3009INS TEMPO 0909/0915 1600 BR OVC003 BECMG 0915/0917 23007KT 9999 SCT150 500000 QNH3003INS T10/0914Z T19/0920Z", "TAF KNGP 0907/1007 05012KT 9999 SCT010 BKN035 QNH3005INS BECMG 0918/0920 09013KT 9999 SCT020 BKN035 QNH3010INS AUTOMATED SENSOR METWATCH 0907 TIL 0923 TX22/0921Z TN18/0913Z FN00236", "TAF KNGU 0907/1007 04015G25KT 9999 VCSH SCT025 BKN090 QNH3029INS TEMPO 0907/0911 6000 BR BKN015 OVC020 BECMG 0913/0915 04018G28KT 9999 NSW FEW020 SCT100 QNH3036INS BECMG 0923/1001 06013G23KT 9999 SKC QNH3042INS TX12/0917Z TN09/0910Z FN00236", "TAF KNHK 0907/1007 02012KT 9999 SCT160 BKN250 QNH3036INS BECMG 0919/0921 09008KT 9999 SCT035 BKN060 QNH3041INS BECMG 1004/1006 VRB05KT 9999 SKC QNH3045INS AUTOMATED SENSOR METWATCH 0907 TIL 0911 TX13/0920Z TN07/0909Z FN00236", "TAF AMD KNIP 0912/1007 36015G22KT 9999 OVC007 QNH3008INS TEMPO 0912/0918 4800 SHRA BR OVC004 BECMG 0918/0920 01020G30KT 9999 VCSH BKN010 BKN050 QNH3008INS TEMPO 0918/0923 6000 -SHRA BKN010 OVC035 TX16/0921Z TN13/0912Z AMD 1200 FN00265", "TAF KNKT 0909/1009 02020G30KT 4800 -RA BR BKN010 OVC020 QNH3020INS BECMG 0912/0914 02020G30KT 4800 -RA BR OVC015 QNH3028INS BECMG 0916/0918 02020G30KT 9999 BKN040 QNH3028INS T14/0920Z T08/1009Z", "TAF KNKX 0903/1003 VRB05KT 9999 FEW008 523209 QNH3007INS FM090630 VRB05KT 9999 BKN008 523209 QNH3006INS TEMPO 0907/0913 6000 BR OVC005 BECMG 0915/0917 30007KT 9999 SCT150 500000 QNH3003INS T09/0914Z T20/0920Z", "TAF KNQX 0901/0923 05006KT 9999 FEW020 QNH2994INS BECMG 0904/0906 VRB06KT 9999 SCT020 QNH3001INS LAST NO AMDS AFT 0823 NEXT 1007 TX28/0919Z TN24/0911Z COR 0157 FN00236", "TAF KNSE 0907/1007 03010G20KT 9999 VCSH OVC010 QNH3005INS TEMPO 0907/0909 3200 BR OVC003 BECMG 0912/0914 04008G18KT 9999 NSW BKN015 BKN050 QNH3012INS BECMG 1000/1002 05008KT 9999 BKN020 BKN060 QNH3017INS AUTOMATED SENSOR METWATCH 0907 TIL 1011 TX17/0921Z TN10/0912Z FN00236", "TAF KNTD 0823/0923 26008KT 9999 FEW009 SCT250 QNH3005INS FM090600 VRB06KT 9999 SCT009 SCT250 QNH3007INS TEMPO 0909/0915 9000 BR BKN009 OVC250 FM091500 VRB06KT 9999 SCT009 QNH3008INS TEMPO 0915/0921 9000 BR BKN009 FM092100 24009KT 9999 SCT015 BKN035 QNH3009INS TX17/0823Z TN10/0912Z FS30186", "TAF KNTU 0907/1007 05018G28KT 9999 VCSH SCT020 BKN070 QNH3027INS TEMPO 0907/0912 6000 BR BKN015 OVC018 BECMG 0913/0915 05018G28KT 9999 NSW FEW025 SCT100 QNH3035INS BECMG 1002/1004 04013G23KT 9999 SKC QNH3040INS TX12/0917Z TN09/0908Z FN00236", "TAF KNUW 0907/1007 14020G32KT 9999 VCSH SCT015 BKN080 BKN200 WSCONDS 640809 530008 550804 QNH2994INS FM091300 14026G40KT 9999 VCSH SCT020 BKN050 BKN080 BKN200 WSCONDS 640609 641503 530005 550507 QNH2985INS TEMPO 0915/0921 14032G46KT 9999 -RA BKN020 OVC050 BECMG 1001/1002 25015G25KT 9999 VCSH SCT025 BKN050 BKN080 BKN200 640509 641403 520005 550507 QNH2994INS TEMPO 1002/1005 25005KT 9999 -SHRA BKN025 OVC050 FM100500 25009KT 9999 VCSH FEW025 BKN050 BKN220 600000 550804 QNH3007INS TX12/0923Z TN09/0914Z FS30201", "TAF KNXP 0903/1003 25006KT 9999 SKC 523209 QNH3003INS FM090500 32005KT 9999 SKC 523209 QNH3010INS BECMG 0909/0911 500000 BECMG 0919/0921 09005KT T13/0912Z T29/1000Z", "TAF KNYG 0909/1009 VRB06KT 9999 SKC QNH3039INS BECMG 0918/0920 VRB06KT 9999 FEW055 QNH3044INS T15/0918Z T03/1008Z", "TAF KNYL 0903/1003 VRB05KT 9999 SKC 523209 QNH2991INS FM090700 16008KT 9999 SKC 523209 QNH2997INS BECMG 0912/0914 VRB04KT 500000 QNH3002INS BECMG 0917/0919 30006KT QNH2992INS T15/0912Z T33/0922Z", "TAF COR KNZY 0907/1007 33009KT 9000 BR OVC007 QNH3006INS TEMPO 0907/0913 VRB06KT SCT009 SCT013 BKN250 BECMG 0916/0917 VRB06KT 9999 NSW SCT013 SCT250 QNH3010INS FM092000 31009KT 9999 FEW013 SCT250 QNH3003INS FM100300 VRB06KT 9999 SCT009 SCT013 BKN250 QNH3005INS AUTOMATED SENSOR METWATCH 0907 TIL 0915 TX19/0923Z TN11/0913Z COR 1050 FS30190", "KOAJ 091406Z 0914/1012 03014G23KT P6SM VCSH BKN025 TEMPO 0914/0915 BKN015 FM091600 04015G25KT P6SM BKN035 FM091800 04015G25KT P6SM SCT100 FM092300 03013KT P6SM SKC FM100300 02007KT P6SM SKC AMD LTD TO CLD VIS AND WIND", "KOAK 091130Z 0912/1018 07003KT P6SM SKC FM092100 29011KT P6SM FEW030 FM100500 30004KT P6SM FEW010 FM101100 29003KT P6SM SCT012 FM101300 03003KT P6SM BKN011", "TAF KOFF 091000Z 0910/1016 15009KT 9999 BKN200 QNH3019INS BECMG 0915/0916 18015G20KT 9999 BKN200 QNH3019INS BECMG 0923/0924 18009KT 9999 BKN200 QNH3015INS TEMPO 1004/1010 8000 -SHRA BKN060 BECMG 1011/1012 18009KT 9999 SCT060 QNH3026INS TX22/0920Z TN07/0912Z", "KOFK 091125Z 0912/1012 17011KT P6SM BKN200 FM091500 19012G20KT P6SM BKN180 FM092000 19007KT P6SM SCT100 FM100800 30004KT P6SM FEW250", "KOGB 091139Z 0912/1012 03011G19KT P6SM BKN010 FM091500 05014G22KT P6SM BKN015 FM091900 03012G22KT P6SM SCT035 FM100000 05008KT P6SM SKC", "KOGD 091120Z 0912/1012 17005KT P6SM BKN150 FM091700 VRB04KT P6SM SCT150", "KOKC 091120Z 0912/1012 16005KT P6SM SCT250 FM091500 18008KT P6SM BKN120 FM101000 17010KT P6SM OVC050", "KOLF 091123Z 0912/1012 23008KT P6SM FEW150 FM091600 27013KT P6SM SKC FM100000 VRB05KT P6SM SKC", "KOLM 091136Z 0912/1012 17008KT 5SM -RA OVC045 FM091800 18015G25KT 4SM -RA BR OVC020 FM100300 20012KT 4SM -RA BR OVC015", "KOLS 091131Z 0912/1012 VRB04KT P6SM SCT250 FM092000 30007KT P6SM FEW250 FM100200 VRB04KT P6SM SKC", "KOMA 091125Z 0912/1012 16010KT P6SM BKN230 FM100000 17013KT P6SM BKN150 FM100400 16007KT P6SM SCT100", "KONP 091130Z 0912/1012 19015G23KT 4SM -RA BR SCT007 OVC015 FM091700 19020G30KT 3SM RA BR BKN007 OVC015 FM092000 20022G32KT 2SM RA BR OVC004 FM100300 22009KT 2SM -RA BR OVC006 FM100700 22006KT 4SM -RA BR OVC007", "KONT 091120Z 0912/1018 VRB04KT P6SM SCT010 FM092100 25010KT P6SM FEW250 FM100300 VRB04KT P6SM FEW250", "KOPF 091131Z 0912/1012 VRB04KT P6SM FEW030 SCT100 SCT250 FM091500 29008KT P6SM SCT030 BKN050 FM091800 01010KT P6SM VCTS BKN025CB BKN050 TEMPO 0919/0922 VRB15G25KT 5SM TSRA BKN025CB FM100100 03012KT P6SM VCSH SCT030 BKN060 BKN250", "KORD 091120Z 0912/1018 16003KT P6SM SKC FM091500 19011KT P6SM BKN250 FM100100 17005KT P6SM BKN200 FM101400 21008KT P6SM BKN150 OVC250", "KORF 091120Z 0912/1012 05015G23KT P6SM BKN100 FM091700 05020G30KT P6SM FEW200 FM092300 05017G26KT P6SM SKC FM100700 05012KT P6SM SKC", "KORH 091120Z 0912/1012 03005KT P6SM SKC FM091700 35006KT P6SM SKC FM092300 31005KT P6SM SKC FM100100 27006KT P6SM SKC", "KOTH 091123Z 0912/1012 16001KT P6SM OVC040 WS020/20040KT FM091300 17012G20KT P6SM BKN030 OVC040 WS020/20045KT FM091800 18014G25KT P6SM OVC050 FM092200 20015G25KT 4SM -RA BR SCT015 OVC020 FM100100 22012G20KT 2SM -RA BR BKN007 OVC015", "KOTM 091123Z 0912/1012 15008KT P6SM SCT250 FM091600 18013G18KT P6SM SCT250 FM100000 17011KT P6SM BKN250 FM100900 18008KT P6SM BKN140", "KOUN 091120Z 0912/1012 VRB04KT P6SM FEW250 FM091500 16007KT P6SM BKN120 FM101000 17010KT P6SM OVC050", "KOWB 091120Z 0912/1012 08005KT P6SM FEW250 FM091500 09012G19KT P6SM FEW250 FM100000 09003KT P6SM FEW250", "KOXR 091407Z 0914/1012 00000KT 1/4SM FG VV002 FM091500 VRB03KT 2SM BR OVC004 FM091700 26006KT 3SM BR OVC007 FM091900 26010KT P6SM SCT250 FM100400 VRB03KT 3SM BR BKN005", "KPAE 091136Z 0912/1012 16012G20KT P6SM -RA OVC050 FM091600 16018G30KT 5SM -RA OVC025 FM092100 16024G35KT 4SM -RA BR OVC015 FM100400 18010KT 6SM -RA OVC015 FM100900 03006KT P6SM SCT015 OVC030", "KPAH 091120Z 0912/1012 00000KT P6SM FEW250 FM091500 08010G17KT P6SM FEW250 FM100000 VRB03KT P6SM FEW250", "TAF KPAM 091100Z 0911/1017 05012G20KT 9999 BKN007 QNH3008INS TEMPO 0911/0914 05015G26KT BECMG 0915/0916 05012G20KT 9999 BKN015 QNH3014INS TX20/0920Z TN09/0911Z", "KPBF 091120Z 0912/1012 07007KT P6SM OVC010 FM091800 08007KT P6SM OVC030 FM092200 VRB05KT P6SM OVC040", "KPBG 091120Z 0912/1012 36004KT P6SM FEW250", "KPBI 091131Z 0912/1012 VRB04KT P6SM SCT030 BKN100 BKN250 FM091500 31010KT P6SM FEW030 SCT050 FM091700 35012KT P6SM VCTS SCT030CB BKN050 TEMPO 0919/0922 VRB15G25KT 5SM TSRA BKN025CB BKN040 FM100200 02014G24KT P6SM VCSH SCT030 BKN060 BKN250", "KPDK 091121Z 0912/1012 07011KT P6SM BKN035 FM091400 07013G23KT P6SM SCT030 BKN050 FM091600 07013G23KT P6SM SCT050 SCT250 FM091900 06011KT P6SM FEW250 FM100000 07009KT P6SM SKC", "KPDT 091120Z 0912/1012 VRB05KT P6SM OVC150 FM100000 10004KT P6SM OVC050 FM100200 09004KT 6SM -RA BR OVC050 FM100700 12004KT P6SM OVC050", "KPDX 091130Z 0912/1012 11008KT P6SM -RA OVC050 FM091700 13011KT P6SM -RA OVC040 FM092000 14010KT 5SM -RA BR BKN015 OVC030 FM100100 18010KT 5SM -RA BR BKN015 OVC025 FM100700 25006KT 6SM -RA BR BKN015 OVC025", "KPEQ 091133Z 0912/1012 09006KT P6SM SCT250 FM091500 07010KT P6SM SCT250", "KPGA 091120Z 0912/1012 VRB03KT P6SM SCT250 FM091800 04007KT P6SM SKC FM100300 VRB03KT P6SM SKC", "KPGD 091341Z 0914/1012 35010KT P6SM VCTS SCT025CB BKN050 BKN100 TEMPO 0914/0916 35015KT 4SM TSRA BKN025CB FM092100 02014G22KT P6SM SCT020 BKN050 FM100200 03010KT P6SM SCT050 SCT250", "KPGV 091302Z 0913/1012 02011G19KT P6SM SCT012 OVC035 TEMPO 0913/0914 BKN012 FM091500 03015G22KT P6SM SCT100 FM092300 03011KT P6SM SKC FM100400 02005KT P6SM SKC AMD LTD TO CLD VIS AND WIND", "KPHF 091120Z 0912/1012 04012KT P6SM BKN100 FM091700 05018G27KT P6SM FEW250 FM100700 04009KT P6SM SKC", "KPHL 091120Z 0912/1018 06005KT P6SM SKC FM092300 15006KT P6SM SKC FM100300 VRB02KT P6SM SKC FM101300 25005KT P6SM SKC", "KPHX 091120Z 0912/1018 09005KT P6SM FEW250 FM092100 28006KT P6SM SKC FM100700 09004KT P6SM SKC", "KPIA 091120Z 0912/1012 15005KT P6SM SCT250 FM091500 17010KT P6SM SCT250 FM100100 15005KT P6SM SCT250", "KPIB 091120Z 0912/1012 05010KT P6SM OVC010 FM091900 05010KT P6SM BKN040 FM101000 04003KT P6SM SCT250", "KPIE 091123Z 0912/1012 03008KT P6SM VCSH SCT015 BKN025 FM091600 05011G20KT P6SM SCT020 BKN050 FM100200 03012KT P6SM BKN050", "KPIH 091127Z 0912/1012 VRB04KT P6SM FEW200 FM091800 22007KT P6SM FEW070 FM100100 18006KT P6SM FEW200", "KPIR 091120Z 0912/1012 VRB03KT P6SM BKN170", "KPIT 091120Z 0912/1018 02005KT P6SM SKC FM100900 VRB03KT P6SM SKC FM101200 14005KT P6SM SKC FM101500 21004KT P6SM SKC", "KPKB 091120Z 0912/1012 VRB03KT P6SM SKC FM091500 05007KT P6SM SKC", "KPLN 091359Z 0914/1012 VRB03KT 4SM BR BKN003 FM091600 20009KT P6SM SKC FM092200 24015G25KT P6SM SCT120 BKN200", "KPMD 091147Z 0912/1012 VRB05KT P6SM SKC FM091900 04007KT P6SM SCT200 FM100100 28007KT P6SM SCT200 FM100600 VRB03KT P6SM SCT200", "KPNA 091121Z 0912/1012 33005KT P6SM BKN050 FM091300 30006KT P6SM SCT050 BKN120 FM092000 VRB04KT P6SM SCT250", "KPNC 091120Z 0912/1012 12006KT P6SM FEW250 FM091500 17009KT P6SM SCT250 FM100300 15007KT P6SM BKN090", "KPNE 091120Z 0912/1012 06005KT P6SM SKC FM092300 15006KT P6SM SKC FM100300 00000KT P6SM SKC", "KPNS 091120Z 0912/1012 03008G17KT P6SM OVC008 FM091800 04011KT P6SM BKN015 FM100200 06007KT P6SM BKN025", "TAF KPOE 082300Z 0823/1005 02009KT 9999 OVC015 QNH3005INS BECMG 0902/0903 VRB06KT 9999 BKN012 OVC035 QNH3010INS BECMG 0907/0908 VRB06KT 9999 BKN008 OVC015 QNH3013INS TEMPO 0910/0913 3200 BR OVC005 BECMG 0914/0915 04009KT 9999 BKN012 OVC025 QNH3020INS BECMG 0918/0919 03009KT 9999 SCT015 BKN025 OVC035 QNH3018INS BECMG 0920/0921 03009KT 9999 BKN025 OVC035 QNH3016INS BECMG 1003/1004 VRB06KT 9999 BKN015 OVC025 QNH3022INS TX22/0921Z TN12/0915Z LAST NO AMDS AFT 0905 NEXT 0915", "KPOU 091120Z 0912/1012 VRB03KT P6SM SCT100 FM091500 34005KT P6SM SKC FM092300 00000KT P6SM SKC", "KPQI 091120Z 0912/1012 28005KT P6SM SCT100 FM091300 30007KT P6SM SCT100 FM100100 25010G19KT P6SM FEW100 WS005/27040KT FM101100 24006KT P6SM FEW100", "KPRB 091147Z 0912/1012 VRB03KT P6SM SKC FM092100 22008KT P6SM SCT250 FM100500 VRB03KT P6SM SCT250", "KPRC 091120Z 0912/1012 20005KT P6SM FEW250 FM091800 03007KT P6SM SKC FM100300 20007KT P6SM SKC", "KPSC 091120Z 0912/1012 VRB03KT P6SM BKN250 FM091500 VRB06KT P6SM OVC060 FM100000 17005KT P6SM -RA OVC050 FM100700 20005KT P6SM OVC050", "KPSF 091120Z 0912/1012 VRB03KT P6SM FEW090 FM091600 32008KT P6SM SKC FM092300 VRB03KT P6SM SKC FM100200 00000KT P6SM SKC", "KPSM 091120Z 0912/1012 29010KT P6SM FEW250 FM092200 17006KT P6SM SKC", "KPSP 091120Z 0912/1012 VRB05KT P6SM FEW250 FM092000 11006KT P6SM SKC FM100300 32009KT P6SM SKC FM100800 VRB05KT P6SM SKC", "KPTK 091120Z 0912/1012 11002KT P6SM SKC FM091500 17006KT P6SM SKC FM100800 21006KT P6SM SCT250", "KPUB 091120Z 0912/1012 33007KT P6SM FEW250 FM091800 13008KT P6SM FEW250 FM092100 10009KT P6SM SCT150 FM100200 04007KT P6SM FEW250", "KPUW 091139Z 0912/1012 10009KT P6SM SCT150 BKN200 FM091500 10011KT P6SM BKN060 OVC090 FM092200 20011KT P6SM OVC060 FM100100 19007KT P6SM -RA OVC040 FM100500 15006KT 6SM -RA BR OVC035 FM100700 12007KT 5SM -RA BR OVC027", "KPVD 091120Z 0912/1012 01004KT P6SM FEW250 FM091700 08007KT P6SM SKC FM092000 16007KT P6SM FEW250 FM100100 22007KT P6SM SKC FM100600 25004KT P6SM SKC", "KPVU 091120Z 0912/1012 VRB05KT P6SM BKN100 FM091800 33008KT P6SM FEW180 FM100500 12005KT P6SM FEW180", "KPVW 091120Z 0912/1012 VRB06KT P6SM OVC250 FM092000 15011KT P6SM VCTS BKN040CB OVC100 FM100300 12011KT P6SM SCT100", "KPWM 091120Z 0912/1012 27004KT P6SM SKC FM091300 29012KT P6SM SCT250 FM092200 19007KT P6SM FEW250 FM100100 VRB03KT P6SM SKC", "KPWT 091136Z 0912/1012 19008KT P6SM -RA SCT006 OVC035 FM091500 19012G22KT 4SM -RA OVC006 FM092100 19022G35KT 3SM -RA BR OVC004 FM100300 20012KT 5SM -RA OVC006 FM100700 VRB03KT 2SM BR OVC003", "KRAP 091120Z 0912/1012 30013KT P6SM SCT200", "KRBG 091123Z 0912/1012 VRB04KT P6SM SCT060 OVC100 FM091800 19008KT P6SM BKN060 OVC100 FM100200 20005KT P6SM -RA SCT025 OVC050", "KRBL 091120Z 0912/1012 VRB05KT P6SM BKN250", "KRDD 091120Z 0912/1012 VRB05KT P6SM BKN250", "KRDG 091120Z 0912/1012 04005KT P6SM SKC FM100200 00000KT P6SM SKC", "KRDM 091120Z 0912/1012 17006KT P6SM BKN150 FM092200 17009KT P6SM OVC050 FM100000 15006KT 4SM BR OVC050 FM100400 16004KT 6SM -RA BR OVC050", "KRDU 091120Z 0912/1012 04011KT P6SM BKN130 FM091400 05011G20KT P6SM FEW250 FM092300 06007KT P6SM SKC", "KRFD 091120Z 0912/1012 15004KT P6SM SKC FM091500 19012G18KT P6SM BKN250 FM092300 17006KT P6SM BKN200", "KRHI 091133Z 0912/1012 13006KT P6SM BKN250 WS020/23035KT FM091500 21011G19KT P6SM BKN150 FM100000 22006KT P6SM BKN120 FM100600 22007KT P6SM BKN110 WS017/25035KT", "KRIC 091120Z 0912/1012 02007KT P6SM SCT250 FM091400 04010G17KT P6SM SKC FM100100 08006KT P6SM SKC", "KRIL 091120Z 0912/1012 VRB03KT P6SM SCT200 FM091800 26008KT P6SM FEW100 FM100200 VRB04KT P6SM SKC", "TAF KRIV 091205Z 0912/1018 VRB04KT 9999 FEW250 QNH3007INS BECMG 0916/0917 33004KT 9999 FEW250 QNH3009INS BECMG 0920/0921 32009KT 9999 SKC QNH3001INS TEMPO 0922/1002 32012G18KT BECMG 1002/1003 30006KT 9999 SKC QNH3004INS BECMG 1005/1006 VRB04KT 9999 SKC QNH3002INS TX27/0922Z TN07/0913Z", "KRIW 091121Z 0912/1012 24010KT P6SM SCT100 FM091500 VRB06KT P6SM SCT150", "KRKD 091120Z 0912/1012 28007KT P6SM SKC FM091700 23008KT P6SM FEW250", "KRKS 091121Z 0912/1012 25008KT P6SM SCT050 SCT100 FM091500 24008KT P6SM SCT100 BKN250 FM092000 24010KT P6SM SCT250", "KRME 091120Z 0912/1012 00000KT P6SM SKC FM091400 29005KT P6SM SKC FM100200 00000KT P6SM SKC", "KRNH 091120Z 0912/1012 14011KT P6SM SCT220 WS020/19040KT FM091500 19014G22KT P6SM BKN180 FM092000 22014KT P6SM BKN150 TEMPO 0920/0924 5SM -SHRA BR BKN040 FM100300 21009KT P6SM SCT070", "KRNO 091120Z 0912/1012 29005KT P6SM SCT250 FM091900 11007KT P6SM FEW100 SCT250 FM100300 VRB03KT P6SM SCT250", "KROA 091120Z 0912/1012 VRB03KT P6SM SKC FM091800 07007KT P6SM SKC", "KROC 091120Z 0912/1012 VRB04KT P6SM FEW050 FM091700 02008KT P6SM SKC FM100000 VRB04KT P6SM SKC", "KROG 091120Z 0912/1012 11007KT P6SM SCT018 TEMPO 0913/0917 BKN018 FM091800 12007KT P6SM FEW050 SCT250", "KROW 091128Z 0912/1012 VRB06KT P6SM SCT150 FM092200 11006KT P6SM VCSH SCT110 SCT250 FM100200 14008KT P6SM VCSH BKN100", "KRSL 091122Z 0912/1012 17013KT P6SM VCTS SCT050 OVC110CB TEMPO 0912/0914 VRB15G30KT 6SM TSRA BKN050CB FM091700 18015G22KT P6SM VCTS OVC090CB FM100100 20009KT P6SM VCSH OVC100", "KRST 091120Z 0912/1012 18013G22KT P6SM SKC FM091500 19016G27KT P6SM SCT200 FM092000 21014KT P6SM BKN200 FM092300 20009KT P6SM BKN150", "KRSW 091123Z 0912/1012 33004KT P6SM SCT025 BKN120 FM091500 35010KT P6SM VCTS SCT025CB BKN050 BKN100 FM092100 01013G22KT P6SM SCT020 BKN050 FM100200 03010KT P6SM SCT050 SCT250", "KRUT 091120Z 0912/1012 12006KT P6SM SKC FM091500 33007KT P6SM SKC", "KRVS 091120Z 0912/1012 14007KT P6SM SCT250", "KRWF 091136Z 0912/1012 16011G17KT P6SM BKN120 WS020/20045KT FM091400 20010KT P6SM BKN120 TEMPO 0916/0920 5SM -SHRA BR BKN050 FM100100 16006KT P6SM SCT140", "KRWI 091120Z 0912/1012 01011KT P6SM SCT020 OVC080 FM091400 03012G22KT P6SM FEW060 FEW250 FM092200 04007KT P6SM SKC", "KRWL 091120Z 0912/1012 24011KT P6SM SKC FM091700 25012G22KT P6SM SKC", "KRYY 091121Z 0912/1012 08009KT P6SM BKN040 FM091400 08012G22KT P6SM SCT050 FM091600 08013G23KT P6SM FEW060 SCT250 FM092000 07010KT P6SM FEW250 FM100100 09008KT P6SM SKC", "KSAC 091120Z 0912/1012 VRB05KT P6SM SCT250", "KSAF 091128Z 0912/1012 01010KT P6SM SCT250 FM092000 28008KT P6SM FEW100 SCT200 FM100200 02010KT P6SM SKC", "KSAN 091120Z 0912/1018 VRB05KT P6SM OVC005 FM091700 VRB04KT P6SM SCT007 FM091900 29011KT P6SM FEW250 FM100200 31005KT P6SM BKN007 FM100900 VRB04KT 4SM BR OVC005 TEMPO 1011/1014 2SM BR OVC003 FM101700 VRB03KT 6SM BR SCT007", "KSAT 091130Z 0912/1018 05005KT P6SM OVC005 FM091500 05004KT P6SM OVC007 FM091700 03006KT P6SM BKN015 FM092000 11007KT P6SM BKN035 FM100900 09003KT P6SM OVC015 FM101300 05005KT P6SM VCSH OVC009", "KSAV 091120Z 0912/1012 02014G20KT P6SM SCT007 OVC012 FM091300 02016G24KT P6SM BKN009 OVC016 FM091700 02015G22KT P6SM SCT008 BKN015 FM092200 02012G17KT P6SM SCT020 BKN035 FM100300 02012KT P6SM SCT100", "KSAW 091128Z 0912/1012 19008KT 1/4SM FZFG VV002 FM091300 19009KT 1/2SM FZFG VV002 FM091400 19010KT 3SM BR BKN006 FM091500 20012KT P6SM SCT008 FM091700 20015G22KT P6SM BKN150 FM100000 20010KT P6SM BKN080 WS020/23040KT", "KSBA 091147Z 0912/1012 VRB03KT 1/4SM FG OVC002 FM091500 VRB03KT 2SM BR BKN003 FM091630 VRB03KT P6SM BKN008 FM091730 16008KT P6SM SCT200 FM092100 24008KT P6SM BKN200 FM100200 VRB03KT P6SM SKC FM100700 VRB03KT 2SM BR OVC003", "KSBD 091120Z 0912/1012 VRB04KT P6SM FEW250 FM092300 25011KT P6SM FEW250 FM100400 VRB04KT P6SM FEW250", "KSBM 091120Z 0912/1012 23003KT 5SM BR SKC FM091300 20008KT P6SM SKC FM091900 17011KT P6SM SCT250 FM100400 20010KT P6SM BKN220", "KSBN 091120Z 0912/1012 11005KT P6SM SKC FM091500 16008KT P6SM SKC", "KSBP 091147Z 0912/1012 VRB03KT 3SM BR BKN002 FM091300 30006KT P6SM SKC FM091700 VRB03KT P6SM SKC FM092000 31010KT P6SM SKC FM100400 VRB03KT 4SM BR BKN005 FM100800 VRB03KT 1/2SM FG VV002", "KSBY 091120Z 0912/1012 03008KT P6SM SCT250 FM091400 06011G19KT P6SM SKC FM092200 07010KT P6SM SKC", "KSCK 091120Z 0912/1012 32006KT P6SM SCT250", "KSDF 091120Z 0912/1018 06003KT P6SM SKC FM091400 08011G18KT P6SM SCT250 FM100000 07006KT P6SM SKC FM100600 VRB04KT P6SM SKC", "KSDL 091120Z 0912/1012 VRB03KT P6SM FEW250 FM092000 23005KT P6SM SKC FM100200 VRB03KT P6SM SKC", "KSDY 091123Z 0912/1012 VRB05KT P6SM SCT150 FM091500 27016KT P6SM SKC FM100200 VRB04KT P6SM SKC FM100800 21009KT P6SM SKC", "KSEA 091136Z 0912/1018 15008KT P6SM -RA OVC045 FM091600 15012KT P6SM -RA OVC045 FM091900 18015G25KT 4SM -RA BR OVC020 FM092200 18020G32KT 4SM -RA OVC012 FM100600 21010KT 4SM -RA OVC012 FM100900 03006KT 3SM -RA OVC006", "KSEZ 091120Z 0912/1012 04012KT P6SM FEW250 FM091500 14005KT P6SM SKC FM091700 07009KT P6SM SKC FM100400 06012G22KT P6SM SKC", "KSFB 091123Z 0912/1012 01013KT P6SM OVC006 FM091500 02017G25KT P6SM VCSH SCT008 BKN020 FM100200 02014KT P6SM BKN025", "KSFF 091139Z 0912/1012 04003KT P6SM SCT070 OVC120 FM091600 10003KT P6SM BKN060 OVC080 FM092100 15005KT P6SM OVC060 FM100000 19005KT P6SM -RA OVC040 FM100700 19005KT 6SM -RA BR OVC025", "KSFO 091130Z 0912/1018 19004KT P6SM SKC FM092200 29013KT P6SM FEW200 FM100500 28009KT P6SM FEW007 FEW012 FM101000 28004KT P6SM FEW006 SCT010 FM101200 27003KT P6SM FEW005 BKN010", "KSGF 091120Z 0912/1012 13008KT P6SM SKC FM100000 14010KT P6SM BKN250", "KSGJ 091143Z 0912/1012 36015G24KT 5SM -DZ BR VCSH OVC006 FM091400 02021G33KT 5SM -DZ BR VCSH OVC008 FM091800 03024G36KT 5SM -DZ BR VCSH OVC006 FM100000 03023G32KT 3SM SHRA BR SCT006 OVC015", "KSGR 091122Z 0912/1012 01006KT P6SM SCT025 FM091300 04006KT P6SM BKN025 FM091700 04008KT P6SM BKN035 FM092000 07008KT P6SM BKN070 FM100200 VRB03KT P6SM BKN025", "KSGU 091120Z 0912/1012 VRB04KT P6SM SKC", "KSHR 091120Z 0912/1012 21005KT P6SM SKC", "KSHV 091137Z 0912/1012 03004KT P6SM BKN012 TEMPO 0912/0913 SCT012 FM091500 08006KT P6SM OVC013 FM091800 07008KT P6SM BKN023 FM092000 06008KT P6SM BKN035 FM100600 06004KT P6SM BKN035", "KSJC 091130Z 0912/1012 20003KT P6SM SKC FM092100 33011KT P6SM FEW250 FM100500 32004KT P6SM FEW015 FM101100 28003KT P6SM SCT012", "KSJS 091131Z 0912/1012 VRB03KT P6SM SKC FM091500 06008KT P6SM SKC", "KSJT 091139Z 0912/1012 15005KT P6SM BKN008 FM091500 15005KT P6SM BKN020 FM091700 13008KT P6SM SCT040 FM100300 10010KT P6SM VCTS BKN050CB FM100700 12009KT P6SM VCTS BKN017CB FM101000 VRB05KT P6SM VCTS BKN009CB", "TAF KSKA 091100Z 0911/1017 12006KT 9999 BKN060 620603 QNH3007INS BECMG 0917/0918 20012G22KT 9999 BKN060 620607 QNH3006INS BECMG 0922/0923 18006KT 9000 -RA BKN020 OVC050 620209 QNH3008INS BECMG 1005/1006 19012KT 3200 -RA BR BKN005 OVC015 620059 QNH2989INS TX13/0919Z TN03/0913Z", "TAF KSKF 091000Z 0910/1016 02005KT 9999 OVC008 QNH3005INS BECMG 0911/0912 02004KT 9000 BR OVC005 QNH3007INS TEMPO 0911/0915 OVC007 BECMG 0914/0915 02004KT 9999 NSW OVC008 QNH3015INS BECMG 0915/0916 07010KT 9999 OVC012 QNH3012INS BECMG 0917/0918 09014KT 9999 SCT040 QNH3008INS BECMG 1007/1008 13004KT 9000 BR OVC018 QNH3010INS BECMG 1014/1015 10010KT 9999 NSW BKN020 QNH3017INS TX23/0923Z TN13/0912Z", "KSLC 091342Z 0914/1018 16004KT P6SM FEW120 SCT200 FM091700 33006KT P6SM FEW200 FM100300 15005KT P6SM SKC", "KSLE 091130Z 0912/1012 17005KT P6SM -RA OVC060 FM091900 18011G18KT 6SM -RA BR BKN022 OVC035 FM092200 19011KT 5SM RA BR BKN015 OVC025 FM100700 21005KT 6SM -RA BR BKN015 OVC025", "TAF KSLI 091300Z 0913/1019 VRB06KT 8000 BR BKN004 BKN011 QNH3008INS BECMG 0916/0917 VRB06KT 8000 BR SCT005 QNH2999INS TX21/1000Z TN10/1015Z", "KSLK 091120Z 0912/1012 VRB04KT P6SM FEW250", "KSLN 091122Z 0912/1012 17008KT P6SM SCT100 OVC200 FM091700 17012KT P6SM VCSH OVC120 FM100100 17008KT P6SM VCSH OVC090", "KSME 091131Z 0912/1012 VRB04KT P6SM SKC FM091300 07007KT P6SM SKC", "KSMF 091120Z 0912/1012 33006KT P6SM SCT250 FM092100 16006KT P6SM SCT250", "KSMN 091120Z 0912/1012 20005KT P6SM SKC FM091900 21009KT P6SM SCT100 FM100300 15005KT P6SM BKN100", "KSMO 091306Z 0913/1012 VRB03KT 2SM BR OVC002 FM091430 VRB03KT 4SM BR OVC004 FM091600 VRB03KT 5SM BR OVC007 FM091900 23008KT P6SM SCT250 FM100300 VRB03KT P6SM SCT008 FM100600 VRB03KT 3SM BR OVC005", "KSMX 091306Z 0913/1012 VRB03KT 6SM BR OVC004 FM091400 VRB03KT P6SM BKN006 FM091630 VRB03KT P6SM SCT200 FM091900 31008KT P6SM SCT200 FM100400 VRB03KT 4SM BR BKN005 FM100900 VRB03KT 1/2SM FG VV002", "KSNA 091120Z 0912/1012 VRB04KT 6SM BR OVC006 TEMPO 0912/0915 2SM BR OVC003 FM091800 VRB04KT P6SM SCT007 FM092000 23009KT P6SM FEW250 FM100200 VRB04KT P6SM FEW007 TEMPO 1008/1010 2SM BR OVC003 FM101000 VRB03KT 1SM BR OVC003", "KSNS 091130Z 0912/1012 14004KT P6SM SKC FM092000 29013KT P6SM FEW250 FM100400 31004KT P6SM FEW020", "KSNY 091120Z 0912/1012 31012KT P6SM SKC FM091700 32015G25KT P6SM SKC FM100100 30008KT P6SM SKC", "KSOA 091139Z 0912/1012 VRB03KT P6SM BKN008 FM091700 15007KT P6SM BKN013 FM091800 15008KT P6SM SCT025 FM100900 VRB03KT P6SM BKN008", "KSPI 091120Z 0912/1012 14008KT P6SM SCT250 FM091500 15012KT P6SM SCT250 FM100100 14008KT P6SM SCT250", "KSPS 091120Z 0912/1012 VRB04KT P6SM SCT080 SCT250 FM091500 16007KT P6SM BKN180 FM100100 13006KT P6SM BKN100 FM101000 13005KT P6SM BKN040", "KSRQ 091123Z 0912/1012 03009KT P6SM VCSH SCT015 BKN025 TEMPO 0912/0913 4SM SHRA BKN015 FM091700 04013G22KT P6SM SCT020 BKN050 FM100200 04010KT P6SM SCT050 SCT250", "TAF KSSC 090700Z 0907/1013 03015G20KT 4800 -RA BR OVC007 QNH3020INS TEMPO 0907/0912 OVC010 BECMG 0911/0912 04015G25KT 9999 NSW SCT007 OVC015 QNH3028INS BECMG 0917/0918 04020G30KT 9999 SCT040 QNH3030INS BECMG 0920/0921 05015G25KT 9999 SKC QNH3028INS BECMG 0923/0924 04009KT 9999 SKC QNH3031INS TX15/0921Z TN04/0911Z LAST NO AMDS AFT 0907 NEXT 0915", "KSSF 091130Z 0912/1012 03004KT P6SM OVC007 FM091600 05004KT P6SM BKN012 FM091900 10006KT P6SM BKN035 FM100900 08003KT P6SM OVC025", "KSSI 091143Z 0912/1012 36015G25KT 6SM -DZ BR VCSH OVC008 FM091500 02018G30KT 5SM -DZ BR VCSH BKN008 OVC015 FM092100 02020G34KT 6SM -DZ BR VCSH BKN010 OVC015 FM100100 02018G32KT 5SM -DZ BR VCSH BKN009 OVC015 FM100400 04016G27KT P6SM VCSH SCT009 BKN015 OVC025", "KSTC 091120Z 0912/1012 17013G20KT P6SM BKN190 WS020/21045KT FM091500 18010KT P6SM BKN130 TEMPO 0916/0920 5SM -SHRA BR BKN040 FM092200 20008KT P6SM SCT080 FM100800 29005KT 5SM BR SCT040", "KSTJ 091120Z 0912/1012 16006KT P6SM SKC FM091300 15007KT P6SM FEW240", "KSTL 091120Z 0912/1018 VRB04KT P6SM FEW250 FM091500 13010KT P6SM FEW250 FM100100 VRB04KT P6SM FEW250", "KSTS 091130Z 0912/1012 29003KT P6SM SKC FM092200 19010KT P6SM SCT200 FM100400 17004KT P6SM SCT012 SCT200 FM101000 30003KT P6SM BKN014", "KSUA 091123Z 0912/1012 24004KT P6SM SCT120 BKN250 FM091600 35012G18KT P6SM VCSH BKN035 FM100000 03016G24KT P6SM VCSH BKN035 AMD NOT SKED", "KSUN 091127Z 0912/1018 32007KT P6SM SCT200 FM091800 14007KT P6SM FEW060 FM100300 32006KT P6SM FEW200 AMD LTD TO CLD VIS AND WIND TIL 091400", "KSUS 091120Z 0912/1012 VRB03KT P6SM FEW250 FM091500 13010KT P6SM FEW250 FM100100 VRB04KT P6SM FEW250", "TAF KSUU 091055Z 0911/1017 VRB06KT 9999 SKC QNH3015INS TEMPO 0914/0916 8000 BR BECMG 0922/0923 23009KT 9999 SKC QNH3009INS TX24/0923Z TN06/0914Z", "KSUX 091122Z 0912/1012 13010KT P6SM BKN180 WS011/18040KT FM091400 17012G19KT P6SM BKN180 FM092200 18010KT P6SM VCSH OVC090 FM100200 16006KT P6SM BKN120 FM100800 VRB04KT P6SM FEW250", "KSWF 091120Z 0912/1018 VRB03KT P6SM SCT250 FM091700 02006KT P6SM FEW250 FM092100 VRB04KT P6SM SCT250 FM101400 28005KT P6SM FEW250 AMD NOT SKED", "KSWO 091120Z 0912/1012 13005KT P6SM FEW250 FM091500 17008KT P6SM SCT250 FM100300 15007KT P6SM BKN100", "KSYM 091131Z 0912/1012 VRB04KT P6SM SKC FM091400 08007KT P6SM SKC AMD NOT SKED", "KSYR 091120Z 0912/1012 00000KT P6SM SKC FM091400 34006KT P6SM SKC FM100200 00000KT P6SM SKC", "KTCC 091128Z 0912/1012 14008KT P6SM SCT100 SCT150 FM091400 23006KT P6SM FEW150 FM092000 06008KT P6SM SCT100 SCT250 FM100200 13006KT P6SM SCT200", "KTCL 091408Z 0914/1012 08010KT P6SM BKN024 FM091600 08010KT P6SM BKN045 FM092200 05008KT P6SM BKN070 FM100100 VRB03KT P6SM SCT250", "TAF COR KTCM 091320Z 0913/1019 16009KT 9000 -RA BKN035 OVC050 620609 QNH2996INS BECMG 0917/0918 18015G25KT 8000 -RA BR BKN020 OVC040 620909 510009 QNH2997INS BECMG 0920/0921 18025G35KT 9000 -SHRA OVC025 610909 530009 QNH2997INS BECMG 1001/1002 21012G22KT 6000 -RA BR OVC015 620709 520009 QNH3000INS BECMG 1004/1005 24012G18KT 8000 -RA BKN020 OVC030 620709 510109 QNH3006INS BECMG 1011/1012 31006KT 9000 -SHRA BKN010 OVC020 610509 QNH2996INS TX12/0921Z TN09/0913Z", "KTCS 091126Z 0912/1012 30010KT P6SM SKC", "KTEB 091120Z 0912/1018 03005KT P6SM SCT250 FM091500 09010KT P6SM FEW250 FM091900 15006KT P6SM FEW250 FM092300 18005KT P6SM FEW250 FM100200 VRB03KT P6SM FEW250 FM101400 28006KT P6SM FEW250", "KTEX 091120Z 0912/1012 13006KT P6SM SKC FM091500 VRB03KT P6SM SCT200 FM091800 33008KT P6SM SCT200 FM100200 13010KT P6SM SKC", "TAF KTIK 090900Z 0909/1015 15009KT 9999 SKC QNH3012INS BECMG 0915/0916 18012G18KT 9999 FEW200 QNH3018INS BECMG 0921/0922 18009KT 9999 SCT030 QNH3015INS TX23/0921Z TN08/0912Z", "KTIX 091123Z 0912/1012 36015G23KT P6SM BKN010 FM091500 01018G25KT P6SM VCSH SCT015 BKN020 FM100200 02018G25KT P6SM VCSH BKN025", "KTLH 091120Z 0912/1012 04011KT P6SM OVC007 FM091500 04013G20KT P6SM BKN015 OVC025 FM092000 04014G23KT P6SM OVC025 FM100600 06011KT P6SM OVC015 WS010/06040KT", "KTMB 091131Z 0912/1012 VRB04KT P6SM FEW030 SCT100 SCT250 FM091500 30008KT P6SM SCT030 BKN050 FM091800 01012KT P6SM VCTS BKN025CB BKN050 TEMPO 0919/0922 VRB15G25KT 5SM TSRA BKN025CB FM100100 03010KT P6SM VCSH SCT030 BKN060 BKN250", "KTOI 091131Z 0912/1012 04009G17KT P6SM OVC011 FM092000 06013KT P6SM OVC020 FM092300 06012KT P6SM BKN035 FM100200 05005KT P6SM SCT090", "KTOL 091120Z 0912/1012 10005KT P6SM FEW250", "KTOP 091120Z 0912/1012 13005KT P6SM SCT200 FM091400 16009KT P6SM SCT200 FM100100 14006KT P6SM BKN150 FM100700 14006KT P6SM VCSH SCT070 BKN110", "KTPA 091123Z 0912/1018 02007KT P6SM VCSH SCT015 BKN025 FM091600 04011G20KT P6SM SCT020 BKN050 FM100200 03010KT P6SM BKN050 FM101300 03010KT P6SM SCT050 SCT250", "KTPH 091120Z 0912/1012 VRB06KT P6SM SKC", "KTRI 091127Z 0912/1012 VRB03KT P6SM SKC FM091600 06008KT P6SM SKC FM100000 08004KT P6SM SKC", "KTRK 091120Z 0912/1012 00000KT 1/2SM FZFG BKN001 FM091600 VRB03KT P6SM SCT250 FM092200 27008KT P6SM FEW080 SCT250 FM100200 VRB03KT P6SM SCT250", "KTRM 091120Z 0912/1012 VRB05KT P6SM FEW250 FM091900 15008KT P6SM FEW250 FM100400 32008KT P6SM SCT250", "KTTD 091130Z 0912/1012 09007KT P6SM -RA OVC050 FM091800 11009KT P6SM -RA SCT025 OVC035 FM092100 12008KT 5SM -RA BR BKN022 OVC035 FM100100 17006KT 4SM RA BR BKN015 OVC025 FM100700 20005KT 6SM -RA BR OVC015", "KTTN 091120Z 0912/1012 06005KT P6SM SKC FM092300 15006KT P6SM SKC FM100300 00000KT P6SM SKC", "KTUL 091120Z 0912/1012 15008KT P6SM SCT250", "KTUP 091120Z 0912/1012 08006KT P6SM OVC015 FM091400 12009KT P6SM OVC015 FM092000 08008KT P6SM SCT250 FM100500 07004KT P6SM SKC", "KTUS 091131Z 0912/1012 15007KT P6SM SCT250 FM091600 VRB03KT P6SM SCT250 FM092000 33009KT P6SM FEW250 FM100500 23005KT P6SM SKC FM100800 14007KT P6SM SKC", "KTVC 091132Z 0912/1012 18008KT P6SM SKC FM091800 20010G18KT P6SM SKC FM100000 23013G22KT P6SM SCT200", "KTVF 091120Z 0912/1012 21010KT P6SM SCT210 FM091500 18008KT P6SM FEW200 FM091900 20011KT P6SM FEW200 FM100500 VRB05KT P6SM FEW150", "KTVL 091120Z 0912/1012 VRB03KT P6SM SCT250 FM091800 03007KT P6SM FEW080 SCT250 FM100200 VRB03KT P6SM SCT250", "KTWF 091121Z 0912/1012 17008KT P6SM SCT070 FM091800 07007KT P6SM BKN200 FM092200 03007KT P6SM SCT200", "KTXK 091137Z 0912/1012 06003KT P6SM BKN030 TEMPO 0912/0914 OVC013 FM091400 08005KT P6SM OVC013 FM091700 08006KT P6SM BKN023 FM091900 08006KT P6SM BKN035 FM100200 08003KT P6SM BKN035", "KTYR 091137Z 0912/1012 08003KT P6SM SCT035 SCT250 TEMPO 0913/0915 BKN025 FM091500 09007KT P6SM BKN023 FM091700 08007KT P6SM BKN035 FM100600 06004KT P6SM SCT035 SCT150 BKN250", "KTYS 091127Z 0912/1012 03005KT P6SM FEW070 FM091700 05009KT P6SM FEW250 FM100000 05004KT P6SM SKC", "KUAO 091130Z 0912/1012 15005KT P6SM -RA OVC050 FM091900 19011G17KT 6SM -RA BR BKN022 OVC035 FM092200 19009KT 5SM RA BR BKN015 OVC025 FM100700 20005KT 6SM -RA BR OVC015", "KUES 091120Z 0912/1012 18004KT P6SM SKC FM091400 20009KT P6SM FEW250 FM092200 20010KT P6SM BKN250", "KUIN 091120Z 0912/1012 15012KT P6SM SCT250 FM100100 15006KT P6SM SCT250", "KUKI 091120Z 0912/1012 00000KT P6SM SKC FM092000 VRB05KT P6SM BKN200", "KUNV 091120Z 0912/1012 VRB03KT P6SM SKC", "KUTS 091122Z 0912/1012 VRB02KT P6SM OVC025 FM091700 05005KT P6SM BKN023 FM092100 05006KT P6SM BKN040 FM100700 VRB04KT P6SM BKN014", "KVCT 091120Z 0912/1012 02006KT 4SM BR SCT020 TEMPO 0912/0915 3SM BR BKN020 FM091500 08007KT P6SM SCT025 BKN035 FM100900 05004KT 5SM BR BKN025", "KVEL 091120Z 0912/1012 VRB03KT P6SM FEW100 SCT200 FM091800 VRB04KT P6SM FEW080 FM100200 33004KT P6SM SKC", "KVGT 091120Z 0912/1012 33005KT P6SM FEW250 FM091700 08007KT P6SM SKC FM100400 33007KT P6SM SKC", "KVIS 091120Z 0912/1012 VRB04KT P6SM SCT200", "KVLD 091120Z 0912/1012 03010KT P6SM BKN009 OVC015 FM091700 05012G18KT P6SM OVC015 FM100400 05011KT P6SM OVC015 WS010/06040KT", "KVNY 091341Z 0914/1012 00000KT 1 1/2SM BR BKN004 FM091600 VRB03KT P6SM SCT004 FM092100 14007KT P6SM SCT200 FM100500 VRB03KT P6SM SCT200", "TAF KVOK 090900Z 0909/1015 VRB06KT 9999 SKC QNH3029INS BECMG 0916/0917 21012G18KT 9999 FEW120 510003 QNH3027INS BECMG 0922/0923 20009KT 9999 FEW130 BKN170 BKN240 QNH3026INS TX18/0920Z TN00/0910Z", "TAF AMD KVPS 091215Z 0912/1015 02010KT 9999 BKN008 OVC015 QNH3005INS TEMPO 0912/0915 03012G18KT BKN010 BECMG 0914/0915 03012G20KT 9999 BKN015 OVC030 QNH3008INS BECMG 0923/0924 05013G23KT 9999 BKN020 OVC040 QNH3015INS BECMG 1006/1007 06012KT 9999 OVC025 QNH3018INS BECMG 1012/1013 07012G18KT 9999 OVC030 QNH3020INS TX19/0920Z TN10/0912Z", "KVQQ 091143Z 0912/1012 36013G20KT 5SM -DZ BR VCSH OVC006 FM091400 01016G26KT 6SM -DZ BR VCSH OVC005 FM092200 03018G29KT P6SM VCSH BKN012 FM100300 02012G21KT P6SM VCSH BKN008 OVC012 FM100900 02015G23KT 5SM BR VCSH BKN012 OVC025", "KVRB 091358Z 0914/1012 36017G23KT P6SM SCT015 BKN020 FM091500 01016G24KT P6SM VCSH BKN025 FM100000 03016G26KT P6SM VCSH BKN035", "KVTN 091120Z 0912/1012 27006KT P6SM FEW200 FM091400 27008KT P6SM FEW250", "KWJF 091147Z 0912/1012 VRB05KT P6SM SKC FM091800 04007KT P6SM SCT200 FM100000 28007KT P6SM SCT200 FM100600 VRB03KT P6SM SCT200", "KWMC 091120Z 0912/1012 VRB06KT P6SM SKC AMD NOT SKED", "TAF KWRB 090800Z 0908/1014 03010G15KT 9999 OVC010 QNH3017INS BECMG 0914/0915 04015G25KT 9999 SCT010 OVC020 QNH3027INS BECMG 0922/0923 05010G15KT 9999 FEW030 BKN080 QNH3023INS BECMG 1002/1003 05008KT 9999 FEW050 BKN080 QNH3025INS BECMG 1012/1013 05012G20KT 9999 FEW250 QNH3038INS TX18/0921Z TN06/0911Z", "TAF KWRI 091000Z 0910/1016 VRB03KT 9999 SKC QNH3040INS BECMG 0913/0914 08008KT 9999 SKC QNH3042INS BECMG 1002/1003 VRB05KT 9999 SKC QNH3045INS BECMG 1011/1012 21006KT 9999 FEW250 QNH3044INS TX14/0920Z TNM01/0910Z", "KWRL 091121Z 0912/1012 VRB04KT P6SM SCT150 FM091800 16008KT P6SM SKC", "KWWR 091120Z 0912/1012 18008KT P6SM BKN120 FM091400 19012G18KT P6SM VCTS BKN080CB FM100000 16008KT P6SM BKN100 FM100700 20005KT P6SM BKN220", "KXNA 091120Z 0912/1012 13007KT P6SM SCT018 TEMPO 0913/0917 BKN018 FM091800 13007KT P6SM FEW050 SCT250", "KXWA 091120Z 0912/1012 24007KT P6SM SCT200 FM091500 26011KT P6SM FEW250 FM100300 20007KT P6SM FEW250", "KYIP 091120Z 0912/1012 07003KT P6SM SKC FM091400 14007KT P6SM SKC FM100800 21003KT P6SM SCT250", "KYKM 091120Z 0912/1012 20004KT P6SM OVC080 FM091800 18008KT 6SM -RA BR OVC050 FM100000 19006KT 6SM -RA OVC050 FM100700 17003KT P6SM -RA OVC025", "KYNG 091120Z 0912/1012 03005KT P6SM SKC", "KZZV 091120Z 0912/1012 04005KT P6SM SKC FM100200 00000KT P6SM SKC", "TAF LAKU 091100Z 0912/1012 VRB05KT 9999 OVC020 TX11/1011Z TN05/1005Z TEMPO 0913/1001 RA BECMG 1006/1009 02015KT SCT030 BKN060", "TAF COR LATI 091123Z 0912/1012 36010KT 9999 SCT025 OVC050 TX17/1011Z TN06/1004Z TEMPO 0914/0921 SHRA FEW020TCU BKN030 BECMG 0919/0921 VRB03KT PROB40 TEMPO 1001/1006 1200 BCFG NSC", "TAF LBBG 091100Z 0912/1012 10010KT 9999 SCT035 BECMG 0918/0920 02010KT", "TAF LBGO 091100Z 0912/1012 07010KT 9999 SCT050 SCT065 BECMG 0919/0921 VRB04KT TEMPO 1002/1005 4000 BR BKN010 BECMG 1009/1011 02010KT", "TAF LBPD 091100Z 0912/1012 09010KT 9999 SCT040 BKN070 PROB30 TEMPO 0912/0917 5000 SHRA FEW030CB BKN050 BECMG 0920/0922 VRB04KT", "TAF LBSF 091100Z 0912/1012 10010KT 9999 SCT020 BKN035 TEMPO 0912/0916 5000 SHRA FEW030CB BKN050 PROB40 TEMPO 0916/0919 5000 RA SCT015 BKN025 BECMG 0919/0920 VRB04KT TEMPO 1000/1007 3000 BR BKN010 BECMG 1008/1010 05010KT SCT030 BKN070", "TAF LBWN 091100Z 0912/1012 12010KT 9999 SCT035 BECMG 0918/0920 VRB04KT BECMG 1005/1007 03010KT", "TAF LCEN 091040Z 0912/1012 13015KT 9999 FEW020 SCT025 BKN100 PROB30 TEMPO 0912/0916 -RA FEW020 BKN025 BKN080", "TAF LCLK 091130Z 0912/1012 04016KT CAVOK BECMG 0917/0920 34009KT BECMG 1005/1008 19016KT", "TAF LCPH 091130Z 0912/1012 32010KT CAVOK BECMG 0914/0917 02007KT BECMG 1003/1006 15011KT BECMG 1010/1012 27010KT", "TAF LDDU 091125Z 0912/1012 28009KT 9999 FEW050 TX16/1011Z TN10/1004Z PROB30 TEMPO 0912/0916 VRB15KT -TSRA FEW030CB BKN040 PROB30 TEMPO 0916/0921 SHRA FEW030TCU BKN040 BECMG 0917/0919 02010KT TEMPO 0919/1009 VRB12KT PROB40 TEMPO 1000/1009 VRB15G25KT BECMG 1008/1010 26008KT FEW050TCU", "TAF LDLO 091125Z 0912/1012 02015KT 9999 FEW030 TX15/1011Z TN08/1004Z PROB40 TEMPO 0912/0918 22008KT PROB30 TEMPO 0920/1008 02015G25KT", "TAF LDOS 091125Z 0912/1012 02006KT 9999 OVC035 TX14/1011Z TN04/1005Z", "TAF LDPL 091125Z 0912/1012 06012KT 9999 FEW040 TX15/1011Z TN05/1004Z PROB30 TEMPO 0912/0917 30008KT FEW040TCU BECMG 1010/1012 12008KT", "TAF LDRI 091125Z 0912/1012 04012KT 9999 FEW035 TX15/1011Z TN07/1004Z PROB40 TEMPO 0912/1000 VRB08KT PROB40 TEMPO 1000/1012 04015G30KT", "TAF AMD LDSP 091231Z 0912/1012 32012KT 9999 FEW050 TX18/1011Z TN09/1004Z TEMPO 0912/0914 27012KT PROB30 TEMPO 0912/0917 28015G25KT -TSRA FEW040CB SCT045 BECMG 0916/0918 05012KT PROB40 TEMPO 1006/1012 05015G25KT", "TAF LDZA 091125Z 0912/1012 05005KT 9999 BKN035 TX13/1011Z TN03/1005Z TEMPO 0912/0915 04009KT PROB30 TEMPO 0913/0916 SHRA FEW030TCU BKN040 BECMG 1006/1008 03008KT", "TAF LDZD 091125Z 0912/1012 05009KT 9999 FEW050 TX16/1011Z TN07/1004Z PROB30 TEMPO 0912/0915 34010KT PROB30 TEMPO 1008/1012 05015G25KT", "TAF LEAB 091100Z 0912/1012 VRB04KT CAVOK TX28/0915Z TN09/1006Z PROB40 TEMPO 1000/1003 3500 BCFG SCT005", "TAF LEAG 090800Z 0909/1009 10006KT 9999 FEW025 TX23/0913Z TN15/1006Z", "TAF LEAL 091100Z 0912/1012 18010KT 9999 FEW015 TX21/0913Z TN10/1006Z BECMG 0917/0919 VRB03KT PROB40 TEMPO 0922/1008 3000 BR BKN010 BECMG 1008/1010 09010KT", "TAF LEAM 091100Z 0912/1012 20010KT CAVOK TX20/0913Z TN13/1006Z BECMG 0917/0919 VRB03KT", "TAF LEAO 090800Z 0909/1009 VRB04KT CAVOK TX28/0915Z TN06/1006Z BECMG 0909/0911 28010KT BECMG 0920/0921 28006KT", "TAF LEAS 090800Z 0909/1009 30010KT 9999 FEW010 TX16/0910Z TN09/1006Z PROB40 TEMPO 0909/0916 3000 BR BKN005 PROB30 TEMPO 0909/0914 0800 FG VV001 BECMG 0919/0921 VRB03KT PROB40 TEMPO 0921/1006 3000 BR BKN005", "TAF LEBA 090800Z 0909/1009 VRB03KT CAVOK TX30/0915Z TN07/1006Z BECMG 0913/0915 25010KT BECMG 0919/0922 VRB03KT", "TAF LEBB 091100Z 0912/1012 32008KT CAVOK TX26/0912Z TN09/1006Z BECMG 0919/0921 VRB03KT PROB40 TEMPO 0922/1006 3000 BR BKN005 PROB30 TEMPO 0923/1006 0350 FG VV001 BECMG 1009/1011 31008KT", "TAF LEBG 090800Z 0909/1009 VRB04KT CAVOK TX24/0915Z TN03/1006Z BECMG 0909/0910 26010KT BECMG 0916/0917 02010KT", "TAF LEBL 091100Z 0912/1012 22012KT CAVOK TX18/0912Z TN10/1006Z BECMG 0919/0921 24005KT TEMPO 1000/1005 33007KT BECMG 1007/1009 21010KT", "TAF LEBZ 090800Z 0909/1009 VRB03KT CAVOK TX30/0915Z TN08/1006Z BECMG 0913/0915 29010KT", "TAF LECO 090800Z 0909/1009 VRB03KT 9999 FEW005 TX18/0913Z TN09/1006Z PROB40 TEMPO 0909/0910 3000 BR BCFG OVC005 PROB30 TEMPO 0909/0910 0600 FG OVC002 TEMPO 0911/0918 32010KT PROB30 TEMPO 0921/1001 3000 BR BKN005", "TAF LECV 091100Z 0912/1012 VRB04KT CAVOK TX24/0915Z TN10/1006Z PROB40 TEMPO 0918/1005 35006KT", "TAF LEGE 091100Z 0912/1012 18010KT CAVOK TX22/0913Z TN08/1006Z BECMG 0917/0919 VRB03KT PROB30 TEMPO 0921/1006 3000 BR", "TAF LEGR 091100Z 0912/1012 VRB03KT CAVOK TX29/0915Z TN04/1006Z BECMG 0913/0915 33010KT BECMG 0918/0920 VRB03KT", "TAF LEGT 091100Z 0912/1012 VRB04KT CAVOK TX28/0915Z TN10/1006Z PROB40 TEMPO 0913/0919 24011KT PROB30 TEMPO 0923/1006 34007KT", "TAF LEHC 090800Z 0909/1009 VRB04KT CAVOK TX27/0915Z TN10/1005Z BECMG 0911/0913 27010KT BECMG 0918/0920 06005KT PROB30 TEMPO 1002/1006 3000 BR", "TAF LEIB 090800Z 0909/1009 18006KT 9999 FEW015 TX20/0913Z TN09/1005Z PROB40 TEMPO 0920/1007 3000 BR BKN010", "TAF LEJR 090800Z 0909/1009 VRB03KT CAVOK TX29/0915Z TN11/1006Z BECMG 0913/0915 25010KT BECMG 0918/0920 VRB03KT", "TAF LELC 091100Z 0912/1012 13010KT 9999 FEW015 TX23/0913Z TN12/1005Z BECMG 0914/0916 21010KT BECMG 0921/0924 VRB03KT PROB40 TEMPO 1002/1008 BKN014 BECMG 1008/1010 10010KT", "TAF LELL 090800Z 0909/1009 VRB03KT CAVOK TX22/0913Z TN08/1005Z BECMG 0910/0912 20010KT BECMG 0917/0919 VRB03KT", "TAF LELN 090800Z 0909/1009 02005KT 9999 FEW050 TX24/0915Z TN05/1005Z BECMG 0909/0911 26010KT BECMG 0918/0919 34006KT", "TAF LELO 090800Z 0909/1009 12006KT CAVOK TX27/0915Z TN06/1006Z BECMG 0909/0911 28006KT", "TAF LEMD 091100Z 0912/1018 VRB04KT CAVOK TX29/0915Z TN09/1006Z PROB30 TEMPO 0912/0918 23010G22KT PROB40 TEMPO 0919/0924 34006KT PROB40 TEMPO 1011/1018 33006KT", "TAF LEMG 091100Z 0912/1012 12010KT CAVOK TX21/0913Z TN10/1006Z BECMG 0918/0920 VRB03KT BECMG 0923/1002 29010KT", "TAF LEMH 090800Z 0909/1009 22006KT 9999 FEW020 TX17/0912Z TN09/1005Z PROB30 TEMPO 1000/1007 3000 BR BKN010", "TAF LEMO 090800Z 0909/1009 VRB03KT CAVOK TX29/0915Z TN11/1006Z BECMG 0914/0916 26010KT BECMG 0920/0922 VRB03KT", "TAF LEPA 091100Z 0912/1012 22010KT 9999 FEW020 TX20/0912Z TN07/1006Z BECMG 0918/0920 VRB04KT PROB40 TEMPO 1000/1007 3000 BR BKN010 PROB30 TEMPO 1000/1006 0800 BCFG VV003 BECMG 1008/1010 22010KT", "TAF LEPP 090800Z 0909/1009 VRB03KT CAVOK TX25/0915Z TN05/1006Z TEMPO 0914/0921 35010KT", "TAF LERI 091100Z 0912/1012 VRB03KT CAVOK TX29/0913Z TN08/1006Z BECMG 0914/0916 24010KT BECMG 0918/0920 VRB03KT PROB30 TEMPO 1002/1006 BKN014", "TAF LERL 090800Z 0909/1009 VRB04KT CAVOK TX28/0915Z TN06/1006Z BECMG 0909/0911 28010KT BECMG 0920/0921 28006KT", "TAF LERS 090800Z 0909/1009 20010KT CAVOK TX19/0913Z TN09/1005Z TEMPO 0909/0911 VRB04KT BECMG 0918/0920 VRB03KT PROB40 TEMPO 0920/1006 3000 BR BKN010", "TAF AMD LERT 090829Z 0909/1009 12007KT CAVOK TX23/0913Z TN15/1006Z BECMG 0909/0912 26010KT BECMG 0920/0922 VRB03KT", "TAF LESA 090800Z 0909/1009 VRB04KT CAVOK TX26/0915Z TN05/1005Z BECMG 0909/0911 26010KT BECMG 0920/0921 VRB05KT", "TAF LESO 091100Z 0912/1012 VRB02KT CAVOK TX21/0914Z TN10/1006Z PROB30 TEMPO 0912/0915 03010KT TEMPO 0916/0922 26010KT PROB40 TEMPO 0919/1009 3000 BR BKN005 PROB30 TEMPO 0920/1004 0600 FG VV001", "TAF LEST 091100Z 0912/1012 24007KT CAVOK TX20/0913Z TN09/1002Z TEMPO 1000/1009 3000 BR BKN010 PROB40 TEMPO 1000/1007 0800 BCFG BKN002", "TAF LESU 090800Z 0909/1009 VRB03KT 9999 FEW060 TX25/0914Z TN05/1006Z TEMPO 0912/0918 20010KT PROB40 TEMPO 0915/0918 34010KT", "TAF LETO 091100Z 0912/1012 VRB04KT CAVOK TX29/0915Z TN09/1006Z PROB30 TEMPO 0912/0918 23010G22KT PROB40 TEMPO 0919/0924 34006KT PROB40 TEMPO 1011/1012 33006KT", "TAF LEVC 091100Z 0912/1012 10010KT 9999 FEW015 TX22/0913Z TN09/1006Z BECMG 0918/0920 VRB03KT PROB40 TEMPO 1000/1008 3000 BR BKN010 BECMG 1010/1012 09010KT", "TAF LEVD 090800Z 0909/1009 VRB05KT CAVOK TX24/0915Z TN06/1006Z BECMG 0909/0911 26010KT BECMG 0920/0922 VRB05KT", "TAF LEVS 091100Z 0912/1012 VRB04KT CAVOK TX28/0915Z TN10/1006Z PROB40 TEMPO 0912/0919 24011KT PROB30 TEMPO 0923/1006 34007KT", "TAF LEVT 091100Z 0912/1012 VRB03KT CAVOK TX25/0915Z TN04/1006Z TEMPO 0912/0914 24010KT TEMPO 0914/0919 02010KT", "TAF LEVX 091100Z 0912/1012 VRB03KT CAVOK TX18/0912Z TN10/1001Z TEMPO 0912/0919 29010KT PROB40 TEMPO 0920/1005 3000 BR BCFG BKN005 PROB30 TEMPO 0922/1005 0600 FG VV001 PROB30 TEMPO 1005/1009 3000 BR BKN010", "TAF AMD LEXJ 091206Z 0912/1009 28008KT CAVOK TX19/0912Z TN08/1006Z PROB30 TEMPO 0913/0916 BKN005 PROB40 0922/1009 3000 BR BKN005 PROB30 TEMPO 1000/1008 0800 BCFG BKN001", "TAF LEZG 091100Z 0912/1012 32006KT CAVOK TX28/0915Z TN12/1006Z", "TAF LEZL 090800Z 0909/1009 VRB03KT CAVOK TX31/0915Z TN13/1006Z BECMG 0913/0915 26010KT BECMG 0920/0922 VRB03KT", "TAF LFAQ 091100Z 0912/0921 14005KT CAVOK", "TAF AMD LFAT 091317Z 0913/0921 31010KT 9999 SCT030 PROB30 TEMPO 0913/0915 4000 BR", "TAF LFBA 091100Z 0912/0921 VRB03KT CAVOK", "TAF LFBD 091100Z 0912/1018 09005KT CAVOK TX23/0915Z TN10/1004Z BECMG 0912/0914 VRB02KT BECMG 1002/1004 25010KT 3000 BR OVC003 BECMG 1008/1010 9999 NSW SCT015 PROB30 TEMPO 1015/1018 4000 -RA BKN005 OVC015", "TAF LFBE 091100Z 0912/1012 VRB03KT CAVOK BECMG 1006/1008 24005KT PROB30 TEMPO 1007/1009 BKN005", "TAF LFBH 091100Z 0912/1012 10005KT CAVOK TEMPO 0912/0918 VRB05KT BECMG 1002/1004 2000 BR OVC002 PROB40 TEMPO 1004/1007 0600 FG TEMPO 1007/1009 BKN006 BECMG 1006/1009 25010KT TEMPO 1010/1012 BKN008", "TAF LFBI 091100Z 0912/1012 10007KT CAVOK BECMG 1009/1012 25010KT", "TAF LFBL 091100Z 0912/1012 VRB03KT CAVOK BECMG 1010/1012 24010KT", "TAF LFBM 090800Z 0909/1009 06003KT CAVOK TEMPO 0922/0924 24010KT SCT006 BKN008 BECMG 1001/1002 2000 BR OVC003 PROB30 TEMPO 1002/1005 0500 FG BECMG 1005/1007 SCT005 BKN008 BECMG 1007/1008 FEW008 BKN011 BECMG 1008/1009 SCT018", "TAF LFBO 091100Z 0912/1018 VRB03KT CAVOK BECMG 1009/1011 27006KT BECMG 1014/1016 29011KT", "TAF LFBP 091100Z 0912/1012 VRB04KT CAVOK BECMG 1001/1003 BKN005 PROB30 TEMPO 1005/1007 2000 BR BECMG 1007/1008 BKN008 BECMG 1008/1010 29010KT CAVOK", "TAF LFBT 091100Z 0912/1012 VRB04KT CAVOK BECMG 1010/1012 29010KT", "TAF LFBU 091100Z 0912/1012 VRB03KT CAVOK BECMG 1008/1010 24010KT", "TAF LFBZ 091100Z 0912/1012 09005KT CAVOK BECMG 0912/0913 33005KT BECMG 0918/0920 27010KT BKN005 PROB30 TEMPO 1000/1006 3000 BR BKN003 BECMG 1008/1010 BKN010 BECMG 1010/1012 SCT015", "TAF LFCK 091100Z 0912/0921 VRB03KT CAVOK", "TAF LFCR 091100Z 0912/1012 VRB04KT CAVOK", "TAF LFGJ 091100Z 0912/0921 04010KT CAVOK", "TAF LFJL 091100Z 0912/1012 09008KT CAVOK", "TAF LFKB 090800Z 0909/1009 04006KT CAVOK TX18/0912Z TN06/1004Z", "TAF LFKC 090800Z 0909/1009 01008KT CAVOK TX20/0910Z TN07/1003Z", "TAF LFKF 090800Z 0909/1009 23012KT CAVOK PROB40 TEMPO 0911/0915 SHRA SCT030CB PROB30 TEMPO 0912/0914 06010KT BECMG 0919/0921 VRB03KT", "TAF LFKJ 090800Z 0909/1009 22010KT CAVOK PROB40 TEMPO 0911/0915 FEW035CB BECMG 0917/0919 05004KT", "TAF LFKS 090800Z 0909/1009 14007KT CAVOK TEMPO 0913/0916 SCT050CB PROB30 TEMPO 0913/0916 TS", "TAF LFLB 090800Z 0909/1009 VRB02KT CAVOK TEMPO 0910/0915 36010KT", "TAF LFLC 091100Z 0912/1012 02004KT CAVOK BECMG 1004/1006 18010KT", "TAF LFLL 091100Z 0912/1018 36005KT CAVOK BECMG 0920/0922 18005KT", "TAF LFLN 091100Z 0912/0921 05005KT CAVOK", "TAF LFLP 090800Z 0909/1009 VRB03KT CAVOK", "TAF LFLS 090800Z 0909/1009 VRB03KT CAVOK TEMPO 1002/1009 09004KT", "TAF LFLW 091100Z 0912/0921 27004KT CAVOK", "TAF LFLX 091100Z 0912/1018 09008KT CAVOK BECMG 1009/1012 23010KT TEMPO 1014/1018 25015G25KT", "TAF LFLY 091100Z 0912/1012 36005KT CAVOK BECMG 0920/0922 18005KT", "TAF LFMD 090800Z 0909/1009 13006KT 9999 FEW020 PROB30 TEMPO 0915/0918 SHRA SCT060TCU PROB30 TEMPO 1002/1006 BKN008", "TAF LFMI 090800Z 0909/1009 VRB04KT CAVOK TX20/0913Z TN05/1006Z TEMPO 0912/0918 17010KT", "TAF LFMK 090800Z 0909/1009 VRB03KT CAVOK TEMPO 0909/0912 08008KT TEMPO 0916/0919 29008KT", "TAF LFML 090800Z 0909/1015 VRB04KT CAVOK TX20/0915Z TN08/1006Z TEMPO 0913/0918 20010KT BECMG 1010/1012 20010KT", "TAF LFMN 090800Z 0909/1015 11008KT 9999 FEW020 TEMPO 0921/1007 33010KT", "TAF AMD LFMO 091259Z 0912/1009 VRB03KT CAVOK TX22/0914Z TN08/1005Z BECMG 0916/0917 21012KT BECMG 0919/0921 15006KT PROB30 TEMPO 1004/1006 3000 BR", "TAF LFMP 090800Z 0909/1009 09008KT CAVOK", "TAF LFMT 090800Z 0909/1009 03006KT CAVOK BECMG 0911/0913 20010KT BECMG 0921/0923 36004KT PROB30 TEMPO 1002/1008 4500 BR", "TAF LFMU 090800Z 0909/1009 03006KT CAVOK BECMG 0910/0912 17010KT BECMG 0918/0920 VRB02KT PROB30 TEMPO 1002/1008 4500 BR", "TAF LFMV 090800Z 0909/1009 VRB05KT CAVOK PROB40 TEMPO 1000/1005 3000 BR", "TAF AMD LFOA 091130Z 0912/1009 09005KT CAVOK TX18/0915Z TN06/1005Z BECMG 1006/1009 23010KT", "TAF LFOB 091100Z 0912/1012 VRB03KT CAVOK", "TAF LFOH 091100Z 0912/1012 14007KT CAVOK", "TAF LFOK 091100Z 0912/1012 12007KT CAVOK", "TAF LFOP 091100Z 0912/0921 16007KT CAVOK", "TAF LFOT 091100Z 0912/1012 12006KT CAVOK BECMG 1009/1012 24010KT", "TAF LFPB 091100Z 0912/1012 14010KT CAVOK BECMG 1010/1012 21015G25KT", "TAF LFPG 091100Z 0912/1018 14010KT CAVOK TX18/1012Z TN08/1005Z BECMG 1010/1012 21015G25KT PROB30 TEMPO 1012/1018 4000 RA BKN013", "TAF LFPN 091100Z 0912/0921 14005KT CAVOK", "TAF LFPO 091100Z 0912/1018 14010KT CAVOK BECMG 1009/1011 20015KT TEMPO 1016/1018 20015G25KT 4000 RA BKN014 BKN030", "TAF LFPV 090800Z 0909/1009 13005KT CAVOK TX17/0915Z TN09/1005Z", "TAF LFQQ 091100Z 0912/1018 15005KT CAVOK BECMG 1013/1016 25015G25KT TEMPO 1013/1018 4000 RA BKN012", "TAF LFRB 091100Z 0912/1018 18012KT CAVOK TEMPO 0915/0919 BKN008 BECMG 0919/0921 OVC008 TEMPO 0920/1009 3000 RADZ BKN005 PROB40 TEMPO 0920/1008 1200 BR BKN002 PROB40 TEMPO 1003/1011 22015G25KT BECMG 1009/1011 25015G25KT BKN015 PROB40 TEMPO 1011/1013 BKN014 PROB40 TEMPO 1014/1017 4000 SHRA BKN020TCU", "TAF LFRC 091100Z 0912/0921 15010KT CAVOK", "TAF LFRD 091100Z 0912/1012 16010KT CAVOK BECMG 1004/1006 22010KT OVC010 TEMPO 1005/1012 3000 RADZ BKN004", "TAF LFRG 091100Z 0912/0921 16008KT CAVOK", "TAF LFRH 091100Z 0912/1012 15010KT CAVOK BECMG 0918/0920 22005KT SCT005 TEMPO 0918/0923 3500 BR BKN005 BECMG 0923/1001 2000 RA BKN004 TEMPO 1000/1004 1400 RA BKN002 PROB40 TEMPO 1000/1004 0700 RA FG VV/// BECMG 1004/1006 23015G25KT RA SCT008 BKN015 BKN035 BECMG 1006/1008 2000 RA BKN002 OVC006 TEMPO 1008/1012 1400 RA OVC001 PROB40 TEMPO 1008/1012 0700 RA FG VV///", "TAF LFRI 091100Z 0912/1012 14006KT CAVOK BECMG 0912/0914 18006KT BECMG 1001/1003 2000 BR BKN002 PROB40 TEMPO 1004/1007 0300 FG VV/// TEMPO 1006/1008 BKN004", "TAF LFRK 091100Z 0912/0921 16008KT CAVOK", "TAF LFRM 091100Z 0912/1012 14006KT CAVOK BECMG 1005/1008 21007KT", "TAF LFRN 091100Z 0912/1012 15010KT CAVOK TEMPO 1002/1012 3000 RADZ BKN004 BECMG 1006/1008 22010KT OVC008 PROB40 TEMPO 1010/1012 23015G25KT", "TAF LFRQ 091100Z 0912/1012 16010KT CAVOK TEMPO 0914/0919 BKN009 BECMG 0915/0917 VRB05KT BECMG 0919/0921 OVC008 TEMPO 0921/1011 3000 RADZ BKN005 PROB40 TEMPO 0921/1009 1200 BR BKN002 BECMG 1002/1004 22010KT BECMG 1010/1012 26015G25KT BKN015", "TAF LFRS 091100Z 0912/1018 10008KT CAVOK BECMG 1001/1003 2000 BR BKN003 TEMPO 1003/1007 1200 BR OVC002 BECMG 1007/1009 23010KT 9999 NSW SCT014 BKN050 TEMPO 1009/1015 4500 -RADZ BKN007 BKN014 TEMPO 1012/1015 4000 -RADZ BKN004 BKN014", "TAF LFRZ 091100Z 0912/1012 09010KT CAVOK BECMG 0912/0914 22012KT TEMPO 0919/0922 15005KT BECMG 0923/1001 4000 BR BKN004 TEMPO 1001/1008 2000 BR OVC002 TEMPO 1003/1008 BKN006 BECMG 1005/1009 21008KT TEMPO 1006/1012 23013KT 4000 -RADZ BKN007", "TAF LFSB 091100Z 0912/1012 11006KT CAVOK", "TAF LFSL 091100Z 0912/0921 VRB03KT CAVOK", "TAF LFST 091100Z 0912/1012 05005KT CAVOK", "TAF LFSX 090800Z 0909/1009 VRB03KT 9999 FEW005 BECMG 0921/0922 2000 BR PROB30 TEMPO 0922/1005 0600 FG BECMG 1005/1007 9999 NSW", "TAF LFTH 090800Z 0909/1009 14010KT 9999 BKN020 BECMG 0909/0911 CAVOK BECMG 0915/0917 VRB04KT TEMPO 1000/1006 3000 BR", "TAF LFTW 090800Z 0909/1009 35010KT CAVOK BECMG 0911/0913 VRB04KT TEMPO 0915/0919 20010KT PROB40 TEMPO 0923/1003 3000 BR PROB40 TEMPO 1001/1005 0800 FG VV///", "TAF LFVP 091100Z 0912/0921 29022KT 9999 SCT045 PROB40 TEMPO 0912/0918 4000 -SHSN BECMG 0915/0917 29022G32KT", "TAF LGAL 091100Z 0912/0921 06018KT 9999 FEW020", "TAF LGAV 091100Z 0912/1012 VRB05KT 9999 SCT020 SCT070 TEMPO 0912/0918 05010KT TEMPO 1006/1012 05010KT BECMG 0912/0914 SCT020 BKN070 PROB30 TEMPO 0918/1012 5000 RA FEW018TCU SCT025 BKN070 PROB30 TEMPO 0918/0924 3000 TSRA FEW010 FEW018CB BKN020 BKN070", "TAF LGEL 091100Z 0912/1012 VRB05KT 9999 SCT020 BKN070 TEMPO 0912/0916 18010KT PROB30 TEMPO 0912/1012 5000 RA FEW018TCU SCT025 BKN070 PROB30 TEMPO 0918/0924 3000 TSRA FEW010 FEW018CB BKN020 BKN070", "TAF LGHI 091100Z 0912/0921 VRB05KT 9999 FEW020 SCT060", "TAF LGIO 091100Z 0912/0921 VRB03KT 9999 FEW010 SCT025 BKN070 TEMPO 0912/0918 5000 RA PROB30 TEMPO 0914/0918 4000 TSRA FEW008 FEW018CB BKN025 BKN070", "TAF LGIR 091100Z 0912/1012 VRB05KT 9999 SCT018 BKN080 BECMG 0919/0921 32010KT PROB30 TEMPO 1006/1012 5000 RA FEW018TCU SCT025 BKN080", "TAF LGKC 091100Z 0912/0921 07012KT 9999 FEW018 SCT030 TEMPO 0913/0918 VRB05KT BECMG 0918/0920 30010KT", "TAF LGKF 091100Z 0912/0921 VRB05KT 9999 SCT018 BKN080 PROB40 TEMPO 0912/0921 5000 RA FEW018TCU BKN025 BKN070 TEMPO 0912/0914 26010KT", "TAF LGKO 091100Z 0912/1012 VRB05KT 9999 FEW018 BKN050 BECMG 0916/0918 34010KT PROB30 TEMPO 1001/1009 5000 RA FEW018TCU BKN025", "TAF LGKR 091100Z 0912/1012 VRB05KT 9999 FEW006 FEW018TCU BKN025 OVC080 TEMPO 0915/0921 11010KT PROB40 TEMPO 0912/1012 5000 RA FEW018TCU BKN025 BKN070 PROB30 TEMPO 0912/0921 3000 TSRA SCT010 FEW018CB BKN020 BKN070", "TAF LGKV 091100Z 0912/1012 05010KT 9999 FEW025 SCT080 BECMG 0920/0922 SCT025 BKN080", "TAF LGMK 091100Z 0912/0921 01010KT 9999 FEW018 SCT050", "TAF LGMT 091100Z 0912/0921 VRB05KT 9999 SCT020 TEMPO 0915/0918 35008KT", "TAF LGPZ 091100Z 0912/1012 28010KT 9999 SCT018 BKN080 PROB40 TEMPO 0912/1012 5000 RA FEW018TCU BKN025 BKN070 PROB40 TEMPO 0912/0918 3000 TSRA SCT010 FEW018CB BKN020 BKN070 TEMPO 0918/1006 05008KT", "TAF LGRP 091100Z 0912/1012 VRB05KT 9999 FEW018 BKN050 PROB30 TEMPO 1003/1012 5000 RA FEW018TCU BKN025 BECMG 1001/1003 28010KT", "TAF LGSA 091100Z 0912/1012 08010KT 9999 SCT018 BKN080 BECMG 0919/0921 30010KT PROB30 TEMPO 1003/1012 5000 RA FEW018TCU SCT025 BKN080", "TAF LGSK 091100Z 0912/0921 03012KT 9999 FEW018 SCT030 TEMPO 0918/0921 5000 RA FEW018TCU BKN025 BKN060", "TAF LGSM 091100Z 0912/0921 VRB05KT 9999 FEW020 SCT060", "TAF LGSR 091100Z 0912/1012 01012KT 9999 FEW018 SCT035 BECMG 1001/1003 30012KT PROB30 TEMPO 1006/1012 5000 RA FEW018TCU BKN025", "TAF LGST 091100Z 0912/0921 VRB05KT 9999 FEW018 SCT080 TEMPO 0915/0921 34010KT", "TAF LGTS 091100Z 0912/1012 VRB03KT 9999 SCT030 TEMPO 0915/1012 5000 RA SCT010 BKN025 PROB30 TEMPO 0918/1003 3000 TSRA SCT008 FEW015CB OVC025 BECMG 0922/0924 34013KT", "TAF LGZA 091100Z 0912/0921 VRB05KT 9999 SCT018 BKN080 PROB40 TEMPO 0918/0921 5000 RA FEW018TCU BKN025 BKN070 TEMPO 0912/0918 27010KT", "TAF LHBP 091115Z 0912/1012 09004KT 9999 SCT032 BKN055 PROB30 TEMPO 0912/0915 -RA -SHRA BECMG 0916/0918 35005KT CAVOK BECMG 1008/1010 SCT035 BKN060", "TAF LHDC 091115Z 0912/0921 VRB03KT CAVOK TEMPO 0912/0918 SCT040 BKN055 TEMPO 0915/0921 36006KT", "TAF LHKE 091115Z 0912/0921 35004KT 8000 SCT020 BKN040 TEMPO 0912/0915 04006KT BKN015 BKN030 BECMG 0915/0918 9999 SCT040", "TAF LHPA 091115Z 0912/1012 36004KT 9999 SCT020 BKN040 PROB30 TEMPO 0912/0916 06006KT 5000 RA -SHRA BKN020 OVC030 BECMG 0916/0918 9999 SCT040 BECMG 0920/0923 5000 BR TEMPO 0923/1006 1500 BR PROB30 TEMPO 1002/1006 0500 FG BKN010 BECMG 1006/1009 9999 NSW FEW015 SCT030 BECMG 1009/1012 CAVOK", "TAF LHPP 091115Z 0912/0921 04006KT 9999 SCT015 BKN035 BKN055 BECMG 0915/0918 SCT045 TEMPO 0916/0921 VRB03KT CAVOK", "TAF LHPR 091115Z 0912/0921 VRB03KT 9999 BKN020 BKN040 PROB30 TEMPO 0912/0916 05006KT -SHRA BECMG 0915/0918 SCT040 TEMPO 0916/0921 CAVOK BECMG 0917/0920 8000 PROB30 TEMPO 0919/0921 4000 BR NSC", "TAF LHSM 091115Z 0912/0921 VRB04KT 9999 SCT030 BKN050 PROB40 TEMPO 0912/0916 04007KT -SHRA BKN025 BKN045 BECMG 0916/0919 CAVOK", "TAF LIBA 091100Z 0912/0921 30010KT 7000 RA BKN030 TEMPO 0912/0918 5000 TSRA FEW020CB BKN025", "TAF LIBC 091100Z 0912/1012 01014KT 9999 SCT020 TEMPO 0912/0918 4000 SHRA TEMPO 0918/1012 01016G28KT", "TAF LIBD 091100Z 0912/1012 06010KT 9999 BKN030 TEMPO 0912/1012 4000 SHRA BECMG 0914/0916 36015KT", "TAF LIBF 091100Z 0912/1012 34013KT 9999 BKN030 TEMPO 0912/0915 SHRA TEMPO 1006/1012 4000 RA BECMG 1008/1010 34018G28KT", "TAF LIBG 091100Z 0912/0921 34015KT 9999 SCT020 BKN040 TEMPO 0912/0918 4000 SHRA", "TAF LIBP 091100Z 0912/1012 36010KT 9999 SCT030 TEMPO 0912/0915 4000 SHRA BECMG 0918/0920 30015KT TEMPO 1009/1012 RA", "TAF LIBR 091100Z 0912/1012 11010KT 9999 BKN020 TEMPO 0912/0918 4000 TSRA BECMG 0915/0917 34015KT TEMPO 0918/1012 4000 SHRA", "TAF LIBV 091100Z 0912/0921 34010KT 6000 RA SCT008 BKN020 TEMPO 0912/0918 3000 TSRA BKN007 FEW013CB", "TAF LICA 091100Z 0912/1012 26012KT 9999 BKN050 TEMPO 0912/0918 TSRA BECMG 0916/0918 VRB05KT BECMG 1008/1010 26012KT", "TAF LICB 091100Z 0912/1012 25015KT 9999 SCT030 TEMPO 0912/0916 SHRA BECMG 0919/0921 VRB05KT BECMG 1008/1010 25012KT", "TAF LICC 091100Z 0912/1012 25010KT 9999 SCT030 BECMG 0912/0914 10010KT TEMPO 0913/0916 SHRA BECMG 0915/0917 26007KT", "TAF LICD 091100Z 0912/1012 32015KT 9999 SCT020", "TAF LICG 091100Z 0912/0921 33015KT 9999 FEW030", "TAF LICJ 091100Z 0912/1012 31015KT 9999 SCT020 TEMPO 0912/0915 SHRA TEMPO 1003/1009 SHRA", "TAF LICR 091100Z 0912/1012 36014KT 9999 FEW030 TEMPO 0912/0916 TSRA TEMPO 1009/1012 TSRA", "TAF LICT 091100Z 0912/0921 34012KT 9999 SCT020", "TAF LICZ 091100Z 0912/1012 27010KT 9999 SCT020 PROB40 TEMPO 0912/0918 33012G25KT", "TAF LIEA 091100Z 0912/1012 29010KT 9999 FEW020 BECMG 0916/0918 VRB05KT BECMG 1010/1012 29010KT", "TAF LIED 091100Z 0912/0921 32008KT 9999 FEW025 TEMPO 0912/0916 14008KT", "TAF LIEE 091100Z 0912/1012 33008KT 9999 FEW030 BECMG 0912/0914 16010KT BECMG 0916/0918 VRB05KT BECMG 0921/0923 33010KT BECMG 1010/1012 16010KT", "TAF LIEO 091100Z 0912/1012 02010KT 9999 SCT030 BECMG 0917/0919 25007KT", "TAF LIMC 091100Z 0912/1018 13010KT 9999 SCT050 BECMG 0920/0922 01008KT BECMG 1008/1010 14010KT", "TAF LIME 091100Z 0912/1012 16010KT 9999 SCT030 BECMG 0920/0922 08008KT BECMG 1007/1009 16010KT", "TAF LIMF 091100Z 0912/1012 09010KT CAVOK BECMG 0916/0918 VRB05KT", "TAF LIMG 091100Z 0912/1012 07012KT 9999 SCT040 BECMG 0913/0915 16012KT BECMG 0917/0919 VRB05KT", "TAF LIMJ 091100Z 0912/1012 19012KT 9999 SCT030 BECMG 0918/0920 02008KT BECMG 1008/1010 19010KT", "TAF LIML 091100Z 0912/1012 16011KT 9999 SCT030 BECMG 0917/0919 08010KT BECMG 1009/1011 14010KT", "TAF LIMP 091100Z 0912/1012 11009KT 9999 SCT040", "TAF LIMW 091100Z 0912/0921 VRB06KT CAVOK", "TAF LIMZ 091100Z 0912/1012 02010KT CAVOK BECMG 0918/0920 VRB05KT", "TAF LIPB 091100Z 0912/1012 01010KT 9999 FEW080 BECMG 0916/0918 VRB05KT", "TAF LIPC 091100Z 0912/0921 27008KT CAVOK TEMPO 0912/0915 FEW015CB", "TAF LIPE 091100Z 0912/1012 06010KT 9999 SCT040 BECMG 0917/0919 VRB05KT BECMG 1009/1011 06010KT", "TAF LIPH 091100Z 0912/1012 14010KT 9999 FEW060 PROB40 TEMPO 0914/0918 SHRA BECMG 0916/0918 04005KT", "TAF LIPK 091100Z 0912/1012 06010KT 9999 SCT020 TEMPO 0912/0915 SHRA BECMG 0916/0918 VRB05KT BECMG 1008/1010 04010KT", "TAF LIPL 091100Z 0912/0921 12005KT 9999 SCT035 SCT060 BECMG 0918/0920 09005KT SCT050", "TAF LIPO 091100Z 0912/1012 14010KT 9999 SCT040 BECMG 0916/0918 08010KT BECMG 1008/1010 14010KT", "TAF LIPQ 091100Z 0912/1012 09010KT 9999 FEW080 PROB30 TEMPO 0915/0918 SHRA BECMG 0920/0922 VRB05KT", "TAF LIPR 091100Z 0912/1012 03010KT 9999 SCT020 BECMG 0918/0920 29006KT BECMG 1008/1010 03012KT", "TAF LIPS 091100Z 0912/0921 VRB05KT 9999 BKN070 TEMPO 0912/0918 SCT025 SCT060", "TAF LIPX 091100Z 0912/1012 12010KT 9999 SCT040 SCT060 BECMG 0918/0920 VRB05KT", "TAF LIPY 091100Z 0912/1012 02012KT 9999 SCT030 BECMG 0916/0918 32010KT", "TAF LIPZ 091100Z 0912/1018 13010KT 9999 BKN070 BECMG 0916/0918 03008KT BECMG 1010/1012 17010KT", "TAF LIRA 091100Z 0912/1012 34010KT 9999 SCT020 TEMPO 0912/0916 SHRA", "TAF LIRE 091100Z 0912/0921 28009KT 9999 FEW030", "TAF LIRF 091100Z 0912/1018 33012KT 9999 SCT030 BECMG 0918/0920 01010KT", "TAF LIRM 091100Z 0912/0921 02005KT 9999 FEW020 TEMPO 0912/0915 29008KT 9999 FEW015CB", "TAF LIRN 091100Z 0912/1012 04012KT 9999 SCT030 TEMPO 0912/0916 SHRA", "TAF LIRP 091100Z 0912/1012 12006KT CAVOK TEMPO 0912/0914 9999 SCT040 TEMPO 1003/1009 9999 SCT020", "TAF LIRQ 091100Z 0912/1012 04010KT 9999 SCT030 TEMPO 0912/0915 SHRA BECMG 0916/0918 VRB05KT BECMG 1010/1012 04010KT", "TAF LIRS 091100Z 0912/0921 03008KT 9999 SCT030", "TAF LIRU 091100Z 0912/0921 02008KT 9999 SCT020 TEMPO 0912/0915 SHRA", "TAF LIRV 091100Z 0912/0921 04010KT 9999 FEW030 TEMPO 0912/0918 04015KT 7000 SHRA FEW015CB SCT025", "TAF LIRZ 091100Z 0912/1012 03014KT 9999 SCT050 TEMPO 0912/0916 SHRA BECMG 0916/0918 VRB05KT BECMG 1008/1010 02015KT", "TAF LJLJ 091100Z 0912/1012 VRB02KT 9999 SCT015 BKN035 TEMPO 0912/0919 -RA PROB40 1000/1007 0300 FG VV002", "TAF LJMB 091100Z 0912/1012 VRB02KT 9999 BKN020 PROB40 TEMPO 0912/0918 -SHRA SCT025TCU BKN040", "TAF LKCV 091100Z 0912/1012 01003KT 9999 BKN035 TEMPO 0912/0918 6000 SHRA BKN024 BECMG 0922/1000 VRB02KT 4000 MIFG BR SCT010 PROB40 TEMPO 1000/1006 0800 FG VV002 BECMG 1006/1008 9999 NSW BKN030", "TAF LKKB 091100Z 0912/1012 04006KT 9999 BKN035 PROB40 TEMPO 0912/0918 02010KT 8000 SHRA FEW020TCU BKN025 BECMG 1002/1004 10006KT PROB40 TEMPO 1002/1006 4000 BR BKN018", "TAF LKKV 091100Z 0912/1012 08005KT 9999 SCT025 PROB30 TEMPO 0912/0917 -RA BKN012 BECMG 0922/1000 2000 MIFG SCT002 TEMPO 1000/1008 VRB02KT 1100 BR BKN002 PROB30 TEMPO 1002/1007 0500 FZFG BKN001 BECMG 1008/1010 9999 SCT035", "TAF LKMT 091100Z 0912/1012 03008KT 9999 BKN025 TEMPO 0912/0917 8000 RA BKN015 PROB30 TEMPO 0912/0917 4000 SHRA SCT025TCU BECMG 0920/0922 04004KT 2500 BR BKN006 TEMPO 0922/1008 VRB02KT 1200 -RA BR BKN004 PROB30 TEMPO 0922/1007 0500 FG BKN002 BECMG 1008/1010 9999 SCT030", "TAF LKNA 091100Z 0912/1012 01006KT 9999 BKN027 TEMPO 0912/0919 05010KT 6000 SHRA BKN020TCU TEMPO 0922/1009 3000 MIFG BR SCT010 PROB30 TEMPO 1002/1006 0400 FG VV001", "TAF LKPR 091100Z 0912/1018 06006KT 9999 BKN025 TEMPO 0912/0917 7000 RA BKN015 PROB30 TEMPO 0912/0917 4000 SHRA SCT025TCU BECMG 0920/0922 18004KT 4000 BR BKN007 TEMPO 0922/1008 22004KT 2000 RA BR BKN004 PROB30 TEMPO 0922/1007 1200 BR BKN002 BECMG 1008/1010 7000 BKN012 BECMG 1010/1012 12006KT 9999 SCT035 BECMG 1014/1016 CAVOK", "TAF LKTB 091100Z 0912/1012 07006KT 9999 BKN025 TEMPO 0912/0918 8000 RA BKN015 PROB30 TEMPO 0912/0917 4000 SHRA SCT025TCU BECMG 0920/0922 VRB02KT 2000 BR SCT004 TEMPO 0922/1008 1200 BR BKN004 PROB30 TEMPO 0922/1007 0500 FG BKN002 BECMG 1008/1010 07004KT 9999 SCT035", "TAF LLBG 091103Z 0912/1012 30010KT 8000 NSC TEMPO 0912/0915 24015G25KT 4000 DU BECMG 0915/0917 VRB04KT CAVOK PROB40 TEMPO 0920/1006 14006KT BECMG 1006/1008 26010KT 9999 SCT090 PROB40 TEMPO 1008/1012 VRB15KT 7000 SHRA SCT040 FEW050TCU BKN090 TX34/0912Z TN20/1004Z", "TAF LLER 091102Z 0912/1012 17013KT 8000 NSC TEMPO 0912/0916 19020G30KT 3000 DU BECMG 0916/0918 36008KT BECMG 1000/1002 18010KT 9999 SCT100 TEMPO 1006/1012 VRB20G30KT 5000 TSRA DU SCT050 FEW070CB BKN100 TX37/0912Z TN24/1003Z", "TAF LLHA 091105Z 0912/1012 34010KT CAVOK PROB40 TEMPO 0912/0915 02008KT 5000 HZ BECMG 0915/0917 13010KT PROB40 TEMPO 0917/1006 VRB04KT BECMG 1006/1008 22008KT 9999 SCT090 PROB40 TEMPO 1008/1012 VRB15KT 7000 SHRA SCT040 FEW050TCU BKN090 TX28/0912Z TN18/1003Z", "TAF LLHZ 091104Z 0912/1012 32008KT 8000 NSC TEMPO 0912/0916 25015G25KT 4000 DU BECMG 0917/0919 VRB04KT CAVOK PROB40 TEMPO 0920/1006 14006KT BECMG 1006/1008 26010KT 9999 SCT090 PROB40 TEMPO 1008/1012 VRB15KT 7000 SHRA SCT040 FEW050TCU BKN090 TX31/0912Z TN18/1003Z", "TAF LLIB 091106Z 0912/1012 VRB04KT CAVOK BECMG 0913/0915 33010KT BECMG 0919/0920 VRB03KT BECMG 1006/1008 17008KT 9999 SCT090 PROB40 TEMPO 1010/1012 23015G25KT 7000 SHRA SCT035 FEW045TCU BKN090 TX33/0912Z TN17/1003Z", "TAF LMML 091100Z 0912/1012 27013KT 9999 SCT020 PROB40 TEMPO 0912/0915 7000 SHRA BKN018TCU BECMG 0912/0915 29020G30KT BECMG 0919/0922 33015KT BECMG 1009/1012 31020G30KT", "TAF LOAN 091115Z 0912/0921 32007KT 9999 BKN030 TEMPO 0912/0918 SHRA", "TAF LOAV 091115Z 0912/0921 32007KT 9999 BKN030 TEMPO 0912/0918 SHRA", "TAF LOWG 091115Z 0912/1012 VRB05KT 9999 BKN030 TX12/1012Z TN01/1004Z TEMPO 0912/0919 SHRA", "TAF LOWI 091115Z 0912/1012 09005KT 9999 FEW050 TX14/1012Z TN01/1004Z BECMG 0918/0920 VRB02KT BECMG 1009/1011 09007KT", "TAF LOWK 091115Z 0912/1012 VRB05KT 9999 BKN050 TX12/1012Z TN02/1002Z TEMPO 0912/0918 09008KT SHRA PROB30 TEMPO 1001/1007 0300 BCFG BKN003", "TAF LOWL 091115Z 0912/1012 VRB05KT 9999 SCT020 BKN030 TX13/1012Z TN04/1004Z TEMPO 0912/0923 4000 SHRA BECMG 1000/1002 1200 BCFG TEMPO 1003/1006 0800 FG FM100700 10006KT 9999 SCT040", "TAF LOWS 091115Z 0912/1012 VRB02KT 9999 FEW010 BKN030 TX13/1012Z TN02/1005Z TEMPO 0912/0921 -RA PROB30 TEMPO 0912/0922 01008KT SHRA FEW025 FEW025TCU BKN035 BECMG 0920/0922 14005KT PROB40 TEMPO 1000/1008 1200 BCFG BECMG 1009/1011 04007KT", "TAF LOWW 091115Z 0912/1018 34005KT 9999 FEW015 BKN025 TX14/1015Z TN04/1002Z TEMPO 0912/0918 SHRA FM101100 36010KT 9999 FEW030 SCT050", "TAF LOXZ 091115Z 0912/0921 VRB03KT 9999 FEW020 BKN050 TEMPO 0912/0916 6000 SHRA SCT020 BKN030", "TAF AMD LPAZ 091215Z 0912/1018 23010KT 9999 SCT012 BKN020 TEMPO 0912/0922 5000 -RA BR SCT002 BKN005 PROB30 TEMPO 0912/0918 0500 DZ FG VV000 BECMG 0922/1001 29007KT BECMG 1006/1008 VRB05KT SCT015", "TAF LPBJ 091101Z 0912/1012 VRB02KT CAVOK BECMG 0912/0914 32008KT", "TAF LPCS 091100Z 0912/0921 VRB05KT CAVOK BECMG 0912/0915 34013KT", "TAF LPFR 091100Z 0912/1012 15005KT CAVOK BECMG 0913/0916 24008KT BECMG 0919/0921 32010KT BECMG 1002/1004 VRB02KT BECMG 1010/1012 33007KT", "TAF LPHR 091100Z 0912/0921 26008KT 9999 SCT005 SCT010 TEMPO 0912/0921 5000 -RA BR SCT002 BKN005 PROB30 TEMPO 0912/0921 0500 DZ FG VV000", "TAF LPLA 091101Z 0912/1012 24010KT 9999 FEW025 SCT030 TEMPO 0912/0915 FEW010 BKN020 BECMG 0913/0915 28008KT TEMPO 0923/1006 7000 -RADZ SCT007 BKN014 BECMG 1002/1004 34008KT", "TAF LPMA 091100Z 0912/1012 03013KT 9999 SCT015 TEMPO 0912/0920 02015G25KT FEW016 BKN035", "TAF LPMR 091100Z 0912/1012 35008KT 9999 FEW018 TEMPO 0912/0917 36012G22KT PROB40 0922/1006 1200 BR BKN004", "TAF LPMT 091101Z 0912/1012 VRB02KT CAVOK BECMG 0914/0916 34008KT TEMPO 0915/0919 36012G22KT PROB40 0922/1006 4000 BR BKN006", "TAF LPOV 091100Z 0912/1012 33010KT 9999 FEW020 BECMG 0922/0924 VRB02KT SCT012 PROB40 0922/1006 0500 FG BKN002", "TAF LPPD 091100Z 0912/1012 23008KT 9999 SCT006 BKN020 TEMPO 0912/1012 4000 -RA BR SCT002 BKN005 BECMG 0921/0924 28007KT PROB30 TEMPO 1002/1010 0800 DZ FG VV001 BECMG 1004/1006 VRB05KT", "TAF LPPR 091100Z 0912/1012 33010KT 9999 FEW015 BECMG 0919/0922 VRB02KT SCT006 TEMPO 1000/1009 5000 BR BKN003 PROB30 TEMPO 1002/1008 0300 FG VV001 BECMG 1009/1012 32010KT SCT018 SCT040", "TAF LPPS 091100Z 0912/1018 07013KT 9999 SCT015 TEMPO 0912/0924 10010KT FEW015 BKN030", "TAF LPPT 091100Z 0912/1018 VRB05KT CAVOK BECMG 0913/0916 34012KT BECMG 1000/1002 32007KT 9999 SCT012 BECMG 1009/1012 34013KT FEW030", "TAF COR LQBK 091100Z 0912/1012 03007KT 4000 -DZ BR BKN008 OVC030 TX11/1011Z TN04/1005Z TEMPO 0913/0920 9999 NSW SCT015 BKN035 PROB30 TEMPO 0920/1008 2000 DZ BR BKN004 OVC015", "TAF LQMO 091100Z 0912/1012 35008KT 9999 SCT050 TX19/0913Z TN04/1005Z PROB40 TEMPO 0912/0918 SHRA FEW035TCU BKN040 PROB40 TEMPO 0921/1012 01015G25KT", "TAF LQSA 091100Z 0912/1012 30005KT 9999 BKN040 TX11/0913Z TN03/1005Z PROB40 TEMPO 0915/1010 SHRA FEW018 FEW035TCU BKN045 PROB30 1004/1007 3000 BR", "TAF LQTZ 091100Z 0912/1012 03006KT 9999 SCT015 BKN035 TX10/0913Z TN02/1005Z PROB30 TEMPO 0912/0918 4000 SHRA FEW015 FEW033TCU BKN035 PROB40 TEMPO 0918/1009 2000 RA BR BKN007 OVC020", "TAF LRAR 091100Z 0912/0921 05006KT 9999 SCT045 TEMPO 0913/0916 5000 -SHRA SCT030CB BKN040", "TAF LRBC 091100Z 0912/0921 VRB04KT CAVOK", "TAF LRBM 091100Z 0912/0921 16006KT 9999 SCT045", "TAF LRBS 091100Z 0912/1012 08008KT CAVOK TEMPO 1000/1005 3000 BR", "TAF LRCK 091100Z 0912/1012 10008KT CAVOK TEMPO 1000/1004 5000 BR BKN010 BECMG 1004/1006 03012KT", "TAF LRCL 091100Z 0912/0921 VRB04KT CAVOK PROB30 TEMPO 0912/0916 SCT040CB", "TAF LRCV 091100Z 0912/0921 VRB04KT 9999 BKN040 TEMPO 0912/0917 5000 -SHRA SCT030CB", "TAF LRIA 091100Z 0912/0921 VRB04KT CAVOK", "TAF LROD 091100Z 0912/0921 06006KT CAVOK PROB30 TEMPO 0914/0917 5000 -SHRA SCT030CB BKN040", "TAF LROP 091100Z 0912/1012 08008KT CAVOK TEMPO 1000/1005 3000 BR", "TAF LRSB 091100Z 0912/1012 VRB04KT 9999 BKN065 TEMPO 0912/0918 5000 -SHRA SCT040CB BKN045 PROB40 TEMPO 1000/1005 3000 BR", "TAF LRSV 091100Z 0912/0921 VRB04KT CAVOK", "TAF LRTM 091100Z 0912/0921 VRB04KT CAVOK PROB30 TEMPO 0912/0916 SCT040CB", "TAF LRTR 091100Z 0912/1012 09006KT 9999 BKN040 TEMPO 0912/0916 5000 -SHRA SCT025CB OVC035 PROB40 TEMPO 1000/1005 3000 BR", "TAF LSGC 091125Z 0912/0921 07005KT CAVOK", "TAF LSGG 091125Z 0912/1018 05007KT CAVOK TX16/0916Z TN03/1005Z TX17/1016Z BECMG 0916/0918 VRB02KT BECMG 1013/1015 22007KT", "TAF LSGS 091125Z 0912/0921 25010KT CAVOK BECMG 0918/0920 VRB02KT", "TAF LSZA 091125Z 0912/0921 20007KT 9999 FEW060", "TAF LSZB 091125Z 0912/0921 32005KT 9999 FEW040 BECMG 0913/0916 CAVOK", "TAF LSZG 091125Z 0912/0921 08008KT 9999 FEW033 BECMG 0914/0917 CAVOK", "TAF LSZH 091125Z 0912/1018 07010KT 9999 FEW030 TX14/0914Z TN00/1005Z TX17/1013Z BECMG 0915/0917 05005KT CAVOK BECMG 0917/0919 VRB02KT BECMG 1002/1004 3000 MIFG PROB30 TEMPO 1004/1007 1500 BCFG BECMG 1007/1008 CAVOK", "TAF LSZL 091125Z 0912/0921 27006KT CAVOK BECMG 0918/0921 9999 SCT040", "TAF LSZR 091125Z 0912/0921 29005KT CAVOK TEMPO 0912/0916 9999 SCT050", "TAF LSZS 091125Z 0912/0921 03008KT 9999 FEW040 TX08/0915Z BECMG 0914/0917 CAVOK", "TAF LTAC 091040Z 0912/1012 VRB02KT 9999 SCT040 BKN100 TEMPO 0918/0922 -SHRA BKN030 BKN080 TEMPO 1002/1006 -SHRA BKN030 BKN080 TEMPO 1008/1012 -SHRA BKN030 BKN080", "TAF LTAF 091040Z 0912/1012 VRB02KT 9999 SCT035 BKN100 BECMG 0916/0918 BKN030 OVC080 TEMPO 0916/0920 -SHRA PROB40 TEMPO 0920/0924 -SHRA FEW025CB BKN035 PROB40 TEMPO 1000/1004 -SHRA PROB30 TEMPO 1004/1007 5000 BR BECMG 1008/1010 CAVOK", "TAF LTAG 091040Z 0912/1012 09009KT 9999 SCT030 BKN090 TEMPO 0918/0921 -SHRA TEMPO 0921/1001 01015KT -SHRA BECMG 1006/1008 5000 DU", "TAF LTAI 091040Z 0912/1012 19010KT 9999 FEW030 SCT120 BECMG 0915/0918 34006KT BKN030 BECMG 0918/0921 FEW020CB BKN030 BECMG 1000/1003 -SHRA PROB30 TEMPO 1007/1011 4000 TSRA BECMG 1009/1012 16012KT", "TAF LTAJ 091040Z 0912/1012 05007KT 9999 FEW040 BKN100 TEMPO 0912/0916 -SHRA", "TAF LTAP 091040Z 0912/1012 VRB02KT 9999 FEW040 BKN090 BECMG 0912/0915 03015KT BECMG 0917/0920 VRB02KT BKN035 BKN080 TEMPO 0921/1001 -SHRA TEMPO 1001/1004 -SHRA FEW027CB BKN030 TEMPO 1007/1011 -SHRA FEW027CB BKN030", "TAF LTAT 091040Z 0912/1012 06008KT 9999 SCT035 BKN100 TEMPO 0912/0915 -SHRA BKN030 BKN080 BECMG 0916/0919 -SHRA BKN030 BKN080", "TAF LTAU 091040Z 0912/1012 VRB02KT 9999 SCT040 BKN090 TEMPO 0912/0916 -SHRA FEW025CB BKN030 TEMPO 0921/1001 -SHRA BKN030 BKN080 TEMPO 1003/1007 -SHRA BKN030 BKN080", "TAF LTAY 091040Z 0912/1012 VRB02KT 9999 SCT035 BKN090 PROB40 TEMPO 0915/0919 -SHRA BKN030 BKN090 PROB40 TEMPO 1003/1007 -SHRA BKN030 BKN090", "TAF LTAZ 091040Z 0912/1012 VRB02KT 9999 SCT040 BKN090 TEMPO 0914/0918 24017G30KT 4000 TSRA SCT025CB SCT030 TEMPO 0919/0923 -SHRA BKN025 BKN080 TEMPO 0923/1003 -SHRA BKN025 BKN080 PROB40 TEMPO 1009/1012 22015G25KT TS FEW030CB SCT040", "TAF LTBA 091040Z 0912/1012 04015KT 9999 BKN020 BECMG 0912/0915 CAVOK BECMG 0917/0920 SCT008 BKN025 BECMG 0921/0924 -SHRA TEMPO 1002/1006 4000 SHRA BKN006 BKN020 BECMG 1006/1008 03015G27KT", "TAF LTBJ 091040Z 0912/1012 VRB02KT 9999 SCT030 BKN100 TEMPO 0913/0917 35012KT BECMG 0921/0924 -SHRA PROB30 1002/1005 4000 SHRA BR BECMG 1007/1010 35012KT", "TAF LTBR 091040Z 0912/1012 35012KT 9999 SCT035 SCT100 BECMG 0915/0917 VRB02KT BECMG 0919/0923 -SHRA BKN030 BKN090 PROB30 TEMPO 1003/1006 4000 SHRA FEW020TCU BKN025 BKN080 BECMG 1010/1012 34012KT", "TAF LTBS 091040Z 0912/1012 VRB02KT 9999 FEW030 BKN120 BECMG 1007/1009 22012KT", "TAF LTBU 091040Z 0912/1012 04015KT 9999 SCT035 BKN100 BECMG 0912/0915 CAVOK BECMG 0919/0922 SCT040 BKN080 BECMG 0922/1001 -SHRA SCT015 BKN032 TEMPO 1002/1006 4000 SHRA BECMG 1006/1008 02015G25KT", "TAF LTCC 091040Z 0912/1012 VRB02KT 9999 SCT040 BKN100 TEMPO 0912/0915 -SHRA BKN035 BKN090 TEMPO 0915/0918 -SHRA BKN035 BKN090 TEMPO 1000/1004 -SHRA BKN035 BKN090", "TAF LTCE 091040Z 0912/1012 20014KT 9999 SCT040 BKN080 BECMG 0915/0917 VRB02KT BECMG 0919/0921 BKN035 BKN070 TEMPO 1001/1005 -RA BECMG 1005/1007 08012KT TEMPO 1005/1009 -SHRA TEMPO 1009/1012 -SHRA", "TAF LTCF 091040Z 0912/1012 22012KT 9999 FEW040 SCT100 BECMG 0918/0921 CAVOK BECMG 0921/0924 FEW035 BKN070 BECMG 1000/1002 BKN025 BKN070 TEMPO 1007/1009 FEW025CB BKN025 BKN070 TEMPO 1009/1012 -TSRA FEW025CB", "TAF LTCG 091040Z 0912/1012 12008KT CAVOK BECMG 1000/1003 SCT035 BKN100 TEMPO 1004/1007 -SHRA SCT008 BKN028", "TAF LTCJ 091040Z 0912/1012 VRB02KT 9999 FEW040 BKN100 TEMPO 0912/0915 -SHRA TEMPO 0915/0918 -SHRA TEMPO 1001/1005 -SHRA BECMG 1004/1007 03012KT", "TAF LTCS 091040Z 0912/1012 05006KT 9999 SCT040 BKN080 TEMPO 0912/0915 -SHRA BKN035 BKN090 BECMG 0915/0917 35010KT", "TAF LTCV 091040Z 0912/1012 VRB02KT 9999 FEW040 BKN100 BECMG 0918/0922 05012KT TEMPO 1006/1009 -SHRA TEMPO 1009/1012 -SHRA", "TAF LTFC 091040Z 0912/1012 19012KT 9999 SCT035 BKN100 TEMPO 0912/0915 -SHRA BECMG 0916/0919 04006KT TEMPO 0921/0924 FEW020CB BKN030 PROB40 TEMPO 1006/1010 -TSRA FEW020CB BKN030", "TAF LTFE 091040Z 0912/1012 26012KT 9999 SCT030 BKN090 BECMG 0914/0917 VRB02KT BECMG 1000/1003 -SHRA BECMG 1008/1010 26012KT PROB40 TEMPO 1008/1012 -TSRA FEW020CB BKN030", "TAF COR LTFJ 091040Z 0912/1012 04015KT 9999 SCT026 TEMPO 0912/0916 04018G28KT BECMG 0920/0924 -SHRA SCT008 BKN025 TEMPO 1006/1009 4000 SHRA TEMPO 1009/1012 04018G28KT 4000 SHRA", "TAF LTFM 091040Z 0912/1018 04016KT 9999 BKN008 BECMG 0912/0915 CAVOK BECMG 0916/0919 SCT010 BKN025 BECMG 0921/0924 -SHRA BKN006 BKN020 BECMG 1005/1007 03018G28KT TEMPO 1007/1011 4000 SHRA", "TAF LUKK 091104Z 0912/1012 34006KT CAVOK TEMPO 0912/0917 SCT050CB TEMPO 0923/1004 5000 BR TEMPO 1008/1012 5000 SHRA BKN050CB", "TAF LWOH 091130Z 0912/1012 02008KT 9999 SCT020 BKN040 TEMPO 0912/0924 RA SCT015 OVC030", "TAF LWSK 091130Z 0912/1012 04006KT 9999 SCT020 BKN040 OVC080 TEMPO 0912/0924 5000 RA SCT010 OVC030", "TAF LYBE 091100Z 0912/1012 04006KT 9999 SCT035 TX14/1012Z TN04/1004Z TEMPO 0912/0915 5000 SHRA SCT027TCU BKN033 BECMG 1009/1011 34010KT", "TAF LYBT 091100Z 0912/1012 05006KT 9999 SCT030 TX15/1012Z TN04/1004Z PROB40 TEMPO 0912/0916 5000 SHRA SCT025TCU BKN030 BECMG 1008/1010 35010KT", "TAF LYKV 091100Z 0912/1012 03006KT 9999 BKN033 TX12/0913Z TN05/1004Z PROB30 TEMPO 0913/0918 VRB15KT 5000 SHRA SCT025TCU BKN030 TEMPO 0923/1006 5000 RA BKN015 BKN033", "TAF LYNI 091100Z 0912/1012 01006KT 9999 BKN035 TX14/1012Z TN04/1004Z TEMPO 0912/0916 04016KT 5000 SHRA SCT030TCU BKN033 TEMPO 0919/0922 5000 RA TEMPO 1003/1005 5000 BR TEMPO 1010/1012 34020KT 5000 SHRA SCT033TCU SCT040", "TAF LYPG 091100Z 0912/1012 17007KT 9999 SCT040 BKN080 TX16/0913Z TN07/1004Z PROB30 TEMPO 0912/0920 SHRA FEW030TCU BKN040 BECMG 1009/1011 02015KT", "TAF LYTV 091100Z 0912/1012 25007KT 9999 SCT040 BKN080 TX14/0913Z TN07/1004Z PROB30 TEMPO 0912/0920 TSRA FEW030CB BKN040 BECMG 0918/0920 02014KT", "TAF LYVR 091100Z 0912/1012 03006KT 9999 BKN035 TX14/1012Z TN02/1004Z TEMPO 0912/0915 5000 SHRA SCT027TCU BKN033 TEMPO 1002/1005 3000 BR", "TAF LZIB 091115Z 0912/1012 05005KT 9999 FEW018 BKN038 TEMPO 0912/0917 -SHRA FEW008 BKN013 OVC040 BECMG 0917/0919 32004KT PROB40 TEMPO 1000/1006 BKN009", "TAF LZKZ 091115Z 0912/1012 03005KT 9999 SCT030 TEMPO 0912/0916 -SHRA TEMPO 0920/1012 36015KT", "TAF LZTT 091115Z 0912/1012 05007KT 9999 FEW020 BKN040 TEMPO 0912/0917 -SHRA FEW017 BKN027 BECMG 0921/0923 26004KT CAVOK BECMG 1007/1009 06007KT", "MBGT 090950Z 0912/1012 14015KT 9999 VCSH SCT015CB SCT050 FM091800 27004KT 9999 SCT015", "MBPV 090950Z 0912/1012 14015KT 9999 VCSH SCT015CB SCT050 FM091800 27004KT 9999 SCT015", "TAF MDBH 091000Z 0912/1012 00000KT 9999 FEW018 FM091600 13010KT 9999 FEW024 PROB30 0922/1003 7000 -TSRA FEW015CB BKN016 BKN070", "TAF MDCY 091000Z 0912/1012 00000KT 9999 FEW016CB SCT018 SCT300 BECMG 0915/0917 11008KT PROB30 0918/1000 6000 TSRA FEW014CB BKN016 BKN070", "TAF MDJB 091000Z 0912/1012 00000KT 9999 FEW016 FM091600 16010KT PROB30 0915/0921 8000 -TSRA FEW016CB BKN018", "TAF MDLR 091000Z 0912/1012 11010KT 9999 SCT016 SCT300 PROB40 0912/0918 7000 -TSRA FEW015CB BKN016 BKN070", "TAF MDPC 091000Z 0912/1012 10013KT 9999 FEW017 PROB30 0915/0921 8000 -TSRA FEW018CB SCT019 SCT070", "TAF COR MDPP 091000Z 0912/1012 00000KT 9999 SCT018 PRO30 0918/1000 7000 -TSRA FEW014CB BKN016 SCT070", "TAF MDSD 091000Z 0912/1012 04005KT 9999 SCT018 SCT300 FM091500 12008KT PROB30 0914/0920 8000 -TSRA FEW016CB BKN018 BKN300", "TAF MDST 091000Z 0912/1012 00000KT 5000 BR FEW010 TEMPO 0912/0916 1000 BR BKN006 BECMG 0913/0915 11006KT PROB30 0918/1000 3000 TSRA FEW012CB OVC014", "MGGT 091100Z 0912/1012 02012KT CAVOK TX27/0920Z TN15/0912Z PROB30 TEMPO 0912/0916 04008KT SCT012 BECMG 0916/0918 FEW018 TEMPO 0918/1000 SCT020 BECMG 1000/1002 FEW016", "MGMM 091100Z 0912/1012 00000KT CAVOK TX37/0920Z TN21/0912Z TEMPO 0912/0916 SCT012 BECMG 0916/0918 06008KT FEW020 TEMPO 0918/1000 SCT022 BECMG 1000/1002 00000KT CAVOK", "MGPB 091100Z 0912/1012 00000KT 9999 FEW016 TX32/0920Z TN22/0912Z PROB30 TEMPO 0912/0916 8000 VCSH BKN016 BECMG 0916/0918 06008KT FEW018 TEMPO 0918/1000 SCT020 BECMG 1000/1002 FEW016", "TAF MHLC 091010Z 0912/1012 34004KT 9999 FEW028 TX30/0921Z TN21/1012Z BECMG 0918/0920 FEW026 BKN070 BECMG 1001/1003 SCT026", "TAF MHLM 091010Z 0912/1012 VRB02KT 9999 FEW030 TX32/0921Z TN21/1012Z BECMG 0918/0920 04009KT SCT030 BKN080 BECMG 1001/1003 SCT028", "TAF MHPR 091100Z 0912/1012 35010KT 8000 SCT048 TX33/0921Z TN19/1012Z BECMG 0918/0920 36020KT BECMG 1004/1006 36006KT", "TAF COR MHRO 091010Z 0912/1012 10010KT 9999 FEW025 TX30/0920Z TN25/1012Z BECMG 0918/0920 FEW025 BKN080 BECMG 0915/0917 SCT022", "TAF MHTG 091010Z 0912/1012 04004KT 3000 FU BKN032 BKN080 TX29/0921Z TN17/1012Z BECMG 0914/0916 SCT030 BECMG 0918/0920 05011KT 6000 SCT032TCU BKN080 BECMG 1003/1005 SCT028", "TAF MKJP 091115Z 0912/1012 36005KT 9999 FEW022 BECMG 0914/0916 15015KT FEW020 FEW022CB TEMPO 0919/1002 SHRA BKN020 SCT022CB BECMG 1002/1004 36005KT FEW022", "TAF MKJS 091115Z 0912/1012 VRB05KT 9999 FEW022 BECMG 0914/0916 05012KT PROB30 TEMPO 0917/0924 SHRA SCT020 SCT030 BECMG 1001/1003 VRB03KT", "TAF MMAA 091042Z 0912/1012 04005KT 5SM HZ SKC TX31/0919Z TN24/0912Z FM091800 24010KT P6SM SCT100 BKN250 FM100600 34005KT 5SM HZ SKC", "TAF COR MMAN 091022Z 0906/1006 00000KT 4SM HZ OVC010 TEMPO 0906/0910 2SM DZ BR BKN004 OVC008 FM091000 00000KT 3SM -DZ BR HZ OVC006 PROB40 0911/0915 1SM -DZ BR OVC004 FM091800 04010KT 4SM HZ SCT008 OVC012 PROB40 1002/1006 4SM -DZ BR OVC010", "TAF MMAS 090457Z 0906/1006 20005KT P6SM SKC BECMG 0915/0917 21010KT SCT040 BKN240 FM100200 18005KT P6SM BKN240", "TAF MMBT 090456Z 0906/1006 00000KT P6SM SCT020 SCT060 BECMG 0912/0914 SKC FM091800 13010KT P6SM SKC BECMG 0921/0923 16005KT", "TAF MMCB 090456Z 0906/1006 00000KT P6SM SCT020 BECMG 0915/0916 17005KT SCT250 FM091800 15005KT P6SM SCT020 BKN250 BECMG 0922/0923 20005KT", "TAF MMCE 090500Z 0906/1006 00000KT P6SM SKC BECMG 0912/0913 30005KT FM091800 15010KT P6SM BKN250 BECMG 1002/1004 00000KT", "TAF MMCL 090439Z 0906/1006 00000KT P6SM SKC FM091800 24010KT P6SM SCT250 FM100500 00000KT P6SM SKC", "TAF MMCM 090500Z 0906/1006 12010KT P6SM SCT020 BECMG 0909/0911 00000KT FM091700 12010KT P6SM SCT020 BECMG 0919/0921 12015KT FM100000 15005KT P6SM SCT020", "TAF MMCN 090458Z 0906/1006 27005KT P6SM SKC BECMG 0914/0916 00000KT FM091800 25010KT P6SM SKC BECMG 1000/1002 27012KT", "TAF MMCP 090500Z 0906/1006 09010KT P6SM SKC BECMG 0909/0911 15005KT FM091600 15010KT P6SM SKC BECMG 0918/0920 35015KT FM100000 35010G20KT P6SM SCT030", "TAF MMCS 090513Z 0906/1006 00000KT P6SM SCT250 FM091800 04008KT P6SM BKN250 FM100500 04005KT P6SM SCT250", "TAF MMCU 090513Z 0906/1006 15005KT P6SM SKC FM091800 18008KT P6SM SCT250 FM100500 16005KT P6SM SKC", "TAF MMCV 090501Z 0906/1006 30005KT 3SM BR BKN015 TEMPO 0912/0916 2SM BR OVC010 FM091600 35005KT 6SM HZ BKN015 BECMG 1000/1002 1SM BR DZ OVC010", "TAF MMCZ 091020Z 0912/1012 00000KT P6SM SCT015 FM091800 04010KT P6SM BKN015 FM100600 12005KT P6SM SCT015 TEMPO 1008/1012 BKN015", "TAF MMDO 090458Z 0906/1006 20010KT P6SM SKC BECMG 0907/0909 00000KT FM091800 18010KT P6SM SCT200 BECMG 0923/1001 22010KT", "TAF MMEP 090457Z 0906/1006 00000KT P6SM SKC BECMG 0909/0911 BKN240 FM091900 30010KT P6SM BKN240 BECMG 1000/1002 00000KT", "TAF MMGL 091115Z 0912/1012 00000KT P6SM SKC TX31/0922Z TN13/0912Z FM091800 33010KT P6SM SCT100 SCT250 FM100600 34005KT P6SM SKC", "TAF MMGM 090458Z 0906/1006 25005KT P6SM SKC FM090900 00000KT P6SM SKC FM091600 20010KT P6SM SKC TEMPO 0919/0923 20015KT FM100100 20005KT P6SM SKC", "TAF MMHO 090439Z 0906/1006 29005KT P6SM SKC FM091800 24010KT P6SM SCT250 FM100500 24005KT P6SM SKC", "TAF MMIA 090457Z 0906/1006 03005KT 6SM HZ SCT220 FM091800 23010KT 6SM HZ BKN220 TEMPO 0920/1000 23010G20KT FM100100 23010KT P6SM BKN220", "TAF COR MMIO 090943Z 0906/1006 00000KT 1/2SM FG VV003 PROB40 0909/0913 1/4SM DZ FG VV002 BECMG 0915/0916 1 1/2SM BR HZ BKN008 FM091800 36008KT P6SM SCT020 SCT250 FM100300 00000KT 2SM BR HZ BKN008", "TAF MMLM 090458Z 0906/1006 30010KT P6SM SKC BECMG 0912/0913 00000KT FM091500 30010KT P6SM SKC TEMPO 0918/0922 28015KT FM100100 30005KT P6SM SKC", "TAF MMLO 090457Z 0906/1006 00000KT P6SM SCT030 BECMG 0915/0917 24005KT SCT030 BKN250 FM092000 30010KT P6SM SCT030 BECMG 1000/1002 27005KT", "TAF MMLP 090439Z 0906/1006 00000KT P6SM SKC FM091800 36014KT P6SM SCT250 FM100500 34005KT P6SM SKC", "TAF MMLT 090458Z 0906/1006 00000KT P6SM SKC FM091700 07010KT P6SM SKC TEMPO 0919/0923 07015KT FM100000 00000KT P6SM SKC", "TAF AMD MMMA 091255Z 0913/1006 32004KT 4SM SCT020 OVC070 TEMPO 0913/0916 2SM BR FM091600 31010KT 5SM HZ OVC010 BECMG 0917/0919 6SM HZ SCT020 TEMPO 1000/1004 2SM BR OVC010", "TAF MMMD 091020Z 0912/1012 12006KT 6SM HZ SKC TX36/0920Z TN21/0912Z FM091800 03012KT P6SM BKN020 FM100600 04007KT P6SM SCT020", "TAF MMML 090439Z 0906/1006 19005KT P6SM SCT250 FM091800 03008KT P6SM BKN250 FM100500 03005KT P6SM SCT250", "TAF MMMM 091115Z 0912/1012 00000KT P6SM SCT250 FM091800 26012KT P6SM SCT030 BKN250 FM100600 27005KT P6SM SCT250", "TAF AMD MMMT 091258Z 0913/1006 00000KT 1 1/2SM BR BCFG SCT040 BECMG 0914/0916 3SM HZ BKN020 FM091800 30010G20KT 5SM HZ SCT020 BECMG 1000/1002 4SM HZ BKN020", "TAF MMMV 090513Z 0906/1006 04005KT P6SM SCT040 SCT080 TEMPO 0911/0915 5SM HZ BKN015 FM091800 11008KT P6SM BKN020 BKN080 FM100500 06005KT P6SM SCT040 SCT250", "TAF MMMX 091042Z 0912/1012 08005KT P6SM SKC TX27/0921Z TN13/0912Z TEMPO 0912/0916 5SM HZ FM091800 34014KT P6SM SCT020 BKN080 BKN250 TEMPO 0922/1002 5SM TSRA BKN020CB FM100600 32006KT P6SM SCT020 BKN080 TEMPO 1008/1012 4SM HZ", "TAF COR MMMY 091228Z 0912/1012 05005KT 3SM -DZ BR BKN003 OVC010 TX20/0922Z TN15/0912Z TEMPO 0912/0916 1SM -DZ BR OVC002 FM091800 04010KT 3SM -DZ BR SCT008 OVC012 PROB40 1001/1005 4SM -DZ BR BKN008 OVC012 FM100500 04006KT 4SM -DZ BR BKN007 OVC012 TEMPO 1008/1012 1 1/2SM DZ BR BKN004 OVC008", "TAF MMMZ 091120Z 0912/1012 04005KT P6SM SKC TX30/0922Z TN11/0912Z FM091800 29010KT P6SM SCT250 FM100600 34005KT P6SM SKC", "TAF MMNL 090501Z 0906/1006 00000KT P6SM HZ SCT025 FM090900 00000KT 4SM HZ BKN015 TEMPO 0912/0916 3SM BR OVC010 FM091800 00000KT 5SM HZ OVC015 BECMG 1000/1002 4SM HZ", "TAF MMOX 090456Z 0906/1006 10005KT P6SM SCT020 BKN035 BECMG 0912/0914 30005KT SKC FM092100 08010KT P6SM SCT025 BECMG 1003/1005 05005KT", "TAF MMPA 090501Z 0906/1006 30005KT 3SM BR OVC008 TEMPO 0912/0916 2SM BR OVC005 FM091600 36010KT 5SM HZ OVC010 BECMG 0918/0920 6SM HZ BKN020 FM100300 30005KT 6SM HZ SCT020", "TAF MMPB 090456Z 0906/1006 09005KT P6SM SCT020 FM091700 14010KT P6SM SCT020 BECMG 0921/0922 20010KT BKN020CB TEMPO 1000/1004 6SM TSRA FM100400 05010KT P6SM -TSRA BKN020CB", "TAF AMD MMPG 091253Z 0913/1006 09006KT 3SM BR OVC005 BECMG 0914/0916 5SM HZ BKN020 FM091800 15010KT P6SM BKN015 BECMG 0921/0923 SCT020 FM100000 15015KT P6SM SCT020", "TAF MMPN 090457Z 0906/1006 00000KT P6SM SKC BECMG 0915/0916 BKN250 FM091800 22010KT P6SM BKN250 BECMG 0923/1001 17005KT", "TAF MMPQ 090500Z 0906/1006 00000KT 6SM HZ SCT020 TEMPO 0908/0912 4SM HZ BKN020 FM091200 00000KT 6SM HZ SCT030 BECMG 0914/0915 SKC FM100300 00000KT 3SM HZ BKN020", "TAF MMPR 091115Z 0912/1012 04005KT P6SM SCT250 TX27/0919Z TN17/0912Z FM091800 23014KT P6SM BKN250 FM100600 34005KT P6SM SKC", "TAF MMPS 090456Z 0906/1006 27005KT P6SM SCT090 BECMG 0912/0914 SKC FM091800 20010KT P6SM SCT070 BECMG 0920/0922 20005KT FM100000 27005KT P6SM SCT090", "TAF AMD MMQT 091245Z 0913/1006 00000KT P6SM SCT250 FM091400 09005KT P6SM SCT020 BECMG 0917/0918 30005KT FM100000 03010KT P6SM SCT020 BKN200 BECMG 1002/1004 09010KT", "TAF MMRX 090501Z 0906/1006 09005KT 6SM HZ SCT015 BKN030 FM090800 03005KT 4SM HZ OVC080 TEMPO 0911/0915 1SM BR DZ OVC005 FM091700 30005KT 6SM HZ BKN020 BECMG 1000/1002 5SM HZ", "TAF MMSD 090458Z 0906/1006 29005KT P6SM SKC BECMG 0909/0911 00000KT FM091700 15010KT P6SM SCT250 BECMG 1000/1002 30005KT", "TAF MMSL 090458Z 0906/1006 30005KT P6SM SKC BECMG 0917/0918 17005KT FM092200 25010KT P6SM SKC BECMG 1000/1002 00000KT", "TAF MMSM 091042Z 0912/1012 01005KT 6SM HZ SCT080 TEMPO 0912/0916 3SM BR HZ FM091800 34014KT P6SM SCT020 BKN080 BKN250 TEMPO 0922/1002 5SM TSRA BKN020CB FM100600 32006KT P6SM SCT020 BKN080 TEMPO 1009/1012 3SM BR HZ SCT015", "TAF COR MMSP 091229Z 0912/1012 00000KT P6SM BKN015 TX24/0920Z TN10/0912Z TEMPO 0912/0916 2SM BR HZ BKN010 FM091800 12012KT P6SM SCT020 FM100600 12005KT P6SM SCT020 FM100800 00000KT 3SM BR HZ BKN010 TEMPO 1008/1012 2SM BR HZ BKN007", "TAF MMTC 090513Z 0906/1006 08005KT P6SM SKC FM091800 05008KT P6SM SCT030 SCT100 BKN250 FM100500 06005KT P6SM SKC", "TAF MMTG 090328Z 0906/1006 32008KT P6SM SCT040 TEMPO 0911/0915 4SM HZ SCT020 FM091800 34018KT P6SM SCT030 SCT250 FM100500 34007KT P6SM SCT030", "TAF MMTJ 091120Z 0912/1012 35005KT 5SM HZ BKN020 TX21/0920Z TN11/0912Z TEMPO 0912/0916 1 1/2SM BR HZ OVC005 FM091600 00000KT 6SM HZ SCT015 FM091800 33014KT P6SM SCT025 SCT250 FM100600 34006KT P6SM SCT020 TEMPO 1009/1012 BKN020", "TAF MMTM 090535Z 0906/1006 00000KT 5SM HZ SCT010 OVC020 TEMPO 0911/0915 1 1/2SM BR HZ BKN007 FM091800 05007KT 6SM HZ SCT010 OVC030 PROB40 1002/1006 3SM -RA BR BKN010 OVC020", "TAF MMTO 091042Z 0912/1012 04005KT 6SM HZ SCT020 TX23/0922Z TN08/0912Z TEMPO 0912/0916 4SM HZ FM091800 34014KT P6SM SCT020 BKN080 BKN250 TEMPO 0922/1002 5SM TSRA BKN020CB FM100300 32006KT 6SM HZ SCT020 BKN080 PROB40 1003/1007 4SM -RA BKN020CB FM100700 34005KT 6SM HZ SCT020 BKN080 FM101000 00000KT 4SM SCT020", "TAF MMTP 091020Z 0912/1012 00000KT P6SM SKC FM091800 23010KT P6SM SCT030 SCT080 BKN250 FM100600 00000KT P6SM SKC", "TAF COR MMUN 091155Z 0912/1012 00000KT P6SM SCT015 TX30/0919Z TN21/0912Z FM091800 04010KT P6SM BKN015 FM100500 12005KT P6SM SCT015 PROB40 1008/1012 5SM -RA BKN015CB", "TAF AMD MMVA 091248Z 0913/1006 00000KT 4SM HZ SCT070 BECMG 0914/0915 6SM HZ FM091900 00000KT P6SM SCT020 BECMG 1000/1002 5SM HZ SCT020", "TAF MMVR 090535Z 0906/1006 36010KT P6SM SCT120 TX29/0919Z TN22/0912Z TEMPO 0911/0915 4SM HZ BKN010 FM091800 36014KT P6SM SCT020 BKN080 TEMPO 0918/0922 BKN015 FM100500 36007KT P6SM SCT080", "TAF MMZC 091115Z 0912/1012 16008KT P6SM SCT040 TX26/0922Z TN08/0912Z FM091800 22016KT P6SM SCT040 SCT250 FM100600 16008KT P6SM SKC", "TAF MMZH 090456Z 0906/1006 28005KT P6SM SKC BECMG 0917/0918 24010KT BKN250 FM092200 22005KT P6SM BKN250 BECMG 1001/1002 00000KT", "TAF MMZO 090420Z 0906/1006 00000KT P6SM SCT250 FM091800 24010KT P6SM BKN250 FM100500 00000KT P6SM SKC", "MNBL 082050Z 0900/0924 05008KT 9999 SCT017 BECMG 0910/0914 8000 VCRA BKN017 TEMPO 0916/0920 09010KT 9999 SCT018", "MNMG 091100Z 0912/1012 13006KT 9999 FEW022 BECMG 0914/0916 09014KT SCT022", "MNPC 082050Z 0900/0924 04006KT 7000 HZ SCT016 BECMG 0910/0914 6000 VCRA BKN016 BECMG 0916/0920 07010KT 7000 HZ SCT016", "TAF MPDA 091100Z 0912/0924 19010KT 9999 SCT018 TEMPO 0912/0915 01003KT", "TAF MPMG 091100Z 0912/0924 33008KT 9999 FEW018 TEMPO 0918/0922 15005KT", "TAF MPPA 091100Z 0912/1018 34006KT 9999 FEW018 TEMPO 0918/0922 18006KT TEMPO 1002/1006 VRB02KT CAVOK", "TAF MPSM 091100Z 0912/1018 34010KT 9999 FEW020 TEMPO 0916/0920 15010KT", "TAF MPTO 091100Z 0912/1018 35006KT 9999 FEW018 TEMPO 0912/0914 27003KT TEMPO 0918/0922 02014KT TEMPO 1002/1006 VRB02KT CAVOK", "MRLB 091135Z 0912/1012 08012KT CAVOK TX34/0920Z TN20/1011Z TEMPO 0908/0914 25006KT ", "MRLM 091135Z 0912/1012 24006KT 9999 FEW020 TX29/0920Z TN22/1011Z BECMG 0915/0918 07006KT BECMG 1000/1002 26005KT ", "MROC 091135Z 0912/1012 10010KT 9999 FEW040 TX29/0919Z TN19/1011Z TEMPO 0912/0918 10015G25KT ", "MRPV 091135Z 0912/1012 09012KT 9999 FEW040 TX27/0919Z TN19/1011Z ", "TAF MSLP 090925Z 0912/1012 08006KT 9999 FEW023 TX34/0917Z TN23/1011Z FM091700 19011KT 9999 SCT033 FM100000 VRB04KT 9999 FEW020 SCT070 FM100600 06004KT 9999 FEW033 FEW037CB SCT070", "TAF MSSS 090925Z 0912/1012 35005KT 9999 FEW027 TX32/0919Z TN21/1010Z FM091700 18006KT 9999 SCT033 FM100200 34004KT 9999 FEW027", "TAF MTCH 091100Z 0912/1012 20005KT 9000 FEW022 BECMG 0914/0918 01012KT PROB30 TEMPO 1000/1004 4800 -SHRA SCT024CB SCT050 FM100600 18006KT 7000 FEW020", "TAF MTPP 091100Z 0912/1012 10008KT 9000 FEW020 BECMG 0918/0920 33010KT SCT028TCU PROB30 TEMPO 0922/1003 4500 -TSRA SCT024CB BKN050 BECMG 1004/1008 VRB02KT 7000 NSW FEW022", "MUCC 091100Z 0912/1012 VRB04KT 9000 FEW020 BECMG 0916/0918 36008KT SCT020 BECMG 1001/1003 VRB03KT", "MUCF 091100Z 0912/0924 VRB03KT 9000 FEW020 TEMPO 0920/0924 4000 SHRA RA SCT018CB BKN040", "MUCL 091100Z 0912/0924 VRB03KT 9000 FEW020", "MUCM 091100Z 0912/1012 VRB03KT 9000 FEW020 TEMPO 0915/0919 BKN020 TEMPO 0920/1001 5000 RA SCT018CB BKN020", "TAF COR MUCU 091100Z 0912/1012 VRB03KT 9000 SCT050 TEMPO 0912/0915 SCT020TCU BECMG 0916/0918 17008KT BECMG 0923/0924 VRB03KT TEMPO 1001/1006 5000 RA SCT018CB BKN030", "TAF MUGM 0907/1007 VRB05KT 9999 SCT015 SCT040 QNH2991INS BECMG 0917/0919 21011KT 9999 SKC QNH2989INS BECMG 0923/1001 VRB05KT 9999 SCT020 SCT100 QNH2992INS TX29/0919Z TN23/0911Z FN00236", "MUHA 091100Z 0912/1012 VRB03KT 9000 SCT030 BECMG 0914/0916 02012KT BECMG 1003/1005 VRB03KT", "MUHG 091100Z 0912/1012 VRB03KT 9000 FEW030 TEMPO 0916/0918 BKN020 TEMPO 0920/0924 5000 TSRA RA SCT018CB BKN020 FM100100 VRB03KT 9000 SCT040", "MUSC 091100Z 0912/1012 VRB03KT 9000 FEW020 BECMG 0915/0916 BKN020 TEMPO 0921/1001 5000 RA FEW018CB", "MUVR 091100Z 0912/1012 VRB04KT 9000 FEW020 BECMG 0916/0918 35008KT SCT020 BECMG 0923/0924 01005KT", "TAF MWCB 091100Z 0912/1012 VRB03KT 9999 FEW020 PROB30 TEMPO 0915/0921 9999 SHRA SCT016 SCT030", "TAF MWCR 091100Z 0912/1012 VRB03KT 9999 FEW020 PROB30 TEMPO 0915/0921 9999 SHRA SCT016 SCT030", "MYGF 090950Z 0912/1012 22010KT 9999 VCSH FEW018CB SCT025 BKN050 PROB30 TEMPO 0918/1000 25010G20KT 5000 TSRA SCT012CB BKN018 BKN240", "MYNN 090950Z 0912/1012 09005KT 9999 VCSH FEW020 PROB30 TEMPO 1000/1006 34010G20KT 6000 TSRA SCT016CB BKN030 BKN200", "TAF MZBZ 091100Z 0912/1012 VRB02KT 9999 FEW024 BECMG 0915/0917 08006KT", "TAF NCRG 091105Z 0912/1012 10007KT 9999 FEW024", "TAF NFFN 091105Z 0912/1012 10006KT 9999 FEW030 BECMG 0922/0924 29010KT PROB40 TEMPO 1003/1006 5000 TSRA FEW018CB BECMG 1004/1006 10007KT", "TAF NFNA 091107Z 0912/1012 12006KT 9999 SCT026", "TAF NFTF 091106Z 0912/1012 07009KT 9999 FEW015", "TAF NFTV 091111Z 0912/1012 10005KT 9999 SCT018", "TAF NGFU 091113Z 0912/1012 09011KT 9999 FEW016 SCT040 BKN100 PROB40 TEMPO 0912/1012 5000 TSRA BKN015 FEW018CB", "TAF NGTA 091109Z 0912/1012 09009KT 9999 FEW020 SCT100 PROB40 TEMPO 0917/0920 5000 TSRA BKN015 FEW016CB PROB40 TEMPO 1000/1006 5000 TSRA BKN015 FEW016CB", "TAF NIUE 090525Z 0906/1006 10009KT 9999 SCT018", "TAF NLWF 091100Z 0912/1012 10018KT 9999 SCT025 TEMPO 0912/1012 4000 SHRA BKN014 FEW020TCU PROB30 TEMPO 0912/0918 2000 TSRA BKN012 FEW020CB", "TAF NLWW 091100Z 0912/1012 11011KT 9999 SCT025 TEMPO 0912/1012 4000 SHRA BKN014 FEW020TCU PROB30 TEMPO 0912/0918 2000 SHRA BKN012 FEW020CB PROB30 TEMPO 1006/1012 2000 SHRA BKN012 FEW020CB", "TAF NSFA 091106Z 0912/1012 12006KT 9999 SCT026", "NSTU 091126Z 0912/1012 12012G20KT P6SM VCSH SCT018 BKN040 BKN100", "TAF NTAA 091100Z 0912/1018 VRB05KT 9999 FEW023 BKN260 PROB40 TEMPO 0912/0922 06018G28KT 3000 SHRA FEW015CB SCT020 BKN035 PROB30 TEMPO 0912/0922 06020G35KT 1000 TSRA FEW010 SCT015CB BKN030 PROB40 TEMPO 1012/1018 06015G25KT 2500 SHRA FEW015CB SCT020 BKN035", "TAF NVSC 091100Z 0912/1012 VRB03KT 9999 SCT020", "TAF NVSG 091100Z 0912/1012 VRB03KT 9999 SCT020 INTER 0912/0918 9000 -TSRA BKN018 FEW025CB", "TAF NVSL 091100Z 0912/1012 VRB02KT 9999 SCT020 INTER 0912/0918 9000 -TSRA BKN018 FEW025CB", "TAF NVSP 091100Z 0912/1012 VRB02KT 9999 SCT020 INTER 0912/0918 9000 -TSRA BKN018 FEW025CB", "TAF NVSS 091100Z 0912/1012 VRB02KT 9999 SCT020 INTER 0912/0918 9000 -TSRA BKN018 FEW025CB", "TAF NVVA 091100Z 0912/1012 VRB03KT 9999 SCT020 INTER 0912/0918 9000 -TSRA BKN018 FEW025CB", "TAF NVVV 091100Z 0912/1012 VRB02KT 9999 SCT020 INTER 0912/0918 9000 -TSRA BKN018 FEW025CB", "TAF NVVW 091100Z 0912/1012 VRB03KT 9999 SCT020 INTER 0912/0918 9000 -TSRA BKN018 FEW025CB", "TAF NWWD 090500Z 0906/1006 24010KT 9999 FEW035 BECMG 0906/0908 05005KT BECMG 0922/0924 24010KT", "TAF NWWE 081700Z 0818/0918 29008KT 9999 SCT035 PROB30 TEMPO 0818/0821 SHRA BKN014 FEW025TCU PROB30 TEMPO 0906/0909 SHRA FEW018TCU", "TAF NWWK 090500Z 0906/1006 22010KT 9999 SCT030 BECMG 0907/0910 03005KT BECMG 0922/0924 26010KT", "TAF NWWL 091100Z 0912/1012 VRB02KT 9999 FEW025", "TAF NWWM 091100Z 0912/1012 VRB02KT 9999 FEW030", "TAF NWWR 091100Z 0912/1012 VRB02KT 9999 SCT020", "TAF NWWU 081700Z 0818/0918 VRB02KT 9999 FEW030 SCT050 BECMG 0822/0824 31010KT", "TAF NWWW 091100Z 0912/1012 VRB02KT 9999 FEW035 BECMG 0922/0924 25010KT", "TAF NZAA 091121Z 0912/1018 02012KT 9999 -SHRA SCT015 BKN025 TEMPO 0915/0918 6000 SHRA BKN012 FEW020TCU PROB40 TEMPO 0915/0918 02015G40KT 1500 TSRAGR BKN008 FEW020CB FM100000 32015KT 9999 -SHRA SCT020 BECMG 1006/1008 36005KT", "TAF COR NZCH 091114Z 0912/1018 06020G30KT 9999 SCT012 TEMPO 0912/0918 BKN009 FM091800 08015KT 9999 BKN025 FM100000 02010KT 9999 SCT025 PROB30 TEMPO 1003/1008 2500 TSRAGR FEW020CB", "TAF NZQN 091105Z 0912/1006 03008KT 9999 -RA BKN050 TEMPO 0920/0923 7000 RA", "TAF NZWN 091115Z 0912/1018 01012KT 9999 -SHRA SCT020 BKN050 TEMPO 0912/0915 6000 SHRA PROB30 TEMPO 0912/0921 3000 SHRA FEW020TCU FM100000 01018G30KT 9999 -SHRA BKN020 PROB30 TEMPO 1004/1018 3000 SHRA FEW020TCU", "TAF OBBI 091100Z 0912/1018 34010KT CAVOK BECMG 0916/0918 VRB05KT", "TAF OEAB 091100Z 0912/1018 20012KT 9999 FEW020 TEMPO 0912/0922 4000 TS SCT020 FEW025CB BECMG 0922/1000 09006KT PROB30 TEMPO 0922/1005 2500 HZ BECMG 1006/1009 19016KT PROB30 TEMPO 1006/1012 3000 DU BLDU", "TAF OEAH 091010Z 0912/1018 02010KT CAVOK BECMG 0916/0918 VRB03KT BECMG 1006/1008 15005KT", "TAF OEAO 091100Z 0912/1018 17016KT 7000 FEW040 TEMPO 0912/0922 4000 DU BLDU PROB30 TEMPO 0914/0922 FEW025CB SCT040 BECMG 0920/0922 19010KT", "TAF OEBA 091100Z 0912/1018 16016KT 9999 SCT030 TEMPO 0912/1000 3000 TSRA BLDU FEW025CB BKN030 BECMG 0918/0920 18010KT PROB30 TEMPO 0922/1006 2500 HZ BECMG 1000/1002 10006KT", "TAF OEBH 091100Z 0912/1018 10016KT 7000 FEW030 TEMPO 0912/1004 2000 DU BLDU FEW025CB SCT030 BECMG 0918/0920 09010KT BECMG 1008/1010 15016KT SCT030", "TAF OEDF 091010Z 0912/1018 36014KT CAVOK BECMG 0916/0918 VRB03KT TEMPO 1000/1005 5000 BR NSC", "TAF OEDM 091100Z 0912/1018 16016KT 7000 SCT040 SCT040 TEMPO 0912/1000 4000 BLDU TEMPO 0918/1010 VRB20KT 3000 TSRA FEW035CB BKN040 BECMG 1004/1006 19018KT BECMG 1014/1016 09010KT", "TAF OEDR 091010Z 0912/1018 36014KT CAVOK BECMG 0916/0918 VRB03KT TEMPO 1000/1005 5000 BR NSC", "TAF OEGN 091100Z 0912/1018 21010KT 7000 FEW040 TEMPO 0912/1000 3000 DU BLDU FEW035CB SCT040 BECMG 0918/0920 17010KT BECMG 1006/1008 19016KT", "TAF OEGS 091100Z 0912/1018 12013KT 7000 NSC BECMG 0920/0922 15006KT 9999 FEW040 BECMG 1012/1014 20016KT 7000 PROB30 TEMPO 1012/1018 4000 BLDU", "TAF OEGT 091100Z 0912/1018 21012KT 7000 FEW040 TEMPO 0912/0922 3000 BLDU BECMG 0920/0922 34010KT SCT040 SCT100 PROB30 TEMPO 0918/1006 FEW035CB BKN040 BECMG 1006/1008 16016KT BKN040", "TAF OEHL 091100Z 0912/1018 17016KT 7000 FEW040 TEMPO 0912/0922 3000 DU BLDU BECMG 0920/0922 25010KT BECMG 1002/1004 22006KT 9999 FEW040 PROB30 TEMPO 1010/1018 FEW035CB BKN040", "TAF OEJN 091100Z 0912/1018 22010KT 7000 SCT040 TEMPO 0912/0922 VRB20KT 4000 BLDU TSRA FEW025CB BKN040 BECMG 0918/0920 09012KT BECMG 1006/1009 23016KT", "TAF OEKJ 091100Z 0912/1018 03010KT CAVOK BECMG 0920/0922 VRB03KT BECMG 1010/1012 20014KT 7000 FEW040 SCT100", "TAF OEKM 091100Z 0912/1018 20012KT 9999 FEW020 TEMPO 0912/0922 4000 TS SCT020 FEW025CB BECMG 0922/1000 09006KT PROB30 TEMPO 0922/1005 2500 HZ BECMG 1006/1009 19016KT PROB30 TEMPO 1006/1012 3000 DU BLDU", "TAF OEMA 091100Z 0912/1018 17016KT 7000 SCT040 TEMPO 0912/1004 VRB20KT 3000 BLDU TSRA FEW035CB BKN040 BECMG 1006/1008 15016KT BKN040", "TAF OENG 091100Z 0912/1018 08010KT 6000 FEW040 TEMPO 0912/1000 3000 DU BLDU FEW035CB SCT040 BECMG 0920/0922 VRB03KT BECMG 1012/1014 14010KT", "TAF OEPA 091010Z 0912/1018 09005KT CAVOK BECMG 0916/0918 VRB03KT BECMG 1002/1004 18005KT", "TAF OEPS 0909/1015 07010G15KT 9999 SKC QNH3013INS BECMG 0913/0914 06009KT 9999 SKC QNH3015INS BECMG 0921/0922 VRB06KT 9999 SKC QNH3015INS TX32/0911Z TN14/1002Z", "TAF OERF 091100Z 0912/1018 18014KT 7000 NSC TEMPO 0912/0922 3000 DU BLDU BECMG 0918/0920 20010KT BECMG 1006/1008 17016KT", "TAF OERK 091100Z 0912/1018 08010KT 7000 NSC BECMG 0920/0922 VRB03KT CAVOK BECMG 1002/1004 24006KT", "TAF OERR 091100Z 0912/1018 18016KT 7000 NSC TEMPO 0912/0922 3000 DU BLDU BECMG 0918/0920 20010KT BECMG 1004/1006 19018KT 6000 FEW040", "TAF OESH 091100Z 0912/1018 08018KT 6000 FEW040 TEMPO 0912/1000 2500 DU BLDU SCT040 PROB30 TEMPO 0912/0920 FEW025CB BECMG 0920/0922 07018KT PROB30 TEMPO 0920/1004 0800", "TAF OESK 091100Z 0912/1018 18016KT 7000 NSC TEMPO 0912/0922 3000 DU BLDU BECMG 0918/0920 17010KT BECMG 1006/1008 19018KT 6000 FEW040 SCT100", "TAF OETB 091100Z 0912/1018 19006KT 9999 FEW040 BECMG 0918/0920 VRB03KT TEMPO 0918/1010 FEW035CB SCT040 BECMG 1002/1004 24006KT", "TAF OETF 091100Z 0912/1018 17018KT 6000 SCT030 TEMPO 0912/0922 2000 TSRA BLDU FEW025CB BKN030 BECMG 0920/0922 09012KT PROB30 TEMPO 0920/1006 3000 BR BECMG 1008/1010 19018KT 9999 BKN040", "TAF OETR 091100Z 0912/1018 19016KT 7000 FEW040 SCT100 TEMPO 0912/0922 3000 DU BLDU BECMG 0920/0922 19006KT SCT040 TEMPO 0920/1010 FEW035CB BKN040 BECMG 1009/1010 19016KT 7000 NSC", "TAF OEWD 091100Z 0912/1018 10018KT 7000 SCT040 TEMPO 0912/0922 3000 BLDU FEW025CB BKN040 BECMG 0922/1000 08010KT", "TAF OEWJ 091100Z 0912/1018 23016KT 9999 FEW040 TEMPO 0912/1000 TS FEW025CB SCT040 BECMG 0920/0922 16010KT 7000 BECMG 1008/1010 22010KT", "TAF OEYN 091100Z 0912/1018 20014KT 7000 SCT040 TEMPO 0912/1000 VRB20KT 4000 TSRA BLDU FEW025CB BKN030 BECMG 0918/0920 08016KT BECMG 1002/1004 09010KT BECMG 1010/1012 18014KT", "TAF OIAA 091100Z 0912/1018 33006KT 7000 NSC TEMPO 0912/0918 33020KT 4000 SA NSC", "TAF OIAW 091100Z 0912/1018 08006KT 7000 NSC TEMPO 0912/0918 29020KT 4000 SA NSC", "TAF OIBB 091110Z 0912/0921 21008KT 8000 NSC TEMPO 0912/0916 21016KT", "TAF OIBK 091100Z 0912/1018 28006KT 7000 NSC BECMG 0920/0922 3000 BR/HZ TEMPO 0922/1004 1000 BR BECMG 1004/1006 5000 HZ TEMPO 1012/1018 28014KT", "TAF OIBP 091110Z 0912/0921 17008KT 6000 NSC TEMPO 0912/0916 20016KT", "TAF OICC 091110Z 0912/0921 33008KT 8000 FEW050 SCT100 TEMPO 0912/0916 33014G24KT PROB30 TEMPO FEW045CB SCT050 BKN100 TEMPO 0916/0921 32012KT", "TAF OICI 091100Z 0912/1018 25006KT 7000 FEW035 SCT090 TEMPO 0912/0918 27018KT 6000 SCT035 BKN100", "TAF OIFM 091100Z 0912/1018 30006KT 7000 NSC TEMPO 0912/0914 32010G20KT FEW035CB SCT100 TEMPO 1008/1012 14016KT FEW035CB SCT100", "TAF OIGG 091110Z 0912/0921 02008KT 8000 FEW025 BKN100 TEMPO 0912/0916 02018KT PROB30 TEMPO 0913/0916 4000 RA/DZ BR FEW025CB SCT030 BKN100 TEMPO 0916/0921 4000 RA/DZ BR SCT020 FEW025CB BKN090 PROB30 TEMPO 0920/0921 1500 RA/DZ BR BKN020", "TAF OIIE 091100Z 0912/1018 28008KT 8000 FEW040 SCT100 TEMPO 0912/0917 32018G28KT 4000 SA FEW035CB SCT040 BKN100", "TAF OIII 091100Z 0912/1018 28008KT 8000 FEW040 SCT100 TEMPO 0912/0915 32018G28KT 4000 SA FEW035CB SCT040 BKN100 PROB30 TEMPO 0906/0912 4000 TSRA SCT035CB SCT040 OVC100", "TAF OIIP 090530Z 0906/0915 29008KT 7000 SCT035 OVC100 TEMPO 0906/0909 29012KT PROB30 4000 HZ TEMPO 0909/0915 27012G22KT", "TAF OIKB 091100Z 0912/1018 22006KT 7000 NSC TEMPO 0912/0916 22020KT 4000 SA BECMG 0920/0922 06004KT 3000 HZ/BR TEMPO 1000/1003 2000 BR BKN025 BECMG 1004/1006 22006KT 7000 TEMPO 1008/1016 24020KT 4000 SA", "TAF OIKK 091100Z 0912/1018 06006KT 7000 NSC TEMPO 0912/0916 06016KT FEW035CB SCT100 TEMPO 1010/1018 09012G22KT", "TAF OIMM 091100Z 0912/1018 30008KT 8000 FEW040 TEMPO 0912/0921 29018G24KT 4000 SA SCT035 BKN100 TEMPO 1015/1018 12020KT", "TAF OING 091110Z 0912/0921 24008KT 8000 FEW035 BKN100 TEMPO 0912/0916 24012G22KT PROB30 TEMPO 4000 RA/DZ FEW030CB SCT035 BKN100", "TAF OINZ 091110Z 0912/0921 31008KT 8000 NSC TEMPO 0912/0916 31018KT FEW035 SCT100 PROB30 TEMPO FEW030CB SCT035 BKN100", "TAF OISL 091100Z 0912/1018 170086KT 8000 FEW040 TEMPO 0912/0915 18018KT", "TAF OISS 091100Z 0912/1018 11006KT 8000 NSC TEMPO 0912/0915 22018KT 6000 SCT035 BKN100", "TAF OITL 091110Z 0912/0921 VRB08KT 8000 FEW007 SCT080 TEMPO 0912/0918 09016G26KT PROB30 TEMPO 0913/0918 4000 RA/DZ BR SCT007 FEW030CB BKN080 TEMPO 0918/0921 07010G20KT 4000 BR BKN007 FEW030CB BKN080", "TAF OITR 091100Z 0912/1018 08006KT 8000 FEW040 BKN100 TEMPO 0912/0915 12018KT 6000 FEW030CB SCT035 BKN090 PROB30 0912/0915 5000 SHRA TEMPO 0921/1006 24020KT 4000 TSRA SCT030CB SCT035 OVC090", "TAF OITT 091100Z 0912/1018 21004KT 8000 FEW030 BKN100 TEMPO 0912/0918 24018KT 6000 FEW030CB SCT035 BKN090 PROB30 0912/0915 5000 SHRA TEMPO 1003/1012 18018KT 6000 FEW030CB SCT035 BKN080 PROB40 1003/1008 3000 TSRA SCT030CB SCT035 OVC090", "TAF OIYY 091110Z 0912/0921 35008KT 6000 NSC TEMPO 0912/0918 35012G22KT", "TAF OIZH 091100Z 0912/1018 04006KT 7000 NSC TEMPO 0912/0914 20018KT FEW035CB SCT040 BKN100 TEMPO 1008/1016 06020KT", "TAF OJAI 090500Z 0906/1012 22018KT 4000 BLDU NSC BECMG 1006/1008 -SHRA SCT035 FEW025TCU", "TAF OJAM 091022Z 0912/1018 25014KT 4000 DU NSC PROB30 0912/0918 22020KT 2000 BLDU BECMG 0920/0922 14014KT 3000 PROB30 TEMPO 1009/1012 26020KT 2000 RA BLDU BKN070 TEMPO 1012/1018 3000 25020KT TSRA FEW050CB OVC080", "TAF OJAQ 091022Z 0912/1018 22014KT 4000 BLDU NSC BECMG 1006/1008 SCT080 PROB30 1009/1014 2000 BLDU TEMPO 1010/1018 20020KT 2000 +TSRAGR FEW050CB OVC080", "TAF OKAS 090800Z 0908/1014 32012KT 9999 SKC QNH3007INS TEMPO 0909/0914 35010G20KT BECMG 0914/0915 34009KT 9999 SKC QNH2997INS BECMG 0921/0922 30006KT 9999 SKC QNH2992INS BECMG 1004/1005 VRB04KT 9999 SKC QNH2995INS BECMG 1009/1010 11010G15KT 9999 SKC QNH2984INS TX35/0910Z TN18/1002Z", "TAF OLBA 091000Z 0912/1018 08010G25KT 8000 SCT070 BKN180 BECMG 0915/0918 32015KT BECMG 0918/0921 20010G25KT BECMG 0921/0924 17010G25KT BECMG 1000/1003 11010KT SCT070 BECMG 1003/1006 28010KT BECMG 1006/1009 16015KT BECMG 1009/1012 25010KT", "TAF OMAA 091100Z 0912/1018 32011KT 8000 NSC BECMG 0917/0919 04005KT PROB30 1000/1004 VRB02KT 3000 BR BECMG 1007/1009 34010KT", "TAF OMAD 091100Z 0912/1018 30010KT 8000 NSC BECMG 0917/0919 04005KT BECMG 0921/0923 VRB02KT PROB30 1000/1004 4000 HZ BECMG 1007/1009 34010KT", "TAF OMAL 091100Z 0912/1018 30010KT 8000 NSC PROB30 TEMPO 0912/0915 VRB15G25KT 4000 SHRA BLDU FEW040TCU BECMG 0919/0921 04005KT BECMG 1002/1004 14005KT BECMG 1008/1010 32008KT PROB30 TEMPO 1009/1015 VRB15G25KT 4000 SHRA BLDU FEW040TCU", "TAF OMDB 091100Z 0912/1018 32012KT 8000 NSC BECMG 0916/0918 14004KT PROB30 1001/1004 3000 BR BECMG 1007/1009 34014KT BECMG 1016/1018 04005KT", "TAF OMDW 091100Z 0912/1018 33014KT 8000 NSC BECMG 0916/0918 14005KT PROB40 0921/1005 3000 HZ PROB30 0923/1004 1500 BR BECMG 1007/1009 34014KT BECMG 1016/1018 04005KT", "TAF COR OMFJ 091127Z 0912/1018 10007KT 7000 FEW025 PROB30 0912/0914 VRB15G25KT 5000 TSRA FEW035CB BECMG 0914/0916 VRB03KT NSC BECMG 1005/1007 09008KT BECMG 1014/1016 17004KT", "TAF OMRK 091100Z 0912/1018 34014KT 8000 NSC BECMG 0915/0917 VRB02KT PROB30 0921/1005 1500 BR BECMG 1007/1009 34014KT BECMG 1015/1017 VRB02KT", "TAF OMSJ 091100Z 0912/1018 33012KT 8000 NSC BECMG 0916/0918 14004KT PROB40 0921/1005 3000 HZ PROB30 0923/1004 1500 BR BECMG 1007/1009 33014KT BECMG 1016/1018 04005KT", "TAF OODQ 090500Z 0906/1006 20005KT 8000 SCT035 BECMG 0908/0910 12015KT BECMG 0918/0920 VRB02KT PROB30 TEMPO 0922/1006 RA BKN025", "TAF OOMS 091100Z 0912/1018 04012KT 8000 FEW020 SCT025 PROB30 TEMPO 0912/0915 -TSRA BKN025 FEW030CB BECMG 0915/0917 VRB02KT PROB30 TEMPO 0923/1003 4000 BR BKN020 BECMG 1006/1008 03010KT PROB30 TEMPO 1008/1012 RA BKN025 BECMG 1015/1017 VRB02KT", "TAF OOSA 091140Z 0912/1018 16010KT 9999 FEW025 BECMG 0915/0917 VRB03KT BKN025 PROB40 0920/1008 4000 +RA SCT012 BKN025", "TAF OOSH 091100Z 0912/1018 07012KT 8000 SCT035 PROB30 TEMPO 0912/0915 TSRA BKN025 FEW030CB BECMG 0915/0917 VRB02KT PROB30 TEMPO 0923/1002 4000 BR BKN020 BECMG 1006/1008 08010KT BECMG 1015/1017 VRB02KT", "TAF OPBW 090945Z 0912/1006 23005KT 4000 FU FEW120 TN21/1001Z PROB30 TEMPO 1001/1005 00000KT 1500 FU NSC", "TAF OPDG 090945Z 0912/1006 18005KT 5000 FU SCT120 TN20/1001Z", "TAF OPFA 090945Z 0912/1018 13003KT 4000 FU NSC TX35/1010Z TN19/1001Z TEMPO 1000/1003 00000KT 3000 FU NSC FM100600 13003KT 6000 NSC BECMG 1015/1018 30002KT 4000 FU FEW100", "TAF OPGD 090330Z 0906/1006 23010KT 6000 SCT030 BECMG 0918/0920 VRB03KT 3000 BR SCT030 TEMPO 100/1004 00000KT 2000 BR SCT030", "TAF OPIS 090955Z 0912/1018 29010KT 5000 HZ NSC TEMPO 0918/0921 11008KT 5000 FU NSC TEMPO 0921/1004 11008KT 4000 FU NSC TEMPO 1009/1015 27006G16KT 6000 FEW040", "TAF OPKC 090930Z 0912/1018 25007G17KT 7000 NSC BECMG 0919/0921 31008KT 6000 NSC TEMPO 1001/1006 27006KT 4000 FU NSC FM100800 24007G17KT 6000 NSC", "TAF OPLA 091100Z 0912/1018 32006KT 6000 NSC TX35/1010Z TN18/1001Z FM091800 31005KT 4000 FU NSC TEMPO 1001/1004 21003KT 2000 FU NSC FM100600 30008KT 6000 NSC", "TAF OPMT 090945Z 0912/1006 23005KT 4000 FU SCT120 TN22/1001Z PROB30 TEMPO 1001/1005 00000KT 1500 FU NSC", "TAF OPNH 090930Z 0912/1018 23008KT 6000 NSC BECMG 0917/0919 34005KT 5000 HZ NSC FM100700 21010KT 7000 NSC", "TAF OPPS 090930Z 0912/1018 23008KT 5000 HZ FEW060 SCT120 TEMPO 0912/0916 23008G25KT 4000 -TSRA FEW035TCU BECMG 1003/1006 31006KT 6000 FEW100", "TAF OPRK 090945Z 0912/1006 23005KT 4000 FU FEW120 TN20/1001Z", "TAF OPSK 090930Z 0912/1012 18007KT 4000 HZ NSC BECMG 0918/0920 VRB03KT 3000 HZ NSC BECMG 1004/1006 21008KT 5000 HZ NSC", "TAF OPST 090945Z 0912/1018 31006KT 4000 FU NSC TX34/1010Z TN17/1001Z TEMPO 1001/1003 VRB03KT 2000 BR NSC", "TAF ORBI 091130Z 0912/1012 07006KT 8000 NSC", "TAF ORER 091100Z 0912/1012 33006KT 7000 FEW040 BKN100 BECMG 0920/0922 VRB02KT", "TAF ORMM 091030Z 0912/1012 34012KT CAVOK ", "TAF ORSU 091100Z 0912/1012 29005KT 9999 FEW045 BKN180 BECMG 0915/0917 CAVOK BECMG 1005/1007 19015KT 9999 SCT045 BKN180", "OSAP 091000Z 0912/1012 28010KT 9999 SCT030 BECMG 1000/1003 33010KT 5000BR SCT030 BECMG 1008/1010 33012KT 8000 SCT030", "OSDI 091000Z 0912/1018 04012KT 7000 SCT030 BKN100 PROB30 TEMPO 1009/1018 20020KT 5000RA FEW025CB BKN030 OVC100", "OSLK 091000Z 0912/1012 06014KT 8000 FEW026 SCT030 BKN100 TEMPO 1006/1019 22012KT", "TAF OTBD 091110Z 0912/1018 06009KT CAVOK TEMPO 0912/0920 12006KT TEMPO 0915/1003 VRB03KT", "TAF OTBH 090800Z 0908/1014 32015KT 9999 SKC QNH2990INS WND 09010KT AFT 0914 BECMG 0919/0920 VRB06KT 9999 SKC QNH2989INS BECMG 1005/1006 16012KT 9999 SKC QNH2984INS TX35/0911Z TN17/1003Z", "TAF OTHH 091109Z 0912/1018 06009KT CAVOK TEMPO 0912/0920 12006KT TEMPO 0915/1003 VRB03KT", "PAAQ 091140Z 0912/1012 22009KT 3SM -SN BR OVC015 TEMPO 0912/0916 1 1/2SM -SN BR FM091800 21006KT 1SM -SN BR OVC007 FM100300 VRB05KT 3SM -SN BR SCT007 OVC020 FM100600 VRB05KT P6SM OVC025", "PABE 091125Z 0912/1012 26005KT P6SM SCT025 TEMPO 0912/0916 BKN025 FM092000 23016KT P6SM SCT015 OVC025 FM092200 22008KT P6SM OVC015", "PABR 091145Z 0912/1012 VRB03KT P6SM SKC FM091800 04012KT 3SM -SN BR BKN025", "PABT 091145Z 0912/1012 16006KT 5SM -SN BR SCT025 OVC040 TEMPO 0912/0916 2SM -SN BKN025 FM092000 22005KT 6SM -SN SCT025 BKN040", "PACD 091125Z 0912/1012 31008KT P6SM VCSH SCT025 BKN050 TEMPO 0912/0916 -SN BKN025 FM091600 30010KT P6SM OVC025", "PACV 091140Z 0912/1012 05005KT 4SM -SN BR OVC025 TEMPO 0912/0916 1 1/2SM -SN BR OVC015 FM091600 10010G20KT 5SM -SN BR OVC025 FM100000 12015G23KT P6SM OVC050 FM100600 09008KT P6SM -SN OVC015", "PADL 091125Z 0912/1012 VRB06KT P6SM SKC", "PADQ 091140Z 0912/1012 29023G32KT P6SM SKC", "PADU 091125Z 0912/1012 28008KT P6SM VCSH SCT025 OVC035 TEMPO 0912/0916 -RA BKN025 FM092000 30007KT P6SM VCSH SCT015 OVC025", "TAF AMD PAED 091405Z 0914/1019 35010G15KT 3200 -SN BR FEW005 BKN018 OVC030 620189 510604 QNH2925INS TEMPO 0914/0917 6000 -SN BR BECMG 0919/0920 36012G18KT 1600 -SN BR SCT005 BKN015 OVC025 640159 510604 QNH2923INS TEMPO 0922/1002 0800 SN FZFG BKN004 640049 BECMG 1003/1004 34010G15KT 4800 -SN BR FEW005 BKN015 OVC025 620159 510604 QNH2925INS BECMG 1013/1014 34010G15KT 4800 -SN BR SCT005 BKN008 OVC015 620088 510604 QNH2947INS TXM09/1004Z TNM13/0915Z", "TAF PAEI 091400Z 0914/1020 23010KT 6000 -SN BR SCT015 OVC025 620359 QNH2944INS TEMPO 0914/0918 4000 -SN BR BKN012 BKN018 620129 BECMG 0920/0921 26010KT 9999 VCSH BKN020 BKN035 620358 QNH2946INS TEMPO 1003/1007 4000 -SN BR BKN013 620139 BECMG 1010/1011 VRB06KT 9999 NSW SCT020 BKN025 620258 QNH2958INS TXM12/1001Z TNM19/1014Z", "PAEN 091140Z 0912/1012 02008KT P6SM OVC050 FM092200 33010KT P6SM -SN SCT015 OVC035 FM100700 36012KT P6SM BKN050", "PAFA 091145Z 0912/1018 25007KT 6SM -SN BR SCT025 OVC050 TEMPO 0912/0915 5SM -SN BKN025 FM100900 25005KT P6SM VCSH BKN040", "PAGA 091145Z 0912/1012 VRB05KT P6SM SCT050 AMD NOT SKED", "PAGK 091140Z 0912/1012 32004KT P6SM SCT020 OVC050 TEMPO 0912/0914 2SM -SN BR OVC020 FM091400 23004KT 1 1/2SM -SN BR OVC015 FM092000 34004KT P6SM OVC050", "PAGS 091409Z 0914/1012 35006KT 6SM -RA BR SCT025 BKN035 OVC050 WS020/12040KT TEMPO 0914/0918 12015G25KT 4SM -RA BKN025 OVC040 FM091800 34010KT P6SM -RA OVC025 FM100000 14012KT 5SM -RA BR OVC025 AMD LTD TO CLD VIS AND WIND", "PAGY 091408Z 0914/1012 VRB04KT 6SM -SHRA BR BKN025 OVC050 WS020/17035KT FM091800 VRB05KT P6SM -RA OVC040 FM100600 21012G22KT P6SM -RA OVC040 AMD LTD TO CLD VIS AND WIND", "PAHN 091131Z 0912/1012 12010KT 6SM -RA BR SCT015 OVC035 WS020/15030KT TEMPO 0912/0916 08012G20KT 4SM -RA BR OVC025 FM091800 32007KT P6SM -RA SCT025 OVC050 AMD LTD TO CLD VIS AND WIND", "PAHO 091140Z 0912/1012 34010G20KT P6SM BKN060 FM100200 30013G23KT P6SM -SN SCT015 OVC035 FM100500 30020G28KT P6SM OVC050", "PAIL 091125Z 0912/1012 32012KT P6SM SKC TEMPO 0912/0916 32015G20KT FM091800 32012G20KT P6SM SKC", "PAJN 091131Z 0912/1012 12018G28KT 6SM -RA BR OVC035 WS020/14040KT TEMPO 0912/0916 4SM -RA BR OVC025 FM091600 10010KT 6SM -RA BR BKN025 OVC050 FM100000 12015G25KT 4SM -RA OVC025 WS020/17035KT FM100600 11012G22KT 6SM -RA BKN025 OVC050", "PAKN 091125Z 0912/1012 03008KT P6SM SKC FM092000 35011G18KT P6SM SCT250", "PAKT 091131Z 0912/1012 14018G28KT 5SM -RA BR SCT015 OVC020 WS020/16040KT FM092000 14025G40KT 4SM -RA BR OVC015 WS020/17065KT FM100500 14015G25KT 5SM -RA BR SCT015 OVC025 WS020/18035KT AMD LTD TO CLD VIS AND WIND 0912/0915", "PAKW 091131Z 0912/1012 12005KT 6SM -RA BR SCT025 OVC035 WS020/15035KT TEMPO 0912/0916 15008G16KT 4SM -RA OVC025 FM092000 15020G35KT 4SM -RA BR OVC025 WS020/20055KT FM100200 19012G22KT 4SM -RA BR OVC025 WS020/20035KT FM100900 19008KT 6SM -RA SCT025 OVC040 AMD LTD TO CLD VIS AND WIND", "PAMC 091145Z 0912/1012 32003KT P6SM SKC", "PANC 091140Z 0912/1018 02012G20KT P6SM VCSH SCT025 OVC050 FM091500 36015G25KT 6SM -SN BR OVC025 FM091800 36008KT 3SM -SN BR OVC015 FM100300 36009KT P6SM VCSH SCT025 OVC050", "PAOM 091145Z 0912/1012 25005KT 6SM -SN BKN035 TEMPO 0912/0915 2SM -SN BKN025 FM092100 27007KT P6SM VCSH SCT025 BKN050", "PAOR 091145Z 0912/1012 32015G25KT P6SM VCSH BKN025 BKN050 FM091400 30015G25KT 2SM -SN BLSN BKN025 FM092300 30013G22KT 5SM BLSN VCSH SCT025 BKN050", "PAOT 091145Z 0912/1012 12010KT P6SM VCSH SCT020 OVC050", "PAPG 091131Z 0912/1012 13009KT 6SM -RA BR OVC025 WS020/16035KT FM091900 11015G25KT 5SM -RA BR OVC025 WS020/15050KT FM100000 11011G21KT 4SM RA BR OVC020 WS020/15050KT FM100600 16014KT 6SM -RA BR OVC015 AMD LTD TO CLD VIS AND WIND 0912/0915", "PAQT 091145Z 0912/1012 36006KT P6SM VCSH BKN035 FM091400 06013KT 3SM -SN BR BKN025", "PASC 091145Z 0912/1012 03013KT P6SM VCSH OVC035 FM091400 06013KT 3SM -SN BR BKN025", "PASD 091125Z 0912/1012 33012KT P6SM VCSH SCT025 BKN035 TEMPO 0912/0916 32010G15KT BKN025 FM092100 34013KT P6SM BKN025", "PASI 091131Z 0912/1012 13010KT 6SM -RA BR SCT025 OVC035 WS020/14045KT TEMPO 0912/0916 13015G25KT 5SM -RA OVC020 FM091600 13015G25KT 5SM -RA BR OVC020 WS020/14035KT FM092100 11010KT 4SM -RA BR OVC015 FM100600 16014KT 5SM -RA BR SCT015 OVC025", "PASN 091125Z 0912/1012 13008KT P6SM VCSH SCT025 OVC035 TEMPO 0912/0916 BKN025 FM091600 14005KT P6SM VCSH SCT015 OVC025 FM092000 13006KT 6SM -SN SCT007 BKN015 FM100600 12010KT 4SM -SN BR BKN007", "TAF AMD PASY 091115Z 0911/1012 22018KT 8000 BR SCT005 BKN100 QNH2983INS BECMG 0912/0913 22018KT 8000 BR BKN005 BKN080 QNH2980INS BECMG 0919/0920 18020G30KT 6000 -RA BR OVC005 520005 QNH2952INS BECMG 1002/1003 16020G30KT 6000 -RA OVC005 520005 QNH2943INS BECMG 1010/1011 16018KT 9999 NSW OVC010 QNH2924INS TX05/0922Z TN02/1006Z", "PATA 091145Z 0912/1012 26005KT P6SM SCT100", "PATK 091140Z 0912/1012 13005KT 2SM -SN BR FEW007 OVC025 TEMPO 0912/0916 4SM -SN BR OVC035 FM092100 35013G23KT P6SM OVC050", "PAUN 091145Z 0912/1012 22010KT 6SM -SN BR BKN025 FM091400 12010KT 3SM -SN BR BKN015 FM092100 VRB05KT 6SM -SN SCT015 BKN025", "PAVD 091140Z 0912/1012 VRB03KT P6SM VCSH OVC060 TEMPO 0912/0914 2SM -SN BR BKN015 OVC030 FM091400 06003KT 1 1/2SM -SN BR OVC015 FM092100 20005KT P6SM -SN OVC025 FM100000 20005KT P6SM OVC050", "PAWG 091409Z 0914/1012 11010KT 6SM -RA SCT025 OVC040 WS020/15035KT FM091900 13022G32KT 4SM -RA BR OVC025 WS020/18045KT FM100000 14015G25KT 3SM -RA BR BKN015 OVC025 WS020/18050KT FM100900 11010KT 6SM -RA BR OVC025 AMD NOT SKED 0912/0915", "PAYA 091131Z 0912/1012 11012G22KT 6SM -RA BR SCT015 OVC025 WS020/14040KT TEMPO 0912/0914 5SM -RA BR BKN015 OVC025 FM091400 10008G18KT P6SM -RA SCT025 OVC050 WS020/14050KT FM091800 09007KT P6SM -RA OVC050 WS020/12035KT FM100600 13006KT 4SM -RA BR BKN015 OVC025 AMD LTD TO CLD VIS AND WIND", "PGRO 090525Z 0906/1006 12012KT P6SM SCT015 SCT040", "PGSN 091129Z 0912/1012 11010KT P6SM FEW018 SCT060", "TAF PGUA 091000Z 0910/1016 15010G15KT 9999 FEW012 SCT030 QNH2983INS TEMPO 0910/0916 15012G18KT 8000 -SHRA BKN012 TEMPO 0921/1002 15015G25KT 8000 -SHRA BKN010 TX29/1002Z TN25/0918Z", "PGUM 091129Z 0912/1018 10008KT P6SM VCSH FEW018 SCT060", "PGWT 090525Z 0906/1006 12012KT P6SM SCT015 SCT040", "PHJH 082324Z 0900/0924 05013G21KT P6SM FEW025 SCT045 BKN200 FM090400 05008KT P6SM FEW025 SCT045 SCT200 FM092000 05015G23KT P6SM VCSH SCT020 BKN040", "PHJR 091126Z 0912/1012 36005KT P6SM VCSH FEW025 SCT050 SCT150 FM092000 06009KT P6SM FEW030 SCT050 FM100600 02005KT P6SM VCSH FEW025 SCT050", "PHKO 091126Z 0912/1012 VRB05KT P6SM FEW030 SCT060 FM091900 24009KT P6SM FEW030 SCT060 FM100500 VRB05KT P6SM FEW030 SCT060", "PHLI 091126Z 0912/1012 03010KT P6SM VCSH SCT025 BKN050 BKN150 TEMPO 0912/0916 5SM SHRA BKN025 OVC050 FM091800 06015G23KT P6SM VCSH SCT025 BKN050", "PHMK 091126Z 0912/1012 04008KT P6SM VCSH SCT025 SCT045 SCT150 FM092000 04012G20KT P6SM FEW025 SCT045 FM100700 04008KT P6SM VCSH SCT025 SCT045", "PHNL 091126Z 0912/1018 36004KT P6SM VCSH SCT025 BKN050 BKN150 FM092000 06012G20KT P6SM FEW030 SCT050 FM100600 05008KT P6SM VCSH SCT025 BKN050", "PHNY 091126Z 0912/1012 04008KT P6SM VCSH SCT020 BKN050 BKN150 FM092300 05012G20KT P6SM SCT020 BKN040 AMD NOT SKED", "PHOG 091126Z 0912/1012 06008KT P6SM VCSH SCT030 BKN050 TEMPO 0912/0916 5SM SHRA BKN030 OVC050 FM092100 04015G23KT P6SM FEW025 SCT045 FM100600 05009KT P6SM VCSH SCT030 BKN050", "PHTO 091126Z 0912/1012 24004KT P6SM SCT020 BKN045 FM092000 06008KT P6SM SCT025 SCT045 FM100600 24005KT 6SM SHRA BKN025 OVC040", "PKMJ 091129Z 0912/1012 06016KT P6SM VCSH SCT015 SCT050 BKN120 TEMPO 0912/0915 -SHRA SCT015 BKN035", "PKWA 091129Z 0912/1012 06015KT P6SM VCSH FEW020 SCT060", "TAF PLCH 091109Z 0912/1012 08005KT 9999 FEW020", "PMDY 091126Z 0912/1012 10007KT P6SM FEW015 SCT025 FM091800 08012G20KT 6SM SHRA SCT015 BKN025 FM100500 09012G20KT P6SM VCSH SCT015 SCT025 AMD NOT SKED", "PTKK 091129Z 0912/1012 08011KT P6SM VCSH SCT012 BKN120 TEMPO 0914/0917 -SHRA SCT012 BKN050", "PTRO 091129Z 0912/1012 26008KT P6SM VCSH SCT015 BKN130 TEMPO 0913/0916 -SHRA SCT015 BKN035", "PTYA 091129Z 0912/1012 16010KT P6SM VCSH SCT015 BKN110", "TAF AMD PWAK 090700Z 0907/1012 08009KT 9999 SCT020 BKN040 QNH2991INS TEMPO 0907/0911 BKN018 TX30/1001Z TN24/0917Z FOR MIL USE ONLY", "TAF RCFN 091100Z 0912/1012 35005KT 9999 FEW020 BKN040 BECMG 1000/1002 12005KT TEMPO 1006/1010 30005KT 5000 RA FEW012 BKN022 BECMG 1010/1012 33005KT", "TAF RCKH 091100Z 0912/1018 26005KT 9999 FEW015 BKN032 BECMG 0916/0918 36005KT TEMPO 0920/1001 06005KT 5000 HZ FEW012 BKN022 BECMG 1001/1003 28005KT BECMG 1012/1014 01005KT", "TAF RCMQ 091100Z 0912/1012 01005KT 9999 FEW010 BKN040 TX25/1005Z TN16/0920Z BECMG 0915/0918 18004KT FEW012 SCT030 BKN060 TEMPO 0921/1002 6000 FEW010 BKN040 BECMG 1003/1006 27006KT FEW010 SCT050 TEMPO 1007/1011 FEW010 BKN050", "TAF RCNN 091100Z 0912/1012 36004KT 9999 FEW012 SCT050 TX30/1005Z TN20/0921Z BECMG 0913/0916 FEW012 BKN050 TEMPO 0918/0923 6000 FEW012 SCT040 BECMG 1001/1004 33008KT FEW012 SCT050 BKN080 BECMG 1006/1009 28008KT FEW012 SCT080", "TAF RCSS 091100Z 0912/1012 09012KT 9999 FEW020 BKN032 TEMPO 0918/0924 VRB03KT BECMG 1000/1002 11005KT TEMPO 1004/1010 31005KT 5000 RA FEW010 BKN022", "TAF RCTP 091100Z 0912/1018 12008KT 9999 FEW015 BKN032 TEMPO 0912/0916 08013KT TEMPO 0918/0924 20005KT 5000 BR FEW012 BKN020 BECMG 1000/1002 33005KT BECMG 1010/1012 22005KT 5000 BR SCT010 BKN016 BECMG 1016/1018 2500 BR SCT003 BKN006", "TAF RJAA 091106Z 0912/1018 36005KT 9999 FEW030 BECMG 1000/1003 22010KT", "TAF RJAH 091106Z 0912/1018 36004KT 9999 FEW030 BECMG 1000/1003 22016KT BECMG 1012/1015 20006KT", "TAF RJBB 091105Z 0912/1018 19007KT CAVOK BECMG 0918/0920 12004KT BECMG 1000/1003 29006KT BECMG 1006/1009 20014KT", "TAF RJCB 091105Z 0912/1018 31003KT 9999 FEW030 BECMG 0914/0916 20005KT BECMG 1012/1015 30005KT", "TAF RJCC 091105Z 0912/1018 15005KT 9999 FEW015 BECMG 0922/1000 17018KT BECMG 1012/1015 16008KT", "TAF RJCH 091107Z 0912/1018 36005KT 9999 FEW010 BKN020 BECMG 0920/0922 24012KT TEMPO 1000/1006 23022G32KT", "TAF RJCK 091107Z 0912/1018 28004KT 9999 FEW015 BECMG 0919/0921 20014KT", "TAF RJCM 091107Z 0912/1018 28003KT 9999 FEW030 BKN050 BECMG 0912/0914 23005KT BECMG 1003/1006 04010KT BECMG 1009/1012 19006KT", "TAF RJEC 091105Z 0912/1018 17004KT 9999 FEW005 BECMG 1000/1003 21014KT", "TAF RJFF 091105Z 0912/1018 14005KT 9999 FEW030 BECMG 1000/1003 31009KT BECMG 1006/1009 16010KT", "TAF RJFK 091107Z 0912/1018 35005KT 9999 FEW030 BECMG 1000/1003 21007KT BECMG 1009/1012 34005KT", "TAF RJFM 091107Z 0912/1018 28008KT 9999 FEW030 BECMG 1000/1003 15016KT BECMG 1009/1012 26005KT", "TAF RJFO 091107Z 0912/1018 29005KT 9999 FEW030 BECMG 0915/0917 25004KT BECMG 1000/1003 07008KT BECMG 1009/1012 25004KT", "TAF RJFR 091105Z 0912/1018 22006KT 9999 FEW030", "TAF RJFS 091106Z 0912/1018 26006KT 9999 FEW030 BECMG 0916/0918 03005KT BECMG 1000/1003 16011KT", "TAF RJFT 091106Z 0912/1018 07005KT 9999 FEW030 BECMG 0922/1000 23010KT BECMG 1009/1012 09005KT", "TAF RJFU 091106Z 0912/1018 15005KT 9999 FEW030 BECMG 1000/1003 21015KT BECMG 1012/1015 15007KT", "TAF RJGG 091105Z 0912/1018 35005KT 9999 FEW030 BECMG 1000/1003 16012KT", "TAF RJNK 091105Z 0912/1018 18004KT 9999 FEW030 BECMG 1000/1003 27010KT BECMG 1009/1012 18006KT", "TAF RJNS 091105Z 0912/1018 30005KT 9999 FEW030 TEMPO 1000/1006 25015G25KT", "TAF RJNT 091105Z 0912/1018 20006KT 9999 FEW030 BECMG 1000/1003 30010KT BECMG 1009/1012 19010KT", "TAF RJOA 091105Z 0912/1018 32004KT CAVOK", "TAF RJOB 091105Z 0912/1018 28005KT CAVOK BECMG 0915/0917 36004KT BECMG 1000/1003 22010KT BECMG 1012/1015 02005KT", "TAF RJOC 091105Z 0912/1018 19007KT CAVOK BECMG 1000/1003 25015KT BECMG 1012/1015 19007KT", "TAF RJOH 091105Z 0912/1018 20006KT CAVOK BECMG 1000/1003 26011KT BECMG 1012/1015 18005KT", "TAF RJOI 0909/1009 20010KT 9999 SKC 512906 QNH3004INS FM0913000 29006KT 9000 HZ SKC 512708 QNH3008INS BECMG 0922/1000 VRB06KT 8000 HZ FEW030 512507 QNH3012INS BECMG 1002/1004 19012KT 9999 NSW FEW030 SCT200 510005 QNH3010INS FM100500 20009KT 9999 FEW030 SCT200 510005 QNH3007INS T07/0920Z T18/1006Z", "TAF RJOK 091105Z 0912/1018 35008KT CAVOK BECMG 1000/1003 18010KT BECMG 1009/1012 35006KT", "TAF RJOM 091105Z 0912/1018 12007KT CAVOK BECMG 1000/1003 25008KT BECMG 1009/1012 12007KT", "TAF RJOO 091105Z 0912/1018 32004KT CAVOK BECMG 1000/1003 22008KT BECMG 1009/1012 25006KT", "TAF RJOT 091105Z 0912/1018 20005KT CAVOK BECMG 0913/0915 15006KT BECMG 0922/1000 31005KT BECMG 1006/1009 15005KT", "TAF RJSA 091112Z 0912/1018 21008KT 9999 FEW020 BECMG 0921/0923 23018KT TEMPO 1000/1006 23020G30KT", "TAF RJSF 091113Z 0912/1018 14004KT 9999 FEW030 BECMG 1000/1003 20010KT BECMG 1006/1009 01010KT BECMG 1012/1015 14004KT", "TAF RJSI 091107Z 0912/1018 30005KT 9999 FEW030 BECMG 0912/0914 19004KT BECMG 1003/1006 26010KT BECMG 1009/1012 19004KT", "TAF RJSK 091112Z 0912/1018 29008KT 9999 FEW010 BKN030 BECMG 0912/0914 14004KT BECMG 1000/1003 24013KT BECMG 1012/1015 14004KT", "TAF RJSN 091105Z 0912/1018 20006KT 9999 FEW030 BECMG 0914/0916 17006KT BECMG 0921/0923 24010KT BECMG 1009/1012 17006KT", "TAF RJSS 091107Z 0912/1018 24004KT 9999 FEW030 BECMG 1000/1003 14012KT BECMG 1006/1009 24004KT", "TAF RJTT 091105Z 0912/1018 22006KT 9999 FEW030 BECMG 0912/0914 28005KT BECMG 1000/1003 19016KT TEMPO 1003/1012 20025G37KT", "TAF RJTY 091300Z 0913/1019 VRB06KT 9999 SKC QNH3014INS BECMG 1001/1002 16009KT 9999 SKC QNH3005INS BECMG 1005/1006 20010G15KT 9999 SKC QNH3004INS BECMG 1011/1012 23009KT 9999 FEW200 QNH3008INS TX22/1005Z TN02/0921Z", "TAF RKJB 091100Z 0912/1018 16006KT CAVOK TN05/0920Z TX19/1005Z BECMG 0917/0918 3500 BR NSC BECMG 0921/0922 19008KT 7000 NSW BECMG 1000/1001 21015G25KT BECMG 1009/1010 17009KT", "TAF RKNN 091100Z 0912/1018 27010G20KT 9999 SCT200 BECMG 1008/1009 27020G30KT 9999 SCT040 SCT200 TN12/0921Z TX22/1006Z ", "TAF RKNW 091100Z 0912/1018 24006KT 9999 SCT040 WND 03006KT AFT 0915 WND 24006KT AFT 1001 BECMG 1003/1004 24006G16KT 9999 SCT040 BKN180 BECMG 1009/1010 24006KT 9999 SCT040 SCT180 TN02/0921Z TX20/1006Z ", "TAF RKNY 091100Z 0912/1018 27010KT CAVOK TN11/0921Z TX19/1005Z BECMG 0914/0916 27018G38KT BECMG 0923/1001 27010KT BECMG 1004/1006 16010KT BECMG 1009/1011 27015G25KT", "TAF RKPC 091100Z 0912/1018 23007KT CAVOK TN09/0920Z TX19/1005Z BECMG 0914/0915 17005KT BECMG 1000/1001 03007KT BECMG 1008/1009 09005KT BECMG 1017/1018 21015G25KT", "TAF RKPK 091100Z 0912/1018 21006KT CAVOK TN11/0921Z TX19/1006Z BECMG 1003/1004 21007G17KT", "TAF RKSG 091100Z 0911/1017 VRB06KT 9999 SKC 510043 QNH3002INS BECMG 1001/1002 20020G25KT 9999 FEW070 510043 QNH2994INS BECMG 1009/1010 20009KT 9999 FEW180 510203 QNH2991INS TX17/1005Z TN04/0921Z", "TAF RKSI 091100Z 0912/1018 19010KT CAVOK TN07/0921Z TX17/1005Z BECMG 0919/0921 18015G25KT BECMG 1002/1004 20018G35KT BECMG 1009/1011 19015G25KT BECMG 1014/1016 18018G35KT", "TAF RKSM 091100Z 0912/1018 24006KT 9999 SCT200 TN06/0921Z TX19/1006Z ", "TAF RKSO 091300Z 0913/1019 18006KT 9999 SKC QNH3001INS BECMG 0922/0923 17010G15KT 9999 FEW060 SCT200 QNH3001INS BECMG 1000/1001 20012G25KT 9999 FEW060 510005 QNH2994INS TEMPO 1004/1007 21025G30KT BECMG 1008/1009 19009KT 9999 FEW200 QNH2989INS TX17/1006Z TN04/0918Z", "TAF RKSS 091100Z 0912/1018 17006KT CAVOK TN05/0921Z TX19/1005Z BECMG 1000/1002 20015G32KT BECMG 1011/1013 18010G20KT", "TAF RKSW 091100Z 0912/1018 15006KT 9999 SCT200 TN04/0921Z TX20/1006Z ", "TAF RKTE 091100Z 0912/1018 21006KT 9999 SKC WND 24010KT 1001/1010 TN03/0921Z TX21/1005Z ", "TAF RKTI 091100Z 0912/1018 27006KT 9999 SCT030 BECMG 1002/1003 24008KT SCT030 SCT200 WND 24006KT AFT 1010 TNM01/0921Z TX21/1006Z ", "TAF RKTN 091100Z 0912/1018 30006KT 9999 SCT030 TN03/0921Z TX23/1006Z", "TAF RKTP 091100Z 0912/1018 21006KT 9999 SCT030 SCT150 WND 21010KT AFT 1001 WND 21006G16KT AFT 1003 WND 21008KT AFT 1010 TN02/0921Z TX17/1006Z ", "TAF RKTU 091100Z 0912/1018 21006KT CAVOK TN11/0921Z TX19/1006Z BECMG 1003/1004 21007G17KT", "TAF RKTY 091100Z 0912/1018 28006KT 9999 SCT030 SCT200 TN00/0921Z TX21/1006Z ", "TAF ROAH 091105Z 0912/1018 07008KT 9999 FEW030 SCT045 BECMG 1006/1009 11010KT", "TAF RODN 090800Z 0908/1014 08009KT 9999 SCT050 QNH3002INS TX22/1003Z TN13/0921Z", "TAF ROIG 091105Z 0912/1018 07010KT 9999 FEW030 SCT045", "TAF ROTM 0909/1009 07008KT 9999 BKN045 QNH3010INS BECMG 0913/0915 09010KT 9999 FEW045 QNH3008INS FM092100 08008KT 9999 SCT045 QNH3007INS TEMPO 1001/1007 BKN045 T16/0918Z T20/1003Z", "TAF RPLB 091100Z 0912/1012 06006KT 9999 FEW020 SCT080 TX35/1006Z TN25/0921Z TEMPO 0912/0918 22010KT SCT020 BKN080", "TAF RPLC 091100Z 0912/1018 07006KT 9999 FEW020 BKN300 TX35/1006Z TN25/0921Z TEMPO 0912/0918 25005KT SCT020 BKN300", "TAF RPLI 091100Z 0912/1012 04012KT 9999 FEW018 TEMPO 0912/0918 03017G27KT FEW018 SCT100 BECMG 1002/1004 35015KT BECMG 1010/1012 09012KT", "TAF RPLL 091100Z 0912/1018 12010KT 9999 FEW025 SCT100 TX33/1006Z TN26/0921Z TEMPO 0912/0918 14017KT SCT025 TEMPO 0921/1003 08005KT", "TAF RPMD 091100Z 0912/1012 36011KT 9999 FEW016 SCT090 BKN260 TEMPO 0912/0918 33007KT -TSRA FEW015CB SCT016 OVC080", "TAF RPMR 091100Z 0912/1012 33008KT 9999 FEW018 BKN080 TEMPO 0912/0918 -SHRA SCT017CB OVC080 TEMPO 1003/1009 15008KT -TSRA SCT018CB OVC080", "TAF RPMZ 091100Z 0912/1012 03008KT 9999 FEW017 BKN090 TEMPO 0912/0918 -SHRA FEW016CB SCT017 BKN090 BECMG 1001/1003 26006KT TEMPO 1003/1009 -TSRA SCT016CB OVC080", "TAF RPVD 091100Z 0912/1012 32010KT 9999 FEW015 BKN070 TEMPO 0912/0918 -SHRA FEW014CB SCT015 BKN070", "TAF RPVM 091100Z 0912/1018 02009KT 9999 FEW020 BKN300 TEMPO 0912/0918 01011KT FEW018CB BKN100", "TAF RPVP 091100Z 0912/1012 06009KT 9999 FEW019 SCT080 TEMPO 0912/0915 06018KT BECMG 0915/0917 27009KT BECMG 1001/1003 06009KT", "TAF SAAR 091100Z 0912/1012 VRB03KT CAVOK TX29/0918Z TN16/1009Z BECMG 0914/0916 05010KT ", "TAF SABE 091100Z 0912/1012 34010KT CAVOK TX27/0918Z TN18/1009Z BECMG 0920/0922 08010KT BECMG 1001/1003 VRB05KT ", "TAF SACO 091100Z 0912/1012 01012KT CAVOK TX30/0918Z TN16/1010Z BECMG 0914/0916 05020KT BECMG 1000/1003 36005KT", "TAF SADF 091100Z 0912/1012 36010KT CAVOK TX26/0918Z TN15/1010Z", "TAF SAEZ 091100Z 0912/1012 36010KT CAVOK TX27/0918Z TN15/1009Z BECMG 1006/1009 VRB05KT", "TAF SAME 091100Z 0912/1012 20005KT CAVOK TX31/0920Z TN18/1010Z BECMG 0914/0916 05010KT 9999 FEW040 BECMG 1002/1004 20005KT CAVOK", "TAF SANR 091100Z 0912/1012 05010KT 9999 FEW035 TX33/0918Z TN18/1010Z PROB30 TEMPO 0918/0921 FEW030TCU PROB30 TEMPO 1007/1009 VRB03KT 5000 BR BKN020 BECMG 1010/1012 02010KT 9999 FEW030", "TAF SANT 091100Z 0912/1012 VRB03KT 9999 FEW040 TX30/0918Z TN18/1010Z BECMG 0915/0918 20005KT 9999 SCT035", "TAF SARE 091100Z 0912/1012 VRB03KT CAVOK TX30/0918Z TN17/1009Z BECMG 0913/0915 14005KT TEMPO 0916/0921 9999 SCT030 BECMG 0921/0923 07005KT PROB30 1008/1012 4000 BR NSC", "TAF SARF 091100Z 0912/1012 VRB03KT CAVOK TX31/0918Z TN17/1009Z BECMG 0913/0915 11005KT TEMPO 0916/0921 05005KT 9999 SCT030", "TAF SARI 091100Z 0912/1012 VRB03KT 7000 SCT010 TX27/0918Z TN18/1009Z BECMG 0913/0915 07005KT CAVOK PROB30 0917/0921 9999 SCT025 FEW045TCU", "TAF SARP 091100Z 0912/1012 VRB03KT 9999 FEW025 TX30/0918Z TN18/1009Z BECMG 0913/0915 07005KT CAVOK TEMPO 0916/0921 9999 SCT030", "TAF SASA 091100Z 0912/1012 VRB03KT 8000 BKN040 TX26/0918Z TN15/1010Z BECMG 0913/0916 07008KT 9999 NSW FEW025 SCT030 PROB30 TEMPO 0918/0921 FEW030TCU PROB30 1010/1012 VRB03KT 5000 BR SCT010", "TAF SASJ 091100Z 0912/1012 05005KT 8000 FEW040 TX27/0918Z TN17/1010Z BECMG 0914/0916 07008KT 9999 NSW FEW035 PROB30 TEMPO 0918/0921 FEW030TCU PROB30 1010/1012 VRB03KT 5000 BR BKN015", "TAF SAVC 090500Z 0906/1006 28015KT 9999 FEW030 SCT100 TX15/0914Z TN06/1002Z BECMG 0913/0915 18020G30KT -SHRA SCT025 BKN060 BECMG 0919/0921 23010KT NSW SCT030 BECMG 1002/1004 VRB05KT CAVOK ", "TAF SAVT 091100Z 0912/1012 28010KT CAVOK TX26/0918Z TN09/1010Z BECMG 0914/0916 18020KT TEMPO 0920/1001 9999 -SHRA SCT030 BECMG 1002/1004 09010KT", "TAF SAWE 091100Z 0912/1012 27015KT CAVOK TX09/0918Z TN02/1010Z ", "TAF SAWG 091100Z 0912/1012 23020G35KT CAVOK TX08/0919Z TN00/1010Z TEMPO 0914/0921 20020G30KT 9999 DZ SCT035 BKN045 BECMG 0923/1001 27015KT CAVOK ", "TAF SAWH 091100Z 0912/1012 23015G30KT 6000 DZ SCT010 BKN050 TX06/0918Z TNM02/1009Z BECMG 1001/1003 36010KT 2000 SN BKN002 OVC025 ", "TAF SAZM 091100Z 0912/1012 32015KT CAVOK TX26/0918Z TN14/1010Z BECMG 1002/1004 34010KT 9999 BKN030 BECMG 1005/1007 16020KT OVC015", "TAF SAZN 091100Z 0912/1012 VRB05KT CAVOK TX28/0919Z TN12/1009Z BECMG 0915/0916 25010KT BECMG 0920/0922 18010KT BECMG 1001/1003 14015G30KT 9999 BKN020", "TAF SAZS 091100Z 0912/1012 29005KT CAVOK TX18/0919Z TN06/1009Z BECMG 0914/0916 29015KT BECMG 1002/1004 16015KT 6000 RA OVC040 BECMG 1009/1011 02015KT 8000 -RA ", "TAF SBAC 090802Z 0912/0924 16005KT 9999 SCT020 TX31/0916Z TN27/0924Z BECMG 0915/0917 10010KT TEMPO 0917/0921 4000 TSRA BKN017 FEW025CB RMK PHI", "TAF SBAF 090900Z 0912/0924 16004KT 4000 RA BKN010 TX23/0917Z TN22/0924Z BECMG 0913/0915 8000 -RA SCT010 BKN030 RMK PEW", "TAF SBAN 090900Z 0912/0924 11005KT 9999 SCT025 TX26/0918Z TN19/0924Z BECMG 0913/0915 SCT025 FEW030TCU PROB30 0915/0918 5000 TSRA SCT030 FEW035CB BECMG 0922/0924 15004KT SCT020 RMK PEW", "TAF SBAR 090802Z 0912/1012 11010KT 9999 SCT020 TX30/0916Z TN24/1008Z PROB30 TEMPO 1008/1011 29006KT 4000 RA BKN010 RMK PHI", "TAF SBAT 090830Z 0912/0924 15007KT 9999 SCT010 TX30/0917Z TN23/0924Z BECMG 0914/0916 09005KT SCT017 FEW030TCU PROB40 0917/0923 6000 TS SCT015 FEW025CB RMK PHN", "TAF SBBE 090830Z 0912/1012 31005KT 8000 SCT025 TX30/0918Z TN25/1007Z BECMG 0915/0917 34010KT BKN023 FEW030TCU PROB40 TEMPO 0917/0923 5000 TSRA BKN020 FEW030CB BECMG 1000/1002 04005KT BKN020 BECMG 1010/1012 32007KT SCT020 RMK PHN", "TAF SBBG 090900Z 0912/0924 10006KT CAVOK TN19/0912Z TX27/0918Z BECMG 0915/0917 06004KT 9999 SCT025 RMK PFQ", "TAF SBBI 090900Z 0912/0924 08008KT 9999 OVC007 TX22/0916Z TN16/0924Z BECMG 0914/0916 BKN010 PROB40 0918/0922 3000 DZ BKN005 RMK PEW", "TAF SBBR 090830Z 0912/1012 20007KT 9999 SCT030 TX27/0917Z TN18/1009Z BECMG 0913/0915 10005KT SCT035 FEW045TCU TEMPO 0917/0922 18005KT 7000 TSRA SCT030 FEW045CB BECMG 0923/1001 VRB02KT CAVOK PROB30 1008/1012 20004KT 6000 SCT015 RMK PGD", "TAF SBBU 090820Z 0912/0924 15010KT 9999 SCT025 TN21/0912Z TX25/0918Z TEMPO 0913/0918 6000 BKN015 BECMG 0919/0921 14005KT RMK PGE", "TAF SBBV 090830Z 0912/1012 08013KT 9999 FEW025 TX34/0918Z TN24/1008Z BECMG 0916/0918 SCT020 FEW035TCU BECMG 0920/0923 12010KT FEW030 BECMG 1008/1010 08012KT RMK PHN", "TAF SBBW 090830Z 0912/0924 00000KT 9999 SCT020 TN24/0912Z TX30/0918Z BECMG 0913/0915 32005KT SCT035 FEW045TCU TEMPO 0916/0921 27005KT TSRA BKN030 FEW045CB BECMG 0922/0924 10005KT CAVOK RMK PGD", "TAF SBCB 090802Z 0912/0924 17010KT 7000 SCT010 BKN015 TX25/0915Z TN23/0924Z TEMPO 0912/0922 3500 RA BR BKN007 RMK PHI", "TAF SBCF 090830Z 0912/1012 17007KT 9999 BKN040 TX26/0918Z TN19/1009Z BECMG 0912/0914 SCT040 BECMG 0914/0916 BKN030 FEW045TCU TEMPO 0917/0923 17005KT 7000 TSRA SCT030 FEW045CB BECMG 1001/1003 14005KT SCT030 RMK PGD", "TAF SBCG 090830Z 0912/1012 11005KT 9999 SCT030 TX27/0917Z TN19/1009Z BECMG 0913/0915 02005KT SCT035 FEW045TCU TEMPO 0916/0921 27005KT TSRA BKN030 FEW045CB BECMG 0922/0924 10005KT CAVOK PROB30 1008/1012 8000 BKN015 RMK PGD", "TAF SBCJ 090830Z 0912/0924 00000KT 9999 SCT013 TX28/0917Z TN22/0924Z PROB40 0912/0914 4000 BR BKN003 BECMG 0915/0917 05005KT SCT025 FEW030TCU BECMG 0920/0923 00000KT SCT020 RMK PHN", "TAF SBCO 090900Z 0912/0924 12003KT 8000 SCT010 TX28/0918Z TN21/0923Z BECMG 0918/0920 11006KT SCT030 RMK PFQ", "TAF SBCP 090802Z 0912/0924 22010KT 7000 BKN015 TX25/0915Z TN23/0924Z TEMPO 0912/0924 4000 RA BKN010 RMK PHI", "TAF SBCR 090830Z 0912/1012 18005KT 9999 SCT025 TX30/0918Z TN21/1009Z BECMG 0912/0914 SCT018 PROB30 TEMPO 0916/0919 SCT025 FEW030TCU BECMG 0921/0923 16005KT CAVOK PROB30 1009/1012 5000 BR SCT005 RMK PGD", "TAF SBCT 090900Z 0912/1012 09010KT 9999 OVC007 TX22/0916Z TN15/1007Z BECMG 0914/0916 BKN010 PROB40 0918/0922 3000 -DZ BKN005 BECMG 1000/1002 10007KT BKN007 PROB40 1007/1011 OVC004 RMK PEW", "TAF SBCY 090830Z 0912/1012 13005KT 9999 BKN006 TX30/0917Z TN23/1008Z BECMG 0913/0915 16007KT BKN020 BECMG 0916/0918 BKN017 FEW025TCU PROB40 0918/0923 7000 TS BKN017 FEW025CB BECMG 0923/1001 09005KT SCT020 PROB30 1001/1005 22007KT 5000 TSRA BKN005 FEW025CB BECMG 1009/1012 14005KT 7000 BKN007 RMK PHN", "TAF SBCZ 090830Z 0912/1012 14005KT 8000 BKN008 TX30/0918Z TN22/1007Z PROB40 0912/0914 0500 FG BKN004 BECMG 0914/0916 17007KT SCT017 FEW025TCU TEMPO 0916/0923 22010KT 4000 TSRA BKN016 FEW030CB PROB40 1003/1006 12005KT 4000 RA BR BKN004 BECMG 1009/1012 0500 FG VV002 RMK PHN", "TAF SBDN 090820Z 0912/0924 10009KT 9999 SCT025 TN22/0912Z TX27/0917Z TEMPO 0913/0918 BKN023 FEW040TCU BECMG 0919/0921 FEW025 RMK PGE", "TAF SBEG 090830Z 0912/1012 13005KT 8000 SCT012 TX31/0918Z TN25/1008Z BECMG 0914/0916 07007KT SCT025 FEW030TCU PROB30 TEMPO 0919/1001 TS SCT020 FEW030CB BECMG 1002/1004 12005KT SCT030 BECMG 1010/1012 BKN010 RMK PHN", "TAF SBFI 090900Z 0912/1012 06005KT 9999 SCT020 TX27/0917Z TN20/1008Z BECMG 0913/0915 SCT025 FEW030TCU PROB30 0916/0920 VCSH BKN030 FEW035TCU BECMG 0922/0924 08004KT SCT020 RMK PEW", "TAF SBFL 091000Z 0912/1012 32004KT 9999 SCT015 TX26/0917Z TN19/1007Z BECMG 0915/0917 03005KT BKN020 BECMG 1000/1002 36004KT RMK PEM", "TAF SBFN 090802Z 0912/0924 11007KT 8000 BKN017 TX30/0915Z TN26/0924Z TEMPO 0912/0918 4000 RA BKN010 RMK PHI", "TAF SBFZ 090802Z 0912/1012 15005KT 9999 BKN020 TX29/0917Z TN24/1009Z BECMG 0913/0915 08010KT TEMPO 0915/0919 4000 TSRA BKN012 FEW030CB BECMG 0921/0923 23005KT TEMPO 1005/1010 4000 RA BR BKN010 BECMG 1010/1012 16006KT RMK PHI", "TAF SBGL 090802Z 0912/1018 15007KT 7000 SCT012 BKN020 TX26/0916Z TN21/1008Z TEMPO 0912/0922 23007KT 3500 DZ BR BKN007 BECMG 0922/0924 31005KT BECMG 1013/1015 14010KT RMK PHI", "TAF SBGO 090830Z 0912/1012 14004KT 9999 SCT040 TX28/0917Z TN19/1009Z BECMG 0912/0914 SCT040 FEW045TCU TEMPO 0914/0920 05005KT TSRA SCT035 FEW040CB BECMG 0923/1001 14005KT FEW020 RMK PGD", "TAF SBGR 090820Z 0912/1018 13008KT 8000 BKN011 TX21/0915Z TN17/1007Z BECMG 0912/0914 BKN020 TEMPO 0914/0918 DZ BKN009 BECMG 0920/0922 13010KT BKN011 BECMG 1003/1005 10007KT PROB30 1006/1011 BKN006 BECMG 1012/1014 13005KT BKN025 BECMG 1015/1017 15009KT SCT025 RMK PGE", "TAF SBGW 090900Z 0912/0924 09004KT 8000 -RA BKN012 TX21/0916Z TN19/0924Z BECMG 0913/0915 BKN025 PROB30 0915/0918 3000 RA BKN010 BECMG 0922/0924 06003KT 9999 NSW BKN020 RMK PEW", "TAF SBIH 090830Z 0912/0924 03005KT 7000 SCT015 TX33/0917Z TN25/0924Z BECMG 0915/0917 01010KT SCT017 FEW025TCU BECMG 0920/0922 06005KT SCT020 RMK PHN", "TAF SBIL 090830Z 0912/0924 16005KT 9999 BKN025 TX28/0917Z TN25/0923Z TEMPO 0912/0914 8000 SHRA BKN015 FEW030TCU TEMPO 0920/0924 13005KT VCSH BKN018 FEW030TCU RMK PGD", "TAF SBIZ 090830Z 0912/0924 02007KT 9999 SCT008 TX29/0917Z TN24/0924Z BECMG 0916/0918 03005KT SCT020 FEW025TCU TEMPO 0918/0922 21010KT 7000 TS BKN020 FEW025CB BECMG 0922/0924 13005KT SCT020 RMK PHN", "TAF SBJE 090802Z 0912/0924 06007KT 9999 BKN020 TX33/0917Z TN30/0921Z TEMPO 0912/0916 3000 SHRA BKN007 PROB30 0918/0921 TS SCT010 BKN015 FEW020CB RMK PHI", "TAF SBJP 090802Z 0912/1012 12010KT 8000 BKN020 TX30/0918Z TN24/1008Z TEMPO 0912/0915 4000 TSRA BKN012 FEW025CB BECMG 1002/1004 20005KT TEMPO 1004/1010 4000 RA BKN008 BECMG 1010/1012 12008KT RMK PHI", "TAF SBJV 091000Z 0912/0924 03004KT 9999 BKN020 TN20/0912Z TX26/0917Z BECMG 0916/0918 36005KT RMK PEM", "TAF SBKG 090802Z 0912/0924 11007KT 9999 BKN017 TX30/0918Z TN23/0924Z RMK PHI", "TAF SBKP 090820Z 0912/1012 13012KT 9999 BKN025 TX25/0918Z TN18/1009Z TEMPO 0912/0915 5000 RA BECMG 0920/0922 13015KT FEW025 BECMG 1005/1007 12008KT RMK PGE", "TAF SBLO 090820Z 0912/0924 10006KT 9999 BKN023 TN23/0912Z TX27/0918Z BECMG 0920/0922 FEW025 RMK PGE", "TAF SBMA 090830Z 0912/0924 31005KT 9999 SCT013 BKN020 TX31/0917Z TN24/0924Z BECMG 0916/0918 31007KT SCT020 FEW025TCU TEMPO 0918/0923 5000 TSRA SCT015 FEW025CB RMK PHN", "TAF SBME 090802Z 0912/0924 24007KT 7000 BKN015 TX27/0915Z TN23/0924Z TEMPO 0912/0922 4000 RA BKN010 RMK PHI", "TAF SBMN 091000Z 0912/0924 09005KT 9999 BKN020 TX30/0917Z TN23/0923Z RMK PEM", "TAF SBMO 090802Z 0912/1012 11010KT 9999 SCT018 TX31/0916Z TN23/1008Z BECMG 0922/0924 03005KT BECMG 1001/1003 30005KT PROB30 TEMPO 1004/1010 4000 RA BR BKN007 BECMG 1010/1012 11007KT RMK PHI", "TAF SBMQ 090830Z 0912/1012 34010KT 8000 SCT020 TX31/0918Z TN25/1007Z BECMG 0916/0918 08010KT BKN025 FEW035TCU TEMPO 0918/0923 TS BKN020 FEW030CB BECMG 1000/1002 03005KT SCT030 BECMG 1007/1009 33005KT FEW015 RMK PHN", "TAF SBNF 091000Z 0912/1012 07005KT 9999 BKN015 TX26/0917Z TN18/1007Z BECMG 0915/0917 BKN020 BECMG 1002/1004 02004KT RMK PEM", "TAF SBNT 090802Z 0912/0924 16010KT 7000 SCT010 FEW025TCU TX29/0916Z TN25/0924Z BECMG 0914/0916 10012KT PROB30 TEMPO 0916/0920 4000 TSRA BKN015 FEW025CB BECMG 0922/0924 16005KT RMK PHI", "TAF SBOI 090830Z 0912/0924 02005KT 8000 SCT020 TX30/0917Z TN23/0924Z BECMG 0915/0917 03010KT BKN025 FEW030TCU BECMG 0920/0923 09007KT SCT030 RMK PHN", "TAF SBPA 090900Z 0912/1012 08009KT 8000 SCT020 TX27/0918Z TN18/1008Z BECMG 0916/0918 18008KT SCT030 BECMG 0921/0922 12008KT CAVOK PROB40 1008/1011 02003KT 6000 BKN010 RMK PFQ", "TAF SBPB 090802Z 0912/0924 20005KT 8000 SCT017 TN25/0912Z TX33/0916Z BECMG 0915/0917 02010KT PROB30 TEMPO 0917/0921 4000 RA BKN017 FEW025TCU RMK PHI", "TAF SBPJ 090802Z 0912/1012 27005KT 9999 SCT012 TX31/0918Z TN23/1009Z PROB30 TEMPO 0915/0921 33007KT 4000 TSRA BKN017 FEW030CB BECMG 0921/0923 11005KT TEMPO 1003/1009 4000 TSRA BKN015 FEW025CB BECMG 1010/1012 27005KT RMK PHI", "TAF SBPK 090900Z 0912/1012 08009KT 9999 BKN020 TX25/0918Z TN17/1008Z BECMG 0922/0924 06005KT CAVOK BECMG 1005/1007 33003KT 5000 BR NSC BECMG 1009/1010 27003KT 8000 NSW RMK PFQ", "TAF SBPL 090802Z 0912/1012 15010KT 9999 BKN025 TX34/0918Z TN24/1009Z BECMG 0920/0922 09005KT BECMG 1001/1003 15008KT PROB30 TEMPO 1006/1012 4000 RA BKN012 RMK PHI", "TAF SBPP 090820Z 0912/1012 00000KT 9999 SCT020 TX29/0918Z TN19/1006Z BECMG 0923/1001 FEW020 RMK PGE", "TAF SBPS 090802Z 0912/1012 24005KT 9999 SCT020 TX29/0917Z TN23/1009Z BECMG 0913/0915 12010KT BECMG 0922/0924 21010KT 4000 RA BR BKN012 TEMPO 1002/1006 2000 TSRA BKN007 FEW025CB RMK PHI", "TAF SBPV 090830Z 0912/1012 02005KT 3000 BR BKN005 TX31/0919Z TN24/1008Z BECMG 0912/0915 25005KT 8000 NSW SCT015 FEW030TCU TEMPO 0918/0923 TS SCT030 FEW035CB BECMG 1000/1002 00000KT CAVOK PROB40 1007/1012 35003KT 0800 FG BKN003 RMK PHN", "TAF SBRB 090830Z 0912/0924 18005KT 4000 BR BKN006 TX28/0917Z TN24/0924Z BECMG 0912/0914 14005KT 7000 NSW BKN015 BECMG 0915/0917 24007KT BKN020 FEW025TCU TEMPO 0918/0923 5000 TSRA BKN015 FEW025CB RMK PHN", "TAF SBRF 090802Z 0912/1012 13010KT 8000 SCT010 BKN015 TX30/0916Z TN25/1008Z PROB30 TEMPO 1006/1010 21006KT 4000 RA BR BKN010 RMK PHI", "TAF SBRJ 090802Z 0912/0924 17010KT 7000 SCT012 BKN017 TN23/0912Z TX24/0916Z TEMPO 0912/0922 4000 RA BR BKN007 RMK PHI", "TAF SBRP 090830Z 0912/0924 15005KT 9999 BKN025 TN22/0912Z TX27/0917Z BECMG 0913/0915 BKN030 FEW035TCU TEMPO 0916/0922 25015KT 6000 TSRA BKN020 FEW030CB RMK PGD", "TAF SBSC 090900Z 0912/0924 15006KT 5000 RA BKN010 TX24/0917Z TN22/0924Z BECMG 0913/0915 8000 -RA SCT010 BKN030 PROB30 0915/0918 16008KT 3000 RA BKN010 RMK PEW", "TAF SBSG 090802Z 0912/1012 19005KT 7000 SCT012 FEW035TCU TX28/0917Z TN23/1009Z BECMG 0915/0917 15015KT PROB30 TEMPO 0917/0920 4000 TSRA BKN013 FEW035CB BECMG 0920/0922 17005KT BECMG 1000/1002 23005KT PROB30 TEMPO 1003/1009 4000 RA BKN010 BECMG 1010/1012 17005KT RMK PHI", "TAF SBSJ 090820Z 0912/0924 15008KT 8000 BKN015 TN19/0912Z TX20/0918Z TEMPO 0913/0917 15010KT DZ BKN010 BECMG 0917/0919 14006KT BKN020 RMK PGE", "TAF SBSL 090802Z 0912/1012 24007KT 9999 SCT017 TX31/0915Z TN25/1009Z BECMG 0913/0915 36007KT PROB30 TEMPO 0915/0920 4000 RA BKN012 FEW020TCU BECMG 0921/0923 06005KT BECMG 1002/1004 24007KT TEMPO 1004/1009 4000 TSRA BKN012 FEW020CB RMK PHI", "TAF SBSM 090900Z 0912/0924 15005KT 9999 SCT025 TN20/0912Z TX27/0918Z BECMG 0919/0921 07004KT CAVOK RMK PFQ", "TAF SBSN 090830Z 0912/1012 09010KT 8000 SCT015 TX28/0917Z TN23/1007Z BECMG 0915/0917 SCT017 FEW025TCU TEMPO 0918/0923 13010KT TS SCT015 FEW025CB BECMG 1000/1002 18005KT FEW015 TEMPO 1003/1008 6000 TS SCT015 FEW025CB BECMG 1009/1012 SCT015 RMK PHN", "TAF SBSP 090820Z 0912/0924 14011KT 8000 SCT010 TX20/0915Z TN18/0924Z TEMPO 0912/0915 DZ BKN009 BECMG 0915/0917 BKN015 BECMG 0919/0921 13007KT BKN008 RMK PGE", "TAF SBSV 090830Z 0912/1012 12010KT 9999 BKN020 TX28/0917Z TN24/1008Z TEMPO 0912/0915 SHRA BKN012 FEW023TCU TEMPO 0920/0924 VCSH BKN015 FEW023TCU TEMPO 1010/1012 VCSH BKN015 FEW023TCU RMK PGD", "TAF SBTD 090820Z 0912/0924 06008KT 9999 SCT015 TX25/0918Z TN19/0924Z BECMG 0912/0914 BKN025 BECMG 0917/0919 08004KT FEW025 RMK PGE", "TAF SBTE 090802Z 0912/0924 33005KT 9999 BKN012 TX32/0918Z TN24/0924Z BECMG 0912/0914 BKN020 TEMPO 0918/0924 03005KT 4000 TSRA BKN015 FEW030CB RMK PHI", "TAF SBTF 090830Z 0912/0924 19005KT 8000 SCT007 TX26/0917Z TN24/0924Z BECMG 0915/0917 SCT017 FEW025TCU PROB40 TEMPO 0917/0922 13005KT 4000 TSRA SCT008 FEW025CB BECMG 0922/0924 FEW017 RMK PHN", "TAF SBTT 090830Z 0912/1012 21005KT 4000 RA BR BKN007 TX28/0918Z TN23/1011Z BECMG 0912/0914 19007KT 8000 NSW BKN020 FEW025TCU TEMPO 0918/0923 23005KT TS SCT017 FEW030CB BECMG 0923/1001 SCT020 BECMG 1009/1012 4000 BR BKN005 RMK PHN", "TAF SBUG 090900Z 0912/0924 09006KT CAVOK TN20/0912Z TX29/0918Z BECMG 0914/0916 06005KT 9999 SCT033 BECMG 0920/0921 09003KT CAVOK RMK PFQ", "TAF SBUL 090830Z 0912/0924 06005KT 8000 FEW033 TX26/0916Z TN20/0923Z BECMG 0912/0914 SCT025 FEW030TCU TEMPO 0915/0922 25015KT 6000 TSRA BKN020 FEW030CB BECMG 0922/0924 16006KT RMK PGD", "TAF SBUR 090830Z 0912/0924 06005KT 9999 BKN020 TX27/0916Z TN20/0923Z BECMG 0912/0914 26010KT SCT025 FEW030TCU TEMPO 0915/0922 20015KT 6000 TSRA BKN020 FEW030CB BECMG 0922/0924 16006KT RMK PGD", "TAF SBVH 090830Z 0912/0924 09005KT 7000 SCT005 TX28/0917Z TN22/0924Z PROB40 0912/0914 4000 BR BKN005 BECMG 0915/0917 08010KT BKN025 FEW030TCU TEMPO 0917/0923 14010KT 5000 TSRA BKN017 FEW025CB RMK PHN", "TAF SBVT 090802Z 0912/1012 24006KT 8000 SCT017 BKN030 TX28/0916Z TN23/1008Z BECMG 0913/0915 21016KT TEMPO 0918/0924 3500 RA BKN012 RMK PHI", "TAF SBYS 090900Z 0912/0924 16005KT 8000 RA BKN012 TX23/0917Z TN18/0924Z BECMG 0914/0916 BKN020 BECMG 0917/0919 9999 NSW BKN025 BECMG 0922/0924 17003KT SCT020 RMK PEW", "TAF SCAR 091001Z 0912/1012 03004KT CAVOK TX26/0918Z TN20/1008Z BECMG 0915/0917 23014KT CAVOK BECMG 0922/0924 20004KT BECMG 1001/1003 OVC040", "TAF SCAT 091001Z 0912/1012 33004KT 9999 OVC017 TX22/0918Z TN17/1006Z BECMG 0916/0918 28010KT SCT017 BECMG 0921/0923 24006KT OVC017 BECMG 1007/1009 OVC007 BECMG 1011/1012 SCT007 OVC017", "TAF SCBA 091050Z 0912/1012 30025KT CAVOK TN10/0913Z TX14/0919Z BECMG 0921/0923 16006KT", "TAF SCCF 091001Z 0912/1012 11014KT CAVOK TX24/0919Z TN06/1010Z BECMG 0916/0918 27020KT TEMPO 0918/0921 27022G32KT BECMG 1001/1002 27010KT BECMG 1004/1006 11014KT", "TAF SCCH 091040Z 0912/1000 23005KT CAVOK TX27/0919Z TN05/0912Z BECMG 0916/0918 24010KT", "TAF SCCI 091001Z 0912/1012 25022G33KT 9999 SCT037 TN02/0912Z TX07/0919Z PROB30 TEMPO 0913/0923 8000 FEW015 SCT028 TEMPO 0922/1008 25012KT BECMG 1009/1011 28012KT", "TAF SCCY 091115Z 0912/0924 03007KT 9999 SCT045 TN09/0913Z TX15/0919Z BECMG 0920/0922 VRB02KT CAVOK", "TAF COR SCDA 091123Z 0912/1012 16004KT CAVOK TX27/0917Z TN20/1010Z BECMG 0914/0916 21014KT BECMG 1001/1003 20004KT OVC040", "TAF SCEL 091035Z 0912/1012 17004KT CAVOK TX30/0919Z TN10/1010Z BECMG 0917/0919 20010KT BECMG 1002/1004 VRB02KT", "TAF SCFA 091001Z 0912/1012 03004KT CAVOK TX24/0917Z TN17/1010Z BECMG 0915/0917 21014KT BECMG 0923/1001 21004KT BKN020", "TAF SCGE 091041Z 0912/1000 20005KT CAVOK TX26/0919Z TN05/0912Z BECMG 0916/0918 20010KT", "TAF SCIC 091039Z 0912/1000 20004KT CAVOK TX27/0919Z TN08/0912Z BECMG 0916/0918 20010KT", "TAF SCIE 091036Z 0912/1012 21005KT CAVOK TX20/0919Z TN11/1010Z BECMG 0918/0920 23010KT BECMG 1000/1002 22004KT SCT020 BECMG 1010/1012 SCT010 BKN015", "TAF SCIP 091028Z 0912/1012 02003KT 9999 SCT025 TN16/0912Z TX26/0920Z TEMPO 1004/1012 5000 -SHRA SCT015 BKN030 BECMG 1005/1007 36013KT", "TAF SCIR 091036Z 0912/1000 31010KT 9999 BKN015 OVC025 TX21/0918Z TN16/0912Z", "TAF COR SCJO 091143Z 0912/0924 VRB02KT 7000 BKN001 OVC004 TN07/0913Z TX19/0919Z BECMG 0913/0915 02005KT 9999 BKN030 BECMG 0922/0924 8000 -RA OVC020", "TAF SCMK 091111Z 0912/0924 04015KT 9999 SCT010 OVC050 TN09/0913Z TX13/0919Z TEMPO 0912/0914 8000 RA BECMG 0921/0923 16005KT FEW040", "TAF SCNT 091001Z 0912/1000 25010KT 9000 FEW025 SCT040 TN02/0912Z TX08/0919Z PROB30 TEMPO 0914/0918 25020G30KT 5000 SHRASN SCT010 BKN025 BECMG 0921/0923 29005KT", "TAF SCPQ 091123Z 0912/0924 01005KT 9999 SCT025 OVC035 TN09/0912Z TX13/0919Z BECMG 0913/0915 8000 -RA SCT010 OVC020 TEMPO 0916/0921 5000 RA OVC005", "TAF COR SCQP 091137Z 0912/1012 VRB02KT 0500 FG VV003 TN04/0912Z TX21/0920Z BECMG 0914/0916 9999 NSW SCT040 TEMPO 1007/1012 0500 FG VV002", "TAF SCRD 091037Z 0912/1000 14004KT 2000 BR BKN005 TX21/0918Z TN11/0912Z TEMPO 0912/0915 0500 FG BKN002 OVC005 BECMG 0915/0917 24010KT 9999 FEW012 BECMG 0919/0921 CAVOK", "TAF SCRG 091038Z 0912/1000 20004KT CAVOK TX29/0919Z TN10/0912Z BECMG 0916/0918 21010KT", "TAF SCSE 091042Z 0912/1012 29004KT 9999 OVC010 TX18/0919Z TN14/1010Z BECMG 0916/0918 31010KT BKN015 BECMG 1001/1003 29004KT OVC010 TEMPO 1006/1012 2000 BR OVC002", "TAF SCSN 091037Z 0912/1000 VRB02KT 2000 BR BKN007 TX20/0918Z TN11/0912Z TEMPO 0912/0915 0500 FG BKN003 OVC008 BECMG 0915/0917 28010KT 9999 SCT015", "TAF SCTB 091038Z 0912/1000 VRB02KT CAVOK TX30/0919Z TN11/0912Z BECMG 0916/0918 24008KT", "TAF SCTE 091047Z 0912/1012 01007KT 9999 BKN040 OVC050 TN11/0913Z TX14/0919Z12 BECMG 0917/0919 9000 -RA SCT015 OVC025 BECMG 1000/1006 5000 RA OVC015", "TAF SCTN 091118Z 0912/0924 VRB02KT 9999 OVC045 TN10/0913Z TX13/0919Z TEMPO 0913/0918 8000 RA", "TAF COR SCVD 091106Z 0912/0924 VRB02KT 0800 FG VV003 TN08/0913Z TX19/0919Z BECMG 0913/0915 9999 NSW BKN025", "TAF SCVM 091034Z 0912/1012 15004KT 3000 BR BKN008 TX19/0919Z TN10/1010Z TEMPO 0912/0915 0500 FG BKN005 OVC007 BECMG 0916/0918 29010KT 9999 SCT020 BECMG 1004/1006 30004KT CAVOK", "SEGU 091040Z 0912/1012 22005KT 9999 BKN026 SCT100 TEMPO 0923/1001 TSRA FEW016CB BKN023 OVC090 BECMG 1003/1004 15004KT SCT023 BKN090 BECMG 1007/1008 21005KT FEW008 BKN020 BKN090 TX32/0920Z TN25/1010Z", "SELT 091040Z 0912/1012 16004KT 9999 SCT026 SCT100 BECMG 0919/0920 34014KT BKN030 BKN100 TEMPO 0920/0922 TS FEW026CB BKN030 BKN100 BECMG 0923/1001 15004KT FEW013 BKN026 TEMPO 1004/1007 RA SCT008 OVC023 TX18/0919Z TN07/1011Z", "SEMT 091040Z 0912/1012 21004KT 9999 BKN020 BECMG 0919/0920 30010KT SCT023 BECMG 1001/1003 16005KT BKN020 TX30/0920Z TN24/1010Z", "SEQM 091040Z 0912/1012 VRB03KT 9999 SCT023 SCT100 BECMG 0917/0918 02014KT BKN026 BKN100 TEMPO 0920/0922 SHRA FEW026TCU BKN030 BKN100 BECMG 1001/1003 10004KT FEW008 BKN023 BECMG 1007/1009 5000 BCFG BKN005 TX23/0919Z TN10/1011Z", "TAF SGAS 091057Z 0912/1012 00000KT CAVOK TX29/0919Z TN18/1010Z BECMG 0914/0917 17008KT 9999 SCT033", "TAF SGCO 091057Z 0912/1012 15006KT CAVOK TX29/0919Z TN19/1010Z BECMG 0914/0917 17008KT 9999 SCT033", "TAF SGEN 091057Z 0912/1012 24005KT CAVOK TX28/0919Z TN18/1010Z BECMG 0913/0917 15004KT 9999 SCT033", "TAF SGES 091057Z 0912/1012 00000KT 6000 NSC TX27/0919Z TN17/1010Z BECMG 0914/0917 18007KT 9999 SCT033", "TAF AMD SKAR 091203Z 0912/1012 00000KT 9999 SCT023 BECMG 0917/0919 SCT020TCU TEMPO 0921/0924 TS SCT017CB BECMG 1000/1001 SCT017 TX27/0920Z TN18/1010Z", "TAF SKBG 091030Z 0912/1012 VRB02KT 9999 FEW010 BECMG 0915/0917 32010KT SCT015 BECMG 1001/1003 VRB02KT SCT010 TX26/0919Z TN18/1011Z", "TAF SKBO 091030Z 0912/1012 VRB02KT 9999 FEW015 BECMG 0916/0918 14010KT SCT020 BECMG 1001/1003 VRB02KT FEW015 TX19/0918Z TN09/1011Z", "TAF SKBQ 091030Z 0912/1012 03003KT 9999 SCT015 TEMPO 0912/0914 5000 BR BKN010 BECMG 0918/0920 03014KT TEMPO 1000/1002 02015G25KT TX32/0919Z TN24/1011Z", "TAF SKCC 091030Z 0912/1012 VRB02KT 4000 BCFG SCT015 BECMG 0915/0917 36010KT SCT023 BECMG 1001/1003 VRB02KT SCT015 TX28/0919Z TN22/1011Z", "TAF SKCG 091030Z 0912/1012 12003KT 9999 FEW017 BECMG 0920/2922 34015KT TX32/0917Z TN25/1010Z", "TAF SKCL 091030Z 0912/1012 VRB02KT 9999 SCT020 BECMG 0919/0921 32014KT SCT023TCU BECMG 1001/1003 VRB04KT SCT020 TX31/0920Z TN19/1011Z", "TAF SKLT 091030Z 0912/1012 00000KT 3000 RA BKN008 BECMG 0915//0917 9999 NSW SCT015 PROB40 TEMPO 0920/0924 DZ BKN010 TX29/0919Z TN23/1011Z", "TAF SKPE 091030Z 0912/1012 VRB02KT 9999 SCT020 BECMG 0917/0919 SCT020TCU TEMPO 0921/0924 TS SCT017CB BECMG 1000/1001 SCT017 TX27/0920Z TN18/1010Z", "TAF AMD SKRG 091201Z 0912/1012 VRB02KT 9999 SCT010 BECMG 0914/0916 13010KT SCT020 TEMPO 0919/0923 DZ SCT020TCU BECMG 1000/1002 VRB02KT BECMG 1007/1009 4000 BR BKN006 TX23/0919Z TN13/1011Z", "TAF SKSM 091030Z 0912/1012 22005KT 9999 FEW020 BECMG 0918/0920 02015KT TX32/0919Z TN23/1010Z", "TAF SKSP 091030Z 0912/1012 06010KT 9999 FEW017 TX31/0919Z TN26/1010Z", "TAF SLAL 091000Z 0912/1012 00000KT 9999 FEW012 TX16/0919Z TN08/1010Z BECMG 0916/0918 02010KT SCT020 FEW030CB BECMG 1002/1004 00000KT SCT012", "TAF SLCB 091000Z 0912/1012 00000KT 9999 FEW030 TX25/0919Z TN11/1010Z BECMG 0916/0918 28010KT SCT033 FEW036CB TEMPO 0919/0922 04015KT BECMG 0923/1001 13010KT FEW030 BKN070 BECMG 1004/ 1006 00000KT", "TAF SLCO 091000Z 0912/1012 16007KT 9999 SCT015 BKN080 TX30/0919Z TN22/1010Z PROB30 TEMPO 0917/0921 7000 SHRA FEW023CB BECMG 0922/1001 00000KT", "TAF SLET 091000Z 0912/1012 16012KT 9999 FEW023 TX32/0919Z TN21/1009Z BECMG 0917/0919 03005KT BECMG 0923/1001 VRB02KT NSC", "TAF SLLP 091000Z 0912/1012 08010KT 9999 SCT015 TX15/0919Z TN02/1010Z BECMG 1000/1002 27006KT PROB030 TEMPO 1003/1005 RA BKN010", "TAF SLTJ 091000Z 0912/1012 00000KT 9999 FEW030 SCT070 TX25/0919Z TN10/1010Z BECMG 0916/0918 15010KT SCT033 BECMG 0923/1001 00000KT FEW030 BKN070", "TAF SLTR 091000Z 0912/1012 14008KT 9999 FEW017 TX31/0919Z TN22/1010Z BECMG 0922/1001 00000KT", "TAF SLVR 091000Z 0912/1012 16012KT 9999 FEW023 TX32/0919Z TN21/1009Z BECMG 0917/0919 03005KT BECMG 0923/1001 VRB02KT NSC", "TAF SMJP 091000Z 0912/1012 08006KT 9999 SCT015 TX32/0917Z TN23/1009Z PROB30 TEMPO 0917/0921 5000 SHRA FEW015TU SCT020", "TAF SMZO 091000Z 0912/1012 08006KT 9999 SCT015 TX32/0917Z TN24/1009Z PROB30 TEMPO 0917/0920 5000 SHRA FEW015TU SCT020", "TAF SOCA 091100Z 0912/1012 VRB02KT 9999 FEW025 PROB30 TEMPO 0912/0915 4000 SHRA SCT012 BKN018TCU BECMG 0913/0915 08010KT BECMG 0922/0924 VRB02KT PROB30 TEMPO 1006/1012 4000 SHRA SCT012 BKN018TCU", "TAF SPCL 091100Z 0912/1012 35010KT 9999 SCT015 BKN100 TX30/0919Z TN23/1011Z TEMPO 0919/0923 10015KT 3000 RA BKN010 FEW025TCU BKN100 TEMPO 1008/1012 4000 RA BKN006 BKN100", "TAF SPEO 081700Z 0818/0918 19018KT 9999 FEW040 SCT100 TX32/0819Z TN24/0911Z BECMG 0909/0911 21007KT", "TAF SPGM 091105Z 0912/1012 VRB03KT 9999 FEW040 BKN100 TX30/0920Z TN21/1011Z TEMPO 0912/0915 5000 RA BR BKN015", "TAF SPHI 091105Z 0912/1012 15005KT 9999 FEW030 TX32/0919Z TN24/1011Z TEMPO 0914/0916 BKN020 TEMPO 0922/1002 08016KT 7000 RA BKN010 OVC070", "TAF SPHO 091100Z 0912/1012 14002KT 9999 OVC100 TX24/0919Z TN10/1011Z TEMPO 0918/0922 FEW040TCU BKN100", "TAF AMD SPJC 091400Z 0914/1012 17008KT 9999 FEW010 BKN025 TX30/0919Z TN25/1011Z FM091600 18013KT CAVOK BECMG 1001/1003 BKN012", "TAF SPJI 081700Z 0818/0918 12005KT 9999 SCT015 BKN070 TX27/0820Z TN20/0911Z TEMPO 0818/0822 4000 RA BKN010 OVC070 TEMPO 0911/0915 4000 DZ BCFG BKN010 BKN080", "SPJJ 081700Z 0818/0918 14010KT 9999 FEW040 BKN080 TX17/0819Z TN06/0911Z TEMPO 0818/0822 04012KT SCT040TCU SCT080 BECMG 0823/0824 VRB04KT", "TAF SPJR 091105Z 0912/1012 VRB02KT 9999 SCT025 BKN050 TX23/0919Z TN09/1011Z BECMG 0915/0917 15010KT BECMG 0920/0922 VRB03KT TEMPO 1010/1012 SCT023 OVC047", "TAF SPLO 081700Z 0818/0918 17012KT CAVOK TX27/0819Z TN21/0910Z FM082300 14006KT 9999 BKN030", "TAF SPME 091105Z 0912/1012 26004KT 7000 BKN020 TX30/0919Z TN24/1011Z TEMPO 0914/0916 BKN010 BECMG 0916/0918 31006KT 9999 FEW030", "TAF SPMS 091100Z 0912/1012 35006KT 9999 SCT012 BKN100 TX28/0919Z TN22/1011Z TEMPO 0915/0919 2000 RA BKN008 FEW025TCU BKN100 TEMPO 0919/0922 4000 RA BKN010 BKN100", "TAF SPNC 091105Z 0912/1012 08005KT 9999 SCT030 BKN120 TX29/0919Z TN15/1011Z BECMG 0916/0918 06015KT BECMG 1000/1002 07004KT", "TAF SPPY 081700Z 0818/0918 12005KT 9999 BKN015 BKN040 TX13/0820Z TN09/0911Z TEMPO 0818/0822 36015KT 4000 RA BKN010 OVC050 TEMPO 0910/0914 3000 DZ BCFG BKN010 BKN070", "TAF SPQT 091100Z 0912/1012 35005KT 9999 BKN008 BKN100 TX31/0919Z TN23/1011Z TEMPO 0912/0914 4000 DZ BKN003 BKN100 BECMG 0914/0917 BKN012 BKN100 TEMPO 0919/0923 10015KT 3000 SHRA BKN010 FEW025CB BKN100 TEMPO 1003/1009 4000 RA BKN010 FEW025CB BKN100", "TAF SPQU 091121Z 0912/1012 24006KT CAVOK TX21/0918Z TN10/1010Z FM091830 27009KT 9999 FEW080 SCT120 FM100000 04004KT CAVOK", "TAF SPRU 091105Z 0912/1012 15006KT 5000 BR SCT050 TX31/0919Z TN24/1011Z TEMPO 0914/0916 BKN020 BECMG 0916/0918 20008KT 8000 NSW FEW020 TEMPO 0922/1002 13014KT 4000 DZ BR BKN010 OVC080", "TAF SPSO 091100Z 0912/1012 21008KT CAVOK TX29/0919Z TN22/1011Z BECMG 0919/0921 22018KT BECMG 1003/1005 20005KT", "TAF SPST 090110Z 0912/1012 VRB03KT 8000 FEW020 SCT100 TX32/0920Z TN22/1011Z TEMPO 0912/0914 4000 RA BR BKN010 OVC046", "TAF SPTN 091121Z 0912/1012 24004KT 9999 SCT060 TX30/0919Z TN20/1011Z FM091630 21009KT CAVOK FM100100 29004KT 9999 SCT100", "TAF SPTU 091100Z 0912/1012 00000KT CAVOK TX34/0919Z TN22/1011Z", "TAF SPUR 090510Z 0906/1006 27006KT 9999 SCT020 BKN030 TX33/0911Z TN23/0919Z BECMG 0907/0909 32004KT FEW030 TEMPO 0914/0916 BKN020 TEMPO 0919/0923 05012KT 7000 SCT040 BKN080", "TAF SPYL 091105Z 0912/1012 17008KT 9999 BKN030 TX32/0919Z TN23/1011Z TEMPO 0914/0916 7000 BKN020 BECMG 0916/0918 33014KT CAVOK TEMPO 1001/1005 02018KT 4000 RA BR BKN010 OVC050", "TAF SPZO 091100Z 0912/1012 00000KT 9999 FEW050 SCT100 TX21/0919Z TN09/1011Z TEMPO 0918/0922 29012KT", "TAF SUAA 091130Z 0912/1012 36007KT CAVOK TX26/0918Z TN15/1010Z PROB30 TEMPO 1007/1010 5000 BR NSC", "TAF SUCA 091130Z 0912/1012 03010KT CAVOK TX25/0918Z TN15/1010Z BECMG 0916/0920 09010KT BECMG 1002/1004 36007KT", "TAF SUDU 091130Z 0912/1012 05005KT CAVOK TX27/0918Z TN13/1010Z TEMPO 1007/1010 3000 BR NSC", "TAF SULS 091130Z 0912/1012 02007KT CAVOK TX25/0918Z TN15/1010Z PROB40 TEMPO 1005/1010 3000 BR NSC", "TAF SUMU 091130Z 0912/1012 36007KT CAVOK TX26/0918Z TN15/1010Z PROB30 TEMPO 1007/1010 5000 BR NSC", "TAF SURV 091130Z 0912/1012 09005KT CAVOK TX27/0918Z TN15/1010Z TEMPO 1005/1010 3000 BR NSC PROB30 TEMPO 1007/1010 0800 BCFG SCT005", "TAF SUSO 091130Z 0912/1012 08005KT 9999 FEW023 TX27/0918Z TN15/1010Z", "TAF SVBC 091000Z 0912/1012 07002KT 9999 SCT013 TX33/0718Z TN23/0807Z BECMG 0915/0921 01005KT 9999 SCT020 BKN080", "TAF SVJC 091000Z 0912/1012 02012KT 9999 SCT013 TX33/0719Z TN24/0807Z BECMG 0918/0922 09012KT 9999 FEW016 SCT080", "TAF SVMC 091000Z 0912/1012 04002KT 9999 FEW020 SCT013 TX34/0719Z TN24/0808Z TEMPO 0916/0922 03002KT 9000 DZ SCT080 BKN060", "TAF SVMG 091000Z 0912/1012 03002KT 9999 SCT013 TX33/0718Z TN23/0808Z BECMG 0918/0922 06002KT 9999 FEW013 SCT010", "TAF SVMI 091000Z 0912/1012 05002KT 9999 SCT016 TX33/0718Z TN22/0807Z BECMG 0916/0922 09002KT 9999 FEW013 SCT080", "TAF SVPR 091000Z 0912/1012 08005KT 9999 SCT013 TX33/0719Z TN22/0807Z BECMG 0918/0922 16002KT 9999 SCT013 BKN020", "TAF SVSA 091000Z 0912/1012 05011KT 9999 SCT020 TX31/0719Z TN20/0808Z TEMPO 0914/0918 05004KT 9000 DZ SCT100 BKN080", "TAF SYCJ 091100Z 0912/1012 09012KT 9999 BKN019 BECMG 0917/0919 07014KT SCT023 BECMG 0922/1000 04004KT FEW017", "TAF SYEB 091100Z 0912/0923 07014KT 9999 SCT022 SCT100", "TAF SYEC 091100Z 0912/1012 09012KT 9999 BKN019 BECMG 0916/0918 06014KT SCT023 BECMG 0923/1001 07008KT FEW018", "TAF SYKA 091100Z 0912/0923 07010KT 9999 BKN019", "TAF SYKM 091100Z 0912/0923 06010KT 9999 BKN019 SCT100", "TAF SYLT 091100Z 0912/0923 06014KT 9999 BKN020 SCT100", "TAF SYMB 091100Z 0912/0923 09014KT 9999 SCT022", "TAF TAPA 091100Z 0912/1012 09012KT 9999 SCT020 BKN038", "TAF TBPB 091110Z 0912/1012 10018KT 9999 SCT018 SCT038 PROB40 TEMPO 0913/0915 SHRA", "TAF TDPD 091110Z 0912/1012 11010KT 9999 SCT018 SCT036", "TAF TFFF 091000Z 0912/1012 10012KT 9999 SCT025 SCT060 PROB30 TEMPO 0912/0920 4500 -SHRA BKN018TCU", "TAF TFFR 091000Z 0912/1012 12012KT 9999 SCT030 SCT060 BKN230 PROB30 TEMPO 0912/0922 4500 -SHRA BECMG 0922/0924 VRB02KT", "TGPY 091000Z 0912/1012 09016KT 9999 SCT018 BKN038 BECMG 0920/0922 FEW019", "TIST 091120Z 0912/1012 09009KT P6SM FEW022 FM091400 13012G18KT P6SM SCT030 FM092300 09008KT P6SM SCT030 SCT040", "TISX 091120Z 0912/1012 08009KT P6SM FEW022 SCT035 FM091400 11012KT P6SM SCT025 FM092300 10008KT P6SM VCSH FEW025 SCT040", "TJBQ 091120Z 0912/1012 10006KT P6SM FEW060 FM091400 08014KT P6SM FEW030 SCT050 FM091800 09012KT P6SM VCTS SCT025CB BKN040 FM092300 10008KT P6SM FEW030 SCT060", "TJPS 091120Z 0912/1012 04005KT P6SM VCSH SCT030 SCT050 FM091300 13015KT P6SM FEW030 SCT060 FM092300 VRB06KT P6SM FEW030 FEW060", "TJSJ 091120Z 0912/1012 12003KT P6SM VCSH FEW025 SCT040 FM091400 07014KT P6SM FEW025 SCT035 FM091700 08016G22KT P6SM VCSH SCT025 SCT040 FM092300 11009KT P6SM FEW030 SCT050", "TAF TKPK 091100Z 0912/1012 08012KT 9999 SCT020 BKN038", "TAF TKPN 091100Z 0912/1012 09015KT 9999 SCT020 BKN038", "TAF TLPC 091100Z 0912/1012 10010KT 9999 SCT026", "TAF TLPL 091100Z 0912/1012 09019KT 9999 SCT026", "TAF TNCA 091200Z 0912/1012 10016KT 8000 FEW020", "TAF TNCB 091106Z 0912/1018 09016KT 9999 SCT018 PROB30 TEMPO 1006/1012 5000 SHRA SCT018CB BKN030", "TAF TNCC 091115Z 0912/1012 11014KT 8000 FEW020 PROB30 0914/0918 10015G28KT 6000 SHRA BKN015", "TNCM 091024Z 0912/1012 08011KT 9999 SCT018 TEMPO 0912/0918 4000 SHRA BKN014 BKN032 ", "TAF TQPF 091100Z 0912/1012 09012KT 9999 SCT020 BKN038", "TAF TRPG 091100Z 0912/1012 09016KT 9999 SCT020 BKN038", "TAF TTCP 091000Z 0912/1012 VRB05KT 9999 FEW016 SCT035 BECMG 0912/0914 11015KT TEMPO 0913/0920 6000 SCT015 BKN040 BECMG 0922/1003 VRB05KT FEW015", "TAF TTPP 091000Z 0912/1012 VRB05KT 9999 FEW016 SCT036 BECMG 0912/0914 10015KT TEMPO 0914/0921 5000 SCT018 BKN040 BECMG 0922/1003 VRB05KR FEW015", "TAF TUPJ 082300Z 0900/0924 11012KT 9999 SCT020", "TAF TVSA 091110Z 0912/1012 07015KT 9999 SCT018 SCT036 PROB40 TEMPO 0912/0914 SHRA", "TAF TXKF 091137Z 0912/1012 18010KT 9999 FEW008 SCT020 BKN250 PROB40 TEMPO 0912/1006 6000 -SHRA BR SCT005 BKN010 PROB30 TEMPO 0912/0918 4000 SHRA BKN008 BECMG 0917/0920 20020KT 9999 VCSH SCT008 BKN015 PROB30 TEMPO 0918/1006 22022G32KT 2000 +SHRA BKN005 OVC010CB BECMG 1003/1007 36008KT PROB30 TEMPO 1006/1012 -SHRA BKN012 BECMG 1008/1012 04022KT SCT015 BKN030 ", "TAF UAAA 091100Z 0912/1012 03003MPS 6000 BKN030CB OVC100 TX19/1010Z TN07/1001Z TEMPO 0912/0918 32004G09MPS 3100 -SHRA BR SCT011 OVC020CB PROB40 TEMPO 0912/0918 TS TEMPO 0918/1001 06003MPS 0800 FG FU FEW005 BKN020CB TEMPO 1002/1009 07005G10MPS TEMPO 1009/1012 18008G16MPS 3100 -TSRA BLDU", "TAF UAAH 091112Z 0912/0921 08007MPS CAVOK", "TAF UAAT 091101Z 0912/0921 02006MPS 9999 FEW050CB SCT100", "TAF UACC 091100Z 0912/1012 VRB02MPS 9999 SCT040 TX12/1010Z TNM06/1001Z TEMPO 0912/0916 35003MPS TEMPO 0916/0920 12003MPS TEMPO 0920/1003 13003MPS 3100 BR FU FEW007 BECMG 1003/1005 22003MPS FM100600 26005MPS CAVOK", "TAF UACK 091100Z 0912/0921 27005MPS 9999 SCT050", "TAF UACP 091101Z 0912/0921 24006MPS CAVOK TEMPO 0912/0915 26006MPS", "TAF UADD 091108Z 0912/0921 34005G10MPS 9999 SCT050CB BKN100 TEMPO 0914/0921 VRB13MPS 3100 -TSRA BKN011CB", "TAF UAII 091100Z 0912/1012 25007G12MPS 6000 BKN040CB TX24/1010Z TN07/1001Z TEMPO 0912/0915 20008G16MPS TS BKN020CB TEMPO 0915/1003 18007G15MPS 3100 -TSRA BR SCT011 BKN030CB TEMPO 1003/1012 20012G18MPS 3100 -TSRA BR BKN011 OVC015CB", "TAF UAIT 091100Z 0912/0921 22005G10MPS 9999 SCT040CB TEMPO 0915/0918 26007G13MPS 3100 -TSRA BKN040CB", "TAF UAKD 091104Z 0912/0921 08006MPS 9999 SCT020 TEMPO 0912/0915 10009MPS BKN020CB", "TAF UAKK 091059Z 0912/1012 VRB02MPS 9999 SCT030 BKN100 TX11/1009Z TNM08/1001Z TEMPO 0918/1003 3100 BR SCT011 TEMPO 1003/1012 22005MPS", "TAF UAOO 091101Z 0912/0921 08008MPS 9999 BKN020 OVC066", "TAF UARR 091101Z 0912/0921 09006MPS 9999 BKN033CB TEMPO 0912/0915 5000 -SHRA BKN011 BKN020CB TEMPO 0915/0921 VRB02MPS", "TAF UASK 091101Z 0912/0921 09003MPS 9999 SCT100 TEMPO 0915/0918 VRB01MPS TEMPO 0918/0921 VRB01MPS 3100 BR FEW006", "TAF UASP 091100Z 0912/0921 32005G10MPS CAVOK TEMPO 0912/0914 33010G15MPS 3100 FU BKN011", "TAF UASS 091059Z 0912/0921 27008MPS CAVOK", "TAF UATE 091102Z 0912/1012 36006MPS 6000 SCT011 BKN033CB TX18/1010Z TN07/1003Z TEMPO 0912/0916 VRB03MPS -SHRA BKN015CB BECMG 0916/0918 3100 BR TEMPO 0918/1004 VRB03MPS 0500 FG VV002 BECMG 1004/1006 08005MPS 9999 NSW SCT033CB BECMG 1008/1010 22005MPS", "TAF UATG 091104Z 0912/1012 VRB02MPS 9999 BKN033CB TX20/1011Z TN07/1002Z TEMPO 0912/0917 18006MPS PROB30 TEMPO 0912/0917 -TSRA", "TAF UATT 091103Z 0912/1012 10002MPS CAVOK TX13/1012Z TNM03/1001Z TEMPO 0912/0915 11007MPS BECMG 1004/1006 30006MPS SCT040CB", "TAF UAUU 091101Z 0912/0921 25004MPS CAVOK TEMPO 0915/0921 22003G08MPS", "TAF UBBB 091045Z 0912/1012 32012KT 9999 SCT040 TX16/0912Z TN09/1002Z TEMPO 0912/0917 34018G28KT FEW050CB BECMG 0917/0919 VRB04KT TEMPO 0918/1005 18006KT SCT007 BECMG 1005/1007 18006KT TEMPO 1007/1012 20016KT", "TAF UBBG 091100Z 0912/1012 09012KT 9999 FEW040 SCT100 TX20/0912Z TN08/1002Z TEMPO 0912/0918 04008KT FEW030CB BKN060 BECMG 0918/0920 VRB04KT TEMPO 1000/1005 3000 BR SCT007 BKN030", "TAF UBBL 091053Z 0912/1012 12006KT 9999 SCT025 SCT080 TX16/0912Z TN08/1002Z TEMPO 0912/0918 FEW050CB BECMG 0918/0920 VRB04KT TEMPO 0920/1005 3000 BR SCT007 BECMG 1005/1007 18008KT", "TAF UBBN 091047Z 0912/1012 VRB04KT 9999 FEW050CB BKN100 TX19/0912Z TN10/1002Z TEMPO 0915/0924 15012KT TEMPO 1002/1009 14012KT -SHRA SCT036CB OVC080", "TAF UBBQ 091050Z 0912/1012 05006KT 9999 SCT030 SCT100 TX16/0912Z TN06/1002Z TEMPO 0912/0916 18012KT FEW050CB BECMG 0916/0918 VRB04KT TEMPO 0918/1005 5000 BR SCT007 SCT040CB", "TAF UCFL 091043Z 0912/1012 34003G08MPS 9999 BKN030CB OVC100 TEMPO 0912/0918 VRB10G15MPS 2000 TSRA BLDU SCT007 BKN015CB TEMPO 0918/0924 27007G12MPS 3000 -SHRA BKN015CB PROB40 TEMPO 0918/0924 TS", "TAF UCFM 091042Z 0912/1012 07003G08MPS 6000 BKN040CB OVC100 TEMPO 0912/0918 VRB10G15MPS 2000 TSRA FEW003 SCT007 BKN020CB TEMPO 0918/1002 32003G08MPS 2000 SHRA PROB40 TEMPO 0918/1002 2000 TSRA BKN020CB BECMG 1002/1004 31003G08MPS TEMPO 1006/1012 VRB10G15MPS 2000 TSRA BKN015CB", "TAF UCFO 091042Z 0912/1012 18003G08MPS 6000 SCT030CB BKN100 TEMPO 0912/0918 VRB10G15MPS 1600 TSRA BR SCT007 BKN015CB TEMPO 0918/0924 VRB08G13MPS 2000 TSRA SCT010 BKN020CB BECMG 1002/1004 32003G08MPS", "TAF UDSG 091058Z 0912/1012 VRB06KT 9999 SCT040 TEMPO 0912/0918 24016KT FEW040CB", "TAF UDYZ 091100Z 0912/1012 24006KT 9999 FEW040 TEMPO 0918/1008 VRB16G26KT SCT040CB", "TAF UEEE 091100Z 0912/1018 22003G10MPS 9999 SCT030 BKN100", "TAF UERP 091100Z 0912/1012 VRB01MPS 7000 SCT020 BKN100 TEMPO 0912/0924 30003MPS 3000 -SN BR TEMPO 1000/1009 23004MPS", "TAF UERR 091100Z 0912/1012 VRB01MPS 9999 SCT020", "TAF UGAM 091000Z 0911/0917 27007KT 9999 FEW070", "TAF UGKO 091100Z 0912/1012 08010KT CAVOK TX20/0912Z TN11/0920Z BECMG 0922/1001 08022G35KT", "TAF UGMS 091000Z 0911/0917 VRB02KT 9999 SCT100", "TAF UGSB 091100Z 0912/1012 27007KT CAVOK TX18/1012Z TN10/1001Z BECMG 0917/0920 14014KT FEW035 BKN100 BECMG 1008/1010 VRB02KT CAVOK", "TAF UGTB 091100Z 0912/1012 30011KT CAVOK TX19/0912Z TN07/1002Z BECMG 0915/0917 05005KT BECMG 1000/1003 BKN050CB TEMPO 1009/1012 15010KT SHRA BKN030CB OVC060", "TAF UHBB 091055Z 0912/1012 01003MPS 9999 NSC BECMG 0923/1002 07003G08MPS SCT030CB TEMPO 1003/1012 12006MPS 3100 -SHRA SCT011 BKN020CB", "TAF UHHH 091053Z 0912/1018 15003MPS CAVOK FM100000 09003MPS 9999 SCT020CB", "TAF UHMA 091035Z 0912/1012 01003G08MPS 9999 FEW033 TEMPO 0912/0924 32007MPS 5000 BR DRSN FEW003 SCT020 TEMPO 1000/1012 09006G11MPS 5000 -SN BR SCT002", "TAF UHMM 091100Z 0912/1018 03003G08MPS 9999 SCT040 BECMG 1008/1009 36006G12MPS", "TAF UHPP 091047Z 0912/1018 01003G12MPS 4500 -SHSNRA BR BKN007 OVC015CB TEMPO 0912/0922 0700 +SHSN FG VV002 FM100100 30005G14MPS 9999 BKN030CB TEMPO 1001/1008 2000 -SHRA BR BKN004 OVC012CB TEMPO 1008/1018 0900 FG VV003", "TAF UHSS 091100Z 0912/1018 27003MPS 9999 SCT040CB BECMG 1000/1002 23003G08MPS BECMG 1009/1012 18003MPS", "TAF AMD UHWW 091120Z 0912/1012 14003MPS 9999 FEW003 BKN016 TEMPO 0915/0918 0200 FG BECMG 0918/0921 0300 FG VV002 BECMG 0922/0924 9999 NSW FEW003 BKN016 BECMG 1001/1003 20003G08MPS SCT030", "TAF UIAA 091100Z 0912/1012 06003G08MPS 9999 BKN017CB TEMPO 0912/0924 36005G10MPS 1000 SHSN VV003 FM100000 31010G15MPS 3100 -SHSN OVC011CB TEMPO 1000/1012 31015G20MPS 0700 +SHSN VV002", "TAF UIBB 091100Z 0912/1012 27006G16MPS 9999 -SHSN DRSN BKN017CB TEMPO 0912/1003 VRB11MPS 1900 SHSN BLSN", "TAF UIII 091100Z 0912/1012 32005G11MPS 9999 -SHSN BKN015CB TEMPO 0912/0919 1200 SHSN BKN007CB BECMG 0919/0921 32010G15MPS 2900 -SHSN DRSN TEMPO 0921/1006 32015G22MPS 0500 +SHSN BLSN VV003 BECMG 1006/1008 9999 NSW", "TAF UIUU 091100Z 0912/1012 34010G15MPS 1900 SHSN DRSN BKN011CB TEMPO 0912/1006 32015G20MPS 0700 +SHSN BLSN VV002 BECMG 1006/1008 4000 -SHSN BKN020CB", "TAF ULAA 091045Z 0912/1012 31003MPS 9999 SCT030 TEMPO 0912/1012 28003MPS SCT016", "TAF ULLI 091053Z 0912/1012 04003MPS CAVOK PROB40 TEMPO 0920/1006 1000 BR BKN003", "TAF ULMM 091050Z 0912/1012 31005G10MPS 6000 BKN016CB TEMPO 0912/0915 3100 -SHSNRA BKN011CB BECMG 0918/0920 23003G08MPS", "TAF ULOO 091055Z 0912/0921 01003MPS CAVOK", "TAF ULPB 091055Z 0912/0921 06003MPS CAVOK", "TAF ULWC 091100Z 0912/0921 13003MPS 9999 BKN020 TEMPO 0912/0918 SCT017CB TEMPO 0918/0921 1000 BR FEW004", "TAF UMBB 091113Z 0912/0921 VRB02MPS 6000 BKN020 TEMPO 0912/0918 04003G08MPS 3100 -TSRA BR BKN016CB TEMPO 0918/0921 07003MPS 3100 -SHRA BR BKN012CB", "TAF UMGG 091106Z 0912/1012 08006MPS 9999 BKN020 PROB40 TEMPO 0912/0919 11007MPS 2000 TSRA BKN020CB TEMPO 0919/1004 VRB02MPS 1200 BR BKN005 TEMPO 1004/1008 11004MPS 2000 BR BKN005 PROB40 TEMPO 1008/1012 3000 -TSRA BKN025CB", "TAF UMII 091109Z 0912/0921 VRB02MPS 9999 BKN020 TEMPO 0912/0918 08003G08MPS 5000 -SHRA FEW007 BKN015CB TEMPO 0918/0921 3000 BR SCT005", "TAF UMKK 091055Z 0912/1012 VRB01MPS 9999 SCT016 TEMPO 0912/0918 36003G08MPS PROB40 TEMPO 1000/1006 0400 FG BKN003", "TAF UMMG 091109Z 0912/0921 VRB02MPS 9999 BKN020 TEMPO 0913/0915 02003G08MPS 6000 -SHRA BKN016CB PROB40 TEMPO 0915/0920 04004G09MPS -TSRA BKN012CB", "TAF UMMS 091105Z 0912/1012 VRB02MPS 9999 BKN030 TEMPO 0912/0917 3000 -TSRA FEW007 SCT015 BKN017CB TEMPO 0917/1006 0300 FG VV002", "TAF UMOO 091103Z 0912/0921 07003MPS 9999 BKN020 TEMPO 0912/0921 03003G08MPS 6000 -SHRA SCT010 BKN017CB", "TAF UNAA 091058Z 0912/1012 33006G13MPS 9999 BKN018CB TEMPO 0912/0915 25011G19MPS BECMG 0915/0918 21003G08MPS TEMPO 1003/1012 23008G15MPS", "TAF UNBB 091100Z 0912/1012 28008G14MPS 9999 BKN030CB TEMPO 0912/0915 33003G09MPS BECMG 0915/0917 19003G08MPS TEMPO 1003/1009 24006G13MPS", "TAF UNEE 091100Z 0912/1012 28007G14MPS 8000 SCT040 BECMG 0913/0917 20003G09MPS BECMG 0921/1001 -SN BKN016 BECMG 1004/1008 BKN039", "TAF UNKL 091049Z 0912/1012 30008G19MPS 6000 -SHSN BLSN BKN016CB TEMPO 0912/0915 29013G23MPS BECMG 0919/0922 25003G08MPS NSW BECMG 1002/1004 22008G18MPS", "TAF UNNT 091100Z 0912/1012 18005G10MPS CAVOK TEMPO 0912/0915 27006G12MPS", "TAF UNOO 091055Z 0912/1012 28003G08MPS 9999 SCT033 BECMG 0915/0917 23003G08MPS", "TAF UNTT 091100Z 0912/0921 29007G14MPS 9999 BKN040CB TEMPO 0912/0914 24006G14MPS BECMG 0914/0917 22005G12MPS", "TAF UNWW 091100Z 0912/1012 19003G08MPS 8000 SCT040CB TEMPO 0912/0914 25006G13MPS TEMPO 1000/1012 23007G15MPS", "TAF UOOO 091058Z 0912/1012 06003G08MPS 6000 SCT016 TEMPO 0918/1006 08008G13MPS 3200 BLSN BECMG 1006/1009 02008G14MPS 4000 BLSN", "TAF COR URKA 091056Z 0912/1012 32003G08MPS 9999 SCT030 TEMPO 0912/0918 26005G11MPS BECMG 0920/0922 05006G12MPS TEMPO 1003/1012 09006G12MPS", "TAF URKK 091050Z 0912/1012 10003G08MPS 6000 SCT020CB FM092100 08009G14MPS 9999 SCT016", "TAF URMG 091100Z 0912/0921 08003G08MPS 9999 BKN020 TEMPO 0912/0921 BKN016", "TAF URML 091100Z 0912/0921 35006G14MPS 9999 BKN025 TEMPO 0912/0915 06003G10MPS BECMG 0915/0918 16003G08MPS", "TAF URMM 091100Z 0912/1012 06003G08MPS 9999 BKN016 TX12/0912Z TN06/1003Z", "TAF URMN 091100Z 0912/0921 02003G08MPS 9999 BKN020CB", "TAF URMO 091100Z 0912/0921 32003G08MPS 9999 BKN020 TEMPO 0912/0921 BKN016", "TAF URMT 091100Z 0912/0921 08003G08MPS 9999 BKN020", "TAF URRP 091056Z 0912/1012 08003G12MPS 6000 -SHRA FEW005 SCT016 BKN020CB TEMPO 0912/0918 25003G12MPS PROB40 TEMPO 0912/0918 -TSRA BECMG 0918/0920 06003G12MPS TEMPO 1009/1012 11007G14MPS", "TAF URSS 091055Z 0912/1012 28003G09MPS 9999 FEW030 SCT100 BECMG 0916/0917 05007MPS SCT100 BECMG 1006/1007 27003G08MPS OVC100", "TAF URWA 091100Z 0912/0921 35005G10MPS 9999 SCT020CB BECMG 0915/0916 02003G08MPS", "TAF URWI 091055Z 0912/0921 10003G08MPS 9999 FEW016 SCT030CB TEMPO 0912/0915 15003G08MPS 6000 -SHRA", "TAF URWW 091056Z 0912/0921 05003G10MPS 9999 BKN020 TEMPO 0912/0918 08005G11MPS TEMPO 0918/0921 02003G08MPS", "TAF USCC 091055Z 0912/1012 28003G10MPS CAVOK TEMPO 1006/1012 34003G10MPS", "TAF USCM 091055Z 0912/0921 18003G08MPS 9999 NSC", "TAF USDA 091058Z 0912/0921 11009G14MPS 6000 -SN DRSN FEW003 SCT016 TEMPO 0912/0915 3000 -SN BLSN BECMG 0914/0916 09007G13MPS BECMG 0919/0921 07006G11MPS", "TAF USHH 091039Z 0912/1012 27006G14MPS 9999 SCT020 TEMPO 0912/0918 28008G17MPS TEMPO 0918/0924 5000 -SHRASN FEW005 BKN016CB FM100000 32003G12MPS 6000 OVC016 TEMPO 1000/1009 2100 -SHSN SCT005 BKN016CB TEMPO 1009/1012 5000 -SN FEW005 BKN016", "TAF USNN 091057Z 0912/1012 19005G13MPS 2100 -SHSN FEW010 SCT016CB OVC020 TEMPO 0912/0914 0800 +SHSN BKN006 BKN016CB BECMG 0914/0915 6000 -SHSN BECMG 0916/0918 26005G11MPS", "TAF USPP 091055Z 0912/1012 29003G13MPS CAVOK BECMG 0921/0923 33003G13MPS BECMG 0923/1001 BKN020", "TAF USRR 091055Z 0912/1012 26005G13MPS 6000 FEW007 BKN020CB TEMPO 0918/1006 2100 -SHSN SCT004 BKN016CB", "TAF USSS 091053Z 0912/1012 31005G15MPS CAVOK BECMG 0916/0918 28003G13MPS BKN020 FM100400 33005G17MPS 9999 -SHRA BKN020CB", "TAF USTR 091051Z 0912/1012 26005G11MPS 9999 SCT020 TEMPO 0918/1003 28004G09MPS TEMPO 1003/1012 32006G14MPS 4000 -SHRA BKN016CB", "TAF UTAA 091045Z 0912/1012 32016G26KT 3000 BLDU SCT050CB BKN050 TEMPO 0912/0915 29024G34KT 1200 DS VV010 BECMG 0916/0918 27016KT 6000 TEMPO 0922/1003 20010KT 3000 HZ BECMG 1005/1007 02014KT", "TAF UTAK 091030Z 0912/1012 33018G28KT 9999 BKN013 BKN100 TEMPO 0912/0916 30024KT 5000 BR BKN004 SCT040CB BKN100 TEMPO 0916/0920 3000 BR BKN003 TEMPO 0920/1003 27014KT 0500 FG VV001 BECMG 1003/1004 9999 NSW BKN013 BKN100 TEMPO 1004/1008 05016KT", "TAF AMD UTAM 091400Z 0914/1012 32018G28KT 1000 DS BKN030 SCT050CB TEMPO 0914/0921 30024G34KT 0300 DS -TSSHRA VV003 TEMPO 0921/1004 VRB28KT TSSHRA BKN020 BECMG 1004/1005 29012G22KT 5000 BKN030", "TAF UTAT 091032Z 0912/1012 34014KT 6000 SCT030 OVC050 TEMPO 0912/0918 02014KT 3000 -TSRA SCT050CB PROB40 TEMPO 0912/0915 VRB30KT 1000 TSRA VV002", "TAF UTAV 091030Z 0912/1012 12014G24KT 6000 SCT050CB BKN070 TEMPO 0912/0920 18022G32KT 1500 BLDU BKN030 PROB40 TEMPO 0912/0920 VRB38KT 0300 DS -TSRA VV004", "TAF UTDD 091200Z 0913/1001 VRB02MPS 7000 SCT060CB BKN100 TEMPO 0914/1001 VRB08G13MPS -TSRA", "TAF UTDK 091200Z 0913/0922 VRB02MPS 7000 SCT060CB BKN100 TEMPO 0914/0922 VRB08G13MPS -TSRA", "TAF UTDL 091200Z 0913/1001 08005MPS 7000 FEW060CB SCT080 TEMPO 0913/1001 -SHRA SCT050CB", "TAF UTDT 091200Z 0913/0922 VRB02MPS 7000 SCT050CB BKN080 TEMPO 0914/0922 VRB08G13MPS -TSRA", "TAF UTFF 091200Z 0913/0922 14010KT 7000 SCT060CB TEMPO 0913/0920 28012G22KT 3100 -TSRA BR BKN040CB", "TAF UTFN 091100Z 0912/1012 34010KT 7000 SCT050CB TEMPO 0912/0924 24012G22KT 3500 -TSRA BR BKN040CB", "TAF UTNN 091100Z 0912/1012 32008G18KT 9999 SCT040 BKN100 TEMPO 0912/0918 -SHRA BKN037CB OVC100 TEMPO 0918/1004 VRB04KT", "TAF UTNU 091100Z 0912/1012 33010G20KT 9999 SCT050 BKN100 TEMPO 0912/0918 03012G22KT -SHRA BKN035CB OVC100", "TAF UTSA 091101Z 0912/1012 07012KT 7000 FEW050CB TEMPO 0912/0923 12018KT 2500 -TSRA HZ SCT010 BKN040CB", "TAF UTSB 091102Z 0912/1012 08012KT 7000 SCT033 TEMPO 0912/0923 14015G25KT 2500 -TSRA -DS FEW010 BKN033CB", "TAF UTSK 091153Z 0913/0922 07010G20KT CAVOK TEMPO 0913/0922 15010KT", "TAF UTSS 091100Z 0912/1012 13010G20KT 9999 SCT066CB BKN100 TEMPO 0912/0923 VRB16G26KT 3000 -TSRA BR SCT008 BKN040CB", "TAF UTST 091100Z 0912/1012 06010G20KT 6000 SCT060CB BKN100 TEMPO 0912/0918 11014G24KT 3000 HZ BKN050CB BKN100 TEMPO 0918/0923 VRB19G29KT 2400 -TSRA SQ -DS BKN040CB OVC100", "TAF UTTT 091100Z 0912/1012 24010KT 7000 SCT050CB BKN100 TEMPO 0912/0924 VRB15G25KT 3000 -TSRA BR BKN040CB", "TAF UUBC 091044Z 0912/0921 14003MPS 9999 SCT025", "TAF UUBP 091048Z 0912/0921 VRB01MPS CAVOK", "TAF UUBW 091051Z 0912/1012 14003MPS 9999 SCT030 TX14/0912Z TN03/1003Z", "TAF UUDD 091052Z 0912/1018 16003MPS 9999 SCT020 TX14/0912Z TN03/1002Z", "TAF UUDL 091100Z 0912/1012 VRB01MPS 9999 SCT040 TX13/0912Z TN00/1003Z", "TAF UUEE 091056Z 0912/1012 14002G07MPS 9999 SCT020 TX13/0912Z TN02/1002Z", "TAF UUMO 091046Z 0912/0921 13003MPS CAVOK", "TAF UUOB 091055Z 0912/0921 11003G08MPS 9999 BKN030", "TAF UUOK 091046Z 0912/0921 10004MPS 9999 BKN025", "TAF UUOL 091100Z 0912/0921 14003MPS CAVOK", "TAF UUOO 091100Z 0912/0921 11003MPS 9999 BKN030", "TAF UUWW 091050Z 0912/1012 16003MPS 9999 SCT030 TX15/0913Z TN02/1003Z", "TAF UUYY 091100Z 0912/1012 32004G13MPS 9999 BKN020 TEMPO 0912/0919 29006MPS TEMPO 0919/1012 BKN016CB BECMG 0921/0922 33004G12MPS", "TAF UWGG 091052Z 0912/1012 08003MPS 9999 SCT040 TX12/0912Z TNM02/1000Z", "TAF UWKD 091054Z 0912/1012 30003MPS CAVOK TX13/1012Z TNM01/1003Z", "TAF UWKE 091050Z 0912/1012 11003G08MPS 9999 FEW020 TEMPO 0912/0921 32003G08MPS", "TAF UWKS 091052Z 0912/0921 VRB01MPS CAVOK TX13/0912Z TN03/0921Z", "TAF UWLL 091058Z 0912/1012 36003G09MPS 9999 BKN030 TX12/0912Z TNM03/1002Z TEMPO 0912/0915 05005MPS TEMPO 0921/1006 30005MPS", "TAF UWLW 091057Z 0912/1012 35003MPS 9999 SCT030 TX13/0912Z TNM03/1003Z TEMPO 0912/0915 01003G09MPS", "TAF UWOO 091043Z 0912/1012 11003G08MPS 9999 SCT040 TX13/1011Z TNM00/1002Z TEMPO 0912/0924 08003MPS BECMG 1000/1002 35003G08MPS", "TAF UWOR 091045Z 0912/0921 10003G08MPS CAVOK TX11/0912Z TNM01/0921Z", "TAF UWPS 091057Z 0912/0921 02003MPS CAVOK TX13/0913Z TN04/0921Z", "TAF UWSG 091100Z 0912/0921 07003G08MPS CAVOK TX13/0912Z TN04/0921Z", "TAF UWUU 091053Z 0912/1012 VRB01MPS CAVOK TX13/0912Z TNM03/1003Z TEMPO 0912/1006 26003G08MPS SCT040 TEMPO 1006/1012 32005G12MPS BKN030", "TAF UWWW 091051Z 0912/1012 08003G09MPS 9999 SCT020 TX15/1011Z TNM00/1003Z BECMG 0916/0918 02003G09MPS BECMG 1004/1006 32003G09MPS TEMPO 1006/1012 36005G10MPS", "TAF VAAH 091100Z 0912/0921 32006KT 6000 FEW020 SCT080 BECMG 0913/0915 4000 FU BECMG 0916/0918 03004KT BECMG 0920/0922 18003KT", "TAF VAAU 091100Z 0912/0921 12005KT 3000 -RA HZ SCT018 SCT025 FEW025TCU BKN090 TEMPO 0912/0918 2000 -TSRA SHRA SCT015 SCT025 FEW030CB/TCU OVC080 BECMG 0915/0917 VRB03KT 2500 -RA HZ BECMG 0920/0921 18005KT 2000 -RA HZ SCT020 SCT025", "TAF VABB 091100Z 0912/1018 32008KT 4000 FU FEW020 SCT100 BECMG 0915/0917 25005KT 3000 FU HZ BECMG 0920/0922 32005KT BECMG 1003/1005 09005KT 2500 FU HZ FEW100 BECMG 1007/1009 27010KT 3000 FU TEMPO 1008/1012 27008G18KT BECMG 1010/1012 4000 FU FEW020 SCT100 BECMG 1015/1017 20005KT 3000 FU", "TAF VABJ 091100Z 0912/0921 22010KT 6000 FEW025 BECMG 0914/0916 27008KT", "TAF VABO 091100Z 0912/0921 27006KT 6000 FEW020 SCT080 BECMG 0916/0918 04004KT BECMG 0919/0921 23003KT", "TAF VABP 091100Z 0912/1018 28010KT 5000 -RA HZ SCT020 SCT100 TEMPO 0912/0916 27010G20KT 3000 -TSRA SCT020 FEW030CB BKN100 BECMG 0916/0918 16008KT 4000 HZ SCT020 SCT100 BECMG 1001/1003 14005KT BECMG 1004/1006 5000 HZ BECMG 1006/1008 23010KT 6000", "TAF VABV 091100Z 0912/0921 14008KT 6000 FEW020 SCT080 BECMG 0914/0916 18005KT 4000 FU BECMG 0916/0918 25006KT FEW020", "TAF VADU 091100Z 0912/0921 25010KT 6000 FEW020 SCT080 BECMG 0912/0914 4000 FU HZ BECMG 0914/0916 29008KT BECMG 0919/0921 NSC", "TAF VAID 0912/1018 28010KT 5000 -RA HZ SCT020 SCT100 TEMPO 0912/0916 27010G20KT 3000 -TSRA SCT020 FEW030CB BKN100 BECMG 0916/0918 16008KT 4000 HZ SCT020 SCT100 BECMG 1001/1003 14005KT 3000 HZ BECMG 1004/1006 5000 HZ BECMG 1006/1008 23010KT 6000", "TAF VAJB 091100Z 0912/0921 28010KT 6000 SCT020 SCT100 TEMPO 0912/0916 3000 -TSRA SCT020 FEW030CB BKN100 BECMG 0916/0918 5000 HZ SCT020 SCT100", "TAF VAJL 090500Z 0906/0915 16008KT 3000 -RA HZ SCT018 SCT025 FEW025TCU BKN090 TEMPO 0906/0915 21008G18KT 2000 -TSRA SHRA SCT015 SCT025 FEW030TCU/CB OVC080 BECMG 0909/0911 23008KT 3500 -RA HZ BECMG 0912/0914 10005KT 3000 -RA HZ", "TAF VAJM 091100Z 0912/0921 27010KT 6000 FEW020 SCT080 BECMG 0916/0918 FEW080 BECMG 0919/0921 4000 HZ", "TAF VAKE 090800Z 0909/0918 VRB02KT 5000 FU NSC BECMG 0910/0912 25006KT BECMG 0913/0918 29006KT 4000 FU FEW080", "TAF VAKP 091100Z 0912/0921 05005KT 3000 -RA HZ SCT020 SCT025 FEW025TCU TEMPO 0912/0918 2000 -TSRA -RA SCT015 SCT025 FEW030TCU/CB OVC080 BECMG 0915/0917 2500 -RA HZ", "TAF VAOZ 090800Z 0909/0921 12010KT 6000 SCT030 TEMPO 0911/0914 15015G25KT 3000 TSRA SCT030 FEW030CB SCT300", "TAF VAPO 090500Z 0906/1012 07010KT 6000 SCT025 SCT100 TEMPO 0911/0914 11010G20KT 6000 SCT025 FEW030CB BKN100 TEMPO 1010/1012 29015KT 6000 SCT025 FEW030TCU BKN100", "TAF VAPR 091100Z 0912/0921 28012KT 6000 FEW020 BECMG 0914/0916 NSC BECMG 0919/0921 36006KT", "TAF VARK 091100Z 0912/0921 27008KT 6000 SCT020 SCT080 BECMG 0916/0918 FEW020", "TAF VARP 081700Z 0818/0924 00000KT 3000 HZ SCT020 BKN090 BECMG 0902/0904 20005KT 5000 HZ SCT020 SCT090 TEMPO 0908/0912 27010KT 2000 -TSRA SCT020 FEW030CB BKN090 BECMG 0913/0915 00000KT 3000 HZ FEW020 SCT090", "TAF VASD 090800Z 0909/0918 23008KT 3500 -RA HZ SCT018 SCT025 FEW025TCU BKN090 TEMPO 0909/0915 21008G18KT 2000 -TSRA SHRA SCT015 SCT025 FEW030TCU/CB OVC080 BECMG 0912/0914 10005KT 3000 -RA HZ BECMG 0916/0918 VRB03KT SCT020 SCT100", "TAF VASL 091100Z 0912/0921 05005KT 3000 -RA HZ SCT020 SCT025 FEW025TCU TEMPO 0912/0918 2000 -TSRA -RA SCT015 SCT025 FEW030TCU/CB OVC080 BECMG 0915/0917 2500 -RA HZ", "TAF VASU 091100Z 0912/0921 29008KT 6000 FEW020 SCT080 BECMG 0919/0921 NSC", "TAF VAUD 091100Z 0912/1018 26005KT 6000 SCT035 SCT100 BECMG 0914/0916 VRB03KT 3000 HZ FEW100 BECMG 1005/1007 14005KT 6000 FEW035 SCT100 BECMG 1014/1016 27005KT 3000 HZ FEW035", "TAF VCBI 091100Z 0912/1018 25010KT 9999 FEW018 TX32/1008Z TN24/1000Z PROB30 TEMPO 0912/0915 7000 -TSRA/SHRA SCT016 FEW020CB BKN080 BECMG 0913/0915 VRB05KT BECMG 1006/1008 25010KT", "TAF VCRI 091100Z 0912/1018 VRB05KT 9999 SCT018 TX33/1008Z TN24/1000Z PROB30 TEMPO 0912/0915 7000 -TSRA/SHRA SCT018 FEW020CB BKN080 BECMG 1003/1005 05008KT", "TAF VDPP 091100Z 0912/1006 18010KT 9999 SCT017 TEMPO 0912/0917 5000 TSRA SCT015 FEW017CB SCT040", "TAF VDSR 091100Z 0912/1006 33008KT 9999 SCT017 TEMPO 0912/0917 SCT015 FEW017CB SCT040", "TAF VDSV 091100Z 0912/1006 27010KT 9999 SCT017 TEMPO 0912/0917 5000 TSRA SCT015 FEW017CB SCT040", "TAF VEAB 090930Z 0912/0924 30005KT 6000 NSC", "TAF VEAN 090500Z 0906/0915 24005KT 4000 -RA BR FEW009 SCT018 FEW025CB BKN090 BECMG 0908/0910 2000 -TSRA FEW009 SCT016 FEW025CB OVC080", "TAF VEBD 090500Z 0906/1012 34005KT 5000 HZ SCT030 SCT200", "TAF VEBI 090800Z 0909/0918 22006KT 5000 HZ FEW020 SCT100 BECMG 0913/0915 00000K 3000 -RA BR SCT018 BKN100", "TAF VEBU 090500Z 0906/0915 12005KT 4000 HZ SCT020 SCT090 TEMPO 0910/0914 29010KT 2000 HZ/-TSRA SCT020 FEW030CB BKN090", "TAF VECC 091100Z 0912/1018 35005KT 5000 HZ FEW100 BECMG 0914/0916 20005KT 3500 HZ BECMG 0923/1001 29005KT 2500 HZ BECMG 1003/1005 32005KT 3500 HZ BECMG 1007/1009 36007KT 5000 HZ BECMG 1014/1016 20005KT 3500 HZ", "TAF VECX 090330Z 0906/0918 29008KT 6000 FEW030 SCT250 TEMPO 0910/0912 FEW030 FEW030TCU SCT250", "TAF VEDG 091100Z 0912/1018 27005KT 5000 HZ FEW020 SCT100 BECMG 0914/0916 3500 HZ BECMG 0923/1001 30005KT 2500 HZ FEW100 BECMG 1003/1005 4000 HZ BECMG 1005/1007 5000 HZ FEW020 SCT100 BECMG 1014/1016 3500 HZ", "TAF VEDO 090500Z 0906/0915 30005KT 4000 HZ NSC BECMG 0908/0910 5000 HZ FEW020 SCT100", "TAF VEDZ 090500Z 0906/0915 25007KT 5000 BR SCT018 BKN100 BECMG 0913/0915 3000 -TSRA BR FEW009 SCT018 FEW025CB BKN090", "TAF VEGK 090930Z 0912/0924 32010KT 6000 SCT030 SCT100 BECMG 0914/0916 VRB02KT BECMG 0920/0922 VRB02KT 5000 BR FEW030 SCT250", "TAF VEGT 091100Z 0912/1018 00000KT 3000 BR FEW020 SCT100 BECMG 1004/1006 34005KT 5000 HZ SCT020 SCT100 BECMG 1013/1015 00000KT 3000 BR", "TAF VEIM 091100Z 0912/1018 00000KT 3500 BR FEW020 SCT100 BECMG 0916/0918 2500 BR SCT018 BKN100 BECMG BECMG 1004/1006 4000 HZ FEW020 SCT100 BECMG 1013/1015 00000KT 2500 -RA BR SCT018 BKN100", "TAF VEJH 090800Z 0909/0918 20003KT 3000 HZ FEW020 SCT100 TEMPO 0911/0915 1500 TSRA BKN018 FEW030CB OVC090 BECMG 0916/1918 3000 HZ SCT018 SCT100", "TAF VEJR 090500Z 0906/0915 15005KT 4000 HZ SCT020 SCT090 TEMPO 0910/0914 27010KT 2000 HZ/-TSRA SCT020 FEW030CB BKN090", "TAF VEJS 091100Z 0912/0921 00000KT 5000 HZ FEW100 BECMG 0915/0917 3000 HZ", "TAF VEJT 090500Z 0906/0915 05005KT 5000 HZ FEW020 BECMG 0913/0915 00000KT 3000 BR FEW018 SCT100", "TAF VEKI 091100Z 0912/0921 27015KT 5000 HZ NSC BECMG 0915/0917 VRB02KT 3000 HZ", "TAF VEKO 091100Z 0912/0921 28010KT 5000 HZ SCT020 SCT100 TEMPO 0912/0916 3000 -TSRA SCT020 FEW030CB BKN100 BECMG 0916/0918 4000 HZ SCT020 SCT100", "TAF VEKU 090800Z 0909/0918 27005KT 5000 HZ FEW020 SCT100 BECMG 0913/0915 00000K 3000 -RA BR SCT018 BKN100", "TAF VELP 090800Z 0909/0918 32005KT 5000 HZ NSC", "TAF VELR 090800Z 0909/0918 19005KT 5000 HZ SCT018 BKN100 BECMG 0912/0914 00000K 3000 -RA BR", "TAF VEMN 090800Z 0909/0918 02006KT 5000 HZ SCT100 BECMG 0914/0918 09003KT 3000 BR FEW020 SCT100", "TAF VEMR 090800Z 0909/0918 21006KT 5000 HZ FEW020 SCT100 BECMG 0913/0915 00000K 3000 -RA BR SCT020 SCT100", "TAF VEPY 090800Z 0909/0918 20005KT 5000 HZ FEW015 BECMG 0913/0915 00000KT 3000 HZ", "TAF VERC 091100Z 0912/0921 27008KT 5000 HZ FEW020 SCT025 BECMG 0915/0917 27003KT 3000 HZ SCT100", "TAF VERK 090800Z 0909/0918 31005KT 5000 HZ FEW020 SCT100 TEMPO 0910/0914 1500 TSRA BKN018 FEW030CB OVC090 BECMG 0916/0918 3000 HZ SCT018 SCT100", "TAF VERP 091100Z 0912/1018 23008KT 5000 HZ FEW025 BECMG 0916/0918 3000 HZ NSC BECMG 1000/1002 VRB03KT 2000 HZ BECMG 1006/1008 32005KT 5000 HZ FEW025 BECMG 1010/1012 VRB03KT 3000 HZ NSC", "TAF VERU 090800Z 0909/0918 25006KT 5000 HZ FEW018 SCT100 BECMG 0913/0915 00000K 3000 -RA BR SCT018 BKN090", "TAF VETJ 090500Z 0906/0915 02004KT 5000 HZ SCT018 BKN100 BECMG 0913/0915 3000 BR", "TAF VETZ 090500Z 0906/0915 09005KT 5000 HZ FEW020 BECMG 0913/0915 00000KT 3000 BR FEW020 SCT100", "TAF VEZO 090500Z 0906/0915 25007KT 5000 -RA BR FEW009 SCT018 BKN090 BECMG 0913/0915 3000 -RA BR", "TAF VGEG 091100Z 0912/1018 32010KT 4000 HZ NSC BECMG 1001/1003 03010KT 3100 HZ NSC BECMG 1012/1014 33010KT 4500 NSC", "TAF VGHS 091100Z 0912/1018 26008KT 3500 HZ FEW015 SCT100 BECMG 0918/0920 18006KT 3000 HZ BECMG 1000/1002 26006KT 2000 BR/HZ FEW012 BECMG 1004/1006 28008KT 3000 HZ NSC BECMG 1010/1012 3500HZ", "TAF VIAG 090500Z 0906/1012 29006KT 6000 NSC BECMG 1000/1003 4000 BR BECMG 1004/1005 6000", "TAF VIBR 090500Z 0906/0915 27004KT 6000 NSC BECMG 0910/0912 25006KT 4000 HZ FEW030 SCT080 ", "TAF VIBT 090930Z 0912/0924 33005KT 6000 SKC BECMG 0921/0922 VRB02KT 5000 HZ SKC", "TAF VIBY 090330Z 0906/0918 30010KT 6000 FEW030 TEMPO 0909/0911 FEW030TCU", "TAF VICG 090500Z 0906/1012 30005KT 6000 FEW030 TEMPO 0923/1001 VRB02KT 5000 BR BECMG 1001/1003 32005KT 6000 FEW030 TEMPO 1010/1012 FEW030TCU SCT250", "TAF VIDN 091100Z 0912/0921 27004KT 6000 FEW030 BECMG 0914/0916 04003KT 3500 HZ BR ", "TAF VIGG 090500Z 0906/0915 25004KT 8000 NSC BECMG 0910/0912 23008G18KT 4000 HZ FEW030 SCT080", "TAF VIGR 090330Z 0906/0918 27006KT 6000 FEW030 SCT250 TEMPO 0910/0912 27010G20KT FEW030 TCU/CB", "TAF VIJO 090930Z 0912/0924 35010KT 6000 SCT030 BECMG 0915/0918 05010KT FEW030 SCT250", "TAF VIJR 090330Z 0906/0918 10010KT 6000 FEW030 SCT100", "TAF VIJU 090330Z 0906/0918 01005KT 6000 SKC", "TAF VILH 090330Z 0906/0918 28005KT 6000 FEW070 TEMPO 0912/0914 29015G25KT 5000 BLDU SCT070", "TAF VIPT 091100Z 0912/0921 28005KT 5000 HZ FEW030 BECMG 0913/0915 35004KT 3500 HZ BR ", "TAF VISM 090500Z 0906/0915 32004KT 8000 NSC BECMG 0908/0910 27008KT 3500 HZ FEW030 SCT060", "TAF VISP 090930Z 0912/0924 29005KT 6000 NSC TEMPO 0922/0924 4000 BR", "TAF VISR 090930Z 0912/0924 VRB02KT 6000 FEW025 FEW030TCU SCT100", "TAF VIUT 090930Z 0912/0924 VRB02KT 6000 SCT030 BKN250 TEMPO 0914/09174 FEW040TCU", "TAF VLLB 091100Z 0912/1012 27004KT 2000 FU SCT020 BKN060", "TAF VLLN 091100Z 0912/1012 22008KT 2000 FU SCT020 BKN100", "TAF VLPS 091100Z 0912/1012 22004KT 3000 BR SCT020 BKN200", "TAF VLSK 091100Z 0912/1012 22004KT 3000 BR SCT020 BKN100", "TAF VLVT 091100Z 0912/1012 22004KT 4000 BR FEW020 BKN200", "TAF VMMC 091100Z 0912/1018 10008KT 9999 FEW030", "TAF VNKT 091100Z 0912/1012 20010KT 6000 FEW015 BECMG 0914/0915 22004KT 6000 FEW015 SCT100 BECMG 1000/1002 VRB02KT 4000 BR FEW015 PROB30 1001/1003 2000 BR FEW010 BECMG 1004/1005 11004KT 5000 HZ FEW015 BECMG 1007/1009 23012KT 8000 FEW020 SCT030", "TAF VOAR 091100Z 0912/1018 08010KT 6000 FEW018 SCT100 BECMG 0913/0914 4500 HZ BECMG 0916/0918 VRB02KT BECMG 1002/1003 21008KT BECMG 1004/1005 6000 BECMG 1007/1009 11010KT BECMG 1012/1013 4500 HZ BECMG 1015/1017 VRB02KT", "TAF VOBG 091100Z 0912/0921 11010KT 6000 SCT015 TEMPO 0912/0915 SCT012 SCT020 FEW025CB", "TAF VOBL 091100Z 0912/1018 11010KT 6000 SCT015 TEMPO 0912/0915 SCT012 SCT020 FEW025CB TEMPO 1000/1003 VRB02KT 2000 BR SCT008 TEMPO 1009/1015 3000 TSRA RA SCT015 SCT020 FEW025CB BKN080", "TAF VOBM 091100Z 0912/0921 11010KT 6000 SCT015 TEMPO 0912/0915 SCT012 SCT020 FEW025CB", "TAF VOBZ 091100Z 0912/0921 16006KT 6000 SCT015 BECMG 0916/0918 16005KT 5000 HZ SCT015", "TAF VOCB 091100Z 0912/1018 07010KT 6000 FEW015 SCT100 TEMPO 0915/0921 4000 -TSRA/RA FEW012 FEW020TCU/CB SCT080 BECMG 0915/0916 VRB02KT 5000 HZ BECMG 1003/1004 07010KT 6000", "TAF VOCP 090800Z 0909/0918 03006KT 6000 SCT015 SCT025 TEMPO 0910/0915 5000 DZ HZ SCT015 FEW030CB BKN080", "TAF VOGB 090800Z 0909/0918 12010KT 6000 SCT015 TEMPO 0909/0915 SCT012 SCT020 FEW025CB", "TAF VOGO 091100Z 0912/1018 29010KT 6000 FEW030 SCT090 BECMG 0918/0920 05006KT TEMPO 1000/1004 11007KT FEW020 SCT090 BECMG 1006/1008 25010KT TEMPO 1011/1013 32010G20KT FEW020 FEW025TCU/CB BKN080 ", "TAF VOHB 091100Z 0912/1018 11010KT 6000 SCT015 TEMPO 0912/0915 SCT012 SCT020 FEW025CB TEMPO 1000/1003 3000 BR SCT010 TEMPO 1000/1003 4000 BR SCT010 TEMPO 1012/1018 3000 TSRA RA SCT015 SCT020 FEW025CB BKN080", "TAF VOHS 091100Z 0912/0921 10008KT 6000 SCT015 SCT025 BECMG 0916/0918 18005KT 5000 HZ SCT015", "TAF VOHY 091100Z 0912/0921 10008KT 6000 SCT015 SCT025 BECMG 0916/0818 18005KT 5000 HZ SCT015", "TAF VOJV 090800Z 0909/0918 12010KT 6000 SCT015 TEMPO 0909/0915 SCT012 SCT020 FEW025CB", "TAF VOKU 090800Z 0909/0918 12006KT 6000 SCT015 SCT025 TEMPO 0910/0915 FEW030CB", "TAF VOLT 091100Z 0912/0921 05005KT 3000 -RA HZ SCT020 SCT025 FEW025TCU TEMPO 0912/0918 2000 -TSRA -RA SCT015 SCT025 FEW030TCU/CB OVC080 BECMG 0915/0917 2500 -RA HZ", "TAF VOMD 091100Z 0912/1018 09010KT 6000 FEW020 SCT100 TEMPO 0912/0918 4000 -TSRA/RA FEW018 FEW025TCU/CB BKN080 BECMG 0921/0922 VRB02KT 5000 BR BECMG 1003/1004 09010KT 6000", "TAF VOML 091100Z 0912/1018 29010KT 6000 SCT015 TEMPO 0912/0915 SCT012 SCT020 FEW025CB BECMG 0916/0917 VRB02KT BECMG 0920/0921 09005KT TEMPO 1000/1003 3000 BR SCT010 BECMG 1006/1007 29010KT TEMPO 1012/1018 SCT012 SCT020 FEW025CB", "TAF VOMM 091100Z 0912/1018 12010KT 6000 SCT020 SCT100 BECMG 0921/0922 VRB02KT 5000 HZ TEMPO 1000/1003 2000 BR BECMG 1003/1004 12010KT 5000 BR BECMG 1006/1007 6000", "TAF VOMY 090800Z 0909/0918 09010KT 6000 SCT015 TEMPO 0909/0915 4000 TSRA RA SCT012 SCT020 FEW025CB", "TAF VOND 091100Z 0912/0921 12005KT 3000 -RA HZ SCT018 SCT025 FEW025TCU BKN090 TEMPO 0912/0918 2000 -TSRA SHRA SCT015 SCT025 FEW030CB/TCU OVC080 BECMG 0915/0917 VRB03KT 2500 -RA HZ BECMG 0920/0921 18005KT 2000 -RA HZ SCT020 SCT025", "TAF VOPB 091100Z 0912/0921 VRB02KT 5000 BR FEW014 SCT220", "TAF VORY 091100Z 0912/0921 16006KT 6000 SCT015 BECMG 0916/0918 16005KT 5000 HZ SCT015", "TAF VOSR 091100Z 0912/0921 27008KT 3000 FU HZ FEW020 SCT025 TEMPO 0912/0918 2000 -TSRA -SHRA SCT015 SCT025 FEW030CB OVC080 BECMG 0915/0917 2500 -RA HZ", "TAF VOTP 091100Z 0912/0921 29006KT 6000 SCT015 TEMPO 0916/0918 26005KT 5000 HZ SCT015", "TAF VOTR 091100Z 0912/1018 09010KT 6000 FEW016 SCT100 BECMG 0915/0916 09005KT 5000 HZ BECMG 0918/0919 3000 BR BECMG 1002/1003 02010KT BECMG 1006/1007 09010KT 6000", "TAF VOVZ 091100Z 0912/1018 23008KT 5000 HZ FEW018 TEMPO 0912/0914 FEW022TCU/CB BECMG 0915/0917 VRB02KT 4000 BR BECMG 1003/1005 24010KT 5000 HZ TEMPO 1008/1012 2307G17KT FEW022TCU BECMG 1014/1016 VRB02KT 4000 BR", "TAF VRMG 091100Z 0912/1018 23006KT 9999 FEW018 TEMPO 0912/0918 FEW019CB", "TAF VRMH 091100Z 0912/1018 06010KT 9999 FEW018TCU TEMPO 0912/0918 5000 SHRA FEW018CB", "TAF VRMM 091100Z 0912/1018 09006KT 9999 FEW018TCU TEMPO 0912/0912 5000 SHRA FEW018CB", "TAF VTBD 091100Z 0912/1018 19005KT 9000 FEW020 BECMG 0920/0922 00000KT BECMG 1001/1003 20005KT TEMPO 1006/1010 VRB15KT 4000 TSRA FEW018CB SCT030 BKN080", "TAF VTBO 091100Z 0912/1012 22008KT 9000 FEW020 SCT080 TEMPO 0912/0916 16010G25KT 4000 TSRA FEW018CB SCT030 BKN080 BECMG 0918/0920 12005KT BECMG 1001/1003 21008KT", "TAF VTBS 091100Z 0912/1018 19008KT 9000 FEW020 BECMG 0920/0922 10005KT BECMG 1001/1003 20005KT TEMPO 1006/1010 VRB15KT 4000 TSRA FEW018CB SCT030 BKN080", "TAF VTBU 091100Z 0912/1012 18008KT 9000 FEW020", "TAF VTCC 091100Z 0912/1018 16005KT 6000 FEW035 BECMG 0920/0922 28005KT BECMG 1000/1002 18005KT 3000 HZ BECMG 1005/1007 7000 NSW", "TAF VTCH 091100Z 0912/1012 22005KT 3000 HZ FEW025 BECMG 0920/0922 00000KT 1000 BECMG 1003/1005 20005KT 4000", "TAF VTCL 091100Z 0912/1012 14005KT 7000 FEW025", "TAF VTCN 091100Z 0912/1012 20005KT 9000 FEW030 BECMG 0921/0923 36005KT", "TAF VTCP 091100Z 0912/1012 21005KT 9999 FEW040 BECMG 0921/0923 00000KT 2000 BR BECMG 1003/1005 20005KT 8000 NSW", "TAF VTCT 091100Z 0912/1018 10005KT 5000 HZ FEW035 BECMG 0917/0919 27005KT BECMG 1002/1004 16005KT", "TAF VTPB 091100Z 0912/1012 16005KT 8000 FEW030", "TAF VTPH 091100Z 0912/1012 15012KT 9999 FEW020 BECMG 0916/0918 24003KT BECMG 1002/1004 15015KT", "TAF VTPM 091100Z 0912/1012 25005KT 9999 FEW035", "TAF VTPO 091100Z 0912/1012 16005KT 9999 FEW030", "TAF VTPP 091100Z 0912/1012 16005KT 9999 FEW025", "TAF VTPT 091100Z 0912/1012 26005KT 9000 FEW026", "TAF VTSB 091100Z 0912/1012 33004KT 9999 FEW020 BECMG 1004/1006 04010KT", "TAF VTSC 091100Z 0912/1012 06008KT 9999 FEW020 BECMG 0916/0918 19004KT BECMG 1003/1005 07010KT", "TAF VTSE 091100Z 0912/1012 14005KT 9999 FEW020 BECMG 0913/0915 25003KT BECMG 1004/1006 14008KT", "TAF VTSF 091100Z 0912/1012 08005KT 9999 FEW020 BECMG 0913/0915 00000KT BECMG 1004/1006 08010KT", "TAF VTSG 091100Z 0912/1012 21009KT 9999 FEW020 BECMG 0914/0916 06006KT", "TAF VTSM 091100Z 0912/1012 15005KT 9999 FEW020 BECMG 0916/0918 00000KT BECMG 1001/1003 15012KT", "TAF VTSP 091100Z 0912/1018 28006KT 9999 FEW020 BECMG 0916/0918 08005KT BECMG 1003/1005 28006KT", "TAF VTSR 091100Z 0912/1012 32007KT 9999 FEW025 BECMG 0914/0916 06006KT BECMG 1002/1004 32007KT", "TAF VTSS 091100Z 0912/1012 06005KT 9999 FEW020 BECMG 0914/0916 00000KT BECMG 1004/1006 06012KT", "TAF VTST 091100Z 0912/1012 07006KT 9999 FEW030 BECMG 0918/0920 31005KT BECMG 1000/1002 07006KT", "TAF VTSY 091100Z 0912/1012 00000KT 9999 FEW020 BECMG 0921/0923 2000 BR BKN005 BECMG 1004/1006 05006KT 9999 NSW FEW020", "TAF VTUD 091100Z 0912/1012 09005KT 7000 FEW030", "TAF VTUI 091100Z 0912/1012 11005KT 8000 FEW030", "TAF VTUK 091100Z 0912/1012 13005KT 8000 FEW030", "TAF VTUL 091100Z 0912/1012 14005KT 8000 FEW030", "TAF VTUO 091100Z 0912/1012 29005KT 8000 NSC BECMG 0920/0922 19005KT", "TAF VTUQ 091100Z 0912/1012 25005KT 8000 FEW030 BECMG 0915/0917 19005KT", "TAF VTUU 091100Z 0912/1012 28005KT 9000 NSC BECMG 0914/0916 09005KT BECMG 0917/0919 20005KT ", "TAF VTUV 091100Z 0912/1012 29005KT 8000 NSC BECMG 0920/0922 09005KT BECMG 1001/1003 20005KT ", "TAF VTUW 091100Z 0912/1012 10005KT 8000 FEW030", "TAF VVCI 091100Z 0912/1012 05005KT 7000 SCT010 BKN030 BECMG 0919/0920 3500 BR TEMPO 0921/1001 2500 -DZ BR BKN004 OVC020 BECMG 1002/1003 6000 NSW", "TAF VVCR 091100Z 0912/1012 06012KT 9999 FEW015 BECMG 0916/0917 32005KT BECMG 1002/1003 05012KT", "TAF VVCT 091100Z 0912/1012 VRB03KT 9999 SCT015 TEMPO 1008/1011 5000 SHRA BKN013 FEW015CB", "TAF VVDN 091100Z 0912/1012 35010KT 8000 FEW013", "TAF VVNB 091100Z 0912/1012 07006KT 6000 SCT010 BKN030 BECMG 0915/0917 3000 BR TEMPO 0920/1001 1400 DZ BR BKN003 OVC020 BECMG 1003/1004 6000 NSW", "TAF VVPB 091100Z 0912/1012 30006KT 8000 SCT013 BKN040 BECMG 0916/0918 4000 BR BECMG 1000/1001 8000 NSW", "TAF VVPQ 091100Z 0912/1012 VRB03KT 9999 SCT015 BECMG 1006/1007 12010KT", "TAF VVTS 091100Z 0912/1018 14008KT 9999 SCT020 SCT050 BECMG 0914/0915 VRB03KT", "TAF VVVD 091100Z 0912/1012 06005KT 6000 SCT010 BKN025 BECMG 0918/0919 3500 BR TEMPO 0920/1001 2500 -DZ BR BKN004 OVC020 BECMG 1002/1003 6000 NSW", "TAF VYMD 091100Z 0912/1012 36003KT 7000 SCT025 TEMPO 0912/0918 34007KT 5000 HZ SCT020", "TAF VYNT 091100Z 0912/1012 16008KT 7000 FEW020 FEW120 TEMPO 0912/0918 12007KT 6000 SCT020 FEW025TCU", "TAF VYYY 091100Z 0912/1012 22008KT 8000 SCT020 BECMG 0913/0916 17010KT 150V230 6000 NSC", "TAF WAAA 091100Z 0912/1018 10004KT 7000 -RA SCT019 TEMPO 0918/0922 5000 TSRA FEW018CB BECMG 1001/1003 29010KT", "TAF WABB 091100Z 0912/1018 23008KT 9999 SCT018 PROB40 0917/0920 5000 RA BKN016", "TAF WADD 091100Z 0912/1012 27010KT 9999 SCT016 TEMPO 0920/1000 5000 TSRA FEW014CB BKN014", "TAF WADL 091100Z 0912/1012 26007KT 7000 BKN016 PROB40 TEMPO 0912/0915 3000 TSRA FEW015CB", "TAF WALL 091100Z 0912/1018 07004KT 9999 FEW020CB FEW020 BECMG 0913/0915 FEW020", "TAF WALS 091100Z 0912/0924 VRB02KT 8000 FEW020", "TAF WAMM 091100Z 0912/1018 VRB03KT 9999 SCT019 BECMG 1000/1002 27009KT", "TAF WAOO 091100Z 0912/1012 12006KT 9999 SCT018 TEMPO 0917/0921 4000 RA", "TAF WAPP 091100Z 0912/1012 32008KT 9999 SCT017", "TAF WAQA 091100Z 0912/0924 10007KT 7000 FEW012", "TAF WAQD 091100Z 0912/0924 00000KT 8000 FEW015", "TAF WAQJ 091100Z 0912/0924 04004KT 7000 BKN017", "TAF WAQQ 091100Z 0912/0924 15003KT 8000 FEW015", "TAF WAQT 091100Z 0912/0924 34002KT 8000 SCT018", "TAF WARR 091100Z 0912/1012 25008KT 8000 SCT020 TEMPO 0912/0915 5000 TSRA BECMG 0920/0922 4000 HZ", "TAF WATT 091100Z 0912/1012 27010KT 8000 BKN016 TEMPO 0918/0922 28015G25KT 2000 TSRA FEW012CB BKN013 TEMPO 1000/1004 30017G28KT 2000 TSRA FEW012CB BKN013", "TAF WBGB 091100Z 0912/1012 VRB03KT 9999 SCT016", "TAF WBGG 091100Z 0912/1012 VRB03KT 9999 SCT018", "TAF WBGR 091100Z 0912/1012 VRB03KT 9999 SCT016", "TAF WBGS 091100Z 0912/1012 VRB03KT 9999 SCT018", "TAF AMD WBKK 091206Z 0912/1012 11004KT 9999 FEW014 TEMPO 0912/0915 4000 TSRA FEW010 FEW016CB SCT035 BECMG 1000/1002 30006KT", "TAF WBKL 091100Z 0912/1012 VRB02KT 9999 FEW015 BECMG 1002/1004 30006KT", "TAF WBKS 091100Z 0912/1012 35006KT 9999 FEW015 TEMPO 1000/1004 5000 RA FEW010 SCT035", "TAF WBKW 091100Z 0912/1012 02006KT 9999 FEW017 TEMPO 1006/1010 5000 TSRA FEW013 FEW015CB SCT033", "TAF WBSB 091100Z 0912/1018 03003KT 9999 FEW015 FEW016CB BECMG 1003/1005 32008KT FEW016 FEW017CB", "TAF WIDD 091100Z 0912/1012 05010KT 9999 FEW014", "TAF WIEE 091100Z 0912/1012 01005KT 9999 SCT020", "TAF WIHH 091100Z 0912/1012 26008KT 6000 SCT020 BECMG 0917/0919 22003KT 5000 HZ FEW022", "TAF WIII 091100Z 0912/1018 25005KT 8000 SCT020 TEMPO 0912/0915 5000 -TSRA FEW018CB BECMG 0915/0917 5000 HZ BECMG 1001/1003 34010KT 9000 NSW", "TAF WIMM 091100Z 0912/1012 VRB04KT 5000 HZ SCT018 BECMG 1002/1004 36010KT 9999 NSW", "TAF WIPB 090500Z 0906/0918 12006KT 9999 SCT010 TEMPO 0907/0911 5000 -RA FEW010CB BKN010", "TAF WIPP 091100Z 0912/1012 03008KT 9999 SCT010 TEMPO 0916/0920 5000 -RA FEW010CB BKN011 TEMPO 0921/0924 3000 BR", "TAF WIPY 090500Z 0906/0918 290087KT 9999 SCT010 TEMPO 0907/0911 3000 TSRA FEW009CB BKN010", "TAF WITT 091100Z 0912/1012 02005KT 9999 SCT018 BECMG 0914/0916 13005KT BECMG 1003/1005 04005KT", "TAF WMAP 091100Z 0912/1012 VRB02KT 9999 FEW025", "TAF WMBT 091100Z 0912/1012 VRB02KT 9999 FEW025", "TAF WMKA 091100Z 0912/1012 VRB02KT 9000 FEW030", "TAF WMKB 091100Z 0912/1012 09003KT 8000 FEW024 TEMPO 0912/0914 6000 TSRA FEW017CB", "TAF WMKC 091100Z 0912/1012 06006KT 9999 FEW020", "TAF WMKE 091100Z 0912/1012 03006KT 9999 FEW017", "TAF WMKI 091100Z 0912/1012 03005KT 8000 FEW026", "TAF WMKJ 091100Z 0912/1012 VRB02KT 9999 FEW025 TEMPO 1007/1011 4000 TSRA FEW017CB", "TAF WMKK 091100Z 0912/1018 VRB02KT 9999 FEW025 PROB30 TEMPO 0917/0921 4000 TSRA FEW017CB TEMPO 1007/1011 4000 TSRA FEW017CB", "TAF WMKL 091100Z 0912/1012 VRB02KT 9999 FEW026", "TAF WMKM 091100Z 0912/1012 VRB02KT 9999 FEW025 TEMPO 1007/1011 4000 TSRA FEW017CB", "TAF WMKN 091100Z 0912/1012 VRB02KT 9999 FEW018", "TAF WMKP 091100Z 0912/1012 VRB02KT 8000 FEW025 PROB40 TEMPO 0912/0916 6000 TSRA FEW010 FEW017CB BECMG 1002/1006 22010KT 9999 FEW020", "TAF WMPA 090500Z 0906/1006 VRB02KT 9999 FEW021 TEMPO 0909/0913 29007KT 8000 TS FEW017CB", "TAF WMSA 091100Z 0912/1012 VRB02KT 9999 FEW025 PROB30 TEMPO 0917/0921 4000 TSRA FEW017CB", "TAF AMD WPDL 091111Z 0912/1000 27012KT 9999 SCT030 INTER 0916/1000 2000 SHRA BKN010", "TAF WSAP 091100Z 0912/1018 02007KT 9999 FEW015 SCT020", "TAF WSSL 091100Z 0912/1018 02007KT 9999 FEW015 SCT020", "TAF WSSS 091100Z 0912/1018 02007KT 9999 FEW015 SCT020", "TAF YAMB 091047Z 0912/1012 30008KT CAVOK FM100000 26015G26KT CAVOK FM100730 25010KT CAVOK", "TAF YBAS 091111Z 0912/1012 11010KT CAVOK FM091600 30005KT CAVOK FM092300 09010KT CAVOK", "TAF YBBN 091050Z 0912/1018 27008KT CAVOK FM092300 26015G25KT CAVOK FM100700 25010KT CAVOK", "TAF YBCG 091106Z 0912/1012 24006KT CAVOK FM100100 02009KT CAVOK FM100900 21005KT CAVOK", "TAF YBCS 091101Z 0912/1012 18005KT 9999 FEW025 FM092300 14006KT 9999 FEW025 FM100100 04008KT 9999 FEW030 FM101000 19005KT 9999 FEW025", "TAF YBHM 091102Z 0912/1000 01005KT CAVOK FM091500 20007KT CAVOK", "TAF YBLN 091122Z 0912/1012 23010KT CAVOK FM091500 08006KT CAVOK FM092200 03006KT 9999 SCT030 FM100100 36012KT 9999 -SHRA BKN030 FM100500 30016KT 9999 -SHRA BKN030 INTER 1006/1012 4000 SHRA BKN015 SCT030TCU PROB30 INTER 1006/1009 2000 TSRA BKN010 SCT030CB", "TAF YBMA 091102Z 0912/1000 17007KT CAVOK FM092300 10010KT CAVOK", "TAF YBRK 091106Z 0912/1012 VRB03KT CAVOK FM100100 27005KT CAVOK FM100900 33005KT CAVOK", "TAF YBRM 091100Z 0912/1012 26010KT CAVOK FM091800 19006KT 9999 FEW012 FM100100 13008KT CAVOK FM100600 23006KT CAVOK PROB30 TEMPO 1006/1012 VRB20G35KT 1000 TSRA BKN010 SCT060CB", "TAF YBSU 091105Z 0912/1012 27008KT CAVOK FM092300 25014KT CAVOK", "TAF YBTL 091103Z 0912/1012 25005KT CAVOK FM100100 05012KT CAVOK FM100900 36005KT CAVOK", "TAF AMD YBWW 091133Z 0911/1012 25005KT CAVOK FM092230 25016KT CAVOK FM100900 23005KT CAVOK", "TAF YCFS 091122Z 0912/1012 27005KT CAVOK FM100000 16009KT CAVOK FM100900 27005KT CAVOK", "TAF YCIN 091201Z 0914/1002 VRB04KT CAVOK FM100000 09010KT CAVOK", "TAF YFRT 091310Z 0914/1002 12014KT CAVOK", "TAF YGEL 091119Z 0912/1006 20012KT CAVOK FM091400 06006KT CAVOK FM100200 29010KT 9999 SCT040 FM100400 27017KT 9999 SCT030 PROB30 0917/1000 0300 FG", "TAF YGLA 091045Z 0912/1000 21004KT CAVOK FM092300 27008KT CAVOK", "TAF YHID 091104Z 0912/1012 VRB03KT 9999 -SHRA SCT015 FM100000 10007KT 9999 -SHRA SCT018 INTER 0912/1004 3000 SHRA BKN010 PROB30 TEMPO 0915/1002 VRB15G25KT 1000 TSRA BKN008 SCT020CB", "TAF AMD YLHI 091127Z 0912/1012 25022G32KT 9999 -SHRA SCT035 FM091800 25018G28KT 9999 -SHRA SCT035 FM100000 26015KT 9999 -SHRA SCT030 INTER 0912/1012 5000 SHRA SCT018", "TAF AMD YMAV 091115Z 0911/1012 23013KT 9999 -SHRA SCT025 BKN030 FM100100 21017KT 9999 -SHRA SCT025 BKN035 FM101000 24008KT 9999 -SHRA BKN030 INTER 0911/1000 5000 SHRA SCT015 BKN025", "TAF YMHB 091129Z 0912/1012 22018G28KT 9999 -SHRA FEW025 BKN035 FM092100 20015G25KT 9999 -RA FEW020 BKN030 FM100300 20015KT 9999 -RA SCT015 BKN025 TEMPO 1006/1012 5000 RA BKN015", "TAF AMD YMLT 091129Z 0912/1012 18012KT 9999 FEW050 FM091300 22008KT 9999 FEW045 FM092300 16018G32KT 9999 SCT045 FM100700 14013KT 9999 BKN040", "TAF YMML 091116Z 0912/1018 22012KT 9999 -SHRA SCT020 BKN030 FM100100 20015KT 9999 -SHRA SCT025 BKN035 FM100900 23010KT 9999 -SHRA BKN020 INTER 0912/1001 4000 SHRA BKN015", "TAF YPAD 091119Z 0912/1018 15008KT 9999 SCT025 BKN040 FM091800 09006KT 9999 BKN035 FM100200 26010KT CAVOK FM100900 14008KT CAVOK FM101200 09008KT CAVOK", "TAF AMD YPCC 091101Z 0912/1012 23006KT 9999 SCT020 FM091800 16008KT 9999 -SHRA SCT015 FM100200 13012KT 9999 -SHRA SCT012 BKN020 TEMPO 1002/1012 2000 SHRA BKN008 SCT020TCU", "TAF AMD YPDN 091111Z 0912/1018 05010KT 9999 SCT018 INTER 0912/1018 2000 SHRA BKN012 TEMPO 0917/0922 9999 BKN005 PROB30 TEMPO 0916/1004 VRB20G35KT 0500 TSRA BKN005 SCT018CB PROB30 TEMPO 1016/1018 VRB20G35KT 0500 TSRA BKN005 SCT018CB", "TAF YPEA 091117Z 0912/1006 19010KT CAVOK FM091600 VRB03KT CAVOK FM092000 04005KT CAVOK FM100200 35010KT 9999 -SHRA SCT030 FM100400 30016KT 9999 -SHRA SCT030", "TAF YPGV 091310Z 0914/1002 04006KT 9999 SCT020", "TAF YPJT 091117Z 0912/1006 14008KT CAVOK FM092000 06005KT CAVOK FM100200 35010KT 9999 -SHRA SCT030 FM100400 30016KT 9999 -SHRA SCT030", "TAF AMD YPKG 091236Z 0912/1012 12005KT CAVOK FM092100 09006KT 9999 SCT010 FM100000 07008KT CAVOK FM100400 32012KT CAVOK", "TAF YPKU 091311Z 0914/1002 07005KT CAVOK FM091700 07005KT 9999 SCT010 BECMG 1000/1001 06010KT 9999 SCT040", "TAF YPLM 091100Z 0912/1012 21012KT CAVOK FM092000 19012KT 9999 FEW020 FM100200 22020KT 9999 FEW040", "TAF YPPD 091100Z 0912/1012 25008KT CAVOK FM100100 31014KT CAVOK FM101000 28008KT CAVOK", "TAF YPPH 091117Z 0912/1018 16008KT CAVOK FM092000 04005KT CAVOK FM100200 35010KT 9999 -SHRA SCT030 FM100400 30016KT 9999 -SHRA SCT030 FM100900 25014KT 9999 -SHRA BKN030 INTER 1008/1012 28018G28KT 4000 SHRA BKN012 FEW030TCU", "TAF AMD YPTN 091111Z 0912/1012 09010KT 9999 SCT040 FM091500 08008KT 9999 SCT010 BECMG 0923/1000 07010KT 9999 SCT030 INTER 0912/0916 2000 SHRA BKN010 TEMPO 0918/0923 9999 BKN010 PROB30 TEMPO 0912/0914 VRB20G35KT 1000 TSRA BKN010 SCT040CB PROB30 TEMPO 1006/1012 VRB20G35KT 1000 TSRA BKN010 SCT030CB", "TAF YPWR 091120Z 0912/1006 22012KT CAVOK FM091300 14008KT CAVOK FM092200 08008KT CAVOK BECMG 0923/1001 VRB03KT CAVOK", "TAF YPXM 091101Z 0912/1012 23008KT 9999 SCT020 FM091800 21006KT 9999 -SHRA SCT012 BKN020 FM100300 18004KT 9999 NSW SCT025 TEMPO 0912/1003 1000 SHRA BKN004 SCT020TCU", "TAF YSCB 091108Z 0912/1012 30005KT 9999 SCT050 FM092300 27010KT CAVOK", "TAF YSDU 091112Z 0912/1006 23008KT 9999 SCT045 FM092200 23012KT 9999 SCT040", "TAF AMD YSNF 091129Z 0912/1012 30014KT 9999 -SHRA SCT030 INTER 1004/1012 5000 SHRA SCT015 SCT030TCU", "TAF YSRI 091125Z 0912/1012 26007KT CAVOK FM100000 22010KT CAVOK FM100900 26005KT CAVOK", "TAF YSSY 091105Z 0912/1018 25014KT CAVOK FM091300 26010KT CAVOK FM092200 23016KT CAVOK FM100900 26010KT CAVOK", "TAF YSTW 091121Z 0912/1006 29005KT 9999 SCT040 FM092200 27008KT 9999 SCT035 FM100300 27008KT CAVOK", "TAF YWLM 091124Z 0912/1012 28011KT CAVOK", "TAF ZBAA 090900Z 0912/1012 18004MPS 6000 NSC TX26/1006Z TN09/0921Z", "TAF ZBAD 090901Z 0912/1012 22004MPS 3000 HZ NSC TX29/1007Z TN11/0921Z BECMG 1005/1006 22009G15MPS", "TAF ZBHH 090912Z 0912/1012 20006G12MPS 4000 SA FEW040 TX19/1007Z TN00/0922Z BECMG 1003/1005 26010G17MPS 2000", "TAF ZBSJ 090907Z 0912/1012 16005MPS 4000 HZ NSC TX27/1007Z TN12/0922Z BECMG 0914/0916 27004MPS", "TAF ZBTJ 090903Z 0912/1012 22006MPS 5000 HZ NSC TX26/1006Z TN14/0921Z", "TAF COR ZBYN 090908Z 0912/1012 31004MPS 5000 HZ NSC TX26/1007Z TN06/0922Z BECMG 1006/1007 32010G17MPS", "TAF ZGGG 090906Z 0912/1012 16003MPS 8000 FEW040 TX25/1007Z TN17/0922Z", "TAF ZGHA 090901Z 0912/1012 19004MPS 4000 BR SCT050 TX24/1007Z TN14/0922Z", "TAF ZGKL 090912Z 0912/1012 18003MPS 5000 BR SCT030 OVC060 TX22/1007Z TN16/0922Z BECMG 1003/1004 2800 -RA BR FEW005 BKN014 OVC033", "TAF AMD ZGNN 091014Z 0906/1006 15003MPS 5000 BR SCT013 OVC033 TX22/0907Z TN17/0922Z BECMG 0907/0908 2500 -RA BR FEW003 SCT006 BKN013 TEMPO 0910/0916 1400 FEW002 SCT005 OVC026", "TAF ZGOW 090906Z 0912/1012 12003MPS 5000 BR FEW050 TX25/1006Z TN14/0922Z", "TAF ZGSZ 090905Z 0912/1012 10004MPS 8000 SCT040 TX23/1006Z TN19/0922Z BECMG 1006/1007 19004MPS", "TAF ZHCC 090905Z 0912/1012 20004G10MPS 5000 HZ NSC TX28/1007Z TN15/0922Z", "TAF ZHHH 090901Z 0912/1012 20004MPS 6000 NSC TX27/1007Z TN14/0922Z", "TAF ZJHK 090908Z 0912/1012 11004MPS 6000 BKN015 TX26/1006Z TN20/0918Z TEMPO 0916/0922 2000 -RA BR BKN006 BKN020", "TAF ZJSY 090901Z 0912/1012 09004MPS 9999 FEW020 BKN050 TX31/1006Z TN25/0921Z", "TAF ZKPY 090440Z 0906/1006 27007MPS CAVOK TX20/0906Z TN08/0921Z BECMG 0918/0920 BKN033", "TAF ZKWS 090440Z 0906/1006 27004MPS CAVOK TX21/0906Z TN09/0921Z", "TAF ZLLL 090905Z 0912/1012 12003MPS 6000 NSC TX17/1007Z TN01/0923Z TEMPO 1008/1012 01010MPS 2000 SA", "TAF ZLXY 090907Z 0912/1012 24003MPS 6000 NSC TX27/1007Z TN12/0922Z", "TAF ZMCK 091058Z 0912/1018 30008MPS 6000 SN BLSN BKN030 BKN080 TNM07/0923Z TXM03/1007Z BECMG 1000/1002 30013G18MPS TEMPO 1000/1011 2000 BECMG 1004/1006 31016G21MPS BECMG 1010/1012 30008MPS BECMG 1014/1016 VRB02MPS", "TAF ZMUB 091057Z 0912/1018 32007MPS 6000 SN BLSN BKN030 BKN080 TNM09/0923Z TXM03/1007Z BECMG 1000/1002 30013G18MPS TEMPO 1000/1011 3000 BECMG 1012/1014 VRB02MPS", "TAF ZPPP 090906Z 0912/1012 22005MPS 9999 FEW026 TX27/1008Z TN13/0923Z BECMG 1004/1005 23010G17MPS", "TAF ZSAM 090900Z 0912/1012 06004G09MPS 8000 SCT033 TX23/1006Z TN18/0921Z", "TAF ZSFZ 090912Z 0912/1012 04004MPS 8000 SCT033 TX23/1006Z TN13/0922Z", "TAF ZSHC 090902Z 0912/1012 10004MPS 3000 BR NSC TX27/1006Z TN12/0921Z", "TAF ZSJN 090907Z 0912/1012 23006G12MPS 3500 HZ NSC TX27/1006Z TN15/0921Z", "TAF ZSNB 090907Z 0912/1012 16004MPS 6000 FEW030 TX24/1006Z TN10/0921Z", "TAF ZSNJ 090901Z 0912/1012 17003MPS 3000 BR NSC TX25/1006Z TN08/0921Z", "TAF ZSOF 090903Z 0912/1012 17003MPS 5000 HZ NSC TX26/1007Z TN11/0922Z", "TAF ZSPD 090902Z 0912/1012 16005MPS 6000 SCT020 TX22/1006Z TN14/0921Z", "TAF ZSQD 090906Z 0912/1012 18008G13MPS 6000 NSC TX28/1006Z TN13/0921Z BECMG 0916/0917 18003MPS BECMG 1003/1004 18008G13MPS", "TAF ZSSS 090902Z 0912/1012 17004MPS 6000 SCT020 TX23/1006Z TN15/0921Z", "TAF ZUCK 090902Z 0912/1012 03003MPS 6000 SCT040 TX27/1007Z TN14/0923Z", "TAF ZUGY 090907Z 0912/1012 18004MPS 6000 BKN033 TX25/1007Z TN13/0922Z", "TAF ZUUU 090906Z 0912/1012 20003MPS 6000 SCT050 TX26/1007Z TN14/0922Z", "TAF ZWSH 090907Z 0912/1012 32008G13MPS 6000 FEW040 TX25/1009Z TN15/1000Z BECMG 1002/1003 12004MPS", "TAF ZWWW 090903Z 0912/1012 30004G09MPS 9999 -SHRA SCT011 BKN040 TX15/1009Z TN06/0923Z BECMG 0918/0919 CAVOK BECMG 1003/1004 36004MPS", "TAF ZYCC 090908Z 0912/1012 23009G16MPS 6000 FEW030 TX19/1006Z TN08/0920Z TEMPO 1004/1010 2000 -TSRA FEW020CB BKN030", "TAF ZYHB 090908Z 0912/1012 21006G12MPS 6000 SCT030 TX20/1006Z TN06/0921Z BECMG 1001/1002 22011G19MPS 2500 -SHRA FEW023CB BKN026 BECMG 1009/1010 26005MPS 6000 NSW", "TAF ZYTL 090904Z 0912/1012 20005G12MPS 5000 BR FEW033 TX19/1006Z TN07/0922Z", "TAF ZYTX 090903Z 0912/1012 22004MPS 6000 NSC TX21/1006Z TN08/0921Z TEMPO 0920/0924 -TSRA FEW026CB BKN030"]}