No errors
No warnings
369 ms
data source=metars
5030 results
raw_text,station_id,observation_time,latitude,longitude,temp_c,dewpoint_c,wind_dir_degrees,wind_speed_kt,wind_gust_kt,visibility_statute_mi,altim_in_hg,sea_level_pressure_mb,corrected,auto,auto_station,maintenance_indicator_on,no_signal,lightning_sensor_off,freezing_rain_sensor_off,present_weather_sensor_off,wx_string,sky_cover,cloud_base_ft_agl,sky_cover,cloud_base_ft_agl,sky_cover,cloud_base_ft_agl,sky_cover,cloud_base_ft_agl,flight_category,three_hr_pressure_tendency_mb,maxT_c,minT_c,maxT24hr_c,minT24hr_c,precip_in,pcp3hr_in,pcp6hr_in,pcp24hr_in,snow_in,vert_vis_ft,metar_type,elevation_m
CYPX 281036Z AUTO 16010KT 4SM +SN OVC003 M01/M01 A3024 RMK ICE INTMT SLP246,CYPX,2023-04-28T10:36:00Z,60.03,-77.27,-1.0,-1.0,160,10,,4.0,30.239174,1024.6,,TRUE,,,,,,,+SN,OVC,300,,,,,,,LIFR,,,,,,,,,,,,SPECI,10.0
YSNF 281035Z AUTO 10014KT 9999 -SHRA BKN015 OVC115 19/18 Q1013,YSNF,2023-04-28T10:35:00Z,-29.03,167.93,19.0,18.0,100,14,,6.21,29.911417,,,TRUE,,,,,,,-SHRA,BKN,1500,OVC,11500,,,,,MVFR,,,,,,,,,,,,SPECI,113.0
PASK 281035Z AUTO 05004KT 10SM BKN025 BKN036 OVC048 M08/M10 A2978 RMK AO2 SNB08E25 P0000 FZRANO,PASK,2023-04-28T10:35:00Z,66.6,-160.0,-8.0,-10.0,50,4,,10.0,29.778543,,,TRUE,TRUE,,,,TRUE,,,BKN,2500,BKN,3600,OVC,4800,,,MVFR,,,,,,0.005,,,,,,SPECI,3.0
PARC 281035Z AUTO 03003KT 10SM FEW006 M12/M13 A2977 RMK AO2 FZRANO,PARC,2023-04-28T10:35:00Z,68.12,-145.58,-12.0,-13.0,30,3,,10.0,29.769686,,,TRUE,TRUE,,,,TRUE,,,FEW,600,,,,,,,VFR,,,,,,,,,,,,SPECI,626.0
PAKX 281035Z AUTO 00000KT 1 1/4SM -SN OVC003 00/00 A2981 RMK AO2 P0001,PAKX,2023-04-28T10:35:00Z,60.2,-154.32,0.0,0.0,0,0,,1.25,29.811024,,,TRUE,TRUE,,,,,,-SN,OVC,300,,,,,,,LIFR,,,,,,0.01,,,,,,METAR,88.0
KY63 281035Z AUTO 33008KT 10SM RA BKN038 OVC046 05/05 A2993 RMK AO2 T00500050,KY63,2023-04-28T10:35:00Z,45.98,-96.0,5.0,5.0,330,8,,10.0,29.929134,,,TRUE,TRUE,,,,,,RA,BKN,3800,OVC,4600,,,,,VFR,,,,,,,,,,,,METAR,367.0
KY51 281035Z AUTO 13005KT 10SM CLR 07/01 A2982 RMK AO1 T00740007,KY51,2023-04-28T10:35:00Z,43.58,-90.9,7.4,0.7,130,5,,10.0,29.819881,,,TRUE,TRUE,,,,,,,CLR,,,,,,,,VFR,,,,,,,,,,,,SPECI,390.0
KY19 281035Z AUTO 32008KT 10SM FEW055 SCT070 OVC080 03/03 A3006 RMK AO2,KY19,2023-04-28T10:35:00Z,46.77,-100.9,3.0,3.0,320,8,,10.0,30.059055,,,TRUE,TRUE,,,,,,,FEW,5500,SCT,7000,OVC,8000,,,VFR,,,,,,,,,,,,METAR,591.0
KXSA 281035Z AUTO 07009KT 7SM RA OVC007 14/14 A2995 RMK AO2 P0008 T01400140,KXSA,2023-04-28T10:35:00Z,37.87,-76.9,14.0,14.0,70,9,,7.0,29.949802,,,TRUE,TRUE,,,,,,RA,OVC,700,,,,,,,IFR,,,,,,0.08,,,,,,SPECI,41.0
KX60 281035Z AUTO 10SM CLR 18/18 A2985 RMK AO2 PWINO T01800178,KX60,2023-04-28T10:35:00Z,29.35,-82.47,18.0,17.8,,,,10.0,29.84941,,,TRUE,TRUE,,,,,TRUE,,CLR,,,,,,,,VFR,,,,,,,,,,,,METAR,21.0
KX07 281035Z AUTO 18004KT 10SM CLR 19/19 A2988 RMK A01,KX07,2023-04-28T10:35:00Z,27.9,-81.62,19.0,19.0,180,4,,10.0,29.878937,,,TRUE,TRUE,,,,,,,CLR,,,,,,,,VFR,,,,,,,,,,,,METAR,36.0
KW96 281035Z AUTO 07009G14KT 7SM SCT010 BKN046 OVC050 14/13 A2990 RMK AO1 P0008 T01350132,KW96,2023-04-28T10:35:00Z,37.5,-77.12,13.5,13.2,70,9,14,7.0,29.899607,,,TRUE,TRUE,,,,,,,SCT,1000,BKN,4600,OVC,5000,,,VFR,,,,,,0.08,,,,,,METAR,35.0
KW81 281035Z AUTO 08003KT 5SM OVC006 11/10 A2986 RMK AO1 P0013 T01130100,KW81,2023-04-28T10:35:00Z,37.18,-78.1,11.3,10.0,80,3,,5.0,29.861221,,,TRUE,TRUE,,,,,,,OVC,600,,,,,,,IFR,,,,,,0.13,,,,,,METAR,121.0
KW75 281035Z AUTO 10014G22KT 7SM SCT010 BKN030 OVC080 15/14 A2994 RMK AO1 P0002 T01460135,KW75,2023-04-28T10:35:00Z,37.6,-76.45,14.6,13.5,100,14,22,7.0,29.940945,,,TRUE,TRUE,,,,,,,SCT,1000,BKN,3000,OVC,8000,,,MVFR,,,,,,0.02,,,,,,METAR,8.0
KW63 281035Z AUTO 06005KT 7SM OVC004 15/15 A2980 RMK AO1 P0007,KW63,2023-04-28T10:35:00Z,36.6,-78.55,15.0,15.0,60,5,,7.0,29.799213,,,TRUE,TRUE,,,,,,,OVC,400,,,,,,,LIFR,,,,,,0.07,,,,,,SPECI,126.0
KW31 281035Z AUTO 06006KT 7SM OVC007 M37/M37 A2984 RMK AO1 P0005 T13661366,KW31,2023-04-28T10:35:00Z,36.95,-78.18,-36.6,-36.6,60,6,,7.0,29.840551,,,TRUE,TRUE,,,,,,,OVC,700,,,,,,,IFR,,,,,,0.05,,,,,,METAR,159.0
KVQQ 281035Z AUTO 00000KT 10SM FEW024 FEW035 FEW043 18/18 A2984 RMK AO2,KVQQ,2023-04-28T10:35:00Z,30.22,-81.88,18.0,18.0,0,0,,10.0,29.840551,,,TRUE,TRUE,,,,,,,FEW,2400,FEW,3500,FEW,4300,,,VFR,,,,,,,,,,,,METAR,21.0
KVNW 281035Z AUTO 05013G19KT 5SM -RA BKN042 OVC050 07/06 A2976 RMK AO2,KVNW,2023-04-28T10:35:00Z,40.87,-84.62,7.0,6.0,50,13,19,5.0,29.760826,,,TRUE,TRUE,,,,,,-RA,BKN,4200,OVC,5000,,,,,MVFR,,,,,,,,,,,,SPECI,238.0
KVNC 281035Z AUTO 20009KT 10SM CLR 26/23 A2989 RMK AO2,KVNC,2023-04-28T10:35:00Z,27.07,-82.43,26.0,23.0,200,9,,10.0,29.890747,,,TRUE,TRUE,,,,,,,CLR,,,,,,,,VFR,,,,,,,,,,,,METAR,4.0
KVLL 281035Z AUTO 04006KT 10SM CLR 07/01 A2988 RMK AO2 T00710007,KVLL,2023-04-28T10:35:00Z,42.55,-83.18,7.1,0.7,40,6,,10.0,29.878937,,,TRUE,TRUE,,,,,,,CLR,,,,,,,,VFR,,,,,,,,,,,,METAR,214.0
KVKS 281035Z AUTO 00000KT 2 1/2SM BR FEW047 13/13 A2978 RMK A01,KVKS,2023-04-28T10:35:00Z,32.23,-90.93,13.0,13.0,0,0,,2.5,29.778543,,,TRUE,TRUE,,,,,,BR,FEW,4700,,,,,,,IFR,,,,,,,,,,,,METAR,31.0
KVGC 281035Z AUTO 00000KT 2SM BR CLR 03/02 A3014 RMK AO2,KVGC,2023-04-28T10:35:00Z,42.85,-75.57,3.0,2.0,0,0,,2.0,30.138779,,,TRUE,TRUE,,,,,,BR,CLR,,,,,,,,IFR,,,,,,,,,,,,METAR,346.0
KVER 281035Z AUTO 00000KT 10SM SCT110 10/10 A2981 RMK AO2 T00970095,KVER,2023-04-28T10:35:00Z,38.95,-92.68,9.7,9.5,0,0,,10.0,29.811024,,,TRUE,TRUE,,,,,,,SCT,11000,,,,,,,VFR,,,,,,,,,,,,METAR,209.0
KVDF 281035Z AUTO 19005KT 10SM CLR 22/21 A2986 RMK AO2,KVDF,2023-04-28T10:35:00Z,28.02,-82.33,22.0,21.0,190,5,,10.0,29.861221,,,TRUE,TRUE,,,,,,,CLR,,,,,,,,VFR,,,,,,,,,,,,METAR,5.0
KVBW 281035Z AUTO 06003KT 5SM OVC026 12/12 A2989 RMK AO1 P0010 T01170117,KVBW,2023-04-28T10:35:00Z,38.37,-78.97,11.7,11.7,60,3,,5.0,29.890747,,,TRUE,TRUE,,,,,,,OVC,2600,,,,,,,MVFR,,,,,,0.1,,,,,,SPECI,362.0
KUXL 281035Z AUTO 00000KT 10SM CLR 14/13 A2983 RMK AO2 T01390129,KUXL,2023-04-28T10:35:00Z,30.13,-93.38,13.9,12.9,0,0,,10.0,29.828741,,,TRUE,TRUE,,,,,,,CLR,,,,,,,,VFR,,,,,,,,,,,,METAR,2.0
KUUV 281035Z AUTO 00000KT 10SM SCT047 OVC050 11/10 A2981 RMK AO2,KUUV,2023-04-28T10:35:00Z,38.23,-91.17,11.0,10.0,0,0,,10.0,29.811024,,,TRUE,TRUE,,,,,,,SCT,4700,OVC,5000,,,,,VFR,,,,,,,,,,,,SPECI,284.0
KUTA 281035Z AUTO 32010KT 10SM OVC007 14/14 A2976 RMK AO2 CIG 006V009 T01380138 $,KUTA,2023-04-28T10:35:00Z,34.68,-90.35,13.8,13.8,320,10,,10.0,29.760826,,,TRUE,TRUE,TRUE,,,,,,OVC,700,,,,,,,IFR,,,,,,,,,,,,METAR,58.0
KUOX 281035Z AUTO 31006KT 10SM OVC006 14/14 A2976 RMK AO2,KUOX,2023-04-28T10:35:00Z,34.38,-89.53,14.0,14.0,310,6,,10.0,29.760826,,,TRUE,TRUE,,,,,,,OVC,600,,,,,,,IFR,,,,,,,,,,,,METAR,123.0
KUNU 281035Z AUTO 10004KT 10SM CLR 05/00 A2987 RMK AO2 T00530000,KUNU,2023-04-28T10:35:00Z,43.42,-88.7,5.3,0.0,100,4,,10.0,29.870079,,,TRUE,TRUE,,,,,,,CLR,,,,,,,,VFR,,,,,,,,,,,,SPECI,281.0
KUKT 281035Z AUTO VRB04G10KT 10SM OVC008 09/09 A3012 RMK A01,KUKT,2023-04-28T10:35:00Z,40.43,-75.38,9.0,9.0,0,4,10,10.0,30.121063,,,TRUE,TRUE,,,,,,,OVC,800,,,,,,,IFR,,,,,,,,,,,,METAR,156.0
KUES 281035Z AUTO 00000KT 10SM CLR 01/M01 A2987 RMK AO2,KUES,2023-04-28T10:35:00Z,43.05,-88.25,1.0,-1.0,0,0,,10.0,29.870079,,,TRUE,TRUE,,,,,,,CLR,,,,,,,,VFR,,,,,,,,,,,,METAR,273.0
KUBE 281035Z AUTO 04008KT 10SM SCT007 OVC060 07/07 A2982 RMK AO2,KUBE,2023-04-28T10:35:00Z,45.5,-91.98,7.0,7.0,40,8,,10.0,29.819881,,,TRUE,TRUE,,,,,,,SCT,700,OVC,6000,,,,,VFR,,,,,,,,,,,,METAR,376.0
KU42 281035Z AUTO 34009KT 10SM CLR 09/M03 A3020 RMK AO1 T00901034,KU42,2023-04-28T10:35:00Z,40.62,-111.98,9.0,-3.4,340,9,,10.0,30.200787,,,TRUE,TRUE,,,,,,,CLR,,,,,,,,VFR,,,,,,,,,,,,METAR,1399.0
KTYL 281035Z AUTO 27007KT 10SM CLR 07/M07 A3006 RMK AO2,KTYL,2023-04-28T10:35:00Z,34.45,-110.12,7.0,-7.0,270,7,,10.0,30.059055,,,TRUE,TRUE,,,,,,,CLR,,,,,,,,VFR,,,,,,,,,,,,METAR,1748.0
KTWT 281035Z AUTO 34005KT 7SM OVC007 12/11 A2971 RMK AO2,KTWT,2023-04-28T10:35:00Z,37.55,-87.95,12.0,11.0,340,5,,7.0,29.71063,,,TRUE,TRUE,,,,,,,OVC,700,,,,,,,IFR,,,,,,,,,,,,METAR,113.0
KTWM 281035Z AUTO 04004KT 7SM OVC007 03/03 A2991 RMK AO2,KTWM,2023-04-28T10:35:00Z,47.05,-91.75,3.0,3.0,40,4,,7.0,29.911417,,,TRUE,TRUE,,,,,,,OVC,700,,,,,,,IFR,,,,,,,,,,,,METAR,331.0
KTVY 281035Z AUTO 25005KT 10SM CLR 08/M03 A3021 RMK AO2,KTVY,2023-04-28T10:35:00Z,40.62,-112.35,8.0,-3.0,250,5,,10.0,30.209646,,,TRUE,TRUE,,,,,,,CLR,,,,,,,,VFR,,,,,,,,,,,,SPECI,1310.0
KTTF 281035Z AUTO 04004KT 10SM -RA BKN070 OVC080 08/03 A2984 RMK AO2 T00770034,KTTF,2023-04-28T10:35:00Z,41.93,-83.42,7.7,3.4,40,4,,10.0,29.840551,,,TRUE,TRUE,,,,,,-RA,BKN,7000,OVC,8000,,,,,VFR,,,,,,,,,,,,METAR,186.0
KTSP 281035Z AUTO 00000KT 10SM CLR 08/03 A3006 RMK AO2,KTSP,2023-04-28T10:35:00Z,35.13,-118.43,8.0,3.0,0,0,,10.0,30.059055,,,TRUE,TRUE,,,,,,,CLR,,,,,,,,VFR,,,,,,,,,,,,METAR,1209.0
KTPF 281035Z AUTO 21010KT 5SM BR SCT110 24/22 A2986 RMK AO2,KTPF,2023-04-28T10:35:00Z,27.92,-82.45,24.0,22.0,210,10,,5.0,29.861221,,,TRUE,TRUE,,,,,,BR,SCT,11000,,,,,,,MVFR,,,,,,,,,,,,METAR,1.0
KTOB 281035Z AUTO 25005KT 10SM CLR 07/02 A2979 RMK AO2,KTOB,2023-04-28T10:35:00Z,44.02,-92.82,7.0,2.0,250,5,,10.0,29.790354,,,TRUE,TRUE,,,,,,,CLR,,,,,,,,VFR,,,,,,,,,,,,METAR,394.0
KTME 281035Z AUTO 12004KT 10SM 14/13 A2979 RMK AO2,KTME,2023-04-28T10:35:00Z,29.8,-95.9,14.0,13.0,120,4,,10.0,29.790354,,,TRUE,TRUE,,,,,,,,,,,,,,,,,,,,,,,,,,,METAR,49.0
KTKX 281035Z AUTO 33008KT 1 3/4SM BR OVC004 13/13 A2973 RMK AO2,KTKX,2023-04-28T10:35:00Z,36.22,-90.03,13.0,13.0,330,8,,1.75,29.731298,,,TRUE,TRUE,,,,,,BR,OVC,400,,,,,,,LIFR,,,,,,,,,,,,METAR,73.0
KTKC 281035Z AUTO 34011G17KT 3SM -RA BR OVC003 08/08 A2981 RMK AO2,KTKC,2023-04-28T10:35:00Z,44.25,-95.62,8.0,8.0,340,11,17,3.0,29.811024,,,TRUE,TRUE,,,,,,-RA BR,OVC,300,,,,,,,LIFR,,,,,,,,,,,,METAR,408.0
KTGI 281035Z AUTO 09017G23KT 7SM SCT011 SCT050 OVC090 16/15 A2997 RMK AO1 P0003 T01550145,KTGI,2023-04-28T10:35:00Z,37.82,-75.98,15.5,14.5,90,17,23,7.0,29.970472,,,TRUE,TRUE,,,,,,,SCT,1100,SCT,5000,OVC,9000,,,VFR,,,,,,0.03,,,,,,SPECI,1.0
KTEW 281035Z AUTO 05003KT 10SM CLR 07/01 A2986 RMK AO2 T00720006,KTEW,2023-04-28T10:35:00Z,42.57,-84.42,7.2,0.6,50,3,,10.0,29.861221,,,TRUE,TRUE,,,,,,,CLR,,,,,,,,VFR,,,,,,,,,,,,METAR,281.0
KT69 281035Z AUTO 00000KT 1/4SM FG VV002 16/16 A2979 RMK A01,KT69,2023-04-28T10:35:00Z,28.03,-97.55,16.0,16.0,0,0,,0.25,29.790354,,,TRUE,TRUE,,,,,,FG,OVX,0,,,,,,,LIFR,,,,,,,,,,,200,METAR,15.0
KSYM 281035Z AUTO 15004KT 10SM FEW016 OVC025 14/13 A2971 RMK AO2,KSYM,2023-04-28T10:35:00Z,38.22,-83.58,14.0,13.0,150,4,,10.0,29.71063,,,TRUE,TRUE,,,,,,,FEW,1600,OVC,2500,,,,,MVFR,,,,,,,,,,,,METAR,307.0
KSVE 281035Z AUTO 31006KT 10SM CLR 08/M01 A3012 RMK AO2,KSVE,2023-04-28T10:35:00Z,40.37,-120.57,8.0,-1.0,310,6,,10.0,30.121063,,,TRUE,TRUE,,,,,,,CLR,,,,,,,,VFR,,,,,,,,,,,,METAR,1263.0
KSUZ 281035Z AUTO 00000KT 8SM BKN003 11/11 A2977 RMK A01,KSUZ,2023-04-28T10:35:00Z,34.58,-92.48,11.0,11.0,0,0,,8.0,29.769686,,,TRUE,TRUE,,,,,,,BKN,300,,,,,,,LIFR,,,,,,,,,,,,METAR,114.0
KSUW 281035Z AUTO 07010G17KT 5SM BR OVC005 03/02 A2992 RMK AO2 T00270021,KSUW,2023-04-28T10:35:00Z,46.68,-92.1,2.7,2.1,70,10,17,5.0,29.920275,,,TRUE,TRUE,,,,,,BR,OVC,500,,,,,,,IFR,,,,,,,,,,,,SPECI,205.0
KSUA 281035Z AUTO 18004KT 10SM CLR 21/18 A2990 RMK AO2 T02060177,KSUA,2023-04-28T10:35:00Z,27.18,-80.22,20.6,17.7,180,4,,10.0,29.899607,,,TRUE,TRUE,,,,,,,CLR,,,,,,,,VFR,,,,,,,,,,,,METAR,4.0
KSTF 281035Z AUTO 24004KT 10SM CLR 15/15 A2974 RMK AO2,KSTF,2023-04-28T10:35:00Z,33.43,-88.85,15.0,15.0,240,4,,10.0,29.740158,,,TRUE,TRUE,,,,,,,CLR,,,,,,,,VFR,,,,,,,,,,,,METAR,99.0
KSRR 281035Z AUTO 31009KT 10SM CLR 12/M12 A2998 RMK AO2 LTG DSNT W,KSRR,2023-04-28T10:35:00Z,33.47,-105.52,12.0,-12.0,310,9,,10.0,29.97933,,,TRUE,TRUE,,,,,,,CLR,,,,,,,,VFR,,,,,,,,,,,,METAR,2063.0
KSQL 281035Z AUTO 00000KT 6SM BR CLR 13/11 A2992 RMK AO2,KSQL,2023-04-28T10:35:00Z,37.52,-122.25,13.0,11.0,0,0,,6.0,29.920275,,,TRUE,TRUE,,,,,,BR,CLR,,,,,,,,VFR,,,,,,,,,,,,METAR,1.0
KSPF 281035Z AUTO 29011KT 10SM SCT028 SCT045 OVC075 04/01 A3014 RMK AO2,KSPF,2023-04-28T10:35:00Z,44.47,-103.78,4.0,1.0,290,11,,10.0,30.138779,,,TRUE,TRUE,,,,,,,SCT,2800,SCT,4500,OVC,7500,,,VFR,,,,,,,,,,,,METAR,1191.0
KSPA 281035Z AUTO 00000KT 10SM OVC011 14/13 A2976 RMK AO2,KSPA,2023-04-28T10:35:00Z,34.92,-81.95,14.0,13.0,0,0,,10.0,29.760826,,,TRUE,TRUE,,,,,,,OVC,1100,,,,,,,MVFR,,,,,,,,,,,,METAR,242.0
KSOW 281035Z AUTO 00000KT 10SM CLR 10/M08 A3008 RMK AO2,KSOW,2023-04-28T10:35:00Z,34.27,-110.0,10.0,-8.0,0,0,,10.0,30.079725,,,TRUE,TRUE,,,,,,,CLR,,,,,,,,VFR,,,,,,,,,,,,METAR,1954.0
KSNK 281035Z AUTO 18006KT 10SM CLR 14/00 A2968 RMK AO2 T01420000,KSNK,2023-04-28T10:35:00Z,32.7,-100.95,14.2,0.0,180,6,,10.0,29.681103,,,TRUE,TRUE,,,,,,,CLR,,,,,,,,VFR,,,,,,,,,,,,SPECI,738.0
KSNC 281035Z AUTO 00000KT M1/4SM FG OVC001 04/04 A3021 RMK AO2,KSNC,2023-04-28T10:35:00Z,41.38,-72.5,4.0,4.0,0,0,,0.25,30.209646,,,TRUE,TRUE,,,,,,FG,OVC,100,,,,,,,LIFR,,,,,,,,,,,,METAR,114.0
KSMS 281035Z AUTO 00000KT 6SM BR BKN009 BKN014 OVC027 19/19 A2978 RMK AO2,KSMS,2023-04-28T10:35:00Z,34.0,-80.37,19.0,19.0,0,0,,6.0,29.778543,,,TRUE,TRUE,,,,,,BR,BKN,900,BKN,1400,OVC,2700,,,IFR,,,,,,,,,,,,METAR,53.0
KSLH 281035Z AUTO 36003KT 5SM BR SCT080 03/03 A2995 RMK AO2,KSLH,2023-04-28T10:35:00Z,45.65,-84.52,3.0,3.0,360,3,,5.0,29.949802,,,TRUE,TRUE,,,,,,BR,SCT,8000,,,,,,,MVFR,,,,,,,,,,,,METAR,193.0
KSJX 281035Z AUTO 07004KT 10SM OVC080 05/04 A2994 RMK AO2 T00450043,KSJX,2023-04-28T10:35:00Z,45.7,-85.57,4.5,4.3,70,4,,10.0,29.940945,,,TRUE,TRUE,,,,,,,OVC,8000,,,,,,,VFR,,,,,,,,,,,,METAR,202.0
KSIK 281035Z AUTO 00000KT 4SM BR OVC006 12/12 A2973 RMK AO2,KSIK,2023-04-28T10:35:00Z,36.9,-89.57,12.0,12.0,0,0,,4.0,29.731298,,,TRUE,TRUE,,,,,,BR,OVC,600,,,,,,,IFR,,,,,,,,,,,,METAR,95.0
KSHD 281035Z AUTO 07004KT 7SM +RA OVC025 11/11 A2992 RMK AO2 P0011 T01130111,KSHD,2023-04-28T10:35:00Z,38.27,-78.9,11.3,11.1,70,4,,7.0,29.920275,,,TRUE,TRUE,,,,,,+RA,OVC,2500,,,,,,,MVFR,,,,,,0.11,,,,,,METAR,360.0
KSGS 281035Z AUTO 01004KT 10SM SCT070 OVC100 10/07 A2980 RMK AO2 T00970071,KSGS,2023-04-28T10:35:00Z,44.87,-93.03,9.7,7.1,10,4,,10.0,29.799213,,,TRUE,TRUE,,,,,,,SCT,7000,OVC,10000,,,,,VFR,,,,,,,,,,,,METAR,250.0
KSFQ 281035Z AUTO 08007KT 5SM RA BKN005 OVC009 15/15 A2989 RMK AO2 P0021 T01500150,KSFQ,2023-04-28T10:35:00Z,36.68,-76.6,15.0,15.0,80,7,,5.0,29.890747,,,TRUE,TRUE,,,,,,RA,BKN,500,OVC,900,,,,,IFR,,,,,,0.21,,,,,,METAR,19.0
KSEE 281035Z AUTO 00000KT 2SM BR OVC003 12/12 A2992 RMK AO2,KSEE,2023-04-28T10:35:00Z,32.82,-116.97,12.0,12.0,0,0,,2.0,29.920275,,,TRUE,TRUE,,,,,,BR,OVC,300,,,,,,,LIFR,,,,,,,,,,,,METAR,113.0
KSAZ 281035Z AUTO 36004KT 10SM SCT120 06/03 A2989 RMK AO2,KSAZ,2023-04-28T10:35:00Z,46.37,-94.8,6.0,3.0,360,4,,10.0,29.890747,,,TRUE,TRUE,,,,,,,SCT,12000,,,,,,,VFR,,,,,,,,,,,,METAR,391.0
KS32 281035Z AUTO 35010KT 10SM SCT042 SCT055 OVC060 02/02 A3003 RMK AO2 TSNO,KS32,2023-04-28T10:35:00Z,47.42,-98.1,2.0,2.0,350,10,,10.0,30.029528,,,TRUE,TRUE,,,TRUE,,,,SCT,4200,SCT,5500,OVC,6000,,,VFR,,,,,,,,,,,,METAR,435.0
KS25 281035Z AUTO 26004KT 10SM BKN060 OVC070 04/02 A3010 RMK AO2,KS25,2023-04-28T10:35:00Z,47.8,-103.25,4.0,2.0,260,4,,10.0,30.100393,,,TRUE,TRUE,,,,,,,BKN,6000,OVC,7000,,,,,VFR,,,,,,,,,,,,METAR,632.0
KS24 281035Z AUTO 03006KT 7SM -RA FEW025 BKN065 OVC090 08/07 A2980 RMK AO2,KS24,2023-04-28T10:35:00Z,41.3,-83.03,8.0,7.0,30,6,,7.0,29.799213,,,TRUE,TRUE,,,,,,-RA,FEW,2500,BKN,6500,OVC,9000,,,VFR,,,,,,,,,,,,METAR,203.0
KRZN 281035Z AUTO 06007KT 10SM OVC005 07/06 A2985 RMK AO2 T00650061,KRZN,2023-04-28T10:35:00Z,45.82,-92.37,6.5,6.1,60,7,,10.0,29.84941,,,TRUE,TRUE,,,,,,,OVC,500,,,,,,,IFR,,,,,,,,,,,,METAR,301.0
KRVL 281035Z AUTO 09009G16KT 10SM FEW017 FEW035 BKN070 11/07 A3002 RMK AO2,KRVL,2023-04-28T10:35:00Z,40.68,-77.63,11.0,7.0,90,9,16,10.0,30.02067,,,TRUE,TRUE,,,,,,,FEW,1700,FEW,3500,BKN,7000,,,VFR,,,,,,,,,,,,METAR,250.0
KRUG 281035Z AUTO 35004KT 10SM BKN024 OVC036 02/03 A3006 RMK AO2,KRUG,2023-04-28T10:35:00Z,48.38,-100.02,2.0,3.0,350,4,,10.0,30.059055,,,TRUE,TRUE,,,,,,,BKN,2400,OVC,3600,,,,,MVFR,,,,,,,,,,,,METAR,469.0
KRSN 281035Z AUTO 20003KT 10SM CLR 12/12 A2979 RMK AO2 T01220122 $,KRSN,2023-04-28T10:35:00Z,32.52,-92.58,12.2,12.2,200,3,,10.0,29.790354,,,TRUE,TRUE,TRUE,,,,,,CLR,,,,,,,,VFR,,,,,,,,,,,,METAR,86.0
KRRL 281035Z AUTO 12003KT 10SM SCT070 BKN080 OVC090 07/04 A2985 RMK AO2 T00710038 TSNO,KRRL,2023-04-28T10:35:00Z,45.2,-89.72,7.1,3.8,120,3,,10.0,29.84941,,,TRUE,TRUE,,,TRUE,,,,SCT,7000,BKN,8000,OVC,9000,,,VFR,,,,,,,,,,,,SPECI,397.0
KRPH 281035Z AUTO 10008KT 10SM FEW160 13/10 A2973 RMK AO2 T01270105 $,KRPH,2023-04-28T10:35:00Z,33.12,-98.55,12.7,10.5,100,8,,10.0,29.731298,,,TRUE,TRUE,TRUE,,,,,,FEW,16000,,,,,,,VFR,,,,,,,,,,,,METAR,341.0
KRPD 281035Z AUTO 03008KT 10SM DZ OVC070 08/08 A2983 RMK AO2 T00780078,KRPD,2023-04-28T10:35:00Z,45.42,-91.77,7.8,7.8,30,8,,10.0,29.828741,,,TRUE,TRUE,,,,,,DZ,OVC,7000,,,,,,,VFR,,,,,,,,,,,,SPECI,334.0
KROX 281035Z AUTO 00000KT 10SM BKN075 02/01 A2998 RMK AO2,KROX,2023-04-28T10:35:00Z,48.85,-95.7,2.0,1.0,0,0,,10.0,29.97933,,,TRUE,TRUE,,,,,,,BKN,7500,,,,,,,VFR,,,,,,,,,,,,METAR,320.0
KROS 281035Z AUTO 03008KT 10SM -RA OVC005 10/08 A2985 RMK AO2 T00950080,KROS,2023-04-28T10:35:00Z,45.7,-92.95,9.5,8.0,30,8,,10.0,29.84941,,,TRUE,TRUE,,,,,,-RA,OVC,500,,,,,,,IFR,,,,,,,,,,,,METAR,282.0
KRNP 281035Z AUTO 00000KT 10SM CLR 07/M01 A2988 RMK AO2 T00681011,KRNP,2023-04-28T10:35:00Z,43.0,-84.13,6.8,-1.1,0,0,,10.0,29.878937,,,TRUE,TRUE,,,,,,,CLR,,,,,,,,VFR,,,,,,,,,,,,METAR,224.0
KRMY 281035Z AUTO 00000KT 10SM BKN110 07/01 A2984 RMK AO2 T00660005,KRMY,2023-04-28T10:35:00Z,42.25,-84.95,6.6,0.5,0,0,,10.0,29.840551,,,TRUE,TRUE,,,,,,,BKN,11000,,,,,,,VFR,,,,,,,,,,,,METAR,285.0
KRMN 281035Z AUTO 08008G14KT 7SM RA OVC007 17/15 A2995 RMK AO2 P0005 T01660154,KRMN,2023-04-28T10:35:00Z,38.4,-77.45,16.6,15.4,80,8,14,7.0,29.949802,,,TRUE,TRUE,,,,,,RA,OVC,700,,,,,,,IFR,,,,,,0.05,,,,,,METAR,50.0
KRID 281035Z AUTO 05011KT 5SM BR OVC005 07/07 A2967 RMK AO2,KRID,2023-04-28T10:35:00Z,39.75,-84.85,7.0,7.0,50,11,,5.0,29.66929,,,TRUE,TRUE,,,,,,BR,OVC,500,,,,,,,IFR,,,,,,,,,,,,SPECI,346.0
KRGK 281035Z AUTO 00000KT 10SM CLR 09/05 A2978 RMK AO2,KRGK,2023-04-28T10:35:00Z,44.58,-92.48,9.0,5.0,0,0,,10.0,29.778543,,,TRUE,TRUE,,,,,,,CLR,,,,,,,,VFR,,,,,,,,,,,,METAR,238.0
KRCZ 281035Z AUTO 17007KT 7SM UP SCT005 BKN009 OVC013 18/17 A2977 RMK AO2 P0001 T01780172,KRCZ,2023-04-28T10:35:00Z,34.88,-79.77,17.8,17.2,170,7,,7.0,29.769686,,,TRUE,TRUE,,,,,,UP,SCT,500,BKN,900,OVC,1300,,,IFR,,,,,,0.01,,,,,,SPECI,110.0
KRCX 281035Z AUTO 36004KT 10SM SCT065 OVC075 08/08 A2985 RMK AO2 T00840080,KRCX,2023-04-28T10:35:00Z,45.5,-91.0,8.4,8.0,360,4,,10.0,29.84941,,,TRUE,TRUE,,,,,,,SCT,6500,OVC,7500,,,,,VFR,,,,,,,,,,,,METAR,373.0
KRCM 281035Z AUTO 00000KT 10SM OVC085 08/07 A2980 RMK AO2,KRCM,2023-04-28T10:35:00Z,38.78,-93.8,8.0,7.0,0,0,,10.0,29.799213,,,TRUE,TRUE,,,,,,,OVC,8500,,,,,,,VFR,,,,,,,,,,,,SPECI,242.0
KRCE 281035Z AUTO 00000KT 4SM BR OVC120 07/07 A2982 RMK AO2,KRCE,2023-04-28T10:35:00Z,35.48,-97.82,7.0,7.0,0,0,,4.0,29.819881,,,TRUE,TRUE,,,,,,BR,OVC,12000,,,,,,,MVFR,,,,,,,,,,,,METAR,412.0
KRBW 281035Z AUTO 26005KT 10SM BKN007 BKN015 OVC022 18/18 A2980 RMK AO2,KRBW,2023-04-28T10:35:00Z,32.92,-80.63,18.0,18.0,260,5,,10.0,29.799213,,,TRUE,TRUE,,,,,,,BKN,700,BKN,1500,OVC,2200,,,IFR,,,,,,,,,,,,METAR,30.0
KRAW 281035Z AUTO 00000KT 1 1/2SM BR VV007 05/04 A2981 RMK AO2 VIS 1V3,KRAW,2023-04-28T10:35:00Z,38.35,-93.35,5.0,4.0,0,0,,1.5,29.811024,,,TRUE,TRUE,,,,,,BR,OVX,0,,,,,,,LIFR,,,,,,,,,,,700,METAR,285.0
KPZQ 281035Z AUTO 00000KT 10SM CLR 03/03 A2999 RMK AO2 T00340033,KPZQ,2023-04-28T10:35:00Z,45.4,-83.82,3.4,3.3,0,0,,10.0,29.991142,,,TRUE,TRUE,,,,,,,CLR,,,,,,,,VFR,,,,,,,,,,,,METAR,199.0
KPWC 281035Z AUTO 35003KT 10SM BKN085 06/02 A2993 RMK AO2,KPWC,2023-04-28T10:35:00Z,46.72,-94.38,6.0,2.0,350,3,,10.0,29.929134,,,TRUE,TRUE,,,,,,,BKN,8500,,,,,,,VFR,,,,,,,,,,,,METAR,394.0
KPVG 281035Z 2 1/2SM OVC008 14/14 A2990 RMK AO2 SLP299 P0996 PWINO FZRANO RVRNO,KPVG,2023-04-28T10:35:00Z,36.78,-76.45,14.0,14.0,,,,2.5,29.899607,1029.9,,,TRUE,,,,TRUE,TRUE,,OVC,800,,,,,,,IFR,,,,,,9.96,,,,,,SPECI,7.0
KPTS 281035Z AUTO 00000KT 1/4SM OVC002 05/05 A2981 RMK AO2 T00450045 PWINO,KPTS,2023-04-28T10:35:00Z,37.45,-94.73,4.5,4.5,0,0,,0.25,29.811024,,,TRUE,TRUE,,,,,TRUE,,OVC,200,,,,,,,LIFR,,,,,,,,,,,,METAR,286.0
KPTD 281035Z AUTO 00000KT 10SM CLR 03/M01 A3014 RMK AO2,KPTD,2023-04-28T10:35:00Z,44.68,-74.95,3.0,-1.0,0,0,,10.0,30.138779,,,TRUE,TRUE,,,,,,,CLR,,,,,,,,VFR,,,,,,,,,,,,METAR,144.0
KPTB 281035Z AUTO 08007G14KT 7SM -RA SCT009 BKN013 OVC028 13/13 A2989 RMK AO2 P0013 T01320126,KPTB,2023-04-28T10:35:00Z,37.17,-77.52,13.2,12.6,80,7,14,7.0,29.890747,,,TRUE,TRUE,,,,,,-RA,SCT,900,BKN,1300,OVC,2800,,,MVFR,,,,,,0.13,,,,,,METAR,56.0
KPSK 281035Z AUTO 06007KT 10SM -RA OVC006 11/11 A2980 RMK AO2 P0001 T01120112,KPSK,2023-04-28T10:35:00Z,37.13,-80.67,11.2,11.2,60,7,,10.0,29.799213,,,TRUE,TRUE,,,,,,-RA,OVC,600,,,,,,,IFR,,,,,,0.01,,,,,,METAR,629.0
KPOV 281035Z AUTO 11006KT 10SM SCT027 BKN034 OVC070 12/08 A2984 RMK AO2 T01190079 PWINO,KPOV,2023-04-28T10:35:00Z,41.22,-81.25,11.9,7.9,110,6,,10.0,29.840551,,,TRUE,TRUE,,,,,TRUE,,SCT,2700,BKN,3400,OVC,7000,,,VFR,,,,,,,,,,,,METAR,363.0
KPNM 281035Z AUTO 01007KT 10SM -DZ OVC006 08/07 A2985 RMK AO2,KPNM,2023-04-28T10:35:00Z,45.53,-93.6,8.0,7.0,10,7,,10.0,29.84941,,,TRUE,TRUE,,,,,,-DZ,OVC,600,,,,,,,IFR,,,,,,,,,,,,METAR,298.0
KPLU 281035Z AUTO 00000KT 10SM -DZ FEW075 07/07 A3008 RMK AO2,KPLU,2023-04-28T10:35:00Z,47.1,-122.28,7.0,7.0,0,0,,10.0,30.079725,,,TRUE,TRUE,,,,,,-DZ,FEW,7500,,,,,,,VFR,,,,,,,,,,,,METAR,164.0
KPLR 281035Z AUTO 20006KT 10SM BKN007 BKN027 OVC034 18/18 A2974 RMK A01,KPLR,2023-04-28T10:35:00Z,33.57,-86.25,18.0,18.0,200,6,,10.0,29.740158,,,TRUE,TRUE,,,,,,,BKN,700,BKN,2700,OVC,3400,,,IFR,,,,,,,,,,,,METAR,145.0
KPJC 281035Z AUTO 11005KT 7SM RA SCT027 BKN034 OVC060 12/10 A2987 RMK AO2,KPJC,2023-04-28T10:35:00Z,40.8,-80.17,12.0,10.0,110,5,,7.0,29.870079,,,TRUE,TRUE,,,,,,RA,SCT,2700,BKN,3400,OVC,6000,,,VFR,,,,,,,,,,,,METAR,273.0
KPEX 281035Z AUTO 01009KT 10SM OVC005 07/07 A2985 RMK AO2 P0001,KPEX,2023-04-28T10:35:00Z,45.37,-94.73,7.0,7.0,10,9,,10.0,29.84941,,,TRUE,TRUE,,,,,,,OVC,500,,,,,,,IFR,,,,,,0.01,,,,,,METAR,359.0
KPDC 281035Z AUTO 10004KT 10SM CLR 07/00 A2982 RMK AO2 T00651002,KPDC,2023-04-28T10:35:00Z,43.02,-91.12,6.5,-0.2,100,4,,10.0,29.819881,,,TRUE,TRUE,,,,,,,CLR,,,,,,,,VFR,,,,,,,,,,,,SPECI,201.0
KPCZ 281035Z AUTO 00000KT 10SM CLR 05/02 A2987 RMK AO2 T00530020,KPCZ,2023-04-28T10:35:00Z,44.33,-89.02,5.3,2.0,0,0,,10.0,29.870079,,,TRUE,TRUE,,,,,,,CLR,,,,,,,,VFR,,,,,,,,,,,,METAR,248.0
KPCD 281035Z AUTO 33006KT 7SM OVC090 12/12 A2975 RMK AO2 P0001 T01150115,KPCD,2023-04-28T10:35:00Z,37.87,-89.87,11.5,11.5,330,6,,7.0,29.749016,,,TRUE,TRUE,,,,,,,OVC,9000,,,,,,,VFR,,,,,,0.01,,,,,,METAR,112.0
KPBH 281035Z AUTO 01003KT 10SM DZ OVC060 07/06 A2984 RMK AO2 T00650060,KPBH,2023-04-28T10:35:00Z,45.7,-90.4,6.5,6.0,10,3,,10.0,29.840551,,,TRUE,TRUE,,,,,,DZ,OVC,6000,,,,,,,VFR,,,,,,,,,,,,SPECI,445.0
KPAN 281035Z AUTO 00000KT 10SM CLR 11/M06 A3003 RMK AO2 PWINO TSNO,KPAN,2023-04-28T10:35:00Z,34.25,-111.33,11.0,-6.0,0,0,,10.0,30.029528,,,TRUE,TRUE,,,TRUE,,TRUE,,CLR,,,,,,,,VFR,,,,,,,,,,,,METAR,1575.0
KOZW 281035Z AUTO 01004KT 10SM CLR 06/01 A2985 RMK AO2 T00630010,KOZW,2023-04-28T10:35:00Z,42.62,-83.98,6.3,1.0,10,4,,10.0,29.84941,,,TRUE,TRUE,,,,,,,CLR,,,,,,,,VFR,,,,,,,,,,,,METAR,288.0
KOZS 281035Z AUTO 30004KT 10SM OVC060 09/07 A2980 RMK AO2,KOZS,2023-04-28T10:35:00Z,37.97,-92.68,9.0,7.0,300,4,,10.0,29.799213,,,TRUE,TRUE,,,,,,,OVC,6000,,,,,,,VFR,,,,,,,,,,,,METAR,321.0
KOYM 281035Z AUTO 12012G16KT 10SM OVC013 10/07 A3000 RMK AO2 PWINO,KOYM,2023-04-28T10:35:00Z,41.42,-78.5,10.0,7.0,120,12,16,10.0,30.0,,,TRUE,TRUE,,,,,TRUE,,OVC,1300,,,,,,,MVFR,,,,,,,,,,,,METAR,582.0
KOVL 281035Z AUTO 03010KT 4SM -RA BKN007 OVC017 08/07 A2981 RMK AO2 P0006,KOVL,2023-04-28T10:35:00Z,44.78,-95.03,8.0,7.0,30,10,,4.0,29.811024,,,TRUE,TRUE,,,,,,-RA,BKN,700,OVC,1700,,,,,IFR,,,,,,0.06,,,,,,METAR,329.0
KOSC 281035Z AUTO 00000KT 4SM BR CLR 00/00 A2995 RMK AO2 T00000000,KOSC,2023-04-28T10:35:00Z,44.45,-83.4,0.0,0.0,0,0,,4.0,29.949802,,,TRUE,TRUE,,,,,,BR,CLR,,,,,,,,MVFR,,,,,,,,,,,,METAR,191.0
KORS 281035Z AUTO 00000KT 10SM CLR 08/07 A3012 RMK AO2,KORS,2023-04-28T10:35:00Z,48.7,-122.92,8.0,7.0,0,0,,10.0,30.121063,,,TRUE,TRUE,,,,,,,CLR,,,,,,,,VFR,,,,,,,,,,,,METAR,7.0
KORK 281035Z AUTO 32006KT 10SM BKN004 OVC046 13/13 A2976 RMK AO2,KORK,2023-04-28T10:35:00Z,34.83,-92.25,13.0,13.0,320,6,,10.0,29.760826,,,TRUE,TRUE,,,,,,,BKN,400,OVC,4600,,,,,LIFR,,,,,,,,,,,,METAR,166.0
KONZ 281035Z AUTO 04009KT 10SM OVC090 08/05 A2984 RMK AO2 T00750046,KONZ,2023-04-28T10:35:00Z,42.1,-83.15,7.5,4.6,40,9,,10.0,29.840551,,,TRUE,TRUE,,,,,,,OVC,9000,,,,,,,VFR,,,,,,,,,,,,METAR,179.0
KONM 281035Z AUTO 00000KT 10SM CLR 13/M11 A2991 RMK AO2 T01341109,KONM,2023-04-28T10:35:00Z,34.02,-106.9,13.4,-10.9,0,0,,10.0,29.911417,,,TRUE,TRUE,,,,,,,CLR,,,,,,,,VFR,,,,,,,,,,,,METAR,1467.0
KONA 281035Z AUTO 13004KT 10SM OVC080 12/00 A2979 RMK AO2,KONA,2023-04-28T10:35:00Z,44.07,-91.7,12.0,0.0,130,4,,10.0,29.790354,,,TRUE,TRUE,,,,,,,OVC,8000,,,,,,,VFR,,,,,,,,,,,,METAR,200.0
KOMH 281035Z AUTO 07008KT 5SM RA OVC006 12/12 A2993 RMK AO2 P0012,KOMH,2023-04-28T10:35:00Z,38.25,-78.05,12.0,12.0,70,8,,5.0,29.929134,,,TRUE,TRUE,,,,,,RA,OVC,600,,,,,,,IFR,,,,,,0.12,,,,,,METAR,136.0
KOLV 281035Z AUTO 30007KT 10SM OVC009 14/14 A2974 RMK A01,KOLV,2023-04-28T10:35:00Z,34.98,-89.78,14.0,14.0,300,7,,10.0,29.740158,,,TRUE,TRUE,,,,,,,OVC,900,,,,,,,IFR,,,,,,,,,,,,METAR,124.0
KOKV 281035Z AUTO 08004KT 5SM RA OVC006 10/10 A2995 RMK AO2,KOKV,2023-04-28T10:35:00Z,39.13,-78.15,10.0,10.0,80,4,,5.0,29.949802,,,TRUE,TRUE,,,,,,RA,OVC,600,,,,,,,IFR,,,,,,,,,,,,METAR,213.0
KOIN 281035Z AUTO 34016G23KT 10SM OVC020 07/04 A3005 RMK AO1 T00650041,KOIN,2023-04-28T10:35:00Z,39.83,-100.53,6.5,4.1,340,16,23,10.0,30.050198,,,TRUE,TRUE,,,,,,,OVC,2000,,,,,,,MVFR,,,,,,,,,,,,SPECI,810.0
KOIC 281035Z AUTO 00000KT 7SM CLR 03/02 A3017 RMK AO2 T00250023,KOIC,2023-04-28T10:35:00Z,42.57,-75.52,2.5,2.3,0,0,,7.0,30.171259,,,TRUE,TRUE,,,,,,,CLR,,,,,,,,VFR,,,,,,,,,,,,METAR,311.0
KOEO 281035Z AUTO 00000KT 10SM -DZ SCT036 BKN043 OVC050 09/09 A2985 RMK AO2 T00860086,KOEO,2023-04-28T10:35:00Z,45.32,-92.7,8.6,8.6,0,0,,10.0,29.84941,,,TRUE,TRUE,,,,,,-DZ,SCT,3600,BKN,4300,OVC,5000,,,VFR,,,,,,,,,,,,METAR,269.0
KOCQ 281035Z AUTO 00000KT 10SM SCT120 05/04 A2989 RMK AO1 T00490038,KOCQ,2023-04-28T10:35:00Z,44.87,-87.92,4.9,3.8,0,0,,10.0,29.890747,,,TRUE,TRUE,,,,,,,SCT,12000,,,,,,,VFR,,,,,,,,,,,,METAR,181.0
KO32 281035Z AUTO 13003KT 10SM CLR 19/15 A2987 RMK AO2 T01920146 $,KO32,2023-04-28T10:35:00Z,36.67,-119.45,19.2,14.6,130,3,,10.0,29.870079,,,TRUE,TRUE,TRUE,,,,,,CLR,,,,,,,,VFR,,,,,,,,,,,,METAR,117.0
KO22 281035Z AUTO 00000KT 10SM CLR 13/09 A2994 RMK A01,KO22,2023-04-28T10:35:00Z,38.03,-120.42,13.0,9.0,0,0,,10.0,29.940945,,,TRUE,TRUE,,,,,,,CLR,,,,,,,,VFR,,,,,,,,,,,,METAR,637.0
KN79 281035Z AUTO 09007G18KT 10SM CLR 10/06 A3006 RMK AO2 T00980063,KN79,2023-04-28T10:35:00Z,,,9.8,6.3,90,7,18,10.0,30.059055,,,TRUE,TRUE,,,,,,,CLR,,,,,,,,VFR,,,,,,,,,,,,METAR,
KN38 281035Z AUTO 13008G14KT 10SM OVC013 08/07 A3003 RMK AO2,KN38,2023-04-28T10:35:00Z,41.73,-77.4,8.0,7.0,130,8,14,10.0,30.029528,,,TRUE,TRUE,,,,,,,OVC,1300,,,,,,,MVFR,,,,,,,,,,,,METAR,576.0
KMYJ 281035Z AUTO 00000KT 10SM CLR 07/06 A2980 RMK AO2,KMYJ,2023-04-28T10:35:00Z,39.15,-91.82,7.0,6.0,0,0,,10.0,29.799213,,,TRUE,TRUE,,,,,,,CLR,,,,,,,,VFR,,,,,,,,,,,,METAR,249.0
KMWM 281035Z AUTO 29003KT 7SM -RA CLR 09/09 A2978 RMK AO2,KMWM,2023-04-28T10:35:00Z,43.9,-95.1,9.0,9.0,290,3,,7.0,29.778543,,,TRUE,TRUE,,,,,,-RA,CLR,,,,,,,,VFR,,,,,,,,,,,,METAR,427.0
KMVE 281035Z AUTO 01014KT 10SM DZ OVC006 07/07 A2986 RMK AO2 P0001,KMVE,2023-04-28T10:35:00Z,44.97,-95.72,7.0,7.0,10,14,,10.0,29.861221,,,TRUE,TRUE,,,,,,DZ,OVC,600,,,,,,,IFR,,,,,,0.01,,,,,,METAR,319.0
KMTV 281035Z AUTO 33011KT 4SM +RA SCT007 BKN020 OVC025 13/12 A2979 RMK AO2 P0038 T01340120,KMTV,2023-04-28T10:35:00Z,36.63,-80.02,13.4,12.0,330,11,,4.0,29.790354,,,TRUE,TRUE,,,,,,+RA,SCT,700,BKN,2000,OVC,2500,,,MVFR,,,,,,0.38,,,,,,METAR,276.0
KMRJ 281035Z AUTO 12005KT 10SM CLR 06/M05 A2985 RMK AO2 PWINO,KMRJ,2023-04-28T10:35:00Z,42.88,-90.23,6.0,-5.0,120,5,,10.0,29.84941,,,TRUE,TRUE,,,,,TRUE,,CLR,,,,,,,,VFR,,,,,,,,,,,,METAR,350.0
KMQS 281035Z AUTO 08011KT 10SM BKN007 OVC020 09/09 A3009 RMK AO2,KMQS,2023-04-28T10:35:00Z,39.98,-75.87,9.0,9.0,80,11,,10.0,30.088583,,,TRUE,TRUE,,,,,,,BKN,700,OVC,2000,,,,,IFR,,,,,,,,,,,,METAR,200.0
KMQJ 281035Z AUTO 35010G15KT 7SM BKN007 BKN022 OVC027 07/07 A2972 RMK AO1,KMQJ,2023-04-28T10:35:00Z,39.85,-85.9,7.0,7.0,350,10,15,7.0,29.719488,,,TRUE,TRUE,,,,,,,BKN,700,BKN,2200,OVC,2700,,,IFR,,,,,,,,,,,,METAR,262.0
KMOX 281035Z AUTO 34013KT 10SM 06/04 A2991 RMK AO2,KMOX,2023-04-28T10:35:00Z,45.57,-95.97,6.0,4.0,340,13,,10.0,29.911417,,,TRUE,TRUE,,,,,,,,,,,,,,,,,,,,,,,,,,,METAR,346.0
KMOP 281035Z AUTO 00000KT 10SM CLR 03/00 A2990 RMK AO2 T00301001,KMOP,2023-04-28T10:35:00Z,43.62,-84.73,3.0,-0.1,0,0,,10.0,29.899607,,,TRUE,TRUE,,,,,,,CLR,,,,,,,,VFR,,,,,,,,,,,,SPECI,229.0
KMNI 281035Z AUTO 00000KT 10SM BKN007 OVC010 18/18 A2977 RMK AO2,KMNI,2023-04-28T10:35:00Z,33.58,-80.22,18.0,18.0,0,0,,10.0,29.769686,,,TRUE,TRUE,,,,,,,BKN,700,OVC,1000,,,,,IFR,,,,,,,,,,,,SPECI,29.0
KMKS 281035Z AUTO 00000KT 7SM BKN012 OVC017 18/18 A2977 RMK AO2 P0001,KMKS,2023-04-28T10:35:00Z,33.18,-80.03,18.0,18.0,0,0,,7.0,29.769686,,,TRUE,TRUE,,,,,,,BKN,1200,OVC,1700,,,,,MVFR,,,,,,0.01,,,,,,SPECI,22.0
KMKJ 281035Z AUTO 08004KT 10SM OVC005 11/10 A2983 RMK AO2 LTG DSNT W T01080104,KMKJ,2023-04-28T10:35:00Z,36.88,-81.33,10.8,10.4,80,4,,10.0,29.828741,,,TRUE,TRUE,,,,,,,OVC,500,,,,,,,IFR,,,,,,,,,,,,METAR,777.0
KMJQ 281035Z AUTO 00000KT 5SM -DZ SCT045 BKN060 OVC090 09/08 A2979 RMK AO2 P0001,KMJQ,2023-04-28T10:35:00Z,43.63,-94.98,9.0,8.0,0,0,,5.0,29.790354,,,TRUE,TRUE,,,,,,-DZ,SCT,4500,BKN,6000,OVC,9000,,,MVFR,,,,,,0.01,,,,,,SPECI,439.0
KMHL 281035Z AUTO 00000KT 10SM BKN100 08/07 A2982 RMK AO2,KMHL,2023-04-28T10:35:00Z,39.1,-93.2,8.0,7.0,0,0,,10.0,29.819881,,,TRUE,TRUE,,,,,,,BKN,10000,,,,,,,VFR,,,,,,,,,,,,SPECI,236.0
KMGR 281035Z AUTO 00000KT 9SM OVC006 19/19 A2981 RMK AO2 CIG 005V008 T01920187,KMGR,2023-04-28T10:35:00Z,31.08,-83.8,19.2,18.7,0,0,,9.0,29.811024,,,TRUE,TRUE,,,,,,,OVC,600,,,,,,,IFR,,,,,,,,,,,,METAR,86.0
KMGN 281035Z AUTO 11003KT 10SM OVC080 04/02 A2994 RMK AO2 T00450028,KMGN,2023-04-28T10:35:00Z,45.43,-84.92,4.5,2.8,110,3,,10.0,29.940945,,,TRUE,TRUE,,,,,,,OVC,8000,,,,,,,VFR,,,,,,,,,,,,SPECI,205.0
KMGG 281035Z AUTO 36006KT 10SM OVC005 09/07 A2985 RMK AO2 T00850072,KMGG,2023-04-28T10:35:00Z,45.23,-93.98,8.5,7.2,360,6,,10.0,29.84941,,,TRUE,TRUE,,,,,,,OVC,500,,,,,,,IFR,,,,,,,,,,,,SPECI,310.0
KMEZ 281035Z AUTO 27003KT 3SM BR CLR 09/09 A2980 RMK AO2 T00860086,KMEZ,2023-04-28T10:35:00Z,34.55,-94.2,8.6,8.6,270,3,,3.0,29.799213,,,TRUE,TRUE,,,,,,BR,CLR,,,,,,,,MVFR,,,,,,,,,,,,METAR,320.0
KMDZ 281035Z AUTO 14005KT 10SM SCT065 BKN075 OVC090 09/03 A2982 RMK AO2 T00850025 PWINO,KMDZ,2023-04-28T10:35:00Z,45.1,-90.3,8.5,2.5,140,5,,10.0,29.819881,,,TRUE,TRUE,,,,,TRUE,,SCT,6500,BKN,7500,OVC,9000,,,VFR,,,,,,,,,,,,SPECI,446.0
KMDS 281035Z AUTO 01017G26KT 10SM OVC007 06/06 A2986 RMK AO2,KMDS,2023-04-28T10:35:00Z,44.02,-97.08,6.0,6.0,10,17,26,10.0,29.861221,,,TRUE,TRUE,,,,,,,OVC,700,,,,,,,IFR,,,,,,,,,,,,METAR,524.0
KMCX 281035Z AUTO 04007KT 7SM UP OVC046 07/06 A2980 RMK AO2 P0001 T00700063,KMCX,2023-04-28T10:35:00Z,40.72,-86.77,7.0,6.3,40,7,,7.0,29.799213,,,TRUE,TRUE,,,,,,UP,OVC,4600,,,,,,,VFR,,,,,,0.01,,,,,,SPECI,205.0
KMCJ 281035Z AUTO 12009KT 9SM FEW032 17/14 A2977 RMK A01,KMCJ,2023-04-28T10:35:00Z,29.72,-95.4,17.0,14.0,120,9,,9.0,29.769686,,,TRUE,TRUE,,,,,,,FEW,3200,,,,,,,VFR,,,,,,,,,,,,METAR,70.0
KMCD 281035Z AUTO 08005KT 7SM SCT075 BKN085 02/02 A2996 RMK AO2 T00180018,KMCD,2023-04-28T10:35:00Z,45.85,-84.63,1.8,1.8,80,5,,7.0,29.958662,,,TRUE,TRUE,,,,,,,SCT,7500,BKN,8500,,,,,VFR,,,,,,,,,,,,SPECI,228.0
KMBY 281035Z AUTO 29003KT 10SM CLR 08/05 A2981 RMK AO2,KMBY,2023-04-28T10:35:00Z,39.47,-92.43,8.0,5.0,290,3,,10.0,29.811024,,,TRUE,TRUE,,,,,,,CLR,,,,,,,,VFR,,,,,,,,,,,,METAR,263.0
KMBO 281035Z AUTO 00000KT 10SM FEW039 14/15 A2978 RMK AO2,KMBO,2023-04-28T10:35:00Z,32.43,-90.1,14.0,15.0,0,0,,10.0,29.778543,,,TRUE,TRUE,,,,,,,FEW,3900,,,,,,,VFR,,,,,,,,,,,,METAR,98.0
KMAW 281035Z AUTO 36006KT 4SM BR OVC005 13/12 A2975 RMK AO1,KMAW,2023-04-28T10:35:00Z,36.6,-90.0,13.0,12.0,360,6,,4.0,29.749016,,,TRUE,TRUE,,,,,,BR,OVC,500,,,,,,,IFR,,,,,,,,,,,,SPECI,88.0
KMAO 281035Z AUTO 23004KT 10SM BKN015 OVC030 17/15 A2978 RMK AO2 P0003,KMAO,2023-04-28T10:35:00Z,34.18,-79.33,17.0,15.0,230,4,,10.0,29.778543,,,TRUE,TRUE,,,,,,,BKN,1500,OVC,3000,,,,,MVFR,,,,,,0.03,,,,,,SPECI,27.0
KMAN 281035Z AUTO 17006KT 10SM CLR 09/M02 A3022 RMK A01,KMAN,2023-04-28T10:35:00Z,43.58,-116.52,9.0,-2.0,170,6,,10.0,30.221457,,,TRUE,TRUE,,,,,,,CLR,,,,,,,,VFR,,,,,,,,,,,,METAR,773.0
KM40 281035Z AUTO VRB04KT 10SM FEW008 OVC014 16/16 A2975 RMK AO2,KM40,2023-04-28T10:35:00Z,33.87,-88.48,16.0,16.0,0,4,,10.0,29.749016,,,TRUE,TRUE,,,,,,,FEW,800,OVC,1400,,,,,MVFR,,,,,,,,,,,,METAR,68.0
KM25 281035Z AUTO 00000KT 1 1/2SM OVC003 13/12 A2972 RMK AO2 PWINO,KM25,2023-04-28T10:35:00Z,36.77,-88.58,13.0,12.0,0,0,,1.5,29.719488,,,TRUE,TRUE,,,,,TRUE,,OVC,300,,,,,,,LIFR,,,,,,,,,,,,METAR,157.0
KM21 281035Z AUTO 30003KT 1 1/2SM BR OVC002 13/13 A2970 RMK AO2 T01260125,KM21,2023-04-28T10:35:00Z,37.22,-87.15,12.6,12.5,300,3,,1.5,29.698818,,,TRUE,TRUE,,,,,,BR,OVC,200,,,,,,,LIFR,,,,,,,,,,,,METAR,127.0
KM01 281035Z AUTO 30008KT 10SM OVC014 14/14 A2973 RMK AO2 CIG 012V017 T01380137 $,KM01,2023-04-28T10:35:00Z,35.2,-90.05,13.8,13.7,300,8,,10.0,29.731298,,,TRUE,TRUE,TRUE,,,,,,OVC,1400,,,,,,,MVFR,,,,,,,,,,,,METAR,68.0
KLYV 281035Z AUTO 01011G14KT 10SM BKN010 BKN021 OVC085 09/08 A2980 RMK AO2,KLYV,2023-04-28T10:35:00Z,43.62,-96.22,9.0,8.0,10,11,14,10.0,29.799213,,,TRUE,TRUE,,,,,,,BKN,1000,BKN,2100,OVC,8500,,,MVFR,,,,,,,,,,,,METAR,435.0
KLXL 281035Z AUTO 00000KT 10SM OVC004 06/06 A2987 RMK AO2,KLXL,2023-04-28T10:35:00Z,45.95,-94.33,6.0,6.0,0,0,,10.0,29.870079,,,TRUE,TRUE,,,,,,,OVC,400,,,,,,,LIFR,,,,,,,,,,,,METAR,335.0
KLWB 281035Z AUTO 00000KT 10SM -RA OVC015 12/10 A2983 RMK AO2 P0003 T01160102,KLWB,2023-04-28T10:35:00Z,37.87,-80.4,11.6,10.2,0,0,,10.0,29.828741,,,TRUE,TRUE,,,,,,-RA,OVC,1500,,,,,,,MVFR,,,,,,0.03,,,,,,METAR,702.0
KLVN 281035Z AUTO 00000KT 10SM RA SCT044 SCT055 BKN065 09/06 A2980 RMK AO2,KLVN,2023-04-28T10:35:00Z,44.63,-93.23,9.0,6.0,0,0,,10.0,29.799213,,,TRUE,TRUE,,,,,,RA,SCT,4400,SCT,5500,BKN,6500,,,VFR,,,,,,,,,,,,METAR,292.0
KLVL 281035Z AUTO 08005KT 7SM OVC007 15/15 A2984 RMK AO1 P0005 T01500145,KLVL,2023-04-28T10:35:00Z,36.78,-77.8,15.0,14.5,80,5,,7.0,29.840551,,,TRUE,TRUE,,,,,,,OVC,700,,,,,,,IFR,,,,,,0.05,,,,,,METAR,98.0
KLUX 281035Z AUTO 29003KT 10SM BKN006 OVC015 16/16 A2977 RMK AO2,KLUX,2023-04-28T10:35:00Z,34.5,-81.95,16.0,16.0,290,3,,10.0,29.769686,,,TRUE,TRUE,,,,,,,BKN,600,OVC,1500,,,,,IFR,,,,,,,,,,,,SPECI,213.0
KLUM 281035Z 00000KT 10SM SCT095 BKN120 10/05 A2980 RMK AO2 T01000050 PWINO,KLUM,2023-04-28T10:35:00Z,44.9,-91.87,10.0,5.0,0,0,,10.0,29.799213,,,,TRUE,,,,,TRUE,,SCT,9500,BKN,12000,,,,,VFR,,,,,,,,,,,,SPECI,271.0
KLUA 281035Z AUTO 04005KT 10SM DZ SCT017 OVC023 11/10 A2992 RMK AO2,KLUA,2023-04-28T10:35:00Z,38.67,-78.5,11.0,10.0,40,5,,10.0,29.920275,,,TRUE,TRUE,,,,,,DZ,SCT,1700,OVC,2300,,,,,MVFR,,,,,,,,,,,,METAR,273.0
KLRY 281035Z AUTO 00000KT 10SM OVC085 09/08 A2985 RMK AO2,KLRY,2023-04-28T10:35:00Z,38.62,-94.35,9.0,8.0,0,0,,10.0,29.84941,,,TRUE,TRUE,,,,,,,OVC,8500,,,,,,,VFR,,,,,,,,,,,,METAR,272.0
KLRO 281035Z AUTO 21006KT 6SM BR FEW022 OVC029 21/20 A2976 RMK AO2,KLRO,2023-04-28T10:35:00Z,32.9,-79.78,21.0,20.0,210,6,,6.0,29.760826,,,TRUE,TRUE,,,,,,BR,FEW,2200,OVC,2900,,,,,MVFR,,,,,,,,,,,,METAR,3.0
KLQK 281035Z AUTO 00000KT 10SM OVC008 14/14 A2976 RMK AO2 P0006 T01430143,KLQK,2023-04-28T10:35:00Z,34.82,-82.7,14.3,14.3,0,0,,10.0,29.760826,,,TRUE,TRUE,,,,,,,OVC,800,,,,,,,IFR,,,,,,0.06,,,,,,METAR,291.0
KLNP 281035Z AUTO 16004KT 10SM SCT055 11/10 A2977 RMK AO2 LTG DSNT SW,KLNP,2023-04-28T10:35:00Z,36.98,-82.52,11.0,10.0,160,4,,10.0,29.769686,,,TRUE,TRUE,,,,,,,SCT,5500,,,,,,,VFR,,,,,,,,,,,,METAR,817.0
KLNL 281035Z AUTO 11005KT 3SM -RA BKN048 OVC065 06/06 A2989 RMK AO2 T00600060,KLNL,2023-04-28T10:35:00Z,46.15,-89.22,6.0,6.0,110,5,,3.0,29.890747,,,TRUE,TRUE,,,,,,-RA,BKN,4800,OVC,6500,,,,,MVFR,,,,,,,,,,,,METAR,517.0
KLKU 281035Z AUTO 11005KT 2 1/2SM +RA BR OVC006 13/13 A2991 RMK AO2 P0018 T01340129,KLKU,2023-04-28T10:35:00Z,38.02,-77.97,13.4,12.9,110,5,,2.5,29.911417,,,TRUE,TRUE,,,,,,+RA BR,OVC,600,,,,,,,IFR,,,,,,0.18,,,,,,METAR,146.0
KLKR 281035Z AUTO 20003KT 10SM SCT007 BKN019 OVC024 18/17 A2977 RMK AO2,KLKR,2023-04-28T10:35:00Z,34.72,-80.85,18.0,17.0,200,3,,10.0,29.769686,,,TRUE,TRUE,,,,,,,SCT,700,BKN,1900,OVC,2400,,,MVFR,,,,,,,,,,,,METAR,166.0
KLJF 281035Z AUTO 03007G14KT 7SM RA OVC006 08/08 A2982 RMK AO2 P0001,KLJF,2023-04-28T10:35:00Z,45.1,-94.52,8.0,8.0,30,7,14,7.0,29.819881,,,TRUE,TRUE,,,,,,RA,OVC,600,,,,,,,IFR,,,,,,0.01,,,,,,METAR,347.0
KLHZ 281035Z AUTO 14005KT 7SM DZ OVC003 16/16 A2981 RMK AO2 P0001,KLHZ,2023-04-28T10:35:00Z,36.02,-78.33,16.0,16.0,140,5,,7.0,29.811024,,,TRUE,TRUE,,,,,,DZ,OVC,300,,,,,,,LIFR,,,,,,0.01,,,,,,SPECI,104.0
KLDM 281035Z AUTO 00000KT 10SM CLR 02/M01 A2990 RMK AO2 T00211014,KLDM,2023-04-28T10:35:00Z,43.97,-86.4,2.1,-1.4,0,0,,10.0,29.899607,,,TRUE,TRUE,,,,,,,CLR,,,,,,,,VFR,,,,,,,,,,,,METAR,194.0
KLBO 281035Z AUTO 01003KT 4SM BR SCT012 BKN023 09/08 A2981 RMK AO2,KLBO,2023-04-28T10:35:00Z,37.65,-92.65,9.0,8.0,10,3,,4.0,29.811024,,,TRUE,TRUE,,,,,,BR,SCT,1200,BKN,2300,,,,,MVFR,,,,,,,,,,,,METAR,399.0
KLBE 281035Z AUTO 10006KT 4SM RA 12/11 A2991 RMK AO2,KLBE,2023-04-28T10:35:00Z,40.27,-79.4,12.0,11.0,100,6,,4.0,29.911417,,,TRUE,TRUE,,,,,,RA,,,,,,,,,,,,,,,,,,,,,METAR,345.0
KL35 281035Z AUTO 00000KT 10SM CLR 00/M03 A3019 RMK AO2,KL35,2023-04-28T10:35:00Z,34.27,-116.85,0.0,-3.0,0,0,,10.0,30.188976,,,TRUE,TRUE,,,,,,,CLR,,,,,,,,VFR,,,,,,,,,,,,METAR,2062.0
KL18 281035Z AUTO 00000KT 1/4SM FG OVC002 12/12 A2993 RMK AO2,KL18,2023-04-28T10:35:00Z,33.35,-117.25,12.0,12.0,0,0,,0.25,29.929134,,,TRUE,TRUE,,,,,,FG,OVC,200,,,,,,,LIFR,,,,,,,,,,,,METAR,215.0
KL08 281035Z AUTO 01005KT 10SM CLR 20/02 A2979 RMK AO2,KL08,2023-04-28T10:35:00Z,33.27,-116.32,20.0,2.0,10,5,,10.0,29.790354,,,TRUE,TRUE,,,,,,,CLR,,,,,,,,VFR,,,,,,,,,,,,METAR,156.0
KKY8 281035Z AUTO 00000KT 10SM OVC006 12/12 A2971 RMK A01,KKY8,2023-04-28T10:35:00Z,37.95,-86.87,12.0,12.0,0,0,,10.0,29.71063,,,TRUE,TRUE,,,,,,,OVC,600,,,,,,,IFR,,,,,,,,,,,,METAR,124.0
KJZI 281035Z AUTO 24005KT 10SM BKN010 BKN013 BKN023 20/20 A2978 RMK AO2,KJZI,2023-04-28T10:35:00Z,32.7,-80.0,20.0,20.0,240,5,,10.0,29.778543,,,TRUE,TRUE,,,,,,,BKN,1000,BKN,1300,BKN,2300,,,MVFR,,,,,,,,,,,,METAR,5.0
KJYO 281035Z AUTO 06006KT 4SM RA OVC008 12/12 A3000 RMK AO2 P0005,KJYO,2023-04-28T10:35:00Z,39.07,-77.57,12.0,12.0,60,6,,4.0,30.0,,,TRUE,TRUE,,,,,,RA,OVC,800,,,,,,,IFR,,,,,,0.05,,,,,,SPECI,112.0
KJYG 281035Z AUTO 00000KT 7SM -RA 09/08 A2979 RMK AO2,KJYG,2023-04-28T10:35:00Z,43.98,-94.55,9.0,8.0,0,0,,7.0,29.790354,,,TRUE,TRUE,,,,,,-RA,,,,,,,,,,,,,,,,,,,,,METAR,323.0
KJXI 281035Z AUTO 00000KT 10SM CLR 09/08 A2979 RMK AO2 T00900083,KJXI,2023-04-28T10:35:00Z,32.7,-94.95,9.0,8.3,0,0,,10.0,29.790354,,,TRUE,TRUE,,,,,,,CLR,,,,,,,,VFR,,,,,,,,,,,,SPECI,130.0
KJSO 281035Z AUTO 00000KT 10SM CLR 12/10 A2981 RMK AO2 T01150102 TSNO,KJSO,2023-04-28T10:35:00Z,31.87,-95.22,11.5,10.2,0,0,,10.0,29.811024,,,TRUE,TRUE,,,TRUE,,,,CLR,,,,,,,,VFR,,,,,,,,,,,,SPECI,204.0
KJRO 281035Z AUTO 08003KT 4SM -RA OVC006 13/12 A2973 RMK AO2 P0002,KJRO,2023-04-28T10:35:00Z,38.98,-82.58,13.0,12.0,80,3,,4.0,29.731298,,,TRUE,TRUE,,,,,,-RA,OVC,600,,,,,,,IFR,,,,,,0.02,,,,,,METAR,224.0
KJMR 281035Z AUTO 02003KT 10SM -DZ OVC007 07/06 A2989 RMK AO2,KJMR,2023-04-28T10:35:00Z,45.88,-93.27,7.0,6.0,20,3,,10.0,29.890747,,,TRUE,TRUE,,,,,,-DZ,OVC,700,,,,,,,IFR,,,,,,,,,,,,SPECI,301.0
KJKJ 281035Z AUTO 35010KT 10SM BKN110 04/02 A2998 RMK AO2 TSNO,KJKJ,2023-04-28T10:35:00Z,46.83,-96.67,4.0,2.0,350,10,,10.0,29.97933,,,TRUE,TRUE,,,TRUE,,,,BKN,11000,,,,,,,VFR,,,,,,,,,,,,SPECI,280.0
KJFZ 281035Z AUTO 13004KT 10SM SCT085 12/12 A2978 RMK AO2 T01150115,KJFZ,2023-04-28T10:35:00Z,37.07,-81.8,11.5,11.5,130,4,,10.0,29.778543,,,TRUE,TRUE,,,,,,,SCT,8500,,,,,,,VFR,,,,,,,,,,,,METAR,809.0
KJFX 281035Z AUTO 00000KT 10SM SCT009 SCT060 OVC080 17/17 A2971 RMK AO2,KJFX,2023-04-28T10:35:00Z,33.9,-87.32,17.0,17.0,0,0,,10.0,29.71063,,,TRUE,TRUE,,,,,,,SCT,900,SCT,6000,OVC,8000,,,VFR,,,,,,,,,,,,METAR,144.0
KJAQ 281035Z AUTO 10003KT 10SM CLR 18/08 A2993 RMK AO1 T01760079,KJAQ,2023-04-28T10:35:00Z,38.37,-120.8,17.6,7.9,100,3,,10.0,29.929134,,,TRUE,TRUE,,,,,,,CLR,,,,,,,,VFR,,,,,,,,,,,,SPECI,518.0
KIUA 281035Z AUTO 14007KT 10SM CLR 09/06 A3004 RMK AO2 T00870060,KIUA,2023-04-28T10:35:00Z,42.92,-77.33,8.7,6.0,140,7,,10.0,30.041338,,,TRUE,TRUE,,,,,,,CLR,,,,,,,,VFR,,,,,,,,,,,,SPECI,248.0
KISQ 281035Z AUTO 00000KT 10SM SCT100 04/02 A2994 RMK AO2 T00380016,KISQ,2023-04-28T10:35:00Z,45.97,-86.17,3.8,1.6,0,0,,10.0,29.940945,,,TRUE,TRUE,,,,,,,SCT,10000,,,,,,,VFR,,,,,,,,,,,,METAR,206.0
KINF 281035Z AUTO 18003KT 7SM CLR 18/18 A2986 RMK AO2,KINF,2023-04-28T10:35:00Z,28.8,-82.32,18.0,18.0,180,3,,7.0,29.861221,,,TRUE,TRUE,,,,,,,CLR,,,,,,,,VFR,,,,,,,,,,,,SPECI,14.0
KIDI 281035Z AUTO 13009G15KT 10SM SCT020 BKN030 OVC045 13/10 A2996 RMK A01,KIDI,2023-04-28T10:35:00Z,40.63,-79.1,13.0,10.0,130,9,15,10.0,29.958662,,,TRUE,TRUE,,,,,,,SCT,2000,BKN,3000,OVC,4500,,,MVFR,,,,,,,,,,,,METAR,425.0
KI69 281035Z AUTO 00000KT 7SM RA OVC005 14/13 A2968 RMK AO2 T01370134 P0001,KI69,2023-04-28T10:35:00Z,39.08,-84.22,13.7,13.4,0,0,,7.0,29.681103,,,TRUE,TRUE,,,,,,RA,OVC,500,,,,,,,IFR,,,,,,0.01,,,,,,SPECI,238.0
KI68 281035Z AUTO 00000KT 7SM 12/12 A2967 RMK AO1 T01200117,KI68,2023-04-28T10:35:00Z,39.47,-84.25,12.0,11.7,0,0,,7.0,29.66929,,,TRUE,TRUE,,,,,,,,,,,,,,,,,,,,,,,,,,,SPECI,274.0
KI19 281035Z AUTO 12006KT 4SM -RA BR BKN006 OVC012 12/12 A2966 RMK AO2 P0002,KI19,2023-04-28T10:35:00Z,39.7,-83.98,12.0,12.0,120,6,,4.0,29.660433,,,TRUE,TRUE,,,,,,-RA BR,BKN,600,OVC,1200,,,,,IFR,,,,,,0.02,,,,,,METAR,285.0
KHZL 281035Z AUTO 12005KT 07/05 A3011 RMK AO2 PWINO,KHZL,2023-04-28T10:35:00Z,40.98,-76.0,7.0,5.0,120,5,,,30.109253,,,TRUE,TRUE,,,,,TRUE,,,,,,,,,,,,,,,,,,,,,,SPECI,481.0
KHZE 281035Z AUTO 32005KT 10SM FEW046 SCT065 OVC075 05/02 A3009 RMK AO2,KHZE,2023-04-28T10:35:00Z,47.28,-101.58,5.0,2.0,320,5,,10.0,30.088583,,,TRUE,TRUE,,,,,,,FEW,4600,SCT,6500,OVC,7500,,,VFR,,,,,,,,,,,,SPECI,542.0
KHYX 281035Z AUTO 03004KT 10SM CLR 04/02 A2991 RMK AO2 T00420020,KHYX,2023-04-28T10:35:00Z,43.43,-83.87,4.2,2.0,30,4,,10.0,29.911417,,,TRUE,TRUE,,,,,,,CLR,,,,,,,,VFR,,,,,,,,,,,,SPECI,181.0
KHWY 281035Z AUTO 07008KT 7SM -RA OVC005 14/12 A2995 RMK AO2 P0002 T01350120,KHWY,2023-04-28T10:35:00Z,38.58,-77.72,13.5,12.0,70,8,,7.0,29.949802,,,TRUE,TRUE,,,,,,-RA,OVC,500,,,,,,,IFR,,,,,,0.02,,,,,,SPECI,93.0
KHVS 281035Z AUTO 00000KT 9SM BKN004 OVC011 18/18 A2977 RMK AO2 LTG DSNT W,KHVS,2023-04-28T10:35:00Z,34.4,-80.12,18.0,18.0,0,0,,9.0,29.769686,,,TRUE,TRUE,,,,,,,BKN,400,OVC,1100,,,,,LIFR,,,,,,,,,,,,METAR,110.0
KHRF 281035Z AUTO 18009KT 10SM BKN070 06/M03 A3026 RMK AO2 Hamilton ,KHRF,2023-04-28T10:35:00Z,46.25,-114.13,6.0,-3.0,180,9,,10.0,30.259842,,,TRUE,TRUE,,,,,,,BKN,7000,,,,,,,VFR,,,,,,,,,,,,METAR,1112.0
KHOB 281035Z AUTO 32016G24KT 10SM CLR 15/M10 A2976 RMK AO2,KHOB,2023-04-28T10:35:00Z,32.67,-103.22,15.0,-10.0,320,16,24,10.0,29.760826,,,TRUE,TRUE,,,,,,,CLR,,,,,,,,VFR,,,,,,,,,,,,METAR,1112.0
KHNZ 281035Z AUTO 08005KT 7SM -DZ OVC003 13/13 A2979 RMK AO2 T01330132,KHNZ,2023-04-28T10:35:00Z,36.37,-78.53,13.3,13.2,80,5,,7.0,29.790354,,,TRUE,TRUE,,,,,,-DZ,OVC,300,,,,,,,LIFR,,,,,,,,,,,,SPECI,158.0
KHLX 281035Z AUTO 03003KT 10SM RA OVC002 11/11 A2979 RMK AO2 T01100108,KHLX,2023-04-28T10:35:00Z,36.77,-80.82,11.0,10.8,30,3,,10.0,29.790354,,,TRUE,TRUE,,,,,,RA,OVC,200,,,,,,,LIFR,,,,,,,,,,,,METAR,819.0
KHFY 281035Z AUTO 01009KT 10SM BKN008 OVC020 09/09 A2972 RMK AO2 T00860086,KHFY,2023-04-28T10:35:00Z,39.63,-86.08,8.6,8.6,10,9,,10.0,29.719488,,,TRUE,TRUE,,,,,,,BKN,800,OVC,2000,,,,,IFR,,,,,,,,,,,,METAR,250.0
KHEG 281035Z AUTO 00000KT 10SM FEW026 FEW039 FEW048 17/17 A2986 RMK AO2,KHEG,2023-04-28T10:35:00Z,30.28,-81.8,17.0,17.0,0,0,,10.0,29.861221,,,TRUE,TRUE,,,,,,,FEW,2600,FEW,3900,FEW,4800,,,VFR,,,,,,,,,,,,METAR,25.0
KHCO 281035Z AUTO 32005KT 10SM SCT040 02/02 A3000 RMK AO2,KHCO,2023-04-28T10:35:00Z,48.75,-96.93,2.0,2.0,320,5,,10.0,30.0,,,TRUE,TRUE,,,,,,,SCT,4000,,,,,,,VFR,,,,,,,,,,,,METAR,250.0
KHAF 281035Z AUTO 16007KT 1/4SM FG OVC002 10/10 A2993 RMK AO2,KHAF,2023-04-28T10:35:00Z,37.52,-122.5,10.0,10.0,160,7,,0.25,29.929134,,,TRUE,TRUE,,,,,,FG,OVC,200,,,,,,,LIFR,,,,,,,,,,,,METAR,11.0
KHAE 281035Z AUTO 30003KT 10SM CLR 10/05 A2980 RMK AO2,KHAE,2023-04-28T10:35:00Z,39.73,-91.45,10.0,5.0,300,3,,10.0,29.799213,,,TRUE,TRUE,,,,,,,CLR,,,,,,,,VFR,,,,,,,,,,,,SPECI,230.0
KGYL 281035Z AUTO 03004KT 7SM -RA BKN005 OVC070 09/08 A2981 RMK AO2 T00850080 P0001,KGYL,2023-04-28T10:35:00Z,44.77,-94.08,8.5,8.0,30,4,,7.0,29.811024,,,TRUE,TRUE,,,,,,-RA,BKN,500,OVC,7000,,,,,IFR,,,,,,0.01,,,,,,SPECI,304.0
KGYH 281035Z AUTO 00000KT 1 1/2SM BR OVC002 15/14 A2978 RMK A02 T01450144,KGYH,2023-04-28T10:35:00Z,34.75,-82.38,14.5,14.4,0,0,,1.5,29.778543,,,TRUE,TRUE,,,,,,BR,OVC,200,,,,,,,LIFR,,,,,,,,,,,,METAR,283.0
KGWR 281035Z AUTO 35010KT 10SM BKN036 BKN043 OVC095 04/04 A2999 RMK A01,KGWR,2023-04-28T10:35:00Z,46.22,-97.65,4.0,4.0,350,10,,10.0,29.991142,,,TRUE,TRUE,,,,,,,BKN,3600,BKN,4300,OVC,9500,,,VFR,,,,,,,,,,,,METAR,381.0
KGVE 281035Z AUTO 08005KT 7SM OVC005 13/13 A2990 RMK AO1 P0012 T01310125,KGVE,2023-04-28T10:35:00Z,38.15,-78.17,13.1,12.5,80,5,,7.0,29.899607,,,TRUE,TRUE,,,,,,,OVC,500,,,,,,,IFR,,,,,,0.12,,,,,,METAR,138.0
KGPH 281035Z AUTO 00000KT 10SM OVC090 11/08 A2982 RMK AO2,KGPH,2023-04-28T10:35:00Z,39.33,-94.32,11.0,8.0,0,0,,10.0,29.819881,,,TRUE,TRUE,,,,,,,OVC,9000,,,,,,,VFR,,,,,,,,,,,,SPECI,233.0
KGNT 281035Z AUTO 31005KT 10SM CLR 01/M13 A3001 RMK AO2 T00061133,KGNT,2023-04-28T10:35:00Z,35.17,-107.9,0.6,-13.3,310,5,,10.0,30.008858,,,TRUE,TRUE,,,,,,,CLR,,,,,,,,VFR,,,,,,,,,,,,METAR,1988.0
KGLY 281035Z AUTO 00000KT 1 1/4SM BR BKN037 OVC045 05/05 A2981 RMK AO2,KGLY,2023-04-28T10:35:00Z,38.35,-93.68,5.0,5.0,0,0,,1.25,29.811024,,,TRUE,TRUE,,,,,,BR,BKN,3700,OVC,4500,,,,,IFR,,,,,,,,,,,,METAR,247.0
KGHW 281035Z AUTO 35009KT 10SM SCT065 SCT085 06/06 A2988 RMK AO2,KGHW,2023-04-28T10:35:00Z,45.63,-95.32,6.0,6.0,350,9,,10.0,29.878937,,,TRUE,TRUE,,,,,,,SCT,6500,SCT,8500,,,,,VFR,,,,,,,,,,,,SPECI,423.0
KGHG 281035Z AUTO 00000KT 1/4SM FG OVC002 05/05 A3023 RMK AO2,KGHG,2023-04-28T10:35:00Z,42.1,-70.67,5.0,5.0,0,0,,0.25,30.230314,,,TRUE,TRUE,,,,,,FG,OVC,200,,,,,,,LIFR,,,,,,,,,,,,METAR,3.0
KGGE 281035Z AUTO 20005KT 10SM -RA SCT011 OVC018 20/18 A2977 RMK AO2,KGGE,2023-04-28T10:35:00Z,33.32,-79.32,20.0,18.0,200,5,,10.0,29.769686,,,TRUE,TRUE,,,,,,-RA,SCT,1100,OVC,1800,,,,,MVFR,,,,,,,,,,,,SPECI,9.0
KGDB 281035Z AUTO 34013KT 7SM RA OVC005 09/08 A2986 RMK AO2 T00900080 P0005,KGDB,2023-04-28T10:35:00Z,44.75,-95.55,9.0,8.0,340,13,,7.0,29.861221,,,TRUE,TRUE,,,,,,RA,OVC,500,,,,,,,IFR,,,,,,0.05,,,,,,SPECI,316.0
KGDA 281035Z AUTO 00000KT 1SM OVC002 11/11 A2970 RMK AO2 T01120111 PWINO,KGDA,2023-04-28T10:35:00Z,37.33,-88.1,11.2,11.1,0,0,,1.0,29.698818,,,TRUE,TRUE,,,,,TRUE,,OVC,200,,,,,,,LIFR,,,,,,,,,,,,METAR,199.0
KGAF 281035Z AUTO 33006KT 10SM CLR M00/M00 A3003 RMK AO2,KGAF,2023-04-28T10:35:00Z,48.4,-97.37,0.0,0.0,330,6,,10.0,30.029528,,,TRUE,TRUE,,,,,,,CLR,,,,,,,,VFR,,,,,,,,,,,,SPECI,250.0
KFYJ 281035Z AUTO 08011G17KT 7SM BKN060 OVC075 14/13 A2992 RMK AO1 P0003 T01400132,KFYJ,2023-04-28T10:35:00Z,37.52,-76.77,14.0,13.2,80,11,17,7.0,29.920275,,,TRUE,TRUE,,,,,,,BKN,6000,OVC,7500,,,,,VFR,,,,,,0.03,,,,,,SPECI,3.0
KFYG 281035Z AUTO 00000KT 10SM FEW065 BKN075 BKN100 12/12 A2979 RMK AO2,KFYG,2023-04-28T10:35:00Z,38.58,-91.0,12.0,12.0,0,0,,10.0,29.790354,,,TRUE,TRUE,,,,,,,FEW,6500,BKN,7500,BKN,10000,,,VFR,,,,,,,,,,,,METAR,147.0
KFWB 281035Z AUTO 33003KT 4SM BR FEW003 OVC022 10/10 A2980 RMK AO2,KFWB,2023-04-28T10:35:00Z,36.7,-93.4,10.0,10.0,330,3,,4.0,29.799213,,,TRUE,TRUE,,,,,,BR,FEW,300,OVC,2200,,,,,MVFR,,,,,,,,,,,,METAR,392.0
KFVX 281035Z AUTO 08005G14KT 7SM RA OVC009 12/12 A2986 RMK AO2 P0010 T01210117,KFVX,2023-04-28T10:35:00Z,37.35,-78.43,12.1,11.7,80,5,14,7.0,29.861221,,,TRUE,TRUE,,,,,,RA,OVC,900,,,,,,,IFR,,,,,,0.1,,,,,,METAR,129.0
KFSE 281035Z AUTO 34007KT 10SM OVC100 02/01 A2996 RMK AO2,KFSE,2023-04-28T10:35:00Z,47.58,-95.77,2.0,1.0,340,7,,10.0,29.958662,,,TRUE,TRUE,,,,,,,OVC,10000,,,,,,,VFR,,,,,,,,,,,,SPECI,389.0
KFRR 281035Z AUTO 00000KT 10SM SCT007 OVC014 M38/M38 A2994 RMK AO1 P0002,KFRR,2023-04-28T10:35:00Z,38.92,-78.25,-38.0,-38.0,0,0,,10.0,29.940945,,,TRUE,TRUE,,,,,,,SCT,700,OVC,1400,,,,,MVFR,,,,,,0.02,,,,,,METAR,213.0
KFRH 281035Z AUTO 00000KT 7SM OVC009 10/09 A2970 RMK AO1,KFRH,2023-04-28T10:35:00Z,38.5,-86.63,10.0,9.0,0,0,,7.0,29.698818,,,TRUE,TRUE,,,,,,,OVC,900,,,,,,,IFR,,,,,,,,,,,,METAR,241.0
KFPK 281035Z AUTO 06003KT 10SM CLR 07/00 A2984 RMK AO2 T00700003,KFPK,2023-04-28T10:35:00Z,42.57,-84.82,7.0,0.3,60,3,,10.0,29.840551,,,TRUE,TRUE,,,,,,,CLR,,,,,,,,VFR,,,,,,,,,,,,METAR,269.0
KFIN 281035Z AUTO 19004KT 10SM CLR 17/17 A2987 RMK AO2 T01730173,KFIN,2023-04-28T10:35:00Z,29.47,-81.2,17.3,17.3,190,4,,10.0,29.870079,,,TRUE,TRUE,,,,,,,CLR,,,,,,,,VFR,,,,,,,,,,,,METAR,10.0
KFGN 281035Z AUTO 01006KT 10SM CLR 01/M01 A3000 RMK AO2,KFGN,2023-04-28T10:35:00Z,49.32,-94.9,1.0,-1.0,10,6,,10.0,30.0,,,TRUE,TRUE,,,,,,,CLR,,,,,,,,VFR,,,,,,,,,,,,METAR,327.0
KFFX 281035Z AUTO 00000KT 10SM CLR 05/00 A2988 RMK AO2 T00450003,KFFX,2023-04-28T10:35:00Z,43.43,-86.0,4.5,0.3,0,0,,10.0,29.878937,,,TRUE,TRUE,,,,,,,CLR,,,,,,,,VFR,,,,,,,,,,,,METAR,234.0
KFFM 281035Z AUTO 34010KT 10SM SCT038 OVC046 06/04 A2993 RMK AO2,KFFM,2023-04-28T10:35:00Z,46.28,-96.15,6.0,4.0,340,10,,10.0,29.929134,,,TRUE,TRUE,,,,,,,SCT,3800,OVC,4600,,,,,VFR,,,,,,,,,,,,METAR,362.0
KFFA 281035Z AUTO 10010G19KT 1 1/2SM +RA SCT004 BKN013 OVC021 16/16 A2987 RMK AO2 P0020 T01570157,KFFA,2023-04-28T10:35:00Z,36.02,-75.67,15.7,15.7,100,10,19,1.5,29.870079,,,TRUE,TRUE,,,,,,+RA,SCT,400,BKN,1300,OVC,2100,,,IFR,,,,,,0.2,,,,,,SPECI,2.0
KFDW 281035Z AUTO 21005KT 10SM OVC003 17/17 A2977 RMK AO1 P0001,KFDW,2023-04-28T10:35:00Z,34.32,-81.12,17.0,17.0,210,5,,10.0,29.769686,,,TRUE,TRUE,,,,,,,OVC,300,,,,,,,LIFR,,,,,,0.01,,,,,,SPECI,174.0
KFBL 281035Z AUTO 00000KT 10SM SCT065 120 09/07 A2980 RMK AO2,KFBL,2023-04-28T10:35:00Z,44.33,-93.32,9.0,7.0,0,0,,10.0,29.799213,,,TRUE,TRUE,,,,,,,SCT,6500,,,,,,,VFR,,,,,,,,,,,,SPECI,318.0
KEZS 281035Z AUTO 05004KT 10SM CLR 07/03 A2989 RMK AO2 T00710034,KEZS,2023-04-28T10:35:00Z,44.78,-88.57,7.1,3.4,50,4,,10.0,29.890747,,,TRUE,TRUE,,,,,,,CLR,,,,,,,,VFR,,,,,,,,,,,,METAR,247.0
KEVU 281035Z AUTO 20003KT 10SM OVC085 13/08 A2979 RMK AO2 T01360081,KEVU,2023-04-28T10:35:00Z,40.35,-94.92,13.6,8.1,200,3,,10.0,29.790354,,,TRUE,TRUE,,,,,,,OVC,8500,,,,,,,VFR,,,,,,,,,,,,METAR,351.0
KETB 281035Z AUTO 00000KT 5SM BR CLR 00/00 A2987 RMK AO2,KETB,2023-04-28T10:35:00Z,43.42,-88.13,0.0,0.0,0,0,,5.0,29.870079,,,TRUE,TRUE,,,,,,BR,CLR,,,,,,,,MVFR,,,,,,,,,,,,SPECI,269.0
KEQA 281035Z AUTO 00000KT 4SM BR OVC110 09/08 A2983 RMK AO2,KEQA,2023-04-28T10:35:00Z,37.78,-96.82,9.0,8.0,0,0,,4.0,29.828741,,,TRUE,TRUE,,,,,,BR,OVC,11000,,,,,,,MVFR,,,,,,,,,,,,METAR,422.0
KEMV 281035Z AUTO 06008KT 10SM -RA OVC007 14/14 A2986 RMK AO2 P0001 T01410138 TSNO,KEMV,2023-04-28T10:35:00Z,36.68,-77.48,14.1,13.8,60,8,,10.0,29.861221,,,TRUE,TRUE,,,TRUE,,,-RA,OVC,700,,,,,,,IFR,,,,,,0.01,,,,,,METAR,35.0
KELO 281035Z AUTO 00000KT 10SM BKN060 OVC090 02/01 A2993 RMK AO2,KELO,2023-04-28T10:35:00Z,47.82,-91.83,2.0,1.0,0,0,,10.0,29.929134,,,TRUE,TRUE,,,,,,,BKN,6000,OVC,9000,,,,,VFR,,,,,,,,,,,,METAR,438.0
KELK 281035Z AUTO 06004KT 10SM BKN140 09/09 A2982 RMK AO2 SLP386 T00940094 $,KELK,2023-04-28T10:35:00Z,35.43,-99.4,9.4,9.4,60,4,,10.0,29.819881,1038.6,,TRUE,TRUE,TRUE,,,,,,BKN,14000,,,,,,,VFR,,,,,,,,,,,,METAR,603.0
KEKX 281035Z AUTO 00000KT 10SM SCT005 SCT012 OVC031 14/14 A2969 RMK AO2 LTG DSNT SE AND S T01350135,KEKX,2023-04-28T10:35:00Z,37.68,-85.92,13.5,13.5,0,0,,10.0,29.68996,,,TRUE,TRUE,,,,,,,SCT,500,SCT,1200,OVC,3100,,,VFR,,,,,,,,,,,,METAR,234.0
KEKM 281035Z 07005KT 10SM BKN070 08/02 A2983 RMK AO2 T00830019 $,KEKM,2023-04-28T10:35:00Z,41.72,-86.0,8.3,1.9,70,5,,10.0,29.828741,,,,TRUE,TRUE,,,,,,BKN,7000,,,,,,,VFR,,,,,,,,,,,,METAR,236.0
KEFT 281035Z AUTO 09005KT 10SM CLR 07/M01 A2982 RMK AO2 T00681006,KEFT,2023-04-28T10:35:00Z,42.62,-89.6,6.8,-0.6,90,5,,10.0,29.819881,,,TRUE,TRUE,,,,,,,CLR,,,,,,,,VFR,,,,,,,,,,,,SPECI,332.0
KEFK 281035Z AUTO 22003KT 10SM CLR 00/00 A3023 RMK AO2 T10011005,KEFK,2023-04-28T10:35:00Z,44.88,-72.23,-0.1,-0.5,220,3,,10.0,30.230314,,,TRUE,TRUE,,,,,,,CLR,,,,,,,,VFR,,,,,,,,,,,,METAR,282.0
KEDJ 281035Z AUTO 08009G15KT 2 1/2SM BR 09/09 A2971 RMK A01 P0001,KEDJ,2023-04-28T10:35:00Z,40.37,-83.82,9.0,9.0,80,9,15,2.5,29.71063,,,TRUE,TRUE,,,,,,BR,,,,,,,,,,,,,,,0.01,,,,,,METAR,341.0
KDYT 281035Z AUTO 06014KT 4SM UP BR OVC008 03/03 A2992 RMK AO2,KDYT,2023-04-28T10:35:00Z,46.72,-92.03,3.0,3.0,60,14,,4.0,29.920275,,,TRUE,TRUE,,,,,,BR UP,OVC,800,,,,,,,IFR,,,,,,,,,,,,METAR,185.0
KDYB 281035Z AUTO 22004KT 4SM BR FEW011 BKN022 OVC035 19/19 A2977 RMK AO2,KDYB,2023-04-28T10:35:00Z,33.07,-80.28,19.0,19.0,220,4,,4.0,29.769686,,,TRUE,TRUE,,,,,,BR,FEW,1100,BKN,2200,OVC,3500,,,MVFR,,,,,,,,,,,,METAR,15.0
KDYA 281035Z AUTO 00000KT 7SM SCT009 A2976 RMK AO2,KDYA,2023-04-28T10:35:00Z,32.47,-87.95,,,0,0,,7.0,29.760826,,,TRUE,TRUE,,,,,,,SCT,900,,,,,,,VFR,,,,,,,,,,,,METAR,33.0
KDXX 281035Z AUTO 35020G25KT 10SM RA SCT018 BKN025 OVC050 08/06 A2990 RMK AO2 P0001,KDXX,2023-04-28T10:35:00Z,44.98,-96.18,8.0,6.0,350,20,25,10.0,29.899607,,,TRUE,TRUE,,,,,,RA,SCT,1800,BKN,2500,OVC,5000,,,MVFR,,,,,,0.01,,,,,,SPECI,327.0
KDUH 281035Z AUTO 00000KT 10SM DZ SCT050 OVC070 07/05 A2983 RMK AO2 T00700045,KDUH,2023-04-28T10:35:00Z,41.73,-83.65,7.0,4.5,0,0,,10.0,29.828741,,,TRUE,TRUE,,,,,,DZ,SCT,5000,OVC,7000,,,,,VFR,,,,,,,,,,,,METAR,203.0
KDTL 281035Z AUTO 33009KT 10SM OVC060 04/03 A2994 RMK AO2,KDTL,2023-04-28T10:35:00Z,46.82,-95.88,4.0,3.0,330,9,,10.0,29.940945,,,TRUE,TRUE,,,,,,,OVC,6000,,,,,,,VFR,,,,,,,,,,,,METAR,425.0
KDRM 281035Z AUTO 00000KT 10SM OVC100 06/01 A2998 RMK AO2 T00600009,KDRM,2023-04-28T10:35:00Z,46.0,-83.75,6.0,0.9,0,0,,10.0,29.97933,,,TRUE,TRUE,,,,,,,OVC,10000,,,,,,,VFR,,,,,,,,,,,,SPECI,201.0
KDRI 281035Z AUTO 00000KT 9SM CLR 11/11 A2982 RMK AO2 T01120112 $,KDRI,2023-04-28T10:35:00Z,30.83,-93.33,11.2,11.2,0,0,,9.0,29.819881,,,TRUE,TRUE,TRUE,,,,,,CLR,,,,,,,,VFR,,,,,,,,,,,,METAR,59.0
KDNN 281035Z AUTO 13004KT 10SM OVC011 15/15 A2974 RMK AO2 LTG DSNT N T01540151,KDNN,2023-04-28T10:35:00Z,34.72,-84.87,15.4,15.1,130,4,,10.0,29.740158,,,TRUE,TRUE,,,,,,,OVC,1100,,,,,,,MVFR,,,,,,,,,,,,METAR,216.0
KDNA 281035Z AUTO 27009KT 10SM CLR 17/M09 A2988 RMK AO2,KDNA,2023-04-28T10:35:00Z,31.88,-106.7,17.0,-9.0,270,9,,10.0,29.878937,,,TRUE,TRUE,,,,,,,CLR,,,,,,,,VFR,,,,,,,,,,,,METAR,1254.0
KDLO 281035Z AUTO 15003KT 10SM CLR 13/10 A2988 RMK AO2 T01310095,KDLO,2023-04-28T10:35:00Z,35.75,-119.23,13.1,9.5,150,3,,10.0,29.878937,,,TRUE,TRUE,,,,,,,CLR,,,,,,,,VFR,,,,,,,,,,,,METAR,97.0
KDLL 281035Z AUTO 00000KT 10SM CLR 07/00 A2984 RMK AO2 T00670001,KDLL,2023-04-28T10:35:00Z,43.52,-89.77,6.7,0.1,0,0,,10.0,29.840551,,,TRUE,TRUE,,,,,,,CLR,,,,,,,,VFR,,,,,,,,,,,,SPECI,297.0
KDCM 281035Z AUTO 00000KT 7SM -RA BKN004 OVC011 16/16 A2977 RMK AO2 LTG DSNT NW P0004,KDCM,2023-04-28T10:35:00Z,34.78,-81.2,16.0,16.0,0,0,,7.0,29.769686,,,TRUE,TRUE,,,,,,-RA,BKN,400,OVC,1100,,,,,LIFR,,,,,,0.04,,,,,,METAR,191.0
KD95 281035Z AUTO 00000KT 10SM CLR 06/01 A2989 RMK AO2 T00610005,KD95,2023-04-28T10:35:00Z,43.07,-83.27,6.1,0.5,0,0,,10.0,29.890747,,,TRUE,TRUE,,,,,,,CLR,,,,,,,,VFR,,,,,,,,,,,,SPECI,253.0
KD60 281035Z AUTO 29005KT 10SM CLR M01/M01 A3010 RMK AO2,KD60,2023-04-28T10:35:00Z,48.38,-102.9,-1.0,-1.0,290,5,,10.0,30.100393,,,TRUE,TRUE,,,,,,,CLR,,,,,,,,VFR,,,,,,,,,,,,METAR,682.0
KD57 281035Z AUTO 31007KT 10SM FEW060 OVC080 03/M00 A3007 RMK AO2,KD57,2023-04-28T10:35:00Z,46.82,-101.87,3.0,0.0,310,7,,10.0,30.070866,,,TRUE,TRUE,,,,,,,FEW,6000,OVC,8000,,,,,VFR,,,,,,,,,,,,METAR,636.0
KD55 281035Z AUTO 33009KT 10SM BKN020 OVC024 01/01 A3002 RMK AO2,KD55,2023-04-28T10:35:00Z,48.75,-98.4,1.0,1.0,330,9,,10.0,30.02067,,,TRUE,TRUE,,,,,,,BKN,2000,OVC,2400,,,,,MVFR,,,,,,,,,,,,SPECI,488.0
KD50 281035Z AUTO 29008KT 10SM SCT055 OVC065 03/02 A3009 RMK AO2,KD50,2023-04-28T10:35:00Z,48.93,-103.3,3.0,2.0,290,8,,10.0,30.088583,,,TRUE,TRUE,,,,,,,SCT,5500,OVC,6500,,,,,VFR,,,,,,,,,,,,SPECI,591.0
KD39 281035Z AUTO 36008KT 10SM OVC005 06/06 A2987 RMK AO2 T00610061,KD39,2023-04-28T10:35:00Z,45.7,-94.93,6.1,6.1,360,8,,10.0,29.870079,,,TRUE,TRUE,,,,,,,OVC,500,,,,,,,IFR,,,,,,,,,,,,METAR,378.0
KD25 281035Z AUTO 07004KT 10SM RA SCT005 OVC065 05/05 A2986 RMK AO2 T00520052,KD25,2023-04-28T10:35:00Z,46.12,-89.88,5.2,5.2,70,4,,10.0,29.861221,,,TRUE,TRUE,,,,,,RA,SCT,500,OVC,6500,,,,,VFR,,,,,,,,,,,,METAR,490.0
KCWA 281035Z AUTO 09005KT 10SM OVC085 06/01 A2986 RMK AO2,KCWA,2023-04-28T10:35:00Z,44.78,-89.67,6.0,1.0,90,5,,10.0,29.861221,,,TRUE,TRUE,,,,,,,OVC,8500,,,,,,,VFR,,,,,,,,,,,,SPECI,387.0
KCVX 281035Z AUTO 00000KT 10SM CLR 04/01 A2994 RMK AO2 T00410005,KCVX,2023-04-28T10:35:00Z,45.3,-85.27,4.1,0.5,0,0,,10.0,29.940945,,,TRUE,TRUE,,,,,,,CLR,,,,,,,,VFR,,,,,,,,,,,,METAR,196.0
KCVH 281035Z AUTO 00000KT 1/2SM FG OVC001 10/09 A2994 RMK A01,KCVH,2023-04-28T10:35:00Z,36.9,-121.42,10.0,9.0,0,0,,0.5,29.940945,,,TRUE,TRUE,,,,,,FG,OVC,100,,,,,,,LIFR,,,,,,,,,,,,METAR,68.0
KCQW 281035Z AUTO 00000KT 6SM -RA BKN010 OVC018 19/18 A2977 RMK AO2,KCQW,2023-04-28T10:35:00Z,34.72,-79.95,19.0,18.0,0,0,,6.0,29.769686,,,TRUE,TRUE,,,,,,-RA,BKN,1000,OVC,1800,,,,,MVFR,,,,,,,,,,,,METAR,67.0
KCQM 281035Z AUTO 00000KT 10SM SCT070 04/01 A2992 RMK AO2,KCQM,2023-04-28T10:35:00Z,47.82,-92.68,4.0,1.0,0,0,,10.0,29.920275,,,TRUE,TRUE,,,,,,,SCT,7000,,,,,,,VFR,,,,,,,,,,,,METAR,406.0
KCPT 281035Z AUTO 10005KT 10SM CLR 11/11 A2979 RMK A01,KCPT,2023-04-28T10:35:00Z,32.35,-97.43,11.0,11.0,100,5,,10.0,29.790354,,,TRUE,TRUE,,,,,,,CLR,,,,,,,,VFR,,,,,,,,,,,,METAR,260.0
KCPK 281035Z AUTO 09010G15KT 5SM SCT006 SCT042 BKN065 15/14 A2989 RMK AO2 P0008 T01470137,KCPK,2023-04-28T10:35:00Z,36.67,-76.32,14.7,13.7,90,10,15,5.0,29.890747,,,TRUE,TRUE,,,,,,,SCT,600,SCT,4200,BKN,6500,,,MVFR,,,,,,0.08,,,,,,SPECI,4.0
KCPF 281035Z AUTO 00000KT 10SM BKN026 OVC036 12/12 A2973 RMK AO2,KCPF,2023-04-28T10:35:00Z,37.38,-83.27,12.0,12.0,0,0,,10.0,29.731298,,,TRUE,TRUE,,,,,,,BKN,2600,OVC,3600,,,,,MVFR,,,,,,,,,,,,METAR,382.0
KCOQ 281035Z AUTO 09006KT 7SM OVC005 04/04 A2987 RMK AO2 TSNO,KCOQ,2023-04-28T10:35:00Z,46.7,-92.5,4.0,4.0,90,6,,7.0,29.870079,,,TRUE,TRUE,,,TRUE,,,,OVC,500,,,,,,,IFR,,,,,,,,,,,,SPECI,390.0
KCNB 281035Z AUTO 34014G20KT 10SM OVC005 07/06 A2989 RMK AO2 T00680058,KCNB,2023-04-28T10:35:00Z,44.73,-96.27,6.8,5.8,340,14,20,10.0,29.890747,,,TRUE,TRUE,,,,,,,OVC,500,,,,,,,IFR,,,,,,,,,,,,SPECI,363.0
KCMR 281035Z AUTO 16006KT 10SM CLR 03/M04 A3012 RMK AO2,KCMR,2023-04-28T10:35:00Z,35.3,-112.2,3.0,-4.0,160,6,,10.0,30.121063,,,TRUE,TRUE,,,,,,,CLR,,,,,,,,VFR,,,,,,,,,,,,METAR,2039.0
KCLS 281035Z AUTO 00000KT 10SM CLR 09/08 A3007 RMK AO2,KCLS,2023-04-28T10:35:00Z,46.68,-122.98,9.0,8.0,0,0,,10.0,30.070866,,,TRUE,TRUE,,,,,,,CLR,,,,,,,,VFR,,,,,,,,,,,,METAR,52.0
KCLK 281035Z AUTO 00000KT 10SM BKN120 08/08 A2986 RMK AO2,KCLK,2023-04-28T10:35:00Z,35.53,-98.93,8.0,8.0,0,0,,10.0,29.861221,,,TRUE,TRUE,,,,,,,BKN,12000,,,,,,,VFR,,,,,,,,,,,,SPECI,489.0
KCLI 281035Z AUTO 02004KT 10SM CLR 05/02 A2989 RMK AO2 T00510016,KCLI,2023-04-28T10:35:00Z,44.62,-88.73,5.1,1.6,20,4,,10.0,29.890747,,,TRUE,TRUE,,,,,,,CLR,,,,,,,,VFR,,,,,,,,,,,,METAR,248.0
KCKZ 281035Z AUTO 08007KT 9SM OVC006 08/08 A3013 RMK AO2,KCKZ,2023-04-28T10:35:00Z,40.38,-75.28,8.0,8.0,80,7,,9.0,30.129921,,,TRUE,TRUE,,,,,,,OVC,600,,,,,,,IFR,,,,,,,,,,,,METAR,160.0
KCKM 281035Z AUTO 32008KT 10SM OVC010 15/15 A2976 RMK A01,KCKM,2023-04-28T10:35:00Z,34.3,-90.52,15.0,15.0,320,8,,10.0,29.760826,,,TRUE,TRUE,,,,,,,OVC,1000,,,,,,,MVFR,,,,,,,,,,,,METAR,52.0
KCKI 281035Z AUTO 00000KT 10SM BKN012 OVC019 18/17 A2977 RMK AO2 P0001,KCKI,2023-04-28T10:35:00Z,33.72,-79.85,18.0,17.0,0,0,,10.0,29.769686,,,TRUE,TRUE,,,,,,,BKN,1200,OVC,1900,,,,,MVFR,,,,,,0.01,,,,,,METAR,19.0
KCIC 281035Z AUTO 34005KT 10SM CLR 18/09 A2988 RMK AO1,KCIC,2023-04-28T10:35:00Z,39.78,-121.85,18.0,9.0,340,5,,10.0,29.878937,,,TRUE,TRUE,,,,,,,CLR,,,,,,,,VFR,,,,,,,,,,,,METAR,72.0
KCGC 281035Z AUTO 00000KT 10SM CLR 19/18 A2986 RMK AO2,KCGC,2023-04-28T10:35:00Z,28.87,-82.57,19.0,18.0,0,0,,10.0,29.861221,,,TRUE,TRUE,,,,,,,CLR,,,,,,,,VFR,,,,,,,,,,,,METAR,3.0
KCFS 281035Z AUTO 07004KT 10SM CLR 06/00 A2990 RMK AO2 T00590001,KCFS,2023-04-28T10:35:00Z,43.47,-83.45,5.9,0.1,70,4,,10.0,29.899607,,,TRUE,TRUE,,,,,,,CLR,,,,,,,,VFR,,,,,,,,,,,,METAR,214.0
KCFJ 281035Z AUTO 36007KT 10SM BKN021 BKN033 OVC055 07/04 A2975 RMK AO2 T00700038,KCFJ,2023-04-28T10:35:00Z,39.98,-86.92,7.0,3.8,360,7,,10.0,29.749016,,,TRUE,TRUE,,,,,,,BKN,2100,BKN,3300,OVC,5500,,,MVFR,,,,,,,,,,,,METAR,243.0
KCFE 281035Z AUTO 01007KT 5SM UP BR BKN005 BKN008 OVC029 08/08 A2982 RMK AO2,KCFE,2023-04-28T10:35:00Z,45.17,-93.85,8.0,8.0,10,7,,5.0,29.819881,,,TRUE,TRUE,,,,,,BR UP,BKN,500,BKN,800,OVC,2900,,,IFR,,,,,,,,,,,,METAR,292.0
KCEY 281035Z AUTO 29005KT 4SM BR OVC003 13/13 A2971 RMK A01,KCEY,2023-04-28T10:35:00Z,36.67,-88.37,13.0,13.0,290,5,,4.0,29.71063,,,TRUE,TRUE,,,,,,BR,OVC,300,,,,,,,LIFR,,,,,,,,,,,,METAR,172.0
KCDN 281035Z AUTO 00000KT 6SM BR OVC006 18/18 A2977 RMK AO2,KCDN,2023-04-28T10:35:00Z,34.28,-80.57,18.0,18.0,0,0,,6.0,29.769686,,,TRUE,TRUE,,,,,,BR,OVC,600,,,,,,,IFR,,,,,,,,,,,,METAR,90.0
KCDI 281035Z AUTO 06007KT 4SM +RA SCT012 BKN039 OVC045 12/12 A2979 RMK AO2 T01230115,KCDI,2023-04-28T10:35:00Z,39.97,-81.58,12.3,11.5,60,7,,4.0,29.790354,,,TRUE,TRUE,,,,,,+RA,SCT,1200,BKN,3900,OVC,4500,,,MVFR,,,,,,,,,,,,SPECI,241.0
KCDA 281035Z AUTO 00000KT 10SM M01/M01 A3023 RMK AO2 T10061010,KCDA,2023-04-28T10:35:00Z,44.57,-72.02,-0.6,-1.0,0,0,,10.0,30.230314,,,TRUE,TRUE,,,,,,,,,,,,,,,,,,,,,,,,,,,SPECI,357.0
KCCA 281035Z AUTO 00000KT 10SM OVC028 11/11 A2978 RMK AO2,KCCA,2023-04-28T10:35:00Z,35.6,-92.45,11.0,11.0,0,0,,10.0,29.778543,,,TRUE,TRUE,,,,,,,OVC,2800,,,,,,,MVFR,,,,,,,,,,,,METAR,152.0
KCBG 281035Z AUTO 36004KT 10SM -DZ OVC005 08/02 A2984 RMK AO2,KCBG,2023-04-28T10:35:00Z,45.57,-93.27,8.0,2.0,360,4,,10.0,29.840551,,,TRUE,TRUE,,,,,,-DZ,OVC,500,,,,,,,IFR,,,,,,,,,,,,SPECI,285.0
KCAD 281035Z AUTO 00000KT 10SM CLR M01/M03 A2991 RMK AO2 T10151028,KCAD,2023-04-28T10:35:00Z,44.27,-85.42,-1.5,-2.8,0,0,,10.0,29.911417,,,TRUE,TRUE,,,,,,,CLR,,,,,,,,VFR,,,,,,,,,,,,METAR,397.0
KC62 281035Z AUTO 04006KT 7SM -RA OVC065 06/06 A2981 RMK AO2 P0001 T00650062,KC62,2023-04-28T10:35:00Z,41.47,-85.25,6.5,6.2,40,6,,7.0,29.811024,,,TRUE,TRUE,,,,,,-RA,OVC,6500,,,,,,,VFR,,,,,,0.01,,,,,,SPECI,304.0
KC35 281035Z AUTO 00000KT 10SM CLR 05/00 A2984 RMK AO2 T00541001 PWINO,KC35,2023-04-28T10:35:00Z,43.53,-89.98,5.4,-0.1,0,0,,10.0,29.840551,,,TRUE,TRUE,,,,,TRUE,,CLR,,,,,,,,VFR,,,,,,,,,,,,SPECI,272.0
KC29 281035Z AUTO 00000KT 10SM CLR 01/01 A2984 RMK AO1 T00140006,KC29,2023-04-28T10:35:00Z,43.12,-89.53,1.4,0.6,0,0,,10.0,29.840551,,,TRUE,TRUE,,,,,,,CLR,,,,,,,,VFR,,,,,,,,,,,,METAR,282.0
KBXK 281035Z AUTO 32004KT 10SM CLR 15/M08 A2981 RMK A01,KBXK,2023-04-28T10:35:00Z,33.42,-112.68,15.0,-8.0,320,4,,10.0,29.811024,,,TRUE,TRUE,,,,,,,CLR,,,,,,,,VFR,,,,,,,,,,,,METAR,303.0
KBWW 281035Z AUTO 31009KT 10SM FEW065 OVC075 05/02 A3010 RMK AO2,KBWW,2023-04-28T10:35:00Z,46.17,-103.3,5.0,2.0,310,9,,10.0,30.100393,,,TRUE,TRUE,,,,,,,FEW,6500,OVC,7500,,,,,VFR,,,,,,,,,,,,METAR,911.0
KBVU 281035Z AUTO 35010KT 10SM CLR 23/M07 A2990 RMK AO2,KBVU,2023-04-28T10:35:00Z,35.95,-114.87,23.0,-7.0,350,10,,10.0,29.899607,,,TRUE,TRUE,,,,,,,CLR,,,,,,,,VFR,,,,,,,,,,,,METAR,654.0
KBVI 281035Z AUTO 11004KT 7SM RA SCT021 SCT055 OVC065 13/11 A2986 RMK AO2 T01340105,KBVI,2023-04-28T10:35:00Z,40.77,-80.37,13.4,10.5,110,4,,7.0,29.861221,,,TRUE,TRUE,,,,,,RA,SCT,2100,SCT,5500,OVC,6500,,,VFR,,,,,,,,,,,,METAR,387.0
KBUU 281035Z AUTO 00000KT 10SM CLR 01/00 A2985 RMK AO2 T00061003 PWINO,KBUU,2023-04-28T10:35:00Z,42.68,-88.3,0.6,-0.3,0,0,,10.0,29.84941,,,TRUE,TRUE,,,,,TRUE,,CLR,,,,,,,,VFR,,,,,,,,,,,,METAR,238.0
KBRY 281035Z AUTO 00000KT 6SM BR SCT008 OVC031 14/14 A2966 RMK AO2 T01440144,KBRY,2023-04-28T10:35:00Z,37.82,-85.5,14.4,14.4,0,0,,6.0,29.660433,,,TRUE,TRUE,,,,,,BR,SCT,800,OVC,3100,,,,,VFR,,,,,,,,,,,,METAR,192.0
KBRG 281035Z AUTO 33009KT 10SM CLR 10/M12 A2993 RMK AO2 T01041119,KBRG,2023-04-28T10:35:00Z,34.65,-106.83,10.4,-11.9,330,9,,10.0,29.929134,,,TRUE,TRUE,,,,,,,CLR,,,,,,,,VFR,,,,,,,,,,,,METAR,1585.0
KBOW 281035Z AUTO 18005KT 10SM CLR 20/19 A2988 RMK AO2,KBOW,2023-04-28T10:35:00Z,27.93,-81.77,20.0,19.0,180,5,,10.0,29.878937,,,TRUE,TRUE,,,,,,,CLR,,,,,,,,VFR,,,,,,,,,,,,METAR,38.0
KBNL 281035Z AUTO 28004KT 10SM FEW006 BKN020 OVC026 19/19 A2979 RMK AO2,KBNL,2023-04-28T10:35:00Z,33.25,-81.38,19.0,19.0,280,4,,10.0,29.790354,,,TRUE,TRUE,,,,,,,FEW,600,BKN,2000,OVC,2600,,,MVFR,,,,,,,,,,,,METAR,76.0
KBKT 281035Z AUTO 08009KT 4SM BR OVC006 12/12 A2985 RMK AO1 P0014 T01210121,KBKT,2023-04-28T10:35:00Z,37.07,-77.95,12.1,12.1,80,9,,4.0,29.84941,,,TRUE,TRUE,,,,,,BR,OVC,600,,,,,,,IFR,,,,,,0.14,,,,,,METAR,134.0
KBKS 281035Z AUTO 20007KT 2SM BR OVC002 20/20 A2978 RMK AO2 SLP045 T02010201 $,KBKS,2023-04-28T10:35:00Z,27.2,-98.12,20.1,20.1,200,7,,2.0,29.778543,1004.5,,TRUE,TRUE,TRUE,,,,,BR,OVC,200,,,,,,,LIFR,,,,,,,,,,,,METAR,34.0
KBKN 281035Z AUTO 31004KT 09/09 A2984 RMK AO2,KBKN,2023-04-28T10:35:00Z,36.75,-97.35,9.0,9.0,310,4,,,29.840551,,,TRUE,TRUE,,,,,,,,,,,,,,,,,,,,,,,,,,,METAR,208.0
KBJI 281035Z AUTO 33004KT 10SM OVC007 04/04 A2993 RMK AO2 T00390037,KBJI,2023-04-28T10:35:00Z,47.5,-94.92,3.9,3.7,330,4,,10.0,29.929134,,,TRUE,TRUE,,,,,,,OVC,700,,,,,,,IFR,,,,,,,,,,,,METAR,422.0
KBFR 281035Z AUTO 36006KT 10SM OVC009 10/08 A2969 RMK AO2 LTG DSNT SE,KBFR,2023-04-28T10:35:00Z,38.83,-86.45,10.0,8.0,360,6,,10.0,29.68996,,,TRUE,TRUE,,,,,,,OVC,900,,,,,,,IFR,,,,,,,,,,,,SPECI,223.0
KBEA 281035Z AUTO 00000KT 1/4SM FG OVC003 15/14 A2979 RMK AO2 T01520144,KBEA,2023-04-28T10:35:00Z,28.37,-97.78,15.2,14.4,0,0,,0.25,29.790354,,,TRUE,TRUE,,,,,,FG,OVC,300,,,,,,,LIFR,,,,,,,,,,,,METAR,83.0
KBDH 281035Z AUTO 02011G15KT 5SM -RA OVC007 09/08 A2987 RMK AO2,KBDH,2023-04-28T10:35:00Z,45.12,-95.13,9.0,8.0,20,11,15,5.0,29.870079,,,TRUE,TRUE,,,,,,-RA,OVC,700,,,,,,,IFR,,,,,,,,,,,,METAR,341.0
KBCK 281035Z AUTO 00000KT 10SM CLR 04/02 A2981 RMK AO2 T00360021,KBCK,2023-04-28T10:35:00Z,44.25,-90.85,3.6,2.1,0,0,,10.0,29.811024,,,TRUE,TRUE,,,,,,,CLR,,,,,,,,VFR,,,,,,,,,,,,METAR,256.0
KBCB 281035Z AUTO 06003KT 10SM -RA BKN008 BKN019 OVC075 12/12 A2984 RMK AO2 P0013 T01170117,KBCB,2023-04-28T10:35:00Z,37.22,-80.42,11.7,11.7,60,3,,10.0,29.840551,,,TRUE,TRUE,,,,,,-RA,BKN,800,BKN,1900,OVC,7500,,,IFR,,,,,,0.13,,,,,,METAR,642.0
KBBG 281035Z AUTO 00000KT 8SM OVC019 10/10 A2980 RMK AO2,KBBG,2023-04-28T10:35:00Z,36.53,-93.2,10.0,10.0,0,0,,8.0,29.799213,,,TRUE,TRUE,,,,,,,OVC,1900,,,,,,,MVFR,,,,,,,,,,,,METAR,403.0
KBAX 281035Z AUTO 09004KT 10SM CLR 05/03 A2992 RMK AO2 T00500025,KBAX,2023-04-28T10:35:00Z,43.78,-82.98,5.0,2.5,90,4,,10.0,29.920275,,,TRUE,TRUE,,,,,,,CLR,,,,,,,,VFR,,,,,,,,,,,,METAR,229.0
KBAC 281035Z AUTO 32007KT 10SM BKN070 BKN080 OVC095 02/02 A3002 RMK AO2,KBAC,2023-04-28T10:35:00Z,46.93,-98.02,2.0,2.0,320,7,,10.0,30.02067,,,TRUE,TRUE,,,,,,,BKN,7000,BKN,8000,OVC,9500,,,VFR,,,,,,,,,,,,METAR,423.0
KAXV 281035Z AUTO 04009KT 5SM -RA OVC010 07/06 A2972 RMK AO2,KAXV,2023-04-28T10:35:00Z,40.5,-84.3,7.0,6.0,40,9,,5.0,29.719488,,,TRUE,TRUE,,,,,,-RA,OVC,1000,,,,,,,MVFR,,,,,,,,,,,,SPECI,278.0
KAVC 281035Z AUTO 00000KT 4SM OVC005 15/14 A2988 RMK AO2 P0015 T01460144,KAVC,2023-04-28T10:35:00Z,36.68,-78.05,14.6,14.4,0,0,,4.0,29.878937,,,TRUE,TRUE,,,,,,,OVC,500,,,,,,,IFR,,,,,,0.15,,,,,,METAR,119.0
KATS 281035Z AUTO 36026G32KT 10SM CLR 16/03 A2985 RMK AO2,KATS,2023-04-28T10:35:00Z,32.85,-104.47,16.0,3.0,360,26,32,10.0,29.84941,,,TRUE,TRUE,,,,,,,CLR,,,,,,,,VFR,,,,,,,,,,,,METAR,1073.0
KATA 281035Z AUTO 00000KT 7SM CLR 08/08 A2978 RMK AO2 SLP985 T00820082 $,KATA,2023-04-28T10:35:00Z,33.1,-94.2,8.2,8.2,0,0,,7.0,29.778543,998.5,,TRUE,TRUE,TRUE,,,,,,CLR,,,,,,,,VFR,,,,,,,,,,,,METAR,85.0
KASL 281035Z AUTO 00000KT 8SM CLR 09/09 A2978 RMK AO2 T00870087 $,KASL,2023-04-28T10:35:00Z,32.52,-94.3,8.7,8.7,0,0,,8.0,29.778543,,,TRUE,TRUE,TRUE,,,,,,CLR,,,,,,,,VFR,,,,,,,,,,,,METAR,104.0
KARW 281035Z AUTO 24006KT 10SM BKN012 BKN017 19/17 A2979 RMK AO2,KARW,2023-04-28T10:35:00Z,32.42,-80.63,19.0,17.0,240,6,,10.0,29.790354,,,TRUE,TRUE,,,,,,,BKN,1200,BKN,1700,,,,,MVFR,,,,,,,,,,,,METAR,2.0
KARV 281035Z AUTO 12008KT 7SM -RA SCT039 SCT046 OVC060 06/05 A2985 RMK AO2 T00570048,KARV,2023-04-28T10:35:00Z,45.92,-89.72,5.7,4.8,120,8,,7.0,29.84941,,,TRUE,TRUE,,,,,,-RA,SCT,3900,SCT,4600,OVC,6000,,,VFR,,,,,,,,,,,,METAR,494.0
KAQX 281035Z AUTO 00000KT 10SM FEW005 FEW012 OVC017 19/18 A2978 RMK AO2,KAQX,2023-04-28T10:35:00Z,32.98,-81.27,19.0,18.0,0,0,,10.0,29.778543,,,TRUE,TRUE,,,,,,,FEW,500,FEW,1200,OVC,1700,,,MVFR,,,,,,,,,,,,METAR,48.0
KANQ 281035Z AUTO 00000KT 7SM -RA FEW034 BKN042 OVC048 06/06 A2981 RMK AO2,KANQ,2023-04-28T10:35:00Z,41.63,-85.08,6.0,6.0,0,0,,7.0,29.811024,,,TRUE,TRUE,,,,,,-RA,FEW,3400,BKN,4200,OVC,4800,,,VFR,,,,,,,,,,,,METAR,299.0
KANE 281035Z AUTO 01004KT 7SM RA OVC030 09/09 A2982 RMK AO2 P0006,KANE,2023-04-28T10:35:00Z,45.15,-93.22,9.0,9.0,10,4,,7.0,29.819881,,,TRUE,TRUE,,,,,,RA,OVC,3000,,,,,,,MVFR,,,,,,0.06,,,,,,SPECI,276.0
KAMN 281035Z AUTO 01003KT 10SM CLR 05/00 A2989 RMK AO2 T00450004,KAMN,2023-04-28T10:35:00Z,43.32,-84.68,4.5,0.4,10,3,,10.0,29.890747,,,TRUE,TRUE,,,,,,,CLR,,,,,,,,VFR,,,,,,,,,,,,SPECI,228.0
KALM 281035Z AUTO 05006KT 10SM FEW039 BKN048 14/M12 A2985 RMK AO2,KALM,2023-04-28T10:35:00Z,32.83,-105.98,14.0,-12.0,50,6,,10.0,29.84941,,,TRUE,TRUE,,,,,,,FEW,3900,BKN,4800,,,,,VFR,,,,,,,,,,,,METAR,1267.0
KAIT 281035Z AUTO 00000KT 10SM OVC009 05/04 A2989 RMK AO2,KAIT,2023-04-28T10:35:00Z,46.53,-93.67,5.0,4.0,0,0,,10.0,29.890747,,,TRUE,TRUE,,,,,,,OVC,900,,,,,,,IFR,,,,,,,,,,,,METAR,367.0
KAIK 281035Z AUTO 23006KT 10SM OVC007 18/18 A2978 RMK AO2 T01830177,KAIK,2023-04-28T10:35:00Z,33.65,-81.68,18.3,17.7,230,6,,10.0,29.778543,,,TRUE,TRUE,,,,,,,OVC,700,,,,,,,IFR,,,,,,,,,,,,METAR,155.0
KAIG 281035Z AUTO 00000KT 10SM SCT070 BKN110 05/01 A2988 RMK AO2 T00460014,KAIG,2023-04-28T10:35:00Z,45.15,-89.12,4.6,1.4,0,0,,10.0,29.878937,,,TRUE,TRUE,,,,,,,SCT,7000,BKN,11000,,,,,VFR,,,,,,,,,,,,METAR,462.0
KAID 281035Z AUTO 32006KT 3SM -RA OVC007 07/05 A2974 RMK AO2 P0015 T00670051,KAID,2023-04-28T10:35:00Z,40.12,-85.62,6.7,5.1,320,6,,3.0,29.740158,,,TRUE,TRUE,,,,,,-RA,OVC,700,,,,,,,IFR,,,,,,0.15,,,,,,SPECI,277.0
KAGO 281035Z AUTO 00000KT 1 3/4SM BR SCT002 10/10 A2977 RMK A01,KAGO,2023-04-28T10:35:00Z,33.23,-93.22,10.0,10.0,0,0,,1.75,29.769686,,,TRUE,TRUE,,,,,,BR,SCT,200,,,,,,,IFR,,,,,,,,,,,,METAR,91.0
KAEG 281035Z AUTO 32008G14KT 10SM CLR 10/M08 A2994 RMK AO2 T00951082,KAEG,2023-04-28T10:35:00Z,35.13,-106.8,9.5,-8.2,320,8,14,10.0,29.940945,,,TRUE,TRUE,,,,,,,CLR,,,,,,,,VFR,,,,,,,,,,,,METAR,1771.0
KACQ 281035Z AUTO 10SM CLR 07/06 A2981 RMK AO2,KACQ,2023-04-28T10:35:00Z,44.07,-93.55,7.0,6.0,,,,10.0,29.811024,,,TRUE,TRUE,,,,,,,CLR,,,,,,,,VFR,,,,,,,,,,,,SPECI,339.0
KACJ 281035Z AUTO 21003KT 2SM BR OVC001 18/18 A2979 RMK AO2 T01780178,KACJ,2023-04-28T10:35:00Z,32.12,-84.18,17.8,17.8,210,3,,2.0,29.790354,,,TRUE,TRUE,,,,,,BR,OVC,100,,,,,,,LIFR,,,,,,,,,,,,METAR,140.0
KACB 281035Z AUTO 00000KT 10SM CLR 01/00 A2995 RMK AO2 T00110003,KACB,2023-04-28T10:35:00Z,44.98,-85.2,1.1,0.3,0,0,,10.0,29.949802,,,TRUE,TRUE,,,,,,,CLR,,,,,,,,VFR,,,,,,,,,,,,SPECI,189.0
K9D7 281035Z AUTO 34007KT 10SM CLR M01/M01 A3006 RMK AO2 TSNO,K9D7,2023-04-28T10:35:00Z,48.48,-99.23,-1.0,-1.0,340,7,,10.0,30.059055,,,TRUE,TRUE,,,TRUE,,,,CLR,,,,,,,,VFR,,,,,,,,,,,,METAR,451.0
K96D 281035Z AUTO 31005KT 10SM OVC011 02/02 A3003 RMK AO2,K96D,2023-04-28T10:35:00Z,48.93,-97.9,2.0,2.0,310,5,,10.0,30.029528,,,TRUE,TRUE,,,,,,,OVC,1100,,,,,,,MVFR,,,,,,,,,,,,METAR,290.0
K8W2 281035Z AUTO 04006KT 7SM OVC020 A2991 RMK AO1 P0003,K8W2,2023-04-28T10:35:00Z,38.65,-78.7,,,40,6,,7.0,29.911417,,,TRUE,TRUE,,,,,,,OVC,2000,,,,,,,MVFR,,,,,,0.03,,,,,,SPECI,295.0
K8B0 281035Z AUTO 00000KT 1 1/4SM BR CLR M02/M02 A3023 RMK AO2,K8B0,2023-04-28T10:35:00Z,44.98,-70.65,-2.0,-2.0,0,0,,1.25,30.230314,,,TRUE,TRUE,,,,,,BR,CLR,,,,,,,,IFR,,,,,,,,,,,,METAR,552.0
K7L2 281035Z AUTO 28003KT 1/4SM FZFG VV002 M00/M00 A3007 RMK AO2,K7L2,2023-04-28T10:35:00Z,46.22,-100.25,0.0,0.0,280,3,,0.25,30.070866,,,TRUE,TRUE,,,,,,FZFG,OVX,0,,,,,,,LIFR,,,,,,,,,,,200,METAR,541.0
K77S 281035Z AUTO 00000KT 1 1/4SM BR CLR 09/09 A2994 RMK A01,K77S,2023-04-28T10:35:00Z,43.93,-123.0,9.0,9.0,0,0,,1.25,29.940945,,,TRUE,TRUE,,,,,,BR,CLR,,,,,,,,IFR,,,,,,,,,,,,METAR,161.0
K6S2 281035Z AUTO 00000KT 10SM CLR 07/07 A2992 RMK AO2,K6S2,2023-04-28T10:35:00Z,43.98,-124.12,7.0,7.0,0,0,,10.0,29.920275,,,TRUE,TRUE,,,,,,,CLR,,,,,,,,VFR,,,,,,,,,,,,METAR,16.0
K6L4 281035Z AUTO 21005KT 10SM OVC035 14/14 A2973 RMK AO2,K6L4,2023-04-28T10:35:00Z,37.85,-81.92,14.0,14.0,210,5,,10.0,29.731298,,,TRUE,TRUE,,,,,,,OVC,3500,,,,,,,VFR,,,,,,,,,,,,SPECI,504.0
K6B9 281035Z AUTO 12008G15KT 9SM CLR 08/08 A3009 RMK AO2,K6B9,2023-04-28T10:35:00Z,42.92,-76.43,8.0,8.0,120,8,15,9.0,30.088583,,,TRUE,TRUE,,,,,,,CLR,,,,,,,,VFR,,,,,,,,,,,,METAR,306.0
K6B0 281035Z AUTO 00000KT 10SM CLR 00/00 A3021 RMK AO2 T10011003,K6B0,2023-04-28T10:35:00Z,43.98,-73.1,-0.1,-0.3,0,0,,10.0,30.209646,,,TRUE,TRUE,,,,,,,CLR,,,,,,,,VFR,,,,,,,,,,,,METAR,149.0
K5H4 281035Z AUTO 00000KT 10SM SCT018 BKN095 02/M09 A3007 RMK AO2,K5H4,2023-04-28T10:35:00Z,47.78,-99.93,2.0,-9.0,0,0,,10.0,30.070866,,,TRUE,TRUE,,,,,,,SCT,1800,BKN,9500,,,,,VFR,,,,,,,,,,,,METAR,490.0
K57C 281035Z AUTO 00000KT 7SM CLR 01/01 A2985 RMK AO2 T00060006,K57C,2023-04-28T10:35:00Z,42.8,-88.37,0.6,0.6,0,0,,7.0,29.84941,,,TRUE,TRUE,,,,,,,CLR,,,,,,,,VFR,,,,,,,,,,,,SPECI,454.0
K54J 281035Z AUTO 00000KT 5SM BR CLR 19/18 A2979 RMK AO2 T01850181,K54J,2023-04-28T10:35:00Z,30.73,-86.15,18.5,18.1,0,0,,5.0,29.790354,,,TRUE,TRUE,,,,,,BR,CLR,,,,,,,,MVFR,,,,,,,,,,,,METAR,87.0
K4R5 281035Z AUTO 02005KT 5SM DZ OVC030 03/03 A2992 RMK AO2 P0002 T00300030,K4R5,2023-04-28T10:35:00Z,46.78,-90.77,3.0,3.0,20,5,,5.0,29.920275,,,TRUE,TRUE,,,,,,DZ,OVC,3000,,,,,,,MVFR,,,,,,0.02,,,,,,SPECI,195.0
K4M9 281035Z AUTO 34005KT 5SM BR OVC010 13/13 A2975 RMK AO2 PWINO,K4M9,2023-04-28T10:35:00Z,36.4,-90.65,13.0,13.0,340,5,,5.0,29.749016,,,TRUE,TRUE,,,,,TRUE,BR,OVC,1000,,,,,,,MVFR,,,,,,,,,,,,METAR,86.0
K4I3 281035Z AUTO 09009G17KT 5SM +RA BKN006 OVC011 11/11 A2976 RMK AO2 P0004,K4I3,2023-04-28T10:35:00Z,40.33,-82.53,11.0,11.0,90,9,17,5.0,29.760826,,,TRUE,TRUE,,,,,,+RA,BKN,600,OVC,1100,,,,,IFR,,,,,,0.04,,,,,,SPECI,361.0
K4A6 281035Z AUTO 00000KT 9SM SCT015 BKN022 OVC070 17/17 A2971 RMK AO2 LTG DSNT NE,K4A6,2023-04-28T10:35:00Z,34.68,-86.0,17.0,17.0,0,0,,9.0,29.71063,,,TRUE,TRUE,,,,,,,SCT,1500,BKN,2200,OVC,7000,,,MVFR,,,,,,,,,,,,METAR,191.0
K46D 281035Z AUTO 34006KT 10SM BKN023 OVC095 03/02 A3006 RMK AO2,K46D,2023-04-28T10:35:00Z,47.45,-99.15,3.0,2.0,340,6,,10.0,30.059055,,,TRUE,TRUE,,,,,,,BKN,2300,OVC,9500,,,,,MVFR,,,,,,,,,,,,METAR,488.0
K42J 281035Z AUTO 13004KT 10SM FEW019 SCT027 SCT033 17/17 A2984 RMK A01,K42J,2023-04-28T10:35:00Z,29.85,-82.05,17.0,17.0,130,4,,10.0,29.840551,,,TRUE,TRUE,,,,,,,FEW,1900,SCT,2700,SCT,3300,,,VFR,,,,,,,,,,,,METAR,57.0
K41U 281035Z AUTO 06005KT 10SM CLR 03/M03 A3020 RMK AO1 T00251032,K41U,2023-04-28T10:35:00Z,39.33,-111.6,2.5,-3.2,60,5,,10.0,30.200787,,,TRUE,TRUE,,,,,,,CLR,,,,,,,,VFR,,,,,,,,,,,,METAR,1676.0
K3T5 281035Z AUTO 00000KT 10SM CLR 15/15 A2976 RMK AO2 T01520152 $,K3T5,2023-04-28T10:35:00Z,29.9,-96.95,15.2,15.2,0,0,,10.0,29.760826,,,TRUE,TRUE,TRUE,,,,,,CLR,,,,,,,,VFR,,,,,,,,,,,,METAR,96.0
K3R7 281035Z AUTO 00000KT 10SM CLR 14/14 A2982 RMK AO2 T01400140,K3R7,2023-04-28T10:35:00Z,30.25,-92.67,14.0,14.0,0,0,,10.0,29.819881,,,TRUE,TRUE,,,,,,,CLR,,,,,,,,VFR,,,,,,,,,,,,SPECI,5.0
K3N8 281035Z AUTO 34010KT 10SM OVC080 04/03 A2995 RMK AO2 T00350028,K3N8,2023-04-28T10:35:00Z,47.25,-95.92,3.5,2.8,340,10,,10.0,29.949802,,,TRUE,TRUE,,,,,,,OVC,8000,,,,,,,VFR,,,,,,,,,,,,METAR,379.0
K35A 281035Z AUTO 00000KT 7SM -RA BKN008 OVC013 15/15 A2981 RMK A02 P0008 T01550152,K35A,2023-04-28T10:35:00Z,34.68,-81.63,15.5,15.2,0,0,,7.0,29.811024,,,TRUE,TRUE,,,,,,-RA,BKN,800,OVC,1300,,,,,IFR,,,,,,0.08,,,,,,SPECI,186.0
K2J9 281035Z AUTO 00000KT 7SM OVC005 20/20 A2980 RMK AO2,K2J9,2023-04-28T10:35:00Z,30.6,-84.55,20.0,20.0,0,0,,7.0,29.799213,,,TRUE,TRUE,,,,,,,OVC,500,,,,,,,IFR,,,,,,,,,,,,METAR,62.0
K2D5 281035Z AUTO 33012KT 10SM BKN060 OVC075 03/03 A3001 RMK AO2,K2D5,2023-04-28T10:35:00Z,46.17,-98.08,3.0,3.0,330,12,,10.0,30.008858,,,TRUE,TRUE,,,,,,,BKN,6000,OVC,7500,,,,,VFR,,,,,,,,,,,,METAR,407.0
K2C8 281035Z AUTO 32008KT 10SM CLR 02/02 A3002 RMK AO2,K2C8,2023-04-28T10:35:00Z,48.78,-97.63,2.0,2.0,320,8,,10.0,30.02067,,,TRUE,TRUE,,,,,,,CLR,,,,,,,,VFR,,,,,,,,,,,,SPECI,271.0
K24J 281035Z AUTO 00000KT 3SM BR BKN003 OVC018 17/17 A2983 RMK A01,K24J,2023-04-28T10:35:00Z,30.3,-83.03,17.0,17.0,0,0,,3.0,29.828741,,,TRUE,TRUE,,,,,,BR,BKN,300,OVC,1800,,,,,LIFR,,,,,,,,,,,,METAR,30.0
K22N 281035Z AUTO 04004KT 10SM OVC012 08/06 A3014 RMK AO2,K22N,2023-04-28T10:35:00Z,40.8,-75.77,8.0,6.0,40,4,,10.0,30.138779,,,TRUE,TRUE,,,,,,,OVC,1200,,,,,,,MVFR,,,,,,,,,,,,SPECI,159.0
K21D 281035Z AUTO 01004KT 10SM BKN065 OVC090 08/07 A2982 RMK AO2,K21D,2023-04-28T10:35:00Z,45.0,-92.85,8.0,7.0,10,4,,10.0,29.819881,,,TRUE,TRUE,,,,,,,BKN,6500,OVC,9000,,,,,VFR,,,,,,,,,,,,SPECI,281.0
K20U 281035Z AUTO 29007KT 10SM OVC055 05/01 A3012 RMK AO2,K20U,2023-04-28T10:35:00Z,46.93,-103.98,5.0,1.0,290,7,,10.0,30.121063,,,TRUE,TRUE,,,,,,,OVC,5500,,,,,,,VFR,,,,,,,,,,,,SPECI,839.0
K1S5 281035Z AUTO 00000KT 10SM CLR 04/02 A3015 RMK AO2 T00430018,K1S5,2023-04-28T10:35:00Z,46.33,-119.97,4.3,1.8,0,0,,10.0,30.15059,,,TRUE,TRUE,,,,,,,CLR,,,,,,,,VFR,,,,,,,,,,,,METAR,228.0
K1R7 281035Z AUTO 00000KT 10SM FEW044 14/14 A2981 RMK AO2 PWINO,K1R7,2023-04-28T10:35:00Z,31.6,-90.42,14.0,14.0,0,0,,10.0,29.811024,,,TRUE,TRUE,,,,,TRUE,,FEW,4400,,,,,,,VFR,,,,,,,,,,,,METAR,142.0
K1P1 281035Z AUTO 00000KT M1/4SM FZFG OVC002 00/00 A3026 RMK AO2 T10051005,K1P1,2023-04-28T10:35:00Z,43.78,-71.75,-0.5,-0.5,0,0,,0.25,30.259842,,,TRUE,TRUE,,,,,,FZFG,OVC,200,,,,,,,LIFR,,,,,,,,,,,,SPECI,155.0
K15M 281035Z AUTO 00000KT 9SM OVC003 15/15 A2972 RMK AO2 T01530153 $,K15M,2023-04-28T10:35:00Z,34.77,-88.17,15.3,15.3,0,0,,9.0,29.719488,,,TRUE,TRUE,TRUE,,,,,,OVC,300,,,,,,,LIFR,,,,,,,,,,,,METAR,192.0
K14Y 281035Z AUTO 01004KT 10SM BKN005 OVC009 05/05 A2989 RMK AO2,K14Y,2023-04-28T10:35:00Z,45.9,-94.87,5.0,5.0,10,4,,10.0,29.890747,,,TRUE,TRUE,,,,,,,BKN,500,OVC,900,,,,,IFR,,,,,,,,,,,,SPECI,404.0
K10G 281035Z AUTO 07009KT 7SM DZ BKN060 OVC075 11/10 A2979 RMK AO2 P0002,K10G,2023-04-28T10:35:00Z,40.53,-81.95,11.0,10.0,70,9,,7.0,29.790354,,,TRUE,TRUE,,,,,,DZ,BKN,6000,OVC,7500,,,,,VFR,,,,,,0.02,,,,,,SPECI,371.0
K0VG 281035Z AUTO 00000KT 10SM OVC020 13/13 A2975 RMK AO2,K0VG,2023-04-28T10:35:00Z,36.65,-83.22,13.0,13.0,0,0,,10.0,29.749016,,,TRUE,TRUE,,,,,,,OVC,2000,,,,,,,MVFR,,,,,,,,,,,,METAR,426.0
K0V4 281035Z AUTO 09008KT 5SM OVC005 13/13 A2981 RMK AO1,K0V4,2023-04-28T10:35:00Z,37.15,-79.02,13.0,13.0,90,8,,5.0,29.811024,,,TRUE,TRUE,,,,,,,OVC,500,,,,,,,IFR,,,,,,,,,,,,SPECI,186.0
K0S9 281035Z AUTO 00000KT 8SM OVC065 06/05 A3011 RMK AO2,K0S9,2023-04-28T10:35:00Z,48.05,-122.82,6.0,5.0,0,0,,8.0,30.109253,,,TRUE,TRUE,,,,,,,OVC,6500,,,,,,,VFR,,,,,,,,,,,,METAR,33.0
K0E0 281035Z AUTO 08011G15KT 10SM CLR 06/00 A2998 RMK AO2 T00610000,K0E0,2023-04-28T10:35:00Z,34.98,-106.0,6.1,0.0,80,11,15,10.0,29.97933,,,TRUE,TRUE,,,,,,,CLR,,,,,,,,VFR,,,,,,,,,,,,METAR,1887.0
K08D 281035Z AUTO 32008KT 10SM BKN070 BKN080 00/00 A3008 RMK AO2,K08D,2023-04-28T10:35:00Z,48.3,-102.4,0.0,0.0,320,8,,10.0,30.079725,,,TRUE,TRUE,,,,,,,BKN,7000,BKN,8000,,,,,VFR,,,,,,,,,,,,METAR,683.0
K06D 281035Z AUTO 33009KT 10SM CLR M00/M00 A3005 RMK AO2 PWINO,K06D,2023-04-28T10:35:00Z,48.88,-99.62,0.0,0.0,330,9,,10.0,30.050198,,,TRUE,TRUE,,,,,TRUE,,CLR,,,,,,,,VFR,,,,,,,,,,,,METAR,554.0
CYYR 281035Z 03008KT 12SM BKN015 M00/M04 A3031 RMK SC7 DENSITY ALT -2106FT SH DIST S-NW SLP268,CYYR,2023-04-28T10:35:00Z,53.32,-60.42,0.0,-4.0,30,8,,12.0,30.31004,1026.8,,,,,,,,,,BKN,1500,,,,,,,MVFR,,,,,,,,,,,,METAR,42.0
CYPH 281035Z AUTO 00000KT 1/2SM FZFG OVC004 M02/M02 A3023 RMK SLP240,CYPH,2023-04-28T10:35:00Z,58.47,-78.08,-2.0,-2.0,0,0,,0.5,30.230314,1024.0,,TRUE,,,,,,,FZFG,OVC,400,,,,,,,LIFR,,,,,,,,,,,,SPECI,24.0
CYKP 281035Z AUTO 01004KT 8SM SCT004 OVC011 00/00 A3002 RMK SLP179,CYKP,2023-04-28T10:35:00Z,51.67,-85.9,0.0,0.0,10,4,,8.0,30.02067,1017.9,,TRUE,,,,,,,,SCT,400,OVC,1100,,,,,MVFR,,,,,,,,,,,,SPECI,181.0
CYDP 281035Z 00000KT 15SM FEW012 OVC016 M01/M02 A3036 RMK SF1SC7 SLP283,CYDP,2023-04-28T10:35:00Z,56.53,-61.68,-1.0,-2.0,0,0,,15.0,30.360237,1028.3,,,,,,,,,,FEW,1200,OVC,1600,,,,,MVFR,,,,,,,,,,,,SPECI,14.0
SBPV 281034Z 35001KT 4000 BR NSC 24/23 Q1012,SBPV,2023-04-28T10:34:00Z,-8.72,-63.9,24.0,23.0,350,1,,2.49,29.88189,,,,,,,,,,BR,CLR,,,,,,,,IFR,,,,,,,,,,,,METAR,89.0
PAPM 281034Z AUTO 19010KT 6SM -SN BR OVC007 M01/M01 A2965 RMK AO2 CIG 004V010 P0000 FZRANO,PAPM,2023-04-28T10:34:00Z,59.02,-161.82,-1.0,-1.0,190,10,,6.0,29.648623,,,TRUE,TRUE,,,,TRUE,,-SN BR,OVC,700,,,,,,,IFR,,,,,,0.005,,,,,,SPECI,4.0
KUUU 281034Z AUTO 35003KT M1/4SM FG VV001 06/06 A3023 RMK AO2 T00610061,KUUU,2023-04-28T10:34:00Z,41.53,-71.28,6.1,6.1,350,3,,0.25,30.230314,,,TRUE,TRUE,,,,,,FG,OVX,0,,,,,,,LIFR,,,,,,,,,,,100,SPECI,45.0
KSUX 281034Z 30012KT 10SM BKN013 OVC070 11/09 A2979 RMK AO2 RAE27 P0000 T01110094,KSUX,2023-04-28T10:34:00Z,42.38,-96.38,11.1,9.4,300,12,,10.0,29.790354,,,,TRUE,,,,,,,BKN,1300,OVC,7000,,,,,MVFR,,,,,,0.005,,,,,,SPECI,332.0
KRDU 281034Z 16006KT 2SM -RA BR FEW003 BKN019 BKN035 OVC250 18/17 A2978 RMK AO2 SFC VIS 3 RAE18B27 P0001 T01780167,KRDU,2023-04-28T10:34:00Z,35.9,-78.78,17.8,16.7,160,6,,2.0,29.778543,,,,TRUE,,,,,,-RA BR,FEW,300,BKN,1900,BKN,3500,OVC,25000,IFR,,,,,,0.01,,,,,,SPECI,121.0
KPOU 281034Z AUTO 03003KT 2 1/2SM BR OVC002 06/05 A3019 RMK AO2 T00560050,KPOU,2023-04-28T10:34:00Z,41.63,-73.88,5.6,5.0,30,3,,2.5,30.188976,,,TRUE,TRUE,,,,,,BR,OVC,200,,,,,,,LIFR,,,,,,,,,,,,SPECI,45.0
KMVL 281034Z AUTO 00000KT 1 1/4SM BR BKN002 M01/M02 A3024 RMK AO2 T10111022,KMVL,2023-04-28T10:34:00Z,44.53,-72.62,-1.1,-2.2,0,0,,1.25,30.239174,,,TRUE,TRUE,,,,,,BR,BKN,200,,,,,,,LIFR,,,,,,,,,,,,SPECI,226.0
KDTO 281034Z AUTO 00000KT 2SM BR CLR 07/07 A2980 RMK AO2 T00720067,KDTO,2023-04-28T10:34:00Z,33.2,-97.2,7.2,6.7,0,0,,2.0,29.799213,,,TRUE,TRUE,,,,,,BR,CLR,,,,,,,,IFR,,,,,,,,,,,,SPECI,199.0
KDCU 281034Z AUTO 20006KT 10SM FEW006 BKN014 BKN022 17/16 A2969 RMK AO2 T01670156,KDCU,2023-04-28T10:34:00Z,34.65,-86.95,16.7,15.6,200,6,,10.0,29.68996,,,TRUE,TRUE,,,,,,,FEW,600,BKN,1400,BKN,2200,,,MVFR,,,,,,,,,,,,SPECI,180.0
CYEK 281034Z AUTO 35005KT 2 1/4SM BR BKN003 OVC055 M10/M11 A3019 RMK SLP225,CYEK,2023-04-28T10:34:00Z,61.1,-94.07,-10.0,-11.0,350,5,,2.25,30.188976,1022.5,,TRUE,,,,,,,BR,BKN,300,OVC,5500,,,,,LIFR,,,,,,,,,,,,SPECI,7.0
CYCY 281034Z AUTO 15009KT 9SM OVC076 M10/M11 A3046 RMK SLP320,CYCY,2023-04-28T10:34:00Z,70.48,-68.52,-10.0,-11.0,150,9,,9.0,30.46063,1032.0,,TRUE,,,,,,,,OVC,7600,,,,,,,VFR,,,,,,,,,,,,SPECI,73.0
SCJO 281033Z AUTO 03013KT 9999 -RA BKN008/// OVC017/// 14/13 Q0997 RERA,SCJO,2023-04-28T10:33:00Z,-40.6,-73.05,14.0,13.0,30,13,,6.21,29.438976,,,TRUE,,,,,,,-RA,BKN,800,OVC,1700,,,,,IFR,,,,,,,,,,,,SPECI,61.0
PAWI 281033Z AUTO 06010KT 10SM UP OVC016 M13/M17 A3006 RMK AO2 UPB01 T11331167 TSNO $,PAWI,2023-04-28T10:33:00Z,70.63,-160.02,-13.3,-16.7,60,10,,10.0,30.059055,,,TRUE,TRUE,TRUE,,TRUE,,,UP,OVC,1600,,,,,,,MVFR,,,,,,,,,,,,SPECI,12.0
PAMB 281033Z AUTO 16009KT 5SM UP BR SCT026 OVC037 00/00 A2973 RMK AO2 UPB32 P0000 FZRANO $,PAMB,2023-04-28T10:33:00Z,58.98,-159.05,0.0,0.0,160,9,,5.0,29.731298,,,TRUE,TRUE,TRUE,,,TRUE,,BR UP,SCT,2600,OVC,3700,,,,,MVFR,,,,,,0.005,,,,,,SPECI,28.0
PAIW 281033Z AUTO 05017KT 3SM -SN BR FEW014 BKN036 OVC110 M12/M13 A2983 RMK AO2 P0000 FZRANO,PAIW,2023-04-28T10:33:00Z,65.62,-168.1,-12.0,-13.0,50,17,,3.0,29.828741,,,TRUE,TRUE,,,,TRUE,,-SN BR,FEW,1400,BKN,3600,OVC,11000,,,MVFR,,,,,,0.005,,,,,,SPECI,6.0
KXVG 281033Z AUTO 00000KT 10SM OVC041 03/02 A2990 RMK AO2,KXVG,2023-04-28T10:33:00Z,46.98,-94.2,3.0,2.0,0,0,,10.0,29.899607,,,TRUE,TRUE,,,,,,,OVC,4100,,,,,,,VFR,,,,,,,,,,,,METAR,407.0
KVBT 281033Z AUTO 03004KT 6SM BR OVC002 10/10 A2981 RMK AO2 RAE20 P0000,KVBT,2023-04-28T10:33:00Z,36.35,-94.22,10.0,10.0,30,4,,6.0,29.811024,,,TRUE,TRUE,,,,,,BR,OVC,200,,,,,,,LIFR,,,,,,0.005,,,,,,SPECI,390.0
KRWF 281033Z AUTO 04007KT 5SM BR OVC004 09/08 A2980 RMK AO2 RAB02E11 P0000 T00890078,KRWF,2023-04-28T10:33:00Z,44.55,-95.08,8.9,7.8,40,7,,5.0,29.799213,,,TRUE,TRUE,,,,,,BR,OVC,400,,,,,,,LIFR,,,,,,0.005,,,,,,SPECI,312.0
KRVS 281033Z AUTO 00000KT 1 3/4SM BR CLR 10/09 A2981 RMK AO2 T01000094,KRVS,2023-04-28T10:33:00Z,36.05,-95.98,10.0,9.4,0,0,,1.75,29.811024,,,TRUE,TRUE,,,,,,BR,CLR,,,,,,,,IFR,,,,,,,,,,,,SPECI,191.0
KPOB 281033Z AUTO 18008KT 9SM RA BKN005 18/18 A2978 RMK AO2 CIG 005V065 SLP086 $,KPOB,2023-04-28T10:33:00Z,35.17,-79.02,18.0,18.0,180,8,,9.0,29.778543,1008.6,,TRUE,TRUE,TRUE,,,,,RA,BKN,500,,,,,,,IFR,,,,,,,,,,,,SPECI,57.0
KOWB 281033Z AUTO 35004KT 10SM SCT006 BKN012 OVC019 12/11 A2971 RMK AO2,KOWB,2023-04-28T10:33:00Z,37.72,-87.17,12.0,11.0,350,4,,10.0,29.71063,,,TRUE,TRUE,,,,,,,SCT,600,BKN,1200,OVC,1900,,,MVFR,,,,,,,,,,,,SPECI,121.0
KOWA 281033Z AUTO 00000KT 10SM CLR 06/05 A2979 RMK AO2,KOWA,2023-04-28T10:33:00Z,44.12,-93.25,6.0,5.0,0,0,,10.0,29.790354,,,TRUE,TRUE,,,,,,,CLR,,,,,,,,VFR,,,,,,,,,,,,METAR,345.0
KORB 281033Z AUTO 00000KT 7SM -DZ OVC033 03/03 A2991 RMK AO2,KORB,2023-04-28T10:33:00Z,48.02,-92.87,3.0,3.0,0,0,,7.0,29.911417,,,TRUE,TRUE,,,,,,-DZ,OVC,3300,,,,,,,VFR,,,,,,,,,,,,SPECI,407.0
KNYG 281033Z AUTO 07011KT 6SM -RA SCT009 BKN013 OVC033 15/ A2997 RMK AO2 P0001 T0150 $,KNYG,2023-04-28T10:33:00Z,38.5,-77.3,15.0,,70,11,,6.0,29.970472,,,TRUE,TRUE,TRUE,,,,,-RA,SCT,900,BKN,1300,OVC,3300,,,MVFR,,,,,,0.01,,,,,,METAR,2.0
KMSV 281033Z AUTO 08005KT 1SM BR CLR 05/05 A3016 RMK AO2 RVRNO,KMSV,2023-04-28T10:33:00Z,41.7,-74.78,5.0,5.0,80,5,,1.0,30.159449,,,TRUE,TRUE,,,,,,BR,CLR,,,,,,,,IFR,,,,,,,,,,,,SPECI,427.0
KMIC 281033Z AUTO 01005KT 7SM -RA FEW009 OVC026 09/08 A2980 RMK AO2 P0001 T00890078,KMIC,2023-04-28T10:33:00Z,45.07,-93.35,8.9,7.8,10,5,,7.0,29.799213,,,TRUE,TRUE,,,,,,-RA,FEW,900,OVC,2600,,,,,MVFR,,,,,,0.01,,,,,,SPECI,263.0
KLWV 281033Z AUTO 36008KT 7SM BKN010 BKN018 OVC023 11/10 A2973 RMK AO2 CIG 007V012 T01110100,KLWV,2023-04-28T10:33:00Z,38.77,-87.6,11.1,10.0,360,8,,7.0,29.731298,,,TRUE,TRUE,,,,,,,BKN,1000,BKN,1800,OVC,2300,,,MVFR,,,,,,,,,,,,SPECI,128.0
KLUK 281033Z AUTO 00000KT 3SM BR OVC004 12/12 A2968 RMK AO2 PK WND 21031/0957 T01220117,KLUK,2023-04-28T10:33:00Z,39.1,-84.42,12.2,11.7,0,0,,3.0,29.681103,,,TRUE,TRUE,,,,,,BR,OVC,400,,,,,,,LIFR,,,,,,,,,,,,SPECI,144.0
KHDO 281033Z AUTO 03004KT 10SM OVC005 16/15 A2979 RMK AO2 T01560150 $,KHDO,2023-04-28T10:33:00Z,29.37,-99.17,15.6,15.0,30,4,,10.0,29.790354,,,TRUE,TRUE,TRUE,,,,,,OVC,500,,,,,,,IFR,,,,,,,,,,,,SPECI,280.0
KFWN 281033Z AUTO 06004KT 3/4SM BR OVC003 07/06 A3018 RMK AO2 T00670061,KFWN,2023-04-28T10:33:00Z,41.2,-74.63,6.7,6.1,60,4,,0.75,30.180119,,,TRUE,TRUE,,,,,,BR,OVC,300,,,,,,,LIFR,,,,,,,,,,,,SPECI,129.0
KFOZ 281033Z AUTO 36003KT 10SM OVC038 06/04 A2996 RMK AO2,KFOZ,2023-04-28T10:33:00Z,47.77,-93.65,6.0,4.0,360,3,,10.0,29.958662,,,TRUE,TRUE,,,,,,,OVC,3800,,,,,,,VFR,,,,,,,,,,,,METAR,412.0
KETH 281033Z AUTO 32012G17KT 10SM -RA BKN036 BKN046 OVC070 06/04 A2996 RMK AO2,KETH,2023-04-28T10:33:00Z,45.78,-96.55,6.0,4.0,320,12,17,10.0,29.958662,,,TRUE,TRUE,,,,,,-RA,BKN,3600,BKN,4600,OVC,7000,,,VFR,,,,,,,,,,,,METAR,309.0
KDVP 281033Z AUTO 34012G18KT 3SM HZ OVC003 08/00 A2982 RMK AO2 T00751004 P0006,KDVP,2023-04-28T10:33:00Z,43.98,-95.78,7.5,-0.4,340,12,18,3.0,29.819881,,,TRUE,TRUE,,,,,,HZ,OVC,300,,,,,,,LIFR,,,,,,0.06,,,,,,SPECI,493.0
KCSV 281033Z AUTO 15004KT 4SM BR OVC002 13/13 A2972 RMK AO2 LTG DSNT W-NE T01330133,KCSV,2023-04-28T10:33:00Z,35.95,-85.08,13.3,13.3,150,4,,4.0,29.719488,,,TRUE,TRUE,,,,,,BR,OVC,200,,,,,,,LIFR,,,,,,,,,,,,SPECI,569.0
KAQP 281033Z AUTO 03013KT 10SM 07/05 A2989 RMK AO2,KAQP,2023-04-28T10:33:00Z,45.22,-96.0,7.0,5.0,30,13,,10.0,29.890747,,,TRUE,TRUE,,,,,,,,,,,,,,,,,,,,,,,,,,,METAR,312.0
KAKQ 281033Z AUTO 07013G20KT 2 1/2SM +RA BR FEW011 BKN018 OVC024 14/13 A2988 RMK AO2 VIS 1 3/4V4 P0033 T01390128,KAKQ,2023-04-28T10:33:00Z,36.98,-77.0,13.9,12.8,70,13,20,2.5,29.878937,,,TRUE,TRUE,,,,,,+RA BR,FEW,1100,BKN,1800,OVC,2400,,,IFR,,,,,,0.33,,,,,,METAR,34.0
KABH 281033Z AUTO 03024G31KT 7SM -SN SCT013 BKN018 BKN025 OVC032 02/M01 A3012 RMK AO2 RAB27E33SNB33 CIG 014V020 SLP182,KABH,2023-04-28T10:33:00Z,38.75,-104.3,2.0,-1.0,30,24,31,7.0,30.121063,1018.2,,TRUE,TRUE,,,,,,-SN,SCT,1300,BKN,1800,BKN,2500,OVC,3200,MVFR,,,,,,,,,,,,SPECI,1838.0
PASN 281032Z AUTO 02008KT 10SM SCT017 BKN024 OVC032 M03/M05 A2956 RMK AO2 T10281050 TSNO,PASN,2023-04-28T10:32:00Z,57.15,-170.22,-2.8,-5.0,20,8,,10.0,29.56004,,,TRUE,TRUE,,,TRUE,,,,SCT,1700,BKN,2400,OVC,3200,,,MVFR,,,,,,,,,,,,SPECI,8.0
KMTH 281032Z AUTO 16004KT 10SM SCT004 BKN070 27/24 A2989 RMK AO2 T02720244,KMTH,2023-04-28T10:32:00Z,24.73,-81.05,27.2,24.4,160,4,,10.0,29.890747,,,TRUE,TRUE,,,,,,,SCT,400,BKN,7000,,,,,VFR,,,,,,,,,,,,SPECI,1.0
KMGM 281032Z 18004KT 10SM SCT017 18/17 A2976 RMK AO2 T01830172,KMGM,2023-04-28T10:32:00Z,32.3,-86.4,18.3,17.2,180,4,,10.0,29.760826,,,,TRUE,,,,,,,SCT,1700,,,,,,,VFR,,,,,,,,,,,,SPECI,64.0
KLCI 281032Z AUTO 00000KT 3SM BR OVC002 A3024 RMK AO2 FZRANO $,KLCI,2023-04-28T10:32:00Z,43.57,-71.42,,,0,0,,3.0,30.239174,,,TRUE,TRUE,TRUE,,,TRUE,,BR,OVC,200,,,,,,,LIFR,,,,,,,,,,,,SPECI,166.0
KCUT 281032Z AUTO 29006KT 10SM -SN BKN029 OVC065 01/M03 A3010 RMK AO2 SNB32 P0000 T00061033,KCUT,2023-04-28T10:32:00Z,43.73,-103.62,0.6,-3.3,290,6,,10.0,30.100393,,,TRUE,TRUE,,,,,,-SN,BKN,2900,OVC,6500,,,,,MVFR,,,,,,0.005,,,,,,METAR,1700.0
KCQX 281032Z AUTO 00000KT 1/4SM FG OVC003 07/07 A3023 RMK AO2 T00720067,KCQX,2023-04-28T10:32:00Z,41.68,-70.0,7.2,6.7,0,0,,0.25,30.230314,,,TRUE,TRUE,,,,,,FG,OVC,300,,,,,,,LIFR,,,,,,,,,,,,SPECI,17.0
KBVO 281032Z AUTO 00000KT 3/4SM BR VV012 09/08 A2984 RMK AO2 T00890083,KBVO,2023-04-28T10:32:00Z,36.77,-96.02,8.9,8.3,0,0,,0.75,29.840551,,,TRUE,TRUE,,,,,,BR,OVX,0,,,,,,,LIFR,,,,,,,,,,,1200,SPECI,210.0
KAWM 281032Z AUTO VRB03KT 10SM OVC015 14/12 A2975 RMK AO2 T01390122,KAWM,2023-04-28T10:32:00Z,35.13,-90.23,13.9,12.2,0,3,,10.0,29.749016,,,TRUE,TRUE,,,,,,,OVC,1500,,,,,,,MVFR,,,,,,,,,,,,SPECI,64.0
K0J4 281032Z AUTO 00000KT 6SM BR SCT007 19/17 A2979 RMK AO2 T01890172,K0J4,2023-04-28T10:32:00Z,31.05,-86.32,18.9,17.2,0,0,,6.0,29.790354,,,TRUE,TRUE,,,,,,BR,SCT,700,,,,,,,VFR,,,,,,,,,,,,SPECI,96.0
EGUL 281032Z 29011KT 3600 BR OVC007 12/12 A2979 RMK DZB04E14 SLP091 $,EGUL,2023-04-28T10:32:00Z,52.42,0.57,12.0,12.0,290,11,,2.24,29.790354,1009.1,,,,TRUE,,,,,BR,OVC,700,,,,,,,IFR,,,,,,,,,,,,METAR,8.0
UTO8 M M M 147/-03/-05/0501/M/M SOG 29 1031 77MM,UTO8,2023-04-28T10:31:00Z,,,,,,,,,,,,,,,,,,,,,,,,,,,,,,,,,,,,,,,,SPECI,
PHLI 281031Z AUTO 03010KT 10SM FEW014 SCT020 OVC046 22/19 A3001 RMK AO2 T02220194 TSNO $,PHLI,2023-04-28T10:31:00Z,21.97,-159.33,22.2,19.4,30,10,,10.0,30.008858,,,TRUE,TRUE,TRUE,,TRUE,,,,FEW,1400,SCT,2000,OVC,4600,,,VFR,,,,,,,,,,,,SPECI,32.0
PGUM 281031Z 08011G20KT 10SM FEW016 SCT023 SCT037 27/24 A2988 RMK AO2 RAE05B15E23 P0001 T02720244 ,PGUM,2023-04-28T10:31:00Z,13.48,144.8,27.2,24.4,80,11,20,10.0,29.878937,,,,TRUE,,,,,,,FEW,1600,SCT,2300,SCT,3700,,,VFR,,,,,,0.01,,,,,,SPECI,74.0
PAVD 281031Z AUTO 30004KT -RA BKN013 BKN019 OVC035 03/02 A3006 RMK AO2 P0001 TSNO $,PAVD,2023-04-28T10:31:00Z,61.13,-146.25,3.0,2.0,300,4,,,30.059055,,,TRUE,TRUE,TRUE,,TRUE,,,-RA,BKN,1300,BKN,1900,OVC,3500,,,,,,,,,0.01,,,,,,SPECI,21.0
PAGN 281031Z AUTO 07004KT 10SM SCT027 BKN037 OVC044 05/04 A3024 RMK AO2,PAGN,2023-04-28T10:31:00Z,57.5,-134.58,5.0,4.0,70,4,,10.0,30.239174,,,TRUE,TRUE,,,,,,,SCT,2700,BKN,3700,OVC,4400,,,VFR,,,,,,,,,,,,SPECI,2.0
PADM 281031Z AUTO 10018KT 2 1/2SM -SN BR BKN013 BKN019 OVC024 01/M01 A2965 RMK AO2 VIS 1 3/4V4 P0000 FZRANO,PADM,2023-04-28T10:31:00Z,61.87,-162.03,1.0,-1.0,100,18,,2.5,29.648623,,,TRUE,TRUE,,,,TRUE,,-SN BR,BKN,1300,BKN,1900,OVC,2400,,,IFR,,,,,,0.005,,,,,,SPECI,17.0
LTCE 281031Z 18016G27KT 140V210 9999 -TSRA FEW025CB SCT035 12/02 Q1013 RESHRA NOSIG,LTCE,2023-04-28T10:31:00Z,39.95,41.17,12.0,2.0,180,16,27,6.21,29.911417,,,,,,TRUE,,,,-TSRA,FEW,2500,SCT,3500,,,,,VFR,,,,,,,,,,,,SPECI,1758.0
KTPL 281031Z AUTO 12005KT BKN014 13/12 A2977 RMK AO2 PWINO RVRNO $,KTPL,2023-04-28T10:31:00Z,31.15,-97.4,13.0,12.0,120,5,,,29.769686,,,TRUE,TRUE,TRUE,,,,TRUE,,BKN,1400,,,,,,,,,,,,,,,,,,,SPECI,206.0
KPSF 281031Z AUTO 25004KT 2 1/2SM BR SCT004 01/M01 A3019 RMK AO2 T00061006,KPSF,2023-04-28T10:31:00Z,42.43,-73.28,0.6,-0.6,250,4,,2.5,30.188976,,,TRUE,TRUE,,,,,,BR,SCT,400,,,,,,,IFR,,,,,,,,,,,,SPECI,352.0
KPQL 281031Z AUTO 32003KT 9SM BKN004 19/19 A2978 RMK AO2 T01940189,KPQL,2023-04-28T10:31:00Z,30.47,-88.53,19.4,18.9,320,3,,9.0,29.778543,,,TRUE,TRUE,,,,,,,BKN,400,,,,,,,LIFR,,,,,,,,,,,,SPECI,4.0
KOGB 281031Z AUTO 23004KT 10SM SCT006 BKN016 OVC023 19/19 A2978 RMK AO2 RAB07E12 P0000 T01940189 $,KOGB,2023-04-28T10:31:00Z,33.47,-80.85,19.4,18.9,230,4,,10.0,29.778543,,,TRUE,TRUE,TRUE,,,,,,SCT,600,BKN,1600,OVC,2300,,,MVFR,,,,,,0.005,,,,,,SPECI,59.0
KNKT 281031Z 11008KT 10SM -RA BKN017 BKN023 OVC095 18/18 A2984 RMK AO2 P0019 T01830183 $,KNKT,2023-04-28T10:31:00Z,34.9,-76.88,18.3,18.3,110,8,,10.0,29.840551,,,,TRUE,TRUE,,,,,-RA,BKN,1700,BKN,2300,OVC,9500,,,MVFR,,,,,,0.19,,,,,,SPECI,8.0
KIPT 281031Z 10009KT 10SM BKN026 OVC037 11/04 A3006 RMK AO2 T01060044,KIPT,2023-04-28T10:31:00Z,41.25,-76.92,10.6,4.4,100,9,,10.0,30.059055,,,,TRUE,,,,,,,BKN,2600,OVC,3700,,,,,MVFR,,,,,,,,,,,,SPECI,160.0
KHVN 281031Z 03007KT 4SM BR OVC004 08/07 A3022 RMK AO2 T00830072,KHVN,2023-04-28T10:31:00Z,41.27,-72.88,8.3,7.2,30,7,,4.0,30.221457,,,,TRUE,,,,,,BR,OVC,400,,,,,,,LIFR,,,,,,,,,,,,SPECI,4.0
KGEZ 281031Z AUTO 36010KT 7SM FEW007 OVC012 09/07 A2969 RMK AO2 T00940072,KGEZ,2023-04-28T10:31:00Z,39.58,-85.8,9.4,7.2,360,10,,7.0,29.68996,,,TRUE,TRUE,,,,,,,FEW,700,OVC,1200,,,,,MVFR,,,,,,,,,,,,SPECI,245.0
KECG 281031Z AUTO 10013G20KT 2SM +RA BR SCT008 BKN031 OVC060 17/16 A2987 RMK AO2 P0018 T01720161,KECG,2023-04-28T10:31:00Z,36.27,-76.18,17.2,16.1,100,13,20,2.0,29.870079,,,TRUE,TRUE,,,,,,+RA BR,SCT,800,BKN,3100,OVC,6000,,,IFR,,,,,,0.18,,,,,,SPECI,2.0
KBPK 281031Z AUTO 00000KT 7SM OVC003 12/11 A2977 RMK AO2 CIG 002V006 T01170111,KBPK,2023-04-28T10:31:00Z,36.37,-92.47,11.7,11.1,0,0,,7.0,29.769686,,,TRUE,TRUE,,,,,,,OVC,300,,,,,,,LIFR,,,,,,,,,,,,SPECI,279.0
KBAZ 281031Z AUTO 22006KT 1 3/4SM BR OVC003 19/18 A2976 RMK AO2 T01890183,KBAZ,2023-04-28T10:31:00Z,29.72,-98.05,18.9,18.3,220,6,,1.75,29.760826,,,TRUE,TRUE,,,,,,BR,OVC,300,,,,,,,LIFR,,,,,,,,,,,,SPECI,199.0
KAOH 281031Z AUTO 04009G16KT 5SM -RA BR SCT013 BKN028 OVC055 08/06 A2974 RMK AO2 P0002 T00780061,KAOH,2023-04-28T10:31:00Z,40.7,-84.02,7.8,6.1,40,9,16,5.0,29.740158,,,TRUE,TRUE,,,,,,-RA BR,SCT,1300,BKN,2800,OVC,5500,,,MVFR,,,,,,0.02,,,,,,SPECI,294.0
ETEB 281031Z AUTO 19008KT 9999 OVC007 11/10 A2991 RMK AO2 RAE12DZB12E16DZB20E31 SLP146 $,ETEB,2023-04-28T10:31:00Z,49.32,10.63,11.0,10.0,190,8,,6.21,29.911417,1014.6,,TRUE,TRUE,TRUE,,,,,,OVC,700,,,,,,,IFR,,,,,,,,,,,,SPECI,466.0
EEEI 281031Z 27012KT 240V300 8000 3000 SHRA SCT019 BKN023 BKN047 05/02 Q1014,EEEI,2023-04-28T10:31:00Z,59.27,24.2,5.0,2.0,270,12,,4.97,29.940945,,,,,,,,,,SHRA,SCT,1900,BKN,2300,BKN,4700,,,MVFR,,,,,,,,,,,,SPECI,19.0
CYYT 281031Z 36016G22KT 15SM SCT007 BKN028 OVC037 00/M00 A2992 RMK SF3SC3SC2 SLP141,CYYT,2023-04-28T10:31:00Z,47.62,-52.73,0.0,0.0,360,16,22,15.0,29.920275,1014.1,,,,,,,,,,SCT,700,BKN,2800,OVC,3700,,,MVFR,,,,,,,,,,,,SPECI,128.0
CYQX 281031Z 36017KT 2SM -FZDZ BR BKN002 OVC008 M01/M01 A3000 RMK FG3SF4SF1 SLP170,CYQX,2023-04-28T10:31:00Z,48.95,-54.58,-1.0,-1.0,360,17,,2.0,30.0,1017.0,,,,,,,,,-FZDZ BR,BKN,200,OVC,800,,,,,LIFR,,,,,,,,,,,,SPECI,144.0
ZYTX 281030Z VRB01MPS 9999 OVC030 11/07 Q1011 NOSIG,ZYTX,2023-04-28T10:30:00Z,41.63,123.48,11.0,7.0,0,2,,6.21,29.852362,,,,,,TRUE,,,,,OVC,3000,,,,,,,MVFR,,,,,,,,,,,,METAR,56.0
ZYTL 281030Z 34002MPS 5000 BR SCT033 13/09 Q1009 NOSIG,ZYTL,2023-04-28T10:30:00Z,38.97,121.55,13.0,9.0,340,4,,3.11,29.793306,,,,,,TRUE,,,,BR,SCT,3300,,,,,,,MVFR,,,,,,,,,,,,METAR,33.0
ZWWW 281030Z 01004MPS 340V040 CAVOK 25/M08 Q1017 NOSIG,ZWWW,2023-04-28T10:30:00Z,43.9,87.47,25.0,-8.0,10,8,,6.21,30.029528,,,,,,TRUE,,,,,CAVOK,,,,,,,,VFR,,,,,,,,,,,,METAR,654.0
ZSSS 281030Z 23003MPS 110V280 CAVOK 25/14 Q1011 NOSIG,ZSSS,2023-04-28T10:30:00Z,31.2,121.33,25.0,14.0,230,6,,6.21,29.852362,,,,,,TRUE,,,,,CAVOK,,,,,,,,VFR,,,,,,,,,,,,METAR,2.0
ZSPD 281030Z 18004MPS CAVOK 21/16 Q1011 NOSIG,ZSPD,2023-04-28T10:30:00Z,31.15,121.8,21.0,16.0,180,8,,6.21,29.852362,,,,,,TRUE,,,,,CAVOK,,,,,,,,VFR,,,,,,,,,,,,METAR,4.0
ZSHC 281030Z 22002MPS CAVOK 23/17 Q1011 NOSIG,ZSHC,2023-04-28T10:30:00Z,30.22,120.43,23.0,17.0,220,4,,6.21,29.852362,,,,,,TRUE,,,,,CAVOK,,,,,,,,VFR,,,,,,,,,,,,METAR,8.0
ZMCK 281030Z 30009MPS 9999 SCT100 07/M12 Q1012 NOSIG RMK QFE644.4 25 MOP,ZMCK,2023-04-28T10:30:00Z,47.65,106.82,7.0,-12.0,300,17,,6.21,29.88189,,,,,,TRUE,,,,,SCT,10000,,,,,,,VFR,,,,,,,,,,,,METAR,1366.0
ZGGG 281030Z 13003MPS 9999 BKN050 28/23 Q1010 NOSIG,ZGGG,2023-04-28T10:30:00Z,23.4,113.3,28.0,23.0,130,6,,6.21,29.822834,,,,,,TRUE,,,,,BKN,5000,,,,,,,VFR,,,,,,,,,,,,METAR,11.0
ZBYN 281030Z 32010G15MPS 290V350 9999 SCT033 10/M06 Q1019 NOSIG,ZBYN,2023-04-28T10:30:00Z,37.73,112.63,10.0,-6.0,320,19,29,6.21,30.088583,,,,,,TRUE,,,,,SCT,3300,,,,,,,VFR,,,,,,,,,,,,METAR,778.0
ZBTJ 281030Z 22003MPS 200V260 CAVOK 19/12 Q1008 NOSIG,ZBTJ,2023-04-28T10:30:00Z,39.12,117.35,19.0,12.0,220,6,,6.21,29.763779,,,,,,TRUE,,,,,CAVOK,,,,,,,,VFR,,,,,,,,,,,,METAR,4.0
ZBAD 281030Z 35007MPS CAVOK 13/09 Q1010 RETS NOSIG,ZBAD,2023-04-28T10:30:00Z,39.5,116.42,13.0,9.0,350,14,,6.21,29.822834,,,,,,TRUE,,,,,CAVOK,,,,,,,,VFR,,,,,,,,,,,,METAR,25.0
ZBAA 281030Z 31008MPS 6000 TSRA FEW040 BKN040CB 12/08 Q1012 NOSIG,ZBAA,2023-04-28T10:30:00Z,40.07,116.6,12.0,8.0,310,16,,3.73,29.88189,,,,,,TRUE,,,,TSRA,FEW,4000,BKN,4000,,,,,MVFR,,,,,,,,,,,,METAR,31.0
YWLM 281030Z AUTO 03007KT 9999 // NCD 20/16 Q1013 RF00.0/000.0,YWLM,2023-04-28T10:30:00Z,-32.8,151.83,20.0,16.0,30,7,,6.21,29.911417,,,TRUE,,,,,,,,CLR,,,,,,,,VFR,,,,,,,,,,,,SPECI,7.0
YSTW 281030Z AUTO 00000KT 9999 // SCT089 15/11 Q1015 RF00.0/000.0,YSTW,2023-04-28T10:30:00Z,-31.08,150.85,15.0,11.0,0,0,,6.21,29.970472,,,TRUE,,,,,,,,SCT,8900,,,,,,,VFR,,,,,,,,,,,,SPECI,404.0
YSSY 281030Z 02015KT CAVOK 23/17 Q1011,YSSY,2023-04-28T10:30:00Z,-33.95,151.17,23.0,17.0,20,15,,6.21,29.852362,,,,,,,,,,,CAVOK,,,,,,,,VFR,,,,,,,,,,,,METAR,3.0
YSRI 281030Z AUTO 04006KT 9999 // NCD 18/15 Q1011 RF00.0/000.0,YSRI,2023-04-28T10:30:00Z,-33.6,150.77,18.0,15.0,40,6,,6.21,29.852362,,,TRUE,,,,,,,,CLR,,,,,,,,VFR,,,,,,,,,,,,SPECI,19.0
YSDU 281030Z AUTO 03008KT 9999 // NCD 18/10 Q1012 RF00.0/000.0,YSDU,2023-04-28T10:30:00Z,-32.22,148.57,18.0,10.0,30,8,,6.21,29.88189,,,TRUE,,,,,,,,CLR,,,,,,,,VFR,,,,,,,,,,,,SPECI,285.0
YSCB 281030Z AUTO 04008KT 9999 -RA ////// 13/13 Q1014 RERA RF00.0/004.6,YSCB,2023-04-28T10:30:00Z,-35.3,149.18,13.0,13.0,40,8,,6.21,29.940945,,,TRUE,,,,,,,-RA,,,,,,,,,,,,,,,,,,,,,SPECI,577.0
YPWR 281030Z AUTO 24007KT 9999 // BKN063 OVC091 14/13 Q1017,YPWR,2023-04-28T10:30:00Z,-31.15,136.82,14.0,13.0,240,7,,6.21,30.029528,,,TRUE,,,,,,,,BKN,6300,OVC,9100,,,,,VFR,,,,,,,,,,,,METAR,169.0
YPTN 281030Z AUTO 13004KT 110V190 9999 // NCD 26/18 Q1010 RF00.0/000.0,YPTN,2023-04-28T10:30:00Z,-14.52,132.38,26.0,18.0,130,4,,6.21,29.822834,,,TRUE,,,,,,,,CLR,,,,,,,,VFR,,,,,,,,,,,,SPECI,135.0
YPPH 281030Z 15009KT CAVOK 16/06 Q1026,YPPH,2023-04-28T10:30:00Z,-31.93,115.98,16.0,6.0,150,9,,6.21,30.295275,,,,,,,,,,,CAVOK,,,,,,,,VFR,,,,,,,,,,,,METAR,16.0
YPPD 281030Z AUTO 15007KT 9999 // NCD 30/10 Q1013 RF00.0/000.0,YPPD,2023-04-28T10:30:00Z,-20.37,118.62,30.0,10.0,150,7,,6.21,29.911417,,,TRUE,,,,,,,,CLR,,,,,,,,VFR,,,,,,,,,,,,SPECI,6.0
YPLM 281030Z AUTO 32007KT 9999 // NCD 29/01 Q1013 RF00.0/000.0,YPLM,2023-04-28T10:30:00Z,-22.23,114.08,29.0,1.0,320,7,,6.21,29.911417,,,TRUE,,,,,,,,CLR,,,,,,,,VFR,,,,,,,,,,,,SPECI,5.0
YPKU 281030Z AUTO 00000KT 9999 // ////// 26/22 Q1009 RF00.0/000.0,YPKU,2023-04-28T10:30:00Z,-15.77,128.7,26.0,22.0,0,0,,6.21,29.793306,,,TRUE,,,,,,,,,,,,,,,,,,,,,,,,,,,,SPECI,42.0
YPKG 281030Z AUTO 15005KT 9999 // SCT060 14/03 Q1025 RF00.0/000.0,YPKG,2023-04-28T10:30:00Z,-30.78,121.45,14.0,3.0,150,5,,6.21,30.265747,,,TRUE,,,,,,,,SCT,6000,,,,,,,VFR,,,,,,,,,,,,SPECI,372.0
YPJT 281030Z AUTO 15007KT 9999 // NCD 15/07 Q1027 RF00.0/000.0,YPJT,2023-04-28T10:30:00Z,-32.1,115.88,15.0,7.0,150,7,,6.21,30.324802,,,TRUE,,,,,,,,CLR,,,,,,,,VFR,,,,,,,,,,,,METAR,29.0
YPGV 281030Z AUTO 13005KT 9999 // NCD 26/24 Q1009 RF00.0////./,YPGV,2023-04-28T10:30:00Z,-12.27,136.82,26.0,24.0,130,5,,6.21,29.793306,,,TRUE,,,,,,,,CLR,,,,,,,,VFR,,,,,,,,,,,,SPECI,53.0
YPEA 281030Z AUTO 11006KT 9999 // NCD 16/06 Q1026 RF00.0/000.0,YPEA,2023-04-28T10:30:00Z,-31.67,116.02,16.0,6.0,110,6,,6.21,30.295275,,,TRUE,,,,,,,,CLR,,,,,,,,VFR,,,,,,,,,,,,SPECI,38.0
YPDN 281030Z 36003KT 9999 FEW025 28/22 Q1009,YPDN,2023-04-28T10:30:00Z,-12.42,130.9,28.0,22.0,360,3,,6.21,29.793306,,,,,,,,,,,FEW,2500,,,,,,,VFR,,,,,,,,,,,,METAR,32.0
YPCC 281030Z AUTO 10007KT 080V140 7000 -RA SCT030 SCT073 BKN083 28/26 Q1008,YPCC,2023-04-28T10:30:00Z,-12.18,96.83,28.0,26.0,100,7,,4.35,29.763779,,,TRUE,,,,,,,-RA,SCT,3000,SCT,7300,BKN,8300,,,MVFR,,,,,,,,,,,,METAR,3.0
YPAD 281030Z 24011KT 9999 -SHRA FEW020 SCT035 BKN048 13/10 Q1015,YPAD,2023-04-28T10:30:00Z,-34.95,138.52,13.0,10.0,240,11,,6.21,29.970472,,,,,,,,,,-SHRA,FEW,2000,SCT,3500,BKN,4800,,,VFR,,,,,,,,,,,,METAR,2.0
YMML 281030Z 33004KT 9999 FEW010 SCT052 BKN079 12/11 Q1012 RF00.0/004.6,YMML,2023-04-28T10:30:00Z,-37.67,144.82,12.0,11.0,330,4,,6.21,29.88189,,,,,,,,,,,FEW,1000,SCT,5200,BKN,7900,,,VFR,,,,,,,,,,,,SPECI,115.0
YMLT 281030Z AUTO 33010KT 9999 // NCD 07/01 Q1008 RF00.0/000.2,YMLT,2023-04-28T10:30:00Z,-41.53,147.2,7.0,1.0,330,10,,6.21,29.763779,,,TRUE,,,,,,,,CLR,,,,,,,,VFR,,,,,,,,,,,,SPECI,167.0
YMHB 281030Z 31006KT 9999 FEW055 11/03 Q1006,YMHB,2023-04-28T10:30:00Z,-42.83,147.52,11.0,3.0,310,6,,6.21,29.704725,,,,,,,,,,,FEW,5500,,,,,,,VFR,,,,,,,,,,,,METAR,2.0
YMAV 281030Z AUTO 30004KT 9999 // BKN059 BKN073 OVC091 13/10 Q1012,YMAV,2023-04-28T10:30:00Z,-38.03,144.48,13.0,10.0,300,4,,6.21,29.88189,,,TRUE,,,,,,,,BKN,5900,BKN,7300,OVC,9100,,,VFR,,,,,,,,,,,,SPECI,11.0
YLHI 281030Z AUTO 09009KT 9999 // BKN031 19/13 Q1019 RF00.0/000.0,YLHI,2023-04-28T10:30:00Z,-31.53,159.07,19.0,13.0,90,9,,6.21,30.088583,,,TRUE,,,,,,,,BKN,3100,,,,,,,VFR,,,,,,,,,,,,METAR,2.0
YHID 281030Z AUTO 16010KT 9999 // SCT015 BKN043 OVC061 27/25 Q1009,YHID,2023-04-28T10:30:00Z,-10.58,142.3,27.0,25.0,160,10,,6.21,29.793306,,,TRUE,,,,,,,,SCT,1500,BKN,4300,OVC,6100,,,VFR,,,,,,,,,,,,METAR,5.0
YGLA 281030Z AUTO 15005KT 9999 // NCD 22/16 Q1015 RF00.0/000.0,YGLA,2023-04-28T10:30:00Z,-23.87,151.22,22.0,16.0,150,5,,6.21,29.970472,,,TRUE,,,,,,,,CLR,,,,,,,,VFR,,,,,,,,,,,,METAR,17.0
YGEL 281030Z AUTO 13011KT 9999 // NCD 19/01 Q1022 RF00.0/000.0,YGEL,2023-04-28T10:30:00Z,-28.8,114.7,19.0,1.0,130,11,,6.21,30.177166,,,TRUE,,,,,,,,CLR,,,,,,,,VFR,,,,,,,,,,,,METAR,32.0
YFRT 281030Z AUTO 21011KT 9999 // NCD 14/06 Q1023 RF00.0/000.0,YFRT,2023-04-28T10:30:00Z,-30.83,128.12,14.0,6.0,210,11,,6.21,30.206694,,,TRUE,,,,,,,,CLR,,,,,,,,VFR,,,,,,,,,,,,SPECI,159.0
YCIN 281030Z AUTO 29004KT 9999 // NCD 27/21 Q1010 RF00.0/000.0,YCIN,2023-04-28T10:30:00Z,-17.58,123.83,27.0,21.0,290,4,,6.21,29.822834,,,TRUE,,,,,,,,CLR,,,,,,,,VFR,,,,,,,,,,,,SPECI,83.0
YCFS 281030Z AUTO 32010KT 9999 // NCD 18/15 Q1017 RF00.0/000.0,YCFS,2023-04-28T10:30:00Z,-30.32,153.12,18.0,15.0,320,10,,6.21,30.029528,,,TRUE,,,,,,,,CLR,,,,,,,,VFR,,,,,,,,,,,,METAR,2.0
YBWW 281030Z AUTO 32005KT 9999 // NCD 15/13 Q1017 RF00.0/000.0,YBWW,2023-04-28T10:30:00Z,-27.55,151.8,15.0,13.0,320,5,,6.21,30.029528,,,TRUE,,,,,,,,CLR,,,,,,,,VFR,,,,,,,,,,,,METAR,460.0
YBTL 281030Z AUTO 11004KT 9999 // SCT051 24/20 Q1013 RF00.0/000.0,YBTL,2023-04-28T10:30:00Z,-19.25,146.75,24.0,20.0,110,4,,6.21,29.911417,,,TRUE,,,,,,,,SCT,5100,,,,,,,VFR,,,,,,,,,,,,SPECI,4.0
YBSU 281030Z AUTO 22005KT 9999 // SCT029 SCT032 SCT057 19/16 Q1016,YBSU,2023-04-28T10:30:00Z,-26.6,153.08,19.0,16.0,220,5,,6.21,30.0,,,TRUE,,,,,,,,SCT,2900,SCT,3200,SCT,5700,,,VFR,,,,,,,,,,,,METAR,4.0
YBRM 281030Z AUTO 28006KT 9999 // NCD 28/23 Q1011 RF00.0/000.0,YBRM,2023-04-28T10:30:00Z,-17.93,122.23,28.0,23.0,280,6,,6.21,29.852362,,,TRUE,,,,,,,,CLR,,,,,,,,VFR,,,,,,,,,,,,SPECI,11.0
YBRK 281030Z AUTO 16004KT 9999 // SCT021 22/18 Q1015 RF00.0/000.0,YBRK,2023-04-28T10:30:00Z,-23.37,150.47,22.0,18.0,160,4,,6.21,29.970472,,,TRUE,,,,,,,,SCT,2100,,,,,,,VFR,,,,,,,,,,,,SPECI,10.0
YBMA 281030Z AUTO 00000KT 9999 // SCT083 22/12 Q1013 RF00.0/000.0,YBMA,2023-04-28T10:30:00Z,-20.67,139.48,22.0,12.0,0,0,,6.21,29.911417,,,TRUE,,,,,,,,SCT,8300,,,,,,,VFR,,,,,,,,,,,,SPECI,346.0
YBLN 281030Z AUTO 18008KT 9999 // NCD 13/08 Q1028 RF00.0/000.0,YBLN,2023-04-28T10:30:00Z,-33.68,115.4,13.0,8.0,180,8,,6.21,30.35433,,,TRUE,,,,,,,,CLR,,,,,,,,VFR,,,,,,,,,,,,METAR,17.0
YBHM 281030Z AUTO 13015KT 9999 // BKN072 24/20 Q1013 RF00.0/000.0,YBHM,2023-04-28T10:30:00Z,-20.35,148.95,24.0,20.0,130,15,,6.21,29.911417,,,TRUE,,,,,,,,BKN,7200,,,,,,,VFR,,,,,,,,,,,,SPECI,4.0
YBCS 281030Z AUTO 17005KT 9999 // NCD 24/20 Q1012 RF00.0/000.0,YBCS,2023-04-28T10:30:00Z,-16.87,145.75,24.0,20.0,170,5,,6.21,29.88189,,,TRUE,,,,,,,,CLR,,,,,,,,VFR,,,,,,,,,,,,SPECI,2.0
YBCG 281030Z AUTO 20001KT 9999 // SCT032 17/15 Q1017 RF00.0/000.2,YBCG,2023-04-28T10:30:00Z,-28.17,153.5,17.0,15.0,200,1,,6.21,30.029528,,,TRUE,,,,,,,,SCT,3200,,,,,,,VFR,,,,,,,,,,,,SPECI,5.0
YBBN 281030Z 15004KT 9999 FEW030 18/15 Q1016,YBBN,2023-04-28T10:30:00Z,-27.38,153.13,18.0,15.0,150,4,,6.21,30.0,,,,,,,,,,,FEW,3000,,,,,,,VFR,,,,,,,,,,,,METAR,3.0
YBAS 281030Z AUTO /////KT 9999 // OVC110 21/09 Q1017 RF00.0/000.0,YBAS,2023-04-28T10:30:00Z,-23.8,133.9,21.0,9.0,,,,6.21,30.029528,,,TRUE,,,,,,,,OVC,11000,,,,,,,VFR,,,,,,,,,,,,SPECI,549.0
YAMB 281030Z AUTO 08003KT 9999 // NCD 18/15 Q1016 RF00.0/000.0,YAMB,2023-04-28T10:30:00Z,-27.63,152.72,18.0,15.0,80,3,,6.21,30.0,,,TRUE,,,,,,,,CLR,,,,,,,,VFR,,,,,,,,,,,,SPECI,26.0
WSSS 281030Z VRB02KT 9999 FEW016 BKN160 28/25 Q1006 NOSIG,WSSS,2023-04-28T10:30:00Z,1.37,103.97,28.0,25.0,0,2,,6.21,29.704725,,,,,,TRUE,,,,,FEW,1600,BKN,16000,,,,,VFR,,,,,,,,,,,,METAR,17.0
WIII 281030Z 35004KT 8000 FEW020 30/25 Q1006 NOSIG,WIII,2023-04-28T10:30:00Z,-6.13,106.67,30.0,25.0,350,4,,4.97,29.704725,,,,,,TRUE,,,,,FEW,2000,,,,,,,MVFR,,,,,,,,,,,,METAR,9.0
WAMM 281030Z VRB01KT 9999 SCT019 25/25 Q1008 NOSIG,WAMM,2023-04-28T10:30:00Z,1.55,124.92,25.0,25.0,0,1,,6.21,29.763779,,,,,,TRUE,,,,,SCT,1900,,,,,,,VFR,,,,,,,,,,,,METAR,86.0
WAJJ 281030Z 17002KT 9999 FEW013 28/24 Q1006 NOSIG,WAJJ,2023-04-28T10:30:00Z,-2.58,140.52,28.0,24.0,170,2,,6.21,29.704725,,,,,,TRUE,,,,,FEW,1300,,,,,,,VFR,,,,,,,,,,,,METAR,93.0
WADL 281030Z 31002KT 7000 FEW015CB BKN016 26/25 Q1008 NOSIG RMK CB TO N UNTIL E,WADL,2023-04-28T10:30:00Z,-8.75,116.28,26.0,25.0,310,2,,4.35,29.763779,,,,,,TRUE,,,,,FEW,1500,BKN,1600,,,,,MVFR,,,,,,,,,,,,SPECI,97.0
VYYY 281030Z 21007KT 7000 FEW020 38/23 Q1005 NOSIG,VYYY,2023-04-28T10:30:00Z,16.9,96.13,38.0,23.0,210,7,,4.35,29.675198,,,,,,TRUE,,,,,FEW,2000,,,,,,,MVFR,,,,,,,,,,,,METAR,31.0
VYMD 281030Z 14003KT 7000 HZ SCT025 SCT120 40/18 Q1003,VYMD,2023-04-28T10:30:00Z,21.7,95.98,40.0,18.0,140,3,,4.35,29.616142,,,,,,,,,,HZ,SCT,2500,SCT,12000,,,,,MVFR,,,,,,,,,,,,METAR,87.0
VVTS 281030Z 28004KT 9000 SCT017 FEW020CB 29/26 Q1007 NOSIG,VVTS,2023-04-28T10:30:00Z,10.82,106.67,29.0,26.0,280,4,,5.59,29.734253,,,,,,TRUE,,,,,SCT,1700,FEW,2000,,,,,VFR,,,,,,,,,,,,METAR,10.0
VVPQ 281030Z VRB02KT 9999 FEW017 32/22 Q1006 NOSIG,VVPQ,2023-04-28T10:30:00Z,10.23,103.97,32.0,22.0,0,2,,6.21,29.704725,,,,,,TRUE,,,,,FEW,1700,,,,,,,VFR,,,,,,,,,,,,METAR,8.0
VVPB 281030Z 10006KT 9999 FEW017 SCT070 29/25 Q1008 NOSIG,VVPB,2023-04-28T10:30:00Z,16.38,107.7,29.0,25.0,100,6,,6.21,29.763779,,,,,,TRUE,,,,,FEW,1700,SCT,7000,,,,,VFR,,,,,,,,,,,,METAR,15.0
VVDN 281030Z 12006KT 080V150 9999 FEW015 28/22 Q1009 NOSIG,VVDN,2023-04-28T10:30:00Z,16.03,108.2,28.0,22.0,120,6,,6.21,29.793306,,,,,,TRUE,,,,,FEW,1500,,,,,,,VFR,,,,,,,,,,,,METAR,7.0
VVCT 281030Z 11005KT 9999 FEW017 31/22 Q1006 NOSIG,VVCT,2023-04-28T10:30:00Z,10.08,105.72,31.0,22.0,110,5,,6.21,29.704725,,,,,,TRUE,,,,,FEW,1700,,,,,,,VFR,,,,,,,,,,,,METAR,6.0
VVCR 281030Z 07010KT 9999 SCT015 29/25 Q1009 NOSIG,VVCR,2023-04-28T10:30:00Z,12.0,109.22,29.0,25.0,70,10,,6.21,29.793306,,,,,,TRUE,,,,,SCT,1500,,,,,,,VFR,,,,,,,,,,,,METAR,12.0
VVCI 281030Z 13007KT 9999 BKN045 27/23 Q1008 NOSIG,VVCI,2023-04-28T10:30:00Z,20.82,106.73,27.0,23.0,130,7,,6.21,29.763779,,,,,,TRUE,,,,,BKN,4500,,,,,,,VFR,,,,,,,,,,,,METAR,6.0
VTSS 281030Z 06008KT 9999 FEW020 32/25 Q1006 NOSIG,VTSS,2023-04-28T10:30:00Z,6.92,100.38,32.0,25.0,60,8,,6.21,29.704725,,,,,,TRUE,,,,,FEW,2000,,,,,,,VFR,,,,,,,,,,,,METAR,28.0
VTSP 281030Z 28009KT 9999 FEW020 31/24 Q1005 NOSIG,VTSP,2023-04-28T10:30:00Z,8.12,98.32,31.0,24.0,280,9,,6.21,29.675198,,,,,,TRUE,,,,,FEW,2000,,,,,,,VFR,,,,,,,,,,,,METAR,12.0
VTCC 281030Z 13005KT 110V180 9000 FEW035 38/17 Q1004 NOSIG,VTCC,2023-04-28T10:30:00Z,18.77,98.97,38.0,17.0,130,5,,5.59,29.64567,,,,,,TRUE,,,,,FEW,3500,,,,,,,VFR,,,,,,,,,,,,METAR,308.0
VTBU 281030Z 17010KT 8000 FEW020 32/26 Q1007 NOSIG,VTBU,2023-04-28T10:30:00Z,12.68,101.0,32.0,26.0,170,10,,4.97,29.734253,,,,,,TRUE,,,,,FEW,2000,,,,,,,MVFR,,,,,,,,,,,,METAR,12.0
VTBS 281030Z 19007KT 9999 FEW020 33/23 Q1005 NOSIG,VTBS,2023-04-28T10:30:00Z,13.68,100.75,33.0,23.0,190,7,,6.21,29.675198,,,,,,TRUE,,,,,FEW,2000,,,,,,,VFR,,,,,,,,,,,,METAR,1.0
VTBD 281030Z 15008KT 120V180 9999 FEW020 34/24 Q1005 NOSIG,VTBD,2023-04-28T10:30:00Z,13.92,100.6,34.0,24.0,150,8,,6.21,29.675198,,,,,,TRUE,,,,,FEW,2000,,,,,,,VFR,,,,,,,,,,,,METAR,6.0
VOMM 281030Z 13014KT 6000 FEW020 FEW025CB 33/26 Q1006 NOSIG,VOMM,2023-04-28T10:30:00Z,13.0,80.17,33.0,26.0,130,14,,3.73,29.704725,,,,,,TRUE,,,,,FEW,2000,FEW,2500,,,,,MVFR,,,,,,,,,,,,METAR,7.0
VOKN 281030Z 28009KT 6000 SCT012 FEW025CB 34/25 Q1006 NOSIG,VOKN,2023-04-28T10:30:00Z,11.92,75.55,34.0,25.0,280,9,,3.73,29.704725,,,,,,TRUE,,,,,SCT,1200,FEW,2500,,,,,MVFR,,,,,,,,,,,,METAR,105.0
VOJV 281030Z VRB03KT 6000 FEW015 FEW025TCU SCT080 31/23 Q1009,VOJV,2023-04-28T10:30:00Z,15.17,76.63,31.0,23.0,0,3,,3.73,29.793306,,,,,,,,,,,FEW,1500,FEW,2500,SCT,8000,,,MVFR,,,,,,,,,,,,METAR,508.0
VOHB 281030Z 24010KT 9999 SCT012 34/19 Q1009,VOHB,2023-04-28T10:30:00Z,15.37,75.08,34.0,19.0,240,10,,6.21,29.793306,,,,,,,,,,,SCT,1200,,,,,,,VFR,,,,,,,,,,,,METAR,661.0
VOGA 281030Z 27011KT 7000 SCT080 32/19 Q1008 NOSIG,VOGA,2023-04-28T10:30:00Z,,,32.0,19.0,270,11,,4.35,29.763779,,,,,,TRUE,,,,,SCT,8000,,,,,,,MVFR,,,,,,,,,,,,METAR,
VOCP 281030Z 11009KT 6000 FEW020 FEW030CB 37/16 Q1005 NOSIG,VOCP,2023-04-28T10:30:00Z,14.5,78.77,37.0,16.0,110,9,,3.73,29.675198,,,,,,TRUE,,,,,FEW,2000,FEW,3000,,,,,MVFR,,,,,,,,,,,,METAR,134.0
VOCL 281030Z 26009KT 6000 FEW015 SCT018 FEW025CB 33/23 Q1006 NOSIG,VOCL,2023-04-28T10:30:00Z,11.13,75.95,33.0,23.0,260,9,,3.73,29.704725,,,,,,TRUE,,,,,FEW,1500,SCT,1800,FEW,2500,,,MVFR,,,,,,,,,,,,METAR,104.0
VOCI 281030Z 27013KT 5000 TS SCT015 FEW025CB BKN080 34/25 Q1005 NOSIG,VOCI,2023-04-28T10:30:00Z,10.15,76.4,34.0,25.0,270,13,,3.11,29.675198,,,,,,TRUE,,,,TS,SCT,1500,FEW,2500,BKN,8000,,,MVFR,,,,,,,,,,,,METAR,8.0
VOBL 281030Z 12008KT 9999 SCT015 SCT020 33/15 Q1012 NOSIG,VOBL,2023-04-28T10:30:00Z,13.2,77.7,33.0,15.0,120,8,,6.21,29.88189,,,,,,TRUE,,,,,SCT,1500,SCT,2000,,,,,VFR,,,,,,,,,,,,METAR,908.0
VNKT 281030Z 30009KT 8000 FEW015 SCT030 26/09 Q1014 NOSIG,VNKT,2023-04-28T10:30:00Z,27.68,85.37,26.0,9.0,300,9,,4.97,29.940945,,,,,,TRUE,,,,,FEW,1500,SCT,3000,,,,,MVFR,,,,,,,,,,,,METAR,1334.0
VMMC 281030Z 13006KT 9999 FEW010 SCT015 24/22 Q1011 NOSIG,VMMC,2023-04-28T10:30:00Z,22.15,113.58,24.0,22.0,130,6,,6.21,29.852362,,,,,,TRUE,,,,,FEW,1000,SCT,1500,,,,,VFR,,,,,,,,,,,,METAR,1.0
VIPT 281030Z 21004KT 5000 HZ FEW030 BKN100 31/13 Q1008,VIPT,2023-04-28T10:30:00Z,29.03,79.47,31.0,13.0,210,4,,3.11,29.763779,,,,,,,,,,HZ,FEW,3000,BKN,10000,,,,,MVFR,,,,,,,,,,,,METAR,236.0
VIDN 281030Z 24007KT 5000 HZ SCT030 BKN070 31/09 Q1010,VIDN,2023-04-28T10:30:00Z,30.2,78.18,31.0,9.0,240,7,,3.11,29.822834,,,,,,,,,,HZ,SCT,3000,BKN,7000,,,,,MVFR,,,,,,,,,,,,METAR,550.0
VHHH 281030Z 10006KT 070V130 9999 FEW015 26/21 Q1011 NOSIG,VHHH,2023-04-28T10:30:00Z,22.32,113.92,26.0,21.0,100,6,,6.21,29.852362,,,,,,TRUE,,,,,FEW,1500,,,,,,,VFR,,,,,,,,,,,,METAR,9.0
VGHS 281030Z 27009KT 4000 HZ FEW015 SCT100 35/21 Q1007 NOSIG,VGHS,2023-04-28T10:30:00Z,23.85,90.4,35.0,21.0,270,9,,2.49,29.734253,,,,,,TRUE,,,,HZ,FEW,1500,SCT,10000,,,,,IFR,,,,,,,,,,,,METAR,11.0
VERU 281030Z 21008KT 5000 HZ SCT020 BKN100 29/20 Q1006 NOSIG,VERU,2023-04-28T10:30:00Z,26.13,89.92,29.0,20.0,210,8,,3.11,29.704725,,,,,,TRUE,,,,HZ,SCT,2000,BKN,10000,,,,,MVFR,,,,,,,,,,,,METAR,45.0
VERP 281030Z 25006KT 6000 SCT100 33/19 Q1008 NOSIG,VERP,2023-04-28T10:30:00Z,21.18,81.73,33.0,19.0,250,6,,3.73,29.763779,,,,,,TRUE,,,,,SCT,10000,,,,,,,MVFR,,,,,,,,,,,,METAR,318.0
VERK 281030Z 27003KT 6000 SCT020 35/13 Q1006,VERK,2023-04-28T10:30:00Z,22.22,84.87,35.0,13.0,270,3,,3.73,29.704725,,,,,,,,,,,SCT,2000,,,,,,,MVFR,,,,,,,,,,,,METAR,196.0
VERC 281030Z 20004KT 5000 HZ FEW020 FEW030CB BKN100 32/17 Q1010 TEMPO 3000 -TSRA,VERC,2023-04-28T10:30:00Z,23.32,85.32,32.0,17.0,200,4,,3.11,29.822834,,,,,,,,,,HZ,FEW,2000,FEW,3000,BKN,10000,,,MVFR,,,,,,,,,,,,METAR,646.0
VEPT 281030Z 33005KT 5000 HZ FEW020 SCT100 38/15 Q1005 NOSIG,VEPT,2023-04-28T10:30:00Z,25.6,85.08,38.0,15.0,330,5,,3.11,29.675198,,,,,,TRUE,,,,HZ,FEW,2000,SCT,10000,,,,,MVFR,,,,,,,,,,,,METAR,53.0
VEMN 281030Z 11008KT 4000 HZ FEW020 FEW025CB BKN100 27/19 Q1009 NOSIG,VEMN,2023-04-28T10:30:00Z,27.47,95.02,27.0,19.0,110,8,,2.49,29.793306,,,,,,TRUE,,,,HZ,FEW,2000,FEW,2500,BKN,10000,,,IFR,,,,,,,,,,,,METAR,111.0
VEJR 281030Z 00000KT 6000 FEW030 31/19 Q1010,VEJR,2023-04-28T10:30:00Z,19.07,82.03,31.0,19.0,0,0,,3.73,29.822834,,,,,,,,,,,FEW,3000,,,,,,,MVFR,,,,,,,,,,,,METAR,555.0
VEJH 281030Z 26004KT 5000 HZ SCT018 BKN100 34/17 Q1007,VEJH,2023-04-28T10:30:00Z,21.92,84.03,34.0,17.0,260,4,,3.11,29.734253,,,,,,,,,,HZ,SCT,1800,BKN,10000,,,,,MVFR,,,,,,,,,,,,METAR,231.0
VEIM 281030Z 26010KT 5000 HZ SCT018 FEW030CB BKN100 30/14 Q1011 NOSIG,VEIM,2023-04-28T10:30:00Z,24.77,93.9,30.0,14.0,260,10,,3.11,29.852362,,,,,,TRUE,,,,HZ,SCT,1800,FEW,3000,BKN,10000,,,MVFR,,,,,,,,,,,,METAR,777.0
VEGY 281030Z 30010KT 6000 SCT020 BKN100 37/16 Q1005 NOSIG,VEGY,2023-04-28T10:30:00Z,24.75,84.95,37.0,16.0,300,10,,3.73,29.675198,,,,,,TRUE,,,,,SCT,2000,BKN,10000,,,,,MVFR,,,,,,,,,,,,METAR,115.0
VEGT 281030Z 27002KT 5000 HZ SCT018 BKN100 35/27 Q1006 NOSIG,VEGT,2023-04-28T10:30:00Z,26.1,91.58,35.0,27.0,270,2,,3.11,29.704725,,,,,,TRUE,,,,HZ,SCT,1800,BKN,10000,,,,,MVFR,,,,,,,,,,,,METAR,50.0
VEDO 281030Z 34006KT 5000 HZ SCT020 BKN100 34/15 Q1007 NOSIG,VEDO,2023-04-28T10:30:00Z,24.45,86.7,34.0,15.0,340,6,,3.11,29.734253,,,,,,TRUE,,,,HZ,SCT,2000,BKN,10000,,,,,MVFR,,,,,,,,,,,,METAR,244.0
VEDG 281030Z 25004KT 5000 HZ SCT020 BKN100 36/17 Q1006 NOSIG,VEDG,2023-04-28T10:30:00Z,23.62,87.25,36.0,17.0,250,4,,3.11,29.704725,,,,,,TRUE,,,,HZ,SCT,2000,BKN,10000,,,,,MVFR,,,,,,,,,,,,METAR,88.0
VECC 281030Z 31005KT 3800 HZ SCT018 BKN100 35/24 Q1006 NOSIG,VECC,2023-04-28T10:30:00Z,22.65,88.43,35.0,24.0,310,5,,2.36,29.704725,,,,,,TRUE,,,,HZ,SCT,1800,BKN,10000,,,,,IFR,,,,,,,,,,,,METAR,11.0
VEBS 281030Z 20005KT 5000 HZ SCT018 SCT100 34/24 Q1008 NOSIG,VEBS,2023-04-28T10:30:00Z,20.25,85.82,34.0,24.0,200,5,,3.11,29.763779,,,,,,TRUE,,,,HZ,SCT,1800,SCT,10000,,,,,MVFR,,,,,,,,,,,,METAR,42.0
VEAT 281030Z 23006KT 6000 SCT020 SCT100 34/22 Q1007 NOSIG,VEAT,2023-04-28T10:30:00Z,23.88,91.25,34.0,22.0,230,6,,3.73,29.734253,,,,,,TRUE,,,,,SCT,2000,SCT,10000,,,,,MVFR,,,,,,,,,,,,METAR,20.0
VDSV 281030Z 24006KT 9999 SCT015 SCT040 31/26 Q1006,VDSV,2023-04-28T10:30:00Z,10.58,103.63,31.0,26.0,240,6,,6.21,29.704725,,,,,,,,,,,SCT,1500,SCT,4000,,,,,VFR,,,,,,,,,,,,METAR,1.0
VDSR 281030Z 05015KT 9999 -TSRA SCT015 FEW017CB SCT040 29/23 Q1006 RMK CB:NE/NW,VDSR,2023-04-28T10:30:00Z,13.42,103.8,29.0,23.0,50,15,,6.21,29.704725,,,,,,,,,,-TSRA,SCT,1500,FEW,1700,SCT,4000,,,VFR,,,,,,,,,,,,METAR,16.0
VDPP 281030Z VRB02KT 9999 SCT015 FEW017CB SCT040 35/23 Q1004 RMK CB:SE,VDPP,2023-04-28T10:30:00Z,11.55,104.83,35.0,23.0,0,2,,6.21,29.64567,,,,,,,,,,,SCT,1500,FEW,1700,SCT,4000,,,VFR,,,,,,,,,,,,METAR,10.0
VAUD 281030Z 01004KT 4000 TS SCT030 FEW035CB BKN080 29/16 Q1010 TEMPO3000TSRA,VAUD,2023-04-28T10:30:00Z,24.62,73.9,29.0,16.0,10,4,,2.49,29.822834,,,,,,,,,,TS,SCT,3000,FEW,3500,BKN,8000,,,IFR,,,,,,,,,,,,METAR,506.0
VASU 281030Z 21010KT 6000 FEW030 35/23 Q1006 NOSIG,VASU,2023-04-28T10:30:00Z,21.12,72.73,35.0,23.0,210,10,,3.73,29.704725,,,,,,TRUE,,,,,FEW,3000,,,,,,,MVFR,,,,,,,,,,,,METAR,6.0
VANP 281030Z 23007KT 5000 HZ FEW020 SCT100 34/19 Q1009 NOSIG,VANP,2023-04-28T10:30:00Z,21.08,79.05,34.0,19.0,230,7,,3.11,29.793306,,,,,,TRUE,,,,HZ,FEW,2000,SCT,10000,,,,,MVFR,,,,,,,,,,,,METAR,309.0
VAKP 281030Z 24011KT 8000 FEW020 33/15 Q1010,VAKP,2023-04-28T10:30:00Z,16.65,74.28,33.0,15.0,240,11,,4.97,29.822834,,,,,,,,,,,FEW,2000,,,,,,,MVFR,,,,,,,,,,,,METAR,612.0
VAJB 281030Z 35015G25KT 5000 -TS SCT025 FEW030CB SCT100 34/15 Q1009 TEMPO3000-TSRA,VAJB,2023-04-28T10:30:00Z,23.18,80.05,34.0,15.0,350,15,25,3.11,29.793306,,,,,,,,,,-TS,SCT,2500,FEW,3000,SCT,10000,,,MVFR,,,,,,,,,,,,METAR,489.0
VAID 281030Z 23015G25KT 5000 TSHZ FEW018 FEW030CB BKN100 33/16 Q1010 TEMPO 4000 TS HZ,VAID,2023-04-28T10:30:00Z,22.72,75.8,33.0,16.0,230,15,25,3.11,29.822834,,,,,,,,,,SH,FEW,1800,FEW,3000,BKN,10000,,,MVFR,,,,,,,,,,,,METAR,564.0
VABO 281030Z 21006KT 6000 FEW020 38/18 Q1005 NOSIG,VABO,2023-04-28T10:30:00Z,22.33,73.22,38.0,18.0,210,6,,3.73,29.675198,,,,,,TRUE,,,,,FEW,2000,,,,,,,MVFR,,,,,,,,,,,,METAR,36.0
VABB 281030Z 30008G18KT 6000 FEW025 31/21 Q1007 NOSIG,VABB,2023-04-28T10:30:00Z,19.1,72.87,31.0,21.0,300,8,18,3.73,29.734253,,,,,,TRUE,,,,,FEW,2500,,,,,,,MVFR,,,,,,,,,,,,METAR,14.0
VAAH 281030Z 26006KT 6000 FEW020 SCT025 36/14 Q1005 NOSIG,VAAH,2023-04-28T10:30:00Z,23.07,72.63,36.0,14.0,260,6,,3.73,29.675198,,,,,,TRUE,,,,,FEW,2000,SCT,2500,,,,,MVFR,,,,,,,,,,,,METAR,52.0
UWWW 281030Z VRB01MPS 9999 SCT033 24/05 Q1016 R15/CLRD60 NOSIG RMK QFE750/1000,UWWW,2023-04-28T10:30:00Z,53.5,50.17,24.0,5.0,0,2,,6.21,30.0,,,,,,TRUE,,,,,SCT,3300,,,,,,,VFR,,,,,,,,,,,,SPECI,124.0
UWUU 281030Z 29006MPS 230V320 9999 SCT040 23/04 Q1014 R32L/0///60 NOSIG,UWUU,2023-04-28T10:30:00Z,54.57,55.87,23.0,4.0,290,12,,6.21,29.940945,,,,,,TRUE,,,,,SCT,4000,,,,,,,VFR,,,,,,,,,,,,SPECI,137.0
UWSG 281030Z 11003MPS 060V140 CAVOK 23/08 Q1015 R08/CLRD70 NOSIG RMK QFE759/1012,UWSG,2023-04-28T10:30:00Z,51.72,46.17,23.0,8.0,110,6,,6.21,29.970472,,,,,,TRUE,,,,,CAVOK,,,,,,,,VFR,,,,,,,,,,,,METAR,31.0
UWPS 281030Z 19002G07MPS 100V260 9999 BKN036 23/03 Q1015 R20/CLRD60 NOSIG RMK QFE744,UWPS,2023-04-28T10:30:00Z,54.12,45.2,23.0,3.0,190,4,14,6.21,29.970472,,,,,,TRUE,,,,,BKN,3600,,,,,,,VFR,,,,,,,,,,,,METAR,206.0
UWOO 281030Z 02006MPS 330V040 9999 SCT040 25/01 Q1013 R08/CLRD60 NOSIG RMK QFE749/0999,UWOO,2023-04-28T10:30:00Z,51.8,55.47,25.0,1.0,20,12,,6.21,29.911417,,,,,,TRUE,,,,,SCT,4000,,,,,,,VFR,,,,,,,,,,,,SPECI,90.0
UWLL 281030Z 10005MPS 070V140 CAVOK 22/05 Q1016 R20/090065 NOSIG RMK QFE751/1002,UWLL,2023-04-28T10:30:00Z,54.27,48.23,22.0,5.0,100,10,,6.21,30.0,,,,,,TRUE,,,,,CAVOK,,,,,,,,VFR,,,,,,,,,,,,SPECI,119.0
UWKS 281030Z 26002MPS 200V350 9999 SCT033CB 22/06 Q1016 R24/010060 NOSIG RMK QFE747,UWKS,2023-04-28T10:30:00Z,56.08,47.35,22.0,6.0,260,4,,6.21,30.0,,,,,,TRUE,,,,,SCT,3300,,,,,,,VFR,,,,,,,,,,,,METAR,165.0
UWKE 281030Z 33007MPS 9999 BKN046 21/06 Q1016 R21/090070 NOSIG RMK QFE745/0993,UWKE,2023-04-28T10:30:00Z,55.57,52.08,21.0,6.0,330,14,,6.21,30.0,,,,,,TRUE,,,,,BKN,4600,,,,,,,VFR,,,,,,,,,,,,SPECI,193.0
UWKD 281030Z 35002MPS 310V030 CAVOK 21/04 Q1016 R29/CLRD70 NOSIG RMK QFE751/1001,UWKD,2023-04-28T10:30:00Z,55.62,49.28,21.0,4.0,350,4,,6.21,30.0,,,,,,TRUE,,,,,CAVOK,,,,,,,,VFR,,,,,,,,,,,,SPECI,114.0
UWGG 281030Z 25004MPS 9999 BKN040CB 18/08 Q1015 R18L/090070 TEMPO -TSRA,UWGG,2023-04-28T10:30:00Z,56.23,43.78,18.0,8.0,250,8,,6.21,29.970472,,,,,,,,,,,BKN,4000,,,,,,,VFR,,,,,,,,,,,,SPECI,73.0
UUYY 281030Z 03004MPS CAVOK 08/M07 Q1023 R36/CLRD61 NOSIG RMK QFE758/1011,UUYY,2023-04-28T10:30:00Z,61.65,50.83,8.0,-7.0,30,8,,6.21,30.206694,,,,,,TRUE,,,,,CAVOK,,,,,,,,VFR,,,,,,,,,,,,SPECI,107.0
UUWW 281030Z 23004MPS 9999 BKN032 13/10 Q1012 R19/290050 NOSIG,UUWW,2023-04-28T10:30:00Z,55.6,37.27,13.0,10.0,230,8,,6.21,29.88189,,,,,,TRUE,,,,,BKN,3200,,,,,,,VFR,,,,,,,,,,,,SPECI,195.0
UUOO 281030Z 18003MPS 140V210 CAVOK 22/11 Q1011 R12/010070 NOSIG RMK QFE744,UUOO,2023-04-28T10:30:00Z,51.82,39.23,22.0,11.0,180,6,,6.21,29.852362,,,,,,TRUE,,,,,CAVOK,,,,,,,,VFR,,,,,,,,,,,,SPECI,154.0
UUOL 281030Z AUTO 17007MPS 9999 NCD 20/09 Q1012,UUOL,2023-04-28T10:30:00Z,52.7,39.53,20.0,9.0,170,14,,6.21,29.88189,,,TRUE,,,,,,,,CLR,,,,,,,,VFR,,,,,,,,,,,,METAR,176.0
UUOK 281030Z 33004MPS 310V020 9999 BKN025 16/12 Q1011 R30/290050 NOSIG RMK QFE740/0987,UUOK,2023-04-28T10:30:00Z,51.75,36.28,16.0,12.0,330,8,,6.21,29.852362,,,,,,TRUE,,,,,BKN,2500,,,,,,,MVFR,,,,,,,,,,,,METAR,203.0
UUOB 281030Z 29002MPS CAVOK 18/11 Q1011 R11/010070 NOSIG,UUOB,2023-04-28T10:30:00Z,50.65,36.58,18.0,11.0,290,4,,6.21,29.852362,,,,,,TRUE,,,,,CAVOK,,,,,,,,VFR,,,,,,,,,,,,METAR,218.0
UUMO 281030Z 25004MPS 190V290 9999 BKN020CB 14/10 Q1012 R25/290050 NOSIG RMK QFE743/0991,UUMO,2023-04-28T10:30:00Z,55.52,37.5,14.0,10.0,250,8,,6.21,29.88189,,,,,,TRUE,,,,,BKN,2000,,,,,,,MVFR,,,,,,,,,,,,METAR,167.0
UUEE 281030Z 23005MPS 9000 -SHRA BKN015CB 13/11 Q1011 R24L/290251 R24C/290251 NOSIG,UUEE,2023-04-28T10:30:00Z,55.97,37.42,13.0,11.0,230,10,,5.59,29.852362,,,,,,TRUE,,,,-SHRA,BKN,1500,,,,,,,MVFR,,,,,,,,,,,,SPECI,186.0
UUDL 281030Z 16005MPS 120V190 CAVOK 20/07 Q1011 R23/010060 NOSIG RMK QFE750,UUDL,2023-04-28T10:30:00Z,57.57,40.17,20.0,7.0,160,10,,6.21,29.852362,,,,,,TRUE,,,,,CAVOK,,,,,,,,VFR,,,,,,,,,,,,METAR,88.0
UUDD 281030Z 19004MPS 9999 BKN021CB 15/11 Q1012 R88/290042 NOSIG,UUDD,2023-04-28T10:30:00Z,55.4,37.9,15.0,11.0,190,8,,6.21,29.88189,,,,,,TRUE,,,,,BKN,2100,,,,,,,MVFR,,,,,,,,,,,,SPECI,165.0
UUBW 281030Z 16004MPS 9999 BKN025CB 16/12 Q1012 R30/290050 TEMPO -TSRA,UUBW,2023-04-28T10:30:00Z,55.55,38.15,16.0,12.0,160,8,,6.21,29.88189,,,,,,,,,,,BKN,2500,,,,,,,MVFR,,,,,,,,,,,,METAR,111.0
UUBP 281030Z AUTO 31006MPS 9999 -RA ///012 07/06 Q1015 R34/////// NOSIG RMK QFE743/0991,UUBP,2023-04-28T10:30:00Z,53.22,34.18,7.0,6.0,310,12,,6.21,29.970472,,,TRUE,,,TRUE,,,,-RA,,,,,,,,,,,,,,,,,,,,,SPECI,197.0
UUBC 281030Z 30005MPS 9999 -RA OVC005 10/09 Q1013 R31/290150 NOSIG RMK QBB170 QFE742/0990,UUBC,2023-04-28T10:30:00Z,54.55,36.37,10.0,9.0,300,10,,6.21,29.911417,,,,,,TRUE,,,,-RA,OVC,500,,,,,,,IFR,,,,,,,,,,,,METAR,198.0
UTTT 281030Z 10020KT 9999 SCT066CB 28/03 Q1012 R08R/CLRD70 NOSIG,UTTT,2023-04-28T10:30:00Z,41.27,69.27,28.0,3.0,100,20,,6.21,29.88189,,,,,,TRUE,,,,,SCT,6600,,,,,,,VFR,,,,,,,,,,,,SPECI,429.0
UTST 281030Z 02004KT CAVOK 32/M02 Q1009 R25/CLRD70 NOSIG,UTST,2023-04-28T10:30:00Z,37.28,67.32,32.0,-2.0,20,4,,6.21,29.793306,,,,,,TRUE,,,,,CAVOK,,,,,,,,VFR,,,,,,,,,,,,SPECI,311.0
UTSS 281030Z 30010KT 270V350 9999 NSC 28/M01 Q1011 R27/CLRD70 NOSIG,UTSS,2023-04-28T10:30:00Z,39.7,66.98,28.0,-1.0,300,10,,6.21,29.852362,,,,,,TRUE,,,,,CLR,,,,,,,,VFR,,,,,,,,,,,,SPECI,665.0
UTSK 281030Z 21010KT 160V230 CAVOK 32/M04 Q1010 R16/CLRD70,UTSK,2023-04-28T10:30:00Z,38.8,65.77,32.0,-4.0,210,10,,6.21,29.822834,,,,,,,,,,,CAVOK,,,,,,,,VFR,,,,,,,,,,,,SPECI,399.0
UTSB 281030Z 36004KT CAVOK 31/M08 Q1010 R01/CLRD70 NOSIG,UTSB,2023-04-28T10:30:00Z,39.77,64.48,31.0,-8.0,360,4,,6.21,29.822834,,,,,,TRUE,,,,,CAVOK,,,,,,,,VFR,,,,,,,,,,,,SPECI,225.0
UTSA 281030Z 28010KT 240V310 9999 NSC 31/M07 Q1010 R25/CLRD70 NOSIG,UTSA,2023-04-28T10:30:00Z,40.12,65.17,31.0,-7.0,280,10,,6.21,29.822834,,,,,,TRUE,,,,,CLR,,,,,,,,VFR,,,,,,,,,,,,SPECI,346.0
UTNU 281030Z 04004KT CAVOK 30/M06 Q1010 R31/CLRD70 NOSIG,UTNU,2023-04-28T10:30:00Z,41.58,60.63,30.0,-6.0,40,4,,6.21,29.822834,,,,,,TRUE,,,,,CAVOK,,,,,,,,VFR,,,,,,,,,,,,SPECI,97.0
UTNN 281030Z 34006KT CAVOK 31/M09 Q1010 R33/CLRD60 NOSIG,UTNN,2023-04-28T10:30:00Z,42.48,59.63,31.0,-9.0,340,6,,6.21,29.822834,,,,,,TRUE,,,,,CAVOK,,,,,,,,VFR,,,,,,,,,,,,SPECI,76.0
UTFN 281030Z 15006KT 110V200 9999 FEW050CB 29/01 Q1009 R28/CLRD70 NOSIG,UTFN,2023-04-28T10:30:00Z,40.98,71.57,29.0,1.0,150,6,,6.21,29.793306,,,,,,TRUE,,,,,FEW,5000,,,,,,,VFR,,,,,,,,,,,,METAR,477.0
UTFF 281030Z VRB02KT 9999 NSC 29/M01 Q1011 R18/CLRD70,UTFF,2023-04-28T10:30:00Z,40.37,71.73,29.0,-1.0,0,2,,6.21,29.852362,,,,,,,,,,,CLR,,,,,,,,VFR,,,,,,,,,,,,METAR,612.0
UTDT 281030Z 32003MPS 270V350 9999 SCT066 31/M01 Q1010 R35/CLRD70 RMK QFE718/0958,UTDT,2023-04-28T10:30:00Z,37.87,68.87,31.0,-1.0,320,6,,6.21,29.822834,,,,,,,,,,,SCT,6600,,,,,,,VFR,,,,,,,,,,,,METAR,443.0
UTDL 281030Z 13002MPS 9999 FEW060CB 31/00 Q1010 R08/CLRD70 NOSIG RMK QFE719/0959,UTDL,2023-04-28T10:30:00Z,40.22,69.7,31.0,0.0,130,4,,6.21,29.822834,,,,,,TRUE,,,,,FEW,6000,,,,,,,VFR,,,,,,,,,,,,SPECI,436.0
UTDK 281030Z VRB02MPS 9999 NSC 29/M05 Q1012 R01/09//70 RMK QFE702/0936,UTDK,2023-04-28T10:30:00Z,37.98,69.8,29.0,-5.0,0,4,,6.21,29.88189,,,,,,,,,,,CLR,,,,,,,,VFR,,,,,,,,,,,,METAR,675.0
UTDD 281030Z 01003MPS 310V100 9999 FEW066CB 27/M01 Q1013 R09/CLRD// NOSIG RMK QFE692/0922,UTDD,2023-04-28T10:30:00Z,38.53,68.82,27.0,-1.0,10,6,,6.21,29.911417,,,,,,TRUE,,,,,FEW,6600,,,,,,,VFR,,,,,,,,,,,,SPECI,785.0
USTR 281030Z 36005MPS 310V070 CAVOK 11/M04 Q1016 R03/090065 R30/////99 TEMPO 36016MPS,USTR,2023-04-28T10:30:00Z,57.18,65.32,11.0,-4.0,360,10,,6.21,30.0,,,,,,,,,,,CAVOK,,,,,,,,VFR,,,,,,,,,,,,SPECI,93.0
USSS 281030Z 04003MPS 360V060 9999 BKN023CB 09/04 Q1017 R26R/010060 NOSIG RMK QFE742/0990,USSS,2023-04-28T10:30:00Z,56.75,60.78,9.0,4.0,40,6,,6.21,30.029528,,,,,,TRUE,,,,,BKN,2300,,,,,,,MVFR,,,,,,,,,,,,SPECI,222.0
USRR 281030Z 30013G19MPS 4900 -SHSN SCT018CB SCT040 M01/M03 Q1007 R25/CLRD60 NOSIG RMK QFE750,USRR,2023-04-28T10:30:00Z,61.33,73.42,-1.0,-3.0,300,25,37,3.04,29.734253,,,,,,TRUE,,,,-SHSN,SCT,1800,SCT,4000,,,,,MVFR,,,,,,,,,,,,SPECI,52.0
USPP 281030Z 03004MPS 9999 OVC020 08/03 Q1018 R03/090060 NOSIG RMK QFE753,USPP,2023-04-28T10:30:00Z,57.92,56.02,8.0,3.0,30,8,,6.21,30.059055,,,,,,TRUE,,,,,OVC,2000,,,,,,,MVFR,,,,,,,,,,,,SPECI,120.0
USNN 281030Z 29008G18MPS 9999 BKN031CB 01/M05 Q1003 R21/0///65 NOSIG RMK QFE747,USNN,2023-04-28T10:30:00Z,60.95,76.48,1.0,-5.0,290,16,35,6.21,29.616142,,,,,,TRUE,,,,,BKN,3100,,,,,,,VFR,,,,,,,,,,,,SPECI,52.0
USHH 281030Z 30006G12MPS 9999 SCT040CB 03/M07 Q1015 R24/010060 NOSIG,USHH,2023-04-28T10:30:00Z,61.03,69.08,3.0,-7.0,300,12,23,6.21,29.970472,,,,,,TRUE,,,,,SCT,4000,,,,,,,VFR,,,,,,,,,,,,METAR,46.0
USDA 281030Z 03014MPS 4100 BLSN BKN010 M04/M05 Q1018 R04/550243 NOSIG RMK QFE762/1016,USDA,2023-04-28T10:30:00Z,71.2,72.05,-4.0,-5.0,30,27,,2.55,30.059055,,,,,,TRUE,,,,BLSN,BKN,1000,,,,,,,IFR,,,,,,,,,,,,METAR,5.0
USCM 281030Z 23003MPS 9999 BKN040 24/M01 Q1012 R36/090060 NOSIG RMK QFE721,USCM,2023-04-28T10:30:00Z,53.4,58.75,24.0,-1.0,230,6,,6.21,29.88189,,,,,,TRUE,,,,,BKN,4000,,,,,,,VFR,,,,,,,,,,,,METAR,425.0
USCC 281030Z 01009MPS 9999 FEW050CB 18/08 Q1013 R27/000060 TEMPO 33017MPS RMK QFE740,USCC,2023-04-28T10:30:00Z,55.3,61.5,18.0,8.0,10,17,,6.21,29.911417,,,,,,,,,,,FEW,5000,,,,,,,VFR,,,,,,,,,,,,SPECI,227.0
URWW 281030Z 12005MPS 090V150 CAVOK 23/08 Q1013 R05/010070 NOSIG,URWW,2023-04-28T10:30:00Z,48.78,44.33,23.0,8.0,120,10,,6.21,29.911417,,,,,,TRUE,,,,,CAVOK,,,,,,,,VFR,,,,,,,,,,,,SPECI,131.0
URWI 281030Z 13006MPS 9999 SCT/// 23/11 Q1010 R09/010065 NOSIG,URWI,2023-04-28T10:30:00Z,46.37,44.33,23.0,11.0,130,12,,6.21,29.822834,,,,,,TRUE,,,,,,,,,,,,,,,,,,,,,,,,,SPECI,145.0
URWA 281030Z 13010MPS CAVOK 25/11 Q1010 R09/010070 TEMPO 11010G16MPS RMK QFE759/1013,URWA,2023-04-28T10:30:00Z,46.28,47.98,25.0,11.0,130,19,,6.21,29.822834,,,,,,,,,,,CAVOK,,,,,,,,VFR,,-1.0,,,,,,,,,,SPECI,-19.0
URSS 281030Z 26005MPS 9999 FEW040CB 17/13 Q1010 WS ALL RWY R02/010070 R06/010070 TEMPO -TSRA BKN006 BKN030CB RMK R06/29005G08MPS MT OBSC QFE756,URSS,2023-04-28T10:30:00Z,43.45,39.92,17.0,13.0,260,10,,6.21,29.822834,,,,,,,,,,,FEW,4000,,,,,,,VFR,,,,,,,,,,,,SPECI,4.0
URRP 281030Z 11006MPS 9999 SCT030CB 21/14 Q1009 R05/CLRD70 NOSIG RMK QFE752/1003,URRP,2023-04-28T10:30:00Z,47.5,39.92,21.0,14.0,110,12,,6.21,29.793306,,,,,,TRUE,,,,,SCT,3000,,,,,,,VFR,,,,,,,,,,,,METAR,73.0
URMT 281030Z 08004MPS 050V120 9999 SCT043 20/13 Q1009 R07/010070 NOSIG RMK QFE717,URMT,2023-04-28T10:30:00Z,45.12,42.12,20.0,13.0,80,8,,6.21,29.793306,,,,,,TRUE,,,,,SCT,4300,,,,,,,VFR,,,,,,,,,,,,SPECI,448.0
URMO 281030Z 26004MPS 220V300 9999 SCT/// 23/12 Q1009 R27/010070 NOSIG RMK QFE712/0950,URMO,2023-04-28T10:30:00Z,43.2,44.6,23.0,12.0,260,8,,6.21,29.793306,,,,,,TRUE,,,,,,,,,,,,,,,,,,,,,,,,,METAR,505.0
URMN 281030Z 02001MPS 9999 SCT/// 19/13 Q1009 R24/010070 NOSIG RMK QFE720,URMN,2023-04-28T10:30:00Z,43.52,43.63,19.0,13.0,20,2,,6.21,29.793306,,,,,,TRUE,,,,,,,,,,,,,,,,,,,,,,,,,SPECI,424.0
URMM 281030Z 13003MPS 9999 SCT/// 19/13 Q1009 R12/090070 NOSIG RMK QFE729/0972,URMM,2023-04-28T10:30:00Z,44.22,43.07,19.0,13.0,130,6,,6.21,29.793306,,,,,,TRUE,,,,,,,,,,,,,,,,,,,,,,,,,SPECI,318.0
URML 281030Z 06003MPS 030V090 7000 OVC007 14/12 Q1009 R14/01//70 NOSIG RMK MT OBSC QFE757/1009,URML,2023-04-28T10:30:00Z,42.82,47.65,14.0,12.0,60,6,,4.35,29.793306,,,,,,TRUE,,,,,OVC,700,,,,,,,IFR,,,,,,,,,,,,SPECI,4.0
URMG 281030Z 30003MPS 9999 SCT015 17/13 Q1009 R26/090070 NOSIG RMK QFE742/0990,URMG,2023-04-28T10:30:00Z,43.38,45.7,17.0,13.0,300,6,,6.21,29.793306,,,,,,TRUE,,,,,SCT,1500,,,,,,,VFR,,,,,,,,,,,,METAR,160.0
URKK 281030Z 19003MPS 150V240 9999 FEW/// 20/14 Q1008 R05R/290060 TEMPO 3000 -TSRA SCT007 BKN016CB RMK QFE753,URKK,2023-04-28T10:30:00Z,45.03,39.15,20.0,14.0,190,6,,6.21,29.763779,,,,,,,,,,,,,,,,,,,,,,,,,,,,,,,SPECI,29.0
URKA 281030Z 20007MPS 9999 SCT/// BKN017CB 16/11 Q1008 R22/010070 TEMPO VRB12G17MPS 2000 TSRA BKN004 BKN020CB RMK QFE751/1002,URKA,2023-04-28T10:30:00Z,45.0,37.35,16.0,11.0,200,14,,6.21,29.763779,,,,,,,,,,,BKN,1700,,,,,,,MVFR,,,,,,,,,,,,SPECI,41.0
UOOO 281030Z 03006MPS 9999 FEW029 M07/M08 Q1007 R01/11//60 NOSIG RMK QFE741/0988,UOOO,2023-04-28T10:30:00Z,69.32,87.33,-7.0,-8.0,30,12,,6.21,29.734253,,,,,,TRUE,,,,,FEW,2900,,,,,,,VFR,,,,,,,,,,,,SPECI,177.0
UNWW 281030Z 22010MPS CAVOK 23/02 Q1011 R19/09//55 NOSIG RMK QFE731,UNWW,2023-04-28T10:30:00Z,53.82,86.88,23.0,2.0,220,19,,6.21,29.852362,,,,,,TRUE,,,,,CAVOK,,,,,,,,VFR,,,,,,,,,,,,SPECI,307.0
UNTT 281030Z 25008MPS CAVOK 22/00 Q1004 R21/090060 NOSIG RMK QFE738,UNTT,2023-04-28T10:30:00Z,56.38,85.22,22.0,0.0,250,16,,6.21,29.64567,,,,,,TRUE,,,,,CAVOK,,,,,,,,VFR,,,,,,,,,,,,METAR,179.0
UNOO 281030Z 30009G14MPS 9999 BKN033 25/M02 Q1008 R25/CLRD60 NOSIG RMK QFE748,UNOO,2023-04-28T10:30:00Z,54.97,73.32,25.0,-2.0,300,17,27,6.21,29.763779,,,,,,TRUE,,,,,BKN,3300,,,,,,,VFR,,,,,,,,,,,,SPECI,85.0
UNNT 281030Z 25011MPS CAVOK 26/02 Q1007 R25/090070 R16/090070 NOSIG RMK QFE745/0993,UNNT,2023-04-28T10:30:00Z,55.02,82.65,26.0,2.0,250,21,,6.21,29.734253,,,,,,TRUE,,,,,CAVOK,,,,,,,,VFR,,,,,,,,,,,,SPECI,106.0
UNKL 281030Z 20004MPS CAVOK 14/08 Q1007 R29/290055 NOSIG RMK QFE730,UNKL,2023-04-28T10:30:00Z,56.17,92.48,14.0,8.0,200,8,,6.21,29.734253,,,,,,TRUE,,,,,CAVOK,,,,,,,,VFR,,,,,,,,,,,,SPECI,278.0
UNEE 281030Z 24008MPS CAVOK 22/02 Q1007 R23/CLRD60 NOSIG RMK QFE732,UNEE,2023-04-28T10:30:00Z,55.27,86.1,22.0,2.0,240,16,,6.21,29.734253,,,,,,TRUE,,,,,CAVOK,,,,,,,,VFR,,,,,,,,,,,,SPECI,261.0
UNBB 281030Z 25012MPS 9999 SCT040 25/M05 Q1011 R24/CLRD66 NOSIG RMK QFE736,UNBB,2023-04-28T10:30:00Z,53.37,83.53,25.0,-5.0,250,23,,6.21,29.852362,,,,,,TRUE,,,,,SCT,4000,,,,,,,VFR,,,,,,,,,,,,SPECI,249.0
UNAA 281030Z 26011MPS CAVOK 23/00 Q1010 R20/CLRD64 NOSIG RMK QFE735,UNAA,2023-04-28T10:30:00Z,53.75,91.4,23.0,0.0,260,21,,6.21,29.822834,,,,,,TRUE,,,,,CAVOK,,,,,,,,VFR,,,,,,,,,,,,SPECI,249.0
UMMS 281030Z 32007MPS 290V360 CAVOK 09/M03 Q1019 NOSIG,UMMS,2023-04-28T10:30:00Z,53.88,28.03,9.0,-3.0,320,14,,6.21,30.088583,,,,,,TRUE,,,,,CAVOK,,,,,,,,VFR,,,,,,,,,,,,METAR,196.0
UMMG 281030Z 28005G08MPS 9999 SCT050 BKN066 10/M03 Q1020 NOSIG,UMMG,2023-04-28T10:30:00Z,53.6,24.05,10.0,-3.0,280,10,16,6.21,30.11811,,,,,,TRUE,,,,,SCT,5000,BKN,6600,,,,,VFR,,,,,,,,,,,,METAR,125.0
UMKK 281030Z 30006MPS 9999 SCT041 10/01 Q1019 R24/CLRD95 NOSIG RMK QFE763/1018,UMKK,2023-04-28T10:30:00Z,54.88,20.57,10.0,1.0,300,12,,6.21,30.088583,,,,,,TRUE,,,,,SCT,4100,,,,,,,VFR,,,,,,,,,,,,SPECI,6.0
UMIO 281030Z 31006G09MPS CAVOK 10/M02 Q1017 NOSIG RMK QFE745/0994,UMIO,2023-04-28T10:30:00Z,54.43,30.3,10.0,-2.0,310,12,17,6.21,30.029528,,,,,,TRUE,,,,,CAVOK,,,,,,,,VFR,,,,,,,,,,,,METAR,189.0
UMGG 281030Z 33007G11MPS CAVOK 12/M05 Q1017 NOSIG,UMGG,2023-04-28T10:30:00Z,52.53,31.02,12.0,-5.0,330,14,21,6.21,30.029528,,,,,,TRUE,,,,,CAVOK,,,,,,,,VFR,,,,,,,,,,,,METAR,135.0
ULWC 281030Z 07004G09MPS 9999 FEW026 14/08 Q1011 R21/010060 NOSIG RMK QFE748/0998,ULWC,2023-04-28T10:30:00Z,59.28,38.02,14.0,8.0,70,8,17,6.21,29.852362,,,,,,TRUE,,,,,FEW,2600,,,,,,,VFR,,,,,,,,,,,,METAR,113.0
ULPB 281030Z VRB01MPS 9999 -SHRA BKN029CB 06/05 Q1012 R19/19//55 NOSIG RMK QFE755/1007,ULPB,2023-04-28T10:30:00Z,61.88,34.15,6.0,5.0,0,2,,6.21,29.88189,,,,,,TRUE,,,,-SHRA,BKN,2900,,,,,,,MVFR,,,,,,,,,,,,METAR,41.0
ULOO 281030Z 26004MPS 220V330 9999 SCT030CB BKN046 09/M04 Q1015 R01/090060 NOSIG RMK QFE757,ULOO,2023-04-28T10:30:00Z,57.78,28.4,9.0,-4.0,260,8,,6.21,29.970472,,,,,,TRUE,,,,,SCT,3000,BKN,4600,,,,,VFR,,,,,,,,,,,,SPECI,46.0
ULMM 281030Z 11006MPS CAVOK 03/M04 Q1022 R13/090070 NOSIG RMK QFE760,ULMM,2023-04-28T10:30:00Z,68.78,32.75,3.0,-4.0,110,12,,6.21,30.177166,,,,,,TRUE,,,,,CAVOK,,,,,,,,VFR,,,,,,,,,,,,SPECI,79.0
ULLI 281030Z 34007MPS 9999 SCT025 09/M02 Q1014 R88/090060 NOSIG,ULLI,2023-04-28T10:30:00Z,59.8,30.27,9.0,-2.0,340,14,,6.21,29.940945,,,,,,TRUE,,,,,SCT,2500,,,,,,,VFR,,,,,,,,,,,,SPECI,25.0
ULAA 281030Z 11005MPS 090V150 CAVOK 09/M07 Q1022 R08/CLRD70 NOSIG RMK QFE765/1020,ULAA,2023-04-28T10:30:00Z,64.6,40.72,9.0,-7.0,110,10,,6.21,30.177166,,,,,,TRUE,,,,,CAVOK,,,,,,,,VFR,,,,,,,,,,,,SPECI,10.0
UIUU 281030Z 26004MPS 9999 BKN050CB 09/M04 Q1013 R26/CLRD60 NOSIG RMK QFE716/0954,UIUU,2023-04-28T10:30:00Z,51.8,107.45,9.0,-4.0,260,8,,6.21,29.911417,,,,,,TRUE,,,,,BKN,5000,,,,,,,VFR,,,,,,,,,,,,SPECI,508.0
UIII 281030Z 11002MPS 080V140 CAVOK 09/M03 Q1011 R12/CLRD60 NOSIG RMK QFE716/0955,UIII,2023-04-28T10:30:00Z,52.27,104.37,9.0,-3.0,110,4,,6.21,29.852362,,,,,,TRUE,,,,,CAVOK,,,,,,,,VFR,,,,,,,,,,,,SPECI,480.0
UIBB 281030Z 14003MPS 060V170 9999 -SHRASN BKN003 OVC014CB 02/02 Q1010 R30/290150 NOSIG RMK QBB110 MT OBSC QFE714/0953,UIBB,2023-04-28T10:30:00Z,56.37,101.7,2.0,2.0,140,6,,6.21,29.822834,,,,,,TRUE,,,,-SHRA -SHSN,BKN,300,OVC,1400,,,,,LIFR,,,,,,,,,,,,SPECI,485.0
UIAA 281030Z 24004MPS 9999 SCT043CB 07/M05 Q1011 R29/CLRD70 NOSIG RMK QFE700/0934,UIAA,2023-04-28T10:30:00Z,52.02,113.32,7.0,-5.0,240,8,,6.21,29.852362,,,,,,TRUE,,,,,SCT,4300,,,,,,,VFR,,,,,,,,,,,,SPECI,650.0
UHWW 281030Z 17004MPS 9999 NSC 11/06 Q1010 R25L/0///70 NOSIG RMK QFE757,UHWW,2023-04-28T10:30:00Z,43.4,132.15,11.0,6.0,170,8,,6.21,29.822834,,,,,,TRUE,,,,,CLR,,,,,,,,VFR,,,,,,,,,,,,METAR,11.0
UHSS 281030Z 18002MPS 9999 NSC 03/M04 Q1019 R19/70D NOSIG RMK QFE763/1017,UHSS,2023-04-28T10:30:00Z,46.88,142.72,3.0,-4.0,180,4,,6.21,30.088583,,,,,,TRUE,,,,,CLR,,,,,,,,VFR,,,,,,,,,,,,METAR,14.0
UHMA 281030Z 34003MPS 9999 -SN BKN042 BKN051 M08/M11 Q1018 R01/////// NOSIG RMK MID 35003MPS END R01/34003MPS QFE760/1013,UHMA,2023-04-28T10:30:00Z,64.73,177.73,-8.0,-11.0,340,6,,6.21,30.059055,,,,,,TRUE,,,,-SN,BKN,4200,BKN,5100,,,,,VFR,,,,,,,,,,,,METAR,53.0
UHHH 281030Z 03004MPS CAVOK 06/M04 Q1016 R88/090060 NOSIG RMK QFE755/1007,UHHH,2023-04-28T10:30:00Z,48.52,135.18,6.0,-4.0,30,8,,6.21,30.0,,,,,,TRUE,,,,,CAVOK,,,,,,,,VFR,,,,,,,,,,,,METAR,74.0
UGTB 281030Z 16005KT 110V200 9999 SCT050CB 25/12 Q1010 NOSIG,UGTB,2023-04-28T10:30:00Z,41.67,44.95,25.0,12.0,160,5,,6.21,29.822834,,,,,,TRUE,,,,,SCT,5000,,,,,,,VFR,,,,,,,,,,,,METAR,468.0
UGSB 281030Z 24011KT 9999 FEW008 BKN034 15/13 Q1011 NOSIG,UGSB,2023-04-28T10:30:00Z,41.62,41.6,15.0,13.0,240,11,,6.21,29.852362,,,,,,TRUE,,,,,FEW,800,BKN,3400,,,,,VFR,,,,,,,,,,,,METAR,32.0
UGMS 281030Z AUTO 36007KT 290V050 //// ////// 13/06 Q1015,UGMS,2023-04-28T10:30:00Z,43.05,42.75,13.0,6.0,360,7,,,29.970472,,,TRUE,,,,,,,,,,,,,,,,,,,,,,,,,,,,METAR,1442.0
UGKO 281030Z 27011KT 240V310 9999 SCT035 BKN063 21/14 Q1009 NOSIG,UGKO,2023-04-28T10:30:00Z,42.18,42.48,21.0,14.0,270,11,,6.21,29.793306,,,,,,TRUE,,,,,SCT,3500,BKN,6300,,,,,VFR,,,,,,,,,,,,METAR,44.0
UGAM 281030Z 12008G19KT 070V160 9999 BKN050 25/07 Q1008,UGAM,2023-04-28T10:30:00Z,42.53,43.13,25.0,7.0,120,8,19,6.21,29.763779,,,,,,,,,,,BKN,5000,,,,,,,VFR,,,,,,,,,,,,METAR,544.0
UERR 281030Z 22002MPS CAVOK 07/M04 Q1012 R25/CLRD60 NOSIG RMK QFE728/0971,UERR,2023-04-28T10:30:00Z,62.53,114.05,7.0,-4.0,220,4,,6.21,29.88189,,,,,,TRUE,,,,,CAVOK,,,,,,,,VFR,,,,,,,,,,,,SPECI,352.0
UEEE 281030Z 01002MPS CAVOK 06/M02 Q1019 R05/09//60 NOSIG RMK QFE756,UEEE,2023-04-28T10:30:00Z,62.08,129.77,6.0,-2.0,10,4,,6.21,30.088583,,,,,,TRUE,,,,,CAVOK,,,,,,,,VFR,,,,,,,,,,,,METAR,106.0
UDYZ 281030Z VRB01KT 9999 FEW040 23/04 Q1011 NOSIG,UDYZ,2023-04-28T10:30:00Z,40.15,44.4,23.0,4.0,0,1,,6.21,29.852362,,,,,,TRUE,,,,,FEW,4000,,,,,,,VFR,,,,,,,,,,,,METAR,851.0
UDSG 281030Z 19015KT 9999 SCT049CB 18/02 Q1014 NOSIG,UDSG,2023-04-28T10:30:00Z,40.75,43.87,18.0,2.0,190,15,,6.21,29.940945,,,,,,TRUE,,,,,SCT,4900,,,,,,,VFR,,,,,,,,,,,,METAR,1515.0
UCFO 281030Z 16008MPS 9999 SCT050CB 24/03 Q1013 TEMPO 18008G13MPS,UCFO,2023-04-28T10:30:00Z,40.6,72.8,24.0,3.0,160,16,,6.21,29.911417,,,,,,,,,,,SCT,5000,,,,,,,VFR,,,,,,,,,,,,METAR,881.0
UCFM 281030Z 27005MPS CAVOK 27/08 Q1011 NOSIG,UCFM,2023-04-28T10:30:00Z,43.07,74.48,27.0,8.0,270,10,,6.21,29.852362,,,,,,TRUE,,,,,CAVOK,,,,,,,,VFR,,,,,,,,,,,,METAR,632.0
UBBZ 281030Z 04016KT 010V080 9999 FEW100 28/10 Q1009 NOSIG RMK MT OP,UBBZ,2023-04-28T10:30:00Z,39.1,46.73,28.0,10.0,40,16,,6.21,29.793306,,,,,,TRUE,,,,,FEW,10000,,,,,,,VFR,,,,,,,,,,,,METAR,489.0
UBBN 281030Z 01006KT 9999 SCT046 BKN100 27/04 Q1009 NOSIG RMK MT OP QFE683,UBBN,2023-04-28T10:30:00Z,39.18,45.45,27.0,4.0,10,6,,6.21,29.793306,,,,,,TRUE,,,,,SCT,4600,BKN,10000,,,,,VFR,,,,,,,,,,,,SPECI,857.0
UBBG 281030Z 10004KT 9999 FEW040CB BKN100 26/10 Q1009 NOSIG,UBBG,2023-04-28T10:30:00Z,40.73,46.32,26.0,10.0,100,4,,6.21,29.793306,,,,,,TRUE,,,,,FEW,4000,BKN,10000,,,,,VFR,,,,,,,,,,,,METAR,333.0
UBBF 281030Z 05008KT 9999 FEW050CB SCT100 26/13 Q1009 NOSIG RMK MT OP,UBBF,2023-04-28T10:30:00Z,39.6,47.2,26.0,13.0,50,8,,6.21,29.793306,,,,,,TRUE,,,,,FEW,5000,SCT,10000,,,,,VFR,,,,,,,,,,,,METAR,370.0
UBBB 281030Z 17016KT CAVOK 22/16 Q1009 NOSIG,UBBB,2023-04-28T10:30:00Z,40.47,50.07,22.0,16.0,170,16,,6.21,29.793306,,,,,,TRUE,,,,,CAVOK,,,,,,,,VFR,,,,,,,,,,,,METAR,94.0
UAUU 281030Z 14002MPS 080V190 CAVOK 25/M03 Q1011 NOSIG RMK QFE743/0990,UAUU,2023-04-28T10:30:00Z,53.2,63.55,25.0,-3.0,140,4,,6.21,29.852362,,,,,,TRUE,,,,,CAVOK,,,,,,,,VFR,,,,,,,,,,,,SPECI,177.0
UATT 281030Z VRB01MPS CAVOK 27/08 Q1011 NOSIG RMK QFE738/0984,UATT,2023-04-28T10:30:00Z,50.25,57.2,27.0,8.0,0,2,,6.21,29.852362,,,,,,TRUE,,,,,CAVOK,,,,,,,,VFR,,,,,,,,,,,,SPECI,217.0
UATG 281030Z 08003MPS 040V140 CAVOK 27/06 Q1012 NOSIG RMK QFE761/1014,UATG,2023-04-28T10:30:00Z,47.12,51.83,27.0,6.0,80,6,,6.21,29.88189,,,,,,TRUE,,,,,CAVOK,,,,,,,,VFR,,,,,,,,,,,,SPECI,-23.0
UATE 281030Z 20007MPS CAVOK 23/11 Q1010 NOSIG RMK QFE756/1008,UATE,2023-04-28T10:30:00Z,43.87,51.1,23.0,11.0,200,14,,6.21,29.822834,,,,,,TRUE,,,,,CAVOK,,,,,,,,VFR,,,,,,,,,,,,SPECI,21.0
UASS 281030Z 21003MPS 150V290 CAVOK 27/M03 Q1015 NOSIG RMK QFE740/0987,UASS,2023-04-28T10:30:00Z,50.35,80.23,27.0,-3.0,210,6,,6.21,29.970472,,,,,,TRUE,,,,,CAVOK,,,,,,,,VFR,,,,,,,,,,,,SPECI,215.0
UASP 281030Z 24007MPS 220V280 CAVOK 28/M00 Q1012 NOSIG RMK QFE747/0997,UASP,2023-04-28T10:30:00Z,52.2,77.07,28.0,0.0,240,14,,6.21,29.88189,,,,,,TRUE,,,,,CAVOK,,,,,,,,VFR,,,,,,,,,,,,SPECI,122.0
UASK 281030Z VRB01MPS 9999 NSC 26/00 Q1016 NOSIG RMK QFE736/0982,UASK,2023-04-28T10:30:00Z,50.03,82.5,26.0,0.0,0,2,,6.21,30.0,,,,,,TRUE,,,,,CLR,,,,,,,,VFR,,,,,,,,,,,,METAR,285.0
UARR 281030Z 02003MPS 340V060 CAVOK 25/04 Q1014 NOSIG RMK QFE757/1010,UARR,2023-04-28T10:30:00Z,51.15,51.53,25.0,4.0,20,6,,6.21,29.940945,,,,,,TRUE,,,,,CAVOK,,,,,,,,VFR,,,,,,,,,,,,SPECI,33.0
UAOO 281030Z VRB01MPS CAVOK 32/M05 Q1009 NOSIG RMK QFE745/0993,UAOO,2023-04-28T10:30:00Z,44.7,65.6,32.0,-5.0,0,2,,6.21,29.793306,,,,,,TRUE,,,,,CAVOK,,,,,,,,VFR,,,,,,,,,,,,SPECI,130.0
UAKK 281030Z 27002MPS 180V320 CAVOK 26/M04 Q1015 NOSIG RMK QFE714/0952,UAKK,2023-04-28T10:30:00Z,49.68,73.35,26.0,-4.0,270,4,,6.21,29.970472,,,,,,TRUE,,,,,CAVOK,,,,,,,,VFR,,,,,,,,,,,,SPECI,532.0
UAKD 281030Z 14005MPS 110V170 CAVOK 26/M06 Q1013 NOSIG RMK QFE726/0968,UAKD,2023-04-28T10:30:00Z,47.7,67.73,26.0,-6.0,140,10,,6.21,29.911417,,,,,,TRUE,,,,,CAVOK,,,,,,,,VFR,,,,,,,,,,,,SPECI,379.0
UAIT 281030Z 31003MPS 280V350 CAVOK 31/01 Q1010 NOSIG RMK QFE731/0974,UAIT,2023-04-28T10:30:00Z,43.32,68.55,31.0,1.0,310,6,,6.21,29.822834,,,,,,TRUE,,,,,CAVOK,,,,,,,,VFR,,,,,,,,,,,,METAR,301.0
UAII 281030Z 32003MPS 290V030 9999 SCT050CB 30/05 Q1011 NOSIG RMK QFE723/0964,UAII,2023-04-28T10:30:00Z,42.37,69.48,30.0,5.0,320,6,,6.21,29.852362,,,,,,TRUE,,,,,SCT,5000,,,,,,,VFR,,,,,,,,,,,,SPECI,410.0
UADD 281030Z 33003MPS 300V010 9999 SCT050CB OVC100 26/06 Q1012 NOSIG RMK QFE701/0935,UADD,2023-04-28T10:30:00Z,42.85,71.3,26.0,6.0,330,6,,6.21,29.88189,,,,,,TRUE,,,,,SCT,5000,OVC,10000,,,,,VFR,,,,,,,,,,,,SPECI,663.0
UACP 281030Z 29006MPS 9999 BKN040CB 23/02 Q1010 NOSIG RMK QFE745/0993,UACP,2023-04-28T10:30:00Z,54.78,69.18,23.0,2.0,290,12,,6.21,29.822834,,,,,,TRUE,,,,,BKN,4000,,,,,,,VFR,,,,,,,,,,,,SPECI,134.0
UACK 281030Z 27010MPS CAVOK 23/M01 Q1012 NOSIG RMK QFE735/0980,UACK,2023-04-28T10:30:00Z,53.32,69.58,23.0,-1.0,270,19,,6.21,29.88189,,,,,,TRUE,,,,,CAVOK,,,,,,,,VFR,,,,,,,,,,,,SPECI,261.0
UACC 281030Z 26006MPS 230V290 CAVOK 26/M03 Q1013 NOSIG RMK QFE729/0972,UACC,2023-04-28T10:30:00Z,51.02,71.47,26.0,-3.0,260,12,,6.21,29.911417,,,,,,TRUE,,,,,CAVOK,,,,,,,,VFR,,,,,,,,,,,,SPECI,354.0
UAAT 281030Z 02007MPS 9999 FEW200 27/00 Q1011 NOSIG RMK QFE707/0943,UAAT,2023-04-28T10:30:00Z,45.12,78.45,27.0,0.0,20,14,,6.21,29.852362,,,,,,TRUE,,,,,FEW,20000,,,,,,,VFR,,,,,,,,,,,,METAR,588.0
UAAH 281030Z 11004MPS 060V160 CAVOK 27/M03 Q1013 NOSIG RMK QFE723/0964,UAAH,2023-04-28T10:30:00Z,46.9,75.0,27.0,-3.0,110,8,,6.21,29.911417,,,,,,TRUE,,,,,CAVOK,,,,,,,,VFR,,,,,,,,,,,,SPECI,427.0
UAAA 281030Z 06002MPS 360V110 9999 FEW100 28/03 Q1011 NOSIG,UAAA,2023-04-28T10:30:00Z,43.35,77.03,28.0,3.0,60,4,,6.21,29.852362,,,,,,TRUE,,,,,FEW,10000,,,,,,,VFR,,,,,,,,,,,,METAR,673.0
TFFR 281030Z AUTO VRB02KT 9999 SCT015/// SCT025/// BKN034/// ///TCU 25/24 Q1013 TEMPO 3000 SHRA BECMG SCT013 BKN030 BKN080,TFFR,2023-04-28T10:30:00Z,16.27,-61.53,25.0,24.0,0,2,,6.21,29.911417,,,TRUE,,,,,,,,SCT,1500,SCT,2500,BKN,3400,,,VFR,,,,,,,,,,,,METAR,6.0
TFFF 281030Z AUTO 13004KT CAVOK 24/23 Q1013 NOSIG,TFFF,2023-04-28T10:30:00Z,14.6,-61.0,24.0,23.0,130,4,,6.21,29.911417,,,TRUE,,,TRUE,,,,,CAVOK,,,,,,,,VFR,,,,,,,,,,,,METAR,3.0
SPZO 281030Z 00000KT 9999 SCT040 BKN070 07/03 Q1034 NOSIG RMK BIRD HAZARD RWY 10/28,SPZO,2023-04-28T10:30:00Z,-13.55,-71.93,7.0,3.0,0,0,,6.21,30.531496,,,,,,TRUE,,,,,SCT,4000,BKN,7000,,,,,VFR,,,,,,,,,,,,SPECI,3249.0
SPJR 281030Z 00000KT 9999 SCT025 10/09 Q1027,SPJR,2023-04-28T10:30:00Z,-7.13,-78.48,10.0,9.0,0,0,,6.21,30.324802,,,,,,,,,,,SCT,2500,,,,,,,VFR,,,,,,,,,,,,METAR,2622.0
SOCA 281030Z AUTO 00000KT 2400 BR VV/// 23/23 Q1013 NOSIG,SOCA,2023-04-28T10:30:00Z,4.82,-52.37,23.0,23.0,0,0,,1.49,29.911417,,,TRUE,,,TRUE,,,,BR,OVX,0,,,,,,,LIFR,,,,,,,,,,,,METAR,7.0
SBBE 281030Z 09005KT 9999 FEW002 SCT004 25/24 Q1014,SBBE,2023-04-28T10:30:00Z,-1.37,-48.47,25.0,24.0,90,5,,6.21,29.940945,,,,,,,,,,,FEW,200,SCT,400,,,,,VFR,,,,,,,,,,,,SPECI,16.0
RKSI 281030Z 18004KT 120V220 9999 BKN030 17/09 Q1013 NOSIG,RKSI,2023-04-28T10:30:00Z,37.47,126.45,17.0,9.0,180,4,,6.21,29.911417,,,,,,TRUE,,,,,BKN,3000,,,,,,,MVFR,,,,,,,,,,,,METAR,7.0
RCTP 281030Z 04005KT 7000 FEW007 SCT035 23/22 Q1013 NOSIG RMK A2992,RCTP,2023-04-28T10:30:00Z,25.07,121.22,23.0,22.0,40,5,,4.35,29.911417,,,,,,TRUE,,,,,FEW,700,SCT,3500,,,,,MVFR,,,,,,,,,,,,METAR,33.0
RCSS 281030Z 08005KT 9999 FEW020 BKN038 BKN050 25/22 Q1012 NOSIG RMK A2991,RCSS,2023-04-28T10:30:00Z,25.07,121.55,25.0,22.0,80,5,,6.21,29.88189,,,,,,TRUE,,,,,FEW,2000,BKN,3800,BKN,5000,,,VFR,,,,,,,,,,,,METAR,8.0
RCNN 281030Z 35010KT 9999 FEW012 SCT100 25/18 Q1012 RMK A2989,RCNN,2023-04-28T10:30:00Z,22.93,120.2,25.0,18.0,350,10,,6.21,29.88189,,,,,,,,,,,FEW,1200,SCT,10000,,,,,VFR,,,,,,,,,,,,METAR,15.0
RCMQ 281030Z 35006KT 9999 FEW010 SCT100 24/20 Q1012 NOSIG RMK A2991,RCMQ,2023-04-28T10:30:00Z,24.27,120.62,24.0,20.0,350,6,,6.21,29.88189,,,,,,TRUE,,,,,FEW,1000,SCT,10000,,,,,VFR,,,,,,,,,,,,METAR,202.0
RCKH 281030Z 31008KT 280V340 9999 FEW016 SCT200 27/20 Q1011 NOSIG RMK A2986,RCKH,2023-04-28T10:30:00Z,22.57,120.33,27.0,20.0,310,8,,6.21,29.852362,,,,,,TRUE,,,,,FEW,1600,SCT,20000,,,,,VFR,,,,,,,,,,,,METAR,6.0
RCFN 281030Z 07004KT 020V170 9999 FEW015 SCT030 BKN060 26/24 Q1013 NOSIG RMK A2994,RCFN,2023-04-28T10:30:00Z,22.77,121.1,26.0,24.0,70,4,,6.21,29.911417,,,,,,TRUE,,,,,FEW,1500,SCT,3000,BKN,6000,,,VFR,,,,,,,,,,,,METAR,42.0
PGUA 281030Z AUTO 08016KT 10SM FEW014 SCT019 SCT031 BKN039 26/23 A2988 RMK AO2 RAB18E30 SLP109 $,PGUA,2023-04-28T10:30:00Z,13.57,144.92,26.0,23.0,80,16,,10.0,29.878937,1010.9,,TRUE,TRUE,TRUE,,,,,,FEW,1400,SCT,1900,SCT,3100,BKN,3900,VFR,,,,,,,,,,,,METAR,159.0
PAEN 281030Z AUTO 22004KT 10SM UP SCT023 OVC028 02/00 A2987 RMK AO2 UPB03RAB16E26 P0000 T00170000 TSNO,PAEN,2023-04-28T10:30:00Z,60.57,-151.25,1.7,0.0,220,4,,10.0,29.870079,,,TRUE,TRUE,,,TRUE,,,UP,SCT,2300,OVC,2800,,,,,MVFR,,,,,,0.005,,,,,,SPECI,30.0
PABR 281030Z AUTO 02007KT 10SM OVC015 M15/M18 A3010 RMK AO2 T11501178 TSNO,PABR,2023-04-28T10:30:00Z,71.28,-156.78,-15.0,-17.8,20,7,,10.0,30.100393,,,TRUE,TRUE,,,TRUE,,,,OVC,1500,,,,,,,MVFR,,,,,,,,,,,,SPECI,6.0
OTBD 281030Z 07009KT 040V100 CAVOK 36/07 Q1007 NOSIG,OTBD,2023-04-28T10:30:00Z,25.25,51.57,36.0,7.0,70,9,,6.21,29.734253,,,,,,TRUE,,,,,CAVOK,,,,,,,,VFR,,,,,,,,,,,,METAR,13.0
OPPS 281030Z 13008KT 9999 SCT100 28/10 Q1014,OPPS,2023-04-28T10:30:00Z,33.98,71.52,28.0,10.0,130,8,,6.21,29.940945,,,,,,,,,,,SCT,10000,,,,,,,VFR,,,,,,,,,,,,METAR,356.0
OPMT 281030Z 05006KT 5000 HZ SCT100 36/11 Q1006 NOSIG,OPMT,2023-04-28T10:30:00Z,30.2,71.42,36.0,11.0,50,6,,3.11,29.704725,,,,,,TRUE,,,,HZ,SCT,10000,,,,,,,MVFR,,,,,,,,,,,,METAR,122.0
OPKC 281030Z 23014KT 5000 VCTS FEW025TCU SCT030 BKN100 31/15 Q1007 TEMPO 23025G35KT DSTSRA FEW025CB,OPKC,2023-04-28T10:30:00Z,24.9,67.13,31.0,15.0,230,14,,3.11,29.734253,,,,,,,,,,VCTS,FEW,2500,SCT,3000,BKN,10000,,,MVFR,,,,,,,,,,,,METAR,20.0
OPIS 281030Z 05010KT 7000 FEW040 28/14 Q1012 NOSIG,OPIS,2023-04-28T10:30:00Z,33.55,72.83,28.0,14.0,50,10,,4.35,29.88189,,,,,,TRUE,,,,,FEW,4000,,,,,,,MVFR,,,,,,,,,,,,METAR,542.0
OIZH 281030Z 03008KT 8000 FEW035CB BKN090 28/04 Q1011 A2987,OIZH,2023-04-28T10:30:00Z,29.47,60.92,28.0,4.0,30,8,,4.97,29.852362,,,,,,,,,,,FEW,3500,BKN,9000,,,,,MVFR,,,,,,,,,,,,METAR,1378.0
OITT 281030Z 26006KT 9999 FEW030 SCT190 24/M04 Q1013 A2994,OITT,2023-04-28T10:30:00Z,38.13,46.23,24.0,-4.0,260,6,,6.21,29.911417,,,,,,,,,,,FEW,3000,SCT,19000,,,,,VFR,,,,,,,,,,,,METAR,1353.0
OISS 281030Z 24004KT 9999 SCT040TCU 23/07 Q1014 A2995,OISS,2023-04-28T10:30:00Z,29.53,52.58,23.0,7.0,240,4,,6.21,29.940945,,,,,,,,,,,SCT,4000,,,,,,,VFR,,,,,,,,,,,,METAR,1484.0
OISL 281030Z 30006KT 9999 FEW040CB SCT045TCU 31/08 Q1007 A2976,OISL,2023-04-28T10:30:00Z,27.67,54.37,31.0,8.0,300,6,,6.21,29.734253,,,,,,,,,,,FEW,4000,SCT,4500,,,,,VFR,,,,,,,,,,,,METAR,804.0
OINZ 281030Z 32004KT CAVOK 26/15 Q1009,OINZ,2023-04-28T10:30:00Z,36.63,53.2,26.0,15.0,320,4,,6.21,29.793306,,,,,,,,,,,CAVOK,,,,,,,,VFR,,,,,,,,,,,,METAR,8.0
OINN 281030Z 05006KT 6000 FEW026TCU 22/17 Q1009,OINN,2023-04-28T10:30:00Z,36.67,51.47,22.0,17.0,50,6,,3.73,29.793306,,,,,,,,,,,FEW,2600,,,,,,,MVFR,,,,,,,,,,,,METAR,-25.0
OING 281030Z 23004KT 8000 FEW030 FEW035CB BKN190 26/17 Q1011,OING,2023-04-28T10:30:00Z,36.9,54.4,26.0,17.0,230,4,,4.97,29.852362,,,,,,,,,,,FEW,3000,FEW,3500,BKN,19000,,,MVFR,,,,,,,,,,,,METAR,0.0
OIMM 281030Z 11010KT CAVOK 30/07 Q1012 A2991,OIMM,2023-04-28T10:30:00Z,36.23,59.63,30.0,7.0,110,10,,6.21,29.88189,,,,,,,,,,,CAVOK,,,,,,,,VFR,,,,,,,,,,,,METAR,995.0
OIKB 281030Z 20016KT 9999 FEW030CB 32/08 Q1005 A2971,OIKB,2023-04-28T10:30:00Z,27.22,56.37,32.0,8.0,200,16,,6.21,29.675198,,,,,,,,,,,FEW,3000,,,,,,,VFR,,,,,,,,,,,,METAR,6.0
OIIP 281030Z 22004KT 6000 FEW040 28/M01 Q1012 A2988,OIIP,2023-04-28T10:30:00Z,35.78,50.83,28.0,-1.0,220,4,,3.73,29.88189,,,,,,,,,,,FEW,4000,,,,,,,MVFR,,,,,,,,,,,,METAR,1270.0
OIII 281030Z 25008KT 9999 FEW040TCU 27/M01 Q1012 A2991,OIII,2023-04-28T10:30:00Z,35.68,51.3,27.0,-1.0,250,8,,6.21,29.88189,,,,,,,,,,,FEW,4000,,,,,,,VFR,,,,,,,,,,,,METAR,1182.0
OIIE 281030Z 29006KT 9999 SCT040 29/M02 Q1011,OIIE,2023-04-28T10:30:00Z,35.42,51.15,29.0,-2.0,290,6,,6.21,29.852362,,,,,,,,,,,SCT,4000,,,,,,,VFR,,,,,,,,,,,,METAR,993.0
OIGG 281030Z 00000KT 8000 FEW025 SCT200 24/17 Q1009,OIGG,2023-04-28T10:30:00Z,37.33,49.6,24.0,17.0,0,0,,4.97,29.793306,,,,,,,,,,,FEW,2500,SCT,20000,,,,,MVFR,,,,,,,,,,,,METAR,-16.0
OIFM 281030Z 29010KT 9999 FEW035TCU SCT040 25/01 Q1015 A2999,OIFM,2023-04-28T10:30:00Z,32.75,51.87,25.0,1.0,290,10,,6.21,29.970472,,,,,,,,,,,FEW,3500,SCT,4000,,,,,VFR,,,,,,,,,,,,METAR,1539.0
OICI 281030Z 22004KT CAVOK 26/M05 Q1015 A3000,OICI,2023-04-28T10:30:00Z,33.58,46.4,26.0,-5.0,220,4,,6.21,29.970472,,,,,,,,,,,CAVOK,,,,,,,,VFR,,,,,,,,,,,,METAR,1323.0
OIBP 281030Z 24006KT 8000 FEW035 32/22 Q1006 A2972,OIBP,2023-04-28T10:30:00Z,27.38,52.73,32.0,22.0,240,6,,4.97,29.704725,,,,,,,,,,,FEW,3500,,,,,,,MVFR,,,,,,,,,,,,METAR,13.0
OIBK 281030Z 25010KT 8000 FEW025CB 29/18 Q1007,OIBK,2023-04-28T10:30:00Z,26.53,53.98,29.0,18.0,250,10,,4.97,29.734253,,,,,,,,,,,FEW,2500,,,,,,,MVFR,,,,,,,,,,,,METAR,27.0
OIAW 281030Z 25008KT CAVOK 38/05 Q1005,OIAW,2023-04-28T10:30:00Z,31.33,48.77,38.0,5.0,250,8,,6.21,29.675198,,,,,,,,,,,CAVOK,,,,,,,,VFR,,,,,,,,,,,,METAR,25.0
OBBI 281030Z 04005KT 360V080 CAVOK 33/11 Q1007 NOSIG,OBBI,2023-04-28T10:30:00Z,26.27,50.63,33.0,11.0,40,5,,6.21,29.734253,,,,,,TRUE,,,,,CAVOK,,,,,,,,VFR,,,,,,,,,,,,METAR,6.0
NZWN 281030Z AUTO 01006KT 9999 NCD 11/10 Q1027,NZWN,2023-04-28T10:30:00Z,-41.32,174.8,11.0,10.0,10,6,,6.21,30.324802,,,TRUE,,,,,,,,CLR,,,,,,,,VFR,,,,,,,,,,,,METAR,12.0
NZCH 281030Z AUTO 07014KT 9999 OVC009/// 13/11 Q1024,NZCH,2023-04-28T10:30:00Z,-43.48,172.52,13.0,11.0,70,14,,6.21,30.236221,,,TRUE,,,,,,,,OVC,900,,,,,,,IFR,,,,,,,,,,,,METAR,36.0
NZAA 281030Z AUTO 12005KT 9999 BKN050/// 13/11 Q1026,NZAA,2023-04-28T10:30:00Z,-37.02,174.8,13.0,11.0,120,5,,6.21,30.295275,,,TRUE,,,,,,,,BKN,5000,,,,,,,VFR,,,,,,,,,,,,METAR,7.0
NWWW 281030Z AUTO VRB02KT 9999 SCT019/// BKN025/// BKN039/// ///TCU 21/20 Q1009 TEMPO 4500 +SHRA FEW018CB,NWWW,2023-04-28T10:30:00Z,-22.02,166.22,21.0,20.0,0,2,,6.21,29.793306,,,TRUE,,,,,,,,SCT,1900,BKN,2500,BKN,3900,,,MVFR,,,,,,,,,,,,METAR,16.0
NTAA 281030Z AUTO VRB02KT CAVOK 25/23 Q1012 NOSIG,NTAA,2023-04-28T10:30:00Z,-17.55,-149.62,25.0,23.0,0,2,,6.21,29.88189,,,TRUE,,,TRUE,,,,,CAVOK,,,,,,,,VFR,,,,,,,,,,,,METAR,2.0
NLWW 281030Z AUTO 13004KT 090V160 9999 NCD 27/23 Q1011 TEMPO 4000 SHRA BKN014 FEW018CB,NLWW,2023-04-28T10:30:00Z,-13.23,-176.18,27.0,23.0,130,4,,6.21,29.852362,,,TRUE,,,,,,,,CLR,,,,,,,,VFR,,,,,,,,,,,,METAR,24.0
NCRG 281030Z AUTO 13004KT 100V170 9999 FEW039/// 23/17 Q1016,NCRG,2023-04-28T10:30:00Z,-21.2,-159.82,23.0,17.0,130,4,,6.21,30.0,,,TRUE,,,,,,,,FEW,3900,,,,,,,VFR,,,,,,,,,,,,METAR,7.0
LZZI 281030Z VRB03KT 9999 FEW038 13/M00 Q1019,LZZI,2023-04-28T10:30:00Z,49.23,18.62,13.0,0.0,0,3,,6.21,30.088583,,,,,,,,,,,FEW,3800,,,,,,,VFR,,,,,,,,,,,,METAR,311.0
LZTT 281030Z 14005KT 040V210 9999 FEW053 11/M00 Q1019 NOSIG,LZTT,2023-04-28T10:30:00Z,49.07,20.25,11.0,0.0,140,5,,6.21,30.088583,,,,,,TRUE,,,,,FEW,5300,,,,,,,VFR,,,,,,,,,,,,METAR,693.0
LZPP 281030Z 13012KT CAVOK 14/00 Q1019,LZPP,2023-04-28T10:30:00Z,48.62,17.83,14.0,0.0,130,12,,6.21,30.088583,,,,,,,,,,,CAVOK,,,,,,,,VFR,,,,,,,,,,,,METAR,160.0
LZKZ 281030Z 21007KT CAVOK 12/M00 Q1021 NOSIG,LZKZ,2023-04-28T10:30:00Z,48.67,21.23,12.0,0.0,210,7,,6.21,30.147638,,,,,,TRUE,,,,,CAVOK,,,,,,,,VFR,,,,,,,,,,,,METAR,227.0
LZIB 281030Z 12013KT CAVOK 15/03 Q1019 NOSIG,LZIB,2023-04-28T10:30:00Z,48.17,17.22,15.0,3.0,120,13,,6.21,30.088583,,,,,,TRUE,,,,,CAVOK,,,,,,,,VFR,,,,,,,,,,,,METAR,129.0
LYVR 281030Z 34006KT 300V040 CAVOK 14/M01 Q1023 NOSIG,LYVR,2023-04-28T10:30:00Z,45.13,21.32,14.0,-1.0,340,6,,6.21,30.206694,,,,,,TRUE,,,,,CAVOK,,,,,,,,VFR,,,,,,,,,,,,METAR,82.0
LYTV 281030Z 23006KT 170V290 CAVOK 18/06 Q1021 NOSIG,LYTV,2023-04-28T10:30:00Z,42.4,18.72,18.0,6.0,230,6,,6.21,30.147638,,,,,,TRUE,,,,,CAVOK,,,,,,,,VFR,,,,,,,,,,,,METAR,3.0
LYPG 281030Z 15008KT 100V180 CAVOK 19/02 Q1020 NOSIG,LYPG,2023-04-28T10:30:00Z,42.37,19.25,19.0,2.0,150,8,,6.21,30.11811,,,,,,TRUE,,,,,CAVOK,,,,,,,,VFR,,,,,,,,,,,,METAR,32.0
LYNI 281030Z 32010KT 280V010 CAVOK 15/M02 Q1022 NOSIG,LYNI,2023-04-28T10:30:00Z,43.33,21.85,15.0,-2.0,320,10,,6.21,30.177166,,,,,,TRUE,,,,,CAVOK,,,,,,,,VFR,,,,,,,,,,,,METAR,197.0
LYKV 281030Z 14004KT 040V200 9999 FEW050 15/02 Q1022 NOSIG,LYKV,2023-04-28T10:30:00Z,43.82,20.58,15.0,2.0,140,4,,6.21,30.177166,,,,,,TRUE,,,,,FEW,5000,,,,,,,VFR,,,,,,,,,,,,METAR,209.0
LYBT 281030Z VRB04KT CAVOK 15/M00 Q1022 NOSIG,LYBT,2023-04-28T10:30:00Z,44.93,20.25,15.0,0.0,0,4,,6.21,30.177166,,,,,,TRUE,,,,,CAVOK,,,,,,,,VFR,,,,,,,,,,,,METAR,78.0
LYBE 281030Z VRB04KT CAVOK 15/M02 Q1022 NOSIG,LYBE,2023-04-28T10:30:00Z,44.82,20.28,15.0,-2.0,0,4,,6.21,30.177166,,,,,,TRUE,,,,,CAVOK,,,,,,,,VFR,,,,,,,,,,,,METAR,93.0
LWOH 281030Z 16008KT CAVOK 11/01 Q1020,LWOH,2023-04-28T10:30:00Z,41.18,20.75,11.0,1.0,160,8,,6.21,30.11811,,,,,,,,,,,CAVOK,,,,,,,,VFR,,,,,,,,,,,,METAR,700.0
LUKK 281030Z 35018KT 320V020 CAVOK 14/M01 Q1016 TEMPO 35020G32KT,LUKK,2023-04-28T10:30:00Z,46.93,28.93,14.0,-1.0,350,18,,6.21,30.0,,,,,,,,,,,CAVOK,,,,,,,,VFR,,,,,,,,,,,,METAR,102.0
LUBM 281030Z 31018G28KT CAVOK 12/M01 Q1019,LUBM,2023-04-28T10:30:00Z,47.87,28.22,12.0,-1.0,310,18,28,6.21,30.088583,,,,,,,,,,,CAVOK,,,,,,,,VFR,,,,,,,,,,,,METAR,95.0
LRTR 281030Z 36007KT 270V050 CAVOK 14/M02 Q1022 NOSIG,LRTR,2023-04-28T10:30:00Z,45.82,21.33,14.0,-2.0,360,7,,6.21,30.177166,,,,,,TRUE,,,,,CAVOK,,,,,,,,VFR,,,,,,,,,,,,METAR,104.0
LRTM 281030Z 01005KT 290V070 9999 FEW042 12/02 Q1021,LRTM,2023-04-28T10:30:00Z,46.47,24.42,12.0,2.0,10,5,,6.21,30.147638,,,,,,,,,,,FEW,4200,,,,,,,VFR,,,,,,,,,,,,METAR,289.0
LRTC 281030Z 34021KT CAVOK 14/M03 Q1016,LRTC,2023-04-28T10:30:00Z,45.07,28.72,14.0,-3.0,340,21,,6.21,30.0,,,,,,,,,,,CAVOK,,,,,,,,VFR,,,,,,,,,,,,METAR,52.0
LRSV 281030Z 33012KT CAVOK 10/00 Q1020,LRSV,2023-04-28T10:30:00Z,47.68,26.35,10.0,0.0,330,12,,6.21,30.11811,,,,,,,,,,,CAVOK,,,,,,,,VFR,,,,,,,,,,,,METAR,406.0
LRSM 281030Z VRB05KT CAVOK 14/M00 Q1022,LRSM,2023-04-28T10:30:00Z,47.7,22.88,14.0,0.0,0,5,,6.21,30.177166,,,,,,,,,,,CAVOK,,,,,,,,VFR,,,,,,,,,,,,METAR,123.0
LRSB 281030Z 28004KT 210V360 9999 FEW055 11/M03 Q1021,LRSB,2023-04-28T10:30:00Z,45.78,24.08,11.0,-3.0,280,4,,6.21,30.147638,,,,,,,,,,,FEW,5500,,,,,,,VFR,,,,,,,,,,,,METAR,442.0
LROP 281030Z 28008KT 220V350 CAVOK 15/M01 Q1020 NOSIG,LROP,2023-04-28T10:30:00Z,44.57,26.1,15.0,-1.0,280,8,,6.21,30.11811,,,,,,TRUE,,,,,CAVOK,,,,,,,,VFR,,,,,,,,,,,,METAR,92.0
LROD 281030Z 22006KT 200V260 CAVOK 14/00 Q1022,LROD,2023-04-28T10:30:00Z,47.03,21.88,14.0,0.0,220,6,,6.21,30.177166,,,,,,,,,,,CAVOK,,,,,,,,VFR,,,,,,,,,,,,METAR,132.0
LRIA 281030Z 32016KT CAVOK 13/M01 Q1019,LRIA,2023-04-28T10:30:00Z,47.17,27.62,13.0,-1.0,320,16,,6.21,30.088583,,,,,,,,,,,CAVOK,,,,,,,,VFR,,,,,,,,,,,,METAR,71.0
LRCV 281030Z 31009KT 280V350 CAVOK 14/M01 Q1020,LRCV,2023-04-28T10:30:00Z,44.32,23.88,14.0,-1.0,310,9,,6.21,30.11811,,,,,,,,,,,CAVOK,,,,,,,,VFR,,,,,,,,,,,,METAR,192.0
LRCL 281030Z 34008KT 9999 FEW067 13/M03 Q1021,LRCL,2023-04-28T10:30:00Z,46.78,23.68,13.0,-3.0,340,8,,6.21,30.147638,,,,,,,,,,,FEW,6700,,,,,,,VFR,,,,,,,,,,,,METAR,313.0
LRCK 281030Z 32021KT CAVOK 14/01 Q1017 NOSIG,LRCK,2023-04-28T10:30:00Z,44.37,28.48,14.0,1.0,320,21,,6.21,30.029528,,,,,,TRUE,,,,,CAVOK,,,,,,,,VFR,,,,,,,,,,,,METAR,108.0
LRBS 281030Z 32007KT 250V030 CAVOK 14/01 Q1020 NOSIG,LRBS,2023-04-28T10:30:00Z,44.5,26.08,14.0,1.0,320,7,,6.21,30.11811,,,,,,TRUE,,,,,CAVOK,,,,,,,,VFR,,,,,,,,,,,,METAR,91.0
LRBM 281030Z 24010KT 9999 SCT054 13/01 Q1021,LRBM,2023-04-28T10:30:00Z,47.67,23.47,13.0,1.0,240,10,,6.21,30.147638,,,,,,,,,,,SCT,5400,,,,,,,VFR,,,,,,,,,,,,METAR,180.0
LRBC 281030Z 34019KT 9999 FEW050 BKN060 12/M02 Q1020,LRBC,2023-04-28T10:30:00Z,46.52,26.92,12.0,-2.0,340,19,,6.21,30.11811,,,,,,,,,,,FEW,5000,BKN,6000,,,,,VFR,,,,,,,,,,,,METAR,183.0
LRAR 281030Z VRB03KT CAVOK 14/02 Q1022,LRAR,2023-04-28T10:30:00Z,46.18,21.27,14.0,2.0,0,3,,6.21,30.177166,,,,,,,,,,,CAVOK,,,,,,,,VFR,,,,,,,,,,,,METAR,102.0
LQTZ 281030Z VRB05KT 9999 FEW060 18/00 Q1020,LQTZ,2023-04-28T10:30:00Z,44.47,18.73,18.0,0.0,0,5,,6.21,30.11811,,,,,,,,,,,FEW,6000,,,,,,,VFR,,,,,,,,,,,,METAR,242.0
LQSA 281030Z VRB03KT CAVOK 16/M00 Q1021 NOSIG,LQSA,2023-04-28T10:30:00Z,43.82,18.32,16.0,0.0,0,3,,6.21,30.147638,,,,,,TRUE,,,,,CAVOK,,,,,,,,VFR,,,,,,,,,,,,METAR,505.0
LQMO 281030Z VRB03KT 9999 FEW040 20/03 Q1018,LQMO,2023-04-28T10:30:00Z,43.28,17.83,20.0,3.0,0,3,,6.21,30.059055,,,,,,,,,,,FEW,4000,,,,,,,VFR,,,,,,,,,,,,METAR,49.0
LQBK 281030Z 09007KT 050V140 CAVOK 19/05 Q1019 NOSIG,LQBK,2023-04-28T10:30:00Z,44.93,17.3,19.0,5.0,90,7,,6.21,30.088583,,,,,,TRUE,,,,,CAVOK,,,,,,,,VFR,,,,,,,,,,,,METAR,114.0
LPPT 281030Z 01007KT 330V040 CAVOK 24/10 Q1015,LPPT,2023-04-28T10:30:00Z,38.77,-9.13,24.0,10.0,10,7,,6.21,29.970472,,,,,,,,,,,CAVOK,,,,,,,,VFR,,,,,,,,,,,,METAR,98.0
LPPS 281030Z 31007KT 270V350 9999 FEW014 23/15 Q1018,LPPS,2023-04-28T10:30:00Z,33.07,-16.35,23.0,15.0,310,7,,6.21,30.059055,,,,,,,,,,,FEW,1400,,,,,,,VFR,,,,,,,,,,,,METAR,89.0
LPPR 281030Z 28007KT 240V320 9999 FEW015 19/15 Q1015,LPPR,2023-04-28T10:30:00Z,41.23,-8.68,19.0,15.0,280,7,,6.21,29.970472,,,,,,,,,,,FEW,1500,,,,,,,VFR,,,,,,,,,,,,METAR,64.0
LPPD 281030Z 22013KT 9999 FEW016TCU 18/16 Q1011,LPPD,2023-04-28T10:30:00Z,37.73,-25.68,18.0,16.0,220,13,,6.21,29.852362,,,,,,,,,,,FEW,1600,,,,,,,VFR,,,,,,,,,,,,METAR,62.0
LPMA 281030Z 12004KT 070V160 9999 FEW015 22/16 Q1018,LPMA,2023-04-28T10:30:00Z,32.7,-16.77,22.0,16.0,120,4,,6.21,30.059055,,,,,,,,,,,FEW,1500,,,,,,,VFR,,,,,,,,,,,,METAR,54.0
LPHR 281030Z 23019KT 9999 FEW016 17/12 Q1008,LPHR,2023-04-28T10:30:00Z,38.52,-28.72,17.0,12.0,230,19,,6.21,29.763779,,,,,,,,,,,FEW,1600,,,,,,,VFR,,,,,,,,,,,,METAR,39.0
LPFR 281030Z 14007KT 120V180 CAVOK 22/16 Q1014,LPFR,2023-04-28T10:30:00Z,37.02,-7.97,22.0,16.0,140,7,,6.21,29.940945,,,,,,,,,,,CAVOK,,,,,,,,VFR,,,,,,,,,,,,METAR,3.0
LPFL 281030Z 20011KT 9999 VCSH FEW017 SCT020TCU 15/09 Q1004,LPFL,2023-04-28T10:30:00Z,39.45,-31.12,15.0,9.0,200,11,,6.21,29.64567,,,,,,,,,,VCSH,FEW,1700,SCT,2000,,,,,VFR,,,,,,,,,,,,METAR,35.0
LPCS 281030Z 02011KT CAVOK 24/12 Q1015,LPCS,2023-04-28T10:30:00Z,38.73,-9.35,24.0,12.0,20,11,,6.21,29.970472,,,,,,,,,,,CAVOK,,,,,,,,VFR,,,,,,,,,,,,METAR,99.0
LPAZ 281030Z 22017KT 9999 SCT012 SCT028 17/15 Q1013,LPAZ,2023-04-28T10:30:00Z,36.97,-25.17,17.0,15.0,220,17,,6.21,29.911417,,,,,,,,,,,SCT,1200,SCT,2800,,,,,VFR,,,,,,,,,,,,METAR,96.0
LKTB 281030Z 15014KT CAVOK 16/03 Q1017 NOSIG,LKTB,2023-04-28T10:30:00Z,49.15,16.68,16.0,3.0,150,14,,6.21,30.029528,,,,,,TRUE,,,,,CAVOK,,,,,,,,VFR,,,,,,,,,,,,METAR,233.0
LKPR 281030Z 17005KT 9999 FEW033 14/04 Q1015 TEMPO BKN017,LKPR,2023-04-28T10:30:00Z,50.1,14.27,14.0,4.0,170,5,,6.21,29.970472,,,,,,,,,,,FEW,3300,,,,,,,VFR,,,,,,,,,,,,SPECI,364.0
LKPD 281030Z 13009KT 110V170 CAVOK 16/02 Q1016 RMK BLACK,LKPD,2023-04-28T10:30:00Z,50.02,15.73,16.0,2.0,130,9,,6.21,30.0,,,,,,,,,,,CAVOK,,,,,,,,VFR,,,,,,,,,,,,SPECI,226.0
LKNA 281030Z 13012KT 100V160 CAVOK 13/02 Q1017 NOSIG RMK BLU BLU,LKNA,2023-04-28T10:30:00Z,49.17,16.12,13.0,2.0,130,12,,6.21,30.029528,,,,,,TRUE,,,,,CAVOK,,,,,,,,VFR,,,,,,,,,,,,SPECI,460.0
LKMT 281030Z 20008KT 170V240 CAVOK 15/01 Q1018 NOSIG,LKMT,2023-04-28T10:30:00Z,49.68,18.12,15.0,1.0,200,8,,6.21,30.059055,,,,,,TRUE,,,,,CAVOK,,,,,,,,VFR,,,,,,,,,,,,METAR,251.0
LKKV 281030Z 05003KT 010V080 9999 -RA BKN040 07/05 Q1015,LKKV,2023-04-28T10:30:00Z,50.2,12.92,7.0,5.0,50,3,,6.21,29.970472,,,,,,,,,,-RA,BKN,4000,,,,,,,VFR,,,,,,,,,,,,METAR,600.0
LKCV 281030Z 14012KT CAVOK 15/03 Q1016 NOSIG RMK BLU BLU,LKCV,2023-04-28T10:30:00Z,49.93,15.38,15.0,3.0,140,12,,6.21,30.0,,,,,,TRUE,,,,,CAVOK,,,,,,,,VFR,,,,,,,,,,,,SPECI,234.0
LJPZ 281030Z VRB02KT 9999 FEW070 SCT100 BKN200 17/08 Q1019,LJPZ,2023-04-28T10:30:00Z,45.47,13.62,17.0,8.0,0,2,,6.21,30.088583,,,,,,,,,,,FEW,7000,SCT,10000,BKN,20000,,,VFR,,,,,,,,,,,,METAR,2.0
LJMB 281030Z 19009KT 160V220 CAVOK 16/06 Q1018,LJMB,2023-04-28T10:30:00Z,46.47,15.67,16.0,6.0,190,9,,6.21,30.059055,,,,,,,,,,,CAVOK,,,,,,,,VFR,,,,,,,,,,,,METAR,263.0
LJLJ 281030Z VRB02KT 9999 FEW075 BKN130 BKN250 15/07 Q1019 NOSIG,LJLJ,2023-04-28T10:30:00Z,46.22,14.47,15.0,7.0,0,2,,6.21,30.088583,,,,,,TRUE,,,,,FEW,7500,BKN,13000,BKN,25000,,,VFR,,,,,,,,,,,,METAR,363.0
LJCE 281030Z VRB02KT CAVOK 16/06 Q1019 RMK BLU,LJCE,2023-04-28T10:30:00Z,45.9,15.52,16.0,6.0,0,2,,6.21,30.088583,,,,,,,,,,,CAVOK,,,,,,,,VFR,,,,,,,,,,,,METAR,153.0
LHBP 281030Z 18006KT 150V300 CAVOK 15/M00 Q1021 NOSIG,LHBP,2023-04-28T10:30:00Z,47.43,19.27,15.0,0.0,180,6,,6.21,30.147638,,,,,,TRUE,,,,,CAVOK,,,,,,,,VFR,,,,,,,,,,,,METAR,141.0
LFYR 281030Z AUTO 23005KT 190V300 9999 FEW022 SCT030 BKN054 21/15 Q1015 TEMPO BKN030CB,LFYR,2023-04-28T10:30:00Z,47.32,1.68,21.0,15.0,230,5,,6.21,29.970472,,,TRUE,,,,,,,,FEW,2200,SCT,3000,BKN,5400,,,VFR,,,,,,,,,,,,METAR,83.0
LFVP 281030Z AUTO 02014KT 9999 OVC026 02/M02 Q1017 NOSIG,LFVP,2023-04-28T10:30:00Z,46.77,-56.18,2.0,-2.0,20,14,,6.21,30.029528,,,TRUE,,,TRUE,,,,,OVC,2600,,,,,,,MVFR,,,,,,,,,,,,METAR,5.0
LFTW 281030Z AUTO 16007KT 120V230 9999 FEW033 SCT150 22/14 Q1019 NOSIG,LFTW,2023-04-28T10:30:00Z,43.75,4.42,22.0,14.0,160,7,,6.21,30.088583,,,TRUE,,,TRUE,,,,,FEW,3300,SCT,15000,,,,,VFR,,,,,,,,,,,,METAR,91.0
LFTH 281030Z AUTO 15007KT 110V180 CAVOK 20/14 Q1020 NOSIG,LFTH,2023-04-28T10:30:00Z,43.1,6.15,20.0,14.0,150,7,,6.21,30.11811,,,TRUE,,,TRUE,,,,,CAVOK,,,,,,,,VFR,,,,,,,,,,,,METAR,3.0
LFSX 281030Z AUTO 24009KT 9999 ////// 17/14 Q1016,LFSX,2023-04-28T10:30:00Z,47.77,6.35,17.0,14.0,240,9,,6.21,30.0,,,TRUE,,,,,,,,,,,,,,,,,,,,,,,,,,,,SPECI,266.0
LFST 281030Z AUTO 18009KT 140V210 9999 SCT007 BKN046 BKN100 17/15 Q1014 TEMPO 4000 SHRA FEW025CB,LFST,2023-04-28T10:30:00Z,48.53,7.63,17.0,15.0,180,9,,6.21,29.940945,,,TRUE,,,,,,,,SCT,700,BKN,4600,BKN,10000,,,VFR,,,,,,,,,,,,SPECI,149.0
LFSO 281030Z AUTO 23006KT 9999 4700 -RA BKN011 OVC016 16/14 Q1015 TEMPO 2900 -TSRA BKN015CB,LFSO,2023-04-28T10:30:00Z,48.57,5.97,16.0,14.0,230,6,,6.21,29.970472,,,TRUE,,,,,,,-RA,BKN,1100,OVC,1600,,,,,MVFR,,,,,,,,,,,,SPECI,328.0
LFSN 281030Z AUTO 24007KT 200V300 9999 BKN015 BKN021 BKN039 17/14 Q1014,LFSN,2023-04-28T10:30:00Z,48.68,6.22,17.0,14.0,240,7,,6.21,29.940945,,,TRUE,,,,,,,,BKN,1500,BKN,2100,BKN,3900,,,MVFR,,,,,,,,,,,,METAR,214.0
LFSM 281030Z AUTO 24009KT 9999 FEW016 BKN038 BKN044 18/15 Q1016,LFSM,2023-04-28T10:30:00Z,47.48,6.78,18.0,15.0,240,9,,6.21,30.0,,,TRUE,,,,,,,,FEW,1600,BKN,3800,BKN,4400,,,VFR,,,,,,,,,,,,METAR,317.0
LFSL 281030Z AUTO 14004KT 110V240 CAVOK 23/13 Q1016 NOSIG,LFSL,2023-04-28T10:30:00Z,45.03,1.48,23.0,13.0,140,4,,6.21,30.0,,,TRUE,,,TRUE,,,,,CAVOK,,,,,,,,VFR,,,,,,,,,,,,METAR,300.0
LFSI 281030Z AUTO 23008KT 200V260 9999 SCT009/// BKN015/// OVC033/// ///TCU 16/15 Q1014,LFSI,2023-04-28T10:30:00Z,48.62,4.9,16.0,15.0,230,8,,6.21,29.940945,,,TRUE,,,,,,,,SCT,900,BKN,1500,OVC,3300,,,MVFR,,,,,,,,,,,,SPECI,136.0
LFSG 281030Z AUTO 23008KT 6000 -RA SCT014 SCT026 BKN034 16/14 Q1015,LFSG,2023-04-28T10:30:00Z,48.33,6.07,16.0,14.0,230,8,,3.73,29.970472,,,TRUE,,,,,,,-RA,SCT,1400,SCT,2600,BKN,3400,,,MVFR,,,,,,,,,,,,METAR,320.0
LFSD 281030Z AUTO 19008KT 160V230 9999 BKN042 BKN096 BKN110 20/15 Q1016,LFSD,2023-04-28T10:30:00Z,47.27,5.08,20.0,15.0,190,8,,6.21,30.0,,,TRUE,,,,,,,,BKN,4200,BKN,9600,BKN,11000,,,VFR,,,,,,,,,,,,METAR,218.0
LFSB 281030Z AUTO 27006KT 230V310 9999 BKN018 BKN023 OVC035 17/14 Q1016 TEMPO 3000 SHRA FEW030CB,LFSB,2023-04-28T10:30:00Z,47.6,7.52,17.0,14.0,270,6,,6.21,30.0,,,TRUE,,,,,,,,BKN,1800,BKN,2300,OVC,3500,,,MVFR,,,,,,,,,,,,SPECI,262.0
LFRZ 281030Z AUTO 29003KT 230V030 9999 OVC010 17/17 Q1015 BECMG SCT006 BKN016,LFRZ,2023-04-28T10:30:00Z,47.32,-2.17,17.0,17.0,290,3,,6.21,29.970472,,,TRUE,,,,,,,,OVC,1000,,,,,,,MVFR,,,,,,,,,,,,SPECI,2.0
LFRV 281030Z AUTO 28004KT 240V320 9999 BKN012 OVC017 16/14 Q1015,LFRV,2023-04-28T10:30:00Z,47.72,-2.72,16.0,14.0,280,4,,6.21,29.970472,,,TRUE,,,,,,,,BKN,1200,OVC,1700,,,,,MVFR,,,,,,,,,,,,METAR,132.0
LFRU 281030Z AUTO 29006KT 250V310 9999 BKN010 BKN014 OVC024 15/12 Q1015,LFRU,2023-04-28T10:30:00Z,48.6,-3.82,15.0,12.0,290,6,,6.21,29.970472,,,TRUE,,,,,,,,BKN,1000,BKN,1400,OVC,2400,,,MVFR,,,,,,,,,,,,METAR,85.0
LFRT 281030Z AUTO 26007KT 9999 OVC018 16/12 Q1015,LFRT,2023-04-28T10:30:00Z,48.53,-2.85,16.0,12.0,260,7,,6.21,29.970472,,,TRUE,,,,,,,,OVC,1800,,,,,,,MVFR,,,,,,,,,,,,METAR,134.0
LFRS 281030Z AUTO 26004KT 230V290 9999 BKN014 17/15 Q1015 BECMG BKN016,LFRS,2023-04-28T10:30:00Z,47.17,-1.6,17.0,15.0,260,4,,6.21,29.970472,,,TRUE,,,,,,,,BKN,1400,,,,,,,MVFR,,,,,,,,,,,,SPECI,26.0
LFRQ 281030Z AUTO 34004KT 280V020 9999 OVC010 15/13 Q1016 BECMG BKN020,LFRQ,2023-04-28T10:30:00Z,47.97,-4.17,15.0,13.0,340,4,,6.21,30.0,,,TRUE,,,,,,,,OVC,1000,,,,,,,MVFR,,,,,,,,,,,,SPECI,94.0
LFRO 281030Z AUTO 26010KT 240V300 9999 OVC005/// 13/11 Q1016,LFRO,2023-04-28T10:30:00Z,48.75,-3.47,13.0,11.0,260,10,,6.21,30.0,,,TRUE,,,,,,,,OVC,500,,,,,,,IFR,,,,,,,,,,,,METAR,86.0
LFRN 281030Z AUTO 30006KT 260V330 9999 BKN018 OVC026 17/14 Q1015 NOSIG,LFRN,2023-04-28T10:30:00Z,48.07,-1.73,17.0,14.0,300,6,,6.21,29.970472,,,TRUE,,,TRUE,,,,,BKN,1800,OVC,2600,,,,,MVFR,,,,,,,,,,,,METAR,35.0
LFRM 281030Z AUTO 25005KT 210V310 9999 ////// 18/14 Q1015,LFRM,2023-04-28T10:30:00Z,47.95,0.2,18.0,14.0,250,5,,6.21,29.970472,,,TRUE,,,,,,,,,,,,,,,,,,,,,,,,,,,,METAR,51.0
LFRL 281030Z AUTO 33006KT 300V010 9999 BKN007 14/12 Q1016 TEMPO BKN003,LFRL,2023-04-28T10:30:00Z,48.27,-4.43,14.0,12.0,330,6,,6.21,30.0,,,TRUE,,,,,,,,BKN,700,,,,,,,IFR,,,,,,,,,,,,METAR,80.0
LFRK 281030Z AUTO 25013KT 9999 BKN016 17/13 Q1014 TEMPO BKN008,LFRK,2023-04-28T10:30:00Z,49.17,-0.45,17.0,13.0,250,13,,6.21,29.940945,,,TRUE,,,,,,,,BKN,1600,,,,,,,MVFR,,,,,,,,,,,,SPECI,66.0
LFRJ 281030Z AUTO 33005KT 290V360 9999 BKN009 OVC024 14/13 Q1016 TEMPO 0600 FG VV///,LFRJ,2023-04-28T10:30:00Z,48.52,-4.15,14.0,13.0,330,5,,6.21,30.0,,,TRUE,,,,,,,,BKN,900,OVC,2400,,,,,IFR,,,,,,,,,,,,METAR,109.0
LFRI 281030Z AUTO 36004KT 300V050 9999 BKN009 BKN130 BKN220 18/15 Q1016 TEMPO NSC,LFRI,2023-04-28T10:30:00Z,46.7,-1.37,18.0,15.0,360,4,,6.21,30.0,,,TRUE,,,,,,,,BKN,900,BKN,13000,BKN,22000,,,IFR,,,,,,,,,,,,METAR,89.0
LFRH 281030Z AUTO 24005KT 190V280 9999 OVC006 15/14 Q1016 TEMPO BKN015,LFRH,2023-04-28T10:30:00Z,47.77,-3.45,15.0,14.0,240,5,,6.21,30.0,,,TRUE,,,,,,,,OVC,600,,,,,,,IFR,,,,,,,,,,,,METAR,46.0
LFRG 281030Z AUTO 28009KT 9999 BKN005 BKN017 14/12 Q1015 TEMPO 3000 DZ BECMG BKN016,LFRG,2023-04-28T10:30:00Z,49.37,0.15,14.0,12.0,280,9,,6.21,29.970472,,,TRUE,,,,,,,,BKN,500,BKN,1700,,,,,IFR,,,,,,,,,,,,SPECI,146.0
LFRD 281030Z AUTO 36005KT 320V040 9999 OVC007 14/12 Q1016 TEMPO BKN012,LFRD,2023-04-28T10:30:00Z,48.58,-2.07,14.0,12.0,360,5,,6.21,30.0,,,TRUE,,,,,,,,OVC,700,,,,,,,IFR,,,,,,,,,,,,SPECI,56.0
LFRC 281030Z AUTO 29010KT 9999 OVC005 12/11 Q1014 BECMG BKN020,LFRC,2023-04-28T10:30:00Z,49.63,-1.47,12.0,11.0,290,10,,6.21,29.940945,,,TRUE,,,,,,,,OVC,500,,,,,,,IFR,,,,,,,,,,,,SPECI,137.0
LFRB 281030Z AUTO 30005KT 250V340 9999 OVC009 14/13 Q1016 BECMG BKN012,LFRB,2023-04-28T10:30:00Z,48.45,-4.42,14.0,13.0,300,5,,6.21,30.0,,,TRUE,,,,,,,,OVC,900,,,,,,,IFR,,,,,,,,,,,,SPECI,91.0
LFQQ 281030Z AUTO 26017KT 9999 OVC011 14/11 Q1012 NOSIG,LFQQ,2023-04-28T10:30:00Z,50.57,3.1,14.0,11.0,260,17,,6.21,29.88189,,,TRUE,,,TRUE,,,,,OVC,1100,,,,,,,MVFR,,,,,,,,,,,,METAR,43.0
LFQB 281030Z AUTO 26010KT 230V290 9999 BKN020 BKN027 OVC054 19/15 Q1014,LFQB,2023-04-28T10:30:00Z,48.32,4.02,19.0,15.0,260,10,,6.21,29.940945,,,TRUE,,,,,,,,BKN,2000,BKN,2700,OVC,5400,,,MVFR,,,,,,,,,,,,METAR,107.0
LFQA 281030Z AUTO 25012KT 220V280 9999 BKN013 BKN019 OVC028 17/15 Q1013,LFQA,2023-04-28T10:30:00Z,49.2,4.15,17.0,15.0,250,12,,6.21,29.911417,,,TRUE,,,,,,,,BKN,1300,BKN,1900,OVC,2800,,,MVFR,,,,,,,,,,,,METAR,92.0
LFPV 281030Z AUTO 26010KT 230V290 9999 FEW018 OVC028 18/15 Q1014 NOSIG,LFPV,2023-04-28T10:30:00Z,48.77,2.2,18.0,15.0,260,10,,6.21,29.940945,,,TRUE,,,TRUE,,,,,FEW,1800,OVC,2800,,,,,MVFR,,,,,,,,,,,,METAR,171.0
LFPT 281030Z AUTO 26008KT 220V310 9999 FEW027 BKN035 20/15 Q1013,LFPT,2023-04-28T10:30:00Z,49.1,2.03,20.0,15.0,260,8,,6.21,29.911417,,,TRUE,,,,,,,,FEW,2700,BKN,3500,,,,,VFR,,,,,,,,,,,,METAR,91.0
LFPO 281030Z 27010KT 9999 SCT020 BKN030 18/14 Q1014 NOSIG,LFPO,2023-04-28T10:30:00Z,48.72,2.38,18.0,14.0,270,10,,6.21,29.940945,,,,,,TRUE,,,,,SCT,2000,BKN,3000,,,,,MVFR,,,,,,,,,,,,METAR,88.0
LFPN 281030Z AUTO 25008KT 230V290 9999 FEW018 OVC028 19/15 Q1014 NOSIG,LFPN,2023-04-28T10:30:00Z,48.75,2.12,19.0,15.0,250,8,,6.21,29.940945,,,TRUE,,,TRUE,,,,,FEW,1800,OVC,2800,,,,,MVFR,,,,,,,,,,,,METAR,152.0
LFPM 281030Z AUTO 27010KT 9999 FEW018 BKN026 OVC032 17/14 Q1014,LFPM,2023-04-28T10:30:00Z,48.62,2.67,17.0,14.0,270,10,,6.21,29.940945,,,TRUE,,,,,,,,FEW,1800,BKN,2600,OVC,3200,,,MVFR,,,,,,,,,,,,METAR,91.0
LFPG 281030Z 25012KT 220V300 9999 FEW018 BKN026 18/14 Q1014 NOSIG,LFPG,2023-04-28T10:30:00Z,49.02,2.53,18.0,14.0,250,12,,6.21,29.940945,,,,,,TRUE,,,,,FEW,1800,BKN,2600,,,,,MVFR,,,,,,,,,,,,METAR,107.0
LFPB 281030Z AUTO 24008KT 210V280 9999 BKN020 OVC027 17/14 Q1014 NOSIG,LFPB,2023-04-28T10:30:00Z,48.97,2.42,17.0,14.0,240,8,,6.21,29.940945,,,TRUE,,,TRUE,,,,,BKN,2000,OVC,2700,,,,,MVFR,,,,,,,,,,,,METAR,50.0
LFOZ 281030Z AUTO 26008KT 220V290 9999 BKN019 OVC025 19/15 Q1015,LFOZ,2023-04-28T10:30:00Z,47.9,2.17,19.0,15.0,260,8,,6.21,29.970472,,,TRUE,,,,,,,,BKN,1900,OVC,2500,,,,,MVFR,,,,,,,,,,,,METAR,121.0
LFOV 281030Z AUTO 25007KT 220V290 9999 SCT015 BKN020 OVC026 17/14 Q1015,LFOV,2023-04-28T10:30:00Z,48.03,-0.75,17.0,14.0,250,7,,6.21,29.970472,,,TRUE,,,,,,,,SCT,1500,BKN,2000,OVC,2600,,,MVFR,,,,,,,,,,,,METAR,99.0
LFOT 281030Z AUTO 28004KT 240V330 9999 BKN023 BKN031 OVC037 19/15 Q1015 NOSIG,LFOT,2023-04-28T10:30:00Z,47.43,0.72,19.0,15.0,280,4,,6.21,29.970472,,,TRUE,,,TRUE,,,,,BKN,2300,BKN,3100,OVC,3700,,,MVFR,,,,,,,,,,,,METAR,107.0
LFOP 281030Z AUTO 26013KT 9999 BKN022 BKN029 17/13 Q1014 TEMPO BKN012,LFOP,2023-04-28T10:30:00Z,49.37,1.17,17.0,13.0,260,13,,6.21,29.940945,,,TRUE,,,,,,,,BKN,2200,BKN,2900,,,,,MVFR,,,,,,,,,,,,SPECI,149.0
LFOK 281030Z AUTO 24011KT 6000 2900 SCT007 BKN016 BKN042 17/15 Q1014 TEMPO BKN013,LFOK,2023-04-28T10:30:00Z,48.78,4.15,17.0,15.0,240,11,,3.73,29.940945,,,TRUE,,,,,,,,SCT,700,BKN,1600,BKN,4200,,,MVFR,,,,,,,,,,,,SPECI,166.0
LFOJ 281030Z AUTO 26011KT 9999 BKN017 BKN022 OVC027 18/15 Q1014 NOSIG,LFOJ,2023-04-28T10:30:00Z,47.98,1.75,18.0,15.0,260,11,,6.21,29.940945,,,TRUE,,,TRUE,,,,,BKN,1700,BKN,2200,OVC,2700,,,MVFR,,,,,,,,,,,,METAR,122.0
LFOH 281030Z AUTO 28010KT 250V310 9999 OVC003 12/11 Q1015 TEMPO 0600 FG VV///,LFOH,2023-04-28T10:30:00Z,49.52,0.08,12.0,11.0,280,10,,6.21,29.970472,,,TRUE,,,,,,,,OVC,300,,,,,,,LIFR,,,,,,,,,,,,SPECI,87.0
LFOE 281030Z AUTO 28011KT 250V320 9999 FEW024 BKN032 19/13 Q1014 NOSIG,LFOE,2023-04-28T10:30:00Z,49.02,1.22,19.0,13.0,280,11,,6.21,29.940945,,,TRUE,,,TRUE,,,,,FEW,2400,BKN,3200,,,,,VFR,,,,,,,,,,,,METAR,132.0
LFOB 281030Z AUTO 25013KT 9999 BKN027 BKN034 19/13 Q1013 NOSIG,LFOB,2023-04-28T10:30:00Z,49.47,2.12,19.0,13.0,250,13,,6.21,29.911417,,,TRUE,,,TRUE,,,,,BKN,2700,BKN,3400,,,,,MVFR,,,,,,,,,,,,METAR,99.0
LFOA 281030Z AUTO 31005KT 260V360 9999 FEW022 SCT029 BKN040 21/16 Q1015 TEMPO SCT030TCU,LFOA,2023-04-28T10:30:00Z,47.05,2.63,21.0,16.0,310,5,,6.21,29.970472,,,TRUE,,,,,,,,FEW,2200,SCT,2900,BKN,4000,,,VFR,,,,,,,,,,,,SPECI,174.0
LFMY 281030Z AUTO 25006KT 200V320 CAVOK 23/11 Q1019 NOSIG,LFMY,2023-04-28T10:30:00Z,43.6,5.1,23.0,11.0,250,6,,6.21,30.088583,,,TRUE,,,TRUE,,,,,CAVOK,,,,,,,,VFR,,,,,,,,,,,,METAR,57.0
LFMV 281030Z AUTO VRB04KT CAVOK 23/11 Q1019 NOSIG,LFMV,2023-04-28T10:30:00Z,43.9,4.9,23.0,11.0,0,4,,6.21,30.088583,,,TRUE,,,TRUE,,,,,CAVOK,,,,,,,,VFR,,,,,,,,,,,,METAR,33.0
LFMU 281030Z AUTO 09011KT 9999 BKN013 OVC018 18/15 Q1019 BECMG OVC008,LFMU,2023-04-28T10:30:00Z,43.32,3.35,18.0,15.0,90,11,,6.21,30.088583,,,TRUE,,,,,,,,BKN,1300,OVC,1800,,,,,MVFR,,,,,,,,,,,,SPECI,14.0
LFMT 281030Z AUTO 14009KT CAVOK 19/15 Q1020 NOSIG,LFMT,2023-04-28T10:30:00Z,43.57,3.97,19.0,15.0,140,9,,6.21,30.11811,,,TRUE,,,TRUE,,,,,CAVOK,,,,,,,,VFR,,,,,,,,,,,,METAR,1.0
LFMP 281030Z AUTO 05009KT 9999 BKN015 OVC021 18/14 Q1018 BECMG BKN014,LFMP,2023-04-28T10:30:00Z,42.73,2.87,18.0,14.0,50,9,,6.21,30.059055,,,TRUE,,,,,,,,BKN,1500,OVC,2100,,,,,MVFR,,,,,,,,,,,,SPECI,41.0
LFMO 281030Z AUTO VRB05KT 9999 //////TCU 22/11 Q1019 BECMG NSC,LFMO,2023-04-28T10:30:00Z,44.13,4.87,22.0,11.0,0,5,,6.21,30.088583,,,TRUE,,,,,,,,,,,,,,,,,,,,,,,,,,,,SPECI,56.0
LFMN 281030Z 17007KT 9999 FEW020 BKN260 18/13 Q1020 NOSIG,LFMN,2023-04-28T10:30:00Z,43.65,7.2,18.0,13.0,170,7,,6.21,30.11811,,,,,,TRUE,,,,,FEW,2000,BKN,26000,,,,,VFR,,,,,,,,,,,,METAR,4.0
LFML 281030Z AUTO 24008KT 190V290 CAVOK 23/13 Q1019 NOSIG,LFML,2023-04-28T10:30:00Z,43.45,5.22,23.0,13.0,240,8,,6.21,30.088583,,,TRUE,,,TRUE,,,,,CAVOK,,,,,,,,VFR,,,,,,,,,,,,METAR,20.0
LFMK 281030Z AUTO 09014KT 070V130 9999 OVC014 17/14 Q1017 TEMPO 10017G27KT BECMG NSC,LFMK,2023-04-28T10:30:00Z,43.22,2.32,17.0,14.0,90,14,,6.21,30.029528,,,TRUE,,,,,,,,OVC,1400,,,,,,,MVFR,,1.7,,,,,,,,,,SPECI,124.0
LFMI 281030Z AUTO 19010KT CAVOK 22/12 Q1019 NOSIG,LFMI,2023-04-28T10:30:00Z,43.52,4.93,22.0,12.0,190,10,,6.21,30.088583,,,TRUE,,,TRUE,,,,,CAVOK,,,,,,,,VFR,,,,,,,,,,,,METAR,20.0
LFMH 281030Z AUTO 14004KT 060V190 CAVOK 23/11 Q1016,LFMH,2023-04-28T10:30:00Z,45.52,4.28,23.0,11.0,140,4,,6.21,30.0,,,TRUE,,,,,,,,CAVOK,,,,,,,,VFR,,,,,,,,,,,,METAR,400.0
LFMD 281030Z AUTO 16008KT CAVOK 18/13 Q1020 NOSIG,LFMD,2023-04-28T10:30:00Z,43.53,6.95,18.0,13.0,160,8,,6.21,30.11811,,,TRUE,,,TRUE,,,,,CAVOK,,,,,,,,VFR,,,,,,,,,,,,METAR,2.0
LFMC 281030Z AUTO VRB03KT 9999 ////// 24/11 Q1019,LFMC,2023-04-28T10:30:00Z,43.37,6.38,24.0,11.0,0,3,,6.21,30.088583,,,TRUE,,,,,,,,,,,,,,,,,,,,,,,,,,,,METAR,79.0
LFLY 281030Z AUTO 17012KT CAVOK 23/13 Q1017 TEMPO 18015G25KT,LFLY,2023-04-28T10:30:00Z,45.72,4.95,23.0,13.0,170,12,,6.21,30.029528,,,TRUE,,,,,,,,CAVOK,,,,,,,,VFR,,,,,,,,,,,,SPECI,197.0
LFLX 281030Z AUTO 29006KT 250V320 9999 SCT019 BKN220 20/16 Q1015 NOSIG,LFLX,2023-04-28T10:30:00Z,46.87,1.73,20.0,16.0,290,6,,6.21,29.970472,,,TRUE,,,TRUE,,,,,SCT,1900,BKN,22000,,,,,VFR,,,,,,,,,,,,METAR,157.0
LFLW 281030Z AUTO 14007KT 110V180 CAVOK 20/12 Q1017 TEMPO FEW080CB,LFLW,2023-04-28T10:30:00Z,44.88,2.42,20.0,12.0,140,7,,6.21,30.029528,,,TRUE,,,,,,,,CAVOK,,,,,,,,VFR,,,,,,,,,,,,METAR,638.0
LFLV 281030Z AUTO VRB03KT 9999 BKN047 23/14 Q1015,LFLV,2023-04-28T10:30:00Z,46.17,3.38,23.0,14.0,0,3,,6.21,29.970472,,,TRUE,,,,,,,,BKN,4700,,,,,,,VFR,,,,,,,,,,,,METAR,248.0
LFLU 281030Z AUTO 21017KT CAVOK 20/11 Q1018,LFLU,2023-04-28T10:30:00Z,44.92,4.98,20.0,11.0,210,17,,6.21,30.059055,,,TRUE,,,,,,,,CAVOK,,,,,,,,VFR,,,,,,,,,,,,METAR,162.0
LFLS 281030Z AUTO 20009KT 120V240 CAVOK 22/12 Q1018 NOSIG,LFLS,2023-04-28T10:30:00Z,45.37,5.32,22.0,12.0,200,9,,6.21,30.059055,,,TRUE,,,TRUE,,,,,CAVOK,,,,,,,,VFR,,,,,,,,,,,,METAR,386.0
LFLP 281030Z AUTO 23004KT 160V300 CAVOK 21/11 Q1017 NOSIG,LFLP,2023-04-28T10:30:00Z,45.92,6.1,21.0,11.0,230,4,,6.21,30.029528,,,TRUE,,,TRUE,,,,,CAVOK,,,,,,,,VFR,,,,,,,,,,,,METAR,460.0
LFLN 281030Z AUTO 17004KT 100V210 CAVOK 22/13 Q1016 TEMPO SHRA FEW030TCU,LFLN,2023-04-28T10:30:00Z,46.42,4.02,22.0,13.0,170,4,,6.21,30.0,,,TRUE,,,,,,,,CAVOK,,,,,,,,VFR,,,,,,,,,,,,METAR,238.0
LFLL 281030Z 20013KT 170V230 CAVOK 22/11 Q1017 TEMPO 18015G25KT,LFLL,2023-04-28T10:30:00Z,45.72,5.07,22.0,11.0,200,13,,6.21,30.029528,,,,,,,,,,,CAVOK,,,,,,,,VFR,,,,,,,,,,,,SPECI,234.0
LFLH 281030Z AUTO 16008KT 9999 FEW040 OVC210 21/14 Q1016,LFLH,2023-04-28T10:30:00Z,46.83,4.82,21.0,14.0,160,8,,6.21,30.0,,,TRUE,,,,,,,,FEW,4000,OVC,21000,,,,,VFR,,,,,,,,,,,,METAR,190.0
LFLC 281030Z AUTO 18009KT 9999 FEW060 25/14 Q1015 NOSIG,LFLC,2023-04-28T10:30:00Z,45.78,3.17,25.0,14.0,180,9,,6.21,29.970472,,,TRUE,,,TRUE,,,,,FEW,6000,,,,,,,VFR,,,,,,,,,,,,METAR,325.0
LFLB 281030Z AUTO 35005KT CAVOK 20/11 Q1017 NOSIG,LFLB,2023-04-28T10:30:00Z,45.63,5.87,20.0,11.0,350,5,,6.21,30.029528,,,TRUE,,,TRUE,,,,,CAVOK,,,,,,,,VFR,,,,,,,,,,,,METAR,234.0
LFKS 281030Z AUTO 15009KT 110V180 CAVOK 19/14 Q1020,LFKS,2023-04-28T10:30:00Z,41.92,9.4,19.0,14.0,150,9,,6.21,30.11811,,,TRUE,,,,,,,,CAVOK,,,,,,,,VFR,,,,,,,,,,,,METAR,22.0
LFKJ 281030Z AUTO 23010KT CAVOK 20/15 Q1020 NOSIG,LFKJ,2023-04-28T10:30:00Z,41.92,8.8,20.0,15.0,230,10,,6.21,30.11811,,,TRUE,,,TRUE,,,,,CAVOK,,,,,,,,VFR,,,,,,,,,,,,METAR,9.0
LFKF 281030Z AUTO 23009KT CAVOK 23/12 Q1020 NOSIG,LFKF,2023-04-28T10:30:00Z,41.5,9.08,23.0,12.0,230,9,,6.21,30.11811,,,TRUE,,,TRUE,,,,,CAVOK,,,,,,,,VFR,,,,,,,,,,,,METAR,15.0
LFKC 281030Z AUTO 03008KT 350V060 9999 FEW013 21/14 Q1020 NOSIG,LFKC,2023-04-28T10:30:00Z,42.52,8.8,21.0,14.0,30,8,,6.21,30.11811,,,TRUE,,,TRUE,,,,,FEW,1300,,,,,,,VFR,,,,,,,,,,,,METAR,38.0
LFKB 281030Z AUTO 12008KT 080V150 9999 1700 BKN021 21/15 Q1020 NOSIG,LFKB,2023-04-28T10:30:00Z,42.55,9.48,21.0,15.0,120,8,,6.21,30.11811,,,TRUE,,,TRUE,,,,,BKN,2100,,,,,,,MVFR,,,,,,,,,,,,SPECI,7.0
LFJR 281030Z AUTO 24004KT 180V330 9999 SCT019 BKN027 OVC200 20/16 Q1015,LFJR,2023-04-28T10:30:00Z,47.57,-0.32,20.0,16.0,240,4,,6.21,29.970472,,,TRUE,,,,,,,,SCT,1900,BKN,2700,OVC,20000,,,MVFR,,,,,,,,,,,,METAR,50.0
LFJL 281030Z AUTO 24010KT 9999 SCT015/// BKN025/// BKN033/// 17/15 Q1014 TEMPO 4000 SHRA BKN012 FEW020CB,LFJL,2023-04-28T10:30:00Z,48.97,6.25,17.0,15.0,240,10,,6.21,29.940945,,,TRUE,,,,,,,,SCT,1500,BKN,2500,BKN,3300,,,MVFR,,,,,,,,,,,,SPECI,259.0
LFHP 281030Z AUTO VRB03KT CAVOK 19/12 Q1018,LFHP,2023-04-28T10:30:00Z,45.07,3.77,19.0,12.0,0,3,,6.21,30.059055,,,TRUE,,,,,,,,CAVOK,,,,,,,,VFR,,,,,,,,,,,,METAR,829.0
LFGJ 281030Z AUTO 21008KT 9999 FEW041 SCT049 BKN092 20/14 Q1016 TEMPO 4000 SHRA SCT040TCU,LFGJ,2023-04-28T10:30:00Z,47.05,5.43,20.0,14.0,210,8,,6.21,30.0,,,TRUE,,,,,,,,FEW,4100,SCT,4900,BKN,9200,,,VFR,,,,,,,,,,,,SPECI,191.0
LFGA 281030Z AUTO 18005KT 9999 FEW030 OVC070 17/14 Q1015,LFGA,2023-04-28T10:30:00Z,48.1,7.35,17.0,14.0,180,5,,6.21,29.970472,,,TRUE,,,,,,,,FEW,3000,OVC,7000,,,,,VFR,,,,,,,,,,,,METAR,191.0
LFCR 281030Z AUTO 08005KT 040V120 CAVOK 23/14 Q1017 NOSIG,LFCR,2023-04-28T10:30:00Z,44.4,2.47,23.0,14.0,80,5,,6.21,30.029528,,,TRUE,,,TRUE,,,,,CAVOK,,,,,,,,VFR,,,,,,,,,,,,METAR,576.0
LFCK 281030Z AUTO 12015KT CAVOK 24/14 Q1016 TEMPO 12015G25KT,LFCK,2023-04-28T10:30:00Z,43.55,2.28,24.0,14.0,120,15,,6.21,30.0,,,TRUE,,,,,,,,CAVOK,,,,,,,,VFR,,,,,,,,,,,,METAR,223.0
LFBZ 281030Z AUTO 08004KT 040V130 CAVOK 24/17 Q1013 NOSIG,LFBZ,2023-04-28T10:30:00Z,43.47,-1.53,24.0,17.0,80,4,,6.21,29.911417,,,TRUE,,,TRUE,,,,,CAVOK,,,,,,,,VFR,,,,,,,,,,,,METAR,70.0
LFBY 281030Z AUTO VRB02KT 9999 // ////// 25/16 Q1013,LFBY,2023-04-28T10:30:00Z,43.68,-1.07,25.0,16.0,0,2,,6.21,29.911417,,,TRUE,,,,,,,,,,,,,,,,,,,,,,,,,,,,METAR,32.0
LFBX 281030Z AUTO VRB03KT CAVOK 24/15 Q1015,LFBX,2023-04-28T10:30:00Z,45.2,0.82,24.0,15.0,0,3,,6.21,29.970472,,,TRUE,,,,,,,,CAVOK,,,,,,,,VFR,,,,,,,,,,,,METAR,97.0
LFBU 281030Z AUTO VRB03KT CAVOK 23/15 Q1015 NOSIG,LFBU,2023-04-28T10:30:00Z,45.72,0.22,23.0,15.0,0,3,,6.21,29.970472,,,TRUE,,,TRUE,,,,,CAVOK,,,,,,,,VFR,,,,,,,,,,,,METAR,124.0
LFBT 281030Z AUTO 36005KT 320V040 9999 FEW008 SCT170 24/16 Q1014 NOSIG,LFBT,2023-04-28T10:30:00Z,43.18,0.0,24.0,16.0,360,5,,6.21,29.940945,,,TRUE,,,TRUE,,,,,FEW,800,SCT,17000,,,,,VFR,,,,,,,,,,,,METAR,359.0
LFBP 281030Z AUTO VRB03KT CAVOK 25/19 Q1014 NOSIG,LFBP,2023-04-28T10:30:00Z,43.38,-0.42,25.0,19.0,0,3,,6.21,29.940945,,,TRUE,,,TRUE,,,,,CAVOK,,,,,,,,VFR,,,,,,,,,,,,METAR,182.0
LFBO 281030Z AUTO 14013KT 110V170 CAVOK 21/15 Q1015 NOSIG,LFBO,2023-04-28T10:30:00Z,43.62,1.37,21.0,15.0,140,13,,6.21,29.970472,,,TRUE,,,TRUE,,,,,CAVOK,,,,,,,,VFR,,,,,,,,,,,,METAR,150.0
LFBM 281030Z AUTO 09003KT 010V140 CAVOK 25/18 Q1014 NOSIG,LFBM,2023-04-28T10:30:00Z,43.92,-0.5,25.0,18.0,90,3,,6.21,29.940945,,,TRUE,,,TRUE,,,,,CAVOK,,,,,,,,VFR,,,,,,,,,,,,METAR,56.0
LFBL 281030Z AUTO 23005KT 180V280 CAVOK 22/15 Q1016 NOSIG,LFBL,2023-04-28T10:30:00Z,45.87,1.17,22.0,15.0,230,5,,6.21,30.0,,,TRUE,,,TRUE,,,,,CAVOK,,,,,,,,VFR,,,,,,,,,,,,METAR,402.0
LFBI 281030Z AUTO 32004KT 240V010 9999 FEW021 BKN100 21/15 Q1015 NOSIG,LFBI,2023-04-28T10:30:00Z,46.58,0.32,21.0,15.0,320,4,,6.21,29.970472,,,TRUE,,,TRUE,,,,,FEW,2100,BKN,10000,,,,,VFR,,,,,,,,,,,,METAR,117.0
LFBH 281030Z AUTO 01008KT 340V060 CAVOK 21/16 Q1015 NOSIG,LFBH,2023-04-28T10:30:00Z,46.18,-1.2,21.0,16.0,10,8,,6.21,29.970472,,,TRUE,,,TRUE,,,,,CAVOK,,,,,,,,VFR,,,,,,,,,,,,METAR,18.0
LFBG 281030Z AUTO VRB03KT 9999 FEW001 BKN160 23/16 Q1015 NOSIG,LFBG,2023-04-28T10:30:00Z,45.67,-0.32,23.0,16.0,0,3,,6.21,29.970472,,,TRUE,,,TRUE,,,,,FEW,100,BKN,16000,,,,,VFR,,,,,,,,,,,,METAR,28.0
LFBF 281030Z AUTO 13005KT 100V200 CAVOK 21/15 Q1015,LFBF,2023-04-28T10:30:00Z,43.53,1.37,21.0,15.0,130,5,,6.21,29.970472,,,TRUE,,,,,,,,CAVOK,,,,,,,,VFR,,,,,,,,,,,,METAR,159.0
LFBE 281030Z AUTO 14005KT 070V200 CAVOK 23/17 Q1015 NOSIG,LFBE,2023-04-28T10:30:00Z,44.82,0.52,23.0,17.0,140,5,,6.21,29.970472,,,TRUE,,,TRUE,,,,,CAVOK,,,,,,,,VFR,,,,,,,,,,,,METAR,49.0
LFBD 281030Z AUTO 06006KT 020V120 CAVOK 24/16 Q1014 NOSIG,LFBD,2023-04-28T10:30:00Z,44.82,-0.7,24.0,16.0,60,6,,6.21,29.940945,,,TRUE,,,TRUE,,,,,CAVOK,,,,,,,,VFR,,,,,,,,,,,,METAR,48.0
LFBC 281030Z AUTO 09004KT 040V140 CAVOK 25/17 Q1013 NOSIG,LFBC,2023-04-28T10:30:00Z,44.52,-1.12,25.0,17.0,90,4,,6.21,29.911417,,,TRUE,,,TRUE,,,,,CAVOK,,,,,,,,VFR,,,,,,,,,,,,METAR,22.0
LFBA 281030Z AUTO 11009KT 080V150 CAVOK 22/17 Q1014 NOSIG,LFBA,2023-04-28T10:30:00Z,44.17,0.6,22.0,17.0,110,9,,6.21,29.940945,,,TRUE,,,TRUE,,,,,CAVOK,,,,,,,,VFR,,,,,,,,,,,,METAR,68.0
LFAT 281030Z AUTO 26012KT 230V290 5000 BR OVC003 12/11 Q1013 NOSIG,LFAT,2023-04-28T10:30:00Z,50.52,1.62,12.0,11.0,260,12,,3.11,29.911417,,,TRUE,,,TRUE,,,,BR,OVC,300,,,,,,,LIFR,,,,,,,,,,,,METAR,2.0
LFAQ 281030Z AUTO 28015KT 9999 BKN012 BKN017 17/14 Q1012 BECMG SCT014 OVC018,LFAQ,2023-04-28T10:30:00Z,49.97,2.7,17.0,14.0,280,15,,6.21,29.88189,,,TRUE,,,,,,,,BKN,1200,BKN,1700,,,,,MVFR,,,,,,,,,,,,METAR,107.0
LFAC 281030Z AUTO 25017KT 9999 OVC007 13/12 Q1011,LFAC,2023-04-28T10:30:00Z,50.97,1.95,13.0,12.0,250,17,,6.21,29.852362,,,TRUE,,,,,,,,OVC,700,,,,,,,IFR,,,,,,,,,,,,METAR,3.0
LEZL 281030Z 28004KT 230V330 CAVOK 30/11 Q1014 NOSIG,LEZL,2023-04-28T10:30:00Z,37.42,-5.9,30.0,11.0,280,4,,6.21,29.940945,,,,,,TRUE,,,,,CAVOK,,,,,,,,VFR,,,,,,,,,,,,METAR,26.0
LEZG 281030Z 09009KT 060V140 CAVOK 23/12 Q1016,LEZG,2023-04-28T10:30:00Z,41.67,-1.02,23.0,12.0,90,9,,6.21,30.0,,,,,,,,,,,CAVOK,,,,,,,,VFR,,,,,,,,,,,,METAR,245.0
LEXJ 281030Z 06003KT 010V110 5000 BR BKN006 16/16 Q1014,LEXJ,2023-04-28T10:30:00Z,43.42,-3.82,16.0,16.0,60,3,,3.11,29.940945,,,,,,,,,,BR,BKN,600,,,,,,,IFR,,,,,,,,,,,,METAR,1.0
LEVX 281030Z 04003KT 340V140 CAVOK 21/15 Q1014 NOSIG,LEVX,2023-04-28T10:30:00Z,42.23,-8.62,21.0,15.0,40,3,,6.21,29.940945,,,,,,TRUE,,,,,CAVOK,,,,,,,,VFR,,,,,,,,,,,,METAR,253.0
LEVT 281030Z 28001KT CAVOK 23/12 Q1015,LEVT,2023-04-28T10:30:00Z,42.87,-2.72,23.0,12.0,280,1,,6.21,29.970472,,,,,,,,,,,CAVOK,,,,,,,,VFR,,,,,,,,,,,,METAR,501.0
LEVS 281030Z 15004KT 110V190 CAVOK 24/09 Q1017,LEVS,2023-04-28T10:30:00Z,40.37,-3.78,24.0,9.0,150,4,,6.21,30.029528,,,,,,,,,,,CAVOK,,,,,,,,VFR,,,,,,,,,,,,METAR,683.0
LEVD 281030Z 16004KT 110V190 CAVOK 23/10 Q1015,LEVD,2023-04-28T10:30:00Z,41.72,-4.85,23.0,10.0,160,4,,6.21,29.970472,,,,,,,,,,,CAVOK,,,,,,,,VFR,,,,,,,,,,,,METAR,844.0
LEVC 281030Z 08005KT 030V130 9999 FEW014 22/15 Q1018 NOSIG,LEVC,2023-04-28T10:30:00Z,39.5,-0.47,22.0,15.0,80,5,,6.21,30.059055,,,,,,TRUE,,,,,FEW,1400,,,,,,,VFR,,,,,,,,,,,,METAR,58.0
LETO 281030Z 23005KT 160V280 CAVOK 26/09 Q1016 NOSIG,LETO,2023-04-28T10:30:00Z,40.48,-3.47,26.0,9.0,230,5,,6.21,30.0,,,,,,TRUE,,,,,CAVOK,,,,,,,,VFR,,,,,,,,,,,,METAR,598.0
LETL 281030Z AUTO 15014KT CAVOK 24/04 Q1019,LETL,2023-04-28T10:30:00Z,40.42,-1.22,24.0,4.0,150,14,,6.21,30.088583,,,TRUE,,,,,,,,CAVOK,,,,,,,,VFR,,,,,,,,,,,,METAR,1024.0
LESU 281030Z 19003KT 120V240 CAVOK 21/10 Q1019,LESU,2023-04-28T10:30:00Z,42.33,1.4,21.0,10.0,190,3,,6.21,30.088583,,,,,,,,,,,CAVOK,,,,,,,,VFR,,,,,,,,,,,,METAR,802.0
LEST 281030Z 36006KT 310V030 9999 FEW035 19/13 Q1015 NOSIG,LEST,2023-04-28T10:30:00Z,42.88,-8.42,19.0,13.0,360,6,,6.21,29.970472,,,,,,TRUE,,,,,FEW,3500,,,,,,,VFR,,,,,,,,,,,,METAR,363.0
LESO 281030Z 36006KT 320V050 CAVOK 20/16 Q1013,LESO,2023-04-28T10:30:00Z,43.35,-1.8,20.0,16.0,360,6,,6.21,29.911417,,,,,,,,,,,CAVOK,,,,,,,,VFR,,,,,,,,,,,,METAR,3.0
LESB 281030Z AUTO VRB05KT CAVOK 27/12 Q1018,LESB,2023-04-28T10:30:00Z,39.6,2.7,27.0,12.0,0,5,,6.21,30.059055,,,TRUE,,,,,,,,CAVOK,,,,,,,,VFR,,,,,,,,,,,,METAR,48.0
LESA 281030Z 21015KT CAVOK 24/09 Q1016,LESA,2023-04-28T10:30:00Z,40.95,-5.5,24.0,9.0,210,15,,6.21,30.0,,,,,,,,,,,CAVOK,,,,,,,,VFR,,,,,,,,,,,,METAR,788.0
LERT 281030Z 19004KT 140V240 CAVOK 25/15 Q1014 NOSIG,LERT,2023-04-28T10:30:00Z,36.63,-6.33,25.0,15.0,190,4,,6.21,29.940945,,,,,,TRUE,,,,,CAVOK,,,,,,,,VFR,,,,,,,,,,,,METAR,27.0
LERS 281030Z 15005KT 050V200 CAVOK 23/13 Q1018,LERS,2023-04-28T10:30:00Z,41.13,1.17,23.0,13.0,150,5,,6.21,30.059055,,,,,,,,,,,CAVOK,,,,,,,,VFR,,,,,,,,,,,,METAR,68.0
LERI 281030Z VRB05KT CAVOK 27/06 Q1016 NOSIG,LERI,2023-04-28T10:30:00Z,37.95,-1.22,27.0,6.0,0,5,,6.21,30.0,,,,,,TRUE,,,,,CAVOK,,,,,,,,VFR,,,,,,,,,,,,METAR,74.0
LEPP 281030Z 36003KT CAVOK 21/12 Q1016,LEPP,2023-04-28T10:30:00Z,42.77,-1.65,21.0,12.0,360,3,,6.21,30.0,,,,,,,,,,,CAVOK,,,,,,,,VFR,,,,,,,,,,,,METAR,448.0
LEPA 281030Z 15008KT 100V200 CAVOK 27/15 Q1017 NOSIG,LEPA,2023-04-28T10:30:00Z,39.55,2.73,27.0,15.0,150,8,,6.21,30.029528,,,,,,TRUE,,,,,CAVOK,,,,,,,,VFR,,,,,,,,,,,,METAR,8.0
LEMO 281030Z 30006KT 230V340 CAVOK 28/10 Q1014 NOSIG,LEMO,2023-04-28T10:30:00Z,37.17,-5.62,28.0,10.0,300,6,,6.21,29.940945,,,,,,TRUE,,,,,CAVOK,,,,,,,,VFR,,,,,,,,,,,,METAR,82.0
LEMI 281030Z 09005KT 050V150 CAVOK 25/12 Q1017,LEMI,2023-04-28T10:30:00Z,37.8,-1.12,25.0,12.0,90,5,,6.21,30.029528,,,,,,,,,,,CAVOK,,,,,,,,VFR,,,,,,,,,,,,METAR,193.0
LEMH 281030Z 13010KT 100V160 CAVOK 23/13 Q1019,LEMH,2023-04-28T10:30:00Z,39.87,4.22,23.0,13.0,130,10,,6.21,30.088583,,,,,,,,,,,CAVOK,,,,,,,,VFR,,,,,,,,,,,,METAR,82.0
LEMG 281030Z 14008KT CAVOK 25/12 Q1016 NOSIG,LEMG,2023-04-28T10:30:00Z,36.67,-4.47,25.0,12.0,140,8,,6.21,30.0,,,,,,TRUE,,,,,CAVOK,,,,,,,,VFR,,,,,,,,,,,,METAR,5.0
LEMD 281030Z 19003KT CAVOK 26/07 Q1016 NOSIG,LEMD,2023-04-28T10:30:00Z,40.45,-3.57,26.0,7.0,190,3,,6.21,30.0,,,,,,TRUE,,,,,CAVOK,,,,,,,,VFR,,,,,,,,,,,,METAR,589.0
LELO 281030Z 08011KT 050V120 CAVOK 22/09 Q1015,LELO,2023-04-28T10:30:00Z,42.45,-2.32,22.0,9.0,80,11,,6.21,29.970472,,,,,,,,,,,CAVOK,,,,,,,,VFR,,,,,,,,,,,,METAR,352.0
LELN 281030Z 11005KT 080V150 CAVOK 21/06 Q1015,LELN,2023-04-28T10:30:00Z,42.58,-5.65,21.0,6.0,110,5,,6.21,29.970472,,,,,,,,,,,CAVOK,,,,,,,,VFR,,,,,,,,,,,,METAR,911.0
LELL 281030Z 14005KT 050V200 CAVOK 25/10 Q1018,LELL,2023-04-28T10:30:00Z,41.52,2.1,25.0,10.0,140,5,,6.21,30.059055,,,,,,,,,,,CAVOK,,,,,,,,VFR,,,,,,,,,,,,METAR,136.0
LELC 281030Z 04010KT 350V070 CAVOK 24/18 Q1017 NOSIG,LELC,2023-04-28T10:30:00Z,37.77,-0.8,24.0,18.0,40,10,,6.21,30.029528,,,,,,TRUE,,,,,CAVOK,,,,,,,,VFR,,,,,,,,,,,,METAR,3.0
LEJR 281030Z VRB02KT CAVOK 27/11 Q1014,LEJR,2023-04-28T10:30:00Z,36.75,-6.07,27.0,11.0,0,2,,6.21,29.940945,,,,,,,,,,,CAVOK,,,,,,,,VFR,,,,,,,,,,,,METAR,25.0
LEIB 281030Z 08011KT 050V120 CAVOK 22/17 Q1017 NOSIG,LEIB,2023-04-28T10:30:00Z,38.87,1.38,22.0,17.0,80,11,,6.21,30.029528,,,,,,TRUE,,,,,CAVOK,,,,,,,,VFR,,,,,,,,,,,,METAR,4.0
LEHC 281030Z 12013KT 080V160 CAVOK 24/10 Q1017,LEHC,2023-04-28T10:30:00Z,42.08,-0.32,24.0,10.0,120,13,,6.21,30.029528,,,,,,,,,,,CAVOK,,,,,,,,VFR,,,,,,,,,,,,METAR,540.0
LEGT 281030Z 17003KT CAVOK 28/09 Q1016,LEGT,2023-04-28T10:30:00Z,40.28,-3.72,28.0,9.0,170,3,,6.21,30.0,,,,,,,,,,,CAVOK,,,,,,,,VFR,,,,,,,,,,,,METAR,619.0
LEGR 281030Z 33006KT 290V020 9999 FEW055 SCT100 30/06 Q1016,LEGR,2023-04-28T10:30:00Z,37.18,-3.78,30.0,6.0,330,6,,6.21,30.0,,,,,,,,,,,FEW,5500,SCT,10000,,,,,VFR,,,,,,,,,,,,METAR,560.0
LEGE 281030Z 18010KT 150V210 CAVOK 23/14 Q1017,LEGE,2023-04-28T10:30:00Z,41.9,2.77,23.0,14.0,180,10,,6.21,30.029528,,,,,,,,,,,CAVOK,,,,,,,,VFR,,,,,,,,,,,,METAR,140.0
LEGA 281030Z 21007KT 9999 FEW100TCU 33/M01 Q1017,LEGA,2023-04-28T10:30:00Z,37.13,-3.62,33.0,-1.0,210,7,,6.21,30.029528,,,,,,,,,,,FEW,10000,,,,,,,VFR,,,,,,,,,,,,METAR,684.0
LEEC 281030Z 32003KT 240V020 CAVOK 30/08 Q1014,LEEC,2023-04-28T10:30:00Z,37.32,-6.0,30.0,8.0,320,3,,6.21,29.940945,,,,,,,,,,,CAVOK,,,,,,,,VFR,,,,,,,,,,,,METAR,7.0
LEDA 281030Z 08011KT 050V110 CAVOK 26/07 Q1016,LEDA,2023-04-28T10:30:00Z,41.73,0.53,26.0,7.0,80,11,,6.21,30.0,,,,,,,,,,,CAVOK,,,,,,,,VFR,,,,,,,,,,,,METAR,352.0
LECV 281030Z 16005KT CAVOK 23/05 Q1018,LECV,2023-04-28T10:30:00Z,40.68,-3.75,23.0,5.0,160,5,,6.21,30.059055,,,,,,,,,,,CAVOK,,,,,,,,VFR,,,,,,,,,,,,METAR,995.0
LECO 281030Z 36005KT 280V070 8000 SCT005 16/14 Q1015 NOSIG,LECO,2023-04-28T10:30:00Z,43.3,-8.37,16.0,14.0,360,5,,4.97,29.970472,,,,,,TRUE,,,,,SCT,500,,,,,,,MVFR,,,,,,,,,,,,METAR,80.0
LECH 281030Z AUTO 11007KT 070V150 CAVOK 21/14 Q1018,LECH,2023-04-28T10:30:00Z,40.2,0.07,21.0,14.0,110,7,,6.21,30.059055,,,TRUE,,,,,,,,CAVOK,,,,,,,,VFR,,,,,,,,,,,,METAR,360.0
LEBZ 281030Z 29004KT 230V350 CAVOK 28/11 Q1014,LEBZ,2023-04-28T10:30:00Z,38.87,-6.82,28.0,11.0,290,4,,6.21,29.940945,,,,,,,,,,,CAVOK,,,,,,,,VFR,,,,,,,,,,,,METAR,183.0
LEBT 281030Z AUTO 13005KT CAVOK 25/15 Q1017,LEBT,2023-04-28T10:30:00Z,39.58,-0.45,25.0,15.0,130,5,,6.21,30.029528,,,TRUE,,,,,,,,CAVOK,,,,,,,,VFR,,,,,,,,,,,,METAR,50.0
LEBR 281030Z AUTO 10009KT 080V140 9999 NSC 24/11 Q1016,LEBR,2023-04-28T10:30:00Z,42.2,-1.43,24.0,11.0,100,9,,6.21,30.0,,,TRUE,,,,,,,,CLR,,,,,,,,VFR,,,,,,,,,,,,METAR,347.0
LEBL 281030Z 13007KT CAVOK 21/14 Q1018 NOSIG,LEBL,2023-04-28T10:30:00Z,41.28,2.07,21.0,14.0,130,7,,6.21,30.059055,,,,,,TRUE,,,,,CAVOK,,,,,,,,VFR,,,,,,,,,,,,METAR,2.0
LEBG 281030Z 02008KT 360V060 CAVOK 23/13 Q1016,LEBG,2023-04-28T10:30:00Z,42.37,-3.62,23.0,13.0,20,8,,6.21,30.0,,,,,,,,,,,CAVOK,,,,,,,,VFR,,,,,,,,,,,,METAR,892.0
LEBB 281030Z VRB02KT 9999 FEW012 23/16 Q1013 NOSIG,LEBB,2023-04-28T10:30:00Z,43.28,-2.92,23.0,16.0,0,2,,6.21,29.911417,,,,,,TRUE,,,,,FEW,1200,,,,,,,VFR,,,,,,,,,,,,METAR,38.0
LEBA 281030Z 30002KT CAVOK 30/05 Q1014,LEBA,2023-04-28T10:30:00Z,37.85,-4.83,30.0,5.0,300,2,,6.21,29.940945,,,,,,,,,,,CAVOK,,,,,,,,VFR,,,,,,,,,,,,METAR,88.0
LEAS 281030Z 07005KT 020V100 6000 BKN009 18/16 Q1013 NOSIG,LEAS,2023-04-28T10:30:00Z,43.57,-6.03,18.0,16.0,70,5,,3.73,29.911417,,,,,,TRUE,,,,,BKN,900,,,,,,,IFR,,,,,,,,,,,,METAR,120.0
LEAO 281030Z 32004KT 250V010 CAVOK 28/04 Q1016,LEAO,2023-04-28T10:30:00Z,38.95,-3.73,28.0,4.0,320,4,,6.21,30.0,,,,,,,,,,,CAVOK,,,,,,,,VFR,,,,,,,,,,,,METAR,621.0
LEAM 281030Z 21009KT 190V260 CAVOK 23/16 Q1015,LEAM,2023-04-28T10:30:00Z,36.85,-2.37,23.0,16.0,210,9,,6.21,29.970472,,,,,,,,,,,CAVOK,,,,,,,,VFR,,,,,,,,,,,,METAR,16.0
LEAL 281030Z 08009KT 050V110 CAVOK 23/15 Q1016 NOSIG,LEAL,2023-04-28T10:30:00Z,38.27,-0.55,23.0,15.0,80,9,,6.21,30.0,,,,,,TRUE,,,,,CAVOK,,,,,,,,VFR,,,,,,,,,,,,METAR,26.0
LEAG 281030Z AUTO 16005KT 120V190 CAVOK 21/14 Q1016,LEAG,2023-04-28T10:30:00Z,36.12,-5.45,21.0,14.0,160,5,,6.21,30.0,,,TRUE,,,,,,,,CAVOK,,,,,,,,VFR,,,,,,,,,,,,METAR,4.0
LEAB 281030Z 16013KT 130V190 CAVOK 28/03 Q1017 NOSIG,LEAB,2023-04-28T10:30:00Z,38.95,-1.85,28.0,3.0,160,13,,6.21,30.029528,,,,,,TRUE,,,,,CAVOK,,,,,,,,VFR,,,,,,,,,,,,METAR,704.0
LDZD 281030Z 19009KT 130V250 CAVOK 19/07 Q1020 NOSIG,LDZD,2023-04-28T10:30:00Z,44.1,15.33,19.0,7.0,190,9,,6.21,30.11811,,,,,,TRUE,,,,,CAVOK,,,,,,,,VFR,,,,,,,,,,,,METAR,82.0
LDZA 281030Z 11004KT 050V170 CAVOK 17/06 Q1018 NOSIG,LDZA,2023-04-28T10:30:00Z,45.72,16.07,17.0,6.0,110,4,,6.21,30.059055,,,,,,TRUE,,,,,CAVOK,,,,,,,,VFR,,,,,,,,,,,,METAR,103.0
LDSP 281030Z 24008KT CAVOK 20/05 Q1021 BECMG 23010KT,LDSP,2023-04-28T10:30:00Z,43.53,16.3,20.0,5.0,240,8,,6.21,30.147638,,,,,,,,,,,CAVOK,,,,,,,,VFR,,,,,,,,,,,,SPECI,16.0
LDRI 281030Z 28003KT 240V340 9999 FEW040 17/09 Q1020,LDRI,2023-04-28T10:30:00Z,45.22,14.57,17.0,9.0,280,3,,6.21,30.11811,,,,,,,,,,,FEW,4000,,,,,,,VFR,,,,,,,,,,,,METAR,80.0
LDPL 281030Z 14006KT 090V210 CAVOK 18/06 Q1020 NOSIG,LDPL,2023-04-28T10:30:00Z,44.88,13.92,18.0,6.0,140,6,,6.21,30.11811,,,,,,TRUE,,,,,CAVOK,,,,,,,,VFR,,,,,,,,,,,,METAR,63.0
LDOS 281030Z 14010KT 090V160 CAVOK 16/01 Q1021,LDOS,2023-04-28T10:30:00Z,45.47,18.82,16.0,1.0,140,10,,6.21,30.147638,,,,,,,,,,,CAVOK,,,,,,,,VFR,,,,,,,,,,,,METAR,82.0
LDLO 281030Z 15007KT 110V190 CAVOK 17/13 Q1020,LDLO,2023-04-28T10:30:00Z,44.57,14.4,17.0,13.0,150,7,,6.21,30.11811,,,,,,,,,,,CAVOK,,,,,,,,VFR,,,,,,,,,,,,METAR,46.0
LDDU 281030Z 16010KT 140V210 CAVOK 17/06 Q1020 BECMG 23010KT,LDDU,2023-04-28T10:30:00Z,42.57,18.27,17.0,6.0,160,10,,6.21,30.11811,,,,,,,,,,,CAVOK,,,,,,,,VFR,,,,,,,,,,,,SPECI,156.0
LCPH 281030Z 25009KT 9999 VCTS FEW020 FEW025CB FEW030TCU SCT040 20/12 Q1008 NOSIG,LCPH,2023-04-28T10:30:00Z,34.72,32.47,20.0,12.0,250,9,,6.21,29.763779,,,,,,TRUE,,,,VCTS,FEW,2000,FEW,2500,FEW,3000,SCT,4000,VFR,,,,,,,,,,,,METAR,8.0
LCLK 281030Z 19022KT 9999 FEW025TCU FEW035CB SCT050 23/12 Q1007 NOSIG,LCLK,2023-04-28T10:30:00Z,34.87,33.62,23.0,12.0,190,22,,6.21,29.734253,,,,,,TRUE,,,,,FEW,2500,FEW,3500,SCT,5000,,,VFR,,,,,,,,,,,,METAR,2.0
LBWN 281030Z 33017KT 300V360 9999 SCT049 15/M02 Q1018 NOSIG,LBWN,2023-04-28T10:30:00Z,43.22,27.82,15.0,-2.0,330,17,,6.21,30.059055,,,,,,TRUE,,,,,SCT,4900,,,,,,,VFR,,,,,,,,,,,,METAR,74.0
LBSF 281030Z VRB06KT CAVOK 13/M02 Q1020 NOSIG,LBSF,2023-04-28T10:30:00Z,42.65,23.37,13.0,-2.0,0,6,,6.21,30.11811,,,,,,TRUE,,,,,CAVOK,,,,,,,,VFR,,,,,,,,,,,,METAR,592.0
LBPD 281030Z AUTO VRB05KT 9999 FEW059/// SCT077/// 16/03 Q1019 NOSIG,LBPD,2023-04-28T10:30:00Z,42.05,24.85,16.0,3.0,0,5,,6.21,30.088583,,,TRUE,,,TRUE,,,,,FEW,5900,SCT,7700,,,,,VFR,,,,,,,,,,,,METAR,182.0
LBGO 281030Z AUTO 33006KT 280V050 9999 FEW050/// 13/02 Q1021 NOSIG,LBGO,2023-04-28T10:30:00Z,43.15,25.72,13.0,2.0,330,6,,6.21,30.147638,,,TRUE,,,TRUE,,,,,FEW,5000,,,,,,,VFR,,,,,,,,,,,,METAR,84.0
LBBG 281030Z 33017KT CAVOK 15/00 Q1019 NOSIG,LBBG,2023-04-28T10:30:00Z,42.57,27.52,15.0,0.0,330,17,,6.21,30.088583,,,,,,TRUE,,,,,CAVOK,,,,,,,,VFR,,,,,,,,,,,,METAR,41.0
KTDZ 281030Z AUTO 06007KT 2 1/2SM -RA BR BKN049 OVC060 09/07 A2983 RMK AO2 RAB00 P0006 T00890067,KTDZ,2023-04-28T10:30:00Z,41.57,-83.48,8.9,6.7,60,7,,2.5,29.828741,,,TRUE,TRUE,,,,,,-RA BR,BKN,4900,OVC,6000,,,,,IFR,,,,,,0.06,,,,,,SPECI,189.0
KSUT 281030Z AUTO 16003KT 10SM SCT028 SCT075 OVC090 19/17 A2979 RMK AO2 T01910167,KSUT,2023-04-28T10:30:00Z,33.93,-78.08,19.1,16.7,160,3,,10.0,29.790354,,,TRUE,TRUE,,,,,,,SCT,2800,SCT,7500,OVC,9000,,,VFR,,,,,,,,,,,,SPECI,6.0
KSOP 281030Z AUTO 19009KT 10SM -RA SCT011 BKN016 OVC060 17/17 A2979 RMK AO2 P0002,KSOP,2023-04-28T10:30:00Z,35.23,-79.4,17.0,17.0,190,9,,10.0,29.790354,,,TRUE,TRUE,,,,,,-RA,SCT,1100,BKN,1600,OVC,6000,,,MVFR,,,,,,0.02,,,,,,SPECI,135.0
KSHM 281030Z AUTO 36022G25KT 10SM FEW021 SCT028 OVC100 02/M02 A3009 RMK AO2 SLP168 $,KSHM,2023-04-28T10:30:00Z,38.8,-104.52,2.0,-2.0,360,22,25,10.0,30.088583,1016.8,,TRUE,TRUE,TRUE,,,,,,FEW,2100,SCT,2800,OVC,10000,,,VFR,,,,,,,,,,,,SPECI,1900.0
KS71 281030Z AUTO 00000KT 10SM 01/M01 A3017 ,KS71,2023-04-28T10:30:00Z,48.6,-109.25,1.0,-1.0,0,0,,10.0,30.171259,,,TRUE,,,,,,,,,,,,,,,,,,,,,,,,,,,,METAR,736.0
KRHP 281030Z AUTO 00000KT 7SM -RA SCT001 OVC023 13/12 A2977 RMK AO2 T01310124,KRHP,2023-04-28T10:30:00Z,35.18,-83.85,13.1,12.4,0,0,,7.0,29.769686,,,TRUE,TRUE,,,,,,-RA,SCT,100,OVC,2300,,,,,MVFR,,,,,,,,,,,,SPECI,515.0
KQFX 281030Z AUTO 27003KT 9999 SCT049 OVC085 20/10 A2992 RMK A02 TSNO,KQFX,2023-04-28T10:30:00Z,,,20.0,10.0,270,3,,6.21,29.920275,,,TRUE,TRUE,,,TRUE,,,,SCT,4900,OVC,8500,,,,,VFR,,,,,,,,,,,,METAR,
KQFW 281030Z AUTO 19003KT 9999 BKN048 18/05 A2976 RMK A02 TSNO,KQFW,2023-04-28T10:30:00Z,,,18.0,5.0,190,3,,6.21,29.760826,,,TRUE,TRUE,,,TRUE,,,,BKN,4800,,,,,,,VFR,,,,,,,,,,,,METAR,
KQFV 281030Z AUTO 30001KT 9999 OVC037 16/07 A2997 RMK A02 TSNO,KQFV,2023-04-28T10:30:00Z,,,16.0,7.0,300,1,,6.21,29.970472,,,TRUE,TRUE,,,TRUE,,,,OVC,3700,,,,,,,VFR,,,,,,,,,,,,METAR,
KQFU 281030Z AUTO 23002KT 9999 OVC036 16/07 A2997 RMK A02 TSNO,KQFU,2023-04-28T10:30:00Z,,,16.0,7.0,230,2,,6.21,29.970472,,,TRUE,TRUE,,,TRUE,,,,OVC,3600,,,,,,,VFR,,,,,,,,,,,,METAR,
KQFT 281030Z AUTO 18002KT 9999 OVC043 19/09 A2992 RMK A02 TSNO,KQFT,2023-04-28T10:30:00Z,,,19.0,9.0,180,2,,6.21,29.920275,,,TRUE,TRUE,,,TRUE,,,,OVC,4300,,,,,,,VFR,,,,,,,,,,,,METAR,
KQFB 281030Z AUTO 15002KT 9000 HZ BKN065 19/09 A3004 RMK A02 TSNO,KQFB,2023-04-28T10:30:00Z,,,19.0,9.0,150,2,,5.59,30.041338,,,TRUE,TRUE,,,TRUE,,,HZ,BKN,6500,,,,,,,VFR,,,,,,,,,,,,METAR,
KQEY 281030Z AUTO 18006KT 9999 OVC042 20/11 A2966 RMK A02 TSNO,KQEY,2023-04-28T10:30:00Z,,,20.0,11.0,180,6,,6.21,29.660433,,,TRUE,TRUE,,,TRUE,,,,OVC,4200,,,,,,,VFR,,,,,,,,,,,,METAR,
KQEX 281030Z AUTO 15007G19KT 9999 CLR 20/11 A2985 RMK A02 TSNO,KQEX,2023-04-28T10:30:00Z,,,20.0,11.0,150,7,19,6.21,29.84941,,,TRUE,TRUE,,,TRUE,,,,CLR,,,,,,,,VFR,,,,,,,,,,,,METAR,
KQEW 281030Z AUTO 23003KT 9999 OVC085 21/09 A2992 RMK A02 TSNO,KQEW,2023-04-28T10:30:00Z,,,21.0,9.0,230,3,,6.21,29.920275,,,TRUE,TRUE,,,TRUE,,,,OVC,8500,,,,,,,VFR,,,,,,,,,,,,METAR,
KQEV 281030Z AUTO 21001KT 9999 OVC043 20/11 A2991 RMK A02 TSNO,KQEV,2023-04-28T10:30:00Z,,,20.0,11.0,210,1,,6.21,29.911417,,,TRUE,TRUE,,,TRUE,,,,OVC,4300,,,,,,,VFR,,,,,,,,,,,,METAR,
KQER 281030Z AUTO 21003KT 9999 BKN036 16/06 A2989 RMK A02 TSNO,KQER,2023-04-28T10:30:00Z,,,16.0,6.0,210,3,,6.21,29.890747,,,TRUE,TRUE,,,TRUE,,,,BKN,3600,,,,,,,VFR,,,,,,,,,,,,METAR,
KQEQ 281030Z AUTO 15002KT 9999 OVC039 16/08 A2997 RMK A02 TSNO,KQEQ,2023-04-28T10:30:00Z,,,16.0,8.0,150,2,,6.21,29.970472,,,TRUE,TRUE,,,TRUE,,,,OVC,3900,,,,,,,VFR,,,,,,,,,,,,METAR,
KQEP 281030Z AUTO 15001KT 9999 OVC041 19/09 A2996 RMK A02 TSNO,KQEP,2023-04-28T10:30:00Z,,,19.0,9.0,150,1,,6.21,29.958662,,,TRUE,TRUE,,,TRUE,,,,OVC,4100,,,,,,,VFR,,,,,,,,,,,,METAR,
KQEN 281030Z AUTO 25009G23KT 9999 OVC160 14/00 A2992 RMK A02 TSNO,KQEN,2023-04-28T10:30:00Z,,,14.0,0.0,250,9,23,6.21,29.920275,,,TRUE,TRUE,,,TRUE,,,,OVC,16000,,,,,,,VFR,,,,,,,,,,,,METAR,
KQEJ 281030Z AUTO 20003KT 9999 BKN047 OVC075 18/04 A2990 RMK A02 TSNO,KQEJ,2023-04-28T10:30:00Z,,,18.0,4.0,200,3,,6.21,29.899607,,,TRUE,TRUE,,,TRUE,,,,BKN,4700,OVC,7500,,,,,VFR,,,,,,,,,,,,METAR,
KQEI 281030Z AUTO 18002KT 9999 BKN050 18/04 A2991 RMK A02 TSNO,KQEI,2023-04-28T10:30:00Z,,,18.0,4.0,180,2,,6.21,29.911417,,,TRUE,TRUE,,,TRUE,,,,BKN,5000,,,,,,,VFR,,,,,,,,,,,,METAR,
KOWD 281030Z AUTO 00000KT 3/4SM BR VV002 03/02 A3024 RMK AO2 T00280017,KOWD,2023-04-28T10:30:00Z,42.18,-71.17,2.8,1.7,0,0,,0.75,30.239174,,,TRUE,TRUE,,,,,,BR,OVX,0,,,,,,,LIFR,,,,,,,,,,,200,SPECI,14.0
KOSU 281030Z AUTO 09013KT 2SM RA BR OVC007 13/12 A2971 RMK AO2 P0006 T01330117,KOSU,2023-04-28T10:30:00Z,40.08,-83.08,13.3,11.7,90,13,,2.0,29.71063,,,TRUE,TRUE,,,,,,RA BR,OVC,700,,,,,,,IFR,,,,,,0.06,,,,,,SPECI,276.0
KNQA 281030Z 32007KT 10SM BKN008 OVC014 14/14 A2971,KNQA,2023-04-28T10:30:00Z,35.35,-89.87,14.0,14.0,320,7,,10.0,29.71063,,,,,,,,,,,BKN,800,OVC,1400,,,,,IFR,,,,,,,,,,,,SPECI,90.0
KMQI 281030Z AUTO 10009KT 2 1/2SM +RA SCT004 BKN011 OVC020 16/16 A2988 RMK AO2 P0052 T01630158,KMQI,2023-04-28T10:30:00Z,35.92,-75.7,16.3,15.8,100,9,,2.5,29.878937,,,TRUE,TRUE,,,,,,+RA,SCT,400,BKN,1100,OVC,2000,,,IFR,,,,,,0.52,,,,,,SPECI,3.0
KLRF 281030Z AUTO 00000KT 10SM FEW010 OVC018 13/12 A2975 RMK AO2 CIG 012V018 CIG 004 RWY07 SLP076,KLRF,2023-04-28T10:30:00Z,34.92,-92.12,13.0,12.0,0,0,,10.0,29.749016,1007.6,,TRUE,TRUE,,,,,,,FEW,1000,OVC,1800,,,,,MVFR,,,,,,,,,,,,SPECI,85.0
KLHQ 281030Z AUTO 11013KT 10SM -RA OVC010 13/13 A2972 RMK AO2 RAE08B29 CIG 007V013 P0000 T01280128,KLHQ,2023-04-28T10:30:00Z,39.75,-82.67,12.8,12.8,110,13,,10.0,29.719488,,,TRUE,TRUE,,,,,,-RA,OVC,1000,,,,,,,MVFR,,,,,,0.005,,,,,,SPECI,259.0
KIXA 281030Z AUTO 06003KT 3SM RA OVC004 14/14 A2982 RMK AO2 P0001,KIXA,2023-04-28T10:30:00Z,36.33,-77.63,14.0,14.0,60,3,,3.0,29.819881,,,TRUE,TRUE,,,,,,RA,OVC,400,,,,,,,LIFR,,,,,,0.01,,,,,,SPECI,43.0
KIWD 281030Z AUTO 05004KT 9SM -RA BKN028 BKN035 OVC075 04/04 A2990 RMK AO2 RAB24 P0000,KIWD,2023-04-28T10:30:00Z,46.52,-90.12,4.0,4.0,50,4,,9.0,29.899607,,,TRUE,TRUE,,,,,,-RA,BKN,2800,BKN,3500,OVC,7500,,,MVFR,,,,,,0.005,,,,,,SPECI,373.0
KEZP 281030Z AUTO 00000KT 10SM FEW019 SCT036 BKN042 23/19 A2983 RMK A01,KEZP,2023-04-28T10:30:00Z,28.22,-92.8,23.0,19.0,0,0,,10.0,29.828741,,,TRUE,TRUE,,,,,,,FEW,1900,SCT,3600,BKN,4200,,,VFR,,,,,,,,,,,,METAR,30.0
KEYF 281030Z AUTO 18004KT 10SM SCT023 BKN050 OVC065 18/17 A2980 RMK AO2 T01790173,KEYF,2023-04-28T10:30:00Z,34.6,-78.58,17.9,17.3,180,4,,10.0,29.799213,,,TRUE,TRUE,,,,,,,SCT,2300,BKN,5000,OVC,6500,,,VFR,,,,,,,,,,,,SPECI,39.0
KEXX 281030Z AUTO 19004KT 10SM SCT018 BKN060 OVC110 16/16 A2975 RMK AO2 T01620162,KEXX,2023-04-28T10:30:00Z,35.78,-80.3,16.2,16.2,190,4,,10.0,29.749016,,,TRUE,TRUE,,,,,,,SCT,1800,BKN,6000,OVC,11000,,,VFR,,,,,,,,,,,,SPECI,221.0
KEDE 281030Z AUTO 11009KT 7SM DZ BKN007 OVC027 19/19 A2985 RMK AO2 P0002 T01850185,KEDE,2023-04-28T10:30:00Z,36.03,-76.57,18.5,18.5,110,9,,7.0,29.84941,,,TRUE,TRUE,,,,,,DZ,BKN,700,OVC,2700,,,,,IFR,,,,,,0.02,,,,,,SPECI,4.0
KCNK 281030Z AUTO 29006KT 4SM RA BR SCT011 BKN020 OVC065 12/11 A2982 RMK AO2 RAB0957 P0002 T01220106,KCNK,2023-04-28T10:30:00Z,39.55,-97.65,12.2,10.6,290,6,,4.0,29.819881,,,TRUE,TRUE,,,,,,RA BR,SCT,1100,BKN,2000,OVC,6500,,,MVFR,,,,,,0.02,,,,,,SPECI,445.0
KCGS 281030Z AUTO 05005KT 5SM RA BR BKN010 OVC016 13/12 A3001 RMK AO2 P0004 T01290119,KCGS,2023-04-28T10:30:00Z,38.98,-76.92,12.9,11.9,50,5,,5.0,30.008858,,,TRUE,TRUE,,,,,,RA BR,BKN,1000,OVC,1600,,,,,MVFR,,,,,,0.04,,,,,,SPECI,15.0
KBDR 281030Z 04007KT 8SM OVC010 07/07 A3021 RMK AO2 T00720067,KBDR,2023-04-28T10:30:00Z,41.17,-73.13,7.2,6.7,40,7,,8.0,30.209646,,,,TRUE,,,,,,,OVC,1000,,,,,,,MVFR,,,,,,,,,,,,SPECI,5.0
KBAK 281030Z 36008KT 7SM OVC012 09/08 A2970 RMK FIRST,KBAK,2023-04-28T10:30:00Z,39.27,-85.9,9.0,8.0,360,8,,7.0,29.698818,,,,,,,,,,,OVC,1200,,,,,,,MVFR,,,,,,,,,,,,SPECI,199.0
KATW 281030Z 07004KT 10SM SCT120 06/00 A2986,KATW,2023-04-28T10:30:00Z,44.27,-88.52,6.0,0.0,70,4,,10.0,29.861221,,,,,,,,,,,SCT,12000,,,,,,,VFR,,,,,,,,,,,,SPECI,266.0
K3U3 281030Z AUTO 00000KT 10SM 00/M05 A3028 ,K3U3,2023-04-28T10:30:00Z,46.15,-112.87,0.0,-5.0,0,0,,10.0,30.280512,,,TRUE,,,,,,,,,,,,,,,,,,,,,,,,,,,,METAR,1534.0
K38S 281030Z AUTO 00000KT 10SM M01/M03 A3031 ,K38S,2023-04-28T10:30:00Z,46.38,-112.77,-1.0,-3.0,0,0,,10.0,30.31004,,,TRUE,,,,,,,,,,,,,,,,,,,,,,,,,,,,METAR,1430.0
K2DP 281030Z AUTO 13004KT 10SM -RA BKN007 OVC014 M A2983 RMK AO2 CIG 007V015 SLPNO ALSTG ESTMD $,K2DP,2023-04-28T10:30:00Z,35.68,-75.9,,,130,4,,10.0,29.828741,,,TRUE,TRUE,TRUE,,,,,-RA,BKN,700,OVC,1400,,,,,IFR,,,,,,,,,,,,SPECI,1.0
K1A5 281030Z AUTO 00000KT 10SM SCT003 BKN010 OVC039 13/13 A2981 RMK AO2 T01310128,K1A5,2023-04-28T10:30:00Z,35.22,-83.42,13.1,12.8,0,0,,10.0,29.811024,,,TRUE,TRUE,,,,,,,SCT,300,BKN,1000,OVC,3900,,,MVFR,,,,,,,,,,,,SPECI,611.0
HRYR 281030Z 08003KT 040V130 9999 BKN025 23/16 Q1019 NOSIG,HRYR,2023-04-28T10:30:00Z,-1.97,30.13,23.0,16.0,80,3,,6.21,30.088583,,,,,,TRUE,,,,,BKN,2500,,,,,,,MVFR,,,,,,,,,,,,METAR,1493.0
HECA 281030Z 29011KT 9999 SCT025 23/06 Q1013 NOSIG,HECA,2023-04-28T10:30:00Z,30.12,31.4,23.0,6.0,290,11,,6.21,29.911417,,,,,,TRUE,,,,,SCT,2500,,,,,,,VFR,,,,,,,,,,,,METAR,68.0
GMTT 281030Z 08008KT CAVOK 28/17 Q1014 NOSIG,GMTT,2023-04-28T10:30:00Z,35.72,-5.9,28.0,17.0,80,8,,6.21,29.940945,,,,,,TRUE,,,,,CAVOK,,,,,,,,VFR,,,,,,,,,,,,METAR,19.0
GMMX 281030Z 29007KT 260V340 9999 FEW100 SCT200 27/15 Q1016 NOSIG,GMMX,2023-04-28T10:30:00Z,31.62,-8.03,27.0,15.0,290,7,,6.21,30.0,,,,,,TRUE,,,,,FEW,10000,SCT,20000,,,,,VFR,,,,,,,,,,,,METAR,465.0
GMMN 281030Z 25008KT 200V330 CAVOK 25/18 Q1016 NOSIG,GMMN,2023-04-28T10:30:00Z,33.37,-7.58,25.0,18.0,250,8,,6.21,30.0,,,,,,TRUE,,,,,CAVOK,,,,,,,,VFR,,,,,,,,,,,,METAR,196.0
GMME 281030Z 28012KT 250V310 5000 SCT023 SCT200 22/19 Q1015 NOSIG,GMME,2023-04-28T10:30:00Z,34.05,-6.77,22.0,19.0,280,12,,3.11,29.970472,,,,,,TRUE,,,,,SCT,2300,SCT,20000,,,,,MVFR,,,,,,,,,,,,METAR,84.0
GMFO 281030Z VRB04KT CAVOK 37/M03 Q1016 NOSIG,GMFO,2023-04-28T10:30:00Z,34.78,-1.92,37.0,-3.0,0,4,,6.21,30.0,,,,,,TRUE,,,,,CAVOK,,,,,,,,VFR,,,,,,,,,,,,METAR,452.0
GMFF 281030Z 02005KT 340V070 CAVOK 36/02 Q1016 NOSIG,GMFF,2023-04-28T10:30:00Z,33.92,-4.97,36.0,2.0,20,5,,6.21,30.0,,,,,,TRUE,,,,,CAVOK,,,,,,,,VFR,,,,,,,,,,,,METAR,575.0
GMAD 281030Z 27010KT 240V300 9000 NSC 25/18 Q1016 NOSIG,GMAD,2023-04-28T10:30:00Z,30.32,-9.42,25.0,18.0,270,10,,5.59,30.0,,,,,,TRUE,,,,,CLR,,,,,,,,VFR,,,,,,,,,,,,METAR,66.0
GLRB 281030Z /////KT 9999 BKN018 FEW026CB 30/25 Q//// NOSIG RMK CB/EW,GLRB,2023-04-28T10:30:00Z,6.25,-10.35,30.0,25.0,,,,6.21,,,,,,,TRUE,,,,,BKN,1800,FEW,2600,,,,,MVFR,,,,,,,,,,,,METAR,12.0
GEML 281030Z 08005KT 040V150 9000 SCT006 SCT010 22/17 Q1015,GEML,2023-04-28T10:30:00Z,35.27,-2.95,22.0,17.0,80,5,,5.59,29.970472,,,,,,,,,,,SCT,600,SCT,1000,,,,,VFR,,,,,,,,,,,,METAR,48.0
GECE 281030Z AUTO 13004KT 060V180 CAVOK 22/17 Q1016,GECE,2023-04-28T10:30:00Z,35.88,-5.3,22.0,17.0,130,4,,6.21,30.0,,,TRUE,,,,,,,,CAVOK,,,,,,,,VFR,,,,,,,,,,,,METAR,2.0
GCXO 281030Z VRB03KT 9999 FEW003 22/08 Q1019 NOSIG,GCXO,2023-04-28T10:30:00Z,28.48,-16.35,22.0,8.0,0,3,,6.21,30.088583,,,,,,TRUE,,,,,FEW,300,,,,,,,VFR,,,,,,,,,,,,METAR,623.0
GCTS 281030Z 16006KT 120V210 9999 FEW020 22/16 Q1018 NOSIG,GCTS,2023-04-28T10:30:00Z,28.05,-16.57,22.0,16.0,160,6,,6.21,30.059055,,,,,,TRUE,,,,,FEW,2000,,,,,,,VFR,,,,,,,,,,,,METAR,59.0
GCRR 281030Z 11006KT 9999 FEW020 21/17 Q1017,GCRR,2023-04-28T10:30:00Z,28.95,-13.58,21.0,17.0,110,6,,6.21,30.029528,,,,,,,,,,,FEW,2000,,,,,,,VFR,,,,,,,,,,,,METAR,9.0
GCLP 281030Z 03013KT 9999 FEW030 23/17 Q1018 NOSIG,GCLP,2023-04-28T10:30:00Z,27.92,-15.38,23.0,17.0,30,13,,6.21,30.059055,,,,,,TRUE,,,,,FEW,3000,,,,,,,VFR,,,,,,,,,,,,METAR,16.0
GCLA 281030Z 06005KT 010V090 9999 FEW042 23/18 Q1018,GCLA,2023-04-28T10:30:00Z,28.62,-17.75,23.0,18.0,60,5,,6.21,30.059055,,,,,,,,,,,FEW,4200,,,,,,,VFR,,,,,,,,,,,,METAR,20.0
GCHI 281030Z 36012KT CAVOK 22/17 Q1018,GCHI,2023-04-28T10:30:00Z,27.82,-17.88,22.0,17.0,360,12,,6.21,30.059055,,,,,,,,,,,CAVOK,,,,,,,,VFR,,,,,,,,,,,,METAR,21.0
GCGM 281030Z 22006KT 180V270 CAVOK 21/18 Q1018 RMK R09/VRB04KT ARP/23005KT 140V290,GCGM,2023-04-28T10:30:00Z,28.03,-17.22,21.0,18.0,220,6,,6.21,30.059055,,,,,,,,,,,CAVOK,,,,,,,,VFR,,,,,,,,,,,,METAR,217.0
GCFV 281030Z 06007KT CAVOK 22/17 Q1017,GCFV,2023-04-28T10:30:00Z,28.43,-13.87,22.0,17.0,60,7,,6.21,30.029528,,,,,,,,,,,CAVOK,,,,,,,,VFR,,,,,,,,,,,,METAR,11.0
FOOG 281030Z VRB04KT 9999 SCT010 FEW020CB 30/26 Q1013,FOOG,2023-04-28T10:30:00Z,-0.7,8.75,30.0,26.0,0,4,,6.21,29.911417,,,,,,,,,,,SCT,1000,FEW,2000,,,,,VFR,,,,,,,,,,,,METAR,4.0
FMMI 281030Z 13009KT 090V190 9999 SCT027 24/14 Q1020 NOSIG,FMMI,2023-04-28T10:30:00Z,-18.8,47.47,24.0,14.0,130,9,,6.21,30.11811,,,,,,TRUE,,,,,SCT,2700,,,,,,,VFR,,,,,,,,,,,,METAR,1269.0
FMCZ 281030Z AUTO 14005KT 090V180 9999 FEW019/// ///TCU 30/25 Q1010 BECMG SCT025,FMCZ,2023-04-28T10:30:00Z,-12.8,45.27,30.0,25.0,140,5,,6.21,29.822834,,,TRUE,,,,,,,,FEW,1900,,,,,,,VFR,,,,,,,,,,,,METAR,7.0
FAOR 281030Z 30007KT 260V350 9999 FEW045 25/11 Q1025 NOSIG,FAOR,2023-04-28T10:30:00Z,-26.13,28.23,25.0,11.0,300,7,,6.21,30.265747,,,,,,TRUE,,,,,FEW,4500,,,,,,,VFR,,,,,,,,,,,,METAR,1684.0
ETHB 281030Z 12005KT 9999 -RA SCT044 BKN058 12/07 Q1011 BLU FCST CNL,ETHB,2023-04-28T10:30:00Z,52.27,9.07,12.0,7.0,120,5,,6.21,29.852362,,,,,,,,,,-RA,SCT,4400,BKN,5800,,,,,VFR,,,,,,,,,,,,SPECI,69.0
EPZG 281030Z 11007KT 050V150 CAVOK 15/02 Q1017,EPZG,2023-04-28T10:30:00Z,52.13,15.77,15.0,2.0,110,7,,6.21,30.029528,,,,,,,,,,,CAVOK,,,,,,,,VFR,,,,,,,,,,,,METAR,59.0
EPWR 281030Z 14011KT CAVOK 15/04 Q1017,EPWR,2023-04-28T10:30:00Z,51.1,16.88,15.0,4.0,140,11,,6.21,30.029528,,,,,,,,,,,CAVOK,,,,,,,,VFR,,,,,,,,,,,,METAR,118.0
EPWA 281030Z VRB04KT CAVOK 12/M04 Q1020 NOSIG,EPWA,2023-04-28T10:30:00Z,52.17,20.97,12.0,-4.0,0,4,,6.21,30.11811,,,,,,TRUE,,,,,CAVOK,,,,,,,,VFR,,,,,,,,,,,,METAR,107.0
EPSY 281030Z 26008KT 220V320 CAVOK 10/M04 Q1020,EPSY,2023-04-28T10:30:00Z,53.47,20.93,10.0,-4.0,260,8,,6.21,30.11811,,,,,,,,,,,CAVOK,,,,,,,,VFR,,,,,,,,,,,,METAR,136.0
EPSC 281030Z 13008KT CAVOK 13/M02 Q1017,EPSC,2023-04-28T10:30:00Z,53.58,14.9,13.0,-2.0,130,8,,6.21,30.029528,,,,,,,,,,,CAVOK,,,,,,,,VFR,,,,,,,,,,,,METAR,47.0
EPRZ 281030Z VRB03KT CAVOK 12/M03 Q1021,EPRZ,2023-04-28T10:30:00Z,50.1,22.02,12.0,-3.0,0,3,,6.21,30.147638,,,,,,,,,,,CAVOK,,,,,,,,VFR,,,,,,,,,,,,METAR,206.0
EPRA 281030Z VRB02KT CAVOK 11/M01 Q1021,EPRA,2023-04-28T10:30:00Z,51.38,21.22,11.0,-1.0,0,2,,6.21,30.147638,,,,,,,,,,,CAVOK,,,,,,,,VFR,,,,,,,,,,,,METAR,182.0
EPPO 281030Z 13008KT 100V170 CAVOK 14/01 Q1018,EPPO,2023-04-28T10:30:00Z,52.42,16.83,14.0,1.0,130,8,,6.21,30.059055,,,,,,,,,,,CAVOK,,,,,,,,VFR,,,,,,,,,,,,METAR,87.0
EPMO 281030Z 25005KT 210V310 CAVOK 12/M03 Q1020,EPMO,2023-04-28T10:30:00Z,52.45,20.65,12.0,-3.0,250,5,,6.21,30.11811,,,,,,,,,,,CAVOK,,,,,,,,VFR,,,,,,,,,,,,METAR,102.0
EPLL 281030Z 13006KT 070V230 CAVOK 12/M00 Q1019,EPLL,2023-04-28T10:30:00Z,51.72,19.4,12.0,0.0,130,6,,6.21,30.088583,,,,,,,,,,,CAVOK,,,,,,,,VFR,,,,,,,,,,,,METAR,176.0
EPLB 281030Z VRB03KT CAVOK 11/M04 Q1021,EPLB,2023-04-28T10:30:00Z,51.23,22.72,11.0,-4.0,0,3,,6.21,30.147638,,,,,,,,,,,CAVOK,,,,,,,,VFR,,,,,,,,,,,,METAR,206.0
EPKT 281030Z 23008KT 180V270 CAVOK 14/M01 Q1019,EPKT,2023-04-28T10:30:00Z,50.47,19.08,14.0,-1.0,230,8,,6.21,30.088583,,,,,,,,,,,CAVOK,,,,,,,,VFR,,,,,,,,,,,,METAR,296.0
EPKK 281030Z 25005KT 200V290 9999 FEW056 13/M00 Q1019,EPKK,2023-04-28T10:30:00Z,50.07,19.8,13.0,0.0,250,5,,6.21,30.088583,,,,,,,,,,,FEW,5600,,,,,,,VFR,,,,,,,,,,,,METAR,237.0
EPGD 281030Z 26008KT 210V310 CAVOK 10/M02 Q1018,EPGD,2023-04-28T10:30:00Z,54.37,18.47,10.0,-2.0,260,8,,6.21,30.059055,,,,,,,,,,,CAVOK,,,,,,,,VFR,,,,,,,,,,,,METAR,136.0
EPBY 281030Z 16007KT 070V210 CAVOK 12/M05 Q1019,EPBY,2023-04-28T10:30:00Z,53.1,18.0,12.0,-5.0,160,7,,6.21,30.088583,,,,,,,,,,,CAVOK,,,,,,,,VFR,,,,,,,,,,,,METAR,66.0
EIWF 281030Z 25004KT 190V310 9999 FEW011 BKN026 14/11 Q1013,EIWF,2023-04-28T10:30:00Z,52.18,-7.08,14.0,11.0,250,4,,6.21,29.911417,,,,,,,,,,,FEW,1100,BKN,2600,,,,,MVFR,,,,,,,,,,,,METAR,26.0
EISG 281030Z 35004KT 9999 BKN023 OVC037 12/11 Q1011,EISG,2023-04-28T10:30:00Z,54.28,-8.6,12.0,11.0,350,4,,6.21,29.852362,,,,,,,,,,,BKN,2300,OVC,3700,,,,,MVFR,,,,,,,,,,,,METAR,1.0
EINN 281030Z 23008KT 8000 -DZ FEW008 SCT017 BKN025 14/12 Q1013 NOSIG,EINN,2023-04-28T10:30:00Z,52.7,-8.92,14.0,12.0,230,8,,4.97,29.911417,,,,,,TRUE,,,,-DZ,FEW,800,SCT,1700,BKN,2500,,,MVFR,,,,,,,,,,,,METAR,20.0
EIKN 281030Z 27007KT 9999 BKN006 BKN017 12/10 Q1012 BECMG SCT006,EIKN,2023-04-28T10:30:00Z,53.92,-8.82,12.0,10.0,270,7,,6.21,29.88189,,,,,,,,,,,BKN,600,BKN,1700,,,,,IFR,,,,,,,,,,,,SPECI,201.0
EIDW 281030Z 25005KT 160V320 9000 -DZ FEW005 SCT009 BKN015 13/12 Q1012 NOSIG,EIDW,2023-04-28T10:30:00Z,53.42,-6.28,13.0,12.0,250,5,,5.59,29.88189,,,,,,TRUE,,,,-DZ,FEW,500,SCT,900,BKN,1500,,,MVFR,,,,,,,,,,,,METAR,75.0
EIDL 281030Z 32005KT 9999 BKN006 OVC022 12/00 Q1011,EIDL,2023-04-28T10:30:00Z,55.05,-8.33,12.0,0.0,320,5,,6.21,29.852362,,,,,,,,,,,BKN,600,OVC,2200,,,,,IFR,,,,,,,,,,,,METAR,2.0
EICK 281030Z 24006KT 200V260 9999 BKN013 13/10 Q1013 BECMG BKN015,EICK,2023-04-28T10:30:00Z,51.85,-8.47,13.0,10.0,240,6,,6.21,29.911417,,,,,,,,,,,BKN,1300,,,,,,,MVFR,,,,,,,,,,,,SPECI,158.0
DTTJ 281030Z 07011KT CAVOK 24/14 Q1021 NOSIG,DTTJ,2023-04-28T10:30:00Z,33.87,10.77,24.0,14.0,70,11,,6.21,30.147638,,,,,,TRUE,,,,,CAVOK,,,,,,,,VFR,,,,,,,,,,,,METAR,3.0
DTTA 281030Z 11006KT 050V150 9999 FEW030 26/13 Q1019,DTTA,2023-04-28T10:30:00Z,36.85,10.22,26.0,13.0,110,6,,6.21,30.088583,,,,,,,,,,,FEW,3000,,,,,,,VFR,,,,,,,,,,,,METAR,4.0
DTNH 281030Z 09012KT 9999 R27///// FEW030 24/14 Q1020 NOSIG,DTNH,2023-04-28T10:30:00Z,36.07,10.43,24.0,14.0,90,12,,6.21,30.11811,,,,,,TRUE,,,,,FEW,3000,,,,,,,VFR,,,,,,,,,,,,METAR,1.0
DTMB 281030Z 10013KT CAVOK 26/11 Q1020,DTMB,2023-04-28T10:30:00Z,35.77,10.75,26.0,11.0,100,13,,6.21,30.11811,,,,,,,,,,,CAVOK,,,,,,,,VFR,,,,,,,,,,,,METAR,1.0
DIAP 281030Z 21011KT 9000 FEW011 26/25 Q1013 NOSIG,DIAP,2023-04-28T10:30:00Z,5.25,-3.92,26.0,25.0,210,11,,5.59,29.911417,,,,,,TRUE,,,,,FEW,1100,,,,,,,VFR,,,,,,,,,,,,METAR,4.0
DAOO 281030Z 34006KT 310V010 CAVOK 25/17 Q1015,DAOO,2023-04-28T10:30:00Z,35.62,-0.62,25.0,17.0,340,6,,6.21,29.970472,,,,,,,,,,,CAVOK,,,,,,,,VFR,,,,,,,,,,,,METAR,87.0
DAON 281030Z 33004KT 9999 FEW030 28/14 Q1015,DAON,2023-04-28T10:30:00Z,35.02,-1.47,28.0,14.0,330,4,,6.21,29.970472,,,,,,,,,,,FEW,3000,,,,,,,VFR,,,,,,,,,,,,METAR,245.0
DABC 281030Z 26010KT 230V310 CAVOK 30/03 Q1021,DABC,2023-04-28T10:30:00Z,36.27,6.62,30.0,3.0,260,10,,6.21,30.147638,,,,,,,,,,,CAVOK,,,,,,,,VFR,,,,,,,,,,,,METAR,686.0
DABB 281030Z 03008KT CAVOK 25/16 Q1017,DABB,2023-04-28T10:30:00Z,36.82,7.82,25.0,16.0,30,8,,6.21,30.029528,,,,,,,,,,,CAVOK,,,,,,,,VFR,,,,,,,,,,,,METAR,3.0
DAAT 281030Z 12016G32KT 7000 NSC 32/M02 Q1022,DAAT,2023-04-28T10:30:00Z,22.82,5.47,32.0,-2.0,120,16,32,4.35,30.177166,,,,,,,,,,,CLR,,,,,,,,MVFR,,,,,,,,,,,,METAR,1376.0
DAAG 281030Z 02009KT CAVOK 34/11 Q1015,DAAG,2023-04-28T10:30:00Z,36.68,3.22,34.0,11.0,20,9,,6.21,29.970472,,,,,,,,,,,CAVOK,,,,,,,,VFR,,,,,,,,,,,,METAR,18.0
CWPF 281030Z AUTO 01004KT 08/06 RMK AO1 SLP198 T00840063 58005,CWPF,2023-04-28T10:30:00Z,48.43,-123.43,8.4,6.3,10,4,,,,1019.8,,TRUE,TRUE,,,,,,,,,,,,,,,,-0.5,,,,,,,,,,,METAR,5.0
CWEU 281030Z VRB02KT 1 1/2SM -SN OVC032 M21/M24 A3022 RMK SC8 SLP251,CWEU,2023-04-28T10:30:00Z,80.0,-85.93,-21.0,-24.0,0,2,,1.5,30.221457,1025.1,,,,,,,,,-SN,OVC,3200,,,,,,,IFR,,,,,,,,,,,,SPECI,2.0
BKPR 281030Z VRB04KT CAVOK 13/01 Q1021 NOSIG,BKPR,2023-04-28T10:30:00Z,42.58,21.03,13.0,1.0,0,4,,6.21,30.147638,,,,,,TRUE,,,,,CAVOK,,,,,,,,VFR,,,,,,,,,,,,METAR,545.0
BIKF 281030Z 07008KT 9999 FEW017 BKN029 02/M00 Q1025,BIKF,2023-04-28T10:30:00Z,63.98,-22.6,2.0,0.0,70,8,,6.21,30.265747,,,,,,,,,,,FEW,1700,BKN,2900,,,,,MVFR,,,,,,,,,,,,METAR,49.0
PAUN 281029Z AUTO 08011KT 10SM BKN025 BKN030 OVC038 02/M01 A2965 RMK AO2 FZRANO,PAUN,2023-04-28T10:29:00Z,63.88,-160.8,2.0,-1.0,80,11,,10.0,29.648623,,,TRUE,TRUE,,,,TRUE,,,BKN,2500,BKN,3000,OVC,3800,,,MVFR,,,,,,,,,,,,SPECI,4.0
KUDG 281029Z AUTO 17006KT 10SM BKN014 OVC060 18/18 A2978 RMK AO2,KUDG,2023-04-28T10:29:00Z,34.45,-79.88,18.0,18.0,170,6,,10.0,29.778543,,,TRUE,TRUE,,,,,,,BKN,1400,OVC,6000,,,,,MVFR,,,,,,,,,,,,SPECI,57.0
KTVR 281029Z AUTO 00000KT 3/4SM BR CLR 12/12 A2978 RMK AO2 T01220117,KTVR,2023-04-28T10:29:00Z,32.35,-91.03,12.2,11.7,0,0,,0.75,29.778543,,,TRUE,TRUE,,,,,,BR,CLR,,,,,,,,LIFR,,,,,,,,,,,,SPECI,25.0
KRNM 281029Z AUTO 00000KT 1 3/4SM BR CLR 07/06 A2992 RMK AO2 T00720061,KRNM,2023-04-28T10:29:00Z,33.03,-116.92,7.2,6.1,0,0,,1.75,29.920275,,,TRUE,TRUE,,,,,,BR,CLR,,,,,,,,IFR,,,,,,,,,,,,SPECI,423.0
KMWT 281029Z AUTO 00000KT 5SM BR SCT026 09/08 A2975 RMK AO2 T00940083,KMWT,2023-04-28T10:29:00Z,34.55,-93.58,9.4,8.3,0,0,,5.0,29.749016,,,TRUE,TRUE,,,,,,BR,SCT,2600,,,,,,,MVFR,,,,,,,,,,,,SPECI,220.0
KLZU 281029Z AUTO 13003KT 1/2SM FG OVC003 14/14 A2978 RMK AO2,KLZU,2023-04-28T10:29:00Z,33.98,-83.97,14.0,14.0,130,3,,0.5,29.778543,,,TRUE,TRUE,,,,,,FG,OVC,300,,,,,,,LIFR,,,,,,,,,,,,SPECI,316.0
KLBT 281029Z AUTO 15004KT 6SM -RA BR BKN020 BKN026 OVC065 18/18 A2978 RMK AO2 RAB25 P0000 T01830178,KLBT,2023-04-28T10:29:00Z,34.6,-79.07,18.3,17.8,150,4,,6.0,29.778543,,,TRUE,TRUE,,,,,,-RA BR,BKN,2000,BKN,2600,OVC,6500,,,MVFR,,,,,,0.005,,,,,,SPECI,37.0
KFME 281029Z AUTO 07007KT 7SM OVC010 12/11 A3004 RMK AO1,KFME,2023-04-28T10:29:00Z,39.08,-76.77,12.0,11.0,70,7,,7.0,30.041338,,,TRUE,TRUE,,,,,,,OVC,1000,,,,,,,MVFR,,,,,,,,,,,,SPECI,43.0
KEKY 281029Z AUTO 22004KT 8SM FEW006 A2975 RMK AO2 FZRANO $,KEKY,2023-04-28T10:29:00Z,33.32,-86.93,,,220,4,,8.0,29.749016,,,TRUE,TRUE,TRUE,,,TRUE,,,FEW,600,,,,,,,VFR,,,,,,,,,,,,SPECI,213.0
KEEN 281029Z AUTO 00000KT OVC003 00/00 RMK AO2 PWINO FZRANO $,KEEN,2023-04-28T10:29:00Z,42.88,-72.27,0.0,0.0,0,0,,,,,,TRUE,TRUE,TRUE,,,TRUE,TRUE,,OVC,300,,,,,,,,,,,,,,,,,,,SPECI,143.0
KCLT 281029Z 23004KT 10SM FEW020 SCT027 SCT031 16/15 A2976 RMK T01610150,KCLT,2023-04-28T10:29:00Z,35.22,-80.95,16.1,15.0,230,4,,10.0,29.760826,,,,,,,,,,,FEW,2000,SCT,2700,SCT,3100,,,VFR,,,,,,,,,,,,SPECI,223.0
KCEU 281029Z AUTO 00000KT 10SM OVC004 14/14 A2977 RMK AO2 T01440144,KCEU,2023-04-28T10:29:00Z,34.67,-82.88,14.4,14.4,0,0,,10.0,29.769686,,,TRUE,TRUE,,,,,,,OVC,400,,,,,,,LIFR,,,,,,,,,,,,SPECI,270.0
KAFP 281029Z AUTO 18004KT 10SM SCT008 BKN060 OVC070 18/17 A2976 RMK AO2 T01800173,KAFP,2023-04-28T10:29:00Z,35.02,-80.08,18.0,17.3,180,4,,10.0,29.760826,,,TRUE,TRUE,,,,,,,SCT,800,BKN,6000,OVC,7000,,,VFR,,,,,,,,,,,,SPECI,91.0
K2W6 281029Z AUTO 08007KT 7SM OVC005 13/12 A2999 RMK AO1 P0003,K2W6,2023-04-28T10:29:00Z,38.32,-76.55,13.0,12.0,80,7,,7.0,29.991142,,,TRUE,TRUE,,,,,,,OVC,500,,,,,,,IFR,,,,,,0.03,,,,,,SPECI,40.0
CYUX 281029Z AUTO 25005KT 1/2SM FZFG SCT001 OVC100 M09/M09 A3018 RMK SLP222,CYUX,2023-04-28T10:29:00Z,68.77,-81.22,-9.0,-9.0,250,5,,0.5,30.180119,1022.2,,TRUE,,,,,,,FZFG,SCT,100,OVC,10000,,,,,LIFR,,,,,,,,,,,,SPECI,8.0
CYTE 281029Z AUTO 12008KT 1/2SM FZFG VV003 M02/M02 A3020 RMK ICE SLP233,CYTE,2023-04-28T10:29:00Z,64.22,-76.52,-2.0,-2.0,120,8,,0.5,30.200787,1023.3,,TRUE,,,,,,,FZFG,OVX,0,,,,,,,LIFR,,,,,,,,,,,300,SPECI,49.0
CWKM 281029Z AUTO 25012KT ////SM FEW006 BKN024 OVC046 M17/M19 A3009,CWKM,2023-04-28T10:29:00Z,69.6,-140.17,-17.0,-19.0,250,12,,,30.088583,,,TRUE,,,,,,,,FEW,600,BKN,2400,OVC,4600,,,,,,,,,,,,,,,SPECI,8.0
VASD 281028Z 10012KT 4000 HZ SCT025 FEW030CB BKN070 27/19 Q1010 TEMPO 3000 -SHRA,VASD,2023-04-28T10:28:00Z,19.68,74.38,27.0,19.0,100,12,,2.49,29.822834,,,,,,,,,,HZ,SCT,2500,FEW,3000,BKN,7000,,,IFR,,,,,,,,,,,,METAR,587.0
PACD 281028Z AUTO 18010KT 10SM SCT019 OVC100 01/M01 A2964 RMK AO2 SNE19 P0000 T00061011 TSNO $,PACD,2023-04-28T10:28:00Z,55.22,-162.72,0.6,-1.1,180,10,,10.0,29.639763,,,TRUE,TRUE,TRUE,,TRUE,,,,SCT,1900,OVC,10000,,,,,VFR,,,,,,0.005,,,,,,SPECI,23.0
KTUP 281028Z AUTO 28003KT 10SM BKN008 17/14 A2972 RMK AO2 CIG 006V010 T01670144 $,KTUP,2023-04-28T10:28:00Z,34.27,-88.77,16.7,14.4,280,3,,10.0,29.719488,,,TRUE,TRUE,TRUE,,,,,,BKN,800,,,,,,,IFR,,,,,,,,,,,,SPECI,107.0
KSGT 281028Z AUTO 32006KT 10SM SCT010 BKN015 13/13 A2978 RMK AO2,KSGT,2023-04-28T10:28:00Z,34.6,-91.57,13.0,13.0,320,6,,10.0,29.778543,,,TRUE,TRUE,,,,,,,SCT,1000,BKN,1500,,,,,MVFR,,,,,,,,,,,,SPECI,67.0
KMRY 281028Z AUTO 09003KT 10SM OVC002 07/07 A2995 RMK AO2 T00670067,KMRY,2023-04-28T10:28:00Z,36.58,-121.85,6.7,6.7,90,3,,10.0,29.949802,,,TRUE,TRUE,,,,,,,OVC,200,,,,,,,LIFR,,,,,,,,,,,,SPECI,51.0
KMPO 281028Z AUTO 10007KT M1/4SM FG VV001 05/05 A3012 RMK AO2 T00500050,KMPO,2023-04-28T10:28:00Z,41.13,-75.38,5.0,5.0,100,7,,0.25,30.121063,,,TRUE,TRUE,,,,,,FG,OVX,0,,,,,,,LIFR,,,,,,,,,,,100,SPECI,576.0
KMKL 281028Z AUTO 27005KT 3/4SM BR OVC002 13/13 A2972 RMK AO2 T01330128,KMKL,2023-04-28T10:28:00Z,35.6,-88.92,13.3,12.8,270,5,,0.75,29.719488,,,TRUE,TRUE,,,,,,BR,OVC,200,,,,,,,LIFR,,,,,,,,,,,,SPECI,130.0
KMGJ 281028Z AUTO 00000KT 3/4SM BR VV002 03/03 A3018 RMK AO2 T00330028 $,KMGJ,2023-04-28T10:28:00Z,41.52,-74.27,3.3,2.8,0,0,,0.75,30.180119,,,TRUE,TRUE,TRUE,,,,,BR,OVX,0,,,,,,,LIFR,,,,,,,,,,,200,SPECI,106.0
KHOT 281028Z AUTO 00000KT 2 1/2SM BR SCT001 BKN009 11/10 A2978 RMK AO2 T01060100,KHOT,2023-04-28T10:28:00Z,34.48,-93.1,10.6,10.0,0,0,,2.5,29.778543,,,TRUE,TRUE,,,,,,BR,SCT,100,BKN,900,,,,,IFR,,,,,,,,,,,,SPECI,153.0
KGLD 281028Z AUTO 35019G30KT 10SM SCT026 OVC100 04/M01 A3003 RMK AO2 PK WND 33035/0957 T00441006,KGLD,2023-04-28T10:28:00Z,39.37,-101.7,4.4,-0.6,350,19,30,10.0,30.029528,,,TRUE,TRUE,,,,,,,SCT,2600,OVC,10000,,,,,VFR,,,,,,,,,,,,SPECI,1111.0
KFTK 281028Z AUTO 24003KT 1SM R18/4000VP6000FT BR VV005 12/12 A2967 RMK AO2 VIS 1/2V1 RAE0956 CIG 002V005 SLP048,KFTK,2023-04-28T10:28:00Z,37.9,-85.97,12.0,12.0,240,3,,1.0,29.66929,1004.8,,TRUE,TRUE,,,,,,BR,OVX,0,,,,,,,LIFR,,,,,,,,,,,500,SPECI,225.0
KEKQ 281028Z AUTO 17005KT 10SM -RA BKN028 OVC035 14/14 A2973 RMK AO2 LTG DSNT S AND SW RAB27 P0000,KEKQ,2023-04-28T10:28:00Z,36.85,-84.85,14.0,14.0,170,5,,10.0,29.731298,,,TRUE,TRUE,,,,,,-RA,BKN,2800,OVC,3500,,,,,MVFR,,,,,,0.005,,,,,,SPECI,291.0
KDCA 281028Z 07012KT 4SM -RA BR SCT009 BKN025 OVC080 14/12 A2999 RMK AO2 P0005 T01390122 $,KDCA,2023-04-28T10:28:00Z,38.85,-77.03,13.9,12.2,70,12,,4.0,29.991142,,,,TRUE,TRUE,,,,,-RA BR,SCT,900,BKN,2500,OVC,8000,,,MVFR,,,,,,0.05,,,,,,SPECI,4.0
KABY 281028Z AUTO 18004KT 8SM OVC004 19/18 A2981 RMK AO2 T01890178 $,KABY,2023-04-28T10:28:00Z,31.53,-84.2,18.9,17.8,180,4,,8.0,29.811024,,,TRUE,TRUE,TRUE,,,,,,OVC,400,,,,,,,LIFR,,,,,,,,,,,,SPECI,60.0
FAGG 281028Z 14005KT 100V180 9999 FEW035 20/13 Q1017,FAGG,2023-04-28T10:28:00Z,-34.0,22.37,20.0,13.0,140,5,,6.21,30.029528,,,,,,,,,,,FEW,3500,,,,,,,VFR,,,,,,,,,,,,SPECI,196.0
PAKH 281027Z AUTO 2 1/2SM -SN BR BKN004 OVC011 01/M01 A2987 RMK AO2 VIS 1 1/2V5 RAB04E11 CIG 004V008 P0003 FZRANO TSNO $,PAKH,2023-04-28T10:27:00Z,56.93,-154.18,1.0,-1.0,,,,2.5,29.870079,,,TRUE,TRUE,TRUE,,TRUE,TRUE,,-SN BR,BKN,400,OVC,1100,,,,,LIFR,,,,,,0.03,,,,,,SPECI,15.0
KNFG 281027Z AUTO 00000KT 2 1/2SM BR OVC003 14/13 A2993 RMK AO2 T01390128 $,KNFG,2023-04-28T10:27:00Z,33.3,-117.35,13.9,12.8,0,0,,2.5,29.929134,,,TRUE,TRUE,TRUE,,,,,BR,OVC,300,,,,,,,LIFR,,,,,,,,,,,,SPECI,21.0
KMSL 281027Z AUTO 31005KT 9SM FEW007 BKN018 16/15 A2969 RMK AO2 T01610150,KMSL,2023-04-28T10:27:00Z,34.75,-87.6,16.1,15.0,310,5,,9.0,29.68996,,,TRUE,TRUE,,,,,,,FEW,700,BKN,1800,,,,,MVFR,,,,,,,,,,,,SPECI,170.0
KHFF 281027Z AUTO 19008KT 10SM -RA SCT011 BKN016 OVC048 18/18 A2975 RMK AO2 SLP075 $,KHFF,2023-04-28T10:27:00Z,35.03,-79.5,18.0,18.0,190,8,,10.0,29.749016,1007.5,,TRUE,TRUE,TRUE,,,,,-RA,SCT,1100,BKN,1600,OVC,4800,,,MVFR,,,,,,,,,,,,SPECI,100.0
KDSV 281027Z AUTO 16008KT 10SM BKN024 09/06 A3003 RMK AO2 T00890056,KDSV,2023-04-28T10:27:00Z,42.57,-77.72,8.9,5.6,160,8,,10.0,30.029528,,,TRUE,TRUE,,,,,,,BKN,2400,,,,,,,MVFR,,,,,,,,,,,,SPECI,195.0
KCWN 281027Z AUTO 35017G31KT 10SM -SN SCT027 BKN034 BKN055 OVC070 01/M04 A3008 RMK AO2 SNE01RAB21E23PLB23E27SNB27 SLP067 $,KCWN,2023-04-28T10:27:00Z,38.75,-104.85,1.0,-4.0,350,17,31,10.0,30.079725,1006.7,,TRUE,TRUE,TRUE,,,,,-SN,SCT,2700,BKN,3400,BKN,5500,OVC,7000,VFR,,,,,,,,,,,,SPECI,2040.0
KCRE 281027Z AUTO 18007KT 10SM SCT026 OVC033 21/18 A2977 RMK AO1 T02060183,KCRE,2023-04-28T10:27:00Z,33.82,-78.72,20.6,18.3,180,7,,10.0,29.769686,,,TRUE,TRUE,,,,,,,SCT,2600,OVC,3300,,,,,VFR,,,,,,,,,,,,SPECI,9.0
KBGD 281027Z AUTO 34009KT 10SM BKN016 BKN020 OVC055 12/08 A2992 RMK AO2 T01220083,KBGD,2023-04-28T10:27:00Z,35.7,-101.4,12.2,8.3,340,9,,10.0,29.920275,,,TRUE,TRUE,,,,,,,BKN,1600,BKN,2000,OVC,5500,,,MVFR,,,,,,,,,,,,SPECI,928.0
EHEH 281027Z AUTO 23006KT 200V270 9999 FEW008 BKN009 OVC011 14/12 Q1010 GRN TEMPO 4000 DZ BR BKN005 BKN008,EHEH,2023-04-28T10:27:00Z,51.45,5.38,14.0,12.0,230,6,,6.21,29.822834,,,TRUE,,,,,,,,FEW,800,BKN,900,OVC,1100,,,IFR,,,,,,,,,,,,SPECI,20.0
CYXS 281027Z AUTO 01002KT 9SM FEW140 SCT170 02/M01 A3018 RMK SLP252,CYXS,2023-04-28T10:27:00Z,53.88,-122.68,2.0,-1.0,10,2,,9.0,30.180119,1025.2,,TRUE,,,,,,,,FEW,14000,SCT,17000,,,,,VFR,,,,,,,,,,,,SPECI,685.0
CYVT 281027Z AUTO 20007KT 9SM SCT060 BKN071 OVC091 05/M00 A2986 RMK SLP134,CYVT,2023-04-28T10:27:00Z,55.83,-108.42,5.0,0.0,200,7,,9.0,29.861221,1013.4,,TRUE,,,,,,,,SCT,6000,BKN,7100,OVC,9100,,,VFR,,,,,,,,,,,,SPECI,438.0
PHSF 281026Z AUTO 00000KT 6SM BR M 13/12 A3031 RMK AO2 RAE26 SLP147 $,PHSF,2023-04-28T10:26:00Z,19.77,-155.55,13.0,12.0,0,0,,6.0,30.31004,1014.7,,TRUE,TRUE,TRUE,,,,,BR,,,,,,,,,,,,,,,,,,,,,SPECI,1863.0
PACV 281026Z 09006KT 10SM SCT012 BKN019 OVC031 04/02 A3004 RMK AO2 RAE22 P0001 T00390022,PACV,2023-04-28T10:26:00Z,60.5,-145.47,3.9,2.2,90,6,,10.0,30.041338,,,,TRUE,,,,,,,SCT,1200,BKN,1900,OVC,3100,,,MVFR,,,,,,0.01,,,,,,SPECI,15.0
PABE 281026Z 14008KT 1 3/4SM -SN BR BKN010 OVC014 M01/M02 A2962 RMK AO2 SNB13 P0000 T10111017,PABE,2023-04-28T10:26:00Z,60.78,-161.83,-1.1,-1.7,140,8,,1.75,29.619095,,,,TRUE,,,,,,-SN BR,BKN,1000,OVC,1400,,,,,IFR,,,,,,0.005,,,,,,SPECI,28.0
KRWI 281026Z AUTO 15003KT 8SM -RA SCT006 SCT013 OVC065 18/16 A2981 RMK AO2 P0001 T01780161,KRWI,2023-04-28T10:26:00Z,35.85,-77.9,17.8,16.1,150,3,,8.0,29.811024,,,TRUE,TRUE,,,,,,-RA,SCT,600,SCT,1300,OVC,6500,,,VFR,,,,,,0.01,,,,,,SPECI,46.0
KNQI 281026Z AUTO 19005KT 3SM BR FEW002 OVC007 21/21 A2978 RMK AO2 T02060206 $,KNQI,2023-04-28T10:26:00Z,27.5,-97.82,20.6,20.6,190,5,,3.0,29.778543,,,TRUE,TRUE,TRUE,,,,,BR,FEW,200,OVC,700,,,,,IFR,,,,,,,,,,,,SPECI,15.0
KMUI 281026Z 09009KT 10SM BKN019 OVC035 10/04 A3009 RMK SLPNO WND DATA ESTMD ALSTG ESTMD FIRST,KMUI,2023-04-28T10:26:00Z,40.43,-76.57,10.0,4.0,90,9,,10.0,30.088583,,,,,,,,,,,BKN,1900,OVC,3500,,,,,MVFR,,,,,,,,,,,,SPECI,146.0
KMGY 281026Z AUTO 07007KT 5SM -RA BR OVC010 11/11 A2966 RMK AO2 CIG 007V015 P0001 T01110111 $,KMGY,2023-04-28T10:26:00Z,39.6,-84.23,11.1,11.1,70,7,,5.0,29.660433,,,TRUE,TRUE,TRUE,,,,,-RA BR,OVC,1000,,,,,,,MVFR,,,,,,0.01,,,,,,SPECI,290.0
KLBL 281026Z AUTO 36019KT 10SM -RA FEW017 BKN033 OVC060 09/08 A2992 RMK AO2 RAB14 P0000,KLBL,2023-04-28T10:26:00Z,37.03,-100.97,9.0,8.0,360,19,,10.0,29.920275,,,TRUE,TRUE,,,,,,-RA,FEW,1700,BKN,3300,OVC,6000,,,VFR,,,,,,0.005,,,,,,SPECI,877.0
KISO 281026Z 12004KT 10SM SCT022 SCT070 18/18 A2981,KISO,2023-04-28T10:26:00Z,35.32,-77.62,18.0,18.0,120,4,,10.0,29.811024,,,,,,,,,,,SCT,2200,SCT,7000,,,,,VFR,,,,,,,,,,,,SPECI,27.0
KFFC 281026Z AUTO 18003KT 5SM BR BKN010 OVC018 16/16 A2978 RMK AO2 T01610156,KFFC,2023-04-28T10:26:00Z,33.35,-84.57,16.1,15.6,180,3,,5.0,29.778543,,,TRUE,TRUE,,,,,,BR,BKN,1000,OVC,1800,,,,,MVFR,,,,,,,,,,,,SPECI,242.0
KDWU 281026Z AUTO 10003KT 10SM -RA FEW011 SCT016 OVC029 14/ A2972 RMK AO2 RAB07 P0001,KDWU,2023-04-28T10:26:00Z,38.55,-82.73,14.0,,100,3,,10.0,29.719488,,,TRUE,TRUE,,,,,,-RA,FEW,1100,SCT,1600,OVC,2900,,,MVFR,,,,,,0.01,,,,,,SPECI,165.0
KDNL 281026Z AUTO 21004KT 10SM FEW009 FEW013 OVC047 18/17 A2978 RMK AO2 T01830172,KDNL,2023-04-28T10:26:00Z,33.47,-82.03,18.3,17.2,210,4,,10.0,29.778543,,,TRUE,TRUE,,,,,,,FEW,900,FEW,1300,OVC,4700,,,VFR,,,,,,,,,,,,SPECI,126.0
KCON 281026Z AUTO 00000KT 4SM BR FEW002 00/00 A3024 RMK AO2 T00000000,KCON,2023-04-28T10:26:00Z,43.2,-71.5,0.0,0.0,0,0,,4.0,30.239174,,,TRUE,TRUE,,,,,,BR,FEW,200,,,,,,,MVFR,,,,,,,,,,,,SPECI,102.0
KARA 281026Z AUTO 17003KT 1 3/4SM BR CLR 14/13 A2982 RMK AO2 T01440133,KARA,2023-04-28T10:26:00Z,30.03,-91.88,14.4,13.3,170,3,,1.75,29.819881,,,TRUE,TRUE,,,,,,BR,CLR,,,,,,,,IFR,,,,,,,,,,,,SPECI,5.0
EHVL 281026Z AUTO 10013KT 9999 SCT013 OVC017 09/06 Q1009 GRN,EHVL,2023-04-28T10:26:00Z,53.28,5.08,9.0,6.0,100,13,,6.21,29.793306,,,TRUE,,,,,,,,SCT,1300,OVC,1700,,,,,MVFR,,,,,,,,,,,,SPECI,2.0
RODN 281025Z AUTO 10009KT 10SM BKN019 23/19 A2996 RMK AO2 BKN V SCT SLP151 FZRANO $,RODN,2023-04-28T10:25:00Z,26.35,127.77,23.0,19.0,100,9,,10.0,29.958662,1015.1,,TRUE,TRUE,TRUE,,,TRUE,,,BKN,1900,,,,,,,MVFR,,,,,,,,,,,,SPECI,38.0
PALU 281025Z AUTO 08018G21KT 10SM -SN OVC016 M11/M14 A3002 RMK AO2 SLP165,PALU,2023-04-28T10:25:00Z,68.88,-166.1,-11.0,-14.0,80,18,21,10.0,30.02067,1016.5,,TRUE,TRUE,,,,,,-SN,OVC,1600,,,,,,,MVFR,,,,,,,,,,,,METAR,8.0
OPLA 281025Z 36008KT 5000 HZ SCT040 34/15 Q1008 TEMPO 32015G30KT 2000 TSRA FEW030CB RMK QFE982 A29.78,OPLA,2023-04-28T10:25:00Z,31.52,74.4,34.0,15.0,360,8,,3.11,29.763779,,,,,,,,,,HZ,SCT,4000,,,,,,,MVFR,,,,,,,,,,,,METAR,217.0
KXNO 281025Z AUTO 22005KT 10SM BKN005 OVC010 19/19 A2978 RMK AO2 CIG 005V007 BKN V OVC SLP085 $,KXNO,2023-04-28T10:25:00Z,33.62,-81.07,19.0,19.0,220,5,,10.0,29.778543,1008.5,,TRUE,TRUE,TRUE,,,,,,BKN,500,OVC,1000,,,,,IFR,,,,,,,,,,,,SPECI,94.0
KWST 281025Z AUTO 03005KT M1/4SM FG VV002 05/04 A3022 RMK AO2 T00500044,KWST,2023-04-28T10:25:00Z,41.35,-71.8,5.0,4.4,30,5,,0.25,30.221457,,,TRUE,TRUE,,,,,,FG,OVX,0,,,,,,,LIFR,,,,,,,,,,,200,SPECI,20.0
KW40 281025Z AUTO 17004KT 10SM SCT070 OVC075 18/17 A2980 RMK AO2 T01800174,KW40,2023-04-28T10:25:00Z,35.22,-78.03,18.0,17.4,170,4,,10.0,29.799213,,,TRUE,TRUE,,,,,,,SCT,7000,OVC,7500,,,,,VFR,,,,,,,,,,,,SPECI,50.0
KW29 281025Z AUTO 09008G16KT 070V130 10SM SCT045 BKN060 OVC080 13/12 A3002 RMK AO2 T01290117,KW29,2023-04-28T10:25:00Z,38.98,-76.33,12.9,11.7,90,8,16,10.0,30.02067,,,TRUE,TRUE,,,,,,,SCT,4500,BKN,6000,OVC,8000,,,VFR,,,,,,,,,,,,SPECI,1.0
KVUJ 281025Z AUTO 26005KT 4SM -RA SCT005 BKN020 OVC055 17/17 A2981 RMK AO2 P0029 T01710168,KVUJ,2023-04-28T10:25:00Z,35.42,-80.15,17.1,16.8,260,5,,4.0,29.811024,,,TRUE,TRUE,,,,,,-RA,SCT,500,BKN,2000,OVC,5500,,,MVFR,,,,,,0.29,,,,,,SPECI,174.0
KUKF 281025Z AUTO 22003KT 1SM BR BKN002 BKN075 OVC090 12/12 A2982 RMK AO2,KUKF,2023-04-28T10:25:00Z,36.22,-81.1,12.0,12.0,220,3,,1.0,29.819881,,,TRUE,TRUE,,,,,,BR,BKN,200,BKN,7500,OVC,9000,,,LIFR,,,,,,,,,,,,SPECI,383.0
KTTA 281025Z AUTO 17005KT 10SM RA SCT009 BKN045 OVC060 17/17 A2978 RMK AO2 P0003 T01700170,KTTA,2023-04-28T10:25:00Z,35.58,-79.1,17.0,17.0,170,5,,10.0,29.778543,,,TRUE,TRUE,,,,,,RA,SCT,900,BKN,4500,OVC,6000,,,VFR,,,,,,0.03,,,,,,SPECI,71.0
KTDF 281025Z AUTO 14005KT 10SM -RA BKN007 OVC013 15/14 A2980 RMK AO2 P0002,KTDF,2023-04-28T10:25:00Z,36.28,-78.98,15.0,14.0,140,5,,10.0,29.799213,,,TRUE,TRUE,,,,,,-RA,BKN,700,OVC,1300,,,,,IFR,,,,,,0.02,,,,,,SPECI,180.0
KSVN 281025Z AUTO 25005KT 10SM R28/4500FT BKN004 OVC020 18/18 A2978 RMK AO2 CIG 004V020 BKN V SCT SLP088 $,KSVN,2023-04-28T10:25:00Z,32.02,-81.12,18.0,18.0,250,5,,10.0,29.778543,1008.8,,TRUE,TRUE,TRUE,,,,,,BKN,400,OVC,2000,,,,,LIFR,,,,,,,,,,,,SPECI,13.0
KSVH 281025Z AUTO 24004KT 10SM OVC003 15/14 A2975 RMK AO2 T01470141,KSVH,2023-04-28T10:25:00Z,35.75,-80.95,14.7,14.1,240,4,,10.0,29.749016,,,TRUE,TRUE,,,,,,,OVC,300,,,,,,,LIFR,,,,,,,,,,,,SPECI,286.0
KSIF 281025Z AUTO 13004KT 10SM -DZ OVC008 16/15 A2973 RMK AO2 P0001 T01560151,KSIF,2023-04-28T10:25:00Z,36.43,-79.85,15.6,15.1,130,4,,10.0,29.731298,,,TRUE,TRUE,,,,,,-DZ,OVC,800,,,,,,,IFR,,,,,,0.01,,,,,,SPECI,206.0
KSCR 281025Z AUTO 17008KT 140V210 10SM -RA BKN009 OVC014 17/17 A2977 RMK AO2 P0001 T01670167,KSCR,2023-04-28T10:25:00Z,35.7,-79.5,16.7,16.7,170,8,,10.0,29.769686,,,TRUE,TRUE,,,,,,-RA,BKN,900,OVC,1400,,,,,IFR,,,,,,0.01,,,,,,SPECI,182.0
KS85 281025Z AUTO 00000KT 10SM 04/03 A3010 RMK A01 Culbertson ,KS85,2023-04-28T10:25:00Z,48.15,-104.5,4.0,3.0,0,0,,10.0,30.100393,,,TRUE,TRUE,,,,,,,,,,,,,,,,,,,,,,,,,,,METAR,596.0
KRUQ 281025Z AUTO 22003KT 10SM BKN014 BKN060 OVC100 16/16 A2975 RMK AO2 T01580156,KRUQ,2023-04-28T10:25:00Z,35.65,-80.52,15.8,15.6,220,3,,10.0,29.749016,,,TRUE,TRUE,,,,,,,BKN,1400,BKN,6000,OVC,10000,,,MVFR,,,,,,,,,,,,SPECI,231.0
KRUE 281025Z AUTO 02004KT 5SM BR OVC007 13/12 A2977 RMK AO2 CIG 003V010 T01330122,KRUE,2023-04-28T10:25:00Z,35.25,-93.1,13.3,12.2,20,4,,5.0,29.769686,,,TRUE,TRUE,,,,,,BR,OVC,700,,,,,,,IFR,,,,,,,,,,,,SPECI,119.0
KQVF 281025Z AUTO VRB04KT 9000 -SHRA FEW008 BKN012 BKN034 25/24 A2987 RMK AO2 SHRAE05SHRAB25 CIG 012V017 BKN V SCT SLP117 WND DATA ESTMD,KQVF,2023-04-28T10:25:00Z,,,25.0,24.0,0,4,,5.59,29.870079,1011.7,,TRUE,TRUE,,,,,,-SHRA,FEW,800,BKN,1200,BKN,3400,,,MVFR,,,,,,,,,,,,SPECI,
KPGV 281025Z AUTO 00000KT 7SM DZ SCT005 SCT031 SCT070 18/18 A2981 RMK AO2 P0001,KPGV,2023-04-28T10:25:00Z,35.63,-77.4,18.0,18.0,0,0,,7.0,29.811024,,,TRUE,TRUE,,,,,,DZ,SCT,500,SCT,3100,SCT,7000,,,VFR,,,,,,0.01,,,,,,SPECI,6.0
KONX 281025Z AUTO 11007G15KT 4SM RA BKN007 OVC016 16/16 A2989 RMK AO2 P0014 T01600160,KONX,2023-04-28T10:25:00Z,36.4,-76.02,16.0,16.0,110,7,15,4.0,29.890747,,,TRUE,TRUE,,,,,,RA,BKN,700,OVC,1600,,,,,IFR,,,,,,0.14,,,,,,SPECI,4.0
KODX 281025Z AUTO 33021G32KT 10SM OVC012 07/05 A2990 RMK AO2 PK WND 33036/0956 RAE20 P0000 T00670050,KODX,2023-04-28T10:25:00Z,41.62,-98.95,6.7,5.0,330,21,32,10.0,29.899607,,,TRUE,TRUE,,,,,,,OVC,1200,,,,,,,MVFR,,,,,,0.005,,,,,,SPECI,628.0
KOCW 281025Z AUTO 13005KT 10SM -RA SCT070 SCT090 OVC120 18/17 A2982 RMK AO2 P0002 T01800168,KOCW,2023-04-28T10:25:00Z,35.57,-77.05,18.0,16.8,130,5,,10.0,29.819881,,,TRUE,TRUE,,,,,,-RA,SCT,7000,SCT,9000,OVC,12000,,,VFR,,,,,,0.02,,,,,,SPECI,10.0
KMWK 281025Z AUTO 06005KT 10SM BKN022 OVC028 14/13 A2977 RMK AO2 T01420133,KMWK,2023-04-28T10:25:00Z,36.47,-80.55,14.2,13.3,60,5,,10.0,29.769686,,,TRUE,TRUE,,,,,,,BKN,2200,OVC,2800,,,,,MVFR,,,,,,,,,,,,SPECI,374.0
KMRN 281025Z AUTO 00000KT 10SM SCT085 13/12 A2977 RMK AO2 T01250122,KMRN,2023-04-28T10:25:00Z,35.82,-81.62,12.5,12.2,0,0,,10.0,29.769686,,,TRUE,TRUE,,,,,,,SCT,8500,,,,,,,VFR,,,,,,,,,,,,SPECI,375.0
KMGE 281025Z AUTO 15003KT 10SM OVC004 15/15 A2974 RMK AO2 SLP069 $,KMGE,2023-04-28T10:25:00Z,33.92,-84.52,15.0,15.0,150,3,,10.0,29.740158,1006.9,,TRUE,TRUE,TRUE,,,,,,OVC,400,,,,,,,LIFR,,,,,,,,,,,,SPECI,309.0
KMCZ 281025Z AUTO 09005KT 5SM -RA BR OVC003 18/17 A2982 RMK AO2 P0001 T01780174,KMCZ,2023-04-28T10:25:00Z,,,17.8,17.4,90,5,,5.0,29.819881,,,TRUE,TRUE,,,,,,-RA BR,OVC,300,,,,,,,LIFR,,,,,,0.01,,,,,,SPECI,
KMCB 281025Z AUTO 00000KT 3/4SM BR VV003 12/11 A2980 RMK AO2 T01170111,KMCB,2023-04-28T10:25:00Z,31.18,-90.47,11.7,11.1,0,0,,0.75,29.799213,,,TRUE,TRUE,,,,,,BR,OVX,0,,,,,,,LIFR,,,,,,,,,,,300,SPECI,124.0
KJNX 281025Z AUTO 00000KT 10SM SCT018 BKN024 OVC039 17/17 A2980 RMK AO2,KJNX,2023-04-28T10:25:00Z,35.53,-78.38,17.0,17.0,0,0,,10.0,29.799213,,,TRUE,TRUE,,,,,,,SCT,1800,BKN,2400,OVC,3900,,,MVFR,,,,,,,,,,,,SPECI,41.0
KIPJ 281025Z AUTO 00000KT 10SM SCT060 OVC090 14/14 A2976 RMK AO2 T01390135,KIPJ,2023-04-28T10:25:00Z,35.48,-81.17,13.9,13.5,0,0,,10.0,29.760826,,,TRUE,TRUE,,,,,,,SCT,6000,OVC,9000,,,,,VFR,,,,,,,,,,,,SPECI,266.0
KHRJ 281025Z AUTO 16004KT 10SM -RA OVC010 18/17 A2980 RMK AO2 T01780172,KHRJ,2023-04-28T10:25:00Z,35.38,-78.73,17.8,17.2,160,4,,10.0,29.799213,,,TRUE,TRUE,,,,,,-RA,OVC,1000,,,,,,,MVFR,,,,,,,,,,,,SPECI,55.0
KHBI 281025Z AUTO 17009G16KT 7SM RA BKN009 BKN016 OVC025 16/16 RMK AO2 P0003 T01630163,KHBI,2023-04-28T10:25:00Z,35.65,-79.9,16.3,16.3,170,9,16,7.0,,,,TRUE,TRUE,,,,,,RA,BKN,900,BKN,1600,OVC,2500,,,IFR,,,,,,0.03,,,,,,SPECI,199.0
KGWW 281025Z AUTO 00000KT 10SM SCT016 SCT060 OVC065 18/18 A2981 RMK AO2 P0001 T01750175,KGWW,2023-04-28T10:25:00Z,35.47,-77.97,17.5,17.5,0,0,,10.0,29.811024,,,TRUE,TRUE,,,,,,,SCT,1600,SCT,6000,OVC,6500,,,VFR,,,,,,0.01,,,,,,SPECI,40.0
KGEV 281025Z AUTO 00000KT 2SM BR BKN001 OVC009 10/10 A2980 RMK AO2 T00980096,KGEV,2023-04-28T10:25:00Z,36.43,-81.42,9.8,9.6,0,0,,2.0,29.799213,,,TRUE,TRUE,,,,,,BR,BKN,100,OVC,900,,,,,LIFR,,,,,,,,,,,,SPECI,961.0
KFTY 281025Z 17005KT 10SM FEW012 OVC020 16/16 A2975 RMK AO2 T01610156,KFTY,2023-04-28T10:25:00Z,33.78,-84.52,16.1,15.6,170,5,,10.0,29.749016,,,,TRUE,,,,,,,FEW,1200,OVC,2000,,,,,MVFR,,,,,,,,,,,,SPECI,245.0
KFQD 281025Z AUTO 00000KT 2SM BR SCT002 SCT025 12/12 A2978 RMK AO2 VIS 1V5,KFQD,2023-04-28T10:25:00Z,35.42,-81.93,12.0,12.0,0,0,,2.0,29.778543,,,TRUE,TRUE,,,,,,BR,SCT,200,SCT,2500,,,,,IFR,,,,,,,,,,,,SPECI,325.0
KEHO 281025Z AUTO 00000KT 5SM -DZ SCT004 BKN050 OVC100 13/13 A2977 RMK AO2 T01330133,KEHO,2023-04-28T10:25:00Z,35.25,-81.6,13.3,13.3,0,0,,5.0,29.769686,,,TRUE,TRUE,,,,,,-DZ,SCT,400,BKN,5000,OVC,10000,,,MVFR,,,,,,,,,,,,SPECI,261.0
KDPL 281025Z AUTO 18003KT 7SM BKN070 BKN110 18/18 A2980 RMK AO2,KDPL,2023-04-28T10:25:00Z,35.0,-77.97,18.0,18.0,180,3,,7.0,29.799213,,,TRUE,TRUE,,,,,,,BKN,7000,BKN,11000,,,,,VFR,,,,,,,,,,,,SPECI,39.0
KDMW 281025Z AUTO 09006KT 10SM OVC008 12/11 A3002 RMK AO2,KDMW,2023-04-28T10:25:00Z,39.6,-77.0,12.0,11.0,90,6,,10.0,30.02067,,,TRUE,TRUE,,,,,,,OVC,800,,,,,,,IFR,,,,,,,,,,,,SPECI,239.0
KCTZ 281025Z AUTO 17003KT 10SM OVC090 18/18 A2980 RMK AO2 T01800180,KCTZ,2023-04-28T10:25:00Z,34.98,-78.37,18.0,18.0,170,3,,10.0,29.799213,,,TRUE,TRUE,,,,,,,OVC,9000,,,,,,,VFR,,,,,,,,,,,,SPECI,43.0
KCPC 281025Z AUTO 00000KT 4SM BR SCT021 BKN027 OVC045 19/17 A2980 RMK AO2 P0004 T01850173,KCPC,2023-04-28T10:25:00Z,34.28,-78.72,18.5,17.3,0,0,,4.0,29.799213,,,TRUE,TRUE,,,,,,BR,SCT,2100,BKN,2700,OVC,4500,,,MVFR,,,,,,0.04,,,,,,SPECI,27.0
KCHS 281025Z 24006KT 7SM SCT008 BKN015 21/19 A2977 RMK AO2 T02060189 $,KCHS,2023-04-28T10:25:00Z,32.9,-80.03,20.6,18.9,240,6,,7.0,29.769686,,,,TRUE,TRUE,,,,,,SCT,800,BKN,1500,,,,,MVFR,,,,,,,,,,,,SPECI,12.0
KCGE 281025Z AUTO 08007KT 10SM FEW043 SCT055 BKN065 13/13 A3000 RMK A01,KCGE,2023-04-28T10:25:00Z,38.53,-76.03,13.0,13.0,80,7,,10.0,30.0,,,TRUE,TRUE,,,,,,,FEW,4300,SCT,5500,BKN,6500,,,VFR,,,,,,,,,,,,SPECI,5.0
KCBE 281025Z AUTO 13006KT 5SM RA BR SCT014 OVC070 12/11 A3000 RMK AO2 P0007 T01230107,KCBE,2023-04-28T10:25:00Z,39.62,-78.77,12.3,10.7,130,6,,5.0,30.0,,,TRUE,TRUE,,,,,,RA BR,SCT,1400,OVC,7000,,,,,MVFR,,,,,,0.07,,,,,,SPECI,226.0
KBWG 281025Z AUTO 00000KT 10SM SCT004 BKN011 OVC030 16/14 A2969 RMK AO2 RAE09 P0000 T01560144,KBWG,2023-04-28T10:25:00Z,36.97,-86.42,15.6,14.4,0,0,,10.0,29.68996,,,TRUE,TRUE,,,,,,,SCT,400,BKN,1100,OVC,3000,,,MVFR,,,,,,0.005,,,,,,SPECI,159.0
KAVK 281025Z AUTO 00000KT 6SM BR FEW016 SCT024 OVC070 11/11 A2986 RMK AO2 PWINO,KAVK,2023-04-28T10:25:00Z,36.77,-98.67,11.0,11.0,0,0,,6.0,29.861221,,,TRUE,TRUE,,,,,TRUE,BR,FEW,1600,SCT,2400,OVC,7000,,,VFR,,,,,,,,,,,,SPECI,450.0
KASJ 281025Z AUTO 05003KT 10SM -RA OVC005 15/15 A2984 RMK AO2 P0001 T01500150,KASJ,2023-04-28T10:25:00Z,36.28,-77.17,15.0,15.0,50,3,,10.0,29.840551,,,TRUE,TRUE,,,,,,-RA,OVC,500,,,,,,,IFR,,,,,,0.01,,,,,,SPECI,20.0
KACZ 281025Z AUTO 00000KT 10SM SCT070 OVC090 18/17 A2980 RMK AO2 T01790174,KACZ,2023-04-28T10:25:00Z,,,17.9,17.4,0,0,,10.0,29.799213,,,TRUE,TRUE,,,,,,,SCT,7000,OVC,9000,,,,,VFR,,,,,,,,,,,,SPECI,
K6S8 281025Z AUTO 27006KT 10SM M02/M03 A3023 RMK A01 LAUREL,K6S8,2023-04-28T10:25:00Z,45.7,-108.77,-2.0,-3.0,270,6,,10.0,30.230314,,,TRUE,TRUE,,,,,,,,,,,,,,,,,,,,,,,,,,,METAR,1072.0
K4U6 281025Z AUTO 27008KT 10SM 01/01 A3011 RMK A01 Circle ,K4U6,2023-04-28T10:25:00Z,47.42,-105.57,1.0,1.0,270,8,,10.0,30.109253,,,TRUE,TRUE,,,,,,,,,,,,,,,,,,,,,,,,,,,METAR,739.0
K2G4 281025Z AUTO 12019G26KT 1 3/4SM RA BR OVC004 08/08 A2990 RMK AO2,K2G4,2023-04-28T10:25:00Z,39.58,-79.33,8.0,8.0,120,19,26,1.75,29.899607,,,TRUE,TRUE,,,,,,RA BR,OVC,400,,,,,,,LIFR,,,,,,,,,,,,SPECI,908.0
K24A 281025Z AUTO 00000KT 1/4SM VCTSFG BKN001 OVC019 12/11 A2979 RMK AO2 LTG DSNT NW T01160115,K24A,2023-04-28T10:25:00Z,35.32,-83.2,11.6,11.5,0,0,,0.25,29.790354,,,TRUE,TRUE,,,,,,VCTS FG,BKN,100,OVC,1900,,,,,LIFR,,,,,,,,,,,,SPECI,864.0
ETIH 281025Z AUTO 13003KT 2000 RA BR SCT006 OVC013 08/07 A2995 RMK AO2 VIS 2000V3000 CIG 006V013 SLP152 $,ETIH,2023-04-28T10:25:00Z,49.22,11.83,8.0,7.0,130,3,,1.24,29.949802,1015.2,,TRUE,TRUE,TRUE,,,,,RA BR,SCT,600,OVC,1300,,,,,IFR,,,,,,,,,,,,SPECI,436.0
EHWO 281025Z AUTO 26009KT 230V300 2300 +DZ FEW005 BKN006 BKN007 13/11 Q1010 YLO,EHWO,2023-04-28T10:25:00Z,51.45,4.33,13.0,11.0,260,9,,1.43,29.822834,,,TRUE,,,,,,,+DZ,FEW,500,BKN,600,BKN,700,,,IFR,,,,,,,,,,,,METAR,15.0
EHVK 281025Z AUTO 23009KT 180V260 2900 -RADZ BKN005 BKN006 OVC007 13/13 Q1010 YLO,EHVK,2023-04-28T10:25:00Z,51.65,5.7,13.0,13.0,230,9,,1.8,29.822834,,,TRUE,,,,,,,-RA -DZ,BKN,500,BKN,600,OVC,700,,,IFR,,,,,,,,,,,,METAR,20.0
EHSC 281025Z AUTO 23016KT 4000 BR ///////// 10/10 Q1010 REDZ W10/H7,EHSC,2023-04-28T10:25:00Z,51.93,3.67,10.0,10.0,230,16,,2.49,29.822834,,,TRUE,,,,,,,BR,,,,,,,,,,,,,,,,,,,,,METAR,19.0
EHSA 281025Z AUTO 22019KT 7000 ///////// 11/10 Q1009 W08/H7,EHSA,2023-04-28T10:25:00Z,52.0,3.28,11.0,10.0,220,19,,4.35,29.793306,,,TRUE,,,,,,,,,,,,,,,,,,,,,,,,,,,,METAR,18.0
EHRD 281025Z AUTO 22014KT 2400 -RA FEW004 SCT006 BKN007 12/12 Q1009 TEMPO 6000 NSW,EHRD,2023-04-28T10:25:00Z,51.95,4.45,12.0,12.0,220,14,,1.49,29.793306,,,TRUE,,,,,,,-RA,FEW,400,SCT,600,BKN,700,,,IFR,,,,,,,,,,,,METAR,-4.0
EHPG 281025Z AUTO 24013KT 4300 BR OVC000 10/10 Q1008,EHPG,2023-04-28T10:25:00Z,52.37,3.35,10.0,10.0,240,13,,2.67,29.763779,,,TRUE,,,,,,,BR,OVC,0,,,,,,,LIFR,,,,,,,,,,,,METAR,24.0
EHMG 281025Z AUTO 10020KT 9999 -UP SCT032 OVC037 08/05 Q1010,EHMG,2023-04-28T10:25:00Z,53.62,4.97,8.0,5.0,100,20,,6.21,29.822834,,,TRUE,,,,,,,UP,SCT,3200,OVC,3700,,,,,VFR,,,,,,,,,,,,METAR,30.0
EHMA 281025Z AUTO 11013KT 9999 FEW026 BKN049 09/05 Q1010,EHMA,2023-04-28T10:25:00Z,53.5,5.95,9.0,5.0,110,13,,6.21,29.822834,,,TRUE,,,,,,,,FEW,2600,BKN,4900,,,,,VFR,,,,,,,,,,,,METAR,27.0
EHLW 281025Z AUTO 09007KT 010V170 9999 -RA FEW015CB SCT026 OVC031 09/06 Q1010 RERA REDZ BLU,EHLW,2023-04-28T10:25:00Z,53.22,5.75,9.0,6.0,90,7,,6.21,29.822834,,,TRUE,,,,,,,-RA,FEW,1500,SCT,2600,OVC,3100,,,VFR,,,,,,,,,,,,SPECI,1.0
EHLE 281025Z AUTO 15006KT 110V210 4500 SCT005 BKN006 BKN007 12/11 Q1009 TEMPO 2500 -DZ,EHLE,2023-04-28T10:25:00Z,52.45,5.52,12.0,11.0,150,6,,2.8,29.793306,,,TRUE,,,,,,,,SCT,500,BKN,600,BKN,700,,,IFR,,,,,,,,,,,,SPECI,-3.0
EHKV 281025Z AUTO 11015KT 2200 -SHRA SCT004 BKN006 BKN007 08/07 Q1009,EHKV,2023-04-28T10:25:00Z,53.27,3.63,8.0,7.0,110,15,,1.37,29.793306,,,TRUE,,,,,,,-SHRA,SCT,400,BKN,600,BKN,700,,,IFR,,,,,,,,,,,,METAR,28.0
EHKD 281025Z AUTO 12009KT 090V160 4600 BR BKN010 OVC012 09/08 Q1009 GRN TEMPO 3000 -DZRA BR SCT008 BKN010,EHKD,2023-04-28T10:25:00Z,52.92,4.77,9.0,8.0,120,9,,2.86,29.793306,,,TRUE,,,,,,,BR,BKN,1000,OVC,1200,,,,,IFR,,,,,,,,,,,,METAR,1.0
EHJR 281025Z AUTO 11013KT //// // ///////// 08/07 Q1009 RE// W09/H14,EHJR,2023-04-28T10:25:00Z,53.22,3.22,8.0,7.0,110,13,,,29.793306,,,TRUE,,,,,,,,,,,,,,,,,,,,,,,,,,,,METAR,31.0
EHJA 281025Z AUTO 09025KT 9999 OVC028/// 09/06 Q1009,EHJA,2023-04-28T10:25:00Z,53.82,2.95,9.0,6.0,90,25,,6.21,29.793306,,,TRUE,,,,,,,,OVC,2800,,,,,,,MVFR,,,,,,,,,,,,METAR,34.0
EHHW 281025Z AUTO 09018KT 050V140 9999 NSC 08/04 Q1011,EHHW,2023-04-28T10:25:00Z,54.03,6.03,8.0,4.0,90,18,,6.21,29.852362,,,TRUE,,,,,,,,CLR,,,,,,,,VFR,,,,,,,,,,,,METAR,10.0
EHGR 281025Z AUTO 24004KT 5000 -RA BKN004 OVC005 13/12 Q1010 YLO TEMPO 2000 DZ BR SCT003 BKN005,EHGR,2023-04-28T10:25:00Z,51.55,4.93,13.0,12.0,240,4,,3.11,29.822834,,,TRUE,,,,,,,-RA,BKN,400,OVC,500,,,,,LIFR,,,,,,,,,,,,SPECI,12.0
EHGG 281025Z AUTO 09008KT 050V130 9999 SCT031 11/07 Q1010 NOSIG,EHGG,2023-04-28T10:25:00Z,53.12,6.57,11.0,7.0,90,8,,6.21,29.822834,,,TRUE,,,TRUE,,,,,SCT,3100,,,,,,,VFR,,,,,,,,,,,,METAR,2.0
EHFS 281025Z AUTO 24019KT 9000 FEW006/// SCT010/// OVC016/// 12/11 Q1010,EHFS,2023-04-28T10:25:00Z,51.45,3.6,12.0,11.0,240,19,,5.59,29.822834,,,TRUE,,,,,,,,FEW,600,SCT,1000,OVC,1600,,,MVFR,,,,,,,,,,,,METAR,1.0
EHFD 281025Z AUTO 09019KT //// // FEW047/// 07/04 Q1012 RE//,EHFD,2023-04-28T10:25:00Z,54.85,4.7,7.0,4.0,90,19,,,29.88189,,,TRUE,,,,,,,,FEW,4700,,,,,,,,,,,,,,,,,,,METAR,24.0
EHDV 281025Z AUTO 11020KT 9999 BKN042/// OVC047/// 08/// Q1011,EHDV,2023-04-28T10:25:00Z,54.32,2.93,,,110,20,,6.21,29.852362,,,TRUE,,,,,,,,BKN,4200,OVC,4700,,,,,VFR,,,,,,,,,,,,METAR,36.0
EHDL 281025Z AUTO 15006KT 100V200 3300 BR BKN006 OVC007 12/10 Q1010 YLO,EHDL,2023-04-28T10:25:00Z,52.07,5.88,12.0,10.0,150,6,,2.05,29.822834,,,TRUE,,,,,,,BR,BKN,600,OVC,700,,,,,IFR,,,,,,,,,,,,METAR,49.0
EHBK 281025Z AUTO 26007KT 210V320 9999 FEW014 BKN026 OVC030 16/13 Q1011 NOSIG,EHBK,2023-04-28T10:25:00Z,50.92,5.77,16.0,13.0,260,7,,6.21,29.852362,,,TRUE,,,TRUE,,,,,FEW,1400,BKN,2600,OVC,3000,,,MVFR,,,,,,,,,,,,METAR,112.0
EHAM 281025Z 16007KT 3500 -DZ FEW003 SCT004 BKN006 11/11 Q1009 BECMG 21008KT TEMPO BKN004,EHAM,2023-04-28T10:25:00Z,52.32,4.78,11.0,11.0,160,7,,2.17,29.793306,,,,,,,,,,-DZ,FEW,300,SCT,400,BKN,600,,,IFR,,,-0.8,,,,,,,,,METAR,-2.0
EHAK 281025Z AUTO 11014KT 070V150 9999 FEW047/// 08/04 Q1013,EHAK,2023-04-28T10:25:00Z,55.38,3.82,8.0,4.0,110,14,,6.21,29.911417,,,TRUE,,,,,,,,FEW,4700,,,,,,,VFR,,,,,,,,,,,,METAR,33.0
EBLB 281025Z AUTO 25007KT 9999 -RA OVC008/// 13/12 Q1011 GRN,EBLB,2023-04-28T10:25:00Z,50.47,6.17,13.0,12.0,250,7,,6.21,29.852362,,,TRUE,,,,,,,-RA,OVC,800,,,,,,,IFR,,,,,,,,,,,,METAR,563.0
EBFS 281025Z 25015KT 9999 SCT010 SCT020 16/14 Q1011 GRN GRN BECMG WHT,EBFS,2023-04-28T10:25:00Z,50.23,4.65,16.0,14.0,250,15,,6.21,29.852362,,,,,,,,,,,SCT,1000,SCT,2000,,,,,VFR,,,,,,,,,,,,SPECI,276.0
EBFN 281025Z 24013KT 9999 SCT010 BKN023 14/12 Q1011 GRN WHT TEMPO GRN,EBFN,2023-04-28T10:25:00Z,51.08,2.65,14.0,12.0,240,13,,6.21,29.852362,,,,,,,,,,,SCT,1000,BKN,2300,,,,,MVFR,,,,,,,,,,,,SPECI,9.0
EBDT 281025Z AUTO 25010KT 9999 OVC017/// 16/13 Q1010 WHT,EBDT,2023-04-28T10:25:00Z,51.02,5.07,16.0,13.0,250,10,,6.21,29.822834,,,TRUE,,,,,,,,OVC,1700,,,,,,,MVFR,,,,,,,,,,,,METAR,25.0
EBCV 281025Z AUTO 24015KT 9999 FEW018/// SCT021/// BKN027/// 16/12 Q1011 WHT,EBCV,2023-04-28T10:25:00Z,50.57,3.82,16.0,12.0,240,15,,6.21,29.852362,,,TRUE,,,,,,,,FEW,1800,SCT,2100,BKN,2700,,,MVFR,,,,,,,,,,,,METAR,56.0
EBBL 281025Z 26007KT 9999 SCT013 SCT016 BKN019 15/13 Q1010 GRN GRN BECMG WHT,EBBL,2023-04-28T10:25:00Z,51.17,5.47,15.0,13.0,260,7,,6.21,29.822834,,,,,,,,,,,SCT,1300,SCT,1600,BKN,1900,,,MVFR,,,,,,,,,,,,SPECI,50.0
EBBE 281025Z 25016KT 9999 SCT015 BKN020 16/12 Q1010 WHT WHT TEMPO GRN,EBBE,2023-04-28T10:25:00Z,50.75,4.77,16.0,12.0,250,16,,6.21,29.822834,,,,,,,,,,,SCT,1500,BKN,2000,,,,,MVFR,,,,,,,,,,,,SPECI,127.0
PAMO 281024Z AUTO 11010KT 1/2SM -SN FZFG OVC003 M01/M02 A2958 RMK AO2 P0000 FZRANO,PAMO,2023-04-28T10:24:00Z,62.1,-163.68,-1.0,-2.0,110,10,,0.5,29.58071,,,TRUE,TRUE,,,,TRUE,,-SN FZFG,OVC,300,,,,,,,LIFR,,,,,,0.005,,,,,,SPECI,93.0
KWVI 281024Z AUTO 03003KT 1 1/4SM BR OVC002 10/09 A2994 RMK AO2 T01000094,KWVI,2023-04-28T10:24:00Z,36.93,-121.78,10.0,9.4,30,3,,1.25,29.940945,,,TRUE,TRUE,,,,,,BR,OVC,200,,,,,,,LIFR,,,,,,,,,,,,SPECI,47.0
KTAD 281024Z AUTO 32006KT 2SM -SN BR OVC004 00/00 A3011 RMK AO2 P0003 T00000000,KTAD,2023-04-28T10:24:00Z,37.27,-104.33,0.0,0.0,320,6,,2.0,30.109253,,,TRUE,TRUE,,,,,,-SN BR,OVC,400,,,,,,,LIFR,,,,,,0.03,,,,,,SPECI,1751.0
KSFZ 281024Z AUTO 00000KT M1/4SM FG 02/02 A3023 RMK AO2 FZRANO,KSFZ,2023-04-28T10:24:00Z,41.92,-71.5,2.0,2.0,0,0,,0.25,30.230314,,,TRUE,TRUE,,,,TRUE,,FG,,,,,,,,,,,,,,,,,,,,,SPECI,129.0
KRSL 281024Z AUTO 33018G21KT 10SM -RA BKN016 BKN031 OVC065 11/09 A2986 RMK AO2 P0002 T01110094 $,KRSL,2023-04-28T10:24:00Z,38.87,-98.82,11.1,9.4,330,18,21,10.0,29.861221,,,TRUE,TRUE,TRUE,,,,,-RA,BKN,1600,BKN,3100,OVC,6500,,,MVFR,,,,,,0.02,,,,,,SPECI,569.0
KPOF 281024Z AUTO 34005KT 6SM BR BKN010 OVC019 12/11 A2974 RMK AO2 CIG 007V014 T01220111,KPOF,2023-04-28T10:24:00Z,36.77,-90.32,12.2,11.1,340,5,,6.0,29.740158,,,TRUE,TRUE,,,,,,BR,BKN,1000,OVC,1900,,,,,MVFR,,,,,,,,,,,,SPECI,99.0
KNAK 281024Z AUTO 10SM -RA SCT016 OVC041 13/11 A3002 RMK AO2 P0000 T01330111 $,KNAK,2023-04-28T10:24:00Z,38.98,-76.48,13.3,11.1,,,,10.0,30.02067,,,TRUE,TRUE,TRUE,,,,,-RA,SCT,1600,OVC,4100,,,,,VFR,,,,,,0.005,,,,,,SPECI,2.0
KILN 281024Z AUTO 14008KT 9SM BKN005 OVC013 13/13 A2968 RMK AO2 RAB06E22 CIG 004V009 P0001 T01330128,KILN,2023-04-28T10:24:00Z,39.43,-83.8,13.3,12.8,140,8,,9.0,29.681103,,,TRUE,TRUE,,,,,,,BKN,500,OVC,1300,,,,,IFR,,,,,,0.01,,,,,,SPECI,325.0
KBCR 281024Z AUTO 17003KT 5SM BR BKN007 BKN012 19/18 A2979 RMK AO2 T01890183 $,KBCR,2023-04-28T10:24:00Z,30.85,-85.6,18.9,18.3,170,3,,5.0,29.790354,,,TRUE,TRUE,TRUE,,,,,BR,BKN,700,BKN,1200,,,,,IFR,,,,,,,,,,,,METAR,26.0
CYRT 281024Z 02004KT 1/2SM FZFG VV002 M09/M10 A3019 RMK FG8 SLP228,CYRT,2023-04-28T10:24:00Z,62.82,-92.12,-9.0,-10.0,20,4,,0.5,30.188976,1022.8,,,,,,,,,FZFG,OVX,0,,,,,,,LIFR,,,,,,,,,,,200,SPECI,29.0
SCTE 281023Z 01014KT 9000 +RA SCT008 BKN054 OVC120 14/14 Q0996 NOSIG,SCTE,2023-04-28T10:23:00Z,-41.43,-73.08,14.0,14.0,10,14,,5.59,29.409449,,,,,,TRUE,,,,+RA,SCT,800,BKN,5400,OVC,12000,,,VFR,,,,,,,,,,,,SPECI,85.0
KTRK 281023Z AUTO 00000KT 10SM CLR 00/M02 A3022 RMK AO2 TSNO,KTRK,2023-04-28T10:23:00Z,39.32,-120.13,0.0,-2.0,0,0,,10.0,30.221457,,,TRUE,TRUE,,,TRUE,,,,CLR,,,,,,,,VFR,,,,,,,,,,,,SPECI,1800.0
KPVD 281023Z 00000KT 1/4SM FG VV002 05/05 A3024 RMK AO2 TWR VIS 3/4 T00500050 RVRNO,KPVD,2023-04-28T10:23:00Z,41.72,-71.43,5.0,5.0,0,0,,0.25,30.239174,,,,TRUE,,,,,,FG,OVX,0,,,,,,,LIFR,,,,,,,,,,,200,SPECI,15.0
KOFP 281023Z AUTO 10007KT 2 1/2SM +RA BR BKN008 OVC013 14/14 A2992 RMK AO2 P0013 T01440139,KOFP,2023-04-28T10:23:00Z,37.7,-77.43,14.4,13.9,100,7,,2.5,29.920275,,,TRUE,TRUE,,,,,,+RA BR,BKN,800,OVC,1300,,,,,IFR,,,,,,0.13,,,,,,SPECI,63.0
KHIE 281023Z AUTO 00000KT 1/4SM FZFG VV001 M03/M03 A3023 RMK AO2 T10331033,KHIE,2023-04-28T10:23:00Z,44.37,-71.55,-3.3,-3.3,0,0,,0.25,30.230314,,,TRUE,TRUE,,,,,,FZFG,OVX,0,,,,,,,LIFR,,,,,,,,,,,100,SPECI,321.0
KGSO 281023Z 17011G21KT 2 1/2SM RA BR SCT008 BKN047 OVC080 16/16 A2973 RMK AO2 P0011 T01610156,KGSO,2023-04-28T10:23:00Z,36.1,-79.95,16.1,15.6,170,11,21,2.5,29.731298,,,,TRUE,,,,,,RA BR,SCT,800,BKN,4700,OVC,8000,,,IFR,,,,,,0.11,,,,,,SPECI,275.0
KGCK 281023Z AUTO 35026G39KT 10SM BKN018 OVC070 08/06 A2994 RMK AO2 PK WND 36039/1013 T00830061,KGCK,2023-04-28T10:23:00Z,37.92,-100.72,8.3,6.1,350,26,39,10.0,29.940945,,,TRUE,TRUE,,,,,,,BKN,1800,OVC,7000,,,,,MVFR,,,,,,,,,,,,SPECI,877.0
KCRP 281023Z 00000KT 10SM BKN008 19/19 A2978 RMK AO2 T01940194 $,KCRP,2023-04-28T10:23:00Z,27.77,-97.5,19.4,19.4,0,0,,10.0,29.778543,,,,TRUE,TRUE,,,,,,BKN,800,,,,,,,IFR,,,,,,,,,,,,SPECI,11.0
KADW 281023Z AUTO 07009KT 5SM -RA BR SCT005 OVC013 13/12 A2996 RMK AO2 CIG 011 RWY19L SLP152,KADW,2023-04-28T10:23:00Z,38.82,-76.87,13.0,12.0,70,9,,5.0,29.958662,1015.2,,TRUE,TRUE,,,,,,-RA BR,SCT,500,OVC,1300,,,,,MVFR,,,,,,,,,,,,SPECI,87.0
CYHK 281023Z AUTO 11004KT 0SM +SN VV002 M14/M15 A3018 RMK ICE PAST HR SLP229,CYHK,2023-04-28T10:23:00Z,68.62,-95.85,-14.0,-15.0,110,4,,0.0,30.180119,1022.9,,TRUE,,,,,,,+SN,OVX,0,,,,,,,LIFR,,,,,,,,,,,200,SPECI,36.0
PAWS 281022Z AUTO 21003KT 10SM -RA OVC028 04/01 A2987 RMK AO2 P0001,PAWS,2023-04-28T10:22:00Z,61.57,-149.53,4.0,1.0,210,3,,10.0,29.870079,,,TRUE,TRUE,,,,,,-RA,OVC,2800,,,,,,,MVFR,,,,,,0.01,,,,,,SPECI,102.0
PAKF 281022Z AUTO 19005KT 10SM SCT022 BKN028 BKN037 01/M01 A2965 RMK AO2 FZRANO,PAKF,2023-04-28T10:22:00Z,54.85,-163.42,1.0,-1.0,190,5,,10.0,29.648623,,,TRUE,TRUE,,,,TRUE,,,SCT,2200,BKN,2800,BKN,3700,,,MVFR,,,,,,,,,,,,SPECI,2.0
KWLD 281022Z AUTO 00000KT 4SM BR FEW085 BKN110 09/08 A2984 RMK AO2 T00890083,KWLD,2023-04-28T10:22:00Z,37.17,-97.03,8.9,8.3,0,0,,4.0,29.840551,,,TRUE,TRUE,,,,,,BR,FEW,8500,BKN,11000,,,,,MVFR,,,,,,,,,,,,SPECI,351.0
KOTH 281022Z AUTO 12003KT 1/4SM FG OVC002 10/10 A2994 RMK AO2 RVRNO,KOTH,2023-04-28T10:22:00Z,43.42,-124.25,10.0,10.0,120,3,,0.25,29.940945,,,TRUE,TRUE,,,,,,FG,OVC,200,,,,,,,LIFR,,,,,,,,,,,,SPECI,3.0
KEVM 281022Z AUTO 04003KT 10SM BKN011 OVC100 03/01 A2992 RMK AO2,KEVM,2023-04-28T10:22:00Z,47.42,-92.5,3.0,1.0,40,3,,10.0,29.920275,,,TRUE,TRUE,,,,,,,BKN,1100,OVC,10000,,,,,MVFR,,,,,,,,,,,,SPECI,419.0
KDHT 281022Z AUTO 36023G33KT 10SM BKN022 OVC035 09/05 A2995 RMK AO2 PK WND 35035/0956 T00890050,KDHT,2023-04-28T10:22:00Z,36.02,-102.55,8.9,5.0,360,23,33,10.0,29.949802,,,TRUE,TRUE,,,,,,,BKN,2200,OVC,3500,,,,,MVFR,,,,,,,,,,,,SPECI,1217.0
PASM 281021Z AUTO 11010KT 7SM -SN OVC003 M01/M01 A2959 RMK AO2 P0000 FZRANO,PASM,2023-04-28T10:21:00Z,62.07,-163.3,-1.0,-1.0,110,10,,7.0,29.589567,,,TRUE,TRUE,,,,TRUE,,-SN,OVC,300,,,,,,,LIFR,,,,,,0.005,,,,,,SPECI,108.0
KNGP 281021Z AUTO 14006KT 10SM 24/22 A2978 RMK AO2 T02390217 $,KNGP,2023-04-28T10:21:00Z,27.68,-97.28,23.9,21.7,140,6,,10.0,29.778543,,,TRUE,TRUE,TRUE,,,,,,,,,,,,,,,,,,,,,,,,,,SPECI,5.0
KDHN 281021Z AUTO 26007KT 10SM BKN009 19/18 A2981 RMK AO2 CIG 007V011 T01890183,KDHN,2023-04-28T10:21:00Z,31.32,-85.45,18.9,18.3,260,7,,10.0,29.811024,,,TRUE,TRUE,,,,,,,BKN,900,,,,,,,IFR,,,,,,,,,,,,SPECI,113.0
KDEQ 281021Z AUTO 1/4SM FG VV002 08/07 A2978 RMK AO2 T00830072,KDEQ,2023-04-28T10:21:00Z,34.05,-94.4,8.3,7.2,,,,0.25,29.778543,,,TRUE,TRUE,,,,,,FG,OVX,0,,,,,,,LIFR,,,,,,,,,,,200,SPECI,107.0
KCNU 281021Z AUTO 00000KT 1/4SM FG 04/04 A2982 RMK AO2 T00440039 $,KCNU,2023-04-28T10:21:00Z,37.67,-95.48,4.4,3.9,0,0,,0.25,29.819881,,,TRUE,TRUE,TRUE,,,,,FG,,,,,,,,,,,,,,,,,,,,,SPECI,301.0
KCMH 281021Z 09016G21KT 4SM -RA BR SCT009 OVC031 12/12 A2971 RMK AO2 P0003 T01220122,KCMH,2023-04-28T10:21:00Z,40.0,-82.88,12.2,12.2,90,16,21,4.0,29.71063,,,,TRUE,,,,,,-RA BR,SCT,900,OVC,3100,,,,,MVFR,,,,,,0.03,,,,,,SPECI,257.0
KAUO 281021Z AUTO 19008KT 1 3/4SM BR OVC002 16/16 A2979 RMK AO2 PNO $,KAUO,2023-04-28T10:21:00Z,32.62,-85.43,16.0,16.0,190,8,,1.75,29.790354,,,TRUE,TRUE,TRUE,,,,,BR,OVC,200,,,,,,,LIFR,,,,,,,,,,,,SPECI,231.0
KAFN 281021Z AUTO 00000KT 8SM SCT002 01/M01 A3023 RMK AO2 T00061011,KAFN,2023-04-28T10:21:00Z,42.8,-72.0,0.6,-1.1,0,0,,8.0,30.230314,,,TRUE,TRUE,,,,,,,SCT,200,,,,,,,VFR,,,,,,,,,,,,SPECI,308.0
SBRJ 281020Z 16008KT 4500 -RA BR BKN007 OVC017 21/20 Q1015,SBRJ,2023-04-28T10:20:00Z,-22.9,-43.17,21.0,20.0,160,8,,2.8,29.970472,,,,,,,,,,-RA BR,BKN,700,OVC,1700,,,,,IFR,,,,,,,,,,,,SPECI,6.0
PKWA 281020Z AUTO 09009KT 10SM SCT070 OVC085 26/24 A2981 RMK AO2 T02630236 TSNO,PKWA,2023-04-28T10:20:00Z,8.72,167.72,26.3,23.6,90,9,,10.0,29.811024,,,TRUE,TRUE,,,TRUE,,,,SCT,7000,OVC,8500,,,,,VFR,,,,,,,,,,,,METAR,6.0
PAHY 281020Z AUTO 00000KT 10SM -RA BKN024 BKN040 OVC049 04/04 A3022 RMK AO2 P0000 $,PAHY,2023-04-28T10:20:00Z,55.2,-132.83,4.0,4.0,0,0,,10.0,30.221457,,,TRUE,TRUE,TRUE,,,,,-RA,BKN,2400,BKN,4000,OVC,4900,,,MVFR,,,,,,0.005,,,,,,METAR,0.0
LXGB 281020Z 09007KT CAVOK 23/13 Q1016 NOSIG RMK BLU BLU,LXGB,2023-04-28T10:20:00Z,36.15,-5.33,23.0,13.0,90,7,,6.21,30.0,,,,,,TRUE,,,,,CAVOK,,,,,,,,VFR,,,,,,,,,,,,METAR,5.0
LTFM 281020Z 35019KT 9999 FEW030 12/01 Q1019 NOSIG RMK RWY17L 35016KT RWY34L 33018KT RWY16R 34016G26KT RWY36 35019KT RWY18 34017KT,LTFM,2023-04-28T10:20:00Z,41.27,28.75,12.0,1.0,350,19,,6.21,30.088583,,,,,,TRUE,,,,,FEW,3000,,,,,,,VFR,,,,,,,,,,,,METAR,99.0
LTFJ 281020Z 33012KT 300V030 9999 SCT040 13/04 Q1018 NOSIG RMK RWY24 35011G21KT 310V020,LTFJ,2023-04-28T10:20:00Z,40.9,29.3,13.0,4.0,330,12,,6.21,30.059055,,,,,,TRUE,,,,,SCT,4000,,,,,,,VFR,,,,,,,,,,,,SPECI,83.0
LTFE 281020Z 30013KT 9999 SCT035 18/06 Q1012 NOSIG RMK RWY10 34013G24KT 300V030,LTFE,2023-04-28T10:20:00Z,37.25,27.67,18.0,6.0,300,13,,6.21,29.88189,,,,,,TRUE,,,,,SCT,3500,,,,,,,VFR,,,,,,,,,,,,SPECI,6.0
LTFC 281020Z 34018KT 9999 BKN040 10/03 Q1013 RMK RWY23 32018KT,LTFC,2023-04-28T10:20:00Z,37.87,30.38,10.0,3.0,340,18,,6.21,29.911417,,,,,,,,,,,BKN,4000,,,,,,,VFR,,,,,,,,,,,,SPECI,862.0
LTCS 281020Z 24009KT 210V270 9999 SCT040 21/05 Q1008 RMK RWY22 19010KT 150V230 4CU040,LTCS,2023-04-28T10:20:00Z,37.45,38.9,21.0,5.0,240,9,,6.21,29.763779,,,,,,,,,,,SCT,4000,,,,,,,VFR,,,,,,,,,,,,METAR,825.0
LTCJ 281020Z 18013KT 9999 FEW040 BKN100 24/08 Q1007 NOSIG RMK RWY20 14009G19KT 100V260 2CU040 6AC100,LTCJ,2023-04-28T10:20:00Z,37.93,41.12,24.0,8.0,180,13,,6.21,29.734253,,,,,,TRUE,,,,,FEW,4000,BKN,10000,,,,,VFR,,,,,,,,,,,,SPECI,559.0
LTCG 281020Z 29006KT 270V330 9999 SCT008 BKN028 14/12 Q1012 NOSIG RMK RWY29 29009KT,LTCG,2023-04-28T10:20:00Z,41.0,39.77,14.0,12.0,290,6,,6.21,29.88189,,,,,,TRUE,,,,,SCT,800,BKN,2800,,,,,MVFR,,,,,,,,,,,,SPECI,28.0
LTCC 281020Z 16008KT 9999 FEW040 BKN100 22/12 Q1007 NOSIG RMK RWY16 16009KT 090V190 2CU040 5AC100,LTCC,2023-04-28T10:20:00Z,37.88,40.2,22.0,12.0,160,8,,6.21,29.734253,,,,,,TRUE,,,,,FEW,4000,BKN,10000,,,,,VFR,,,,,,,,,,,,SPECI,676.0
LTBU 281020Z 32009KT 280V350 9999 SCT035 15/02 Q1019 RMK RWY22 34007KT 260V030,LTBU,2023-04-28T10:20:00Z,41.13,27.92,15.0,2.0,320,9,,6.21,30.088583,,,,,,,,,,,SCT,3500,,,,,,,VFR,,,,,,,,,,,,SPECI,165.0
LTBS 281020Z 01009G20KT 330V080 9999 FEW030 22/06 Q1009 NOSIG RMK RWY19 02008KT 350V050 1CU030,LTBS,2023-04-28T10:20:00Z,36.7,28.78,22.0,6.0,10,9,20,6.21,29.793306,,,,,,TRUE,,,,,FEW,3000,,,,,,,VFR,,,,,,,,,,,,SPECI,2.0
LTBR 281020Z 33008KT 300V030 9999 SCT035 SCT080 13/05 Q1017 NOSIG RMK RWY07 29009KT 270V330,LTBR,2023-04-28T10:20:00Z,40.25,29.57,13.0,5.0,330,8,,6.21,30.029528,,,,,,TRUE,,,,,SCT,3500,SCT,8000,,,,,VFR,,,,,,,,,,,,SPECI,233.0
LTBJ 281020Z 03018KT 360V070 9999 SCT030 16/02 Q1015 NOSIG RMK RWY16 04020KT,LTBJ,2023-04-28T10:20:00Z,38.28,27.15,16.0,2.0,30,18,,6.21,29.970472,,,,,,TRUE,,,,,SCT,3000,,,,,,,VFR,,,,,,,,,,,,SPECI,123.0
LTBA 281020Z 33014KT 300V010 9999 FEW045 14/02 Q1019 RMK RWY23 01012KT 330V040,LTBA,2023-04-28T10:20:00Z,40.97,28.82,14.0,2.0,330,14,,6.21,30.088583,,,,,,,,,,,FEW,4500,,,,,,,VFR,,,,,,,,,,,,SPECI,33.0
LTAZ 281020Z 31006KT 280V340 9999 -SHRA FEW011 BKN030 BKN080 10/08 Q1010 RMK RWY29 32005KT 270V010,LTAZ,2023-04-28T10:20:00Z,38.77,34.52,10.0,8.0,310,6,,6.21,29.822834,,,,,,,,,,-SHRA,FEW,1100,BKN,3000,BKN,8000,,,MVFR,,,,,,,,,,,,SPECI,944.0
LTAU 281020Z 24005KT 200V280 9999 -SHRA BKN025 BKN080 07/05 Q1010 NOSIG RMK RWY07 22006KT 180V250,LTAU,2023-04-28T10:20:00Z,38.77,35.48,7.0,5.0,240,5,,6.21,29.822834,,,,,,TRUE,,,,-SHRA,BKN,2500,BKN,8000,,,,,MVFR,,,,,,,,,,,,SPECI,1053.0
LTAT 281020Z 24014KT 100V260 9999 BKN035TCU 20/05 Q1007 NOSIG RMK RWY03 20012KT 160V230,LTAT,2023-04-28T10:20:00Z,38.43,38.08,20.0,5.0,240,14,,6.21,29.734253,,,,,,TRUE,,,,,BKN,3500,,,,,,,VFR,,,1.2,,,,,,,,,SPECI,850.0
LTAP 281020Z 28004KT 230V340 9999 FEW010 SCT040 BKN060 14/08 Q1009 NOSIG RMK RWY23 02005KT 340V100,LTAP,2023-04-28T10:20:00Z,40.83,35.52,14.0,8.0,280,4,,6.21,29.793306,,,,,,TRUE,,,,,FEW,1000,SCT,4000,BKN,6000,,,VFR,,,,,,,,,,,,SPECI,536.0
LTAJ 281020Z 21009KT 150V250 9999 SCT035 BKN090 20/05 Q1007 TEMPO -TSRA RMK RWY10 21008KT 150V260 3CU035 5AC090,LTAJ,2023-04-28T10:20:00Z,36.95,37.48,20.0,5.0,210,9,,6.21,29.734253,,,,,,,,,,,SCT,3500,BKN,9000,,,,,VFR,,,-0.8,,,,,,,,,SPECI,684.0
LTAI 281020Z 35011KT 9999 FEW020CB BKN030 22/06 Q1008 NOSIG RMK RWY18C 35011KT 320V030 RWY36R 35008KT 310V040 RWY18L 36010KT 330V030,LTAI,2023-04-28T10:20:00Z,36.9,30.8,22.0,6.0,350,11,,6.21,29.763779,,,,,,TRUE,,,,,FEW,2000,BKN,3000,,,,,MVFR,,,,,,,,,,,,SPECI,50.0
LTAG 281020Z 11006KT 9999 SCT035 BKN120 20/12 Q1007 TEMPO TL1200 -TSRA RMK 4CU035 6AC120,LTAG,2023-04-28T10:20:00Z,37.0,35.42,20.0,12.0,110,6,,6.21,29.734253,,,,,,,,,,,SCT,3500,BKN,12000,,,,,VFR,,,,,,,,,,,,SPECI,62.0
LTAF 281020Z VRB05KT 9999 FEW025TCU SCT030 BKN090 21/15 Q1007 TEMPO -TSRA RMK RWY23 12007KT 080V160 1TCU025 3CU030 7AC090,LTAF,2023-04-28T10:20:00Z,36.98,35.28,21.0,15.0,0,5,,6.21,29.734253,,,,,,,,,,,FEW,2500,SCT,3000,BKN,9000,,,VFR,,,,,,,,,,,,SPECI,19.0
LTAC 281020Z 29010KT 9999 SCT030 BKN100 09/02 Q1011 NOSIG RMK RWY21L 28012KT RWY03L 28009KT RWY21R 29008KT 260V330,LTAC,2023-04-28T10:20:00Z,40.12,32.98,9.0,2.0,290,10,,6.21,29.852362,,,,,,TRUE,,,,,SCT,3000,BKN,10000,,,,,VFR,,,,,,,,,,,,SPECI,952.0
LSZS 281020Z 23018KT 9999 FEW055 BKN062 10/03 Q1018 RMK K TL170,LSZS,2023-04-28T10:20:00Z,46.53,9.88,10.0,3.0,230,18,,6.21,30.059055,,,,,,,,,,,FEW,5500,BKN,6200,,,,,VFR,,,,,,,,,,,,METAR,1708.0
LSZR 281020Z 18009KT 150V220 4000 RA BKN024 12/11 Q1017 RMK H,LSZR,2023-04-28T10:20:00Z,47.48,9.57,12.0,11.0,180,9,,2.49,30.029528,,,,,,,,,,RA,BKN,2400,,,,,,,IFR,,,,,,,,,,,,METAR,396.0
LSZL 281020Z AUTO 26004KT 230V290 9999NDV BKN072 16/08 Q1019 RMK,LSZL,2023-04-28T10:20:00Z,46.17,8.88,16.0,8.0,260,4,,,30.088583,,,TRUE,,,,,,,,BKN,7200,,,,,,,,,,,,,,,,,,,SPECI,198.0
LSZH 281020Z 16007KT 9999 VCSH FEW005 SCT014 BKN025 12/11 Q1017 RESHRA NOSIG,LSZH,2023-04-28T10:20:00Z,47.48,8.53,12.0,11.0,160,7,,6.21,30.029528,,,,,,TRUE,,,,VCSH,FEW,500,SCT,1400,BKN,2500,,,MVFR,,,,,,,,,,,,METAR,424.0
LSZG 281020Z VRB01KT 9999 SHRA FEW035 BKN039 BKN045 15/13 Q1017,LSZG,2023-04-28T10:20:00Z,47.17,7.42,15.0,13.0,0,1,,6.21,30.029528,,,,,,,,,,SHRA,FEW,3500,BKN,3900,BKN,4500,,,VFR,,,,,,,,,,,,METAR,428.0
LSZB 281020Z 10003KT 9999 FEW049 BKN065 15/12 Q1017,LSZB,2023-04-28T10:20:00Z,46.92,7.5,15.0,12.0,100,3,,6.21,30.029528,,,,,,,,,,,FEW,4900,BKN,6500,,,,,VFR,,,,,,,,,,,,METAR,510.0
LSMP 281020Z AUTO 24010KT 200V270 9999NDV FEW066 19/11 Q1016 RMK,LSMP,2023-04-28T10:20:00Z,46.83,6.92,19.0,11.0,240,10,,,30.0,,,TRUE,,,,,,,,FEW,6600,,,,,,,,,,,,,,,,,,,METAR,490.0
LSMM 281020Z AUTO VRB01KT 9999NDV -SHRA FEW017 BKN077 15/10 Q1017 RMK,LSMM,2023-04-28T10:20:00Z,46.75,8.12,15.0,10.0,0,1,,,30.029528,,,TRUE,,,,,,,-SHRA,FEW,1700,BKN,7700,,,,,,,,,,,,,,,,,METAR,570.0
LSMD 281020Z AUTO 17004KT 130V230 8000NDV +RA FEW007 SCT013 BKN019 11/11 Q1017 RMK,LSMD,2023-04-28T10:20:00Z,47.4,8.65,11.0,11.0,170,4,,,30.029528,,,TRUE,,,,,,,+RA,FEW,700,SCT,1300,BKN,1900,,,,,,,,,,,,,,,METAR,436.0
LSGS 281020Z VRB02KT 9999 FEW080 BKN110 21/08 Q1016,LSGS,2023-04-28T10:20:00Z,46.22,7.32,21.0,8.0,0,2,,6.21,30.0,,,,,,,,,,,FEW,8000,BKN,11000,,,,,VFR,,,,,,,,,,,,METAR,482.0
LSGG 281020Z 22013KT 9999 FEW050 SCT090 22/10 Q1017 NOSIG,LSGG,2023-04-28T10:20:00Z,46.25,6.12,22.0,10.0,220,13,,6.21,30.029528,,,,,,TRUE,,,,,FEW,5000,SCT,9000,,,,,VFR,,,,,,,,,,,,METAR,411.0
LOXZ 281020Z VRB03KT 9999 FEW040 BKN090 09/05 Q1018 NOSIG,LOXZ,2023-04-28T10:20:00Z,47.2,14.75,9.0,5.0,0,3,,6.21,30.059055,,,,,,TRUE,,,,,FEW,4000,BKN,9000,,,,,VFR,,,,,,,,,,,,METAR,678.0
LOWW 281020Z 15017G27KT CAVOK 16/06 Q1017 NOSIG,LOWW,2023-04-28T10:20:00Z,48.12,16.57,16.0,6.0,150,17,27,6.21,30.029528,,,,,,TRUE,,,,,CAVOK,,,,,,,,VFR,,,,,,,,,,,,METAR,179.0
LOWS 281020Z VRB02KT 9999 -RA FEW030 BKN060 12/09 Q1016 RERA NOSIG,LOWS,2023-04-28T10:20:00Z,47.78,13.02,12.0,9.0,0,2,,6.21,30.0,,,,,,TRUE,,,,-RA,FEW,3000,BKN,6000,,,,,VFR,,,,,,,,,,,,METAR,427.0
LOWL 281020Z AUTO 14003KT 100V170 9999 FEW040 BKN070 13/06 Q1016 TEMPO RA,LOWL,2023-04-28T10:20:00Z,48.22,14.18,13.0,6.0,140,3,,6.21,30.0,,,TRUE,,,,,,,,FEW,4000,BKN,7000,,,,,VFR,,,,,,,,,,,,METAR,290.0
LOWK 281020Z VRB02KT 9999 FEW040 BKN100 12/06 Q1019 NOSIG,LOWK,2023-04-28T10:20:00Z,46.65,14.32,12.0,6.0,0,2,,6.21,30.088583,,,,,,TRUE,,,,,FEW,4000,BKN,10000,,,,,VFR,,,,,,,,,,,,METAR,450.0
LOWI 281020Z 27008KT 9999 RA FEW010 SCT040 BKN050 09/09 Q1019 NOSIG,LOWI,2023-04-28T10:20:00Z,47.27,11.33,9.0,9.0,270,8,,6.21,30.088583,,,,,,TRUE,,,,RA,FEW,1000,SCT,4000,BKN,5000,,,VFR,,,,,,,,,,,,METAR,570.0
LOWG 281020Z AUTO VRB02KT 9999 FEW050 SCT070 12/04 Q1019 NOSIG,LOWG,2023-04-28T10:20:00Z,47.0,15.43,12.0,4.0,0,2,,6.21,30.088583,,,TRUE,,,TRUE,,,,,FEW,5000,SCT,7000,,,,,VFR,,,,,,,,,,,,METAR,337.0
LLBG 281020Z 27012KT 9999 FEW040 22/10 Q1011 NOSIG,LLBG,2023-04-28T10:20:00Z,32.0,34.88,22.0,10.0,270,12,,6.21,29.852362,,,,,,TRUE,,,,,FEW,4000,,,,,,,VFR,,,,,,,,,,,,METAR,35.0
LIRZ 281020Z AUTO VRB03KT 9999 NCD 21/06 Q1020,LIRZ,2023-04-28T10:20:00Z,43.1,12.5,21.0,6.0,0,3,,6.21,30.11811,,,TRUE,,,,,,,,CLR,,,,,,,,VFR,,,,,,,,,,,,METAR,206.0
LIRQ 281020Z VRB04KT CAVOK 20/09 Q1020,LIRQ,2023-04-28T10:20:00Z,43.8,11.2,20.0,9.0,0,4,,6.21,30.11811,,,,,,,,,,,CAVOK,,,,,,,,VFR,,,,,,,,,,,,METAR,33.0
LIRN 281020Z 19006KT 150V250 CAVOK 21/13 Q1021 NOSIG,LIRN,2023-04-28T10:20:00Z,40.88,14.3,21.0,13.0,190,6,,6.21,30.147638,,,,,,TRUE,,,,,CAVOK,,,,,,,,VFR,,,,,,,,,,,,METAR,76.0
LIRF 281020Z 18006KT 150V220 CAVOK 20/07 Q1021 NOSIG,LIRF,2023-04-28T10:20:00Z,41.78,12.23,20.0,7.0,180,6,,6.21,30.147638,,,,,,TRUE,,,,,CAVOK,,,,,,,,VFR,,,,,,,,,,,,METAR,2.0
LIRA 281020Z 22009KT CAVOK 20/07 Q1021,LIRA,2023-04-28T10:20:00Z,41.8,12.58,20.0,7.0,220,9,,6.21,30.147638,,,,,,,,,,,CAVOK,,,,,,,,VFR,,,,,,,,,,,,METAR,101.0
LIPZ 281020Z 09005KT 040V120 CAVOK 17/05 Q1020 NOSIG,LIPZ,2023-04-28T10:20:00Z,45.5,12.35,17.0,5.0,90,5,,6.21,30.11811,,,,,,TRUE,,,,,CAVOK,,,,,,,,VFR,,,,,,,,,,,,METAR,3.0
LIPY 281020Z AUTO 05006KT 010V080 9999 NCD 22/10 Q1018,LIPY,2023-04-28T10:20:00Z,43.62,13.37,22.0,10.0,50,6,,6.21,30.059055,,,TRUE,,,,,,,,CLR,,,,,,,,VFR,,,,,,,,,,,,METAR,11.0
LIPX 281020Z 13004KT 080V180 CAVOK 19/04 Q1019,LIPX,2023-04-28T10:20:00Z,45.38,10.87,19.0,4.0,130,4,,6.21,30.088583,,,,,,,,,,,CAVOK,,,,,,,,VFR,,,,,,,,,,,,METAR,67.0
LIPR 281020Z 06007KT 030V100 CAVOK 16/13 Q1019,LIPR,2023-04-28T10:20:00Z,44.02,12.62,16.0,13.0,60,7,,6.21,30.088583,,,,,,,,,,,CAVOK,,,,,,,,VFR,,,,,,,,,,,,METAR,10.0
LIPQ 281020Z AUTO VRB01KT 9999 -RA OVC068/// 14/09 Q1020 RERA,LIPQ,2023-04-28T10:20:00Z,45.82,13.47,14.0,9.0,0,1,,6.21,30.11811,,,TRUE,,,,,,,-RA,OVC,6800,,,,,,,VFR,,,,,,,,,,,,METAR,6.0
LIPO 281020Z AUTO 10004KT 050V160 9999 NCD 19/04 Q1019,LIPO,2023-04-28T10:20:00Z,45.42,10.33,19.0,4.0,100,4,,6.21,30.088583,,,TRUE,,,,,,,,CLR,,,,,,,,VFR,,,,,,,,,,,,METAR,104.0
LIPH 281020Z VRB03KT CAVOK 17/06 Q1020,LIPH,2023-04-28T10:20:00Z,45.63,12.18,17.0,6.0,0,3,,6.21,30.11811,,,,,,,,,,,CAVOK,,,,,,,,VFR,,,,,,,,,,,,METAR,10.0
LIPE 281020Z 33005KT 260V010 CAVOK 19/11 Q1019,LIPE,2023-04-28T10:20:00Z,44.52,11.3,19.0,11.0,330,5,,6.21,30.088583,,,,,,,,,,,CAVOK,,,,,,,,VFR,,,,,,,,,,,,METAR,37.0
LIMZ 281020Z AUTO 03003KT 310V090 9999 NCD 19/07 Q1019,LIMZ,2023-04-28T10:20:00Z,44.53,7.62,19.0,7.0,30,3,,6.21,30.088583,,,TRUE,,,,,,,,CLR,,,,,,,,VFR,,,,,,,,,,,,METAR,377.0
LIMW 281020Z AUTO 10007KT 050V130 9999 NCD 20/06 Q1017,LIMW,2023-04-28T10:20:00Z,45.73,7.37,20.0,6.0,100,7,,6.21,30.029528,,,TRUE,,,,,,,,CLR,,,,,,,,VFR,,,,,,,,,,,,METAR,554.0
LIML 281020Z 14004KT 070V240 CAVOK 19/07 Q1019 NOSIG,LIML,2023-04-28T10:20:00Z,45.47,9.27,19.0,7.0,140,4,,6.21,30.088583,,,,,,TRUE,,,,,CAVOK,,,,,,,,VFR,,,,,,,,,,,,METAR,109.0
LIMJ 281020Z 15008KT 9999 SCT010 16/14 Q1020,LIMJ,2023-04-28T10:20:00Z,44.42,8.83,16.0,14.0,150,8,,6.21,30.11811,,,,,,,,,,,SCT,1000,,,,,,,VFR,,,,,,,,,,,,METAR,3.0
LIMF 281020Z 09006KT 050V140 CAVOK 18/08 Q1019,LIMF,2023-04-28T10:20:00Z,45.22,7.65,18.0,8.0,90,6,,6.21,30.088583,,,,,,,,,,,CAVOK,,,,,,,,VFR,,,,,,,,,,,,METAR,295.0
LIME 281020Z VRB03KT CAVOK 18/05 Q1019 NOSIG,LIME,2023-04-28T10:20:00Z,45.67,9.7,18.0,5.0,0,3,,6.21,30.088583,,,,,,TRUE,,,,,CAVOK,,,,,,,,VFR,,,,,,,,,,,,METAR,239.0
LIMC 281020Z VRB03KT CAVOK 19/06 Q1019 NOSIG,LIMC,2023-04-28T10:20:00Z,45.62,8.72,19.0,6.0,0,3,,6.21,30.088583,,,,,,TRUE,,,,,CAVOK,,,,,,,,VFR,,,,,,,,,,,,METAR,221.0
LIEO 281020Z 06010KT CAVOK 20/15 Q1020,LIEO,2023-04-28T10:20:00Z,40.88,9.52,20.0,15.0,60,10,,6.21,30.11811,,,,,,,,,,,CAVOK,,,,,,,,VFR,,,,,,,,,,,,METAR,8.0
LIEE 281020Z 16008KT CAVOK 21/15 Q1020,LIEE,2023-04-28T10:20:00Z,39.25,9.07,21.0,15.0,160,8,,6.21,30.11811,,,,,,,,,,,CAVOK,,,,,,,,VFR,,,,,,,,,,,,METAR,1.0
LIEA 281020Z 20004KT 140V260 CAVOK 24/12 Q1020,LIEA,2023-04-28T10:20:00Z,40.62,8.28,24.0,12.0,200,4,,6.21,30.11811,,,,,,,,,,,CAVOK,,,,,,,,VFR,,,,,,,,,,,,METAR,22.0
LICR 281020Z AUTO 24006KT 200V260 9999 NCD 20/06 Q1023,LICR,2023-04-28T10:20:00Z,38.07,15.65,20.0,6.0,240,6,,6.21,30.206694,,,TRUE,,,,,,,,CLR,,,,,,,,VFR,,,,,,,,,,,,METAR,16.0
LICJ 281020Z 35006KT CAVOK 19/12 Q1022,LICJ,2023-04-28T10:20:00Z,38.17,13.08,19.0,12.0,350,6,,6.21,30.177166,,,,,,,,,,,CAVOK,,,,,,,,VFR,,,,,,,,,,,,METAR,20.0
LICD 281020Z AUTO 15011KT 9999 NCD 20/16 Q1022,LICD,2023-04-28T10:20:00Z,35.5,12.62,20.0,16.0,150,11,,6.21,30.177166,,,TRUE,,,,,,,,CLR,,,,,,,,VFR,,,,,,,,,,,,METAR,20.0
LICC 281020Z 06010KT CAVOK 20/12 Q1022,LICC,2023-04-28T10:20:00Z,37.47,15.05,20.0,12.0,60,10,,6.21,30.177166,,,,,,,,,,,CAVOK,,,,,,,,VFR,,,,,,,,,,,,METAR,6.0
LICB 281020Z AUTO 25011KT 9999 NCD 21/09 Q1022,LICB,2023-04-28T10:20:00Z,37.0,14.62,21.0,9.0,250,11,,6.21,30.177166,,,TRUE,,,,,,,,CLR,,,,,,,,VFR,,,,,,,,,,,,METAR,212.0
LICA 281020Z AUTO 26010KT 220V290 9999 NCD 19/14 Q1022,LICA,2023-04-28T10:20:00Z,38.9,16.25,19.0,14.0,260,10,,6.21,30.177166,,,TRUE,,,,,,,,CLR,,,,,,,,VFR,,,,,,,,,,,,METAR,7.0
LIBR 281020Z 05004KT 020V090 CAVOK 17/09 Q1021,LIBR,2023-04-28T10:20:00Z,40.65,17.95,17.0,9.0,50,4,,6.21,30.147638,,,,,,,,,,,CAVOK,,,,,,,,VFR,,,,,,,,,,,,METAR,5.0
LIBP 281020Z AUTO 05009KT 9999 NCD 21/11 Q1019,LIBP,2023-04-28T10:20:00Z,42.42,14.18,21.0,11.0,50,9,,6.21,30.088583,,,TRUE,,,,,,,,CLR,,,,,,,,VFR,,,,,,,,,,,,METAR,10.0
LIBD 281020Z 07007KT CAVOK 19/09 Q1021,LIBD,2023-04-28T10:20:00Z,41.13,16.77,19.0,9.0,70,7,,6.21,30.147638,,,,,,,,,,,CAVOK,,,,,,,,VFR,,,,,,,,,,,,METAR,42.0
LGTS 281020Z 33008KT 290V010 9999 FEW025 16/00 Q1020 NOSIG,LGTS,2023-04-28T10:20:00Z,40.52,22.97,16.0,0.0,330,8,,6.21,30.11811,,,,,,TRUE,,,,,FEW,2500,,,,,,,VFR,,,,,,,,,,,,METAR,4.0
LGSR 281020Z 33022KT 9999 FEW025 18/06 Q1017,LGSR,2023-04-28T10:20:00Z,36.4,25.48,18.0,6.0,330,22,,6.21,30.029528,,,,,,,,,,,FEW,2500,,,,,,,VFR,,,,,,,,,,,,METAR,31.0
LGSA 281020Z 33011KT 9999 FEW020 18/11 Q1018,LGSA,2023-04-28T10:20:00Z,35.53,24.13,18.0,11.0,330,11,,6.21,30.059055,,,,,,,,,,,FEW,2000,,,,,,,VFR,,,,,,,,,,,,METAR,122.0
LGRX 281020Z VRB03KT 9999 FEW030 20/07 Q1020,LGRX,2023-04-28T10:20:00Z,38.17,21.42,20.0,7.0,0,3,,6.21,30.11811,,,,,,,,,,,FEW,3000,,,,,,,VFR,,,,,,,,,,,,METAR,16.0
LGRP 281020Z 29014KT 9999 FEW018 19/08 Q1010 NOSIG,LGRP,2023-04-28T10:20:00Z,36.4,28.08,19.0,8.0,290,14,,6.21,29.822834,,,,,,TRUE,,,,,FEW,1800,,,,,,,VFR,,,,,,,,,,,,METAR,3.0
LGPZ 281020Z 25008KT 9999 FEW020 20/08 Q1020,LGPZ,2023-04-28T10:20:00Z,38.92,20.77,20.0,8.0,250,8,,6.21,30.11811,,,,,,,,,,,FEW,2000,,,,,,,VFR,,,,,,,,,,,,METAR,3.0
LGMT 281020Z 34014KT 9999 FEW018 16/11 Q1018,LGMT,2023-04-28T10:20:00Z,39.05,26.6,16.0,11.0,340,14,,6.21,30.059055,,,,,,,,,,,FEW,1800,,,,,,,VFR,,,,,,,,,,,,METAR,4.0
LGMK 281020Z 36016KT 9999 FEW018 16/06 Q1018,LGMK,2023-04-28T10:20:00Z,37.43,25.35,16.0,6.0,360,16,,6.21,30.059055,,,,,,,,,,,FEW,1800,,,,,,,VFR,,,,,,,,,,,,METAR,126.0
LGLM 281020Z 04010KT 9999 FEW018 SCT035 14/05 Q1019,LGLM,2023-04-28T10:20:00Z,39.92,25.23,14.0,5.0,40,10,,6.21,30.088583,,,,,,,,,,,FEW,1800,SCT,3500,,,,,VFR,,,,,,,,,,,,METAR,4.0
LGKV 281020Z 13009KT 9999 SCT025 SCT080 17/10 Q1019,LGKV,2023-04-28T10:20:00Z,40.92,24.62,17.0,10.0,130,9,,6.21,30.088583,,,,,,,,,,,SCT,2500,SCT,8000,,,,,VFR,,,,,,,,,,,,METAR,5.0
LGKR 281020Z VRB03KT 9999 FEW025 20/08 Q1019 NOSIG,LGKR,2023-04-28T10:20:00Z,39.62,19.92,20.0,8.0,0,3,,6.21,30.088583,,,,,,TRUE,,,,,FEW,2500,,,,,,,VFR,,,,,,,,,,,,METAR,2.0
LGKP 281020Z 32027KT 9999 FEW012 19/08 Q1012,LGKP,2023-04-28T10:20:00Z,35.42,27.15,19.0,8.0,320,27,,6.21,29.88189,,,,,,,,,,,FEW,1200,,,,,,,VFR,,,,,,,,,,,,METAR,20.0
LGKO 281020Z 35022G32KT 9999 FEW016 16/06 Q1013,LGKO,2023-04-28T10:20:00Z,36.8,27.08,16.0,6.0,350,22,32,6.21,29.911417,,,,,,,,,,,FEW,1600,,,,,,,VFR,,,,,,,,,,,,METAR,130.0
LGKL 281020Z 20005KT 9999 SCT035 20/11 Q1018,LGKL,2023-04-28T10:20:00Z,37.07,22.02,20.0,11.0,200,5,,6.21,30.059055,,,,,,,,,,,SCT,3500,,,,,,,VFR,,,,,,,,,,,,METAR,4.0
LGIR 281020Z 33016KT 9999 FEW018 SCT025 18/07 Q1018 NOSIG,LGIR,2023-04-28T10:20:00Z,35.33,25.17,18.0,7.0,330,16,,6.21,30.059055,,,,,,TRUE,,,,,FEW,1800,SCT,2500,,,,,VFR,,,,,,,,,,,,METAR,37.0
LGIO 281020Z VRB05KT CAVOK 18/M01 Q1019,LGIO,2023-04-28T10:20:00Z,39.7,20.82,18.0,-1.0,0,5,,6.21,30.088583,,,,,,,,,,,CAVOK,,,,,,,,VFR,,,,,,,,,,,,METAR,476.0
LGEL 281020Z 35012KT 9999 SCT025 20/02 Q1019,LGEL,2023-04-28T10:20:00Z,38.07,23.55,20.0,2.0,350,12,,6.21,30.088583,,,,,,,,,,,SCT,2500,,,,,,,VFR,,,,,,,,,,,,METAR,21.0
LGBL 281020Z 29007KT 9999 FEW035 19/03 Q1020,LGBL,2023-04-28T10:20:00Z,39.22,22.8,19.0,3.0,290,7,,6.21,30.11811,,,,,,,,,,,FEW,3500,,,,,,,VFR,,,,,,,,,,,,METAR,13.0
LGAV 281020Z 04012KT 360V070 9999 SCT040 17/06 Q1019 NOSIG,LGAV,2023-04-28T10:20:00Z,37.93,23.95,17.0,6.0,40,12,,6.21,30.088583,,,,,,TRUE,,,,,SCT,4000,,,,,,,VFR,,,,,,,,,,,,METAR,83.0
LGAL 281020Z 06009KT 9999 SCT030 15/03 Q1019,LGAL,2023-04-28T10:20:00Z,40.85,25.95,15.0,3.0,60,9,,6.21,30.088583,,,,,,,,,,,SCT,3000,,,,,,,VFR,,,,,,,,,,,,METAR,5.0
LGAD 281020Z 32004KT 9999 FEW020 20/10 Q1019,LGAD,2023-04-28T10:20:00Z,37.92,21.28,20.0,10.0,320,4,,6.21,30.088583,,,,,,,,,,,FEW,2000,,,,,,,VFR,,,,,,,,,,,,METAR,8.0
LCRA 281020Z 23015KT 9999 FEW026CB 20/12 Q1008 TEMPO 5000 TSRA SCT020CB,LCRA,2023-04-28T10:20:00Z,34.58,32.98,20.0,12.0,230,15,,6.21,29.763779,,,,,,,,,,,FEW,2600,,,,,,,VFR,,,,,,,,,,,,SPECI,23.0
LCEN 281020Z 34006KT 300V050 9999 FEW020CB SCT025 21/08 Q1007 NOSIG RMK RWY11 03007KT 340V070,LCEN,2023-04-28T10:20:00Z,35.15,33.5,21.0,8.0,340,6,,6.21,29.734253,,,,,,TRUE,,,,,FEW,2000,SCT,2500,,,,,VFR,,,,,,,,,,,,SPECI,91.0
LATI 281020Z VRB05KT CAVOK 20/06 Q1020 NOSIG,LATI,2023-04-28T10:20:00Z,41.42,19.72,20.0,6.0,0,5,,6.21,30.11811,,,,,,TRUE,,,,,CAVOK,,,,,,,,VFR,,,,,,,,,,,,METAR,32.0
KVTA 281020Z AUTO 07005KT 10SM -RA OVC008 12/11 A2974 RMK AO2 CIG 006V010 P0001 T01170106,KVTA,2023-04-28T10:20:00Z,40.02,-82.47,11.7,10.6,70,5,,10.0,29.740158,,,TRUE,TRUE,,,,,,-RA,OVC,800,,,,,,,IFR,,,,,,0.01,,,,,,SPECI,268.0
KUNO 281020Z AUTO 35003KT 5SM BR BKN005 OVC015 11/10 A2978 RMK AO2 T01060100,KUNO,2023-04-28T10:20:00Z,36.88,-91.9,10.6,10.0,350,3,,5.0,29.778543,,,TRUE,TRUE,,,,,,BR,BKN,500,OVC,1500,,,,,IFR,,,,,,,,,,,,SPECI,376.0
KUNI 281020Z AUTO 07005KT 10SM RA SCT007 BKN011 OVC023 13/12 A2973 RMK AO2 T01300117,KUNI,2023-04-28T10:20:00Z,39.22,-82.23,13.0,11.7,70,5,,10.0,29.731298,,,TRUE,TRUE,,,,,,RA,SCT,700,BKN,1100,OVC,2300,,,MVFR,,,,,,,,,,,,SPECI,232.0
KSLG 281020Z AUTO 00000KT 1/4SM FG SCT003 BKN039 09/09 A2980 RMK AO2,KSLG,2023-04-28T10:20:00Z,36.2,-94.48,9.0,9.0,0,0,,0.25,29.799213,,,TRUE,TRUE,,,,,,FG,SCT,300,BKN,3900,,,,,LIFR,,,,,,,,,,,,METAR,361.0
KSBD 281020Z AUTO 00000KT 10SM CLR 14/09 A2993 RMK AO2 T01400089,KSBD,2023-04-28T10:20:00Z,34.08,-117.25,14.0,8.9,0,0,,10.0,29.929134,,,TRUE,TRUE,,,,,,,CLR,,,,,,,,VFR,,,,,,,,,,,,SPECI,353.0
KRND 281020Z AUTO 19006KT 5SM BR OVC002 20/19 A2975 RMK AO2 SLP067,KRND,2023-04-28T10:20:00Z,29.53,-98.27,20.0,19.0,190,6,,5.0,29.749016,1006.7,,TRUE,TRUE,,,,,,BR,OVC,200,,,,,,,LIFR,,,,,,,,,,,,SPECI,224.0
KQES 281020Z AUTO 22002KT 9999 OVC037 18/08 A3001 RMK A02 TSNO,KQES,2023-04-28T10:20:00Z,,,18.0,8.0,220,2,,6.21,30.008858,,,TRUE,TRUE,,,TRUE,,,,OVC,3700,,,,,,,VFR,,,,,,,,,,,,METAR,
KPO1 281020Z AUTO 24004KT 10SM OVC075 05/03 A3013 RMK AO2,KPO1,2023-04-28T10:20:00Z,48.13,-105.17,5.0,3.0,240,4,,10.0,30.129921,,,TRUE,TRUE,,,,,,,OVC,7500,,,,,,,VFR,,,,,,,,,,,,SPECI,621.0
KPDK 281020Z 17003KT 6SM BR BKN010 BKN014 OVC024 15/14 A2976 RMK AO2 CIG 007V011 T01500144,KPDK,2023-04-28T10:20:00Z,33.88,-84.3,15.0,14.4,170,3,,6.0,29.760826,,,,TRUE,,,,,,BR,BKN,1000,BKN,1400,OVC,2400,,,MVFR,,,,,,,,,,,,SPECI,299.0
KMVH 281020Z AUTO 30005KT 10SM CLR M03/M05 A3019 RMK AO2 PWINO,KMVH,2023-04-28T10:20:00Z,46.83,-108.93,-3.0,-5.0,300,5,,10.0,30.188976,,,TRUE,TRUE,,,,,TRUE,,CLR,,,,,,,,VFR,,,,,,,,,,,,SPECI,1352.0
KMNE 281020Z AUTO 00000KT 10SM CLR 11/11 A2980 RMK AO2,KMNE,2023-04-28T10:20:00Z,32.65,-93.3,11.0,11.0,0,0,,10.0,29.799213,,,TRUE,TRUE,,,,,,,CLR,,,,,,,,VFR,,,,,,,,,,,,SPECI,84.0
KLSF 281020Z AUTO 00000KT 10SM FEW003 OVC012 17/17 A2976 RMK AO2 SLP082 $,KLSF,2023-04-28T10:20:00Z,32.32,-84.97,17.0,17.0,0,0,,10.0,29.760826,1008.2,,TRUE,TRUE,TRUE,,,,,,FEW,300,OVC,1200,,,,,MVFR,,,,,,,,,,,,METAR,68.0
KHKA 281020Z AUTO 35007KT 2 1/2SM BR OVC005 14/13 A2972 RMK AO2 RAE06 CIG 003V007 P0000 T01390128 $,KHKA,2023-04-28T10:20:00Z,35.93,-89.83,13.9,12.8,350,7,,2.5,29.719488,,,TRUE,TRUE,TRUE,,,,,BR,OVC,500,,,,,,,IFR,,,,,,0.005,,,,,,SPECI,78.0
KGVW 281020Z AUTO 10008KT 10SM CLR 21/17 A2980 RMK A01,KGVW,2023-04-28T10:20:00Z,29.13,-94.55,21.0,17.0,100,8,,10.0,29.799213,,,TRUE,TRUE,,,,,,,CLR,,,,,,,,VFR,,,,,,,,,,,,METAR,37.0
KGNG 281020Z AUTO 07010KT 10SM BKN046 BKN055 BKN070 04/M06 A3029 RMK AO2,KGNG,2023-04-28T10:20:00Z,42.92,-114.77,4.0,-6.0,70,10,,10.0,30.28937,,,TRUE,TRUE,,,,,,,BKN,4600,BKN,5500,BKN,7000,,,VFR,,,,,,,,,,,,SPECI,1128.0
KETC 281020Z AUTO 15005KT 4SM -RA BR BKN004 OVC010 18/17 A2982 RMK AO2 T01760173,KETC,2023-04-28T10:20:00Z,35.93,-77.55,17.6,17.3,150,5,,4.0,29.819881,,,TRUE,TRUE,,,,,,-RA BR,BKN,400,OVC,1000,,,,,LIFR,,,,,,,,,,,,SPECI,15.0
KDSF 281020Z AUTO 00000KT 7SM BKN018 OVC022 24/21 A2980 RMK A01,KDSF,2023-04-28T10:20:00Z,28.35,-88.27,24.0,21.0,0,0,,7.0,29.799213,,,TRUE,TRUE,,,,,,,BKN,1800,OVC,2200,,,,,MVFR,,,,,,,,,,,,SPECI,40.0
KATP 281020Z AUTO 30003KT 6SM BR BKN019 OVC026 23/22 A2982 RMK A01,KATP,2023-04-28T10:20:00Z,27.2,-90.03,23.0,22.0,300,3,,6.0,29.819881,,,TRUE,TRUE,,,,,,BR,BKN,1900,OVC,2600,,,,,MVFR,,,,,,,,,,,,SPECI,50.0
EYVI 281020Z 23012KT 210V290 9999 VCSH BKN051CB 10/M02 Q1018 NOSIG,EYVI,2023-04-28T10:20:00Z,54.63,25.28,10.0,-2.0,230,12,,6.21,30.059055,,,,,,TRUE,,,,VCSH,BKN,5100,,,,,,,VFR,,,,,,,,,,,,METAR,180.0
EYSA 281020Z 21012KT 9999 VCSH SCT023CB BKN062 07/M01 Q1018 NOSIG,EYSA,2023-04-28T10:20:00Z,55.9,23.4,7.0,-1.0,210,12,,6.21,30.059055,,,,,,TRUE,,,,VCSH,SCT,2300,BKN,6200,,,,,VFR,,,,,,,,,,,,METAR,135.0
EYPA 281020Z 26004KT 210V320 9999 FEW009 09/05 Q1019,EYPA,2023-04-28T10:20:00Z,55.97,21.08,9.0,5.0,260,4,,6.21,30.088583,,,,,,,,,,,FEW,900,,,,,,,VFR,,,,,,,,,,,,METAR,15.0
EYKA 281020Z 24007KT 210V270 9999 VCSH FEW073CB 10/M01 Q1018,EYKA,2023-04-28T10:20:00Z,54.97,24.08,10.0,-1.0,240,7,,6.21,30.059055,,,,,,,,,,VCSH,FEW,7300,,,,,,,VFR,,,,,,,,,,,,METAR,68.0
EVVA 281020Z AUTO 24011KT CAVOK 10/01 Q1016,EVVA,2023-04-28T10:20:00Z,57.35,21.55,10.0,1.0,240,11,,6.21,30.0,,,TRUE,,,,,,,,CAVOK,,,,,,,,VFR,,,,,,,,,,,,METAR,1.0
EVRA 281020Z 23006KT 190V300 9999 VCSH SCT046CB 10/M01 Q1016 NOSIG,EVRA,2023-04-28T10:20:00Z,56.92,23.97,10.0,-1.0,230,6,,6.21,30.0,,,,,,TRUE,,,,VCSH,SCT,4600,,,,,,,VFR,,,,,,,,,,,,METAR,7.0
EVLA 281020Z AUTO 25014KT 9999 FEW011/// 08/04 Q1017,EVLA,2023-04-28T10:20:00Z,56.52,21.1,8.0,4.0,250,14,,6.21,30.029528,,,TRUE,,,,,,,,FEW,1100,,,,,,,VFR,,,,,,,,,,,,METAR,5.0
EVGA 281020Z 19005KT 160V220 9999 -SHRA SCT030CB BKN035 07/01 Q1017 NOSIG,EVGA,2023-04-28T10:20:00Z,56.78,24.85,7.0,1.0,190,5,,6.21,30.029528,,,,,,TRUE,,,,-SHRA,SCT,3000,BKN,3500,,,,,VFR,,,,,,,,,,,,METAR,61.0
ETWM 281020Z 12004KT 9999 BKN028 11/06 Q1011 BLU,ETWM,2023-04-28T10:20:00Z,52.72,7.33,11.0,6.0,120,4,,6.21,29.852362,,,,,,,,,,,BKN,2800,,,,,,,MVFR,,,,,,,,,,,,METAR,18.0
ETSN 281020Z 14003KT 4500 -RA BR SCT005 BKN013 11/10 Q1014 GRN,ETSN,2023-04-28T10:20:00Z,48.72,11.22,11.0,10.0,140,3,,2.8,29.940945,,,,,,,,,,-RA BR,SCT,500,BKN,1300,,,,,IFR,,,,,,,,,,,,METAR,378.0
ETSL 281020Z 20008KT 5000 RA BR SCT008 BKN012 BKN030 11/11 Q1014 GRN,ETSL,2023-04-28T10:20:00Z,48.18,10.87,11.0,11.0,200,8,,3.11,29.940945,,,,,,,,,,RA BR,SCT,800,BKN,1200,BKN,3000,,,MVFR,,,,,,,,,,,,METAR,548.0
ETSI 281020Z VRB02KT 5000 RA BR FEW015 OVC017 11/10 Q1014 WHT,ETSI,2023-04-28T10:20:00Z,48.72,11.53,11.0,10.0,0,2,,3.11,29.940945,,,,,,,,,,RA BR,FEW,1500,OVC,1700,,,,,MVFR,,,,,,,,,,,,METAR,366.0
ETSH 281020Z 14007KT 9999 SCT060 BKN110 BKN140 15/03 Q1014 BLU,ETSH,2023-04-28T10:20:00Z,51.77,13.17,15.0,3.0,140,7,,6.21,29.940945,,,,,,,,,,,SCT,6000,BKN,11000,BKN,14000,,,VFR,,,,,,,,,,,,METAR,79.0
ETSB 281020Z 26007KT 9999 BKN008 BKN030 15/12 Q1012 GRN,ETSB,2023-04-28T10:20:00Z,50.17,7.07,15.0,12.0,260,7,,6.21,29.88189,,,,,,,,,,,BKN,800,BKN,3000,,,,,IFR,,,,,,,,,,,,METAR,477.0
ETNW 281020Z 13007KT 9999 -RA FEW045 BKN055 12/03 Q1012 BLU BLU TEMPO WHT,ETNW,2023-04-28T10:20:00Z,52.45,9.42,12.0,3.0,130,7,,6.21,29.88189,,,,,,,,,,-RA,FEW,4500,BKN,5500,,,,,VFR,,,,,,,,,,,,METAR,57.0
ETNT 281020Z 12007KT 9999 BKN050 10/03 Q1011 BLACKBLU,ETNT,2023-04-28T10:20:00Z,53.53,7.67,10.0,3.0,120,7,,6.21,29.852362,,,,,,,,,,,BKN,5000,,,,,,,VFR,,,,,,,,,,,,METAR,5.0
ETNS 281020Z AUTO 12010KT 9000 // ////// 12/00 Q1014 ///,ETNS,2023-04-28T10:20:00Z,54.47,9.52,12.0,0.0,120,10,,5.59,29.940945,,,TRUE,,,,,,,,,,,,,,,,,,,,,,,,,,,,METAR,22.0
ETNN 281020Z 27002KT 9999 BKN015 14/13 Q1011 WHT,ETNN,2023-04-28T10:20:00Z,50.82,6.67,14.0,13.0,270,2,,6.21,29.852362,,,,,,,,,,,BKN,1500,,,,,,,MVFR,,,,,,,,,,,,METAR,108.0
ETNL 281020Z 13009KT 9999 FEW030 SCT290 13/M03 Q1015 BLU+FCST CNL,ETNL,2023-04-28T10:20:00Z,53.92,12.27,13.0,-3.0,130,9,,6.21,29.970472,,,,,,,,,,,FEW,3000,SCT,29000,,,,,VFR,,,,,,,,,,,,METAR,40.0
ETNH 281020Z 10010KT 9999 SCT120 BKN200 13/M00 Q1013 BLU+FCST CNL,ETNH,2023-04-28T10:20:00Z,54.32,9.55,13.0,0.0,100,10,,6.21,29.911417,,,,,,,,,,,SCT,12000,BKN,20000,,,,,VFR,,,,,,,,,,,,METAR,6.0
ETMN 281020Z 11011KT 9999 BKN065 OVC100 11/02 Q1012 BLU BLU,ETMN,2023-04-28T10:20:00Z,53.77,8.67,11.0,2.0,110,11,,6.21,29.88189,,,,,,,,,,,BKN,6500,OVC,10000,,,,,VFR,,,,,,,,,,,,METAR,23.0
ETHS 281020Z 15009KT 9999 FEW060 BKN100 14/00 Q1013 BLACKBLU FCST CNL,ETHS,2023-04-28T10:20:00Z,52.92,10.18,14.0,0.0,150,9,,6.21,29.911417,,,,,,,,,,,FEW,6000,BKN,10000,,,,,VFR,,,,,,,,,,,,METAR,71.0
ETHN 281020Z 23008KT 9999 BKN004 11/10 Q1013 YLO FCST CNL,ETHN,2023-04-28T10:20:00Z,49.38,9.97,11.0,10.0,230,8,,6.21,29.911417,,,,,,,,,,,BKN,400,,,,,,,LIFR,,,,,,,,,,,,METAR,466.0
ETHL 281020Z 24010KT 9000 RA BKN008 OVC017 12/11 Q1015 GRN FCST CNL,ETHL,2023-04-28T10:20:00Z,48.22,9.92,12.0,11.0,240,10,,5.59,29.970472,,,,,,,,,,RA,BKN,800,OVC,1700,,,,,IFR,,,,,,,,,,,,SPECI,536.0
ETHF 281020Z VRB03KT 7000 SCT009 BKN017 10/08 Q1012 WHT BLU TEMPO WHT,ETHF,2023-04-28T10:20:00Z,51.12,9.28,10.0,8.0,0,3,,4.35,29.88189,,,,,,,,,,,SCT,900,BKN,1700,,,,,MVFR,,,,,,,,,,,,METAR,171.0
ETHC 281020Z 11009KT 9999 BKN060 BKN100 13/01 Q1012 BLU FCST CNL,ETHC,2023-04-28T10:20:00Z,52.6,10.02,13.0,1.0,110,9,,6.21,29.88189,,,,,,,,,,,BKN,6000,BKN,10000,,,,,VFR,,,,,,,,,,,,METAR,35.0
ETHA 281020Z 22011KT 9999 -RA FEW022 SCT040 OVC060 10/09 Q1015 RERA BLU,ETHA,2023-04-28T10:20:00Z,47.83,10.87,10.0,9.0,220,11,,6.21,29.970472,,,,,,,,,,-RA,FEW,2200,SCT,4000,OVC,6000,,,VFR,,,,,,,,,,,,METAR,738.0
ETGG 281020Z AUTO 11010KT 9999 // ////// 11/04 Q1014 ///,ETGG,2023-04-28T10:20:00Z,54.83,9.5,11.0,4.0,110,10,,6.21,29.940945,,,TRUE,,,,,,,,,,,,,,,,,,,,,,,,,,,,METAR,33.0
ESUT 281020Z 29008KT 260V320 9999 BKN032 03/M03 Q1010,ESUT,2023-04-28T10:20:00Z,65.8,15.08,3.0,-3.0,290,8,,6.21,29.822834,,,,,,,,,,,BKN,3200,,,,,,,VFR,,,,,,,,,,,,METAR,457.0
ESUP 281020Z AUTO 10008KT 9999 OVC032/// ///// Q1012,ESUP,2023-04-28T10:20:00Z,67.25,23.07,,,100,8,,6.21,29.88189,,,TRUE,,,,,,,,OVC,3200,,,,,,,VFR,,,,,,,,,,,,METAR,164.0
ESTL 281020Z VRB03KT CAVOK 11/M04 Q1017,ESTL,2023-04-28T10:20:00Z,56.07,13.2,11.0,-4.0,0,3,,6.21,30.029528,,,,,,,,,,,CAVOK,,,,,,,,VFR,,,,,,,,,,,,METAR,39.0
ESTA 281020Z 27005KT CAVOK 09/M01 Q1017,ESTA,2023-04-28T10:20:00Z,56.28,12.83,9.0,-1.0,270,5,,6.21,30.029528,,,,,,,,,,,CAVOK,,,,,,,,VFR,,,,,,,,,,,,METAR,19.0
ESSV 281020Z 25010KT CAVOK 07/00 Q1016,ESSV,2023-04-28T10:20:00Z,57.67,18.35,7.0,0.0,250,10,,6.21,30.0,,,,,,,,,,,CAVOK,,,,,,,,VFR,,,,,,,,,,,,METAR,38.0
ESST 281020Z AUTO 31004KT 200V360 9999 BKN051/// 08/M03 Q1016,ESST,2023-04-28T10:20:00Z,60.15,12.98,8.0,-3.0,310,4,,6.21,30.0,,,TRUE,,,,,,,,BKN,5100,,,,,,,VFR,,,,,,,,,,,,METAR,110.0
ESSP 281020Z 26012KT CAVOK 10/M02 Q1015,ESSP,2023-04-28T10:20:00Z,58.58,16.25,10.0,-2.0,260,12,,6.21,29.970472,,,,,,,,,,,CAVOK,,,,,,,,VFR,,,,,,,,,,,,METAR,3.0
ESSL 281020Z 29013KT 260V320 CAVOK 09/M04 Q1015,ESSL,2023-04-28T10:20:00Z,58.4,15.67,9.0,-4.0,290,13,,6.21,29.970472,,,,,,,,,,,CAVOK,,,,,,,,VFR,,,,,,,,,,,,METAR,51.0
ESSD 281020Z 31010KT 9999 VCSH BKN030TCU 06/M00 Q1014,ESSD,2023-04-28T10:20:00Z,60.42,15.5,6.0,0.0,310,10,,6.21,29.940945,,,,,,,,,,VCSH,BKN,3000,,,,,,,MVFR,,,,,,,,,,,,METAR,151.0
ESSB 281020Z 29008KT 260V330 9999 SCT025 BKN032 06/00 Q1014,ESSB,2023-04-28T10:20:00Z,59.35,17.93,6.0,0.0,290,8,,6.21,29.940945,,,,,,,,,,,SCT,2500,BKN,3200,,,,,VFR,,,,,,,,,,,,METAR,14.0
ESSA 281020Z 29010KT 250V320 9999 VCSH SCT032CB 06/M01 Q1013 NOSIG,ESSA,2023-04-28T10:20:00Z,59.65,17.93,6.0,-1.0,290,10,,6.21,29.911417,,,,,,TRUE,,,,VCSH,SCT,3200,,,,,,,VFR,,,,,,,,,,,,METAR,36.0
ESPE 281020Z AUTO 00000KT 9999 -SHRA SCT016/// BKN021/// BKN025/// OVC240/// 04/02 Q1010,ESPE,2023-04-28T10:20:00Z,65.88,20.15,4.0,2.0,0,0,,6.21,29.822834,,,TRUE,,,,,,,-SHRA,SCT,1600,BKN,2100,BKN,2500,OVC,24000,MVFR,,,,,,,,,,,,METAR,182.0
ESPA 281020Z VRB03KT 9999 OVC004 02/01 Q1012,ESPA,2023-04-28T10:20:00Z,65.53,22.12,2.0,1.0,0,3,,6.21,29.88189,,,,,,,,,,,OVC,400,,,,,,,LIFR,,,,,,,,,,,,METAR,12.0
ESOW 281020Z 31008KT 280V360 9999 SCT040 09/M02 Q1014,ESOW,2023-04-28T10:20:00Z,59.58,16.63,9.0,-2.0,310,8,,6.21,29.940945,,,,,,,,,,,SCT,4000,,,,,,,VFR,,,,,,,,,,,,METAR,7.0
ESOK 281020Z 32008KT 280V360 9999 FEW045 08/M03 Q1015,ESOK,2023-04-28T10:20:00Z,59.45,13.33,8.0,-3.0,320,8,,6.21,29.970472,,,,,,,,,,,FEW,4500,,,,,,,VFR,,,,,,,,,,,,METAR,101.0
ESOH 281020Z AUTO 34007KT 270V080 9999 SCT048/// 08/M03 Q1015,ESOH,2023-04-28T10:20:00Z,60.02,13.58,8.0,-3.0,340,7,,6.21,29.970472,,,TRUE,,,,,,,,SCT,4800,,,,,,,VFR,,,,,,,,,,,,METAR,145.0
ESOE 281020Z 30009KT 250V350 9999 SCT044 09/M02 Q1015,ESOE,2023-04-28T10:20:00Z,59.22,15.05,9.0,-2.0,300,9,,6.21,29.970472,,,,,,,,,,,SCT,4400,,,,,,,VFR,,,,,,,,,,,,METAR,57.0
ESNZ 281020Z AUTO 28016KT 9999 BKN033/// OVC055/// ///// Q1013,ESNZ,2023-04-28T10:20:00Z,63.18,14.5,,,280,16,,6.21,29.911417,,,TRUE,,,,,,,,BKN,3300,OVC,5500,,,,,VFR,,,,,,,,,,,,METAR,360.0
ESNX 281020Z 00000KT 9999 FEW014 SCT026 OVC031 02/00 Q1010,ESNX,2023-04-28T10:20:00Z,65.58,19.28,2.0,0.0,0,0,,6.21,29.822834,,,,,,,,,,,FEW,1400,SCT,2600,OVC,3100,,,VFR,,,,,,,,,,,,METAR,380.0
ESNV 281020Z AUTO 36003KT 290V090 9999 SCT041/// 05/M04 Q1010,ESNV,2023-04-28T10:20:00Z,64.58,16.83,5.0,-4.0,360,3,,6.21,29.822834,,,TRUE,,,,,,,,SCT,4100,,,,,,,VFR,,,,,,,,,,,,METAR,348.0
ESNU 281020Z 15006KT 9999 SCT028 06/M00 Q1013,ESNU,2023-04-28T10:20:00Z,63.78,20.28,6.0,0.0,150,6,,6.21,29.911417,,,,,,,,,,,SCT,2800,,,,,,,VFR,,,,,,,,,,,,METAR,8.0
ESNS 281020Z 26005KT 200V290 CAVOK 06/M03 Q1012,ESNS,2023-04-28T10:20:00Z,64.62,21.07,6.0,-3.0,260,5,,6.21,29.88189,,,,,,,,,,,CAVOK,,,,,,,,VFR,,,,,,,,,,,,METAR,41.0
ESNQ 281020Z 11004KT 2100 -SN BKN011 OVC016 00/M01 Q1011,ESNQ,2023-04-28T10:20:00Z,67.82,20.33,0.0,-1.0,110,4,,1.3,29.852362,,,,,,,,,,-SN,BKN,1100,OVC,1600,,,,,IFR,,,,,,,,,,,,METAR,447.0
ESNO 281020Z AUTO 11005KT 090V150 9999 BKN012/// OVC021/// 03/01 Q1012,ESNO,2023-04-28T10:20:00Z,63.4,18.97,3.0,1.0,110,5,,6.21,29.88189,,,TRUE,,,,,,,,BKN,1200,OVC,2100,,,,,MVFR,,,,,,,,,,,,METAR,100.0
ESNN 281020Z AUTO 31003KT 230V010 9999 FEW030/// BKN074/// 07/M01 Q1013,ESNN,2023-04-28T10:20:00Z,62.52,17.43,7.0,-1.0,310,3,,6.21,29.911417,,,TRUE,,,,,,,,FEW,3000,BKN,7400,,,,,VFR,,,,,,,,,,,,METAR,4.0
ESNL 281020Z AUTO 31003KT 240V020 9999 BKN048/// 05/M04 Q1011,ESNL,2023-04-28T10:20:00Z,64.55,18.72,5.0,-4.0,310,3,,6.21,29.852362,,,TRUE,,,,,,,,BKN,4800,,,,,,,VFR,,,,,,,,,,,,METAR,220.0
ESNK 281020Z AUTO 36002KT 9999 -DZ FEW045/// BKN059/// OVC076/// ///// Q1013,ESNK,2023-04-28T10:20:00Z,63.03,17.77,,,360,2,,6.21,29.911417,,,TRUE,,,,,,,-DZ,FEW,4500,BKN,5900,OVC,7600,,,VFR,,,,,,,,,,,,METAR,4.0
ESNG 281020Z AUTO 09009KT 1500 -SN VV008 ///// Q1011,ESNG,2023-04-28T10:20:00Z,67.13,20.82,,,90,9,,0.93,29.852362,,,TRUE,,,,,,,-SN,OVX,0,,,,,,,LIFR,,,,,,,,,,,800,METAR,300.0
ESND 281020Z AUTO 32008KT 270V360 9999 NCD 04/M07 Q1014,ESND,2023-04-28T10:20:00Z,62.05,14.42,4.0,-7.0,320,8,,6.21,29.940945,,,TRUE,,,,,,,,CLR,,,,,,,,VFR,,,,,,,,,,,,METAR,352.0
ESMX 281020Z 30006G19KT 270V340 CAVOK 11/M03 Q1016,ESMX,2023-04-28T10:20:00Z,56.92,14.72,11.0,-3.0,300,6,19,6.21,30.0,,,,,,,,,,,CAVOK,,,,,,,,VFR,,,,,,,,,,,,METAR,176.0
ESMT 281020Z 26007KT 210V290 9999 FEW021 08/03 Q1017,ESMT,2023-04-28T10:20:00Z,56.68,12.82,8.0,3.0,260,7,,6.21,30.029528,,,,,,,,,,,FEW,2100,,,,,,,VFR,,,,,,,,,,,,METAR,24.0
ESMS 281020Z 22006KT 190V250 9999 FEW045 10/M02 Q1017,ESMS,2023-04-28T10:20:00Z,55.53,13.37,10.0,-2.0,220,6,,6.21,30.029528,,,,,,,,,,,FEW,4500,,,,,,,VFR,,,,,,,,,,,,METAR,68.0
ESMQ 281020Z 19009KT 160V240 CAVOK 11/M03 Q1016,ESMQ,2023-04-28T10:20:00Z,56.68,16.3,11.0,-3.0,190,9,,6.21,30.0,,,,,,,,,,,CAVOK,,,,,,,,VFR,,,,,,,,,,,,METAR,3.0
ESMK 281020Z VRB03KT CAVOK 11/M03 Q1017,ESMK,2023-04-28T10:20:00Z,55.92,14.08,11.0,-3.0,0,3,,6.21,30.029528,,,,,,,,,,,CAVOK,,,,,,,,VFR,,,,,,,,,,,,METAR,20.0
ESKS 281020Z AUTO 33006KT 300V020 9999 NCD 03/M10 Q1014,ESKS,2023-04-28T10:20:00Z,61.17,12.83,3.0,-10.0,330,6,,6.21,29.940945,,,TRUE,,,,,,,,CLR,,,,,,,,VFR,,,,,,,,,,,,METAR,503.0
ESKN 281020Z 28011KT 9999 BKN044 08/M02 Q1014,ESKN,2023-04-28T10:20:00Z,58.78,16.92,8.0,-2.0,280,11,,6.21,29.940945,,,,,,,,,,,BKN,4400,,,,,,,VFR,,,,,,,,,,,,METAR,41.0
ESKM 281020Z AUTO 02008KT 350V050 9999 BKN051/// 06/M02 Q1014,ESKM,2023-04-28T10:20:00Z,60.97,14.52,6.0,-2.0,20,8,,6.21,29.940945,,,TRUE,,,,,,,,BKN,5100,,,,,,,VFR,,,,,,,,,,,,METAR,184.0
ESIB 281020Z 35004KT 300V030 CAVOK 08/M03 Q1016,ESIB,2023-04-28T10:20:00Z,58.42,12.7,8.0,-3.0,350,4,,6.21,30.0,,,,,,,,,,,CAVOK,,,,,,,,VFR,,,,,,,,,,,,METAR,51.0
ESIA 281020Z 31009KT 270V340 CAVOK 09/M06 Q1016,ESIA,2023-04-28T10:20:00Z,58.52,14.5,9.0,-6.0,310,9,,6.21,30.0,,,,,,,,,,,CAVOK,,,,,,,,VFR,,,,,,,,,,,,METAR,94.0
ESGT 281020Z VRB03KT CAVOK 09/M04 Q1016,ESGT,2023-04-28T10:20:00Z,58.32,12.33,9.0,-4.0,0,3,,6.21,30.0,,,,,,,,,,,CAVOK,,,,,,,,VFR,,,,,,,,,,,,METAR,40.0
ESGP 281020Z 29006KT 230V360 CAVOK 11/M05 Q1016,ESGP,2023-04-28T10:20:00Z,57.77,11.87,11.0,-5.0,290,6,,6.21,30.0,,,,,,,,,,,CAVOK,,,,,,,,VFR,,,,,,,,,,,,METAR,15.0
ESGJ 281020Z 21008KT 9999 SCT025TCU 07/M00 Q1016,ESGJ,2023-04-28T10:20:00Z,57.77,14.07,7.0,0.0,210,8,,6.21,30.0,,,,,,,,,,,SCT,2500,,,,,,,VFR,,,,,,,,,,,,METAR,224.0
ESGG 281020Z 25006KT 210V280 CAVOK 10/M02 Q1015,ESGG,2023-04-28T10:20:00Z,57.67,12.3,10.0,-2.0,250,6,,6.21,29.970472,,,,,,,,,,,CAVOK,,,,,,,,VFR,,,,,,,,,,,,METAR,152.0
ESDF 281020Z 23007KT 190V260 9999 SCT038 10/01 Q1017,ESDF,2023-04-28T10:20:00Z,56.27,15.27,10.0,1.0,230,7,,6.21,30.029528,,,,,,,,,,,SCT,3800,,,,,,,VFR,,,,,,,,,,,,METAR,52.0
ESCM 281020Z AUTO 04004KT 340V070 9999 -RA SCT035/// BKN070/// 07/00 Q1013,ESCM,2023-04-28T10:20:00Z,59.88,17.6,7.0,0.0,40,4,,6.21,29.911417,,,TRUE,,,,,,,-RA,SCT,3500,BKN,7000,,,,,VFR,,,,,,,,,,,,METAR,21.0
ESCF 281020Z 27014KT CAVOK 09/M02 Q1015,ESCF,2023-04-28T10:20:00Z,58.38,15.52,9.0,-2.0,270,14,,6.21,29.970472,,,,,,,,,,,CAVOK,,,,,,,,VFR,,,,,,,,,,,,METAR,86.0
ENZV 281020Z VRB04KT 9999 SCT044 BKN059 07/M03 Q1016,ENZV,2023-04-28T10:20:00Z,58.88,5.63,7.0,-3.0,0,4,,6.21,30.0,,,,,,,,,,,SCT,4400,BKN,5900,,,,,VFR,,,,,,,,,,,,METAR,7.0
ENWV 281020Z AUTO 13019KT 9999NDV BKN057/// 07/03 Q1014 W///S4,ENWV,2023-04-28T10:20:00Z,56.28,3.4,7.0,3.0,130,19,,,29.940945,,,TRUE,,,,,,,,BKN,5700,,,,,,,,,,,,,,,,,,,METAR,30.0
ENVD 281020Z 10018KT CAVOK 02/M02 Q1022,ENVD,2023-04-28T10:20:00Z,70.07,29.85,2.0,-2.0,100,18,,6.21,30.177166,,,,,,,,,,,CAVOK,,,,,,,,VFR,,,,,,,,,,,,METAR,39.0
ENVA 281020Z 25005KT 9999 FEW029CB SCT059 06/M02 Q1016 NOSIG RMK WIND 670FT 29005KT,ENVA,2023-04-28T10:20:00Z,63.47,10.92,6.0,-2.0,250,5,,6.21,30.0,,,,,,TRUE,,,,,FEW,2900,SCT,5900,,,,,VFR,,,,,,,,,,,,METAR,12.0
ENUN 281020Z 22019KT 9999 VCSH SCT020TCU 03/M01 Q1010 W07/S4,ENUN,2023-04-28T10:20:00Z,,,3.0,-1.0,220,19,,6.21,29.822834,,,,,,,,,,VCSH,SCT,2000,,,,,,,VFR,,,,,,,,,,,,METAR,
ENUG 281020Z AUTO 14021KT 100V170 9999NDV FEW100/// 06/01 Q1013 W///S4,ENUG,2023-04-28T10:20:00Z,71.3,22.25,6.0,1.0,140,21,,,29.911417,,,TRUE,,,,,,,,FEW,10000,,,,,,,,,,,,,,,,,,,METAR,30.0
ENTO 281020Z 06005KT 350V100 CAVOK 08/M05 Q1016 NOSIG,ENTO,2023-04-28T10:20:00Z,59.2,10.27,8.0,-5.0,60,5,,6.21,30.0,,,,,,TRUE,,,,,CAVOK,,,,,,,,VFR,,,,,,,,,,,,METAR,84.0
ENTC 281020Z 25004KT 9999 FEW055 SCT078 BKN094 07/00 Q1012 NOSIG RMK WIND 2600FT 11010KT,ENTC,2023-04-28T10:20:00Z,69.68,18.92,7.0,0.0,250,4,,6.21,29.88189,,,,,,TRUE,,,,,FEW,5500,SCT,7800,BKN,9400,,,VFR,,-1.0,,,,,,,,,,METAR,9.0
ENST 281020Z 23010KT 200V260 9999 FEW024CB SCT030 06/M01 Q1014 RMK WIND 300FT 25010KT,ENST,2023-04-28T10:20:00Z,65.97,12.47,6.0,-1.0,230,10,,6.21,29.940945,,,,,,,,,,,FEW,2400,SCT,3000,,,,,VFR,,,,,,,,,,,,METAR,17.0
ENSS 281020Z 14020KT 9999 BKN011 00/M02 Q1023 RMK WIND 0500FT 12019KT,ENSS,2023-04-28T10:20:00Z,70.35,31.05,0.0,-2.0,140,20,,6.21,30.206694,,,,,,,,,,,BKN,1100,,,,,,,MVFR,,,,,,,,,,,,METAR,13.0
ENSR 281020Z 13018KT 9999 -DZ FEW046 SCT068 BKN086 07/01 Q1013 RMK WIND RWY32 13017KT WIND 1118FT 12017G27KT,ENSR,2023-04-28T10:20:00Z,69.78,20.97,7.0,1.0,130,18,,6.21,29.911417,,,,,,,,,,-DZ,FEW,4600,SCT,6800,BKN,8600,,,VFR,,,,,,,,,,,,SPECI,5.0
ENSO 281020Z 14005KT 9999 SCT042 BKN059 06/00 Q1016,ENSO,2023-04-28T10:20:00Z,59.78,5.33,6.0,0.0,140,5,,6.21,30.0,,,,,,,,,,,SCT,4200,BKN,5900,,,,,VFR,,,,,,,,,,,,METAR,48.0
ENSL 281020Z AUTO 13030KT 9999NDV BKN016/// 06/03 Q1013 W05/S4,ENSL,2023-04-28T10:20:00Z,58.37,1.9,6.0,3.0,130,30,,,29.911417,,,TRUE,,,,,,,,BKN,1600,,,,,,,,,,,,,,,,,,,METAR,50.0
ENSK 281020Z 16003KT 9999 RA SCT014 BKN025 04/02 Q1012,ENSK,2023-04-28T10:20:00Z,68.57,15.02,4.0,2.0,160,3,,6.21,29.88189,,,,,,,,,,RA,SCT,1400,BKN,2500,,,,,MVFR,,,,,,,,,,,,METAR,3.0
ENSH 281020Z 21006KT 9999 -RA FEW007 SCT015 04/03 Q1012 RMK WIND 0150FT 19010KT,ENSH,2023-04-28T10:20:00Z,68.25,14.67,4.0,3.0,210,6,,6.21,29.88189,,,,,,,,,,-RA,FEW,700,SCT,1500,,,,,VFR,,,,,,,,,,,,METAR,9.0
ENSG 281020Z 07004KT 350V130 CAVOK 03/M07 Q1014 RMK WIND 3806FT 10009KT,ENSG,2023-04-28T10:20:00Z,61.15,7.13,3.0,-7.0,70,4,,6.21,29.940945,,,,,,,,,,,CAVOK,,,,,,,,VFR,,0.9,,,,,,,,,,METAR,493.0
ENSF 281020Z AUTO 17019KT 9999NDV -DZ BKN022/// ///// Q//// W///S3,ENSF,2023-04-28T10:20:00Z,61.25,1.85,,,170,19,,,,,,TRUE,,,,,,,-DZ,BKN,2200,,,,,,,,,,,,,,,,,,,METAR,15.0
ENSE 281020Z AUTO 18013KT //// BKN018/// OVC069/// 05/01 Q1015 W///S3,ENSE,2023-04-28T10:20:00Z,61.45,2.15,5.0,1.0,180,13,,,29.970472,,,TRUE,,,,,,,,BKN,1800,OVC,6900,,,,,,,,,,,,,,,,,METAR,10.0
ENSD 281020Z 08008KT CAVOK 06/M06 Q1016 RMK WIND RWY26 07008KT WIND 1140FT 05005KT,ENSD,2023-04-28T10:20:00Z,61.82,6.12,6.0,-6.0,80,8,,6.21,30.0,,,,,,,,,,,CAVOK,,,,,,,,VFR,,,,,,,,,,,,METAR,61.0
ENSB 281020Z 36006KT 3500 -SNRA VV008 M01/M02 Q1017 TEMPO 2000 SN VV010 RMK WIND 1400FT 19002KT,ENSB,2023-04-28T10:20:00Z,78.25,15.47,-1.0,-2.0,360,6,,2.17,30.029528,,,,,,,,,,-SN -RA,OVX,0,,,,,,,LIFR,,,,,,,,,,,800,METAR,30.0
ENRY 281020Z VRB03KT CAVOK 09/M05 Q1016 NOSIG,ENRY,2023-04-28T10:20:00Z,59.37,10.77,9.0,-5.0,0,3,,6.21,30.0,,,,,,TRUE,,,,,CAVOK,,,,,,,,VFR,,,,,,,,,,,,METAR,45.0
ENRS 281020Z AUTO 24008KT 9999 SCT046/// 06/M01 Q1012,ENRS,2023-04-28T10:20:00Z,67.52,12.1,6.0,-1.0,240,8,,6.21,29.88189,,,TRUE,,,,,,,,SCT,4600,,,,,,,VFR,,,,,,,,,,,,METAR,4.0
ENRO 281020Z AUTO 31004KT 280V340 9999 BKN031/// M00/M08 Q1014,ENRO,2023-04-28T10:20:00Z,62.57,11.33,0.0,-8.0,310,4,,6.21,29.940945,,,TRUE,,,,,,,,BKN,3100,,,,,,,VFR,,,,,,,,,,,,METAR,624.0
ENRM 281020Z 24013KT 9999 FEW037 06/M01 Q1015,ENRM,2023-04-28T10:20:00Z,64.83,11.13,6.0,-1.0,240,13,,6.21,29.970472,,,,,,,,,,,FEW,3700,,,,,,,VFR,,,,,,,,,,,,METAR,4.0
ENRA 281020Z 30007KT 260V320 9999 -SHRA SCT015TCU BKN020 03/01 Q1013,ENRA,2023-04-28T10:20:00Z,66.37,14.3,3.0,1.0,300,7,,6.21,29.911417,,,,,,,,,,-SHRA,SCT,1500,BKN,2000,,,,,MVFR,,,,,,,,,,,,METAR,66.0
ENQR 281020Z AUTO 14013KT 9999NDV FEW028/// 07/00 Q1014 W08/S3,ENQR,2023-04-28T10:20:00Z,61.52,2.22,7.0,0.0,140,13,,,29.940945,,,TRUE,,,,,,,,FEW,2800,,,,,,,,,,,,,,,,,,,METAR,10.0
ENQC 281020Z AUTO 16015KT 9999NDV SCT025/// BKN055/// 05/M01 Q1015 W///S3,ENQC,2023-04-28T10:20:00Z,60.88,3.62,5.0,-1.0,160,15,,,29.970472,,,TRUE,,,,,,,,SCT,2500,BKN,5500,,,,,,,,,,,,,,,,,METAR,20.0
ENQA 281020Z AUTO 16015KT 9999NDV OVC021/// 04/00 Q1016 W09/S3,ENQA,2023-04-28T10:20:00Z,60.65,3.72,4.0,0.0,160,15,,,30.0,,,TRUE,,,,,,,,OVC,2100,,,,,,,,,,,,,,,,,,,METAR,90.0
ENOV 281020Z VRB04KT CAVOK 07/M06 Q1015 RMK WIND RWY24 VRB03KT WIND 2090FT 17006KT,ENOV,2023-04-28T10:20:00Z,62.17,6.07,7.0,-6.0,0,4,,6.21,29.970472,,,,,,,,,,,CAVOK,,,,,,,,VFR,,,,,,,,,,,,METAR,72.0
ENOL 281020Z 34007KT 9999 FEW020CB SCT030 06/00 Q1016 NOSIG,ENOL,2023-04-28T10:20:00Z,63.7,9.6,6.0,0.0,340,7,,6.21,30.0,,,,,,TRUE,,,,,FEW,2000,SCT,3000,,,,,VFR,,,,,,,,,,,,METAR,9.0
ENOA 281020Z 14019KT 100V160 9999 -SHRA BKN012 03/01 Q1014 W///S3,ENOA,2023-04-28T10:20:00Z,60.5,2.83,3.0,1.0,140,19,,6.21,29.940945,,,,,,,,,,-SHRA,BKN,1200,,,,,,,MVFR,,,,,,,,,,,,METAR,5.0
ENNO 281020Z VRB02KT CAVOK 10/M07 Q1016,ENNO,2023-04-28T10:20:00Z,59.57,9.22,10.0,-7.0,0,2,,6.21,30.0,,,,,,,,,,,CAVOK,,,,,,,,VFR,,,,,,,,,,,,METAR,19.0
ENNM 281020Z 26007KT 220V310 9999 SCT036 07/M02 Q1015,ENNM,2023-04-28T10:20:00Z,64.47,11.57,7.0,-2.0,260,7,,6.21,29.970472,,,,,,,,,,,SCT,3600,,,,,,,VFR,,,,,,,,,,,,METAR,2.0
ENNA 281020Z 19015KT 9999 FEW038 08/M02 Q1018 RMK WIND 1800FT 15029KT,ENNA,2023-04-28T10:20:00Z,70.07,24.97,8.0,-2.0,190,15,,6.21,30.059055,,,,,,,,,,,FEW,3800,,,,,,,VFR,,,,,,,,,,,,METAR,12.0
ENMS 281020Z 00000KT 9999 SCT027 BKN045 05/M01 Q1013 RMK WIND 412FT 25005KT,ENMS,2023-04-28T10:20:00Z,65.78,13.22,5.0,-1.0,0,0,,6.21,29.911417,,,,,,,,,,,SCT,2700,BKN,4500,,,,,VFR,,,,,,,,,,,,METAR,44.0
ENML 281020Z 10003KT CAVOK 06/M02 Q1016,ENML,2023-04-28T10:20:00Z,62.75,7.27,6.0,-2.0,100,3,,6.21,30.0,,,,,,,,,,,CAVOK,,,,,,,,VFR,,,,,,,,,,,,METAR,3.0
ENMH 281020Z 13012KT CAVOK 04/M01 Q1020,ENMH,2023-04-28T10:20:00Z,71.02,27.82,4.0,-1.0,130,12,,6.21,30.11811,,,,,,,,,,,CAVOK,,,,,,,,VFR,,,,,,,,,,,,METAR,10.0
ENLK 281020Z 17005KT 9999 VCSH FEW010 SCT014 BKN040 05/04 Q1012,ENLK,2023-04-28T10:20:00Z,68.15,13.62,5.0,4.0,170,5,,6.21,29.88189,,,,,,,,,,VCSH,FEW,1000,SCT,1400,BKN,4000,,,VFR,,,,,,,,,,,,METAR,26.0
ENLE 281020Z 13018KT CAVOK 07/02 Q1014 W08/S4,ENLE,2023-04-28T10:20:00Z,56.53,3.22,7.0,2.0,130,18,,6.21,29.940945,,,,,,,,,,,CAVOK,,,,,,,,VFR,,,,,,,,,,,,METAR,10.0
ENLA 281020Z AUTO 14018KT 9999NDV BKN048/// 07/03 Q1013 W///S4,ENLA,2023-04-28T10:20:00Z,57.1,2.83,7.0,3.0,140,18,,,29.911417,,,TRUE,,,,,,,,BKN,4800,,,,,,,,,,,,,,,,,,,METAR,10.0
ENKR 281020Z 12011KT CAVOK 03/M04 Q1021 RMK WIND 731FT 10015KT,ENKR,2023-04-28T10:20:00Z,69.72,29.88,3.0,-4.0,120,11,,6.21,30.147638,,,,,,,,,,,CAVOK,,,,,,,,VFR,,1.5,,,,,,,,,,METAR,86.0
ENKB 281020Z 15006KT 120V180 9999 FEW040 07/M06 Q1016 RMK WIND 745FT 18008KT,ENKB,2023-04-28T10:20:00Z,63.12,7.82,7.0,-6.0,150,6,,6.21,30.0,,,,,,,,,,,FEW,4000,,,,,,,VFR,,,,,,,,,,,,METAR,62.0
ENJS 281020Z 17029KT 9999 -RA BKN014 05/03 Q1014 W07/S/,ENJS,2023-04-28T10:20:00Z,,,5.0,3.0,170,29,,6.21,29.940945,,,,,,,,,,-RA,BKN,1400,,,,,,,MVFR,,,,,,,,,,,,METAR,
ENHV 281020Z 15013KT 090V200 CAVOK 06/M02 Q1018,ENHV,2023-04-28T10:20:00Z,71.02,25.97,6.0,-2.0,150,13,,6.21,30.059055,,,,,,,,,,,CAVOK,,,,,,,,VFR,,,,,,,,,,,,METAR,13.0
ENHM 281020Z AUTO 14028KT //// FEW014/// BKN018/// OVC021/// 05/05 Q1013 W08/S/,ENHM,2023-04-28T10:20:00Z,59.57,2.23,5.0,5.0,140,28,,,29.911417,,,TRUE,,,,,,,,FEW,1400,BKN,1800,OVC,2100,,,,,,,,,,,,,,,METAR,10.0
ENHK 281020Z 08016KT 060V120 CAVOK 06/M00 Q1014,ENHK,2023-04-28T10:20:00Z,70.48,22.13,6.0,0.0,80,16,,6.21,29.940945,,,,,,,,,,,CAVOK,,,,,,,,VFR,,,,,,,,,,,,METAR,6.0
ENHF 281020Z 22007KT 170V250 CAVOK 07/M00 Q1015 RMK WIND 1254FT 14020KT,ENHF,2023-04-28T10:20:00Z,70.67,23.67,7.0,0.0,220,7,,6.21,29.970472,,,,,,,,,,,CAVOK,,,,,,,,VFR,,,,,,,,,,,,METAR,79.0
ENHE 281020Z 22017KT 9999 SCT025 04/M01 Q1013 W///S4,ENHE,2023-04-28T10:20:00Z,65.33,2.33,4.0,-1.0,220,17,,6.21,29.911417,,,,,,,,,,,SCT,2500,,,,,,,VFR,,,,,,,,,,,,METAR,10.0
ENHD 281020Z 21009KT 9999 SCT022 BKN037 06/00 Q1016,ENHD,2023-04-28T10:20:00Z,59.35,5.22,6.0,0.0,210,9,,6.21,30.0,,,,,,,,,,,SCT,2200,BKN,3700,,,,,VFR,,,,,,,,,,,,METAR,22.0
ENGM 281020Z VRB02KT CAVOK 07/M05 Q1016 NOSIG,ENGM,2023-04-28T10:20:00Z,60.2,11.07,7.0,-5.0,0,2,,6.21,30.0,,,,,,TRUE,,,,,CAVOK,,,,,,,,VFR,,,,,,,,,,,,METAR,204.0
ENGC 281020Z 18017KT 9999 FEW020 BKN040 04/00 Q1014 W05/S3,ENGC,2023-04-28T10:20:00Z,61.02,2.02,4.0,0.0,180,17,,6.21,29.940945,,,,,,,,,,,FEW,2000,BKN,4000,,,,,VFR,,,,,,,,,,,,METAR,10.0
ENFL 281020Z 16005KT 130V200 9999 FEW050 SCT140 08/M04 Q1016,ENFL,2023-04-28T10:20:00Z,61.57,5.02,8.0,-4.0,160,5,,6.21,30.0,,,,,,,,,,,FEW,5000,SCT,14000,,,,,VFR,,,,,,,,,,,,METAR,1.0
ENFB 281020Z AUTO 15020KT 9999NDV OVC032/// 05/00 Q1015 W///S3,ENFB,2023-04-28T10:20:00Z,61.2,1.83,5.0,0.0,150,20,,,29.970472,,,TRUE,,,,,,,,OVC,3200,,,,,,,,,,,,,,,,,,,METAR,10.0
ENEV 281020Z 21004KT 9999 -RA BKN017 04/02 Q1012 RMK WIND 1400FT 22004KT,ENEV,2023-04-28T10:20:00Z,68.48,16.67,4.0,2.0,210,4,,6.21,29.88189,,,,,,,,,,-RA,BKN,1700,,,,,,,MVFR,,,,,,,,,,,,METAR,26.0
ENDU 281020Z 10010KT 9999 FEW030 BKN050 08/00 Q1011 NOSIG RMK WIND 1100FT 07005KT WIND 2200FT 10014KT,ENDU,2023-04-28T10:20:00Z,69.05,18.55,8.0,0.0,100,10,,6.21,29.852362,,,,,,TRUE,,,,,FEW,3000,BKN,5000,,,,,VFR,,1.4,,,,,,,,,,METAR,65.0
ENDR 281020Z AUTO 22019KT 9999NDV FEW018/// BKN049/// 02/00 Q1015 W///S3,ENDR,2023-04-28T10:20:00Z,64.35,7.77,2.0,0.0,220,19,,,29.970472,,,TRUE,,,,,,,,FEW,1800,BKN,4900,,,,,,,,,,,,,,,,,METAR,10.0
ENCN 281020Z 10004KT 040V180 CAVOK 10/M02 Q1016,ENCN,2023-04-28T10:20:00Z,58.2,8.07,10.0,-2.0,100,4,,6.21,30.0,,,,,,,,,,,CAVOK,,,,,,,,VFR,,,,,,,,,,,,METAR,17.0
ENBV 281020Z 13016KT CAVOK 04/M02 Q1021,ENBV,2023-04-28T10:20:00Z,70.87,29.02,4.0,-2.0,130,16,,6.21,30.147638,,,,,,,,,,,CAVOK,,,,,,,,VFR,,,,,,,,,,,,METAR,13.0
ENBS 281020Z VRB06G16KT 9999 SCT022 01/M05 Q1022,ENBS,2023-04-28T10:20:00Z,70.62,29.68,1.0,-5.0,0,6,16,6.21,30.177166,,,,,,,,,,,SCT,2200,,,,,,,VFR,,,,,,,,,,,,METAR,144.0
ENBR 281020Z 18007KT 150V220 9999 FEW030 BKN066 06/M00 Q1016 NOSIG RMK WIND 1200FT 14009KT,ENBR,2023-04-28T10:20:00Z,60.28,5.22,6.0,0.0,180,7,,6.21,30.0,,,,,,TRUE,,,,,FEW,3000,BKN,6600,,,,,VFR,,,,,,,,,,,,METAR,49.0
ENBO 281020Z 25011KT 9999 FEW021 BKN045 06/02 Q1012 NOSIG,ENBO,2023-04-28T10:20:00Z,67.27,14.37,6.0,2.0,250,11,,6.21,29.88189,,,,,,TRUE,,,,,FEW,2100,BKN,4500,,,,,VFR,,,,,,,,,,,,METAR,13.0
ENBL 281020Z 17007KT 130V240 9999 FEW045 06/M06 Q1014,ENBL,2023-04-28T10:20:00Z,61.4,5.77,6.0,-6.0,170,7,,6.21,29.940945,,,,,,,,,,,FEW,4500,,,,,,,VFR,,,,,,,,,,,,METAR,313.0
ENAT 281020Z 15010KT 9999 BKN045 06/M01 Q1017 RMK WIND 700FT 14012KT,ENAT,2023-04-28T10:20:00Z,69.97,23.37,6.0,-1.0,150,10,,6.21,30.029528,,,,,,,,,,,BKN,4500,,,,,,,VFR,,,,,,,,,,,,METAR,3.0
ENAN 281020Z 00000KT 9999 BKN006 05/03 Q1011,ENAN,2023-04-28T10:20:00Z,69.3,16.13,5.0,3.0,0,0,,6.21,29.852362,,,,,,,,,,,BKN,600,,,,,,,IFR,,,,,,,,,,,,METAR,13.0
ENAL 281020Z 14006KT 100V170 CAVOK 06/M04 Q1016,ENAL,2023-04-28T10:20:00Z,62.57,6.12,6.0,-4.0,140,6,,6.21,30.0,,,,,,,,,,,CAVOK,,,,,,,,VFR,,,,,,,,,,,,METAR,21.0
ELLX 281020Z 26012KT 7000 SCT006 BKN012 15/14 Q1012 BECMG BKN012,ELLX,2023-04-28T10:20:00Z,49.63,6.2,15.0,14.0,260,12,,4.35,29.88189,,,,,,,,,,,SCT,600,BKN,1200,,,,,MVFR,,,,,,,,,,,,METAR,374.0
EKYT 281020Z AUTO 25005KT 210V300 9999 BKN130/// 10/00 Q1016,EKYT,2023-04-28T10:20:00Z,57.1,9.87,10.0,0.0,250,5,,6.21,30.0,,,TRUE,,,,,,,,BKN,13000,,,,,,,VFR,,,,,,,,,,,,METAR,2.0
EKVG 281020Z AUTO 01008KT 340V040 9999 OVC028/// 03/M04 Q1018 RMK OVC030/// WIND SKEID 36011KT 320V030,EKVG,2023-04-28T10:20:00Z,62.07,-7.27,3.0,-4.0,10,8,,6.21,30.059055,,,TRUE,,,,,,,,OVC,2800,,,,,,,MVFR,,,,,,,,,,,,SPECI,89.0
EKSP 281020Z 10011KT 070V140 9999 FEW025 BKN190 10/03 Q1015 NOSIG,EKSP,2023-04-28T10:20:00Z,55.22,9.27,10.0,3.0,100,11,,6.21,29.970472,,,,,,TRUE,,,,,FEW,2500,BKN,19000,,,,,VFR,,,,,,,,,,,,METAR,40.0
EKSB 281020Z 11012KT CAVOK 11/05 Q1015,EKSB,2023-04-28T10:20:00Z,54.97,9.8,11.0,5.0,110,12,,6.21,29.970472,,,,,,,,,,,CAVOK,,,,,,,,VFR,,,,,,,,,,,,METAR,23.0
EKRS 281020Z AUTO 18003KT 100V250 9999 NCD 11/M00 Q1017,EKRS,2023-04-28T10:20:00Z,55.42,11.8,11.0,0.0,180,3,,6.21,30.029528,,,TRUE,,,,,,,,CLR,,,,,,,,VFR,,,,,,,,,,,,METAR,34.0
EKRN 281020Z AUTO 19004KT 150V230 9999 NCD 08/06 Q1018,EKRN,2023-04-28T10:20:00Z,55.07,14.75,8.0,6.0,190,4,,6.21,30.059055,,,TRUE,,,,,,,,CLR,,,,,,,,VFR,,,,,,,,,,,,METAR,14.0
EKRK 281020Z AUTO 13008KT 110V170 9999 NCD 08/01 Q1017,EKRK,2023-04-28T10:20:00Z,55.58,12.13,8.0,1.0,130,8,,6.21,30.029528,,,TRUE,,,,,,,,CLR,,,,,,,,VFR,,,,,,,,,,,,METAR,40.0
EKKA 281020Z 14005KT 090V240 9999 FEW035 BKN200 09/M02 Q1016 NOSIG,EKKA,2023-04-28T10:20:00Z,56.3,9.12,9.0,-2.0,140,5,,6.21,30.0,,,,,,TRUE,,,,,FEW,3500,BKN,20000,,,,,VFR,,,,,,,,,,,,METAR,50.0
EKEB 281020Z 13008KT 080V160 CAVOK 11/01 Q1015,EKEB,2023-04-28T10:20:00Z,55.52,8.55,11.0,1.0,130,8,,6.21,29.970472,,,,,,,,,,,CAVOK,,,,,,,,VFR,,,,,,,,,,,,METAR,29.0
EKCH 281020Z AUTO 14008KT 9999 NCD 09/01 Q1018 NOSIG,EKCH,2023-04-28T10:20:00Z,55.62,12.67,9.0,1.0,140,8,,6.21,30.059055,,,TRUE,,,TRUE,,,,,CLR,,,,,,,,VFR,,,,,,,,,,,,METAR,4.0
EKBI 281020Z AUTO 11009KT 9999 FEW120/// 10/M00 Q1016,EKBI,2023-04-28T10:20:00Z,55.73,9.15,10.0,0.0,110,9,,6.21,30.0,,,TRUE,,,,,,,,FEW,12000,,,,,,,VFR,,,,,,,,,,,,METAR,67.0
EKAH 281020Z AUTO 17005KT 110V220 9999 NCD 10/M05 Q1017,EKAH,2023-04-28T10:20:00Z,56.28,10.62,10.0,-5.0,170,5,,6.21,30.029528,,,TRUE,,,,,,,,CLR,,,,,,,,VFR,,,,,,,,,,,,METAR,25.0
EGYP 281020Z 34007KT CAVOK 06/02 Q0997 NOSIG,EGYP,2023-04-28T10:20:00Z,-51.82,-58.45,6.0,2.0,340,7,,6.21,29.438976,,,,,,TRUE,,,,,CAVOK,,,,,,,,VFR,,,,,,,,,,,,METAR,70.0
EGYM 281020Z 29011KT 4000 -DZ SCT006 OVC008 12/10 Q1009 BECMG 7000 HZ FEW006 OVC010 RMK YLO1 BECMG GRN,EGYM,2023-04-28T10:20:00Z,52.63,0.57,12.0,10.0,290,11,,2.49,29.793306,,,,,,,,,,-DZ,SCT,600,OVC,800,,,,,IFR,,,,,,,,,,,,SPECI,25.0
EGYH 281020Z 30010KT 8000 BR OVC006 11/10 Q1009 RMK YLO1,EGYH,2023-04-28T10:20:00Z,52.87,0.15,11.0,10.0,300,10,,4.97,29.793306,,,,,,,,,,BR,OVC,600,,,,,,,IFR,,,,,,,,,,,,METAR,5.0
EGYD 281020Z 31011KT 8000 HZ BKN007 OVC011 10/08 Q1010 NOSIG RMK GRN GRN,EGYD,2023-04-28T10:20:00Z,53.03,-0.5,10.0,8.0,310,11,,4.97,29.822834,,,,,,TRUE,,,,HZ,BKN,700,OVC,1100,,,,,IFR,,,,,,,,,,,,METAR,65.0
EGXZ 281020Z AUTO 01004KT 9999 OVC006/// 09/08 Q1011,EGXZ,2023-04-28T10:20:00Z,54.2,-1.38,9.0,8.0,10,4,,6.21,29.852362,,,TRUE,,,,,,,,OVC,600,,,,,,,IFR,,,,,,,,,,,,METAR,24.0
EGXW 281020Z 31008KT 7000 BR OVC006 09/08 Q1010 BECMG 8000 BKN007 RMK YLO1 BECMG GRN,EGXW,2023-04-28T10:20:00Z,53.18,-0.52,9.0,8.0,310,8,,4.35,29.822834,,,,,,,,,,BR,OVC,600,,,,,,,IFR,,,,,,,,,,,,METAR,70.0
EGXV 281020Z AUTO 06005KT 1600 DZ OVC002/// 09/08 Q1010,EGXV,2023-04-28T10:20:00Z,53.87,-0.45,9.0,8.0,60,5,,0.99,29.822834,,,TRUE,,,,,,,DZ,OVC,200,,,,,,,LIFR,,,,,,,,,,,,METAR,6.0
EGXT 281020Z 30010KT 9999 BKN009 11/09 Q1009,EGXT,2023-04-28T10:20:00Z,52.62,-0.47,11.0,9.0,300,10,,6.21,29.793306,,,,,,,,,,,BKN,900,,,,,,,IFR,,,,,,,,,,,,METAR,74.0
EGXS 281020Z 05005KT 1000 -DZ OVC001 09/09 Q1009 RMK RED,EGXS,2023-04-28T10:20:00Z,53.48,0.15,9.0,9.0,50,5,,0.62,29.793306,,,,,,,,,,-DZ,OVC,100,,,,,,,LIFR,,,,,,,,,,,,METAR,6.0
EGXE 281020Z 01004KT 9999 BKN007 09/08 Q1011 BECMG BKN015 RMK GRN,EGXE,2023-04-28T10:20:00Z,54.28,-1.52,9.0,8.0,10,4,,6.21,29.852362,,,,,,,,,,,BKN,700,,,,,,,IFR,,,,,,,,,,,,METAR,30.0
EGXC 281020Z 31010KT 6000 BR BKN006 OVC008 10/08 Q1009 BECMG BKN007 RMK YLO1 BECMG GRN,EGXC,2023-04-28T10:20:00Z,53.1,-0.17,10.0,8.0,310,10,,3.73,29.793306,,,,,,,,,,BR,BKN,600,OVC,800,,,,,IFR,,,,,,,,,,,,METAR,9.0
EGWU 281020Z 28013KT 9999 SCT012 BKN020 15/12 Q1010 BECMG FEW012 RMK GRN BECMG WHT,EGWU,2023-04-28T10:20:00Z,51.55,-0.42,15.0,12.0,280,13,,6.21,29.822834,,,,,,,,,,,SCT,1200,BKN,2000,,,,,MVFR,,,,,,,,,,,,METAR,33.0
EGWC 281020Z AUTO 31007KT //// ///////// ///// Q////,EGWC,2023-04-28T10:20:00Z,52.63,-2.3,,,310,7,,,,,,TRUE,,,,,,,,,,,,,,,,,,,,,,,,,,,,SPECI,79.0
EGVP 281020Z 28009KT 9999 FEW015 BKN022 14/11 Q1011 BECMG FEW020 BKN025 RMK WHT BECMG BLU,EGVP,2023-04-28T10:20:00Z,51.13,-1.57,14.0,11.0,280,9,,6.21,29.852362,,,,,,,,,,,FEW,1500,BKN,2200,,,,,MVFR,,,,,,,,,,,,SPECI,80.0
EGVO 281020Z 26012KT 9999 FEW010 BKN020 14/11 Q1011 BECMG BKN025 RMK WHT BECMG BLU,EGVO,2023-04-28T10:20:00Z,51.23,-0.95,14.0,11.0,260,12,,6.21,29.852362,,,,,,,,,,,FEW,1000,BKN,2000,,,,,MVFR,,,,,,,,,,,,METAR,118.0
EGVN 281020Z 29008KT 9999 FEW016 BKN030 15/11 Q1011 TEMPO SCT020 RMK BLU TEMPO WHT,EGVN,2023-04-28T10:20:00Z,51.77,-1.58,15.0,11.0,290,8,,6.21,29.852362,,,,,,,,,,,FEW,1600,BKN,3000,,,,,MVFR,,,,,,,,,,,,METAR,83.0
EGUW 281020Z 27011KT 9999 -DZ SCT008 OVC035 14/13 Q1009 BECMG NSW RMK GRN BECMG GRN,EGUW,2023-04-28T10:20:00Z,52.12,0.97,14.0,13.0,270,11,,6.21,29.793306,,,,,,,,,,-DZ,SCT,800,OVC,3500,,,,,VFR,,,,,,,,,,,,METAR,86.0
EGUB 281020Z 26010KT 9999 SCT014 BKN028 14/11 Q1011 BECMG SCT015 RMK GRN BECMG WHT,EGUB,2023-04-28T10:20:00Z,51.62,-1.08,14.0,11.0,260,10,,6.21,29.852362,,,,,,,,,,,SCT,1400,BKN,2800,,,,,MVFR,,,,,,,,,,,,METAR,56.0
EGTK 281020Z 29010KT 9999 VCSH SCT011 BKN021 BKN037 14/12 Q1011,EGTK,2023-04-28T10:20:00Z,51.83,-1.32,14.0,12.0,290,10,,6.21,29.852362,,,,,,,,,,VCSH,SCT,1100,BKN,2100,BKN,3700,,,MVFR,,,,,,,,,,,,METAR,78.0
EGTE 281020Z 28007KT 250V320 9999 BKN015 14/10 Q1014,EGTE,2023-04-28T10:20:00Z,50.73,-3.42,14.0,10.0,280,7,,6.21,29.940945,,,,,,,,,,,BKN,1500,,,,,,,MVFR,,,,,,,,,,,,METAR,30.0
EGSY 281020Z 27013KT 6000 BKN002 OVC030 12/11 Q1013,EGSY,2023-04-28T10:20:00Z,51.4,-3.43,12.0,11.0,270,13,,3.73,29.911417,,,,,,,,,,,BKN,200,OVC,3000,,,,,LIFR,,,,,,,,,,,,METAR,46.0
EGSS 281020Z AUTO 26009KT 9999 BKN010 OVC015 13/12 Q1010,EGSS,2023-04-28T10:20:00Z,51.88,0.22,13.0,12.0,260,9,,6.21,29.822834,,,TRUE,,,,,,,,BKN,1000,OVC,1500,,,,,MVFR,,,,,,,,,,,,METAR,101.0
EGSH 281020Z 27008KT 6000 -DZ BKN002 OVC004 12/11 Q1009 BECMG BKN020,EGSH,2023-04-28T10:20:00Z,52.68,1.28,12.0,11.0,270,8,,3.73,29.793306,,,,,,,,,,-DZ,BKN,200,OVC,400,,,,,LIFR,,,,,,,,,,,,SPECI,21.0
EGSC 281020Z 29012KT 230V290 9000 BKN009 14/11 Q1009,EGSC,2023-04-28T10:20:00Z,52.2,0.17,14.0,11.0,290,12,,5.59,29.793306,,,,,,,,,,,BKN,900,,,,,,,IFR,,,,,,,,,,,,METAR,19.0
EGQS 281020Z 28007KT 9999 FEW007 BKN030 09/06 Q//// NOSIG RMK BLU BLU,EGQS,2023-04-28T10:20:00Z,57.72,-3.32,9.0,6.0,280,7,,6.21,,,,,,,TRUE,,,,,FEW,700,BKN,3000,,,,,MVFR,,,,,,,,,,,,SPECI,6.0
EGQM 281020Z AUTO 15011KT 5000 BR OVC004/// 08/08 Q1012,EGQM,2023-04-28T10:20:00Z,55.42,-1.6,8.0,8.0,150,11,,3.11,29.88189,,,TRUE,,,,,,,BR,OVC,400,,,,,,,LIFR,,,,,,,,,,,,METAR,24.0
EGQK 281020Z AUTO 30005KT 9999 OVC027/// 10/08 Q1011,EGQK,2023-04-28T10:20:00Z,57.65,-3.57,10.0,8.0,300,5,,6.21,29.852362,,,TRUE,,,,,,,,OVC,2700,,,,,,,MVFR,,,,,,,,,,,,METAR,5.0
EGPU 281020Z 13003KT 4700 BR BKN003 10/09 Q1011,EGPU,2023-04-28T10:20:00Z,56.5,-6.88,10.0,9.0,130,3,,2.92,29.852362,,,,,,,,,,BR,BKN,300,,,,,,,LIFR,,,,,,,,,,,,METAR,12.0
EGPO 281020Z 04009KT 9999 SCT024 BKN042 10/07 Q1012,EGPO,2023-04-28T10:20:00Z,58.22,-6.32,10.0,7.0,40,9,,6.21,29.88189,,,,,,,,,,,SCT,2400,BKN,4200,,,,,VFR,,,,,,,,,,,,METAR,10.0
EGPN 281020Z 24003KT 4500 BR FEW004 BKN045 10/08 Q1011,EGPN,2023-04-28T10:20:00Z,56.45,-3.02,10.0,8.0,240,3,,2.8,29.852362,,,,,,,,,,BR,FEW,400,BKN,4500,,,,,IFR,,,,,,,,,,,,METAR,4.0
EGPL 281020Z 04008KT 9999 FEW018 BKN028 09/07 Q1012,EGPL,2023-04-28T10:20:00Z,57.47,-7.37,9.0,7.0,40,8,,6.21,29.88189,,,,,,,,,,,FEW,1800,BKN,2800,,,,,MVFR,,,,,,,,,,,,METAR,3.0
EGPK 281020Z 29005KT 9999 FEW012 OVC017 10/08 Q1011,EGPK,2023-04-28T10:20:00Z,55.5,-4.58,10.0,8.0,290,5,,6.21,29.852362,,,,,,,,,,,FEW,1200,OVC,1700,,,,,MVFR,,,,,,,,,,,,METAR,14.0
EGPI 281020Z 24003KT 3000 -RADZ OVC002 10/10 Q1011,EGPI,2023-04-28T10:20:00Z,55.68,-6.25,10.0,10.0,240,3,,1.86,29.852362,,,,,,,,,,-RA -DZ,OVC,200,,,,,,,LIFR,,,,,,,,,,,,METAR,17.0
EGPH 281020Z 35003KT 290V040 4600 -DZ SCT007 BKN025 10/09 Q1011,EGPH,2023-04-28T10:20:00Z,55.95,-3.35,10.0,9.0,350,3,,2.86,29.852362,,,,,,,,,,-DZ,SCT,700,BKN,2500,,,,,IFR,,,,,,,,,,,,METAR,29.0
EGPF 281020Z VRB01KT 2300 -RADZ BKN004 OVC009 10/09 Q1012,EGPF,2023-04-28T10:20:00Z,55.87,-4.42,10.0,9.0,0,1,,1.43,29.88189,,,,,,,,,,-RA -DZ,BKN,400,OVC,900,,,,,LIFR,,,,,,,,,,,,METAR,8.0
EGPE 281020Z 00000KT 9999 FEW013 BKN045 11/08 Q1011,EGPE,2023-04-28T10:20:00Z,57.53,-4.05,11.0,8.0,0,0,,6.21,29.852362,,,,,,,,,,,FEW,1300,BKN,4500,,,,,VFR,,,,,,,,,,,,METAR,7.0
EGPD 281020Z 29003KT 200V360 9999 BKN016 11/08 Q1010,EGPD,2023-04-28T10:20:00Z,57.2,-2.22,11.0,8.0,290,3,,6.21,29.822834,,,,,,,,,,,BKN,1600,,,,,,,MVFR,,,,,,,,,,,,METAR,65.0
EGPC 281020Z 29011KT 9999 FEW014 BKN026 09/06 Q1010,EGPC,2023-04-28T10:20:00Z,58.45,-3.08,9.0,6.0,290,11,,6.21,29.822834,,,,,,,,,,,FEW,1400,BKN,2600,,,,,MVFR,,,,,,,,,,,,METAR,38.0
EGPB 281020Z 17005KT 040V200 9999 5000N VCSH SCT004 BKN005 08/07 Q1009 TEMPO 4000 RADZ BKN004,EGPB,2023-04-28T10:20:00Z,59.87,-1.3,8.0,7.0,170,5,,6.21,29.793306,,,,,,,,,,VCSH,SCT,400,BKN,500,,,,,IFR,,,,,,,,,,,,METAR,2.0
EGPA 281020Z 34012KT 9999 VCSH FEW006 BKN008 08/06 Q1010,EGPA,2023-04-28T10:20:00Z,58.95,-2.9,8.0,6.0,340,12,,6.21,29.822834,,,,,,,,,,VCSH,FEW,600,BKN,800,,,,,IFR,,,,,,,,,,,,METAR,15.0
EGOV 281020Z 24008KT 9999 SCT015 13/10 Q1012 TEMPO FEW015 RMK WHT TEMPO BLU,EGOV,2023-04-28T10:20:00Z,53.25,-4.53,13.0,10.0,240,8,,6.21,29.88189,,,,,,,,,,,SCT,1500,,,,,,,VFR,,,,,,,,,,,,METAR,11.0
EGOS 281020Z 34007KT 9999 BKN012 12/10 Q1011 BECMG SCT018 RMK GRN BECMG WHT,EGOS,2023-04-28T10:20:00Z,52.8,-2.67,12.0,10.0,340,7,,6.21,29.852362,,,,,,,,,,,BKN,1200,,,,,,,MVFR,,,,,,,,,,,,METAR,76.0
EGOM 281020Z AUTO 11002KT 9999 OVC006/// 08/06 Q1011,EGOM,2023-04-28T10:20:00Z,55.05,-2.55,8.0,6.0,110,2,,6.21,29.852362,,,TRUE,,,,,,,,OVC,600,,,,,,,IFR,,,,,,,,,,,,METAR,286.0
EGNX 281020Z 27009KT 8000 SCT005 BKN008 10/09 Q1011,EGNX,2023-04-28T10:20:00Z,52.82,-1.32,10.0,9.0,270,9,,4.97,29.852362,,,,,,,,,,,SCT,500,BKN,800,,,,,IFR,,,,,,,,,,,,METAR,91.0
EGNV 281020Z 06007KT 8000 FEW006 BKN014 09/08 Q1011,EGNV,2023-04-28T10:20:00Z,54.52,-1.42,9.0,8.0,60,7,,4.97,29.852362,,,,,,,,,,,FEW,600,BKN,1400,,,,,MVFR,,,,,,,,,,,,METAR,36.0
EGNT 281020Z 14006KT 100V180 9000 BKN009 10/09 Q1011,EGNT,2023-04-28T10:20:00Z,55.03,-1.7,10.0,9.0,140,6,,5.59,29.852362,,,,,,,,,,,BKN,900,,,,,,,IFR,,,,,,,,,,,,METAR,77.0
EGNS 281020Z 19004KT 140V220 9000 SCT012 BKN016 12/09 Q1012 BECMG 9999,EGNS,2023-04-28T10:20:00Z,54.08,-4.63,12.0,9.0,190,4,,5.59,29.88189,,,,,,,,,,,SCT,1200,BKN,1600,,,,,MVFR,,,,,,,,,,,,SPECI,18.0
EGNR 281020Z 33010KT 9000 BKN007 OVC013 10/08 Q1012,EGNR,2023-04-28T10:20:00Z,53.17,-2.98,10.0,8.0,330,10,,5.59,29.88189,,,,,,,,,,,BKN,700,OVC,1300,,,,,IFR,,,,,,,,,,,,METAR,11.0
EGNO 281020Z 31007KT 270V330 9000 BKN011 12/08 Q1011,EGNO,2023-04-28T10:20:00Z,53.75,-2.88,12.0,8.0,310,7,,5.59,29.852362,,,,,,,,,,,BKN,1100,,,,,,,MVFR,,,,,,,,,,,,METAR,12.0
EGNM 281020Z 36006KT 330V030 7000 BKN002 08/07 Q1010,EGNM,2023-04-28T10:20:00Z,53.87,-1.65,8.0,7.0,360,6,,4.35,29.822834,,,,,,,,,,,BKN,200,,,,,,,LIFR,,,,,,,,,,,,METAR,221.0
EGNJ 281020Z 33006KT 4000 BR SCT003 BKN005 10/10 Q1010,EGNJ,2023-04-28T10:20:00Z,53.57,-0.35,10.0,10.0,330,6,,2.49,29.822834,,,,,,,,,,BR,SCT,300,BKN,500,,,,,IFR,,,,,,,,,,,,METAR,23.0
EGNH 281020Z 32008KT 7000 SCT008 BKN020 11/09 Q1012,EGNH,2023-04-28T10:20:00Z,53.77,-3.03,11.0,9.0,320,8,,4.35,29.88189,,,,,,,,,,,SCT,800,BKN,2000,,,,,MVFR,,,,,,,,,,,,METAR,10.0
EGMD 281020Z 23017KT 9999 BKN003 BKN014 12/11 Q1011,EGMD,2023-04-28T10:20:00Z,50.95,0.93,12.0,11.0,230,17,,6.21,29.852362,,,,,,,,,,,BKN,300,BKN,1400,,,,,LIFR,,,,,,,,,,,,METAR,4.0
EGMC 281020Z 26012KT 9999 FEW014 BKN017 15/12 Q1010,EGMC,2023-04-28T10:20:00Z,51.57,0.7,15.0,12.0,260,12,,6.21,29.822834,,,,,,,,,,,FEW,1400,BKN,1700,,,,,MVFR,,,,,,,,,,,,METAR,15.0
EGLL 281020Z AUTO 27011KT 9999 BKN010 BKN015 OVC027 14/12 Q1011 BECMG BKN015,EGLL,2023-04-28T10:20:00Z,51.48,-0.45,14.0,12.0,270,11,,6.21,29.852362,,,TRUE,,,,,,,,BKN,1000,BKN,1500,OVC,2700,,,MVFR,,,,,,,,,,,,METAR,26.0
EGLF 281020Z 27009KT 9999 VCSH FEW010 BKN020 14/11 Q1011,EGLF,2023-04-28T10:20:00Z,51.28,-0.77,14.0,11.0,270,9,,6.21,29.852362,,,,,,,,,,VCSH,FEW,1000,BKN,2000,,,,,MVFR,,,,,,,,,,,,METAR,65.0
EGLC 281020Z AUTO 25011KT 9999 SCT019 BKN025 15/11 Q1010,EGLC,2023-04-28T10:20:00Z,51.5,0.05,15.0,11.0,250,11,,6.21,29.822834,,,TRUE,,,,,,,,SCT,1900,BKN,2500,,,,,MVFR,,,,,,,,,,,,METAR,10.0
EGKK 281020Z 27012KT 8000 -DZ SCT008 BKN011 14/12 Q1011,EGKK,2023-04-28T10:20:00Z,51.13,-0.18,14.0,12.0,270,12,,4.97,29.852362,,,,,,,,,,-DZ,SCT,800,BKN,1100,,,,,MVFR,,,,,,,,,,,,METAR,58.0
EGKB 281020Z 26010KT 230V290 9999 VCSH BKN010 12/11 Q1011,EGKB,2023-04-28T10:20:00Z,51.32,0.02,12.0,11.0,260,10,,6.21,29.852362,,,,,,,,,,VCSH,BKN,1000,,,,,,,MVFR,,,,,,,,,,,,METAR,183.0
EGKA 281020Z 23007KT 200V270 6000 SCT006 BKN008 12/12 Q1012,EGKA,2023-04-28T10:20:00Z,50.83,-0.3,12.0,12.0,230,7,,3.73,29.88189,,,,,,,,,,,SCT,600,BKN,800,,,,,IFR,,,,,,,,,,,,METAR,2.0
EGJJ 281020Z 27011KT 9000 3000NW VCFG FEW000 SCT001 BKN002 12/12 Q1015,EGJJ,2023-04-28T10:20:00Z,49.22,-2.2,12.0,12.0,270,11,,5.59,29.970472,,,,,,,,,,VCFG,FEW,0,SCT,100,BKN,200,,,LIFR,,,,,,,,,,,,METAR,84.0
EGJB 281020Z 28013KT 9999 FEW001 BKN003 11/11 Q1015,EGJB,2023-04-28T10:20:00Z,49.42,-2.6,11.0,11.0,280,13,,6.21,29.970472,,,,,,,,,,,FEW,100,BKN,300,,,,,LIFR,,,,,,,,,,,,METAR,102.0
EGJA 281020Z 29011KT 260V320 8000 1000W R26/P1200 VCFG SCT002 BKN003 11/11 Q1014,EGJA,2023-04-28T10:20:00Z,49.72,-2.2,11.0,11.0,290,11,,4.97,29.940945,,,,,,,,,,VCFG,SCT,200,BKN,300,,,,,LIFR,,,,,,,,,,,,METAR,83.0
EGHQ 281020Z 31007KT 280V340 9999 BKN007 11/11 Q1015,EGHQ,2023-04-28T10:20:00Z,50.43,-5.0,11.0,11.0,310,7,,6.21,29.970472,,,,,,,,,,,BKN,700,,,,,,,IFR,,,,,,,,,,,,METAR,101.0
EGHI 281020Z 26010KT 230V300 9999 FEW015 BKN024 15/10 Q1012,EGHI,2023-04-28T10:20:00Z,50.95,-1.35,15.0,10.0,260,10,,6.21,29.88189,,,,,,,,,,,FEW,1500,BKN,2400,,,,,MVFR,,,,,,,,,,,,METAR,13.0
EGHH 281020Z 29012KT 260V330 9999 BKN025 15/11 Q1012,EGHH,2023-04-28T10:20:00Z,50.78,-1.83,15.0,11.0,290,12,,6.21,29.88189,,,,,,,,,,,BKN,2500,,,,,,,MVFR,,,,,,,,,,,,METAR,9.0
EGHE 281020Z 26006KT 220V290 2500 VCFG BR SCT000 BKN002 13/12 Q1015,EGHE,2023-04-28T10:20:00Z,49.92,-6.28,13.0,12.0,260,6,,1.55,29.970472,,,,,,,,,,VCFG BR,SCT,0,BKN,200,,,,,LIFR,,,,,,,,,,,,METAR,31.0
EGHC 281020Z 30009KT 0300 FG VV/// 11/10 Q1015,EGHC,2023-04-28T10:20:00Z,50.1,-5.67,11.0,10.0,300,9,,0.19,29.970472,,,,,,,,,,FG,OVX,0,,,,,,,LIFR,,,,,,,,,,,,METAR,117.0
EGGW 281020Z 27012KT 9999 BKN009 BKN020 13/12 Q1010,EGGW,2023-04-28T10:20:00Z,51.87,-0.37,13.0,12.0,270,12,,6.21,29.822834,,,,,,,,,,,BKN,900,BKN,2000,,,,,IFR,,,,,,,,,,,,METAR,159.0
EGGP 281020Z 30008KT 280V340 9999 BKN013 11/08 Q1012,EGGP,2023-04-28T10:20:00Z,53.33,-2.85,11.0,8.0,300,8,,6.21,29.88189,,,,,,,,,,,BKN,1300,,,,,,,MVFR,,,,,,,,,,,,METAR,23.0
EGGD 281020Z AUTO 27013KT 9999 OVC004 13/12 Q1012,EGGD,2023-04-28T10:20:00Z,51.37,-2.72,13.0,12.0,270,13,,6.21,29.88189,,,TRUE,,,,,,,,OVC,400,,,,,,,LIFR,,,,,,,,,,,,METAR,182.0
EGFF 281020Z 28012KT 9999 BKN006 OVC033 13/12 Q1013,EGFF,2023-04-28T10:20:00Z,51.38,-3.35,13.0,12.0,280,12,,6.21,29.911417,,,,,,,,,,,BKN,600,OVC,3300,,,,,IFR,,,,,,,,,,,,METAR,65.0
EGEO 281020Z 07004KT 9999 BKN014 OVC020 10/08 Q1011,EGEO,2023-04-28T10:20:00Z,56.47,-5.4,10.0,8.0,70,4,,6.21,29.852362,,,,,,,,,,,BKN,1400,OVC,2000,,,,,MVFR,,,,,,,,,,,,METAR,5.0
EGEC 281020Z VRB02KT 1300 RADZ BR OVC003 10/10 Q1011,EGEC,2023-04-28T10:20:00Z,55.43,-5.68,10.0,10.0,0,2,,0.81,29.852362,,,,,,,,,,RA DZ BR,OVC,300,,,,,,,LIFR,,,,,,,,,,,,METAR,10.0
EGDY 281020Z 30012KT 9999 FEW012 BKN020 14/10 Q1013 NOSIG RMK WHT WHT,EGDY,2023-04-28T10:20:00Z,51.0,-2.63,14.0,10.0,300,12,,6.21,29.911417,,,,,,TRUE,,,,,FEW,1200,BKN,2000,,,,,MVFR,,,,,,,,,,,,METAR,21.0
EGDR 281020Z 32006KT 8000 FEW004 SCT008 BKN010 OVC012 12/11 Q1014 RMK GRN,EGDR,2023-04-28T10:20:00Z,50.08,-5.25,12.0,11.0,320,6,,4.97,29.940945,,,,,,,,,,,FEW,400,SCT,800,BKN,1000,OVC,1200,MVFR,,,,,,,,,,,,METAR,74.0
EGDM 281020Z 28011KT 9999 SCT015 BKN028 15/12 Q1011 NOSIG RMK WHT WHT,EGDM,2023-04-28T10:20:00Z,51.17,-1.75,15.0,12.0,280,11,,6.21,29.852362,,,,,,TRUE,,,,,SCT,1500,BKN,2800,,,,,MVFR,,,,,,,,,,,,METAR,122.0
EGCK 281020Z 25007KT 9000 SCT017 BKN029 12/10 Q1012,EGCK,2023-04-28T10:20:00Z,53.1,-4.33,12.0,10.0,250,7,,5.59,29.88189,,,,,,,,,,,SCT,1700,BKN,2900,,,,,MVFR,,,,,,,,,,,,METAR,6.0
EGCC 281020Z 29006KT 9000 BKN009 OVC012 10/08 Q1011,EGCC,2023-04-28T10:20:00Z,53.35,-2.27,10.0,8.0,290,6,,5.59,29.852362,,,,,,,,,,,BKN,900,OVC,1200,,,,,IFR,,,,,,,,,,,,METAR,78.0
EGBJ 281020Z 29005KT 260V320 9999 SCT012 BKN018 16/11 Q1011,EGBJ,2023-04-28T10:20:00Z,51.9,-2.17,16.0,11.0,290,5,,6.21,29.852362,,,,,,,,,,,SCT,1200,BKN,1800,,,,,MVFR,,,,,,,,,,,,METAR,27.0
EGBB 281020Z 31008KT 9999 BKN013 12/09 Q1011,EGBB,2023-04-28T10:20:00Z,52.47,-1.75,12.0,9.0,310,8,,6.21,29.852362,,,,,,,,,,,BKN,1300,,,,,,,MVFR,,,,,,,,,,,,METAR,91.0
EGAE 281020Z 23006KT 200V260 9999 BKN014 16/13 Q1011,EGAE,2023-04-28T10:20:00Z,55.03,-7.15,16.0,13.0,230,6,,6.21,29.852362,,,,,,,,,,,BKN,1400,,,,,,,MVFR,,,,,,,,,,,,METAR,9.0
EGAC 281020Z AUTO 21005KT 180V240 9999 FEW015 OVC033 13/10 Q1011,EGAC,2023-04-28T10:20:00Z,54.62,-5.87,13.0,10.0,210,5,,6.21,29.852362,,,TRUE,,,,,,,,FEW,1500,OVC,3300,,,,,VFR,,,,,,,,,,,,METAR,2.0
EGAA 281020Z AUTO 24005KT 7000 SCT007 BKN010 12/10 Q1011,EGAA,2023-04-28T10:20:00Z,54.65,-6.22,12.0,10.0,240,5,,4.35,29.852362,,,TRUE,,,,,,,,SCT,700,BKN,1000,,,,,MVFR,,,,,,,,,,,,METAR,65.0
EFVA 281020Z AUTO 17005KT 120V200 9999 VCSH FEW021 //////CB 07/M01 Q1012,EFVA,2023-04-28T10:20:00Z,63.05,21.77,7.0,-1.0,170,5,,6.21,29.88189,,,TRUE,,,,,,,VCSH,FEW,2100,,,,,,,VFR,,,,,,,,,,,,METAR,4.0
EFUT 281020Z 22007KT 200V260 9999 SCT045 08/M03 Q1013,EFUT,2023-04-28T10:20:00Z,60.88,26.93,8.0,-3.0,220,7,,6.21,29.911417,,,,,,,,,,,SCT,4500,,,,,,,VFR,,,,,,,,,,,,METAR,104.0
EFTU 281020Z AUTO 12009KT 100V160 9999 VCSH BKN034 //////CB 07/M01 Q1012,EFTU,2023-04-28T10:20:00Z,60.52,22.27,7.0,-1.0,120,9,,6.21,29.88189,,,TRUE,,,,,,,VCSH,BKN,3400,,,,,,,VFR,,,,,,,,,,,,METAR,47.0
EFTP 281020Z 02004KT 320V100 9999 SCT034 FEW036TCU 06/M01 Q1012,EFTP,2023-04-28T10:20:00Z,61.42,23.62,6.0,-1.0,20,4,,6.21,29.88189,,,,,,,,,,,SCT,3400,FEW,3600,,,,,VFR,,,,,,,,,,,,METAR,111.0
EFSI 281020Z AUTO 10006KT 040V150 9999 FEW014 06/02 Q1012,EFSI,2023-04-28T10:20:00Z,62.7,22.83,6.0,2.0,100,6,,6.21,29.88189,,,TRUE,,,,,,,,FEW,1400,,,,,,,VFR,,,,,,,,,,,,METAR,90.0
EFSA 281020Z 30007KT 9999 BKN012 05/02 Q1013,EFSA,2023-04-28T10:20:00Z,61.95,28.93,5.0,2.0,300,7,,6.21,29.911417,,,,,,,,,,,BKN,1200,,,,,,,MVFR,,,,,,,,,,,,METAR,90.0
EFRO 281020Z 09013KT CAVOK 06/M03 Q1013,EFRO,2023-04-28T10:20:00Z,66.57,25.82,6.0,-3.0,90,13,,6.21,29.911417,,,,,,,,,,,CAVOK,,,,,,,,VFR,,,,,,,,,,,,METAR,201.0
EFPO 281020Z AUTO 30005KT 230V360 9999 SCT035 07/M02 Q1012,EFPO,2023-04-28T10:20:00Z,61.47,21.8,7.0,-2.0,300,5,,6.21,29.88189,,,TRUE,,,,,,,,SCT,3500,,,,,,,VFR,,,,,,,,,,,,METAR,10.0
EFOU 281020Z AUTO 00000KT 4800 -SN BKN002 OVC020 01/00 Q1013,EFOU,2023-04-28T10:20:00Z,64.92,25.37,1.0,0.0,0,0,,2.98,29.911417,,,TRUE,,,,,,,-SN,BKN,200,OVC,2000,,,,,LIFR,,,,,,,,,,,,METAR,15.0
EFMI 281020Z AUTO 23005KT 180V290 9999 FEW020 SCT022 07/01 Q1013,EFMI,2023-04-28T10:20:00Z,61.68,27.2,7.0,1.0,230,5,,6.21,29.911417,,,TRUE,,,,,,,,FEW,2000,SCT,2200,,,,,VFR,,,,,,,,,,,,METAR,99.0
EFMA 281020Z AUTO 29007KT 240V320 9999 VCSH OVC014 //////CB 05/02 Q1013,EFMA,2023-04-28T10:20:00Z,60.12,19.9,5.0,2.0,290,7,,6.21,29.911417,,,TRUE,,,,,,,VCSH,OVC,1400,,,,,,,MVFR,,,,,,,,,,,,METAR,6.0
EFLP 281020Z AUTO 23009KT 190V250 9999 BKN042 08/M04 Q1013,EFLP,2023-04-28T10:20:00Z,61.03,28.15,8.0,-4.0,230,9,,6.21,29.911417,,,TRUE,,,,,,,,BKN,4200,,,,,,,VFR,,,,,,,,,,,,METAR,102.0
EFKU 281020Z 28007KT 9999 OVC011 04/01 Q1012,EFKU,2023-04-28T10:20:00Z,63.02,27.8,4.0,1.0,280,7,,6.21,29.88189,,,,,,,,,,,OVC,1100,,,,,,,MVFR,,,,,,,,,,,,METAR,92.0
EFKT 281020Z AUTO 10009KT 070V130 CAVOK 04/M03 Q1014,EFKT,2023-04-28T10:20:00Z,67.7,24.85,4.0,-3.0,100,9,,6.21,29.940945,,,TRUE,,,,,,,,CAVOK,,,,,,,,VFR,,,,,,,,,,,,METAR,190.0
EFKS 281020Z AUTO 09012KT 060V130 CAVOK 03/M03 Q1014,EFKS,2023-04-28T10:20:00Z,66.0,29.23,3.0,-3.0,90,12,,6.21,29.940945,,,TRUE,,,,,,,,CAVOK,,,,,,,,VFR,,,,,,,,,,,,METAR,270.0
EFKK 281020Z AUTO VRB02KT 9999 -SHRA SCT022 06/01 Q1013,EFKK,2023-04-28T10:20:00Z,63.72,23.13,6.0,1.0,0,2,,6.21,29.911417,,,TRUE,,,,,,,-SHRA,SCT,2200,,,,,,,VFR,,,,,,,,,,,,METAR,25.0
EFKI 281020Z AUTO 11004KT 070V140 9999 -RA OVC007 03/02 Q1011,EFKI,2023-04-28T10:20:00Z,64.27,27.67,3.0,2.0,110,4,,6.21,29.852362,,,TRUE,,,,,,,-RA,OVC,700,,,,,,,IFR,,,,,,,,,,,,METAR,132.0
EFKE 281020Z 11005KT 090V150 7000 -SNRA OVC005 01/01 Q1012,EFKE,2023-04-28T10:20:00Z,65.78,24.57,1.0,1.0,110,5,,4.35,29.88189,,,,,,,,,,-SN -RA,OVC,500,,,,,,,IFR,,,,,,,,,,,,METAR,15.0
EFJY 281020Z AUTO 28004KT 250V340 9999 BKN021 BKN023 06/00 Q1013,EFJY,2023-04-28T10:20:00Z,62.4,25.68,6.0,0.0,280,4,,6.21,29.911417,,,TRUE,,,,,,,,BKN,2100,BKN,2300,,,,,MVFR,,,,,,,,,,,,METAR,139.0
EFJO 281020Z AUTO 28006KT 9999 -SNRA OVC003 01/01 Q1012,EFJO,2023-04-28T10:20:00Z,62.67,29.62,1.0,1.0,280,6,,6.21,29.88189,,,TRUE,,,,,,,-SN -RA,OVC,300,,,,,,,LIFR,,,,,,,,,,,,METAR,118.0
EFIV 281020Z AUTO 12010KT 090V150 CAVOK 06/M04 Q1017,EFIV,2023-04-28T10:20:00Z,68.62,27.42,6.0,-4.0,120,10,,6.21,30.029528,,,TRUE,,,,,,,,CAVOK,,,,,,,,VFR,,,,,,,,,,,,METAR,145.0
EFHK 281020Z 17009KT 120V210 9999 VCSH FEW034TCU BKN040 09/M01 Q1013 NOSIG,EFHK,2023-04-28T10:20:00Z,60.32,24.97,9.0,-1.0,170,9,,6.21,29.911417,,,,,,TRUE,,,,VCSH,FEW,3400,BKN,4000,,,,,VFR,,,,,,,,,,,,METAR,56.0
EFHA 281020Z 15008KT 9999 FEW020 06/M03 Q1012,EFHA,2023-04-28T10:20:00Z,61.85,24.8,6.0,-3.0,150,8,,6.21,29.88189,,,,,,,,,,,FEW,2000,,,,,,,VFR,,,,,,,,,,,,METAR,144.0
EFET 281020Z AUTO 09006KT 040V150 9999 BKN047 03/M03 Q1014,EFET,2023-04-28T10:20:00Z,68.37,23.43,3.0,-3.0,90,6,,6.21,29.940945,,,TRUE,,,,,,,,BKN,4700,,,,,,,VFR,,,,,,,,,,,,METAR,300.0
EETU 281020Z AUTO 21009KT 190V250 9999 FEW040/// OVC066/// 08/M00 Q1015,EETU,2023-04-28T10:20:00Z,58.32,26.68,8.0,0.0,210,9,,6.21,29.970472,,,TRUE,,,,,,,,FEW,4000,OVC,6600,,,,,VFR,,,,,,,,,,,,METAR,67.0
EETN 281020Z 29009KT 250V340 9999 VCSH SCT025CB BKN046 09/M01 Q1013 TEMPO 5000 SHRA,EETN,2023-04-28T10:20:00Z,59.4,24.82,9.0,-1.0,290,9,,6.21,29.911417,,,,,,,,,,VCSH,SCT,2500,BKN,4600,,,,,VFR,,,,,,,,,,,,METAR,41.0
EEPU 281020Z AUTO 21014KT 9999 FEW014/// BKN059/// 07/03 Q1015,EEPU,2023-04-28T10:20:00Z,58.42,24.47,7.0,3.0,210,14,,6.21,29.970472,,,TRUE,,,,,,,,FEW,1400,BKN,5900,,,,,VFR,,,,,,,,,,,,METAR,13.0
EEKE 281020Z 23011KT 190V260 9999 SCT040CB 09/03 Q1015,EEKE,2023-04-28T10:20:00Z,58.23,22.52,9.0,3.0,230,11,,6.21,29.970472,,,,,,,,,,,SCT,4000,,,,,,,VFR,,,,,,,,,,,,METAR,4.0
EDXW 281020Z 11014KT CAVOK 12/03 Q1014,EDXW,2023-04-28T10:20:00Z,54.92,8.33,12.0,3.0,110,14,,6.21,29.940945,,,,,,,,,,,CAVOK,,,,,,,,VFR,,,,,,,,,,,,METAR,8.0
EDWE 281020Z 10008KT 9999 FEW049 10/04 Q1011,EDWE,2023-04-28T10:20:00Z,53.38,7.23,10.0,4.0,100,8,,6.21,29.852362,,,,,,,,,,,FEW,4900,,,,,,,VFR,,,,,,,,,,,,METAR,0.0
EDVK 281020Z 15009KT 9999 -RA FEW021 OVC027 10/07 Q1012,EDVK,2023-04-28T10:20:00Z,51.4,9.37,10.0,7.0,150,9,,6.21,29.88189,,,,,,,,,,-RA,FEW,2100,OVC,2700,,,,,MVFR,,,,,,,,,,,,METAR,277.0
EDVE 281020Z 11009KT CAVOK 13/03 Q1013,EDVE,2023-04-28T10:20:00Z,52.32,10.55,13.0,3.0,110,9,,6.21,29.911417,,,,,,,,,,,CAVOK,,,,,,,,VFR,,,,,,,,,,,,METAR,83.0
EDTY 281020Z 22007KT 190V250 8000 -RA FEW005 BKN007 OVC016 12/11 Q1013 RERA,EDTY,2023-04-28T10:20:00Z,49.12,9.78,12.0,11.0,220,7,,4.97,29.911417,,,,,,,,,,-RA,FEW,500,BKN,700,OVC,1600,,,IFR,,,,,,,,,,,,METAR,398.0
EDTL 281020Z 18009KT 9999 FEW012 BKN046 15/14 Q1015,EDTL,2023-04-28T10:20:00Z,48.37,7.83,15.0,14.0,180,9,,6.21,29.970472,,,,,,,,,,,FEW,1200,BKN,4600,,,,,VFR,,,,,,,,,,,,METAR,152.0
EDSB 281020Z 19013KT 9999 -RA FEW008 BKN026 16/14 Q1013,EDSB,2023-04-28T10:20:00Z,48.78,8.08,16.0,14.0,190,13,,6.21,29.911417,,,,,,,,,,-RA,FEW,800,BKN,2600,,,,,MVFR,,,,,,,,,,,,METAR,122.0
EDQM 281020Z 13005KT 080V160 9999 -RA BKN015 OVC036 07/06 Q1014,EDQM,2023-04-28T10:20:00Z,50.3,11.85,7.0,6.0,130,5,,6.21,29.940945,,,,,,,,,,-RA,BKN,1500,OVC,3600,,,,,MVFR,,,,,,,,,,,,METAR,578.0
EDNY 281020Z 15007KT 120V190 5000 RA FEW011 BKN014 OVC016 11/11 Q1016 RMK/ATISM,EDNY,2023-04-28T10:20:00Z,47.67,9.52,11.0,11.0,150,7,,3.11,30.0,,,,,,,,,,RA,FEW,1100,BKN,1400,OVC,1600,,,MVFR,,,,,,,,,,,,METAR,411.0
EDMO 281020Z 22010KT 5000 RA FEW016 BKN023 OVC028 11/10 Q1015,EDMO,2023-04-28T10:20:00Z,48.07,11.27,11.0,10.0,220,10,,3.11,29.970472,,,,,,,,,,RA,FEW,1600,BKN,2300,OVC,2800,,,MVFR,,,,,,,,,,,,METAR,587.0
EDMA 281020Z 24008KT 6000 -RA BKN009 OVC016 12/11 Q1014,EDMA,2023-04-28T10:20:00Z,48.42,10.92,12.0,11.0,240,8,,3.73,29.940945,,,,,,,,,,-RA,BKN,900,OVC,1600,,,,,IFR,,,,,,,,,,,,METAR,462.0
EDLW 281020Z 18012KT 9999 BKN018 14/10 Q1010,EDLW,2023-04-28T10:20:00Z,51.52,7.62,14.0,10.0,180,12,,6.21,29.822834,,,,,,,,,,,BKN,1800,,,,,,,MVFR,,,,,,,,,,,,METAR,122.0
EDLV 281020Z 19007KT 160V230 5000 BR OVC007 13/12 Q1010,EDLV,2023-04-28T10:20:00Z,51.6,6.15,13.0,12.0,190,7,,3.11,29.822834,,,,,,,,,,BR,OVC,700,,,,,,,IFR,,,,,,,,,,,,METAR,27.0
EDLP 281020Z 15011KT 9999 OVC024 13/08 Q1011,EDLP,2023-04-28T10:20:00Z,51.62,8.62,13.0,8.0,150,11,,6.21,29.852362,,,,,,,,,,,OVC,2400,,,,,,,MVFR,,,,,,,,,,,,METAR,211.0
EDLN 281020Z 17005KT 090V210 4500 BR OVC006 14/12 Q1010,EDLN,2023-04-28T10:20:00Z,51.23,6.5,14.0,12.0,170,5,,2.8,29.822834,,,,,,,,,,BR,OVC,600,,,,,,,IFR,,,,,,,,,,,,METAR,38.0
EDJA 281020Z 23017KT 9999 -RA SCT007 BKN031 OVC038 12/10 Q1015 RERA,EDJA,2023-04-28T10:20:00Z,47.98,10.23,12.0,10.0,230,17,,6.21,29.970472,,,,,,,,,,-RA,SCT,700,BKN,3100,OVC,3800,,,VFR,,,,,,,,,,,,METAR,625.0
EDHL 281020Z 12007KT 070V170 CAVOK 14/02 Q1015,EDHL,2023-04-28T10:20:00Z,53.8,10.72,14.0,2.0,120,7,,6.21,29.970472,,,,,,,,,,,CAVOK,,,,,,,,VFR,,,,,,,,,,,,METAR,13.0
EDHK 281020Z 12010KT CAVOK 11/M02 Q1015,EDHK,2023-04-28T10:20:00Z,54.38,10.15,11.0,-2.0,120,10,,6.21,29.970472,,,,,,,,,,,CAVOK,,,,,,,,VFR,,,,,,,,,,,,METAR,24.0
EDHI 281020Z 09010KT 060V150 CAVOK 13/03 Q1013,EDHI,2023-04-28T10:20:00Z,53.53,9.83,13.0,3.0,90,10,,6.21,29.911417,,,,,,,,,,,CAVOK,,,,,,,,VFR,,,,,,,,,,,,METAR,5.0
EDGS 281020Z 23005KT 180V280 2500 1000E R13/P2000N BR OVC002 10/09 Q1011,EDGS,2023-04-28T10:20:00Z,50.7,8.08,10.0,9.0,230,5,,1.55,29.852362,,,,,,,,,,BR,OVC,200,,,,,,,LIFR,,,,,,,,,,,,METAR,595.0
EDFM 281020Z 18004KT 140V220 8000 SCT007 OVC019 14/13 Q1013,EDFM,2023-04-28T10:20:00Z,49.47,8.52,14.0,13.0,180,4,,4.97,29.911417,,,,,,,,,,,SCT,700,OVC,1900,,,,,MVFR,,,,,,,,,,,,SPECI,94.0
EDFH 281020Z 28008KT 250V310 9999 BKN006 OVC009 13/12 Q1012,EDFH,2023-04-28T10:20:00Z,49.95,7.27,13.0,12.0,280,8,,6.21,29.88189,,,,,,,,,,,BKN,600,OVC,900,,,,,IFR,,,,,,,,,,,,METAR,494.0
EDDW 281020Z AUTO 13009KT 100V160 9999 -RA SCT038 12/04 Q1012 NOSIG,EDDW,2023-04-28T10:20:00Z,53.03,8.8,12.0,4.0,130,9,,6.21,29.88189,,,TRUE,,,TRUE,,,,-RA,SCT,3800,,,,,,,VFR,,,,,,,,,,,,METAR,5.0
EDDV 281020Z AUTO 14006KT 110V200 CAVOK 13/03 Q1012 NOSIG,EDDV,2023-04-28T10:20:00Z,52.47,9.68,13.0,3.0,140,6,,6.21,29.88189,,,TRUE,,,TRUE,,,,,CAVOK,,,,,,,,VFR,,,,,,,,,,,,METAR,53.0
EDDS 281020Z AUTO 24006KT 140V310 9999 SCT021 BKN037 15/13 Q1013 NOSIG,EDDS,2023-04-28T10:20:00Z,48.68,9.22,15.0,13.0,240,6,,6.21,29.911417,,,TRUE,,,TRUE,,,,,SCT,2100,BKN,3700,,,,,VFR,,,,,,,,,,,,METAR,374.0
EDDR 281020Z AUTO 25012KT 210V280 9999 -DZ FEW006 BKN010 BKN017 15/14 Q1013 RERA BECMG SCT010 BKN015,EDDR,2023-04-28T10:20:00Z,49.22,7.1,15.0,14.0,250,12,,6.21,29.911417,,,TRUE,,,,,,,-DZ,FEW,600,BKN,1000,BKN,1700,,,MVFR,,,,,,,,,,,,METAR,317.0
EDDP 281020Z AUTO 16009KT 9999 -RA NSC 11/07 Q1014 NOSIG,EDDP,2023-04-28T10:20:00Z,51.43,12.23,11.0,7.0,160,9,,6.21,29.940945,,,TRUE,,,TRUE,,,,-RA,CLR,,,,,,,,VFR,,,,,,,,,,,,METAR,129.0
EDDN 281020Z AUTO 13008KT 9999 -RADZ BKN008 BKN015 OVC033 11/10 Q1013 TEMPO SCT008 BKN015,EDDN,2023-04-28T10:20:00Z,49.5,11.05,11.0,10.0,130,8,,6.21,29.911417,,,TRUE,,,,,,,-RA -DZ,BKN,800,BKN,1500,OVC,3300,,,IFR,,,,,,,,,,,,METAR,312.0
EDDM 281020Z AUTO 19008KT 160V220 9000 RA BKN019 BKN023 11/10 Q1015 TEMPO 4000,EDDM,2023-04-28T10:20:00Z,48.35,11.82,11.0,10.0,190,8,,5.59,29.970472,,,TRUE,,,,,,,RA,BKN,1900,BKN,2300,,,,,MVFR,,,,,,,,,,,,METAR,445.0
EDDL 281020Z AUTO 16009KT 9999 OVC010 13/11 Q1011 BECMG 24010KT BKN009,EDDL,2023-04-28T10:20:00Z,51.3,6.77,13.0,11.0,160,9,,6.21,29.852362,,,TRUE,,,,,,,,OVC,1000,,,,,,,MVFR,,,,,,,,,,,,METAR,37.0
EDDK 281020Z AUTO 14004KT 110V170 9999 -SHRA BKN017 FEW///TCU 13/12 Q1011 BECMG 24008KT BKN012,EDDK,2023-04-28T10:20:00Z,50.87,7.15,13.0,12.0,140,4,,6.21,29.852362,,,TRUE,,,,,,,-SHRA,BKN,1700,,,,,,,MVFR,,,,,,,,,,,,METAR,92.0
EDDH 281020Z AUTO 12013KT 090V150 CAVOK 12/02 Q1014 NOSIG,EDDH,2023-04-28T10:20:00Z,53.63,10.0,12.0,2.0,120,13,,6.21,29.940945,,,TRUE,,,TRUE,,,,,CAVOK,,,,,,,,VFR,,,,,,,,,,,,METAR,8.0
EDDG 281020Z AUTO 14006KT 080V170 9999 FEW020 BKN032 14/09 Q1011 NOSIG,EDDG,2023-04-28T10:20:00Z,52.13,7.7,14.0,9.0,140,6,,6.21,29.852362,,,TRUE,,,TRUE,,,,,FEW,2000,BKN,3200,,,,,VFR,,,,,,,,,,,,METAR,46.0
EDDF 281020Z AUTO VRB02KT 9999 BKN007 OVC018 13/11 Q1013 BECMG SCT008 BKN020,EDDF,2023-04-28T10:20:00Z,50.05,8.6,13.0,11.0,0,2,,6.21,29.911417,,,TRUE,,,,,,,,BKN,700,OVC,1800,,,,,IFR,,,,,,,,,,,,METAR,113.0
EDDE 281020Z AUTO VRB02KT 9999 BKN038 OVC046 09/08 Q1013 NOSIG,EDDE,2023-04-28T10:20:00Z,50.98,10.97,9.0,8.0,0,2,,6.21,29.911417,,,TRUE,,,TRUE,,,,,BKN,3800,OVC,4600,,,,,VFR,,,,,,,,,,,,METAR,314.0
EDDC 281020Z AUTO 17007KT 130V210 CAVOK 14/04 Q1015 NOSIG,EDDC,2023-04-28T10:20:00Z,51.13,13.75,14.0,4.0,170,7,,6.21,29.970472,,,TRUE,,,TRUE,,,,,CAVOK,,,,,,,,VFR,,,,,,,,,,,,METAR,227.0
EDDB 281020Z AUTO 13011KT 090V150 CAVOK 14/03 Q1015 NOSIG,EDDB,2023-04-28T10:20:00Z,52.38,13.53,14.0,3.0,130,11,,6.21,29.970472,,,TRUE,,,TRUE,,,,,CAVOK,,,,,,,,VFR,,,,,,,,,,,,METAR,48.0
EDBC 281020Z 13009KT CAVOK 10/04 Q1013,EDBC,2023-04-28T10:20:00Z,51.85,11.42,10.0,4.0,130,9,,6.21,29.911417,,,,,,,,,,,CAVOK,,,,,,,,VFR,,,,,,,,,,,,METAR,178.0
EDAH 281020Z 14007KT CAVOK 13/M01 Q1017,EDAH,2023-04-28T10:20:00Z,53.87,14.15,13.0,-1.0,140,7,,6.21,30.029528,,,,,,,,,,,CAVOK,,,,,,,,VFR,,,,,,,,,,,,METAR,22.0
EDAC 281020Z 22006KT 9999 -RA FEW044 12/07 Q1014,EDAC,2023-04-28T10:20:00Z,50.98,12.5,12.0,7.0,220,6,,6.21,29.940945,,,,,,,,,,-RA,FEW,4400,,,,,,,VFR,,,,,,,,,,,,METAR,193.0
EBOS 281020Z 26015KT 9999 FEW005 SCT008 BKN018 13/11 Q1011 TEMPO 26016G26KT BKN008 BKN018,EBOS,2023-04-28T10:20:00Z,51.2,2.87,13.0,11.0,260,15,,6.21,29.852362,,,,,,,,,,,FEW,500,SCT,800,BKN,1800,,,MVFR,,,,,,,,,,,,METAR,5.0
EBLG 281020Z 27009KT 9999 SCT014 BKN024 16/13 Q1011 NOSIG,EBLG,2023-04-28T10:20:00Z,50.63,5.45,16.0,13.0,270,9,,6.21,29.852362,,,,,,TRUE,,,,,SCT,1400,BKN,2400,,,,,MVFR,,,,,,,,,,,,METAR,187.0
EBCI 281020Z 25012KT 230V290 9999 SCT015 16/13 Q1011 NOSIG,EBCI,2023-04-28T10:20:00Z,50.47,4.45,16.0,13.0,250,12,,6.21,29.852362,,,,,,TRUE,,,,,SCT,1500,,,,,,,VFR,,,,,,,,,,,,METAR,176.0
EBBR 281020Z 24014KT 9999 BKN025 16/12 Q1011 NOSIG,EBBR,2023-04-28T10:20:00Z,50.9,4.52,16.0,12.0,240,14,,6.21,29.852362,,,,,,TRUE,,,,,BKN,2500,,,,,,,MVFR,,,,,,,,,,,,METAR,49.0
EBAW 281020Z 25013KT 9999 FEW013 BKN016 14/11 Q1010 TEMPO BKN012,EBAW,2023-04-28T10:20:00Z,51.2,4.47,14.0,11.0,250,13,,6.21,29.822834,,,,,,,,,,,FEW,1300,BKN,1600,,,,,MVFR,,,,,,,,,,,,METAR,7.0
PFSH 281019Z AUTO 01013KT 10SM BKN028 OVC042 M06/M07 A2966 RMK AO2 FZRANO,PFSH,2023-04-28T10:19:00Z,64.37,-161.22,-6.0,-7.0,10,13,,10.0,29.660433,,,TRUE,TRUE,,,,TRUE,,,BKN,2800,OVC,4200,,,,,MVFR,,,,,,,,,,,,METAR,6.0
KOLU 281019Z AUTO 31015G23KT 7SM RA BKN010 OVC060 09/09 A2983 RMK AO2 P0005,KOLU,2023-04-28T10:19:00Z,41.45,-97.33,9.0,9.0,310,15,23,7.0,29.828741,,,TRUE,TRUE,,,,,,RA,BKN,1000,OVC,6000,,,,,MVFR,,,,,,0.05,,,,,,METAR,438.0
KNY0 281019Z AUTO 07003KT 10SM OVC004 04/04 A3019 RMK AO2,KNY0,2023-04-28T10:19:00Z,42.98,-74.33,4.0,4.0,70,3,,10.0,30.188976,,,TRUE,TRUE,,,,,,,OVC,400,,,,,,,LIFR,,,,,,,,,,,,SPECI,266.0
KMTW 281019Z AUTO 34004KT 3SM BR CLR 00/00 A2989 RMK AO2 FZRANO,KMTW,2023-04-28T10:19:00Z,44.12,-87.67,0.0,0.0,340,4,,3.0,29.890747,,,TRUE,TRUE,,,,TRUE,,BR,CLR,,,,,,,,MVFR,,,,,,,,,,,,SPECI,197.0
KMRT 281019Z AUTO 08010KT 3SM OVC003 11/10 A2972 RMK AO1 P0003,KMRT,2023-04-28T10:19:00Z,40.22,-83.35,11.0,10.0,80,10,,3.0,29.719488,,,TRUE,TRUE,,,,,,,OVC,300,,,,,,,LIFR,,,,,,0.03,,,,,,METAR,302.0
KLWM 281019Z 00000KT M1/4SM FG VV002 04/03 A3025 RMK AO2 T00390033,KLWM,2023-04-28T10:19:00Z,42.72,-71.13,3.9,3.3,0,0,,0.25,30.250984,,,,TRUE,,,,,,FG,OVX,0,,,,,,,LIFR,,,,,,,,,,,200,SPECI,42.0
KJBR 281019Z AUTO 32004KT 7SM BKN009 OVC014 13/12 A2975 RMK AO2 CIG 007V012 T01330117 $,KJBR,2023-04-28T10:19:00Z,35.83,-90.65,13.3,11.7,320,4,,7.0,29.749016,,,TRUE,TRUE,TRUE,,,,,,BKN,900,OVC,1400,,,,,IFR,,,,,,,,,,,,SPECI,79.0
KIAD 281019Z 08012G18KT 6SM RA BR BKN009 BKN050 OVC075 12/11 A2997 RMK AO2 P0006 T01220111,KIAD,2023-04-28T10:19:00Z,38.93,-77.45,12.2,11.1,80,12,18,6.0,29.970472,,,,TRUE,,,,,,RA BR,BKN,900,BKN,5000,OVC,7500,,,IFR,,,,,,0.06,,,,,,SPECI,90.0
KFAM 281019Z AUTO 34004KT 5SM BR FEW005 OVC080 11/09 A2977 RMK AO2,KFAM,2023-04-28T10:19:00Z,37.77,-90.42,11.0,9.0,340,4,,5.0,29.769686,,,TRUE,TRUE,,,,,,BR,FEW,500,OVC,8000,,,,,MVFR,,,,,,,,,,,,METAR,276.0
KEYE 281019Z AUTO 35008KT 8SM BKN009 OVC040 09/07 A2972 RMK AO2 CIG 007V013 T00890072 $,KEYE,2023-04-28T10:19:00Z,39.83,-86.3,8.9,7.2,350,8,,8.0,29.719488,,,TRUE,TRUE,TRUE,,,,,,BKN,900,OVC,4000,,,,,IFR,,,,,,,,,,,,METAR,248.0
KCUL 281019Z AUTO 34004KT 5SM BR OVC007 12/11 A2972 RMK AO2,KCUL,2023-04-28T10:19:00Z,38.08,-88.12,12.0,11.0,340,4,,5.0,29.719488,,,TRUE,TRUE,,,,,,BR,OVC,700,,,,,,,IFR,,,,,,,,,,,,SPECI,116.0
KCEW 281019Z AUTO 00000KT 1/4SM FG VV007 19/17 A2979 RMK AO2 T01890167 $,KCEW,2023-04-28T10:19:00Z,30.78,-86.52,18.9,16.7,0,0,,0.25,29.790354,,,TRUE,TRUE,TRUE,,,,,FG,OVX,0,,,,,,,LIFR,,,,,,,,,,,700,SPECI,47.0
KCEF 281019Z AUTO 00000KT 3/8SM R23/3000V3500FT FG VV002 06/06 A3022 RMK AO2 SLP240,KCEF,2023-04-28T10:19:00Z,42.2,-72.52,6.0,6.0,0,0,,0.38,30.221457,1024.0,,TRUE,TRUE,,,,,,FG,OVX,0,,,,,,,LIFR,,,,,,,,,,,200,METAR,72.0
K2V6 281019Z AUTO 34016G21KT 10SM CLR 02/00 A3010 RMK AO2,K2V6,2023-04-28T10:19:00Z,40.1,-102.72,2.0,0.0,340,16,21,10.0,30.100393,,,TRUE,TRUE,,,,,,,CLR,,,,,,,,VFR,,,,,,,,,,,,SPECI,1257.0
CYER 281019Z AUTO 06003KT 9SM FEW005 OVC023 M02/M03 A3017 RMK SLP220,CYER,2023-04-28T10:19:00Z,56.02,-87.68,-2.0,-3.0,60,3,,9.0,30.171259,1022.0,,TRUE,,,,,,,,FEW,500,OVC,2300,,,,,MVFR,,,,,,,,,,,,SPECI,11.0
SKPE 281018Z 21003KT 8000 1500SW PRFG SCT003 BKN016 18/17 Q1018 RMK A3008,SKPE,2023-04-28T10:18:00Z,4.82,-75.73,18.0,17.0,210,3,,4.97,30.059055,,,,,,,,,,PRFG,SCT,300,BKN,1600,,,,,MVFR,,,,,,,,,,,,SPECI,1341.0
PAIL 281018Z AUTO 09003KT 3SM -SN BR BKN002 OVC020 00/M01 A2982 RMK AO2 SNB12 P0000 T00001006 TSNO $,PAIL,2023-04-28T10:18:00Z,59.75,-154.92,0.0,-0.6,90,3,,3.0,29.819881,,,TRUE,TRUE,TRUE,,TRUE,,,-SN BR,BKN,200,OVC,2000,,,,,LIFR,,,,,,0.005,,,,,,SPECI,44.0
PACZ 281018Z AUTO 22002KT 3SM -SN BKN017 BKN055 M04/M04 A2950 RMK AO2 SLP999,PACZ,2023-04-28T10:18:00Z,61.78,-166.03,-4.0,-4.0,220,2,,3.0,29.500984,999.9,,TRUE,TRUE,,,,,,-SN,BKN,1700,BKN,5500,,,,,MVFR,,,,,,,,,,,,SPECI,129.0
LTAW 281018Z 23012KT 9999 TS FEW025CB BKN030 12/09 Q1009 RMK RWY24 23012KT,LTAW,2023-04-28T10:18:00Z,40.3,36.37,12.0,9.0,230,12,,6.21,29.793306,,,,,,,,,,TS,FEW,2500,BKN,3000,,,,,MVFR,,,,,,,,,,,,SPECI,561.0
KTDR 281018Z AUTO 27007KT 6SM BR OVC019 22/22 A2973 RMK AO2 SLP071 $,KTDR,2023-04-28T10:18:00Z,30.05,-85.52,22.0,22.0,270,7,,6.0,29.731298,1007.1,,TRUE,TRUE,TRUE,,,,,BR,OVC,1900,,,,,,,MVFR,,,,,,,,,,,,SPECI,4.0
KTCC 281018Z AUTO 03023G34KT 10SM SCT027 OVC038 09/03 A2992 RMK AO2 PK WND 03036/1005 T00890033,KTCC,2023-04-28T10:18:00Z,35.18,-103.6,8.9,3.3,30,23,34,10.0,29.920275,,,TRUE,TRUE,,,,,,,SCT,2700,OVC,3800,,,,,VFR,,,,,,,,,,,,SPECI,1233.0
KESF 281018Z AUTO 00000KT 1 1/4SM -RA BR FEW004 12/12 A2979 RMK AO2 RAB16 P0000 T01170117,KESF,2023-04-28T10:18:00Z,31.4,-92.28,11.7,11.7,0,0,,1.25,29.790354,,,TRUE,TRUE,,,,,,-RA BR,FEW,400,,,,,,,IFR,,,,,,0.005,,,,,,SPECI,27.0
KAKH 281018Z AUTO 00000KT 1 3/4SM BR CLR 14/14 A2975 RMK AO2 T01440144,KAKH,2023-04-28T10:18:00Z,35.2,-81.15,14.4,14.4,0,0,,1.75,29.749016,,,TRUE,TRUE,,,,,,BR,CLR,,,,,,,,IFR,,,,,,,,,,,,METAR,242.0
KSAV 281017Z 24007KT 10SM SCT006 OVC021 18/17 A2980 RMK AO2 T01830167 $,KSAV,2023-04-28T10:17:00Z,32.12,-81.2,18.3,16.7,240,7,,10.0,29.799213,,,,TRUE,TRUE,,,,,,SCT,600,OVC,2100,,,,,MVFR,,,,,,,,,,,,SPECI,10.0
KMVN 281017Z AUTO VRB03KT 6SM BR BKN008 OVC043 11/11 A2974 RMK AO2,KMVN,2023-04-28T10:17:00Z,38.32,-88.87,11.0,11.0,0,3,,6.0,29.740158,,,TRUE,TRUE,,,,,,BR,BKN,800,OVC,4300,,,,,IFR,,,,,,,,,,,,SPECI,145.0
KHUF 281017Z 36008KT 7SM SCT011 BKN031 OVC049 10/08 A2974 RMK AO2 T01000083,KHUF,2023-04-28T10:17:00Z,39.45,-87.32,10.0,8.3,360,8,,7.0,29.740158,,,,TRUE,,,,,,,SCT,1100,BKN,3100,OVC,4900,,,VFR,,,,,,,,,,,,SPECI,174.0
KEUF 281017Z AUTO 00000KT 8SM FEW005 OVC014 19/19 A2979 RMK AO2 T01890189 $,KEUF,2023-04-28T10:17:00Z,31.95,-85.13,18.9,18.9,0,0,,8.0,29.790354,,,TRUE,TRUE,TRUE,,,,,,FEW,500,OVC,1400,,,,,MVFR,,,,,,,,,,,,METAR,87.0
CYQT 281017Z 04004KT 5SM BR FEW004 SCT018 BKN026 03/02 A2999 RMK ST1SC3SC3 SLP166,CYQT,2023-04-28T10:17:00Z,48.37,-89.32,3.0,2.0,40,4,,5.0,29.991142,1016.6,,,,,,,,,BR,FEW,400,SCT,1800,BKN,2600,,,MVFR,,,,,,,,,,,,SPECI,197.0
PATC 281016Z AUTO 03028KT 1/2SM -SN FG FEW031 SCT034 BKN060 BKN085 M12/M14 A2973 RMK AO2 PK WND 03033/1001 SLP077,PATC,2023-04-28T10:16:00Z,65.57,-167.92,-12.0,-14.0,30,28,,0.5,29.731298,1007.7,,TRUE,TRUE,,,,,,-SN FG,FEW,3100,SCT,3400,BKN,6000,BKN,8500,LIFR,,,,,,,,,,,,SPECI,77.0
KOQT 281016Z AUTO 00000KT 8SM BKN005 OVC012 14/14 A2974 RMK AO2 RAB0956E08 CIG 002V008 P0000 T01440139,KOQT,2023-04-28T10:16:00Z,36.02,-84.23,14.4,13.9,0,0,,8.0,29.740158,,,TRUE,TRUE,,,,,,,BKN,500,OVC,1200,,,,,IFR,,,,,,0.005,,,,,,SPECI,276.0
KNFE 281016Z AUTO 10010G17KT 4SM +RA FEW009 OVC025 16/13 A2989 RMK AO2 P0010 T01610133,KNFE,2023-04-28T10:16:00Z,36.7,-76.13,16.1,13.3,100,10,17,4.0,29.890747,,,TRUE,TRUE,,,,,,+RA,FEW,900,OVC,2500,,,,,MVFR,,,,,,0.1,,,,,,SPECI,4.0
KJRB 281016Z AUTO 03009KT 10SM FEW011 10/08 A3019 RMK AO2 PNO $,KJRB,2023-04-28T10:16:00Z,40.7,-74.02,10.0,8.0,30,9,,10.0,30.188976,,,TRUE,TRUE,TRUE,,,,,,FEW,1100,,,,,,,VFR,,,,,,,,,,,,SPECI,2.0
KCSG 281016Z AUTO 22005KT 5SM BR BKN005 OVC014 17/17 A2978 RMK AO2 T01720167,KCSG,2023-04-28T10:16:00Z,32.52,-84.95,17.2,16.7,220,5,,5.0,29.778543,,,TRUE,TRUE,,,,,,BR,BKN,500,OVC,1400,,,,,IFR,,,,,,,,,,,,SPECI,120.0
KBTP 281016Z AUTO 10009KT 10SM -RA BKN029 OVC040 13/10 A2989 RMK AO2 RAB0959 P0000 TSNO $,KBTP,2023-04-28T10:16:00Z,40.77,-79.95,13.0,10.0,100,9,,10.0,29.890747,,,TRUE,TRUE,TRUE,,TRUE,,,-RA,BKN,2900,OVC,4000,,,,,MVFR,,,,,,0.005,,,,,,SPECI,375.0
KBBB 281016Z AUTO 03009G14KT 10SM SCT009 OVC024 07/06 A2988 RMK AO2,KBBB,2023-04-28T10:16:00Z,45.32,-95.65,7.0,6.0,30,9,14,10.0,29.878937,,,TRUE,TRUE,,,,,,,SCT,900,OVC,2400,,,,,MVFR,,,,,,,,,,,,METAR,315.0
KAUM 281016Z AUTO 20006KT 10SM SCT080 SCT090 11/02 A2978 RMK AO2,KAUM,2023-04-28T10:16:00Z,43.67,-92.92,11.0,2.0,200,6,,10.0,29.778543,,,TRUE,TRUE,,,,,,,SCT,8000,SCT,9000,,,,,VFR,,,,,,,,,,,,SPECI,376.0
KAPS 281016Z AUTO 00000KT 2SM BR CLR 17/17 A2981 RMK AO2,KAPS,2023-04-28T10:16:00Z,30.08,-90.58,17.0,17.0,0,0,,2.0,29.811024,,,TRUE,TRUE,,,,,,BR,CLR,,,,,,,,IFR,,,,,,,,,,,,SPECI,1.0
K40B 281016Z AUTO 00000KT M02/M02 A3023 RMK AO1 SLP255 T10211018 52010 P0001,K40B,2023-04-28T10:16:00Z,46.62,-69.52,-2.1,-1.8,0,0,,,30.230314,1025.5,,TRUE,TRUE,,,,,,,,,,,,,,,,1.0,,,,,0.01,,,,,,SPECI,344.0
WBKK 281015Z 07011G21KT 010V120 1500 +TSRA FEW010 SCT013 FEW015CB 28/26 Q1006 NOSIG,WBKK,2023-04-28T10:15:00Z,5.93,116.05,28.0,26.0,70,11,21,0.93,29.704725,,,,,,TRUE,,,,+TSRA,FEW,1000,SCT,1300,FEW,1500,,,LIFR,,,,,,,,,,,,SPECI,9.0
TJPS 281015Z AUTO 00000KT 10SM CLR 22/21 A2992 RMK AO2 TSNO,TJPS,2023-04-28T10:15:00Z,18.02,-66.57,22.0,21.0,0,0,,10.0,29.920275,,,TRUE,TRUE,,,TRUE,,,,CLR,,,,,,,,VFR,,,,,,,,,,,,METAR,12.0
SBPK 281015Z 16002KT 0800 FG FEW020 15/15 Q1017,SBPK,2023-04-28T10:15:00Z,-31.72,-52.33,15.0,15.0,160,2,,0.5,30.029528,,,,,,,,,,FG,FEW,2000,,,,,,,LIFR,,,,,,,,,,,,METAR,17.0
SBPB 281015Z 18004KT 9999 FEW016 ///// Q1013,SBPB,2023-04-28T10:15:00Z,-2.88,-41.72,,,180,4,,6.21,29.911417,,,,,,,,,,,FEW,1600,,,,,,,VFR,,,,,,,,,,,,SPECI,3.0
SBCJ 281015Z 00000KT CAVOK 21/20 Q1017,SBCJ,2023-04-28T10:15:00Z,-6.12,-50.0,21.0,20.0,0,0,,6.21,30.029528,,,,,,,,,,,CAVOK,,,,,,,,VFR,,,,,,,,,,,,METAR,634.0
PATK 281015Z AUTO 00000KT 10SM -RA OVC014 02/01 A2987 RMK AO2 P0001 T00220006 TSNO,PATK,2023-04-28T10:15:00Z,62.32,-150.1,2.2,0.6,0,0,,10.0,29.870079,,,TRUE,TRUE,,,TRUE,,,-RA,OVC,1400,,,,,,,MVFR,,,,,,0.01,,,,,,SPECI,107.0
PAAD 281015Z AUTO 24007KT 10SM BKN007 OVC015 M21/M23 A3008 RMK AO2 T12061226 PWINO,PAAD,2023-04-28T10:15:00Z,70.13,-146.28,-20.6,-22.6,240,7,,10.0,30.079725,,,TRUE,TRUE,,,,,TRUE,,BKN,700,OVC,1500,,,,,IFR,,,,,,,,,,,,SPECI,8.0
LMML 281015Z 18007KT 140V220 9999 FEW025 21/12 Q1023 NOSIG,LMML,2023-04-28T10:15:00Z,35.85,14.47,21.0,12.0,180,7,,6.21,30.206694,,,,,,TRUE,,,,,FEW,2500,,,,,,,VFR,,,,,,,,,,,,METAR,78.0
LIRP 281015Z VRB03KT 9999 BKN030 18/12 Q1021 NOSIG,LIRP,2023-04-28T10:15:00Z,43.68,10.38,18.0,12.0,0,3,,6.21,30.147638,,,,,,TRUE,,,,,BKN,3000,,,,,,,MVFR,,,,,,,,,,,,METAR,1.0
LHSN 281015Z 16008KT 100V250 CAVOK 15/02 Q1021 NOSIG RMK BLU,LHSN,2023-04-28T10:15:00Z,47.12,20.23,15.0,2.0,160,8,,6.21,30.147638,,,,,,TRUE,,,,,CAVOK,,,,,,,,VFR,,,,,,,,,,,,METAR,89.0
LHSM 281015Z AUTO 17010KT 130V210 CAVOK 17/04 Q1019 NOSIG,LHSM,2023-04-28T10:15:00Z,46.68,17.17,17.0,4.0,170,10,,6.21,30.088583,,,TRUE,,,TRUE,,,,,CAVOK,,,,,,,,VFR,,,,,,,,,,,,METAR,119.0
LHPR 281015Z AUTO 14012KT 110V170 CAVOK 14/03 Q1020 NOSIG,LHPR,2023-04-28T10:15:00Z,47.63,17.82,14.0,3.0,140,12,,6.21,30.11811,,,TRUE,,,TRUE,,,,,CAVOK,,,,,,,,VFR,,,,,,,,,,,,METAR,127.0
LHPP 281015Z AUTO 15010KT CAVOK 15/03 Q1021,LHPP,2023-04-28T10:15:00Z,45.98,18.23,15.0,3.0,150,10,,6.21,30.147638,,,TRUE,,,,,,,,CAVOK,,,,,,,,VFR,,,,,,,,,,,,METAR,193.0
LHPA 281015Z 14014KT 110V170 CAVOK 16/02 Q1019 NOSIG RMK BLU,LHPA,2023-04-28T10:15:00Z,47.35,17.5,16.0,2.0,140,14,,6.21,30.088583,,,,,,TRUE,,,,,CAVOK,,,,,,,,VFR,,,,,,,,,,,,METAR,143.0
LHKE 281015Z 18006KT 140V230 CAVOK 15/01 Q1022 NOSIG RMK BLU,LHKE,2023-04-28T10:15:00Z,46.92,19.75,15.0,1.0,180,6,,6.21,30.177166,,,,,,TRUE,,,,,CAVOK,,,,,,,,VFR,,,,,,,,,,,,METAR,113.0
LHDC 281015Z AUTO VRB04KT CAVOK 14/01 Q1022 NOSIG,LHDC,2023-04-28T10:15:00Z,47.48,21.62,14.0,1.0,0,4,,6.21,30.177166,,,TRUE,,,TRUE,,,,,CAVOK,,,,,,,,VFR,,,,,,,,,,,,METAR,105.0
KZPH 281015Z AUTO 16006KT 10SM CLR 19/19 A2988 RMK A02 T01940189,KZPH,2023-04-28T10:15:00Z,28.23,-82.15,19.4,18.9,160,6,,10.0,29.878937,,,TRUE,TRUE,,,,,,,CLR,,,,,,,,VFR,,,,,,,,,,,,METAR,26.0
KZER 281015Z AUTO 11014G21KT 10SM OVC009 06/05 A3006 RMK AO2,KZER,2023-04-28T10:15:00Z,40.7,-76.37,6.0,5.0,110,14,21,10.0,30.059055,,,TRUE,TRUE,,,,,,,OVC,900,,,,,,,IFR,,,,,,,,,,,,SPECI,518.0
KY70 281015Z AUTO 04005KT 10SM CLR 06/M01 A2987 RMK AO2 T00601010,KY70,2023-04-28T10:15:00Z,42.93,-85.07,6.0,-1.0,40,5,,10.0,29.870079,,,TRUE,TRUE,,,,,,,CLR,,,,,,,,VFR,,,,,,,,,,,,SPECI,247.0
KY49 281015Z AUTO 00000KT 10SM DZ OVC036 05/04 A2991 RMK AO2 T00450038,KY49,2023-04-28T10:15:00Z,47.15,-94.65,4.5,3.8,0,0,,10.0,29.911417,,,TRUE,TRUE,,,,,,DZ,OVC,3600,,,,,,,VFR,,,,,,,,,,,,METAR,413.0
KY31 281015Z AUTO 27006KT 10SM CLR M02/M03 A2993 RMK AO2 T10191026,KY31,2023-04-28T10:15:00Z,44.25,-84.18,-1.9,-2.6,270,6,,10.0,29.929134,,,TRUE,TRUE,,,,,,,CLR,,,,,,,,VFR,,,,,,,,,,,,SPECI,264.0
KY23 281015Z AUTO 00000KT 10SM -DZ BKN070 OVC080 09/09 A2982 RMK AO2 T00870087,KY23,2023-04-28T10:15:00Z,45.3,-91.63,8.7,8.7,0,0,,10.0,29.819881,,,TRUE,TRUE,,,,,,-DZ,BKN,7000,OVC,8000,,,,,VFR,,,,,,,,,,,,SPECI,322.0
KXNX 281015Z AUTO 00000KT 9SM BKN005 BKN025 OVC100 15/15 A2971 RMK A01,KXNX,2023-04-28T10:15:00Z,36.38,-86.42,15.0,15.0,0,0,,9.0,29.71063,,,TRUE,TRUE,,,,,,,BKN,500,BKN,2500,OVC,10000,,,IFR,,,,,,,,,,,,SPECI,178.0
KXLL 281015Z AUTO 05008KT 10SM OVC011 09/07 A3014 RMK AO2,KXLL,2023-04-28T10:15:00Z,40.57,-75.48,9.0,7.0,50,8,,10.0,30.138779,,,TRUE,TRUE,,,,,,,OVC,1100,,,,,,,MVFR,,,,,,,,,,,,SPECI,118.0
KWWR 281015Z AUTO 24003KT 10SM -RA SCT042 SCT050 OVC070 09/08 A2987 RMK AO2,KWWR,2023-04-28T10:15:00Z,36.45,-99.52,9.0,8.0,240,3,,10.0,29.870079,,,TRUE,TRUE,,,,,,-RA,SCT,4200,SCT,5000,OVC,7000,,,VFR,,,,,,,,,,,,METAR,664.0
KWDR 281015Z AUTO 00000KT 1/2SM FG OVC002 14/13 A2979 RMK AO2,KWDR,2023-04-28T10:15:00Z,33.98,-83.67,14.0,13.0,0,0,,0.5,29.790354,,,TRUE,TRUE,,,,,,FG,OVC,200,,,,,,,LIFR,,,,,,,,,,,,METAR,280.0
KWDG 281015Z AUTO 00000KT 10SM BKN120 08/08 A2983 RMK AO2,KWDG,2023-04-28T10:15:00Z,36.37,-97.78,8.0,8.0,0,0,,10.0,29.828741,,,TRUE,TRUE,,,,,,,BKN,12000,,,,,,,VFR,,,,,,,,,,,,METAR,352.0
KWBF 281015Z AUTO 00000KT 6SM BR BKN015 OVC020 24/24 A2982 RMK A01,KWBF,2023-04-28T10:15:00Z,26.93,-90.5,24.0,24.0,0,0,,6.0,29.819881,,,TRUE,TRUE,,,,,,BR,BKN,1500,OVC,2000,,,,,MVFR,,,,,,,,,,,,SPECI,40.0
KW78 281015Z AUTO 08004KT 3SM OVC005 14/13 A2981 RMK AO1 P0007 T01370130,KW78,2023-04-28T10:15:00Z,36.7,-78.85,13.7,13.0,80,4,,3.0,29.811024,,,TRUE,TRUE,,,,,,,OVC,500,,,,,,,IFR,,,,,,0.07,,,,,,SPECI,120.0
KW43 281015Z AUTO 26005KT 10SM SCT028 SCT035 BKN080 03/01 A3017 RMK AO2,KW43,2023-04-28T10:15:00Z,44.67,-104.57,3.0,1.0,260,5,,10.0,30.171259,,,TRUE,TRUE,,,,,,,SCT,2800,SCT,3500,BKN,8000,,,VFR,,,,,,,,,,,,SPECI,1292.0
KW22 281015Z AUTO 09007G14KT 10SM OVC070 12/11 A2977 RMK AO2,KW22,2023-04-28T10:15:00Z,39.0,-80.27,12.0,11.0,90,7,14,10.0,29.769686,,,TRUE,TRUE,,,,,,,OVC,7000,,,,,,,VFR,,,,,,,,,,,,SPECI,497.0
KW13 281015Z AUTO 08004KT 5SM OVC012 11/11 A2989 RMK AO1 P0004 T01110110,KW13,2023-04-28T10:15:00Z,38.08,-78.95,11.1,11.0,80,4,,5.0,29.890747,,,TRUE,TRUE,,,,,,,OVC,1200,,,,,,,MVFR,,,,,,0.04,,,,,,SPECI,440.0
KVYS 281015Z AUTO 04006KT 10SM CLR 06/00 A2981 RMK AO2 T00610004,KVYS,2023-04-28T10:15:00Z,41.35,-89.15,6.1,0.4,40,6,,10.0,29.811024,,,TRUE,TRUE,,,,,,,CLR,,,,,,,,VFR,,,,,,,,,,,,SPECI,198.0
KVWU 281015Z AUTO 00000KT 10SM SCT026 OVC037 05/03 A2994 RMK AO2,KVWU,2023-04-28T10:15:00Z,48.15,-94.52,5.0,3.0,0,0,,10.0,29.940945,,,TRUE,TRUE,,,,,,,SCT,2600,OVC,3700,,,,,VFR,,,,,,,,,,,,SPECI,359.0
KVVV 281015Z AUTO 35018G22KT 10SM RA BKN048 OVC060 06/06 A2990 RMK AO2,KVVV,2023-04-28T10:15:00Z,45.3,-96.42,6.0,6.0,350,18,22,10.0,29.899607,,,TRUE,TRUE,,,,,,RA,BKN,4800,OVC,6000,,,,,VFR,,,,,,,,,,,,METAR,334.0
KVTP 281015Z AUTO 1/4SM +SN OVC002 M06/M06 A3006 RMK AO2 P0001,KVTP,2023-04-28T10:15:00Z,37.5,-105.17,-6.0,-6.0,,,,0.25,30.059055,,,TRUE,TRUE,,,,,,+SN,OVC,200,,,,,,,LIFR,,,,,,0.01,,,,,,SPECI,3086.0
KVTI 281015Z AUTO 11003KT 10SM CLR 06/M01 A2980 RMK AO2 T00631007,KVTI,2023-04-28T10:15:00Z,42.22,-92.02,6.3,-0.7,110,3,,10.0,29.799213,,,TRUE,TRUE,,,,,,,CLR,,,,,,,,VFR,,,,,,,,,,,,SPECI,256.0
KVPC 281015Z AUTO 00000KT 10SM SCT008 OVC022 16/15 A2975 RMK AO2,KVPC,2023-04-28T10:15:00Z,34.1,-84.85,16.0,15.0,0,0,,10.0,29.749016,,,TRUE,TRUE,,,,,,,SCT,800,OVC,2200,,,,,MVFR,,,,,,,,,,,,METAR,234.0
KVOA 281015Z AUTO 28009KT 9SM FEW004 FEW055 22/22 A2979 RMK A01,KVOA,2023-04-28T10:15:00Z,29.23,-87.78,22.0,22.0,280,9,,9.0,29.790354,,,TRUE,TRUE,,,,,,,FEW,400,FEW,5500,,,,,VFR,,,,,,,,,,,,SPECI,53.0
KVKY 281015Z AUTO 28008KT 10SM SCT070 A2980 RMK A01,KVKY,2023-04-28T10:15:00Z,29.25,-88.43,,,280,8,,10.0,29.799213,,,TRUE,TRUE,,,,,,,SCT,7000,,,,,,,VFR,,,,,,,,,,,,SPECI,32.0
KVJI 281015Z AUTO 12003KT 10SM SCT048 BKN070 OVC080 12/11 A2977 RMK AO2 T01150112,KVJI,2023-04-28T10:15:00Z,36.68,-82.03,11.5,11.2,120,3,,10.0,29.769686,,,TRUE,TRUE,,,,,,,SCT,4800,BKN,7000,OVC,8000,,,VFR,,,,,,,,,,,,SPECI,636.0
KVHN 281015Z AUTO 22009KT 10SM CLR 14/M12 A2990 RMK AO2 T01401124,KVHN,2023-04-28T10:15:00Z,31.07,-104.78,14.0,-12.4,220,9,,10.0,29.899607,,,TRUE,TRUE,,,,,,,CLR,,,,,,,,VFR,,,,,,,,,,,,SPECI,1200.0
KVDI 281015Z AUTO 00000KT 10SM BKN025 18/17 A2980 RMK AO2,KVDI,2023-04-28T10:15:00Z,32.2,-82.37,18.0,17.0,0,0,,10.0,29.799213,,,TRUE,TRUE,,,,,,,BKN,2500,,,,,,,MVFR,,,,,,,,,,,,METAR,81.0
KVCV 281015Z AUTO 14006KT 10SM CLR 15/04 A2999 RMK AO2,KVCV,2023-04-28T10:15:00Z,34.58,-117.38,15.0,4.0,140,6,,10.0,29.991142,,,TRUE,TRUE,,,,,,,CLR,,,,,,,,VFR,,,,,,,,,,,,SPECI,871.0
KUYF 281015Z AUTO 09011G16KT 3SM RA OVC003 12/10 A2970 RMK AO2 P0001,KUYF,2023-04-28T10:15:00Z,39.93,-83.47,12.0,10.0,90,11,16,3.0,29.698818,,,TRUE,TRUE,,,,,,RA,OVC,300,,,,,,,LIFR,,,,,,0.01,,,,,,METAR,326.0
KUVA 281015Z AUTO 00000KT 10SM CLR 15/15 A2980 RMK AO2 T01480148,KUVA,2023-04-28T10:15:00Z,29.22,-99.75,14.8,14.8,0,0,,10.0,29.799213,,,TRUE,TRUE,,,,,,,CLR,,,,,,,,VFR,,,,,,,,,,,,SPECI,285.0
KUSE 281015Z AUTO 05010KT 10SM -RA FEW048 BKN060 OVC070 07/07 A2982 RMK AO2,KUSE,2023-04-28T10:15:00Z,41.62,-84.13,7.0,7.0,50,10,,10.0,29.819881,,,TRUE,TRUE,,,,,,-RA,FEW,4800,BKN,6000,OVC,7000,,,VFR,,,,,,,,,,,,METAR,237.0
KUMP 281015Z AUTO 02007G14KT 5SM BKN007 BKN033 OVC060 08/08 A2973 RMK AO2 P0003 T00800080,KUMP,2023-04-28T10:15:00Z,39.93,-86.05,8.0,8.0,20,7,14,5.0,29.731298,,,TRUE,TRUE,,,,,,,BKN,700,BKN,3300,OVC,6000,,,IFR,,,,,,0.03,,,,,,SPECI,247.0
KULM 281015Z AUTO 06004KT 7SM -RA OVC060 09/08 A2979 RMK AO2 P0001,KULM,2023-04-28T10:15:00Z,44.32,-94.5,9.0,8.0,60,4,,7.0,29.790354,,,TRUE,TRUE,,,,,,-RA,OVC,6000,,,,,,,VFR,,,,,,0.01,,,,,,METAR,305.0
KUKL 281015Z AUTO 00000KT 3/4SM BR SCT060 BKN080 08/07 A2983 RMK AO2 T00780068,KUKL,2023-04-28T10:15:00Z,38.3,-95.73,7.8,6.8,0,0,,0.75,29.828741,,,TRUE,TRUE,,,,,,BR,SCT,6000,BKN,8000,,,,,LIFR,,,,,,,,,,,,SPECI,357.0
KUCY 281015Z AUTO 30003KT 4SM BR OVC006 14/14 A2969 RMK A01,KUCY,2023-04-28T10:15:00Z,36.38,-88.98,14.0,14.0,300,3,,4.0,29.68996,,,TRUE,TRUE,,,,,,BR,OVC,600,,,,,,,IFR,,,,,,,,,,,,SPECI,97.0
KU69 281015Z AUTO 17003KT 10SM FEW050 02/M03 A3028 RMK A01,KU69,2023-04-28T10:15:00Z,40.2,-110.38,2.0,-3.0,170,3,,10.0,30.280512,,,TRUE,TRUE,,,,,,,FEW,5000,,,,,,,VFR,,,,,,,,,,,,METAR,1776.0
KU68 281015Z AUTO 31005KT 10SM CLR M01/M05 A3024 RMK AO2,KU68,2023-04-28T10:15:00Z,44.92,-108.45,-1.0,-5.0,310,5,,10.0,30.239174,,,TRUE,TRUE,,,,,,,CLR,,,,,,,,VFR,,,,,,,,,,,,SPECI,1244.0
KU64 281015Z AUTO 32017KT 8SM CLR 04/M04 A3012 RMK AO2 T00381042 $,KU64,2023-04-28T10:15:00Z,,,3.8,-4.2,320,17,,8.0,30.121063,,,TRUE,TRUE,TRUE,,,,,,CLR,,,,,,,,VFR,,,,,,,,,,,,SPECI,
KTZR 281015Z AUTO 09012G20KT 3SM +RA OVC005 12/12 A2971 RMK AO2 P0002 T01210116,KTZR,2023-04-28T10:15:00Z,39.9,-83.13,12.1,11.6,90,12,20,3.0,29.71063,,,TRUE,TRUE,,,,,,+RA,OVC,500,,,,,,,IFR,,,,,,0.02,,,,,,SPECI,275.0
KTYQ 281015Z AUTO 01011KT 7SM -DZ SCT007 BKN018 OVC120 07/06 A2974 RMK AO2 T00660060,KTYQ,2023-04-28T10:15:00Z,40.03,-86.25,6.6,6.0,10,11,,7.0,29.740158,,,TRUE,TRUE,,,,,,-DZ,SCT,700,BKN,1800,OVC,12000,,,MVFR,,,,,,,,,,,,SPECI,279.0
KTXW 281015Z AUTO 00000KT 7SM BR CLR 20/20 A2978 RMK AO2 T02010195,KTXW,2023-04-28T10:15:00Z,26.18,-97.97,20.1,19.5,0,0,,7.0,29.778543,,,TRUE,TRUE,,,,,,BR,CLR,,,,,,,,VFR,,,,,,,,,,,,SPECI,21.0
KTVK 281015Z AUTO 00000KT 10SM CLR 08/05 A2981 RMK AO2,KTVK,2023-04-28T10:15:00Z,40.68,-92.9,8.0,5.0,0,0,,10.0,29.811024,,,TRUE,TRUE,,,,,,,CLR,,,,,,,,VFR,,,,,,,,,,,,SPECI,311.0
KTVI 281015Z AUTO 22003KT 7SM SCT005 OVC027 18/18 A2981 RMK AO2,KTVI,2023-04-28T10:15:00Z,30.9,-83.88,18.0,18.0,220,3,,7.0,29.811024,,,TRUE,TRUE,,,,,,,SCT,500,OVC,2700,,,,,MVFR,,,,,,,,,,,,METAR,74.0
KTQV 281015Z AUTO 14006KT 4SM BR BKN004 OVC013 16/16 A2978 RMK A01,KTQV,2023-04-28T10:15:00Z,36.0,-78.93,16.0,16.0,140,6,,4.0,29.778543,,,TRUE,TRUE,,,,,,BR,BKN,400,OVC,1300,,,,,LIFR,,,,,,,,,,,,SPECI,230.0
KTQK 281015Z AUTO 35027G35KT 10SM BKN020 OVC028 07/04 A2997 RMK AO2 T00740045,KTQK,2023-04-28T10:15:00Z,38.47,-100.88,7.4,4.5,350,27,35,10.0,29.970472,,,TRUE,TRUE,,,,,,,BKN,2000,OVC,2800,,,,,MVFR,,,,,,,,,,,,METAR,906.0
KTQH 281015Z AUTO 00000KT 2 1/2SM BR OVC043 11/09 A2981 RMK AO2,KTQH,2023-04-28T10:15:00Z,35.93,-95.0,11.0,9.0,0,0,,2.5,29.811024,,,TRUE,TRUE,,,,,,BR,OVC,4300,,,,,,,IFR,,,,,,,,,,,,SPECI,265.0
KTOC 281015Z AUTO 00000KT 1SM BR OVC006 14/14 A2977 RMK AO2 T01420141,KTOC,2023-04-28T10:15:00Z,34.6,-83.3,14.2,14.1,0,0,,1.0,29.769686,,,TRUE,TRUE,,,,,,BR,OVC,600,,,,,,,IFR,,,,,,,,,,,,METAR,292.0
KTNU 281015Z AUTO 20004KT 10SM CLR 08/03 A2979 RMK A01,KTNU,2023-04-28T10:15:00Z,41.67,-93.02,8.0,3.0,200,4,,10.0,29.790354,,,TRUE,TRUE,,,,,,,CLR,,,,,,,,VFR,,,,,,,,,,,,METAR,287.0
KTNB 281015Z AUTO 00000KT 1SM BR SCT001 SCT028 OVC034 10/10 A2980 RMK AO2 T00950095,KTNB,2023-04-28T10:15:00Z,36.2,-81.65,9.5,9.5,0,0,,1.0,29.799213,,,TRUE,TRUE,,,,,,BR,SCT,100,SCT,2800,OVC,3400,,,IFR,,,,,,,,,,,,SPECI,958.0
KTMT 281015Z AUTO 19003KT 10SM CLR 00/M05 A3022 RMK AO2 T10051050,KTMT,2023-04-28T10:15:00Z,39.47,-117.2,-0.5,-5.0,190,3,,10.0,30.221457,,,TRUE,TRUE,,,,,,,CLR,,,,,,,,VFR,,,,,,,,,,,,METAR,1748.0
KTMK 281015Z AUTO 15007KT 10SM CLR 09/08 A2996 RMK AO2,KTMK,2023-04-28T10:15:00Z,45.42,-123.82,9.0,8.0,150,7,,10.0,29.958662,,,TRUE,TRUE,,,,,,,CLR,,,,,,,,VFR,,,,,,,,,,,,SPECI,8.0
KTKV 281015Z AUTO 14004KT 10SM OVC060 08/04 A2985 RMK AO2 T00780036 PWINO,KTKV,2023-04-28T10:15:00Z,45.47,-89.82,7.8,3.6,140,4,,10.0,29.84941,,,TRUE,TRUE,,,,,TRUE,,OVC,6000,,,,,,,VFR,,,,,,,,,,,,SPECI,449.0
KTIP 281015Z AUTO 00000KT 10SM OVC100 10/04 A2978 RMK AO2 T01030041,KTIP,2023-04-28T10:15:00Z,40.28,-88.15,10.3,4.1,0,0,,10.0,29.778543,,,TRUE,TRUE,,,,,,,OVC,10000,,,,,,,VFR,,,,,,,,,,,,SPECI,224.0
KTIF 281015Z AUTO 34022G31KT 10SM SCT022 OVC070 05/02 A3001 RMK AO2 T00470020,KTIF,2023-04-28T10:15:00Z,41.97,-100.57,4.7,2.0,340,22,31,10.0,30.008858,,,TRUE,TRUE,,,,,,,SCT,2200,OVC,7000,,,,,VFR,,,,,,,,,,,,SPECI,888.0
KTHA 281015Z AUTO 13006KT 1 1/4SM BR BKN003 BKN009 OVC024 16/15 A2967 RMK A01,KTHA,2023-04-28T10:15:00Z,35.38,-86.25,16.0,15.0,130,6,,1.25,29.66929,,,TRUE,TRUE,,,,,,BR,BKN,300,BKN,900,OVC,2400,,,LIFR,,,,,,,,,,,,SPECI,333.0
KTEX 281015Z AUTO 36005KT 10SM SCT036 BKN044 BKN065 01/M06 A3010 RMK AO2,KTEX,2023-04-28T10:15:00Z,37.95,-107.9,1.0,-6.0,360,5,,10.0,30.100393,,,TRUE,TRUE,,,,,,,SCT,3600,BKN,4400,BKN,6500,,,VFR,,,,,,,,,,,,SPECI,2760.0
KTCY 281015Z AUTO 00000KT 10SM CLR 20/06 A2985 RMK A01,KTCY,2023-04-28T10:15:00Z,37.68,-121.43,20.0,6.0,0,0,,10.0,29.84941,,,TRUE,TRUE,,,,,,,CLR,,,,,,,,VFR,,,,,,,,,,,,METAR,51.0
KTBX 281015Z AUTO CLR M02/M07 A3031 RMK AO2 PWINO,KTBX,2023-04-28T10:15:00Z,43.47,-108.23,-2.0,-7.0,,,,,30.31004,,,TRUE,TRUE,,,,,TRUE,,CLR,,,,,,,,,,,,,,,,,,,,SPECI,2230.0
KTBR 281015Z AUTO 25003KT 10SM OVC006 18/17 A2980 RMK AO2 T01760167 PWINO,KTBR,2023-04-28T10:15:00Z,32.48,-81.73,17.6,16.7,250,3,,10.0,29.799213,,,TRUE,TRUE,,,,,TRUE,,OVC,600,,,,,,,IFR,,,,,,,,,,,,METAR,54.0
KTBN 281015Z AUTO 00000KT 5SM HZ SCT002 OVC023 M M RMK AO2 CIG 002V023 SLPNO RVRNO TSNO $,KTBN,2023-04-28T10:15:00Z,37.73,-92.13,,,0,0,,5.0,,,,TRUE,TRUE,TRUE,,TRUE,,,HZ,SCT,200,OVC,2300,,,,,MVFR,,,,,,,,,,,,SPECI,349.0
KTAZ 281015Z AUTO 36004KT 10SM SCT110 09/06 A2978 RMK AO2 T00890062 PWINO,KTAZ,2023-04-28T10:15:00Z,39.53,-89.33,8.9,6.2,360,4,,10.0,29.778543,,,TRUE,TRUE,,,,,TRUE,,SCT,11000,,,,,,,VFR,,,,,,,,,,,,SPECI,188.0
KT89 281015Z AUTO 07005KT 10SM FEW050 17/M05 A2980 RMK A01,KT89,2023-04-28T10:15:00Z,29.27,-103.68,17.0,-5.0,70,5,,10.0,29.799213,,,TRUE,TRUE,,,,,,,FEW,5000,,,,,,,VFR,,,,,,,,,,,,SPECI,801.0
KT82 281015Z AUTO 22007KT 10SM SCT009 17/16 A2978 RMK AO2 T01680155,KT82,2023-04-28T10:15:00Z,30.25,-98.92,16.8,15.5,220,7,,10.0,29.778543,,,TRUE,TRUE,,,,,,,SCT,900,,,,,,,VFR,,,,,,,,,,,,SPECI,509.0
KT78 281015Z AUTO 00000KT 6SM BR CLR 12/12 A2978 RMK AO2,KT78,2023-04-28T10:15:00Z,30.08,-94.7,12.0,12.0,0,0,,6.0,29.778543,,,TRUE,TRUE,,,,,,BR,CLR,,,,,,,,VFR,,,,,,,,,,,,METAR,21.0
KT74 281015Z AUTO 16004KT 10SM SCT011 14/13 A2976 RMK AO2 T01380125,KT74,2023-04-28T10:15:00Z,30.57,-97.45,13.8,12.5,160,4,,10.0,29.760826,,,TRUE,TRUE,,,,,,,SCT,1100,,,,,,,VFR,,,,,,,,,,,,SPECI,169.0
KT41 281015Z AUTO 36005KT 10SM CLR 15/14 A2979 RMK AO2 T01510144,KT41,2023-04-28T10:15:00Z,29.67,-95.07,15.1,14.4,360,5,,10.0,29.790354,,,TRUE,TRUE,,,,,,,CLR,,,,,,,,VFR,,,,,,,,,,,,SPECI,8.0
KT35 281015Z AUTO 00000KT 10SM CLR 13/13 A2977 RMK AO2 T01330125,KT35,2023-04-28T10:15:00Z,30.88,-96.97,13.3,12.5,0,0,,10.0,29.769686,,,TRUE,TRUE,,,,,,,CLR,,,,,,,,VFR,,,,,,,,,,,,SPECI,122.0
KT20 281015Z AUTO 00000KT 7SM OVC003 16/16 A2978 RMK AO2 T01620162,KT20,2023-04-28T10:15:00Z,29.52,-97.47,16.2,16.2,0,0,,7.0,29.778543,,,TRUE,TRUE,,,,,,,OVC,300,,,,,,,LIFR,,,,,,,,,,,,SPECI,107.0
KSZY 281015Z AUTO VRB03G10KT 10SM SCT008 BKN018 OVC036 14/14 A2970 RMK A01,KSZY,2023-04-28T10:15:00Z,35.2,-88.5,14.0,14.0,0,3,10,10.0,29.698818,,,TRUE,TRUE,,,,,,,SCT,800,BKN,1800,OVC,3600,,,MVFR,,,,,,,,,,,,SPECI,184.0
KSZT 281015Z AUTO 00000KT 10SM CLR 01/00 A3022 RMK AO2,KSZT,2023-04-28T10:15:00Z,48.3,-116.57,1.0,0.0,0,0,,10.0,30.221457,,,TRUE,TRUE,,,,,,,CLR,,,,,,,,VFR,,,,,,,,,,,,SPECI,649.0
KSYN 281015Z AUTO 00000KT 10SM SCT120 09/06 A2979 RMK AO2 T00900060,KSYN,2023-04-28T10:15:00Z,44.47,-93.02,9.0,6.0,0,0,,10.0,29.790354,,,TRUE,TRUE,,,,,,,SCT,12000,,,,,,,VFR,,,,,,,,,,,,SPECI,280.0
KSYI 281015Z AUTO 00000KT 5SM BR SCT008 BKN028 OVC055 14/14 A2968 RMK A01,KSYI,2023-04-28T10:15:00Z,35.57,-86.45,14.0,14.0,0,0,,5.0,29.681103,,,TRUE,TRUE,,,,,,BR,SCT,800,BKN,2800,OVC,5500,,,MVFR,,,,,,,,,,,,SPECI,244.0
KSYF 281015Z AUTO 35018G23KT 10SM SCT085 05/M01 A3007 RMK AO2 T00471009 PWINO,KSYF,2023-04-28T10:15:00Z,39.77,-101.8,4.7,-0.9,350,18,23,10.0,30.070866,,,TRUE,TRUE,,,,,TRUE,,SCT,8500,,,,,,,VFR,,,,,,,,,,,,SPECI,1041.0
KSXU 281015Z AUTO 03015G20KT 10SM CLR 09/03 A2994 RMK AO2 T00880027,KSXU,2023-04-28T10:15:00Z,34.93,-104.65,8.8,2.7,30,15,20,10.0,29.940945,,,TRUE,TRUE,,,,,,,CLR,,,,,,,,VFR,,,,,,,,,,,,SPECI,1465.0
KSXK 281015Z AUTO 00000KT 6SM -DZ OVC060 10/10 A2976 RMK AO2,KSXK,2023-04-28T10:15:00Z,42.98,-96.17,10.0,10.0,0,0,,6.0,29.760826,,,TRUE,TRUE,,,,,,-DZ,OVC,6000,,,,,,,VFR,,,,,,,,,,,,SPECI,430.0
KSWW 281015Z AUTO 19016G20KT 10SM CLR 18/01 A2970 RMK AO2 T01810005,KSWW,2023-04-28T10:15:00Z,32.47,-100.47,18.1,0.5,190,16,20,10.0,29.698818,,,TRUE,TRUE,,,,,,,CLR,,,,,,,,VFR,,,,,,,,,,,,SPECI,718.0
KSWF 281015Z 11005KT 1SM BR OVC003 07/06 A3018,KSWF,2023-04-28T10:15:00Z,41.5,-74.08,7.0,6.0,110,5,,1.0,30.180119,,,,,,,,,,BR,OVC,300,,,,,,,LIFR,,,,,,,,,,,,METAR,139.0
KSVC 281015Z AUTO 30012KT 10SM CLR 13/M06 A2997 RMK AO2 T01301061,KSVC,2023-04-28T10:15:00Z,32.63,-108.15,13.0,-6.1,300,12,,10.0,29.970472,,,TRUE,TRUE,,,,,,,CLR,,,,,,,,VFR,,,,,,,,,,,,SPECI,1638.0
KSUN 281015Z AUTO 30004KT 10SM CLR 01/M01 A3029 RMK AO2,KSUN,2023-04-28T10:15:00Z,43.5,-114.28,1.0,-1.0,300,4,,10.0,30.28937,,,TRUE,TRUE,,,,,,,CLR,,,,,,,,VFR,,,,,,,,,,,,SPECI,1619.0
KSTK 281015Z AUTO 31006KT 10SM SCT080 01/01 A3013 RMK AO2,KSTK,2023-04-28T10:15:00Z,40.62,-103.27,1.0,1.0,310,6,,10.0,30.129921,,,TRUE,TRUE,,,,,,,SCT,8000,,,,,,,VFR,,,,,,,,,,,,SPECI,1228.0
KSTE 281015Z AUTO 09003KT 10SM SCT100 07/00 A2986 RMK AO2 T00671005,KSTE,2023-04-28T10:15:00Z,44.55,-89.53,6.7,-0.5,90,3,,10.0,29.861221,,,TRUE,TRUE,,,,,,,SCT,10000,,,,,,,VFR,,,,,,,,,,,,METAR,335.0
KSRE 281015Z AUTO 00000KT 8SM BKN026 BKN030 10/09 A2981 RMK AO2,KSRE,2023-04-28T10:15:00Z,35.27,-96.68,10.0,9.0,0,0,,8.0,29.811024,,,TRUE,TRUE,,,,,,,BKN,2600,BKN,3000,,,,,MVFR,,,,,,,,,,,,SPECI,306.0
KSRB 281015Z AUTO 16004KT 4SM RA FEW008 BKN014 OVC019 15/15 A2968 RMK AO2,KSRB,2023-04-28T10:15:00Z,36.05,-85.53,15.0,15.0,160,4,,4.0,29.681103,,,TRUE,TRUE,,,,,,RA,FEW,800,BKN,1400,OVC,1900,,,MVFR,,,,,,,,,,,,SPECI,303.0
KSPK 281015Z AUTO 11014KT 10SM FEW037 BKN044 BKN050 09/M03 A3017 RMK AO2,KSPK,2023-04-28T10:15:00Z,40.15,-111.67,9.0,-3.0,110,14,,10.0,30.171259,,,TRUE,TRUE,,,,,,,FEW,3700,BKN,4400,BKN,5000,,,VFR,,,,,,,,,,,,METAR,1381.0
KSOA 281015Z AUTO 00000KT 10SM 16/05 A2982 RMK AO2,KSOA,2023-04-28T10:15:00Z,30.58,-100.65,16.0,5.0,0,0,,10.0,29.819881,,,TRUE,TRUE,,,,,,,,,,,,,,,,,,,,,,,,,,,SPECI,654.0
KSME 281015Z AUTO 18003KT 9SM FEW017 SCT055 OVC085 14/14 A2969 RMK AO2,KSME,2023-04-28T10:15:00Z,37.05,-84.62,14.0,14.0,180,3,,9.0,29.68996,,,TRUE,TRUE,,,,,,,FEW,1700,SCT,5500,OVC,8500,,,VFR,,,,,,,,,,,,SPECI,279.0
KSMD 281015Z AUTO 01006KT 7SM FEW042 SCT049 OVC060 07/07 A2979 RMK A01,KSMD,2023-04-28T10:15:00Z,41.15,-85.15,7.0,7.0,10,6,,7.0,29.790354,,,TRUE,TRUE,,,,,,,FEW,4200,SCT,4900,OVC,6000,,,VFR,,,,,,,,,,,,METAR,252.0
KSLO 281015Z AUTO 36007KT 5SM BR OVC033 12/11 A2975 RMK AO2 T01150111,KSLO,2023-04-28T10:15:00Z,38.65,-88.97,11.5,11.1,360,7,,5.0,29.749016,,,TRUE,TRUE,,,,,,BR,OVC,3300,,,,,,,MVFR,,,,,,,,,,,,METAR,173.0
KSLB 281015Z AUTO 00000KT 10SM FEW050 SCT060 BKN070 12/08 A2978 RMK AO2,KSLB,2023-04-28T10:15:00Z,42.6,-95.23,12.0,8.0,0,0,,10.0,29.778543,,,TRUE,TRUE,,,,,,,FEW,5000,SCT,6000,BKN,7000,,,VFR,,,,,,,,,,,,SPECI,450.0
KSJS 281015Z AUTO 00000KT 10SM BKN035 OVC050 13/13 A2972 RMK AO2 T01320132,KSJS,2023-04-28T10:15:00Z,37.75,-82.63,13.2,13.2,0,0,,10.0,29.719488,,,TRUE,TRUE,,,,,,,BKN,3500,OVC,5000,,,,,VFR,,,,,,,,,,,,METAR,359.0
KSHL 281015Z AUTO 16004KT 10SM FEW050 BKN060 OVC075 10/10 A2976 RMK AO2,KSHL,2023-04-28T10:15:00Z,43.22,-95.83,10.0,10.0,160,4,,10.0,29.760826,,,TRUE,TRUE,,,,,,,FEW,5000,BKN,6000,OVC,7500,,,VFR,,,,,,,,,,,,SPECI,430.0
KSEZ 281015Z AUTO 05004KT 10SM CLR 16/M04 A3000 RMK AO2,KSEZ,2023-04-28T10:15:00Z,34.85,-111.78,16.0,-4.0,50,4,,10.0,30.0,,,TRUE,TRUE,,,,,,,CLR,,,,,,,,VFR,,,,,,,,,,,,SPECI,1455.0
KSEP 281015Z AUTO 11005KT 10SM CLR 12/10 A2978 RMK AO2 T01210101,KSEP,2023-04-28T10:15:00Z,32.22,-98.17,12.1,10.1,110,5,,10.0,29.778543,,,TRUE,TRUE,,,,,,,CLR,,,,,,,,VFR,,,,,,,,,,,,SPECI,399.0
KSEM 281015Z AUTO 23005KT 10SM OVC009 18/18 A2976 RMK AO2,KSEM,2023-04-28T10:15:00Z,32.35,-86.98,18.0,18.0,230,5,,10.0,29.760826,,,TRUE,TRUE,,,,,,,OVC,900,,,,,,,IFR,,,,,,,,,,,,SPECI,48.0
KSEF 281015Z AUTO 20003KT 10SM CLR 20/ A2990 RMK AO2 T0196////,KSEF,2023-04-28T10:15:00Z,27.45,-81.35,19.6,,200,3,,10.0,29.899607,,,TRUE,TRUE,,,,,,,CLR,,,,,,,,VFR,,,,,,,,,,,,METAR,17.0
KSDC 281015Z AUTO 14006KT 10SM CLR 08/04 A3007 RMK AO2,KSDC,2023-04-28T10:15:00Z,43.23,-77.12,8.0,4.0,140,6,,10.0,30.070866,,,TRUE,TRUE,,,,,,,CLR,,,,,,,,VFR,,,,,,,,,,,,METAR,127.0
KSDA 281015Z AUTO 00000KT 10SM OVC060 11/08 A2978 RMK AO2,KSDA,2023-04-28T10:15:00Z,40.75,-95.42,11.0,8.0,0,0,,10.0,29.778543,,,TRUE,TRUE,,,,,,,OVC,6000,,,,,,,VFR,,,,,,,,,,,,SPECI,293.0
KSCX 281015Z AUTO 21007G12KT 10SM OVC004 14/14 A2971 RMK A01,KSCX,2023-04-28T10:15:00Z,36.45,-84.58,14.0,14.0,210,7,12,10.0,29.71063,,,TRUE,TRUE,,,,,,,OVC,400,,,,,,,LIFR,,,,,,,,,,,,SPECI,462.0
KSCD 281015Z AUTO 00000KT 10SM BKN009 OVC013 18/17 A2974 RMK AO2 T01770170,KSCD,2023-04-28T10:15:00Z,33.17,-86.3,17.7,17.0,0,0,,10.0,29.740158,,,TRUE,TRUE,,,,,,,BKN,900,OVC,1300,,,,,IFR,,,,,,,,,,,,SPECI,164.0
KSBS 281015Z AUTO 00000KT 10SM SCT048 M01/M01 A3019 RMK AO1 T10121012,KSBS,2023-04-28T10:15:00Z,40.52,-106.87,-1.2,-1.2,0,0,,10.0,30.188976,,,TRUE,TRUE,,,,,,,SCT,4800,,,,,,,VFR,,,,,,,,,,,,SPECI,2097.0
KSBO 281015Z AUTO 00000KT 1/2SM FG OVC002 A2981 RMK AO2,KSBO,2023-04-28T10:15:00Z,32.62,-82.37,,,0,0,,0.5,29.811024,,,TRUE,TRUE,,,,,,FG,OVC,200,,,,,,,LIFR,,,,,,,,,,,,METAR,98.0
KSAR 281015Z AUTO 34004KT 7SM SCT065 BKN085 10/10 A2977 RMK AO2 T01020102,KSAR,2023-04-28T10:15:00Z,38.15,-89.7,10.2,10.2,340,4,,7.0,29.769686,,,TRUE,TRUE,,,,,,,SCT,6500,BKN,8500,,,,,VFR,,,,,,,,,,,,METAR,162.0
KSAA 281015Z AUTO 23004KT 10SM CLR M03/M03 A3025 RMK AO2,KSAA,2023-04-28T10:15:00Z,41.45,-106.8,-3.0,-3.0,230,4,,10.0,30.250984,,,TRUE,TRUE,,,,,,,CLR,,,,,,,,VFR,,,,,,,,,,,,SPECI,2093.0
KS52 281015Z AUTO 00000KT 10SM BKN100 OVC120 03/00 A3023 RMK AO2 T00280005,KS52,2023-04-28T10:15:00Z,48.42,-120.15,2.8,0.5,0,0,,10.0,30.230314,,,TRUE,TRUE,,,,,,,BKN,10000,OVC,12000,,,,,VFR,,,,,,,,,,,,METAR,517.0
KS39 281015Z AUTO 00000KT 10SM CLR 05/M00 A3017 RMK AO2,KS39,2023-04-28T10:15:00Z,44.28,-120.9,5.0,0.0,0,0,,10.0,30.171259,,,TRUE,TRUE,,,,,,,CLR,,,,,,,,VFR,,,,,,,,,,,,SPECI,987.0
KS33 281015Z AUTO 13005KT 10SM CLR A3017 RMK AO2,KS33,2023-04-28T10:15:00Z,44.67,-121.15,,,130,5,,10.0,30.171259,,,TRUE,TRUE,,,,,,,CLR,,,,,,,,VFR,,,,,,,,,,,,SPECI,739.0
KS21 281015Z AUTO 06004KT 10SM CLR 04/01 A3021 RMK AO2,KS21,2023-04-28T10:15:00Z,43.88,-121.45,4.0,1.0,60,4,,10.0,30.209646,,,TRUE,TRUE,,,,,,,CLR,,,,,,,,VFR,,,,,,,,,,,,METAR,1269.0
KRZT 281015Z AUTO 13003KT 7SM BKN009 OVC012 12/12 A2972 RMK AO2 PWINO P0005,KRZT,2023-04-28T10:15:00Z,39.43,-83.02,12.0,12.0,130,3,,7.0,29.719488,,,TRUE,TRUE,,,,,TRUE,,BKN,900,OVC,1200,,,,,IFR,,,,,,0.05,,,,,,SPECI,217.0
KRZR 281015Z AUTO 19004KT 9SM OVC010 16/16 A2970 RMK A01,KRZR,2023-04-28T10:15:00Z,35.22,-84.8,16.0,16.0,190,4,,9.0,29.698818,,,TRUE,TRUE,,,,,,,OVC,1000,,,,,,,MVFR,,,,,,,,,,,,SPECI,259.0
KRZL 281015Z AUTO 06006KT 10SM SCT055 OVC070 08/02 A2981 RMK AO2,KRZL,2023-04-28T10:15:00Z,40.95,-87.18,8.0,2.0,60,6,,10.0,29.811024,,,TRUE,TRUE,,,,,,,SCT,5500,OVC,7000,,,,,VFR,,,,,,,,,,,,METAR,210.0
KRYW 281015Z AUTO 22009KT 10SM CLR 17/16 A2976 RMK AO2 T01730156,KRYW,2023-04-28T10:15:00Z,30.5,-97.97,17.3,15.6,220,9,,10.0,29.760826,,,TRUE,TRUE,,,,,,,CLR,,,,,,,,VFR,,,,,,,,,,,,SPECI,370.0
KRYN 281015Z AUTO 11004KT 10SM VCTS BKN100 14/M08 A2988 RMK AO2 LTG DSNT ALQDS,KRYN,2023-04-28T10:15:00Z,32.15,-111.17,14.0,-8.0,110,4,,10.0,29.878937,,,TRUE,TRUE,,,,,,VCTS,BKN,10000,,,,,,,VFR,,,,,,,,,,,,SPECI,731.0
KRWV 281015Z AUTO 00000KT 10SM CLR 13/12 A2978 RMK AO2 T01320123,KRWV,2023-04-28T10:15:00Z,30.52,-96.7,13.2,12.3,0,0,,10.0,29.778543,,,TRUE,TRUE,,,,,,,CLR,,,,,,,,VFR,,,,,,,,,,,,SPECI,116.0
KRVJ 281015Z AUTO 00000KT 10SM OVC022 18/ A2980 RMK AO2 T0185////,KRVJ,2023-04-28T10:15:00Z,32.07,-82.15,18.5,,0,0,,10.0,29.799213,,,TRUE,TRUE,,,,,,,OVC,2200,,,,,,,MVFR,,,,,,,,,,,,METAR,60.0
KRVF 281015Z AUTO 20008KT 10SM CLR M05/M06 A3032 RMK AO2,KRVF,2023-04-28T10:15:00Z,45.53,-112.3,-5.0,-6.0,200,8,,10.0,30.318897,,,TRUE,TRUE,,,,,,,CLR,,,,,,,,VFR,,,,,,,,,,,,METAR,1445.0
KRTS 281015Z AUTO 34005KT 10SM CLR 03/M05 A3016 RMK AO2,KRTS,2023-04-28T10:15:00Z,39.67,-119.88,3.0,-5.0,340,5,,10.0,30.159449,,,TRUE,TRUE,,,,,,,CLR,,,,,,,,VFR,,,,,,,,,,,,SPECI,1537.0
KRRT 281015Z AUTO 00000KT 10SM SCT070 M01/M02 A2999 RMK AO2,KRRT,2023-04-28T10:15:00Z,48.93,-95.33,-1.0,-2.0,0,0,,10.0,29.991142,,,TRUE,TRUE,,,,,,,SCT,7000,,,,,,,VFR,,,,,,,,,,,,SPECI,327.0
KRQO 281015Z AUTO 00000KT 07/ A2983 RMK AO2 PWINO T0068////,KRQO,2023-04-28T10:15:00Z,35.47,-98.0,6.8,,0,0,,,29.828741,,,TRUE,TRUE,,,,,TRUE,,,,,,,,,,,,,,,,,,,,,,SPECI,431.0
KRQB 281015Z AUTO 00000KT 10SM CLR 01/M02 A2991 RMK AO2 T00071018,KRQB,2023-04-28T10:15:00Z,43.72,-85.5,0.7,-1.8,0,0,,10.0,29.911417,,,TRUE,TRUE,,,,,,,CLR,,,,,,,,VFR,,,,,,,,,,,,METAR,282.0
KRPJ 281015Z AUTO 04005KT 10SM CLR 04/02 A2983 RMK AO2 T00410017 TSNO,KRPJ,2023-04-28T10:15:00Z,41.88,-89.08,4.1,1.7,40,5,,10.0,29.828741,,,TRUE,TRUE,,,TRUE,,,,CLR,,,,,,,,VFR,,,,,,,,,,,,SPECI,234.0
KRNH 281015Z AUTO 02004KT 10SM -DZ BKN065 OVC095 08/08 A2981 RMK AO2 T00820082,KRNH,2023-04-28T10:15:00Z,45.15,-92.53,8.2,8.2,20,4,,10.0,29.811024,,,TRUE,TRUE,,,,,,-DZ,BKN,6500,OVC,9500,,,,,VFR,,,,,,,,,,,,METAR,302.0
KRNC 281015Z AUTO 33005KT 6SM BR FEW022 SCT031 BKN036 15/15 A2969 RMK A01,KRNC,2023-04-28T10:15:00Z,35.7,-85.85,15.0,15.0,330,5,,6.0,29.68996,,,TRUE,TRUE,,,,,,BR,FEW,2200,SCT,3100,BKN,3600,,,VFR,,,,,,,,,,,,SPECI,310.0
KRLD 281015Z AUTO 33003KT 10SM CLR 07/05 A3015 RMK AO2 T00720045,KRLD,2023-04-28T10:15:00Z,46.3,-119.3,7.2,4.5,330,3,,10.0,30.15059,,,TRUE,TRUE,,,,,,,CLR,,,,,,,,VFR,,,,,,,,,,,,SPECI,118.0
KRKW 281015Z AUTO 00000KT M1/4SM FG OVC002 13/13 A2972 RMK A01,KRKW,2023-04-28T10:15:00Z,35.92,-84.68,13.0,13.0,0,0,,0.25,29.719488,,,TRUE,TRUE,,,,,,FG,OVC,200,,,,,,,LIFR,,,,,,,,,,,,SPECI,505.0
KRKR 281015Z AUTO 00000KT 10SM OVC032 11/10 A2982 RMK AO2,KRKR,2023-04-28T10:15:00Z,35.02,-94.62,11.0,10.0,0,0,,10.0,29.819881,,,TRUE,TRUE,,,,,,,OVC,3200,,,,,,,VFR,,,,,,,,,,,,SPECI,136.0
KRGA 281015Z AUTO 18003KT 10SM OVC014 14/14 A2971 RMK AO2,KRGA,2023-04-28T10:15:00Z,37.63,-84.33,14.0,14.0,180,3,,10.0,29.71063,,,TRUE,TRUE,,,,,,,OVC,1400,,,,,,,MVFR,,,,,,,,,,,,METAR,301.0
KRFI 281015Z AUTO 00000KT 10SM CLR 11/08 A2980 RMK AO2 T01050077,KRFI,2023-04-28T10:15:00Z,32.15,-94.85,10.5,7.7,0,0,,10.0,29.799213,,,TRUE,TRUE,,,,,,,CLR,,,,,,,,VFR,,,,,,,,,,,,SPECI,133.0
KREG 281015Z AUTO 00000KT 10SM SCT037 16/16 A2980 RMK AO2 T01620155,KREG,2023-04-28T10:15:00Z,30.17,-90.93,16.2,15.5,0,0,,10.0,29.799213,,,TRUE,TRUE,,,,,,,SCT,3700,,,,,,,VFR,,,,,,,,,,,,SPECI,3.0
KRDK 281015Z AUTO 00000KT 10SM BKN055 BKN075 OVC085 10/07 A2979 RMK AO2,KRDK,2023-04-28T10:15:00Z,41.02,-95.27,10.0,7.0,0,0,,10.0,29.790354,,,TRUE,TRUE,,,,,,,BKN,5500,BKN,7500,OVC,8500,,,VFR,,,,,,,,,,,,SPECI,317.0
KRCV 281015Z AUTO 05025G30KT 10SM SCT016 BKN038 OVC050 02/M02 A3005 RMK AO2 T00201023,KRCV,2023-04-28T10:15:00Z,37.72,-106.35,2.0,-2.3,50,25,30,10.0,30.050198,,,TRUE,TRUE,,,,,,,SCT,1600,BKN,3800,OVC,5000,,,VFR,,,,,,,,,,,,SPECI,2418.0
KRCR 281015Z AUTO 03006KT 4SM -RA BR SCT044 OVC055 07/07 A2980 RMK AO2,KRCR,2023-04-28T10:15:00Z,41.07,-86.18,7.0,7.0,30,6,,4.0,29.799213,,,TRUE,TRUE,,,,,,-RA BR,SCT,4400,OVC,5500,,,,,MVFR,,,,,,,,,,,,SPECI,240.0
KRBO 281015Z AUTO 00000KT 7SM BKN007 18/18 A2979 RMK AO2 T01840184,KRBO,2023-04-28T10:15:00Z,27.78,-97.68,18.4,18.4,0,0,,7.0,29.790354,,,TRUE,TRUE,,,,,,,BKN,700,,,,,,,IFR,,,,,,,,,,,,SPECI,24.0
KRAS 281015Z AUTO 14008KT 10SM SCT010 22/20 A2980 RMK AO2 T02190203,KRAS,2023-04-28T10:15:00Z,27.82,-97.08,21.9,20.3,140,8,,10.0,29.799213,,,TRUE,TRUE,,,,,,,SCT,1000,,,,,,,VFR,,,,,,,,,,,,SPECI,3.0
KPYX 281015Z AUTO 35013G16KT 10SM SCT065 OVC085 10/08 A2988 RMK AO2 T00950084,KPYX,2023-04-28T10:15:00Z,36.42,-100.75,9.5,8.4,350,13,16,10.0,29.878937,,,TRUE,TRUE,,,,,,,SCT,6500,OVC,8500,,,,,VFR,,,,,,,,,,,,SPECI,890.0
KPXE 281015Z AUTO 23003KT 5SM BR OVC005 18/18 A2979 RMK AO2 T01760176,KPXE,2023-04-28T10:15:00Z,32.52,-83.77,17.6,17.6,230,3,,5.0,29.790354,,,TRUE,TRUE,,,,,,BR,OVC,500,,,,,,,IFR,,,,,,,,,,,,SPECI,126.0
KPWD 281015Z AUTO 35008KT 10SM CLR 01/M00 A3011 RMK AO2,KPWD,2023-04-28T10:15:00Z,48.78,-104.52,1.0,0.0,350,8,,10.0,30.109253,,,TRUE,TRUE,,,,,,,CLR,,,,,,,,VFR,,,,,,,,,,,,METAR,690.0
KPVW 281015Z AUTO 04017G22KT 10SM SCT009 09/07 A2979 RMK AO2 T00870067,KPVW,2023-04-28T10:15:00Z,34.17,-101.72,8.7,6.7,40,17,22,10.0,29.790354,,,TRUE,TRUE,,,,,,,SCT,900,,,,,,,VFR,,,,,,,,,,,,SPECI,1029.0
KPVJ 281015Z AUTO 00000KT 10SM CLR 07/07 A2982 RMK AO2 T00710071,KPVJ,2023-04-28T10:15:00Z,34.72,-97.22,7.1,7.1,0,0,,10.0,29.819881,,,TRUE,TRUE,,,,,,,CLR,,,,,,,,VFR,,,,,,,,,,,,SPECI,287.0
KPVF 281015Z AUTO 09006KT 10SM CLR 19/00 A2998 RMK AO1,KPVF,2023-04-28T10:15:00Z,38.72,-120.75,19.0,0.0,90,6,,10.0,29.97933,,,TRUE,TRUE,,,,,,,CLR,,,,,,,,VFR,,,,,,,,,,,,SPECI,788.0
KPVE 281015Z AUTO 00000KT 10SM CLR 13/13 A2970 RMK A01,KPVE,2023-04-28T10:15:00Z,35.65,-88.2,13.0,13.0,0,0,,10.0,29.698818,,,TRUE,TRUE,,,,,,,CLR,,,,,,,,VFR,,,,,,,,,,,,SPECI,146.0
KPVB 281015Z AUTO 10010KT 10SM CLR 06/M01 A2982 RMK AO1 T00601013,KPVB,2023-04-28T10:15:00Z,42.68,-90.43,6.0,-1.3,100,10,,10.0,29.819881,,,TRUE,TRUE,,,,,,,CLR,,,,,,,,VFR,,,,,,,,,,,,METAR,311.0
KPUJ 281015Z AUTO 22003KT 10SM OVC005 15/15 A2976 RMK AO2,KPUJ,2023-04-28T10:15:00Z,33.92,-84.93,15.0,15.0,220,3,,10.0,29.760826,,,TRUE,TRUE,,,,,,,OVC,500,,,,,,,IFR,,,,,,,,,,,,METAR,385.0
KPTT 281015Z AUTO 36007KT 10SM -RA SCT008 BKN027 OVC033 11/11 A2987 RMK AO2 P0003 T01090105,KPTT,2023-04-28T10:15:00Z,37.7,-98.75,10.9,10.5,360,7,,10.0,29.870079,,,TRUE,TRUE,,,,,,-RA,SCT,800,BKN,2700,OVC,3300,,,MVFR,,,,,,0.03,,,,,,SPECI,594.0
KPSO 281015Z AUTO 33007KT 10SM CLR 05/M04 A2997 RMK AO2 T00501037,KPSO,2023-04-28T10:15:00Z,37.28,-107.05,5.0,-3.7,330,7,,10.0,29.970472,,,TRUE,TRUE,,,,,,,CLR,,,,,,,,VFR,,,,,,,,,,,,SPECI,2332.0
KPSN 281015Z AUTO 00000KT 10SM CLR 09/09 A2978 RMK AO2,KPSN,2023-04-28T10:15:00Z,31.78,-95.7,9.0,9.0,0,0,,10.0,29.778543,,,TRUE,TRUE,,,,,,,CLR,,,,,,,,VFR,,,,,,,,,,,,SPECI,124.0
KPRS 281015Z AUTO 34005KT 10SM CLR 16/M02 A2984 RMK AO2 T01621016,KPRS,2023-04-28T10:15:00Z,29.63,-104.35,16.2,-1.6,340,5,,10.0,29.840551,,,TRUE,TRUE,,,,,,,CLR,,,,,,,,VFR,,,,,,,,,,,,SPECI,890.0
KPRO 281015Z AUTO 00000KT 10SM OVC080 08/05 A2979 RMK AO2 T00820046,KPRO,2023-04-28T10:15:00Z,41.83,-94.17,8.2,4.6,0,0,,10.0,29.790354,,,TRUE,TRUE,,,,,,,OVC,8000,,,,,,,VFR,,,,,,,,,,,,METAR,308.0
KPRG 281015Z AUTO 06008KT 10SM SCT029 SCT035 OVC041 10/09 A2975 RMK AO2 T00980088,KPRG,2023-04-28T10:15:00Z,39.7,-87.67,9.8,8.8,60,8,,10.0,29.749016,,,TRUE,TRUE,,,,,,,SCT,2900,SCT,3500,OVC,4100,,,VFR,,,,,,,,,,,,SPECI,197.0
KPPQ 281015Z AUTO 00000KT 10SM OVC090 10/06 A2980 RMK AO2 T00960057,KPPQ,2023-04-28T10:15:00Z,39.63,-90.78,9.6,5.7,0,0,,10.0,29.799213,,,TRUE,TRUE,,,,,,,OVC,9000,,,,,,,VFR,,,,,,,,,,,,SPECI,215.0
KPPO 281015Z AUTO 07004KT 10SM OVC100 08/03 A2982 RMK AO2 T00800034,KPPO,2023-04-28T10:15:00Z,41.57,-86.73,8.0,3.4,70,4,,10.0,29.819881,,,TRUE,TRUE,,,,,,,OVC,10000,,,,,,,VFR,,,,,,,,,,,,SPECI,242.0
KPPA 281015Z AUTO 05006KT 10SM 11/09 A2988 RMK AO2 T01050092,KPPA,2023-04-28T10:15:00Z,35.62,-101.0,10.5,9.2,50,6,,10.0,29.878937,,,TRUE,TRUE,,,,,,,,,,,,,,,,,,,,,,,,,,,SPECI,989.0
KPOY 281015Z AUTO 00000KT 10SM CLR 00/M06 A3022 RMK AO2,KPOY,2023-04-28T10:15:00Z,44.87,-108.8,0.0,-6.0,0,0,,10.0,30.221457,,,TRUE,TRUE,,,,,,,CLR,,,,,,,,VFR,,,,,,,,,,,,SPECI,1547.0
KPNT 281015Z AUTO 05005KT 10SM CLR 07/00 A2980 RMK AO2 T00661005,KPNT,2023-04-28T10:15:00Z,40.92,-88.62,6.6,-0.5,50,5,,10.0,29.799213,,,TRUE,TRUE,,,,,,,CLR,,,,,,,,VFR,,,,,,,,,,,,SPECI,199.0
KPNA 281015Z AUTO 30004KT 10SM CLR M04/M06 A3031 RMK AO2,KPNA,2023-04-28T10:15:00Z,42.8,-109.8,-4.0,-6.0,300,4,,10.0,30.31004,,,TRUE,TRUE,,,,,,,CLR,,,,,,,,VFR,,,,,,,,,,,,SPECI,2158.0
KPMV 281015Z AUTO 27003KT 10SM OVC080 11/05 A2979 RMK AO2 T01090052,KPMV,2023-04-28T10:15:00Z,40.95,-95.92,10.9,5.2,270,3,,10.0,29.790354,,,TRUE,TRUE,,,,,,,OVC,8000,,,,,,,VFR,,,,,,,,,,,,SPECI,365.0
KPMU 281015Z AUTO 29004KT 10SM OVC007 15/14 A2974 RMK AO2,KPMU,2023-04-28T10:15:00Z,34.37,-89.9,15.0,14.0,290,4,,10.0,29.740158,,,TRUE,TRUE,,,,,,,OVC,700,,,,,,,IFR,,,,,,,,,,,,METAR,67.0
KPMH 281015Z AUTO 16003KT 7SM -DZ BKN005 OVC012 15/13 A2973 RMK AO2 T01450125 P0004,KPMH,2023-04-28T10:15:00Z,38.83,-82.85,14.5,12.5,160,3,,7.0,29.731298,,,TRUE,TRUE,,,,,,-DZ,BKN,500,OVC,1200,,,,,IFR,,,,,,0.04,,,,,,METAR,200.0
KPIM 281015Z AUTO 24004KT 10SM OVC006 17/16 A2979 RMK AO2 T01660156,KPIM,2023-04-28T10:15:00Z,32.83,-84.88,16.6,15.6,240,4,,10.0,29.790354,,,TRUE,TRUE,,,,,,,OVC,600,,,,,,,IFR,,,,,,,,,,,,SPECI,274.0
KPHT 281015Z AUTO 00000KT 4SM BR BKN004 BKN009 OVC016 15/15 A2969 RMK A01,KPHT,2023-04-28T10:15:00Z,36.33,-88.38,15.0,15.0,0,0,,4.0,29.68996,,,TRUE,TRUE,,,,,,BR,BKN,400,BKN,900,OVC,1600,,,LIFR,,,,,,,,,,,,SPECI,172.0
KPHN 281015Z AUTO 02003KT 10SM CLR 06/01 A2989 RMK AO2,KPHN,2023-04-28T10:15:00Z,42.92,-82.52,6.0,1.0,20,3,,10.0,29.890747,,,TRUE,TRUE,,,,,,,CLR,,,,,,,,VFR,,,,,,,,,,,,METAR,195.0
KPEZ 281015Z AUTO 00000KT 1/4SM FG OVC001 18/18 A2979 RMK AO2 T01800175,KPEZ,2023-04-28T10:15:00Z,28.95,-98.52,18.0,17.5,0,0,,0.25,29.790354,,,TRUE,TRUE,,,,,,FG,OVC,100,,,,,,,LIFR,,,,,,,,,,,,SPECI,126.0
KPEQ 281015Z AUTO 00000KT 10SM CLR 12/M10 A2971 RMK AO2 T01221097,KPEQ,2023-04-28T10:15:00Z,31.38,-103.52,12.2,-9.7,0,0,,10.0,29.71063,,,TRUE,TRUE,,,,,,,CLR,,,,,,,,VFR,,,,,,,,,,,,SPECI,794.0
KPEA 281015Z AUTO 21004KT 10SM CLR 11/03 A2980 RMK AO2 T01060033,KPEA,2023-04-28T10:15:00Z,41.4,-92.95,10.6,3.3,210,4,,10.0,29.799213,,,TRUE,TRUE,,,,,,,CLR,,,,,,,,VFR,,,,,,,,,,,,SPECI,264.0
KPCW 281015Z AUTO 08007KT 9SM SCT047 BKN055 OVC070 09/09 A2980 RMK AO2,KPCW,2023-04-28T10:15:00Z,41.52,-82.87,9.0,9.0,80,7,,9.0,29.799213,,,TRUE,TRUE,,,,,,,SCT,4700,BKN,5500,OVC,7000,,,VFR,,,,,,,,,,,,SPECI,179.0
KPCM 281015Z AUTO 16004KT 10SM CLR 22/19 A2988 RMK AO2,KPCM,2023-04-28T10:15:00Z,28.0,-82.17,22.0,19.0,160,4,,10.0,29.878937,,,TRUE,TRUE,,,,,,,CLR,,,,,,,,VFR,,,,,,,,,,,,SPECI,43.0
KPBX 281015Z AUTO 15006KT 10SM SCT035 SCT042 SCT048 13/13 A2972 RMK AO2 T01280128,KPBX,2023-04-28T10:15:00Z,37.57,-82.57,12.8,12.8,150,6,,10.0,29.719488,,,TRUE,TRUE,,,,,,,SCT,3500,SCT,4200,SCT,4800,,,VFR,,,,,,,,,,,,METAR,447.0
KP52 281015Z AUTO 27004KT 10SM CLR 12/M04 A2995 RMK AO2,KP52,2023-04-28T10:15:00Z,34.73,-112.03,12.0,-4.0,270,4,,10.0,29.949802,,,TRUE,TRUE,,,,,,,CLR,,,,,,,,VFR,,,,,,,,,,,,METAR,1085.0
KP08 281015Z AUTO 11007KT 10SM CLR 17/M04 A2984 RMK AO2,KP08,2023-04-28T10:15:00Z,32.93,-111.43,17.0,-4.0,110,7,,10.0,29.840551,,,TRUE,TRUE,,,,,,,CLR,,,,,,,,VFR,,,,,,,,,,,,SPECI,477.0
KOZA 281015Z AUTO 19013G20KT 10SM CLR 17/03 A2979 RMK AO2,KOZA,2023-04-28T10:15:00Z,30.73,-101.2,17.0,3.0,190,13,20,10.0,29.790354,,,TRUE,TRUE,,,,,,,CLR,,,,,,,,VFR,,,,,,,,,,,,SPECI,721.0
KOXV 281015Z AUTO 23004KT 10SM BKN140 10/04 A2979 RMK AO2,KOXV,2023-04-28T10:15:00Z,41.28,-93.12,10.0,4.0,230,4,,10.0,29.790354,,,TRUE,TRUE,,,,,,,BKN,14000,,,,,,,VFR,,,,,,,,,,,,SPECI,280.0
KOXI 281015Z AUTO 08006KT 10SM SCT060 OVC070 08/01 A2981 RMK AO1,KOXI,2023-04-28T10:15:00Z,41.33,-86.67,8.0,1.0,80,6,,10.0,29.811024,,,TRUE,TRUE,,,,,,,SCT,6000,OVC,7000,,,,,VFR,,,,,,,,,,,,SPECI,208.0
KOXD 281015Z AUTO 00000KT 7SM OVC003 11/10 A2966 RMK AO2 T01100101,KOXD,2023-04-28T10:15:00Z,39.5,-84.78,11.0,10.1,0,0,,7.0,29.660433,,,TRUE,TRUE,,,,,,,OVC,300,,,,,,,LIFR,,,,,,,,,,,,METAR,317.0
KOWX 281015Z AUTO 03010KT 7SM SCT023 BKN031 OVC070 08/06 A2979 RMK AO1,KOWX,2023-04-28T10:15:00Z,41.03,-83.98,8.0,6.0,30,10,,7.0,29.790354,,,TRUE,TRUE,,,,,,,SCT,2300,BKN,3100,OVC,7000,,,VFR,,,,,,,,,,,,SPECI,232.0
KOWP 281015Z AUTO 00000KT 3SM BKN034 12/12 A2983 RMK AO2 T01240119,KOWP,2023-04-28T10:15:00Z,36.18,-96.15,12.4,11.9,0,0,,3.0,29.828741,,,TRUE,TRUE,,,,,,,BKN,3400,,,,,,,MVFR,,,,,,,,,,,,SPECI,267.0
KOWI 281015Z AUTO 00000KT 10SM FEW070 OVC085 09/08 A2981 RMK AO2,KOWI,2023-04-28T10:15:00Z,38.53,-95.25,9.0,8.0,0,0,,10.0,29.811024,,,TRUE,TRUE,,,,,,,FEW,7000,OVC,8500,,,,,VFR,,,,,,,,,,,,SPECI,292.0
KOUN 281015Z AUTO 00000KT 5SM BR CLR 08/08 A2981 RMK AO2 T00790075,KOUN,2023-04-28T10:15:00Z,35.25,-97.47,7.9,7.5,0,0,,5.0,29.811024,,,TRUE,TRUE,,,,,,BR,CLR,,,,,,,,MVFR,,,,,,,,,,,,METAR,359.0
KOSA 281015Z AUTO 00000KT 2 1/2SM BR CLR 08/ A2979 RMK AO2 VIS 1 3/4V4 T0082////,KOSA,2023-04-28T10:15:00Z,33.1,-94.97,8.2,,0,0,,2.5,29.790354,,,TRUE,TRUE,,,,,,BR,CLR,,,,,,,,IFR,,,,,,,,,,,,SPECI,108.0
KORG 281015Z AUTO 00000KT 1 3/4SM BR VV007 14/13 A2982 RMK AO2 VIS 3/4V5 T01390130,KORG,2023-04-28T10:15:00Z,30.07,-93.8,13.9,13.0,0,0,,1.75,29.819881,,,TRUE,TRUE,,,,,,BR,OVX,0,,,,,,,LIFR,,,,,,,,,,,700,SPECI,2.0
KOQN 281015Z AUTO 08006KT 10SM BKN009 10/08 A3010 RMK AO2,KOQN,2023-04-28T10:15:00Z,39.98,-75.58,10.0,8.0,80,6,,10.0,30.100393,,,TRUE,TRUE,,,,,,,BKN,900,,,,,,,IFR,,,,,,,,,,,,METAR,141.0
KOPN 281015Z AUTO 23004KT 10SM OVC015 16/14 A2980 RMK AO2,KOPN,2023-04-28T10:15:00Z,32.95,-84.27,16.0,14.0,230,4,,10.0,29.799213,,,TRUE,TRUE,,,,,,,OVC,1500,,,,,,,MVFR,,,,,,,,,,,,SPECI,241.0
KOPL 281015Z AUTO 00000KT 10SM CLR 14/13 A2981 RMK AO2 T01380130,KOPL,2023-04-28T10:15:00Z,30.55,-92.1,13.8,13.0,0,0,,10.0,29.811024,,,TRUE,TRUE,,,,,,,CLR,,,,,,,,VFR,,,,,,,,,,,,METAR,22.0
KOOA 281015Z AUTO 20006KT 10SM CLR 10/03 A2981 RMK AO2 T00960026,KOOA,2023-04-28T10:15:00Z,41.23,-92.5,9.6,2.6,200,6,,10.0,29.811024,,,TRUE,TRUE,,,,,,,CLR,,,,,,,,VFR,,,,,,,,,,,,SPECI,256.0
KONP 281015Z AUTO 00000KT 10SM CLR 07/06 A2995 RMK AO2,KONP,2023-04-28T10:15:00Z,44.57,-124.05,7.0,6.0,0,0,,10.0,29.949802,,,TRUE,TRUE,,,,,,,CLR,,,,,,,,VFR,,,,,,,,,,,,SPECI,43.0
KONL 281015Z AUTO 34023G31KT 10SM OVC007 06/04 A2993 RMK AO2 T00570042,KONL,2023-04-28T10:15:00Z,42.47,-98.68,5.7,4.2,340,23,31,10.0,29.929134,,,TRUE,TRUE,,,,,,,OVC,700,,,,,,,IFR,,,,,,,,,,,,SPECI,619.0
KOLZ 281015Z AUTO 12008KT 10SM CLR 07/M01 A2981 RMK A01,KOLZ,2023-04-28T10:15:00Z,42.67,-91.97,7.0,-1.0,120,8,,10.0,29.811024,,,TRUE,TRUE,,,,,,,CLR,,,,,,,,VFR,,,,,,,,,,,,SPECI,328.0
KOLG 281015Z AUTO 03010G14KT 10SM OVC007 05/04 A2987 RMK AO1,KOLG,2023-04-28T10:15:00Z,46.3,-91.82,5.0,4.0,30,10,14,10.0,29.870079,,,TRUE,TRUE,,,,,,,OVC,700,,,,,,,IFR,,,,,,,,,,,,SPECI,334.0
KOLE 281015Z AUTO 13004KT 10SM OVC012 08/06 A3000 RMK AO2,KOLE,2023-04-28T10:15:00Z,42.23,-78.37,8.0,6.0,130,4,,10.0,30.0,,,TRUE,TRUE,,,,,,,OVC,1200,,,,,,,MVFR,,,,,,,,,,,,METAR,651.0
KOKZ 281015Z AUTO 20003KT 10SM OVC039 17/16 A2980 RMK AO2 T01700165,KOKZ,2023-04-28T10:15:00Z,32.97,-82.83,17.0,16.5,200,3,,10.0,29.799213,,,TRUE,TRUE,,,,,,,OVC,3900,,,,,,,VFR,,,,,,,,,,,,METAR,128.0
KOKM 281015Z AUTO 00000KT 10SM OVC033 12/12 A2981 RMK AO2 T01150115,KOKM,2023-04-28T10:15:00Z,35.67,-95.95,11.5,11.5,0,0,,10.0,29.811024,,,TRUE,TRUE,,,,,,,OVC,3300,,,,,,,VFR,,,,,,,,,,,,METAR,215.0
KOJA 281015Z AUTO 25004KT 10SM CLR 08/08 A2985 RMK AO2 T00830075,KOJA,2023-04-28T10:15:00Z,35.55,-98.67,8.3,7.5,250,4,,10.0,29.84941,,,TRUE,TRUE,,,,,,,CLR,,,,,,,,VFR,,,,,,,,,,,,SPECI,490.0
KOGS 281015Z AUTO 05003KT 10SM CLR 02/01 A3012 RMK AO2,KOGS,2023-04-28T10:15:00Z,44.67,-75.47,2.0,1.0,50,3,,10.0,30.121063,,,TRUE,TRUE,,,,,,,CLR,,,,,,,,VFR,,,,,,,,,,,,SPECI,88.0
KOGA 281015Z AUTO 32013G18KT 10SM SCT095 05/01 A3010 RMK AO2 T00490007,KOGA,2023-04-28T10:15:00Z,41.12,-101.77,4.9,0.7,320,13,18,10.0,30.100393,,,TRUE,TRUE,,,,,,,SCT,9500,,,,,,,VFR,,,,,,,,,,,,SPECI,991.0
KOEL 281015Z AUTO 36022G29KT 10SM OVC020 07/03 A2998 RMK AO1 T00650025,KOEL,2023-04-28T10:15:00Z,39.12,-100.82,6.5,2.5,360,22,29,10.0,29.97933,,,TRUE,TRUE,,,,,,,OVC,2000,,,,,,,MVFR,,,,,,,,,,,,SPECI,924.0
KOEB 281015Z AUTO 05005KT 10SM -RA OVC070 07/02 A2984 RMK AO2 T00700020,KOEB,2023-04-28T10:15:00Z,41.92,-85.05,7.0,2.0,50,5,,10.0,29.840551,,,TRUE,TRUE,,,,,,-RA,OVC,7000,,,,,,,VFR,,,,,,,,,,,,METAR,291.0
KOBE 281015Z AUTO 00000KT 10SM CLR 22/22 A2988 RMK AO2,KOBE,2023-04-28T10:15:00Z,27.27,-80.85,22.0,22.0,0,0,,10.0,29.878937,,,TRUE,TRUE,,,,,,,CLR,,,,,,,,VFR,,,,,,,,,,,,METAR,11.0
KO86 281015Z AUTO 27004KT 10SM 08/03 A3003 RMK A01,KO86,2023-04-28T10:15:00Z,40.98,-122.7,8.0,3.0,270,4,,10.0,30.029528,,,TRUE,TRUE,,,,,,,,,,,,,,,,,,,,,,,,,,,SPECI,729.0
KO69 281015Z AUTO VRB03KT 7SM OVC004 09/09 A2992 RMK A01,KO69,2023-04-28T10:15:00Z,38.25,-122.6,9.0,9.0,0,3,,7.0,29.920275,,,TRUE,TRUE,,,,,,,OVC,400,,,,,,,LIFR,,,,,,,,,,,,SPECI,26.0
KO05 281015Z AUTO 31004KT 10SM FEW050 03/00 A3013 RMK A01,KO05,2023-04-28T10:15:00Z,40.28,-121.23,3.0,0.0,310,4,,10.0,30.129921,,,TRUE,TRUE,,,,,,,FEW,5000,,,,,,,VFR,,,,,,,,,,,,METAR,1380.0
KNUQ 281015Z AUTO 00000KT 10SM CLR 15/11 A2991 RMK AO2,KNUQ,2023-04-28T10:15:00Z,37.4,-122.05,15.0,11.0,0,0,,10.0,29.911417,,,TRUE,TRUE,,,,,,,CLR,,,,,,,,VFR,,,,,,,,,,,,SPECI,9.0
KNRN 281015Z AUTO 35019G25KT 10SM OVC019 07/05 A2999 RMK AO2,KNRN,2023-04-28T10:15:00Z,39.85,-99.9,7.0,5.0,350,19,25,10.0,29.991142,,,TRUE,TRUE,,,,,,,OVC,1900,,,,,,,MVFR,,,,,,,,,,,,METAR,726.0
KN03 281015Z AUTO 00000KT 10SM SCT012 06/05 A3012 RMK AO2,KN03,2023-04-28T10:15:00Z,42.6,-76.22,6.0,5.0,0,0,,10.0,30.121063,,,TRUE,TRUE,,,,,,,SCT,1200,,,,,,,VFR,,,,,,,,,,,,METAR,361.0
KMZZ 281015Z AUTO 01007KT 7SM -RA OVC050 06/06 A2975 RMK AO2 P0001 T00620055,KMZZ,2023-04-28T10:15:00Z,40.48,-85.68,6.2,5.5,10,7,,7.0,29.749016,,,TRUE,TRUE,,,,,,-RA,OVC,5000,,,,,,,VFR,,,,,,0.01,,,,,,SPECI,260.0
KMZH 281015Z AUTO 05004KT 7SM OVC005 05/03 A2988 RMK AO2,KMZH,2023-04-28T10:15:00Z,46.42,-92.8,5.0,3.0,50,4,,7.0,29.878937,,,TRUE,TRUE,,,,,,,OVC,500,,,,,,,IFR,,,,,,,,,,,,METAR,331.0
KMYZ 281015Z AUTO 00000KT 10SM CLR 10/08 A2982 RMK AO2,KMYZ,2023-04-28T10:15:00Z,39.85,-96.63,10.0,8.0,0,0,,10.0,29.819881,,,TRUE,TRUE,,,,,,,CLR,,,,,,,,VFR,,,,,,,,,,,,METAR,388.0
KMYP 281015Z AUTO OVC001 M08/M09 A3014 RMK AO2 PWINO,KMYP,2023-04-28T10:15:00Z,38.48,-106.32,-8.0,-9.0,,,,,30.138779,,,TRUE,TRUE,,,,,TRUE,,OVC,100,,,,,,,,,,,,,,,,,,,SPECI,3629.0
KMWO 281015Z AUTO 33003KT 5SM -DZ OVC004 10/ A2968 RMK AO2 T0101////,KMWO,2023-04-28T10:15:00Z,39.53,-84.4,10.1,,330,3,,5.0,29.681103,,,TRUE,TRUE,,,,,,-DZ,OVC,400,,,,,,,LIFR,,,,,,,,,,,,SPECI,197.0
KMWA 281015Z AUTO 35005KT 5SM BR OVC006 11/11 A2974 RMK AO2 T01120112,KMWA,2023-04-28T10:15:00Z,37.77,-89.02,11.2,11.2,350,5,,5.0,29.740158,,,TRUE,TRUE,,,,,,BR,OVC,600,,,,,,,IFR,,,,,,,,,,,,SPECI,142.0
KMUT 281015Z AUTO 00000KT 10SM CLR 02/01 A2981 RMK AO2,KMUT,2023-04-28T10:15:00Z,41.37,-91.15,2.0,1.0,0,0,,10.0,29.811024,,,TRUE,TRUE,,,,,,,CLR,,,,,,,,VFR,,,,,,,,,,,,SPECI,166.0
KMTK 281015Z AUTO 32014KT 10SM BKN060 22/20 A2979 RMK A01,KMTK,2023-04-28T10:15:00Z,,,22.0,20.0,320,14,,10.0,29.790354,,,TRUE,TRUE,,,,,,,BKN,6000,,,,,,,VFR,,,,,,,,,,,,METAR,
KMQW 281015Z AUTO 00000KT 10SM BKN010 OVC036 18/18 A2980 RMK AO2 T01790176,KMQW,2023-04-28T10:15:00Z,32.1,-82.88,17.9,17.6,0,0,,10.0,29.799213,,,TRUE,TRUE,,,,,,,BKN,1000,OVC,3600,,,,,MVFR,,,,,,,,,,,,METAR,62.0
KMQB 281015Z AUTO 33004KT 10SM CLR 05/00 A2982 RMK AO2 T00481002,KMQB,2023-04-28T10:15:00Z,40.52,-90.65,4.8,-0.2,330,4,,10.0,29.819881,,,TRUE,TRUE,,,,,,,CLR,,,,,,,,VFR,,,,,,,,,,,,SPECI,205.0
KMPZ 281015Z AUTO 00000KT 10SM CLR 05/03 A2980 RMK AO2,KMPZ,2023-04-28T10:15:00Z,40.95,-91.52,5.0,3.0,0,0,,10.0,29.799213,,,TRUE,TRUE,,,,,,,CLR,,,,,,,,VFR,,,,,,,,,,,,SPECI,222.0
KMPR 281015Z AUTO 30005KT 10SM OVC047 10/09 A2984 RMK AO2 T01050091,KMPR,2023-04-28T10:15:00Z,38.35,-97.68,10.5,9.1,300,5,,10.0,29.840551,,,TRUE,TRUE,,,,,,,OVC,4700,,,,,,,VFR,,,,,,,,,,,,METAR,455.0
KMNZ 281015Z AUTO 15007KT 10SM CLR 13/13 A2976 RMK AO2 T01280125,KMNZ,2023-04-28T10:15:00Z,31.67,-98.15,12.8,12.5,150,7,,10.0,29.760826,,,TRUE,TRUE,,,,,,,CLR,,,,,,,,VFR,,,,,,,,,,,,SPECI,397.0
KMNV 281015Z AUTO 00000KT 3/4SM BR 14/ A2972 RMK A01,KMNV,2023-04-28T10:15:00Z,35.55,-84.38,14.0,,0,0,,0.75,29.719488,,,TRUE,TRUE,,,,,,BR,,,,,,,,,,,,,,,,,,,,,SPECI,306.0
KMNH 281015Z AUTO 35017G26KT 7SM BKN009 BKN013 OVC024 M01/M02 A3017 RMK AO2,KMNH,2023-04-28T10:15:00Z,39.22,-104.65,-1.0,-2.0,350,17,26,7.0,30.171259,,,TRUE,TRUE,,,,,,,BKN,900,BKN,1300,OVC,2400,,,IFR,,,,,,,,,,,,SPECI,2152.0
KMMU 281015Z AUTO 02005KT 5SM BR OVC011 08/07 A3017 RMK AO2,KMMU,2023-04-28T10:15:00Z,40.78,-74.42,8.0,7.0,20,5,,5.0,30.171259,,,TRUE,TRUE,,,,,,BR,OVC,1100,,,,,,,MVFR,,,,,,,,,,,,SPECI,55.0
KMMT 281015Z AUTO 00000KT 10SM BKN007 OVC013 M A2974 RMK AO2 CIG 005V007 SLPNO ALSTG ESTMD $,KMMT,2023-04-28T10:15:00Z,33.92,-80.8,,,0,0,,10.0,29.740158,,,TRUE,TRUE,TRUE,,,,,,BKN,700,OVC,1300,,,,,IFR,,,,,,,,,,,,SPECI,76.0
KMMI 281015Z AUTO 00000KT 5SM BR OVC003 15/15 A2974 RMK A01,KMMI,2023-04-28T10:15:00Z,35.4,-84.57,15.0,15.0,0,0,,5.0,29.740158,,,TRUE,TRUE,,,,,,BR,OVC,300,,,,,,,LIFR,,,,,,,,,,,,SPECI,252.0
KMMH 281015Z AUTO 31003KT 10SM CLR 04/M05 A3025 RMK AO2 T00441047,KMMH,2023-04-28T10:15:00Z,37.62,-118.83,4.4,-4.7,310,3,,10.0,30.250984,,,TRUE,TRUE,,,,,,,CLR,,,,,,,,VFR,,,,,,,,,,,,SPECI,2167.0
KMLJ 281015Z AUTO VRB03KT 10SM BKN012 OVC037 18/18 A2978 RMK AO2,KMLJ,2023-04-28T10:15:00Z,33.15,-83.25,18.0,18.0,0,3,,10.0,29.778543,,,TRUE,TRUE,,,,,,,BKN,1200,OVC,3700,,,,,MVFR,,,,,,,,,,,,METAR,115.0
KMLE 281015Z AUTO 30005KT 10SM OVC070 12/07 A2979 RMK AO2 T01220074,KMLE,2023-04-28T10:15:00Z,41.2,-96.12,12.2,7.4,300,5,,10.0,29.790354,,,TRUE,TRUE,,,,,,,OVC,7000,,,,,,,VFR,,,,,,,,,,,,SPECI,318.0
KMKN 281015Z AUTO 14006KT 10SM 11/09 A2974 RMK AO2 T01100085,KMKN,2023-04-28T10:15:00Z,31.92,-98.6,11.0,8.5,140,6,,10.0,29.740158,,,TRUE,TRUE,,,,,,,,,,,,,,,,,,,,,,,,,,,SPECI,428.0
KMJD 281015Z AUTO 00000KT 10SM CLR 17/17 A2978 RMK AO2,KMJD,2023-04-28T10:15:00Z,30.48,-89.65,17.0,17.0,0,0,,10.0,29.778543,,,TRUE,TRUE,,,,,,,CLR,,,,,,,,VFR,,,,,,,,,,,,METAR,17.0
KMIO 281015Z AUTO 00000KT M1/4SM FG OVC002 08/08 A2981 RMK AO2,KMIO,2023-04-28T10:15:00Z,36.92,-94.88,8.0,8.0,0,0,,0.25,29.811024,,,TRUE,TRUE,,,,,,FG,OVC,200,,,,,,,LIFR,,,,,,,,,,,,SPECI,245.0
KMHR 281015Z AUTO 00000KT 10SM FEW038 15/11 A2985 RMK A01,KMHR,2023-04-28T10:15:00Z,38.55,-121.28,15.0,11.0,0,0,,10.0,29.84941,,,TRUE,TRUE,,,,,,,FEW,3800,,,,,,,VFR,,,,,,,,,,,,SPECI,30.0
KMHP 281015Z AUTO 23003KT 5SM HZ OVC002 17/ A2980 RMK AO2 T0169////,KMHP,2023-04-28T10:15:00Z,32.37,-82.08,16.9,,230,3,,5.0,29.799213,,,TRUE,TRUE,,,,,,HZ,OVC,200,,,,,,,LIFR,,,,,,,,,,,,METAR,60.0
KMGC 281015Z AUTO 00000KT 10SM OVC120 08/01 A2983 RMK AO2,KMGC,2023-04-28T10:15:00Z,41.7,-86.82,8.0,1.0,0,0,,10.0,29.828741,,,TRUE,TRUE,,,,,,,OVC,12000,,,,,,,VFR,,,,,,,,,,,,SPECI,199.0
KMEV 281015Z AUTO 13005KT 10SM FEW036 SCT044 SCT049 03/M03 A3015 RMK AO2,KMEV,2023-04-28T10:15:00Z,38.98,-119.75,3.0,-3.0,130,5,,10.0,30.15059,,,TRUE,TRUE,,,,,,,FEW,3600,SCT,4400,SCT,4900,,,VFR,,,,,,,,,,,,SPECI,1437.0
KMER 281015Z AUTO 00000KT 10SM CLR 14/14 A2987 RMK AO1,KMER,2023-04-28T10:15:00Z,37.38,-120.57,14.0,14.0,0,0,,10.0,29.870079,,,TRUE,TRUE,,,,,,,CLR,,,,,,,,VFR,,,,,,,,,,,,SPECI,58.0
KMDQ 281015Z AUTO 10SM OVC013 17/15 A2969 RMK A02 LTG DSNT N AND NE T01680155,KMDQ,2023-04-28T10:15:00Z,34.87,-86.55,16.8,15.5,,,,10.0,29.68996,,,TRUE,TRUE,,,,,,,OVC,1300,,,,,,,MVFR,,,,,,,,,,,,METAR,221.0
KMDD 281015Z AUTO 20013KT 10SM 18/M02 A2970 RMK AO2 T01841019,KMDD,2023-04-28T10:15:00Z,32.03,-102.1,18.4,-1.9,200,13,,10.0,29.698818,,,TRUE,TRUE,,,,,,,,,,,,,,,,,,,,,,,,,,,SPECI,853.0
KMCC 281015Z AUTO 12005KT 10SM CLR 17/12 A2986 RMK AO2,KMCC,2023-04-28T10:15:00Z,38.67,-121.4,17.0,12.0,120,5,,10.0,29.861221,,,TRUE,TRUE,,,,,,,CLR,,,,,,,,VFR,,,,,,,,,,,,SPECI,21.0
KMBT 281015Z AUTO 16004KT 10SM FEW004 SCT030 BKN035 15/15 A2967 RMK A01,KMBT,2023-04-28T10:15:00Z,35.88,-86.38,15.0,15.0,160,4,,10.0,29.66929,,,TRUE,TRUE,,,,,,,FEW,400,SCT,3000,BKN,3500,,,VFR,,,,,,,,,,,,SPECI,187.0
KM75 281015Z AUTO 00000KT 10SM CLR M00/M00 A3014 RMK A01,KM75,2023-04-28T10:15:00Z,48.37,-107.92,0.0,0.0,0,0,,10.0,30.138779,,,TRUE,TRUE,,,,,,,CLR,,,,,,,,VFR,,,,,,,,,,,,SPECI,687.0
KM30 281015Z AUTO 01006KT 3SM BR OVC003 12/12 A2971 RMK AO2 T01210116,KM30,2023-04-28T10:15:00Z,37.18,-88.75,12.1,11.6,10,6,,3.0,29.71063,,,TRUE,TRUE,,,,,,BR,OVC,300,,,,,,,LIFR,,,,,,,,,,,,METAR,116.0
KM08 281015Z AUTO 24004KT 10SM BKN006 OVC050 13/13 A2971 RMK A01,KM08,2023-04-28T10:15:00Z,35.22,-89.05,13.0,13.0,240,4,,10.0,29.71063,,,TRUE,TRUE,,,,,,,BKN,600,OVC,5000,,,,,IFR,,,,,,,,,,,,SPECI,149.0
KM02 281015Z AUTO 00000KT 6SM BR BKN013 OVC021 14/14 A2968 RMK A01,KM02,2023-04-28T10:15:00Z,36.13,-87.43,14.0,14.0,0,0,,6.0,29.681103,,,TRUE,TRUE,,,,,,BR,BKN,1300,OVC,2100,,,,,MVFR,,,,,,,,,,,,SPECI,268.0
KLZZ 281015Z AUTO 00000KT 10SM CLR 13/12 A2973 RMK AO2 T01310118,KLZZ,2023-04-28T10:15:00Z,31.1,-98.2,13.1,11.8,0,0,,10.0,29.731298,,,TRUE,TRUE,,,,,,,CLR,,,,,,,,VFR,,,,,,,,,,,,METAR,356.0
KLYO 281015Z AUTO 30003KT 5SM -RA BR BKN042 OVC047 11/09 A2985 RMK AO2 T01060093,KLYO,2023-04-28T10:15:00Z,38.35,-98.23,10.6,9.3,300,3,,5.0,29.84941,,,TRUE,TRUE,,,,,,-RA BR,BKN,4200,OVC,4700,,,,,MVFR,,,,,,,,,,,,METAR,515.0
KLXY 281015Z AUTO 28004KT 10SM CLR 12/12 A2979 RMK AO2 T01190116,KLXY,2023-04-28T10:15:00Z,31.63,-96.52,11.9,11.6,280,4,,10.0,29.790354,,,TRUE,TRUE,,,,,,,CLR,,,,,,,,VFR,,,,,,,,,,,,SPECI,164.0
KLXN 281015Z AUTO 34018G25KT 10SM OVC016 07/05 A2997 RMK AO2 T00680046,KLXN,2023-04-28T10:15:00Z,40.78,-99.77,6.8,4.6,340,18,25,10.0,29.970472,,,TRUE,TRUE,,,,,,,OVC,1600,,,,,,,MVFR,,,,,,,,,,,,SPECI,734.0
KLWA 281015Z AUTO 08003KT 10SM CLR 08/01 A2984 RMK AO2 T00810013,KLWA,2023-04-28T10:15:00Z,42.35,-86.25,8.1,1.3,80,3,,10.0,29.840551,,,TRUE,TRUE,,,,,,,CLR,,,,,,,,VFR,,,,,,,,,,,,METAR,199.0
KLUV 281015Z AUTO 29009KT 10SM CLR 15/M01 A2972 RMK AO2,KLUV,2023-04-28T10:15:00Z,32.75,-101.92,15.0,-1.0,290,9,,10.0,29.719488,,,TRUE,TRUE,,,,,,,CLR,,,,,,,,VFR,,,,,,,,,,,,SPECI,910.0
KLUL 281015Z AUTO 00000KT 10SM BKN040 OVC050 16/ A2978 RMK A02 T0161////,KLUL,2023-04-28T10:15:00Z,31.67,-89.17,16.1,,0,0,,10.0,29.778543,,,TRUE,TRUE,,,,,,,BKN,4000,OVC,5000,,,,,VFR,,,,,,,,,,,,METAR,74.0
KLUG 281015Z AUTO 00000KT 10SM FEW005 BKN034 OVC065 14/14 A2968 RMK A01,KLUG,2023-04-28T10:15:00Z,35.52,-86.8,14.0,14.0,0,0,,10.0,29.681103,,,TRUE,TRUE,,,,,,,FEW,500,BKN,3400,OVC,6500,,,VFR,,,,,,,,,,,,SPECI,218.0
KLUD 281015Z AUTO 13005KT 10SM CLR 11/10 A2979 RMK AO2 T01130100,KLUD,2023-04-28T10:15:00Z,33.25,-97.58,11.3,10.0,130,5,,10.0,29.790354,,,TRUE,TRUE,,,,,,,CLR,,,,,,,,VFR,,,,,,,,,,,,SPECI,319.0
KLRU 281015Z AUTO 27009KT 10SM CLR 16/M07 A2988 RMK AO2 T01551073,KLRU,2023-04-28T10:15:00Z,32.28,-106.92,15.5,-7.3,270,9,,10.0,29.878937,,,TRUE,TRUE,,,,,,,CLR,,,,,,,,VFR,,,,,,,,,,,,METAR,1355.0
KLRJ 281015Z AUTO 00000KT 9SM -RA OVC065 11/11 A2977 RMK AO2,KLRJ,2023-04-28T10:15:00Z,42.77,-96.2,11.0,11.0,0,0,,9.0,29.769686,,,TRUE,TRUE,,,,,,-RA,OVC,6500,,,,,,,VFR,,,,,,,,,,,,SPECI,363.0
KLOT 281015Z AUTO 02004KT 10SM CLR 07/03 A2983 RMK AO2,KLOT,2023-04-28T10:15:00Z,41.6,-88.1,7.0,3.0,20,4,,10.0,29.828741,,,TRUE,TRUE,,,,,,,CLR,,,,,,,,VFR,,,,,,,,,,,,SPECI,205.0
KLOM 281015Z AUTO 08009KT 7SM OVC005 09/09 A3012 RMK AO2 T00920086,KLOM,2023-04-28T10:15:00Z,40.13,-75.27,9.2,8.6,80,9,,7.0,30.121063,,,TRUE,TRUE,,,,,,,OVC,500,,,,,,,IFR,,,,,,,,,,,,SPECI,87.0
KLNQ 281015Z AUTO 27004KT 10SM CLR 23/21 A2980 RMK AO2 T02280205,KLNQ,2023-04-28T10:15:00Z,29.35,-89.43,22.8,20.5,270,4,,10.0,29.799213,,,TRUE,TRUE,,,,,,,CLR,,,,,,,,VFR,,,,,,,,,,,,METAR,1.0
KLNN 281015Z AUTO 14007KT 10SM CLR 14/07 A2983 RMK AO1 T01350067,KLNN,2023-04-28T10:15:00Z,41.68,-81.38,13.5,6.7,140,7,,10.0,29.828741,,,TRUE,TRUE,,,,,,,CLR,,,,,,,,VFR,,,,,,,,,,,,SPECI,190.0
KLNA 281015Z AUTO 00000KT 10SM CLR 22/19 A2991 RMK AO2 T02150191,KLNA,2023-04-28T10:15:00Z,26.6,-80.08,21.5,19.1,0,0,,10.0,29.911417,,,TRUE,TRUE,,,,,,,CLR,,,,,,,,VFR,,,,,,,,,,,,SPECI,3.0
KLMS 281015Z AUTO VRB04KT 9SM SCT002 15/15 A2977 RMK AO2,KLMS,2023-04-28T10:15:00Z,,,15.0,15.0,0,4,,9.0,29.769686,,,TRUE,TRUE,,,,,,,SCT,200,,,,,,,VFR,,,,,,,,,,,,SPECI,
KLMO 281015Z AUTO 01004KT 10SM CLR 05/M02 A3022 RMK AO2 T00471023,KLMO,2023-04-28T10:15:00Z,40.17,-105.17,4.7,-2.3,10,4,,10.0,30.221457,,,TRUE,TRUE,,,,,,,CLR,,,,,,,,VFR,,,,,,,,,,,,SPECI,1535.0
KLLN 281015Z AUTO 35018G26KT 10SM FEW038 FEW044 SCT050 13/03 A2975 RMK AO2,KLLN,2023-04-28T10:15:00Z,33.55,-102.37,13.0,3.0,350,18,26,10.0,29.749016,,,TRUE,TRUE,,,,,,,FEW,3800,FEW,4400,SCT,5000,,,VFR,,,,,,,,,,,,SPECI,1071.0
KLHX 281015Z AUTO 36018G29KT 10SM BKN020 BKN026 OVC032 06/03 A3008 RMK AO2 PK WND 36029/1011 T00560028 $,KLHX,2023-04-28T10:15:00Z,38.05,-103.52,5.6,2.8,360,18,29,10.0,30.079725,,,TRUE,TRUE,TRUE,,,,,,BKN,2000,BKN,2600,OVC,3200,,,MVFR,,,,,,,,,,,,SPECI,1289.0
KLHM 281015Z AUTO 08006KT 10SM CLR 13/10 A2985 RMK AO1,KLHM,2023-04-28T10:15:00Z,38.92,-121.35,13.0,10.0,80,6,,10.0,29.84941,,,TRUE,TRUE,,,,,,,CLR,,,,,,,,VFR,,,,,,,,,,,,SPECI,36.0
KLHB 281015Z AUTO 00000KT 10SM CLR 14/12 A2977 RMK AO2 T01350121,KLHB,2023-04-28T10:15:00Z,30.87,-96.62,13.5,12.1,0,0,,10.0,29.769686,,,TRUE,TRUE,,,,,,,CLR,,,,,,,,VFR,,,,,,,,,,,,SPECI,83.0
KLGC 281015Z AUTO 00000KT 5SM BR OVC006 16/16 A2977 RMK AO2 T01640157,KLGC,2023-04-28T10:15:00Z,33.0,-85.07,16.4,15.7,0,0,,5.0,29.769686,,,TRUE,TRUE,,,,,,BR,OVC,600,,,,,,,IFR,,,,,,,,,,,,METAR,209.0
KLCQ 281015Z AUTO 14004KT 10SM CLR 16/16 A2984 RMK AO2,KLCQ,2023-04-28T10:15:00Z,30.18,-82.58,16.0,16.0,140,4,,10.0,29.840551,,,TRUE,TRUE,,,,,,,CLR,,,,,,,,VFR,,,,,,,,,,,,METAR,59.0
KLCG 281015Z AUTO 32016G20KT 10SM OVC007 09/08 A2981 RMK AO2 T00920080,KLCG,2023-04-28T10:15:00Z,42.25,-96.98,9.2,8.0,320,16,20,10.0,29.811024,,,TRUE,TRUE,,,,,,,OVC,700,,,,,,,IFR,,,,,,,,,,,,SPECI,434.0
KLAM 281015Z AUTO 35007KT 260V020 9SM FEW100 07/M03 A2996 RMK AO2 T00701028 $,KLAM,2023-04-28T10:15:00Z,35.87,-106.27,7.0,-2.8,350,7,,9.0,29.958662,,,TRUE,TRUE,TRUE,,,,,,FEW,10000,,,,,,,VFR,,,,,,,,,,,,SPECI,2166.0
KK88 281015Z AUTO 00000KT 3/4SM VV005 06/05 A2983 RMK AO1 T00590053,KK88,2023-04-28T10:15:00Z,37.87,-95.38,5.9,5.3,0,0,,0.75,29.828741,,,TRUE,TRUE,,,,,,,OVX,0,,,,,,,LIFR,,,,,,,,,,,500,SPECI,308.0
KK82 281015Z AUTO 34027G32KT 10SM BKN017 BKN024 OVC044 10/07 A2988 RMK AO2 T00970074,KK82,2023-04-28T10:15:00Z,39.77,-98.8,9.7,7.4,340,27,32,10.0,29.878937,,,TRUE,TRUE,,,,,,,BKN,1700,BKN,2400,OVC,4400,,,MVFR,,,,,,,,,,,,SPECI,548.0
KK62 281015Z AUTO 18004KT 10SM OVC003 13/ A2966 RMK AO2,KK62,2023-04-28T10:15:00Z,38.7,-84.4,13.0,,180,4,,10.0,29.660433,,,TRUE,TRUE,,,,,,,OVC,300,,,,,,,LIFR,,,,,,,,,,,,SPECI,274.0
KJZP 281015Z AUTO 13004KT 5SM BR OVC002 14/14 A2977 RMK AO2 T01410139,KJZP,2023-04-28T10:15:00Z,34.45,-84.47,14.1,13.9,130,4,,5.0,29.769686,,,TRUE,TRUE,,,,,,BR,OVC,200,,,,,,,LIFR,,,,,,,,,,,,METAR,462.0
KJYR 281015Z AUTO 33013G19KT 10SM UP BKN011 OVC016 09/08 A2983 RMK AO2,KJYR,2023-04-28T10:15:00Z,40.9,-97.62,9.0,8.0,330,13,19,10.0,29.828741,,,TRUE,TRUE,,,,,,UP,BKN,1100,OVC,1600,,,,,MVFR,,,,,,,,,,,,SPECI,508.0
KJYM 281015Z AUTO 07007KT 10SM RA BKN060 OVC070 07/02 A2982 RMK AO2 T00720019,KJYM,2023-04-28T10:15:00Z,41.92,-84.58,7.2,1.9,70,7,,10.0,29.819881,,,TRUE,TRUE,,,,,,RA,BKN,6000,OVC,7000,,,,,VFR,,,,,,,,,,,,METAR,357.0
KJYL 281015Z AUTO 00000KT 10SM SCT009 SCT015 19/18 A2979 RMK AO2 T01850180,KJYL,2023-04-28T10:15:00Z,32.65,-81.6,18.5,18.0,0,0,,10.0,29.790354,,,TRUE,TRUE,,,,,,,SCT,900,SCT,1500,,,,,VFR,,,,,,,,,,,,SPECI,54.0
KJWY 281015Z AUTO 00000KT 5SM BR BKN110 11/11 A2982 RMK AO2 T01080105,KJWY,2023-04-28T10:15:00Z,32.45,-96.92,10.8,10.5,0,0,,5.0,29.819881,,,TRUE,TRUE,,,,,,BR,BKN,11000,,,,,,,MVFR,,,,,,,,,,,,SPECI,211.0
KJWN 281015Z AUTO 00000KT M1/4SM FG OVC002 15/15 A2967 RMK AO2,KJWN,2023-04-28T10:15:00Z,36.18,-86.88,15.0,15.0,0,0,,0.25,29.66929,,,TRUE,TRUE,,,,,,FG,OVC,200,,,,,,,LIFR,,,,,,,,,,,,SPECI,149.0
KJWG 281015Z AUTO 00000KT 4SM BR SCT110 07/07 A2986 RMK AO2 T00730069,KJWG,2023-04-28T10:15:00Z,35.87,-98.42,7.3,6.9,0,0,,4.0,29.861221,,,TRUE,TRUE,,,,,,BR,SCT,11000,,,,,,,MVFR,,,,,,,,,,,,SPECI,469.0
KJVY 281015Z AUTO 00000KT 7SM OVC004 12/12 A2966 RMK AO2 PWINO,KJVY,2023-04-28T10:15:00Z,38.37,-85.73,12.0,12.0,0,0,,7.0,29.660433,,,TRUE,TRUE,,,,,TRUE,,OVC,400,,,,,,,LIFR,,,,,,,,,,,,METAR,141.0
KJVW 281015Z AUTO 00000KT 1/2SM FG VV005 14/14 A2978 RMK AO2,KJVW,2023-04-28T10:15:00Z,32.3,-90.42,14.0,14.0,0,0,,0.5,29.778543,,,TRUE,TRUE,,,,,,FG,OVX,0,,,,,,,LIFR,,,,,,,,,,,500,SPECI,73.0
KJTC 281015Z AUTO 27011KT 10SM CLR 10/M09 A3008 RMK AO2,KJTC,2023-04-28T10:15:00Z,34.13,-109.32,10.0,-9.0,270,11,,10.0,30.079725,,,TRUE,TRUE,,,,,,,CLR,,,,,,,,VFR,,,,,,,,,,,,SPECI,2148.0
KJSV 281015Z AUTO 00000KT 1SM BR FEW002 SCT038 11/11 A2980 RMK AO2,KJSV,2023-04-28T10:15:00Z,35.43,-94.8,11.0,11.0,0,0,,1.0,29.799213,,,TRUE,TRUE,,,,,,BR,FEW,200,SCT,3800,,,,,IFR,,,,,,,,,,,,METAR,158.0
KJPX 281015Z AUTO 00000KT 10SM CLR 00/00 A3021 RMK AO2 T00020002,KJPX,2023-04-28T10:15:00Z,40.95,-72.25,0.2,0.2,0,0,,10.0,30.209646,,,TRUE,TRUE,,,,,,,CLR,,,,,,,,VFR,,,,,,,,,,,,SPECI,10.0
KJOT 281015Z AUTO 36003KT 10SM CLR 08/03 A2982 RMK AO2 T00800025,KJOT,2023-04-28T10:15:00Z,41.52,-88.18,8.0,2.5,360,3,,10.0,29.819881,,,TRUE,TRUE,,,,,,,CLR,,,,,,,,VFR,,,,,,,,,,,,SPECI,175.0
KJKA 281015Z AUTO 25003KT 10SM OVC009 21/21 A2977 RMK AO2,KJKA,2023-04-28T10:15:00Z,30.28,-87.67,21.0,21.0,250,3,,10.0,29.769686,,,TRUE,TRUE,,,,,,,OVC,900,,,,,,,IFR,,,,,,,,,,,,METAR,5.0
KJES 281015Z AUTO 00000KT 10SM OVC012 18/17 A2984 RMK AO2,KJES,2023-04-28T10:15:00Z,31.55,-81.88,18.0,17.0,0,0,,10.0,29.840551,,,TRUE,TRUE,,,,,,,OVC,1200,,,,,,,MVFR,,,,,,,,,,,,SPECI,26.0
KJCA 281015Z AUTO 00000KT 1 1/2SM BR OVC002 14/ A2978 RMK AO2 T0142////,KJCA,2023-04-28T10:15:00Z,34.18,-83.57,14.2,,0,0,,1.5,29.778543,,,TRUE,TRUE,,,,,,BR,OVC,200,,,,,,,LIFR,,,,,,,,,,,,SPECI,287.0
KJAS 281015Z AUTO 21006KT 6SM BR CLR 09/09 A2979 RMK AO2,KJAS,2023-04-28T10:15:00Z,30.88,-94.03,9.0,9.0,210,6,,6.0,29.790354,,,TRUE,TRUE,,,,,,BR,CLR,,,,,,,,VFR,,,,,,,,,,,,SPECI,60.0
KIZA 281015Z AUTO 27004KT M1/4SM FG OVC001 09/09 A2992 RMK AO2,KIZA,2023-04-28T10:15:00Z,34.6,-120.07,9.0,9.0,270,4,,0.25,29.920275,,,TRUE,TRUE,,,,,,FG,OVC,100,,,,,,,LIFR,,,,,,,,,,,,SPECI,200.0
KIYA 281015Z AUTO 15003KT 3SM BR CLR 15/14 A2982 RMK AO2 T01530137,KIYA,2023-04-28T10:15:00Z,29.98,-92.08,15.3,13.7,150,3,,3.0,29.819881,,,TRUE,TRUE,,,,,,BR,CLR,,,,,,,,MVFR,,,,,,,,,,,,SPECI,4.0
KIWA 281015Z AUTO 13007KT 10SM CLR 17/M03 A2982 RMK AO2 T01711030,KIWA,2023-04-28T10:15:00Z,33.3,-111.65,17.1,-3.0,130,7,,10.0,29.819881,,,TRUE,TRUE,,,,,,,CLR,,,,,,,,VFR,,,,,,,,,,,,SPECI,420.0
KIRS 281015Z AUTO 06005KT 10SM DZ BKN070 OVC090 07/M02 A2982 RMK AO2 T00721021,KIRS,2023-04-28T10:15:00Z,41.8,-85.43,7.2,-2.1,60,5,,10.0,29.819881,,,TRUE,TRUE,,,,,,DZ,BKN,7000,OVC,9000,,,,,VFR,,,,,,,,,,,,METAR,282.0
KIOB 281015Z AUTO 22004KT 10SM SCT005 OVC012 13/13 A2971 RMK AO2 PWINO,KIOB,2023-04-28T10:15:00Z,38.05,-83.98,13.0,13.0,220,4,,10.0,29.71063,,,TRUE,TRUE,,,,,TRUE,,SCT,500,OVC,1200,,,,,MVFR,,,,,,,,,,,,SPECI,301.0
KINJ 281015Z AUTO 09007KT 10SM CLR 13/13 A2978 RMK AO2 T01300130,KINJ,2023-04-28T10:15:00Z,32.08,-97.1,13.0,13.0,90,7,,10.0,29.778543,,,TRUE,TRUE,,,,,,,CLR,,,,,,,,VFR,,,,,,,,,,,,SPECI,208.0
KIMS 281015Z AUTO 00000KT 5SM BR OVC004 10/10 A2969 RMK AO2,KIMS,2023-04-28T10:15:00Z,38.75,-85.47,10.0,10.0,0,0,,5.0,29.68996,,,TRUE,TRUE,,,,,,BR,OVC,400,,,,,,,LIFR,,,,,,,,,,,,METAR,244.0
KIMM 281015Z AUTO 16003KT 10SM SCT034 SCT042 BKN050 A2989 RMK AO2,KIMM,2023-04-28T10:15:00Z,26.43,-81.4,,,160,3,,10.0,29.890747,,,TRUE,TRUE,,,,,,,SCT,3400,SCT,4200,BKN,5000,,,VFR,,,,,,,,,,,,SPECI,11.0
KIKW 281015Z AUTO 00000KT 10SM CLR 01/00 A2991 RMK AO2 T00100000,KIKW,2023-04-28T10:15:00Z,43.67,-84.27,1.0,0.0,0,0,,10.0,29.911417,,,TRUE,TRUE,,,,,,,CLR,,,,,,,,VFR,,,,,,,,,,,,SPECI,190.0
KIKV 281015Z AUTO 00000KT 9SM FEW075 06/05 A2980 RMK AO2,KIKV,2023-04-28T10:15:00Z,41.68,-93.57,6.0,5.0,0,0,,9.0,29.799213,,,TRUE,TRUE,,,,,,,FEW,7500,,,,,,,VFR,,,,,,,,,,,,SPECI,270.0
KIKK 281015Z AUTO 04005KT 10SM CLR 09/01 A2981 RMK AO2 T00880013 PWINO,KIKK,2023-04-28T10:15:00Z,41.07,-87.85,8.8,1.3,40,5,,10.0,29.811024,,,TRUE,TRUE,,,,,TRUE,,CLR,,,,,,,,VFR,,,,,,,,,,,,SPECI,188.0
KIKG 281015Z AUTO 17004KT 1/2SM FG OVC001 20/20 A2978 RMK AO2 T01980196,KIKG,2023-04-28T10:15:00Z,27.55,-98.03,19.8,19.6,170,4,,0.5,29.778543,,,TRUE,TRUE,,,,,,FG,OVC,100,,,,,,,LIFR,,,,,,,,,,,,SPECI,37.0
KIJX 281015Z AUTO 00000KT 10SM OVC110 10/05 A2979 RMK AO2 T01000045,KIJX,2023-04-28T10:15:00Z,39.77,-90.25,10.0,4.5,0,0,,10.0,29.790354,,,TRUE,TRUE,,,,,,,OVC,11000,,,,,,,VFR,,,,,,,,,,,,SPECI,187.0
KIIY 281015Z AUTO 22005KT 10SM OVC006 17/17 A2977 RMK AO2 T01720169,KIIY,2023-04-28T10:15:00Z,33.78,-82.82,17.2,16.9,220,5,,10.0,29.769686,,,TRUE,TRUE,,,,,,,OVC,600,,,,,,,IFR,,,,,,,,,,,,METAR,192.0
KIIB 281015Z AUTO 11009KT 10SM CLR 04/00 A2982 RMK AO2 T00431001,KIIB,2023-04-28T10:15:00Z,42.45,-91.95,4.3,-0.1,110,9,,10.0,29.819881,,,TRUE,TRUE,,,,,,,CLR,,,,,,,,VFR,,,,,,,,,,,,SPECI,294.0
KIGQ 281015Z AUTO 08003KT 10SM CLR 09/02 A2982 RMK AO2 T00860015,KIGQ,2023-04-28T10:15:00Z,41.53,-87.53,8.6,1.5,80,3,,10.0,29.819881,,,TRUE,TRUE,,,,,,,CLR,,,,,,,,VFR,,,,,,,,,,,,METAR,187.0
KIFP 281015Z AUTO 00000KT 10SM CLR 22/M07 A2979 RMK AO2,KIFP,2023-04-28T10:15:00Z,35.15,-114.57,22.0,-7.0,0,0,,10.0,29.790354,,,TRUE,TRUE,,,,,,,CLR,,,,,,,,VFR,,,,,,,,,,,,SPECI,210.0
KIFA 281015Z AUTO 00000KT 10SM BKN080 08/03 A2980 RMK AO2 T00760027,KIFA,2023-04-28T10:15:00Z,42.47,-93.27,7.6,2.7,0,0,,10.0,29.799213,,,TRUE,TRUE,,,,,,,BKN,8000,,,,,,,VFR,,,,,,,,,,,,METAR,344.0
KIER 281015Z AUTO 00000KT 10SM CLR 11/11 A2980 RMK AO2 T01100110,KIER,2023-04-28T10:15:00Z,31.73,-93.1,11.0,11.0,0,0,,10.0,29.799213,,,TRUE,TRUE,,,,,,,CLR,,,,,,,,VFR,,,,,,,,,,,,SPECI,35.0
KIDP 281015Z AUTO 03004KT 1/4SM FG OVC001 07/07 A2982 RMK AO2 T00730071,KIDP,2023-04-28T10:15:00Z,37.17,-95.78,7.3,7.1,30,4,,0.25,29.819881,,,TRUE,TRUE,,,,,,FG,OVC,100,,,,,,,LIFR,,,,,,,,,,,,METAR,252.0
KIBM 281015Z AUTO 33014G19KT 10SM CLR 01/00 A3013 RMK AO2 T00081002,KIBM,2023-04-28T10:15:00Z,41.18,-103.68,0.8,-0.2,330,14,19,10.0,30.129921,,,TRUE,TRUE,,,,,,,CLR,,,,,,,,VFR,,,,,,,,,,,,SPECI,1494.0
KI95 281015Z AUTO 05006KT 3SM BR BKN009 OVC014 07/07 A2973 RMK A01,KI95,2023-04-28T10:15:00Z,,,7.0,7.0,50,6,,3.0,29.731298,,,TRUE,TRUE,,,,,,BR,BKN,900,OVC,1400,,,,,IFR,,,,,,,,,,,,SPECI,
KI75 281015Z AUTO 00000KT 10SM CLR 10/05 A2979 RMK AO2 T01000053,KI75,2023-04-28T10:15:00Z,41.05,-93.68,10.0,5.3,0,0,,10.0,29.790354,,,TRUE,TRUE,,,,,,,CLR,,,,,,,,VFR,,,,,,,,,,,,SPECI,336.0
KI74 281015Z AUTO 07007KT 3SM RA OVC004 10/10 A2970 RMK AO2 P0003,KI74,2023-04-28T10:15:00Z,40.12,-83.75,10.0,10.0,70,7,,3.0,29.698818,,,TRUE,TRUE,,,,,,RA,OVC,400,,,,,,,LIFR,,,,,,0.03,,,,,,METAR,322.0
KI67 281015Z AUTO 00000KT 10SM OVC005 09/08 A2967 RMK AO1,KI67,2023-04-28T10:15:00Z,39.25,-84.78,9.0,8.0,0,0,,10.0,29.66929,,,TRUE,TRUE,,,,,,,OVC,500,,,,,,,IFR,,,,,,,,,,,,METAR,177.0
KI63 281015Z AUTO 31004KT 10SM CLR 07/03 A2979 RMK AO2 T00710030,KI63,2023-04-28T10:15:00Z,39.98,-90.8,7.1,3.0,310,4,,10.0,29.790354,,,TRUE,TRUE,,,,,,,CLR,,,,,,,,VFR,,,,,,,,,,,,SPECI,221.0
KI23 281015Z AUTO 11010KT 2 1/2SM OVC005 12/12 A2969 RMK AO1 P0001,KI23,2023-04-28T10:15:00Z,39.57,-83.42,12.0,12.0,110,10,,2.5,29.68996,,,TRUE,TRUE,,,,,,,OVC,500,,,,,,,IFR,,,,,,0.01,,,,,,METAR,298.0
KI16 281015Z AUTO 10SM OVC039 14/13 A2981 RMK AO2 T01370128,KI16,2023-04-28T10:15:00Z,37.6,-81.57,13.7,12.8,,,,10.0,29.811024,,,TRUE,TRUE,,,,,,,OVC,3900,,,,,,,VFR,,,,,,,,,,,,SPECI,528.0
KHZX 281015Z AUTO 07004KT 10SM SCT110 06/04 A2988 RMK AO2,KHZX,2023-04-28T10:15:00Z,46.62,-93.32,6.0,4.0,70,4,,10.0,29.878937,,,TRUE,TRUE,,,,,,,SCT,11000,,,,,,,VFR,,,,,,,,,,,,METAR,374.0
KHZD 281015Z AUTO 00000KT 7SM FEW007 OVC015 15/15 A2969 RMK A01,KHZD,2023-04-28T10:15:00Z,36.08,-88.47,15.0,15.0,0,0,,7.0,29.68996,,,TRUE,TRUE,,,,,,,FEW,700,OVC,1500,,,,,MVFR,,,,,,,,,,,,SPECI,147.0
KHYW 281015Z AUTO 00000KT 10SM SCT013 OVC042 18/17 A2977 RMK AO2,KHYW,2023-04-28T10:15:00Z,33.83,-79.12,18.0,17.0,0,0,,10.0,29.769686,,,TRUE,TRUE,,,,,,,SCT,1300,OVC,4200,,,,,VFR,,,,,,,,,,,,SPECI,10.0
KHXD 281015Z AUTO 24006KT 10SM FEW010 SCT013 SCT019 19/18 A2980 RMK AO2,KHXD,2023-04-28T10:15:00Z,32.22,-80.7,19.0,18.0,240,6,,10.0,29.799213,,,TRUE,TRUE,,,,,,,FEW,1000,SCT,1300,SCT,1900,,,VFR,,,,,,,,,,,,SPECI,5.0
KHWO 281015Z AUTO 00000KT 10SM SCT025 22/19 A2992 RMK AO2 T02220194 $,KHWO,2023-04-28T10:15:00Z,26.0,-80.23,22.2,19.4,0,0,,10.0,29.920275,,,TRUE,TRUE,TRUE,,,,,,SCT,2500,,,,,,,VFR,,,,,,,,,,,,SPECI,2.0
KHVE 281015Z AUTO 03014G23KT 10SM CLR 09/M02 A3017 RMK AO2,KHVE,2023-04-28T10:15:00Z,38.42,-110.7,9.0,-2.0,30,14,23,10.0,30.171259,,,TRUE,TRUE,,,,,,,CLR,,,,,,,,VFR,,,,,,,,,,,,SPECI,1351.0
KHVC 281015Z AUTO 34004KT 10SM BKN004 OVC007 14/14 A2968 RMK AO2,KHVC,2023-04-28T10:15:00Z,,,14.0,14.0,340,4,,10.0,29.681103,,,TRUE,TRUE,,,,,,,BKN,400,OVC,700,,,,,LIFR,,,,,,,,,,,,SPECI,
KHUM 281015Z AUTO 29005KT 7SM CLR 20/16 A2981 RMK AO2 T01970160,KHUM,2023-04-28T10:15:00Z,29.57,-90.67,19.7,16.0,290,5,,7.0,29.811024,,,TRUE,TRUE,,,,,,,CLR,,,,,,,,VFR,,,,,,,,,,,,METAR,1.0
KHTH 281015Z AUTO 00000KT 10SM CLR 11/M05 A3011 RMK A01,KHTH,2023-04-28T10:15:00Z,38.55,-118.63,11.0,-5.0,0,0,,10.0,30.109253,,,TRUE,TRUE,,,,,,,CLR,,,,,,,,VFR,,,,,,,,,,,,SPECI,1281.0
KHSP 281015Z AUTO 08012G18KT M1/4SM RA OVC002 09/08 A2987 RMK AO2 P0004 T00870083,KHSP,2023-04-28T10:15:00Z,37.95,-79.82,8.7,8.3,80,12,18,0.25,29.870079,,,TRUE,TRUE,,,,,,RA,OVC,200,,,,,,,LIFR,,,,,,0.04,,,,,,SPECI,1148.0
KHSG 281015Z AUTO 00000KT 10SM CLR M02/M06 A3026 RMK AO2 T10221057,KHSG,2023-04-28T10:15:00Z,43.72,-108.38,-2.2,-5.7,0,0,,10.0,30.259842,,,TRUE,TRUE,,,,,,,CLR,,,,,,,,VFR,,,,,,,,,,,,SPECI,1497.0
KHSD 281015Z AUTO 19004KT 4SM BR CLR 08/07 A2981 RMK A01,KHSD,2023-04-28T10:15:00Z,35.6,-97.72,8.0,7.0,190,4,,4.0,29.811024,,,TRUE,TRUE,,,,,,BR,CLR,,,,,,,,MVFR,,,,,,,,,,,,SPECI,358.0
KHSB 281015Z AUTO 00000KT 5SM BR OVC006 12/12 A2972 RMK AO2 T01150115,KHSB,2023-04-28T10:15:00Z,37.82,-88.55,11.5,11.5,0,0,,5.0,29.719488,,,TRUE,TRUE,,,,,,BR,OVC,600,,,,,,,IFR,,,,,,,,,,,,METAR,118.0
KHRX 281015Z AUTO 03020G26KT 10SM SCT030 OVC036 12/08 A2985 RMK AO2 T01200080,KHRX,2023-04-28T10:15:00Z,34.87,-102.33,12.0,8.0,30,20,26,10.0,29.84941,,,TRUE,TRUE,,,,,,,SCT,3000,OVC,3600,,,,,VFR,,,,,,,,,,,,SPECI,1153.0
KHQZ 281015Z AUTO 00000KT 10SM CLR 10/10 A2981 RMK AO1 T00990095,KHQZ,2023-04-28T10:15:00Z,32.75,-96.53,9.9,9.5,0,0,,10.0,29.811024,,,TRUE,TRUE,,,,,,,CLR,,,,,,,,VFR,,,,,,,,,,,,SPECI,136.0
KHQU 281015Z AUTO 21003KT 10SM SCT007 OVC046 17/17 A2977 RMK AO2 T01720168,KHQU,2023-04-28T10:15:00Z,33.53,-82.52,17.2,16.8,210,3,,10.0,29.769686,,,TRUE,TRUE,,,,,,,SCT,700,OVC,4600,,,,,VFR,,,,,,,,,,,,METAR,141.0
KHQG 281015Z AUTO 01018G24KT 10SM SCT035 SCT060 OVC070 09/07 A2993 RMK AO2 T00870070,KHQG,2023-04-28T10:15:00Z,37.17,-101.37,8.7,7.0,10,18,24,10.0,29.929134,,,TRUE,TRUE,,,,,,,SCT,3500,SCT,6000,OVC,7000,,,VFR,,,,,,,,,,,,SPECI,956.0
KHQG 281015Z AUTO 01018G24KT 10SM SCT035 SCT060 OVC070 09/07 A2993 RMK AO2 T00870070,KHQG,2023-04-28T10:15:00Z,37.17,-101.37,8.7,7.0,10,18,24,10.0,29.929134,,,TRUE,TRUE,,,,,,,SCT,3500,SCT,6000,OVC,7000,,,VFR,,,,,,,,,,,,SPECI,956.0
KHPT 281015Z AUTO 00000KT 10SM OVC080 07/01 A2979 RMK AO2,KHPT,2023-04-28T10:15:00Z,42.72,-93.23,7.0,1.0,0,0,,10.0,29.790354,,,TRUE,TRUE,,,,,,,OVC,8000,,,,,,,VFR,,,,,,,,,,,,SPECI,354.0
KHOE 281015Z AUTO 20004KT 10SM OVC025 18/17 A2982 RMK AO2 T01890179,KHOE,2023-04-28T10:15:00Z,31.05,-82.78,18.9,17.9,200,4,,10.0,29.819881,,,TRUE,TRUE,,,,,,,OVC,2500,,,,,,,MVFR,,,,,,,,,,,,SPECI,56.0
KHNR 281015Z AUTO 00000KT 10SM CLR 07/07 A2978 RMK A01,KHNR,2023-04-28T10:15:00Z,41.58,-95.33,7.0,7.0,0,0,,10.0,29.778543,,,TRUE,TRUE,,,,,,,CLR,,,,,,,,VFR,,,,,,,,,,,,SPECI,364.0
KHMZ 281015Z AUTO 13011G17KT 7SM -SN BKN015 OVC020 11/10 A2997 RMK AO2 P0001 T01100100,KHMZ,2023-04-28T10:15:00Z,40.08,-78.52,11.0,10.0,130,11,17,7.0,29.970472,,,TRUE,TRUE,,,,,,-SN,BKN,1500,OVC,2000,,,,,MVFR,,,,,,0.01,,,,,,SPECI,351.0
KHMT 281015Z AUTO 00000KT 10SM CLR 10/09 A2993 RMK AO2 T01020091,KHMT,2023-04-28T10:15:00Z,33.73,-117.02,10.2,9.1,0,0,,10.0,29.929134,,,TRUE,TRUE,,,,,,,CLR,,,,,,,,VFR,,,,,,,,,,,,METAR,462.0
KHMP 281015Z AUTO 21005KT 10SM OVC021 16/16 A2980 RMK AO2 T01600158,KHMP,2023-04-28T10:15:00Z,33.38,-84.33,16.0,15.8,210,5,,10.0,29.799213,,,TRUE,TRUE,,,,,,,OVC,2100,,,,,,,MVFR,,,,,,,,,,,,METAR,263.0
KHLB 281015Z AUTO 06004KT 6SM BR OVC003 09/09 A2967 RMK A01,KHLB,2023-04-28T10:15:00Z,39.35,-85.27,9.0,9.0,60,4,,6.0,29.66929,,,TRUE,TRUE,,,,,,BR,OVC,300,,,,,,,LIFR,,,,,,,,,,,,SPECI,297.0
KHJH 281015Z AUTO 36008KT 10SM -RA OVC011 11/11 A2983 RMK AO2 T01130105,KHJH,2023-04-28T10:15:00Z,40.15,-97.58,11.3,10.5,360,8,,10.0,29.828741,,,TRUE,TRUE,,,,,,-RA,OVC,1100,,,,,,,MVFR,,,,,,,,,,,,SPECI,449.0
KHII 281015Z AUTO 00000KT 10SM CLR 23/M08 A2978 RMK AO2,KHII,2023-04-28T10:15:00Z,34.57,-114.37,23.0,-8.0,0,0,,10.0,29.778543,,,TRUE,TRUE,,,,,,,CLR,,,,,,,,VFR,,,,,,,,,,,,SPECI,241.0
KHHW 281015Z AUTO 00000KT 5SM BR CLR 09/09 A2979 RMK AO2,KHHW,2023-04-28T10:15:00Z,34.03,-95.55,9.0,9.0,0,0,,5.0,29.790354,,,TRUE,TRUE,,,,,,BR,CLR,,,,,,,,MVFR,,,,,,,,,,,,SPECI,178.0
KHHG 281015Z AUTO 02008KT 10SM -RA OVC065 06/06 A2977 RMK AO2 P0001 T00600060,KHHG,2023-04-28T10:15:00Z,40.85,-85.45,6.0,6.0,20,8,,10.0,29.769686,,,TRUE,TRUE,,,,,,-RA,OVC,6500,,,,,,,VFR,,,,,,0.01,,,,,,SPECI,247.0
KHHF 281015Z AUTO 00000KT 10SM SCT060 10/09 A2986 RMK AO2 T01010085,KHHF,2023-04-28T10:15:00Z,35.9,-100.4,10.1,8.5,0,0,,10.0,29.861221,,,TRUE,TRUE,,,,,,,SCT,6000,,,,,,,VFR,,,,,,,,,,,,SPECI,729.0
KHFJ 281015Z AUTO 00000KT 5SM BR OVC015 08/08 A2980 RMK AO2,KHFJ,2023-04-28T10:15:00Z,36.9,-94.02,8.0,8.0,0,0,,5.0,29.799213,,,TRUE,TRUE,,,,,,BR,OVC,1500,,,,,,,MVFR,,,,,,,,,,,,SPECI,398.0
KHEY 281015Z AUTO 00000KT 10SM OVC009 18/18 A2975 RMK AO2 CIG 007V009 SLP075,KHEY,2023-04-28T10:15:00Z,31.35,-85.65,18.0,18.0,0,0,,10.0,29.749016,1007.5,,TRUE,TRUE,,,,,,,OVC,900,,,,,,,IFR,,,,,,,,,,,,SPECI,95.0
KHEQ 281015Z AUTO 34020G24KT 10SM CLR 05/01 A3010 RMK AO2,KHEQ,2023-04-28T10:15:00Z,40.57,-102.28,5.0,1.0,340,20,24,10.0,30.100393,,,TRUE,TRUE,,,,,,,CLR,,,,,,,,VFR,,,,,,,,,,,,SPECI,1136.0
KHDL 281015Z AUTO 29004KT 8SM FEW005 FEW008 SCT014 19/19 A2977 RMK AO2,KHDL,2023-04-28T10:15:00Z,31.37,-85.32,19.0,19.0,290,4,,8.0,29.769686,,,TRUE,TRUE,,,,,,,FEW,500,FEW,800,SCT,1400,,,VFR,,,,,,,,,,,,METAR,109.0
KHDE 281015Z AUTO 33020G34KT 10SM OVC013 06/05 A2990 RMK AO2 T00640047,KHDE,2023-04-28T10:15:00Z,40.45,-99.33,6.4,4.7,330,20,34,10.0,29.899607,,,TRUE,TRUE,,,,,,,OVC,1300,,,,,,,MVFR,,,,,,,,,,,,SPECI,703.0
KHDC 281015Z AUTO 00000KT 10SM OVC035 16/16 A2980 RMK AO2 T01600156,KHDC,2023-04-28T10:15:00Z,30.52,-90.42,16.0,15.6,0,0,,10.0,29.799213,,,TRUE,TRUE,,,,,,,OVC,3500,,,,,,,VFR,,,,,,,,,,,,SPECI,12.0
KHCR 281015Z AUTO 09004KT 10SM CLR 01/M04 A3021 RMK AO2,KHCR,2023-04-28T10:15:00Z,40.48,-111.43,1.0,-4.0,90,4,,10.0,30.209646,,,TRUE,TRUE,,,,,,,CLR,,,,,,,,VFR,,,,,,,,,,,,SPECI,1708.0
KHCD 281015Z AUTO 04004KT 5SM RA OVC020 09/08 A2983 RMK AO2 T00900083 P0003,KHCD,2023-04-28T10:15:00Z,44.87,-94.38,9.0,8.3,40,4,,5.0,29.828741,,,TRUE,TRUE,,,,,,RA,OVC,2000,,,,,,,MVFR,,,,,,0.03,,,,,,METAR,320.0
KHBV 281015Z AUTO 19004KT 1 1/2SM BR OVC001 20/19 A2980 RMK AO2 T01960193,KHBV,2023-04-28T10:15:00Z,27.35,-98.73,19.6,19.3,190,4,,1.5,29.799213,,,TRUE,TRUE,,,,,,BR,OVC,100,,,,,,,LIFR,,,,,,,,,,,,SPECI,200.0
KHAI 281015Z AUTO 05004KT 10SM SCT085 BKN120 08/00 A2984 RMK AO2 T00800000,KHAI,2023-04-28T10:15:00Z,41.97,-85.6,8.0,0.0,50,4,,10.0,29.840551,,,TRUE,TRUE,,,,,,,SCT,8500,BKN,12000,,,,,VFR,,,,,,,,,,,,METAR,250.0
KGZS 281015Z AUTO 00000KT 10SM FEW016 SCT023 BKN029 17/17 A2968 RMK A01,KGZS,2023-04-28T10:15:00Z,35.15,-87.05,17.0,17.0,0,0,,10.0,29.681103,,,TRUE,TRUE,,,,,,,FEW,1600,SCT,2300,BKN,2900,,,MVFR,,,,,,,,,,,,SPECI,198.0
KGZL 281015Z AUTO 20004KT 5SM BR OVC030 13/12 A2980 RMK AO2,KGZL,2023-04-28T10:15:00Z,35.28,-95.1,13.0,12.0,200,4,,5.0,29.799213,,,TRUE,TRUE,,,,,,BR,OVC,3000,,,,,,,MVFR,,,,,,,,,,,,METAR,176.0
KGYI 281015Z AUTO 00000KT 10SM CLR 09/07 A2981 RMK AO2 T00850071 TSNO,KGYI,2023-04-28T10:15:00Z,33.72,-96.67,8.5,7.1,0,0,,10.0,29.811024,,,TRUE,TRUE,,,TRUE,,,,CLR,,,,,,,,VFR,,,,,,,,,,,,SPECI,227.0
KGYF 281015Z AUTO 07003KT 10SM CLR A2976 RMK AO2,KGYF,2023-04-28T10:15:00Z,26.13,-94.9,,,70,3,,10.0,29.760826,,,TRUE,TRUE,,,,,,,CLR,,,,,,,,VFR,,,,,,,,,,,,METAR,65.0
KGYB 281015Z AUTO 18004KT 10SM CLR 15/13 A2977 RMK AO2 T01500131,KGYB,2023-04-28T10:15:00Z,30.17,-96.98,15.0,13.1,180,4,,10.0,29.769686,,,TRUE,TRUE,,,,,,,CLR,,,,,,,,VFR,,,,,,,,,,,,SPECI,140.0
KGWB 281015Z AUTO 04009KT 10SM RA BKN065 07/05 A2980 RMK AO2,KGWB,2023-04-28T10:15:00Z,41.3,-85.07,7.0,5.0,40,9,,10.0,29.799213,,,TRUE,TRUE,,,,,,RA,BKN,6500,,,,,,,VFR,,,,,,,,,,,,SPECI,268.0
KGVT 281015Z AUTO 00000KT 10SM CLR 08/07 A2981 RMK AO2 TSNO T00750073,KGVT,2023-04-28T10:15:00Z,33.07,-96.07,7.5,7.3,0,0,,10.0,29.811024,,,TRUE,TRUE,,,TRUE,,,,CLR,,,,,,,,VFR,,,,,,,,,,,,SPECI,165.0
KGRY 281015Z AUTO VRB07G15KT 10SM OVC032 23/19 A2982 RMK A01,KGRY,2023-04-28T10:15:00Z,27.63,-90.45,23.0,19.0,0,7,15,10.0,29.819881,,,TRUE,TRUE,,,,,,,OVC,3200,,,,,,,VFR,,,,,,,,,,,,SPECI,58.0
KGRN 281015Z AUTO 32009KT 10SM CLR 03/02 A3010 RMK AO2 T00320016,KGRN,2023-04-28T10:15:00Z,42.8,-102.17,3.2,1.6,320,9,,10.0,30.100393,,,TRUE,TRUE,,,,,,,CLR,,,,,,,,VFR,,,,,,,,,,,,SPECI,1080.0
KGPM 281015Z AUTO 00000KT 10SM CLR 12/12 A2981 RMK AO2 T01200120,KGPM,2023-04-28T10:15:00Z,32.7,-97.05,12.0,12.0,0,0,,10.0,29.811024,,,TRUE,TRUE,,,,,,,CLR,,,,,,,,VFR,,,,,,,,,,,,SPECI,178.0
KGPC 281015Z AUTO 36009KT 7SM BKN007 BKN029 OVC034 09/08 A2973 RMK AO2 T00860078,KGPC,2023-04-28T10:15:00Z,39.63,-86.82,8.6,7.8,360,9,,7.0,29.731298,,,TRUE,TRUE,,,,,,,BKN,700,BKN,2900,OVC,3400,,,IFR,,,,,,,,,,,,SPECI,254.0
KGOP 281015Z AUTO 00000KT 10SM CLR 12/12 A2975 RMK AO2,KGOP,2023-04-28T10:15:00Z,31.42,-97.8,12.0,12.0,0,0,,10.0,29.749016,,,TRUE,TRUE,,,,,,,CLR,,,,,,,,VFR,,,,,,,,,,,,SPECI,272.0
KGOO 281015Z AUTO 00000KT 10SM CLR 19/03 A2999 RMK A01,KGOO,2023-04-28T10:15:00Z,39.22,-121.0,19.0,3.0,0,0,,10.0,29.991142,,,TRUE,TRUE,,,,,,,CLR,,,,,,,,VFR,,,,,,,,,,,,SPECI,950.0
KGNB 281015Z AUTO 30006KT 10SM SCT041 SCT048 BKN120 M02/M05 A3018 RMK AO2 T10221055,KGNB,2023-04-28T10:15:00Z,40.08,-105.92,-2.2,-5.5,300,6,,10.0,30.180119,,,TRUE,TRUE,,,,,,,SCT,4100,SCT,4800,BKN,12000,,,VFR,,,,,,,,,,,,SPECI,2500.0
KGMJ 281015Z AUTO 00000KT M1/4SM FG OVC002 08/08 A2980 RMK AO2,KGMJ,2023-04-28T10:15:00Z,36.6,-94.73,8.0,8.0,0,0,,0.25,29.799213,,,TRUE,TRUE,,,,,,FG,OVC,200,,,,,,,LIFR,,,,,,,,,,,,METAR,251.0
KGLW 281015Z AUTO 22003KT 4SM BR OVC004 15/15 A2969 RMK AO2 LTG DSNT E AND SE T01450145,KGLW,2023-04-28T10:15:00Z,37.03,-85.95,14.5,14.5,220,3,,4.0,29.68996,,,TRUE,TRUE,,,,,,BR,OVC,400,,,,,,,LIFR,,,,,,,,,,,,METAR,216.0
KGLE 281015Z AUTO 05003KT 10SM CLR 07/06 A2982 RMK AO2 T00710064,KGLE,2023-04-28T10:15:00Z,33.65,-97.2,7.1,6.4,50,3,,10.0,29.819881,,,TRUE,TRUE,,,,,,,CLR,,,,,,,,VFR,,,,,,,,,,,,SPECI,250.0
KGKT 281015Z AUTO 00000KT 2 1/2SM BR OVC003 14/14 A2973 RMK A01,KGKT,2023-04-28T10:15:00Z,35.85,-83.53,14.0,14.0,0,0,,2.5,29.731298,,,TRUE,TRUE,,,,,,BR,OVC,300,,,,,,,LIFR,,,,,,,,,,,,SPECI,305.0
KGIC 281015Z AUTO 08006KT 10SM CLR 05/M01 A3021 RMK AO1,KGIC,2023-04-28T10:15:00Z,45.95,-116.12,5.0,-1.0,80,6,,10.0,30.209646,,,TRUE,TRUE,,,,,,,CLR,,,,,,,,VFR,,,,,,,,,,,,SPECI,1002.0
KGGP 281015Z AUTO 01006KT 7SM RA SCT036 SCT044 OVC055 06/05 A2980 RMK AO2 P0001,KGGP,2023-04-28T10:15:00Z,40.72,-86.37,6.0,5.0,10,6,,7.0,29.799213,,,TRUE,TRUE,,,,,,RA,SCT,3600,SCT,4400,OVC,5500,,,VFR,,,,,,0.01,,,,,,SPECI,224.0
KGGI 281015Z AUTO 15003KT 10SM CLR 09/03 A2980 RMK AO2 T00920030,KGGI,2023-04-28T10:15:00Z,41.72,-92.73,9.2,3.0,150,3,,10.0,29.799213,,,TRUE,TRUE,,,,,,,CLR,,,,,,,,VFR,,,,,,,,,,,,METAR,305.0
KGGF 281015Z AUTO 33018G24KT 10SM FEW060 SCT080 SCT090 04/01 A3007 RMK AO2,KGGF,2023-04-28T10:15:00Z,40.87,-101.73,4.0,1.0,330,18,24,10.0,30.070866,,,TRUE,TRUE,,,,,,,FEW,6000,SCT,8000,SCT,9000,,,VFR,,,,,,,,,,,,SPECI,1044.0
KGDJ 281015Z AUTO 00000KT 10SM CLR 10/09 A2980 RMK AO2 T00970092,KGDJ,2023-04-28T10:15:00Z,32.45,-97.82,9.7,9.2,0,0,,10.0,29.799213,,,TRUE,TRUE,,,,,,,CLR,,,,,,,,VFR,,,,,,,,,,,,SPECI,235.0
KGCY 281015Z AUTO 00000KT 10SM SCT047 SCT055 OVC080 13/12 A2973 RMK A01,KGCY,2023-04-28T10:15:00Z,36.2,-82.82,13.0,12.0,0,0,,10.0,29.731298,,,TRUE,TRUE,,,,,,,SCT,4700,SCT,5500,OVC,8000,,,VFR,,,,,,,,,,,,SPECI,488.0
KGCM 281015Z AUTO 00000KT 7SM FEW005 OVC039 13/13 A2980 RMK AO2,KGCM,2023-04-28T10:15:00Z,36.3,-95.48,13.0,13.0,0,0,,7.0,29.799213,,,TRUE,TRUE,,,,,,,FEW,500,OVC,3900,,,,,VFR,,,,,,,,,,,,METAR,215.0
KGCD 281015Z AUTO 13007KT 10SM CLR 07/01 A3019 RMK AO2 T00730008,KGCD,2023-04-28T10:15:00Z,44.4,-118.97,7.3,0.8,130,7,,10.0,30.188976,,,TRUE,TRUE,,,,,,,CLR,,,,,,,,VFR,,,,,,,,,,,,SPECI,1122.0
KGBG 281015Z AUTO 00000KT 10SM CLR 04/00 A2980 RMK AO2 T00400000 TSNO,KGBG,2023-04-28T10:15:00Z,40.93,-90.43,4.0,0.0,0,0,,10.0,29.799213,,,TRUE,TRUE,,,TRUE,,,,CLR,,,,,,,,VFR,,,,,,,,,,,,SPECI,230.0
KGAO 281015Z AUTO 29005KT 10SM SCT010 SCT016 BKN024 23/20 A2980 RMK AO2 T02250202,KGAO,2023-04-28T10:15:00Z,29.45,-90.27,22.5,20.2,290,5,,10.0,29.799213,,,TRUE,TRUE,,,,,,,SCT,1000,SCT,1600,BKN,2400,,,MVFR,,,,,,,,,,,,METAR,0.0
KFZG 281015Z AUTO 20003KT 10SM OVC006 19/18 A2980 RMK AO2 T01880180,KFZG,2023-04-28T10:15:00Z,31.68,-83.27,18.8,18.0,200,3,,10.0,29.799213,,,TRUE,TRUE,,,,,,,OVC,600,,,,,,,IFR,,,,,,,,,,,,METAR,105.0
KFYM 281015Z AUTO 24006G11KT 10SM OVC007 17/16 A2970 RMK A01,KFYM,2023-04-28T10:15:00Z,35.07,-86.57,17.0,16.0,240,6,11,10.0,29.698818,,,TRUE,TRUE,,,,,,,OVC,700,,,,,,,IFR,,,,,,,,,,,,SPECI,297.0
KFYE 281015Z AUTO 00000KT 1/2SM BR OVC003 14/13 A2971 RMK A01,KFYE,2023-04-28T10:15:00Z,35.2,-89.38,14.0,13.0,0,0,,0.5,29.71063,,,TRUE,TRUE,,,,,,BR,OVC,300,,,,,,,LIFR,,,,,,,,,,,,SPECI,133.0
KFXY 281015Z AUTO 00000KT 10SM CLR 05/03 A2979 RMK AO2,KFXY,2023-04-28T10:15:00Z,43.23,-93.62,5.0,3.0,0,0,,10.0,29.790354,,,TRUE,TRUE,,,,,,,CLR,,,,,,,,VFR,,,,,,,,,,,,SPECI,366.0
KFWS 281015Z AUTO 00000KT 1 1/4SM BR VV007 10/09 A2981 RMK AO2 T00960089,KFWS,2023-04-28T10:15:00Z,32.57,-97.3,9.6,8.9,0,0,,1.25,29.811024,,,TRUE,TRUE,,,,,,BR,OVX,0,,,,,,,LIFR,,,,,,,,,,,700,SPECI,211.0
KFWC 281015Z AUTO 35005KT 5SM BR BKN006 OVC016 11/10 A2972 RMK AO1 T01100102,KFWC,2023-04-28T10:15:00Z,38.38,-88.42,11.0,10.2,350,5,,5.0,29.719488,,,TRUE,TRUE,,,,,,BR,BKN,600,OVC,1600,,,,,IFR,,,,,,,,,,,,SPECI,131.0
KFTN 281015Z AUTO 16008KT 10SM CLR 21/19 A2978 RMK A01,KFTN,2023-04-28T10:15:00Z,28.22,-100.02,21.0,19.0,160,8,,10.0,29.778543,,,TRUE,TRUE,,,,,,,CLR,,,,,,,,VFR,,,,,,,,,,,,SPECI,236.0
KFSW 281015Z AUTO 28004KT 10SM 08/03 A2979 RMK AO2,KFSW,2023-04-28T10:15:00Z,40.67,-91.32,8.0,3.0,280,4,,10.0,29.790354,,,TRUE,TRUE,,,,,,,,,,,,,,,,,,,,,,,,,,,SPECI,219.0
KFSK 281015Z AUTO 00000KT 3/4SM BR OVC003 04/04 A2983 RMK AO2 T00370035,KFSK,2023-04-28T10:15:00Z,37.8,-94.77,3.7,3.5,0,0,,0.75,29.828741,,,TRUE,TRUE,,,,,,BR,OVC,300,,,,,,,LIFR,,,,,,,,,,,,SPECI,276.0
KFPY 281015Z AUTO 00000KT 7SM SCT026 SCT031 20/19 A2982 RMK AO2 T01950189,KFPY,2023-04-28T10:15:00Z,30.07,-83.57,19.5,18.9,0,0,,7.0,29.819881,,,TRUE,TRUE,,,,,,,SCT,2600,SCT,3100,,,,,VFR,,,,,,,,,,,,METAR,12.0
KFOA 281015Z AUTO 33005KT 5SM BR BKN010 OVC015 11/10 A2975 RMK AO2,KFOA,2023-04-28T10:15:00Z,38.67,-88.45,11.0,10.0,330,5,,5.0,29.749016,,,TRUE,TRUE,,,,,,BR,BKN,1000,OVC,1500,,,,,MVFR,,,,,,,,,,,,SPECI,141.0
KFMM 281015Z AUTO 33012KT 10SM FEW120 02/01 A3016 RMK AO2,KFMM,2023-04-28T10:15:00Z,40.33,-103.8,2.0,1.0,330,12,,10.0,30.159449,,,TRUE,TRUE,,,,,,,FEW,12000,,,,,,,VFR,,,,,,,,,,,,SPECI,1376.0
KFLY 281015Z AUTO 36023G35KT 10SM OVC012 00/M02 A3012 RMK AO2 T10021020,KFLY,2023-04-28T10:15:00Z,38.95,-104.57,-0.2,-2.0,360,23,35,10.0,30.121063,,,TRUE,TRUE,,,,,,,OVC,1200,,,,,,,MVFR,,,,,,,,,,,,SPECI,2096.0
KFKS 281015Z AUTO 00000KT 10SM CLR 03/00 A2991 RMK AO2 T00321005,KFKS,2023-04-28T10:15:00Z,44.63,-86.2,3.2,-0.5,0,0,,10.0,29.911417,,,TRUE,TRUE,,,,,,,CLR,,,,,,,,VFR,,,,,,,,,,,,SPECI,189.0
KFKR 281015Z AUTO 02011KT 6SM BR OVC023 08/07 A2975 RMK AO2,KFKR,2023-04-28T10:15:00Z,40.27,-86.57,8.0,7.0,20,11,,6.0,29.749016,,,TRUE,TRUE,,,,,,BR,OVC,2300,,,,,,,MVFR,,,,,,,,,,,,SPECI,260.0
KFKN 281015Z AUTO 08010KT 5SM RA BKN006 OVC016 14/14 A2988 RMK AO2 P0003 T01430140,KFKN,2023-04-28T10:15:00Z,36.7,-76.9,14.3,14.0,80,10,,5.0,29.878937,,,TRUE,TRUE,,,,,,RA,BKN,600,OVC,1600,,,,,IFR,,,,,,0.03,,,,,,SPECI,9.0
KFHB 281015Z AUTO 00000KT 10SM SCT050 SCT060 17/ A2983 RMK AO2,KFHB,2023-04-28T10:15:00Z,30.62,-81.47,17.0,,0,0,,10.0,29.828741,,,TRUE,TRUE,,,,,,,SCT,5000,SCT,6000,,,,,VFR,,,,,,,,,,,,METAR,4.0
KFGX 281015Z AUTO 18006KT 10SM OVC009 14/13 A2970 RMK AO2 T01350130,KFGX,2023-04-28T10:15:00Z,38.55,-83.75,13.5,13.0,180,6,,10.0,29.698818,,,TRUE,TRUE,,,,,,,OVC,900,,,,,,,IFR,,,,,,,,,,,,SPECI,279.0
KFFO 281015Z 08004KT 4SM -DZ BR BKN005 OVC010 11/10 A2964 RMK AO2A SLP038,KFFO,2023-04-28T10:15:00Z,39.83,-84.03,11.0,10.0,80,4,,4.0,29.639763,1003.8,,,TRUE,,,,,,-DZ BR,BKN,500,OVC,1000,,,,,IFR,,,,,,,,,,,,METAR,250.0
KFFL 281015Z AUTO 00000KT 10SM FEW046 BKN050 BKN060 05/02 A2980 RMK A01,KFFL,2023-04-28T10:15:00Z,41.05,-91.97,5.0,2.0,0,0,,10.0,29.799213,,,TRUE,TRUE,,,,,,,FEW,4600,BKN,5000,BKN,6000,,,VFR,,,,,,,,,,,,SPECI,240.0
KFET 281015Z AUTO 30010KT 7SM -RA OVC075 11/10 A2980 RMK AO2 P0001 T01120103,KFET,2023-04-28T10:15:00Z,41.45,-96.52,11.2,10.3,300,10,,7.0,29.799213,,,TRUE,TRUE,,,,,,-RA,OVC,7500,,,,,,,VFR,,,,,,0.01,,,,,,SPECI,366.0
KFEP 281015Z AUTO 09003KT 10SM CLR 03/02 A2984 RMK AO2 T00270017,KFEP,2023-04-28T10:15:00Z,42.25,-89.58,2.7,1.7,90,3,,10.0,29.840551,,,TRUE,TRUE,,,,,,,CLR,,,,,,,,VFR,,,,,,,,,,,,SPECI,255.0
KF70 281015Z AUTO 00000KT 10SM CLR 12/10 A2993 RMK AO2,KF70,2023-04-28T10:15:00Z,33.57,-117.13,12.0,10.0,0,0,,10.0,29.929134,,,TRUE,TRUE,,,,,,,CLR,,,,,,,,VFR,,,,,,,,,,,,SPECI,406.0
KF46 281015Z AUTO 14003KT 10SM CLR 11/11 A2980 RMK AO2 T01120112,KF46,2023-04-28T10:15:00Z,32.93,-96.43,11.2,11.2,140,3,,10.0,29.799213,,,TRUE,TRUE,,,,,,,CLR,,,,,,,,VFR,,,,,,,,,,,,SPECI,175.0
KF44 281015Z AUTO 00000KT 10SM CLR 10/09 A2979 RMK AO2,KF44,2023-04-28T10:15:00Z,32.17,-95.83,10.0,9.0,0,0,,10.0,29.790354,,,TRUE,TRUE,,,,,,,CLR,,,,,,,,VFR,,,,,,,,,,,,SPECI,137.0
KF17 281015Z AUTO 00000KT 10SM CLR 11/10 A2981 RMK AO2,KF17,2023-04-28T10:15:00Z,31.83,-94.15,11.0,10.0,0,0,,10.0,29.811024,,,TRUE,TRUE,,,,,,,CLR,,,,,,,,VFR,,,,,,,,,,,,SPECI,93.0
KF05 281015Z AUTO 05012KT 10SM CLR 12/10 A2982 RMK AO2 T01160104,KF05,2023-04-28T10:15:00Z,34.23,-99.28,11.6,10.4,50,12,,10.0,29.819881,,,TRUE,TRUE,,,,,,,CLR,,,,,,,,VFR,,,,,,,,,,,,SPECI,384.0
KF00 281015Z AUTO 19004KT 7SM CLR 07/07 A2980 RMK AO2 T00730072,KF00,2023-04-28T10:15:00Z,33.62,-96.18,7.3,7.2,190,4,,7.0,29.799213,,,TRUE,TRUE,,,,,,,CLR,,,,,,,,VFR,,,,,,,,,,,,SPECI,189.0
KEZZ 281015Z AUTO 27005KT 10SM OVC090 12/07 A2981 RMK AO2 T01180072,KEZZ,2023-04-28T10:15:00Z,39.72,-94.28,11.8,7.2,270,5,,10.0,29.811024,,,TRUE,TRUE,,,,,,,OVC,9000,,,,,,,VFR,,,,,,,,,,,,METAR,317.0
KEZM 281015Z AUTO 00000KT 10SM OVC006 18/18 A2981 RMK AO2,KEZM,2023-04-28T10:15:00Z,32.22,-83.13,18.0,18.0,0,0,,10.0,29.811024,,,TRUE,TRUE,,,,,,,OVC,600,,,,,,,IFR,,,,,,,,,,,,SPECI,86.0
KEZF 281015Z AUTO 07008KT 10SM RA OVC008 14/14 A2992 RMK AO2 P0002 T01400140,KEZF,2023-04-28T10:15:00Z,38.27,-77.45,14.0,14.0,70,8,,10.0,29.920275,,,TRUE,TRUE,,,,,,RA,OVC,800,,,,,,,IFR,,,,,,0.02,,,,,,SPECI,26.0
KERY 281015Z AUTO 06003KT 10SM OVC060 04/02 A2996 RMK AO2 T00360015,KERY,2023-04-28T10:15:00Z,46.3,-85.45,3.6,1.5,60,3,,10.0,29.958662,,,TRUE,TRUE,,,,,,,OVC,6000,,,,,,,VFR,,,,,,,,,,,,SPECI,261.0
KERV 281015Z AUTO 18007KT 10SM SCT007 18/17 A2980 RMK AO2 T01750165,KERV,2023-04-28T10:15:00Z,29.98,-99.08,17.5,16.5,180,7,,10.0,29.799213,,,TRUE,TRUE,,,,,,,SCT,700,,,,,,,VFR,,,,,,,,,,,,SPECI,483.0
KEOK 281015Z AUTO 29004KT 10SM FEW033 SCT039 BKN047 09/05 A2979 RMK A01,KEOK,2023-04-28T10:15:00Z,40.47,-91.42,9.0,5.0,290,4,,10.0,29.790354,,,TRUE,TRUE,,,,,,,FEW,3300,SCT,3900,BKN,4700,,,VFR,,,,,,,,,,,,SPECI,206.0
KEOE 281015Z AUTO 22004KT 10SM SCT013 SCT018 BKN055 17/17 A2979 RMK AO2,KEOE,2023-04-28T10:15:00Z,34.32,-81.63,17.0,17.0,220,4,,10.0,29.790354,,,TRUE,TRUE,,,,,,,SCT,1300,SCT,1800,BKN,5500,,,VFR,,,,,,,,,,,,SPECI,166.0
KENL 281015Z AUTO 00000KT 7SM SCT029 SCT037 OVC047 12/11 A2976 RMK AO2 T01150113,KENL,2023-04-28T10:15:00Z,38.52,-89.1,11.5,11.3,0,0,,7.0,29.760826,,,TRUE,TRUE,,,,,,,SCT,2900,SCT,3700,OVC,4700,,,VFR,,,,,,,,,,,,METAR,161.0
KEMP 281015Z AUTO 31003KT 2SM BR BKN055 09/08 A2982 RMK AO2 T00890078,KEMP,2023-04-28T10:15:00Z,38.33,-96.2,8.9,7.8,310,3,,2.0,29.819881,,,TRUE,TRUE,,,,,,BR,BKN,5500,,,,,,,IFR,,,,,,,,,,,,SPECI,366.0
KEMM 281015Z AUTO 10SM CLR M02/M04 A3030 RMK AO2 TSNO,KEMM,2023-04-28T10:15:00Z,41.82,-110.55,-2.0,-4.0,,,,10.0,30.301182,,,TRUE,TRUE,,,TRUE,,,,CLR,,,,,,,,VFR,,,,,,,,,,,,SPECI,2219.0
KELA 281015Z AUTO 18004KT 10SM CLR 16/16 A2977 RMK AO2 T01620155,KELA,2023-04-28T10:15:00Z,29.6,-96.32,16.2,15.5,180,4,,10.0,29.769686,,,TRUE,TRUE,,,,,,,CLR,,,,,,,,VFR,,,,,,,,,,,,SPECI,56.0
KEKS 281015Z AUTO 15005KT 10SM OVC060 M04/M07 A3033 RMK AO2,KEKS,2023-04-28T10:15:00Z,45.27,-111.65,-4.0,-7.0,150,5,,10.0,30.33071,,,TRUE,TRUE,,,,,,,OVC,6000,,,,,,,VFR,,,,,,,,,,,,SPECI,1636.0
KEKE 281015Z AUTO 26007KT 10SM BKN055 22/19 A2976 RMK A01,KEKE,2023-04-28T10:15:00Z,28.5,-91.58,22.0,19.0,260,7,,10.0,29.760826,,,TRUE,TRUE,,,,,,,BKN,5500,,,,,,,VFR,,,,,,,,,,,,SPECI,31.0
KEIK 281015Z AUTO 02009KT 10SM SCT085 SCT120 04/M02 A3020 RMK AO2 T00351020,KEIK,2023-04-28T10:15:00Z,40.02,-105.05,3.5,-2.0,20,9,,10.0,30.200787,,,TRUE,TRUE,,,,,,,SCT,8500,SCT,12000,,,,,VFR,,,,,,,,,,,,SPECI,1551.0
KEHA 281015Z AUTO 36021G25KT 10SM BKN014 OVC035 08/07 A2998 RMK AO2 T00800067,KEHA,2023-04-28T10:15:00Z,37.0,-101.87,8.0,6.7,360,21,25,10.0,29.97933,,,TRUE,TRUE,,,,,,,BKN,1400,OVC,3500,,,,,MVFR,,,,,,,,,,,,METAR,1103.0
KEGV 281015Z AUTO 00000KT 7SM -RA OVC055 06/06 A2988 RMK AO2 T00580057,KEGV,2023-04-28T10:15:00Z,45.93,-89.27,5.8,5.7,0,0,,7.0,29.878937,,,TRUE,TRUE,,,,,,-RA,OVC,5500,,,,,,,VFR,,,,,,,,,,,,SPECI,499.0
KEGT 281015Z AUTO 00000KT 5SM BR OVC075 09/09 A2984 RMK AO2 T00910088,KEGT,2023-04-28T10:15:00Z,37.32,-97.38,9.1,8.8,0,0,,5.0,29.840551,,,TRUE,TRUE,,,,,,BR,OVC,7500,,,,,,,MVFR,,,,,,,,,,,,METAR,387.0
KEDU 281015Z AUTO 00000KT 10SM CLR 14/09 A2986 RMK AO1,KEDU,2023-04-28T10:15:00Z,38.53,-121.78,14.0,9.0,0,0,,10.0,29.861221,,,TRUE,TRUE,,,,,,,CLR,,,,,,,,VFR,,,,,,,,,,,,SPECI,20.0
KEDN 281015Z AUTO 00000KT 10SM OVC009 18/18 A2978 RMK AO2 T01750175 PWINO,KEDN,2023-04-28T10:15:00Z,31.3,-85.9,17.5,17.5,0,0,,10.0,29.778543,,,TRUE,TRUE,,,,,TRUE,,OVC,900,,,,,,,IFR,,,,,,,,,,,,METAR,103.0
KEDC 281015Z AUTO 00000KT 10SM CLR 14/14 A2975 RMK AO2,KEDC,2023-04-28T10:15:00Z,30.4,-97.57,14.0,14.0,0,0,,10.0,29.749016,,,TRUE,TRUE,,,,,,,CLR,,,,,,,,VFR,,,,,,,,,,,,METAR,184.0
KECU 281015Z AUTO 17010KT 10SM CLR 17/15 A2985 RMK AO2,KECU,2023-04-28T10:15:00Z,29.95,-100.17,17.0,15.0,170,10,,10.0,29.84941,,,TRUE,TRUE,,,,,,,CLR,,,,,,,,VFR,,,,,,,,,,,,SPECI,725.0
KECS 281015Z AUTO 32012G17KT 10SM SCT021 BKN065 OVC080 02/01 A3017 RMK AO2,KECS,2023-04-28T10:15:00Z,43.88,-104.32,2.0,1.0,320,12,17,10.0,30.171259,,,TRUE,TRUE,,,,,,,SCT,2100,BKN,6500,OVC,8000,,,VFR,,,,,,,,,,,,SPECI,1273.0
KEBS 281015Z AUTO 18003KT 10SM SCT080 06/03 A2978 RMK AO2,KEBS,2023-04-28T10:15:00Z,42.43,-93.87,6.0,3.0,180,3,,10.0,29.778543,,,TRUE,TRUE,,,,,,,SCT,8000,,,,,,,VFR,,,,,,,,,,,,SPECI,340.0
KEBG 281015Z AUTO 00000KT 4SM BR BKN012 BKN030 19/19 A2979 RMK AO2 T01920191,KEBG,2023-04-28T10:15:00Z,26.45,-98.13,19.2,19.1,0,0,,4.0,29.790354,,,TRUE,TRUE,,,,,,BR,BKN,1200,BKN,3000,,,,,MVFR,,,,,,,,,,,,SPECI,21.0
KEBA 281015Z AUTO 20004KT 5SM BR OVC005 16/16 A2976 RMK AO2 T01620159,KEBA,2023-04-28T10:15:00Z,34.1,-82.82,16.2,15.9,200,4,,5.0,29.760826,,,TRUE,TRUE,,,,,,BR,OVC,500,,,,,,,IFR,,,,,,,,,,,,METAR,180.0
KE42 281015Z AUTO 36012G19KT 10SM BKN006 OVC012 10/09 A2990 RMK AO2 T00980090,KE42,2023-04-28T10:15:00Z,36.22,-101.2,9.8,9.0,360,12,19,10.0,29.899607,,,TRUE,TRUE,,,,,,,BKN,600,OVC,1200,,,,,IFR,,,,,,,,,,,,SPECI,942.0
KE41 281015Z AUTO 18007KT 10SM CLR 15/02 A2976 RMK AO2 T01540023,KE41,2023-04-28T10:15:00Z,31.2,-101.47,15.4,2.3,180,7,,10.0,29.760826,,,TRUE,TRUE,,,,,,,CLR,,,,,,,,VFR,,,,,,,,,,,,SPECI,825.0
KE38 281015Z AUTO 24009KT 10SM CLR 15/M07 A2993 RMK AO2 T01461071,KE38,2023-04-28T10:15:00Z,30.38,-103.68,14.6,-7.1,240,9,,10.0,29.929134,,,TRUE,TRUE,,,,,,,CLR,,,,,,,,VFR,,,,,,,,,,,,SPECI,1372.0
KE16 281015Z AUTO 15003KT 10SM CLR 10/09 A2995 RMK AO2 PWINO PNO,KE16,2023-04-28T10:15:00Z,37.08,-121.6,10.0,9.0,150,3,,10.0,29.949802,,,TRUE,TRUE,,,,,TRUE,,CLR,,,,,,,,VFR,,,,,,,,,,,,SPECI,84.0
KE11 281015Z AUTO 23009KT 10SM CLR 17/00 A2972 RMK AO2 T01691005,KE11,2023-04-28T10:15:00Z,32.33,-102.53,16.9,-0.5,230,9,,10.0,29.719488,,,TRUE,TRUE,,,,,,,CLR,,,,,,,,VFR,,,,,,,,,,,,SPECI,966.0
KDZJ 281015Z AUTO 00000KT 7SM BR SCT008 BKN016 OVC048 13/13 A2977 RMK AO2 T01340133,KDZJ,2023-04-28T10:15:00Z,34.85,-84.0,13.4,13.3,0,0,,7.0,29.769686,,,TRUE,TRUE,,,,,,BR,SCT,800,BKN,1600,OVC,4800,,,MVFR,,,,,,,,,,,,METAR,578.0
KDZB 281015Z AUTO 19003KT 10SM CLR 18/16 A2976 RMK AO2 T01790162,KDZB,2023-04-28T10:15:00Z,30.53,-98.37,17.9,16.2,190,3,,10.0,29.760826,,,TRUE,TRUE,,,,,,,CLR,,,,,,,,VFR,,,,,,,,,,,,SPECI,329.0
KDWX 281015Z AUTO 34010KT 10SM CLR 00/M03 A3027 RMK AO2 T10051031,KDWX,2023-04-28T10:15:00Z,41.03,-107.5,-0.5,-3.1,340,10,,10.0,30.268702,,,TRUE,TRUE,,,,,,,CLR,,,,,,,,VFR,,,,,,,,,,,,SPECI,1974.0
KDWA 281015Z AUTO 00000KT 10SM CLR 14/11 A2987 RMK AO2,KDWA,2023-04-28T10:15:00Z,38.58,-121.85,14.0,11.0,0,0,,10.0,29.870079,,,TRUE,TRUE,,,,,,,CLR,,,,,,,,VFR,,,,,,,,,,,,METAR,28.0
KDVO 281015Z AUTO 35005KT 10SM CLR 11/11 A2990 RMK AO2,KDVO,2023-04-28T10:15:00Z,38.15,-122.55,11.0,11.0,350,5,,10.0,29.899607,,,TRUE,TRUE,,,,,,,CLR,,,,,,,,VFR,,,,,,,,,,,,SPECI,1.0
KDUX 281015Z AUTO 35018G24KT 10SM BKN013 BKN018 OVC033 09/07 A2991 RMK AO2 T00910070,KDUX,2023-04-28T10:15:00Z,35.85,-102.02,9.1,7.0,350,18,24,10.0,29.911417,,,TRUE,TRUE,,,,,,,BKN,1300,BKN,1800,OVC,3300,,,MVFR,,,,,,,,,,,,SPECI,1129.0
KDUC 281015Z AUTO 00000KT 10SM CLR 09/09 A2985 RMK AO2 T00900086,KDUC,2023-04-28T10:15:00Z,34.47,-97.97,9.0,8.6,0,0,,10.0,29.84941,,,TRUE,TRUE,,,,,,,CLR,,,,,,,,VFR,,,,,,,,,,,,METAR,339.0
KDUA 281015Z AUTO 00000KT 10SM SCT002 08/07 A2981 RMK AO2,KDUA,2023-04-28T10:15:00Z,33.95,-96.4,8.0,7.0,0,0,,10.0,29.811024,,,TRUE,TRUE,,,,,,,SCT,200,,,,,,,VFR,,,,,,,,,,,,SPECI,209.0
KDTA 281015Z AUTO 04011KT 10SM CLR 09/M05 A3017 RMK AO1,KDTA,2023-04-28T10:15:00Z,39.38,-112.5,9.0,-5.0,40,11,,10.0,30.171259,,,TRUE,TRUE,,,,,,,CLR,,,,,,,,VFR,,,,,,,,,,,,SPECI,1452.0
KDQH 281015Z AUTO 00000KT 10SM BKN007 OVC033 19/18 A2983 RMK AO2 T01850180,KDQH,2023-04-28T10:15:00Z,31.48,-82.87,18.5,18.0,0,0,,10.0,29.828741,,,TRUE,TRUE,,,,,,,BKN,700,OVC,3300,,,,,IFR,,,,,,,,,,,,METAR,76.0
KDNV 281015Z AUTO 02009KT 10SM OVC070 10/07 A2977 RMK AO2 T00960071,KDNV,2023-04-28T10:15:00Z,40.2,-87.6,9.6,7.1,20,9,,10.0,29.769686,,,TRUE,TRUE,,,,,,,OVC,7000,,,,,,,VFR,,,,,,,,,,,,SPECI,208.0
KDLZ 281015Z AUTO 09009G15KT 3SM -RA BKN006 OVC010 10/10 A2973 RMK AO2 P0002,KDLZ,2023-04-28T10:15:00Z,40.28,-83.12,10.0,10.0,90,9,15,3.0,29.731298,,,TRUE,TRUE,,,,,,-RA,BKN,600,OVC,1000,,,,,IFR,,,,,,0.02,,,,,,SPECI,287.0
KDLP 281015Z AUTO 00000KT 10SM CLR 23/21 A2970 RMK A01,KDLP,2023-04-28T10:15:00Z,29.12,-89.55,23.0,21.0,0,0,,10.0,29.698818,,,TRUE,TRUE,,,,,,,CLR,,,,,,,,VFR,,,,,,,,,,,,SPECI,31.0
KDKX 281015Z AUTO 00000KT 9SM SCT008 BKN036 OVC075 14/14 A2973 RMK A01,KDKX,2023-04-28T10:15:00Z,35.97,-83.87,14.0,14.0,0,0,,9.0,29.731298,,,TRUE,TRUE,,,,,,,SCT,800,BKN,3600,OVC,7500,,,VFR,,,,,,,,,,,,SPECI,253.0
KDKR 281015Z AUTO 00000KT 10SM CLR 10/10 A2979 RMK AO2,KDKR,2023-04-28T10:15:00Z,31.3,-95.4,10.0,10.0,0,0,,10.0,29.790354,,,TRUE,TRUE,,,,,,,CLR,,,,,,,,VFR,,,,,,,,,,,,SPECI,105.0
KDEH 281015Z AUTO 15006KT 10SM OVC055 09/M00 A2979 RMK AO2,KDEH,2023-04-28T10:15:00Z,43.27,-91.73,9.0,0.0,150,6,,10.0,29.790354,,,TRUE,TRUE,,,,,,,OVC,5500,,,,,,,VFR,,,,,,,,,,,,SPECI,348.0
KDCY 281015Z AUTO 36007KT 10SM SCT006 OVC014 11/11 A2970 RMK AO2 T01050105,KDCY,2023-04-28T10:15:00Z,38.7,-87.13,10.5,10.5,360,7,,10.0,29.698818,,,TRUE,TRUE,,,,,,,SCT,600,OVC,1400,,,,,MVFR,,,,,,,,,,,,SPECI,143.0
KDBN 281015Z AUTO 00000KT 5SM BR OVC011 17/16 A2982 RMK AO2,KDBN,2023-04-28T10:15:00Z,32.57,-82.98,17.0,16.0,0,0,,5.0,29.819881,,,TRUE,TRUE,,,,,,BR,OVC,1100,,,,,,,MVFR,,,,,,,,,,,,METAR,90.0
KD73 281015Z AUTO 33003KT 1/4SM FG OVC003 15/ A2978 RMK AO2 T0148////,KD73,2023-04-28T10:15:00Z,33.78,-83.7,14.8,,330,3,,0.25,29.778543,,,TRUE,TRUE,,,,,,FG,OVC,300,,,,,,,LIFR,,,,,,,,,,,,METAR,254.0
KCZT 281015Z AUTO 10SM CLR 18/18 A2977 RMK AO2,KCZT,2023-04-28T10:15:00Z,28.52,-99.82,18.0,18.0,,,,10.0,29.769686,,,TRUE,TRUE,,,,,,,CLR,,,,,,,,VFR,,,,,,,,,,,,SPECI,176.0
KCZL 281015Z AUTO 00000KT 10SM OVC010 16/15 A2976 RMK AO2,KCZL,2023-04-28T10:15:00Z,34.47,-84.93,16.0,15.0,0,0,,10.0,29.760826,,,TRUE,TRUE,,,,,,,OVC,1000,,,,,,,MVFR,,,,,,,,,,,,SPECI,197.0
KCYD 281015Z AUTO 00000KT 10SM SCT023 SCT030 23/20 A2981 RMK A02 T02330195,KCYD,2023-04-28T10:15:00Z,28.17,-89.22,23.3,19.5,0,0,,10.0,29.811024,,,TRUE,TRUE,,,,,,,SCT,2300,SCT,3000,,,,,VFR,,,,,,,,,,,,METAR,30.0
KCXU 281015Z AUTO 00000KT 7SM SCT009 BKN012 OVC030 19/18 A2980 RMK AO1 T01930181,KCXU,2023-04-28T10:15:00Z,31.22,-84.23,19.3,18.1,0,0,,7.0,29.799213,,,TRUE,TRUE,,,,,,,SCT,900,BKN,1200,OVC,3000,,,MVFR,,,,,,,,,,,,METAR,48.0
KCXP 281015Z AUTO 00000KT 10SM CLR 07/M02 A3015 RMK AO2,KCXP,2023-04-28T10:15:00Z,39.18,-119.73,7.0,-2.0,0,0,,10.0,30.15059,,,TRUE,TRUE,,,,,,,CLR,,,,,,,,VFR,,,,,,,,,,,,SPECI,1431.0
KCXE 281015Z AUTO 4SM BKN005 OVC013 14/14 A2982 RMK AO1 P0006 T01350135,KCXE,2023-04-28T10:15:00Z,36.78,-78.5,13.5,13.5,,,,4.0,29.819881,,,TRUE,TRUE,,,,,,,BKN,500,OVC,1300,,,,,IFR,,,,,,0.06,,,,,,SPECI,154.0
KCWV 281015Z AUTO 00000KT 5SM BR CLR 19/18 A2980 RMK AO2 T01880183,KCWV,2023-04-28T10:15:00Z,32.2,-81.87,18.8,18.3,0,0,,5.0,29.799213,,,TRUE,TRUE,,,,,,BR,CLR,,,,,,,,MVFR,,,,,,,,,,,,METAR,32.0
KCWF 281015Z AUTO 13003KT 10SM CLR 13/12 A2981 RMK AO2 T01290117,KCWF,2023-04-28T10:15:00Z,30.22,-93.15,12.9,11.7,130,3,,10.0,29.811024,,,TRUE,TRUE,,,,,,,CLR,,,,,,,,VFR,,,,,,,,,,,,METAR,4.0
KCWC 281015Z AUTO 07004KT 10SM CLR 10/09 A2980 RMK AO2 T00960087,KCWC,2023-04-28T10:15:00Z,33.85,-98.48,9.6,8.7,70,4,,10.0,29.799213,,,TRUE,TRUE,,,,,,,CLR,,,,,,,,VFR,,,,,,,,,,,,SPECI,304.0
KCVC 281015Z AUTO 00000KT 1/2SM FG OVC003 14/14 A2976 RMK AO2,KCVC,2023-04-28T10:15:00Z,33.63,-83.85,14.0,14.0,0,0,,0.5,29.760826,,,TRUE,TRUE,,,,,,FG,OVC,300,,,,,,,LIFR,,,,,,,,,,,,SPECI,240.0
KCUH 281015Z AUTO 00000KT 5SM BR BKN036 09/09 A2981 RMK AO2 T00940090,KCUH,2023-04-28T10:15:00Z,35.95,-96.77,9.4,9.0,0,0,,5.0,29.811024,,,TRUE,TRUE,,,,,,BR,BKN,3600,,,,,,,MVFR,,,,,,,,,,,,METAR,274.0
KCTY 281015Z AUTO 00000KT 7SM HZ CLR 18/ A2984 RMK AO2,KCTY,2023-04-28T10:15:00Z,29.63,-83.1,18.0,,0,0,,7.0,29.840551,,,TRUE,TRUE,,,,,,HZ,CLR,,,,,,,,VFR,,,,,,,,,,,,METAR,12.0
KCTJ 281015Z AUTO 00000KT 4SM BR OVC004 15/15 A2978 RMK AO2 T01510151,KCTJ,2023-04-28T10:15:00Z,33.63,-85.15,15.1,15.1,0,0,,4.0,29.778543,,,TRUE,TRUE,,,,,,BR,OVC,400,,,,,,,LIFR,,,,,,,,,,,,SPECI,351.0
KCSQ 281015Z AUTO 19004KT 10SM FEW085 08/07 A2979 RMK AO2,KCSQ,2023-04-28T10:15:00Z,41.02,-94.37,8.0,7.0,190,4,,10.0,29.790354,,,TRUE,TRUE,,,,,,,FEW,8500,,,,,,,VFR,,,,,,,,,,,,SPECI,394.0
KCRX 281015Z AUTO VRB06KT 10SM OVC005 16/16 A2970 RMK AO2,KCRX,2023-04-28T10:15:00Z,34.92,-88.6,16.0,16.0,0,6,,10.0,29.698818,,,TRUE,TRUE,,,,,,,OVC,500,,,,,,,IFR,,,,,,,,,,,,SPECI,128.0
KCQF 281015Z AUTO 7SM SCT007 20/20 A2977 RMK AO2,KCQF,2023-04-28T10:15:00Z,30.47,-87.88,20.0,20.0,,,,7.0,29.769686,,,TRUE,TRUE,,,,,,,SCT,700,,,,,,,VFR,,,,,,,,,,,,METAR,21.0
KCQB 281015Z AUTO 27005KT 7SM BR CLR 09/09 A2982 RMK AO2 T00910087,KCQB,2023-04-28T10:15:00Z,35.72,-96.82,9.1,8.7,270,5,,7.0,29.819881,,,TRUE,TRUE,,,,,,BR,CLR,,,,,,,,VFR,,,,,,,,,,,,METAR,298.0
KCPW 281015Z AUTO 33010G19KT 1/4SM +SN OVC002 M06/M06 A3010 RMK AO2,KCPW,2023-04-28T10:15:00Z,37.45,-106.8,-6.0,-6.0,330,10,19,0.25,30.100393,,,TRUE,TRUE,,,,,,+SN,OVC,200,,,,,,,LIFR,,,,,,,,,,,,SPECI,3570.0
KCOM 281015Z AUTO 00000KT 10SM CLR 13/08 A2972 RMK AO2 T01300079,KCOM,2023-04-28T10:15:00Z,31.83,-99.4,13.0,7.9,0,0,,10.0,29.719488,,,TRUE,TRUE,,,,,,,CLR,,,,,,,,VFR,,,,,,,,,,,,SPECI,516.0
KCNI 281015Z AUTO 00000KT 1/4SM FG OVC003 14/14 A2977 RMK AO2 T01390138,KCNI,2023-04-28T10:15:00Z,34.32,-84.42,13.9,13.8,0,0,,0.25,29.769686,,,TRUE,TRUE,,,,,,FG,OVC,300,,,,,,,LIFR,,,,,,,,,,,,METAR,371.0
KCNC 281015Z AUTO 21004KT 10SM FEW060 SCT120 10/05 A2979 RMK AO2,KCNC,2023-04-28T10:15:00Z,41.02,-93.37,10.0,5.0,210,4,,10.0,29.790354,,,TRUE,TRUE,,,,,,,FEW,6000,SCT,12000,,,,,VFR,,,,,,,,,,,,METAR,319.0
KCMD 281015Z AUTO 21006KT 10SM BKN005 BKN009 OVC013 16/16 A2971 RMK AO2,KCMD,2023-04-28T10:15:00Z,34.27,-86.85,16.0,16.0,210,6,,10.0,29.71063,,,TRUE,TRUE,,,,,,,BKN,500,BKN,900,OVC,1300,,,IFR,,,,,,,,,,,,SPECI,294.0
KCLW 281015Z AUTO 00000KT 10SM -RA BKN120 23/20 A2985 RMK AO2,KCLW,2023-04-28T10:15:00Z,27.98,-82.75,23.0,20.0,0,0,,10.0,29.84941,,,TRUE,TRUE,,,,,,-RA,BKN,12000,,,,,,,VFR,,,,,,,,,,,,SPECI,21.0
KCKP 281015Z AUTO 00000KT 10SM OVC075 11/10 A2977 RMK AO2 T01060102,KCKP,2023-04-28T10:15:00Z,42.73,-95.55,10.6,10.2,0,0,,10.0,29.769686,,,TRUE,TRUE,,,,,,,OVC,7500,,,,,,,VFR,,,,,,,,,,,,SPECI,369.0
KCKN 281015Z AUTO 34008KT 10SM OVC055 02/01 A3000 RMK AO2,KCKN,2023-04-28T10:15:00Z,47.85,-96.62,2.0,1.0,340,8,,10.0,30.0,,,TRUE,TRUE,,,,,,,OVC,5500,,,,,,,VFR,,,,,,,,,,,,METAR,272.0
KCKF 281015Z AUTO 22003KT 7SM OVC005 19/18 A2980 RMK AO2 T01850175,KCKF,2023-04-28T10:15:00Z,31.98,-83.77,18.5,17.5,220,3,,7.0,29.799213,,,TRUE,TRUE,,,,,,,OVC,500,,,,,,,IFR,,,,,,,,,,,,METAR,92.0
KCKC 281015Z AUTO 07005KT 10SM SCT008 BKN014 OVC110 02/01 A2992 RMK AO2,KCKC,2023-04-28T10:15:00Z,47.83,-90.38,2.0,1.0,70,5,,10.0,29.920275,,,TRUE,TRUE,,,,,,,SCT,800,BKN,1400,OVC,11000,,,MVFR,,,,,,,,,,,,SPECI,544.0
KCJR 281015Z AUTO 07004KT 10SM -RA OVC007 14/13 A2995 RMK AO2 P0001 T01350126,KCJR,2023-04-28T10:15:00Z,38.53,-77.87,13.5,12.6,70,4,,10.0,29.949802,,,TRUE,TRUE,,,,,,-RA,OVC,700,,,,,,,IFR,,,,,,0.01,,,,,,SPECI,90.0
KCIR 281015Z AUTO 02004KT 4SM OVC005 13/13 A2972 RMK AO2 P0001 T01300125,KCIR,2023-04-28T10:15:00Z,37.07,-89.22,13.0,12.5,20,4,,4.0,29.719488,,,TRUE,TRUE,,,,,,,OVC,500,,,,,,,IFR,,,,,,0.01,,,,,,SPECI,96.0
KCIN 281015Z AUTO 00000KT 10SM BKN050 BKN055 09/05 A2978 RMK AO2,KCIN,2023-04-28T10:15:00Z,42.03,-94.78,9.0,5.0,0,0,,10.0,29.778543,,,TRUE,TRUE,,,,,,,BKN,5000,BKN,5500,,,,,VFR,,,,,,,,,,,,SPECI,365.0
KCHK 281015Z AUTO 25005KT 3 1/2SM BR CLR 07/07 A2982 RMK AO2 T00710069,KCHK,2023-04-28T10:15:00Z,35.1,-97.97,7.1,6.9,250,5,,3.5,29.819881,,,TRUE,TRUE,,,,,,BR,CLR,,,,,,,,MVFR,,,,,,,,,,,,METAR,346.0
KCGF 281015Z AUTO 13009G15KT 10SM CLR 13/08 A2985 RMK AO2 T01300076,KCGF,2023-04-28T10:15:00Z,41.57,-81.47,13.0,7.6,130,9,15,10.0,29.84941,,,TRUE,TRUE,,,,,,,CLR,,,,,,,,VFR,,,,,,,,,,,,SPECI,265.0
KCFO 281015Z AUTO 36014G21KT 10SM OVC020 03/00 A3020 RMK AO2 T00330000,KCFO,2023-04-28T10:15:00Z,39.78,-104.55,3.3,0.0,360,14,21,10.0,30.200787,,,TRUE,TRUE,,,,,,,OVC,2000,,,,,,,MVFR,,,,,,,,,,,,METAR,1672.0
KCFD 281015Z AUTO 11003KT 10SM CLR 13/12 A2979 RMK AO2 T01250123,KCFD,2023-04-28T10:15:00Z,30.72,-96.33,12.5,12.3,110,3,,10.0,29.790354,,,TRUE,TRUE,,,,,,,CLR,,,,,,,,VFR,,,,,,,,,,,,METAR,106.0
KCDH 281015Z AUTO 00000KT 5SM BR CLR 12/12 A2977 RMK AO2,KCDH,2023-04-28T10:15:00Z,33.62,-92.77,12.0,12.0,0,0,,5.0,29.769686,,,TRUE,TRUE,,,,,,BR,CLR,,,,,,,,MVFR,,,,,,,,,,,,SPECI,38.0
KCCY 281015Z AUTO 15005KT 10SM OVC070 09/00 A2979 RMK AO2,KCCY,2023-04-28T10:15:00Z,43.07,-92.62,9.0,0.0,150,5,,10.0,29.790354,,,TRUE,TRUE,,,,,,,OVC,7000,,,,,,,VFR,,,,,,,,,,,,METAR,340.0
KCCU 281015Z AUTO 33009G20KT SCT001 BKN008 OVC022 M07/M10 A3015 RMK AO2 PWINO,KCCU,2023-04-28T10:15:00Z,39.48,-106.15,-7.0,-10.0,330,9,20,,30.15059,,,TRUE,TRUE,,,,,TRUE,,SCT,100,BKN,800,OVC,2200,,,,,,,,,,,,,,,SPECI,3672.0
KCCO 281015Z AUTO 18003KT 7SM BKN005 OVC008 16/16 A2977 RMK AO2 T01610156,KCCO,2023-04-28T10:15:00Z,33.32,-84.77,16.1,15.6,180,3,,7.0,29.769686,,,TRUE,TRUE,,,,,,,BKN,500,OVC,800,,,,,IFR,,,,,,,,,,,,SPECI,290.0
KCCB 281015Z AUTO 00000KT 8SM 14/12 A2992 RMK AO2,KCCB,2023-04-28T10:15:00Z,34.12,-117.68,14.0,12.0,0,0,,8.0,29.920275,,,TRUE,TRUE,,,,,,,,,,,,,,,,,,,,,,,,,,,METAR,440.0
KCBK 281015Z AUTO 33019G25KT 10SM SCT025 BKN050 OVC110 06/03 A3001 RMK AO2 T00600027,KCBK,2023-04-28T10:15:00Z,39.43,-101.05,6.0,2.7,330,19,25,10.0,30.008858,,,TRUE,TRUE,,,,,,,SCT,2500,BKN,5000,OVC,11000,,,VFR,,,,,,,,,,,,SPECI,970.0
KCBF 281015Z AUTO 24004KT 10SM FEW049 FEW060 OVC080 12/05 A2977 RMK AO2,KCBF,2023-04-28T10:15:00Z,41.27,-95.77,12.0,5.0,240,4,,10.0,29.769686,,,TRUE,TRUE,,,,,,,FEW,4900,FEW,6000,OVC,8000,,,VFR,,,,,,,,,,,,METAR,379.0
KCAV 281015Z AUTO 17006KT 10SM FEW047 SCT060 BKN070 08/03 A2979 RMK A01,KCAV,2023-04-28T10:15:00Z,42.75,-93.77,8.0,3.0,170,6,,10.0,29.790354,,,TRUE,TRUE,,,,,,,FEW,4700,SCT,6000,BKN,7000,,,VFR,,,,,,,,,,,,METAR,352.0
KCAO 281015Z AUTO 35024G33KT 10SM FEW018 OVC035 05/02 A2997 RMK AO2 PK WND 34033/1014 T00500022,KCAO,2023-04-28T10:15:00Z,36.45,-103.15,5.0,2.2,350,24,33,10.0,29.970472,,,TRUE,TRUE,,,,,,,FEW,1800,OVC,3500,,,,,VFR,,,,,,,,,,,,SPECI,1517.0
KC99 281015Z AUTO 02007KT OVC003 M08/M09 A3016 RMK AO2,KC99,2023-04-28T10:15:00Z,39.87,-105.55,-8.0,-9.0,20,7,,,30.159449,,,TRUE,TRUE,,,,,,,OVC,300,,,,,,,,,,,,,,,,,,,SPECI,3334.0
KC83 281015Z AUTO 23010G17KT 10SM CLR 21/03 A2985 RMK AO2,KC83,2023-04-28T10:15:00Z,37.83,-121.62,21.0,3.0,230,10,17,10.0,29.84941,,,TRUE,TRUE,,,,,,,CLR,,,,,,,,VFR,,,,,,,,,,,,SPECI,16.0
KC75 281015Z AUTO 00000KT 10SM CLR 04/01 A2980 RMK AO2 T00410013,KC75,2023-04-28T10:15:00Z,41.02,-89.38,4.1,1.3,0,0,,10.0,29.799213,,,TRUE,TRUE,,,,,,,CLR,,,,,,,,VFR,,,,,,,,,,,,METAR,166.0
KC65 281015Z AUTO 06005KT 9SM BKN041 OVC055 07/04 A2981 RMK A01,KC65,2023-04-28T10:15:00Z,41.37,-86.3,7.0,4.0,60,5,,9.0,29.811024,,,TRUE,TRUE,,,,,,,BKN,4100,OVC,5500,,,,,VFR,,,,,,,,,,,,METAR,241.0
KC09 281015Z AUTO 03003KT 10SM CLR 06/02 A2981 RMK AO2 T00640015,KC09,2023-04-28T10:15:00Z,41.43,-88.42,6.4,1.5,30,3,,10.0,29.811024,,,TRUE,TRUE,,,,,,,CLR,,,,,,,,VFR,,,,,,,,,,,,METAR,179.0
KBYY 281015Z AUTO 12003KT 1/4SM FG OVC001 15/14 A2978 RMK AO2 T01490147,KBYY,2023-04-28T10:15:00Z,28.97,-95.87,14.9,14.7,120,3,,0.25,29.778543,,,TRUE,TRUE,,,,,,FG,OVC,100,,,,,,,LIFR,,,,,,,,,,,,SPECI,12.0
KBYL 281015Z AUTO 00000KT 10SM FEW023 BKN036 OVC050 13/13 A2972 RMK AO1,KBYL,2023-04-28T10:15:00Z,36.8,-84.2,13.0,13.0,0,0,,10.0,29.719488,,,TRUE,TRUE,,,,,,,FEW,2300,BKN,3600,OVC,5000,,,VFR,,,,,,,,,,,,SPECI,355.0
KBXA 281015Z AUTO 29004KT 10SM CLR 17/16 A2979 RMK AO2 T01700157,KBXA,2023-04-28T10:15:00Z,30.82,-89.87,17.0,15.7,290,4,,10.0,29.790354,,,TRUE,TRUE,,,,,,,CLR,,,,,,,,VFR,,,,,,,,,,,,SPECI,35.0
KBWP 281015Z AUTO 34011G16KT 10SM OVC050 06/05 A2995 RMK AO2,KBWP,2023-04-28T10:15:00Z,46.25,-96.62,6.0,5.0,340,11,16,10.0,29.949802,,,TRUE,TRUE,,,,,,,OVC,5000,,,,,,,VFR,,,,,,,,,,,,SPECI,294.0
KBWD 281015Z AUTO 14005KT 10SM CLR 12/09 A2973 RMK AO1,KBWD,2023-04-28T10:15:00Z,31.8,-98.95,12.0,9.0,140,5,,10.0,29.731298,,,TRUE,TRUE,,,,,,,CLR,,,,,,,,VFR,,,,,,,,,,,,SPECI,420.0
KBVS 281015Z AUTO 00000KT 10SM CLR 08/08 A3012 RMK A01,KBVS,2023-04-28T10:15:00Z,48.47,-122.42,8.0,8.0,0,0,,10.0,30.121063,,,TRUE,TRUE,,,,,,,CLR,,,,,,,,VFR,,,,,,,,,,,,METAR,31.0
KBVN 281015Z AUTO 33021G28KT 10SM -RA OVC009 07/06 A2986 RMK AO2 T00720060,KBVN,2023-04-28T10:15:00Z,41.73,-98.05,7.2,6.0,330,21,28,10.0,29.861221,,,TRUE,TRUE,,,,,,-RA,OVC,900,,,,,,,IFR,,,,,,,,,,,,SPECI,547.0
KBTA 281015Z AUTO 29007KT 10SM SCT060 OVC085 12/09 A2979 RMK AO2 T01170091,KBTA,2023-04-28T10:15:00Z,41.42,-96.12,11.7,9.1,290,7,,10.0,29.790354,,,TRUE,TRUE,,,,,,,SCT,6000,OVC,8500,,,,,VFR,,,,,,,,,,,,METAR,400.0
KBQP 281015Z AUTO 00000KT 10SM CLR 12/12 A2978 RMK AO2 T01220120,KBQP,2023-04-28T10:15:00Z,32.75,-91.88,12.2,12.0,0,0,,10.0,29.778543,,,TRUE,TRUE,,,,,,,CLR,,,,,,,,VFR,,,,,,,,,,,,SPECI,50.0
KBQK 281015Z AUTO 21004KT 10SM SCT039 17/17 A2982 RMK AO2 T01720167,KBQK,2023-04-28T10:15:00Z,31.25,-81.47,17.2,16.7,210,4,,10.0,29.819881,,,TRUE,TRUE,,,,,,,SCT,3900,,,,,,,VFR,,,,,,,,,,,,SPECI,7.0
KBPG 281015Z AUTO 18014KT 10SM CLR 19/M02 A2969 RMK AO2 T01891019,KBPG,2023-04-28T10:15:00Z,32.22,-101.52,18.9,-1.9,180,14,,10.0,29.68996,,,TRUE,TRUE,,,,,,,CLR,,,,,,,,VFR,,,,,,,,,,,,SPECI,782.0
KBPC 281015Z AUTO 00000KT 10SM SCT065 BKN120 11/08 A2987 RMK AO2,KBPC,2023-04-28T10:15:00Z,35.88,-101.03,11.0,8.0,0,0,,10.0,29.870079,,,TRUE,TRUE,,,,,,,SCT,6500,BKN,12000,,,,,VFR,,,,,,,,,,,,SPECI,844.0
KBNW 281015Z AUTO 00000KT 10SM OVC080 09/06 A2977 RMK AO2,KBNW,2023-04-28T10:15:00Z,42.03,-93.83,9.0,6.0,0,0,,10.0,29.769686,,,TRUE,TRUE,,,,,,,OVC,8000,,,,,,,VFR,,,,,,,,,,,,METAR,350.0
KBMT 281015Z AUTO 00000KT 1/2SM FG VV005 13/13 A2980 RMK AO2 T01300125,KBMT,2023-04-28T10:15:00Z,30.07,-94.22,13.0,12.5,0,0,,0.5,29.799213,,,TRUE,TRUE,,,,,,FG,OVX,0,,,,,,,LIFR,,,,,,,,,,,500,SPECI,8.0
KBKD 281015Z AUTO 11010G15KT 7SM CLR 14/10 A2972 RMK AO2 T01370101,KBKD,2023-04-28T10:15:00Z,32.72,-98.88,13.7,10.1,110,10,15,7.0,29.719488,,,TRUE,TRUE,,,,,,,CLR,,,,,,,,VFR,,,,,,,,,,,,SPECI,383.0
KBJC 281015Z AUTO 01010KT 10SM BKN120 02/M01 A3020 RMK AO2,KBJC,2023-04-28T10:15:00Z,39.9,-105.1,2.0,-1.0,10,10,,10.0,30.200787,,,TRUE,TRUE,,,,,,,BKN,12000,,,,,,,VFR,,,,,,,,,,,,METAR,1694.0
KBIJ 281015Z AUTO 24003KT 7SM OVC006 18/18 A2979 RMK AO2,KBIJ,2023-04-28T10:15:00Z,31.4,-84.9,18.0,18.0,240,3,,7.0,29.790354,,,TRUE,TRUE,,,,,,,OVC,600,,,,,,,IFR,,,,,,,,,,,,SPECI,63.0
KBIE 281015Z AUTO 28004KT 10SM SCT048 BKN050 OVC090 09/06 A2981 RMK AO2 T00900062,KBIE,2023-04-28T10:15:00Z,40.28,-96.75,9.0,6.2,280,4,,10.0,29.811024,,,TRUE,TRUE,,,,,,,SCT,4800,BKN,5000,OVC,9000,,,VFR,,,,,,,,,,,,METAR,398.0
KBHC 281015Z AUTO 00000KT 10SM OVC011 17/17 A2981 RMK AO2,KBHC,2023-04-28T10:15:00Z,31.72,-82.4,17.0,17.0,0,0,,10.0,29.811024,,,TRUE,TRUE,,,,,,,OVC,1100,,,,,,,MVFR,,,,,,,,,,,,SPECI,61.0
KBGF 281015Z AUTO 23004KT 10SM FEW014 SCT029 BKN043 17/16 A2968 RMK A01,KBGF,2023-04-28T10:15:00Z,35.18,-86.07,17.0,16.0,230,4,,10.0,29.681103,,,TRUE,TRUE,,,,,,,FEW,1400,SCT,2900,BKN,4300,,,VFR,,,,,,,,,,,,SPECI,295.0
KBGE 281015Z AUTO 22005KT 7SM OVC009 20/19 A2979 RMK AO2 T01970191,KBGE,2023-04-28T10:15:00Z,30.97,-84.63,19.7,19.1,220,5,,7.0,29.790354,,,TRUE,TRUE,,,,,,,OVC,900,,,,,,,IFR,,,,,,,,,,,,SPECI,40.0
KBEC 281015Z AUTO 00000KT 7SM OVC060 10/10 A2983 RMK AO2 T01030103,KBEC,2023-04-28T10:15:00Z,37.7,-97.22,10.3,10.3,0,0,,7.0,29.828741,,,TRUE,TRUE,,,,,,,OVC,6000,,,,,,,VFR,,,,,,,,,,,,SPECI,421.0
KBDU 281015Z AUTO 02005KT 10SM SCT085 03/M01 A3020 RMK AO2,KBDU,2023-04-28T10:15:00Z,40.03,-105.23,3.0,-1.0,20,5,,10.0,30.200787,,,TRUE,TRUE,,,,,,,SCT,8500,,,,,,,VFR,,,,,,,,,,,,METAR,1614.0
KBDN 281015Z AUTO 22003KT 10SM CLR 07/01 A3016 RMK AO2,KBDN,2023-04-28T10:15:00Z,44.1,-121.2,7.0,1.0,220,3,,10.0,30.159449,,,TRUE,TRUE,,,,,,,CLR,,,,,,,,VFR,,,,,,,,,,,,SPECI,1044.0
KBDG 281015Z AUTO 35015G21KT 10SM 09/M05 A3015 RMK AO1 T00861055,KBDG,2023-04-28T10:15:00Z,37.58,-109.47,8.6,-5.5,350,15,21,10.0,30.15059,,,TRUE,TRUE,,,,,,,,,,,,,,,,,,,,,,,,,,,SPECI,1778.0
KBBP 281015Z AUTO 16004KT 10SM BKN022 OVC034 17/17 A2977 RMK AO2,KBBP,2023-04-28T10:15:00Z,34.62,-79.73,17.0,17.0,160,4,,10.0,29.769686,,,TRUE,TRUE,,,,,,,BKN,2200,OVC,3400,,,,,MVFR,,,,,,,,,,,,SPECI,44.0
KBBD 281015Z AUTO 21008KT 10SM CLR 16/12 A2973 RMK AO2,KBBD,2023-04-28T10:15:00Z,31.18,-99.32,16.0,12.0,210,8,,10.0,29.731298,,,TRUE,TRUE,,,,,,,CLR,,,,,,,,VFR,,,,,,,,,,,,METAR,554.0
KBAM 281015Z AUTO 09003KT 10SM CLR 08/00 A3019 RMK AO1,KBAM,2023-04-28T10:15:00Z,40.6,-116.87,8.0,0.0,90,3,,10.0,30.188976,,,TRUE,TRUE,,,,,,,CLR,,,,,,,,VFR,,,,,,,,,,,,SPECI,1381.0
KAZE 281015Z AUTO 00000KT 10SM OVC011 19/18 A2980 RMK AO2 T01860178,KAZE,2023-04-28T10:15:00Z,31.88,-82.65,18.6,17.8,0,0,,10.0,29.799213,,,TRUE,TRUE,,,,,,,OVC,1100,,,,,,,MVFR,,,,,,,,,,,,SPECI,78.0
KAZC 281015Z AUTO 18008KT 10SM CLR 04/M01 A3009 RMK AO2,KAZC,2023-04-28T10:15:00Z,36.97,-113.02,4.0,-1.0,180,8,,10.0,30.088583,,,TRUE,TRUE,,,,,,,CLR,,,,,,,,VFR,,,,,,,,,,,,METAR,1476.0
KAYS 281015Z AUTO 00000KT 10SM OVC035 18/18 A2981 RMK AO2 T01830176,KAYS,2023-04-28T10:15:00Z,31.25,-82.4,18.3,17.6,0,0,,10.0,29.811024,,,TRUE,TRUE,,,,,,,OVC,3500,,,,,,,VFR,,,,,,,,,,,,SPECI,42.0
KAXX 281015Z AUTO 05013KT 10SM OVC027 01/M04 A3004 RMK AO2 T00121039,KAXX,2023-04-28T10:15:00Z,36.42,-105.28,1.2,-3.9,50,13,,10.0,30.041338,,,TRUE,TRUE,,,,,,,OVC,2700,,,,,,,MVFR,,,,,,,,,,,,SPECI,2543.0
KAXS 281015Z AUTO 06013KT 10SM SCT120 11/09 A2983 RMK AO2 T01130085,KAXS,2023-04-28T10:15:00Z,34.7,-99.33,11.3,8.5,60,13,,10.0,29.828741,,,TRUE,TRUE,,,,,,,SCT,12000,,,,,,,VFR,,,,,,,,,,,,SPECI,433.0
KAXH 281015Z AUTO 00000KT 7SM CLR 14/13 A2978 RMK AO2 T01410134,KAXH,2023-04-28T10:15:00Z,29.52,-95.48,14.1,13.4,0,0,,7.0,29.778543,,,TRUE,TRUE,,,,,,,CLR,,,,,,,,VFR,,,,,,,,,,,,SPECI,18.0
KAXA 281015Z AUTO 34005KT 10SM FEW070 FEW080 FEW110 10/08 A2977 RMK A01,KAXA,2023-04-28T10:15:00Z,43.07,-94.27,10.0,8.0,340,5,,10.0,29.769686,,,TRUE,TRUE,,,,,,,FEW,7000,FEW,8000,FEW,11000,,,VFR,,,,,,,,,,,,METAR,371.0
KAWG 281015Z AUTO 11005KT 10SM CLR 04/01 A2979 RMK AO2,KAWG,2023-04-28T10:15:00Z,41.27,-91.67,4.0,1.0,110,5,,10.0,29.790354,,,TRUE,TRUE,,,,,,,CLR,,,,,,,,VFR,,,,,,,,,,,,METAR,229.0
KAVQ 281015Z AUTO 11005KT 10SM 18/M05 A2986 RMK AO2 T01761049,KAVQ,2023-04-28T10:15:00Z,32.4,-111.22,17.6,-4.9,110,5,,10.0,29.861221,,,TRUE,TRUE,,,,,,,,,,,,,,,,,,,,,,,,,,,SPECI,618.0
KAUN 281015Z AUTO 09008KT 10SM CLR 19/06 A2992 RMK A01,KAUN,2023-04-28T10:15:00Z,38.95,-121.08,19.0,6.0,90,8,,10.0,29.920275,,,TRUE,TRUE,,,,,,,CLR,,,,,,,,VFR,,,,,,,,,,,,METAR,453.0
KAUH 281015Z AUTO 33020KT 10SM -RA BKN011 OVC015 08/07 A2986 RMK AO2 P0001 T00830073,KAUH,2023-04-28T10:15:00Z,40.88,-98.0,8.3,7.3,330,20,,10.0,29.861221,,,TRUE,TRUE,,,,,,-RA,BKN,1100,OVC,1500,,,,,MVFR,,,,,,0.01,,,,,,SPECI,549.0
KASW 281015Z AUTO 02003KT 7SM RA SCT037 SCT043 OVC060 06/05 A2981 RMK AO2 P0002 T00650050,KASW,2023-04-28T10:15:00Z,41.27,-85.83,6.5,5.0,20,3,,7.0,29.811024,,,TRUE,TRUE,,,,,,RA,SCT,3700,SCT,4300,OVC,6000,,,VFR,,,,,,0.02,,,,,,METAR,253.0
KASN 281015Z AUTO 20006KT 10SM OVC011 18/17 A2973 RMK AO2 LTG DSNT N AND S T01760168,KASN,2023-04-28T10:15:00Z,33.57,-86.05,17.6,16.8,200,6,,10.0,29.731298,,,TRUE,TRUE,,,,,,,OVC,1100,,,,,,,MVFR,,,,,,,,,,,,SPECI,159.0
KARM 281015Z AUTO 10003KT 4SM BR OVC011 16/16 A2979 RMK AO2 T01560156 TSNO,KARM,2023-04-28T10:15:00Z,29.25,-96.15,15.6,15.6,100,3,,4.0,29.790354,,,TRUE,TRUE,,,TRUE,,,BR,OVC,1100,,,,,,,MVFR,,,,,,,,,,,,SPECI,29.0
KAQO 281015Z AUTO 00000KT 9SM FEW029 FEW038 SCT060 12/08 A2975 RMK AO2,KAQO,2023-04-28T10:15:00Z,30.78,-98.67,12.0,8.0,0,0,,9.0,29.749016,,,TRUE,TRUE,,,,,,,FEW,2900,FEW,3800,SCT,6000,,,VFR,,,,,,,,,,,,METAR,334.0
KAPY 281015Z AUTO 14003KT 7SM OVC007 22/21 A2978 RMK AO2 T02150207 TSNO,KAPY,2023-04-28T10:15:00Z,26.97,-99.25,21.5,20.7,140,3,,7.0,29.778543,,,TRUE,TRUE,,,TRUE,,,,OVC,700,,,,,,,IFR,,,,,,,,,,,,SPECI,129.0
KANW 281015Z AUTO 34021G25KT 10SM -RA OVC008 05/04 A3000 RMK AO2 T00450035,KANW,2023-04-28T10:15:00Z,42.57,-100.0,4.5,3.5,340,21,25,10.0,30.0,,,TRUE,TRUE,,,,,,-RA,OVC,800,,,,,,,IFR,,,,,,,,,,,,METAR,788.0
KALN 281015Z AUTO 00000KT 10SM OVC080 12/10 A2978 RMK AO2 T01160097,KALN,2023-04-28T10:15:00Z,38.88,-90.03,11.6,9.7,0,0,,10.0,29.778543,,,TRUE,TRUE,,,,,,,OVC,8000,,,,,,,VFR,,,,,,,,,,,,SPECI,159.0
KAJZ 281015Z AUTO 29013G18KT 10SM SCT060 08/00 A3011 RMK AO2 T00761004 PWINO,KAJZ,2023-04-28T10:15:00Z,38.78,-108.07,7.6,-0.4,290,13,18,10.0,30.109253,,,TRUE,TRUE,,,,,TRUE,,SCT,6000,,,,,,,VFR,,,,,,,,,,,,SPECI,1583.0
KAJR 281015Z AUTO 00000KT 7SM OVC006 15/15 A2976 RMK AO2 T01510151,KAJR,2023-04-28T10:15:00Z,34.5,-83.55,15.1,15.1,0,0,,7.0,29.760826,,,TRUE,TRUE,,,,,,,OVC,600,,,,,,,IFR,,,,,,,,,,,,SPECI,441.0
KAJG 281015Z AUTO 35007KT 7SM BKN009 OVC018 12/11 A2972 RMK AO2 T01200110,KAJG,2023-04-28T10:15:00Z,38.62,-87.73,12.0,11.0,350,7,,7.0,29.719488,,,TRUE,TRUE,,,,,,,BKN,900,OVC,1800,,,,,IFR,,,,,,,,,,,,METAR,130.0
KAIO 281015Z AUTO 36004KT 10SM FEW065 OVC085 05/05 A2978 RMK AO2,KAIO,2023-04-28T10:15:00Z,41.4,-95.03,5.0,5.0,360,4,,10.0,29.778543,,,TRUE,TRUE,,,,,,,FEW,6500,OVC,8500,,,,,VFR,,,,,,,,,,,,METAR,349.0
KAHQ 281015Z AUTO 33012KT 10SM OVC050 12/10 A2980 RMK AO2 T01170098,KAHQ,2023-04-28T10:15:00Z,41.23,-96.6,11.7,9.8,330,12,,10.0,29.799213,,,TRUE,TRUE,,,,,,,OVC,5000,,,,,,,VFR,,,,,,,,,,,,METAR,372.0
KAGI 281015Z AUTO 00000KT 10SM CLR 23/18 A2981 RMK AO2 T02320181,KAGI,2023-04-28T10:15:00Z,27.55,-92.45,23.2,18.1,0,0,,10.0,29.811024,,,TRUE,TRUE,,,,,,,CLR,,,,,,,,VFR,,,,,,,,,,,,SPECI,41.0
KAFK 281015Z AUTO 26006KT 10SM SCT060 OVC080 12/06 A2979 RMK AO2 T01160061,KAFK,2023-04-28T10:15:00Z,40.6,-95.85,11.6,6.1,260,6,,10.0,29.790354,,,TRUE,TRUE,,,,,,,SCT,6000,OVC,8000,,,,,VFR,,,,,,,,,,,,METAR,353.0
KAEL 281015Z AUTO 00000KT 10SM 08/04 A2978 RMK AO2,KAEL,2023-04-28T10:15:00Z,43.68,-93.37,8.0,4.0,0,0,,10.0,29.778543,,,TRUE,TRUE,,,,,,,,,,,,,,,,,,,,,,,,,,,SPECI,382.0
KAEJ 281015Z AUTO 25003KT 2SM -SN SCT008 BKN013 OVC023 M01/M02 A3014 RMK AO2 T10101020,KAEJ,2023-04-28T10:15:00Z,38.82,-106.12,-1.0,-2.0,250,3,,2.0,30.138779,,,TRUE,TRUE,,,,,,-SN,SCT,800,BKN,1300,OVC,2300,,,IFR,,,,,,,,,,,,SPECI,2420.0
KADU 281015Z AUTO 00000KT 10SM SCT060 SCT070 BKN080 06/03 A2978 RMK AO2,KADU,2023-04-28T10:15:00Z,41.7,-94.92,6.0,3.0,0,0,,10.0,29.778543,,,TRUE,TRUE,,,,,,,SCT,6000,SCT,7000,BKN,8000,,,VFR,,,,,,,,,,,,METAR,391.0
KADT 281015Z AUTO 35018G26KT 10SM OVC025 07/02 A3008 RMK AO2 T00730019,KADT,2023-04-28T10:15:00Z,39.83,-101.05,7.3,1.9,350,18,26,10.0,30.079725,,,TRUE,TRUE,,,,,,,OVC,2500,,,,,,,MVFR,,,,,,,,,,,,SPECI,899.0
KADS 281015Z AUTO 11004KT 10SM CLR 12/11 A2981 RMK AO2 T01230110,KADS,2023-04-28T10:15:00Z,32.97,-96.83,12.3,11.0,110,4,,10.0,29.811024,,,TRUE,TRUE,,,,,,,CLR,,,,,,,,VFR,,,,,,,,,,,,SPECI,198.0
KADM 281015Z AUTO 00000KT 10SM CLR 07/07 A2983 RMK AO2,KADM,2023-04-28T10:15:00Z,34.3,-97.02,7.0,7.0,0,0,,10.0,29.828741,,,TRUE,TRUE,,,,,,,CLR,,,,,,,,VFR,,,,,,,,,,,,SPECI,223.0
KADH 281015Z AUTO 00000KT 5SM BR CLR 09/09 A2983 RMK AO2,KADH,2023-04-28T10:15:00Z,34.8,-96.67,9.0,9.0,0,0,,5.0,29.828741,,,TRUE,TRUE,,,,,,BR,CLR,,,,,,,,MVFR,,,,,,,,,,,,SPECI,301.0
KADC 281015Z AUTO 36006KT 10SM -RA SCT043 SCT060 BKN080 07/04 A2989 RMK AO,KADC,2023-04-28T10:15:00Z,46.45,-95.22,7.0,4.0,360,6,,10.0,29.890747,,,TRUE,,,,,,,-RA,SCT,4300,SCT,6000,BKN,8000,,,VFR,,,,,,,,,,,,METAR,416.0
KACY 281015Z AUTO 08010KT 10SM SCT009 11/09 A3011 RMK AO2 T01110094,KACY,2023-04-28T10:15:00Z,39.45,-74.57,11.1,9.4,80,10,,10.0,30.109253,,,TRUE,TRUE,,,,,,,SCT,900,,,,,,,VFR,,,,,,,,,,,,SPECI,18.0
KACP 281015Z AUTO 00000KT 7SM CLR 11/09 A2980 RMK AO2,KACP,2023-04-28T10:15:00Z,30.75,-92.68,11.0,9.0,0,0,,7.0,29.799213,,,TRUE,TRUE,,,,,,,CLR,,,,,,,,VFR,,,,,,,,,,,,SPECI,31.0
KAAS 281015Z AUTO 20003KT 10SM SCT005 SCT008 OVC013 14/13 A2974 RMK AO1,KAAS,2023-04-28T10:15:00Z,37.35,-85.32,14.0,13.0,200,3,,10.0,29.740158,,,TRUE,TRUE,,,,,,,SCT,500,SCT,800,OVC,1300,,,MVFR,,,,,,,,,,,,SPECI,270.0
KAAA 281015Z AUTO 00000KT 10SM CLR 09/04 A2979 RMK AO2 T00880041,KAAA,2023-04-28T10:15:00Z,40.17,-89.33,8.8,4.1,0,0,,10.0,29.790354,,,TRUE,TRUE,,,,,,,CLR,,,,,,,,VFR,,,,,,,,,,,,METAR,179.0
KA39 281015Z AUTO 10009KT 10SM CLR 16/M08 A2984 RMK AO2,KA39,2023-04-28T10:15:00Z,32.98,-111.92,16.0,-8.0,100,9,,10.0,29.840551,,,TRUE,TRUE,,,,,,,CLR,,,,,,,,VFR,,,,,,,,,,,,METAR,391.0
K9V9 281015Z AUTO 34016G20KT 10SM SCT014 OVC034 06/06 A3001 RMK AO2 T00550055,K9V9,2023-04-28T10:15:00Z,43.77,-99.32,5.5,5.5,340,16,20,10.0,30.008858,,,TRUE,TRUE,,,,,,,SCT,1400,OVC,3400,,,,,VFR,,,,,,,,,,,,METAR,511.0
K9S9 281015Z AUTO 13009KT 10SM CLR 10/00 A3016 RMK AO2 PWINO,K9S9,2023-04-28T10:15:00Z,45.45,-119.68,10.0,0.0,130,9,,10.0,30.159449,,,TRUE,TRUE,,,,,TRUE,,CLR,,,,,,,,VFR,,,,,,,,,,,,METAR,498.0
K9MN 281015Z AUTO 19008KT 10SM SCT070 12/M01 A2978 RMK AO1 T01161014,K9MN,2023-04-28T10:15:00Z,44.02,-92.48,11.6,-1.4,190,8,,10.0,29.778543,,,TRUE,TRUE,,,,,,,SCT,7000,,,,,,,VFR,,,,,,,,,,,,METAR,308.0
K9A5 281015Z AUTO 17003KT 2 1/2SM OVC003 15/15 A2973 RMK AO2 T01450145,K9A5,2023-04-28T10:15:00Z,34.68,-85.28,14.5,14.5,170,3,,2.5,29.731298,,,TRUE,TRUE,,,,,,,OVC,300,,,,,,,LIFR,,,,,,,,,,,,SPECI,234.0
K8T6 281015Z AUTO 00000KT 1/2SM FG OVC002 17/17 A2978 RMK AO2,K8T6,2023-04-28T10:15:00Z,28.37,-98.12,17.0,17.0,0,0,,0.5,29.778543,,,TRUE,TRUE,,,,,,FG,OVC,200,,,,,,,LIFR,,,,,,,,,,,,METAR,39.0
K8A3 281015Z AUTO 00000KT 3SM BR SCT003 OVC029 14/14 A2970 RMK A01,K8A3,2023-04-28T10:15:00Z,36.42,-85.32,14.0,14.0,0,0,,3.0,29.698818,,,TRUE,TRUE,,,,,,BR,SCT,300,OVC,2900,,,,,MVFR,,,,,,,,,,,,SPECI,413.0
K8A0 281015Z AUTO 23004KT 7SM OVC009 17/16 A2971 RMK AO2,K8A0,2023-04-28T10:15:00Z,34.23,-86.25,17.0,16.0,230,4,,7.0,29.71063,,,TRUE,TRUE,,,,,,,OVC,900,,,,,,,IFR,,,,,,,,,,,,SPECI,313.0
K82C 281015Z AUTO 00000KT 10SM CLR 06/01 A2983 RMK AO2 T00590005,K82C,2023-04-28T10:15:00Z,43.83,-90.13,5.9,0.5,0,0,,10.0,29.828741,,,TRUE,TRUE,,,,,,,CLR,,,,,,,,VFR,,,,,,,,,,,,SPECI,273.0
K81R 281015Z AUTO 00000KT 10SM CLR 15/12 A2975 RMK AO2 T01540116,K81R,2023-04-28T10:15:00Z,31.23,-98.72,15.4,11.6,0,0,,10.0,29.749016,,,TRUE,TRUE,,,,,,,CLR,,,,,,,,VFR,,,,,,,,,,,,METAR,381.0
K7W4 281015Z AUTO 7SM OVC006 13/13 A2990 RMK AO1 P0005 T01320130,K7W4,2023-04-28T10:15:00Z,37.97,-77.75,13.2,13.0,,,,7.0,29.899607,,,TRUE,TRUE,,,,,,,OVC,600,,,,,,,IFR,,,,,,0.05,,,,,,SPECI,115.0
K7BM 281015Z AUTO 07003KT 4SM -SN SCT004 SCT017 BKN036 M03/M05 A3014 RMK AO2,K7BM,2023-04-28T10:15:00Z,38.78,-106.22,-3.0,-5.0,70,3,,4.0,30.138779,,,TRUE,TRUE,,,,,,-SN,SCT,400,SCT,1700,BKN,3600,,,MVFR,,,,,,,,,,,,SPECI,2996.0
K6S0 281015Z AUTO 24018G24KT 10SM CLR 02/M05 A3022 RMK A01,K6S0,2023-04-28T10:15:00Z,45.8,-109.97,2.0,-5.0,240,18,24,10.0,30.221457,,,TRUE,TRUE,,,,,,,CLR,,,,,,,,VFR,,,,,,,,,,,,METAR,1364.0
K6R3 281015Z AUTO 00000KT 7SM CLR 12/11 A2980 RMK AO2 T01170112 TSNO,K6R3,2023-04-28T10:15:00Z,30.35,-95.0,11.7,11.2,0,0,,7.0,29.799213,,,TRUE,TRUE,,,TRUE,,,,CLR,,,,,,,,VFR,,,,,,,,,,,,METAR,44.0
K6P9 281015Z AUTO 08005KT 10SM CLR 11/10 A2975 RMK AO2 T01070095,K6P9,2023-04-28T10:15:00Z,32.43,-98.6,10.7,9.5,80,5,,10.0,29.749016,,,TRUE,TRUE,,,,,,,CLR,,,,,,,,VFR,,,,,,,,,,,,SPECI,451.0
K6I2 281015Z AUTO 18005KT 10SM BKN006 BKN023 BKN028 15/15 A2969 RMK AO2,K6I2,2023-04-28T10:15:00Z,37.63,-85.25,15.0,15.0,180,5,,10.0,29.68996,,,TRUE,TRUE,,,,,,,BKN,600,BKN,2300,BKN,2800,,,IFR,,,,,,,,,,,,SPECI,258.0
K6A2 281015Z AUTO 19004KT 7SM OVC021 16/15 A2977 RMK AO2,K6A2,2023-04-28T10:15:00Z,33.23,-84.27,16.0,15.0,190,4,,7.0,29.769686,,,TRUE,TRUE,,,,,,,OVC,2100,,,,,,,MVFR,,,,,,,,,,,,SPECI,290.0
K6A1 281015Z AUTO 34003KT 7SM BKN003 OVC020 17/17 A2979 RMK AO2 T01710171,K6A1,2023-04-28T10:15:00Z,32.57,-84.25,17.1,17.1,340,3,,7.0,29.790354,,,TRUE,TRUE,,,,,,,BKN,300,OVC,2000,,,,,LIFR,,,,,,,,,,,,SPECI,198.0
K66R 281015Z AUTO 00000KT 10SM CLR 16/15 A2978 RMK AO2 T01560151,K66R,2023-04-28T10:15:00Z,29.65,-96.52,15.6,15.1,0,0,,10.0,29.778543,,,TRUE,TRUE,,,,,,,CLR,,,,,,,,VFR,,,,,,,,,,,,SPECI,70.0
K65S 281015Z AUTO 00000KT 10SM CLR 04/M02 A3023 RMK AO2,K65S,2023-04-28T10:15:00Z,48.73,-116.3,4.0,-2.0,0,0,,10.0,30.230314,,,TRUE,TRUE,,,,,,,CLR,,,,,,,,VFR,,,,,,,,,,,,SPECI,708.0
K63S 281015Z AUTO 00000KT 10SM OVC090 02/M02 A3021 RMK A01,K63S,2023-04-28T10:15:00Z,48.53,-117.88,2.0,-2.0,0,0,,10.0,30.209646,,,TRUE,TRUE,,,,,,,OVC,9000,,,,,,,VFR,,,,,,,,,,,,METAR,571.0
K5T9 281015Z AUTO 16003KT 10SM CLR 18/18 A2974 RMK A01,K5T9,2023-04-28T10:15:00Z,28.85,-100.52,18.0,18.0,160,3,,10.0,29.740158,,,TRUE,TRUE,,,,,,,CLR,,,,,,,,VFR,,,,,,,,,,,,SPECI,269.0
K5SM 281015Z AUTO 05003KT 10SM BKN004 OVC009 M06/M08 A3022 RMK AO2,K5SM,2023-04-28T10:15:00Z,39.43,-107.38,-6.0,-8.0,50,3,,10.0,30.221457,,,TRUE,TRUE,,,,,,,BKN,400,OVC,900,,,,,LIFR,,,,,,,,,,,,METAR,3229.0
K5C1 281015Z AUTO 21007KT 7SM OVC004 17/17 A2980 RMK AO1,K5C1,2023-04-28T10:15:00Z,29.72,-98.7,17.0,17.0,210,7,,7.0,29.799213,,,TRUE,TRUE,,,,,,,OVC,400,,,,,,,LIFR,,,,,,,,,,,,METAR,422.0
K5A6 281015Z AUTO 00000KT 10SM 15/15 A2975 RMK AO2 T01540145,K5A6,2023-04-28T10:15:00Z,33.47,-89.73,15.4,14.5,0,0,,10.0,29.749016,,,TRUE,TRUE,,,,,,,,,,,,,,,,,,,,,,,,,,,SPECI,109.0
K54A 281015Z AUTO 16006KT 10SM SCT120 24/22 A2988 RMK AO2,K54A,2023-04-28T10:15:00Z,26.85,-82.25,24.0,22.0,160,6,,10.0,29.878937,,,TRUE,TRUE,,,,,,,SCT,12000,,,,,,,VFR,,,,,,,,,,,,SPECI,2.0
K4V1 281015Z AUTO 01013G18KT 10SM OVC009 02/01 A3013 RMK AO2 T00180009,K4V1,2023-04-28T10:15:00Z,37.7,-104.78,1.8,0.9,10,13,18,10.0,30.129921,,,TRUE,TRUE,,,,,,,OVC,900,,,,,,,IFR,,,,,,,,,,,,METAR,1847.0
K4V0 281015Z AUTO 07005KT 10SM CLR 03/M02 A3026 RMK AO2 T00321025,K4V0,2023-04-28T10:15:00Z,40.1,-108.77,3.2,-2.5,70,5,,10.0,30.259842,,,TRUE,TRUE,,,,,,,CLR,,,,,,,,VFR,,,,,,,,,,,,SPECI,1602.0
K4S2 281015Z AUTO 00000KT 10SM CLR 07/03 A3013 RMK AO2,K4S2,2023-04-28T10:15:00Z,45.68,-121.55,7.0,3.0,0,0,,10.0,30.129921,,,TRUE,TRUE,,,,,,,CLR,,,,,,,,VFR,,,,,,,,,,,,SPECI,183.0
K4S1 281015Z AUTO 00000KT 7SM CLR 08/08 A2991 RMK AO2,K4S1,2023-04-28T10:15:00Z,42.42,-124.42,8.0,8.0,0,0,,7.0,29.911417,,,TRUE,TRUE,,,,,,,CLR,,,,,,,,VFR,,,,,,,,,,,,METAR,7.0
K4F2 281015Z AUTO 00000KT 1/2SM FG VV005 10/10 A2979 RMK AO2 T01010100,K4F2,2023-04-28T10:15:00Z,32.18,-94.3,10.1,10.0,0,0,,0.5,29.790354,,,TRUE,TRUE,,,,,,FG,OVX,0,,,,,,,LIFR,,,,,,,,,,,500,METAR,76.0
K4BM 281015Z AUTO 36009G15KT 330V030 OVC002 M08/M10 A3014 RMK AO2 PWINO,K4BM,2023-04-28T10:15:00Z,39.05,-105.52,-8.0,-10.0,360,9,15,,30.138779,,,TRUE,TRUE,,,,,TRUE,,OVC,200,,,,,,,,,,,,,,,,,,,SPECI,3432.0
K4A9 281015Z AUTO 21004KT 10SM OVC009 16/16 A2971 RMK AO2 T01620156,K4A9,2023-04-28T10:15:00Z,34.47,-85.72,16.2,15.6,210,4,,10.0,29.71063,,,TRUE,TRUE,,,,,,,OVC,900,,,,,,,IFR,,,,,,,,,,,,SPECI,273.0
K49A 281015Z AUTO 16004KT 10SM OVC005 15/15 A2975 RMK AO2,K49A,2023-04-28T10:15:00Z,34.63,-84.53,15.0,15.0,160,4,,10.0,29.749016,,,TRUE,TRUE,,,,,,,OVC,500,,,,,,,IFR,,,,,,,,,,,,SPECI,449.0
K48A 281015Z AUTO 19004KT 10SM OVC006 18/18 A2980 RMK AO2 T01820179,K48A,2023-04-28T10:15:00Z,32.4,-83.27,18.2,17.9,190,4,,10.0,29.799213,,,TRUE,TRUE,,,,,,,OVC,600,,,,,,,IFR,,,,,,,,,,,,SPECI,115.0
K46U 281015Z AUTO 00000KT 10SM CLR M02/M07 A3034 RMK A01,K46U,2023-04-28T10:15:00Z,43.18,-111.05,-2.0,-7.0,0,0,,10.0,30.339567,,,TRUE,TRUE,,,,,,,CLR,,,,,,,,VFR,,,,,,,,,,,,SPECI,1718.0
K40U 281015Z AUTO 29003KT 10SM CLR M03/M05 A3032 RMK AO2 T10251048,K40U,2023-04-28T10:15:00Z,40.98,-109.68,-2.5,-4.8,290,3,,10.0,30.318897,,,TRUE,TRUE,,,,,,,CLR,,,,,,,,VFR,,,,,,,,,,,,METAR,1882.0
K3S8 281015Z AUTO 00000KT 10SM CLR 12/09 A2999 RMK AO2,K3S8,2023-04-28T10:15:00Z,42.5,-123.4,12.0,9.0,0,0,,10.0,29.991142,,,TRUE,TRUE,,,,,,,CLR,,,,,,,,VFR,,,,,,,,,,,,SPECI,339.0
K3L4 281015Z AUTO 14003KT 10SM CLR 19/17 A2981 RMK A01,K3L4,2023-04-28T10:15:00Z,29.8,-92.8,19.0,17.0,140,3,,10.0,29.811024,,,TRUE,TRUE,,,,,,,CLR,,,,,,,,VFR,,,,,,,,,,,,SPECI,1.0
K3K3 281015Z AUTO 36023G31KT 10SM BKN018 OVC027 07/04 A2999 RMK AO2,K3K3,2023-04-28T10:15:00Z,38.0,-101.75,7.0,4.0,360,23,31,10.0,29.991142,,,TRUE,TRUE,,,,,,,BKN,1800,OVC,2700,,,,,MVFR,,,,,,,,,,,,SPECI,1010.0
K3F3 281015Z AUTO 15006KT 10SM CLR 11/10 A2984 RMK AO2 T01100104,K3F3,2023-04-28T10:15:00Z,32.07,-93.77,11.0,10.4,150,6,,10.0,29.840551,,,TRUE,TRUE,,,,,,,CLR,,,,,,,,VFR,,,,,,,,,,,,SPECI,96.0
K3D2 281015Z AUTO 01004KT 10SM BKN110 05/02 A2989 RMK AO2 T00450017,K3D2,2023-04-28T10:15:00Z,45.13,-87.18,4.5,1.7,10,4,,10.0,29.890747,,,TRUE,TRUE,,,,,,,BKN,11000,,,,,,,VFR,,,,,,,,,,,,METAR,233.0
K3AU 281015Z AUTO 00000KT 4SM BR SCT060 OVC100 08/07 A2983 RMK AO2,K3AU,2023-04-28T10:15:00Z,37.67,-97.08,8.0,7.0,0,0,,4.0,29.828741,,,TRUE,TRUE,,,,,,BR,SCT,6000,OVC,10000,,,,,MVFR,,,,,,,,,,,,SPECI,403.0
K33V 281015Z AUTO 34008KT 10SM CLR M05/M07 A3023 RMK AO1,K33V,2023-04-28T10:15:00Z,40.75,-106.28,-5.0,-7.0,340,8,,10.0,30.230314,,,TRUE,TRUE,,,,,,,CLR,,,,,,,,VFR,,,,,,,,,,,,SPECI,2486.0
K33N 281015Z AUTO 08011G17KT 10SM CLR 12/10 A3006 RMK A01,K33N,2023-04-28T10:15:00Z,39.22,-75.6,12.0,10.0,80,11,17,10.0,30.059055,,,TRUE,TRUE,,,,,,,CLR,,,,,,,,VFR,,,,,,,,,,,,METAR,17.0
K2V5 281015Z AUTO 34018G26KT 10SM CLR 03/00 A3009 RMK AO2,K2V5,2023-04-28T10:15:00Z,40.1,-102.25,3.0,0.0,340,18,26,10.0,30.088583,,,TRUE,TRUE,,,,,,,CLR,,,,,,,,VFR,,,,,,,,,,,,SPECI,1117.0
K2R9 281015Z AUTO 00000KT 3SM BR CLR 16/15 A2979 RMK AO2 T01560152,K2R9,2023-04-28T10:15:00Z,28.82,-97.87,15.6,15.2,0,0,,3.0,29.790354,,,TRUE,TRUE,,,,,,BR,CLR,,,,,,,,MVFR,,,,,,,,,,,,METAR,88.0
K2P2 281015Z AUTO 03003KT 10SM BKN100 OVC120 04/04 A2991 RMK AO2 T00400038,K2P2,2023-04-28T10:15:00Z,45.38,-86.92,4.0,3.8,30,3,,10.0,29.911417,,,TRUE,TRUE,,,,,,,BKN,10000,OVC,12000,,,,,VFR,,,,,,,,,,,,METAR,182.0
K2M2 281015Z AUTO 00000KT 10SM FEW007 SCT011 OVC034 16/16 A2968 RMK A01,K2M2,2023-04-28T10:15:00Z,35.23,-87.25,16.0,16.0,0,0,,10.0,29.681103,,,TRUE,TRUE,,,,,,,FEW,700,SCT,1100,OVC,3400,,,VFR,,,,,,,,,,,,SPECI,286.0
K2J5 281015Z AUTO 19003KT 10SM BKN006 18/17 A2979 RMK AO2 T01760172,K2J5,2023-04-28T10:15:00Z,32.9,-81.97,17.6,17.2,190,3,,10.0,29.790354,,,TRUE,TRUE,,,,,,,BKN,600,,,,,,,IFR,,,,,,,,,,,,SPECI,72.0
K2J3 281015Z AUTO 24005KT 10SM BKN044 18/17 A2980 RMK AO2 T01770172,K2J3,2023-04-28T10:15:00Z,32.98,-82.38,17.7,17.2,240,5,,10.0,29.799213,,,TRUE,TRUE,,,,,,,BKN,4400,,,,,,,VFR,,,,,,,,,,,,SPECI,97.0
K2IS 281015Z AUTO 17006KT 10SM CLR 19/18 A2990 RMK AO2 T01930180,K2IS,2023-04-28T10:15:00Z,26.73,-81.05,19.3,18.0,170,6,,10.0,29.899607,,,TRUE,TRUE,,,,,,,CLR,,,,,,,,VFR,,,,,,,,,,,,SPECI,5.0
K2I0 281015Z AUTO 00000KT 5SM BR OVC003 14/12 A2970 RMK AO2 T01350123,K2I0,2023-04-28T10:15:00Z,37.35,-87.4,13.5,12.3,0,0,,5.0,29.698818,,,TRUE,TRUE,,,,,,BR,OVC,300,,,,,,,LIFR,,,,,,,,,,,,SPECI,127.0
K2G9 281015Z AUTO 14008G16KT 080V160 10SM RA BKN009 OVC014 09/08 A2993 RMK AO2 P0004,K2G9,2023-04-28T10:15:00Z,40.03,-79.02,9.0,8.0,140,8,16,10.0,29.929134,,,TRUE,TRUE,,,,,,RA,BKN,900,OVC,1400,,,,,IFR,,,,,,0.04,,,,,,METAR,677.0
K2G2 281015Z AUTO 10008G13KT 6SM BR SCT043 BKN050 OVC070 12/12 A2981 RMK A01,K2G2,2023-04-28T10:15:00Z,40.37,-80.7,12.0,12.0,100,8,13,6.0,29.811024,,,TRUE,TRUE,,,,,,BR,SCT,4300,BKN,5000,OVC,7000,,,VFR,,,,,,,,,,,,SPECI,365.0
K2A0 281015Z AUTO 00000KT 2SM BR OVC006 15/15 A2970 RMK A01,K2A0,2023-04-28T10:15:00Z,35.48,-84.93,15.0,15.0,0,0,,2.0,29.698818,,,TRUE,TRUE,,,,,,BR,OVC,600,,,,,,,IFR,,,,,,,,,,,,SPECI,219.0
K28J 281015Z AUTO 00000KT 10SM CLR 16/16 A2986 RMK AO2,K28J,2023-04-28T10:15:00Z,29.65,-81.68,16.0,16.0,0,0,,10.0,29.861221,,,TRUE,TRUE,,,,,,,CLR,,,,,,,,VFR,,,,,,,,,,,,SPECI,9.0
K20V 281015Z AUTO 34006KT 10SM SCT100 M01/M04 A3021 RMK AO2,K20V,2023-04-28T10:15:00Z,40.05,-106.37,-1.0,-4.0,340,6,,10.0,30.209646,,,TRUE,TRUE,,,,,,,SCT,10000,,,,,,,VFR,,,,,,,,,,,,METAR,2259.0
K1V6 281015Z AUTO 23008KT 7SM -RA OVC022 04/03 A3011 RMK AO2,K1V6,2023-04-28T10:15:00Z,38.43,-105.1,4.0,3.0,230,8,,7.0,30.109253,,,TRUE,TRUE,,,,,,-RA,OVC,2200,,,,,,,MVFR,,,,,,,,,,,,METAR,1658.0
K1U7 281015Z AUTO 33005KT 10SM CLR M06/M07 A3029 RMK A01,K1U7,2023-04-28T10:15:00Z,42.25,-111.33,-6.0,-7.0,330,5,,10.0,30.28937,,,TRUE,TRUE,,,,,,,CLR,,,,,,,,VFR,,,,,,,,,,,,METAR,1808.0
K1R8 281015Z AUTO 00000KT 1SM BR OVC002 20/20 A2977 RMK AO2,K1R8,2023-04-28T10:15:00Z,30.87,-87.82,20.0,20.0,0,0,,1.0,29.769686,,,TRUE,TRUE,,,,,,BR,OVC,200,,,,,,,LIFR,,,,,,,,,,,,SPECI,76.0
K1H2 281015Z AUTO 34003KT 10SM SCT035 10/09 A2977 RMK AO2 T01030085,K1H2,2023-04-28T10:15:00Z,39.07,-88.53,10.3,8.5,340,3,,10.0,29.769686,,,TRUE,TRUE,,,,,,,SCT,3500,,,,,,,VFR,,,,,,,,,,,,METAR,174.0
K1F0 281015Z AUTO 36004KT 10SM CLR 09/09 A2983 RMK AO2 T00900085,K1F0,2023-04-28T10:15:00Z,34.15,-97.12,9.0,8.5,360,4,,10.0,29.828741,,,TRUE,TRUE,,,,,,,CLR,,,,,,,,VFR,,,,,,,,,,,,SPECI,256.0
K1A9 281015Z AUTO 00000KT 10SM OVC010 18/18 A2975 RMK AO2 T01800180,K1A9,2023-04-28T10:15:00Z,32.43,-86.52,18.0,18.0,0,0,,10.0,29.749016,,,TRUE,TRUE,,,,,,,OVC,1000,,,,,,,MVFR,,,,,,,,,,,,SPECI,65.0
K1A6 281015Z AUTO 00000KT 10SM OVC015 14/14 A2975 RMK AO2 T01350135,K1A6,2023-04-28T10:15:00Z,36.62,-83.73,13.5,13.5,0,0,,10.0,29.749016,,,TRUE,TRUE,,,,,,,OVC,1500,,,,,,,MVFR,,,,,,,,,,,,SPECI,348.0
K19S 281015Z AUTO 35019G27KT 10SM BKN085 09/ A2993 RMK AO2 T0090////,K19S,2023-04-28T10:15:00Z,37.48,-100.83,9.0,,350,19,27,10.0,29.929134,,,TRUE,TRUE,,,,,,,BKN,8500,,,,,,,VFR,,,,,,,,,,,,SPECI,886.0
K18H 281015Z AUTO 34004KT 4SM HZ OVC017 25/21 A2979 RMK A01,K18H,2023-04-28T10:15:00Z,26.13,-92.03,25.0,21.0,340,4,,4.0,29.790354,,,TRUE,TRUE,,,,,,HZ,OVC,1700,,,,,,,MVFR,,,,,,,,,,,,METAR,30.0
K18A 281015Z AUTO 00000KT 1/4SM FG OVC002 15/14 A2984 RMK AO2 T01460145,K18A,2023-04-28T10:15:00Z,34.35,-83.13,14.6,14.5,0,0,,0.25,29.840551,,,TRUE,TRUE,,,,,,FG,OVC,200,,,,,,,LIFR,,,,,,,,,,,,SPECI,260.0
K17J 281015Z AUTO 21004KT 5SM BR OVC004 19/19 A2979 RMK AO2 T01940186,K17J,2023-04-28T10:15:00Z,31.0,-84.87,19.4,18.6,210,4,,5.0,29.790354,,,TRUE,TRUE,,,,,,BR,OVC,400,,,,,,,LIFR,,,,,,,,,,,,SPECI,42.0
K13K 281015Z AUTO 30004KT 3SM BR CLR 07/07 A2983 RMK AO2 T00680068,K13K,2023-04-28T10:15:00Z,37.85,-96.3,6.8,6.8,300,4,,3.0,29.828741,,,TRUE,TRUE,,,,,,BR,CLR,,,,,,,,MVFR,,,,,,,,,,,,SPECI,367.0
K0R0 281015Z AUTO 00000KT 3/4SM BR VV005 14/13 A2981 RMK AO2,K0R0,2023-04-28T10:15:00Z,31.3,-89.82,14.0,13.0,0,0,,0.75,29.811024,,,TRUE,TRUE,,,,,,BR,OVX,0,,,,,,,LIFR,,,,,,,,,,,500,SPECI,76.0
K0F2 281015Z AUTO 10SM CLR 09/08 A2980 RMK AO2 T00860081,K0F2,2023-04-28T10:15:00Z,33.6,-97.78,8.6,8.1,,,,10.0,29.799213,,,TRUE,TRUE,,,,,,,CLR,,,,,,,,VFR,,,,,,,,,,,,SPECI,330.0
K0CO 281015Z AUTO 10007KT 071V131 OVC001 M11/M13 A3014 RMK AO2 P0001 PWINO,K0CO,2023-04-28T10:15:00Z,39.8,-105.77,-11.0,-13.0,100,7,,,30.138779,,,TRUE,TRUE,,,,,TRUE,,OVC,100,,,,,,,,,,,,,0.01,,,,,,SPECI,3804.0
K0A9 281015Z AUTO 09004KT 10SM SCT043 OVC050 13/13 A2975 RMK AO2,K0A9,2023-04-28T10:15:00Z,36.37,-82.17,13.0,13.0,90,4,,10.0,29.749016,,,TRUE,TRUE,,,,,,,SCT,4300,OVC,5000,,,,,VFR,,,,,,,,,,,,SPECI,479.0
K0A0 281015Z AUTO VRB06KT 10SM CLR 11/M11 A2988 RMK AO2,K0A0,2023-04-28T10:15:00Z,32.98,-106.97,11.0,-11.0,0,6,,10.0,29.878937,,,TRUE,TRUE,,,,,,,CLR,,,,,,,,VFR,,,,,,,,,,,,SPECI,1401.0
K06C 281015Z AUTO 03004KT 10SM CLR 07/04 A2982 RMK AO2 T00690036,K06C,2023-04-28T10:15:00Z,41.98,-88.1,6.9,3.6,30,4,,10.0,29.819881,,,TRUE,TRUE,,,,,,,CLR,,,,,,,,VFR,,,,,,,,,,,,METAR,243.0
K04V 281015Z AUTO 23008KT 3/4SM -SN OVC005 00/M01 A3007 RMK AO2 P0001,K04V,2023-04-28T10:15:00Z,38.1,-106.17,0.0,-1.0,230,8,,0.75,30.070866,,,TRUE,TRUE,,,,,,-SN,OVC,500,,,,,,,LIFR,,,,,,0.01,,,,,,METAR,2389.0
CYMO 281015Z AUTO 08003KT 9SM BKN026 OVC030 03/02 A3005 RMK SLP178,CYMO,2023-04-28T10:15:00Z,51.28,-80.62,3.0,2.0,80,3,,9.0,30.050198,1017.8,,TRUE,,,,,,,,BKN,2600,OVC,3000,,,,,MVFR,,,,,,,,,,,,SPECI,8.0
PFKW 281014Z AUTO 13006KT 9SM -SN SCT017 OVC037 M01/M02 A2963 RMK AO2 SNB07 P0000 FZRANO,PFKW,2023-04-28T10:14:00Z,60.8,-161.43,-1.0,-2.0,130,6,,9.0,29.630905,,,TRUE,TRUE,,,,TRUE,,-SN,SCT,1700,OVC,3700,,,,,VFR,,,,,,0.005,,,,,,METAR,4.0
KSMQ 281014Z AUTO VRB05KT 3SM BR BKN009 BKN055 09/08 A3014 RMK AO2 T00890078,KSMQ,2023-04-28T10:14:00Z,40.62,-74.67,8.9,7.8,0,5,,3.0,30.138779,,,TRUE,TRUE,,,,,,BR,BKN,900,BKN,5500,,,,,IFR,,,,,,,,,,,,SPECI,30.0
KROG 281014Z AUTO 00000KT 3SM OVC002 10/10 A2981 RMK AO2 TSNO,KROG,2023-04-28T10:14:00Z,36.37,-94.1,10.0,10.0,0,0,,3.0,29.811024,,,TRUE,TRUE,,,TRUE,,,,OVC,200,,,,,,,LIFR,,,,,,,,,,,,METAR,407.0
KHRL 281014Z AUTO 14003KT 3/4SM BR VV009 19/19 A2977 RMK AO2 T01890189,KHRL,2023-04-28T10:14:00Z,26.23,-97.65,18.9,18.9,140,3,,0.75,29.769686,,,TRUE,TRUE,,,,,,BR,OVX,0,,,,,,,LIFR,,,,,,,,,,,900,SPECI,9.0
KGVL 281014Z AUTO 00000KT 3SM BR OVC003 14/14 A2978 RMK AO2 T01440139,KGVL,2023-04-28T10:14:00Z,34.27,-83.83,14.4,13.9,0,0,,3.0,29.778543,,,TRUE,TRUE,,,,,,BR,OVC,300,,,,,,,LIFR,,,,,,,,,,,,SPECI,387.0
KDUB 281014Z AUTO 28009KT 10SM CLR M07/M10 A3025 RMK AO2,KDUB,2023-04-28T10:14:00Z,43.55,-109.68,-7.0,-10.0,280,9,,10.0,30.250984,,,TRUE,TRUE,,,,,,,CLR,,,,,,,,VFR,,,,,,,,,,,,SPECI,2205.0
KCDD 281014Z AUTO 00000KT 10SM SCT042 OVC050 02/01 A2996 RMK AO2 PWINO,KCDD,2023-04-28T10:14:00Z,48.27,-92.48,2.0,1.0,0,0,,10.0,29.958662,,,TRUE,TRUE,,,,,TRUE,,SCT,4200,OVC,5000,,,,,VFR,,,,,,,,,,,,METAR,344.0
KBUY 281014Z AUTO 14004KT 4SM -RA BR SCT006 BKN010 OVC016 17/16 A2976 RMK AO2 CIG 007V014 P0004 T01670161,KBUY,2023-04-28T10:14:00Z,36.05,-79.47,16.7,16.1,140,4,,4.0,29.760826,,,TRUE,TRUE,,,,,,-RA BR,SCT,600,BKN,1000,OVC,1600,,,MVFR,,,,,,0.04,,,,,,SPECI,185.0
CYYQ 281014Z 36006KT 1SM R33/P6000FT/D -SN BR OVC004 M05/M05 A3018 RMK SC8 FROIN SLP224,CYYQ,2023-04-28T10:14:00Z,58.75,-94.07,-5.0,-5.0,360,6,,1.0,30.180119,1022.4,,,,,,,,,-SN BR,OVC,400,,,,,,,LIFR,,,,,,,,,,,,SPECI,20.0
PAJN 281013Z 09008KT 10SM FEW016 SCT024 OVC047 05/03 A3023 RMK AO2 T00500033,PAJN,2023-04-28T10:13:00Z,58.35,-134.55,5.0,3.3,90,8,,10.0,30.230314,,,,TRUE,,,,,,,FEW,1600,SCT,2400,OVC,4700,,,VFR,,,,,,,,,,,,SPECI,6.0
KLIC 281013Z AUTO 36021G29KT 10SM BKN016 OVC034 02/M01 A3014 RMK AO2 PK WND 36031/0959 T00171011,KLIC,2023-04-28T10:13:00Z,39.27,-103.67,1.7,-1.1,360,21,29,10.0,30.138779,,,TRUE,TRUE,,,,,,,BKN,1600,OVC,3400,,,,,MVFR,,,,,,,,,,,,SPECI,1635.0
KEWB 281013Z AUTO 00000KT 1/4SM R05/1200V1600FT FG VV002 04/04 A3022 RMK AO2 T00440044,KEWB,2023-04-28T10:13:00Z,41.68,-70.95,4.4,4.4,0,0,,0.25,30.221457,,,TRUE,TRUE,,,,,,FG,OVX,0,,,,,,,LIFR,,,,,,,,,,,200,METAR,22.0
KEET 281013Z AUTO 25004KT 10SM BKN010 OVC017 18/17 A2974 RMK AO2 CIG 007V013 T01780172 $,KEET,2023-04-28T10:13:00Z,33.18,-86.78,17.8,17.2,250,4,,10.0,29.740158,,,TRUE,TRUE,TRUE,,,,,,BKN,1000,OVC,1700,,,,,MVFR,,,,,,,,,,,,METAR,172.0
KALI 281013Z AUTO 19005KT 1/4SM FG VV002 19/19 A2978 RMK AO2 T01940194,KALI,2023-04-28T10:13:00Z,27.73,-98.02,19.4,19.4,190,5,,0.25,29.778543,,,TRUE,TRUE,,,,,,FG,OVX,0,,,,,,,LIFR,,,,,,,,,,,200,METAR,52.0
KAHN 281013Z AUTO 00000KT 1/2SM FG VV002 15/15 A2976 RMK AO2 T01500150,KAHN,2023-04-28T10:13:00Z,33.95,-83.33,15.0,15.0,0,0,,0.5,29.760826,,,TRUE,TRUE,,,,,,FG,OVX,0,,,,,,,LIFR,,,,,,,,,,,200,METAR,241.0
PAYA 281012Z AUTO 09005KT 10SM BKN014 BKN024 OVC060 04/03 A3016 RMK AO2 T00440033 TSNO,PAYA,2023-04-28T10:12:00Z,59.52,-139.67,4.4,3.3,90,5,,10.0,30.159449,,,TRUE,TRUE,,,TRUE,,,,BKN,1400,BKN,2400,OVC,6000,,,MVFR,,,,,,,,,,,,SPECI,9.0
PASL 281012Z AUTO 15004KT 10SM BKN021 OVC090 01/M02 A2978 RMK AO2 FZRANO,PASL,2023-04-28T10:12:00Z,61.68,-157.15,1.0,-2.0,150,4,,10.0,29.778543,,,TRUE,TRUE,,,,TRUE,,,BKN,2100,OVC,9000,,,,,MVFR,,,,,,,,,,,,SPECI,64.0
KXNA 281012Z 02003KT 1/4SM FG VV002 08/08 A2980 RMK AO2 T00830078 RVRNO,KXNA,2023-04-28T10:12:00Z,36.28,-94.3,8.3,7.8,20,3,,0.25,29.799213,,,,TRUE,,,,,,FG,OVX,0,,,,,,,LIFR,,,,,,,,,,,200,METAR,390.0
KSMX 281012Z AUTO 00000KT 1/4SM R12/1800V2600FT FG VV002 09/09 A2993 RMK AO2 T00890089,KSMX,2023-04-28T10:12:00Z,34.9,-120.45,8.9,8.9,0,0,,0.25,29.929134,,,TRUE,TRUE,,,,,,FG,OVX,0,,,,,,,LIFR,,,,,,,,,,,200,SPECI,73.0
KMVY 281012Z AUTO 34003KT M1/4SM R24/0600V1000FT FG VV001 03/03 A3022 RMK AO2 T00330033 $,KMVY,2023-04-28T10:12:00Z,41.4,-70.62,3.3,3.3,340,3,,0.25,30.221457,,,TRUE,TRUE,TRUE,,,,,FG,OVX,0,,,,,,,LIFR,,,,,,,,,,,100,SPECI,18.0
KGRD 281012Z AUTO 22004KT 10SM BKN009 OVC050 17/17 A2977 RMK AO2 RAE01 CIG 005V012 P0000 T01670167,KGRD,2023-04-28T10:12:00Z,34.25,-82.15,16.7,16.7,220,4,,10.0,29.769686,,,TRUE,TRUE,,,,,,,BKN,900,OVC,5000,,,,,IFR,,,,,,0.005,,,,,,METAR,188.0
KCPR 281012Z AUTO 21003KT 10SM FEW019 SCT027 OVC036 02/M01 A3023 RMK AO2 T00171006,KCPR,2023-04-28T10:12:00Z,42.9,-106.47,1.7,-0.6,210,3,,10.0,30.230314,,,TRUE,TRUE,,,,,,,FEW,1900,SCT,2700,OVC,3600,,,VFR,,,,,,,,,,,,SPECI,1623.0
KVSF 281011Z AUTO 00000KT 1/4SM FZFG VV002 M01/M01 A3025 RMK AO2 T10061011,KVSF,2023-04-28T10:11:00Z,43.35,-72.52,-0.6,-1.1,0,0,,0.25,30.250984,,,TRUE,TRUE,,,,,,FZFG,OVX,0,,,,,,,LIFR,,,,,,,,,,,200,SPECI,176.0
KLXV 281011Z AUTO 36009G19KT 6SM -SN BR OVC040 M05/M06 A3011 RMK AO2 P0000 T10501061,KLXV,2023-04-28T10:11:00Z,39.23,-106.32,-5.0,-6.1,360,9,19,6.0,30.109253,,,TRUE,TRUE,,,,,,-SN BR,OVC,4000,,,,,,,VFR,,,,,,0.005,,,,,,SPECI,3027.0
KLVS 281011Z AUTO 02016KT 10SM FEW021 SCT030 03/M02 A2999 RMK AO2 T00331017,KLVS,2023-04-28T10:11:00Z,35.65,-105.13,3.3,-1.7,20,16,,10.0,29.991142,,,TRUE,TRUE,,,,,,,FEW,2100,SCT,3000,,,,,VFR,,,,,,,,,,,,SPECI,2095.0
KHAO 281011Z AUTO 00000KT 6SM BR OVC005 11/09 A2968 RMK AO2 CIG 003V007 T01060094,KHAO,2023-04-28T10:11:00Z,39.37,-84.52,10.6,9.4,0,0,,6.0,29.681103,,,TRUE,TRUE,,,,,,BR,OVC,500,,,,,,,IFR,,,,,,,,,,,,SPECI,185.0
KGUC 281011Z AUTO 23008KT 10SM SCT021 BKN026 OVC075 02/00 A3005 RMK AO2 RAE00 P0000 FZRANO,KGUC,2023-04-28T10:11:00Z,38.52,-106.93,2.0,0.0,230,8,,10.0,30.050198,,,TRUE,TRUE,,,,TRUE,,,SCT,2100,BKN,2600,OVC,7500,,,MVFR,,,,,,0.005,,,,,,SPECI,2337.0
KFBG 281011Z AUTO 17004KT 10SM -RA OVC006 18/18 A2976 RMK AO2 RAB01 SLP079 $,KFBG,2023-04-28T10:11:00Z,35.12,-78.92,18.0,18.0,170,4,,10.0,29.760826,1007.9,,TRUE,TRUE,TRUE,,,,,-RA,OVC,600,,,,,,,IFR,,,,,,,,,,,,SPECI,69.0
KEHR 281011Z AUTO 33003KT 10SM BKN009 OVC012 12/11 A2971 RMK AO2,KEHR,2023-04-28T10:11:00Z,37.82,-87.67,12.0,11.0,330,3,,10.0,29.71063,,,TRUE,TRUE,,,,,,,BKN,900,OVC,1200,,,,,IFR,,,,,,,,,,,,SPECI,117.0
CYVM 281011Z AUTO 00000KT 1/2SM FZFG OVC004 M10/M11 A3049 RMK SLP328,CYVM,2023-04-28T10:11:00Z,67.55,-64.02,-10.0,-11.0,0,0,,0.5,30.490158,1032.8,,TRUE,,,,,,,FZFG,OVC,400,,,,,,,LIFR,,,,,,,,,,,,SPECI,3.0
CYUA 281011Z AUTO 29016KT ////SM FEW004 OVC010 ///// A////,CYUA,2023-04-28T10:11:00Z,68.92,-137.23,,,290,16,,,,,,TRUE,,,,,,,,FEW,400,OVC,1000,,,,,,,,,,,,,,,,,SPECI,25.0
VCRI 281010Z 30004KT 270V330 9999 TS FEW016 BKN018 FEW020CB 30/27 Q1007 NOSIG RMK N/NE,VCRI,2023-04-28T10:10:00Z,6.28,81.13,30.0,27.0,300,4,,6.21,29.734253,,,,,,TRUE,,,,TS,FEW,1600,BKN,1800,FEW,2000,,,MVFR,,,,,,,,,,,,METAR,50.0
VCBI 281010Z 28004KT 9000 -TSRA FEW014 BKN016 FEW018CB 29/26 Q1006 NOSIG RMK CB N/NE/E/SE/S,VCBI,2023-04-28T10:10:00Z,7.17,79.88,29.0,26.0,280,4,,5.59,29.704725,,,,,,TRUE,,,,-TSRA,FEW,1400,BKN,1600,FEW,1800,,,MVFR,,,,,,,,,,,,METAR,10.0
PAMK 281010Z AUTO 00000KT 9SM -SN FEW008 BKN042 OVC060 M02/M03 A2963 RMK AO2 P0000 FZRANO,PAMK,2023-04-28T10:10:00Z,63.48,-162.12,-2.0,-3.0,0,0,,9.0,29.630905,,,TRUE,TRUE,,,,TRUE,,-SN,FEW,800,BKN,4200,OVC,6000,,,VFR,,,,,,0.005,,,,,,SPECI,31.0
PAHO 281010Z AUTO 27007KT 10SM FEW018 SCT034 OVC055 02/M01 A2989 RMK AO2 UPE0959RAB0959E00 P0000 T00221006 TSNO,PAHO,2023-04-28T10:10:00Z,59.63,-151.48,2.2,-0.6,270,7,,10.0,29.890747,,,TRUE,TRUE,,,TRUE,,,,FEW,1800,SCT,3400,OVC,5500,,,VFR,,,,,,0.005,,,,,,SPECI,6.0
PACM 281010Z AUTO 00000KT OVC014 M04/M04 A2957 RMK AO2 PWINO FZRANO $,PACM,2023-04-28T10:10:00Z,61.85,-165.57,-4.0,-4.0,0,0,,,29.568897,,,TRUE,TRUE,TRUE,,,TRUE,TRUE,,OVC,1400,,,,,,,,,,,,,,,,,,,SPECI,3.0
KXBP 281010Z AUTO 00000KT 7SM CLR 09/09 A2980 RMK AO2 T00900090,KXBP,2023-04-28T10:10:00Z,33.18,-97.83,9.0,9.0,0,0,,7.0,29.799213,,,TRUE,TRUE,,,,,,,CLR,,,,,,,,VFR,,,,,,,,,,,,SPECI,256.0
KX26 281010Z AUTO 24004KT 10SM CLR 19/18 A2989 RMK AO2 TSNO T01930181,KX26,2023-04-28T10:10:00Z,27.82,-80.5,19.3,18.1,240,4,,10.0,29.890747,,,TRUE,TRUE,,,TRUE,,,,CLR,,,,,,,,VFR,,,,,,,,,,,,SPECI,5.0
KVVS 281010Z AUTO 12014G19KT 5SM -RA BR OVC060 12/10 A2987 RMK AO2 P0003 T01200100,KVVS,2023-04-28T10:10:00Z,39.95,-79.65,12.0,10.0,120,14,19,5.0,29.870079,,,TRUE,TRUE,,,,,,-RA BR,OVC,6000,,,,,,,MVFR,,,,,,0.03,,,,,,SPECI,386.0
KVTN 281010Z AUTO 33016G23KT 10SM BKN014 OVC080 05/02 A3005 RMK AO2 T00500022,KVTN,2023-04-28T10:10:00Z,42.87,-100.55,5.0,2.2,330,16,23,10.0,30.050198,,,TRUE,TRUE,,,,,,,BKN,1400,OVC,8000,,,,,MVFR,,,,,,,,,,,,SPECI,790.0
KVES 281010Z AUTO 04013G17KT 3SM RA OVC004 06/06 A2969 RMK AO2 P0007,KVES,2023-04-28T10:10:00Z,40.2,-84.53,6.0,6.0,40,13,17,3.0,29.68996,,,TRUE,TRUE,,,,,,RA,OVC,400,,,,,,,LIFR,,,,,,0.07,,,,,,SPECI,308.0
KULS 281010Z AUTO 36025G29KT 10SM SCT018 BKN060 08/06 A2994 RMK AO2,KULS,2023-04-28T10:10:00Z,37.6,-101.37,8.0,6.0,360,25,29,10.0,29.940945,,,TRUE,TRUE,,,,,,,SCT,1800,BKN,6000,,,,,VFR,,,,,,,,,,,,SPECI,934.0
KU55 281010Z AUTO 34011KT 10SM FEW045 FEW055 06/M04 A3018 RMK A01,KU55,2023-04-28T10:10:00Z,37.85,-112.38,6.0,-4.0,340,11,,10.0,30.180119,,,TRUE,TRUE,,,,,,,FEW,4500,FEW,5500,,,,,VFR,,,,,,,,,,,,METAR,2060.0
KTCL 281010Z AUTO 18004KT 5SM BR BKN004 17/17 A2973 RMK AO2 T01720167,KTCL,2023-04-28T10:10:00Z,33.22,-87.62,17.2,16.7,180,4,,5.0,29.731298,,,TRUE,TRUE,,,,,,BR,BKN,400,,,,,,,LIFR,,,,,,,,,,,,SPECI,48.0
KSNH 281010Z AUTO 35007KT 9SM OVC014 16/15 A2968 RMK A01,KSNH,2023-04-28T10:10:00Z,35.17,-88.22,16.0,15.0,350,7,,9.0,29.681103,,,TRUE,TRUE,,,,,,,OVC,1400,,,,,,,MVFR,,,,,,,,,,,,SPECI,142.0
KSLR 281010Z AUTO 00000KT 10SM SCT001 10/10 A2981 RMK AO2 T00970097,KSLR,2023-04-28T10:10:00Z,33.17,-95.62,9.7,9.7,0,0,,10.0,29.811024,,,TRUE,TRUE,,,,,,,SCT,100,,,,,,,VFR,,,,,,,,,,,,SPECI,144.0
KSKF 281010Z AUTO 21003KT 6SM BR OVC005 19/18 A2976 RMK AO2 VIS 1 5/8 RWY34 CIG 004 RWY34 SLP072 $,KSKF,2023-04-28T10:10:00Z,29.38,-98.57,19.0,18.0,210,3,,6.0,29.760826,1007.2,,TRUE,TRUE,TRUE,,,,,BR,OVC,500,,,,,,,IFR,,,,,,,,,,,,SPECI,214.0
KQBL 281010Z AUTO 00000KT 5SM BR FEW005 SCT007 20/20 A2978 RMK AO2 SLP090 WND DATA ESTMD,KQBL,2023-04-28T10:10:00Z,,,20.0,20.0,0,0,,5.0,29.778543,1009.0,,TRUE,TRUE,,,,,,BR,FEW,500,SCT,700,,,,,MVFR,,,,,,,,,,,,SPECI,
KPKV 281010Z AUTO 17004KT 1/2SM FG VV005 19/19 A2978 RMK AO2 T01940187,KPKV,2023-04-28T10:10:00Z,28.65,-96.68,19.4,18.7,170,4,,0.5,29.778543,,,TRUE,TRUE,,,,,,FG,OVX,0,,,,,,,LIFR,,,,,,,,,,,500,SPECI,8.0
KPKB 281010Z AUTO 09008KT 5SM -RA BR FEW012 BKN043 OVC050 13/12 A2976 RMK AO2 P0003 T01280117,KPKB,2023-04-28T10:10:00Z,39.35,-81.43,12.8,11.7,90,8,,5.0,29.760826,,,TRUE,TRUE,,,,,,-RA BR,FEW,1200,BKN,4300,OVC,5000,,,MVFR,,,,,,0.03,,,,,,SPECI,245.0
KOLY 281010Z AUTO 34005KT 7SM OVC006 11/11 A2975 RMK AO2 T01110105 PWINO,KOLY,2023-04-28T10:10:00Z,38.72,-88.18,11.1,10.5,340,5,,7.0,29.749016,,,TRUE,TRUE,,,,,TRUE,,OVC,600,,,,,,,IFR,,,,,,,,,,,,SPECI,144.0
KOAR 281010Z AUTO 00000KT 1/2SM OVC003 08/08 A2994 RMK AO2 PWINO,KOAR,2023-04-28T10:10:00Z,36.67,-121.77,8.0,8.0,0,0,,0.5,29.940945,,,TRUE,TRUE,,,,,TRUE,,OVC,300,,,,,,,LIFR,,,,,,,,,,,,SPECI,41.0
KNOW 281010Z AUTO 21004KT 10SM CLR 09/07 A3013 RMK AO2 T00860068,KNOW,2023-04-28T10:10:00Z,48.13,-123.4,8.6,6.8,210,4,,10.0,30.129921,,,TRUE,TRUE,,,,,,,CLR,,,,,,,,VFR,,,,,,,,,,,,SPECI,3.0
KMRC 281010Z AUTO 00000KT 7SM FEW007 SCT036 BKN050 14/14 A2966 RMK A01,KMRC,2023-04-28T10:10:00Z,35.55,-87.18,14.0,14.0,0,0,,7.0,29.660433,,,TRUE,TRUE,,,,,,,FEW,700,SCT,3600,BKN,5000,,,VFR,,,,,,,,,,,,SPECI,205.0
KM91 281010Z AUTO 34005KT 1 1/4SM BR OVC005 15/15 A2967 RMK A01,KM91,2023-04-28T10:10:00Z,36.53,-86.92,15.0,15.0,340,5,,1.25,29.66929,,,TRUE,TRUE,,,,,,BR,OVC,500,,,,,,,IFR,,,,,,,,,,,,SPECI,214.0
KM54 281010Z AUTO 17004KT 5SM BR SCT003 BKN075 OVC090 15/15 A2966 RMK A01,KM54,2023-04-28T10:10:00Z,36.18,-86.32,15.0,15.0,170,4,,5.0,29.660433,,,TRUE,TRUE,,,,,,BR,SCT,300,BKN,7500,OVC,9000,,,MVFR,,,,,,,,,,,,SPECI,168.0
KM04 281010Z AUTO 31007KT 6SM BR SCT004 OVC009 14/14 A2972 RMK A01,KM04,2023-04-28T10:10:00Z,35.58,-89.58,14.0,14.0,310,7,,6.0,29.719488,,,TRUE,TRUE,,,,,,BR,SCT,400,OVC,900,,,,,IFR,,,,,,,,,,,,SPECI,83.0
KKNB 281010Z AUTO 03007KT 10SM CLR 14/M04 A3010 RMK A01,KKNB,2023-04-28T10:10:00Z,37.02,-112.53,14.0,-4.0,30,7,,10.0,30.100393,,,TRUE,TRUE,,,,,,,CLR,,,,,,,,VFR,,,,,,,,,,,,METAR,1476.0
KK70 281010Z AUTO 18009G17KT 10SM BKN018 OVC023 27/24 A2988 RMK AO2,KK70,2023-04-28T10:10:00Z,25.32,-80.28,27.0,24.0,180,9,17,10.0,29.878937,,,TRUE,TRUE,,,,,,,BKN,1800,OVC,2300,,,,,MVFR,,,,,,,,,,,,SPECI,20.0
KJAU 281010Z AUTO 00000KT 10SM OVC006 14/14 A2977 RMK A01,KJAU,2023-04-28T10:10:00Z,36.33,-84.17,14.0,14.0,0,0,,10.0,29.769686,,,TRUE,TRUE,,,,,,,OVC,600,,,,,,,IFR,,,,,,,,,,,,SPECI,350.0
KI35 281010Z AUTO 00000KT 10SM OVC020 14/14 A2974 RMK AO2 T01430143,KI35,2023-04-28T10:10:00Z,36.87,-83.37,14.3,14.3,0,0,,10.0,29.740158,,,TRUE,TRUE,,,,,,,OVC,2000,,,,,,,MVFR,,,,,,,,,,,,SPECI,467.0
KHZR 281010Z AUTO 00000KT 10SM CLR 15/14 A2981 RMK AO2 T01510140,KHZR,2023-04-28T10:10:00Z,30.72,-91.48,15.1,14.0,0,0,,10.0,29.811024,,,TRUE,TRUE,,,,,,,CLR,,,,,,,,VFR,,,,,,,,,,,,SPECI,11.0
KGSP 281010Z 03003KT 10SM OVC009 14/13 A2976 RMK AO2 T01440128,KGSP,2023-04-28T10:10:00Z,34.9,-82.22,14.4,12.8,30,3,,10.0,29.760826,,,,TRUE,,,,,,,OVC,900,,,,,,,IFR,,,,,,,,,,,,SPECI,285.0
KGNC 281010Z AUTO 24007KT 10SM CLR 13/M03 A2976 RMK AO2 T01261027,KGNC,2023-04-28T10:10:00Z,32.68,-102.65,12.6,-2.7,240,7,,10.0,29.760826,,,TRUE,TRUE,,,,,,,CLR,,,,,,,,VFR,,,,,,,,,,,,SPECI,1002.0
KETN 281010Z AUTO 11005KT 10SM CLR 12/09 A2973 RMK AO2 T01160095,KETN,2023-04-28T10:10:00Z,32.42,-98.82,11.6,9.5,110,5,,10.0,29.731298,,,TRUE,TRUE,,,,,,,CLR,,,,,,,,VFR,,,,,,,,,,,,SPECI,445.0
KEAN 281010Z AUTO 32008KT 10SM BKN025 BKN034 OVC055 03/00 A3021 RMK AO2 T00320000,KEAN,2023-04-28T10:10:00Z,42.05,-104.93,3.2,0.0,320,8,,10.0,30.209646,,,TRUE,TRUE,,,,,,,BKN,2500,BKN,3400,OVC,5500,,,MVFR,,,,,,,,,,,,SPECI,1452.0
KDVK 281010Z AUTO 00000KT 10SM OVC007 13/13 A2971 RMK AO2,KDVK,2023-04-28T10:10:00Z,37.58,-84.77,13.0,13.0,0,0,,10.0,29.71063,,,TRUE,TRUE,,,,,,,OVC,700,,,,,,,IFR,,,,,,,,,,,,SPECI,309.0
KDED 281010Z AUTO 00000KT 10SM BKN004 18/17 A2988 RMK AO2 T01800173,KDED,2023-04-28T10:10:00Z,29.07,-81.28,18.0,17.3,0,0,,10.0,29.878937,,,TRUE,TRUE,,,,,,,BKN,400,,,,,,,LIFR,,,,,,,,,,,,SPECI,21.0
KCXW 281010Z AUTO 29003KT 10SM BKN007 OVC011 14/ A2976 RMK A01,KCXW,2023-04-28T10:10:00Z,35.02,-92.55,14.0,,290,3,,10.0,29.760826,,,TRUE,TRUE,,,,,,,BKN,700,OVC,1100,,,,,IFR,,,,,,,,,,,,SPECI,84.0
KBTN 281010Z AUTO 35010KT 10SM FEW010 BKN065 OVC080 05/05 A2997 RMK AO2,KBTN,2023-04-28T10:10:00Z,45.82,-97.75,5.0,5.0,350,10,,10.0,29.970472,,,TRUE,TRUE,,,,,,,FEW,1000,BKN,6500,OVC,8000,,,VFR,,,,,,,,,,,,SPECI,400.0
KBMC 281010Z AUTO 15012KT 10SM CLR 09/M06 A3022 RMK AO1 T00861065,KBMC,2023-04-28T10:10:00Z,41.55,-112.07,8.6,-6.5,150,12,,10.0,30.221457,,,TRUE,TRUE,,,,,,,CLR,,,,,,,,VFR,,,,,,,,,,,,SPECI,1289.0
KANK 281010Z AUTO 13005KT 1 3/4SM BKN003 OVC008 00/00 A3021 RMK AO1 T00011003,KANK,2023-04-28T10:10:00Z,38.53,-106.05,0.1,-0.3,130,5,,1.75,30.209646,,,TRUE,TRUE,,,,,,,BKN,300,OVC,800,,,,,LIFR,,,,,,,,,,,,SPECI,2293.0
KAFO 281010Z AUTO 00000KT 10SM CLR M04/M18 A3031 RMK AO2,KAFO,2023-04-28T10:10:00Z,42.72,-110.95,-4.0,-18.0,0,0,,10.0,30.31004,,,TRUE,TRUE,,,,,,,CLR,,,,,,,,VFR,,,,,,,,,,,,SPECI,1881.0
ETIK 281010Z AUTO 19005KT 9999 BKN011 BKN017 OVC022 12/12 A2991 RMK AO2 SLP134 FZRANO $,ETIK,2023-04-28T10:10:00Z,49.47,10.38,12.0,12.0,190,5,,6.21,29.911417,1013.4,,TRUE,TRUE,TRUE,,,TRUE,,,BKN,1100,BKN,1700,OVC,2200,,,MVFR,,,,,,,,,,,,SPECI,326.0
EGVA 281010Z AUTO 31008KT 9999 FEW012 SCT019 OVC036 15/14 A2983 RMK AO2 SLP105 FZRANO $,EGVA,2023-04-28T10:10:00Z,51.67,-1.78,15.0,14.0,310,8,,6.21,29.828741,1010.5,,TRUE,TRUE,TRUE,,,TRUE,,,FEW,1200,SCT,1900,OVC,3600,,,VFR,,,,,,,,,,,,METAR,84.0
BIHN 281010Z 02014KT CAVOK 02/M10 Q1025,BIHN,2023-04-28T10:10:00Z,64.3,-15.23,2.0,-10.0,20,14,,6.21,30.265747,,,,,,,,,,,CAVOK,,,,,,,,VFR,,,,,,,,,,,,METAR,8.0
UBEE 281009Z 35004KT 9999 FEW030CB SCT080 27/14 Q1008 NOSIG,UBEE,2023-04-28T10:09:00Z,40.63,47.13,27.0,14.0,350,4,,6.21,29.763779,,,,,,TRUE,,,,,FEW,3000,SCT,8000,,,,,VFR,,,,,,,,,,,,SPECI,14.0
SBIP 281009Z AUTO 01003KT 350V050 7000 OVC002 20/16 Q1016,SBIP,2023-04-28T10:09:00Z,-19.47,-42.48,20.0,16.0,10,3,,4.35,30.0,,,TRUE,,,,,,,,OVC,200,,,,,,,LIFR,,,,,,,,,,,,SPECI,240.0
PHNL 281009Z 01003KT 10SM BKN028 OVC036 23/21 A2998 RMK AO2 T02330206 $,PHNL,2023-04-28T10:09:00Z,21.33,-157.93,23.3,20.6,10,3,,10.0,29.97933,,,,TRUE,TRUE,,,,,,BKN,2800,OVC,3600,,,,,MVFR,,,,,,,,,,,,SPECI,2.0
PANV 281009Z AUTO 15007KT 10SM SCT005 BKN038 00/M01 A2963 RMK AO2 UPE08 P0000 FZRANO TSNO,PANV,2023-04-28T10:09:00Z,62.65,-160.18,0.0,-1.0,150,7,,10.0,29.630905,,,TRUE,TRUE,,,TRUE,TRUE,,,SCT,500,BKN,3800,,,,,VFR,,,,,,0.005,,,,,,SPECI,91.0
PADL 281009Z AUTO 16005KT 3SM -SN BR OVC007 00/00 A2973 RMK AO2 CIG 005V011 P0000 FZRANO,PADL,2023-04-28T10:09:00Z,59.05,-158.5,0.0,0.0,160,5,,3.0,29.731298,,,TRUE,TRUE,,,,TRUE,,-SN BR,OVC,700,,,,,,,IFR,,,,,,0.005,,,,,,SPECI,20.0
KMIE 281009Z 01011KT 2 1/2SM RA BR BKN027 OVC034 08/06 A2971 RMK AO2 P0007 T00780056,KMIE,2023-04-28T10:09:00Z,40.23,-85.4,7.8,5.6,10,11,,2.5,29.71063,,,,TRUE,,,,,,RA BR,BKN,2700,OVC,3400,,,,,IFR,,,,,,0.07,,,,,,SPECI,286.0
KHYR 281009Z AUTO 04007KT 10SM -RA BKN009 OVC060 06/05 A2986 RMK AO2 P0000 T00610050,KHYR,2023-04-28T10:09:00Z,46.02,-91.45,6.1,5.0,40,7,,10.0,29.861221,,,TRUE,TRUE,,,,,,-RA,BKN,900,OVC,6000,,,,,IFR,,,,,,0.005,,,,,,SPECI,369.0
KGBD 281009Z AUTO 32011KT 10SM BKN011 BKN023 OVC065 11/10 A2986 RMK AO2,KGBD,2023-04-28T10:09:00Z,38.35,-98.87,11.0,10.0,320,11,,10.0,29.861221,,,TRUE,TRUE,,,,,,,BKN,1100,BKN,2300,OVC,6500,,,MVFR,,,,,,,,,,,,SPECI,573.0
KFAY 281009Z AUTO 17005KT 10SM BKN008 OVC070 18/18 A2978 RMK AO2 CIG 005V011 T01830178,KFAY,2023-04-28T10:09:00Z,34.98,-78.88,18.3,17.8,170,5,,10.0,29.778543,,,TRUE,TRUE,,,,,,,BKN,800,OVC,7000,,,,,IFR,,,,,,,,,,,,SPECI,57.0
KSFB 281008Z AUTO 18005KT 10SM FEW004 19/19 A2987 RMK AO2 T01890189,KSFB,2023-04-28T10:08:00Z,28.77,-81.23,18.9,18.9,180,5,,10.0,29.870079,,,TRUE,TRUE,,,,,,,FEW,400,,,,,,,VFR,,,,,,,,,,,,SPECI,16.0
KLBB 281008Z 35012KT 10SM BKN260 12/M04 A2971 RMK AO2 WSHFT 1004 FROPA T01221039,KLBB,2023-04-28T10:08:00Z,33.67,-101.82,12.2,-3.9,350,12,,10.0,29.71063,,,,TRUE,,,,,,,BKN,26000,,,,,,,VFR,,,,,,,,,,,,SPECI,996.0
KIND 281008Z 01007KT 10SM BKN008 BKN013 OVC018 08/07 A2972 RMK AO2 CIG 008V012 T00830072,KIND,2023-04-28T10:08:00Z,39.72,-86.27,8.3,7.2,10,7,,10.0,29.719488,,,,TRUE,,,,,,,BKN,800,BKN,1300,OVC,1800,,,IFR,,,,,,,,,,,,SPECI,242.0
KFLP 281008Z AUTO 31004KT 5SM BR BKN007 BKN011 OVC031 12/12 A2978 RMK AO2 CIG 004V010,KFLP,2023-04-28T10:08:00Z,36.28,-92.58,12.0,12.0,310,4,,5.0,29.778543,,,TRUE,TRUE,,,,,,BR,BKN,700,BKN,1100,OVC,3100,,,IFR,,,,,,,,,,,,METAR,215.0
KBVX 281008Z AUTO 00000KT 10SM SCT007 OVC025 13/13 A2976 RMK AO2,KBVX,2023-04-28T10:08:00Z,35.73,-91.65,13.0,13.0,0,0,,10.0,29.760826,,,TRUE,TRUE,,,,,,,SCT,700,OVC,2500,,,,,MVFR,,,,,,,,,,,,METAR,137.0
KBOK 281008Z AUTO 00000KT 1/2SM FG OVC003 09/09 A2992 RMK AO2,KBOK,2023-04-28T10:08:00Z,42.07,-124.28,9.0,9.0,0,0,,0.5,29.920275,,,TRUE,TRUE,,,,,,FG,OVC,300,,,,,,,LIFR,,,,,,,,,,,,METAR,140.0
KBLM 281008Z AUTO 07008KT 10SM FEW010 SCT065 10/ A3016 RMK AO2,KBLM,2023-04-28T10:08:00Z,40.17,-74.12,10.0,,70,8,,10.0,30.159449,,,TRUE,TRUE,,,,,,,FEW,1000,SCT,6500,,,,,VFR,,,,,,,,,,,,METAR,45.0
PFKT 281007Z AUTO 04020KT 4SM -SN FEW026 BKN042 OVC048 A2974 RMK AO2 P0000 FZRANO $,PFKT,2023-04-28T10:07:00Z,65.33,-166.47,,,40,20,,4.0,29.740158,,,TRUE,TRUE,TRUE,,,TRUE,,-SN,FEW,2600,BKN,4200,OVC,4800,,,MVFR,,,,,,0.005,,,,,,SPECI,8.0
PASV 281007Z AUTO 20006KT 10SM -SN BKN006 OVC047 M02/M02 A2971 RMK AO2 SLP084,PASV,2023-04-28T10:07:00Z,61.1,-155.57,-2.0,-2.0,200,6,,10.0,29.71063,1008.4,,TRUE,TRUE,,,,,,-SN,BKN,600,OVC,4700,,,,,IFR,,,,,,,,,,,,SPECI,462.0
PASO 281007Z AUTO 18004KT 4SM -RA BR FEW013 BKN021 OVC039 02/01 A2989 RMK AO2 P0001 T00220011 TSNO,PASO,2023-04-28T10:07:00Z,59.45,-151.7,2.2,1.1,180,4,,4.0,29.890747,,,TRUE,TRUE,,,TRUE,,,-RA BR,FEW,1300,BKN,2100,OVC,3900,,,MVFR,,,,,,0.01,,,,,,METAR,20.0
KVLD 281007Z AUTO 17003KT 2SM BR OVC004 19/18 A2981 RMK AO1 T01940183,KVLD,2023-04-28T10:07:00Z,30.78,-83.27,19.4,18.3,170,3,,2.0,29.811024,,,TRUE,TRUE,,,,,,BR,OVC,400,,,,,,,LIFR,,,,,,,,,,,,SPECI,59.0
KTRI 281007Z 00000KT 10SM FEW001 SCT047 BKN085 12/11 A2975 RMK AO2 T01220111 $,KTRI,2023-04-28T10:07:00Z,36.48,-82.4,12.2,11.1,0,0,,10.0,29.749016,,,,TRUE,TRUE,,,,,,FEW,100,SCT,4700,BKN,8500,,,VFR,,,,,,,,,,,,SPECI,456.0
KQHY 281007Z AUTO 00000KT 9SM SCT007 21/20 A2977 RMK AO2 SLP088,KQHY,2023-04-28T10:07:00Z,,,21.0,20.0,0,0,,9.0,29.769686,1008.8,,TRUE,TRUE,,,,,,,SCT,700,,,,,,,VFR,,,,,,,,,,,,SPECI,
KMMK 281007Z AUTO 32003KT 1/4SM FG VV002 06/05 A3022 RMK AO2 T00610050,KMMK,2023-04-28T10:07:00Z,41.52,-72.83,6.1,5.0,320,3,,0.25,30.221457,,,TRUE,TRUE,,,,,,FG,OVX,0,,,,,,,LIFR,,,,,,,,,,,200,METAR,30.0
CYFT 281007Z 32007KT 3/4SM -SN BR VV004 M02/M02 A3031 RMK FG8 SLP270,CYFT,2023-04-28T10:07:00Z,55.07,-59.18,-2.0,-2.0,320,7,,0.75,30.31004,1027.0,,,,,,,,,-SN BR,OVX,0,,,,,,,LIFR,,,,,,,,,,,400,SPECI,65.0
MMVA 281006Z RTD 00000KT 2SM BR HZ SCT012 25/24 A2978 RMK 8/600 HZLYR OVR STN RTS,MMVA,2023-04-28T10:06:00Z,18.0,-92.82,25.0,24.0,0,0,,2.0,29.778543,,,,,,,,,,HZ BR,SCT,1200,,,,,,,IFR,,,,,,,,,,,,METAR,13.0
KTHV 281006Z AUTO 09008KT 10SM OVC015 11/08 A3005 RMK AO2 T01060078,KTHV,2023-04-28T10:06:00Z,39.92,-76.88,10.6,7.8,90,8,,10.0,30.050198,,,TRUE,TRUE,,,,,,,OVC,1500,,,,,,,MVFR,,,,,,,,,,,,METAR,141.0
KGON 281006Z AUTO 34004KT 1/2SM R05/1600V2600FT FG VV002 06/04 A3022 RMK AO2 T00610044,KGON,2023-04-28T10:06:00Z,41.33,-72.05,6.1,4.4,340,4,,0.5,30.221457,,,TRUE,TRUE,,,,,,FG,OVX,0,,,,,,,LIFR,,,,,,,,,,,200,METAR,2.0
KGLH 281006Z AUTO 31005KT 10SM OVC011 16/14 A2975 RMK AO2 T01560139,KGLH,2023-04-28T10:06:00Z,33.47,-90.98,15.6,13.9,310,5,,10.0,29.749016,,,TRUE,TRUE,,,,,,,OVC,1100,,,,,,,MVFR,,,,,,,,,,,,SPECI,40.0
KPPF 281005Z AUTO 00000KT 1/4SM FG VV001 06/04 A2982 RMK AO2 T00560039,KPPF,2023-04-28T10:05:00Z,37.33,-95.5,5.6,3.9,0,0,,0.25,29.819881,,,TRUE,TRUE,,,,,,FG,OVX,0,,,,,,,LIFR,,,,,,,,,,,100,SPECI,265.0
KHUA 281005Z AUTO 21003KT 10SM OVC009 16/16 A2967 RMK AO2 LTG DSNT NE CIG 009V011 SLP045,KHUA,2023-04-28T10:05:00Z,34.68,-86.68,16.0,16.0,210,3,,10.0,29.66929,1004.5,,TRUE,TRUE,,,,,,,OVC,900,,,,,,,IFR,,,,,,,,,,,,SPECI,200.0
KEWN 281005Z 16005KT 9SM -RA SCT017 BKN025 OVC110 18/17 A2984 RMK AO2 P0001 T01780172,KEWN,2023-04-28T10:05:00Z,35.07,-77.05,17.8,17.2,160,5,,9.0,29.840551,,,,TRUE,,,,,,-RA,SCT,1700,BKN,2500,OVC,11000,,,MVFR,,,,,,0.01,,,,,,SPECI,3.0
K05U 281005Z AUTO VRB04KT 10SM 01/M04 A3023 RMK A01,K05U,2023-04-28T10:05:00Z,39.6,-116.0,1.0,-4.0,0,4,,10.0,30.230314,,,TRUE,TRUE,,,,,,,,,,,,,,,,,,,,,,,,,,,SPECI,1813.0
KRYY 281004Z AUTO VRB03KT 10SM OVC004 16/15 A2976 RMK AO2 $,KRYY,2023-04-28T10:04:00Z,34.02,-84.6,16.0,15.0,0,3,,10.0,29.760826,,,TRUE,TRUE,TRUE,,,,,,OVC,400,,,,,,,LIFR,,,,,,,,,,,,METAR,306.0
KHYI 281004Z AUTO 21003KT 10SM BKN004 14/13 A2978 RMK AO2,KHYI,2023-04-28T10:04:00Z,29.88,-97.87,14.0,13.0,210,3,,10.0,29.778543,,,TRUE,TRUE,,,,,,,BKN,400,,,,,,,LIFR,,,,,,,,,,,,METAR,180.0
KFSD 281004Z 34013G18KT 10SM BKN007 BKN017 OVC040 12/09 A2980 RMK AO2 CIG 006V011 T01170089,KFSD,2023-04-28T10:04:00Z,43.58,-96.75,11.7,8.9,340,13,18,10.0,29.799213,,,,TRUE,,,,,,,BKN,700,BKN,1700,OVC,4000,,,IFR,,,,,,,,,,,,SPECI,433.0
KDGW 281004Z AUTO 31010KT 10SM FEW013 FEW022 OVC070 02/00 A3022 RMK AO2 T00220000,KDGW,2023-04-28T10:04:00Z,42.8,-105.38,2.2,0.0,310,10,,10.0,30.221457,,,TRUE,TRUE,,,,,,,FEW,1300,FEW,2200,OVC,7000,,,VFR,,,,,,,,,,,,SPECI,1503.0
SVVL 281003Z AUTO ///01KT NCD ///// Q////,SVVL,2023-04-28T10:03:00Z,9.33,-70.58,,,,,,,,,,TRUE,,,,,,,,CLR,,,,,,,,,,,,,,,,,,,,METAR,575.0
SVVA 281003Z AUTO 25006KT NCD 26/24 Q1012,SVVA,2023-04-28T10:03:00Z,10.15,-67.92,26.0,24.0,250,6,,,29.88189,,,TRUE,,,,,,,,CLR,,,,,,,,,,,,,,,,,,,,METAR,428.0
SVSR 281003Z AUTO NIL,SVSR,2023-04-28T10:03:00Z,7.87,-67.43,,,,,,,,,,TRUE,,,,,,,,,,,,,,,,,,,,,,,,,,,,METAR,49.0
SVSA 281003Z AUTO NIL,SVSA,2023-04-28T10:03:00Z,7.83,-72.45,,,,,,,,,,TRUE,,,,,,,,,,,,,,,,,,,,,,,,,,,,METAR,383.0
SVPR 281003Z AUTO 09003KT NCD 23/21 Q1013,SVPR,2023-04-28T10:03:00Z,8.3,-62.77,23.0,21.0,90,3,,,29.911417,,,TRUE,,,,,,,,CLR,,,,,,,,,,,,,,,,,,,,METAR,140.0
SVPA 281003Z AUTO NIL,SVPA,2023-04-28T10:03:00Z,5.62,-67.6,,,,,,,,,,TRUE,,,,,,,,,,,,,,,,,,,,,,,,,,,,METAR,77.0
SVMT 281003Z AUTO 01001KT NCD 24/24 Q1012,SVMT,2023-04-28T10:03:00Z,9.75,-63.17,24.0,24.0,10,1,,,29.88189,,,TRUE,,,,,,,,CLR,,,,,,,,,,,,,,,,,,,,METAR,67.0
SVMI 281003Z AUTO 08005KT NCD 26/22 Q1011,SVMI,2023-04-28T10:03:00Z,10.6,-67.0,26.0,22.0,80,5,,,29.852362,,,TRUE,,,,,,,,CLR,,,,,,,,,,,,,,,,,,,,METAR,48.0
SVMG 281003Z AUTO 09011KT NCD 26/24 Q1011,SVMG,2023-04-28T10:03:00Z,10.92,-63.97,26.0,24.0,90,11,,,29.852362,,,TRUE,,,,,,,,CLR,,,,,,,,,,,,,,,,,,,,METAR,16.0
SVMC 281003Z AUTO 01005KT NCD 27/24 Q1009,SVMC,2023-04-28T10:03:00Z,10.57,-71.72,27.0,24.0,10,5,,,29.793306,,,TRUE,,,,,,,,CLR,,,,,,,,,,,,,,,,,,,,METAR,76.0
SVLO 281003Z AUTO NIL,SVLO,2023-04-28T10:03:00Z,11.8,-66.18,,,,,,,,,,TRUE,,,,,,,,,,,,,,,,,,,,,,,,,,,,METAR,3.0
SVJM 281003Z AUTO 33007KT NCD 24/23 Q1011,SVJM,2023-04-28T10:03:00Z,9.92,-67.38,24.0,23.0,330,7,,,29.852362,,,TRUE,,,,,,,,CLR,,,,,,,,,,,,,,,,,,,,METAR,448.0
SVGU 281003Z AUTO 09004KT NCD 35/// Q1011,SVGU,2023-04-28T10:03:00Z,9.03,-69.75,,,90,4,,,29.852362,,,TRUE,,,,,,,,CLR,,,,,,,,,,,,,,,,,,,,METAR,165.0
SVGD 281003Z AUTO 24001KT NCD 25/25 Q1011,SVGD,2023-04-28T10:03:00Z,7.22,-70.75,25.0,25.0,240,1,,,29.852362,,,TRUE,,,,,,,,CLR,,,,,,,,,,,,,,,,,,,,METAR,129.0
SVFM 281003Z AUTO NIL,SVFM,2023-04-28T10:03:00Z,10.48,-66.83,,,,,,,,,,TRUE,,,,,,,,,,,,,,,,,,,,,,,,,,,,METAR,852.0
SVCS 281003Z AUTO 12001KT NCD 22/19 Q1015,SVCS,2023-04-28T10:03:00Z,10.3,-66.82,22.0,19.0,120,1,,,29.970472,,,TRUE,,,,,,,,CLR,,,,,,,,,,,,,,,,,,,,METAR,656.0
SVCB 281003Z AUTO 09003KT NCD 25/23 Q1011,SVCB,2023-04-28T10:03:00Z,8.12,-63.53,25.0,23.0,90,3,,,29.852362,,,TRUE,,,,,,,,CLR,,,,,,,,,,,,,,,,,,,,METAR,47.0
SVBS 281003Z AUTO 08001KT NCD 25/20 Q1013,SVBS,2023-04-28T10:03:00Z,10.25,-67.65,25.0,20.0,80,1,,,29.911417,,,TRUE,,,,,,,,CLR,,,,,,,,,,,,,,,,,,,,METAR,435.0
SVBM 281003Z AUTO 10005KT NCD 22/20 Q1013,SVBM,2023-04-28T10:03:00Z,10.05,-69.37,22.0,20.0,100,5,,,29.911417,,,TRUE,,,,,,,,CLR,,,,,,,,,,,,,,,,,,,,METAR,624.0
SVBI 281003Z AUTO /////KT NCD 26/26 Q1014,SVBI,2023-04-28T10:03:00Z,8.62,-70.22,26.0,26.0,,,,,29.940945,,,TRUE,,,,,,,,CLR,,,,,,,,,,,,,,,,,,,,METAR,185.0
SVBC 281003Z AUTO 12003KT NCD 26/24 Q1012,SVBC,2023-04-28T10:03:00Z,10.12,-64.68,26.0,24.0,120,3,,,29.88189,,,TRUE,,,,,,,,CLR,,,,,,,,,,,,,,,,,,,,METAR,7.0
KTYS 281003Z 00000KT 1 1/2SM BR OVC002 14/13 A2972 RMK AO2 SFC VIS 2 1/2 T01390133 $,KTYS,2023-04-28T10:03:00Z,35.82,-83.98,13.9,13.3,0,0,,1.5,29.719488,,,,TRUE,TRUE,,,,,BR,OVC,200,,,,,,,LIFR,,,,,,,,,,,,SPECI,300.0
KIJD 281003Z AUTO 00000KT M1/4SM FG VV002 03/03 A3023 RMK AO2 T00330033,KIJD,2023-04-28T10:03:00Z,41.75,-72.18,3.3,3.3,0,0,,0.25,30.230314,,,TRUE,TRUE,,,,,,FG,OVX,0,,,,,,,LIFR,,,,,,,,,,,200,SPECI,73.0
KBDL 281003Z 00000KT 1/8SM R06/1000V1200FT FG VV002 05/05 A3023 RMK AO2 TWR VIS 1/4 T00500050 $,KBDL,2023-04-28T10:03:00Z,41.93,-72.68,5.0,5.0,0,0,,0.13,30.230314,,,,TRUE,TRUE,,,,,FG,OVX,0,,,,,,,LIFR,,,,,,,,,,,200,SPECI,52.0
KAGS 281003Z AUTO 22004KT 10SM FEW011 SCT020 OVC049 18/18 A2976 RMK AO2 T01830178,KAGS,2023-04-28T10:03:00Z,33.37,-81.97,18.3,17.8,220,4,,10.0,29.760826,,,TRUE,TRUE,,,,,,,FEW,1100,SCT,2000,OVC,4900,,,VFR,,,,,,,,,,,,METAR,40.0
KAEX 281003Z 00000KT 3SM BR CLR 11/11 A2979 RMK AO2 T01110111,KAEX,2023-04-28T10:03:00Z,31.33,-92.57,11.1,11.1,0,0,,3.0,29.790354,,,,TRUE,,,,,,BR,CLR,,,,,,,,MVFR,,,,,,,,,,,,METAR,25.0
ETAD 281003Z 24008KT 9999 SCT008 BKN010 15/14 A2987 RMK SLP107,ETAD,2023-04-28T10:03:00Z,49.98,6.7,15.0,14.0,240,8,,6.21,29.870079,1010.7,,,,,,,,,,SCT,800,BKN,1000,,,,,MVFR,,,,,,,,,,,,SPECI,365.0
KUZA 281002Z AUTO 26004KT 9SM -RA BKN011 OVC060 16/16 A2976 RMK AO2 RAB02 P0000 T01610156,KUZA,2023-04-28T10:02:00Z,34.98,-81.05,16.1,15.6,260,4,,9.0,29.760826,,,TRUE,TRUE,,,,,,-RA,BKN,1100,OVC,6000,,,,,MVFR,,,,,,0.005,,,,,,METAR,198.0
KTAN 281002Z AUTO 00000KT M1/4SM FG VV002 06/06 A3023 RMK AO2 T00610056,KTAN,2023-04-28T10:02:00Z,41.88,-71.02,6.1,5.6,0,0,,0.25,30.230314,,,TRUE,TRUE,,,,,,FG,OVX,0,,,,,,,LIFR,,,,,,,,,,,200,METAR,8.0
KPRN 281002Z AUTO 23004KT 10SM OVC009 18/17 A2977 RMK AO2 CIG 007V011 T01780172,KPRN,2023-04-28T10:02:00Z,31.85,-86.62,17.8,17.2,230,4,,10.0,29.769686,,,TRUE,TRUE,,,,,,,OVC,900,,,,,,,IFR,,,,,,,,,,,,METAR,137.0
KLOZ 281002Z AUTO 16003KT 6SM -RA BR FEW014 BKN021 OVC031 14/13 A2972 RMK AO2 RAB0959 P0002 T01390133,KLOZ,2023-04-28T10:02:00Z,37.08,-84.07,13.9,13.3,160,3,,6.0,29.719488,,,TRUE,TRUE,,,,,,-RA BR,FEW,1400,BKN,2100,OVC,3100,,,MVFR,,,,,,0.02,,,,,,METAR,361.0
KHSE 281002Z AUTO 17018G27KT 5SM -RA BR SCT018 BKN030 OVC070 20/20 A2985 RMK AO2 PK WND 17027/1002 LTG DSNT E P0000 T02000200 $,KHSE,2023-04-28T10:02:00Z,35.23,-75.62,20.0,20.0,170,18,27,5.0,29.84941,,,TRUE,TRUE,TRUE,,,,,-RA BR,SCT,1800,BKN,3000,OVC,7000,,,MVFR,,,,,,0.005,,,,,,METAR,4.0
KCFV 281002Z AUTO 00000KT 1/4SM FG VV002 08/08 A2981 RMK AO2 T00830083 $,KCFV,2023-04-28T10:02:00Z,37.08,-95.57,8.3,8.3,0,0,,0.25,29.811024,,,TRUE,TRUE,TRUE,,,,,FG,OVX,0,,,,,,,LIFR,,,,,,,,,,,200,METAR,228.0
KAFF 281002Z AUTO 35017G27KT 10SM -RA FEW002 BKN018 OVC024 00/M01 A3013 RMK AO2 SNE0956RAB0956 BKN V OVC SLP169,KAFF,2023-04-28T10:02:00Z,38.97,-104.82,0.0,-1.0,350,17,27,10.0,30.129921,1016.9,,TRUE,TRUE,,,,,,-RA,FEW,200,BKN,1800,OVC,2400,,,MVFR,,,,,,,,,,,,SPECI,2003.0
KACK 281002Z 00000KT 10SM CLR 03/03 A3023 RMK AO2 T00280028,KACK,2023-04-28T10:02:00Z,41.25,-70.07,2.8,2.8,0,0,,10.0,30.230314,,,,TRUE,,,,,,,CLR,,,,,,,,VFR,,,,,,,,,,,,METAR,12.0
PAFS 281001Z AUTO 04003KT 10SM SCT055 BKN075 OVC090 01/M02 A2976 RMK AO2 SLP086 T00111017 FZRANO,PAFS,2023-04-28T10:01:00Z,63.02,-154.35,1.1,-1.7,40,3,,10.0,29.760826,1008.6,,TRUE,TRUE,,,,TRUE,,,SCT,5500,BKN,7500,OVC,9000,,,VFR,,,,,,,,,,,,METAR,131.0
KNQX 281001Z 17003KT 10SM CLR 25/24 A2989 RMK AO2 T02500244 $,KNQX,2023-04-28T10:01:00Z,24.57,-81.67,25.0,24.4,170,3,,10.0,29.890747,,,,TRUE,TRUE,,,,,,CLR,,,,,,,,VFR,,,,,,,,,,,,SPECI,2.0
KDYL 281001Z AUTO VRB04KT 10SM OVC005 09/07 A3012 RMK AO2 T00940072,KDYL,2023-04-28T10:01:00Z,40.33,-75.12,9.4,7.2,0,4,,10.0,30.121063,,,TRUE,TRUE,,,,,,,OVC,500,,,,,,,IFR,,,,,,,,,,,,METAR,121.0
KAJO 281001Z AUTO 25003KT 1/2SM FG BKN002 11/11 A2993 RMK AO2,KAJO,2023-04-28T10:01:00Z,33.9,-117.6,11.0,11.0,250,3,,0.5,29.929134,,,TRUE,TRUE,,,,,,FG,BKN,200,,,,,,,LIFR,,,,,,,,,,,,METAR,161.0
CYXU 281001Z 07012KT 15SM SCT070 OVC170 06/M00 A2992 RMK AC3CI5 SLP138,CYXU,2023-04-28T10:01:00Z,43.03,-81.15,6.0,0.0,70,12,,15.0,29.920275,1013.8,,,,,,,,,,SCT,7000,OVC,17000,,,,,VFR,,,,,,,,,,,,SPECI,278.0
CYSM 281001Z 16003KT 090V260 15SM BKN087 03/02 A2979 RMK AC6 SLP099,CYSM,2023-04-28T10:01:00Z,60.03,-111.92,3.0,2.0,160,3,,15.0,29.790354,1009.9,,,,,,,,,,BKN,8700,,,,,,,VFR,,,,,,,,,,,,SPECI,203.0
ZYHB 281000Z 19005G10MPS 160V220 9999 SCT046 11/08 Q1009 NOSIG,ZYHB,2023-04-28T10:00:00Z,45.62,126.25,11.0,8.0,190,10,19,6.21,29.793306,,,,,,TRUE,,,,,SCT,4600,,,,,,,VFR,,,,,,,,,,,,METAR,134.0
ZYCC 281000Z 25002MPS 9999 FEW030 10/05 Q1010 NOSIG,ZYCC,2023-04-28T10:00:00Z,43.98,125.68,10.0,5.0,250,4,,6.21,29.822834,,,,,,TRUE,,,,,FEW,3000,,,,,,,VFR,,,,,,,,,,,,METAR,211.0
ZWSH 281000Z 11002MPS 070V150 8000 BKN040 19/M04 Q1022 NOSIG,ZWSH,2023-04-28T10:00:00Z,39.55,76.02,19.0,-4.0,110,4,,4.97,30.177166,,,,,,TRUE,,,,,BKN,4000,,,,,,,MVFR,,,,,,,,,,,,METAR,1374.0
ZUUU 281000Z 01002MPS 320V050 9999 -SHRA SCT050 15/11 Q1018 NOSIG,ZUUU,2023-04-28T10:00:00Z,30.58,103.95,15.0,11.0,10,4,,6.21,30.059055,,,,,,TRUE,,,,-SHRA,SCT,5000,,,,,,,VFR,,,,,,,,,,,,METAR,494.0
ZUTF 281000Z 32003MPS 300V020 9999 -SHRA FEW050 15/11 Q1017 NOSIG,ZUTF,2023-04-28T10:00:00Z,30.3,104.43,15.0,11.0,320,6,,6.21,30.029528,,,,,,TRUE,,,,-SHRA,FEW,5000,,,,,,,VFR,,,,,,,,,,,,METAR,443.0
ZUGY 281000Z 02005MPS 8000 -TSRA FEW010 BKN016 FEW023CB OVC030 18/15 Q1014 NOSIG,ZUGY,2023-04-28T10:00:00Z,26.53,106.8,18.0,15.0,20,10,,4.97,29.940945,,,,,,TRUE,,,,-TSRA,FEW,1000,BKN,1600,FEW,2300,OVC,3000,MVFR,,,,,,,,,,,,METAR,1130.0
ZUCK 281000Z 03007MPS 7000 -RA FEW015 SCT020 OVC040 18/16 Q1014 NOSIG,ZUCK,2023-04-28T10:00:00Z,29.72,106.63,18.0,16.0,30,14,,4.35,29.940945,,,,,,TRUE,,,,-RA,FEW,1500,SCT,2000,OVC,4000,,,MVFR,,,,,,,,,,,,METAR,416.0
ZSQD 281000Z VRB01MPS 5000 BR BKN050 18/13 Q1009 NOSIG,ZSQD,2023-04-28T10:00:00Z,36.27,120.38,18.0,13.0,0,2,,3.11,29.793306,,,,,,TRUE,,,,BR,BKN,5000,,,,,,,MVFR,,,,,,,,,,,,METAR,8.0
ZSOF 281000Z 29002MPS CAVOK 22/15 Q1011 NOSIG,ZSOF,2023-04-28T10:00:00Z,31.98,116.97,22.0,15.0,290,4,,6.21,29.852362,,,,,,TRUE,,,,,CAVOK,,,,,,,,VFR,,,,,,,,,,,,METAR,23.0
ZSNJ 281000Z 26002MPS CAVOK 23/17 Q1010 NOSIG,ZSNJ,2023-04-28T10:00:00Z,31.75,118.87,23.0,17.0,260,4,,6.21,29.822834,,,,,,TRUE,,,,,CAVOK,,,,,,,,VFR,,,,,,,,,,,,METAR,27.0
ZSNB 281000Z 14002MPS 110V170 CAVOK 24/17 Q1011 NOSIG,ZSNB,2023-04-28T10:00:00Z,29.83,121.47,24.0,17.0,140,4,,6.21,29.852362,,,,,,TRUE,,,,,CAVOK,,,,,,,,VFR,,,,,,,,,,,,METAR,5.0
ZSFZ 281000Z 08002MPS CAVOK 20/18 Q1013 NOSIG,ZSFZ,2023-04-28T10:00:00Z,25.93,119.67,20.0,18.0,80,4,,6.21,29.911417,,,,,,TRUE,,,,,CAVOK,,,,,,,,VFR,,,,,,,,,,,,METAR,14.0
ZSAM 281000Z 13004MPS 090V150 8000 NSC 24/18 Q1012 NOSIG,ZSAM,2023-04-28T10:00:00Z,24.53,118.13,24.0,18.0,130,8,,4.97,29.88189,,,,,,TRUE,,,,,CLR,,,,,,,,MVFR,,,,,,,,,,,,METAR,13.0
ZPPP 281000Z 26002MPS 200V340 9999 FEW026TCU SCT026 18/11 Q1018 RETS NOSIG,ZPPP,2023-04-28T10:00:00Z,25.0,102.65,18.0,11.0,260,4,,6.21,30.059055,,,,,,TRUE,,,,,FEW,2600,SCT,2600,,,,,VFR,,,,,,,,,,,,METAR,1885.0
ZMUB 281000Z 31006MPS 220V020 9999 SCT100 08/M13 Q1013 NOSIG RMK QFE652.5 21 MOP,ZMUB,2023-04-28T10:00:00Z,47.83,106.75,8.0,-13.0,310,12,,6.21,29.911417,,,,,,TRUE,,,,,SCT,10000,,,,,,,VFR,,,,,,,,,,,,METAR,1300.0
ZLXY 281000Z 32003MPS 8000 NSC 19/M07 Q1021 NOSIG,ZLXY,2023-04-28T10:00:00Z,34.43,108.75,19.0,-7.0,320,6,,4.97,30.147638,,,,,,TRUE,,,,,CLR,,,,,,,,MVFR,,,,,,,,,,,,METAR,478.0
ZLLL 281000Z 03010MPS 350V050 CAVOK 11/M14 Q1024 BECMG TL1140 03004MPS,ZLLL,2023-04-28T10:00:00Z,36.52,103.62,11.0,-14.0,30,19,,6.21,30.236221,,,,,,,,,,,CAVOK,,,,,,,,VFR,,,,,,,,,,,,METAR,1939.0
ZJSY 281000Z 15004MPS 120V180 9999 SCT023 29/25 Q1009 BECMG AT1150 08005MPS,ZJSY,2023-04-28T10:00:00Z,18.3,109.42,29.0,25.0,150,8,,6.21,29.793306,,,,,,,,,,,SCT,2300,,,,,,,VFR,,,,,,,,,,,,SPECI,27.0
ZJHK 281000Z 13005MPS 100V160 9999 SCT026 29/23 Q1009 NOSIG,ZJHK,2023-04-28T10:00:00Z,19.93,110.43,29.0,23.0,130,10,,6.21,29.793306,,,,,,TRUE,,,,,SCT,2600,,,,,,,VFR,,,,,,,,,,,,METAR,21.0
ZHHH 281000Z 36003MPS 300V040 7000 -RA FEW015 20/16 Q1013 NOSIG,ZHHH,2023-04-28T10:00:00Z,30.78,114.22,20.0,16.0,360,6,,4.35,29.911417,,,,,,TRUE,,,,-RA,FEW,1500,,,,,,,MVFR,,,,,,,,,,,,METAR,33.0
ZHCC 281000Z 25003MPS CAVOK 21/08 Q1013 NOSIG,ZHCC,2023-04-28T10:00:00Z,34.52,113.83,21.0,8.0,250,6,,6.21,29.911417,,,,,,TRUE,,,,,CAVOK,,,,,,,,VFR,,,,,,,,,,,,METAR,149.0
ZGSZ 281000Z 21005MPS CAVOK 26/23 Q1011 NOSIG,ZGSZ,2023-04-28T10:00:00Z,22.63,113.8,26.0,23.0,210,10,,6.21,29.852362,,,,,,TRUE,,,,,CAVOK,,,,,,,,VFR,,,,,,,,,,,,METAR,18.0
ZGOW 281000Z 18005MPS CAVOK 27/21 Q1011 BECMG AT1130 25003MPS,ZGOW,2023-04-28T10:00:00Z,23.55,116.5,27.0,21.0,180,10,,6.21,29.852362,,,,,,,,,,,CAVOK,,,,,,,,VFR,,,,,,,,,,,,METAR,4.0
ZGNN 281000Z 15005MPS 9999 FEW015 BKN040 27/23 Q1008 NOSIG,ZGNN,2023-04-28T10:00:00Z,22.62,108.17,27.0,23.0,150,10,,6.21,29.763779,,,,,,TRUE,,,,,FEW,1500,BKN,4000,,,,,VFR,,,,,,,,,,,,METAR,128.0
ZGKL 281000Z 35002MPS 2200 -RA BR FEW004 SCT023 OVC033 21/21 Q1009 BECMG FM1130 1400,ZGKL,2023-04-28T10:00:00Z,25.22,110.03,21.0,21.0,350,4,,1.37,29.793306,,,,,,,,,,-RA BR,FEW,400,SCT,2300,OVC,3300,,,IFR,,,,,,,,,,,,METAR,151.0
ZGHA 281000Z 34003MPS 3500 -SHRA BR SCT007 OVC050 20/19 Q1012 NOSIG,ZGHA,2023-04-28T10:00:00Z,28.18,113.22,20.0,19.0,340,6,,2.17,29.88189,,,,,,TRUE,,,,-SHRA BR,SCT,700,OVC,5000,,,,,IFR,,,,,,,,,,,,METAR,61.0
ZBSJ 281000Z 30014G21MPS 7000 NSC 18/00 Q1012 NOSIG,ZBSJ,2023-04-28T10:00:00Z,38.28,114.7,18.0,0.0,300,27,41,4.35,29.88189,,,,,,TRUE,,,,,CLR,,,,,,,,MVFR,,,,,,,,,,,,METAR,70.0
ZBHH 281000Z VRB03MPS 9999 SCT040 06/M06 Q1019 NOSIG,ZBHH,2023-04-28T10:00:00Z,40.85,111.82,6.0,-6.0,0,6,,6.21,30.088583,,,,,,TRUE,,,,,SCT,4000,,,,,,,VFR,,,,,,,,,,,,METAR,1081.0
WSSL 281000Z VRB02KT 9999 FEW020 SCT200 28/25 Q1006,WSSL,2023-04-28T10:00:00Z,1.42,103.87,28.0,25.0,0,2,,6.21,29.704725,,,,,,,,,,,FEW,2000,SCT,20000,,,,,VFR,,,,,,,,,,,,METAR,11.0
WSAP 281000Z 36004KT 9999 FEW016 SCT270 29/23 Q1006,WSAP,2023-04-28T10:00:00Z,1.37,103.92,29.0,23.0,360,4,,6.21,29.704725,,,,,,,,,,,FEW,1600,SCT,27000,,,,,VFR,,,,,,,,,,,,METAR,20.0
WMSA 281000Z 00000KT 9999 FEW026 26/24 Q1008,WMSA,2023-04-28T10:00:00Z,3.13,101.55,26.0,24.0,0,0,,6.21,29.763779,,,,,,,,,,,FEW,2600,,,,,,,VFR,,,,,,,,,,,,METAR,19.0
WMKP 281000Z 26006KT 210V340 9999 TS FEW017CB 31/26 Q1005 NOSIG,WMKP,2023-04-28T10:00:00Z,5.28,100.27,31.0,26.0,260,6,,6.21,29.675198,,,,,,TRUE,,,,TS,FEW,1700,,,,,,,VFR,,,,,,,,,,,,METAR,4.0
WMKN 281000Z VRB04KT 9999 FEW018 31/26 Q1006,WMKN,2023-04-28T10:00:00Z,5.37,103.1,31.0,26.0,0,4,,6.21,29.704725,,,,,,,,,,,FEW,1800,,,,,,,VFR,,,,,,,,,,,,METAR,12.0
WMKM 281000Z VRB01KT 7000 -TSRA FEW010 FEW016CB SCT025 25/24 Q1008 RETSRA,WMKM,2023-04-28T10:00:00Z,2.27,102.25,25.0,24.0,0,1,,4.35,29.763779,,,,,,,,,,-TSRA,FEW,1000,FEW,1600,SCT,2500,,,MVFR,,,,,,,,,,,,METAR,9.0
WMKL 281000Z VRB03KT 9999 FEW017CB 31/26 Q1005,WMKL,2023-04-28T10:00:00Z,6.32,99.72,31.0,26.0,0,3,,6.21,29.675198,,,,,,,,,,,FEW,1700,,,,,,,VFR,,,,,,,,,,,,METAR,4.0
WMKK 281000Z 02004KT 340V060 8000 VCSH FEW010 SCT030 26/24 Q1007 NOSIG,WMKK,2023-04-28T10:00:00Z,2.75,101.72,26.0,24.0,20,4,,4.97,29.734253,,,,,,TRUE,,,,VCSH,FEW,1000,SCT,3000,,,,,MVFR,,,,,,,,,,,,METAR,21.0
WMKJ 281000Z 00000KT 9999 FEW018 27/25 Q1006,WMKJ,2023-04-28T10:00:00Z,1.63,103.67,27.0,25.0,0,0,,6.21,29.704725,,,,,,,,,,,FEW,1800,,,,,,,VFR,,,,,,,,,,,,METAR,38.0
WMKI 281000Z 19005KT 130V240 9000 FEW017CB SCT026 28/26 Q1007,WMKI,2023-04-28T10:00:00Z,4.57,101.08,28.0,26.0,190,5,,5.59,29.734253,,,,,,,,,,,FEW,1700,SCT,2600,,,,,VFR,,,,,,,,,,,,METAR,37.0
WMKE 281000Z 06004KT 340V150 9999 FEW017 31/26 Q1006,WMKE,2023-04-28T10:00:00Z,4.53,103.43,31.0,26.0,60,4,,6.21,29.704725,,,,,,,,,,,FEW,1700,,,,,,,VFR,,,,,,,,,,,,METAR,5.0
WMKD 281000Z 08004KT 010V140 9999 FEW017CB 32/26 Q1006 NOSIG,WMKD,2023-04-28T10:00:00Z,3.77,103.22,32.0,26.0,80,4,,6.21,29.704725,,,,,,TRUE,,,,,FEW,1700,,,,,,,VFR,,,,,,,,,,,,METAR,18.0
WMKC 281000Z 06009KT 020V120 9999 FEW017CB 31/26 Q1006,WMKC,2023-04-28T10:00:00Z,6.17,102.28,31.0,26.0,60,9,,6.21,29.704725,,,,,,,,,,,FEW,1700,,,,,,,VFR,,,,,,,,,,,,METAR,7.0
WMKB 281000Z 29007KT 250V340 8000 TS VCSH FEW017CB 31/26 Q1005 TEMPO 7000 -TSRA,WMKB,2023-04-28T10:00:00Z,5.47,100.38,31.0,26.0,290,7,,4.97,29.675198,,,,,,,,,,TS VCSH,FEW,1700,,,,,,,MVFR,,,,,,,,,,,,METAR,4.0
WMKA 281000Z 26007KT 220V300 9000 TS FEW017CB 31/25 Q1005,WMKA,2023-04-28T10:00:00Z,6.2,100.4,31.0,25.0,260,7,,5.59,29.675198,,,,,,,,,,TS,FEW,1700,,,,,,,VFR,,,,,,,,,,,,METAR,5.0
WMBA 281000Z VRB04KT 6000 -TSRA FEW017CB SCT031 30/26 Q1006,WMBA,2023-04-28T10:00:00Z,4.22,100.7,30.0,26.0,0,4,,3.73,29.704725,,,,,,,,,,-TSRA,FEW,1700,SCT,3100,,,,,MVFR,,,,,,,,,,,,METAR,9.0
WMAU 281000Z VRB02KT 9999 FEW020 30/26 Q1006,WMAU,2023-04-28T10:00:00Z,2.38,103.88,30.0,26.0,0,2,,6.21,29.704725,,,,,,,,,,,FEW,2000,,,,,,,VFR,,,,,,,,,,,,METAR,5.0
WIPP 281000Z VRB02KT 9999 FEW010CB FEW000 32/25 Q1005 CB TO NWNOSIG,WIPP,2023-04-28T10:00:00Z,-2.88,104.7,32.0,25.0,0,2,,6.21,29.675198,,,,,,TRUE,,,,,FEW,1000,FEW,,,,,,VFR,,,,,,,,,,,,METAR,7.0
WIOO 281000Z 28006KT 9999 SCT012 29/25 Q1006 NOSIG,WIOO,2023-04-28T10:00:00Z,-0.15,109.4,29.0,25.0,280,6,,6.21,29.704725,,,,,,TRUE,,,,,SCT,1200,,,,,,,VFR,,,,,,,,,,,,METAR,4.0
WIMM 281000Z 03005KT 9999 SCT018 30/23 Q1006 NOSIG,WIMM,2023-04-28T10:00:00Z,3.57,98.67,30.0,23.0,30,5,,6.21,29.704725,,,,,,TRUE,,,,,SCT,1800,,,,,,,VFR,,,,,,,,,,,,METAR,27.0
WILL 281000Z 13008KT 9999 BKN015 32/23 Q1006,WILL,2023-04-28T10:00:00Z,-5.25,105.18,32.0,23.0,130,8,,6.21,29.704725,,,,,,,,,,,BKN,1500,,,,,,,MVFR,,,,,,,,,,,,METAR,83.0
WIHH 281000Z 27003KT 6000 SCT018 30/25 Q1005 NOSIG METAR WIMM NIL,WIHH,2023-04-28T10:00:00Z,-6.27,106.88,30.0,25.0,270,3,,3.73,29.675198,,,,,,TRUE,,,,,SCT,1800,,,,,,,MVFR,,,,,,,,,,,,METAR,26.0
WIEE 281000Z 36005KT 230V040 0400 R33/1800 +RA BKN012 26/25 Q1007 TEMPO 0800 RA,WIEE,2023-04-28T10:00:00Z,-0.78,100.28,26.0,25.0,360,5,,0.25,29.734253,,,,,,,,,,+RA,BKN,1200,,,,,,,LIFR,,,,,,,,,,,,METAR,5.0
WIDN 281000Z 03006KT 9999 FEW017 28/27 Q1006 NOSIG,WIDN,2023-04-28T10:00:00Z,0.92,104.53,28.0,27.0,30,6,,6.21,29.704725,,,,,,TRUE,,,,,FEW,1700,,,,,,,VFR,,,,,,,,,,,,METAR,18.0
WIDD 281000Z 34003KT 9999 FEW014 29/24 Q1007 NOSIG,WIDD,2023-04-28T10:00:00Z,1.12,104.12,29.0,24.0,340,3,,6.21,29.734253,,,,,,TRUE,,,,,FEW,1400,,,,,,,VFR,,,,,,,,,,,,METAR,26.0
WIBB 281000Z 02007KT 9000 FEW016 FEW017CB 32/26 Q1004 NOSIG RMK CB TO NE AND NW,WIBB,2023-04-28T10:00:00Z,0.47,101.45,32.0,26.0,20,7,,5.59,29.64567,,,,,,TRUE,,,,,FEW,1600,FEW,1700,,,,,VFR,,,,,,,,,,,,METAR,41.0
WBSB 281000Z 33006KT 9999 TS FEW015 FEW016CB BKN280 31/27 Q1006 NOSIG,WBSB,2023-04-28T10:00:00Z,4.93,114.92,31.0,27.0,330,6,,6.21,29.704725,,,,,,TRUE,,,,TS,FEW,1500,FEW,1600,BKN,28000,,,VFR,,,,,,,,,,,,METAR,15.0
WBKW 281000Z VRB02KT 9999 FEW017 30/26 Q1006,WBKW,2023-04-28T10:00:00Z,4.32,118.12,30.0,26.0,0,2,,6.21,29.704725,,,,,,,,,,,FEW,1700,,,,,,,VFR,,,,,,,,,,,,METAR,17.0
WBKT 281000Z 07007KT 010V120 9999 FEW015 30/26 Q1006,WBKT,2023-04-28T10:00:00Z,6.92,116.83,30.0,26.0,70,7,,6.21,29.704725,,,,,,,,,,,FEW,1500,,,,,,,VFR,,,,,,,,,,,,METAR,11.0
WBKS 281000Z 05007KT 9999 FEW016 30/26 Q1006,WBKS,2023-04-28T10:00:00Z,5.9,118.07,30.0,26.0,50,7,,6.21,29.704725,,,,,,,,,,,FEW,1600,,,,,,,VFR,,,,,,,,,,,,METAR,13.0
WBKL 281000Z 36005KT 280V050 9999 FEW016 30/25 Q1005,WBKL,2023-04-28T10:00:00Z,5.3,115.25,30.0,25.0,360,5,,6.21,29.675198,,,,,,,,,,,FEW,1600,,,,,,,VFR,,,,,,,,,,,,METAR,29.0
WBGY 281000Z 00000KT 9999 FEW015CB SCT020 25/25 Q1007,WBGY,2023-04-28T10:00:00Z,1.22,111.45,25.0,25.0,0,0,,6.21,29.734253,,,,,,,,,,,FEW,1500,SCT,2000,,,,,VFR,,,,,,,,,,,,METAR,13.0
WBGS 281000Z VRB02KT 9999 SCT018 26/25 Q1007,WBGS,2023-04-28T10:00:00Z,2.27,111.98,26.0,25.0,0,2,,6.21,29.734253,,,,,,,,,,,SCT,1800,,,,,,,VFR,,,,,,,,,,,,METAR,26.0
WBGR 281000Z 32006KT 260V010 9999 FEW015CB SCT016 30/26 Q1006,WBGR,2023-04-28T10:00:00Z,4.32,113.98,30.0,26.0,320,6,,6.21,29.704725,,,,,,,,,,,FEW,1500,SCT,1600,,,,,VFR,,,,,,,,,,,,METAR,18.0
WBGG 281000Z 03004KT 340V100 9999 FEW015CB 30/24 Q1007 NOSIG,WBGG,2023-04-28T10:00:00Z,1.48,110.35,30.0,24.0,30,4,,6.21,29.734253,,,,,,TRUE,,,,,FEW,1500,,,,,,,VFR,,,,,,,,,,,,METAR,26.0
WBGB 281000Z 00000KT 9999 FEW016 25/24 Q1007 RETS,WBGB,2023-04-28T10:00:00Z,3.12,113.02,25.0,24.0,0,0,,6.21,29.734253,,,,,,,,,,,FEW,1600,,,,,,,VFR,,,,,,,,,,,,METAR,34.0
WATT 281000Z 01002KT 9999 FEW018 26/25 Q1009 NOSIG,WATT,2023-04-28T10:00:00Z,-10.17,123.67,26.0,25.0,10,2,,6.21,29.793306,,,,,,TRUE,,,,,FEW,1800,,,,,,,VFR,,,,,,,,,,,,METAR,104.0
WARR 281000Z 02005KT 9999 FEW020 29/25 Q1006 NOSIG,WARR,2023-04-28T10:00:00Z,-7.37,112.78,29.0,25.0,20,5,,6.21,29.704725,,,,,,TRUE,,,,,FEW,2000,,,,,,,VFR,,,,,,,,,,,,METAR,3.0
WAPP 281000Z 02004KT 9999 SCT017 26/25 Q1007 NOSIG,WAPP,2023-04-28T10:00:00Z,-3.7,128.08,26.0,25.0,20,4,,6.21,29.734253,,,,,,TRUE,,,,,SCT,1700,,,,,,,VFR,,,,,,,,,,,,METAR,20.0
WAOO 281000Z 20004KT 9999 FEW020 26/25 Q1005,WAOO,2023-04-28T10:00:00Z,-3.45,114.77,26.0,25.0,200,4,,6.21,29.675198,,,,,,,,,,,FEW,2000,,,,,,,VFR,,,,,,,,,,,,METAR,23.0
WALL 281000Z 07009KT 050V120 9999 FEW020 30/25 Q1005 NOSIG,WALL,2023-04-28T10:00:00Z,-1.27,116.9,30.0,25.0,70,9,,6.21,29.675198,,,,,,TRUE,,,,,FEW,2000,,,,,,,VFR,,,,,,,,,,,,METAR,3.0
WAHS 281000Z 31005KT 8000 FEW013CB SCT014 31/25 Q1006 NOSIG RMK CB TO S,WAHS,2023-04-28T10:00:00Z,-6.98,110.38,31.0,25.0,310,5,,4.97,29.704725,,,,,,TRUE,,,,,FEW,1300,SCT,1400,,,,,MVFR,,,,,,,,,,,,METAR,3.0
WADD 281000Z 13010KT 9999 SCT015 29/26 Q1007 NOSIG,WADD,2023-04-28T10:00:00Z,-8.73,115.17,29.0,26.0,130,10,,6.21,29.734253,,,,,,TRUE,,,,,SCT,1500,,,,,,,VFR,,,,,,,,,,,,METAR,3.0
WABB 281000Z VRB02KT 9999 FEW018 26/25 Q1007 NOSIG,WABB,2023-04-28T10:00:00Z,-1.18,136.12,26.0,25.0,0,2,,6.21,29.734253,,,,,,TRUE,,,,,FEW,1800,,,,,,,VFR,,,,,,,,,,,,METAR,12.0
WAAA 281000Z 12003KT 9000 SCT019 27/27 Q1007 NOSIG,WAAA,2023-04-28T10:00:00Z,-5.07,119.55,27.0,27.0,120,3,,5.59,29.734253,,,,,,TRUE,,,,,SCT,1900,,,,,,,VFR,,,,,,,,,,,,METAR,13.0
VYNT 281000Z 15005KT 7000 FEW024 38/22 Q1005 NOSIG,VYNT,2023-04-28T10:00:00Z,19.62,96.2,38.0,22.0,150,5,,4.35,29.675198,,,,,,TRUE,,,,,FEW,2400,,,,,,,MVFR,,,,,,,,,,,,METAR,610.0
VVVD 281000Z 17003KT 110V200 9999 SCT025 BKN036 28/24 Q1008 NOSIG,VVVD,2023-04-28T10:00:00Z,21.12,107.42,28.0,24.0,170,3,,6.21,29.763779,,,,,,TRUE,,,,,SCT,2500,BKN,3600,,,,,VFR,,,,,,,,,,,,METAR,8.0
VVNB 281000Z 13011KT 9999 FEW021 SCT025 29/24 Q1007 NOSIG,VVNB,2023-04-28T10:00:00Z,21.22,105.8,29.0,24.0,130,11,,6.21,29.734253,,,,,,TRUE,,,,,FEW,2100,SCT,2500,,,,,VFR,,,,,,,,,,,,METAR,6.0
VTUW 281000Z 20007KT 8000 FEW030 36/21 Q1005 NOSIG,VTUW,2023-04-28T10:00:00Z,17.38,104.63,36.0,21.0,200,7,,4.97,29.675198,,,,,,TRUE,,,,,FEW,3000,,,,,,,MVFR,,,,,,,,,,,,METAR,167.0
VTUV 281000Z 09010KT 060V120 8000 VCSH FEW025TCU 34/22 Q1005 NOSIG,VTUV,2023-04-28T10:00:00Z,16.12,103.78,34.0,22.0,90,10,,4.97,29.675198,,,,,,TRUE,,,,VCSH,FEW,2500,,,,,,,MVFR,,,,,,,,,,,,METAR,136.0
VTUU 281000Z 21004KT 150V250 9000 FEW045 36/23 Q1005 NOSIG,VTUU,2023-04-28T10:00:00Z,15.25,104.87,36.0,23.0,210,4,,5.59,29.675198,,,,,,TRUE,,,,,FEW,4500,,,,,,,VFR,,,,,,,,,,,,METAR,119.0
VTUQ 281000Z 17007KT 140V210 9999 FEW035 SCT100 32/22 Q1007 NOSIG,VTUQ,2023-04-28T10:00:00Z,14.95,102.32,32.0,22.0,170,7,,6.21,29.734253,,,,,,TRUE,,,,,FEW,3500,SCT,10000,,,,,VFR,,,,,,,,,,,,METAR,225.0
VTUO 281000Z VRB02KT 8000 TS VCSH FEW020CB SCT040 BKN080 34/21 Q1006 TEMPO FM1020 TL1040 4000 TSRA,VTUO,2023-04-28T10:00:00Z,15.23,103.25,34.0,21.0,0,2,,4.97,29.704725,,,,,,,,,,TS VCSH,FEW,2000,SCT,4000,BKN,8000,,,MVFR,,,,,,,,,,,,METAR,182.0
VTUL 281000Z 29005KT 240V010 9999 FEW030 36/22 Q1005 NOSIG,VTUL,2023-04-28T10:00:00Z,17.43,101.72,36.0,22.0,290,5,,6.21,29.675198,,,,,,TRUE,,,,,FEW,3000,,,,,,,VFR,,,,,,,,,,,,METAR,257.0
VTUK 281000Z 08004KT 050V130 9999 FEW030 36/22 Q1006 NOSIG,VTUK,2023-04-28T10:00:00Z,16.47,102.78,36.0,22.0,80,4,,6.21,29.704725,,,,,,TRUE,,,,,FEW,3000,,,,,,,VFR,,,,,,,,,,,,METAR,190.0
VTUI 281000Z 18008KT 9999 FEW040 35/19 Q1005 NOSIG,VTUI,2023-04-28T10:00:00Z,17.2,104.12,35.0,19.0,180,8,,6.21,29.675198,,,,,,TRUE,,,,,FEW,4000,,,,,,,VFR,,,,,,,,,,,,METAR,162.0
VTUD 281000Z 23005KT 200V260 CAVOK 39/16 Q1004 NOSIG,VTUD,2023-04-28T10:00:00Z,17.37,102.78,39.0,16.0,230,5,,6.21,29.64567,,,,,,TRUE,,,,,CAVOK,,,,,,,,VFR,,,,,,,,,,,,METAR,177.0
VTSY 281000Z VRB02KT 9999 FEW030 29/25 Q1006 NOSIG,VTSY,2023-04-28T10:00:00Z,5.78,101.15,29.0,25.0,0,2,,6.21,29.704725,,,,,,TRUE,,,,,FEW,3000,,,,,,,VFR,,,,,,,,,,,,METAR,225.0
VTST 281000Z 21005KT 9999 VCSH SCT030 30/24 Q1005 NOSIG,VTST,2023-04-28T10:00:00Z,7.52,99.62,30.0,24.0,210,5,,6.21,29.675198,,,,,,TRUE,,,,VCSH,SCT,3000,,,,,,,VFR,,,,,,,,,,,,METAR,17.0
VTSR 281000Z 26003KT 220V360 9999 VCSH BKN025 30/24 Q1006 NOSIG,VTSR,2023-04-28T10:00:00Z,9.78,98.58,30.0,24.0,260,3,,6.21,29.704725,,,,,,TRUE,,,,VCSH,BKN,2500,,,,,,,MVFR,,,,,,,,,,,,METAR,23.0
VTSM 281000Z 10005KT 9999 FEW020 32/25 Q1007 NOSIG,VTSM,2023-04-28T10:00:00Z,9.55,100.07,32.0,25.0,100,5,,6.21,29.734253,,,,,,TRUE,,,,,FEW,2000,,,,,,,VFR,,,,,,,,,,,,METAR,12.0
VTSG 281000Z 20011KT 160V220 9999 FEW018CB 32/25 Q1006 NOSIG,VTSG,2023-04-28T10:00:00Z,8.1,98.98,32.0,25.0,200,11,,6.21,29.704725,,,,,,TRUE,,,,,FEW,1800,,,,,,,VFR,,,,,,,,,,,,METAR,32.0
VTSF 281000Z 06007KT 030V090 9999 FEW018 34/25 Q1006 NOSIG,VTSF,2023-04-28T10:00:00Z,8.53,99.95,34.0,25.0,60,7,,6.21,29.704725,,,,,,TRUE,,,,,FEW,1800,,,,,,,VFR,,,,,,,,,,,,METAR,6.0
VTSE 281000Z VRB02KT 9000 FEW020 31/25 Q1006 NOSIG,VTSE,2023-04-28T10:00:00Z,10.72,99.37,31.0,25.0,0,2,,5.59,29.704725,,,,,,TRUE,,,,,FEW,2000,,,,,,,VFR,,,,,,,,,,,,METAR,8.0
VTSC 281000Z 05007KT 010V080 9999 FEW022 31/26 Q1006 NOSIG,VTSC,2023-04-28T10:00:00Z,6.52,101.75,31.0,26.0,50,7,,6.21,29.704725,,,,,,TRUE,,,,,FEW,2200,,,,,,,VFR,,,,,,,,,,,,METAR,5.0
VTSB 281000Z 05009KT 020V080 9999 FEW018CB 33/25 Q1006 NOSIG,VTSB,2023-04-28T10:00:00Z,9.12,99.15,33.0,25.0,50,9,,6.21,29.704725,,,,,,TRUE,,,,,FEW,1800,,,,,,,VFR,,,,,,,,,,,,METAR,10.0
VTPT 281000Z /////KT 8000 TS VCSH FEW020CB SCT026 35/24 Q1004 TEMPO 3000 TSRA,VTPT,2023-04-28T10:00:00Z,16.88,99.25,35.0,24.0,,,,4.97,29.64567,,,,,,,,,,VCSH TS,FEW,2000,SCT,2600,,,,,MVFR,,,,,,,,,,,,METAR,148.0
VTPP 281000Z 21004KT 160V250 CAVOK 37/21 Q1004 NOSIG,VTPP,2023-04-28T10:00:00Z,16.78,100.28,37.0,21.0,210,4,,6.21,29.64567,,,,,,TRUE,,,,,CAVOK,,,,,,,,VFR,,,,,,,,,,,,METAR,45.0
VTPO 281000Z 15004KT 9000 FEW030 SCT100 37/22 Q1004 NOSIG,VTPO,2023-04-28T10:00:00Z,17.23,99.82,37.0,22.0,150,4,,5.59,29.64567,,,,,,TRUE,,,,,FEW,3000,SCT,10000,,,,,VFR,,,,,,,,,,,,METAR,58.0
VTPM 281000Z 24009KT 200V270 9999 FEW035 36/19 Q1006 NOSIG,VTPM,2023-04-28T10:00:00Z,16.7,98.53,36.0,19.0,240,9,,6.21,29.704725,,,,,,TRUE,,,,,FEW,3500,,,,,,,VFR,,,,,,,,,,,,METAR,211.0
VTPH 281000Z 15011KT 9999 FEW030 32/26 Q1006 NOSIG,VTPH,2023-04-28T10:00:00Z,12.63,99.95,32.0,26.0,150,11,,6.21,29.704725,,,,,,TRUE,,,,,FEW,3000,,,,,,,VFR,,,,,,,,,,,,METAR,12.0
VTPB 281000Z 00000KT 9999 SCT030 37/20 Q1005 NOSIG,VTPB,2023-04-28T10:00:00Z,16.67,101.2,37.0,20.0,0,0,,6.21,29.675198,,,,,,TRUE,,,,,SCT,3000,,,,,,,VFR,,,,,,,,,,,,METAR,134.0
VTCT 281000Z 14004KT 100V170 9999 FEW045 36/21 Q1005 NOSIG,VTCT,2023-04-28T10:00:00Z,19.95,99.88,36.0,21.0,140,4,,6.21,29.675198,,,,,,TRUE,,,,,FEW,4500,,,,,,,VFR,,,,,,,,,,,,METAR,389.0
VTCP 281000Z 20007KT 160V230 9999 FEW045 39/20 Q1004 NOSIG,VTCP,2023-04-28T10:00:00Z,18.13,100.17,39.0,20.0,200,7,,6.21,29.64567,,,,,,TRUE,,,,,FEW,4500,,,,,,,VFR,,,,,,,,,,,,METAR,166.0
VTCN 281000Z VRB04KT CAVOK 39/20 Q1003 NOSIG,VTCN,2023-04-28T10:00:00Z,18.82,100.78,39.0,20.0,0,4,,6.21,29.616142,,,,,,TRUE,,,,,CAVOK,,,,,,,,VFR,,,,,,,,,,,,METAR,211.0
VTCL 281000Z 28004KT 230V360 9999 FEW025 40/16 Q1004 NOSIG,VTCL,2023-04-28T10:00:00Z,18.27,99.52,40.0,16.0,280,4,,6.21,29.64567,,,,,,TRUE,,,,,FEW,2500,,,,,,,VFR,,,,,,,,,,,,METAR,240.0
VTCH 281000Z 19003KT 120V290 9999 BKN025 40/14 Q1004 NOSIG,VTCH,2023-04-28T10:00:00Z,19.3,97.98,40.0,14.0,190,3,,6.21,29.64567,,,,,,TRUE,,,,,BKN,2500,,,,,,,MVFR,,,,,,,,,,,,METAR,266.0
VTBO 281000Z 21006KT 7000 FEW018CB SCT020 32/26 Q1007,VTBO,2023-04-28T10:00:00Z,12.28,102.32,32.0,26.0,210,6,,4.35,29.734253,,,,,,,,,,,FEW,1800,SCT,2000,,,,,MVFR,,,,,,,,,,,,METAR,25.0
"VRMM 281000Z 20007KT 9999 SCT017 FEW018CB BKN250 32/26 Q1007 CB S,NW TEMPO 5000 TSRA",VRMM,2023-04-28T10:00:00Z,4.2,73.52,32.0,26.0,200,7,,6.21,29.734253,,,,,,,,,,,SCT,1700,FEW,1800,BKN,25000,,,VFR,,,,,,,,,,,,METAR,2.0
"VRMH 281000Z 31005KT 9999 TS FEW017 FEW018CB BKN110 30/26 Q1007 RETS CB N,ENE",VRMH,2023-04-28T10:00:00Z,6.75,73.17,30.0,26.0,310,5,,6.21,29.734253,,,,,,,,,,TS,FEW,1700,FEW,1800,BKN,11000,,,VFR,,,,,,,,,,,,METAR,1.0
VRMG 281000Z 27007KT 9000 FEW017 FEW018CB OVC100 28/26 Q1008 CB SE TEMPO 5000 SHRA,VRMG,2023-04-28T10:00:00Z,-0.7,73.15,28.0,26.0,270,7,,5.59,29.763779,,,,,,,,,,,FEW,1700,FEW,1800,OVC,10000,,,VFR,,,,,,,,,,,,METAR,2.0
VLVT 281000Z 18004KT 8000 FEW020 38/24 Q1003 NOSIG,VLVT,2023-04-28T10:00:00Z,17.98,102.57,38.0,24.0,180,4,,4.97,29.616142,,,,,,TRUE,,,,,FEW,2000,,,,,,,MVFR,,,,,,,,,,,,METAR,171.0
VLSK 281000Z 27004KT 9999 SCT020 OVC100 33/23 Q1008 NOSIG,VLSK,2023-04-28T10:00:00Z,16.55,104.75,33.0,23.0,270,4,,6.21,29.763779,,,,,,TRUE,,,,,SCT,2000,OVC,10000,,,,,VFR,,,,,,,,,,,,METAR,148.0
VLPS 281000Z 14002KT 8000 FEW030 38/21 Q1006 NOSIG,VLPS,2023-04-28T10:00:00Z,15.13,105.78,38.0,21.0,140,2,,4.97,29.704725,,,,,,TRUE,,,,,FEW,3000,,,,,,,MVFR,,,,,,,,,,,,METAR,102.0
VLLN 281000Z 27004KT 9000 SCT020 35/23 Q1006 NOSIG,VLLN,2023-04-28T10:00:00Z,20.97,101.4,35.0,23.0,270,4,,5.59,29.704725,,,,,,TRUE,,,,,SCT,2000,,,,,,,VFR,,,,,,,,,,,,METAR,548.0
VLLB 281000Z 27006KT 9999 SCT020 FEW060 38/19 Q1004 NOSIG,VLLB,2023-04-28T10:00:00Z,19.9,102.17,38.0,19.0,270,6,,6.21,29.64567,,,,,,TRUE,,,,,SCT,2000,FEW,6000,,,,,VFR,,,,,,,,,,,,METAR,297.0
VELR 281000Z 04008KT 4000 HZ SCT018 BKN090 26/18 Q1009,VELR,2023-04-28T10:00:00Z,27.3,94.1,26.0,18.0,40,8,,2.49,29.793306,,,,,,,,,,HZ,SCT,1800,BKN,9000,,,,,IFR,,,,,,,,,,,,METAR,101.0
VELP 281000Z 22003KT 4000 HZ FEW020 SCT100 33/18 Q1010 NOSIG,VELP,2023-04-28T10:00:00Z,23.83,92.62,33.0,18.0,220,3,,2.49,29.822834,,,,,,TRUE,,,,HZ,FEW,2000,SCT,10000,,,,,IFR,,,,,,,,,,,,METAR,429.0
VEKI 281000Z 27006KT 5000 HZ FEW025 SCT100 36/09 Q1005 NOSIG,VEKI,2023-04-28T10:00:00Z,26.78,83.88,36.0,9.0,270,6,,3.11,29.675198,,,,,,TRUE,,,,HZ,FEW,2500,SCT,10000,,,,,MVFR,,,,,,,,,,,,METAR,81.0
VEJS 281000Z 35003KT 5000 HZ SCT020 FEW030CB SCT100 35/19 Q1007,VEJS,2023-04-28T10:00:00Z,22.82,86.17,35.0,19.0,350,3,,3.11,29.734253,,,,,,,,,,HZ,SCT,2000,FEW,3000,SCT,10000,,,MVFR,,,,,,,,,,,,METAR,151.0
VECO 281000Z 18003KT 2500 HZ FEW025 32/23 Q1006 NOSIG,VECO,2023-04-28T10:00:00Z,26.33,89.47,32.0,23.0,180,3,,1.55,29.704725,,,,,,TRUE,,,,HZ,FEW,2500,,,,,,,IFR,,,,,,,,,,,,METAR,48.0
VEBU 281000Z 18008KT 6000 NSC 35/15 Q1008 NOSIG,VEBU,2023-04-28T10:00:00Z,21.98,82.12,35.0,15.0,180,8,,3.73,29.763779,,,,,,TRUE,,,,,CLR,,,,,,,,MVFR,,,,,,,,,,,,METAR,274.0
VARK 281000Z 22007KT 6000 SCT020 FEW025TCU 36/21 Q1006 NOSIG,VARK,2023-04-28T10:00:00Z,22.3,70.77,36.0,21.0,220,7,,3.73,29.704725,,,,,,TRUE,,,,,SCT,2000,FEW,2500,,,,,MVFR,,,,,,,,,,,,METAR,125.0
VAJL 281000Z 14015KT 5000 TSDZ SCT020 FEW030CB BKN080 24/20 Q1008 NOSIG,VAJL,2023-04-28T10:00:00Z,20.97,75.63,24.0,20.0,140,15,,3.11,29.763779,,,,,,TRUE,,,,TSDZ,SCT,2000,FEW,3000,BKN,8000,,,MVFR,,,,,,,,,,,,METAR,257.0
VAJJ 281000Z 27012KT 5000 FU NSC 31/22 Q1007 NOSIG,VAJJ,2023-04-28T10:00:00Z,19.08,72.83,31.0,22.0,270,12,,3.11,29.734253,,,,,,TRUE,,,,FU,CLR,,,,,,,,MVFR,,,,,,,,,,,,METAR,1.0
VADU 281000Z 24012KT 6000 FEW025 32/25 Q1007 NOSIG,VADU,2023-04-28T10:00:00Z,21.72,70.92,32.0,25.0,240,12,,3.73,29.734253,,,,,,TRUE,,,,,FEW,2500,,,,,,,MVFR,,,,,,,,,,,,METAR,10.0
VABP 281000Z 18010KT 5000 HZ SCT030 FEW030CB BKN100 23/19 Q1009 NOSIG,VABP,2023-04-28T10:00:00Z,23.28,77.33,23.0,19.0,180,10,,3.11,29.793306,,,,,,TRUE,,,,HZ,SCT,3000,FEW,3000,BKN,10000,,,MVFR,,,,,,,,,,,,METAR,520.0
UWOR 281000Z 31002MPS CAVOK 25/05 Q1011 R25/CLRD65 NOSIG RMK QFE735/0980,UWOR,2023-04-28T10:00:00Z,51.07,58.6,25.0,5.0,310,4,,6.21,29.852362,,,,,,TRUE,,,,,CAVOK,,,,,,,,VFR,,,,,,,,,,,,METAR,270.0
UWLW 281000Z 07002MPS 320V120 CAVOK 22/08 Q1016 R02/CLRD60 NOSIG RMK QFE755/1007,UWLW,2023-04-28T10:00:00Z,54.4,48.8,22.0,8.0,70,4,,6.21,30.0,,,,,,TRUE,,,,,CAVOK,,,,,,,,VFR,,,,,,,,,,,,METAR,67.0
UTAV 281000Z 34004KT CAVOK 32/M08 Q1010 R31/CLRD70 NOSIG,UTAV,2023-04-28T10:00:00Z,39.08,63.62,32.0,-8.0,340,4,,6.21,29.822834,,,,,,TRUE,,,,,CAVOK,,,,,,,,VFR,,,,,,,,,,,,METAR,187.0
UTAT 281000Z 06006KT 020V090 CAVOK 31/M04 Q1010 R08/CLRD70 NOSIG,UTAT,2023-04-28T10:00:00Z,41.77,59.83,31.0,-4.0,60,6,,6.21,29.822834,,,,,,TRUE,,,,,CAVOK,,,,,,,,VFR,,,,,,,,,,,,METAR,84.0
UTAM 281000Z 12010KT CAVOK 35/01 Q1008 R88/CLRD70 NOSIG,UTAM,2023-04-28T10:00:00Z,37.62,61.9,35.0,1.0,120,10,,6.21,29.763779,,,,,,TRUE,,,,,CAVOK,,,,,,,,VFR,,,,,,,,,,,,METAR,218.0
UTAK 281000Z 19012KT CAVOK 30/07 Q1010 R16R/CLRD70 NOSIG,UTAK,2023-04-28T10:00:00Z,40.05,53.0,30.0,7.0,190,12,,6.21,29.822834,,,,,,TRUE,,,,,CAVOK,,,,,,,,VFR,,,,,,,,,,,,METAR,83.0
UTAA 281000Z 10004KT 9999 FEW050CB SCT050 BKN100 32/09 Q1008 R88/70D NOSIG,UTAA,2023-04-28T10:00:00Z,37.98,58.37,32.0,9.0,100,4,,6.21,29.763779,,,,,,TRUE,,,,,FEW,5000,SCT,5000,BKN,10000,,,VFR,,,,,,,,,,,,METAR,207.0
UMOO 281000Z 32005G09MPS 9999 BKN032 12/M01 Q1019 NOSIG,UMOO,2023-04-28T10:00:00Z,53.95,30.1,12.0,-1.0,320,10,17,6.21,30.088583,,,,,,TRUE,,,,,BKN,3200,,,,,,,VFR,,,,,,,,,,,,METAR,188.0
UMII 281000Z 29006G10MPS 9999 BKN046 10/M04 Q1016 NOSIG,UMII,2023-04-28T10:00:00Z,55.13,30.35,10.0,-4.0,290,12,19,6.21,30.0,,,,,,TRUE,,,,,BKN,4600,,,,,,,VFR,,,,,,,,,,,,METAR,208.0
UMBB 281000Z 29003MPS 9000 SCT050 SCT100 10/M02 Q1021 NOSIG,UMBB,2023-04-28T10:00:00Z,52.12,23.9,10.0,-2.0,290,6,,5.59,30.147638,,,,,,TRUE,,,,,SCT,5000,SCT,10000,,,,,VFR,,,,,,,,,,,,METAR,138.0
UHPP 281000Z 28004MPS 250V320 9999 SCT048CB BKN130 02/M06 Q1010 R34L/CLRD65 NOSIG RMK QFE754/1006,UHPP,2023-04-28T10:00:00Z,53.17,158.45,2.0,-6.0,280,8,,6.21,29.822834,,,,,,TRUE,,,,,SCT,4800,BKN,13000,,,,,VFR,,,,,,,,,,,,METAR,33.0
UHMM 281000Z 06003MPS 9999 NSC 05/M05 Q1018 RMK QFE749 R28/09003MPS,UHMM,2023-04-28T10:00:00Z,59.92,150.72,5.0,-5.0,60,6,,6.21,30.059055,,,,,,,,,,,CLR,,,,,,,,VFR,,,,,,,,,,,,METAR,175.0
UHBB 281000Z 07004MPS 9999 SCT033 09/M07 Q1013 R36/090060 NOSIG RMK QFE742/0990,UHBB,2023-04-28T10:00:00Z,50.43,127.42,9.0,-7.0,70,8,,6.21,29.911417,,,,,,TRUE,,,,,SCT,3300,,,,,,,VFR,,,,,,,,,,,,METAR,185.0
UERP 281000Z 15003G08MPS 9999 -SHSN BKN027CB OVC100 01/M03 Q1011 R17/090060 NOSIG RMK QFE714,UERP,2023-04-28T10:00:00Z,66.4,112.03,1.0,-3.0,150,6,16,6.21,29.852362,,,,,,TRUE,,,,-SHSN,BKN,2700,OVC,10000,,,,,MVFR,,,,,,,,,,,,METAR,514.0
UCFL 281000Z 15003MPS 110V210 9999 SCT030 16/01 Q1019,UCFL,2023-04-28T10:00:00Z,42.58,76.7,16.0,1.0,150,6,,6.21,30.088583,,,,,,,,,,,SCT,3000,,,,,,,VFR,,,,,,,,,,,,METAR,1654.0
UBBY 281000Z 33004KT 9999 FEW100 26/12 Q1012 NOSIG RMK MT OP,UBBY,2023-04-28T10:00:00Z,41.57,46.67,26.0,12.0,330,4,,6.21,29.88189,,,,,,TRUE,,,,,FEW,10000,,,,,,,VFR,,,,,,,,,,,,METAR,383.0
UBBQ 281000Z 26006KT 9999 NSC 28/12 Q1009 NOSIG RMK MT OP,UBBQ,2023-04-28T10:00:00Z,40.82,47.72,28.0,12.0,260,6,,6.21,29.793306,,,,,,TRUE,,,,,CLR,,,,,,,,VFR,,,,,,,,,,,,METAR,339.0
UBBL 281000Z 12009KT 9999 FEW050 22/16 Q1010 NOSIG RMK MT OP,UBBL,2023-04-28T10:00:00Z,38.75,48.82,22.0,16.0,120,9,,6.21,29.822834,,,,,,TRUE,,,,,FEW,5000,,,,,,,VFR,,,,,,,,,,,,METAR,-11.0
TVSA 281000Z 00000KT 9999 SCT018 26/24 Q1013 NOSIG ,TVSA,2023-04-28T10:00:00Z,13.15,-61.15,26.0,24.0,0,0,,6.21,29.911417,,,,,,TRUE,,,,,SCT,1800,,,,,,,VFR,,,,,,,,,,,,METAR,3.0
TTPP 281000Z 14003KT 9999 FEW016 24/24 Q1013 NOSIG,TTPP,2023-04-28T10:00:00Z,10.58,-61.35,24.0,24.0,140,3,,6.21,29.911417,,,,,,TRUE,,,,,FEW,1600,,,,,,,VFR,,,,,,,,,,,,METAR,11.0
TTCP 281000Z 10009KT 9999 FEW015 26/23 Q1012 NOSIG,TTCP,2023-04-28T10:00:00Z,11.15,-60.85,26.0,23.0,100,9,,6.21,29.88189,,,,,,TRUE,,,,,FEW,1500,,,,,,,VFR,,,,,,,,,,,,METAR,13.0
TRPG 281000Z 16004KT 9999 FEW009 BKN016 24/23 Q1015,TRPG,2023-04-28T10:00:00Z,16.78,-62.2,24.0,23.0,160,4,,6.21,29.970472,,,,,,,,,,,FEW,900,BKN,1600,,,,,MVFR,,,,,,,,,,,,METAR,170.0
TNCM 281000Z 08006KT 060V130 9999 FEW016 BKN035 26/24 Q1014 NOSIG ,TNCM,2023-04-28T10:00:00Z,18.05,-63.12,26.0,24.0,80,6,,6.21,29.940945,,,,,,TRUE,,,,,FEW,1600,BKN,3500,,,,,VFR,,,,,,,,,,,,METAR,9.0
TNCC 281000Z 11006KT 9999 SCT017 26/24 Q1011 NOSIG,TNCC,2023-04-28T10:00:00Z,12.2,-68.97,26.0,24.0,110,6,,6.21,29.852362,,,,,,TRUE,,,,,SCT,1700,,,,,,,VFR,,,,,,,,,,,,METAR,10.0
TNCA 281000Z 09009KT 9999 FEW018 26/24 Q1010 NOSIG,TNCA,2023-04-28T10:00:00Z,12.5,-70.0,26.0,24.0,90,9,,6.21,29.822834,,,,,,TRUE,,,,,FEW,1800,,,,,,,VFR,,,,,,,,,,,,METAR,7.0
TLPL 281000Z 14007KT 9999 FEW024 27/23 Q1013 NOSIG,TLPL,2023-04-28T10:00:00Z,13.75,-60.95,27.0,23.0,140,7,,6.21,29.911417,,,,,,TRUE,,,,,FEW,2400,,,,,,,VFR,,,,,,,,,,,,METAR,13.0
TKPK 281000Z 35003KT 9999 SCT016 SCT038 25/23 Q1014,TKPK,2023-04-28T10:00:00Z,17.3,-62.72,25.0,23.0,350,3,,6.21,29.940945,,,,,,,,,,,SCT,1600,SCT,3800,,,,,VFR,,,,,,,,,,,,METAR,62.0
TGPY 281000Z 10011KT 9999 SCT019 27/25 Q1012 NOSIG,TGPY,2023-04-28T10:00:00Z,12.0,-61.78,27.0,25.0,100,11,,6.21,29.88189,,,,,,TRUE,,,,,SCT,1900,,,,,,,VFR,,,,,,,,,,,,METAR,12.0
TBPB 281000Z 13005KT 9999 -SHRA BKN016 26/24 Q1012 NOSIG,TBPB,2023-04-28T10:00:00Z,13.07,-59.48,26.0,24.0,130,5,,6.21,29.88189,,,,,,TRUE,,,,-SHRA,BKN,1600,,,,,,,MVFR,,,,,,,,,,,,METAR,55.0
TAPA 281000Z 08003KT 030V120 9999 VCSH FEW011 BKN034 22/22 Q1014 NOSIG,TAPA,2023-04-28T10:00:00Z,17.13,-61.78,22.0,22.0,80,3,,6.21,29.940945,,,,,,TRUE,,,,VCSH,FEW,1100,BKN,3400,,,,,VFR,,,,,,,,,,,,METAR,15.0
SYCJ 281000Z 19004KT 9999 FEW014TCU 23/23 Q1012 NOSIG RMK TCU-NW,SYCJ,2023-04-28T10:00:00Z,6.5,-58.25,23.0,23.0,190,4,,6.21,29.88189,,,,,,TRUE,,,,,FEW,1400,,,,,,,VFR,,,,,,,,,,,,METAR,30.0
SUSO 281000Z 10002KT 8000 BCFG BR NSC 12/12 Q1016,SUSO,2023-04-28T10:00:00Z,-31.43,-57.98,12.0,12.0,100,2,,4.97,30.0,,,,,,,,,,BCFG BR,CLR,,,,,,,,MVFR,,,,,,,,,,,,METAR,37.0
SUMU 281000Z 00000KT 3000 0600NW R19/1400N R25/P2000N BCFG BR NSC 12/12 Q1015 NOSIG,SUMU,2023-04-28T10:00:00Z,-34.83,-56.02,12.0,12.0,0,0,,1.86,29.970472,,,,,,TRUE,,,,BCFG BR,CLR,,,,,,,,IFR,,,,,,,,,,,,METAR,32.0
SULS 281000Z 03004KT 0100 FG VV/// 13/12 Q1015,SULS,2023-04-28T10:00:00Z,-34.87,-55.1,13.0,12.0,30,4,,0.06,29.970472,,,,,,,,,,FG,OVX,0,,,,,,,LIFR,,,,,,,,,,,,METAR,22.0
SUCA 281000Z 01007KT CAVOK 15/13 Q1014,SUCA,2023-04-28T10:00:00Z,-34.45,-57.77,15.0,13.0,10,7,,6.21,29.940945,,,,,,,,,,,CAVOK,,,,,,,,VFR,,,,,,,,,,,,METAR,26.0
SUAA 281000Z 36005KT 5000 BR NSC 13/13 Q1015,SUAA,2023-04-28T10:00:00Z,-34.78,-56.25,13.0,13.0,360,5,,3.11,29.970472,,,,,,,,,,BR,CLR,,,,,,,,MVFR,,,,,,,,,,,,METAR,48.0
SPUR 281000Z 36003KT CAVOK 23/21 Q1011 RMK PP000,SPUR,2023-04-28T10:00:00Z,-5.17,-80.58,23.0,21.0,360,3,,6.21,29.852362,,,,,,,,,,,CAVOK,,,,,,,,VFR,,,,,,,,,,,,SPECI,55.0
SPSO 281000Z 18003KT 8000 NSC 20/18 Q1011 RMK PP000,SPSO,2023-04-28T10:00:00Z,-13.73,-76.22,20.0,18.0,180,3,,4.97,29.852362,,,,,,,,,,,CLR,,,,,,,,MVFR,,,,,,,,,,,,METAR,8.0
SPRU 281000Z 13004KT 6000 BCFG BKN100 24/20 Q1010 RMK PP000,SPRU,2023-04-28T10:00:00Z,-8.08,-79.12,24.0,20.0,130,4,,3.73,29.822834,,,,,,,,,,BCFG,BKN,10000,,,,,,,MVFR,,,,,,,,,,,,SPECI,23.0
SPQT 281000Z VRB01KT 9999 FEW004 SCT080 24/23 Q1012 NOSIG RMK PP000,SPQT,2023-04-28T10:00:00Z,-3.78,-73.32,24.0,23.0,0,1,,6.21,29.88189,,,,,,TRUE,,,,,FEW,400,SCT,8000,,,,,VFR,,,,,,,,,,,,METAR,92.0
SPJC 281000Z 15011KT 9999 OVC024 23/20 Q1011 NOSIG RMK PP000,SPJC,2023-04-28T10:00:00Z,-12.02,-77.12,23.0,20.0,150,11,,6.21,29.852362,,,,,,TRUE,,,,,OVC,2400,,,,,,,MVFR,,,,,,,,,,,,METAR,26.0
SPHO 281000Z 15004KT 9999 FEW020 BKN080 12/04 Q1029 RMK PP000,SPHO,2023-04-28T10:00:00Z,-13.17,-74.22,12.0,4.0,150,4,,6.21,30.383858,,,,,,,,,,,FEW,2000,BKN,8000,,,,,VFR,,,,,,,,,,,,SPECI,2743.0
SPHI 281000Z 36004KT CAVOK 24/21 Q1010 RMK BIRD HAZARD RWY 19/01 PP000,SPHI,2023-04-28T10:00:00Z,-6.78,-79.82,24.0,21.0,360,4,,6.21,29.822834,,,,,,,,,,,CAVOK,,,,,,,,VFR,,,,,,,,,,,,SPECI,33.0
SMZO 281000Z 00000KT 7000 BKN004 24/23 Q1012 NOSIG,SMZO,2023-04-28T10:00:00Z,5.82,-55.18,24.0,23.0,0,0,,4.35,29.88189,,,,,,TRUE,,,,,BKN,400,,,,,,,LIFR,,,,,,,,,,,,METAR,7.0
SMJP 281000Z 06001KT 8000 SCT007 24/23 Q1012 NOSIG,SMJP,2023-04-28T10:00:00Z,5.45,-55.18,24.0,23.0,60,1,,4.97,29.88189,,,,,,TRUE,,,,,SCT,700,,,,,,,MVFR,,,,,,,,,,,,METAR,14.0
SLVR 281000Z 19003KT 9999 BKN025 20/20 Q1013,SLVR,2023-04-28T10:00:00Z,-17.63,-63.13,20.0,20.0,190,3,,6.21,29.911417,,,,,,,,,,,BKN,2500,,,,,,,MVFR,,,,,,,,,,,,METAR,377.0
SLVM 281000Z 00000KT 9999 FEW025 SCT070 18/17 Q1014,SLVM,2023-04-28T10:00:00Z,-21.25,-63.4,18.0,17.0,0,0,,6.21,29.940945,,,,,,,,,,,FEW,2500,SCT,7000,,,,,VFR,,,,,,,,,,,,METAR,396.0
SLUY 281000Z 32003KT 9999 NSC M05/M11 Q1035,SLUY,2023-04-28T10:00:00Z,,,-5.0,-11.0,320,3,,6.21,30.561024,,,,,,,,,,,CLR,,,,,,,,VFR,,,,,,,,,,,,METAR,
SLTR 281000Z 00000KT 9999 FEW020 24/24 Q1012,SLTR,2023-04-28T10:00:00Z,-14.83,-64.92,24.0,24.0,0,0,,6.21,29.88189,,,,,,,,,,,FEW,2000,,,,,,,VFR,,,,,,,,,,,,METAR,157.0
SLTJ 281000Z 00000KT 9999 NSC 08/05 Q1020,SLTJ,2023-04-28T10:00:00Z,-21.55,-64.72,8.0,5.0,0,0,,6.21,30.11811,,,,,,,,,,,CLR,,,,,,,,VFR,,,,,,,,,,,,METAR,1850.0
SLSA 281000Z 00000KT 9999 FEW017 BKN200 24/24 Q1011,SLSA,2023-04-28T10:00:00Z,-13.77,-65.43,24.0,24.0,0,0,,6.21,29.852362,,,,,,,,,,,FEW,1700,BKN,20000,,,,,VFR,,,,,,,,,,,,METAR,144.0
SLRI 281000Z 00000KT 3000 BR FEW008 SCT200 24/24 Q1013,SLRI,2023-04-28T10:00:00Z,-11.02,-66.08,24.0,24.0,0,0,,1.86,29.911417,,,,,,,,,,BR,FEW,800,SCT,20000,,,,,IFR,,,,,,,,,,,,METAR,136.0
SLLP 281000Z 09005KT 4000E VCFG FEW002 M03/M03 Q1039,SLLP,2023-04-28T10:00:00Z,-16.52,-68.17,-3.0,-3.0,90,5,,2.49,30.679134,,,,,,,,,,VCFG,FEW,200,,,,,,,IFR,,,,,,,,,,,,METAR,4061.0
SLJV 281000Z 00000KT 9999 NSC 20/20 Q1013,SLJV,2023-04-28T10:00:00Z,-16.27,-62.47,20.0,20.0,0,0,,6.21,29.911417,,,,,,,,,,,CLR,,,,,,,,VFR,,,,,,,,,,,,METAR,539.0
SLET 281000Z VRB02KT 9999 FEW010 BKN023 21/20 Q1014,SLET,2023-04-28T10:00:00Z,-17.8,-63.17,21.0,20.0,0,2,,6.21,29.940945,,,,,,,,,,,FEW,1000,BKN,2300,,,,,MVFR,,,,,,,,,,,,METAR,421.0
SLCP 281000Z 00000KT 9999 SCT013 21/21 Q1017,SLCP,2023-04-28T10:00:00Z,-16.15,-62.02,21.0,21.0,0,0,,6.21,30.029528,,,,,,,,,,,SCT,1300,,,,,,,VFR,,,,,,,,,,,,METAR,502.0
SLCO 281000Z 00000KT 9999 NSC 23/23 Q1012,SLCO,2023-04-28T10:00:00Z,-11.03,-68.78,23.0,23.0,0,0,,6.21,29.88189,,,,,,,,,,,CLR,,,,,,,,VFR,,,,,,,,,,,,METAR,238.0
SLCB 281000Z 00000KT 9999 NSC 09/05 Q1026,SLCB,2023-04-28T10:00:00Z,-17.42,-66.18,9.0,5.0,0,0,,6.21,30.295275,,,,,,,,,,,CLR,,,,,,,,VFR,,,,,,,,,,,,METAR,2560.0
SLCA 281000Z 00000KT 9999 SCT020 BKN070 19/18 Q1017,SLCA,2023-04-28T10:00:00Z,-20.0,-63.53,19.0,18.0,0,0,,6.21,30.029528,,,,,,,,,,,SCT,2000,BKN,7000,,,,,VFR,,,,,,,,,,,,METAR,796.0
SLAL 281000Z 00000KT 9999 NSC 08/04 Q1030,SLAL,2023-04-28T10:00:00Z,-19.23,-65.15,8.0,4.0,0,0,,6.21,30.413385,,,,,,,,,,,CLR,,,,,,,,VFR,,,,,,,,,,,,METAR,3109.0
SKSP 281000Z 10006KT 050V140 9999 FEW017 27/22 Q1010 RMK A2985,SKSP,2023-04-28T10:00:00Z,12.58,-81.72,27.0,22.0,100,6,,6.21,29.822834,,,,,,,,,,,FEW,1700,,,,,,,VFR,,,,,,,,,,,,METAR,6.0
SKRG 281000Z 19007KT 9999 SCT010 BKN080 13/13 Q1025 REDZ NOSIG RMK A3027,SKRG,2023-04-28T10:00:00Z,6.17,-75.42,13.0,13.0,190,7,,6.21,30.265747,,,,,,TRUE,,,,,SCT,1000,BKN,8000,,,,,VFR,,,,,,,,,,,,METAR,2132.0
SKLT 281000Z 00000KT 9999 BKN007 SCT080 24/24 Q1011 RMK A2987,SKLT,2023-04-28T10:00:00Z,-4.2,-69.93,24.0,24.0,0,0,,6.21,29.852362,,,,,,,,,,,BKN,700,SCT,8000,,,,,IFR,,,,,,,,,,,,METAR,78.0
SKCL 281000Z 33010KT 6000 DZ SCT012 BKN070 21/20 Q1016 BECMG FM1200 VRB02KT,SKCL,2023-04-28T10:00:00Z,3.53,-76.37,21.0,20.0,330,10,,3.73,30.0,,,,,,,,,,DZ,SCT,1200,BKN,7000,,,,,MVFR,,,,,,,,,,,,SPECI,967.0
SKCG 281000Z 04004KT 020V080 9999 BKN018 27/24 Q1008 RMK A2978,SKCG,2023-04-28T10:00:00Z,10.43,-75.52,27.0,24.0,40,4,,6.21,29.763779,,,,,,,,,,,BKN,1800,,,,,,,MVFR,,,,,,,,,,,,METAR,6.0
SKCC 281000Z 02005KT 9999 FEW017 SCT070 24/24 Q1012 RMK A2989,SKCC,2023-04-28T10:00:00Z,7.92,-72.52,24.0,24.0,20,5,,6.21,29.88189,,,,,,,,,,,FEW,1700,SCT,7000,,,,,VFR,,,,,,,,,,,,METAR,308.0
SKBQ 281000Z 14006KT 7000 VCFG FEW012 26/24 Q1009 NOSIG RMK A2981,SKBQ,2023-04-28T10:00:00Z,10.87,-74.77,26.0,24.0,140,6,,4.35,29.793306,,,,,,TRUE,,,,VCFG,FEW,1200,,,,,,,MVFR,,,,,,,,,,,,METAR,23.0
SKBO 281000Z VRB02KT 9999 -DZ FEW015 BKN080 11/10 Q1026 NOSIG RMK A3032,SKBO,2023-04-28T10:00:00Z,4.7,-74.15,11.0,10.0,0,2,,6.21,30.295275,,,,,,TRUE,,,,-DZ,FEW,1500,BKN,8000,,,,,VFR,,,,,,,,,,,,METAR,2547.0
SGES 281000Z 12003KT 9000 NSC 14/13 Q1015,SGES,2023-04-28T10:00:00Z,-25.45,-54.85,14.0,13.0,120,3,,5.59,29.970472,,,,,,,,,,,CLR,,,,,,,,VFR,,,,,,,,,,,,METAR,256.0
SGEN 281000Z 23003KT CAVOK 16/14 Q1016,SGEN,2023-04-28T10:00:00Z,-27.23,-55.83,16.0,14.0,230,3,,6.21,30.0,,,,,,,,,,,CAVOK,,,,,,,,VFR,,,,,,,,,,,,METAR,202.0
SGAS 281000Z 00000KT CAVOK 14/14 Q1015,SGAS,2023-04-28T10:00:00Z,-25.25,-57.52,14.0,14.0,0,0,,6.21,29.970472,,,,,,,,,,,CAVOK,,,,,,,,VFR,,,,,,,,,,,,METAR,83.0
SEQM 281000Z 14002KT 9999 BKN040 12/11 Q1026 NOSIG RMK A3031,SEQM,2023-04-28T10:00:00Z,-0.12,-78.35,12.0,11.0,140,2,,6.21,30.295275,,,,,,TRUE,,,,,BKN,4000,,,,,,,VFR,,,,,,,,,,,,METAR,2386.0
SEMT 281000Z 15003KT 9999 SCT030 BKN100 25/24 Q1008 RMK A2980,SEMT,2023-04-28T10:00:00Z,-0.95,-80.67,25.0,24.0,150,3,,6.21,29.763779,,,,,,,,,,,SCT,3000,BKN,10000,,,,,VFR,,,,,,,,,,,,METAR,13.0
SEGU 281000Z 06003KT 9999 FEW005 SCT023 BKN090 25/24 Q1008 NOSIG RMK A2978,SEGU,2023-04-28T10:00:00Z,-2.15,-79.88,25.0,24.0,60,3,,6.21,29.763779,,,,,,TRUE,,,,,FEW,500,SCT,2300,BKN,9000,,,VFR,,,,,,,,,,,,METAR,6.0
SCVM 281000Z 03003KT 6000 OVC012 14/11 Q1014,SCVM,2023-04-28T10:00:00Z,-32.95,-71.48,14.0,11.0,30,3,,3.73,29.940945,,,,,,,,,,,OVC,1200,,,,,,,MVFR,,,,,,,,,,,,METAR,136.0
SCVD 281000Z AUTO 02006KT 340V060 9999 RA FEW016 BKN025 OVC035 14/14 Q1000,SCVD,2023-04-28T10:00:00Z,-39.65,-73.08,14.0,14.0,20,6,,6.21,29.52756,,,TRUE,,,,,,,RA,FEW,1600,BKN,2500,OVC,3500,,,MVFR,,,,,,,,,,,,METAR,19.0
SCTN 281000Z AUTO 35022G32KT 320V020 8000 SCT019 14/13 Q0995,SCTN,2023-04-28T10:00:00Z,-42.92,-72.7,14.0,13.0,350,22,32,4.97,29.379921,,,TRUE,,,,,,,,SCT,1900,,,,,,,MVFR,,,,,,,,,,,,METAR,8.0
SCSN 281000Z AUTO 04005KT //// R/////// // OVC033 14/12 Q1013,SCSN,2023-04-28T10:00:00Z,-33.65,-71.62,14.0,12.0,40,5,,,29.911417,,,TRUE,,,,,,,,OVC,3300,,,,,,,,,,,,,,,,,,,METAR,73.0
SCSE 281000Z AUTO VRB02KT 9999 OVC012/// 13/11 Q1014,SCSE,2023-04-28T10:00:00Z,-29.92,-71.2,13.0,11.0,0,2,,6.21,29.940945,,,TRUE,,,,,,,,OVC,1200,,,,,,,MVFR,,,,,,,,,,,,METAR,141.0
SCRM 281000Z 14019KT 8000 BKN020 M02/M05 Q0983 NOSIG,SCRM,2023-04-28T10:00:00Z,-62.18,-58.98,-2.0,-5.0,140,19,,4.97,29.02559,,,,,,TRUE,,,,,BKN,2000,,,,,,,MVFR,,,,,,,,,,,,METAR,45.0
SCQP 281000Z 01017KT 9999 RA BKN026 OVC049 15/13 Q1003,SCQP,2023-04-28T10:00:00Z,-38.92,-72.65,15.0,13.0,10,17,,6.21,29.616142,,,,,,,,,,RA,BKN,2600,OVC,4900,,,,,MVFR,,,,,,,,,,,,METAR,97.0
SCPQ 281000Z AUTO 02015KT 2400 +RA BKN005 OVC024 12/12 Q0993,SCPQ,2023-04-28T10:00:00Z,-42.33,-73.72,12.0,12.0,20,15,,1.49,29.320866,,,TRUE,,,,,,,+RA,BKN,500,OVC,2400,,,,,IFR,,,,,,,,,,,,METAR,166.0
SCPD 281000Z AUTO 35004KT 320V050 //// ///////// 10/07 Q1013,SCPD,2023-04-28T10:00:00Z,,,10.0,7.0,350,4,,,29.911417,,,TRUE,,,,,,,,,,,,,,,,,,,,,,,,,,,,METAR,
SCON 281000Z AUTO 02015G28KT 350V060 9999 -RA BKN014/// BKN023/// OVC054/// 14/12 Q0991 RERA,SCON,2023-04-28T10:00:00Z,-43.13,-73.62,14.0,12.0,20,15,28,6.21,29.26181,,,TRUE,,,,,,,-RA,BKN,1400,BKN,2300,OVC,5400,,,MVFR,,,,,,,,,,,,METAR,11.0
SCMK 281000Z AUTO 35010KT //// // SCT002/// OVC019/// 12/12 Q0992,SCMK,2023-04-28T10:00:00Z,-43.9,-73.73,12.0,12.0,350,10,,,29.291338,,,TRUE,,,,,,,,SCT,200,OVC,1900,,,,,,,,,,,,,,,,,METAR,22.0
SCIP 281000Z 13008KT 9999 SCT033 SCT060 20/12 Q1021 NOSIG,SCIP,2023-04-28T10:00:00Z,-27.17,-109.43,20.0,12.0,130,8,,6.21,30.147638,,,,,,TRUE,,,,,SCT,3300,SCT,6000,,,,,VFR,,,,,,,,,,,,METAR,48.0
SCIE 281000Z 02020KT 9999 OVC022 15/13 Q1008,SCIE,2023-04-28T10:00:00Z,-36.77,-73.07,15.0,13.0,20,20,,6.21,29.763779,,,,,,,,,,,OVC,2200,,,,,,,MVFR,,,,,,,,,,,,METAR,8.0
SCIC 281000Z AUTO VRB02KT //// R/////// // OVC024 13/10 Q1013,SCIC,2023-04-28T10:00:00Z,-34.97,-71.22,13.0,10.0,0,2,,,29.911417,,,TRUE,,,,,,,,OVC,2400,,,,,,,,,,,,,,,,,,,METAR,230.0
SCHR 281000Z AUTO 30006KT 9000 RA BKN013 OVC044 05/04 Q0988,SCHR,2023-04-28T10:00:00Z,-47.23,-72.58,5.0,4.0,300,6,,5.59,29.17323,,,TRUE,,,,,,,RA,BKN,1300,OVC,4400,,,,,MVFR,,,,,,,,,,,,METAR,203.0
SCFT 281000Z AUTO VRB03KT 9999 -RA BKN004/// OVC064/// 10/10 Q0996,SCFT,2023-04-28T10:00:00Z,-43.18,-71.85,10.0,10.0,0,3,,6.21,29.409449,,,TRUE,,,,,,,-RA,BKN,400,OVC,6400,,,,,LIFR,,,,,,,,,,,,METAR,345.0
SCFA 281000Z 13003KT 100V170 CAVOK 14/13 Q1014 NOSIG,SCFA,2023-04-28T10:00:00Z,-23.43,-70.43,14.0,13.0,130,3,,6.21,29.940945,,,,,,TRUE,,,,,CAVOK,,,,,,,,VFR,,,,,,,,,,,,METAR,113.0
SCEL 281000Z 19003KT 170V250 4000 BR OVC008 11/09 Q1013 NOSIG,SCEL,2023-04-28T10:00:00Z,-33.38,-70.78,11.0,9.0,190,3,,2.49,29.911417,,,,,,TRUE,,,,BR,OVC,800,,,,,,,IFR,,,,,,,,,,,,METAR,478.0
SCDA 281000Z 08004KT CAVOK 16/13 Q1013,SCDA,2023-04-28T10:00:00Z,-20.53,-70.17,16.0,13.0,80,4,,6.21,29.911417,,,,,,,,,,,CAVOK,,,,,,,,VFR,,,,,,,,,,,,METAR,41.0
SCCY 281000Z AUTO VRB02KT 9000 -RA FEW001 SCT006 06/06 Q0991,SCCY,2023-04-28T10:00:00Z,-45.58,-72.1,6.0,6.0,0,2,,5.59,29.26181,,,TRUE,,,,,,,-RA,FEW,100,SCT,600,,,,,VFR,,,,,,,,,,,,METAR,301.0
SCCI 281000Z 05009KT 9999 -RA SCT012 OVC042 05/03 Q0990 NOSIG,SCCI,2023-04-28T10:00:00Z,-53.0,-70.85,5.0,3.0,50,9,,6.21,29.232283,,,,,,TRUE,,,,-RA,SCT,1200,OVC,4200,,,,,VFR,,,,,,,,,,,,METAR,37.0
SCCH 281000Z AUTO 03013KT 9999 ///////// 14/11 Q1010,SCCH,2023-04-28T10:00:00Z,-36.57,-72.02,14.0,11.0,30,13,,6.21,29.822834,,,TRUE,,,,,,,,,,,,,,,,,,,,,,,,,,,,METAR,148.0
SCCF 281000Z 10019KT CAVOK 04/M09 Q1025,SCCF,2023-04-28T10:00:00Z,-22.5,-68.9,4.0,-9.0,100,19,,6.21,30.265747,,,,,,,,,,,CAVOK,,,,,,,,VFR,,,,,,,,,,,,METAR,2290.0
SCBA 281000Z AUTO 14003KT 020V190 9999 FEW087/// BKN140/// 05/04 Q0991,SCBA,2023-04-28T10:00:00Z,-45.92,-71.68,5.0,4.0,140,3,,6.21,29.26181,,,TRUE,,,,,,,,FEW,8700,BKN,14000,,,,,VFR,,,,,,,,,,,,METAR,516.0
SCAT 281000Z AUTO 20005KT 9999 OVC013/// 13/11 Q1014,SCAT,2023-04-28T10:00:00Z,-27.27,-70.77,13.0,11.0,200,5,,6.21,29.940945,,,TRUE,,,,,,,,OVC,1300,,,,,,,MVFR,,,,,,,,,,,,METAR,209.0
SCAR 281000Z 12005KT CAVOK 16/12 Q1013,SCAR,2023-04-28T10:00:00Z,-18.35,-70.33,16.0,12.0,120,5,,6.21,29.911417,,,,,,,,,,,CAVOK,,,,,,,,VFR,,,,,,,,,,,,METAR,57.0
SBYS 281000Z VRB02KT 0600 R02/P2000 R20/P2000 FG OVC002 19/19 Q1017,SBYS,2023-04-28T10:00:00Z,-21.97,-47.33,19.0,19.0,0,2,,0.37,30.029528,,,,,,,,,,FG,OVC,200,,,,,,,LIFR,,,,,,,,,,,,METAR,600.0
SBVT 281000Z 29003KT 9999 SCT030 24/23 Q1014,SBVT,2023-04-28T10:00:00Z,-20.25,-40.28,24.0,23.0,290,3,,6.21,29.940945,,,,,,,,,,,SCT,3000,,,,,,,VFR,,,,,,,,,,,,METAR,4.0
SBUR 281000Z 04005KT CAVOK 20/19 Q1018,SBUR,2023-04-28T10:00:00Z,-19.77,-47.97,20.0,19.0,40,5,,6.21,30.059055,,,,,,,,,,,CAVOK,,,,,,,,VFR,,,,,,,,,,,,METAR,807.0
SBUL 281000Z 00000KT 5000 2000N -RA BR NSC 19/18 Q1020,SBUL,2023-04-28T10:00:00Z,-18.87,-48.22,19.0,18.0,0,0,,3.11,30.11811,,,,,,,,,,-RA BR,CLR,,,,,,,,MVFR,,,,,,,,,,,,METAR,945.0
SBTU 281000Z AUTO VRB02KT 9999 // OVC009/// 23/23 Q1014,SBTU,2023-04-28T10:00:00Z,-3.78,-49.72,23.0,23.0,0,2,,6.21,29.940945,,,TRUE,,,,,,,,OVC,900,,,,,,,IFR,,,,,,,,,,,,METAR,250.0
SBTE 281000Z 00000KT 9999 FEW015 SCT080 25/24 Q1013,SBTE,2023-04-28T10:00:00Z,-5.05,-42.82,25.0,24.0,0,0,,6.21,29.911417,,,,,,,,,,,FEW,1500,SCT,8000,,,,,VFR,,,,,,,,,,,,METAR,60.0
SBTA 281000Z 24003KT 2500 -RA BR BKN007 OVC025 18/17 Q1017,SBTA,2023-04-28T10:00:00Z,-23.03,-45.5,18.0,17.0,240,3,,1.55,30.029528,,,,,,,,,,-RA BR,BKN,700,OVC,2500,,,,,IFR,,,,,,,,,,,,METAR,578.0
SBSV 281000Z 29002KT 9999 FEW020 26/25 Q1014,SBSV,2023-04-28T10:00:00Z,-12.9,-38.32,26.0,25.0,290,2,,6.21,29.940945,,,,,,,,,,,FEW,2000,,,,,,,VFR,,,,,,,,,,,,METAR,9.0
SBSR 281000Z 03002KT 9999 SCT045 19/19 Q1016,SBSR,2023-04-28T10:00:00Z,-20.8,-49.4,19.0,19.0,30,2,,6.21,30.0,,,,,,,,,,,SCT,4500,,,,,,,VFR,,,,,,,,,,,,METAR,537.0
SBSP 281000Z 15005KT 120V180 9999 SCT011 OVC033 17/16 Q1019,SBSP,2023-04-28T10:00:00Z,-23.62,-46.65,17.0,16.0,150,5,,6.21,30.088583,,,,,,,,,,,SCT,1100,OVC,3300,,,,,VFR,,,,,,,,,,,,METAR,802.0
SBSN 281000Z 09002KT 8000 -RA SCT010 BKN100 25/24 Q1012,SBSN,2023-04-28T10:00:00Z,-2.42,-54.78,25.0,24.0,90,2,,4.97,29.88189,,,,,,,,,,-RA,SCT,1000,BKN,10000,,,,,MVFR,,,,,,,,,,,,METAR,57.0
SBSM 281000Z 11002KT 0600 R29/1000 R11/1200 FG NSC 11/11 Q1017,SBSM,2023-04-28T10:00:00Z,-29.72,-53.7,11.0,11.0,110,2,,0.37,30.029528,,,,,,,,,,FG,CLR,,,,,,,,LIFR,,,,,,,,,,,,METAR,86.0
SBSL 281000Z 11003KT 9999 FEW017 27/25 Q1013,SBSL,2023-04-28T10:00:00Z,-2.58,-44.23,27.0,25.0,110,3,,6.21,29.911417,,,,,,,,,,,FEW,1700,,,,,,,VFR,,,,,,,,,,,,METAR,53.0
SBSJ 281000Z 09002KT 4000 BR SCT004 BKN010 18/17 Q1018,SBSJ,2023-04-28T10:00:00Z,-23.22,-45.87,18.0,17.0,90,2,,2.49,30.059055,,,,,,,,,,BR,SCT,400,BKN,1000,,,,,IFR,,,,,,,,,,,,METAR,640.0
SBSG 281000Z 24004KT 210V290 9999 FEW016 BKN100 25/24 Q1014,SBSG,2023-04-28T10:00:00Z,-5.77,-35.37,25.0,24.0,240,4,,6.21,29.940945,,,,,,,,,,,FEW,1600,BKN,10000,,,,,VFR,,,,,,,,,,,,METAR,83.0
SBSC 281000Z 20004KT 170V240 9999 SCT015 BKN030 22/20 Q1015,SBSC,2023-04-28T10:00:00Z,-22.92,-43.72,22.0,20.0,200,4,,6.21,29.970472,,,,,,,,,,,SCT,1500,BKN,3000,,,,,MVFR,,,,,,,,,,,,METAR,6.0
SBRP 281000Z 00000KT 0300 FG OVC001 18/18 Q1016,SBRP,2023-04-28T10:00:00Z,-21.13,-47.77,18.0,18.0,0,0,,0.19,30.0,,,,,,,,,,FG,OVC,100,,,,,,,LIFR,,,,,,,,,,,,METAR,550.0
SBRF 281000Z 21005KT 9999 -RA BKN020 26/24 Q1014,SBRF,2023-04-28T10:00:00Z,-8.13,-34.92,26.0,24.0,210,5,,6.21,29.940945,,,,,,,,,,-RA,BKN,2000,,,,,,,MVFR,,,,,,,,,,,,METAR,10.0
SBRB 281000Z 29002KT 6000 NSC 23/23 Q1012,SBRB,2023-04-28T10:00:00Z,-9.87,-67.88,23.0,23.0,290,2,,3.73,29.88189,,,,,,,,,,,CLR,,,,,,,,MVFR,,,,,,,,,,,,METAR,190.0
SBPS 281000Z 30003KT CAVOK 23/22 Q1014,SBPS,2023-04-28T10:00:00Z,-16.43,-39.07,23.0,22.0,300,3,,6.21,29.940945,,,,,,,,,,,CAVOK,,,,,,,,VFR,,,,,,,,,,,,METAR,44.0
SBPL 281000Z 17007KT 9999 SCT025 BKN070 25/22 Q1016,SBPL,2023-04-28T10:00:00Z,-9.37,-40.57,25.0,22.0,170,7,,6.21,30.0,,,,,,,,,,,SCT,2500,BKN,7000,,,,,VFR,,,,,,,,,,,,METAR,386.0
SBPJ 281000Z 10004KT CAVOK 23/22 Q1014,SBPJ,2023-04-28T10:00:00Z,-10.28,-48.37,23.0,22.0,100,4,,6.21,29.940945,,,,,,,,,,,CAVOK,,,,,,,,VFR,,,,,,,,,,,,METAR,226.0
SBPF 281000Z 06003KT CAVOK 11/11 Q1018,SBPF,2023-04-28T10:00:00Z,-28.25,-52.33,11.0,11.0,60,3,,6.21,30.059055,,,,,,,,,,,CAVOK,,,,,,,,VFR,,,,,,,,,,,,METAR,720.0
SBPA 281000Z VRB02KT CAVOK 15/14 Q1017,SBPA,2023-04-28T10:00:00Z,-30.0,-51.17,15.0,14.0,0,2,,6.21,30.029528,,,,,,,,,,,CAVOK,,,,,,,,VFR,,,,,,,,,,,,METAR,3.0
SBOI 281000Z 00000KT 1500 BR SCT015 BKN020 22/22 Q1013,SBOI,2023-04-28T10:00:00Z,3.85,-51.78,22.0,22.0,0,0,,0.93,29.911417,,,,,,,,,,BR,SCT,1500,BKN,2000,,,,,LIFR,,,,,,,,,,,,METAR,15.0
SBNT 281000Z 20007KT 9999 FEW020 FEW025TCU SCT100 26/24 Q1013,SBNT,2023-04-28T10:00:00Z,-5.92,-35.25,26.0,24.0,200,7,,6.21,29.911417,,,,,,,,,,,FEW,2000,FEW,2500,SCT,10000,,,VFR,,,,,,,,,,,,METAR,51.0
SBNF 281000Z 25005KT 9000 FEW020 SCT025 18/18 Q1016,SBNF,2023-04-28T10:00:00Z,-26.88,-48.65,18.0,18.0,250,5,,5.59,30.0,,,,,,,,,,,FEW,2000,SCT,2500,,,,,VFR,,,,,,,,,,,,METAR,5.0
SBMT 281000Z 09003KT 8000 SCT010 BKN013 BKN023 17/17 Q1018,SBMT,2023-04-28T10:00:00Z,-23.52,-46.63,17.0,17.0,90,3,,4.97,30.059055,,,,,,,,,,,SCT,1000,BKN,1300,BKN,2300,,,MVFR,,,,,,,,,,,,METAR,722.0
SBMQ 281000Z 04003KT 9999 FEW023 25/25 Q1012,SBMQ,2023-04-28T10:00:00Z,0.05,-51.07,25.0,25.0,40,3,,6.21,29.88189,,,,,,,,,,,FEW,2300,,,,,,,VFR,,,,,,,,,,,,METAR,15.0
SBMO 281000Z 32002KT 9999 FEW018 25/25 Q1015,SBMO,2023-04-28T10:00:00Z,-9.52,-35.78,25.0,25.0,320,2,,6.21,29.970472,,,,,,,,,,,FEW,1800,,,,,,,VFR,,,,,,,,,,,,METAR,116.0
SBMN 281000Z 07002KT 9999 FEW015 24/24 Q1012,SBMN,2023-04-28T10:00:00Z,-3.13,-59.98,24.0,24.0,70,2,,6.21,29.88189,,,,,,,,,,,FEW,1500,,,,,,,VFR,,,,,,,,,,,,METAR,71.0
SBMK 281000Z 00000KT CAVOK 20/16 Q1017,SBMK,2023-04-28T10:00:00Z,-16.7,-43.82,20.0,16.0,0,0,,6.21,30.029528,,,,,,,,,,,CAVOK,,,,,,,,VFR,,,,,,,,,,,,METAR,665.0
SBMG 281000Z 00000KT 9999 3000SW BCFG NSC 15/14 Q1015,SBMG,2023-04-28T10:00:00Z,-23.48,-52.02,15.0,14.0,0,0,,6.21,29.970472,,,,,,,,,,BCFG,CLR,,,,,,,,VFR,,,,,,,,,,,,METAR,543.0
SBME 281000Z 28002KT 3000 -RA BR BKN020 OVC050 23/23 Q1015,SBME,2023-04-28T10:00:00Z,-22.35,-41.77,23.0,23.0,280,2,,1.86,29.970472,,,,,,,,,,-RA BR,BKN,2000,OVC,5000,,,,,IFR,,,,,,,,,,,,METAR,2.0
SBMA 281000Z 15001KT 9999 SCT010 24/24 Q1013,SBMA,2023-04-28T10:00:00Z,-5.37,-49.13,24.0,24.0,150,1,,6.21,29.911417,,,,,,,,,,,SCT,1000,,,,,,,VFR,,,,,,,,,,,,METAR,110.0
SBLS 281000Z 07002KT 5000 -RA BR FEW003 BKN040 BKN100 19/18 Q1019,SBLS,2023-04-28T10:00:00Z,-19.67,-43.88,19.0,18.0,70,2,,3.11,30.088583,,,,,,,,,,-RA BR,FEW,300,BKN,4000,BKN,10000,,,MVFR,,,,,,,,,,,,METAR,850.0
SBLO 281000Z 18002KT 9999 BKN014 17/17 Q1017,SBLO,2023-04-28T10:00:00Z,-23.33,-51.12,17.0,17.0,180,2,,6.21,30.029528,,,,,,,,,,,BKN,1400,,,,,,,MVFR,,,,,,,,,,,,METAR,563.0
SBLE 281000Z AUTO 30002KT 9999 BKN028 22/21 Q1017,SBLE,2023-04-28T10:00:00Z,-12.48,-41.28,22.0,21.0,300,2,,6.21,30.029528,,,TRUE,,,,,,,,BKN,2800,,,,,,,MVFR,,,,,,,,,,,,METAR,495.0
SBLB 281000Z AUTO 23003KT 9999 NCD 26/22 Q1014 W///S3,SBLB,2023-04-28T10:00:00Z,-22.1,-39.92,26.0,22.0,230,3,,6.21,29.940945,,,TRUE,,,,,,,,CLR,,,,,,,,VFR,,,,,,,,,,,,METAR,10.0
SBKP 281000Z 12009KT 090V150 9999 FEW007 OVC030 18/16 Q1017,SBKP,2023-04-28T10:00:00Z,-23.0,-47.13,18.0,16.0,120,9,,6.21,30.029528,,,,,,,,,,,FEW,700,OVC,3000,,,,,MVFR,,,,,,,,,,,,METAR,659.0
SBKG 281000Z 00000KT CAVOK 23/22 Q1017,SBKG,2023-04-28T10:00:00Z,-7.27,-35.88,23.0,22.0,0,0,,6.21,30.029528,,,,,,,,,,,CAVOK,,,,,,,,VFR,,,,,,,,,,,,METAR,499.0
SBJV 281000Z 29001KT 8000 FEW002 BKN030 19/18 Q1017,SBJV,2023-04-28T10:00:00Z,-26.22,-48.8,19.0,18.0,290,1,,4.97,30.029528,,,,,,,,,,,FEW,200,BKN,3000,,,,,MVFR,,,,,,,,,,,,METAR,3.0
SBJU 281000Z 00000KT 9999 4000SE BCFG SCT004 SCT018 23/23 Q1018,SBJU,2023-04-28T10:00:00Z,-7.22,-39.27,23.0,23.0,0,0,,6.21,30.059055,,,,,,,,,,BCFG,SCT,400,SCT,1800,,,,,VFR,,,,,,,,,,,,METAR,407.0
SBJR 281000Z 20002KT 3000 -RA BR BKN006 SCT010 OVC030 22/22 Q1015,SBJR,2023-04-28T10:00:00Z,-22.98,-43.37,22.0,22.0,200,2,,1.86,29.970472,,,,,,,,,,-RA BR,BKN,600,SCT,1000,OVC,3000,,,IFR,,,,,,,,,,,,METAR,5.0
SBJP 281000Z 19005KT 9999 SCT020 26/25 Q1014,SBJP,2023-04-28T10:00:00Z,-7.15,-34.95,26.0,25.0,190,5,,6.21,29.940945,,,,,,,,,,,SCT,2000,,,,,,,VFR,,,,,,,,,,,,METAR,66.0
SBIZ 281000Z 09003KT 9999 FEW010 25/22 Q1013,SBIZ,2023-04-28T10:00:00Z,-5.52,-47.45,25.0,22.0,90,3,,6.21,29.911417,,,,,,,,,,,FEW,1000,,,,,,,VFR,,,,,,,,,,,,METAR,131.0
SBIL 281000Z 28007KT 9999 FEW020 23/23 Q1014,SBIL,2023-04-28T10:00:00Z,-14.8,-39.02,23.0,23.0,280,7,,6.21,29.940945,,,,,,,,,,,FEW,2000,,,,,,,VFR,,,,,,,,,,,,METAR,9.0
SBHT 281000Z 00000KT 9999 BKN015 BKN080 24/24 Q1012,SBHT,2023-04-28T10:00:00Z,-3.25,-52.27,24.0,24.0,0,0,,6.21,29.88189,,,,,,,,,,,BKN,1500,BKN,8000,,,,,MVFR,,,,,,,,,,,,METAR,105.0
SBGW 281000Z 27004KT 220V310 2500 -RA BR BKN004 BKN013 19/18 Q1017,SBGW,2023-04-28T10:00:00Z,-22.78,-45.2,19.0,18.0,270,4,,1.55,30.029528,,,,,,,,,,-RA BR,BKN,400,BKN,1300,,,,,LIFR,,,,,,,,,,,,METAR,539.0
SBGR 281000Z 25002KT 8000 -RA SCT011 OVC015 16/16 Q1019,SBGR,2023-04-28T10:00:00Z,-23.42,-46.47,16.0,16.0,250,2,,4.97,30.088583,,,,,,,,,,-RA,SCT,1100,OVC,1500,,,,,MVFR,,,,,,,,,,,,METAR,745.0
SBGO 281000Z VRB01KT 9000 FEW030 20/19 Q1018,SBGO,2023-04-28T10:00:00Z,-16.62,-49.22,20.0,19.0,0,1,,5.59,30.059055,,,,,,,,,,,FEW,3000,,,,,,,VFR,,,,,,,,,,,,METAR,740.0
SBGL 281000Z 28004KT 8000 BKN012 OVC040 22/20 Q1015,SBGL,2023-04-28T10:00:00Z,-22.82,-43.25,22.0,20.0,280,4,,4.97,29.970472,,,,,,,,,,,BKN,1200,OVC,4000,,,,,MVFR,,,,,,,,,,,,METAR,3.0
SBFZ 281000Z 00000KT CAVOK 25/23 Q1013,SBFZ,2023-04-28T10:00:00Z,-3.77,-38.52,25.0,23.0,0,0,,6.21,29.911417,,,,,,,,,,,CAVOK,,,,,,,,VFR,,,,,,,,,,,,METAR,32.0
SBFS 281000Z 21005KT 9999 BKN025 BKN080 23/20 Q1014,SBFS,2023-04-28T10:00:00Z,-22.02,-41.07,23.0,20.0,210,5,,6.21,29.940945,,,,,,,,,,,BKN,2500,BKN,8000,,,,,MVFR,,,,,,,,,,,,METAR,3.0
SBFN 281000Z AUTO 15006KT CAVOK 28/25 Q1014,SBFN,2023-04-28T10:00:00Z,-3.85,-32.42,28.0,25.0,150,6,,6.21,29.940945,,,TRUE,,,,,,,,CAVOK,,,,,,,,VFR,,,,,,,,,,,,METAR,52.0
SBFL 281000Z 28005KT CAVOK 18/18 Q1017,SBFL,2023-04-28T10:00:00Z,-27.67,-48.53,18.0,18.0,280,5,,6.21,30.029528,,,,,,,,,,,CAVOK,,,,,,,,VFR,,,,,,,,,,,,METAR,5.0
SBFI 281000Z 12007KT 9000 NSC 14/14 Q1016,SBFI,2023-04-28T10:00:00Z,-25.6,-54.48,14.0,14.0,120,7,,5.59,30.0,,,,,,,,,,,CLR,,,,,,,,VFR,,,,,,,,,,,,METAR,233.0
SBES 281000Z VRB02KT 5000 -RA BR FEW005 SCT013 BKN040 20/20 Q1015,SBES,2023-04-28T10:00:00Z,-22.82,-42.1,20.0,20.0,0,2,,3.11,29.970472,,,,,,,,,,-RA BR,FEW,500,SCT,1300,BKN,4000,,,MVFR,,,,,,,,,,,,METAR,16.0
SBEG 281000Z 07002KT 9999 FEW012 24/23 Q1012,SBEG,2023-04-28T10:00:00Z,-3.03,-60.03,24.0,23.0,70,2,,6.21,29.88189,,,,,,,,,,,FEW,1200,,,,,,,VFR,,,,,,,,,,,,METAR,69.0
SBDN 281000Z 10004KT 0300 FG NSC 17/17 Q1015,SBDN,2023-04-28T10:00:00Z,-22.18,-51.43,17.0,17.0,100,4,,0.19,29.970472,,,,,,,,,,FG,CLR,,,,,,,,LIFR,,,,,,,,,,,,METAR,438.0
SBCY 281000Z 00000KT 9999 FEW005 23/23 Q1014,SBCY,2023-04-28T10:00:00Z,-15.65,-56.12,23.0,23.0,0,0,,6.21,29.940945,,,,,,,,,,,FEW,500,,,,,,,VFR,,,,,,,,,,,,METAR,182.0
SBCT 281000Z 05002KT 8000 SCT009 13/13 Q1019,SBCT,2023-04-28T10:00:00Z,-25.52,-49.17,13.0,13.0,50,2,,4.97,30.088583,,,,,,,,,,,SCT,900,,,,,,,MVFR,,,,,,,,,,,,METAR,914.0
SBCP 281000Z 00000KT 9999 SCT020 BKN090 23/21 Q1014,SBCP,2023-04-28T10:00:00Z,-21.7,-41.3,23.0,21.0,0,0,,6.21,29.940945,,,,,,,,,,,SCT,2000,BKN,9000,,,,,VFR,,,,,,,,,,,,METAR,15.0
SBCO 281000Z 00000KT 0600 R13/2000 R31/P2000 FG FEW002 12/12 Q1017,SBCO,2023-04-28T10:00:00Z,-29.95,-51.15,12.0,12.0,0,0,,0.37,30.029528,,,,,,,,,,FG,FEW,200,,,,,,,LIFR,,,,,,,,,,,,METAR,8.0
SBCH 281000Z 09004KT 5000 1000E BR BCFG OVC004 13/13 Q1018,SBCH,2023-04-28T10:00:00Z,-27.13,-52.67,13.0,13.0,90,4,,3.11,30.059055,,,,,,,,,,BCFG BR,OVC,400,,,,,,,LIFR,,,,,,,,,,,,METAR,639.0
SBCG 281000Z 08004KT 9999 FEW020 17/16 Q1016,SBCG,2023-04-28T10:00:00Z,-20.47,-54.67,17.0,16.0,80,4,,6.21,30.0,,,,,,,,,,,FEW,2000,,,,,,,VFR,,,,,,,,,,,,METAR,556.0
SBCF 281000Z 09003KT 4000 BCFG FEW005 SCT040 BKN090 19/18 Q1018,SBCF,2023-04-28T10:00:00Z,-19.63,-43.97,19.0,18.0,90,3,,2.49,30.059055,,,,,,,,,,BCFG,FEW,500,SCT,4000,BKN,9000,,,IFR,,,,,,,,,,,,METAR,825.0
SBCB 281000Z 24013KT 7000 SCT004 BKN007 OVC030 22/20 Q1015 RERA,SBCB,2023-04-28T10:00:00Z,-22.92,-42.08,22.0,20.0,240,13,,4.35,29.970472,,,,,,,,,,,SCT,400,BKN,700,OVC,3000,,,IFR,,,,,,,,,,,,METAR,3.0
SBBV 281000Z 11006KT CAVOK 24/23 Q1012,SBBV,2023-04-28T10:00:00Z,2.85,-60.7,24.0,23.0,110,6,,6.21,29.88189,,,,,,,,,,,CAVOK,,,,,,,,VFR,,,,,,,,,,,,METAR,80.0
SBBU 281000Z 16006KT 3500 BR OVC003 19/18 Q1017,SBBU,2023-04-28T10:00:00Z,-22.33,-49.07,19.0,18.0,160,6,,2.17,30.029528,,,,,,,,,,BR,OVC,300,,,,,,,LIFR,,,,,,,,,,,,METAR,616.0
SBBR 281000Z 22003KT CAVOK 18/16 Q1020,SBBR,2023-04-28T10:00:00Z,-15.87,-47.92,18.0,16.0,220,3,,6.21,30.11811,,,,,,,,,,,CAVOK,,,,,,,,VFR,,,,,,,,,,,,METAR,1051.0
SBBI 281000Z 02002KT 9999 SCT010 SCT014 14/13 Q1028,SBBI,2023-04-28T10:00:00Z,-25.4,-49.23,14.0,13.0,20,2,,6.21,30.35433,,,,,,,,,,,SCT,1000,SCT,1400,,,,,VFR,,,,,,,,,,,,METAR,928.0
SBBH 281000Z 26003KT 9999 FEW010 SCT050 BKN100 20/17 Q1018,SBBH,2023-04-28T10:00:00Z,-19.85,-43.95,20.0,17.0,260,3,,6.21,30.059055,,,,,,,,,,,FEW,1000,SCT,5000,BKN,10000,,,VFR,,,,,,,,,,,,METAR,799.0
SBBG 281000Z AUTO 03007KT CAVOK ///// Q////,SBBG,2023-04-28T10:00:00Z,-31.38,-54.12,,,30,7,,6.21,,,,TRUE,,,,,,,,CAVOK,,,,,,,,VFR,,,,,,,,,,,,METAR,182.0
SBAX 281000Z 23005KT 9999 SCT045 19/17 Q1019,SBAX,2023-04-28T10:00:00Z,-19.57,-46.97,19.0,17.0,230,5,,6.21,30.088583,,,,,,,,,,,SCT,4500,,,,,,,VFR,,,,,,,,,,,,METAR,989.0
SBAR 281000Z 35003KT 9999 VCSH SCT012 SCT029 24/24 Q1014,SBAR,2023-04-28T10:00:00Z,-10.98,-37.07,24.0,24.0,350,3,,6.21,29.940945,,,,,,,,,,VCSH,SCT,1200,SCT,2900,,,,,VFR,,,,,,,,,,,,METAR,4.0
SBAN 281000Z 00000KT 9999 SCT035 SCT100 18/18 Q1020,SBAN,2023-04-28T10:00:00Z,-16.22,-48.97,18.0,18.0,0,0,,6.21,30.11811,,,,,,,,,,,SCT,3500,SCT,10000,,,,,VFR,,,,,,,,,,,,METAR,1131.0
SBAF 281000Z 28002KT 5000 -DZ BR BKN010 OVC025 21/21 Q1016,SBAF,2023-04-28T10:00:00Z,-22.87,-43.38,21.0,21.0,280,2,,3.11,30.0,,,,,,,,,,-DZ BR,BKN,1000,OVC,2500,,,,,MVFR,,,,,,,,,,,,METAR,34.0
SAZS 281000Z 29013KT 9000 -RA SCT040 SCT048 OVC060 10/08 Q1001 RMK PP///,SAZS,2023-04-28T10:00:00Z,-41.15,-71.17,10.0,8.0,290,13,,5.59,29.557087,,,,,,,,,,-RA,SCT,4000,SCT,4800,OVC,6000,,,VFR,,,,,,,,,,,,SPECI,843.0
SAZN 281000Z 00000KT CAVOK 09/07 Q1001,SAZN,2023-04-28T10:00:00Z,-38.95,-68.15,9.0,7.0,0,0,,6.21,29.557087,,,,,,,,,,,CAVOK,,,,,,,,VFR,,,,,,,,,,,,METAR,273.0
SAZM 281000Z 34012KT 0050 R13/0275 FG OVC002 13/13 Q1012 RMK PP///,SAZM,2023-04-28T10:00:00Z,-37.92,-57.57,13.0,13.0,340,12,,0.03,29.88189,,,,,,,,,,FG,OVC,200,,,,,,,LIFR,,,,,,,,,,,,SPECI,17.0
SAWH 281000Z 30005KT CAVOK 01/M03 Q0992 RMK PP000,SAWH,2023-04-28T10:00:00Z,-54.85,-68.3,1.0,-3.0,300,5,,6.21,29.291338,,,,,,,,,,,CAVOK,,,,,,,,VFR,,,,,,,,,,,,METAR,22.0
SAWG 281000Z 09008KT 9999 FEW025 OVC090 07/03 Q0990,SAWG,2023-04-28T10:00:00Z,-51.62,-69.27,7.0,3.0,90,8,,6.21,29.232283,,,,,,,,,,,FEW,2500,OVC,9000,,,,,VFR,,,,,,,,,,,,METAR,15.0
SAWE 281000Z 20006KT CAVOK M01/M02 Q0993 RMK PP000,SAWE,2023-04-28T10:00:00Z,-53.78,-67.75,-1.0,-2.0,200,6,,6.21,29.320866,,,,,,,,,,,CAVOK,,,,,,,,VFR,,,,,,,,,,,,SPECI,22.0
SAVC 281000Z 29010KT 9999 -RA NSC 15/09 Q0995 RMK PP999,SAVC,2023-04-28T10:00:00Z,-45.78,-67.47,15.0,9.0,290,10,,6.21,29.379921,,,,,,,,,,-RA,CLR,,,,,,,,VFR,,,,,,,,,,,,SPECI,58.0
SASJ 281000Z 31003KT 9999 FEW028 BKN042 16/14 Q1016 RMK PP000,SASJ,2023-04-28T10:00:00Z,-24.38,-65.1,16.0,14.0,310,3,,6.21,30.0,,,,,,,,,,,FEW,2800,BKN,4200,,,,,VFR,,,,,,,,,,,,SPECI,913.0
SASA 281000Z VRB01KT 9999 FEW015 BKN025 14/13 Q1017 RMK PP000,SASA,2023-04-28T10:00:00Z,-24.85,-65.48,14.0,13.0,0,1,,6.21,30.029528,,,,,,,,,,,FEW,1500,BKN,2500,,,,,MVFR,,,,,,,,,,,,SPECI,1235.0
SARP 281000Z 14003KT CAVOK 17/15 Q1016,SARP,2023-04-28T10:00:00Z,-27.38,-55.97,17.0,15.0,140,3,,6.21,30.0,,,,,,,,,,,CAVOK,,,,,,,,VFR,,,,,,,,,,,,METAR,123.0
SARL 281000Z 00000KT 1500 BR NSC 15/15 Q1016,SARL,2023-04-28T10:00:00Z,-29.68,-57.15,15.0,15.0,0,0,,0.93,30.0,,,,,,,,,,BR,CLR,,,,,,,,LIFR,,,,,,,,,,,,METAR,70.0
SARI 281000Z 15003KT 9000 NSC 14/13 Q1016 RMK PP000,SARI,2023-04-28T10:00:00Z,-25.73,-54.47,14.0,13.0,150,3,,5.59,30.0,,,,,,,,,,,CLR,,,,,,,,VFR,,,,,,,,,,,,SPECI,268.0
SARF 281000Z 00000KT 9999 MIFG NSC 15/14 Q1015,SARF,2023-04-28T10:00:00Z,-26.22,-58.22,15.0,14.0,0,0,,6.21,29.970472,,,,,,,,,,MIFG,CLR,,,,,,,,VFR,,,,,,,,,,,,METAR,65.0
SARE 281000Z 07002KT 2000 BR NSC 11/10 Q1015 RMK PP///,SARE,2023-04-28T10:00:00Z,-27.43,-59.05,11.0,10.0,70,2,,1.24,29.970472,,,,,,,,,,BR,CLR,,,,,,,,IFR,,,,,,,,,,,,SPECI,52.0
SARC 281000Z 10001KT 0700 FG NSC 14/13 Q1015,SARC,2023-04-28T10:00:00Z,-27.43,-58.77,14.0,13.0,100,1,,0.43,29.970472,,,,,,,,,,FG,CLR,,,,,,,,LIFR,,,,,,,,,,,,METAR,60.0
SAOC 281000Z 36006KT CAVOK 12/10 Q1009,SAOC,2023-04-28T10:00:00Z,-33.08,-64.27,12.0,10.0,360,6,,6.21,29.793306,,,,,,,,,,,CAVOK,,,,,,,,VFR,,,,,,,,,,,,METAR,422.0
SANT 281000Z 35008KT CAVOK 16/14 Q1011 RMK PP000,SANT,2023-04-28T10:00:00Z,-26.85,-65.1,16.0,14.0,350,8,,6.21,29.852362,,,,,,,,,,,CAVOK,,,,,,,,VFR,,,,,,,,,,,,SPECI,446.0
SAME 281000Z 00000KT CAVOK 13/10 Q1007,SAME,2023-04-28T10:00:00Z,-32.82,-68.78,13.0,10.0,0,0,,6.21,29.734253,,,,,,,,,,,CAVOK,,,,,,,,VFR,,,,,,,,,,,,METAR,709.0
SAEZ 281000Z 36007KT 9000 NSC 18/15 Q1014 NOSIG RMK PP000,SAEZ,2023-04-28T10:00:00Z,-34.82,-58.53,18.0,15.0,360,7,,5.59,29.940945,,,,,,TRUE,,,,,CLR,,,,,,,,VFR,,,,,,,,,,,,SPECI,16.0
SADF 281000Z 36008KT CAVOK 15/14 Q1014 RMK PP000,SADF,2023-04-28T10:00:00Z,-34.45,-58.58,15.0,14.0,360,8,,6.21,29.940945,,,,,,,,,,,CAVOK,,,,,,,,VFR,,,,,,,,,,,,METAR,4.0
SACO 281000Z 01010KT CAVOK 15/13 Q1010 NOSIG RMK PP000,SACO,2023-04-28T10:00:00Z,-31.32,-64.22,15.0,13.0,10,10,,6.21,29.822834,,,,,,TRUE,,,,,CAVOK,,,,,,,,VFR,,,,,,,,,,,,SPECI,474.0
SABE 281000Z 31006KT CAVOK 17/15 Q1014 NOSIG RMK PP000,SABE,2023-04-28T10:00:00Z,-34.57,-58.42,17.0,15.0,310,6,,6.21,29.940945,,,,,,TRUE,,,,,CAVOK,,,,,,,,VFR,,,,,,,,,,,,SPECI,3.0
SAAR 281000Z 04004KT 5000 MIFG BR NSC 13/13 Q1013 RMK PP000,SAAR,2023-04-28T10:00:00Z,-32.92,-60.77,13.0,13.0,40,4,,3.11,29.911417,,,,,,,,,,MIFG BR,CLR,,,,,,,,MVFR,,,,,,,,,,,,SPECI,24.0
RPVP 281000Z 09004KT 9000 SCT016 SCT240 30/23 Q1009 RMK A2980,RPVP,2023-04-28T10:00:00Z,9.75,118.75,30.0,23.0,90,4,,5.59,29.793306,,,,,,,,,,,SCT,1600,SCT,24000,,,,,VFR,,,,,,,,,,,,METAR,15.0
RPVM 281000Z 03008KT 9999 FEW018CB SCT300 31/23 Q1009 NOSIG RMK A2980 CB N,RPVM,2023-04-28T10:00:00Z,10.32,123.98,31.0,23.0,30,8,,6.21,29.793306,,,,,,TRUE,,,,,FEW,1800,SCT,30000,,,,,VFR,,,,,,,,,,,,METAR,9.0
RPMZ 281000Z 28008KT 9999 FEW016CB SCT300 29/25 Q1007 RMK A2974 CB NW-N,RPMZ,2023-04-28T10:00:00Z,6.92,122.07,29.0,25.0,280,8,,6.21,29.734253,,,,,,,,,,,FEW,1600,SCT,30000,,,,,VFR,,,,,,,,,,,,METAR,8.0
RPMD 281000Z 30004KT 9999 -SHRA SCT020 BKN080 BKN250 30/25 Q1007 RMK A2974,RPMD,2023-04-28T10:00:00Z,7.12,125.65,30.0,25.0,300,4,,6.21,29.734253,,,,,,,,,,-SHRA,SCT,2000,BKN,8000,BKN,25000,,,VFR,,,,,,,,,,,,METAR,19.0
RPLL 281000Z 13008KT 090V190 9999 FEW025 32/23/23 Q1009 NOSIG RMK A2980,RPLL,2023-04-28T10:00:00Z,14.52,121.0,23.0,23.0,130,8,,6.21,29.793306,,,,,,TRUE,,,,,FEW,2500,,,,,,,VFR,,,,,,,,,,,,METAR,15.0
RPLI 281000Z 22005KT 180V250 9999 FEW017CB SCT100 31/23 Q1009 NOSIG RMK A2980 CB SE,RPLI,2023-04-28T10:00:00Z,18.17,120.52,31.0,23.0,220,5,,6.21,29.793306,,,,,,TRUE,,,,,FEW,1700,SCT,10000,,,,,VFR,,,,,,,,,,,,METAR,5.0
RPLC 281000Z 16012KT 8000 SCT020 BKN300 33/23 Q1009 NOSIG RMK A2980,RPLC,2023-04-28T10:00:00Z,15.18,120.55,33.0,23.0,160,12,,4.97,29.793306,,,,,,TRUE,,,,,SCT,2000,BKN,30000,,,,,MVFR,,,,,,,,,,,,METAR,138.0
RPLB 281000Z 34006KT 270V050 9999 FEW020 31/23 Q1009 NOSIG RMK A2980,RPLB,2023-04-28T10:00:00Z,14.8,120.27,31.0,23.0,340,6,,6.21,29.793306,,,,,,TRUE,,,,,FEW,2000,,,,,,,VFR,,,,,,,,,,,,SPECI,19.0
ROYN 281000Z AUTO 13007KT 110V170 9999 FEW010 SCT070 BKN090 25/23 Q1013,ROYN,2023-04-28T10:00:00Z,24.47,122.97,25.0,23.0,130,7,,6.21,29.911417,,,TRUE,,,,,,,,FEW,1000,SCT,7000,BKN,9000,,,VFR,,,,,,,,,,,,METAR,21.0
RORY 281000Z AUTO 13009KT 9999 FEW011 SCT180 23/21 Q1015,RORY,2023-04-28T10:00:00Z,27.05,128.4,23.0,21.0,130,9,,6.21,29.970472,,,TRUE,,,,,,,,FEW,1100,SCT,18000,,,,,VFR,,,,,,,,,,,,METAR,13.0
RORT 281000Z AUTO 12007KT 070V180 9999 FEW011 OVC070 25/22 Q1013,RORT,2023-04-28T10:00:00Z,24.63,124.7,25.0,22.0,120,7,,6.21,29.911417,,,TRUE,,,,,,,,FEW,1100,OVC,7000,,,,,VFR,,,,,,,,,,,,METAR,9.0
RORS 281000Z 13010KT 9999 FEW020 SCT/// 25/22 Q1013,RORS,2023-04-28T10:00:00Z,24.82,125.15,25.0,22.0,130,10,,6.21,29.911417,,,,,,,,,,,FEW,2000,,,,,,,VFR,,,,,,,,,,,,METAR,13.0
RORK 281000Z AUTO 09013KT 9999 FEW007 BKN023 23/22 Q1016,RORK,2023-04-28T10:00:00Z,25.93,131.32,23.0,22.0,90,13,,6.21,30.0,,,TRUE,,,,,,,,FEW,700,BKN,2300,,,,,MVFR,,,,,,,,,,,,METAR,11.0
ROMY 281000Z 12010KT 9999 FEW013 SCT/// 24/22 Q1014,ROMY,2023-04-28T10:00:00Z,24.78,125.27,24.0,22.0,120,10,,6.21,29.940945,,,,,,,,,,,FEW,1300,,,,,,,VFR,,,,,,,,,,,,METAR,38.0
ROMD 281000Z AUTO VRB05KT 9999 FEW007 OVC021 23/22 Q1016,ROMD,2023-04-28T10:00:00Z,25.83,131.25,23.0,22.0,0,5,,6.21,30.0,,,TRUE,,,,,,,,FEW,700,OVC,2100,,,,,MVFR,,,,,,,,,,,,METAR,45.0
ROIG 281000Z 12007KT 9999 FEW010 BKN070 25/23 Q1013,ROIG,2023-04-28T10:00:00Z,24.38,124.23,25.0,23.0,120,7,,6.21,29.911417,,,,,,,,,,,FEW,1000,BKN,7000,,,,,VFR,,,,,,,,,,,,METAR,37.0
ROAH 281000Z 13009KT 9999 FEW025 BKN/// 24/19 Q1015,ROAH,2023-04-28T10:00:00Z,26.18,127.65,24.0,19.0,130,9,,6.21,29.970472,,,,,,,,,,,FEW,2500,,,,,,,VFR,,,,,,,,,,,,METAR,6.0
RKTU 281000Z 25007KT CAVOK 20/12 Q1013,RKTU,2023-04-28T10:00:00Z,36.7,127.5,20.0,12.0,250,7,,6.21,29.911417,,,,,,,,,,,CAVOK,,,,,,,,VFR,,,,,,,,,,,,METAR,46.0
RKTN 281000Z 24008KT CAVOK 21/10 Q1014,RKTN,2023-04-28T10:00:00Z,35.88,128.65,21.0,10.0,240,8,,6.21,29.940945,,,,,,,,,,,CAVOK,,,,,,,,VFR,,,,,,,,,,,,METAR,25.0
RKSS 281000Z 32002KT 9999 BKN035 17/08 Q1014 NOSIG,RKSS,2023-04-28T10:00:00Z,37.55,126.78,17.0,8.0,320,2,,6.21,29.940945,,,,,,TRUE,,,,,BKN,3500,,,,,,,VFR,,,,,,,,,,,,METAR,18.0
RKSM 281000Z 27003KT 9999 BKN040 19/08 A2994,RKSM,2023-04-28T10:00:00Z,37.43,127.12,19.0,8.0,270,3,,6.21,29.940945,,,,,,,,,,,BKN,4000,,,,,,,VFR,,,,,,,,,,,,METAR,18.0
RKPK 281000Z 20008KT 9999 SCT030 BKN140 BKN200 18/12 Q1016,RKPK,2023-04-28T10:00:00Z,35.17,128.93,18.0,12.0,200,8,,6.21,30.0,,,,,,,,,,,SCT,3000,BKN,14000,BKN,20000,,,VFR,,,,,,,,,,,,METAR,3.0
RKPC 281000Z 24003KT 200V360 9999 BKN035 OVC100 20/13 Q1014 NOSIG,RKPC,2023-04-28T10:00:00Z,33.5,126.48,20.0,13.0,240,3,,6.21,29.940945,,,,,,TRUE,,,,,BKN,3500,OVC,10000,,,,,VFR,,,,,,,,,,,,METAR,23.0
RKNY 281000Z 28017G29KT CAVOK 21/03 Q1011 WS ALL RWY NOSIG,RKNY,2023-04-28T10:00:00Z,38.07,128.67,21.0,3.0,280,17,29,6.21,29.852362,,,,,,TRUE,,,,,CAVOK,,,,,,,,VFR,,,,,,,,,,,,METAR,76.0
RKJB 281000Z 14007KT 9999 BKN045 19/12 Q1014 NOSIG,RKJB,2023-04-28T10:00:00Z,34.98,126.38,19.0,12.0,140,7,,6.21,29.940945,,,,,,TRUE,,,,,BKN,4500,,,,,,,VFR,,,,,,,,,,,,METAR,16.0
RJTT 281000Z 19018KT CAVOK 19/13 Q1019 NOSIG,RJTT,2023-04-28T10:00:00Z,35.55,139.77,19.0,13.0,190,18,,6.21,30.088583,,,,,,TRUE,,,,,CAVOK,,,,,,,,VFR,,,,,,,,,,,,METAR,5.0
RJSY 281000Z 21002KT CAVOK 14/05 Q1018,RJSY,2023-04-28T10:00:00Z,38.82,139.78,14.0,5.0,210,2,,6.21,30.059055,,,,,,,,,,,CAVOK,,,,,,,,VFR,,,,,,,,,,,,METAR,17.0
RJSS 281000Z 03004KT CAVOK 16/14 Q1018,RJSS,2023-04-28T10:00:00Z,38.13,140.92,16.0,14.0,30,4,,6.21,30.059055,,,,,,,,,,,CAVOK,,,,,,,,VFR,,,,,,,,,,,,METAR,5.0
RJSR 281000Z 14003KT 090V160 CAVOK 14/M00 Q1018,RJSR,2023-04-28T10:00:00Z,40.18,140.37,14.0,0.0,140,3,,6.21,30.059055,,,,,,,,,,,CAVOK,,,,,,,,VFR,,,,,,,,,,,,METAR,83.0
RJSN 281000Z 34004KT CAVOK 16/10 Q1018,RJSN,2023-04-28T10:00:00Z,37.95,139.12,16.0,10.0,340,4,,6.21,30.059055,,,,,,,,,,,CAVOK,,,,,,,,VFR,,,,,,,,,,,,METAR,4.0
RJSM 281000Z 11006KT 9999 FEW030 SCT180 10/03 Q1018,RJSM,2023-04-28T10:00:00Z,40.7,141.37,10.0,3.0,110,6,,6.21,30.059055,,,,,,,,,,,FEW,3000,SCT,18000,,,,,VFR,,,,,,,,,,,,METAR,31.0
RJSK 281000Z 08003KT CAVOK 15/01 Q1018,RJSK,2023-04-28T10:00:00Z,39.62,140.22,15.0,1.0,80,3,,6.21,30.059055,,,,,,,,,,,CAVOK,,,,,,,,VFR,,,,,,,,,,,,METAR,95.0
RJSI 281000Z 03002KT CAVOK 15/03 Q1018,RJSI,2023-04-28T10:00:00Z,39.42,141.13,15.0,3.0,30,2,,6.21,30.059055,,,,,,,,,,,CAVOK,,,,,,,,VFR,,,,,,,,,,,,METAR,89.0
RJSF 281000Z 16007KT CAVOK 18/09 Q1019,RJSF,2023-04-28T10:00:00Z,37.22,140.42,18.0,9.0,160,7,,6.21,30.088583,,,,,,,,,,,CAVOK,,,,,,,,VFR,,,,,,,,,,,,METAR,373.0
RJSC 281000Z 01009KT 9999 FEW050 SCT/// 17/05 Q1018,RJSC,2023-04-28T10:00:00Z,38.42,140.37,17.0,5.0,10,9,,6.21,30.059055,,,,,,,,,,,FEW,5000,,,,,,,VFR,,,,,,,,,,,,METAR,104.0
RJSA 281000Z 20006KT CAVOK 14/M01 Q1017,RJSA,2023-04-28T10:00:00Z,40.72,140.68,14.0,-1.0,200,6,,6.21,30.029528,,,,,,,,,,,CAVOK,,,,,,,,VFR,,,,,,,,,,,,METAR,196.0
RJOY 281000Z 31004KT CAVOK 19/12 Q1019,RJOY,2023-04-28T10:00:00Z,34.6,135.6,19.0,12.0,310,4,,6.21,30.088583,,,,,,,,,,,CAVOK,,,,,,,,VFR,,,,,,,,,,,,METAR,10.0
RJOW 281000Z VRB01KT CAVOK 17/13 Q1017,RJOW,2023-04-28T10:00:00Z,34.67,131.8,17.0,13.0,0,1,,6.21,30.029528,,,,,,,,,,,CAVOK,,,,,,,,VFR,,,,,,,,,,,,METAR,54.0
RJOT 281000Z VRB02KT CAVOK 17/12 Q1018,RJOT,2023-04-28T10:00:00Z,34.22,134.02,17.0,12.0,0,2,,6.21,30.059055,,,,,,,,,,,CAVOK,,,,,,,,VFR,,,,,,,,,,,,METAR,181.0
RJOS 281000Z 16019KT 9999 FEW030 18/13 Q1018,RJOS,2023-04-28T10:00:00Z,34.12,134.62,18.0,13.0,160,19,,6.21,30.059055,,,,,,,,,,,FEW,3000,,,,,,,VFR,,,,,,,,,,,,METAR,3.0
RJOR 281000Z 25002KT CAVOK 16/12 Q1017,RJOR,2023-04-28T10:00:00Z,35.52,134.17,16.0,12.0,250,2,,6.21,30.029528,,,,,,,,,,,CAVOK,,,,,,,,VFR,,,,,,,,,,,,METAR,11.0
RJOO 281000Z 24007KT 190V300 9999 FEW030 18/12 Q1019,RJOO,2023-04-28T10:00:00Z,34.78,135.43,18.0,12.0,240,7,,6.21,30.088583,,,,,,,,,,,FEW,3000,,,,,,,VFR,,,,,,,,,,,,METAR,11.0
RJOM 281000Z 01005KT 9999 FEW035 19/11 Q1018,RJOM,2023-04-28T10:00:00Z,33.82,132.68,19.0,11.0,10,5,,6.21,30.059055,,,,,,,,,,,FEW,3500,,,,,,,VFR,,,,,,,,,,,,METAR,3.0
RJOK 281000Z 14005KT 9999 FEW030 SCT/// 17/13 Q1020,RJOK,2023-04-28T10:00:00Z,33.53,133.67,17.0,13.0,140,5,,6.21,30.11811,,,,,,,,,,,FEW,3000,,,,,,,VFR,,,,,,,,,,,,METAR,7.0
RJOH 281000Z 10005KT 9999 FEW/// 17/11 Q1017,RJOH,2023-04-28T10:00:00Z,35.48,133.25,17.0,11.0,100,5,,6.21,30.029528,,,,,,,,,,,,,,,,,,,,,,,,,,,,,,,METAR,6.0
RJOC 281000Z 24005KT CAVOK 19/10 Q1017,RJOC,2023-04-28T10:00:00Z,35.42,132.88,19.0,10.0,240,5,,6.21,30.029528,,,,,,,,,,,CAVOK,,,,,,,,VFR,,,,,,,,,,,,METAR,2.0
RJOB 281000Z VRB02KT 9999 FEW025 15/12 Q1018,RJOB,2023-04-28T10:00:00Z,34.75,133.85,15.0,12.0,0,2,,6.21,30.059055,,,,,,,,,,,FEW,2500,,,,,,,VFR,,,,,,,,,,,,METAR,242.0
RJOA 281000Z 26003KT CAVOK 16/09 Q1019,RJOA,2023-04-28T10:00:00Z,34.43,132.92,16.0,9.0,260,3,,6.21,30.088583,,,,,,,,,,,CAVOK,,,,,,,,VFR,,,,,,,,,,,,METAR,318.0
RJNW 281000Z 07003KT CAVOK 13/08 Q1018,RJNW,2023-04-28T10:00:00Z,37.3,136.97,13.0,8.0,70,3,,6.21,30.059055,,,,,,,,,,,CAVOK,,,,,,,,VFR,,,,,,,,,,,,METAR,222.0
RJNT 281000Z 07003KT 020V100 CAVOK 20/07 Q1018,RJNT,2023-04-28T10:00:00Z,36.63,137.18,20.0,7.0,70,3,,6.21,30.059055,,,,,,,,,,,CAVOK,,,,,,,,VFR,,,,,,,,,,,,METAR,30.0
RJNS 281000Z 24007KT 9999 FEW030 BKN/// 16/10 Q1021,RJNS,2023-04-28T10:00:00Z,34.8,138.18,16.0,10.0,240,7,,6.21,30.147638,,,,,,,,,,,FEW,3000,,,,,,,VFR,,,,,,,,,,,,METAR,133.0
RJNK 281000Z 02002KT 9999 FEW250 18/06 Q1018,RJNK,2023-04-28T10:00:00Z,36.38,136.42,18.0,6.0,20,2,,6.21,30.059055,,,,,,,,,,,FEW,25000,,,,,,,VFR,,,,,,,,,,,,METAR,7.0
RJKI 281000Z AUTO 13004KT 110V170 9999 FEW014 BKN160 OVC180 22/19 Q1016,RJKI,2023-04-28T10:00:00Z,28.32,129.92,22.0,19.0,130,4,,6.21,30.0,,,TRUE,,,,,,,,FEW,1400,BKN,16000,OVC,18000,,,VFR,,,,,,,,,,,,METAR,6.0
RJKA 281000Z 13008KT 9999 FEW013 SCT020 BKN030 22/20 Q1016,RJKA,2023-04-28T10:00:00Z,28.42,129.72,22.0,20.0,130,8,,6.21,30.0,,,,,,,,,,,FEW,1300,SCT,2000,BKN,3000,,,MVFR,,,,,,,,,,,,METAR,7.0
RJGG 281000Z 13010KT 9999 FEW030 17/13 Q1020 NOSIG,RJGG,2023-04-28T10:00:00Z,34.87,136.8,17.0,13.0,130,10,,6.21,30.11811,,,,,,TRUE,,,,,FEW,3000,,,,,,,VFR,,,,,,,,,,,,METAR,5.0
RJFU 281000Z 26002KT 9999 FEW050 BKN060 BKN140 21/14 Q1016,RJFU,2023-04-28T10:00:00Z,32.92,129.92,21.0,14.0,260,2,,6.21,30.0,,,,,,,,,,,FEW,5000,BKN,6000,BKN,14000,,,VFR,,,,,,,,,,,,METAR,2.0
RJFT 281000Z 23003KT 170V280 9999 FEW040 SCT060 BKN080 20/12 Q1017,RJFT,2023-04-28T10:00:00Z,32.83,130.85,20.0,12.0,230,3,,6.21,30.029528,,,,,,,,,,,FEW,4000,SCT,6000,BKN,8000,,,VFR,,,,,,,,,,,,METAR,188.0
RJFS 281000Z 26005KT 9999 FEW035 SCT050 BKN070 21/15 Q1016,RJFS,2023-04-28T10:00:00Z,33.15,130.3,21.0,15.0,260,5,,6.21,30.0,,,,,,,,,,,FEW,3500,SCT,5000,BKN,7000,,,VFR,,,,,,,,,,,,METAR,2.0
RJFR 281000Z 05009KT 9999 FEW030 SCT090 BKN180 17/14 Q1017,RJFR,2023-04-28T10:00:00Z,33.83,131.03,17.0,14.0,50,9,,6.21,30.029528,,,,,,,,,,,FEW,3000,SCT,9000,BKN,18000,,,VFR,,,,,,,,,,,,METAR,9.0
RJFO 281000Z 15015KT 9999 FEW045 BKN060 17/14 Q1018,RJFO,2023-04-28T10:00:00Z,33.47,131.73,17.0,14.0,150,15,,6.21,30.059055,,,,,,,,,,,FEW,4500,BKN,6000,,,,,VFR,,,,,,,,,,,,METAR,3.0
RJFM 281000Z 11010KT 9999 FEW015 BKN050 19/15 Q1019,RJFM,2023-04-28T10:00:00Z,31.87,131.43,19.0,15.0,110,10,,6.21,30.088583,,,,,,,,,,,FEW,1500,BKN,5000,,,,,VFR,,,,,,,,,,,,METAR,10.0
RJFK 281000Z 12006KT 9999 FEW030 SCT100 18/13 Q1018,RJFK,2023-04-28T10:00:00Z,31.8,130.72,18.0,13.0,120,6,,6.21,30.059055,,,,,,,,,,,FEW,3000,SCT,10000,,,,,VFR,,,,,,,,,,,,METAR,271.0
RJFF 281000Z 01004KT 320V070 9999 FEW030 SCT060 BKN140 21/12 Q1016 NOSIG,RJFF,2023-04-28T10:00:00Z,33.58,130.45,21.0,12.0,10,4,,6.21,30.0,,,,,,TRUE,,,,,FEW,3000,SCT,6000,BKN,14000,,,VFR,,,,,,,,,,,,METAR,7.0
RJFE 281000Z 16009KT 9999 FEW015 SCT030 BKN040 19/16 Q1016,RJFE,2023-04-28T10:00:00Z,32.67,128.82,19.0,16.0,160,9,,6.21,30.0,,,,,,,,,,,FEW,1500,SCT,3000,BKN,4000,,,VFR,,,,,,,,,,,,METAR,80.0
RJEC 281000Z 22005KT 9999 -SHRA FEW020 BKN050 BKN080 12/07 Q1017,RJEC,2023-04-28T10:00:00Z,43.67,142.43,12.0,7.0,220,5,,6.21,30.029528,,,,,,,,,,-SHRA,FEW,2000,BKN,5000,BKN,8000,,,VFR,,,,,,,,,,,,METAR,209.0
RJDT 281000Z VRB04KT 9999 FEW030 BKN070 BKN080 19/14 Q1016,RJDT,2023-04-28T10:00:00Z,34.28,129.32,19.0,14.0,0,4,,6.21,30.0,,,,,,,,,,,FEW,3000,BKN,7000,BKN,8000,,,VFR,,,,,,,,,,,,METAR,61.0
RJDC 281000Z 06014KT 9999 FEW040 SCT060 17/14 Q1017,RJDC,2023-04-28T10:00:00Z,33.92,131.27,17.0,14.0,60,14,,6.21,30.029528,,,,,,,,,,,FEW,4000,SCT,6000,,,,,VFR,,,,,,,,,,,,METAR,5.0
RJDB 281000Z AUTO 24007KT 200V280 9999 NSC 20/15 Q1016,RJDB,2023-04-28T10:00:00Z,33.75,129.78,20.0,15.0,240,7,,6.21,30.0,,,TRUE,,,,,,,,CLR,,,,,,,,VFR,,,,,,,,,,,,METAR,13.0
RJCO 281000Z 13003KT 9999 FEW030 BKN060 12/08 Q1018,RJCO,2023-04-28T10:00:00Z,43.12,141.37,12.0,8.0,130,3,,6.21,30.059055,,,,,,,,,,,FEW,3000,BKN,6000,,,,,VFR,,,,,,,,,,,,METAR,7.0
RJCM 281000Z VRB02KT 9999 FEW030 BKN040 BKN130 07/M03 Q1018,RJCM,2023-04-28T10:00:00Z,43.88,144.17,7.0,-3.0,0,2,,6.21,30.059055,,,,,,,,,,,FEW,3000,BKN,4000,BKN,13000,,,VFR,,,,,,,,,,,,METAR,30.0
RJCK 281000Z 11003KT 070V160 9999 FEW040 BKN090 08/03 Q1018,RJCK,2023-04-28T10:00:00Z,43.03,144.18,8.0,3.0,110,3,,6.21,30.059055,,,,,,,,,,,FEW,4000,BKN,9000,,,,,VFR,,,,,,,,,,,,METAR,94.0
RJCH 281000Z VRB02KT 9999 FEW030 SCT/// 11/09 Q1018,RJCH,2023-04-28T10:00:00Z,41.77,140.82,11.0,9.0,0,2,,6.21,30.059055,,,,,,,,,,,FEW,3000,,,,,,,VFR,,,,,,,,,,,,METAR,36.0
RJCC 281000Z 14008KT 9999 FEW025 BKN070 11/07 Q1018,RJCC,2023-04-28T10:00:00Z,42.77,141.68,11.0,7.0,140,8,,6.21,30.059055,,,,,,,,,,,FEW,2500,BKN,7000,,,,,VFR,,,,,,,,,,,,METAR,19.0
RJCB 281000Z 11012KT 9999 FEW040 BKN060 09/02 Q1018,RJCB,2023-04-28T10:00:00Z,42.72,143.22,9.0,2.0,110,12,,6.21,30.059055,,,,,,,,,,,FEW,4000,BKN,6000,,,,,VFR,,,,,,,,,,,,METAR,149.0
RJBE 281000Z 22012KT 9999 FEW025 17/13 Q1019,RJBE,2023-04-28T10:00:00Z,34.63,135.23,17.0,13.0,220,12,,6.21,30.088583,,,,,,,,,,,FEW,2500,,,,,,,VFR,,,,,,,,,,,,METAR,5.0
RJBD 281000Z 15008KT 9999 FEW035 SCT/// 17/10 Q1020,RJBD,2023-04-28T10:00:00Z,33.67,135.37,17.0,10.0,150,8,,6.21,30.11811,,,,,,,,,,,FEW,3500,,,,,,,VFR,,,,,,,,,,,,METAR,91.0
RJBB 281000Z 21007KT 9999 FEW020 18/12 Q1019 NOSIG,RJBB,2023-04-28T10:00:00Z,34.43,135.25,18.0,12.0,210,7,,6.21,30.088583,,,,,,TRUE,,,,,FEW,2000,,,,,,,VFR,,,,,,,,,,,,METAR,8.0
RJAH 281000Z 24007KT 220V280 9999 FEW030 BKN/// 18/09 Q1019,RJAH,2023-04-28T10:00:00Z,36.17,140.42,18.0,9.0,240,7,,6.21,30.088583,,,,,,,,,,,FEW,3000,,,,,,,VFR,,,,,,,,,,,,METAR,31.0
RJAA 281000Z 18006KT CAVOK 18/13 Q1019 NOSIG,RJAA,2023-04-28T10:00:00Z,35.77,140.38,18.0,13.0,180,6,,6.21,30.088583,,,,,,TRUE,,,,,CAVOK,,,,,,,,VFR,,,,,,,,,,,,METAR,36.0
PWAK 281000Z AUTO 06013KT 10SM SCT020 25/21 A2995 RMK AO2 SLP148,PWAK,2023-04-28T10:00:00Z,19.28,166.62,25.0,21.0,60,13,,10.0,29.949802,1014.8,,TRUE,TRUE,,,,,,,SCT,2000,,,,,,,VFR,,,,,,,,,,,,METAR,7.0
PLCH 281000Z 11003KT 9999 FEW020 26/24 Q1010,PLCH,2023-04-28T10:00:00Z,1.98,-157.35,26.0,24.0,110,3,,6.21,29.822834,,,,,,,,,,,FEW,2000,,,,,,,VFR,,,,,,,,,,,,METAR,5.0
PAPB 281000Z AUTO 02013KT 4SM -SN OVC038 03/M04 A2954 RMK AO2 P0000 T00281039 TSNO $,PAPB,2023-04-28T10:00:00Z,56.58,-169.67,2.8,-3.9,20,13,,4.0,29.53937,,,TRUE,TRUE,TRUE,,TRUE,,,-SN,OVC,3800,,,,,,,MVFR,,,,,,0.005,,,,,,SPECI,33.0
OTHH 281000Z 08006KT CAVOK 36/10 Q1007 NOSIG,OTHH,2023-04-28T10:00:00Z,25.27,51.6,36.0,10.0,80,6,,6.21,29.734253,,,,,,TRUE,,,,,CAVOK,,,,,,,,VFR,,,,,,,,,,,,METAR,3.0
OSLK 281000Z 32004KT 8000 SCT026 CB BKN030 21/11 Q1009,OSLK,2023-04-28T10:00:00Z,35.4,35.95,21.0,11.0,320,4,,4.97,29.793306,,,,,,,,,,,SCT,2600,BKN,3000,,,,,MVFR,,,,,,,,,,,,METAR,47.0
OSDI 281000Z 22024KT 9999 SCT030 23/05 Q1010,OSDI,2023-04-28T10:00:00Z,33.42,36.52,23.0,5.0,220,24,,6.21,29.822834,,,,,,,,,,,SCT,3000,,,,,,,VFR,,,,,,,,,,,,METAR,614.0
OSAP 281000Z 25007KT 9999 BKN026 23/06 Q1009,OSAP,2023-04-28T10:00:00Z,36.17,37.22,23.0,6.0,250,7,,6.21,29.793306,,,,,,,,,,,BKN,2600,,,,,,,MVFR,,,,,,,,,,,,METAR,390.0
ORSU 281000Z 14007KT CAVOK 26/12 Q1013,ORSU,2023-04-28T10:00:00Z,35.57,45.32,26.0,12.0,140,7,,6.21,29.911417,,,,,,,,,,,CAVOK,,,,,,,,VFR,,,,,,,,,,,,METAR,760.0
ORNI 281000Z 14010KT 8000 SCT040 38/02 Q1005,ORNI,2023-04-28T10:00:00Z,31.98,44.4,38.0,2.0,140,10,,4.97,29.675198,,,,,,,,,,,SCT,4000,,,,,,,MVFR,,,,,,,,,,,,METAR,33.0
ORMM 281000Z 32010KT CAVOK 38/M01 Q1006 NOSIG,ORMM,2023-04-28T10:00:00Z,30.53,47.67,38.0,-1.0,320,10,,6.21,29.704725,,,,,,TRUE,,,,,CAVOK,,,,,,,,VFR,,,,,,,,,,,,METAR,2.0
ORER 281000Z 12004KT 9000 FEW040 SCT080 30/05 Q1010,ORER,2023-04-28T10:00:00Z,36.23,43.97,30.0,5.0,120,4,,5.59,29.822834,,,,,,,,,,,FEW,4000,SCT,8000,,,,,VFR,,,,,,,,,,,,METAR,399.0
ORBI 281000Z 17011KT 140V200 CAVOK 38/06 Q1005,ORBI,2023-04-28T10:00:00Z,33.27,44.23,38.0,6.0,170,11,,6.21,29.675198,,,,,,,,,,,CAVOK,,,,,,,,VFR,,,,,,,,,,,,METAR,37.0
OPST 281000Z 36012KT 4000 HZ SCT040 SCT100 31/13 Q1011 TEMPO 36015G30KT 32%,OPST,2023-04-28T10:00:00Z,32.53,74.37,31.0,13.0,360,12,,2.49,29.852362,,,,,,,,,,HZ,SCT,4000,SCT,10000,,,,,IFR,,,,,,,,,,,,METAR,234.0
OPSK 281000Z 18010KT 5000 HZ SCT040 SCT100 36/16 Q1004 NOSIG,OPSK,2023-04-28T10:00:00Z,27.72,68.8,36.0,16.0,180,10,,3.11,29.64567,,,,,,TRUE,,,,HZ,SCT,4000,SCT,10000,,,,,MVFR,,,,,,,,,,,,METAR,62.0
OPNH 281000Z 18018KT 6000 SCT100 SCT200 33/21 Q1007,OPNH,2023-04-28T10:00:00Z,26.22,68.38,33.0,21.0,180,18,,3.73,29.734253,,,,,,,,,,,SCT,10000,SCT,20000,,,,,MVFR,,,,,,,,,,,,METAR,30.0
OMSJ 281000Z 27013KT CAVOK 31/09 Q1008 NOSIG,OMSJ,2023-04-28T10:00:00Z,25.32,55.52,31.0,9.0,270,13,,6.21,29.763779,,,,,,TRUE,,,,,CAVOK,,,,,,,,VFR,,,,,,,,,,,,METAR,33.0
OMRK 281000Z 29009KT CAVOK 33/11 Q1007 A2976,OMRK,2023-04-28T10:00:00Z,25.62,55.93,33.0,11.0,290,9,,6.21,29.734253,,,,,,,,,,,CAVOK,,,,,,,,VFR,,,,,,,,,,,,METAR,18.0
OMFJ 281000Z 04011KT CAVOK 28/20 Q1006 A2973,OMFJ,2023-04-28T10:00:00Z,25.1,56.32,28.0,20.0,40,11,,6.21,29.704725,,,,,,,,,,,CAVOK,,,,,,,,VFR,,,,,,,,,,,,METAR,27.0
OMDW 281000Z 29012KT 270V330 CAVOK 32/08 Q1008 NOSIG,OMDW,2023-04-28T10:00:00Z,24.9,55.17,32.0,8.0,290,12,,6.21,29.763779,,,,,,TRUE,,,,,CAVOK,,,,,,,,VFR,,,,,,,,,,,,METAR,34.0
OMDB 281000Z 29012KT CAVOK 31/13 Q1007 NOSIG,OMDB,2023-04-28T10:00:00Z,25.25,55.37,31.0,13.0,290,12,,6.21,29.734253,,,,,,TRUE,,,,,CAVOK,,,,,,,,VFR,,,,,,,,,,,,METAR,5.0
OMAL 281000Z VRB07KT CAVOK 34/M02 Q1008 NOSIG,OMAL,2023-04-28T10:00:00Z,24.25,55.6,34.0,-2.0,0,7,,6.21,29.763779,,,,,,TRUE,,,,,CAVOK,,,,,,,,VFR,,,,,,,,,,,,METAR,247.0
OMAD 281000Z 34010KT 310V010 CAVOK 32/10 Q1007 NOSIG,OMAD,2023-04-28T10:00:00Z,24.42,54.47,32.0,10.0,340,10,,6.21,29.734253,,,,,,TRUE,,,,,CAVOK,,,,,,,,VFR,,,,,,,,,,,,METAR,9.0
OMAA 281000Z 29011KT CAVOK 32/10 Q1007 NOSIG,OMAA,2023-04-28T10:00:00Z,24.42,54.65,32.0,10.0,290,11,,6.21,29.734253,,,,,,TRUE,,,,,CAVOK,,,,,,,,VFR,,,,,,,,,,,,METAR,13.0
OLBA 281000Z 23010KT 8000 BKN026 22/14 Q1012 NOSIG,OLBA,2023-04-28T10:00:00Z,33.82,35.48,22.0,14.0,230,10,,4.97,29.88189,,,,,,TRUE,,,,,BKN,2600,,,,,,,MVFR,,,,,,,,,,,,METAR,29.0
OKKK 281000Z 09005KT CAVOK 36/02 Q1006 NOSIG,OKKK,2023-04-28T10:00:00Z,,,36.0,2.0,90,5,,6.21,29.704725,,,,,,TRUE,,,,,CAVOK,,,,,,,,VFR,,,,,,,,,,,,METAR,
OJAQ 281000Z 02005KT CAVOK 29/05 Q1009 NOSIG,OJAQ,2023-04-28T10:00:00Z,29.62,35.02,29.0,5.0,20,5,,6.21,29.793306,,,,,,TRUE,,,,,CAVOK,,,,,,,,VFR,,,,,,,,,,,,METAR,45.0
OJAM 281000Z 25012KT 6000 SCT030 20/09 Q1012 NOSIG,OJAM,2023-04-28T10:00:00Z,31.98,35.98,20.0,9.0,250,12,,3.73,29.88189,,,,,,TRUE,,,,,SCT,3000,,,,,,,MVFR,,,,,,,,,,,,METAR,765.0
OJAI 281000Z 26014KT 4500 HZ FEW035 21/05 Q1012 NOSIG,OJAI,2023-04-28T10:00:00Z,31.72,36.0,21.0,5.0,260,14,,2.8,29.88189,,,,,,TRUE,,,,HZ,FEW,3500,,,,,,,IFR,,,,,,,,,,,,METAR,723.0
OIZJ 281000Z 29010KT 9999 FEW030TCU 30/21 Q1005,OIZJ,2023-04-28T10:00:00Z,25.65,57.8,30.0,21.0,290,10,,6.21,29.675198,,,,,,,,,,,FEW,3000,,,,,,,VFR,,,,,,,,,,,,METAR,6.0
OIZI 281000Z 22014KT 9999 FEW040 SCT100 31/10 Q1008,OIZI,2023-04-28T10:00:00Z,27.23,60.72,31.0,10.0,220,14,,6.21,29.763779,,,,,,,,,,,FEW,4000,SCT,10000,,,,,VFR,,,,,,,,,,,,METAR,622.0
OIZC 281000Z 18012KT 9999 FEW035 33/19 Q1004,OIZC,2023-04-28T10:00:00Z,25.45,60.38,33.0,19.0,180,12,,6.21,29.64567,,,,,,,,,,,FEW,3500,,,,,,,VFR,,,,,,,,,,,,METAR,13.0
OIZB 281000Z 02010KT CAVOK 37/M01 Q1005,OIZB,2023-04-28T10:00:00Z,31.1,61.55,37.0,-1.0,20,10,,6.21,29.675198,,,,,,,,,,,CAVOK,,,,,,,,VFR,,,,,,,,,,,,METAR,483.0
OIYY 281000Z 36002KT 9999 FEW035CB SCT040 25/07 Q1014 NOSIG,OIYY,2023-04-28T10:00:00Z,31.9,54.28,25.0,7.0,360,2,,6.21,29.940945,,,,,,TRUE,,,,,FEW,3500,SCT,4000,,,,,VFR,,,,,,,,,,,,METAR,1226.0
OITZ 281000Z 24010KT 9999 FEW035 23/M05 Q1015 A2998,OITZ,2023-04-28T10:00:00Z,36.77,48.37,23.0,-5.0,240,10,,6.21,29.970472,,,,,,,,,,,FEW,3500,,,,,,,VFR,,,,,,,,,,,,METAR,1630.0
OITR 281000Z 12010KT 9999 FEW035TCU SCT170 24/M03 Q1012 A2991,OITR,2023-04-28T10:00:00Z,37.67,45.07,24.0,-3.0,120,10,,6.21,29.88189,,,,,,,,,,,FEW,3500,SCT,17000,,,,,VFR,,,,,,,,,,,,METAR,1312.0
OITP 281000Z 10004KT CAVOK 25/23 Q1008,OITP,2023-04-28T10:00:00Z,39.6,47.88,25.0,23.0,100,4,,6.21,29.763779,,,,,,,,,,,CAVOK,,,,,,,,VFR,,,,,,,,,,,,METAR,72.0
OITM 281000Z 15004KT 9999 FEW035 25/M01 Q1013,OITM,2023-04-28T10:00:00Z,37.35,46.15,25.0,-1.0,150,4,,6.21,29.911417,,,,,,,,,,,FEW,3500,,,,,,,VFR,,,,,,,,,,,,METAR,1340.0
OITL 281000Z 15014KT 9999 FEW040 26/M01 Q1013 NOSIG,OITL,2023-04-28T10:00:00Z,38.33,48.42,26.0,-1.0,150,14,,6.21,29.911417,,,,,,TRUE,,,,,FEW,4000,,,,,,,VFR,,,,,,,,,,,,METAR,1314.0
OITK 281000Z 15014KT 9999 FEW035CB SCT090 BKN170 24/01 Q1012 A2990,OITK,2023-04-28T10:00:00Z,38.42,44.98,24.0,1.0,150,14,,6.21,29.88189,,,,,,,,,,,FEW,3500,SCT,9000,BKN,17000,,,VFR,,,,,,,,,,,,METAR,1192.0
OISY 281000Z 00000KT 9999 SCT040 BKN080 23/02 Q1019,OISY,2023-04-28T10:00:00Z,30.7,51.55,23.0,2.0,0,0,,6.21,30.088583,,,,,,,,,,,SCT,4000,BKN,8000,,,,,VFR,,,,,,,,,,,,METAR,1800.0
OISR 281000Z 24008KT 9999 FEW035TCU SCT040 32/15 Q1008 A2978 NOSIG,OISR,2023-04-28T10:00:00Z,27.37,53.2,32.0,15.0,240,8,,6.21,29.763779,,,,,,TRUE,,,,,FEW,3500,SCT,4000,,,,,VFR,,,,,,,,,,,,METAR,402.0
OISF 281000Z 00000KT 9999 SCT040 26/06 Q1014 A2995,OISF,2023-04-28T10:00:00Z,28.9,53.72,26.0,6.0,0,0,,6.21,29.940945,,,,,,,,,,,SCT,4000,,,,,,,VFR,,,,,,,,,,,,METAR,1305.0
OISA 281000Z 33004KT 9999 FEW040 19/02 Q1017 A3005,OISA,2023-04-28T10:00:00Z,31.03,52.78,19.0,2.0,330,4,,6.21,30.029528,,,,,,,,,,,FEW,4000,,,,,,,VFR,,,,,,,,,,,,METAR,1949.0
OINR 281000Z 06004KT 4000 BR BKN011 FEW022CB 20/17 Q1009,OINR,2023-04-28T10:00:00Z,36.9,50.67,20.0,17.0,60,4,,2.49,29.793306,,,,,,,,,,BR,BKN,1100,FEW,2200,,,,,IFR,,,,,,,,,,,,METAR,-19.0
OINK 281000Z 13006KT 9999 FEW025 BKN090 25/16 Q1008 A2978,OINK,2023-04-28T10:00:00Z,37.25,55.1,25.0,16.0,130,6,,6.21,29.763779,,,,,,,,,,,FEW,2500,BKN,9000,,,,,VFR,,,,,,,,,,,,METAR,30.0
OINE 281000Z 14004KT 9999 FEW035 SCT045CB BKN180 23/17 Q1010,OINE,2023-04-28T10:00:00Z,37.38,55.45,23.0,17.0,140,4,,6.21,29.822834,,,,,,,,,,,FEW,3500,SCT,4500,BKN,18000,,,VFR,,,,,,,,,,,,METAR,125.0
OINB 281000Z 33006KT CAVOK 23/16 Q1010,OINB,2023-04-28T10:00:00Z,36.72,52.65,23.0,16.0,330,6,,6.21,29.822834,,,,,,,,,,,CAVOK,,,,,,,,VFR,,,,,,,,,,,,METAR,-20.0
OIMT 281000Z AUTO 32004KT //// // ////// 32/07 Q1008,OIMT,2023-04-28T10:00:00Z,33.67,56.88,32.0,7.0,320,4,,,29.763779,,,TRUE,,,,,,,,,,,,,,,,,,,,,,,,,,,,METAR,693.0
OIMS 281000Z 30010KT 9999 FEW035 BKN200 30/04 Q1012,OIMS,2023-04-28T10:00:00Z,36.17,57.6,30.0,4.0,300,10,,6.21,29.88189,,,,,,,,,,,FEW,3500,BKN,20000,,,,,VFR,,,,,,,,,,,,METAR,920.0
OIMQ 281000Z 14006KT 9999 FEW031 SCT190 30/M02 Q1012,OIMQ,2023-04-28T10:00:00Z,35.27,58.47,30.0,-2.0,140,6,,6.21,29.88189,,,,,,,,,,,FEW,3100,SCT,19000,,,,,VFR,,,,,,,,,,,,METAR,1101.0
OIMN 281000Z VRB02KT 9999 FEW040 BKN090 BKN180 25/09 Q1013,OIMN,2023-04-28T10:00:00Z,37.48,57.3,25.0,9.0,0,2,,6.21,29.911417,,,,,,,,,,,FEW,4000,BKN,9000,BKN,18000,,,VFR,,,,,,,,,,,,METAR,1065.0
OIMJ 281000Z 23008KT 9999 FEW040TCU SCT040 23/09 Q1015,OIMJ,2023-04-28T10:00:00Z,36.43,55.1,23.0,9.0,230,8,,6.21,29.970472,,,,,,,,,,,FEW,4000,SCT,4000,,,,,VFR,,,,,,,,,,,,METAR,1285.0
OIMD 281000Z 03006KT CAVOK 31/M05 Q1008,OIMD,2023-04-28T10:00:00Z,34.38,58.63,31.0,-5.0,30,6,,6.21,29.763779,,,,,,,,,,,CAVOK,,,,,,,,VFR,,,,,,,,,,,,METAR,1097.0
OIMB 281000Z 17014KT 9999 FEW040TCU BKN190 28/M09 Q1013 A2991,OIMB,2023-04-28T10:00:00Z,32.9,59.28,28.0,-9.0,170,14,,6.21,29.911417,,,,,,,,,,,FEW,4000,BKN,19000,,,,,VFR,,,,,,,,,,,,METAR,1512.0
OIKQ 281000Z 23012KT CAVOK 31/16 Q1007 NOSIG,OIKQ,2023-04-28T10:00:00Z,26.75,55.9,31.0,16.0,230,12,,6.21,29.734253,,,,,,TRUE,,,,,CAVOK,,,,,,,,VFR,,,,,,,,,,,,METAR,9.0
OIKO 281000Z 20014KT 8000 FEW030CB 32/11 Q1006,OIKO,2023-04-28T10:00:00Z,27.1,57.07,32.0,11.0,200,14,,4.97,29.704725,,,,,,,,,,,FEW,3000,,,,,,,MVFR,,,,,,,,,,,,METAR,32.0
OIKK 281000Z 11014KT 9999 SCT030CB BKN040 14/09 Q1017 A3005 RETSRA,OIKK,2023-04-28T10:00:00Z,30.25,56.97,14.0,9.0,110,14,,6.21,30.029528,,,,,,,,,,,SCT,3000,BKN,4000,,,,,VFR,,,,,,,,,,,,METAR,1749.0
OIIK 281000Z 14004KT 9999 SCT035TCU 26/05 Q1014,OIIK,2023-04-28T10:00:00Z,36.25,50.05,26.0,5.0,140,4,,6.21,29.940945,,,,,,,,,,,SCT,3500,,,,,,,VFR,,,,,,,,,,,,METAR,1278.0
OIHM 281000Z 11002KT 9999 SCT040 21/00 Q1016,OIHM,2023-04-28T10:00:00Z,34.28,48.82,21.0,0.0,110,2,,6.21,30.0,,,,,,,,,,,SCT,4000,,,,,,,VFR,,,,,,,,,,,,METAR,1744.0
OIHH 281000Z 25004KT 9999 FEW040 24/M02 Q1016 A3000,OIHH,2023-04-28T10:00:00Z,34.87,48.55,24.0,-2.0,250,4,,6.21,30.0,,,,,,,,,,,FEW,4000,,,,,,,VFR,,,,,,,,,,,,METAR,1742.0
OIFS 281000Z 34008KT 9999 SCT030CB SCT035 21/M02 Q1018,OIFS,2023-04-28T10:00:00Z,32.28,50.85,21.0,-2.0,340,8,,6.21,30.059055,,,,,,,,,,,SCT,3000,SCT,3500,,,,,VFR,,,,,,,,,,,,METAR,2042.0
OIFK 281000Z 00000KT CAVOK 30/02 Q1011 A2988,OIFK,2023-04-28T10:00:00Z,33.9,51.58,30.0,2.0,0,0,,6.21,29.852362,,,,,,,,,,,CAVOK,,,,,,,,VFR,,,,,,,,,,,,METAR,1058.0
OICS 281000Z 19008KT CAVOK 25/00 Q1014 A2996,OICS,2023-04-28T10:00:00Z,35.25,47.02,25.0,0.0,190,8,,6.21,29.940945,,,,,,,,,,,CAVOK,,,,,,,,VFR,,,,,,,,,,,,METAR,1369.0
OICM 281000Z 10002KT CAVOK 36/04 Q1005,OICM,2023-04-28T10:00:00Z,,,36.0,4.0,100,2,,6.21,29.675198,,,,,,,,,,,CAVOK,,,,,,,,VFR,,,,,,,,,,,,METAR,
OICK 281000Z 26010KT 9999 FEW050 26/06 Q1013,OICK,2023-04-28T10:00:00Z,33.43,48.28,26.0,6.0,260,10,,6.21,29.911417,,,,,,,,,,,FEW,5000,,,,,,,VFR,,,,,,,,,,,,METAR,1156.0
OICJ 281000Z 13008KT 9999 FEW040 23/00 Q1016,OICJ,2023-04-28T10:00:00Z,33.9,48.75,23.0,0.0,130,8,,6.21,30.0,,,,,,,,,,,FEW,4000,,,,,,,VFR,,,,,,,,,,,,METAR,1565.0
OICC 281000Z 10004KT 9999 FEW050 24/04 Q1015 A2997,OICC,2023-04-28T10:00:00Z,34.35,47.17,24.0,4.0,100,4,,6.21,29.970472,,,,,,,,,,,FEW,5000,,,,,,,VFR,,,,,,,,,,,,METAR,1310.0
OIBV 281000Z 24006KT 8000 FEW030 28/19 Q1007,OIBV,2023-04-28T10:00:00Z,26.82,53.35,28.0,19.0,240,6,,4.97,29.734253,,,,,,,,,,,FEW,3000,,,,,,,MVFR,,,,,,,,,,,,METAR,23.0
OIBS 281000Z 33006KT 7000 NSC 29/18 Q1007,OIBS,2023-04-28T10:00:00Z,25.9,54.55,29.0,18.0,330,6,,4.35,29.734253,,,,,,,,,,,CLR,,,,,,,,MVFR,,,,,,,,,,,,METAR,4.0
OIBQ 281000Z 24008KT CAVOK 31/17 Q1007,OIBQ,2023-04-28T10:00:00Z,29.27,50.32,31.0,17.0,240,8,,6.21,29.734253,,,,,,,,,,,CAVOK,,,,,,,,VFR,,,,,,,,,,,,METAR,3.0
OIBL 281000Z 22008KT 8000 NSC 28/21 Q1006,OIBL,2023-04-28T10:00:00Z,26.53,54.82,28.0,21.0,220,8,,4.97,29.704725,,,,,,,,,,,CLR,,,,,,,,MVFR,,,,,,,,,,,,METAR,25.0
OIBJ 281000Z AUTO 23007KT //// // ////// 28/16 Q1011,OIBJ,2023-04-28T10:00:00Z,27.82,52.35,28.0,16.0,230,7,,,29.852362,,,TRUE,,,,,,,,,,,,,,,,,,,,,,,,,,,,METAR,647.0
OIBH 281000Z 21016KT CAVOK 30/19 Q1006 A2971,OIBH,2023-04-28T10:00:00Z,27.2,54.32,30.0,19.0,210,16,,6.21,29.704725,,,,,,,,,,,CAVOK,,,,,,,,VFR,,,,,,,,,,,,METAR,412.0
OIBB 281000Z 23012KT CAVOK 30/19 Q1007 A2974 NOSIG,OIBB,2023-04-28T10:00:00Z,28.93,50.83,30.0,19.0,230,12,,6.21,29.734253,,,,,,TRUE,,,,,CAVOK,,,,,,,,VFR,,,,,,,,,,,,METAR,15.0
OIBA 281000Z 29006KT CAVOK 29/21 Q1006,OIBA,2023-04-28T10:00:00Z,25.88,55.03,29.0,21.0,290,6,,6.21,29.704725,,,,,,,,,,,CAVOK,,,,,,,,VFR,,,,,,,,,,,,METAR,7.0
OIAM 281000Z 19008KT CAVOK 35/12 Q1006,OIAM,2023-04-28T10:00:00Z,30.55,49.15,35.0,12.0,190,8,,6.21,29.704725,,,,,,,,,,,CAVOK,,,,,,,,VFR,,,,,,,,,,,,METAR,7.0
OIAH 281000Z 29006KT 9999 FEW035CB SCT040 31/03 Q1011,OIAH,2023-04-28T10:00:00Z,30.33,50.83,31.0,3.0,290,6,,6.21,29.852362,,,,,,,,,,,FEW,3500,SCT,4000,,,,,VFR,,,,,,,,,,,,METAR,730.0
OIAG 281000Z 27006KT CAVOK 38/03 Q1006,OIAG,2023-04-28T10:00:00Z,30.73,49.68,38.0,3.0,270,6,,6.21,29.704725,,,,,,,,,,,CAVOK,,,,,,,,VFR,,,,,,,,,,,,METAR,17.0
OIAA 281000Z 31006KT CAVOK 37/M02 Q1007,OIAA,2023-04-28T10:00:00Z,30.35,48.22,37.0,-2.0,310,6,,6.21,29.734253,,,,,,,,,,,CAVOK,,,,,,,,VFR,,,,,,,,,,,,METAR,4.0
OEYN 281000Z 26019KT CAVOK 37/12 Q1006 NOSIG,OEYN,2023-04-28T10:00:00Z,24.13,38.07,37.0,12.0,260,19,,6.21,29.704725,,,,,,TRUE,,,,,CAVOK,,,,,,,,VFR,,,,,,,,,,,,METAR,20.0
OEWJ 281000Z 20009KT CAVOK 29/19 Q1009 NOSIG,OEWJ,2023-04-28T10:00:00Z,26.18,36.47,29.0,19.0,200,9,,6.21,29.793306,,,,,,TRUE,,,,,CAVOK,,,,,,,,VFR,,,,,,,,,,,,METAR,8.0
OEWD 281000Z 10006KT CAVOK 35/06 Q1010,OEWD,2023-04-28T10:00:00Z,20.5,45.2,35.0,6.0,100,6,,6.21,29.822834,,,,,,,,,,,CAVOK,,,,,,,,VFR,,,,,,,,,,,,METAR,629.0
OETR 281000Z 24012KT CAVOK 26/M02 Q1010 NOSIG,OETR,2023-04-28T10:00:00Z,31.7,38.73,26.0,-2.0,240,12,,6.21,29.822834,,,,,,TRUE,,,,,CAVOK,,,,,,,,VFR,,,,,,,,,,,,METAR,854.0
OETF 281000Z 16009KT 9999 SCT030 22/15 Q1019 NOSIG,OETF,2023-04-28T10:00:00Z,21.47,40.53,22.0,15.0,160,9,,6.21,30.088583,,,,,,TRUE,,,,,SCT,3000,,,,,,,VFR,,,,,,,,,,,,METAR,1460.0
OETB 281000Z 24012KT CAVOK 30/M07 Q1010 NOSIG,OETB,2023-04-28T10:00:00Z,28.37,36.62,30.0,-7.0,240,12,,6.21,29.822834,,,,,,TRUE,,,,,CAVOK,,,,,,,,VFR,,,,,,,,,,,,METAR,770.0
OESK 281000Z 36004KT CAVOK 31/M03 Q1011 NOSIG,OESK,2023-04-28T10:00:00Z,29.78,40.1,31.0,-3.0,360,4,,6.21,29.852362,,,,,,TRUE,,,,,CAVOK,,,,,,,,VFR,,,,,,,,,,,,METAR,671.0
OESH 281000Z 10006KT CAVOK 38/10 Q1010 NOSIG,OESH,2023-04-28T10:00:00Z,17.47,47.12,38.0,10.0,100,6,,6.21,29.822834,,,,,,TRUE,,,,,CAVOK,,,,,,,,VFR,,,,,,,,,,,,METAR,720.0
OERR 281000Z 00000KT CAVOK 32/00 Q1007 NOSIG,OERR,2023-04-28T10:00:00Z,30.9,41.13,32.0,0.0,0,0,,6.21,29.734253,,,,,,TRUE,,,,,CAVOK,,,,,,,,VFR,,,,,,,,,,,,METAR,554.0
OERK 281000Z 25009KT CAVOK 34/08 Q1010 NOSIG,OERK,2023-04-28T10:00:00Z,24.95,46.72,34.0,8.0,250,9,,6.21,29.822834,,,,,,TRUE,,,,,CAVOK,,,,,,,,VFR,,,,,,,,,,,,METAR,618.0
OERF 281000Z 00000KT CAVOK 34/M02 Q1010 NOSIG,OERF,2023-04-28T10:00:00Z,29.62,43.48,34.0,-2.0,0,0,,6.21,29.822834,,,,,,TRUE,,,,,CAVOK,,,,,,,,VFR,,,,,,,,,,,,METAR,441.0
OEPA 281000Z 19010KT CAVOK 36/10 Q1007 NOSIG,OEPA,2023-04-28T10:00:00Z,28.33,46.12,36.0,10.0,190,10,,6.21,29.734253,,,,,,TRUE,,,,,CAVOK,,,,,,,,VFR,,,,,,,,,,,,METAR,361.0
OENG 281000Z 10006KT 9999 SCT030 33/03 Q1014 NOSIG,OENG,2023-04-28T10:00:00Z,17.62,44.42,33.0,3.0,100,6,,6.21,29.940945,,,,,,TRUE,,,,,SCT,3000,,,,,,,VFR,,,,,,,,,,,,METAR,1210.0
OEMN 281000Z 36003KT 9999 FEW040 30/21 Q1011,OEMN,2023-04-28T10:00:00Z,,,30.0,21.0,360,3,,6.21,29.852362,,,,,,,,,,,FEW,4000,,,,,,,VFR,,,,,,,,,,,,METAR,
OEMA 281000Z 28010KT CAVOK 32/M11 Q1012 NOSIG,OEMA,2023-04-28T10:00:00Z,24.55,39.7,32.0,-11.0,280,10,,6.21,29.88189,,,,,,TRUE,,,,,CAVOK,,,,,,,,VFR,,,,,,,,,,,,METAR,639.0
OEKM 281000Z 19010KT 9999 SCT022 25/02 Q1022 NOSIG,OEKM,2023-04-28T10:00:00Z,18.3,42.78,25.0,2.0,190,10,,6.21,30.177166,,,,,,TRUE,,,,,SCT,2200,,,,,,,VFR,,,,,,,,,,,,METAR,2038.0
OEKJ 281000Z 21014KT 7000 NSC 35/10 Q1013,OEKJ,2023-04-28T10:00:00Z,24.07,47.58,35.0,10.0,210,14,,4.35,29.911417,,,,,,,,,,,CLR,,,,,,,,MVFR,,,,,,,,,,,,METAR,487.0
OEJN 281000Z 27008KT 9999 SCT040 34/21 Q1008 NOSIG,OEJN,2023-04-28T10:00:00Z,21.68,39.15,34.0,21.0,270,8,,6.21,29.763779,,,,,,TRUE,,,,,SCT,4000,,,,,,,VFR,,,,,,,,,,,,METAR,8.0
OEJB 281000Z AUTO VRB04KT CAVOK 37/M02 Q1007 NOSIG,OEJB,2023-04-28T10:00:00Z,27.05,49.4,37.0,-2.0,0,4,,6.21,29.734253,,,TRUE,,,TRUE,,,,,CAVOK,,,,,,,,VFR,,,,,,,,,,,,METAR,6.0
OEHL 281000Z 30012KT CAVOK 30/04 Q1011,OEHL,2023-04-28T10:00:00Z,27.43,41.68,30.0,4.0,300,12,,6.21,29.852362,,,,,,,,,,,CAVOK,,,,,,,,VFR,,,,,,,,,,,,METAR,1002.0
OEGT 281000Z 24007KT CAVOK 29/M02 Q1008 NOSIG,OEGT,2023-04-28T10:00:00Z,31.42,37.27,29.0,-2.0,240,7,,6.21,29.763779,,,,,,TRUE,,,,,CAVOK,,,,,,,,VFR,,,,,,,,,,,,METAR,512.0
OEGS 281000Z 22010KT CAVOK 33/14 Q1008,OEGS,2023-04-28T10:00:00Z,26.3,43.77,33.0,14.0,220,10,,6.21,29.763779,,,,,,,,,,,CAVOK,,,,,,,,VFR,,,,,,,,,,,,METAR,647.0
OEGN 281000Z 24010KT 9999 FEW030 38/21 Q1007 NOSIG,OEGN,2023-04-28T10:00:00Z,16.9,42.58,38.0,21.0,240,10,,6.21,29.734253,,,,,,TRUE,,,,,FEW,3000,,,,,,,VFR,,,,,,,,,,,,METAR,5.0
OEDR 281000Z 09008KT CAVOK 36/M02 Q1006,OEDR,2023-04-28T10:00:00Z,26.27,50.17,36.0,-2.0,90,8,,6.21,29.704725,,,,,,,,,,,CAVOK,,,,,,,,VFR,,,,,,,,,,,,METAR,17.0
OEDM 281000Z 24012KT CAVOK 31/11 Q1011,OEDM,2023-04-28T10:00:00Z,24.45,44.12,31.0,11.0,240,12,,6.21,29.852362,,,,,,,,,,,CAVOK,,,,,,,,VFR,,,,,,,,,,,,METAR,922.0
OEDF 281000Z 23005KT CAVOK 39/M02 Q1007 NOSIG,OEDF,2023-04-28T10:00:00Z,26.43,49.82,39.0,-2.0,230,5,,6.21,29.734253,,,,,,TRUE,,,,,CAVOK,,,,,,,,VFR,,,,,,,,,,,,METAR,15.0
OEBH 281000Z 00000KT 9999 SCT030 32/13 Q1013 NOSIG,OEBH,2023-04-28T10:00:00Z,19.98,42.62,32.0,13.0,0,0,,6.21,29.911417,,,,,,TRUE,,,,,SCT,3000,,,,,,,VFR,,,,,,,,,,,,METAR,1167.0
OEBA 281000Z 20012KT 9999 FEW030 29/08 Q1018 NOSIG,OEBA,2023-04-28T10:00:00Z,20.3,41.63,29.0,8.0,200,12,,6.21,30.059055,,,,,,TRUE,,,,,FEW,3000,,,,,,,VFR,,,,,,,,,,,,METAR,1659.0
OEAO 281000Z 26012KT CAVOK 31/M07 Q1011 NOSIG,OEAO,2023-04-28T10:00:00Z,26.48,38.12,31.0,-7.0,260,12,,6.21,29.852362,,,,,,TRUE,,,,,CAVOK,,,,,,,,VFR,,,,,,,,,,,,METAR,615.0
OEAH 281000Z 26008KT CAVOK 37/M01 Q1008 NOSIG,OEAH,2023-04-28T10:00:00Z,25.28,49.48,37.0,-1.0,260,8,,6.21,29.763779,,,,,,TRUE,,,,,CAVOK,,,,,,,,VFR,,,,,,,,,,,,METAR,180.0
OEAB 281000Z 22014KT 9999 SCT020 25/07 Q1022 NOSIG,OEAB,2023-04-28T10:00:00Z,18.23,42.65,25.0,7.0,220,14,,6.21,30.177166,,,,,,TRUE,,,,,SCT,2000,,,,,,,VFR,,,,,,,,,,,,METAR,2092.0
NVVV 281000Z VRB01KT 9999 SCT020 23/22 Q1009,NVVV,2023-04-28T10:00:00Z,-17.68,168.3,23.0,22.0,0,1,,6.21,29.793306,,,,,,,,,,,SCT,2000,,,,,,,VFR,,,,,,,,,,,,METAR,23.0
NSFA 281000Z 08005KT 9999 FEW023 BKN280 26/25 Q1012,NSFA,2023-04-28T10:00:00Z,-13.83,-172.0,26.0,25.0,80,5,,6.21,29.88189,,,,,,,,,,,FEW,2300,BKN,28000,,,,,VFR,,,,,,,,,,,,METAR,6.0
NIUE 281000Z AUTO 06005KT 030V090 NCD 24/24 Q1013,NIUE,2023-04-28T10:00:00Z,-19.07,-169.92,24.0,24.0,60,5,,,29.911417,,,TRUE,,,,,,,,CLR,,,,,,,,,,,,,,,,,,,,METAR,22.0
NGTA 281000Z 06006KT 9999 FEW018TCU 29/26 Q1007,NGTA,2023-04-28T10:00:00Z,1.37,173.13,29.0,26.0,60,6,,6.21,29.734253,,,,,,,,,,,FEW,1800,,,,,,,VFR,,,,,,,,,,,,METAR,8.0
NGFU 281000Z 11006KT 9999 FEW016CB FEW 018TCU 28/26 Q1009,NGFU,2023-04-28T10:00:00Z,-8.52,179.18,28.0,26.0,110,6,,6.21,29.793306,,,,,,,,,,,FEW,1600,FEW,1800,,,,,VFR,,,,,,,,,,,,METAR,2.0
NFTF 281000Z 02008KT 9999 TS FEW008 SCT016CB BKN100 26/25 Q1012 RMK TS TO THE SW,NFTF,2023-04-28T10:00:00Z,-21.23,-175.15,26.0,25.0,20,8,,6.21,29.88189,,,,,,,,,,TS,FEW,800,SCT,1600,BKN,10000,,,VFR,,,,,,,,,,,,METAR,38.0
NFNA 281000Z 00000KT 9999 FEW020 24/23 Q1010,NFNA,2023-04-28T10:00:00Z,-18.05,178.57,24.0,23.0,0,0,,6.21,29.822834,,,,,,,,,,,FEW,2000,,,,,,,VFR,,,,,,,,,,,,METAR,6.0
NFFN 281000Z 12006KT 9999 FEW030 25/23 Q1011 NOSIG,NFFN,2023-04-28T10:00:00Z,-17.75,177.45,25.0,23.0,120,6,,6.21,29.852362,,,,,,TRUE,,,,,FEW,3000,,,,,,,VFR,,,,,,,,,,,,METAR,14.0
NCSW 281000Z AUTO NIL,NCSW,2023-04-28T10:00:00Z,,,,,,,,,,,,TRUE,,,,,,,,,,,,,,,,,,,,,,,,,,,,METAR,
NCRK 281000Z AUTO NIL,NCRK,2023-04-28T10:00:00Z,-10.02,-161.1,,,,,,,,,,TRUE,,,,,,,,,,,,,,,,,,,,,,,,,,,,METAR,7.0
NCPY 281000Z AUTO NIL,NCPY,2023-04-28T10:00:00Z,-9.02,-158.03,,,,,,,,,,TRUE,,,,,,,,,,,,,,,,,,,,,,,,,,,,METAR,2.0
NCPL 281000Z AUTO NIL,NCPL,2023-04-28T10:00:00Z,1.98,-157.48,,,,,,,,,,TRUE,,,,,,,,,,,,,,,,,,,,,,,,,,,,METAR,3.0
NCPK 281000Z AUTO NIL,NCPK,2023-04-28T10:00:00Z,-10.9,-165.83,,,,,,,,,,TRUE,,,,,,,,,,,,,,,,,,,,,,,,,,,,METAR,5.0
NCNS 281000Z AUTO NIL,NCNS,2023-04-28T10:00:00Z,,,,,,,,,,,,TRUE,,,,,,,,,,,,,,,,,,,,,,,,,,,,METAR,
NCMR 281000Z AUTO 12002KT //// ////// ///// Q1014,NCMR,2023-04-28T10:00:00Z,-19.85,-157.7,,,120,2,,,29.940945,,,TRUE,,,,,,,,,,,,,,,,,,,,,,,,,,,,METAR,8.0
NCMK 281000Z AUTO 17004KT //// ////// ///// Q1014,NCMK,2023-04-28T10:00:00Z,-20.15,-157.33,,,170,4,,,29.940945,,,TRUE,,,,,,,,,,,,,,,,,,,,,,,,,,,,METAR,13.0
NCMH 281000Z AUTO NIL,NCMH,2023-04-28T10:00:00Z,-10.38,-161.0,,,,,,,,,,TRUE,,,,,,,,,,,,,,,,,,,,,,,,,,,,METAR,1.0
NCMG 281000Z AUTO 10002KT //// ////// ///// Q////,NCMG,2023-04-28T10:00:00Z,-21.88,-157.9,,,100,2,,,,,,TRUE,,,,,,,,,,,,,,,,,,,,,,,,,,,,METAR,14.0
NCAT 281000Z AUTO NIL,NCAT,2023-04-28T10:00:00Z,-19.97,-158.12,,,,,,,,,,TRUE,,,,,,,,,,,,,,,,,,,,,,,,,,,,METAR,11.0
NCAI 281000Z AUTO 16005KT //// ////// 25/23 Q1014,NCAI,2023-04-28T10:00:00Z,-18.82,-159.77,25.0,23.0,160,5,,,29.940945,,,TRUE,,,,,,,,,,,,,,,,,,,,,,,,,,,,METAR,7.0
MYSM 281000Z AUTO 09005KT 9999 FEW017/// 23/22 A2996,MYSM,2023-04-28T10:00:00Z,24.05,-74.52,23.0,22.0,90,5,,6.21,29.958662,,,TRUE,,,,,,,,FEW,1700,,,,,,,VFR,,,,,,,,,,,,METAR,5.0
MYNN 281000Z 16007KT 9999 FEW022 24/21 A2992,MYNN,2023-04-28T10:00:00Z,25.03,-77.47,24.0,21.0,160,7,,6.21,29.920275,,,,,,,,,,,FEW,2200,,,,,,,VFR,,,,,,,,,,,,METAR,5.0
MYGF 281000Z AUTO 17007KT //// R24///// // FEW020/// SCT120/// BKN180/// 25/22 A2990,MYGF,2023-04-28T10:00:00Z,26.55,-78.7,25.0,22.0,170,7,,,29.899607,,,TRUE,,,,,,,,FEW,2000,SCT,12000,BKN,18000,,,,,,,,,,,,,,,METAR,2.0
MYCB 281000Z AUTO /////KT ///V/// //// R09///// // NCD ///// A////,MYCB,2023-04-28T10:00:00Z,24.32,-75.45,,,,,,,,,,TRUE,,,,,,,,CLR,,,,,,,,,,,,,,,,,,,,METAR,2.0
MROC 281000Z 17003KT 9999 SCT030 21/19 A2996 NOSIG,MROC,2023-04-28T10:00:00Z,10.0,-84.22,21.0,19.0,170,3,,6.21,29.958662,,,,,,TRUE,,,,,SCT,3000,,,,,,,VFR,,,,,,,,,,,,METAR,900.0
MPTO 281000Z AUTO VRB02KT 9999 OVC023/// 23/22 Q1010,MPTO,2023-04-28T10:00:00Z,9.05,-79.38,23.0,22.0,0,2,,6.21,29.822834,,,TRUE,,,,,,,,OVC,2300,,,,,,,MVFR,,,,,,,,,,,,METAR,7.0
MPMG 281000Z AUTO 29006KT //// R01///// // BKN084/// OVC095/// 25/23 Q1010,MPMG,2023-04-28T10:00:00Z,8.98,-79.57,25.0,23.0,290,6,,,29.822834,,,TRUE,,,,,,,,BKN,8400,OVC,9500,,,,,,,,,,,,,,,,,METAR,6.0
MNMG 281000Z 16006KT 9999 FEW022 SCT300 24/23 Q1009 A2980 NOSIG,MNMG,2023-04-28T10:00:00Z,12.15,-86.17,24.0,23.0,160,6,,6.21,29.793306,,,,,,TRUE,,,,,FEW,2200,SCT,30000,,,,,VFR,,,,,,,,,,,,METAR,59.0
MKJS 281000Z 14007KT 9999 FEW022 25/19 Q1012,MKJS,2023-04-28T10:00:00Z,18.5,-77.92,25.0,19.0,140,7,,6.21,29.88189,,,,,,,,,,,FEW,2200,,,,,,,VFR,,,,,,,,,,,,METAR,3.0
MKJP 281000Z 36008KT 9999 FEW022 27/22 Q1012,MKJP,2023-04-28T10:00:00Z,17.93,-76.78,27.0,22.0,360,8,,6.21,29.88189,,,,,,,,,,,FEW,2200,,,,,,,VFR,,,,,,,,,,,,METAR,3.0
MHTG 281000Z 17002KT 5000 FU NSC 20/18 Q1016 A3000 NOSIG,MHTG,2023-04-28T10:00:00Z,14.07,-87.22,20.0,18.0,170,2,,3.11,30.0,,,,,,TRUE,,,,FU,CLR,,,,,,,,MVFR,,,,,,,,,,,,METAR,1001.0
MHPR 281000Z 18004KT 5000 FU FEW046 22/18 Q1014 A2993 NOSIG,MHPR,2023-04-28T10:00:00Z,14.38,-87.62,22.0,18.0,180,4,,3.11,29.940945,,,,,,TRUE,,,,FU,FEW,4600,,,,,,,MVFR,,,,,,,,,,,,METAR,628.0
MHLM 281000Z 00000KT 2000 FU FEW025 26/21 Q1007 A2974 NOSIG,MHLM,2023-04-28T10:00:00Z,15.45,-87.93,26.0,21.0,0,0,,1.24,29.734253,,,,,,TRUE,,,,FU,FEW,2500,,,,,,,IFR,,,,,,,,,,,,METAR,32.0
MGPB 281000Z 10004KT 9000 SCT018 27/24 Q1006 A2971 HZ,MGPB,2023-04-28T10:00:00Z,15.73,-88.58,27.0,24.0,100,4,,5.59,29.704725,,,,,,,,,,HZ,SCT,1800,,,,,,,VFR,,,,,,,,,,,,METAR,6.0
MGHT 281000Z 00000KT CAVOK 14/14 OVC200,MGHT,2023-04-28T10:00:00Z,15.32,-91.5,14.0,14.0,0,0,,6.21,,,,,,,,,,,,OVC,20000,,,,,,,VFR,,,,,,,,,,,,METAR,1875.0
MGGT 281000Z 20004KT 7000 SKC 17/15 Q1018 A3006 BR,MGGT,2023-04-28T10:00:00Z,14.58,-90.53,17.0,15.0,200,4,,4.35,30.059055,,,,,,,,,,BR,SKC,,,,,,,,MVFR,,,,,,,,,,,,METAR,1497.0
MDST 281000Z 00000KT 9999 BKN016 SCT070 23/22 Q1014,MDST,2023-04-28T10:00:00Z,19.4,-70.6,23.0,22.0,0,0,,6.21,29.940945,,,,,,,,,,,BKN,1600,SCT,7000,,,,,MVFR,,,,,,,,,,,,METAR,175.0
MDSD 281000Z 01004KT 9999 SCT015 BKN070 22/22 Q1014,MDSD,2023-04-28T10:00:00Z,18.42,-69.67,22.0,22.0,10,4,,6.21,29.940945,,,,,,,,,,,SCT,1500,BKN,7000,,,,,VFR,,,,,,,,,,,,METAR,18.0
MDPC 281000Z 00000KT 9999 FEW018 22/21 Q1014,MDPC,2023-04-28T10:00:00Z,18.57,-68.37,22.0,21.0,0,0,,6.21,29.940945,,,,,,,,,,,FEW,1800,,,,,,,VFR,,,,,,,,,,,,METAR,10.0
MBPV 281000Z 09006KT 9999 SCT020 24/20 Q1013,MBPV,2023-04-28T10:00:00Z,21.77,-72.27,24.0,20.0,90,6,,6.21,29.911417,,,,,,,,,,,SCT,2000,,,,,,,VFR,,,,,,,,,,,,METAR,7.0
LWSK 281000Z 28005KT 220V320 CAVOK 15/01 Q1021 NOSIG,LWSK,2023-04-28T10:00:00Z,41.97,21.63,15.0,1.0,280,5,,6.21,30.147638,,,,,,TRUE,,,,,CAVOK,,,,,,,,VFR,,,,,,,,,,,,METAR,232.0
LPST 281000Z 33006KT 300V360 CAVOK 20/14 Q1015,LPST,2023-04-28T10:00:00Z,38.82,-9.33,20.0,14.0,330,6,,6.21,29.970472,,,,,,,,,,,CAVOK,,,,,,,,VFR,,,,,,,,,,,,METAR,129.0
LPOV 281000Z /////KT 9999 FEW025 19/15 Q1014,LPOV,2023-04-28T10:00:00Z,40.92,-8.65,19.0,15.0,,,,6.21,29.940945,,,,,,,,,,,FEW,2500,,,,,,,VFR,,,,,,,,,,,,METAR,16.0
LPMT 281000Z 01005KT CAVOK 22/12 Q1014,LPMT,2023-04-28T10:00:00Z,38.7,-9.05,22.0,12.0,10,5,,6.21,29.940945,,,,,,,,,,,CAVOK,,,,,,,,VFR,,,,,,,,,,,,METAR,4.0
LPMR 281000Z 36006KT 310V040 9999 FEW015 20/14 Q1015,LPMR,2023-04-28T10:00:00Z,39.82,-8.88,20.0,14.0,360,6,,6.21,29.970472,,,,,,,,,,,FEW,1500,,,,,,,VFR,,,,,,,,,,,,METAR,50.0
LPLA 281000Z /////KT 9999 FEW023 17/13 Q1009 WS R15,LPLA,2023-04-28T10:00:00Z,38.77,-27.1,17.0,13.0,,,,6.21,29.793306,,,,,,,,,,,FEW,2300,,,,,,,VFR,,,,,,,,,,,,METAR,60.0
LPBJ 281000Z VRB02KT CAVOK 24/10 Q1015,LPBJ,2023-04-28T10:00:00Z,38.08,-7.93,24.0,10.0,0,2,,6.21,29.970472,,,,,,,,,,,CAVOK,,,,,,,,VFR,,,,,,,,,,,,METAR,196.0
LPAR 281000Z 35007KT 320V020 CAVOK 24/09 Q1014,LPAR,2023-04-28T10:00:00Z,38.88,-9.03,24.0,9.0,350,7,,6.21,29.940945,,,,,,,,,,,CAVOK,,,,,,,,VFR,,,,,,,,,,,,METAR,2.0
LOAV 281000Z 17008KT CAVOK 17/04,LOAV,2023-04-28T10:00:00Z,47.97,16.27,17.0,4.0,170,8,,6.21,,,,,,,,,,,,CAVOK,,,,,,,,VFR,,,,,,,,,,,,METAR,232.0
LOAN 281000Z 18010G20KT 9999 FEW040,LOAN,2023-04-28T10:00:00Z,47.85,16.25,,,180,10,20,6.21,,,,,,,,,,,,FEW,4000,,,,,,,VFR,,,,,,,,,,,,METAR,266.0
LKVO 281000Z 10006KT 060V150 CAVOK 15/06 Q1016,LKVO,2023-04-28T10:00:00Z,50.22,14.4,15.0,6.0,100,6,,6.21,30.0,,,,,,,,,,,CAVOK,,,,,,,,VFR,,,,,,,,,,,,METAR,275.0
LKLN 281000Z AUTO VRB02KT 9999 -RA OVC059 10/05 Q1016,LKLN,2023-04-28T10:00:00Z,49.68,13.27,10.0,5.0,0,2,,6.21,30.0,,,TRUE,,,,,,,-RA,OVC,5900,,,,,,,VFR,,,,,,,,,,,,METAR,353.0
LKKU 281000Z 16011KT CAVOK 14/M01 Q1019,LKKU,2023-04-28T10:00:00Z,49.05,17.45,14.0,-1.0,160,11,,6.21,30.088583,,,,,,,,,,,CAVOK,,,,,,,,VFR,,,,,,,,,,,,METAR,176.0
LKKB 281000Z 06006KT 040V100 CAVOK 15/04 Q1016 NOSIG,LKKB,2023-04-28T10:00:00Z,50.12,14.53,15.0,4.0,60,6,,6.21,30.0,,,,,,TRUE,,,,,CAVOK,,,,,,,,VFR,,,,,,,,,,,,METAR,281.0
LFQG 281000Z AUTO 20004KT 130V280 9999 BKN025 BKN032 BKN180 21/16 Q1016,LFQG,2023-04-28T10:00:00Z,47.0,3.1,21.0,16.0,200,4,,6.21,30.0,,,TRUE,,,,,,,,BKN,2500,BKN,3200,BKN,18000,,,MVFR,,,,,,,,,,,,METAR,172.0
LBWB 281000Z 36024KT 9999 FEW034 SCT100 13/01 Q1018,LBWB,2023-04-28T10:00:00Z,43.42,28.18,13.0,1.0,360,24,,6.21,30.059055,,,,,,,,,,,FEW,3400,SCT,10000,,,,,VFR,,,,,,,,,,,,METAR,190.0
LBPL 281000Z 21004KT 9999 FEW025 14/05 Q1021,LBPL,2023-04-28T10:00:00Z,43.45,24.5,14.0,5.0,210,4,,6.21,30.147638,,,,,,,,,,,FEW,2500,,,,,,,VFR,,,,,,,,,,,,METAR,93.0
LBPG 281000Z 15006KT 9999 FEW060 SCT100 14/01 Q1020,LBPG,2023-04-28T10:00:00Z,42.28,24.72,14.0,1.0,150,6,,6.21,30.11811,,,,,,,,,,,FEW,6000,SCT,10000,,,,,VFR,,,,,,,,,,,,METAR,198.0
LBIA 281000Z 03008KT 9999 BKN060 14/M00 Q1020,LBIA,2023-04-28T10:00:00Z,42.45,26.35,14.0,0.0,30,8,,6.21,30.11811,,,,,,,,,,,BKN,6000,,,,,,,VFR,,,,,,,,,,,,METAR,155.0
KSXS 281000Z AUTO 24003KT 10SM OVC007 18/18 A2977 RMK AO2 SLP081,KSXS,2023-04-28T10:00:00Z,31.37,-85.85,18.0,18.0,240,3,,10.0,29.769686,1008.1,,TRUE,TRUE,,,,,,,OVC,700,,,,,,,IFR,,,,,,,,,,,,METAR,120.0
KNEL 281000Z AUTO 06007KT CLR 09/09 A3013 RMK AO2 SLP200 T00940089 PNO $,KNEL,2023-04-28T10:00:00Z,40.03,-74.33,9.4,8.9,60,7,,,30.129921,1020.0,,TRUE,TRUE,TRUE,,,,,,CLR,,,,,,,,,,,,,,,,,,,,METAR,26.0
KMHV 281000Z AUTO 00000KT 10SM CLR 21/M01 A2994 RMK AO2,KMHV,2023-04-28T10:00:00Z,35.07,-118.15,21.0,-1.0,0,0,,10.0,29.940945,,,TRUE,TRUE,,,,,,,CLR,,,,,,,,VFR,,,,,,,,,,,,SPECI,841.0
KLOR 281000Z AUTO 24003KT 10SM OVC008 18/18 A2977 RMK AO2 SLP064,KLOR,2023-04-28T10:00:00Z,31.35,-85.75,18.0,18.0,240,3,,10.0,29.769686,1006.4,,TRUE,TRUE,,,,,,,OVC,800,,,,,,,IFR,,,,,,,,,,,,METAR,92.0
KHST 281000Z AUTO 20004KT 10SM SCT019 24/22 A2988 RMK AO2 SLP122,KHST,2023-04-28T10:00:00Z,25.48,-80.37,24.0,22.0,200,4,,10.0,29.878937,1012.2,,TRUE,TRUE,,,,,,,SCT,1900,,,,,,,VFR,,,,,,,,,,,,SPECI,1.0
KGZN 281000Z AUTO 14011KT 10SM CLR 11/09 A2969 RMK AO2,KGZN,2023-04-28T10:00:00Z,32.37,-99.02,11.0,9.0,140,11,,10.0,29.68996,,,TRUE,TRUE,,,,,,,CLR,,,,,,,,VFR,,,,,,,,,,,,SPECI,522.0
KGSB 281000Z 12003KT 10SM -RA BKN014 OVC020 18/18 A2977 RMK AO2A RAB0957 SLP084 WND DATA ETSMD $,KGSB,2023-04-28T10:00:00Z,35.33,-77.93,18.0,18.0,120,3,,10.0,29.769686,1008.4,,,TRUE,TRUE,,,,,-RA,BKN,1400,OVC,2000,,,,,MVFR,,,,,,,,,,,,SPECI,33.0
KFOK 281000Z AUTO 05003KT 10SM SCT002 00/M01 A3022 RMK AO2 T00001006,KFOK,2023-04-28T10:00:00Z,40.85,-72.62,0.0,-0.6,50,3,,10.0,30.221457,,,TRUE,TRUE,,,,,,,SCT,200,,,,,,,VFR,,,,,,,,,,,,METAR,13.0
KACV 281000Z AUTO 13003KT 1/2SM R32/2600V4000FT FG VV002 10/09 A2992 RMK AO2 T01000094,KACV,2023-04-28T10:00:00Z,40.98,-124.1,10.0,9.4,130,3,,0.5,29.920275,,,TRUE,TRUE,,,,,,FG,OVX,0,,,,,,,LIFR,,,,,,,,,,,200,METAR,63.0
HUEN 281000Z 18010KT 9999 FEW023 FEW025CB 24/22 Q1017 NOSIG,HUEN,2023-04-28T10:00:00Z,0.03,32.45,24.0,22.0,180,10,,6.21,30.029528,,,,,,TRUE,,,,,FEW,2300,FEW,2500,,,,,VFR,,,,,,,,,,,,METAR,1147.0
HTMW 281000Z 06010KT 9999 FEW026 FEW027CB SCT100 27/18 Q1017 NOSIG,HTMW,2023-04-28T10:00:00Z,-2.43,32.92,27.0,18.0,60,10,,6.21,30.029528,,,,,,TRUE,,,,,FEW,2600,FEW,2700,SCT,10000,,,VFR,,,,,,,,,,,,METAR,1144.0
HTKJ 281000Z 09015KT 9999 -RA FEW008 BKN022 BKN080 21/20 Q1019 NOSIG,HTKJ,2023-04-28T10:00:00Z,-3.42,37.07,21.0,20.0,90,15,,6.21,30.088583,,,,,,TRUE,,,,-RA,FEW,800,BKN,2200,BKN,8000,,,MVFR,,,,,,,,,,,,METAR,893.0
HTDA 281000Z 16012KT 5000 RA FEW009 BKN011 FEW014CB 25/22 Q1014 TEMPO 3000 RA,HTDA,2023-04-28T10:00:00Z,-6.88,39.2,25.0,22.0,160,12,,3.11,29.940945,,,,,,,,,,RA,FEW,900,BKN,1100,FEW,1400,,,MVFR,,,,,,,,,,,,SPECI,53.0
HKWJ 281000Z 18005KT 9999 BKN032 30/23 Q1010,HKWJ,2023-04-28T10:00:00Z,1.75,40.08,30.0,23.0,180,5,,6.21,29.822834,,,,,,,,,,,BKN,3200,,,,,,,VFR,,,,,,,,,,,,METAR,254.0
HKNW 281000Z 09005KT 9999 BKN025 BKN080 22/16 Q1022,HKNW,2023-04-28T10:00:00Z,-1.32,36.82,22.0,16.0,90,5,,6.21,30.177166,,,,,,,,,,,BKN,2500,BKN,8000,,,,,MVFR,,,,,,,,,,,,METAR,1666.0
HKNK 281000Z 00000KT 9999 FEW024 23/12,HKNK,2023-04-28T10:00:00Z,-0.3,36.17,23.0,12.0,0,0,,6.21,,,,,,,,,,,,FEW,2400,,,,,,,VFR,,,,,,,,,,,,METAR,1900.0
HKNI 281000Z 13008KT 9999 FEW024TCU BKN080 24/16,HKNI,2023-04-28T10:00:00Z,-0.33,36.92,24.0,16.0,130,8,,6.21,,,,,,,,,,,,FEW,2400,BKN,8000,,,,,VFR,,,,,,,,,,,,METAR,1769.0
HKMO 281000Z 19005KT 5000 +RA BKN018 OVC080 24/23 Q1013,HKMO,2023-04-28T10:00:00Z,-4.02,39.62,24.0,23.0,190,5,,3.11,29.911417,,,,,,,,,,+RA,BKN,1800,OVC,8000,,,,,MVFR,,,,,,,,,,,,METAR,55.0
HKME 281000Z 18003KT 9999 SCT020 SCT090 23/18,HKME,2023-04-28T10:00:00Z,0.07,37.65,23.0,18.0,180,3,,6.21,,,,,,,,,,,,SCT,2000,SCT,9000,,,,,VFR,,,,,,,,,,,,METAR,1609.0
HKLU 281000Z 00000KT 9999 -RA FEW020CB BKN021 OVC080 24/23 Q1013,HKLU,2023-04-28T10:00:00Z,-2.25,40.92,24.0,23.0,0,0,,6.21,29.911417,,,,,,,,,,-RA,FEW,2000,BKN,2100,OVC,8000,,,MVFR,,,,,,,,,,,,METAR,6.0
HKLO 281000Z 10005KT 9999 FEW026CB BKN290 31/20 Q1008,HKLO,2023-04-28T10:00:00Z,3.12,35.62,31.0,20.0,100,5,,6.21,29.763779,,,,,,,,,,,FEW,2600,BKN,29000,,,,,VFR,,,,,,,,,,,,METAR,503.0
HKKT 281000Z 00000KT 9999 SCT024 25/16,HKKT,2023-04-28T10:00:00Z,0.97,34.97,25.0,16.0,0,0,,6.21,,,,,,,,,,,,SCT,2400,,,,,,,VFR,,,,,,,,,,,,METAR,1829.0
HKKI 281000Z 23006KT 9999 FEW026CB 27/18 Q1016,HKKI,2023-04-28T10:00:00Z,-0.1,34.75,27.0,18.0,230,6,,6.21,30.0,,,,,,,,,,,FEW,2600,,,,,,,VFR,,,,,,,,,,,,METAR,1152.0
HKJK 281000Z 08008KT 9999 BKN022 BKN080 19/17 Q1021 RETS,HKJK,2023-04-28T10:00:00Z,-1.32,36.92,19.0,17.0,80,8,,6.21,30.147638,,,,,,,,,,,BKN,2200,BKN,8000,,,,,MVFR,,,,,,,,,,,,METAR,1615.0
HKGA 281000Z 9999 BKN026 29/23 Q1011 RERA,HKGA,2023-04-28T10:00:00Z,-0.47,39.65,29.0,23.0,,,,6.21,29.852362,,,,,,,,,,,BKN,2600,,,,,,,MVFR,,,,,,,,,,,,METAR,147.0
HKEM 281000Z 17003KT 9999 BKN021 23/17,HKEM,2023-04-28T10:00:00Z,-0.57,37.48,23.0,17.0,170,3,,6.21,,,,,,,,,,,,BKN,2100,,,,,,,MVFR,,,,,,,,,,,,METAR,1265.0
HKEL 281000Z 07010KT 9999 RA FEW021CB BKN022 BKN080 18/15 Q1023,HKEL,2023-04-28T10:00:00Z,0.4,35.23,18.0,15.0,70,10,,6.21,30.206694,,,,,,,,,,RA,FEW,2100,BKN,2200,BKN,8000,,,MVFR,,,,,,,,,,,,METAR,2116.0
HETR 281000Z 28028KT 5000 SA NSC 28/16 Q1010,HETR,2023-04-28T10:00:00Z,28.22,33.65,28.0,16.0,280,28,,3.11,29.822834,,,,,,,,,,SA,CLR,,,,,,,,MVFR,,,,,,,,,,,,METAR,35.0
HESX 281000Z 01010KT 9999 SCT030 24/08 Q1014 NOSIG,HESX,2023-04-28T10:00:00Z,,,24.0,8.0,10,10,,6.21,29.940945,,,,,,TRUE,,,,,SCT,3000,,,,,,,VFR,,,,,,,,,,,,METAR,
HESW 281000Z 33013KT CAVOK 22/07 Q1017,HESW,2023-04-28T10:00:00Z,29.35,25.5,22.0,7.0,330,13,,6.21,30.029528,,,,,,,,,,,CAVOK,,,,,,,,VFR,,,,,,,,,,,,METAR,101.0
HESN 281000Z 04005KT CAVOK 35/02 Q1010 NOSIG,HESN,2023-04-28T10:00:00Z,23.97,32.82,35.0,2.0,40,5,,6.21,29.822834,,,,,,TRUE,,,,,CAVOK,,,,,,,,VFR,,,,,,,,,,,,METAR,197.0
HESH 281000Z 03010KT CAVOK 31/09 Q1009 NOSIG,HESH,2023-04-28T10:00:00Z,27.97,34.38,31.0,9.0,30,10,,6.21,29.793306,,,,,,TRUE,,,,,CAVOK,,,,,,,,VFR,,,,,,,,,,,,METAR,50.0
HESG 281000Z 02003KT 9999 NSC 33/07 Q1010 NOSIG,HESG,2023-04-28T10:00:00Z,26.33,31.75,33.0,7.0,20,3,,6.21,29.822834,,,,,,TRUE,,,,,CLR,,,,,,,,VFR,,,,,,,,,,,,METAR,70.0
HEPS 281000Z 32012KT 9999 SCT020 21/10 Q1013 NOSIG,HEPS,2023-04-28T10:00:00Z,31.28,32.25,21.0,10.0,320,12,,6.21,29.911417,,,,,,TRUE,,,,,SCT,2000,,,,,,,VFR,,,,,,,,,,,,METAR,2.0
HEMM 281000Z 31015KT 9999 SCT020 21/10 Q1016 NOSIG,HEMM,2023-04-28T10:00:00Z,31.32,27.22,21.0,10.0,310,15,,6.21,30.0,,,,,,TRUE,,,,,SCT,2000,,,,,,,VFR,,,,,,,,,,,,METAR,26.0
HEMA 281000Z 36010KT CAVOK 32/10 Q1009 NOSIG,HEMA,2023-04-28T10:00:00Z,25.55,34.58,32.0,10.0,360,10,,6.21,29.793306,,,,,,TRUE,,,,,CAVOK,,,,,,,,VFR,,,,,,,,,,,,METAR,77.0
HELX 281000Z 26011KT CAVOK 34/04 Q1010 NOSIG,HELX,2023-04-28T10:00:00Z,25.67,32.7,34.0,4.0,260,11,,6.21,29.822834,,,,,,TRUE,,,,,CAVOK,,,,,,,,VFR,,,,,,,,,,,,METAR,86.0
HEIS 281000Z 34008KT CAVOK 24/11 Q1012,HEIS,2023-04-28T10:00:00Z,30.58,32.25,24.0,11.0,340,8,,6.21,29.88189,,,,,,,,,,,CAVOK,,,,,,,,VFR,,,,,,,,,,,,METAR,14.0
HEGN 281000Z 35015KT CAVOK 29/12 Q1010 NOSIG,HEGN,2023-04-28T10:00:00Z,27.18,33.8,29.0,12.0,350,15,,6.21,29.822834,,,,,,TRUE,,,,,CAVOK,,,,,,,,VFR,,,,,,,,,,,,METAR,14.0
HECP 281000Z 30008KT 9999 SCT025 24/05 Q1013 NOSIG,HECP,2023-04-28T10:00:00Z,30.07,31.83,24.0,5.0,300,8,,6.21,29.911417,,,,,,TRUE,,,,,SCT,2500,,,,,,,VFR,,,,,,,,,,,,METAR,240.0
HEBL 281000Z 06007KT CAVOK 32/06 Q1012 NOSIG,HEBL,2023-04-28T10:00:00Z,22.38,31.62,32.0,6.0,60,7,,6.21,29.88189,,,,,,TRUE,,,,,CAVOK,,,,,,,,VFR,,,,,,,,,,,,METAR,184.0
HEBA 281000Z 28010KT 9999 SCT020 21/11 Q1014 NOSIG,HEBA,2023-04-28T10:00:00Z,30.92,29.7,21.0,11.0,280,10,,6.21,29.940945,,,,,,TRUE,,,,,SCT,2000,,,,,,,VFR,,,,,,,,,,,,METAR,41.0
HEAX 281000Z 35012KT 9999 SCT020 22/11 Q1014 NOSIG,HEAX,2023-04-28T10:00:00Z,31.18,29.93,22.0,11.0,350,12,,6.21,29.940945,,,,,,TRUE,,,,,SCT,2000,,,,,,,VFR,,,,,,,,,,,,METAR,-2.0
HEAT 281000Z 35008KT CAVOK 28/10 Q1015 NOSIG,HEAT,2023-04-28T10:00:00Z,27.05,31.02,28.0,10.0,350,8,,6.21,29.970472,,,,,,TRUE,,,,,CAVOK,,,,,,,,VFR,,,,,,,,,,,,METAR,229.0
HDAM 281000Z 05010KT 9999 SCT023 34/21 Q1008,HDAM,2023-04-28T10:00:00Z,11.55,43.17,34.0,21.0,50,10,,6.21,29.763779,,,,,,,,,,,SCT,2300,,,,,,,VFR,,,,,,,,,,,,METAR,6.0
HCMM 281000Z 33009KT 9999 OVC018 27/26 Q1010,HCMM,2023-04-28T10:00:00Z,2.02,45.3,27.0,26.0,330,9,,6.21,29.822834,,,,,,,,,,,OVC,1800,,,,,,,MVFR,,,,,,,,,,,,METAR,6.0
HCMF 281000Z 35010KT 9999 FEW038 31/27 Q1006,HCMF,2023-04-28T10:00:00Z,11.27,49.13,31.0,27.0,350,10,,6.21,29.704725,,,,,,,,,,,FEW,3800,,,,,,,VFR,,,,,,,,,,,,METAR,8.0
HABD 281000Z 35008KT 9999 SCT025 BKN070 25/11 Q1022 NOSIG,HABD,2023-04-28T10:00:00Z,11.6,37.32,25.0,11.0,350,8,,6.21,30.177166,,,,,,TRUE,,,,,SCT,2500,BKN,7000,,,,,VFR,,,,,,,,,,,,METAR,1828.0
GVSV 281000Z 05024KT 9999 FEW023 24/17 Q1015 NOSIG,GVSV,2023-04-28T10:00:00Z,16.83,-25.07,24.0,17.0,50,24,,6.21,29.970472,,,,,,TRUE,,,,,FEW,2300,,,,,,,VFR,,,,,,,,,,,,METAR,16.0
GVNP 281000Z 04019KT 9999 SCT017 24/17 Q1015 NOSIG,GVNP,2023-04-28T10:00:00Z,14.95,-23.48,24.0,17.0,40,19,,6.21,29.970472,,,,,,TRUE,,,,,SCT,1700,,,,,,,VFR,,,,,,,,,,,,METAR,70.0
GVBA 281000Z 04017KT 9999 BKN014 24/17 Q1016 NOSIG,GVBA,2023-04-28T10:00:00Z,16.13,-22.88,24.0,17.0,40,17,,6.21,30.0,,,,,,TRUE,,,,,BKN,1400,,,,,,,MVFR,,,,,,,,,,,,METAR,23.0
GVAC 281000Z 04017KT 9999 SCT014 23/17 Q1016 NOSIG,GVAC,2023-04-28T10:00:00Z,16.73,-22.93,23.0,17.0,40,17,,6.21,30.0,,,,,,TRUE,,,,,SCT,1400,,,,,,,VFR,,,,,,,,,,,,METAR,54.0
GUCY 281000Z 28006KT 9999 SCT015 31/22 Q1014 NOSIG,GUCY,2023-04-28T10:00:00Z,9.57,-13.62,31.0,22.0,280,6,,6.21,29.940945,,,,,,TRUE,,,,,SCT,1500,,,,,,,VFR,,,,,,,,,,,,METAR,10.0
GQPP 281000Z 02013KT 8000 NSC 22/16 Q1015 NOSIG,GQPP,2023-04-28T10:00:00Z,20.92,-17.02,22.0,16.0,20,13,,4.97,29.970472,,,,,,TRUE,,,,,CLR,,,,,,,,MVFR,,,,,,,,,,,,METAR,5.0
GQNO 281000Z 36013KT 8000 NSC 26/17 Q1013 NOSIG,GQNO,2023-04-28T10:00:00Z,18.3,-15.97,26.0,17.0,360,13,,4.97,29.911417,,,,,,TRUE,,,,,CLR,,,,,,,,MVFR,,,,,,,,,,,,METAR,1.0
GOTT 281000Z 36008KT CAVOK 35/14 Q1011,GOTT,2023-04-28T10:00:00Z,13.73,-13.65,35.0,14.0,360,8,,6.21,29.852362,,,,,,,,,,,CAVOK,,,,,,,,VFR,,,,,,,,,,,,METAR,53.0
GOTK 281000Z 22004KT CAVOK 35/16 Q1011,GOTK,2023-04-28T10:00:00Z,12.57,-12.22,35.0,16.0,220,4,,6.21,29.852362,,,,,,,,,,,CAVOK,,,,,,,,VFR,,,,,,,,,,,,METAR,165.0
GOSS 281000Z 02010KT 310V070 CAVOK 26/16 Q1014,GOSS,2023-04-28T10:00:00Z,16.05,-16.45,26.0,16.0,20,10,,6.21,29.940945,,,,,,,,,,,CAVOK,,,,,,,,VFR,,,,,,,,,,,,METAR,3.0
GOSP 281000Z 04002KT CAVOK 31/13 Q1011,GOSP,2023-04-28T10:00:00Z,16.68,-14.97,31.0,13.0,40,2,,6.21,29.852362,,,,,,,,,,,CAVOK,,,,,,,,VFR,,,,,,,,,,,,METAR,10.0
GOSM 281000Z 34004KT CAVOK 36/16 Q1011,GOSM,2023-04-28T10:00:00Z,15.6,-13.33,36.0,16.0,340,4,,6.21,29.852362,,,,,,,,,,,CAVOK,,,,,,,,VFR,,,,,,,,,,,,METAR,28.0
GOOY 281000Z 32012KT 9999 SCT011 SCT014 24/20 Q1014,GOOY,2023-04-28T10:00:00Z,14.73,-17.5,24.0,20.0,320,12,,6.21,29.940945,,,,,,,,,,,SCT,1100,SCT,1400,,,,,VFR,,,,,,,,,,,,METAR,21.0
GOOK 281000Z 36012KT CAVOK 29/15 Q1012,GOOK,2023-04-28T10:00:00Z,14.15,-16.07,29.0,15.0,360,12,,6.21,29.88189,,,,,,,,,,,CAVOK,,,,,,,,VFR,,,,,,,,,,,,METAR,8.0
GOOG 281000Z 36006KT CAVOK 30/16 Q1010,GOOG,2023-04-28T10:00:00Z,15.4,-15.08,30.0,16.0,360,6,,6.21,29.822834,,,,,,,,,,,CAVOK,,,,,,,,VFR,,,,,,,,,,,,METAR,38.0
GOOD 281000Z 36008KT CAVOK 28/18 Q1012,GOOD,2023-04-28T10:00:00Z,14.65,-16.22,28.0,18.0,360,8,,6.21,29.88189,,,,,,,,,,,CAVOK,,,,,,,,VFR,,,,,,,,,,,,METAR,9.0
GOGS 281000Z 08004KT CAVOK 28/19 Q1013,GOGS,2023-04-28T10:00:00Z,12.4,-16.75,28.0,19.0,80,4,,6.21,29.911417,,,,,,,,,,,CAVOK,,,,,,,,VFR,,,,,,,,,,,,METAR,13.0
GOGK 281000Z 08004KT CAVOK 31/17 Q1011,GOGK,2023-04-28T10:00:00Z,12.9,-14.97,31.0,17.0,80,4,,6.21,29.852362,,,,,,,,,,,CAVOK,,,,,,,,VFR,,,,,,,,,,,,METAR,37.0
GOGG 281000Z 36004KT CAVOK 29/19 Q1013,GOGG,2023-04-28T10:00:00Z,12.55,-16.27,29.0,19.0,360,4,,6.21,29.911417,,,,,,,,,,,CAVOK,,,,,,,,VFR,,,,,,,,,,,,METAR,24.0
GOBD 281000Z 01015KT 9999 FEW017 25/17 Q1014 NOSIG,GOBD,2023-04-28T10:00:00Z,14.67,-17.07,25.0,17.0,10,15,,6.21,29.940945,,,,,,TRUE,,,,,FEW,1700,,,,,,,VFR,,,,,,,,,,,,METAR,90.0
GMTN 281000Z VRB04KT 9999 BKN016 SCT200 23/16 Q1015 NOSIG,GMTN,2023-04-28T10:00:00Z,35.58,-5.32,23.0,16.0,0,4,,6.21,29.970472,,,,,,TRUE,,,,,BKN,1600,SCT,20000,,,,,MVFR,,,,,,,,,,,,METAR,10.0
GMTA 281000Z 35008KT 320V020 8000 SCT009 SCT200 20/15 Q1015 NOSIG,GMTA,2023-04-28T10:00:00Z,35.17,-3.85,20.0,15.0,350,8,,4.97,29.970472,,,,,,TRUE,,,,,SCT,900,SCT,20000,,,,,MVFR,,,,,,,,,,,,METAR,14.0
GMMZ 281000Z VRB02KT CAVOK 29/00 Q1022 NOSIG,GMMZ,2023-04-28T10:00:00Z,30.93,-6.9,29.0,0.0,0,2,,6.21,30.177166,,,,,,TRUE,,,,,CAVOK,,,,,,,,VFR,,,,,,,,,,,,METAR,1139.0
GMMW 281000Z 04005KT 350V090 4000 BR SCT006 SCT098 24/15 Q1015 NOSIG,GMMW,2023-04-28T10:00:00Z,34.98,-3.02,24.0,15.0,40,5,,2.49,29.970472,,,,,,TRUE,,,,BR,SCT,600,SCT,9800,,,,,IFR,,,,,,,,,,,,METAR,174.0
GMML 281000Z 06007KT CAVOK 24/18 Q1017 NOSIG,GMML,2023-04-28T10:00:00Z,27.13,-13.23,24.0,18.0,60,7,,6.21,30.029528,,,,,,TRUE,,,,,CAVOK,,,,,,,,VFR,,,,,,,,,,,,METAR,63.0
GMMI 281000Z 26006KT 230V320 6000 SCT016 21/17 Q1017 NOSIG,GMMI,2023-04-28T10:00:00Z,31.4,-9.68,21.0,17.0,260,6,,3.73,30.029528,,,,,,TRUE,,,,,SCT,1600,,,,,,,MVFR,,,,,,,,,,,,METAR,102.0
GMMH 281000Z 06013KT 8000 SCT010 20/16 Q1016 NOSIG,GMMH,2023-04-28T10:00:00Z,23.72,-15.93,20.0,16.0,60,13,,4.97,30.0,,,,,,TRUE,,,,,SCT,1000,,,,,,,MVFR,,,,,,,,,,,,METAR,11.0
GMMD 281000Z 24004KT CAVOK 33/05 Q1016 NOSIG,GMMD,2023-04-28T10:00:00Z,32.4,-6.32,33.0,5.0,240,4,,6.21,30.0,,,,,,TRUE,,,,,CAVOK,,,,,,,,VFR,,,,,,,,,,,,METAR,515.0
GMMC 281000Z 30008KT 6000 NSC 23/17 Q1015,GMMC,2023-04-28T10:00:00Z,33.57,-7.67,23.0,17.0,300,8,,3.73,29.970472,,,,,,,,,,,CLR,,,,,,,,MVFR,,,,,,,,,,,,METAR,62.0
GMMB 281000Z 24006KT 210V280 5000 SCT010 BKN100 26/18 Q1015 NOSIG,GMMB,2023-04-28T10:00:00Z,33.65,-7.22,26.0,18.0,240,6,,3.11,29.970472,,,,,,TRUE,,,,,SCT,1000,BKN,10000,,,,,MVFR,,,,,,,,,,,,METAR,191.0
GMFM 281000Z 30009KT 260V360 CAVOK 34/11 Q1016 NOSIG,GMFM,2023-04-28T10:00:00Z,33.87,-5.52,34.0,11.0,300,9,,6.21,30.0,,,,,,TRUE,,,,,CAVOK,,,,,,,,VFR,,,,,,,,,,,,METAR,569.0
GMFK 281000Z VRB09KT CAVOK 32/M09 Q1024 NOSIG,GMFK,2023-04-28T10:00:00Z,31.95,-4.4,32.0,-9.0,0,9,,6.21,30.236221,,,,,,TRUE,,,,,CAVOK,,,,,,,,VFR,,,,,,,,,,,,METAR,1033.0
GMFB 281000Z 25014KT CAVOK 31/M07 Q1024 NOSIG,GMFB,2023-04-28T10:00:00Z,32.52,-1.98,31.0,-7.0,250,14,,6.21,30.236221,,,,,,TRUE,,,,,CAVOK,,,,,,,,VFR,,,,,,,,,,,,METAR,1106.0
GMAT 281000Z 36005KT 310V050 8000 SCT015 20/15 Q1016 NOSIG,GMAT,2023-04-28T10:00:00Z,28.43,-11.15,20.0,15.0,360,5,,4.97,30.0,,,,,,TRUE,,,,,SCT,1500,,,,,,,MVFR,,,,,,,,,,,,METAR,192.0
GMAG 281000Z 26005KT 220V330 6000 NSC 21/17 Q1016 NOSIG,GMAG,2023-04-28T10:00:00Z,29.03,-10.05,21.0,17.0,260,5,,3.73,30.0,,,,,,TRUE,,,,,CLR,,,,,,,,MVFR,,,,,,,,,,,,METAR,333.0
GGOV 281000Z 02004KT 340V070 8000 NSC 32/15 Q1012 NOSIG,GGOV,2023-04-28T10:00:00Z,11.88,-15.65,32.0,15.0,20,4,,4.97,29.88189,,,,,,TRUE,,,,,CLR,,,,,,,,MVFR,,,,,,,,,,,,METAR,31.0
GBYD 281000Z 02010KT CAVOK 28/17 Q1012,GBYD,2023-04-28T10:00:00Z,13.33,-16.65,28.0,17.0,20,10,,6.21,29.88189,,,,,,,,,,,CAVOK,,,,,,,,VFR,,,,,,,,,,,,METAR,29.0
GAMB 281000Z 19008KT 7000 NSC 38/M02 Q1011,GAMB,2023-04-28T10:00:00Z,14.52,-4.08,38.0,-2.0,190,8,,4.35,29.852362,,,,,,,,,,,CLR,,,,,,,,MVFR,,,,,,,,,,,,METAR,271.0
GAKD 281000Z 16004KT CAVOK 38/08 Q1011,GAKD,2023-04-28T10:00:00Z,14.48,-11.4,38.0,8.0,160,4,,6.21,29.852362,,,,,,,,,,,CAVOK,,,,,,,,VFR,,,,,,,,,,,,METAR,53.0
GABS 281000Z VRB02KT CAVOK 36/M03 Q1013 NOSIG,GABS,2023-04-28T10:00:00Z,12.53,-7.95,36.0,-3.0,0,2,,6.21,29.911417,,,,,,TRUE,,,,,CAVOK,,,,,,,,VFR,,,,,,,,,,,,METAR,375.0
FYGF 281000Z 04009KT CAVOK 30/07 Q1024,FYGF,2023-04-28T10:00:00Z,-19.6,18.12,30.0,7.0,40,9,,6.21,30.236221,,,,,,,,,,,CAVOK,,,,,,,,VFR,,,,,,,,,,,,METAR,1407.0
FWKI 281000Z 15008KT 9999 FEW028 23/13 Q1020 NOSIG,FWKI,2023-04-28T10:00:00Z,-13.78,33.78,23.0,13.0,150,8,,6.21,30.11811,,,,,,TRUE,,,,,FEW,2800,,,,,,,VFR,,,,,,,,,,,,METAR,1225.0
FWCL 281000Z 26011KT 9999 SCT025 26/18 Q1019 NOSIG,FWCL,2023-04-28T10:00:00Z,-15.67,34.97,26.0,18.0,260,11,,6.21,30.088583,,,,,,TRUE,,,,,SCT,2500,,,,,,,VFR,,,,,,,,,,,,METAR,774.0
FVRG 281000Z 17011KT 120V210 CAVOK 26/05 Q1024 NOSIG,FVRG,2023-04-28T10:00:00Z,-17.93,31.1,26.0,5.0,170,11,,6.21,30.236221,,,,,,TRUE,,,,,CAVOK,,,,,,,,VFR,,,,,,,,,,,,METAR,1490.0
FTTY 281000Z 04008KT CAVOK 39/05 Q1013,FTTY,2023-04-28T10:00:00Z,17.92,19.1,39.0,5.0,40,8,,6.21,29.911417,,,,,,,,,,,CAVOK,,,,,,,,VFR,,,,,,,,,,,,METAR,234.0
FTTJ 281000Z 28014KT 7000 NSC 38/17 Q1009 NOSIG,FTTJ,2023-04-28T10:00:00Z,12.13,15.03,38.0,17.0,280,14,,4.35,29.793306,,,,,,TRUE,,,,,CLR,,,,,,,,MVFR,,,,,,,,,,,,METAR,295.0
FTTC 281000Z 16014KT 9999 BKN040TCU 36/// Q1012,FTTC,2023-04-28T10:00:00Z,13.83,20.85,,,160,14,,6.21,29.88189,,,,,,,,,,,BKN,4000,,,,,,,VFR,,,,,,,,,,,,METAR,548.0
FTTA 281000Z 20008KT CAVOK 36/19 Q1011,FTTA,2023-04-28T10:00:00Z,9.15,18.37,36.0,19.0,200,8,,6.21,29.852362,,,,,,,,,,,CAVOK,,,,,,,,VFR,,,,,,,,,,,,METAR,361.0
FSIA 281000Z 12013KT 9999 SCT020 30/26 Q1007 NOSIG,FSIA,2023-04-28T10:00:00Z,-4.67,55.52,30.0,26.0,120,13,,6.21,29.734253,,,,,,TRUE,,,,,SCT,2000,,,,,,,VFR,,,,,,,,,,,,METAR,3.0
FQXA 281000Z 32005KT 290V020 9999 SCT020 29/20 Q1018,FQXA,2023-04-28T10:00:00Z,-25.05,33.62,29.0,20.0,320,5,,6.21,30.059055,,,,,,,,,,,SCT,2000,,,,,,,VFR,,,,,,,,,,,,METAR,3.0
FQVL 281000Z 11007KT 9999 FEW020 29/22 Q1017,FQVL,2023-04-28T10:00:00Z,-22.0,35.32,29.0,22.0,110,7,,6.21,30.029528,,,,,,,,,,,FEW,2000,,,,,,,VFR,,,,,,,,,,,,METAR,15.0
FQTT 281000Z 13006KT 080V190 9999 SCT020 31/17 Q1016,FQTT,2023-04-28T10:00:00Z,-16.1,33.63,31.0,17.0,130,6,,6.21,30.0,,,,,,,,,,,SCT,2000,,,,,,,VFR,,,,,,,,,,,,METAR,146.0
FQQL 281000Z 15012KT 9999 SCT020 30/22 Q1016,FQQL,2023-04-28T10:00:00Z,-17.87,36.87,30.0,22.0,150,12,,6.21,30.0,,,,,,,,,,,SCT,2000,,,,,,,VFR,,,,,,,,,,,,METAR,5.0
FQPB 281000Z 17013KT 9999 FEW020 BKN100 29/23 Q1013,FQPB,2023-04-28T10:00:00Z,-12.98,40.52,29.0,23.0,170,13,,6.21,29.911417,,,,,,,,,,,FEW,2000,BKN,10000,,,,,VFR,,,,,,,,,,,,METAR,101.0
FQNP 281000Z 18008KT 9999 BKN020 27/19 Q1016,FQNP,2023-04-28T10:00:00Z,-15.1,39.27,27.0,19.0,180,8,,6.21,30.0,,,,,,,,,,,BKN,2000,,,,,,,MVFR,,,,,,,,,,,,METAR,434.0
FQNC 281000Z 17011KT 9999 BKN020 29/22 Q1013,FQNC,2023-04-28T10:00:00Z,-14.48,40.72,29.0,22.0,170,11,,6.21,29.911417,,,,,,,,,,,BKN,2000,,,,,,,MVFR,,,,,,,,,,,,METAR,112.0
FQMA 281000Z 23004KT 9999 BKN020 SCT025 28/20 Q1017 NOSIG,FQMA,2023-04-28T10:00:00Z,-25.92,32.57,28.0,20.0,230,4,,6.21,30.029528,,,,,,TRUE,,,,,BKN,2000,SCT,2500,,,,,MVFR,,,,,,,,,,,,METAR,34.0
FQLC 281000Z 11010KT 9999 FEW020 21/13 Q1022,FQLC,2023-04-28T10:00:00Z,-13.27,35.25,21.0,13.0,110,10,,6.21,30.177166,,,,,,,,,,,FEW,2000,,,,,,,VFR,,,,,,,,,,,,METAR,1362.0
FQIN 281000Z 05010KT 9999 FEW020 29/19 Q1017,FQIN,2023-04-28T10:00:00Z,-23.87,35.38,29.0,19.0,50,10,,6.21,30.029528,,,,,,,,,,,FEW,2000,,,,,,,VFR,,,,,,,,,,,,METAR,10.0
FQCH 281000Z /////KT 9999 FEW015 26/17 Q1021,FQCH,2023-04-28T10:00:00Z,-19.15,33.43,26.0,17.0,,,,6.21,30.147638,,,,,,,,,,,FEW,1500,,,,,,,VFR,,,,,,,,,,,,METAR,695.0
FQBR 281000Z 16008KT 9999 FEW018 30/20 Q1016,FQBR,2023-04-28T10:00:00Z,-19.8,34.9,30.0,20.0,160,8,,6.21,30.0,,,,,,,,,,,FEW,1800,,,,,,,VFR,,,,,,,,,,,,METAR,14.0
FPST 281000Z 11008KT 9999 FEW020CB 31/27 Q1013 NOSIG,FPST,2023-04-28T10:00:00Z,0.37,6.72,31.0,27.0,110,8,,6.21,29.911417,,,,,,TRUE,,,,,FEW,2000,,,,,,,VFR,,,,,,,,,,,,METAR,11.0
FOON 281000Z /////KT 9999 BKN010 25/25 Q1014,FOON,2023-04-28T10:00:00Z,-1.65,13.43,25.0,25.0,,,,6.21,29.940945,,,,,,,,,,,BKN,1000,,,,,,,MVFR,,,,,,,,,,,,METAR,440.0
FOOL 281000Z 24005KT 170V280 9999 SCT014 31/25 Q1013 NOSIG,FOOL,2023-04-28T10:00:00Z,0.45,9.42,31.0,25.0,240,5,,6.21,29.911417,,,,,,TRUE,,,,,SCT,1400,,,,,,,VFR,,,,,,,,,,,,METAR,9.0
FOGR 281000Z /////KT 9999 SCT010 29/24 Q////,FOGR,2023-04-28T10:00:00Z,-0.7,10.25,29.0,24.0,,,,6.21,,,,,,,,,,,,SCT,1000,,,,,,,VFR,,,,,,,,,,,,METAR,25.0
FOGO 281000Z /////KT 9999 BKN011TCU 27/22 Q////,FOGO,2023-04-28T10:00:00Z,1.53,11.58,27.0,22.0,,,,6.21,,,,,,,,,,,,BKN,1100,,,,,,,MVFR,,,,,,,,,,,,METAR,660.0
FOGM 281000Z 00000KT 9999 BKN015TCU FEW020CB 30/24 Q////,FOGM,2023-04-28T10:00:00Z,-1.83,11.05,30.0,24.0,0,0,,6.21,,,,,,,,,,,,BKN,1500,FEW,2000,,,,,MVFR,,,,,,,,,,,,METAR,90.0
FNUE 281000Z AUTO 12015KT 090V170 9999 NCD 26/08 Q1023,FNUE,2023-04-28T10:00:00Z,-11.77,19.9,26.0,8.0,120,15,,6.21,30.206694,,,TRUE,,,,,,,,CLR,,,,,,,,VFR,,,,,,,,,,,,METAR,1354.0
FNUB 281000Z 08013KT 040V120 CAVOK 25/04 Q1026,FNUB,2023-04-28T10:00:00Z,-14.93,13.57,25.0,4.0,80,13,,6.21,30.295275,,,,,,,,,,,CAVOK,,,,,,,,VFR,,,,,,,,,,,,METAR,1749.0
FNLU 281000Z 18005KT 9999 BKN024 30/25 Q1011 NOSIG,FNLU,2023-04-28T10:00:00Z,-8.85,13.22,30.0,25.0,180,5,,6.21,29.852362,,,,,,TRUE,,,,,BKN,2400,,,,,,,MVFR,,,,,,,,,,,,METAR,75.0
FNHU 281000Z AUTO 11014KT 070V140 9999 // NCD 25/05 Q1023,FNHU,2023-04-28T10:00:00Z,-12.82,15.77,25.0,5.0,110,14,,6.21,30.206694,,,TRUE,,,,,,,,CLR,,,,,,,,VFR,,,,,,,,,,,,SPECI,1697.0
FNGI 281000Z 06005KT CAVOK 31/08 Q1020,FNGI,2023-04-28T10:00:00Z,-17.05,15.68,31.0,8.0,60,5,,6.21,30.11811,,,,,,,,,,,CAVOK,,,,,,,,VFR,,,,,,,,,,,,METAR,1116.0
FNCT 281000Z AUTO 32008KT //// ////// ///// Q////,FNCT,2023-04-28T10:00:00Z,-12.48,13.48,,,320,8,,,,,,TRUE,,,,,,,,,,,,,,,,,,,,,,,,,,,,METAR,6.0
FNCA 281000Z VRB01KT 9999 BKN018 29/24 Q1012,FNCA,2023-04-28T10:00:00Z,-5.58,12.18,29.0,24.0,0,1,,6.21,29.88189,,,,,,,,,,,BKN,1800,,,,,,,MVFR,,,,,,,,,,,,METAR,14.0
FMSD 281000Z 10014KT 9999 SCT020 27/21 Q1018,FMSD,2023-04-28T10:00:00Z,-25.03,46.95,27.0,21.0,100,14,,6.21,30.059055,,,,,,,,,,,SCT,2000,,,,,,,VFR,,,,,,,,,,,,METAR,7.0
FMNN 281000Z 32004KT 9999 SCT020 32/// Q1010,FMNN,2023-04-28T10:00:00Z,-13.32,48.32,,,320,4,,6.21,29.822834,,,,,,,,,,,SCT,2000,,,,,,,VFR,,,,,,,,,,,,SPECI,10.0
FMNM 281000Z 13008KT 100V200 9999 FEW020 35/19 Q1011 NOSIG,FMNM,2023-04-28T10:00:00Z,-15.67,46.35,35.0,19.0,130,8,,6.21,29.852362,,,,,,TRUE,,,,,FEW,2000,,,,,,,VFR,,,,,,,,,,,,METAR,18.0
FMNA 281000Z 14016KT 9999 FEW020 31/20 Q1009,FMNA,2023-04-28T10:00:00Z,-12.33,49.28,31.0,20.0,140,16,,6.21,29.793306,,,,,,,,,,,FEW,2000,,,,,,,VFR,,,,,,,,,,,,METAR,108.0
FMMT 281000Z 19012KT 9999 SCT017TCU SCT033 29/21 Q1015 NOSIG,FMMT,2023-04-28T10:00:00Z,-18.12,49.38,29.0,21.0,190,12,,6.21,29.970472,,,,,,TRUE,,,,,SCT,1700,SCT,3300,,,,,VFR,,,,,,,,,,,,METAR,13.0
FMEP 281000Z AUTO 14014KT CAVOK 28/20 Q1014 NOSIG,FMEP,2023-04-28T10:00:00Z,-21.32,55.42,28.0,20.0,140,14,,6.21,29.940945,,,TRUE,,,TRUE,,,,,CAVOK,,,,,,,,VFR,,,,,,,,,,,,METAR,21.0
FMEE 281000Z AUTO 09015KT 9999 FEW036 29/21 Q1013 TEMPO 4500 SHRA,FMEE,2023-04-28T10:00:00Z,-20.88,55.52,29.0,21.0,90,15,,6.21,29.911417,,,TRUE,,,,,,,,FEW,3600,,,,,,,VFR,,,,,,,,,,,,METAR,20.0
FLKK 281000Z 10012KT 9999 FEW025 26/11 Q1023,FLKK,2023-04-28T10:00:00Z,-15.32,28.45,26.0,11.0,100,12,,6.21,30.206694,,,,,,,,,,,FEW,2500,,,,,,,VFR,,,,,,,,,,,,METAR,1149.0
FKYS 281000Z VRB01KT 9999 SCT013 27/24 Q1018 NOSIG,FKYS,2023-04-28T10:00:00Z,3.82,11.52,27.0,24.0,0,1,,6.21,30.059055,,,,,,TRUE,,,,,SCT,1300,,,,,,,VFR,,,,,,,,,,,,METAR,694.0
FKKR 281000Z 27013KT 250V320 CAVOK 35/19 Q1011 NOSIG,FKKR,2023-04-28T10:00:00Z,9.33,13.37,35.0,19.0,270,13,,6.21,29.852362,,,,,,TRUE,,,,,CAVOK,,,,,,,,VFR,,,,,,,,,,,,METAR,223.0
FKKN 281000Z 05003KT CAVOK 30/19 Q1017,FKKN,2023-04-28T10:00:00Z,7.35,13.57,30.0,19.0,50,3,,6.21,30.029528,,,,,,,,,,,CAVOK,,,,,,,,VFR,,,,,,,,,,,,METAR,1108.0
FKKL 281000Z /////KT CAVOK 38/15 Q1012,FKKL,2023-04-28T10:00:00Z,10.45,14.25,38.0,15.0,,,,6.21,29.88189,,,,,,,,,,,CAVOK,,,,,,,,VFR,,,,,,,,,,,,METAR,422.0
FKKD 281000Z VRB02KT 8000 BKN014 FEW017CB 30/25 Q1013 NOSIG,FKKD,2023-04-28T10:00:00Z,4.0,9.72,30.0,25.0,0,2,,4.97,29.911417,,,,,,TRUE,,,,,BKN,1400,FEW,1700,,,,,MVFR,,,,,,,,,,,,METAR,10.0
FIMP 281000Z 16007KT 9999 SCT017 28/22 Q1013,FIMP,2023-04-28T10:00:00Z,-20.43,57.68,28.0,22.0,160,7,,6.21,29.911417,,,,,,,,,,,SCT,1700,,,,,,,VFR,,,,,,,,,,,,METAR,57.0
FGSL 281000Z 01005KT 320V050 9999 FEW010 31/27 Q1013 NOSIG,FGSL,2023-04-28T10:00:00Z,3.75,8.72,31.0,27.0,10,5,,6.21,29.911417,,,,,,TRUE,,,,,FEW,1000,,,,,,,VFR,,,,,,,,,,,,METAR,23.0
FEFT 281000Z 28008KT 9999 SCT023 29/21 Q1013,FEFT,2023-04-28T10:00:00Z,4.22,15.8,29.0,21.0,280,8,,6.21,29.911417,,,,,,,,,,,SCT,2300,,,,,,,VFR,,,,,,,,,,,,METAR,567.0
FEFF 281000Z 26005KT 9999 SCT023 33/22 Q1012 NOSIG,FEFF,2023-04-28T10:00:00Z,4.4,18.52,33.0,22.0,260,5,,6.21,29.88189,,,,,,TRUE,,,,,SCT,2300,,,,,,,VFR,,,,,,,,,,,,METAR,364.0
FDST 281000Z AUTO 04005KT //// // ////// 21/17 Q1018,FDST,2023-04-28T10:00:00Z,-26.43,31.95,21.0,17.0,40,5,,,30.059055,,,TRUE,,,,,,,,,,,,,,,,,,,,,,,,,,,,METAR,642.0
FDSK 281000Z 17008KT 120V200 9999 BKN025 26/18 Q1019 NOSIG,FDSK,2023-04-28T10:00:00Z,-26.35,31.72,26.0,18.0,170,8,,6.21,30.088583,,,,,,TRUE,,,,,BKN,2500,,,,,,,MVFR,,,,,,,,,,,,METAR,323.0
FDPP 281000Z AUTO 15003KT //// // ////// ///// Q1025,FDPP,2023-04-28T10:00:00Z,-25.97,31.25,,,150,3,,,30.265747,,,TRUE,,,,,,,,,,,,,,,,,,,,,,,,,,,,METAR,1023.0
FDMY 281000Z AUTO 26003KT //// // ////// 26/19 Q1029,FDMY,2023-04-28T10:00:00Z,-25.88,31.52,26.0,19.0,260,3,,,30.383858,,,TRUE,,,,,,,,,,,,,,,,,,,,,,,,,,,,METAR,401.0
FDBB 281000Z AUTO 11002KT //// // ////// 30/20 Q1016,FDBB,2023-04-28T10:00:00Z,-26.8,31.93,30.0,20.0,110,2,,,30.0,,,TRUE,,,,,,,,,,,,,,,,,,,,,,,,,,,,METAR,106.0
FCPP 281000Z 29006KT 240V330 9999 SCT015 SCT023 FEW030CB 30/24 Q1012 NOSIG,FCPP,2023-04-28T10:00:00Z,-4.82,11.9,30.0,24.0,290,6,,6.21,29.88189,,,,,,TRUE,,,,,SCT,1500,SCT,2300,FEW,3000,,,VFR,,,,,,,,,,,,METAR,18.0
FCOD 281000Z 26004KT 9999 FEW016 FEW030CB 31/24 Q1013,FCOD,2023-04-28T10:00:00Z,,,31.0,24.0,260,4,,6.21,29.911417,,,,,,,,,,,FEW,1600,FEW,3000,,,,,VFR,,,,,,,,,,,,METAR,
FCBB 281000Z 29005KT 250V350 9999 FEW014 27/22 Q1014 NOSIG,FCBB,2023-04-28T10:00:00Z,-4.25,15.25,27.0,22.0,290,5,,6.21,29.940945,,,,,,TRUE,,,,,FEW,1400,,,,,,,VFR,,,,,,,,,,,,METAR,316.0
FBSK 281000Z 24004KT CAVOK 28/13 Q1021 NOSIG,FBSK,2023-04-28T10:00:00Z,-24.55,25.92,28.0,13.0,240,4,,6.21,30.147638,,,,,,TRUE,,,,,CAVOK,,,,,,,,VFR,,,,,,,,,,,,METAR,1007.0
FBPM 281000Z 12007KT 050V160 9999 FEW030 32/10 Q1020,FBPM,2023-04-28T10:00:00Z,-21.17,27.48,32.0,10.0,120,7,,6.21,30.11811,,,,,,,,,,,FEW,3000,,,,,,,VFR,,,,,,,,,,,,METAR,1009.0
FBMN 281000Z 02006KT 330V070 CAVOK 31/14 Q1020,FBMN,2023-04-28T10:00:00Z,-19.97,23.42,31.0,14.0,20,6,,6.21,30.11811,,,,,,,,,,,CAVOK,,,,,,,,VFR,,,,,,,,,,,,METAR,946.0
FBKE 281000Z 10009KT 060V150 CAVOK 29/12 Q1020,FBKE,2023-04-28T10:00:00Z,-17.82,25.17,29.0,12.0,100,9,,6.21,30.11811,,,,,,,,,,,CAVOK,,,,,,,,VFR,,,,,,,,,,,,METAR,999.0
FAVV 281000Z AUTO 27005KT //// // ////// 27/11 Q1026,FAVV,2023-04-28T10:00:00Z,-26.57,27.97,27.0,11.0,270,5,,,30.295275,,,TRUE,,,,,,,,,,,,,,,,,,,,,,,,,,,,METAR,1480.0
FAUT 281000Z 07006KT 9999 FEW020 23/15 Q1019,FAUT,2023-04-28T10:00:00Z,-31.53,28.67,23.0,15.0,70,6,,6.21,30.088583,,,,,,,,,,,FEW,2000,,,,,,,VFR,,,,,,,,,,,,METAR,735.0
FAUP 281000Z 19002KT CAVOK 27/03 Q1019 NOSIG,FAUP,2023-04-28T10:00:00Z,-28.38,21.27,27.0,3.0,190,2,,6.21,30.088583,,,,,,TRUE,,,,,CAVOK,,,,,,,,VFR,,,,,,,,,,,,METAR,845.0
FAPP 281000Z 13006KT 9999 SCT025 30/12 Q1024 NOSIG,FAPP,2023-04-28T10:00:00Z,-23.83,29.45,30.0,12.0,130,6,,6.21,30.236221,,,,,,TRUE,,,,,SCT,2500,,,,,,,VFR,,,,,,,,,,,,METAR,1238.0
FAPN 281000Z AUTO 35002KT //// // ////// 30/14 Q1022,FAPN,2023-04-28T10:00:00Z,-25.33,27.17,30.0,14.0,350,2,,,30.177166,,,TRUE,,,,,,,,,,,,,,,,,,,,,,,,,,,,METAR,1045.0
FAPE 281000Z VRB03KT 9999 SCT028 23/13 Q1016 NOSIG,FAPE,2023-04-28T10:00:00Z,-33.98,25.6,23.0,13.0,0,3,,6.21,30.0,,,,,,TRUE,,,,,SCT,2800,,,,,,,VFR,,,,,,,,,,,,METAR,58.0
FAMM 281000Z 33008KT 9999 FEW040 29/11 Q1023 NOSIG,FAMM,2023-04-28T10:00:00Z,-25.8,25.53,29.0,11.0,330,8,,6.21,30.206694,,,,,,TRUE,,,,,FEW,4000,,,,,,,VFR,,,,,,,,,,,,METAR,1280.0
FALW 281000Z AUTO 02004KT //// // ////// 19/14 Q1019,FALW,2023-04-28T10:00:00Z,-32.97,18.17,19.0,14.0,20,4,,,30.088583,,,TRUE,,,,,,,,,,,,,,,,,,,,,,,,,,,,SPECI,31.0
FALE 281000Z 14006KT 090V180 9999 SCT025 BKN031 25/19 Q1017 NOSIG,FALE,2023-04-28T10:00:00Z,-29.62,31.12,25.0,19.0,140,6,,6.21,30.029528,,,,,,TRUE,,,,,SCT,2500,BKN,3100,,,,,VFR,,,,,,,,,,,,METAR,109.0
FALA 281000Z 28008KT 230V330 CAVOK 26/13 Q1025 NOSIG,FALA,2023-04-28T10:00:00Z,-25.93,27.92,26.0,13.0,280,8,,6.21,30.265747,,,,,,TRUE,,,,,CAVOK,,,,,,,,VFR,,,,,,,,,,,,METAR,1365.0
FAKN 281000Z 07009KT 9999 FEW020 25/18 Q1022 NOSIG,FAKN,2023-04-28T10:00:00Z,-25.38,31.1,25.0,18.0,70,9,,6.21,30.177166,,,,,,TRUE,,,,,FEW,2000,,,,,,,VFR,,,,,,,,,,,,METAR,864.0
FAKM 281000Z 34009KT 9999 FEW040 27/10 Q1021,FAKM,2023-04-28T10:00:00Z,-28.8,24.77,27.0,10.0,340,9,,6.21,30.147638,,,,,,,,,,,FEW,4000,,,,,,,VFR,,,,,,,,,,,,METAR,1203.0
FAJB 281000Z AUTO 33002KT //// // ////// 27/10 Q1025,FAJB,2023-04-28T10:00:00Z,-26.15,28.0,27.0,10.0,330,2,,,30.265747,,,TRUE,,,,,,,,,,,,,,,,,,,,,,,,,,,,METAR,1626.0
FAHS 281000Z AUTO 13005KT //// // ////// 31/21 Q1018,FAHS,2023-04-28T10:00:00Z,-24.37,31.03,31.0,21.0,130,5,,,30.059055,,,TRUE,,,,,,,,,,,,,,,,,,,,,,,,,,,,METAR,532.0
FAEL 281000Z 08009KT 040V100 CAVOK 23/17 Q1016,FAEL,2023-04-28T10:00:00Z,-33.03,27.82,23.0,17.0,80,9,,6.21,30.0,,,,,,,,,,,CAVOK,,,,,,,,VFR,,,,,,,,,,,,METAR,127.0
FACT 281000Z 31013KT 9999 FEW015 BKN035 18/13 Q1019 NOSIG,FACT,2023-04-28T10:00:00Z,-33.97,18.6,18.0,13.0,310,13,,6.21,30.088583,,,,,,TRUE,,,,,FEW,1500,BKN,3500,,,,,VFR,,,,,,,,,,,,METAR,48.0
FABL 281000Z 02007KT CAVOK 26/10 Q1022 NOSIG,FABL,2023-04-28T10:00:00Z,-29.1,26.3,26.0,10.0,20,7,,6.21,30.177166,,,,,,TRUE,,,,,CAVOK,,,,,,,,VFR,,,,,,,,,,,,METAR,1348.0
ETAR 281000Z AUTO 25009KT 9999 -RA FEW009 BKN023 14/14 A2990 RMK AO2 DZE0956RAB0956 CIG 014V023 CIG 018 RWY08 SLP130 $,ETAR,2023-04-28T10:00:00Z,49.43,7.58,14.0,14.0,250,9,,6.21,29.899607,1013.0,,TRUE,TRUE,TRUE,,,,,-RA,FEW,900,BKN,2300,,,,,MVFR,,,,,,,,,,,,METAR,231.0
EIME 281000Z 26009KT 9999 FEW006 SCT010 BKN018 13/12 Q1011,EIME,2023-04-28T10:00:00Z,53.3,-6.45,13.0,12.0,260,9,,6.21,29.852362,,,,,,,,,,,FEW,600,SCT,1000,BKN,1800,,,MVFR,,,,,,,,,,,,METAR,90.0
EIKY 281000Z 26006KT 240V300 9999 FEW011 OVC028 14/12 Q1013,EIKY,2023-04-28T10:00:00Z,52.18,-9.53,14.0,12.0,260,6,,6.21,29.911417,,,,,,,,,,,FEW,1100,OVC,2800,,,,,MVFR,,,,,,,,,,,,METAR,23.0
DXXX 281000Z 27006KT 250V310 9999 FEW012 29/24 Q1012 NOSIG,DXXX,2023-04-28T10:00:00Z,6.17,1.25,29.0,24.0,270,6,,6.21,29.88189,,,,,,TRUE,,,,,FEW,1200,,,,,,,VFR,,,,,,,,,,,,METAR,22.0
DXNG 281000Z 20007KT 170V230 CAVOK 30/18 Q1016,DXNG,2023-04-28T10:00:00Z,9.77,1.1,30.0,18.0,200,7,,6.21,30.0,,,,,,,,,,,CAVOK,,,,,,,,VFR,,,,,,,,,,,,METAR,343.0
DTTZ 281000Z 10018KT CAVOK 29/08 Q1019,DTTZ,2023-04-28T10:00:00Z,33.93,8.1,29.0,8.0,100,18,,6.21,30.088583,,,,,,,,,,,CAVOK,,,,,,,,VFR,,,,,,,,,,,,METAR,87.0
DTTX 281000Z 11009KT 070V140 9999 FEW040 23/12 Q1021,DTTX,2023-04-28T10:00:00Z,34.72,10.68,23.0,12.0,110,9,,6.21,30.147638,,,,,,,,,,,FEW,4000,,,,,,,VFR,,,,,,,,,,,,METAR,17.0
DTTR 281000Z 15011KT CAVOK 31/07 Q1019,DTTR,2023-04-28T10:00:00Z,31.7,9.27,31.0,7.0,150,11,,6.21,30.088583,,,,,,,,,,,CAVOK,,,,,,,,VFR,,,,,,,,,,,,METAR,253.0
DTTN 281000Z ///02KT 9999 FEW020 27/09 Q1019,DTTN,2023-04-28T10:00:00Z,36.47,8.8,27.0,9.0,,,,6.21,30.088583,,,,,,,,,,,FEW,2000,,,,,,,VFR,,,,,,,,,,,,METAR,145.0
DTTL 281000Z 13004KT 9999 FEW020 21/18 Q1021,DTTL,2023-04-28T10:00:00Z,36.85,11.07,21.0,18.0,130,4,,6.21,30.147638,,,,,,,,,,,FEW,2000,,,,,,,VFR,,,,,,,,,,,,METAR,18.0
DTTK 281000Z 15003KT CAVOK 27/09 Q1020,DTTK,2023-04-28T10:00:00Z,35.67,10.08,27.0,9.0,150,3,,6.21,30.11811,,,,,,,,,,,CAVOK,,,,,,,,VFR,,,,,,,,,,,,METAR,65.0
DTTG 281000Z 08011KT 9999 FEW030 26/13 Q1020 NOSIG,DTTG,2023-04-28T10:00:00Z,33.73,9.92,26.0,13.0,80,11,,6.21,30.11811,,,,,,TRUE,,,,,FEW,3000,,,,,,,VFR,,,,,,,,,,,,METAR,120.0
DTTF 281000Z VRB03KT 9999 FEW033 27/06 Q1021 NOSIG,DTTF,2023-04-28T10:00:00Z,34.42,8.82,27.0,6.0,0,3,,6.21,30.147638,,,,,,TRUE,,,,,FEW,3300,,,,,,,VFR,,,,,,,,,,,,METAR,314.0
DTTD 281000Z 09006KT 040V160 CAVOK 26/08 Q1021,DTTD,2023-04-28T10:00:00Z,32.32,10.4,26.0,8.0,90,6,,6.21,30.147638,,,,,,,,,,,CAVOK,,,,,,,,VFR,,,,,,,,,,,,METAR,306.0
DTTB 281000Z 12005KT 060V170 CAVOK 26/13 Q1019,DTTB,2023-04-28T10:00:00Z,37.25,9.8,26.0,13.0,120,5,,6.21,30.088583,,,,,,,,,,,CAVOK,,,,,,,,VFR,,,,,,,,,,,,METAR,4.0
DTKA 281000Z VRB04KT CAVOK 28/14 Q1018 NOSIG,DTKA,2023-04-28T10:00:00Z,36.98,8.88,28.0,14.0,0,4,,6.21,30.059055,,,,,,TRUE,,,,,CAVOK,,,,,,,,VFR,,,,,,,,,,,,METAR,70.0
DRZR 281000Z 22016KT 200V290 CAVOK 35/18 Q1013,DRZR,2023-04-28T10:00:00Z,13.77,8.98,35.0,18.0,220,16,,6.21,29.911417,,,,,,,,,,,CAVOK,,,,,,,,VFR,,,,,,,,,,,,METAR,457.0
DRZF 281000Z 27010KT 230V300 8000 NSC 38/17 Q1011,DRZF,2023-04-28T10:00:00Z,13.42,12.77,38.0,17.0,270,10,,4.97,29.852362,,,,,,,,,,,CLR,,,,,,,,MVFR,,,,,,,,,,,,METAR,305.0
DRZA 281000Z 12013KT CAVOK 39/06 Q1013,DRZA,2023-04-28T10:00:00Z,16.97,8.0,39.0,6.0,120,13,,6.21,29.911417,,,,,,,,,,,CAVOK,,,,,,,,VFR,,,,,,,,,,,,METAR,506.0
DRRT 281000Z 23012KT CAVOK 35/19 Q1013,DRRT,2023-04-28T10:00:00Z,14.87,5.27,35.0,19.0,230,12,,6.21,29.911417,,,,,,,,,,,CAVOK,,,,,,,,VFR,,,,,,,,,,,,METAR,387.0
DRRN 281000Z 25012KT CAVOK 36/17 Q1011 NOSIG,DRRN,2023-04-28T10:00:00Z,13.47,2.17,36.0,17.0,250,12,,6.21,29.852362,,,,,,TRUE,,,,,CAVOK,,,,,,,,VFR,,,,,,,,,,,,METAR,223.0
DRRM 281000Z 28014KT 250V320 CAVOK 35/19 Q1013,DRRM,2023-04-28T10:00:00Z,13.5,7.12,35.0,19.0,280,14,,6.21,29.911417,,,,,,,,,,,CAVOK,,,,,,,,VFR,,,,,,,,,,,,METAR,374.0
DNSO 281000Z 22013KT 9999 FEW013 34/22 Q1013,DNSO,2023-04-28T10:00:00Z,12.92,5.2,34.0,22.0,220,13,,6.21,29.911417,,,,,,,,,,,FEW,1300,,,,,,,VFR,,,,,,,,,,,,METAR,302.0
DNPO 281000Z 19003KT 9999 BKN010 30/25 Q1012 NOSIG,DNPO,2023-04-28T10:00:00Z,4.83,7.02,30.0,25.0,190,3,,6.21,29.88189,,,,,,TRUE,,,,,BKN,1000,,,,,,,MVFR,,,,,,,,,,,,METAR,17.0
DNMN 281000Z 28004KT 9999 SCT011 30/22 Q1013,DNMN,2023-04-28T10:00:00Z,9.65,6.47,30.0,22.0,280,4,,6.21,29.911417,,,,,,,,,,,SCT,1100,,,,,,,VFR,,,,,,,,,,,,METAR,268.0
DNMM 281000Z 28003KT 8000 BKN013 30/25 Q1014 NOSIG,DNMM,2023-04-28T10:00:00Z,6.57,3.32,30.0,25.0,280,3,,4.97,29.940945,,,,,,TRUE,,,,,BKN,1300,,,,,,,MVFR,,,,,,,,,,,,METAR,27.0
DNMA 281000Z 28004KT CAVOK 36/22 Q1012,DNMA,2023-04-28T10:00:00Z,11.85,13.07,36.0,22.0,280,4,,6.21,29.88189,,,,,,,,,,,CAVOK,,,,,,,,VFR,,,,,,,,,,,,METAR,335.0
DNKT 281000Z 21012KT 9999 BKN010 34/20 Q1014,DNKT,2023-04-28T10:00:00Z,13.0,7.67,34.0,20.0,210,12,,6.21,29.940945,,,,,,,,,,,BKN,1000,,,,,,,MVFR,,,,,,,,,,,,METAR,504.0
DNKN 281000Z 26007KT CAVOK 34/20 Q1015 NOSIG,DNKN,2023-04-28T10:00:00Z,12.05,8.52,34.0,20.0,260,7,,6.21,29.970472,,,,,,TRUE,,,,,CAVOK,,,,,,,,VFR,,,,,,,,,,,,METAR,471.0
DNKA 281000Z 21010KT 9999 BKN011 28/21 Q1017,DNKA,2023-04-28T10:00:00Z,10.58,7.45,28.0,21.0,210,10,,6.21,30.029528,,,,,,,,,,,BKN,1100,,,,,,,MVFR,,,,,,,,,,,,METAR,631.0
DNJO 281000Z 27008KT CAVOK 23/20 Q1020,DNJO,2023-04-28T10:00:00Z,9.87,8.9,23.0,20.0,270,8,,6.21,30.11811,,,,,,,,,,,CAVOK,,,,,,,,VFR,,,,,,,,,,,,METAR,1284.0
DNIL 281000Z 24005KT 9999 SCT011 29/24 Q1014,DNIL,2023-04-28T10:00:00Z,8.43,4.48,29.0,24.0,240,5,,6.21,29.940945,,,,,,,,,,,SCT,1100,,,,,,,VFR,,,,,,,,,,,,METAR,341.0
DNIB 281000Z 23003KT 9999 SCT011 29/24 Q1014,DNIB,2023-04-28T10:00:00Z,7.37,3.98,29.0,24.0,230,3,,6.21,29.940945,,,,,,,,,,,SCT,1100,,,,,,,VFR,,,,,,,,,,,,METAR,220.0
DNGO 281000Z 17010KT CAVOK 33/21 Q1012,DNGO,2023-04-28T10:00:00Z,10.3,10.9,33.0,21.0,170,10,,6.21,29.88189,,,,,,,,,,,CAVOK,,,,,,,,VFR,,,,,,,,,,,,METAR,510.0
DNEN 281000Z 26005KT 9999 SCT012 30/23 Q1013 NOSIG,DNEN,2023-04-28T10:00:00Z,6.47,7.55,30.0,23.0,260,5,,6.21,29.911417,,,,,,TRUE,,,,,SCT,1200,,,,,,,VFR,,,,,,,,,,,,METAR,142.0
DNAK 281000Z 18006KT 9999 BKN013 29/24 Q1015,DNAK,2023-04-28T10:00:00Z,7.25,5.3,29.0,24.0,180,6,,6.21,29.970472,,,,,,,,,,,BKN,1300,,,,,,,MVFR,,,,,,,,,,,,METAR,328.0
DNAA 281000Z 22004KT 9999 FEW011 30/22 Q1014 NOSIG,DNAA,2023-04-28T10:00:00Z,9.0,7.27,30.0,22.0,220,4,,6.21,29.940945,,,,,,TRUE,,,,,FEW,1100,,,,,,,VFR,,,,,,,,,,,,METAR,338.0
DIYO 281000Z 22006KT 9999 FEW013 27/22 Q1015 NOSIG,DIYO,2023-04-28T10:00:00Z,6.9,-5.35,27.0,22.0,220,6,,6.21,29.970472,,,,,,TRUE,,,,,FEW,1300,,,,,,,VFR,,,,,,,,,,,,METAR,202.0
DIBK 281000Z 22008KT 9999 FEW016 29/21 Q1015 NOSIG,DIBK,2023-04-28T10:00:00Z,7.73,-5.07,29.0,21.0,220,8,,6.21,29.970472,,,,,,TRUE,,,,,FEW,1600,,,,,,,VFR,,,,,,,,,,,,METAR,363.0
DGAA 281000Z 25007KT 210V280 CAVOK 28/24 Q1012 NOSIG,DGAA,2023-04-28T10:00:00Z,5.58,-0.17,28.0,24.0,250,7,,6.21,29.88189,,,,,,TRUE,,,,,CAVOK,,,,,,,,VFR,,,,,,,,,,,,METAR,68.0
DFOO 281000Z 22013KT CAVOK 31/20 Q1014,DFOO,2023-04-28T10:00:00Z,11.17,-4.32,31.0,20.0,220,13,,6.21,29.940945,,,,,,,,,,,CAVOK,,,,,,,,VFR,,,,,,,,,,,,METAR,461.0
DFFD 281000Z 22009KT 190V280 CAVOK 34/20 Q1012 NOSIG,DFFD,2023-04-28T10:00:00Z,12.35,-1.52,34.0,20.0,220,9,,6.21,29.88189,,,,,,TRUE,,,,,CAVOK,,,,,,,,VFR,,,,,,,,,,,,METAR,309.0
DBBB 281000Z VRB01KT 9999 SCT012 30/24 Q1012 NOSIG,DBBB,2023-04-28T10:00:00Z,6.35,2.38,30.0,24.0,0,1,,6.21,29.88189,,,,,,TRUE,,,,,SCT,1200,,,,,,,VFR,,,,,,,,,,,,METAR,4.0
DAUZ 281000Z 12011KT CAVOK 32/M04 Q1019,DAUZ,2023-04-28T10:00:00Z,28.05,9.63,32.0,-4.0,120,11,,6.21,30.088583,,,,,,,,,,,CAVOK,,,,,,,,VFR,,,,,,,,,,,,METAR,567.0
DAUH 281000Z 10005KT 040V160 CAVOK 35/M01 Q1017,DAUH,2023-04-28T10:00:00Z,31.67,6.15,35.0,-1.0,100,5,,6.21,30.029528,,,,,,,,,,,CAVOK,,,,,,,,VFR,,,,,,,,,,,,METAR,141.0
DAUG 281000Z 10004KT 040V160 CAVOK 31/M03 Q1021,DAUG,2023-04-28T10:00:00Z,32.38,3.78,31.0,-3.0,100,4,,6.21,30.147638,,,,,,,,,,,CAVOK,,,,,,,,VFR,,,,,,,,,,,,METAR,444.0
DAUB 281000Z 13008KT CAVOK 28/05 Q1020,DAUB,2023-04-28T10:00:00Z,34.78,5.73,28.0,5.0,130,8,,6.21,30.11811,,,,,,,,,,,CAVOK,,,,,,,,VFR,,,,,,,,,,,,METAR,75.0
DAUA 281000Z 07015KT CAVOK 38/// Q1014,DAUA,2023-04-28T10:00:00Z,27.83,-0.18,,,70,15,,6.21,29.940945,,,,,,,,,,,CAVOK,,,,,,,,VFR,,,,,,,,,,,,METAR,278.0
DAOV 281000Z 21007KT 160V250 9999 FEW033 37/// Q1016,DAOV,2023-04-28T10:00:00Z,35.2,0.15,,,210,7,,6.21,30.0,,,,,,,,,,,FEW,3300,,,,,,,VFR,,,,,,,,,,,,METAR,506.0
DAOR 281000Z 20005KT CAVOK 32/// Q1022,DAOR,2023-04-28T10:00:00Z,31.65,-2.27,,,200,5,,6.21,30.177166,,,,,,,,,,,CAVOK,,,,,,,,VFR,,,,,,,,,,,,METAR,809.0
DAOL 281000Z 27008KT 8000 FEW026 26/16 Q1015,DAOL,2023-04-28T10:00:00Z,35.53,-0.52,26.0,16.0,270,8,,4.97,29.970472,,,,,,,,,,,FEW,2600,,,,,,,MVFR,,,,,,,,,,,,METAR,103.0
DAOI 281000Z 07009KT CAVOK 34/// Q1016,DAOI,2023-04-28T10:00:00Z,36.22,1.32,,,70,9,,6.21,30.0,,,,,,,,,,,CAVOK,,,,,,,,VFR,,,,,,,,,,,,METAR,141.0
DAOF 281000Z 11004KT CAVOK 34/05 Q1017,DAOF,2023-04-28T10:00:00Z,27.7,-8.17,34.0,5.0,110,4,,6.21,30.029528,,,,,,,,,,,CAVOK,,,,,,,,VFR,,,,,,,,,,,,METAR,441.0
DAOB 281000Z 20010KT CAVOK 33/// Q1022,DAOB,2023-04-28T10:00:00Z,35.33,1.47,,,200,10,,6.21,30.177166,,,,,,,,,,,CAVOK,,,,,,,,VFR,,,,,,,,,,,,METAR,976.0
DAFH 281000Z 19007KT CAVOK 32/M03 Q1022,DAFH,2023-04-28T10:00:00Z,32.93,3.32,32.0,-3.0,190,7,,6.21,30.177166,,,,,,,,,,,CAVOK,,,,,,,,VFR,,,,,,,,,,,,METAR,774.0
DABT 281000Z 32003KT CAVOK 28/M01 Q1022,DABT,2023-04-28T10:00:00Z,35.75,6.32,28.0,-1.0,320,3,,6.21,30.177166,,,,,,,,,,,CAVOK,,,,,,,,VFR,,,,,,,,,,,,METAR,813.0
DABS 281000Z 31003KT CAVOK 28/M07 Q1022,DABS,2023-04-28T10:00:00Z,35.43,8.12,28.0,-7.0,310,3,,6.21,30.177166,,,,,,,,,,,CAVOK,,,,,,,,VFR,,,,,,,,,,,,METAR,806.0
DAAY 281000Z 22018KT CAVOK 31/// Q1024,DAAY,2023-04-28T10:00:00Z,33.53,-0.25,,,220,18,,6.21,30.236221,,,,,,,,,,,CAVOK,,,,,,,,VFR,,,,,,,,,,,,METAR,1116.0
DAAV 281000Z 34004KT CAVOK 26/14 Q1017,DAAV,2023-04-28T10:00:00Z,36.8,5.88,26.0,14.0,340,4,,6.21,30.029528,,,,,,,,,,,CAVOK,,,,,,,,VFR,,,,,,,,,,,,METAR,11.0
DAAS 281000Z 22005KT CAVOK 26/M03 Q1023,DAAS,2023-04-28T10:00:00Z,36.18,5.33,26.0,-3.0,220,5,,6.21,30.206694,,,,,,,,,,,CAVOK,,,,,,,,VFR,,,,,,,,,,,,METAR,1012.0
DAAP 281000Z 14010KT 9999 FEW046 37/// Q1017,DAAP,2023-04-28T10:00:00Z,26.72,8.62,,,140,10,,6.21,30.029528,,,,,,,,,,,FEW,4600,,,,,,,VFR,,,,,,,,,,,,METAR,542.0
DAAJ 281000Z 28003KT 7000 NSC 32/// Q1021,DAAJ,2023-04-28T10:00:00Z,24.28,9.47,,,280,3,,4.35,30.147638,,,,,,,,,,,CLR,,,,,,,,MVFR,,,,,,,,,,,,METAR,962.0
DAAE 281000Z 12011KT CAVOK 25/12 Q1016,DAAE,2023-04-28T10:00:00Z,36.72,5.07,25.0,12.0,120,11,,6.21,30.0,,,,,,,,,,,CAVOK,,,,,,,,VFR,,,,,,,,,,,,METAR,1.0
DAAD 281000Z 09005KT 8000 NSC 29/06 Q1021,DAAD,2023-04-28T10:00:00Z,35.32,4.2,29.0,6.0,90,5,,4.97,30.147638,,,,,,,,,,,CLR,,,,,,,,MVFR,,,,,,,,,,,,METAR,461.0
CZZJ 281000Z AUTO 31003KT 05/M03 RMK AO1 SLP194 T00511027 53002,CZZJ,2023-04-28T10:00:00Z,53.58,-116.47,5.1,-2.7,310,3,,,,1019.4,,TRUE,TRUE,,,,,,,,,,,,,,,,0.2,,,,,,,,,,,METAR,927.0
CZVL 281000Z AUTO 31006KT 9SM BKN180 OVC200 09/M01 A3002 RMK SLP177,CZVL,2023-04-28T10:00:00Z,53.67,-113.85,9.0,-1.0,310,6,,9.0,30.02067,1017.7,,TRUE,,,,,,,,BKN,18000,OVC,20000,,,,,VFR,,,,,,,,,,,,METAR,685.0
CZUM 281000Z AUTO 07006KT 9SM OVC071 01/M01 A3021 RMK SLP250,CZUM,2023-04-28T10:00:00Z,53.55,-64.1,1.0,-1.0,70,6,,9.0,30.209646,1025.0,,TRUE,,,,,,,,OVC,7100,,,,,,,VFR,,,,,,,,,,,,METAR,431.0
CZTB 281000Z AUTO 00006KT 03/03 RMK AO1 SOG 01 1007 SLP167 T00320026 50001,CZTB,2023-04-28T10:00:00Z,48.37,-89.32,3.2,2.6,0,6,,,,1016.7,,TRUE,TRUE,,,,,,,,,,,,,,,,0.1,,,,,,,,,,,METAR,197.0
CZSP 281000Z AUTO 32005KT 01/01 RMK AO1 SLP221 T00110010 53011,CZSP,2023-04-28T10:00:00Z,46.45,-62.58,1.1,1.0,320,5,,,,1022.1,,TRUE,TRUE,,,,,,,,,,,,,,,,1.1,,,,,,,,,,,METAR,31.0
CZSM 281000Z AUTO 13001KT 02/01 RMK AO1 SLP101 T00180010 55001,CZSM,2023-04-28T10:00:00Z,60.03,-111.93,1.8,1.0,130,1,,,,1010.1,,TRUE,TRUE,,,,,,,,,,,,,,,,-0.1,,,,,,,,,,,METAR,203.0
CZSJ 281000Z AUTO 00000KT 9SM BKN060 M03/M03 A3006 RMK SLP195,CZSJ,2023-04-28T10:00:00Z,53.07,-93.35,-3.0,-3.0,0,0,,9.0,30.059055,1019.5,,TRUE,,,,,,,,BKN,6000,,,,,,,VFR,,,,,,,,,,,,METAR,286.0
CZPS 281000Z AUTO 25007KT 07/M04 RMK AO1 T00681042,CZPS,2023-04-28T10:00:00Z,52.43,-113.6,6.8,-4.2,250,7,,,,,,TRUE,TRUE,,,,,,,,,,,,,,,,,,,,,,,,,,,METAR,953.0
CZPC 281000Z AUTO 31009KT 9SM CLR 05/M05 A3012 RMK SLP216,CZPC,2023-04-28T10:00:00Z,49.52,-114.0,5.0,-5.0,310,9,,9.0,30.121063,1021.6,,TRUE,,,,,,,,CLR,,,,,,,,VFR,,,,,,,,,,,,METAR,1187.0
CZOL 281000Z AUTO 32005KT 10/M04 RMK AO1 T01011035,CZOL,2023-04-28T10:00:00Z,53.65,-113.35,10.1,-3.5,320,5,,,,,,TRUE,TRUE,,,,,,,,,,,,,,,,,,,,,,,,,,,METAR,645.0
CZMJ 281000Z AUTO 28003KT M01/M02 RMK AO1 SLP228 T10071015 50000,CZMJ,2023-04-28T10:00:00Z,50.33,-105.53,-0.7,-1.5,280,3,,,,1022.8,,TRUE,TRUE,,,,,,,,,,,,,,,,0.0,,,,,,,,,,,METAR,571.0
CZMD 281000Z AUTO 04004KT 9SM OVC066 M02/M04 A3007 RMK SLP198,CZMD,2023-04-28T10:00:00Z,53.43,-91.77,-2.0,-4.0,40,4,,9.0,30.070866,1019.8,,TRUE,,,,,,,,OVC,6600,,,,,,,VFR,,,,,,,,,,,,METAR,276.0
CZKD 281000Z AUTO 05005KT M06/M07 RMK AO1 SOG 20 8001 SLP221 T10611067,CZKD,2023-04-28T10:00:00Z,56.03,-96.52,-6.1,-6.7,50,5,,,,1022.1,,TRUE,TRUE,,,,,,,,,,,,,,,,,,,,,,,,,,,METAR,190.0
CZHY 281000Z AUTO 27009KT 06/M03 RMK AO1 SLP102 T00571033 53014,CZHY,2023-04-28T10:00:00Z,60.83,-115.78,5.7,-3.3,270,9,,,,1010.2,,TRUE,TRUE,,,,,,,,,,,,,,,,1.4,,,,,,,,,,,METAR,159.0
CZFS 281000Z AUTO 25001KT M01/M05 RMK AO1 SLP133 T10091049 51028,CZFS,2023-04-28T10:00:00Z,61.77,-121.23,-0.9,-4.9,250,1,,,,1013.3,,TRUE,TRUE,,,,,,,,,,,,,,,,2.8,,,,,,,,,,,METAR,174.0
CZEV 281000Z AUTO 30008KT M14/M16 RMK AO1 SOG 52 1023 SLP162 T11441164,CZEV,2023-04-28T10:00:00Z,68.32,-133.48,-14.4,-16.4,300,8,,,,1016.2,,TRUE,TRUE,,,,,,,,,,,,,,,,,,,,,,,,,,,METAR,92.0
CZEL 281000Z AUTO 07010KT 04/M01 RMK AO1 SLP157 T00351011 56011,CZEL,2023-04-28T10:00:00Z,43.65,-80.42,3.5,-1.1,70,10,,,,1015.7,,TRUE,TRUE,,,,,,,,,,,,,,,,-1.1,,,,,,,,,,,METAR,370.0
CZDB 281000Z AUTO 00000KT 01/M00 RMK AO1 SLP221 T00081003 53011,CZDB,2023-04-28T10:00:00Z,45.42,-63.47,0.8,-0.3,0,0,,,,1022.1,,TRUE,TRUE,,,,,,,,,,,,,,,,1.1,,,,,,,,,,,METAR,38.0
CZCR 281000Z AUTO 24002KT 02/01 RMK AO1 3PAST HR 3010 SLP225 P0001 T00190009 50003,CZCR,2023-04-28T10:00:00Z,47.98,-66.33,1.9,0.9,240,2,,,,1022.5,,TRUE,TRUE,,,,,,,,,,,,,,,,0.3,,,,,0.01,,,,,,METAR,39.0
CZCP 281000Z AUTO 00000KT ////SM ////// M07/M08 A2981,CZCP,2023-04-28T10:00:00Z,70.17,-124.68,-7.0,-8.0,0,0,,,29.811024,,,TRUE,,,,,,,,,,,,,,,,,,,,,,,,,,,,METAR,23.0
CZBF 281000Z AUTO VRB02KT 9SM CLR 02/01 A3019 RMK SLP230,CZBF,2023-04-28T10:00:00Z,47.62,-65.75,2.0,1.0,0,2,,9.0,30.188976,1023.0,,TRUE,,,,,,,,CLR,,,,,,,,VFR,,,,,,,,,,,,METAR,60.0
CYZY 281000Z AUTO VRB02KT 9SM SCT066 BKN150 04/M02 A3016 RMK SLP237,CYZY,2023-04-28T10:00:00Z,55.3,-123.13,4.0,-2.0,0,2,,9.0,30.159449,1023.7,,TRUE,,,,,,,,SCT,6600,BKN,15000,,,,,VFR,,,,,,,,,,,,METAR,694.0
CYZX 281000Z 26003KT 12SM FEW045 BKN078 05/04 A3020 RMK SC1AC6 DENSITY ALT -1282FT SLP229,CYZX,2023-04-28T10:00:00Z,44.98,-64.92,5.0,4.0,260,3,,12.0,30.200787,1022.9,,,,,,,,,,FEW,4500,BKN,7800,,,,,VFR,,,,,,,,,,,,METAR,28.0
CYZV 281000Z 32003KT 30SM FEW075 M00/M00 A3017 RMK AC1 AC TR SLP221,CYZV,2023-04-28T10:00:00Z,50.22,-66.27,0.0,0.0,320,3,,30.0,30.171259,1022.1,,,,,,,,,,FEW,7500,,,,,,,VFR,,,,,,,,,,,,METAR,43.0
CYZT 281000Z 24003KT 15SM FEW130 02/02 A3019 RMK AC2 SLP224,CYZT,2023-04-28T10:00:00Z,50.68,-127.37,2.0,2.0,240,3,,15.0,30.188976,1022.4,,,,,,,,,,FEW,13000,,,,,,,VFR,,,,,,,,,,,,METAR,13.0
CYZS 281000Z 10010KT 1SM -SN OVC011 M03/M03 A3010 RMK SC8 SLP199,CYZS,2023-04-28T10:00:00Z,64.2,-83.35,-3.0,-3.0,100,10,,1.0,30.100393,1019.9,,,,,,,,,-SN,OVC,1100,,,,,,,IFR,,,,,,,,,,,,METAR,60.0
CYZR 281000Z AUTO 06004KT 9SM SCT170 BKN240 06/01 A2989 RMK SLP126,CYZR,2023-04-28T10:00:00Z,43.0,-82.3,6.0,1.0,60,4,,9.0,29.890747,1012.6,,TRUE,,,,,,,,SCT,17000,BKN,24000,,,,,VFR,,,,,,,,,,,,METAR,181.0
CYZP 281000Z AUTO 11003KT FEW022 SCT043 BKN055 OVC082 08/06 A3018 RMK WX MISG VIS MISG SLP223,CYZP,2023-04-28T10:00:00Z,53.25,-131.82,8.0,6.0,110,3,,,30.180119,1022.3,,TRUE,,,,,,,,FEW,2200,SCT,4300,BKN,5500,OVC,8200,,,,,,,,,,,,,METAR,7.0
CYZH 281000Z AUTO 27022G30KT 9SM CLR 10/M03 A2997 RMK SLP165,CYZH,2023-04-28T10:00:00Z,55.28,-114.77,10.0,-3.0,270,22,30,9.0,29.970472,1016.5,,TRUE,,,,,,,,CLR,,,,,,,,VFR,,,,,,,,,,,,METAR,583.0
CYZF 281000Z 27003KT 15SM FEW052 FEW200 M02/M02 A2978 RMK SC1CI1 CI TR SLP099,CYZF,2023-04-28T10:00:00Z,62.47,-114.45,-2.0,-2.0,270,3,,15.0,29.778543,1009.9,,,,,,,,,,FEW,5200,FEW,20000,,,,,VFR,,,,,,,,,,,,METAR,202.0
CYZE 281000Z AUTO VRB02KT 9SM CLR 06/01 A3000 RMK SLP166,CYZE,2023-04-28T10:00:00Z,45.88,-82.57,6.0,1.0,0,2,,9.0,30.0,1016.6,,TRUE,,,,,,,,CLR,,,,,,,,VFR,,,,,,,,,,,,METAR,189.0
CYYZ 281000Z 08006KT 15SM FEW160 SCT240 07/01 A3000 RMK AC1CI2 SLP166,CYYZ,2023-04-28T10:00:00Z,43.67,-79.62,7.0,1.0,80,6,,15.0,30.0,1016.6,,,,,,,,,,FEW,16000,SCT,24000,,,,,VFR,,,,,,,,,,,,METAR,171.0
CYYY 281000Z 22004KT 30SM SKC 04/01 A3021 RMK SLP233,CYYY,2023-04-28T10:00:00Z,48.6,-68.22,4.0,1.0,220,4,,30.0,30.209646,1023.3,,,,,,,,,,SKC,,,,,,,,VFR,,,,,,,,,,,,METAR,43.0
CYYW 281000Z AUTO 00000KT 9SM OVC014 M01/M01 A3001 RMK SLP181,CYYW,2023-04-28T10:00:00Z,50.3,-88.9,-1.0,-1.0,0,0,,9.0,30.008858,1018.1,,TRUE,,,,,,,,OVC,1400,,,,,,,MVFR,,,,,,,,,,,,METAR,320.0
CYYU 281000Z 20004KT 15SM OVC020 02/00 A3001 RMK SC8 SLP176,CYYU,2023-04-28T10:00:00Z,49.42,-82.47,2.0,0.0,200,4,,15.0,30.008858,1017.6,,,,,,,,,,OVC,2000,,,,,,,MVFR,,,,,,,,,,,,METAR,228.0
CYYN 281000Z AUTO 22010KT 9SM CLR 00/M01 A3009 RMK ICE MISG SLP215,CYYN,2023-04-28T10:00:00Z,50.28,-107.68,0.0,-1.0,220,10,,9.0,30.088583,1021.5,,TRUE,,,,,,,,CLR,,,,,,,,VFR,,,,,,,,,,,,METAR,814.0
CYYL 281000Z AUTO 13003KT 9SM FEW150 M03/M06 A3004 RMK SLP195,CYYL,2023-04-28T10:00:00Z,56.87,-101.07,-3.0,-6.0,130,3,,9.0,30.041338,1019.5,,TRUE,,,,,,,,FEW,15000,,,,,,,VFR,,,,,,,,,,,,METAR,351.0
CYYJ 281000Z 28003KT 20SM FEW230 08/07 A3012 RMK CI1 SLP203,CYYJ,2023-04-28T10:00:00Z,48.63,-123.42,8.0,7.0,280,3,,20.0,30.121063,1020.3,,,,,,,,,,FEW,23000,,,,,,,VFR,,,,,,,,,,,,METAR,16.0
CYYH 281000Z 02009KT 2SM BR SCT001 SCT020 SCT210 M19/M20 A3021 RMK FG2ST1SC1CI1 CI TR VIS S 5 SLP236,CYYH,2023-04-28T10:00:00Z,69.53,-93.57,-19.0,-20.0,20,9,,2.0,30.209646,1023.6,,,,,,,,,BR,SCT,100,SCT,2000,SCT,21000,,,IFR,,,,,,,,,,,,METAR,19.0
CYYG 281000Z 34004KT 1/4SM R03/2000V2400FT/N FG VV002 01/00 A3017 RMK FG8 SLP221,CYYG,2023-04-28T10:00:00Z,46.28,-63.12,1.0,0.0,340,4,,0.25,30.171259,1022.1,,,,,,,,,FG,OVX,0,,,,,,,LIFR,,,,,,,,,,,200,METAR,48.0
CYYF 281000Z 00000KT 15SM SCT200 05/M02 A3021 RMK CI4 SLP237,CYYF,2023-04-28T10:00:00Z,49.47,-119.6,5.0,-2.0,0,0,,15.0,30.209646,1023.7,,,,,,,,,,SCT,20000,,,,,,,VFR,,,,,,,,,,,,METAR,342.0
CYYE 281000Z 22005KT 15SM SCT240 M00/M05 A3003 RMK CI3 SLP185,CYYE,2023-04-28T10:00:00Z,58.83,-122.58,0.0,-5.0,220,5,,15.0,30.029528,1018.5,,,,,,,,,,SCT,24000,,,,,,,VFR,,,,,,,,,,,,METAR,379.0
CYYD 281000Z AUTO 00000KT 9SM BKN120 02/M01 A3022 RMK SLP250,CYYD,2023-04-28T10:00:00Z,54.82,-127.18,2.0,-1.0,0,0,,9.0,30.221457,1025.0,,TRUE,,,,,,,,BKN,12000,,,,,,,VFR,,,,,,,,,,,,METAR,527.0
CYYC 281000Z VRB02KT 12SM FEW200 08/M05 A3008 RMK CI1 SLP205,CYYC,2023-04-28T10:00:00Z,51.12,-114.02,8.0,-5.0,0,2,,12.0,30.079725,1020.5,,,,,,,,,,FEW,20000,,,,,,,VFR,,,,,,,,,,,,METAR,1085.0
CYYB 281000Z AUTO 10009KT 9SM OVC071 06/M01 A3006 RMK SLP192,CYYB,2023-04-28T10:00:00Z,46.35,-79.42,6.0,-1.0,100,9,,9.0,30.059055,1019.2,,TRUE,,,,,,,,OVC,7100,,,,,,,VFR,,,,,,,,,,,,METAR,360.0
CYXY 281000Z 17007G15KT 120V180 15SM FEW053 SCT240 02/M05 A2998 RMK SC2CI1 SLP184,CYXY,2023-04-28T10:00:00Z,60.72,-135.07,2.0,-5.0,170,7,15,15.0,29.97933,1018.4,,,,,,,,,,FEW,5300,SCT,24000,,,,,VFR,,,,,,,,,,,,METAR,677.0
CYXX 281000Z 00000KT 15SM FEW250 08/07 A3012 RMK CI2 SLP203,CYXX,2023-04-28T10:00:00Z,49.03,-122.38,8.0,7.0,0,0,,15.0,30.121063,1020.3,,,,,,,,,,FEW,25000,,,,,,,VFR,,,,,,,,,,,,METAR,54.0
CYXT 281000Z 00000KT 15SM BKN060 04/02 A3025 RMK SC7 SLP255,CYXT,2023-04-28T10:00:00Z,54.47,-128.57,4.0,2.0,0,0,,15.0,30.250984,1025.5,,,,,,,,,,BKN,6000,,,,,,,VFR,,,,,,,,,,,,METAR,213.0
CYXR 281000Z AUTO 15007KT 9SM OVC071 04/01 A3005 RMK SLP186,CYXR,2023-04-28T10:00:00Z,47.7,-79.85,4.0,1.0,150,7,,9.0,30.050198,1018.6,,TRUE,,,,,,,,OVC,7100,,,,,,,VFR,,,,,,,,,,,,METAR,244.0
CYXL 281000Z 03003KT 15SM SCT230 M02/M02 A3001 RMK CI3 FROIN SLP185,CYXL,2023-04-28T10:00:00Z,50.12,-91.9,-2.0,-2.0,30,3,,15.0,30.008858,1018.5,,,,,,,,,,SCT,23000,,,,,,,VFR,,,,,,,,,,,,METAR,381.0
CYXJ 281000Z 25011KT 15SM BKN240 06/M02 A3007 RMK CI6 SLP204,CYXJ,2023-04-28T10:00:00Z,56.25,-120.73,6.0,-2.0,250,11,,15.0,30.070866,1020.4,,,,,,,,,,BKN,24000,,,,,,,VFR,,,,,,,,,,,,METAR,700.0
CYXH 281000Z AUTO 19003KT 9SM CLR 01/M02 A3010 RMK SLP208,CYXH,2023-04-28T10:00:00Z,50.02,-110.72,1.0,-2.0,190,3,,9.0,30.100393,1020.8,,TRUE,,,,,,,,CLR,,,,,,,,VFR,,,,,,,,,,,,METAR,717.0
CYXE 281000Z 19004KT 15SM FEW100 01/M02 A3008 RMK AC2 SLP208,CYXE,2023-04-28T10:00:00Z,52.17,-106.7,1.0,-2.0,190,4,,15.0,30.079725,1020.8,,,,,,,,,,FEW,10000,,,,,,,VFR,,,,,,,,,,,,METAR,504.0
CYXC 281000Z 27007KT 220V290 15SM FEW120 06/M05 A3022 RMK AC1 AC TR SLP241,CYXC,2023-04-28T10:00:00Z,49.6,-115.78,6.0,-5.0,270,7,,15.0,30.221457,1024.1,,,,,,,,,,FEW,12000,,,,,,,VFR,,,,,,,,,,,,METAR,928.0
CYWL 281000Z 33003KT 15SM BKN160 08/M06 A3016 RMK AC6 SLP230,CYWL,2023-04-28T10:00:00Z,52.18,-122.07,8.0,-6.0,330,3,,15.0,30.159449,1023.0,,,,,,,,,,BKN,16000,,,,,,,VFR,,,,,,,,,,,,METAR,942.0
CYWK 281000Z 03002KT 15SM SKC M02/M03 A3017 RMK SLP242,CYWK,2023-04-28T10:00:00Z,52.92,-66.87,-2.0,-3.0,30,2,,15.0,30.171259,1024.2,,,,,,,,,,SKC,,,,,,,,VFR,,,,,,,,,,,,METAR,547.0
CYWG 281000Z 31004KT 15SM FEW034 BKN066 02/02 A3002 RMK SC2AC5 SLP175,CYWG,2023-04-28T10:00:00Z,49.9,-97.23,2.0,2.0,310,4,,15.0,30.02067,1017.5,,,,,,,,,,FEW,3400,BKN,6600,,,,,VFR,,,,,,,,,,,,METAR,238.0
CYWE 281000Z AUTO 08002KT 8SM OVC046 M00/M00 A2974 RMK ICE MISG SLP098,CYWE,2023-04-28T10:00:00Z,64.18,-114.08,0.0,0.0,80,2,,8.0,29.740158,1009.8,,TRUE,,,,,,,,OVC,4600,,,,,,,VFR,,,,,,,,,,,,METAR,374.0
CYVV 281000Z 03003KT 15SM BKN250 02/M00 A2998 RMK CI6 SLP160,CYVV,2023-04-28T10:00:00Z,44.75,-81.1,2.0,0.0,30,3,,15.0,29.97933,1016.0,,,,,,,,,,BKN,25000,,,,,,,VFR,,,,,,,,,,,,METAR,221.0
CYVR 281000Z 30004KT 20SM SKC 09/09 A3012 RMK SLP203,CYVR,2023-04-28T10:00:00Z,49.17,-123.17,9.0,9.0,300,4,,20.0,30.121063,1020.3,,,,,,,,,,SKC,,,,,,,,VFR,,,,,,,,,,,,METAR,2.0
CYVQ 281000Z 09004KT 30SM FEW040 FEW090 SCT120 BKN220 M05/M07 A2990 RMK SC1AC1AC2CI3 SC TR SLP132,CYVQ,2023-04-28T10:00:00Z,65.27,-126.78,-5.0,-7.0,90,4,,30.0,29.899607,1013.2,,,,,,,,,,FEW,4000,FEW,9000,SCT,12000,BKN,22000,VFR,,,,,,,,,,,,METAR,63.0
CYVP 281000Z 11005KT 360V120 15SM -RA FEW038 BKN049 02/02 A3028 RMK SC1SC6 SLP259,CYVP,2023-04-28T10:00:00Z,58.12,-68.42,2.0,2.0,110,5,,15.0,30.280512,1025.9,,,,,,,,,-RA,FEW,3800,BKN,4900,,,,,VFR,,,,,,,,,,,,METAR,28.0
CYVO 281000Z 17006KT 15SM OVC070 04/00 A3012 RMK AS8 SLP215,CYVO,2023-04-28T10:00:00Z,48.07,-77.77,4.0,0.0,170,6,,15.0,30.121063,1021.5,,,,,,,,,,OVC,7000,,,,,,,VFR,,,,,,,,,,,,METAR,329.0
CYVL 281000Z AUTO 18006KT 9SM CLR M08/M10 A2982 RMK SLP122,CYVL,2023-04-28T10:00:00Z,67.02,-126.13,-8.0,-10.0,180,6,,9.0,29.819881,1012.2,,TRUE,,,,,,,,CLR,,,,,,,,VFR,,,,,,,,,,,,METAR,261.0
CYVC 281000Z 18004KT 15SM OVC080 00/M02 A3003 RMK AC8 SLP191,CYVC,2023-04-28T10:00:00Z,55.15,-105.27,0.0,-2.0,180,4,,15.0,30.029528,1019.1,,,,,,,,,,OVC,8000,,,,,,,VFR,,,,,,,,,,,,METAR,378.0
CYUY 281000Z 15008KT 15SM OVC054 04/M01 A3008 RMK SC8 SLP198,CYUY,2023-04-28T10:00:00Z,48.2,-78.82,4.0,-1.0,150,8,,15.0,30.079725,1019.8,,,,,,,,,,OVC,5400,,,,,,,VFR,,,,,,,,,,,,METAR,304.0
CYUL 281000Z 02006KT 30SM FEW150 FEW240 04/01 A3020 RMK AC1CI2 AC TR SLP230,CYUL,2023-04-28T10:00:00Z,45.47,-73.73,4.0,1.0,20,6,,30.0,30.200787,1023.0,,,,,,,,,,FEW,15000,FEW,24000,,,,,VFR,,,,,,,,,,,,METAR,31.0
CYTZ 281000Z AUTO 05021G27KT 9SM CLR 07/03 A3001 RMK SLP165,CYTZ,2023-04-28T10:00:00Z,43.63,-79.4,7.0,3.0,50,21,27,9.0,30.008858,1016.5,,TRUE,,,,,,,,CLR,,,,,,,,VFR,,,,,,,,,,,,METAR,76.0
CYTS 281000Z 04002KT 15SM FEW060 SCT130 SCT250 M00/M02 A3003 RMK SC1AC2CI1 SLP186,CYTS,2023-04-28T10:00:00Z,48.57,-81.37,0.0,-2.0,40,2,,15.0,30.029528,1018.6,,,,,,,,,,FEW,6000,SCT,13000,SCT,25000,,,VFR,,,,,,,,,,,,METAR,290.0
CYTR 281000Z 06005KT 15SM SCT250 04/01 A3008 RMK CI3 DENSITY ALT -1083FT SLP189,CYTR,2023-04-28T10:00:00Z,44.12,-77.52,4.0,1.0,60,5,,15.0,30.079725,1018.9,,,,,,,,,,SCT,25000,,,,,,,VFR,,,,,,,,,,,,METAR,80.0
CYTL 281000Z AUTO 05005KT 9SM CLR M04/M04 A3009 RMK SLP205,CYTL,2023-04-28T10:00:00Z,53.82,-89.88,-4.0,-4.0,50,5,,9.0,30.088583,1020.5,,TRUE,,,,,,,,CLR,,,,,,,,VFR,,,,,,,,,,,,METAR,218.0
CYTH 281000Z 06003KT 15SM FEW210 M05/M07 A3011 RMK CI1 SLP215,CYTH,2023-04-28T10:00:00Z,55.8,-97.83,-5.0,-7.0,60,3,,15.0,30.109253,1021.5,,,,,,,,,,FEW,21000,,,,,,,VFR,,,,,,,,,,,,METAR,212.0
CYSJ 281000Z 01002KT 15SM BKN074 03/03 A3019 RMK AC7 SLP229,CYSJ,2023-04-28T10:00:00Z,45.32,-65.88,3.0,3.0,10,2,,15.0,30.188976,1022.9,,,,,,,,,,BKN,7400,,,,,,,VFR,,,,,,,,,,,,METAR,89.0
CYSF 281000Z AUTO 09004KT 9SM FEW055 SCT065 BKN120 BKN140 01/M00 A2987 RMK SLP128,CYSF,2023-04-28T10:00:00Z,59.25,-105.83,1.0,0.0,90,4,,9.0,29.870079,1012.8,,TRUE,,,,,,,,FEW,5500,SCT,6500,BKN,12000,BKN,14000,VFR,,,,,,,,,,,,METAR,238.0
CYSC 281000Z AUTO 07003KT 9SM CLR M01/M02 A3023 RMK SLP248,CYSC,2023-04-28T10:00:00Z,45.43,-71.68,-1.0,-2.0,70,3,,9.0,30.230314,1024.8,,TRUE,,,,,,,,CLR,,,,,,,,VFR,,,,,,,,,,,,METAR,236.0
CYSB 281000Z 15006KT 15SM OVC066 06/M00 A3004 RMK AC8 SLP186,CYSB,2023-04-28T10:00:00Z,46.63,-80.8,6.0,0.0,150,6,,15.0,30.041338,1018.6,,,,,,,,,,OVC,6600,,,,,,,VFR,,,,,,,,,,,,METAR,349.0
CYRV 281000Z AUTO VRB02KT 9SM FEW190 OVC210 02/00 A3028 RMK SLP264,CYRV,2023-04-28T10:00:00Z,50.97,-118.17,2.0,0.0,0,2,,9.0,30.280512,1026.4,,TRUE,,,,,,,,FEW,19000,OVC,21000,,,,,VFR,,,,,,,,,,,,METAR,456.0
CYRQ 281000Z AUTO 03002KT 9SM CLR M01/M02 A3023 RMK SLP242,CYRQ,2023-04-28T10:00:00Z,46.35,-72.68,-1.0,-2.0,30,2,,9.0,30.230314,1024.2,,TRUE,,,,,,,,CLR,,,,,,,,VFR,,,,,,,,,,,,METAR,58.0
CYRL 281000Z 10005KT 15SM BKN040 01/M01 A3002 RMK SC7 SLP183,CYRL,2023-04-28T10:00:00Z,51.07,-93.78,1.0,-1.0,100,5,,15.0,30.02067,1018.3,,,,,,,,,,BKN,4000,,,,,,,VFR,,,,,,,,,,,,METAR,370.0
CYRJ 281000Z 25006KT 40SM FEW080 FEW200 M00/M03 A3023 RMK AC1CI1 SLP247,CYRJ,2023-04-28T10:00:00Z,48.52,-72.27,0.0,-3.0,250,6,,40.0,30.230314,1024.7,,,,,,,,,,FEW,8000,FEW,20000,,,,,VFR,,,,,,,,,,,,METAR,173.0
CYRB 281000Z 11020KT 25SM DRSN BKN100 M11/M14 A3023 RMK AC5 SLP246,CYRB,2023-04-28T10:00:00Z,74.72,-94.97,-11.0,-14.0,110,20,,25.0,30.230314,1024.6,,,,,,,,,DRSN,BKN,10000,,,,,,,VFR,,,,,,,,,,,,METAR,59.0
CYQZ 281000Z AUTO 00000KT 9SM FEW096 06/01 A3017 RMK SLP232,CYQZ,2023-04-28T10:00:00Z,53.02,-122.52,6.0,1.0,0,0,,9.0,30.171259,1023.2,,TRUE,,,,,,,,FEW,9600,,,,,,,VFR,,,,,,,,,,,,METAR,548.0
CYQY 281000Z 34007KT 10SM MIFG FEW003 FEW180 SCT240 02/01 A3009 RMK ST1AC1CI1 SLP194,CYQY,2023-04-28T10:00:00Z,46.17,-60.03,2.0,1.0,340,7,,10.0,30.088583,1019.4,,,,,,,,,MIFG,FEW,300,FEW,18000,SCT,24000,,,VFR,,,,,,,,,,,,METAR,58.0
CYQW 281000Z AUTO 13005KT 9SM OVC086 03/00 A3007 RMK SLP202,CYQW,2023-04-28T10:00:00Z,52.77,-108.25,3.0,0.0,130,5,,9.0,30.070866,1020.2,,TRUE,,,,,,,,OVC,8600,,,,,,,VFR,,,,,,,,,,,,METAR,545.0
CYQV 281000Z AUTO 35003KT 9SM OVC032 M01/M01 A3009 RMK SLP215,CYQV,2023-04-28T10:00:00Z,51.27,-102.47,-1.0,-1.0,350,3,,9.0,30.088583,1021.5,,TRUE,,,,,,,,OVC,3200,,,,,,,VFR,,,,,,,,,,,,METAR,493.0
CYQU 281000Z 30011KT 25SM BKN120 09/M03 A3007 RMK AC7 SLP199,CYQU,2023-04-28T10:00:00Z,55.18,-118.88,9.0,-3.0,300,11,,25.0,30.070866,1019.9,,,,,,,,,,BKN,12000,,,,,,,VFR,,,,,,,,,,,,METAR,668.0
CYQR 281000Z 33005KT 15SM SKC M02/M03 A3011 RMK SLP220,CYQR,2023-04-28T10:00:00Z,50.43,-104.67,-2.0,-3.0,330,5,,15.0,30.109253,1022.0,,,,,,,,,,SKC,,,,,,,,VFR,,,,,,,,,,,,METAR,576.0
CYQQ 281000Z 34003KT 20SM SKC 07/04 A3016 RMK DENSITY ALT -986FT SLP212,CYQQ,2023-04-28T10:00:00Z,49.72,-124.9,7.0,4.0,340,3,,20.0,30.159449,1021.2,,,,,,,,,,SKC,,,,,,,,VFR,,,,,,,,,,,,METAR,24.0
CYQM 281000Z 32002KT 15SM SCT068 SCT240 03/02 A3018 RMK AC3CC1 CC TR SLP224,CYQM,2023-04-28T10:00:00Z,46.12,-64.67,3.0,2.0,320,2,,15.0,30.180119,1022.4,,,,,,,,,,SCT,6800,SCT,24000,,,,,VFR,,,,,,,,,,,,METAR,67.0
CYQL 281000Z AUTO 23011KT 9SM CLR 03/M03 A3009 RMK SLP207,CYQL,2023-04-28T10:00:00Z,49.63,-112.8,3.0,-3.0,230,11,,9.0,30.088583,1020.7,,TRUE,,,,,,,,CLR,,,,,,,,VFR,,,,,,,,,,,,METAR,923.0
CYQK 281000Z 09007KT 15SM FEW240 00/M00 A2999 RMK CI2 SLP171,CYQK,2023-04-28T10:00:00Z,49.78,-94.37,0.0,0.0,90,7,,15.0,29.991142,1017.1,,,,,,,,,,FEW,24000,,,,,,,VFR,,,,,,,,,,,,METAR,413.0
CYQI 281000Z VRB03KT 0SM FG VV001 04/04 A3019 RMK FG8 SLP225,CYQI,2023-04-28T10:00:00Z,43.83,-66.08,4.0,4.0,0,3,,0.0,30.188976,1022.5,,,,,,,,,FG,OVX,0,,,,,,,LIFR,,,,,,,,,,,100,METAR,37.0
CYQH 281000Z 24012KT 15SM BKN075 03/M06 A3004 RMK AC6 SLP203,CYQH,2023-04-28T10:00:00Z,60.12,-128.82,3.0,-6.0,240,12,,15.0,30.041338,1020.3,,,,,,,,,,BKN,7500,,,,,,,VFR,,,,,,,,,,,,METAR,692.0
CYQG 281000Z AUTO 04010G15KT 9SM BKN091 OVC160 07/03 A2986 RMK SLP115,CYQG,2023-04-28T10:00:00Z,42.27,-82.97,7.0,3.0,40,10,15,9.0,29.861221,1011.5,,TRUE,,,,,,,,BKN,9100,OVC,16000,,,,,VFR,,,,,,,,,,,,METAR,189.0
CYQF 281000Z AUTO 25005KT 9SM BKN086 BKN120 05/M04 A3007 RMK SLP204,CYQF,2023-04-28T10:00:00Z,52.17,-113.9,5.0,-4.0,250,5,,9.0,30.070866,1020.4,,TRUE,,,,,,,,BKN,8600,BKN,12000,,,,,VFR,,,,,,,,,,,,METAR,912.0
CYQD 281000Z AUTO 13004KT 9SM CLR M01/M04 A3008 RMK SLP200,CYQD,2023-04-28T10:00:00Z,53.97,-101.08,-1.0,-4.0,130,4,,9.0,30.079725,1020.0,,TRUE,,,,,,,,CLR,,,,,,,,VFR,,,,,,,,,,,,METAR,268.0
CYQB 281000Z 36004KT 30SM FEW210 01/00 A3024 RMK CI1 CI TR SLP246,CYQB,2023-04-28T10:00:00Z,46.78,-71.38,1.0,0.0,360,4,,30.0,30.239174,1024.6,,,,,,,,,,FEW,21000,,,,,,,VFR,,,,,,,,,,,,METAR,73.0
CYQA 281000Z AUTO 10004KT 050V130 9SM CLR 05/M02 A3003 RMK SLP176,CYQA,2023-04-28T10:00:00Z,44.97,-79.3,5.0,-2.0,100,4,,9.0,30.029528,1017.6,,TRUE,,,,,,,,CLR,,,,,,,,VFR,,,,,,,,,,,,METAR,277.0
CYPY 281000Z AUTO 05006KT 9SM OVC100 02/02 A2981 RMK SLP108,CYPY,2023-04-28T10:00:00Z,58.77,-111.12,2.0,2.0,50,6,,9.0,29.811024,1010.8,,TRUE,,,,,,,,OVC,10000,,,,,,,VFR,,,,,,,,,,,,METAR,225.0
CYPR 281000Z AUTO 06003KT 050V110 9SM OVC044 06/05 A3021 RMK SLP232,CYPR,2023-04-28T10:00:00Z,54.28,-130.45,6.0,5.0,60,3,,9.0,30.209646,1023.2,,TRUE,,,,,,,,OVC,4400,,,,,,,VFR,,,,,,,,,,,,METAR,30.0
CYPQ 281000Z AUTO 02004KT 9SM CLR 03/00 A3005 RMK SLP184,CYPQ,2023-04-28T10:00:00Z,44.22,-78.37,3.0,0.0,20,4,,9.0,30.050198,1018.4,,TRUE,,,,,,,,CLR,,,,,,,,VFR,,,,,,,,,,,,METAR,190.0
CYPO 281000Z AUTO 05003KT 9SM OVC035 M01/M02 A3014 RMK SLP210,CYPO,2023-04-28T10:00:00Z,54.98,-85.43,-1.0,-2.0,50,3,,9.0,30.138779,1021.0,,TRUE,,,,,,,,OVC,3500,,,,,,,VFR,,,,,,,,,,,,METAR,49.0
CYPL 281000Z AUTO VRB02KT 9SM SCT039 M04/M05 A3003 RMK SLP193,CYPL,2023-04-28T10:00:00Z,51.43,-90.22,-4.0,-5.0,0,2,,9.0,30.029528,1019.3,,TRUE,,,,,,,,SCT,3900,,,,,,,VFR,,,,,,,,,,,,METAR,390.0
CYPE 281000Z 29008KT 15SM SCT210 05/M03 A3003 RMK CI3 SLP189,CYPE,2023-04-28T10:00:00Z,56.22,-117.45,5.0,-3.0,290,8,,15.0,30.029528,1018.9,,,,,,,,,,SCT,21000,,,,,,,VFR,,,,,,,,,,,,METAR,572.0
CYPD 281000Z AUTO 31007KT 9SM OVC002 M00/M00 A3011 RMK SLP203,CYPD,2023-04-28T10:00:00Z,45.67,-61.37,0.0,0.0,310,7,,9.0,30.109253,1020.3,,TRUE,,,,,,,,OVC,200,,,,,,,LIFR,,,,,,,,,,,,METAR,106.0
CYPA 281000Z 15007KT 110V210 15SM SCT170 M03/M05 A3010 RMK AC3 SLP216,CYPA,2023-04-28T10:00:00Z,53.22,-105.67,-3.0,-5.0,150,7,,15.0,30.100393,1021.6,,,,,,,,,,SCT,17000,,,,,,,VFR,,,,,,,,,,,,METAR,428.0
CYOW 281000Z 07006KT 15SM FEW090 SCT240 03/M00 A3015 RMK AC1CI3 AC TR SLP214,CYOW,2023-04-28T10:00:00Z,45.32,-75.67,3.0,0.0,70,6,,15.0,30.15059,1021.4,,,,,,,,,,FEW,9000,SCT,24000,,,,,VFR,,,,,,,,,,,,METAR,111.0
CYOO 281000Z AUTO 08011KT 9SM CLR 08/00 A3002 RMK SLP169,CYOO,2023-04-28T10:00:00Z,43.92,-78.9,8.0,0.0,80,11,,9.0,30.02067,1016.9,,TRUE,,,,,,,,CLR,,,,,,,,VFR,,,,,,,,,,,,METAR,136.0
CYOJ 281000Z AUTO 28007KT 250V330 9SM CLR 08/M04 A2994 RMK SLP154,CYOJ,2023-04-28T10:00:00Z,58.62,-117.17,8.0,-4.0,280,7,,9.0,29.940945,1015.4,,TRUE,,,,,,,,CLR,,,,,,,,VFR,,,,,,,,,,,,METAR,339.0
CYOD 281000Z 17004KT 15SM OVC070 06/M00 A2996 RMK AC8 DENSITY ALT 1133FT SLP161,CYOD,2023-04-28T10:00:00Z,54.4,-110.28,6.0,0.0,170,4,,15.0,29.958662,1016.1,,,,,,,,,,OVC,7000,,,,,,,VFR,,,,,,,,,,,,METAR,540.0
CYNM 281000Z AUTO 14007KT 9SM OVC060 03/M01 A3010 RMK SLP206,CYNM,2023-04-28T10:00:00Z,49.77,-77.78,3.0,-1.0,140,7,,9.0,30.100393,1020.6,,TRUE,,,,,,,,OVC,6000,,,,,,,VFR,,,,,,,,,,,,METAR,276.0
CYNE 281000Z AUTO 01003KT 350V080 9SM CLR M02/M04 A3008 RMK SLP200,CYNE,2023-04-28T10:00:00Z,53.97,-97.83,-2.0,-4.0,10,3,,9.0,30.079725,1020.0,,TRUE,,,,,,,,CLR,,,,,,,,VFR,,,,,,,,,,,,METAR,220.0
CYNA 281000Z AUTO 08004KT 9SM CLR 01/M01 A3017 RMK SLP220,CYNA,2023-04-28T10:00:00Z,50.18,-61.78,1.0,-1.0,80,4,,9.0,30.171259,1022.0,,TRUE,,,,,,,,CLR,,,,,,,,VFR,,,,,,,,,,,,METAR,9.0
CYMX 281000Z 05004KT 25SM SCT240 01/M01 A3020 RMK CI3 SLP233,CYMX,2023-04-28T10:00:00Z,45.67,-74.03,1.0,-1.0,50,4,,25.0,30.200787,1023.3,,,,,,,,,,SCT,24000,,,,,,,VFR,,,,,,,,,,,,METAR,78.0
CYMT 281000Z AUTO 11002KT 9SM FEW110 M02/M03 A3019 RMK SLP244,CYMT,2023-04-28T10:00:00Z,49.77,-74.52,-2.0,-3.0,110,2,,9.0,30.188976,1024.4,,TRUE,,,,,,,,FEW,11000,,,,,,,VFR,,,,,,,,,,,,METAR,388.0
CYMM 281000Z AUTO 25005KT 9SM OVC120 08/M02 A2983 RMK SLP114,CYMM,2023-04-28T10:00:00Z,56.65,-111.22,8.0,-2.0,250,5,,9.0,29.828741,1011.4,,TRUE,,,,,,,,OVC,12000,,,,,,,VFR,,,,,,,,,,,,METAR,371.0
CYMJ 281000Z 28004KT 15SM FEW065 BKN160 00/M01 A3011 RMK SC1AC4 DENSITY ALT 263FT FST OBS SLP217,CYMJ,2023-04-28T10:00:00Z,50.32,-105.55,0.0,-1.0,280,4,,15.0,30.109253,1021.7,,,,,,,,,,FEW,6500,BKN,16000,,,,,VFR,,,,,,,,,,,,METAR,578.0
CYMH 281000Z AUTO 34012G18KT 9SM OVC010 01/M00 A3014 RMK SLP211,CYMH,2023-04-28T10:00:00Z,52.3,-55.82,1.0,0.0,340,12,18,9.0,30.138779,1021.1,,TRUE,,,,,,,,OVC,1000,,,,,,,MVFR,,,,,,,,,,,,METAR,18.0
CYMA 281000Z 26002KT 20SM FEW045 M02/M05 A2988 RMK SC1 SC TR SLP148,CYMA,2023-04-28T10:00:00Z,63.62,-135.87,-2.0,-5.0,260,2,,20.0,29.878937,1014.8,,,,,,,,,,FEW,4500,,,,,,,VFR,,,,,,,,,,,,METAR,519.0
CYLW 281000Z AUTO 05003KT 9SM FEW180 05/M00 A3022 RMK SLP241,CYLW,2023-04-28T10:00:00Z,49.95,-119.37,5.0,0.0,50,3,,9.0,30.221457,1024.1,,TRUE,,,,,,,,FEW,18000,,,,,,,VFR,,,,,,,,,,,,METAR,420.0
CYLT 281000Z 23014KT 10SM FEW075 SCT220 M16/M24 A3025 RMK AC1CI3 SLP248,CYLT,2023-04-28T10:00:00Z,82.52,-62.32,-16.0,-24.0,230,14,,10.0,30.250984,1024.8,,,,,,,,,,FEW,7500,SCT,22000,,,,,VFR,,,,,,,,,,,,METAR,9.0
CYLL 281000Z AUTO 19010G15KT 9SM OVC096 07/M01 A2998 RMK SLP174,CYLL,2023-04-28T10:00:00Z,53.32,-110.07,7.0,-1.0,190,10,15,9.0,29.97933,1017.4,,TRUE,,,,,,,,OVC,9600,,,,,,,VFR,,,,,,,,,,,,METAR,664.0
CYLD 281000Z 00000KT 15SM BKN092 BKN140 M01/M02 A2999 RMK AS5AC1 SLP182,CYLD,2023-04-28T10:00:00Z,47.82,-83.35,-1.0,-2.0,0,0,,15.0,29.991142,1018.2,,,,,,,,,,BKN,9200,BKN,14000,,,,,VFR,,,,,,,,,,,,METAR,449.0
CYKY 281000Z 18005KT 15SM FEW100 SCT220 00/M02 A3008 RMK AC2CI2 SLP208,CYKY,2023-04-28T10:00:00Z,51.52,-109.17,0.0,-2.0,180,5,,15.0,30.079725,1020.8,,,,,,,,,,FEW,10000,SCT,22000,,,,,VFR,,,,,,,,,,,,METAR,692.0
CYKL 281000Z AUTO 19002KT 9SM BKN100 M03/M03 A3020 RMK SLP252,CYKL,2023-04-28T10:00:00Z,54.8,-66.8,-3.0,-3.0,190,2,,9.0,30.200787,1025.2,,TRUE,,,,,,,,BKN,10000,,,,,,,VFR,,,,,,,,,,,,METAR,507.0
CYKJ 281000Z AUTO 21011KT 9SM BKN100 OVC190 03/M01 A2991 RMK SLP152,CYKJ,2023-04-28T10:00:00Z,57.25,-105.62,3.0,-1.0,210,11,,9.0,29.911417,1015.2,,TRUE,,,,,,,,BKN,10000,OVC,19000,,,,,VFR,,,,,,,,,,,,METAR,519.0
CYKF 281000Z AUTO 06007KT 9SM CLR 04/M01 A2996 RMK SLP154,CYKF,2023-04-28T10:00:00Z,43.47,-80.38,4.0,-1.0,60,7,,9.0,29.958662,1015.4,,TRUE,,,,,,,,CLR,,,,,,,,VFR,,,,,,,,,,,,METAR,312.0
CYKA 281000Z 09009KT 40SM SCT180 BKN240 10/M02 A3019 RMK AC3CI3 SLP231,CYKA,2023-04-28T10:00:00Z,50.7,-120.45,10.0,-2.0,90,9,,40.0,30.188976,1023.1,,,,,,,,,,SCT,18000,BKN,24000,,,,,VFR,,,,,,,,,,,,METAR,344.0
CYJT 281000Z 35006KT 15SM SCT010 OVC017 M00/M01 A3011 RMK SF4SC4 SLP200,CYJT,2023-04-28T10:00:00Z,48.55,-58.57,0.0,-1.0,350,6,,15.0,30.109253,1020.0,,,,,,,,,,SCT,1000,OVC,1700,,,,,MVFR,,,,,,,,,,,,METAR,7.0
CYIV 281000Z AUTO 00000KT 9SM CLR M02/M04 A3006 RMK SLP195,CYIV,2023-04-28T10:00:00Z,53.85,-94.65,-2.0,-4.0,0,0,,9.0,30.059055,1019.5,,TRUE,,,,,,,,CLR,,,,,,,,VFR,,,,,,,,,,,,METAR,234.0
CYIO 281000Z AUTO 09003KT 9SM CLR M14/M15 A3035 RMK SLP289,CYIO,2023-04-28T10:00:00Z,72.68,-77.97,-14.0,-15.0,90,3,,9.0,30.351377,1028.9,,TRUE,,,,,,,,CLR,,,,,,,,VFR,,,,,,,,,,,,METAR,61.0
CYIN 281000Z AUTO VRB02KT 9SM OVC180 02/M01 A3015 RMK SLP221,CYIN,2023-04-28T10:00:00Z,51.27,-121.68,2.0,-1.0,0,2,,9.0,30.15059,1022.1,,TRUE,,,,,,,,OVC,18000,,,,,,,VFR,,,,,,,,,,,,METAR,1127.0
CYHZ 281000Z 36005KT 6SM BR FEW033 SCT071 01/01 A3015 RMK SC2AC1 SLP218,CYHZ,2023-04-28T10:00:00Z,44.87,-63.5,1.0,1.0,360,5,,6.0,30.15059,1021.8,,,,,,,,,BR,FEW,3300,SCT,7100,,,,,VFR,,,,,,,,,,,,METAR,136.0
CYHY 281000Z 27010KT 15SM BKN090 06/M04 A2982 RMK AC6 SLP107,CYHY,2023-04-28T10:00:00Z,60.83,-115.77,6.0,-4.0,270,10,,15.0,29.819881,1010.7,,,,,,,,,,BKN,9000,,,,,,,VFR,,,,,,,,,,,,METAR,159.0
CYHU 281000Z AUTO 01003KT 9SM CLR 00/M02 A3021 RMK SLP231,CYHU,2023-04-28T10:00:00Z,45.52,-73.42,0.0,-2.0,10,3,,9.0,30.209646,1023.1,,TRUE,,,,,,,,CLR,,,,,,,,VFR,,,,,,,,,,,,METAR,26.0
CYHM 281000Z 04010G16KT 15SM BKN061 BKN250 05/03 A2996 RMK SC5CI2 SLP154,CYHM,2023-04-28T10:00:00Z,43.17,-79.93,5.0,3.0,40,10,16,15.0,29.958662,1015.4,,,,,,,,,,BKN,6100,BKN,25000,,,,,VFR,,,,,,,,,,,,METAR,237.0
CYHE 281000Z AUTO 10010KT 9SM CLR 09/05 A3017 RMK SLP217,CYHE,2023-04-28T10:00:00Z,49.37,-121.5,9.0,5.0,100,10,,9.0,30.171259,1021.7,,TRUE,,,,,,,,CLR,,,,,,,,VFR,,,,,,,,,,,,METAR,43.0
CYHD 281000Z AUTO 05004KT 9SM SCT190 M03/M03 A2999 RMK SLP178,CYHD,2023-04-28T10:00:00Z,49.82,-92.75,-3.0,-3.0,50,4,,9.0,29.991142,1017.8,,TRUE,,,,,,,,SCT,19000,,,,,,,VFR,,,,,,,,,,,,METAR,414.0
CYGX 281000Z 02003KT 1 1/4SM BR SCT015 M07/M08 A3016 RMK SC3 SLP225,CYGX,2023-04-28T10:00:00Z,56.35,-94.7,-7.0,-8.0,20,3,,1.25,30.159449,1022.5,,,,,,,,,BR,SCT,1500,,,,,,,IFR,,,,,,,,,,,,METAR,145.0
CYGW 281000Z AUTO 12006KT 9SM OVC091 02/00 A3018 RMK SLP223,CYGW,2023-04-28T10:00:00Z,55.27,-77.77,2.0,0.0,120,6,,9.0,30.180119,1022.3,,TRUE,,,,,,,,OVC,9100,,,,,,,VFR,,,,,,,,,,,,METAR,13.0
CYGV 281000Z AUTO 05007KT 9SM CLR 01/00 A3016 RMK SLP216,CYGV,2023-04-28T10:00:00Z,50.28,-63.62,1.0,0.0,50,7,,9.0,30.159449,1021.6,,TRUE,,,,,,,,CLR,,,,,,,,VFR,,,,,,,,,,,,METAR,32.0
CYGT 281000Z 20007KT 1/8SM FZFG VV001 M05/M05 A3014 RMK FG8 SNW CVR/ONE LOOSE SLP214,CYGT,2023-04-28T10:00:00Z,69.37,-81.82,-5.0,-5.0,200,7,,0.13,30.138779,1021.4,,,,,,,,,FZFG,OVX,0,,,,,,,LIFR,,,,,,,,,,,100,METAR,49.0
CYGR 281000Z 31009KT 20SM FEW003 SCT270 03/02 A3014 RMK CF2CI1 CU ASOCTD SLP208,CYGR,2023-04-28T10:00:00Z,47.42,-61.77,3.0,2.0,310,9,,20.0,30.138779,1020.8,,,,,,,,,,FEW,300,SCT,27000,,,,,VFR,,,,,,,,,,,,METAR,4.0
CYGP 281000Z 24003KT 15SM FEW130 FEW250 M01/M01 A3018 RMK AC1CI1 AC TR CI TR SLP224,CYGP,2023-04-28T10:00:00Z,48.77,-64.47,-1.0,-1.0,240,3,,15.0,30.180119,1022.4,,,,,,,,,,FEW,13000,FEW,25000,,,,,VFR,,,,,,,,,,,,METAR,31.0
CYGL 281000Z 10005KT 15SM OVC055 01/00 A3015 RMK SC8 SLP225,CYGL,2023-04-28T10:00:00Z,53.62,-77.7,1.0,0.0,100,5,,15.0,30.15059,1022.5,,,,,,,,,,OVC,5500,,,,,,,VFR,,,,,,,,,,,,METAR,192.0
CYGK 281000Z 06005KT 15SM SCT250 04/00 A3012 RMK CI4 SLP204,CYGK,2023-04-28T10:00:00Z,44.22,-76.58,4.0,0.0,60,5,,15.0,30.121063,1020.4,,,,,,,,,,SCT,25000,,,,,,,VFR,,,,,,,,,,,,METAR,91.0
CYFS 281000Z 00000KT 15SM FEW250 M00/M05 A2989 RMK CI1 CI TR SLP134,CYFS,2023-04-28T10:00:00Z,61.75,-121.22,0.0,-5.0,0,0,,15.0,29.890747,1013.4,,,,,,,,,,FEW,25000,,,,,,,VFR,,,,,,,,,,,,METAR,174.0
CYFC 281000Z AUTO 00000KT 9SM OVC081 02/01 A3021 RMK SLP232,CYFC,2023-04-28T10:00:00Z,45.87,-66.53,2.0,1.0,0,0,,9.0,30.209646,1023.2,,TRUE,,,,,,,,OVC,8100,,,,,,,VFR,,,,,,,,,,,,METAR,16.0
CYFB 281000Z 15009KT 30SM SCT010 BKN081 M02/M03 A3038 RMK SC3AC4 SLP292,CYFB,2023-04-28T10:00:00Z,63.75,-68.55,-2.0,-3.0,150,9,,30.0,30.380905,1029.2,,,,,,,,,,SCT,1000,BKN,8100,,,,,VFR,,,,,,,,,,,,METAR,23.0
CYEV 281000Z 30007KT 15SM -SN FEW009 OVC043 M14/M16 A2997 RMK ST1SC8 ST TR SLP159,CYEV,2023-04-28T10:00:00Z,68.32,-133.5,-14.0,-16.0,300,7,,15.0,29.970472,1015.9,,,,,,,,,-SN,FEW,900,OVC,4300,,,,,VFR,,,,,,,,,,,,METAR,74.0
CYET 281000Z AUTO 32002KT 9SM CLR 05/M02 A3005 RMK SLP193,CYET,2023-04-28T10:00:00Z,53.57,-116.47,5.0,-2.0,320,2,,9.0,30.050198,1019.3,,TRUE,,,,,,,,CLR,,,,,,,,VFR,,,,,,,,,,,,METAR,925.0
CYEN 281000Z AUTO 02004KT 9SM BKN037 OVC049 03/02 A3008 RMK SLP206,CYEN,2023-04-28T10:00:00Z,49.22,-102.97,3.0,2.0,20,4,,9.0,30.079725,1020.6,,TRUE,,,,,,,,BKN,3700,OVC,4900,,,,,VFR,,,,,,,,,,,,METAR,580.0
CYEG 281000Z 29004KT 20SM FEW080 SCT160 07/M03 A3002 RMK AC1AS3 AC TR SLP181,CYEG,2023-04-28T10:00:00Z,53.3,-113.58,7.0,-3.0,290,4,,20.0,30.02067,1018.1,,,,,,,,,,FEW,8000,SCT,16000,,,,,VFR,,,,,,,,,,,,METAR,710.0
CYDQ 281000Z AUTO 26008KT 9SM CLR 07/M02 A3007 RMK SLP202,CYDQ,2023-04-28T10:00:00Z,55.75,-120.18,7.0,-2.0,260,8,,9.0,30.070866,1020.2,,TRUE,,,,,,,,CLR,,,,,,,,VFR,,,,,,,,,,,,METAR,658.0
CYDN 281000Z AUTO 24006KT 9SM CLR 01/M01 A3008 RMK SLP201,CYDN,2023-04-28T10:00:00Z,51.1,-100.05,1.0,-1.0,240,6,,9.0,30.079725,1020.1,,TRUE,,,,,,,,CLR,,,,,,,,VFR,,,,,,,,,,,,METAR,302.0
CYDL 281000Z AUTO 00000KT 9SM BKN170 OVC190 M00/M03 A3013 RMK SLP226,CYDL,2023-04-28T10:00:00Z,58.42,-130.02,0.0,-3.0,0,0,,9.0,30.129921,1022.6,,TRUE,,,,,,,,BKN,17000,OVC,19000,,,,,VFR,,,,,,,,,,,,METAR,804.0
CYDF 281000Z 02004KT 12SM SCT015 OVC025 01/01 A3012 RMK SF3SC5 INTMT -SN SLP203,CYDF,2023-04-28T10:00:00Z,49.22,-57.4,1.0,1.0,20,4,,12.0,30.121063,1020.3,,,,,,,,,,SCT,1500,OVC,2500,,,,,MVFR,,,,,,,,,,,,METAR,15.0
CYDB 281000Z AUTO 13011G20KT 9SM CLR 00/M06 A2986 RMK SLP150,CYDB,2023-04-28T10:00:00Z,61.37,-139.02,0.0,-6.0,130,11,20,9.0,29.861221,1015.0,,TRUE,,,,,,,,CLR,,,,,,,,VFR,,,,,,,,,,,,METAR,807.0
CYCX 281000Z 24005KT 15SM BKN080 03/03 A3021 RMK AC6 DENSITY ALT -1498FT SLP231,CYCX,2023-04-28T10:00:00Z,45.83,-66.45,3.0,3.0,240,5,,15.0,30.209646,1023.1,,,,,,,,,,BKN,8000,,,,,,,VFR,,,,,,,,,,,,METAR,46.0
CYCO 281000Z 23010KT 15SM OVC034 M06/M08 A2977 RMK SC8 SLP085,CYCO,2023-04-28T10:00:00Z,67.82,-115.15,-6.0,-8.0,230,10,,15.0,29.769686,1008.5,,,,,,,,,,OVC,3400,,,,,,,VFR,,,,,,,,,,,,METAR,20.0
CYCK 281000Z AUTO 10012G18KT 9SM CLR 08/03 A2985 RMK SLP113,CYCK,2023-04-28T10:00:00Z,42.3,-82.08,8.0,3.0,100,12,18,9.0,29.84941,1011.3,,TRUE,,,,,,,,CLR,,,,,,,,VFR,,,,,,,,,,,,METAR,196.0
CYCB 281000Z 08007KT 15SM FEW010 BKN075 M10/M12 A3000 RMK SF1AC6 SLP164,CYCB,2023-04-28T10:00:00Z,69.1,-105.12,-10.0,-12.0,80,7,,15.0,30.0,1016.4,,,,,,,,,,FEW,1000,BKN,7500,,,,,VFR,,,,,,,,,,,,METAR,19.0
CYCA 281000Z AUTO 35012G19KT 9SM OVC005 00/M00 A3023 RMK SLP241,CYCA,2023-04-28T10:00:00Z,53.68,-57.03,0.0,0.0,350,12,19,9.0,30.230314,1024.1,,TRUE,,,,,,,,OVC,500,,,,,,,IFR,,,,,,,,,,,,METAR,12.0
CYBX 281000Z 02008KT 15SM BKN030 02/M02 A3016 RMK SC7 SLP217,CYBX,2023-04-28T10:00:00Z,51.45,-57.18,2.0,-2.0,20,8,,15.0,30.159449,1021.7,,,,,,,,,,BKN,3000,,,,,,,MVFR,,,,,,,,,,,,METAR,32.0
CYBW 281000Z AUTO 30004KT 9SM CLR 01/M05 A3010 RMK SLP219,CYBW,2023-04-28T10:00:00Z,51.1,-114.37,1.0,-5.0,300,4,,9.0,30.100393,1021.9,,TRUE,,,,,,,,CLR,,,,,,,,VFR,,,,,,,,,,,,METAR,1197.0
CYBU 281000Z AUTO 22003KT 9SM BKN170 BKN230 M03/M03 A3009 RMK SLP212,CYBU,2023-04-28T10:00:00Z,53.32,-104.0,-3.0,-3.0,220,3,,9.0,30.088583,1021.2,,TRUE,,,,,,,,BKN,17000,BKN,23000,,,,,VFR,,,,,,,,,,,,METAR,369.0
CYBR 281000Z 30008KT 15SM FEW100 M02/M02 A3006 RMK AC1 SLP201,CYBR,2023-04-28T10:00:00Z,49.92,-99.95,-2.0,-2.0,300,8,,15.0,30.059055,1020.1,,,,,,,,,,FEW,10000,,,,,,,VFR,,,,,,,,,,,,METAR,405.0
CYBQ 281000Z AUTO 16007KT 9SM CLR M08/M09 A3008 RMK SLP211,CYBQ,2023-04-28T10:00:00Z,58.7,-98.5,-8.0,-9.0,160,7,,9.0,30.079725,1021.1,,TRUE,,,,,,,,CLR,,,,,,,,VFR,,,,,,,,,,,,METAR,272.0
CYBK 281000Z 16004KT 1/4SM FZFG VV003 M09/M10 A3016 RMK FG8 SLP216,CYBK,2023-04-28T10:00:00Z,64.3,-96.07,-9.0,-10.0,160,4,,0.25,30.159449,1021.6,,,,,,,,,FZFG,OVX,0,,,,,,,LIFR,,,,,,,,,,,300,METAR,14.0
CYBG 281000Z 19003KT 25SM FEW250 M03/M03 A3025 RMK CI2 DENSITY ALT -1877FT SLP251,CYBG,2023-04-28T10:00:00Z,48.33,-70.98,-3.0,-3.0,190,3,,25.0,30.250984,1025.1,,,,,,,,,,FEW,25000,,,,,,,VFR,,,,,,,,,,,,METAR,151.0
CYBC 281000Z AUTO 29003KT 9SM CLR 02/01 A3020 RMK SLP228,CYBC,2023-04-28T10:00:00Z,49.13,-68.2,2.0,1.0,290,3,,9.0,30.200787,1022.8,,TRUE,,,,,,,,CLR,,,,,,,,VFR,,,,,,,,,,,,METAR,20.0
CYAY 281000Z AUTO 33014KT 9SM OVC032 01/M01 A3012 RMK SLP203,CYAY,2023-04-28T10:00:00Z,51.38,-56.07,1.0,-1.0,330,14,,9.0,30.121063,1020.3,,TRUE,,,,,,,,OVC,3200,,,,,,,VFR,,,,,,,,,,,,METAR,23.0
CYAW 281000Z 33006KT 12SM SCT055 SCT210 02/02 A3017 RMK SC4CI1 DENSITY ALT -1570FT FST OBS SLP218,CYAW,2023-04-28T10:00:00Z,44.63,-63.5,2.0,2.0,330,6,,12.0,30.171259,1021.8,,,,,,,,,,SCT,5500,SCT,21000,,,,,VFR,,,,,,,,,,,,METAR,50.0
CYAT 281000Z AUTO 04005KT 9SM BKN040 OVC055 M00/M00 A3007 RMK SLP184,CYAT,2023-04-28T10:00:00Z,52.93,-82.43,0.0,0.0,40,5,,9.0,30.070866,1018.4,,TRUE,,,,,,,,BKN,4000,OVC,5500,,,,,VFR,,,,,,,,,,,,METAR,4.0
CYAM 281000Z 08007KT 20SM OVC057 05/01 A2999 RMK SC8 SLP164,CYAM,2023-04-28T10:00:00Z,46.48,-84.52,5.0,1.0,80,7,,20.0,29.991142,1016.4,,,,,,,,,,OVC,5700,,,,,,,VFR,,,,,,,,,,,,METAR,186.0
CYAH 281000Z AUTO 00000KT 9SM BKN071 BKN160 M01/M02 A3018 RMK SLP238,CYAH,2023-04-28T10:00:00Z,53.75,-73.67,-1.0,-2.0,0,0,,9.0,30.180119,1023.8,,TRUE,,,,,,,,BKN,7100,BKN,16000,,,,,VFR,,,,,,,,,,,,METAR,298.0
CXZV 281000Z AUTO 00000KT M01/M01 RMK AO1 SLP216 T10091014 53011,CXZV,2023-04-28T10:00:00Z,50.22,-66.25,-0.9,-1.4,0,0,,,,1021.6,,TRUE,TRUE,,,,,,,,,,,,,,,,1.1,,,,,,,,,,,METAR,43.0
CXZC 281000Z AUTO 11001KT 02/02 RMK AO1 SOG 07 5000 SLP184 T00230020 50013,CXZC,2023-04-28T10:00:00Z,51.3,-80.62,2.3,2.0,110,1,,,,1018.4,,TRUE,TRUE,,,,,,,,,,,,,,,,1.3,,,,,,,,,,,METAR,8.0
CXYH 281000Z AUTO 32004KT 08/M03 RMK AO1 SLP126 T00811032 51019,CXYH,2023-04-28T10:00:00Z,61.25,-123.75,8.1,-3.2,320,4,,,,1012.6,,TRUE,TRUE,,,,,,,,,,,,,,,,1.9,,,,,,,,,,,METAR,197.0
CXWN 281000Z AUTO 34004KT 04/02 RMK AO1 3006 SLP173 T00370016 50001,CXWN,2023-04-28T10:00:00Z,49.88,-97.13,3.7,1.6,340,4,,,,1017.3,,TRUE,TRUE,,,,,,,,,,,,,,,,0.1,,,,,,,,,,,METAR,232.0
CXWM 281000Z AUTO 19007KT 01/M04 RMK AO1 T00131038,CXWM,2023-04-28T10:00:00Z,49.5,-112.12,1.3,-3.8,190,7,,,,,,TRUE,TRUE,,,,,,,,,,,,,,,,,,,,,,,,,,,METAR,947.0
CXVW 281000Z AUTO 28008KT 08/M04 RMK AO1 T00841037 53016,CXVW,2023-04-28T10:00:00Z,55.1,-117.2,8.4,-3.7,280,8,,,,,,TRUE,TRUE,,,,,,,,,,,,,,,,1.6,,,,,,,,,,,METAR,696.0
CXVN 281000Z AUTO 23002KT 04/03 RMK AO1 SLP157 T00350026 57006,CXVN,2023-04-28T10:00:00Z,43.18,-79.4,3.5,2.6,230,2,,,,1015.7,,TRUE,TRUE,,,,,,,,,,,,,,,,-0.6,,,,,,,,,,,METAR,86.0
CXVM 281000Z AUTO 19008KT 08/M02 RMK AO1 T00831021,CXVM,2023-04-28T10:00:00Z,53.35,-110.88,8.3,-2.1,190,8,,,,,,TRUE,TRUE,,,,,,,,,,,,,,,,,,,,,,,,,,,METAR,622.0
CXTV 281000Z AUTO 29016KT M15/M17 RMK AO1 SOG 46 3024 PK WND 29020/0905 SLP150 T11481170,CXTV,2023-04-28T10:00:00Z,68.75,-133.5,-14.8,-17.0,290,16,,,,1015.0,,TRUE,TRUE,,,,,,,,,,,,,,,,,,,,,,,,,,,METAR,91.0
CXTP 281000Z AUTO 34004KT M01/M01 RMK AO1 SLP154 T10071010 53003,CXTP,2023-04-28T10:00:00Z,48.55,-53.97,-0.7,-1.0,340,4,,,,1015.4,,TRUE,TRUE,,,,,,,,,,,,,,,,0.3,,,,,,,,,,,METAR,104.0
CXTO 281000Z AUTO 07/01 RMK AO1 SLP165 T00650014 56008,CXTO,2023-04-28T10:00:00Z,43.67,-79.4,6.5,1.4,,,,,,1016.5,,TRUE,TRUE,,,,,,,,,,,,,,,,-0.8,,,,,,,,,,,METAR,115.0
CXTN 281000Z AUTO 27007KT M05/M05 RMK AO1 SOG 43 3015 SLP103 T10481054,CXTN,2023-04-28T10:00:00Z,69.2,-122.35,-4.8,-5.4,270,7,,,,1010.3,,TRUE,TRUE,,,,,,,,,,,,,,,,,,,,,,,,,,,METAR,564.0
CXTH 281000Z AUTO 26009KT 08/M02 RMK AO1 T00841021,CXTH,2023-04-28T10:00:00Z,53.63,-111.68,8.4,-2.1,260,9,,,,,,TRUE,TRUE,,,,,,,,,,,,,,,,,,,,,,,,,,,METAR,679.0
CXTD 281000Z AUTO 35010KT M00/M00 RMK AO1 SLP227 T10031002 53011,CXTD,2023-04-28T10:00:00Z,45.62,-61.68,-0.3,-0.2,350,10,,,,1022.7,,TRUE,TRUE,,,,,,,,,,,,,,,,1.1,,,,,,,,,,,METAR,58.0
CXSP 281000Z AUTO 14001KT 06/M01 RMK AO1 T00591006,CXSP,2023-04-28T10:00:00Z,54.02,-111.27,5.9,-0.6,140,1,,,,,,TRUE,TRUE,,,,,,,,,,,,,,,,,,,,,,,,,,,METAR,652.0
CXSL 281000Z AUTO 29005KT 07/M03 RMK AO1 T00661033,CXSL,2023-04-28T10:00:00Z,54.28,-112.5,6.6,-3.3,290,5,,,,,,TRUE,TRUE,,,,,,,,,,,,,,,,,,,,,,,,,,,METAR,680.0
CXSH 281000Z AUTO 36002KT 00/M02 RMK AO1 SLP242 T00001022 51006,CXSH,2023-04-28T10:00:00Z,46.55,-72.73,0.0,-2.2,360,2,,,,1024.2,,TRUE,TRUE,,,,,,,,,,,,,,,,0.6,,,,,,,,,,,METAR,106.0
CXSE 281000Z AUTO 18014G19KT M09/M11 RMK AO1 SOG 22 3009 PK WND 18020/0900 SLP175 T10871114,CXSE,2023-04-28T10:00:00Z,73.77,-105.28,-8.7,-11.4,180,14,19,,,1017.5,,TRUE,TRUE,,,,,,,,,,,,,,,,,,,,,,,,,,,METAR,11.0
CXSC 281000Z AUTO 20007KT 02/M02 RMK AO1 T00241024,CXSC,2023-04-28T10:00:00Z,50.3,-110.08,2.4,-2.4,200,7,,,,,,TRUE,TRUE,,,,,,,,,,,,,,,,,,,,,,,,,,,METAR,809.0
CXRL 281000Z AUTO 25004KT 06/M03 RMK AO1 T00621027,CXRL,2023-04-28T10:00:00Z,54.5,-111.7,6.2,-2.7,250,4,,,,,,TRUE,TRUE,,,,,,,,,,,,,,,,,,,,,,,,,,,METAR,585.0
CXRH 281000Z AUTO 05005KT M00/M01 RMK AO1 SLP203 T10041008 53007,CXRH,2023-04-28T10:00:00Z,49.57,-57.88,-0.4,-0.8,50,5,,,,1020.3,,TRUE,TRUE,,,,,,,,,,,,,,,,0.7,,,,,,,,,,,METAR,68.0
CXRB 281000Z AUTO 13018KT M10/M13 RMK AO1 PK WND 13021/0953 SLP239 T10951133 52001,CXRB,2023-04-28T10:00:00Z,74.72,-94.98,-9.5,-13.3,130,18,,,,1023.9,,TRUE,TRUE,,,,,,,,,,,,,,,,0.1,,,,,,,,,,,METAR,30.0
CXPL 281000Z AUTO 14002KT 01/M01 RMK AO1 T00061008,CXPL,2023-04-28T10:00:00Z,51.13,-111.7,0.6,-0.8,140,2,,,,,,TRUE,TRUE,,,,,,,,,,,,,,,,,,,,,,,,,,,METAR,735.0
CXPC 281000Z AUTO 07/M03 RMK AO1 SLP176 T00711031 55008,CXPC,2023-04-28T10:00:00Z,45.35,-80.05,7.1,-3.1,,,,,,1017.6,,TRUE,TRUE,,,,,,,,,,,,,,,,-0.8,,,,,,,,,,,METAR,176.0
CXPA 281000Z AUTO 27005KT 07/M02 RMK AO1 T00731015,CXPA,2023-04-28T10:00:00Z,55.62,-118.3,7.3,-1.5,270,5,,,,,,TRUE,TRUE,,,,,,,,,,,,,,,,,,,,,,,,,,,METAR,628.0
CXOY 281000Z AUTO 21011KT 04/M01 RMK AO1 T00431011,CXOY,2023-04-28T10:00:00Z,51.35,-110.35,4.3,-1.1,210,11,,,,,,TRUE,TRUE,,,,,,,,,,,,,,,,,,,,,,,,,,,METAR,784.0
CXOX 281000Z AUTO 19004KT M00/M02 RMK AO1 SLP182 T10021024 58014,CXOX,2023-04-28T10:00:00Z,55.15,-105.27,-0.2,-2.4,190,4,,,,1018.2,,TRUE,TRUE,,,,,,,,,,,,,,,,-1.4,,,,,,,,,,,METAR,381.0
CXOL 281000Z AUTO 25008KT 05/M02 RMK AO1 T00471018,CXOL,2023-04-28T10:00:00Z,51.77,-114.08,4.7,-1.8,250,8,,,,,,TRUE,TRUE,,,,,,,,,,,,,,,,,,,,,,,,,,,METAR,1026.0
CXNP 281000Z AUTO 00000KT 01/01 RMK AO1 SLP220 T00100009 53011,CXNP,2023-04-28T10:00:00Z,45.75,-64.23,1.0,0.9,0,0,,,,1022.0,,TRUE,TRUE,,,,,,,,,,,,,,,,1.1,,,,,,,,,,,METAR,19.0
CXNM 281000Z AUTO 31007KT M01/M01 RMK AO1 SOG 76 T10111011,CXNM,2023-04-28T10:00:00Z,46.82,-60.67,-1.1,-1.1,310,7,,,,,,TRUE,TRUE,,,,,,,,,,,,,,,,,,,,,,,,,,,METAR,452.0
CXMY 281000Z AUTO 03/02 RMK AO1 T00330018,CXMY,2023-04-28T10:00:00Z,44.98,-62.48,3.3,1.8,,,,,,,,TRUE,TRUE,,,,,,,,,,,,,,,,,,,,,,,,,,,METAR,37.0
CXMO 281000Z AUTO 19006KT 02/M04 RMK AO1 T00181037,CXMO,2023-04-28T10:00:00Z,51.67,-112.68,1.8,-3.7,190,6,,,,,,TRUE,TRUE,,,,,,,,,,,,,,,,,,,,,,,,,,,METAR,837.0
CXMM 281000Z AUTO 25004KT 07/M02 RMK AO1 SLP113 T00651015 56010,CXMM,2023-04-28T10:00:00Z,56.65,-111.22,6.5,-1.5,250,4,,,,1011.3,,TRUE,TRUE,,,,,,,,,,,,,,,,-1.0,,,,,,,,,,,METAR,372.0
CXMI 281000Z AUTO 33010KT 04/02 RMK AO1 PRESRR SLP226 T00420015 53043,CXMI,2023-04-28T10:00:00Z,44.6,-63.53,4.2,1.5,330,10,,,,1022.6,,TRUE,TRUE,,,,,,,,,,,,,,,,4.3,,,,,,,,,,,METAR,15.0
CXMG 281000Z AUTO 25005KT 01/M05 RMK AO1 T00051046,CXMG,2023-04-28T10:00:00Z,56.97,-117.45,0.5,-4.6,250,5,,,,,,TRUE,TRUE,,,,,,,,,,,,,,,,,,,,,,,,,,,METAR,467.0
CXMD 281000Z AUTO 32005KT 03/01 RMK AO1 SLP175 T00310014 53003,CXMD,2023-04-28T10:00:00Z,49.18,-98.08,3.1,1.4,320,5,,,,1017.5,,TRUE,TRUE,,,,,,,,,,,,,,,,0.3,,,,,,,,,,,METAR,297.0
CXLL 281000Z AUTO M01/M04 RMK AO1 SOG 21 2022 SLP145 T10141043,CXLL,2023-04-28T10:00:00Z,61.12,-122.85,-1.4,-4.3,,,,,,1014.5,,TRUE,TRUE,,,,,,,,,,,,,,,,,,,,,,,,,,,METAR,180.0
CXLB 281000Z AUTO 33005KT 06/04 RMK AO1 SLP222 T00560036 53020,CXLB,2023-04-28T10:00:00Z,44.37,-64.3,5.6,3.6,330,5,,,,1022.2,,TRUE,TRUE,,,,,,,,,,,,,,,,2.0,,,,,,,,,,,METAR,4.0
CXKT 281000Z AUTO 26002KT 03/02 RMK AO1 SLP222 T00330024 53013,CXKT,2023-04-28T10:00:00Z,45.07,-64.48,3.3,2.4,260,2,,,,1022.2,,TRUE,TRUE,,,,,,,,,,,,,,,,1.3,,,,,,,,,,,METAR,48.0
CXKM 281000Z AUTO 24010KT 09/M03 RMK AO1 T00881029,CXKM,2023-04-28T10:00:00Z,52.83,-111.87,8.8,-2.9,240,10,,,,,,TRUE,TRUE,,,,,,,,,,,,,,,,,,,,,,,,,,,METAR,679.0
CXKI 281000Z AUTO 16002KT 05/M00 RMK AO1 SLP177 T00451002 56002,CXKI,2023-04-28T10:00:00Z,48.13,-80.0,4.5,-0.2,160,2,,,,1017.7,,TRUE,TRUE,,,,,,,,,,,,,,,,-0.2,,,,,,,,,,,METAR,328.0
CXKE 281000Z AUTO 00000KT 02/M01 RMK AO1 SLP211 T00151008 55003,CXKE,2023-04-28T10:00:00Z,45.0,-75.63,1.5,-0.8,0,0,,,,1021.1,,TRUE,TRUE,,,,,,,,,,,,,,,,-0.3,,,,,,,,,,,METAR,99.0
CXKA 281000Z AUTO 20005KT 02/01 RMK AO1 SLP178 T00230005 53008,CXKA,2023-04-28T10:00:00Z,49.4,-82.45,2.3,0.5,200,5,,,,1017.8,,TRUE,TRUE,,,,,,,,,,,,,,,,0.8,,,,,,,,,,,METAR,221.0
CXIB 281000Z AUTO 00000KT 01/M00 RMK AO1 SLP187 T00051001 53001,CXIB,2023-04-28T10:00:00Z,46.67,-60.4,0.5,-0.1,0,0,,,,1018.7,,TRUE,TRUE,,,,,,,,,,,,,,,,0.1,,,,,,,,,,,METAR,6.0
CXHR 281000Z AUTO 24012KT 05/M05 RMK AO1 T00541052,CXHR,2023-04-28T10:00:00Z,51.18,-112.5,5.4,-5.2,240,12,,,,,,TRUE,TRUE,,,,,,,,,,,,,,,,,,,,,,,,,,,METAR,975.0
CXHP 281000Z AUTO 26008KT 06/M03 RMK AO1 T00611032,CXHP,2023-04-28T10:00:00Z,55.4,-116.48,6.1,-3.2,260,8,,,,,,TRUE,TRUE,,,,,,,,,,,,,,,,,,,,,,,,,,,METAR,601.0
CXHM 281000Z AUTO 05005KT 06/01 RMK AO1 SLP161 T00570014 56009,CXHM,2023-04-28T10:00:00Z,43.28,-79.9,5.7,1.4,50,5,,,,1016.1,,TRUE,TRUE,,,,,,,,,,,,,,,,-0.9,,,,,,,,,,,METAR,105.0
CXHD 281000Z AUTO 28011KT 10/M02 RMK AO1 PK WND 24022/0913 T01041020,CXHD,2023-04-28T10:00:00Z,53.18,-112.25,10.4,-2.0,280,11,,,,,,TRUE,TRUE,,,,,,,,,,,,,,,,,,,,,,,,,,,METAR,688.0
CXHA 281000Z AUTO 06006KT 07/02 RMK AO1 SLP107 T00680024 56015,CXHA,2023-04-28T10:00:00Z,42.03,-82.9,6.8,2.4,60,6,,,,1010.7,,TRUE,TRUE,,,,,,,,,,,,,,,,-1.5,,,,,,,,,,,METAR,193.0
CXGH 281000Z AUTO 35006KT 03/02 RMK AO1 SLP179 T00320015 53007,CXGH,2023-04-28T10:00:00Z,50.63,-97.0,3.2,1.5,350,6,,,,1017.9,,TRUE,TRUE,,,,,,,,,,,,,,,,0.7,,,,,,,,,,,METAR,217.0
CXFR 281000Z AUTO 29007KT 05/M02 RMK AO1 T00461015,CXFR,2023-04-28T10:00:00Z,56.08,-118.43,4.6,-1.5,290,7,,,,,,TRUE,TRUE,,,,,,,,,,,,,,,,,,,,,,,,,,,METAR,657.0
CXFM 281000Z AUTO 21014KT 05/M03 RMK AO1 PK WND 21017/0938 T00461030,CXFM,2023-04-28T10:00:00Z,49.48,-111.48,4.6,-3.0,210,14,,,,,,TRUE,TRUE,,,,,,,,,,,,,,,,,,,,,,,,,,,METAR,884.0
CXET 281000Z AUTO 00000KT M00/M02 RMK AO1 SLP172 T10031017 56012,CXET,2023-04-28T10:00:00Z,44.23,-79.78,-0.3,-1.7,0,0,,,,1017.2,,TRUE,TRUE,,,,,,,,,,,,,,,,-1.2,,,,,,,,,,,METAR,250.0
CXEG 281000Z AUTO 28005KT 07/M04 RMK AO1 SLP179 T00671040 52005,CXEG,2023-04-28T10:00:00Z,53.3,-113.6,6.7,-4.0,280,5,,,,1017.9,,TRUE,TRUE,,,,,,,,,,,,,,,,0.5,,,,,,,,,,,METAR,706.0
CXEC 281000Z AUTO 33008KT 12/M03 RMK AO1 SLP172 T01191033 53007,CXEC,2023-04-28T10:00:00Z,53.57,-113.52,11.9,-3.3,330,8,,,,1017.2,,TRUE,TRUE,,,,,,,,,,,,,,,,0.7,,,,,,,,,,,METAR,666.0
CXEA 281000Z AUTO 10001KT M01/M02 RMK AO1 SLP173 T10131017 53011,CXEA,2023-04-28T10:00:00Z,50.63,-93.22,-1.3,-1.7,100,1,,,,1017.3,,TRUE,TRUE,,,,,,,,,,,,,,,,1.1,,,,,,,,,,,METAR,351.0
CXDW 281000Z AUTO 32009KT 03/01 RMK AO1 SOG 01 3003 SLP179 T00290014,CXDW,2023-04-28T10:00:00Z,49.4,-98.32,2.9,1.4,320,9,,,,1017.9,,TRUE,TRUE,,,,,,,,,,,,,,,,,,,,,,,,,,,METAR,341.0
CXDK 281000Z AUTO 06/M03 RMK AO1 SLP152 T00561032 52025,CXDK,2023-04-28T10:00:00Z,61.27,-124.47,5.6,-3.2,,,,,,1015.2,,TRUE,TRUE,,,,,,,,,,,,,,,,2.5,,,,,,,,,,,METAR,269.0
CXDI 281000Z AUTO 08001KT 05/01 RMK AO1 SLP138 T00480013 56011,CXDI,2023-04-28T10:00:00Z,42.87,-80.55,4.8,1.3,80,1,,,,1013.8,,TRUE,TRUE,,,,,,,,,,,,,,,,-1.1,,,,,,,,,,,METAR,234.0
CXDE 281000Z AUTO 35007KT M00/M06 RMK AO1 SOG 29 3023 SLP123 T10021056,CXDE,2023-04-28T10:00:00Z,65.22,-123.43,-0.2,-5.6,350,7,,,,1012.3,,TRUE,TRUE,,,,,,,,,,,,,,,,,,,,,,,,,,,METAR,208.0
CXDB 281000Z AUTO 26008KT 03/M04 RMK AO1 T00321044,CXDB,2023-04-28T10:00:00Z,49.05,-112.82,3.2,-4.4,260,8,,,,,,TRUE,TRUE,,,,,,,,,,,,,,,,,,,,,,,,,,,METAR,1311.0
CXCS 281000Z AUTO 21009KT 05/M01 RMK AO1 T00491014,CXCS,2023-04-28T10:00:00Z,51.93,-110.72,4.9,-1.4,210,9,,,,,,TRUE,TRUE,,,,,,,,,,,,,,,,,,,,,,,,,,,METAR,771.0
CXCP 281000Z AUTO 31002KT 01/M02 RMK AO1 T00111024,CXCP,2023-04-28T10:00:00Z,50.28,-113.35,1.1,-2.4,310,2,,,,,,TRUE,TRUE,,,,,,,,,,,,,,,,,,,,,,,,,,,METAR,999.0
CXCK 281000Z AUTO 14002KT M02/M06 RMK AO1 SOG 35 1028 SLP158 T10191057,CXCK,2023-04-28T10:00:00Z,62.12,-136.2,-1.9,-5.7,140,2,,,,1015.8,,TRUE,TRUE,,,,,,,,,,,,,,,,,,,,,,,,,,,METAR,526.0
CXCD 281000Z AUTO 27007KT 05/M02 RMK AO1 T00451015,CXCD,2023-04-28T10:00:00Z,56.32,-119.75,4.5,-1.5,270,7,,,,,,TRUE,TRUE,,,,,,,,,,,,,,,,,,,,,,,,,,,METAR,628.0
CXCA 281000Z AUTO 19001KT M01/M01 RMK AO1 SLP178 T10081011 51013,CXCA,2023-04-28T10:00:00Z,49.15,-88.35,-0.8,-1.1,190,1,,,,1017.8,,TRUE,TRUE,,,,,,,,,,,,,,,,1.3,,,,,,,,,,,METAR,228.0
CXBW 281000Z AUTO 23008KT 01/M03 RMK AO1 T00051027,CXBW,2023-04-28T10:00:00Z,49.8,-112.3,0.5,-2.7,230,8,,,,,,TRUE,TRUE,,,,,,,,,,,,,,,,,,,,,,,,,,,METAR,823.0
CXBR 281000Z AUTO 31012KT RMK AO1,CXBR,2023-04-28T10:00:00Z,49.62,-113.82,,,310,12,,,,,,TRUE,TRUE,,,,,,,,,,,,,,,,,,,,,,,,,,,METAR,1137.0
CXBO 281000Z AUTO 32002KT 02/M00 RMK AO1 T00231003,CXBO,2023-04-28T10:00:00Z,46.83,-71.2,2.3,-0.3,320,2,,,,,,TRUE,TRUE,,,,,,,,,,,,,,,,,,,,,,,,,,,METAR,8.0
CXBK 281000Z AUTO 32005KT M00/M01 RMK AO1 SOG 01 0004 SLP217 T10011011,CXBK,2023-04-28T10:00:00Z,50.2,-104.7,-0.1,-1.1,320,5,,,,1021.7,,TRUE,TRUE,,,,,,,,,,,,,,,,,,,,,,,,,,,METAR,585.0
CXBI 281000Z AUTO 10005KT 04/M02 RMK AO1 SLP180 T00371017 56009,CXBI,2023-04-28T10:00:00Z,44.48,-79.55,3.7,-1.7,100,5,,,,1018.0,,TRUE,TRUE,,,,,,,,,,,,,,,,-0.9,,,,,,,,,,,METAR,287.0
CXBA 281000Z AUTO 19011KT 06/M02 RMK AO1 T00591019,CXBA,2023-04-28T10:00:00Z,52.12,-110.1,5.9,-1.9,190,11,,,,,,TRUE,TRUE,,,,,,,,,,,,,,,,,,,,,,,,,,,METAR,696.0
CXAT 281000Z AUTO 35003KT M19/M21 RMK AO1 SOG 11 6005 SLP271 T11871207,CXAT,2023-04-28T10:00:00Z,73.0,-85.03,-18.7,-20.7,350,3,,,,1027.1,,TRUE,TRUE,,,,,,,,,,,,,,,,,,,,,,,,,,,METAR,10.0
CXAK 281000Z AUTO 24010KT 07/M05 RMK AO1 T00651049,CXAK,2023-04-28T10:00:00Z,52.35,-112.6,6.5,-4.9,240,10,,,,,,TRUE,TRUE,,,,,,,,,,,,,,,,,,,,,,,,,,,METAR,799.0
CXAJ 281000Z AUTO 28009KT 09/M03 RMK AO1 PK WND 30021/0924 T00921034,CXAJ,2023-04-28T10:00:00Z,54.78,-112.82,9.2,-3.4,280,9,,,,,,TRUE,TRUE,,,,,,,,,,,,,,,,,,,,,,,,,,,METAR,586.0
CXAG 281000Z AUTO 29007KT 06/M02 RMK AO1 T00641024,CXAG,2023-04-28T10:00:00Z,53.92,-112.28,6.4,-2.4,290,7,,,,,,TRUE,TRUE,,,,,,,,,,,,,,,,,,,,,,,,,,,METAR,632.0
CXAF 281000Z AUTO 31005KT 08/M04 RMK AO1 T00831039,CXAF,2023-04-28T10:00:00Z,54.28,-112.97,8.3,-3.9,310,5,,,,,,TRUE,TRUE,,,,,,,,,,,,,,,,,,,,,,,,,,,METAR,667.0
CWZW 281000Z AUTO 21007KT 01/M04 RMK AO1 SOG 23 2018 SLP211 T00051043,CWZW,2023-04-28T10:00:00Z,60.17,-132.73,0.5,-4.3,210,7,,,,1021.1,,TRUE,TRUE,,,,,,,,,,,,,,,,,,,,,,,,,,,METAR,683.0
CWZQ 281000Z AUTO 03007KT 02/M00 RMK AO1 SLP211 T00241003 52006,CWZQ,2023-04-28T10:00:00Z,46.53,-61.05,2.4,-0.3,30,7,,,,1021.1,,TRUE,TRUE,,,,,,,,,,,,,,,,0.6,,,,,,,,,,,METAR,13.0
CWZN 281000Z AUTO 01019KT 01/M03 RMK AO1 PK WND 01028/0925 SLP162 T00101029 53003,CWZN,2023-04-28T10:00:00Z,47.37,-55.8,1.0,-2.9,10,19,,,,1016.2,,TRUE,TRUE,,,,,,,,,,,,,,,,0.3,,,,,,,,,,,METAR,63.0
CWZL 281000Z AUTO 16008KT 07/06 RMK AO1 SLP228 T00650063 58003,CWZL,2023-04-28T10:00:00Z,53.03,-131.6,6.5,6.3,160,8,,,,1022.8,,TRUE,TRUE,,,,,,,,,,,,,,,,-0.3,,,,,,,,,,,METAR,17.0
CWZG 281000Z AUTO 22005KT 02/M06 RMK AO1 SLP237 T00161055 50005,CWZG,2023-04-28T10:00:00Z,51.2,-115.55,1.6,-5.5,220,5,,,,1023.7,,TRUE,TRUE,,,,,,,,,,,,,,,,0.5,,,,,,,,,,,METAR,1402.0
CWZA 281000Z AUTO 36007G15KT 13/04 RMK AO1 SLP205 T01340042 55003,CWZA,2023-04-28T10:00:00Z,49.25,-121.77,13.4,4.2,360,7,15,,,1020.5,,TRUE,TRUE,,,,,,,,,,,,,,,,-0.3,,,,,,,,,,,METAR,18.0
CWYY 281000Z AUTO 03001KT 05/01 RMK AO1 SLP229 T00540007 50002,CWYY,2023-04-28T10:00:00Z,49.03,-119.43,5.4,0.7,30,1,,,,1022.9,,TRUE,TRUE,,,,,,,,,,,,,,,,0.2,,,,,,,,,,,METAR,284.0
CWYL 281000Z AUTO 06001KT M00/M04 RMK AO1 SOG 54 8002 SLP251 T10041044,CWYL,2023-04-28T10:00:00Z,51.45,-116.33,-0.4,-4.4,60,1,,,,1025.1,,TRUE,TRUE,,,,,,,,,,,,,,,,,,,,,,,,,,,METAR,1602.0
CWYJ 281000Z AUTO 27002KT 07/05 RMK AO1 SLP202 T00660054 56005,CWYJ,2023-04-28T10:00:00Z,48.45,-123.3,6.6,5.4,270,2,,,,1020.2,,TRUE,TRUE,,,,,,,,,,,,,,,,-0.5,,,,,,,,,,,METAR,59.0
CWXL 281000Z AUTO 20005KT 03/M02 RMK AO1 SLP210 T00331021 58012,CWXL,2023-04-28T10:00:00Z,49.73,-111.45,3.3,-2.1,200,5,,,,1021.0,,TRUE,TRUE,,,,,,,,,,,,,,,,-1.2,,,,,,,,,,,METAR,815.0
CWXI 281000Z AUTO 35015KT 01/M01 RMK AO1 PK WND 01018/0901 SLP198 T00111013 53008,CWXI,2023-04-28T10:00:00Z,51.02,-57.1,1.1,-1.3,350,15,,,,1019.8,,TRUE,TRUE,,,,,,,,,,,,,,,,0.8,,,,,,,,,,,METAR,15.0
CWXC 281000Z AUTO 06002KT M04/M05 RMK AO1 SLP249 T10411048 51009,CWXC,2023-04-28T10:00:00Z,48.88,-71.03,-4.1,-4.8,60,2,,,,1024.9,,TRUE,TRUE,,,,,,,,,,,,,,,,0.9,,,,,,,,,,,METAR,306.0
CWXA 281000Z AUTO 00026KT 07/M08 RMK AO1 SLP228 T00701075 50006,CWXA,2023-04-28T10:00:00Z,51.07,-115.07,7.0,-7.5,0,26,,,,1022.8,,TRUE,TRUE,,,,,,,,,,,,,,,,0.6,,,,,,,,,,,METAR,1303.0
CWWZ 281000Z AUTO 05007KT 08/04 RMK AO1 SLP154 T00750043 58006,CWWZ,2023-04-28T10:00:00Z,43.25,-79.22,7.5,4.3,50,7,,,,1015.4,,TRUE,TRUE,,,,,,,,,,,,,,,,-0.6,,,,,,,,,,,METAR,75.0
CWWS 281000Z AUTO 25001KT M01/M02 RMK AO1 SOG 27 2004 SLP188 T10101024,CWWS,2023-04-28T10:00:00Z,52.82,-97.62,-1.0,-2.4,250,1,,,,1018.8,,TRUE,TRUE,,,,,,,,,,,,,,,,,,,,,,,,,,,METAR,220.0
CWWL 281000Z AUTO 15008KT 07/05 RMK AO1 SLP227 T00700054 58005,CWWL,2023-04-28T10:00:00Z,53.5,-130.63,7.0,5.4,150,8,,,,1022.7,,TRUE,TRUE,,,,,,,,,,,,,,,,-0.5,,,,,,,,,,,METAR,8.0
CWWK 281000Z AUTO 11001KT 08/06 RMK AO1 SLP207 T00810064 58003,CWWK,2023-04-28T10:00:00Z,49.02,-122.78,8.1,6.4,110,1,,,,1020.7,,TRUE,TRUE,,,,,,,,,,,,,,,,-0.3,,,,,,,,,,,METAR,10.0
CWWF 281000Z AUTO 35006KT 01/M02 RMK AO1 SOG 01 3006 SLP208 T00051020,CWWF,2023-04-28T10:00:00Z,49.7,-103.8,0.5,-2.0,350,6,,,,1020.8,,TRUE,TRUE,,,,,,,,,,,,,,,,,,,,,,,,,,,METAR,583.0
CWWE 281000Z AUTO 33004KT 05/04 RMK AO1 SLP219 T00490044 53014,CWWE,2023-04-28T10:00:00Z,43.98,-64.67,4.9,4.4,330,4,,,,1021.9,,TRUE,TRUE,,,,,,,,,,,,,,,,1.4,,,,,,,,,,,METAR,4.0
CWWB 281000Z AUTO 02011KT 06/03 RMK AO1 SLP162 T00610032 56009,CWWB,2023-04-28T10:00:00Z,43.3,-79.78,6.1,3.2,20,11,,,,1016.2,,TRUE,TRUE,,,,,,,,,,,,,,,,-0.9,,,,,,,,,,,METAR,77.0
CWWA 281000Z AUTO 04001KT 10/06 RMK AO1 SLP204 T00990059 58005,CWWA,2023-04-28T10:00:00Z,49.35,-123.18,9.9,5.9,40,1,,,,1020.4,,TRUE,TRUE,,,,,,,,,,,,,,,,-0.5,,,,,,,,,,,METAR,172.0
CWVU 281000Z AUTO 11003KT 04/04 RMK AO1 SLP220 T00390039 53012,CWVU,2023-04-28T10:00:00Z,44.28,-66.33,3.9,3.9,110,3,,,,1022.0,,TRUE,TRUE,,,,,,,,,,,,,,,,1.2,,,,,,,,,,,METAR,4.0
CWVT 281000Z AUTO 17007KT 05/M01 RMK AO1 SLP149 T00481010 58027,CWVT,2023-04-28T10:00:00Z,55.83,-108.42,4.8,-1.0,170,7,,,,1014.9,,TRUE,TRUE,,,,,,,,,,,,,,,,-2.7,,,,,,,,,,,METAR,431.0
CWVQ 281000Z AUTO 01003KT 02/M00 RMK AO1 SLP229 T00211003 51001,CWVQ,2023-04-28T10:00:00Z,45.42,-73.92,2.1,-0.3,10,3,,,,1022.9,,TRUE,TRUE,,,,,,,,,,,,,,,,0.1,,,,,,,,,,,METAR,38.0
CWVP 281000Z AUTO 22004KT 01/M04 RMK AO1 SLP215 T00141040 58006,CWVP,2023-04-28T10:00:00Z,49.63,-109.52,1.4,-4.0,220,4,,,,1021.5,,TRUE,TRUE,,,,,,,,,,,,,,,,-0.6,,,,,,,,,,,METAR,1269.0
CWVN 281000Z AUTO 23006KT M02/M04 RMK AO1 SLP231 T10241037 51001,CWVN,2023-04-28T10:00:00Z,49.07,-107.58,-2.4,-3.7,230,6,,,,1023.1,,TRUE,TRUE,,,,,,,,,,,,,,,,0.1,,,,,,,,,,,METAR,792.0
CWVI 281000Z AUTO 28009KT 09/M02 RMK AO1 SLP161 T00941018 55009,CWVI,2023-04-28T10:00:00Z,53.52,-112.1,9.4,-1.8,280,9,,,,1016.1,,TRUE,TRUE,,,,,,,,,,,,,,,,-0.9,,,,,,,,,,,METAR,640.0
CWVF 281000Z AUTO 34007KT 11/09 RMK AO1 T01120088,CWVF,2023-04-28T10:00:00Z,49.1,-123.3,11.2,8.8,340,7,,,,,,TRUE,TRUE,,,,,,,,,,,,,,,,,,,,,,,,,,,METAR,13.0
CWUX 281000Z AUTO 22003KT M03/M03 RMK AO1 SLP254 T10261031 51011,CWUX,2023-04-28T10:00:00Z,48.3,-70.93,-2.6,-3.1,220,3,,,,1025.4,,TRUE,TRUE,,,,,,,,,,,,,,,,1.1,,,,,,,,,,,METAR,150.0
CWUW 281000Z AUTO 12023KT ////SM ////// M07/M07 A3024,CWUW,2023-04-28T10:00:00Z,68.62,-71.12,-7.0,-7.0,120,23,,,30.239174,,,TRUE,,,,,,,,,,,,,,,,,,,,,,,,,,,,METAR,173.0
CWUS 281000Z AUTO 27006KT 08/M04 RMK AO1 SLP233 T00781035 53002,CWUS,2023-04-28T10:00:00Z,49.57,-119.65,7.8,-3.5,270,6,,,,1023.3,,TRUE,TRUE,,,,,,,,,,,,,,,,0.2,,,,,,,,,,,METAR,455.0
CWTY 281000Z AUTO 33001KT 02/01 RMK AO1 SLP246 T00180005 51007,CWTY,2023-04-28T10:00:00Z,46.35,-72.52,1.8,0.5,330,1,,,,1024.6,,TRUE,TRUE,,,,,,,,,,,,,,,,0.7,,,,,,,,,,,METAR,8.0
CWTT 281000Z AUTO 02002KT M02/M02 RMK AO1 T10151015,CWTT,2023-04-28T10:00:00Z,45.27,-72.17,-1.5,-1.5,20,2,,,,,,TRUE,TRUE,,,,,,,,,,,,,,,,,,,,,,,,,,,METAR,210.0
CWTN 281000Z AUTO 32002KT 03/01 RMK AO1 SLP243 T00270007 51011,CWTN,2023-04-28T10:00:00Z,47.07,-70.78,2.7,0.7,320,2,,,,1024.3,,TRUE,TRUE,,,,,,,,,,,,,,,,1.1,,,,,,,,,,,METAR,5.0
CWTG 281000Z AUTO 27003KT 02/01 RMK AO1 SLP224 T00150014 53011,CWTG,2023-04-28T10:00:00Z,49.32,-67.37,1.5,1.4,270,3,,,,1022.4,,TRUE,TRUE,,,,,,,,,,,,,,,,1.1,,,,,,,,,,,METAR,6.0
CWTA 281000Z AUTO 06002KT 07/01 RMK AO1 SLP229 T00680008 58001,CWTA,2023-04-28T10:00:00Z,45.5,-73.58,6.8,0.8,60,2,,,,1022.9,,TRUE,TRUE,,,,,,,,,,,,,,,,-0.1,,,,,,,,,,,METAR,71.0
CWST 281000Z AUTO 12005KT 02/M01 RMK AO1 SLP238 T00181009 51013,CWST,2023-04-28T10:00:00Z,47.35,-70.02,1.8,-0.9,120,5,,,,1023.8,,TRUE,TRUE,,,,,,,,,,,,,,,,1.3,,,,,,,,,,,METAR,31.0
CWSS 281000Z AUTO 00000KT M01/M01 RMK AO1 3018 SLP234 T10051009 50002,CWSS,2023-04-28T10:00:00Z,45.2,-67.25,-0.5,-0.9,0,0,,,,1023.4,,TRUE,TRUE,,,,,,,,,,,,,,,,0.2,,,,,,,,,,,METAR,27.0
CWSR 281000Z AUTO 16005KT 03/M03 RMK AO1 SLP189 T00251028 56014,CWSR,2023-04-28T10:00:00Z,53.37,-107.55,2.5,-2.8,160,5,,,,1018.9,,TRUE,TRUE,,,,,,,,,,,,,,,,-1.4,,,,,,,,,,,METAR,589.0
CWSP 281000Z AUTO 07006KT 13/05 RMK AO1 SLP198 T01250046 58008,CWSP,2023-04-28T10:00:00Z,48.38,-123.92,12.5,4.6,70,6,,,,1019.8,,TRUE,TRUE,,,,,,,,,,,,,,,,-0.8,,,,,,,,,,,METAR,2.0
CWSL 281000Z AUTO 19001KT 05/01 RMK AO1 SLP245 T00450006 50001,CWSL,2023-04-28T10:00:00Z,50.7,-119.28,4.5,0.6,190,1,,,,1024.5,,TRUE,TRUE,,,,,,,,,,,,,,,,0.1,,,,,,,,,,,METAR,353.0
CWSK 281000Z AUTO 03002KT 07/06 RMK AO1 SLP219 T00680056 56001,CWSK,2023-04-28T10:00:00Z,49.78,-123.17,6.8,5.6,30,2,,,,1021.9,,TRUE,TRUE,,,,,,,,,,,,,,,,-0.1,,,,,,,,,,,METAR,59.0
CWSG 281000Z AUTO 19008KT 03/01 RMK AO1 SLP226 T00290006 53009,CWSG,2023-04-28T10:00:00Z,49.12,-66.65,2.9,0.6,190,8,,,,1022.6,,TRUE,TRUE,,,,,,,,,,,,,,,,0.9,,,,,,,,,,,METAR,5.0
CWSF 281000Z AUTO 17011KT 02/M00 RMK AO1 SLP216 T00201003 53009,CWSF,2023-04-28T10:00:00Z,49.25,-65.32,2.0,-0.3,170,11,,,,1021.6,,TRUE,TRUE,,,,,,,,,,,,,,,,0.9,,,,,,,,,,,METAR,15.0
CWSD 281000Z AUTO 00000KT M00/M00 RMK AO1 SLP226 T10011001 53010,CWSD,2023-04-28T10:00:00Z,46.43,-63.85,-0.1,-0.1,0,0,,,,1022.6,,TRUE,TRUE,,,,,,,,,,,,,,,,1.0,,,,,,,,,,,METAR,12.0
CWSA 281000Z AUTO 32010KT 9SM 05/03 A3008 RMK CLD MISG SLP189,CWSA,2023-04-28T10:00:00Z,43.93,-60.0,5.0,3.0,320,10,,9.0,30.079725,1018.9,,TRUE,,,,,,,,,,,,,,,,,,,,,,,,,,,,METAR,4.0
CWRZ 281000Z AUTO 05002KT 02/01 RMK AO1 SLP220 T00160007 53010,CWRZ,2023-04-28T10:00:00Z,48.42,-64.32,1.6,0.7,50,2,,,,1022.0,,TRUE,TRUE,,,,,,,,,,,,,,,,1.0,,,,,,,,,,,METAR,16.0
CWRY 281000Z AUTO 24005KT 01/M03 RMK AO1 SOG 17 7007 SLP217 T00111034,CWRY,2023-04-28T10:00:00Z,49.12,-112.05,1.1,-3.4,240,5,,,,1021.7,,TRUE,TRUE,,,,,,,,,,,,,,,,,,,,,,,,,,,METAR,1048.0
CWRU 281000Z AUTO 01016KT 07/ RMK AO1 PK WND 01017/1000 SLP200 T0074 57016,CWRU,2023-04-28T10:00:00Z,50.12,-127.93,7.4,,10,16,,,,1020.0,,TRUE,TRUE,,,,,,,,,,,,,,,,-1.6,,,,,,,,,,,METAR,76.0
CWRT 281000Z AUTO 16001KT 01/M05 RMK AO1 SLP230 T00131054 58002,CWRT,2023-04-28T10:00:00Z,49.62,-114.47,1.3,-5.4,160,1,,,,1023.0,,TRUE,TRUE,,,,,,,,,,,,,,,,-0.2,,,,,,,,,,,METAR,1311.0
CWRO 281000Z AUTO 11011KT 07/ RMK AO1 SLP230 T0072 58003,CWRO,2023-04-28T10:00:00Z,54.17,-131.67,7.2,,110,11,,,,1023.0,,TRUE,TRUE,,,,,,,,,,,,,,,,-0.3,,,,,,,,,,,METAR,7.0
CWRN 281000Z AUTO 31017KT 02/01 RMK AO1 PK WND 30022/0906 SLP203 T00180009 53010,CWRN,2023-04-28T10:00:00Z,45.35,-60.98,1.8,0.9,310,17,,,,1020.3,,TRUE,TRUE,,,,,,,,,,,,,,,,1.0,,,,,,,,,,,METAR,8.0
CWRM 281000Z AUTO 29001KT 05/M01 RMK AO1 SLP178 T00481013 53004,CWRM,2023-04-28T10:00:00Z,52.42,-114.92,4.8,-1.3,290,1,,,,1017.8,,TRUE,TRUE,,,,,,,,,,,,,,,,0.4,,,,,,,,,,,METAR,986.0
CWRK 281000Z AUTO 30001KT M02/M02 RMK AO1 SLP199 T10211021 56004,CWRK,2023-04-28T10:00:00Z,45.07,-77.87,-2.1,-2.1,300,1,,,,1019.9,,TRUE,TRUE,,,,,,,,,,,,,,,,-0.4,,,,,,,,,,,METAR,328.0
CWRJ 281000Z AUTO 24004KT M01/M03 RMK AO1 SLP204 T10081032 57009,CWRJ,2023-04-28T10:00:00Z,51.57,-107.92,-0.8,-3.2,240,4,,,,1020.4,,TRUE,TRUE,,,,,,,,,,,,,,,,-0.9,,,,,,,,,,,METAR,586.0
CWRA 281000Z AUTO 01/M01 RMK AO1 SLP135 T00111009 50000,CWRA,2023-04-28T10:00:00Z,46.65,-53.07,1.1,-0.9,,,,,,1013.5,,TRUE,TRUE,,,,,,,,,,,,,,,,0.0,,,,,,,,,,,METAR,4.0
CWQV 281000Z AUTO 29010KT 03/ RMK AO1 T0032,CWQV,2023-04-28T10:00:00Z,48.27,-70.12,3.2,,290,10,,,,,,TRUE,TRUE,,,,,,,,,,,,,,,,,,,,,,,,,,,METAR,4.0
CWQS 281000Z AUTO 14005KT 06/06 RMK AO1 SLP218 T00550061 58003,CWQS,2023-04-28T10:00:00Z,53.32,-132.77,5.5,6.1,140,5,,,,1021.8,,TRUE,TRUE,,,,,,,,,,,,,,,,-0.3,,,,,,,,,,,METAR,10.0
CWQR 281000Z AUTO 04004KT 01/01 RMK AO1 T00140006,CWQR,2023-04-28T10:00:00Z,50.22,-64.22,1.4,0.6,40,4,,,,,,TRUE,TRUE,,,,,,,,,,,,,,,,,,,,,,,,,,,METAR,9.0
CWQP 281000Z AUTO 10009KT 07/04 RMK AO1 SLP190 T00650040 55002,CWQP,2023-04-28T10:00:00Z,43.83,-77.15,6.5,4.0,100,9,,,,1019.0,,TRUE,TRUE,,,,,,,,,,,,,,,,-0.2,,,,,,,,,,,METAR,77.0
CWQO 281000Z AUTO 23012KT 05/04 RMK AO1 T00490035,CWQO,2023-04-28T10:00:00Z,48.42,-68.9,4.9,3.5,230,12,,,,,,TRUE,TRUE,,,,,,,,,,,,,,,,,,,,,,,,,,,METAR,7.0
CWQK 281000Z AUTO 04003KT 11/06 RMK AO1 SLP199 T01050060 58005,CWQK,2023-04-28T10:00:00Z,48.3,-123.53,10.5,6.0,40,3,,,,1019.9,,TRUE,TRUE,,,,,,,,,,,,,,,,-0.5,,,,,,,,,,,METAR,5.0
CWQH 281000Z AUTO 07004KT M01/M02 RMK AO1 SLP249 T10141018 52006,CWQH,2023-04-28T10:00:00Z,45.37,-71.82,-1.4,-1.8,70,4,,,,1024.9,,TRUE,TRUE,,,,,,,,,,,,,,,,0.6,,,,,,,,,,,METAR,181.0
CWPZ 281000Z AUTO 31001KT M00/M04 RMK AO1 SLP247 T10011039 51006,CWPZ,2023-04-28T10:00:00Z,54.38,-125.97,-0.1,-3.9,310,1,,,,1024.7,,TRUE,TRUE,,,,,,,,,,,,,,,,0.6,,,,,,,,,,,METAR,715.0
CWPR 281000Z AUTO 00000KT 04/M02 RMK AO1 SLP236 T00391020 50001,CWPR,2023-04-28T10:00:00Z,49.47,-120.52,3.9,-2.0,0,0,,,,1023.6,,TRUE,TRUE,,,,,,,,,,,,,,,,0.1,,,,,,,,,,,METAR,703.0
CWPO 281000Z AUTO 32006KT 01/01 RMK AO1 SOG 06 3005 SLP194 T00050009,CWPO,2023-04-28T10:00:00Z,49.2,-98.9,0.5,0.9,320,6,,,,1019.4,,TRUE,TRUE,,,,,,,,,,,,,,,,,,,,,,,,,,,METAR,471.0
CWPK 281000Z AUTO 07002KT M03/M04 RMK AO1 SLP245 T10341039 53005,CWPK,2023-04-28T10:00:00Z,47.92,-74.62,-3.4,-3.9,70,2,,,,1024.5,,TRUE,TRUE,,,,,,,,,,,,,,,,0.5,,,,,,,,,,,METAR,443.0
CWPE 281000Z AUTO 34005KT 02/01 RMK AO1 SLP226 T00170013 52014,CWPE,2023-04-28T10:00:00Z,45.07,-66.47,1.7,1.3,340,5,,,,1022.6,,TRUE,TRUE,,,,,,,,,,,,,,,,1.4,,,,,,,,,,,METAR,9.0
CWPD 281000Z AUTO 10001KT M06/M06 RMK AO1 SLP244 T10601061 52008,CWPD,2023-04-28T10:00:00Z,47.57,-71.22,-6.0,-6.1,100,1,,,,1024.4,,TRUE,TRUE,,,,,,,,,,,,,,,,0.8,,,,,,,,,,,METAR,795.0
CWOY 281000Z AUTO 18002KT M02/M03 RMK AO1 SLP216 T10161027 58001,CWOY,2023-04-28T10:00:00Z,51.77,-104.2,-1.6,-2.7,180,2,,,,1021.6,,TRUE,TRUE,,,,,,,,,,,,,,,,-0.1,,,,,,,,,,,METAR,557.0
CWOD 281000Z AUTO 35001KT M01/M03 RMK AO1 SLP250 T10061030 52008,CWOD,2023-04-28T10:00:00Z,48.85,-72.55,-0.6,-3.0,350,1,,,,1025.0,,TRUE,TRUE,,,,,,,,,,,,,,,,0.8,,,,,,,,,,,METAR,150.0
CWOC 281000Z AUTO 01004KT M00/M01 RMK AO1 SLP219 T10021009 53008,CWOC,2023-04-28T10:00:00Z,48.02,-65.32,-0.2,-0.9,10,4,,,,1021.9,,TRUE,TRUE,,,,,,,,,,,,,,,,0.8,,,,,,,,,,,METAR,42.0
CWOB 281000Z AUTO 08008KT ////SM ////// M05/M05 A3037,CWOB,2023-04-28T10:00:00Z,63.33,-64.15,-5.0,-5.0,80,8,,,30.369095,,,TRUE,,,,,,,,,,,,,,,,,,,,,,,,,,,,METAR,369.0
CWNZ 281000Z AUTO 24002KT 02/01 RMK AO1 SOG 03 3010 SLP172 T00160014,CWNZ,2023-04-28T10:00:00Z,49.75,-84.17,1.6,1.4,240,2,,,,1017.2,,TRUE,TRUE,,,,,,,,,,,,,,,,,,,,,,,,,,,METAR,261.0
CWNQ 281000Z AUTO 06002KT 02/02 RMK AO1 SLP240 T00210016 51006,CWNQ,2023-04-28T10:00:00Z,46.22,-72.65,2.1,1.6,60,2,,,,1024.0,,TRUE,TRUE,,,,,,,,,,,,,,,,0.6,,,,,,,,,,,METAR,9.0
CWNP 281000Z AUTO 07001KT 02/01 RMK AO1 SLP258 T00240009 53003,CWNP,2023-04-28T10:00:00Z,50.27,-117.82,2.4,0.9,70,1,,,,1025.8,,TRUE,TRUE,,,,,,,,,,,,,,,,0.3,,,,,,,,,,,METAR,517.0
CWNM 281000Z AUTO 20003KT 04/01 RMK AO1 SLP250 T00390009 51002,CWNM,2023-04-28T10:00:00Z,49.5,-117.3,3.9,0.9,200,3,,,,1025.0,,TRUE,TRUE,,,,,,,,,,,,,,,,0.2,,,,,,,,,,,METAR,533.0
CWNK 281000Z AUTO 32006KT 03/02 RMK AO1 SLP179 T00300019 53004,CWNK,2023-04-28T10:00:00Z,49.5,-98.03,3.0,1.9,320,6,,,,1017.9,,TRUE,TRUE,,,,,,,,,,,,,,,,0.4,,,,,,,,,,,METAR,271.0
CWNH 281000Z AUTO 19005KT 03/M00 RMK AO1 SLP241 T00251004 53011,CWNH,2023-04-28T10:00:00Z,47.8,-69.53,2.5,-0.4,190,5,,,,1024.1,,TRUE,TRUE,,,,,,,,,,,,,,,,1.1,,,,,,,,,,,METAR,147.0
CWNE 281000Z AUTO 23005KT 02/02 RMK AO1 SLP220 T00240024 53007,CWNE,2023-04-28T10:00:00Z,47.07,-64.0,2.4,2.4,230,5,,,,1022.0,,TRUE,TRUE,,,,,,,,,,,,,,,,0.7,,,,,,,,,,,METAR,5.0
CWND 281000Z AUTO 32008KT M11/M13 RMK AO1 SLP118 T11141127 51021,CWND,2023-04-28T10:00:00Z,69.63,-135.43,-11.4,-12.7,320,8,,,,1011.8,,TRUE,TRUE,,,,,,,,,,,,,,,,2.1,,,,,,,,,,,METAR,14.0
CWNC 281000Z AUTO 08007KT 08/01 RMK AO1 SLP175 T00810012 56006,CWNC,2023-04-28T10:00:00Z,43.95,-78.17,8.1,1.2,80,7,,,,1017.5,,TRUE,TRUE,,,,,,,,,,,,,,,,-0.6,,,,,,,,,,,METAR,71.0
CWMT 281000Z AUTO 27005KT M00/M04 RMK AO1 SLP103 T10031039 53019,CWMT,2023-04-28T10:00:00Z,63.13,-117.25,-0.3,-3.9,270,5,,,,1010.3,,TRUE,TRUE,,,,,,,,,,,,,,,,1.9,,,,,,,,,,,METAR,274.0
CWMQ 281000Z AUTO 15001KT 01/M03 RMK AO1 SLP216 T00051031 58010,CWMQ,2023-04-28T10:00:00Z,49.9,-109.47,0.5,-3.1,150,1,,,,1021.6,,TRUE,TRUE,,,,,,,,,,,,,,,,-1.0,,,,,,,,,,,METAR,767.0
CWMM 281000Z AUTO 32001KT 09/07 RMK AO1 SLP207 T00880068 56001,CWMM,2023-04-28T10:00:00Z,49.22,-122.68,8.8,6.8,320,1,,,,1020.7,,TRUE,TRUE,,,,,,,,,,,,,,,,-0.1,,,,,,,,,,,METAR,2.0
CWMJ 281000Z AUTO 32001KT M01/M01 RMK AO1 SLP222 T10061006 56003,CWMJ,2023-04-28T10:00:00Z,46.27,-76.0,-0.6,-0.6,320,1,,,,1022.2,,TRUE,TRUE,,,,,,,,,,,,,,,,-0.3,,,,,,,,,,,METAR,198.0
CWME 281000Z AUTO 10008KT 08/04 RMK AO1 SLP232 T00800044 58003,CWME,2023-04-28T10:00:00Z,52.18,-127.47,8.0,4.4,100,8,,,,1023.2,,TRUE,TRUE,,,,,,,,,,,,,,,,-0.3,,,,,,,,,,,METAR,23.0
CWLY 281000Z AUTO 18005KT 9SM SCT180 OVC200 11/02 A3016 RMK SLP216,CWLY,2023-04-28T10:00:00Z,50.22,-121.58,11.0,2.0,180,5,,9.0,30.159449,1021.6,,TRUE,,,,,,,,SCT,18000,OVC,20000,,,,,VFR,,,,,,,,,,,,METAR,228.0
CWLX 281000Z AUTO ///// ////SM ////// M02/M03 A3023,CWLX,2023-04-28T10:00:00Z,68.9,-75.15,-2.0,-3.0,,,,,30.230314,,,TRUE,,,,,,,,,,,,,,,,,,,,,,,,,,,,METAR,129.0
CWLS 281000Z AUTO 10006KT 05/M01 RMK AO1 SLP153 T00491014 56011,CWLS,2023-04-28T10:00:00Z,43.97,-80.75,4.9,-1.4,100,6,,,,1015.3,,TRUE,TRUE,,,,,,,,,,,,,,,,-1.1,,,,,,,,,,,METAR,413.0
CWLP 281000Z AUTO 26008KT 07/06 RMK AO1 SLP224 T00710062 58007,CWLP,2023-04-28T10:00:00Z,50.93,-127.63,7.1,6.2,260,8,,,,1022.4,,TRUE,TRUE,,,,,,,,,,,,,,,,-0.7,,,,,,,,,,,METAR,15.0
CWLM 281000Z AUTO 19002KT 10/06 RMK AO1 SLP200 T00990062 57004,CWLM,2023-04-28T10:00:00Z,48.42,-123.32,9.9,6.2,190,2,,,,1020.0,,TRUE,TRUE,,,,,,,,,,,,,,,,-0.4,,,,,,,,,,,METAR,62.0
CWLE 281000Z AUTO 22005KT M00/M02 RMK AO1 SLP215 T10031019 58008,CWLE,2023-04-28T10:00:00Z,50.95,-107.15,-0.3,-1.9,220,5,,,,1021.5,,TRUE,TRUE,,,,,,,,,,,,,,,,-0.8,,,,,,,,,,,METAR,666.0
CWLC 281000Z AUTO 13004KT 07/06 RMK AO1 T00680064,CWLC,2023-04-28T10:00:00Z,54.3,-130.62,6.8,6.4,130,4,,,,,,TRUE,TRUE,,,,,,,,,,,,,,,,,,,,,,,,,,,METAR,27.0
CWLB 281000Z AUTO 25006KT 07/M00 RMK AO1 SLP153 T00741002 56014,CWLB,2023-04-28T10:00:00Z,54.77,-112.02,7.4,-0.2,250,6,,,,1015.3,,TRUE,TRUE,,,,,,,,,,,,,,,,-1.4,,,,,,,,,,,METAR,561.0
CWKX 281000Z AUTO 18001KT M00/M03 RMK AO1 SLP241 T10031029 51011,CWKX,2023-04-28T10:00:00Z,58.43,-130.02,-0.3,-2.9,180,1,,,,1024.1,,TRUE,TRUE,,,,,,,,,,,,,,,,1.1,,,,,,,,,,,METAR,807.0
CWKO 281000Z AUTO 31007KT 03/M01 RMK AO1 SLP222 T00251008 50001,CWKO,2023-04-28T10:00:00Z,49.17,-105.97,2.5,-0.8,310,7,,,,1022.2,,TRUE,TRUE,,,,,,,,,,,,,,,,0.1,,,,,,,,,,,METAR,914.0
CWKH 281000Z AUTO 12/M00 RMK AO1 SLP190 T01211004 56008,CWKH,2023-04-28T10:00:00Z,48.57,-123.55,12.1,-0.4,,,,,,1019.0,,TRUE,TRUE,,,,,,,,,,,,,,,,-0.8,,,,,,,,,,,METAR,327.0
CWKG 281000Z AUTO 30002KT 03/02 RMK AO1 SLP220 T00280018 53013,CWKG,2023-04-28T10:00:00Z,44.43,-65.2,2.8,1.8,300,2,,,,1022.0,,TRUE,TRUE,,,,,,,,,,,,,,,,1.3,,,,,,,,,,,METAR,154.0
CWKD 281000Z AUTO M04/M05 RMK AO1 SLP251 T10391053 52009,CWKD,2023-04-28T10:00:00Z,50.73,-71.02,-3.9,-5.3,,,,,,1025.1,,TRUE,TRUE,,,,,,,,,,,,,,,,0.9,,,,,,,,,,,METAR,496.0
CWJX 281000Z AUTO 20005KT 02/M01 RMK AO1 SOG 01 6007 SLP206 T00231013,CWJX,2023-04-28T10:00:00Z,50.88,-109.5,2.3,-1.3,200,5,,,,1020.6,,TRUE,TRUE,,,,,,,,,,,,,,,,,,,,,,,,,,,METAR,671.0
CWJW 281000Z AUTO 10003KT 07/M02 RMK AO1 SLP220 T00681023 58004,CWJW,2023-04-28T10:00:00Z,52.93,-118.03,6.8,-2.3,100,3,,,,1022.0,,TRUE,TRUE,,,,,,,,,,,,,,,,-0.4,,,,,,,,,,,METAR,1022.0
CWJV 281000Z AUTO 09006KT 07/M01 RMK AO1 SLP237 T00681013 50001,CWJV,2023-04-28T10:00:00Z,50.22,-119.18,6.8,-1.3,90,6,,,,1023.7,,TRUE,TRUE,,,,,,,,,,,,,,,,0.1,,,,,,,,,,,METAR,487.0
CWJU 281000Z AUTO 09004KT 06/06 RMK AO1 SLP229 T00640058 56001,CWJU,2023-04-28T10:00:00Z,54.25,-133.07,6.4,5.8,90,4,,,,1022.9,,TRUE,TRUE,,,,,,,,,,,,,,,,-0.1,,,,,,,,,,,METAR,47.0
CWJT 281000Z AUTO 01001KT 00/M01 RMK AO1 SLP229 T00001008 58003,CWJT,2023-04-28T10:00:00Z,46.07,-74.57,0.0,-0.8,10,1,,,,1022.9,,TRUE,TRUE,,,,,,,,,,,,,,,,-0.3,,,,,,,,,,,METAR,236.0
CWJR 281000Z AUTO 03003KT 07/M03 RMK AO1 SLP243 T00651029 51006,CWJR,2023-04-28T10:00:00Z,49.03,-116.5,6.5,-2.9,30,3,,,,1024.3,,TRUE,TRUE,,,,,,,,,,,,,,,,0.6,,,,,,,,,,,METAR,642.0
CWJI 281000Z AUTO 28002KT M00/M01 RMK AO1 SLP218 T10031014 50002,CWJI,2023-04-28T10:00:00Z,49.72,-105.93,-0.3,-1.4,280,2,,,,1021.8,,TRUE,TRUE,,,,,,,,,,,,,,,,0.2,,,,,,,,,,,METAR,724.0
CWJH 281000Z AUTO 00000KT M02/M04 RMK AO1 SOG 03 8012 SLP181 T10151041,CWJH,2023-04-28T10:00:00Z,56.32,-103.27,-1.5,-4.1,0,0,,,,1018.1,,TRUE,TRUE,,,,,,,,,,,,,,,,,,,,,,,,,,,METAR,345.0
CWJD 281000Z AUTO 36002KT M05/M06 RMK AO1 SLP198 T10471061 51004,CWJD,2023-04-28T10:00:00Z,53.18,-99.27,-4.7,-6.1,360,2,,,,1019.8,,TRUE,TRUE,,,,,,,,,,,,,,,,0.4,,,,,,,,,,,METAR,222.0
CWJC 281000Z AUTO 17014KT M07/M09 RMK AO1 PK WND 17018/0948 SLP172 T10701088 56016,CWJC,2023-04-28T10:00:00Z,61.13,-100.9,-7.0,-8.8,170,14,,,,1017.2,,TRUE,TRUE,,,,,,,,,,,,,,,,-1.6,,,,,,,,,,,METAR,340.0
CWJB 281000Z AUTO 01/M00 RMK AO1 T00051003,CWJB,2023-04-28T10:00:00Z,46.78,-71.28,0.5,-0.3,,,,,,,,TRUE,TRUE,,,,,,,,,,,,,,,,,,,,,,,,,,,METAR,90.0
CWIZ 281000Z AUTO 07001KT 04/M00 RMK AO1 T00401004,CWIZ,2023-04-28T10:00:00Z,45.28,-73.33,4.0,-0.4,70,1,,,,,,TRUE,TRUE,,,,,,,,,,,,,,,,,,,,,,,,,,,METAR,45.0
CWIW 281000Z AUTO 26004KT M01/M03 RMK AO1 SLP216 T10111031 58004,CWIW,2023-04-28T10:00:00Z,51.67,-105.4,-1.1,-3.1,260,4,,,,1021.6,,TRUE,TRUE,,,,,,,,,,,,,,,,-0.4,,,,,,,,,,,METAR,524.0
CWIT 281000Z AUTO 15002KT 01/M00 RMK AO1 SLP224 T00051002 51001,CWIT,2023-04-28T10:00:00Z,45.17,-73.67,0.5,-0.2,150,2,,,,1022.4,,TRUE,TRUE,,,,,,,,,,,,,,,,0.1,,,,,,,,,,,METAR,53.0
CWIS 281000Z AUTO 13001KT M03/M04 RMK AO1 SOG 66 3009 SLP249 T10291035,CWIS,2023-04-28T10:00:00Z,47.28,-70.63,-2.9,-3.5,130,1,,,,1024.9,,TRUE,TRUE,,,,,,,,,,,,,,,,,,,,,,,,,,,METAR,720.0
CWIP 281000Z AUTO 30002KT 05/02 RMK AO1 T00490024,CWIP,2023-04-28T10:00:00Z,50.17,-66.43,4.9,2.4,300,2,,,,,,TRUE,TRUE,,,,,,,,,,,,,,,,,,,,,,,,,,,METAR,27.0
CWIL 281000Z AUTO ///// ////SM NCD M13/M14 A3009,CWIL,2023-04-28T10:00:00Z,68.32,-100.07,-13.0,-14.0,,,,,30.088583,,,TRUE,,,,,,,,CLR,,,,,,,,,,,,,,,,,,,,METAR,28.0
CWIK 281000Z AUTO 32002KT M01/M02 RMK AO1 SLP210 T10121020 53008,CWIK,2023-04-28T10:00:00Z,50.37,-102.58,-1.2,-2.0,320,2,,,,1021.0,,TRUE,TRUE,,,,,,,,,,,,,,,,0.8,,,,,,,,,,,METAR,597.0
CWIJ 281000Z AUTO 18004KT M01/M01 RMK AO1 SOG 81 1001 SLP107 T10091013 50004,CWIJ,2023-04-28T10:00:00Z,65.77,-111.23,-0.9,-1.3,180,4,,,,1010.7,,TRUE,TRUE,,,,,,,,,,,,,,,,0.4,,,,,,,,,,,METAR,490.0
CWII 281000Z AUTO 04002KT 02/01 RMK AO1 SLP181 T00240009 53008,CWII,2023-04-28T10:00:00Z,50.7,-96.57,2.4,0.9,40,2,,,,1018.1,,TRUE,TRUE,,,,,,,,,,,,,,,,0.8,,,,,,,,,,,METAR,216.0
CWIG 281000Z AUTO 23005KT RMK AO1,CWIG,2023-04-28T10:00:00Z,47.07,-70.53,,,230,5,,,,,,TRUE,TRUE,,,,,,,,,,,,,,,,,,,,,,,,,,,METAR,12.0
CWID 281000Z AUTO 28003KT 03/M03 RMK AO1 SLP114 T00251029 51021,CWID,2023-04-28T10:00:00Z,61.32,-117.6,2.5,-2.9,280,3,,,,1011.4,,TRUE,TRUE,,,,,,,,,,,,,,,,2.1,,,,,,,,,,,METAR,160.0
CWHV 281000Z AUTO 14002KT M01/M02 RMK AO1 SLP247 T10111018 53008,CWHV,2023-04-28T10:00:00Z,46.2,-70.78,-1.1,-1.8,140,2,,,,1024.7,,TRUE,TRUE,,,,,,,,,,,,,,,,0.8,,,,,,,,,,,METAR,227.0
CWHT 281000Z AUTO 35002KT 01/M05 RMK AO1 SOG 26 1024 SLP182 T00141051,CWHT,2023-04-28T10:00:00Z,60.77,-137.58,1.4,-5.1,350,2,,,,1018.2,,TRUE,TRUE,,,,,,,,,,,,,,,,,,,,,,,,,,,METAR,601.0
CWHQ 281000Z AUTO 35001KT M02/M03 RMK AO1 T10231026,CWHQ,2023-04-28T10:00:00Z,46.68,-71.97,-2.3,-2.6,350,1,,,,,,TRUE,TRUE,,,,,,,,,,,,,,,,,,,,,,,,,,,METAR,56.0
CWHP 281000Z AUTO 01014KT 03/02 RMK AO1 SLP204 T00280019 53011,CWHP,2023-04-28T10:00:00Z,49.08,-61.7,2.8,1.9,10,14,,,,1020.4,,TRUE,TRUE,,,,,,,,,,,,,,,,1.1,,,,,,,,,,,METAR,7.0
CWHO 281000Z AUTO 00032KT M01/M02 RMK AO1 SLP273 T10131024 51010,CWHO,2023-04-28T10:00:00Z,55.45,-60.22,-1.3,-2.4,0,32,,,,1027.3,,TRUE,TRUE,,,,,,,,,,,,,,,,1.0,,,,,,,,,,,METAR,16.0
CWHL 281000Z AUTO 32002KT 07/05 RMK AO1 SLP226 T00720049 58005,CWHL,2023-04-28T10:00:00Z,54.17,-130.35,7.2,4.9,320,2,,,,1022.6,,TRUE,TRUE,,,,,,,,,,,,,,,,-0.5,,,,,,,,,,,METAR,5.0
CWHI 281000Z AUTO 26010KT 06/M05 RMK AO1 T00571046,CWHI,2023-04-28T10:00:00Z,51.7,-113.22,5.7,-4.6,260,10,,,,,,TRUE,TRUE,,,,,,,,,,,,,,,,,,,,,,,,,,,METAR,906.0
CWGY 281000Z AUTO 21012KT 06/M02 RMK AO1 SLP195 T00581016 58010,CWGY,2023-04-28T10:00:00Z,51.67,-110.2,5.8,-1.6,210,12,,,,1019.5,,TRUE,TRUE,,,,,,,,,,,,,,,,-1.0,,,,,,,,,,,METAR,709.0
CWGT 281000Z AUTO 31014KT 10/07 RMK AO1 PK WND 31017/0923 SLP211 T01040071 58004,CWGT,2023-04-28T10:00:00Z,49.48,-124.43,10.4,7.1,310,14,,,,1021.1,,TRUE,TRUE,,,,,,,,,,,,,,,,-0.4,,,,,,,,,,,METAR,5.0
CWGR 281000Z AUTO 31008KT 03/02 RMK AO1 SLP208 T00320015 53003,CWGR,2023-04-28T10:00:00Z,47.42,-61.77,3.2,1.5,310,8,,,,1020.8,,TRUE,TRUE,,,,,,,,,,,,,,,,0.3,,,,,,,,,,,METAR,4.0
CWGM 281000Z AUTO 22016G23KT 09/M07 RMK AO1 PK WND 21025/0924 SLP202 T00901067 58008,CWGM,2023-04-28T10:00:00Z,49.13,-113.8,9.0,-6.7,220,16,23,,,1020.2,,TRUE,TRUE,,,,,,,,,,,,,,,,-0.8,,,,,,,,,,,METAR,1292.0
CWGL 281000Z AUTO 09010KT 07/M00 RMK AO1 SLP157 T00711004 56011,CWGL,2023-04-28T10:00:00Z,44.53,-79.22,7.1,-0.4,90,10,,,,1015.7,,TRUE,TRUE,,,,,,,,,,,,,,,,-1.1,,,,,,,,,,,METAR,220.0
CWGH 281000Z AUTO 05003KT 05/01 RMK AO1 SLP204 T00450011 55000,CWGH,2023-04-28T10:00:00Z,44.42,-75.85,4.5,1.1,50,3,,,,1020.4,,TRUE,TRUE,,,,,,,,,,,,,,,,0.0,,,,,,,,,,,METAR,76.0
CWGD 281000Z AUTO 09012KT 07/M01 RMK AO1 PK WND 09017/0944 SLP139 T00651006 56016,CWGD,2023-04-28T10:00:00Z,43.77,-81.72,6.5,-0.6,90,12,,,,1013.9,,TRUE,TRUE,,,,,,,,,,,,,,,,-1.6,,,,,,,,,,,METAR,214.0
CWGB 281000Z AUTO 24012KT 10/ RMK AO1 SLP204 T0099 58005,CWGB,2023-04-28T10:00:00Z,49.35,-124.13,9.9,,240,12,,,,1020.4,,TRUE,TRUE,,,,,,,,,,,,,,,,-0.5,,,,,,,,,,,METAR,6.0
CWFQ 281000Z AUTO 15004KT 06/M01 RMK AO1 SLP226 T00601008 58002,CWFQ,2023-04-28T10:00:00Z,45.03,-72.85,6.0,-0.8,150,4,,,,1022.6,,TRUE,TRUE,,,,,,,,,,,,,,,,-0.2,,,,,,,,,,,METAR,190.0
CWFJ 281000Z AUTO 22008KT 06/M05 RMK AO1 T00571048,CWFJ,2023-04-28T10:00:00Z,49.2,-113.27,5.7,-4.8,220,8,,,,,,TRUE,TRUE,,,,,,,,,,,,,,,,,,,,,,,,,,,METAR,1142.0
CWFF 281000Z AUTO 19003KT M02/M03 RMK AO1 SLP213 T10201034 58002,CWFF,2023-04-28T10:00:00Z,52.82,-104.6,-2.0,-3.4,190,3,,,,1021.3,,TRUE,TRUE,,,,,,,,,,,,,,,,-0.2,,,,,,,,,,,METAR,482.0
CWEZ 281000Z AUTO 32003KT 11/07 RMK AO1 SLP198 T01120066 58003,CWEZ,2023-04-28T10:00:00Z,48.78,-123.05,11.2,6.6,320,3,,,,1019.8,,TRUE,TRUE,,,,,,,,,,,,,,,,-0.3,,,,,,,,,,,METAR,23.0
CWEW 281000Z AUTO 01004KT 02/M00 RMK AO1 SLP237 T00201003 58001,CWEW,2023-04-28T10:00:00Z,45.82,-73.43,2.0,-0.3,10,4,,,,1023.7,,TRUE,TRUE,,,,,,,,,,,,,,,,-0.1,,,,,,,,,,,METAR,17.0
CWER 281000Z AUTO 25004KT RMK AO1,CWER,2023-04-28T10:00:00Z,47.0,-70.82,,,250,4,,,,,,TRUE,TRUE,,,,,,,,,,,,,,,,,,,,,,,,,,,METAR,4.0
CWEQ 281000Z AUTO 22005KT M02/M03 RMK AO1 SLP207 T10201029 52004,CWEQ,2023-04-28T10:00:00Z,52.12,-101.22,-2.0,-2.9,220,5,,,,1020.7,,TRUE,TRUE,,,,,,,,,,,,,,,,0.4,,,,,,,,,,,METAR,331.0
CWEP 281000Z AUTO 32004KT 01/01 RMK AO1 SLP219 T00110010 53006,CWEP,2023-04-28T10:00:00Z,46.45,-61.98,1.1,1.0,320,4,,,,1021.9,,TRUE,TRUE,,,,,,,,,,,,,,,,0.6,,,,,,,,,,,METAR,9.0
CWEL 281000Z AUTO 29010KT 11/07 RMK AO1 SLP203 T01080071 58004,CWEL,2023-04-28T10:00:00Z,49.22,-123.8,10.8,7.1,290,10,,,,1020.3,,TRUE,TRUE,,,,,,,,,,,,,,,,-0.4,,,,,,,,,,,METAR,0.0
CWEH 281000Z AUTO 25006KT 01/M03 RMK AO1 SLP221 T00091033 58004,CWEH,2023-04-28T10:00:00Z,49.43,-108.98,0.9,-3.3,250,6,,,,1022.1,,TRUE,TRUE,,,,,,,,,,,,,,,,-0.4,,,,,,,,,,,METAR,1077.0
CWEF 281000Z AUTO 31015KT M00/00 RMK AO1 PK WND 31018/0917 SLP185 T10020000 53002,CWEF,2023-04-28T10:00:00Z,47.22,-60.13,-0.2,0.0,310,15,,,,1018.5,,TRUE,TRUE,,,,,,,,,,,,,,,,0.2,,,,,,,,,,,METAR,27.0
CWEE 281000Z AUTO M04/M05 RMK AO1 SLP243 T10431046 53006,CWEE,2023-04-28T10:00:00Z,49.27,-73.35,-4.3,-4.6,,,,,,1024.3,,TRUE,TRUE,,,,,,,,,,,,,,,,0.6,,,,,,,,,,,METAR,302.0
CWDZ 281000Z AUTO 16002KT 03/M03 RMK AO1 SLP196 T00321032 58005,CWDZ,2023-04-28T10:00:00Z,51.43,-112.67,3.2,-3.2,160,2,,,,1019.6,,TRUE,TRUE,,,,,,,,,,,,,,,,-0.5,,,,,,,,,,,METAR,689.0
CWDV 281000Z AUTO 03001KT 01/00 RMK AO1 SOG 04 3008 SLP162 T00090000,CWDV,2023-04-28T10:00:00Z,49.02,-90.47,0.9,0.0,30,1,,,,1016.2,,TRUE,TRUE,,,,,,,,,,,,,,,,,,,,,,,,,,,METAR,487.0
CWDQ 281000Z AUTO 00000KT M03/M04 RMK AO1 SLP254 T10321039 51007,CWDQ,2023-04-28T10:00:00Z,47.42,-72.78,-3.2,-3.9,0,0,,,,1025.4,,TRUE,TRUE,,,,,,,,,,,,,,,,0.7,,,,,,,,,,,METAR,174.0
CWDO 281000Z AUTO 36018KT M01/M01 RMK AO1 PK WND 00023/0944 SLP163 T10111011 53003,CWDO,2023-04-28T10:00:00Z,49.68,-54.78,-1.1,-1.1,360,18,,,,1016.3,,TRUE,TRUE,,,,,,,,,,,,,,,,0.3,,,,,,,,,,,METAR,89.0
CWDM 281000Z AUTO 01006KT M00/M01 RMK AO1 SLP225 T10031010 53013,CWDM,2023-04-28T10:00:00Z,50.47,-59.63,-0.3,-1.0,10,6,,,,1022.5,,TRUE,TRUE,,,,,,,,,,,,,,,,1.3,,,,,,,,,,,METAR,2.0
CWDK 281000Z AUTO 34002KT 00/M02 RMK AO1 SLP212 T00001024 56006,CWDK,2023-04-28T10:00:00Z,50.02,-113.62,0.0,-2.4,340,2,,,,1021.2,,TRUE,TRUE,,,,,,,,,,,,,,,,-0.6,,,,,,,,,,,METAR,1014.0
CWDJ 281000Z AUTO 36004KT M02/M04 RMK AO1 SLP217 T10211042 50003,CWDJ,2023-04-28T10:00:00Z,50.4,-104.58,-2.1,-4.2,360,4,,,,1021.7,,TRUE,TRUE,,,,,,,,,,,,,,,,0.3,,,,,,,,,,,METAR,576.0
CWDC 281000Z AUTO 33001KT 02/01 RMK AO1 3PAST HR 6014 SLP120 P0001 T00150012 50003,CWDC,2023-04-28T10:00:00Z,59.57,-108.48,1.5,1.2,330,1,,,,1012.0,,TRUE,TRUE,,,,,,,,,,,,,,,,0.3,,,,,0.01,,,,,,METAR,311.0
CWDA 281000Z AUTO 00033KT M00/ RMK AO1 T1003,CWDA,2023-04-28T10:00:00Z,50.72,-56.12,-0.3,,0,33,,,,,,TRUE,TRUE,,,,,,,,,,,,,,,,,,,,,,,,,,,METAR,30.0
CWCT 281000Z AUTO 21013KT 06/M02 RMK AO1 PK WND 21017/0928 SLP193 T00631021 58013,CWCT,2023-04-28T10:00:00Z,52.07,-111.43,6.3,-2.1,210,13,,,,1019.3,,TRUE,TRUE,,,,,,,,,,,,,,,,-1.3,,,,,,,,,,,METAR,793.0
CWCO 281000Z AUTO 14002KT 04/M01 RMK AO1 SLP169 T00371013 56011,CWCO,2023-04-28T10:00:00Z,44.5,-80.22,3.7,-1.3,140,2,,,,1016.9,,TRUE,TRUE,,,,,,,,,,,,,,,,-1.1,,,,,,,,,,,METAR,182.0
CWCJ 281000Z AUTO 05004KT M00/M00 RMK AO1 SLP174 T10011002 51010,CWCJ,2023-04-28T10:00:00Z,48.6,-86.28,-0.1,-0.2,50,4,,,,1017.4,,TRUE,TRUE,,,,,,,,,,,,,,,,1.0,,,,,,,,,,,METAR,207.0
CWCF 281000Z AUTO 11002KT M03/M04 RMK AO1 SLP192 T10291037 51006,CWCF,2023-04-28T10:00:00Z,52.35,-97.03,-2.9,-3.7,110,2,,,,1019.2,,TRUE,TRUE,,,,,,,,,,,,,,,,0.6,,,,,,,,,,,METAR,219.0
CWBZ 281000Z AUTO 07002KT 01/M01 RMK AO1 SLP215 T00111006 56003,CWBZ,2023-04-28T10:00:00Z,45.12,-74.28,1.1,-0.6,70,2,,,,1021.5,,TRUE,TRUE,,,,,,,,,,,,,,,,-0.3,,,,,,,,,,,METAR,49.0
CWBY 281000Z AUTO 00000KT M00/M01 RMK AO1 SLP217 T10021008 53009,CWBY,2023-04-28T10:00:00Z,49.83,-64.28,-0.2,-0.8,0,0,,,,1021.7,,TRUE,TRUE,,,,,,,,,,,,,,,,0.9,,,,,,,,,,,METAR,56.0
CWBV 281000Z AUTO 35010KT 03/02 RMK AO1 SLP195 T00300019 53012,CWBV,2023-04-28T10:00:00Z,44.82,-62.33,3.0,1.9,350,10,,,,1019.5,,TRUE,TRUE,,,,,,,,,,,,,,,,1.2,,,,,,,,,,,METAR,16.0
CWBU 281000Z AUTO 24003KT M02/M03 RMK AO1 SLP207 T10151034 58002,CWBU,2023-04-28T10:00:00Z,53.33,-104.02,-1.5,-3.4,240,3,,,,1020.7,,TRUE,TRUE,,,,,,,,,,,,,,,,-0.2,,,,,,,,,,,METAR,369.0
CWBT 281000Z AUTO 06001KT M02/M02 RMK AO1 SLP218 T10201020 53013,CWBT,2023-04-28T10:00:00Z,50.27,-64.23,-2.0,-2.0,60,1,,,,1021.8,,TRUE,TRUE,,,,,,,,,,,,,,,,1.3,,,,,,,,,,,METAR,12.0
CWBS 281000Z AUTO 02007KT 04/01 RMK AO1 T00350009,CWBS,2023-04-28T10:00:00Z,46.18,-72.92,3.5,0.9,20,7,,,,,,TRUE,TRUE,,,,,,,,,,,,,,,,,,,,,,,,,,,METAR,3.0
CWBO 281000Z AUTO 19005KT 01/M02 RMK AO1 SLP204 T00141022 56009,CWBO,2023-04-28T10:00:00Z,50.53,-111.83,1.4,-2.2,190,5,,,,1020.4,,TRUE,TRUE,,,,,,,,,,,,,,,,-0.9,,,,,,,,,,,METAR,752.0
CWBK 281000Z AUTO 34005KT 01/M00 RMK AO1 SLP229 T00061002 53016,CWBK,2023-04-28T10:00:00Z,45.77,-62.67,0.6,-0.2,340,5,,,,1022.9,,TRUE,TRUE,,,,,,,,,,,,,,,,1.6,,,,,,,,,,,METAR,2.0
CWBA 281000Z AUTO 16004KT 04/02 RMK AO1 T00350016,CWBA,2023-04-28T10:00:00Z,46.72,-79.1,3.5,1.6,160,4,,,,,,TRUE,TRUE,,,,,,,,,,,,,,,,,,,,,,,,,,,METAR,181.0
CWAV 281000Z AUTO 23002KT M00/M02 RMK AO1 SLP208 T10041015 58001,CWAV,2023-04-28T10:00:00Z,51.77,-114.67,-0.4,-1.5,230,2,,,,1020.8,,TRUE,TRUE,,,,,,,,,,,,,,,,-0.1,,,,,,,,,,,METAR,1115.0
CWAR 281000Z AUTO 33013KT 01/M01 RMK AO1 PK WND 34019/0916 SLP151 T00131011 53002,CWAR,2023-04-28T10:00:00Z,47.28,-54.0,1.3,-1.1,330,13,,,,1015.1,,TRUE,TRUE,,,,,,,,,,,,,,,,0.2,,,,,,,,,,,METAR,6.0
CWAQ 281000Z AUTO 31004KT 03/01 RMK AO1 SLP216 T00320012 50002,CWAQ,2023-04-28T10:00:00Z,49.05,-105.48,3.2,1.2,310,4,,,,1021.6,,TRUE,TRUE,,,,,,,,,,,,,,,,0.2,,,,,,,,,,,METAR,761.0
CWAJ 281000Z AUTO 05016KT RMK AO1 PK WND 05022/0918 56013,CWAJ,2023-04-28T10:00:00Z,42.25,-81.9,,,50,16,,,,,,TRUE,TRUE,,,,,,,,,,,,,,,,-1.3,,,,,,,,,,,METAR,177.0
CWAF 281000Z AUTO 19004KT 05/04 RMK AO1 T00530040,CWAF,2023-04-28T10:00:00Z,48.07,-69.55,5.3,4.0,190,4,,,,,,TRUE,TRUE,,,,,,,,,,,,,,,,,,,,,,,,,,,METAR,6.0
CTRA 281000Z AUTO 03003KT M00/M01 RMK AO1 SLP168 T10041008 51007,CTRA,2023-04-28T10:00:00Z,49.67,-93.73,-0.4,-0.8,30,3,,,,1016.8,,TRUE,TRUE,,,,,,,,,,,,,,,,0.7,,,,,,,,,,,METAR,432.0
CTNK 281000Z AUTO 00000KT M01/M02 RMK AO1 SLP201 T10081019 58005,CTNK,2023-04-28T10:00:00Z,45.53,-78.27,-0.8,-1.9,0,0,,,,1020.1,,TRUE,TRUE,,,,,,,,,,,,,,,,-0.5,,,,,,,,,,,METAR,405.0
CTCK 281000Z AUTO 09005KT 02/M01 RMK AO1 SLP217 T00171010 57002,CTCK,2023-04-28T10:00:00Z,45.25,-74.97,1.7,-1.0,90,5,,,,1021.7,,TRUE,TRUE,,,,,,,,,,,,,,,,-0.2,,,,,,,,,,,METAR,84.0
CPSV 281000Z AUTO 23008KT 01/M02 RMK AO1 T00091021,CPSV,2023-04-28T10:00:00Z,49.92,-110.92,0.9,-2.1,230,8,,,,,,TRUE,TRUE,,,,,,,,,,,,,,,,,,,,,,,,,,,METAR,766.0
CPST 281000Z AUTO 23008KT 05/M02 RMK AO1 T00481021,CPST,2023-04-28T10:00:00Z,51.03,-113.28,4.8,-2.1,230,8,,,,,,TRUE,TRUE,,,,,,,,,,,,,,,,,,,,,,,,,,,METAR,1005.0
CPRY 281000Z AUTO 24006KT 03/M04 RMK AO1 T00291035,CPRY,2023-04-28T10:00:00Z,49.48,-112.68,2.9,-3.5,240,6,,,,,,TRUE,TRUE,,,,,,,,,,,,,,,,,,,,,,,,,,,METAR,947.0
CPRO 281000Z AUTO 22005KT 01/M01 RMK AO1 T00121010,CPRO,2023-04-28T10:00:00Z,50.83,-112.05,1.2,-1.0,220,5,,,,,,TRUE,TRUE,,,,,,,,,,,,,,,,,,,,,,,,,,,METAR,733.0
CPIN 281000Z AUTO 11010KT ////SM ////// ///// A////,CPIN,2023-04-28T10:00:00Z,,,,,110,10,,,,,,TRUE,,,,,,,,,,,,,,,,,,,,,,,,,,,,METAR,
CPFI 281000Z AUTO 21007KT 01/M03 RMK AO1 T00141026,CPFI,2023-04-28T10:00:00Z,49.8,-112.03,1.4,-2.6,210,7,,,,,,TRUE,TRUE,,,,,,,,,,,,,,,,,,,,,,,,,,,METAR,804.0
CPEH 281000Z AUTO 00000KT 02/M03 RMK AO1 T00231029,CPEH,2023-04-28T10:00:00Z,50.18,-112.43,2.3,-2.9,0,0,,,,,,TRUE,TRUE,,,,,,,,,,,,,,,,,,,,,,,,,,,METAR,814.0
CPBT 281000Z AUTO 24005KT 02/M03 RMK AO1 T00161034,CPBT,2023-04-28T10:00:00Z,49.53,-113.05,1.6,-3.4,240,5,,,,,,TRUE,TRUE,,,,,,,,,,,,,,,,,,,,,,,,,,,METAR,998.0
CMGB 281000Z AUTO 01002KT 04/M00 RMK AO1 SLP232 T00351002 58002,CMGB,2023-04-28T10:00:00Z,45.37,-72.77,3.5,-0.2,10,2,,,,1023.2,,TRUE,TRUE,,,,,,,,,,,,,,,,-0.2,,,,,,,,,,,METAR,87.0
CMFM 281000Z AUTO 00000KT M06/M06 RMK AO1 SOG 19 1006 SLP251 T10551063,CMFM,2023-04-28T10:00:00Z,47.32,-71.15,-5.5,-6.3,0,0,,,,1025.1,,TRUE,TRUE,,,,,,,,,,,,,,,,,,,,,,,,,,,METAR,663.0
CERM 281000Z AUTO 33002KT M03/M04 RMK AO1 SLP241 T10301037 53011,CERM,2023-04-28T10:00:00Z,47.42,-68.32,-3.0,-3.7,330,2,,,,1024.1,,TRUE,TRUE,,,,,,,,,,,,,,,,1.1,,,,,,,,,,,METAR,151.0
CBBC 281000Z AUTO VRB02KT 9SM CLR 01/00 A3021 RMK SLP233,CBBC,2023-04-28T10:00:00Z,52.18,-128.15,1.0,0.0,0,2,,9.0,30.209646,1023.3,,TRUE,,,,,,,,CLR,,,,,,,,VFR,,,,,,,,,,,,METAR,36.0
CAHR 281000Z AUTO 34003KT 01/01 RMK AO1 SLP223 T00060005 53010,CAHR,2023-04-28T10:00:00Z,46.35,-63.17,0.6,0.5,340,3,,,,1022.3,,TRUE,TRUE,,,,,,,,,,,,,,,,1.0,,,,,,,,,,,METAR,52.0
BIVM 281000Z 09007KT 9999 BKN021 03/00 Q1024,BIVM,2023-04-28T10:00:00Z,63.42,-20.28,3.0,0.0,90,7,,6.21,30.236221,,,,,,,,,,,BKN,2100,,,,,,,MVFR,,,,,,,,,,,,METAR,93.0
BIRK 281000Z 09010KT 9999 OVC031 02/M05 Q1025,BIRK,2023-04-28T10:00:00Z,64.13,-21.93,2.0,-5.0,90,10,,6.21,30.265747,,,,,,,,,,,OVC,3100,,,,,,,VFR,,,,,,,,,,,,METAR,12.0
BIIS 281000Z 02014KT 9999 SCT035 M01/M07 Q1029,BIIS,2023-04-28T10:00:00Z,66.05,-23.13,-1.0,-7.0,20,14,,6.21,30.383858,,,,,,,,,,,SCT,3500,,,,,,,VFR,,,,,,,,,,,,METAR,3.0
BIGR 281000Z 35011KT 9999 BKN021 M02/M07 Q1028,BIGR,2023-04-28T10:00:00Z,66.53,-18.02,-2.0,-7.0,350,11,,6.21,30.35433,,,,,,,,,,,BKN,2100,,,,,,,MVFR,,,,,,,,,,,,METAR,35.0
BIGJ 281000Z 03013KT 9999 OVC022 M00/M07 Q1029,BIGJ,2023-04-28T10:00:00Z,66.0,-21.33,0.0,-7.0,30,13,,6.21,30.383858,,,,,,,,,,,OVC,2200,,,,,,,MVFR,,,,,,,,,,,,METAR,32.0
BIEG 281000Z 02005KT 340V080 9999 BKN035 BKN045 00/M07 Q1025,BIEG,2023-04-28T10:00:00Z,65.27,-14.4,0.0,-7.0,20,5,,6.21,30.265747,,,,,,,,,,,BKN,3500,BKN,4500,,,,,VFR,,,,,,,,,,,,METAR,20.0
BIBD 281000Z 05009KT 9999 FEW025 01/M08 Q1028,BIBD,2023-04-28T10:00:00Z,65.63,-23.55,1.0,-8.0,50,9,,6.21,30.35433,,,,,,,,,,,FEW,2500,,,,,,,VFR,,,,,,,,,,,,METAR,10.0
BIAR 281000Z 01006KT 9999 BKN040 M01/M09 Q1028,BIAR,2023-04-28T10:00:00Z,65.67,-18.07,-1.0,-9.0,10,6,,6.21,30.35433,,,,,,,,,,,BKN,4000,,,,,,,VFR,,,,,,,,,,,,METAR,1.0
AYPY 281000Z VRB04KT 9999 FEW020 BKN040 28/25 Q1008,AYPY,2023-04-28T10:00:00Z,-9.43,147.22,28.0,25.0,0,4,,6.21,29.763779,,,,,,,,,,,FEW,2000,BKN,4000,,,,,VFR,,,,,,,,,,,,METAR,44.0
"AGGH 281000Z 18004KT 9999 FEW017 FEW018CB 26/25 Q1009 RMK CB TO NE,S",AGGH,2023-04-28T10:00:00Z,-9.42,160.05,26.0,25.0,180,4,,6.21,29.793306,,,,,,,,,,,FEW,1700,FEW,1800,,,,,VFR,,,,,,,,,,,,METAR,6.0
MUCF 280959Z AUTO 09003KT 22/21 Q1012,MUCF,2023-04-28T09:59:00Z,22.15,-80.4,22.0,21.0,90,3,,,29.88189,,,TRUE,,,,,,,,,,,,,,,,,,,,,,,,,,,,METAR,35.0
MTPP 280959Z AUTO 12005KT 9000 ////// 24/21 Q1012 A2990 NOSIG,MTPP,2023-04-28T09:59:00Z,18.57,-72.3,24.0,21.0,120,5,,5.59,29.88189,,,TRUE,,,TRUE,,,,,,,,,,,,,,,,,,,,,,,,,METAR,36.0
KSGF 280959Z 00000KT 6SM BR OVC015 10/09 A2978 RMK AO2 T01000094,KSGF,2023-04-28T09:59:00Z,37.23,-93.38,10.0,9.4,0,0,,6.0,29.778543,,,,TRUE,,,,,,BR,OVC,1500,,,,,,,MVFR,,,,,,,,,,,,SPECI,387.0
KORE 280959Z AUTO 00000KT 4SM BR OVC002 03/02 A3024 RMK AO2 CIG 002V005 T00280022,KORE,2023-04-28T09:59:00Z,42.57,-72.28,2.8,2.2,0,0,,4.0,30.239174,,,TRUE,TRUE,,,,,,BR,OVC,200,,,,,,,LIFR,,,,,,,,,,,,SPECI,165.0
KNOZ 280959Z AUTO 10004KT 10SM CLR 22/M06 A2978 RMK AO2 SLP032 T02171056,KNOZ,2023-04-28T09:59:00Z,32.53,-114.5,21.7,-5.6,100,4,,10.0,29.778543,1003.2,,TRUE,TRUE,,,,,,,CLR,,,,,,,,VFR,,,,,,,,,,,,METAR,78.0
KNGU 280959Z 09014G23KT 5SM -RA BR SCT032 BKN046 OVC080 16/15 A2992 RMK AO2 SLP131 P0008 T01560150,KNGU,2023-04-28T09:59:00Z,36.93,-76.27,15.6,15.0,90,14,23,5.0,29.920275,1013.1,,,TRUE,,,,,,-RA BR,SCT,3200,BKN,4600,OVC,8000,,,MVFR,,,,,,0.08,,,,,,METAR,3.0
KESN 280959Z 07009KT 10SM SCT065 12/11 A3006,KESN,2023-04-28T09:59:00Z,38.8,-76.07,12.0,11.0,70,9,,10.0,30.059055,,,,,,,,,,,SCT,6500,,,,,,,VFR,,,,,,,,,,,,METAR,14.0
KBLF 280959Z AUTO 13005KT 8SM -RA BKN010 OVC042 11/10 A2980 RMK AO2 P0000 T01060100,KBLF,2023-04-28T09:59:00Z,37.3,-81.2,10.6,10.0,130,5,,8.0,29.799213,,,TRUE,TRUE,,,,,,-RA,BKN,1000,OVC,4200,,,,,MVFR,,,,,,0.005,,,,,,SPECI,871.0
KBED 280959Z AUTO 00000KT M1/4SM R11/0400V0700FT FG VV002 03/02 A3022 RMK AO2 T00280022,KBED,2023-04-28T09:59:00Z,42.47,-71.3,2.8,2.2,0,0,,0.25,30.221457,,,TRUE,TRUE,,,,,,FG,OVX,0,,,,,,,LIFR,,,,,,,,,,,200,SPECI,39.0
K04W 280959Z AUTO 03006KT 10SM OVC006 07/07 A2985 RMK AO2,K04W,2023-04-28T09:59:00Z,46.02,-92.9,7.0,7.0,30,6,,10.0,29.84941,,,TRUE,TRUE,,,,,,,OVC,600,,,,,,,IFR,,,,,,,,,,,,SPECI,310.0
KSAW 280958Z AUTO 14003KT 3SM BR BKN003 OVC008 04/04 A2994 RMK AO2 T00430035,KSAW,2023-04-28T09:58:00Z,46.35,-87.4,4.3,3.5,140,3,,3.0,29.940945,,,TRUE,TRUE,,,,,,BR,BKN,300,OVC,800,,,,,LIFR,,,,,,,,,,,,METAR,359.0
KPNC 280958Z AUTO 27003KT 3SM BR FEW002 SCT110 08/08 A2982 RMK AO2 T00830078,KPNC,2023-04-28T09:58:00Z,36.73,-97.1,8.3,7.8,270,3,,3.0,29.819881,,,TRUE,TRUE,,,,,,BR,FEW,200,SCT,11000,,,,,MVFR,,,,,,,,,,,,SPECI,304.0
KMRH 280958Z AUTO 14006KT 10SM -RA FEW060 FEW080 OVC110 18/18 A2983 RMK AO2 SLP101 P0019 T01830178,KMRH,2023-04-28T09:58:00Z,34.73,-76.65,18.3,17.8,140,6,,10.0,29.828741,1010.1,,TRUE,TRUE,,,,,,-RA,FEW,6000,FEW,8000,OVC,11000,,,VFR,,,,,,0.19,,,,,,SPECI,2.0
KMEI 280958Z AUTO 27004KT 10SM FEW060 16/15 A2975 RMK AO2 SLP072 T01610150,KMEI,2023-04-28T09:58:00Z,32.33,-88.75,16.1,15.0,270,4,,10.0,29.749016,1007.2,,TRUE,TRUE,,,,,,,FEW,6000,,,,,,,VFR,,,,,,,,,,,,SPECI,90.0
KFEW 280958Z 33015G25KT 10SM SCT020 00/M03 A3015 RMK SLPNO WND DATA ESTMD ALSTG ESTMD $,KFEW,2023-04-28T09:58:00Z,41.13,-104.87,0.0,-3.0,330,15,25,10.0,30.15059,,,,,TRUE,,,,,,SCT,2000,,,,,,,VFR,,,,,,,,,,,,METAR,1877.0
KBKF 280958Z 36015KT 10SM SCT028 BKN180 02/M01 A3018 RMK AO2A SLP191 T00161013,KBKF,2023-04-28T09:58:00Z,39.72,-104.75,1.6,-1.3,360,15,,10.0,30.180119,1019.1,,,TRUE,,,,,,,SCT,2800,BKN,18000,,,,,VFR,,,,,,,,,,,,SPECI,1703.0
PHNG 280957Z 06007KT 1 1/2SM FEW007 BKN020 OVC032 23/22 A2997 RMK AO2 RAE46 SLP143 P0001 T02280222 402440228 $,PHNG,2023-04-28T09:57:00Z,21.43,-157.77,22.8,22.2,60,7,,1.5,29.970472,1014.3,,,TRUE,TRUE,,,,,,FEW,700,BKN,2000,OVC,3200,,,IFR,,,,24.4,22.8,0.01,,,,,,SPECI,1.0
PASY 280957Z 10013KT 7SM BKN025 01/M02 A2965 RMK AO2A PK WND 10026/32 SHSNB22E50 SLP044 WND DATA ESTMD T00071019 PNO FZRANO $,PASY,2023-04-28T09:57:00Z,52.72,174.12,0.7,-1.9,100,13,,7.0,29.648623,1004.4,,,TRUE,TRUE,,,TRUE,,,BKN,2500,,,,,,,MVFR,,,,,,,,,,,,METAR,6.0
PAJC 280957Z AUTO 05003KT 10SM SCT049 SCT060 02/M01 A2976 RMK AO2 RAB26E41 SLP078 T00171011 FZRANO PNO $,PAJC,2023-04-28T09:57:00Z,56.32,-158.37,1.7,-1.1,50,3,,10.0,29.760826,1007.8,,TRUE,TRUE,TRUE,,,TRUE,,,SCT,4900,SCT,6000,,,,,VFR,,,,,,,,,,,,METAR,10.0
KNYL 280957Z AUTO 17005KT 10SM CLR 20/02 A2976 RMK AO2 SLP074 T02000022,KNYL,2023-04-28T09:57:00Z,32.65,-114.62,20.0,2.2,170,5,,10.0,29.760826,1007.4,,TRUE,TRUE,,,,,,,CLR,,,,,,,,VFR,,,,,,,,,,,,METAR,58.0
KNJW 280957Z AUTO 24005KT 10SM BKN060 16/14 A2978 RMK AO2 SLP999 T01560144,KNJW,2023-04-28T09:57:00Z,32.78,-88.82,15.6,14.4,240,5,,10.0,29.778543,999.9,,TRUE,TRUE,,,,,,,BKN,6000,,,,,,,VFR,,,,,,,,,,,,METAR,165.0
KNJM 280957Z AUTO 00000KT 6SM HZ FEW016 OVC110 21/18 A2982 RMK AO2 RAE46 SLP102 P0022 T02110178 $,KNJM,2023-04-28T09:57:00Z,34.68,-77.02,21.1,17.8,0,0,,6.0,29.819881,1010.2,,TRUE,TRUE,TRUE,,,,,HZ,FEW,1600,OVC,11000,,,,,VFR,,,,,,0.22,,,,,,METAR,5.0
KMNM 280957Z AUTO 02003KT 10SM FEW120 04/02 A2991 RMK AO2 SLP151 T00440022 PNO $,KMNM,2023-04-28T09:57:00Z,45.12,-87.63,4.4,2.2,20,3,,10.0,29.911417,1015.1,,TRUE,TRUE,TRUE,,,,,,FEW,12000,,,,,,,VFR,,,,,,,,,,,,METAR,188.0
KFLG 280957Z AUTO 00000KT 10SM CLR 12/M06 A3010 RMK AO2 SLP097 T01221061,KFLG,2023-04-28T09:57:00Z,35.13,-111.67,12.2,-6.1,0,0,,10.0,30.100393,1009.7,,TRUE,TRUE,,,,,,,CLR,,,,,,,,VFR,,,,,,,,,,,,SPECI,2134.0
KAQV 280957Z AUTO 00000KT 7SM CLR 11/08 A2978 RMK AO2 SLP083 T01060083,KAQV,2023-04-28T09:57:00Z,31.4,-93.3,10.6,8.3,0,0,,7.0,29.778543,1008.3,,TRUE,TRUE,,,,,,,CLR,,,,,,,,VFR,,,,,,,,,,,,METAR,123.0
TJSJ 280956Z 00000KT 10SM SCT025 SCT033 24/22 A2994 RMK AO2 RAB29E56 SLP137 P0000 T02440222,TJSJ,2023-04-28T09:56:00Z,18.43,-66.02,24.4,22.2,0,0,,10.0,29.940945,1013.7,,,TRUE,,,,,,,SCT,2500,SCT,3300,,,,,VFR,,,,,,0.005,,,,,,METAR,3.0
RJOI 280956Z 23008KT 9999 FEW030 FEW060 20/10 A3008 RMK AO2 SLP185 T02000100,RJOI,2023-04-28T09:56:00Z,34.13,132.23,20.0,10.0,230,8,,6.21,30.079725,1018.5,,,TRUE,,,,,,,FEW,3000,FEW,6000,,,,,VFR,,,,,,,,,,,,METAR,2.0
PTYA 280956Z 09008KT 12SM FEW016 BKN300 28/26 A2977 RMK SLP083 T02790261,PTYA,2023-04-28T09:56:00Z,9.48,138.08,27.9,26.1,90,8,,12.0,29.769686,1008.3,,,,,,,,,,FEW,1600,BKN,30000,,,,,VFR,,,,,,,,,,,,METAR,4.0
PPIZ 280956Z AUTO 03012KT 10SM CLR M22/M24 A3005 RMK AO2 SLP180 T12171239 FZRANO,PPIZ,2023-04-28T09:56:00Z,69.73,-163.0,-21.7,-23.9,30,12,,10.0,30.050198,1018.0,,TRUE,TRUE,,,,TRUE,,,CLR,,,,,,,,VFR,,,,,,,,,,,,SPECI,5.0
PMDY 280956Z AUTO 10SM CLR 18/14 A3020 RMK AO2 SLP229 T01830144 TSNO $,PMDY,2023-04-28T09:56:00Z,28.22,-177.37,18.3,14.4,,,,10.0,30.200787,1022.9,,TRUE,TRUE,TRUE,,TRUE,,,,CLR,,,,,,,,VFR,,,,,,,,,,,,METAR,6.0
PHNY 280956Z AUTO 10006KT 10SM SCT008 19/19 A3004 RMK AO2 SLP152 T01940194 402500194,PHNY,2023-04-28T09:56:00Z,20.77,-156.95,19.4,19.4,100,6,,10.0,30.041338,1015.2,,TRUE,TRUE,,,,,,,SCT,800,,,,,,,VFR,,,,25.0,19.4,,,,,,,METAR,395.0
PFYU 280956Z AUTO 00000KT 10SM FEW055 M06/M08 A2983 RMK AO2 SLP114 T10561078 FZRANO,PFYU,2023-04-28T09:56:00Z,66.57,-145.23,-5.6,-7.8,0,0,,10.0,29.828741,1011.4,,TRUE,TRUE,,,,TRUE,,,FEW,5500,,,,,,,VFR,,,,,,,,,,,,METAR,130.0
PFWS 280956Z AUTO 13010KT 10SM FEW100 M02/M03 A2978 RMK AO2 SLP127 T10221028 FZRANO,PFWS,2023-04-28T09:56:00Z,58.7,-157.0,-2.2,-2.8,130,10,,10.0,29.778543,1012.7,,TRUE,TRUE,,,,TRUE,,,FEW,10000,,,,,,,VFR,,,,,,,,,,,,METAR,40.0
PFNO 280956Z AUTO 07015KT 10SM FEW110 M04/M07 A2977 RMK AO2 SLP164 T10391072 FZRANO $,PFNO,2023-04-28T09:56:00Z,66.82,-161.02,-3.9,-7.2,70,15,,10.0,29.769686,1016.4,,TRUE,TRUE,TRUE,,,TRUE,,,FEW,11000,,,,,,,VFR,,,,,,,,,,,,METAR,14.0
PFEL 280956Z AUTO 34007KT 10SM BKN017 BKN043 OVC090 M02/M08 A2964 RMK AO2 SLP041 T10221078 FZRANO,PFEL,2023-04-28T09:56:00Z,64.62,-162.27,-2.2,-7.8,340,7,,10.0,29.639763,1004.1,,TRUE,TRUE,,,,TRUE,,,BKN,1700,BKN,4300,OVC,9000,,,MVFR,,,,,,,,,,,,METAR,50.0
PFCL 280956Z AUTO 16019KT 10SM FEW013 BKN036 OVC055 01/01 A2971 RMK AO2 SNE45 SLP055 P0000 T00110006 FZRANO TSNO,PFCL,2023-04-28T09:56:00Z,58.83,-158.53,1.1,0.6,160,19,,10.0,29.71063,1005.5,,TRUE,TRUE,,,TRUE,TRUE,,,FEW,1300,BKN,3600,OVC,5500,,,VFR,,,,,,0.005,,,,,,METAR,23.0
PAZK 280956Z AUTO 31004KT 10SM CLR M04/M09 A2975 RMK AO2 SLP128 T10441089 FZRANO,PAZK,2023-04-28T09:56:00Z,61.93,-147.17,-4.4,-8.9,310,4,,10.0,29.749016,1012.8,,TRUE,TRUE,,,,TRUE,,,CLR,,,,,,,,VFR,,,,,,,,,,,,METAR,1002.0
PAWN 280956Z AUTO 01009KT 10SM FEW055 BKN070 M07/M12 RMK AO2 SLPNO T10721122 FZRANO $,PAWN,2023-04-28T09:56:00Z,67.57,-162.98,-7.2,-12.2,10,9,,10.0,,,,TRUE,TRUE,TRUE,,,TRUE,,,FEW,5500,BKN,7000,,,,,VFR,,,,,,,,,,,,METAR,26.0
PAWM 280956Z AUTO 36012KT 9SM OVC060 M06/M09 A2963 RMK AO2 SLP040 T10611094 FZRANO,PAWM,2023-04-28T09:56:00Z,64.68,-163.42,-6.1,-9.4,360,12,,9.0,29.630905,1004.0,,TRUE,TRUE,,,,TRUE,,,OVC,6000,,,,,,,VFR,,,,,,,,,,,,METAR,80.0
PAVC 280956Z AUTO 00000KT 6SM -RA BR FEW017 BKN023 OVC034 02/M01 A2970 RMK AO2 RAB05E18B36 SLP058 P0000 T00171006 FZRANO,PAVC,2023-04-28T09:56:00Z,55.12,-162.27,1.7,-0.6,0,0,,6.0,29.698818,1005.8,,TRUE,TRUE,,,,TRUE,,-RA BR,FEW,1700,BKN,2300,OVC,3400,,,MVFR,,,,,,0.005,,,,,,METAR,48.0
PATQ 280956Z AUTO 06008KT 9SM -SN OVC021 M16/M18 A3006 RMK AO2 SNB22 SLP184 P0000 T11611178 FZRANO TSNO,PATQ,2023-04-28T09:56:00Z,70.47,-157.43,-16.1,-17.8,60,8,,9.0,30.059055,1018.4,,TRUE,TRUE,,,TRUE,TRUE,,-SN,OVC,2100,,,,,,,MVFR,,,,,,0.005,,,,,,METAR,28.0
PATG 280956Z AUTO 13014KT 10SM UP SCT009 BKN024 OVC028 01/00 A2969 RMK AO2 RAE28UPB28SNB02E14 SLP054 P0000 T00060000 FZRANO,PATG,2023-04-28T09:56:00Z,59.05,-160.38,0.6,0.0,130,14,,10.0,29.68996,1005.4,,TRUE,TRUE,,,,TRUE,,UP,SCT,900,BKN,2400,OVC,2800,,,MVFR,,,,,,0.005,,,,,,METAR,1.0
PATE 280956Z AUTO 05016KT 9SM -SN FEW017 OVC040 M09/M11 A2972 RMK AO2 SLP073 P0000 T10891106 FZRANO,PATE,2023-04-28T09:56:00Z,65.23,-166.33,-8.9,-10.6,50,16,,9.0,29.719488,1007.3,,TRUE,TRUE,,,,TRUE,,-SN,FEW,1700,OVC,4000,,,,,VFR,,,,,,0.005,,,,,,METAR,93.0
PASX 280956Z AUTO 09004KT 10SM CLR 01/M01 A2988 RMK AO2 SLP125 T00061011 FZRANO,PASX,2023-04-28T09:56:00Z,60.48,-151.05,0.6,-1.1,90,4,,10.0,29.878937,1012.5,,TRUE,TRUE,,,,TRUE,,,CLR,,,,,,,,VFR,,,,,,,,,,,,METAR,28.0
PASD 280956Z AUTO 19008KT 10SM SCT100 02/M02 A2974 RMK AO2 SLP072 T00221022 FZRANO PNO $,PASD,2023-04-28T09:56:00Z,55.33,-160.52,2.2,-2.2,190,8,,10.0,29.740158,1007.2,,TRUE,TRUE,TRUE,,,TRUE,,,SCT,10000,,,,,,,VFR,,,,,,,,,,,,METAR,6.0
PARY 280956Z AUTO 16003KT 10SM FEW110 01/M04 A2973 RMK AO2 SLP078 T00061039 FZRANO,PARY,2023-04-28T09:56:00Z,64.73,-155.47,0.6,-3.9,160,3,,10.0,29.731298,1007.8,,TRUE,TRUE,,,,TRUE,,,FEW,11000,,,,,,,VFR,,,,,,,,,,,,METAR,185.0
PAPO 280956Z AUTO 03020KT 10SM CLR M13/M16 A2992 RMK AO2 PK WND 03026/0904 SNE42 SLP132 P0000 T11331161 FZRANO,PAPO,2023-04-28T09:56:00Z,68.35,-166.8,-13.3,-16.1,30,20,,10.0,29.920275,1013.2,,TRUE,TRUE,,,,TRUE,,,CLR,,,,,,,,VFR,,,,,,0.005,,,,,,METAR,4.0
PAPN 280956Z AUTO 16011KT 9SM BKN075 OVC090 02/M01 A2974 RMK AO2 SLP074 T00221011 FZRANO,PAPN,2023-04-28T09:56:00Z,57.58,-157.57,2.2,-1.1,160,11,,9.0,29.740158,1007.4,,TRUE,TRUE,,,,TRUE,,,BKN,7500,OVC,9000,,,,,VFR,,,,,,,,,,,,METAR,19.0
PAPH 280956Z AUTO 22004KT 10SM BKN036 02/M01 A2974 RMK AO2 SLP071 T00171006 FZRANO,PAPH,2023-04-28T09:56:00Z,56.95,-158.62,1.7,-0.6,220,4,,10.0,29.740158,1007.1,,TRUE,TRUE,,,,TRUE,,,BKN,3600,,,,,,,VFR,,,,,,,,,,,,METAR,29.0
PAPG 280956Z AUTO 25003KT 10SM OVC020 04/04 A3027 RMK AO2 RAE22 SLP255 P0000 T00390039,PAPG,2023-04-28T09:56:00Z,56.82,-132.93,3.9,3.9,250,3,,10.0,30.268702,1025.5,,TRUE,TRUE,,,,,,,OVC,2000,,,,,,,MVFR,,,,,,0.005,,,,,,METAR,24.0
PAOU 280956Z AUTO 14007KT 10SM SCT095 01/M01 A2970 RMK AO2 UPB02E17 SLP056 T00061011 FZRANO PNO $,PAOU,2023-04-28T09:56:00Z,56.0,-161.17,0.6,-1.1,140,7,,10.0,29.698818,1005.6,,TRUE,TRUE,TRUE,,,TRUE,,,SCT,9500,,,,,,,VFR,,,,,,,,,,,,METAR,3.0
PAOO 280956Z AUTO BKN006 OVC012 M02/M03 A2955 RMK AO2 CIG 004V011 SLP013 T10221028 PWINO FZRANO TSNO $,PAOO,2023-04-28T09:56:00Z,60.53,-165.08,-2.2,-2.8,,,,,29.551182,1001.3,,TRUE,TRUE,TRUE,,TRUE,TRUE,TRUE,,BKN,600,OVC,1200,,,,,,,,,,,,,,,,,METAR,15.0
PAOH 280956Z AUTO 00000KT 10SM BKN038 OVC050 03/03 A3022 RMK AO2 RAE32 SLP233 P0000 T00280028,PAOH,2023-04-28T09:56:00Z,58.1,-135.45,2.8,2.8,0,0,,10.0,30.221457,1023.3,,TRUE,TRUE,,,,,,,BKN,3800,OVC,5000,,,,,VFR,,,,,,0.005,,,,,,METAR,0.0
PANW 280956Z AUTO 15006KT 10SM FEW040 OVC060 M02/M02 A2977 RMK AO2 SLP088 T10171017 FZRANO,PANW,2023-04-28T09:56:00Z,59.45,-157.32,-1.7,-1.7,150,6,,10.0,29.769686,1008.8,,TRUE,TRUE,,,,TRUE,,,FEW,4000,OVC,6000,,,,,VFR,,,,,,,,,,,,METAR,100.0
PANA 280956Z AUTO 15007KT 10SM -SN OVC010 M01/M02 A2962 RMK AO2 UPB21E25B41E55SNE21B55 CIG 007V012 SLP028 P0000 T10111017 FZRANO TSNO $,PANA,2023-04-28T09:56:00Z,60.68,-161.98,-1.1,-1.7,150,7,,10.0,29.619095,1002.8,,TRUE,TRUE,TRUE,,TRUE,TRUE,,-SN,OVC,1000,,,,,,,MVFR,,,,,,0.005,,,,,,METAR,7.0
PAMY 280956Z AUTO 24006KT 10SM UP BKN004 M04/M04 A2900 RMK AO2 UPB39SNE39 PRESFR SLP821 P0000 T10441044 FZRANO,PAMY,2023-04-28T09:56:00Z,60.37,-166.27,-4.4,-4.4,240,6,,10.0,28.999016,982.1,,TRUE,TRUE,,,,TRUE,,UP,BKN,400,,,,,,,LIFR,,,,,,0.005,,,,,,METAR,14.0
PAMM 280956Z AUTO 02011KT 10SM -RA OVC046 06/03 A3025 RMK AO2 RAB12 SLP339 P0000 T00610028 $,PAMM,2023-04-28T09:56:00Z,55.13,-131.58,6.1,2.8,20,11,,10.0,30.250984,1033.9,,TRUE,TRUE,TRUE,,,,,-RA,OVC,4600,,,,,,,VFR,,,,,,0.005,,,,,,METAR,0.0
PAMH 280956Z AUTO 00000KT BKN075 BKN090 02/M08 A2975 RMK AO2 SLP076 T00171078 PWINO FZRANO $,PAMH,2023-04-28T09:56:00Z,63.9,-152.28,1.7,-7.8,0,0,,,29.749016,1007.6,,TRUE,TRUE,TRUE,,,TRUE,TRUE,,BKN,7500,BKN,9000,,,,,,,,,,,,,,,,,METAR,200.0
PALG 280956Z AUTO 09005KT 10SM BKN045 OVC050 00/M01 A2964 RMK AO2 SLP039 T00001011 FZRANO,PALG,2023-04-28T09:56:00Z,61.53,-160.33,0.0,-1.1,90,5,,10.0,29.639763,1003.9,,TRUE,TRUE,,,,TRUE,,,BKN,4500,OVC,5000,,,,,VFR,,,,,,,,,,,,METAR,13.0
PAKP 280956Z AUTO 02003KT 10SM CLR M23/M26 A2979 RMK AO2 SLP163 T12281261 FZRANO,PAKP,2023-04-28T09:56:00Z,68.13,-151.73,-22.8,-26.1,20,3,,10.0,29.790354,1016.3,,TRUE,TRUE,,,,TRUE,,,CLR,,,,,,,,VFR,,,,,,,,,,,,METAR,649.0
PAKI 280956Z AUTO 9SM -SN OVC009 M02/M03 A2957 RMK AO2 SNB03 CIG 007V011 SLP016 P0000 T10171028 FZRANO $,PAKI,2023-04-28T09:56:00Z,59.93,-164.03,-1.7,-2.8,,,,9.0,29.568897,1001.6,,TRUE,TRUE,TRUE,,,TRUE,,-SN,OVC,900,,,,,,,IFR,,,,,,0.005,,,,,,METAR,4.0
PAJZ 280956Z AUTO 13010KT 9SM SCT110 M03/M03 A2980 RMK AO2 SLP099 T10281033 FZRANO $,PAJZ,2023-04-28T09:56:00Z,59.73,-157.27,-2.8,-3.3,130,10,,9.0,29.799213,1009.9,,TRUE,TRUE,TRUE,,,TRUE,,,SCT,11000,,,,,,,VFR,,,,,,,,,,,,METAR,80.0
PAIN 280956Z AUTO 19003KT 10SM FEW095 01/M06 A2977 RMK AO2 SLP102 T00111061 FZRANO,PAIN,2023-04-28T09:56:00Z,63.73,-148.92,1.1,-6.1,190,3,,10.0,29.769686,1010.2,,TRUE,TRUE,,,,TRUE,,,FEW,9500,,,,,,,VFR,,,,,,,,,,,,METAR,525.0
PAIK 280956Z AUTO 00000KT 10SM OVC055 M03/M07 A2980 RMK AO2 SNE25 SLP094 P0000 T10281067 FZRANO,PAIK,2023-04-28T09:56:00Z,66.98,-160.43,-2.8,-6.7,0,0,,10.0,29.799213,1009.4,,TRUE,TRUE,,,,TRUE,,,OVC,5500,,,,,,,VFR,,,,,,0.005,,,,,,METAR,49.0
PAIG 280956Z AUTO 10004KT 10SM CLR M02/M03 A2980 RMK AO2 SLP099 T10221028 FZRANO $,PAIG,2023-04-28T09:56:00Z,59.32,-155.9,-2.2,-2.8,100,4,,10.0,29.799213,1009.9,,TRUE,TRUE,TRUE,,,TRUE,,,CLR,,,,,,,,VFR,,,,,,,,,,,,METAR,24.0
PAHL 280956Z AUTO 13004KT 10SM FEW049 01/M05 A2974 RMK AO2 SLP077 T00111050 FZRANO,PAHL,2023-04-28T09:56:00Z,65.7,-156.35,1.1,-5.0,130,4,,10.0,29.740158,1007.7,,TRUE,TRUE,,,,TRUE,,,FEW,4900,,,,,,,VFR,,,,,,,,,,,,METAR,49.0
PAHC 280956Z AUTO 36003KT 10SM CLR M01/M01 A2965 RMK AO2 SLP045 T10061011 FZRANO,PAHC,2023-04-28T09:56:00Z,62.18,-159.78,-0.6,-1.1,360,3,,10.0,29.648623,1004.5,,TRUE,TRUE,,,,TRUE,,,CLR,,,,,,,,VFR,,,,,,,,,,,,METAR,21.0
PAGS 280956Z AUTO 11006KT 10SM BKN041 OVC055 06/03 A3022 RMK AO2 SLP234 T00560033,PAGS,2023-04-28T09:56:00Z,58.42,-135.7,5.6,3.3,110,6,,10.0,30.221457,1023.4,,TRUE,TRUE,,,,,,,BKN,4100,OVC,5500,,,,,VFR,,,,,,,,,,,,METAR,9.0
PAGL 280956Z AUTO 29010KT 10SM FEW060 SCT095 M07/M09 A2965 RMK AO2 SLP037 T10721094 FZRANO,PAGL,2023-04-28T09:56:00Z,64.55,-163.0,-7.2,-9.4,290,10,,10.0,29.648623,1003.7,,TRUE,TRUE,,,,TRUE,,,FEW,6000,SCT,9500,,,,,VFR,,,,,,,,,,,,METAR,20.0
PAFM 280956Z AUTO 02013KT 10SM FEW047 OVC060 M05/M09 A2982 RMK AO2 SNB16E46 SLP104 P0000 T10501089 FZRANO,PAFM,2023-04-28T09:56:00Z,67.1,-157.85,-5.0,-8.9,20,13,,10.0,29.819881,1010.4,,TRUE,TRUE,,,,TRUE,,,FEW,4700,OVC,6000,,,,,VFR,,,,,,0.005,,,,,,METAR,79.0
PAFE 280956Z AUTO 10005KT 10SM -RA OVC015 05/04 A3027 RMK AO2 RAB52 SLP261 P0000 T00500039 $,PAFE,2023-04-28T09:56:00Z,56.97,-133.92,5.0,3.9,100,5,,10.0,30.268702,1026.1,,TRUE,TRUE,TRUE,,,,,-RA,OVC,1500,,,,,,,MVFR,,,,,,0.005,,,,,,METAR,1.0
PADU 280956Z AUTO 20006KT 10SM SCT034 BKN090 02/M03 A2963 RMK AO2 SLP038 T00221028 FZRANO,PADU,2023-04-28T09:56:00Z,53.9,-166.53,2.2,-2.8,200,6,,10.0,29.630905,1003.8,,TRUE,TRUE,,,,TRUE,,,SCT,3400,BKN,9000,,,,,VFR,,,,,,,,,,,,METAR,4.0
PADK 280956Z AUTO 00000KT SCT047 OVC055 M01/M03 A2966 RMK AO2 SLP044 T10061033 PWINO FZRANO $,PADK,2023-04-28T09:56:00Z,51.88,-176.65,-0.6,-3.3,0,0,,,29.660433,1004.4,,TRUE,TRUE,TRUE,,,TRUE,TRUE,,SCT,4700,OVC,5500,,,,,,,,,,,,,,,,,METAR,3.0
PABV 280956Z AUTO 10004KT 10SM -RA BKN055 OVC070 04/01 A2987 RMK AO2 RAB47 SLP120 P0000 T00390011,PABV,2023-04-28T09:56:00Z,61.42,-149.52,3.9,1.1,100,4,,10.0,29.870079,1012.0,,TRUE,TRUE,,,,,,-RA,BKN,5500,OVC,7000,,,,,VFR,,,,,,0.005,,,,,,METAR,21.0
PABL 280956Z AUTO 03004KT 10SM SCT055 M11/M13 A2976 RMK AO2 SLP078 T11111128 FZRANO,PABL,2023-04-28T09:56:00Z,65.98,-161.15,-11.1,-12.8,30,4,,10.0,29.760826,1007.8,,TRUE,TRUE,,,,TRUE,,,SCT,5500,,,,,,,VFR,,,,,,,,,,,,METAR,7.0
PAAK 280956Z AUTO 23008KT 10SM SCT027 BKN033 BKN050 01/M03 A2966 RMK AO2 SNE05 SLP045 P0000 T00061028 400391006 FZRANO $,PAAK,2023-04-28T09:56:00Z,52.22,-174.2,0.6,-2.8,230,8,,10.0,29.660433,1004.5,,TRUE,TRUE,TRUE,,,TRUE,,,SCT,2700,BKN,3300,BKN,5000,,,VFR,,,,3.9,-0.6,0.005,,,,,,METAR,11.0
KYKN 280956Z AUTO 30016KT 10SM -RA OVC005 08/08 A2982 RMK AO2 RAB28 SLP109 P0000 T00830083,KYKN,2023-04-28T09:56:00Z,42.92,-97.37,8.3,8.3,300,16,,10.0,29.819881,1010.9,,TRUE,TRUE,,,,,,-RA,OVC,500,,,,,,,IFR,,,,,,0.005,,,,,,METAR,388.0
KY50 280956Z AUTO 00000KT 10SM CLR 03/02 A2986 RMK AO2 SLP112 T00330017 $,KY50,2023-04-28T09:56:00Z,44.03,-89.3,3.3,1.7,0,0,,10.0,29.861221,1011.2,,TRUE,TRUE,TRUE,,,,,,CLR,,,,,,,,VFR,,,,,,,,,,,,METAR,261.0
KWWD 280956Z AUTO 08010KT 10SM CLR 12/10 A3009 RMK AO2 SLP190 T01220100 $,KWWD,2023-04-28T09:56:00Z,39.02,-74.92,12.2,10.0,80,10,,10.0,30.088583,1019.0,,TRUE,TRUE,TRUE,,,,,,CLR,,,,,,,,VFR,,,,,,,,,,,,METAR,4.0
KWVL 280956Z AUTO 00000KT 10SM CLR 02/02 A3021 RMK AO2 SLP260 T00170017 FZRANO,KWVL,2023-04-28T09:56:00Z,44.52,-69.67,1.7,1.7,0,0,,10.0,30.209646,1026.0,,TRUE,TRUE,,,,TRUE,,,CLR,,,,,,,,VFR,,,,,,,,,,,,METAR,87.0
KWMC 280956Z AUTO 06010KT 10SM CLR 12/M03 A3016 RMK AO2 SLP176 T01171028,KWMC,2023-04-28T09:56:00Z,40.9,-117.8,11.7,-2.8,60,10,,10.0,30.159449,1017.6,,TRUE,TRUE,,,,,,,CLR,,,,,,,,VFR,,,,,,,,,,,,METAR,1311.0
KWJF 280956Z AUTO 00000KT 10SM CLR 13/02 A2993 RMK AO2 SLP121 T01280022,KWJF,2023-04-28T09:56:00Z,34.73,-118.22,12.8,2.2,0,0,,10.0,29.929134,1012.1,,TRUE,TRUE,,,,,,,CLR,,,,,,,,VFR,,,,,,,,,,,,SPECI,712.0
KVPZ 280956Z AUTO 07006KT 10SM OVC110 08/02 A2982 RMK AO2 SLP098 T00830017,KVPZ,2023-04-28T09:56:00Z,41.45,-87.0,8.3,1.7,70,6,,10.0,29.819881,1009.8,,TRUE,TRUE,,,,,,,OVC,11000,,,,,,,VFR,,,,,,,,,,,,METAR,235.0
KVIS 280956Z AUTO 13003KT 10SM CLR 16/14 A2988 RMK AO2 SLP122 T01560144,KVIS,2023-04-28T09:56:00Z,36.32,-119.4,15.6,14.4,130,3,,10.0,29.878937,1012.2,,TRUE,TRUE,,,,,,,CLR,,,,,,,,VFR,,,,,,,,,,,,METAR,92.0
KUKI 280956Z AUTO 00000KT 10SM CLR 13/08 A2991 RMK AO2 SLP120 T01280078,KUKI,2023-04-28T09:56:00Z,39.12,-123.2,12.8,7.8,0,0,,10.0,29.911417,1012.0,,TRUE,TRUE,,,,,,,CLR,,,,,,,,VFR,,,,,,,,,,,,METAR,183.0
KUCP 280956Z AUTO 09008KT 10SM BKN037 BKN120 13/09 A2987 RMK AO2 SLP127 T01330094,KUCP,2023-04-28T09:56:00Z,41.03,-80.42,13.3,9.4,90,8,,10.0,29.870079,1012.7,,TRUE,TRUE,,,,,,,BKN,3700,BKN,12000,,,,,VFR,,,,,,,,,,,,METAR,313.0
KTVF 280956Z AUTO 01003KT 10SM CLR 03/03 A2998 RMK AO2 SLP163 T00280028,KTVF,2023-04-28T09:56:00Z,48.07,-96.17,2.8,2.8,10,3,,10.0,29.97933,1016.3,,TRUE,TRUE,,,,,,,CLR,,,,,,,,VFR,,,,,,,,,,,,METAR,339.0
KTPH 280956Z AUTO 01011KT 10SM CLR 11/M03 A3015 RMK AO2 SLP149 T01061033,KTPH,2023-04-28T09:56:00Z,38.05,-117.08,10.6,-3.3,10,11,,10.0,30.15059,1014.9,,TRUE,TRUE,,,,,,,CLR,,,,,,,,VFR,,,,,,,,,,,,METAR,1647.0
KSXT 280956Z AUTO 12007KT 10SM CLR 15/07 A3003 RMK AO2 SLP123 T01500067,KSXT,2023-04-28T09:56:00Z,42.6,-123.37,15.0,6.7,120,7,,10.0,30.029528,1012.3,,TRUE,TRUE,,,,,,,CLR,,,,,,,,VFR,,,,,,,,,,,,METAR,1151.0
KSUE 280956Z AUTO 01003KT 10SM BKN120 04/02 A2990 RMK AO2 SLP128 T00440017,KSUE,2023-04-28T09:56:00Z,44.85,-87.42,4.4,1.7,10,3,,10.0,29.899607,1012.8,,TRUE,TRUE,,,,,,,BKN,12000,,,,,,,VFR,,,,,,,,,,,,METAR,215.0
KSRC 280956Z AUTO 00000KT 10SM OVC013 13/12 A2977 RMK AO2 SLP078 T01280117,KSRC,2023-04-28T09:56:00Z,35.22,-91.73,12.8,11.7,0,0,,10.0,29.769686,1007.8,,TRUE,TRUE,,,,,,,OVC,1300,,,,,,,MVFR,,,,,,,,,,,,METAR,80.0
KSQI 280956Z AUTO 07003KT 10SM CLR 06/01 A2982 RMK AO2 SLP963 T00610006,KSQI,2023-04-28T09:56:00Z,41.75,-89.67,6.1,0.6,70,3,,10.0,29.819881,996.3,,TRUE,TRUE,,,,,,,CLR,,,,,,,,VFR,,,,,,,,,,,,METAR,196.0
KSPD 280956Z AUTO 34024G32KT 06/04 A2999 RMK AO1 PK WND 34032/0920 SLP115 P0005 T00610044,KSPD,2023-04-28T09:56:00Z,37.28,-102.62,6.1,4.4,340,24,32,,29.991142,1011.5,,TRUE,TRUE,,,,,,,,,,,,,,,,,,,,,0.05,,,,,,SPECI,1340.0
KSMP 280956Z AUTO VRB03KT 10SM CLR 05/00 A3019 RMK AO2 SLP214 T00500000,KSMP,2023-04-28T09:56:00Z,47.28,-121.33,5.0,0.0,0,3,,10.0,30.188976,1021.4,,TRUE,TRUE,,,,,,,CLR,,,,,,,,VFR,,,,,,,,,,,,SPECI,1206.0
KSMN 280956Z AUTO 17003KT 10SM CLR 00/M03 A3030 RMK AO2 SLP943 T00001033 FZRANO,KSMN,2023-04-28T09:56:00Z,45.12,-113.87,0.0,-3.3,170,3,,10.0,30.301182,994.3,,TRUE,TRUE,,,,TRUE,,,CLR,,,,,,,,VFR,,,,,,,,,,,,METAR,1228.0
KSLE 280956Z AUTO 00000KT 10SM CLR 14/07 A2996 RMK AO2 SLP143 T01390067,KSLE,2023-04-28T09:56:00Z,44.9,-123.0,13.9,6.7,0,0,,10.0,29.958662,1014.3,,TRUE,TRUE,,,,,,,CLR,,,,,,,,VFR,,,,,,,,,,,,METAR,63.0
KSKX 280956Z AUTO 34005KT 10SM OVC090 07/M02 A2997 RMK AO2 SLP097 T00671017,KSKX,2023-04-28T09:56:00Z,36.45,-105.67,6.7,-1.7,340,5,,10.0,29.970472,1009.7,,TRUE,TRUE,,,,,,,OVC,9000,,,,,,,VFR,,,,,,,,,,,,METAR,2163.0
KSHV 280956Z 30004KT 10SM CLR 12/11 A2978 RMK SLPNO,KSHV,2023-04-28T09:56:00Z,32.45,-93.83,12.0,11.0,300,4,,10.0,29.778543,,,,,,,,,,,CLR,,,,,,,,VFR,,,,,,,,,,,,METAR,70.0
KSGU 280956Z AUTO 22004KT 10SM CLR 16/M01 A2998 RMK AO2 SLP123 T01611006,KSGU,2023-04-28T09:56:00Z,37.03,-113.52,16.1,-0.6,220,4,,10.0,29.97933,1012.3,,TRUE,TRUE,,,,,,,CLR,,,,,,,,VFR,,,,,,,,,,,,METAR,877.0
KSGJ 280956Z AUTO 19003KT 10SM 18/18 A2985 RMK AO2 SLP108 T01830178 $,KSGJ,2023-04-28T09:56:00Z,29.97,-81.33,18.3,17.8,190,3,,10.0,29.84941,1010.8,,TRUE,TRUE,TRUE,,,,,,,,,,,,,,,,,,,,,,,,,,METAR,2.0
KSGH 280956Z AUTO 08010KT 6SM -RA OVC004 10/ A2969 RMK AO2 SLP053 P0004 T0100,KSGH,2023-04-28T09:56:00Z,39.83,-83.83,10.0,,80,10,,6.0,29.68996,1005.3,,TRUE,TRUE,,,,,,-RA,OVC,400,,,,,,,LIFR,,,,,,0.04,,,,,,SPECI,318.0
KSFO 280956Z 29009KT 10SM FEW005 12/10 A2991 RMK AO2 SLP128 T01170100,KSFO,2023-04-28T09:56:00Z,37.62,-122.37,11.7,10.0,290,9,,10.0,29.911417,1012.8,,,TRUE,,,,,,,FEW,500,,,,,,,VFR,,,,,,,,,,,,METAR,2.0
KSFM 280956Z AUTO 00000KT 10SM CLR M02/M02 A3023 RMK AO2 SLP241 T10171022 FZRANO,KSFM,2023-04-28T09:56:00Z,43.38,-70.72,-1.7,-2.2,0,0,,10.0,30.230314,1024.1,,TRUE,TRUE,,,,TRUE,,,CLR,,,,,,,,VFR,,,,,,,,,,,,METAR,70.0
KSDY 280956Z AUTO 29008KT 10SM BKN050 OVC090 06/02 A3011 RMK AO2 SLP209 T00560022,KSDY,2023-04-28T09:56:00Z,47.7,-104.2,5.6,2.2,290,8,,10.0,30.109253,1020.9,,TRUE,TRUE,,,,,,,BKN,5000,OVC,9000,,,,,VFR,,,,,,,,,,,,METAR,600.0
KSDF 280956Z 36003KT 2 1/2SM BR BKN004 BKN008 OVC042 13/12 A2966 RMK AO2 DZE37 SLP043 P0000 T01330122,KSDF,2023-04-28T09:56:00Z,38.18,-85.73,13.3,12.2,360,3,,2.5,29.660433,1004.3,,,TRUE,,,,,,BR,BKN,400,BKN,800,OVC,4200,,,LIFR,,,,,,0.005,,,,,,METAR,146.0
KSBP 280956Z 24004KT 3/4SM BR VV002 10/09 A2992 RMK AO2 SLP132 T01000094,KSBP,2023-04-28T09:56:00Z,35.23,-120.63,10.0,9.4,240,4,,0.75,29.920275,1013.2,,,TRUE,,,,,,BR,OVX,0,,,,,,,LIFR,,,,,,,,,,,200,METAR,52.0
KRUT 280956Z AUTO 15005KT 10SM CLR 00/M01 A3022 RMK AO2 SLP234 T00001006 FZRANO $,KRUT,2023-04-28T09:56:00Z,43.53,-72.95,0.0,-0.6,150,5,,10.0,30.221457,1023.4,,TRUE,TRUE,TRUE,,,TRUE,,,CLR,,,,,,,,VFR,,,,,,,,,,,,METAR,238.0
KRKD 280956Z AUTO 29004KT 10SM CLR 03/03 A3022 RMK AO2 SLP235 T00330028,KRKD,2023-04-28T09:56:00Z,44.07,-69.1,3.3,2.8,290,4,,10.0,30.221457,1023.5,,TRUE,TRUE,,,,,,,CLR,,,,,,,,VFR,,,,,,,,,,,,METAR,15.0
KRDM 280956Z AUTO 00000KT 10SM CLR 05/00 A3015 RMK AO2 SLP200 T00500000,KRDM,2023-04-28T09:56:00Z,44.25,-121.15,5.0,0.0,0,0,,10.0,30.15059,1020.0,,TRUE,TRUE,,,,,,,CLR,,,,,,,,VFR,,,,,,,,,,,,SPECI,930.0
KPWT 280956Z AUTO 05009KT 9SM CLR 13/04 A3009 RMK AO2 SLP191 T01280044,KPWT,2023-04-28T09:56:00Z,47.5,-122.77,12.8,4.4,50,9,,9.0,30.088583,1019.1,,TRUE,TRUE,,,,,,,CLR,,,,,,,,VFR,,,,,,,,,,,,METAR,143.0
KPWG 280956Z AUTO 00000KT 10SM CLR 13/12 A2978 RMK AO2 SLP079 T01280117,KPWG,2023-04-28T09:56:00Z,31.48,-97.32,12.8,11.7,0,0,,10.0,29.778543,1007.9,,TRUE,TRUE,,,,,,,CLR,,,,,,,,VFR,,,,,,,,,,,,METAR,178.0
KPVU 280956Z AUTO 35005KT 10SM CLR 09/M03 A3017 RMK AO2 SLP184 T00891028,KPVU,2023-04-28T09:56:00Z,40.22,-111.72,8.9,-2.8,350,5,,10.0,30.171259,1018.4,,TRUE,TRUE,,,,,,,CLR,,,,,,,,VFR,,,,,,,,,,,,METAR,1370.0
KPVC 280956Z AUTO 27005KT 1/4SM FG OVC003 07/07 A3024 RMK AO2 SLP239 T00670067,KPVC,2023-04-28T09:56:00Z,42.07,-70.22,6.7,6.7,270,5,,0.25,30.239174,1023.9,,TRUE,TRUE,,,,,,FG,OVC,300,,,,,,,LIFR,,,,,,,,,,,,METAR,1.0
KPTV 280956Z AUTO 11005KT 10SM CLR 16/11 A2989 RMK AO2 SLP117 T01610106,KPTV,2023-04-28T09:56:00Z,36.02,-119.07,16.1,10.6,110,5,,10.0,29.890747,1011.7,,TRUE,TRUE,,,,,,,CLR,,,,,,,,VFR,,,,,,,,,,,,METAR,132.0
KPTN 280956Z AUTO 25003KT 10SM FEW037 17/16 A2983 RMK AO2 SLPNO T01720161 $,KPTN,2023-04-28T09:56:00Z,29.72,-91.33,17.2,16.1,250,3,,10.0,29.828741,,,TRUE,TRUE,TRUE,,,,,,FEW,3700,,,,,,,VFR,,,,,,,,,,,,METAR,2.0
KPRX 280956Z AUTO 00000KT 10SM -RA CLR 10/10 A2979 RMK AO2 SLP085 P0000 T01000100,KPRX,2023-04-28T09:56:00Z,33.63,-95.45,10.0,10.0,0,0,,10.0,29.790354,1008.5,,TRUE,TRUE,,,,,,-RA,CLR,,,,,,,,VFR,,,,,,0.005,,,,,,METAR,165.0
KPQI 280956Z AUTO 00000KT 10SM CLR M02/M03 A3022 RMK AO2 SLP265 T10221028,KPQI,2023-04-28T09:56:00Z,46.68,-68.05,-2.2,-2.8,0,0,,10.0,30.221457,1026.5,,TRUE,TRUE,,,,,,,CLR,,,,,,,,VFR,,,,,,,,,,,,METAR,154.0
KPIB 280956Z AUTO 00000KT 10SM FEW043 BKN055 16/16 A2979 RMK AO2 SLP085 T01610161,KPIB,2023-04-28T09:56:00Z,31.47,-89.33,16.1,16.1,0,0,,10.0,29.790354,1008.5,,TRUE,TRUE,,,,,,,FEW,4300,BKN,5500,,,,,VFR,,,,,,,,,,,,METAR,91.0
KP60 280956Z AUTO 00000KT M10/M12 A3032 RMK AO1 SLP297 T11001117,KP60,2023-04-28T09:56:00Z,44.55,-110.42,-10.0,-11.7,0,0,,,30.318897,1029.7,,TRUE,TRUE,,,,,,,,,,,,,,,,,,,,,,,,,,,SPECI,2377.0
KP53 280956Z AUTO 00000KT 04/02 A2995 RMK AO1 SLP148 T00440022,KP53,2023-04-28T09:56:00Z,46.42,-86.65,4.4,2.2,0,0,,,29.949802,1014.8,,TRUE,TRUE,,,,,,,,,,,,,,,,,,,,,,,,,,,SPECI,185.0
KP28 280956Z AUTO 00000KT 10/10 A2984 RMK AO1 SLP100 T01000100 $,KP28,2023-04-28T09:56:00Z,37.28,-98.55,10.0,10.0,0,0,,,29.840551,1010.0,,TRUE,TRUE,TRUE,,,,,,,,,,,,,,,,,,,,,,,,,,METAR,469.0
KOTG 280956Z AUTO 00000KT 3SM -RA BR OVC029 09/09 A2979 RMK AO2 SLP089 T00940094 PNO $,KOTG,2023-04-28T09:56:00Z,43.65,-95.57,9.4,9.4,0,0,,3.0,29.790354,1008.9,,TRUE,TRUE,TRUE,,,,,-RA BR,OVC,2900,,,,,,,MVFR,,,,,,,,,,,,METAR,478.0
KOKK 280956Z AUTO 01009KT 6SM -RA BR FEW045 OVC070 07/07 A2977 RMK AO2 SLP082 T00670067 PNO $,KOKK,2023-04-28T09:56:00Z,40.53,-86.07,6.7,6.7,10,9,,6.0,29.769686,1008.2,,TRUE,TRUE,TRUE,,,,,-RA BR,FEW,4500,OVC,7000,,,,,VFR,,,,,,,,,,,,METAR,251.0
KOFK 280956Z AUTO 33018G25KT 10SM -RA OVC009 09/07 A2983 RMK AO2 PK WND 33028/0931 SLP097 P0003 T00890072,KOFK,2023-04-28T09:56:00Z,41.98,-97.43,8.9,7.2,330,18,25,10.0,29.828741,1009.7,,TRUE,TRUE,,,,,,-RA,OVC,900,,,,,,,IFR,,,,,,0.03,,,,,,METAR,476.0
KOCH 280956Z AUTO 00000KT 10SM CLR 09/09 A2981 RMK AO2 SLP096 T00890089,KOCH,2023-04-28T09:56:00Z,31.57,-94.72,8.9,8.9,0,0,,10.0,29.811024,1009.6,,TRUE,TRUE,,,,,,,CLR,,,,,,,,VFR,,,,,,,,,,,,METAR,105.0
KOAJ 280956Z AUTO 17003KT 10SM FEW010 OVC100 18/18 A2981 RMK AO2 RAE28 SLP097 P0000 T01830178,KOAJ,2023-04-28T09:56:00Z,34.82,-77.62,18.3,17.8,170,3,,10.0,29.811024,1009.7,,TRUE,TRUE,,,,,,,FEW,1000,OVC,10000,,,,,VFR,,,,,,0.005,,,,,,METAR,26.0
KNXP 280956Z AUTO 31003KT 10SM CLR 22/00 A2995 RMK AO2 SLP105 T02170000,KNXP,2023-04-28T09:56:00Z,34.28,-116.13,21.7,0.0,310,3,,10.0,29.949802,1010.5,,TRUE,TRUE,,,,,,,CLR,,,,,,,,VFR,,,,,,,,,,,,METAR,610.0
KNUC 280956Z AUTO 30005KT OVC004 11/ A2995 RMK AO2 SLP139 T0106 $,KNUC,2023-04-28T09:56:00Z,33.02,-118.57,10.6,,300,5,,,29.949802,1013.9,,TRUE,TRUE,TRUE,,,,,,OVC,400,,,,,,,,,,,,,,,,,,,SPECI,52.0
KNTU 280956Z 09013KT 6SM -RA BR FEW031 BKN043 OVC050 16/14 A2991 RMK AO2 RAB0859 SLP130 P0011 T01560139,KNTU,2023-04-28T09:56:00Z,36.82,-76.02,15.6,13.9,90,13,,6.0,29.911417,1013.0,,,TRUE,,,,,,-RA BR,FEW,3100,BKN,4300,OVC,5000,,,VFR,,,,,,0.11,,,,,,METAR,6.0
KNSE 280956Z AUTO 28005KT 10SM BKN005 19/18 A2977 RMK AO2 SLP067 T01890183,KNSE,2023-04-28T09:56:00Z,30.73,-87.02,18.9,18.3,280,5,,10.0,29.769686,1006.7,,TRUE,TRUE,,,,,,,BKN,500,,,,,,,IFR,,,,,,,,,,,,METAR,56.0
KNPA 280956Z AUTO 10SM BKN013 19/18 A2977 RMK AO2 SLP081 T01890178 $,KNPA,2023-04-28T09:56:00Z,30.35,-87.32,18.9,17.8,,,,10.0,29.769686,1008.1,,TRUE,TRUE,TRUE,,,,,,BKN,1300,,,,,,,MVFR,,,,,,,,,,,,SPECI,6.0
KNOG 280956Z AUTO 00000KT 1/2SM FG VV002 18/18 A2979 RMK AO2 SLP068 T01830183 TSNO $,KNOG,2023-04-28T09:56:00Z,27.9,-98.05,18.3,18.3,0,0,,0.5,29.790354,1006.8,,TRUE,TRUE,TRUE,,TRUE,,,FG,OVX,0,,,,,,,LIFR,,,,,,,,,,,200,SPECI,72.0
KNMM 280956Z AUTO 26005KT 10SM FEW065 16/15 A2975 RMK AO2 VIS 1 1/4 SOUTH SLP080 T01610150,KNMM,2023-04-28T09:56:00Z,32.53,-88.53,16.1,15.0,260,5,,10.0,29.749016,1008.0,,TRUE,TRUE,,,,,,,FEW,6500,,,,,,,VFR,,,,,,,,,,,,METAR,94.0
KNLC 280956Z AUTO 09003KT 10SM CLR 16/07 A2987 RMK AO2 SLP113 T01560067,KNLC,2023-04-28T09:56:00Z,36.32,-119.95,15.6,6.7,90,3,,10.0,29.870079,1011.3,,TRUE,TRUE,,,,,,,CLR,,,,,,,,VFR,,,,,,,,,,,,METAR,69.0
KNJK 280956Z AUTO 00000KT 10SM CLR 20/04 A2976 RMK AO2 SLP094 T02000044 $,KNJK,2023-04-28T09:56:00Z,32.82,-115.67,20.0,4.4,0,0,,10.0,29.760826,1009.4,,TRUE,TRUE,TRUE,,,,,,CLR,,,,,,,,VFR,,,,,,,,,,,,METAR,-15.0
KNID 280956Z AUTO 28006KT 10SM CLR 17/M01 A2990 RMK AO2 SLP109 T01671011 $,KNID,2023-04-28T09:56:00Z,35.68,-117.68,16.7,-1.1,280,6,,10.0,29.899607,1010.9,,TRUE,TRUE,TRUE,,,,,,CLR,,,,,,,,VFR,,,,,,,,,,,,METAR,682.0
KNFL 280956Z AUTO 00000KT 10SM CLR 09/M01 A3009 RMK AO2 SLP156 T00891006,KNFL,2023-04-28T09:56:00Z,39.42,-118.7,8.9,-0.6,0,0,,10.0,30.088583,1015.6,,TRUE,TRUE,,,,,,,CLR,,,,,,,,VFR,,,,,,,,,,,,METAR,1199.0
KNDZ 280956Z AUTO VRB03KT 10SM BKN009 19/18 A2977 RMK AO2 CIG 007V011 SLP067 T01890183 $,KNDZ,2023-04-28T09:56:00Z,30.7,-87.02,18.9,18.3,0,3,,10.0,29.769686,1006.7,,TRUE,TRUE,TRUE,,,,,,BKN,900,,,,,,,IFR,,,,,,,,,,,,METAR,51.0
KNCA 280956Z AUTO 19004KT 10SM OVC110 18/17 A2980 RMK AO2 RAE33 SLP093 P0004 T01830167,KNCA,2023-04-28T09:56:00Z,34.72,-77.45,18.3,16.7,190,4,,10.0,29.799213,1009.3,,TRUE,TRUE,,,,,,,OVC,11000,,,,,,,VFR,,,,,,0.04,,,,,,METAR,9.0
KNBC 280956Z 26010KT 10SM OVC012 20/18 A2977 RMK AO2 SLP082 T02000183,KNBC,2023-04-28T09:56:00Z,32.47,-80.72,20.0,18.3,260,10,,10.0,29.769686,1008.2,,,TRUE,,,,,,,OVC,1200,,,,,,,MVFR,,,,,,,,,,,,METAR,9.0
KMYR 280956Z 17010KT 10SM FEW012 BKN020 OVC028 20/20 A2978 RMK AO2 RAE01 SLP085 P0000 T02000200,KMYR,2023-04-28T09:56:00Z,33.68,-78.92,20.0,20.0,170,10,,10.0,29.778543,1008.5,,,TRUE,,,,,,,FEW,1200,BKN,2000,OVC,2800,,,MVFR,,,,,,0.005,,,,,,METAR,7.0
KMWN 280956Z 00000KT 80SM SKC M02/M18 RMK PTCHY VLY FG ALQDS,KMWN,2023-04-28T09:56:00Z,44.27,-71.3,-2.0,-18.0,0,0,,80.0,,,,,,,,,,,,SKC,,,,,,,,VFR,,,,,,,,,,,,METAR,1911.0
KMRF 280956Z AUTO 36004KT 10SM CLR 04/M13 A2993 RMK AO2 SLP087 T00441128,KMRF,2023-04-28T09:56:00Z,30.37,-104.02,4.4,-12.8,360,4,,10.0,29.929134,1008.7,,TRUE,TRUE,,,,,,,CLR,,,,,,,,VFR,,,,,,,,,,,,METAR,1476.0
KMQY 280956Z AUTO 09003KT 10SM FEW003 SCT075 OVC095 14/14 A2969 RMK AO2 LTG DSNT E AND SE TSE02RAE42 SLP059 P0012 T01390139,KMQY,2023-04-28T09:56:00Z,36.02,-86.52,13.9,13.9,90,3,,10.0,29.68996,1005.9,,TRUE,TRUE,,,,,,,FEW,300,SCT,7500,OVC,9500,,,VFR,,,,,,0.12,,,,,,METAR,156.0
KMOB 280956Z AUTO 27005KT 9SM BKN003 OVC007 20/19 A2978 RMK AO2 SLP082 T02000189,KMOB,2023-04-28T09:56:00Z,30.68,-88.25,20.0,18.9,270,5,,9.0,29.778543,1008.2,,TRUE,TRUE,,,,,,,BKN,300,OVC,700,,,,,LIFR,,,,,,,,,,,,METAR,67.0
KMML 280956Z AUTO 34014KT 8SM -RA OVC004 08/08 A2982 RMK AO2 SLP103 P0003 T00780078,KMML,2023-04-28T09:56:00Z,44.45,-95.82,7.8,7.8,340,14,,8.0,29.819881,1010.3,,TRUE,TRUE,,,,,,-RA,OVC,400,,,,,,,LIFR,,,,,,0.03,,,,,,METAR,358.0
KMKT 280956Z AUTO 03005KT 10SM BKN110 10/07 A2979 RMK AO2 SLP089 T01000067,KMKT,2023-04-28T09:56:00Z,44.22,-93.92,10.0,6.7,30,5,,10.0,29.790354,1008.9,,TRUE,TRUE,,,,,,,BKN,11000,,,,,,,VFR,,,,,,,,,,,,METAR,309.0
KMHS 280956Z AUTO 00000KT 10SM CLR 07/00 A3005 RMK AO2 SLP169 T00670000,KMHS,2023-04-28T09:56:00Z,41.32,-122.32,6.7,0.0,0,0,,10.0,30.050198,1016.9,,TRUE,TRUE,,,,,,,CLR,,,,,,,,VFR,,,,,,,,,,,,METAR,1080.0
KMEH 280956Z AUTO 00000KT 10SM CLR M02/M04 A3018 RMK AO2 SLP229 T10221039,KMEH,2023-04-28T09:56:00Z,45.52,-118.42,-2.2,-3.9,0,0,,10.0,30.180119,1022.9,,TRUE,TRUE,,,,,,,CLR,,,,,,,,VFR,,,,,,,,,,,,METAR,1138.0
KMDT 280956Z 10009KT 10SM OVC019 11/06 A3006 RMK AO2 SLP179 T01110061,KMDT,2023-04-28T09:56:00Z,40.2,-76.77,11.1,6.1,100,9,,10.0,30.059055,1017.9,,,TRUE,,,,,,,OVC,1900,,,,,,,MVFR,,,,,,,,,,,,METAR,91.0
KMBL 280956Z AUTO 10005KT 10SM CLR 02/M01 A2990 RMK AO2 SLP130 T00171011 FZRANO,KMBL,2023-04-28T09:56:00Z,44.27,-86.25,1.7,-1.1,100,5,,10.0,29.899607,1013.0,,TRUE,TRUE,,,,TRUE,,,CLR,,,,,,,,VFR,,,,,,,,,,,,METAR,187.0
KM19 280956Z AUTO 32006KT 10SM OVC011 13/12 A2975 RMK AO2 SLP074 T01280117 PNO $,KM19,2023-04-28T09:56:00Z,35.65,-91.17,12.8,11.7,320,6,,10.0,29.749016,1007.4,,TRUE,TRUE,TRUE,,,,,,OVC,1100,,,,,,,MVFR,,,,,,,,,,,,METAR,72.0
KLWS 280956Z AUTO 13003KT 10SM CLR 10/M02 A3018 RMK AO2 SLP217 T01001017,KLWS,2023-04-28T09:56:00Z,46.37,-117.02,10.0,-1.7,130,3,,10.0,30.180119,1021.7,,TRUE,TRUE,,,,,,,CLR,,,,,,,,VFR,,,,,,,,,,,,METAR,435.0
KLRD 280956Z 14008KT 10SM BKN006 21/19 A2977 RMK AO2 CIG 006V009 SLP077 T02110194,KLRD,2023-04-28T09:56:00Z,27.55,-99.47,21.1,19.4,140,8,,10.0,29.769686,1007.7,,,TRUE,,,,,,,BKN,600,,,,,,,IFR,,,,,,,,,,,,METAR,150.0
KLNR 280956Z AUTO 11004KT 10SM CLR 03/01 A2983 RMK AO2 SLP098 T00330006,KLNR,2023-04-28T09:56:00Z,43.22,-90.18,3.3,0.6,110,4,,10.0,29.828741,1009.8,,TRUE,TRUE,,,,,,,CLR,,,,,,,,VFR,,,,,,,,,,,,METAR,218.0
KLGD 280956Z AUTO 34005KT 10SM CLR 04/01 A3021 RMK AO2 SLP229 T00390011,KLGD,2023-04-28T09:56:00Z,45.28,-118.0,3.9,1.1,340,5,,10.0,30.209646,1022.9,,TRUE,TRUE,,,,,,,CLR,,,,,,,,VFR,,,,,,,,,,,,METAR,827.0
KLEW 280956Z AUTO 36003KT 7SM CLR 00/M01 A3024 RMK AO2 SLP249 T00001006 FZRANO PNO $,KLEW,2023-04-28T09:56:00Z,44.03,-70.28,0.0,-0.6,360,3,,7.0,30.239174,1024.9,,TRUE,TRUE,TRUE,,,TRUE,,,CLR,,,,,,,,VFR,,,,,,,,,,,,METAR,81.0
KLAS 280956Z 23004KT 10SM FEW250 21/M06 A2990 RMK AO2 SLP102 T02061061,KLAS,2023-04-28T09:56:00Z,36.07,-115.17,20.6,-6.1,230,4,,10.0,29.899607,1010.2,,,TRUE,,,,,,,FEW,25000,,,,,,,VFR,,,,,,,,,,,,METAR,662.0
KKLS 280956Z AUTO 00000KT CLR 10/06 A3004 RMK AO2 SLP177 T01000061 PWINO $,KKLS,2023-04-28T09:56:00Z,46.12,-122.9,10.0,6.1,0,0,,,30.041338,1017.7,,TRUE,TRUE,TRUE,,,,TRUE,,CLR,,,,,,,,,,,,,,,,,,,,METAR,4.0
KJXN 280956Z AUTO 04005KT 10SM FEW080 SCT095 06/01 A2985 RMK AO2 SLP108 T00610006,KJXN,2023-04-28T09:56:00Z,42.27,-84.47,6.1,0.6,40,5,,10.0,29.84941,1010.8,,TRUE,TRUE,,,,,,,FEW,8000,SCT,9500,,,,,VFR,,,,,,,,,,,,METAR,303.0
KJMS 280956Z AUTO 34004KT 10SM SCT047 OVC060 03/02 A3002 RMK AO2 SLP177 T00330017,KJMS,2023-04-28T09:56:00Z,46.93,-98.67,3.3,1.7,340,4,,10.0,30.02067,1017.7,,TRUE,TRUE,,,,,,,SCT,4700,OVC,6000,,,,,VFR,,,,,,,,,,,,METAR,455.0
KJHW 280956Z AUTO 15009KT 10SM OVC018 11/07 A2996 RMK AO2 SLP150 T01060072 PNO $,KJHW,2023-04-28T09:56:00Z,42.15,-79.27,10.6,7.2,150,9,,10.0,29.958662,1015.0,,TRUE,TRUE,TRUE,,,,,,OVC,1800,,,,,,,MVFR,,,,,,,,,,,,METAR,520.0
KJAX 280956Z 00000KT 9SM BKN250 18/17 A2982 RMK AO2 SLP098 T01780172 $,KJAX,2023-04-28T09:56:00Z,30.5,-81.68,17.8,17.2,0,0,,9.0,29.819881,1009.8,,,TRUE,TRUE,,,,,,BKN,25000,,,,,,,VFR,,,,,,,,,,,,METAR,8.0
KJAC 280956Z AUTO 00000KT 10SM CLR M06/M09 A3032 RMK AO2 SLP287 T10561089,KJAC,2023-04-28T09:56:00Z,43.62,-110.73,-5.6,-8.9,0,0,,10.0,30.318897,1028.7,,TRUE,TRUE,,,,,,,CLR,,,,,,,,VFR,,,,,,,,,,,,METAR,1967.0
KITH 280956Z 11007KT 10SM CLR 08/06 A3010 RMK AO2 SLP195 T00780056,KITH,2023-04-28T09:56:00Z,42.48,-76.45,7.8,5.6,110,7,,10.0,30.100393,1019.5,,,TRUE,,,,,,,CLR,,,,,,,,VFR,,,,,,,,,,,,METAR,338.0
KISP 280956Z 07006KT 7SM SCT095 BKN250 07/07 A3018 RMK AO2 SLP221 T00670067,KISP,2023-04-28T09:56:00Z,40.8,-73.1,6.7,6.7,70,6,,7.0,30.180119,1022.1,,,TRUE,,,,,,,SCT,9500,BKN,25000,,,,,VFR,,,,,,,,,,,,METAR,25.0
KISM 280956Z AUTO 18004KT 10SM CLR 19/18 A2989 RMK AO2 SLP122 T01940183 PNO $,KISM,2023-04-28T09:56:00Z,28.28,-81.43,19.4,18.3,180,4,,10.0,29.890747,1012.2,,TRUE,TRUE,TRUE,,,,,,CLR,,,,,,,,VFR,,,,,,,,,,,,METAR,25.0
KINW 280956Z AUTO 00000KT 10SM CLR 10/M07 A3000 RMK AO2 SLP099 T01001072,KINW,2023-04-28T09:56:00Z,35.03,-110.72,10.0,-7.2,0,0,,10.0,30.0,1009.9,,TRUE,TRUE,,,,,,,CLR,,,,,,,,VFR,,,,,,,,,,,,METAR,1492.0
KILE 280956Z AUTO 15006KT 10SM CLR 14/13 A2977 RMK AO2 SLP071 T01440128,KILE,2023-04-28T09:56:00Z,31.08,-97.68,14.4,12.8,150,6,,10.0,29.769686,1007.1,,TRUE,TRUE,,,,,,,CLR,,,,,,,,VFR,,,,,,,,,,,,METAR,256.0
KHYS 280956Z AUTO 33016G21KT 10SM SCT017 OVC025 11/08 A2988 RMK AO2 SLP116 T01060083 $,KHYS,2023-04-28T09:56:00Z,38.85,-99.27,10.6,8.3,330,16,21,10.0,29.878937,1011.6,,TRUE,TRUE,TRUE,,,,,,SCT,1700,OVC,2500,,,,,MVFR,,,,,,,,,,,,METAR,607.0
KHYA 280956Z 04003KT 1/4SM FG VV001 03/03 A3021 RMK AO2 SLP232 T00280028,KHYA,2023-04-28T09:56:00Z,41.67,-70.27,2.8,2.8,40,3,,0.25,30.209646,1023.2,,,TRUE,,,,,,FG,OVX,0,,,,,,,LIFR,,,,,,,,,,,100,SPECI,11.0
KHWV 280956Z AUTO 00000KT 3SM BR OVC001 03/02 A3020 RMK AO2 SLP227 T00280017,KHWV,2023-04-28T09:56:00Z,40.82,-72.87,2.8,1.7,0,0,,3.0,30.200787,1022.7,,TRUE,TRUE,,,,,,BR,OVC,100,,,,,,,LIFR,,,,,,,,,,,,SPECI,20.0
KHPN 280956Z 07005KT 8SM BKN007 08/07 A3017 RMK AO2 SLP220 T00780067,KHPN,2023-04-28T09:56:00Z,41.07,-73.7,7.8,6.7,70,5,,8.0,30.171259,1022.0,,,TRUE,,,,,,,BKN,700,,,,,,,IFR,,,,,,,,,,,,METAR,113.0
KHND 280956Z AUTO 16008KT 10SM CLR 18/M05 A2993 RMK AO2 SLP129 T01831050,KHND,2023-04-28T09:56:00Z,35.98,-115.13,18.3,-5.0,160,8,,10.0,29.929134,1012.9,,TRUE,TRUE,,,,,,,CLR,,,,,,,,VFR,,,,,,,,,,,,METAR,740.0
KHNB 280956Z AUTO 02004KT 7SM OVC006 12/11 A2969 RMK AO2 SLP051 T01170111,KHNB,2023-04-28T09:56:00Z,38.25,-86.95,11.7,11.1,20,4,,7.0,29.68996,1005.1,,TRUE,TRUE,,,,,,,OVC,600,,,,,,,IFR,,,,,,,,,,,,METAR,159.0
KHEZ 280956Z AUTO 17003KT 10SM CLR 13/13 A2980 RMK AO2 SLP090 T01330128,KHEZ,2023-04-28T09:56:00Z,31.62,-91.3,13.3,12.8,170,3,,10.0,29.799213,1009.0,,TRUE,TRUE,,,,,,,CLR,,,,,,,,VFR,,,,,,,,,,,,METAR,82.0
KHEF 280956Z AUTO 07010KT 8SM RA OVC008 13/12 A2997 RMK AO2 CIG 007V012 SLP153 P0007 T01280122,KHEF,2023-04-28T09:56:00Z,38.72,-77.52,12.8,12.2,70,10,,8.0,29.970472,1015.3,,TRUE,TRUE,,,,,,RA,OVC,800,,,,,,,IFR,,,,,,0.07,,,,,,METAR,53.0
KHDN 280956Z AUTO 01008KT 10SM CLR 02/M06 A3022 RMK AO2 SLP208 T00171061 FZRANO,KHDN,2023-04-28T09:56:00Z,40.48,-107.22,1.7,-6.1,10,8,,10.0,30.221457,1020.8,,TRUE,TRUE,,,,TRUE,,,CLR,,,,,,,,VFR,,,,,,,,,,,,METAR,2012.0
KGXY 280956Z 33013KT 10SM CLR 03/M02 A3020 RMK AO2 SLP220 T00331017,KGXY,2023-04-28T09:56:00Z,40.43,-104.62,3.3,-1.7,330,13,,10.0,30.200787,1022.0,,,TRUE,,,,,,,CLR,,,,,,,,VFR,,,,,,,,,,,,METAR,1420.0
KGVQ 280956Z AUTO 15007KT 10SM CLR 08/04 A3001 RMK AO2 SLP165 T00830044,KGVQ,2023-04-28T09:56:00Z,43.03,-78.17,8.3,4.4,150,7,,10.0,30.008858,1016.5,,TRUE,TRUE,,,,,,,CLR,,,,,,,,VFR,,,,,,,,,,,,METAR,279.0
KGTU 280956Z AUTO 20004KT 10SM CLR 15/12 A2978 RMK AO2 SLP079 T01500122,KGTU,2023-04-28T09:56:00Z,30.68,-97.68,15.0,12.2,200,4,,10.0,29.778543,1007.9,,TRUE,TRUE,,,,,,,CLR,,,,,,,,VFR,,,,,,,,,,,,METAR,232.0
KGTR 280956Z AUTO 23005KT 10SM BKN060 16/16 A2972 RMK AO2 SLP071 T01610156,KGTR,2023-04-28T09:56:00Z,33.45,-88.58,16.1,15.6,230,5,,10.0,29.719488,1007.1,,TRUE,TRUE,,,,,,,BKN,6000,,,,,,,VFR,,,,,,,,,,,,METAR,80.0
KGPZ 280956Z AUTO 00000KT 10SM CLR 03/02 A2992 RMK AO2 SLP141 T00280017,KGPZ,2023-04-28T09:56:00Z,47.22,-93.52,2.8,1.7,0,0,,10.0,29.920275,1014.1,,TRUE,TRUE,,,,,,,CLR,,,,,,,,VFR,,,,,,,,,,,,METAR,410.0
KGNR 280956Z AUTO 36004KT 04/00 A3019 RMK AO1 SLP235 T00390000,KGNR,2023-04-28T09:56:00Z,45.47,-69.55,3.9,0.0,360,4,,,30.188976,1023.5,,TRUE,TRUE,,,,,,,,,,,,,,,,,,,,,,,,,,,METAR,426.0
KGNA 280956Z AUTO 08010G16KT 06/02 A2996 RMK AO1 SLP152 T00560022,KGNA,2023-04-28T09:56:00Z,47.75,-90.35,5.6,2.2,80,10,16,,29.958662,1015.2,,TRUE,TRUE,,,,,,,,,,,,,,,,,,,,,,,,,,,SPECI,186.0
KGDV 280956Z AUTO 33006KT 10SM OVC080 03/01 A3013 RMK AO2 SLP215 T00280006 TSNO,KGDV,2023-04-28T09:56:00Z,47.13,-104.8,2.8,0.6,330,6,,10.0,30.129921,1021.5,,TRUE,TRUE,,,TRUE,,,,OVC,8000,,,,,,,VFR,,,,,,,,,,,,METAR,749.0
KGAI 280956Z AUTO VRB04KT 9SM -RA OVC009 12/11 A3002 RMK AO2 RAB32 SLP176 P0000 T01170111,KGAI,2023-04-28T09:56:00Z,39.17,-77.17,11.7,11.1,0,4,,9.0,30.02067,1017.6,,TRUE,TRUE,,,,,,-RA,OVC,900,,,,,,,IFR,,,,,,0.005,,,,,,METAR,151.0
KGAD 280956Z AUTO 22005KT 10SM OVC007 17/17 A2972 RMK AO2 SLP064 T01720172 PNO $,KGAD,2023-04-28T09:56:00Z,33.97,-86.08,17.2,17.2,220,5,,10.0,29.719488,1006.4,,TRUE,TRUE,TRUE,,,,,,OVC,700,,,,,,,IFR,,,,,,,,,,,,METAR,169.0
KFRM 280956Z AUTO 35003KT 10SM BKN110 10/07 A2979 RMK AO2 SLP091 T01000067,KFRM,2023-04-28T09:56:00Z,43.63,-94.42,10.0,6.7,350,3,,10.0,29.790354,1009.1,,TRUE,TRUE,,,,,,,BKN,11000,,,,,,,VFR,,,,,,,,,,,,METAR,353.0
KFOD 280956Z AUTO 19003KT 10SM SCT085 08/04 A2979 RMK AO2 SLP101 T00830039,KFOD,2023-04-28T09:56:00Z,42.53,-94.17,8.3,3.9,190,3,,10.0,29.790354,1010.1,,TRUE,TRUE,,,,,,,SCT,8500,,,,,,,VFR,,,,,,,,,,,,METAR,347.0
KFNL 280956Z 35014KT 10SM CLR 03/M03 A3019 RMK AO2 SLP195 T00331033,KFNL,2023-04-28T09:56:00Z,40.45,-105.02,3.3,-3.3,350,14,,10.0,30.188976,1019.5,,,TRUE,,,,,,,CLR,,,,,,,,VFR,,,,,,,,,,,,METAR,1529.0
KFKL 280956Z AUTO 11008KT 10SM FEW060 11/09 A2992 RMK AO2 RAE05 SLP132 P0000 T01110089,KFKL,2023-04-28T09:56:00Z,41.37,-79.87,11.1,8.9,110,8,,10.0,29.920275,1013.2,,TRUE,TRUE,,,,,,,FEW,6000,,,,,,,VFR,,,,,,0.005,,,,,,METAR,468.0
KFCI 280956Z AUTO 10009G19KT 10SM RA FEW008 BKN042 OVC050 13/13 A2991 RMK AO2 SLP138 P0024 T01330133,KFCI,2023-04-28T09:56:00Z,37.4,-77.52,13.3,13.3,100,9,19,10.0,29.911417,1013.8,,TRUE,TRUE,,,,,,RA,FEW,800,BKN,4200,OVC,5000,,,VFR,,,,,,0.24,,,,,,METAR,63.0
KEWK 280956Z AUTO 31003KT 7SM OVC055 10/10 A2983 RMK AO2 SLP097 T01000100,KEWK,2023-04-28T09:56:00Z,38.05,-97.27,10.0,10.0,310,3,,7.0,29.828741,1009.7,,TRUE,TRUE,,,,,,,OVC,5500,,,,,,,VFR,,,,,,,,,,,,METAR,468.0
KEUL 280956Z AUTO 12011KT 10SM CLR 11/M02 A3020 RMK AO2 SLP218 T01111022,KEUL,2023-04-28T09:56:00Z,43.63,-116.62,11.1,-2.2,120,11,,10.0,30.200787,1021.8,,TRUE,TRUE,,,,,,,CLR,,,,,,,,VFR,,,,,,,,,,,,METAR,741.0
KESC 280956Z AUTO 03004KT 10SM OVC085 05/03 A2994 RMK AO2 SLP146 T00500028,KESC,2023-04-28T09:56:00Z,45.72,-87.08,5.0,2.8,30,4,,10.0,29.940945,1014.6,,TRUE,TRUE,,,,,,,OVC,8500,,,,,,,VFR,,,,,,,,,,,,METAR,180.0
KENV 280956Z AUTO 31005KT 10SM CLR 11/M03 A3021 RMK AO2 SLP207 T01061033,KENV,2023-04-28T09:56:00Z,40.72,-114.02,10.6,-3.3,310,5,,10.0,30.209646,1020.7,,TRUE,TRUE,,,,,,,CLR,,,,,,,,VFR,,,,,,,,,,,,METAR,1291.0
KELZ 280956Z AUTO 14009KT 8SM OVC011 09/06 A3002 RMK AO2 SLP168 T00890056,KELZ,2023-04-28T09:56:00Z,42.1,-77.98,8.9,5.6,140,9,,8.0,30.02067,1016.8,,TRUE,TRUE,,,,,,,OVC,1100,,,,,,,MVFR,,,,,,,,,,,,METAR,639.0
KEKO 280956Z AUTO VRB03KT 10SM CLR 06/M01 A3019 RMK AO2 SLP196 T00561011,KEKO,2023-04-28T09:56:00Z,40.82,-115.78,5.6,-1.1,0,3,,10.0,30.188976,1019.6,,TRUE,TRUE,,,,,,,CLR,,,,,,,,VFR,,,,,,,,,,,,METAR,1541.0
KEGE 280956Z AUTO VRB06KT 10SM FEW041 OVC055 04/M05 A3019 RMK AO2 SLP126 T00391050,KEGE,2023-04-28T09:56:00Z,39.63,-106.92,3.9,-5.0,0,6,,10.0,30.188976,1012.6,,TRUE,TRUE,,,,,,,FEW,4100,OVC,5500,,,,,VFR,,,,,,,,,,,,METAR,1993.0
KEED 280956Z AUTO 00000KT 10SM CLR 21/M06 A2980 RMK AO2 SLP061 T02061056,KEED,2023-04-28T09:56:00Z,34.77,-114.62,20.6,-5.6,0,0,,10.0,29.799213,1006.1,,TRUE,TRUE,,,,,,,CLR,,,,,,,,VFR,,,,,,,,,,,,METAR,271.0
KEAU 280956Z AUTO 04004KT 10SM FEW060 SCT090 OVC110 10/05 A2979 RMK AO2 SLP087 T01000050,KEAU,2023-04-28T09:56:00Z,44.87,-91.48,10.0,5.0,40,4,,10.0,29.790354,1008.7,,TRUE,TRUE,,,,,,,FEW,6000,SCT,9000,OVC,11000,,,VFR,,,,,,,,,,,,METAR,271.0
KEAR 280956Z AUTO 34018G29KT 10SM -RA OVC012 07/06 A2990 RMK AO2 PK WND 33030/0929 RAB21 SLP120 P0000 T00670056,KEAR,2023-04-28T09:56:00Z,40.72,-99.0,6.7,5.6,340,18,29,10.0,29.899607,1012.0,,TRUE,TRUE,,,,,,-RA,OVC,1200,,,,,,,MVFR,,,,,,0.005,,,,,,METAR,649.0
KDYR 280956Z AUTO 30005KT 4SM HZ OVC003 14/ A2971 RMK AO2 RAB0859E14 SLP068 P0000 T0139,KDYR,2023-04-28T09:56:00Z,36.0,-89.4,13.9,,300,5,,4.0,29.71063,1006.8,,TRUE,TRUE,,,,,,HZ,OVC,300,,,,,,,LIFR,,,,,,0.005,,,,,,METAR,98.0
KDVL 280956Z AUTO 33006KT 10SM SCT031 BKN048 BKN060 00/M01 A3004 RMK AO2 SLP203 T00001011 FZRANO,KDVL,2023-04-28T09:56:00Z,48.12,-98.92,0.0,-1.1,330,6,,10.0,30.041338,1020.3,,TRUE,TRUE,,,,TRUE,,,SCT,3100,BKN,4800,BKN,6000,,,VFR,,,,,,,,,,,,METAR,439.0
KDUG 280956Z AUTO 36004KT 10SM CLR 10/M09 A2996 RMK AO2 SLP090 T01001089 TSNO $,KDUG,2023-04-28T09:56:00Z,31.47,-109.6,10.0,-8.9,360,4,,10.0,29.958662,1009.0,,TRUE,TRUE,TRUE,,TRUE,,,,CLR,,,,,,,,VFR,,,,,,,,,,,,SPECI,1260.0
KDIK 280956Z AUTO 30006KT 10SM SCT060 OVC090 03/00 A3007 RMK AO2 SLP198 T00330000,KDIK,2023-04-28T09:56:00Z,46.8,-102.8,3.3,0.0,300,6,,10.0,30.070866,1019.8,,TRUE,TRUE,,,,,,,SCT,6000,OVC,9000,,,,,VFR,,,,,,,,,,,,METAR,788.0
KDIJ 280956Z AUTO 09006KT 10SM CLR M04/M07 A3033 RMK AO2 SLP275 T10391067,KDIJ,2023-04-28T09:56:00Z,43.75,-111.1,-3.9,-6.7,90,6,,10.0,30.33071,1027.5,,TRUE,TRUE,,,,,,,CLR,,,,,,,,VFR,,,,,,,,,,,,METAR,1896.0
KDAY 280956Z 07009KT 2SM -RA BR OVC003 09/08 A2968 RMK AO2 SFC VIS 3 SLP049 P0005 T00940083 VISNO RWY 6L $,KDAY,2023-04-28T09:56:00Z,39.9,-84.22,9.4,8.3,70,9,,2.0,29.681103,1004.9,,,TRUE,TRUE,,,,,-RA BR,OVC,300,,,,,,,LIFR,,,,,,0.05,,,,,,SPECI,303.0
KD07 280956Z AUTO 33010KT 05/01 A3007 RMK AO1 SLP195 T00500011 $,KD07,2023-04-28T09:56:00Z,45.03,-102.02,5.0,1.1,330,10,,,30.070866,1019.5,,TRUE,TRUE,TRUE,,,,,,,,,,,,,,,,,,,,,,,,,,SPECI,786.0
KCXY 280956Z AUTO 09011KT 10SM OVC019 12/06 A3006 RMK AO2 SLP180 T01170061,KCXY,2023-04-28T09:56:00Z,40.22,-76.85,11.7,6.1,90,11,,10.0,30.059055,1018.0,,TRUE,TRUE,,,,,,,OVC,1900,,,,,,,MVFR,,,,,,,,,,,,METAR,102.0
KCWI 280956Z AUTO 07007KT 10SM CLR 03/M01 A2982 RMK AO2 SLP101 T00331006,KCWI,2023-04-28T09:56:00Z,41.82,-90.32,3.3,-0.6,70,7,,10.0,29.819881,1010.1,,TRUE,TRUE,,,,,,,CLR,,,,,,,,VFR,,,,,,,,,,,,METAR,212.0
KCVO 280956Z AUTO 00000KT 10SM CLR 11/09 A2996 RMK AO2 SLP147 T01110094,KCVO,2023-04-28T09:56:00Z,44.5,-123.28,11.1,9.4,0,0,,10.0,29.958662,1014.7,,TRUE,TRUE,,,,,,,CLR,,,,,,,,VFR,,,,,,,,,,,,METAR,75.0
KCVN 280956Z AUTO 02030G39KT 10SM CLR 10/05 A2984 RMK AO2 PK WND 02039/0953 SLP075 T01000050,KCVN,2023-04-28T09:56:00Z,34.42,-103.07,10.0,5.0,20,30,39,10.0,29.840551,1007.5,,TRUE,TRUE,,,,,,,CLR,,,,,,,,VFR,,,,,,,,,,,,METAR,1278.0
KCTB 280956Z AUTO 29006KT 10SM CLR 01/M04 A3014 RMK AO2 SLP218 T00111039,KCTB,2023-04-28T09:56:00Z,48.6,-112.37,1.1,-3.9,290,6,,10.0,30.138779,1021.8,,TRUE,TRUE,,,,,,,CLR,,,,,,,,VFR,,,,,,,,,,,,METAR,1172.0
KCOE 280956Z AUTO 06005KT 10SM CLR 04/01 A3021 RMK AO2 SLP250 T00390011 PNO $,KCOE,2023-04-28T09:56:00Z,47.77,-116.82,3.9,1.1,60,5,,10.0,30.209646,1025.0,,TRUE,TRUE,TRUE,,,,,,CLR,,,,,,,,VFR,,,,,,,,,,,,METAR,693.0
KCOD 280956Z AUTO 21003KT 10SM CLR M02/M05 A3026 RMK AO2 SLP266 T10221050 FZRANO,KCOD,2023-04-28T09:56:00Z,44.52,-109.02,-2.2,-5.0,210,3,,10.0,30.259842,1026.6,,TRUE,TRUE,,,,TRUE,,,CLR,,,,,,,,VFR,,,,,,,,,,,,METAR,1550.0
KCIU 280956Z AUTO 08004KT 10SM -RA OVC055 04/01 A2999 RMK AO2 RAB37 SLP162 P0000 T00440011,KCIU,2023-04-28T09:56:00Z,46.25,-84.47,4.4,1.1,80,4,,10.0,29.991142,1016.2,,TRUE,TRUE,,,,,,-RA,OVC,5500,,,,,,,VFR,,,,,,0.005,,,,,,METAR,242.0
KCGZ 280956Z AUTO 04006KT 10SM CLR 15/M06 A2983 RMK AO2 SLP089 T01501056 PNO $,KCGZ,2023-04-28T09:56:00Z,32.95,-111.77,15.0,-5.6,40,6,,10.0,29.828741,1008.9,,TRUE,TRUE,TRUE,,,,,,CLR,,,,,,,,VFR,,,,,,,,,,,,METAR,444.0
KCEC 280956Z AUTO 16009KT 2SM BR OVC002 11/10 A2992 RMK AO2 SLP132 T01060100,KCEC,2023-04-28T09:56:00Z,41.78,-124.23,10.6,10.0,160,9,,2.0,29.920275,1013.2,,TRUE,TRUE,,,,,,BR,OVC,200,,,,,,,LIFR,,,,,,,,,,,,METAR,17.0
KCAE 280956Z 00000KT 10SM BKN007 OVC013 19/18 A2975 RMK AO2 SLP072 T01890178,KCAE,2023-04-28T09:56:00Z,33.93,-81.12,18.9,17.8,0,0,,10.0,29.749016,1007.2,,,TRUE,,,,,,,BKN,700,OVC,1300,,,,,IFR,,,,,,,,,,,,METAR,69.0
KBZN 280956Z AUTO 12004KT 10SM CLR M03/M04 A3029 RMK AO2 SLP282 T10281044 $,KBZN,2023-04-28T09:56:00Z,45.78,-111.17,-2.8,-4.4,120,4,,10.0,30.28937,1028.2,,TRUE,TRUE,TRUE,,,,,,CLR,,,,,,,,VFR,,,,,,,,,,,,METAR,1349.0
KBMI 280956Z AUTO 05004KT 10SM CLR 08/02 A2980 RMK AO2 SLP087 T00780017,KBMI,2023-04-28T09:56:00Z,40.47,-88.92,7.8,1.7,50,4,,10.0,29.799213,1008.7,,TRUE,TRUE,,,,,,,CLR,,,,,,,,VFR,,,,,,,,,,,,METAR,262.0
KBKX 280956Z AUTO 01016G22KT 10SM OVC007 07/06 A2985 RMK AO2 SLP126 T00670056,KBKX,2023-04-28T09:56:00Z,44.3,-96.82,6.7,5.6,10,16,22,10.0,29.84941,1012.6,,TRUE,TRUE,,,,,,,OVC,700,,,,,,,IFR,,,,,,,,,,,,METAR,494.0
KBJJ 280956Z AUTO 00000KT 5SM -RA BR FEW037 OVC055 09/08 A2984 RMK AO2 RAB12 SLP104 P0003 T00940078 $,KBJJ,2023-04-28T09:56:00Z,40.87,-81.88,9.4,7.8,0,0,,5.0,29.840551,1010.4,,TRUE,TRUE,TRUE,,,,,-RA BR,FEW,3700,OVC,5500,,,,,MVFR,,,,,,0.03,,,,,,METAR,338.0
KBIH 280956Z AUTO 35005KT 10SM CLR 08/M02 A3007 RMK AO2 SLP144 T00831017,KBIH,2023-04-28T09:56:00Z,37.37,-118.35,8.3,-1.7,350,5,,10.0,30.070866,1014.4,,TRUE,TRUE,,,,,,,CLR,,,,,,,,VFR,,,,,,,,,,,,METAR,1252.0
KBID 280956Z AUTO 03005KT M1/4SM -RA FG OVC001 05/04 A3023 RMK AO2 RAB10 SLP238 P0000 T00500044,KBID,2023-04-28T09:56:00Z,41.17,-71.58,5.0,4.4,30,5,,0.25,30.230314,1023.8,,TRUE,TRUE,,,,,,-RA FG,OVC,100,,,,,,,LIFR,,,,,,0.005,,,,,,METAR,32.0
KBHB 280956Z AUTO 00000KT 10SM CLR 01/01 A3022 RMK AO2 SLP236 T00110006 FZRANO,KBHB,2023-04-28T09:56:00Z,44.45,-68.37,1.1,0.6,0,0,,10.0,30.221457,1023.6,,TRUE,TRUE,,,,TRUE,,,CLR,,,,,,,,VFR,,,,,,,,,,,,METAR,21.0
KAWO 280956Z AUTO 33004KT 10SM CLR 07/07 A3012 RMK AO2 SLP204 T00720067,KAWO,2023-04-28T09:56:00Z,48.17,-122.17,7.2,6.7,330,4,,10.0,30.121063,1020.4,,TRUE,TRUE,,,,,,,CLR,,,,,,,,VFR,,,,,,,,,,,,METAR,38.0
KASH 280956Z AUTO 30003KT 10SM CLR 02/02 A3024 RMK AO2 SLP246 T00220022,KASH,2023-04-28T09:56:00Z,42.78,-71.52,2.2,2.2,300,3,,10.0,30.239174,1024.6,,TRUE,TRUE,,,,,,,CLR,,,,,,,,VFR,,,,,,,,,,,,METAR,56.0
KART 280956Z AUTO 07004KT 10SM CLR 00/M01 A3012 RMK AO2 SLP201 T00001011,KART,2023-04-28T09:56:00Z,43.98,-76.03,0.0,-1.1,70,4,,10.0,30.121063,1020.1,,TRUE,TRUE,,,,,,,CLR,,,,,,,,VFR,,,,,,,,,,,,METAR,100.0
KARG 280956Z AUTO 33007KT 9SM OVC008 13/13 A2975 RMK AO2 SLP073 T01280128,KARG,2023-04-28T09:56:00Z,36.12,-90.92,12.8,12.8,330,7,,9.0,29.749016,1007.3,,TRUE,TRUE,,,,,,,OVC,800,,,,,,,IFR,,,,,,,,,,,,METAR,82.0
KAND 280956Z AUTO 00000KT 10SM OVC004 16/15 A2975 RMK AO2 SLP070 T01560150,KAND,2023-04-28T09:56:00Z,34.5,-82.72,15.6,15.0,0,0,,10.0,29.749016,1007.0,,TRUE,TRUE,,,,,,,OVC,400,,,,,,,LIFR,,,,,,,,,,,,METAR,233.0
KALK 280956Z AUTO 25008KT 10SM CLR 12/M07 A3002 RMK AO2 SLP082 T01221072,KALK,2023-04-28T09:56:00Z,31.6,-110.43,12.2,-7.2,250,8,,10.0,30.02067,1008.2,,TRUE,TRUE,,,,,,,CLR,,,,,,,,VFR,,,,,,,,,,,,SPECI,1451.0
KAIZ 280956Z AUTO 30003KT 10SM OVC065 11/08 RMK AO2 SLPNO T01060083 $,KAIZ,2023-04-28T09:56:00Z,38.1,-92.53,10.6,8.3,300,3,,10.0,,,,TRUE,TRUE,TRUE,,,,,,OVC,6500,,,,,,,VFR,,,,,,,,,,,,METAR,263.0
KAFJ 280956Z AUTO 11009G18KT 8SM RA OVC075 12/11 A2987 RMK AO2 SLP113 P0009 T01220111,KAFJ,2023-04-28T09:56:00Z,40.13,-80.28,12.2,11.1,110,9,18,8.0,29.870079,1011.3,,TRUE,TRUE,,,,,,RA,OVC,7500,,,,,,,VFR,,,,,,0.09,,,,,,METAR,360.0
KADF 280956Z AUTO 00000KT 10SM CLR 11/11 A2979 RMK AO2 SLP084 T01110111,KADF,2023-04-28T09:56:00Z,34.1,-93.07,11.1,11.1,0,0,,10.0,29.790354,1008.4,,TRUE,TRUE,,,,,,,CLR,,,,,,,,VFR,,,,,,,,,,,,METAR,54.0
K8D3 280956Z AUTO 35016KT 07/04 A2994 RMK AO1 SLP138 P0007 T00720044,K8D3,2023-04-28T09:56:00Z,45.67,-96.98,7.2,4.4,350,16,,,29.940945,1013.8,,TRUE,TRUE,,,,,,,,,,,,,,,,,,,,,0.07,,,,,,SPECI,535.0
K79J 280956Z AUTO 26004KT 10SM -RA OVC009 21/18 A2977 RMK AO2 SLP078 P0000 T02060178,K79J,2023-04-28T09:56:00Z,31.32,-86.4,20.6,17.8,260,4,,10.0,29.769686,1007.8,,TRUE,TRUE,,,,,,-RA,OVC,900,,,,,,,IFR,,,,,,0.005,,,,,,METAR,93.0
K2WX 280956Z AUTO 30010KT 04/02 A3009 RMK AO1 SLP203 T00440017,K2WX,2023-04-28T09:56:00Z,45.6,-103.55,4.4,1.7,300,10,,,30.088583,1020.3,,TRUE,TRUE,,,,,,,,,,,,,,,,,,,,,,,,,,,SPECI,925.0
K1M4 280956Z AUTO 22009KT 10SM OVC006 17/17 A2972 RMK AO2 CIG 004V010 SLP052 T01670167,K1M4,2023-04-28T09:56:00Z,34.28,-87.6,16.7,16.7,220,9,,10.0,29.719488,1005.2,,TRUE,TRUE,,,,,,,OVC,600,,,,,,,IFR,,,,,,,,,,,,METAR,283.0
TXKF 280955Z 02007KT 9999 SCT035 BKN300 18/11 Q1018 ,TXKF,2023-04-28T09:55:00Z,32.37,-64.68,18.0,11.0,20,7,,6.21,30.059055,,,,,,,,,,,SCT,3500,BKN,30000,,,,,VFR,,,,,,,,,,,,METAR,4.0
TNCE 280955Z AUTO VRB01KT //// // ///////// 23/23 Q1013 RE//,TNCE,2023-04-28T09:55:00Z,17.48,-62.97,23.0,23.0,0,1,,,29.911417,,,TRUE,,,,,,,,,,,,,,,,,,,,,,,,,,,,METAR,38.0
TNCB 280955Z AUTO 10010KT 070V150 9999 NSC 27/24 Q1010,TNCB,2023-04-28T09:55:00Z,12.13,-68.28,27.0,24.0,100,10,,6.21,29.822834,,,TRUE,,,,,,,,CLR,,,,,,,,VFR,,,,,,,,,,,,METAR,6.0
RKSO 280955Z 25003KT 10SM OVC040 19/11 A2992 RMK AO2A SLP136 T01870105 $,RKSO,2023-04-28T09:55:00Z,37.08,127.02,18.7,10.5,250,3,,10.0,29.920275,1013.6,,,TRUE,TRUE,,,,,,OVC,4000,,,,,,,VFR,,,,,,,,,,,,METAR,10.0
RKJK 280955Z AUTO 00000KT 6SM HZ OVC047 20/08 A2991 RMK AO2 SLP133 T01950082 $,RKJK,2023-04-28T09:55:00Z,35.9,126.62,19.5,8.2,0,0,,6.0,29.911417,1013.3,,TRUE,TRUE,TRUE,,,,,HZ,OVC,4700,,,,,,,VFR,,,,,,,,,,,,METAR,8.0
RJTY 280955Z AUTO 15005KT 10SM CLR 18/10 A3011 RMK AO2 SLP199 T01770101,RJTY,2023-04-28T09:55:00Z,35.75,139.33,17.7,10.1,150,5,,10.0,30.109253,1019.9,,TRUE,TRUE,,,,,,,CLR,,,,,,,,VFR,,,,,,,,,,,,METAR,136.0
PHHI 280955Z AUTO 33004KT 10SM OVC015 20/18 A3001 RMK AO2 SLP155 T01980181 402290190 $,PHHI,2023-04-28T09:55:00Z,21.48,-158.05,19.8,18.1,330,4,,10.0,30.008858,1015.5,,TRUE,TRUE,TRUE,,,,,,OVC,1500,,,,,,,MVFR,,,,22.9,19.0,,,,,,,METAR,246.0
PATL 280955Z AUTO 00000KT 10SM SCT110 BKN170 01/M04 A2976 RMK AO2 SLP088 T00081044 TSNO $,PATL,2023-04-28T09:55:00Z,62.9,-155.97,0.8,-4.4,0,0,,10.0,29.760826,1008.8,,TRUE,TRUE,TRUE,,TRUE,,,,SCT,11000,BKN,17000,,,,,VFR,,,,,,,,,,,,METAR,261.0
PAIM 280955Z AUTO 00000KT 10SM FEW075 M02/M08 A2975 RMK AO2 SLP095 T10191081,PAIM,2023-04-28T09:55:00Z,66.0,-153.7,-1.9,-8.1,0,0,,10.0,29.749016,1009.5,,TRUE,TRUE,,,,,,,FEW,7500,,,,,,,VFR,,,,,,,,,,,,METAR,309.0
PAFR 280955Z AUTO 00000KT 10SM BKN041 BKN055 OVC080 03/00 A2985 RMK AO2 SLP116 T00250001 $,PAFR,2023-04-28T09:55:00Z,61.27,-149.65,2.5,0.1,0,0,,10.0,29.84941,1011.6,,TRUE,TRUE,TRUE,,,,,,BKN,4100,BKN,5500,OVC,8000,,,VFR,,,,,,,,,,,,METAR,106.0
PAFB 280955Z AUTO 09005KT 10SM M M01/M06 A2978,PAFB,2023-04-28T09:55:00Z,64.83,-147.62,-1.0,-6.0,90,5,,10.0,29.778543,,,TRUE,,,,,,,,,,,,,,,,,,,,,,,,,,,,METAR,137.0
PAEI 280955Z AUTO 00000KT 10SM CLR M02/M06 A2976 RMK AO2 SLP086 T10211065 $,PAEI,2023-04-28T09:55:00Z,64.67,-147.1,-2.1,-6.5,0,0,,10.0,29.760826,1008.6,,TRUE,TRUE,TRUE,,,,,,CLR,,,,,,,,VFR,,,,,,,,,,,,METAR,166.0
PAEH 280955Z AUTO 04018KT 010V120 3SM -FZRA BR SCT003 BKN055 OVC090 M02/M02 A2961 RMK AO2 SNB0810E0942 SLP035 P0000 T10171011,PAEH,2023-04-28T09:55:00Z,58.65,-162.07,-1.7,-1.1,40,18,,3.0,29.610237,1003.5,,TRUE,TRUE,,,,,,-FZRA BR,SCT,300,BKN,5500,OVC,9000,,,MVFR,,,,,,0.005,,,,,,METAR,101.0
PAED 280955Z 36005KT 10SM -RA FEW008 SCT035 BKN055 04/02 A2984 RMK AO2A RAB24 SLP102 P0000 T00360016,PAED,2023-04-28T09:55:00Z,61.25,-149.83,3.6,1.6,360,5,,10.0,29.840551,1010.2,,,TRUE,,,,,,-RA,FEW,800,SCT,3500,BKN,5500,,,VFR,,,,,,0.005,,,,,,METAR,54.0
OTBH 280955Z 33008G15KT 9999 CLR 36/01 A2973 Q1006 RMK AO2A SLP068 T03620010 RVRNO FZRANO CHINO RWY34 $,OTBH,2023-04-28T09:55:00Z,25.12,51.32,36.2,1.0,330,8,15,6.21,29.704725,1006.8,,,TRUE,TRUE,,,TRUE,,,CLR,,,,,,,,VFR,,,,,,,,,,,,METAR,40.0
OPFA 280955Z 31006KT 6000 FEW100 35/09 Q1008 NOSIG,OPFA,2023-04-28T09:55:00Z,31.37,73.0,35.0,9.0,310,6,,3.73,29.763779,,,,,,TRUE,,,,,FEW,10000,,,,,,,MVFR,,,,,,,,,,,,METAR,180.0
OKAS 280955Z AUTO 32003KT 9999 CLR 36/M01 A2974 RMK AO2 SLP066 T03561007 FZRANO $,OKAS,2023-04-28T09:55:00Z,29.35,47.52,35.6,-0.7,320,3,,6.21,29.740158,1006.6,,TRUE,TRUE,TRUE,,,TRUE,,,CLR,,,,,,,,VFR,,,,,,,,,,,,METAR,144.0
OEPS 280955Z AUTO 22012G18KT 9999 FEW220 34/11 A2993 RMK AO2 SLP106 WND DATA ESTMD T03380105,OEPS,2023-04-28T09:55:00Z,24.07,47.58,33.8,10.5,220,12,18,6.21,29.929134,1010.6,,TRUE,TRUE,,,,,,,FEW,22000,,,,,,,VFR,,,,,,,,,,,,SPECI,503.0
NZCM 280955Z AUTO 00000KT 9999 CLR M21/M28 A2971 RMK AO2 SLP067 T12121283,NZCM,2023-04-28T09:55:00Z,-77.85,166.67,-21.2,-28.3,0,0,,6.21,29.71063,1006.7,,TRUE,TRUE,,,,,,,CLR,,,,,,,,VFR,,,,,,,,,,,,METAR,24.0
MMAS 280955Z 12002KT 10SM SKC 12/M15 A3010,MMAS,2023-04-28T09:55:00Z,21.7,-102.32,12.0,-15.0,120,2,,10.0,30.100393,,,,,,,,,,,SKC,,,,,,,,VFR,,,,,,,,,,,,METAR,1866.0
LIVT 280955Z VRB02KT 9999 OVC030 14/08 Q1020 RMK OVC QUK 1 QUL 0 VIS MAR 12 KM VIS MIN 9999,LIVT,2023-04-28T09:55:00Z,45.68,13.75,14.0,8.0,0,2,,6.21,30.11811,,,,,,,,,,,OVC,3000,,,,,,,MVFR,,,,,,,,,,,,METAR,20.0
LIVR 280955Z 12009KT 9999 SCT020 05/01 Q1020 RMK BKN SCT060 MON CLD SCT VIS MIN 9999,LIVR,2023-04-28T09:55:00Z,46.28,11.78,5.0,1.0,120,9,,6.21,30.11811,,,,,,,,,,,SCT,2000,,,,,,,VFR,,,,,,,,,,,,METAR,1997.0
LIVP 280955Z 21010KT 0300 FG VV/// 02/00 Q1019 RMK MON INVIS VAL INVIS VIS MIN 0300,LIVP,2023-04-28T09:55:00Z,46.15,11.03,2.0,0.0,210,10,,0.19,30.088583,,,,,,,,,,FG,OVX,0,,,,,,,LIFR,,,,,,,,,,,,METAR,2099.0
LIVO 280955Z 00000KT 9999 BKN035 12/05 Q1018 RMK BKN VIS MIN 9999,LIVO,2023-04-28T09:55:00Z,46.5,13.58,12.0,5.0,0,0,,6.21,30.059055,,,,,,,,,,,BKN,3500,,,,,,,VFR,,,,,,,,,,,,METAR,782.0
LIVM 280955Z AUTO /////KT //// ///// Q////,LIVM,2023-04-28T09:55:00Z,44.45,12.3,,,,,,,,,,TRUE,,,,,,,,,,,,,,,,,,,,,,,,,,,,METAR,6.0
LIVF 280955Z 20006KT CAVOK 19/M03 Q1019,LIVF,2023-04-28T09:55:00Z,43.52,12.72,19.0,-3.0,200,6,,6.21,30.088583,,,,,,,,,,,CAVOK,,,,,,,,VFR,,,,,,,,,,,,METAR,549.0
LIVE 280955Z 21003KT 9999 BKN025 07/04 Q1018 RMK BKN VIS MIN 9999,LIVE,2023-04-28T09:55:00Z,46.82,10.5,7.0,4.0,210,3,,6.21,30.059055,,,,,,,,,,,BKN,2500,,,,,,,MVFR,,,,,,,,,,,,METAR,1684.0
LIVD 280955Z 30004KT 260V340 6000 OVC020 07/05 Q1021 RERA RMK OVC VIS MIN 6000,LIVD,2023-04-28T09:55:00Z,46.72,12.22,7.0,5.0,300,4,,3.73,30.147638,,,,,,,,,,,OVC,2000,,,,,,,MVFR,,,,,,,,,,,,METAR,1221.0
LIVC 280955Z AUTO /////KT //// ///// Q////,LIVC,2023-04-28T09:55:00Z,44.2,10.68,,,,,,,,,,TRUE,,,,,,,,,,,,,,,,,,,,,,,,,,,,METAR,2139.0
LIRX 280955Z 19007KT 0100 FG VV/// 15/13 Q1019 RMK VIS MIN 0100 VIS MAR 0100 M,LIRX,2023-04-28T09:55:00Z,42.73,10.38,15.0,13.0,190,7,,0.06,30.088583,,,,,,,,,,FG,OVX,0,,,,,,,LIFR,,,,,,,,,,,,METAR,397.0
LIRV 280955Z 22011KT CAVOK 20/05 Q1021 RMK SCT FEW080 MON E SE LIB NC VIS MIN 9999 WIND THR04 /////KT BLU,LIRV,2023-04-28T09:55:00Z,42.42,12.07,20.0,5.0,220,11,,6.21,30.147638,,,,,,,,,,,CAVOK,,,,,,,,VFR,,,,,,,,,,,,METAR,294.0
LIRT 280955Z 27011KT 9999 FEW006 13/03 Q1022,LIRT,2023-04-28T09:55:00Z,41.03,15.22,13.0,3.0,270,11,,6.21,30.177166,,,,,,,,,,,FEW,600,,,,,,,VFR,,,,,,,,,,,,METAR,1058.0
LIRS 280955Z 20010KT 9999 FEW025 20/14 Q1020 RMK SCT SCT200 VIS MIN 9999 WIND THR03 21009KT WIND THR21 20009KT BLU,LIRS,2023-04-28T09:55:00Z,42.75,11.07,20.0,14.0,200,10,,6.21,30.11811,,,,,,,,,,,FEW,2500,,,,,,,VFR,,,-0.9,,,,,,,,,METAR,3.0
LIRM 280955Z 18005KT CAVOK 21/10 Q1021 RMK SKC VIS MIN 9999 WIND THR06 21007KT BLU,LIRM,2023-04-28T09:55:00Z,41.05,14.07,21.0,10.0,180,5,,6.21,30.147638,,,,,,,,,,,CAVOK,,,,,,,,VFR,,,-0.7,,,,,,,,,METAR,6.0
LIRL 280955Z 21007KT CAVOK 21/10 Q1021 RMK SKC MON LIB NC VIS MIN 9999 WIND THR12 /////KT WIND THR30 19006KT BLU,LIRL,2023-04-28T09:55:00Z,41.53,12.9,21.0,10.0,210,7,,6.21,30.147638,,,,,,,,,,,CAVOK,,,,,,,,VFR,,,,,,,,,,,,METAR,23.0
LIRK 280955Z AUTO /////KT //// 07/M02 Q1025,LIRK,2023-04-28T09:55:00Z,42.47,12.97,7.0,-2.0,,,,,30.265747,,,TRUE,,,,,,,,,,,,,,,,,,,,,,,,,,,,METAR,1721.0
LIRH 280955Z 14003KT 9999 FEW035 21/08 Q1020 RMK FEW MON LIB NC VIS MIN 9999 WIND THR16 00000KT BLU,LIRH,2023-04-28T09:55:00Z,41.65,13.3,21.0,8.0,140,3,,6.21,30.11811,,,,,,,,,,,FEW,3500,,,,,,,VFR,,,,,,,,,,,,METAR,183.0
LIRG 280955Z 25005KT CAVOK 21/03 Q1022 RMK SKC MON NE LIB NC VIS MIN 9999 BLU,LIRG,2023-04-28T09:55:00Z,42.0,12.73,21.0,3.0,250,5,,6.21,30.177166,,,,,,,,,,,CAVOK,,,,,,,,VFR,,,,,,,,,,,,METAR,82.0
LIRE 280955Z 16005KT CAVOK 17/08 Q1021 RMK SKC VIS MIN 9999 WIND THR13 16006KT WIND THR31 /////KT BLU,LIRE,2023-04-28T09:55:00Z,41.65,12.43,17.0,8.0,160,5,,6.21,30.147638,,,,,,,,,,,CAVOK,,,,,,,,VFR,,,,,,,,,,,,METAR,16.0
LIQW 280955Z 19008KT 9999 FEW020 18/14 Q1021 RMK SCT SCT200 VIS MIN 9999 WIND THR14 /////KT BLU,LIQW,2023-04-28T09:55:00Z,44.08,9.98,18.0,14.0,190,8,,6.21,30.147638,,,,,,,,,,,FEW,2000,,,,,,,VFR,,,,,,,,,,,,METAR,6.0
LIQC 280955Z 27002KT CAVOK 18/06 Q1022 RMK SKC QUK 1 QUL 0 VIS MAR 20 KM VIS MIN 9999,LIQC,2023-04-28T09:55:00Z,40.55,14.2,18.0,6.0,270,2,,6.21,30.177166,,,,,,,,,,,CAVOK,,,,,,,,VFR,,,,,,,,,,,,METAR,154.0
LIPS 280955Z 08002KT 9999 BKN100 17/09 Q1020 RMK BKN BKN200 VIS MIN 9999 WIND THR26 08002KT WIND THR08 10003KT BLU,LIPS,2023-04-28T09:55:00Z,45.68,12.1,17.0,9.0,80,2,,6.21,30.11811,,,,,,,,,,,BKN,10000,,,,,,,VFR,,0.3,,,,,,,,,,METAR,42.0
LIPL 280955Z 13004KT 9999 FEW080 18/06 Q1018 RMK BKN BKN200 VIS MIN 9999 WIND THR31 13004KT WIND THR13 12004KT BLU,LIPL,2023-04-28T09:55:00Z,45.42,10.27,18.0,6.0,130,4,,6.21,30.059055,,,,,,,,,,,FEW,8000,,,,,,,VFR,,,,,,,,,,,,METAR,96.0
LIPI 280955Z 32003KT 9999 FEW060 BKN100 14/09 Q1020 RMK OVC VIS MIN 9999 WIND THR06 01005KT WIND THR24 34003KT BLU,LIPI,2023-04-28T09:55:00Z,45.97,13.05,14.0,9.0,320,3,,6.21,30.11811,,,,,,,,,,,FEW,6000,BKN,10000,,,,,VFR,,,,,,,,,,,,METAR,49.0
LIPF 280955Z 09002KT CAVOK 21/14 Q1019 RMK SCT SCT200 VIS MIN 9999,LIPF,2023-04-28T09:55:00Z,44.82,11.62,21.0,14.0,90,2,,6.21,30.088583,,,,,,,,,,,CAVOK,,,,,,,,VFR,,,,,,,,,,,,METAR,5.0
LIPC 280955Z 03003KT CAVOK 20/10 Q1019 RMK SCT SCT200 VIS MIN 9999 WIND THR11 03003KT WIND THR29 07004KT BLU,LIPC,2023-04-28T09:55:00Z,44.22,12.3,20.0,10.0,30,3,,6.21,30.088583,,,,,,,,,,,CAVOK,,,,,,,,VFR,,,,,,,,,,,,METAR,10.0
LIPA 280955Z 05006KT 9999 FEW050 BKN070 15/11 Q1020 RMK BKN VIS MIN 9999 WIND THR05 /////KT WIND THR23 /////KT A3012 BLU,LIPA,2023-04-28T09:55:00Z,46.02,12.58,15.0,11.0,50,6,,6.21,30.11811,,,,,,,,,,,FEW,5000,BKN,7000,,,,,VFR,,,,,,,,,,,,METAR,113.0
LIMV 280955Z /////KT 9999 FEW008 15/08 Q1020 RMK BKN SCT200 MON LIB VAL NIL VIS MIN 9999,LIMV,2023-04-28T09:55:00Z,44.55,8.93,15.0,8.0,,,,6.21,30.11811,,,,,,,,,,,FEW,800,,,,,,,VFR,,,,,,,,,,,,METAR,474.0
LIMU 280955Z 05005KT 9999 FEW023 17/12 Q1020 RMK BKN QUK 1 QUL 1 E VIS MAR 30 KM VIS MIN 9999,LIMU,2023-04-28T09:55:00Z,43.95,8.17,17.0,12.0,50,5,,6.21,30.11811,,,,,,,,,,,FEW,2300,,,,,,,VFR,,,,,,,,,,,,METAR,215.0
LIMS 280955Z 12002KT CAVOK 17/12 Q1018 RMK BKN BKN240 VIS MIN 9999 WIND THR30 04003KT BLU,LIMS,2023-04-28T09:55:00Z,44.92,9.72,17.0,12.0,120,2,,6.21,30.059055,,,,,,,,,,,CAVOK,,,,,,,,VFR,,,,,,,,,,,,METAR,132.0
LIMN 280955Z 14005KT 100V200 CAVOK 18/07 Q1019 RMK SCT SCT200 VIS MIN 9999 BLU,LIMN,2023-04-28T09:55:00Z,45.52,8.67,18.0,7.0,140,5,,6.21,30.088583,,,,,,,,,,,CAVOK,,,,,,,,VFR,,,,,,,,,,,,METAR,168.0
LIMK 280955Z 00000KT CAVOK 16/10 Q1019,LIMK,2023-04-28T09:55:00Z,45.02,7.72,16.0,10.0,0,0,,6.21,30.088583,,,,,,,,,,,CAVOK,,,,,,,,VFR,,,,,,,,,,,,METAR,693.0
LIMH 280955Z AUTO 32013G28KT //// M01/M05 Q1024,LIMH,2023-04-28T09:55:00Z,45.93,7.7,-1.0,-5.0,320,13,28,,30.236221,,,TRUE,,,,,,,,,,,,,,,,,,,,,,,,,,,,METAR,3473.0
LIED 280955Z 15008KT CAVOK 25/12 Q1019 RMK BKN BKN200 VIS MIN 9999 WIND THR35 /////KT WIND THR17 16006KT BLU,LIED,2023-04-28T09:55:00Z,39.35,8.97,25.0,12.0,150,8,,6.21,30.088583,,,,,,,,,,,CAVOK,,,,,,,,VFR,,,,,,,,,,,,METAR,26.0
LIEB 280955Z 14006KT CAVOK 20/15 Q1020 RMK SKC QUK 2 QUL 0 VIS MAR 30 KM MON LIB VIS MIN 9999,LIEB,2023-04-28T09:55:00Z,39.93,9.72,20.0,15.0,140,6,,6.21,30.11811,,,,,,,,,,,CAVOK,,,,,,,,VFR,,,,,,,,,,,,METAR,126.0
LICZ 280955Z 17002KT CAVOK 22/M03 Q1021 RMK SKC VIS MIN 9999 WIND THR28 09006KT WIND THR10 01002KT A3017 BLU,LICZ,2023-04-28T09:55:00Z,37.4,14.92,22.0,-3.0,170,2,,6.21,30.147638,,,,,,,,,,,CAVOK,,,,,,,,VFR,,,,,,,,,,,,METAR,22.0
LICT 280955Z 21011KT 9999 FEW020 23/15 Q1022 RMK SCT SCT090 VIS MIN 9999 WIND THR13 23013KT BLU,LICT,2023-04-28T09:55:00Z,37.92,12.5,23.0,15.0,210,11,,6.21,30.177166,,,,,,,,,,,FEW,2000,,,,,,,VFR,,,,,,,,,,,,SPECI,4.0
LICF 280955Z 09003KT 9999 FEW040 20/05 Q1021 RMK FEW QUK 1 QUL 0 VIS MAR 20 KM MON LIB NC VIS MIN 9999,LICF,2023-04-28T09:55:00Z,38.2,15.55,20.0,5.0,90,3,,6.21,30.147638,,,,,,,,,,,FEW,4000,,,,,,,VFR,,,,,,,,,,,,METAR,66.0
LIBY 280955Z /////KT CAVOK 18/10 Q1020 RMK SKC QUK 1 QUL 0 VIS MAR 20 KM VIS MIN 9999,LIBY,2023-04-28T09:55:00Z,39.82,18.35,18.0,10.0,,,,6.21,30.11811,,,,,,,,,,,CAVOK,,,,,,,,VFR,,,,,,,,,,,,METAR,105.0
LIBV 280955Z 31006KT CAVOK 18/01 Q1021 RMK BKN FEW200 BKN250 VIS MIN 9999 WIND THR32 33004KT WIND THR14 31004KT BLU,LIBV,2023-04-28T09:55:00Z,40.77,16.93,18.0,1.0,310,6,,6.21,30.147638,,,,,,,,,,,CAVOK,,,,,,,,VFR,,,,,,,,,,,,METAR,344.0
LIBQ 280955Z VRB03KT CAVOK 12/M03 Q1024,LIBQ,2023-04-28T09:55:00Z,39.32,16.38,12.0,-3.0,0,3,,6.21,30.236221,,,,,,,,,,,CAVOK,,,,,,,,VFR,,,,,,,,,,,,METAR,1660.0
LIBN 280955Z 36007KT CAVOK 19/09 Q1021 RMK SCT SCT200 VIS MIN 9999 WIND THR14 35008KT WIND THR32 01008KT BLU,LIBN,2023-04-28T09:55:00Z,40.23,18.13,19.0,9.0,360,7,,6.21,30.147638,,,,,,,,,,,CAVOK,,,,,,,,VFR,,,,,,,,,,,,METAR,46.0
LIBA 280955Z 09007KT CAVOK 20/04 Q1021 RMK SCT SCT230 VIS MIN 9999 WIND THR11 10007KT WIND THR29 /////KT BLU,LIBA,2023-04-28T09:55:00Z,41.53,15.72,20.0,4.0,90,7,,6.21,30.147638,,,,,,,,,,,CAVOK,,,,,,,,VFR,,0.7,,,,,,,,,,METAR,55.0
KXMR 280955Z AUTO 23005KT 10SM FEW210 19/18 A2985 RMK AO2 SLP111 T01880176 $,KXMR,2023-04-28T09:55:00Z,28.47,-80.57,18.8,17.6,230,5,,10.0,29.84941,1011.1,,TRUE,TRUE,TRUE,,,,,,FEW,21000,,,,,,,VFR,,,,,,,,,,,,METAR,5.0
KWRI 280955Z 06006KT 10SM FEW004 FEW200 09/09 A3013 RMK AO2A SLP203 T00880086,KWRI,2023-04-28T09:55:00Z,40.02,-74.58,8.8,8.6,60,6,,10.0,30.129921,1020.3,,,TRUE,,,,,,,FEW,400,FEW,20000,,,,,VFR,,,,,,,,,,,,METAR,35.0
KWRB 280955Z AUTO 20004KT 10SM BKN008 OVC029 18/18 A2978 RMK AO2 CIG 007 RWY33 SLP085 T01790179,KWRB,2023-04-28T09:55:00Z,32.63,-83.58,17.9,17.9,200,4,,10.0,29.778543,1008.5,,TRUE,TRUE,,,,,,,BKN,800,OVC,2900,,,,,IFR,,,,,,,,,,,,SPECI,82.0
KVPS 280955Z AUTO 00000KT 10SM FEW012 20/19 A2977 RMK AO2 SLP087 T01990192 $,KVPS,2023-04-28T09:55:00Z,30.47,-86.52,19.9,19.2,0,0,,10.0,29.769686,1008.7,,TRUE,TRUE,TRUE,,,,,,FEW,1200,,,,,,,VFR,,,,,,,,,,,,SPECI,21.0
KVOK 280955Z AUTO 10004KT 10SM CLR 05/M00 A2980 RMK AO2 SLP096 T00451003,KVOK,2023-04-28T09:55:00Z,43.93,-90.27,4.5,-0.3,100,4,,10.0,29.799213,1009.6,,TRUE,TRUE,,,,,,,CLR,,,,,,,,VFR,,,,,,,,,,,,METAR,278.0
KVBG 280955Z AUTO 00000KT 3/8SM R30/1800V2800FT FG VV000 09/09 A2994 RMK AO2 SLP142 T00860086 TSNO $,KVBG,2023-04-28T09:55:00Z,34.73,-120.58,8.6,8.6,0,0,,0.38,29.940945,1014.2,,TRUE,TRUE,TRUE,,TRUE,,,FG,OVX,0,,,,,,,LIFR,,,,,,,,,,,0,METAR,96.0
KVAD 280955Z AUTO 21006KT 10SM OVC026 19/18 A2979 RMK AO2 CIG 025 RWY36 SLP089 T01890181 $,KVAD,2023-04-28T09:55:00Z,30.97,-83.2,18.9,18.1,210,6,,10.0,29.790354,1008.9,,TRUE,TRUE,TRUE,,,,,,OVC,2600,,,,,,,MVFR,,,,,,,,,,,,METAR,70.0
KTTS 280955Z AUTO 21006KT 10SM CLR M A2985 RMK AO2 SLPNO ALSTG ESTMD $,KTTS,2023-04-28T09:55:00Z,28.58,-80.67,,,210,6,,10.0,29.84941,,,TRUE,TRUE,TRUE,,,,,,CLR,,,,,,,,VFR,,,,,,,,,,,,METAR,1.0
KTIK 280955Z AUTO 30003KT 10SM CLR 08/08 A2979 RMK AO2 SLP094 T00790078,KTIK,2023-04-28T09:55:00Z,35.4,-97.38,7.9,7.8,300,3,,10.0,29.790354,1009.4,,TRUE,TRUE,,,,,,,CLR,,,,,,,,VFR,,,,,,,,,,,,METAR,387.0
KTCM 280955Z AUTO 18003KT 10SM CLR 07/07 A3008 RMK AO2 SLP190 T00690069 $,KTCM,2023-04-28T09:55:00Z,47.13,-122.47,6.9,6.9,180,3,,10.0,30.079725,1019.0,,TRUE,TRUE,TRUE,,,,,,CLR,,,,,,,,VFR,,,,,,,,,,,,METAR,87.0
KT70 280955Z AUTO 11004KT 10SM CLR 15/14 A2975 RMK AO2 SLP063 T01540136 $,KT70,2023-04-28T09:55:00Z,29.12,-100.48,15.4,13.6,110,4,,10.0,29.749016,1006.3,,TRUE,TRUE,TRUE,,,,,,CLR,,,,,,,,VFR,,,,,,,,,,,,METAR,296.0
KSZL 280955Z 00000KT 10SM OVC085 09/08 A2978 RMK AO2A SLP086 T00860080 $,KSZL,2023-04-28T09:55:00Z,38.73,-93.53,8.6,8.0,0,0,,10.0,29.778543,1008.6,,,TRUE,TRUE,,,,,,OVC,8500,,,,,,,VFR,,,,,,,,,,,,METAR,259.0
KSUU 280955Z AUTO 22015KT 10SM CLR 15/09 A2983 RMK AO2 SLP107 T01480089,KSUU,2023-04-28T09:55:00Z,38.27,-121.93,14.8,8.9,220,15,,10.0,29.828741,1010.7,,TRUE,TRUE,,,,,,,CLR,,,,,,,,VFR,,,,,,,,,,,,METAR,9.0
KSSC 280955Z 00000KT 10SM OVC005 19/18 A2974 RMK AO2A DZE00 SLP071 P0000 T01860178 $,KSSC,2023-04-28T09:55:00Z,33.97,-80.47,18.6,17.8,0,0,,10.0,29.740158,1007.1,,,TRUE,TRUE,,,,,,OVC,500,,,,,,,IFR,,,,,,0.005,,,,,,SPECI,71.0
KSLI 280955Z AUTO 00000KT 8SM OVC010 14/12 A2990 RMK AO2 SLP128 T01400119,KSLI,2023-04-28T09:55:00Z,33.78,-118.03,14.0,11.9,0,0,,8.0,29.899607,1012.8,,TRUE,TRUE,,,,,,,OVC,1000,,,,,,,MVFR,,,,,,,,,,,,METAR,8.0
KSKA 280955Z AUTO 00000KT 10SM CLR 07/M05 A3017 RMK AO2 SLP214 T00681046 $,KSKA,2023-04-28T09:55:00Z,47.62,-117.67,6.8,-4.6,0,0,,10.0,30.171259,1021.4,,TRUE,TRUE,TRUE,,,,,,CLR,,,,,,,,VFR,,,,,,,,,,,,METAR,754.0
KSEQ 280955Z AUTO 00000KT 2 3/4SM BR BKN005 15/15 A2976 RMK AO2 VIS 2 3/4V6 BKN V SCT SLP075 T01480146,KSEQ,2023-04-28T09:55:00Z,29.57,-97.9,14.8,14.6,0,0,,2.75,29.760826,1007.5,,TRUE,TRUE,,,,,,BR,BKN,500,,,,,,,IFR,,,,,,,,,,,,METAR,160.0
KSCK 280955Z AUTO 06003KT 10SM CLR 15/10 A2986 RMK AO2 SLP110 T01500100,KSCK,2023-04-28T09:55:00Z,37.88,-121.22,15.0,10.0,60,3,,10.0,29.861221,1011.0,,TRUE,TRUE,,,,,,,CLR,,,,,,,,VFR,,,,,,,,,,,,METAR,8.0
KRYM 280955Z AUTO 01007KT 10SM OVC005 07/07 A2985 RMK AO2 SLP118 T00740067,KRYM,2023-04-28T09:55:00Z,46.08,-94.37,7.4,6.7,10,7,,10.0,29.84941,1011.8,,TRUE,TRUE,,,,,,,OVC,500,,,,,,,IFR,,,,,,,,,,,,SPECI,344.0
KRNO 280955Z 29005KT 10SM CLR 12/M02 A3012 RMK AO2 SLP154 T01221022,KRNO,2023-04-28T09:55:00Z,39.5,-119.77,12.2,-2.2,290,5,,10.0,30.121063,1015.4,,,TRUE,,,,,,,CLR,,,,,,,,VFR,,,,,,,,,,,,METAR,1344.0
KRIV 280955Z AUTO 00000KT 10SM CLR 11/09 A2992 RMK AO2 SLP121 T01060089,KRIV,2023-04-28T09:55:00Z,33.87,-117.23,10.6,8.9,0,0,,10.0,29.920275,1012.1,,TRUE,TRUE,,,,,,,CLR,,,,,,,,VFR,,,,,,,,,,,,METAR,454.0
KRDR 280955Z AUTO 32006KT 10SM OVC120 02/00 A3000 RMK AO2 SLP172 T00180000 $,KRDR,2023-04-28T09:55:00Z,47.93,-97.4,1.8,0.0,320,6,,10.0,30.0,1017.2,,TRUE,TRUE,TRUE,,,,,,OVC,12000,,,,,,,VFR,,,,,,,,,,,,METAR,276.0
KRCA 280955Z AUTO 30016KT 10SM BKN060 OVC075 06/02 A3009 RMK AO2 SLP203 T00550018 $,KRCA,2023-04-28T09:55:00Z,44.15,-103.12,5.5,1.8,300,16,,10.0,30.088583,1020.3,,TRUE,TRUE,TRUE,,,,,,BKN,6000,OVC,7500,,,,,VFR,,,,,,,,,,,,METAR,993.0
KQTZ 280955Z 18007KT 9999 FEW180 36/04 A2968 RMK SLP051,KQTZ,2023-04-28T09:55:00Z,,,36.0,4.0,180,7,,6.21,29.681103,1005.1,,,,,,,,,,FEW,18000,,,,,,,VFR,,,,,,,,,,,,SPECI,
KQRH 280955Z AUTO 07011G17KT 030V100 9999 CLR 34/24 A2971 RMK AO2 LTG DSNT NW SLP063 WND DATA ESTMD T03360239,KQRH,2023-04-28T09:55:00Z,,,33.6,23.9,70,11,17,6.21,29.71063,1006.3,,TRUE,TRUE,,,,,,,CLR,,,,,,,,VFR,,,,,,,,,,,,METAR,
KQN3 280955Z 23009KT 9999 CLR 35/20 A2990 RMK SLP107 WND DATA ESTMD T03440208,KQN3,2023-04-28T09:55:00Z,,,34.4,20.8,230,9,,6.21,29.899607,1010.7,,,,,,,,,,CLR,,,,,,,,VFR,,,,,,,,,,,,METAR,
KQDG 280955Z AUTO 00000KT 9999 CLR 12/04 A3006 RMK AO2 SLPNO T01180040 $,KQDG,2023-04-28T09:55:00Z,,,11.8,4.0,0,0,,6.21,30.059055,,,TRUE,TRUE,TRUE,,,,,,CLR,,,,,,,,VFR,,,,,,,,,,,,METAR,
KQD3 280955Z AUTO 05009KT 9999 CLR 35/22 A2976 RMK AO2 LTG DSNT NW SLP062 WND DATA ESTMD T03530220,KQD3,2023-04-28T09:55:00Z,,,35.3,22.0,50,9,,6.21,29.760826,1006.2,,TRUE,TRUE,,,,,,,CLR,,,,,,,,VFR,,,,,,,,,,,,METAR,
KQBR 280955Z AUTO 10012G21KT 10SM CLR 09/M04 A3020 RMK AO2 SLP164 WND DATA ESTMD T00921037,KQBR,2023-04-28T09:55:00Z,,,9.2,-3.7,100,12,21,10.0,30.200787,1016.4,,TRUE,TRUE,,,,,,,CLR,,,,,,,,VFR,,,,,,,,,,,,METAR,
KQAZ 280955Z AUTO 11008G17KT 9999 SCT170 38/M01 A2994 RMK AO2 SLP130 WND DATA ESTMD T03761009,KQAZ,2023-04-28T09:55:00Z,,,37.6,-0.9,110,8,17,6.21,29.940945,1013.0,,TRUE,TRUE,,,,,,,SCT,17000,,,,,,,VFR,,,,,,,,,,,,METAR,
KPSM 280955Z 30003KT 7SM FEW250 03/02 A3022 RMK AO2A SLP237 T00300024,KPSM,2023-04-28T09:55:00Z,43.08,-70.82,3.0,2.4,300,3,,7.0,30.221457,1023.7,,,TRUE,,,,,,,FEW,25000,,,,,,,VFR,,,,,,,,,,,,METAR,34.0
KPOE 280955Z AUTO 00000KT 10SM CLR 11/11 A2979 RMK AO2 SLP089 T01120110,KPOE,2023-04-28T09:55:00Z,31.05,-93.2,11.2,11.0,0,0,,10.0,29.790354,1008.9,,TRUE,TRUE,,,,,,,CLR,,,,,,,,VFR,,,,,,,,,,,,METAR,98.0
KPHP 280955Z AUTO 32004KT 10SM OVC085 04/03 A3008 RMK AO2 SLP187 T00440028 $,KPHP,2023-04-28T09:55:00Z,44.05,-101.6,4.4,2.8,320,4,,10.0,30.079725,1018.7,,TRUE,TRUE,TRUE,,,,,,OVC,8500,,,,,,,VFR,,,,,,,,,,,,METAR,673.0
KPAM 280955Z 24006KT 10SM BKN020 22/21 A2977 RMK AO2A SLP084 T02180209 $,KPAM,2023-04-28T09:55:00Z,30.07,-85.57,21.8,20.9,240,6,,10.0,29.769686,1008.4,,,TRUE,TRUE,,,,,,BKN,2000,,,,,,,MVFR,,,,,,,,,,,,SPECI,4.0
KP58 280955Z AUTO 08005KT 07/03 A2993 RMK AO1 SLP139 T00670028,KP58,2023-04-28T09:55:00Z,44.02,-82.8,6.7,2.8,80,5,,,29.929134,1013.9,,TRUE,TRUE,,,,,,,,,,,,,,,,,,,,,,,,,,,SPECI,180.0
KOZR 280955Z AUTO 21005KT 10SM OVC010 18/18 A2977 RMK AO2 SLP082 T01820180,KOZR,2023-04-28T09:55:00Z,31.28,-85.72,18.2,18.0,210,5,,10.0,29.769686,1008.2,,TRUE,TRUE,,,,,,,OVC,1000,,,,,,,MVFR,,,,,,,,,,,,METAR,90.0
KOFF 280955Z 00000KT 10SM SCT070 BKN140 11/06 A2980 RMK AO2A SLP093 T01130056 PWINO PNO FZRANO TSNO CHINO RWY31 $,KOFF,2023-04-28T09:55:00Z,41.12,-95.92,11.3,5.6,0,0,,10.0,29.799213,1009.3,,,TRUE,TRUE,,TRUE,TRUE,TRUE,,SCT,7000,BKN,14000,,,,,VFR,,,,,,,,,,,,METAR,308.0
KNTD 280955Z AUTO 00000KT OVC002 11/11 A2994 RMK AO2 SLP139 T01110111 $,KNTD,2023-04-28T09:55:00Z,34.12,-119.12,11.1,11.1,0,0,,,29.940945,1013.9,,TRUE,TRUE,TRUE,,,,,,OVC,200,,,,,,,,,,,,,,,,,,,SPECI,1.0
KNKX 280955Z 31003KT 4SM BR OVC002 12/12 A2992 RMK AO2 SLP127 T01220122,KNKX,2023-04-28T09:55:00Z,32.87,-117.13,12.2,12.2,310,3,,4.0,29.920275,1012.7,,,TRUE,,,,,,BR,OVC,200,,,,,,,LIFR,,,,,,,,,,,,SPECI,138.0
KNBG 280955Z AUTO 28004KT 7SM SCT041 BKN055 21/21 A2979 RMK AO2 SLP087 T02110206 $,KNBG,2023-04-28T09:55:00Z,29.83,-90.02,21.1,20.6,280,4,,7.0,29.790354,1008.7,,TRUE,TRUE,TRUE,,,,,,SCT,4100,BKN,5500,,,,,VFR,,,,,,,,,,,,METAR,0.0
KMXF 280955Z AUTO 16005KT 10SM SCT012 OVC017 18/15 A2973 RMK AO2 CIG 011V017 SLP069 T01810153,KMXF,2023-04-28T09:55:00Z,32.38,-86.37,18.1,15.3,160,5,,10.0,29.731298,1006.9,,TRUE,TRUE,,,,,,,SCT,1200,OVC,1700,,,,,MVFR,,,,,,,,,,,,METAR,47.0
KMUO 280955Z AUTO 08014KT 10SM CLR 08/M05 A3019 RMK AO2 SLP214 T00751049,KMUO,2023-04-28T09:55:00Z,43.03,-115.87,7.5,-4.9,80,14,,10.0,30.188976,1021.4,,TRUE,TRUE,,,,,,,CLR,,,,,,,,VFR,,,,,,,,,,,,SPECI,915.0
KMTC 280955Z AUTO 02005KT 10SM FEW160 06/01 A2986 RMK AO2 SLP119 T00600011 $,KMTC,2023-04-28T09:55:00Z,42.62,-82.83,6.0,1.1,20,5,,10.0,29.861221,1011.9,,TRUE,TRUE,TRUE,,,,,,FEW,16000,,,,,,,VFR,,,,,,,,,,,,METAR,177.0
KMKG 280955Z 04003KT 10SM SCT250 07/M01 A2988 RMK AO2 SLP119 T00671006,KMKG,2023-04-28T09:55:00Z,43.17,-86.23,6.7,-0.6,40,3,,10.0,29.878937,1011.9,,,TRUE,,,,,,,SCT,25000,,,,,,,VFR,,,,,,,,,,,,METAR,190.0
KMIB 280955Z 34005KT 10SM OVC070 02/01 A3005 RMK AO2A SLP193 T00230013 $,KMIB,2023-04-28T09:55:00Z,48.42,-101.35,2.3,1.3,340,5,,10.0,30.050198,1019.3,,,TRUE,TRUE,,,,,,OVC,7000,,,,,,,VFR,,,,,,,,,,,,METAR,505.0
KMCF 280955Z AUTO 18010KT 10SM FEW120 23/21 A2980 RMK AO2 SLP094 T02310212 FZRANO $,KMCF,2023-04-28T09:55:00Z,27.85,-82.52,23.1,21.2,180,10,,10.0,29.799213,1009.4,,TRUE,TRUE,TRUE,,,TRUE,,,FEW,12000,,,,,,,VFR,,,,,,,,,,,,METAR,3.0
KLUF 280955Z AUTO 00000KT 9SM CLR 21/M04 A2978 RMK AO2 SLP070 T02111042 $,KLUF,2023-04-28T09:55:00Z,33.53,-112.37,21.1,-4.2,0,0,,9.0,29.778543,1007.0,,TRUE,TRUE,TRUE,,,,,,CLR,,,,,,,,VFR,,,,,,,,,,,,METAR,333.0
KLTS 280955Z AUTO 04010KT 10SM SCT120 BKN140 11/09 A2981 RMK AO2 SLP090 T01050086,KLTS,2023-04-28T09:55:00Z,34.67,-99.27,10.5,8.6,40,10,,10.0,29.811024,1009.0,,TRUE,TRUE,,,,,,,SCT,12000,BKN,14000,,,,,VFR,,,,,,,,,,,,METAR,416.0
KLSV 280955Z AUTO 00000KT 10SM CLR 19/M06 A2986 RMK AO2 SLP090 T01891060 $,KLSV,2023-04-28T09:55:00Z,36.23,-115.05,18.9,-6.0,0,0,,10.0,29.861221,1009.0,,TRUE,TRUE,TRUE,,,,,,CLR,,,,,,,,VFR,,,,,,,,,,,,METAR,563.0
KLNC 280955Z AUTO 00000KT 10SM CLR 10/10 A2981 RMK AO2 T01000095,KLNC,2023-04-28T09:55:00Z,32.58,-96.72,10.0,9.5,0,0,,10.0,29.811024,,,TRUE,TRUE,,,,,,,CLR,,,,,,,,VFR,,,,,,,,,,,,METAR,152.0
KLLJ 280955Z AUTO 16005KT 10SM CLR 03/M05 A3028 RMK AO2 SLP230 T00281050,KLLJ,2023-04-28T09:55:00Z,44.52,-114.22,2.8,-5.0,160,5,,10.0,30.280512,1023.0,,TRUE,TRUE,,,,,,,CLR,,,,,,,,VFR,,,,,,,,,,,,METAR,1535.0
KLHW 280955Z AUTO 22005KT 10SM FEW004 OVC018 18/18 A2977 RMK AO2 SLP084 T01840179 $,KLHW,2023-04-28T09:55:00Z,31.88,-81.57,18.4,17.9,220,5,,10.0,29.769686,1008.4,,TRUE,TRUE,TRUE,,,,,,FEW,400,OVC,1800,,,,,MVFR,,,,,,,,,,,,METAR,14.0
KLGF 280955Z AUTO 00000KT M M CLR 21/02 A2976 RMK AO2 SLP075 T02060024 RVRNO PWINO TSNO $,KLGF,2023-04-28T09:55:00Z,32.87,-114.4,20.6,2.4,0,0,,,29.760826,1007.5,,TRUE,TRUE,TRUE,,TRUE,,TRUE,,CLR,,,,,,,,,,,,,,,,,,,,METAR,118.0
KLFI 280955Z 08019KT 8SM -RA FEW050 15/15 A2990 RMK AO2A SLP132 P0003 T01540152 $,KLFI,2023-04-28T09:55:00Z,37.08,-76.33,15.4,15.2,80,19,,8.0,29.899607,1013.2,,,TRUE,TRUE,,,,,-RA,FEW,5000,,,,,,,VFR,,,,,,0.03,,,,,,METAR,2.0
KLCK 280955Z AUTO 08009G14KT 10SM OVC009 13/12 A2971 RMK AO2 T01260117,KLCK,2023-04-28T09:55:00Z,39.82,-82.92,12.6,11.7,80,9,14,10.0,29.71063,,,TRUE,TRUE,,,,,,,OVC,900,,,,,,,IFR,,,,,,,,,,,,METAR,225.0
KJVL 280955Z AUTO 00000KT 10SM CLR 03/00 A2983 RMK AO2,KJVL,2023-04-28T09:55:00Z,42.62,-89.05,3.0,0.0,0,0,,10.0,29.828741,,,TRUE,TRUE,,,,,,,CLR,,,,,,,,VFR,,,,,,,,,,,,SPECI,244.0
KIRK 280955Z AUTO 00000KT 10SM CLR 06/02 A2981 RMK AO2 SLP097 T00560022,KIRK,2023-04-28T09:55:00Z,40.1,-92.55,5.6,2.2,0,0,,10.0,29.811024,1009.7,,TRUE,TRUE,,,,,,,CLR,,,,,,,,VFR,,,,,,,,,,,,METAR,292.0
KINS 280955Z AUTO 22005KT 10SM CLR 15/M09 A2998 RMK AO2 SLP112 T01491092 $,KINS,2023-04-28T09:55:00Z,36.58,-115.68,14.9,-9.2,220,5,,10.0,29.97933,1011.2,,TRUE,TRUE,TRUE,,,,,,CLR,,,,,,,,VFR,,,,,,,,,,,,METAR,954.0
KIAB 280955Z AUTO 01003KT 8SM OVC055 10/09 A2979 RMK AO2 SLP088 T01010093 $,KIAB,2023-04-28T09:55:00Z,37.62,-97.27,10.1,9.3,10,3,,8.0,29.790354,1008.8,,TRUE,TRUE,TRUE,,,,,,OVC,5500,,,,,,,VFR,,,,,,,,,,,,METAR,413.0
KHRT 280955Z 00000KT 10SM CLR 21/19 A2975 RMK AO2A SLP076 T02050193 $,KHRT,2023-04-28T09:55:00Z,30.42,-86.68,20.5,19.3,0,0,,10.0,29.749016,1007.6,,,TRUE,TRUE,,,,,,CLR,,,,,,,,VFR,,,,,,,,,,,,METAR,10.0
KHOP 280955Z AUTO 00000KT 10SM OVC002 14/14 A2967 RMK AO2 SLP048 T01400138,KHOP,2023-04-28T09:55:00Z,36.67,-87.5,14.0,13.8,0,0,,10.0,29.66929,1004.8,,TRUE,TRUE,,,,,,,OVC,200,,,,,,,LIFR,,,,,,,,,,,,METAR,170.0
KHON 280955Z AUTO 01018G28KT 10SM FEW013 OVC037 07/05 A2993 RMK AO2 PK WND 36035/0917 SLP137 T00670050,KHON,2023-04-28T09:55:00Z,44.38,-98.23,6.7,5.0,10,18,28,10.0,29.929134,1013.7,,TRUE,TRUE,,,,,,,FEW,1300,OVC,3700,,,,,VFR,,,,,,,,,,,,METAR,391.0
KHMN 280955Z AUTO 05006KT 10SM CLR 11/M12 A2986 RMK AO2 SLP057 T01051122 $,KHMN,2023-04-28T09:55:00Z,32.85,-106.1,10.5,-12.2,50,6,,10.0,29.861221,1005.7,,TRUE,TRUE,TRUE,,,,,,CLR,,,,,,,,VFR,,,,,,,,,,,,METAR,1240.0
KHLR 280955Z AUTO 15005KT 10SM CLR 14/12 A2976 RMK AO2 SLP071 T01370119,KHLR,2023-04-28T09:55:00Z,31.13,-97.72,13.7,11.9,150,5,,10.0,29.760826,1007.1,,TRUE,TRUE,,,,,,,CLR,,,,,,,,VFR,,,,,,,,,,,,METAR,271.0
KHIF 280955Z AUTO 08011G23KT 10SM CLR 08/M04 A3016 RMK AO2 PK WND 09033/05 SLP182 T00771038,KHIF,2023-04-28T09:55:00Z,41.12,-111.97,7.7,-3.8,80,11,23,10.0,30.159449,1018.2,,TRUE,TRUE,,,,,,,CLR,,,,,,,,VFR,,,,,,,,,,,,SPECI,1461.0
KGXF 280955Z AUTO 16003KT 10SM CLR 20/M09 A2979 RMK AO2 SLP076 T02031090 FZRANO $,KGXF,2023-04-28T09:55:00Z,32.88,-112.72,20.3,-9.0,160,3,,10.0,29.790354,1007.6,,TRUE,TRUE,TRUE,,,TRUE,,,CLR,,,,,,,,VFR,,,,,,,,,,,,METAR,261.0
KGXA 280955Z AUTO 28005KT 10SM CLR 14/M02 A2994 RMK AO2 SLP110 WND DATA ESTMD T01411022,KGXA,2023-04-28T09:55:00Z,34.57,-117.67,14.1,-2.2,280,5,,10.0,29.940945,1011.0,,TRUE,TRUE,,,,,,,CLR,,,,,,,,VFR,,,,,,,,,,,,METAR,927.0
KGUS 280955Z AUTO 02008KT 9SM -RA OVC065 06/06 A2976 RMK AO2 SLP082 P0003 T00640058 TSNO $,KGUS,2023-04-28T09:55:00Z,40.63,-86.15,6.4,5.8,20,8,,9.0,29.760826,1008.2,,TRUE,TRUE,TRUE,,TRUE,,,-RA,OVC,6500,,,,,,,VFR,,,,,,0.03,,,,,,METAR,245.0
KGUR 280955Z AUTO 33008KT 10SM FEW010 SCT018 OVC025 03/02 A3019 RMK AO2 RAB0856E18RAB20E44 SLP249 P0000 T00270023,KGUR,2023-04-28T09:55:00Z,42.25,-104.72,2.7,2.3,330,8,,10.0,30.188976,1024.9,,TRUE,TRUE,,,,,,,FEW,1000,SCT,1800,OVC,2500,,,MVFR,,,,,,0.005,,,,,,METAR,1341.0
KGTB 280955Z AUTO 15012KT 10SM CLR 07/02 A3009 RMK AO2 SLP192 T00670016,KGTB,2023-04-28T09:55:00Z,44.07,-75.72,6.7,1.6,150,12,,10.0,30.088583,1019.2,,TRUE,TRUE,,,,,,,CLR,,,,,,,,VFR,,,,,,,,,,,,METAR,206.0
KGRK 280955Z AUTO 15005KT 10SM CLR 12/11 A2974 RMK AO2 SLP065 T01230110,KGRK,2023-04-28T09:55:00Z,31.07,-97.83,12.3,11.0,150,5,,10.0,29.740158,1006.5,,TRUE,TRUE,,,,,,,CLR,,,,,,,,VFR,,,,,,,,,,,,METAR,311.0
KGRF 280955Z AUTO 00000KT 10SM CLR 08/06 A3006 RMK AO2 SLP183 T00790055 $,KGRF,2023-04-28T09:55:00Z,47.07,-122.57,7.9,5.5,0,0,,10.0,30.059055,1018.3,,TRUE,TRUE,TRUE,,,,,,CLR,,,,,,,,VFR,,,,,,,,,,,,SPECI,91.0
KGPI 280955Z AUTO 00000KT 10SM CLR M03/M05 A3022 RMK AO2 SLP246 T10281050,KGPI,2023-04-28T09:55:00Z,48.32,-114.25,-2.8,-5.0,0,0,,10.0,30.221457,1024.6,,TRUE,TRUE,,,,,,,CLR,,,,,,,,VFR,,,,,,,,,,,,METAR,903.0
KGOV 280955Z AUTO 00000KT 9SM CLR M02/M03 A2994 RMK AO2 SLP152 T10161026 $,KGOV,2023-04-28T09:55:00Z,44.68,-84.73,-1.6,-2.6,0,0,,9.0,29.940945,1015.2,,TRUE,TRUE,TRUE,,,,,,CLR,,,,,,,,VFR,,,,,,,,,,,,METAR,350.0
KGFA 280955Z AUTO 24010KT 10SM CLR 04/M02 A3016 RMK AO2 SLP234 T00411019 $,KGFA,2023-04-28T09:55:00Z,47.5,-111.18,4.1,-1.9,240,10,,10.0,30.159449,1023.4,,TRUE,TRUE,TRUE,,,,,,CLR,,,,,,,,VFR,,,,,,,,,,,,SPECI,1058.0
KFSI 280955Z AUTO 03005KT 10SM FEW110 09/09 A2981 RMK AO2 SLP092 T00870085 FZRANO $,KFSI,2023-04-28T09:55:00Z,34.65,-98.4,8.7,8.5,30,5,,10.0,29.811024,1009.2,,TRUE,TRUE,TRUE,,,TRUE,,,FEW,11000,,,,,,,VFR,,,,,,,,,,,,METAR,360.0
KFRI 280955Z AUTO 22004KT 10SM SCT080 OVC130 08/08 A2982 RMK AO2 SLP095 T00820081,KFRI,2023-04-28T09:55:00Z,39.05,-96.77,8.2,8.1,220,4,,10.0,29.819881,1009.5,,TRUE,TRUE,,,,,,,SCT,8000,OVC,13000,,,,,VFR,,,,,,,,,,,,METAR,232.0
KFHU 280955Z AUTO 25010KT 10SM CLR 16/M09 A3000 RMK AO2 SLP099 T01621089,KFHU,2023-04-28T09:55:00Z,31.58,-110.35,16.2,-8.9,250,10,,10.0,30.0,1009.9,,TRUE,TRUE,,,,,,,CLR,,,,,,,,VFR,,,,,,,,,,,,METAR,1424.0
KFCS 280955Z AUTO 36025G33KT 10SM FEW029 03/M01 A3009 RMK AO2 PK WND 34040/53 RAB10E23 SLP176 P0000 T00251011 $,KFCS,2023-04-28T09:55:00Z,38.67,-104.77,2.5,-1.1,360,25,33,10.0,30.088583,1017.6,,TRUE,TRUE,TRUE,,,,,,FEW,2900,,,,,,,VFR,,,,,,0.005,,,,,,SPECI,1789.0
KFAF 280955Z AUTO 09007KT 10SM -RA FEW037 15/13 A2988 RMK AO2 SLP122 P0010 T01480132 $,KFAF,2023-04-28T09:55:00Z,37.13,-76.62,14.8,13.2,90,7,,10.0,29.878937,1012.2,,TRUE,TRUE,TRUE,,,,,-RA,FEW,3700,,,,,,,VFR,,,,,,0.1,,,,,,METAR,3.0
KEND 280955Z AUTO 23005KT 10SM SCT120 BKN150 08/08 A2979 RMK AO2 SLP089 T00810077 $,KEND,2023-04-28T09:55:00Z,36.33,-97.92,8.1,7.7,230,5,,10.0,29.790354,1008.9,,TRUE,TRUE,TRUE,,,,,,SCT,12000,BKN,15000,,,,,VFR,,,,,,,,,,,,METAR,392.0
KEGI 280955Z AUTO 24003KT 10SM SCT009 20/19 A2976 RMK AO2 SLP077 T02000188 TSNO $,KEGI,2023-04-28T09:55:00Z,30.65,-86.52,20.0,18.8,240,3,,10.0,29.760826,1007.7,,TRUE,TRUE,TRUE,,TRUE,,,,SCT,900,,,,,,,VFR,,,,,,,,,,,,METAR,59.0
KEDW 280955Z AUTO 23007KT 10SM CLR 15/02 A2991 RMK AO2 SLP108 T01540019,KEDW,2023-04-28T09:55:00Z,34.9,-117.87,15.4,1.9,230,7,,10.0,29.911417,1010.8,,TRUE,TRUE,,,,,,,CLR,,,,,,,,VFR,,,,,,,,,,,,SPECI,698.0
KEAT 280955Z AUTO VRB03KT 10SM CLR 11/02 A3018 RMK AO2 SLP216 T01110022 $,KEAT,2023-04-28T09:55:00Z,47.4,-120.2,11.1,2.2,0,3,,10.0,30.180119,1021.6,,TRUE,TRUE,TRUE,,,,,,CLR,,,,,,,,VFR,,,,,,,,,,,,METAR,375.0
KDYS 280955Z AUTO 18018KT 10SM CLR 17/03 A2963 RMK AO2 SLP001 T01710034,KDYS,2023-04-28T09:55:00Z,32.42,-99.83,17.1,3.4,180,18,,10.0,29.630905,1000.1,,TRUE,TRUE,,,,,,,CLR,,,,,,,,VFR,,,,,,,,,,,,METAR,544.0
KDOV 280955Z AUTO 09010G16KT 10SM CLR 12/11 A3005 RMK AO2 SLP180 T01240108,KDOV,2023-04-28T09:55:00Z,39.12,-75.47,12.4,10.8,90,10,16,10.0,30.050198,1018.0,,TRUE,TRUE,,,,,,,CLR,,,,,,,,VFR,,,,,,,,,,,,METAR,6.0
KDMA 280955Z AUTO 15008KT 10SM CLR 16/M05 A2989 RMK AO2 SLP127 T01551050 RVRNO VISNO RWY30 $,KDMA,2023-04-28T09:55:00Z,32.17,-110.88,15.5,-5.0,150,8,,10.0,29.890747,1012.7,,TRUE,TRUE,TRUE,,,,,,CLR,,,,,,,,VFR,,,,,,,,,,,,METAR,804.0
KDLH 280955Z 08008KT 5SM BR OVC004 04/03 A2989 RMK AO2 RAE17 SLP131 P0000 T00390028 $,KDLH,2023-04-28T09:55:00Z,46.85,-92.2,3.9,2.8,80,8,,5.0,29.890747,1013.1,,,TRUE,TRUE,,,,,BR,OVC,400,,,,,,,LIFR,,,,,,0.005,,,,,,METAR,434.0
KDLF 280955Z AUTO 15006KT 9SM CLR 17/14 A2974 RMK AO2 SLP061 T01680139 $,KDLF,2023-04-28T09:55:00Z,29.37,-100.78,16.8,13.9,150,6,,9.0,29.740158,1006.1,,TRUE,TRUE,TRUE,,,,,,CLR,,,,,,,,VFR,,,,,,,,,,,,METAR,328.0
KDAA 280955Z AUTO 00000KT 8SM -RA OVC007 13/13 A2996 RMK AO2 SLP148 P0006 T01270127 $,KDAA,2023-04-28T09:55:00Z,38.72,-77.17,12.7,12.7,0,0,,8.0,29.958662,1014.8,,TRUE,TRUE,TRUE,,,,,-RA,OVC,700,,,,,,,IFR,,,,,,0.06,,,,,,METAR,17.0
KCVS 280955Z AUTO 02030G36KT 9SM CLR 10/05 A2984 RMK AO2 PK WND 36043/14 SLP057 T00980054 $,KCVS,2023-04-28T09:55:00Z,34.37,-103.32,9.8,5.4,20,30,36,9.0,29.840551,1005.7,,TRUE,TRUE,TRUE,,,,,,CLR,,,,,,,,VFR,,,,,,,,,,,,SPECI,1305.0
KCOF 280955Z AUTO 18005KT 10SM CLR 20/18 A2985 RMK AO2 SLP113 T02010180 $,KCOF,2023-04-28T09:55:00Z,28.23,-80.6,20.1,18.0,180,5,,10.0,29.84941,1011.3,,TRUE,TRUE,TRUE,,,,,,CLR,,,,,,,,VFR,,,,,,,,,,,,METAR,1.0
KCMY 280955Z AUTO 00000KT 10SM CLR 10/M01 A2980 RMK AO2 SLP094 T00981010 FZRANO $,KCMY,2023-04-28T09:55:00Z,43.97,-90.73,9.8,-1.0,0,0,,10.0,29.799213,1009.4,,TRUE,TRUE,TRUE,,,TRUE,,,CLR,,,,,,,,VFR,,,,,,,,,,,,METAR,253.0
KCMA 280955Z AUTO 00000KT 4SM BR OVC003 12/11 A2993 RMK AO2 SLP142 T01220111,KCMA,2023-04-28T09:55:00Z,34.22,-119.1,12.2,11.1,0,0,,4.0,29.929134,1014.2,,TRUE,TRUE,,,,,,BR,OVC,300,,,,,,,LIFR,,,,,,,,,,,,METAR,20.0
KCBM 280955Z 23005KT 10SM OVC060 15/14 A2968 RMK AO2A SLP052 T01490143 $,KCBM,2023-04-28T09:55:00Z,33.65,-88.45,14.9,14.3,230,5,,10.0,29.681103,1005.2,,,TRUE,TRUE,,,,,,OVC,6000,,,,,,,VFR,,,,,,,,,,,,SPECI,59.0
KBYS 280955Z AUTO 05007KT 10SM CLR 18/M06 A2988 RMK AO2 SLP094 T01791061 $,KBYS,2023-04-28T09:55:00Z,35.28,-116.63,17.9,-6.1,50,7,,10.0,29.878937,1009.4,,TRUE,TRUE,TRUE,,,,,,CLR,,,,,,,,VFR,,,,,,,,,,,,METAR,717.0
KBLV 280955Z 33004KT 8SM OVC080 11/09 A2976 RMK AO2A SLP081 T01080092 $,KBLV,2023-04-28T09:55:00Z,38.53,-89.83,10.8,9.2,330,4,,8.0,29.760826,1008.1,,,TRUE,TRUE,,,,,,OVC,8000,,,,,,,VFR,,,,,,,,,,,,METAR,134.0
KBIX 280955Z AUTO 00000KT 10SM CLR 19/18 A2975 RMK AO2 SLP077 T01940182,KBIX,2023-04-28T09:55:00Z,30.42,-88.92,19.4,18.2,0,0,,10.0,29.749016,1007.7,,TRUE,TRUE,,,,,,,CLR,,,,,,,,VFR,,,,,,,,,,,,METAR,4.0
KBIF 280955Z 27018G27KT 7SM FEW250 22/M08 A2984 RMK AO2A PK WND 26027/0951 SLPNO ALSTG WND DATA ESTMD RVRNO T02171083 $,KBIF,2023-04-28T09:55:00Z,31.85,-106.38,21.7,-8.3,270,18,27,7.0,29.840551,,,,TRUE,TRUE,,,,,,FEW,25000,,,,,,,VFR,,,,,,,,,,,,METAR,1201.0
KBAD 280955Z AUTO 33003KT 10SM CLR 12/10 A2977 RMK AO2 SLP084 T01200102,KBAD,2023-04-28T09:55:00Z,32.5,-93.67,12.0,10.2,330,3,,10.0,29.769686,1008.4,,TRUE,TRUE,,,,,,,CLR,,,,,,,,VFR,,,,,,,,,,,,METAR,49.0
KBAB 280955Z AUTO 04008KT 10SM CLR 21/08 A2984 RMK AO2 SLP107 T02050082 $,KBAB,2023-04-28T09:55:00Z,39.13,-121.43,20.5,8.2,40,8,,10.0,29.840551,1010.7,,TRUE,TRUE,TRUE,,,,,,CLR,,,,,,,,VFR,,,,,,,,,,,,SPECI,31.0
KAST 280955Z AUTO 13003KT 10SM CLR 12/08 A2999 RMK AO2 SLP154 T01170078,KAST,2023-04-28T09:55:00Z,46.15,-123.88,11.7,7.8,130,3,,10.0,29.991142,1015.4,,TRUE,TRUE,,,,,,,CLR,,,,,,,,VFR,,,,,,,,,,,,METAR,3.0
KAPG 280955Z 08013KT 10SM OVC022 12/08 A3006 RMK AO2A SLP182 T01150084 $,KAPG,2023-04-28T09:55:00Z,39.47,-76.17,11.5,8.4,80,13,,10.0,30.059055,1018.2,,,TRUE,TRUE,,,,,,OVC,2200,,,,,,,MVFR,,,,,,,,,,,,METAR,18.0
KANJ 280955Z AUTO 09003KT 10SM OVC055 05/01 A2999 RMK AO2 SLP158 T00500011,KANJ,2023-04-28T09:55:00Z,46.47,-84.37,5.0,1.1,90,3,,10.0,29.991142,1015.8,,TRUE,TRUE,,,,,,,OVC,5500,,,,,,,VFR,,,,,,,,,,,,METAR,220.0
KAAT 280955Z AUTO 00000KT 10SM CLR 05/01 A3011 RMK AO2 SLP168 T00500006,KAAT,2023-04-28T09:55:00Z,41.48,-120.57,5.0,0.6,0,0,,10.0,30.109253,1016.8,,TRUE,TRUE,,,,,,,CLR,,,,,,,,VFR,,,,,,,,,,,,METAR,1336.0
K9L2 280955Z AUTO 36005KT M M M M M RMK AO2 SLPNO RVRNO $,K9L2,2023-04-28T09:55:00Z,34.98,-117.87,,,360,5,,,,,,TRUE,TRUE,TRUE,,,,,,,,,,,,,,,,,,,,,,,,,,METAR,697.0
K5R8 280955Z AUTO 00000KT 10SM CLR 12/11 A2980 RMK AO2 T01150110,K5R8,2023-04-28T09:55:00Z,30.43,-93.47,11.5,11.0,0,0,,10.0,29.799213,,,TRUE,TRUE,,,,,,,CLR,,,,,,,,VFR,,,,,,,,,,,,SPECI,26.0
K4MR 280955Z AUTO 02021G30KT 10SM FEW028 SCT180 10/05 A2985 RMK AO2 PK WND 03032/38 SLP039 T01000050 $,K4MR,2023-04-28T09:55:00Z,34.3,-103.8,10.0,5.0,20,21,30,10.0,29.84941,1003.9,,TRUE,TRUE,TRUE,,,,,,FEW,2800,SCT,18000,,,,,VFR,,,,,,,,,,,,METAR,1339.0
K1YT 280955Z AUTO 14003KT 10SM CLR 07/01 A3013 RMK AO2 SLP206 T00710007 $,K1YT,2023-04-28T09:55:00Z,46.67,-120.45,7.1,0.7,140,3,,10.0,30.129921,1020.6,,TRUE,TRUE,TRUE,,,,,,CLR,,,,,,,,VFR,,,,,,,,,,,,METAR,423.0
K1OW 280955Z AUTO 34021KT 10SM SCT014 BKN170 01/M01 A3023 RMK AO2 PK WND 34030/51 SLP242 T00081007 $,K1OW,2023-04-28T09:55:00Z,40.88,-104.0,0.8,-0.7,340,21,,10.0,30.230314,1024.2,,TRUE,TRUE,TRUE,,,,,,SCT,1400,BKN,17000,,,,,VFR,,,,,,,,,,,,METAR,1650.0
K1ON 280955Z AUTO 34005KT 10SM CLR M01/M02 M RMK AO2 SLPNO T10081016 $,K1ON,2023-04-28T09:55:00Z,,,-0.8,-1.6,340,5,,10.0,,,,TRUE,TRUE,TRUE,,,,,,CLR,,,,,,,,VFR,,,,,,,,,,,,METAR,
K1OM 280955Z AUTO 23009KT 10SM CLR 01/M03 A3013 RMK AO2 SLP225 T00101029 $,K1OM,2023-04-28T09:55:00Z,47.33,-108.93,1.0,-2.9,230,9,,10.0,30.129921,1022.5,,TRUE,TRUE,TRUE,,,,,,CLR,,,,,,,,VFR,,,,,,,,,,,,METAR,1088.0
K1NW 280955Z AUTO 36010KT 10SM OVC150 02/01 A3014 RMK AO2 SLP199 T00210006 $,K1NW,2023-04-28T09:55:00Z,40.63,-103.83,2.1,0.6,360,10,,10.0,30.138779,1019.9,,TRUE,TRUE,TRUE,,,,,,OVC,15000,,,,,,,VFR,,,,,,,,,,,,METAR,1461.0
K1MW 280955Z AUTO 33012KT 10SM SCT140 SCT160 02/01 A3013 RMK AO2 SLP197 T00200007 $,K1MW,2023-04-28T09:55:00Z,40.7,-103.48,2.0,0.7,330,12,,10.0,30.129921,1019.7,,TRUE,TRUE,TRUE,,,,,,SCT,14000,SCT,16000,,,,,VFR,,,,,,,,,,,,METAR,1338.0
K1MM 280955Z AUTO 18010KT 10SM SCT140 01/M04 A3015 RMK AO2 SLP233 T00051038 $,K1MM,2023-04-28T09:55:00Z,47.02,-109.63,0.5,-3.8,180,10,,10.0,30.15059,1023.3,,TRUE,TRUE,TRUE,,,,,,SCT,14000,,,,,,,VFR,,,,,,,,,,,,METAR,1256.0
K1LN 280955Z AUTO 31006KT 10SM OVC065 03/03 A3007 RMK AO2 SLP197 T00310030 $,K1LN,2023-04-28T09:55:00Z,,,3.1,3.0,310,6,,10.0,30.070866,1019.7,,TRUE,TRUE,TRUE,,,,,,OVC,6500,,,,,,,VFR,,,,,,,,,,,,METAR,
K1KM 280955Z AUTO 25014KT 10SM CLR 02/M04 A3017 RMK AO2 SLP234 T00181041 $,K1KM,2023-04-28T09:55:00Z,46.45,-109.8,1.8,-4.1,250,14,,10.0,30.171259,1023.4,,TRUE,TRUE,TRUE,,,,,,CLR,,,,,,,,VFR,,,,,,,,,,,,METAR,1332.0
K1JW 280955Z AUTO 33011KT 10SM BKN170 02/M00 M RMK AO2 SLPNO T00181005 $,K1JW,2023-04-28T09:55:00Z,40.97,-103.2,1.8,-0.5,330,11,,10.0,,,,TRUE,TRUE,TRUE,,,,,,BKN,17000,,,,,,,VFR,,,,,,,,,,,,METAR,1382.0
K1JN 280955Z AUTO 32006KT 10SM OVC070 03/02 A3005 RMK AO2 SLP196 T00270023 $,K1JN,2023-04-28T09:55:00Z,,,2.7,2.3,320,6,,10.0,30.050198,1019.6,,TRUE,TRUE,TRUE,,,,,,OVC,7000,,,,,,,VFR,,,,,,,,,,,,METAR,
K1JM 280955Z AUTO 22003KT 10SM CLR 01/M03 A3014 RMK AO2 SLP229 T00051034 $,K1JM,2023-04-28T09:55:00Z,47.75,-111.55,0.5,-3.4,220,3,,10.0,30.138779,1022.9,,TRUE,TRUE,TRUE,,,,,,CLR,,,,,,,,VFR,,,,,,,,,,,,METAR,1154.0
K1IW 280955Z AUTO 35008KT 10SM FEW021 FEW028 SCT050 02/00 A3009 RMK AO2 SLP185 T00200001 $,K1IW,2023-04-28T09:55:00Z,41.05,-102.87,2.0,0.1,350,8,,10.0,30.088583,1018.5,,TRUE,TRUE,TRUE,,,,,,FEW,2100,FEW,2800,SCT,5000,,,VFR,,,,,,,,,,,,METAR,1294.0
K1IN 280955Z AUTO 32009KT 10SM CLR 01/M00 A3005 RMK AO2 SLP197 T00081004 $,K1IN,2023-04-28T09:55:00Z,,,0.8,-0.4,320,9,,10.0,30.050198,1019.7,,TRUE,TRUE,TRUE,,,,,,CLR,,,,,,,,VFR,,,,,,,,,,,,METAR,
K1IM 280955Z AUTO 16009KT 10SM CLR 03/M02 A3015 RMK AO2 SLP232 T00261021 $,K1IM,2023-04-28T09:55:00Z,47.32,-111.47,2.6,-2.1,160,9,,10.0,30.15059,1023.2,,TRUE,TRUE,TRUE,,,,,,CLR,,,,,,,,VFR,,,,,,,,,,,,METAR,1110.0
K1HW 280955Z AUTO 34013KT 10SM CLR 02/01 A3008 RMK AO2 SLP183 T00210008 $,K1HW,2023-04-28T09:55:00Z,41.32,-102.83,2.1,0.8,340,13,,10.0,30.079725,1018.3,,TRUE,TRUE,TRUE,,,,,,CLR,,,,,,,,VFR,,,,,,,,,,,,METAR,1265.0
K1HN 280955Z AUTO 00000KT 10SM BKN065 02/00 A3006 RMK AO2 SLP200 T00230000 $,K1HN,2023-04-28T09:55:00Z,,,2.3,0.0,0,0,,10.0,30.059055,1020.0,,TRUE,TRUE,TRUE,,,,,,BKN,6500,,,,,,,VFR,,,,,,,,,,,,METAR,
K1HM 280955Z AUTO 28006KT 10SM CLR 03/M03 A3013 RMK AO2 SLP222 T00281033 $,K1HM,2023-04-28T09:55:00Z,47.7,-111.95,2.8,-3.3,280,6,,10.0,30.129921,1022.2,,TRUE,TRUE,TRUE,,,,,,CLR,,,,,,,,VFR,,,,,,,,,,,,METAR,1181.0
K1GN 280955Z AUTO 32006KT 10SM SCT080 01/01 A3004 RMK AO2 SLP201 T00100006 $,K1GN,2023-04-28T09:55:00Z,,,1.0,0.6,320,6,,10.0,30.041338,1020.1,,TRUE,TRUE,TRUE,,,,,,SCT,8000,,,,,,,VFR,,,,,,,,,,,,METAR,
K1GM 280955Z AUTO 18013KT 10SM CLR 02/M03 M RMK AO2 SLPNO T00201031 $,K1GM,2023-04-28T09:55:00Z,47.33,-112.1,2.0,-3.1,180,13,,10.0,,,,TRUE,TRUE,TRUE,,,,,,CLR,,,,,,,,VFR,,,,,,,,,,,,METAR,1317.0
K1FW 280955Z AUTO 34016KT 10SM CLR 02/01 A3010 RMK AO2 PK WND 33026/0855 SLP181 T00170014 $,K1FW,2023-04-28T09:55:00Z,41.37,-103.48,1.7,1.4,340,16,,10.0,30.100393,1018.1,,TRUE,TRUE,TRUE,,,,,,CLR,,,,,,,,VFR,,,,,,,,,,,,METAR,1451.0
K1EW 280955Z AUTO 16024KT 10SM FEW019 01/M00 A3010 RMK AO2 PK WND 16029/34 SLP198 T00111002 $,K1EW,2023-04-28T09:55:00Z,41.12,-103.98,1.1,-0.2,160,24,,10.0,30.100393,1019.8,,TRUE,TRUE,TRUE,,,,,,FEW,1900,,,,,,,VFR,,,,,,,,,,,,METAR,1609.0
K1EN 280955Z AUTO 35006KT 10SM SCT085 02/M00 A2982 RMK AO2 SLP124 T00171002 $,K1EN,2023-04-28T09:55:00Z,,,1.7,-0.2,350,6,,10.0,29.819881,1012.4,,TRUE,TRUE,TRUE,,,,,,SCT,8500,,,,,,,VFR,,,,,,,,,,,,METAR,
K1EM 280955Z AUTO 22007KT 10SM CLR 04/M04 A3015 RMK AO2 SLP229 T00391038 $,K1EM,2023-04-28T09:55:00Z,47.45,-109.42,3.9,-3.8,220,7,,10.0,30.15059,1022.9,,TRUE,TRUE,TRUE,,,,,,CLR,,,,,,,,VFR,,,,,,,,,,,,METAR,1118.0
K1DM 280955Z AUTO 19010KT 10SM CLR 00/M03 A3016 RMK AO2 SLPNO T00031031 $,K1DM,2023-04-28T09:55:00Z,47.37,-109.8,0.3,-3.1,190,10,,10.0,30.159449,,,TRUE,TRUE,TRUE,,,,,,CLR,,,,,,,,VFR,,,,,,,,,,,,METAR,1093.0
K1CW 280955Z AUTO 35016KT 10SM FEW049 FEW055 02/01 A3014 RMK AO2 SLP199 T00240006 $,K1CW,2023-04-28T09:55:00Z,41.58,-103.57,2.4,0.6,350,16,,10.0,30.138779,1019.9,,TRUE,TRUE,TRUE,,,,,,FEW,4900,FEW,5500,,,,,VFR,,,,,,,,,,,,METAR,1370.0
K1CN 280955Z AUTO 34008KT 10SM OVC090 04/02 A3004 RMK AO2 SLP191 T00360020 $,K1CN,2023-04-28T09:55:00Z,,,3.6,2.0,340,8,,10.0,30.041338,1019.1,,TRUE,TRUE,TRUE,,,,,,OVC,9000,,,,,,,VFR,,,,,,,,,,,,METAR,
K1CM 280955Z AUTO 00000KT 10SM CLR 01/M05 A3015 RMK AO2 SLP231 T00081046 $,K1CM,2023-04-28T09:55:00Z,47.1,-110.17,0.8,-4.6,0,0,,10.0,30.15059,1023.1,,TRUE,TRUE,TRUE,,,,,,CLR,,,,,,,,VFR,,,,,,,,,,,,METAR,1338.0
K1BW 280955Z AUTO 33017KT 10SM SCT007 SCT016 BKN075 01/M01 A3017 RMK AO2 PLE0857RAB0857E06RAB12E28 SLP217 P0000 T00061009 $,K1BW,2023-04-28T09:55:00Z,41.52,-104.0,0.6,-0.9,330,17,,10.0,30.171259,1021.7,,TRUE,TRUE,TRUE,,,,,,SCT,700,SCT,1600,BKN,7500,,,VFR,,,,,,0.005,,,,,,METAR,1606.0
K1BN 280955Z AUTO 32004KT 10SM OVC085 03/02 A3003 RMK AO2 SLP188 T00300020 $,K1BN,2023-04-28T09:55:00Z,,,3.0,2.0,320,4,,10.0,30.029528,1018.8,,TRUE,TRUE,TRUE,,,,,,OVC,8500,,,,,,,VFR,,,,,,,,,,,,METAR,
K1BM 280955Z AUTO 24011KT 10SM CLR 03/M04 A3015 RMK AO2 SLP230 T00281042 $,K1BM,2023-04-28T09:55:00Z,47.28,-110.37,2.8,-4.2,240,11,,10.0,30.15059,1023.0,,TRUE,TRUE,TRUE,,,,,,CLR,,,,,,,,VFR,,,,,,,,,,,,METAR,1234.0
K1AM 280955Z AUTO 18003KT 10SM CLR 02/M04 A3016 RMK AO2 SLP239 T00211042 $,K1AM,2023-04-28T09:55:00Z,47.28,-110.8,2.1,-4.2,180,3,,10.0,30.159449,1023.9,,TRUE,TRUE,TRUE,,,,,,CLR,,,,,,,,VFR,,,,,,,,,,,,METAR,1228.0
FJDG 280955Z 14011KT 9999 SCT019 SCT080 BKN220 33/26 A2977 RMK SLP078 T03280261,FJDG,2023-04-28T09:55:00Z,-7.32,72.42,32.8,26.1,140,11,,6.21,29.769686,1007.8,,,,,,,,,,SCT,1900,SCT,8000,BKN,22000,,,VFR,,,,,,,,,,,,METAR,3.0
ETOU 280955Z 00000KT 9999 OVC008 12/09 A2991 RMK AO2A SLP132 T01200045,ETOU,2023-04-28T09:55:00Z,50.03,8.32,12.0,9.0,0,0,,6.21,29.911417,1013.2,,,TRUE,,,,,,,OVC,800,,,,,,,IFR,,,,,,,,,,,,METAR,141.0
ETIC 280955Z AUTO 10004KT 9999 -RA SCT039 OVC055 09/07 A2994 RMK AO2 RAE45DZB45E47RAB47 SLP148 P0003 T00930071 $,ETIC,2023-04-28T09:55:00Z,49.7,11.93,9.3,7.1,100,4,,6.21,29.940945,1014.8,,TRUE,TRUE,TRUE,,,,,-RA,SCT,3900,OVC,5500,,,,,VFR,,,,,,0.03,,,,,,METAR,414.0
EGUN 280955Z 32007KT 4000 -RA BR OVC009 13/13 A2979 RMK AO2A DZB05E23RAB22 SLP091 P0000 T01250125 $,EGUN,2023-04-28T09:55:00Z,52.37,0.48,12.5,12.5,320,7,,2.49,29.790354,1009.1,,,TRUE,TRUE,,,,,-RA BR,OVC,900,,,,,,,IFR,,,,,,0.005,,,,,,METAR,10.0
BK12 280955Z 29007G14KT 240V310 9999 CLR 12/M01 A3020 RMK AO2 SLP241 WND DATA ESTMD T01171006,BK12,2023-04-28T09:55:00Z,,,11.7,-0.6,290,7,14,6.21,30.200787,1024.1,,,TRUE,,,,,,,CLR,,,,,,,,VFR,,,,,,,,,,,,METAR,
BGTL 280955Z AUTO 28004KT 9999 OVC050 M10/M15 A3050 RMK AO2 SLP317 T11051148 TSNO $,BGTL,2023-04-28T09:55:00Z,76.53,-68.75,-10.5,-14.8,280,4,,6.21,30.499016,1031.7,,TRUE,TRUE,TRUE,,TRUE,,,,OVC,5000,,,,,,,VFR,,,,,,,,,,,,SPECI,79.0
PHOG 280954Z AUTO 13005KT 10SM BKN055 22/20 A2998 RMK AO2 SLP157 T02170200 402830211 TSNO,PHOG,2023-04-28T09:54:00Z,20.9,-156.43,21.7,20.0,130,5,,10.0,29.97933,1015.7,,TRUE,TRUE,,,TRUE,,,,BKN,5500,,,,,,,VFR,,,,28.3,21.1,,,,,,,METAR,14.0
PHMK 280954Z AUTO 02004KT 10SM BKN032 21/20 A2999 RMK AO2 SLP159 T02110200 402610200 TSNO,PHMK,2023-04-28T09:54:00Z,21.15,-157.1,21.1,20.0,20,4,,10.0,29.991142,1015.9,,TRUE,TRUE,,,TRUE,,,,BKN,3200,,,,,,,VFR,,,,26.1,20.0,,,,,,,METAR,135.0
PGSN 280954Z 08013KT 10SM FEW018 FEW055 27/25 A2988 RMK AO2 RAB34E43 SLP141 P0000 T02720250,PGSN,2023-04-28T09:54:00Z,15.12,145.72,27.2,25.0,80,13,,10.0,29.878937,1014.1,,,TRUE,,,,,,,FEW,1800,FEW,5500,,,,,VFR,,,,,,0.005,,,,,,METAR,65.0
PAKN 280954Z 12006KT 10SM FEW100 M01/M03 A2975 RMK AO2 SLP075 T10061028,PAKN,2023-04-28T09:54:00Z,58.68,-156.65,-0.6,-2.8,120,6,,10.0,29.749016,1007.5,,,TRUE,,,,,,,FEW,10000,,,,,,,VFR,,,,,,,,,,,,METAR,20.0
PAHN 280954Z AUTO 06005KT OVC013 06/03 A3018 RMK AO2 SLP222 T00560033 TSNO $,PAHN,2023-04-28T09:54:00Z,59.25,-135.52,5.6,3.3,60,5,,,30.180119,1022.2,,TRUE,TRUE,TRUE,,TRUE,,,,OVC,1300,,,,,,,,,,,,,,,,,,,METAR,15.0
KWAL 280954Z AUTO 09011G18KT 7SM -RA OVC080 14/13 A3001 RMK AO2 SLP161 P0002 T01440128,KWAL,2023-04-28T09:54:00Z,37.93,-75.47,14.4,12.8,90,11,18,7.0,30.008858,1016.1,,TRUE,TRUE,,,,,,-RA,OVC,8000,,,,,,,VFR,,,,,,0.02,,,,,,METAR,10.0
KVAY 280954Z AUTO VRB03KT 10SM FEW008 10/08 A3012 RMK AO2 SLP199 T01000083,KVAY,2023-04-28T09:54:00Z,39.93,-74.83,10.0,8.3,0,3,,10.0,30.121063,1019.9,,TRUE,TRUE,,,,,,,FEW,800,,,,,,,VFR,,,,,,,,,,,,METAR,15.0
KUIN 280954Z AUTO 31007KT 10SM CLR 07/03 A2978 RMK AO2 SLP085 T00720033,KUIN,2023-04-28T09:54:00Z,39.95,-91.2,7.2,3.3,310,7,,10.0,29.778543,1008.5,,TRUE,TRUE,,,,,,,CLR,,,,,,,,VFR,,,,,,,,,,,,METAR,233.0
KTQE 280954Z AUTO 25007KT 10SM BKN055 BKN070 OVC080 12/09 A2977 RMK AO2 RAE35 SLP074 P0002 T01220094,KTQE,2023-04-28T09:54:00Z,41.77,-96.18,12.2,9.4,250,7,,10.0,29.769686,1007.4,,TRUE,TRUE,,,,,,,BKN,5500,BKN,7000,OVC,8000,,,VFR,,,,,,0.02,,,,,,METAR,312.0
KSYR 280954Z 07006KT 10SM FEW200 SCT250 07/03 A3012 RMK AO2 SLP196 T00670033,KSYR,2023-04-28T09:54:00Z,43.12,-76.1,6.7,3.3,70,6,,10.0,30.121063,1019.6,,,TRUE,,,,,,,FEW,20000,SCT,25000,,,,,VFR,,,,,,,,,,,,SPECI,125.0
KSUS 280954Z AUTO 00000KT 5SM BR OVC070 12/11 A2977 RMK AO2 SLP078 T01170106,KSUS,2023-04-28T09:54:00Z,38.65,-90.65,11.7,10.6,0,0,,5.0,29.769686,1007.8,,TRUE,TRUE,,,,,,BR,OVC,7000,,,,,,,MVFR,,,,,,,,,,,,METAR,140.0
KSLC 280954Z 09005KT 10SM BKN220 11/M04 A3017 RMK AO2 SLP183 T01111044,KSLC,2023-04-28T09:54:00Z,40.77,-111.97,11.1,-4.4,90,5,,10.0,30.171259,1018.3,,,TRUE,,,,,,,BKN,22000,,,,,,,VFR,,,,,,,,,,,,METAR,1286.0
KSET 280954Z AUTO 00000KT 9SM OVC080 12/10 A2977 RMK AO2 SLP078 T01170100,KSET,2023-04-28T09:54:00Z,38.93,-90.43,11.7,10.0,0,0,,9.0,29.769686,1007.8,,TRUE,TRUE,,,,,,,OVC,8000,,,,,,,VFR,,,,,,,,,,,,METAR,133.0
KSBY 280954Z 08009KT 10SM FEW048 FEW060 OVC095 13/11 A3001 RMK AO2 SLP166 T01330111,KSBY,2023-04-28T09:54:00Z,38.33,-75.5,13.3,11.1,80,9,,10.0,30.008858,1016.6,,,TRUE,,,,,,,FEW,4800,FEW,6000,OVC,9500,,,VFR,,,,,,,,,,,,METAR,14.0
KSBN 280954Z 08005KT 10SM OVC110 09/01 A2983 RMK AO2 SLP102 T00890006,KSBN,2023-04-28T09:54:00Z,41.7,-86.32,8.9,0.6,80,5,,10.0,29.828741,1010.2,,,TRUE,,,,,,,OVC,11000,,,,,,,VFR,,,,,,,,,,,,METAR,236.0
KRST 280954Z 18010KT 10SM CLR 09/01 A2977 RMK AO2 SLP082 T00890006,KRST,2023-04-28T09:54:00Z,43.9,-92.5,8.9,0.6,180,10,,10.0,29.769686,1008.2,,,TRUE,,,,,,,CLR,,,,,,,,VFR,,,,,,,,,,,,METAR,398.0
KRSP 280954Z AUTO VRB05G17KT 1/4SM -RA FG VV001 10/08 A3000 RMK AO2 RAB40 SLP161 P0000 T01000078 $,KRSP,2023-04-28T09:54:00Z,39.65,-77.47,10.0,7.8,0,5,17,0.25,30.0,1016.1,,TRUE,TRUE,TRUE,,,,,-RA FG,OVX,0,,,,,,,LIFR,,,,,,0.005,,,,,100,METAR,555.0
KROC 280954Z 13006KT 10SM FEW180 BKN250 07/02 A3004 RMK AO2 SLP179 T00670022,KROC,2023-04-28T09:54:00Z,43.12,-77.68,6.7,2.2,130,6,,10.0,30.041338,1017.9,,,TRUE,,,,,,,FEW,18000,BKN,25000,,,,,VFR,,,,,,,,,,,,METAR,166.0
KROA 280954Z 07009KT 4SM +RA BR BKN015 BKN020 OVC024 13/12 A2984 RMK AO2 SLP098 P0026 T01330117,KROA,2023-04-28T09:54:00Z,37.32,-79.97,13.3,11.7,70,9,,4.0,29.840551,1009.8,,,TRUE,,,,,,+RA BR,BKN,1500,BKN,2000,OVC,2400,,,MVFR,,,,,,0.26,,,,,,METAR,349.0
KRKS 280954Z AUTO 29004KT 10SM CLR M03/M06 A3030 RMK AO2 SLP241 T10331061,KRKS,2023-04-28T09:54:00Z,41.6,-109.07,-3.3,-6.1,290,4,,10.0,30.301182,1024.1,,TRUE,TRUE,,,,,,,CLR,,,,,,,,VFR,,,,,,,,,,,,METAR,2062.0
KRIC 280954Z 09012G18KT 5SM RA BR FEW010 SCT017 OVC045 14/13 A2990 RMK AO2 SLP130 P0013 T01440128,KRIC,2023-04-28T09:54:00Z,37.52,-77.32,14.4,12.8,90,12,18,5.0,29.899607,1013.0,,,TRUE,,,,,,RA BR,FEW,1000,SCT,1700,OVC,4500,,,MVFR,,,,,,0.13,,,,,,METAR,51.0
KRFD 280954Z 36003KT 10SM FEW250 03/00 A2984 RMK AO2 SLP107 T00330000,KRFD,2023-04-28T09:54:00Z,42.2,-89.1,3.3,0.0,360,3,,10.0,29.840551,1010.7,,,TRUE,,,,,,,FEW,25000,,,,,,,VFR,,,,,,,,,,,,METAR,222.0
KRDG 280954Z AUTO 08006KT 10SM FEW048 11/06 A3009 RMK AO2 SLP194 T01060061,KRDG,2023-04-28T09:54:00Z,40.37,-75.97,10.6,6.1,80,6,,10.0,30.088583,1019.4,,TRUE,TRUE,,,,,,,FEW,4800,,,,,,,VFR,,,,,,,,,,,,METAR,101.0
KRBL 280954Z AUTO 32006KT 10SM CLR 17/12 A2989 RMK AO2 SLP116 T01670117,KRBL,2023-04-28T09:54:00Z,40.15,-122.25,16.7,11.7,320,6,,10.0,29.890747,1011.6,,TRUE,TRUE,,,,,,,CLR,,,,,,,,VFR,,,,,,,,,,,,METAR,107.0
KPTW 280954Z AUTO 07005KT 9SM OVC009 08/07 A3012 RMK AO2 SLP199 T00830072,KPTW,2023-04-28T09:54:00Z,40.23,-75.55,8.3,7.2,70,5,,9.0,30.121063,1019.9,,TRUE,TRUE,,,,,,,OVC,900,,,,,,,IFR,,,,,,,,,,,,METAR,88.0
KPNE 280954Z AUTO 07007KT 9SM OVC007 10/08 A3014 RMK AO2 SLP205 T01000083,KPNE,2023-04-28T09:54:00Z,40.08,-75.02,10.0,8.3,70,7,,9.0,30.138779,1020.5,,TRUE,TRUE,,,,,,,OVC,700,,,,,,,IFR,,,,,,,,,,,,METAR,32.0
KPLN 280954Z AUTO 35003KT 10SM FEW085 SCT110 03/02 A2996 RMK AO2 SLP149 T00330022,KPLN,2023-04-28T09:54:00Z,45.57,-84.8,3.3,2.2,350,3,,10.0,29.958662,1014.9,,TRUE,TRUE,,,,,,,FEW,8500,SCT,11000,,,,,VFR,,,,,,,,,,,,METAR,215.0
KPIA 280954Z 06004KT 10SM CLR 08/02 A2979,KPIA,2023-04-28T09:54:00Z,40.67,-89.68,8.0,2.0,60,4,,10.0,29.790354,,,,,,,,,,,CLR,,,,,,,,VFR,,,,,,,,,,,,METAR,200.0
KPHL 280954Z 06010KT 10SM BKN010 OVC180 10/09 A3011 RMK AO2 SLP194 T01000089 $,KPHL,2023-04-28T09:54:00Z,39.87,-75.23,10.0,8.9,60,10,,10.0,30.109253,1019.4,,,TRUE,TRUE,,,,,,BKN,1000,OVC,18000,,,,,MVFR,,,,,,,,,,,,SPECI,2.0
KPHF 280954Z AUTO 08013KT 10SM -RA FEW045 BKN070 OVC095 14/13 A2991 RMK AO2 SLP128 P0002 T01440133,KPHF,2023-04-28T09:54:00Z,37.13,-76.5,14.4,13.3,80,13,,10.0,29.911417,1012.8,,TRUE,TRUE,,,,,,-RA,FEW,4500,BKN,7000,OVC,9500,,,VFR,,,,,,0.02,,,,,,METAR,12.0
KORH 280954Z 31004KT 10SM CLR 07/05 A3020 RMK AO2 SLP232 T00670050,KORH,2023-04-28T09:54:00Z,42.27,-71.87,6.7,5.0,310,4,,10.0,30.200787,1023.2,,,TRUE,,,,,,,CLR,,,,,,,,VFR,,,,,,,,,,,,METAR,306.0
KOLS 280954Z AUTO 09003KT 10SM CLR 11/M05 A2997 RMK AO2 SLP092 T01061050,KOLS,2023-04-28T09:54:00Z,31.42,-110.85,10.6,-5.0,90,3,,10.0,29.970472,1009.2,,TRUE,TRUE,,,,,,,CLR,,,,,,,,VFR,,,,,,,,,,,,METAR,1194.0
KOLM 280954Z AUTO 04004KT 10SM CLR 08/06 A3008 RMK AO2 SLP185 T00830061,KOLM,2023-04-28T09:54:00Z,46.97,-122.9,8.3,6.1,40,4,,10.0,30.079725,1018.5,,TRUE,TRUE,,,,,,,CLR,,,,,,,,VFR,,,,,,,,,,,,METAR,58.0
KMTP 280954Z AUTO 03003KT 05/03 A3022 RMK AO1 SLP233 T00500033,KMTP,2023-04-28T09:54:00Z,41.07,-71.92,5.0,3.3,30,3,,,30.221457,1023.3,,TRUE,TRUE,,,,,,,,,,,,,,,,,,,,,,,,,,,METAR,2.0
KMTN 280954Z 07007KT 10SM OVC013 12/10 A3006 RMK FIRST,KMTN,2023-04-28T09:54:00Z,39.32,-76.42,12.0,10.0,70,7,,10.0,30.059055,,,,,,,,,,,OVC,1300,,,,,,,MVFR,,,,,,,,,,,,METAR,2.0
KMOT 280954Z AUTO 31006KT 10SM OVC075 03/02 A3006 RMK AO2 SLP193 T00280017 $,KMOT,2023-04-28T09:54:00Z,48.25,-101.27,2.8,1.7,310,6,,10.0,30.059055,1019.3,,TRUE,TRUE,TRUE,,,,,,OVC,7500,,,,,,,VFR,,,,,,,,,,,,METAR,507.0
KMKC 280954Z 21004KT 10SM OVC090 13/08 A2979 RMK AO2 SLP086 T01280083,KMKC,2023-04-28T09:54:00Z,39.12,-94.6,12.8,8.3,210,4,,10.0,29.790354,1008.6,,,TRUE,,,,,,,OVC,9000,,,,,,,VFR,,,,,,,,,,,,METAR,228.0
KMIV 280954Z AUTO 08007KT 10SM CLR 10/09 A3009 RMK AO2 SLP188 T01000089 $,KMIV,2023-04-28T09:54:00Z,39.37,-75.08,10.0,8.9,80,7,,10.0,30.088583,1018.8,,TRUE,TRUE,TRUE,,,,,,CLR,,,,,,,,VFR,,,,,,,,,,,,METAR,18.0
KMFI 280954Z AUTO 11005KT 10SM BKN095 08/02 A2983 RMK AO2 SLP105 T00780022,KMFI,2023-04-28T09:54:00Z,44.63,-90.18,7.8,2.2,110,5,,10.0,29.828741,1010.5,,TRUE,TRUE,,,,,,,BKN,9500,,,,,,,VFR,,,,,,,,,,,,METAR,383.0
KMEM 280954Z 29009KT 6SM BR FEW008 OVC014 14/13 A2972 RMK AO2 SLP063 T01390128 $,KMEM,2023-04-28T09:54:00Z,35.07,-89.98,13.9,12.8,290,9,,6.0,29.719488,1006.3,,,TRUE,TRUE,,,,,BR,FEW,800,OVC,1400,,,,,MVFR,,,,,,,,,,,,METAR,78.0
KLYH 280954Z AUTO 06006G17KT 4SM RA BR BKN009 BKN014 OVC030 13/12 A2983 RMK AO2 SLP098 P0026 T01330117,KLYH,2023-04-28T09:54:00Z,37.32,-79.2,13.3,11.7,60,6,17,4.0,29.828741,1009.8,,TRUE,TRUE,,,,,,RA BR,BKN,900,BKN,1400,OVC,3000,,,IFR,,,,,,0.26,,,,,,METAR,282.0
KLWT 280954Z AUTO 10004KT 10SM CLR M01/M04 A3018 RMK AO2 SLP241 T10111044,KLWT,2023-04-28T09:54:00Z,47.05,-109.47,-1.1,-4.4,100,4,,10.0,30.180119,1024.1,,TRUE,TRUE,,,,,,,CLR,,,,,,,,VFR,,,,,,,,,,,,METAR,1254.0
KLNK 280954Z AUTO 31006KT 10SM BKN055 OVC065 13/08 A2981 RMK AO2 SLP087 T01330083,KLNK,2023-04-28T09:54:00Z,40.85,-96.77,13.3,8.3,310,6,,10.0,29.811024,1008.7,,TRUE,TRUE,,,,,,,BKN,5500,OVC,6500,,,,,VFR,,,,,,,,,,,,METAR,357.0
KLEX 280954Z 18006KT 10SM OVC006 15/14 A2968 RMK AO2 RAB10E20 CIG 004V011 SLP043 P0000 T01500139,KLEX,2023-04-28T09:54:00Z,38.03,-84.6,15.0,13.9,180,6,,10.0,29.681103,1004.3,,,TRUE,,,,,,,OVC,600,,,,,,,IFR,,,,,,0.005,,,,,,METAR,294.0
KLAF 280954Z AUTO 02005KT 9SM -RA OVC050 08/07 A2977 RMK AO2 SLP081 P0000 T00830067,KLAF,2023-04-28T09:54:00Z,40.42,-86.93,8.3,6.7,20,5,,9.0,29.769686,1008.1,,TRUE,TRUE,,,,,,-RA,OVC,5000,,,,,,,VFR,,,,,,0.005,,,,,,METAR,182.0
KJST 280954Z AUTO 12008KT 9SM OVC007 10/09 A2993 RMK AO2 RAE0855B20E50 CIG 005V012 SLP133 P0000 T01000089,KJST,2023-04-28T09:54:00Z,40.32,-78.83,10.0,8.9,120,8,,9.0,29.929134,1013.3,,TRUE,TRUE,,,,,,,OVC,700,,,,,,,IFR,,,,,,0.005,,,,,,METAR,695.0
KJAN 280954Z AUTO 24004KT 10SM FEW036 15/14 A2978 RMK AO2 SLP080 T01500139,KJAN,2023-04-28T09:54:00Z,32.32,-90.08,15.0,13.9,240,4,,10.0,29.778543,1008.0,,TRUE,TRUE,,,,,,,FEW,3600,,,,,,,VFR,,,,,,,,,,,,METAR,92.0
KIZG 280954Z AUTO 00000KT 10SM FEW001 M02/M02 A3024 RMK AO2 SLP245 I1000 T10171022,KIZG,2023-04-28T09:54:00Z,43.98,-70.95,-1.7,-2.2,0,0,,10.0,30.239174,1024.5,,TRUE,TRUE,,,,,,,FEW,100,,,,,,,VFR,,,,,,,,,,,,METAR,138.0
KISW 280954Z AUTO 00000KT 10SM BKN095 07/01 A2985 RMK AO2 SLP109 T00720011,KISW,2023-04-28T09:54:00Z,44.37,-89.83,7.2,1.1,0,0,,10.0,29.84941,1010.9,,TRUE,TRUE,,,,,,,BKN,9500,,,,,,,VFR,,,,,,,,,,,,METAR,311.0
KINT 280954Z AUTO 17009KT 8SM -RA OVC007 16/16 A2974 RMK AO2 CIG 004V011 SLP066 P0004 T01610156,KINT,2023-04-28T09:54:00Z,36.13,-80.22,16.1,15.6,170,9,,8.0,29.740158,1006.6,,TRUE,TRUE,,,,,,-RA,OVC,700,,,,,,,IFR,,,,,,0.04,,,,,,METAR,292.0
KINL 280954Z AUTO 02005KT 10SM OVC040 03/01 A2994 RMK AO2 SLP152 T00330006,KINL,2023-04-28T09:54:00Z,48.57,-93.4,3.3,0.6,20,5,,10.0,29.940945,1015.2,,TRUE,TRUE,,,,,,,OVC,4000,,,,,,,VFR,,,,,,,,,,,,METAR,353.0
KIMT 280954Z AUTO 11003KT 7SM OVC085 05/03 A2990 RMK AO2 SLP132 T00500028,KIMT,2023-04-28T09:54:00Z,45.82,-88.12,5.0,2.8,110,3,,7.0,29.899607,1013.2,,TRUE,TRUE,,,,,,,OVC,8500,,,,,,,VFR,,,,,,,,,,,,METAR,343.0
KHWD 280954Z AUTO 00000KT 10SM CLR 13/10 A2990 RMK AO2 SLP134 T01330100,KHWD,2023-04-28T09:54:00Z,37.67,-122.12,13.3,10.0,0,0,,10.0,29.899607,1013.4,,TRUE,TRUE,,,,,,,CLR,,,,,,,,VFR,,,,,,,,,,,,METAR,9.0
KGED 280954Z AUTO 09010KT 10SM CLR 13/11 A3004 RMK AO2 SLP172 T01330106,KGED,2023-04-28T09:54:00Z,38.68,-75.37,13.3,10.6,90,10,,10.0,30.041338,1017.2,,TRUE,TRUE,,,,,,,CLR,,,,,,,,VFR,,,,,,,,,,,,METAR,15.0
KGCN 280954Z AUTO 08003KT 10SM CLR 01/M06 A3011 RMK AO2 SLP135 T00061061,KGCN,2023-04-28T09:54:00Z,35.95,-112.15,0.6,-6.1,80,3,,10.0,30.109253,1013.5,,TRUE,TRUE,,,,,,,CLR,,,,,,,,VFR,,,,,,,,,,,,METAR,1993.0
KFZY 280954Z AUTO 11003KT 10SM CLR 07/03 A3011 RMK AO2 SLP197 T00670033,KFZY,2023-04-28T09:54:00Z,43.35,-76.38,6.7,3.3,110,3,,10.0,30.109253,1019.7,,TRUE,TRUE,,,,,,,CLR,,,,,,,,VFR,,,,,,,,,,,,METAR,143.0
KFWA 280954Z 02009KT 10SM -RA OVC060 07/04 A2977 RMK SLP083 P0003 T00720044,KFWA,2023-04-28T09:54:00Z,40.98,-85.2,7.2,4.4,20,9,,10.0,29.769686,1008.3,,,,,,,,,-RA,OVC,6000,,,,,,,VFR,,,,,,0.03,,,,,,METAR,243.0
KFIG 280954Z AUTO 09009KT 10SM OVC014 11/08 A2999 RMK AO2 SLP153 T01110078,KFIG,2023-04-28T09:54:00Z,41.05,-78.42,11.1,7.8,90,9,,10.0,29.991142,1015.3,,TRUE,TRUE,,,,,,,OVC,1400,,,,,,,MVFR,,,,,,,,,,,,METAR,461.0
KFFZ 280954Z 00000KT 10SM CLR 20/M01 A2980 RMK AO2 SLP067 T02001006,KFFZ,2023-04-28T09:54:00Z,33.47,-111.72,20.0,-0.6,0,0,,10.0,29.799213,1006.7,,,TRUE,,,,,,,CLR,,,,,,,,VFR,,,,,,,,,,,,METAR,420.0
KEVV 280954Z AUTO 00000KT 8SM BKN009 OVC028 12/11 A2971 RMK AO2 SLP059 T01220106 $,KEVV,2023-04-28T09:54:00Z,38.05,-87.52,12.2,10.6,0,0,,8.0,29.71063,1005.9,,TRUE,TRUE,TRUE,,,,,,BKN,900,OVC,2800,,,,,IFR,,,,,,,,,,,,METAR,123.0
KEUG 280954Z AUTO 02003KT 10SM CLR 13/09 A2995 RMK AO2 SLP141 T01330094,KEUG,2023-04-28T09:54:00Z,44.13,-123.22,13.3,9.4,20,3,,10.0,29.949802,1014.1,,TRUE,TRUE,,,,,,,CLR,,,,,,,,VFR,,,,,,,,,,,,METAR,109.0
KEFD 280954Z 15004KT 10SM CLR 15/14 A2976,KEFD,2023-04-28T09:54:00Z,29.6,-95.17,15.0,14.0,150,4,,10.0,29.760826,,,,,,,,,,,CLR,,,,,,,,VFR,,,,,,,,,,,,METAR,9.0
KDSM 280954Z 22003KT 10SM FEW085 11/05 A2980 RMK AO2 SLP087 T01110050,KDSM,2023-04-28T09:54:00Z,41.53,-93.67,11.1,5.0,220,3,,10.0,29.799213,1008.7,,,TRUE,,,,,,,FEW,8500,,,,,,,VFR,,,,,,,,,,,,METAR,286.0
KDMH 280954Z AUTO 13/10 A3004 RMK AO1 SLP173 T01330100,KDMH,2023-04-28T09:54:00Z,39.28,-76.62,13.3,10.0,,,,,30.041338,1017.3,,TRUE,TRUE,,,,,,,,,,,,,,,,,,,,,,,,,,,METAR,4.0
KDEC 280954Z AUTO 01005KT 10SM SCT120 08/07 A2977 RMK AO2 SLP080 T00830067,KDEC,2023-04-28T09:54:00Z,39.83,-88.87,8.3,6.7,10,5,,10.0,29.769686,1008.0,,TRUE,TRUE,,,,,,,SCT,12000,,,,,,,VFR,,,,,,,,,,,,METAR,205.0
KDDH 280954Z AUTO 00000KT 10SM CLR 02/M01 A3019 RMK AO2 SLP226 T00171006,KDDH,2023-04-28T09:54:00Z,42.9,-73.25,1.7,-0.6,0,0,,10.0,30.188976,1022.6,,TRUE,TRUE,,,,,,,CLR,,,,,,,,VFR,,,,,,,,,,,,METAR,241.0
KCRW 280954Z 04004KT 6SM -RA BR OVC047 13/13 A2972 RMK AO2 RAB06 SLP059 VLY FG P0001 T01280128,KCRW,2023-04-28T09:54:00Z,38.38,-81.58,12.8,12.8,40,4,,6.0,29.719488,1005.9,,,TRUE,,,,,,-RA BR,OVC,4700,,,,,,,VFR,,,,,,0.01,,,,,,METAR,278.0
KCOU 280954Z AUTO 34005KT 10SM FEW100 09/07 A2980 RMK AO2 SLP087 T00940072,KCOU,2023-04-28T09:54:00Z,38.82,-92.22,9.4,7.2,340,5,,10.0,29.799213,1008.7,,TRUE,TRUE,,,,,,,FEW,10000,,,,,,,VFR,,,,,,,,,,,,METAR,272.0
KCOS 280954Z 35022G34KT 10SM SCT023 BKN100 02/M03 A3013 RMK AO2 PK WND 33034/0952 DZE20 SLP171 P0000 T00221033 $,KCOS,2023-04-28T09:54:00Z,38.82,-104.68,2.2,-3.3,350,22,34,10.0,30.129921,1017.1,,,TRUE,TRUE,,,,,,SCT,2300,BKN,10000,,,,,VFR,,,,,,0.005,,,,,,METAR,1886.0
KCAR 280954Z AUTO 00000KT 10SM CLR 00/M02 A3020 RMK AO2 SLP235 T00001022,KCAR,2023-04-28T09:54:00Z,46.87,-68.02,0.0,-2.2,0,0,,10.0,30.200787,1023.5,,TRUE,TRUE,,,,,,,CLR,,,,,,,,VFR,,,,,,,,,,,,METAR,189.0
KBWI 280954Z 08014KT 10SM OVC011 13/11 A3002 RMK AO2 SLP165 T01330111,KBWI,2023-04-28T09:54:00Z,39.17,-76.68,13.3,11.1,80,14,,10.0,30.02067,1016.5,,,TRUE,,,,,,,OVC,1100,,,,,,,MVFR,,,,,,,,,,,,METAR,42.0
KBUF 280954Z 12008KT 10SM BKN250 10/04 A2998 RMK AO2 SLP154 T01000044,KBUF,2023-04-28T09:54:00Z,42.93,-78.73,10.0,4.4,120,8,,10.0,29.97933,1015.4,,,TRUE,,,,,,,BKN,25000,,,,,,,VFR,,,,,,,,,,,,METAR,217.0
KBTV 280954Z 18003KT 10SM CLR 02/00 A3020 RMK AO2 SLP230 T00220000,KBTV,2023-04-28T09:54:00Z,44.47,-73.15,2.2,0.0,180,3,,10.0,30.200787,1023.0,,,TRUE,,,,,,,CLR,,,,,,,,VFR,,,,,,,,,,,,METAR,101.0
KBOS 280954Z 28006KT 8SM FEW015 FEW200 SCT250 08/06 A3024 RMK AO2 SLP238 T00780056 $,KBOS,2023-04-28T09:54:00Z,42.37,-71.02,7.8,5.6,280,6,,8.0,30.239174,1023.8,,,TRUE,TRUE,,,,,,FEW,1500,FEW,20000,SCT,25000,,,VFR,,,,,,,,,,,,SPECI,4.0
KBFL 280954Z AUTO 09005KT 9SM CLR 22/08 A2987 RMK AO2 SLP108 T02170083,KBFL,2023-04-28T09:54:00Z,35.43,-119.05,21.7,8.3,90,5,,9.0,29.870079,1010.8,,TRUE,TRUE,,,,,,,CLR,,,,,,,,VFR,,,,,,,,,,,,METAR,146.0
KAVP 280954Z 05006KT 10SM FEW050 BKN060 08/04 A3011 RMK AO2 SLP195 T00830044,KAVP,2023-04-28T09:54:00Z,41.33,-75.72,8.3,4.4,50,6,,10.0,30.109253,1019.5,,,TRUE,,,,,,,FEW,5000,BKN,6000,,,,,VFR,,,,,,,,,,,,METAR,290.0
KAVL 280954Z AUTO 00000KT 10SM OVC002 13/12 A2978 RMK AO2 SLP071 T01280117,KAVL,2023-04-28T09:54:00Z,35.43,-82.53,12.8,11.7,0,0,,10.0,29.778543,1007.1,,TRUE,TRUE,,,,,,,OVC,200,,,,,,,LIFR,,,,,,,,,,,,METAR,646.0
KAUW 280954Z AUTO 08005KT 9SM BKN080 OVC110 08/00 A2984 RMK AO2 SLP111 T00830000,KAUW,2023-04-28T09:54:00Z,44.93,-89.62,8.3,0.0,80,5,,9.0,29.840551,1011.1,,TRUE,TRUE,,,,,,,BKN,8000,OVC,11000,,,,,VFR,,,,,,,,,,,,METAR,367.0
KAPN 280954Z AUTO 15003KT 10SM CLR 04/02 A2997 RMK AO2 SLP156 T00390017,KAPN,2023-04-28T09:54:00Z,45.07,-83.57,3.9,1.7,150,3,,10.0,29.970472,1015.6,,TRUE,TRUE,,,,,,,CLR,,,,,,,,VFR,,,,,,,,,,,,METAR,208.0
KAPC 280954Z AUTO 15003KT 10SM CLR 12/10 A2990 RMK AO2 SLP116 T01220100,KAPC,2023-04-28T09:54:00Z,38.2,-122.28,12.2,10.0,150,3,,10.0,29.899607,1011.6,,TRUE,TRUE,,,,,,,CLR,,,,,,,,VFR,,,,,,,,,,,,METAR,5.0
KALO 280954Z 12003KT 10SM BKN075 06/01 A2979 RMK AO2 SLP086 T00610006,KALO,2023-04-28T09:54:00Z,42.55,-92.4,6.1,0.6,120,3,,10.0,29.790354,1008.6,,,TRUE,,,,,,,BKN,7500,,,,,,,VFR,,,,,,,,,,,,METAR,264.0
KAKR 280954Z AUTO VRB03KT 10SM -RA SCT039 BKN080 OVC095 15/06 A2983 RMK AO2 RAB48 SLP097 P0000 T01500061,KAKR,2023-04-28T09:54:00Z,41.03,-81.47,15.0,6.1,0,3,,10.0,29.828741,1009.7,,TRUE,TRUE,,,,,,-RA,SCT,3900,BKN,8000,OVC,9500,,,VFR,,,,,,0.005,,,,,,METAR,319.0
KAAO 280954Z AUTO 00000KT 5SM BR BKN034 OVC055 10/08 A2982 RMK AO2 SLP096 T01000083,KAAO,2023-04-28T09:54:00Z,37.75,-97.22,10.0,8.3,0,0,,5.0,29.819881,1009.6,,TRUE,TRUE,,,,,,BR,BKN,3400,OVC,5500,,,,,MVFR,,,,,,,,,,,,METAR,429.0
K1V4 280954Z AUTO M01/M02 A3022 RMK AO1 SLP240 T10111017,K1V4,2023-04-28T09:54:00Z,44.42,-72.02,-1.1,-1.7,,,,,30.221457,1024.0,,TRUE,TRUE,,,,,,,,,,,,,,,,,,,,,,,,,,,METAR,213.0
K12N 280954Z AUTO 00000KT 08/06 A3016 RMK AO1 SLP214 T00830061,K12N,2023-04-28T09:54:00Z,41.02,-74.73,8.3,6.1,0,0,,,30.159449,1021.4,,TRUE,TRUE,,,,,,,,,,,,,,,,,,,,,,,,,,,METAR,178.0
TJNR 280953Z AUTO 00000KT 10SM CLR 24/23 A2994 RMK AO2 SLP139 T02440228,TJNR,2023-04-28T09:53:00Z,18.25,-65.63,24.4,22.8,0,0,,10.0,29.940945,1013.9,,TRUE,TRUE,,,,,,,CLR,,,,,,,,VFR,,,,,,,,,,,,METAR,7.0
TISX 280953Z AUTO 36004KT 10SM CLR 24/22 A2994 RMK AO2 SLP136 T02390222,TISX,2023-04-28T09:53:00Z,17.7,-64.8,23.9,22.2,360,4,,10.0,29.940945,1013.6,,TRUE,TRUE,,,,,,,CLR,,,,,,,,VFR,,,,,,,,,,,,METAR,16.0
TIST 280953Z 00000KT 10SM CLR 26/23 A2992 RMK AO2 SLP133 T02560233,TIST,2023-04-28T09:53:00Z,18.33,-64.98,25.6,23.3,0,0,,10.0,29.920275,1013.3,,,TRUE,,,,,,,CLR,,,,,,,,VFR,,,,,,,,,,,,METAR,5.0
PKMR 280953Z 08005KT 15SM FEW015 SCT300 28/24 A2977 RMK SLP085 T02820242,PKMR,2023-04-28T09:53:00Z,7.08,171.38,28.2,24.2,80,5,,15.0,29.769686,1008.5,,,,,,,,,,FEW,1500,SCT,30000,,,,,VFR,,,,,,,,,,,,METAR,7.0
PHTO 280953Z AUTO 19005KT 10SM CLR 21/18 A3000 RMK AO2 SLP156 T02110183 402890200 TSNO,PHTO,2023-04-28T09:53:00Z,19.72,-155.05,21.1,18.3,190,5,,10.0,30.0,1015.6,,TRUE,TRUE,,,TRUE,,,,CLR,,,,,,,,VFR,,,,28.9,20.0,,,,,,,METAR,9.0
PHKO 280953Z AUTO 13008KT 10SM CLR 24/20 A2999 RMK AO2 SLP156 T02390200 402890211 TSNO,PHKO,2023-04-28T09:53:00Z,19.73,-156.05,23.9,20.0,130,8,,10.0,29.991142,1015.6,,TRUE,TRUE,,,TRUE,,,,CLR,,,,,,,,VFR,,,,28.9,21.1,,,,,,,METAR,11.0
PHJR 280953Z AUTO 03004KT 10SM SCT049 OVC060 22/19 A3000 RMK AO2 SLP164 T02170194 402440211 TSNO PNO $,PHJR,2023-04-28T09:53:00Z,21.32,-158.07,21.7,19.4,30,4,,10.0,30.0,1016.4,,TRUE,TRUE,TRUE,,TRUE,,,,SCT,4900,OVC,6000,,,,,VFR,,,,24.4,21.1,,,,,,,METAR,9.0
PAWD 280953Z AUTO 17007KT 10SM -RA FEW015 BKN031 OVC042 03/01 A2991 RMK AO2 SLP128 P0003 T00330011 TSNO,PAWD,2023-04-28T09:53:00Z,60.12,-149.42,3.3,1.1,170,7,,10.0,29.911417,1012.8,,TRUE,TRUE,,,TRUE,,,-RA,FEW,1500,BKN,3100,OVC,4200,,,VFR,,,,,,0.03,,,,,,METAR,3.0
PAVL 280953Z AUTO 04010KT 10SM OVC070 M12/M16 A2982 RMK AO2 SLP098 T11171161 TSNO $,PAVL,2023-04-28T09:53:00Z,67.73,-164.55,-11.7,-16.1,40,10,,10.0,29.819881,1009.8,,TRUE,TRUE,TRUE,,TRUE,,,,OVC,7000,,,,,,,VFR,,,,,,,,,,,,METAR,6.0
PATO 280953Z AUTO 09009G19KT 060V130 10SM FEW032 04/01 A2988 RMK AO2 RAE26 SLP121 P0000 T00440006 TSNO,PATO,2023-04-28T09:53:00Z,60.78,-148.85,4.4,0.6,90,9,19,10.0,29.878937,1012.1,,TRUE,TRUE,,,TRUE,,,,FEW,3200,,,,,,,VFR,,,,,,0.005,,,,,,METAR,47.0
PASI 280953Z 12005KT 9SM BKN049 OVC150 06/03 A3020 RMK AO2 SLP225 T00560033,PASI,2023-04-28T09:53:00Z,57.03,-135.35,5.6,3.3,120,5,,9.0,30.200787,1022.5,,,TRUE,,,,,,,BKN,4900,OVC,15000,,,,,VFR,,,,,,,,,,,,METAR,2.0
PASC 280953Z 21003KT 5SM BR OVC055 M18/M21 A3007 RMK AO2 SLP186 T11831211,PASC,2023-04-28T09:53:00Z,70.2,-148.47,-18.3,-21.1,210,3,,5.0,30.070866,1018.6,,,TRUE,,,,,,BR,OVC,5500,,,,,,,MVFR,,,,,,,,,,,,METAR,17.0
PAQT 280953Z AUTO 09003KT 10SM SCT120 M19/M21 A3010 RMK AO2 SLP195 T11891211 TSNO PNO,PAQT,2023-04-28T09:53:00Z,70.22,-151.0,-18.9,-21.1,90,3,,10.0,30.100393,1019.5,,TRUE,TRUE,,,TRUE,,,,SCT,12000,,,,,,,VFR,,,,,,,,,,,,METAR,11.0
PAOT 280953Z AUTO 04007KT 10SM CLR M09/M12 A2976 RMK AO2 SLP078 T10891117 TSNO,PAOT,2023-04-28T09:53:00Z,66.88,-162.6,-8.9,-11.7,40,7,,10.0,29.760826,1007.8,,TRUE,TRUE,,,TRUE,,,,CLR,,,,,,,,VFR,,,,,,,,,,,,METAR,3.0
PAOR 280953Z 00000KT 10SM SCT140 M04/M08 A2982 RMK AO2 SLP124 AURBO T10441078 PNO,PAOR,2023-04-28T09:53:00Z,62.97,-141.93,-4.4,-7.8,0,0,,10.0,29.819881,1012.4,,,TRUE,,,,,,,SCT,14000,,,,,,,VFR,,,,,,,,,,,,METAR,524.0
PAOM 280953Z AUTO 34010KT 10SM OVC060 M03/M07 A2962 RMK AO2 SLP031 T10331067 TSNO,PAOM,2023-04-28T09:53:00Z,64.5,-165.43,-3.3,-6.7,340,10,,10.0,29.619095,1003.1,,TRUE,TRUE,,,TRUE,,,,OVC,6000,,,,,,,VFR,,,,,,,,,,,,METAR,6.0
PANC 280953Z 22009G19KT 10SM -RA SCT035 OVC044 04/01 A2984 RMK AO2 RAE12B47 SLP107 P0000 T00390011 $,PANC,2023-04-28T09:53:00Z,61.17,-150.02,3.9,1.1,220,9,19,10.0,29.840551,1010.7,,,TRUE,TRUE,,,,,-RA,SCT,3500,OVC,4400,,,,,VFR,,,,,,0.005,,,,,,METAR,39.0
PAMR 280953Z 02003KT 10SM SCT046 OVC060 04/01 A2985 RMK AO2 RAB26E42 SLP111 P0000 T00440006,PAMR,2023-04-28T09:53:00Z,61.22,-149.85,4.4,0.6,20,3,,10.0,29.84941,1011.1,,,TRUE,,,,,,,SCT,4600,OVC,6000,,,,,VFR,,,,,,0.005,,,,,,METAR,43.0
PAMC 280953Z AUTO A2975 RMK AO2 SLPNO PWINO FZRANO TSNO $,PAMC,2023-04-28T09:53:00Z,62.97,-155.62,,,,,,,29.749016,,,TRUE,TRUE,TRUE,,TRUE,TRUE,TRUE,,,,,,,,,,,,,,,,,,,,,,METAR,101.0
PALH 280953Z AUTO 26003KT 10SM -RA SCT045 OVC050 04/01 A2985 RMK AO2 RAB52 SLP110 P0000 T00440011 TSNO,PALH,2023-04-28T09:53:00Z,61.18,-149.97,4.4,1.1,260,3,,10.0,29.84941,1011.0,,TRUE,TRUE,,,TRUE,,,-RA,SCT,4500,OVC,5000,,,,,VFR,,,,,,0.005,,,,,,METAR,26.0
PAKW 280953Z AUTO VRB03KT 10SM -RA BKN036 OVC043 06/04 A3022 RMK AO2 SLP233 P0000 T00560044 TSNO,PAKW,2023-04-28T09:53:00Z,55.58,-133.07,5.6,4.4,0,3,,10.0,30.221457,1023.3,,TRUE,TRUE,,,TRUE,,,-RA,BKN,3600,OVC,4300,,,,,VFR,,,,,,0.005,,,,,,METAR,7.0
PAKV 280953Z AUTO 00000KT 10SM BKN070 OVC100 01/M01 A2972 RMK AO2 SLP067 T00061011 TSNO $,PAKV,2023-04-28T09:53:00Z,64.33,-158.72,0.6,-1.1,0,0,,10.0,29.719488,1006.7,,TRUE,TRUE,TRUE,,TRUE,,,,BKN,7000,OVC,10000,,,,,VFR,,,,,,,,,,,,METAR,53.0
PAKT 280953Z AUTO 00000KT 10SM OVC041 05/04 A3026 RMK AO2 SLP247 P0001 T00500039 TSNO,PAKT,2023-04-28T09:53:00Z,55.35,-131.72,5.0,3.9,0,0,,10.0,30.259842,1024.7,,TRUE,TRUE,,,TRUE,,,,OVC,4100,,,,,,,VFR,,,,,,0.01,,,,,,METAR,27.0
PAGY 280953Z AUTO 21012KT 10SM FEW055 BKN080 06/02 A3017 RMK AO2 PRESRR SLP215 T00610022 TSNO,PAGY,2023-04-28T09:53:00Z,59.47,-135.32,6.1,2.2,210,12,,10.0,30.171259,1021.5,,TRUE,TRUE,,,TRUE,,,,FEW,5500,BKN,8000,,,,,VFR,,,,,,,,,,,,METAR,7.0
PAGK 280953Z AUTO 17012KT 10SM SCT095 SCT120 02/M02 A2986 RMK AO2 SLP128 T00221017 TSNO $,PAGK,2023-04-28T09:53:00Z,62.15,-145.45,2.2,-1.7,170,12,,10.0,29.861221,1012.8,,TRUE,TRUE,TRUE,,TRUE,,,,SCT,9500,SCT,12000,,,,,VFR,,,,,,,,,,,,METAR,481.0
PAFA 280953Z 05004KT 10SM FEW050 SCT150 BKN200 M01/M06 A2978 RMK AO2 SLP092 T10111061,PAFA,2023-04-28T09:53:00Z,64.8,-147.87,-1.1,-6.1,50,4,,10.0,29.778543,1009.2,,,TRUE,,,,,,,FEW,5000,SCT,15000,BKN,20000,,,VFR,,,,,,,,,,,,METAR,130.0
PAEG 280953Z AUTO 00000KT 10SM CLR M04/M08 A2980 RMK AO2 SLP099 T10441083 TSNO,PAEG,2023-04-28T09:53:00Z,64.78,-141.15,-4.4,-8.3,0,0,,10.0,29.799213,1009.9,,TRUE,TRUE,,,TRUE,,,,CLR,,,,,,,,VFR,,,,,,,,,,,,METAR,273.0
PADQ 280953Z AUTO 00000KT 10SM BKN110 02/M03 A2989 RMK AO2 SLP122 T00221028 TSNO,PADQ,2023-04-28T09:53:00Z,57.75,-152.5,2.2,-2.8,0,0,,10.0,29.890747,1012.2,,TRUE,TRUE,,,TRUE,,,,BKN,11000,,,,,,,VFR,,,,,,,,,,,,METAR,5.0
PABT 280953Z 33003KT 10SM FEW120 M06/M12 A2982 RMK AO2 SLP114 T10611117 PNO,PABT,2023-04-28T09:53:00Z,66.92,-151.52,-6.1,-11.7,330,3,,10.0,29.819881,1011.4,,,TRUE,,,,,,,FEW,12000,,,,,,,VFR,,,,,,,,,,,,METAR,195.0
PABI 280953Z AUTO 22010KT 10SM CLR 02/M02 A2980 RMK AO2 SLP107 T00221022 TSNO,PABI,2023-04-28T09:53:00Z,64.0,-145.72,2.2,-2.2,220,10,,10.0,29.799213,1010.7,,TRUE,TRUE,,,TRUE,,,,CLR,,,,,,,,VFR,,,,,,,,,,,,METAR,388.0
PAAQ 280953Z AUTO 36003KT 10SM SCT110 04/M01 A2984 RMK AO2 SLP108 T00391006 TSNO,PAAQ,2023-04-28T09:53:00Z,61.6,-149.08,3.9,-0.6,360,3,,10.0,29.840551,1010.8,,TRUE,TRUE,,,TRUE,,,,SCT,11000,,,,,,,VFR,,,,,,,,,,,,METAR,68.0
KZZV 280953Z AUTO 10010KT 6SM -RA BR BKN008 BKN047 OVC075 13/11 A2976 RMK AO2 SLP076 P0016 T01280111,KZZV,2023-04-28T09:53:00Z,39.95,-81.9,12.8,11.1,100,10,,6.0,29.760826,1007.6,,TRUE,TRUE,,,,,,-RA BR,BKN,800,BKN,4700,OVC,7500,,,IFR,,,,,,0.16,,,,,,METAR,268.0
KYKM 280953Z AUTO 25005KT 10SM CLR 07/02 A3017 RMK AO2 SLP215 T00670017,KYKM,2023-04-28T09:53:00Z,46.57,-120.53,6.7,1.7,250,5,,10.0,30.171259,1021.5,,TRUE,TRUE,,,,,,,CLR,,,,,,,,VFR,,,,,,,,,,,,METAR,319.0
KYIP 280953Z 03008KT 10SM CLR 07/01 A2985 RMK AO2 SLP107 T00720006,KYIP,2023-04-28T09:53:00Z,42.23,-83.53,7.2,0.6,30,8,,10.0,29.84941,1010.7,,,TRUE,,,,,,,CLR,,,,,,,,VFR,,,,,,,,,,,,METAR,215.0
KWRL 280953Z AUTO 22003KT 10SM CLR M01/M04 A3025 RMK AO2 SLP259 T10111044,KWRL,2023-04-28T09:53:00Z,43.97,-107.95,-1.1,-4.4,220,3,,10.0,30.250984,1025.9,,TRUE,TRUE,,,,,,,CLR,,,,,,,,VFR,,,,,,,,,,,,METAR,1281.0
KVRB 280953Z AUTO 19005KT 10SM CLR 21/19 A2988 RMK AO2 SLP116 T02110189,KVRB,2023-04-28T09:53:00Z,27.65,-80.42,21.1,18.9,190,5,,10.0,29.878937,1011.6,,TRUE,TRUE,,,,,,,CLR,,,,,,,,VFR,,,,,,,,,,,,METAR,7.0
KVIH 280953Z AUTO 34006KT 9SM OVC039 11/09 A2978 RMK AO2 RAE0854 SLP084 P0000 T01060089,KVIH,2023-04-28T09:53:00Z,38.13,-91.77,10.6,8.9,340,6,,9.0,29.778543,1008.4,,TRUE,TRUE,,,,,,,OVC,3900,,,,,,,VFR,,,,,,0.005,,,,,,METAR,342.0
KVGT 280953Z AUTO 32011KT 10SM CLR 24/M07 A2989 RMK AO2 SLP114 T02391067,KVGT,2023-04-28T09:53:00Z,36.22,-115.2,23.9,-6.7,320,11,,10.0,29.890747,1011.4,,TRUE,TRUE,,,,,,,CLR,,,,,,,,VFR,,,,,,,,,,,,METAR,664.0
KVEL 280953Z AUTO 03013KT 10SM FEW065 04/M03 A3027 RMK AO2 SLP219 T00391033,KVEL,2023-04-28T09:53:00Z,40.45,-109.52,3.9,-3.3,30,13,,10.0,30.268702,1021.9,,TRUE,TRUE,,,,,,,FEW,6500,,,,,,,VFR,,,,,,,,,,,,METAR,1604.0
KVCB 280953Z AUTO 21005KT 10SM CLR 18/10 A2985 RMK AO2 SLP107 T01780100,KVCB,2023-04-28T09:53:00Z,38.38,-121.95,17.8,10.0,210,5,,10.0,29.84941,1010.7,,TRUE,TRUE,,,,,,,CLR,,,,,,,,VFR,,,,,,,,,,,,METAR,30.0
KUTS 280953Z AUTO 00000KT 10SM CLR 14/12 A2978 RMK AO2 SLP081 T01390117,KUTS,2023-04-28T09:53:00Z,30.75,-95.58,13.9,11.7,0,0,,10.0,29.778543,1008.1,,TRUE,TRUE,,,,,,,CLR,,,,,,,,VFR,,,,,,,,,,,,METAR,103.0
KUNV 280953Z 12008KT 10SM OVC011 10/08 A3002,KUNV,2023-04-28T09:53:00Z,40.85,-77.83,10.0,8.0,120,8,,10.0,30.02067,,,,,,,,,,,OVC,1100,,,,,,,MVFR,,,,,,,,,,,,METAR,365.0
KUIL 280953Z AUTO 00000KT 10SM CLR 08/04 A3007 RMK AO2 SLP183 T00780039,KUIL,2023-04-28T09:53:00Z,47.93,-124.55,7.8,3.9,0,0,,10.0,30.070866,1018.3,,TRUE,TRUE,,,,,,,CLR,,,,,,,,VFR,,,,,,,,,,,,METAR,58.0
KUAO 280953Z AUTO 01010KT 10SM CLR 16/06 A2997 RMK AO2 SLP146 T01560056,KUAO,2023-04-28T09:53:00Z,45.25,-122.77,15.6,5.6,10,10,,10.0,29.970472,1014.6,,TRUE,TRUE,,,,,,,CLR,,,,,,,,VFR,,,,,,,,,,,,METAR,60.0
KTYR 280953Z AUTO 00000KT 10SM CLR 11/09 A2977 RMK AO2 SLP077 T01110094 $,KTYR,2023-04-28T09:53:00Z,32.37,-95.4,11.1,9.4,0,0,,10.0,29.769686,1007.7,,TRUE,TRUE,TRUE,,,,,,CLR,,,,,,,,VFR,,,,,,,,,,,,METAR,161.0
KTXK 280953Z AUTO 00000KT 10SM CLR 13/11 A2978 RMK AO2 SLP083 T01330106,KTXK,2023-04-28T09:53:00Z,33.45,-93.98,13.3,10.6,0,0,,10.0,29.778543,1008.3,,TRUE,TRUE,,,,,,,CLR,,,,,,,,VFR,,,,,,,,,,,,METAR,118.0
KTWF 280953Z AUTO 10008KT 10SM CLR 04/M08 A3024 RMK AO2 SLP211 T00391078,KTWF,2023-04-28T09:53:00Z,42.48,-114.48,3.9,-7.8,100,8,,10.0,30.239174,1021.1,,TRUE,TRUE,,,,,,,CLR,,,,,,,,VFR,,,,,,,,,,,,METAR,1269.0
KTVL 280953Z AUTO 00000KT 10SM CLR 01/M03 A3020 RMK AO2 SLP194 T00061028,KTVL,2023-04-28T09:53:00Z,38.9,-120.0,0.6,-2.8,0,0,,10.0,30.200787,1019.4,,TRUE,TRUE,,,,,,,CLR,,,,,,,,VFR,,,,,,,,,,,,METAR,1907.0
KTVC 280953Z AUTO 00000KT 10SM CLR 02/01 A2991 RMK AO2 SLP131 T00170006,KTVC,2023-04-28T09:53:00Z,44.73,-85.58,1.7,0.6,0,0,,10.0,29.911417,1013.1,,TRUE,TRUE,,,,,,,CLR,,,,,,,,VFR,,,,,,,,,,,,METAR,188.0
KTUS 280953Z 15007KT 10SM CLR 17/M04 A2991 RMK AO2 SLP088 T01721039,KTUS,2023-04-28T09:53:00Z,32.13,-110.95,17.2,-3.9,150,7,,10.0,29.911417,1008.8,,,TRUE,,,,,,,CLR,,,,,,,,VFR,,,,,,,,,,,,METAR,776.0
KTUL 280953Z 11003KT 7SM SCT040 SCT120 11/11 A2979 RMK AO2 SLP085 T01110111,KTUL,2023-04-28T09:53:00Z,36.2,-95.88,11.1,11.1,110,3,,7.0,29.790354,1008.5,,,TRUE,,,,,,,SCT,4000,SCT,12000,,,,,VFR,,,,,,,,,,,,METAR,196.0
KTTN 280953Z COR 08009KT 8SM OVC006 09/08 A3013 RMK AO2 SLP198 T00890083,KTTN,2023-04-28T09:53:00Z,40.28,-74.82,8.9,8.3,80,9,,8.0,30.129921,1019.8,TRUE,,TRUE,,,,,,,OVC,600,,,,,,,IFR,,,,,,,,,,,,SPECI,58.0
KTTD 280953Z AUTO 10SM CLR 19/02 A2999 RMK AO2 SLP154 T01890022 $,KTTD,2023-04-28T09:53:00Z,45.55,-122.42,18.9,2.2,,,,10.0,29.991142,1015.4,,TRUE,TRUE,TRUE,,,,,,CLR,,,,,,,,VFR,,,,,,,,,,,,METAR,8.0
KTRL 280953Z AUTO 00000KT 10SM CLR 10/09 A2980 RMK AO2 SLP089 T01000089,KTRL,2023-04-28T09:53:00Z,32.72,-96.27,10.0,8.9,0,0,,10.0,29.799213,1008.9,,TRUE,TRUE,,,,,,,CLR,,,,,,,,VFR,,,,,,,,,,,,METAR,144.0
KTPA 280953Z 16005KT 10SM BKN100 23/22 A2985 RMK AO2 SLP107 T02330217,KTPA,2023-04-28T09:53:00Z,27.97,-82.53,23.3,21.7,160,5,,10.0,29.84941,1010.7,,,TRUE,,,,,,,BKN,10000,,,,,,,VFR,,,,,,,,,,,,METAR,2.0
KTOR 280953Z AUTO 30009KT 10SM OVC085 04/00 A3016 RMK AO2 SLP217 T00390000,KTOR,2023-04-28T09:53:00Z,42.07,-104.15,3.9,0.0,300,9,,10.0,30.159449,1021.7,,TRUE,TRUE,,,,,,,OVC,8500,,,,,,,VFR,,,,,,,,,,,,METAR,1285.0
KTOP 280953Z AUTO 00000KT 10SM OVC065 12/09 A2982 RMK AO2 SLP093 T01170094 $,KTOP,2023-04-28T09:53:00Z,39.07,-95.63,11.7,9.4,0,0,,10.0,29.819881,1009.3,,TRUE,TRUE,TRUE,,,,,,OVC,6500,,,,,,,VFR,,,,,,,,,,,,METAR,268.0
KTOI 280953Z AUTO 20004KT 10SM OVC012 19/17 A2979 RMK AO2 SLP083 T01890172,KTOI,2023-04-28T09:53:00Z,31.85,-86.02,18.9,17.2,200,4,,10.0,29.790354,1008.3,,TRUE,TRUE,,,,,,,OVC,1200,,,,,,,MVFR,,,,,,,,,,,,METAR,120.0
KTMB 280953Z AUTO 29003KT 10SM BKN021 BKN030 25/23 A2989 RMK AO2 SLP120 T02500233,KTMB,2023-04-28T09:53:00Z,25.65,-80.43,25.0,23.3,290,3,,10.0,29.890747,1012.0,,TRUE,TRUE,,,,,,,BKN,2100,BKN,3000,,,,,MVFR,,,,,,,,,,,,METAR,2.0
KTLH 280953Z 00000KT 3SM BR OVC013 19/18 A2978 RMK AO2 SLP084 T01890183,KTLH,2023-04-28T09:53:00Z,30.4,-84.35,18.9,18.3,0,0,,3.0,29.778543,1008.4,,,TRUE,,,,,,BR,OVC,1300,,,,,,,MVFR,,,,,,,,,,,,METAR,17.0
KTKI 280953Z AUTO 00000KT 10SM CLR 09/08 A2980 RMK AO2 SLP095 T00940083,KTKI,2023-04-28T09:53:00Z,33.18,-96.58,9.4,8.3,0,0,,10.0,29.799213,1009.5,,TRUE,TRUE,,,,,,,CLR,,,,,,,,VFR,,,,,,,,,,,,METAR,173.0
KTIW 280953Z AUTO 03005KT 10SM CLR 12/06 A3008 RMK AO2 SLP186 T01170061,KTIW,2023-04-28T09:53:00Z,47.27,-122.58,11.7,6.1,30,5,,10.0,30.079725,1018.6,,TRUE,TRUE,,,,,,,CLR,,,,,,,,VFR,,,,,,,,,,,,METAR,89.0
KTCS 280953Z AUTO 32008KT 10SM CLR 16/M11 A2989 RMK AO2 SLP044 T01611111,KTCS,2023-04-28T09:53:00Z,33.23,-107.27,16.1,-11.1,320,8,,10.0,29.890747,1004.4,,TRUE,TRUE,,,,,,,CLR,,,,,,,,VFR,,,,,,,,,,,,METAR,1471.0
KSWO 280953Z AUTO 23003KT 4SM BR CLR 09/08 A2981 RMK AO2 SLP090 T00890083,KSWO,2023-04-28T09:53:00Z,36.17,-97.08,8.9,8.3,230,3,,4.0,29.811024,1009.0,,TRUE,TRUE,,,,,,BR,CLR,,,,,,,,MVFR,,,,,,,,,,,,METAR,293.0
KSTS 280953Z AUTO 13004KT 10SM CLR 11/09 A2991 RMK AO2 SLP120 T01110089,KSTS,2023-04-28T09:53:00Z,38.5,-122.82,11.1,8.9,130,4,,10.0,29.911417,1012.0,,TRUE,TRUE,,,,,,,CLR,,,,,,,,VFR,,,,,,,,,,,,METAR,35.0
KSTP 280953Z AUTO VRB04KT 10SM BKN070 OVC085 10/07 A2980 RMK AO2 SLP092 T01000072,KSTP,2023-04-28T09:53:00Z,44.93,-93.05,10.0,7.2,0,4,,10.0,29.799213,1009.2,,TRUE,TRUE,,,,,,,BKN,7000,OVC,8500,,,,,VFR,,,,,,,,,,,,METAR,213.0
KSTJ 280953Z AUTO 00000KT 10SM BKN075 OVC090 12/09 A2980 RMK AO2 SLP087 T01220089,KSTJ,2023-04-28T09:53:00Z,39.77,-94.92,12.2,8.9,0,0,,10.0,29.799213,1008.7,,TRUE,TRUE,,,,,,,BKN,7500,OVC,9000,,,,,VFR,,,,,,,,,,,,METAR,247.0
KSTC 280953Z AUTO 01005KT 9SM -RA OVC008 08/07 A2983 RMK AO2 RAB11 CIG 006V010 SLP115 P0000 T00830072,KSTC,2023-04-28T09:53:00Z,45.55,-94.05,8.3,7.2,10,5,,9.0,29.828741,1011.5,,TRUE,TRUE,,,,,,-RA,OVC,800,,,,,,,IFR,,,,,,0.005,,,,,,METAR,302.0
KSSI 280953Z AUTO 23005KT 10SM SCT014 20/17 A2981 RMK AO2 SLP096 T02000172,KSSI,2023-04-28T09:53:00Z,31.15,-81.38,20.0,17.2,230,5,,10.0,29.811024,1009.6,,TRUE,TRUE,,,,,,,SCT,1400,,,,,,,VFR,,,,,,,,,,,,METAR,6.0
KSSF 280953Z AUTO 00000KT 10SM OVC006 18/18 A2976 RMK AO2 SLP070 T01830178 $,KSSF,2023-04-28T09:53:00Z,29.33,-98.47,18.3,17.8,0,0,,10.0,29.760826,1007.0,,TRUE,TRUE,TRUE,,,,,,OVC,600,,,,,,,IFR,,,,,,,,,,,,METAR,175.0
KSRQ 280953Z AUTO 21011KT 10SM FEW100 SCT120 26/22 A2985 RMK AO2 SLP107 T02560217,KSRQ,2023-04-28T09:53:00Z,27.4,-82.57,25.6,21.7,210,11,,10.0,29.84941,1010.7,,TRUE,TRUE,,,,,,,FEW,10000,SCT,12000,,,,,VFR,,,,,,,,,,,,METAR,5.0
KSPW 280953Z AUTO 00000KT 10SM FEW070 OVC100 10/07 A2977 RMK AO2 RAB07E43 SLP080 P0000 T01000072,KSPW,2023-04-28T09:53:00Z,43.17,-95.22,10.0,7.2,0,0,,10.0,29.769686,1008.0,,TRUE,TRUE,,,,,,,FEW,7000,OVC,10000,,,,,VFR,,,,,,0.005,,,,,,METAR,407.0
KSPG 280953Z AUTO 22007KT 10SM CLR 24/23 A2983 RMK AO2 SLP101 T02440228 $,KSPG,2023-04-28T09:53:00Z,27.77,-82.63,24.4,22.8,220,7,,10.0,29.828741,1010.1,,TRUE,TRUE,TRUE,,,,,,CLR,,,,,,,,VFR,,,,,,,,,,,,METAR,1.0
KSPB 280953Z AUTO 00000KT 10SM CLR 12/06 A3000 RMK AO2 SLP158 T01170061,KSPB,2023-04-28T09:53:00Z,45.77,-122.87,11.7,6.1,0,0,,10.0,30.0,1015.8,,TRUE,TRUE,,,,,,,CLR,,,,,,,,VFR,,,,,,,,,,,,METAR,15.0
KSNY 280953Z AUTO 33010KT 10SM CLR 01/M01 A3010 RMK AO2 SLP191 T00111006 $,KSNY,2023-04-28T09:53:00Z,41.1,-102.98,1.1,-0.6,330,10,,10.0,30.100393,1019.1,,TRUE,TRUE,TRUE,,,,,,CLR,,,,,,,,VFR,,,,,,,,,,,,METAR,1307.0
KSNS 280953Z AUTO 31003KT 6SM OVC003 11/09 A2994 RMK AO2 SLP147 T01110094,KSNS,2023-04-28T09:53:00Z,36.67,-121.6,11.1,9.4,310,3,,6.0,29.940945,1014.7,,TRUE,TRUE,,,,,,,OVC,300,,,,,,,LIFR,,,,,,,,,,,,METAR,20.0
KSNA 280953Z AUTO 18005KT 10SM OVC009 14/11 A2992 RMK AO2 SLP133 T01440111,KSNA,2023-04-28T09:53:00Z,33.67,-117.87,14.4,11.1,180,5,,10.0,29.920275,1013.3,,TRUE,TRUE,,,,,,,OVC,900,,,,,,,IFR,,,,,,,,,,,,METAR,14.0
KSMF 280953Z 13005KT 10SM CLR 18/10 A2985 RMK AO2 SLP106 T01780100,KSMF,2023-04-28T09:53:00Z,38.7,-121.6,17.8,10.0,130,5,,10.0,29.84941,1010.6,,,TRUE,,,,,,,CLR,,,,,,,,VFR,,,,,,,,,,,,METAR,7.0
KSLN 280953Z AUTO 00000KT 10SM OVC060 11/08 A2983 RMK AO2 SLP096 T01110078,KSLN,2023-04-28T09:53:00Z,38.8,-97.65,11.1,7.8,0,0,,10.0,29.828741,1009.6,,TRUE,TRUE,,,,,,,OVC,6000,,,,,,,VFR,,,,,,,,,,,,METAR,377.0
KSJC 280953Z AUTO 19003KT 10SM CLR 16/09 A2991 RMK AO2 SLP126 T01560089,KSJC,2023-04-28T09:53:00Z,37.37,-121.92,15.6,8.9,190,3,,10.0,29.911417,1012.6,,TRUE,TRUE,,,,,,,CLR,,,,,,,,VFR,,,,,,,,,,,,METAR,13.0
KSIY 280953Z AUTO 00000KT 10SM CLR 09/03 A3002 RMK AO2 SLP159 T00940033,KSIY,2023-04-28T09:53:00Z,41.77,-122.47,9.4,3.3,0,0,,10.0,30.02067,1015.9,,TRUE,TRUE,,,,,,,CLR,,,,,,,,VFR,,,,,,,,,,,,METAR,807.0
KSHR 280953Z AUTO 27009KT 10SM CLR 01/M03 A3021 RMK AO2 SLP253 T00111033,KSHR,2023-04-28T09:53:00Z,44.77,-106.97,1.1,-3.3,270,9,,10.0,30.209646,1025.3,,TRUE,TRUE,,,,,,,CLR,,,,,,,,VFR,,,,,,,,,,,,METAR,1212.0
KSHN 280953Z AUTO 00000KT 10SM CLR 06/05 A3006 RMK AO2 SLP181 T00610050,KSHN,2023-04-28T09:53:00Z,47.23,-123.13,6.1,5.0,0,0,,10.0,30.059055,1018.1,,TRUE,TRUE,,,,,,,CLR,,,,,,,,VFR,,,,,,,,,,,,METAR,84.0
KSGR 280953Z AUTO 20003KT 10SM CLR 14/13 A2976 RMK AO2 SLP079 T01390133,KSGR,2023-04-28T09:53:00Z,29.62,-95.65,13.9,13.3,200,3,,10.0,29.760826,1007.9,,TRUE,TRUE,,,,,,,CLR,,,,,,,,VFR,,,,,,,,,,,,METAR,22.0
KSFF 280953Z 03004KT 10SM CLR 06/00 A3020 RMK AO2 SLP225 T00610000,KSFF,2023-04-28T09:53:00Z,47.68,-117.32,6.1,0.0,30,4,,10.0,30.200787,1022.5,,,TRUE,,,,,,,CLR,,,,,,,,VFR,,,,,,,,,,,,METAR,593.0
KSEG 280953Z AUTO VRB03KT 10SM OVC024 11/06 A3007 RMK AO2 SLP183 T01110061,KSEG,2023-04-28T09:53:00Z,40.82,-76.87,11.1,6.1,0,3,,10.0,30.070866,1018.3,,TRUE,TRUE,,,,,,,OVC,2400,,,,,,,MVFR,,,,,,,,,,,,METAR,136.0
KSEA 280953Z 36007KT 10SM FEW250 10/06 A3009 RMK AO2 SLP194 T01000056,KSEA,2023-04-28T09:53:00Z,47.45,-122.32,10.0,5.6,360,7,,10.0,30.088583,1019.4,,,TRUE,,,,,,,FEW,25000,,,,,,,VFR,,,,,,,,,,,,METAR,115.0
KSDL 280953Z AUTO 20003KT 10SM CLR 20/03 A2981 RMK AO2 SLP070 T02000028,KSDL,2023-04-28T09:53:00Z,33.62,-111.92,20.0,2.8,200,3,,10.0,29.811024,1007.0,,TRUE,TRUE,,,,,,,CLR,,,,,,,,VFR,,,,,,,,,,,,METAR,438.0
KSBM 280953Z AUTO 34004KT 7SM CLR 01/M01 A2988 RMK AO2 SLP121 T00111011,KSBM,2023-04-28T09:53:00Z,43.78,-87.85,1.1,-1.1,340,4,,7.0,29.878937,1012.1,,TRUE,TRUE,,,,,,,CLR,,,,,,,,VFR,,,,,,,,,,,,METAR,225.0
KSBA 280953Z AUTO 00000KT 2 1/2SM FG BR OVC003 12/11 A2992 RMK AO2 SLP133 T01170106 $,KSBA,2023-04-28T09:53:00Z,34.43,-119.85,11.7,10.6,0,0,,2.5,29.920275,1013.3,,TRUE,TRUE,TRUE,,,,,FG BR,OVC,300,,,,,,,LIFR,,,,,,,,,,,,METAR,2.0
KSAF 280953Z AUTO 01009KT 10SM CLR 07/M08 A2992 RMK AO2 SLP058 T00671083,KSAF,2023-04-28T09:53:00Z,35.62,-106.1,6.7,-8.3,10,9,,10.0,29.920275,1005.8,,TRUE,TRUE,,,,,,,CLR,,,,,,,,VFR,,,,,,,,,,,,METAR,1918.0
KSAC 280953Z AUTO 17003KT 10SM CLR 16/10 A2986 RMK AO2 SLP110 T01560100,KSAC,2023-04-28T09:53:00Z,38.5,-121.5,15.6,10.0,170,3,,10.0,29.861221,1011.0,,TRUE,TRUE,,,,,,,CLR,,,,,,,,VFR,,,,,,,,,,,,METAR,5.0
KRXE 280953Z AUTO 03005KT 10SM CLR 00/M06 A3031 RMK AO2 SLP256 T00001061,KRXE,2023-04-28T09:53:00Z,43.83,-111.8,0.0,-6.1,30,5,,10.0,30.31004,1025.6,,TRUE,TRUE,,,,,,,CLR,,,,,,,,VFR,,,,,,,,,,,,METAR,1483.0
KRWL 280953Z AUTO 34007KT 10SM BKN024 BKN029 M01/M03 A3025 RMK AO2 SLP228 T10061033,KRWL,2023-04-28T09:53:00Z,41.8,-107.2,-0.6,-3.3,340,7,,10.0,30.250984,1022.8,,TRUE,TRUE,,,,,,,BKN,2400,BKN,2900,,,,,MVFR,,,,,,,,,,,,METAR,2066.0
KRTN 280953Z AUTO 36021G32KT 10SM OVC050 03/M02 A3000 RMK AO2 PK WND 36032/0949 SLP103 T00331017,KRTN,2023-04-28T09:53:00Z,36.73,-104.5,3.3,-1.7,360,21,32,10.0,30.0,1010.3,,TRUE,TRUE,,,,,,,OVC,5000,,,,,,,VFR,,,,,,,,,,,,METAR,1939.0
KRSW 280953Z 15003KT 10SM CLR 20/18 A2989 RMK AO2 SLP119 T02000183,KRSW,2023-04-28T09:53:00Z,26.53,-81.75,20.0,18.3,150,3,,10.0,29.890747,1011.9,,,TRUE,,,,,,,CLR,,,,,,,,VFR,,,,,,,,,,,,METAR,8.0
KRQE 280953Z AUTO 04003KT 10SM CLR 02/M08 A3003 RMK AO2 SLP093 T00221078,KRQE,2023-04-28T09:53:00Z,35.65,-109.07,2.2,-7.8,40,3,,10.0,30.029528,1009.3,,TRUE,TRUE,,,,,,,CLR,,,,,,,,VFR,,,,,,,,,,,,METAR,2056.0
KRNT 280953Z AUTO 34007KT 10SM CLR 11/08 A3008 RMK AO2 SLP192 T01110083,KRNT,2023-04-28T09:53:00Z,47.5,-122.22,11.1,8.3,340,7,,10.0,30.079725,1019.2,,TRUE,TRUE,,,,,,,CLR,,,,,,,,VFR,,,,,,,,,,,,METAR,7.0
KRMG 280953Z AUTO 13003KT 10SM OVC009 16/15 A2972 RMK AO2 CIG 006V012 SLP057 T01610150,KRMG,2023-04-28T09:53:00Z,34.35,-85.17,16.1,15.0,130,3,,10.0,29.719488,1005.7,,TRUE,TRUE,,,,,,,OVC,900,,,,,,,IFR,,,,,,,,,,,,METAR,196.0
KRME 280953Z AUTO 12005KT 10SM CLR 04/01 A3017 RMK AO2 SLP215 T00440011,KRME,2023-04-28T09:53:00Z,43.22,-75.4,4.4,1.1,120,5,,10.0,30.171259,1021.5,,TRUE,TRUE,,,,,,,CLR,,,,,,,,VFR,,,,,,,,,,,,METAR,146.0
KRKP 280953Z AUTO 15004KT 8SM CLR 20/19 A2977 RMK AO2 SLP082 T02000194 $,KRKP,2023-04-28T09:53:00Z,28.08,-97.05,20.0,19.4,150,4,,8.0,29.769686,1008.2,,TRUE,TRUE,TRUE,,,,,,CLR,,,,,,,,VFR,,,,,,,,,,,,METAR,8.0
KRIW 280953Z AUTO 30007KT 10SM CLR M03/M07 A3025 RMK AO2 SLP265 T10331067 $,KRIW,2023-04-28T09:53:00Z,43.07,-108.43,-3.3,-6.7,300,7,,10.0,30.250984,1026.5,,TRUE,TRUE,TRUE,,,,,,CLR,,,,,,,,VFR,,,,,,,,,,,,METAR,1662.0
KRIL 280953Z AUTO 32011KT 10SM FEW120 06/M02 A3014 RMK AO2 SLP170 T00561022,KRIL,2023-04-28T09:53:00Z,39.53,-107.73,5.6,-2.2,320,11,,10.0,30.138779,1017.0,,TRUE,TRUE,,,,,,,FEW,12000,,,,,,,VFR,,,,,,,,,,,,METAR,1683.0
KRHI 280953Z AUTO 12005KT 7SM OVC060 06/04 A2986 RMK AO2 SLP119 T00610039 $,KRHI,2023-04-28T09:53:00Z,45.63,-89.48,6.1,3.9,120,5,,7.0,29.861221,1011.9,,TRUE,TRUE,TRUE,,,,,,OVC,6000,,,,,,,VFR,,,,,,,,,,,,METAR,493.0
KRDD 280953Z AUTO 33003KT 10SM CLR 16/10 A2989 RMK AO2 SLP115 T01560100,KRDD,2023-04-28T09:53:00Z,40.52,-122.3,15.6,10.0,330,3,,10.0,29.890747,1011.5,,TRUE,TRUE,,,,,,,CLR,,,,,,,,VFR,,,,,,,,,,,,METAR,152.0
KRBG 280953Z AUTO 00000KT 10SM CLR 14/10 A2994 RMK AO2 SLP137 T01390100,KRBG,2023-04-28T09:53:00Z,43.23,-123.35,13.9,10.0,0,0,,10.0,29.940945,1013.7,,TRUE,TRUE,,,,,,,CLR,,,,,,,,VFR,,,,,,,,,,,,METAR,152.0
KRBD 280953Z AUTO 13003KT 10SM CLR 11/11 A2978 RMK AO2 SLP082 T01110106,KRBD,2023-04-28T09:53:00Z,32.68,-96.87,11.1,10.6,130,3,,10.0,29.778543,1008.2,,TRUE,TRUE,,,,,,,CLR,,,,,,,,VFR,,,,,,,,,,,,METAR,200.0
KRAL 280953Z AUTO 00000KT 7SM CLR 13/11 A2992 RMK AO2 SLP116 T01330106,KRAL,2023-04-28T09:53:00Z,33.95,-117.45,13.3,10.6,0,0,,7.0,29.920275,1011.6,,TRUE,TRUE,,,,,,,CLR,,,,,,,,VFR,,,,,,,,,,,,METAR,254.0
KRAC 280953Z AUTO 00000KT 10SM CLR 07/01 A2987 RMK AO2 SLP115 T00720006,KRAC,2023-04-28T09:53:00Z,42.77,-87.82,7.2,0.6,0,0,,10.0,29.870079,1011.5,,TRUE,TRUE,,,,,,,CLR,,,,,,,,VFR,,,,,,,,,,,,METAR,203.0
KPWA 280953Z AUTO 00000KT 4SM BR CLR 06/05 A2982 RMK AO2 SLP096 T00610050,KPWA,2023-04-28T09:53:00Z,35.53,-97.65,6.1,5.0,0,0,,4.0,29.819881,1009.6,,TRUE,TRUE,,,,,,BR,CLR,,,,,,,,MVFR,,,,,,,,,,,,METAR,390.0
KPUW 280953Z AUTO 09003KT 10SM CLR 07/M02 A3020 RMK AO2 SLP225 T00721022,KPUW,2023-04-28T09:53:00Z,46.75,-117.12,7.2,-2.2,90,3,,10.0,30.200787,1022.5,,TRUE,TRUE,,,,,,,CLR,,,,,,,,VFR,,,,,,,,,,,,METAR,774.0
KPUC 280953Z AUTO 03020KT 10SM CLR 04/M04 A3020 RMK AO2 SLP203 T00441044,KPUC,2023-04-28T09:53:00Z,39.62,-110.75,4.4,-4.4,30,20,,10.0,30.200787,1020.3,,TRUE,TRUE,,,,,,,CLR,,,,,,,,VFR,,,,,,,,,,,,METAR,1777.0
KPUB 280953Z AUTO 02019G31KT 10SM FEW035 BKN070 OVC085 07/M01 A3011 RMK AO2 PK WND 02037/0909 RAE0859 SLP162 P0000 T00671006,KPUB,2023-04-28T09:53:00Z,38.28,-104.5,6.7,-0.6,20,19,31,10.0,30.109253,1016.2,,TRUE,TRUE,,,,,,,FEW,3500,BKN,7000,OVC,8500,,,VFR,,,,,,0.005,,,,,,METAR,1441.0
KPTK 280953Z 06008KT 10SM FEW120 OVC170 07/00 A2986 RMK AO2 SLP112 T00720000,KPTK,2023-04-28T09:53:00Z,42.67,-83.42,7.2,0.0,60,8,,10.0,29.861221,1011.2,,,TRUE,,,,,,,FEW,12000,OVC,17000,,,,,VFR,,,,,,,,,,,,METAR,295.0
KPSX 280953Z AUTO 14006KT 6SM BR CLR 19/19 A2976 RMK AO2 SLP077 T01890189 $,KPSX,2023-04-28T09:53:00Z,28.72,-96.25,18.9,18.9,140,6,,6.0,29.760826,1007.7,,TRUE,TRUE,TRUE,,,,,BR,CLR,,,,,,,,VFR,,,,,,,,,,,,METAR,4.0
KPSP 280953Z AUTO 00000KT 10SM CLR 23/07 A2980 RMK AO2 SLP087 T02330067 $,KPSP,2023-04-28T09:53:00Z,33.82,-116.5,23.3,6.7,0,0,,10.0,29.799213,1008.7,,TRUE,TRUE,TRUE,,,,,,CLR,,,,,,,,VFR,,,,,,,,,,,,METAR,123.0
KPSC 280953Z AUTO 34005KT 10SM CLR 06/04 A3014 RMK AO2 SLP207 T00610039,KPSC,2023-04-28T09:53:00Z,46.27,-119.12,6.1,3.9,340,5,,10.0,30.138779,1020.7,,TRUE,TRUE,,,,,,,CLR,,,,,,,,VFR,,,,,,,,,,,,METAR,121.0
KPRC 280953Z AUTO 19005KT 10SM CLR 08/M02 A3003 RMK AO2 SLP103 T00831022,KPRC,2023-04-28T09:53:00Z,34.65,-112.42,8.3,-2.2,190,5,,10.0,30.029528,1010.3,,TRUE,TRUE,,,,,,,CLR,,,,,,,,VFR,,,,,,,,,,,,METAR,1528.0
KPRB 280953Z AUTO 00000KT 10SM CLR 11/07 A2992 RMK AO2 SLP125 T01110072,KPRB,2023-04-28T09:53:00Z,35.67,-120.63,11.1,7.2,0,0,,10.0,29.920275,1012.5,,TRUE,TRUE,,,,,,,CLR,,,,,,,,VFR,,,,,,,,,,,,METAR,249.0
KPNS 280953Z 24004KT 9SM FEW004 BKN012 21/19 A2977 RMK AO2 SLP082 T02060194 $,KPNS,2023-04-28T09:53:00Z,30.48,-87.18,20.6,19.4,240,4,,9.0,29.769686,1008.2,,,TRUE,TRUE,,,,,,FEW,400,BKN,1200,,,,,MVFR,,,,,,,,,,,,METAR,34.0
KPMP 280953Z AUTO 00000KT 10SM CLR 22/18 A2990 RMK AO2 SLP124 T02220183,KPMP,2023-04-28T09:53:00Z,26.25,-80.12,22.2,18.3,0,0,,10.0,29.899607,1012.4,,TRUE,TRUE,,,,,,,CLR,,,,,,,,VFR,,,,,,,,,,,,METAR,4.0
KPMD 280953Z AUTO 20009KT 10SM CLR 16/02 A2994 RMK AO2 SLP114 T01560022,KPMD,2023-04-28T09:53:00Z,34.63,-118.08,15.6,2.2,200,9,,10.0,29.940945,1011.4,,TRUE,TRUE,,,,,,,CLR,,,,,,,,VFR,,,,,,,,,,,,METAR,764.0
KPKD 280953Z AUTO 35009KT 10SM OVC035 05/03 A2990 RMK AO2 RAE42 SLP135 P0000 T00500033,KPKD,2023-04-28T09:53:00Z,46.9,-95.07,5.0,3.3,350,9,,10.0,29.899607,1013.5,,TRUE,TRUE,,,,,,,OVC,3500,,,,,,,VFR,,,,,,0.005,,,,,,METAR,439.0
KPIR 280953Z AUTO 33013KT 10SM OVC090 05/03 A3004 RMK AO2 SLP173 T00500033,KPIR,2023-04-28T09:53:00Z,44.38,-100.28,5.0,3.3,330,13,,10.0,30.041338,1017.3,,TRUE,TRUE,,,,,,,OVC,9000,,,,,,,VFR,,,,,,,,,,,,METAR,524.0
KPIL 280953Z AUTO 00000KT 10SM OVC010 23/22 A2977 RMK AO2 SLP080 T02330222 $,KPIL,2023-04-28T09:53:00Z,26.17,-97.33,23.3,22.2,0,0,,10.0,29.769686,1008.0,,TRUE,TRUE,TRUE,,,,,,OVC,1000,,,,,,,MVFR,,,,,,,,,,,,METAR,5.0
KPIH 280953Z AUTO 00000KT 10SM CLR M01/M07 A3028 RMK AO2 SLP243 T10061072,KPIH,2023-04-28T09:53:00Z,42.92,-112.57,-0.6,-7.2,0,0,,10.0,30.280512,1024.3,,TRUE,TRUE,,,,,,,CLR,,,,,,,,VFR,,,,,,,,,,,,METAR,1357.0
KPIE 280953Z 20009KT 10SM FEW110 23/22 A2984 RMK AO2 SLP104 T02330222,KPIE,2023-04-28T09:53:00Z,27.92,-82.68,23.3,22.2,200,9,,10.0,29.840551,1010.4,,,TRUE,,,,,,,FEW,11000,,,,,,,VFR,,,,,,,,,,,,METAR,1.0
KPHD 280953Z AUTO 10007KT 9SM -RA OVC070 13/10 A2981 RMK AO2 SLP092 P0005 T01280100,KPHD,2023-04-28T09:53:00Z,40.47,-81.42,12.8,10.0,100,7,,9.0,29.811024,1009.2,,TRUE,TRUE,,,,,,-RA,OVC,7000,,,,,,,VFR,,,,,,0.05,,,,,,METAR,272.0
KPGD 280953Z 19007KT 10SM CLR 22/19 A2990 RMK AO2 SLP123 T02170189,KPGD,2023-04-28T09:53:00Z,26.92,-82.0,21.7,18.9,190,7,,10.0,29.899607,1012.3,,,TRUE,,,,,,,CLR,,,,,,,,VFR,,,,,,,,,,,,METAR,7.0
KPGA 280953Z AUTO 31008KT 10SM CLR 18/M04 A2999 RMK AO2 SLP095 T01831039,KPGA,2023-04-28T09:53:00Z,36.92,-111.45,18.3,-3.9,310,8,,10.0,29.991142,1009.5,,TRUE,TRUE,,,,,,,CLR,,,,,,,,VFR,,,,,,,,,,,,METAR,1310.0
KPEO 280953Z AUTO 00000KT 10SM FEW042 SCT050 06/05 A3007 RMK AO2 SLP186 T00560050,KPEO,2023-04-28T09:53:00Z,42.65,-77.05,5.6,5.0,0,0,,10.0,30.070866,1018.6,,TRUE,TRUE,,,,,,,FEW,4200,SCT,5000,,,,,VFR,,,,,,,,,,,,METAR,268.0
KPDX 280953Z 29006KT 10SM CLR 13/07 A3000 RMK AO2 SLP159 T01330067,KPDX,2023-04-28T09:53:00Z,45.6,-122.62,13.3,6.7,290,6,,10.0,30.0,1015.9,,,TRUE,,,,,,,CLR,,,,,,,,VFR,,,,,,,,,,,,METAR,7.0
KPDT 280953Z AUTO 15003KT 10SM CLR 11/01 A3014 RMK AO2 SLP198 T01110011,KPDT,2023-04-28T09:53:00Z,45.7,-118.83,11.1,1.1,150,3,,10.0,30.138779,1019.8,,TRUE,TRUE,,,,,,,CLR,,,,,,,,VFR,,,,,,,,,,,,METAR,453.0
KPBI 280953Z 00000KT 10SM SCT180 SCT200 22/18 A2990 RMK AO2 SLP126 T02170183 $,KPBI,2023-04-28T09:53:00Z,26.68,-80.1,21.7,18.3,0,0,,10.0,29.899607,1012.6,,,TRUE,TRUE,,,,,,SCT,18000,SCT,20000,,,,,VFR,,,,,,,,,,,,METAR,4.0
KPBG 280953Z AUTO 00000KT 10SM CLR M01/M02 A3020 RMK AO2 SLP227 T10061017,KPBG,2023-04-28T09:53:00Z,44.65,-73.47,-0.6,-1.7,0,0,,10.0,30.200787,1022.7,,TRUE,TRUE,,,,,,,CLR,,,,,,,,VFR,,,,,,,,,,,,METAR,61.0
KPBF 280953Z AUTO 27004KT 10SM OVC005 14/13 A2976 RMK AO2 SLP076 T01440128,KPBF,2023-04-28T09:53:00Z,34.18,-91.93,14.4,12.8,270,4,,10.0,29.760826,1007.6,,TRUE,TRUE,,,,,,,OVC,500,,,,,,,IFR,,,,,,,,,,,,METAR,63.0
KPAH 280953Z AUTO 01006KT 2 1/2SM BR OVC003 13/12 A2969 RMK AO2 SLP050 T01280117,KPAH,2023-04-28T09:53:00Z,37.07,-88.77,12.8,11.7,10,6,,2.5,29.68996,1005.0,,TRUE,TRUE,,,,,,BR,OVC,300,,,,,,,LIFR,,,,,,,,,,,,METAR,125.0
KPAE 280953Z AUTO 36004KT 10SM CLR 10/07 A3011 RMK AO2 SLP196 T01000067,KPAE,2023-04-28T09:53:00Z,47.92,-122.28,10.0,6.7,360,4,,10.0,30.109253,1019.6,,TRUE,TRUE,,,,,,,CLR,,,,,,,,VFR,,,,,,,,,,,,METAR,166.0
KP68 280953Z AUTO 00000KT 01/M03 A3020 RMK AO1 SLP182 T00111033,KP68,2023-04-28T09:53:00Z,39.6,-116.0,1.1,-3.3,0,0,,,30.200787,1018.2,,TRUE,TRUE,,,,,,,,,,,,,,,,,,,,,,,,,,,METAR,1813.0
KOXB 280953Z AUTO 10011G20KT 10SM FEW038 OVC045 13/11 A3003 RMK AO2 SLP169 T01330111,KOXB,2023-04-28T09:53:00Z,38.32,-75.12,13.3,11.1,100,11,20,10.0,30.029528,1016.9,,TRUE,TRUE,,,,,,,FEW,3800,OVC,4500,,,,,VFR,,,,,,,,,,,,METAR,2.0
KOVS 280953Z AUTO 00000KT 10SM CLR 04/01 A2983 RMK AO2 SLP103 T00440011,KOVS,2023-04-28T09:53:00Z,43.15,-90.68,4.4,1.1,0,0,,10.0,29.828741,1010.3,,TRUE,TRUE,,,,,,,CLR,,,,,,,,VFR,,,,,,,,,,,,METAR,205.0
KOTM 280953Z AUTO 17004KT 10SM CLR 07/04 A2979 RMK AO2 SLP087 T00670039,KOTM,2023-04-28T09:53:00Z,41.1,-92.45,6.7,3.9,170,4,,10.0,29.790354,1008.7,,TRUE,TRUE,,,,,,,CLR,,,,,,,,VFR,,,,,,,,,,,,METAR,254.0
KORL 280953Z AUTO 22005KT 10SM CLR 20/18 A2987 RMK AO2 SLP119 T02000183,KORL,2023-04-28T09:53:00Z,28.55,-81.33,20.0,18.3,220,5,,10.0,29.870079,1011.9,,TRUE,TRUE,,,,,,,CLR,,,,,,,,VFR,,,,,,,,,,,,METAR,32.0
KOPF 280953Z AUTO 01003KT 10SM CLR 22/19 A2990 RMK AO2 SLP126 T02220194,KOPF,2023-04-28T09:53:00Z,25.92,-80.28,22.2,19.4,10,3,,10.0,29.899607,1012.6,,TRUE,TRUE,,,,,,,CLR,,,,,,,,VFR,,,,,,,,,,,,METAR,1.0
KONT 280953Z 00000KT 6SM BR CLR 13/12 A2992 RMK AO2 SLP118 T01280117 $,KONT,2023-04-28T09:53:00Z,34.05,-117.58,12.8,11.7,0,0,,6.0,29.920275,1011.8,,,TRUE,TRUE,,,,,BR,CLR,,,,,,,,VFR,,,,,,,,,,,,METAR,279.0
KONO 280953Z AUTO 09003KT 10SM CLR 11/01 A3020 RMK AO2 SLP221 T01060006,KONO,2023-04-28T09:53:00Z,44.02,-117.02,10.6,0.6,90,3,,10.0,30.200787,1022.1,,TRUE,TRUE,,,,,,,CLR,,,,,,,,VFR,,,,,,,,,,,,METAR,668.0
KOMK 280953Z AUTO 05004KT 10SM CLR 07/M02 A3019 RMK AO2 SLP223 T00721017,KOMK,2023-04-28T09:53:00Z,48.47,-119.52,7.2,-1.7,50,4,,10.0,30.188976,1022.3,,TRUE,TRUE,,,,,,,CLR,,,,,,,,VFR,,,,,,,,,,,,METAR,395.0
KOLF 280953Z AUTO 21003KT 10SM OVC080 04/02 A3013 RMK AO2 SLP211 T00440017,KOLF,2023-04-28T09:53:00Z,48.1,-105.58,4.4,1.7,210,3,,10.0,30.129921,1021.1,,TRUE,TRUE,,,,,,,OVC,8000,,,,,,,VFR,,,,,,,,,,,,METAR,605.0
KOJC 280953Z AUTO 19003KT 10SM OVC090 11/08 A2980 RMK AO2 SLP087 T01110078,KOJC,2023-04-28T09:53:00Z,38.85,-94.73,11.1,7.8,190,3,,10.0,29.799213,1008.7,,TRUE,TRUE,,,,,,,OVC,9000,,,,,,,VFR,,,,,,,,,,,,METAR,328.0
KOGD 280953Z AUTO A3017 RMK AO2 SLPNO PWINO FZRANO $,KOGD,2023-04-28T09:53:00Z,41.2,-112.02,,,,,,,30.171259,,,TRUE,TRUE,TRUE,,,TRUE,TRUE,,,,,,,,,,,,,,,,,,,,,,METAR,1356.0
KODO 280953Z AUTO 21014KT 10SM CLR 18/M01 A2972 RMK AO2 SLP022 T01831006,KODO,2023-04-28T09:53:00Z,31.92,-102.4,18.3,-0.6,210,14,,10.0,29.719488,1002.2,,TRUE,TRUE,,,,,,,CLR,,,,,,,,VFR,,,,,,,,,,,,METAR,912.0
KOAK 280953Z 36003KT 10SM FEW010 SCT250 11/09 A2993 RMK AO2 SLP132 T01110094,KOAK,2023-04-28T09:53:00Z,37.72,-122.23,11.1,9.4,360,3,,10.0,29.929134,1013.2,,,TRUE,,,,,,,FEW,1000,SCT,25000,,,,,VFR,,,,,,,,,,,,METAR,3.0
KNUW 280953Z 00000KT 10SM FEW250 07/06 A3013 RMK AO2 SLP205 T00720061 VISNO $,KNUW,2023-04-28T09:53:00Z,48.35,-122.65,7.2,6.1,0,0,,10.0,30.129921,1020.5,,,TRUE,TRUE,,,,,,FEW,25000,,,,,,,VFR,,,,,,,,,,,,METAR,14.0
KNUI 280953Z AUTO 08010G19KT 5SM RA BR BKN008 OVC011 14/13 A2996 RMK AO2 SLP145 P0003 T01440133 $,KNUI,2023-04-28T09:53:00Z,38.15,-76.43,14.4,13.3,80,10,19,5.0,29.958662,1014.5,,TRUE,TRUE,TRUE,,,,,RA BR,BKN,800,OVC,1100,,,,,IFR,,,,,,0.03,,,,,,METAR,4.0
KNSI 280953Z AUTO 28008KT 1/4SM FG VV002 10/10 A2993 RMK AO2 SLP131 T01000100 $,KNSI,2023-04-28T09:53:00Z,33.23,-119.45,10.0,10.0,280,8,,0.25,29.929134,1013.1,,TRUE,TRUE,TRUE,,,,,FG,OVX,0,,,,,,,LIFR,,,,,,,,,,,200,METAR,161.0
KNRS 280953Z AUTO 33005KT 7SM OVC007 14/12 A2993 RMK AO2 SLP134 T01440122,KNRS,2023-04-28T09:53:00Z,32.57,-117.12,14.4,12.2,330,5,,7.0,29.929134,1013.4,,TRUE,TRUE,,,,,,,OVC,700,,,,,,,IFR,,,,,,,,,,,,SPECI,15.0
KNIP 280953Z 16008KT 10SM FEW010 OVC250 19/18 A2984 RMK AO2 SLP099 T01940183,KNIP,2023-04-28T09:53:00Z,30.23,-81.67,19.4,18.3,160,8,,10.0,29.840551,1009.9,,,TRUE,,,,,,,FEW,1000,OVC,25000,,,,,VFR,,,,,,,,,,,,SPECI,3.0
KNEW 280953Z AUTO 28010KT 10SM CLR 22/20 A2979 RMK AO2 SLP081 T02170200,KNEW,2023-04-28T09:53:00Z,30.05,-90.03,21.7,20.0,280,10,,10.0,29.790354,1008.1,,TRUE,TRUE,,,,,,,CLR,,,,,,,,VFR,,,,,,,,,,,,METAR,1.0
KMYV 280953Z AUTO 09003KT 10SM CLR 18/11 A2985 RMK AO2 SLP112 T01780106 $,KMYV,2023-04-28T09:53:00Z,39.1,-121.57,17.8,10.6,90,3,,10.0,29.84941,1011.2,,TRUE,TRUE,TRUE,,,,,,CLR,,,,,,,,VFR,,,,,,,,,,,,METAR,18.0
KMYF 280953Z AUTO 01004KT 3SM BR OVC003 13/12 A2992 RMK AO2 SLP130 T01280117,KMYF,2023-04-28T09:53:00Z,32.82,-117.13,12.8,11.7,10,4,,3.0,29.920275,1013.0,,TRUE,TRUE,,,,,,BR,OVC,300,,,,,,,LIFR,,,,,,,,,,,,METAR,128.0
KMWL 280953Z AUTO 12007KT 10SM CLR 12/10 A2976 RMK AO2 SLP070 T01170100,KMWL,2023-04-28T09:53:00Z,32.78,-98.07,11.7,10.0,120,7,,10.0,29.760826,1007.0,,TRUE,TRUE,,,,,,,CLR,,,,,,,,VFR,,,,,,,,,,,,METAR,288.0
KMTO 280953Z AUTO 34007KT 10SM CLR 08/06 A2974 RMK AO2 SLP070 T00830061,KMTO,2023-04-28T09:53:00Z,39.47,-88.27,8.3,6.1,340,7,,10.0,29.740158,1007.0,,TRUE,TRUE,,,,,,,CLR,,,,,,,,VFR,,,,,,,,,,,,METAR,216.0
KMTJ 280953Z AUTO 31019G32KT 10SM SCT070 05/M01 A3011 RMK AO2 PK WND 32032/0942 SLP149 T00501006 $,KMTJ,2023-04-28T09:53:00Z,38.5,-107.9,5.0,-0.6,310,19,32,10.0,30.109253,1014.9,,TRUE,TRUE,TRUE,,,,,,SCT,7000,,,,,,,VFR,,,,,,,,,,,,METAR,1755.0
KMSY 280953Z 30007KT 10SM FEW055 21/18 A2979 RMK AO2 SLP091 T02060178,KMSY,2023-04-28T09:53:00Z,30.0,-90.25,20.6,17.8,300,7,,10.0,29.790354,1009.1,,,TRUE,,,,,,,FEW,5500,,,,,,,VFR,,,,,,,,,,,,METAR,0.0
KMSS 280953Z AUTO 05003KT 10SM CLR 01/M02 A3017 RMK AO2 SLP221 T00111017,KMSS,2023-04-28T09:53:00Z,44.93,-74.85,1.1,-1.7,50,3,,10.0,30.171259,1022.1,,TRUE,TRUE,,,,,,,CLR,,,,,,,,VFR,,,,,,,,,,,,METAR,60.0
KMSP 280953Z 02005KT 10SM -RA SCT065 OVC085 09/08 A2979 RMK AO2 RAB18 SLP091 P0000 T00940078,KMSP,2023-04-28T09:53:00Z,44.88,-93.23,9.4,7.8,20,5,,10.0,29.790354,1009.1,,,TRUE,,,,,,-RA,SCT,6500,OVC,8500,,,,,VFR,,,,,,0.005,,,,,,METAR,255.0
KMSO 280953Z AUTO 00000KT 10SM CLR 02/M04 A3026 RMK AO2 SLP253 T00221044,KMSO,2023-04-28T09:53:00Z,46.92,-114.1,2.2,-4.4,0,0,,10.0,30.259842,1025.3,,TRUE,TRUE,,,,,,,CLR,,,,,,,,VFR,,,,,,,,,,,,METAR,974.0
KMSN 280953Z AUTO 00000KT 10SM CLR 03/00 A2984 RMK AO2 SLP107 T00280000,KMSN,2023-04-28T09:53:00Z,43.13,-89.35,2.8,0.0,0,0,,10.0,29.840551,1010.7,,TRUE,TRUE,,,,,,,CLR,,,,,,,,VFR,,,,,,,,,,,,METAR,262.0
KMRB 280953Z AUTO 07006KT 5SM -RA BR SCT031 OVC065 11/10 A2998 RMK AO2 SLP152 P0008 T01060100,KMRB,2023-04-28T09:53:00Z,39.4,-77.98,10.6,10.0,70,6,,5.0,29.97933,1015.2,,TRUE,TRUE,,,,,,-RA BR,SCT,3100,OVC,6500,,,,,MVFR,,,,,,0.08,,,,,,METAR,165.0
KMOD 280953Z AUTO 01004KT 10SM CLR 19/10 A2985 RMK AO2 SLP108 T01890100,KMOD,2023-04-28T09:53:00Z,37.62,-120.95,18.9,10.0,10,4,,10.0,29.84941,1010.8,,TRUE,TRUE,,,,,,,CLR,,,,,,,,VFR,,,,,,,,,,,,METAR,25.0
KMNN 280953Z AUTO 09008KT 6SM -RA BR FEW031 OVC060 10/08 A2975 RMK AO2 SLP077 P0007 T01000083,KMNN,2023-04-28T09:53:00Z,40.62,-83.07,10.0,8.3,90,8,,6.0,29.749016,1007.7,,TRUE,TRUE,,,,,,-RA BR,FEW,3100,OVC,6000,,,,,VFR,,,,,,0.07,,,,,,METAR,301.0
KMMV 280953Z AUTO 35008KT 10SM CLR 16/06 A2997 RMK AO2 SLP146 T01610061,KMMV,2023-04-28T09:53:00Z,45.2,-123.13,16.1,6.1,350,8,,10.0,29.970472,1014.6,,TRUE,TRUE,,,,,,,CLR,,,,,,,,VFR,,,,,,,,,,,,METAR,48.0
KMLU 280953Z AUTO 00000KT 10SM CLR 14/13 A2978 RMK AO2 SLP082 T01390128,KMLU,2023-04-28T09:53:00Z,32.52,-92.03,13.9,12.8,0,0,,10.0,29.778543,1008.2,,TRUE,TRUE,,,,,,,CLR,,,,,,,,VFR,,,,,,,,,,,,METAR,22.0
KMLT 280953Z AUTO 31004KT 10SM CLR 02/01 A3024 RMK AO2 SLP246 T00220011,KMLT,2023-04-28T09:53:00Z,45.65,-68.7,2.2,1.1,310,4,,10.0,30.239174,1024.6,,TRUE,TRUE,,,,,,,CLR,,,,,,,,VFR,,,,,,,,,,,,METAR,121.0
KMLS 280953Z AUTO 29008KT 10SM BKN085 04/01 A3014 RMK AO2 SLP217 T00390011,KMLS,2023-04-28T09:53:00Z,46.43,-105.88,3.9,1.1,290,8,,10.0,30.138779,1021.7,,TRUE,TRUE,,,,,,,BKN,8500,,,,,,,VFR,,,,,,,,,,,,METAR,800.0
KMLP 280953Z AUTO 29003KT 10SM CLR 07/M10 A3025 RMK AO2 SLP182 T00671100,KMLP,2023-04-28T09:53:00Z,47.45,-115.67,6.7,-10.0,290,3,,10.0,30.250984,1018.2,,TRUE,TRUE,,,,,,,CLR,,,,,,,,VFR,,,,,,,,,,,,METAR,1837.0
KMLC 280953Z AUTO 00000KT 10SM OVC028 13/12 A2981 RMK AO2 SLP092 T01280122,KMLC,2023-04-28T09:53:00Z,34.88,-95.78,12.8,12.2,0,0,,10.0,29.811024,1009.2,,TRUE,TRUE,,,,,,,OVC,2800,,,,,,,MVFR,,,,,,,,,,,,METAR,231.0
KMLB 280953Z 19004KT 10SM CLR 19/18 A2988 RMK AO2 SLP116 T01940178,KMLB,2023-04-28T09:53:00Z,28.1,-80.65,19.4,17.8,190,4,,10.0,29.878937,1011.6,,,TRUE,,,,,,,CLR,,,,,,,,VFR,,,,,,,,,,,,METAR,7.0
KMKO 280953Z AUTO 27006KT 7SM BKN033 12/11 A2982 RMK AO2 SLP096 T01170111,KMKO,2023-04-28T09:53:00Z,35.65,-95.37,11.7,11.1,270,6,,7.0,29.819881,1009.6,,TRUE,TRUE,,,,,,,BKN,3300,,,,,,,VFR,,,,,,,,,,,,METAR,184.0
KMIW 280953Z AUTO 00000KT 10SM CLR 07/01 A2979 RMK AO2 SLP086 T00720006,KMIW,2023-04-28T09:53:00Z,42.12,-92.92,7.2,0.6,0,0,,10.0,29.790354,1008.6,,TRUE,TRUE,,,,,,,CLR,,,,,,,,VFR,,,,,,,,,,,,METAR,296.0
KMIA 280953Z 36007KT 10SM SCT020 25/21 A2990 RMK AO2 SLP124 T02500211 $,KMIA,2023-04-28T09:53:00Z,25.8,-80.32,25.0,21.1,360,7,,10.0,29.899607,1012.4,,,TRUE,TRUE,,,,,,SCT,2000,,,,,,,VFR,,,,,,,,,,,,METAR,1.0
KMHT 280953Z 31004KT 10SM FEW250 05/03 A3022 RMK AO2 SLP247 T00500028,KMHT,2023-04-28T09:53:00Z,42.93,-71.43,5.0,2.8,310,4,,10.0,30.221457,1024.7,,,TRUE,,,,,,,FEW,25000,,,,,,,VFR,,,,,,,,,,,,METAR,68.0
KMHE 280953Z AUTO 35024G32KT 10SM OVC010 07/05 A2990 RMK AO2 PK WND 36034/0936 SLP127 T00720050,KMHE,2023-04-28T09:53:00Z,43.77,-98.03,7.2,5.0,350,24,32,10.0,29.899607,1012.7,,TRUE,TRUE,,,,,,,OVC,1000,,,,,,,MVFR,,,,,,,,,,,,METAR,397.0
KMGW 280953Z AUTO 12014G22KT 10SM -RA OVC065 13/11 A2984 RMK AO2 SLP100 P0011 T01330106,KMGW,2023-04-28T09:53:00Z,39.65,-79.92,13.3,10.6,120,14,22,10.0,29.840551,1010.0,,TRUE,TRUE,,,,,,-RA,OVC,6500,,,,,,,VFR,,,,,,0.11,,,,,,METAR,375.0
KMFR 280953Z AUTO 00000KT 10SM CLR 16/09 A2996 RMK AO2 SLP135 T01560089,KMFR,2023-04-28T09:53:00Z,42.38,-122.87,15.6,8.9,0,0,,10.0,29.958662,1013.5,,TRUE,TRUE,,,,,,,CLR,,,,,,,,VFR,,,,,,,,,,,,METAR,397.0
KMFE 280953Z AUTO 00000KT 7SM FEW010 BKN023 21/20 A2978 RMK AO2 SLP084 T02060200,KMFE,2023-04-28T09:53:00Z,26.18,-98.25,20.6,20.0,0,0,,7.0,29.778543,1008.4,,TRUE,TRUE,,,,,,,FEW,1000,BKN,2300,,,,,MVFR,,,,,,,,,,,,METAR,29.0
KMDW 280953Z 10005KT 10SM BKN190 OVC250 10/02 A2982 RMK AO2 SLP095 T01000022,KMDW,2023-04-28T09:53:00Z,41.78,-87.75,10.0,2.2,100,5,,10.0,29.819881,1009.5,,,TRUE,,,,,,,BKN,19000,OVC,25000,,,,,VFR,,,,,,,,,,,,METAR,186.0
KMCW 280953Z AUTO 19005KT 10SM FEW070 06/02 A2979 RMK AO2 SLP084 T00610022,KMCW,2023-04-28T09:53:00Z,43.15,-93.33,6.1,2.2,190,5,,10.0,29.790354,1008.4,,TRUE,TRUE,,,,,,,FEW,7000,,,,,,,VFR,,,,,,,,,,,,METAR,363.0
KMCO 280953Z 19007KT 10SM BKN210 OVC250 19/18 A2988 RMK AO2 SLP116 T01940183,KMCO,2023-04-28T09:53:00Z,28.42,-81.33,19.4,18.3,190,7,,10.0,29.878937,1011.6,,,TRUE,,,,,,,BKN,21000,OVC,25000,,,,,VFR,,,,,,,,,,,,METAR,27.0
KMCN 280953Z AUTO 20003KT 10SM BKN007 OVC030 18/17 A2978 RMK AO2 SLP082 T01780167,KMCN,2023-04-28T09:53:00Z,32.68,-83.65,17.8,16.7,200,3,,10.0,29.778543,1008.2,,TRUE,TRUE,,,,,,,BKN,700,OVC,3000,,,,,IFR,,,,,,,,,,,,METAR,104.0
KMCK 280953Z AUTO 35022KT 10SM BKN022 OVC070 07/03 A2997 RMK AO2 PK WND 34037/0910 SLP145 T00720033 $,KMCK,2023-04-28T09:53:00Z,40.2,-100.58,7.2,3.3,350,22,,10.0,29.970472,1014.5,,TRUE,TRUE,TRUE,,,,,,BKN,2200,OVC,7000,,,,,MVFR,,,,,,,,,,,,METAR,780.0
KMCI 280953Z 23004KT 10SM OVC090 12/08 A2980 RMK AO2 SLP085 T01220083,KMCI,2023-04-28T09:53:00Z,39.3,-94.73,12.2,8.3,230,4,,10.0,29.799213,1008.5,,,TRUE,,,,,,,OVC,9000,,,,,,,VFR,,,,,,,,,,,,METAR,308.0
KMCE 280953Z AUTO 00000KT 10SM CLR 15/12 A2986 RMK AO2 SLP109 T01500117,KMCE,2023-04-28T09:53:00Z,37.28,-120.5,15.0,11.7,0,0,,10.0,29.861221,1010.9,,TRUE,TRUE,,,,,,,CLR,,,,,,,,VFR,,,,,,,,,,,,METAR,49.0
KMBS 280953Z AUTO 03006KT 10SM CLR 03/M01 A2992 RMK AO2 SLP134 T00331006,KMBS,2023-04-28T09:53:00Z,43.53,-84.08,3.3,-0.6,30,6,,10.0,29.920275,1013.4,,TRUE,TRUE,,,,,,,CLR,,,,,,,,VFR,,,,,,,,,,,,METAR,201.0
KMAF 280953Z AUTO 20012KT 10SM CLR 17/00 A2970 RMK AO2 SLP018 T01670000,KMAF,2023-04-28T09:53:00Z,31.95,-102.2,16.7,0.0,200,12,,10.0,29.698818,1001.8,,TRUE,TRUE,,,,,,,CLR,,,,,,,,VFR,,,,,,,,,,,,METAR,874.0
KLXT 280953Z AUTO 22005KT 10SM OVC085 11/08 A2980 RMK AO2 SLP089 T01110083,KLXT,2023-04-28T09:53:00Z,38.97,-94.37,11.1,8.3,220,5,,10.0,29.799213,1008.9,,TRUE,TRUE,,,,,,,OVC,8500,,,,,,,VFR,,,,,,,,,,,,METAR,306.0
KLWD 280953Z AUTO 20005KT 10SM CLR 11/03 A2979 RMK AO2 SLP084 T01110033,KLWD,2023-04-28T09:53:00Z,40.63,-93.9,11.1,3.3,200,5,,10.0,29.790354,1008.4,,TRUE,TRUE,,,,,,,CLR,,,,,,,,VFR,,,,,,,,,,,,METAR,345.0
KLVM 280953Z AUTO 32016KT 10SM CLR M02/M06 A3024 RMK AO2 SLP261 T10171061,KLVM,2023-04-28T09:53:00Z,45.7,-110.43,-1.7,-6.1,320,16,,10.0,30.239174,1026.1,,TRUE,TRUE,,,,,,,CLR,,,,,,,,VFR,,,,,,,,,,,,METAR,1418.0
KLVK 280953Z AUTO 00000KT 10SM CLR 14/06 A2990 RMK AO2 SLP120 T01390056,KLVK,2023-04-28T09:53:00Z,37.7,-121.82,13.9,5.6,0,0,,10.0,29.899607,1012.0,,TRUE,TRUE,,,,,,,CLR,,,,,,,,VFR,,,,,,,,,,,,METAR,120.0
KLVJ 280953Z AUTO 00000KT 10SM CLR 16/14 A2978 RMK AO2 SLP085 T01610144,KLVJ,2023-04-28T09:53:00Z,29.52,-95.25,16.1,14.4,0,0,,10.0,29.778543,1008.5,,TRUE,TRUE,,,,,,,CLR,,,,,,,,VFR,,,,,,,,,,,,METAR,11.0
KLSE 280953Z AUTO 16004KT 10SM CLR 11/02 A2980 RMK AO2 SLP088 T01060017 TSNO,KLSE,2023-04-28T09:53:00Z,43.88,-91.25,10.6,1.7,160,4,,10.0,29.799213,1008.8,,TRUE,TRUE,,,TRUE,,,,CLR,,,,,,,,VFR,,,,,,,,,,,,METAR,198.0
KLPR 280953Z AUTO 15005KT 10SM BKN110 09/04 A2982 RMK AO2 SLP100 T00940044,KLPR,2023-04-28T09:53:00Z,41.35,-82.18,9.4,4.4,150,5,,10.0,29.819881,1010.0,,TRUE,TRUE,,,,,,,BKN,11000,,,,,,,VFR,,,,,,,,,,,,METAR,241.0
KLOU 280953Z AUTO 00000KT 3SM BR BKN003 OVC009 12/11 A2967 RMK AO2 RAB09E24 SLP044 P0001 T01220111,KLOU,2023-04-28T09:53:00Z,38.22,-85.67,12.2,11.1,0,0,,3.0,29.66929,1004.4,,TRUE,TRUE,,,,,,BR,BKN,300,OVC,900,,,,,LIFR,,,,,,0.01,,,,,,METAR,165.0
KLOL 280953Z AUTO 35007KT 10SM CLR 10/M03 A3010 RMK AO2 SLP167 T01001028,KLOL,2023-04-28T09:53:00Z,40.07,-118.57,10.0,-2.8,350,7,,10.0,30.100393,1016.7,,TRUE,TRUE,,,,,,,CLR,,,,,,,,VFR,,,,,,,,,,,,METAR,1191.0
KLNS 280953Z 08009KT 10SM OVC020 10/07 A3007 RMK AO2 SLP184 T01000072,KLNS,2023-04-28T09:53:00Z,40.12,-76.3,10.0,7.2,80,9,,10.0,30.070866,1018.4,,,TRUE,,,,,,,OVC,2000,,,,,,,MVFR,,,,,,,,,,,,METAR,122.0
KLND 280953Z AUTO 19004KT 10SM CLR M01/M07 A3024 RMK AO2 SLP255 T10111067,KLND,2023-04-28T09:53:00Z,42.82,-108.73,-1.1,-6.7,190,4,,10.0,30.239174,1025.5,,TRUE,TRUE,,,,,,,CLR,,,,,,,,VFR,,,,,,,,,,,,METAR,1700.0
KLMT 280953Z AUTO 34008KT 10SM CLR 12/04 A3010 RMK AO2 SLP155 T01220044 $,KLMT,2023-04-28T09:53:00Z,42.15,-121.72,12.2,4.4,340,8,,10.0,30.100393,1015.5,,TRUE,TRUE,TRUE,,,,,,CLR,,,,,,,,VFR,,,,,,,,,,,,METAR,1246.0
KLLQ 280953Z AUTO 31003KT 2 1/2SM BR OVC002 14/14 A2976 RMK AO2 SLP076 T01440139,KLLQ,2023-04-28T09:53:00Z,33.63,-91.75,14.4,13.9,310,3,,2.5,29.760826,1007.6,,TRUE,TRUE,,,,,,BR,OVC,200,,,,,,,LIFR,,,,,,,,,,,,METAR,86.0
KLKV 280953Z AUTO 33007KT 10SM CLR 07/M01 A3015 RMK AO2 SLP186 T00671006,KLKV,2023-04-28T09:53:00Z,42.17,-120.4,6.7,-0.6,330,7,,10.0,30.15059,1018.6,,TRUE,TRUE,,,,,,,CLR,,,,,,,,VFR,,,,,,,,,,,,METAR,1440.0
KLIT 280953Z 33008KT 10SM OVC009 14/12 A2976 RMK AO2 SLP079 T01440122 $,KLIT,2023-04-28T09:53:00Z,34.73,-92.23,14.4,12.2,330,8,,10.0,29.760826,1007.9,,,TRUE,TRUE,,,,,,OVC,900,,,,,,,IFR,,,,,,,,,,,,METAR,77.0
KLGB 280953Z AUTO 00000KT 5SM HZ OVC010 14/11 A2992 RMK AO2 SLP133 T01390111,KLGB,2023-04-28T09:53:00Z,33.82,-118.15,13.9,11.1,0,0,,5.0,29.920275,1013.3,,TRUE,TRUE,,,,,,HZ,OVC,1000,,,,,,,MVFR,,,,,,,,,,,,METAR,10.0
KLFT 280953Z AUTO 00000KT 9SM CLR 17/17 A2981 RMK AO2 SLP094 T01670167,KLFT,2023-04-28T09:53:00Z,30.2,-91.97,16.7,16.7,0,0,,9.0,29.811024,1009.4,,TRUE,TRUE,,,,,,,CLR,,,,,,,,VFR,,,,,,,,,,,,METAR,9.0
KLFK 280953Z AUTO 00000KT 10SM CLR 11/10 A2979 RMK AO2 SLP086 T01110100,KLFK,2023-04-28T09:53:00Z,31.23,-94.75,11.1,10.0,0,0,,10.0,29.790354,1008.6,,TRUE,TRUE,,,,,,,CLR,,,,,,,,VFR,,,,,,,,,,,,METAR,87.0
KLEE 280953Z AUTO 18006KT 10SM CLR 20/19 A2987 RMK AO2 SLP113 T02000189,KLEE,2023-04-28T09:53:00Z,28.82,-81.82,20.0,18.9,180,6,,10.0,29.870079,1011.3,,TRUE,TRUE,,,,,,,CLR,,,,,,,,VFR,,,,,,,,,,,,METAR,21.0
KLEB 280953Z 00000KT 1/2SM FG VV001 02/01 A3024 RMK AO2 SLP243 T00170011,KLEB,2023-04-28T09:53:00Z,43.63,-72.3,1.7,1.1,0,0,,0.5,30.239174,1024.3,,,TRUE,,,,,,FG,OVX,0,,,,,,,LIFR,,,,,,,,,,,100,METAR,169.0
KLCH 280953Z AUTO 09003KT 10SM CLR 14/12 A2980 RMK AO2 SLP098 T01390117,KLCH,2023-04-28T09:53:00Z,30.13,-93.22,13.9,11.7,90,3,,10.0,29.799213,1009.8,,TRUE,TRUE,,,,,,,CLR,,,,,,,,VFR,,,,,,,,,,,,METAR,2.0
KLBX 280953Z AUTO 00000KT 10SM CLR 14/14 A2978 RMK AO2 SLP084 T01440139,KLBX,2023-04-28T09:53:00Z,29.12,-95.47,14.4,13.9,0,0,,10.0,29.778543,1008.4,,TRUE,TRUE,,,,,,,CLR,,,,,,,,VFR,,,,,,,,,,,,METAR,4.0
KLBF 280953Z AUTO 33015G24KT 10SM FEW026 BKN095 06/02 A3000 RMK AO2 PK WND 35035/0903 SLP153 T00610017,KLBF,2023-04-28T09:53:00Z,41.12,-100.67,6.1,1.7,330,15,24,10.0,30.0,1015.3,,TRUE,TRUE,,,,,,,FEW,2600,BKN,9500,,,,,VFR,,,,,,,,,,,,METAR,843.0
KLAX 280953Z 23003KT 2 1/2SM BR SCT002 OVC005 12/11 A2993 RMK AO2 DZE0859 SLP134 VIS 1 1/2V3 P0000 T01220111 $,KLAX,2023-04-28T09:53:00Z,33.93,-118.38,12.2,11.1,230,3,,2.5,29.929134,1013.4,,,TRUE,TRUE,,,,,BR,SCT,200,OVC,500,,,,,IFR,,,,,,0.005,,,,,,METAR,30.0
KLAW 280953Z AUTO 04005KT 10SM FEW120 10/08 A2983 RMK AO2 SLP100 T01000078,KLAW,2023-04-28T09:53:00Z,34.55,-98.42,10.0,7.8,40,5,,10.0,29.828741,1010.0,,TRUE,TRUE,,,,,,,FEW,12000,,,,,,,VFR,,,,,,,,,,,,METAR,328.0
KLAR 280953Z AUTO 33013KT 10SM SCT016 M04/M06 A3019 RMK AO2 SNE02 SLP216 P0000 T10391056 $,KLAR,2023-04-28T09:53:00Z,41.32,-105.67,-3.9,-5.6,330,13,,10.0,30.188976,1021.6,,TRUE,TRUE,TRUE,,,,,,SCT,1600,,,,,,,VFR,,,,,,0.005,,,,,,METAR,2217.0
KLAN 280953Z 07005KT 10SM CLR 06/00 A2987 RMK AO2 SLP117 T00610000,KLAN,2023-04-28T09:53:00Z,42.78,-84.58,6.1,0.0,70,5,,10.0,29.870079,1011.7,,,TRUE,,,,,,,CLR,,,,,,,,VFR,,,,,,,,,,,,METAR,261.0
KLAA 280953Z AUTO 01018G27KT 10SM -RA FEW025 SCT037 OVC050 07/04 A3003 RMK AO2 PK WND 01033/0926 SLP139 P0003 T00670039,KLAA,2023-04-28T09:53:00Z,38.07,-102.68,6.7,3.9,10,18,27,10.0,30.029528,1013.9,,TRUE,TRUE,,,,,,-RA,FEW,2500,SCT,3700,OVC,5000,,,VFR,,,,,,0.03,,,,,,METAR,1129.0
KJLN 280953Z AUTO 18003KT M1/4SM FG VV002 07/06 A2981 RMK AO2 SLP094 T00720061,KJLN,2023-04-28T09:53:00Z,37.15,-94.5,7.2,6.1,180,3,,0.25,29.811024,1009.4,,TRUE,TRUE,,,,,,FG,OVX,0,,,,,,,LIFR,,,,,,,,,,,200,METAR,297.0
KJKL 280953Z AUTO 00000KT 10SM OVC022 14/12 A2971 RMK AO2 RAB01E11 SLP054 P0000 T01390122,KJKL,2023-04-28T09:53:00Z,37.6,-83.32,13.9,12.2,0,0,,10.0,29.71063,1005.4,,TRUE,TRUE,,,,,,,OVC,2200,,,,,,,MVFR,,,,,,0.005,,,,,,METAR,414.0
KJER 280953Z AUTO 09014KT 10SM CLR 06/M07 A3024 RMK AO2 SLP227 T00561067 $,KJER,2023-04-28T09:53:00Z,42.72,-114.45,5.6,-6.7,90,14,,10.0,30.239174,1022.7,,TRUE,TRUE,TRUE,,,,,,CLR,,,,,,,,VFR,,,,,,,,,,,,METAR,1226.0
KJEF 280953Z AUTO 29004KT 10SM OVC100 11/08 A2980 RMK AO2 SLP078 T01110083 $,KJEF,2023-04-28T09:53:00Z,38.6,-92.15,11.1,8.3,290,4,,10.0,29.799213,1007.8,,TRUE,TRUE,TRUE,,,,,,OVC,10000,,,,,,,VFR,,,,,,,,,,,,METAR,167.0
KIXD 280953Z AUTO 20004KT 10SM OVC090 11/08 A2982 RMK AO2 SLP094 T01060083,KIXD,2023-04-28T09:53:00Z,38.82,-94.88,10.6,8.3,200,4,,10.0,29.819881,1009.4,,TRUE,TRUE,,,,,,,OVC,9000,,,,,,,VFR,,,,,,,,,,,,METAR,322.0
KIWI 280953Z AUTO 00000KT 7SM FEW001 M01/M02 A3024 RMK AO2 SLP241 I1000 T10061017,KIWI,2023-04-28T09:53:00Z,43.97,-69.72,-0.6,-1.7,0,0,,7.0,30.239174,1024.1,,TRUE,TRUE,,,,,,,FEW,100,,,,,,,VFR,,,,,,,,,,,,METAR,16.0
KITR 280953Z AUTO 35018G32KT 10SM FEW022 OVC095 03/00 A3006 RMK AO2 PK WND 35034/0910 SLP151 T00330000,KITR,2023-04-28T09:53:00Z,39.23,-102.28,3.3,0.0,350,18,32,10.0,30.059055,1015.1,,TRUE,TRUE,,,,,,,FEW,2200,OVC,9500,,,,,VFR,,,,,,,,,,,,METAR,1285.0
KIPL 280953Z AUTO 31004KT 10SM CLR 22/04 A2974 RMK AO2 SLP073 T02170039,KIPL,2023-04-28T09:53:00Z,32.83,-115.58,21.7,3.9,310,4,,10.0,29.740158,1007.3,,TRUE,TRUE,,,,,,,CLR,,,,,,,,VFR,,,,,,,,,,,,METAR,-16.0
KINK 280953Z AUTO 14006KT 10SM CLR 12/M05 A2970 RMK AO2 SLP022 T01171050,KINK,2023-04-28T09:53:00Z,31.78,-103.2,11.7,-5.0,140,6,,10.0,29.698818,1002.2,,TRUE,TRUE,,,,,,,CLR,,,,,,,,VFR,,,,,,,,,,,,METAR,857.0
KIML 280953Z AUTO 34023G35KT 10SM OVC095 06/M02 A3005 RMK AO2 PK WND 01041/0916 SLP170 T00611017,KIML,2023-04-28T09:53:00Z,40.52,-101.62,6.1,-1.7,340,23,35,10.0,30.050198,1017.0,,TRUE,TRUE,,,,,,,OVC,9500,,,,,,,VFR,,,,,,,,,,,,METAR,997.0
KILM 280953Z 00000KT 10SM SCT070 OVC090 19/17 A2980 RMK AO2 SLP091 T01940172,KILM,2023-04-28T09:53:00Z,34.27,-77.9,19.4,17.2,0,0,,10.0,29.799213,1009.1,,,TRUE,,,,,,,SCT,7000,OVC,9000,,,,,VFR,,,,,,,,,,,,METAR,9.0
KIDA 280953Z AUTO 05005KT 10SM CLR 01/M06 A3030 RMK AO2 SLP250 T00061056,KIDA,2023-04-28T09:53:00Z,43.52,-112.07,0.6,-5.6,50,5,,10.0,30.301182,1025.0,,TRUE,TRUE,,,,,,,CLR,,,,,,,,VFR,,,,,,,,,,,,METAR,1444.0
KICT 280953Z 00000KT 4SM BR SCT050 BKN100 10/09 A2982 RMK AO2 SLP093 T01000089,KICT,2023-04-28T09:53:00Z,37.65,-97.43,10.0,8.9,0,0,,4.0,29.819881,1009.3,,,TRUE,,,,,,BR,SCT,5000,BKN,10000,,,,,MVFR,,,,,,,,,,,,METAR,428.0
KICR 280953Z AUTO 33018G25KT 10SM OVC012 06/04 A3002 RMK AO2 PK WND 32026/0854 SLP166 T00560044 PWINO $,KICR,2023-04-28T09:53:00Z,43.38,-99.85,5.6,4.4,330,18,25,10.0,30.02067,1016.6,,TRUE,TRUE,TRUE,,,,TRUE,,OVC,1200,,,,,,,MVFR,,,,,,,,,,,,METAR,618.0
KIAH 280953Z 15004KT 10SM CLR 14/13 A2978 RMK AO2 SLP083 T01390133,KIAH,2023-04-28T09:53:00Z,30.0,-95.37,13.9,13.3,150,4,,10.0,29.778543,1008.3,,,TRUE,,,,,,,CLR,,,,,,,,VFR,,,,,,,,,,,,METAR,27.0
KIAG 280953Z AUTO 09004KT 10SM CLR 06/02 A2998 RMK AO2 SLP157 T00610017,KIAG,2023-04-28T09:53:00Z,43.12,-78.93,6.1,1.7,90,4,,10.0,29.97933,1015.7,,TRUE,TRUE,,,,,,,CLR,,,,,,,,VFR,,,,,,,,,,,,METAR,179.0
KHZY 280953Z AUTO 13008KT 10SM CLR 13/07 A2988 RMK AO2 SLP117 T01280067,KHZY,2023-04-28T09:53:00Z,41.78,-80.7,12.8,6.7,130,8,,10.0,29.878937,1011.7,,TRUE,TRUE,,,,,,,CLR,,,,,,,,VFR,,,,,,,,,,,,METAR,279.0
KHVR 280953Z AUTO 26006KT 10SM CLR 01/M02 A3015 RMK AO2 SLP223 T00111017,KHVR,2023-04-28T09:53:00Z,48.55,-109.77,1.1,-1.7,260,6,,10.0,30.15059,1022.3,,TRUE,TRUE,,,,,,,CLR,,,,,,,,VFR,,,,,,,,,,,,METAR,789.0
KHUL 280953Z AUTO 00000KT 10SM CLR M01/M02 A3020 RMK AO2 SLP231 T10061022,KHUL,2023-04-28T09:53:00Z,46.12,-67.8,-0.6,-2.2,0,0,,10.0,30.200787,1023.1,,TRUE,TRUE,,,,,,,CLR,,,,,,,,VFR,,,,,,,,,,,,METAR,148.0
KHSV 280953Z AUTO 21007KT 10SM FEW034 SCT085 OVC100 17/16 A2968 RMK AO2 SLP046 T01670161 $,KHSV,2023-04-28T09:53:00Z,34.65,-86.78,16.7,16.1,210,7,,10.0,29.681103,1004.6,,TRUE,TRUE,TRUE,,,,,,FEW,3400,SCT,8500,OVC,10000,,,VFR,,,,,,,,,,,,METAR,190.0
KHSI 280953Z AUTO 33021G29KT 10SM -RA OVC013 08/07 A2987 RMK AO2 PK WND 33030/0920 RAE04B53 SLP111 P0000 T00830067,KHSI,2023-04-28T09:53:00Z,40.6,-98.43,8.3,6.7,330,21,29,10.0,29.870079,1011.1,,TRUE,TRUE,,,,,,-RA,OVC,1300,,,,,,,MVFR,,,,,,0.005,,,,,,METAR,592.0
KHRO 280953Z AUTO 33004KT 10SM SCT003 OVC016 11/11 A2978 RMK AO2 SLP081 T01110106,KHRO,2023-04-28T09:53:00Z,36.27,-93.15,11.1,10.6,330,4,,10.0,29.778543,1008.1,,TRUE,TRUE,,,,,,,SCT,300,OVC,1600,,,,,MVFR,,,,,,,,,,,,METAR,417.0
KHRI 280953Z AUTO 11004KT 10SM CLR 08/03 A3013 RMK AO2 SLP201 T00830033 $,KHRI,2023-04-28T09:53:00Z,45.83,-119.27,8.3,3.3,110,4,,10.0,30.129921,1020.1,,TRUE,TRUE,TRUE,,,,,,CLR,,,,,,,,VFR,,,,,,,,,,,,METAR,194.0
KHQM 280953Z AUTO 08004KT 10SM CLR 12/06 A3005 RMK AO2 SLP177 T01220056,KHQM,2023-04-28T09:53:00Z,46.97,-123.93,12.2,5.6,80,4,,10.0,30.050198,1017.7,,TRUE,TRUE,,,,,,,CLR,,,,,,,,VFR,,,,,,,,,,,,METAR,4.0
KHOU 280953Z 15004KT 10SM CLR 17/14 A2977 RMK AO2 SLP084 T01670144 $,KHOU,2023-04-28T09:53:00Z,29.63,-95.28,16.7,14.4,150,4,,10.0,29.769686,1008.4,,,TRUE,TRUE,,,,,,CLR,,,,,,,,VFR,,,,,,,,,,,,METAR,13.0
KHLN 280953Z AUTO 00000KT 10SM CLR 00/M04 A3026 RMK AO2 SLP276 T00001039,KHLN,2023-04-28T09:53:00Z,46.6,-111.98,0.0,-3.9,0,0,,10.0,30.259842,1027.6,,TRUE,TRUE,,,,,,,CLR,,,,,,,,VFR,,,,,,,,,,,,METAR,1178.0
KHLG 280953Z AUTO 09015KT 8SM -RA OVC070 13/11 A2981 RMK AO2 SLP096 P0007 T01280106,KHLG,2023-04-28T09:53:00Z,40.17,-80.65,12.8,10.6,90,15,,8.0,29.811024,1009.6,,TRUE,TRUE,,,,,,-RA,OVC,7000,,,,,,,VFR,,,,,,0.07,,,,,,METAR,365.0
KHLC 280953Z AUTO 33016G29KT 10SM SCT018 BKN031 OVC100 09/06 A2993 RMK AO2 PK WND 33032/0923 RAE37 SLP125 P0001 T00890056,KHLC,2023-04-28T09:53:00Z,39.37,-99.83,8.9,5.6,330,16,29,10.0,29.929134,1012.5,,TRUE,TRUE,,,,,,,SCT,1800,BKN,3100,OVC,10000,,,VFR,,,,,,0.01,,,,,,METAR,667.0
KHKY 280953Z AUTO 00000KT 10SM OVC095 13/13 A2976 RMK AO2 SLP063 T01330128,KHKY,2023-04-28T09:53:00Z,35.75,-81.38,13.3,12.8,0,0,,10.0,29.760826,1006.3,,TRUE,TRUE,,,,,,,OVC,9500,,,,,,,VFR,,,,,,,,,,,,METAR,357.0
KHKS 280953Z AUTO 27004KT 10SM SCT038 16/14 A2977 RMK AO2 SLP074 T01560144,KHKS,2023-04-28T09:53:00Z,32.33,-90.22,15.6,14.4,270,4,,10.0,29.769686,1007.4,,TRUE,TRUE,,,,,,,SCT,3800,,,,,,,VFR,,,,,,,,,,,,METAR,103.0
KHJO 280953Z AUTO 00000KT 10SM CLR 15/13 A2987 RMK AO2 SLP114 T01500128,KHJO,2023-04-28T09:53:00Z,36.32,-119.62,15.0,12.8,0,0,,10.0,29.870079,1011.4,,TRUE,TRUE,,,,,,,CLR,,,,,,,,VFR,,,,,,,,,,,,METAR,73.0
KHIO 280953Z AUTO 29004KT 10SM CLR 10/07 A2999 RMK AO2 SLP154 T01000072,KHIO,2023-04-28T09:53:00Z,45.55,-122.95,10.0,7.2,290,4,,10.0,29.991142,1015.4,,TRUE,TRUE,,,,,,,CLR,,,,,,,,VFR,,,,,,,,,,,,METAR,62.0
KHIB 280953Z AUTO 00000KT 10SM OVC047 02/01 A2990 RMK AO2 SLP137 T00220006,KHIB,2023-04-28T09:53:00Z,47.38,-92.83,2.2,0.6,0,0,,10.0,29.899607,1013.7,,TRUE,TRUE,,,,,,,OVC,4700,,,,,,,VFR,,,,,,,,,,,,METAR,409.0
KHHR 280953Z AUTO 00000KT 7SM OVC006 14/11 A2993 RMK AO2 SLP136 T01390106,KHHR,2023-04-28T09:53:00Z,33.92,-118.33,13.9,10.6,0,0,,7.0,29.929134,1013.6,,TRUE,TRUE,,,,,,,OVC,600,,,,,,,IFR,,,,,,,,,,,,METAR,21.0
KHGR 280953Z AUTO 09007KT 7SM -RA FEW034 SCT048 OVC060 12/09 A3001 RMK AO2 SLP169 P0002 T01170094 $,KHGR,2023-04-28T09:53:00Z,39.7,-77.73,11.7,9.4,90,7,,7.0,30.008858,1016.9,,TRUE,TRUE,TRUE,,,,,-RA,FEW,3400,SCT,4800,OVC,6000,,,VFR,,,,,,0.02,,,,,,METAR,206.0
KHFD 280953Z 00000KT 1 1/2SM BR OVC002 07/07 A3023 RMK AO2 SLP235 T00720067,KHFD,2023-04-28T09:53:00Z,41.73,-72.65,7.2,6.7,0,0,,1.5,30.230314,1023.5,,,TRUE,,,,,,BR,OVC,200,,,,,,,LIFR,,,,,,,,,,,,METAR,3.0
KHEI 280953Z AUTO 31007KT 10SM FEW055 OVC090 03/00 A3009 RMK AO2 SLP204 T00330000,KHEI,2023-04-28T09:53:00Z,46.02,-102.65,3.3,0.0,310,7,,10.0,30.088583,1020.4,,TRUE,TRUE,,,,,,,FEW,5500,OVC,9000,,,,,VFR,,,,,,,,,,,,METAR,824.0
KHBR 280953Z AUTO 04005KT 9SM CLR 09/08 A2984 RMK AO2 SLP100 T00890083,KHBR,2023-04-28T09:53:00Z,34.98,-99.05,8.9,8.3,40,5,,9.0,29.840551,1010.0,,TRUE,TRUE,,,,,,,CLR,,,,,,,,VFR,,,,,,,,,,,,METAR,475.0
KHBG 280953Z AUTO 27003KT 10SM CLR 18/17 A2978 RMK AO2 SLP081 T01780172,KHBG,2023-04-28T09:53:00Z,31.27,-89.25,17.8,17.2,270,3,,10.0,29.778543,1008.1,,TRUE,TRUE,,,,,,,CLR,,,,,,,,VFR,,,,,,,,,,,,METAR,45.0
KGZH 280953Z AUTO 25004KT 10SM OVC009 19/17 A2978 RMK AO2 SLP080 T01890172,KGZH,2023-04-28T09:53:00Z,31.42,-87.05,18.9,17.2,250,4,,10.0,29.778543,1008.0,,TRUE,TRUE,,,,,,,OVC,900,,,,,,,IFR,,,,,,,,,,,,METAR,77.0
KGWO 280953Z AUTO 10SM OVC009 17/14 A2974 RMK AO2 CIG 005V011 SLP070 T01670144,KGWO,2023-04-28T09:53:00Z,33.5,-90.08,16.7,14.4,,,,10.0,29.740158,1007.0,,TRUE,TRUE,,,,,,,OVC,900,,,,,,,IFR,,,,,,,,,,,,METAR,42.0
KGUY 280953Z AUTO 36019KT 10SM -RA BKN060 OVC070 09/08 A2990 RMK AO2 SLP098 P0005 T00940083,KGUY,2023-04-28T09:53:00Z,36.68,-101.5,9.4,8.3,360,19,,10.0,29.899607,1009.8,,TRUE,TRUE,,,,,,-RA,BKN,6000,OVC,7000,,,,,VFR,,,,,,0.05,,,,,,METAR,950.0
KGUP 280953Z AUTO 20005KT 10SM CLR 06/M08 A3002 RMK AO2 SLP059 T00561083,KGUP,2023-04-28T09:53:00Z,35.52,-108.8,5.6,-8.3,200,5,,10.0,30.02067,1005.9,,TRUE,TRUE,,,,,,,CLR,,,,,,,,VFR,,,,,,,,,,,,METAR,1972.0
KGTF 280953Z 21014KT 10SM CLR 03/M02 A3016 RMK AO2 SLP232 T00331022,KGTF,2023-04-28T09:53:00Z,47.47,-111.38,3.3,-2.2,210,14,,10.0,30.159449,1023.2,,,TRUE,,,,,,,CLR,,,,,,,,VFR,,,,,,,,,,,,METAR,1117.0
KGSH 280953Z AUTO 04004KT 10SM -RA OVC070 07/03 A2982 RMK AO2 RAB0854 SLP098 P0000 T00720033,KGSH,2023-04-28T09:53:00Z,41.53,-85.78,7.2,3.3,40,4,,10.0,29.819881,1009.8,,TRUE,TRUE,,,,,,-RA,OVC,7000,,,,,,,VFR,,,,,,0.005,,,,,,METAR,252.0
KGRR 280953Z 06006KT 10SM OVC160 06/00 A2987 RMK AO2 SLP116 T00560000,KGRR,2023-04-28T09:53:00Z,42.88,-85.52,5.6,0.0,60,6,,10.0,29.870079,1011.6,,,TRUE,,,,,,,OVC,16000,,,,,,,VFR,,,,,,,,,,,,METAR,239.0
KGRI 280953Z AUTO 33024G32KT 10SM -RA OVC012 08/06 A2987 RMK AO2 PK WND 33032/0952 SLP114 P0003 T00830061,KGRI,2023-04-28T09:53:00Z,40.97,-98.32,8.3,6.1,330,24,32,10.0,29.870079,1011.4,,TRUE,TRUE,,,,,,-RA,OVC,1200,,,,,,,MVFR,,,,,,0.03,,,,,,METAR,562.0
KGRB 280953Z AUTO 06004KT 10SM CLR 05/00 A2988 RMK AO2 SLP122 T00500000 $,KGRB,2023-04-28T09:53:00Z,44.48,-88.13,5.0,0.0,60,4,,10.0,29.878937,1012.2,,TRUE,TRUE,TRUE,,,,,,CLR,,,,,,,,VFR,,,,,,,,,,,,METAR,209.0
KGPT 280953Z AUTO 00000KT 10SM BKN040 20/19 A2977 RMK AO2 SLP080 T02000189,KGPT,2023-04-28T09:53:00Z,30.42,-89.08,20.0,18.9,0,0,,10.0,29.769686,1008.0,,TRUE,TRUE,,,,,,,BKN,4000,,,,,,,VFR,,,,,,,,,,,,METAR,5.0
KGOK 280953Z AUTO 17003KT 4SM BR 06/06 A2980 RMK AO2 SLP092 T00610061 $,KGOK,2023-04-28T09:53:00Z,35.85,-97.4,6.1,6.1,170,3,,4.0,29.799213,1009.2,,TRUE,TRUE,TRUE,,,,,BR,,,,,,,,,,,,,,,,,,,,,METAR,326.0
KGNV 280953Z 00000KT 10SM CLR 17/17 A2987 RMK AO2 SLP112 T01720167,KGNV,2023-04-28T09:53:00Z,29.7,-82.28,17.2,16.7,0,0,,10.0,29.870079,1011.2,,,TRUE,,,,,,,CLR,,,,,,,,VFR,,,,,,,,,,,,METAR,41.0
KGMU 280953Z AUTO 00000KT 10SM OVC006 16/14 A2976 RMK AO2 RAB40E49 SLP074 P0000 T01560139,KGMU,2023-04-28T09:53:00Z,34.85,-82.35,15.6,13.9,0,0,,10.0,29.760826,1007.4,,TRUE,TRUE,,,,,,,OVC,600,,,,,,,IFR,,,,,,0.005,,,,,,METAR,309.0
KGLR 280953Z AUTO 12003KT 10SM CLR 06/M02 A2993 RMK AO2 SLP141 T00561017,KGLR,2023-04-28T09:53:00Z,45.02,-84.68,5.6,-1.7,120,3,,10.0,29.929134,1014.1,,TRUE,TRUE,,,,,,,CLR,,,,,,,,VFR,,,,,,,,,,,,METAR,403.0
KGKY 280953Z AUTO 00000KT 9SM CLR 09/08 A2979 RMK AO2 SLP083 T00940083,KGKY,2023-04-28T09:53:00Z,32.67,-97.1,9.4,8.3,0,0,,9.0,29.790354,1008.3,,TRUE,TRUE,,,,,,,CLR,,,,,,,,VFR,,,,,,,,,,,,METAR,189.0
KGKJ 280953Z AUTO 11007G15KT 060V160 10SM CLR 12/08 A2989 RMK AO2 SLP119 T01170078,KGKJ,2023-04-28T09:53:00Z,41.63,-80.22,11.7,7.8,110,7,15,10.0,29.890747,1011.9,,TRUE,TRUE,,,,,,,CLR,,,,,,,,VFR,,,,,,,,,,,,METAR,428.0
KGJT 280953Z AUTO 28005KT 10SM CLR 06/M02 A3015 RMK AO2 SLP171 T00611022,KGJT,2023-04-28T09:53:00Z,39.13,-108.53,6.1,-2.2,280,5,,10.0,30.15059,1017.1,,TRUE,TRUE,,,,,,,CLR,,,,,,,,VFR,,,,,,,,,,,,METAR,1475.0
KGIF 280953Z AUTO 18009KT 10SM CLR 20/18 A2987 RMK AO2 SLP114 T02000183,KGIF,2023-04-28T09:53:00Z,28.07,-81.75,20.0,18.3,180,9,,10.0,29.870079,1011.4,,TRUE,TRUE,,,,,,,CLR,,,,,,,,VFR,,,,,,,,,,,,METAR,44.0
KGGW 280953Z AUTO 30006KT 10SM CLR 02/M01 A3014 RMK AO2 SLP221 T00171006,KGGW,2023-04-28T09:53:00Z,48.22,-106.62,1.7,-0.6,300,6,,10.0,30.138779,1022.1,,TRUE,TRUE,,,,,,,CLR,,,,,,,,VFR,,,,,,,,,,,,METAR,698.0
KGGG 280953Z AUTO 00000KT 10SM CLR 10/ A2978 RMK AO2 SLP082 T0100 $,KGGG,2023-04-28T09:53:00Z,32.38,-94.72,10.0,,0,0,,10.0,29.778543,1008.2,,TRUE,TRUE,TRUE,,,,,,CLR,,,,,,,,VFR,,,,,,,,,,,,METAR,107.0
KGFL 280953Z AUTO 00000KT 10SM CLR 02/00 A3020 RMK AO2 SLP230 I1000 T00170000,KGFL,2023-04-28T09:53:00Z,43.33,-73.62,1.7,0.0,0,0,,10.0,30.200787,1023.0,,TRUE,TRUE,,,,,,,CLR,,,,,,,,VFR,,,,,,,,,,,,METAR,99.0
KGFK 280953Z AUTO 34008KT 10SM FEW120 02/00 A3000 RMK AO2 SLP168 T00220000,KGFK,2023-04-28T09:53:00Z,47.95,-97.18,2.2,0.0,340,8,,10.0,30.0,1016.8,,TRUE,TRUE,,,,,,,FEW,12000,,,,,,,VFR,,,,,,,,,,,,METAR,256.0
KGEY 280953Z AUTO 27003KT 10SM CLR M01/M04 A3024 RMK AO2 SLP259 T10061044,KGEY,2023-04-28T09:53:00Z,44.52,-108.08,-0.6,-4.4,270,3,,10.0,30.239174,1025.9,,TRUE,TRUE,,,,,,,CLR,,,,,,,,VFR,,,,,,,,,,,,METAR,1191.0
KGEG 280953Z 14003KT 10SM CLR 09/M02 A3019 RMK AO2 SLP219 T00941017,KGEG,2023-04-28T09:53:00Z,47.62,-117.53,9.4,-1.7,140,3,,10.0,30.188976,1021.9,,,TRUE,,,,,,,CLR,,,,,,,,VFR,,,,,,,,,,,,METAR,718.0
KGCC 280953Z AUTO 28011KT 10SM SCT037 OVC070 02/01 A3018 RMK AO2 SLP231 T00220011,KGCC,2023-04-28T09:53:00Z,44.33,-105.55,2.2,1.1,280,11,,10.0,30.180119,1023.1,,TRUE,TRUE,,,,,,,SCT,3700,OVC,7000,,,,,VFR,,,,,,,,,,,,METAR,1328.0
KGAG 280953Z AUTO 35003KT 8SM -RA OVC070 10/09 A2985 RMK AO2 SLP096 P0005 T01000089,KGAG,2023-04-28T09:53:00Z,36.3,-99.77,10.0,8.9,350,3,,8.0,29.84941,1009.6,,TRUE,TRUE,,,,,,-RA,OVC,7000,,,,,,,VFR,,,,,,0.05,,,,,,METAR,670.0
KFYV 280953Z AUTO 00000KT 1/4SM FG VV002 11/10 A2979 RMK AO2 SLP083 T01110100,KFYV,2023-04-28T09:53:00Z,36.02,-94.17,11.1,10.0,0,0,,0.25,29.790354,1008.3,,TRUE,TRUE,,,,,,FG,OVX,0,,,,,,,LIFR,,,,,,,,,,,200,METAR,377.0
KFXE 280953Z 00000KT 10SM CLR 22/19 A2989 RMK AO2 SLP125 T02170194 PNO,KFXE,2023-04-28T09:53:00Z,26.2,-80.18,21.7,19.4,0,0,,10.0,29.890747,1012.5,,,TRUE,,,,,,,CLR,,,,,,,,VFR,,,,,,,,,,,,METAR,3.0
KFVE 280953Z AUTO 29003KT 10SM CLR 02/M02 A3019 RMK AO2 SLP227 T00221022,KFVE,2023-04-28T09:53:00Z,47.28,-68.3,2.2,-2.2,290,3,,10.0,30.188976,1022.7,,TRUE,TRUE,,,,,,,CLR,,,,,,,,VFR,,,,,,,,,,,,METAR,299.0
KFUL 280953Z AUTO 09004KT 5SM HZ OVC011 15/12 A2992 RMK AO2 SLP129 T01500122,KFUL,2023-04-28T09:53:00Z,33.87,-117.98,15.0,12.2,90,4,,5.0,29.920275,1012.9,,TRUE,TRUE,,,,,,HZ,OVC,1100,,,,,,,MVFR,,,,,,,,,,,,METAR,23.0
KFTW 280953Z 00000KT 10SM CLR 11/11 A2978 RMK AO2 SLP082 T01060106,KFTW,2023-04-28T09:53:00Z,32.83,-97.37,10.6,10.6,0,0,,10.0,29.778543,1008.2,,,TRUE,,,,,,,CLR,,,,,,,,VFR,,,,,,,,,,,,METAR,213.0
KFST 280953Z AUTO 22013KT 10SM CLR 18/M07 A2976 RMK AO2 SLP031 T01781067 $,KFST,2023-04-28T09:53:00Z,30.92,-102.92,17.8,-6.7,220,13,,10.0,29.760826,1003.1,,TRUE,TRUE,TRUE,,,,,,CLR,,,,,,,,VFR,,,,,,,,,,,,METAR,917.0
KFSM 280953Z AUTO 25006KT 9SM OVC042 13/12 A2978 RMK AO2 SLP081 T01330117 $,KFSM,2023-04-28T09:53:00Z,35.33,-94.37,13.3,11.7,250,6,,9.0,29.778543,1008.1,,TRUE,TRUE,TRUE,,,,,,OVC,4200,,,,,,,VFR,,,,,,,,,,,,METAR,136.0
KFRG 280953Z 06005KT 8SM CLR 08/07 A3018 RMK AO2 SLP221 T00780067,KFRG,2023-04-28T09:53:00Z,40.73,-73.42,7.8,6.7,60,5,,8.0,30.180119,1022.1,,,TRUE,,,,,,,CLR,,,,,,,,VFR,,,,,,,,,,,,METAR,23.0
KFPR 280953Z AUTO 17006KT 10SM CLR 20/19 A2988 RMK AO2 SLP117 T02000189,KFPR,2023-04-28T09:53:00Z,27.5,-80.38,20.0,18.9,170,6,,10.0,29.878937,1011.7,,TRUE,TRUE,,,,,,,CLR,,,,,,,,VFR,,,,,,,,,,,,METAR,7.0
KFOE 280953Z AUTO 00000KT 10SM OVC065 11/09 A2982 RMK AO2 SLP093 T01060094 $,KFOE,2023-04-28T09:53:00Z,38.93,-95.65,10.6,9.4,0,0,,10.0,29.819881,1009.3,,TRUE,TRUE,TRUE,,,,,,OVC,6500,,,,,,,VFR,,,,,,,,,,,,METAR,315.0
KFNT 280953Z 06006KT 10SM CLR 06/00 A2988 RMK AO2 SLP121 T00610000,KFNT,2023-04-28T09:53:00Z,42.97,-83.75,6.1,0.0,60,6,,10.0,29.878937,1012.1,,,TRUE,,,,,,,CLR,,,,,,,,VFR,,,,,,,,,,,,METAR,235.0
KFNB 280953Z AUTO 00000KT 10SM OVC060 14/10 A2979 RMK AO2 SLP084 T01390100,KFNB,2023-04-28T09:53:00Z,40.07,-95.58,13.9,10.0,0,0,,10.0,29.790354,1008.4,,TRUE,TRUE,,,,,,,OVC,6000,,,,,,,VFR,,,,,,,,,,,,METAR,301.0
KFMY 280953Z AUTO 14003KT 10SM CLR 21/18 A2989 RMK AO2 SLP123 T02110183,KFMY,2023-04-28T09:53:00Z,26.58,-81.87,21.1,18.3,140,3,,10.0,29.890747,1012.3,,TRUE,TRUE,,,,,,,CLR,,,,,,,,VFR,,,,,,,,,,,,METAR,4.0
KFMN 280953Z AUTO 33015G22KT 10SM CLR 13/M07 A2993 RMK AO2 PK WND 32026/0904 SLP088 T01281067,KFMN,2023-04-28T09:53:00Z,36.75,-108.23,12.8,-6.7,330,15,22,10.0,29.929134,1008.8,,TRUE,TRUE,,,,,,,CLR,,,,,,,,VFR,,,,,,,,,,,,METAR,1677.0
KFLO 280953Z AUTO 14004KT 10SM BKN019 OVC024 18/17 A2976 RMK AO2 RAE09B28E46 SLP075 P0000 T01830172,KFLO,2023-04-28T09:53:00Z,34.18,-79.73,18.3,17.2,140,4,,10.0,29.760826,1007.5,,TRUE,TRUE,,,,,,,BKN,1900,OVC,2400,,,,,MVFR,,,,,,0.005,,,,,,METAR,43.0
KFLL 280953Z AUTO 33003KT 10SM 22/20 A2989 RMK AO2 SLP122 T02170200 TSNO $,KFLL,2023-04-28T09:53:00Z,26.07,-80.15,21.7,20.0,330,3,,10.0,29.890747,1012.2,,TRUE,TRUE,TRUE,,TRUE,,,,,,,,,,,,,,,,,,,,,,,,SPECI,1.0
KFLD 280953Z AUTO 14003KT 10SM CLR 04/M01 A2986 RMK AO2 SLP113 T00391006,KFLD,2023-04-28T09:53:00Z,43.77,-88.48,3.9,-0.6,140,3,,10.0,29.861221,1011.3,,TRUE,TRUE,,,,,,,CLR,,,,,,,,VFR,,,,,,,,,,,,METAR,242.0
KFHR 280953Z AUTO 00000KT 10SM CLR 08/04 A3013 RMK AO2 SLP203 T00780039,KFHR,2023-04-28T09:53:00Z,48.52,-123.03,7.8,3.9,0,0,,10.0,30.129921,1020.3,,TRUE,TRUE,,,,,,,CLR,,,,,,,,VFR,,,,,,,,,,,,METAR,34.0
KFFT 280953Z AUTO 19005KT 6SM BR OVC007 15/14 A2966 RMK AO2 RAB31E46 CIG 004V011 SLP038 P0000 T01500144,KFFT,2023-04-28T09:53:00Z,38.18,-84.9,15.0,14.4,190,5,,6.0,29.660433,1003.8,,TRUE,TRUE,,,,,,BR,OVC,700,,,,,,,IFR,,,,,,0.005,,,,,,METAR,235.0
KFDY 280953Z AUTO 04006KT 8SM -RA SCT065 OVC095 08/07 A2977 RMK AO2 SLP078 P0004 T00830067,KFDY,2023-04-28T09:53:00Z,41.02,-83.67,8.3,6.7,40,6,,8.0,29.769686,1007.8,,TRUE,TRUE,,,,,,-RA,SCT,6500,OVC,9500,,,,,VFR,,,,,,0.04,,,,,,METAR,247.0
KFDR 280953Z AUTO 05011KT 10SM CLR 11/09 A2978 RMK AO2 SLP077 T01060089,KFDR,2023-04-28T09:53:00Z,34.35,-98.98,10.6,8.9,50,11,,10.0,29.778543,1007.7,,TRUE,TRUE,,,,,,,CLR,,,,,,,,VFR,,,,,,,,,,,,METAR,378.0
KFCM 280953Z AUTO 02006KT 6SM -RA BR OVC070 09/08 A2978 RMK AO2 SLP087 P0000 T00890078,KFCM,2023-04-28T09:53:00Z,44.83,-93.47,8.9,7.8,20,6,,6.0,29.778543,1008.7,,TRUE,TRUE,,,,,,-RA BR,OVC,7000,,,,,,,VFR,,,,,,0.005,,,,,,METAR,276.0
KFAT 280953Z 00000KT 10SM BKN200 20/13 A2987 RMK AO2 SLP113 T02000128,KFAT,2023-04-28T09:53:00Z,36.78,-119.72,20.0,12.8,0,0,,10.0,29.870079,1011.3,,,TRUE,,,,,,,BKN,20000,,,,,,,VFR,,,,,,,,,,,,METAR,102.0
KFAR 280953Z 34013KT 10SM OVC100 05/02 A2997 RMK AO2 SLP156 T00500017,KFAR,2023-04-28T09:53:00Z,46.9,-96.82,5.0,1.7,340,13,,10.0,29.970472,1015.6,,,TRUE,,,,,,,OVC,10000,,,,,,,VFR,,,,,,,,,,,,METAR,276.0
KEYW 280953Z AUTO 16004KT 10SM CLR 27/24 A2989 RMK AO2 SLP128 T02670244,KEYW,2023-04-28T09:53:00Z,24.55,-81.75,26.7,24.4,160,4,,10.0,29.890747,1012.8,,TRUE,TRUE,,,,,,,CLR,,,,,,,,VFR,,,,,,,,,,,,METAR,1.0
KEVW 280953Z AUTO 09010KT 10SM CLR M01/M06 A3027 RMK AO2 SLP229 T10111056,KEVW,2023-04-28T09:53:00Z,41.27,-111.03,-1.1,-5.6,90,10,,10.0,30.268702,1022.9,,TRUE,TRUE,,,,,,,CLR,,,,,,,,VFR,,,,,,,,,,,,METAR,2178.0
KEQY 280953Z AUTO 21006KT 10SM OVC006 18/17 A2975 RMK AO2 RAE14B24E38 CIG 005V009 SLP078 P0000 T01780167,KEQY,2023-04-28T09:53:00Z,35.02,-80.62,17.8,16.7,210,6,,10.0,29.749016,1007.8,,TRUE,TRUE,,,,,,,OVC,600,,,,,,,IFR,,,,,,0.005,,,,,,METAR,205.0
KEPH 280953Z AUTO 36007KT 10SM CLR 08/01 A3016 RMK AO2 SLP212 T00830006,KEPH,2023-04-28T09:53:00Z,47.3,-119.52,8.3,0.6,360,7,,10.0,30.159449,1021.2,,TRUE,TRUE,,,,,,,CLR,,,,,,,,VFR,,,,,,,,,,,,METAR,382.0
KENW 280953Z AUTO 05004KT 10SM CLR 03/00 A2985 RMK AO2 SLP109 T00330000 $,KENW,2023-04-28T09:53:00Z,42.6,-87.93,3.3,0.0,50,4,,10.0,29.84941,1010.9,,TRUE,TRUE,TRUE,,,,,,CLR,,,,,,,,VFR,,,,,,,,,,,,METAR,222.0
KELY 280953Z AUTO 00000KT 10SM CLR 07/M04 A3021 RMK AO2 SLP159 T00721039,KELY,2023-04-28T09:53:00Z,39.3,-114.85,7.2,-3.9,0,0,,10.0,30.209646,1015.9,,TRUE,TRUE,,,,,,,CLR,,,,,,,,VFR,,,,,,,,,,,,METAR,1906.0
KELN 280953Z AUTO 00000KT 10SM CLR 08/02 A3018 RMK AO2 SLP216 T00830022,KELN,2023-04-28T09:53:00Z,47.03,-120.53,8.3,2.2,0,0,,10.0,30.180119,1021.6,,TRUE,TRUE,,,,,,,CLR,,,,,,,,VFR,,,,,,,,,,,,METAR,532.0
KELM 280953Z 03007KT 10SM OVC043 09/06 A3008 RMK AO2 SLP187 T00890061,KELM,2023-04-28T09:53:00Z,42.15,-76.9,8.9,6.1,30,7,,10.0,30.079725,1018.7,,,TRUE,,,,,,,OVC,4300,,,,,,,VFR,,,,,,,,,,,,METAR,287.0
KELD 280953Z AUTO 28003KT 10SM CLR 12/12 A2978 RMK AO2 SLP081 T01220122,KELD,2023-04-28T09:53:00Z,33.22,-92.82,12.2,12.2,280,3,,10.0,29.778543,1008.1,,TRUE,TRUE,,,,,,,CLR,,,,,,,,VFR,,,,,,,,,,,,METAR,76.0
KEEO 280953Z AUTO 11003KT 10SM CLR 01/M04 A3021 RMK AO2 SLP195 T00061039,KEEO,2023-04-28T09:53:00Z,40.05,-107.88,0.6,-3.9,110,3,,10.0,30.209646,1019.5,,TRUE,TRUE,,,,,,,CLR,,,,,,,,VFR,,,,,,,,,,,,METAR,1957.0
KECP 280953Z AUTO 20007KT 10SM OVC017 22/21 A2977 RMK AO1 SLP092 T02220206 $,KECP,2023-04-28T09:53:00Z,30.35,-85.8,22.2,20.6,200,7,,10.0,29.769686,1009.2,,TRUE,TRUE,TRUE,,,,,,OVC,1700,,,,,,,MVFR,,,,,,,,,,,,METAR,17.0
KDXR 280953Z AUTO 06004KT 6SM BR OVC003 07/05 A3021 RMK AO2 SLP229 T00720050,KDXR,2023-04-28T09:53:00Z,41.37,-73.48,7.2,5.0,60,4,,6.0,30.209646,1022.9,,TRUE,TRUE,,,,,,BR,OVC,300,,,,,,,LIFR,,,,,,,,,,,,METAR,138.0
KDWH 280953Z AUTO 00000KT 6SM BR CLR 13/12 A2978 RMK AO2 SLP081 T01330122,KDWH,2023-04-28T09:53:00Z,30.07,-95.55,13.3,12.2,0,0,,6.0,29.778543,1008.1,,TRUE,TRUE,,,,,,BR,CLR,,,,,,,,VFR,,,,,,,,,,,,METAR,46.0
KDVT 280953Z AUTO 00000KT 10SM CLR 19/M03 A2981 RMK AO2 SLP070 T01891028,KDVT,2023-04-28T09:53:00Z,33.68,-112.07,18.9,-2.8,0,0,,10.0,29.811024,1007.0,,TRUE,TRUE,,,,,,,CLR,,,,,,,,VFR,,,,,,,,,,,,METAR,454.0
KDUJ 280953Z AUTO 13011KT 10SM BKN015 12/08 A2994 RMK AO2 SLP135 T01170078,KDUJ,2023-04-28T09:53:00Z,41.17,-78.9,11.7,7.8,130,11,,10.0,29.940945,1013.5,,TRUE,TRUE,,,,,,,BKN,1500,,,,,,,MVFR,,,,,,,,,,,,METAR,552.0
KDTW 280953Z COR 03009KT 10SM SCT060 BKN095 OVC150 08/01 A2985 RMK AO2 SLP110 T00780011 PNO,KDTW,2023-04-28T09:53:00Z,42.23,-83.33,7.8,1.1,30,9,,10.0,29.84941,1011.0,TRUE,,TRUE,,,,,,,SCT,6000,BKN,9500,OVC,15000,,,VFR,,,,,,,,,,,,SPECI,192.0
KDTS 280953Z AUTO 27003KT 10SM FEW009 FEW016 22/20 A2977 RMK AO2 SLP079 T02170200,KDTS,2023-04-28T09:53:00Z,30.4,-86.47,21.7,20.0,270,3,,10.0,29.769686,1007.9,,TRUE,TRUE,,,,,,,FEW,900,FEW,1600,,,,,VFR,,,,,,,,,,,,METAR,5.0
KDRT 280953Z AUTO 11007KT 10SM CLR 19/11 A2975 RMK AO2 SLP064 T01890106,KDRT,2023-04-28T09:53:00Z,29.37,-100.92,18.9,10.6,110,7,,10.0,29.749016,1006.4,,TRUE,TRUE,,,,,,,CLR,,,,,,,,VFR,,,,,,,,,,,,METAR,303.0
KDRO 280953Z AUTO 32012G17KT 10SM CLR 07/M03 A2996 RMK AO2 SLP085 T00721033,KDRO,2023-04-28T09:53:00Z,37.15,-107.77,7.2,-3.3,320,12,17,10.0,29.958662,1008.5,,TRUE,TRUE,,,,,,,CLR,,,,,,,,VFR,,,,,,,,,,,,METAR,2021.0
KDRA 280953Z AUTO 05014KT 10SM CLR 21/M04 A2998 RMK AO2 SLP105 T02111044,KDRA,2023-04-28T09:53:00Z,36.62,-116.03,21.1,-4.4,50,14,,10.0,29.97933,1010.5,,TRUE,TRUE,,,,,,,CLR,,,,,,,,VFR,,,,,,,,,,,,METAR,988.0
KDMO 280953Z AUTO 00000KT 10SM CLR 07/06 A2981 RMK AO2 SLP094 T00720056,KDMO,2023-04-28T09:53:00Z,38.72,-93.17,7.2,5.6,0,0,,10.0,29.811024,1009.4,,TRUE,TRUE,,,,,,,CLR,,,,,,,,VFR,,,,,,,,,,,,METAR,271.0
KDMN 280953Z AUTO 29008KT 10SM CLR 14/M08 A2991 RMK AO2 SLP062 T01441078,KDMN,2023-04-28T09:53:00Z,32.27,-107.72,14.4,-7.8,290,8,,10.0,29.911417,1006.2,,TRUE,TRUE,,,,,,,CLR,,,,,,,,VFR,,,,,,,,,,,,METAR,1310.0
KDLS 280953Z AUTO 12005KT 10SM CLR 08/03 A3014 RMK AO2 SLP205 T00830033,KDLS,2023-04-28T09:53:00Z,45.62,-121.17,8.3,3.3,120,5,,10.0,30.138779,1020.5,,TRUE,TRUE,,,,,,,CLR,,,,,,,,VFR,,,,,,,,,,,,METAR,71.0
KDLN 280953Z AUTO 20006KT 10SM CLR M03/M05 A3029 RMK AO2 SLP273 T10281050,KDLN,2023-04-28T09:53:00Z,45.25,-112.55,-2.8,-5.0,200,6,,10.0,30.28937,1027.3,,TRUE,TRUE,,,,,,,CLR,,,,,,,,VFR,,,,,,,,,,,,METAR,1586.0
KDKK 280953Z AUTO 15010G20KT 10SM CLR 13/07 A2993 RMK AO2 SLP134 T01330067,KDKK,2023-04-28T09:53:00Z,42.5,-79.28,13.3,6.7,150,10,20,10.0,29.929134,1013.4,,TRUE,TRUE,,,,,,,CLR,,,,,,,,VFR,,,,,,,,,,,,METAR,205.0
KDFW 280953Z 10003KT 10SM SCT250 12/11 A2978 RMK AO2 SLP080 T01170106,KDFW,2023-04-28T09:53:00Z,32.9,-97.02,11.7,10.6,100,3,,10.0,29.778543,1008.0,,,TRUE,,,,,,,SCT,25000,,,,,,,VFR,,,,,,,,,,,,METAR,168.0
KDFI 280953Z AUTO 03008KT 10SM -RA OVC075 08/06 A2980 RMK AO2 RAB05 SLP093 P0001 T00830056,KDFI,2023-04-28T09:53:00Z,41.33,-84.43,8.3,5.6,30,8,,10.0,29.799213,1009.3,,TRUE,TRUE,,,,,,-RA,OVC,7500,,,,,,,VFR,,,,,,0.01,,,,,,METAR,215.0
KDEW 280953Z AUTO 00000KT 10SM CLR 01/M02 A3020 RMK AO2 SLP230 T00061022,KDEW,2023-04-28T09:53:00Z,47.97,-117.43,0.6,-2.2,0,0,,10.0,30.200787,1023.0,,TRUE,TRUE,,,,,,,CLR,,,,,,,,VFR,,,,,,,,,,,,METAR,672.0
KDET 280953Z 04007KT 10SM CLR 08/01 A2986 RMK AO2 SLP114 T00830011,KDET,2023-04-28T09:53:00Z,42.4,-83.02,8.3,1.1,40,7,,10.0,29.861221,1011.4,,,TRUE,,,,,,,CLR,,,,,,,,VFR,,,,,,,,,,,,METAR,190.0
KDEN 280953Z 35016KT 10SM BKN023 BKN200 03/M01 A3019 RMK AO2 PK WND 36027/0932 SLP185 T00281011,KDEN,2023-04-28T09:53:00Z,39.85,-104.65,2.8,-1.1,350,16,,10.0,30.188976,1018.5,,,TRUE,,,,,,,BKN,2300,BKN,20000,,,,,MVFR,,,,,,,,,,,,METAR,1656.0
KDBQ 280953Z AUTO 14008KT 10SM CLR 08/00 A2982 RMK AO2 SLP098 T00780000,KDBQ,2023-04-28T09:53:00Z,42.4,-90.7,7.8,0.0,140,8,,10.0,29.819881,1009.8,,TRUE,TRUE,,,,,,,CLR,,,,,,,,VFR,,,,,,,,,,,,METAR,317.0
KDAN 280953Z AUTO 09006KT 4SM RA BR OVC002 14/14 A2977 RMK AO2 SLP073 P0021 T01390139,KDAN,2023-04-28T09:53:00Z,36.57,-79.33,13.9,13.9,90,6,,4.0,29.769686,1007.3,,TRUE,TRUE,,,,,,RA BR,OVC,200,,,,,,,LIFR,,,,,,0.21,,,,,,METAR,170.0
KDAL 280953Z 00000KT 10SM SCT250 12/11 A2979 RMK AO2 SLP083 T01220106 $,KDAL,2023-04-28T09:53:00Z,32.85,-96.85,12.2,10.6,0,0,,10.0,29.790354,1008.3,,,TRUE,TRUE,,,,,,SCT,25000,,,,,,,VFR,,,,,,,,,,,,METAR,148.0
KDAB 280953Z 17003KT 10SM FEW150 19/17 A2987 RMK AO2 SLP112 T01890172,KDAB,2023-04-28T09:53:00Z,29.18,-81.07,18.9,17.2,170,3,,10.0,29.870079,1011.2,,,TRUE,,,,,,,FEW,15000,,,,,,,VFR,,,,,,,,,,,,METAR,8.0
KCYS 280953Z AUTO 35017G36KT 10SM CLR 00/M03 A3015 RMK AO2 PK WND 35036/0945 SLP202 T00001028,KCYS,2023-04-28T09:53:00Z,41.15,-104.8,0.0,-2.8,350,17,36,10.0,30.15059,1020.2,,TRUE,TRUE,,,,,,,CLR,,,,,,,,VFR,,,,,,,,,,,,METAR,1868.0
KCXO 280953Z AUTO 00000KT 10SM CLR 10/10 A2978 RMK AO2 SLP083 T01000100,KCXO,2023-04-28T09:53:00Z,30.35,-95.42,10.0,10.0,0,0,,10.0,29.778543,1008.3,,TRUE,TRUE,,,,,,,CLR,,,,,,,,VFR,,,,,,,,,,,,METAR,69.0
KCUB 280953Z AUTO 00000KT 10SM SCT009 OVC013 19/18 A2976 RMK AO2 SLP075 T01890178,KCUB,2023-04-28T09:53:00Z,33.97,-81.0,18.9,17.8,0,0,,10.0,29.760826,1007.5,,TRUE,TRUE,,,,,,,SCT,900,OVC,1300,,,,,MVFR,,,,,,,,,,,,METAR,55.0
KCSM 280953Z AUTO 36004KT 10SM CLR 09/08 A2985 RMK AO2 SLP101 T00890078,KCSM,2023-04-28T09:53:00Z,35.35,-99.2,8.9,7.8,360,4,,10.0,29.84941,1010.1,,TRUE,TRUE,,,,,,,CLR,,,,,,,,VFR,,,,,,,,,,,,METAR,586.0
KCRS 280953Z AUTO 11003KT 10SM CLR 13/11 A2980 RMK AO2 SLP088 T01330111,KCRS,2023-04-28T09:53:00Z,32.03,-96.4,13.3,11.1,110,3,,10.0,29.799213,1008.8,,TRUE,TRUE,,,,,,,CLR,,,,,,,,VFR,,,,,,,,,,,,METAR,136.0
KCRQ 280953Z AUTO 23003KT 5SM BR OVC004 13/12 A2991 RMK AO2 SLP128 T01330117,KCRQ,2023-04-28T09:53:00Z,33.13,-117.28,13.3,11.7,230,3,,5.0,29.911417,1012.8,,TRUE,TRUE,,,,,,BR,OVC,400,,,,,,,LIFR,,,,,,,,,,,,METAR,96.0
KCRG 280953Z 16003KT 10SM CLR 19/18 A2983 RMK AO2 SLP099 T01890183,KCRG,2023-04-28T09:53:00Z,30.33,-81.52,18.9,18.3,160,3,,10.0,29.828741,1009.9,,,TRUE,,,,,,,CLR,,,,,,,,VFR,,,,,,,,,,,,METAR,12.0
KCQC 280953Z AUTO 07010KT 10SM SCT100 04/00 A2999 RMK AO2 SLP092 T00390000 $,KCQC,2023-04-28T09:53:00Z,35.0,-105.67,3.9,0.0,70,10,,10.0,29.991142,1009.2,,TRUE,TRUE,TRUE,,,,,,SCT,10000,,,,,,,VFR,,,,,,,,,,,,SPECI,2163.0
KCPS 280953Z AUTO 35003KT 8SM OVC080 12/09 A2977 RMK AO2 SLP079 T01170094,KCPS,2023-04-28T09:53:00Z,38.53,-90.15,11.7,9.4,350,3,,8.0,29.769686,1007.9,,TRUE,TRUE,,,,,,,OVC,8000,,,,,,,VFR,,,,,,,,,,,,METAR,125.0
KCOT 280953Z AUTO 15003KT 5SM BR CLR 19/18 A2976 RMK AO2 SLP070 T01890178,KCOT,2023-04-28T09:53:00Z,28.45,-99.22,18.9,17.8,150,3,,5.0,29.760826,1007.0,,TRUE,TRUE,,,,,,BR,CLR,,,,,,,,MVFR,,,,,,,,,,,,METAR,144.0
KCNY 280953Z AUTO 34006G18KT 10SM CLR 08/M02 A3014 RMK AO2 PK WND 03035/0902 SLP171 T00781017 $,KCNY,2023-04-28T09:53:00Z,38.77,-109.75,7.8,-1.7,340,6,18,10.0,30.138779,1017.1,,TRUE,TRUE,TRUE,,,,,,CLR,,,,,,,,VFR,,,,,,,,,,,,METAR,1392.0
KCNO 280953Z AUTO 00000KT 4SM BR CLR 12/10 A2993 RMK AO2 SLP130 T01170100,KCNO,2023-04-28T09:53:00Z,33.98,-117.62,11.7,10.0,0,0,,4.0,29.929134,1013.0,,TRUE,TRUE,,,,,,BR,CLR,,,,,,,,MVFR,,,,,,,,,,,,METAR,191.0
KCNM 280953Z AUTO 27011KT 10SM CLR 19/M12 A2973 RMK AO2 SLP013 T01941122 $,KCNM,2023-04-28T09:53:00Z,32.33,-104.25,19.4,-12.2,270,11,,10.0,29.731298,1001.3,,TRUE,TRUE,TRUE,,,,,,CLR,,,,,,,,VFR,,,,,,,,,,,,METAR,993.0
KCMX 280953Z AUTO 06007KT 8SM -RA OVC033 04/02 A2993 RMK AO2 RAB0854 SLP141 P0002 T00440022,KCMX,2023-04-28T09:53:00Z,47.17,-88.48,4.4,2.2,60,7,,8.0,29.929134,1014.1,,TRUE,TRUE,,,,,,-RA,OVC,3300,,,,,,,VFR,,,,,,0.02,,,,,,METAR,326.0
KCMI 280953Z 03007KT 10SM CLR 10/06 A2976 RMK AO2 SLP077 T01000056,KCMI,2023-04-28T09:53:00Z,40.03,-88.27,10.0,5.6,30,7,,10.0,29.760826,1007.7,,,TRUE,,,,,,,CLR,,,,,,,,VFR,,,,,,,,,,,,METAR,227.0
KCLM 280953Z AUTO 22006KT 10SM CLR 08/03 A3014 RMK AO2 SLP207 T00830033,KCLM,2023-04-28T09:53:00Z,48.12,-123.5,8.3,3.3,220,6,,10.0,30.138779,1020.7,,TRUE,TRUE,,,,,,,CLR,,,,,,,,VFR,,,,,,,,,,,,METAR,81.0
KCLL 280953Z AUTO 08003KT 10SM CLR 15/12 A2977 RMK AO2 SLP077 T01500122,KCLL,2023-04-28T09:53:00Z,30.58,-96.37,15.0,12.2,80,3,,10.0,29.769686,1007.7,,TRUE,TRUE,,,,,,,CLR,,,,,,,,VFR,,,,,,,,,,,,METAR,96.0
KCKB 280953Z AUTO 09013G17KT 6SM RA BR OVC065 13/11 A2980 RMK AO2 SLP080 P0009 T01280106,KCKB,2023-04-28T09:53:00Z,39.3,-80.22,12.8,10.6,90,13,17,6.0,29.799213,1008.0,,TRUE,TRUE,,,,,,RA BR,OVC,6500,,,,,,,VFR,,,,,,0.09,,,,,,METAR,368.0
KCHO 280953Z 04009KT 2SM RA BR BKN006 OVC011 14/12 A2989 RMK AO2 CIG 003V008 SLP117 P0019 T01390117,KCHO,2023-04-28T09:53:00Z,38.13,-78.45,13.9,11.7,40,9,,2.0,29.890747,1011.7,,,TRUE,,,,,,RA BR,BKN,600,OVC,1100,,,,,IFR,,,,,,0.19,,,,,,METAR,193.0
KCHA 280953Z 00000KT 3SM BR OVC005 16/14 A2971 RMK AO2 SLP058 VIS W 1 1/2 T01560144,KCHA,2023-04-28T09:53:00Z,35.03,-85.2,15.6,14.4,0,0,,3.0,29.71063,1005.8,,,TRUE,,,,,,BR,OVC,500,,,,,,,IFR,,,,,,,,,,,,METAR,203.0
KCGI 280953Z AUTO 36006KT 6SM BR OVC007 13/12 A2972 RMK AO2 SLP065 T01280117,KCGI,2023-04-28T09:53:00Z,37.23,-89.58,12.8,11.7,360,6,,6.0,29.719488,1006.5,,TRUE,TRUE,,,,,,BR,OVC,700,,,,,,,IFR,,,,,,,,,,,,METAR,103.0
KCEZ 280953Z AUTO 36007KT 10SM CLR 08/M03 A3002 RMK AO2 SLP106 T00781033,KCEZ,2023-04-28T09:53:00Z,37.3,-108.63,7.8,-3.3,360,7,,10.0,30.02067,1010.6,,TRUE,TRUE,,,,,,,CLR,,,,,,,,VFR,,,,,,,,,,,,METAR,1801.0
KCDW 280953Z AUTO 00000KT 7SM OVC011 09/07 A3019 RMK AO2 SLP227 T00890067,KCDW,2023-04-28T09:53:00Z,40.88,-74.28,8.9,6.7,0,0,,7.0,30.188976,1022.7,,TRUE,TRUE,,,,,,,OVC,1100,,,,,,,MVFR,,,,,,,,,,,,METAR,52.0
KCDS 280953Z AUTO 05014G21KT 10SM CLR 11/08 A2980 RMK AO2 PK WND 04026/0926 SLP079 T01110083,KCDS,2023-04-28T09:53:00Z,34.43,-100.28,11.1,8.3,50,14,21,10.0,29.799213,1007.9,,TRUE,TRUE,,,,,,,CLR,,,,,,,,VFR,,,,,,,,,,,,METAR,595.0
KCDR 280953Z AUTO 31012G22KT 10SM OVC080 06/02 A3014 RMK AO2 SLP216 T00560017,KCDR,2023-04-28T09:53:00Z,42.83,-103.1,5.6,1.7,310,12,22,10.0,30.138779,1021.6,,TRUE,TRUE,,,,,,,OVC,8000,,,,,,,VFR,,,,,,,,,,,,METAR,1002.0
KCDC 280953Z AUTO 03005KT 10SM CLR 07/M02 A3014 RMK AO2 SLP157 T00671022,KCDC,2023-04-28T09:53:00Z,37.7,-113.1,6.7,-2.2,30,5,,10.0,30.138779,1015.7,,TRUE,TRUE,,,,,,,CLR,,,,,,,,VFR,,,,,,,,,,,,METAR,1703.0
KCCR 280953Z AUTO 00000KT 10SM CLR 15/09 A2988 RMK AO2 SLP105 T01500089,KCCR,2023-04-28T09:53:00Z,38.0,-122.05,15.0,8.9,0,0,,10.0,29.878937,1010.5,,TRUE,TRUE,,,,,,,CLR,,,,,,,,VFR,,,,,,,,,,,,METAR,6.0
KCAG 280953Z AUTO 00000KT 10SM CLR 01/M04 A3022 RMK AO2 SLP212 T00061039,KCAG,2023-04-28T09:53:00Z,40.5,-107.52,0.6,-3.9,0,0,,10.0,30.221457,1021.2,,TRUE,TRUE,,,,,,,CLR,,,,,,,,VFR,,,,,,,,,,,,METAR,1888.0
KBYI 280953Z AUTO 06008KT 10SM CLR 04/M07 A3024 RMK AO2 SLP222 T00441072,KBYI,2023-04-28T09:53:00Z,42.55,-113.77,4.4,-7.2,60,8,,10.0,30.239174,1022.2,,TRUE,TRUE,,,,,,,CLR,,,,,,,,VFR,,,,,,,,,,,,METAR,1263.0
KBYG 280953Z AUTO 31012KT 10SM FEW050 03/M04 A3020 RMK AO2 SLP235 T00281039,KBYG,2023-04-28T09:53:00Z,44.38,-106.72,2.8,-3.9,310,12,,10.0,30.200787,1023.5,,TRUE,TRUE,,,,,,,FEW,5000,,,,,,,VFR,,,,,,,,,,,,METAR,1503.0
KBVY 280953Z AUTO 23003KT M1/4SM FG VV001 02/02 A3022 RMK AO2 SLP230 T00220022,KBVY,2023-04-28T09:53:00Z,42.58,-70.92,2.2,2.2,230,3,,0.25,30.221457,1023.0,,TRUE,TRUE,,,,,,FG,OVX,0,,,,,,,LIFR,,,,,,,,,,,100,METAR,28.0
KBUR 280953Z 16003KT 4SM BR BKN005 12/11 A2992 RMK AO2 SLP119 T01220111,KBUR,2023-04-28T09:53:00Z,34.2,-118.37,12.2,11.1,160,3,,4.0,29.920275,1011.9,,,TRUE,,,,,,BR,BKN,500,,,,,,,IFR,,,,,,,,,,,,METAR,221.0
KBTR 280953Z 00000KT 10SM CLR 17/15 A2980 RMK AO2 SLP091 T01670150,KBTR,2023-04-28T09:53:00Z,30.53,-91.15,16.7,15.0,0,0,,10.0,29.799213,1009.1,,,TRUE,,,,,,,CLR,,,,,,,,VFR,,,,,,,,,,,,METAR,20.0
KBTM 280953Z AUTO 00000KT 10SM CLR M03/M06 A3029 RMK AO2 SLP280 T10331056,KBTM,2023-04-28T09:53:00Z,45.97,-112.5,-3.3,-5.6,0,0,,10.0,30.28937,1028.0,,TRUE,TRUE,,,,,,,CLR,,,,,,,,VFR,,,,,,,,,,,,METAR,1680.0
KBTL 280953Z AUTO 05004KT 10SM CLR 08/00 A2985 RMK AO2 SLP106 T00780000,KBTL,2023-04-28T09:53:00Z,42.32,-85.25,7.8,0.0,50,4,,10.0,29.84941,1010.6,,TRUE,TRUE,,,,,,,CLR,,,,,,,,VFR,,,,,,,,,,,,METAR,282.0
KBRO 280953Z AUTO 03003KT 6SM BR CLR 22/21 A2977 RMK AO2 SLP078 T02220211,KBRO,2023-04-28T09:53:00Z,25.92,-97.42,22.2,21.1,30,3,,6.0,29.769686,1007.8,,TRUE,TRUE,,,,,,BR,CLR,,,,,,,,VFR,,,,,,,,,,,,METAR,6.0
KBRL 280953Z AUTO 33003KT 10SM CLR 07/01 A2979 RMK AO2 SLP086 T00720006,KBRL,2023-04-28T09:53:00Z,40.77,-91.13,7.2,0.6,330,3,,10.0,29.790354,1008.6,,TRUE,TRUE,,,,,,,CLR,,,,,,,,VFR,,,,,,,,,,,,METAR,208.0
KBRD 280953Z AUTO 35005KT 10SM SCT110 06/04 A2988 RMK AO2 SLP124 T00560039,KBRD,2023-04-28T09:53:00Z,46.4,-94.13,5.6,3.9,350,5,,10.0,29.878937,1012.4,,TRUE,TRUE,,,,,,,SCT,11000,,,,,,,VFR,,,,,,,,,,,,METAR,372.0
KBPT 280953Z AUTO 33003KT 10SM CLR 14/13 A2978 RMK AO2 SLP085 T01440128,KBPT,2023-04-28T09:53:00Z,29.95,-94.03,14.4,12.8,330,3,,10.0,29.778543,1008.5,,TRUE,TRUE,,,,,,,CLR,,,,,,,,VFR,,,,,,,,,,,,METAR,6.0
KBPI 280953Z AUTO 17004KT 10SM CLR M06/M07 A3030 RMK AO2 SLP257 T10611067,KBPI,2023-04-28T09:53:00Z,42.58,-110.1,-6.1,-6.7,170,4,,10.0,30.301182,1025.7,,TRUE,TRUE,,,,,,,CLR,,,,,,,,VFR,,,,,,,,,,,,METAR,2120.0
KBOI 280953Z 13008KT 10SM CLR 09/M02 A3021 RMK AO2 SLP217 T00891022,KBOI,2023-04-28T09:53:00Z,43.57,-116.23,8.9,-2.2,130,8,,10.0,30.209646,1021.7,,,TRUE,,,,,,,CLR,,,,,,,,VFR,,,,,,,,,,,,METAR,860.0
KBNO 280953Z AUTO 29004KT 10SM CLR 04/01 A3018 RMK AO2 SLP203 T00390011 $,KBNO,2023-04-28T09:53:00Z,43.6,-118.95,3.9,1.1,290,4,,10.0,30.180119,1020.3,,TRUE,TRUE,TRUE,,,,,,CLR,,,,,,,,VFR,,,,,,,,,,,,METAR,1263.0
KBNA 280953Z 02003KT 7SM FEW003 SCT027 BKN070 16/15 A2968 RMK AO2 RAE25 TSE05 SLP046 P0001 T01610150,KBNA,2023-04-28T09:53:00Z,36.12,-86.68,16.1,15.0,20,3,,7.0,29.681103,1004.6,,,TRUE,,,,,,,FEW,300,SCT,2700,BKN,7000,,,VFR,,,,,,0.01,,,,,,METAR,168.0
KBMQ 280953Z AUTO 19006KT 10SM CLR 14/12 A2977 RMK AO2 SLP068 T01440122,KBMQ,2023-04-28T09:53:00Z,30.73,-98.23,14.4,12.2,190,6,,10.0,29.769686,1006.8,,TRUE,TRUE,,,,,,,CLR,,,,,,,,VFR,,,,,,,,,,,,METAR,387.0
KBMG 280953Z AUTO 01005KT 8SM BKN006 OVC026 11/09 A2969 RMK AO2 SLP052 T01060094,KBMG,2023-04-28T09:53:00Z,39.15,-86.62,10.6,9.4,10,5,,8.0,29.68996,1005.2,,TRUE,TRUE,,,,,,,BKN,600,OVC,2600,,,,,IFR,,,,,,,,,,,,METAR,254.0
KBLI 280953Z AUTO 00000KT 10SM CLR 07/07 A3012 RMK AO2 SLP207 T00720072,KBLI,2023-04-28T09:53:00Z,48.8,-122.53,7.2,7.2,0,0,,10.0,30.121063,1020.7,,TRUE,TRUE,,,,,,,CLR,,,,,,,,VFR,,,,,,,,,,,,METAR,46.0
KBKV 280953Z AUTO 00000KT 10SM CLR 19/19 A2987 RMK AO2 SLP111 T01940194,KBKV,2023-04-28T09:53:00Z,28.47,-82.45,19.4,19.4,0,0,,10.0,29.870079,1011.1,,TRUE,TRUE,,,,,,,CLR,,,,,,,,VFR,,,,,,,,,,,,METAR,21.0
KBKL 280953Z 14012G17KT 10SM CLR 14/08 A2981 RMK AO2 SLP096 T01440078,KBKL,2023-04-28T09:53:00Z,41.53,-81.67,14.4,7.8,140,12,17,10.0,29.811024,1009.6,,,TRUE,,,,,,,CLR,,,,,,,,VFR,,,,,,,,,,,,METAR,177.0
KBKE 280953Z AUTO 00000KT 10SM CLR 02/M01 A3021 RMK AO2 SLP227 T00171006,KBKE,2023-04-28T09:53:00Z,44.85,-117.82,1.7,-0.6,0,0,,10.0,30.209646,1022.7,,TRUE,TRUE,,,,,,,CLR,,,,,,,,VFR,,,,,,,,,,,,METAR,1025.0
KBIV 280953Z AUTO 08004KT 10SM CLR 07/00 A2986 RMK AO2 SLP094 T00720000,KBIV,2023-04-28T09:53:00Z,42.75,-86.1,7.2,0.0,80,4,,10.0,29.861221,1009.4,,TRUE,TRUE,,,,,,,CLR,,,,,,,,VFR,,,,,,,,,,,,METAR,207.0
KBIL 280953Z 22011KT 10SM CLR 00/M04 A3021 RMK AO2 SLP247 T00001039,KBIL,2023-04-28T09:53:00Z,45.8,-108.55,0.0,-3.9,220,11,,10.0,30.209646,1024.7,,,TRUE,,,,,,,CLR,,,,,,,,VFR,,,,,,,,,,,,METAR,1089.0
KBHM 280953Z 22008KT 7SM BKN010 OVC014 19/17 A2974 RMK AO2 CIG 008V013 SLP063 T01890167,KBHM,2023-04-28T09:53:00Z,33.57,-86.75,18.9,16.7,220,8,,7.0,29.740158,1006.3,,,TRUE,,,,,,,BKN,1000,OVC,1400,,,,,MVFR,,,,,,,,,,,,METAR,191.0
KBGR 280953Z COR 00000KT 10SM BCFG CLR 01/M01 A3023 RMK AO2 SLP237 T00111006,KBGR,2023-04-28T09:53:00Z,44.8,-68.82,1.1,-0.6,0,0,,10.0,30.230314,1023.7,TRUE,,TRUE,,,,,,BCFG,CLR,,,,,,,,VFR,,,,,,,,,,,,METAR,45.0
KBGM 280953Z AUTO 11008KT 8SM BKN050 07/05 A3010 RMK AO2 SLP195 T00670050,KBGM,2023-04-28T09:53:00Z,42.22,-75.98,6.7,5.0,110,8,,8.0,30.100393,1019.5,,TRUE,TRUE,,,,,,,BKN,5000,,,,,,,VFR,,,,,,,,,,,,METAR,485.0
KBFM 280953Z 30004KT 8SM BKN008 21/19 A2978 RMK AO2 SLP084 T02060189,KBFM,2023-04-28T09:53:00Z,30.62,-88.07,20.6,18.9,300,4,,8.0,29.778543,1008.4,,,TRUE,,,,,,,BKN,800,,,,,,,IFR,,,,,,,,,,,,METAR,7.0
KBFI 280953Z 00000KT 10SM CLR 11/07 A3009 RMK AO2 SLP189 T01110067 $,KBFI,2023-04-28T09:53:00Z,47.55,-122.32,11.1,6.7,0,0,,10.0,30.088583,1018.9,,,TRUE,TRUE,,,,,,CLR,,,,,,,,VFR,,,,,,,,,,,,METAR,7.0
KBFF 280953Z AUTO 31011KT 10SM BKN085 04/02 A3016 RMK AO2 SLP204 T00390017,KBFF,2023-04-28T09:53:00Z,41.87,-103.6,3.9,1.7,310,11,,10.0,30.159449,1020.4,,TRUE,TRUE,,,,,,,BKN,8500,,,,,,,VFR,,,,,,,,,,,,METAR,1204.0
KBFD 280953Z AUTO 13009KT 8SM OVC011 10/07 A2998 RMK AO2 SLP148 T01000067,KBFD,2023-04-28T09:53:00Z,41.8,-78.63,10.0,6.7,130,9,,8.0,29.97933,1014.8,,TRUE,TRUE,,,,,,,OVC,1100,,,,,,,MVFR,,,,,,,,,,,,METAR,642.0
KBEH 280953Z AUTO 08006KT 10SM CLR 08/01 A2983 RMK AO2 SLP102 T00830006,KBEH,2023-04-28T09:53:00Z,42.13,-86.42,8.3,0.6,80,6,,10.0,29.828741,1010.2,,TRUE,TRUE,,,,,,,CLR,,,,,,,,VFR,,,,,,,,,,,,METAR,196.0
KBDE 280953Z AUTO 04007KT 10SM FEW075 03/00 A2996 RMK AO2 SLP157 T00280000 $,KBDE,2023-04-28T09:53:00Z,48.73,-94.62,2.8,0.0,40,7,,10.0,29.958662,1015.7,,TRUE,TRUE,TRUE,,,,,,FEW,7500,,,,,,,VFR,,,,,,,,,,,,METAR,330.0
KBCE 280953Z AUTO 02011KT 10SM CLR 05/M04 A3018 RMK AO2 SLP127 T00501039,KBCE,2023-04-28T09:53:00Z,37.7,-112.15,5.0,-3.9,20,11,,10.0,30.180119,1012.7,,TRUE,TRUE,,,,,,,CLR,,,,,,,,VFR,,,,,,,,,,,,METAR,2311.0
KBBW 280953Z AUTO 33024G42KT 10SM OVC013 06/03 A2992 RMK AO2 PK WND 33042/0944 SLP126 T00610033,KBBW,2023-04-28T09:53:00Z,41.43,-99.63,6.1,3.3,330,24,42,10.0,29.920275,1012.6,,TRUE,TRUE,,,,,,,OVC,1300,,,,,,,MVFR,,,,,,,,,,,,METAR,771.0
KBAF 280953Z AUTO 35005KT 1/4SM R20/1200V1400FT FG VV002 06/05 A3023 RMK AO2 SLP238 T00560050,KBAF,2023-04-28T09:53:00Z,42.17,-72.72,5.6,5.0,350,5,,0.25,30.230314,1023.8,,TRUE,TRUE,,,,,,FG,OVX,0,,,,,,,LIFR,,,,,,,,,,,200,METAR,80.0
KAZO 280953Z 05003KT 10SM CLR 09/00 A2985 RMK AO2 SLP108 T00890000,KAZO,2023-04-28T09:53:00Z,42.23,-85.55,8.9,0.0,50,3,,10.0,29.84941,1010.8,,,TRUE,,,,,,,CLR,,,,,,,,VFR,,,,,,,,,,,,METAR,264.0
KAXN 280953Z AUTO 35009KT 10SM OVC090 06/05 A2988 RMK AO2 SLP127 T00610050,KAXN,2023-04-28T09:53:00Z,45.87,-95.4,6.1,5.0,350,9,,10.0,29.878937,1012.7,,TRUE,TRUE,,,,,,,OVC,9000,,,,,,,VFR,,,,,,,,,,,,METAR,433.0
KAUS 280953Z 00000KT 10SM CLR 13/13 A2976 RMK AO2 SLP071 T01330128 $,KAUS,2023-04-28T09:53:00Z,30.18,-97.68,13.3,12.8,0,0,,10.0,29.760826,1007.1,,,TRUE,TRUE,,,,,,CLR,,,,,,,,VFR,,,,,,,,,,,,METAR,148.0
KAUG 280953Z AUTO 01005KT 10SM CLR 03/02 A3023 RMK AO2 SLP239 T00280017,KAUG,2023-04-28T09:53:00Z,44.32,-69.8,2.8,1.7,10,5,,10.0,30.230314,1023.9,,TRUE,TRUE,,,,,,,CLR,,,,,,,,VFR,,,,,,,,,,,,METAR,107.0
KATY 280953Z AUTO 36021G29KT 10SM -RA SCT011 OVC044 06/04 A2988 RMK AO2 PK WND 01034/0858 RAB16 SLP123 P0000 T00560044 $,KATY,2023-04-28T09:53:00Z,44.9,-97.15,5.6,4.4,360,21,29,10.0,29.878937,1012.3,,TRUE,TRUE,TRUE,,,,,-RA,SCT,1100,OVC,4400,,,,,VFR,,,,,,0.005,,,,,,METAR,531.0
KASX 280953Z AUTO 03009KT 7SM -RA BKN002 OVC028 04/04 A2991 RMK AO2 SLP137 P0001 T00440039,KASX,2023-04-28T09:53:00Z,46.55,-90.92,4.4,3.9,30,9,,7.0,29.911417,1013.7,,TRUE,TRUE,,,,,,-RA,BKN,200,OVC,2800,,,,,LIFR,,,,,,0.01,,,,,,METAR,249.0
KASE 280953Z 00000KT 10SM FEW015 BKN038 OVC095 00/M03 A3011 RMK AO2 UPE0854B10E25 SLP132 P0000 T00001028,KASE,2023-04-28T09:53:00Z,39.23,-106.87,0.0,-2.8,0,0,,10.0,30.109253,1013.2,,,TRUE,,,,,,,FEW,1500,BKN,3800,OVC,9500,,,VFR,,,,,,0.005,,,,,,METAR,2384.0
KASD 280953Z AUTO 00000KT 10SM CLR 18/17 A2978 RMK AO2 SLP086 T01830172,KASD,2023-04-28T09:53:00Z,30.35,-89.82,18.3,17.2,0,0,,10.0,29.778543,1008.6,,TRUE,TRUE,,,,,,,CLR,,,,,,,,VFR,,,,,,,,,,,,METAR,8.0
KARB 280953Z AUTO 06006KT 10SM SCT110 07/01 A2984 RMK AO2 SLP107 T00720006,KARB,2023-04-28T09:53:00Z,42.22,-83.73,7.2,0.6,60,6,,10.0,29.840551,1010.7,,TRUE,TRUE,,,,,,,SCT,11000,,,,,,,VFR,,,,,,,,,,,,METAR,251.0
KAPF 280953Z 08003KT 10SM CLR 21/18 A2988 RMK AO2 SLP118 T02110183,KAPF,2023-04-28T09:53:00Z,26.15,-81.77,21.1,18.3,80,3,,10.0,29.878937,1011.8,,,TRUE,,,,,,,CLR,,,,,,,,VFR,,,,,,,,,,,,METAR,2.0
KAPA 280953Z 36016G26KT 10SM -RASN OVC022 02/ A3018 RMK AO2 PK WND 36026/0938 SNB0855 SLP202 P0000 T0017 $,KAPA,2023-04-28T09:53:00Z,39.57,-104.85,1.7,,360,16,26,10.0,30.180119,1020.2,,,TRUE,TRUE,,,,,-RA -SN,OVC,2200,,,,,,,MVFR,,,,,,0.005,,,,,,METAR,1791.0
KAOO 280953Z AUTO 12010G19KT 9SM OVC011 12/08 A2998 RMK AO2 SLP150 T01170083,KAOO,2023-04-28T09:53:00Z,40.3,-78.32,11.7,8.3,120,10,19,9.0,29.97933,1015.0,,TRUE,TRUE,,,,,,,OVC,1100,,,,,,,MVFR,,,,,,,,,,,,METAR,450.0
KANB 280953Z AUTO 23003KT 10SM OVC011 17/16 A2973 RMK AO2 SLP061 T01720161,KANB,2023-04-28T09:53:00Z,33.58,-85.85,17.2,16.1,230,3,,10.0,29.731298,1006.1,,TRUE,TRUE,,,,,,,OVC,1100,,,,,,,MVFR,,,,,,,,,,,,METAR,187.0
KAMW 280953Z AUTO 00000KT 10SM SCT075 06/03 A2979 RMK AO2 SLP084 T00610033,KAMW,2023-04-28T09:53:00Z,41.98,-93.62,6.1,3.3,0,0,,10.0,29.790354,1008.4,,TRUE,TRUE,,,,,,,SCT,7500,,,,,,,VFR,,,,,,,,,,,,METAR,282.0
KAMG 280953Z AUTO 17004KT 10SM OVC008 19/18 A2980 RMK AO2 SLP089 T01890183,KAMG,2023-04-28T09:53:00Z,31.53,-82.5,18.9,18.3,170,4,,10.0,29.799213,1008.9,,TRUE,TRUE,,,,,,,OVC,800,,,,,,,IFR,,,,,,,,,,,,METAR,61.0
KAMA 280953Z AUTO 04019G26KT 10SM FEW014 OVC034 11/08 A2985 RMK AO2 PK WND 04030/0918 SLP070 T01110083,KAMA,2023-04-28T09:53:00Z,35.22,-101.72,11.1,8.3,40,19,26,10.0,29.84941,1007.0,,TRUE,TRUE,,,,,,,FEW,1400,OVC,3400,,,,,VFR,,,,,,,,,,,,METAR,1102.0
KALW 280953Z AUTO 10007KT 10SM CLR 11/M02 A3013 RMK AO2 SLP201 T01111017,KALW,2023-04-28T09:53:00Z,46.1,-118.28,11.1,-1.7,100,7,,10.0,30.129921,1020.1,,TRUE,TRUE,,,,,,,CLR,,,,,,,,VFR,,,,,,,,,,,,METAR,355.0
KAKO 280953Z AUTO 34013KT 10SM CLR 01/M01 A3012 RMK AO2 SLP193 T00061006 TSNO,KAKO,2023-04-28T09:53:00Z,40.17,-103.22,0.6,-0.6,340,13,,10.0,30.121063,1019.3,,TRUE,TRUE,,,TRUE,,,,CLR,,,,,,,,VFR,,,,,,,,,,,,METAR,1431.0
KAIA 280953Z AUTO 30012KT 10SM OVC080 04/01 A3010 RMK AO2 RAB0856E06 SLP185 P0000 T00390011,KAIA,2023-04-28T09:53:00Z,42.05,-102.8,3.9,1.1,300,12,,10.0,30.100393,1018.5,,TRUE,TRUE,,,,,,,OVC,8000,,,,,,,VFR,,,,,,0.005,,,,,,METAR,1198.0
KAGC 280953Z 12007KT 8SM -RA OVC070 13/11 A2987 RMK AO2 SLP115 P0002 T01330106,KAGC,2023-04-28T09:53:00Z,40.35,-79.92,13.3,10.6,120,7,,8.0,29.870079,1011.5,,,TRUE,,,,,,-RA,OVC,7000,,,,,,,VFR,,,,,,0.02,,,,,,METAR,380.0
KAFW 280953Z COR 15004KT 10SM SCT250 12/10 A2978 RMK AO2 SLP082 T01170100,KAFW,2023-04-28T09:53:00Z,32.97,-97.32,11.7,10.0,150,4,,10.0,29.778543,1008.2,TRUE,,TRUE,,,,,,,SCT,25000,,,,,,,VFR,,,,,,,,,,,,METAR,208.0
KADG 280953Z AUTO 05009KT 10SM SCT060 OVC085 08/02 A2984 RMK AO2 RAB23E40 SLP107 P0000 T00830022,KADG,2023-04-28T09:53:00Z,41.87,-84.08,8.3,2.2,50,9,,10.0,29.840551,1010.7,,TRUE,TRUE,,,,,,,SCT,6000,OVC,8500,,,,,VFR,,,,,,0.005,,,,,,METAR,244.0
KABR 280953Z AUTO 35016KT 10SM OVC075 06/04 A2999 RMK AO2 SLP158 T00610039,KABR,2023-04-28T09:53:00Z,45.45,-98.42,6.1,3.9,350,16,,10.0,29.991142,1015.8,,TRUE,TRUE,,,,,,,OVC,7500,,,,,,,VFR,,,,,,,,,,,,METAR,397.0
PATA 280952Z AUTO 00000KT 10SM CLR M02/M07 A2978 RMK AO2 SLP088 T10221072 TSNO,PATA,2023-04-28T09:52:00Z,65.17,-152.1,-2.2,-7.2,0,0,,10.0,29.778543,1008.8,,TRUE,TRUE,,,TRUE,,,,CLR,,,,,,,,VFR,,,,,,,,,,,,METAR,62.0
PABA 280952Z AUTO 26010KT 8SM -SN OVC019 M18/M21 A3008 RMK AO2 SLP195 T11831206 FZRANO PNO $,PABA,2023-04-28T09:52:00Z,70.13,-143.58,-18.3,-20.6,260,10,,8.0,30.079725,1019.5,,TRUE,TRUE,TRUE,,,TRUE,,-SN,OVC,1900,,,,,,,MVFR,,,,,,,,,,,,METAR,1.0
OIAI 280952Z 25006KT CAVOK 34/06 Q1007,OIAI,2023-04-28T09:52:00Z,32.0,49.27,34.0,6.0,250,6,,6.21,29.734253,,,,,,,,,,,CAVOK,,,,,,,,VFR,,,,,,,,,,,,METAR,357.0
MMHO 280952Z 31002KT 10SM SKC 17/07 A2983 RMK HZY,MMHO,2023-04-28T09:52:00Z,29.08,-111.05,17.0,7.0,310,2,,10.0,29.828741,,,,,,,,,,,SKC,,,,,,,,VFR,,,,,,,,,,,,METAR,186.0
KTRM 280952Z AUTO 31011KT 9SM CLR 26/07 A2974 RMK AO2 SLP074 T02560067 $,KTRM,2023-04-28T09:52:00Z,33.63,-116.17,25.6,6.7,310,11,,9.0,29.740158,1007.4,,TRUE,TRUE,TRUE,,,,,,CLR,,,,,,,,VFR,,,,,,,,,,,,METAR,-39.0
KTOL 280952Z AUTO 07008KT 9SM -RA OVC070 09/06 A2982 RMK AO2 RAB38 SLP098 P0000 T00890056,KTOL,2023-04-28T09:52:00Z,41.58,-83.8,8.9,5.6,70,8,,9.0,29.819881,1009.8,,TRUE,TRUE,,,,,,-RA,OVC,7000,,,,,,,VFR,,,,,,0.005,,,,,,METAR,206.0
KSPS 280952Z AUTO 10005KT 10SM CLR 10/09 A2978 RMK AO2 SLP079 T01000089 $,KSPS,2023-04-28T09:52:00Z,33.98,-98.5,10.0,8.9,100,5,,10.0,29.778543,1007.9,,TRUE,TRUE,TRUE,,,,,,CLR,,,,,,,,VFR,,,,,,,,,,,,METAR,310.0
KSPI 280952Z AUTO 33004KT 10SM CLR 08/07 A2978 RMK AO2 SLP085 T00780067,KSPI,2023-04-28T09:52:00Z,39.85,-89.68,7.8,6.7,330,4,,10.0,29.778543,1008.5,,TRUE,TRUE,,,,,,,CLR,,,,,,,,VFR,,,,,,,,,,,,METAR,179.0
KREO 280952Z AUTO 00000KT 03/M02 A3019 RMK AO1 SLP207 T00331022,KREO,2023-04-28T09:52:00Z,42.58,-117.87,3.3,-2.2,0,0,,,30.188976,1020.7,,TRUE,TRUE,,,,,,,,,,,,,,,,,,,,,,,,,,,METAR,1237.0
KRAP 280952Z AUTO 33012KT 10SM OVC075 05/02 A3011 RMK AO2 SLP210 T00500017,KRAP,2023-04-28T09:52:00Z,44.05,-103.05,5.0,1.7,330,12,,10.0,30.109253,1021.0,,TRUE,TRUE,,,,,,,OVC,7500,,,,,,,VFR,,,,,,,,,,,,METAR,965.0
KPYM 280952Z AUTO 00000KT 1/4SM FG VV002 06/06 A3022 RMK AO2 SLP236 T00610056,KPYM,2023-04-28T09:52:00Z,41.92,-70.73,6.1,5.6,0,0,,0.25,30.221457,1023.6,,TRUE,TRUE,,,,,,FG,OVX,0,,,,,,,LIFR,,,,,,,,,,,200,METAR,42.0
KP69 280952Z AUTO 02003KT 06/03 A3027 RMK AO1 SLP245 T00560028 $,KP69,2023-04-28T09:52:00Z,46.15,-115.6,5.6,2.8,20,3,,,30.268702,1024.5,,TRUE,TRUE,TRUE,,,,,,,,,,,,,,,,,,,,,,,,,,METAR,447.0
KOMA 280952Z 26003KT 10SM BKN060 OVC075 13/07 A2978 RMK AO2 SLP080 T01280067,KOMA,2023-04-28T09:52:00Z,41.32,-95.9,12.8,6.7,260,3,,10.0,29.778543,1008.0,,,TRUE,,,,,,,BKN,6000,OVC,7500,,,,,VFR,,,,,,,,,,,,METAR,299.0
KOKC 280952Z 30003KT 7SM OVC250 07/07 A2982 RMK AO2 SLP096 T00720067,KOKC,2023-04-28T09:52:00Z,35.38,-97.6,7.2,6.7,300,3,,7.0,29.819881,1009.6,,,TRUE,,,,,,,OVC,25000,,,,,,,VFR,,,,,,,,,,,,METAR,391.0
KOKB 280952Z AUTO 00000KT 10SM OVC004 14/13 A2992 RMK AO2 SLP130 T01440128,KOKB,2023-04-28T09:52:00Z,33.22,-117.35,14.4,12.8,0,0,,10.0,29.920275,1013.0,,TRUE,TRUE,,,,,,,OVC,400,,,,,,,LIFR,,,,,,,,,,,,METAR,7.0
KNZY 280952Z 32003KT 8SM OVC007 14/13 A2992 RMK AO2 SLP130 T01390128 $,KNZY,2023-04-28T09:52:00Z,32.7,-117.22,13.9,12.8,320,3,,8.0,29.920275,1013.0,,,TRUE,TRUE,,,,,,OVC,700,,,,,,,IFR,,,,,,,,,,,,METAR,4.0
KNRB 280952Z 21003KT 10SM SCT140 OVC250 19/18 A2982 RMK AO2 SLP098 T01940183,KNRB,2023-04-28T09:52:00Z,30.38,-81.42,19.4,18.3,210,3,,10.0,29.819881,1009.8,,,TRUE,,,,,,,SCT,14000,OVC,25000,,,,,VFR,,,,,,,,,,,,METAR,4.0
KNHK 280952Z COR 08014KT 7SM -RA FEW010 BKN036 OVC095 16/13 A2998 RMK AO2 SLP150 P0003 T01560128 $,KNHK,2023-04-28T09:52:00Z,38.28,-76.4,15.6,12.8,80,14,,7.0,29.97933,1015.0,TRUE,,TRUE,TRUE,,,,,-RA,FEW,1000,BKN,3600,OVC,9500,,,VFR,,,,,,0.03,,,,,,SPECI,5.0
KNFW 280952Z AUTO 00000KT CLR 12/09 A2979 RMK AO2 SLP073 T01170094 TSNO CHINO S VISNO S $,KNFW,2023-04-28T09:52:00Z,32.78,-97.43,11.7,9.4,0,0,,,29.790354,1007.3,,TRUE,TRUE,TRUE,,TRUE,,,,CLR,,,,,,,,,,,,,,,,,,,,METAR,188.0
KN60 280952Z AUTO 33008KT 03/01 A3006 RMK AO1 SLP195 T00330006,KN60,2023-04-28T09:52:00Z,47.65,-101.43,3.3,0.6,330,8,,,30.059055,1019.5,,TRUE,TRUE,,,,,,,,,,,,,,,,,,,,,,,,,,,METAR,582.0
KMWH 280952Z 01006KT 10SM CLR 06/01 A3016 RMK AO2 SLP213 T00560011,KMWH,2023-04-28T09:52:00Z,47.2,-119.32,5.6,1.1,10,6,,10.0,30.159449,1021.3,,,TRUE,,,,,,,CLR,,,,,,,,VFR,,,,,,,,,,,,METAR,355.0
KMLI 280952Z AUTO 00000KT 10SM CLR 04/00 A2980 RMK AO2 SLP090 T00390000,KMLI,2023-04-28T09:52:00Z,41.45,-90.52,3.9,0.0,0,0,,10.0,29.799213,1009.0,,TRUE,TRUE,,,,,,,CLR,,,,,,,,VFR,,,,,,,,,,,,METAR,174.0
KMLF 280952Z AUTO 35011KT 10SM CLR 08/M04 A3013 RMK AO2 SLP161 T00781039,KMLF,2023-04-28T09:52:00Z,38.42,-113.02,7.8,-3.9,350,11,,10.0,30.129921,1016.1,,TRUE,TRUE,,,,,,,CLR,,,,,,,,VFR,,,,,,,,,,,,METAR,1537.0
KMKE 280952Z 00000KT 10SM BKN250 07/03 A2985 RMK AO2 SLP112 T00670028,KMKE,2023-04-28T09:52:00Z,42.95,-87.9,6.7,2.8,0,0,,10.0,29.84941,1011.2,,,TRUE,,,,,,,BKN,25000,,,,,,,VFR,,,,,,,,,,,,METAR,203.0
KMHK 280952Z AUTO 00000KT 8SM OVC080 09/08 A2982 RMK AO2 SLP095 T00940078,KMHK,2023-04-28T09:52:00Z,39.13,-96.68,9.4,7.8,0,0,,8.0,29.819881,1009.5,,TRUE,TRUE,,,,,,,OVC,8000,,,,,,,VFR,,,,,,,,,,,,METAR,320.0
KMFD 280952Z AUTO 09009KT 8SM -RA SCT055 OVC065 10/08 A2979 RMK AO2 SLP085 P0007 T01000083,KMFD,2023-04-28T09:52:00Z,40.82,-82.52,10.0,8.3,90,9,,8.0,29.790354,1008.5,,TRUE,TRUE,,,,,,-RA,SCT,5500,OVC,6500,,,,,VFR,,,,,,0.07,,,,,,METAR,394.0
KMEB 280952Z AUTO 19007KT 5SM -RA BR FEW026 BKN048 OVC065 19/17 A2978 RMK AO2 RAB29 SLP083 P0002 T01940172,KMEB,2023-04-28T09:52:00Z,34.78,-79.37,19.4,17.2,190,7,,5.0,29.778543,1008.3,,TRUE,TRUE,,,,,,-RA BR,FEW,2600,BKN,4800,OVC,6500,,,MVFR,,,,,,0.02,,,,,,METAR,65.0
KMDH 280952Z AUTO 34006KT 5SM BR OVC008 12/11 A2973 RMK AO2 SLP068 T01170111,KMDH,2023-04-28T09:52:00Z,37.78,-89.25,11.7,11.1,340,6,,5.0,29.731298,1006.8,,TRUE,TRUE,,,,,,BR,OVC,800,,,,,,,IFR,,,,,,,,,,,,METAR,122.0
KMBG 280952Z AUTO 32007KT 10SM CLR 03/02 A3002 RMK AO2 SLP174 T00330017,KMBG,2023-04-28T09:52:00Z,45.55,-100.42,3.3,1.7,320,7,,10.0,30.02067,1017.4,,TRUE,TRUE,,,,,,,CLR,,,,,,,,VFR,,,,,,,,,,,,METAR,515.0
KLWC 280952Z AUTO 31003KT 6SM BR OVC065 11/09 A2982 RMK AO1 SLP094 T01110089,KLWC,2023-04-28T09:52:00Z,39.02,-95.22,11.1,8.9,310,3,,6.0,29.819881,1009.4,,TRUE,TRUE,,,,,,BR,OVC,6500,,,,,,,VFR,,,,,,,,,,,,METAR,252.0
KIOW 280952Z AUTO 00000KT 10SM CLR 04/01 A2982 RMK AO2 SLP098 T00390006,KIOW,2023-04-28T09:52:00Z,41.63,-91.55,3.9,0.6,0,0,,10.0,29.819881,1009.8,,TRUE,TRUE,,,,,,,CLR,,,,,,,,VFR,,,,,,,,,,,,METAR,199.0
KIEN 280952Z AUTO 30005KT 10SM FEW048 OVC085 03/02 A3012 RMK AO2 SLP203 T00330022 PNO $,KIEN,2023-04-28T09:52:00Z,43.03,-102.52,3.3,2.2,300,5,,10.0,30.121063,1020.3,,TRUE,TRUE,TRUE,,,,,,FEW,4800,OVC,8500,,,,,VFR,,,,,,,,,,,,METAR,1002.0
KHUT 280952Z AUTO 31005KT 9SM BKN070 OVC095 11/09 A2983 RMK AO2 SLP091 T01060089,KHUT,2023-04-28T09:52:00Z,38.07,-97.87,10.6,8.9,310,5,,9.0,29.828741,1009.1,,TRUE,TRUE,,,,,,,BKN,7000,OVC,9500,,,,,VFR,,,,,,,,,,,,METAR,464.0
KGLS 280952Z AUTO 10005KT 10SM CLR 19/16 A2979 RMK AO2 SLP087 T01890161,KGLS,2023-04-28T09:52:00Z,29.27,-94.87,18.9,16.1,100,5,,10.0,29.790354,1008.7,,TRUE,TRUE,,,,,,,CLR,,,,,,,,VFR,,,,,,,,,,,,METAR,2.0
KEST 280952Z AUTO 02005KT 10SM OVC050 11/07 A2978 RMK AO2 SLP082 T01060067,KEST,2023-04-28T09:52:00Z,43.4,-94.75,10.6,6.7,20,5,,10.0,29.778543,1008.2,,TRUE,TRUE,,,,,,,OVC,5000,,,,,,,VFR,,,,,,,,,,,,METAR,401.0
KDVN 280952Z AUTO 07003KT 10SM CLR 06/M01 A2982 RMK AO2 SLP095 T00561011,KDVN,2023-04-28T09:52:00Z,41.62,-90.58,5.6,-1.1,70,3,,10.0,29.819881,1009.5,,TRUE,TRUE,,,,,,,CLR,,,,,,,,VFR,,,,,,,,,,,,METAR,227.0
KDPA 280952Z 35005KT 10SM CLR 06/01 A2981 RMK AO2 SLP095 T00560006 $,KDPA,2023-04-28T09:52:00Z,41.88,-88.25,5.6,0.6,350,5,,10.0,29.811024,1009.5,,,TRUE,TRUE,,,,,,CLR,,,,,,,,VFR,,,,,,,,,,,,METAR,228.0
KDDC 280952Z AUTO 35021G31KT 10SM CLR 10/08 A2987 RMK AO2 PK WND 35031/0948 SLP103 T01000078,KDDC,2023-04-28T09:52:00Z,37.77,-99.97,10.0,7.8,350,21,31,10.0,29.870079,1010.3,,TRUE,TRUE,,,,,,,CLR,,,,,,,,VFR,,,,,,,,,,,,METAR,786.0
KCVG 280952Z 35004KT 1SM R18C/P6000FT BR OVC002 10/10 A2966 RMK AO2 SFC VIS 2 SLP040 P0001 T01000100,KCVG,2023-04-28T09:52:00Z,39.05,-84.67,10.0,10.0,350,4,,1.0,29.660433,1004.0,,,TRUE,,,,,,BR,OVC,200,,,,,,,LIFR,,,,,,0.01,,,,,,METAR,264.0
KCKV 280952Z AUTO 32004KT 9SM BKN006 OVC012 16/14 A2968 RMK AO2 CIG 004V008 SLP049 T01560139,KCKV,2023-04-28T09:52:00Z,36.62,-87.42,15.6,13.9,320,4,,9.0,29.681103,1004.9,,TRUE,TRUE,,,,,,,BKN,600,OVC,1200,,,,,IFR,,,,,,,,,,,,METAR,166.0
KCID 280952Z 09007KT 10SM CLR 06/M02 A2979 RMK AO2 SLP089 T00561017,KCID,2023-04-28T09:52:00Z,41.88,-91.72,5.6,-1.7,90,7,,10.0,29.790354,1008.9,,,TRUE,,,,,,,CLR,,,,,,,,VFR,,,,,,,,,,,,METAR,257.0
KBML 280952Z AUTO 00000KT 1/4SM FZFG VV002 M01/M02 A3024 RMK AO2 SLP251 I1000 T10061017,KBML,2023-04-28T09:52:00Z,44.58,-71.18,-0.6,-1.7,0,0,,0.25,30.239174,1025.1,,TRUE,TRUE,,,,,,FZFG,OVX,0,,,,,,,LIFR,,,,,,,,,,,200,METAR,344.0
KBLU 280952Z AUTO 09003KT 10SM CLR 16/M06 A3012 RMK AO2 SLP110 T01561056,KBLU,2023-04-28T09:52:00Z,39.28,-120.7,15.6,-5.6,90,3,,10.0,30.121063,1011.0,,TRUE,TRUE,,,,,,,CLR,,,,,,,,VFR,,,,,,,,,,,,METAR,1605.0
KBKB 280952Z AUTO 00000KT 8SM CLR 12/11 A2978 RMK AO2 SLP109 T01170111,KBKB,2023-04-28T09:52:00Z,31.02,-92.92,11.7,11.1,0,0,,8.0,29.778543,1010.9,,TRUE,TRUE,,,,,,,CLR,,,,,,,,VFR,,,,,,,,,,,,METAR,74.0
KBIS 280952Z AUTO 31007KT 10SM OVC095 04/01 A3006 RMK AO2 SLP191 T00390011,KBIS,2023-04-28T09:52:00Z,46.77,-100.75,3.9,1.1,310,7,,10.0,30.059055,1019.1,,TRUE,TRUE,,,,,,,OVC,9500,,,,,,,VFR,,,,,,,,,,,,METAR,506.0
KBAN 280952Z AUTO 00000KT 10SM CLR 01/M05 A3023 RMK AO2 SLP175 T00111050 $,KBAN,2023-04-28T09:52:00Z,38.35,-119.52,1.1,-5.0,0,0,,10.0,30.230314,1017.5,,TRUE,TRUE,TRUE,,,,,,CLR,,,,,,,,VFR,,,,,,,,,,,,METAR,2067.0
KATL 280952Z 18003KT 1/2SM R09R/P6000FT BR OVC003 16/16 A2975 RMK AO2 SFC VIS 3 SLP071 TWRINC T01610156,KATL,2023-04-28T09:52:00Z,33.63,-84.45,16.1,15.6,180,3,,0.5,29.749016,1007.1,,,TRUE,,,,,,BR,OVC,300,,,,,,,LIFR,,,,,,,,,,,,METAR,309.0
KAQW 280952Z AUTO 00000KT 4SM BR CLR 00/M01 A3021 RMK AO2 SLP236 T00001011,KAQW,2023-04-28T09:52:00Z,42.7,-73.17,0.0,-1.1,0,0,,4.0,30.209646,1023.6,,TRUE,TRUE,,,,,,BR,CLR,,,,,,,,MVFR,,,,,,,,,,,,METAR,196.0
KALS 280952Z AUTO 11019G34KT 10SM BKN070 BKN090 01/M04 A2998 RMK AO2 PK WND 12034/0944 UPB01E22 SLP090 P0000 T00111039,KALS,2023-04-28T09:52:00Z,37.43,-105.87,1.1,-3.9,110,19,34,10.0,29.97933,1009.0,,TRUE,TRUE,,,,,,,BKN,7000,BKN,9000,,,,,VFR,,,,,,0.005,,,,,,METAR,2299.0
KABQ 280952Z 35007KT 10SM FEW001 SCT240 SCT300 14/M09 A2992 RMK AO2 SLP062 FU FEW001 FU S-SW T01441089,KABQ,2023-04-28T09:52:00Z,35.05,-106.62,14.4,-8.9,350,7,,10.0,29.920275,1006.2,,,TRUE,,,,,,,FEW,100,SCT,24000,SCT,30000,,,VFR,,,,,,,,,,,,METAR,1620.0
KABI 280952Z 17010KT 10SM CLR 17/07 A2968 RMK AO2 SLP029 T01720067,KABI,2023-04-28T09:52:00Z,32.42,-99.68,17.2,6.7,170,10,,10.0,29.681103,1002.9,,,TRUE,,,,,,,CLR,,,,,,,,VFR,,,,,,,,,,,,METAR,543.0
RKSG 280951Z 22002KT 10SM FEW014 BKN040 19/09 A2994 RMK AO2A SLP136 WND DATA ESTMD T01920093 $,RKSG,2023-04-28T09:51:00Z,36.97,127.02,19.2,9.3,220,2,,10.0,29.940945,1013.6,,,TRUE,TRUE,,,,,,FEW,1400,BKN,4000,,,,,VFR,,,,,,,,,,,,METAR,12.0
PTPN 280951Z 15004KT 15SM BKN017TCU OVC120 25/24 A2978 RMK TCU ALQDS LAST,PTPN,2023-04-28T09:51:00Z,6.98,158.22,25.0,24.0,150,4,,15.0,29.778543,,,,,,,,,,,BKN,1700,OVC,12000,,,,,MVFR,,,,,,,,,,,,METAR,3.0
PTKK 280951Z VRB03KT 15SM FEW014 BKN120 OVC280 27/25 A2979 RMK SLP091 T02660252,PTKK,2023-04-28T09:51:00Z,7.47,151.85,26.6,25.2,0,3,,15.0,29.790354,1009.1,,,,,,,,,,FEW,1400,BKN,12000,OVC,28000,,,VFR,,,,,,,,,,,,METAR,3.0
PHBK 280951Z AUTO 07005KT 10SM CLR 20/16 A2999 RMK AO2 SLP156 T02000156 402890189,PHBK,2023-04-28T09:51:00Z,22.03,-159.78,20.0,15.6,70,5,,10.0,29.991142,1015.6,,TRUE,TRUE,,,,,,,CLR,,,,,,,,VFR,,,,28.9,18.9,,,,,,,METAR,5.0
PGWT 280951Z 08013KT 7SM SCT015 27/24,PGWT,2023-04-28T09:51:00Z,14.98,145.62,27.0,24.0,80,13,,7.0,,,,,,,,,,,,SCT,1500,,,,,,,VFR,,,,,,,,,,,,METAR,84.0
MUGM 280951Z 31004KT 10SM FEW120 SCT250 24/22 A2993 RMK AO2 SLP134 T02390222 $,MUGM,2023-04-28T09:51:00Z,19.9,-75.2,23.9,22.2,310,4,,10.0,29.929134,1013.4,,,TRUE,TRUE,,,,,,FEW,12000,SCT,25000,,,,,VFR,,,,,,,,,,,,METAR,21.0
KYNG 280951Z 11011KT 10SM FEW050 OVC150 13/08 A2986 RMK AO2 SLP111 T01330083,KYNG,2023-04-28T09:51:00Z,41.25,-80.67,13.3,8.3,110,11,,10.0,29.861221,1011.1,,,TRUE,,,,,,,FEW,5000,OVC,15000,,,,,VFR,,,,,,,,,,,,METAR,356.0
KXWA 280951Z AUTO 32006KT 10SM OVC080 02/00 A3009 RMK AO2 SLP211 T00220000,KXWA,2023-04-28T09:51:00Z,48.27,-103.75,2.2,0.0,320,6,,10.0,30.088583,1021.1,,TRUE,TRUE,,,,,,,OVC,8000,,,,,,,VFR,,,,,,,,,,,,METAR,717.0
KVNY 280951Z AUTO 00000KT 5SM HZ CLR 13/11 A2991 RMK AO2 SLP120 T01330106,KVNY,2023-04-28T09:51:00Z,34.22,-118.48,13.3,10.6,0,0,,5.0,29.911417,1012.0,,TRUE,TRUE,,,,,,HZ,CLR,,,,,,,,MVFR,,,,,,,,,,,,METAR,241.0
KVCT 280951Z AUTO 00000KT 1/4SM FG VV002 18/18 A2977 RMK AO2 SLP080 T01780178,KVCT,2023-04-28T09:51:00Z,28.87,-96.93,17.8,17.8,0,0,,0.25,29.769686,1008.0,,TRUE,TRUE,,,,,,FG,OVX,0,,,,,,,LIFR,,,,,,,,,,,200,METAR,33.0
KUGN 280951Z AUTO 00000KT 10SM CLR 05/01 A2983 RMK AO2 SLP105 T00500011,KUGN,2023-04-28T09:51:00Z,42.42,-87.87,5.0,1.1,0,0,,10.0,29.828741,1010.5,,TRUE,TRUE,,,,,,,CLR,,,,,,,,VFR,,,,,,,,,,,,METAR,217.0
KTEB 280951Z 00000KT 10SM BKN014 09/07 A3017 RMK AO2 SLP217 T00890072 $,KTEB,2023-04-28T09:51:00Z,40.87,-74.05,8.9,7.2,0,0,,10.0,30.171259,1021.7,,,TRUE,TRUE,,,,,,BKN,1400,,,,,,,MVFR,,,,,,,,,,,,METAR,3.0
KSTL 280951Z 02003KT 10SM OVC075 13/09 A2978 RMK AO2 SLP078 T01280089 $,KSTL,2023-04-28T09:51:00Z,38.75,-90.37,12.8,8.9,20,3,,10.0,29.778543,1007.8,,,TRUE,TRUE,,,,,,OVC,7500,,,,,,,VFR,,,,,,,,,,,,METAR,163.0
KSNT 280951Z AUTO 17003KT M03/M07 A3031 RMK AO1 SLP230 T10331072,KSNT,2023-04-28T09:51:00Z,44.17,-114.93,-3.3,-7.2,170,3,,,30.31004,1023.0,,TRUE,TRUE,,,,,,,,,,,,,,,,,,,,,,,,,,,METAR,1980.0
KSMO 280951Z AUTO 19003KT 5SM BR OVC003 12/11 A2993 RMK AO2 SLP134 T01170106,KSMO,2023-04-28T09:51:00Z,34.02,-118.45,11.7,10.6,190,3,,5.0,29.929134,1013.4,,TRUE,TRUE,,,,,,BR,OVC,300,,,,,,,LIFR,,,,,,,,,,,,METAR,56.0
KSLK 280951Z AUTO 00000KT 10SM CLR M04/M05 A3015 RMK AO2 SLP224 T10391050,KSLK,2023-04-28T09:51:00Z,44.4,-74.2,-3.9,-5.0,0,0,,10.0,30.15059,1022.4,,TRUE,TRUE,,,,,,,CLR,,,,,,,,VFR,,,,,,,,,,,,METAR,502.0
KSJT 280951Z AUTO 19014G24KT 10SM CLR 17/03 A2969 RMK AO2 PK WND 19027/0941 SLP036 T01670033,KSJT,2023-04-28T09:51:00Z,31.37,-100.5,16.7,3.3,190,14,24,10.0,29.68996,1003.6,,TRUE,TRUE,,,,,,,CLR,,,,,,,,VFR,,,,,,,,,,,,METAR,582.0
KSDB 280951Z AUTO 32014KT 10SM CLR 18/01 A3005 RMK AO2 SLP119 T01780006 $,KSDB,2023-04-28T09:51:00Z,34.75,-118.72,17.8,0.6,320,14,,10.0,30.050198,1011.9,,TRUE,TRUE,TRUE,,,,,,CLR,,,,,,,,VFR,,,,,,,,,,,,METAR,1377.0
KSAT 280951Z 19007KT 10SM BKN009 19/18 A2979 RMK AO2 SLP070 T01940178 $,KSAT,2023-04-28T09:51:00Z,29.53,-98.48,19.4,17.8,190,7,,10.0,29.790354,1007.0,,,TRUE,TRUE,,,,,,BKN,900,,,,,,,IFR,,,,,,,,,,,,METAR,246.0
KSAN 280951Z 32003KT 10SM OVC008 15/12 A2994 RMK AO2 SLP137 T01500122,KSAN,2023-04-28T09:51:00Z,32.73,-117.18,15.0,12.2,320,3,,10.0,29.940945,1013.7,,,TRUE,,,,,,,OVC,800,,,,,,,IFR,,,,,,,,,,,,METAR,3.0
KSAD 280951Z AUTO 31005KT 10SM CLR 17/M06 A2987 RMK AO2 SLP068 T01671061,KSAD,2023-04-28T09:51:00Z,32.85,-109.63,16.7,-6.1,310,5,,10.0,29.870079,1006.8,,TRUE,TRUE,,,,,,,CLR,,,,,,,,VFR,,,,,,,,,,,,METAR,937.0
KROW 280951Z AUTO 02033G46KT 8SM FEW010 16/03 A2981 RMK AO2 PK WND 01046/0951 WSHFT 0927 SLP034 T01610033,KROW,2023-04-28T09:51:00Z,33.3,-104.5,16.1,3.3,20,33,46,8.0,29.811024,1003.4,,TRUE,TRUE,,,,,,,FEW,1000,,,,,,,VFR,,,,,,,,,,,,METAR,1105.0
KPWM 280951Z 00000KT 8SM BCFG FEW250 03/03 A3023 RMK AO2 SLP235 T00330028,KPWM,2023-04-28T09:51:00Z,43.65,-70.3,3.3,2.8,0,0,,8.0,30.230314,1023.5,,,TRUE,,,,,,BCFG,FEW,25000,,,,,,,VFR,,,,,,,,,,,,METAR,15.0
KPIT 280951Z 11010KT 7SM -RA FEW045 OVC060 13/11 A2986 RMK AO2 SLP115 P0003 T01280106,KPIT,2023-04-28T09:51:00Z,40.47,-80.2,12.8,10.6,110,10,,7.0,29.861221,1011.5,,,TRUE,,,,,,-RA,FEW,4500,OVC,6000,,,,,VFR,,,,,,0.03,,,,,,METAR,339.0
KPHX 280951Z 09004KT 10SM CLR 22/01 A2977 RMK AO2 SLP064 T02220006,KPHX,2023-04-28T09:51:00Z,33.43,-112.02,22.2,0.6,90,4,,10.0,29.769686,1006.4,,,TRUE,,,,,,,CLR,,,,,,,,VFR,,,,,,,,,,,,METAR,338.0
KP59 280951Z AUTO 00000KT 04/03 A2995 RMK AO1 SLP150 P0002 T00440028,KP59,2023-04-28T09:51:00Z,47.47,-87.88,4.4,2.8,0,0,,,29.949802,1015.0,,TRUE,TRUE,,,,,,,,,,,,,,,,,,,,,0.02,,,,,,METAR,185.0
KOXR 280951Z AUTO 00000KT 3SM BR OVC003 11/11 A2993 RMK AO2 SLP134 T01110111 $,KOXR,2023-04-28T09:51:00Z,34.2,-119.2,11.1,11.1,0,0,,3.0,29.929134,1013.4,,TRUE,TRUE,TRUE,,,,,BR,OVC,300,,,,,,,LIFR,,,,,,,,,,,,METAR,12.0
KOXC 280951Z AUTO 04003KT 1/4SM FG OVC002 04/04 A3020 RMK AO2 SLP244 T00440044,KOXC,2023-04-28T09:51:00Z,41.47,-73.13,4.4,4.4,40,3,,0.25,30.200787,1024.4,,TRUE,TRUE,,,,,,FG,OVC,200,,,,,,,LIFR,,,,,,,,,,,,METAR,211.0
KORF 280951Z 08012G17KT 6SM -RA BR SCT036 OVC046 15/14 A2990 RMK AO2 SLP123 P0007 T01500139,KORF,2023-04-28T09:51:00Z,36.9,-76.2,15.0,13.9,80,12,17,6.0,29.899607,1012.3,,,TRUE,,,,,,-RA BR,SCT,3600,OVC,4600,,,,,VFR,,,,,,0.07,,,,,,METAR,5.0
KORD 280951Z 36006KT 10SM SCT180 BKN250 08/01 A2981 RMK AO2 SLP096 T00780011,KORD,2023-04-28T09:51:00Z,41.95,-87.93,7.8,1.1,360,6,,10.0,29.811024,1009.6,,,TRUE,,,,,,,SCT,18000,BKN,25000,,,,,VFR,,,,,,,,,,,,METAR,202.0
KOCF 280951Z AUTO 18005KT 10SM CLR 18/18 A2986 RMK AO2 SLP111 T01830183 $,KOCF,2023-04-28T09:51:00Z,29.17,-82.22,18.3,18.3,180,5,,10.0,29.861221,1011.1,,TRUE,TRUE,TRUE,,,,,,CLR,,,,,,,,VFR,,,,,,,,,,,,METAR,24.0
KNYC 280951Z AUTO VRB05KT 9SM BKN010 10/07 A3020 RMK AO2 SLP219 T01000072 $,KNYC,2023-04-28T09:51:00Z,40.78,-73.97,10.0,7.2,0,5,,9.0,30.200787,1021.9,,TRUE,TRUE,TRUE,,,,,,BKN,1000,,,,,,,MVFR,,,,,,,,,,,,METAR,33.0
KNBT 280951Z AUTO 18007KT 7SM RA BKN085 OVC100 21/19 A2984 RMK AO2 SLP109 P0005 T02110194 $,KNBT,2023-04-28T09:51:00Z,35.02,-76.47,21.1,19.4,180,7,,7.0,29.840551,1010.9,,TRUE,TRUE,TRUE,,,,,RA,BKN,8500,OVC,10000,,,,,VFR,,,,,,0.05,,,,,,METAR,5.0
KMYL 280951Z AUTO 01004KT 10SM CLR M01/M04 A3023 RMK AO2 SLP235 T10061039,KMYL,2023-04-28T09:51:00Z,44.9,-116.1,-0.6,-3.9,10,4,,10.0,30.230314,1023.5,,TRUE,TRUE,,,,,,,CLR,,,,,,,,VFR,,,,,,,,,,,,METAR,1532.0
KMPV 280951Z AUTO 00000KT 3SM BR CLR M02/M03 A3025 RMK AO2 SLP255 T10171028,KMPV,2023-04-28T09:51:00Z,44.2,-72.57,-1.7,-2.8,0,0,,3.0,30.250984,1025.5,,TRUE,TRUE,,,,,,BR,CLR,,,,,,,,MVFR,,,,,,,,,,,,METAR,336.0
KLGU 280951Z AUTO 05004KT 10SM CLR 03/M04 A3024 RMK AO2 SLP217 T00281039,KLGU,2023-04-28T09:51:00Z,41.78,-111.85,2.8,-3.9,50,4,,10.0,30.239174,1021.7,,TRUE,TRUE,,,,,,,CLR,,,,,,,,VFR,,,,,,,,,,,,METAR,1359.0
KLGA 280951Z 06007KT 10SM BKN012 OVC250 10/08 A3018 RMK AO2 SLP218 T01000078,KLGA,2023-04-28T09:51:00Z,40.78,-73.88,10.0,7.8,60,7,,10.0,30.180119,1021.8,,,TRUE,,,,,,,BKN,1200,OVC,25000,,,,,MVFR,,,,,,,,,,,,METAR,9.0
KJFK 280951Z 05004KT 9SM FEW010 BKN250 08/07 A3019 RMK SLP221 T00780072,KJFK,2023-04-28T09:51:00Z,40.63,-73.77,7.8,7.2,50,4,,9.0,30.188976,1022.1,,,,,,,,,,FEW,1000,BKN,25000,,,,,VFR,,,,,,,,,,,,SPECI,3.0
KJCT 280951Z AUTO 25004KT 10SM CLR 18/14 A2978 RMK AO2 SLP051 T01780139 $,KJCT,2023-04-28T09:51:00Z,30.5,-99.77,17.8,13.9,250,4,,10.0,29.778543,1005.1,,TRUE,TRUE,TRUE,,,,,,CLR,,,,,,,,VFR,,,,,,,,,,,,METAR,522.0
KILG 280951Z AUTO 08009KT 10SM CLR 11/08 A3010 RMK AO2 SLP191 T01110083,KILG,2023-04-28T09:51:00Z,39.67,-75.6,11.1,8.3,80,9,,10.0,30.100393,1019.1,,TRUE,TRUE,,,,,,,CLR,,,,,,,,VFR,,,,,,,,,,,,METAR,22.0
KIGM 280951Z AUTO 00000KT 10SM CLR 09/00 A2995 RMK AO2 SLP083 T00890000,KIGM,2023-04-28T09:51:00Z,35.25,-113.93,8.9,0.0,0,0,,10.0,29.949802,1008.3,,TRUE,TRUE,,,,,,,CLR,,,,,,,,VFR,,,,,,,,,,,,METAR,1045.0
KHTS 280951Z 11003KT 9SM -RA FEW006 OVC031 13/13 A2971 RMK AO2 SLP057 P0003 T01330128,KHTS,2023-04-28T09:51:00Z,38.37,-82.55,13.3,12.8,110,3,,9.0,29.71063,1005.7,,,TRUE,,,,,,-RA,FEW,600,OVC,3100,,,,,VFR,,,,,,0.03,,,,,,METAR,252.0
KGDP 280951Z AUTO 22007KT 190V260 8SM CLR 16/M13 RMK AO2 SLPNO T01561128 $,KGDP,2023-04-28T09:51:00Z,31.83,-104.82,15.6,-12.8,220,7,,8.0,,,,TRUE,TRUE,TRUE,,,,,,CLR,,,,,,,,VFR,,,,,,,,,,,,METAR,1664.0
KEWR 280951Z 06004KT 9SM BKN013 BKN065 BKN250 11/08 A3018 RMK AO2 SLP218 BKN013 V SCT T01110078,KEWR,2023-04-28T09:51:00Z,40.68,-74.17,11.1,7.8,60,4,,9.0,30.180119,1021.8,,,TRUE,,,,,,,BKN,1300,BKN,6500,BKN,25000,,,MVFR,,,,,,,,,,,,METAR,2.0
KERI 280951Z 15018G26KT 10SM CLR 13/08 A2988 RMK AO2 PK WND 14026/0936 SLP118 T01280078,KERI,2023-04-28T09:51:00Z,42.08,-80.18,12.8,7.8,150,18,26,10.0,29.878937,1011.8,,,TRUE,,,,,,,CLR,,,,,,,,VFR,,,,,,,,,,,,METAR,222.0
KELP 280951Z 27018G27KT 10SM FEW250 22/M08 A2984 RMK AO2 PK WND 26027/0951 SLP030 T02171083,KELP,2023-04-28T09:51:00Z,31.82,-106.35,21.7,-8.3,270,18,27,10.0,29.840551,1003.0,,,TRUE,,,,,,,FEW,25000,,,,,,,VFR,,,,,,,,,,,,METAR,1205.0
KEKN 280951Z AUTO VRB06G14KT 9SM -RA SCT034 BKN050 OVC080 13/08 A2983 RMK AO2 SLP096 P0004 T01280083,KEKN,2023-04-28T09:51:00Z,38.88,-79.85,12.8,8.3,0,6,14,9.0,29.828741,1009.6,,TRUE,TRUE,,,,,,-RA,SCT,3400,BKN,5000,OVC,8000,,,VFR,,,,,,0.04,,,,,,METAR,596.0
KDAW 280951Z AUTO 32005KT 10SM CLR 02/01 A3021 RMK AO2 SLP230 T00170011,KDAW,2023-04-28T09:51:00Z,43.28,-70.92,1.7,1.1,320,5,,10.0,30.209646,1023.0,,TRUE,TRUE,,,,,,,CLR,,,,,,,,VFR,,,,,,,,,,,,METAR,100.0
KCLE 280951Z 13009KT 10SM OVC140 14/06 A2981 RMK AO2 SLP110 T01390056,KCLE,2023-04-28T09:51:00Z,41.42,-81.85,13.9,5.6,130,9,,10.0,29.811024,1011.0,,,TRUE,,,,,,,OVC,14000,,,,,,,VFR,,,,,,,,,,,,METAR,237.0
KCDJ 280951Z AUTO 00000KT 08/06 A2980 RMK AO1 SLP090 T00780056,KCDJ,2023-04-28T09:51:00Z,39.82,-93.57,7.8,5.6,0,0,,,29.799213,1009.0,,TRUE,TRUE,,,,,,,,,,,,,,,,,,,,,,,,,,,METAR,234.0
KCAK 280951Z 13009KT 7SM -RA BKN030 BKN050 OVC070 13/09 A2984 RMK AO2 RAB18 SLP101 P0001 T01330094,KCAK,2023-04-28T09:51:00Z,40.92,-81.45,13.3,9.4,130,9,,7.0,29.840551,1010.1,,,TRUE,,,,,,-RA,BKN,3000,BKN,5000,OVC,7000,,,MVFR,,,,,,0.01,,,,,,METAR,369.0
KBKW 280951Z AUTO 12015KT 6SM -RA BR BKN049 OVC070 12/10 A2978 RMK AO2 SLP072 P0009 T01170100,KBKW,2023-04-28T09:51:00Z,37.8,-81.12,11.7,10.0,120,15,,6.0,29.778543,1007.2,,TRUE,TRUE,,,,,,-RA BR,BKN,4900,OVC,7000,,,,,VFR,,,,,,0.09,,,,,,METAR,762.0
KBHK 280951Z AUTO 28006KT 10SM SCT047 OVC080 03/02 A3013 RMK AO2 SLP215 T00330017,KBHK,2023-04-28T09:51:00Z,46.35,-104.25,3.3,1.7,280,6,,10.0,30.129921,1021.5,,TRUE,TRUE,,,,,,,SCT,4700,OVC,8000,,,,,VFR,,,,,,,,,,,,METAR,904.0
KAVX 280951Z AUTO 00000KT 10SM CLR 14/04 A2993 RMK AO2 SLP117 T01390039,KAVX,2023-04-28T09:51:00Z,33.4,-118.42,13.9,3.9,0,0,,10.0,29.929134,1011.7,,TRUE,TRUE,,,,,,,CLR,,,,,,,,VFR,,,,,,,,,,,,METAR,482.0
KATT 280951Z AUTO 00000KT 10SM CLR 15/14 A2977 RMK AO2 SLP071 T01500144 $,KATT,2023-04-28T09:51:00Z,30.32,-97.77,15.0,14.4,0,0,,10.0,29.769686,1007.1,,TRUE,TRUE,TRUE,,,,,,CLR,,,,,,,,VFR,,,,,,,,,,,,METAR,203.0
KALB 280951Z 00000KT 10SM BCFG FEW010 SCT260 04/03 A3021 RMK AO2 SLP232 BCFG NE T00440028,KALB,2023-04-28T09:51:00Z,42.75,-73.8,4.4,2.8,0,0,,10.0,30.209646,1023.2,,,TRUE,,,,,,BCFG,FEW,1000,SCT,26000,,,,,VFR,,,,,,,,,,,,METAR,82.0
KACT 280951Z 09003KT 10SM CLR 11/11 A2977 RMK AO2 SLP078 T01110106,KACT,2023-04-28T09:51:00Z,31.62,-97.23,11.1,10.6,90,3,,10.0,29.769686,1007.8,,,TRUE,,,,,,,CLR,,,,,,,,VFR,,,,,,,,,,,,METAR,150.0
KABE 280951Z 07009KT 9SM OVC013 09/07 A3013 RMK AO2 SLP202 T00890067 $,KABE,2023-04-28T09:51:00Z,40.65,-75.45,8.9,6.7,70,9,,9.0,30.129921,1020.2,,,TRUE,TRUE,,,,,,OVC,1300,,,,,,,MVFR,,,,,,,,,,,,METAR,117.0
K6R6 280951Z AUTO 30005KT 14/03 A2976 RMK AO1 SLP047 T01390028 NN^NU,K6R6,2023-04-28T09:51:00Z,30.05,-102.22,13.9,2.8,300,5,,,29.760826,1004.7,,TRUE,TRUE,,,,,,,,,,,,,,,,,,,,,,,,,,,METAR,702.0
FASB 280951Z 11003KT CAVOK 20/08 Q1021,FASB,2023-04-28T09:51:00Z,-29.68,17.93,20.0,8.0,110,3,,6.21,30.147638,,,,,,,,,,,CAVOK,,,,,,,,VFR,,,,,,,,,,,,SPECI,811.0
PTTP 280950Z 15003KT 15SM BKN018TCU OVC130 23/23 A2984 RMK SHRAE45 TCU ALQDS SLP103 T02320229,PTTP,2023-04-28T09:50:00Z,6.97,158.22,23.2,22.9,150,3,,15.0,29.840551,1010.3,,,,,,,,,,BKN,1800,OVC,13000,,,,,MVFR,,,,,,,,,,,,METAR,36.0
PTRO 280950Z 00000KT 13SM SCT015 BKN110 BKN290 27/26 A2974 ,PTRO,2023-04-28T09:50:00Z,7.37,134.55,27.0,26.0,0,0,,13.0,29.740158,,,,,,,,,,,SCT,1500,BKN,11000,BKN,29000,,,VFR,,,,,,,,,,,,METAR,30.0
OOSH 280950Z AUTO 06014KT //// ////// 34/08 Q1005 RMK 1001,OOSH,2023-04-28T09:50:00Z,24.38,56.62,34.0,8.0,60,14,,,29.675198,,,TRUE,,,,,,,,,,,,,,,,,,,,,,,,,,,,METAR,35.0
OOSA 280950Z 20014KT 9999 SCT025 32/26 Q1009 NOSIG,OOSA,2023-04-28T09:50:00Z,17.03,54.1,32.0,26.0,200,14,,6.21,29.793306,,,,,,TRUE,,,,,SCT,2500,,,,,,,VFR,,,,,,,,,,,,METAR,20.0
OOMS 280950Z 02012KT 9999 FEW025TCU 31/21 Q1007 NOSIG,OOMS,2023-04-28T09:50:00Z,23.58,58.28,31.0,21.0,20,12,,6.21,29.734253,,,,,,TRUE,,,,,FEW,2500,,,,,,,VFR,,,,,,,,,,,,METAR,8.0
OOKB 280950Z 02013KT 9999 FEW035 29/18 Q1007 NOSIG,OOKB,2023-04-28T09:50:00Z,26.17,56.23,29.0,18.0,20,13,,6.21,29.734253,,,,,,TRUE,,,,,FEW,3500,,,,,,,VFR,,,,,,,,,,,,METAR,30.0
OODQ 280950Z AUTO 20015KT 9999 FEW042 34/22 Q1007 NOSIG RMK RH49? 0,OODQ,2023-04-28T09:50:00Z,19.52,57.65,34.0,22.0,200,15,,6.21,29.734253,,,TRUE,,,TRUE,,,,,FEW,4200,,,,,,,VFR,,,,,,,,,,,,METAR,116.0
OOAD 280950Z AUTO 29014KT //// R31///// // NCD 35/02 Q1008 NOSIG,OOAD,2023-04-28T09:50:00Z,22.5,57.37,35.0,2.0,290,14,,,29.763779,,,TRUE,,,TRUE,,,,,CLR,,,,,,,,,,,,,,,,,,,,METAR,327.0
OIMC 280950Z 00000KT CAVOK 34/M00 Q1008,OIMC,2023-04-28T09:50:00Z,36.5,61.07,34.0,0.0,0,0,,6.21,29.763779,,,,,,,,,,,CAVOK,,,,,,,,VFR,,,,,,,,,,,,METAR,287.0
OIGK 280950Z 23006KT CAVOK 21/M05 Q1018,OIGK,2023-04-28T09:50:00Z,34.35,47.13,21.0,-5.0,230,6,,6.21,30.059055,,,,,,,,,,,CAVOK,,,,,,,,VFR,,,,,,,,,,,,METAR,1314.0
NSTU 280950Z 07007KT 10SM SCT020 28/26 A2988 RMK SLP119 T02790261,NSTU,2023-04-28T09:50:00Z,-14.33,-170.72,27.9,26.1,70,7,,10.0,29.878937,1011.9,,,,,,,,,,SCT,2000,,,,,,,VFR,,,,,,,,,,,,METAR,8.0
MUVR 280950Z 11005KT 9000 FEW030 22/21 Q1012,MUVR,2023-04-28T09:50:00Z,23.03,-81.43,22.0,21.0,110,5,,5.59,29.88189,,,,,,,,,,,FEW,3000,,,,,,,VFR,,,,,,,,,,,,METAR,65.0
MUSC 280950Z VRB01KT 8000 NSC 22/21 Q1013,MUSC,2023-04-28T09:50:00Z,22.5,-79.92,22.0,21.0,0,1,,4.97,29.911417,,,,,,,,,,,CLR,,,,,,,,MVFR,,,,,,,,,,,,METAR,97.0
MUHG 280950Z 09005KT 7000 VCFG FEW030 22/22 Q1013,MUHG,2023-04-28T09:50:00Z,20.78,-76.32,22.0,22.0,90,5,,4.35,29.911417,,,,,,,,,,VCFG,FEW,3000,,,,,,,MVFR,,,,,,,,,,,,METAR,100.0
MUHA 280950Z 06003KT 9000 FEW040 20/19 Q1012,MUHA,2023-04-28T09:50:00Z,22.98,-82.42,20.0,19.0,60,3,,5.59,29.88189,,,,,,,,,,,FEW,4000,,,,,,,VFR,,,,,,,,,,,,METAR,61.0
MUCU 280950Z VRB03KT 9000 FEW020 24/21 Q1013,MUCU,2023-04-28T09:50:00Z,19.97,-75.83,24.0,21.0,0,3,,5.59,29.911417,,,,,,,,,,,FEW,2000,,,,,,,VFR,,,,,,,,,,,,METAR,70.0
MUCM 280950Z 07005KT 5000 BR NSC 22/21 Q1014,MUCM,2023-04-28T09:50:00Z,21.42,-77.85,22.0,21.0,70,5,,3.11,29.940945,,,,,,,,,,BR,CLR,,,,,,,,MVFR,,,,,,,,,,,,METAR,125.0
MUCL 280950Z AUTO 14006KT 26/22 Q1011,MUCL,2023-04-28T09:50:00Z,21.63,-81.55,26.0,22.0,140,6,,,29.852362,,,TRUE,,,,,,,,,,,,,,,,,,,,,,,,,,,,METAR,5.0
MUCC 280950Z 12004KT 9000 FEW020 23/22 Q1012,MUCC,2023-04-28T09:50:00Z,22.47,-78.33,23.0,22.0,120,4,,5.59,29.88189,,,,,,,,,,,FEW,2000,,,,,,,VFR,,,,,,,,,,,,METAR,7.0
MSLP 280950Z 03003KT 350V080 9000 FEW020 25/22 Q1009 A2980 NOSIG RMK HZ,MSLP,2023-04-28T09:50:00Z,13.43,-89.05,25.0,22.0,30,3,,5.59,29.793306,,,,,,TRUE,,,,,FEW,2000,,,,,,,VFR,,,,,,,,,,,,METAR,25.0
MMMZ 280950Z 00000KT 5/16SM FG VV001 15/15 A2985 RMK 8////,MMMZ,2023-04-28T09:50:00Z,23.17,-106.27,15.0,15.0,0,0,,0.31,29.84941,,,,,,,,,,FG,OVX,0,,,,,,,LIFR,,,,,,,,,,,100,METAR,7.0
MMMY 280950Z 00000KT 8SM SKC 20/20 A2978,MMMY,2023-04-28T09:50:00Z,25.77,-100.1,20.0,20.0,0,0,,8.0,29.778543,,,,,,,,,,,SKC,,,,,,,,VFR,,,,,,,,,,,,METAR,382.0
LTFO 280950Z 25009KT 9999 -SHRA SCT012 BKN028 14/13 Q1012,LTFO,2023-04-28T09:50:00Z,41.18,40.85,14.0,13.0,250,9,,6.21,29.88189,,,,,,,,,,-SHRA,SCT,1200,BKN,2800,,,,,MVFR,,,,,,,,,,,,METAR,5.0
LTFK 280950Z 36011KT CAVOK 14/05 Q1020,LTFK,2023-04-28T09:50:00Z,40.2,25.88,14.0,5.0,360,11,,6.21,30.11811,,,,,,,,,,,CAVOK,,,,,,,,VFR,,,,,,,,,,,,METAR,21.0
LTFH 280950Z 32007KT 9999 -SHRA BKN010 BKN025 12/11 Q1012 BECMG FEW012 SCT030 BKN100,LTFH,2023-04-28T09:50:00Z,41.27,36.57,12.0,11.0,320,7,,6.21,29.88189,,,,,,,,,,-SHRA,BKN,1000,BKN,2500,,,,,MVFR,,,,,,,,,,,,METAR,7.0
LTFG 280950Z 04012KT 9999 -TSRA FEW020CB SCT025 14/12 Q1009,LTFG,2023-04-28T09:50:00Z,36.3,32.3,14.0,12.0,40,12,,6.21,29.793306,,,,,,,,,,-TSRA,FEW,2000,SCT,2500,,,,,VFR,,,,,,,,,,,,METAR,26.0
LTFD 280950Z 01011KT 9999 BKN035 17/06 Q1018,LTFD,2023-04-28T09:50:00Z,39.55,27.02,17.0,6.0,10,11,,6.21,30.059055,,,,,,,,,,,BKN,3500,,,,,,,VFR,,,,,,,,,,,,METAR,15.0
LTFB 280950Z 01010KT 330V040 9999 SCT035 17/04 Q1015,LTFB,2023-04-28T09:50:00Z,37.95,27.33,17.0,4.0,10,10,,6.21,29.970472,,,,,,,,,,,SCT,3500,,,,,,,VFR,,,,,,,,,,,,METAR,3.0
LTDA 280950Z 22026KT 5000 -TSRA FEW025CB BKN030 19/14 Q1007 BECMG TL0930 NSW,LTDA,2023-04-28T09:50:00Z,36.37,36.28,19.0,14.0,220,26,,3.11,29.734253,,,,,,,,,,-TSRA,FEW,2500,BKN,3000,,,,,MVFR,,,,,,,,,,,,METAR,80.0
LTCW 280950Z 17010KT 130V230 9999 SCT035 BKN080 19/M03 Q1017,LTCW,2023-04-28T09:50:00Z,37.55,44.23,19.0,-3.0,170,10,,6.21,30.029528,,,,,,,,,,,SCT,3500,BKN,8000,,,,,VFR,,,,,,,,,,,,METAR,1852.0
LTCV 280950Z 10010KT 9999 SCT035 BKN100 24/11 Q1008,LTCV,2023-04-28T09:50:00Z,37.37,42.07,24.0,11.0,100,10,,6.21,29.763779,,,,,,,,,,,SCT,3500,BKN,10000,,,,,VFR,,,,,,,,,,,,METAR,620.0
LTCU 280950Z 15014KT 9999 SCT035 BKN100 20/05 Q1009,LTCU,2023-04-28T09:50:00Z,38.87,40.58,20.0,5.0,150,14,,6.21,29.793306,,,,,,,,,,,SCT,3500,BKN,10000,,,,,VFR,,,,,,,,,,,,METAR,1061.0
LTCT 280950Z 10004KT 070V160 9999 FEW040 BKN080 20/08 Q1011,LTCT,2023-04-28T09:50:00Z,39.98,43.87,20.0,8.0,100,4,,6.21,29.852362,,,,,,,,,,,FEW,4000,BKN,8000,,,,,VFR,,,,,,,,,,,,METAR,936.0
LTCR 280950Z 12003KT 060V160 9999 SCT040 BKN100 23/10 Q1008,LTCR,2023-04-28T09:50:00Z,37.22,40.63,23.0,10.0,120,3,,6.21,29.763779,,,,,,,,,,,SCT,4000,BKN,10000,,,,,VFR,,,,,,,,,,,,METAR,529.0
LTCP 280950Z 20008KT 160V240 9999 SCT035 20/06 Q1008,LTCP,2023-04-28T09:50:00Z,37.73,38.47,20.0,6.0,200,8,,6.21,29.763779,,,,,,,,,,,SCT,3500,,,,,,,VFR,,,,,,,,,,,,METAR,672.0
LTCO 280950Z 19012KT 9999 SCT040 BKN070 17/02 Q1014,LTCO,2023-04-28T09:50:00Z,39.65,43.03,17.0,2.0,190,12,,6.21,29.940945,,,,,,,,,,,SCT,4000,BKN,7000,,,,,VFR,,,,,,,,,,,,METAR,1657.0
LTCN 280950Z 29020KT 9999 -SHRA FEW025CB BKN040 17/08 Q1007,LTCN,2023-04-28T09:50:00Z,37.53,36.95,17.0,8.0,290,20,,6.21,29.734253,,,,,,,,,,-SHRA,FEW,2500,BKN,4000,,,,,VFR,,,,,,,,,,,,METAR,505.0
LTCM 280950Z 27020KT 9999 SCT017 BKN100 13/09 Q1013,LTCM,2023-04-28T09:50:00Z,42.02,35.07,13.0,9.0,270,20,,6.21,29.911417,,,,,,,,,,,SCT,1700,BKN,10000,,,,,VFR,,,,,,,,,,,,METAR,7.0
LTCL 280950Z 12006KT 090V150 9999 FEW040 BKN100 25/05 Q1008,LTCL,2023-04-28T09:50:00Z,37.98,41.83,25.0,5.0,120,6,,6.21,29.763779,,,,,,,,,,,FEW,4000,BKN,10000,,,,,VFR,,,,,,,,,,,,METAR,602.0
LTCK 280950Z 21012KT 180V290 9999 SCT035 BKN090 19/04 Q1011,LTCK,2023-04-28T09:50:00Z,38.75,41.67,19.0,4.0,210,12,,6.21,29.852362,,,,,,,,,,,SCT,3500,BKN,9000,,,,,VFR,,,,,,,,,,,,METAR,1267.0
LTCI 280950Z 31008KT 9999 SCT030 BKN070 15/04 Q1017 NOSIG,LTCI,2023-04-28T09:50:00Z,38.47,43.33,15.0,4.0,310,8,,6.21,30.029528,,,,,,TRUE,,,,,SCT,3000,BKN,7000,,,,,VFR,,,,,,,,,,,,METAR,1654.0
LTCF 280950Z 18017KT 9999 SCT040 BKN080 15/03 Q1014 NOSIG,LTCF,2023-04-28T09:50:00Z,40.57,43.12,15.0,3.0,180,17,,6.21,29.940945,,,,,,TRUE,,,,,SCT,4000,BKN,8000,,,,,VFR,,,,,,,,,,,,METAR,1794.0
LTCD 280950Z 11020KT 9999 SCT045 BKN080 19/05 Q1008 NOSIG,LTCD,2023-04-28T09:50:00Z,39.72,39.52,19.0,5.0,110,20,,6.21,29.763779,,,,,,TRUE,,,,,SCT,4500,BKN,8000,,,,,VFR,,,,,,,,,,,,METAR,1146.0
LTCB 280950Z 27012KT 8000 -SHRA SCT012 BKN033 13/10 Q1013 NOSIG,LTCB,2023-04-28T09:50:00Z,40.97,38.07,13.0,10.0,270,12,,4.97,29.911417,,,,,,TRUE,,,,-SHRA,SCT,1200,BKN,3300,,,,,MVFR,,,,,,,,,,,,METAR,5.0
LTCA 280950Z 13011KT 100V160 9999 SCT035 21/04 Q1007 NOSIG,LTCA,2023-04-28T09:50:00Z,38.6,39.28,21.0,4.0,130,11,,6.21,29.734253,,,,,,TRUE,,,,,SCT,3500,,,,,,,VFR,,,,,,,,,,,,METAR,887.0
LTBY 280950Z 32014KT 9999 FEW010 BKN026 08/02 Q1015,LTBY,2023-04-28T09:50:00Z,39.82,30.52,8.0,2.0,320,14,,6.21,29.970472,,,,,,,,,,,FEW,1000,BKN,2600,,,,,MVFR,,,,,,,,,,,,METAR,788.0
LTBQ 280950Z 31008KT 280V350 9999 BKN035 14/04 Q1018 NOSIG,LTBQ,2023-04-28T09:50:00Z,40.73,30.07,14.0,4.0,310,8,,6.21,30.059055,,,,,,TRUE,,,,,BKN,3500,,,,,,,VFR,,,,,,,,,,,,METAR,51.0
LTBO 280950Z 35011KT 9999 SCT040 BKN090 09/01 Q1014,LTBO,2023-04-28T09:50:00Z,38.67,29.47,9.0,1.0,350,11,,6.21,29.940945,,,,,,,,,,,SCT,4000,BKN,9000,,,,,VFR,,,,,,,,,,,,METAR,868.0
LTBH 280950Z 07011KT 020V090 9999 SCT035 BKN100 15/06 Q1020,LTBH,2023-04-28T09:50:00Z,40.13,26.42,15.0,6.0,70,11,,6.21,30.11811,,,,,,,,,,,SCT,3500,BKN,10000,,,,,VFR,,,,,,,,,,,,METAR,8.0
LTBF 280950Z 03011KT 360V060 9999 BKN035 14/07 Q1018 NOSIG,LTBF,2023-04-28T09:50:00Z,39.62,27.92,14.0,7.0,30,11,,6.21,30.059055,,,,,,TRUE,,,,,BKN,3500,,,,,,,VFR,,,,,,,,,,,,METAR,95.0
LTBD 280950Z VRB02KT 9999 SCT040 BKN100 18/07 Q1014,LTBD,2023-04-28T09:50:00Z,37.82,27.88,18.0,7.0,0,2,,6.21,29.940945,,,,,,,,,,,SCT,4000,BKN,10000,,,,,VFR,,,,,,,,,,,,METAR,29.0
LTAY 280950Z 27007KT 9999 SCT030 BKN090 08/06 Q1014 NOSIG,LTAY,2023-04-28T09:50:00Z,37.78,29.7,8.0,6.0,270,7,,6.21,29.940945,,,,,,TRUE,,,,,SCT,3000,BKN,9000,,,,,VFR,,,,,,,,,,,,METAR,851.0
LTAS 280950Z 29005KT 260V340 9999 BKN030 BKN080 11/08 Q1017 RESHRA,LTAS,2023-04-28T09:50:00Z,41.52,32.08,11.0,8.0,290,5,,6.21,30.029528,,,,,,,,,,,BKN,3000,BKN,8000,,,,,MVFR,,,,,,,,,,,,METAR,13.0
LTAR 280950Z 12013KT 9999 FEW020CB BKN025 BKN070 09/05 Q1009,LTAR,2023-04-28T09:50:00Z,39.8,36.9,9.0,5.0,120,13,,6.21,29.793306,,,,,,,,,,,FEW,2000,BKN,2500,BKN,7000,,,MVFR,,,,,,,,,,,,METAR,1601.0
LTAN 280950Z 34019KT 9999 FEW015 SCT030 BKN090 09/04 Q1012 NOSIG,LTAN,2023-04-28T09:50:00Z,37.97,32.55,9.0,4.0,340,19,,6.21,29.88189,,,,,,TRUE,,,,,FEW,1500,SCT,3000,BKN,9000,,,VFR,,,,,,,,,,,,METAR,1029.0
LTAL 280950Z 25012KT 9000 FEW011 BKN034 BKN045 06/04 Q1012 RESHRA,LTAL,2023-04-28T09:50:00Z,41.32,33.8,6.0,4.0,250,12,,5.59,29.88189,,,,,,,,,,,FEW,1100,BKN,3400,BKN,4500,,,VFR,,,,,,,,,,,,METAR,1074.0
LTAE 280950Z 35013KT 320V020 9999 SCT035 BKN090 10/02 Q1012 NOSIG RMK RWY21 35011KT,LTAE,2023-04-28T09:50:00Z,40.07,32.57,10.0,2.0,350,13,,6.21,29.88189,,,,,,TRUE,,,,,SCT,3500,BKN,9000,,,,,VFR,,,,,,,,,,,,METAR,836.0
LSZA 280950Z VRB02KT 9999 FEW045 BKN066 17/08 Q1020,LSZA,2023-04-28T09:50:00Z,46.0,8.92,17.0,8.0,0,2,,6.21,30.11811,,,,,,,,,,,FEW,4500,BKN,6600,,,,,VFR,,,,,,,,,,,,METAR,276.0
LSME 280950Z 22003KT 170V240 9999 -SHRA SCT042 BKN049 OVC058 13/13 Q1017 RMK BLU,LSME,2023-04-28T09:50:00Z,47.1,8.3,13.0,13.0,220,3,,6.21,30.029528,,,,,,,,,,-SHRA,SCT,4200,BKN,4900,OVC,5800,,,VFR,,,,,,,,,,,,METAR,427.0
LSMA 280950Z 08005KT 050V110 9999 -SHRA SCT051 OVC070 13/10 Q1017 RMK BLU,LSMA,2023-04-28T09:50:00Z,46.95,8.28,13.0,10.0,80,5,,6.21,30.029528,,,,,,,,,,-SHRA,SCT,5100,OVC,7000,,,,,VFR,,,,,,,,,,,,METAR,441.0
LSGC 280950Z 25007KT 220V290 8000 -RA SCT010 BKN016 12/12 Q1018,LSGC,2023-04-28T09:50:00Z,47.08,6.8,12.0,12.0,250,7,,4.97,30.059055,,,,,,,,,,-RA,SCT,1000,BKN,1600,,,,,MVFR,,,,,,,,,,,,METAR,1018.0
LLIB 280950Z AUTO 23012KT 9999 SCT046 22/09 Q1010,LLIB,2023-04-28T09:50:00Z,32.98,35.57,22.0,9.0,230,12,,6.21,29.822834,,,TRUE,,,,,,,,SCT,4600,,,,,,,VFR,,,,,,,,,,,,METAR,268.0
LLHA 280950Z 28008KT 260V320 9999 BKN035 21/12 Q1010,LLHA,2023-04-28T09:50:00Z,32.8,35.03,21.0,12.0,280,8,,6.21,29.822834,,,,,,,,,,,BKN,3500,,,,,,,VFR,,,,,,,,,,,,METAR,3.0
LLER 280950Z 03004KT CAVOK 29/05 Q1009 RMK FEW070,LLER,2023-04-28T09:50:00Z,29.72,35.02,29.0,5.0,30,4,,6.21,29.793306,,,,,,,,,,,CAVOK,,,,,,,,VFR,,,,,,,,,,,,METAR,88.0
LIRU 280950Z 20007KT 160V240 CAVOK 21/05 Q1021,LIRU,2023-04-28T09:50:00Z,41.95,12.5,21.0,5.0,200,7,,6.21,30.147638,,,,,,,,,,,CAVOK,,,,,,,,VFR,,,,,,,,,,,,METAR,16.0
LIRI 280950Z 24008KT CAVOK 19/12 Q1022,LIRI,2023-04-28T09:50:00Z,40.62,14.92,19.0,12.0,240,8,,6.21,30.177166,,,,,,,,,,,CAVOK,,,,,,,,VFR,,,,,,,,,,,,METAR,31.0
LIQN 280950Z VRB02KT CAVOK 20/01 Q1021,LIQN,2023-04-28T09:50:00Z,42.42,12.83,20.0,1.0,0,2,,6.21,30.147638,,,,,,,,,,,CAVOK,,,,,,,,VFR,,,,,,,,,,,,METAR,387.0
LIPU 280950Z VRB03KT CAVOK 18/08 Q1020,LIPU,2023-04-28T09:50:00Z,45.38,11.83,18.0,8.0,0,3,,6.21,30.11811,,,,,,,,,,,CAVOK,,,,,,,,VFR,,,,,,,,,,,,METAR,6.0
LIPK 280950Z VRB02KT CAVOK 20/09 Q1019,LIPK,2023-04-28T09:50:00Z,44.2,12.07,20.0,9.0,0,2,,6.21,30.088583,,,,,,,,,,,CAVOK,,,,,,,,VFR,,,,,,,,,,,,METAR,24.0
LIPB 280950Z VRB02KT 9999 SCT060 SCT090 15/06 Q1020,LIPB,2023-04-28T09:50:00Z,46.47,11.32,15.0,6.0,0,2,,6.21,30.11811,,,,,,,,,,,SCT,6000,SCT,9000,,,,,VFR,,,,,,,,,,,,METAR,239.0
LIMP 280950Z VRB03KT CAVOK 18/11 Q1019,LIMP,2023-04-28T09:50:00Z,44.82,10.3,18.0,11.0,0,3,,6.21,30.088583,,,,,,,,,,,CAVOK,,,,,,,,VFR,,,,,,,,,,,,METAR,41.0
LIMG 280950Z 06010KT 9999 SCT035 19/11 Q1020,LIMG,2023-04-28T09:50:00Z,44.03,8.12,19.0,11.0,60,10,,6.21,30.11811,,,,,,,,,,,SCT,3500,,,,,,,VFR,,,,,,,,,,,,METAR,41.0
LIMA 280950Z 07005KT 010V120 CAVOK 18/05 Q1019,LIMA,2023-04-28T09:50:00Z,45.08,7.6,18.0,5.0,70,5,,6.21,30.088583,,,,,,,,,,,CAVOK,,,,,,,,VFR,,,,,,,,,,,,METAR,285.0
LICG 280950Z VRB04KT CAVOK 22/11 Q1022,LICG,2023-04-28T09:50:00Z,36.82,11.97,22.0,11.0,0,4,,6.21,30.177166,,,,,,,,,,,CAVOK,,,,,,,,VFR,,,,,,,,,,,,METAR,192.0
LIBG 280950Z 25006KT 220V290 CAVOK 21/05 Q1021,LIBG,2023-04-28T09:50:00Z,40.52,17.4,21.0,5.0,250,6,,6.21,30.147638,,,,,,,,,,,CAVOK,,,,,,,,VFR,,,,,,,,,,,,METAR,64.0
LIBF 280950Z 10007KT 070V150 9999 FEW030 20/06 Q1021,LIBF,2023-04-28T09:50:00Z,41.42,15.53,20.0,6.0,100,7,,6.21,30.147638,,,,,,,,,,,FEW,3000,,,,,,,VFR,,,,,,,,,,,,METAR,81.0
LIBC 280950Z 06006KT 010V110 CAVOK 19/05 Q1022,LIBC,2023-04-28T09:50:00Z,39.0,17.07,19.0,5.0,60,6,,6.21,30.177166,,,,,,,,,,,CAVOK,,,,,,,,VFR,,,,,,,,,,,,METAR,158.0
LGZA 280950Z VRB03KT 9999 FEW020 20/08 Q1020,LGZA,2023-04-28T09:50:00Z,37.75,20.88,20.0,8.0,0,3,,6.21,30.11811,,,,,,,,,,,FEW,2000,,,,,,,VFR,,,,,,,,,,,,METAR,3.0
LGSO 280950Z 35014KT 9999 SCT018 18/07 Q1018,LGSO,2023-04-28T09:50:00Z,37.42,24.95,18.0,7.0,350,14,,6.21,30.059055,,,,,,,,,,,SCT,1800,,,,,,,VFR,,,,,,,,,,,,METAR,71.0
LGSM 280950Z 35010G20KT 9999 FEW025 16/06 Q1015,LGSM,2023-04-28T09:50:00Z,37.68,26.92,16.0,6.0,350,10,20,6.21,29.970472,,,,,,,,,,,FEW,2500,,,,,,,VFR,,,,,,,,,,,,METAR,5.0
LGSK 280950Z 33012KT 9999 FEW030 16/08 Q1020,LGSK,2023-04-28T09:50:00Z,39.18,23.5,16.0,8.0,330,12,,6.21,30.11811,,,,,,,,,,,FEW,3000,,,,,,,VFR,,,,,,,,,,,,METAR,13.0
LGPA 280950Z 35017KT 9999 FEW030 17/08 Q1017,LGPA,2023-04-28T09:50:00Z,37.02,25.1,17.0,8.0,350,17,,6.21,30.029528,,,,,,,,,,,FEW,3000,,,,,,,VFR,,,,,,,,,,,,METAR,42.0
LGNX 280950Z /////KT 9999 FEW025 17/09 Q1017,LGNX,2023-04-28T09:50:00Z,37.08,25.37,17.0,9.0,,,,6.21,30.029528,,,,,,,,,,,FEW,2500,,,,,,,VFR,,,,,,,,,,,,METAR,3.0
LGKZ 280950Z 34009KT CAVOK 14/M03 Q1020,LGKZ,2023-04-28T09:50:00Z,40.28,21.83,14.0,-3.0,340,9,,6.21,30.11811,,,,,,,,,,,CAVOK,,,,,,,,VFR,,,,,,,,,,,,METAR,615.0
LGKF 280950Z 26006KT 9999 FEW018 18/10 Q1020,LGKF,2023-04-28T09:50:00Z,38.12,20.5,18.0,10.0,260,6,,6.21,30.11811,,,,,,,,,,,FEW,1800,,,,,,,VFR,,,,,,,,,,,,METAR,14.0
LGKC 280950Z 04016KT 9999 FEW025 16/12 Q1020,LGKC,2023-04-28T09:50:00Z,36.28,23.02,16.0,12.0,40,16,,6.21,30.11811,,,,,,,,,,,FEW,2500,,,,,,,VFR,,,,,,,,,,,,METAR,313.0
LGHI 280950Z 36014KT 9999 FEW025 16/08 Q1017,LGHI,2023-04-28T09:50:00Z,38.33,26.13,16.0,8.0,360,14,,6.21,30.029528,,,,,,,,,,,FEW,2500,,,,,,,VFR,,,,,,,,,,,,METAR,6.0
KLAL 280950Z 18005KT 10SM SKC 19/19 A2987,KLAL,2023-04-28T09:50:00Z,27.98,-82.02,19.0,19.0,180,5,,10.0,29.870079,,,,,,,,,,,SKC,,,,,,,,VFR,,,,,,,,,,,,METAR,39.0
KFDK 280950Z AUTO 04004KT 10SM OVC014 13/12 A3002 RMK AO2,KFDK,2023-04-28T09:50:00Z,39.42,-77.37,13.0,12.0,40,4,,10.0,30.02067,,,TRUE,TRUE,,,,,,,OVC,1400,,,,,,,MVFR,,,,,,,,,,,,METAR,82.0
KDAG 280950Z AUTO 28011KT 10SM CLR 19/02 A2990 RMK AO2 SLP100 T01940017,KDAG,2023-04-28T09:50:00Z,34.85,-116.78,19.4,1.7,280,11,,10.0,29.899607,1010.0,,TRUE,TRUE,,,,,,,CLR,,,,,,,,VFR,,,,,,,,,,,,METAR,584.0
FHAW 280950Z 16014KT 9999 FEW017 BKN300 27/23 Q1015 RMK BLU,FHAW,2023-04-28T09:50:00Z,-7.97,-14.4,27.0,23.0,160,14,,6.21,29.970472,,,,,,,,,,,FEW,1700,BKN,30000,,,,,VFR,,,,,,,,,,,,METAR,79.0
ETNG 280950Z 26010KT 9999 -RA OVC010 15/13 Q1011 BECMG NSW BKN015,ETNG,2023-04-28T09:50:00Z,50.97,6.03,15.0,13.0,260,10,,6.21,29.852362,,,,,,,,,,-RA,OVC,1000,,,,,,,MVFR,,,,,,,,,,,,METAR,76.0
ENBN 280950Z 26004KT 210V310 9999 VCSH FEW015TCU BKN035 05/M02 Q1015,ENBN,2023-04-28T09:50:00Z,65.47,12.22,5.0,-2.0,260,4,,6.21,29.970472,,,,,,,,,,VCSH,FEW,1500,BKN,3500,,,,,VFR,,,,,,,,,,,,METAR,3.0
EKVD 280950Z 11010KT 070V140 9999 FEW025 10/02 Q1016,EKVD,2023-04-28T09:50:00Z,55.43,9.32,10.0,2.0,110,10,,6.21,30.0,,,,,,,,,,,FEW,2500,,,,,,,VFR,,,,,,,,,,,,METAR,41.0
EKOD 280950Z 11006KT 040V200 9999 FEW032 SCT230 09/03 Q1016,EKOD,2023-04-28T09:50:00Z,55.47,10.32,9.0,3.0,110,6,,6.21,30.0,,,,,,,,,,,FEW,3200,SCT,23000,,,,,VFR,,,,,,,,,,,,METAR,13.0
EGYE 280950Z 29012KT 4500 BR BKN003 ///// Q1009 RMK YLO2,EGYE,2023-04-28T09:50:00Z,52.97,-0.57,,,290,12,,2.8,29.793306,,,,,,,,,,BR,BKN,300,,,,,,,LIFR,,,,,,,,,,,,METAR,105.0
EGQL 280950Z 14002KT 2500 BR SCT003 OVC020 09/08 Q1011 RMK YLO2,EGQL,2023-04-28T09:50:00Z,56.38,-2.87,9.0,8.0,140,2,,1.55,29.852362,,,,,,,,,,BR,SCT,300,OVC,2000,,,,,IFR,,,,,,,,,,,,METAR,11.0
EGQA 280950Z AUTO 29010KT 9999 BKN012/// BKN029/// BKN037/// 10/08 Q1011,EGQA,2023-04-28T09:50:00Z,57.83,-3.95,10.0,8.0,290,10,,6.21,29.852362,,,TRUE,,,,,,,,BKN,1200,BKN,2900,BKN,3700,,,MVFR,,,,,,,,,,,,METAR,4.0
EGOP 280950Z 25009KT 9999 SCT009 BKN011 12/11 Q1013 RMK GRN,EGOP,2023-04-28T09:50:00Z,51.72,-4.37,12.0,11.0,250,9,,6.21,29.911417,,,,,,,,,,,SCT,900,BKN,1100,,,,,MVFR,,,,,,,,,,,,METAR,8.0
BGSF 280950Z AUTO 04006KT 9999NDV OVC026/// M02/M07 Q1029,BGSF,2023-04-28T09:50:00Z,67.0,-50.72,-2.0,-7.0,40,6,,,30.383858,,,TRUE,,,,,,,,OVC,2600,,,,,,,,,,,,,,,,,,,METAR,75.0
BGKK 280950Z VRB04KT 9999 FEW004 M03/M08 Q1034,BGKK,2023-04-28T09:50:00Z,65.57,-37.13,-3.0,-8.0,0,4,,6.21,30.531496,,,,,,,,,,,FEW,400,,,,,,,VFR,,,,,,,,,,,,METAR,37.0
BGJN 280950Z 02004KT 320V100 9999 FEW150 M02/M06 Q1029,BGJN,2023-04-28T09:50:00Z,69.25,-51.07,-2.0,-6.0,20,4,,6.21,30.383858,,,,,,,,,,,FEW,15000,,,,,,,VFR,,,,,,,,,,,,METAR,22.0
BGGH 280950Z VRB02KT 9999 0600S PRFG SCT002 M02/M02 Q1026,BGGH,2023-04-28T09:50:00Z,64.2,-51.68,-2.0,-2.0,0,2,,6.21,30.295275,,,,,,,,,,PRFG,SCT,200,,,,,,,VFR,,,,,,,,,,,,METAR,76.0
BGBW 280950Z 07021KT 9999 FEW088 04/M11 Q1025,BGBW,2023-04-28T09:50:00Z,61.17,-45.42,4.0,-11.0,70,21,,6.21,30.265747,,,,,,,,,,,FEW,8800,,,,,,,VFR,,,,,,,,,,,,METAR,49.0
MMMX 280949Z 00000KT 9SM SKC 18/00 A3020 NOSIG RMK AC HZY,MMMX,2023-04-28T09:49:00Z,19.43,-99.08,18.0,0.0,0,0,,9.0,30.200787,,,,,,TRUE,,,,,SKC,,,,,,,,VFR,,,,,,,,,,,,METAR,2224.0
MMQT 280948Z 31003KT 7SM FEW020 SCT250 16/03 A3016 RMK 8/508,MMQT,2023-04-28T09:48:00Z,20.62,-100.18,16.0,3.0,310,3,,7.0,30.159449,,,,,,,,,,,FEW,2000,SCT,25000,,,,,VFR,,,,,,,,,,,,METAR,1909.0
KJDN 280948Z AUTO 28006KT 01/M01 A3014 RMK AO1 SLP224 T00111006,KJDN,2023-04-28T09:48:00Z,47.33,-106.95,1.1,-0.6,280,6,,,30.138779,1022.4,,TRUE,TRUE,,,,,,,,,,,,,,,,,,,,,,,,,,,METAR,802.0
KRPX 280947Z AUTO 10SM M01/M06 A3009 RMK Roundup ,KRPX,2023-04-28T09:47:00Z,46.47,-108.55,-1.0,-6.0,,,,10.0,30.088583,,,TRUE,,,,,,,,,,,,,,,,,,,,,,,,,,,,METAR,1062.0
KCQT 280947Z AUTO 00000KT 4SM BR OVC006 13/12 A2993 RMK AO2 SLP134 T01330122,KCQT,2023-04-28T09:47:00Z,34.02,-118.28,13.3,12.2,0,0,,4.0,29.929134,1013.4,,TRUE,TRUE,,,,,,BR,OVC,600,,,,,,,IFR,,,,,,,,,,,,METAR,51.0
KGYY 280945Z 00000KT 10SM CLR 10/04 A2982,KGYY,2023-04-28T09:45:00Z,41.62,-87.42,10.0,4.0,0,0,,10.0,29.819881,,,,,,,,,,,CLR,,,,,,,,VFR,,,,,,,,,,,,METAR,179.0
KFMH 280945Z 31006KT 1/4SM FG OVC002 05/05 A3021,KFMH,2023-04-28T09:45:00Z,41.65,-70.52,5.0,5.0,310,6,,0.25,30.209646,,,,,,,,,,FG,OVC,200,,,,,,,LIFR,,,,,,,,,,,,METAR,35.0
MMLO 280943Z 00000KT 8SM SKC 12/M09 A3016,MMLO,2023-04-28T09:43:00Z,21.0,-101.47,12.0,-9.0,0,0,,8.0,30.159449,,,,,,,,,,,SKC,,,,,,,,VFR,,,,,,,,,,,,METAR,1805.0
MMMM 280942Z 00000KT 6SM SKC 11/05 A3012 RMK HZY,MMMM,2023-04-28T09:42:00Z,19.85,-101.03,11.0,5.0,0,0,,6.0,30.121063,,,,,,,,,,,SKC,,,,,,,,VFR,,,,,,,,,,,,METAR,1840.0
MMTO 280941Z 00000KT 8SM SCT200 07/01 A3028 RMK 8/002,MMTO,2023-04-28T09:41:00Z,19.35,-99.57,7.0,1.0,0,0,,8.0,30.280512,,,,,,,,,,,SCT,20000,,,,,,,VFR,,,,,,,,,,,,METAR,2582.0
MMGL 280941Z 00000KT 10SM SKC 13/01 A3007,MMGL,2023-04-28T09:41:00Z,20.52,-103.32,13.0,1.0,0,0,,10.0,30.070866,,,,,,,,,,,SKC,,,,,,,,VFR,,,,,,,,,,,,METAR,1531.0
MMAA 280941Z 07005KT 5SM SCT015 SCT300 25/21 A2981 RMK 8/102 HZY,MMAA,2023-04-28T09:41:00Z,16.75,-99.75,25.0,21.0,70,5,,5.0,29.811024,,,,,,,,,,,SCT,1500,SCT,30000,,,,,MVFR,,,,,,,,,,,,METAR,5.0
MMZC 280940Z E18008KT 10SM SKC 10/M04 A3014,MMZC,2023-04-28T09:40:00Z,22.9,-102.68,10.0,-4.0,180,8,,10.0,30.138779,,,,,,,,,,,SKC,,,,,,,,VFR,,,,,,,,,,,,METAR,2175.0
MMUN 280940Z 13013KT 7SM SKC 26/22 A2980 RMK CI,MMUN,2023-04-28T09:40:00Z,21.03,-86.85,26.0,22.0,130,13,,7.0,29.799213,,,,,,,,,,,SKC,,,,,,,,VFR,,,,,,,,,,,,METAR,13.0
MMTP 280940Z 00000KT 8SM SKC 24/24 A2982 RMK HZY,MMTP,2023-04-28T09:40:00Z,14.78,-92.37,24.0,24.0,0,0,,8.0,29.819881,,,,,,,,,,,SKC,,,,,,,,VFR,,,,,,,,,,,,METAR,27.0
MMTJ 280940Z 00000KT 5SM OVC011 13/13 A2995 RMK 8/6// HZY,MMTJ,2023-04-28T09:40:00Z,32.53,-116.97,13.0,13.0,0,0,,5.0,29.949802,,,,,,,,,,,OVC,1100,,,,,,,MVFR,,,,,,,,,,,,METAR,150.0
MMSP 280940Z 27003KT 6SM SKC 13/12 A3010 RMK SC,MMSP,2023-04-28T09:40:00Z,22.25,-100.93,13.0,12.0,270,3,,6.0,30.100393,,,,,,,,,,,SKC,,,,,,,,VFR,,,,,,,,,,,,METAR,1841.0
MMMD 280940Z 16008KT 6SM SKC 25/22 A2977 RMK HZY,MMMD,2023-04-28T09:40:00Z,20.95,-89.65,25.0,22.0,160,8,,6.0,29.769686,,,,,,,,,,,SKC,,,,,,,,VFR,,,,,,,,,,,,METAR,10.0
FACV 280938Z 30003KT 9999 FEW025 17/08 Q1021,FACV,2023-04-28T09:38:00Z,-31.47,19.75,17.0,8.0,300,3,,6.21,30.147638,,,,,,,,,,,FEW,2500,,,,,,,VFR,,,,,,,,,,,,SPECI,977.0
KTFP 280935Z AUTO 18004KT 10SM CLR 20/19 A2977 RMK AO2 T01950186,KTFP,2023-04-28T09:35:00Z,27.92,-97.22,19.5,18.6,180,4,,10.0,29.769686,,,TRUE,TRUE,,,,,,,CLR,,,,,,,,VFR,,,,,,,,,,,,SPECI,5.0
RKTP 280932Z 22010KT 9999 -RA OVC028 17/12 A2994 RMK CIG028,RKTP,2023-04-28T09:32:00Z,36.7,126.48,17.0,12.0,220,10,,6.21,29.940945,,,,,,,,,,-RA,OVC,2800,,,,,,,MVFR,,,,,,,,,,,,SPECI,13.0
YPXM 280930Z AUTO /////KT //// // ////// ///// Q//// RF//./////./ DL-SE/DL-S,YPXM,2023-04-28T09:30:00Z,-10.45,105.68,,,,,,,,,,TRUE,,,,,,,,,,,,,,,,,,,,,,,,,,,,SPECI,262.0
VILK 280930Z 32005KT 4000 HZ SCT020 FEW030CB BKN100 31/18 Q1009 NOSIG,VILK,2023-04-28T09:30:00Z,26.75,80.88,31.0,18.0,320,5,,2.49,29.793306,,,,,,TRUE,,,,HZ,SCT,2000,FEW,3000,BKN,10000,,,IFR,,,,,,,,,,,,METAR,121.0
VIJP 280930Z 04008KT 3000 HZ SCT030 FEW035CB SCT100 33/13 Q1010 TEMPO 0800 DS/TSRA,VIJP,2023-04-28T09:30:00Z,26.82,75.8,33.0,13.0,40,8,,1.86,29.822834,,,,,,,,,,HZ,SCT,3000,FEW,3500,SCT,10000,,,IFR,,,,,,,,,,,,METAR,383.0
VEBN 280930Z 28008KT 4000 HZ FEW025 SCT100 38/15 Q1006 NOSIG,VEBN,2023-04-28T09:30:00Z,25.45,82.85,38.0,15.0,280,8,,2.49,29.704725,,,,,,TRUE,,,,HZ,FEW,2500,SCT,10000,,,,,IFR,,,,,,,,,,,,METAR,81.0
VEBI 280930Z 33010KT 3000 HZ SCT018 SCT020 FEW025CB 25/18 Q1012 BECMG 2500 HZ,VEBI,2023-04-28T09:30:00Z,25.7,91.98,25.0,18.0,330,10,,1.86,29.88189,,,,,,,,,,HZ,SCT,1800,SCT,2000,FEW,2500,,,IFR,,,,,,,,,,,,METAR,892.0
LETU 280930Z AUTO 12009KT 9999 NCD 22/11 Q1016,LETU,2023-04-28T09:30:00Z,,,22.0,11.0,120,9,,6.21,30.0,,,TRUE,,,,,,,,CLR,,,,,,,,VFR,,,,,,,,,,,,METAR,
CWWU 280930Z 36012KT 15SM OVC008 00/M01 A2996 RMK SF8 SLP147,CWWU,2023-04-28T09:30:00Z,47.52,-52.98,0.0,-1.0,360,12,,15.0,29.958662,1014.7,,,,,,,,,,OVC,800,,,,,,,IFR,,,,,,,,,,,,SPECI,2.0
RJOF 280926Z 11009KT 080V140 9999 FEW030 BKN060 18/11 Q1018 RMK 1CU030 5SC060 A3007,RJOF,2023-04-28T09:26:00Z,34.03,131.55,18.0,11.0,110,9,,6.21,30.059055,,,,,,,,,,,FEW,3000,BKN,6000,,,,,VFR,,,,,,,,,,,,SPECI,2.0
