{"station_id": ["AGGA", "AGGC", "AGGH", "AGGK", "AGGL", "AGGM", "AGGN", "AGGR", "ANYN", "AYPY", "BGSF", "BGTL", "BKPR", "CBBC", "CWWU", "CYAM", "CYAW", "CYAY", "CYBC", "CYBG", "CYBK", "CYBL", "CYBR", "CYBW", "CYBX", "CYCA", "CYCB", "CYCD", "CYCG", "CYCO", "CYCX", "CYCY", "CYDB", "CYDF", "CYDN", "CYDQ", "CYED", "CYEG", "CYEK", "CYEU", "CYEV", "CYFB", "CYFC", "CYFS", "CYGK", "CYGL", "CYGP", "CYGQ", "CYGR", "CYGV", "CYGW", "CYGX", "CYHD", "CYHK", "CYHM", "CYHU", "CYHY", "CYHZ", "CYIO", "CYIV", "CYJT", "CYKA", "CYKF", "CYKL", "CYLL", "CYLT", "CYLW", "CYMA", "CYMH", "CYMJ", "CYMM", "CYMO", "CYMX", "CYNA", "CYNE", "CYOD", "CYOJ", "CYOO", "CYOW", "CYOY", "CYPA", "CYPE", "CYPG", "CYPH", "CYPL", "CYPQ", "CYPR", "CYPX", "CYPY", "CYQA", "CYQB", "CYQD", "CYQF", "CYQG", "CYQH", "CYQI", "CYQK", "CYQL", "CYQM", "CYQQ", "CYQR", "CYQT", "CYQU", "CYQV", "CYQW", "CYQX", "CYQY", "CYQZ", "CYRB", "CYRJ", "CYRL", "CYRQ", "CYRT", "CYSB", "CYSF", "CYSJ", "CYSM", "CYTE", "CYTH", "CYTL", "CYTR", "CYTS", "CYTZ", "CYUB", "CYUL", "CYUX", "CYUY", "CYVC", "CYVM", "CYVO", "CYVP", "CYVQ", "CYVR", "CYVT", "CYWA", "CYWG", "CYWH", "CYWK", "CYWL", "CYXC", "CYXE", "CYXH", "CYXJ", "CYXL", "CYXS", "CYXT", "CYXU", "CYXX", "CYXY", "CYYB", "CYYC", "CYYD", "CYYE", "CYYF", "CYYG", "CYYH", "CYYJ", "CYYL", "CYYN", "CYYQ", "CYYR", "CYYT", "CYYU", "CYYY", "CYYZ", "CYZF", "CYZH", "CYZP", "CYZR", "CYZS", "CYZT", "CYZV", "CYZX", "CYZY", "CZBF", "CZUM", "CZVL", "DAAD", "DAAE", "DAAG", "DAAJ", "DAAP", "DAAS", "DAAT", "DAAV", "DAAY", "DABB", "DABC", "DABS", "DABT", "DAFH", "DAOB", "DAOF", "DAOI", "DAON", "DAOO", "DAOR", "DAOV", "DATM", "DAUA", "DAUB", "DAUG", "DAUH", "DAUI", "DAUK", "DAUL", "DAUO", "DAUT", "DAUU", "DAUZ", "DBBB", "DFFD", "DFOO", "DGAA", "DGLE", "DGSI", "DIAP", "DIBK", "DIYO", "DNAA", "DNAK", "DNBE", "DNGO", "DNIL", "DNJO", "DNKA", "DNKN", "DNKT", "DNMA", "DNMM", "DNSO", "DNSU", "DNYO", "DRRN", "DRZA", "DRZR", "DTKA", "DTMB", "DTNH", "DTTA", "DTTB", "DTTF", "DTTG", "DTTJ", "DTTR", "DTTX", "DTTZ", "DXNG", "DXXX", "EBAW", "EBBE", "EBBL", "EBBR", "EBCI", "EBCV", "EBFN", "EBFS", "EBLG", "EBOS", "EDAC", "EDDB", "EDDC", "EDDE", "EDDF", "EDDG", "EDDH", "EDDK", "EDDL", "EDDM", "EDDN", "EDDP", "EDDR", "EDDS", "EDDV", "EDDW", "EDFH", "EDGS", "EDJA", "EDLN", "EDLP", "EDLV", "EDLW", "EDMA", "EDMO", "EDNY", "EDQM", "EDSB", "EDTY", "EDVK", "EEEI", "EETN", "EFHK", "EFIV", "EFJY", "EFKU", "EFMA", "EFOU", "EFRO", "EFSI", "EFTP", "EFTU", "EFVA", "EGAA", "EGBB", "EGCC", "EGCK", "EGCN", "EGDY", "EGFF", "EGGD", "EGGP", "EGGW", "EGHQ", "EGJB", "EGJJ", "EGKK", "EGLL", "EGMC", "EGMD", "EGNJ", "EGNM", "EGNT", "EGNX", "EGPA", "EGPB", "EGPC", "EGPD", "EGPE", "EGPF", "EGPH", "EGPK", "EGPO", "EGQL", "EGQS", "EGSH", "EGSS", "EGSY", "EGTE", "EGUL", "EGUN", "EGVA", "EGVN", "EGVO", "EGWU", "EGXC", "EGXW", "EGYP", "EHAM", "EHBK", "EHEH", "EHGG", "EHGR", "EHKD", "EHLE", "EHLW", "EHRD", "EHVK", "EICK", "EIDL", "EIDW", "EIKN", "EIKY", "EIME", "EINN", "EISG", "EIWF", "EKAH", "EKBI", "EKCH", "EKKA", "EKRK", "EKRN", "EKSP", "EKYT", "ELLX", "ENAN", "ENBN", "ENBO", "ENBR", "ENDU", "ENEV", "ENFL", "ENGC", "ENGM", "ENHE", "ENHF", "ENKR", "ENLE", "ENNA", "ENOA", "ENOL", "ENRY", "ENSB", "ENTC", "ENTO", "ENVA", "ENZV", "EPBY", "EPCE", "EPDA", "EPDE", "EPGD", "EPKK", "EPKS", "EPKT", "EPLB", "EPLK", "EPLL", "EPLY", "EPMB", "EPMI", "EPMM", "EPMO", "EPOK", "EPPO", "EPPW", "EPRA", "EPRZ", "EPSC", "EPSN", "EPSY", "EPTM", "EPWA", "EPWR", "EPZG", "ESGG", "ESKN", "ESMK", "ESMS", "ESNQ", "ESNU", "ESSA", "ETAD", "ETAR", "ETEB", "ETHB", "ETHC", "ETHL", "ETHS", "ETIC", "ETIK", "ETMN", "ETNG", "ETNL", "ETNS", "ETNW", "ETOU", "ETSN", "EVGA", "EVLA", "EVRA", "EYKA", "EYPA", "EYSA", "EYVI", "FABL", "FACT", "FAGG", "FALA", "FALE", "FAOR", "FAPE", "FAPM", "FAUP", "FBMN", "FBPM", "FBSK", "FCBB", "FCPP", "FEFF", "FGBT", "FGSL", "FIMP", "FIMR", "FJDG", "FKKD", "FKYS", "FMCH", "FMCZ", "FMEE", "FMMI", "FMMS", "FMMT", "FMNA", "FMNM", "FMNN", "FMSD", "FMST", "FNBG", "FNCA", "FNCT", "FNDU", "FNGI", "FNHU", "FNKU", "FNLU", "FNMA", "FNME", "FNMO", "FNSA", "FNSO", "FNUB", "FNUE", "FOOG", "FOOL", "FPST", "FQBR", "FQCH", "FQIN", "FQLC", "FQMA", "FQNC", "FQNP", "FQPB", "FQQL", "FQTT", "FQVL", "FQXA", "FSIA", "FTTJ", "FVJN", "FVRG", "FWCL", "FWKI", "FYGF", "FYLZ", "FYOA", "FYRU", "FYWB", "FYWE", "FYWH", "FZAA", "FZIC", "FZNA", "FZQA", "GABS", "GAGO", "GBYD", "GCFV", "GCGM", "GCHI", "GCLA", "GCLP", "GCRR", "GCTS", "GCXO", "GECE", "GEML", "GFLL", "GGOV", "GMAD", "GMAG", "GMFF", "GMFK", "GMFM", "GMFO", "GMME", "GMMH", "GMMI", "GMML", "GMMN", "GMMW", "GMMX", "GMMZ", "GMTA", "GMTT", "GOBD", "GOGS", "GOOY", "GOSS", "GQNO", "GQPP", "GVAC", "GVBA", "GVNP", "GVSV", "HAAB", "HABD", "HADC", "HADR", "HAGN", "HAJJ", "HBBA", "HCMM", "HDAM", "HEAL", "HEAR", "HEAT", "HEAX", "HEBA", "HEBL", "HECA", "HEGN", "HELX", "HEMA", "HEMM", "HEOW", "HEPS", "HESC", "HESG", "HESH", "HESN", "HETB", "HETR", "HKEL", "HKJK", "HKKI", "HKML", "HKMO", "HKNW", "HLLB", "HRYR", "HRZA", "HSSJ", "HSSK", "HSSM", "HTAR", "HTDA", "HTDO", "HTKA", "HTKJ", "HTMW", "HTTB", "HTZA", "HUEN", "HUSO", "KABE", "KABI", "KABQ", "KABR", "KABY", "KACK", "KACT", "KACV", "KACY", "KADF", "KADW", "KAEG", "KAEX", "KAFF", "KAFW", "KAGC", "KAGS", "KAHN", "KAIA", "KALB", "KALI", "KALO", "KALS", "KALW", "KAMA", "KANB", "KAND", "KAOO", "KAPA", "KAPC", "KAPF", "KAPN", "KARA", "KART", "KASD", "KASE", "KASN", "KAST", "KATL", "KATW", "KATY", "KAUG", "KAUS", "KAUW", "KAVL", "KAVP", "KAXN", "KAZO", "KBAB", "KBAD", "KBAF", "KBAM", "KBBD", "KBBG", "KBCB", "KBCE", "KBDL", "KBDN", "KBDR", "KBED", "KBFD", "KBFF", "KBFI", "KBFL", "KBFM", "KBGM", "KBGR", "KBHB", "KBHM", "KBIF", "KBIH", "KBIL", "KBIS", "KBIX", "KBJC", "KBJI", "KBKE", "KBKF", "KBKW", "KBLF", "KBLH", "KBLI", "KBLV", "KBMG", "KBMI", "KBNA", "KBNO", "KBOI", "KBOS", "KBPI", "KBPK", "KBPT", "KBRD", "KBRL", "KBRO", "KBTL", "KBTM", "KBTR", "KBTV", "KBUF", "KBUR", "KBVI", "KBVO", "KBWG", "KBWI", "KBYI", "KBZN", "KCAE", "KCAK", "KCAR", "KCBM", "KCDC", "KCDR", "KCDS", "KCEC", "KCEF", "KCGI", "KCHA", "KCHO", "KCHS", "KCID", "KCIU", "KCKB", "KCKV", "KCLE", "KCLL", "KCLM", "KCLT", "KCMA", "KCMH", "KCMI", "KCMX", "KCNM", "KCNU", "KCNY", "KCOD", "KCOE", "KCOF", "KCON", "KCOS", "KCOT", "KCOU", "KCPR", "KCPS", "KCRE", "KCRG", "KCRP", "KCRQ", "KCRW", "KCSG", "KCSM", "KCSV", "KCTB", "KCUB", "KCVG", "KCVS", "KCWA", "KCXO", "KCXP", "KCYS", "KDAA", "KDAB", "KDAG", "KDAL", "KDAN", "KDAY", "KDBQ", "KDCA", "KDDC", "KDEC", "KDEN", "KDET", "KDFW", "KDHN", "KDHT", "KDIJ", "KDIK", "KDLF", "KDLH", "KDLS", "KDMA", "KDMN", "KDNL", "KDOV", "KDPA", "KDRO", "KDRT", "KDSM", "KDTW", "KDUJ", "KDVL", "KDVT", "KDYS", "KEAR", "KEAT", "KEAU", "KECG", "KECP", "KEDW", "KEED", "KEET", "KEFD", "KEFK", "KEGE", "KEGI", "KEKN", "KEKO", "KEKS", "KELD", "KELM", "KELP", "KELY", "KEND", "KENV", "KENW", "KERI", "KEUG", "KEUL", "KEVV", "KEVW", "KEWN", "KEWR", "KEYW", "KFAF", "KFAR", "KFAT", "KFAY", "KFBG", "KFCS", "KFDY", "KFFO", "KFHU", "KFKL", "KFLG", "KFLL", "KFLO", "KFMH", "KFMN", "KFMY", "KFNT", "KFOD", "KFOE", "KFPR", "KFRI", "KFSD", "KFSM", "KFST", "KFTK", "KFTW", "KFTY", "KFVE", "KFWA", "KFXE", "KFYV", "KGBD", "KGCC", "KGCK", "KGCN", "KGDV", "KGEG", "KGFA", "KGFK", "KGFL", "KGGG", "KGGW", "KGJT", "KGKY", "KGLD", "KGLH", "KGLS", "KGMU", "KGNV", "KGON", "KGPI", "KGPT", "KGRB", "KGRF", "KGRI", "KGRK", "KGRR", "KGSB", "KGSO", "KGSP", "KGTB", "KGTF", "KGTR", "KGUC", "KGUP", "KGUR", "KGUS", "KGUY", "KGWO", "KGYY", "KHBG", "KHCR", "KHDC", "KHDN", "KHIB", "KHIE", "KHIF", "KHIO", "KHKS", "KHKY", "KHLG", "KHLN", "KHMN", "KHNB", "KHND", "KHOB", "KHON", "KHOP", "KHOT", "KHOU", "KHPN", "KHQM", "KHRL", "KHRO", "KHRT", "KHST", "KHSV", "KHTS", "KHUA", "KHUF", "KHUL", "KHUM", "KHUT", "KHVR", "KHYA", "KHYR", "KHYS", "KIAB", "KIAD", "KIAG", "KIAH", "KICT", "KIDA", "KIFP", "KILG", "KILM", "KILN", "KIND", "KINK", "KINL", "KINS", "KINT", "KINW", "KIPL", "KIPT", "KISM", "KISO", "KISP", "KITH", "KIWA", "KIWD", "KIXD", "KJAC", "KJAN", "KJAX", "KJBR", "KJCT", "KJEF", "KJER", "KJFK", "KJHW", "KJKA", "KJKL", "KJLN", "KJMS", "KJST", "KJVL", "KJXN", "KJZI", "KLAF", "KLAL", "KLAN", "KLAR", "KLAS", "KLAW", "KLAX", "KLBB", "KLBE", "KLBF", "KLBL", "KLBT", "KLBX", "KLCH", "KLCK", "KLEB", "KLEE", "KLEX", "KLFI", "KLFK", "KLFT", "KLGA", "KLGB", "KLGU", "KLIT", "KLLQ", "KLMT", "KLND", "KLNK", "KLNS", "KLOZ", "KLRD", "KLRF", "KLRU", "KLSE", "KLSF", "KLSV", "KLTS", "KLUF", "KLUK", "KLVK", "KLVM", "KLVS", "KLWB", "KLWS", "KLWT", "KLYH", "KMAF", "KMBG", "KMBL", "KMBS", "KMCB", "KMCC", "KMCE", "KMCF", "KMCI", "KMCK", "KMCN", "KMCO", "KMCW", "KMDT", "KMDW", "KMEI", "KMEM", "KMER", "KMEV", "KMFD", "KMFE", "KMFR", "KMGE", "KMGM", "KMGW", "KMHK", "KMHR", "KMHT", "KMIA", "KMIB", "KMIV", "KMKC", "KMKE", "KMKG", "KMKL", "KMKT", "KMLB", "KMLC", "KMLI", "KMLS", "KMLU", "KMMH", "KMMT", "KMOB", "KMOD", "KMOT", "KMPV", "KMQY", "KMRB", "KMRY", "KMSL", "KMSN", "KMSO", "KMSP", "KMSS", "KMSY", "KMTC", "KMTH", "KMTJ", "KMTN", "KMTW", "KMUI", "KMUO", "KMVN", "KMWH", "KMXF", "KMYL", "KMYR", "KNBC", "KNBG", "KNCA", "KNEW", "KNFG", "KNFL", "KNFW", "KNGP", "KNGU", "KNHK", "KNID", "KNIP", "KNJK", "KNKT", "KNKX", "KNLC", "KNMM", "KNPA", "KNQI", "KNQX", "KNRB", "KNSE", "KNTD", "KNTU", "KNUC", "KNUW", "KNXP", "KNYG", "KNYL", "KNZY", "KOAJ", "KOAK", "KOFF", "KOFK", "KOGB", "KOGD", "KOKC", "KOLF", "KOLM", "KOLS", "KOMA", "KONP", "KONT", "KOPF", "KORD", "KORF", "KORH", "KOTH", "KOTM", "KOUN", "KOWB", "KOXR", "KOZR", "KPAE", "KPAH", "KPAM", "KPBF", "KPBG", "KPBI", "KPDK", "KPDT", "KPDX", "KPEQ", "KPGA", "KPGD", "KPGV", "KPHF", "KPHL", "KPHX", "KPIA", "KPIB", "KPIE", "KPIH", "KPIR", "KPIT", "KPKB", "KPLN", "KPMD", "KPNA", "KPNC", "KPNE", "KPNS", "KPOB", "KPOE", "KPOU", "KPQI", "KPRB", "KPRC", "KPSC", "KPSF", "KPSM", "KPSP", "KPTK", "KPUB", "KPUW", "KPVD", "KPVU", "KPVW", "KPWM", "KPWT", "KRAP", "KRBG", "KRBL", "KRCA", "KRDD", "KRDG", "KRDM", "KRDR", "KRDU", "KRFD", "KRHI", "KRIC", "KRIL", "KRIV", "KRIW", "KRKD", "KRKS", "KRME", "KRND", "KRNH", "KRNO", "KROA", "KROC", "KROG", "KROW", "KRSL", "KRST", "KRSW", "KRUT", "KRVS", "KRWF", "KRWI", "KRWL", "KRYY", "KSAC", "KSAF", "KSAN", "KSAT", "KSAV", "KSAW", "KSBA", "KSBD", "KSBM", "KSBN", "KSBP", "KSBY", "KSCK", "KSDF", "KSDL", "KSDY", "KSEA", "KSEZ", "KSFB", "KSFF", "KSFO", "KSGF", "KSGJ", "KSGR", "KSGU", "KSHR", "KSHV", "KSJC", "KSJS", "KSJT", "KSKA", "KSKF", "KSLC", "KSLE", "KSLI", "KSLK", "KSLN", "KSME", "KSMF", "KSMN", "KSMO", "KSMX", "KSNA", "KSNS", "KSNY", "KSOA", "KSPI", "KSPS", "KSRQ", "KSSC", "KSSF", "KSSI", "KSTC", "KSTJ", "KSTL", "KSTS", "KSUA", "KSUN", "KSUS", "KSUU", "KSUX", "KSVN", "KSWF", "KSWO", "KSYM", "KSYR", "KSZL", "KTBN", "KTCC", "KTCL", "KTCM", "KTCS", "KTEB", "KTEX", "KTIK", "KTIX", "KTLH", "KTMB", "KTOI", "KTOL", "KTOP", "KTPA", "KTPH", "KTRI", "KTRK", "KTRM", "KTTD", "KTTN", "KTUL", "KTUP", "KTUS", "KTVC", "KTVF", "KTVL", "KTWF", "KTXK", "KTYR", "KTYS", "KUAO", "KUES", "KUIN", "KUKI", "KUNV", "KUTS", "KVAD", "KVBG", "KVCT", "KVEL", "KVGT", "KVIS", "KVLD", "KVNY", "KVOK", "KVPS", "KVQQ", "KVRB", "KVTN", "KWJF", "KWMC", "KWRB", "KWRI", "KWRL", "KWWR", "KWYS", "KXNA", "KXWA", "KYIP", "KYKM", "KYNG", "KZZV", "LATI", "LBBG", "LBGO", "LBPD", "LBSF", "LBWN", "LCEN", "LCLK", "LCPH", "LCRA", "LDDU", "LDOS", "LDPL", "LDRI", "LDSP", "LDZA", "LDZD", "LEAB", "LEAG", "LEAL", "LEAM", "LEAO", "LEAS", "LEBA", "LEBB", "LEBG", "LEBL", "LEBR", "LEBZ", "LECO", "LECV", "LEEC", "LEGA", "LEGE", "LEGR", "LEGT", "LEHC", "LEIB", "LEJR", "LELC", "LELL", "LELN", "LELO", "LEMD", "LEMG", "LEMH", "LEMO", "LEPA", "LEPP", "LERI", "LERL", "LERS", "LERT", "LESA", "LESO", "LEST", "LETO", "LEVC", "LEVD", "LEVS", "LEVT", "LEVX", "LEXJ", "LEZG", "LEZL", "LFBC", "LFBD", "LFBE", "LFBG", "LFBH", "LFBI", "LFBL", "LFBM", "LFBO", "LFBP", "LFBT", "LFBU", "LFBZ", "LFCK", "LFCR", "LFJL", "LFKB", "LFKC", "LFKF", "LFKJ", "LFKS", "LFLB", "LFLC", "LFLL", "LFLN", "LFLP", "LFLS", "LFLX", "LFLY", "LFMD", "LFMI", "LFMK", "LFML", "LFMN", "LFMO", "LFMP", "LFMT", "LFMU", "LFMV", "LFMY", "LFOA", "LFOB", "LFOE", "LFOH", "LFOJ", "LFOK", "LFOP", "LFOT", "LFPB", "LFPG", "LFPN", "LFPO", "LFPV", "LFQQ", "LFRB", "LFRD", "LFRH", "LFRI", "LFRJ", "LFRL", "LFRM", "LFRN", "LFRQ", "LFRS", "LFRZ", "LFSB", "LFSI", "LFSO", "LFST", "LFSX", "LFTH", "LFTW", "LFVP", "LFYR", "LGAD", "LGAL", "LGAV", "LGBL", "LGEL", "LGHI", "LGIO", "LGIR", "LGKC", "LGKF", "LGKL", "LGKO", "LGKP", "LGKR", "LGKV", "LGLM", "LGLR", "LGMK", "LGMT", "LGPZ", "LGRP", "LGRX", "LGSA", "LGSK", "LGSM", "LGSR", "LGST", "LGSY", "LGTG", "LGTL", "LGTS", "LGZA", "LHBP", "LHDC", "LHKE", "LHPA", "LHPR", "LHSN", "LIBA", "LIBC", "LIBD", "LIBF", "LIBP", "LIBR", "LIBV", "LICA", "LICB", "LICC", "LICD", "LICJ", "LICR", "LICT", "LICZ", "LIEA", "LIED", "LIEE", "LIEO", "LIMC", "LIME", "LIMF", "LIMG", "LIMJ", "LIML", "LIMN", "LIMP", "LIMZ", "LIPA", "LIPB", "LIPC", "LIPE", "LIPH", "LIPK", "LIPL", "LIPO", "LIPQ", "LIPR", "LIPS", "LIPX", "LIPY", "LIPZ", "LIRA", "LIRE", "LIRF", "LIRM", "LIRN", "LIRP", "LIRQ", "LIRS", "LIRZ", "LJCE", "LJLJ", "LJMB", "LJPZ", "LKCV", "LKKB", "LKKV", "LKMT", "LKNA", "LKPD", "LKPR", "LKTB", "LLBG", "LLER", "LLHA", "LLHZ", "LLIB", "LMML", "LOWG", "LOWI", "LOWK", "LOWL", "LOWS", "LOWW", "LPAZ", "LPBJ", "LPFR", "LPLA", "LPMA", "LPMR", "LPMT", "LPOV", "LPPD", "LPPR", "LPPS", "LPPT", "LQBK", "LQMO", "LQSA", "LQTZ", "LRAR", "LRBC", "LRBO", "LRBS", "LRCK", "LRCL", "LRCT", "LRCV", "LRFT", "LRIA", "LROD", "LROP", "LRSB", "LRSV", "LRTR", "LRTZ", "LSGG", "LSZH", "LSZL", "LTAB", "LTAC", "LTAD", "LTAE", "LTAF", "LTAG", "LTAI", "LTAJ", "LTAN", "LTAO", "LTAP", "LTAR", "LTAT", "LTAU", "LTAY", "LTAZ", "LTBA", "LTBF", "LTBG", "LTBH", "LTBI", "LTBJ", "LTBL", "LTBO", "LTBQ", "LTBR", "LTBS", "LTBU", "LTBY", "LTBZ", "LTCA", "LTCB", "LTCC", "LTCD", "LTCE", "LTCF", "LTCG", "LTCI", "LTCJ", "LTCM", "LTCN", "LTCS", "LTCT", "LTCV", "LTCW", "LTDA", "LTFC", "LTFD", "LTFE", "LTFG", "LTFH", "LTFJ", "LTFM", "LTFO", "LUKK", "LWOH", "LWSK", "LYBE", "LYBT", "LYKV", "LYNI", "LYPG", "LYTV", "LYVR", "LZIB", "LZKZ", "LZMC", "LZPP", "LZPW", "LZSL", "LZTT", "LZZI", "MBGT", "MBPV", "MDBH", "MDCY", "MDJB", "MDLR", "MDPC", "MDPP", "MDSD", "MDST", "MGGT", "MGMM", "MGPB", "MGSJ", "MHLC", "MHLM", "MHPR", "MHRO", "MHTG", "MKJP", "MKJS", "MMAA", "MMAN", "MMAS", "MMBT", "MMCB", "MMCE", "MMCL", "MMCM", "MMCN", "MMCP", "MMCS", "MMCU", "MMCV", "MMCZ", "MMDO", "MMEP", "MMGL", "MMGM", "MMHO", "MMIA", "MMIO", "MMLM", "MMLO", "MMLP", "MMLT", "MMMA", "MMMD", "MMML", "MMMM", "MMMT", "MMMV", "MMMX", "MMMY", "MMMZ", "MMNL", "MMOX", "MMPA", "MMPB", "MMPG", "MMPN", "MMPQ", "MMPR", "MMPS", "MMQT", "MMRX", "MMSD", "MMSL", "MMSM", "MMSP", "MMTC", "MMTG", "MMTJ", "MMTM", "MMTO", "MMTP", "MMUN", "MMVA", "MMVR", "MMZC", "MMZH", "MMZO", "MNBL", "MNMG", "MNPC", "MPDA", "MPMG", "MPPA", "MPSM", "MPTO", "MRLB", "MRLM", "MROC", "MRPV", "MSLP", "MSSS", "MTCH", "MTPP", "MUCC", "MUCF", "MUCL", "MUCM", "MUCU", "MUGM", "MUHA", "MUHG", "MUSC", "MUVR", "MWCB", "MWCR", "MYGF", "MYNN", "MZBZ", "NCRG", "NFFN", "NFNA", "NFTF", "NFTV", "NGFU", "NGTA", "NIUE", "NLWF", "NLWW", "NSFA", "NSTU", "NTAA", "NVSC", "NVSG", "NVSL", "NVSP", "NVSS", "NVVA", "NVVV", "NVVW", "NWWD", "NWWE", "NWWK", "NWWL", "NWWM", "NWWR", "NWWU", "NWWW", "NZAA", "NZCH", "NZFX", "NZQN", "NZWN", "OBBI", "OEAB", "OEAH", "OEAO", "OEBA", "OEBH", "OEDF", "OEDR", "OEGN", "OEGS", "OEGT", "OEHL", "OEJN", "OEKJ", "OEKM", "OEMA", "OENG", "OEPA", "OEPS", "OERF", "OERK", "OERR", "OESH", "OESK", "OETB", "OETF", "OETR", "OEWD", "OEWJ", "OEYN", "OIAA", "OIAW", "OIBB", "OIBK", "OIBP", "OICC", "OICI", "OIFM", "OIGG", "OIIE", "OIII", "OIIP", "OIKB", "OIKK", "OIMM", "OING", "OINZ", "OISL", "OISS", "OITL", "OITR", "OITT", "OIYY", "OIZH", "OJAI", "OJAM", "OJAQ", "OKAS", "OKBK", "OLBA", "OMAA", "OMAD", "OMAL", "OMDB", "OMDW", "OMFJ", "OMRK", "OMSJ", "OODQ", "OOMS", "OOSA", "OOSH", "OPBW", "OPDG", "OPFA", "OPGD", "OPIS", "OPKC", "OPLA", "OPMT", "OPNH", "OPPS", "OPRK", "OPSK", "OPST", "ORBI", "ORER", "ORMM", "ORNI", "ORSU", "OSAP", "OSDI", "OSLK", "OTBD", "OTBH", "OTHH", "PAAQ", "PABE", "PABI", "PABR", "PABT", "PACD", "PACV", "PADL", "PADQ", "PADU", "PAED", "PAEI", "PAEN", "PAFA", "PAFB", "PAGA", "PAGK", "PAGS", "PAGY", "PAHN", "PAHO", "PAIL", "PAJN", "PAKN", "PAKT", "PAKW", "PAMC", "PANC", "PAOM", "PAOR", "PAOT", "PAPG", "PAQT", "PASC", "PASD", "PASI", "PASN", "PASY", "PATA", "PATK", "PAUN", "PAVD", "PAWG", "PAYA", "PGRO", "PGSN", "PGUA", "PGUM", "PGWT", "PHHI", "PHJH", "PHJR", "PHKO", "PHLI", "PHMK", "PHNG", "PHNL", "PHNY", "PHOG", "PHTO", "PKMJ", "PKWA", "PLCH", "PMDY", "PTKK", "PTPN", "PTRO", "PTSA", "PTYA", "PWAK", "RCFN", "RCKH", "RCMQ", "RCNN", "RCSS", "RCTP", "RJAA", "RJAH", "RJBB", "RJCB", "RJCC", "RJCH", "RJCK", "RJCM", "RJEC", "RJFF", "RJFK", "RJFM", "RJFO", "RJFR", "RJFS", "RJFT", "RJFU", "RJGG", "RJNK", "RJNS", "RJNT", "RJOA", "RJOB", "RJOC", "RJOH", "RJOI", "RJOK", "RJOM", "RJOO", "RJOT", "RJSA", "RJSF", "RJSI", "RJSK", "RJSN", "RJSS", "RJTT", "RJTY", "RKJB", "RKJK", "RKNY", "RKPC", "RKPK", "RKSG", "RKSI", "RKSM", "RKSO", "RKSS", "RKTN", "RKTU", "ROAH", "RODN", "ROIG", "ROTM", "RPLB", "RPLC", "RPLI", "RPLL", "RPMD", "RPMR", "RPMZ", "RPVD", "RPVM", "RPVP", "SAAR", "SABE", "SACO", "SADF", "SAEZ", "SAME", "SANR", "SANT", "SAOC", "SARE", "SARF", "SARI", "SARP", "SASA", "SASJ", "SAVC", "SAWE", "SAWG", "SAWH", "SAZM", "SAZN", "SAZS", "SBAC", "SBAF", "SBAN", "SBAT", "SBBG", "SBBI", "SBBU", "SBBW", "SBCF", "SBCO", "SBCT", "SBCZ", "SBDN", "SBFI", "SBFL", "SBGR", "SBGW", "SBIH", "SBIL", "SBIZ", "SBJE", "SBJV", "SBKG", "SBKP", "SBME", "SBMN", "SBNF", "SBNT", "SBPA", "SBPK", "SBSC", "SBSJ", "SBSM", "SBSP", "SBSV", "SBUG", "SBUL", "SBUR", "SBVH", "SBYS", "SCAR", "SCAT", "SCBA", "SCCF", "SCCI", "SCDA", "SCEL", "SCFA", "SCIE", "SCIP", "SCNT", "SCQP", "SCSE", "SCTE", "SCVM", "SEGU", "SELT", "SEMT", "SEQM", "SGAS", "SGCO", "SGEN", "SGES", "SKAR", "SKBG", "SKBO", "SKBQ", "SKCC", "SKCG", "SKCL", "SKLT", "SKPE", "SKRG", "SKSM", "SKSP", "SLAL", "SLCB", "SLCO", "SLET", "SLLP", "SLTJ", "SLTR", "SLVR", "SMJP", "SMZO", "SOCA", "SPCL", "SPEO", "SPGM", "SPHI", "SPHO", "SPHY", "SPJC", "SPJI", "SPJL", "SPJR", "SPLO", "SPME", "SPMS", "SPNC", "SPPY", "SPQT", "SPQU", "SPRU", "SPSO", "SPST", "SPTN", "SPTU", "SPYL", "SPZO", "SUAA", "SUCA", "SUDU", "SULS", "SUMU", "SURV", "SUSO", "SVBC", "SVJC", "SVMC", "SVMG", "SVMI", "SVPR", "SVSA", "SVVA", "SYCJ", "SYEC", "TAPA", "TBPB", "TDPD", "TFFF", "TFFR", "TGPY", "TIST", "TISX", "TJBQ", "TJPS", "TJSJ", "TKPK", "TKPN", "TLPC", "TLPL", "TNCA", "TNCB", "TNCC", "TNCM", "TQPF", "TRPG", "TTCP", "TTPP", "TUPJ", "TVSA", "TXKF", "UAAA", "UACC", "UADD", "UAII", "UAIT", "UAKD", "UAKK", "UAOO", "UARR", "UASK", "UASP", "UASS", "UATE", "UATG", "UATT", "UAUU", "UBBB", "UBBG", "UBBL", "UBBN", "UBBQ", "UBBY", "UBEE", "UCFL", "UCFM", "UCFO", "UDSG", "UDYZ", "UEEE", "UERP", "UERR", "UGKO", "UGSB", "UGTB", "UHBB", "UHHH", "UHMA", "UHMD", "UHMM", "UHPP", "UHSS", "UHWW", "UIAA", "UIBB", "UIII", "UIUU", "ULAA", "ULLI", "ULMM", "ULOO", "ULPB", "ULWC", "UMGG", "UMII", "UMKK", "UMMS", "UNAA", "UNBB", "UNEE", "UNKL", "UNNT", "UNOO", "UNTT", "UNWW", "UOOO", "URKA", "URKK", "URMG", "URML", "URMM", "URMN", "URMT", "URRP", "URSS", "URWA", "URWW", "USCC", "USCM", "USHH", "USNN", "USPP", "USRR", "USSS", "USTR", "UTAA", "UTAK", "UTAM", "UTAT", "UTAV", "UTDD", "UTDK", "UTDL", "UTDT", "UTFF", "UTFN", "UTNN", "UTNU", "UTSA", "UTSB", "UTSK", "UTSS", "UTST", "UTTT", "UUBC", "UUBW", "UUDD", "UUDL", "UUEE", "UUMO", "UUOB", "UUOK", "UUOL", "UUOO", "UUWW", "UUYY", "UWGG", "UWKD", "UWKE", "UWKS", "UWLL", "UWLW", "UWOO", "UWOR", "UWPS", "UWSG", "UWUU", "UWWW", "VAAH", "VAAU", "VABB", "VABJ", "VABO", "VABP", "VABV", "VADU", "VAID", "VAJB", "VAJM", "VAKP", "VANP", "VAOZ", "VAPO", "VAPR", "VARK", "VASD", "VASL", "VASU", "VAUD", "VCBI", "VCRI", "VDPP", "VDSR", "VDSV", "VEAB", "VEAN", "VEAT", "VEBD", "VEBI", "VEBN", "VEBS", "VECC", "VECO", "VEDG", "VEDZ", "VEGK", "VEGT", "VEGY", "VEIM", "VEJH", "VEJS", "VEJT", "VEKO", "VELP", "VELR", "VEMN", "VEMR", "VEPT", "VERC", "VERP", "VERU", "VETJ", "VETZ", "VEZO", "VGEG", "VGHS", "VHHH", "VIAG", "VIAR", "VIBR", "VIBT", "VICG", "VIDN", "VIDP", "VIGG", "VIGR", "VIJO", "VIJP", "VIJU", "VIKO", "VILH", "VILK", "VISM", "VISR", "VLLB", "VLLN", "VLPS", "VLSK", "VLVT", "VMMC", "VNKT", "VOAR", "VOBG", "VOBL", "VOBM", "VOBZ", "VOCB", "VOCI", "VOCL", "VOCP", "VOGB", "VOGO", "VOHB", "VOHS", "VOHY", "VOJV", "VOKN", "VOKU", "VOLT", "VOMD", "VOML", "VOMM", "VOMY", "VOND", "VOPB", "VORY", "VOTP", "VOTR", "VOTV", "VOVZ", "VRMG", "VRMH", "VRMM", "VTBD", "VTBO", "VTBS", "VTBU", "VTCC", "VTCH", "VTCL", "VTCN", "VTCP", "VTCT", "VTPB", "VTPH", "VTPM", "VTPO", "VTPP", "VTSB", "VTSC", "VTSE", "VTSF", "VTSG", "VTSM", "VTSP", "VTSR", "VTSS", "VTST", "VTUD", "VTUI", "VTUK", "VTUL", "VTUO", "VTUQ", "VTUU", "VTUV", "VTUW", "VVCI", "VVCR", "VVCT", "VVDN", "VVNB", "VVPB", "VVPQ", "VVTS", "VYMD", "VYNT", "VYYY", "WAAA", "WABB", "WADD", "WADL", "WALL", "WALS", "WAMM", "WAOO", "WAPP", "WAQA", "WAQD", "WAQJ", "WAQQ", "WAQT", "WARR", "WATT", "WBGB", "WBGG", "WBGR", "WBGS", "WBKK", "WBKL", "WBKS", "WBKW", "WBSB", "WIDD", "WIEE", "WIHH", "WIII", "WIMM", "WIPB", "WIPP", "WIPY", "WITT", "WMAP", "WMBT", "WMKA", "WMKB", "WMKC", "WMKE", "WMKI", "WMKJ", "WMKK", "WMKL", "WMKM", "WMKN", "WMKP", "WMPA", "WMSA", "WPDL", "WSAP", "WSSL", "WSSS", "YAMB", "YBAS", "YBBN", "YBCG", "YBCS", "YBHM", "YBLN", "YBMA", "YBRK", "YBRM", "YBTL", "YBWW", "YCFS", "YFRT", "YGEL", "YGLA", "YHID", "YLHI", "YMAV", "YMHB", "YMLT", "YMML", "YPAD", "YPCC", "YPDN", "YPEA", "YPJT", "YPKG", "YPLM", "YPPD", "YPPH", "YPTN", "YPWR", "YPXM", "YSCB", "YSDU", "YSNF", "YSRI", "YSSY", "YSTW", "YWLM", "ZBAA", "ZBAD", "ZBHH", "ZBSJ", "ZBTJ", "ZBYN", "ZGGG", "ZGHA", "ZGKL", "ZGNN", "ZGOW", "ZGSZ", "ZHCC", "ZHHH", "ZJHK", "ZJSY", "ZKPY", "ZKWS", "ZLLL", "ZLXY", "ZMCK", "ZMUB", "ZPPP", "ZSAM", "ZSFZ", "ZSHC", "ZSJN", "ZSNB", "ZSNJ", "ZSOF", "ZSPD", "ZSQD", "ZSSS", "ZUCK", "ZUGY", "ZUUU", "ZWSH", "ZWWW", "ZYCC", "ZYHB", "ZYTL", "ZYTX"], "raw_text": ["TAF AGGA 192310Z 2000/2024 16008KT 9999 SCT020 PROB40 INTER 2003/2007 8000 SHRA BKN016 Q1009 1007 1006 1009", "TAF AGGC 192310Z 2000/2024 11008KT 9999 FEW020 Q 1010 1008 1007 1010", "TAF AGGH 192310Z 2000/2024 07012KT 9999 SCT020 T 31 32 30 28 Q 1010 1008 1007 1010", "TAF AGGK 192310Z 2000/2024 11015KT 9999 SCT020 PROB40 INTER 2000/2006 8000 SHRA BKN017", "TAF AGGL 192310Z 2000/2024 09015KT 9999 SCT020 PROB40 INTER 2000/2006 8000 SHRA BKN017 Q1012 1010 1009 1011", "TAF AGGM 192310Z 2000/2024 09008KT 9999 SCT020 Q 1011 1009 1008 1010", "TAF AGGN 192310Z 2000/2024 11008KT 9999 SCT020 Q 1011 1009 1008 1010", "TAF AGGR 192310Z 2000/2024 14015KT 9999 SCT020", "TAF ANYN 192241Z 2000/2100 08010KT 9999 SCT020 T 31 30 28 26 Q 1011 1009 1010 1012", "TAF AYPY 192230Z 2000/2100 29006KT 9999 -SHRA SCT017 BKN045 INTER 2000/2010 5000 TSRA BKN010 FEW018CB", "TAF BGSF 192254Z 2000/2101 VRB05KT 9999 SCT040 TEMPO 2000/2008 6000 -SHSN BKN024 TEMPO 2018/2101 BKN060", "TAF BGTL 191900Z 1919/2101 11009KT 9999 FEW040 QNH3011INS BECMG 2005/2006 10010G15KT 9999 FEW030 510002 QNH3023INS BECMG 2010/2011 10015G25KT 9999 FEW030 SCT060 520004 QNH3010INS TEMPO 2015/2017 10020G30KT 8000 BLSN TXM05/2019Z TNM14/2003Z LAST NO AMDS AFT 1919 NEXT 2011", "TAF BKPR 192330Z 2000/2024 35005KT 9999 SCT040 BECMG 2002/2004 2000 BR PROB30 2004/2006 0500 BCFG BECMG 2007/2009 CAVOK", "TAF CBBC 200040Z 2001/2005 VRB03KT P6SM FEW012 BKN090 TEMPO 2001/2005 2SM -RA BR SCT008 BKN012 OVC090 RMK FCST BASED ON AUTO OBS. NXT FCST BY 201300Z", "TAF CWWU 191800Z 1918/2018 14008KT P6SM SCT020 FM192100 14008KT P6SM SCT008 TEMPO 1921/2004 P6SM BKN008 FM200400 15010KT P6SM BKN007 TEMPO 2004/2011 2SM BR BKN004 FM201100 16012G22KT P6SM BKN010 FM201400 17015G25KT P6SM BKN015 RMK NXT FCST BY 200000Z", "TAF AMD CYAM 192209Z 1922/2008 33010G20KT 3SM -SHRASN BKN015 OVC025 TEMPO 1922/2001 3/4SM -SHSN BKN006 FM200100 34010KT 3SM -SHSN OVC015 TEMPO 2001/2008 1 1/2SM -SHSN OVC006 RMK NXT FCST BY 200200Z", "TAF CYAW 191740Z 1918/2006 14020G30KT 1SM BR BKN004 OVC025 TEMPO 1918/1919 6SM -SHRA BR SCT004 OVC025 FM191900 17017G27KT P6SM SCT004 OVC025 TEMPO 1919/1923 3SM -SHRA BR OVC004 FM192300 17020G30KT 4SM -SHRA BR OVC004 TEMPO 1923/2002 1/2SM -DZ FG OVC002 PROB30 1923/2002 1SM TSRA BR BKN004 OVC020CB FM200200 19012KT 5SM -SHRA BR OVC008 TEMPO 2002/2005 1SM -DZ BR OVC003 FM200500 29012KT P6SM BKN020 OVC040 RMK NXT FCST BY 200000Z", "TAF AMD CYAY 192030Z 1920/2008 08008KT 1SM BR OVC004 TEMPO 1920/1923 6SM BR OVC010 FM192300 11012KT 3/4SM BR OVC003 TEMPO 1923/2002 6SM BR OVC005 BECMG 2000/2002 13015G25KT RMK FCST BASED ON AUTO OBS. NXT FCST BY 200200Z", "TAF CYBC 191940Z 1920/2008 10012G22KT 6SM -SHRA BR FEW005 OVC025 TEMPO 1920/1924 2SM -RA BR BKN005 OVC020 BECMG 1920/1922 23010KT FM200000 24010KT 6SM BR FEW004 OVC040 TEMPO 2000/2008 2SM -RA BR BKN004 OVC040 RMK FCST BASED ON AUTO OBS. NXT FCST BY 200200Z", "TAF CYBG 192340Z 2000/2024 VRB03KT P6SM SCT050 BKN080 TEMPO 2000/2005 P6SM VCSH FEW025 BKN050 FM200500 VRB03KT P6SM SCT025 BKN050 FM201300 09005KT P6SM BKN050 OVC200 BECMG 2015/2017 26012KT BECMG 2021/2023 VRB03KT RMK NXT FCST BY 200300Z", "TAF CYBK 192350Z 2000/2012 20005KT P6SM SCT008 BKN015 BECMG 2006/2008 12015KT FM200800 12015KT P6SM SCT008 BKN015 TEMPO 2008/2012 4SM -SN BKN008 OVC015 PROB30 2008/2012 3SM -FZDZ RMK NXT FCST BY 200600Z", "TAF CYBL 200040Z 2001/2004 VRB03KT P6SM SCT070 BKN120 TEMPO 2001/2004 FEW030 BKN070 RMK NXT FCST BY 201500Z", "TAF CYBR 192340Z 2000/2012 VRB03KT P6SM SCT230 BECMG 2008/2010 28008KT RMK NXT FCST BY 200600Z", "TAF CYBW 192341Z 2000/2004 29012G22KT P6SM SKC FM200200 28010KT P6SM FEW100 SCT240 RMK FCST BASED ON AUTO OBS. NXT FCST BY 201200Z", "TAF AMD CYBX 200108Z 2001/2008 09015G25KT 1SM BR OVC003 TEMPO 2001/2008 4SM -RA BR OVC007 RMK NXT FCST BY 200200Z", "TAF CYCA 191941Z 1920/2008 16008KT P6SM SCT100 FM200000 15010G20KT P6SM FEW015 BKN140 TEMPO 2000/2002 BKN015 FM200200 15012G22KT 3SM BR OVC004 TEMPO 2002/2004 P6SM NSW OVC010 RMK FCST BASED ON AUTO OBS. NXT FCST BY 200200Z", "TAF CYCB 200040Z 2001/2013 36005KT P6SM SCT006 BKN015 TEMPO 2001/2013 P6SM -SN OVC006 BECMG 2003/2005 03012KT RMK NXT FCST BY 200700Z", "TAF CYCD 192340Z 2000/2004 02005KT P6SM SCT210 BECMG 2002/2004 VRB03KT RMK NXT FCST BY 201500Z", "TAF CYCG 200040Z 2001/2004 VRB03KT P6SM SCT230 RMK NXT FCST BY 201500Z", "TAF CYCO 200040Z 2001/2013 05020G30KT 3SM -RASN OVC008 TEMPO 2001/2004 2SM -SN BR OVC005 FM200400 04020G30KT 5SM -SN BR OVC005 TEMPO 2004/2009 2SM -SN BR OVC003 PROB30 2007/2009 1SM -FZDZ BR OVC002 FM200900 02015KT 4SM -SN SCT005 OVC010 TEMPO 2009/2013 2SM -SN BR OVC005 PROB30 2009/2013 1SM -FZDZ BR OVC002 RMK NXT FCST BY 200700Z", "TAF AMD CYCX 192304Z 1923/2009 19010KT P6SM FEW020 BKN060 BKN260 TEMPO 1923/2003 5SM -SHRA BR SCT020 OVC060 RMK NXT FCST BY 200300Z", "TAF CYCY 200040Z 2001/2013 18010KT P6SM FEW060 BKN090 TEMPO 2001/2009 P6SM -SN BKN060 OVC090 FM200900 16015KT P6SM SCT020 BKN100 TEMPO 2009/2013 BKN020 OVC100 RMK FCST BASED ON AUTO OBS. NXT FCST BY 200700Z", "TAF CYDB 192340Z 2000/2012 33005KT P6SM OVC020 TEMPO 2000/2012 BKN025 BECMG 2010/2012 14007KT RMK FCST BASED ON AUTO OBS. NXT FCST BY 200600Z", "TAF CYDF 191941Z 1920/2008 08010KT P6SM BKN030 TEMPO 1920/2006 BKN020 FM200600 17012KT P6SM OVC012 TEMPO 2006/2008 OVC008 RMK NXT FCST BY 200200Z", "TAF CYDN 192340Z 2000/2012 05006KT P6SM SCT200 BECMG 2001/2003 23006KT BECMG 2006/2008 23010KT RMK FCST BASED ON AUTO OBS. NXT FCST BY 200600Z", "TAF CYDQ 200040Z 2001/2005 23015G25KT P6SM FEW060 SCT240 RMK FCST BASED ON AUTO OBS. NXT FCST BY 201300Z", "TAF CYED 191744Z 1918/2006 VRB03KT P6SM SCT270 FM200100 26005KT P6SM BKN100 OVC200 RMK NXT FCST BY 200000Z", "TAF CYEG 192341Z 2000/2024 26008KT P6SM FEW090 BKN250 FM200300 26008KT P6SM BKN090 BKN250 FM201300 31015G25KT P6SM -SHRA BKN020 OVC080 FM201600 31020G30KT P6SM SCT040 RMK NXT FCST BY 200300Z", "TAF CYEK 192352Z 2000/2012 VRB03KT P6SM BKN020 TEMPO 2000/2003 P6SM -SHRA BECMG 2001/2003 17012KT FM200300 17012KT P6SM SCT006 BKN020 TEMPO 2003/2012 P6SM -RASN BKN008 OVC015 RMK NXT FCST BY 200600Z", "TAF CYEU 192342Z 2000/2002 09008KT 1SM BR BKN015 TEMPO 2000/2002 3SM BR FEW015 RMK ADVISORY OFFSITE. NXT FCST BY 201100Z", "TAF CYEV 200040Z 2001/2013 04008KT P6SM SCT009 OVC080 TEMPO 2001/2013 3SM -SN BR BKN008 OVC060 RMK NXT FCST BY 200700Z", "TAF AMD CYFB 200012Z 2000/2024 15022G32KT P6SM FEW020 SCT100 TEMPO 2000/2003 BKN020 FM200300 13020G30KT P6SM SCT015 BKN030 TEMPO 2003/2005 5SM -SN BKN015 OVC030 FM200500 13018G28KT 5SM -SN BR SCT008 BKN015 TEMPO 2005/2015 2SM -SN BKN008 OVC015 FM201500 12015G25KT P6SM -RASN BKN015 TEMPO 2015/2024 4SM -SN RMK NXT FCST BY 200600Z", "TAF AMD CYFC 200005Z 2000/2012 21011KT P6SM SCT015 OVC060 TEMPO 2000/2001 VRB10G20KT 3SM TSRA BR BKN015 OVC050CB FM200100 17008KT P6SM SCT015 OVC080 TEMPO 2001/2006 BKN015 OVC060 FM200600 20008KT P6SM SCT015 BECMG 2010/2012 21008G18KT RMK FCST BASED ON AUTO OBS. NXT FCST BY 200600Z", "TAF CYFS 192340Z 2000/2012 25012KT P6SM SCT080 SCT120 BECMG 2007/2009 30005KT RMK NXT FCST BY 200600Z", "TAF CYGK 191941Z 1920/2003 23012G22KT P6SM SCT015 BKN030 TEMPO 1920/2003 5SM -SHRA BR BKN015 PROB30 1920/1924 VRB15G25KT 2SM TSRA BR BKN015 OVC030CB RMK NXT FCST BY 201200Z", "TAF CYGL 192340Z 2000/2024 VRB03KT P6SM SCT020 BKN030 TEMPO 2000/2004 BKN020 FM200400 20005KT P6SM FEW010 BKN080 PROB30 2004/2006 2SM BR FM200600 22005KT P6SM SCT006 BKN030 TEMPO 2006/2009 2SM -DZ BR BKN006 FM200900 21008KT 6SM BR SCT003 OVC012 TEMPO 2009/2013 3/4SM -DZ BR BKN003 FM201300 20012KT 3SM -RA -DZ BR OVC005 FM201600 20015G25KT 6SM -RA BR FEW008 OVC015 FM202100 21015G25KT P6SM -RASN OVC012 RMK NXT FCST BY 200600Z", "TAF AMD CYGP 200007Z 2000/2008 04008G18KT P6SM FEW010 OVC090 TEMPO 2000/2005 5SM SHRA BKN008 OVC060 FM200500 27007KT 6SM -RA BR SCT005 OVC050 TEMPO 2005/2008 4SM -RA BR BKN005 OVC030 RMK NXT FCST BY 200200Z", "TAF CYGQ 191940Z 1920/2008 32012KT P6SM SKC FM200000 34012G22KT P6SM FEW020 BKN080 TEMPO 2000/2008 6SM -SN OVC020 RMK FCST BASED ON AUTO OBS. NXT FCST BY 200200Z", "TAF CYGR 191940Z 1920/2002 12012G22KT P6SM FEW015 OVC090 TEMPO 1920/1922 5SM -SHRA BR BKN015 OVC090 FM192200 13015G25KT P6SM -SHRA FEW007 SCT015 OVC060 TEMPO 1922/2002 4SM -RA BR BKN007 OVC015 RMK NXT FCST BY 201100Z", "TAF AMD CYGV 200106Z 2001/2008 11012G22KT 2SM -RA BR OVC005 TEMPO 2001/2002 6SM -RA BR SCT005 OVC010 PROB30 2001/2002 3/4SM -RA -DZ BR OVC002 FM200200 10020G30KT 3/4SM -RA -DZ BR VV002 TEMPO 2002/2008 3SM RA BR OVC003 RMK FCST BASED ON AUTO OBS. NXT FCST BY 200200Z", "TAF CYGW 192340Z 2000/2012 VRB03KT P6SM OVC040 TEMPO 2000/2002 5SM -DZ BR OVC015 FM200200 36006KT 6SM -RA BR OVC012 TEMPO 2002/2006 2SM -RA BR OVC006 FM200600 29010KT 1 1/2SM -RA BR OVC005 TEMPO 2006/2012 4SM -RA BR OVC010 BECMG 2006/2008 24015G25KT RMK FCST BASED ON AUTO OBS. NXT FCST BY 200600Z", "TAF CYGX 200040Z 2001/2013 VRB03KT P6SM OVC015 TEMPO 2001/2005 5SM -DZ BR OVC008 FM200500 VRB03KT P6SM OVC006 TEMPO 2005/2008 2SM BR OVC003 PROB30 2005/2008 3/4SM BR OVC002 FM200800 20008KT 3SM BR OVC005 TEMPO 2008/2013 3/4SM BR OVC002 RMK NXT FCST BY 200700Z", "TAF CYHD 191940Z 1920/2008 24005KT P6SM BKN070 FM200000 30006KT P6SM SCT070 TEMPO 2000/2008 BKN070 BECMG 2004/2006 33008KT RMK FCST BASED ON AUTO OBS. NXT FCST BY 200200Z", "TAF CYHK 192340Z 2000/2012 27025G35KT P6SM SCT008 BKN015 TEMPO 2000/2012 2SM -SN BR BKN008 OVC015 BECMG 2006/2008 28008KT RMK NXT FCST BY 200600Z", "TAF CYHM 192340Z 2000/2024 25012G22KT 5SM -SHRA BR SCT008 OVC015 TEMPO 2000/2004 P6SM NSW OVC025 FM200400 24012G22KT P6SM BKN015 TEMPO 2004/2008 BKN025 FM200800 24012G22KT P6SM SCT015 FM201200 25012G22KT P6SM FEW025 BKN100 FM201600 25012G22KT P6SM FEW030 OVC100 TEMPO 2016/2022 6SM -SHRA BR BKN020 OVC080 RMK NXT FCST BY 200600Z", "TAF CYHU 192340Z 2000/2024 23005KT P6SM BKN050 OVC090 TEMPO 2000/2001 P6SM -SHRA SCT020 OVC050 FM200100 19008KT P6SM BKN050 FM200600 18010KT P6SM OVC040 TEMPO 2006/2014 P6SM -SHRA SCT020 OVC040 BECMG 2010/2012 20012G22KT FM201400 20012G22KT P6SM BKN040 BECMG 2018/2020 22012KT RMK FCST BASED ON AUTO OBS. NXT FCST BY 200600Z", "TAF CYHY 192340Z 2000/2012 22012KT P6SM SCT080 BKN200 BECMG 2001/2003 25010KT FM200600 25010KT P6SM BKN080 RMK NXT FCST BY 200600Z", "TAF AMD CYHZ 192344Z 2000/2024 15012G22KT 1SM SHRA BR VV002 TEMPO 2000/2003 4SM BR OVC005 PROB30 2000/2003 VRB15G25KT 1/8SM TSRA FG BKN001 OVC010CB FM200300 17015KT 3/4SM -RA BR OVC002 TEMPO 2003/2006 2SM -RA BR OVC004 PROB30 2003/2006 1/8SM RA FG VV001 FM200600 32007KT 2SM -RA BR OVC003 TEMPO 2006/2009 6SM BR SCT003 OVC012 FM200900 27008KT P6SM SCT008 BKN050 TEMPO 2009/2014 BKN008 OVC050 FM201500 24010KT P6SM FEW020 FM202000 20008KT P6SM BKN030 TEMPO 2020/2024 BKN020 RMK NXT FCST BY 200300Z", "TAF CYIO 200040Z 2001/2013 05012KT 2SM -SN BKN020 OVC030 TEMPO 2001/2009 P6SM -SN SCT020 BKN030 FM200900 08015KT P6SM SCT020 BKN030 TEMPO 2009/2013 5SM -SN BKN020 OVC030 RMK FCST BASED ON AUTO OBS. NXT FCST BY 200700Z", "TAF CYIV 200040Z 2001/2013 35006KT P6SM SKC BECMG 2002/2004 04006KT BKN006 FM200500 VRB03KT P6SM OVC006 TEMPO 2005/2009 2SM BR OVC003 PROB30 2005/2009 3/4SM BR OVC002 FM200900 VRB03KT 3/4SM BR OVC002 BECMG 2011/2013 21010KT RMK FCST BASED ON AUTO OBS. NXT FCST BY 200700Z", "TAF CYJT 192340Z 2000/2024 11012G22KT P6SM SCT020 BKN040 TEMPO 2000/2008 BKN020 OVC040 FM200800 13025G40KT 5SM -RA BR OVC020 TEMPO 2008/2015 4SM -RA BR OVC007 FM201500 17020G40KT 5SM -RA BR OVC015 BECMG 2016/2018 26012KT FM201800 26012KT 3SM -RA BR BKN006 FM202100 24008KT P6SM BKN010 RMK NXT FCST BY 200600Z", "TAF CYKA 200040Z 2001/2013 VRB03KT P6SM FEW190 FM201000 27010KT P6SM SCT040 BKN080 TEMPO 2010/2013 P6SM -SHRA BKN040 OVC080 RMK NXT FCST BY 200700Z", "TAF CYKF 191940Z 1920/2008 27012G22KT P6SM SCT015 OVC025 TEMPO 1920/2002 5SM -SHRA BR OVC015 FM200200 25012G22KT P6SM SCT007 BKN025 TEMPO 2002/2008 5SM -SHRASN BR BKN007 OVC020 RMK FCST BASED ON AUTO OBS. NXT FCST BY 200200Z", "TAF CYKL 191941Z 1920/2008 13012G22KT P6SM FEW008 OVC070 TEMPO 1920/1923 5SM -RA BR OVC015 PROB30 1921/1923 OVC008 FM192300 13015G30KT 3SM -RA BR OVC004 TEMPO 1923/2008 6SM -RA BR OVC010 RMK FCST BASED ON AUTO OBS. NXT FCST BY 200200Z", "TAF CYLL 192341Z 2000/2012 23010KT P6SM BKN260 FM200500 26012KT P6SM BKN100 BKN200 RMK NXT FCST BY 200600Z", "TAF AMD CYLT 191915Z 1919/2006 VRB03KT P6SM SCT020 BKN040 TEMPO 1919/1924 3SM -SN FEW005 BKN015 OVC040 FM200000 VRB03KT P6SM BKN050 RMK NXT FCST BY 200000Z", "TAF CYLW 200040Z 2001/2013 16005KT P6SM SKC RMK FCST BASED ON AUTO OBS. NXT FCST BY 200700Z", "TAF CYMA 192340Z 2000/2012 02005KT P6SM SCT030 BKN060 TEMPO 2000/2004 P6SM -SHRA FEW008 BKN030 OVC060 FM200400 VRB03KT 3SM -SN BR SCT006 OVC015 TEMPO 2004/2012 P6SM NSW FEW006 SCT015 OVC030 PROB30 2008/2012 2SM -FZDZ BR OVC006 RMK NXT FCST BY 200600Z", "TAF AMD CYMH 200043Z 2000/2003 16005KT 1SM -RA BR BKN004 TEMPO 2000/2003 6SM BR OVC007 RMK FCST BASED ON AUTO OBS. NXT FCST BY 200900Z", "TAF CYMJ 192340Z 2000/2012 VRB03KT P6SM FEW280 BECMG 2010/2012 24012KT RMK NXT FCST BY 200600Z", "TAF CYMM 200040Z 2001/2013 24012KT P6SM BKN150 FM200300 26010KT P6SM SCT070 BKN220 TEMPO 2003/2013 BKN070 BKN220 RMK FCST BASED ON AUTO OBS. NXT FCST BY 200700Z", "TAF CYMO 192343Z 2000/2012 17008KT P6SM SCT010 TEMPO 2000/2003 BKN010 PROB30 2000/2003 BKN008 FM200300 20005KT P6SM OVC010 TEMPO 2003/2012 3SM BR OVC008 PROB30 2003/2012 OVC006 RMK FCST BASED ON AUTO OBS. NXT FCST BY 200600Z", "TAF CYMX 192340Z 2000/2024 VRB03KT P6SM BKN050 TEMPO 2000/2002 P6SM -SHRA SCT020 OVC050 FM200200 VRB03KT P6SM BKN040 FM200600 16005KT P6SM SCT008 OVC025 TEMPO 2006/2010 6SM -SHRA BR BKN008 OVC025 FM201000 21010KT 6SM -SHRA BR OVC015 BECMG 2010/2012 21010G20KT FM202100 22010KT P6SM OVC040 RMK NXT FCST BY 200600Z", "TAF AMD CYNA 192351Z 1923/2008 11015G25KT 6SM -RA BR SCT003 OVC010 TEMPO 1923/2002 2SM -RA -DZ BR OVC003 FM200200 12020G30KT 3/4SM -RA BR OVC003 TEMPO 2002/2008 3SM RA BR OVC008 RMK FCST BASED ON AUTO OBS. NXT FCST BY 200200Z", "TAF CYNE 200040Z 2001/2013 VRB03KT P6SM SCT240 FM200900 17006KT P6SM BKN150 BECMG 2011/2013 20010KT RMK FCST BASED ON AUTO OBS. NXT FCST BY 200700Z", "TAF CYOD 192340Z 2000/2024 24005KT P6SM BKN250 FM200200 26008KT P6SM SCT100 BKN200 FM200900 27012KT P6SM BKN080 OVC150 TEMPO 2012/2016 P6SM -SHRA OVC060 FM201700 29015G25KT P6SM SCT060 BECMG 2022/2024 30015KT RMK NXT FCST BY 200300Z", "TAF CYOJ 200040Z 2001/2013 24005KT P6SM FEW100 FM200600 26006KT P6SM FEW070 BKN120 FM201000 29010KT P6SM BKN070 RMK NXT FCST BY 200700Z", "TAF CYOO 191940Z 1920/2008 22010G20KT P6SM FEW020 BKN030 TEMPO 1920/2003 5SM -SHRA BR BKN020 FM200300 24010G20KT P6SM -SHRA OVC020 TEMPO 2003/2008 3SM -SHRA BR OVC008 PROB30 2004/2006 OVC006 RMK FCST BASED ON AUTO OBS. NXT FCST BY 200200Z", "TAF CYOW 192340Z 2000/2024 15005KT P6SM SCT020 OVC040 TEMPO 2000/2002 P6SM -SHRA OVC020 FM200200 16005KT P6SM SCT009 OVC020 TEMPO 2002/2005 5SM -DZ BR BKN009 OVC020 FM200500 21008KT P6SM -SHRA OVC015 TEMPO 2005/2009 P6SM NSW OVC025 FM200900 21008KT P6SM SCT025 BKN070 FM201500 22012G22KT P6SM -SHRA BKN040 FM202100 22012G22KT 6SM -SHRA OVC020 RMK NXT FCST BY 200300Z", "TAF AMD CYOY 200039Z 2000/2012 22008KT P6SM SCT030 OVC070 TEMPO 2000/2003 5SM -SHRA BR BKN015 OVC030 FM200300 VRB03KT P6SM SCT030 BKN070 TEMPO 2003/2009 BKN030 OVC070 FM200900 VRB03KT P6SM -SHRA SCT020 BKN030 RMK NXT FCST BY 200600Z", "TAF CYPA 200040Z 2001/2013 VRB03KT P6SM SCT240 BECMG 2001/2003 23008KT FM200800 28008KT P6SM BKN120 RMK NXT FCST BY 200700Z", "TAF CYPE 200040Z 2001/2013 25015G25KT P6SM BKN160 BECMG 2004/2006 27012KT RMK NXT FCST BY 200700Z", "TAF CYPG 192340Z 2000/2012 33010KT P6SM BKN280 BECMG 2000/2002 29005KT RMK NXT FCST BY 200600Z", "TAF CYPH 192340Z 2000/2012 07015G25KT P6SM SCT012 BKN030 OVC080 TEMPO 2000/2006 3SM -DZ BR BKN006 OVC012 PROB30 2000/2006 2SM -DZ BR FM200600 05015G25KT 3SM -DZ BR OVC006 TEMPO 2006/2010 6SM BR OVC012 FM201000 04015G25KT 2SM -RA BR OVC005 RMK FCST BASED ON AUTO OBS. NXT FCST BY 200600Z", "TAF CYPL 191940Z 1920/2008 29010KT P6SM BKN070 BECMG 2000/2002 34008KT RMK FCST BASED ON AUTO OBS. NXT FCST BY 200200Z", "TAF CYPQ 191941Z 1920/2002 20012KT P6SM SCT020 BKN030 TEMPO 1920/2002 5SM -SHRA BR BKN020 PROB30 1920/1924 VRB15G25KT 2SM TSRA BR BKN015 OVC030CB RMK FCST BASED ON AUTO OBS. NXT FCST BY 201000Z", "TAF CYPR 200040Z 2001/2013 16008KT P6SM SCT040 OVC060 TEMPO 2001/2003 FEW020 BKN040 BECMG 2001/2003 24008KT FM200300 27006KT P6SM FEW006 SCT020 TEMPO 2003/2013 3SM -DZ BR SCT006 BKN020 PROB30 2007/2013 1/2SM FG VV002 RMK NXT FCST BY 200700Z", "TAF CYPX 192340Z 2000/2012 08015G25KT P6SM OVC100 BECMG 2002/2004 04018KT FM200500 04018KT P6SM SCT015 OVC100 TEMPO 2005/2012 P6SM -RA BKN015 OVC100 RMK NXT FCST BY 200600Z", "TAF CYPY 192340Z 2000/2006 20010KT P6SM BKN150 BECMG 2000/2002 27010KT RMK FCST BASED ON AUTO OBS. NXT FCST BY 201200Z", "TAF AMD CYQA 192318Z 1923/2002 24006KT P6SM SCT008 BKN025 TEMPO 1923/2002 5SM -SHRA BKN008 OVC025 PROB30 1923/2002 OVC007 RMK FCST BASED ON AUTO OBS. NXT FCST BY 201200Z", "TAF CYQB 192340Z 2000/2024 VRB03KT P6SM SCT060 FM200100 VRB03KT P6SM BKN060 TEMPO 2001/2003 P6SM -SHRA SCT020 OVC060 FM200300 VRB03KT P6SM BKN040 FM200900 VRB03KT P6SM -SHRA BKN030 BECMG 2012/2014 22010G20KT BECMG 2016/2018 23012KT RMK NXT FCST BY 200600Z", "TAF CYQD 200040Z 2001/2013 30006KT P6SM SCT240 BECMG 2001/2003 18006KT FM200500 18008KT P6SM BKN170 FM201100 23010KT P6SM BKN080 RMK FCST BASED ON AUTO OBS. NXT FCST BY 200700Z", "TAF CYQF 192341Z 2000/2012 28005KT P6SM SCT240 FM200300 24005KT P6SM SCT100 BKN240 TEMPO 2003/2012 BKN100 BKN240 RMK FCST BASED ON AUTO OBS. NXT FCST BY 200600Z", "TAF CYQG 192340Z 2000/2024 27012G22KT P6SM BKN030 TEMPO 2000/2003 P6SM -SHRA BKN020 OVC030 BECMG 2000/2002 27012KT FM200600 23012KT P6SM BKN030 BECMG 2008/2010 23012G22KT FM201200 23012G22KT P6SM SCT030 BKN120 TEMPO 2016/2022 P6SM -SHRA BKN030 OVC100 RMK FCST BASED ON AUTO OBS. NXT FCST BY 200600Z", "TAF CYQH 192340Z 2000/2012 22005KT P6SM SCT080 BKN120 TEMPO 2000/2003 P6SM -SHRA BKN080 OVC120 BECMG 2000/2002 24010KT RMK NXT FCST BY 200600Z", "TAF AMD CYQI 200103Z 2001/2012 VRB03KT 3SM RA BKN004 OVC050 TEMPO 2001/2003 6SM BR SCT004 BKN050 FM200300 23010G20KT P6SM SCT030 TEMPO 2003/2012 BKN020 BECMG 2006/2008 26010KT RMK NXT FCST BY 200600Z", "TAF CYQK 191940Z 1920/2008 21006KT P6SM FEW070 BECMG 1920/1922 30008KT BECMG 2000/2002 33008KT RMK NXT FCST BY 200200Z", "TAF CYQL 192341Z 2000/2012 26015KT P6SM FEW250 RMK NXT FCST BY 200600Z", "TAF CYQM 192340Z 2000/2024 22012KT P6SM SCT010 OVC060 TEMPO 2000/2003 4SM RA BR BKN008 OVC030 FM200300 23007KT P6SM FEW010 OVC080 TEMPO 2003/2008 5SM -RA BR BKN010 OVC060 PROB30 2003/2008 BKN008 OVC060 FM200800 22008KT P6SM SCT020 TEMPO 2008/2014 BKN020 FM201400 22012G22KT P6SM FEW030 BECMG 2020/2022 19010KT RMK NXT FCST BY 200600Z", "TAF AMD CYQQ 200046Z 2000/2024 VRB03KT P6SM BKN070 BECMG 2001/2003 FEW070 FM201100 32005KT P6SM FEW012 SCT050 BKN120 FM201500 36008KT P6SM FEW050 FM201900 36012KT P6SM SKC RMK NXT FCST BY 200600Z", "TAF CYQR 192340Z 2000/2024 VRB03KT P6SM SKC BECMG 2001/2003 14006KT BECMG 2012/2014 27010KT FM201500 27010KT P6SM SCT150 FM202000 32015KT P6SM SCT100 TEMPO 2020/2024 BKN100 RMK NXT FCST BY 200600Z", "TAF CYQT 191940Z 1920/2008 32010G20KT P6SM FEW240 FM192100 32012G22KT P6SM SCT080 BKN150 TEMPO 1921/2003 BKN080 FM200300 31010KT P6SM OVC060 TEMPO 2003/2008 P6SM -SHSN RMK NXT FCST BY 200200Z", "TAF CYQU 200040Z 2001/2013 24018G28KT P6SM BKN110 BKN220 TEMPO 2001/2009 5SM FU FM200900 25015G25KT P6SM SCT040 BKN120 TEMPO 2009/2012 P6SM -SHRA BKN040 BKN120 FM201200 25015G25KT P6SM FEW040 SCT120 RMK NXT FCST BY 200700Z", "TAF CYQV 192340Z 2000/2006 33006KT P6SM SCT240 BECMG 2000/2002 27006KT BECMG 2004/2006 22008KT RMK FCST BASED ON AUTO OBS. NXT FCST BY 201200Z", "TAF CYQW 192340Z 2000/2012 22006KT P6SM FEW240 BECMG 2004/2006 27006KT FM200700 29008KT P6SM BKN150 FM201000 30006KT P6SM BKN100 RMK FCST BASED ON AUTO OBS. NXT FCST BY 200600Z", "TAF CYQX 192340Z 2000/2024 09007KT 1/8SM FG VV001 TEMPO 2000/2002 1SM BR OVC005 FM200200 14010KT 1/2SM FG VV002 TEMPO 2002/2005 6SM BR SCT002 PROB30 2002/2005 1/4SM FG VV001 FM200500 14012G22KT 1/2SM FG VV002 TEMPO 2005/2008 2SM BR OVC005 FM200800 16012G22KT 1SM BR OVC003 TEMPO 2008/2012 6SM BR OVC006 FM201200 16015G30KT P6SM BKN010 PROB30 2012/2018 OVC008 FM201800 15012G22KT 3SM -RA BR BKN008 OVC012 RMK NXT FCST BY 200600Z", "TAF CYQY 192340Z 2000/2012 14015G25KT 1/2SM -DZ FG VV001 TEMPO 2000/2009 1SM -RA BR OVC003 BECMG 2001/2003 15018KT FM200900 16018KT 3/4SM RA BR OVC002 TEMPO 2009/2012 3SM -RA BR OVC006 PROB30 2009/2012 VV001 RMK NXT FCST BY 200600Z", "TAF CYQZ 200040Z 2001/2006 33005KT P6SM SCT030 OVC060 TEMPO 2001/2004 P6SM -SHRA BKN030 OVC060 FM200400 33008KT P6SM -RA SCT015 OVC030 TEMPO 2004/2006 5SM -SHRA BR OVC015 RMK FCST BASED ON AUTO OBS. NXT FCST BY 201200Z", "TAF CYRB 192340Z 2000/2024 07030KT 3SM BLSN BKN010 OVC200 TEMPO 2000/2009 P6SM NSW SCT010 BECMG 2005/2007 06030KT FM200900 06030KT P6SM SCT015 TEMPO 2009/2024 BKN015 PROB30 2009/2014 3SM BLSN RMK NXT FCST BY 200600Z", "TAF CYRJ 191940Z 1920/2002 VRB03KT P6SM FEW030 BKN100 RMK NXT FCST BY 201200Z", "TAF CYRL 191940Z 1920/2002 25008KT P6SM FEW100 SCT240 BECMG 1922/1924 33008KT BECMG 2000/2002 35012KT RMK NXT FCST BY 201100Z", "TAF CYRQ 191940Z 1920/2008 20010KT P6SM BKN060 TEMPO 1920/2001 P6SM -SHRA RMK FCST BASED ON AUTO OBS. NXT FCST BY 200200Z", "TAF CYRT 192345Z 2000/2012 30006KT P6SM -SHRA BKN020 TEMPO 2000/2009 BKN025 BECMG 2007/2009 15015KT FM200900 15015KT P6SM SCT008 BKN015 TEMPO 2009/2012 5SM -SN BKN008 OVC015 RMK NXT FCST BY 200600Z", "TAF AMD CYSB 192322Z 1923/2008 31010KT 6SM -SN FEW007 OVC030 TEMPO 1923/2008 2SM -SN BKN007 OVC030 PROB30 1923/2005 1 1/2SM -SN RMK NXT FCST BY 200200Z", "TAF CYSF 192340Z 2000/2012 09008KT P6SM FEW030 BKN120 TEMPO 2000/2006 3SM -SHRA BR SCT005 BKN020 BKN050 BECMG 2004/2006 26010KT FM200600 26010KT P6SM SCT060 RMK FCST BASED ON AUTO OBS. NXT FCST BY 200600Z", "TAF AMD CYSJ 192356Z 2000/2012 15008KT P6SM -SHRA FEW020 BKN050 TEMPO 2000/2001 VRB10G20KT 2SM TSRA BR BKN020 OVC050CB FM200100 19008KT P6SM BKN050 OVC100 TEMPO 2001/2006 4SM SHRA BR BKN020 OVC050 PROB30 2001/2006 BKN008 OVC020 FM200600 24008KT P6SM SCT020 TEMPO 2006/2012 BKN020 RMK NXT FCST BY 200600Z", "TAF CYSM 192340Z 2000/2012 25010KT P6SM SCT060 BKN100 BKN160 TEMPO 2000/2003 P6SM -SHRA BKN050 FM200300 25008KT P6SM SCT060 RMK NXT FCST BY 200600Z", "TAF CYTE 200040Z 2001/2013 13015G25KT P6SM SCT008 BKN020 OVC240 TEMPO 2001/2009 BKN025 OVC240 BECMG 2004/2006 15007KT FM200900 15007KT P6SM -SN BKN020 BECMG 2011/2013 10010KT RMK FCST BASED ON AUTO OBS. NXT FCST BY 200700Z", "TAF CYTH 200040Z 2001/2013 VRB03KT P6SM OVC006 TEMPO 2001/2007 2SM BR OVC004 PROB30 2004/2007 3/4SM BR BKN002 FM200700 VRB03KT 3SM BR OVC005 TEMPO 2007/2013 3/4SM BR OVC002 RMK NXT FCST BY 200700Z", "TAF CYTL 191940Z 1920/2008 VRB03KT P6SM BKN070 BECMG 1922/1924 36008KT FM200600 36006KT P6SM SCT070 TEMPO 2006/2008 BKN070 RMK FCST BASED ON AUTO OBS. NXT FCST BY 200200Z", "TAF AMD CYTR 200018Z 2000/2024 22010G20KT P6SM -SHRA SCT010 OVC025 TEMPO 2000/2002 25015G25KT 5SM -SHRA BR BKN015 FM200200 25012G22KT P6SM SCT020 OVC090 TEMPO 2002/2007 25015G25KT BKN020 FM200700 25015G25KT P6SM BKN030 OVC150 BECMG 2012/2014 22018G28KT FM201400 22018G28KT 5SM -SHRA BR BKN012 OVC025 FM202300 22015G25KT P6SM SCT020 BKN030 RMK NXT FCST BY 200600Z", "TAF AMD CYTS 192145Z 1921/2008 32010KT 6SM -SN SCT006 OVC025 TEMPO 1921/2003 1 1/2SM -SN BKN006 OVC020 PROB30 1921/1923 3/4SM -SN VV005 FM200400 27005KT 6SM -SN OVC015 TEMPO 2004/2008 2SM -SN OVC007 RMK NXT FCST BY 200200Z", "TAF AMD CYTZ 192146Z 1921/2020 29012G22KT P6SM BKN030 TEMPO 1921/2005 P6SM -SHRA BKN020 FM200500 26012G22KT P6SM BKN025 TEMPO 2005/2012 BKN020 RMK FCST BASED ON AUTO OBS. NXT FCST BY 200200Z", "TAF CYUB 200040Z 2001/2005 06005KT P6SM FEW006 SCT012 BKN120 TEMPO 2001/2005 3SM -SN BR BKN008 OVC012 RMK NXT FCST BY 201500Z", "TAF CYUL 192340Z 2000/2024 VRB03KT P6SM BKN050 OVC100 TEMPO 2000/2001 P6SM -SHRA SCT020 OVC050 FM200100 18005KT P6SM BKN050 FM200600 18008KT P6SM OVC040 TEMPO 2006/2014 P6SM -SHRA SCT020 OVC040 BECMG 2010/2012 21012G22KT FM201400 21012G22KT P6SM BKN040 BECMG 2018/2020 21012KT RMK NXT FCST BY 200300Z", "TAF CYUX 200040Z 2001/2013 18030G40KT 1/2SM -SN BLSN VV004 TEMPO 2001/2006 2SM -SN BLSN OVC010 BECMG 2004/2006 25014KT FM200600 25015KT P6SM SCT008 BKN015 TEMPO 2006/2013 5SM -SN RMK NXT FCST BY 200700Z", "TAF CYUY 192340Z 2000/2012 VRB03KT P6SM BKN030 TEMPO 2000/2003 6SM -SHRA BR BKN020 FM200300 30005KT 3SM -SHRASN BR OVC008 TEMPO 2003/2007 6SM BR SCT008 OVC015 PROB30 2003/2007 1SM -SHSN OVC006 FM200700 25005KT 2SM -SHSN OVC006 RMK NXT FCST BY 200600Z", "TAF CYVC 200040Z 2001/2013 15006KT P6SM BKN220 BECMG 2003/2005 24008KT FM200500 24008KT P6SM BKN080 FM200800 24008KT P6SM SCT080 BKN150 RMK NXT FCST BY 200700Z", "TAF CYVM 200040Z 2001/2013 VRB03KT P6SM FEW100 BECMG 2002/2004 20008KT RMK FCST BASED ON AUTO OBS. NXT FCST BY 200700Z", "TAF CYVO 192342Z 2000/2012 VRB03KT P6SM SCT015 BKN040 TEMPO 2000/2002 P6SM -SHRA BKN015 OVC040 FM200200 12008KT 4SM -SHRA BR OVC008 TEMPO 2002/2009 6SM BR SCT008 OVC015 PROB30 2002/2009 2SM -SHSNRA OVC006 FM200900 22007KT 2SM -RASN OVC006 RMK NXT FCST BY 200600Z", "TAF CYVP 192340Z 2000/2012 05010G20KT P6SM OVC015 TEMPO 2000/2010 3SM BR OVC008 BECMG 2000/2002 12010G20KT FM201000 12012G22KT P6SM -RA OVC015 TEMPO 2010/2012 4SM -DZ BR OVC008 BECMG 2010/2012 12010KT RMK NXT FCST BY 200600Z", "TAF CYVQ 192340Z 2000/2012 28010G20KT P6SM OVC006 TEMPO 2000/2007 2SM -SN BR OVC003 PROB30 2000/2007 3/4SM -FZDZ BR OVC002 FM200700 30006KT P6SM BKN006 OVC060 TEMPO 2007/2012 3SM -SHRASN BR OVC003 PROB30 2007/2012 3/4SM -FZDZ BR OVC002 RMK NXT FCST BY 200600Z", "TAF CYVR 192340Z 2000/2106 28008KT P6SM SKC TEMPO 2000/2005 5SM FU PROB30 2000/2002 1/2SM FU FG VV002 FM200500 10006KT P6SM FEW060 TEMPO 2005/2010 4SM FU BR FM201000 09006KT 4SM FU SCT050 BKN100 TEMPO 2010/2021 2SM FU BR BKN050 OVC100 PROB30 2014/2018 1/2SM FU FG VV001 FM202100 28010KT P6SM SCT050 TEMPO 2021/2106 5SM FU BKN050 RMK NXT FCST BY 200300Z", "TAF CYVT 192040Z 1921/2004 21012KT P6SM BKN240 RMK FCST BASED ON AUTO OBS. NXT FCST BY 201400Z", "TAF CYWA 192340Z 2000/2024 15008KT P6SM SCT010 BKN025 TEMPO 2000/2004 5SM -SHRA BR BKN010 OVC025 FM200400 21008KT 3SM -SHRA BR SCT006 OVC010 TEMPO 2004/2008 P6SM -SHRA SCT010 BKN020 FM200800 21005KT P6SM VCSH BKN010 BKN040 FM201400 20005KT 6SM -SHRA BR SCT015 BKN025 BECMG 2016/2018 20008G18KT FM202000 22008G18KT P6SM SCT010 BKN025 RMK NXT FCST BY 200600Z", "TAF CYWG 192340Z 2000/2024 30006KT P6SM FEW160 SCT250 FM200900 27006KT P6SM FEW200 TEMPO 2009/2011 4SM BR FM201100 VRB03KT P6SM SCT200 TEMPO 2011/2014 2SM BR PROB30 2011/2014 3/4SM BR FM201400 20008KT P6SM SCT200 TEMPO 2014/2016 2SM BR FM201700 20012KT P6SM BKN140 FM202000 20015KT P6SM BKN100 BECMG 2022/2024 18008KT RMK NXT FCST BY 200600Z", "TAF AMD CYWH 192207Z 1922/2004 VRB03KT P6SM FEW160 SCT230 TEMPO 1922/2004 5SM FU RMK NXT FCST BY 201400Z", "TAF CYWK 191941Z 1920/2008 12012G22KT P6SM BKN060 TEMPO 1920/1921 P6SM -SHRA BKN020 FM192100 13015G25KT P6SM SCT008 BKN040 TEMPO 1921/1924 5SM -RA BR BKN008 OVC040 FM200000 13015G25KT 5SM -RA BR OVC006 TEMPO 2000/2008 6SM BR OVC015 RMK NXT FCST BY 200200Z", "TAF CYWL 200040Z 2001/2013 31008KT P6SM SCT080 BKN230 TEMPO 2001/2004 BKN080 OVC230 FM200400 VRB03KT P6SM BKN060 TEMPO 2004/2008 P6SM -SHRA FM200800 31012G22KT P6SM -RA SCT015 OVC050 TEMPO 2008/2013 6SM -SHRA BR OVC015 RMK NXT FCST BY 200700Z", "TAF CYXC 200040Z 2001/2013 08006KT P6SM FEW210 BECMG 2003/2005 VRB03KT RMK NXT FCST BY 200700Z", "TAF CYXE 192340Z 2000/2024 26005KT P6SM SKC BECMG 2000/2002 17008KT BECMG 2006/2008 23008KT FM201100 24006KT P6SM BKN100 TEMPO 2016/2020 P6SM -SHRA BECMG 2016/2018 31018G28KT FM202200 30018KT P6SM SCT100 RMK NXT FCST BY 200600Z", "TAF CYXH 192342Z 2000/2012 21008KT P6SM SCT270 RMK NXT FCST BY 200600Z", "TAF CYXJ 200040Z 2001/2013 22025G35KT P6SM FEW040 SCT150 BKN200 BECMG 2001/2002 25018G28KT BECMG 2008/2010 25015KT RMK NXT FCST BY 200700Z", "TAF CYXL 191940Z 1920/2008 33008KT P6SM BKN070 BECMG 2000/2002 33006KT FM200600 36006KT P6SM SCT070 TEMPO 2006/2008 BKN070 RMK NXT FCST BY 200200Z", "TAF CYXS 200040Z 2001/2013 19010KT P6SM BKN080 TEMPO 2001/2005 P6SM -RA FM200500 20008KT P6SM -RA SCT020 OVC050 TEMPO 2005/2011 6SM -SHRA BR BKN020 OVC050 FM201100 19010KT P6SM SCT020 BKN040 TEMPO 2011/2013 P6SM -SHRA BKN020 OVC040 RMK FCST BASED ON AUTO OBS. NXT FCST BY 200700Z", "TAF CYXT 200040Z 2001/2013 19015G25KT P6SM FEW008 SCT040 BKN160 TEMPO 2001/2008 P6SM -SHRA SCT008 BKN040 OVC160 FM200800 18010G20KT P6SM SCT008 OVC030 TEMPO 2008/2013 P6SM -SHRA BKN008 OVC030 RMK NXT FCST BY 200700Z", "TAF AMD CYXU 200005Z 2000/2024 25012KT P6SM FEW008 BKN050 TEMPO 2000/2004 4SM -SHRA BR BKN008 OVC050 FM200400 24012KT P6SM -SHRASN SCT008 OVC015 TEMPO 2004/2012 4SM -SHRASN BR BKN008 OVC010 BECMG 2010/2012 23015G25KT FM201200 23015G25KT P6SM BKN020 TEMPO 2012/2014 5SM -SHSNRA BR OVC009 FM201500 23012G22KT P6SM -SHRA OVC020 TEMPO 2015/2024 5SM -SHRA BR OVC010 BECMG 2021/2023 23010KT RMK NXT FCST BY 200600Z", "TAF CYXX 192344Z 2000/2024 23005KT 1 1/2SM FU SKC TEMPO 2000/2007 5SM FU FM200700 21005KT 4SM FU FEW060 TEMPO 2007/2015 1SM FU BR PROB30 2012/2015 1/2SM FG FU VV001 FM201500 17006KT P6SM BKN060 TEMPO 2015/2018 3SM -RA BR FU SCT060 PROB30 2015/2018 1/2SM FG FU VV002 FM201800 22006KT P6SM SCT025 BKN060 TEMPO 2018/2024 4SM BR FU BKN025 RMK NXT FCST BY 200600Z", "TAF CYXY 192340Z 2000/2012 16015G25KT P6SM FEW020 SCT070 BKN180 TEMPO 2000/2010 SCT020 BKN070 OVC180 BECMG 2006/2008 18010KT FM201000 18010KT P6SM FEW040 SCT150 SCT260 RMK NXT FCST BY 200600Z", "TAF AMD CYYB 200007Z 2000/2008 34005KT P6SM FEW012 BKN030 TEMPO 2000/2002 5SM -SHRA BR BKN015 FM200200 27008KT 6SM -SHRASN BR SCT005 OVC020 TEMPO 2002/2008 2 1/2SM -SHSNRA BR OVC005 PROB30 2003/2008 1SM -SHSN BR OVC004 RMK NXT FCST BY 200200Z", "TAF CYYC 192341Z 2000/2024 29012KT P6SM FEW100 SCT240 FM201600 36015G25KT P6SM BKN070 FM201900 01010G20KT P6SM BKN025 BKN070 TEMPO 2019/2024 P6SM -SHRA RMK NXT FCST BY 200300Z", "TAF CYYD 200040Z 2001/2006 VRB03KT P6SM FEW070 SCT140 BKN200 TEMPO 2001/2006 BKN070 OVC140 RMK NXT FCST BY 201400Z", "TAF CYYE 200040Z 2001/2013 24010G20KT P6SM FEW060 SCT250 BECMG 2002/2004 23005KT FM201000 VRB03KT P6SM BKN080 RMK NXT FCST BY 200700Z", "TAF CYYF 200040Z 2001/2013 34006KT P6SM BKN250 BECMG 2004/2006 VRB03KT RMK NXT FCST BY 200700Z", "TAF CYYG 192340Z 2000/2012 14012G22KT 2SM SHRA BR OVC006 TEMPO 2000/2003 6SM -RA BR SCT006 OVC020 PROB30 2000/2003 OVC004 FM200300 20012G22KT 2SM SHRA BR OVC004 TEMPO 2003/2006 6SM -RA BR SCT004 OVC012 BECMG 2006/2008 28008G18KT FM200800 25006KT P6SM SCT005 OVC060 TEMPO 2008/2011 5SM BR BKN005 OVC060 FM201100 25008G18KT P6SM FEW015 RMK NXT FCST BY 200600Z", "TAF CYYH 192340Z 2000/2012 24015G25KT 6SM -SN SCT008 BKN015 OVC030 TEMPO 2000/2012 3SM -SN BKN008 OVC015 BECMG 2006/2008 23010KT RMK NXT FCST BY 200600Z", "TAF CYYJ 192340Z 2000/2024 10005KT P6SM FEW190 SCT250 BECMG 2003/2005 26005KT FM200500 VRB03KT P6SM SCT120 PROB30 2010/2015 1SM BR FM201500 VRB03KT P6SM SCT050 BKN120 TEMPO 2015/2024 5SM -RA BR SCT020 BKN050 OVC120 PROB30 2015/2017 1SM BR RMK NXT FCST BY 200600Z", "TAF CYYL 200040Z 2001/2013 13006KT 1/4SM FG OVC002 TEMPO 2001/2005 1 1/2SM BR BKN005 BECMG 2001/2003 17008KT FM200500 17008KT 2SM BR BKN006 TEMPO 2005/2007 6SM BR SCT006 PROB30 2005/2007 1SM BR BKN002 FM200700 19008KT P6SM BKN060 BECMG 2010/2012 29008KT RMK FCST BASED ON AUTO OBS. NXT FCST BY 200700Z", "TAF CYYN 192340Z 2000/2012 23006KT P6SM SKC BECMG 2000/2002 20010KT BECMG 2006/2008 25012KT RMK FCST BASED ON AUTO OBS. NXT FCST BY 200600Z", "TAF CYYQ 192340Z 2000/2024 02008KT P6SM OVC015 BECMG 2000/2002 VRB03KT FM200600 20010KT P6SM OVC010 TEMPO 2006/2010 OVC008 FM201000 18012G22KT P6SM OVC010 TEMPO 2010/2018 5SM -RA BR OVC008 PROB30 2010/2013 3SM -FZRA BR OVC005 FM201800 18012KT P6SM OVC010 TEMPO 2018/2024 OVC008 BECMG 2019/2021 27008KT RMK NXT FCST BY 200600Z", "TAF CYYR 192340Z 2000/2024 10005KT P6SM SCT030 OVC080 FM200200 10008KT P6SM -SHRA SCT015 OVC030 TEMPO 2002/2005 4SM -SHRA BR SCT005 OVC015 FM200500 10010KT 4SM -RA BR SCT005 OVC015 TEMPO 2005/2012 P6SM -RA SCT012 OVC025 FM201200 14010KT 6SM -SHRA BR SCT005 BKN015 OVC030 FM201600 22010G20KT P6SM SCT015 BKN030 FM202200 22012KT P6SM SCT030 RMK NXT FCST BY 200600Z", "TAF CYYT 192340Z 2000/2024 19006KT P6SM BKN006 TEMPO 2000/2010 3SM BR OVC003 BECMG 2002/2004 18015G25KT FM201000 17020G30KT P6SM SCT008 BKN015 FM201200 19015G25KT P6SM BKN015 FM201900 20018G28KT 5SM -RA SCT006 OVC015 FM202100 20018G28KT 5SM -RA BR OVC004 RMK NXT FCST BY 200600Z", "TAF AMD CYYU 192212Z 1922/2008 31012KT 3/4SM -SN BKN006 OVC020 TEMPO 1922/2003 3SM -SN OVC010 FM200300 26007KT 1 1/2SM -SN OVC007 TEMPO 2003/2008 6SM -SN OVC015 PROB30 2003/2008 3/4SM -SN VV005 RMK NXT FCST BY 200200Z", "TAF CYYY 191940Z 1920/2008 26007KT 3/4SM -SHRA BR OVC003 TEMPO 1920/1924 6SM -RA BR SCT003 OVC025 FM200000 24010KT P6SM SCT007 OVC040 TEMPO 2000/2002 FEW003 BKN007 OVC040 FM200600 24010KT P6SM FEW040 RMK NXT FCST BY 200200Z", "TAF CYYZ 192340Z 2000/2106 27012G22KT P6SM SCT015 OVC030 TEMPO 2000/2004 P6SM -SHRA BKN015 OVC030 FM200400 24012KT P6SM BKN015 TEMPO 2004/2010 FEW015 BKN025 FM201200 23012KT P6SM -SHRA BKN020 OVC040 TEMPO 2012/2017 P6SM NSW FEW020 BKN040 BECMG 2012/2014 23012G22KT FM201700 25015G25KT P6SM BKN030 TEMPO 2017/2022 P6SM -SHRA BKN020 OVC030 BECMG 2019/2021 23012G22KT FM210000 24012KT P6SM FEW020 BKN050 FM210300 25008KT P6SM FEW015 RMK NXT FCST BY 200300Z", "TAF CYZF 192340Z 2000/2024 18010KT P6SM FEW040 BKN060 TEMPO 2000/2005 P6SM -SHRA BKN030 FM200500 29015G25KT P6SM SCT020 BKN030 TEMPO 2005/2007 4SM -SHRA BR SCT005 BKN012 PROB30 2005/2007 1SM -SHRA BR OVC004 FM200700 30015G30KT P6SM FEW005 BKN012 OVC025 TEMPO 2007/2024 4SM -RA BR OVC005 RMK NXT FCST BY 200600Z", "TAF CYZH 200040Z 2001/2013 26012G22KT P6SM FEW080 BKN180 RMK FCST BASED ON AUTO OBS. NXT FCST BY 200700Z", "TAF CYZP 200040Z 2001/2013 22008KT P6SM FEW050 TEMPO 2001/2006 SCT025 BKN050 FM200600 27010KT P6SM SCT015 BKN050 TEMPO 2006/2010 BKN015 OVC050 FM201000 24008KT P6SM FEW015 SCT050 RMK FCST BASED ON AUTO OBS. NXT FCST BY 200700Z", "TAF CYZR 191940Z 1920/2002 29012G22KT P6SM SCT015 BKN025 TEMPO 1920/2002 5SM -SHRA BR BKN015 BKN025 BECMG 1921/1923 27012G22KT RMK FCST BASED ON AUTO OBS. NXT FCST BY 200800Z", "TAF CYZS 200040Z 2001/2013 18020G30KT 1SM -SN BR OVC003 TEMPO 2001/2003 4SM -SN OVC008 BECMG 2001/2003 23008KT FM200300 23008KT 6SM BR SCT006 OVC015 TEMPO 2003/2013 2SM -SN BR OVC006 BECMG 2004/2006 32008KT RMK NXT FCST BY 200700Z", "TAF CYZT 200040Z 2001/2013 VRB03KT P6SM SCT030 BKN050 TEMPO 2001/2008 4SM -RA BR BKN020 OVC040 BECMG 2004/2006 27008KT FM200800 27008KT P6SM SCT050 RMK NXT FCST BY 200700Z", "TAF AMD CYZV 200056Z 2000/2024 08015G30KT 1/4SM -DZ FG VV002 TEMPO 2000/2002 3SM BR SCT002 OVC006 FM200200 10012G22KT 1/4SM RA FG OVC002 TEMPO 2002/2009 2SM -RA FM200900 23010KT P6SM SCT003 BKN060 TEMPO 2009/2015 4SM BR BKN003 BECMG 2010/2012 25012G22KT FM201500 25012G22KT P6SM SCT015 FM202300 17008KT P6SM BKN050 RMK NXT FCST BY 200600Z", "TAF CYZX 192340Z 2000/2024 23007KT P6SM -SHRA FEW006 OVC030 TEMPO 2000/2003 1SM +SHRA BR BKN003 OVC015 PROB30 2000/2003 2SM TSRA BR OVC020CB FM200300 24005KT P6SM SCT008 OVC020 TEMPO 2003/2006 5SM -SHRA BR BKN008 OVC020 FM200600 23005KT P6SM BKN020 TEMPO 2006/2009 SCT025 BKN240 FM200900 23005KT P6SM SCT030 TEMPO 2009/2015 BKN030 FM201500 23010G20KT P6SM SCT040 RMK NXT FCST BY 200600Z", "TAF CYZY 200040Z 2001/2009 18010G20KT P6SM SCT080 BKN140 FM200600 20008KT P6SM SCT040 OVC080 TEMPO 2006/2009 P6SM -SHRA OVC040 RMK FCST BASED ON AUTO OBS. NXT FCST BY 200700Z", "TAF AMD CZBF 192102Z 1921/2003 18010G20KT P6SM SCT015 OVC060 TEMPO 1921/1924 BKN015 BECMG 1922/1924 20005KT RMK FCST BASED ON AUTO OBS. NXT FCST BY 200900Z", "TAF CZUM 191941Z 1920/2008 12012G22KT P6SM -RA BKN005 OVC070 TEMPO 1920/1922 P6SM NSW SCT005 OVC070 FM192200 11015G30KT P6SM BKN060 TEMPO 1922/1924 P6SM -RA OVC015 FM200000 12020G30KT P6SM -RA OVC012 TEMPO 2000/2008 4SM -RA BR OVC007 RMK FCST BASED ON AUTO OBS. NXT FCST BY 200200Z", "TAF CZVL 192341Z 2000/2012 26005KT P6SM FEW090 BKN250 FM200300 26008KT P6SM BKN090 BKN200 FM201100 31015G25KT P6SM -SHRA SCT025 BKN080 RMK FCST BASED ON AUTO OBS. NXT FCST BY 200600Z", "TAF DAAD 191700Z 1918/2003 VRB02KT 7000 NSC", "TAF DAAE 192300Z 2000/2024 11008KT 7000 FEW023", "TAF DAAG 192300Z 2000/2024 06008KT CAVOK", "TAF DAAJ 192300Z 2000/2024 04006KT CAVOK", "TAF DAAP 192300Z 2000/2009 34006KT CAVOK", "TAF DAAS 192300Z 2000/2024 26008KT CAVOK", "TAF DAAT 192300Z 2000/2024 30012KT CAVOK BECMG 2006/2008 16012KT PROB30 TEMPO 2007/2011 16015G25KT", "TAF DAAV 192300Z 2000/2024 28008KT CAVOK", "TAF DAAY 192300Z 2000/2009 12008KT 9999 FEW030", "TAF DABB 192300Z 2000/2024 17008KT CAVOK", "TAF DABC 192300Z 2000/2024 34008KT CAVOK", "TAF DABS 192300Z 2000/2024 19008KT CAVOK", "TAF DABT 192300Z 2000/2024 31008KT CAVOK", "TAF DAFH 191700Z 1918/2003 06014KT CAVOK", "TAF DAOB 192300Z 2000/2024 VRB02KT CAVOK", "TAF DAOF 192300Z 2000/2009 08010KT CAVOK", "TAF DAOI 192300Z 2000/2024 VRB02KT CAVOK BECMG 2004/2007 04005KT BECMG 2007/2010 VRB02KT BECMG 2010/2013 08005KT BECMG 2016/2019 VRB02KT 9999 FEW033 BKN233", "TAF DAON 192300Z 2000/2024 VRB02KT 9999 FEW026 SCT233 TEMPO 2003/2007 4000 BR SCT010 BECMG 2007/2009 6000 FEW013 BECMG 2009/2012 9999 FEW020 SCT233 BECMG 2012/2015 34010KT BECMG 2016/2019 VRB02KT", "TAF DAOO 192300Z 2000/2024 03005KT CAVOK BECMG 2003/2006 VRB02KT 7000 SCT016 BECMG 2009/2012 24008KT 9999 FEW023 SCT233 BECMG 2016/2019 VRB02KT", "TAF DAOR 192300Z 2000/2009 30006KT 9999 FEW033", "TAF DAOV 192300Z 2000/2009 VRB02KT 9999 FEW030 BECMG 2001/2004 16008KT CAVOK", "TAF DATM 191700Z 1918/2003 04008KT CAVOK", "TAF DAUA 192300Z 2000/2024 04014KT CAVOK", "TAF DAUB 192300Z 2000/2024 33008KT CAVOK", "TAF DAUG 192300Z 2000/2024 06012KT CAVOK", "TAF DAUH 192300Z 2000/2024 14008KT CAVOK", "TAF DAUI 192300Z 2000/2024 06014KT CAVOK PROB40 TEMPO 2008/2014 06024KT 4000 DRSA", "TAF DAUK 192300Z 2000/2009 VRB02KT CAVOK", "TAF DAUL 192300Z 2000/2009 06008KT CAVOK", "TAF DAUO 192300Z 2000/2009 VRB02KT CAVOK", "TAF DAUT 192300Z 2000/2009 08012KT CAVOK", "TAF DAUU 192300Z 2000/2009 VRB02KT CAVOK", "TAF DAUZ 192300Z 2000/2024 06008KT CAVOK", "TAF DBBB 192300Z 2000/2106 22010KT 9999 SCT012 TEMPO 2000/2006 4000 TSRA BKN012 FEW023CB PROB30 2001/2004 12015G30KT", "TAF DFFD 192300Z 2000/2106 VRB08KT CAVOK TEMPO 2006/2009 4000 HZ TEMPO 2016/2021 4000 HZ", "TAF DFOO 192300Z 2000/2024 20008KT 9999 FEW020 PROB40 TEMPO 2014/2021 4000 TSRA SCT020 FEW033CB", "TAF DGAA 192300Z 2000/2106 27005KT 9999 FEW010 PROB30 TEMPO 2006/2009 5000 BR BECMG 2011/2013 19015KT SCT015", "TAF DGLE 191100Z 1912/2012 23010KT 9999 SCT016 BECMG 1922/2024 CAVOK BECMG 2005/2007 FEW013", "TAF DGSI 191100Z 1912/2012 23010KT 9999 SCT015 PROB40 TEMPO 1915/1919 TS FEW030CB BECMG 1921/1923 CAVOK BECMG 2004/2006 BKN012", "TAF DIAP 192358Z 2000/2106 21006KT 8000 FEW012 PROB30 TEMPO 2000/2006 4000 DZ FEW010 BKN030 PROB30 TEMPO 2013/2018 SCT013 FEW020CB PROB30 TEMPO 2100/2106 4000 TSRA BKN010 FEW020CB", "TAF DIBK 200006Z 2000/2024 14010KT 8000 TS BKN013 FEW020CB PROB30 TEMPO 2000/2006 TS FEW010 FEW020CB PROB30 TEMPO 2006/2008 2000 BR BKN010 PROB30 TEMPO 2017/2023 TS FEW010 FEW020CB", "TAF DIYO 200002Z 2000/2024 22004KT 600 TSRA BKN010 FEW020CB PROB30 TEMPO 2000/2006 4000 TSRA BKN010 FEW020CB PROB30 TEMPO 2006/2009 4000 RA PROB30 TEMPO 2015/2018 SCT013 FEW020CB PROB30 TEMPO 2018/2024 TS FEW010 FEW020CB", "TAF DNAA 191100Z 1912/2018 28006KT 9999 BKN013 PROB30 TEMPO 1916/1921 TS SCT012 FEW020CB BECMG 1921/1923 06005KT CAVOK", "TAF DNAK 192300Z 2000/2106 VRB02KT 9999 SCT009 TEMPO 2005/2008 4000 BR BECMG 2008/2010 22010KT BKN013 TEMPO 2012/2018 TS SCT013 FEW020CB BECMG 2018/2020 VRB02KT SCT010", "TAF DNBE 191700Z 1918/2024 VRB02KT 8000 SCT009 TEMPO 2005/2008 3000 BR BECMG 2008/2010 20010KT BKN012 TEMPO 2010/2015 BKN015 FEW020CB TEMPO 2011/2015 TS BECMG 2016/2018 VRB02KT SCT010 TEMPO 2018/2024 TS SCT010 FEW020CB", "TAF DNGO 192250Z 2000/2106 25003KT CAVOK", "TAF DNIL 191100Z 1912/2018 28010KT CAVOK TEMPO 1916/1920 07004KT SCT010 BECMG 1920/1923 17005KT CAVOK", "TAF DNJO 191100Z 1912/2018 10013KT 9999 FEW008 BECMG 1917/1919 07003KT CAVOK PROB30 TEMPO 2005/2009 5000 BR", "TAF DNKA 191100Z 1912/2018 06010KT 9999 BKN012 PROB30 TEMPO 1917/1922 27008KT TS SCT010 FEW020CB BECMG 1922/1924 FEW009 BECMG 2010/2012 22010KT BKN011", "TAF DNKN 192250Z 2000/2106 VRB02KT 5000 HZ NSC BECMG 2010/2012 7000 NSW", "TAF DNKT 192250Z 2000/2106 VRB02KT CAVOK TEMPO 2006/2010 5000 HZ NSC", "TAF DNMA 192250Z 2000/2106 06004KT CAVOK", "TAF COR DNMM 192300Z 2000/2106 VRB02KT 9999 SCT011 TEMPO 2000/2006 5000 -TSRA BKN009 FEW018CB TEMPO 2005/2008 3000 BR BECMG 2008/2010 25010KT BKN013 TEMPO 2011/2017 TS BKN013 FEW020CB BECMG 2018/2020 VRB02KT SCT010", "TAF DNSO 192250Z 2000/2106 VRB02KT CAVOK", "TAF DNSU 192300Z 2000/2106 VRB02KT 8000 SCT009 TEMPO 2005/2008 3000 BR BECMG 2008/2010 22010KT BKN012 FEW020CB PROB30 TEMPO 2010/2015 TS BKN012 FEW020CB BECMG 2016/2018 VRB02KT SCT010", "TAF DNYO 192250Z 2000/2106 23006KT CAVOK PROB40 TEMPO 2014/2020 TS SCT014 FEW020CB", "TAF DRRN 192300Z 2000/2106 16005KT 8000 NSC TEMPO 2005/2010 3000 DU", "TAF DRZA 192300Z 2000/2024 08010KT 8000 NSC TEMPO 2007/2013 10025KT 2000 BLDU", "TAF DRZR 192300Z 2000/2024 08010KT 8000 NSC TEMPO 2005/2010 2000 DU", "TAF DTKA 200000Z 2001/2010 10005KT 9999 FEW020", "TAF DTMB 192300Z 2000/2024 25001KT 9999 FEW030 PROB30 TEMPO 2004/2008 2000 BR TEMPO 2007/2009 0600 FG FEW008 BECMG 2015/2017 11010KT", "TAF DTNH 192300Z 2000/2024 32005KT CAVOK PROB30 TEMPO 2004/2006 2000 BR TEMPO 2007/2009 0100 FG FEW008 BECMG 2022/2024 12010KT", "TAF DTTA 192300Z 2000/2024 00000KT 9999 FEW026 PROB30 TEMPO 2001/2006 2000 BR TEMPO 2006/2009 0200 FG FEW008 BECMG 2010/2012 08010KT", "TAF DTTB 200000Z 2001/2010 33003KT CAVOK PROB30 TEMPO 2002/2005 4000 BR FEW010 TEMPO 2005/2007 0100 FG FEW008", "TAF DTTF 200000Z 2001/2010 06008KT 8000 NSC", "TAF DTTG 200000Z 2001/2010 11003KT 9999 FEW020", "TAF DTTJ 192300Z 2000/2024 08002KT 9999 FEW023 BECMG 2006/2008 02010KT BECMG 2020/2022 14010KT", "TAF DTTR 200000Z 2001/2010 35008KT 9999 SCT030", "TAF DTTX 192300Z 2000/2024 33005KT 9999 FEW030 BECMG 2006/2008 35010KT BECMG 2020/2022 15010KT", "TAF DTTZ 192300Z 2000/2024 12008KT CAVOK BECMG 2006/2008 11010KT", "TAF DXNG 192300Z 2000/2024 VRB05KT 9999 FEW006", "TAF DXXX 192300Z 2000/2106 26005KT 9999 FEW011 BECMG 2008/2010 20010KT PROB30 TEMPO 2015/2019 TS BKN010 FEW020CB", "TAF EBAW 192310Z 2000/2009 10005KT CAVOK", "TAF EBBE 191541Z 1919/2007 10008KT 9999 BKN250 BECMG 2002/2004 12006KT 9999 BKN090 BKN140", "TAF EBBL 191541Z 1919/2007 10010KT 9999 BKN220 BECMG 2006/2007 12010G20KT BKN150", "TAF EBBR 192310Z 2000/2106 11007KT CAVOK TEMPO 2008/2010 4000 SHRA RA BKN013CB BECMG 2010/2012 19012KT PROB30 TEMPO 2010/2021 4000 SHRA BKN014CB", "TAF EBCI 192310Z 2000/2106 11007KT CAVOK TEMPO 2007/2009 4000 SHRA RA BKN012CB BECMG 2009/2011 19012KT PROB30 TEMPO 2009/2019 4000 SHRA BKN013CB PROB40 TEMPO 2105/2106 4000 SHRA RA BKN012CB", "TAF EBCV 191541Z 1919/2007 08010KT 9999 FEW220 BECMG 1923/2001 SCT120 BKN200 BECMG 2005/2007 16012KT 8000 OVC100 BY EBWM", "TAF EBFN 191541Z 1919/2007 10011KT 9999 FEW090 SCT240 BECMG 1921/1923 13010KT SCT090 BKN220 TEMPO 1904/1907 16008KT 5000 -RA BKN080 OVC090", "TAF EBFS 191541Z 1919/2007 10012KT 9999 FEW012 SCT250 BECMG 2005/2007 17012KT OVC120 TEMPO 2006/2007 4000 -RA FEW010 OVC070", "TAF EBLG 192310Z 2000/2106 11007KT CAVOK TEMPO 2009/2011 4000 SHRA RA BKN012CB BECMG 2011/2013 19012KT PROB30 TEMPO 2011/2021 4000 SHRA BKN013CB", "TAF EBOS 192310Z 2000/2106 12008KT CAVOK TEMPO 2006/2008 4000 SHRA RA BKN013CB BECMG 2008/2010 20012KT PROB30 TEMPO 2008/2017 4000 SHRA BKN014CB BECMG 2021/2024 14008KT PROB40 TEMPO 2105/2106 4000 SHRA RA BKN013CB", "TAF EDAC 191700Z 1918/2003 VRB03KT CAVOK", "TAF EDDB 192300Z 2000/2024 09005KT CAVOK PROB30 TEMPO 2002/2007 2000 BCFG BECMG 2007/2009 12011KT BECMG 2018/2020 15006KT", "TAF EDDC 192300Z 2000/2024 14006KT CAVOK BECMG 2007/2009 14012KT PROB30 TEMPO 2009/2020 14015G25KT TEMPO 2020/2024 14015G25KT", "TAF EDDE 192300Z 2000/2024 12004KT CAVOK TEMPO 2002/2008 1200 BCFG BECMG 2015/2018 19008KT", "TAF EDDF 192300Z 2000/2106 05008KT 9999 SCT030 TEMPO 2014/2018 RA BKN014 BECMG 2017/2019 11005KT PROB30 TEMPO 2020/2102 4000 SHRA BKN014 BKN050CB TEMPO 2102/2106 BKN010 BECMG 2104/2106 18005KT", "TAF EDDG 192300Z 2000/2024 11005KT CAVOK TEMPO 2013/2016 RA BKN060CB", "TAF EDDH 192300Z 2000/2106 10006KT CAVOK PROB30 TEMPO 2004/2008 BKN007 BECMG 2006/2008 12011KT PROB30 TEMPO 2018/2022 RA BKN014 BECMG 2100/2102 15006KT PROB30 TEMPO 2102/2106 4000 SHRA BKN007 BKN045CB", "TAF EDDK 192300Z 2000/2106 12008KT CAVOK TEMPO 2011/2014 13013KT RA BKN060CB PROB30 TEMPO 2021/2024 SHRA BKN050CB", "TAF EDDL 192300Z 2000/2106 12005KT CAVOK BECMG 2001/2004 14010KT PROB30 TEMPO 2009/2012 15015G25KT TEMPO 2011/2014 RA BKN060CB PROB30 TEMPO 2021/2024 SHRA BKN050CB", "TAF EDDM 192300Z 2000/2106 05006KT CAVOK PROB30 TEMPO 2001/2008 BKN006 BECMG 2016/2018 VRB03KT", "TAF EDDN 192300Z 2000/2024 11007KT CAVOK", "TAF EDDP 192300Z 2000/2024 12007KT CAVOK PROB40 TEMPO 2002/2006 2500 BCFG", "TAF EDDR 192300Z 2000/2024 07009KT 9999 FEW006 SCT030 TEMPO 2000/2007 BKN006 BECMG 2009/2011 16006KT TEMPO 2010/2014 RA BKN014 TEMPO 2014/2024 4000 SHRA BKN014CB PROB30 TEMPO 2019/2021 TSRA", "TAF EDDS 192300Z 2000/2024 VRB03KT 9999 FEW025 TEMPO 2000/2008 1200 BCFG PROB30 TEMPO 2004/2007 0500 FG BKN001 PROB30 TEMPO 2015/2024 SHRA BKN070CB", "TAF EDDV 192300Z 2000/2024 11007KT CAVOK PROB30 TEMPO 2002/2008 4000 BR BKN007 PROB30 TEMPO 2017/2019 RA", "TAF EDDW 192300Z 2000/2024 11008KT CAVOK PROB30 TEMPO 2002/2008 4000 BR BKN007 PROB30 TEMPO 2016/2019 RA BKN014", "TAF EDFH 192300Z 2000/2024 14015G30KT 7000 SCT002 BKN007 TEMPO 2000/2009 BKN002 PROB30 TEMPO 2002/2008 0500 FG OVC001 BECMG 2008/2010 16010KT SCT010 BKN015 TEMPO 2010/2014 4000 RA BKN010 BECMG 2014/2016 BKN010 TEMPO 2014/2018 3000 SHRA BKN005 BKN030CB TEMPO 2018/2024 BKN005 PROB30 TEMPO 2020/2024 2000 TSRA BR BKN003 BKN030CB", "TAF AMD EDGS 191952Z 1919/2003 11012KT 9999 SCT005 TEMPO 1919/2003 BKN004 PROB40 TEMPO 1921/2003 3000 BR", "TAF EDJA 191700Z 1918/2003 07008KT 9999 BKN014 BECMG 1920/1922 4000 BR BKN005 BECMG 1922/1924 2000 BR BKN003", "TAF EDLN 191700Z 1918/2003 10006KT CAVOK", "TAF EDLP 192300Z 2000/2024 13010KT CAVOK TEMPO 2014/2017 RA BKN060CB", "TAF EDLV 191700Z 1918/2018 10007KT CAVOK TEMPO 2010/2013 14012KT RA", "TAF EDLW 191700Z 1918/2018 09007KT CAVOK BECMG 2007/2010 15007KT TEMPO 2011/2015 RA", "TAF EDMA 191700Z 1918/2003 07005KT 9999 SCT015 PROB30 TEMPO 1920/2003 4000 BR BKN004", "TAF EDMO 191700Z 1918/2003 05006KT 9999 SCT020 BECMG 1920/1922 BKN006 TEMPO 1922/2003 4000 BR BKN004", "TAF EDNY 192300Z 2000/2024 VRB03KT 9999 BKN020 TEMPO 2002/2009 3500 BR BKN004 TEMPO 2021/2024 1200 BCFG", "TAF EDQM 191700Z 1918/2003 03005KT 9999 SCT020 BECMG 1918/1920 10005KT PROB30 TEMPO 1920/2003 2000 BCFG", "TAF EDSB 192300Z 2000/2024 VRB03KT CAVOK TEMPO 2000/2009 2000 BR PROB30 TEMPO 2000/2008 0500 FG BKN002 TEMPO 2014/2024 SHRA BKN050CB PROB30 TEMPO 2020/2022 4000 TSRA", "TAF EDTY 191700Z 1918/2003 07006KT 9999 SCT015 PROB30 TEMPO 1922/2003 BKN004", "TAF EDVK 191700Z 1918/2003 09006KT 9999 FEW025", "TAF EEEI 192330Z 2000/2024 24005KT 9999 SCT030 BKN040 TEMPO 2000/2010 FEW035CB PROB40 TEMPO 2000/2003 5000 SHRA TEMPO 2007/2014 31009KT", "TAF EETN 192330Z 2000/2024 30010KT 9999 BKN030 TEMPO 2000/2010 BKN015 SCT025CB PROB30 TEMPO 2001/2006 5000 SHRA BECMG 2018/2020 21006KT TEMPO 2019/2024 3000 SHRA BR BKN005 SCT015CB", "TAF EFHK 192325Z 2000/2024 26006KT CAVOK", "TAF EFIV 192325Z 2000/2003 31006KT 9999 BKN035", "TAF EFJY 192325Z 2000/2024 27006KT CAVOK PROB40 TEMPO 2000/2007 1200 BCFG BKN004 PROB30 2007/2012 BKN008 TEMPO 2017/2021 BKN013", "TAF EFKU 192325Z 2000/2024 27006KT CAVOK TEMPO 2003/2009 BKN007 BKN040 PROB30 TEMPO 2005/2009 2000 BR BKN004 PROB40 TEMPO 2021/2024 BKN010", "TAF EFMA 192325Z 2000/2009 29005KT CAVOK", "TAF EFOU 192325Z 2000/2024 31005KT CAVOK TEMPO 2006/2009 5000", "TAF EFRO 192325Z 2000/2024 31005KT CAVOK TEMPO 2022/2024 5000", "TAF EFSI 192325Z 2000/2009 26004KT CAVOK PROB30 2003/2007 2000 BR", "TAF EFTP 192325Z 2000/2024 26005KT CAVOK PROB30 TEMPO 2003/2008 1200 BCFG BKN005", "TAF EFTU 192325Z 2000/2024 28005KT 9999 BKN030", "TAF EFVA 192325Z 2000/2024 30006KT CAVOK TEMPO 2017/2018 3000 BR TEMPO 2018/2021 0800 FG", "TAF EGAA 192258Z 2000/2024 09020G35KT 9999 SCT015 BECMG 2000/2003 11015G25KT BKN010 TEMPO 2000/2003 3000 RA RADZ PROB30 TEMPO 2000/2001 +TSRA BECMG 2003/2007 11008KT BKN002 PROB40 TEMPO 2003/2009 3000 BR DZ BECMG 2008/2011 SCT030 PROB30 2020/2024 7000 BKN008", "TAF EGBB 192258Z 2000/2024 14008KT 9999 BKN010 BECMG 2000/2003 3000 -RADZ BR BKN006 TEMPO 2002/2010 1200 RADZ BR BKN001 PROB30 2003/2010 0200 FG BECMG 2010/2013 9999 NSW SCT012 TEMPO 2010/2016 6000 SHRA BKN012 PROB30 TEMPO 2020/2024 4000 BR BKN004", "TAF EGCC 192307Z 2000/2106 09010KT 9999 BKN013 TEMPO 2000/2002 7000 SHRA PROB30 TEMPO 2000/2002 3000 +SHRA TEMPO 2004/2018 2000 RADZ BR BKN008 PROB30 TEMPO 2004/2017 BKN003 BECMG 2015/2018 26003KT 9999 BKN020 PROB30 2020/2101 0300 FG VV/// PROB30 TEMPO 2105/2106 8000 -SHRA", "TAF EGCK 192316Z 2000/2009 10010KT 9999 FEW030 PROB30 TEMPO 2000/2002 13015G25KT", "TAF EGCN 192305Z 2000/2024 07010KT 9999 BKN014 BECMG 2000/2003 7000 BKN008 TEMPO 2000/2018 2000 RADZ BR BKN004 BECMG 2003/2006 VRB03KT PROB30 TEMPO 2003/2016 +SHRA +RA PROB30 TEMPO 2003/2015 0300 FG BKN000 BECMG 2016/2019 20010KT 9999 SCT030 PROB30 2022/2024 0300 FG VV///", "TAF AMD EGDY 191735Z 1918/2003 10010G20KT 9999 FEW016 BECMG 1918/1921 SCT016 TEMPO 1918/1924 6000 -TSRA SCT007 BKN016 BECMG 1923/2001 9999 NSW FEW016", "TAF EGFF 192258Z 2000/2024 14007KT 9999 SCT012 TEMPO 2000/2010 2000 BR BKN004 PROB30 TEMPO 2000/2009 0300 FG BKN001 PROB30 TEMPO 2010/2015 6000 SHRA BKN012 TEMPO 2020/2024 12018G28KT", "TAF EGGD 192258Z 2000/2024 17006KT 9999 SCT008 TEMPO 2000/2009 2000 BR BKN004 PROB30 2000/2009 0300 FG BKN001 PROB30 TEMPO 2006/2009 SHRA PROB30 TEMPO 2009/2015 6000 SHRA BKN008 PROB30 TEMPO 2021/2024 13015G25KT", "TAF EGGP 192307Z 2000/2024 10010KT 9999 FEW045 TEMPO 2000/2002 7000 SHRA PROB30 TEMPO 2000/2002 3000 +SHRA BKN014 BECMG 2001/2004 7000 BKN008 TEMPO 2004/2015 2000 RADZ BR BKN004 BECMG 2014/2017 26003KT 9999 BKN020 PROB30 2020/2024 0300 FG VV///", "TAF EGGW 192305Z 2000/2024 12012KT 9999 BKN010 BECMG 2000/2003 2000 BR BKN003 TEMPO 2002/2009 0300 RADZ FG BKN000 BECMG 2006/2009 26005KT PROB40 TEMPO 2007/2012 +RA BECMG 2009/2012 6000 -RA BKN006 TEMPO 2009/2012 4000 RA BECMG 2013/2016 9999 NSW SCT015 BECMG 2018/2021 6000 BKN005 PROB40 TEMPO 2020/2024 0300 FG BKN001", "TAF EGHQ 192257Z 2000/2009 17009KT 9999 SCT010 PROB40 TEMPO 2000/2009 8000 BKN006", "TAF AMD EGJB 192307Z 2000/2009 21010KT 9999 FEW025 TEMPO 2002/2009 VRB05KT 9000 SHRA FEW010 BKN040CB PROB30 TEMPO 2003/2008 5000 +SHRA SCT008 BKN014CB", "TAF AMD EGJJ 192307Z 2000/2009 21010KT 9999 FEW025 TEMPO 2002/2009 VRB05KT 9000 SHRA FEW010 BKN040CB PROB30 TEMPO 2003/2008 5000 +SHRA SCT008 BKN014CB", "TAF EGKK 192303Z 2000/2106 12005KT 9999 SCT012 BECMG 2000/2003 7000 OVC006 TEMPO 2000/2010 3000 RA BR OVC003 PROB40 2003/2007 0300 FG OVC001 PROB30 TEMPO 2006/2010 +SHRA BECMG 2007/2010 9999 SCT015 PROB40 TEMPO 2010/2014 7000 SHRA BKN012 BECMG 2012/2015 24010KT BECMG 2018/2021 11005KT TEMPO 2019/2104 4000 BR BKN004 PROB30 2020/2104 0300 FG VV/// BECMG 2104/2106 17010KT PROB40 TEMPO 2104/2106 7000 SHRA BKN008", "TAF EGLL 192305Z 2000/2106 09010KT 9999 BKN012 BECMG 2001/2004 6000 BKN006 TEMPO 2003/2009 3000 RA BR BKN003 PROB30 TEMPO 2003/2008 0300 FG BKN000 BECMG 2005/2007 24005KT PROB30 TEMPO 2007/2010 +RA BECMG 2009/2012 9999 SCT012 TEMPO 2009/2012 4500 RA PROB40 TEMPO 2012/2016 7000 SHRA BKN012 BECMG 2019/2022 7000 PROB30 2020/2103 3000 BR BKN005 BECMG 2103/2106 15010KT 9999", "TAF EGMC 192301Z 2000/2009 12007KT 9999 SCT010 BECMG 2000/2003 6000 BKN008 PROB40 TEMPO 2003/2007 2000 BR BKN003 BECMG 2007/2009 24010KT 9999 SCT015 TEMPO 2007/2009 RA SHRA PROB30 TEMPO 2007/2008 3000 +SHRA", "TAF EGMD 192301Z 2000/2009 12011KT 7000 SCT012 BECMG 2000/2003 BKN009 PROB40 TEMPO 2002/2006 3000 BR BKN003 BECMG 2004/2007 22008KT SCT015 TEMPO 2006/2009 RA SHRA PROB30 TEMPO 2006/2009 2500 +SHRA BKN007 BKN015CB", "TAF AMD EGNJ 200024Z 2000/2009 09015KT 9999 SCT012 BECMG 2000/2003 BKN012 TEMPO 2003/2009 4000 RADZ BR BKN004 BECMG 2004/2007 12005KT PROB30 TEMPO 2005/2009 +SHRA +RA", "TAF EGNM 192305Z 2000/2024 07010KT 9999 BKN010 BECMG 2000/2003 4000 -DZ BR BKN004 TEMPO 2000/2018 0300 DZ FG BKN001 PROB30 TEMPO 2003/2016 +SHRA BECMG 2011/2014 27005KT 9999 NSW SCT006 BKN020 TEMPO 2014/2024 BKN006", "TAF EGNT 192305Z 2000/2024 11010KT 9999 SCT025 PROB30 TEMPO 2000/2003 BKN014 BECMG 2003/2006 7000 BKN010 TEMPO 2005/2024 RA SHRA BKN004 PROB30 TEMPO 2005/2024 +SHRA +RA PROB30 TEMPO 2007/2024 0300 FG BKN000 BECMG 2018/2021 27004KT", "TAF EGNX 192258Z 2000/2024 11008KT 9999 OVC010 BECMG 2000/2003 3000 -RADZ BR BKN003 TEMPO 2003/2010 1200 RADZ BR BKN001 PROB30 2003/2010 0200 FG BECMG 2010/2013 9999 NSW SCT010 TEMPO 2013/2017 6000 SHRA BKN012 PROB40 TEMPO 2020/2024 2000 BR BKN002", "TAF EGPA 192254Z 2000/2009 12009KT 9999 BKN030 PROB30 TEMPO 2004/2009 13015G25KT", "TAF EGPB 192254Z 2000/2009 14008KT 9999 BKN030 BECMG 2003/2006 12018KT", "TAF EGPC 192254Z 2000/2009 12015KT 9999 BKN025 TEMPO 2000/2009 13018G28KT PROB30 TEMPO 2000/2009 8000 -RA BKN012", "TAF EGPD 192258Z 2000/2024 12009KT 9999 BKN025 TEMPO 2000/2012 8000 -RA BKN012 PROB30 TEMPO 2003/2009 3000 RA BKN009 PROB40 TEMPO 2009/2012 12015G25KT TEMPO 2012/2024 BKN012 PROB30 TEMPO 2012/2018 BKN009 PROB30 TEMPO 2018/2024 5000 -RADZ BR BKN006 BECMG 2020/2023 06010KT", "TAF EGPE 192254Z 2000/2009 07009KT 9999 FEW020 TEMPO 2004/2009 8000 -RA PROB30 TEMPO 2004/2009 4000 RA BKN014", "TAF EGPF 192258Z 2000/2024 07012KT 9999 BKN020 TEMPO 2000/2007 5000 RA BKN012 PROB40 TEMPO 2000/2006 09018G28KT PROB30 TEMPO 2000/2007 3000 +RA BKN008 TEMPO 2007/2024 6000 -RADZ BKN006 PROB30 TEMPO 2015/2024 4000 BR BKN004", "TAF EGPH 192258Z 2000/2024 07012KT 9999 BKN020 TEMPO 2000/2009 5000 RA BKN010 PROB30 TEMPO 2000/2007 08015G25KT PROB30 TEMPO 2000/2009 3000 +RA BKN007 TEMPO 2009/2024 6000 -RADZ BKN004 PROB30 TEMPO 2012/2015 2500 RA BR PROB30 TEMPO 2015/2024 2500 RA BR BKN001", "TAF EGPK 192258Z 2000/2024 06009KT 9999 SCT040 TEMPO 2000/2006 5000 RA BKN012 PROB30 TEMPO 2000/2004 07015G25KT PROB30 TEMPO 2000/2005 3000 +RA BKN009 TEMPO 2006/2024 6000 -RADZ BKN012 PROB30 TEMPO 2009/2024 4000 RADZ BKN008", "TAF EGPO 191954Z 1921/2006 09012KT 9999 FEW025 PROB40 TEMPO 1921/2006 10018G28KT", "TAF EGQL 192202Z 2000/2009 11014KT 9999 BKN020 PROB40 TEMPO 2000/2009 12016G26KT TEMPO 2001/2009 4000 RA -RADZ SCT010 PROB30 TEMPO 2002/2009 3000 +RA", "TAF EGQS 192203Z 2000/2018 10012KT 9999 BKN025 TEMPO 2000/2018 SCT016 PROB30 TEMPO 2003/2018 6000 RA -RADZ SCT014 BKN018", "TAF EGSH 192310Z 2000/2009 08012KT 9999 FEW045 BECMG 2000/2003 BKN010 TEMPO 2002/2009 4000 BR BKN004 BECMG 2003/2006 14005KT", "TAF EGSS 192305Z 2000/2106 12012KT 9999 SCT010 BECMG 2000/2003 2000 BR BKN004 TEMPO 2003/2009 0300 RADZ FG BKN000 BECMG 2007/2010 25006KT PROB40 TEMPO 2007/2012 +RA BECMG 2009/2012 6000 -RA BKN010 TEMPO 2009/2012 4000 RA BECMG 2013/2016 9999 NSW SCT015 TEMPO 2019/2022 6000 BKN005 PROB30 TEMPO 2021/2106 0300 FG VV/// BECMG 2103/2106 14010KT", "TAF EGSY 192257Z 2000/2009 14008KT 9999 SCT010 TEMPO 2000/2009 3000 BR BKN004 PROB30 TEMPO 2000/2009 0300 FG BKN001", "TAF EGTE 192257Z 2000/2009 15009KT 9999 SCT012 TEMPO 2000/2009 6000 PROB40 2000/2009 4000 BR BKN004", "TAF AMD EGUL 191600Z 1916/2019 10010G20KT 9999 SCT020 BKN100 QNH2996INS BECMG 1921/1922 12015G25KT 9999 BKN010 BKN080 QNH2987INS BECMG 2001/2002 12015G25KT 8000 -SHRA BKN010 QNH2969INS TEMPO 2005/2009 6000 -SHRA VCTS OVC008CB BECMG 2010/2011 13012KT 8000 -RA BKN012 QNH2961INS TX16/2013Z TN12/1922Z LAST NO AMDS AFT 1916 NEXT 2005", "TAF EGUN 192000Z 1920/2102 11010G15KT 9999 SCT050 BKN100 BKN200 510006 QNH2997INS TEMPO 1920/2002 10010G20KT BECMG 2002/2003 13010G15KT 8000 -RA SCT015 BKN030 OVC120 510006 QNH2991INS BECMG 2003/2004 12012KT 8000 -SHRA BKN015 OVC080 610809 QNH2983INS TEMPO 2005/2009 4000 SHRA VCTS BKN008 OVC030CB BECMG 2009/2010 27005KT 8000 -RA SCT012 BKN030 650708 QNH2973INS TEMPO 2010/2016 26010G15KT BKN012 BECMG 2016/2017 25012KT 9999 NSW SCT020 BKN030 OVC060 610809 QNH2968INS BECMG 2018/2019 20010KT 9999 SCT050 SCT200 QNH2968INS BECMG 2022/2023 17009KT 8000 BR FEW030 QNH2969INS BECMG 2101/2102 13008KT 5000 BR SCT030 SCT110 QNH2963INS TX18/2013Z TN11/2020Z", "TAF AMD EGVA 191425Z 1914/2016 05012G18KT 9999 FEW006 BKN012 510013 QNH3000INS BECMG 1916/1917 10015G20KT 9000 -SHRA BKN008 OVC015 510013 QNH2991INS TEMPO 1920/1923 16020G25KT 8000 -TSRA OVC007CB BECMG 2003/2004 30009KT 9000 -RA BKN006 QNH2987INS BECMG 2011/2012 27006KT 9000 -DZ SCT006 BKN040 QNH2975INS TX17/1915Z TN11/2010Z LAST NO AMDS AFT 1915 NEXT 2004", "TAF EGVN 192225Z 2000/2024 13008KT 9999 BKN010 TEMPO 2000/2002 5000 BR BKN006 BECMG 2002/2004 4000 BR BKN005 PROB30 2002/2009 0500 FG BKN001 BECMG 2008/2011 9999 NSW FEW008 TEMPO 2009/2016 SCT010 PROB30 TEMPO 2009/2013 5000 RA BECMG 2019/2022 5000 BR PROB30 2022/2024 1500 MIFG", "TAF EGVO 192237Z 2000/2012 16008KT 9999 BKN009 PROB40 2000/2006 4000 BR SCT005 PROB30 2002/2010 0500 FG BKN001 BECMG 2008/2010 FEW009 PROB40 TEMPO 2010/2012 6000 RA SCT014", "TAF EGWU 191651Z 1918/2012 09014KT 9999 FEW025 PROB30 TEMPO 1918/1921 SCT012 BECMG 1921/1924 SCT012 BKN018 BECMG 2000/2002 5000 BR BKN005 PROB40 TEMPO 2002/2007 3000 BKN004 PROB30 TEMPO 2003/2007 0600 FG BKN000 TEMPO 2007/2012 4000 RA BECMG 2009/2012 9999 NSW BKN028", "TAF EGXC 192235Z 2000/2018 19010KT 9999 FEW010 BECMG 2000/2002 BKN010 BECMG 2002/2005 7000 BR BKN003 TEMPO 2005/2011 2000 -DZ BKN002 PROB40 TEMPO 2007/2011 0500 FG OVC000 PROB40 TEMPO 2011/2015 3000 RA FEW004 BKN030", "TAF EGXW 191605Z 1918/2012 10012KT 9999 FEW020 TEMPO 1918/1922 10016G26KT PROB30 TEMPO 1918/2002 6000 SHRA BECMG 1922/2001 BKN012 BECMG 2002/2005 BKN003 TEMPO 2003/2012 3000 DZ PROB40 2003/2012 0300 FG OVC000", "TAF COR EGYP 200053Z 2000/2018 30007KT 9999 BKN049 PROB30 TEMPO 2000/2003 7000 RA SCT024 BECMG 2012/2015 23015G25KT TEMPO 2013/2018 7000 SHRA PROB30 TEMPO 2015/2018 4000 SHRASN BKN020CB", "TAF EHAM 192307Z 2000/2106 11011KT CAVOK BECMG 2007/2010 14012KT BECMG 2011/2014 18012KT TEMPO 2011/2013 6000 RA BKN025 PROB40 TEMPO 2012/2016 SCT008 BKN012 BECMG 2015/2017 18006KT PROB30 TEMPO 2017/2021 6000 SHRA SCT018CB BKN022 BECMG 2019/2022 4500 BR PROB30 TEMPO 2021/2106 2500 SCT004", "TAF EHBK 192315Z 2000/2106 09008KT CAVOK BECMG 2008/2011 15010KT TEMPO 2009/2012 6000 RA SHRA BKN030 FEW050CB BECMG 2012/2015 18010KT PROB40 TEMPO 2105/2106 6000 RA SHRA BKN030 FEW050CB", "TAF EHEH 192342Z 2000/2106 10006KT CAVOK BECMG 2007/2009 13009KT TEMPO 2010/2013 4500 SHRA RA SCT010 BKN030 SCT040CB PROB30 TEMPO 2017/2021 4500 SHRA FEW010 SCT020CB BECMG 2019/2022 4500 BR PROB30 TEMPO 2023/2106 1200 BCFG", "TAF EHGG 192312Z 2000/2106 10010KT CAVOK BECMG 2013/2016 15008KT TEMPO 2013/2016 6000 RA SHRA BKN018 FEW070CB PROB40 2017/2024 BKN009 BECMG 2019/2022 4500 BR PROB30 TEMPO 2021/2106 6000 SHRA FEW020CB BECMG 2100/2103 2500 BKN004", "TAF EHGR 191643Z 1917/2005 08011KT CAVOK BECMG 1921/1924 11009KT", "TAF EHKD 200031Z 2001/2013 11012KT CAVOK BECMG 2007/2009 14011KT TEMPO 2012/2013 4500 SHRA RA SCT010 BKN030 SCT040CB", "TAF EHLE 192307Z 2000/2106 11011KT CAVOK BECMG 2007/2010 14012KT BECMG 2011/2014 18012KT TEMPO 2012/2014 6000 RA BKN025 PROB40 TEMPO 2013/2016 SCT008 BKN012 BECMG 2015/2017 18006KT PROB30 TEMPO 2018/2021 6000 SHRA SCT018CB BKN022 BECMG 2019/2022 4500 BR PROB30 TEMPO 2021/2106 2500 SCT004", "TAF EHLW 200033Z 2001/2013 11010KT CAVOK BECMG 2011/2013 14010KT", "TAF EHRD 192307Z 2000/2106 11011KT CAVOK BECMG 2007/2010 14012KT BECMG 2011/2014 18012KT TEMPO 2010/2012 6000 RA BKN025 PROB40 TEMPO 2012/2015 SCT008 BKN012 BECMG 2015/2017 18006KT PROB30 TEMPO 2017/2020 6000 SHRA SCT018CB BKN022 BECMG 2019/2022 4500 BR PROB30 TEMPO 2021/2106 2500", "TAF EHVK 200039Z 2001/2013 11008KT CAVOK BECMG 2008/2010 15007KT TEMPO 2011/2013 4500 SHRA RA SCT012 BKN030 SCT040CB", "TAF EICK 192300Z 2000/2024 15012KT 9999 SCT008 BKN010 TEMPO 2000/2002 BKN006 PROB30 TEMPO 2000/2002 3000 -SHRA BR BKN003 TEMPO 2002/2009 3000 -SHRA BR BKN003 PROB30 TEMPO 2003/2009 0800 FG BKN001 TEMPO 2008/2012 15015G26KT PROB30 TEMPO 2009/2019 -SHRA BKN008 FEW020CB BECMG 2013/2015 12015G25KT BECMG 2019/2021 5000 -SHRA BKN006 BECMG 2021/2023 10020G35KT TEMPO 2022/2024 3000 SHRA BKN003 SCT020CB", "TAF EIDL 191700Z 1918/2003 10022G35KT 9999 FEW014 SCT018 PROB40 TEMPO 1918/1920 4000 SHRA BKN014 SCT020CB BECMG 1923/2001 13022G35KT TEMPO 2000/2003 4000 SHRA SCT020CB", "TAF EIDW 192300Z 2000/2024 10009KT 9999 SCT007 BKN015 BECMG 2000/2002 13008KT TEMPO 2000/2009 4000 -SHRA BKN005 PROB40 TEMPO 2002/2005 2000 BR BKN002 BECMG 2002/2004 14008KT PROB30 TEMPO 2005/2009 2000 BR BKN003 PROB40 TEMPO 2009/2014 -SHRA BKN008 SCT018CB BECMG 2019/2021 10005KT BECMG 2021/2023 12012KT", "TAF EIKN 192300Z 2000/2024 10015G26KT 5000 -RA SCT001 BKN003 TEMPO 2000/2001 2000 RA BKN002 SCT020CB PROB40 TEMPO 2000/2001 0500 FG BKN001 BECMG 2001/2003 1200 -DZ BR BKN002 TEMPO 2001/2010 0400 FG BKN001 BECMG 2002/2004 13010KT BECMG 2010/2012 9999 NSW SCT005 BKN010 BECMG 2012/2014 BKN020 BECMG 2018/2020 10010KT PROB40 TEMPO 2021/2024 3000 BR", "TAF EIKY 191700Z 1918/2003 10015KT 9999 FEW010 BKN020 TEMPO 1918/1919 10018G30KT TEMPO 1918/1923 4000 RA BKN010 SCT020CB PROB30 TEMPO 1918/1922 2500 TSRA BECMG 1919/1921 13010KT BECMG 1921/1923 16008KT PROB30 TEMPO 1923/2003 3000 BR", "TAF EIME 192300Z 2000/2009 08012KT 9999 SCT007 BKN015 PROB40 TEMPO 2000/2009 4000 -SHRA BKN005 PROB30 TEMPO 2000/2005 2000 BR BKN003 BECMG 2002/2004 13005KT", "TAF EINN 192300Z 2000/2024 13011KT 9999 FEW012 BKN020 TEMPO 2000/2008 BKN012 PROB30 TEMPO 2000/2008 3000 -SHRA BR BKN008 BECMG 2015/2017 10014KT BECMG 2021/2023 09018G28KT", "TAF EISG 192300Z 2000/2009 10015KT 9999 SCT012 BKN018 TEMPO 2000/2003 11016G26KT TEMPO 2000/2001 4000 SHRA BKN012 SCT020CB TEMPO 2001/2009 -SHRA BKN012 PROB30 TEMPO 2003/2009 4000 BR BECMG 2003/2005 13011KT", "TAF EIWF 192300Z 2000/2009 16012KT 7000 SCT020 PROB30 TEMPO 2000/2009 2500 BR BKN004", "TAF EKAH 192302Z 2000/2024 VRB02KT CAVOK PROB40 2000/2008 3000 MIFG BR BECMG 2013/2015 13012KT TEMPO 2016/2023 13015G25KT", "TAF EKBI 192302Z 2000/2024 11005KT CAVOK TEMPO 2011/2020 12015G25KT BECMG 2020/2023 RA TEMPO 2023/2024 4000 -RADZ BKN012 FEW020CB", "TAF EKCH 192302Z 2000/2024 VRB02KT CAVOK BECMG 2011/2013 14015KT TEMPO 2013/2024 13018G28KT", "TAF EKKA 192302Z 2000/2024 15005KT 9999 FEW200 BECMG 2010/2012 13012G22KT BECMG 2022/2024 12008KT 6000 RA BKN012", "TAF EKRK 192302Z 2000/2009 VRB02KT CAVOK PROB40 2000/2008 3000 MIFG BR", "TAF EKRN 192302Z 2000/2009 VRB02KT 9999 FEW200", "TAF EKSP 192302Z 2000/2024 09005KT 9999 BKN200 BECMG 2008/2010 12015KT TEMPO 2012/2020 12018G28KT BECMG 2020/2023 6000 RA BKN008", "TAF EKYT 192302Z 2000/2024 15005KT 9999 FEW200 PROB40 2002/2007 3000 MIFG BR BECMG 2011/2014 13015KT", "TAF ELLX 192300Z 2000/2106 09010KT CAVOK TEMPO 2000/2011 BKN013 BECMG 2009/2011 17010KT PROB40 TEMPO 2011/2015 17015G25KT 3500 SHRA BKN012CB PROB30 TEMPO 2019/2024 17015G30KT 3000 TSRA BKN010CB TEMPO 2100/2106 2000 BCFG BKN005", "TAF ENAN 2000/2024 35012KT 9999 FEW015 BKN030 BECMG 2002/2005 27008KT TEMPO 2014/2018 SHRA SCT020TCU BECMG 2017/2019 12012KT", "TAF ENBN 192300Z 2000/2009 26010KT 9999 -SHRA FEW006 BKN025 TEMPO 2000/2009 4000 SHRA BKN012", "AMD ENBO 2000/2024 28008KT 9999 -SHRA FEW010 BKN020 BECMG 2006/2008 24018KT TEMPO 2000/2024 SHRA BKN014 SCT020TCU", "TAF ENBR 2000/2024 09005KT 9999 FEW025", "TAF ENDU 2000/2024 25005KT 9999 FEW018 BKN035 PROB30 TEMPO 2001/2006 1200 PRFG", "TAF ENEV 2000/2024 35005KT 9999 FEW010 BKN025 PROB30 TEMPO 2000/2006 1200 PRFG TEMPO 2014/2024 4000 RA BKN014", "TAF ENFL 192300Z 2000/2009 08006KT CAVOK", "TAF ENGC 2000/2024 06008KT 9999 SCT020 BKN030 PROB30 TEMPO 2000/2009 SCT015TCU BKN025 BECMG 2008/2011 12015KT", "TAF ENGM 2000/2024 03005KT 9999 FEW002 PROB40 2000/2008 0500 FZFG VV001 BECMG 2008/2011 BKN008 TEMPO 2011/2016 FEW008 BKN018 TEMPO 2019/2024 3000 BR OVC003", "TAF ENHE 192300Z 2000/2009 27018KT 9999 -SHRA BKN020 PROB30 TEMPO 2000/2009 BKN010TCU", "TAF ENHF 192300Z 2000/2009 VRB08G25KT 9999 -SHRASN FEW015 BKN030 PROB40 TEMPO 2000/2009 32015G30KT 4000 SHRASN BKN014", "TAF ENKR 192300Z 2000/2009 32015KT 9999 FEW015 BKN025 TEMPO 2000/2009 4000 SHSN VV014 TEMPO 2006/2009 31015G25KT", "TAF ENLE 192300Z 2000/2009 10018KT 9999 BKN022 BECMG 2005/2007 12028KT", "TAF ENNA 2000/2024 33015KT 9999 FEW020 SCT030 PROB40 TEMPO 2010/2014 4000 SHRASN VV014 BECMG 2017/2019 18008KT", "ENOA 2000/2024 06008KT 9999 BKN025 PROB30 TEMPO 2000/2006 SCT015TCU BKN025 BECMG 2008/2011 12018KT", "TAF ENOL 2000/2024 27015KT 9999 -RADZ FEW010 BKN025 BECMG 2003/2006 21008KT TEMPO 2000/2018 4000 DZRA SCT008 BKN012", "TAF ENRY 2000/2024 VRB05KT 0500 FG VV001 PROB40 2000/2008 9999 NSW SCT002 BECMG 2008/2011 9999 NSW BKN018", "TAF ENSB 2000/2024 34015KT 9999 FEW015 SCT035 BKN050 BECMG 2008/2010 12008KT", "ENTC 2000/2024 01008KT 9999 -SHRA FEW010 BKN025", "TAF ENTO 2000/2024 VRB05KT 0500 FG VV001 PROB40 2000/2008 9999 NSW SCT002 BECMG 2008/2011 9999 NSW BKN018", "TAF ENVA 2000/2024 26012KT 9999 FEW012 BKN020 TEMPO 2000/2007 4000 DZRA BKN012 BECMG 2000/2002 20008KT", "TAF ENZV 2000/2024 14005KT 9999 SCT025", "TAF EPBY 192330Z 2000/2024 VRB03KT CAVOK PROB30 2001/2005 4000 BR BECMG 2007/2009 15010KT", "TAF EPCE 192300Z 2000/2009 23004KT 9999 SCT025", "TAF EPDA 192300Z 2000/2009 19005KT CAVOK TEMPO 2000/2009 VRB03KT", "TAF COR EPDE 192300Z 2000/2009 35006KT 9999 SCT040 BECMG 2001/2003 7000 BKN035", "TAF EPGD 192330Z 2000/2024 VRB02KT 9999 SCT035 PROB30 TEMPO 2001/2007 4000 BR BECMG 2019/2021 16010KT", "TAF EPKK 192330Z 2000/2024 VRB02KT CAVOK TEMPO 2002/2006 2000 BR BECMG 2006/2009 09010KT", "TAF EPKS 192300Z 2000/2009 VRB02KT CAVOK BECMG 2000/2002 5000 BR PROB30 2002/2004 2000 MIFG BR TEMPO 2004/2006 BKN005 BECMG 2006/2008 12006KT BKN015", "TAF EPKT 192330Z 2000/2024 VRB02KT 0800 FG NSC TEMPO 2000/2006 0200 FG PROB30 TEMPO 2001/2006 0100 FZFG BKN002 BECMG 2006/2008 12010KT CAVOK", "TAF EPLB 192330Z 2000/2024 30005KT CAVOK TEMPO 2001/2007 0500 FG BKN001", "TAF EPLK 192300Z 2000/2009 VRB02KT CAVOK TEMPO 2003/2004 4000 BR TEMPO 2004/2007 0800 FG", "TAF EPLL 192330Z 2000/2024 VRB03KT CAVOK BECMG 2000/2001 2500 BR PROB40 2001/2007 0400 FG BKN001 BECMG 2006/2008 CAVOK BECMG 2013/2016 13010KT", "TAF EPLY 192300Z 2000/2009 VRB02KT CAVOK TEMPO 2002/2004 5000 BR TEMPO 2004/2006 0800 FG", "TAF EPMB 192300Z 2000/2009 28008KT 9999 SCT035 TEMPO 2000/2006 -SHRA SCT020TCU", "TAF EPMI 192300Z 2000/2009 VRB03KT CAVOK PROB30 2003/2006 5000 MIFG BR", "TAF EPMM 192300Z 2000/2009 31006KT CAVOK PROB30 2001/2006 5000 MIFG BR BKN005", "TAF EPMO 192330Z 2000/2024 29004KT CAVOK BECMG 2000/2002 2500 BR PROB40 2002/2007 0400 FG BKN001 BECMG 2006/2008 CAVOK BECMG 2022/2024 13010KT", "TAF EPOK 192300Z 2000/2009 25008KT 9999 BKN040", "TAF EPPO 192330Z 2000/2024 VRB02KT 4000 BR NSC BECMG 2000/2002 0600 FG TEMPO 2000/2006 0200 FZFG BKN002 BECMG 2007/2009 12010KT CAVOK", "TAF EPPW 192300Z 2000/2009 VRB03KT CAVOK PROB30 2002/2008 4000 MIFG BR BKN004", "TAF EPRA 192000Z 1921/2006 30006KT CAVOK PROB30 2003/2006 BKN005", "TAF EPRZ 192330Z 2000/2024 30007KT CAVOK PROB40 2002/2006 BKN006 BECMG 2016/2018 11010KT", "TAF EPSC 192330Z 2000/2024 VRB02KT 6000 NSC TEMPO 2000/2007 0500 FZFG OVC002 BECMG 2007/2010 14010KT", "TAF EPSN 192300Z 2000/2009 VRB02KT CAVOK PROB30 TEMPO 2001/2006 5000 MIFG BR BECMG 2006/2009 16008KT", "TAF EPSY 192330Z 2000/2009 VRB02KT CAVOK PROB40 TEMPO 2004/2007 BKN012 BECMG 2007/2009 28008KT", "TAF EPTM 192000Z 1921/2006 31006KT CAVOK PROB30 2000/2006 VRB03KT 2000 BR BKN004", "TAF EPWA 192330Z 2000/2024 29004KT CAVOK BECMG 2000/2002 4000 BR PROB40 2002/2007 0500 FG BECMG 2006/2008 CAVOK BECMG 2022/2024 13010KT", "TAF EPWR 192330Z 2000/2024 VRB02KT 9999 BKN030 BECMG 2000/2002 1400 BR TEMPO 2000/2006 0600 FG BECMG 2005/2007 13010KT CAVOK", "TAF EPZG 192030Z 1921/2006 VRB01KT CAVOK BECMG 1921/1923 1400 BR BECMG 1923/2001 0400 FG PROB40 1923/2006 0100 FZFG BKN002", "TAF ESGG 192330Z 2000/2024 17005KT CAVOK PROB40 2001/2006 4000 BR", "TAF ESKN 192330Z 2000/2024 27005KT CAVOK PROB40 2002/2007 4000 BR", "TAF ESMK 191900Z 1919/2004 28005KT CAVOK", "TAF ESMS 192302Z 2000/2024 VRB02KT CAVOK PROB40 2000/2007 3000 MIFG BR BECMG 2010/2012 13010KT TEMPO 2019/2024 14015G28KT", "TAF ESNQ 200030Z 2001/2006 32006KT CAVOK", "TAF ESNU 192330Z 2000/2009 29007KT CAVOK", "TAF ESSA 192330Z 2000/2024 27006KT CAVOK PROB40 2001/2006 3000 BR", "TAF ETAD 192000Z 1920/2102 10010G15KT 9999 OVC010 QNH3010INS BECMG 1923/1924 10009KT 9999 SCT010 SCT200 QNH2999INS BECMG 2009/2010 18010G15KT 9000 -SHRA SCT008 OVC020 QNH2996INS TEMPO 2010/2013 6000 -RA BR BKN008 OVC020 BECMG 2013/2014 17010G15KT 9999 NSW BKN015 QNH2992INS BECMG 2017/2018 17012KT 9000 -SHRA OVC010 QNH2988INS TEMPO 2018/2021 6000 -RA VCTS OVC010CB TX18/2015Z TN10/2003Z", "TAF AMD ETAR 192345Z 1923/2024 08009KT 9999 BKN004 QNH3005INS BECMG 2008/2009 VRB06KT 9999 NSW BKN010 QNH3002INS BECMG 2011/2012 16006KT 9000 -SHRA BKN020 QNH2999INS BECMG 2020/2021 19009KT 9000 -SHRA BKN025 QNH2992INS TX18/2014Z TN09/2004Z", "TAF ETEB 191500Z 1915/2021 05005KT 9999 FEW250 QNH3031INS BECMG 2000/2001 12006KT 8000 BR BKN012 QNH3015INS BECMG 2008/2009 14009KT 9999 FEW150 BKN200 QNH3012INS BECMG 2017/2018 15006KT 9999 FEW025 BKN070 QNH3004INS TX12/1915Z TN08/2006Z LAST NO AMDS AFT 1922 NEXT 2007", "TAF ETHB 191921Z 1920/2005 10006KT 9999 NSW BKN300", "TAF ETHC 191630Z 1917/2002 09005KT 9999 NSW FEW030 SCT250", "TAF ETHL 191918Z 1920/2005 06008KT 8000 NSW BKN015 BECMG 1920/1922 05005KT 5000 BR BKN006 BECMG 1922/1924 VRB03KT 0800 FG VV002", "TAF ETHS 191925Z 1920/2005 10005KT 9999 NSW BKN270 BY ETGQ", "TAF ETIC 191800Z 1918/2024 09005KT 9999 SKC QNH3017INS BECMG 2002/2003 09006KT 5000 BR SCT010 QNH3014INS BECMG 2006/2007 09007KT 9999 NSW SKC QNH3003INS BECMG 2019/2020 VRB05KT 9000 -DZ SCT045 BKN100 QNH3001INS TX12/2014Z TN03/2005Z", "TAF ETIK 192200Z 1922/2104 VRB06KT 9999 SKC QNH3019INS BECMG 2002/2003 13009KT 0800 FG BKN015 QNH3015INS BECMG 2006/2007 15012KT 6000 BR BKN030 QNH3010INS BECMG 2009/2010 14012KT 9999 NSW SCT015 BKN100 QNH3006INS BECMG 2015/2016 16009KT 9999 FEW070 QNH2995INS TX15/2012Z TN08/2004Z", "TAF AMD ETMN 191738Z 1917/2002 10005KT 9999 NSW BKN300 BY ETGG", "TAF ETNG 192300Z 2000/2015 10010G17KT CAVOK BECMG 2009/2011 13007KT TEMPO 2010/2014 20015G30KT 6000 SHRA RA SCT030CB BKN090 BECMG 2013/2015 17007KT SCT025", "TAF ETNL 192204Z 1923/2011 08005KT 9999 NSW BKN300 TEMPO 1923/2008 09003KT 3000 BR SCT300 PROB30 2002/2008 VRB01KT 0500 FG FEW300 BY ETGL", "TAF ETNS 191624Z 1917/2002 09005KT 9999 NSW FEW020 BKN280 BY ETGL", "TAF ETNW 192202Z 1923/2023 12006KT 9999 NSW FEW030 BKN260 PROB30 2002/2008 10004KT 4000 BR SCT004 SCT260 BECMG 2008/2010 12010G20KT 9999 NSW FEW040 BKN180 TEMPO 2015/2023 15008KT 7000 -RA BKN020 OVC080 BY ETGL", "TAF AMD ETOU 192010Z 1920/2102 08009KT 9999 SCT025 QNH3006INS TEMPO 2005/2008 8000 BR BKN012 BECMG 2008/2009 11006KT 9999 SCT025 BKN100 QNH3000INS BECMG 2013/2014 12009KT 8000 -SHRA BKN025 OVC070 QNH2988INS TEMPO 2019/2022 5000 SHRA BKN010 TX15/2014Z TN08/2005Z LAST NO AMDS AFT 1920 NEXT 2004", "TAF ETSN 192204Z 1923/2008 07007KT 9999 NSW BKN240 TEMPO 1923/2008 06004KT 3000 BR BKN006 BY ETGL", "TAF EVGA 192304Z 2000/2024 18005KT 9999 SCT040 TEMPO 2003/2012 4000 -SHRA BKN015CB TEMPO 2012/2024 SCT015CB", "TAF EVLA 192302Z 2000/2024 18005KT 9999 BKN030", "TAF EVRA 192300Z 2000/2024 24005KT 9999 SCT040 TEMPO 2000/2021 SCT015CB", "TAF EYKA 192301Z 2000/2024 VRB05KT 9000 SCT030 BECMG 2002/2003 OVC030 TEMPO 2003/2009 BKN020CB TEMPO 2009/2015 29015KT", "TAF EYPA 192301Z 2000/2024 33010KT 9000 OVC030 TEMPO 2000/2010 SCT025CB", "TAF EYSA 192301Z 2000/2009 27008KT 9000 OVC030 TEMPO 2000/2009 SCT010 BKN020CB", "TAF EYVI 192300Z 2000/2024 32010KT 9000 SCT030 TEMPO 2000/2004 5000 BR SCT005 BECMG 2004/2006 OVC030 BECMG 2015/2017 21010KT", "TAF FABL 192200Z 2000/2024 VRB03KT CAVOK TX25/2012Z TN15/2004Z", "TAF FACT 192200Z 2000/2106 21008KT 9999 BKN025 TX22/2012Z TN14/2004Z BECMG 2008/2010 18018KT FM201300 18015KT CAVOK", "TAF FAGG 192200Z 2000/2024 25015KT 9999 BKN020 TX21/2012Z TN16/2004Z PROB30 TEMPO 2000/2003 BKN014 BECMG 2017/2019 12005KT", "TAF FALA 192200Z 2000/2024 VRB03KT CAVOK TX26/2012Z TN15/2003Z FM201000 VRB03KT 9999 SCT040 PROB40 TEMPO 2011/2016 -TSRA FEW040CB PROB40 TEMPO 2016/2024 4500 TSRA FEW035CB", "TAF FALE 192200Z 2000/2106 03008KT CAVOK TX30/2012Z TN19/2103Z PROB30 TEMPO 2016/2020 5000 TSRA BKN020 FEW035CB FM201700 19010KT 9999 SCT015", "TAF FAOR 192200Z 2000/2106 VRB03KT CAVOK TX24/2012Z TN13/2003Z FM201000 VRB03KT 9999 SCT035 PROB40 TEMPO 2011/2016 -TSRA FEW040CB PROB40 TEMPO 2016/2020 04016KT 4500 TSRA FEW035CB PROB30 TEMPO 2020/2024 -SHRA FEW040TCU FM210000 15008KT CAVOK PROB30 TEMPO 2104/2106 BKN015", "TAF FAPE 192200Z 2000/2024 25023KT 9999 FEW005 SCT012 TX23/2011Z TN17/2003Z TEMPO 2000/2008 25027G40KT BKN004 PROB40 TEMPO 2016/2021 5000 -RA BKN012 BECMG 2017/2019 25008KT", "TAF FAPM 191800Z 1919/2006 08005KT 9999 SCT030 TX23/2006Z TN17/2003Z PROB30 TEMPO 1919/1920 5000 -RA BKN015 PROB30 TEMPO 2000/2003 3000 BR BKN008", "TAF FAUP 192200Z 2000/2024 VRB03KT CAVOK TX35/2013Z TN22/2004Z", "FBMN 192200Z 2000/2024 21007KT CAVOK BECMG 2012/2014 FEW035CB", "FBPM 192200Z 2000/2024 09010KT CAVOK", "FBSK 192200Z 2000/2106 14005KT CAVOK", "TAF FCBB 192300Z 2000/2106 26004KT 8000 FEW018 PROB30 2017/2021 FEW020 FEW030CB", "TAF FCPP 192300Z 2000/2024 20005KT 9000 SCT020 PROB30 2017/2021 SCT020 FEW030CB", "TAF FEFF 192300Z 2000/2106 VRB03KT 7000 TS FEW012 FEW033CB BECMG 2001/2003 NSW BECMG 2003/2005 4000 BR BKN006 FM200700 18004KT 9999 NSW SCT008 BECMG 2008/2009 BKN013", "TAF FGBT 192300Z 2000/2024 24005KT 8000 SCT010 TEMPO 2000/2004 TS BKN008 FEW018CB PROB30 TEMPO 2015/2021 3000 TSRA BKN010 FEW018CB", "TAF FGSL 192300Z 2000/2106 25008KT 9999 SCT010 PROB40 TEMPO 2002/2008 4500 TSRA BKN008 FEW018CB TEMPO 2011/2016 3000 TSRA BKN010 FEW020CB", "TAF COR FIMP 192310Z 2000/2106 13005KT 9999 SCT017 TEMPO 2002/2006 7000 -SHRA BKN016 BECMG 2004/2006 13012G22KT", "TAF FIMR 192315Z 2000/2018 15015G25KT 9999 SCT017 TEMPO 2000/2008 7000 -SHRA BKN016", "TAF FJDG 200100Z 2001/2107 15012KT 9999 SCT025 QNH2982INS TEMPO 2006/2011 15015G25KT 9000 -TSRA BKN025CB OVC040 TX31/2101Z TN25/2001Z FOR MIL USE ONLY", "TAF FKKD 192300Z 2000/2106 VRB03KT 8000 TS BKN013 FEW016CB TEMPO 2003/2007 4000 TSRA BECMG 2007/2009 NSW", "TAF FKYS 192300Z 2000/2024 VRB05KT 8000 BKN006 FEW016CB PROB30 2003/2007 4000 TSRA", "FMCH 191100Z 1912/2018 06010KT 9999 FEW020 SCT025 PROB30 TEMPO 1912/1915 4500 SHRA BECMG 1915/1917 12003KT BECMG 2004/2006 30010KT", "TAF FMCZ 192300Z 2000/2024 02006KT 9999 NSC TEMPO 2009/2015 2100 SHRA SCT030TCU", "TAF FMEE 192300Z 2000/2106 14012KT 9999 FEW030 TEMPO 2004/2009 12015G30KT BECMG 2007/2009 08012KT BECMG 2014/2016 14010KT TEMPO 2019/2024 SHRA BECMG 2104/2106 08020KT", "TAF FMMI 192300Z 2000/2106 14010KT 9999 FEW017 BKN020 BECMG 2010/2012 SCT020CB PROB30 2014/2018 4500 FU BECMG 2018/2020 FEW017 BKN020", "TAF FMMS 192300Z 2000/2024 16010KT 9999 SCT017 SCT033", "TAF FMMT 192300Z 2000/2024 24008KT 9999 SCT017 BKN033 PROB30 TEMPO 2004/2007 4500 SHRA BECMG 2006/2009 12010KT BECMG 2015/2018 24006KT", "TAF FMNA 192300Z 2000/2024 14015G25KT 9999 FEW020 SCT040", "TAF FMNM 192300Z 2000/2024 14010KT 9999 FEW020 BECMG 2009/2011 34010KT BECMG 2018/2021 08008KT", "TAF FMNN 192300Z 2000/2024 04005KT 9999 FEW007 BKN020 PROB30 TEMPO 2000/2003 4500 SHRA BECMG 2010/2012 26010KT BECMG 2018/2021 04005KT", "TAF FMSD 192300Z 2000/2024 08015G30KT 9999 FEW007 SCT017TCU BKN033 PROB30 TEMPO 2000/2006 4000 SHRA", "TAF FMST 192300Z 2000/2024 06005KT 9999 FEW020 BECMG 2006/2009 26010KT BECMG 2009/2012 FEW020CB BECMG 2018/2021 06005KT", "TAF FNBG 192300Z 2000/2012 23004KT 9999 FEW020 BKN030", "TAF FNCA 192300Z 2000/2012 20007KT 9000 SCT012 PROB30 TEMPO 2008/2012 5000 BKN020 FEW028CB", "TAF FNCT 192300Z 2000/2012 22006KT 9999 FEW020", "TAF FNDU 192300Z 2000/2012 35004KT 9999 FEW018 BKN025 PROB40 TEMPO 2001/2006 4000 TS -RA BKN010 FEW030CB", "TAF FNGI 192300Z 2000/2012 04005KT 9999 FEW030", "TAF FNHU 192300Z 2000/2012 VRB02KT 8000 SCT025", "TAF FNKU 192300Z 2000/2012 24004KT 7000 NSC", "TAF FNLU 192300Z 2000/2106 21007KT 9999 BKN024 PROB30 TEMPO 2003/2009 4000 DZ OVC015 FEW020CB", "TAF FNMA 192300Z 2000/2012 VRB02KT 9999 BKN020 PROB30 TEMPO 2003/2009 4000 TS -RA OVC014 FEW025CB", "TAF FNME 192300Z 2000/2012 VRB03KT 9999 FEW020", "TAF FNMO 192300Z 2000/2012 19008KT 9000 SCT012", "TAF FNSA 192300Z 2000/2012 VRB02KT 9999 FEW030 BKN040 PROB30 TEMPO 2001/2006 5000 DZ FEW020CB", "TAF FNSO 192300Z 2000/2012 21007KT 9000 SCT010 BKN020", "FNUB 192300Z 2000/2012 VRB03KT 9999 FEW030", "TAF FNUE 192300Z 2000/2012 34002KT 9000 SCT020 BECMG 2010/2012 13004KT", "TAF FOOG 191700Z 1918/2018 22010KT 9999 BKN011 FEW020CB PROB40 TEMPO 1919/1922 4000 TSRA BKN008 FEW018CB BECMG 1922/1924 SCT010", "TAF FOOL 192300Z 2000/2106 12006KT 8000 SCT008 BKN030 TEMPO 2001/2006 4000 TSRA BKN008 FEW018CB OVC026", "TAF FPST 191000Z 1912/2018 19010KT 9999 FEW020CB BKN033 P0ROB30 TEMPO 1913/1915 5000 RADZ FEW017CB SCT027 0VC030", "TAF FQBR 192200Z 2000/2106 12010KT 9999 FEW020 TX31/2013Z TN20/2003Z PROB30 TEMPO 2000/2005 3000 BR FEW015 BECMG 2006/2008 VRB02KT BECMG 2012/2014 16015KT BECMG 2018/2020 10010KT", "TAF FQCH 192200Z 2000/2024 VRB03KT 9999 FEW020 TX34/2013Z TN16/2003Z PROB30 TEMPO 2000/2005 3000 BR BKN016 BECMG 2012/2014 15008KT BECMG 2018/2020 09008KT", "TAF FQIN 192200Z 2000/2024 16008KT 9999 FEW020 TX30/2013Z TN22/2003Z BECMG 2006/2008 10010KT BKN020 BECMG 2012/2014 04010KT BECMG 2018/2020 11010KT", "TAF FQLC 192200Z 2000/2024 08008KT CAVOK TX29/2013Z TN12/2003Z BECMG 2006/2008 02008KT BECMG 2018/2020 09008KT", "TAF FQMA 192200Z 2000/2106 VRB02KT 9999 FEW020 TX31/2013Z TN16/2003Z PROB30 TEMPO 2000/2005 5000 BR FEW015 BECMG 2006/2008 01005KT BECMG 2012/2014 08012KT BECMG 2018/2020 15008KT", "TAF FQNC 192200Z 2000/2106 VRB03KT 9999 FEW020 TX30/2013Z TN21/2003Z PROB30 TEMPO 2000/2005 2000 BR FEW018 BECMG 2012/2014 05012KT BECMG 2021/2023 VRB03KT", "TAF FQNP 192200Z 2000/2024 04009KT CAVOK TX34/2013Z TN20/2003Z PROB30 TEMPO 2000/2005 0800 FG FEW018 BECMG 2006/2008 10008KT BECMG 2018/2020 21008KT", "TAF FQPB 192200Z 2000/2024 05007KT 9999 FEW020 TX29/2013Z TN22/2003Z BECMG 2006/2008 11010KT BECMG 2012/2014 03008KT BECMG 2018/2020 09008KT", "TAF FQQL 192200Z 2000/2024 VRB03KT 9999 BKN020 TX33/2013Z TN22/2003Z BECMG 2006/2008 11008KT BECMG 2012/2014 17012KT BECMG 2018/2020 11008KT", "TAF FQTT 192200Z 2000/2024 13008KT 9999 FEW020 TX38/2013Z TN25/2003Z BECMG 2006/2008 19012KT BECMG 2012/2014 BKN020 BECMG 2018/2020 21008KT", "TAF FQVL 192200Z 2000/2024 22007KT 9999 SCT020 TX32/2013Z TN21/2003Z BECMG 2012/2014 09012KT", "TAF FQXA 192200Z 2000/2024 10004KT CAVOK TX31/2013Z TN21/2003Z BECMG 2006/2008 06012KT BECMG 2012/2014 16012KT BECMG 2018/2020 10010KT", "TAF FSIA 192315Z 2000/2022 12010KT 9999 SCT022", "TAF FTTJ 192300Z 2000/2106 02006KT 8000 NSC TEMPO 2016/2019 4000 HZ", "TAF FVJN 191600Z 1918/2024 10011KT CAVOK", "TAF FVRG 192200Z 2000/2106 09008KT CAVOK", "TAF FWCL 190900Z 1912/2018 10008KT 9999 FEW028TCU BKN030 PROB30 TEMPO 1912/1916 -SHRA BECMG 1916/1918 09006KT 9999 NSC BECMG 2004/2006 FEW025 SCT070 BECMG 2010/2012 SCT030", "TAF FWKI 191430Z 1918/2024 04011KT 9999 FEW036 FM191800 04004KT CAVOK BECMG 2003/2005 11006KT 9999 FEW010", "TAF FYGF 192000Z 1921/2006 00000KT CAVOK", "TAF FYLZ 192000Z 1921/2006 18010KT 9999 BKN010", "TAF FYOA 192000Z 1921/2006 36010KT CAVOK", "TAF FYRU 192000Z 1921/2006 00000KT CAVOK", "TAF FYWB 192200Z 2000/2100 06005KT 9999 BKN012 TEMPO 2000/2003 00000KT 0700 FG OVC007", "TAF FYWE 192000Z 1921/2006 00000KT CAVOK", "TAF FYWH 192200Z 2000/2100 25004KT CAVOK", "TAF FZAA 191100Z 1912/2018 30010KT 8000 SCT022 BECMG 1913/1915 SCT024 FEW030CB PROB30 TEMPO 1917/1921 -TSRA BECMG 1922/2001 20004KT BKN016 BECMG 2012/2014 34012KT SCT021 FEW030CB", "TAF FZIC 190500Z 1906/2012 09008KT 7000 BKN014 TEMPO 1907/1909 TS SCT013 FEW020CB BECMG 1915/1917 NSC FM200200 00000KT 0800 FG OVC002 FM200700 18006KT 8000 NSW BKN014", "TAF COR FZNA 191700Z 1918/2024 36010KT 7000 TS BKN016 FEW018CB TEMPO 1919/1922 4000 TSRA BECMG 1923/2001 06004KT NSW SCT014 BECMG 2008/2010 24010KT SCT018 FEW022CB TEMPO 2018/2020 05004KT SCT014", "TAF FZQA 190500Z 1906/2012 08012G20KT CAVOK BECMG 1910/1912 SCT022 BECMG 1916/1918 VRB03KT", "TAF GABS 192320Z 2000/2106 VRB06KT 9999 FEW020 PROB40 TEMPO 2015/2021 TS SCT020 FEW033CB", "TAF GAGO 191700Z 1918/2018 08010KT 6000 NSC", "TAF GBYD 192300Z 2000/2106 25006KT 9999 SCT012 PROB30 TEMPO 2000/2004 TS BKN011 FEW018CB", "TAF GCFV 192000Z 1921/2021 05010KT 9999 FEW015 TX25/2014Z TN20/2006Z PROB40 TEMPO 1921/1923 35007KT PROB30 TEMPO 1922/2007 BKN014", "TAF GCGM 192000Z 1921/2021 VRB05KT 9999 FEW015 TX25/2014Z TN20/2006Z", "TAF GCHI 192000Z 1921/2021 35012KT 9999 FEW020 TX27/2014Z TN21/2006Z PROB40 TEMPO 2009/2017 05007KT", "TAF GCLA 192000Z 1921/2021 30004KT 9999 SCT025 TX26/2014Z TN19/2006Z", "TAF GCLP 192000Z 1921/2021 36014KT 9999 FEW025 TX26/2014Z TN21/2006Z", "TAF GCRR 192000Z 1921/2021 02008KT 9999 FEW020 TX29/2014Z TN20/2006Z PROB40 TEMPO 1921/1923 35018KT TEMPO 2010/2016 08010KT", "TAF GCTS 192000Z 1921/2021 03007KT 9999 FEW025 TX27/2014Z TN19/2006Z TEMPO 1921/1924 09010KT BECMG 2008/2010 09012KT", "TAF GCXO 192000Z 1921/2021 30012KT 9999 SCT005 TX22/2014Z TN14/2006Z PROB40 TEMPO 2011/2019 13008KT PROB40 TEMPO 1921/2010 2000 BCFG BKN005", "TAF GECE 191400Z 1915/2015 VRB05KT 9999 SCT015 TX23/2013Z TN19/2006Z PROB40 TEMPO 2010/2015 4000 BR BKN008", "TAF GEML 192300Z 2000/2024 30005KT 9999 FEW012 TX25/2014Z TN19/2006Z TEMPO 2000/2009 BKN010 PROB40 TEMPO 2002/2008 3000 BR BKN005", "TAF GFLL 182300Z 1900/2006 VRB02KT 9999 BKN010 TEMPO 1906/1910 09004KT TS BKN008 FEW026CB BECMG 1912/1914 26007KT SCT011 TEMPO 1918/1922 20005KT BKN010 TEMPO 09005KT TS BKN008 FEW027CB", "TAF GGOV 192300Z 2000/2024 VRB05KT 8000 SCT012", "TAF GMAD 192300Z 2000/2106 12008KT 8000 NSC", "TAF GMAG 192300Z 2000/2106 12004KT 8000 NSC", "TAF GMFF 192300Z 2000/2106 20006KT CAVOK BECMG 2012/2016 9999 SCT033 BECMG 2020/2022 CAVOK", "TAF GMFK 192300Z 2000/2106 30008KT CAVOK TEMPO 2010/2018 21012KT", "TAF GMFM 192300Z 2000/2106 16006KT CAVOK TEMPO 2012/2020 32010KT", "TAF GMFO 192300Z 2000/2106 19015KT CAVOK TEMPO 2005/2018 9999 SCT026 SCT100", "TAF GMME 192300Z 2000/2106 00000KT 5000 FEW010 SCT020 TEMPO 2001/2006 VRB02KT 3000 BR BKN010 BKN100 PROB40 TEMPO 2002/2005 0200 FG OVC006 BECMG 2006/2010 32008KT BECMG 2009/2011 34014KT", "TAF GMMH 192300Z 2000/2106 01014KT 8000 NSC PROB30 2002/2008 2000 BR", "TAF GMMI 192300Z 2000/2106 VRB02KT 7000 NSC PROB40 2000/2008 2000 BR", "TAF GMML 192300Z 2000/2106 05014KT 8000 NSC PROB30 2002/2008 2000 BR", "TAF GMMN 192300Z 2000/2106 14003KT CAVOK PROB30 TEMPO 2004/2008 3000 BR SCT003 BECMG 2011/2014 34012KT BECMG 2019/2022 VRB03KT", "TAF GMMW 192300Z 2000/2106 VRB02KT 7000 NSC PROB40 2000/2008 2000 BR", "TAF GMMX 192300Z 2000/2106 24006KT 8000 NSC TEMPO 2016/2021 34016KT", "TAF GMMZ 192300Z 2000/2106 29003KT 8000 SCT030 TEMPO 2015/2021 18013KT", "TAF GMTA 192300Z 2000/2106 VRB02KT 7000 NSC PROB30 2000/2008 2000 BR", "TAF GMTT 192300Z 2000/2106 VRB02KT 4000 BR NSC TEMPO 2000/2007 0600 FG BECMG 2008/2011 CAVOK", "TAF GOBD 192300Z 2000/2106 26007KT 9999 SCT010", "TAF GOGS 192300Z 2000/2024 26006KT 9999 SCT014 TEMPO 2000/2004 4500 TSRA BKN012 FEW030CB", "TAF GOOY 192300Z 2000/2106 27007KT 9999 SCT013", "TAF GOSS 192300Z 2000/2024 25008KT 9999 SCT013", "TAF GQNO 192300Z 2000/2106 33010KT 8000 NSC BECMG 2006/2010 09010KT BECMG 2015/2018 33008KT", "TAF GQPP 192300Z 2000/2024 36015KT 8000 NSC", "TAF GVAC 192300Z 2000/2106 06012KT 9000 FEW014", "TAF GVBA 192300Z 2000/2106 03011KT 9000 FEW015", "TAF GVNP 192300Z 2000/2106 02011KT 9999 FEW018", "TAF GVSV 192300Z 2000/2106 07018KT 9000 FEW018", "TAF HAAB 192130Z 2000/2106 VRB05KT 9999 FEW026 SCT090", "HABD 191530Z 1918/2024 24005KT 9999 BKN025 SCT080 BECMG 1918/1923 16008KT 9000 -RA BKN024 ", "HADC 191530Z 1918/2024 09006KT 9999 SCT025 SCT080 BECMG 1918/1923 08008KT 9000 -RA BKN024 ", "TAF HADR 192130Z 2000/2106 35005KT 9999 SCT027 SCT090", "HAGN 191530Z 1918/2024 36006KT 9999 SCT025 BKN080 BECMG 1918/1923 04005KT 9000 -RA BKN024 ", "HAJJ 191530Z 1918/2024 20008KT 9999 FEW025 SCT080 BECMG 1918/1923 08006KT SCT025 ", "TAF HBBA 192300Z 2000/2106 VRB03KT 9999 FEW025 SCT090 BECMG 2007/2009 18008G20KT 9999 FEW030 BKN100 PROB40 TEMPO 2013/2018 09012G25KT 7000 TSRA OR SHRA FEW023CB SCT090 BKN100 BECMG 2019/20211 00000KT 9999 FEW025 SCT100 BECMG 2102/2104 36004KT 9999 FEW025 SCT100", "TAF HCMM 191100Z 1912/2018 18010KT 9999 SCT022 SCT090 BECMG 1921/2000 17005KT BKN019 BECMG 2009/2012 18010KT SCT023", "TAF HDAM 192300Z 2000/2024 25005KT 9999 FEW00 FEW133 BECMG 2006/2012 08010G15KT FEW023 SCT133 BECMG 2015/2021 VRB05KT CAVOK", "TAF HEAL 192300Z 2000/2106 29007KT 9999 SCT020 TEMPO 2000/2024 8000 -RA BKN020 PROB30 TEMPO 2000/2006 VRB03KT 4000 BR NSC", "TAF HEAR 192300Z 2000/2106 VRB03KT 9999 SCT025 BECMG 2006/2008 34011KT BECMG 2019/2021 VRB03KT", "TAF HEAT 192300Z 2000/2106 33007KT CAVOK", "TAF HEAX 192300Z 2000/2106 29007KT 9999 SCT020 TEMPO 2000/2024 8000 -RA BKN020", "TAF HEBA 192300Z 2000/2106 29007KT 9999 SCT020 TEMPO 2000/2024 8000 -RA BKN020 PROB30 TEMPO 2000/2006 VRB03KT 4000 BR NSC", "TAF HEBL 192300Z 2000/2106 35011KT CAVOK", "TAF HECA 192300Z 2000/2106 01008KT 9999 SCT025 TEMPO 2000/2008 VRB03KT 4000 BR NSC", "TAF HEGN 192300Z 2000/2106 29013KT CAVOK", "TAF HELX 192300Z 2000/2106 31007KT CAVOK TEMPO 2004/2009 6000 NSC", "TAF HEMA 192300Z 2000/2106 30006G18KT CAVOK", "TAF HEMM 192300Z 2000/2106 29007KT 9999 SCT020 TEMPO 2000/2024 8000 -RA BKN020 PROB30 TEMPO 2000/2006 VRB03KT 4000 BR NSC", "TAF HEOW 192300Z 2000/2106 35012KT CAVOK", "TAF HEPS 192300Z 2000/2106 29009KT 9999 SCT025 BECMG 2009/2011 35010KT", "TAF HESC 192300Z 2000/2106 VRB04KT CAVOK BECMG 2007/2009 35012KT BECMG 2018/2020 VRB03KT", "TAF HESG 192300Z 2000/2106 33010KT CAVOK", "TAF HESH 192300Z 2000/2106 35011KT CAVOK", "TAF HESN 192300Z 2000/2106 34010KT CAVOK", "TAF HETB 192300Z 2000/2106 VRB04KT CAVOK BECMG 2006/2008 36013KT BECMG 2020/2022 VRB04KT", "TAF HETR 192300Z 2000/2106 36008G22KT CAVOK", "TAF HKEL 192300Z 2000/2106 13005KT 9999 FEW017 SCT080 BECMG 2008/2011 08010KT FEW023CB SCT024 PROB40 TEMPO 2013/2017 -TSRA FEW019CB SCT020 BKN080 BECMG 2020/2023 18005KT NSW FEW017 SCT080", "TAF HKJK 192300Z 2000/2106 05010KT 9999 BKN018 BECMG 2008/2011 11010K T SCT027 BECMG 2020/2023 06005KT SCT021 BECMG 2101/2105 BKN017", "TAF HKKI 192300Z 2000/2106 04005KT 9999 FEW018CB SCT019 BKN080 BECMG 2008/2011 23010KT FEW025CB SCT026 PROB40 TEMPO 2013/2017 -TSRA FEW021 CB SCT022 BKN080 BECMG 2020/2023 06005KT NSW FEW019 SCT080", "TAF HKML 192300Z 2000/2024 16010KT 9999 SCT023 BECMG 2021/2024 00000KT BKN020", "TAF HKMO 192300Z 2000/2106 15010KT 9999 SCT024 BECMG 2100/2103 22005KT BKN020", "TAF HKNW 192300Z 2000/2024 06010KT 9999 BKN017 BECMG 2008/2011 12010KT SCT026 BECMG 2020/2023 06005KT SCT021", "TAF COR HLLB 182300Z 1906/2006 VRB02KT 8000 SCT022 SCT070 BECMG 1916/1918 36010KT", "HRYR 192300Z 2000/2106 32004KT 9999 SCT026 FM 200800 27006KT BKN023 TEMPO 2011/2015 09010G20KT 5000 TSRA FEW020CB BKN023 BECMG 2017/2020 33006KT 9999 NSW SCT026 BECMG 2102/2105 00000KT", "HRZA 191700Z 1918/2024 34004KT 9999 SCT026 BKN100 BECMG 2005/2008 27006KT BKN023 TEMPO 2011/2016 0910G20KT 5000 TSRA FEW020CB BKN023 BECMG 2017/2020 33005KT 9999 NSW BKN026", "TAF HSSJ 191100Z 1912/2018 09005KT 9999 SCT040 BKN140 PROB30 TEMPO 1912/1918 22005G15KT 6000 -TSRA FEW045CB BKN090", "TAF HSSK 192300Z 2000/2106 34008G18KT CAVOK TEMPO 2010/2016 VRB03KT 9999 FEW040 SCT140 TEMPO 2017/2021 6000", "TAF HSSM 191000Z 1912/2018 12005KT 9999 SCT040 BKN140 PROB30 TEMPO 1912/1918 15005G15KT 6000 TSRA FEW045CB BKN090", "HTAR 192300Z 2000/2024 12010KT 9999 BKN020", "TAF HTDA 192300Z 2000/2106 15005KT 9999 SCT013 BECMG 2007/2010 09010KT BKN030 BECMG 2015/2018 SCT016", "HTDO 192300Z 2000/2024 09010KT O5OV120 9999 NSC", "HTKA 190500Z 1906/2006 00000KT 9999 FEW019 FEW020CB PROB30 TEMPO 1908/1911 21008KT -TSRA", "TAF HTKJ 192300Z 2000/2024 09005KT 9999 BKN020 BECMG 2009/2011 FEW028 BECMG 2014/2016 09015KT", "HTMW 192300Z 2000/2024 13010KT 9999 TSRA BKN018 FEW019CB BECMG 2010/2012 34010KT NSW SCT024 FEW025CB", "HTTB 192300Z 2000/2024 12010KT 9999 FEW020", "HTZA 192300Z 2000/2024 00000KT 9999 FEW016 BECMG 2003/2005 22010KT BECMG 2010/2012 12015KT", "TAF HUEN 191700Z 1918/2024 36008KT 9999 FEW026 BECMG 1918/1923 27005KT FEW023 TEMPO 2008/2020 09005KT FEW024 FEW026CB FM201100 16006KT", "TAF HUSO 191050Z 1912/2012 09006KT 9999 BKN020 FEW022CB FM 191500 07012KT 9000 -TSRA BKN018 FEW020CB BECMG 2002/2006 36005KT 9999 FEW020 SCT100 BECMG 2009/2012 07008KT SCT021 FEW023CB", "KABE 192320Z 2000/2024 24005KT P6SM BKN080 FM200600 VRB03KT P6SM SCT080 FM201400 24010KT P6SM FEW250", "KABI 192320Z 2000/2024 24009KT P6SM SKC FM201500 27011KT P6SM SKC", "KABQ 192320Z 2000/2024 VRB05KT P6SM SKC", "KABR 192320Z 2000/2024 24004KT P6SM BKN250 FM200200 30004KT P6SM SCT250 FM201800 24009KT P6SM SCT250 FM202300 20008KT P6SM SCT250", "KABY 192325Z 2000/2024 32005KT P6SM SKC", "KACK 192330Z 2000/2024 25014KT P6SM FEW250 FM201600 24018G25KT P6SM SCT040", "KACT 192320Z 2000/2024 16007KT P6SM SKC FM201500 22011KT P6SM SKC", "KACV 192338Z 2000/2024 28005KT 1/2SM FG OVC002 TEMPO 2000/2003 1/4SM FG VV001 FM200600 00000KT 1/4SM FG OVC002 FM201600 00000KT 2SM BR BKN003 FM202200 32005KT 4SM BR SCT005 BKN250", "KACY 192320Z 2000/2024 VRB02KT P6SM SCT060 TEMPO 2000/2002 BKN060 FM201400 22012G20KT P6SM FEW250", "KADF 192320Z 2000/2024 VRB03KT P6SM SKC FM201600 22007KT P6SM SKC", "TAF KADW 200100Z 2001/2107 25006KT 9999 FEW040 QNH2985INS BECMG 2014/2015 22010G20KT 9999 SKC QNH2991INS BECMG 2021/2022 19006KT 9999 SKC QNH2993INS TX14/2020Z TN02/2011Z", "KAEG 192320Z 2000/2024 VRB05KT P6SM SKC", "KAEX 192320Z 2000/2024 00000KT P6SM SKC FM201600 22007KT P6SM SKC", "TAF AMD KAFF 192103Z 1921/2101 36012G18KT 9999 SKC 520005 QNH3024INS TEMPO 1921/1923 36015G25KT 530005 BECMG 1923/1924 34012KT 9999 SKC 520005 QNH3028INS BECMG 2009/2010 VRB06KT 9999 SKC 520209 QNH3025INS ROTOR CONDS EXIST BECMG 2015/2016 01009KT 9999 SCT250 QNH3012INS WND 300V120 BECMG 2019/2020 15012KT 9999 SCT250 QNH3005INS TX23/1921Z TNM02/2013Z LAST NO AMDS AFT 2000 NEXT 2011", "KAFW 192320Z 2000/2024 16005KT P6SM SKC FM201300 23010KT P6SM SKC FM201800 30011KT P6SM SKC", "KAGC 192320Z 2000/2024 24008KT P6SM BKN035 FM200400 22007KT P6SM SKC FM201400 23010G20KT P6SM SCT150 FM202200 22005KT P6SM BKN080", "KAGS 192334Z 2000/2024 00000KT P6SM SKC FM201500 21004KT P6SM SKC FM201900 24007KT P6SM SKC", "KAHN 192322Z 2000/2024 29005KT P6SM SKC FM200400 VRB02KT P6SM SKC FM201600 25007KT P6SM FEW080", "KAIA 192326Z 2000/2024 36010G20KT P6SM FEW240 FM200100 34008KT P6SM FEW250 FM200600 VRB06KT P6SM FEW250 FM201900 27010G20KT P6SM SKC", "KALB 192320Z 2000/2024 18008KT P6SM BKN060 OVC090 FM200300 19008KT P6SM FEW060 FM201500 20012G20KT P6SM FEW060", "KALI 192325Z 2000/2024 VRB04KT P6SM SKC FM201500 20008KT P6SM SKC", "KALO 192324Z 2000/2024 27005KT P6SM BKN100 FM200500 25004KT P6SM SCT250 FM201500 30007KT P6SM SCT250", "KALS 192326Z 2000/2024 VRB06KT P6SM SKC", "KALW 192320Z 2000/2024 24004KT P6SM SKC FM200200 13005KT P6SM SKC FM200700 14006KT 5SM HZ FEW250 FM201800 24009KT P6SM SKC", "KAMA 192340Z 2000/2024 25008KT P6SM SKC FM200800 32010KT P6SM SKC FM202000 25008KT P6SM SKC", "KANB 192330Z 2000/2024 00000KT P6SM SCT250 FM201600 25007KT P6SM SCT110", "KAND 192320Z 2000/2024 VRB03KT P6SM SKC FM201500 22004KT P6SM FEW240 FM201800 24009KT P6SM SCT250 FM202300 24006KT P6SM SKC", "KAOO 192327Z 2000/2024 29010G15KT P6SM -SHRA OVC020 FM200400 24010G17KT P6SM BKN040 FM200900 23010G21KT P6SM SCT040 BKN250 FM201800 23015G22KT P6SM SKC FM202000 25009KT P6SM BKN250", "KAPA 192324Z 2000/2024 36007KT P6SM SKC FM200100 06006KT P6SM SKC FM200400 23006KT P6SM SKC FM201200 19005KT P6SM SKC FM202000 16006KT P6SM SKC", "KAPC 192331Z 2000/2024 21007KT P6SM SKC FM200200 VRB03KT P6SM SCT200 FM201900 20005KT P6SM SKC", "KAPF 192320Z 2000/2024 01007KT P6SM FEW050 SCT250 FM201500 01009KT P6SM SCT040 SCT120 BKN200 FM201800 33010KT P6SM SCT050 BKN250", "KAPN 192337Z 2000/2024 28007KT P6SM VCSH BKN030 FM200400 26007KT P6SM VCSH OVC040 FM201300 25009G14KT P6SM VCSH BKN026", "KARA 192320Z 2000/2024 VRB03KT P6SM SKC FM201600 23006KT P6SM SKC", "KART 192327Z 2000/2024 17010G18KT P6SM VCSH OVC050 FM200200 21012G22KT P6SM VCSH OVC025 FM200900 21012G22KT P6SM OVC035 FM202100 21012G22KT P6SM OVC035", "KASD 192320Z 2000/2024 VRB03KT P6SM SKC", "KASE 192320Z 2000/2024 30008KT P6SM SKC FM200200 21009KT P6SM FEW250 FM200700 20004KT P6SM SKC FM201600 36007KT P6SM SKC", "KASN 192330Z 2000/2024 00000KT P6SM SCT250 FM201600 25006KT P6SM SCT110", "KAST 192336Z 2000/2024 32011KT 6SM HZ SCT250 FM200500 32006KT 1 1/2SM BR BKN005 FM201300 29004KT 4SM BR OVC005 FM202000 31007KT 4SM HZ BKN100", "KATL 192322Z 2000/2106 30005KT P6SM SKC FM201600 26008KT P6SM FEW250", "KATW 192328Z 2000/2024 27009KT P6SM SKC FM200700 26005KT P6SM BKN080 FM201500 30006KT P6SM SKC FM202300 22004KT P6SM SKC", "KATY 192320Z 2000/2024 27005KT P6SM BKN250 FM200700 32006KT P6SM SCT250 FM201900 28008KT P6SM FEW250 FM202100 25008KT P6SM SCT250", "KAUG 192325Z 2000/2024 20005KT P6SM SKC FM201600 22007G14KT P6SM SKC FM202200 20005KT P6SM SKC", "KAUS 192320Z 2000/2106 VRB03KT P6SM FEW250 FM201500 23009KT P6SM SKC", "KAUW 192328Z 2000/2024 29007KT P6SM SKC FM200400 29005KT P6SM BKN080 FM201300 31007KT P6SM SKC FM202100 27006KT P6SM SKC", "KAVL 192320Z 2000/2024 34005KT P6SM SKC FM200600 33002KT P6SM SKC FM201600 20004KT P6SM FEW240 FM201900 21007KT P6SM SCT240 FM202300 23005KT P6SM SKC", "KAVP 192320Z 2000/2024 23008KT P6SM BKN080 FM201000 22006KT P6SM SCT200 FM201400 23012G20KT P6SM FEW250 FM202300 21005KT P6SM SCT180", "KAXN 192326Z 2000/2024 27005KT P6SM BKN200 FM200500 32007KT P6SM FEW250 FM202000 24008KT P6SM BKN250", "KAZO 192340Z 2000/2024 27008KT P6SM BKN040 FM200600 25007KT P6SM BKN080 FM201200 23011KT P6SM BKN080", "TAF KBAB 191904Z 1919/2101 21006KT 9999 SKC QNH2995INS WND VRB06KT AFT 2002 BECMG 2017/2018 22006KT 9999 SKC QNH2983INS TX30/1923Z TN09/2014Z", "TAF KBAD 192000Z 1920/2102 29005KT 9999 SKC QNH3011INS WND 00000 AFT 200Z BECMG 2014/2015 19010G15KT 9999 SKC QNH2992INS WND 18003 AFT 2100 TX17/1921Z TN03/2012Z", "KBAF 192330Z 2000/2024 21005KT P6SM FEW130 FM201300 21007KT P6SM SKC FM201900 21012G23KT P6SM SKC FM202300 20006KT P6SM FEW250", "KBAM 192320Z 2000/2024 VRB05KT P6SM SCT250", "KBBD 192320Z 2000/2024 23008KT P6SM SKC", "KBBG 192320Z 2000/2024 VRB03KT P6SM SCT250 FM201400 24007KT P6SM SKC FM202100 27009KT P6SM SKC", "KBCB 192322Z 2000/2024 VRB04KT P6SM FEW240 FM201700 24007KT P6SM FEW220 FM202300 VRB04KT P6SM FEW220", "KBCE 192320Z 2000/2024 16008KT P6SM SCT250 FM200300 29007KT P6SM SCT250 FM201700 18010G18KT P6SM SCT200", "KBDL 192330Z 2000/2106 22006KT P6SM FEW150 FM201900 21013G23KT P6SM FEW250 FM202200 20010KT P6SM FEW250 FM210500 20004KT P6SM FEW200", "KBDN 192320Z 2000/2024 35008KT P6SM SKC FM200300 VRB05KT P6SM SKC FM200500 21006KT P6SM SKC FM201300 20005KT 5SM HZ SKC FM201800 31008KT P6SM OVC250", "KBDR 192322Z 2000/2024 27008KT P6SM SCT250 FM200500 24008KT P6SM FEW050 FM201400 25012G21KT P6SM FEW250 FM202000 22013G15KT P6SM SKC", "KBED 192330Z 2000/2024 22005KT P6SM SKC FM201300 22007KT P6SM SKC FM201700 22012G23KT P6SM SKC FM202300 21007KT P6SM FEW250", "KBFD 192327Z 2000/2024 24010G20KT P6SM -SHRASN BKN010 OVC020 FM200100 24010G17KT 4SM -SHSN BR OVC010 FM201000 22009KT P6SM BKN040 FM201200 22009G17KT P6SM OVC250 FM202200 23006KT P6SM OVC100", "KBFF 192326Z 2000/2024 34012G22KT P6SM SKC FM200200 VRB06KT P6SM SKC FM201900 28012G22KT P6SM SKC", "KBFI 192334Z 2000/2024 VRB04KT 1SM HZ FU SKC FM200900 35004KT 2SM BR FU SCT015 FM201300 34005KT 2SM FU OVC020 FM201800 VRB03KT 5SM FU BKN035 FM202100 35006KT 5SM FU BKN035", "KBFL 192325Z 2000/2024 29008KT 6SM HZ SCT250 FM200300 VRB03KT 6SM HZ SCT250", "KBFM 192320Z 2000/2024 VRB04KT P6SM SKC FM201700 24006KT P6SM SKC", "KBGM 192320Z 2000/2024 22010G18KT P6SM FEW025 OVC050 FM200600 22009G14KT P6SM BKN040 FM201400 22014G22KT P6SM BKN200 FM202200 22009G15KT P6SM BKN120", "KBGR 192320Z 2000/2024 19005KT P6SM SCT120 BKN200 FM201500 21007G13KT P6SM FEW040", "KBHB 192320Z 2000/2024 21007KT P6SM SCT100 BKN220 FM201500 21013G25KT P6SM FEW035", "KBHM 192330Z 2000/2024 30006KT P6SM FEW250 FM200100 00000KT P6SM SCT250 FM201600 25008KT P6SM SCT110", "TAF KBIF 192200Z 1922/2104 VRB06KT 9999 SKC QNH3026INS TX20/2020Z TN07/2012Z", "KBIH 192320Z 2000/2024 19007KT P6SM FEW200 FM200500 34006KT P6SM BKN200", "KBIL 192320Z 2000/2024 VRB06KT P6SM SKC FM200500 24009KT P6SM SKC FM201500 24015KT P6SM SKC FM201900 27015G30KT P6SM SKC", "KBIS 192321Z 2000/2024 31008KT P6SM SCT250 FM200800 32003KT P6SM SCT250 FM201500 24006KT P6SM SCT250 FM202100 22014KT P6SM SCT250", "TAF KBIX 191800Z 1918/2100 06009KT 9999 SKC QNH3024INS BECMG 1923/1924 VRB06KT 9999 SKC QNH3017INS TX18/2018Z TN04/2011Z", "KBJC 192324Z 2000/2024 VRB05KT P6SM SKC FM200500 25006KT P6SM SKC FM201200 VRB05KT P6SM SKC FM201700 15006KT P6SM SKC", "KBJI 192320Z 2000/2024 VRB03KT P6SM FEW250 FM201200 26005KT P6SM BKN200 FM201600 29005KT P6SM BKN150", "KBKE 192320Z 2000/2024 VRB04KT 6SM HZ SKC FM202000 36006KT P6SM BKN150", "TAF KBKF 200100Z 2001/2107 VRB06KT 9999 SKC 510023 QNH2997INS TX23/2022Z TN05/2013Z", "KBKW 192320Z 2000/2024 23005KT P6SM SKC FM201300 24011G19KT P6SM FEW210 FM202100 23008KT P6SM SCT160", "KBLF 192322Z 2000/2024 27005KT P6SM SKC FM201500 25009G17KT P6SM FEW230 FM202300 VRB04KT P6SM FEW250", "KBLH 192320Z 2000/2024 06009KT P6SM FEW250 FM200300 36005KT P6SM FEW250 FM201200 VRB04KT P6SM FEW250", "KBLI 192334Z 2000/2024 VRB03KT 2SM FU SKC FM200100 VRB02KT 3SM FU BKN250 FM200800 VRB03KT 2SM BR FU FEW250 FM201500 21008KT P6SM BKN019 FM201900 25006KT P6SM SCT040", "TAF KBLV 200000Z 2000/2106 25006KT 9999 BKN300 QNH2997INS BECMG 2011/2012 23006KT 9999 SCT150 BKN250 QNH2989INS BECMG 2017/2018 22012G18KT 9999 FEW250 QNH2982INS BECMG 2021/2022 24006KT 9999 SKC QNH2982INS TX18/2020Z TNM01/2012Z", "KBMG 192320Z 2000/2024 24005KT P6SM FEW250 FM201500 23012G22KT P6SM BKN200 FM202300 21007KT P6SM SKC AMD LTD TO CLD VIS AND WIND 2001/2013", "KBMI 192334Z 2000/2024 27008KT P6SM SCT250 FM200700 24008KT P6SM SCT250 FM201500 23012G20KT P6SM SCT250", "KBNA 192320Z 2000/2024 28005KT P6SM SCT250 FM201500 22008KT P6SM SKC", "KBNO 192320Z 2000/2024 VRB06KT P6SM SKC FM200300 33006KT P6SM SKC FM200900 VRB04KT P6SM SKC FM202000 25008KT P6SM BKN150", "KBOI 192320Z 2000/2024 31006KT P6SM SKC FM200400 14006KT P6SM SKC FM201900 31006KT P6SM SKC", "KBOS 192330Z 2000/2106 23010KT P6SM SKC FM201600 22015G23KT P6SM SKC FM202200 21013G21KT P6SM SKC FM210500 21007KT P6SM FEW250", "KBPI 192321Z 2000/2024 34006KT P6SM SKC FM200100 VRB05KT P6SM SKC FM202000 27012G20KT P6SM SKC", "KBPK 192320Z 2000/2024 VRB03KT P6SM SKC FM201500 22007KT P6SM SCT250", "KBPT 192320Z 2000/2024 VRB03KT P6SM SKC FM201600 22007KT P6SM SKC", "KBRD 192320Z 2000/2024 VRB03KT P6SM FEW100 BKN200 FM200500 31005KT P6SM SCT200 FM202100 24007KT P6SM SCT200", "KBRL 192320Z 2000/2024 27007KT P6SM BKN210 FM201800 27009KT P6SM FEW250", "KBRO 192328Z 2000/2024 03006KT P6SM SKC FM200500 00000KT P6SM SKC FM201800 14005KT P6SM SKC", "KBTL 192340Z 2000/2024 27008KT P6SM BKN040 FM200600 25007KT P6SM BKN080 FM201200 23011KT P6SM BKN080", "KBTM 192326Z 2000/2024 VRB05KT P6SM SKC FM201900 29018G27KT P6SM BKN150", "KBTR 192320Z 2000/2024 VRB03KT P6SM SKC", "KBTV 192331Z 2000/2024 19007KT P6SM BKN080 FM201600 19014G20KT P6SM SCT045 BKN100", "KBUF 192327Z 2000/2024 26015G25KT P6SM -SHRA SCT015 OVC040 FM200400 24012G22KT P6SM -SHRA BKN025 OVC040 FM201200 23010G20KT P6SM VCSH OVC030 FM201600 22015G30KT P6SM OVC035 FM202300 23011G21KT P6SM OVC025", "KBUR 192342Z 2000/2024 18010KT P6SM SCT150 FM200300 12007KT P6SM SCT150 FM200600 VRB03KT P6SM SCT150 FM202000 17010KT P6SM SCT150", "KBVI 192320Z 2000/2024 24008KT P6SM BKN025 FM200300 22007KT P6SM SKC FM201400 23010G20KT P6SM SCT150 FM202200 22005KT P6SM BKN080", "KBVO 192320Z 2000/2024 18003KT P6SM SCT250 FM201500 VRB05KT P6SM SCT250", "KBWG 192327Z 2000/2024 00000KT P6SM FEW250 FM201400 22007KT P6SM SKC FM201600 23012G18KT P6SM FEW100 FM202300 21006KT P6SM SKC", "KBWI 192326Z 2000/2106 26006KT P6SM FEW070 FEW200 FM200400 24005KT P6SM SKC FM201600 23011G18KT P6SM SKC FM202200 20006KT P6SM FEW150", "KBYI 192321Z 2000/2024 VRB03KT P6SM SKC FM200100 28010KT P6SM SKC FM200500 21006KT P6SM SKC FM201200 VRB03KT P6SM SKC FM201900 26010KT P6SM SKC", "KBZN 192320Z 2000/2106 VRB03KT P6SM SKC FM202100 27011KT P6SM SCT150", "KCAE 192334Z 2000/2024 00000KT P6SM SKC FM201500 21004KT P6SM SKC FM201900 24007KT P6SM SKC", "KCAK 192323Z 2000/2024 25011KT P6SM SCT025 BKN045 FM200200 25010KT P6SM BKN060 FM201600 23014G22KT P6SM BKN080", "KCAR 192329Z 1923/2024 18007G13KT P6SM BKN100 FM200200 19005KT P6SM SCT120 FM201400 19009KT P6SM FEW022 FM201700 19009G16KT P6SM SCT040", "TAF KCBM 200100Z 2001/2107 24006KT 9999 SKC QNH3001INS TX16/2020Z TNM02/2010Z", "KCDC 192320Z 2000/2024 02007KT P6SM SCT250 FM200300 14006KT P6SM SCT250 FM200600 VRB03KT P6SM SCT250 FM201800 32007KT P6SM SCT200", "KCDR 192326Z 2000/2024 02010G20KT P6SM SKC FM200100 VRB06KT P6SM FEW250 FM201900 27010G20KT P6SM SKC", "KCDS 192320Z 2000/2024 16009KT P6SM SKC FM201500 34011KT P6SM SKC", "KCEC 200052Z 2001/2024 33006KT 3SM BR SCT004 FM200400 17004KT 1/2SM FG BKN002 FM201200 VRB03KT 1/4SM FG OVC002 FM201800 32008KT 4SM BR SCT003 FM202100 34016KT 5SM HZ FEW005 BKN250", "TAF KCEF 191800Z 1918/2024 22009KT 9999 BKN060 620602 510059 QNH2974INS TEMPO 1918/1920 25010G20KT 520004 510405 BECMG 1920/1921 22009KT 9999 FEW040 510108 QNH2976INS BECMG 2002/2003 VRB06KT 9999 FEW040 520108 QNH2984INS BECMG 2013/2014 21010G15KT 9999 SCT250 510054 QNH2991INS TEMPO 2016/2021 22015G25KT 520005 BECMG 2020/2021 22009KT 9999 FEW120 SCT250 QNH2989INS TX13/1920Z TN02/2010Z", "KCGI 192328Z 2000/2024 23007KT P6SM FEW250 FM200300 VRB03KT P6SM SCT250 FM201500 22007KT P6SM SCT250 FM201900 22011G17KT P6SM SCT250", "KCHA 192320Z 2000/2024 25005KT P6SM SKC", "KCHO 192326Z 2000/2024 22003KT P6SM FEW070 FM201400 21008KT P6SM FEW200", "KCHS 192320Z 2000/2024 00000KT P6SM SKC FM201500 25005KT P6SM SKC", "KCID 192320Z 2000/2024 27009KT P6SM BKN240 FM201600 30009KT P6SM SKC", "KCIU 192337Z 2000/2024 29010G16KT P6SM VCSH OVC014 FM200200 29009G17KT P6SM VCSH OVC021 FM200600 26006KT P6SM VCSH OVC035 FM200900 26006KT 6SM BR VCSH BKN030 FM201500 29007KT P6SM VCSH BKN018", "KCKB 192333Z 2000/2024 24008KT P6SM OVC050 FM200200 23004KT P6SM FEW240 WS020/27035KT FM201400 22011G20KT P6SM FEW230 FM202100 23009G16KT P6SM BKN150", "KCKV 192320Z 2000/2024 25004KT P6SM SKC FM201400 23007KT P6SM FEW250", "KCLE 192323Z 2000/2106 23011KT P6SM SCT025 OVC035 FM200200 25010KT P6SM BKN060 FM201500 22014G24KT P6SM BKN080", "KCLL 192320Z 2000/2024 VRB04KT P6SM SKC FM201500 23009KT P6SM SKC", "KCLM 192334Z 2000/2024 35004KT P6SM SKC FM200200 27005KT P6SM SCT150 FM201200 28004KT P6SM BKN015 FM201900 VRB03KT P6SM BKN020", "KCLT 192320Z 2000/2106 25003KT P6SM SKC FM200200 31002KT P6SM SKC FM201400 17004KT P6SM FEW250 FM201800 21007KT P6SM FEW240 FM210100 21003KT P6SM FEW250", "KCMA 192342Z 2000/2024 23010KT P6SM SCT150 FM200300 VRB03KT P6SM SCT150 FM201200 06007KT P6SM SCT150 FM201900 23008KT P6SM SCT150", "KCMH 192330Z 2000/2024 24005KT P6SM FEW040 SCT250 FM200900 21006KT P6SM SCT150 FM201500 23011G19KT P6SM BKN090 FM202300 19006KT P6SM BKN090", "KCMI 192334Z 2000/2024 27008KT P6SM SCT250 FM200600 24007KT P6SM SCT250 FM201500 23012G20KT P6SM SCT250", "KCMX 192335Z 2000/2024 30012KT P6SM SCT200 FM200300 32012KT P6SM BKN080 FM201700 30007KT P6SM SCT200 FM202200 26009KT P6SM BKN200", "KCNM 192326Z 2000/2024 VRB05KT P6SM FEW250", "KCNU 192321Z 2000/2024 19005KT P6SM SCT250 FM201500 22008KT P6SM SKC FM201900 27007KT P6SM SKC", "KCNY 192320Z 2000/2024 30006KT P6SM FEW250 FM200300 26003KT P6SM FEW250 FM201000 VRB03KT P6SM SKC FM201800 27003KT P6SM SKC", "KCOD 192321Z 2000/2024 04007KT P6SM FEW200 FM200300 23007KT P6SM SKC FM201500 25014G22KT P6SM SKC", "KCOE 192320Z 2000/2024 VRB06KT 6SM HZ SKC FM202000 21008KT P6SM SKC", "TAF KCOF 191800Z 1918/2024 36015G20KT 9999 SCT030 BKN200 QNH2998INS BECMG 1922/1923 36010G15KT 9999 SCT040 QNH2999INS BECMG 2013/2014 01012G18KT 9999 SCT060 SCT100 QNH2995INS TX23/2018Z TN13/2010Z", "KCON 192325Z 2000/2024 VRB04KT P6SM SCT250 FM201700 22010G18KT P6SM SKC FM202200 20006KT P6SM SKC", "KCOS 192326Z 2000/2024 03012KT P6SM SKC FM200200 36007KT P6SM SKC FM201600 17009KT P6SM SKC", "KCOT 192325Z 2000/2024 VRB04KT P6SM SKC", "KCOU 192320Z 2000/2024 23005KT P6SM SCT200 FM201500 26010G18KT P6SM FEW250", "KCPR 192321Z 2000/2024 02007KT P6SM SKC FM200300 24007KT P6SM SKC FM201400 22016G23KT P6SM SKC FM201900 27018G25KT P6SM SKC", "KCPS 192320Z 2000/2024 23004KT P6SM SCT200 FM201500 25009G17KT P6SM FEW250", "KCRE 192333Z 2000/2024 00000KT P6SM SKC FM201300 08004KT P6SM SKC FM201600 18008KT P6SM FEW250 FM202300 20002KT P6SM SCT250", "KCRG 192338Z 2000/2024 35005KT P6SM SKC FM200300 00000KT P6SM SKC FM201500 34006KT P6SM FEW250 FM202100 03008KT P6SM FEW250", "KCRP 192325Z 2000/2024 VRB05KT P6SM SKC FM201500 20009KT P6SM SKC", "KCRQ 192329Z 2000/2024 28008KT P6SM FEW200 FM200200 VRB04KT P6SM FEW200 FM201900 25008KT P6SM FEW090 SCT200", "KCRW 192320Z 2000/2024 VRB04KT P6SM SKC FM200900 22006KT P6SM FEW230 FM201500 23008G17KT P6SM FEW230 FM202200 22005KT P6SM SCT160", "KCSG 192322Z 2000/2024 33006KT P6SM SKC FM200300 00000KT P6SM SKC FM201700 27007KT P6SM FEW250", "KCSM 192320Z 2000/2024 20010KT P6SM SKC FM201100 34012KT P6SM FEW250", "KCSV 192320Z 2000/2024 26005KT P6SM SKC FM201500 24008KT P6SM FEW250 FM202300 22005KT P6SM FEW250", "KCTB 192320Z 2000/2024 27009KT P6SM SCT150 FM201400 26017G32KT P6SM SCT150 TEMPO 2019/2023 27030G45KT", "KCUB 192334Z 2000/2024 00000KT P6SM SKC FM201500 21004KT P6SM SKC FM201900 24007KT P6SM SKC", "KCVG 192330Z 2000/2106 23005KT P6SM SCT150 FM201500 23011G19KT P6SM SCT080 BKN100 FM202300 20006KT P6SM FEW080 SCT250", "TAF KCVS 1918/2024 24012KT 9999 SKC QNH3022INS TEMPO 1920/1923 25012G20KT BECMG 2002/2003 26007KT 9999 SKC QNH3016INS TX22/1921Z TN10/2013Z", "KCWA 192328Z 2000/2024 29007KT P6SM SKC FM200400 29005KT P6SM BKN080 FM201300 31007KT P6SM SKC FM202100 27006KT P6SM SKC", "KCXO 192320Z 2000/2024 VRB04KT P6SM SKC FM201600 23009KT P6SM SKC", "KCXP 192341Z 2000/2024 07011KT P6SM SCT250 FM200300 VRB03KT P6SM FEW250 FM202000 05009KT P6SM FEW250", "KCYS 192326Z 2000/2024 36012G22KT P6SM SKC FM200200 34008KT P6SM SKC FM200500 29008KT P6SM SKC FM201700 28015G25KT P6SM SKC", "TAF KDAA 192014Z 1920/2102 27009KT 9999 BKN050 QNH2987INS BECMG 1923/1924 25006KT 9999 FEW060 QNH2994INS BECMG 2002/2003 24006KT 9999 SKC QNH2999INS BECMG 2017/2018 22015G20KT 9999 FEW250 QNH2992INS BECMG 2023/2024 VRB06KT 9999 FEW150 QNH2996INS TX14/2017Z TN03/2011Z LAST NO AMDS AFT 2001 NEXT 2012", "KDAB 192330Z 2000/2024 35008KT P6SM FEW040 FM201500 02009KT P6SM SCT035", "KDAG 192320Z 2000/2024 07008KT P6SM FEW250 FM200200 19006KT P6SM FEW250 FM200900 27005KT P6SM SCT250 FM201900 08008KT P6SM FEW250", "KDAL 192320Z 2000/2024 15004KT P6SM SKC FM201300 23010KT P6SM SKC FM201800 30010KT P6SM SKC", "KDAN 192322Z 2000/2024 00000KT P6SM SKC FM201600 22005KT P6SM SKC FM202300 VRB02KT P6SM FEW250", "KDAY 192330Z 2000/2024 23009KT P6SM SCT150 FM201500 22012G23KT P6SM SCT090 BKN120 FM202300 21009KT P6SM SCT090", "KDBQ 192320Z 2000/2024 28010KT P6SM SCT240 FM201000 23007KT P6SM FEW240 FM201600 30008KT P6SM SKC", "KDCA 192326Z 2000/2106 29010KT P6SM FEW070 FEW200 FM200400 22004KT P6SM SKC FM201500 21012G20KT P6SM SKC FM202200 20007KT P6SM FEW150", "KDDC 192320Z 2000/2024 VRB04KT P6SM SKC FM201500 31012KT P6SM SKC", "KDEC 192334Z 2000/2024 27007KT P6SM SCT250 FM200600 24007KT P6SM SCT250 FM201500 23011G19KT P6SM SCT250", "KDEN 192324Z 2000/2106 04008KT P6SM SKC FM200300 VRB05KT P6SM SKC FM200600 21010KT P6SM SKC FM202000 16006KT P6SM SKC FM210200 19010KT P6SM SKC", "KDET 192334Z 2000/2024 28012G18KT P6SM SCT035 BKN045 FM200200 25010KT P6SM SCT025 OVC040 FM200900 24008KT P6SM SCT040 OVC080 FM201600 26012G20KT P6SM SCT045 BKN060", "KDFW 192320Z 2000/2106 15005KT P6SM SKC FM201300 23010KT P6SM SKC FM201800 30010KT P6SM SKC FM210100 36004KT P6SM SKC", "KDHN 192325Z 2000/2024 33006KT P6SM SKC", "KDHT 192340Z 2000/2024 26008KT P6SM SKC FM200300 33010KT P6SM SKC FM201800 21010KT P6SM SKC", "KDIJ 192321Z 2000/2024 35006KT P6SM SKC FM200200 05006KT P6SM SKC FM200400 VRB04KT P6SM SKC FM201800 24012KT P6SM SKC AMD LTD TO CLD VIS AND WIND", "KDIK 192321Z 2000/2024 32012KT P6SM SCT250 FM200200 29007KT P6SM SCT250 FM201200 22006KT P6SM SCT250 FM201900 25016G26KT P6SM SCT250", "TAF KDLF 192000Z 1920/2102 16008KT 9999 SKC QNH3021INS BECMG 2004/2005 VRB06KT 9999 SKC QNH3012INS BECMG 2016/2017 15008KT 9999 SKC QNH3021INS TX23/1921Z TN11/2012Z", "KDLH 192320Z 2000/2024 31010KT P6SM SCT070 FM200100 29009KT P6SM BKN070 FM200500 31008KT P6SM SCT070 FM201800 28008KT P6SM SCT150", "KDLS 192320Z 2000/2024 VRB05KT P6SM SKC FM201500 30005KT P6SM FEW180 SCT250 FM202000 30015G25KT P6SM SKC", "TAF KDMA 192201Z 1922/2104 09012KT 9999 SKC QNH3007INS BECMG 2006/2007 12012KT 9999 SKC QNH3011INS BECMG 2023/2024 VRB06KT 9999 SKC QNH2996INS TX29/2020Z TN13/2013Z", "KDMN 192330Z 2000/2024 09008KT P6SM FEW250 FM200300 35005KT P6SM FEW250 FM201700 19005KT P6SM SKC", "KDNL 192334Z 2000/2024 00000KT P6SM SKC FM201500 21004KT P6SM SKC FM201900 24007KT P6SM SKC", "TAF KDOV 200000Z 2000/2106 23009KT 9999 SCT050 QNH2993INS WND 27009KT AFT 2003 BECMG 2009/2010 22009KT 9999 FEW100 QNH2997INS TEMPO 2015/2021 22012G20KT TX16/2018Z TN03/2010Z", "KDPA 192338Z 2000/2024 26008KT P6SM FEW100 BKN200 FM201400 24011G18KT P6SM FEW070 SCT150 FM202000 29010KT P6SM FEW250", "KDRO 192320Z 2000/2024 26006KT P6SM FEW250 FM200300 36004KT P6SM FEW250 FM200700 04003KT P6SM SKC FM201700 23006KT P6SM SKC", "KDRT 192320Z 2000/2024 15005KT P6SM SKC FM200600 11004KT P6SM SKC FM201500 17005KT P6SM SKC", "KDSM 192324Z 2000/2024 26005KT P6SM SCT140 FM201600 30008KT P6SM SCT250", "KDTW 192334Z 2000/2106 28012G18KT P6SM SCT035 BKN045 FM200200 25010KT P6SM SCT025 OVC040 FM200900 24008KT P6SM SCT040 OVC080 FM201600 26012G20KT P6SM SCT045 BKN060 FM210000 22007KT P6SM SCT060", "KDUJ 192320Z 2000/2024 24010KT 6SM -SHRA BR OVC009 FM200200 24010KT P6SM OVC015 FM200400 24010KT P6SM BKN040 FM200600 22010KT P6SM SKC FM201400 23010G20KT P6SM SCT100 FM202200 21005KT P6SM BKN050", "KDVL 192331Z 2000/2024 33013KT P6SM SCT250 FM200300 VRB06KT P6SM SCT250 FM201200 27006KT P6SM BKN200 FM201600 25011KT P6SM BKN200", "KDVT 192320Z 2000/2024 11009G17KT P6SM FEW250 FM200100 10007KT P6SM FEW250 FM200300 05008KT P6SM FEW250 FM201600 12007KT P6SM FEW250 TEMPO 2016/2020 13009G17KT FM202100 VRB05KT P6SM FEW250", "TAF KDYS 200000Z 2000/2106 26009KT 9999 SKC QNH3008INS BECMG 2015/2016 29012G18KT 9999 SKC QNH3008INS BECMG 2017/2018 31009KT 9999 SKC QNH2996INS BECMG 2023/2024 VRB06KT 9999 SKC QNH2996INS TX28/2021Z TN13/2013Z", "KEAR 192340Z 2000/2024 VRB03KT P6SM FEW250 FM200500 26005KT P6SM SCT250 FM200900 30007KT P6SM FEW250 FM201500 30012KT P6SM FEW250 FM202200 26009KT P6SM FEW250", "KEAT 192320Z 2000/2024 VRB04KT 3SM HZ SCT030 FM202200 29011KT P6SM SKC", "KEAU 192326Z 2000/2024 VRB03KT P6SM SKC FM202200 24006KT P6SM BKN250", "KECG 192320Z 2000/2024 25005KT P6SM SKC FM201500 22009KT P6SM SKC", "KECP 192325Z 2000/2024 35007KT P6SM SKC", "TAF KEDW 192110Z 1921/2103 09012G18KT 9999 FEW060 QNH3006INS BECMG 2000/2001 10007KT 9999 SKC QNH3007INS TX29/1922Z TN11/2014Z", "KEED 192320Z 2000/2024 08006KT P6SM FEW250 FM200100 22007KT P6SM FEW250 FM201000 VRB05KT P6SM FEW250", "KEET 192330Z 2000/2024 00000KT P6SM SCT250 FM201600 25006KT P6SM SCT110", "TAF KEFD 192000Z 1920/2102 32012KT 9999 SKC 510063 QNH3022INS BECMG 2000/2001 VRB06KT 9999 SKC QNH3000INS TX25/1921Z TN07/2012Z", "KEFK 192331Z 2000/2024 22010G18KT P6SM SCT060 FM200200 22007KT P6SM BKN080", "KEGE 192320Z 2000/2024 21005KT P6SM SKC FM200200 11003KT P6SM FEW250 FM201400 23003KT P6SM SKC", "TAF AMD KEGI 191810Z 1918/2023 35010G15KT 9999 SKC QNH3010INS WND 35006KT AFT 1923 TX17/1920Z TN02/2012Z", "KEKN 192333Z 2000/2024 23004KT P6SM OVC045 FM200300 23003KT P6SM FEW250 WS020/27040KT FM201500 24008G19KT P6SM FEW220 FM202200 23006G14KT P6SM SCT160", "KEKO 192320Z 2000/2024 VRB05KT P6SM SCT250", "KEKS 192320Z 2000/2024 VRB06KT P6SM SKC FM201800 18015KT P6SM SCT150", "KELD 192340Z 2000/2024 00000KT P6SM SKC FM201500 18005KT P6SM SKC FM202100 21009KT P6SM SKC", "KELM 192320Z 2000/2024 21010G18KT P6SM OVC040 FM200200 22008KT P6SM OVC040 TEMPO 2004/2006 BKN028 FM200800 22007KT P6SM BKN100 WS020/25040KT FM201300 22012G22KT P6SM BKN180 FM202200 22008G16KT P6SM BKN080", "KELP 192330Z 2000/2024 06005KT P6SM FEW250 FM200200 10004KT P6SM FEW250 FM201800 VRB04KT P6SM SKC", "KELY 192320Z 2000/2024 01006KT P6SM BKN250 FM200300 18011KT P6SM SCT250 FM201600 VRB06KT P6SM FEW250", "TAF KEND 191800Z 1918/2024 20012KT 9999 FEW250 QNH3008INS BECMG 1923/1924 16008KT 9999 FEW250 QNH2996INS BECMG 2011/2012 31010KT 9999 FEW250 QNH2996INS TX22/2018Z TN04/2012Z", "KENV 192320Z 2000/2024 10007KT P6SM FEW250 FM200100 VRB04KT P6SM SCT250 FM201700 11007KT P6SM SCT250", "KENW 192321Z 2000/2024 26010KT P6SM FEW250 FM200800 24008KT P6SM BKN080 FM201600 27010KT P6SM SCT080 FM202000 30008KT P6SM SCT250", "KERI 192345Z 2000/2024 25012KT P6SM -SHRA SCT015 OVC025 TEMPO 2000/2001 3SM -SHRA BKN015 FM200500 25015G25KT P6SM VCSH SCT025 OVC035 FM200900 22015G25KT P6SM BKN035 FM201600 21017G26KT P6SM OVC070", "KEUG 192336Z 2000/2024 36007KT 6SM HZ FEW040 FM200900 VRB02KT 2SM BR FEW040 FM201300 VRB03KT 1/4SM FG VV001 FM201800 VRB03KT 4SM HZ FEW040", "KEUL 192320Z 2000/2024 VRB06KT P6SM SKC AMD NOT SKED", "KEVV 192328Z 2000/2024 24007KT P6SM FEW250 FM200300 VRB03KT P6SM SCT250 FM201500 22007KT P6SM BKN250 FM201900 23011G19KT P6SM SCT250", "KEVW 192320Z 2000/2024 35008KT P6SM SCT250 FM200300 14005KT P6SM SCT250 FM201600 23011KT P6SM BKN250 FM201900 26014G24KT P6SM BKN250", "KEWN 192320Z 2000/2024 00000KT P6SM SKC FM201600 21005KT P6SM SKC", "KEWR 192322Z 2000/2106 22007KT P6SM FEW050 FM200800 25007KT P6SM FEW050 FM201400 24012G20KT P6SM SCT050 SCT250 FM202200 22011KT P6SM FEW250", "KEYW 200024Z 2000/2024 35012G20KT P6SM -RA BKN025 BKN050 FM200200 35009KT P6SM SCT030 SCT050 BKN110", "TAF KFAF 191800Z 1918/2024 28012G18KT 9999 FEW080 QNH2991INS BECMG 2003/2004 27009KT 9999 SKC QNH3005INS BECMG 2014/2015 24010G15KT 9999 SKC QNH2999INS TX17/2018Z TN05/2010Z", "KFAR 192320Z 2000/2024 VRB05KT P6SM FEW250 FM201200 29005KT P6SM BKN200", "KFAT 192325Z 2000/2024 32005KT P6SM SCT250 FM201000 VRB04KT P6SM SCT250", "KFAY 192320Z 2000/2024 27003KT P6SM SKC FM201400 19007KT P6SM SCT250", "TAF KFBG 200100Z 2001/2107 VRB06KT 9999 SKC QNH3005INS BECMG 2014/2015 21010KT 9999 SKC QNH3014INS BECMG 2023/2024 VRB06KT 9999 SKC QNH3004INS TX17/2021Z TN02/2009Z", "TAF KFCS 192113Z 1921/2103 05010KT 9999 SKC QNH3020INS BECMG 1921/1922 02010G20KT 9999 SKC QNH3020INS BECMG 2000/2001 02008KT 9999 SKC QNH3025INS BECMG 2019/2020 17012KT 9999 SKC QNH3018INS BECMG 2103/2104 32008KT 9999 SKC QNH3007INS TX26/1921Z TN041912Z", "KFDY 192323Z 2000/2024 25009KT P6SM SCT045 FM200300 23007KT P6SM SCT250 FM201500 23014G22KT P6SM BKN080", "TAF KFFO 191900Z 1919/2101 28010G15KT 9999 BKN035 510102 QNH2991INS TEMPO 1919/1920 27015G25KT 510053 BECMG 1919/1920 26010G15KT 9999 FEW035 QNH2990INS TEMPO 1920/1922 27015G25KT 510053 BECMG 1922/1924 25009KT 9999 SKC 510102 QNH2989INS BECMG 2010/2011 24014KT 9999 SCT070 BKN090 520103 QNH2983INS TEMPO 2016/2021 23015G20KT BECMG 2021/2022 22009KT 9999 SKC 510102 QNH2984INS TX12/2019Z TNM02/2011Z", "TAF KFHU 192200Z 1922/2104 11010KT 9999 SKC QNH3019INS WND 08009KT AFT 2002 BECMG 2020/2021 24009KT 9999 SKC QNH3009INS TX23/1922Z TN09/2013Z", "KFKL 192320Z 2000/2024 24010KT 6SM BR OVC006 FM200200 24010KT P6SM OVC015 FM200400 24010KT P6SM BKN040 FM200600 22010KT P6SM SKC FM201400 23010G20KT P6SM SCT100 FM202200 21005KT P6SM BKN050", "KFLG 192334Z 2000/2024 08012G21KT P6SM SKC FM200100 07008KT P6SM SKC FM200500 VRB05KT P6SM SKC FM201700 11007KT P6SM SKC", "KFLL 192320Z 2000/2106 36006KT P6SM VCSH FEW030 OVC120 FM200600 33006KT P6SM SCT025 OVC100 FM201500 01009KT P6SM SCT040 SCT120 BKN200 FM202100 34007KT P6SM SCT050 BKN250", "KFLO 192333Z 2000/2024 00000KT P6SM SKC TEMPO 2000/2002 26004KT FM201300 16004KT P6SM FEW250 FM201700 22006KT P6SM SCT250", "KFMH 192330Z 2000/2024 25009KT P6SM FEW250 FM201500 24015KT P6SM FEW250 FM201700 23016G26KT P6SM FEW250 FM202100 22014G24KT P6SM FEW250", "KFMN 192320Z 2000/2024 27008KT P6SM SKC FM200500 05005KT P6SM SKC FM201900 25008KT P6SM SKC", "KFMY 192320Z 2000/2024 02007KT P6SM SKC FM201300 02010KT P6SM SKC FM202300 33007KT P6SM SCT250", "KFNT 192334Z 2000/2024 27012G20KT P6SM BKN035 OVC045 FM200200 25010KT P6SM SCT018 OVC035 FM201000 24008KT P6SM OVC080 FM201500 24009KT 6SM -SHRA OVC050 FM202100 23008KT P6SM SCT025 BKN050", "KFOD 192324Z 2000/2024 25005KT P6SM FEW140 FM201600 31009KT P6SM FEW250", "KFOE 192320Z 2000/2024 28006KT P6SM FEW250", "KFPR 192330Z 2000/2024 33006KT P6SM SCT040 BKN250 FM200400 34007KT P6SM BKN040", "TAF KFRI 192005Z 1920/2102 VRB06KT 9999 FEW250 QNH2983INS TX22/2019Z TN02/2011Z", "KFSD 192320Z 2000/2024 31005KT P6SM FEW250 FM201700 31009KT P6SM SCT250 FM202300 23006KT P6SM SCT250", "KFSM 192320Z 2000/2024 07003KT P6SM SCT250 FM201600 VRB05KT P6SM SCT250", "KFST 192326Z 2000/2024 VRB05KT P6SM FEW250", "TAF KFTK 191900Z 1919/2101 27012G18KT 9999 SKC 510005 QNH3002INS BECMG 1922/1923 22007KT 9999 SKC QNH2997INS BECMG 2014/2015 21010G15KT 9999 FEW070 SCT120 QNH2987INS BECMG 2022/2023 18006KT 9999 SCT120 QNH2988INS TX13/2019Z TNM01/2012Z LAST NO AMDS AFT 2003 NEXT 2011", "KFTW 192320Z 2000/2024 16005KT P6SM SKC FM201300 23010KT P6SM SKC FM201800 30010KT P6SM SKC", "KFTY 192322Z 2000/2024 31005KT P6SM SKC FM200400 00000KT P6SM SKC FM201600 26007KT P6SM FEW150", "KFVE 200003Z 2000/2024 23008KT P6SM FEW045 SCT100 FM201400 19008KT P6SM FEW016 FM201700 19009G17KT P6SM SCT035", "KFWA 192320Z 2000/2024 27008KT P6SM SCT250 FM201600 23012G22KT P6SM BKN150", "KFXE 192320Z 2000/2024 33007KT P6SM VCSH FEW030 OVC120 FM200600 34006KT P6SM SCT025 OVC100 FM201500 01008KT P6SM SCT040 SCT120 BKN200 FM201800 35010KT P6SM BKN030 BKN250", "KFYV 192320Z 2000/2024 00000KT P6SM SCT250 FM201500 22008KT P6SM SCT250", "KGBD 192321Z 2000/2024 VRB03KT P6SM SKC FM200800 29007KT P6SM SKC FM201400 31010KT P6SM SKC FM201700 32013KT P6SM SKC", "KGCC 192334Z 2000/2024 34008KT P6SM SKC FM200200 24010KT P6SM FEW250 FM201600 30014KT P6SM FEW250", "KGCK 192320Z 2000/2024 36006KT P6SM SKC FM201700 29011KT P6SM SKC", "KGCN 192334Z 2000/2024 07011G18KT P6SM SKC FM200100 09007KT P6SM SKC FM200500 VRB04KT P6SM SKC FM201600 17008KT P6SM SKC", "KGDV 192320Z 2000/2024 31007KT P6SM SCT160 FM201600 23010G18KT P6SM FEW200 FM201900 26015G25KT P6SM FEW150", "KGEG 192320Z 2000/2024 VRB04KT 5SM HZ FEW040 BKN250 FM201700 21006KT 5SM HZ FEW040 BKN250", "TAF KGFA 192000Z 1920/2102 23009KT 9999 SKC QNH2995INS BECMG 2014/2015 25012G18KT 9999 SKC QNH2990INS BECMG 2018/2019 25015G25KT 9999 BKN080 510002 QNH2983INS BECMG 2023/2024 27006KT 9999 BKN070 QNH2980INS TEMPO 2101/2102 8000 -SHRA TX24/2020Z TN09/2010Z", "KGFK 192320Z 2000/2024 VRB06KT P6SM SCT250 FM201200 29006KT P6SM BKN250", "KGFL 192320Z 2000/2024 20006KT P6SM BKN060 FM201600 22012G20KT P6SM SCT050 BKN120", "KGGG 192340Z 2000/2024 32004KT P6SM SKC FM200300 00000KT P6SM SKC FM200600 18004KT P6SM SKC FM201500 21013G19KT P6SM SKC", "KGGW 192320Z 2000/2024 VRB05KT P6SM FEW160 FM201700 27010KT P6SM FEW230 FM202000 28018G26KT P6SM FEW150", "KGJT 192320Z 2000/2024 31005KT P6SM SKC FM200200 06003KT P6SM FEW250 FM200800 11006KT P6SM FEW250 FM201600 17006KT P6SM SKC", "KGKY 192320Z 2000/2024 16006KT P6SM SKC FM201300 23010KT P6SM SKC FM201800 30011KT P6SM SKC", "KGLD 192320Z 2000/2024 36012G18KT P6SM SKC FM200130 34010KT P6SM SKC FM200500 31009KT P6SM SKC FM202000 25010KT P6SM SKC", "KGLH 192336Z 2000/2024 22004KT P6SM SKC", "KGLS 192320Z 2000/2024 02006KT P6SM SKC FM200200 VRB04KT P6SM SKC FM201400 24009KT P6SM SKC FM202100 20013KT P6SM SKC", "KGMU 192320Z 2000/2024 VRB03KT P6SM SKC FM201500 22004KT P6SM FEW240 FM201700 23008KT P6SM SCT240 FM202300 23005KT P6SM SKC", "KGNV 192338Z 2000/2024 VRB04KT P6SM SKC FM200400 00000KT P6SM SKC FM201400 36005KT P6SM SKC FM201500 36007KT P6SM SKC", "KGON 192322Z 2000/2024 29006KT P6SM OVC060 FM200700 25008KT P6SM FEW040 FM201400 23012G20KT P6SM FEW250 FM202100 21015G21KT P6SM SKC", "KGPI 192326Z 2000/2024 16006KT P6SM FEW250 FM200800 00000KT 3SM BR SKC TEMPO 2008/2012 1SM BR SCT002 FM201200 00000KT 2SM BR SCT002 TEMPO 2012/2014 1SM BR SCT002 FM201900 23013G22KT P6SM BKN150", "KGPT 192320Z 2000/2024 VRB03KT P6SM SKC", "KGRB 192328Z 2000/2024 27006KT P6SM SKC FM200700 26005KT P6SM BKN080 FM201500 30006KT P6SM SKC FM202300 22004KT P6SM SKC", "TAF KGRF 192100Z 1921/2103 33005KT 4800 FUHZ FEW250 QNH3021INS BECMG 2008/2009 15003KT 6000 BR SCT250 QNH3016INS BECMG 2012/2013 15003KT 1600 BR OVC002 QNH3015INS BECMG 2016/2017 21009KT 9999 NSW FEW025 BKN120 QNH3013INS BECMG 2019/2020 21012KT 9000 -RA BKN020 OVC050 QNH3000INS TX20/1922Z TN05/2012Z", "KGRI 192340Z 2000/2024 VRB03KT P6SM FEW250 FM200500 25005KT P6SM SCT250 FM201000 29007KT P6SM FEW250 FM201500 30012KT P6SM FEW250 FM202200 26008KT P6SM FEW250", "TAF KGRK 200000Z 2000/2106 VRB06KT 9999 SKC QNH3012INS BECMG 2006/2007 25009KT 9999 SKC QNH2995INS TX28/2021Z TN13/2005Z", "KGRR 192340Z 2000/2024 27010G20KT P6SM OVC035 FM200300 26007KT P6SM OVC050 FM201600 26011KT P6SM SCT050 BKN070", "TAF KGSB 192000Z 1920/2102 25008KT 9999 FEW070 QNH2996INS TX16/1921Z TN03/2009Z", "KGSO 192320Z 2000/2024 29003KT P6SM SKC FM201400 22009KT P6SM SCT250", "KGSP 192320Z 2000/2024 VRB03KT P6SM SKC FM201500 21004KT P6SM FEW240 FM201900 22008KT P6SM SCT250 FM202300 22005KT P6SM SKC", "TAF KGTB 191700Z 1917/2023 20012G20KT 9999 VCSH FEW030 BKN035 OVC050 610357 QNH2964INS BECMG 1921/1922 20012KT 9999 NSW BKN025 OVC040 620307 QNH2965INS BECMG 2000/2001 21015G25KT 9000 -SHRA FEW008 OVC020 610307 QNH2966INS BECMG 2006/2007 22012G18KT 6000 -RA OVC006 620307 QNH2970INS BECMG 2009/2010 21010G15KT 9000 -RA SCT008 OVC015 620307 QNH2970INS BECMG 2011/2012 21009KT 9000 DZ BKN015 OVC025 620307 QNH2971INS BECMG 2014/2015 21020G25KT 9999 NSW BKN015 OVC025 620307 QNH2975INS BECMG 2021/2022 19012KT 9999 FEW015 BKN025 OVC035 620307 QNH2978INS TX07/1919Z TN03/2012Z", "KGTF 192320Z 2000/2024 22009KT P6SM FEW150 FM201400 22015G28KT P6SM SCT150", "KGTR 192336Z 2000/2024 26004KT P6SM SKC", "KGUC 192320Z 2000/2024 23012KT P6SM SKC FM200200 01004KT P6SM SKC FM200800 33003KT P6SM SKC FM201400 00000KT P6SM SKC FM201800 23006KT P6SM SKC", "KGUP 192320Z 2000/2024 VRB05KT P6SM SKC", "TAF KGUR 192100Z 1921/2103 33020G30KT 9999 SKC 510063 QNH3018INS BECMG 1923/1924 34015KT 9999 SKC 510063 QNH3019INS BECMG 2003/2004 VRB06KT 9999 SKC QNH2992INS BECMG 2021/2022 29012G18KT 9999 SKC QNH2985INS BECMG 2100/2101 VRB06KT 9999 SKC QNH2985INS TX27/2021Z TNM04/2013Z", "TAF KGUS 192100Z 1921/2103 26012G20KT 9999 SKC QNH2993INS BECMG 1923/1924 25009KT 9999 SKC QNH2986INS BECMG 2012/2013 25015G25KT 9999 SKC QNH2975INS BECMG 2022/2023 20009KT 9999 BKN060 QNH2978INS TX13/2021Z TN00/2011Z LAST NO AMDS AFT 2003 NEXT 2013", "KGUY 192340Z 2000/2024 33009KT P6SM SKC FM202000 25008KT P6SM SKC", "KGWO 192336Z 2000/2024 22003KT P6SM SKC", "KGYY 192338Z 2000/2024 26010KT P6SM FEW100 BKN200 FM201400 23011G18KT P6SM FEW070 SCT150 FM202100 27010KT P6SM FEW250", "KHBG 192336Z 2000/2024 27003KT P6SM SKC", "KHCR 192320Z 2000/2024 24007KT P6SM SCT250 FM200100 VRB02KT P6SM SCT250 FM202100 23010KT P6SM SCT250", "KHDC 192320Z 2000/2024 VRB03KT P6SM SKC", "KHDN 192320Z 2000/2024 26011KT P6SM SKC FM200200 20004KT P6SM FEW250 FM200400 10006KT P6SM SKC FM200900 11011KT P6SM SKC FM201800 28004KT P6SM SKC", "KHIB 192320Z 2000/2024 VRB03KT P6SM BKN070 FM200400 32005KT P6SM SCT070 FM202000 27006KT P6SM SCT150", "KHIE 192325Z 2000/2024 25003KT P6SM SCT250 FM201600 23009G16KT P6SM OVC050 FM202200 22004KT P6SM FEW250", "TAF KHIF 192100Z 1921/2103 33006KT 9999 SKC QNH3030INS BECMG 2005/2006 12012KT 9999 SKC QNH3028INS BECMG 2016/2017 32006KT 9999 SKC QNH3012INS TX22/1922Z TN08/2013Z", "KHIO 192336Z 2000/2024 34004KT 5SM FU FEW035 FM201200 00000KT 1/2SM FG VV003 FM201700 VRB02KT 4SM FU FEW035", "KHKS 192336Z 2000/2024 22003KT P6SM SKC", "KHKY 192320Z 2000/2024 VRB03KT P6SM SKC FM201600 21003KT P6SM FEW250 FM201900 21006KT P6SM SCT240 FM202300 21003KT P6SM FEW230", "KHLG 192320Z 2000/2024 24008KT P6SM BKN045 FM200300 21007KT P6SM SKC FM201400 23012G25KT P6SM SCT150 FM202200 22005KT P6SM BKN080", "KHLN 192320Z 2000/2024 VRB06KT P6SM SKC FM201900 26014KT P6SM SCT150", "TAF KHMN 191700Z 1917/2023 33012KT 9999 SCT250 QNH3025INS BECMG 2000/2001 VRB06KT 9999 SCT250 QNH3024INS BECMG 2012/2013 VRB06KT 9999 FEW250 QNH3023INS BECMG 2017/2018 27012KT 9999 FEW250 QNH3011INS TX20/1922Z TN07/2012Z", "KHNB 192327Z 2000/2024 24005KT P6SM SCT250 FM201400 21008KT P6SM SCT180 FM201600 23012G20KT P6SM FEW250 FM202300 20008KT P6SM SKC", "KHND 192320Z 2000/2024 04007KT P6SM FEW250 FM200300 20006KT P6SM FEW250 FM200900 VRB05KT P6SM SCT250 FM201700 01006KT P6SM SCT250", "KHOB 192326Z 2000/2024 24010KT P6SM FEW250", "KHON 192320Z 2000/2024 27006KT P6SM FEW250", "TAF KHOP 200000Z 2000/2106 VRB06KT 9999 SCT250 QNH3009INS BECMG 2014/2015 26010G15KT 9999 SCT200 QNH2999INS BECMG 2020/2021 23007KT 9999 FEW250 QNH2996INS TX16/2021Z TN02/2012Z", "KHOT 192320Z 2000/2024 VRB03KT P6SM SKC FM201600 22007KT P6SM SKC", "KHOU 192320Z 2000/2024 VRB04KT P6SM SKC FM201500 23008KT P6SM SKC", "KHPN 192322Z 2000/2024 25003KT P6SM SCT070 FM200500 26005KT P6SM FEW050 FM201400 24010G18KT P6SM FEW250 FM202200 20007KT P6SM SKC AMD NOT SKED", "KHQM 192334Z 2000/2024 24007KT P6SM SKC FM200400 29006KT P6SM FEW250 FM201200 30005KT P6SM BKN006 FM201500 25006KT P6SM SCT004 FM201700 29007KT P6SM BKN013 FM201900 30009KT P6SM BKN045", "KHRL 192328Z 2000/2024 05006KT P6SM SKC FM200200 00000KT P6SM SKC FM201800 12007KT P6SM SKC", "KHRO 192320Z 2000/2024 VRB05KT P6SM SKC FM201500 23009KT P6SM SCT250", "TAF KHRT 1918/2024 05010G15KT 9999 SKC QNH3012INS WND 35006KT AFT 1922 BECMG 2017/2018 21007KT 9999 SKC QNH3005INS TX16/1919Z TN03/2010Z", "TAF AMD KHST 192148Z 1921/2101 34009KT 9999 VCSH SCT008 BKN025 OVC040 QNH2992INS TEMPO 1921/2002 9000 -RA BKN007 BKN020 OVC040 BECMG 2002/2003 32009KT 9999 NSW SCT020 BKN040 BKN080 QNH2995INS BECMG 2014/2015 34010KT 9999 BKN025 BKN140 QNH2988INS BECMG 2023/2024 32007KT 9999 SCT025 QNH2991INS TX19/2019Z TN16/2010Z", "KHSV 192320Z 2000/2024 30007KT P6SM FEW250 FM200200 VRB03KT P6SM FEW250 FM201400 25007G12KT P6SM SKC", "KHTS 192320Z 2000/2024 24005KT P6SM SKC FM201300 22007G13KT P6SM FEW220", "TAF KHUA 192000Z 1920/2102 30009KT 9999 SKC QNH3011INS BECMG 2016/2017 25010G15KT 9999 SKC QNH3002INS BECMG 2022/2023 VRB06KT 9999 FEW100 QNH3002INS TX14/1921Z TN01/2012Z LAST NO AMDS AFT 2000 NEXT 2012", "KHUF 192320Z 2000/2024 25007KT P6SM FEW250 FM201300 22007KT P6SM BKN220 FM201600 22011G23KT P6SM FEW240 FM202300 21006KT P6SM SKC", "KHUL 192320Z 2000/2024 18007KT P6SM BKN100 FM200200 19005KT P6SM SCT120 FM201400 19009KT P6SM FEW025 FM201700 19008G15KT P6SM SCT045", "KHUM 192320Z 2000/2024 VRB03KT P6SM SKC", "KHUT 192321Z 2000/2024 18006KT P6SM SKC FM200800 26005KT P6SM SKC FM201300 32007KT P6SM FEW250 FM201800 32012KT P6SM SKC", "KHVR 192320Z 2000/2024 23008KT P6SM SCT150 FM201500 23016G24KT P6SM SCT150", "KHYA 192330Z 2000/2024 25012G21KT P6SM FEW250 FM201500 23016KT P6SM FEW250 FM202200 22014G23KT P6SM FEW250 FM202300 21015G23KT P6SM FEW200", "KHYR 192320Z 2000/2024 VRB03KT P6SM SKC FM200300 VRB02KT P6SM BKN070 FM200700 VRB03KT P6SM SCT070 FM201800 24005KT P6SM SCT200", "KHYS 192320Z 2000/2024 VRB04KT P6SM SKC FM201400 30010KT P6SM SKC", "TAF KIAB 191800Z 1918/2024 21009KT 9999 SKC QNH3005INS BECMG 2000/2001 16005KT 9999 SCT250 QNH2997INS BECMG 2015/2016 32010G17KT 9999 SKC QNH2987INS TX19/1920Z TN03/2012Z", "KIAD 192326Z 2000/2106 26006KT P6SM FEW070 FEW200 FM200400 21004KT P6SM SKC FM201400 22007KT P6SM SKC FM201600 22012G19KT P6SM SKC FM202200 20007KT P6SM FEW150", "KIAG 192327Z 2000/2024 26015G25KT P6SM VCSH BKN015 OVC040 FM200400 24015G25KT P6SM VCSH BKN015 OVC025 FM201300 22015G25KT P6SM -SHRA BKN015 OVC025 FM202300 21013G22KT P6SM -SHRA OVC015", "KIAH 192320Z 2000/2106 VRB04KT P6SM SKC FM201600 23009KT P6SM SKC FM210300 19006KT P6SM SKC", "KICT 192321Z 2000/2024 18006KT P6SM FEW250 FM201200 24006KT P6SM SKC FM201600 33011KT P6SM SKC", "KIDA 192321Z 2000/2024 19006KT P6SM SKC FM200300 VRB03KT P6SM SKC FM201800 22012KT P6SM SKC", "KIFP 192320Z 2000/2024 35011KT P6SM FEW250 FM200300 VRB05KT P6SM FEW250 FM202100 19007KT P6SM FEW250", "KILG 192320Z 2000/2024 23006KT P6SM SCT080 FM200500 VRB03KT P6SM SCT080 FM201400 22012KT P6SM FEW250", "KILM 192333Z 2000/2024 00000KT P6SM SKC TEMPO 2000/2002 30004KT FM201400 15004KT P6SM SKC FM201800 21007KT P6SM FEW250 FM202300 20002KT P6SM SCT250", "KILN 192330Z 2000/2024 23008KT P6SM SCT150 FM201500 23013G23KT P6SM BKN090 FM202300 20007KT P6SM SCT090", "KIND 192320Z 2000/2106 24009KT P6SM SCT250 FM201500 23014G24KT P6SM BKN200 FM202300 22008KT P6SM FEW250", "KINK 192326Z 2000/2024 VRB05KT P6SM FEW250", "KINL 192320Z 2000/2024 29003KT P6SM SCT070 BKN200 FM200400 33005KT P6SM SCT200 FM202100 23006KT P6SM SCT150", "TAF KINS 192058Z 1921/2103 10009KT 9999 FEW250 QNH3006INS BECMG 2002/2003 VRB06KT 9999 FEW250 QNH3007INS BECMG 2017/2018 09009KT 9999 FEW240 QNH2993INS TX28/1922Z TN10/2014Z", "KINT 192320Z 2000/2024 30003KT P6SM SKC FM201400 22006KT P6SM SCT250", "KINW 192334Z 2000/2024 07007KT P6SM SKC FM200300 VRB03KT P6SM SKC FM201700 09007KT P6SM SKC", "KIPL 192320Z 2000/2024 VRB04KT P6SM FEW250", "KIPT 192327Z 2000/2024 24012KT P6SM OVC120 FM200400 23009G17KT P6SM BKN250 FM202100 23010KT P6SM BKN250", "KISM 192330Z 2000/2024 35007KT P6SM SKC FM201500 35008KT P6SM SCT040", "KISO 192320Z 2000/2024 00000KT P6SM SKC FM201700 21007KT P6SM SKC AMD LTD TO CLD VIS AND WIND", "KISP 192322Z 2000/2024 24005KT P6SM FEW070 FM200500 25007KT P6SM FEW050 FM201400 25012G21KT P6SM FEW250 FM201700 22016G24KT P6SM FEW250 FM202200 22011KT P6SM SKC", "KITH 192320Z 2000/2024 20010G16KT P6SM OVC040 FM200700 22010KT P6SM BKN060 FM201100 22010G15KT P6SM BKN150 WS020/25040KT FM201300 22012G21KT P6SM BKN180 FM202200 22009G15KT P6SM BKN100", "KIWA 192320Z 2000/2024 11009G17KT P6SM FEW250 FM200100 11007KT P6SM FEW250 TEMPO 2016/2019 12009G17KT FM202100 VRB04KT P6SM FEW250", "KIWD 192335Z 2000/2024 26006KT P6SM FEW200 FM200300 27009KT P6SM BKN080 FM201000 30008KT P6SM SCT200", "KIXD 192320Z 2000/2024 21004KT P6SM SCT150 FM201600 29008KT P6SM SCT250", "KJAC 192321Z 2000/2024 VRB04KT P6SM SKC FM202000 23013G20KT P6SM SKC", "KJAN 192336Z 2000/2024 22003KT P6SM SKC", "KJAX 192338Z 2000/2024 30003KT P6SM SKC FM200200 00000KT P6SM SKC FM201500 35004KT P6SM FEW250 FM202200 03006KT P6SM FEW250", "KJBR 192320Z 2000/2024 22007KT P6SM SKC FM200200 VRB03KT P6SM SKC FM201500 22011G17KT P6SM SKC", "KJCT 192320Z 2000/2024 25005KT P6SM SKC", "KJEF 192320Z 2000/2024 VRB05KT P6SM SCT200 FM201500 25010G18KT P6SM FEW250", "KJER 192320Z 2000/2024 27006KT P6SM SKC FM200400 16006KT P6SM SKC FM201100 11007KT P6SM SKC FM201700 26010KT P6SM SKC", "KJFK 192322Z 2000/2106 25011KT P6SM SCT060 FM200200 25012KT P6SM FEW050 FM201400 22014G22KT P6SM FEW250 FM202300 21012G18KT P6SM SCT200 FM210100 21006KT P6SM FEW010", "KJHW 192327Z 2000/2024 23012G22KT P6SM -SHRASN OVC005 TEMPO 2000/2002 5SM -SN FM200600 22010G20KT P6SM VCSH OVC015 FM201000 22010G20KT P6SM OVC040", "KJKA 192320Z 2000/2024 VRB04KT P6SM SKC FM201700 26006KT P6SM SKC", "KJKL 192322Z 2000/2024 VRB03KT P6SM SKC FM201200 VRB04KT P6SM SCT150 FM201500 23007KT P6SM FEW150", "KJLN 192320Z 2000/2024 VRB04KT P6SM SCT250 FM201700 24010KT P6SM SKC FM202100 27010KT P6SM SKC", "KJMS 192321Z 2000/2024 33010KT P6SM SCT250 FM200100 32006KT P6SM SCT250 FM201400 27007KT P6SM SCT250 FM201700 24012KT P6SM SCT250", "KJST 192327Z 2000/2024 27012G22KT 3SM -SHRASN FEW006 BKN010 OVC015 FM200500 24013G22KT P6SM OVC250 FM202200 24010KT P6SM OVC100 AMD NOT SKED", "KJVL 192321Z 2000/2024 28007KT P6SM FEW250 FM200600 23004KT P6SM BKN080 FM201500 26008KT P6SM FEW250 FM201700 29009KT P6SM FEW250 FM202300 VRB03KT P6SM SCT250", "KJXN 192340Z 2000/2024 26010KT P6SM BKN035 FM200400 25007KT P6SM OVC050 FM201600 23011KT P6SM BKN080 FM202200 24007KT P6SM FEW190", "KJZI 192320Z 2000/2024 00000KT P6SM SKC FM201500 25005KT P6SM SKC", "KLAF 192320Z 2000/2024 25008KT P6SM SCT250 FM201200 23007KT P6SM BKN160 FM201600 23012G25KT P6SM SCT230 FM202300 23007KT P6SM SKC AMD LTD TO CLD VIS AND WIND 2001/2013", "KLAL 192320Z 2000/2024 02006KT P6SM SKC FM201000 35003KT P6SM SKC FM201500 02007KT P6SM SKC AMD NOT SKED 2002/2011", "KLAN 192340Z 2000/2024 27012KT P6SM BKN035 FM200400 24007KT P6SM OVC070 FM201700 24011KT P6SM VCSH BKN070 FM202200 24007KT P6SM FEW170", "KLAR 192326Z 2000/2024 33010KT P6SM SKC FM200400 VRB06KT P6SM SKC FM201700 27015G25KT P6SM SKC", "KLAS 192320Z 2000/2106 05006KT P6SM FEW250 FM200300 30006KT P6SM FEW250 FM201200 VRB05KT P6SM FEW250 FM201800 06006KT P6SM SCT250 FM202200 14006KT P6SM SCT250 FM210300 22006KT P6SM FEW250", "KLAW 192320Z 2000/2024 15006KT P6SM SKC FM201200 36010KT P6SM FEW250", "KLAX 192342Z 2000/2106 26012KT P6SM SCT150 FM200400 VRB03KT P6SM SCT150 FM201900 26012KT P6SM SCT150 FM210400 VRB03KT P6SM SCT150", "KLBB 192320Z 2000/2024 25008KT P6SM SKC FM201600 01011KT P6SM SKC", "KLBE 200005Z 2000/2024 23010G20KT P6SM BKN035 FM200400 22010KT P6SM SKC FM201400 23012G25KT P6SM SCT150 FM202200 22008KT P6SM BKN080", "KLBF 192320Z 2000/2024 35009KT P6SM SKC FM200200 32005KT P6SM SKC FM201400 29008KT P6SM FEW250 FM202000 26009KT P6SM FEW250", "KLBL 192320Z 2000/2024 29005KT P6SM SKC FM200600 32010KT P6SM SKC", "KLBT 192333Z 2000/2024 00000KT P6SM SKC TEMPO 2000/2002 26003KT FM201400 18004KT P6SM FEW250 FM201700 21006KT P6SM SCT250 AMD NOT SKED", "KLBX 192320Z 2000/2024 01006KT P6SM SKC FM200200 VRB03KT P6SM SKC FM201400 22006KT P6SM SKC", "KLCH 192320Z 2000/2024 VRB03KT P6SM SKC FM201600 22007KT P6SM SKC", "KLCK 192330Z 2000/2024 24005KT P6SM FEW040 SCT250 FM200900 21006KT P6SM SCT150 FM201500 23011G19KT P6SM BKN090 FM202300 19006KT P6SM BKN090", "KLEB 192325Z 2000/2024 19005KT P6SM OVC050 FM201500 21013G20KT P6SM OVC100 FM202300 20007KT P6SM SKC", "KLEE 192330Z 2000/2024 01006KT P6SM SKC", "KLEX 192327Z 2000/2024 24007KT P6SM SKC FM200400 21007KT P6SM SKC FM201000 19010KT P6SM FEW180 FM201500 23015G20KT P6SM FEW180 FM202300 21007KT P6SM FEW100", "TAF KLFI 200100Z 2001/2107 26009KT 9999 FEW220 QNH2998INS TX17/2019Z TN05/2010Z", "KLFK 192340Z 2000/2024 VRB03KT P6SM SKC FM201500 19008KT P6SM SKC FM201800 22012KT P6SM SKC", "KLFT 192320Z 2000/2024 VRB03KT P6SM SKC FM201600 23006KT P6SM SKC", "KLGA 192322Z 2000/2106 25010KT P6SM FEW050 FM200900 26009KT P6SM FEW050 FM201300 23014G22KT P6SM FEW250 FM202300 22011G18KT P6SM SCT200 FM210100 21006KT P6SM FEW010", "KLGB 192342Z 2000/2024 29010KT P6SM SCT150 FM200400 VRB03KT P6SM SCT150 FM202000 20008KT P6SM SCT150", "KLGU 192320Z 2000/2024 VRB04KT P6SM FEW250 FM202100 25006KT P6SM FEW250", "KLIT 192320Z 2000/2024 VRB04KT P6SM SKC FM201600 21008G15KT P6SM SCT250", "KLLQ 192320Z 2000/2024 VRB02KT P6SM SKC FM201600 21007KT P6SM SKC", "KLMT 192320Z 2000/2024 VRB03KT P6SM SKC", "KLND 192321Z 2000/2024 VRB06KT P6SM SKC FM202200 29009KT P6SM SKC", "KLNK 192320Z 2000/2024 23006KT P6SM SCT250 FM201500 30010KT P6SM SCT250", "KLNS 192327Z 2000/2024 25010KT P6SM SCT090 FM200500 23005KT P6SM FEW250", "KLOZ 192322Z 2000/2024 VRB03KT P6SM SKC FM201400 23006KT P6SM FEW150 FM201600 24012G21KT P6SM FEW150 FM202300 VRB05KT P6SM FEW100", "KLRD 192325Z 2000/2024 VRB05KT P6SM SKC", "TAF KLRF 192300Z 1923/2105 VRB06KT 9999 SKC QNH2992INS TX22/2021Z TNM01/2012Z", "KLRU 192330Z 2000/2024 10004KT P6SM FEW250 FM200300 33004KT P6SM FEW250 FM201600 VRB04KT P6SM SKC", "KLSE 192320Z 2000/2024 31009KT P6SM FEW150 FM200300 24005KT P6SM BKN150 FM200900 19005KT P6SM FEW200 FM201400 32008KT P6SM SCT200", "TAF COR KLSF 192111Z 1921/2103 28010KT 9999 SKC QNH3005INS WND 31005KT AFT 00 BECMG 2008/2009 26003KT 8000 BR SKC QNH3015INS BECMG 2014/2015 24007KT 9999 NSW SKC QNH3005INS TX19/2019Z TNM02/2011Z LAST NO AMDS AFT 2003 NEXT 2013", "TAF KLSV 192300Z 1923/2105 06008KT 9999 FEW250 QNH3006INS BECMG 2002/2003 35010G15KT 9999 FEW250 QNH3007INS BECMG 2017/2018 15010KT 9999 SCT200 QNH2993INS BECMG 2103/2104 35005KT 9999 SCT200 QNH2994INS TX31/2000Z TN16/2014Z", "TAF KLTS 200100Z 2001/2107 VRB06KT 9999 SKC QNH3002INS BECMG 2013/2014 35012G18KT 9999 SKC QNH3000INS BECMG 2018/2019 34009KT 9999 SKC QNH2998INS BECMG 2023/2024 VRB06KT 9999 SKC QNH2989INS TX26/2021Z TN01/2012Z", "TAF KLUF 192000Z 1920/2102 08010G18KT 9999 FEW220 QNH3000INS BECMG 1923/1924 VRB06KT 9999 FEW250 QNH2998INS TX31/1923Z TN18/2013Z", "KLUK 192330Z 2000/2024 23005KT P6SM SCT150 FM201500 23011G19KT P6SM SCT080 BKN100 FM202200 21005KT P6SM FEW080 SCT250", "KLVK 192331Z 2000/2024 06009KT P6SM FEW200 FM200500 00000KT P6SM FEW200 FM201900 VRB04KT P6SM SKC", "KLVM 192320Z 2000/2024 26011KT P6SM SKC FM201700 27017G30KT P6SM SKC", "KLVS 192320Z 2000/2024 19008KT P6SM SKC FM200600 02005KT P6SM SKC FM201800 20011KT P6SM SKC", "KLWB 192322Z 2000/2024 VRB02KT P6SM FEW240 FM201600 25009G18KT P6SM FEW250 FM202300 VRB03KT P6SM FEW250", "KLWS 192320Z 2000/2024 VRB03KT P6SM SKC FM201800 28006KT P6SM FEW250", "KLWT 192320Z 2000/2024 VRB06KT P6SM FEW150 FM201700 23011G20KT P6SM SCT150", "KLYH 192322Z 2000/2024 VRB02KT P6SM SKC FM201400 23006KT P6SM SKC FM201800 22009G19KT P6SM FEW250", "KMAF 192326Z 2000/2024 25006KT P6SM FEW250", "KMBG 192320Z 2000/2024 34008KT P6SM BKN250 FM200900 31006KT P6SM FEW250 FM201700 25007KT P6SM FEW250 FM202300 21009KT P6SM FEW250", "KMBL 192337Z 2000/2024 27010KT P6SM OVC040 FM200200 30006KT P6SM OVC070 FM201200 28009G14KT P6SM OVC045 FM201300 28010KT P6SM OVC060 FM201800 28008KT P6SM SCT240", "KMBS 192334Z 2000/2024 27012G20KT P6SM BKN035 OVC045 FM200200 25010KT P6SM SCT018 OVC035 FM201000 24008KT P6SM OVC080 FM201400 24009KT 6SM -SHRA OVC050 FM202000 23008KT P6SM SCT025 BKN050 FM202300 21005KT P6SM SCT050", "KMCB 192320Z 2000/2024 VRB03KT P6SM SKC", "KMCC 192320Z 2000/2024 VRB05KT P6SM SKC", "KMCE 192325Z 2000/2024 35008KT P6SM SCT250 FM200400 14004KT P6SM SCT250 FM202100 25005KT P6SM FEW250", "TAF KMCF 200100Z 2001/2107 02006KT 9999 SKC QNH3005INS BECMG 2013/2014 01009KT 9999 FEW025 SCT035 QNH3009INS TX24/2019Z TN10/2009Z", "KMCI 192320Z 2000/2024 21005KT P6SM SCT150 FM201600 29008KT P6SM SCT250", "KMCK 192320Z 2000/2024 36010G18KT P6SM SKC FM200130 34009KT P6SM SKC FM200500 30007KT P6SM FEW250 FM201000 27011KT P6SM SKC FM202300 24009KT P6SM SKC", "KMCN 192322Z 2000/2024 30006KT P6SM SKC FM200600 00000KT P6SM SKC FM201700 27006KT P6SM FEW080", "KMCO 192330Z 2000/2106 36008KT P6SM FEW050 FM201500 35008KT P6SM SCT035", "KMCW 192324Z 2000/2024 28006KT P6SM BKN100 FM200400 26006KT P6SM SCT250 FM201500 30007KT P6SM BKN240", "KMDT 192327Z 2000/2024 24010G20KT P6SM SCT060 FM200600 26011KT P6SM SKC", "KMDW 192338Z 2000/2106 26009KT P6SM FEW100 BKN200 FM201400 24011G18KT P6SM FEW070 SCT150 FM202000 29010KT P6SM FEW250 FM210100 22004KT P6SM SCT250", "KMEI 192336Z 2000/2024 22003KT P6SM SKC", "KMEM 192320Z 2000/2106 25005KT P6SM SKC FM200100 VRB03KT P6SM SKC FM201500 22009KT P6SM SKC FM210100 19005KT P6SM SKC", "KMER 192325Z 2000/2024 35008KT P6SM SCT250 FM200300 VRB04KT P6SM SCT250 FM202100 25005KT P6SM FEW250", "KMEV 192341Z 2000/2024 35010KT P6SM SCT250 FM200400 12006KT P6SM FEW250 FM201200 VRB03KT P6SM FEW250 FM202000 02007KT P6SM FEW250", "KMFD 192323Z 2000/2024 22009KT P6SM SCT045 FM201600 23013G21KT P6SM BKN090", "KMFE 192328Z 2000/2024 VRB04KT P6SM SKC FM200500 00000KT P6SM SKC FM202000 12006KT P6SM SKC", "KMFR 192320Z 2000/2024 VRB03KT P6SM SKC", "TAF KMGE 192112Z 1921/2103 31009KT 9999 SKC QNH3007INS BECMG 1923/1924 29005KT 9999 SKC QNH3010INS BECMG 2014/2015 26010G15KT 9999 FEW250 QNH3002INS BECMG 2023/2024 VRB05KT 9999 FEW250 QNH3003INS TX16/1921Z TNM01/2012Z LAST NO AMDS AFT 2003 NEXT 2011", "KMGM 192330Z 2000/2024 28002KT P6SM SKC FM201700 27006KT P6SM FEW250", "KMGW 192320Z 2000/2024 24008KT P6SM BKN050 FM200200 21007KT P6SM SKC FM201400 23010G20KT P6SM SCT150 FM202200 22005KT P6SM BKN100", "KMHK 192320Z 2000/2024 29005KT P6SM FEW250", "KMHR 192320Z 2000/2024 VRB05KT P6SM SKC", "KMHT 192325Z 2000/2024 21005KT P6SM SKC FM201600 21011G19KT P6SM SKC FM202300 20006KT P6SM SKC", "KMIA 192320Z 2000/2106 35008KT P6SM VCSH SCT015 BKN040 BKN120 FM200600 32005KT P6SM SCT025 OVC100 FM201500 36008KT P6SM SCT040 SCT120 BKN200 FM202100 33006KT P6SM SCT050 BKN250", "TAF KMIB 200100Z 2001/2107 32009KT 9999 FEW100 QNH2999INS BECMG 2017/2018 24010G15KT 9999 FEW100 QNH2967INS BECMG 2020/2021 25015G20KT 9999 FEW150 QNH2952INS BECMG 2101/2102 32009KT 9999 SCT120 QNH2951INS TX21/2019Z TN05/2009Z", "KMIV 192320Z 2000/2024 VRB02KT P6SM BKN070 FM200200 00000KT P6SM SCT070 FM201500 24010G18KT P6SM FEW250", "KMKC 192320Z 2000/2024 21003KT P6SM SCT150 FM201600 29007KT P6SM SCT250", "KMKE 192321Z 2000/2106 26010KT P6SM FEW250 FM200600 24008KT P6SM BKN080 FM201600 27010KT P6SM SCT080 FM202000 30008KT P6SM SCT250 FM210300 22003KT P6SM SCT250", "KMKG 192340Z 2000/2024 29013G23KT P6SM OVC035 FM200200 29013G24KT P6SM OVC090 FM201200 28012KT P6SM SCT050 BKN070", "KMKL 192320Z 2000/2024 28007KT P6SM SKC FM200200 VRB02KT P6SM SKC FM201500 23009KT P6SM SKC", "KMKT 192326Z 2000/2024 26005KT P6SM FEW250 FM201000 32008KT P6SM SKC FM202200 24007KT P6SM BKN250", "KMLB 192330Z 2000/2024 34010KT P6SM FEW040 FM201500 35008KT P6SM SCT040", "KMLC 192320Z 2000/2024 VRB04KT P6SM SCT250", "KMLI 192320Z 2000/2024 27008KT P6SM BKN230 FM201400 25008KT P6SM FEW250", "KMLS 192320Z 2000/2024 VRB06KT P6SM SKC FM201700 27015KT P6SM SKC FM202000 28015G30KT P6SM SKC", "KMLU 192340Z 2000/2024 34003KT P6SM SKC FM200100 00000KT P6SM SKC FM201500 21008KT P6SM SKC", "KMMH 192341Z 2000/2024 10010G18KT P6SM FEW120 BKN250 FM200200 VRB04KT P6SM SCT250 FM202000 13009G16KT P6SM FEW250", "TAF KMMT 192300Z 1923/2105 VRB06KT 9999 SKC QNH2999INS TX16/2020Z TNM04/2011Z", "KMOB 192320Z 2000/2024 VRB03KT P6SM SKC FM201700 25006KT P6SM SKC", "KMOD 192320Z 2000/2024 31006KT P6SM FEW250", "KMOT 192321Z 2000/2024 30010KT P6SM SCT250 FM200600 27007KT P6SM SCT250 FM201200 22006KT P6SM SCT250 FM201800 20012KT P6SM SCT250", "KMPV 192331Z 2000/2024 17004KT P6SM SCT045 BKN120 FM201500 21010G16KT P6SM SCT045 FM202000 20009KT P6SM SCT100", "KMQY 192320Z 2000/2024 26005KT P6SM SKC FM201500 23008KT P6SM FEW250 FM202300 21005KT P6SM SKC", "KMRB 192326Z 2000/2024 26007KT P6SM SCT050 BKN080 FM200400 22004KT P6SM FEW080 FM201500 23011G19KT P6SM FEW150 FM202200 22005KT P6SM FEW200", "KMRY 192331Z 2000/2024 VRB04KT P6SM SCT200 FM200300 10005KT P6SM SCT200 FM200800 00000KT P6SM SCT200 FM201200 13005KT P6SM SCT200 FM201700 27006KT P6SM SCT200 FM202200 VRB03KT P6SM SCT200", "KMSL 192320Z 2000/2024 30010KT P6SM SKC FM200200 26004KT P6SM FEW250 FM201400 25007G14KT P6SM SKC", "KMSN 192321Z 2000/2024 28006KT P6SM SCT250 FM200600 24005KT P6SM BKN080 FM201600 30008KT P6SM FEW250 FM202200 VRB04KT P6SM SCT250", "KMSO 192326Z 2000/2024 VRB03KT P6SM SKC FM202200 27014G27KT P6SM BKN150", "KMSP 192326Z 2000/2106 27005KT P6SM SCT250 FM201000 32005KT P6SM FEW250 FM202200 24007KT P6SM BKN250", "KMSS 192331Z 2000/2024 18007KT P6SM VCSH BKN045 TEMPO 2000/2004 6SM -SHRA BR OVC028 FM200500 21010KT P6SM -SHRA BKN027 FM201000 21010G17KT 6SM -SHRA BR OVC018 FM201400 21011G19KT P6SM VCSH OVC028", "KMSY 192320Z 2000/2106 05008KT P6SM FEW010 FM200600 VRB04KT P6SM SKC", "TAF COR KMTC 192045Z 1920/2101 29012G18KT 9999 SCT020 BKN025 BKN080 QNH2974INS BECMG 1921/1922 26009KT 9999 BKN025 OVC035 QNH2977INS BECMG 2015/2016 23012G18KT 9999 SCT025 OVC030 QNH2976INS TX06/1920Z TN02/2007Z LAST NO AMDS AFT 2003 NEXT 2011", "KMTH 200025Z 2000/2024 35009G16KT P6SM -RA BKN025 BKN060 FM200200 35008KT P6SM SCT030 SCT060 BKN110", "KMTJ 192320Z 2000/2024 VRB03KT P6SM FEW250 FM200200 15006KT P6SM FEW250 FM201600 33006KT P6SM SKC", "KMTN 192326Z 2000/2024 26008KT P6SM FEW070 FM200400 23004KT P6SM SKC FM201400 22008KT P6SM SKC FM201700 20011G19KT P6SM SKC FM202200 19007KT P6SM FEW150", "KMTW 192328Z 2000/2024 26008KT P6SM SCT050 FM200800 27008KT P6SM BKN070 FM201600 29007KT P6SM SKC FM202300 22004KT P6SM SKC", "TAF KMUI 191900Z 1919/2101 24015G20KT 9999 SCT045 OVC070 QNH2977INS BECMG 1920/1921 24006KT 9999 BKN040 620406 QNH2980INS BECMG 2006/2007 23006KT 9999 FEW040 QNH2992INS BECMG 2013/2014 23015G25KT 9999 FEW150 QNH2997INS BECMG 2021/2022 21009KT 9999 FEW120 FEW160 510053 QNH2990INS TX11/2019Z TN02/2011Z", "TAF KMUO 191800Z 1918/2024 09009KT 9999 FEW250 QNH3030INS BECMG 1919/1920 VRB06KT 9999 FEW250 QNH3021INS BECMG 2009/2010 09009KT 9999 SKC QNH3007INS BECMG 2019/2020 VRB06KT 9999 SKC QNH2996INS TX23/1922Z TN02/2012Z", "KMVN 192328Z 2000/2024 VRB03KT P6SM SCT250 FM201500 22007KT P6SM BKN250 FM201900 22011G17KT P6SM SCT250", "KMWH 192320Z 2000/2024 VRB04KT P6SM SKC FM201600 24007KT P6SM FEW150 SCT250", "TAF KMXF 191900Z 1919/2101 33009KT 9999 SKC QNH3013INS BECMG 1923/1924 VRB06KT 9999 SKC QNH3005INS TX18/1921Z TN01/2012Z LAST NO AMDS AFT 2003 NEXT 2011", "KMYL 192320Z 2000/2024 36007KT P6SM SKC FM200400 VRB03KT P6SM SKC FM202000 28007KT P6SM BKN120", "KMYR 192333Z 2000/2024 00000KT P6SM SKC TEMPO 2000/2002 29004KT FM201200 31004KT P6SM SKC FM201700 17008KT P6SM FEW250", "TAF KNBC 1921/2021 35010KT 9999 SKC QNH3003INS T03/2011Z T19/2021Z", "TAF KNBG 1923/2023 VRB06KT SKC QNH3013INS AUTOMATED SENSOR METWATCH 2004 TIL 2011 T17/2011Z T09/1220Z FN00259", "TAF KNCA 1921/2021 30010KT 9999 SKC QNH2997INS BECMG 2012/2014 VRB06KT 9999 SKC QNH3004INS T04/2012INS T16/2021Z", "KNEW 192320Z 2000/2024 VRB05KT P6SM SKC", "TAF KNFG 1921/2021 25008KT 9999 SKC 523008 QNH2989INS BECMG 2002/2004 VRB05KT 9999 SKC 523008 QNH2989INS BECMG 2018/2020 22008KT 9999 FEW250 500000 QNH2987INS T34/1921Z T15/2014Z", "TAF KNFL 1923/2023 VRB06KT 9999 SCT250 QNH3017INS TEMPO 2000/2004 01008KT FM200600 VRB06KT 9999 FEW250 QNH3020INS T04/2013Z T26/2023Z FS30123", "TAF KNFW 1923/2023 18010G15KT 9999 SKC QNH3006INS WND 140V200 FM200700 24010G20KT 9999 SKC 530004 QNH2992INS WND 200V290 FM201900 VRB06KT 9999 SKC 500000 QNH2987INS AUTOMATED SENSOR METWATCH 2004 TIL 2011 T12/2012Z T28/2022Z FN20070", "TAF KNGP 1923/2023 VRB06KT 9999 SKC QNH3013INS FM201500 24008KT 9999 SKC QNH3006INS FM202000 18010KT 9999 SKC QNH3003INS AUTOMATED SENSOR METWATCH 2004 TIL 2012 T15/2012Z T26/2020Z FN20058", "TAF KNGU 1923/2023 28008KT 9999 FEW050 QNH2996INS BECMG 2004/2006 VRB04KT 9999 SKC QNH3005INS FM201500 22008KT 9999 FEW250 QNH2999INS T05/2010Z T18/2020Z FN00062", "TAF KNHK 1923/2023 23007KT 9999 FEW070 QNH2990INS TEMPO 2000/2004 27011KT BECMG 2014/2016 22012KT 9999 FEW070 FEW280 QNH3006INS AUTOMATED SENSOR METWATCH 2003 TIL 2008 T05/2010Z T18/2020Z FN20066", "TAF KNID 1923/2023 14007KT 9999 FEW250 QNH3000INS BECMG 2001/2003 21007KT 9999 SCT250 QNH3005INS BECMG 2003/2005 24007KT 9999 BKN250 QNH3007INS BECMG 2008/2010 VRB05KT 9999 SCT250 QNH3002INS BECMG 2017/2019 12007KT 9999 FEW250 QNH2996INS LAST NO AMD AFT 2005 NEXT 2015 T11/2013Z T32/2023Z", "TAF KNIP 1923/2023 36008KT 9999 FEW250 QNH3007INS FM200100 02005KT 9999 SKC QNH3008INS T06/2011Z T19/2020Z FN20083", "TAF KNJK 1923/2023 01006KT 9999 FEW070 FEW300 QNH2991INS FM200100 30006KT 9999 FEW070 QNH2990INS FM200400 VRB04KT 9999 SKC QNH2993INS AUTOMATED SENSOR METWATCH 2006 TIL 2013 T33/1923Z T19/2013Z FS30152", "TAF KNKT 1921/2021 32007KT 9999 SKC QNH2996INS FM200100 VRB06KT 9999 SKC QNH3000INS T04/2009Z T18/2019Z", "TAF KNKX 1921/2021 07010KT 9999 SKC 523008 QNH2991INS TEMPO 1921/2000 04012G22KT FM200130 VRB05KT 9999 SKC 523008 QNH2992INS BECMG 2018/2020 27010KT 9999 SKC 500000 QNH2988INS T34/1921Z T18/2013Z", "TAF KNLC 1923/2023 VRB06KT 9999 SCT210 BKN250 QNH2994INS TEMPO 1923/2005 36007KT SCT240 T13/2013Z T33/2023Z FS30067", "TAF KNMM 1923/2023 30006KT 9999 SKC QNH3012INS FM200000 VRB06KT 9999 FEW250 QNH3008INS FM201600 26010KT 9999 FEW250 QNH3000INS AUTOMATED SENSOR METWATCH 2005 TIL 2011 TM02/2010Z T16/2020Z FN20082", "TAF KNPA 1923/2023 34006KT 9999 SKC QNH3012INS FM201800 19008KT 9999 SKC QNH3010INS AUTOMATED SENSOR METWATCH 2003 TIL 2011 T03/2013Z T20/2020Z FN20034", "TAF KNQI 1923/2023 VRB05KT 9999 SKC QNH3011INS FM201500 20008KT 9999 SKC QNH3002INS FM202100 16010KT 9999 SKC QNH3000INS AUTOMATED SENSOR METWATCH 2005 TIL 2012 T07/2012Z T28/2021Z FN20081", "TAF KNQX 1923/2023 36014KT 9999 VCSH SCT015 BKN030 OVC120 641409 642302 QNH2994INS TEMPO 1923/2003 8000 -SHRA BKN015 OVC030 FM200300 35011KT 9999 FEW030 BKN120 600000 QNH2993INS FM201200 36009KT 9999 FEW030 SCT120 QNH2990INS AUTOMATED SENSOR METWATCH 2002 TIL 2010 T18/2010Z T25/2019Z FN200056", "TAF KNRB 1923/2023 VRB05KT 9999 SKC QNH3005INS FM201400 03010G15KT 9999 SKC QNH3000INS AUTOMATED SENSOR MEWATCH 2004 TIL 2009 T08/2011Z T21/2019Z FN20089", "TAF KNSE 1923/2023 VRB05KT 9999 SKC QNH3011INS FM201800 29007KT 9999 FEW250 QNH3005INS AUTOMATED SENSOR METWATCH 2004 TIL 2011 T01/2012Z T19/2020Z FN20029", "TAF KNTD 1923/2023 VRB06KT 9999 SCT250 QNH2989INS TEMPO 2000/2006 25007KT FM20600 01007KT 9999 SKC QNH2988INS BECMG 2016/2018 18009KT 9999 FEW250 QNH2987INS AUTOMATED SENSOR METWATCH 2006 TIL 2013 T29/1923Z T14/2013Z FS30029", "TAF KNTU 1923/2023 27007KT 9999 SKC QNH2994INS FM201200 23005KT 9999 SKC QNH3000INS FM201800 20010KT 9999 FEW040 QNH3003INS T04/2010Z T17/2019Z FN20051", "TAF KNUC 1923/2023 22008KT 9999 BKN250 QNH2990INS FM200900 VRB06KT 9999 SCT008 SCT250 QNH2986INS TEMPO 2009/2015 BKN008 BKN250 LAST NO AMDS AFT 2001 NEXT 2015 T17/2012Z T21/2023Z FS30197", "TAF KNUW 1923/2023 28005KT 8000 FU FEW025 BKN250 QNH3024INS FM200700 VRB06KT 8000 BR BCFG FEW003 SCT070 BKN150 BKN250 QNH3015INS TEMPO 2011/2017 15008KT 3200 BR BCFG SCT003 BKN012 OVC050 FM201700 VRB06KT 1600 BR BCFG SCT005 BKN010 BKN200 QNH3007INS TEMPO 2017/2023 27008KT 8000 BR BCFG SCT015 SCT120 BKN250 T16/1923Z T08/2012Z FS30004", "TAF KNXP 1921/2021 16008KT 9999 SKC 523008 QNH3009INS BECMG 2001/2003 VRB05KT 9999 SKC 523008 QNH3010INS BECMG 2018/2020 15008KT 9999 SKC 500000 QNH3001INS T30/1923Z T15/2014Z", "TAF KNYG 1921/2021 26010KT 9999 BKN070 QNH2989INS BECMG 2003/2005 20009KT 9999 SKC QNH3002INS FM201400 20010G25KT 9999 SKC QNH2995INS LAST NO AMDS AFT 1921/ NEXT 2009 AUTOMATED SENSOR METWATCH 1923 TIL 2012 T03/2011Z T16/2020Z", "TAF KNYL 1921/2021 07010G20KT 9999 FEW120 523008 QNH2991INS BECMG 2000/2002 VRB06KT 9999 SKC 523008 QNH2991INS BECMG 2017/2019 05008KT 9999 SKC 500000 QNH2984INS T32/1921Z T22/2014Z", "TAF KNZY 1923/2023 31010KT 9999 FEW250 QNH2985INS FM200200 VRB04KT 9999 SKC QNH2990INS FM201500 26008KT 9999 FEW250 QNH2992INS T18/2013Z T29/2020Z FS30160", "KOAJ 192320Z 2000/2024 00000KT P6SM SKC FM201700 21005KT P6SM SKC AMD LTD TO CLD VIS AND WIND", "KOAK 192331Z 2000/2106 29006KT P6SM SKC FM200300 VRB04KT P6SM SKC FM202000 29009KT P6SM SKC", "TAF KOFF 191800Z 1918/2024 VRB06KT 9999 SCT250 QNH2997INS BECMG 2008/2009 30006KT 9999 SCT250 QNH2988INS TX17/2018Z TN03/2008Z", "KOFK 192320Z 2000/2024 23004KT P6SM SCT250 FM201200 30010KT P6SM SCT250", "KOGB 192334Z 2000/2024 00000KT P6SM SKC FM201500 21004KT P6SM SKC FM201900 24007KT P6SM SKC", "KOGD 192320Z 2000/2024 29006KT P6SM SCT250 FM200100 17008KT P6SM FEW250 FM201900 26006KT P6SM SCT250", "KOKC 192320Z 2000/2024 17007KT P6SM FEW250 FM201300 35010KT P6SM SCT250", "KOLF 192320Z 2000/2024 26007KT P6SM SCT100 FM201700 25012KT P6SM FEW190 FM201800 26015G25KT P6SM FEW120", "KOLM 192334Z 2000/2024 03007KT 3SM HZ SKC FM200100 VRB04KT 3SM FU SKC FM200900 00000KT 2SM BR FU SCT035 FM201200 00000KT 1SM BR FU BKN025 FM201500 00000KT 3SM HZ BKN006 FM201900 VRB03KT P6SM SCT035", "KOLS 192320Z 2000/2024 07011G18KT P6SM SCT200 FM200400 06006KT P6SM BKN200 FM201800 21006KT P6SM SCT200", "KOMA 192320Z 2000/2024 20004KT P6SM SCT250 FM201500 33010KT P6SM SCT250", "KONP 192352Z 2000/2024 33007KT 3/4SM BR OVC002 FM200700 VRB04KT 1/4SM FG VV002 FM202000 31011KT 4SM HZ BKN002", "KONT 192329Z 2000/2106 24007KT P6SM FEW110 FEW250 FM200400 VRB04KT P6SM FEW110 FEW250 FM202100 25011KT P6SM FEW090 SCT250 FM210400 VRB04KT P6SM FEW090 SCT250", "KOPF 192320Z 2000/2024 30005KT P6SM VCSH FEW030 OVC120 FM200600 34006KT P6SM SCT025 OVC100 FM201500 01009KT P6SM SCT040 SCT120 BKN200 FM202100 34007KT P6SM SCT050 BKN250", "KORD 192338Z 2000/2106 26009KT P6SM FEW100 BKN200 FM201400 24011G18KT P6SM FEW070 SCT150 FM202000 29010KT P6SM FEW250 FM210000 VRB04KT P6SM SCT250", "KORF 192320Z 2000/2024 25005KT P6SM SKC FM201400 22009KT P6SM SKC", "KORH 192330Z 2000/2024 23008KT P6SM SKC FM201400 23011G19KT P6SM SKC FM201900 22013G24KT P6SM SKC FM202200 22010G18KT P6SM SKC", "KOTH 192320Z 2000/2024 36012G19KT 4SM BR OVC004 FM200300 35010KT 2SM BR OVC003 FM200500 35003KT 1SM BR OVC003 FM201900 34010KT 4SM BR BKN007 FM202100 34018G25KT P6SM BKN015", "KOTM 192324Z 2000/2024 27006KT P6SM BKN180 FM201600 28009KT P6SM SCT250", "KOUN 192320Z 2000/2024 16006KT P6SM FEW250 FM201300 34008KT P6SM SCT250", "KOWB 192328Z 2000/2024 26007KT P6SM FEW250 FM200300 VRB03KT P6SM SCT250 FM201500 23008KT P6SM BKN250 FM201900 24012G19KT P6SM SCT250", "KOXR 192342Z 2000/2024 28010KT P6SM SCT150 FM200400 VRB03KT P6SM SCT150 FM201300 05007KT P6SM SCT150 FM201800 21008KT P6SM SCT150 FM202000 27010KT P6SM SCT150", "TAF KOZR 200000Z 2000/2106 34008KT 9999 SKC QNH3008INS BECMG 2017/2018 22007KT 9999 FEW250 QNH3004INS TX19/2020Z TN02/2011Z", "KPAE 192334Z 2000/2024 35005KT 1SM HZ FU SCT010 FM200300 VRB03KT 6SM HZ SCT015 FM200900 34004KT 1SM BR FU SCT015 FM201700 16005KT 5SM BR OVC020 FM202100 35006KT P6SM BKN030", "KPAH 192328Z 2000/2024 24007KT P6SM FEW250 FM200300 VRB03KT P6SM SCT250 FM201500 23007KT P6SM SCT250 FM201900 23011G18KT P6SM SCT250", "TAF KPAM 191900Z 1919/2101 36009KT 9999 SKC QNH3010INS BECMG 2017/2018 29006KT 9999 SKC QNH3003INS TX19/1920Z TN04/2011Z", "KPBF 192320Z 2000/2024 VRB03KT P6SM SKC FM201600 21008KT P6SM SCT250", "KPBG 192331Z 2000/2024 16006KT P6SM BKN060 FM200100 18009KT P6SM SCT060 BKN120", "KPBI 192320Z 2000/2024 33007KT P6SM VCSH FEW030 OVC120 FM200600 34008KT P6SM SCT025 OVC100 FM201500 01010KT P6SM SCT040 SCT120 BKN200 FM201800 35011KT P6SM BKN030 BKN250", "KPDK 192322Z 2000/2024 31006KT P6SM SKC FM200500 VRB03KT P6SM SKC FM201600 26008KT P6SM FEW100", "KPDT 192320Z 2000/2024 33007KT P6SM SKC FM200300 13005KT P6SM SKC FM201800 27005KT P6SM SCT250 FM202100 28013G21KT P6SM FEW250", "KPDX 192336Z 2000/2024 33006KT 6SM FU FEW035 FM201100 30004KT 2SM BR SCT002 FM201400 00000KT 1/2SM FG VV002 FM201700 VRB03KT 4SM FU FEW035", "KPEQ 192326Z 2000/2024 VRB05KT P6SM FEW250", "KPGA 192334Z 2000/2024 VRB06KT P6SM SKC", "KPGD 192320Z 2000/2024 01006KT P6SM SKC FM201400 02009KT P6SM SKC FM202300 34005KT P6SM FEW250", "KPGV 192320Z 2000/2024 00000KT P6SM SKC FM201700 22006KT P6SM SKC AMD LTD TO CLD VIS AND WIND", "KPHF 192320Z 2000/2024 25005KT P6SM SKC FM201600 22011KT P6SM SKC", "KPHL 192320Z 2000/2106 23009KT P6SM BKN070 FM200500 23004KT P6SM SCT070 FM201400 23010G18KT P6SM FEW250 FM202300 22005KT P6SM SCT250", "KPHX 192320Z 2000/2106 10007KT P6SM FEW250 TEMPO 2016/2020 11009G17KT FM202100 VRB04KT P6SM FEW250", "KPIA 192334Z 2000/2024 27007KT P6SM SCT250 FM200700 24005KT P6SM SCT250 FM201500 23010G19KT P6SM SCT250", "KPIB 192336Z 2000/2024 27003KT P6SM SKC", "KPIE 192320Z 2000/2024 01007KT P6SM SKC FM201900 35006KT P6SM SKC", "KPIH 192321Z 2000/2024 VRB04KT P6SM SKC FM200100 17008KT P6SM SKC FM200400 21010KT P6SM SKC FM201900 24015KT P6SM SKC", "KPIR 192320Z 2000/2024 32009KT P6SM BKN250 FM201400 27008KT P6SM SCT250 FM202100 24009KT P6SM FEW250", "KPIT 192320Z 2000/2106 24008KT P6SM BKN035 FM200400 22007KT P6SM SKC FM201700 23010G20KT P6SM SCT150 FM202200 20005KT P6SM BKN080", "KPKB 192320Z 2000/2024 VRB05KT P6SM FEW200 FM200800 21005KT P6SM FEW230 FM201300 22007G17KT P6SM FEW240 FM202300 20003KT P6SM BKN130", "KPLN 192337Z 2000/2024 30009G20KT P6SM VCSH OVC040 FM200700 28007KT P6SM VCSH OVC060 FM200900 28007KT P6SM VCSH BKN040 FM201300 29010G17KT P6SM VCSH BKN030", "KPMD 192342Z 2000/2024 07012KT P6SM SCT150 FM200200 21007KT P6SM SCT150 FM200800 VRB03KT P6SM SCT150 FM201800 07008KT P6SM SCT150 FM202300 28008KT P6SM SCT150", "KPNA 192321Z 2000/2024 30006KT P6SM SKC FM202100 29014G22KT P6SM SKC", "KPNC 192320Z 2000/2024 16006KT P6SM SCT250 FM201600 32008KT P6SM SCT250", "KPNE 192320Z 2000/2024 24005KT P6SM BKN070 FM200400 VRB03KT P6SM SCT070 FM201400 23012G18KT P6SM FEW250", "KPNS 192320Z 2000/2024 VRB04KT P6SM SKC FM201700 23006KT P6SM SKC", "TAF KPOB 191700Z 1917/2023 30010G15KT 9999 SCT060 QNH2997INS BECMG 1921/1922 26002KT 9999 SKC QNH2999INS BECMG 2013/2014 23009KT 9999 SCT220 QNH3000INS TX17/1919Z TN00/2011Z LAST NO AMDS AFT 1922 NEXT 2017", "TAF KPOE 192300Z 1923/2105 33010KT 9999 SKC QNH3018INS BECMG 2001/2002 VRB06KT 9999 SKC QNH3015INS BECMG 2016/2017 33009KT 9999 SKC QNH3020INS TX18/2020Z TN03/2012Z LAST NO AMDS AFT 2005 NEXT 2015", "KPOU 192320Z 2000/2024 23005KT P6SM FEW060 FM201600 22010G18KT P6SM FEW060", "KPQI 192330Z 2000/2024 19007G13KT P6SM BKN100 FM200200 19005KT P6SM SCT120 FM201400 19008KT P6SM FEW022 FM201700 19008G15KT P6SM SCT040", "KPRB 192342Z 2000/2024 10008KT P6SM BKN150 FM200300 VRB03KT P6SM BKN150 FM202300 22010KT P6SM BKN150", "KPRC 192334Z 2000/2024 15007KT P6SM FEW250 FM200600 VRB04KT P6SM SKC", "KPSC 192320Z 2000/2024 VRB04KT 6SM HZ SKC FM201800 24008KT 6SM HZ SKC", "KPSF 192320Z 2000/2024 21006KT P6SM BKN060 FM200300 22005KT P6SM FEW060 FM201500 22012G20KT P6SM FEW060", "KPSM 192325Z 2000/2024 23006KT P6SM SKC FM201600 23014G21KT P6SM SCT250 FM202300 20008KT P6SM SCT250", "KPSP 192329Z 2000/2024 13007KT P6SM SKC FM200200 VRB04KT P6SM SKC FM200800 33009KT P6SM FEW250 FM201400 VRB04KT P6SM FEW250 FM202100 13009KT P6SM FEW250", "KPTK 192334Z 2000/2024 27012G20KT P6SM BKN035 OVC045 FM200200 25010KT P6SM SCT018 OVC035 FM201000 24008KT P6SM OVC080 FM201600 24009KT P6SM -SHRA OVC050 FM202200 23008KT P6SM SCT025 BKN050", "KPUB 192326Z 2000/2024 03009KT P6SM SKC FM200300 VRB05KT P6SM SKC FM201900 12009KT P6SM SKC", "KPUW 192320Z 2000/2024 VRB05KT 6SM HZ SKC FM202000 22011KT P6SM SKC", "KPVD 192330Z 2000/2024 24006KT P6SM FEW250 FM201300 24008KT P6SM FEW250 FM201600 23013G21KT P6SM SKC FM202100 21012G23KT P6SM SKC", "KPVU 192320Z 2000/2024 26007KT P6SM SCT200 FM200100 33009KT P6SM FEW250 FM200300 VRB03KT P6SM FEW250 FM201800 26005KT P6SM SCT250", "KPVW 192320Z 2000/2024 29007KT P6SM SKC FM201500 01011KT P6SM SKC", "KPWM 192325Z 2000/2024 22005KT P6SM SKC FM201700 22013G20KT P6SM SKC FM202200 21008KT P6SM SKC", "KPWT 192334Z 2000/2024 08005KT 3SM HZ SKC FM200100 VRB04KT P6SM FEW250 FM200900 VRB04KT 2SM BR SCT015 FM201100 VRB04KT 1SM BR SCT015 FM201800 VRB04KT 5SM HZ SCT030", "KRAP 192334Z 2000/2024 34016KT P6SM FEW250 FM200200 30008KT P6SM FEW250 FM201700 31015G25KT P6SM FEW250", "KRBG 192320Z 2000/2024 35010KT 2SM FU BKN025 FM201200 00000KT 1/2SM FG OVC002 FM201700 VRB03KT 3SM FU SCT003", "KRBL 192320Z 2000/2024 34007KT P6SM SKC FM202100 VRB05KT P6SM SKC", "TAF KRCA 191810Z 1918/2017 33020G35KT 9999 SCT280 QNH3008INS BECMG 1923/1924 34012KT 9999 SCT280 QNH3004INS BECMG 2006/2007 VRB06KT 9999 SCT200 QNH2988INS BECMG 2015/2016 18008KT 9999 FEW280 QNH2963INS TX21/1921Z TN04/2012Z LAST NO AMDS AFT 1918 NEXT 2019", "KRDD 192320Z 2000/2024 35006KT P6SM SKC FM202100 VRB05KT P6SM SKC", "KRDG 192320Z 2000/2024 24005KT P6SM BKN080 FM200500 VRB02KT P6SM SCT070 FM201400 22009KT P6SM FEW250", "KRDM 192320Z 2000/2024 34007KT P6SM SKC FM200300 VRB04KT P6SM SKC FM201000 16005KT P6SM SKC FM201800 33008KT P6SM OVC250", "TAF KRDR 191800Z 1918/2024 VRB06KT 9999 SKC QNH2995INS TX16/1922Z TN03/2010Z", "KRDU 192320Z 2000/2024 29002KT P6SM SKC FM201400 21008KT P6SM SCT250", "KRFD 192338Z 2000/2024 27008KT P6SM FEW030 FEW250 FM200600 24008KT P6SM FEW100 BKN200 FM201400 25011G18KT P6SM FEW070 SCT150 FM201800 29010KT P6SM FEW250", "KRHI 192328Z 2000/2024 29006KT P6SM SCT250 FM200400 29004KT P6SM BKN070 FM201300 30005KT P6SM SKC FM202200 25004KT P6SM SKC", "KRIC 192320Z 2000/2024 27007KT P6SM FEW070 FM200600 22004KT P6SM SKC FM201700 22011G18KT P6SM SKC", "KRIL 192320Z 2000/2024 27011KT P6SM SKC FM200200 16004KT P6SM SKC FM201500 00000KT P6SM SKC FM201800 35003KT P6SM SKC", "TAF KRIV 192000Z 1920/2102 09012G18KT 9999 FEW250 520009 QNH3004INS WND 040V130 TEMPO 1920/2002 09018G28KT BECMG 2004/2005 VRB05KT 9999 SCT250 QNH2998INS BECMG 2019/2020 32012KT 9999 FEW250 QNH3000INS TX33/1922Z TN15/2013Z", "KRIW 192321Z 2000/2024 05007KT P6SM SKC FM200300 28007KT P6SM SKC FM202000 24010KT P6SM SKC", "KRKD 192325Z 2000/2024 23005KT P6SM SKC FM201600 22016G24KT P6SM SCT250 FM202300 22008KT P6SM SKC", "KRKS 192321Z 2000/2024 VRB06KT P6SM SKC FM201800 26014G24KT P6SM SKC", "KRME 192320Z 2000/2024 20008G13KT P6SM VCSH OVC040 TEMPO 2003/2006 -SHRA BKN025 FM200600 21007KT P6SM BKN040 FM201300 22010G17KT P6SM OVC060", "TAF AMD KRND 192343Z 1923/2022 20010KT 9999 SKC QNH3010INS BECMG 2014/2015 24015KT 9999 SKC QNH3001INS TX25/2021Z TN10/2012Z LAST NO AMDS AFT 2000 NEXT 2010", "KRNH 192326Z 2000/2024 VRB03KT P6SM SKC FM202200 24006KT P6SM BKN250", "KRNO 192341Z 2000/2024 10008KT P6SM FEW250 FM200300 VRB03KT P6SM FEW250 FM202200 06007KT P6SM FEW250", "KROA 192322Z 2000/2024 VRB04KT P6SM SKC FM201800 24007KT P6SM FEW210 FM202300 21005KT P6SM SKC", "KROC 192327Z 2000/2024 24015G25KT P6SM -SHRA SCT025 OVC035 FM200400 24015G25KT P6SM VCSH BKN035 FM201200 22012G22KT P6SM OVC025 FM201600 22015G25KT P6SM OVC035", "KROG 192320Z 2000/2024 VRB05KT P6SM SCT250 FM201500 22010KT P6SM SCT250", "KROW 192320Z 2000/2024 18006KT P6SM SKC FM200400 VRB05KT P6SM SKC", "KRSL 192321Z 2000/2024 VRB03KT P6SM SKC FM200800 29007KT P6SM SKC FM201400 31010KT P6SM SKC FM201700 32013KT P6SM SKC", "KRST 192320Z 2000/2024 26007KT P6SM SCT070 FM201400 32010KT P6SM SCT150", "KRSW 192320Z 2000/2024 02005KT P6SM SKC FM201400 01009KT P6SM SKC FM202200 01006KT P6SM SCT250", "KRUT 192331Z 2000/2024 19006KT P6SM BKN050 FM200200 16006KT P6SM BKN080 FM201200 20007KT P6SM SCT060", "KRVS 192320Z 2000/2024 VRB04KT P6SM SCT250", "KRWF 192326Z 2000/2024 25006KT P6SM SCT200 FM200900 31006KT P6SM FEW250 FM202200 24007KT P6SM BKN250", "KRWI 192320Z 2000/2024 00000KT P6SM SKC FM201400 21006KT P6SM SCT250", "KRWL 192326Z 2000/2024 33010KT P6SM SKC FM200500 VRB06KT P6SM SKC FM201700 25015G25KT P6SM SKC", "KRYY 192322Z 2000/2024 30006KT P6SM SKC FM200500 VRB03KT P6SM SKC FM201600 26007KT P6SM FEW100", "KSAC 192320Z 2000/2024 VRB05KT P6SM SKC", "KSAF 192320Z 2000/2024 27008KT P6SM SKC FM200200 36011KT P6SM SKC FM201900 25009KT P6SM SKC", "KSAN 192329Z 2000/2106 30010KT P6SM FEW200 FM200200 VRB04KT P6SM SCT200 FM202000 25009KT P6SM FEW200 FM210100 19005KT P6SM FEW090 SCT200", "KSAT 192320Z 2000/2106 19006KT P6SM SKC FM200600 VRB03KT P6SM FEW250 FM201500 23009KT P6SM SKC", "KSAV 192320Z 2000/2024 00000KT P6SM SKC FM201500 25005KT P6SM SKC", "KSAW 192335Z 2000/2024 29005KT P6SM SCT120 FM201000 33007KT P6SM BKN070 FM201700 32006KT P6SM SCT080", "KSBA 192342Z 2000/2024 24008KT P6SM BKN150 FM200200 VRB03KT P6SM BKN150 FM201800 17006KT P6SM BKN150 FM202100 23008KT P6SM BKN150", "KSBD 192329Z 2000/2024 VRB05KT P6SM FEW110 FEW250", "KSBM 192321Z 2000/2024 28010KT P6SM FEW040 FM200700 27008KT P6SM BKN050 FM201500 31008KT P6SM SCT120", "KSBN 192320Z 2000/2024 28008KT P6SM SCT200 FM201600 23010G20KT P6SM BKN200", "KSBP 192342Z 2000/2024 33010KT P6SM BKN150 FM200300 VRB03KT P6SM BKN150 FM202000 32010KT P6SM SKC", "KSBY 192320Z 2000/2024 24003KT P6SM FEW070 FM201700 22011G18KT P6SM SKC", "KSCK 192320Z 2000/2024 30006KT P6SM FEW250", "KSDF 192327Z 2000/2106 26008KT P6SM SKC FM200300 23005KT P6SM SKC FM201300 22007KT P6SM FEW180 FM201700 23014G20KT P6SM FEW090 FM202300 20009KT P6SM SKC", "KSDL 192320Z 2000/2024 10007KT P6SM FEW250 TEMPO 2000/2001 09009G17KT FM200200 06005KT P6SM FEW250 FM201200 VRB04KT P6SM FEW250 FM201600 11007KT P6SM FEW250 TEMPO 2016/2020 12009G17KT FM202100 VRB04KT P6SM FEW250", "KSDY 192320Z 2000/2024 VRB06KT P6SM SCT180 FM201600 22010KT P6SM FEW200 FM201900 25014G25KT P6SM FEW210", "KSEA 192334Z 2000/2106 04005KT 1SM HZ FU BKN015 FM200200 02004KT 3SM FU SCT250 FM200900 02003KT 2SM BR FU BKN015 FM201300 30004KT 2SM FU BKN030 FM201700 VRB03KT 5SM FU BKN035 FM210100 03007KT P6SM BKN045", "KSEZ 192334Z 2000/2024 07009G18KT P6SM FEW250 FM200100 05007KT P6SM SKC FM201700 15007KT P6SM SKC FM202000 07010G20KT P6SM SKC", "KSFB 192330Z 2000/2024 35008KT P6SM SKC FM201500 36008KT P6SM SCT035", "KSFF 192320Z 2000/2024 VRB04KT 5SM HZ FEW040 BKN250 FM202000 24005KT 5SM BR HZ SKC", "KSFO 192331Z 2000/2106 29011KT P6SM SCT200 FM200500 00000KT P6SM SCT200 FM201700 VRB03KT P6SM SKC FM202100 29012KT P6SM SKC FM210300 29007KT P6SM SKC", "KSGF 192320Z 2000/2024 23004KT P6SM FEW250 FM201700 26010G18KT P6SM SKC FM202000 27011KT P6SM SKC", "KSGJ 192338Z 2000/2024 35006KT P6SM SKC FM200800 33005KT P6SM SKC FM201300 33008KT P6SM FEW250 FM201600 36009KT P6SM FEW040 FEW250", "KSGR 192320Z 2000/2024 VRB03KT P6SM SKC FM201600 24008KT P6SM SKC", "KSGU 192320Z 2000/2024 09006KT P6SM SKC FM201100 VRB04KT P6SM FEW250", "KSHR 192320Z 2000/2024 VRB06KT P6SM SKC FM202000 33010KT P6SM SKC", "KSHV 192340Z 2000/2024 VRB03KT P6SM SKC FM200300 00000KT P6SM SKC FM201500 19008KT P6SM SKC FM202100 22013G19KT P6SM SKC", "KSJC 192331Z 2000/2024 32008KT P6SM FEW200 FM200300 VRB03KT P6SM FEW200 FM202100 32008KT P6SM SKC", "KSJS 192322Z 2000/2024 VRB04KT P6SM SKC FM201400 23007KT P6SM FEW150", "KSJT 192320Z 2000/2024 24008KT P6SM SKC", "TAF KSKA 191900Z 1919/2101 VRB06KT 8000 FU FEW250 QNH3026INS BECMG 2005/2006 18007KT 9000 HZ SCT250 QNH3004INS BECMG 2017/2018 26008KT 9999 NSW FEW080 SCT120 BKN200 QNH2990INS TX19/1923Z TN05/2011Z", "TAF KSKF 191800Z 1918/2100 VRB06KT 9999 SKC QNH3015INS BECMG 2014/2015 26010KT 9999 FEW300 QNH2998INS TX24/1921Z TN09/2012Z", "KSLC 192320Z 2000/2106 30007KT P6SM SCT200 BKN250 FM200400 15005KT P6SM FEW250 FM201900 32008KT P6SM SCT250 FM210300 15006KT P6SM BKN250", "KSLE 192336Z 2000/2024 20006KT 5SM HZ FU SKC FM201300 VRB02KT 1/4SM FG SKC FM201700 VRB02KT 3SM BR FEW040", "TAF KSLI 192100Z 1921/2103 VRB06KT 9999 SKC QNH2985INS TX32/1923Z TN20/2015Z", "KSLK 192331Z 2000/2024 21008KT P6SM BKN045 FM200300 21010KT P6SM VCSH BKN025 FM201200 21012G19KT P6SM VCSH OVC012 FM201800 21010G18KT P6SM VCSH SCT018 BKN028", "KSLN 192321Z 2000/2024 18005KT P6SM SKC FM200900 26006KT P6SM SKC FM201700 31012KT P6SM SKC", "KSME 192322Z 2000/2024 VRB03KT P6SM FEW200 FM201400 23009KT P6SM FEW150 FM201600 24011G20KT P6SM FEW150 FM202200 23008KT P6SM FEW080", "KSMF 192320Z 2000/2024 VRB05KT P6SM SKC", "KSMN 192326Z 2000/2024 VRB03KT P6SM SKC", "KSMO 192342Z 2000/2024 23008KT P6SM SCT150 FM200300 VRB03KT P6SM SCT150 FM202000 23010KT P6SM SCT150", "KSMX 192342Z 2000/2024 29010KT P6SM BKN150 FM200300 VRB03KT P6SM BKN150 FM202000 31010KT P6SM BKN150", "KSNA 192329Z 2000/2024 22008KT P6SM FEW100 SCT250 FM200200 VRB04KT P6SM FEW100 SCT250 FM202000 22009KT P6SM FEW090 SCT250", "KSNS 192331Z 2000/2024 30011KT P6SM SKC FM200400 00000KT P6SM SKC FM201000 12008KT P6SM SKC FM202200 30011KT P6SM SKC", "KSNY 192326Z 2000/2024 36012G22KT P6SM SKC FM200100 33008KT P6SM SKC FM200600 28008KT P6SM FEW250 FM201900 27012G22KT P6SM SKC", "KSOA 192320Z 2000/2024 23005KT P6SM SKC", "KSPI 192334Z 2000/2024 27005KT P6SM SCT250 FM200600 24005KT P6SM SCT250 FM201500 23010G18KT P6SM SCT250", "KSPS 192320Z 2000/2024 18009KT P6SM SKC FM201400 34012KT P6SM FEW250", "KSRQ 192320Z 2000/2024 02005KT P6SM SKC FM201500 02008KT P6SM SKC", "TAF KSSC 192300Z 1923/2105 28005KT 9999 SKC QNH3006INS BECMG 2017/2018 21006KT 9999 SKC QNH3011INS BECMG 2102/2103 23005KT 9999 SKC QNH3000INS TX19/2019Z TN04/2011Z", "KSSF 192320Z 2000/2024 18004KT P6SM SKC FM200600 VRB01KT P6SM FEW250 FM201500 22008KT P6SM SKC", "KSSI 192351Z 2000/2024 VRB04KT P6SM SKC FM201500 34006KT P6SM SKC FM202000 05007KT P6SM FEW250", "KSTC 192326Z 2000/2024 26005KT P6SM BKN200 FM200600 32005KT P6SM FEW250 FM202000 24008KT P6SM BKN250", "KSTJ 192320Z 2000/2024 21002KT P6SM SCT150 FM201600 29009KT P6SM SCT250 AMD NOT SKED", "KSTL 192320Z 2000/2106 25006KT P6SM SCT200 FM201500 25010G18KT P6SM FEW250 FM210000 24006KT P6SM FEW250", "KSTS 192331Z 2000/2024 19007KT P6SM SKC FM200100 00000KT P6SM SCT200 FM201600 VRB03KT P6SM SKC FM202300 19005KT P6SM SKC", "KSUA 192330Z 2000/2024 33009KT P6SM SCT040 BKN250 FM200500 35009KT P6SM BKN040 AMD NOT SKED", "KSUN 192321Z 2000/2106 13008KT P6SM FEW250 FM200300 VRB03KT P6SM SKC FM200500 32006KT P6SM SKC FM201800 17006KT P6SM SKC FM202100 24015KT P6SM SKC FM210300 32010KT P6SM SKC", "KSUS 192320Z 2000/2024 23004KT P6SM SCT200 FM201500 25009G17KT P6SM FEW250", "TAF AMD KSUU 192230Z 1922/2101 VRB06KT 9999 SKC QNH2999INS BECMG 2018/2019 02010G15KT 9999 SKC QNH2994INS TX34/1923Z TN12/2014Z", "KSUX 192320Z 2000/2024 VRB04KT P6SM FEW240 FM201200 32008KT P6SM FEW250 FM202300 VRB04KT P6SM SCT240", "TAF KSVN 191954Z 1920/2102 32010KT 9999 SKC QNH3003INS BECMG 2022/2023 VRB06KT 9999 SKC QNH3002INS TX20/2020Z TN05/2011Z", "KSWF 192322Z 2000/2106 27004KT P6SM SCT060 FM200600 25007KT P6SM FEW040 FM201400 25013G23KT P6SM SCT250 FM202200 24011KT P6SM BKN150 AMD NOT SKED", "KSWO 192320Z 2000/2024 17006KT P6SM SCT250 FM201600 32008KT P6SM SCT250", "KSYM 192322Z 2000/2024 VRB05KT P6SM SKC FM201400 23007KT P6SM FEW150 FM201600 23011G21KT P6SM SCT150 FM202200 22006KT P6SM FEW080", "KSYR 192320Z 2000/2024 21010G16KT P6SM VCSH FEW030 OVC050 TEMPO 2000/2002 -SHRA FM201000 21011G17KT P6SM BKN050 FM201400 22011G21KT P6SM OVC070 FM202200 22009G15KT P6SM OVC060", "TAF KSZL 191900Z 1919/2101 28010G15KT 9999 FEW250 QNH3007INS BECMG 1923/1924 26009KT 9999 SCT250 QNH2990INS BECMG 2016/2017 26010G15KT 9999 FEW250 QNH2982INS BECMG 2023/2024 26009KT 9999 BKN250 QNH2984INS TX20/2019Z TN01/2012Z", "TAF KTBN 192100Z 1921/2103 28012KT 9999 SKC QNH2996INS BECMG 2015/2016 24010G15KT 9999 SKC QNH2983INS BECMG 2023/2024 VRB06KT 9999 FEW270 QNH2984INS TX21/2020Z TN01/2005Z LAST NO AMDS AFT 2003 NEXT 2013", "KTCC 192320Z 2000/2024 27007KT P6SM SKC FM200600 30008KT P6SM SKC FM201800 20008KT P6SM SKC", "KTCL 192330Z 2000/2024 00000KT P6SM SCT250 FM201600 24006KT P6SM SCT110", "TAF KTCM 192106Z 1921/2103 02006KT 4800 FU FEW250 QNH3024INS TEMPO 1921/2001 3200 FU BECMG 2000/2001 VRB06KT 8000 HZ SCT250 QNH3019INS BECMG 2009/2010 VRB06KT 9999 NSW FEW020 SCT100 QNH3012INS BECMG 2017/2018 24006KT 9999 SCT030 BKN050 QNH3010INS TX19/1923Z TN06/2013Z", "KTCS 192330Z 2000/2024 VRB04KT P6SM FEW250 FM200200 31006KT P6SM FEW250 FM202000 18005KT P6SM SKC", "KTEB 192322Z 2000/2106 25005KT P6SM BKN070 FM200500 24005KT P6SM FEW050 FM201400 23010G19KT P6SM FEW250 FM202200 22010KT P6SM SCT200", "KTEX 192320Z 2000/2024 27016G21KT P6SM FEW250 FM200300 13003KT P6SM SKC FM201800 28010G18KT P6SM SKC", "TAF KTIK 200100Z 2001/2107 18009KT 9999 SKC QNH2994INS BECMG 2009/2010 VRB06KT 9999 SKC QNH2992INS BECMG 2101/2102 20010KT 9999 SKC QNH2990INS TX24/2021Z TN07/2011Z", "KTIX 192330Z 2000/2024 35008KT P6SM FEW040 FM201500 01010KT P6SM SCT035 AMD NOT SKED 2001/2011", "KTLH 192325Z 2000/2024 34005KT P6SM SKC", "KTMB 192320Z 2000/2024 35008KT P6SM VCSH SCT015 BKN040 BKN120 TEMPO 2000/2001 BKN008 FM200600 34008KT P6SM SCT025 OVC100 FM201500 01009KT P6SM SCT040 SCT120 BKN200 FM202100 34006KT P6SM SCT050 BKN250", "KTOI 192330Z 2000/2024 00000KT P6SM SKC FM201600 27006KT P6SM FEW250", "KTOL 192323Z 2000/2024 28012KT P6SM SCT045 FM200900 24008KT P6SM BKN250 FM201200 23012G20KT P6SM BKN080", "KTOP 192320Z 2000/2024 28005KT P6SM FEW250", "KTPA 192320Z 2000/2106 01008KT P6SM SKC FM200400 02004KT P6SM SKC FM201700 35007KT P6SM SKC", "KTPH 192320Z 2000/2024 36009KT P6SM BKN250 FM201600 VRB05KT P6SM BKN200", "KTRI 192320Z 2000/2024 23008KT P6SM SKC FM200200 00000KT P6SM SKC FM201600 24010KT P6SM SCT250", "KTRK 192341Z 2000/2024 15009KT P6SM FEW250 FM200300 VRB03KT P6SM SKC FM202000 15006KT P6SM FEW250", "KTRM 192329Z 2000/2024 VRB05KT P6SM SKC FM202100 15009KT P6SM FEW250", "KTTD 192336Z 2000/2024 VRB04KT 6SM FU HZ FEW035 FM201000 VRB02KT 2SM BR SCT002 FM201300 00000KT 1/2SM FG VV002 FM201700 27003KT 4SM FU FEW035", "KTTN 192320Z 2000/2024 23005KT P6SM BKN070 FM200400 VRB03KT P6SM SCT070 FM201400 23010G18KT P6SM SCT250", "KTUL 192320Z 2000/2024 17005KT P6SM SCT250 FM201500 VRB05KT P6SM SCT250", "KTUP 192320Z 2000/2024 00000KT P6SM SKC FM201500 25006KT P6SM SKC", "KTUS 192320Z 2000/2024 12011G21KT P6SM SCT250 FM200200 11007KT P6SM SCT250", "KTVC 192337Z 2000/2024 29006KT P6SM VCSH BKN060 FM201200 27008G17KT P6SM VCSH OVC040 FM201500 28009G14KT P6SM VCSH BKN022 FM202000 28008KT P6SM SCT050", "KTVF 192320Z 2000/2024 VRB05KT P6SM SCT250 FM201600 24006KT P6SM OVC060", "KTVL 192341Z 2000/2024 04008KT P6SM FEW250 FM200200 VRB03KT P6SM SKC FM202000 03007KT P6SM FEW250", "KTWF 192320Z 2000/2024 30006KT P6SM SKC FM200200 20010KT P6SM SKC FM201700 32009KT P6SM SKC", "KTXK 192340Z 2000/2024 VRB04KT P6SM SKC FM201500 19008KT P6SM SKC FM202100 22010KT P6SM SKC", "KTYR 192340Z 2000/2024 00000KT P6SM SKC FM200300 15004KT P6SM SKC FM200900 18006KT P6SM SKC FM201500 21014G20KT P6SM SKC", "KTYS 192320Z 2000/2024 23004KT P6SM SKC FM201600 24008KT P6SM SCT250", "KUAO 192336Z 2000/2024 03004KT 2SM HZ FU FEW040 FM201300 30002KT 1/2SM FG VV003 FM201700 VRB02KT 3SM BR FEW040", "KUES 192321Z 2000/2024 27010KT P6SM FEW250 FM200700 25005KT P6SM BKN080 FM201700 29009KT P6SM FEW250 FM202300 22003KT P6SM SCT250", "KUIN 192320Z 2000/2024 25006KT P6SM BKN150 FM200900 22006KT P6SM SCT200 FM201500 26011G18KT P6SM FEW250", "KUKI 192338Z 2000/2024 32005KT P6SM SKC FM200300 00000KT P6SM SKC", "KUNV 192327Z 2000/2024 24010KT P6SM BKN030 BKN060 FM200800 24008G20KT P6SM SCT040 FM202100 25009KT P6SM BKN250", "KUTS 192320Z 2000/2024 VRB03KT P6SM SKC FM201500 22008KT P6SM SKC", "TAF KVAD 200000Z 2000/2106 34006KT 9999 SKC QNH3002INS TX17/2021Z TN05/2009Z", "TAF KVBG 192200Z 1922/2104 30009KT 9999 BKN250 QNH2998INS BECMG 2001/2002 13009KT 9999 BKN200 QNH2996INS BECMG 2019/2020 29009KT 9999 SCT250 QNH3002INS BECMG 2100/2101 35009KT 9999 BKN250 QNH2995INS BECMG 2103/2104 35006KT 6000 BR FEW005 BKN250 QNH2993INS TX30/1922Z TN14/2014Z LAST NO AMDS AFT 2000 NEXT 2014", "KVCT 192325Z 2000/2024 VRB04KT P6SM SKC FM201500 20009KT P6SM SKC", "KVEL 192320Z 2000/2024 12005KT P6SM FEW250 FM200100 29003KT P6SM FEW250 FM201600 16003KT P6SM SKC", "KVGT 192320Z 2000/2024 09007KT P6SM FEW250 FM200300 33007KT P6SM FEW250 FM201800 15006KT P6SM SCT250", "KVIS 192325Z 2000/2024 35005KT P6SM SCT250 FM200600 VRB03KT P6SM SCT250", "KVLD 192325Z 2000/2024 35005KT P6SM SKC", "KVNY 192342Z 2000/2024 14008KT P6SM SCT150 FM200300 VRB03KT P6SM SCT150 FM202100 14008KT P6SM SCT150", "TAF KVOK 200100Z 2001/2107 VRB06KT 9999 FEW100 QNH2970INS BECMG 2016/2017 34012KT 9999 SKC QNH2973INS BECMG 2023/2024 VRB06KT 9999 FEW150 QNH2969INS TX09/2021Z TNM03/2003Z", "TAF KVPS 200104Z 2001/2107 36006KT 9999 SKC QNH3017INS WND 27006KT AFT 2021 TX17/2100Z TN07/2012Z", "KVQQ 192338Z 2000/2024 01007KT P6SM SKC FM200100 00000KT P6SM SKC FM201500 35005KT P6SM SKC", "KVRB 192330Z 2000/2024 35009KT P6SM SCT040 BKN250 FM200300 35009KT P6SM BKN040", "KVTN 192320Z 2000/2024 34012KT P6SM SKC FM200300 31005KT P6SM SKC FM200700 28006KT P6SM FEW250 FM202100 25009KT P6SM FEW250", "KWJF 192342Z 2000/2024 07012KT P6SM SCT150 FM200200 21007KT P6SM SCT150 FM200800 VRB03KT P6SM SCT150 FM201800 07008KT P6SM SCT150 FM202300 28008KT P6SM SCT150", "KWMC 192320Z 2000/2024 05009KT P6SM SKC", "TAF KWRB 200000Z 2000/2106 32006KT 9999 SKC QNH3009INS BECMG 2013/2014 VRB06KT 9999 SKC QNH3004INS BECMG 2022/2023 26006KT 9999 SKC QNH3006INS TX16/2021Z TN03/2012Z", "TAF KWRI 191800Z 1918/2024 25015G25KT 9999 BKN050 QNH2982INS BECMG 1922/1923 25006KT 9999 FEW070 QNH2984INS BECMG 2011/2012 21012G22KT 9999 SKC QNH2996INS BECMG 2018/2019 22012G22KT 9999 SCT100 QNH2993INS BECMG 2022/2023 VRB03KT 9999 SKC QNH2998INS TX14/1918Z TN01/2011Z", "KWRL 192321Z 2000/2024 VRB05KT P6SM SKC", "KWWR 192320Z 2000/2024 29006KT P6SM SKC FM201000 32011KT P6SM SCT250", "KWYS 192320Z 2000/2024 VRB05KT P6SM SKC FM201900 22010KT P6SM SCT150", "KXNA 192320Z 2000/2024 VRB03KT P6SM SCT250 FM201500 22009KT P6SM SCT250", "KXWA 192321Z 2000/2024 34007KT P6SM SCT250 FM200700 27007KT P6SM SCT250 FM201600 24012KT P6SM SCT250 FM201800 24016G26KT P6SM SCT250 FM202100 27018G31KT P6SM SCT250", "KYIP 192334Z 2000/2024 28012G18KT P6SM SCT035 BKN045 FM200200 25010KT P6SM SCT025 OVC040 FM200900 24008KT P6SM SCT040 OVC080 FM201600 26012G20KT P6SM SCT045 BKN060", "KYKM 192320Z 2000/2024 15005KT P6SM SKC FM200300 27005KT P6SM SKC FM201400 30005KT P6SM FEW250", "KYNG 192323Z 2000/2024 22009KT P6SM SCT025 OVC045 FM200500 23009KT P6SM BKN060 FM201600 23012G20KT P6SM BKN080", "KZZV 192320Z 2000/2024 21008KT P6SM SKC FM201400 23010G20KT P6SM SCT150 FM202200 20005KT P6SM BKN100", "TAF LATI 192300Z 2000/2024 VRB05KT 4000 BR NSC TX26/2012Z TN09/2004Z BECMG 2005/2007 CAVOK", "TAF LBBG 192300Z 2000/2024 VRB04KT CAVOK BECMG 2006/2008 03012KT SCT025 BKN050", "TAF LBGO 192300Z 2000/2024 VRB04KT 9999 SCT050 TEMPO 2001/2006 3000 BR BKN015 BECMG 2006/2008 30010KT", "TAF LBPD 192300Z 2000/2024 27014KT CAVOK BECMG 2012/2014 10010KT", "TAF LBSF 192300Z 2000/2024 28010KT 9999 BKN050 TEMPO 2002/2006 BKN015 BECMG 2014/2016 VRB04KT", "TAF LBWN 192300Z 2000/2024 32008KT CAVOK BECMG 2003/2005 01012KT 9999 SCT020 BKN050", "TAF LCEN 192240Z 2000/2024 16015KT 9999 FEW020 SCT025 PROB30 TEMPO 2000/2004 5000 SHRA FEW020CB BKN025", "TAF LCLK 192330Z 2000/2024 20009KT 9999 SCT030 BECMG 2005/2009 35012KT PROB30 TEMPO 2009/2017 5000 SHRA SCT025TCU PROB30 TEMPO 2010/2016 VRB17G27KT 3000 TSRA SCT025CB", "TAF LCPH 192330Z 2000/2024 23017KT 9999 FEW020TCU BKN040 PROB30 TEMPO 2000/2007 VRB24G34KT 3000 TSRA SCT022CB PROB30 TEMPO 2000/2010 5000 SHRA SCT025TCU BECMG 2002/2006 29016KT BECMG 2017/2021 35009KT", "TAF LCRA 192217Z 2000/2018 24012KT 9999 FEW020 PROB40 TEMPO 2000/2006 5000 SHRA SCT012TCU BECMG 2006/2009 27020KT TEMPO 2006/2016 28022G32KT PROB30 TEMPO 2006/2015 7000 SHRA SCT020TCU", "TAF LDDU 192325Z 2000/2100 03020G30KT CAVOK TX22/2012Z TN16/2005Z TEMPO 2000/2004 03025G35KT BECMG 2008/2010 19008KT BECMG 2016/2018 08008KT", "TAF LDOS 192325Z 2000/2100 35006KT CAVOK TX17/2013Z TN06/2004Z BECMG 2006/2008 09007KT", "TAF LDPL 192325Z 2000/2100 07010KT CAVOK TX22/2012Z TN15/2005Z BECMG 2011/2013 07004KT", "TAF LDRI 192325Z 2000/2100 VRB02KT CAVOK TX22/2012Z TN13/2005Z PROB30 TEMPO 2000/2006 05010KT PROB30 TEMPO 2011/2015 32006KT", "TAF LDSP 192325Z 2000/2100 05012KT CAVOK TX24/2012Z TN16/2005Z BECMG 2010/2012 23008KT BECMG 2015/2017 35005KT", "TAF LDZA 192325Z 2000/2100 04006KT CAVOK TX17/2013Z TN10/2005Z PROB30 TEMPO 2000/2004 1200 BCFG", "TAF LDZD 192325Z 2000/2100 08010KT CAVOK TX23/2012Z TN12/2005Z BECMG 2010/2012 31007KT BECMG 2015/2017 VRB02KT", "TAF LEAB 192300Z 2000/2024 18010KT 9999 BKN050 TX24/2015Z TN15/2006Z TEMPO 2000/2008 VRB05KT PROB30 TEMPO 2006/2012 RA PROB40 TEMPO 2010/2016 18015G25KT", "TAF LEAG 191400Z 1915/2015 VRB05KT 9999 SCT015 TX24/2012Z TN19/2006Z BECMG 2011/2013 15010KT", "TAF LEAL 192300Z 2000/2024 27005KT 9999 SCT015 TX27/2012Z TN19/2006Z PROB40 TEMPO 2000/2006 3000 BR BKN010 PROB30 TEMPO 2000/2007 0800 BCFG VV001 TEMPO 2019/2023 0500 FG VV002 TEMPO 2019/2023 1500 BR BKN010", "TAF LEAM 192300Z 2000/2024 19005KT 9999 FEW015 TX25/2012Z TN19/2006Z TEMPO 2000/2012 BKN010 PROB40 TEMPO 2000/2006 3000 BR PROB40 TEMPO 2017/2024 BKN010", "TAF LEAO 192000Z 1921/2021 VRB05KT 9999 FEW030 SCT050 TX21/2015Z TN15/2006Z TEMPO 2006/2021 15012KT PROB40 TEMPO 2010/2019 15015G30KT PROB40 TEMPO 2016/2021 4000 RA SHRA SCT030TCU BKN035", "TAF LEAS 192000Z 1921/2021 VRB04KT 9999 FEW050 TX22/2014Z TN12/2006Z", "TAF LEBA 191400Z 1915/2015 25010KT CAVOK TX29/1915Z TN18/2006Z BECMG 1920/1922 VRB03KT PROB30 TEMPO 2003/2007 BKN014 BECMG 2011/2013 24010KT", "TAF LEBB 192300Z 2000/2024 15009KT CAVOK TX25/2013Z TN17/2006Z BECMG 2008/2010 21009KT PROB40 TEMPO 2009/2018 20015G25KT TEMPO 2018/2024 15008KT", "TAF LEBG 192000Z 1921/2021 20012KT 9999 SCT030 BKN040 TX20/2015Z TN08/2006Z PROB40 TEMPO 1921/1924 RA SHRA SCT030TCU PROB30 TEMPO 1921/1924 VRB15G30KT 3000 RA TSRA SCT030CB PROB40 TEMPO 1921/2021 20015G25KT PROB40 TEMPO 1921/2006 3000 BR BCFG BKN008 PROB40 TEMPO 2008/2020 RA SHRA SCT030TCU", "TAF LEBL 192300Z 2000/2024 32006KT 9999 FEW020 TX26/2012Z TN19/2006Z PROB30 TEMPO 2000/2008 3000 BR BKN010 BECMG 2006/2009 07007KT BECMG 2020/2023 34006KT", "TAF LEBR 192000Z 1921/2021 11014KT CAVOK TX22/2013Z TN16/2005Z PROB40 TEMPO 1921/1924 VRB04KT 3000 SHRA SCT050TCU PROB30 TEMPO 1921/1924 24018G28KT 1500 TSRA FEW050CB PROB30 TEMPO 2000/2006 12018G28KT TEMPO 2006/2018 12024G35KT", "TAF LEBZ 192000Z 1921/2021 20009KT 9999 SCT025 TX21/2015Z TN16/2006Z TEMPO 1921/2008 4000 SHRA SCT025TCU TEMPO 2011/2018 4000 RA BKN014", "TAF LECO 192000Z 1921/2021 20009KT 9999 SCT030 TX18/2015Z TN14/2004Z TEMPO 2004/2015 19015G25KT TEMPO 2010/2015 19025G35KT 3000 SHRA SCT025TCU PROB30 TEMPO 2010/2015 1500 TSRA SCT025CB", "TAF LECV 192300Z 2000/2024 20010KT 9999 SCT020 BKN040 TX17/2015Z TN13/2006Z TEMPO 2000/2010 VRB05KT PROB40 TEMPO 2008/2022 20015G25KT PROB40 TEMPO 2010/2024 4000 RA SHRA SCT030TCU BECMG 2016/2020 4000 BR BCFG BKN020 PROB40 TEMPO 2018/2024 0800 FG BKN006", "TAF LEEC 190800Z 1909/2009 22006KT 9999 FEW025 TX28/1915Z TN18/2006Z PROB30 TEMPO 1909/1920 SHRA FEW035TCU SCT045 PROB30 TEMPO 2003/2008 4000 BR BKN014", "TAF LEGA 191100Z 1912/2012 VRB04KT 9999 FEW065 SCT100 TX32/1915Z TN19/2006Z BECMG 1912/1913 18016KT PROB40 TEMPO 1913/1915 18018G28KT BECMG 1919/1921 16006KT", "TAF LEGE 192300Z 2000/2024 19006KT 9999 SCT015 TX27/2013Z TN18/2006Z PROB40 2000/2009 3000 BR BKN010 PROB30 2000/2008 0800 BCFG VV002 TEMPO 2018/2023 3000 BR BKN010", "TAF LEGR 192300Z 2000/2024 VRB03KT 9999 FEW100 TX29/2014Z TN17/2006Z BECMG 2010/2012 21012KT BECMG 2017/2019 VRB02KT", "TAF LEGT 192300Z 2000/2024 20010KT 9999 SCT030 SCT045 TX21/2015Z TN14/2006Z PROB30 TEMPO 2000/2006 RA TEMPO 2000/2008 VRB05KT PROB40 TEMPO 2010/2024 20015G25KT PROB40 TEMPO 2012/2024 4000 RA SHRA SCT030TCU BKN040 TEMPO 2022/2024 VRB05KT", "TAF AMD LEHC 192004Z 1921/2015 10009KT 9999 FEW025 TX28/2013Z TN16/2005Z TEMPO 1921/2003 4000 RA BKN015 PROB40 TEMPO 1921/2002 3000 TSRA FEW030CB", "TAF LEIB 192000Z 1921/2021 07006KT 9999 SCT010 TX26/2012Z TN19/2005Z PROB40 TEMPO 1921/2008 2000 BR BKN010", "TAF LEJR 192000Z 1921/2021 17005KT 9999 FEW025 TX26/2015Z TN17/2006Z PROB40 TEMPO 2003/2007 4000 BR BKN012 BECMG 2010/2012 23012KT PROB40 TEMPO 2016/2021 4000 RA BKN014 BECMG 2018/2020 17006KT", "TAF LELC 192300Z 2000/2024 07005KT 9999 FEW012 TX25/2013Z TN19/2006Z PROB40 TEMPO 2000/2009 4000 BR BKN012", "TAF LELL 191400Z 1915/2015 VRB03KT 9999 FEW020 TX27/2013Z TN17/2005Z TEMPO 1915/1917 18007KT PROB30 TEMPO 1921/2008 3000 BR BKN010", "TAF AMD LELN 192109Z 1921/2021 18012KT 9999 SCT020 BKN040 TX17/2015Z TN10/2006Z TEMPO 1921/1924 4000 RA SHRA SCT010 SCT030TCU PROB30 TEMPO 1921/1922 3000 TSRA SCT030CB PROB30 TEMPO 1921/2010 VRB05KT 3000 RADZ RA BKN008 PROB40 TEMPO 1921/2008 2500 BR BCFG BKN008 PROB30 TEMPO 1921/2006 0800 FG BKN002 PROB40 TEMPO 2008/2018 RA SHRA SCT030TCU BKN035 PROB30 TEMPO 2010/2016 3000 TSRA SCT030CB", "TAF LELO 192000Z 1921/2021 12012KT 9999 SCT030 BKN040 TX25/2015Z TN13/2006Z PROB30 TEMPO 1921/1924 RA SHRA SCT040TCU PROB30 TEMPO 1921/1924 VRB15G40KT RA TSRA SCT030CB PROB40 TEMPO 2000/2010 VRB05KT PROB30 TEMPO 2008/2016 12012G30KT PROB40 TEMPO 2014/2020 RA SHRA SCT030TCU PROB30 TEMPO 2016/2020 4000 RA TSRA SCT030CB", "TAF LEMD 192300Z 2000/2106 20010KT 9999 SCT030 SCT045 TX23/2015Z TN10/2006Z TEMPO 2000/2010 VRB05KT PROB30 TEMPO 2000/2106 RA PROB40 TEMPO 2010/2024 20015G30KT PROB40 TEMPO 2012/2024 4000 RA SHRA SCT030TCU BKN040 TEMPO 2022/2106 VRB05KT", "TAF LEMG 192300Z 2000/2024 VRB03KT 9999 FEW015 TX26/2013Z TN19/2006Z PROB40 TEMPO 2000/2008 3000 BR BECMG 2010/2012 14010KT PROB40 TEMPO 2012/2021 2000 BR BKN005 BECMG 2018/2020 VRB02KT", "TAF LEMH 192000Z 1921/2021 14008KT 9999 FEW015 TX24/2012Z TN19/2005Z PROB30 TEMPO 1921/2006 2000 BR BKN010", "TAF LEMO 192000Z 1921/2021 18005KT 9999 FEW025 TX27/2014Z TN17/2006Z PROB40 TEMPO 2003/2007 BKN012 BECMG 2010/2012 24012KT PROB40 TEMPO 2016/2021 4000 RA BKN014", "TAF LEPA 192300Z 2000/2024 04005KT 9999 FEW025 TX30/2012Z TN17/2007Z PROB40 TEMPO 2000/2008 3000 BR BKN010 PROB30 TEMPO 2003/2006 0800 BCFG VV002 BECMG 2008/2010 13010KT BECMG 2018/2020 VRB03KT", "TAF LEPP 192000Z 1921/2021 16014KT CAVOK TX25/2013Z TN15/2003Z TEMPO 1921/2021 16015G25KT PROB40 TEMPO 1921/1923 25010KT 3000 SHRA SCT050TCU PROB30 TEMPO 1921/1923 16022G35KT 1500 TSRA FEW050CB TEMPO 2009/2019 16025G35KT", "TAF LERI 191700Z 1918/2018 06005KT 9999 FEW020 TX28/2014Z TN19/2006Z PROB40 TEMPO 2000/2006 4000 BR BKN008 BECMG 2011/2013 16010KT", "TAF LERL 191400Z 1915/2015 21008KT 9999 FEW030 SCT050 TX21/2015Z TN15/2006Z PROB40 TEMPO 1915/1922 22012G25KT RA SHRA SCT040TCU PROB30 TEMPO 1918/1922 TSRA SCT040CB PROB30 TEMPO 1921/2015 DZRA RA", "TAF LERS 192000Z 1921/2021 VRB03KT 9999 SCT015 TX26/2012Z TN19/2005Z PROB30 TEMPO 1921/2007 3000 BR BKN010", "TAF LERT 192000Z 1921/2021 18010KT 9999 FEW025 TX23/2012Z TN19/2006Z PROB40 TEMPO 1921/2007 4000 BR BKN012 PROB40 TEMPO 2016/2021 4000 RA BKN014", "TAF AMD LESA 192108Z 1921/2021 20012KT 9999 SCT020 SCT045 TX21/2015Z TN08/2006Z TEMPO 1921/1924 RA SHRA SCT040TCU PROB30 TEMPO 1921/1924 3000 TSRA SCT040CB PROB40 TEMPO 1921/2010 VRB05KT PROB40 TEMPO 2000/2010 RA SHRA SCT040TCU PROB30 TEMPO 2002/2008 3000 TSRA SCT040CB PROB40 TEMPO 2010/2020 20015G30KT", "TAF LESO 192300Z 2000/2024 19009KT CAVOK TX26/2012Z TN19/2002Z PROB30 TEMPO 2003/2024 19015G25KT", "TAF LEST 192300Z 2000/2024 18009KT 9999 SCT010 BKN020 TX16/2014Z TN13/2002Z PROB30 TEMPO 2000/2008 20015G25KT 3000 RA BKN010 TEMPO 2008/2024 20015G27KT 3000 RA BKN010 SCT030TCU TEMPO 2008/2020 20020G37KT PROB30 TEMPO 2010/2018 1500 TSRA SCT030CB", "TAF LETO 192300Z 2000/2024 20010KT 9999 SCT030 SCT045 TX23/2015Z TN10/2006Z TEMPO 2000/2010 VRB05KT PROB30 TEMPO 2000/2006 RA PROB40 TEMPO 2010/2024 20015G30KT PROB40 TEMPO 2012/2024 4000 RA SHRA SCT030TCU BKN040 TEMPO 2022/2024 VRB05KT", "TAF LEVC 192300Z 2000/2024 05006KT 9999 SCT015 TX26/2012Z TN19/2006Z TEMPO 2000/2006 BKN010", "TAF LEVD 192000Z 1921/2021 18010KT 9999 SCT020 SCT045 TX20/2015Z TN08/2006Z TEMPO 1921/1924 RA SHRA SCT040TCU PROB30 TEMPO 1921/1924 3000 TSRA SCT040CB PROB40 TEMPO 1921/2010 VRB05KT PROB40 TEMPO 2006/2018 RA SHRA SCT030TCU BKN035 PROB30 TEMPO 2008/2012 3000 RA TSRA SCT030CB", "TAF LEVS 192300Z 2000/2024 20010KT 9999 SCT030 SCT045 TX19/2015Z TN13/2006Z PROB30 TEMPO 2000/2006 RA TEMPO 2000/2008 VRB05KT PROB40 TEMPO 2010/2024 20015G25KT PROB40 TEMPO 2012/2024 4000 RA SHRA SCT030TCU BKN040 TEMPO 2022/2024 VRB05KT", "TAF LEVT 192300Z 2000/2024 17009KT CAVOK TX19/2015Z TN14/2004Z PROB30 TEMPO 2006/2011 RA BECMG 2010/2012 21013KT TEMPO 2010/2024 20015G25KT PROB30 TEMPO 2013/2018 20020G35KT", "TAF LEVX 192300Z 2000/2024 18009KT 9999 SCT010 BKN020 TX17/2014Z TN14/2006Z PROB40 TEMPO 2000/2008 20015G25KT 3000 RA BKN010 TEMPO 2008/2024 20015G27KT 3000 RA BKN010 SCT030TCU TEMPO 2008/2019 20020G37KT PROB30 TEMPO 2008/2013 1500 TSRA SCT030CB", "TAF LEXJ 192000Z 1921/2021 20009KT 9999 FEW080 TX26/2013Z TN18/2006Z PROB30 TEMPO 1921/1924 RA PROB30 TEMPO 1921/2010 19015G25KT TEMPO 2010/2021 20019G30KT", "TAF LEZG 192300Z 2000/2024 09010KT 9999 SCT025 TX26/2013Z TN17/2006Z BECMG 2012/2014 09007KT", "TAF AMD LEZL 192245Z 1922/2021 23006KT 9999 FEW025 TX24/2015Z TN18/2006Z PROB40 TEMPO 1922/2007 BKN012 TEMPO 2015/2021 4000 RA BKN014", "TAF LFBC 191400Z 1915/2015 18008KT CAVOK PROB40 TEMPO 1917/1920 33020G35KT TEMPO 1920/1924 4900 -SHRA BKN080TCU TEMPO 2000/2006 4000 SHRA BKN050TCU PROB40 TEMPO 1921/2004 3000 TSRA BKN050CB", "TAF LFBD 192300Z 2000/2106 VRB03KT CAVOK TX26/2014Z TN16/2005Z TEMPO 2000/2004 4000 SHRA SCT040 BKN060TCU PROB30 TEMPO 2000/2002 VRB15G25KT 4000 TSRA BKN040 BKN060CB BECMG 2002/2004 16010KT PROB30 TEMPO 2012/2014 -SHRA SCT075TCU BECMG 2020/2022 20010KT TEMPO 2103/2106 VRB03KT", "TAF LFBE 192300Z 2000/2024 VRB03KT CAVOK PROB30 TEMPO 2000/2003 -TSRA FEW070CB BECMG 2008/2010 16012KT TEMPO 2013/2014 -SHRA SCT075TCU TEMPO 2014/2016 17015G30KT", "TAF LFBG 191400Z 1915/2015 17006KT CAVOK TEMPO 1918/2015 4000 SHRA BKN070CB PROB40 TEMPO 1919/2015 VRB15G25KT 2000 TSRA BKN050CB", "TAF LFBH 192300Z 2000/2024 13010KT CAVOK TEMPO 2000/2012 4500 -SHRA BKN050TCU SCT060CB PROB40 TEMPO 2000/2006 VRB20G35KT 3000 -TSRA BKN007 BKN050CB BECMG 2010/2012 20010KT TEMPO 2012/2015 20015G25KT TEMPO 2020/2024 19020G30KT", "TAF LFBI 192300Z 2000/2024 18005KT CAVOK TEMPO 2000/2012 4500 SHRA BKN040TCU SCT050CB PROB40 TEMPO 2000/2006 3000 TSRA BKN050CB BECMG 2008/2010 16010KT", "TAF LFBL 192300Z 2000/2024 19010KT CAVOK BECMG 2009/2011 17012KT PROB30 TEMPO 2012/2016 4000 TSRA SCT070CB PROB30 TEMPO 2021/2024 -SHRA FEW055TCU", "TAF LFBM 192000Z 1921/2021 12005KT CAVOK PROB40 TEMPO 1921/2005 4000 SHRA BKN070CB PROB30 TEMPO 1921/1924 23010G30KT TSRA", "TAF LFBO 192300Z 2000/2106 15014KT CAVOK TEMPO 2000/2004 12017G27KT TEMPO 2000/2002 FEW060CB TEMPO 2004/2006 BKN012 TEMPO 2009/2014 15015G25KT TEMPO 2016/2023 32005KT SCT080TCU BECMG 2100/2102 17006KT", "TAF LFBP 192300Z 2000/2024 15008KT 9999 BKN100 PROB40 TEMPO 2000/2002 VRB15G30KT -SHRA SCT060CB PROB30 TEMPO 2000/2001 VRB25G40KT 4000 -TSRA BECMG 2004/2006 CAVOK BECMG 2010/2012 22014KT BECMG 2013/2015 BKN085 TEMPO 2017/2024 20015G37KT", "TAF LFBT 192300Z 2000/2024 13010KT CAVOK TEMPO 2000/2003 BKN080TCU BECMG 2002/2004 VRB03KT BECMG 2007/2009 20010KT TEMPO 2015/2023 SCT090TCU TEMPO 2019/2021 4000 SHRA BKN090TCU PROB40 2017/2024 22015G25KT", "TAF LFBU 191700Z 1918/2018 15010KT CAVOK PROB40 TEMPO 1920/2005 4000 SHRA BKN040 BKN070TCU PROB30 TEMPO 1920/2005 VRB15G25KT 4000 TSRA BKN070CB PROB30 TEMPO 2010/2013 VRB15G25KT 4000 TSRA BKN030 BKN060CB", "TAF LFBZ 192300Z 2000/2024 12005KT CAVOK BECMG 2002/2004 18010KT BECMG 2010/2012 18015G30KT BECMG 2018/2020 19020G40KT", "TAF LFCK 191700Z 1918/2003 12020G32KT CAVOK TEMPO 1922/2002 10010KT BKN030 SCT090CB", "TAF LFCR 192300Z 2000/2024 12010KT CAVOK TEMPO 2000/2004 30015KT BKN012 FEW100TCU PROB30 TEMPO 2000/2004 4000 -TSRA SCT080CB BECMG 2002/2004 12017G27KT TEMPO 2007/2011 BKN014 PROB40 TEMPO 2011/2014 12022G34KT TEMPO 2019/2024 BKN070TCU TEMPO 2022/2024 4000 SHRA SCT060CB", "TAF LFJL 192300Z 2000/2024 09014KT CAVOK PROB30 TEMPO 2000/2006 BKN005 BECMG 2006/2008 17010KT PROB40 TEMPO 2008/2012 -SHRA FEW045CB PROB30 TEMPO 2012/2018 BKN014 PROB40 TEMPO 2018/2021 -SHRA FEW045CB PROB30 TEMPO 2018/2021 20015G35KT 2000 -TSRA FEW045CB", "TAF LFKB 192000Z 1921/2021 24004KT CAVOK TX24/2012Z TN15/2004Z BECMG 2008/2009 12010KT", "TAF LFKC 191400Z 1915/2015 35008KT CAVOK TX24/2012Z TN14/2004Z BECMG 1919/1920 18005KT BECMG 2008/2010 35006KT TEMPO 2012/2015 SCT035", "TAF LFKF 191400Z 1915/2015 22008KT CAVOK BECMG 1917/1919 05004KT PROB30 TEMPO 2000/2006 4000 BR BKN004 BECMG 2010/2012 14008KT", "TAF LFKJ 192000Z 1921/2021 04005KT CAVOK PROB40 TEMPO 1921/2006 BKN010 BECMG 2009/2011 23008KT BECMG 2015/2018 VRB03KT", "TAF LFKS 191400Z 1915/2015 14005KT 9999 FEW040 BECMG 1916/1918 27005KT TEMPO 1919/2002 BKN012", "TAF LFLB 191400Z 1915/2015 VRB03KT CAVOK PROB30 TEMPO 2003/2007 3000 BR BECMG 2010/2012 18012KT PROB30 TEMPO 2013/2015 FEW100TCU BKN150", "TAF LFLC 192300Z 2000/2024 19010KT 9999 FEW040 BKN110 TEMPO 2000/2005 19015G30KT SHRA FEW070CB TEMPO 2009/2024 18020G30KT PROB30 TEMPO 2013/2017 TSRA SCT070CB PROB40 TEMPO 2022/2024 4000 SHRA FEW070CB", "TAF LFLL 192300Z 2000/2106 16012KT CAVOK TEMPO 2001/2014 18015G25KT PROB40 TEMPO 2004/2010 -SHRA SCT090TCU PROB30 TEMPO 2005/2007 4000 TSRA BKN014 SCT070CB TEMPO 2014/2106 18025G35KT PROB40 TEMPO 2021/2106 SHRA BKN080TCU", "TAF LFLN 191700Z 1918/2003 07005KT CAVOK", "TAF LFLP 191400Z 1915/2015 VRB02KT CAVOK BECMG 2011/2013 23007KT PROB30 TEMPO 2013/2015 FEW100TCU BKN120", "TAF LFLS 191400Z 1915/2015 22007KT CAVOK TEMPO 1922/2005 BKN009 TEMPO 2006/2012 27010KT BECMG 2013/2015 19015G30KT", "TAF LFLX 192300Z 2000/2106 12005KT CAVOK TEMPO 2000/2006 4000 -SHRA SCT060TCU PROB40 TEMPO 2000/2003 2500 TSRA BKN040CB PROB30 TEMPO 2000/2003 -TSGR TEMPO 2012/2015 18015G25KT SHRA SCT050TCU BECMG 2015/2017 18010KT", "TAF LFLY 192300Z 2000/2024 16012KT CAVOK TEMPO 2001/2014 18015G25KT PROB40 TEMPO 2004/2010 -SHRA SCT090TCU PROB30 TEMPO 2005/2007 4000 TSRA BKN014 SCT070CB TEMPO 2014/2024 18025G35KT PROB40 TEMPO 2021/2024 SHRA BKN080TCU", "TAF LFMD 191400Z 1915/2015 16006KT CAVOK PROB30 TEMPO 2000/2015 BKN009", "TAF LFMI 192000Z 1921/2021 09006KT 9999 BKN033 TX25/2013Z TN16/1922Z PROB40 TEMPO 2000/2006 BKN010 BECMG 2008/2010 15010KT CAVOK TEMPO 2010/2018 15020G30KT BKN020", "TAF AMD LFMK 191659Z 1916/2015 08016G26KT 9999 BKN013 BECMG 1916/1918 BKN007 TEMPO 2002/2007 OVC004 BECMG 2009/2011 SCT010 SCT110", "TAF LFML 192000Z 1921/2103 09006KT CAVOK TX25/2013Z TN18/2005Z PROB40 TEMPO 2000/2006 BKN010 BECMG 2006/2008 15010KT CAVOK TEMPO 2010/2103 15015G25KT BKN020 PROB30 TEMPO 2012/2015 14020G35KT", "TAF AMD LFMN 192356Z 1923/2103 VRB05KT CAVOK TEMPO 1923/2005 34010KT TEMPO 2000/2007 BKN010 TEMPO 2011/2014 16007KT BECMG 2019/2021 36010KT", "TAF LFMO 192000Z 1921/2021 VRB02KT CAVOK TX24/2012Z TN14/2001Z PROB30 TEMPO 2002/2005 4000 -RA BKN014 BECMG 2006/2008 18010KT BECMG 2009/2011 18015G25KT PROB40 TEMPO 2012/2016 4000 -RA BECMG 2016/2017 18012KT TEMPO 2018/2021 4000 SHRA SCT035TCU BKN040", "TAF AMD LFMP 191945Z 1919/2015 05007KT 9999 BKN012 TEMPO 1919/2006 BKN005 PROB40 TEMPO 1922/2006 0500 FG VV/// BECMG 2006/2008 17020G30KT FEW030 TEMPO 2010/2015 17025G35KT", "TAF LFMT 192000Z 1921/2021 14010KT 9999 OVC008 TEMPO 2000/2006 1500 -DZRA OVC006 TEMPO 2006/2021 3000 -RA BR BECMG 2007/2009 13015G25KT", "TAF AMD LFMU 191721Z 1917/2015 09008KT 9999 OVC005 TEMPO 2000/2006 1500 DZRA OVC004 BECMG 2001/2003 14010KT TEMPO 2008/2013 14015G25KT TEMPO 2014/2015 16020G35KT", "TAF LFMV 191400Z 1915/2015 VRB03KT 9999 BKN040 PROB30 TEMPO 1920/2005 BKN010 BECMG 2006/2008 13010KT BKN020 BECMG 2010/2012 17015G25KT TEMPO 2012/2015 16020G35KT", "TAF LFMY 191400Z 1915/2015 VRB02KT CAVOK TX25/2013Z TN15/2004Z BECMG 2007/2009 11010KT BECMG 2012/2014 18012KT", "TAF LFOA 191400Z 1915/2015 11012KT CAVOK TX24/1915Z TN15/2005Z TEMPO 1922/2011 24015G30KT 4000 SHRA BKN060CB PROB40 TEMPO 1923/2003 VRB20G40KT 2000 TSRAGS SCT009 BKN050CB", "TAF LFOB 192300Z 2000/2024 09013KT CAVOK BECMG 2000/2002 18012KT TEMPO 2004/2007 4000 SHRA BKN060CB PROB30 TEMPO 2004/2007 18015G25KT 2000 TSRA PROB40 2007/2011 BKN007 TEMPO 2020/2024 3000 RA OVC011", "TAF LFOE 192000Z 1921/2021 11008KT CAVOK TEMPO 2002/2006 4000 SHRA BKN030 SCT060CB PROB30 TEMPO 2002/2006 18015G25KT 4000 TSRA SCT012 BKN060CB TEMPO 2006/2010 BKN008 TEMPO 2011/2021 SCT025CB TEMPO 2019/2021 4000 SHRA", "TAF LFOH 191100Z 1912/2012 11017G27KT CAVOK BECMG 1918/1920 11010KT BECMG 2001/2003 18012KT TEMPO 2004/2007 4000 SHRA BKN060CB PROB30 TEMPO 2004/2007 18015G25KT 2000 TSRA", "TAF LFOJ 192000Z 1921/2021 08005KT CAVOK TX22/2014Z TN14/2003Z TEMPO 1922/2007 4000 -SHRA BKN045CB TEMPO 2000/2006 24020G35KT 2000 -TSRA BKN008 BKN040CB PROB40 TEMPO 2012/2016 SCT030TCU PROB30 TEMPO 2016/2021 4500 SHRA SCT040CB", "TAF LFOK 192300Z 2000/2024 10010KT CAVOK BECMG 2000/2003 VRB02KT TEMPO 2005/2008 4000 SHRA BKN060CB PROB30 TEMPO 2005/2008 18015G25KT 2000 TSRA BECMG 2008/2010 18013KT TEMPO 2016/2024 3000 RA OVC030 SCT035CB PROB30 2016/2024 1200 TSRA BKN030CB", "TAF LFOP 191700Z 1918/2018 11013KT CAVOK BECMG 2000/2003 18010KT TEMPO 2004/2007 4000 SHRA BKN060CB PROB30 TEMPO 2004/2007 18015G25KT 2000 TSRA PROB40 2007/2011 BKN005", "TAF LFOT 192300Z 2000/2024 VRB03KT CAVOK TEMPO 2000/2005 4000 -SHRA SCT060TCU PROB40 TEMPO 2000/2005 VRB15G25KT 2500 -TSRA SCT060CB PROB40 TEMPO 2005/2011 BKN007 BECMG 2011/2013 18010KT PROB40 TEMPO 2013/2015 -SHRA SCT050TCU", "TAF LFPB 192300Z 2000/2024 13008KT CAVOK TEMPO 2002/2010 SCT035TCU PROB40 TEMPO 2003/2009 2500 TSRA BKN012 BKN030CB PROB40 TEMPO 2013/2016 4000 -SHRA SCT030TCU PROB40 TEMPO 2021/2024 4000 -SHRA SCT030TCU", "TAF LFPG 192300Z 2000/2106 13008KT CAVOK TX21/2013Z TN15/2006Z TEMPO 2002/2010 SCT035TCU PROB40 TEMPO 2003/2009 2500 TSRA BKN012 BKN030CB PROB40 TEMPO 2013/2016 4000 -SHRA SCT030TCU PROB40 TEMPO 2021/2104 4000 -SHRA SCT030TCU", "TAF LFPN 191700Z 1918/2003 11010KT CAVOK PROB30 TEMPO 1920/2001 BKN007 TEMPO 2001/2003 22010G20KT RA SCT040TCU PROB30 TEMPO 2001/2003 23015G30KT 3000 TSRA SCT040CB", "TAF LFPO 192300Z 2000/2106 VRB02KT CAVOK TEMPO 2002/2008 4000 -SHRA BKN060TCU PROB40 TEMPO 2002/2008 19012G25KT 2500 TSRA BKN008 SCT050CB BECMG 2008/2010 18012KT BKN020 PROB30 TEMPO 2016/2018 -SHRA SCT020TCU PROB40 TEMPO 2100/2106 -SHRA SCT060CB PROB30 TEMPO 2100/2106 -TSRA", "TAF LFPV 192000Z 1921/2021 12006KT CAVOK TX21/2013Z TN14/2006Z TEMPO 2003/2009 4500 -SHRA BKN008 BKN030CB PROB30 TEMPO 2003/2008 3000 TSRA BECMG 2008/2010 OVC006 BECMG 2014/2015 BKN020", "TAF LFQQ 192300Z 2000/2106 07010KT CAVOK BECMG 2005/2007 18010KT TEMPO 2007/2010 4000 SHRA BKN060CB PROB30 TEMPO 2007/2010 18015G25KT 2000 TSRA PROB30 TEMPO 2012/2016 4000 SHRA BKN020TCU TEMPO 2018/2103 3000 BR TEMPO 2103/2106 3000 RA OVC011", "TAF LFRB 192300Z 2000/2106 15008KT 9999 SCT025 PROB30 TEMPO 2001/2007 SHRA BKN009 SCT030TCU PROB30 TEMPO 2007/2011 BKN007 TEMPO 2013/2020 15015G25KT PROB40 TEMPO 2018/2021 4000 SHRA SCT050CB BECMG 2020/2022 18020G35KT TEMPO 2021/2106 4000 SHRA BKN012 BKN030CB PROB30 TEMPO 2021/2106 2000 TSRA BKN008 BKN020CB PROB40 TEMPO 2104/2106 19025G45KT ", "TAF LFRD 192300Z 2000/2024 VRB05KT CAVOK PROB40 TEMPO 2002/2007 4000 SHRA SCT030TCU PROB30 TEMPO 2002/2006 VRB20G30KT 2000 TSRA SCT008 BKN030CB BECMG 2008/2010 17010KT PROB30 TEMPO 2015/2018 4000 SHRA BKN015TCU TEMPO 2022/2024 SCT040CB", "TAF LFRH 192300Z 2000/2024 VRB03KT CAVOK TEMPO 2001/2005 3500 SHRA SCT030 BKN030CB PROB30 TEMPO 2002/2005 2000 TSRA BKN030 BKN030CB BECMG 2007/2010 16010KT TEMPO 2009/2012 BKN006 BECMG 2012/2014 SCT010 BECMG 2021/2023 19015G30KT PROB30 TEMPO 2022/2024 2000 TSRA BKN040CB", "TAF LFRI 191700Z 1918/2018 20008KT CAVOK TEMPO 1918/2012 4500 -SHRA BKN040TCU SCT050CB PROB40 TEMPO 1918/2007 VRB20G35KT 3000 -TSRA BKN007 BKN040CB", "TAF LFRJ 191700Z 1918/2003 19008KT 9999 BKN020 TEMPO 1918/1922 BKN014", "TAF LFRL 191100Z 1912/2012 12015G25KT 9999 BKN016 TEMPO 1912/1918 4000 -SHRA BKN013 BKN060CB BECMG 1920/1922 18008KT CAVOK TEMPO 2003/2006 3000 -SHRA BKN005 BKN015CB BECMG 2007/2009 BKN012", "TAF LFRM 191700Z 1918/2018 13006KT CAVOK TEMPO 1922/2018 4500 SHRA BKN050TCU PROB40 TEMPO 1922/2007 VRB20G35KT 3000 TSRA BKN010 BKN050CB", "TAF LFRN 192300Z 2000/2024 VRB03KT CAVOK TEMPO 2002/2007 4000 SHRA BKN030TCU PROB40 TEMPO 2002/2007 VRB20G30KT 2000 TSRA BKN008 BKN030CB BECMG 2009/2011 18010KT TEMPO 2022/2024 SHRA SCT040CB", "TAF LFRQ 191700Z 1918/2018 20008KT CAVOK BECMG 1920/1922 VRB05KT PROB30 TEMPO 2000/2006 4000 SHRA BKN008 SCT060CB BECMG 2003/2005 15010KT PROB30 TEMPO 2006/2010 BKN012 PROB40 TEMPO 2013/2018 15015G25KT BKN012", "TAF LFRS 192300Z 2000/2106 VRB05KT CAVOK TEMPO 2000/2012 4500 -SHRA BKN030TCU PROB40 TEMPO 2000/2007 VRB20G35KT 2000 TSRA BKN007 BKN040CB BECMG 2010/2012 18010KT", "TAF LFRZ 192300Z 2000/2024 VRB05KT CAVOK TEMPO 2000/2012 4500 -SHRA BKN040TCU PROB40 TEMPO 2000/2007 VRB20G35KT 2000 TSRA BKN007 BKN040CB BECMG 2010/2012 16012KT", "TAF LFSB 192300Z 2000/2024 10010KT CAVOK PROB40 TEMPO 2014/2022 -SHRA FEW060CB", "TAF LFSI 192000Z 1921/2021 09010KT CAVOK TEMPO 2010/2012 SCT030TCU TEMPO 2012/2015 19010G20KT SCT030CB", "TAF LFSO 191400Z 1915/2015 09008KT CAVOK BECMG 2006/2008 19010KT TEMPO 2014/2015 4000 -SHRA SCT025CB", "TAF LFST 192300Z 2000/2024 36005KT 8000 NSC TEMPO 2000/2009 3000 BR OVC002 PROB40 TEMPO 2000/2009 0400 FG VV/// BECMG 2009/2011 18010KT PROB40 TEMPO 2015/2024 4000 SHRA FEW025CB PROB30 TEMPO 2018/2021 VRB10G20KT 2000 -TSRA SCT025CB", "TAF LFSX 191400Z 1915/2015 13010KT CAVOK", "TAF LFTH 192000Z 1921/2021 VRB03KT 9999 SCT010 TEMPO 1921/2005 BKN008 PROB40 TEMPO 1921/2001 3000 BR BECMG 2008/2010 11010KT CAVOK TEMPO 2016/2021 BKN010", "TAF LFTW 191400Z 1915/2015 VRB03KT 9999 BKN030 BECMG 1920/1922 BKN010 BECMG 2006/2008 13010KT BECMG 2010/2012 14020G30KT", "TAF LFVP 191700Z 1918/2003 11015KT 9999 BKN020 BECMG 1918/1920 11020KT TEMPO 1922/2003 4000 BR OVC005", "TAF LFYR 191400Z 1915/2015 10010KT CAVOK TEMPO 1922/2008 24015G25KT 4000 SHRA BKN050TCU PROB40 TEMPO 1922/2002 24020G40KT 2000 TSRAGS SCT010 BKN050CB PROB30 TEMPO 2002/2006 2000 TSRA SCT010 BKN050CB TEMPO 2011/2015 4000 SHRA BKN030CB", "TAF LGAD 192300Z 2000/2009 VRB03KT 9999 FEW025", "TAF LGAL 192300Z 2000/2009 VRB03KT 9999 FEW020 BECMG 2004/2006 02010KT", "TAF LGAV 192300Z 2000/2024 VRB03KT 9999 FEW025 BECMG 2006/2008 02013KT TEMPO 2010/2016 02015G25KT", "TAF LGBL 192300Z 2000/2009 30008KT 9999 FEW025 BECMG 2007/2009 10008KT", "TAF LGEL 192300Z 2000/2024 VRB03KT 9999 FEW025 BECMG 2006/2008 35013KT", "TAF LGHI 192300Z 2000/2009 VRB03KT 9999 FEW025 BECMG 2004/2006 01010KT", "TAF LGIO 192300Z 2000/2009 VRB03KT 9999 FEW025 PROB30 2000/2006 5000 BR SCT002", "TAF LGIR 192300Z 2000/2024 33010KT 9999 FEW018 BKN025", "TAF LGKC 192300Z 2000/2009 VRB03KT 9999 FEW018", "TAF LGKF 192300Z 2000/2009 VRB03KT 9999 FEW018 PROB30 2000/2006 5000 BR SCT008", "TAF LGKL 192300Z 2000/2009 34006KT 9999 FEW025", "TAF LGKO 192300Z 2000/2024 VRB03KT 9999 FEW014 PROB30 2000/2004 5000 BR SCT010 BECMG 2004/2006 31013KT TEMPO 2012/2018 33015G25KT", "TAF LGKP 192300Z 2000/2009 34017G27KT 9999 FEW008 SCT018", "TAF LGKR 192300Z 2000/2024 VRB03KT 9999 FEW018 BECMG 2013/2015 28010KT", "TAF LGKV 192300Z 2000/2024 VRB03KT 9999 FEW030 BECMG 2020/2022 07012KT", "TAF LGLM 192300Z 2000/2009 04015KT 9999 FEW025", "TAF LGLR 192300Z 2000/2009 VRB03KT 9999 FEW025", "TAF LGMK 192300Z 2000/2009 36010KT 9999 FEW018 BECMG 2004/2006 36020KT", "TAF LGMT 192300Z 2000/2009 VRB03KT 9999 FEW025 BECMG 2004/2006 35010KT", "TAF LGPZ 192300Z 2000/2024 06010KT 9999 FEW020 BECMG 2010/2012 28010KT", "TAF LGRP 192300Z 2000/2024 25014KT 9999 FEW008", "TAF LGRX 192300Z 2000/2009 VRB03KT 9999 FEW025", "TAF LGSA 192300Z 2000/2024 VRB03KT 9999 FEW018 SCT030 BECMG 2007/2009 01010KT", "TAF LGSK 192300Z 2000/2009 35010KT 9999 FEW018 TEMPO 2006/2009 35010G20KT", "TAF LGSM 192300Z 2000/2009 VRB03KT 9999 FEW025 BECMG 2004/2006 01010KT", "TAF LGSR 192300Z 2000/2024 31006KT 9999 SCT025 BECMG 2004/2006 34016KT", "TAF LGST 192300Z 2000/2009 31014KT 9999 BKN025", "TAF LGSY 192300Z 2000/2009 34015KT 9999 FEW025", "TAF LGTG 192300Z 2000/2009 35006KT 9999 FEW025", "TAF LGTL 192300Z 2000/2009 36012KT 9999 FEW008 BKN020", "TAF LGTS 192300Z 2000/2024 34015KT 9999 FEW030 TEMPO 2000/2009 34015G27KT", "TAF LGZA 192300Z 2000/2009 VRB03KT 9999 FEW018 PROB30 2000/2006 5000 BR SCT008", "TAF LHBP 192315Z 2000/2024 36006KT CAVOK BECMG 2000/2003 VRB02KT SCT033 BECMG 2006/2009 16008KT BECMG 2013/2016 10005KT CAVOK", "TAF LHDC 192315Z 2000/2009 02009KT CAVOK", "TAF LHKE 192015Z 1921/2006 32006KT CAVOK BECMG 1922/2001 VRB03KT PROB30 TEMPO 2003/2006 5000 BR MIFG NSC", "TAF LHPA 192315Z 2000/2024 VRB03KT CAVOK TEMPO 2001/2007 3000 BR MIFG BCFG NSC BECMG 2008/2011 17007KT BECMG 2021/2024 16010KT", "TAF LHPR 191715Z 1918/2003 32008KT CAVOK", "TAF LHSN 192015Z 1921/2006 05006KT CAVOK TEMPO 1921/2001 35004KT 9999 SCT040 BECMG 2004/2006 9999 SCT033", "TAF LIBA 192300Z 2000/2009 29007KT 4000 BR SCT010 TEMPO 2001/2005 27005KT 2000 MIFG BKN005 BECMG 2006/2008 5000 BR SCT020", "TAF LIBC 191100Z 1912/2012 02013KT CAVOK BECMG 1916/1918 VRB06KT BECMG 2006/2008 36015KT", "TAF LIBD 192300Z 2000/2024 27007KT 8000 NSC BECMG 2008/2010 33010KT BECMG 2015/2017 22005KT", "TAF LIBF 191700Z 1918/2018 31014KT CAVOK", "TAF LIBP 192300Z 2000/2024 VRB05KT 3500 BR NSC BECMG 2005/2007 8000 TEMPO 2019/2024 4000 BR", "TAF LIBR 192300Z 2000/2024 33011KT 6000 SCT010", "TAF LIBV 192300Z 2000/2009 33007KT 5000 BR SCT010 TEMPO 2000/2002 3000 BR BKN008 TEMPO 2002/2006 0500 FG BKN003", "TAF LICA 192300Z 2000/2024 VRB05KT 9999 FEW030 BECMG 2010/2012 26010KT BECMG 2015/2017 VRB04KT", "TAF LICB 192300Z 2000/2024 VRB04KT 9999 FEW040 BECMG 2011/2013 24010KT BECMG 2015/2017 VRB04KT", "TAF LICC 192300Z 2000/2024 VRB05KT 9999 FEW040 BECMG 2010/2012 10010KT BECMG 2015/2017 VRB04KT", "TAF LICD 192300Z 2000/2024 01007KT 9999 FEW025", "TAF LICJ 192300Z 2000/2024 VRB05KT CAVOK BECMG 2010/2012 05012KT BECMG 2016/2018 VRB05KT", "TAF LICR 192300Z 2000/2024 01012KT 9999 SCT030 BECMG 2015/2017 VRB05KT", "TAF LICT 192300Z 2000/2009 04005KT 9999 SCT012 TEMPO 2000/2006 5000 BR SCT005", "TAF LICZ 192300Z 2000/2024 27005KT 8000 NSC TEMPO 2000/2006 5000 BR SCT008 BECMG 2009/2011 10010KT BECMG 2016/2017 VRB03KT", "TAF LIEA 192300Z 2000/2024 VRB05KT CAVOK TEMPO 2000/2007 2000 BCFG BECMG 2010/2012 22010KT BECMG 2017/2019 VRB05KT", "TAF LIED 192300Z 2000/2009 VRB03KT 3000 BR SCT005 TEMPO 2002/2006 0500 FG BKN001 BECMG 2007/2009 15008KT CAVOK", "TAF LIEE 192300Z 2000/2024 VRB04KT 7000 FEW040 BECMG 2000/2001 3000 BR TEMPO 2003/2006 0500 FG BKN005 BECMG 2008/2010 9999 BECMG 2009/2011 16012KT BECMG 2016/2018 VRB05KT", "TAF LIEO 192300Z 2000/2024 VRB04KT CAVOK TEMPO 2000/2007 1800 BCFG BECMG 2010/2012 09010KT BECMG 2015/2017 VRB04KT", "TAF LIMC 192300Z 2000/2106 VRB05KT 6000 NSC TEMPO 2000/2006 1500 BCFG BKN004 BECMG 2007/2009 8000 TEMPO 2100/2106 3000 BR", "TAF LIME 192300Z 2000/2024 VRB06KT CAVOK", "TAF LIMF 192300Z 2000/2024 VRB04KT 8000 NSC TEMPO 2000/2006 4000 BR", "TAF LIMG 191100Z 1912/2012 12010KT 9999 FEW020 BECMG 1916/1918 VRB05KT TEMPO 2000/2006 2000 BR", "TAF LIMJ 192300Z 2000/2024 VRB05KT CAVOK", "TAF LIML 192300Z 2000/2024 VRB05KT 6000 NSC TEMPO 2000/2006 1500 BCFG BKN004 BECMG 2006/2008 8000", "TAF LIMN 191700Z 1918/2003 VRB03KT CAVOK BECMG 1919/1921 3000 BR", "TAF LIMP 191700Z 1918/2018 VRB05KT 7000 NSC TEMPO 1918/1922 2000 BR TEMPO 1922/2008 0800 FG BKN004", "TAF LIMZ 192300Z 2000/2024 VRB04KT 8000 NSC TEMPO 2000/2006 1200 BCFG BKN005", "TAF LIPA 191700Z 1918/2003 VRB03KT CAVOK", "TAF LIPB 191700Z 1918/2018 VRB02KT CAVOK", "TAF LIPC 192300Z 2000/2009 16005KT 3000 BR NSC PROB40 TEMPO 2000/2006 0800 FG SCT003", "TAF LIPE 192300Z 2000/2024 VRB05KT CAVOK TEMPO 2000/2006 2500 BR BECMG 2021/2023 3000 BR", "TAF LIPH 192300Z 2000/2024 VRB03KT CAVOK", "TAF LIPK 191700Z 1918/2018 VRB05KT 7000 NSC BECMG 1919/1921 2000 BCFG BECMG 2006/2008 8000", "TAF LIPL 192300Z 2000/2009 04005KT 4000 BR NSC PROB40 TEMPO 2000/2006 2000 BR", "TAF LIPO 192300Z 2000/2024 VRB05KT 8000 NSC TEMPO 2000/2007 3000 BR", "TAF LIPQ 192300Z 2000/2024 VRB04KT CAVOK", "TAF LIPR 192300Z 2000/2024 VRB05KT 2000 BR NSC BECMG 2010/2012 08010KT 8000 BECMG 2016/2018 VRB05KT 3000 BR", "TAF LIPS 192300Z 2000/2009 VRB03KT CAVOK PROB40 TEMPO 2000/2006 3000 BR", "TAF LIPX 192300Z 2000/2024 VRB05KT 8000 NSC TEMPO 2000/2006 2000 BR", "TAF LIPY 192300Z 2000/2024 20005KT 2000 BR NSC BECMG 2010/2012 08010KT 8000 BECMG 2016/2018 19005KT", "TAF LIPZ 192300Z 2000/2106 VRB05KT 7000 NSC TEMPO 2000/2005 3000 BR BECMG 2019/2021 3000 BR", "TAF LIRA 192300Z 2000/2024 VRB05KT CAVOK TEMPO 2000/2006 4000 BR", "TAF LIRE 192300Z 2000/2009 05005KT CAVOK PROB30 TEMPO 2002/2006 5000 BR SCT020", "TAF LIRF 192300Z 2000/2106 05006KT CAVOK TEMPO 2000/2003 4000 BR BECMG 2011/2013 22010KT BECMG 2015/2017 VRB04KT BECMG 2021/2023 2000 BR BECMG 2100/2102 0500 FG", "TAF LIRM 192300Z 2000/2009 05005KT CAVOK PROB30 TEMPO 2000/2006 5000 BR SCT020", "TAF LIRN 192300Z 2000/2024 06006KT CAVOK", "TAF LIRP 192300Z 2000/2024 VRB03KT CAVOK TEMPO 2000/2006 0400 BCFG SCT001 BECMG 2006/2008 8000 NSW", "TAF LIRQ 192300Z 2000/2024 VRB05KT CAVOK TEMPO 2000/2004 4000 BR", "TAF LIRS 192300Z 2000/2009 02005KT CAVOK", "TAF LIRZ 192300Z 2000/2024 VRB05KT CAVOK", "TAF LJCE 192300Z 2000/2009 VRB02KT 9999 BKN040 PROB30 TEMPO 2000/2006 3500 BR", "TAF LJLJ 192300Z 2000/2100 VRB02KT 9999 BKN035 TEMPO 2012/2016 12010KT", "TAF LJMB 192300Z 2000/2100 VRB02KT 9999 BKN035 TEMPO 2012/2018 18012KT", "TAF LJPZ 192300Z 2000/2009 12005KT CAVOK", "TAF LKCV 192300Z 2000/2100 14003KT CAVOK TEMPO 2000/2007 4000 MIFG BR PROB40 2000/2007 VRB02KT 0500 FG VV002 BECMG 2009/2012 13008KT", "TAF LKKB 192300Z 2000/2100 VRB02KT CAVOK TEMPO 2000/2007 4000 MIFG BR SCT020 PROB40 TEMPO 2001/2007 0500 FG VV001 BECMG 2007/2009 10006KT TEMPO 2011/2018 12014KT", "TAF LKKV 192300Z 2000/2106 12007KT CAVOK TEMPO 2002/2007 4000 BR FEW002 PROB30 TEMPO 2003/2007 1500 MIFG SCT002 BECMG 2101/2103 9999 SCT030", "TAF LKMT 192300Z 2000/2106 03004KT 9999 BKN040 BECMG 2002/2004 3000 BR SCT003 TEMPO 2004/2007 1500 MIFG BKN003 PROB30 TEMPO 2004/2006 0500 FG BKN002 BECMG 2008/2010 CAVOK BECMG 2016/2018 20008KT", "TAF LKNA 192300Z 2000/2100 32010KT CAVOK PROB40 2001/2008 2500 BR NSC PROB30 2003/2007 0500 FG VV001 BECMG 2005/2007 12008KT TEMPO 2012/2100 14016KT", "TAF LKPD 192300Z 2000/2100 10005KT CAVOK TEMPO 2000/2008 3000 MIFG BR BKN006 PROB30 2000/2007 0400 FG VV001 BECMG 2011/2013 12008KT", "TAF LKPR 192300Z 2000/2106 VRB02KT CAVOK BECMG 2000/2002 14006KT 5000 BR FEW002 BECMG 2002/2004 3000 BR SCT001 TEMPO 2004/2007 1500 MIFG OVC001 PROB30 TEMPO 2004/2007 0800 FG BECMG 2007/2009 CAVOK", "TAF LKTB 192300Z 2000/2106 03004KT CAVOK PROB30 TEMPO 2002/2007 5000 BR NSC BECMG 2004/2006 07008KT BECMG 2009/2011 15008KT", "TAF LLBG 192305Z 2000/2024 14005KT 9999 SCT030 TEMPO 2000/2005 VRB03KT BKN025 BECMG 2007/2009 30010KT SCT035 BECMG 2015/2017 VRB03KT FEW030 TX27/2011Z TN20/2003Z", "TAF LLER 192306Z 2000/2024 36010KT CAVOK BECMG 2005/2007 02015KT BECMG 2013/2015 9999 SCT090 PROB30 2015/2018 VRB15KT 5000 TSRA DU FEW060CB BKN080 PROB40 TEMPO 2018/2024 VRB15KT 5000 TSRA DU FEW060CB BKN080 TX32/2013Z TN21/2003Z", "TAF LLHA 192304Z 2000/2024 VRB03KT 9999 SCT030 PROB40 TEMPO 2000/2007 14005KT -RA BKN025 BECMG 2007/2009 27010KT BECMG 2015/2017 VRB03KT TX27/2011Z TN19/2003Z", "TAF LLHZ 192304Z 2000/2024 VRB03KT 9999 SCT030 PROB40 TEMPO 2000/2007 14005KT -RA BKN025 BECMG 2007/2009 28010KT FEW035 BECMG 2015/2017 VRB03KT SCT030 TX26/2011Z TN19/2003Z", "TAF LLIB 191112Z 1912/2012 18006KT CAVOK BECMG 1913/1915 33010KT BECMG 1917/1919 VRB03KT BECMG 1922/1924 9999 SCT020 BECMG 2007/2009 18006KT SCT035 TX30/1912Z TN15/2004Z", "TAF LMML 192300Z 2000/2024 VRB05KT 9999 FEW025", "TAF LOWG 192315Z 2000/2024 VRB05KT 9999 BKN030 TX14/2013Z TN08/2024Z TEMPO 2008/2017 15008KT PROB40 TEMPO 2020/2024 2000 BCFG", "TAF LOWI 192315Z 2000/2024 27003KT 9999 BKN020 TX20/2014Z TN06/2005Z TEMPO 2000/2008 BKN007 BECMG 2008/2010 10010KT FEW050 TEMPO 2012/2016 13015G25KT BECMG 2016/2018 VRB02KT", "TAF LOWK 192315Z 2000/2024 09005KT 9999 SCT040 TX16/2014Z TN09/2024Z TEMPO 2000/2010 1200 BCFG BKN014 PROB30 TEMPO 2002/2008 0400 FG VV002", "TAF LOWL 192315Z 2000/2024 08008KT CAVOK TX14/2013Z TN08/2003Z TEMPO 2009/2016 09010G20KT", "TAF LOWS 192315Z 2000/2024 15005KT 9999 SCT020 TX16/2014Z TN07/2005Z PROB40 TEMPO 2000/2008 0800 BCFG BKN004 BECMG 2008/2010 34005KT TEMPO 2018/2024 VRB02KT 0800 BCFG BKN004", "TAF LOWW 192315Z 2000/2106 35010KT 9999 FEW040 TX14/2014Z TN04/2005Z BECMG 2008/2010 14015KT BECMG 2100/2103 14015G25KT", "TAF LPAZ 192300Z 2000/2106 28020KT 9999 SCT015 BKN030 TEMPO 2000/2008 6000 -RA BKN012 PROB40 TEMPO 2000/2003 28023G35KT BECMG 2008/2010 32015KT SCT020 PROB40 TEMPO 2010/2024 32017G27KT 8000 SHRA BKN015 FEW018TCU", "TAF LPBJ 192300Z 2000/2024 22012KT 9999 SCT015 SCT030 BECMG 2003/2006 7000 -RA SCT012 BKN025 TEMPO 2004/2016 3000 RA BR SCT008 BKN014 FEW022CB PROB40 TEMPO 2004/2015 2000 +TSRA SCT004 BKN006 SCT020CB BECMG 2016/2018 18005KT 9999 NSW SCT025", "TAF LPFR 192300Z 2000/2024 20008KT 9999 SCT008 BKN018 TEMPO 2000/2008 5000 RADZ BR SCT004 BKN008 FEW018TCU BECMG 2009/2011 22015KT 8000 SCT012 TEMPO 2011/2018 3000 RADZ BR SCT004 BKN008 BECMG 2019/2021 27008KT 9999 SCT020 TEMPO 2021/2024 5000 RA BKN015 FEW018TCU", "TAF LPLA 192301Z 2000/2024 29018KT 9999 SCT025 PROB40 TEMPO 2000/2002 4000 SHRA SCT007 BKN014 FEW022CB BECMG 2001/2003 29012KT TEMPO 2005/2016 7000 -SHRA SCT010 BKN022", "TAF LPMA 192300Z 2000/2024 23010KT 9999 SCT012 BKN030 BECMG 2002/2005 SCT008 BKN013 TEMPO 2005/2024 5000 RADZ BR SCT004 BKN008 BECMG 2009/2011 VRB05KT BECMG 2019/2022 22010KT", "TAF LPMR 191700Z 1918/2018 18012KT 9999 SCT015 SCT025 TEMPO 1918/2018 19015G25KT 4000 SHRA SCT008 BKN014 FEW022CB PROB30 TEMPO 2012/2016 2000 TSRA SCT004 BKN008 SCT020CB", "TAF LPMT 191703Z 1918/2018 23010KT 9999 FEW012 SCT025 TEMPO 1918/2014 4000 SHRA SCT010 BKN014 FEW022CB PROB40 TEMPO 2007/2012 23015G25KT 2000 +TSRA SCT004 BKN008 SCT020CB", "TAF LPOV 191700Z 1918/2018 17012KT 9999 SCT015 BKN025 TEMPO 1918/2018 19018G28KT 4000 SHRA SCT010 BKN014 FEW022CB PROB40 TEMPO 1918/1921 2000 +TSRA SCT004 BKN008 SCT020CB PROB40 TEMPO 2008/2018 2000 +TSRA SCT004 BKN008 SCT020CB PROB40 TEMPO 2009/2018 20022G35KT", "TAF LPPD 192300Z 2000/2024 29013KT 9999 SCT015 BKN030 TEMPO 2000/2003 6000 -RA BKN012 PROB40 TEMPO 2000/2003 29018G30KT BECMG 2003/2006 32013KT SCT020 PROB40 TEMPO 2006/2024 32017G27KT 8000 SHRA BKN015 FEW018TCU", "TAF LPPR 192300Z 2000/2024 19012KT 9999 SCT015 BKN030 TEMPO 2000/2008 19015G25KT 5000 SHRA BKN008 FEW018CB BECMG 2008/2010 19020KT 6000 -RA SCT006 BKN012 TEMPO 2010/2016 19025G38KT 3000 RA BR SCT002 BKN004 FEW018TCU BECMG 2016/2018 19013KT 9999 NSW SCT020 TEMPO 2018/2024 5000 SHRA BKN012 FEW018TCU", "TAF LPPS 192300Z 2000/2106 VRB05KT 9999 FEW015 BECMG 2000/2003 24013KT 9999 SCT012 BKN030 BECMG 2003/2006 SCT006 BKN012 TEMPO 2006/2024 3000 RADZ BR SCT004 BKN008 BECMG 2010/2012 29010KT BECMG 2020/2022 VRB05KT", "TAF LPPT 192300Z 2000/2106 19010KT 9999 SCT008 BKN018 TEMPO 2000/2018 5000 RA SCT003 BKN005 FEW018TCU BECMG 2100/2102 23007KT SCT015 TEMPO 2102/2106 8000 SHRA BKN012", "TAF LQBK 192300Z 2000/2024 06004KT CAVOK TX18/2013Z TN05/2004Z PROB30 2002/2008 3000 BR", "TAF LQMO 192300Z 2000/2024 33007KT CAVOK TX24/2013Z TN08/2004Z TEMPO 2000/2012 03012KT PROB30 TEMPO 2000/2006 02015G25KT", "TAF LQSA 192300Z 2000/2024 VRB02KT 9999 SCT035 TX18/2014Z TN04/2003Z PROB30 TEMPO 2006/2010 3000 BR BKN010", "TAF LQTZ 192300Z 2000/2024 VRB02KT CAVOK TX17/2013Z TN03/2004Z PROB40 2000/2008 2000 BR PROB30 TEMPO 2002/2007 0200 FG VV002", "TAF LRAR 192300Z 2000/2009 02010KT CAVOK", "TAF LRBC 192300Z 2000/2009 34014KT 9999 BKN050", "TAF LRBO 192300Z 2000/2100 03016KT 9999 SCT040 BKN090 BECMG 2010/2012 02008KT SCT080", "TAF LRBS 192300Z 2000/2100 VRB04KT CAVOK TEMPO 2000/2003 09010KT", "TAF LRCK 192300Z 2000/2100 34010KT CAVOK TEMPO 2006/2014 35015G25KT", "TAF LRCL 192300Z 2000/2009 30010KT CAVOK", "TAF LRCT 192300Z 2000/2100 33004KT 9999 BKN080 TEMPO 2003/2007 33003KT 5000 BR SCT015 BKN030", "TAF LRCV 192300Z 2000/2009 VRB04KT CAVOK TEMPO 2000/2002 30010KT", "TAF LRFT 192300Z 2000/2100 36014KT 9999 BKN060 TEMPO 2010/2015Z 36014G24KT BECMG 2016/2018 02006KT SKC", "TAF LRIA 192300Z 2000/2009 32012KT 9999 BKN040", "TAF LROD 192300Z 2000/2009 03010KT CAVOK", "TAF LROP 192300Z 2000/2100 VRB04KT CAVOK TEMPO 2000/2003 09010KT", "TAF LRSB 192300Z 2000/2100 VRB04KT 9999 BKN070", "TAF LRSV 192300Z 2000/2009 32014KT 9999 BKN050 PROB30 TEMPO 2000/2005 5000 -RA BKN015 BKN040", "TAF LRTR 192300Z 2000/2100 01010KT CAVOK BECMG 2016/2018 VRB04KT", "TAF LRTZ 192300Z 2000/2100 36014KT 9999 SCT040 BKN100 TEMPO 2006/2012 32012G24KT BECMG 2012/2016 SCT150", "TAF LSGG 192325Z 2000/2106 VRB02KT 3500 BR BKN006 TX19/2015Z TN10/2005Z TN13/2105Z PROB40 TEMPO 2000/2006 2500 BCFG BECMG 2008/2010 9999 FEW018 BKN080 TEMPO 2012/2106 SHRA PROB30 TEMPO 2017/2106 4000 +RA BKN014", "TAF LSZH 192325Z 2000/2106 VRB02KT 9999 BKN016 TX18/2014Z TN12/2004Z TN13/2105Z BECMG 2000/2002 BKN012 PROB40 2002/2008 4000 BR BKN009 PROB30 2004/2007 2500 BKN004 BECMG 2009/2012 9999 SCT020 TEMPO 2013/2018 CAVOK PROB40 TEMPO 2018/2106 SHRA", "TAF LSZL 191725Z 1918/2003 VRB02KT CAVOK BECMG 2000/2003 9999 BKN070", "TAF LTAB 192240Z 2000/2009 VRB02KT 7000 NSC TEMPO 2002/2005 4000 BR BECMG 2006/2008 33012KT SCT035", "TAF LTAC 192240Z 2000/2024 VRB02KT 8000 NSC TEMPO 2002/2006 4000 BR BECMG 2006/2008 SCT040 SCT100 BECMG 2009/2011 01012KT TEMPO 2013/2017 -SHRA BKN030 BKN080 BECMG 2016/2018 VRB02KT BECMG 2019/2021 CAVOK", "TAF COR LTAD 192240Z 2000/2009 VRB02KT 6000 SCT040 TEMPO 2002/2005 4000 BR BECMG 2006/2008 34012KT", "TAF LTAE 192240Z 2000/2009 VRB02KT 7000 NSC TEMPO 2002/2006 4000 BR BECMG 2006/2008 35012KT SCT035", "TAF LTAF 192240Z 2000/2024 VRB02KT 9999 SCT035 PROB40 TEMPO 2008/2012 VRB15G25KT -TSRA SCT020CB BKN030", "TAF LTAG 192240Z 2000/2024 VRB02KT 9999 SCT030 BKN100 TEMPO 2008/2011 17012KT -SHRA FEW025CB BKN030", "TAF LTAI 192240Z 2000/2024 34006KT 9999 FEW030 BECMG 2007/2010 18010KT TEMPO 2011/2015 FEW020CB BKN030 BECMG 2015/2018 34005KT BECMG 2018/2021 34015KT CAVOK", "TAF LTAJ 192240Z 2000/2024 VRB02KT CAVOK BECMG 2007/2009 24012KT SCT040 BKN100 PROB30 TEMPO 2012/2016 -TSRA FEW025CB BKN030 BECMG 2017/2019 VRB02KT CAVOK BECMG 2021/2023 SCT040 BKN100", "TAF LTAN 192240Z 2000/2009 VRB02KT 9999 SCT035 BKN100 BECMG 2004/2007 35012KT", "TAF LTAO 192240Z 2000/2009 21007KT CAVOK BECMG 2007/2009 SCT040 BKN100", "TAF LTAP 192240Z 2000/2024 03005KT 9999 SCT040 BECMG 2000/2003 SCT010 BKN025 TEMPO 2005/2009 -SHRA TEMPO 2009/2012 -SHRA BECMG 2010/2013 03015KT SCT040 BKN100", "TAF LTAR 192240Z 2000/2009 VRB02KT 9999 SCT030 BKN080 BECMG 2002/2005 -SHRA SCT010 BKN025 BKN070", "TAF LTAT 192240Z 2000/2024 21007KT CAVOK BECMG 2005/2007 10011KT BECMG 2008/2010 SCT040 BKN100 TEMPO 2013/2017 29015KT -SHRA FEW030CB BKN035 BKN090 TEMPO 2017/2021 24015KT -SHRA FEW030CB BKN035 BKN090 BECMG 2021/2023 32015KT", "TAF LTAU 192240Z 2000/2024 VRB02KT 8000 SCT035 BKN090 TEMPO 2003/2007 -SHRA BKN030 BKN080 BECMG 2009/2012 -SHRA BKN027 BKN080 PROB30 TEMPO 2010/2014 27015G25KT -TSRA FEW020CB BKN025", "TAF LTAY 192240Z 2000/2009 VRB02KT 9999 SCT035 PROB30 2003/2006 3200 BR BKN012", "TAF LTAZ 192240Z 2000/2024 VRB02KT 9999 SCT035 BKN090 TEMPO 2001/2005 -SHRA BKN030 BKN080 PROB40 TEMPO 2010/2014 28015G25KT -TSRA FEW025CB BKN030 TEMPO 2014/2018 -SHRA BKN030 BKN080 BECMG 2020/2023 FEW015 BKN025", "TAF LTBA 192240Z 2000/2024 01007KT CAVOK TEMPO 2000/2004 2500 BR SCT008 BECMG 2003/2006 02017KT BKN022 TEMPO 2009/2013 -SHRA BECMG 2016/2019 04007KT FEW040", "TAF LTBF 192240Z 2000/2009 01005KT 9999 FEW020 SCT035 PROB30 2004/2007 4000 BR", "TAF LTBG 192240Z 2000/2009 VRB02KT 9999 FEW015 SCT035", "TAF LTBH 192240Z 2000/2009 VRB02KT CAVOK", "TAF LTBI 192240Z 2000/2009 24008KT CAVOK TEMPO 2000/2003 3500 BR TEMPO 2003/2007 1200 BCFG", "TAF LTBJ 192240Z 2000/2024 VRB02KT CAVOK TEMPO 2003/2006 35012KT BECMG 2006/2009 36017G27KT", "TAF LTBL 192240Z 2000/2009 VRB02KT CAVOK BECMG 2005/2007 FEW035", "TAF LTBO 191640Z 1918/2003 VRB02KT 9999 SCT040 SCT100", "TAF LTBQ 192240Z 2000/2009 VRB02KT 8000 SCT008 BKN020 BECMG 2000/2002 SCT025 TEMPO 2001/2005 2000 BR", "TAF LTBR 192240Z 2000/2024 VRB02KT 8000 BKN025 PROB40 2003/2006 2500 BR BECMG 2008/2011 35012KT PROB30 TEMPO 2011/2014 -SHRA BECMG 2016/2018 VRB02KT SCT035", "TAF LTBS 192240Z 2000/2024 VRB02KT CAVOK BECMG 2007/2009 22012KT FEW030 BECMG 2016/2018 VRB02KT CAVOK", "TAF LTBU 192240Z 2000/2024 VRB02KT CAVOK TEMPO 2000/2002 2500 BR SCT008 BECMG 2004/2007 36017KT SCT035 BECMG 2018/2021 01007KT CAVOK", "TAF LTBY 192240Z 2000/2009 24008KT CAVOK TEMPO 2000/2003 3500 BR TEMPO 2003/2007 1200 BCFG", "TAF LTBZ 192240Z 2000/2009 24008KT CAVOK TEMPO 2000/2003 3500 BR TEMPO 2003/2007 1200 BCFG", "TAF LTCA 192240Z 2000/2009 21008KT CAVOK", "TAF LTCB 192240Z 2000/2009 25008KT 9999 SCT012 BKN028 TEMPO 2000/2004 4000 -SHRA BR BKN008 BKN028 PROB40 2005/2009 4000 SHRA BR BKN008 BKN028", "TAF LTCC 192240Z 2000/2024 VRB02KT CAVOK TEMPO 2011/2015 21012KT BECMG 2015/2018 SCT040 BKN100", "TAF LTCD 192240Z 2000/2009 VRB02KT CAVOK", "TAF LTCE 192240Z 2000/2024 VRB02KT 9999 SCT040 BKN080 BECMG 2009/2011 23015KT FEW025CB BKN035 BECMG 2015/2017 28005KT TEMPO 2016/2020 -TSRA TEMPO 2020/2024 28015KT -SHRA", "TAF LTCF 192240Z 2000/2009 VRB02KT 9999 SCT040 BECMG 2000/2002 CAVOK BECMG 2007/2009 24015G25KT FEW040", "TAF LTCG 192240Z 2000/2024 VRB02KT 9999 BKN035 TEMPO 2000/2004 -SHRA SCT008 BKN028 BECMG 2006/2009 28012KT -SHRA SCT012 BKN028 TEMPO 2010/2014 30018G28KT 2500 TSRA BKN006 SCT020CB BKN025 TEMPO 2014/2018 30018G28KT 2500 TSRA BKN006 SCT020CB BKN025 TEMPO 2018/2022 30018G28KT 2500 TSRA BKN006 SCT020CB BKN025", "TAF LTCI 192240Z 2000/2009 15009KT 9999 SCT035 BKN100 TEMPO 2006/2009 22014G25KT", "TAF AMD LTCJ 200047Z 2000/2024 VRB02KT 9999 FEW040 SCT100 BECMG 2002/2004 CAVOK TEMPO 2014/2018 21012KT", "TAF LTCM 191640Z 1918/2003 26006KT 3200 BR SCT006 BKN028 OVC080 TEMPO 1921/1924 -RA", "TAF LTCN 192240Z 2000/2009 VRB02KT CAVOK", "TAF LTCS 192240Z 2000/2024 VRB02KT CAVOK BECMG 2007/2009 27012KT BECMG 2012/2014 FEW040 BKN100", "TAF LTCT 192240Z 2000/2009 26007KT 9999 FEW040 BKN100", "TAF LTCV 192240Z 2000/2024 VRB02KT 9999 FEW040 BKN100 TEMPO 2001/2004 16012KT BECMG 2006/2009 24012KT BECMG 2009/2011 CAVOK", "TAF LTCW 192240Z 2000/2009 09009KT 9999 SCT040 BKN100 BECMG 2006/2009 22014G25KT", "TAF LTDA 192240Z 2000/2009 VRB02KT 9999 FEW040 SCT120", "TAF LTFC 192240Z 2000/2024 VRB02KT 9999 SCT035 BECMG 2009/2012 34012KT BKN030 TEMPO 2012/2016 -SHRA BECMG 2018/2021 VRB02KT SCT035", "TAF LTFD 192240Z 2000/2009 06010KT 9999 FEW035", "TAF LTFE 192240Z 2000/2024 VRB02KT CAVOK PROB40 2003/2006 3500 BR BECMG 2008/2010 26013KT FEW035 BECMG 2014/2017 VRB02KT CAVOK", "TAF LTFG 192240Z 2000/2009 11005KT 9999 FEW020CB SCT030 TEMPO 2000/2003 -SHRA FEW020CB BKN030", "TAF LTFH 192240Z 2000/2009 VRB02KT 9999 SCT008 BKN028 BECMG 2002/2005 31012KT -SHRA PROB30 2005/2009 27015G25KT -TSRA FEW020CB BKN028", "TAF LTFJ 192240Z 2000/2024 VRB02KT CAVOK PROB30 TEMPO 2003/2005 2400 BCFG SCT012 BECMG 2005/2007 SCT035 BECMG 2007/2009 03015KT TEMPO 2009/2013 -SHRA BKN030 BKN090 BECMG 2015/2018 CAVOK", "TAF LTFM 192240Z 2000/2106 25007KT CAVOK BECMG 2002/2005 02014KT BKN020 TEMPO 2009/2013 03015G25KT -SHRA BECMG 2015/2018 SCT035", "TAF LTFO 192240Z 2000/2009 22008KT 9999 -SHRA SCT012 BKN028 TEMPO 2005/2009 3500 SHRA BKN008 BKN028", "TAF LUKK 192320Z 2000/2024 32014KT CAVOK TEMPO 2000/2004 34016G26KT TEMPO 2004/2015 34018G32KT BECMG 2018/2020 33008KT", "TAF LWOH 192330Z 2000/2024 VRB02KT CAVOK", "TAF LWSK 192330Z 2000/2024 VRB02KT CAVOK", "TAF LYBE 192300Z 2000/2024 27006KT CAVOK TX18/2013Z TN06/2005Z", "TAF LYBT 192300Z 2000/2024 28005KT CAVOK TX17/2012Z TN05/2005Z", "TAF LYKV 192300Z 2000/2024 VRB02KT 9999 FEW045 TX17/2012Z TN05/2005Z TEMPO 2000/2006 4000 BR BECMG 2022/2024 3000 BR", "TAF LYNI 192300Z 2000/2024 30005KT 9999 SCT030 TX18/2013Z TN06/2005Z TEMPO 2001/2005 BKN012 BKN030 TEMPO 2008/2015 32015KT", "TAF LYPG 192300Z 2000/2024 36012KT CAVOK TX23/2013Z TN18/2005Z TEMPO 2000/2006 02015G25KT BECMG 2008/2010 16005KT", "TAF LYTV 192300Z 2000/2024 02012KT CAVOK TX23/2013Z TN17/2005Z TEMPO 2000/2006 02015G25KT BECMG 2008/2010 24005KT", "TAF LYVR 192300Z 2000/2024 32005KT 9999 SCT040 TX17/2013Z TN05/2005Z TEMPO 2002/2005 4000 BR BKN010 BKN030", "TAF LZIB 192315Z 2000/2100 30004KT CAVOK BECMG 2003/2005 VRB02KT PROB30 TEMPO 2004/2006 9999 BKN012 BECMG 2009/2011 13010KT", "TAF LZKZ 192315Z 2000/2100 02010KT 9999 FEW030 BECMG 2012/2013 19005KT BECMG 2017/2018 VRB02KT", "TAF LZMC 191930Z 1921/2006 VRB03KT CAVOK TEMPO 2001/2006 3000 BR BCFG NSC PROB30 TEMPO 2003/2006 0500 FG VV002", "TAF LZPP 191715Z 1918/2003 36008KT 9999 FEW040", "TAF LZPW 191930Z 1921/2006 36008KT CAVOK", "TAF LZSL 191930Z 1921/2006 32008KT CAVOK BECMG 2000/2002 VRB02KT PROB30 TEMPO 2003/2006 0300 FG BKN001", "TAF LZTT 192315Z 2000/2100 VRB02KT 9999 FEW048 TEMPO 2002/2008 2000 BR BCFG SCT005 PROB30 TEMPO 2003/2007 0200 FG OVC001", "TAF LZZI 192315Z 2000/2009 VRB02KT 9999 FEW045 TEMPO 2002/2007 2500 BR BCFG FEW005 SCT020 PROB40 TEMPO 2002/2007 0300 FG BKN003", "MBGT 192230Z 2000/2024 11009KT 9999 SCT020 SCT060", "MBPV 192230Z 2000/2024 18006KT 9999 SCT015", "TAF MDBH 192200Z 2000/2100 13008KT 9999 FEW018CB SCT018 SCT080 PROB30 2004/2010 -TSRA FEW014CB BKN014 OVC070 BECMG 2008/2010 27006KT", "TAF MDCY 192200Z 2000/2100 09004KT 9999 FEW018 BECMG 2001/2003 00000KT", "TAF MDJB 192200Z 2000/2100 00000KT 9999 FEW018 BECMG 2013/2015 16008KT", "TAF MDLR 192200Z 2000/2100 00000KT 9999 FEW018 BECMG 2013/2015 18015KT", "TAF MDPC 192200Z 2000/2100 18015KT 9999 FEW018 BECMG 2002/2006 00000KT PROB30 2001/2003 8000 TSRA FEW016CB SCT018", "TAF MDPP 192200Z 2000/2100 09012KT 9999 FEW020 PROB30 2000/2006 7000 -RA SCT016 BKN070", "TAF MDSD 192200Z 2000/2100 00000KT 9999 SCT018 BECMG 2005/2007 06005KT", "TAF MDST 192200Z 2000/2100 11010KT 9999 FEW020 PROB30 PROB30 2003/2009 9999 -TS FEW016CB SCT018 SCT070 BECMG 2004/2006 VRB03KT", "MGGT 192300Z 2000/2024 20010KT 9999 BKN016 TX25/2020Z TN14/2012Z TEMPO 2000/2006 RADZ BKN014 BECMG 2004/2006 36010KT SCT016 BECMG 2014/2016 36016KT SCT018 TEMPO 2021/2024 8000 TSRA SCT020TCU FEW025CB", "MGMM 192300Z 2000/2024 00000KT 9999 FEW018 SCT090 TX32/2020Z TN23/2012Z PROB30 TEMPO 2000/2004 7000 TSRA FEW025CB BECMG 2008/2010 OVC012 BECMG 2014/2016 33008KT BKN016 TEMPO 2018/2024 8000 RADZ BKN018", "MGPB 192300Z 2000/2024 00000KT 9999 FEW018 TX32/2020Z TN21/2012Z TEMPO 2001/2009 7000 RADZ BKN016 BECMG 2014/2016 36008KT SCT018 BKN080 TEMPO 2020/2024 8000 TSRA SCT020TCU FEW025CB", "MGSJ 192300Z 2000/2024 00000KT 9999 FEW020 BKN080 TX32/2020Z TN21/2012Z BECMG 2004/2006 CAVOK BECMG 2014/2016 18008KT FEW018 TEMPO 2021/2024 8000 TSRA SCT020TCU FEW025CB", "TAF MHLC 192300Z 2000/2024 17005KT 7000 RA FEW028CB BKN080 TX30/2019Z TN21/2012Z FM200200 VRB03KT 9999 NSW SCT025 FM201500 03010KT SCT030TCU TEMPO 2020/2024 6000 TSRA SCT032CB SCT080", "TAF MHLM 192300Z 2000/2024 05010KT 9999 SCT028TCU TX31/2020Z TN23/2012Z TEMPO 2001/2004 06010KT 6000 SHRA FM200400 VRB03KT 9999 NSW SCT026 FM201900 03012KT 5000 RA SCT032TCU FEW035CB", "TAF MHPR 192300Z 2000/2024 36012KT 9999 SCT048TCU FEW050CB BKN060 TX31/2019Z TN21/2009Z FM200600 34006KT 9999 SCT044 BECMG 2015/2017 36012KT SCT048TCU", "TAF MHRO 192300Z 2000/2024 08012KT 9999 SCT020TCU TX30/2020Z TN27/2012Z FM200600 08016KT 6000 RA SCT018TCU BKN070 FM201400 08016KT 9999 NSW SCT024TCU", "TAF MHTG 192300Z 2000/2024 07006KT 7000 VCSH SCT032TCU FEW035CB TX29/2020Z TN18/2012Z FM200200 VRB04KT 9999 NSW BKN028 FM201500 04008KT 9999 SCT030TCU TEMPO 2020/2024 6000 SHRA SCT034CB", "MKJP 192315Z 2000/2024 14007KT 9999 FEW022 BECMG 2004/2006 36004KT BECMG 2016/2018 16013KT FEW022CB", "MKJS 192315Z 2000/2024 15004KT 9999 FEW022 BECMG 2016/2018 04010KT PROB30 TEMPO 2018/2023 SHRA BKN018 FEW020CB", "TAF COR MMAA 200033Z 2000/2106 08010KT P6SM SCT020CB OVC100 TX30/2019Z TN24/2012Z TEMPO 2000/2002 5SM TSRA FM200400 12005KT P6SM SCT015 OVC080 TEMPO 2004/2008 5SM RA BKN015 FM200800 03005KT 5SM HZ SCT015 OVC100 FM201600 16010KT 5SM HZ BKN015 OVC080 TEMPO 2016/2020 5SM RA FM202100 12010KT P6SM BKN015CB OVC080 TEMPO 2021/2101 3SM TSRA", "TAF MMAN 191717Z 1918/2018 13010KT P6SM BKN050 BECMG 2002/2003 13005KT FM201700 14010KT P6SM SKC", "TAF MMAS 191631Z 1918/2018 05010KT P6SM BKN030 TEMPO 1921/2001 5SM TSRA BKN025CB FM200300 12010KT P6SM SCT025 BKN250 FM201500 00000KT P6SM SKC", "TAF MMBT 191719Z 1918/2018 20010KT 5SM RA BKN020 OVC120 TEMPO 1918/1922 2SM RA BKN015CB FM200000 16012KT P6SM BKN020 OVC070 PROB40 2000/2004 5SM RA FM201200 09010KT P6SM SCT025 BKN250", "TAF MMCB 191719Z 1918/2018 00000KT 4SM HZ SCT010 OVC060 FM192000 20010KT P6SM VC RA BKN020 OVC080 TEMPO 1921/2001 4SM TSRA BKN015CB FM200300 00000KT P6SM BKN080 FM201200 00000KT 2SM BR OVC005 TEMPO 2012/2015 1/2SM FG VV002 FM201600 00000KT 4SM HZ BKN010", "TAF MMCE 191700Z 1918/2018 05012KT 5SM VC RA BKN015 OVC070 TEMPO 1919/1923 2SM +TSRA OVC010CB FM192300 34012KT 5SM RA BKN020 OVC070 PROB40 2000/2004 1SM +RA BKN010CB FM200600 02015KT P6SM SCT015 BKN080 PROB40 2012/2016 5SM RA BKN015", "TAF MMCL 191707Z 1918/2018 28005KT P6SM SKC BECMG 2003/2004 03005KT FM201700 27010KT P6SM BKN250", "TAF MMCM 191700Z 1918/2018 35015KT 6SM VC RA BKN015 OVC070 TEMPO 1920/1924 4SM TSRA BKN010CB FM200300 02010KT P6SM SCT015 BKN100 PROB40 2012/2016 5SM RA BKN015", "TAF MMCN 191637Z 1918/2018 23010KT P6SM SKC FM200300 34010KT P6SM SKC", "TAF MMCP 191700Z 1918/2018 02015KT 6SM VC RA BKN015 OVC100 TEMPO 1920/1924 2SM +TSRA BKN010CB FM200000 34015KT 6SM RA BKN020 OVC080 FM200600 04015KT P6SM SCT020 BKN100 PROB40 2012/2016 5SM RA BKN015", "TAF MMCS 191717Z 1918/2018 13010KT P6SM BKN250 BECMG 2003/2005 09005KT FM201700 18010KT P6SM SKC", "TAF MMCU 191717Z 1918/2018 05010KT P6SM BKN030 BKN080 BECMG 2001/2002 10005KT FM201700 19005KT P6SM SKC", "TAF MMCV 191646Z 1918/2018 34015KT P6SM SCT030 BKN080 FM200300 00000KT 5SM HZ SCT015 TEMPO 2012/2016 2SM BR BKN010", "TAF MMCZ 192334Z 2000/2106 03010KT 5SM RA BKN015 OVC090 TEMPO 2000/2004 2SM TSRA BKN015CB FM200400 03010KT 5SM VC RA BKN015 OVC030 TEMPO 2004/2008 3SM SHRA FM200800 03010KT 5SM VC RA BKN015 OVC030 TEMPO 2010/2014 3SM RA FM201500 03010KT P6SM BKN015 OVC080 PROB40 2020/2024 5SM RA FM210300 03008KT P6SM SCT015 BKN020", "TAF MMDO 191637Z 1918/2018 02010KT P6SM SCT030 BKN080 FM192000 06015KT P6SM BKN030 TEMPO 1922/2002 5SM TSRA BKN025CB FM200300 12010KT P6SM SCT020 BKN250", "TAF MMEP 191631Z 1918/2018 23010KT P6SM SCT020 BKN100 TEMPO 1921/2001 4SM TSRA BKN020CB FM200300 00000KT P6SM SCT015 BKN080 FM200600 00000KT P6SM BKN250 FM201200 00000KT 1/2SM FG VV003 FM201400 18010KT P6SM BKN250", "TAF MMGL 192319Z 2000/2106 04010KT P6SM SCT020 BKN080 TX26/2021Z TN16/2012Z FM201600 06008KT P6SM SCT020 BKN200 TEMPO 2021/2101 5SM RA BKN020 FM210300 06005KT P6SM SCT020 SCT300", "TAF MMGM 191637Z 1918/2018 23010KT P6SM SKC FM200300 00000KT P6SM SKC", "TAF MMHO 191707Z 1918/2018 07015KT P6SM SKC BECMG 1920/1921 24010KT FM200500 04005KT P6SM BKN250 FM201700 24010KT P6SM SKC", "TAF MMIA 191631Z 1918/2018 20010KT P6SM BKN020CB TEMPO 1921/2001 3SM TSRA FM200300 00000KT P6SM SCT020 BKN100 PROB40 2012/2016 5SM RA BKN015CB", "TAF MMIO 191717Z 1918/2018 04005KT P6SM BKN030 BECMG 1920/1921 34010KT FM200400 09005KT P6SM SCT030 TEMPO 2010/2014 3SM BR FM201500 16005KT P6SM SCT020 BKN250", "TAF MMLM 191637Z 1918/2018 28015KT P6SM SKC FM200600 32010KT P6SM SKC", "TAF MMLO 191631Z 1918/2018 06010KT P6SM BKN030 TEMPO 1921/2001 5SM TSRA BKN025CB FM200300 12010KT P6SM SCT030 BKN250", "TAF MMLP 191707Z 1918/2018 15010KT P6SM SKC BECMG 2004/2005 33005KT FM201700 26005KT P6SM BKN250", "TAF MMLT 191637Z 1918/2018 02012KT P6SM SKC FM200300 00000KT P6SM SKC", "TAF MMMA 191646Z 1918/2018 32015KT P6SM SKC FM200600 00000KT P6SM SKC", "TAF MMMD 192334Z 2000/2106 36008KT P6SM BKN015 OVC070 TX26/2021Z TN19/2012Z FM200400 36010KT P6SM SCT015 BKN070 FM201600 35010KT P6SM BKN020 FM210300 03005KT P6SM SCT020 BKN040", "TAF MMML 191707Z 1918/2018 04010KT P6SM SKC BECMG 2004/2005 34005KT FM201700 19005KT P6SM SKC", "TAF MMMM 192319Z 2000/2106 35010KT P6SM SCT030 BKN080 TEMPO 2000/2002 5SM RA BKN020 FM200300 03005KT P6SM SCT030 BKN080 TEMPO 2010/2014 3SM BR BKN012 FM201800 36010KT P6SM SCT030 BKN080 PROB40 2022/2102 5SM TSRA BKN020CB FM210200 03005KT P6SM SCT030 BKN080", "TAF AMD MMMT 191831Z 1918/2018 36015G25KT 1/2SM RA OVC009CB FM192000 36020KT 4SM RA BKN020 OVC070 TEMPO 1920/1923 2SM RA FM200600 34010KT 5SM RA OVC020 TEMPO 2011/2015 1SM DZ OVC008", "TAF MMMV 191717Z 1918/2018 12010KT P6SM SCT060 BKN200 BECMG 2002/2003 19005KT FM201700 03005KT P6SM BKN250", "TAF COR MMMX 200035Z 2000/2106 30010KT P6SM BKN020 BKN080 TX19/2021Z TN13/2012Z FM200400 03005KT P6SM SCT020 BKN080 TEMPO 2010/2014 BKN015 FM202100 02010KT P6SM BKN020 BKN080 TEMPO 2021/2101 5SM RA BKN020 FM210300 03005KT P6SM SCT020 SCT080", "TAF MMMY 192347Z 2000/2106 12008KT P6SM SCT020 SCT070 TX21/2021Z TN13/2012Z FM200300 12005KT P6SM SCT080 FM201600 12010KT P6SM SKC FM210300 12005KT P6SM SKC", "TAF MMMZ 192301Z 2000/2106 30010KT P6SM SCT250 TX32/2021Z TN22/2012Z FM200300 03005KT P6SM SCT250 FM201600 23010KT P6SM SCT250 FM210400 03005KT P6SM SCT250", "TAF MMNL 191646Z 1918/2018 02010KT P6SM SKC FM200600 12010KT P6SM SKC", "TAF AMD MMOX 200114Z 2001/2018 00000KT P6SM SCT040 OVC120 FM201500 00000KT P6SM SCT100", "TAF AMD MMPA 192002Z 1920/2018 28012KT 3SM -RA BR OVC008 FM200000 34010KT 5SM RA BKN015 OVC080 FM200600 00000KT 3SM BR BKN010 TEMPO 2012/2016 2SM BR OVC010", "TAF MMPB 191719Z 1918/2018 35015KT P6SM SCT020 BKN080 TEMPO 1922/2002 6SM -RA BKN020 FM201200 00000KT P6SM BKN200", "TAF MMPG 191646Z 1918/2018 12010KT P6SM SKC FM200600 00000KT P6SM SKC", "TAF MMPN 191631Z 1918/2018 18010KT P6SM SCT030CB BKN150 TEMPO 1920/1924 5SM TSRA BKN020CB FM200200 00000KT P6SM SCT015 BKN100 TEMPO 2012/2016 2SM BR", "TAF MMPQ 191700Z 1918/2018 30010KT 5SM HZ BKN025 TEMPO 1921/2001 3SM TSRA BKN015CB FM200300 34010KT 5SM RA BKN020 OVC080 FM201500 00000KT 3SM BR BKN010", "TAF MMPR 192319Z 2000/2106 25005KT P6SM SCT020CB BKN080 TX31/2020Z TN24/2012Z TEMPO 2001/2004 3SM TSRA BKN020CB FM200400 03005KT P6SM SCT020 BKN200 FM201600 23010KT P6SM SCT020 BKN100 TEMPO 2022/2102 3SM TSRA BKN020CB FM210300 03005KT P6SM SCT020 BKN100", "TAF MMPS 191719Z 1918/2018 12010KT 5SM RA BKN020 OVC080 TEMPO 1920/1924 3SM RA BKN010CB FM200300 16010KT P6SM SCT020 BKN100 PROB40 2003/2006 5SM RA BKN020 FM201200 06010KT P6SM BKN100", "TAF MMQT 191631Z 1918/2018 10015KT P6SM BKN020 OVC100 FM192100 12018KT P6SM SCT020 BKN080 FM200300 09010KT P6SM BKN015 FM201200 09010KT 5SM HZ OVC015", "TAF MMRX 191646Z 1918/2018 36015KT P6SM SKC FM200600 00000KT P6SM SKC", "TAF MMSD 191637Z 1918/2018 14015KT P6SM BKN250 FM200600 34010KT P6SM BKN250", "TAF MMSL 191637Z 1918/2018 23010KT P6SM SKC FM200600 12010KT P6SM SKC", "TAF MMSM 192345Z 2000/2106 02010KT P6SM BKN025 OVC080 FM200300 03005KT P6SM SCT020 BKN080 TEMPO 2010/2014 3SM BR BKN010 FM201600 03010KT P6SM SCT020 BKN080 FM202100 03012KT P6SM BKN020 BKN080 PROB40 2021/2101 5SM RA FM210200 03005KT P6SM SCT020 BKN080", "TAF MMSP 192319Z 2000/2106 03008KT P6SM SCT020 BKN030 TX21/2021Z TN13/2012Z FM200900 03005KT 5SM HZ BKN020 TEMPO 2010/2014 3SM BR BKN010 FM201600 03008KT P6SM SCT020 FM210300 03005KT P6SM SCT020", "TAF MMTC 191717Z 1918/2018 07005KT P6SM BKN015 BKN100 BECMG 1920/1921 07010KT FM200300 09005KT P6SM SCT020 BKN250 FM201700 04010KT P6SM SCT020 BKN250", "TAF MMTG 191650Z 1918/2018 34010KT P6SM SCT012 BKN030 BKN080 TEMPO 1920/1924 5SM TSRA BKN012CB FM200100 33005KT 6SM -RA BKN030 OVC090 TEMPO 2010/2014 2SM DZ BR OVC010 FM201400 33010KT 5SM HZ SCT030 BKN080 BKN250", "TAF MMTJ 192301Z 2000/2106 03010KT P6SM SKC TX33/2020Z TN21/2012Z FM200300 06005KT P6SM SKC FM201600 06008KT P6SM SKC FM202100 24008KT P6SM SKC FM210300 24005KT P6SM SCT200", "TAF AMD MMTM 192142Z 1922/2018 36010KT P6SM BKN030 BKN070 FM200200 33005KT P6SM HZ SCT030 OVC070 FM201400 03010KT P6SM SCT080", "TAF MMTO 192345Z 2000/2106 06005KT P6SM SCT015 BKN080 TX22/2021Z TN08/2012Z TEMPO 2000/2003 5SM RA BKN015 FM200300 03005KT 5SM HZ SCT015 BKN080 TEMPO 2010/2014 2SM BR HZ BKN010 FM201500 03005KT P6SM SCT020 BKN080 FM202100 03010KT P6SM BKN015 BKN080 TEMPO 2021/2101 5SM RA FM210200 03005KT P6SM SCT015 BKN200", "TAF MMTP 192334Z 2000/2106 33005KT P6SM SCT020CB BKN080 TEMPO 2000/2002 5SM TSRA FM200200 00000KT P6SM SCT020 BKN200 FM201900 24010KT P6SM SCT020 BKN200 PROB40 2022/2102 3SM TSRA BKN020CB FM210200 00000KT P6SM SCT020 BKN200", "TAF MMUN 192334Z 2000/2106 02008KT P6SM BKN015 OVC070 TX25/2021Z TN18/2012Z TEMPO 2000/2003 5SM RA FM200300 03008KT 6SM VC RA SCT015 BKN080 TEMPO 2006/2010 5SM RA BKN015 FM201000 030005KT P6SM VC RA BKN015 OVC080 TEMPO 2010/2014 3SM RA FM201600 36010KT P6SM BKN015 OVC030 PROB40 2020/2024 5SM RA FM210300 03005KT P6SM SCT015 SCT080", "TAF MMVA 191700Z 1918/2018 23010KT 4SM RA OVC010 TEMPO 1918/1922 1SM RA OVC005CB FM200000 34012KT 5SM RA OVC025 TEMPO 2000/2004 2SM RA FM201000 00000KT 2SM BR OVC010 FM201500 34010KT 5SM RA OVC020", "TAF AMD MMVR 192159Z 1922/2018 34015G25KT P6SM BKN025 OVC040 TX27/1922Z TN21/2012Z TEMPO 1922/2001 5SM RA FM200100 34010KT P6SM BKN025 BKN040 OVC070 TEMPO 2010/2014 3SM DZ BR OVC010 FM201400 34010KT P6SM SCT020 BKN080 BKN250", "TAF MMZC 192319Z 2000/2106 03010KT P6SM BKN030 TX20/2021Z TN12/2012Z FM200300 04005KT P6SM SCT030 FM201600 03010KT P6SM SCT030 SCT200 FM210300 03005KT P6SM SCT200", "TAF MMZH 191719Z 1918/2018 23010KT P6SM BKN020 BKN100 TEMPO 1920/1924 3SM RA BKN015CB FM200000 12012KT 5SM RA BKN015CB OVC080 PROB40 2002/2006 2SM +RA OVC010CB FM200600 12012KT 4SM RA BKN015 OVC080 TEMPO 2010/2014 2SM +RA OVC008CB", "TAF MMZO 191634Z 1918/2018 22010KT P6SM SCT020 BKN120 BKN210 TEMPO 1922/2002 4SM TSRA BKN020CB FM200200 04005KT P6SM SCT020 BKN120 BKN250 FM201700 24010KT P6SM SCT020 BKN090 BKN250", "MNBL 192122Z 2000/2024 34006KT 8000 VCRA/-DZ BKN018 TEMPO 2006/2010 9999 TEMPO 2012/2016 06010KT 8000 -DZ SCT017 SCT070", "MNMG 192122Z 2000/2024 VRB06KT 9999 FEW020CB SCT070 BECMG 2004/2008 8000 -DZ/-TSRA BECMG 2010/2014 06008KT 9999 FEW025 SCT070 BECMG 2016/2020 9000 -DZ/-RA", "MNPC 192122Z 2000/2024 34004KT 6000 VCRA/-DZ BKN016TCU TEMPO 2006/2010 7000 HZ SCT016 SCT100 TEMPO 2012/2016 06006KT 5000 -DZ/-RA FEW014CB BKN016TCU", "TAF MPDA 192300Z 2000/2012 21006KT 9999 SCT016 BKN080", "TAF MPMG 192300Z 2000/2012 27004KT 9999 SCT018 SCT090 TEMPO 1905/1908 VRB02KT", "TAF MPPA 192300Z 2000/2106 35004KT 9999 SCT018 SCT090 TEMPO 2008/2012 00000KT PROB30 2019/2023 6000 TSRA SCT015CB BKN090", "TAF MPSM 191700Z 1918/2024 27006KT 9999 SCT016 BKN080 PROB30 1918/1920 8000 RA PROB40 1920/1924 21008KT 6000 TSRA SCT016CB BKN080 TEMPO 2002/2006 00000KT", "TAF MPTO 192300Z 2000/2106 28005KT 9999 SCT018 SCT090 PROB30 2000/2004 6000 RA TEMPO 2008/2012 VRB02KT PROB30 2018/2022 6000 TSRA SCT015CB BKN090", "MRLB 192300Z 2000/2024 27005KT 9999 SCT030 BKN150 TX32/2019Z TN22/2011Z TEMPO 2001/2006 DZ BKN020 TEMPO 2008/2014 VRB02KT 5000 BR SCT002 BECMG 2014/2017 12005KT PROB30 TEMPO 1921/1924 SHRA FEW020TCU ", "MRLM 192300Z 2000/2024 28005KT 9999 FEW015 BKN100 TX31/2020Z TN23/2011Z TEMPO 2011/2015 DZ FEW020TCU BECMG 2015/2018 06006KT ", "MROC 192300Z 2000/2024 24007KT 9999 FEW005 BKN100 TX28/2018Z TN18/2010Z TEMPO 2000/2004 VRB02KT 5000 BR SCT005 BECMG 2004/2007 09005KT BECMG 2015/2018 25006KT TEMPO 2020/2023 TSRA SCT015CB ", "TAF MRPV 192320Z 2000/2024 12005KT 9999 FEW020 BKN120 TX28/2018Z TN18/2010Z TEMPO 2000/2002 VRB02KT BCFG BECMG 2016/2018 29008KT TEMPO 2020/2023 SHRA BKN010TCU", "TAF MSLP 192138Z 2000/2024 VRB02KT 9999 FEW023 FEW037CB SCT065 TX32/2018Z TN24/2012Z FM200600 06003KT 9999 SCT077 FM201300 05003KT 9999 FEW027 TEMPO 2021/2024 23010KT 8000 TSRA SCT030 FEW037CB", "TAF MSSS 192138Z 2000/2024 35004KT 9999 FEW023 FEW037CB TX30/2018Z TN21/2012Z FM200600 35005KT 9999 FEW023 FM201800 16003KT 9999 SCT030 FEW037CB TEMPO 2021/2024 8000 TSRA BKN027 FEW037CB", "TAF MTCH 191700Z 1918/2018 04012KT 9000 SCT026 PROB40 TEMPO 1922/2004 4800 TSRA SCT020CB BKN040 BECMG 2008/2012 VRB02KT 8000 NSW FEW018", "TAF MTPP 191700Z 1918/2018 18007KT 9999 SCT026 PROB30 TEMPO 1922/2004 4800 TSRA SCT014CB SCT030 BECMG 2006/2010 VRB02KT 9000 NSW FEW016", "MUCC 192300Z 2000/2024 34006KT 9000 SCT020 BKN070 TEMPO 2000/2003 FEW018CB TEMPO 2006/2010 4000 SHRA FEW018CB BKN030 BECMG 2013/2015 36010KT TEMPO 2019/2024 VRB10KT 4000 TSRA SCT018CB BKN020", "MUCF 191700Z 1918/2006 25007KT 9000 SCT020 BKN070 TEMPO 1919/2002 VRB10KT 4000 TSRA FEW018CB", "MUCL 191700Z 1918/2006 29008KT 9000 SCT025 BKN070 TEMPO 1918/1924 VRB10KT 4000 TSRA FEW018CB", "MUCM 192300Z 2000/2024 VRB03KT 9000 SCT020 BECMG 2013/2015 33010KT TEMPO 2019/2024 VRB10KT 4000 TSRA SCT018CB BKN020", "MUCU 192300Z 2000/2024 VRB03KT 9000 SCT020 TEMPO 2000/2002 VRB10KT 4000 TSRA FEW018CB BKN025 BECMG 2003/2004 36005KT BECMG 2013/2014 17006KT TEMPO 2021/2024 VRB10KT 5000 TSRA FEW018CB BKN020", "TAF MUGM 1923/2023 21008KT 9999 FEW020 FEW100 SCT250 QNH2992INS BECMG 2001/2003 33006KT 9999 FEW020 FEW250 QNH2990INS BECMG 2015/2017 17009KT 9999 FEW030 FEW120 SCT250 QNH2986INS T24/2009Z T31/2017Z FN20094", "MUHA 192300Z 2000/2024 02008KT 9000 SCT025", "MUHG 192300Z 2000/2024 07005KT 9000 SCT030 TEMPO 2000/2002 VRB10KT 4000 TSRA FEW018CB BKN025 BECMG 2013/2015 22008KT TEMPO 2020/2024 VRB10KT 4000 TSRA SCT018CB BKN020", "MUSC 192300Z 2000/2024 VRB03KT 9000 SCT020 BKN080 BECMG 2013/2015 36010KT TEMPO 2020/2024 4000 TSRA SCT018CB BKN020", "MUVR 192300Z 2000/2024 02009KT 9000 SCT020 BKN070 BECMG 2013/2015 01013KT SCT020", "TAF MWCB 191700Z 1918/2018 VRB02KT 9000 SHRA SCT016CB BECMG 1922/1924 9999 FEW020 TEMPO 2016/2018 9000 SHRA SCT016", "TAF MWCR 192300Z 2000/2024 VRB02KT 9999 SCT018 BECMG 2020/2022 9999 VCSH SCT016CB", "MYGF 192230Z 2000/2024 01010KT 9999 SHRA SCT018 BKN025 OVC080 PROB30 TEMPO 2006/2010 9000 SHRA BKN018 OVC060 PROB40 TEMPO 2021/2024 8000 SHRA BKN015 BKN045", "MYNN 192230Z 2000/2024 34009KT 9999 SCT020 BKN160 PROB40 TEMPO 2006/2011 8000 SHRA PROB30 TEMPO 2012/2016 9000 TSRA SCT015CB BKN040", "TAF MZBZ 192210Z 2000/2024 34008KT 9999 SCT020 SCT048 PROB40 TEMPO 2000/2008 4000 SHRA BKN014 PROB30 TEMPO 2000/2003 4000 TSRA FEW010CB SCT014 BKN045 TEMPO 2008/2016 5000 RA SCT008 BKN040 PROB30 TEMPO 2020/2024 4000 SHRA BKN014 BKN045", "TAF NCRG 192309Z 2000/2024 08012KT 9999 SCT020 BKN045", "TAF NFFN 192305Z 2000/2024 31012KT 9999 FEW028 PROB40 TEMPO 2002/2006 5000 TSRA FEW018CB BECMG 2004/2006 14007KT BECMG 2022/2024 30012KT", "TAF NFNA 192309Z 2000/2024 15007KT 9999 BKN020 BKN045 PROB40 TEMPO 2001/2002 5000 TSRA BKN015 FEW017CB TEMPO 2002/2007 3000 +TSRA BKN015 SCT016CB PROB30 TEMPO 2007/2012 5000 SHRA BKN015", "TAF NFTF 192310Z 2000/2024 13007KT 9999 -SHRA SCT008 BKN100 TEMPO 2000/2019 5000 TSRA BKN008 FEW016CB", "TAF NFTV 192312Z 2000/2024 06006KT 9999 SCT016", "TAF NGFU 192319Z 2000/2024 08008KT 9999 SCT018 PROB30 TEMPO 2002/2008 7000 SHRA FEW017CB PROB40 TEMPO 2014/2018 5000 SHRA FEW017CB", "TAF NGTA 192316Z 2000/2024 07009KT 9999 FEW019", "TAF NIUE 192318Z 2000/2024 09008KT 9999 BKN018", "TAF NLWF 192300Z 2000/2024 08010KT 9999 FEW020 SCT030 BKN050 PROB30 TEMPO 2000/2006 SHRA FEW018TCU TEMPO 2006/2018 3000 TSRA BKN010 SCT016CB BKN018TCU", "TAF NLWW 192300Z 2000/2024 08010KT 9999 SCT020 SCT035 PROB30 TEMPO 2000/2003 4000 SHRA BKN012 FEW015CB SCT020TCU TEMPO 2012/2018 3000 TSRA BKN010 SCT016CB BKN018TCU TEMPO 2018/2024 SHRA FEW020TCU", "TAF NSFA 192316Z 2000/2024 10008KT 9999 SCT022 PR0B30 TEMPO 2002/2006 7000 SHRA FEW018CB PR0B30 TEMPO 2012/2018 7000 SHRA FEW018CB", "NSTU 192336Z 2000/2024 10010KT P6SM FEW020 SCT040", "TAF NTAA 192300Z 2000/2106 VRB03KT 9999 FEW023 SCT045 PROB30 TEMPO 2000/2003 5000 SHRA SCT020 BKN040", "TAF NVSC 192300Z 2000/2024 VRB04KT 9999 FEW022", "TAF NVSG 192300Z 2000/2024 14006KT 9999 SCT020 BKN040 INTER 2000/2006 8000 SHRA FEW008 BKN017", "TAF NVSL 192300Z 2000/2024 08006KT 9999 SCT020 BKN040 INTER 2000/2006 8000 SHRA BKN017", "TAF NVSP 192300Z 2000/2024 VRB03KT 9999 SCT020 INTER 2000/2006 9000 -SHRA BKN018", "TAF NVSS 192300Z 2000/2024 25005KT 9999 SCT020 BKN040 INTER 2000/2006 8000 SHRA FEW010 BKN017 OVC038", "TAF NVVA 192300Z 2000/2024 VRB04KT 9999 SCT020", "TAF NVVV 192300Z 2000/2024 18005KT 9999 SCT020 BKN040 INTER 2000/2006 8000 SHRA FEW010 BKN018 OVC038", "TAF NVVW 192300Z 2000/2024 12006KT 9999 SCT020 INTER 2000/2006 9000 -SHRA BKN018", "TAF NWWD 192300Z 2000/2024 20012KT 9999 SCT040 BKN065 TEMPO 2000/2006 SHRA SCT020TCU PROB40 TEMPO 2003/2008 14010KT BECMG 2008/2010 07008KT PROB30 TEMPO 2015/2018 08015G25KT SHRA FEW017TCU TEMPO 2021/2024 08015G25KT", "TAF NWWE 191700Z 1918/2018 13013KT 9999 SCT020", "TAF NWWK 192300Z 2000/2024 22008KT 9999 FEW040 SCT065 BECMG 2000/2002 15015KT PROB40 TEMPO 2000/2006 15015G25KT 4000 SHRA SCT020TCU BECMG 2008/2010 VRB02KT BECMG 2022/2024 19010KT", "TAF NWWL 191700Z 1918/2018 12008KT 9999 SCT020 SCT030 BECMG 1922/1924 13018KT PROB30 TEMPO 2000/2006 SHRA SCT020TCU BECMG 2007/2009 11006KT", "TAF NWWM 191700Z 1918/2018 07005KT 9999 SCT015 SCT050 BECMG 1922/1924 12020KT PROB30 TEMPO 2000/2006 14020G30KT SHRA BKN012 SCT018TCU BECMG 2008/2010 08008KT", "TAF NWWR 191700Z 1918/2018 VRB02KT 9999 SCT020 BKN030 BECMG 1922/1924 14016KT PROB30 TEMPO 1918/2006 SHRA SCT020TCU BECMG 2008/2010 VRB02KT", "TAF NWWU 191700Z 1918/2018 11015KT 9999 BKN020 BKN035 PROB40 TEMPO 1921/2006 4000 SHRA BKN012 SCT018TCU", "TAF NWWW 192300Z 2000/2024 16012KT 9999 FEW035 SCT045 BKN070 TEMPO 2000/2006 16015G25KT PROB30 TEMPO 2000/2003 4800 SHRA FEW016TCU BECMG 2006/2009 VRB02KT BECMG 2022/2024 14012KT", "TAF NZAA 192319Z 2000/2106 26018G30KT 9999 -SHRA SCT030 TEMPO 2010/2016 6000 SHRA BKN012 BECMG 2016/2018 22015KT BECMG 2104/2106 12010KT TEMPO 2104/2106 6000 SHRA", "TAF NZCH 192311Z 2000/2106 04015KT CAVOK BECMG 2000/2002 32012KT BECMG 2002/2004 32015G25KT BECMG 2004/2006 25010KT FM201000 21015G25KT 9999 -SHRA SCT025 BECMG 2015/2017 22012KT", "TAF NZFX 192056Z 1921/2021 VRB06KT 9999 FEW020 FEW080 QNH2901INS ", "TAF NZQN 191720Z 1918/2012 02005KT 9999 SCT030 BECMG 1919/1921 19010KT BECMG 1922/2000 25015G25KT BECMG 2006/2008 19015G25KT", "TAF NZWN 192319Z 2000/2106 35018G30KT CAVOK FM201100 18015KT 9999 -SHRA BKN020 BECMG 2012/2014 18025KT", "TAF OBBI 192300Z 2000/2106 VRB03KT CAVOK BECMG 2009/2012 06010KT BECMG 2021/2100 VRB03KT", "TAF OEAB 192300Z 2000/2106 04004KT CAVOK BECMG 2006/2008 20010KT BECMG 2010/2012 9999 FEW020 BECMG 2016/2018 04005KT CAVOK ", "TAF OEAH 192145Z 2000/2106 23008KT 8000 NSC TEMPO 2002/2006 5000 HZ BECMG 2012/2014 09006KT BECMG 2019/2021 20010KT TEMPO 2101/2106 5000 HZ", "TAF OEAO 192300Z 2000/2106 VRB03KT CAVOK BECMG 2006/2008 18010KT 9999 FEW040 BECMG 2018/2020 VRB03KT ", "TAF OEBA 192300Z 2000/2106 20008KT CAVOK BECMG 2006/2008 14014KT 7000 NSC BECMG 2018/2020 20006KT ", "TAF OEBH 192300Z 2000/2106 18006KT CAVOK BECMG 2006/2008 14012KT BECMG 2018/2020 20006KT ", "TAF OEDF 192145Z 2000/2106 VRB03KT 8000 NSC TEMPO 2000/2006 5000 HZ BECMG 2008/2010 07012KT BECMG 2018/2020 18006KT TEMPO 2023/2106 4000 BR PROB30 TEMPO 2101/2105 0800 FG", "TAF OEDR 192145Z 2000/2106 VRB03KT 8000 NSC TEMPO 2000/2006 5000 HZ BECMG 2008/2010 07012KT BECMG 2018/2020 18006KT TEMPO 2023/2106 4000 BR PROB30 TEMPO 2101/2105 0800 FG ", "TAF OEGN 192300Z 2000/2106 VRB03KT 7000 FEW030 BECMG 2006/2008 27012KT BECMG 2018/2020 03006KT ", "TAF OEGS 192300Z 2000/2106 VRB03KT CAVOK BECMG 2006/2008 20010KT BECMG 2018/2020 VRB03KT ", "TAF OEGT 192300Z 2000/2106 34010KT 9999 FEW040 SCT090 PROB30 TEMPO 2000/2006 FEW035CB SCT040 BECMG 2018/2020 8000 BKN040 ", "TAF OEHL 192300Z 2000/2106 25010KT CAVOK BECMG 2016/2018 VRB03KT ", "TAF OEJN 192300Z 2000/2106 VRB03KT 7000 NSC PROB40 TEMPO 2000/2006 3500 HZ BECMG 2008/2010 28010KT CAVOK BECMG 2018/2020 03006KT 7000 NSC", "TAF OEKJ 192300Z 2000/2106 VRB03KT CAVOK BECMG 2006/2008 26008KT BECMG 2018/2020 18006KT ", "TAF OEKM 192300Z 2000/2106 04004KT CAVOK BECMG 2006/2008 20010KT BECMG 2010/2012 9999 FEW020 BECMG 2016/2018 04005KT CAVOK ", "TAF OEMA 192300Z 2000/2106 VRB03KT CAVOK BECMG 2006/2008 13010KT BECMG 2018/2020 VRB03KT BECMG 2103/2105 12008KT", "TAF OENG 192300Z 2000/2106 VRB03KT CAVOK BECMG 2006/2008 10012KT BECMG 2018/2020 27005KT ", "TAF OEPA 192145Z 2000/2106 23010KT CAVOK", "TAF OEPS 200100Z 2001/2107 VRB06KT 9999 SKC QNH3006INS BECMG 2007/2008 21012KT 9999 SKC QNH3003INS BECMG 2011/2012 18006KT 9999 SKC QNH3003INS BECMG 2016/2017 VRB06KT 9999 SKC QNH3005INS TX36/2012Z TN21/2002Z", "TAF OERF 192300Z 2000/2106 18006KT CAVOK BECMG 2006/2008 26012KT BECMG 2018/2020 18004KT ", "TAF OERK 192300Z 2000/2106 16006KT CAVOK BECMG 2003/2005 21008KT BECMG 2012/2014 28006KT BECMG 2020/2022 20006KT", "TAF OERR 192300Z 2000/2106 27005KT 9999 FEW040 BECMG 2005/2007 36010KT BECMG 2018/2020 06005KT ", "TAF OESH 192300Z 2000/2106 14010KT CAVOK BECMG 2006/2008 04012KT BECMG 2100/2102 10008KT ", "TAF OESK 192300Z 2000/2106 VRB03KT CAVOK BECMG 2005/2007 35008KT 9999 FEW040 SCT100 BECMG 2018/2020 09005KT ", "TAF OETB 192300Z 2000/2106 15005KT 9999 SCT040 SCT090 PROB30 TEMPO 2000/2006 FEW035CB BECMG 2010/2014 26010KT PROB30 TEMPO 2015/2100 FEW035CB BECMG 2018/2020 VRB03KT ", "TAF OETF 192300Z 2000/2106 15006KT 7000 FEW030 BECMG 2012/2014 34010KT BECMG 2018/2020 18005KT ", "TAF OETR 192300Z 2000/2106 34008KT 9999 FEW040 SCT090 PROB30 TEMPO 2000/2006 FEW035CB SCT040 BECMG 2006/2008 29010KT ", "TAF OEWD 192300Z 2000/2106 VRB03KT CAVOK BECMG 2006/2008 09010KT BECMG 2100/2102 VRB03KT ", "TAF OEWJ 192300Z 2000/2106 VRB03KT 7000 NSC BECMG 2006/2008 32012KT CAVOK BECMG 2018/2020 06004KT ", "TAF OEYN 192300Z 2000/2106 VRB03KT 7000 FEW040 PROB30 TEMPO 2000/2006 4000 BR BECMG 2006/2008 26012KT CAVOK BECMG 2020/2022 09006KT ", "TAF OIAA 192300Z 2000/2106 16006KT 5000 HZ/BR NSC TEMPO 2000/2005 1000 BR BECMG 2008/2010 7000 BECMG 2020/2022 4000 HZ TEMPO 2100/2105 1000 BR", "TAF OIAW 192300Z 2000/2106 16006KT 4000 HZ NSC TEMPO 2002/2006 2000 HZ BECMG 2007/2009 7000 BECMG 2020/2022 5000 HZ TEMPO 2102/2106 2000 HZ", "TAF OIBB 192310Z 2000/2009 30006KT 8000 NSC TEMPO 2000/2003 4000 HZ/BR", "TAF OIBK 192300Z 2000/2106 29006KT 7000 NSC TEMPO 2000/2005 4000 HZ TEMPO 2005/2010 11010KT BECMG 2020/2022 5000 HZ TEMPO 2100/2105 3000 HZ", "TAF OIBP 192310Z 2000/2009 30006KT 7000 NSC", "TAF OICC 192310Z 2000/2009 10006KT 8000 NSC", "TAF OICI 192300Z 2000/2106 11006KT 8000 NSC TEMPO 2008/2013 24010KT", "TAF OIFM 192300Z 2000/2106 15006KT 8000 NSC TEMPO 2001/2009 3000 HZ", "TAF AMD OIGG 200030Z 2000/2009 VRB03KT 3000 BR FEW030 TEMPO 2000/2004 0800 FG BECMG 2005/2007 7000", "TAF OIIE 192300Z 2000/2106 15008KT 8000 NSC", "TAF OIII 192300Z 2000/2106 15006KT 8000 NSC", "TAF OIIP 192310Z 2000/2009 13006KT 7000 NSC", "TAF OIKB 192300Z 2000/2106 04006KT 3000 BR/HZ NSC TEMPO 2000/2003 0500 BR/FG BECMG 2005/2007 23008KT 7000 BECMG 2018/2020 04006KT 5000 HZ TEMPO 2100/2105 3000 HZ", "TAF OIKK 192300Z 2000/2106 09006KT 8000 NSC", "TAF OIMM 192300Z 2000/2106 16008KT 3000 BR SCT025 TEMPO 2000/2004 1500 BR BKN010 BECMG 2005/2007 10008KT 7000 FEW030", "TAF OING 192310Z 2000/2009 03006KT 7000 FEW025", "TAF OINZ 192310Z 2000/2009 06006KT 7000 FEW025 PROB30 TEMPO 2000/2003 4000 BR", "TAF OISL 192300Z 2000/2106 27006KT 8000 NSC", "TAF OISS 192300Z 2000/2106 21006KT 8000 NSC", "TAF OITL 192310Z 2000/2009 20014KT 8000 NSC", "TAF OITR 192300Z 2000/2106 27006KT 9999 FEW040 BECMG 2005/2007 20008KT TEMPO 2007/2017 22017G27KT FEW030TCU SCT100 PROB30 5000 SA/DU", "TAF OITT 192300Z 2000/2106 05006KT 9999 FEW035 BECMG 2005/2007 24012KT TEMPO 2007/2017 23020G30KT FEW030TCU SCT100 PROB30 4000 SA/DU", "TAF OIYY 192310Z 2000/2009 14006KT 8000 NSC", "TAF OIZH 192300Z 2000/2106 01008KT 7000 NSC TEMPO 2007/2015 02014KT", "TAF OJAI 192300Z 2000/2106 28010KT 5000 HZ FEW030 PROB30 2003/2006 3000 HZ TEMPO 2010/2015 4000 DU PROB40 TEMPO 2020/2106 4000 -RA SCT030 SCT080", "TAF OJAM 192300Z 2000/2106 29008KT 5000 HZ FEW030 PROB30 2003/2006 2000 HZ TEMPO 2010/2015 4000 DU PROB40 TEMPO 2020/2106 4000 -RA SCT030 SCT080", "TAF OJAQ 192300Z 2000/2106 36012KT 5000 HZ SCT080 TEMPO 2012/2018 36018KT 4000 BLDU PROB40 TEMPO 2018/2106 3000 -TSRA FEW030CB SCT080", "TAF OKAS 200000Z 2000/2106 23009KT 9999 SKC QNH2986INS BECMG 2015/2016 18012KT 9999 SKC QNH2987INS TX37/2012Z TN21/2003Z", "TAF OKBK 192300Z 2000/2106 VRB03KT 7000 NSC TEMPO 2000/2004 3000 BR HZ TEMPO 2010/2018 12010KT", "TAF OLBA 192200Z 2000/2106 16006KT 8000 NSC BECMG 2006/2008 23010G20KT SCT030 PROB40 TEMPO 2018/2106 5000 -RA BKN023", "TAF OMAA 192300Z 2000/2106 06006KT 8000 NSC PROB40 2000/2005 4000 HZ PROB30 TEMPO 2001/2005 12005KT 0200 FG VV/// BECMG 2007/2009 32012KT BECMG 2018/2020 06006KT PROB40 2022/2105 4000 HZ PROB30 TEMPO 2100/2105 12005KT 0500 FG VV///", "TAF OMAD 192300Z 2000/2106 06005KT 8000 NSC PROB40 2000/2005 4000 HZ PROB30 TEMPO 2002/2005 12005KT 0800 FG BKN002 BECMG 2006/2008 32010KT BECMG 2018/2020 06005KT PROB40 2023/2105 4000 HZ PROB30 TEMPO 2101/2105 12005KT 1200 BCFG BKN002", "TAF OMAL 192300Z 2000/2106 06006KT 7000 NSC TEMPO 2000/2004 3000 BR BKN005 BECMG 2002/2004 16008KT BECMG 2010/2012 30010KT BECMG 2018/2020 06006KT BECMG 2101/2103 14010KT", "TAF OMDB 192300Z 2000/2106 12005KT 8000 NSC PROB40 2000/2005 0100 FG VV/// BECMG 2008/2010 33010KT BECMG 2016/2018 11005KT PROB30 2022/2100 4000 HZ PROB30 2100/2105 1500 BR", "TAF COR OMDW 192355Z 2000/2106 10005KT 2000 BR NSC PROB40 2000/2005 0100 FG VV/// PROB40 2003/2005 4000 HZ BKN005 BECMG 2004/2006 7000 NSW BECMG 2009/2011 34013KT BECMG 2016/2018 14005KT PROB30 2018/2021 3000 HZ PROB30 2021/2105 0100 FG VV///", "TAF OMFJ 192300Z 2000/2106 29005KT 8000 NSC BECMG 2005/2007 10008KT BECMG 2014/2016 VRB03KT BECMG 2021/2023 29006KT", "TAF OMRK 192300Z 2000/2106 VRB02KT 2000 BR NSC PROB40 2000/2005 0100 FG VV/// PROB30 2003/2006 4000 HZ BECMG 2004/2006 7000 NSW BECMG 2007/2009 34010KT BECMG 2014/2016 VRB02KT PROB30 2018/2021 3000 BR PROB30 2021/2105 0100 FG VV///", "TAF OMSJ 192300Z 2000/2106 14005KT 0800 FG NSC PROB40 2000/2005 0100 FG VV/// PROB30 2003/2006 4000 HZ BECMG 2004/2006 7000 NSW BECMG 2008/2010 34010KT BECMG 2015/2017 12005KT PROB30 2018/2021 3000 HZ PROB30 2021/2105 0100 FG VV///", "TAF OODQ 191700Z 1918/2018 22010KT 8000 NSC PROB30 TEMPO 1922/2003 4500 BR BKN010 BECMG 2010/2012 12010KT", "TAF OOMS 192300Z 2000/2106 VRB02KT 8000 NSC BECMG 2008/2010 02010KT BECMG 2018/2020 23007KT", "TAF OOSA 192340Z 2000/2106 VRB03KT 9999 FEW025 BECMG 2005/2007 19010KT BECMG 2014/2016 VRB03KT", "TAF OOSH 192300Z 2000/2106 VRB02KT 8000 NSC BECMG 2009/2011 05010KT BECMG 2018/2020 VRB02KT", "TAF OPBW 192145Z 2000/2018 36010KT 3500 FU FEW120 TN17/2001Z TX34/2010Z PROB30 TEMPO 2001/2005 05005KT 1500 BR FEW100", "TAF OPDG 192145Z 2000/2018 05010KT 4000 FU FEW120 TN15/2001Z TX32/2010Z", "TAF OPFA 192145Z 2000/2018 13010KT 5000 FU FEW040 SCT100 TX31/2010Z TN18/2001Z TEMPO 2000/2004 09004KT 1500 BR FEW100 FM201400 09004KT 4000 FU SCT100", "TAF OPGD 192130Z 2000/2024 23010KT 5000 HZ SCT030 TEMPO 2000/2004 00000KT 1000 BR SCT025 FM 201700Z 26005KT 3000 FU SCT030", "TAF OPIS 192200Z 2000/2106 09010KT 5000 HZ FEW040 SCT100 TEMPO 1922/2003 09015G25KT 2000 TSRA FEW025CB SCT040 OVC100 TEMPO 2015/2018 12015G25KT 4000 TSRA FEW025CB SCT040 OVC100 TEMPO 2021/2103 12010KT 2000 BR NSC", "TAF OPKC 192130Z 2000/2106 25012KT 6000 SCT030 TEMPO 2000/2005 27005KT 2000 BR SCT020 FM 201500Z 31007KT 5000 HZ NSC TEMPO 2100/2105 04005KT 3000 FU NSC", "TAF OPLA 192145Z 2000/2106 11006KT 4000 FU SCT040 SCT100 TX30/2010Z TN18/2100Z TEMPO 2000/2004 34020G40KT 1000 TSRA FEW030CB SCT040 BKN100 BECMG 2100/2101 00000KT 1000 BR SCT100 BECMG 2104/2105 36004KT 3000 FU SCT100", "TAF OPMT 192145Z 2000/2018 05010KT 2500 FU FEW120 TN16/2001Z TX32/2010Z PROB30 TEMPO 2001/2005 36005KT 1500 BR FEW100", "TAF OPNH 192130Z 2000/2106 18008KT 5000 HZ NSC TEMPO 2000/2005 VRB03KT 2500 FU SCT030 14005KT 4000 HZ NSC TEMPO 2023/2104 VRB03KT 2000 FU SCT030", "TAF OPPS 192130Z 2000/2106 31006KT 4000 FU FEW040 SCT100 FM200300 05006KT 5000 HZ FEW100 BECMG 2014/2018 09006KT 4000 FU FEW100 TEMPO 2020/2024 31004KT 3000 BR BECMG 2102/2106 05006KT 5000 HZ NSC", "TAF OPRK 192145Z 2000/2018 36010KT 4000 FU FEW120 TN16/2001Z TX34/2010Z", "TAF OPSK 192130Z 2000/2024 18007KT 4000 HZ NSC TEMPO 2000/2005 VRB03KT 2500 FU SCT030 FM 201900Z 09005KT 3000 FU NSC", "TAF OPST 192145Z 2000/2106 13008KT 4000 FU FEW040 SCT100 TX26/2010Z TN20/2001Z TEMPO 2000/2004 05020G35KT 1500 TSRA FEW030CB BKN040 OVC100", "TAF ORBI 192200Z 2000/2024 09006KT 8000 NSC", "TAF ORER 192200Z 2000/2024 09002KT 7000 FEW040 BECMG 2006/2008 18010KT FEW040 BKN100 PROB40 2010/2015 18010G20KT 4000 BLDU", "TAF ORMM 191600Z 1918/2018 VRB03KT CAVOK BECMG 2009/2012 16005KT ", "TAF ORNI 192200Z 2000/2024 11005KT 5000 DU NSC", "TAF ORSU 192300Z 2000/2024 30006KT CAVOK BECMG 2008/2010 21015KT 7000 FEW045 BKN080 BECMG 2015/2017 30006KT CAVOK ", "TAF OSAP 192200Z 2000/2024 30006KT 9999 FEW030 SCT100 TEMPO 2012/2018 27015KT", "TAF OSDI 192200Z 2000/2106 25010KT CAVOK TEMPO 2000/2018 25010G25KT 8000 FEW030", "TAF OSLK 192200Z 2000/2024 16008KT 9999 SCT030 BECMG 2010/2012 22015G25KT 5000 SHRA FEW025CB BKN030", "TAF OTBD 192303Z 2000/2106 VRB02KT 8000 NSC PROB30 TEMPO 2000/2005 5000 HZ BECMG 2004/2006 33004KT BECMG 2008/2010 05010KT BECMG 2019/2021 11006KT", "TAF OTBH 200000Z 2000/2106 17006KT 9999 SKC QNH2983INS BECMG 2003/2004 VRB06KT 8000 BR SKC QNH2983INS BECMG 2006/2007 VRB06KT 9999 NSW SKC QNH2985INS BECMG 2012/2013 09009KT 9999 SKC QNH2985INS BECMG 2016/2017 08006KT 9999 SKC QNH2987INS TX37/2011Z TN22/2003Z", "TAF OTHH 191702Z 1918/2024 10005KT CAVOK TEMPO 1918/2006 VRB03KT TEMPO 1922/2006 27005KT PROB30 TEMPO 2002/2006 4900 HZ FEW010 BECMG 2004/2006 04008KT BECMG 2016/2018 10006KT", "PAAQ 192339Z 2000/2024 VRB03KT P6SM OVC035 FM201400 15006KT P6SM -RA FEW015 OVC025", "PABE 192340Z 2000/2024 08010KT P6SM OVC120 FM200200 12012G20KT P6SM -RA OVC025 FM200600 18015G25KT P6SM VCSH SCT025 BKN040 FM201000 20011KT P6SM -SHRA SCT025 BKN040", "TAF AMD PABI 200004Z 2000/2104 VRB06KT 9999 SCT012 SCT030 BKN200 QNH2948INS BECMG 2000/2002 VRB06KT 9999 BKN012 BKN030 620307 QNH2950INS BECMG 2002/2004 VRB06KT 8000 BR BKN008 OVC010 510013 QNH2952INS BECMG 2008/2010 VRB06KT 9999 NSW FEW060 SCT090 BKN120 510013 QNH2958INS BECMG 2103/2104 VRB06KT 9999 SCT008 SCT015 BKN023 510013 QNH2955INS TX03/2022Z TNM02/2013Z", "PABR 200100Z 2001/2024 09010KT P6SM BKN025 FM200600 09018KT 6SM BR OVC015 FM201400 09022KT 1 1/2SM BR BLSN OVC007", "PABT 192342Z 2000/2024 34003KT P6SM SKC FM200900 VRB04KT P6SM BKN060 FM201400 36004KT 2SM -SHSN BR BKN015 OVC025", "PACD 192340Z 2000/2024 28020G28KT P6SM VCSH SCT025 BKN035 FM200600 24015KT P6SM VCSH SCT025 SCT035 FM201800 23015G23KT P6SM -SHRA SCT025 BKN035", "PACV 200103Z 2001/2024 10007KT P6SM FEW008 OVC025 TEMPO 2001/2003 3SM -SHRA BKN008 FM200300 VRB06KT P6SM -RA OVC025", "PADL 192340Z 2000/2024 13011G20KT P6SM -RA BKN015 OVC025 FM200200 12012G22KT 4SM -RA BR SCT007 OVC015 FM200700 20012G20KT P6SM SCT025 BKN040 FM202000 20015G22KT P6SM -SHRA BKN025 OVC035", "PADQ 192339Z 2000/2024 VRB06KT P6SM FEW030 BKN100 FM200300 16008KT P6SM -RA OVC030 FM200600 16009KT 4SM -RA BR FEW007 OVC015 FM201300 26009KT P6SM VCSH FEW015 BKN030", "PADU 192340Z 2000/2024 25012G22KT P6SM VCSH FEW030 BKN045 FM200500 24012KT P6SM VCSH BKN040 FM201600 24012G20KT P6SM -SHRA SCT030 OVC040", "TAF PAED 192103Z 1921/2103 17009KT 9999 SCT030 BKN060 620604 QNH2952INS BECMG 2003/2004 20009KT 9999 VCSH SCT030 BKN050 620506 QNH2960INS BECMG 2009/2010 19006KT 9000 -SHRA SCT025 BKN030 OVC050 620309 QNH2955INS BECMG 2017/2018 22012KT 8000 -SHRA BR BKN022 OVC040 620229 QNH2955INS TX08/1923Z TN01/2014Z", "TAF AMD PAEI 192344Z 1923/2104 VRB06KT 6000 BCFG FEW002 BKN030 QNH2952INS TEMPO 1923/2001 0400 FZFG VV002 BECMG 2001/2002 VRB06KT 9999 NSW SCT007 BKN030 QNH2954INS BECMG 2003/2004 VRB06KT 9000 BR VCSH FEW007 OVC022 QNH2954INS BECMG 2011/2012 VRB06KT 6000 BCFG FEW005 BKN060 620605 QNH2952INS BECMG 2021/2022 VRB06KT 9999 NSW FEW030 OVC055 620555 QNH2991INS BECMG 2100/2101 VRB06KT 9999 VCSH FEW003 OVC020 620209 QNH2991INS TX01/2000Z TNM04/2013Z", "PAEN 192339Z 2000/2024 23008KT P6SM FEW030 FM200400 17007KT P6SM FEW035 BKN050 FM200700 15008KT 6SM -RA OVC025 FM201900 20012KT P6SM FEW025 BKN050", "PAFA 200100Z 2001/2106 00000KT 1/4SM FZFG VV002 FM200600 00000KT 1SM BR BKN002 OVC030 FM200900 05003KT 3SM -SN BR SCT002 BKN025 FM202100 00000KT 5SM -RASN BR BKN025", "TAF PAFB 192200Z 1922/2104 VRB03KT 0800 FZFG VV001 620001 QNH2953INS TEMPO 2001/2003 2400 BR SCT002 BKN030 620302 BECMG 2007/2008 VRB04KT 9999 VCSH SCT008 BKN015 BKN030 620308 QNH2955INS TEMPO 2011/2015 9000 -SN BR BKN008 OVC015 620006 BECMG 2015/2016 VRB04KT 9999 NSW SCT015 BKN035 620357 QNH2954INS TXM01/2000Z TNM04/2014Z", "PAGA 192342Z 2000/2024 VRB04KT P6SM VCSH OVC005 FM200300 VRB04KT P6SM SCT005 OVC025 FM201000 12012G17KT P6SM VCSH BKN015 OVC040 FM201600 12012G17KT 2SM -SHSN BR BKN007 OVC015 AMD LTD TO CLD VIS WX", "PAGK 192339Z 2000/2024 13006KT P6SM FEW007 OVC100 FM200900 17010G18KT P6SM SCT020 OVC035", "PAGS 192336Z 2000/2024 14007KT P6SM -SHRA BKN035 OVC050 WS020/24040KT TEMPO 2000/2003 5SM -SHRA BR BKN025 OVC040 FM200800 15007KT P6SM -SHRA SCT025 OVC035 WS020/24025KT AMD LTD TO CLD VIS AND WIND", "PAGY 192336Z 2000/2024 21028G45KT P6SM -SHRA OVC050 FM201500 21020G30KT P6SM -SHRA SCT025 OVC050 AMD LTD TO CLD VIS AND WIND", "PAHN 192336Z 2000/2024 10016G35KT 5SM -SHRA BR SCT012 BKN040 OVC050 FM200500 11020G33KT P6SM -SHRA SCT015 BKN025 OVC050 FM201000 10010G20KT P6SM -SHRA BKN025 OVC035 AMD LTD TO CLD VIS AND WIND", "PAHO 192339Z 2000/2024 23014KT P6SM SCT025 FM200600 18008KT P6SM -RA OVC025 FM201600 25015KT P6SM FEW025 BKN040", "PAIL 192340Z 2000/2024 10008KT P6SM VCSH OVC025 FM200500 10008KT 6SM -RA BR SCT015 OVC025 FM200800 VRB06KT 3SM -RA BR SCT007 OVC015 FM201200 25008KT P6SM VCSH SCT020 BKN035", "PAJN 192336Z 2000/2024 19010G22KT 6SM -SHRA BR FEW009 BKN035 OVC060 WS020/24025KT FM200300 11013KT P6SM -SHRA SCT030 OVC040 WS020/24025KT FM200900 11006KT P6SM -SHRA SCT030 OVC050", "PAKN 192340Z 2000/2024 15012KT P6SM SCT025 TEMPO 2000/2003 BKN025 FM200300 15012G20KT 6SM -RA SCT015 OVC025 FM200900 22010G20KT P6SM -SHRA BKN025 OVC035", "PAKT 192336Z 2000/2024 12012KT P6SM -SHRA SCT025 BKN030 OVC040 WS020/19030KT TEMPO 2000/2003 5SM -SHRA BR BKN025 OVC035 FM200300 14007KT P6SM -SHRA SCT025 OVC050 AMD LTD TO CLD VIS AND WIND 2006/2015", "PAKW 200004Z 2000/2024 20007KT P6SM -SHRA SCT025 OVC045 WS020/24025KT TEMPO 2000/2004 1/2SM SHRA FG SCT006 BKN012 OVC017 FM200600 20003KT P6SM -SHRA SCT025 OVC040 AMD LTD TO CLD VIS AND WIND", "PAMC 200101Z 2001/2024 00000KT P6SM OVC023 TEMPO 2001/2005 6SM BR BKN015 FM200600 13005KT 5SM -SN BR OVC025 FM200900 16007KT 3SM -SN BR BKN015 OVC025 FM202100 16006KT P6SM SCT015 BKN025", "PANC 192339Z 2000/2106 16007KT P6SM VCSH SCT035 BKN070 TEMPO 2000/2004 BKN035 FM200900 16010KT 6SM -RA SCT020 OVC030", "PAOM 192342Z 2000/2024 09020G25KT P6SM OVC010 FM200900 12015G22KT P6SM VCSH BKN015 OVC025 FM201500 15008G13KT 2SM -SHRA BR BKN015 OVC025", "PAOR 192342Z 2000/2024 VRB03KT 4SM BR BKN004 OVC008 FM202100 00000KT P6SM BKN025", "PAOT 192342Z 2000/2024 11020KT P6SM SKC FM201000 10017KT P6SM SCT025 BKN050", "PAPG 192336Z 2000/2024 22010G20KT P6SM -SHRA SCT015 BKN035 OVC040 WS020/19025KT FM200500 20005KT P6SM -SHRA SCT025 OVC040 AMD LTD TO CLD VIS AND WIND 2006/2015", "PAQT 192343Z 2000/2024 09012KT P6SM VCSH OVC008 FM200600 07015KT 5SM BR OVC007 FM201400 08022KT 1 1/2SM BR BLSN BKN007", "PASC 192342Z 2000/2024 09012KT P6SM VCSH OVC007 FM200600 07015KT 5SM BR OVC007 FM201400 08022KT 1 1/2SM BR BLSN BKN007", "PASD 192340Z 2000/2024 19025G35KT 2SM -RA BR SCT007 OVC015 FM200100 27012G20KT P6SM VCSH SCT025 BKN035 FM200800 23009KT P6SM SCT025 FM202000 21012G22KT P6SM -SHRA BKN025", "PASI 192336Z 2000/2024 22015G28KT 5SM -SHRA BR SCT025 OVC050 WS020/24040KT FM200300 21014KT P6SM -SHRA SCT025 OVC045 WS020/25030KT FM200900 21009KT P6SM -SHRA SCT035 OVC050", "PASN 192340Z 2000/2024 25018G27KT P6SM VCSH SCT025 BKN035 TEMPO 2000/2003 5SM -RA BKN025 FM200300 23018G27KT P6SM -SHRA BKN025", "TAF PASY 192200Z 1922/2104 24030G40KT 9999 FEW055 530005 QNH2936INS BECMG 2012/2013 24025G35KT 9999 FEW030 SCT050 BKN060 620604 510003 QNH2960INS BECMG 2100/2101 25020G30KT 9999 BKN030 OVC040 620305 510003 QNH2988INS TX07/2022Z TN05/2005Z LIMITED METWATCH 2001 TIL 2009", "PATA 192342Z 2000/2024 VRB03KT P6SM SCT050 FM200600 08004KT P6SM BKN025 FM201400 08005KT 3SM -SHSN BR BKN015 AMD NOT SKED", "PATK 192339Z 2000/2024 20006KT P6SM BKN060 FM200400 VRB06KT P6SM VCSH FEW015 OVC025 FM201200 VRB03KT 6SM -RA BR OVC015", "PAUN 192342Z 2000/2024 07020G27KT P6SM SCT100 FM200900 12018KT P6SM VCSH SCT035 OVC050", "PAVD 192339Z 2000/2024 VRB04KT P6SM OVC100 FM200400 VRB02KT 6SM -RA OVC050 FM200800 VRB02KT 6SM -RA OVC025", "PAWG 192336Z 2000/2024 12010KT P6SM -SHRA FEW010 BKN030 OVC060 WS020/22030KT TEMPO 2000/2003 12010G20KT FM200300 18010KT P6SM -SHRA FEW015 OVC050 FM200900 21005KT P6SM -SHRA OVC050 AMD LTD TO CLD VIS AND WIND 2006/2015", "PAYA 192336Z 2000/2024 20015G25KT 6SM -SHRA BR FEW007 OVC017 WS020/24040KT TEMPO 2000/2004 2SM -SHRA BR BKN004 OVC012 FM200400 22015KT 6SM -SHRA BR BKN015 OVC025 WS020/26030KT FM200700 22009KT P6SM -SHRA SCT015 OVC025 FM201500 16004KT P6SM -RA OVC025 AMD LTD TO CLD VIS AND WIND", "PGRO 192333Z 2000/2024 09014KT P6SM VCSH SCT013 SCT040 TEMPO 2000/2004 BKN013 BKN040", "PGSN 192333Z 2000/2024 09015KT P6SM VCSH SCT020 SCT040", "TAF PGUA 191800Z 1918/2024 10009KT 9999 VCSH SCT014 BKN140 BKN220 QNH2985INS TEMPO 1918/2008 09012G20KT 6000 SHRA BKN012 TEMPO 2008/2016 09010G18KT 3200 SHRA VCTS BKN012CB TX29/2003Z TN24/1918Z", "PGUM 192333Z 2000/2106 09015KT P6SM VCSH SCT025 SCT040 FM200800 07010KT P6SM VCSH SCT020 SCT040 FM202200 07015KT P6SM VCSH SCT020 SCT040 BKN120", "PGWT 192333Z 2000/2024 09014KT P6SM VCSH SCT018 SCT040", "TAF PHHI 192300Z 1923/2105 32012KT 9999 SCT010 BKN025 BKN040 QNH2988INS TEMPO 1923/2005 35012G18KT 1600 SHRA FEW006 BKN010 BKN025 BECMG 2005/2006 02010G15KT 9999 SCT010 BKN015 BKN030 QNH2992INS TEMPO 2006/2012 01015G25KT 3200 -SHRA FEW005 BKN010 BKN030 BECMG 2012/2013 36012KT 4800 BR SCT015 BKN030 QNH2994INS TX28/1923Z TN18/2015Z", "PHJH 192336Z 2000/2024 01010KT P6SM FEW030 SCT045 FM200600 02008KT P6SM SCT035 SCT050 FM201800 08008KT P6SM SCT030 SCT040", "PHJR 192336Z 2000/2024 23009G12KT P6SM VCSH SCT030 OVC060 FM201200 02018G23KT P6SM VCSH SCT035 BKN050 FM201800 08010G15KT P6SM FEW030 SCT050", "PHKO 192336Z 2000/2024 27008KT P6SM SCT050 FM200500 VRB05KT P6SM FEW050 FM202000 25009KT P6SM SCT060", "PHLI 192336Z 2000/2024 35015G20KT P6SM VCSH SCT020 BKN030 OVC040 FM200600 36010G18KT P6SM VCSH BKN025 FM201800 36008G12KT P6SM VCSH BKN035 FM202100 04007KT P6SM VCSH BKN040", "PHMK 192336Z 2000/2024 35010KT P6SM FEW025 SCT040 FM200500 36009KT P6SM VCSH SCT020 BKN040 FM200900 01012G18KT P6SM VCSH SCT030 BKN040 FM201800 36008KT P6SM VCSH SCT035 BKN040", "TAF PHNG 1921/2021 03006KT 9999 FEW030 QNH2987INS TEMPO 2003/2005 02010G18KT 8000 -SHRA BKN032 BKN060 BECMG 2008/2010 03010KT 9999 SCT028 BKN045 QNH2992INS FM201500 VRB05KT 9999 FEW030 SCT035 QNH2990INS T28/1923Z T24/2011Z", "PHNL 192336Z 2000/2106 20010KT P6SM VCSH SCT030 BKN045 FM200600 01008KT P6SM VCSH SCT025 BKN030 FM201800 08008KT P6SM VCSH SCT030 BKN040 FM210400 16010KT P6SM VCSH SCT025 BKN045", "PHNY 192336Z 2000/2024 27010KT P6SM VCSH BKN025 BKN040 FM200700 01009KT P6SM VCSH SCT025 BKN035 FM201600 08005KT P6SM SCT030 BKN045", "PHOG 192336Z 2000/2024 36010KT P6SM FEW030 SCT045 FM200600 01008KT P6SM SCT035 SCT050 FM201800 08010KT P6SM SCT030 SCT040", "PHTO 192336Z 2000/2024 02008KT P6SM SCT030 SCT045 FM200600 23005KT P6SM VCSH SCT025 BKN045 FM201500 29006KT P6SM VCSH SCT025 BKN035 FM202100 11010KT P6SM SCT030 BKN045", "PKMJ 192333Z 2000/2024 07011KT P6SM VCSH FEW015 SCT050", "PKWA 192333Z 2000/2024 08014KT P6SM VCSH SCT020 SCT050", "TAF PLCH 192317Z 2000/2024 11008KT 9999 FEW020", "PMDY 192336Z 2000/2024 10015G22KT P6SM FEW030 SCT050", "PTKK 192333Z 2000/2024 14011KT P6SM -RA VCSH SCT012 OVC100 TEMPO 2000/2004 VRB12G22KT 4SM SHRA BKN012 OVC100 FM200400 14011KT P6SM VCSH SCT012 BKN120 TEMPO 2004/2008 VRB12G22KT 4SM SHRA BKN012 OVC100", "PTPN 192333Z 2000/2024 09011KT P6SM VCSH SCT018 BKN130 TEMPO 2000/2004 5SM -SHRA BKN017 OVC120", "PTRO 192333Z 2000/2024 07011KT P6SM VCSH SCT015 BKN110", "PTSA 192333Z 2000/2024 09011KT P6SM VCSH SCT020 SCT040 SCT120", "PTYA 192333Z 2000/2024 07008KT P6SM VCSH SCT016 SCT040", "TAF PWAK 192200Z 1922/2104 08020KT 9999 FEW027 510042 QNH2994INS TX31/2004Z TN26/2015Z FOR MIL USE ONLY", "TAF RCFN 192300Z 2000/2024 02008KT 9999 FEW015 BKN032 TEMPO 2003/2009 05013KT TEMPO 2018/2024 35005KT", "TAF RCKH 192300Z 2000/2106 30005KT 9999 FEW015 BKN032 TEMPO 2002/2007 25008KT TEMPO 2007/2013 36008KT TEMPO 2018/2024 05005KT 5000 HZ", "TAF RCMQ 192300Z 2000/2024 01004KT 9999 FEW012 BKN040 BKN080 TX26/2005Z TN19/2021Z BECMG 2002/2005 34008KT TEMPO 2006/2011 FEW012 SCT050 BECMG 2012/2015 36004KT FEW012 SCT050 TEMPO 2018/2023 7000", "TAF RCNN 192300Z 2000/2024 02004KT 9999 FEW012 BKN080 TX30/2005Z TN21/2020Z BECMG 2001/2004 30008KT FEW012 SCT060 BECMG 2010/2013 02004KT FEW012 BKN060 BECMG 2014/2017 FEW012 SCT060 BECMG 2020/2023 7000 FEW012 BKN060", "TAF RCSS 192300Z 2000/2024 08008KT 9999 FEW015 BKN032 TEMPO 2003/2009 09013KT TEMPO 2018/2024 12005KT", "TAF RCTP 192300Z 2000/2106 05015KT 9999 FEW015 BKN032 TEMPO 2002/2008 04020G30KT TEMPO 2018/2024 07010KT", "TAF RJAA 192305Z 2000/2106 01010KT 9999 FEW030 BECMG 2006/2008 16006KT BECMG 2015/2018 29005KT BECMG 2021/2100 20008KT", "TAF RJAH 192305Z 2000/2106 06005KT 9999 FEW030 BECMG 2004/2006 16005KT BECMG 2012/2015 36006KT BECMG 2021/2100 20010KT", "TAF RJBB 192306Z 2000/2106 04009KT 9999 FEW025 BECMG 2100/2103 23009KT", "TAF RJCB 192306Z 2000/2106 16005KT 9999 FEW040 BECMG 2000/2002 30007KT BECMG 2006/2008 16005KT BECMG 2100/2103 25005KT", "TAF RJCC 192305Z 2000/2106 18005KT 9999 FEW030 SCT050 BECMG 2001/2003 27010KT BECMG 2006/2008 16006KT", "TAF RJCH 192309Z 2000/2106 27020KT 9999 FEW020 SCT040 TEMPO 2001/2008 27022G32KT BECMG 2015/2018 25009KT", "TAF RJCK 192311Z 2000/2106 24009KT 9999 FEW040 BECMG 2015/2018 28005KT BECMG 2100/2103 21010KT", "TAF RJCM 192312Z 2000/2106 21005KT 9999 FEW040", "TAF RJEC 192308Z 2000/2106 19010KT 9999 FEW015 SCT030 BECMG 2000/2002 26011KT BECMG 2006/2008 17007KT", "TAF RJFF 192308Z 2000/2106 12004KT 9999 FEW030 BECMG 2000/2002 05008KT BECMG 2010/2012 14004KT BECMG 2100/2103 31007KT", "TAF RJFK 192305Z 2000/2106 10010KT 9999 FEW030 BECMG 2012/2015 04008KT BECMG 2021/2100 11008KT", "TAF RJFM 192306Z 2000/2106 04013KT 9999 FEW030 BECMG 2012/2015 27009KT BECMG 2100/2103 10011KT", "TAF RJFO 192308Z 2000/2106 04010KT 9999 FEW030 BECMG 2009/2011 22006KT", "TAF RJFR 192305Z 2000/2106 06008KT 9999 FEW030 BECMG 2001/2003 13007KT", "TAF RJFS 192308Z 2000/2106 03010KT 9999 FEW030 BECMG 2100/2103 24003KT", "TAF RJFT 192306Z 2000/2106 06010KT 9999 FEW030 BECMG 2100/2103 27005KT", "TAF RJFU 192309Z 2000/2106 03010KT 9999 FEW030 BECMG 2010/2012 13006KT BECMG 2100/2103 32005KT", "TAF RJGG 192305Z 2000/2106 33008KT 9999 FEW030 BECMG 2103/2106 16008KT", "TAF RJNK 192306Z 2000/2106 36006KT 9999 FEW030 BECMG 2010/2012 20008KT", "TAF RJNS 192305Z 2000/2106 19006KT 9999 FEW030 BECMG 2010/2012 31005KT", "TAF RJNT 192305Z 2000/2106 24004KT 9999 FEW030 BECMG 2000/2002 36006KT BECMG 2007/2009 16004KT BECMG 2100/2103 30006KT", "TAF RJOA 192306Z 2000/2106 12005KT 9999 FEW025 BECMG 2012/2015 34006KT", "TAF RJOB 192306Z 2000/2106 05004KT 9999 FEW030 BECMG 2100/2103 20006KT", "TAF RJOC 192307Z 2000/2106 18004KT 9999 FEW030 BECMG 2001/2003 04006KT BECMG 2010/2012 18006KT BECMG 2100/2103 26015KT", "TAF RJOH 192308Z 2000/2106 19004KT 9999 FEW025 TEMPO 2000/2001 3000 BR BCFG FEW000 BKN004 BKN008 BECMG 2001/2003 05006KT BECMG 2010/2012 19005KT BECMG 2100/2103 26016KT", "TAF RJOI 1921/2021 31008KT 9999 FEW030 512309 513208 QNH3028INS BECMG 2002/2004 06010KT 9999 FEW030 512609 513505 QNH3030INS FM200600 34008KT 9999 FEW030 FEW050 512509 513407 QNH3029INS BECMG 2009/2011 04006KT 9999 FEW030 FEW050 512509 513505 QNH3028INS BECMG 2016/2018 35008KT 9999 FEW030 512309 513208 QNH3030INS T11/1921Z 22/2005Z", "TAF RJOK 192307Z 2000/2106 35010KT 9999 FEW030 BECMG 2000/2002 20009KT BECMG 2006/2008 35009KT BECMG 2100/2103 19007KT", "TAF RJOM 192309Z 2000/2106 06004KT 9999 FEW030 BECMG 2000/2002 36008KT BECMG 2010/2012 12006KT BECMG 2100/2103 33006KT", "TAF RJOO 192306Z 2000/2106 34007KT 9999 FEW030 BECMG 2100/2103 22007KT", "TAF RJOT 192309Z 2000/2106 06006KT 9999 FEW030", "TAF RJSA 192305Z 2000/2106 27015KT 9999 FEW020 BKN040 TEMPO 2000/2007 27015G25KT BECMG 2008/2010 21010KT", "TAF RJSF 192305Z 2000/2106 34013KT 9999 FEW030 BECMG 2009/2011 20005KT", "TAF RJSI 192305Z 2000/2106 02004KT 9999 FEW020 SCT040 BECMG 2000/2002 29010KT BECMG 2009/2011 02004KT BECMG 2100/2103 24005KT", "TAF RJSK 192307Z 2000/2106 13004KT 9999 FEW020 SCT040 BECMG 2000/2002 30013KT TEMPO 2002/2006 30015G25KT BECMG 2015/2018 13004KT BECMG 2100/2103 24010KT", "TAF RJSN 192305Z 2000/2106 28012KT 9999 FEW030 BKN050 BECMG 2008/2010 20008KT BECMG 2018/2021 17008KT BECMG 2100/2103 24010KT", "TAF RJSS 192306Z 2000/2106 24004KT 9999 FEW030 BECMG 2000/2002 32013KT BECMG 2009/2011 24005KT BECMG 2100/2103 15008KT", "TAF RJTT 192305Z 2000/2106 03008KT 9999 FEW030 BECMG 2002/2004 20008KT BECMG 2012/2015 36004KT BECMG 2100/2103 18012KT", "TAF RJTY 192100Z 1921/2103 VRB06KT 9999 SKC QNH3028INS BECMG 2012/2013 VRB06KT 9999 FEW030 QNH3033INS TX18/2005Z TN07/1921Z", "TAF RKJB 192300Z 2000/2106 07005KT CAVOK TX20/2005Z TN08/2021Z TX20/2104Z BECMG 2005/2006 35010KT BECMG 2007/2008 05006KT BECMG 2012/2013 11005KT 4000 BR NSC BECMG 2021/2022 7000 NSW SCT030 BKN200 BECMG 2105/2106 35008KT", "TAF RKJK 200000Z 2000/2106 12009KT 9999 SKC QNH3041INS BECMG 2003/2004 01009KT 9999 SKC QNH3038INS BECMG 2014/2015 12009KT 9999 SKC QNH3034INS BECMG 2018/2019 12009KT 8000 BR SKC QNH3034INS TEMPO 2021/2024 4800 BR TX18/2006Z TN06/2022Z", "TAF RKNY 192300Z 2000/2106 25008KT CAVOK TX20/2005Z TN12/2021Z TX19/2105Z BECMG 2004/2006 17006KT BECMG 2007/2009 25010KT BECMG 2011/2012 25015G25KT BECMG 2023/2101 25008KT", "TAF RKPC 192300Z 2000/2106 08008KT CAVOK TX19/2005Z TN14/2019Z TX21/2105Z BECMG 2002/2003 07015G25KT BECMG 2009/2010 10007KT BECMG 2102/2103 07015G25KT 9999 SCT030 BKN150", "TAF RKPK 192300Z 2000/2106 03006KT CAVOK TX22/2006Z TN08/2021Z BECMG 2003/2004 17006KT BECMG 2011/2012 03006KT", "TAF RKSG 191900Z 1919/2101 VRB06KT 9999 SKC QNH3032INS TX17/2006Z TN03/1921Z", "TAF RKSI 192300Z 2000/2106 09006KT CAVOK TX17/2005Z TN11/2021Z TX17/2105Z BECMG 2002/2004 28007KT BECMG 2015/2017 07006KT 6000 NSC BECMG 2018/2020 10006KT 4000 BR FEW015 BECMG 2021/2023 15006KT 6000 NSW BECMG 2101/2103 27007KT CAVOK", "TAF RKSM 192300Z 2000/2106 27006KT 9999 SCT030 SCT200 TX18/2006Z TN06/2021Z", "TAF RKSO 192100Z 1921/2103 VRB06KT 9999 SKC QNH3040INS BECMG 2002/2003 30009KT 9999 SKC QNH3036INS TX17/2006Z TN03/1922Z", "TAF RKSS 192300Z 2000/2106 14005KT CAVOK TX18/2005Z TN06/2021Z TX19/2105Z BECMG 2001/2002 27006KT BECMG 2012/2014 06005KT 6000 NSC BECMG 2018/2020 4000 BR FEW012 BECMG 2021/2023 6000 NSW BECMG 2101/2103 27006KT CAVOK", "TAF RKTN 192300Z 2000/2106 30006KT 9999 SCT030 SCT200 TN05/2021Z TX22/2106Z", "TAF RKTU 192300Z 2000/2106 36006KT CAVOK TX20/2006Z TN05/2021Z", "TAF ROAH 192306Z 2000/2106 06020KT 9999 FEW030 TEMPO 2000/2106 06022G32KT", "TAF RODN 200000Z 2000/2106 03015G25KT 9999 SCT050 QNH3002INS TEMPO 2002/2008 03020G28KT BECMG 2011/2012 05012G18KT 9999 BKN020 QNH3003INS BECMG 2023/2024 09015G25KT 9999 SCT015 BKN020 QNH2998INS TEMPO 2104/2106 BKN015 TX26/2004Z TN20/2018Z", "TAF ROIG 192307Z 2000/2106 04020KT 9999 FEW025 BKN035", "TAF ROTM 1921/2021 03012G22KT 9999 BKN040 BKN060 510503 QNH3000INS BECMG 1923/2001 04013G20KT 9999 SCT040 510503 QNH2999INS TEMPO 2000/2006 04015G25KT 9999 BKN030 BECMG 2015/2017 08013G22KT 9999 BKN025 BKN050 510503 QNH2997INS TEMPO 2015/2020 08010KT 9999 SCT025 T25/2005Z T22/2018Z", "TAF RPLB 192300Z 2000/2024 07006KT 9999 FEW018 BKN080 OVC300 TX31/2006Z TN24/2021Z TEMPO 2000/2006 06012KT 9000 -SHRA FEW016CB SCT018 OVC080", "TAF RPLC 192300Z 2000/2106 25008KT 9999 SCT020 BKN100 TX33/2006Z TN25/2021Z TEMPO 2000/2006 35010KT 5000 -TSRA FEW015CB SCT020 BKN100", "TAF RPLI 192300Z 2000/2024 02004KT 9999 FEW018 SCT090 BKN280 TEMPO 2000/2006 36008KT 6000 TSRA FEW017CB SCT018 BKN090 TEMPO 2006/2012 02010KT 5000 SHRA SCT018 OVC090", "TAF RPLL 192300Z 2000/2106 14006KT 9999 FEW023 BKN100 TX33/2005Z TN25/2019Z TEMPO 2000/2006 VRB04KT 8000 -SHRA SCT022CB SCT023 OVC090 TEMPO 2006/2012 33010KT 8000 -RA SCT022 OVC090", "TAF RPMD 192300Z 2000/2024 19006KT 9999 FEW016 SCT290 TEMPO 2000/2006 FEW015CB FEW016 BKN090", "TAF RPMR 192300Z 2000/2024 13005KT 9999 FEW018 SCT080 TEMPO 2000/2006 06007KT 8000 -SHRA FEW017CB SCT018 OVC080", "TAF RPMZ 192300Z 2000/2024 07005KT 9999 FEW017 SCT090 BKN300 TEMPO 2000/2006 18008KT -SHRA FEW016CB FEW017 BKN090", "TAF RPVD 192300Z 2000/2024 22006KT 9999 FEW015 SCT070 BKN220 TEMPO 2000/2006 11008KT 8000 -SHRA SCT015 OVC070", "TAF RPVM 192300Z 2000/2106 05004KT 9999 FEW020 BKN300 TEMPO 2000/2006 16005KT FEW018CB BKN100 TEMPO 2006/2012 FEW018CB BKN250", "TAF RPVP 192300Z 2000/2024 27006KT 9999 FEW020 SCT080 BKN240 TEMPO 2000/2006 12008KT -SHRA FEW017CB SCT019 BKN080", "TAF SAAR 192300Z 2000/2024 16005KT CAVOK TX27/2020Z TN14/2010Z BECMG 2006/2007 4000 BR SCT025 BECMG 2011/2013 20010KT 9999 BKN030", "TAF SABE 192300Z 2000/2024 11015KT 9999 SCT020 BKN070 TX21/1919Z TN16/2010Z PROB40 TEMPO 2002/2006 VRB05KT 7000 -TSRA SCT020 BKN040 FEW050CB BECMG 2005/2007 VRB03KT 8000 -DZ SCT015 BKN0030 BECMG 2010/2013 03010KT 9999 NSW SCT030 BKN070", "TAF SACO 192300Z 2000/2024 VRB03KT 4000 DZ BKN010 OVC020 TX25/2018Z TN12/2009Z TEMPO 2000/2004 3000 TSRA BKN008 BKN015 FEW040CB BECMG 2005/2007 18005KT 1200 -RADZ BR BKN003 OVC010 PROB30 2010/2012 5000 TSRA BKN005 BKN010 FEW040CB BECMG 2013/2015 18015KT 9999 NSW BKN030 FEW040TCU BECMG 2020/2022 CAVOK", "TAF SADF 192300Z 2000/2024 09010KT 9999 SCT025 SCT100 TX24/2018Z TN16/2010Z BECMG 2003/2005 12005KT 8000 RA SCT020 OVC060 TEMPO 2004/2008 5000 TSRA BKN020 FEW050CB OVC050 BECMG 2009/2011 8000 DZ BKN010 BECMG 2013/2015 09005KT 9999 NSW BKN020", "TAF SAEZ 192300Z 2000/2024 09008KT CAVOK TX25/2018Z TN15/2009Z BECMG 2001/2003 SCT050 BECMG 2003/2005 VRB03KT 8000 SHRA SCT020 FEW040TCU PROB30 TEMPO 2007/2010 5000 TSRA BKN010 BKN020 FEW045CB BECMG 2012/2014 7000 BKN010 OVC030 FEW040TCU BECMG 2013/2015 18005KT 9999 BKN040 FEW045TCU", "TAF SAME 192300Z 2000/2024 20010KT 7000 -RA BKN030 FEW050CB TX26/2019Z TN09/2010Z BECMG 2001/2004 VRB03KT 9999 NSW BKN040 BECMG 2014/2016 05008KT CAVOK", "TAF SANR 192300Z 2000/2024 18005KT 3000 DZ BR OVC010 TX30/2018Z TN15/2010Z TEMPO 2002/2007 2000 TSRA BKN008 FEW040CB OVC040 BECMG 2011/2013 23010KT 9999 NSW SCT030 BECMG 2015/2017 18020KT BECMG 2021/2023 18005KT CAVOK", "TAF SANT 192300Z 2000/2024 23005KT 3000 DZ BR OVC020 TX29/2018Z TN13/1910Z BECMG 2001/2003 1200 DZ BR OVC008 TEMPO 2003/2008 VRB03KT 0500 +DZ FG OVC004 BECMG 2012/2014 18015KT 9999 NSW BKN025", "TAF AMD SAOC 192205Z 1922/2018 02015KT 4000 TSRA SCT010 BKN020 FEW040CB TX25/2015Z TN10/2010Z BECMG 2006/2008 18010KT 9999 NSW BKN025", "TAF SARE 192300Z 2000/2024 VRB02KT 9999 SCT040 TX27/2018Z TN18/2010Z BECMG 2004/2006 1500 TSRA SCT010 FEW050 BKN050 PROB40 2004/2006 TSRAGR BECMG 2018/2020 9999 NSW BKN015", "TAF SARF 192300Z 2000/2024 02005KT 3000 TSRA BKN020 FEW050CB BKN050 TX27/2018Z TN20/2010Z BECMG 2002/2004 CAVOK BECMG 2006/2008 1500 TSRAGR BKN020 FEW050CB BKN050 BECMG 2018/2020 9999 NSW BKN015", "TAF SARI 192300Z 2000/2024 VRB10KT 1500 TSRAGR BKN010 FEW050CB BKN050 TX26/2018Z TN18/2010Z", "TAF SARP 192300Z 2000/2024 09005KT 9999 SCT030 TX27/2018Z TN18/2010Z BECMG 2001/2003 3000 TSRA BKN020 FEW050CB BKN050", "TAF SASA 192300Z 2000/2024 05010KT 9999 SCT030 TX24/2018Z TN11/2010Z BECMG 2002/2004 23005KT BKN010 TEMPO 2004/2010 3000 DZRA OVC010 BECMG 2013/2015 SCT030", "TAF SASJ 192300Z 2000/2024 07010KT 9999 SCT030 BKN100 TX27/2018Z TN13/2010Z BECMG 2002/2004 23005KT BKN010 PROB40 TEMPO 2004/2009 4000 DZ OVC010 BECMG 2012/2015 18015KT 9999 NSW SCT030", "TAF SAVC 192300Z 2000/2024 28025G45KT 5000 BLDU NSC TX19/2000Z TN06/2024Z BECMG 2009/2011 19015KT 9999 -DZ BKN035 BECMG 2014/2016 09015KT 9999 -RA SCT030 FEW040TCU OVC050 ", "TAF SAWE 192300Z 2000/2024 27030G40KT 9999 SCT035 OVC070 TX10/2018Z TNM01/2009Z ", "TAF SAWG 192300Z 2000/2024 25015KT 9999 FEW020 BKN025 OVC070 TX10/2000Z TN02/2010Z BECMG 2005/2007 27025G35KT CAVOK BECMG 2013/2015 9999 DZ BKN020 OVC045 ", "TAF SAWH 192300Z 2000/2024 23025G35KT 9999 RA SCT020 BKN035 OVC060 TX07/2018Z TN00/2009Z TEMPO 2002/2011 VRB05KT 9000 -SHSN SCT025 OVC040 BECMG 2012/2014 27010KT 9999 SHRA BKN020 SCT035TCU OVC045 BECMG 2021/2023 35010KT 9999 NSW SCT035 ", "TAF SAZM 192300Z 2000/2024 05010KT 4000 BRDZ OVC006 SCT040 TX21/2016Z TN11/2008Z BECMG 2001/2003 36005KT 0600 FG OVC003 BECMG 2013/2014 05015KT 9999 SCT025 BKN035 TEMPO 2018/2021 6000 SHRA SCT020 FEW030TCU", "TAF SAZN 192300Z 2000/2024 36005KT 9999 FEW035 TX24/2020Z TN06/2011Z BECMG 2005/2007 27015KT BECMG 2015/2018 25020KT 9999 SCT035 OVC050", "TAF SAZS 192300Z 2000/2024 30020KT 9999 FEW040 SCT100 TX11/2017Z TN02/2010Z BECMG 2001/2003 9999 BKN020 TEMPO 2002/2004 8000 -RA OVC020", "TAF SBAC 191500Z 1918/2006 03010KT CAVOK TX29/1919Z TN25/2006Z RMK PGY", "TAF SBAF 192100Z 2000/2012 13007KT 9999 SCT030 TN21/2006Z TX26/2012Z BECMG 2001/2003 32005KT CAVOK BECMG 2009/2011 36005KT RMK PDY", "TAF SBAN 192100Z 2000/2012 03005KT CAVOK TN23/2006Z TX27/2012Z BECMG 2009/2011 05012KT RMK PDY", "TAF SBAT 192045Z 2000/2012 33003KT 9999 FEW030 TX26/2000Z TN24/2009Z RMK PGX", "TAF SBBG 192100Z 2000/2012 11010KT 9999 BKN045 TN14/2006Z TX21/2012Z BECMG 2001/2002 07008KT BKN015 BECMG 2004/2005 BKN010 BECMG 2009/2011 BKN015 RMK PDY", "TAF SBBI 192100Z 2000/2012 07005KT 9999 SCT035 TN15/2006Z TX16/2012Z BECMG 2001/2003 BKN010 BECMG 2009/2011 4000 TSRA BKN004 FEW040CB RMK PDY", "TAF SBBU 192100Z 2000/2012 14010KT 9999 FEW030 TN19/2009Z TX24/2011Z RMK PGD", "TAF SBBW 192100Z 2000/2012 00000KT CAVOK TX28/2000Z TN26/2009Z RMK PGQ", "TAF SBCF 192100Z 2000/2024 08010KT CAVOK TN19/2009Z TX30/2018Z TEMPO 2000/2003 05010KT 6000 TSRA SCT030 FEW040CB BECMG 2003/2005 08005KT BECMG 2010/2012 03010KT BECMG 2012/2014 SCT045 PROB30 2018/2020 09010KT SHRA BKN040 FEW045TCU BECMG 2020/2022 09010KT CAVOK RMK PGQ", "TAF SBCO 192100Z 2000/2012 10010KT 9999 BKN020 TN16/2006Z TX20/2012Z BECMG 2001/2003 11010KT BKN010 RMK PDY", "TAF SBCT 192100Z 2000/2024 12005KT 9999 BKN007 TN15/2007Z TX21/2016Z BECMG 2009/2011 03005KT 7000 TSRA BKN007 FEW040CB BECMG 2013/2015 5000 RA BKN007 RMK PDY", "TAF SBCZ 192045Z 2000/2024 00000KT 9999 FEW030 TN24/2010Z TX33/2019Z PROB40 2008/2011 7000 BKN010 BECMG 2012/2014 13008KT BECMG 2016/2018 33003KT SCT035 FEW040TCU PROB30 2020/2022 TS BKN030 FEW035CB RMK PGX", "TAF SBDN 192100Z 2000/2012 12010KT 8000 SCT030 TN20/2009Z TX26/2011Z BECMG 2000/2002 CAVOK RMK PGD", "TAF SBFI 192100Z 2000/2024 34005KT 9999 SCT020 TN19/2009Z TX23/2017Z BECMG 2003/2005 15005KT 7000 TSRA BKN003 FEW035CB BECMG 2009/2011 04005KT 2000 TSRA BKN005 BKN020 FEW035CB BECMG 2019/2021 33005KT 3000 RA BKN004 RMK PDY", "TAF SBFL 192100Z 2000/2024 35007KT 9999 BKN015 TN18/2009Z TX26/2017Z BECMG 2001/2003 SCT015 BECMG 2009/2011 8000 BKN007 BECMG 2015/2017 9999 BKN015 BECMG 2019/2021 SCT020 RMK PDY", "TAF SBGR 192100Z 2000/2106 06005KT 8000 FEW015 TN17/2009Z TX28/2018Z TEMPO 2000/2004 10005KT PROB30 2008/2011 BKN010 BECMG 2013/2015 SCT030 TEMPO 2017/2021 36008KT 6000 TSRA BKN020 FEW045CB BECMG 2021/2023 06005KT RMK PGD", "TAF SBGW 191500Z 1918/2006 09007KT 5000 RA FEW008 BKN040 TX23/1918Z TN18/2006Z BECMG 1921/1923 04005KT 9999 NSW SCT010 BECMG 2001/2003 2000 BR BKN007 RMK PDY", "TAF SBIH 192045Z 2000/2012 13007KT 9999 SCT020 TX25/2000Z TN24/2009Z TEMPO 2000/2003 5000 TSRA SCT025 FEW030CB RMK PGX", "TAF SBIL 192100Z 2000/2012 10010KT 9999 FEW020 TX26/2000Z TN24/2008Z TEMPO 2010/2012 7000 SHRA BKN018 FEW025TCU RMK PGQ", "TAF SBIZ 192045Z 2000/2012 00000KT CAVOK TX29/2000Z TN25/2010Z RMK PGX", "TAF SBJE 192240Z 2000/2012 06015KT CAVOK TN25/2009Z TX34/2012Z RMK PFV", "TAF SBJV 192100Z 2000/2012 12005KT 9999 SCT008 TN18/2006Z TX19/2012Z BECMG 2001/2003 18005KT BECMG 2007/2009 04005KT 3000 RA BKN004 RMK PDY", "TAF SBKG 192240Z 2000/2012 09010KT 9999 FEW010 TN21/2007Z TX26/2012Z BECMG 2003/2005 SCT005 BKN010 BECMG 2010/2012 BKN015 RMK PFV", "TAF SBKP 192100Z 2000/2024 10007KT 8000 FEW023 TN18/2009Z TX30/2018Z BECMG 2010/2012 06006KT BECMG 2015/2017 35004KT SCT035 FEW040TCU TEMPO 2018/2022 35010KT 6000 TSRA BKN023 FEW045CB RMK PGD", "TAF SBME 192240Z 2000/2012 06007KT 9999 BKN020 TN22/2008Z TX29/2012Z BECMG 2009/2011 FEW015 RMK PFV", "TAF SBMN 192100Z 2000/2012 35005KT 9999 FEW020 TN24/2006Z TX27/2012Z BECMG 2001/2003 00000KT BECMG 2009/2011 5000 TSRA BKN020 FEW025CB RMK PDY", "TAF SBNF 192100Z 2000/2024 07008KT 9999 FEW025 TN18/2009Z TX24/2017Z BECMG 2001/2003 28005KT BKN010 BECMG 2009/2011 7000 TSRA BKN007 FEW030CB BECMG 2015/2017 6000 BKN010 BECMG 2019/2021 9999 SCT015 RMK PDY", "TAF SBNT 192240Z 2000/2012 13012KT 9999 FEW025 TN24/2007Z TX28/2012Z BECMG 2009/2011 BKN020 BECMG 2011/2012 13017KT RMK PFV", "TAF SBPA 192100Z 2000/2024 12010KT 9999 SCT035 TN17/2008Z TX25/2017Z BECMG 2001/2003 BKN010 BECMG 2013/2014 BKN020 BECMG 2016/2017 12015KT 7000 TSRA BKN020 FEW040CB BECMG 2019/2021 15007KT 5000 RA BKN010 RMK PDY", "TAF SBPK 191500Z 1918/2018 10015KT 9999 BKN015 TX23/1918Z TN16/2009Z BECMG 2003/2005 07005KT 3000 BR BKN004 BECMG 2009/2011 09010KT 9999 NSW BKN010 BECMG 2015/2017 10015KT BKN015 RMK PDY", "TAF SBSC 192100Z 2000/2012 35005KT 6000 BKN005 TN21/2006Z TX27/2012Z BECMG 2003/2005 CAVOK RMK PDY", "TAF SBSJ 192100Z 2000/2012 07005KT 8000 FEW017 TN17/2008Z TX21/2011Z TEMPO 2000/2002 14005KT SCT012 BECMG 2004/2006 04005KT PROB30 2008/2011 5000 BR BKN013 RMK PGD", "TAF SBSM 192100Z 2000/2012 10010KT 9999 SCT040 TN17/2006Z TX20/2012Z BECMG 2003/2005 BKN006 BECMG 2009/2011 SCT010 BKN015 RMK PDY", "TAF SBSP 192100Z 2000/2012 08006KT 8000 FEW017 TN17/2008Z TX21/2011Z TEMPO 2000/2004 14005KT BECMG 2004/2006 04005KT PROB30 2008/2011 BKN013 RMK PGD", "TAF SBSV 192100Z 2000/2024 10012KT 9999 SCT023 TN24/2008Z TX29/2016Z TEMPO 2009/2012 VCSH BKN020 FEW023TCU TEMPO 2012/2015 VCSH BKN020 FEW023TCU RMK PGQ", "TAF SBUG 191500Z 1918/2006 07010KT 9999 SCT040 TX29/1918Z TN17/2006Z BECMG 1921/1923 14008KT CAVOK BECMG 2001/2003 09007KT RMK PDY", "TAF SBUL 192100Z 2000/2012 07007KT CAVOK TX25/2000Z TN22/2009Z RMK PGQ", "TAF SBUR 192100Z 2000/2012 08007KT CAVOK TX24/2000Z TN23/2009Z RMK PGQ", "TAF SBVH 192045Z 2000/2012 33006KT 9999 FEW030 TX24/2000Z TN21/2011Z RMK PGX", "TAF SBYS 192100Z 2000/2012 15007KT CAVOK TN18/2006Z TX24/2012Z BECMG 2009/2011 03005KT RMK PDY", "TAF SCAR 192204Z 2000/2024 20004KT 9999 OVC027 TN15/2010Z TX18/2018Z BECMG 2015/2017 22014KT CAVOK BECMG 2023/2024 21004KT", "TAF SCAT 192207Z 2000/2024 22008KT CAVOK TN10/2010Z TX19/2018Z BECMG 2001/2003 14004KT BECMG 2004/2006 OVC004 BECMG 2010/2012 OVC010 BECMG 2014/2016 26008KT CAVOK BECMG 2020/2022 OVC010", "TAF SCBA 192205Z 2000/2024 29025KT 9999 FEW050 TN04/2010Z TX12/2019Z BECMG 2006/2008 29015KT BECMG 2012/2014 CAVOK", "TAF COR SCCF 192210Z 2000/2024 28010KT CAVOK TN00/2010Z TX23/2018Z BECMG 2003/2005 11014KT BECMG 2013/2014 09004KT BECMG 2016/2018 27020KT TEMPO 2017/2021 30025G35KT", "TAF SCCI 192220Z 2000/2100 26016G28KT CAVOK TN01/2011Z TX10/2018Z TEMPO 2000/2007 SHRA SCT022 BKN035 BECMG 2006/2008 26026G36KT BECMG 2015/2017 SHRA SCT025 SCT070 BECMG 2020/2022 NSW CAVOK", "TAF SCDA 192206Z 2000/2024 22010KT 9999 OVC030 TN15/2010Z TX18/2018Z BECMG 2004/2006 16004KT BECMG 2010/2012 18010KT BECMG 2016/2018 24012KT FEW030 BECMG 2022/2024 OVC030", "TAF SCEL 192200Z 2000/2024 19012KT 9999 SCT060 SCT140 TX28/2019Z TN06/2010Z BECMG 2001/2003 15004KT CAVOK BECMG 2013/2015 18005KT BECMG 2016/2018 20012KT", "TAF SCFA 192206Z 2000/2024 20010KT 9999 OVC020 TN14/2010Z TX16/2018Z BECMG 2002/2004 19004KT BECMG 2014/2016 20014KT FEW025 BECMG 2022/2024 OVC022", "TAF SCIE 192200Z 2000/2024 28010KT 9999 SCT010 OVC017 TX14/2019Z TN10/2010Z BECMG 2001/2003 20005KT BECMG 2010/2012 SCT020 BKN140 BECMG 2015/2017 29005KT FEW020 SCT050 BKN100", "TAF SCIP 192204Z 2000/2100 34012KT 9999 SCT025 SCT045 TX22/2020Z TN18/2009Z TEMPO 2002/2011 8000 -SHRA SCT020 BKN040 BECMG 2012/2014 31005KT 5000 -RA SCT015 OVC025", "TAF SCNT 191620Z 1918/2006 29015G25KT 9999 SCT045 TN04/2006Z TX11/1918Z TEMPO 1920/2000 29025G37KT SHRA SCT022 BKN035 BECMG 2000/2002 SHRA SCT020 BKN030", "TAF SCQP 192203Z 2000/2024 25008KT 9999 BKN020 TN07/2008Z TX12/2019Z BECMG 2002/2004 35004KT BKN010 BKN025 BECMG 2008/2010 BKN040 BECMG 2010/2012 36008KT 7000 -RA SCT010 OVC025 BECMG 2018/2020 26008KT BKN020 BKN040", "TAF SCSE 192200Z 2000/2024 29010KT CAVOK TX21/2019Z TN10/2010Z TEMPO 2000/2003 SCT020 BECMG 2002/2004 02004KT BECMG 2014/2016 27010KT", "TAF SCTE 192204Z 2000/2024 25008KT 9999 BKN035 TN08/2012Z TX12/2019Z BECMG 2002/2004 36010KT BKN016 BKN040 BECMG 2003/2005 7000 RA BECMG 2009/2011 27010KT 9999 NSW BKN010 OVC025 TEMPO 2017/2024 21004KT 7000 -SHRA BKN020 BKN040", "TAF SCVM 192200Z 2000/2024 26010KT CAVOK TX16/2019Z TN08/2010Z TEMPO 2000/2006 SCT030 BECMG 2001/2003 24004KT BECMG 2006/2008 14004KT BECMG 2013/2015 29008KT", "SEGU 192230Z 2000/2024 22012KT 9999 SCT023 BKN100 BECMG 2005/2007 SCT010 BKN023 BKN100 BECMG 2011/2013 SCT026 BKN100 BECMG 2016/2018 16008KT TX29/2019Z TN21/2010Z", "SELT 192230Z 2000/2024 03004KT 9999 OVC030 BECMG 2006/2008 6000 BCFG SCT006 OVC030 BECMG 2011/2013 35006KT 9999 SCT026 BKN100 BECMG 2016/2018 17014KT BKN030 BKN100 TEMPO 2020/2022 FEW026TCU BKN030 TX16/2019Z TN07/2011Z", "SEMT 192230Z 2000/2024 20009KT 9999 FEW010 OVC020 BECMG 2011/2013 BKN020 BECMG 2017/2019 26010KT TX26/2019Z TN21/2010Z", "SEQM 192230Z 2000/2024 04004KT 9999 SCT005 OVC030 BECMG 2005/2007 6000 BCFG BKN005 BKN030 FM201300 VRB03KT 9999 BKN026 BKN100 BECMG 2015/2017 36012KT TEMPO 2020/2022 FEW026TCU BKN030 TX20/2019Z TN11/2011Z", "TAF SGAS 192255Z 2000/2100 19005KT 9999 TS BKN027 FEW040CB TX24/2019Z TN20/2010Z PROB30 TEMPO 2002/2005 8000 -TSRA BKN020 FEW040CB BECMG 2006/2009 7000 TSRA OVC015 FEW040CB PROB40 TEMPO 2009/2013 24020G30KT 1000 +TSRA OVC012 FEW040CB BECMG 2017/2020 22012KT 9000 -RA BKN015", "TAF SGCO 192255Z 2000/2100 05005KT 9000 -RA BKN020 TX26/2019Z TN21/2010Z BECMG 2002/2006 7000 TSRA BKN015 OVC027 FEW040CB BECMG 2012/2015 24015G25KT 5000 TSRA OVC012 FEW040CB", "TAF SGEN 192255Z 2000/2100 21012KT 8000 -TSRA BKN021 FEW040CB TX22/2019Z TN19/2012Z TEMPO 2010/2015 21017KT 4000 TSRA OVC015 FEW040CB", "TAF SGES 192255Z 2000/2100 21012KT 7000 TSRA BKN015 FEW040CB TX23/2019Z TN19/2010Z TEMPO 2001/2004 9000 -RA SCT015 BKN021 BECMG 2005/2009 05006KT 5000 TSRA BKN012 FEW040CB", "TAF SKAR 192230Z 2000/2024 00000KT BKN015TCU TEMPO 2004/2005 9999 DZ BECMG 2008/2010 4000 BR BKN008 BECMG 2016/2017 9999 NSW BKN020 BECMG 2019/2020 SCT020TCU TEMPO 2020/2024 TSRA SCT17CB TX27/2020Z TN17/2011Z", "TAF SKBG 192230Z 2000/2024 VRB02KT 9999 SCT010 BKNT070 TEMPO 2001/2006 3000 TSRA BKN007CB TEMPO 2008/2012 4000 DZRA BCFG BKN006 BECMG 2016/2018 32008KT SCT015 TX25/2018Z TN17/2010Z", "TAF SKBO 192230Z 2000/2024 VRB02KT 9999 SCT015 BKN070 TEMPO 2000/2004 5000 RADZ BKN015 BECMG 2002/2004 VRB02KT SCT015 BKN070 PROB40 TEMPO 2009/2012 DZ SCT010 BECMG 2016/2018 27010KT BKN020 PROB40 TEMPO 2020/2024 5000 TSRA BKN017CB TX20/2018Z TN10/2010Z", "TAF SKBQ 192230Z 2000/2024 03004KT 9999 SCT015 PROB40 TEMPO 2003/2007 TSRA SCT015CB TEMPO 2011/2013 5000 DZ BR BKN008 TEMPO 2018/2021 5000 TSRA SCT015CB TX31/2017Z TN24/2009Z", "TAF SKCC 192230Z 2000/2024 VRB02KT 9999 SCT015 BKN080 TEMPO 2000/2003 5000 RADZ SCT015CB PROB40 TEMPO 2009/2012 5000 BR SCT010 BECMG 2016/2018 36010KT SCT018 SCT090 PROB40 YRMPO 2020/2024 5000 TSRA SCT015CB TX31/2018Z TN23/2010Z", "TAF SKCG 192230Z 2000/2024 VRB03KT 9999 SCT017 PROB40 TEMPO 2006/2009 5000 TSRA SCT015CB BECMG 2016/2018 24010KT SCT017 TX31/2019Z TN25/2010Z", "TAF SKCL 192230Z 2000/2024 VRB04KT 9999 SCT023 BKN070 TEMPO 2002/2006 DZ BECMG 2010/2011 3000 BR BECMG 2014/2016 9999 NSW BECMG 2018/2019 SCT025TCU TEMPO 2020/2024 TSRA SCT023CB TX30/2020Z TN19/2011Z", "TAF SKLT 192230Z 2000/2024 VRB02KT 9999 SCT012 BKN080 PROB40 TEMPO 2008/2012 5000 BR BKN010 PROB40 TEMPO 2018/2021 32008KT 5000 TSRA SCT015CB TX31/2019Z TN23/2010Z", "TAF AMD SKPE 200005Z 2000/2024 04005KT 4000 SHRA BKN010 BECMG 2003/2005 3000 BR BECMG 2014/2016 9999 NSW SCT017 TEMPO 2018/2021 SCT017TCU TEMPO 2020/2024 TSRA SCT015CB TX27/2020Z TN17/2011Z", "TAF SKRG 192230Z 2000/2024 VRB02KT 9999 SCT015 TEMPO 2003/2007 DZ BKN010 TEMPO 2008/2012 4000 DZ BCFG BKN006 BECMG 2013/2015 08008KT TEMPO 2019/2022 RADZ SCT020CB TX22/2019Z TN13/2010Z", "TAF SKSM 192230Z 2000/2024 01004KT 9999 FEW015 PROB40 TEMPO 2000/2004 TSRA SCT020CB TEMPO 2006/2009 RA SCT020CB TEMPO 2019/2022 TSRA SCT020CB TX33/2018Z TN24/2010Z", "TAF SKSP 192230Z 2000/2024 06005KT 9999 FEW016 PROB40 TEMPO 2015/2018 DZ SCT016 TX31/2019Z TN26/2009Z", "TAF SLAL 192200Z 2000/2024 01012KT 9999 FEW017 TX24/2019Z TN08/2011Z BECMG 2003/2005 00000KT TEMPO 2010/2012 34008KT BECMG 2015/2017 02015KT TEMPO 2020/2022 FEW020 FEW030CB", "TAF SLCB 192200Z 2000/2024 13010KT 9999 FEW033 TX32/2019Z TN08/2011Z BECMG 2003/2005 00000KT BECMG 2014/2016 04010KT BECMG 2017/2019 28010KT FEW036 FEW040CB SCT070 TEMPO 2019/2021 26012G25KT", "TAF SLCO 192200Z 2000/2024 00000KT 9999 SCT017 BKN070 TX34/2019Z TN22/2010Z TEMPO 2009/2012 3000 BR BKN004 BECMG 2014/2016 32006KT PROB30 TEMPO 1918/1921 7000 TSRA FEW023CB", "TAF SLET 192200Z 2000/2024 32015KT 9999 SCT020 TX31/2019Z TN23/2010Z PROB40 TEMPO 2007/2010 8000 RA BKN015 BECMG 2012/2015 32012G24KT BKN020 FEW030CB BECMG 2021/2023 16013KT 5000 RA BKN017 FEW030CB OVC070", "TAF SLLP 192200Z 2000/2024 10005KT 9999 FEW017 TX19/2019Z TNM01/2010Z TEMPO 2005/2009 4000E BCFG FEW003 SCT015 BECMG 2013/2015 27015KT TEMPO 2022/2024 30015G25KT FEW020CB", "TAF SLTJ 192200Z 2000/2024 00000KT 9999 NSC TX29/2019Z TN12/2011Z BECMG 2014/2016 15010KT BECMG 2021/2023 SCT030 BKN070", "TAF SLTR 192200Z 2000/2024 00000KT 9999 FEW017 SCT070 TX34/2019Z TN22/2010Z BECMG 2012/2014 33008KT PROB30 TEMPO 1917/1921 8000 SHRA FEW020CB", "TAF SLVR 192200Z 2000/2024 34015KT 9999 SCT020 TX32/2019Z TN23/2010Z PROB40 TEMPO 2007/2010 8000 RA BKN015 BECMG 2012/2015 34012G24KT BKN020 FEW030CB BECMG 2021/2023 17013KT 5000 RA BKN017 FEW030CB OVC070", "TAF SMJP 192200Z 2000/2024 04005KT 9999 FEW020 TX33/2017Z TN23/2009Z PROB30 2008/2010 VRB02KT 2000 BR SCT002 FM201200 08006KT 9999 SCT015 TEMPO 2018/2021 4000 TSRA FEW015CB SCT020", "TAF SMZO 192200Z 2000/2024 04006KT 9999 FEW020 TX33/2017Z TN24/2009Z TEMPO 2017/2021 4000 TSRA FEW015CB SCT020", "TAF SOCA 192300Z 2000/2024 VRB02KT CAVOK PROB40 TEMPO 2003/2015 4000 SHRA BKN015TCU BECMG 2013/2015 08010KT TEMPO 2015/2018 FEW020CB BECMG 2020/2022 VRB02KT", "TAF SPCL 192300Z 2000/2024 10005KT 9999 SCT020 BKN080 TX32/1920Z TN22/2011Z TEMPO 2000/2004 RA TEMPO 2010/2012 3000 BR BKN008 TEMPO 2019/2023 10015KT 4000 SHRA BKN012 FEW025TCU BKN080", "TAF SPEO 191700Z 1918/2018 20020KT CAVOK TX20/1919Z TN15/2011Z BECMG 2000/2003 18010KT FM200800 16005KT 9999 SCT014 BKN020", "TAF SPGM 191700Z 1918/2018 02005KT 04004KT 9999 FEW040 TX32/1920Z TN22/2011Z TEMPO 2003/2007 VRB03KT 4000 RA SCT015 BKN060", "TAF SPHI 191700Z 1918/2018 19020KT CAVOK TX22/1919Z TN15/2011Z BECMG 1923/2002 17008KT FM201200 17014KT 9999 SCT020", "TAF SPHO 191700Z 1918/2018 11004KT 9999 SCT040 TX27/1920Z TN14/2011Z TEMPO 1918/1920 10012KT SCT040TCU SCT070 TEMPO 1921/1923 15015G25KT -TSRA SCT035CB BKN070", "TAF SPHY 191700Z 1918/2018 36010KT 9999 FEW012 BKN060 TX18/1919Z TN04/2011Z TEMPO 1919/1922 DZ SCT012TCU BKN070 BECMG 1923/2001 VRB02KT", "TAF SPJC 192300Z 2000/2024 17012KT CAVOK TX20/2019Z TN15/2011Z BECMG 2003/2006 15007KT OVC012 BECMG 2012/2014 22006KT OVC016 BECMG 2019/2021 17013KT CAVOK", "TAF SPJI 191700Z 1918/2018 36004KT 9999 SCT020 BKN080 TX31/1920Z TN17/2011Z TEMPO 1918/1922 4000 RA BKN012 FEW025TCU BKN080 TEMPO 2010/2014 2000 BR BKN010", "TAF SPJL 191700Z 1918/2018 06010KT 9999 SCT020 TX20/1919Z TN01/2010Z TEMPO 1921/1923 24015G25KT BECMG 2000/2002 35005KT", "TAF SPJR 191700Z 1918/2018 22005KT 9999 SCT025 BKN050 TX22/1920Z TN09/2011Z TEMPO 1918/1920 5000 RA SCT020 BKN045 BECMG 2002/2004 VRB02KT", "TAF SPLO 191700Z 1918/2018 18011KT 9999 SCT030 TX21/1919Z TN14/2010Z FM192300 15007KT 8000 OVC020", "TAF SPME 192300Z 2000/2024 27005KT 9999 BKN012 TX25/2019Z TN20/2011Z FM201500 31005KT 9999 BKN015", "TAF SPMS 191700Z 1918/2018 24005KT 9999 SCT015 BKN100 TX30/1920Z TN22/2011Z TEMPO 1918/1922 2000 RA BKN008 BKN080 TEMPO 2010/2014 2000 BR BKN005", "TAF SPNC 191700Z 1918/2018 06010KT 9999 FEW040 SCT120 TX31/1920Z TN14/2011Z TEMPO 1918/1922 06018KT BECMG 2000/2002 VRB02KT", "TAF SPPY 191700Z 1918/2018 10008KT 9999 SCT012 BKN040 TX20/1920Z TN10/2011Z TEMPO 1918/1922 4000 RA BKN010 FEW025TCU BKN040 TEMPO 2012/2015 2000 DZ BCFG BKN008 BKN040", "TAF SPQT 192300Z 2000/2024 18005KT 9999 BKN010 BKN100 TX31/2020Z TN22/2011Z TEMPO 2000/2004 02015KT 3000 TSRA BKN008 FEW025CB BKN080 TEMPO 2008/2013 3000 RA BKN005 FEW020CB BKN080 BECMG 2013/2016 BKN015 BKN100 TEMPO 2018/2023 12015KT 2000 TSRA BKN010 FEW025CB BKN080", "TAF SPQU 192300Z 2000/2024 05007KT CAVOK TX20/2018Z TN07/1710Z FM201500 25008KT CAVOK FM202400 01006KT CAVOK", "TAF SPRU 192300Z 2000/2024 15005KT 6000 SCT020 TX18/2019Z TN15/2011Z BECMG 2008/2010 OVC014 BECMG 2013/2015 BKN016 FM201800 17010KT 9999 SCT030", "TAF SPSO 192300Z 2000/2024 21012KT CAVOK TX20/2019Z TN16/2011Z BECMG 2005/2007 24007KT BKN014 BECMG 2010/2012 29005KT OVC017 FM201830 24014KT CAVOK", "TAF SPST 192300Z 2000/2024 VRB02KT 9999 FEW020 BKN100 TX32/2020Z TN22/2011Z TEMPO 2003/2007 5000 RA SCT012 OVC090 TEMPO 2011/2013 00000KT 4000 BR SCT008 OVC070 BECMG 2014/2016 13004KT SCT020 SCT090", "TAF SPTN 192300Z 2000/2024 VRB02KT 9999 BKN025 TX21/2019Z TN11/2010Z FM201530 20008KT CAVOK FM202400 22003KT 9999 BKN020", "TAF SPTU 191700Z 1918/2018 33005KT 9999 SCT025 TX34/1919Z TN22/2011Z TEMPO 1918/1920 SCT015 SCT030TCU TEMPO 2003/2005 2500 -TSRA BKN025 SCT035CB BECMG 2006/2009 4000 BR BKN010 OVC100", "TAF SPYL 191700Z 1918/2018 20015KT CAVOK TX25/1919Z TN14/2011Z BECMG 2001/2003 16005KT BECMG 2012/2014 15015KT", "TAF SPZO 192300Z 2000/2024 09005KT 9999 SCT050 TX24/2019Z TN05/2011Z TEMPO 2018/2023 36012KT FEW040TCU BKN100", "TAF SUAA 192330Z 2000/2024 11010KT 9999 SCT040 BKN080 TX22/2018Z TN14/2009Z BECMG 2002/2005 05007KT TEMPO 2015/2024 5000 RA BKN015 OVC060", "TAF SUCA 192330Z 2000/2024 11010KT 9999 SCT040 BKN080 TX20/2018Z TN14/2009Z TEMPO 2000/2012 5000 RA BKN015 OVC060 BECMG 2002/2005 04005KT PROB40 TEMPO 2006/2012 3000 TSRA BKN010 FEW040CB OVC060", "TAF SUDU 192330Z 2000/2024 07005KT 9999 SCT030 TX22/2018Z TN14/2009Z TEMPO 2009/2018 5000 RA BKN015 BKN070", "TAF SULS 192330Z 2000/2024 10010KT 9999 FEW026 BKN080 TX22/2018Z TN13/2009Z BECMG 2008/2011 04010KT TEMPO 2017/2024 5000 RA BKN015 OVC070", "TAF SUMU 192330Z 2000/2024 11010KT 9999 SCT040 BKN080 TX22/2018Z TN14/2009Z BECMG 2002/2005 04007KT TEMPO 2015/2024 5000 RA BKN015 OVC060", "TAF SURV 192330Z 2000/2024 07005KT 9999 FEW030 TX23/2018Z TN14/2009Z TEMPO 2004/2010 3000 BR BKN008 PROB40 TEMPO 2008/2010 0800 BCFG BKN003 TEMPO 2009/2018 5000 RA BKN015 OVC070 PROB40 TEMPO 2015/2018 3000 TSRA BKN010 FEW040CB", "TAF SUSO 192330Z 2000/2024 09008KT 9999 SCT030 BKN070 TX24/2018Z TN15/2009Z TEMPO 2000/2012 5000 RA BKN015 BKN070 TEMPO 2000/2006 3000 TSRA BR BKN010 FEW040CB OVC070", "TAF SVBC 192200Z 2000/2100 12008KT 9000 DZ BKN010 TX33/0218Z TN22/0207Z BECMG 1905/1910 07009KT 9000 DZ SCT013", "TAF SVJC 192200Z 2000/2100 09006KT 9000 DZ SCT013 TX33/0219Z TN22/0207Z BECMG 1904/1910 02005KT 9000 DZ SCT013 BNK080", "TAF SVMC 192200Z 2000/2100 12007KT 9000 BKN013 TX33/0219Z TN22/0208Z BECMG 1904/1910 05002KT 9000 -DZ SCT013", "TAF SVMG 192200Z 2000/2100 12008KT 9999 DZ SCT016 TX33/0218Z TN22/0208Z TEMPO 1904/1908 0602KT 9000 DZ SCT020 SCT090", "TAF SVMI 192200Z 2000/2100 26003KT 9999 SCT016 TX32/0218Z TN22/0207Z BECMG 1904/1910 05005KT 9000 DZ SCT013 BKN090", "TAF SVPR 192200Z 2000/2100 05015KT 9000 DZ BKN013 TX33/0219Z TN22/0207Z BECMG 1906/1910 07002KT 9000 DZ SCT013 SCT060", "TAF SVSA 192200Z 2000/2100 12007KT 9000 DZ BKN010 TX31/0219Z TN19/0208Z BECMG 1906/1910 05004KT 9000 DZ SCT016", "TAF SVVA 191700Z 1918/2018 09003KT 9999 FEW016 TX30/1919 TN23/2003 TEMPO 1920/2000 23004KT SCT016 TEMPO 2002/2006 09002KT 9999 BKN016", "TAF SYCJ 192300Z 2000/2024 VRB02KT 9999 SCT016 TEMPO 2006/2010 5000 BR BECMG 2011/2013 09010KT 9999 BKN019 SCT039", "TAF SYEC 192300Z 2000/2024 08012KT 9999 FEW018 BECMG 2010/2012 08012KT 9999 BKN019", "TAF TAPA 192300Z 2000/2024 08009KT 9999 SCT020 PROB30 TEMPO 2000/2018 SHRA", "TAF TBPB 192300Z 2000/2024 09011KT 9999 SCT018 PROB40 TEMPO 2000/2008 SHRA BKN015", "TAF TDPD 192300Z 2000/2024 12009KT 9999 SCT018 PROB40 TEMPO 2006/2012 SHRA BKN015", "TAF TFFF 192300Z 2000/2024 06006KT 9999 SCT025 PROB40 TEMPO 2000/2012 4000 SHRA SCT020CB BKN030TCU TEMPO 2012/2024 06015G25KT 2500 SHRA SCT015CB BKN020TCU", "TAF TFFR 192300Z 2000/2024 VRB02KT 9999 SCT020 PROB40 TEMPO 2000/2024 3000 SHRA SCT015CB BKN020TCU BECMG 2012/2014 09012KT", "TGPY 192141Z 2000/2024 08008KT 9999 SCT018 BECMG 2010/2012 VRB02KT SCT018", "TIST 192330Z 2000/2024 07006KT P6SM VCSH FEW035 SCT050 FM201400 13012KT P6SM FEW030 SCT050 FM202200 08006KT P6SM FEW025", "TISX 192330Z 2000/2024 06005KT P6SM VCSH SCT030 FM201400 11012KT P6SM FEW025 SCT035 FM202200 07006KT P6SM FEW030", "TJBQ 192330Z 2000/2024 VRB03KT P6SM FEW025 FM201400 07008KT P6SM SCT030 FM201700 06012KT P6SM VCTS SCT025CB BKN050 FM202100 09005KT P6SM FEW030 AMD NOT SKED 2002/2011", "TJPS 192330Z 2000/2024 VRB04KT P6SM FEW030 FM201400 15010KT P6SM FEW030 SCT060 FM202200 10005KT P6SM FEW050 AMD NOT SKED", "TJSJ 192330Z 2000/2024 12006KT P6SM FEW040 SCT080 FM201300 07008KT P6SM FEW035 SCT050 FM201600 06012KT P6SM VCSH FEW030 SCT040 FM202200 09006KT P6SM FEW040", "TAF TKPK 192300Z 2000/2024 08009KT 9999 SCT020 PROB30 TEMPO 2000/2018 SHRA", "TAF TKPN 191700Z 1918/2018 08012KT 9999 SCT018 PROB30 TEMPO 1918/2018 SHRA", "TAF TLPC 192300Z 2000/2024 09006KT 9999 SCT024 TEMPO 2000/2018 SHRA FEW013CB BKN015", "TAF TLPL 192300Z 2000/2024 08013KT 9999 SCT024 TEMPO 2000/2018 SHRA FEW013CB BKN015", "TAF TNCA 192315Z 2000/2024 08015KT 9999 SCT022", "TAF TNCB 192307Z 2000/2106 09012KT 9999 SCT018 PROB30 TEMPO 2007/2020 5000 SHRA SCT015CB PROB30 TEMPO 2103/2106 5000 SHRA SCT015CB", "TAF TNCC 192315Z 2000/2024 09011KT 9999 SCT022", "TNCM 192200Z 2000/2024 09008KT 9999 SCT018 ", "TAF TQPF 191700Z 1918/2018 10012KT 9999 SCT018 PROB30 TEMPO 1918/2018 SHRA", "TAF TRPG 191700Z 1918/2018 08015KT 9999 SCT018 PROB30 TEMPO 1918/2018 SHRA", "TAF TTCP 192200Z 2000/2024 06005KT 9999 FEW016 BECMG 2012/2014 12008KT SCT018 PROB30 TEMPO 2016/2022 5000 SHRA FEW012CB BKN016", "TAF TTPP 192200Z 2000/2024 00000KT 9999 FEW016 BECMG 2012/2014 12008KT SCT018 PROB30 TEMPO 2016/2022 5000 SHRA FEW012CB BKN016", "TAF TUPJ 192300Z 2000/2024 09010KT 9999 SCT020 PROB30 TEMPO 2000/2018 SHRA", "TAF TVSA 192300Z 2000/2024 06008KT 9999 SCT018 PROB40 TEMPO 2002/2009 SHRA BKN015", "TAF TXKF 192336Z 2000/2024 18014KT 9999 VCSH FEW014 SCT040 BKN200 OVC250 PROB40 TEMPO 2000/2018 4000 -SHRA BKN014 PROB30 TEMPO 2000/2018 20015G25KT 2000 TSRA SCT008 BKN012CB BECMG 2009/2012 23008KT ", "TAF UAAA 192301Z 2000/2024 04003MPS 9999 SCT050CB BKN100 TX14/2009Z TN05/2001Z TEMPO2000/2003 16003G08MPS 5000 BR TEMPO 2003/2012 09003G08MPS BECMG 2012/2013 17003MPS TEMPO 2012/2024 22003G08MPS 4000 BR FU", "TAF UACC 192302Z 2000/2024 22010MPS 9999 BKN011 OVC020 TX10/2009Z TN03/2001Z TEMPO 2000/2004 25010G15MPS 3100 -SHRA SCT007 BKN011CB TEMPO 2004/2014 24014G19MPS 2000 SHRA BKN007 BKN020CB BECMG 2014/2016 22008MPS TEMPO 2014/2024 3100 BR BKN005 BKN011", "TAF UADD 192300Z 2000/2009 18003G08MPS 5000 BR SCT050", "TAF UAII 192300Z 2000/2024 13003G08MPS 3500 BR SCT040 TX17/2010Z TN02/2001Z TEMPO 2000/2003 18005MPS 0500 FG BKN003 BECMG 2003/2004 07003G08MPS 6000 NSW TEMPO 2004/2015 01003G08MPS", "TAF UAIT 192304Z 2000/2009 07003G08MPS 9999 SCT040 TEMPO 2000/2003 11005G10MPS 3100 BR FU TEMPO 2003/2009 04005G10MPS", "TAF UAKD 192304Z 2000/2009 23008G13MPS 9999 BKN020 OVC100 TEMPO 2000/2004 24011MPS 5000 -SHRA BKN011 BKN020CB TEMPO 2004/2009 24013G18MPS 5000 -SHRA SCT011 BKN020CB", "TAF UAKK 192302Z 2000/2024 23012MPS 9999 BKN020CB BKN100 TX09/2010Z TNM00/1924Z TEMPO 2000/2006 25018MPS 3100 -SHRASN SCT005 BKN011CB TEMPO 2006/2013 24016MPS 3100 -SHRA BKN011CB BECMG 2015/2017 22006MPS BKN020", "TAF UAOO 192300Z 2000/2009 18004MPS CAVOK", "TAF UARR 192300Z 2000/2009 20005MPS 9999 BKN020 TEMPO 2000/2003 23006G12MPS TEMPO 2006/2009 VRB01MPS", "TAF UASK 192307Z 2000/2009 19007MPS 9999 -SHRA BKN025CB OVC070 TEMPO 2000/2003 20010G15MPS 3100 -SHRA FEW004 BKN017CB TEMPO 2003/2009 23011G16MPS FEW006 BKN021CB", "TAF UASP 192300Z 2000/2009 23007G12MPS 3100 -SHRA BKN011CB TEMPO 2000/2003 18010G17MPS 2000 SHRA BKN006 OVC015CB TEMPO 2003/2009 27010G15MPS", "TAF UASS 192300Z 2000/2009 23010G15MPS 9999 BKN030 BKN100 TEMPO 2000/2005 18009G14MPS 3100 -SHRA BKN015 BKN020CB TEMPO 2005/2009 27010G15MPS 3100 -SHRA BKN011 BKN020CB", "TAF UATE 192309Z 2000/2024 13009G15MPS 9999 SCT033CB TX21/2009Z TN12/2002Z TEMPO 2003/2008 20010G16MPS 3100 BLDU SCT011 BECMG 2008/2010 28006MPS", "TAF UATG 192300Z 2000/2024 16007MPS 3100 BR SCT033CB TX16/2010Z TN08/2003Z BECMG 2004/2005 9999 NSW BECMG 2014/2015 23003MPS", "TAF UATT 192300Z 2000/2024 22006MPS 9999 SCT040 TX17/2012Z TN07/2002Z TEMPO 2000/2010 24013MPS BKN020 BECMG 2012/2014 16003MPS", "TAF UAUU 192304Z 2000/2009 21005MPS 6000 BKN020 TEMPO 2000/2006 19003G08MPS 2000 RA BR BKN004 TEMPO 2006/2009 VRB02MPS 3100 -RA BR BKN011", "TAF UBBB 192301Z 2000/2024 21014KT 9999 SCT030 TX21/2010Z TN17/2002Z TEMPO 2000/2006 24010KT SCT008 BKN020 BECMG 2006/2008 33006KT TEMPO 2008/2012 36005KT BKN020", "TAF UBBG 192300Z 2000/2024 VRB04KT 6000 SCT015 BKN050 TX22/2012Z TN13/2003Z TEMPO 2001/2004 26008KT BECMG 2004/2006 28012KT TEMPO 2006/2012 29012G22KT", "TAF UBBL 192300Z 2000/2024 VRB04KT 5000 BR BKN040 TX20/2010Z TN13/2002Z TEMPO 2000/2004 2000 BCFG SCT006 BECMG 2004/2006 32006KT 9999 NSW BKN020", "TAF UBBN 192249Z 2000/2024 VRB04KT 9999 FEW050 SCT100 TX26/2012Z TN10/2003Z TEMPO 2000/2009 07012KT TEMPO 2009/2018 25010KT SCT045CB", "TAF UBBQ 192302Z 2000/2024 33006KT 8000 SCT040 TX18/2010Z TN09/2002Z TEMPO 2000/2004 VRB04KT 2000 BR BCFG SCT006 BECMG 2006/2008 35005KT 9999 TEMPO 2008/2016 32008KT -SHRA SCT030CB BKN030", "TAF UBBY 192300Z 2000/2009 VRB04KT 6000 FEW030 BKN050 TEMPO 2001/2006 2000 -DZ BR OVC005", "TAF UBEE 191700Z 1918/2003 VRB04KT 9999 FEW040 BKN080 TEMPO 1920/1924 3000 BR OVC007", "TAF UCFL 192242Z 2000/2024 25003G08MPS 9999 SCT025CB BKN100 BECMG 2006/2007 14003G08MPS BECMG 2015/2016 35003G08MPS", "TAF UCFM 192244Z 2000/2024 12003G08MPS 1500 BR SCT040CB TEMPO 2000/2005 0500 FZFG FU FEW002 BKN005 BECMG 2005/2006 35003G08MPS 9999 NSW TEMPO 2005/2012 05003G08MPS 3000 BR BECMG 2012/2014 12003G08MPS TEMPO 2012/2018 1500 BR FU SCT007", "TAF UCFO 192252Z 2000/2024 32003G08MPS 3000 BR FEW050CB TEMPO 2000/2006 12003G08MPS 0800 FG SCT002 BKN005 TEMPO 2006/2012 25003G08MPS BECMG 2013/2015 15003G08MPS", "TAF UDSG 192258Z 2000/2024 20006KT 9999 SCT050 TEMPO 2000/2006 VRB16KT -TSRA BKN040CB", "TAF UDYZ 192300Z 2000/2024 16006KT 9999 SCT040 TEMPO 2000/2006 -TSRA SCT040CB", "TAF UEEE 192300Z 2000/2106 32003G10MPS 5000 -SHSN BKN017CB OVC070 TEMPO 2000/2003 VRB01MPS 0300 SHSN FZFG VV003 TEMPO 2003/2015 1000 SHSN VV004", "TAF UERP 192300Z 2000/2024 26004G10MPS 9999 SCT020 BKN100", "TAF UERR 192300Z 2000/2024 28004G11MPS 9999 -SHSN BKN015CB TEMPO 2000/2003 0500 -SHSN FZFG VV002 TEMPO 2003/2006 2500 -SHSN BKN005 OVC015CB", "TAF UGKO 192300Z 2000/2024 25007KT 9999 BKN050 TX17/2011Z TN14/2002Z TEMPO 2002/2012 VRB16KT 3000 TSRA BKN017CB OVC040 TEMPO 2012/2024 27017KT 2500 SHRA BKN015CB OVC030", "TAF UGSB 192300Z 2000/2024 13010KT 9999 SCT020 BKN050 TX19/2010Z TN17/2002Z TEMPO 2000/2005 VRB10KT 5000 TSRA SCT012 BKN023CB TEMPO 2005/2010 3000 TSRA SCT010 BKN023CB BECMG 2003/2006 27010KT TEMPO 2012/2024 26020G30KT 2500 TSRA SCT007 BKN020CB", "TAF UGTB 192300Z 2000/2024 VRB02KT 9999 SCT020 TX23/2012Z TN11/2002Z TEMPO 2000/2005 0500 MIFG VV002 BECMG 2004/2007 31017KT BECMG 2008/2010 BKN050CB TEMPO 2014/2020 3500 TSRA BKN020CB TEMPO 2020/2024 32027KT SHRA", "TAF UHBB 192250Z 2000/2024 26003G08MPS 9999 SCT030 BECMG 2012/2015 32003G08MPS", "TAF UHHH 192249Z 2000/2106 24005MPS CAVOK BECMG 2003/2005 28006MPS TEMPO 2005/2012 25008G13MPS", "TAF UHMA 192254Z 2000/2024 12003G08MPS 5000 BR SCT005 BKN017 TEMPO 2000/2006 09008G14MPS 0400 -SHRA FG BKN002 BKN015CB TEMPO 2006/2021 0200 SHSN FZFG BKN002 BKN015CB", "TAF UHMD 192246Z 2000/2006 14006G11MPS 2500 -RASN BR BKN007 TEMPO 2000/2006 15011G16MPS 0500 +SHRASN BKN002 BKN013CB", "TAF UHMM 192257Z 2000/2106 36003G10MPS 9999 NSC TEMPO 2000/2009 33008G13MPS", "TAF UHPP 192252Z 2000/2106 28008G20MPS 9999 BKN030CB TEMPO 2000/2008 2000 SHRASN BKN004 OVC015CB BECMG 2008/2010 35003G12MPS", "TAF UHSS 192250Z 2000/2106 24003MPS 9999 BKN030CB", "TAF UHWW 192255Z 2000/2024 24003G08MPS 9999 NSC BECMG 2010/2012 12003MPS BKN016", "TAF UIAA 192300Z 2000/2024 02003G08MPS 9999 SCT040CB", "TAF UIBB 192300Z 2000/2024 24003G08MPS 9999 -SHSNRA BKN009CB TEMPO 2000/2005 1900 SHSNRA BKN004 BKN009CB BECMG 2005/2006 BKN016CB BECMG 2012/2014 18005MPS", "TAF AMD UIII 200037Z 2000/2024 32003MPS 1000 SHSN BR BKN003 BKN009CB TEMPO 2000/2004 0300 +SHSN FG VV001 BECMG 2004/2006 9999 NSW SCT030CB", "TAF UIUU 192300Z 2000/2024 26003G08MPS 9999 SCT040CB TEMPO 2000/2015 34005MPS 2900 -SHSNRA", "TAF ULAA 2000/2024 28005G10MPS 6000 -SHRA BKN016CB TEMPO 2000/2006 30008G17MPS 2000 SHSNRA BKN005 BKN011CB FM200600 32005G10MPS 9999 BKN017 TEMPO 2006/2015 30006G14MPS", "TAF ULLI 192253Z 2000/2024 27003MPS 6000 FEW010 BKN016 TEMPO 2005/2008 BKN010 TEMPO 2008/2015 31005G10MPS", "TAF ULMM 192251Z 2000/2024 30006G14MPS 6000 -SHSNRA BKN016CB BECMG 2009/2010 31008G16MPS TEMPO 2010/2018 33012G22MPS", "TAF ULOO 192259Z 2000/2009 26003MPS 6000 BKN016 TEMPO 2002/2006 1200 MIFG BR BKN006", "TAF ULPB 192256Z 2000/2009 27003G08MPS 6000 BKN016 TEMPO 2000/2006 3100 -SHRA BKN010 BKN016CB", "TAF ULWC 191700Z 1918/2003 34003MPS 6000 BKN017 TEMPO 1918/1924 1000 BR BKN004", "TAF UMGG 192259Z 2000/2024 32005G10MPS 9999 BKN016 TEMPO 2000/2006 34009G14MPS 1200 SHRA BKN004 BKN020CB TEMPO 2006/2016 34009G14MPS 2100 -SHRA BKN005 BKN020CB BECMG 2016/2018 29005MPS 4000 BR BKN005 TEMPO 2020/2024 VRB02MPS 0300 FZFG VV002", "TAF UMII 192315Z 2000/2009 34004G09MPS 6000 BKN014 TEMPO 2000/2006 35008G13MPS 2000 SHRA BR BKN005 BKN015CB TEMPO 2006/2009 36005G10MPS 3000 BR BKN005", "TAF UMKK 192256Z 2000/2024 27005G10MPS 9999 FEW010 SCT017CB BKN030 TEMPO 2000/2004 31005G10MPS 4000 -SHRA BR TEMPO 2009/2015 32005G10MPS BECMG 2015/2017 20003G08MPS", "TAF UMMS 192302Z 2000/2024 34006G11MPS 9999 BKN020 TX09/2013Z TNM01/2004Z TEMPO 2000/2012 34010G15MPS SCT010 FM201500 VRB02MPS 8000 SCT030 TEMPO 2019/2024 3000 BCFG BR FEW002", "TAF UNAA 192251Z 2000/2024 18003MPS 6000 SCT025", "TAF UNBB 192300Z 2000/2024 17003G08MPS 9999 SCT040CB FM200600 20005G10MPS 8000 -SHRA BKN016CB TEMPO 2006/2021 22010G16MPS 3000 -SHRA BKN010CB", "TAF UNEE 192300Z 2000/2024 18006G12MPS 9999 -SHRA BKN040CB TEMPO 2000/2017 21008G16MPS SCT011 BKN016CB BECMG 2017/2019 22003G08MPS", "TAF UNKL 192255Z 2000/2024 19003G08MPS 9999 SCT023", "TAF UNNT 192300Z 2000/2024 16005G10MPS 8000 BKN033CB TEMPO 2000/2013 21008G16MPS -SHRA BKN011CB BECMG 2013/2016 21003G08MPS", "TAF UNOO 192300Z 2000/2024 24003G08MPS 8000 BKN011 BKN025CB TEMPO 2000/2004 1400 -SHRA BR BKN004 BKN020CB", "TAF UNTT 192300Z 2000/2009 18005G12MPS 8000 -SHRA BKN016CB TEMPO 2000/2003 BKN005 BKN016CB", "TAF UNWW 192300Z 2000/2024 18003G08MPS 8000 BKN030CB TEMPO 2006/2021 23007G14MPS SCT011CB", "TAF UOOO 192255Z 2000/2024 18010G17MPS 6000 -SN OVC011 TEMPO 2000/2011 1500 -SN BR OVC005 TEMPO 2011/2024 0500 -SN FG OVC003", "TAF URKA 192251Z 2000/2024 26003G08MPS 6000 SCT020 TEMPO 2000/2003 0200 FG BKN002 BKN016 FM200300 32008G13MPS 9999 SCT020CB TEMPO 2006/2018 29010G17MPS -SHRA SCT010 BKN020CB", "TAF URKK 192250Z 2000/2024 24003MPS 3000 BR SCT011 BKN020 TEMPO 2000/2006 0200 FG BKN002 BKN016 FM200600 25007G12MPS 9999 SCT020CB TEMPO 2007/2018 28010G16MPS 6000 -SHRA SCT011 BKN020CB", "TAF URMG 192300Z 2000/2009 29003G08MPS 3100 BR BKN004 TEMPO 2000/2007 0300 FG OVC002 BECMG 2007/2008 9999 NSW BKN016", "TAF URML 192300Z 2000/2009 34006G12MPS 6000 BKN020 PROB40 TEMPO 2000/2006 30003G08MPS 0600 FG BKN002 BKN017", "TAF AMD URMM 200008Z 2000/2024 29003G08MPS 9999 BKN016 TX15/2012Z TN07/2003Z TEMPO 2000/2003 0300 FG BKN002 TEMPO 2003/2024 31006G13MPS 6000 -SHRA BKN016 BKN020CB", "TAF URMN 192300Z 2000/2009 25003MPS 9999 OVC010 TEMPO 2000/2009 1200 BR OVC003", "TAF URMT 192300Z 2000/2009 28003G09MPS 9999 SCT016 BKN030 TEMPO 2000/2009 29006G12MPS 6000 -SHRA SCT010 BKN020CB", "TAF URRP 192256Z 2000/2024 25003G12MPS 6000 BKN005 TEMPO 2000/2006 0300 FG BKN001 BECMG 2006/2008 -SHRA SCT016 BKN020CB", "TAF URSS 192255Z 2000/2024 05005G10MPS 9999 BKN007 BKN020CB OVC100 TEMPO 2000/2009 VRB07G14MPS 0800 +TSRA BKN004 BKN020CB OVC100 FM200900 28005G10MPS 9999 BKN030CB BKN100 TEMPO 2009/2015 -TSRA BECMG 2015/2016 05003G08MPS BKN010 OVC030", "TAF AMD URWA 192351Z 2000/2009 10003G08MPS 0300 FG OVC002 TEMPO 2000/2003 1000 BR OVC004 BECMG 2004/2006 9999 NSW FEW005 BKN016", "TAF URWW 192300Z 2000/2009 23003G11MPS 6000 BKN016 TEMPO 2000/2009 26003G08MPS", "TAF USCC 192300Z 2000/2024 20003G08MPS 9999 BKN020CB TEMPO 2000/2009 14003G10MPS 5000 -SHRA BR BKN016CB FM200900 28003G10MPS 9999 SCT030CB", "TAF USCM 192300Z 2000/2009 06003G10MPS 6000 -RA BKN011 TEMPO 2000/2009 14003G08MPS 3100 -RA BR BKN005", "TAF USHH 192233Z 2000/2024 23003G12MPS 6000 -RA SCT005 BKN016 TEMPO 2000/2006 5000 -SHRA BR BKN003 OVC011CB BECMG 2006/2008 9999 BKN016", "TAF USNN 192248Z 2000/2024 20005G10MPS 6000 -SHRA BKN007 BKN016CB OVC020 TEMPO 2000/2007 2100 -SHRA BR BKN004 BKN016CB BECMG 2007/2008 9999 -SHRA FEW010 BKN016CB", "TAF USPP 192255Z 2000/2024 27003G12MPS 6000 BKN016 TEMPO 2000/2007 0300 FG BKN003 BECMG 2007/2008 9999 BKN020 BECMG 2014/2015 23003G10MPS", "TAF USRR 192255Z 2000/2024 20003G10MPS 6000 -SHRA SCT007 BKN016CB TEMPO 2000/2007 2100 -SHRA BR BKN004 BKN015CB BECMG 2007/2009 9999 NSW FEW011 SCT020CB TEMPO 2009/2015 5000 -SHRA SCT006 BKN016CB", "TAF USSS 192248Z 2000/2024 27003G12MPS 9999 -SHRA BKN016CB BECMG 2018/2020 6000 -SHRA", "TAF USTR 192245Z 2000/2024 25004G12MPS 6000 BKN016 TEMPO 2000/2003 2100 -SHRA BR BKN007 BKN016CB FM200600 27005G14MPS 9999 SCT020 BECMG 2015/2016 24003MPS", "TAF UTAA 192235Z 2000/2024 12016KT 6000 SCT050 TEMPO 2000/2004 08014KT 3000 BR BKN020 TEMPO 2004/2010 06012G22KT", "TAF UTAK 192230Z 2000/2024 18012G22KT 9999 SCT033 SCT100 TEMPO 2000/2003 14014G24KT 4000 BR BKN006 BKN100 BECMG 2006/2008 23016KT", "TAF UTAM 192240Z 2000/2024 11016KT 3000 BR SCT020 TEMPO 2000/2004 15012KT 1000 BR BKN005 BECMG 2004/2005 13016KT 5000 SCT040 SCT100 TEMPO 2005/2015 14016G26KT 3000 DRDU", "TAF UTAT 192239Z 2000/2024 13010G20KT CAVOK TEMPO 2004/2013 17020G30KT 2000 BLDU", "TAF UTAV 192230Z 2000/2024 16014KT CAVOK TEMPO 2002/2010 10014G24KT 3000 DRDU", "TAF UTDD 200000Z 2001/2013 VRB02MPS 3100 BR SCT011 BKN030CB TEMPO 2001/2007 1000 BR", "TAF UTDK 200000Z 2001/2010 VRB02MPS 6000 SCT011 BKN020CB TEMPO 2001/2005 3100 BR TEMPO 2005/2010 21005MPS", "TAF UTDL 200000Z 2001/2013 08008MPS 9999 NSC TEMPO 2001/2013 07014MPS", "TAF UTDT 200000Z 2001/2010 VRB02MPS 3100 BR SCT011 BKN030CB", "TAF UTFF 200000Z 2001/2010 34010KT 7000 FEW060CB TEMPO 2001/2007 28014KT 5000 BR SCT050CB", "TAF UTFN 192300Z 2000/2024 33010KT 7000 FEW050CB TEMPO 2000/2110 5000 BR SCT050CB BKN100", "TAF UTNN 192300Z 2000/2024 16012G22KT CAVOK TEMPO 2000/2005 13008KT", "TAF UTNU 192300Z 2000/2024 14012G22KT CAVOK", "TAF UTSA 192301Z 2000/2024 VRB03KT 7000 NSC TEMPO 2000/2006 09010KT 4500 BR TEMPO 2006/2013 13016KT FEW033", "TAF UTSB 192300Z 2000/2024 VRB03KT 7000 NSC TEMPO 2000/2005 09010KT 4500 BR TEMPO 2005/2013 14016KT FEW033", "TAF UTSK 192352Z 2001/2010 06010KT CAVOK TEMPO 2001/2004 2000 BR SCT009", "TAF UTSS 192317Z 2000/2024 13010G20KT 9999 NSC TEMPO 2000/2004 2000 BR BKN007", "TAF UTST 192300Z 2000/2024 04008G18KT 6000 NSC TEMPO 2000/2011 09014G24KT 3000 HZ SCT040 SCT060CB", "TAF UTTT 192300Z 2000/2024 06010KT 7000 NSC TEMPO 2000/2004 BKN100 VRB02KT 1500 BR BKN006", "TAF UUBC 191657Z 1918/2003 17003MPS 9999 BKN016 TEMPO 1918/1921 0300 FG FEW002 BECMG 1921/1923 32003G08MPS TEMPO 1921/2003 -SHRA BKN016CB", "TAF UUBW 192250Z 2000/2024 03003MPS 6000 FEW005 BKN016 TX07/2012Z TN03/2004Z TEMPO 2000/2006 0300 FG BKN002 TEMPO 2009/2012 33005MPS", "TAF UUDD 192253Z 2000/2106 05003MPS 6000 FEW005 BKN016 TX07/2011Z TN02/2024Z PROB40 TEMPO 2000/2006 0300 FG BKN002 BECMG 2006/2008 35005MPS BECMG 2015/2017 29003MPS", "TAF UUDL 192300Z 2000/2024 29003MPS 8000 BKN020 TX06/2012Z TN01/2003Z PROB40 TEMPO 2000/2006 0500 FG VV002", "TAF UUEE 192252Z 2000/2024 36003MPS 9999 FEW006 BKN016 TX07/2012Z TN03/2003Z", "TAF UUMO 192247Z 2000/2009 03003MPS 6000 BKN016 BECMG 2006/2008 33006MPS", "TAF UUOB 192259Z 2000/2009 30003MPS 6000 BKN010 TEMPO 2000/2006 2500 -SHRA BR BKN016CB", "TAF AMD UUOK 191822Z 1918/2003 26003MPS 6000 BKN020 TEMPO 1918/2003 0300 FG BKN003", "TAF UUOL 192300Z 2000/2009 VRB01MPS 6000 SCT016 TEMPO 2000/2006 0400 FG VV002", "TAF UUOO 192300Z 2000/2009 33003MPS 0400 FG BKN016 TEMPO 2000/2005 1600 BR BECMG 2005/2007 6000 NSW", "TAF UUWW 192257Z 2000/2024 05003MPS 6000 FEW009 BKN016 TX07/2012Z TN02/2003Z TEMPO 2000/2006 0300 FG OVC002 BECMG 2006/2008 34005MPS", "TAF UUYY 192300Z 2000/2024 25004G11MPS 9999 BKN011 BKN017CB TEMPO 2000/2006 2100 -SHSN BKN005 BKN016CB FM200600 25006G14MPS 8000 -SHSNRA BKN011 BKN017CB TEMPO 2006/2013 6000 -SHSN BKN005 BKN016CB TEMPO 2013/2018 28006G14MPS 6000 -SHSN -FZRA BKN007 BKN016CB BECMG 2018/2019 27003G10MPS FEW011 BKN017CB", "TAF UWGG 192258Z 2000/2024 35003MPS 6000 BKN016 TX07/2012Z TN03/2001Z TEMPO 2000/2006 0500 FG VV003", "TAF UWKD 192300Z 2000/2024 35003MPS 3100 BR BKN016 TX07/2010Z TN02/2003Z TEMPO 2000/2006 0500 FG VV002 BECMG 2008/2010 9999 NSW", "TAF UWKE 192256Z 2000/2024 31003G10MPS 2100 -RA BR BKN007 TEMPO 2000/2006 35003MPS 0300 FG OVC002 TEMPO 2006/2008 3000 BR SCT005 BECMG 2008/2009 9999 NSW BKN016 BECMG 2012/2014 26003G09MPS", "TAF UWKS 192258Z 2000/2009 35003MPS 8000 BKN020 TX06/2009Z TN02/2002Z TEMPO 2000/2008 OVC010", "TAF UWLL 192253Z 2000/2024 03003G08MPS 6000 -RA BKN016 TX08/2009Z TN04/2001Z TEMPO 2000/2004 33005MPS 0200 FG OVC002", "TAF UWLW 192249Z 2000/2024 01003MPS 6000 BKN016 TX10/2012Z TN03/2002Z TEMPO 2000/2006 1000 RA BR OVC004 TEMPO 2006/2018 05003G09MPS -RA", "TAF UWOO 192244Z 2000/2024 23003G11MPS 6000 BKN016CB TX14/2010Z TN06/2001Z TEMPO 2000/2007 24006G13MPS -SHRA BECMG 2007/2010 30003G09MPS BECMG 2015/2017 35003G08MPS", "TAF UWOR 192245Z 2000/2009 23010G18MPS 6000 BKN016CB TX14/2009Z TN10/2001Z TEMPO 2000/2009 25008G15MPS -SHRA", "TAF UWPS 192255Z 2000/2009 01003MPS 6000 BKN016 TX07/2009Z TN03/2003Z TEMPO 2000/2005 0300 FG VV001", "TAF UWSG 192300Z 2000/2009 05003G08MPS 6000 BKN016 TX10/2000Z TN08/2003Z TEMPO 2000/2009 2100 -SHRA BR FEW003 BKN007 BKN016CB", "TAF UWUU 192243Z 2000/2024 21003G08MPS 9999 OVC016 TX07/2009Z TN04/2002Z TEMPO 2000/2004 VRB01MPS 0300 -RA FG VV003 BECMG 2004/2005 34003G08MPS", "TAF UWWW 192251Z 2000/2024 01003G09MPS 6000 BKN011 TX09/2011Z TN05/2003Z TEMPO 2000/2006 0300 -RA FG VV002 TEMPO 2006/2024 05006G11MPS BKN016", "TAF VAAH 192300Z 2000/2009 04003KT 4000 HZ FU NSC BECMG 2001/2003 07005KT 2000 HZ BECMG 2004/2006 6000 BECMG 2007/2009 13005KT", "TAF VAAU 192300Z 2000/2009 VRB03KT 3000 BR HZ FEW020 SCT100 BECMG 2003/2005 14005KT 4000 HZ SCT020 SCT025 BECMG 2006/2008 32006KT 5000 HZ", "TAF VABB 192300Z 2000/2009 11004KT 2200 -RA BR SCT018 SCT025 BKN100 BECMG 2006/2008 29007KT 3500 HZ", "TAF VABJ 192300Z 2000/2009 VRB02KT 6000 NSC BECMG 2001/2003 5000 HZ BECMG 2004/2006 02004KT 6000 BECMG 2007/2009 09004KT", "TAF VABO 192300Z 2000/2009 00000KT 4000 HZ SCT100 BECMG 2001/2003 1500 BR HZ BECMG 2004/2006 07005KT 6000 FEW020", "TAF VABP 192300Z 2000/2009 07005KT 3000 HZ NSC BECMG 2002/2004 5000 HZ BECMG 2006/2008 6000", "TAF VABV 192300Z 2000/2009 VRB02KT 5000 HZ NSC BECMG 2001/2003 3000 BR HZ BECMG 2004/2006 09005KT 5000 HZ FU", "TAF VADU 192300Z 2000/2009 00000KT 5000 HZ NSC BECMG 2001/2003 2000 BR HZ BECMG 2004/2006 09005KT 5000 HZ FU BECMG 2007/2009 15010KT", "TAF VAID 192300Z 2000/2009 07005KT 3000 HZ NSC BECMG 2002/2004 5000 HZ BECMG 2006/2008 6000", "TAF VAJB 192300Z 2000/2009 07006KT 3000 HZ NSC BECMG 2002/2004 5000 HZ BECMG 2006/2008 6000", "TAF VAJM 192300Z 2000/2009 VRB02KT 4000 HZ NSC BECMG 2001/2003 2000 BR HZ BECMG 2004/2006 02006KT 6000", "TAF VAKP 192300Z 2000/2009 VRB03KT 3000 BR HZ SCT020 SCT025 BECMG 2003/2005 07005KT 4000 HZ BECMG 2008/2009 25008KT 5000 HZ", "TAF VANP 192300Z 2000/2106 04003KT 2000 HZ BR FEW100 BECMG 2006/2008 5000 HZ FEW020 SCT100 BECMG 2013/2015 3000 HZ BECMG 2104/2106 5000 HZ TEMPO 2008/2012 FEWCB030", "TAF VAOZ 191400Z 1915/2003 VRB02KT 6000 TS SCT020 SCT030 FEW030CB BKN090 TEMPO 1915/1919 27010KT 3000 TSRA SCT018 SCT030 FEW030CB BKN090 BECMG 2000/2003 12005KT 5000 BR SCT025 SCT030", "TAF VAPO 192300Z 2000/2106 32008KT 6000 SCT020 SCT090 TEMPO 2000/2004 3000 RABR SCT018 BKN090 TEMPO 2011/2013 30010KT 5000 TSRA FEW015 SCT025 FEW030CB BKN090 TEMPO 2100/2104 3000 BR", "TAF VAPR 192300Z 2000/2009 36005KT 6000 NSC BECMG 2001/2003 4000 BR HZ BECMG 2004/2006 32005KT 6000 BECMG 2007/2009 28010KT", "TAF VARK 192300Z 2000/2009 00000KT 5000 HZ NSC BECMG 2001/2003 4000 HZ BECMG 2004/2006 04005KT 6000 BECMG 2007/2009 36006KT", "TAF VASD 192300Z 2000/2009 VRB03KT 3000 BR HZ FEW020 SCT100 BECMG 2003/2005 14005KT 4000 HZ SCT020 SCT025 BECMG 2006/2008 32006KT 5000 HZ", "TAF VASL 192300Z 2000/2009 VRB03KT 3000 BR HZ SCT020 SCT025 BECMG 2003/2005 07005KT 4000 HZ BECMG 2008/2009 25008KT 5000 HZ", "TAF VASU 192300Z 2000/2009 00000KT 4000 HZ FEW020 SCT100 BECMG 2001/2003 2000 BR HZ BECMG 2004/2006 09005KT 5000 HZ FEW025 SCT100", "TAF VAUD 192300Z 2000/2009 VRB03KT 3000 HZ FEW030 BECMG 2004/2006 25006KT 5000 HZ", "TAF VCBI 192300Z 2000/2106 25007KT 9999 SCT016 TX30/2007Z TN25/2100Z BECMG 2004/2006 27012KT PROB40 TEMPO 2006/2021 7000 -SHRA FEW012 BKN016", "TAF VCRI 192300Z 2000/2106 28008KT 9999 SCT018 TX32/2007Z TN24/2100Z BECMG 2004/2006 28012G22KT PROB30 TEMPO 2006/2014 7000 -TSRA/SHRA SCT016 FEW018CB BKN080 BECMG 2013/2015 28008KT ", "TAF VDPP 192300Z 2000/2018 04009KT 9999 SCT017", "TAF VDSR 192300Z 2000/2018 12009KT 9999 SCT017", "TAF VDSV 192300Z 2000/2018 18009KT 9999 SCT017", "TAF VEAB 191530Z 2000/2012 35005KT 4000 BR FEW025 BECMG 2001/2003 3000 BR BECMG 2003/2004 4000 BR BECMG 2004/2012 02005KT 6000 SCT025", "TAF VEAN 192300Z 2000/2009 00000KT 3000 BR SCT018 BKN090 BECMG 2003/2005 34005KT 5000 HZ", "TAF VEAT 192300Z 2000/2009 00000KT 2500 BR FEW020 SCT100 BECMG 2004/2008 09003KT 5000 HZ FEW020 SCT025", "TAF VEBD 192300Z 2000/2009 VRB02KT 2400 BR FEW020 BECMG 2002/2004 3500 HZ BECMG 2005/2007 5000 HZ", "TAF VEBI 192300Z 2000/2009 00000KT 3000 BR SCT018 SCT100 BECMG 2003/2005 07005KT 5000 HZ", "TAF VEBN 192300Z 2000/2106 00000KT 1500 BR NSC BECMG 2004/2006 VRB02KT 3000 BR BECMG 2006/2008 30005KT 5000 HZ FEW020 SCT025 BECMG 2014/2016 00000KT 3000 BR BSC BECMG 2021/2023 1500 BR BECMG 2104/2106 VRB02KT 3000 BR", "TAF VEBS 192300Z 2000/2106 03005KT 2000 BR SCT018 BECMG 2003/2005 05005KT 4000 HZ FEW018 SCT100 BECMG 2013/2015 08005KT 2500 BR FEW018 BECMG 2103/2105 03005KT 4000 HZ SCT018", "TAF VECC 192300Z 2000/2106 00000KT 2000 BR NSC BECMG 2003/2005 35008KT 3500 HZ FEW020 BECMG 2007/2009 5000 HZ BECMG 2013/2015 3500 HZ NSC BECMG 2022/2024 00000KT 2000 BR BECMG 2103/2105 34008KT 3500 HZ", "TAF VECO 192300Z 2000/2009 00000KT 1800 BR FEW020 BECMG 2003/2005 07005KT 3500 HZ", "TAF VEDG 192300Z 2000/2009 35005KT 2200 BR FEW020 BECMG 2003/2005 3500 HZ BECMG 2005/2007 5000 HZ", "TAF VEDZ 192300Z 2000/2009 00000KT 3000 BR SCT018 BKN090 BECMG 2003/2005 32005KT 5000 HZ", "TAF VEGK 191530Z 2000/2012 VRB02KT 1000 BR SCT030 BECMG 2002/2003 2000 BR BECMG 2004/2005 01005KT 5000 BR/HZ BECMG 2005/2006 6000", "TAF VEGT 192300Z 2000/2106 00000KT 3000 BR SCT018 SCT100 BECMG 2003/2005 03005KT 5000 HZ BECMG 2013/2015 00000KT 3000 BR SCT018 BKN100 BECMG 2103/2105 33005KT 5000 HZ FEW018 SCT100", "TAF VEGY 192300Z 2000/2106 00000KT 2000 BR FEW020 BECMG 2003/2005 26005KT 3000 BR NSC BECMG 2008/2010 5000 HZ FEW018 SCT025 BECMG 2016/2018 00000KT 2500 BR SCT100 BECMG 2104/2106 25005KT 3500 HZ SCT018 SCT100", "TAF VEIM 192300Z 2000/2106 00000KT 3000 BR SCT018 SCT100 BECMG 2003/2005 15005KT 5000 HZ BECMG 2013/2015 00000KT 3000 BR SCT018 BKN100 BECMG 2103/2105 25005KT 5000 HZ FEW018 SCT100", "TAF VEJH 192300Z 2000/2009 00000KT 2000 BR SCT018 BECMG 2003/2005 05005KT 4000 HZ FEW018 SCT100", "TAF VEJS 192300Z 2000/2009 00000KT 2000 BR FEW018 BECMG 2004/2006 25005KT 3500 HZ NSC BECMG 2007/2009 5000 HZ FEW018 SCT025", "TAF VEJT 192300Z 2000/2009 00000KT 3000 BR SCT018 SCT100 BECMG 2003/2005 03005KT 5000 HZ", "TAF VEKO 192300Z 2000/2009 16006KT 3000 HZ NSC BECMG 2002/2004 5000 HZ BECMG 2006/2008 6000", "TAF VELP 192300Z 2000/2009 00000KT 3000 BR FEW018 SCT100 BECMG 2004/2008 06003KT 5000 HZ FEW018 SCT025 BKN100", "TAF VELR 192300Z 2000/2009 00000KT 3000 BR SCT018 SCT100 BECMG 2003/2005 03005KT 5000 HZ", "TAF VEMN 192300Z 2000/2009 00000KT 3000 BR SCT018 SCT100 BECMG 2003/2005 03005KT 5000 HZ", "TAF VEMR 192300Z 2000/2009 00000KT 3000 BR SCT018 SCT100 BECMG 2003/2005 05005KT 5000 HZ", "TAF VEPT 192300Z 2000/2106 00000KT 2500 BR FEW018 BECMG 2004/2006 27005KT 3500 HZ NSC BECMG 2007/2009 5000 HZ FEW018 SCT025 BECMG 2018/2020 00000KT 2800 BR NSC BECMG 2104/2106 28005KT 3500 HZ FEW018 ", "TAF VERC 192300Z 2000/2106 00000KT 1200 MIFG BR FEW018 SCT100 BECMG 2004/2006 35005KT 3000 BR HZ SCT015 SCT100 BECMG 2008/2010 5000 HZ BECMG 2016/2018 00000KT 3000 HZ SCT018 BKN100 BECMG 2103/2105 35005KT 1500 BR SCT018", "TAF VERP 192300Z 2000/2106 04003KT 2000 HZ BR FEW100 BECMG 2006/2008 5000 HZ FEW020 SCT100 BECMG 2013/2015 3000 HZ BECMG 2104/2106 5000 HZ TEMPO 2008/2012 FEWCB030", "TAF VERU 192300Z 2000/2009 00000KT 3000 BR FEW018 SCT100 BECMG 2003/2005 33005KT 5000 HZ", "TAF VETJ 192300Z 2000/2009 00000KT 3000 BR SCT018 SCT100 BECMG 2003/2005 09005KT 5000 HZ", "TAF VETZ 192130Z 2000/2012 VRB02KT 4000 BR SCT025 SCT100 BECMG 2002/2004 08010KT 6000 FEW025CB SCT090", "TAF VEZO 192300Z 2000/2009 00000KT 3000 BR SCT018 BKN090 BECMG 2003/2005 32005KT 5000 HZ", "TAF VGEG 192300Z 2000/2106 00000KT 3800 HZ SCT015 BKN100 BECMG 2003/2005 09008KT 5000 HZ SCT016 BECMG 2011/2013 32010KT 4000 HZ SCT016 BKN100 TEMPO 2022/2103 00000KT 2000 RA/TSRA BKN007 FEW025CB OVC080 BECMG 2103/2105 09010KT 5000 HZ SCT016 BKN100", "TAF VGHS 192300Z 2000/2106 00000KT 3200 HZ FEW012 SCT100 BECMG 2004/2006 33007KT 4000 HZ FEW015 SCT100 BECMG 2014/2016 29006KT 3500 HZ NSC", "TAF VHHH 192300Z 2000/2106 08010KT 9999 FEW040 TX27/2006Z TX29/2106Z TN23/2022Z TEMPO 2000/2003 09015G25KT TEMPO 2103/2106 28010KT", "TAF VIAG 192300Z 2000/2106 VRB02KT 1500 BR NSC BECMG 2002/2003 3000 BR BECMG 2004/2006 02008KT 5000 HZ BECMG 2019/2021 VRB02KT 3000 BR TEMPO 2100/2102 1500 BR BECMG 2104/2105 28008KT 5000 HZ", "TAF VIAR 192300Z 2000/2106 09004KT 1500 BR FEW030 SCT100 BECMG 2005/2007 16006KT 4000 HZ SCT030 SCT090 TEMPO 2008/2010 FEW035CB BECMG 2015/2017 09003KT 3000 BR FEW090 BECMG 2100/2102 1500 BR NSC BECMG 2104/2106 VRB02KT 3500 HZ", "TAF VIBR 192300Z 2000/2009 00000KT 6000 FEW030 BECMG 2006/2008 32004KT 5000 HZ -RA SCT030 SCT080 ", "TAF VIBT 191530Z 2000/2012 VRB02KT 1000 BR SKC BECMG 2004/2005 3000 HZ BECMG 2006/2007 11010KT 4000 FU FEW025 TEMPO 2010/2012 12005KT 3000 FU SKC", "TAF VICG 192300Z 2000/2106 14005KT 3000 BR SKC BECMG 2004/2005 16010KT 6000 SCT025 SCT090 TEMPO 2007/2009 6000 SCT025 FEW030TCU/CB BKN090 BECMG 2010/2011 26005KT 6000 FEW030 SCT090 TEMPO 2100/2103 VRB02KT 4000 BR SKC BECMG 2104/2105 12005KT 5000 HZ SKC", "TAF VIDN 192300Z 2000/2009 05003KT 3000 BR NSC BECMG 2003/2005 23005KT 4500 HZ FEW030 TEMPO 2007/2009 FEW035TCU ", "TAF VIDP 192300Z 2000/2106 00000KT 1800 BR NSC BECMG 2005/2007 21006KT 3500 HZ BECMG 2018/2020 VRB02KT 2500 HZ BECMG 2100/2102 1500 BR BECMG 2104/2106 27005KT 3000 HZ", "TAF VIGG 192300Z 2000/2009 00000KT 6000 FEW035 BECMG 2007/2009 14003KT 5000 HZ -RA SCT035 SCT080 ", "TAF VIGR 191530Z 2000/2012 VRB02KT 3000 BR NSC BECMG 2002/2004 16005KT 4000 BR NSC BECMG 2004/2006 12005KT 6000 NSC", "TAF VIJO 192300Z 2000/2009 VRB03KT 3000 HZ NSC BECMG 2004/2006 27006KT 5000 HZ", "TAF VIJP 192300Z 2000/2009 VRB03KT 3000 HZ NSC BECMG 2004/2006 18006KT 5000 HZ", "TAF VIJU 190930Z 1918/2012 23005KT 6000 SCT100 TEMPO 2001/2005 01005KT 4000 TSRA FEW030CB BKN100 BECMG 2005/2007 23005KT 6000 SCT090 ", "TAF VIKO 192300Z 2000/2009 VRB03KT 3000 HZ NSC BECMG 2004/2006 25006KT 5000 HZ", "TAF VILH 190930Z 1918/2012 29015KT 5000 SN FEW040 SCT060 BKN100 TEMPO 2007/2011 30015G25KT 4000 RABR SCT040 SCT060 BKN100", "TAF VILK 192300Z 2000/2106 00000KT 1500 BR NSC BECMG 2004/2006 VRB02KT 3000 BR BECMG 2006/2008 32005KT 5000 HZ FEW020 SCT025 BECMG 2014/2016 VRB02KT 3000 BR NSC BECMG 2021/2023 00000KT 1500 BR BECMG 2104/2106 VRB02KT 3000 BR", "TAF VISM 192300Z 2000/2009 00000KT 5000 BR SCT020 BECMG 2006/2008 27004KT 3000 HZ -RA BKN020 SCT060 ", "TAF VISR 192130Z 2000/2012 27005KT 6000 FEW025 FEW030CB BKN090 TEMPO 2001/2003 4000 -RA/BR SCT025 FEW030CB BKN080 TEMPO 2003/2006 4000 TSRABR", "TAF VLLB 192300Z 2000/2024 09004KT 5000 BR SCT010 SCT060 TEMPO 2005/2010 9999 FEW20 FEW060", "TAF VLLN 192300Z 2000/2024 32004KT 3000 BR SCT010 SCT100 TEMPO 2005/2010 9999 FEW020 SCT100", "TAF VLPS 192300Z 2000/2024 36006KT 9999 FEW020 SCT200", "TAF VLSK 192300Z 2000/2024 06006KT 5000 BR FEW040 SCT100 TEMPO 2005/2010 8000 FEW020 SCT100", "TAF VLVT 192300Z 2000/2024 04004KT 8000 FEW050 SCT200", "TAF VMMC 192300Z 2000/2106 07013KT 9999 FEW035", "TAF VNKT 192300Z 2000/2024 VRB02KT 7000 FEW020 SCT030 BECMG 2004/2005 15003KT 7000 FEW015 BECMG 2007/2008 28008KT 8000 FEW020 SCT030 BECMG 2014/2015 18003KT 7000 FEW020", "TAF VOAR 190500Z 1906/2012 12010KT 6000 FEW020 SCT090 TEMPO 1909/1912 FEW025TCU/CB TEMPO 1912/1916 3000 -TSRA/RA SCT016 FEW025CB BKN090 BECMG 1915/1917 VRB02KT 4500 BR TEMPO 1923/2002 3000 BR BECMG 2003/2005 10010KT 6000 TEMPO 2009/ 2014 3000 -TSRA/RA SCT016 FEW025CB BKN090", "TAF VOBG 192300Z 2000/2009 05008KT 4000 BR SCT010 SCT080 TEMPO 2000/2003 VRB02KT 1000 MIFG BR SCT008 SCT012 BKN080 BECMG 2003/2004 6000 SCT012", "TAF VOBL 192300Z 2000/2106 05008KT 4000 BR SCT010 SCT080 TEMPO 2000/2003 VRB02KT 1000 MIFG BR SCT008 SCT012 BKN080 BECMG 2003/2004 6000 SCT012 TEMPO 2009/2015 3000 RA DZ SCT010 SCT015 FEW025CB BKN080 TEMPO 2022/2103 2000 BR SCT008 SCT012 BKN080", "TAF VOBM 192300Z 2000/2009 VRB03KT 6000 SCT012 SCT080 TEMPO 2000/2003 2000 BR SCT008 SCT012 BKN080 TEMPO 2009/2015 3000 TSRA RA SCT008 SCT012 FEW025CB BKN080", "TAF VOBZ 192300Z 2000/2106 01007KT 5000 BR SCT015 SCT100 TEMPO 2000/2004 VRB03KT 3000 DZ BR SCT010 SCT015 BKN080 BECMG 2004/2006 08010KT 6000 SCT015 SCT025 TEMPO 2008/2014 FEW030CB BECMG 2016/2018 10007KT 5000 BR SCT015 SCT100 TEMPO 2023/2104 VRB03KT 3000 DZ BR SCT010 SCT015 BKN080 BECMG 2104/2106 09010KT 6000 SCT015 SCT025", "TAF VOCB 192300Z 2000/2106 21010KT 3000 BR SCT012 BKN080 BECMG 2003/2004 5000 HZ BECMG 2006/2007 6000 BECMG 2018/2019 5000 HZ BECMG 2100/2101 3000 BR BECMG 2103/2104 5000 HZ", "TAF VOCI 192300Z 2000/2106 VRB03KT 2500 RA BR FEW008 SCT012 FEW025CB BKN080 BECMG 2003/2005 27010KT 5000 DZ HZ SCT012 FEW025TCU SCT080 TEMPO 2010/2015 3000 TSRA RA FEW008 SCT012 FEW025CB BKN080 BECMG 2016/2017 VRB03KT 4000 -RA BR FEW008 SCT012 BKN080 TEMPO 2022/2102 2000 TSRA BR FEW008 SCT012 FEW025CB OVC080 BECMG 2103/2104 5000 BR SCT012 SCT080", "TAF VOCL 192300Z 2000/2106 VRB03KT 3000 RA BR FEW006 SCT012 BKN080 BECMG 2003/2005 24010KT 6000 SCT015 FEW025TCU SCT080 TEMPO 2010/2016 3000 TSRA RA FEW006 SCT012 FEW025CB OVC080 BECMG 2015/2016 VRB03KT 4000 -RA BR TEMPO 2022/2102 3000 RA BR FEW006 SCT012 BKN080 BECMG 2103/2104 6000 FEW012 SCT018", "TAF VOCP 192300Z 2000/2009 10007KT 5000 BR SCT015 BKN100 TEMPO 2000/2005 VRB03KT 3000 DZ BR RA SCT010 SCT015 FEW030CB BKN080 BECMG 2004/2006 06006KT 6000 SCT015 SCT025", "TAF VOGB 192300Z 2000/2009 VRB02KT 6000 SCT012 SCT080 TEMPO 2000/2003 3000 BR SCT008 SCT012", "TAF VOGO 192300Z 2000/2106 11003KT 6000 FEW018 SCT020 BKN080 TEMPO 2000/2004 VRB02KT 3000 BR SCT008 SCT018 BKN080 BECMG 2006/2008 26008KT 6000 FEW020 SCT090 TEMPO 2012/2016 3000 TSRA RA FEW008 SCT018 FEW025CB BKN090 BECMG 2018/2020 09004KT", "TAF VOHB 192300Z 2000/2106 VRB03KT 6000 SCT012 SCT080 TEMPO 2000/2003 2000 BR SCT008 SCT012 BKN080 TEMPO 2009/2015 3000 TSRA RA SCT008 SCT012 FEW025CB BKN080 TEMPO 2100/2103 3000 BR SCT008 SCT012 BKN080", "TAF VOHS 192300Z 2000/2106 07006KT 5000 BR SCT015 BKN100 TEMPO 2000/2004 VRB03KT 3000 DZ BR SCT010 SCT015 BKN080 BECMG 2004/2006 05010KT 6000 SCT015 SCT025 TEMPO 2010/2016 3000 TSRA SCT010 FEW030CB OVC080 BECMG 2016/2018 15006KT 5000 BR SCT015 SCT100 TEMPO 2023/2104 VRB03KT 3000 DZ BR SCT010 SCT015 BKN080 BECMG 2104/2106 13010KT 6000 SCT015 SCT025", "TAF VOHY 192300Z 2000/2009 07006KT 5000 BR SCT015 BKN100 TEMPO 2000/2004 VRB03KT 3000 DZ BR SCT010 SCT015 BKN080 BECMG 2004/2006 15010KT 6000 SCT015 SCT025", "TAF VOJV 192300Z 2000/2009 VRB02KT 6000 SCT012 SCT080 TEMPO 2000/2003 3000 BR SCT008 SCT012", "TAF VOKN 192300Z 2000/2106 VRB03KT 0800 RA FG SCT002 SCT012 FEW025CB BECMG 2003/2005 4000 BR SCT012 FEW025TCU SCT080 BECMG 2006/2007 24010KT 6000 TEMPO 2010/2015 3000 TSRA RA FEW008 SCT012 FEW025CB BKN080 BECMG 2015/2016 VRB03KT 3000 -RA BR FEW006 SCT012 BKN080 TEMPO 2021/2102 0500 RA FG SCT002 SCT012 FEW025CB BECMG 2103/2104 4000 -RA DZ FEW008 SCT012 BKN080", "TAF VOKU 192300Z 2000/2009 15006KT 5000 BR SCT015 BKN100 TEMPO 2000/2004 VRB03KT 3000 DZ BR RA SCT010 SCT015 BKN080 BECMG 2004/2006 15010KT 6000 SCT015 SCT025", "TAF VOLT 192300Z 2000/2009 VRB03KT 3000 BR HZ SCT020 SCT025 BECMG 2003/2005 07005KT 4000 HZ BECMG 2008/2009 25008KT 5000 HZ", "TAF VOMD 192300Z 2000/2106 05005KT 5000 -DZ/HZ SCT018 BK100 BECMG 2006/2007 6000 BECMG 2018/2019 5000 HZ", "TAF VOML 192300Z 2000/2106 09005KT 4000 BR SCT008 SCT012 TEMPO 2000/2003 1000 MIFG BR SCT005 SCT012 BKN080 BECMG 2005/2006 25010KT 6000 SCT012 TEMPO 2012/2018 3000 TSRA RA SCT005 SCT012 FEW025CB BKN080 BECMG 2016/2017 09005KT TEMPO 2022/2103 2000 BR SCT008 SCT012 BKN080 BECMG 2105/2106 25010KT", "TAF VOMM 192300Z 2000/2106 24005KT 3000 BR SCT020 BKN100 PROB30 TEMPO 2000/2003 2000 TSRA/RA SCT015 FEW025CB BKN080 BECMG 2003/20004 5000 HZ BECMG 2006/2007 05005KT 6000 BECMG 2018/2019 29005KT 5000 HZ BECMG 2100/2101 3000 BR BECMG 2103/2104 5000 HZ", "TAF VOMY 192300Z 2000/2009 05008KT 4000 BR SCT010 SCT080 TEMPO 2000/2003 VRB02KT 1000 MIFG BR SCT008 SCT012 BKN080 BECMG 2003/2004 6000 SCT012", "TAF VOND 192300Z 2000/2009 VRB03KT 3000 BR HZ FEW020 SCT100 BECMG 2003/2005 14005KT 4000 HZ SCT020 SCT025 BECMG 2006/2008 32006KT 5000 HZ", "TAF VOPB 191800Z 1921/2006 07008KT 5000 DZ BR SCT014 BKN080 TEMPO 1921/2003 07010G20KT 2000 SHRA RA SCT012 SCT020 FEW022TCU OVC080 ", "TAF VORY 192300Z 2000/2106 03007KT 5000 BR SCT015 BKN100 TEMPO 2000/2004 VRB03KT 3000 DZ BR SCT010 SCT015 BKN080 BECMG 2004/2006 05010KT 6000 SCT015 SCT025 BECMG 2016/2018 10007KT 5000 BR SCT015 SCT100 TEMPO 2023/2104 VRB03KT 3000 DZ BR SCT010 SCT015 BECMG 2104/2106 08010KT 6000 SCT015 SCT025", "TAF VOTP 192300Z 2000/2106 34007KT 5000 BR SCT015 BKN100 TEMPO 2000/2005 VRB03KT 3000 DZ BR RA SCT010 SCT015 FEW030CB BKN080 BECMG 2004/2006 06006KT 6000 SCT015 SCT025 BECMG 2018/2020 08007KT 5000 BR SCT015 BKN100 TEMPO 2023/2103 VRB03KT 3000 DZ BR SCT010 BKN080 BECMG 2104/2106 06006KT 6000 SCT015 SCT025", "TAF VOTR 192300Z 2000/2106 29005KT 3000 -DZ/BR SCT015 BKN080 BECMG 2003/2004 5000 HZ BECMG 2006/2007 6000 BECMG 2009/2010 14005KT BECMG 2018/2019 29005KT 5000 HZ BECMG 2100/2101 3000 BR BECMG 2103/2104 5000 HZ", "TAF VOTV 192300Z 2000/2106 VRB03KT 2000 TSRA BR FEW008 SCT012 FEW025CB BKN080 BECMG 2003/2005 28010KT 5000 DZ HZ SCT012 FEW025TCU SCT080 TEMPO 2010/2015 4000 TSRA RA FEW008 SCT012 FEW025CB BKN080 BECMG 2017/2018 VRB03KT 3000 -RA BR FEW008 SCT012 BKN080 TEMPO 2022/2102 2000 RA BR BECMG 2103/2104 32005KT 5000 -RA BR SCT012 BKN080", "TAF VOVZ 192300Z 2000/2009 VRB02KT 4000 HZ BR FEW018 TEMPO 2000/2002 3000 BR BECMG 2003/2005 07010KT 5000 HZ FEW018 SCT080", "TAF VRMG 192300Z 2000/2106 25010KT 9999 SCT017TCU BKN110 TEMPO 2000/2006 3000 SHRA SCT017CB", "TAF VRMH 192300Z 2000/2106 25012KT 9999 SCT017TCU SCT110 TEMPO 2000/2006 26017G32KT 3000 TSRA SCT017CB", "TAF VRMM 192300Z 2000/2106 26013KT 9999 FEW018TCU TEMPO 2000/2006 FEW019CB", "TAF VTBD 192300Z 2000/2106 05008KT 9999 FEW040", "TAF VTBO 192300Z 2000/2024 05008KT 8000 FEW020", "TAF VTBS 192300Z 2000/2106 06008KT 9999 FEW040", "TAF VTBU 192300Z 2000/2024 35004KT 3000 BR NSC BECMG 2001/2003 5000 HZ", "TAF VTCC 192300Z 2000/2106 35005KT 9999 FEW035 BECMG 2006/2008 16005KT BECMG 2015/2017 35005KT BECMG 2103/2105 14005KT", "TAF VTCH 192300Z 2000/2024 00000KT 2000 BR FEW025 BECMG 2000/2002 33005KT 9999 NSW", "TAF VTCL 192300Z 2000/2024 02005KT 9999 FEW025", "TAF VTCN 192300Z 2000/2024 02005KT CAVOK", "TAF VTCP 192300Z 2000/2024 00000KT 2000 BR FEW035 BECMG 2000/2002 36005KT 9999 NSW", "TAF VTCT 192300Z 2000/2106 03005KT CAVOK", "TAF VTPB 192300Z 2000/2024 34005KT CAVOK", "TAF VTPH 192300Z 2000/2024 03010KT 8000 FEW020 BECMG 2013/2015 33005KT TEMPO 2015/2024 3000 RA", "TAF VTPM 192300Z 2000/2024 06005KT 9999 FEW035", "TAF VTPO 192300Z 2000/2024 08005KT 9999 FEW022", "TAF VTPP 192300Z 2000/2024 27005KT CAVOK", "TAF VTSB 192300Z 2000/2024 22005KT 8000 SCT020 BKN100 TEMPO 2000/2012 VRB15G25KT 3000 RA TEMPO 2012/2020 4000 RA", "TAF VTSC 192300Z 2000/2024 20005KT 9999 FEW020 SCT100 BECMG 2003/2005 02008KT TEMPO 2006/2015 VRB15G25KT 4000 TSRA FEW016CB SCT018 BKN100 BECMG 2015/2017 19005KT", "TAF VTSE 192300Z 2000/2024 06008KT 8000 SCT020 BKN100 TEMPO 2000/2012 VRB15G25KT 3000 RA TEMPO 2012/2024 3000 RA", "TAF VTSF 192300Z 2000/2024 05006KT 9999 SCT020 BKN100 TEMPO 2000/2012 VRB15G25KT 3000 RA TEMPO 2012/2015 4000 RA", "TAF VTSG 192300Z 2000/2024 00000KT 9999 SCT020 BECMG 2002/2004 22006KT TEMPO 2004/2012 22015G25KT 3000 TSRA FEW018CB SCT020 BKN100", "TAF VTSM 192300Z 2000/2024 33008KT 9999 SCT020 TEMPO 2000/2012 VRB15G25KT 3000 RA TEMPO 2012/2018 4000 RA", "TAF VTSP 192300Z 2000/2106 00000KT 9999 SCT020 BECMG 2002/2004 28008KT TEMPO 2004/2012 28015G25KT 3000 TSRA FEW018CB SCT020 BKN100", "TAF VTSR 192300Z 2000/2024 00000KT 9999 SCT020 BECMG 2002/2004 24006KT TEMPO 2004/2012 22015G25KT 3000 TSRA FEW018CB SCT020 BKN100", "TAF VTSS 192300Z 2000/2024 00000KT 9999 FEW020 BKN100 BECMG 2003/2005 25006KT TEMPO 2005/2013 VRB15G25KT 3000 TSRA FEW016CB SCT018 BKN100 BECMG 2013/2015 00000KT", "TAF VTST 192300Z 2000/2024 00000KT 9999 SCT020 BECMG 2002/2004 22006KT TEMPO 2004/2012 22015G25KT 3000 TSRA FEW018CB SCT020 BKN100", "TAF VTUD 192300Z 2000/2024 06005KT 8000 FEW030", "TAF VTUI 192300Z 2000/2024 06005KT 8000 FEW030", "TAF VTUK 192300Z 2000/2024 04005KT 8000 FEW030", "TAF VTUL 192300Z 2000/2024 08005KT 2000 BR FEW030 BECMG 2001/2003 7000 NSW", "TAF VTUO 192300Z 2000/2024 05008KT 8000 SCT040", "TAF VTUQ 192300Z 2000/2024 04006KT 8000 SCT030", "TAF VTUU 192300Z 2000/2024 04008KT 9000 NSC", "TAF VTUV 192300Z 2000/2024 05006KT 9000 NSC", "TAF VTUW 192300Z 2000/2024 04005KT 9000 FEW030", "TAF VVCI 192300Z 2000/2024 34006KT 6000 SCT015 BKN030 TEMPO 2000/2006 4000 -RA BR SCT008 BKN030", "TAF VVCR 192300Z 2000/2024 08010KT 8000 FEW013 BKN050", "TAF VVCT 192300Z 2000/2024 VRB03KT 9999 SCT015 SCT040 TEMPO 2002/2005 5000 SHRA BKN015 FEW017CB", "TAF VVDN 192300Z 2000/2024 24008KT 9999 FEW013 SCT050", "TAF VVNB 192300Z 2000/2024 32008KT 6000 SCT010 BKN020 TEMPO 2000/2006 3500 RA BR SCT006 BKN020 TEMPO 2009/2015 4000 -RA BR SCT008 BKN020 TEMPO 2018/2024 3500 -RA BR SCT006 BKN015", "TAF VVPB 192300Z 2000/2024 25010KT 8000 SCT013 BKN040", "TAF VVPQ 192300Z 2000/2024 VRB03KT 9999 SCT015", "TAF VVTS 192300Z 2000/2106 11006KT 9999 SCT015 BKN050 TEMPO 2003/2006 5000 SHRA SCT013 FEW015CB BKN050 TEMPO 2006/2010 3000 TSRA SCT013 SCT015CB BKN050", "TAF VYMD 192300Z 2000/2024 32004KT 7000 SCT025 TEMPO 2000/2006 18008KT 6000 BKN020 FEW025CB", "TAF VYNT 192300Z 2000/2024 01005KT 7000 SCT020 FEW025CB SCT120 TEMPO 2000/2006 06006KT 6000 SCT018 FEW023TCU SCT110", "TAF VYYY 192300Z 2000/2024 12007KT 7000 SCT020 FEW025TCU BECMG 2004/2007 15008KT 090V180 6000 SCT020 BECMG 2009/2012 11010KT 6000 SCT017 FEW020TCU ", "TAF WAAA 192300Z 2000/2106 10004KT 9999 SCT019 BECMG 2001/2003 29010KT TEMPO 2007/2010 6000 -TSRA FEW018CB BECMG 2011/2013 12004KT", "TAF WABB 192300Z 2000/2106 02005KT 9999 SCT018", "TAF WADD 192300Z 2000/2100 VRB05KT 9999 SCT016 TEMPO 2006/2010 5000 TSRA FEW015CB", "TAF WADL 192300Z 2000/2024 20007KT 7000 SCT016 BECMG 2000/2002 BKN016 BECMG 2003/2005 4000 TSRA FEW015CB BECMG 2005/2007 7000 BKN016", "TAF WALL 192300Z 2000/2106 33003KT 9999 FEW020 TEMPO 2002/2005 FEW018CB FEW020", "TAF WALS 192300Z 2000/2012 31001KT 5000 BR SCT017 BECMG 2000/2002 9999 NSW", "TAF WAMM 192240Z 2000/2106 32007KT 9999 SCT020 PROB40 TEMPO 2004/2006 5000 RA FEW017CB BECMG 2010/2012 VRB02KT", "TAF WAOO 192300Z 2000/2024 06008KT 9999 SCT017 TEMPO 2006/2010 6000 RA", "TAF WAPP 192300Z 2000/2024 17006KT 9999 SCT018", "TAF WAQA 192300Z 2000/2012 26001KT 6000 FEW012 BECMG 2000/2002 9999", "TAF WAQD 192300Z 2000/2012 00000KT 6000 BKN015 BECMG 2000/2002 9999 SCT015", "TAF WAQJ 192300Z 2000/2012 15001KT 4000 BR BKN015 BECMG 2000/2002 9999 NSW SCT015", "TAF WAQQ 192300Z 2000/2012 20003KT 8000 SCT015", "TAF WAQT 192300Z 2000/2012 VRB01KT 7000 SCT015 BECMG 2000/2002 9999", "TAF WARR 192300Z 2000/2100 25005KT 5000 HZ FEW020 BECMG 2000/2002 09010KT 9999 NSW TEMPO 2000/2004 4000 RA SCT018 PROB40 TEMPO 2007/2011 4000 TSRA SCT018CB BECMG 2018/2020 25005KT 5000 HZ", "TAF WATT 192300Z 2000/2024 14005KT 9999 SCT018 BECMG 2002/2004 33010KT PROB40 TEMPO 2006/2010 5000 TSRA FEW015CB BKN015", "TAF WBGB 192300Z 2000/2100 VRB03KT 9999 FEW016", "TAF WBGG 192300Z 2000/2100 VRB03KT 9999 FEW020 TEMPO 2007/2011 02007KT 5000 -TSRA FEW015CB SCT018", "TAF WBGR 192300Z 2000/2100 VRB03KT 9999 FEW014", "TAF WBGS 192300Z 2000/2100 VRB03KT 9999 FEW018", "TAF WBKK 192300Z 2000/2100 23005KT 9999 FEW015 FEW016CB BECMG 2009/2011 11005KT", "TAF WBKL 192300Z 2000/2024 VRB04KT 9999 FEW015 PROB30 TEMPO 2011/2014 4000 RA FEW014 FEW016CB SCT030", "TAF WBKS 192300Z 2000/2024 06005KT 9999 FEW015", "TAF WBKW 192300Z 2000/2024 15005KT 9999 FEW015", "TAF WBSB 192300Z 2000/2106 20003KT 9999 FEW015 BECMG 2004/2006 28010KT FEW016 FEW017CB TEMPO 2008/2012 7000 -TSRA SCT015 FEW016CB", "TAF WIDD 192300Z 2000/2024 16007KT 9000 SCT014 PROB30 TEMPO 2000/2004 5000 TSRA FEW013CB", "TAF WIEE 192300Z 2000/2024 27005KT 9999 SCT020 TEMPO 2013/2016 1500 RA OVC015", "TAF WIHH 192300Z 2000/2100 18006KT 5000 HZ SCT020 TEMPO 2007/2011 24012KT 3000 -TSRA FEW016CB BKN017 BECMG 2013/2015 03005KT 4000 SCT018", "TAF WIII 192300Z 2000/2106 26010KT 4000 BR SCT020 TEMPO 2000/2003 5000 -TSRA FEW015CB BECMG 2003/2005 9000 NSW TEMPO 2007/2010 5000 -TSRA FEW015CB BECMG 2012/2014 VRB05KT 5000 HZ", "TAF WIMM 192300Z 2000/2100 VRB05KT 4000 HZ BKN017 BECMG 2002/2004 04010KT 9999 SCT018 TEMPO 2012/2015 3000 TSRA FEW016CB BKN017 BECMG 2015/2017 VRB04KT 5000 HZ", "TAF WIPB 192300Z 2000/2012 29006KT 9999 SCT010 TEMPO 2006/2010 3000 TSRA FEW010CB BKN010", "TAF WIPP 192300Z 2000/2024 23007KT 9999 SCT010 TEMPO 2007/2011 3000 TSRA FEW010CB BKN010 TEMPO 2021/2024 3000 BR", "TAF WIPY 192300Z 2000/2012 09007KT 9999 SCT010 TEMPO 2006/2010 3000 TSRA FEW009CB BKN010", "TAF WITT 192300Z 2000/2024 22007KT 8000 BKN017 TEMPO 2005/2008 4000 -RA FEW016CB", "TAF WMAP 192300Z 2000/2024 VRB02KT 9999 FEW018 TEMPO 2000/2004 4000 TSRA FEW017CB", "TAF WMBT 192300Z 2000/2024 VRB02KT 9999 FEW020", "TAF WMKA 192300Z 2000/2024 VRB03KT 9999 FEW020 BECMG 2004/2006 26006KT PROB30 TEMPO 2008/2012 6000 TSRA FEW010 FEW017CB", "TAF WMKB 192300Z 2000/2024 VRB02KT 8000 FEW020 BECMG 2004/2006 27007KT 9999", "TAF WMKC 192300Z 2000/2100 07006KT 9999 FEW018 TEMPO 2008/2012 1000 +TSRA FEW010 FEW017CB", "TAF WMKE 192300Z 2000/2100 13005KT 9999 FEW017 PROB30 TEMPO 2006/2010 7000 -TSRA FEW014CB", "TAF WMKI 192300Z 2000/2024 05005KT 8000 FEW020 TEMPO 2008/2012 22006KT 6000 TSRA FEW017CB", "TAF WMKJ 192300Z 2000/2100 VRB02KT 9999 FEW018 TEMPO 2000/2004 4000 TSRA FEW017CB PROB30 TEMPO 2018/2023 4000 TSRA FEW017CB", "TAF WMKK 192300Z 2000/2106 VRB02KT 9999 FEW018 PROB30 TEMPO 2000/2004 4000 TSRA FEW017CB TEMPO 2018/2023 4000 TSRA FEW017CB", "TAF WMKL 192300Z 2000/2024 VRB03KT 9999 FEW020 BECMG 2004/2006 25006KT TEMPO 2007/2011 6000 TSRA FEW010 FEW017CB", "TAF WMKM 192300Z 2000/2024 VRB02KT 9999 FEW018 TEMPO 2000/2004 4000 TSRA FEW017CB", "TAF WMKN 192300Z 2000/2100 20004KT 9999 FEW018 TEMPO 2006/2012 3000 +TSRA FEW010 FEW017CB", "TAF WMKP 192300Z 2000/2100 VRB03KT 9000 FEW020 BECMG 2004/2006 22006KT BECMG 2010/2012 00000KT FEW025", "TAF WMPA 192300Z 2000/2024 VRB02KT 8000 SCT021", "TAF WMSA 192300Z 2000/2100 VRB02KT 9999 FEW018 PROB30 TEMPO 2000/2004 4000 TSRA FEW017CB", "TAF WPDL 192320Z 2000/2012 33008KT 9999 SCT030 PROB30 TEMPO 2003/2010 VRB25G35KT 1000 TSRA BKN010 SCT040CB", "TAF WSAP 192300Z 2000/2106 22007KT 9999 FEW015 BKN020 TEMPO 2002/2006 3000 TSRA FEW012CB BKN015", "TAF WSSL 192300Z 2000/2106 22007KT 9999 FEW015 BKN020 TEMPO 2002/2006 3000 TSRA FEW012CB BKN015", "TAF WSSS 192300Z 2000/2106 22007KT 9999 FEW015 BKN020 TEMPO 2002/2006 3000 TSRA FEW012CB BKN015", "TAF AMD YAMB 200046Z 2001/2100 05005KT 9999 -SHRA SCT015 BKN020 OVC035 FM200400 03010KT 9999 -SHRA SCT020 BKN030 FM201000 VRB03KT 9999 -SHRA SCT010 BKN020 INTER 2001/2009 4000 SHRA BKN015 TEMPO 2014/2022 3000 -SHRA BKN010", "TAF YBAS 192320Z 2000/2100 20010KT CAVOK FM201000 12005KT CAVOK", "TAF YBBN 192309Z 2000/2106 04012KT 9999 -SHRA SCT020 BKN045 FM201100 04010KT 9999 -SHRA SCT010 BKN020 INTER 2006/2011 5000 SHRA BKN015 TEMPO 2011/2106 3000 SHRA BKN010", "TAF YBCG 192303Z 2000/2100 03014KT 9999 SCT020 BKN025 FM200800 04012KT 9999 SCT012 BKN018 INTER 2006/2015 3000 SHRA BKN010 TEMPO 2015/2022 2000 SHRA BKN008 INTER 2022/2100 2000 SHRA BKN008", "TAF YBCS 192320Z 2000/2100 04010KT 9999 -SHRA SCT025 FM200900 VRB04KT 9999 -SHRA SCT018 INTER 2002/2011 3000 SHRA BKN015 TEMPO 2011/2022 9999 BKN014", "TAF YBHM 192243Z 1923/2012 14014KT 9999 -SHRA SCT010 BKN030 FM200600 09009KT 8000 -RA SCT010 BKN020 TEMPO 1923/2012 3000 SHRA BKN008 PROB30 TEMPO 1923/2012 VRB15G30KT 1000 TSRA BKN005 SCT030CB", "TAF YBLN 192329Z 2000/2100 30010KT 9999 -SHRA SCT015 BKN025 FM200300 25012KT 9999 NSW BKN035 FM201100 VRB03KT 9999 SCT025 BKN040 FM201600 VRB03KT 9999 -SHRA FEW015 BKN020 FM202300 24004KT 9999 -SHRA SCT030 INTER 2000/2003 4000 SHRA BKN010", "TAF YBMA 192246Z 2000/2012 17005KT CAVOK FM200400 23012KT CAVOK", "TAF YBRK 192303Z 2000/2100 06012KT 9999 -SHRA BKN025 FM200800 07008KT 9999 -SHRA BKN016 INTER 2000/2009 3000 SHRA BKN008 TEMPO 2009/2100 3000 SHRA BKN008 PROB30 TEMPO 2003/2100 VRB20G40KT 1000 TSRA BKN010 SCT025CB", "TAF YBRM 192304Z 2000/2100 18008KT CAVOK FM200300 27012KT CAVOK FM201100 26007KT CAVOK FM202100 21007KT CAVOK", "TAF YBTL 192220Z 1923/2018 03010KT 9999 -SHRA FEW018 SCT025 FM200800 VRB06KT 9999 -SHRA SCT015 BKN020 INTER 1923/2006 4000 SHRA BKN017 TEMPO 2006/2015 3000 SHRA BKN014 TEMPO 2015/2018 9999 BKN014 PROB30 INTER 2003/2015 VRB15G30KT 1000 TSRA BKN015 SCT030CB", "TAF AMD YBWW 192345Z 2000/2100 06010KT 9999 -RA SCT012 BKN018 FM200100 07014KT 9999 -SHRA BKN025 FM200700 06012KT 9999 -SHRA BKN010 TEMPO 2000/2001 9999 BKN010 INTER 2007/2100 2000 SHRA BKN008 PROB30 TEMPO 2006/2020 VRB20G35KT 1000 TSRA BKN008 SCT025CB", "TAF YCFS 192302Z 2000/2100 02010KT 9999 -SHRA BKN015 OVC025 BECMG 2001/2003 02014KT 9999 -RA SCT015 BKN020 BECMG 2008/2010 02010KT 9999 -RA BKN014 TEMPO 2000/2100 3000 RA BKN010 PROB30 TEMPO 2003/2009 VRB20G30KT 1000 TSRA BKN015 SCT030CB", "TAF AMD YFRT 192153Z 1921/2008 08006KT 0300 FG BKN002 FM192230 05012KT 9999 NSW SCT003 FM200000 02012KT CAVOK FM200300 33007KT CAVOK", "TAF YGEL 192329Z 2000/2018 01005KT 9999 -SHRA SCT015 BKN020 FM200100 23012KT 9999 NSW BKN030 FM201400 18003KT 9999 FEW025", "TAF YGLA 192303Z 2000/2012 06012KT 9999 -SHRA BKN020 INTER 2000/2012 2000 SHRA BKN010 PROB30 TEMPO 2004/2012 VRB20G40KT 1000 TSRA BKN010 SCT030CB", "TAF AMD YHID 200035Z 2000/2100 20006KT 9999 SCT020 FM200800 10006KT 9999 BKN016 FM201400 16005KT 9999 BKN016 INTER 2000/2002 4000 SHRA BKN012 INTER 2018/2100 5000 SHRA BKN008", "TAF YLHI 192321Z 2000/2100 04012KT 9999 SCT020", "TAF AMD YMAV 192319Z 2000/2100 15010KT 9999 FEW012 FM200200 18014KT CAVOK FM201000 20005KT CAVOK FM201300 VRB03KT 9999 SCT008 FM202300 12010KT 9999 SCT050 TEMPO 2015/2022 9999 BKN005", "TAF YMHB 192321Z 2000/2100 15008KT 9999 SCT025 FM200700 04008KT 9999 SCT025 FM201000 34008KT CAVOK", "TAF YMLT 192321Z 2000/2100 VRB03KT CAVOK FM200200 31006KT 9999 SCT035 FM201200 33006KT CAVOK FM201800 VRB03KT CAVOK PROB30 2016/2022 0400 FG BKN001", "TAF YMML 192318Z 2000/2106 18010KT CAVOK FM200900 27006KT CAVOK FM201500 36005KT 9999 SCT050 FM210200 10008KT 9999 -SHRA SCT030 INTER 2104/2106 4000 SHRA SCT015 BKN030", "TAF YPAD 192319Z 2000/2106 16014KT 9999 SCT040 FM200900 17012KT 9999 BKN040 FM201800 VRB03KT 9999 BKN030 FM210000 24008KT 9999 SCT008 FM210400 22012KT 9999 SCT045", "TAF YPCC 192307Z 2000/2100 13010KT 9999 SCT025", "TAF YPDN 192319Z 2000/2106 12005KT 9999 FEW020 FM200200 30010KT 9999 SCT030 FM201200 26005KT 9999 SCT018 FM201500 14005KT 9999 SCT018 FM210200 30012KT 9999 SCT030 PROB30 TEMPO 2003/2008 VRB20G35KT 1000 TSRA BKN010 SCT030CB", "TAF AMD YPEA 200017Z 2001/2018 26012KT 9999 -SHRA BKN030 FM200200 26012KT 9999 NSW SCT045 FM200900 25008KT 9999 -SHRA BKN020 INTER 2001/2002 5000 -SHRA BKN015 INTER 2010/2013 4000 SHRA BKN010", "TAF AMD YPJT 192328Z 2000/2018 26014KT 9999 BKN035 FM200800 23008KT 9999 -SHRA BKN025 FM201100 18006KT 9999 NSW SCT030 FM201700 03005KT 9999 -SHRA BKN020 INTER 2008/2011 4000 SHRA BKN015", "TAF YPKG 192330Z 2000/2100 01012KT CAVOK FM200100 34015G25KT CAVOK FM200500 28018G30KT CAVOK BECMG 2008/2010 24010KT CAVOK FM201600 16008KT CAVOK", "TAF AMD YPLM 192256Z 1923/2100 22010KT 9999 SCT050 FM200100 17010KT CAVOK FM200400 31005KT CAVOK FM200700 30012KT CAVOK FM201000 22012KT CAVOK", "TAF YPPD 192304Z 2000/2100 17010KT CAVOK FM200400 33014KT CAVOK FM200900 29010KT CAVOK FM201500 25010KT CAVOK", "TAF AMD YPPH 192327Z 2000/2106 VRB03KT 9999 -SHRA BKN030 FM200100 26014KT 9999 NSW SCT030 FM200900 23008KT 9999 -SHRA BKN020 FM201200 18006KT 9999 NSW SCT030 FM201800 03005KT 9999 -SHRA BKN020 FM210100 25012KT 9999 NSW SCT030 INTER 2009/2012 5000 SHRA BKN015 INTER 2021/2101 4000 SHRA BKN010", "TAF AMD YPTN 192319Z 2000/2100 27010KT 9999 FEW040 FM200900 30005KT CAVOK PROB30 TEMPO 2003/2010 VRB20G35KT 1000 TSRA BKN015 SCT060CB", "TAF YPWR 192321Z 2000/2018 20010KT CAVOK", "TAF AMD YPXM 192310Z 1923/2100 14008KT 9999 BKN018", "TAF AMD YSCB 192327Z 2000/2100 11008KT 9999 BKN025 FM200300 11008KT 9999 -RA BKN025 FM200900 10011KT 9999 -RA BKN020 INTER 2004/2009 5000 SHRA BKN020", "TAF AMD YSDU 192340Z 1923/2018 07014KT 9999 -RA SCT014 BKN025 INTER 1923/2008 3000 SHRA BKN012 PROB30 TEMPO 1923/2008 VRB20G40KT 2000 TSRA BKN008 SCT030CB", "TAF YSNF 192321Z 2000/2100 17002KT 9999 SCT025 FM201000 14006KT 9999 SCT025", "TAF AMD YSRI 192330Z 2000/2100 08006KT 9999 -RA SCT005 BKN010 FM200300 11006KT 9999 -SHRA SCT010 BKN015 FM201000 VRB03KT 9999 -RA SCT005 BKN010 BECMG 2022/2100 03005KT 9999 -RA SCT010 BKN015 TEMPO 2000/2003 5000 RA SCT005 BKN006 INTER 2003/2008 4000 SHRA SCT008 BKN010 TEMPO 2008/2100 5000 RA SCT005 BKN006", "TAF AMD YSSY 192320Z 1923/2106 17008KT 9999 -SHRA BKN014 BKN020 BECMG 2000/2001 05014KT 9999 -RA SCT014 BKN025 FM201200 05012KT 9999 -RA BKN014 BECMG 2100/2101 03014KT 9999 -SHRA SCT020 BKN030 TEMPO 2002/2100 3000 RA BKN010 INTER 2100/2106 3000 SHRA BKN012", "TAF YSTW 192329Z 2000/2018 07008KT 9999 -RA FEW015 BKN030 FM200200 36010KT 9999 -RA BKN035 FM200600 06010KT 9999 -RA SCT040 FM201200 13008KT 9999 -SHRA SCT035 INTER 2000/2012 3000 SHRA SCT015 SCT030TCU PROB30 INTER 2003/2009 VRB20G30KT 2000 TSRA BKN015 SCT030CB", "TAF AMD YWLM 200006Z 2001/2100 05014KT 9999 -SHRA SCT015 FM200800 04010KT 9999 -RA SCT012 BKN015 INTER 2003/2008 4000 SHRA BKN012 INTER 2018/2100 5000 RA SCT005 BKN010", "TAF ZBAA 192101Z 2000/2024 20003MPS 5000 BR NSC TX17/2007Z TN04/2021Z", "TAF ZBAD 192104Z 2000/2024 21004MPS CAVOK TX18/2007Z TN07/2021Z", "TAF ZBHH 192100Z 2000/2024 15004MPS 7000 -RA FEW040 TX11/2007Z TN00/2022Z", "TAF ZBSJ 192121Z 2000/2024 16003MPS 6000 NSC TX20/2007Z TN03/2021Z", "TAF ZBTJ 192115Z 2000/2024 21003MPS 5000 HZ NSC TX21/2006Z TN10/2021Z", "TAF ZBYN 192101Z 2000/2024 21004MPS 6000 NSC TX21/2007Z TN05/2022Z", "TAF ZGGG 192112Z 2000/2024 06004MPS 8000 SCT040 TX29/2007Z TN22/2022Z", "TAF ZGHA 192103Z 2000/2024 05004MPS 6000 SCT040 TX25/2007Z TN13/2022Z", "TAF ZGKL 192108Z 2000/2024 05003MPS 6000 SCT060 TX30/2007Z TN15/2022Z", "TAF ZGNN 192108Z 2000/2024 01003MPS 7000 OVC040 TX19/2007Z TN15/2022Z TEMPO 2000/2006 SHRA SCT007 FEW026CB BKN030 TEMPO 2006/2012 SHRA SCT007 FEW026CB BKN030", "TAF ZGOW 192106Z 2000/2024 11004MPS 6000 SCT050 TX27/2006Z TN17/2022Z", "TAF ZGSZ 192103Z 2000/2024 08004MPS 9000 FEW050 TX27/2006Z TN22/2022Z", "TAF ZHCC 192105Z 2000/2024 15003MPS 5000 HZ NSC TX20/2007Z TN09/2022Z", "TAF ZHHH 192101Z 2000/2024 10003MPS 6000 NSC TX24/2007Z TN10/2022Z", "TAF ZJHK 192115Z 2000/2024 06005MPS 6000 BKN005 BKN026 TX26/2007Z TN20/2021Z TEMPO 2000/2006 SHRA BKN005 BKN026 FEW026CB BECMG 2007/2008 SCT010 BKN020", "TAF ZJSY 192106Z 2000/2024 09004MPS 9999 FEW020 BKN040 TX29/2006Z TN24/2021Z", "TAF ZKPY 192150Z 2000/2024 27003MPS CAVOK TX19/2007Z TN06/2021Z TEMPO 2000/2002 4000 BR", "TAF ZKWS 192150Z 2000/2024 27003MPS CAVOK TX23/2007Z TN11/2021Z", "TAF ZLLL 192103Z 2000/2024 17003MPS 6000 NSC TX17/2008Z TN05/2023Z", "TAF ZLXY 192105Z 2000/2024 06004MPS 3000 HZ NSC TX21/2008Z TN10/2022Z", "TAF ZMCK 192256Z 2000/2106 VRB02MPS 9999 SCT033 SCT100 TX04/2007Z TNM06/2022Z TEMPO 2000/2009 6000 SNRA SCT030 BKN080 BECMG 2002/2004 33007MPS BECMG 2011/2013 VRB02MPS", "TAF ZMUB 192256Z 2000/2106 VRB02MPS 9999 SCT033 SCT100 TX04/2007Z TNM08/2022Z TEMPO 2000/2009 6000 SNRA SCT030 BKN080 BECMG 2002/2004 33006MPS BECMG 2010/2012 VRB02MPS", "TAF ZPPP 192105Z 2000/2024 22004MPS 9999 FEW026 TX19/2008Z TN09/2023Z", "TAF ZSAM 192101Z 2000/2024 06006G13MPS 8000 BKN030 TX27/2006Z TN20/2021Z", "TAF ZSFZ 192111Z 2000/2024 03008G13MPS 6000 BKN020 TX24/2006Z TN20/2021Z", "TAF ZSHC 192102Z 2000/2024 07003MPS 3000 BR SCT040 TX22/2006Z TN12/2021Z", "TAF ZSJN 192102Z 2000/2024 23003MPS 3500 BR NSC TX22/2006Z TN06/2021Z", "TAF ZSNB 192104Z 2000/2024 10004MPS 6000 SCT040 TX23/2006Z TN12/2021Z", "TAF ZSNJ 192102Z 2000/2024 08004MPS 3000 HZ NSC TX20/2006Z TN07/2021Z", "TAF ZSOF 192102Z 2000/2024 15003MPS 5000 HZ NSC TX22/2006Z TN11/2022Z", "TAF ZSPD 192108Z 2000/2024 07004MPS 6000 BKN020 TX23/2006Z TN15/2020Z BECMG 2002/2003 12004MPS", "TAF ZSQD 192104Z 2000/2024 18004MPS 5000 BR NSC TX20/2006Z TN08/2021Z", "TAF ZSSS 192107Z 2000/2024 08004MPS 6000 SCT020 TX23/2006Z TN15/2020Z BECMG 2002/2003 11004MPS", "TAF ZUCK 192103Z 2000/2024 06003MPS 6000 SCT050 TX26/2008Z TN15/2022Z", "TAF ZUGY 192103Z 2000/2024 18004MPS 6000 BKN033 TX22/2007Z TN13/2022Z", "TAF ZUUU 192102Z 2000/2024 02003MPS 5000 BR SCT050 TX24/2007Z TN17/2023Z", "TAF ZWSH 192101Z 2000/2024 32006MPS 6000 SCT040 TX17/2009Z TN11/2000Z BECMG 2005/2006 10004MPS BECMG 2017/2018 32005MPS", "TAF ZWWW 192105Z 2000/2024 20004MPS CAVOK TX13/2009Z TN04/2023Z BECMG 2002/2003 34004MPS BECMG 2013/2014 18004MPS", "TAF ZYCC 192101Z 2000/2024 21006G12MPS 6000 NSC TX17/2006Z TN08/2021Z", "TAF ZYHB 192102Z 2000/2024 20004MPS 6000 FEW030 TX17/2006Z TN07/2021Z", "TAF ZYTL 192101Z 2000/2024 23004MPS 5000 BR FEW033 TX19/2006Z TN10/2021Z", "TAF ZYTX 192102Z 2000/2024 18004MPS 6000 NSC TX20/2006Z TN11/2021Z BECMG 2003/2004 22009G14MPS BECMG 2007/2008 18004MPS"]}