{"station_id": ["AGGH", "ANYN", "BGBW", "BGGH", "BGJN", "BGKK", "BGSF", "BGTL", "BIAR", "BIEG", "BIIS", "BIKF", "BIRK", "BIVM", "BK12", "BKPR", "CAHR", "CBBC", "CERM", "CMFM", "CMGB", "CPBT", "CPEH", "CPFI", "CPIN", "CPIR", "CPRO", "CPRY", "CPST", "CPSV", "CTCK", "CTNK", "CTRA", "CWAF", "CWAJ", "CWAQ", "CWAR", "CWAV", "CWBA", "CWBK", "CWBO", "CWBS", "CWBT", "CWBU", "CWBV", "CWBY", "CWBZ", "CWCF", "CWCJ", "CWCO", "CWCT", "CWDA", "CWDC", "CWDJ", "CWDK", "CWDM", "CWDO", "CWDQ", "CWDV", "CWDZ", "CWEB", "CWEF", "CWEH", "CWEL", "CWEP", "CWEQ", "CWER", "CWEU", "CWEW", "CWEZ", "CWFF", "CWFJ", "CWFQ", "CWGB", "CWGD", "CWGH", "CWGL", "CWGM", "CWGR", "CWGT", "CWGY", "CWHI", "CWHL", "CWHO", "CWHP", "CWHQ", "CWHT", "CWHV", "CWID", "CWIG", "CWII", "CWIJ", "CWIK", "CWIL", "CWIP", "CWIS", "CWIT", "CWIW", "CWIZ", "CWJB", "CWJC", "CWJD", "CWJH", "CWJI", "CWJO", "CWJR", "CWJT", "CWJU", "CWJV", "CWJW", "CWJX", "CWKG", "CWKH", "CWKM", "CWKO", "CWKX", "CWLB", "CWLC", "CWLE", "CWLM", "CWLP", "CWLS", "CWLX", "CWLY", "CWME", "CWMJ", "CWMM", "CWMQ", "CWMT", "CWNC", "CWND", "CWNE", "CWNH", "CWNK", "CWNM", "CWNP", "CWNQ", "CWNZ", "CWOB", "CWOC", "CWOD", "CWOE", "CWOY", "CWPD", "CWPE", "CWPF", "CWPO", "CWPR", "CWPZ", "CWQH", "CWQK", "CWQO", "CWQP", "CWQR", "CWQS", "CWQV", "CWRA", "CWRJ", "CWRK", "CWRM", "CWRN", "CWRO", "CWRT", "CWRU", "CWRY", "CWRZ", "CWSA", "CWSD", "CWSF", "CWSG", "CWSK", "CWSL", "CWSP", "CWSR", "CWSS", "CWST", "CWTA", "CWTG", "CWTN", "CWTT", "CWTY", "CWUS", "CWUW", "CWUX", "CWVF", "CWVI", "CWVN", "CWVP", "CWVQ", "CWVT", "CWVU", "CWWA", "CWWB", "CWWE", "CWWF", "CWWK", "CWWL", "CWWS", "CWWU", "CWWZ", "CWXA", "CWXC", "CWXI", "CWXL", "CWYJ", "CWYL", "CWYY", "CWZA", "CWZG", "CWZL", "CWZN", "CWZO", "CWZQ", "CWZW", "CXAF", "CXAG", "CXAJ", "CXAK", "CXAT", "CXBA", "CXBI", "CXBK", "CXBO", "CXBR", "CXBW", "CXCA", "CXCD", "CXCK", "CXCP", "CXCS", "CXDB", "CXDE", "CXDI", "CXDK", "CXDW", "CXEA", "CXEC", "CXET", "CXFM", "CXGH", "CXHA", "CXHD", "CXHM", "CXHP", "CXHR", "CXIB", "CXKA", "CXKE", "CXKI", "CXKM", "CXKT", "CXLB", "CXLL", "CXMD", "CXMG", "CXMI", "CXMM", "CXMO", "CXMY", "CXNM", "CXOL", "CXOX", "CXOY", "CXPA", "CXPC", "CXPL", "CXRB", "CXRH", "CXRL", "CXSC", "CXSE", "CXSH", "CXSL", "CXSP", "CXTD", "CXTH", "CXTN", "CXTO", "CXTP", "CXTV", "CXVM", "CXVN", "CXVW", "CXWM", "CXWN", "CXYH", "CXZC", "CXZV", "CYAH", "CYAM", "CYAT", "CYAY", "CYBC", "CYBG", "CYBK", "CYBQ", "CYBR", "CYBU", "CYBW", "CYBX", "CYCA", "CYCB", "CYCK", "CYCO", "CYCY", "CYDB", "CYDF", "CYDL", "CYDN", "CYDP", "CYDQ", "CYEG", "CYEK", "CYEN", "CYER", "CYET", "CYEV", "CYFB", "CYFC", "CYFT", "CYGL", "CYGP", "CYGR", "CYGV", "CYGW", "CYGX", "CYHD", "CYHE", "CYHK", "CYHM", "CYHU", "CYHY", "CYHZ", "CYIN", "CYIO", "CYIV", "CYJT", "CYKA", "CYKF", "CYKJ", "CYKL", "CYKP", "CYKY", "CYLH", "CYLL", "CYLW", "CYMA", "CYMH", "CYMM", "CYMO", "CYMT", "CYMX", "CYNA", "CYNE", "CYNM", "CYOD", "CYOJ", "CYOO", "CYOW", "CYPA", "CYPD", "CYPE", "CYPH", "CYPL", "CYPO", "CYPQ", "CYPR", "CYPX", "CYPY", "CYQA", "CYQB", "CYQD", "CYQF", "CYQG", "CYQH", "CYQI", "CYQK", "CYQL", "CYQM", "CYQQ", "CYQR", "CYQT", "CYQU", "CYQV", "CYQW", "CYQX", "CYQY", "CYQZ", "CYRB", "CYRJ", "CYRL", "CYRQ", "CYRT", "CYRV", "CYSB", "CYSC", "CYSF", "CYSJ", "CYSM", "CYTE", "CYTH", "CYTL", "CYTR", "CYTS", "CYTZ", "CYUA", "CYUL", "CYUX", "CYUY", "CYVC", "CYVL", "CYVM", "CYVO", "CYVP", "CYVQ", "CYVR", "CYVT", "CYVV", "CYWE", "CYWG", "CYWK", "CYWL", "CYXC", "CYXE", "CYXH", "CYXJ", "CYXL", "CYXR", "CYXS", "CYXT", "CYXU", "CYXX", "CYXY", "CYYB", "CYYC", "CYYD", "CYYE", "CYYF", "CYYG", "CYYH", "CYYJ", "CYYL", "CYYN", "CYYQ", "CYYR", "CYYT", "CYYU", "CYYW", "CYYY", "CYYZ", "CYZE", "CYZF", "CYZH", "CYZP", "CYZR", "CYZS", "CYZT", "CYZV", "CYZX", "CYZY", "CZBF", "CZCP", "CZCR", "CZDB", "CZEL", "CZEV", "CZFS", "CZHY", "CZKD", "CZMD", "CZMJ", "CZOL", "CZPC", "CZSJ", "CZSM", "CZSP", "CZTB", "CZUM", "CZVL", "CZZJ", "DAAD", "DAAE", "DAAG", "DAAJ", "DAAP", "DAAS", "DAAT", "DAAV", "DAAY", "DABB", "DABC", "DABS", "DABT", "DAFH", "DAOB", "DAOF", "DAOI", "DAOL", "DAON", "DAOO", "DAOR", "DAOV", "DAOY", "DATM", "DAUB", "DAUE", "DAUG", "DAUH", "DAUI", "DAUK", "DAUO", "DAUT", "DAUU", "DAUZ", "DBBB", "DFFD", "DFOO", "DGAA", "DIAP", "DIBK", "DIYO", "DNAA", "DNIB", "DNJO", "DNKN", "DNMM", "DNMN", "DNYO", "DRRM", "DRRN", "DRRT", "DRZA", "DRZF", "DRZR", "DTKA", "DTMB", "DTNH", "DTTA", "DTTB", "DTTD", "DTTF", "DTTG", "DTTJ", "DTTK", "DTTL", "DTTN", "DTTR", "DTTX", "DTTZ", "DXNG", "DXSK", "DXXX", "EBAW", "EBBE", "EBBL", "EBBR", "EBCI", "EBCV", "EBDT", "EBFN", "EBFS", "EBLB", "EBLG", "EBOS", "EDAC", "EDAH", "EDBC", "EDDB", "EDDC", "EDDE", "EDDF", "EDDG", "EDDH", "EDDK", "EDDL", "EDDM", "EDDN", "EDDP", "EDDR", "EDDS", "EDDV", "EDDW", "EDFH", "EDFM", "EDGS", "EDHI", "EDHK", "EDHL", "EDJA", "EDLN", "EDLP", "EDLV", "EDLW", "EDMA", "EDMO", "EDNY", "EDQM", "EDSB", "EDTL", "EDTY", "EDVE", "EDVK", "EDWE", "EDXW", "EEEI", "EEKE", "EEPU", "EETN", "EETU", "EFET", "EFHA", "EFHK", "EFIV", "EFJO", "EFJY", "EFKE", "EFKI", "EFKK", "EFKS", "EFKT", "EFKU", "EFLP", "EFMA", "EFMI", "EFOU", "EFPO", "EFRO", "EFSA", "EFSI", "EFTP", "EFTU", "EFUT", "EFVA", "EGAA", "EGAC", "EGAE", "EGBB", "EGBJ", "EGCC", "EGCK", "EGDM", "EGDR", "EGDY", "EGEO", "EGFF", "EGGD", "EGGP", "EGGW", "EGHC", "EGHE", "EGHH", "EGHI", "EGHQ", "EGJA", "EGJB", "EGJJ", "EGKA", "EGKB", "EGKK", "EGLC", "EGLF", "EGLL", "EGMC", "EGMD", "EGNH", "EGNJ", "EGNM", "EGNR", "EGNS", "EGNT", "EGNV", "EGNX", "EGOM", "EGOP", "EGOS", "EGOV", "EGPA", "EGPB", "EGPC", "EGPD", "EGPE", "EGPF", "EGPH", "EGPI", "EGPK", "EGPL", "EGPN", "EGPO", "EGPU", "EGQA", "EGQK", "EGQL", "EGQM", "EGQS", "EGSH", "EGSS", "EGSY", "EGTC", "EGTE", "EGTK", "EGUB", "EGUL", "EGUN", "EGUW", "EGVA", "EGVN", "EGVO", "EGVP", "EGWC", "EGWU", "EGXC", "EGXE", "EGXS", "EGXT", "EGXV", "EGXW", "EGXZ", "EGYD", "EGYE", "EGYH", "EGYM", "EGYP", "EHAK", "EHAM", "EHBK", "EHDL", "EHDV", "EHEH", "EHFD", "EHFS", "EHGG", "EHGR", "EHHW", "EHJA", "EHJR", "EHKD", "EHKV", "EHLE", "EHLW", "EHMA", "EHMG", "EHPG", "EHRD", "EHSA", "EHSC", "EHVK", "EHVL", "EHWO", "EICK", "EIDL", "EIDW", "EIKN", "EIKY", "EIME", "EINN", "EISG", "EIWF", "EKAH", "EKBI", "EKCH", "EKEB", "EKKA", "EKOD", "EKRK", "EKRN", "EKRS", "EKSB", "EKSP", "EKVD", "EKVG", "EKVJ", "EKYT", "ELLX", "ENAL", "ENAN", "ENAT", "ENBL", "ENBN", "ENBO", "ENBR", "ENBS", "ENBV", "ENCN", "ENDR", "ENDU", "ENEV", "ENFB", "ENFL", "ENGC", "ENGM", "ENHD", "ENHE", "ENHF", "ENHK", "ENHM", "ENHV", "ENJS", "ENKB", "ENKR", "ENLA", "ENLE", "ENLK", "ENMH", "ENML", "ENMS", "ENNA", "ENNE", "ENNM", "ENOA", "ENOL", "ENOV", "ENQA", "ENQC", "ENQR", "ENRA", "ENRM", "ENRO", "ENRS", "ENRY", "ENSB", "ENSD", "ENSE", "ENSF", "ENSG", "ENSH", "ENSK", "ENSL", "ENSR", "ENSS", "ENTC", "ENTO", "ENUG", "ENUN", "ENVA", "ENVD", "ENWV", "ENZV", "EPBY", "EPGD", "EPKK", "EPKT", "EPLB", "EPLL", "EPMO", "EPPO", "EPRA", "EPRZ", "EPSC", "EPSY", "EPWA", "EPWR", "EPZG", "ESCF", "ESCM", "ESDF", "ESGG", "ESGJ", "ESGP", "ESGT", "ESIA", "ESIB", "ESKM", "ESKN", "ESMK", "ESMQ", "ESMS", "ESMT", "ESMX", "ESND", "ESNG", "ESNK", "ESNL", "ESNN", "ESNO", "ESNQ", "ESNS", "ESNU", "ESNV", "ESNX", "ESNZ", "ESOE", "ESOH", "ESOK", "ESOW", "ESPA", "ESPE", "ESSA", "ESSB", "ESSD", "ESSL", "ESSP", "ESST", "ESSV", "ESTA", "ESTL", "ESUP", "ESUT", "ETAD", "ETAR", "ETEB", "ETGG", "ETHA", "ETHB", "ETHC", "ETHF", "ETHL", "ETHN", "ETHS", "ETIC", "ETIH", "ETIK", "ETMN", "ETNH", "ETNL", "ETNN", "ETNS", "ETNT", "ETNW", "ETOU", "ETSB", "ETSH", "ETSI", "ETSL", "ETSN", "ETWM", "EVGA", "EVLA", "EVRA", "EVVA", "EYKA", "EYPA", "EYSA", "EYVI", "FABL", "FACT", "FACV", "FAEL", "FAGG", "FAJB", "FAKM", "FAKN", "FALA", "FALE", "FALW", "FAMM", "FAOR", "FAPE", "FAPN", "FAPP", "FASB", "FASI", "FAUP", "FAUT", "FAVV", "FAWB", "FBKE", "FBPM", "FBSK", "FCBB", "FCOD", "FCPP", "FDSK", "FEFF", "FGSL", "FHAW", "FIMP", "FJDG", "FKKD", "FKKL", "FKKN", "FKKR", "FKYS", "FMCZ", "FMEE", "FMEP", "FMMI", "FMMT", "FMNA", "FMNM", "FMNN", "FMSD", "FNLU", "FOGM", "FOGR", "FOOG", "FOOL", "FOON", "FOOT", "FQBR", "FQCH", "FQIN", "FQLC", "FQMA", "FQNP", "FQPB", "FQQL", "FQTT", "FQVL", "FQXA", "FSIA", "FTTA", "FTTD", "FTTJ", "FTTY", "FVCZ", "FVFA", "FVJN", "FVKB", "FVRG", "FVWN", "FWCL", "FWKI", "FYGF", "FYKM", "FYKT", "FYLZ", "FYOA", "FYWB", "FYWH", "FYWW", "FZAA", "GABS", "GAKD", "GAMB", "GANR", "GBYD", "GCFV", "GCGM", "GCHI", "GCLA", "GCLP", "GCRR", "GCTS", "GCXO", "GECE", "GEML", "GFLL", "GGOV", "GLRB", "GMAD", "GMAG", "GMAT", "GMFB", "GMFF", "GMFK", "GMFM", "GMFO", "GMMB", "GMMC", "GMMD", "GMME", "GMMH", "GMMI", "GMML", "GMMN", "GMMW", "GMMX", "GMMZ", "GMTA", "GMTN", "GMTT", "GOBD", "GOGG", "GOGS", "GOOD", "GOOK", "GOOY", "GOSM", "GOSP", "GOSS", "GOTK", "GOTT", "GQNO", "GQPP", "GUCY", "GVAC", "GVBA", "GVNP", "GVSV", "HAAB", "HBBA", "HCMF", "HDAM", "HEAT", "HEAX", "HEBA", "HEBL", "HECA", "HECP", "HEGN", "HEIS", "HELX", "HEMA", "HEMM", "HEPS", "HESG", "HESH", "HESN", "HESW", "HESX", "HETR", "HKJK", "HKKI", "HKML", "HKMO", "HKNW", "HRYR", "HRZA", "HTDA", "HTMW", "HTZA", "HUEN", "K04V", "K04W", "K05U", "K06C", "K06D", "K08D", "K0A0", "K0A9", "K0E0", "K0F2", "K0J4", "K0R0", "K0S9", "K0V4", "K0VG", "K10G", "K12N", "K13K", "K14Y", "K15M", "K17J", "K18A", "K18H", "K19S", "K1A5", "K1A6", "K1A9", "K1AM", "K1BM", "K1BN", "K1BW", "K1CM", "K1CN", "K1CW", "K1DM", "K1DN", "K1EM", "K1EN", "K1EW", "K1F0", "K1FW", "K1GM", "K1GN", "K1H2", "K1HM", "K1HN", "K1HW", "K1IM", "K1IN", "K1IW", "K1JM", "K1JN", "K1JW", "K1KM", "K1KN", "K1LN", "K1LW", "K1M4", "K1M5", "K1MM", "K1MN", "K1MW", "K1NW", "K1OM", "K1OW", "K1R7", "K1R8", "K1S3", "K1U7", "K1V4", "K1V6", "K20U", "K20V", "K21D", "K22N", "K24A", "K24J", "K28J", "K2A0", "K2D5", "K2DP", "K2G2", "K2G4", "K2G9", "K2I0", "K2IS", "K2J5", "K2J9", "K2M2", "K2P2", "K2R9", "K2V5", "K2V6", "K2W6", "K2WX", "K33N", "K33V", "K35A", "K38S", "K3AU", "K3D2", "K3F3", "K3K3", "K3L4", "K3N8", "K3R7", "K3S8", "K3T5", "K3U3", "K40B", "K40U", "K41U", "K42J", "K46D", "K46U", "K48A", "K49A", "K4A6", "K4A9", "K4BM", "K4F2", "K4I3", "K4M9", "K4MR", "K4O4", "K4R5", "K4S1", "K4S2", "K4U6", "K4V0", "K4V1", "K54J", "K57C", "K5A6", "K5C1", "K5H4", "K5R8", "K5SM", "K63S", "K65S", "K66R", "K6A1", "K6A2", "K6B0", "K6B9", "K6I2", "K6P9", "K6R3", "K6S0", "K6S2", "K6S8", "K77S", "K79J", "K7BM", "K7L2", "K7W4", "K7W6", "K81R", "K82C", "K82V", "K8A0", "K8A3", "K8B0", "K8D3", "K8T6", "K96D", "K9A5", "K9D7", "K9L2", "K9MN", "K9S9", "K9V9", "KA39", "KAAA", "KAAF", "KAAO", "KAAS", "KAAT", "KABE", "KABH", "KABI", "KABQ", "KABR", "KABY", "KACB", "KACJ", "KACK", "KACP", "KACQ", "KACT", "KACV", "KACY", "KACZ", "KADC", "KADF", "KADG", "KADH", "KADM", "KADS", "KADT", "KADU", "KADW", "KAEG", "KAEJ", "KAEL", "KAEX", "KAFF", "KAFJ", "KAFK", "KAFN", "KAFO", "KAFP", "KAFW", "KAGC", "KAGI", "KAGO", "KAGS", "KAHN", "KAHQ", "KAIA", "KAID", "KAIG", "KAIK", "KAIO", "KAIT", "KAIZ", "KAJG", "KAJO", "KAJR", "KAJZ", "KAKH", "KAKO", "KAKQ", "KAKR", "KALB", "KALI", "KALK", "KALM", "KALN", "KALO", "KALS", "KALW", "KAMA", "KAMG", "KAMN", "KAMW", "KANB", "KAND", "KANE", "KANJ", "KANK", "KANQ", "KANW", "KAOH", "KAOO", "KAPA", "KAPC", "KAPF", "KAPN", "KAPS", "KAPY", "KAQO", "KAQP", "KAQV", "KAQW", "KAQX", "KARA", "KARB", "KARG", "KARM", "KARR", "KART", "KARV", "KARW", "KASD", "KASE", "KASH", "KASJ", "KASL", "KASN", "KAST", "KASW", "KASX", "KATA", "KATL", "KATP", "KATS", "KATT", "KATW", "KATY", "KAUG", "KAUH", "KAUM", "KAUN", "KAUO", "KAUS", "KAUW", "KAVC", "KAVL", "KAVP", "KAVQ", "KAVX", "KAWG", "KAWM", "KAWO", "KAXA", "KAXH", "KAXN", "KAXS", "KAXV", "KAXX", "KAYS", "KAZC", "KAZE", "KAZO", "KBAB", "KBAC", "KBAD", "KBAF", "KBAM", "KBAN", "KBAX", "KBAZ", "KBBB", "KBBD", "KBBG", "KBBP", "KBBW", "KBCB", "KBCE", "KBCK", "KBCR", "KBDE", "KBDG", "KBDH", "KBDL", "KBDN", "KBDR", "KBDU", "KBEC", "KBED", "KBEH", "KBFD", "KBFF", "KBFI", "KBFL", "KBFM", "KBFR", "KBGD", "KBGE", "KBGF", "KBGM", "KBGR", "KBHB", "KBHC", "KBHK", "KBHM", "KBID", "KBIE", "KBIF", "KBIH", "KBIJ", "KBIL", "KBIS", "KBIV", "KBIX", "KBJC", "KBJI", "KBJJ", "KBKB", "KBKD", "KBKE", "KBKF", "KBKL", "KBKN", "KBKS", "KBKT", "KBKV", "KBKW", "KBKX", "KBLF", "KBLI", "KBLM", "KBLU", "KBLV", "KBMC", "KBMG", "KBMI", "KBML", "KBMQ", "KBMT", "KBNA", "KBNL", "KBNO", "KBNW", "KBOI", "KBOK", "KBOS", "KBOW", "KBPC", "KBPG", "KBPI", "KBPK", "KBPT", "KBQK", "KBQP", "KBQX", "KBRD", "KBRG", "KBRL", "KBRO", "KBRY", "KBTA", "KBTL", "KBTM", "KBTN", "KBTP", "KBTR", "KBTV", "KBUF", "KBUR", "KBUU", "KBUY", "KBVI", "KBVN", "KBVO", "KBVS", "KBVU", "KBVX", "KBVY", "KBWD", "KBWG", "KBWI", "KBWP", "KBWW", "KBXA", "KBXK", "KBYG", "KBYI", "KBYL", "KBYS", "KBYY", "KBZN", "KC07", "KC09", "KC29", "KC35", "KC62", "KC65", "KC75", "KC83", "KC99", "KCAD", "KCAE", "KCAG", "KCAK", "KCAO", "KCAR", "KCAV", "KCBE", "KCBF", "KCBG", "KCBK", "KCBM", "KCCA", "KCCB", "KCCO", "KCCR", "KCCU", "KCCY", "KCDA", "KCDC", "KCDD", "KCDH", "KCDI", "KCDJ", "KCDN", "KCDR", "KCDS", "KCDW", "KCEC", "KCEF", "KCEU", "KCEW", "KCEY", "KCEZ", "KCFD", "KCFE", "KCFJ", "KCFO", "KCFS", "KCFV", "KCGC", "KCGE", "KCGF", "KCGI", "KCGS", "KCGZ", "KCHA", "KCHK", "KCHO", "KCHS", "KCIC", "KCID", "KCIN", "KCIU", "KCJR", "KCKB", "KCKC", "KCKF", "KCKI", "KCKM", "KCKN", "KCKP", "KCKV", "KCKZ", "KCLE", "KCLI", "KCLK", "KCLL", "KCLM", "KCLS", "KCLT", "KCLW", "KCMA", "KCMD", "KCMH", "KCMI", "KCMR", "KCMX", "KCMY", "KCNB", "KCNC", "KCNI", "KCNK", "KCNM", "KCNO", "KCNU", "KCNY", "KCOD", "KCOE", "KCOF", "KCOM", "KCON", "KCOQ", "KCOS", "KCOT", "KCOU", "KCPC", "KCPF", "KCPP", "KCPR", "KCPS", "KCPT", "KCPW", "KCQB", "KCQC", "KCQF", "KCQM", "KCQT", "KCQW", "KCQX", "KCRE", "KCRG", "KCRP", "KCRQ", "KCRS", "KCRW", "KCRX", "KCSG", "KCSM", "KCSQ", "KCSV", "KCTB", "KCTJ", "KCTY", "KCTZ", "KCUB", "KCUH", "KCUT", "KCVC", "KCVG", "KCVH", "KCVN", "KCVO", "KCVS", "KCVX", "KCWA", "KCWC", "KCWF", "KCWI", "KCWN", "KCWV", "KCXE", "KCXO", "KCXP", "KCXU", "KCXW", "KCXY", "KCYS", "KCZL", "KCZT", "KD07", "KD25", "KD39", "KD50", "KD55", "KD57", "KD60", "KD73", "KD95", "KDAA", "KDAB", "KDAG", "KDAL", "KDAN", "KDAW", "KDAY", "KDBN", "KDBQ", "KDCA", "KDCU", "KDCY", "KDDC", "KDDH", "KDEC", "KDED", "KDEH", "KDEN", "KDEQ", "KDET", "KDEW", "KDFI", "KDFW", "KDGW", "KDHN", "KDHT", "KDIJ", "KDIK", "KDKB", "KDKK", "KDKR", "KDKX", "KDLF", "KDLH", "KDLL", "KDLN", "KDLO", "KDLP", "KDLS", "KDLZ", "KDMA", "KDMH", "KDMN", "KDMO", "KDMW", "KDNA", "KDNL", "KDNN", "KDNV", "KDOV", "KDPA", "KDPL", "KDQH", "KDRA", "KDRI", "KDRM", "KDRO", "KDRT", "KDSF", "KDSM", "KDSV", "KDTA", "KDTL", "KDTN", "KDTO", "KDTS", "KDTW", "KDUA", "KDUB", "KDUC", "KDUG", "KDUH", "KDUJ", "KDUX", "KDVK", "KDVL", "KDVN", "KDVO", "KDVP", "KDVT", "KDWA", "KDWH", "KDWU", "KDWX", "KDXR", "KDXX", "KDYA", "KDYB", "KDYL", "KDYR", "KDYS", "KDYT", "KDZB", "KDZJ", "KE11", "KE16", "KE38", "KE41", "KE42", "KEAN", "KEAR", "KEAT", "KEAU", "KEBA", "KEBG", "KEBS", "KECG", "KECP", "KECS", "KECU", "KEDC", "KEDE", "KEDJ", "KEDN", "KEDU", "KEDW", "KEED", "KEEN", "KEEO", "KEET", "KEFK", "KEFT", "KEGE", "KEGI", "KEGT", "KEGV", "KEHA", "KEHO", "KEHR", "KEIK", "KEKE", "KEKN", "KEKO", "KEKQ", "KEKS", "KEKX", "KEKY", "KELA", "KELD", "KELK", "KELM", "KELN", "KELO", "KELP", "KELY", "KELZ", "KEMM", "KEMP", "KEMV", "KEND", "KENL", "KENV", "KENW", "KEOE", "KEOK", "KEPH", "KEQA", "KEQY", "KERI", "KERV", "KERY", "KESC", "KESF", "KESN", "KEST", "KETB", "KETC", "KETH", "KETN", "KEUF", "KEUG", "KEUL", "KEVM", "KEVU", "KEVV", "KEVW", "KEWB", "KEWK", "KEWN", "KEWR", "KEXX", "KEYE", "KEYF", "KEYW", "KEZF", "KEZM", "KEZP", "KEZS", "KEZZ", "KF00", "KF05", "KF17", "KF44", "KF46", "KF70", "KFAF", "KFAM", "KFAR", "KFAT", "KFAY", "KFBG", "KFBL", "KFCI", "KFCM", "KFCS", "KFDK", "KFDR", "KFDW", "KFDY", "KFEP", "KFET", "KFFA", "KFFC", "KFFL", "KFFM", "KFFO", "KFFT", "KFFX", "KFFZ", "KFGN", "KFGX", "KFHB", "KFHR", "KFHU", "KFIG", "KFIN", "KFKL", "KFKN", "KFKR", "KFKS", "KFLD", "KFLG", "KFLL", "KFLO", "KFLP", "KFLY", "KFME", "KFMH", "KFMM", "KFMN", "KFMY", "KFNB", "KFNL", "KFNT", "KFOA", "KFOD", "KFOE", "KFOK", "KFOZ", "KFPK", "KFPR", "KFPY", "KFQD", "KFRG", "KFRH", "KFRI", "KFRM", "KFSD", "KFSI", "KFSK", "KFSM", "KFST", "KFSW", "KFTK", "KFTN", "KFTW", "KFTY", "KFUL", "KFVE", "KFVX", "KFWA", "KFWB", "KFWC", "KFWN", "KFWS", "KFXE", "KFXY", "KFYE", "KFYG", "KFYJ", "KFYM", "KFYV", "KFZG", "KFZY", "KGAD", "KGAF", "KGAG", "KGAI", "KGAO", "KGBD", "KGBG", "KGCC", "KGCD", "KGCK", "KGCM", "KGCN", "KGCY", "KGDA", "KGDB", "KGDJ", "KGDP", "KGDV", "KGED", "KGEG", "KGEV", "KGEY", "KGEZ", "KGFA", "KGFK", "KGFL", "KGGE", "KGGF", "KGGG", "KGGI", "KGGP", "KGGW", "KGHG", "KGHW", "KGIC", "KGIF", "KGJT", "KGKJ", "KGKT", "KGKY", "KGLD", "KGLE", "KGLH", "KGLR", "KGLS", "KGLW", "KGLY", "KGMJ", "KGMU", "KGNA", "KGNB", "KGNC", "KGNG", "KGNR", "KGNT", "KGNV", "KGOK", "KGON", "KGOO", "KGOV", "KGPC", "KGPH", "KGPI", "KGPM", "KGPT", "KGPZ", "KGRB", "KGRD", "KGRF", "KGRI", "KGRK", "KGRN", "KGRR", "KGRY", "KGSB", "KGSO", "KGSP", "KGTB", "KGTF", "KGTR", "KGTU", "KGUC", "KGUL", "KGUP", "KGUR", "KGUS", "KGUY", "KGVE", "KGVL", "KGVQ", "KGVT", "KGVW", "KGWB", "KGWO", "KGWR", "KGWW", "KGXA", "KGXF", "KGXY", "KGYB", "KGYF", "KGYH", "KGYI", "KGYL", "KGYY", "KGZH", "KGZL", "KGZN", "KGZS", "KHAE", "KHAF", "KHAI", "KHAO", "KHBG", "KHBI", "KHBR", "KHBV", "KHCD", "KHCO", "KHCR", "KHDC", "KHDE", "KHDL", "KHDN", "KHDO", "KHEF", "KHEG", "KHEI", "KHEQ", "KHEY", "KHEZ", "KHFD", "KHFF", "KHFJ", "KHFY", "KHGR", "KHHF", "KHHG", "KHHR", "KHHW", "KHIB", "KHIE", "KHIF", "KHIO", "KHJH", "KHJO", "KHKA", "KHKS", "KHKY", "KHLB", "KHLC", "KHLG", "KHLN", "KHLR", "KHLX", "KHMN", "KHMP", "KHMT", "KHMZ", "KHNB", "KHND", "KHNR", "KHNZ", "KHOB", "KHOE", "KHON", "KHOP", "KHOT", "KHOU", "KHPN", "KHPT", "KHQG", "KHQG", "KHQM", "KHQU", "KHQZ", "KHRF", "KHRI", "KHRJ", "KHRL", "KHRO", "KHRT", "KHRX", "KHSB", "KHSD", "KHSE", "KHSG", "KHSI", "KHSP", "KHST", "KHSV", "KHTH", "KHTS", "KHUA", "KHUF", "KHUL", "KHUM", "KHUT", "KHVC", "KHVE", "KHVN", "KHVR", "KHVS", "KHWD", "KHWO", "KHWV", "KHWY", "KHXD", "KHYA", "KHYI", "KHYR", "KHYS", "KHYW", "KHYX", "KHZD", "KHZE", "KHZL", "KHZR", "KHZX", "KHZY", "KI16", "KI19", "KI23", "KI35", "KI63", "KI67", "KI68", "KI69", "KI74", "KI75", "KI95", "KIAB", "KIAD", "KIAG", "KIAH", "KIBM", "KICR", "KICT", "KIDA", "KIDI", "KIDP", "KIEN", "KIER", "KIFA", "KIFP", "KIGM", "KIGQ", "KIIB", "KIIY", "KIJD", "KIJX", "KIKG", "KIKK", "KIKV", "KIKW", "KILE", "KILG", "KILM", "KILN", "KIML", "KIMM", "KIMS", "KIMT", "KIND", "KINF", "KINJ", "KINK", "KINL", "KINS", "KINT", "KINW", "KIOB", "KIOW", "KIPJ", "KIPL", "KIPT", "KIRK", "KIRS", "KISM", "KISO", "KISP", "KISQ", "KISW", "KITH", "KITR", "KIWA", "KIWD", "KIWI", "KIXA", "KIXD", "KIYA", "KIZA", "KIZG", "KJAC", "KJAN", "KJAQ", "KJAS", "KJAU", "KJAX", "KJBR", "KJCA", "KJCT", "KJDD", "KJDN", "KJEF", "KJER", "KJES", "KJFK", "KJFX", "KJFZ", "KJHW", "KJKA", "KJKJ", "KJKL", "KJLN", "KJMR", "KJMS", "KJNX", "KJOT", "KJPX", "KJQF", "KJRB", "KJRO", "KJSO", "KJST", "KJSV", "KJTC", "KJVL", "KJVW", "KJVY", "KJWG", "KJWN", "KJWY", "KJXN", "KJYG", "KJYL", "KJYM", "KJYO", "KJYR", "KJZI", "KJZP", "KK62", "KK70", "KK82", "KK88", "KKLS", "KKNB", "KKY8", "KL08", "KL35", "KLAA", "KLAF", "KLAL", "KLAM", "KLAN", "KLAR", "KLAS", "KLAW", "KLAX", "KLBB", "KLBE", "KLBF", "KLBL", "KLBO", "KLBT", "KLBX", "KLCG", "KLCH", "KLCI", "KLCK", "KLCQ", "KLDM", "KLEB", "KLEE", "KLEW", "KLEX", "KLFI", "KLFK", "KLFT", "KLGA", "KLGB", "KLGC", "KLGD", "KLGF", "KLGU", "KLHB", "KLHM", "KLHQ", "KLHW", "KLHX", "KLHZ", "KLIC", "KLIT", "KLJF", "KLKR", "KLKU", "KLKV", "KLLJ", "KLLN", "KLLQ", "KLMO", "KLMS", "KLMT", "KLNA", "KLNC", "KLND", "KLNK", "KLNL", "KLNN", "KLNP", "KLNQ", "KLNR", "KLNS", "KLOL", "KLOM", "KLOR", "KLOT", "KLOU", "KLOZ", "KLPR", "KLQK", "KLRD", "KLRF", "KLRJ", "KLRO", "KLRU", "KLRY", "KLSE", "KLSF", "KLSV", "KLTS", "KLUA", "KLUD", "KLUF", "KLUG", "KLUK", "KLUL", "KLUM", "KLUV", "KLUX", "KLVJ", "KLVK", "KLVM", "KLVN", "KLVS", "KLWA", "KLWB", "KLWC", "KLWD", "KLWM", "KLWS", "KLWT", "KLWV", "KLXL", "KLXN", "KLXT", "KLXY", "KLYH", "KLYO", "KLYV", "KLZU", "KLZZ", "KM01", "KM02", "KM04", "KM08", "KM19", "KM21", "KM25", "KM30", "KM40", "KM54", "KM75", "KM91", "KMAF", "KMAI", "KMAN", "KMAO", "KMAW", "KMBG", "KMBL", "KMBO", "KMBS", "KMBT", "KMBY", "KMCB", "KMCC", "KMCD", "KMCE", "KMCF", "KMCI", "KMCJ", "KMCK", "KMCN", "KMCO", "KMCW", "KMCZ", "KMDD", "KMDH", "KMDQ", "KMDS", "KMDT", "KMDW", "KMDZ", "KMEB", "KMEI", "KMEM", "KMEV", "KMEZ", "KMFD", "KMFE", "KMFI", "KMFR", "KMFV", "KMGC", "KMGE", "KMGG", "KMGJ", "KMGM", "KMGN", "KMGR", "KMGW", "KMGY", "KMHE", "KMHK", "KMHL", "KMHP", "KMHR", "KMHS", "KMHT", "KMHV", "KMIA", "KMIB", "KMIC", "KMIE", "KMIO", "KMIV", "KMIW", "KMJD", "KMKC", "KMKE", "KMKG", "KMKJ", "KMKL", "KMKN", "KMKO", "KMKS", "KMKT", "KMLB", "KMLC", "KMLE", "KMLF", "KMLI", "KMLJ", "KMLP", "KMLS", "KMLT", "KMLU", "KMMH", "KMMI", "KMMK", "KMML", "KMMT", "KMMU", "KMMV", "KMNE", "KMNH", "KMNI", "KMNM", "KMNN", "KMNV", "KMOB", "KMOD", "KMOP", "KMOT", "KMOX", "KMPO", "KMPR", "KMPV", "KMPZ", "KMQB", "KMQI", "KMQJ", "KMQS", "KMQW", "KMQY", "KMRB", "KMRC", "KMRF", "KMRH", "KMRJ", "KMRN", "KMRT", "KMRY", "KMSL", "KMSN", "KMSO", "KMSP", "KMSS", "KMSV", "KMSY", "KMTC", "KMTH", "KMTJ", "KMTK", "KMTN", "KMTO", "KMTP", "KMTV", "KMTW", "KMUI", "KMUO", "KMUT", "KMVE", "KMVL", "KMVN", "KMVY", "KMWA", "KMWH", "KMWK", "KMWL", "KMWM", "KMWN", "KMWO", "KMWT", "KMXF", "KMYF", "KMYJ", "KMYL", "KMYR", "KMYV", "KMYZ", "KMZH", "KMZZ", "KN03", "KN38", "KN60", "KN79", "KNAK", "KNBC", "KNBG", "KNBT", "KNCA", "KNDZ", "KNEW", "KNFE", "KNFG", "KNFL", "KNFW", "KNGP", "KNGU", "KNHK", "KNID", "KNIP", "KNJK", "KNJM", "KNJW", "KNKT", "KNKX", "KNMM", "KNOG", "KNOW", "KNPA", "KNQI", "KNQX", "KNRB", "KNRN", "KNRS", "KNSE", "KNSI", "KNTD", "KNTU", "KNUC", "KNUI", "KNUQ", "KNUW", "KNXF", "KNXP", "KNYC", "KNYG", "KNYL", "KNZY", "KO05", "KO22", "KO32", "KO69", "KO86", "KOAJ", "KOAK", "KOAR", "KOBE", "KOCF", "KOCH", "KOCQ", "KOCW", "KODO", "KODX", "KOEB", "KOEL", "KOEO", "KOFF", "KOFP", "KOGA", "KOGB", "KOGD", "KOGS", "KOIC", "KOIN", "KOJC", "KOKB", "KOKC", "KOKK", "KOKM", "KOKV", "KOKZ", "KOLE", "KOLF", "KOLG", "KOLM", "KOLS", "KOLU", "KOLV", "KOLY", "KOLZ", "KOMA", "KOMH", "KOMK", "KONL", "KONM", "KONO", "KONP", "KONT", "KONX", "KONZ", "KOOA", "KOPF", "KOPL", "KOPN", "KOQN", "KOQT", "KORB", "KORD", "KORE", "KORF", "KORG", "KORH", "KORK", "KORL", "KORS", "KOSA", "KOSC", "KOSH", "KOSU", "KOTG", "KOTH", "KOTM", "KOUN", "KOVL", "KOVS", "KOWA", "KOWB", "KOWD", "KOWI", "KOWP", "KOWX", "KOXC", "KOXD", "KOXI", "KOXR", "KOXV", "KOYM", "KOZA", "KOZR", "KOZS", "KOZW", "KP08", "KP28", "KP52", "KP53", "KP58", "KP59", "KP60", "KP68", "KP69", "KP92", "KPAE", "KPAH", "KPAM", "KPAN", "KPBF", "KPBG", "KPBH", "KPBI", "KPBX", "KPCM", "KPCW", "KPCZ", "KPDK", "KPDT", "KPDX", "KPEA", "KPEO", "KPEQ", "KPEX", "KPEZ", "KPGA", "KPGD", "KPGV", "KPHD", "KPHF", "KPHL", "KPHN", "KPHP", "KPHT", "KPHX", "KPIA", "KPIB", "KPIE", "KPIH", "KPIL", "KPIM", "KPIR", "KPIT", "KPJC", "KPKB", "KPKD", "KPKV", "KPLN", "KPLR", "KPLU", "KPMD", "KPMH", "KPMP", "KPMU", "KPMV", "KPNA", "KPNC", "KPNE", "KPNM", "KPNS", "KPO1", "KPOB", "KPOE", "KPOF", "KPOU", "KPOV", "KPOY", "KPPA", "KPPF", "KPPO", "KPPQ", "KPQI", "KPQL", "KPRB", "KPRC", "KPRG", "KPRN", "KPRO", "KPRS", "KPRX", "KPSC", "KPSF", "KPSK", "KPSM", "KPSO", "KPSP", "KPSX", "KPTB", "KPTD", "KPTK", "KPTS", "KPTT", "KPTV", "KPTW", "KPUB", "KPUC", "KPUJ", "KPUW", "KPVB", "KPVC", "KPVD", "KPVE", "KPVF", "KPVG", "KPVJ", "KPVU", "KPVW", "KPWA", "KPWC", "KPWD", "KPWG", "KPWK", "KPWM", "KPWT", "KPXE", "KPYM", "KPYX", "KPZQ", "KPZZ", "KQAZ", "KQBL", "KQD3", "KQDG", "KQEI", "KQEJ", "KQEN", "KQEP", "KQEQ", "KQER", "KQES", "KQEV", "KQEW", "KQEX", "KQEY", "KQFB", "KQFT", "KQFU", "KQFV", "KQFW", "KQFX", "KQHY", "KQOA", "KQRH", "KQTZ", "KQVF", "KRAC", "KRAL", "KRAP", "KRAS", "KRAW", "KRBD", "KRBG", "KRBL", "KRBO", "KRBW", "KRCA", "KRCE", "KRCM", "KRCR", "KRCV", "KRCX", "KRCZ", "KRDD", "KRDG", "KRDK", "KRDM", "KRDR", "KRDU", "KREG", "KREO", "KRFD", "KRFI", "KRGA", "KRGK", "KRHI", "KRHP", "KRIC", "KRIL", "KRIV", "KRIW", "KRKD", "KRKP", "KRKR", "KRKS", "KRKW", "KRLD", "KRME", "KRMG", "KRMN", "KRMY", "KRNC", "KRND", "KRNH", "KRNM", "KRNO", "KRNP", "KRNT", "KROA", "KROC", "KROG", "KROS", "KROW", "KROX", "KRPH", "KRPJ", "KRPX", "KRQB", "KRQE", "KRQO", "KRRT", "KRSL", "KRSN", "KRSP", "KRST", "KRSW", "KRTN", "KRTS", "KRUE", "KRUG", "KRUQ", "KRUT", "KRVF", "KRVJ", "KRVL", "KRVS", "KRWF", "KRWI", "KRWL", "KRWV", "KRXE", "KRYM", "KRYN", "KRYW", "KRYY", "KRZL", "KRZN", "KRZR", "KRZT", "KS12", "KS21", "KS24", "KS25", "KS32", "KS33", "KS39", "KS52", "KS71", "KS85", "KSAA", "KSAC", "KSAD", "KSAF", "KSAN", "KSAR", "KSAT", "KSAV", "KSAW", "KSAZ", "KSBA", "KSBD", "KSBM", "KSBN", "KSBO", "KSBP", "KSBS", "KSBY", "KSCD", "KSCK", "KSCR", "KSCX", "KSDA", "KSDB", "KSDC", "KSDF", "KSDL", "KSDM", "KSDY", "KSEA", "KSEE", "KSEF", "KSEG", "KSEM", "KSEP", "KSET", "KSEZ", "KSFB", "KSFF", "KSFM", "KSFO", "KSFQ", "KSFZ", "KSGF", "KSGH", "KSGJ", "KSGR", "KSGS", "KSGT", "KSGU", "KSHD", "KSHL", "KSHM", "KSHN", "KSHR", "KSHV", "KSIF", "KSIK", "KSIY", "KSJC", "KSJS", "KSJT", "KSJX", "KSKA", "KSKF", "KSKX", "KSLB", "KSLC", "KSLE", "KSLG", "KSLH", "KSLI", "KSLK", "KSLN", "KSLO", "KSLR", "KSMD", "KSME", "KSMF", "KSMN", "KSMO", "KSMP", "KSMQ", "KSMS", "KSMX", "KSNA", "KSNC", "KSNH", "KSNK", "KSNS", "KSNT", "KSNY", "KSOA", "KSOP", "KSOW", "KSPA", "KSPB", "KSPD", "KSPF", "KSPG", "KSPI", "KSPK", "KSPS", "KSPW", "KSQI", "KSQL", "KSRB", "KSRC", "KSRE", "KSRQ", "KSRR", "KSSC", "KSSF", "KSSI", "KSTC", "KSTE", "KSTF", "KSTJ", "KSTK", "KSTL", "KSTP", "KSTS", "KSUA", "KSUE", "KSUN", "KSUS", "KSUT", "KSUU", "KSUW", "KSUX", "KSUZ", "KSVC", "KSVE", "KSVH", "KSVN", "KSWF", "KSWO", "KSWW", "KSXK", "KSXS", "KSXT", "KSXU", "KSYF", "KSYI", "KSYM", "KSYN", "KSYR", "KSZL", "KSZT", "KSZY", "KT20", "KT35", "KT41", "KT69", "KT70", "KT74", "KT78", "KT82", "KT89", "KTAD", "KTAN", "KTAZ", "KTBN", "KTBR", "KTBX", "KTCC", "KTCL", "KTCM", "KTCS", "KTCY", "KTDF", "KTDR", "KTDZ", "KTEB", "KTEW", "KTEX", "KTFP", "KTHA", "KTIF", "KTIK", "KTIP", "KTIW", "KTKC", "KTKI", "KTKV", "KTKX", "KTLH", "KTMA", "KTMB", "KTME", "KTMK", "KTMT", "KTNB", "KTNU", "KTOB", "KTOC", "KTOI", "KTOL", "KTOP", "KTOR", "KTPA", "KTPH", "KTPL", "KTQE", "KTQH", "KTQK", "KTQV", "KTRI", "KTRK", "KTRL", "KTRM", "KTSP", "KTTA", "KTTD", "KTTF", "KTTN", "KTTS", "KTUL", "KTUP", "KTUS", "KTVC", "KTVF", "KTVI", "KTVK", "KTVL", "KTVR", "KTVY", "KTWF", "KTWM", "KTWT", "KTXK", "KTXW", "KTYL", "KTYQ", "KTYR", "KTYS", "KTZR", "KU42", "KU55", "KU64", "KU68", "KU69", "KUAO", "KUBE", "KUCP", "KUCY", "KUDG", "KUES", "KUGN", "KUIL", "KUIN", "KUKF", "KUKI", "KUKL", "KUKT", "KULM", "KULS", "KUMP", "KUNI", "KUNO", "KUNU", "KUNV", "KUOX", "KUSE", "KUTA", "KUTS", "KUUU", "KUUV", "KUVA", "KUXL", "KUYF", "KUZA", "KVAD", "KVAF", "KVAY", "KVBG", "KVBT", "KVBW", "KVCB", "KVCT", "KVCV", "KVDF", "KVDI", "KVEL", "KVER", "KVES", "KVGC", "KVGT", "KVHN", "KVIH", "KVIS", "KVJI", "KVKS", "KVKY", "KVLD", "KVLL", "KVNC", "KVNW", "KVOA", "KVOK", "KVPC", "KVPS", "KVPZ", "KVQQ", "KVRB", "KVSF", "KVTA", "KVTI", "KVTN", "KVTP", "KVUJ", "KVVS", "KVVV", "KVWU", "KVYS", "KW13", "KW22", "KW29", "KW31", "KW40", "KW43", "KW75", "KW78", "KW81", "KW96", "KWAL", "KWBF", "KWDG", "KWDR", "KWJF", "KWLD", "KWMC", "KWRB", "KWRI", "KWRL", "KWST", "KWVI", "KWVL", "KWWD", "KWWR", "KWYS", "KX07", "KX26", "KX60", "KXBP", "KXLL", "KXMR", "KXNA", "KXNX", "KXSA", "KXVG", "KXWA", "KY19", "KY23", "KY31", "KY49", "KY50", "KY63", "KY70", "KYIP", "KYKM", "KYKN", "KYNG", "KZER", "KZPH", "KZZV", "LATI", "LBBG", "LBGO", "LBIA", "LBPD", "LBPG", "LBPL", "LBSF", "LBWN", "LCEN", "LCLK", "LCPH", "LCRA", "LDDU", "LDLO", "LDOS", "LDPL", "LDRI", "LDSB", "LDSP", "LDZA", "LDZD", "LEAB", "LEAG", "LEAL", "LEAM", "LEAO", "LEAS", "LEBA", "LEBB", "LEBG", "LEBL", "LEBR", "LEBT", "LEBZ", "LECH", "LECO", "LECV", "LEDA", "LEGE", "LEGR", "LEGT", "LEHC", "LEIB", "LEJR", "LELC", "LELL", "LELN", "LELO", "LEMD", "LEMG", "LEMH", "LEMI", "LEMO", "LEPA", "LEPP", "LERI", "LERS", "LERT", "LESA", "LESB", "LESO", "LEST", "LESU", "LETL", "LETO", "LETU", "LEVC", "LEVD", "LEVS", "LEVT", "LEVX", "LEXJ", "LEZG", "LEZL", "LFAC", "LFAQ", "LFAT", "LFBA", "LFBC", "LFBD", "LFBE", "LFBF", "LFBG", "LFBH", "LFBI", "LFBL", "LFBM", "LFBO", "LFBP", "LFBT", "LFBU", "LFBX", "LFBY", "LFBZ", "LFCK", "LFCR", "LFGA", "LFGJ", "LFHP", "LFJL", "LFJR", "LFKB", "LFKC", "LFKF", "LFKJ", "LFKS", "LFLB", "LFLC", "LFLH", "LFLL", "LFLN", "LFLP", "LFLS", "LFLU", "LFLV", "LFLW", "LFLX", "LFLY", "LFMC", "LFMD", "LFMH", "LFMI", "LFMK", "LFML", "LFMN", "LFMO", "LFMP", "LFMT", "LFMU", "LFMV", "LFMY", "LFOA", "LFOB", "LFOE", "LFOH", "LFOJ", "LFOK", "LFOP", "LFOT", "LFOV", "LFOZ", "LFPB", "LFPG", "LFPM", "LFPN", "LFPO", "LFPT", "LFPV", "LFQA", "LFQB", "LFQG", "LFQQ", "LFRB", "LFRC", "LFRD", "LFRG", "LFRH", "LFRI", "LFRJ", "LFRK", "LFRL", "LFRM", "LFRN", "LFRO", "LFRQ", "LFRS", "LFRT", "LFRU", "LFRV", "LFRZ", "LFSB", "LFSD", "LFSG", "LFSI", "LFSL", "LFSM", "LFSN", "LFSO", "LFST", "LFSX", "LFTH", "LFTW", "LFVP", "LFYR", "LGAD", "LGAL", "LGAV", "LGBL", "LGEL", "LGHI", "LGIO", "LGIR", "LGKF", "LGKL", "LGKO", "LGKP", "LGKR", "LGKV", "LGKZ", "LGLM", "LGMK", "LGMT", "LGNX", "LGPA", "LGPZ", "LGRP", "LGRX", "LGSA", "LGSK", "LGSM", "LGSO", "LGSR", "LGTS", "LGZA", "LHBP", "LHDC", "LHKE", "LHPA", "LHPP", "LHPR", "LHSM", "LHSN", "LIBA", "LIBC", "LIBD", "LIBF", "LIBG", "LIBN", "LIBP", "LIBQ", "LIBR", "LIBV", "LIBY", "LICA", "LICB", "LICC", "LICD", "LICF", "LICG", "LICJ", "LICR", "LICT", "LICZ", "LIEA", "LIEB", "LIED", "LIEE", "LIEO", "LIMA", "LIMC", "LIME", "LIMF", "LIMG", "LIMH", "LIMJ", "LIMK", "LIML", "LIMP", "LIMS", "LIMU", "LIMV", "LIMW", "LIMZ", "LIPA", "LIPB", "LIPC", "LIPE", "LIPF", "LIPH", "LIPI", "LIPK", "LIPL", "LIPO", "LIPQ", "LIPR", "LIPS", "LIPU", "LIPX", "LIPY", "LIPZ", "LIQC", "LIQN", "LIRA", "LIRE", "LIRF", "LIRI", "LIRK", "LIRM", "LIRN", "LIRP", "LIRQ", "LIRS", "LIRT", "LIRU", "LIRV", "LIRX", "LIRZ", "LIVC", "LIVD", "LIVE", "LIVF", "LIVM", "LIVP", "LIVR", "LIVT", "LJCE", "LJLJ", "LJMB", "LJPZ", "LKCV", "LKKB", "LKKV", "LKLN", "LKMT", "LKNA", "LKPD", "LKPR", "LKTB", "LLBG", "LLER", "LLHA", "LLIB", "LMML", "LOAN", "LOAV", "LOWG", "LOWI", "LOWK", "LOWL", "LOWS", "LOWW", "LOXZ", "LPAZ", "LPBJ", "LPCS", "LPFL", "LPFR", "LPHR", "LPLA", "LPMA", "LPMR", "LPMT", "LPOV", "LPPD", "LPPR", "LPPS", "LPPT", "LQBK", "LQMO", "LQSA", "LQTZ", "LRAR", "LRBC", "LRBM", "LRBS", "LRCK", "LRCL", "LRCV", "LRIA", "LROD", "LROP", "LRSB", "LRSM", "LRSV", "LRTC", "LRTM", "LRTR", "LSGC", "LSGG", "LSGS", "LSMA", "LSME", "LSMM", "LSMP", "LSZA", "LSZB", "LSZC", "LSZG", "LSZH", "LSZL", "LSZR", "LSZS", "LTAC", "LTAE", "LTAF", "LTAG", "LTAI", "LTAJ", "LTAL", "LTAN", "LTAP", "LTAR", "LTAS", "LTAT", "LTAU", "LTAW", "LTAY", "LTAZ", "LTBA", "LTBD", "LTBF", "LTBH", "LTBJ", "LTBO", "LTBQ", "LTBR", "LTBS", "LTBU", "LTBY", "LTCA", "LTCB", "LTCC", "LTCD", "LTCE", "LTCF", "LTCG", "LTCI", "LTCJ", "LTCK", "LTCL", "LTCM", "LTCN", "LTCO", "LTCP", "LTCR", "LTCS", "LTCT", "LTCU", "LTCV", "LTCW", "LTDA", "LTFB", "LTFC", "LTFD", "LTFE", "LTFG", "LTFH", "LTFJ", "LTFM", "LTFO", "LUKK", "LWOH", "LWSK", "LXGB", "LYBE", "LYBT", "LYKV", "LYNI", "LYPG", "LYTV", "LYVR", "LZIB", "LZKZ", "LZPP", "LZTT", "LZZI", "MDPC", "MDPP", "MDSD", "MDST", "MGGT", "MGHT", "MGMM", "MGPB", "MHLM", "MHPR", "MHTG", "MKJP", "MKJS", "MMAA", "MMAS", "MMGL", "MMHO", "MMMD", "MMMM", "MMMX", "MMMY", "MMMZ", "MMQT", "MMTJ", "MMTO", "MMUN", "MMZC", "MNMG", "MPMG", "MPTO", "MROC", "MSLP", "MTPP", "MUCC", "MUCF", "MUCL", "MUCM", "MUCU", "MUGM", "MUHA", "MUHG", "MUSC", "MUVR", "MYCB", "MYNN", "MYSM", "NCAI", "NCAT", "NCMG", "NCMH", "NCMK", "NCMR", "NCNS", "NCPK", "NCPL", "NCPY", "NCRG", "NCRK", "NCSW", "NFFN", "NFNA", "NFTF", "NGFU", "NGTA", "NIUE", "NLWW", "NSFA", "NSTU", "NTAA", "NVSS", "NVVV", "NWWW", "NZAA", "NZCH", "NZCM", "NZWN", "OBBI", "OEAB", "OEAH", "OEAO", "OEBA", "OEBH", "OEDF", "OEDM", "OEDR", "OEGN", "OEGS", "OEGT", "OEHL", "OEJN", "OEKJ", "OEKM", "OEMA", "OEMN", "OENG", "OEPA", "OEPS", "OERF", "OERK", "OERR", "OESH", "OESK", "OETB", "OETF", "OETR", "OEWD", "OEWJ", "OEYN", "OIAA", "OIAG", "OIAH", "OIAM", "OIAW", "OIBA", "OIBB", "OIBH", "OIBJ", "OIBK", "OIBL", "OIBP", "OIBQ", "OIBS", "OIBV", "OICC", "OICI", "OICK", "OICS", "OIFM", "OIFS", "OIGG", "OIHH", "OIHR", "OIIE", "OIII", "OIIK", "OIIP", "OIKB", "OIKK", "OIKQ", "OIMB", "OIMJ", "OIMM", "OIMN", "OIMS", "OIMT", "OINE", "OING", "OINN", "OINR", "OINZ", "OISF", "OISL", "OISR", "OISS", "OISY", "OITL", "OITM", "OITP", "OITR", "OITT", "OITZ", "OIYY", "OIZB", "OIZC", "OIZH", "OIZI", "OIZJ", "OJAI", "OJAM", "OJAQ", "OKAS", "OKKK", "OLBA", "OMAA", "OMAD", "OMAL", "OMDB", "OMDW", "OMFJ", "OMRK", "OMSJ", "OOAD", "OODQ", "OOKB", "OOMS", "OOSA", "OOSH", "OPIS", "OPKC", "OPLA", "OPMT", "OPNH", "OPPS", "OPSK", "OPST", "ORBI", "ORER", "ORMM", "ORNI", "ORSU", "OSAP", "OSDI", "OSKL", "OSLK", "OTBD", "OTBH", "OTHH", "PAAD", "PAAK", "PAAQ", "PABA", "PABE", "PABI", "PABL", "PABR", "PABT", "PABV", "PACD", "PACM", "PACV", "PACZ", "PADK", "PADL", "PADM", "PADQ", "PADU", "PAED", "PAEG", "PAEH", "PAEI", "PAEN", "PAFA", "PAFB", "PAFE", "PAFM", "PAFR", "PAFS", "PAGK", "PAGL", "PAGN", "PAGS", "PAGY", "PAHC", "PAHL", "PAHN", "PAHO", "PAHY", "PAIG", "PAIK", "PAIL", "PAIM", "PAIN", "PAIW", "PAJC", "PAJN", "PAJZ", "PAKH", "PAKI", "PAKN", "PAKP", "PAKT", "PAKV", "PAKW", "PALG", "PALH", "PALU", "PAMB", "PAMC", "PAMD", "PAMH", "PAMK", "PAMM", "PAMO", "PAMR", "PAMY", "PANA", "PANC", "PANI", "PANV", "PANW", "PAOH", "PAOM", "PAOO", "PAOR", "PAOT", "PAOU", "PAPB", "PAPG", "PAPH", "PAPM", "PAPN", "PAPO", "PAQT", "PARC", "PARY", "PASC", "PASI", "PASK", "PASL", "PASM", "PASN", "PASO", "PASV", "PASX", "PASY", "PATA", "PATC", "PATE", "PATG", "PATK", "PATL", "PATO", "PATQ", "PAUN", "PAVC", "PAVD", "PAVL", "PAWD", "PAWI", "PAWM", "PAWN", "PAWS", "PAYA", "PAZK", "PFCL", "PFEL", "PFKT", "PFKW", "PFNO", "PFSH", "PFWS", "PFYU", "PGSN", "PGUA", "PGWT", "PHBK", "PHHI", "PHJR", "PHKO", "PHLI", "PHMK", "PHNG", "PHNL", "PHNY", "PHOG", "PHSF", "PHTO", "PKMR", "PKWA", "PMDY", "PPIZ", "PTKK", "PTPN", "PTRO", "PTTP", "PTYA", "PWAK", "RCFN", "RCKH", "RCMQ", "RCNN", "RCSS", "RCTP", "RJAA", "RJAF", "RJAH", "RJAW", "RJBB", "RJBD", "RJBE", "RJBT", "RJCB", "RJCC", "RJCH", "RJCK", "RJCM", "RJCN", "RJCO", "RJCW", "RJDB", "RJDC", "RJDT", "RJEC", "RJFE", "RJFF", "RJFG", "RJFK", "RJFM", "RJFO", "RJFR", "RJFS", "RJFT", "RJFU", "RJGG", "RJKA", "RJKI", "RJNK", "RJNS", "RJNT", "RJNW", "RJNY", "RJOA", "RJOB", "RJOC", "RJOH", "RJOI", "RJOK", "RJOM", "RJOO", "RJOR", "RJOS", "RJOT", "RJOW", "RJOY", "RJSA", "RJSC", "RJSF", "RJSH", "RJSI", "RJSK", "RJSM", "RJSN", "RJSO", "RJSR", "RJSS", "RJSY", "RJTT", "RJTY", "RKJB", "RKJK", "RKNY", "RKPC", "RKPK", "RKSG", "RKSI", "RKSM", "RKSO", "RKSS", "RKTE", "RKTN", "RKTU", "ROAH", "RODE", "RODN", "ROIG", "ROMD", "ROMY", "RORK", "RORS", "RORT", "RORY", "ROYN", "RPLB", "RPLC", "RPLI", "RPLL", "RPMD", "RPMR", "RPMZ", "RPVD", "RPVM", "RPVP", "SAAR", "SABE", "SACO", "SADF", "SAEZ", "SAME", "SANT", "SAOC", "SARC", "SARE", "SARF", "SARI", "SARL", "SARP", "SASA", "SASJ", "SAVC", "SAWE", "SAWG", "SAWH", "SAZM", "SAZN", "SAZS", "SBAN", "SBAR", "SBBE", "SBBH", "SBBR", "SBBU", "SBBV", "SBCB", "SBCF", "SBCG", "SBCO", "SBCT", "SBCY", "SBDN", "SBEG", "SBES", "SBFI", "SBFL", "SBFN", "SBFZ", "SBGL", "SBGO", "SBGR", "SBGW", "SBIP", "SBIZ", "SBJP", "SBJU", "SBJV", "SBKG", "SBKP", "SBLB", "SBLE", "SBLO", "SBLS", "SBMA", "SBME", "SBMG", "SBMK", "SBMN", "SBMO", "SBMQ", "SBMT", "SBNF", "SBNT", "SBPA", "SBPJ", "SBPK", "SBPL", "SBPS", "SBPV", "SBRB", "SBRF", "SBRJ", "SBRP", "SBSC", "SBSG", "SBSJ", "SBSL", "SBSM", "SBSN", "SBSP", "SBSR", "SBSV", "SBTA", "SBTE", "SBTU", "SBUL", "SBUR", "SBVT", "SBYS", "SCAP", "SCAR", "SCAT", "SCBA", "SCCI", "SCCY", "SCDA", "SCEL", "SCFA", "SCHR", "SCIC", "SCIE", "SCIP", "SCMK", "SCON", "SCPD", "SCPQ", "SCQP", "SCRM", "SCSE", "SCSN", "SCTE", "SCTN", "SCVD", "SCVM", "SEGU", "SEQM", "SGAS", "SGCO", "SGEN", "SGES", "SKBO", "SKBQ", "SKCG", "SKCL", "SKLT", "SKRG", "SKSP", "SLCB", "SLLP", "SLVR", "SMJP", "SMZO", "SOCA", "SPHI", "SPJC", "SPQT", "SPRU", "SPSO", "SPUR", "SULS", "SUMU", "SVBC", "SVBI", "SVBM", "SVBS", "SVCB", "SVCS", "SVFM", "SVGD", "SVGU", "SVJM", "SVLO", "SVMC", "SVMG", "SVMI", "SVMT", "SVPA", "SVPR", "SVSA", "SVSR", "SVVA", "SVVL", "SYCJ", "TAPA", "TBPB", "TFFF", "TFFR", "TGPY", "TIST", "TISX", "TJPS", "TJSJ", "TLPL", "TNCA", "TNCB", "TNCC", "TNCE", "TNCM", "TTCP", "TTPP", "TXKF", "UAAA", "UAAH", "UAAT", "UACC", "UACK", "UACP", "UADD", "UAII", "UAIT", "UAKD", "UAKK", "UAOO", "UARR", "UASK", "UASP", "UASS", "UATE", "UATG", "UATT", "UAUU", "UBBB", "UBBF", "UBBG", "UBBL", "UBBN", "UBBQ", "UBBY", "UBBZ", "UBEE", "UCFL", "UCFM", "UCFO", "UDSG", "UDYZ", "UEEE", "UERP", "UERR", "UGAM", "UGKO", "UGMS", "UGSB", "UGTB", "UHBB", "UHHH", "UHMA", "UHMM", "UHPP", "UHSS", "UHWW", "UIAA", "UIBB", "UIII", "UIUU", "ULLI", "ULMM", "ULOO", "ULPB", "ULWC", "UMBB", "UMGG", "UMII", "UMIO", "UMKK", "UMMG", "UMMS", "UMOO", "UNAA", "UNBB", "UNEE", "UNKL", "UNNT", "UNOO", "UNTT", "UNWW", "UOOO", "URKA", "URKK", "URMG", "URML", "URMM", "URMN", "URMO", "URMT", "URRP", "URSS", "URWA", "URWI", "URWW", "USCC", "USCM", "USDA", "USHH", "USNN", "USPP", "USRR", "USSS", "USTR", "UTAA", "UTAK", "UTAM", "UTAT", "UTAV", "UTDD", "UTDK", "UTDL", "UTDT", "UTFF", "UTFN", "UTNN", "UTNU", "UTSA", "UTSB", "UTSK", "UTSS", "UTST", "UTTT", "UUBC", "UUBP", "UUBW", "UUDD", "UUDL", "UUEE", "UUMO", "UUOB", "UUOK", "UUOL", "UUOO", "UUWW", "UUYY", "UWGG", "UWKD", "UWKE", "UWKS", "UWLL", "UWLW", "UWOO", "UWOR", "UWPS", "UWSG", "UWUU", "UWWW", "VAAH", "VABB", "VABO", "VABP", "VABV", "VAID", "VAJB", "VAJJ", "VAJL", "VAKP", "VANP", "VAOZ", "VARK", "VASD", "VASU", "VAUD", "VCBI", "VCRI", "VDPP", "VDSR", "VDSV", "VEAT", "VEBI", "VEBN", "VEBS", "VEBU", "VECC", "VECO", "VEDG", "VEDO", "VEGT", "VEGY", "VEHO", "VEIM", "VEJH", "VEJR", "VEJS", "VEKI", "VEKO", "VELP", "VELR", "VEMN", "VEMR", "VEPT", "VERC", "VERP", "VERU", "VGEG", "VGHS", "VHHH", "VIAR", "VIDN", "VIDP", "VIJP", "VILK", "VIPT", "VLLB", "VLLN", "VLPS", "VLVT", "VMMC", "VNKT", "VOBL", "VOBM", "VOBZ", "VOCB", "VOCI", "VOCL", "VOCP", "VOGA", "VOHB", "VOHS", "VOJV", "VOKN", "VOKU", "VOML", "VOMM", "VOPC", "VORY", "VOSM", "VOSR", "VOTK", "VOTV", "VOVZ", "VQPR", "VRMH", "VRMM", "VTBD", "VTBO", "VTBS", "VTBU", "VTCC", "VTCH", "VTCL", "VTCN", "VTCP", "VTCT", "VTPB", "VTPH", "VTPM", "VTPO", "VTPP", "VTPT", "VTSB", "VTSC", "VTSE", "VTSF", "VTSG", "VTSM", "VTSP", "VTSR", "VTSS", "VTST", "VTSY", "VTUD", "VTUI", "VTUK", "VTUL", "VTUO", "VTUQ", "VTUU", "VTUV", "VTUW", "VVCI", "VVCR", "VVCT", "VVDN", "VVNB", "VVPB", "VVPQ", "VVTS", "VVVD", "VYMD", "VYNT", "VYYY", "WAAA", "WABB", "WADD", "WADL", "WAHS", "WAJJ", "WALL", "WAMM", "WAOO", "WAPP", "WAQQ", "WARR", "WATT", "WBGB", "WBGG", "WBGR", "WBGS", "WBGY", "WBKK", "WBKL", "WBKS", "WBKT", "WBKW", "WBSB", "WIBB", "WIDD", "WIDN", "WIEE", "WIHH", "WIII", "WILL", "WIMM", "WIOO", "WIPP", "WMAU", "WMBA", "WMKA", "WMKB", "WMKC", "WMKD", "WMKE", "WMKI", "WMKJ", "WMKK", "WMKL", "WMKM", "WMKN", "WMKP", "WMSA", "WSAP", "WSSL", "WSSS", "YAMB", "YBAS", "YBBN", "YBCG", "YBCS", "YBHM", "YBLN", "YBMA", "YBRK", "YBRM", "YBSU", "YBTL", "YBWW", "YCFS", "YCIN", "YFRT", "YGEL", "YGLA", "YHID", "YLHI", "YMAV", "YMHB", "YMLT", "YMML", "YPAD", "YPCC", "YPDN", "YPEA", "YPGV", "YPJT", "YPKG", "YPKU", "YPLM", "YPPD", "YPPH", "YPTN", "YPWR", "YPXM", "YSCB", "YSDU", "YSNF", "YSRI", "YSSY", "YSTW", "YWLM", "ZBAA", "ZBAD", "ZBHH", "ZBSJ", "ZBTJ", "ZBYN", "ZGGG", "ZGHA", "ZGKL", "ZGNN", "ZGOW", "ZGSZ", "ZHCC", "ZHHH", "ZJHK", "ZJSY", "ZLLL", "ZLXY", "ZMCK", "ZMUB", "ZPPP", "ZSAM", "ZSFZ", "ZSHC", "ZSNB", "ZSNJ", "ZSOF", "ZSPD", "ZSQD", "ZSSS", "ZUCK", "ZUGY", "ZUTF", "ZUUU", "ZWSH", "ZWWW", "ZYCC", "ZYHB", "ZYTL", "ZYTX"], "observation_time": ["2023-05-06T09:00:00Z", "2023-05-06T09:00:00Z", "2023-05-06T08:50:00Z", "2023-05-06T08:56:00Z", "2023-05-06T08:50:00Z", "2023-05-06T08:50:00Z", "2023-05-06T09:20:00Z", "2023-05-06T08:55:00Z", "2023-05-06T09:00:00Z", "2023-05-06T09:00:00Z", "2023-05-06T09:00:00Z", "2023-05-06T09:00:00Z", "2023-05-06T09:00:00Z", "2023-05-06T09:00:00Z", "2023-05-06T08:55:00Z", "2023-05-06T09:30:00Z", "2023-05-06T09:00:00Z", "2023-05-06T09:00:00Z", "2023-05-06T09:00:00Z", "2023-05-06T09:00:00Z", "2023-05-06T09:00:00Z", "2023-05-06T09:00:00Z", "2023-05-06T09:00:00Z", "2023-05-06T09:00:00Z", "2023-05-06T09:00:00Z", "2023-05-06T09:00:00Z", "2023-05-06T09:00:00Z", "2023-05-06T09:00:00Z", "2023-05-06T09:00:00Z", "2023-05-06T09:00:00Z", "2023-05-06T09:00:00Z", "2023-05-06T09:00:00Z", "2023-05-06T09:00:00Z", "2023-05-06T09:00:00Z", "2023-05-06T09:00:00Z", "2023-05-06T09:00:00Z", "2023-05-06T09:00:00Z", "2023-05-06T09:00:00Z", "2023-05-06T09:00:00Z", "2023-05-06T09:00:00Z", "2023-05-06T09:00:00Z", "2023-05-06T09:00:00Z", "2023-05-06T09:00:00Z", "2023-05-06T09:00:00Z", "2023-05-06T09:00:00Z", "2023-05-06T09:00:00Z", "2023-05-06T09:00:00Z", "2023-05-06T09:00:00Z", "2023-05-06T09:00:00Z", "2023-05-06T09:00:00Z", "2023-05-06T09:00:00Z", "2023-05-06T09:00:00Z", "2023-05-06T09:00:00Z", "2023-05-06T09:00:00Z", "2023-05-06T09:00:00Z", "2023-05-06T09:00:00Z", "2023-05-06T09:00:00Z", "2023-05-06T09:00:00Z", "2023-05-06T09:00:00Z", "2023-05-06T09:00:00Z", "2023-05-06T09:00:00Z", "2023-05-06T09:00:00Z", "2023-05-06T09:00:00Z", "2023-05-06T09:00:00Z", "2023-05-06T09:00:00Z", "2023-05-06T09:00:00Z", "2023-05-06T09:00:00Z", "2023-05-06T09:00:00Z", "2023-05-06T09:00:00Z", "2023-05-06T09:00:00Z", "2023-05-06T09:00:00Z", "2023-05-06T09:00:00Z", "2023-05-06T09:00:00Z", "2023-05-06T09:00:00Z", "2023-05-06T09:00:00Z", "2023-05-06T09:00:00Z", "2023-05-06T09:00:00Z", "2023-05-06T09:00:00Z", "2023-05-06T09:00:00Z", "2023-05-06T09:00:00Z", "2023-05-06T09:00:00Z", "2023-05-06T09:00:00Z", "2023-05-06T09:00:00Z", "2023-05-06T09:00:00Z", "2023-05-06T09:00:00Z", "2023-05-06T09:00:00Z", "2023-05-06T09:00:00Z", "2023-05-06T09:00:00Z", "2023-05-06T09:00:00Z", "2023-05-06T09:00:00Z", "2023-05-06T09:00:00Z", "2023-05-06T09:00:00Z", "2023-05-06T09:00:00Z", "2023-05-06T09:00:00Z", "2023-05-06T09:00:00Z", "2023-05-06T09:00:00Z", "2023-05-06T09:00:00Z", "2023-05-06T09:00:00Z", "2023-05-06T09:00:00Z", "2023-05-06T09:00:00Z", "2023-05-06T09:00:00Z", "2023-05-06T09:00:00Z", "2023-05-06T09:00:00Z", "2023-05-06T09:00:00Z", "2023-05-06T09:00:00Z", "2023-05-06T09:00:00Z", "2023-05-06T09:00:00Z", "2023-05-06T09:00:00Z", "2023-05-06T09:00:00Z", "2023-05-06T09:00:00Z", "2023-05-06T09:00:00Z", "2023-05-06T09:00:00Z", "2023-05-06T09:00:00Z", "2023-05-06T09:00:00Z", "2023-05-06T09:00:00Z", "2023-05-06T09:00:00Z", "2023-05-06T09:00:00Z", "2023-05-06T09:00:00Z", "2023-05-06T09:00:00Z", "2023-05-06T09:00:00Z", "2023-05-06T09:00:00Z", "2023-05-06T09:00:00Z", "2023-05-06T09:00:00Z", "2023-05-06T09:00:00Z", "2023-05-06T09:00:00Z", "2023-05-06T09:00:00Z", "2023-05-06T09:00:00Z", "2023-05-06T09:00:00Z", "2023-05-06T09:00:00Z", "2023-05-06T09:00:00Z", "2023-05-06T09:00:00Z", "2023-05-06T09:00:00Z", "2023-05-06T09:00:00Z", "2023-05-06T09:00:00Z", "2023-05-06T09:00:00Z", "2023-05-06T09:00:00Z", "2023-05-06T09:00:00Z", "2023-05-06T09:00:00Z", "2023-05-06T09:00:00Z", "2023-05-06T09:00:00Z", "2023-05-06T09:00:00Z", "2023-05-06T09:00:00Z", "2023-05-06T09:00:00Z", "2023-05-06T09:00:00Z", "2023-05-06T09:00:00Z", "2023-05-06T09:15:00Z", "2023-05-06T09:00:00Z", "2023-05-06T09:00:00Z", "2023-05-06T09:00:00Z", "2023-05-06T09:00:00Z", "2023-05-06T09:00:00Z", "2023-05-06T09:00:00Z", "2023-05-06T09:00:00Z", "2023-05-06T09:00:00Z", "2023-05-06T09:00:00Z", "2023-05-06T09:00:00Z", "2023-05-06T09:00:00Z", "2023-05-06T09:00:00Z", "2023-05-06T09:00:00Z", "2023-05-06T09:00:00Z", "2023-05-06T09:00:00Z", "2023-05-06T09:00:00Z", "2023-05-06T09:00:00Z", "2023-05-06T09:00:00Z", "2023-05-06T09:00:00Z", "2023-05-06T09:00:00Z", "2023-05-06T09:00:00Z", "2023-05-06T09:00:00Z", "2023-05-06T09:00:00Z", "2023-05-06T09:00:00Z", "2023-05-06T09:00:00Z", "2023-05-06T09:00:00Z", "2023-05-06T09:00:00Z", "2023-05-06T09:00:00Z", "2023-05-06T09:00:00Z", "2023-05-06T09:00:00Z", "2023-05-06T09:00:00Z", "2023-05-06T09:00:00Z", "2023-05-06T09:00:00Z", "2023-05-06T09:00:00Z", "2023-05-06T09:00:00Z", "2023-05-06T09:00:00Z", "2023-05-06T09:00:00Z", "2023-05-06T09:00:00Z", "2023-05-06T09:00:00Z", "2023-05-06T09:00:00Z", "2023-05-06T09:00:00Z", "2023-05-06T09:00:00Z", "2023-05-06T09:00:00Z", "2023-05-06T09:00:00Z", "2023-05-06T09:00:00Z", "2023-05-06T09:00:00Z", "2023-05-06T09:00:00Z", "2023-05-06T09:00:00Z", "2023-05-06T09:00:00Z", "2023-05-06T09:00:00Z", "2023-05-06T09:00:00Z", "2023-05-06T09:00:00Z", "2023-05-06T09:26:00Z", "2023-05-06T09:00:00Z", "2023-05-06T09:00:00Z", "2023-05-06T09:00:00Z", "2023-05-06T09:00:00Z", "2023-05-06T09:00:00Z", "2023-05-06T09:00:00Z", "2023-05-06T09:00:00Z", "2023-05-06T09:00:00Z", "2023-05-06T09:00:00Z", "2023-05-06T09:00:00Z", "2023-05-06T09:00:00Z", "2023-05-06T09:00:00Z", "2023-05-06T09:00:00Z", "2023-05-06T09:00:00Z", "2023-05-06T09:00:00Z", "2023-05-06T09:00:00Z", "2023-05-06T09:00:00Z", "2023-05-06T09:00:00Z", "2023-05-06T09:00:00Z", "2023-05-06T09:00:00Z", "2023-05-06T09:00:00Z", "2023-05-06T09:00:00Z", "2023-05-06T09:00:00Z", "2023-05-06T09:00:00Z", "2023-05-06T09:00:00Z", "2023-05-06T09:00:00Z", "2023-05-06T09:00:00Z", "2023-05-06T09:00:00Z", "2023-05-06T09:00:00Z", "2023-05-06T09:00:00Z", "2023-05-06T09:00:00Z", "2023-05-06T09:00:00Z", "2023-05-06T09:00:00Z", "2023-05-06T09:00:00Z", "2023-05-06T09:00:00Z", "2023-05-06T09:00:00Z", "2023-05-06T09:00:00Z", "2023-05-06T09:00:00Z", "2023-05-06T09:00:00Z", "2023-05-06T09:00:00Z", "2023-05-06T09:00:00Z", "2023-05-06T09:00:00Z", "2023-05-06T09:00:00Z", "2023-05-06T09:00:00Z", "2023-05-06T09:00:00Z", "2023-05-06T09:00:00Z", "2023-05-06T09:00:00Z", "2023-05-06T09:00:00Z", "2023-05-06T09:00:00Z", "2023-05-06T09:00:00Z", "2023-05-06T09:00:00Z", "2023-05-06T09:00:00Z", "2023-05-06T09:00:00Z", "2023-05-06T09:00:00Z", "2023-05-06T09:00:00Z", "2023-05-06T09:00:00Z", "2023-05-06T09:00:00Z", "2023-05-06T09:00:00Z", "2023-05-06T09:00:00Z", "2023-05-06T09:00:00Z", "2023-05-06T09:00:00Z", "2023-05-06T09:00:00Z", "2023-05-06T09:00:00Z", "2023-05-06T09:00:00Z", "2023-05-06T09:00:00Z", "2023-05-06T09:00:00Z", "2023-05-06T09:00:00Z", "2023-05-06T09:00:00Z", "2023-05-06T09:00:00Z", "2023-05-06T09:00:00Z", "2023-05-06T09:00:00Z", "2023-05-06T09:00:00Z", "2023-05-06T09:00:00Z", "2023-05-06T09:00:00Z", "2023-05-06T09:00:00Z", "2023-05-06T09:00:00Z", "2023-05-06T09:00:00Z", "2023-05-06T09:00:00Z", "2023-05-06T09:00:00Z", "2023-05-06T09:00:00Z", "2023-05-06T09:00:00Z", "2023-05-06T09:00:00Z", "2023-05-06T09:00:00Z", "2023-05-06T09:00:00Z", "2023-05-06T09:00:00Z", "2023-05-06T09:00:00Z", "2023-05-06T09:00:00Z", "2023-05-06T09:00:00Z", "2023-05-06T09:00:00Z", "2023-05-06T09:00:00Z", "2023-05-06T09:00:00Z", "2023-05-06T09:00:00Z", "2023-05-06T09:00:00Z", "2023-05-06T09:00:00Z", "2023-05-06T09:00:00Z", "2023-05-06T09:21:00Z", "2023-05-06T09:00:00Z", "2023-05-06T09:00:00Z", "2023-05-06T09:00:00Z", "2023-05-06T09:00:00Z", "2023-05-06T09:00:00Z", "2023-05-06T09:29:00Z", "2023-05-06T09:00:00Z", "2023-05-06T09:00:00Z", "2023-05-06T09:00:00Z", "2023-05-06T09:00:00Z", "2023-05-06T09:00:00Z", "2023-05-06T09:00:00Z", "2023-05-06T09:00:00Z", "2023-05-06T09:00:00Z", "2023-05-06T09:00:00Z", "2023-05-06T09:00:00Z", "2023-05-06T09:00:00Z", "2023-05-06T09:00:00Z", "2023-05-06T09:00:00Z", "2023-05-06T09:00:00Z", "2023-05-06T09:00:00Z", "2023-05-06T09:00:00Z", "2023-05-06T09:00:00Z", "2023-05-06T09:00:00Z", "2023-05-06T09:00:00Z", "2023-05-06T09:00:00Z", "2023-05-06T09:00:00Z", "2023-05-06T09:00:00Z", "2023-05-06T09:00:00Z", "2023-05-06T09:00:00Z", "2023-05-06T09:00:00Z", "2023-05-06T09:00:00Z", "2023-05-06T09:29:00Z", "2023-05-06T09:03:00Z", "2023-05-06T09:00:00Z", "2023-05-06T09:00:00Z", "2023-05-06T09:00:00Z", "2023-05-06T09:00:00Z", "2023-05-06T09:30:00Z", "2023-05-06T09:00:00Z", "2023-05-06T09:00:00Z", "2023-05-06T09:00:00Z", "2023-05-06T09:00:00Z", "2023-05-06T09:08:00Z", "2023-05-06T09:00:00Z", "2023-05-06T09:00:00Z", "2023-05-06T09:00:00Z", "2023-05-06T09:00:00Z", "2023-05-06T09:00:00Z", "2023-05-06T09:00:00Z", "2023-05-06T09:00:00Z", "2023-05-06T09:00:00Z", "2023-05-06T09:29:00Z", "2023-05-06T09:00:00Z", "2023-05-06T09:00:00Z", "2023-05-06T09:00:00Z", "2023-05-06T09:00:00Z", "2023-05-06T09:00:00Z", "2023-05-06T09:00:00Z", "2023-05-06T09:00:00Z", "2023-05-06T09:00:00Z", "2023-05-06T09:00:00Z", "2023-05-06T09:00:00Z", "2023-05-06T09:00:00Z", "2023-05-06T09:00:00Z", "2023-05-06T09:00:00Z", "2023-05-06T09:00:00Z", "2023-05-06T09:00:00Z", "2023-05-06T09:00:00Z", "2023-05-06T09:00:00Z", "2023-05-06T09:28:00Z", "2023-05-06T09:00:00Z", "2023-05-06T09:00:00Z", "2023-05-06T09:00:00Z", "2023-05-06T09:00:00Z", "2023-05-06T09:00:00Z", "2023-05-06T09:00:00Z", "2023-05-06T09:00:00Z", "2023-05-06T09:00:00Z", "2023-05-06T09:00:00Z", "2023-05-06T09:00:00Z", "2023-05-06T09:00:00Z", "2023-05-06T09:00:00Z", "2023-05-06T09:00:00Z", "2023-05-06T09:00:00Z", "2023-05-06T09:00:00Z", "2023-05-06T09:00:00Z", "2023-05-06T09:00:00Z", "2023-05-06T09:00:00Z", "2023-05-06T09:00:00Z", "2023-05-06T09:13:00Z", "2023-05-06T09:00:00Z", "2023-05-06T09:00:00Z", "2023-05-06T09:00:00Z", "2023-05-06T09:00:00Z", "2023-05-06T09:00:00Z", "2023-05-06T09:00:00Z", "2023-05-06T09:00:00Z", "2023-05-06T09:00:00Z", "2023-05-06T09:16:00Z", "2023-05-06T09:00:00Z", "2023-05-06T09:00:00Z", "2023-05-06T09:00:00Z", "2023-05-06T09:00:00Z", "2023-05-06T09:00:00Z", "2023-05-06T09:00:00Z", "2023-05-06T09:00:00Z", "2023-05-06T09:00:00Z", "2023-05-06T09:00:00Z", "2023-05-06T09:00:00Z", "2023-05-06T09:00:00Z", "2023-05-06T09:00:00Z", "2023-05-06T09:00:00Z", "2023-05-06T09:00:00Z", "2023-05-06T09:00:00Z", "2023-05-06T09:00:00Z", "2023-05-06T09:00:00Z", "2023-05-06T09:00:00Z", "2023-05-06T09:00:00Z", "2023-05-06T09:00:00Z", "2023-05-06T09:00:00Z", "2023-05-06T09:00:00Z", "2023-05-06T09:00:00Z", "2023-05-06T09:00:00Z", "2023-05-06T09:00:00Z", "2023-05-06T09:00:00Z", "2023-05-06T09:00:00Z", "2023-05-06T09:00:00Z", "2023-05-06T09:00:00Z", "2023-05-06T09:29:00Z", "2023-05-06T09:00:00Z", "2023-05-06T09:00:00Z", "2023-05-06T09:00:00Z", "2023-05-06T09:00:00Z", "2023-05-06T09:00:00Z", "2023-05-06T09:00:00Z", "2023-05-06T09:00:00Z", "2023-05-06T09:00:00Z", "2023-05-06T09:00:00Z", "2023-05-06T09:00:00Z", "2023-05-06T09:00:00Z", "2023-05-06T09:00:00Z", "2023-05-06T09:00:00Z", "2023-05-06T09:00:00Z", "2023-05-06T09:00:00Z", "2023-05-06T09:00:00Z", "2023-05-06T09:00:00Z", "2023-05-06T09:00:00Z", "2023-05-06T09:00:00Z", "2023-05-06T09:00:00Z", "2023-05-06T09:00:00Z", "2023-05-06T09:00:00Z", "2023-05-06T09:00:00Z", "2023-05-06T09:00:00Z", "2023-05-06T09:00:00Z", "2023-05-06T09:17:00Z", "2023-05-06T09:00:00Z", "2023-05-06T09:00:00Z", "2023-05-06T09:00:00Z", "2023-05-06T09:00:00Z", "2023-05-06T09:00:00Z", "2023-05-06T09:00:00Z", "2023-05-06T09:00:00Z", "2023-05-06T09:00:00Z", "2023-05-06T09:00:00Z", "2023-05-06T09:00:00Z", "2023-05-06T09:00:00Z", "2023-05-06T09:00:00Z", "2023-05-06T09:00:00Z", "2023-05-06T09:00:00Z", "2023-05-06T09:00:00Z", "2023-05-06T09:00:00Z", "2023-05-06T09:00:00Z", "2023-05-06T09:00:00Z", "2023-05-06T09:00:00Z", "2023-05-06T09:00:00Z", "2023-05-06T09:00:00Z", "2023-05-06T09:22:00Z", "2023-05-06T09:00:00Z", "2023-05-06T09:00:00Z", "2023-05-06T09:00:00Z", "2023-05-06T09:00:00Z", "2023-05-06T09:00:00Z", "2023-05-06T09:00:00Z", "2023-05-06T09:00:00Z", "2023-05-06T09:00:00Z", "2023-05-06T09:00:00Z", "2023-05-06T09:00:00Z", "2023-05-06T09:00:00Z", "2023-05-06T09:00:00Z", "2023-05-06T09:00:00Z", "2023-05-06T09:00:00Z", "2023-05-06T09:00:00Z", "2023-05-06T09:00:00Z", "2023-05-06T09:00:00Z", "2023-05-06T09:00:00Z", "2023-05-06T09:00:00Z", "2023-05-06T09:00:00Z", "2023-05-06T09:00:00Z", "2023-05-06T09:00:00Z", "2023-05-06T09:00:00Z", "2023-05-06T09:00:00Z", "2023-05-06T09:00:00Z", "2023-05-06T09:00:00Z", "2023-05-06T09:00:00Z", "2023-05-06T09:00:00Z", "2023-05-06T09:00:00Z", "2023-05-06T09:00:00Z", "2023-05-06T09:00:00Z", "2023-05-06T09:00:00Z", "2023-05-06T09:00:00Z", "2023-05-06T09:00:00Z", "2023-05-06T09:00:00Z", "2023-05-06T09:00:00Z", "2023-05-06T09:00:00Z", "2023-05-06T09:00:00Z", "2023-05-06T09:00:00Z", "2023-05-06T09:00:00Z", "2023-05-06T09:00:00Z", "2023-05-06T09:00:00Z", "2023-05-06T09:00:00Z", "2023-05-06T09:00:00Z", "2023-05-06T09:00:00Z", "2023-05-06T09:30:00Z", "2023-05-06T09:00:00Z", "2023-05-06T09:00:00Z", "2023-05-06T09:00:00Z", "2023-05-06T09:00:00Z", "2023-05-06T09:00:00Z", "2023-05-06T09:00:00Z", "2023-05-06T09:00:00Z", "2023-05-06T09:00:00Z", "2023-05-06T09:00:00Z", "2023-05-06T09:00:00Z", "2023-05-06T09:00:00Z", "2023-05-06T09:00:00Z", "2023-05-06T09:00:00Z", "2023-05-06T09:00:00Z", "2023-05-06T09:00:00Z", "2023-05-06T09:00:00Z", "2023-05-06T09:00:00Z", "2023-05-06T09:00:00Z", "2023-05-06T09:00:00Z", "2023-05-06T09:00:00Z", "2023-05-06T09:00:00Z", "2023-05-06T09:00:00Z", "2023-05-06T09:00:00Z", "2023-05-06T09:00:00Z", "2023-05-06T09:00:00Z", "2023-05-06T09:00:00Z", "2023-05-06T09:00:00Z", "2023-05-06T09:00:00Z", "2023-05-06T09:00:00Z", "2023-05-06T09:00:00Z", "2023-05-06T09:00:00Z", "2023-05-06T09:00:00Z", "2023-05-06T09:00:00Z", "2023-05-06T09:20:00Z", "2023-05-06T08:55:00Z", "2023-05-06T08:55:00Z", "2023-05-06T09:20:00Z", "2023-05-06T09:20:00Z", "2023-05-06T09:18:00Z", "2023-05-06T08:55:00Z", "2023-05-06T08:55:00Z", "2023-05-06T08:55:00Z", "2023-05-06T08:55:00Z", "2023-05-06T09:20:00Z", "2023-05-06T09:20:00Z", "2023-05-06T09:20:00Z", "2023-05-06T09:20:00Z", "2023-05-06T09:20:00Z", "2023-05-06T09:20:00Z", "2023-05-06T09:20:00Z", "2023-05-06T09:20:00Z", "2023-05-06T09:20:00Z", "2023-05-06T09:20:00Z", "2023-05-06T09:20:00Z", "2023-05-06T09:20:00Z", "2023-05-06T09:20:00Z", "2023-05-06T09:20:00Z", "2023-05-06T09:20:00Z", "2023-05-06T09:20:00Z", "2023-05-06T09:20:00Z", "2023-05-06T09:20:00Z", "2023-05-06T09:20:00Z", "2023-05-06T09:20:00Z", "2023-05-06T09:20:00Z", "2023-05-06T09:20:00Z", "2023-05-06T09:20:00Z", "2023-05-06T09:20:00Z", "2023-05-06T09:20:00Z", "2023-05-06T09:20:00Z", "2023-05-06T09:20:00Z", "2023-05-06T09:20:00Z", "2023-05-06T09:20:00Z", "2023-05-06T09:20:00Z", "2023-05-06T09:20:00Z", "2023-05-06T09:20:00Z", "2023-05-06T09:20:00Z", "2023-05-06T09:20:00Z", "2023-05-06T09:20:00Z", "2023-05-06T09:20:00Z", "2023-05-06T09:20:00Z", "2023-05-06T09:20:00Z", "2023-05-06T09:20:00Z", "2023-05-06T09:20:00Z", "2023-05-06T09:20:00Z", "2023-05-06T09:20:00Z", "2023-05-06T08:50:00Z", "2023-05-06T09:20:00Z", "2023-05-06T09:20:00Z", "2023-05-06T09:20:00Z", "2023-05-06T09:20:00Z", "2023-05-06T09:20:00Z", "2023-05-06T09:20:00Z", "2023-05-06T09:20:00Z", "2023-05-06T09:20:00Z", "2023-05-06T09:20:00Z", "2023-05-06T09:20:00Z", "2023-05-06T09:20:00Z", "2023-05-06T09:20:00Z", "2023-05-06T09:20:00Z", "2023-05-06T09:20:00Z", "2023-05-06T09:20:00Z", "2023-05-06T09:20:00Z", "2023-05-06T09:20:00Z", "2023-05-06T09:20:00Z", "2023-05-06T09:20:00Z", "2023-05-06T09:20:00Z", "2023-05-06T09:20:00Z", "2023-05-06T09:20:00Z", "2023-05-06T09:20:00Z", "2023-05-06T09:20:00Z", "2023-05-06T09:20:00Z", "2023-05-06T09:20:00Z", "2023-05-06T09:20:00Z", "2023-05-06T09:20:00Z", "2023-05-06T09:20:00Z", "2023-05-06T09:20:00Z", "2023-05-06T09:20:00Z", "2023-05-06T09:20:00Z", "2023-05-06T09:20:00Z", "2023-05-06T09:20:00Z", "2023-05-06T09:20:00Z", "2023-05-06T08:50:00Z", "2023-05-06T08:50:00Z", "2023-05-06T09:20:00Z", "2023-05-06T09:20:00Z", "2023-05-06T09:20:00Z", "2023-05-06T09:20:00Z", "2023-05-06T09:20:00Z", "2023-05-06T09:20:00Z", "2023-05-06T09:20:00Z", "2023-05-06T09:20:00Z", "2023-05-06T09:20:00Z", "2023-05-06T09:20:00Z", "2023-05-06T09:20:00Z", "2023-05-06T09:20:00Z", "2023-05-06T09:20:00Z", "2023-05-06T09:20:00Z", "2023-05-06T09:20:00Z", "2023-05-06T09:20:00Z", "2023-05-06T09:20:00Z", "2023-05-06T09:20:00Z", "2023-05-06T09:20:00Z", "2023-05-06T09:20:00Z", "2023-05-06T09:20:00Z", "2023-05-06T09:20:00Z", "2023-05-06T09:20:00Z", "2023-05-06T09:20:00Z", "2023-05-06T09:20:00Z", "2023-05-06T09:20:00Z", "2023-05-06T09:20:00Z", "2023-05-06T09:20:00Z", "2023-05-06T09:20:00Z", "2023-05-06T09:20:00Z", "2023-05-06T08:50:00Z", "2023-05-06T08:50:00Z", "2023-05-06T08:50:00Z", "2023-05-06T08:50:00Z", "2023-05-06T09:20:00Z", "2023-05-06T09:20:00Z", "2023-05-06T09:20:00Z", "2023-05-06T09:20:00Z", "2023-05-06T09:20:00Z", "2023-05-06T09:20:00Z", "2023-05-06T09:20:00Z", "2023-05-06T09:20:00Z", "2023-05-06T09:20:00Z", "2023-05-06T09:20:00Z", "2023-05-06T09:20:00Z", "2023-05-06T09:20:00Z", "2023-05-06T09:20:00Z", "2023-05-06T08:50:00Z", "2023-05-06T08:50:00Z", "2023-05-06T08:50:00Z", "2023-05-06T08:50:00Z", "2023-05-06T09:20:00Z", "2023-05-06T09:20:00Z", "2023-05-06T09:20:00Z", "2023-05-06T09:20:00Z", "2023-05-06T09:20:00Z", "2023-05-06T09:20:00Z", "2023-05-06T09:20:00Z", "2023-05-06T09:20:00Z", "2023-05-06T08:55:00Z", "2023-05-06T09:25:00Z", "2023-05-06T08:50:00Z", "2023-05-06T09:20:00Z", "2023-05-06T09:20:00Z", "2023-05-06T08:50:00Z", "2023-05-06T09:20:00Z", "2023-05-06T08:50:00Z", "2023-05-06T09:20:00Z", "2023-05-06T08:50:00Z", "2023-05-06T08:50:00Z", "2023-05-06T08:50:00Z", "2023-05-06T08:50:00Z", "2023-05-06T08:50:00Z", "2023-05-06T08:50:00Z", "2023-05-06T08:50:00Z", "2023-05-06T08:50:00Z", "2023-05-06T08:50:00Z", "2023-05-06T08:50:00Z", "2023-05-06T08:50:00Z", "2023-05-06T08:50:00Z", "2023-05-06T09:25:00Z", "2023-05-06T09:25:00Z", "2023-05-06T09:25:00Z", "2023-05-06T09:25:00Z", "2023-05-06T09:25:00Z", "2023-05-06T09:25:00Z", "2023-05-06T09:25:00Z", "2023-05-06T08:55:00Z", "2023-05-06T09:25:00Z", "2023-05-06T09:25:00Z", "2023-05-06T09:25:00Z", "2023-05-06T09:25:00Z", "2023-05-06T09:25:00Z", "2023-05-06T09:25:00Z", "2023-05-06T09:25:00Z", "2023-05-06T09:25:00Z", "2023-05-06T09:25:00Z", "2023-05-06T09:25:00Z", "2023-05-06T09:25:00Z", "2023-05-06T09:25:00Z", "2023-05-06T09:25:00Z", "2023-05-06T09:25:00Z", "2023-05-06T09:25:00Z", "2023-05-06T09:25:00Z", "2023-05-06T09:25:00Z", "2023-05-06T09:25:00Z", "2023-05-06T09:00:00Z", "2023-05-06T09:00:00Z", "2023-05-06T09:00:00Z", "2023-05-06T09:00:00Z", "2023-05-06T09:00:00Z", "2023-05-06T09:00:00Z", "2023-05-06T09:00:00Z", "2023-05-06T09:00:00Z", "2023-05-06T09:00:00Z", "2023-05-06T09:20:00Z", "2023-05-06T09:20:00Z", "2023-05-06T09:20:00Z", "2023-05-06T09:20:00Z", "2023-05-06T09:20:00Z", "2023-05-06T08:50:00Z", "2023-05-06T09:20:00Z", "2023-05-06T09:20:00Z", "2023-05-06T09:20:00Z", "2023-05-06T09:20:00Z", "2023-05-06T09:20:00Z", "2023-05-06T08:50:00Z", "2023-05-06T09:20:00Z", "2023-05-06T09:20:00Z", "2023-05-06T09:20:00Z", "2023-05-06T09:20:00Z", "2023-05-06T09:20:00Z", "2023-05-06T09:20:00Z", "2023-05-06T09:20:00Z", "2023-05-06T09:20:00Z", "2023-05-06T09:20:00Z", "2023-05-06T09:20:00Z", "2023-05-06T09:20:00Z", "2023-05-06T09:20:00Z", "2023-05-06T09:20:00Z", "2023-05-06T09:20:00Z", "2023-05-06T09:20:00Z", "2023-05-06T09:20:00Z", "2023-05-06T09:20:00Z", "2023-05-06T09:20:00Z", "2023-05-06T09:20:00Z", "2023-05-06T09:20:00Z", "2023-05-06T09:20:00Z", "2023-05-06T09:20:00Z", "2023-05-06T08:50:00Z", "2023-05-06T09:20:00Z", "2023-05-06T09:20:00Z", "2023-05-06T09:20:00Z", "2023-05-06T09:20:00Z", "2023-05-06T09:20:00Z", "2023-05-06T09:20:00Z", "2023-05-06T09:20:00Z", "2023-05-06T09:20:00Z", "2023-05-06T09:20:00Z", "2023-05-06T08:50:00Z", "2023-05-06T09:20:00Z", "2023-05-06T09:20:00Z", "2023-05-06T09:20:00Z", "2023-05-06T09:20:00Z", "2023-05-06T08:50:00Z", "2023-05-06T09:20:00Z", "2023-05-06T09:20:00Z", "2023-05-06T09:20:00Z", "2023-05-06T09:20:00Z", "2023-05-06T09:20:00Z", "2023-05-06T09:20:00Z", "2023-05-06T09:20:00Z", "2023-05-06T09:20:00Z", "2023-05-06T09:20:00Z", "2023-05-06T09:20:00Z", "2023-05-06T09:20:00Z", "2023-05-06T09:20:00Z", "2023-05-06T08:50:00Z", "2023-05-06T09:20:00Z", "2023-05-06T09:20:00Z", "2023-05-06T09:20:00Z", "2023-05-06T09:20:00Z", "2023-05-06T09:20:00Z", "2023-05-06T09:20:00Z", "2023-05-06T09:20:00Z", "2023-05-06T09:20:00Z", "2023-05-06T09:20:00Z", "2023-05-06T09:20:00Z", "2023-05-06T09:20:00Z", "2023-05-06T09:20:00Z", "2023-05-06T09:20:00Z", "2023-05-06T09:20:00Z", "2023-05-06T09:20:00Z", "2023-05-06T09:20:00Z", "2023-05-06T09:20:00Z", "2023-05-06T09:00:00Z", "2023-05-06T09:00:00Z", "2023-05-06T09:00:00Z", "2023-05-06T09:00:00Z", "2023-05-06T09:00:00Z", "2023-05-06T09:00:00Z", "2023-05-06T09:00:00Z", "2023-05-06T09:00:00Z", "2023-05-06T09:00:00Z", "2023-05-06T09:00:00Z", "2023-05-06T09:00:00Z", "2023-05-06T09:00:00Z", "2023-05-06T09:00:00Z", "2023-05-06T09:00:00Z", "2023-05-06T09:00:00Z", "2023-05-06T09:20:00Z", "2023-05-06T09:20:00Z", "2023-05-06T09:20:00Z", "2023-05-06T09:20:00Z", "2023-05-06T09:20:00Z", "2023-05-06T09:20:00Z", "2023-05-06T09:20:00Z", "2023-05-06T09:20:00Z", "2023-05-06T09:20:00Z", "2023-05-06T09:20:00Z", "2023-05-06T09:20:00Z", "2023-05-06T09:20:00Z", "2023-05-06T09:20:00Z", "2023-05-06T09:20:00Z", "2023-05-06T09:20:00Z", "2023-05-06T09:20:00Z", "2023-05-06T09:20:00Z", "2023-05-06T09:20:00Z", "2023-05-06T09:20:00Z", "2023-05-06T09:20:00Z", "2023-05-06T09:20:00Z", "2023-05-06T09:20:00Z", "2023-05-06T09:20:00Z", "2023-05-06T09:20:00Z", "2023-05-06T09:20:00Z", "2023-05-06T09:20:00Z", "2023-05-06T09:20:00Z", "2023-05-06T09:20:00Z", "2023-05-06T09:20:00Z", "2023-05-06T09:20:00Z", "2023-05-06T09:20:00Z", "2023-05-06T09:20:00Z", "2023-05-06T09:20:00Z", "2023-05-06T09:20:00Z", "2023-05-06T09:20:00Z", "2023-05-06T09:20:00Z", "2023-05-06T09:20:00Z", "2023-05-06T09:20:00Z", "2023-05-06T09:20:00Z", "2023-05-06T09:20:00Z", "2023-05-06T09:20:00Z", "2023-05-06T09:20:00Z", "2023-05-06T09:20:00Z", "2023-05-06T09:20:00Z", "2023-05-06T09:20:00Z", "2023-05-06T09:25:00Z", "2023-05-06T08:55:00Z", "2023-05-06T08:55:00Z", "2023-05-06T09:20:00Z", "2023-05-06T09:20:00Z", "2023-05-06T09:20:00Z", "2023-05-06T09:20:00Z", "2023-05-06T09:20:00Z", "2023-05-06T09:20:00Z", "2023-05-06T09:20:00Z", "2023-05-06T09:20:00Z", "2023-05-06T08:55:00Z", "2023-05-06T09:10:00Z", "2023-05-06T09:10:00Z", "2023-05-06T09:20:00Z", "2023-05-06T09:20:00Z", "2023-05-06T09:20:00Z", "2023-05-06T09:20:00Z", "2023-05-06T09:20:00Z", "2023-05-06T09:20:00Z", "2023-05-06T09:20:00Z", "2023-05-06T08:55:00Z", "2023-05-06T09:20:00Z", "2023-05-06T09:20:00Z", "2023-05-06T09:20:00Z", "2023-05-06T09:20:00Z", "2023-05-06T09:20:00Z", "2023-05-06T09:20:00Z", "2023-05-06T09:20:00Z", "2023-05-06T09:20:00Z", "2023-05-06T09:20:00Z", "2023-05-06T09:20:00Z", "2023-05-06T09:20:00Z", "2023-05-06T09:20:00Z", "2023-05-06T09:20:00Z", "2023-05-06T09:20:00Z", "2023-05-06T09:00:00Z", "2023-05-06T09:00:00Z", "2023-05-06T08:43:00Z", "2023-05-06T09:00:00Z", "2023-05-06T09:00:00Z", "2023-05-06T09:00:00Z", "2023-05-06T09:00:00Z", "2023-05-06T09:00:00Z", "2023-05-06T09:00:00Z", "2023-05-06T09:00:00Z", "2023-05-06T09:00:00Z", "2023-05-06T09:00:00Z", "2023-05-06T09:00:00Z", "2023-05-06T09:11:00Z", "2023-05-06T09:00:00Z", "2023-05-06T09:00:00Z", "2023-05-06T08:52:00Z", "2023-05-06T09:00:00Z", "2023-05-06T09:00:00Z", "2023-05-06T09:00:00Z", "2023-05-06T09:00:00Z", "2023-05-06T09:00:00Z", "2023-05-06T09:00:00Z", "2023-05-06T09:00:00Z", "2023-05-06T09:00:00Z", "2023-05-06T09:00:00Z", "2023-05-06T09:00:00Z", "2023-05-06T09:00:00Z", "2023-05-06T09:00:00Z", "2023-05-06T09:00:00Z", "2023-05-06T09:00:00Z", "2023-05-06T08:50:00Z", "2023-05-06T09:00:00Z", "2023-05-06T08:55:00Z", "2023-05-06T09:00:00Z", "2023-05-06T09:00:00Z", "2023-05-06T09:00:00Z", "2023-05-06T09:00:00Z", "2023-05-06T09:00:00Z", "2023-05-06T09:00:00Z", "2023-05-06T09:00:00Z", "2023-05-06T09:00:00Z", "2023-05-06T09:30:00Z", "2023-05-06T09:00:00Z", "2023-05-06T09:00:00Z", "2023-05-06T09:00:00Z", "2023-05-06T09:00:00Z", "2023-05-06T09:00:00Z", "2023-05-06T09:00:00Z", "2023-05-06T09:00:00Z", "2023-05-06T09:00:00Z", "2023-05-06T09:00:00Z", "2023-05-06T09:00:00Z", "2023-05-06T09:00:00Z", "2023-05-06T09:00:00Z", "2023-05-06T09:00:00Z", "2023-05-06T09:00:00Z", "2023-05-06T09:00:00Z", "2023-05-06T09:00:00Z", "2023-05-06T09:00:00Z", "2023-05-06T09:00:00Z", "2023-05-06T09:00:00Z", "2023-05-06T09:00:00Z", "2023-05-06T09:00:00Z", "2023-05-06T09:00:00Z", "2023-05-06T09:00:00Z", "2023-05-06T09:00:00Z", "2023-05-06T09:00:00Z", "2023-05-06T09:00:00Z", "2023-05-06T09:00:00Z", "2023-05-06T09:00:00Z", "2023-05-06T09:00:00Z", "2023-05-06T09:00:00Z", "2023-05-06T09:00:00Z", "2023-05-06T09:00:00Z", "2023-05-06T09:00:00Z", "2023-05-06T09:00:00Z", "2023-05-06T09:00:00Z", "2023-05-06T09:00:00Z", "2023-05-06T09:00:00Z", "2023-05-06T09:00:00Z", "2023-05-06T09:00:00Z", "2023-05-06T09:00:00Z", "2023-05-06T09:00:00Z", "2023-05-06T09:00:00Z", "2023-05-06T09:00:00Z", "2023-05-06T09:00:00Z", "2023-05-06T09:00:00Z", "2023-05-06T09:00:00Z", "2023-05-06T09:00:00Z", "2023-05-06T09:00:00Z", "2023-05-06T09:00:00Z", "2023-05-06T09:00:00Z", "2023-05-06T09:00:00Z", "2023-05-06T09:00:00Z", "2023-05-06T09:00:00Z", "2023-05-06T09:00:00Z", "2023-05-06T09:00:00Z", "2023-05-06T09:00:00Z", "2023-05-06T09:00:00Z", "2023-05-06T09:00:00Z", "2023-05-06T09:00:00Z", "2023-05-06T09:00:00Z", "2023-05-06T09:00:00Z", "2023-05-06T09:00:00Z", "2023-05-06T09:00:00Z", "2023-05-06T09:00:00Z", "2023-05-06T09:00:00Z", "2023-05-06T09:00:00Z", "2023-05-06T09:00:00Z", "2023-05-06T09:00:00Z", "2023-05-06T09:00:00Z", "2023-05-06T09:00:00Z", "2023-05-06T09:00:00Z", "2023-05-06T09:00:00Z", "2023-05-06T09:00:00Z", "2023-05-06T09:00:00Z", "2023-05-06T09:00:00Z", "2023-05-06T09:00:00Z", "2023-05-06T09:00:00Z", "2023-05-06T09:00:00Z", "2023-05-06T09:00:00Z", "2023-05-06T09:00:00Z", "2023-05-06T09:00:00Z", "2023-05-06T09:00:00Z", "2023-05-06T09:00:00Z", "2023-05-06T09:00:00Z", "2023-05-06T09:00:00Z", "2023-05-06T09:00:00Z", "2023-05-06T09:00:00Z", "2023-05-06T09:00:00Z", "2023-05-06T09:00:00Z", "2023-05-06T09:00:00Z", "2023-05-06T09:00:00Z", "2023-05-06T09:00:00Z", "2023-05-06T09:00:00Z", "2023-05-06T09:00:00Z", "2023-05-06T09:00:00Z", "2023-05-06T08:30:00Z", "2023-05-06T09:00:00Z", "2023-05-06T09:00:00Z", "2023-05-06T09:00:00Z", "2023-05-06T09:00:00Z", "2023-05-06T09:00:00Z", "2023-05-06T09:00:00Z", "2023-05-06T09:00:00Z", "2023-05-06T09:00:00Z", "2023-05-06T09:00:00Z", "2023-05-06T09:00:00Z", "2023-05-06T09:00:00Z", "2023-05-06T09:00:00Z", "2023-05-06T09:00:00Z", "2023-05-06T09:00:00Z", "2023-05-06T09:00:00Z", "2023-05-06T09:00:00Z", "2023-05-06T09:00:00Z", "2023-05-06T09:00:00Z", "2023-05-06T09:00:00Z", "2023-05-06T09:00:00Z", "2023-05-06T09:00:00Z", "2023-05-06T09:00:00Z", "2023-05-06T09:00:00Z", "2023-05-06T09:00:00Z", "2023-05-06T09:00:00Z", "2023-05-06T09:00:00Z", "2023-05-06T09:00:00Z", "2023-05-06T09:00:00Z", "2023-05-06T09:00:00Z", "2023-05-06T09:00:00Z", "2023-05-06T09:00:00Z", "2023-05-06T09:00:00Z", "2023-05-06T08:30:00Z", "2023-05-06T09:00:00Z", "2023-05-06T09:30:00Z", "2023-05-06T09:00:00Z", "2023-05-06T09:00:00Z", "2023-05-06T09:00:00Z", "2023-05-06T09:00:00Z", "2023-05-06T09:00:00Z", "2023-05-06T09:15:00Z", "2023-05-06T08:59:00Z", "2023-05-06T09:10:00Z", "2023-05-06T09:15:00Z", "2023-05-06T09:15:00Z", "2023-05-06T09:15:00Z", "2023-05-06T09:15:00Z", "2023-05-06T09:15:00Z", "2023-05-06T09:15:00Z", "2023-05-06T09:15:00Z", "2023-05-06T08:58:00Z", "2023-05-06T09:15:00Z", "2023-05-06T09:15:00Z", "2023-05-06T09:15:00Z", "2023-05-06T09:15:00Z", "2023-05-06T09:15:00Z", "2023-05-06T08:54:00Z", "2023-05-06T09:15:00Z", "2023-05-06T09:15:00Z", "2023-05-06T09:15:00Z", "2023-05-06T09:15:00Z", "2023-05-06T09:15:00Z", "2023-05-06T09:15:00Z", "2023-05-06T09:15:00Z", "2023-05-06T09:10:00Z", "2023-05-06T09:15:00Z", "2023-05-06T09:15:00Z", "2023-05-06T08:55:00Z", "2023-05-06T08:55:00Z", "2023-05-06T08:55:00Z", "2023-05-06T08:55:00Z", "2023-05-06T08:55:00Z", "2023-05-06T08:55:00Z", "2023-05-06T08:55:00Z", "2023-05-06T08:55:00Z", "2023-05-06T08:55:00Z", "2023-05-06T08:55:00Z", "2023-05-06T08:55:00Z", "2023-05-06T08:55:00Z", "2023-05-06T09:15:00Z", "2023-05-06T08:55:00Z", "2023-05-06T08:55:00Z", "2023-05-06T08:55:00Z", "2023-05-06T09:15:00Z", "2023-05-06T08:55:00Z", "2023-05-06T08:55:00Z", "2023-05-06T08:55:00Z", "2023-05-06T08:55:00Z", "2023-05-06T08:55:00Z", "2023-05-06T08:55:00Z", "2023-05-06T08:55:00Z", "2023-05-06T08:55:00Z", "2023-05-06T08:55:00Z", "2023-05-06T08:55:00Z", "2023-05-06T08:55:00Z", "2023-05-06T08:55:00Z", "2023-05-06T08:55:00Z", "2023-05-06T08:56:00Z", "2023-05-06T09:15:00Z", "2023-05-06T08:55:00Z", "2023-05-06T08:55:00Z", "2023-05-06T08:55:00Z", "2023-05-06T08:55:00Z", "2023-05-06T08:55:00Z", "2023-05-06T08:55:00Z", "2023-05-06T09:15:00Z", "2023-05-06T09:15:00Z", "2023-05-06T09:30:00Z", "2023-05-06T09:15:00Z", "2023-05-06T08:54:00Z", "2023-05-06T09:15:00Z", "2023-05-06T09:15:00Z", "2023-05-06T09:15:00Z", "2023-05-06T09:15:00Z", "2023-05-06T09:15:00Z", "2023-05-06T09:05:00Z", "2023-05-06T09:15:00Z", "2023-05-06T09:15:00Z", "2023-05-06T09:15:00Z", "2023-05-06T09:15:00Z", "2023-05-06T08:55:00Z", "2023-05-06T09:15:00Z", "2023-05-06T09:15:00Z", "2023-05-06T09:15:00Z", "2023-05-06T09:15:00Z", "2023-05-06T09:15:00Z", "2023-05-06T09:15:00Z", "2023-05-06T09:15:00Z", "2023-05-06T09:15:00Z", "2023-05-06T09:15:00Z", "2023-05-06T09:15:00Z", "2023-05-06T09:15:00Z", "2023-05-06T09:19:00Z", "2023-05-06T09:09:00Z", "2023-05-06T08:56:00Z", "2023-05-06T09:15:00Z", "2023-05-06T09:15:00Z", "2023-05-06T09:15:00Z", "2023-05-06T09:30:00Z", "2023-05-06T09:15:00Z", "2023-05-06T09:15:00Z", "2023-05-06T09:15:00Z", "2023-05-06T09:15:00Z", "2023-05-06T09:15:00Z", "2023-05-06T09:15:00Z", "2023-05-06T09:15:00Z", "2023-05-06T09:15:00Z", "2023-05-06T09:15:00Z", "2023-05-06T09:30:00Z", "2023-05-06T09:16:00Z", "2023-05-06T09:15:00Z", "2023-05-06T09:15:00Z", "2023-05-06T09:15:00Z", "2023-05-06T09:15:00Z", "2023-05-06T09:15:00Z", "2023-05-06T09:15:00Z", "2023-05-06T09:15:00Z", "2023-05-06T09:15:00Z", "2023-05-06T09:15:00Z", "2023-05-06T09:15:00Z", "2023-05-06T09:15:00Z", "2023-05-06T09:15:00Z", "2023-05-06T09:15:00Z", "2023-05-06T08:55:00Z", "2023-05-06T09:15:00Z", "2023-05-06T09:15:00Z", "2023-05-06T09:15:00Z", "2023-05-06T09:15:00Z", "2023-05-06T09:25:00Z", "2023-05-06T09:15:00Z", "2023-05-06T09:15:00Z", "2023-05-06T09:15:00Z", "2023-05-06T09:15:00Z", "2023-05-06T09:15:00Z", "2023-05-06T09:15:00Z", "2023-05-06T09:15:00Z", "2023-05-06T09:15:00Z", "2023-05-06T09:15:00Z", "2023-05-06T09:15:00Z", "2023-05-06T09:15:00Z", "2023-05-06T09:15:00Z", "2023-05-06T09:15:00Z", "2023-05-06T09:15:00Z", "2023-05-06T09:15:00Z", "2023-05-06T09:15:00Z", "2023-05-06T09:15:00Z", "2023-05-06T09:15:00Z", "2023-05-06T09:15:00Z", "2023-05-06T09:15:00Z", "2023-05-06T09:15:00Z", "2023-05-06T09:25:00Z", "2023-05-06T09:15:00Z", "2023-05-06T08:56:00Z", "2023-05-06T09:15:00Z", "2023-05-06T09:15:00Z", "2023-05-06T09:15:00Z", "2023-05-06T09:05:00Z", "2023-05-06T09:15:00Z", "2023-05-06T09:15:00Z", "2023-05-06T09:10:00Z", "2023-05-06T09:15:00Z", "2023-05-06T09:15:00Z", "2023-05-06T09:15:00Z", "2023-05-06T08:56:00Z", "2023-05-06T09:15:00Z", "2023-05-06T09:15:00Z", "2023-05-06T09:15:00Z", "2023-05-06T09:15:00Z", "2023-05-06T08:55:00Z", "2023-05-06T09:15:00Z", "2023-05-06T09:15:00Z", "2023-05-06T09:15:00Z", "2023-05-06T09:15:00Z", "2023-05-06T09:15:00Z", "2023-05-06T08:53:00Z", "2023-05-06T08:54:00Z", "2023-05-06T09:15:00Z", "2023-05-06T09:18:00Z", "2023-05-06T08:51:00Z", "2023-05-06T08:55:00Z", "2023-05-06T08:52:00Z", "2023-05-06T08:52:00Z", "2023-05-06T08:53:00Z", "2023-05-06T08:53:00Z", "2023-05-06T09:15:00Z", "2023-05-06T09:15:00Z", "2023-05-06T08:53:00Z", "2023-05-06T09:15:00Z", "2023-05-06T09:15:00Z", "2023-05-06T08:51:00Z", "2023-05-06T08:53:00Z", "2023-05-06T09:18:00Z", "2023-05-06T09:05:00Z", "2023-05-06T09:17:00Z", "2023-05-06T08:56:00Z", "2023-05-06T08:53:00Z", "2023-05-06T09:15:00Z", "2023-05-06T09:20:00Z", "2023-05-06T09:15:00Z", "2023-05-06T09:15:00Z", "2023-05-06T09:15:00Z", "2023-05-06T08:55:00Z", "2023-05-06T09:15:00Z", "2023-05-06T09:15:00Z", "2023-05-06T09:15:00Z", "2023-05-06T09:20:00Z", "2023-05-06T08:55:00Z", "2023-05-06T08:56:00Z", "2023-05-06T09:15:00Z", "2023-05-06T08:52:00Z", "2023-05-06T09:10:00Z", "2023-05-06T09:09:00Z", "2023-05-06T08:53:00Z", "2023-05-06T08:53:00Z", "2023-05-06T09:15:00Z", "2023-05-06T09:15:00Z", "2023-05-06T08:53:00Z", "2023-05-06T08:51:00Z", "2023-05-06T09:15:00Z", "2023-05-06T08:53:00Z", "2023-05-06T09:15:00Z", "2023-05-06T09:15:00Z", "2023-05-06T09:15:00Z", "2023-05-06T09:15:00Z", "2023-05-06T09:26:00Z", "2023-05-06T08:56:00Z", "2023-05-06T09:15:00Z", "2023-05-06T09:17:00Z", "2023-05-06T09:15:00Z", "2023-05-06T09:15:00Z", "2023-05-06T08:54:00Z", "2023-05-06T08:53:00Z", "2023-05-06T08:54:00Z", "2023-05-06T08:54:00Z", "2023-05-06T08:51:00Z", "2023-05-06T08:53:00Z", "2023-05-06T08:56:00Z", "2023-05-06T09:15:00Z", "2023-05-06T09:15:00Z", "2023-05-06T08:54:00Z", "2023-05-06T08:52:00Z", "2023-05-06T08:53:00Z", "2023-05-06T08:53:00Z", "2023-05-06T08:53:00Z", "2023-05-06T09:15:00Z", "2023-05-06T08:53:00Z", "2023-05-06T08:53:00Z", "2023-05-06T08:56:00Z", "2023-05-06T09:15:00Z", "2023-05-06T08:55:00Z", "2023-05-06T09:10:00Z", "2023-05-06T09:15:00Z", "2023-05-06T09:15:00Z", "2023-05-06T08:53:00Z", "2023-05-06T08:53:00Z", "2023-05-06T08:53:00Z", "2023-05-06T08:54:00Z", "2023-05-06T08:53:00Z", "2023-05-06T08:54:00Z", "2023-05-06T09:17:00Z", "2023-05-06T09:15:00Z", "2023-05-06T09:15:00Z", "2023-05-06T09:13:00Z", "2023-05-06T09:25:00Z", "2023-05-06T08:52:00Z", "2023-05-06T09:15:00Z", "2023-05-06T09:25:00Z", "2023-05-06T08:53:00Z", "2023-05-06T08:56:00Z", "2023-05-06T09:15:00Z", "2023-05-06T08:52:00Z", "2023-05-06T08:56:00Z", "2023-05-06T09:15:00Z", "2023-05-06T09:15:00Z", "2023-05-06T08:53:00Z", "2023-05-06T09:20:00Z", "2023-05-06T08:56:00Z", "2023-05-06T09:05:00Z", "2023-05-06T09:15:00Z", "2023-05-06T09:15:00Z", "2023-05-06T08:55:00Z", "2023-05-06T09:15:00Z", "2023-05-06T08:53:00Z", "2023-05-06T09:15:00Z", "2023-05-06T08:52:00Z", "2023-05-06T09:20:00Z", "2023-05-06T09:15:00Z", "2023-05-06T08:51:00Z", "2023-05-06T09:15:00Z", "2023-05-06T08:53:00Z", "2023-05-06T08:53:00Z", "2023-05-06T09:15:00Z", "2023-05-06T09:16:00Z", "2023-05-06T09:15:00Z", "2023-05-06T08:53:00Z", "2023-05-06T08:53:00Z", "2023-05-06T08:54:00Z", "2023-05-06T09:15:00Z", "2023-05-06T08:54:00Z", "2023-05-06T08:54:00Z", "2023-05-06T09:15:00Z", "2023-05-06T08:51:00Z", "2023-05-06T09:15:00Z", "2023-05-06T09:28:00Z", "2023-05-06T09:16:00Z", "2023-05-06T09:15:00Z", "2023-05-06T09:15:00Z", "2023-05-06T08:53:00Z", "2023-05-06T09:15:00Z", "2023-05-06T09:15:00Z", "2023-05-06T09:15:00Z", "2023-05-06T09:15:00Z", "2023-05-06T09:15:00Z", "2023-05-06T09:15:00Z", "2023-05-06T08:53:00Z", "2023-05-06T08:55:00Z", "2023-05-06T09:15:00Z", "2023-05-06T09:15:00Z", "2023-05-06T09:15:00Z", "2023-05-06T09:15:00Z", "2023-05-06T08:52:00Z", "2023-05-06T09:15:00Z", "2023-05-06T09:02:00Z", "2023-05-06T09:15:00Z", "2023-05-06T09:15:00Z", "2023-05-06T09:15:00Z", "2023-05-06T09:15:00Z", "2023-05-06T08:53:00Z", "2023-05-06T09:15:00Z", "2023-05-06T08:53:00Z", "2023-05-06T09:15:00Z", "2023-05-06T08:58:00Z", "2023-05-06T08:53:00Z", "2023-05-06T09:15:00Z", "2023-05-06T09:15:00Z", "2023-05-06T08:51:00Z", "2023-05-06T09:15:00Z", "2023-05-06T08:52:00Z", "2023-05-06T09:15:00Z", "2023-05-06T09:15:00Z", "2023-05-06T08:51:00Z", "2023-05-06T08:53:00Z", "2023-05-06T08:53:00Z", "2023-05-06T09:28:00Z", "2023-05-06T08:53:00Z", "2023-05-06T08:54:00Z", "2023-05-06T09:20:00Z", "2023-05-06T09:15:00Z", "2023-05-06T08:51:00Z", "2023-05-06T09:15:00Z", "2023-05-06T09:15:00Z", "2023-05-06T08:53:00Z", "2023-05-06T08:53:00Z", "2023-05-06T08:56:00Z", "2023-05-06T09:15:00Z", "2023-05-06T08:51:00Z", "2023-05-06T08:53:00Z", "2023-05-06T08:56:00Z", "2023-05-06T09:15:00Z", "2023-05-06T08:55:00Z", "2023-05-06T08:56:00Z", "2023-05-06T09:15:00Z", "2023-05-06T08:53:00Z", "2023-05-06T08:52:00Z", "2023-05-06T08:53:00Z", "2023-05-06T08:55:00Z", "2023-05-06T09:15:00Z", "2023-05-06T09:15:00Z", "2023-05-06T08:56:00Z", "2023-05-06T09:05:00Z", "2023-05-06T09:15:00Z", "2023-05-06T08:53:00Z", "2023-05-06T08:58:00Z", "2023-05-06T08:53:00Z", "2023-05-06T09:15:00Z", "2023-05-06T09:15:00Z", "2023-05-06T09:15:00Z", "2023-05-06T08:53:00Z", "2023-05-06T08:51:00Z", "2023-05-06T09:21:00Z", "2023-05-06T08:52:00Z", "2023-05-06T09:00:00Z", "2023-05-06T08:56:00Z", "2023-05-06T08:52:00Z", "2023-05-06T08:55:00Z", "2023-05-06T09:10:00Z", "2023-05-06T08:53:00Z", "2023-05-06T08:56:00Z", "2023-05-06T08:52:00Z", "2023-05-06T08:53:00Z", "2023-05-06T09:15:00Z", "2023-05-06T08:53:00Z", "2023-05-06T09:15:00Z", "2023-05-06T08:53:00Z", "2023-05-06T09:15:00Z", "2023-05-06T09:08:00Z", "2023-05-06T09:29:00Z", "2023-05-06T08:54:00Z", "2023-05-06T09:15:00Z", "2023-05-06T09:15:00Z", "2023-05-06T09:15:00Z", "2023-05-06T08:53:00Z", "2023-05-06T08:53:00Z", "2023-05-06T09:25:00Z", "2023-05-06T09:15:00Z", "2023-05-06T09:15:00Z", "2023-05-06T09:15:00Z", "2023-05-06T08:53:00Z", "2023-05-06T09:15:00Z", "2023-05-06T08:53:00Z", "2023-05-06T09:23:00Z", "2023-05-06T09:15:00Z", "2023-05-06T09:15:00Z", "2023-05-06T08:53:00Z", "2023-05-06T08:53:00Z", "2023-05-06T09:15:00Z", "2023-05-06T08:56:00Z", "2023-05-06T08:53:00Z", "2023-05-06T08:54:00Z", "2023-05-06T08:54:00Z", "2023-05-06T08:53:00Z", "2023-05-06T09:15:00Z", "2023-05-06T08:54:00Z", "2023-05-06T09:15:00Z", "2023-05-06T09:15:00Z", "2023-05-06T08:53:00Z", "2023-05-06T09:15:00Z", "2023-05-06T09:15:00Z", "2023-05-06T08:56:00Z", "2023-05-06T08:53:00Z", "2023-05-06T09:15:00Z", "2023-05-06T08:53:00Z", "2023-05-06T08:54:00Z", "2023-05-06T09:15:00Z", "2023-05-06T09:15:00Z", "2023-05-06T09:15:00Z", "2023-05-06T09:15:00Z", "2023-05-06T08:53:00Z", "2023-05-06T08:53:00Z", "2023-05-06T09:15:00Z", "2023-05-06T08:55:00Z", "2023-05-06T09:15:00Z", "2023-05-06T08:56:00Z", "2023-05-06T09:15:00Z", "2023-05-06T09:15:00Z", "2023-05-06T09:15:00Z", "2023-05-06T09:15:00Z", "2023-05-06T09:15:00Z", "2023-05-06T09:15:00Z", "2023-05-06T09:15:00Z", "2023-05-06T09:15:00Z", "2023-05-06T09:15:00Z", "2023-05-06T09:15:00Z", "2023-05-06T08:56:00Z", "2023-05-06T08:53:00Z", "2023-05-06T08:51:00Z", "2023-05-06T08:55:00Z", "2023-05-06T08:54:00Z", "2023-05-06T09:15:00Z", "2023-05-06T09:05:00Z", "2023-05-06T09:15:00Z", "2023-05-06T09:15:00Z", "2023-05-06T09:15:00Z", "2023-05-06T08:55:00Z", "2023-05-06T09:15:00Z", "2023-05-06T09:15:00Z", "2023-05-06T09:15:00Z", "2023-05-06T08:53:00Z", "2023-05-06T09:15:00Z", "2023-05-06T09:15:00Z", "2023-05-06T09:15:00Z", "2023-05-06T08:53:00Z", "2023-05-06T09:13:00Z", "2023-05-06T09:15:00Z", "2023-05-06T09:15:00Z", "2023-05-06T08:51:00Z", "2023-05-06T09:15:00Z", "2023-05-06T08:53:00Z", "2023-05-06T08:53:00Z", "2023-05-06T09:08:00Z", "2023-05-06T08:56:00Z", "2023-05-06T08:55:00Z", "2023-05-06T08:54:00Z", "2023-05-06T08:53:00Z", "2023-05-06T09:15:00Z", "2023-05-06T08:53:00Z", "2023-05-06T09:15:00Z", "2023-05-06T09:15:00Z", "2023-05-06T09:15:00Z", "2023-05-06T09:15:00Z", "2023-05-06T09:15:00Z", "2023-05-06T09:25:00Z", "2023-05-06T09:15:00Z", "2023-05-06T09:05:00Z", "2023-05-06T09:15:00Z", "2023-05-06T08:53:00Z", "2023-05-06T09:10:00Z", "2023-05-06T08:56:00Z", "2023-05-06T08:53:00Z", "2023-05-06T09:15:00Z", "2023-05-06T08:53:00Z", "2023-05-06T08:56:00Z", "2023-05-06T09:15:00Z", "2023-05-06T09:19:00Z", "2023-05-06T09:15:00Z", "2023-05-06T08:56:00Z", "2023-05-06T09:15:00Z", "2023-05-06T08:53:00Z", "2023-05-06T09:16:00Z", "2023-05-06T09:15:00Z", "2023-05-06T09:15:00Z", "2023-05-06T09:15:00Z", "2023-05-06T09:15:00Z", "2023-05-06T09:15:00Z", "2023-05-06T08:52:00Z", "2023-05-06T09:15:00Z", "2023-05-06T08:51:00Z", "2023-05-06T09:15:00Z", "2023-05-06T09:15:00Z", "2023-05-06T08:53:00Z", "2023-05-06T08:53:00Z", "2023-05-06T09:15:00Z", "2023-05-06T08:52:00Z", "2023-05-06T09:15:00Z", "2023-05-06T09:02:00Z", "2023-05-06T09:15:00Z", "2023-05-06T08:51:00Z", "2023-05-06T08:53:00Z", "2023-05-06T09:15:00Z", "2023-05-06T09:28:00Z", "2023-05-06T08:55:00Z", "2023-05-06T09:15:00Z", "2023-05-06T09:15:00Z", "2023-05-06T09:15:00Z", "2023-05-06T09:25:00Z", "2023-05-06T08:53:00Z", "2023-05-06T08:53:00Z", "2023-05-06T08:52:00Z", "2023-05-06T08:53:00Z", "2023-05-06T08:56:00Z", "2023-05-06T09:22:00Z", "2023-05-06T09:25:00Z", "2023-05-06T09:15:00Z", "2023-05-06T08:51:00Z", "2023-05-06T09:15:00Z", "2023-05-06T08:54:00Z", "2023-05-06T08:53:00Z", "2023-05-06T08:54:00Z", "2023-05-06T09:05:00Z", "2023-05-06T09:15:00Z", "2023-05-06T09:20:00Z", "2023-05-06T08:53:00Z", "2023-05-06T08:53:00Z", "2023-05-06T09:15:00Z", "2023-05-06T09:15:00Z", "2023-05-06T09:15:00Z", "2023-05-06T08:53:00Z", "2023-05-06T09:15:00Z", "2023-05-06T09:15:00Z", "2023-05-06T08:47:00Z", "2023-05-06T09:15:00Z", "2023-05-06T08:52:00Z", "2023-05-06T08:53:00Z", "2023-05-06T09:12:00Z", "2023-05-06T08:51:00Z", "2023-05-06T08:53:00Z", "2023-05-06T08:53:00Z", "2023-05-06T08:54:00Z", "2023-05-06T09:15:00Z", "2023-05-06T08:51:00Z", "2023-05-06T08:53:00Z", "2023-05-06T09:15:00Z", "2023-05-06T08:53:00Z", "2023-05-06T08:56:00Z", "2023-05-06T09:15:00Z", "2023-05-06T09:15:00Z", "2023-05-06T09:05:00Z", "2023-05-06T08:53:00Z", "2023-05-06T09:15:00Z", "2023-05-06T08:53:00Z", "2023-05-06T09:15:00Z", "2023-05-06T08:52:00Z", "2023-05-06T09:15:00Z", "2023-05-06T08:56:00Z", "2023-05-06T08:56:00Z", "2023-05-06T08:55:00Z", "2023-05-06T09:15:00Z", "2023-05-06T09:15:00Z", "2023-05-06T09:15:00Z", "2023-05-06T09:15:00Z", "2023-05-06T08:56:00Z", "2023-05-06T08:55:00Z", "2023-05-06T09:15:00Z", "2023-05-06T09:15:00Z", "2023-05-06T08:53:00Z", "2023-05-06T09:15:00Z", "2023-05-06T09:15:00Z", "2023-05-06T09:15:00Z", "2023-05-06T08:56:00Z", "2023-05-06T08:53:00Z", "2023-05-06T09:15:00Z", "2023-05-06T09:15:00Z", "2023-05-06T08:56:00Z", "2023-05-06T09:15:00Z", "2023-05-06T09:15:00Z", "2023-05-06T09:15:00Z", "2023-05-06T09:15:00Z", "2023-05-06T09:15:00Z", "2023-05-06T09:15:00Z", "2023-05-06T09:15:00Z", "2023-05-06T09:15:00Z", "2023-05-06T08:55:00Z", "2023-05-06T08:53:00Z", "2023-05-06T08:50:00Z", "2023-05-06T08:53:00Z", "2023-05-06T08:53:00Z", "2023-05-06T08:51:00Z", "2023-05-06T08:56:00Z", "2023-05-06T09:15:00Z", "2023-05-06T08:53:00Z", "2023-05-06T08:52:00Z", "2023-05-06T08:53:00Z", "2023-05-06T09:15:00Z", "2023-05-06T08:52:00Z", "2023-05-06T09:27:00Z", "2023-05-06T08:54:00Z", "2023-05-06T09:10:00Z", "2023-05-06T09:15:00Z", "2023-05-06T08:53:00Z", "2023-05-06T08:53:00Z", "2023-05-06T08:53:00Z", "2023-05-06T09:06:00Z", "2023-05-06T08:53:00Z", "2023-05-06T08:53:00Z", "2023-05-06T08:53:00Z", "2023-05-06T08:53:00Z", "2023-05-06T08:53:00Z", "2023-05-06T08:56:00Z", "2023-05-06T08:56:00Z", "2023-05-06T09:15:00Z", "2023-05-06T08:53:00Z", "2023-05-06T09:15:00Z", "2023-05-06T09:15:00Z", "2023-05-06T08:55:00Z", "2023-05-06T09:21:00Z", "2023-05-06T09:15:00Z", "2023-05-06T08:53:00Z", "2023-05-06T09:15:00Z", "2023-05-06T09:15:00Z", "2023-05-06T08:53:00Z", "2023-05-06T09:15:00Z", "2023-05-06T08:55:00Z", "2023-05-06T08:54:00Z", "2023-05-06T08:53:00Z", "2023-05-06T08:53:00Z", "2023-05-06T09:05:00Z", "2023-05-06T09:15:00Z", "2023-05-06T08:53:00Z", "2023-05-06T09:15:00Z", "2023-05-06T09:15:00Z", "2023-05-06T08:55:00Z", "2023-05-06T08:52:00Z", "2023-05-06T09:05:00Z", "2023-05-06T09:15:00Z", "2023-05-06T08:53:00Z", "2023-05-06T09:15:00Z", "2023-05-06T09:15:00Z", "2023-05-06T08:53:00Z", "2023-05-06T08:53:00Z", "2023-05-06T09:20:00Z", "2023-05-06T08:54:00Z", "2023-05-06T08:54:00Z", "2023-05-06T09:15:00Z", "2023-05-06T09:15:00Z", "2023-05-06T08:53:00Z", "2023-05-06T08:53:00Z", "2023-05-06T08:53:00Z", "2023-05-06T08:53:00Z", "2023-05-06T09:15:00Z", "2023-05-06T09:14:00Z", "2023-05-06T09:15:00Z", "2023-05-06T08:56:00Z", "2023-05-06T09:15:00Z", "2023-05-06T08:53:00Z", "2023-05-06T09:15:00Z", "2023-05-06T09:10:00Z", "2023-05-06T08:56:00Z", "2023-05-06T08:52:00Z", "2023-05-06T09:15:00Z", "2023-05-06T09:13:00Z", "2023-05-06T08:53:00Z", "2023-05-06T09:15:00Z", "2023-05-06T08:53:00Z", "2023-05-06T08:56:00Z", "2023-05-06T09:15:00Z", "2023-05-06T08:53:00Z", "2023-05-06T09:15:00Z", "2023-05-06T09:15:00Z", "2023-05-06T09:15:00Z", "2023-05-06T08:54:00Z", "2023-05-06T08:56:00Z", "2023-05-06T08:55:00Z", "2023-05-06T09:15:00Z", "2023-05-06T09:15:00Z", "2023-05-06T09:15:00Z", "2023-05-06T09:15:00Z", "2023-05-06T09:15:00Z", "2023-05-06T09:15:00Z", "2023-05-06T09:15:00Z", "2023-05-06T09:15:00Z", "2023-05-06T09:10:00Z", "2023-05-06T08:56:00Z", "2023-05-06T08:55:00Z", "2023-05-06T09:17:00Z", "2023-05-06T09:15:00Z", "2023-05-06T09:15:00Z", "2023-05-06T09:15:00Z", "2023-05-06T08:54:00Z", "2023-05-06T08:53:00Z", "2023-05-06T09:15:00Z", "2023-05-06T09:15:00Z", "2023-05-06T08:55:00Z", "2023-05-06T09:10:00Z", "2023-05-06T09:15:00Z", "2023-05-06T09:15:00Z", "2023-05-06T09:15:00Z", "2023-05-06T08:55:00Z", "2023-05-06T08:56:00Z", "2023-05-06T08:56:00Z", "2023-05-06T09:11:00Z", "2023-05-06T08:53:00Z", "2023-05-06T09:15:00Z", "2023-05-06T09:15:00Z", "2023-05-06T08:56:00Z", "2023-05-06T08:55:00Z", "2023-05-06T09:15:00Z", "2023-05-06T09:15:00Z", "2023-05-06T09:15:00Z", "2023-05-06T09:05:00Z", "2023-05-06T08:56:00Z", "2023-05-06T09:15:00Z", "2023-05-06T09:15:00Z", "2023-05-06T08:51:00Z", "2023-05-06T08:56:00Z", "2023-05-06T08:56:00Z", "2023-05-06T09:15:00Z", "2023-05-06T09:15:00Z", "2023-05-06T08:56:00Z", "2023-05-06T09:15:00Z", "2023-05-06T09:22:00Z", "2023-05-06T09:15:00Z", "2023-05-06T09:08:00Z", "2023-05-06T08:53:00Z", "2023-05-06T09:15:00Z", "2023-05-06T08:51:00Z", "2023-05-06T08:53:00Z", "2023-05-06T08:56:00Z", "2023-05-06T09:15:00Z", "2023-05-06T08:53:00Z", "2023-05-06T09:15:00Z", "2023-05-06T08:55:00Z", "2023-05-06T09:15:00Z", "2023-05-06T08:56:00Z", "2023-05-06T08:53:00Z", "2023-05-06T08:35:00Z", "2023-05-06T09:15:00Z", "2023-05-06T08:53:00Z", "2023-05-06T09:15:00Z", "2023-05-06T08:53:00Z", "2023-05-06T08:51:00Z", "2023-05-06T09:15:00Z", "2023-05-06T09:15:00Z", "2023-05-06T08:56:00Z", "2023-05-06T09:23:00Z", "2023-05-06T09:11:00Z", "2023-05-06T08:52:00Z", "2023-05-06T09:15:00Z", "2023-05-06T09:00:00Z", "2023-05-06T09:13:00Z", "2023-05-06T09:10:00Z", "2023-05-06T08:58:00Z", "2023-05-06T09:13:00Z", "2023-05-06T08:56:00Z", "2023-05-06T09:15:00Z", "2023-05-06T09:15:00Z", "2023-05-06T08:54:00Z", "2023-05-06T09:21:00Z", "2023-05-06T08:53:00Z", "2023-05-06T09:23:00Z", "2023-05-06T08:54:00Z", "2023-05-06T08:51:00Z", "2023-05-06T09:10:00Z", "2023-05-06T08:53:00Z", "2023-05-06T09:10:00Z", "2023-05-06T08:53:00Z", "2023-05-06T09:15:00Z", "2023-05-06T09:15:00Z", "2023-05-06T09:30:00Z", "2023-05-06T09:15:00Z", "2023-05-06T09:15:00Z", "2023-05-06T09:15:00Z", "2023-05-06T09:15:00Z", "2023-05-06T08:35:00Z", "2023-05-06T09:15:00Z", "2023-05-06T09:15:00Z", "2023-05-06T09:15:00Z", "2023-05-06T08:55:00Z", "2023-05-06T08:56:00Z", "2023-05-06T08:53:00Z", "2023-05-06T08:53:00Z", "2023-05-06T08:53:00Z", "2023-05-06T08:55:00Z", "2023-05-06T09:15:00Z", "2023-05-06T08:56:00Z", "2023-05-06T08:53:00Z", "2023-05-06T08:55:00Z", "2023-05-06T09:10:00Z", "2023-05-06T08:53:00Z", "2023-05-06T09:15:00Z", "2023-05-06T08:53:00Z", "2023-05-06T09:15:00Z", "2023-05-06T09:15:00Z", "2023-05-06T09:10:00Z", "2023-05-06T08:53:00Z", "2023-05-06T09:15:00Z", "2023-05-06T09:15:00Z", "2023-05-06T08:55:00Z", "2023-05-06T08:53:00Z", "2023-05-06T09:15:00Z", "2023-05-06T08:54:00Z", "2023-05-06T09:15:00Z", "2023-05-06T09:15:00Z", "2023-05-06T09:15:00Z", "2023-05-06T08:53:00Z", "2023-05-06T08:55:00Z", "2023-05-06T08:54:00Z", "2023-05-06T09:15:00Z", "2023-05-06T08:56:00Z", "2023-05-06T09:15:00Z", "2023-05-06T09:15:00Z", "2023-05-06T09:15:00Z", "2023-05-06T08:53:00Z", "2023-05-06T08:57:00Z", "2023-05-06T08:53:00Z", "2023-05-06T08:53:00Z", "2023-05-06T09:28:00Z", "2023-05-06T09:15:00Z", "2023-05-06T09:09:00Z", "2023-05-06T08:56:00Z", "2023-05-06T09:15:00Z", "2023-05-06T08:53:00Z", "2023-05-06T08:53:00Z", "2023-05-06T08:53:00Z", "2023-05-06T08:56:00Z", "2023-05-06T08:53:00Z", "2023-05-06T09:15:00Z", "2023-05-06T08:56:00Z", "2023-05-06T08:53:00Z", "2023-05-06T09:26:00Z", "2023-05-06T09:13:00Z", "2023-05-06T09:15:00Z", "2023-05-06T08:53:00Z", "2023-05-06T09:15:00Z", "2023-05-06T09:05:00Z", "2023-05-06T08:53:00Z", "2023-05-06T09:15:00Z", "2023-05-06T09:20:00Z", "2023-05-06T08:56:00Z", "2023-05-06T08:56:00Z", "2023-05-06T08:55:00Z", "2023-05-06T09:10:00Z", "2023-05-06T08:53:00Z", "2023-05-06T08:53:00Z", "2023-05-06T09:15:00Z", "2023-05-06T08:55:00Z", "2023-05-06T09:15:00Z", "2023-05-06T08:53:00Z", "2023-05-06T08:53:00Z", "2023-05-06T08:53:00Z", "2023-05-06T08:53:00Z", "2023-05-06T09:15:00Z", "2023-05-06T08:54:00Z", "2023-05-06T09:15:00Z", "2023-05-06T09:15:00Z", "2023-05-06T09:23:00Z", "2023-05-06T09:15:00Z", "2023-05-06T08:53:00Z", "2023-05-06T09:15:00Z", "2023-05-06T09:15:00Z", "2023-05-06T09:15:00Z", "2023-05-06T09:15:00Z", "2023-05-06T09:15:00Z", "2023-05-06T08:53:00Z", "2023-05-06T09:15:00Z", "2023-05-06T08:54:00Z", "2023-05-06T08:56:00Z", "2023-05-06T09:15:00Z", "2023-05-06T08:53:00Z", "2023-05-06T08:56:00Z", "2023-05-06T09:15:00Z", "2023-05-06T08:56:00Z", "2023-05-06T09:15:00Z", "2023-05-06T09:00:00Z", "2023-05-06T09:15:00Z", "2023-05-06T08:54:00Z", "2023-05-06T09:15:00Z", "2023-05-06T09:02:00Z", "2023-05-06T09:15:00Z", "2023-05-06T09:15:00Z", "2023-05-06T09:15:00Z", "2023-05-06T09:15:00Z", "2023-05-06T08:51:00Z", "2023-05-06T08:56:00Z", "2023-05-06T09:27:00Z", "2023-05-06T08:53:00Z", "2023-05-06T09:05:00Z", "2023-05-06T08:53:00Z", "2023-05-06T08:53:00Z", "2023-05-06T08:55:00Z", "2023-05-06T08:53:00Z", "2023-05-06T09:15:00Z", "2023-05-06T09:15:00Z", "2023-05-06T09:15:00Z", "2023-05-06T08:53:00Z", "2023-05-06T09:15:00Z", "2023-05-06T09:15:00Z", "2023-05-06T08:53:00Z", "2023-05-06T09:15:00Z", "2023-05-06T09:15:00Z", "2023-05-06T09:15:00Z", "2023-05-06T08:53:00Z", "2023-05-06T08:53:00Z", "2023-05-06T08:53:00Z", "2023-05-06T09:15:00Z", "2023-05-06T08:53:00Z", "2023-05-06T08:53:00Z", "2023-05-06T09:15:00Z", "2023-05-06T08:53:00Z", "2023-05-06T08:53:00Z", "2023-05-06T08:52:00Z", "2023-05-06T09:15:00Z", "2023-05-06T09:15:00Z", "2023-05-06T09:15:00Z", "2023-05-06T08:53:00Z", "2023-05-06T08:56:00Z", "2023-05-06T09:15:00Z", "2023-05-06T09:10:00Z", "2023-05-06T09:20:00Z", "2023-05-06T08:56:00Z", "2023-05-06T09:15:00Z", "2023-05-06T08:53:00Z", "2023-05-06T08:53:00Z", "2023-05-06T09:23:00Z", "2023-05-06T09:15:00Z", "2023-05-06T08:55:00Z", "2023-05-06T09:15:00Z", "2023-05-06T09:15:00Z", "2023-05-06T09:16:00Z", "2023-05-06T09:15:00Z", "2023-05-06T08:53:00Z", "2023-05-06T08:56:00Z", "2023-05-06T08:53:00Z", "2023-05-06T08:56:00Z", "2023-05-06T09:15:00Z", "2023-05-06T08:53:00Z", "2023-05-06T08:55:00Z", "2023-05-06T09:15:00Z", "2023-05-06T08:53:00Z", "2023-05-06T09:15:00Z", "2023-05-06T08:55:00Z", "2023-05-06T08:54:00Z", "2023-05-06T08:53:00Z", "2023-05-06T08:55:00Z", "2023-05-06T09:14:00Z", "2023-05-06T08:56:00Z", "2023-05-06T08:56:00Z", "2023-05-06T08:56:00Z", "2023-05-06T09:20:00Z", "2023-05-06T08:53:00Z", "2023-05-06T08:55:00Z", "2023-05-06T08:55:00Z", "2023-05-06T08:53:00Z", "2023-05-06T09:15:00Z", "2023-05-06T08:53:00Z", "2023-05-06T08:56:00Z", "2023-05-06T09:15:00Z", "2023-05-06T09:20:00Z", "2023-05-06T09:15:00Z", "2023-05-06T08:53:00Z", "2023-05-06T09:15:00Z", "2023-05-06T09:10:00Z", "2023-05-06T08:55:00Z", "2023-05-06T08:55:00Z", "2023-05-06T08:56:00Z", "2023-05-06T09:15:00Z", "2023-05-06T09:15:00Z", "2023-05-06T09:15:00Z", "2023-05-06T09:15:00Z", "2023-05-06T09:15:00Z", "2023-05-06T09:15:00Z", "2023-05-06T08:53:00Z", "2023-05-06T09:15:00Z", "2023-05-06T09:00:00Z", "2023-05-06T09:15:00Z", "2023-05-06T09:15:00Z", "2023-05-06T09:15:00Z", "2023-05-06T09:15:00Z", "2023-05-06T08:53:00Z", "2023-05-06T09:14:00Z", "2023-05-06T09:05:00Z", "2023-05-06T08:53:00Z", "2023-05-06T09:15:00Z", "2023-05-06T09:15:00Z", "2023-05-06T09:15:00Z", "2023-05-06T09:15:00Z", "2023-05-06T09:15:00Z", "2023-05-06T09:15:00Z", "2023-05-06T09:15:00Z", "2023-05-06T08:56:00Z", "2023-05-06T08:51:00Z", "2023-05-06T08:56:00Z", "2023-05-06T09:15:00Z", "2023-05-06T08:53:00Z", "2023-05-06T09:15:00Z", "2023-05-06T08:55:00Z", "2023-05-06T08:56:00Z", "2023-05-06T09:27:00Z", "2023-05-06T08:55:00Z", "2023-05-06T09:15:00Z", "2023-05-06T09:15:00Z", "2023-05-06T08:53:00Z", "2023-05-06T09:15:00Z", "2023-05-06T09:15:00Z", "2023-05-06T08:53:00Z", "2023-05-06T09:15:00Z", "2023-05-06T08:53:00Z", "2023-05-06T08:52:00Z", "2023-05-06T09:23:00Z", "2023-05-06T08:53:00Z", "2023-05-06T09:15:00Z", "2023-05-06T08:53:00Z", "2023-05-06T08:53:00Z", "2023-05-06T08:53:00Z", "2023-05-06T08:53:00Z", "2023-05-06T09:15:00Z", "2023-05-06T08:53:00Z", "2023-05-06T08:53:00Z", "2023-05-06T08:53:00Z", "2023-05-06T08:55:00Z", "2023-05-06T09:15:00Z", "2023-05-06T08:55:00Z", "2023-05-06T09:15:00Z", "2023-05-06T09:15:00Z", "2023-05-06T09:15:00Z", "2023-05-06T08:56:00Z", "2023-05-06T08:56:00Z", "2023-05-06T09:15:00Z", "2023-05-06T09:05:00Z", "2023-05-06T09:15:00Z", "2023-05-06T09:15:00Z", "2023-05-06T08:55:00Z", "2023-05-06T08:55:00Z", "2023-05-06T08:53:00Z", "2023-05-06T09:13:00Z", "2023-05-06T08:56:00Z", "2023-05-06T09:15:00Z", "2023-05-06T09:15:00Z", "2023-05-06T09:15:00Z", "2023-05-06T09:11:00Z", "2023-05-06T09:15:00Z", "2023-05-06T09:15:00Z", "2023-05-06T09:30:00Z", "2023-05-06T08:53:00Z", "2023-05-06T09:05:00Z", "2023-05-06T09:08:00Z", "2023-05-06T08:53:00Z", "2023-05-06T08:55:00Z", "2023-05-06T09:15:00Z", "2023-05-06T09:15:00Z", "2023-05-06T09:15:00Z", "2023-05-06T08:51:00Z", "2023-05-06T09:15:00Z", "2023-05-06T08:53:00Z", "2023-05-06T09:15:00Z", "2023-05-06T08:55:00Z", "2023-05-06T08:53:00Z", "2023-05-06T09:15:00Z", "2023-05-06T08:51:00Z", "2023-05-06T08:55:00Z", "2023-05-06T08:53:00Z", "2023-05-06T08:53:00Z", "2023-05-06T09:15:00Z", "2023-05-06T08:52:00Z", "2023-05-06T09:15:00Z", "2023-05-06T09:15:00Z", "2023-05-06T08:53:00Z", "2023-05-06T08:53:00Z", "2023-05-06T09:15:00Z", "2023-05-06T08:54:00Z", "2023-05-06T08:53:00Z", "2023-05-06T08:56:00Z", "2023-05-06T09:15:00Z", "2023-05-06T09:15:00Z", "2023-05-06T08:56:00Z", "2023-05-06T09:26:00Z", "2023-05-06T08:53:00Z", "2023-05-06T08:56:00Z", "2023-05-06T09:15:00Z", "2023-05-06T09:15:00Z", "2023-05-06T09:15:00Z", "2023-05-06T09:15:00Z", "2023-05-06T09:15:00Z", "2023-05-06T09:15:00Z", "2023-05-06T09:15:00Z", "2023-05-06T08:53:00Z", "2023-05-06T08:55:00Z", "2023-05-06T09:15:00Z", "2023-05-06T09:15:00Z", "2023-05-06T09:20:00Z", "2023-05-06T09:15:00Z", "2023-05-06T09:15:00Z", "2023-05-06T09:15:00Z", "2023-05-06T09:15:00Z", "2023-05-06T09:15:00Z", "2023-05-06T09:15:00Z", "2023-05-06T09:15:00Z", "2023-05-06T08:55:00Z", "2023-05-06T08:52:00Z", "2023-05-06T08:53:00Z", "2023-05-06T08:53:00Z", "2023-05-06T09:15:00Z", "2023-05-06T08:53:00Z", "2023-05-06T09:06:00Z", "2023-05-06T08:53:00Z", "2023-05-06T08:35:00Z", "2023-05-06T09:15:00Z", "2023-05-06T08:52:00Z", "2023-05-06T09:15:00Z", "2023-05-06T09:15:00Z", "2023-05-06T09:15:00Z", "2023-05-06T08:51:00Z", "2023-05-06T09:15:00Z", "2023-05-06T09:15:00Z", "2023-05-06T09:15:00Z", "2023-05-06T08:52:00Z", "2023-05-06T09:15:00Z", "2023-05-06T09:15:00Z", "2023-05-06T09:15:00Z", "2023-05-06T09:15:00Z", "2023-05-06T09:15:00Z", "2023-05-06T08:56:00Z", "2023-05-06T08:51:00Z", "2023-05-06T08:53:00Z", "2023-05-06T08:54:00Z", "2023-05-06T08:53:00Z", "2023-05-06T09:15:00Z", "2023-05-06T09:15:00Z", "2023-05-06T09:08:00Z", "2023-05-06T08:54:00Z", "2023-05-06T09:15:00Z", "2023-05-06T09:15:00Z", "2023-05-06T08:53:00Z", "2023-05-06T08:54:00Z", "2023-05-06T08:55:00Z", "2023-05-06T08:54:00Z", "2023-05-06T08:56:00Z", "2023-05-06T09:15:00Z", "2023-05-06T08:52:00Z", "2023-05-06T09:05:00Z", "2023-05-06T08:53:00Z", "2023-05-06T09:15:00Z", "2023-05-06T09:07:00Z", "2023-05-06T09:15:00Z", "2023-05-06T08:56:00Z", "2023-05-06T09:10:00Z", "2023-05-06T08:56:00Z", "2023-05-06T09:15:00Z", "2023-05-06T08:54:00Z", "2023-05-06T08:56:00Z", "2023-05-06T08:53:00Z", "2023-05-06T09:15:00Z", "2023-05-06T08:56:00Z", "2023-05-06T08:53:00Z", "2023-05-06T09:05:00Z", "2023-05-06T08:53:00Z", "2023-05-06T09:15:00Z", "2023-05-06T09:15:00Z", "2023-05-06T08:54:00Z", "2023-05-06T08:56:00Z", "2023-05-06T09:01:00Z", "2023-05-06T09:15:00Z", "2023-05-06T09:15:00Z", "2023-05-06T09:10:00Z", "2023-05-06T08:56:00Z", "2023-05-06T08:53:00Z", "2023-05-06T09:15:00Z", "2023-05-06T08:51:00Z", "2023-05-06T09:15:00Z", "2023-05-06T08:48:00Z", "2023-05-06T08:53:00Z", "2023-05-06T08:53:00Z", "2023-05-06T09:15:00Z", "2023-05-06T08:51:00Z", "2023-05-06T09:15:00Z", "2023-05-06T09:15:00Z", "2023-05-06T08:56:00Z", "2023-05-06T09:15:00Z", "2023-05-06T09:15:00Z", "2023-05-06T08:53:00Z", "2023-05-06T08:53:00Z", "2023-05-06T09:15:00Z", "2023-05-06T09:26:00Z", "2023-05-06T09:05:00Z", "2023-05-06T09:15:00Z", "2023-05-06T09:15:00Z", "2023-05-06T09:20:00Z", "2023-05-06T08:56:00Z", "2023-05-06T09:15:00Z", "2023-05-06T09:15:00Z", "2023-05-06T08:54:00Z", "2023-05-06T09:15:00Z", "2023-05-06T09:15:00Z", "2023-05-06T09:15:00Z", "2023-05-06T09:15:00Z", "2023-05-06T09:15:00Z", "2023-05-06T09:15:00Z", "2023-05-06T09:15:00Z", "2023-05-06T09:15:00Z", "2023-05-06T08:56:00Z", "2023-05-06T09:16:00Z", "2023-05-06T09:15:00Z", "2023-05-06T09:15:00Z", "2023-05-06T09:15:00Z", "2023-05-06T09:15:00Z", "2023-05-06T09:15:00Z", "2023-05-06T09:15:00Z", "2023-05-06T09:15:00Z", "2023-05-06T09:10:00Z", "2023-05-06T09:15:00Z", "2023-05-06T09:15:00Z", "2023-05-06T09:10:00Z", "2023-05-06T09:15:00Z", "2023-05-06T09:15:00Z", "2023-05-06T09:15:00Z", "2023-05-06T09:15:00Z", "2023-05-06T08:53:00Z", "2023-05-06T08:54:00Z", "2023-05-06T09:15:00Z", "2023-05-06T09:15:00Z", "2023-05-06T08:53:00Z", "2023-05-06T08:53:00Z", "2023-05-06T08:56:00Z", "2023-05-06T08:53:00Z", "2023-05-06T08:53:00Z", "2023-05-06T08:53:00Z", "2023-05-06T09:15:00Z", "2023-05-06T08:53:00Z", "2023-05-06T08:56:00Z", "2023-05-06T09:15:00Z", "2023-05-06T09:17:00Z", "2023-05-06T08:53:00Z", "2023-05-06T09:15:00Z", "2023-05-06T09:26:00Z", "2023-05-06T08:56:00Z", "2023-05-06T08:55:00Z", "2023-05-06T09:15:00Z", "2023-05-06T09:15:00Z", "2023-05-06T08:53:00Z", "2023-05-06T08:53:00Z", "2023-05-06T08:56:00Z", "2023-05-06T08:54:00Z", "2023-05-06T08:55:00Z", "2023-05-06T08:53:00Z", "2023-05-06T09:08:00Z", "2023-05-06T08:51:00Z", "2023-05-06T08:53:00Z", "2023-05-06T09:15:00Z", "2023-05-06T08:56:00Z", "2023-05-06T08:55:00Z", "2023-05-06T08:51:00Z", "2023-05-06T09:15:00Z", "2023-05-06T09:15:00Z", "2023-05-06T08:53:00Z", "2023-05-06T08:55:00Z", "2023-05-06T08:53:00Z", "2023-05-06T09:05:00Z", "2023-05-06T08:55:00Z", "2023-05-06T09:26:00Z", "2023-05-06T09:15:00Z", "2023-05-06T09:15:00Z", "2023-05-06T09:15:00Z", "2023-05-06T09:13:00Z", "2023-05-06T08:55:00Z", "2023-05-06T09:15:00Z", "2023-05-06T08:53:00Z", "2023-05-06T09:15:00Z", "2023-05-06T09:15:00Z", "2023-05-06T09:10:00Z", "2023-05-06T09:15:00Z", "2023-05-06T09:15:00Z", "2023-05-06T08:53:00Z", "2023-05-06T09:17:00Z", "2023-05-06T09:15:00Z", "2023-05-06T09:15:00Z", "2023-05-06T09:15:00Z", "2023-05-06T09:15:00Z", "2023-05-06T08:56:00Z", "2023-05-06T08:53:00Z", "2023-05-06T08:53:00Z", "2023-05-06T09:15:00Z", "2023-05-06T08:55:00Z", "2023-05-06T09:15:00Z", "2023-05-06T08:53:00Z", "2023-05-06T08:53:00Z", "2023-05-06T08:53:00Z", "2023-05-06T09:15:00Z", "2023-05-06T08:56:00Z", "2023-05-06T08:55:00Z", "2023-05-06T09:15:00Z", "2023-05-06T09:15:00Z", "2023-05-06T09:15:00Z", "2023-05-06T09:15:00Z", "2023-05-06T08:53:00Z", "2023-05-06T08:55:00Z", "2023-05-06T08:55:00Z", "2023-05-06T08:55:00Z", "2023-05-06T09:15:00Z", "2023-05-06T09:20:00Z", "2023-05-06T08:55:00Z", "2023-05-06T09:15:00Z", "2023-05-06T08:53:00Z", "2023-05-06T09:15:00Z", "2023-05-06T09:15:00Z", "2023-05-06T09:15:00Z", "2023-05-06T09:15:00Z", "2023-05-06T08:53:00Z", "2023-05-06T08:53:00Z", "2023-05-06T08:53:00Z", "2023-05-06T09:15:00Z", "2023-05-06T08:53:00Z", "2023-05-06T09:15:00Z", "2023-05-06T09:15:00Z", "2023-05-06T09:27:00Z", "2023-05-06T08:53:00Z", "2023-05-06T08:54:00Z", "2023-05-06T08:56:00Z", "2023-05-06T08:54:00Z", "2023-05-06T08:53:00Z", "2023-05-06T09:15:00Z", "2023-05-06T09:15:00Z", "2023-05-06T08:53:00Z", "2023-05-06T09:15:00Z", "2023-05-06T08:54:00Z", "2023-05-06T09:15:00Z", "2023-05-06T09:15:00Z", "2023-05-06T08:56:00Z", "2023-05-06T09:15:00Z", "2023-05-06T09:15:00Z", "2023-05-06T09:15:00Z", "2023-05-06T08:30:00Z", "2023-05-06T09:15:00Z", "2023-05-06T08:56:00Z", "2023-05-06T09:15:00Z", "2023-05-06T09:15:00Z", "2023-05-06T09:15:00Z", "2023-05-06T09:15:00Z", "2023-05-06T09:10:00Z", "2023-05-06T09:15:00Z", "2023-05-06T09:10:00Z", "2023-05-06T08:53:00Z", "2023-05-06T08:53:00Z", "2023-05-06T09:15:00Z", "2023-05-06T09:15:00Z", "2023-05-06T09:15:00Z", "2023-05-06T08:52:00Z", "2023-05-06T08:56:00Z", "2023-05-06T09:15:00Z", "2023-05-06T08:53:00Z", "2023-05-06T09:15:00Z", "2023-05-06T09:15:00Z", "2023-05-06T09:24:00Z", "2023-05-06T09:15:00Z", "2023-05-06T09:15:00Z", "2023-05-06T08:53:00Z", "2023-05-06T08:55:00Z", "2023-05-06T08:53:00Z", "2023-05-06T09:15:00Z", "2023-05-06T09:06:00Z", "2023-05-06T08:53:00Z", "2023-05-06T08:53:00Z", "2023-05-06T08:53:00Z", "2023-05-06T09:05:00Z", "2023-05-06T09:15:00Z", "2023-05-06T08:52:00Z", "2023-05-06T09:15:00Z", "2023-05-06T09:15:00Z", "2023-05-06T08:56:00Z", "2023-05-06T08:53:00Z", "2023-05-06T09:15:00Z", "2023-05-06T08:52:00Z", "2023-05-06T08:58:00Z", "2023-05-06T08:54:00Z", "2023-05-06T09:15:00Z", "2023-05-06T09:15:00Z", "2023-05-06T08:52:00Z", "2023-05-06T08:53:00Z", "2023-05-06T08:54:00Z", "2023-05-06T08:53:00Z", "2023-05-06T09:15:00Z", "2023-05-06T09:15:00Z", "2023-05-06T08:55:00Z", "2023-05-06T09:15:00Z", "2023-05-06T08:54:00Z", "2023-05-06T08:53:00Z", "2023-05-06T09:15:00Z", "2023-05-06T09:15:00Z", "2023-05-06T08:53:00Z", "2023-05-06T08:53:00Z", "2023-05-06T08:53:00Z", "2023-05-06T08:52:00Z", "2023-05-06T09:15:00Z", "2023-05-06T09:15:00Z", "2023-05-06T09:15:00Z", "2023-05-06T08:56:00Z", "2023-05-06T08:53:00Z", "2023-05-06T09:00:00Z", "2023-05-06T08:53:00Z", "2023-05-06T08:55:00Z", "2023-05-06T08:53:00Z", "2023-05-06T08:53:00Z", "2023-05-06T09:15:00Z", "2023-05-06T09:15:00Z", "2023-05-06T08:53:00Z", "2023-05-06T09:15:00Z", "2023-05-06T08:54:00Z", "2023-05-06T08:52:00Z", "2023-05-06T08:55:00Z", "2023-05-06T09:15:00Z", "2023-05-06T09:26:00Z", "2023-05-06T09:15:00Z", "2023-05-06T08:53:00Z", "2023-05-06T09:15:00Z", "2023-05-06T08:56:00Z", "2023-05-06T08:53:00Z", "2023-05-06T08:53:00Z", "2023-05-06T09:15:00Z", "2023-05-06T08:52:00Z", "2023-05-06T08:52:00Z", "2023-05-06T09:15:00Z", "2023-05-06T08:53:00Z", "2023-05-06T08:53:00Z", "2023-05-06T08:53:00Z", "2023-05-06T09:26:00Z", "2023-05-06T09:15:00Z", "2023-05-06T09:15:00Z", "2023-05-06T09:28:00Z", "2023-05-06T08:56:00Z", "2023-05-06T08:55:00Z", "2023-05-06T09:15:00Z", "2023-05-06T08:53:00Z", "2023-05-06T09:21:00Z", "2023-05-06T09:15:00Z", "2023-05-06T09:15:00Z", "2023-05-06T08:57:00Z", "2023-05-06T08:53:00Z", "2023-05-06T09:15:00Z", "2023-05-06T09:03:00Z", "2023-05-06T08:53:00Z", "2023-05-06T09:15:00Z", "2023-05-06T08:54:00Z", "2023-05-06T09:15:00Z", "2023-05-06T08:53:00Z", "2023-05-06T09:15:00Z", "2023-05-06T08:51:00Z", "2023-05-06T09:15:00Z", "2023-05-06T09:15:00Z", "2023-05-06T09:10:00Z", "2023-05-06T09:15:00Z", "2023-05-06T09:15:00Z", "2023-05-06T09:15:00Z", "2023-05-06T08:56:00Z", "2023-05-06T08:53:00Z", "2023-05-06T09:10:00Z", "2023-05-06T08:56:00Z", "2023-05-06T08:58:00Z", "2023-05-06T09:15:00Z", "2023-05-06T09:05:00Z", "2023-05-06T09:19:00Z", "2023-05-06T08:54:00Z", "2023-05-06T08:53:00Z", "2023-05-06T08:53:00Z", "2023-05-06T08:53:00Z", "2023-05-06T08:53:00Z", "2023-05-06T08:53:00Z", "2023-05-06T08:56:00Z", "2023-05-06T08:53:00Z", "2023-05-06T08:55:00Z", "2023-05-06T08:53:00Z", "2023-05-06T08:53:00Z", "2023-05-06T09:15:00Z", "2023-05-06T09:09:00Z", "2023-05-06T08:53:00Z", "2023-05-06T08:54:00Z", "2023-05-06T09:15:00Z", "2023-05-06T08:56:00Z", "2023-05-06T08:55:00Z", "2023-05-06T09:17:00Z", "2023-05-06T09:15:00Z", "2023-05-06T09:15:00Z", "2023-05-06T08:54:00Z", "2023-05-06T08:56:00Z", "2023-05-06T08:53:00Z", "2023-05-06T09:15:00Z", "2023-05-06T08:52:00Z", "2023-05-06T09:05:00Z", "2023-05-06T08:53:00Z", "2023-05-06T09:15:00Z", "2023-05-06T08:53:00Z", "2023-05-06T09:15:00Z", "2023-05-06T09:20:00Z", "2023-05-06T08:55:00Z", "2023-05-06T08:53:00Z", "2023-05-06T09:15:00Z", "2023-05-06T09:12:00Z", "2023-05-06T08:56:00Z", "2023-05-06T08:53:00Z", "2023-05-06T09:15:00Z", "2023-05-06T09:15:00Z", "2023-05-06T09:15:00Z", "2023-05-06T09:15:00Z", "2023-05-06T09:15:00Z", "2023-05-06T08:52:00Z", "2023-05-06T09:15:00Z", "2023-05-06T08:54:00Z", "2023-05-06T08:56:00Z", "2023-05-06T09:24:00Z", "2023-05-06T08:51:00Z", "2023-05-06T08:56:00Z", "2023-05-06T08:56:00Z", "2023-05-06T08:53:00Z", "2023-05-06T08:56:00Z", "2023-05-06T08:52:00Z", "2023-05-06T08:56:00Z", "2023-05-06T08:52:00Z", "2023-05-06T09:17:00Z", "2023-05-06T08:59:00Z", "2023-05-06T08:52:00Z", "2023-05-06T08:56:00Z", "2023-05-06T08:53:00Z", "2023-05-06T08:56:00Z", "2023-05-06T08:57:00Z", "2023-05-06T08:57:00Z", "2023-05-06T08:56:00Z", "2023-05-06T08:55:00Z", "2023-05-06T09:25:00Z", "2023-05-06T08:56:00Z", "2023-05-06T09:10:00Z", "2023-05-06T09:12:00Z", "2023-05-06T08:56:00Z", "2023-05-06T08:53:00Z", "2023-05-06T09:12:00Z", "2023-05-06T09:15:00Z", "2023-05-06T08:53:00Z", "2023-05-06T08:56:00Z", "2023-05-06T08:53:00Z", "2023-05-06T08:55:00Z", "2023-05-06T08:56:00Z", "2023-05-06T08:56:00Z", "2023-05-06T08:53:00Z", "2023-05-06T09:15:00Z", "2023-05-06T08:53:00Z", "2023-05-06T08:56:00Z", "2023-05-06T08:56:00Z", "2023-05-06T08:51:00Z", "2023-05-06T08:56:00Z", "2023-05-06T08:57:00Z", "2023-05-06T08:52:00Z", "2023-05-06T09:10:00Z", "2023-05-06T09:15:00Z", "2023-05-06T09:15:00Z", "2023-05-06T09:15:00Z", "2023-05-06T09:15:00Z", "2023-05-06T08:56:00Z", "2023-05-06T08:53:00Z", "2023-05-06T09:15:00Z", "2023-05-06T09:15:00Z", "2023-05-06T08:51:00Z", "2023-05-06T08:56:00Z", "2023-05-06T09:15:00Z", "2023-05-06T09:05:00Z", "2023-05-06T08:53:00Z", "2023-05-06T08:53:00Z", "2023-05-06T09:15:00Z", "2023-05-06T09:15:00Z", "2023-05-06T09:15:00Z", "2023-05-06T08:55:00Z", "2023-05-06T08:54:00Z", "2023-05-06T09:15:00Z", "2023-05-06T08:53:00Z", "2023-05-06T08:53:00Z", "2023-05-06T09:15:00Z", "2023-05-06T09:15:00Z", "2023-05-06T09:15:00Z", "2023-05-06T08:53:00Z", "2023-05-06T08:52:00Z", "2023-05-06T08:52:00Z", "2023-05-06T08:56:00Z", "2023-05-06T09:15:00Z", "2023-05-06T09:15:00Z", "2023-05-06T09:15:00Z", "2023-05-06T08:35:00Z", "2023-05-06T08:53:00Z", "2023-05-06T09:15:00Z", "2023-05-06T09:26:00Z", "2023-05-06T08:54:00Z", "2023-05-06T09:05:00Z", "2023-05-06T09:15:00Z", "2023-05-06T09:10:00Z", "2023-05-06T09:15:00Z", "2023-05-06T08:52:00Z", "2023-05-06T09:15:00Z", "2023-05-06T08:53:00Z", "2023-05-06T09:15:00Z", "2023-05-06T09:15:00Z", "2023-05-06T08:53:00Z", "2023-05-06T09:15:00Z", "2023-05-06T08:53:00Z", "2023-05-06T09:05:00Z", "2023-05-06T09:15:00Z", "2023-05-06T09:15:00Z", "2023-05-06T08:53:00Z", "2023-05-06T09:15:00Z", "2023-05-06T09:15:00Z", "2023-05-06T09:15:00Z", "2023-05-06T08:53:00Z", "2023-05-06T09:13:00Z", "2023-05-06T08:51:00Z", "2023-05-06T08:52:00Z", "2023-05-06T08:51:00Z", "2023-05-06T09:15:00Z", "2023-05-06T08:54:00Z", "2023-05-06T09:15:00Z", "2023-05-06T08:53:00Z", "2023-05-06T09:15:00Z", "2023-05-06T09:15:00Z", "2023-05-06T09:15:00Z", "2023-05-06T08:53:00Z", "2023-05-06T08:53:00Z", "2023-05-06T08:56:00Z", "2023-05-06T09:25:00Z", "2023-05-06T08:53:00Z", "2023-05-06T09:15:00Z", "2023-05-06T09:15:00Z", "2023-05-06T08:53:00Z", "2023-05-06T09:13:00Z", "2023-05-06T08:56:00Z", "2023-05-06T09:20:00Z", "2023-05-06T09:15:00Z", "2023-05-06T09:20:00Z", "2023-05-06T09:15:00Z", "2023-05-06T08:51:00Z", "2023-05-06T09:15:00Z", "2023-05-06T09:15:00Z", "2023-05-06T08:51:00Z", "2023-05-06T09:15:00Z", "2023-05-06T09:15:00Z", "2023-05-06T09:15:00Z", "2023-05-06T08:55:00Z", "2023-05-06T09:15:00Z", "2023-05-06T09:15:00Z", "2023-05-06T09:15:00Z", "2023-05-06T08:56:00Z", "2023-05-06T09:15:00Z", "2023-05-06T08:56:00Z", "2023-05-06T08:55:00Z", "2023-05-06T08:51:00Z", "2023-05-06T08:56:00Z", "2023-05-06T08:53:00Z", "2023-05-06T08:52:00Z", "2023-05-06T08:59:00Z", "2023-05-06T09:18:00Z", "2023-05-06T08:53:00Z", "2023-05-06T08:55:00Z", "2023-05-06T09:15:00Z", "2023-05-06T08:53:00Z", "2023-05-06T08:53:00Z", "2023-05-06T09:15:00Z", "2023-05-06T08:53:00Z", "2023-05-06T09:15:00Z", "2023-05-06T09:15:00Z", "2023-05-06T09:15:00Z", "2023-05-06T09:15:00Z", "2023-05-06T08:53:00Z", "2023-05-06T09:23:00Z", "2023-05-06T08:53:00Z", "2023-05-06T09:15:00Z", "2023-05-06T08:53:00Z", "2023-05-06T09:15:00Z", "2023-05-06T09:15:00Z", "2023-05-06T09:15:00Z", "2023-05-06T08:53:00Z", "2023-05-06T08:53:00Z", "2023-05-06T09:05:00Z", "2023-05-06T08:53:00Z", "2023-05-06T08:54:00Z", "2023-05-06T08:54:00Z", "2023-05-06T09:15:00Z", "2023-05-06T08:55:00Z", "2023-05-06T09:15:00Z", "2023-05-06T08:51:00Z", "2023-05-06T08:54:00Z", "2023-05-06T09:24:00Z", "2023-05-06T08:53:00Z", "2023-05-06T08:53:00Z", "2023-05-06T08:53:00Z", "2023-05-06T09:15:00Z", "2023-05-06T09:25:00Z", "2023-05-06T08:51:00Z", "2023-05-06T09:15:00Z", "2023-05-06T08:53:00Z", "2023-05-06T08:53:00Z", "2023-05-06T09:15:00Z", "2023-05-06T08:54:00Z", "2023-05-06T09:15:00Z", "2023-05-06T09:15:00Z", "2023-05-06T08:53:00Z", "2023-05-06T08:59:00Z", "2023-05-06T08:53:00Z", "2023-05-06T09:15:00Z", "2023-05-06T09:15:00Z", "2023-05-06T09:15:00Z", "2023-05-06T09:21:00Z", "2023-05-06T08:54:00Z", "2023-05-06T09:15:00Z", "2023-05-06T09:10:00Z", "2023-05-06T09:20:00Z", "2023-05-06T08:55:00Z", "2023-05-06T09:16:00Z", "2023-05-06T08:53:00Z", "2023-05-06T08:53:00Z", "2023-05-06T09:15:00Z", "2023-05-06T09:15:00Z", "2023-05-06T09:15:00Z", "2023-05-06T08:59:00Z", "2023-05-06T09:15:00Z", "2023-05-06T09:15:00Z", "2023-05-06T08:56:00Z", "2023-05-06T09:22:00Z", "2023-05-06T08:53:00Z", "2023-05-06T08:53:00Z", "2023-05-06T09:15:00Z", "2023-05-06T08:58:00Z", "2023-05-06T09:15:00Z", "2023-05-06T09:15:00Z", "2023-05-06T09:24:00Z", "2023-05-06T08:53:00Z", "2023-05-06T09:24:00Z", "2023-05-06T09:15:00Z", "2023-05-06T08:55:00Z", "2023-05-06T09:15:00Z", "2023-05-06T08:53:00Z", "2023-05-06T09:12:00Z", "2023-05-06T09:15:00Z", "2023-05-06T09:15:00Z", "2023-05-06T08:53:00Z", "2023-05-06T09:15:00Z", "2023-05-06T09:15:00Z", "2023-05-06T08:56:00Z", "2023-05-06T08:54:00Z", "2023-05-06T08:53:00Z", "2023-05-06T08:53:00Z", "2023-05-06T09:15:00Z", "2023-05-06T08:53:00Z", "2023-05-06T09:15:00Z", "2023-05-06T08:56:00Z", "2023-05-06T08:51:00Z", "2023-05-06T09:15:00Z", "2023-05-06T09:15:00Z", "2023-05-06T08:56:00Z", "2023-05-06T09:15:00Z", "2023-05-06T08:56:00Z", "2023-05-06T09:15:00Z", "2023-05-06T08:53:00Z", "2023-05-06T09:15:00Z", "2023-05-06T09:15:00Z", "2023-05-06T08:56:00Z", "2023-05-06T08:52:00Z", "2023-05-06T08:51:00Z", "2023-05-06T08:56:00Z", "2023-05-06T09:15:00Z", "2023-05-06T08:52:00Z", "2023-05-06T09:15:00Z", "2023-05-06T09:15:00Z", "2023-05-06T09:15:00Z", "2023-05-06T08:55:00Z", "2023-05-06T08:55:00Z", "2023-05-06T09:05:00Z", "2023-05-06T09:20:00Z", "2023-05-06T09:20:00Z", "2023-05-06T09:20:00Z", "2023-05-06T09:30:00Z", "2023-05-06T09:30:00Z", "2023-05-06T09:30:00Z", "2023-05-06T09:20:00Z", "2023-05-06T09:20:00Z", "2023-05-06T09:20:00Z", "2023-05-06T09:30:00Z", "2023-05-06T09:20:00Z", "2023-05-06T09:20:00Z", "2023-05-06T09:20:00Z", "2023-05-06T09:20:00Z", "2023-05-06T09:30:00Z", "2023-05-06T09:30:00Z", "2023-05-06T09:20:00Z", "2023-05-06T09:30:00Z", "2023-05-06T08:55:00Z", "2023-05-06T08:50:00Z", "2023-05-06T08:55:00Z", "2023-05-06T08:55:00Z", "2023-05-06T08:55:00Z", "2023-05-06T08:53:00Z", "2023-05-06T08:53:00Z", "2023-05-06T08:52:00Z", "2023-05-06T09:15:00Z", "2023-05-06T09:15:00Z", "2023-05-06T08:53:00Z", "2023-05-06T08:53:00Z", "2023-05-06T09:27:00Z", "2023-05-06T09:15:00Z", "2023-05-06T09:15:00Z", "2023-05-06T08:55:00Z", "2023-05-06T09:15:00Z", "2023-05-06T09:15:00Z", "2023-05-06T09:15:00Z", "2023-05-06T09:15:00Z", "2023-05-06T09:15:00Z", "2023-05-06T09:05:00Z", "2023-05-06T09:20:00Z", "2023-05-06T08:54:00Z", "2023-05-06T09:15:00Z", "2023-05-06T08:56:00Z", "2023-05-06T08:55:00Z", "2023-05-06T08:51:00Z", "2023-05-06T09:15:00Z", "2023-05-06T08:52:00Z", "2023-05-06T08:54:00Z", "2023-05-06T09:15:00Z", "2023-05-06T09:15:00Z", "2023-05-06T09:15:00Z", "2023-05-06T08:53:00Z", "2023-05-06T09:10:00Z", "2023-05-06T08:54:00Z", "2023-05-06T08:53:00Z", "2023-05-06T08:55:00Z", "2023-05-06T08:53:00Z", "2023-05-06T08:56:00Z", "2023-05-06T09:23:00Z", "2023-05-06T09:15:00Z", "2023-05-06T09:12:00Z", "2023-05-06T09:15:00Z", "2023-05-06T09:15:00Z", "2023-05-06T09:25:00Z", "2023-05-06T08:53:00Z", "2023-05-06T09:15:00Z", "2023-05-06T09:15:00Z", "2023-05-06T09:15:00Z", "2023-05-06T09:15:00Z", "2023-05-06T09:15:00Z", "2023-05-06T09:22:00Z", "2023-05-06T08:55:00Z", "2023-05-06T09:15:00Z", "2023-05-06T08:53:00Z", "2023-05-06T08:54:00Z", "2023-05-06T08:54:00Z", "2023-05-06T09:12:00Z", "2023-05-06T09:15:00Z", "2023-05-06T08:51:00Z", "2023-05-06T09:15:00Z", "2023-05-06T09:15:00Z", "2023-05-06T09:15:00Z", "2023-05-06T09:02:00Z", "2023-05-06T09:15:00Z", "2023-05-06T08:53:00Z", "2023-05-06T09:15:00Z", "2023-05-06T09:15:00Z", "2023-05-06T08:53:00Z", "2023-05-06T09:15:00Z", "2023-05-06T08:54:00Z", "2023-05-06T08:54:00Z", "2023-05-06T08:53:00Z", "2023-05-06T08:53:00Z", "2023-05-06T09:15:00Z", "2023-05-06T08:53:00Z", "2023-05-06T09:15:00Z", "2023-05-06T09:05:00Z", "2023-05-06T08:56:00Z", "2023-05-06T09:15:00Z", "2023-05-06T09:15:00Z", "2023-05-06T09:15:00Z", "2023-05-06T09:21:00Z", "2023-05-06T08:53:00Z", "2023-05-06T08:53:00Z", "2023-05-06T08:53:00Z", "2023-05-06T09:15:00Z", "2023-05-06T08:53:00Z", "2023-05-06T08:55:00Z", "2023-05-06T09:15:00Z", "2023-05-06T09:15:00Z", "2023-05-06T08:50:00Z", "2023-05-06T09:15:00Z", "2023-05-06T09:15:00Z", "2023-05-06T09:15:00Z", "2023-05-06T09:15:00Z", "2023-05-06T09:15:00Z", "2023-05-06T09:15:00Z", "2023-05-06T09:15:00Z", "2023-05-06T09:15:00Z", "2023-05-06T09:15:00Z", "2023-05-06T09:15:00Z", "2023-05-06T09:15:00Z", "2023-05-06T09:15:00Z", "2023-05-06T09:30:00Z", "2023-05-06T09:25:00Z", "2023-05-06T09:15:00Z", "2023-05-06T08:53:00Z", "2023-05-06T08:51:00Z", "2023-05-06T08:53:00Z", "2023-05-06T08:51:00Z", "2023-05-06T09:15:00Z", "2023-05-06T08:51:00Z", "2023-05-06T08:53:00Z", "2023-05-06T09:18:00Z", "2023-05-06T09:15:00Z", "2023-05-06T08:53:00Z", "2023-05-06T09:20:00Z", "2023-05-06T08:53:00Z", "2023-05-06T08:54:00Z", "2023-05-06T09:15:00Z", "2023-05-06T08:56:00Z", "2023-05-06T09:15:00Z", "2023-05-06T08:54:00Z", "2023-05-06T09:15:00Z", "2023-05-06T08:55:00Z", "2023-05-06T09:05:00Z", "2023-05-06T09:15:00Z", "2023-05-06T09:15:00Z", "2023-05-06T09:17:00Z", "2023-05-06T09:15:00Z", "2023-05-06T08:56:00Z", "2023-05-06T08:53:00Z", "2023-05-06T08:53:00Z", "2023-05-06T08:56:00Z", "2023-05-06T08:53:00Z", "2023-05-06T09:15:00Z", "2023-05-06T09:15:00Z", "2023-05-06T08:53:00Z", "2023-05-06T09:15:00Z", "2023-05-06T09:20:00Z", "2023-05-06T09:21:00Z", "2023-05-06T09:15:00Z", "2023-05-06T08:53:00Z", "2023-05-06T08:53:00Z", "2023-05-06T08:56:00Z", "2023-05-06T08:56:00Z", "2023-05-06T09:15:00Z", "2023-05-06T08:56:00Z", "2023-05-06T09:20:00Z", "2023-05-06T08:56:00Z", "2023-05-06T08:56:00Z", "2023-05-06T08:53:00Z", "2023-05-06T09:15:00Z", "2023-05-06T08:56:00Z", "2023-05-06T08:56:00Z", "2023-05-06T09:15:00Z", "2023-05-06T09:15:00Z", "2023-05-06T08:55:00Z", "2023-05-06T08:53:00Z", "2023-05-06T08:53:00Z", "2023-05-06T08:56:00Z", "2023-05-06T09:05:00Z", "2023-05-06T09:15:00Z", "2023-05-06T09:02:00Z", "2023-05-06T08:53:00Z", "2023-05-06T09:15:00Z", "2023-05-06T08:51:00Z", "2023-05-06T09:15:00Z", "2023-05-06T08:55:00Z", "2023-05-06T09:15:00Z", "2023-05-06T08:56:00Z", "2023-05-06T09:15:00Z", "2023-05-06T08:54:00Z", "2023-05-06T08:56:00Z", "2023-05-06T08:56:00Z", "2023-05-06T09:15:00Z", "2023-05-06T08:55:00Z", "2023-05-06T08:56:00Z", "2023-05-06T08:53:00Z", "2023-05-06T09:15:00Z", "2023-05-06T09:15:00Z", "2023-05-06T09:15:00Z", "2023-05-06T09:15:00Z", "2023-05-06T08:53:00Z", "2023-05-06T08:56:00Z", "2023-05-06T08:51:00Z", "2023-05-06T08:56:00Z", "2023-05-06T09:06:00Z", "2023-05-06T09:15:00Z", "2023-05-06T08:51:00Z", "2023-05-06T08:53:00Z", "2023-05-06T09:15:00Z", "2023-05-06T09:10:00Z", "2023-05-06T09:15:00Z", "2023-05-06T08:53:00Z", "2023-05-06T08:51:00Z", "2023-05-06T09:22:00Z", "2023-05-06T09:15:00Z", "2023-05-06T08:56:00Z", "2023-05-06T09:15:00Z", "2023-05-06T09:15:00Z", "2023-05-06T09:05:00Z", "2023-05-06T08:56:00Z", "2023-05-06T09:15:00Z", "2023-05-06T08:53:00Z", "2023-05-06T09:09:00Z", "2023-05-06T09:15:00Z", "2023-05-06T08:52:00Z", "2023-05-06T08:53:00Z", "2023-05-06T08:56:00Z", "2023-05-06T09:15:00Z", "2023-05-06T09:15:00Z", "2023-05-06T08:56:00Z", "2023-05-06T09:15:00Z", "2023-05-06T08:53:00Z", "2023-05-06T09:15:00Z", "2023-05-06T08:55:00Z", "2023-05-06T09:27:00Z", "2023-05-06T08:53:00Z", "2023-05-06T08:53:00Z", "2023-05-06T09:15:00Z", "2023-05-06T09:15:00Z", "2023-05-06T08:53:00Z", "2023-05-06T09:15:00Z", "2023-05-06T08:51:00Z", "2023-05-06T08:53:00Z", "2023-05-06T09:19:00Z", "2023-05-06T09:15:00Z", "2023-05-06T08:56:00Z", "2023-05-06T09:15:00Z", "2023-05-06T09:12:00Z", "2023-05-06T09:10:00Z", "2023-05-06T08:55:00Z", "2023-05-06T09:15:00Z", "2023-05-06T09:16:00Z", "2023-05-06T09:15:00Z", "2023-05-06T09:15:00Z", "2023-05-06T09:15:00Z", "2023-05-06T09:05:00Z", "2023-05-06T08:55:00Z", "2023-05-06T08:45:00Z", "2023-05-06T09:15:00Z", "2023-05-06T09:15:00Z", "2023-05-06T09:15:00Z", "2023-05-06T08:55:00Z", "2023-05-06T08:56:00Z", "2023-05-06T09:15:00Z", "2023-05-06T09:15:00Z", "2023-05-06T09:15:00Z", "2023-05-06T09:15:00Z", "2023-05-06T09:15:00Z", "2023-05-06T08:54:00Z", "2023-05-06T09:10:00Z", "2023-05-06T09:15:00Z", "2023-05-06T09:15:00Z", "2023-05-06T09:15:00Z", "2023-05-06T09:15:00Z", "2023-05-06T09:15:00Z", "2023-05-06T09:15:00Z", "2023-05-06T09:25:00Z", "2023-05-06T09:15:00Z", "2023-05-06T09:15:00Z", "2023-05-06T09:15:00Z", "2023-05-06T09:15:00Z", "2023-05-06T08:54:00Z", "2023-05-06T08:52:00Z", "2023-05-06T09:15:00Z", "2023-05-06T08:55:00Z", "2023-05-06T09:15:00Z", "2023-05-06T09:15:00Z", "2023-05-06T08:53:00Z", "2023-05-06T09:28:00Z", "2023-05-06T09:09:00Z", "2023-05-06T08:53:00Z", "2023-05-06T09:15:00Z", "2023-05-06T09:05:00Z", "2023-05-06T08:55:00Z", "2023-05-06T08:53:00Z", "2023-05-06T08:51:00Z", "2023-05-06T09:15:00Z", "2023-05-06T09:15:00Z", "2023-05-06T08:35:00Z", "2023-05-06T09:15:00Z", "2023-05-06T09:15:00Z", "2023-05-06T08:55:00Z", "2023-05-06T09:15:00Z", "2023-05-06T08:53:00Z", "2023-05-06T09:15:00Z", "2023-05-06T08:53:00Z", "2023-05-06T09:15:00Z", "2023-05-06T09:15:00Z", "2023-05-06T08:53:00Z", "2023-05-06T08:55:00Z", "2023-05-06T08:53:00Z", "2023-05-06T09:15:00Z", "2023-05-06T09:15:00Z", "2023-05-06T09:15:00Z", "2023-05-06T09:15:00Z", "2023-05-06T09:15:00Z", "2023-05-06T09:15:00Z", "2023-05-06T09:15:00Z", "2023-05-06T08:53:00Z", "2023-05-06T08:52:00Z", "2023-05-06T09:03:00Z", "2023-05-06T09:14:00Z", "2023-05-06T08:53:00Z", "2023-05-06T08:56:00Z", "2023-05-06T08:51:00Z", "2023-05-06T09:06:00Z", "2023-05-06T09:15:00Z", "2023-05-06T09:15:00Z", "2023-05-06T09:15:00Z", "2023-05-06T08:53:00Z", "2023-05-06T09:21:00Z", "2023-05-06T08:53:00Z", "2023-05-06T08:52:00Z", "2023-05-06T09:15:00Z", "2023-05-06T09:05:00Z", "2023-05-06T08:53:00Z", "2023-05-06T09:15:00Z", "2023-05-06T08:53:00Z", "2023-05-06T09:05:00Z", "2023-05-06T08:53:00Z", "2023-05-06T09:28:00Z", "2023-05-06T08:53:00Z", "2023-05-06T08:53:00Z", "2023-05-06T08:56:00Z", "2023-05-06T09:20:00Z", "2023-05-06T09:15:00Z", "2023-05-06T08:53:00Z", "2023-05-06T08:53:00Z", "2023-05-06T09:15:00Z", "2023-05-06T08:53:00Z", "2023-05-06T09:15:00Z", "2023-05-06T09:15:00Z", "2023-05-06T08:53:00Z", "2023-05-06T09:15:00Z", "2023-05-06T09:15:00Z", "2023-05-06T09:15:00Z", "2023-05-06T08:53:00Z", "2023-05-06T08:53:00Z", "2023-05-06T09:15:00Z", "2023-05-06T09:15:00Z", "2023-05-06T09:15:00Z", "2023-05-06T09:15:00Z", "2023-05-06T09:15:00Z", "2023-05-06T09:15:00Z", "2023-05-06T08:53:00Z", "2023-05-06T09:15:00Z", "2023-05-06T08:56:00Z", "2023-05-06T09:15:00Z", "2023-05-06T08:56:00Z", "2023-05-06T09:15:00Z", "2023-05-06T08:51:00Z", "2023-05-06T09:22:00Z", "2023-05-06T08:54:00Z", "2023-05-06T09:05:00Z", "2023-05-06T08:56:00Z", "2023-05-06T09:15:00Z", "2023-05-06T09:15:00Z", "2023-05-06T09:15:00Z", "2023-05-06T09:10:00Z", "2023-05-06T09:15:00Z", "2023-05-06T09:15:00Z", "2023-05-06T08:53:00Z", "2023-05-06T09:15:00Z", "2023-05-06T09:15:00Z", "2023-05-06T09:15:00Z", "2023-05-06T09:15:00Z", "2023-05-06T09:15:00Z", "2023-05-06T08:53:00Z", "2023-05-06T08:53:00Z", "2023-05-06T09:15:00Z", "2023-05-06T09:15:00Z", "2023-05-06T09:15:00Z", "2023-05-06T09:15:00Z", "2023-05-06T08:54:00Z", "2023-05-06T08:55:00Z", "2023-05-06T09:15:00Z", "2023-05-06T08:54:00Z", "2023-05-06T08:55:00Z", "2023-05-06T08:56:00Z", "2023-05-06T09:15:00Z", "2023-05-06T09:01:00Z", "2023-05-06T08:51:00Z", "2023-05-06T09:15:00Z", "2023-05-06T09:15:00Z", "2023-05-06T09:15:00Z", "2023-05-06T08:53:00Z", "2023-05-06T09:15:00Z", "2023-05-06T09:10:00Z", "2023-05-06T09:15:00Z", "2023-05-06T08:53:00Z", "2023-05-06T09:15:00Z", "2023-05-06T08:53:00Z", "2023-05-06T08:56:00Z", "2023-05-06T09:15:00Z", "2023-05-06T09:15:00Z", "2023-05-06T09:15:00Z", "2023-05-06T08:53:00Z", "2023-05-06T09:15:00Z", "2023-05-06T09:15:00Z", "2023-05-06T09:15:00Z", "2023-05-06T09:15:00Z", "2023-05-06T08:55:00Z", "2023-05-06T09:15:00Z", "2023-05-06T08:55:00Z", "2023-05-06T08:56:00Z", "2023-05-06T09:15:00Z", "2023-05-06T08:53:00Z", "2023-05-06T08:54:00Z", "2023-05-06T08:54:00Z", "2023-05-06T09:15:00Z", "2023-05-06T08:52:00Z", "2023-05-06T09:15:00Z", "2023-05-06T09:05:00Z", "2023-05-06T09:10:00Z", "2023-05-06T09:15:00Z", "2023-05-06T09:15:00Z", "2023-05-06T09:15:00Z", "2023-05-06T09:15:00Z", "2023-05-06T09:15:00Z", "2023-05-06T09:05:00Z", "2023-05-06T09:15:00Z", "2023-05-06T09:05:00Z", "2023-05-06T09:15:00Z", "2023-05-06T09:15:00Z", "2023-05-06T09:15:00Z", "2023-05-06T09:15:00Z", "2023-05-06T09:15:00Z", "2023-05-06T09:22:00Z", "2023-05-06T09:15:00Z", "2023-05-06T09:15:00Z", "2023-05-06T09:15:00Z", "2023-05-06T08:56:00Z", "2023-05-06T09:10:00Z", "2023-05-06T08:56:00Z", "2023-05-06T08:55:00Z", "2023-05-06T08:55:00Z", "2023-05-06T08:53:00Z", "2023-05-06T08:53:00Z", "2023-05-06T09:18:00Z", "2023-05-06T08:56:00Z", "2023-05-06T08:56:00Z", "2023-05-06T09:15:00Z", "2023-05-06T09:15:00Z", "2023-05-06T09:15:00Z", "2023-05-06T09:10:00Z", "2023-05-06T09:15:00Z", "2023-05-06T09:10:00Z", "2023-05-06T09:15:00Z", "2023-05-06T08:55:00Z", "2023-05-06T08:53:00Z", "2023-05-06T09:15:00Z", "2023-05-06T09:15:00Z", "2023-05-06T09:13:00Z", "2023-05-06T08:51:00Z", "2023-05-06T09:15:00Z", "2023-05-06T09:15:00Z", "2023-05-06T09:15:00Z", "2023-05-06T09:15:00Z", "2023-05-06T08:56:00Z", "2023-05-06T09:15:00Z", "2023-05-06T09:15:00Z", "2023-05-06T08:53:00Z", "2023-05-06T08:53:00Z", "2023-05-06T08:56:00Z", "2023-05-06T08:51:00Z", "2023-05-06T09:15:00Z", "2023-05-06T09:15:00Z", "2023-05-06T08:53:00Z", "2023-05-06T09:20:00Z", "2023-05-06T09:30:00Z", "2023-05-06T09:30:00Z", "2023-05-06T09:00:00Z", "2023-05-06T09:30:00Z", "2023-05-06T09:00:00Z", "2023-05-06T09:00:00Z", "2023-05-06T09:30:00Z", "2023-05-06T09:30:00Z", "2023-05-06T09:20:00Z", "2023-05-06T09:00:00Z", "2023-05-06T09:00:00Z", "2023-05-06T09:20:00Z", "2023-05-06T09:00:00Z", "2023-05-06T09:00:00Z", "2023-05-06T09:00:00Z", "2023-05-06T09:00:00Z", "2023-05-06T09:00:00Z", "2023-05-06T09:00:00Z", "2023-05-06T09:00:00Z", "2023-05-06T09:00:00Z", "2023-05-06T09:00:00Z", "2023-05-06T09:00:00Z", "2023-05-06T09:00:00Z", "2023-05-06T09:00:00Z", "2023-05-06T09:00:00Z", "2023-05-06T09:00:00Z", "2023-05-06T09:00:00Z", "2023-05-06T09:00:00Z", "2023-05-06T09:00:00Z", "2023-05-06T09:00:00Z", "2023-05-06T09:00:00Z", "2023-05-06T09:00:00Z", "2023-05-06T09:00:00Z", "2023-05-06T09:00:00Z", "2023-05-06T09:00:00Z", "2023-05-06T09:00:00Z", "2023-05-06T09:00:00Z", "2023-05-06T09:00:00Z", "2023-05-06T09:00:00Z", "2023-05-06T09:00:00Z", "2023-05-06T09:00:00Z", "2023-05-06T09:00:00Z", "2023-05-06T09:00:00Z", "2023-05-06T09:30:00Z", "2023-05-06T09:00:00Z", "2023-05-06T09:00:00Z", "2023-05-06T09:00:00Z", "2023-05-06T09:00:00Z", "2023-05-06T09:00:00Z", "2023-05-06T09:00:00Z", "2023-05-06T09:00:00Z", "2023-05-06T09:00:00Z", "2023-05-06T09:30:00Z", "2023-05-06T09:00:00Z", "2023-05-06T09:00:00Z", "2023-05-06T09:00:00Z", "2023-05-06T09:00:00Z", "2023-05-06T09:00:00Z", "2023-05-06T09:00:00Z", "2023-05-06T09:00:00Z", "2023-05-06T09:00:00Z", "2023-05-06T09:00:00Z", "2023-05-06T09:00:00Z", "2023-05-06T09:00:00Z", "2023-05-06T09:00:00Z", "2023-05-06T09:00:00Z", "2023-05-06T09:00:00Z", "2023-05-06T09:00:00Z", "2023-05-06T09:00:00Z", "2023-05-06T09:00:00Z", "2023-05-06T09:00:00Z", "2023-05-06T09:00:00Z", "2023-05-06T09:00:00Z", "2023-05-06T09:00:00Z", "2023-05-06T09:00:00Z", "2023-05-06T09:00:00Z", "2023-05-06T09:00:00Z", "2023-05-06T09:00:00Z", "2023-05-06T09:00:00Z", "2023-05-06T09:00:00Z", "2023-05-06T09:00:00Z", "2023-05-06T09:00:00Z", "2023-05-06T09:00:00Z", "2023-05-06T09:00:00Z", "2023-05-06T09:00:00Z", "2023-05-06T09:00:00Z", "2023-05-06T09:00:00Z", "2023-05-06T09:00:00Z", "2023-05-06T09:00:00Z", "2023-05-06T09:00:00Z", "2023-05-06T09:00:00Z", "2023-05-06T09:00:00Z", "2023-05-06T09:00:00Z", "2023-05-06T09:00:00Z", "2023-05-06T09:00:00Z", "2023-05-06T09:00:00Z", "2023-05-06T09:00:00Z", "2023-05-06T09:00:00Z", "2023-05-06T09:00:00Z", "2023-05-06T09:00:00Z", "2023-05-06T09:00:00Z", "2023-05-06T09:00:00Z", "2023-05-06T09:00:00Z", "2023-05-06T09:00:00Z", "2023-05-06T09:00:00Z", "2023-05-06T09:00:00Z", "2023-05-06T09:00:00Z", "2023-05-06T09:00:00Z", "2023-05-06T09:00:00Z", "2023-05-06T09:00:00Z", "2023-05-06T09:00:00Z", "2023-05-06T09:00:00Z", "2023-05-06T09:00:00Z", "2023-05-06T09:00:00Z", "2023-05-06T09:00:00Z", "2023-05-06T09:00:00Z", "2023-05-06T09:00:00Z", "2023-05-06T09:00:00Z", "2023-05-06T09:00:00Z", "2023-05-06T09:00:00Z", "2023-05-06T09:00:00Z", "2023-05-06T09:00:00Z", "2023-05-06T09:00:00Z", "2023-05-06T09:00:00Z", "2023-05-06T09:00:00Z", "2023-05-06T09:00:00Z", "2023-05-06T09:00:00Z", "2023-05-06T09:00:00Z", "2023-05-06T09:00:00Z", "2023-05-06T09:00:00Z", "2023-05-06T09:00:00Z", "2023-05-06T09:00:00Z", "2023-05-06T09:00:00Z", "2023-05-06T09:00:00Z", "2023-05-06T09:00:00Z", "2023-05-06T09:00:00Z", "2023-05-06T09:00:00Z", "2023-05-06T09:00:00Z", "2023-05-06T09:00:00Z", "2023-05-06T09:00:00Z", "2023-05-06T09:00:00Z", "2023-05-06T09:00:00Z", "2023-05-06T09:00:00Z", "2023-05-06T09:00:00Z", "2023-05-06T09:00:00Z", "2023-05-06T09:00:00Z", "2023-05-06T09:00:00Z", "2023-05-06T09:00:00Z", "2023-05-06T09:00:00Z", "2023-05-06T09:00:00Z", "2023-05-06T09:00:00Z", "2023-05-06T09:00:00Z", "2023-05-06T09:00:00Z", "2023-05-06T09:00:00Z", "2023-05-06T09:00:00Z", "2023-05-06T09:00:00Z", "2023-05-06T09:00:00Z", "2023-05-06T09:00:00Z", "2023-05-06T09:00:00Z", "2023-05-06T09:00:00Z", "2023-05-06T09:00:00Z", "2023-05-06T09:00:00Z", "2023-05-06T09:00:00Z", "2023-05-06T09:00:00Z", "2023-05-06T09:00:00Z", "2023-05-06T09:00:00Z", "2023-05-06T09:00:00Z", "2023-05-06T09:00:00Z", "2023-05-06T09:00:00Z", "2023-05-06T09:00:00Z", "2023-05-06T09:00:00Z", "2023-05-06T09:00:00Z", "2023-05-06T09:00:00Z", "2023-05-06T09:00:00Z", "2023-05-06T09:00:00Z", "2023-05-06T09:00:00Z", "2023-05-06T09:00:00Z", "2023-05-06T09:00:00Z", "2023-05-06T09:00:00Z", "2023-05-06T09:00:00Z", "2023-05-06T09:00:00Z", "2023-05-06T09:00:00Z", "2023-05-06T09:00:00Z", "2023-05-06T09:00:00Z", "2023-05-06T09:20:00Z", "2023-05-06T09:20:00Z", "2023-05-06T09:20:00Z", "2023-05-06T09:20:00Z", "2023-05-06T09:20:00Z", "2023-05-06T08:50:00Z", "2023-05-06T09:20:00Z", "2023-05-06T09:20:00Z", "2023-05-06T08:50:00Z", "2023-05-06T09:20:00Z", "2023-05-06T09:20:00Z", "2023-05-06T09:20:00Z", "2023-05-06T09:20:00Z", "2023-05-06T09:20:00Z", "2023-05-06T08:50:00Z", "2023-05-06T09:20:00Z", "2023-05-06T09:20:00Z", "2023-05-06T08:50:00Z", "2023-05-06T08:50:00Z", "2023-05-06T08:50:00Z", "2023-05-06T09:20:00Z", "2023-05-06T09:20:00Z", "2023-05-06T09:20:00Z", "2023-05-06T09:20:00Z", "2023-05-06T08:20:00Z", "2023-05-06T08:50:00Z", "2023-05-06T08:50:00Z", "2023-05-06T09:20:00Z", "2023-05-06T09:20:00Z", "2023-05-06T08:50:00Z", "2023-05-06T09:00:00Z", "2023-05-06T08:45:00Z", "2023-05-06T09:15:00Z", "2023-05-06T08:45:00Z", "2023-05-06T08:45:00Z", "2023-05-06T08:45:00Z", "2023-05-06T08:45:00Z", "2023-05-06T09:15:00Z", "2023-05-06T08:55:00Z", "2023-05-06T08:50:00Z", "2023-05-06T09:20:00Z", "2023-05-06T08:50:00Z", "2023-05-06T08:50:00Z", "2023-05-06T08:55:00Z", "2023-05-06T09:20:00Z", "2023-05-06T08:55:00Z", "2023-05-06T09:20:00Z", "2023-05-06T08:55:00Z", "2023-05-06T08:55:00Z", "2023-05-06T09:20:00Z", "2023-05-06T08:50:00Z", "2023-05-06T09:20:00Z", "2023-05-06T09:20:00Z", "2023-05-06T08:55:00Z", "2023-05-06T08:50:00Z", "2023-05-06T09:20:00Z", "2023-05-06T09:20:00Z", "2023-05-06T08:55:00Z", "2023-05-06T08:55:00Z", "2023-05-06T09:20:00Z", "2023-05-06T08:55:00Z", "2023-05-06T08:55:00Z", "2023-05-06T09:20:00Z", "2023-05-06T09:20:00Z", "2023-05-06T08:50:00Z", "2023-05-06T09:20:00Z", "2023-05-06T09:20:00Z", "2023-05-06T09:20:00Z", "2023-05-06T08:50:00Z", "2023-05-06T08:55:00Z", "2023-05-06T09:20:00Z", "2023-05-06T08:55:00Z", "2023-05-06T09:20:00Z", "2023-05-06T08:50:00Z", "2023-05-06T08:55:00Z", "2023-05-06T08:55:00Z", "2023-05-06T08:55:00Z", "2023-05-06T09:20:00Z", "2023-05-06T09:20:00Z", "2023-05-06T08:55:00Z", "2023-05-06T08:50:00Z", "2023-05-06T08:55:00Z", "2023-05-06T09:20:00Z", "2023-05-06T08:55:00Z", "2023-05-06T09:20:00Z", "2023-05-06T08:55:00Z", "2023-05-06T08:50:00Z", "2023-05-06T08:55:00Z", "2023-05-06T09:20:00Z", "2023-05-06T09:20:00Z", "2023-05-06T09:20:00Z", "2023-05-06T08:55:00Z", "2023-05-06T08:50:00Z", "2023-05-06T09:20:00Z", "2023-05-06T09:20:00Z", "2023-05-06T09:20:00Z", "2023-05-06T08:55:00Z", "2023-05-06T08:50:00Z", "2023-05-06T09:20:00Z", "2023-05-06T08:55:00Z", "2023-05-06T09:20:00Z", "2023-05-06T08:50:00Z", "2023-05-06T08:55:00Z", "2023-05-06T08:55:00Z", "2023-05-06T09:20:00Z", "2023-05-06T09:15:00Z", "2023-05-06T09:20:00Z", "2023-05-06T08:55:00Z", "2023-05-06T08:55:00Z", "2023-05-06T08:50:00Z", "2023-05-06T08:55:00Z", "2023-05-06T08:55:00Z", "2023-05-06T09:20:00Z", "2023-05-06T08:55:00Z", "2023-05-06T08:55:00Z", "2023-05-06T08:55:00Z", "2023-05-06T08:55:00Z", "2023-05-06T08:55:00Z", "2023-05-06T08:55:00Z", "2023-05-06T08:55:00Z", "2023-05-06T08:55:00Z", "2023-05-06T09:00:00Z", "2023-05-06T09:00:00Z", "2023-05-06T09:00:00Z", "2023-05-06T09:00:00Z", "2023-05-06T09:00:00Z", "2023-05-06T09:00:00Z", "2023-05-06T09:00:00Z", "2023-05-06T09:00:00Z", "2023-05-06T09:00:00Z", "2023-05-06T09:00:00Z", "2023-05-06T09:00:00Z", "2023-05-06T09:00:00Z", "2023-05-06T09:00:00Z", "2023-05-06T09:20:00Z", "2023-05-06T08:50:00Z", "2023-05-06T08:50:00Z", "2023-05-06T08:50:00Z", "2023-05-06T09:15:00Z", "2023-05-06T09:00:00Z", "2023-05-06T09:00:00Z", "2023-05-06T09:20:00Z", "2023-05-06T09:20:00Z", "2023-05-06T09:20:00Z", "2023-05-06T09:20:00Z", "2023-05-06T09:20:00Z", "2023-05-06T09:20:00Z", "2023-05-06T09:20:00Z", "2023-05-06T09:00:00Z", "2023-05-06T09:00:00Z", "2023-05-06T09:00:00Z", "2023-05-06T09:00:00Z", "2023-05-06T09:00:00Z", "2023-05-06T09:00:00Z", "2023-05-06T09:00:00Z", "2023-05-06T09:00:00Z", "2023-05-06T09:00:00Z", "2023-05-06T09:00:00Z", "2023-05-06T09:00:00Z", "2023-05-06T09:00:00Z", "2023-05-06T09:00:00Z", "2023-05-06T09:00:00Z", "2023-05-06T09:00:00Z", "2023-05-06T09:00:00Z", "2023-05-06T09:00:00Z", "2023-05-06T09:00:00Z", "2023-05-06T09:00:00Z", "2023-05-06T09:00:00Z", "2023-05-06T09:00:00Z", "2023-05-06T09:00:00Z", "2023-05-06T09:00:00Z", "2023-05-06T09:00:00Z", "2023-05-06T09:00:00Z", "2023-05-06T09:00:00Z", "2023-05-06T09:00:00Z", "2023-05-06T09:00:00Z", "2023-05-06T09:00:00Z", "2023-05-06T09:00:00Z", "2023-05-06T09:00:00Z", "2023-05-06T09:00:00Z", "2023-05-06T09:00:00Z", "2023-05-06T09:00:00Z", "2023-05-06T09:00:00Z", "2023-05-06T09:20:00Z", "2023-05-06T09:20:00Z", "2023-05-06T09:20:00Z", "2023-05-06T09:20:00Z", "2023-05-06T09:20:00Z", "2023-05-06T09:20:00Z", "2023-05-06T09:20:00Z", "2023-05-06T09:20:00Z", "2023-05-06T09:20:00Z", "2023-05-06T09:20:00Z", "2023-05-06T09:20:00Z", "2023-05-06T09:20:00Z", "2023-05-06T09:20:00Z", "2023-05-06T09:20:00Z", "2023-05-06T09:20:00Z", "2023-05-06T09:20:00Z", "2023-05-06T08:50:00Z", "2023-05-06T09:20:00Z", "2023-05-06T08:50:00Z", "2023-05-06T09:20:00Z", "2023-05-06T09:20:00Z", "2023-05-06T08:50:00Z", "2023-05-06T08:50:00Z", "2023-05-06T09:20:00Z", "2023-05-06T08:50:00Z", "2023-05-06T08:50:00Z", "2023-05-06T09:20:00Z", "2023-05-06T09:20:00Z", "2023-05-06T08:50:00Z", "2023-05-06T08:50:00Z", "2023-05-06T09:20:00Z", "2023-05-06T09:20:00Z", "2023-05-06T08:50:00Z", "2023-05-06T08:50:00Z", "2023-05-06T08:50:00Z", "2023-05-06T09:20:00Z", "2023-05-06T08:50:00Z", "2023-05-06T08:50:00Z", "2023-05-06T09:20:00Z", "2023-05-06T09:20:00Z", "2023-05-06T09:20:00Z", "2023-05-06T08:50:00Z", "2023-05-06T08:50:00Z", "2023-05-06T08:50:00Z", "2023-05-06T09:20:00Z", "2023-05-06T08:50:00Z", "2023-05-06T09:20:00Z", "2023-05-06T08:50:00Z", "2023-05-06T09:20:00Z", "2023-05-06T08:50:00Z", "2023-05-06T09:20:00Z", "2023-05-06T08:50:00Z", "2023-05-06T08:50:00Z", "2023-05-06T08:50:00Z", "2023-05-06T08:50:00Z", "2023-05-06T08:50:00Z", "2023-05-06T08:50:00Z", "2023-05-06T08:50:00Z", "2023-05-06T09:20:00Z", "2023-05-06T08:50:00Z", "2023-05-06T08:50:00Z", "2023-05-06T08:50:00Z", "2023-05-06T08:50:00Z", "2023-05-06T08:50:00Z", "2023-05-06T08:50:00Z", "2023-05-06T09:20:00Z", "2023-05-06T08:50:00Z", "2023-05-06T09:20:00Z", "2023-05-06T08:50:00Z", "2023-05-06T08:50:00Z", "2023-05-06T09:20:00Z", "2023-05-06T09:20:00Z", "2023-05-06T08:50:00Z", "2023-05-06T09:30:00Z", "2023-05-06T09:30:00Z", "2023-05-06T09:30:00Z", "2023-05-06T09:20:00Z", "2023-05-06T09:00:00Z", "2023-05-06T09:00:00Z", "2023-05-06T09:00:00Z", "2023-05-06T09:00:00Z", "2023-05-06T09:00:00Z", "2023-05-06T09:00:00Z", "2023-05-06T09:00:00Z", "2023-05-06T09:00:00Z", "2023-05-06T09:00:00Z", "2023-05-06T09:00:00Z", "2023-05-06T09:00:00Z", "2023-05-06T09:00:00Z", "2023-05-06T09:00:00Z", "2023-05-06T09:00:00Z", "2023-05-06T09:00:00Z", "2023-05-06T09:00:00Z", "2023-05-06T09:00:00Z", "2023-05-06T09:00:00Z", "2023-05-06T09:00:00Z", "2023-05-06T09:00:00Z", "2023-05-06T09:00:00Z", "2023-05-06T09:00:00Z", "2023-05-06T09:00:00Z", "2023-05-06T09:00:00Z", "2023-05-06T09:00:00Z", "2023-05-06T08:40:00Z", "2023-05-06T08:41:00Z", "2023-05-06T08:40:00Z", "2023-05-06T08:42:00Z", "2023-05-06T08:41:00Z", "2023-05-06T08:45:00Z", "2023-05-06T08:45:00Z", "2023-05-06T08:42:00Z", "2023-05-06T08:41:00Z", "2023-05-06T08:40:00Z", "2023-05-06T08:40:00Z", "2023-05-06T08:40:00Z", "2023-05-06T08:40:00Z", "2023-05-06T08:40:00Z", "2023-05-06T09:00:00Z", "2023-05-06T09:00:00Z", "2023-05-06T09:00:00Z", "2023-05-06T09:00:00Z", "2023-05-06T08:50:00Z", "2023-05-06T08:59:00Z", "2023-05-06T08:50:00Z", "2023-05-06T08:59:00Z", "2023-05-06T08:50:00Z", "2023-05-06T08:50:00Z", "2023-05-06T08:50:00Z", "2023-05-06T08:51:00Z", "2023-05-06T08:50:00Z", "2023-05-06T08:50:00Z", "2023-05-06T08:50:00Z", "2023-05-06T08:50:00Z", "2023-05-06T09:00:00Z", "2023-05-06T09:00:00Z", "2023-05-06T09:00:00Z", "2023-05-06T09:00:00Z", "2023-05-06T09:00:00Z", "2023-05-06T09:00:00Z", "2023-05-06T09:00:00Z", "2023-05-06T09:00:00Z", "2023-05-06T09:00:00Z", "2023-05-06T09:00:00Z", "2023-05-06T09:00:00Z", "2023-05-06T09:00:00Z", "2023-05-06T09:00:00Z", "2023-05-06T09:00:00Z", "2023-05-06T09:00:00Z", "2023-05-06T09:00:00Z", "2023-05-06T09:00:00Z", "2023-05-06T09:00:00Z", "2023-05-06T09:00:00Z", "2023-05-06T09:00:00Z", "2023-05-06T09:00:00Z", "2023-05-06T09:00:00Z", "2023-05-06T09:00:00Z", "2023-05-06T09:00:00Z", "2023-05-06T08:50:00Z", "2023-05-06T09:00:00Z", "2023-05-06T09:00:00Z", "2023-05-06T09:00:00Z", "2023-05-06T09:00:00Z", "2023-05-06T09:00:00Z", "2023-05-06T09:00:00Z", "2023-05-06T08:55:00Z", "2023-05-06T09:00:00Z", "2023-05-06T09:00:00Z", "2023-05-06T09:00:00Z", "2023-05-06T09:00:00Z", "2023-05-06T09:00:00Z", "2023-05-06T09:00:00Z", "2023-05-06T09:00:00Z", "2023-05-06T09:00:00Z", "2023-05-06T09:00:00Z", "2023-05-06T09:00:00Z", "2023-05-06T09:00:00Z", "2023-05-06T09:00:00Z", "2023-05-06T09:00:00Z", "2023-05-06T09:00:00Z", "2023-05-06T09:00:00Z", "2023-05-06T09:00:00Z", "2023-05-06T09:00:00Z", "2023-05-06T09:00:00Z", "2023-05-06T09:00:00Z", "2023-05-06T09:00:00Z", "2023-05-06T09:00:00Z", "2023-05-06T08:55:00Z", "2023-05-06T09:00:00Z", "2023-05-06T09:00:00Z", "2023-05-06T09:00:00Z", "2023-05-06T09:00:00Z", "2023-05-06T09:00:00Z", "2023-05-06T09:00:00Z", "2023-05-06T09:00:00Z", "2023-05-06T09:00:00Z", "2023-05-06T09:00:00Z", "2023-05-06T09:00:00Z", "2023-05-06T09:00:00Z", "2023-05-06T09:00:00Z", "2023-05-06T09:00:00Z", "2023-05-06T09:00:00Z", "2023-05-06T09:00:00Z", "2023-05-06T09:00:00Z", "2023-05-06T09:00:00Z", "2023-05-06T09:00:00Z", "2023-05-06T09:00:00Z", "2023-05-06T09:00:00Z", "2023-05-06T09:00:00Z", "2023-05-06T09:00:00Z", "2023-05-06T09:00:00Z", "2023-05-06T09:00:00Z", "2023-05-06T09:00:00Z", "2023-05-06T09:00:00Z", "2023-05-06T09:00:00Z", "2023-05-06T09:00:00Z", "2023-05-06T09:00:00Z", "2023-05-06T09:00:00Z", "2023-05-06T09:00:00Z", "2023-05-06T09:00:00Z", "2023-05-06T09:00:00Z", "2023-05-06T09:00:00Z", "2023-05-06T09:00:00Z", "2023-05-06T09:00:00Z", "2023-05-06T09:00:00Z", "2023-05-06T09:00:00Z", "2023-05-06T09:00:00Z", "2023-05-06T09:00:00Z", "2023-05-06T09:00:00Z", "2023-05-06T09:00:00Z", "2023-05-06T09:00:00Z", "2023-05-06T09:00:00Z", "2023-05-06T09:00:00Z", "2023-05-06T09:00:00Z", "2023-05-06T09:00:00Z", "2023-05-06T09:00:00Z", "2023-05-06T09:00:00Z", "2023-05-06T09:00:00Z", "2023-05-06T09:00:00Z", "2023-05-06T09:00:00Z", "2023-05-06T09:00:00Z", "2023-05-06T09:00:00Z", "2023-05-06T09:00:00Z", "2023-05-06T09:00:00Z", "2023-05-06T09:00:00Z", "2023-05-06T09:00:00Z", "2023-05-06T09:00:00Z", "2023-05-06T09:00:00Z", "2023-05-06T09:00:00Z", "2023-05-06T09:00:00Z", "2023-05-06T09:00:00Z", "2023-05-06T09:00:00Z", "2023-05-06T09:00:00Z", "2023-05-06T09:00:00Z", "2023-05-06T09:00:00Z", "2023-05-06T09:00:00Z", "2023-05-06T09:00:00Z", "2023-05-06T09:00:00Z", "2023-05-06T09:00:00Z", "2023-05-06T09:00:00Z", "2023-05-06T09:00:00Z", "2023-05-06T08:55:00Z", "2023-05-06T09:00:00Z", "2023-05-06T09:00:00Z", "2023-05-06T09:00:00Z", "2023-05-06T09:00:00Z", "2023-05-06T09:00:00Z", "2023-05-06T09:00:00Z", "2023-05-06T09:00:00Z", "2023-05-06T09:00:00Z", "2023-05-06T09:00:00Z", "2023-05-06T09:00:00Z", "2023-05-06T08:50:00Z", "2023-05-06T08:50:00Z", "2023-05-06T08:50:00Z", "2023-05-06T08:50:00Z", "2023-05-06T08:50:00Z", "2023-05-06T08:50:00Z", "2023-05-06T09:00:00Z", "2023-05-06T09:30:00Z", "2023-05-06T09:25:00Z", "2023-05-06T09:30:00Z", "2023-05-06T09:00:00Z", "2023-05-06T09:00:00Z", "2023-05-06T09:00:00Z", "2023-05-06T09:00:00Z", "2023-05-06T09:00:00Z", "2023-05-06T09:00:00Z", "2023-05-06T09:00:00Z", "2023-05-06T09:00:00Z", "2023-05-06T09:00:00Z", "2023-05-06T09:00:00Z", "2023-05-06T09:00:00Z", "2023-05-06T09:00:00Z", "2023-05-06T09:00:00Z", "2023-05-06T09:00:00Z", "2023-05-06T08:55:00Z", "2023-05-06T09:00:00Z", "2023-05-06T09:15:00Z", "2023-05-06T08:56:00Z", "2023-05-06T08:53:00Z", "2023-05-06T08:55:00Z", "2023-05-06T08:53:00Z", "2023-05-06T08:53:00Z", "2023-05-06T08:56:00Z", "2023-05-06T08:53:00Z", "2023-05-06T08:53:00Z", "2023-05-06T08:56:00Z", "2023-05-06T08:53:00Z", "2023-05-06T08:56:00Z", "2023-05-06T08:53:00Z", "2023-05-06T08:55:00Z", "2023-05-06T08:56:00Z", "2023-05-06T08:56:00Z", "2023-05-06T08:56:00Z", "2023-05-06T08:53:00Z", "2023-05-06T08:56:00Z", "2023-05-06T08:55:00Z", "2023-05-06T08:53:00Z", "2023-05-06T08:55:00Z", "2023-05-06T08:55:00Z", "2023-05-06T08:53:00Z", "2023-05-06T08:53:00Z", "2023-05-06T08:55:00Z", "2023-05-06T08:56:00Z", "2023-05-06T09:25:00Z", "2023-05-06T08:55:00Z", "2023-05-06T09:01:00Z", "2023-05-06T08:53:00Z", "2023-05-06T08:56:00Z", "2023-05-06T08:56:00Z", "2023-05-06T08:56:00Z", "2023-05-06T08:53:00Z", "2023-05-06T08:56:00Z", "2023-05-06T08:56:00Z", "2023-05-06T08:54:00Z", "2023-05-06T08:52:00Z", "2023-05-06T08:56:00Z", "2023-05-06T08:56:00Z", "2023-05-06T08:56:00Z", "2023-05-06T08:53:00Z", "2023-05-06T08:55:00Z", "2023-05-06T08:56:00Z", "2023-05-06T08:56:00Z", "2023-05-06T08:57:00Z", "2023-05-06T08:53:00Z", "2023-05-06T09:14:00Z", "2023-05-06T08:56:00Z", "2023-05-06T08:56:00Z", "2023-05-06T09:07:00Z", "2023-05-06T08:56:00Z", "2023-05-06T08:53:00Z", "2023-05-06T08:53:00Z", "2023-05-06T08:53:00Z", "2023-05-06T08:56:00Z", "2023-05-06T08:53:00Z", "2023-05-06T08:55:00Z", "2023-05-06T08:56:00Z", "2023-05-06T08:53:00Z", "2023-05-06T08:51:00Z", "2023-05-06T08:56:00Z", "2023-05-06T08:56:00Z", "2023-05-06T08:56:00Z", "2023-05-06T08:56:00Z", "2023-05-06T08:53:00Z", "2023-05-06T09:08:00Z", "2023-05-06T09:03:00Z", "2023-05-06T08:53:00Z", "2023-05-06T08:56:00Z", "2023-05-06T08:56:00Z", "2023-05-06T08:56:00Z", "2023-05-06T08:56:00Z", "2023-05-06T08:53:00Z", "2023-05-06T08:56:00Z", "2023-05-06T08:53:00Z", "2023-05-06T08:53:00Z", "2023-05-06T09:11:00Z", "2023-05-06T08:53:00Z", "2023-05-06T08:56:00Z", "2023-05-06T08:56:00Z", "2023-05-06T08:56:00Z", "2023-05-06T08:56:00Z", "2023-05-06T09:03:00Z", "2023-05-06T09:24:00Z", "2023-05-06T08:56:00Z", "2023-05-06T08:56:00Z", "2023-05-06T09:00:00Z", "2023-05-06T08:53:00Z", "2023-05-06T08:56:00Z", "2023-05-06T08:56:00Z", "2023-05-06T08:56:00Z", "2023-05-06T08:53:00Z", "2023-05-06T08:53:00Z", "2023-05-06T08:55:00Z", "2023-05-06T08:56:00Z", "2023-05-06T09:24:00Z", "2023-05-06T08:52:00Z", "2023-05-06T08:55:00Z", "2023-05-06T08:56:00Z", "2023-05-06T08:56:00Z", "2023-05-06T08:53:00Z", "2023-05-06T08:55:00Z", "2023-05-06T08:53:00Z", "2023-05-06T08:56:00Z", "2023-05-06T08:56:00Z", "2023-05-06T09:24:00Z", "2023-05-06T08:56:00Z", "2023-05-06T08:53:00Z", "2023-05-06T08:53:00Z", "2023-05-06T08:53:00Z", "2023-05-06T08:56:00Z", "2023-05-06T08:56:00Z", "2023-05-06T08:56:00Z", "2023-05-06T08:53:00Z", "2023-05-06T08:56:00Z", "2023-05-06T08:56:00Z", "2023-05-06T08:56:00Z", "2023-05-06T08:56:00Z", "2023-05-06T08:56:00Z", "2023-05-06T08:56:00Z", "2023-05-06T08:56:00Z", "2023-05-06T08:56:00Z", "2023-05-06T08:56:00Z", "2023-05-06T08:54:00Z", "2023-05-06T09:14:00Z", "2023-05-06T08:52:00Z", "2023-05-06T09:25:00Z", "2023-05-06T09:25:00Z", "2023-05-06T08:53:00Z", "2023-05-06T08:53:00Z", "2023-05-06T08:53:00Z", "2023-05-06T08:54:00Z", "2023-05-06T08:57:00Z", "2023-05-06T08:53:00Z", "2023-05-06T08:56:00Z", "2023-05-06T08:54:00Z", "2023-05-06T09:05:00Z", "2023-05-06T09:04:00Z", "2023-05-06T08:52:00Z", "2023-05-06T09:20:00Z", "2023-05-06T08:56:00Z", "2023-05-06T09:23:00Z", "2023-05-06T08:51:00Z", "2023-05-06T08:51:00Z", "2023-05-06T08:50:00Z", "2023-05-06T08:53:00Z", "2023-05-06T08:52:00Z", "2023-05-06T08:55:00Z", "2023-05-06T09:00:00Z", "2023-05-06T09:00:00Z", "2023-05-06T09:00:00Z", "2023-05-06T09:00:00Z", "2023-05-06T09:00:00Z", "2023-05-06T09:00:00Z", "2023-05-06T09:00:00Z", "2023-05-06T09:00:00Z", "2023-05-06T09:00:00Z", "2023-05-06T09:00:00Z", "2023-05-06T09:00:00Z", "2023-05-06T09:00:00Z", "2023-05-06T09:00:00Z", "2023-05-06T09:00:00Z", "2023-05-06T09:00:00Z", "2023-05-06T09:00:00Z", "2023-05-06T09:00:00Z", "2023-05-06T09:00:00Z", "2023-05-06T09:00:00Z", "2023-05-06T09:00:00Z", "2023-05-06T09:27:00Z", "2023-05-06T09:00:00Z", "2023-05-06T09:00:00Z", "2023-05-06T09:00:00Z", "2023-05-06T09:00:00Z", "2023-05-06T09:00:00Z", "2023-05-06T09:00:00Z", "2023-05-06T09:00:00Z", "2023-05-06T09:00:00Z", "2023-05-06T09:00:00Z", "2023-05-06T09:00:00Z", "2023-05-06T09:00:00Z", "2023-05-06T09:00:00Z", "2023-05-06T09:00:00Z", "2023-05-06T09:00:00Z", "2023-05-06T09:00:00Z", "2023-05-06T09:00:00Z", "2023-05-06T09:00:00Z", "2023-05-06T09:00:00Z", "2023-05-06T09:00:00Z", "2023-05-06T09:00:00Z", "2023-05-06T09:00:00Z", "2023-05-06T09:00:00Z", "2023-05-06T09:10:00Z", "2023-05-06T09:00:00Z", "2023-05-06T09:00:00Z", "2023-05-06T09:00:00Z", "2023-05-06T09:00:00Z", "2023-05-06T09:17:00Z", "2023-05-06T09:00:00Z", "2023-05-06T09:00:00Z", "2023-05-06T09:00:00Z", "2023-05-06T09:00:00Z", "2023-05-06T09:00:00Z", "2023-05-06T09:00:00Z", "2023-05-06T09:00:00Z", "2023-05-06T09:00:00Z", "2023-05-06T09:00:00Z", "2023-05-06T09:00:00Z", "2023-05-06T09:00:00Z", "2023-05-06T08:28:00Z", "2023-05-06T09:00:00Z", "2023-05-06T09:00:00Z", "2023-05-06T09:00:00Z", "2023-05-06T09:00:00Z", "2023-05-06T08:20:00Z", "2023-05-06T09:00:00Z", "2023-05-06T09:00:00Z", "2023-05-06T09:00:00Z", "2023-05-06T09:00:00Z", "2023-05-06T08:55:00Z", "2023-05-06T09:00:00Z", "2023-05-06T09:25:00Z", "2023-05-06T09:00:00Z", "2023-05-06T09:00:00Z", "2023-05-06T09:00:00Z", "2023-05-06T08:55:00Z", "2023-05-06T09:00:00Z", "2023-05-06T09:00:00Z", "2023-05-06T08:55:00Z", "2023-05-06T09:00:00Z", "2023-05-06T09:23:00Z", "2023-05-06T09:00:00Z", "2023-05-06T09:00:00Z", "2023-05-06T09:00:00Z", "2023-05-06T08:59:00Z", "2023-05-06T09:11:00Z", "2023-05-06T09:00:00Z", "2023-05-06T09:00:00Z", "2023-05-06T09:00:00Z", "2023-05-06T09:00:00Z", "2023-05-06T09:00:00Z", "2023-05-06T09:00:00Z", "2023-05-06T09:00:00Z", "2023-05-06T09:00:00Z", "2023-05-06T09:00:00Z", "2023-05-06T09:00:00Z", "2023-05-06T09:00:00Z", "2023-05-06T09:00:00Z", "2023-05-06T09:00:00Z", "2023-05-06T09:00:00Z", "2023-05-06T09:00:00Z", "2023-05-06T09:00:00Z", "2023-05-06T09:00:00Z", "2023-05-06T09:00:00Z", "2023-05-06T09:00:00Z", "2023-05-06T09:20:00Z", "2023-05-06T09:00:00Z", "2023-05-06T09:00:00Z", "2023-05-06T09:00:00Z", "2023-05-06T09:00:00Z", "2023-05-06T09:00:00Z", "2023-05-06T09:00:00Z", "2023-05-06T09:00:00Z", "2023-05-06T09:00:00Z", "2023-05-06T09:00:00Z", "2023-05-06T09:14:00Z", "2023-05-06T09:00:00Z", "2023-05-06T09:00:00Z", "2023-05-06T09:00:00Z", "2023-05-06T09:00:00Z", "2023-05-06T09:00:00Z", "2023-05-06T09:00:00Z", "2023-05-06T09:00:00Z", "2023-05-06T09:00:00Z", "2023-05-06T09:00:00Z", "2023-05-06T09:00:00Z", "2023-05-06T09:00:00Z", "2023-05-06T09:00:00Z", "2023-05-06T09:04:00Z", "2023-05-06T09:00:00Z", "2023-05-06T09:00:00Z", "2023-05-06T09:00:00Z", "2023-05-06T09:00:00Z", "2023-05-06T09:00:00Z", "2023-05-06T09:00:00Z", "2023-05-06T09:00:00Z", "2023-05-06T09:00:00Z", "2023-05-06T09:00:00Z", "2023-05-06T09:00:00Z", "2023-05-06T09:14:00Z", "2023-05-06T09:00:00Z", "2023-05-06T09:00:00Z", "2023-05-06T09:00:00Z", "2023-05-06T09:00:00Z", "2023-05-06T09:00:00Z", "2023-05-06T09:21:00Z", "2023-05-06T09:00:00Z", "2023-05-06T09:00:00Z", "2023-05-06T09:00:00Z", "2023-05-06T09:00:00Z", "2023-05-06T09:00:00Z", "2023-05-06T09:00:00Z", "2023-05-06T09:00:00Z", "2023-05-06T09:00:00Z", "2023-05-06T09:00:00Z", "2023-05-06T09:00:00Z", "2023-05-06T09:00:00Z", "2023-05-06T09:00:00Z", "2023-05-06T09:00:00Z", "2023-05-06T09:00:00Z", "2023-05-06T09:00:00Z", "2023-05-06T09:00:00Z", "2023-05-06T09:00:00Z", "2023-05-06T09:00:00Z", "2023-05-06T09:00:00Z", "2023-05-06T09:00:00Z", "2023-05-06T09:00:00Z", "2023-05-06T09:00:00Z", "2023-05-06T09:00:00Z", "2023-05-06T09:00:00Z", "2023-05-06T09:00:00Z", "2023-05-06T09:00:00Z", "2023-05-06T09:00:00Z", "2023-05-06T09:00:00Z", "2023-05-06T09:00:00Z", "2023-05-06T09:00:00Z", "2023-05-06T09:00:00Z", "2023-05-06T09:00:00Z", "2023-05-06T09:00:00Z", "2023-05-06T09:00:00Z", "2023-05-06T09:00:00Z", "2023-05-06T09:00:00Z", "2023-05-06T09:00:00Z", "2023-05-06T09:00:00Z", "2023-05-06T09:00:00Z", "2023-05-06T09:00:00Z", "2023-05-06T09:00:00Z", "2023-05-06T09:00:00Z", "2023-05-06T09:00:00Z", "2023-05-06T09:00:00Z", "2023-05-06T09:00:00Z", "2023-05-06T09:00:00Z", "2023-05-06T09:00:00Z", "2023-05-06T09:00:00Z", "2023-05-06T09:00:00Z", "2023-05-06T09:00:00Z", "2023-05-06T09:00:00Z", "2023-05-06T09:00:00Z", "2023-05-06T09:00:00Z", "2023-05-06T09:00:00Z", "2023-05-06T09:00:00Z", "2023-05-06T09:15:00Z", "2023-05-06T09:00:00Z", "2023-05-06T09:00:00Z", "2023-05-06T09:00:00Z", "2023-05-06T09:00:00Z", "2023-05-06T09:00:00Z", "2023-05-06T09:00:00Z", "2023-05-06T09:00:00Z", "2023-05-06T09:00:00Z", "2023-05-06T09:00:00Z", "2023-05-06T09:00:00Z", "2023-05-06T09:00:00Z", "2023-05-06T09:00:00Z", "2023-05-06T09:00:00Z", "2023-05-06T09:00:00Z", "2023-05-06T09:00:00Z", "2023-05-06T09:00:00Z", "2023-05-06T09:00:00Z", "2023-05-06T09:00:00Z", "2023-05-06T09:00:00Z", "2023-05-06T09:00:00Z", "2023-05-06T09:00:00Z", "2023-05-06T09:00:00Z", "2023-05-06T09:00:00Z", "2023-05-06T09:00:00Z", "2023-05-06T09:00:00Z", "2023-05-06T09:00:00Z", "2023-05-06T09:00:00Z", "2023-05-06T09:00:00Z", "2023-05-06T09:00:00Z", "2023-05-06T09:00:00Z", "2023-05-06T09:00:00Z", "2023-05-06T09:00:00Z", "2023-05-06T09:00:00Z", "2023-05-06T09:00:00Z", "2023-05-06T09:00:00Z", "2023-05-06T09:00:00Z", "2023-05-06T09:00:00Z", "2023-05-06T09:00:00Z", "2023-05-06T09:00:00Z", "2023-05-06T09:00:00Z", "2023-05-06T09:00:00Z", "2023-05-06T09:00:00Z", "2023-05-06T09:00:00Z", "2023-05-06T09:00:00Z", "2023-05-06T09:00:00Z", "2023-05-06T09:00:00Z", "2023-05-06T09:00:00Z", "2023-05-06T09:00:00Z", "2023-05-06T09:03:00Z", "2023-05-06T09:03:00Z", "2023-05-06T09:03:00Z", "2023-05-06T09:03:00Z", "2023-05-06T09:03:00Z", "2023-05-06T09:03:00Z", "2023-05-06T09:03:00Z", "2023-05-06T09:03:00Z", "2023-05-06T09:03:00Z", "2023-05-06T09:03:00Z", "2023-05-06T09:03:00Z", "2023-05-06T09:03:00Z", "2023-05-06T09:03:00Z", "2023-05-06T09:03:00Z", "2023-05-06T09:03:00Z", "2023-05-06T09:03:00Z", "2023-05-06T09:03:00Z", "2023-05-06T09:03:00Z", "2023-05-06T09:03:00Z", "2023-05-06T09:03:00Z", "2023-05-06T09:03:00Z", "2023-05-06T09:00:00Z", "2023-05-06T09:00:00Z", "2023-05-06T09:00:00Z", "2023-05-06T09:00:00Z", "2023-05-06T09:00:00Z", "2023-05-06T09:00:00Z", "2023-05-06T08:53:00Z", "2023-05-06T08:53:00Z", "2023-05-06T09:15:00Z", "2023-05-06T08:56:00Z", "2023-05-06T09:00:00Z", "2023-05-06T09:00:00Z", "2023-05-06T08:55:00Z", "2023-05-06T09:00:00Z", "2023-05-06T08:55:00Z", "2023-05-06T09:00:00Z", "2023-05-06T09:00:00Z", "2023-05-06T09:00:00Z", "2023-05-06T08:55:00Z", "2023-05-06T09:00:00Z", "2023-05-06T09:00:00Z", "2023-05-06T09:00:00Z", "2023-05-06T09:00:00Z", "2023-05-06T09:00:00Z", "2023-05-06T09:00:00Z", "2023-05-06T09:00:00Z", "2023-05-06T09:00:00Z", "2023-05-06T09:00:00Z", "2023-05-06T09:00:00Z", "2023-05-06T09:00:00Z", "2023-05-06T09:00:00Z", "2023-05-06T09:00:00Z", "2023-05-06T09:00:00Z", "2023-05-06T09:00:00Z", "2023-05-06T09:00:00Z", "2023-05-06T09:00:00Z", "2023-05-06T09:00:00Z", "2023-05-06T09:00:00Z", "2023-05-06T09:00:00Z", "2023-05-06T09:00:00Z", "2023-05-06T09:00:00Z", "2023-05-06T09:00:00Z", "2023-05-06T09:00:00Z", "2023-05-06T09:30:00Z", "2023-05-06T09:00:00Z", "2023-05-06T09:00:00Z", "2023-05-06T09:00:00Z", "2023-05-06T09:00:00Z", "2023-05-06T09:00:00Z", "2023-05-06T09:00:00Z", "2023-05-06T09:00:00Z", "2023-05-06T09:00:00Z", "2023-05-06T09:00:00Z", "2023-05-06T09:00:00Z", "2023-05-06T09:00:00Z", "2023-05-06T09:00:00Z", "2023-05-06T09:00:00Z", "2023-05-06T09:00:00Z", "2023-05-06T09:00:00Z", "2023-05-06T09:00:00Z", "2023-05-06T09:00:00Z", "2023-05-06T09:00:00Z", "2023-05-06T09:00:00Z", "2023-05-06T09:00:00Z", "2023-05-06T09:00:00Z", "2023-05-06T09:00:00Z", "2023-05-06T09:00:00Z", "2023-05-06T09:00:00Z", "2023-05-06T09:00:00Z", "2023-05-06T09:00:00Z", "2023-05-06T09:00:00Z", "2023-05-06T09:00:00Z", "2023-05-06T09:00:00Z", "2023-05-06T09:00:00Z", "2023-05-06T09:00:00Z", "2023-05-06T09:00:00Z", "2023-05-06T09:00:00Z", "2023-05-06T09:00:00Z", "2023-05-06T09:00:00Z", "2023-05-06T09:00:00Z", "2023-05-06T09:00:00Z", "2023-05-06T09:00:00Z", "2023-05-06T09:00:00Z", "2023-05-06T09:00:00Z", "2023-05-06T09:00:00Z", "2023-05-06T09:00:00Z", "2023-05-06T09:00:00Z", "2023-05-06T09:00:00Z", "2023-05-06T09:00:00Z", "2023-05-06T09:00:00Z", "2023-05-06T09:00:00Z", "2023-05-06T09:00:00Z", "2023-05-06T09:00:00Z", "2023-05-06T09:00:00Z", "2023-05-06T09:00:00Z", "2023-05-06T09:00:00Z", "2023-05-06T09:00:00Z", "2023-05-06T09:00:00Z", "2023-05-06T09:00:00Z", "2023-05-06T09:00:00Z", "2023-05-06T09:00:00Z", "2023-05-06T09:00:00Z", "2023-05-06T09:00:00Z", "2023-05-06T09:00:00Z", "2023-05-06T09:00:00Z", "2023-05-06T09:00:00Z", "2023-05-06T09:00:00Z", "2023-05-06T09:00:00Z", "2023-05-06T09:00:00Z", "2023-05-06T09:00:00Z", "2023-05-06T09:00:00Z", "2023-05-06T09:00:00Z", "2023-05-06T09:00:00Z", "2023-05-06T09:00:00Z", "2023-05-06T09:00:00Z", "2023-05-06T09:00:00Z", "2023-05-06T09:00:00Z", "2023-05-06T09:00:00Z", "2023-05-06T09:00:00Z", "2023-05-06T09:00:00Z", "2023-05-06T09:00:00Z", "2023-05-06T09:00:00Z", "2023-05-06T09:00:00Z", "2023-05-06T09:00:00Z", "2023-05-06T09:00:00Z", "2023-05-06T09:00:00Z", "2023-05-06T09:00:00Z", "2023-05-06T09:00:00Z", "2023-05-06T09:00:00Z", "2023-05-06T09:00:00Z", "2023-05-06T09:00:00Z", "2023-05-06T09:00:00Z", "2023-05-06T09:00:00Z", "2023-05-06T09:00:00Z", "2023-05-06T09:00:00Z", "2023-05-06T09:00:00Z", "2023-05-06T09:00:00Z", "2023-05-06T09:00:00Z", "2023-05-06T09:00:00Z", "2023-05-06T09:00:00Z", "2023-05-06T09:00:00Z", "2023-05-06T09:00:00Z", "2023-05-06T09:00:00Z", "2023-05-06T09:00:00Z", "2023-05-06T09:00:00Z", "2023-05-06T09:00:00Z", "2023-05-06T09:00:00Z", "2023-05-06T09:00:00Z", "2023-05-06T09:00:00Z", "2023-05-06T09:00:00Z", "2023-05-06T09:00:00Z", "2023-05-06T09:00:00Z", "2023-05-06T09:00:00Z", "2023-05-06T09:00:00Z", "2023-05-06T09:00:00Z", "2023-05-06T09:00:00Z", "2023-05-06T09:00:00Z", "2023-05-06T09:00:00Z", "2023-05-06T09:00:00Z", "2023-05-06T09:00:00Z", "2023-05-06T09:00:00Z", "2023-05-06T09:00:00Z", "2023-05-06T09:00:00Z", "2023-05-06T09:00:00Z", "2023-05-06T09:00:00Z", "2023-05-06T09:00:00Z", "2023-05-06T09:30:00Z", "2023-05-06T09:00:00Z", "2023-05-06T09:00:00Z", "2023-05-06T09:00:00Z", "2023-05-06T09:00:00Z", "2023-05-06T09:00:00Z", "2023-05-06T09:00:00Z", "2023-05-06T09:30:00Z", "2023-05-06T09:30:00Z", "2023-05-06T09:00:00Z", "2023-05-06T09:10:00Z", "2023-05-06T09:10:00Z", "2023-05-06T09:00:00Z", "2023-05-06T09:00:00Z", "2023-05-06T09:00:00Z", "2023-05-06T09:00:00Z", "2023-05-06T09:00:00Z", "2023-05-06T09:00:00Z", "2023-05-06T09:00:00Z", "2023-05-06T08:30:00Z", "2023-05-06T09:00:00Z", "2023-05-06T09:00:00Z", "2023-05-06T09:00:00Z", "2023-05-06T09:00:00Z", "2023-05-06T09:00:00Z", "2023-05-06T09:00:00Z", "2023-05-06T09:00:00Z", "2023-05-06T09:00:00Z", "2023-05-06T09:00:00Z", "2023-05-06T09:00:00Z", "2023-05-06T09:00:00Z", "2023-05-06T09:00:00Z", "2023-05-06T09:00:00Z", "2023-05-06T09:00:00Z", "2023-05-06T09:00:00Z", "2023-05-06T09:00:00Z", "2023-05-06T09:00:00Z", "2023-05-06T09:00:00Z", "2023-05-06T09:00:00Z", "2023-05-06T09:00:00Z", "2023-05-06T09:00:00Z", "2023-05-06T09:00:00Z", "2023-05-06T09:00:00Z", "2023-05-06T09:00:00Z", "2023-05-06T09:00:00Z", "2023-05-06T09:00:00Z", "2023-05-06T09:00:00Z", "2023-05-06T09:00:00Z", "2023-05-06T09:00:00Z", "2023-05-06T09:00:00Z", "2023-05-06T09:00:00Z", "2023-05-06T09:00:00Z", "2023-05-06T09:00:00Z", "2023-05-06T09:00:00Z", "2023-05-06T09:00:00Z", "2023-05-06T09:30:00Z", "2023-05-06T09:00:00Z", "2023-05-06T09:00:00Z", "2023-05-06T09:00:00Z", "2023-05-06T09:00:00Z", "2023-05-06T09:00:00Z", "2023-05-06T08:30:00Z", "2023-05-06T09:00:00Z", "2023-05-06T09:00:00Z", "2023-05-06T09:00:00Z", "2023-05-06T09:00:00Z", "2023-05-06T09:00:00Z", "2023-05-06T09:00:00Z", "2023-05-06T09:00:00Z", "2023-05-06T09:00:00Z", "2023-05-06T09:00:00Z", "2023-05-06T09:00:00Z", "2023-05-06T09:00:00Z", "2023-05-06T09:00:00Z", "2023-05-06T08:30:00Z", "2023-05-06T09:00:00Z", "2023-05-06T09:00:00Z", "2023-05-06T09:00:00Z", "2023-05-06T09:00:00Z", "2023-05-06T09:00:00Z", "2023-05-06T09:00:00Z", "2023-05-06T09:00:00Z", "2023-05-06T09:00:00Z", "2023-05-06T09:00:00Z", "2023-05-06T09:00:00Z", "2023-05-06T09:00:00Z", "2023-05-06T09:00:00Z", "2023-05-06T09:00:00Z", "2023-05-06T09:00:00Z", "2023-05-06T09:00:00Z", "2023-05-06T09:00:00Z", "2023-05-06T09:00:00Z", "2023-05-06T09:00:00Z", "2023-05-06T09:00:00Z", "2023-05-06T09:00:00Z", "2023-05-06T09:00:00Z", "2023-05-06T09:00:00Z", "2023-05-06T09:00:00Z", "2023-05-06T09:00:00Z", "2023-05-06T09:00:00Z", "2023-05-06T09:00:00Z", "2023-05-06T09:00:00Z", "2023-05-06T09:00:00Z", "2023-05-06T09:00:00Z", "2023-05-06T09:00:00Z", "2023-05-06T09:00:00Z", "2023-05-06T09:00:00Z", "2023-05-06T09:00:00Z", "2023-05-06T09:00:00Z", "2023-05-06T09:00:00Z", "2023-05-06T09:00:00Z", "2023-05-06T09:00:00Z", "2023-05-06T09:00:00Z", "2023-05-06T09:00:00Z", "2023-05-06T09:00:00Z", "2023-05-06T09:00:00Z", "2023-05-06T09:00:00Z", "2023-05-06T09:00:00Z", "2023-05-06T09:00:00Z", "2023-05-06T09:00:00Z", "2023-05-06T09:00:00Z", "2023-05-06T09:00:00Z", "2023-05-06T09:00:00Z", "2023-05-06T09:00:00Z", "2023-05-06T09:00:00Z", "2023-05-06T09:00:00Z", "2023-05-06T08:30:00Z", "2023-05-06T09:00:00Z", "2023-05-06T09:00:00Z", "2023-05-06T09:00:00Z", "2023-05-06T09:00:00Z", "2023-05-06T09:00:00Z", "2023-05-06T09:00:00Z", "2023-05-06T09:00:00Z", "2023-05-06T09:00:00Z", "2023-05-06T09:00:00Z", "2023-05-06T09:00:00Z", "2023-05-06T09:00:00Z", "2023-05-06T09:00:00Z", "2023-05-06T09:00:00Z", "2023-05-06T09:00:00Z", "2023-05-06T09:00:00Z", "2023-05-06T09:00:00Z", "2023-05-06T09:00:00Z", "2023-05-06T09:00:00Z", "2023-05-06T09:00:00Z", "2023-05-06T09:00:00Z", "2023-05-06T09:00:00Z", "2023-05-06T09:00:00Z", "2023-05-06T09:00:00Z", "2023-05-06T09:00:00Z", "2023-05-06T09:00:00Z", "2023-05-06T09:00:00Z", "2023-05-06T09:00:00Z", "2023-05-06T09:00:00Z", "2023-05-06T09:00:00Z", "2023-05-06T09:00:00Z", "2023-05-06T09:00:00Z", "2023-05-06T09:00:00Z", "2023-05-06T09:00:00Z", "2023-05-06T09:00:00Z", "2023-05-06T09:00:00Z", "2023-05-06T09:00:00Z", "2023-05-06T09:00:00Z", "2023-05-06T09:00:00Z", "2023-05-06T09:00:00Z", "2023-05-06T09:00:00Z", "2023-05-06T09:00:00Z", "2023-05-06T09:00:00Z", "2023-05-06T09:00:00Z", "2023-05-06T09:00:00Z", "2023-05-06T09:00:00Z", "2023-05-06T09:00:00Z", "2023-05-06T09:00:00Z", "2023-05-06T09:00:00Z", "2023-05-06T09:00:00Z", "2023-05-06T09:00:00Z", "2023-05-06T09:00:00Z", "2023-05-06T09:00:00Z", "2023-05-06T09:00:00Z", "2023-05-06T09:00:00Z", "2023-05-06T09:00:00Z", "2023-05-06T09:00:00Z", "2023-05-06T09:00:00Z", "2023-05-06T09:00:00Z", "2023-05-06T09:00:00Z", "2023-05-06T09:00:00Z", "2023-05-06T09:00:00Z", "2023-05-06T09:00:00Z", "2023-05-06T09:00:00Z", "2023-05-06T09:00:00Z", "2023-05-06T09:00:00Z", "2023-05-06T09:00:00Z", "2023-05-06T09:00:00Z", "2023-05-06T09:00:00Z", "2023-05-06T09:00:00Z", "2023-05-06T09:00:00Z", "2023-05-06T09:00:00Z", "2023-05-06T09:00:00Z", "2023-05-06T09:23:00Z", "2023-05-06T09:00:00Z", "2023-05-06T09:00:00Z", "2023-05-06T09:00:00Z", "2023-05-06T09:00:00Z", "2023-05-06T09:00:00Z", "2023-05-06T08:30:00Z", "2023-05-06T09:00:00Z", "2023-05-06T09:00:00Z", "2023-05-06T09:03:00Z", "2023-05-06T09:00:00Z", "2023-05-06T09:00:00Z", "2023-05-06T09:00:00Z", "2023-05-06T09:00:00Z", "2023-05-06T09:00:00Z", "2023-05-06T09:00:00Z", "2023-05-06T09:00:00Z", "2023-05-06T09:00:00Z", "2023-05-06T09:00:00Z", "2023-05-06T09:00:00Z", "2023-05-06T09:00:00Z", "2023-05-06T09:00:00Z", "2023-05-06T09:18:00Z", "2023-05-06T09:00:00Z", "2023-05-06T09:00:00Z", "2023-05-06T09:00:00Z", "2023-05-06T09:00:00Z", "2023-05-06T09:00:00Z", "2023-05-06T09:00:00Z", "2023-05-06T09:00:00Z", "2023-05-06T09:00:00Z", "2023-05-06T09:00:00Z", "2023-05-06T09:00:00Z", "2023-05-06T09:00:00Z", "2023-05-06T09:00:00Z", "2023-05-06T09:00:00Z", "2023-05-06T09:00:00Z", "2023-05-06T09:00:00Z", "2023-05-06T09:00:00Z", "2023-05-06T09:00:00Z", "2023-05-06T09:00:00Z", "2023-05-06T09:00:00Z", "2023-05-06T09:00:00Z", "2023-05-06T09:00:00Z", "2023-05-06T09:00:00Z", "2023-05-06T09:30:00Z", "2023-05-06T09:00:00Z", "2023-05-06T09:00:00Z", "2023-05-06T09:00:00Z", "2023-05-06T09:00:00Z", "2023-05-06T09:00:00Z", "2023-05-06T09:00:00Z", "2023-05-06T09:00:00Z", "2023-05-06T09:00:00Z", "2023-05-06T09:00:00Z", "2023-05-06T09:00:00Z", "2023-05-06T09:00:00Z", "2023-05-06T09:00:00Z", "2023-05-06T09:00:00Z", "2023-05-06T09:00:00Z", "2023-05-06T09:00:00Z", "2023-05-06T09:00:00Z", "2023-05-06T09:00:00Z", "2023-05-06T09:00:00Z", "2023-05-06T09:00:00Z", "2023-05-06T09:00:00Z", "2023-05-06T09:00:00Z"], "raw_text": ["AGGH 060900Z 23003KT 9999 FEW016 FEW017CB SCT028 BKN100 27/26 Q1008", "ANYN 060900Z 09004KT 9999 FEW020 28/24 Q1009", "BGBW 060850Z 00000KT 9999 FEW200 M01/M02 Q1008", "BGGH 060856Z 20020KT 5000 BCFG OVC002 M01/M01 Q1006", "BGJN 060850Z 02001KT 5000 -SN FEW008 SCT012 BKN052 M02/M03 Q1005", "BGKK 060850Z AUTO VRB01KT 9999NDV NCD M02/M04 Q1011", "BGSF 060920Z 01003KT 3100 -SN BKN012 01/00 Q1004", "BGTL 060855Z AUTO 11005KT 9999 CLR M10/M15 A2975 RMK AO2 SLP061 T10971147 57009 TSNO $", "BIAR 060900Z 10003KT CAVOK 08/04 Q1008", "BIEG 060900Z 19013KT 9999 FEW021 BKN031 09/04 Q1009", "BIIS 060900Z 00000KT 9999 -RA FEW010 OVC015 06/05 Q1009", "BIKF 060900Z 07012KT 9999 SCT032 BKN100 07/04 Q1007", "BIRK 060900Z 09008KT 9999 FEW035 SCT095 BKN110 09/03 Q1007", "BIVM 060900Z 12015G25KT 9000 FEW009 BKN036 08/06 Q1007", "BK12 060855Z VRB02KT 9999 CLR 18/05 A3012 RMK AO2A SLP188 WND DATA ESTMD", "BKPR 060930Z 04006KT 010V100 9999 FEW040 19/07 Q1018 NOSIG", "CAHR 060900Z AUTO 23008KT 05/M02 RMK AO1 SLP122 T00471021 58022", "CBBC 060900Z AUTO 00000KT 9SM OVC020 07/07 A2997 RMK SLP153", "CERM 060900Z AUTO 31002KT M01/M02 RMK AO1 SLP176 T10121016 58005", "CMFM 060900Z AUTO 31001KT M02/M03 RMK AO1 SLP216 T10151029 55002", "CMGB 060900Z AUTO 19002KT 08/05 RMK AO1 SLP234 T00770053 53004", "CPBT 060900Z AUTO 07010KT 11/02 RMK AO1 PK WND 09019/0804 T01050015", "CPEH 060900Z AUTO 06/M00 RMK AO1 T00611003", "CPFI 060900Z AUTO 08010KT 10/01 RMK AO1 T01000011 50008", "CPIN 060900Z AUTO 15004KT ////SM ////// ///// A////", "CPIR 060900Z AUTO 35008KT 05/01 RMK AO1 T00450011", "CPRO 060900Z AUTO 05010KT 07/01 RMK AO1 T00730008", "CPRY 060900Z AUTO 10012KT 11/01 RMK AO1 PK WND 10023/0810 T01090009", "CPST 060900Z AUTO 09009KT 06/M01 RMK AO1 T00621009", "CPSV 060900Z AUTO 07011KT 11/02 RMK AO1 PK WND 05018/0804 T01110017", "CTCK 060900Z AUTO 00000KT 04/03 RMK AO1 SLP245 T00410032 53003", "CTNK 060900Z AUTO 00000KT M02/M02 RMK AO1 SLP281 T10161020 53005", "CTRA 060900Z AUTO 09005KT 06/03 RMK AO1 SLP220 T00570028 56003", "CWAF 060900Z AUTO 26013G20KT 09/04 RMK AO1 PK WND 29020/0850 T00920036", "CWAJ 060900Z AUTO 05010KT RMK AO1 53004", "CWAQ 060900Z AUTO 10013G20KT 09/03 RMK AO1 PK WND 10020/0854 SLP148 T00930032 58003", "CWAR 060900Z AUTO 31013KT 01/M02 RMK AO1 PK WND 31020/0804 SLP066 T00121017 57005", "CWAV 060900Z AUTO 08006KT 08/M02 RMK AO1 SLP130 T00781019 58004", "CWBA 060900Z AUTO 17002KT 02/01 RMK AO1 T00160011", "CWBK 060900Z AUTO 24005KT 03/M02 RMK AO1 SLP135 T00341024 57016", "CWBO 060900Z AUTO 10010G20KT 10/01 RMK AO1 PK WND 11020/0851 SLP104 T01000011 57002", "CWBS 060900Z AUTO 24003KT 11/03 RMK AO1 T01120031", "CWBT 060900Z AUTO 02002KT 04/M02 RMK AO1 SLP164 T00371022 51018", "CWBU 060900Z AUTO 05009KT 05/M00 RMK AO1 SLP233 T00531001 58004", "CWBV 060900Z AUTO 32009KT 02/M01 RMK AO1 PK WND 33017/0800 SLP131 T00211006 55001", "CWBY 060900Z AUTO 03007KT 05/M04 RMK AO1 SLP160 T00531038 53017", "CWBZ 060900Z AUTO 23005KT 06/04 RMK AO1 SLP241 T00610044 53003", "CWCF 060900Z AUTO 09006KT 09/02 RMK AO1 SLP243 T00910015 51001", "CWCJ 060900Z AUTO 06005KT 07/06 RMK AO1 1PAST HR 6002 SLP254 P0000 T00650059 50001", "CWCO 060900Z AUTO 18002KT 05/04 RMK AO1 SLP270 T00510037 50006", "CWCT 060900Z AUTO 10013KT 07/01 RMK AO1 PK WND 10018/0807 SLP160 T00720013 58002", "CWDA 060900Z AUTO 00033KT 01/ RMK AO1 T0008", "CWDC 060900Z AUTO 15004KT 12/M00 RMK AO1 SLP248 T01241002 53014", "CWDJ 060900Z AUTO 09012KT 08/01 RMK AO1 PK WND 10019/0827 SLP181 T00810008 55002", "CWDK 060900Z AUTO 01006KT 08/01 RMK AO1 0002 SLP100 T00790012 50001", "CWDM 060900Z AUTO 36009KT 02/M05 RMK AO1 SLP128 T00151051 56009", "CWDO 060900Z AUTO 34014KT M00/M00 RMK AO1 PK WND 34022/0808 SLP061 T10041004 56008", "CWDQ 060900Z AUTO 09001KT 02/01 RMK AO1 SLP230 T00160006 53002", "CWDV 060900Z AUTO 08006KT 05/04 RMK AO1 SLP225 T00500035 56005", "CWDZ 060900Z AUTO 11011G18KT 10/01 RMK AO1 PK WND 11019/0846 SLP123 T00980009 51001", "CWEB 060900Z AUTO 00035KT 07/07 RMK AO1 SLP154 T00730069 56001", "CWEF 060900Z AUTO 28024KT 03/01 RMK AO1 PK WND 26032/0809 SLP080 T00320009 55016", "CWEH 060900Z AUTO 08014KT 06/03 RMK AO1 2PAST HR 3004 PK WND 10024/0806 SLP109 P0001 T00630031 50002", "CWEL 060900Z AUTO 13006KT 10/09 RMK AO1 SLP134 T00980089 50002", "CWEP 060900Z AUTO 20008KT 02/M01 RMK AO1 SLP119 T00191006 58019", "CWEQ 060900Z AUTO 02007KT 04/00 RMK AO1 SLP223 T00400000 56006", "CWER 060900Z AUTO 24006KT RMK AO1", "CWEU 060900Z VRB03KT 15SM FEW200 M17/M19 A3008 RMK CC1 SLP201", "CWEW 060900Z AUTO 22003KT 07/03 RMK AO1 SLP234 T00650033 53003", "CWEZ 060900Z AUTO 20007KT 09/08 RMK AO1 SLP136 T00890080 51001", "CWFF 060900Z AUTO 04004KT 02/M01 RMK AO1 SLP228 T00241013 58002", "CWFJ 060900Z AUTO 29005KT 07/02 RMK AO1 T00670019", "CWFQ 060900Z AUTO 19002KT 06/04 RMK AO1 SLP235 T00580043 53002", "CWGB 060900Z AUTO 00000KT 10/ RMK AO1 1002 SLP132 T0101 50004", "CWGD 060900Z AUTO 12006KT 09/04 RMK AO1 SLP259 T00850036 55001", "CWGH 060900Z AUTO 22002KT 06/06 RMK AO1 SLP258 T00640057 53007", "CWGL 060900Z AUTO 07001KT 05/04 RMK AO1 SLP259 T00510035 53009", "CWGM 060900Z AUTO 35005KT 09/02 RMK AO1 SLP084 T00890017 53008", "CWGR 060900Z AUTO 31011G16KT 04/02 RMK AO1 PK WND 27018/0810 SLP109 T00440016 56008", "CWGT 060900Z AUTO 08005KT 10/09 RMK AO1 SLP138 T00980088 51001", "CWGY 060900Z AUTO 09012KT 07/01 RMK AO1 PK WND 08017/0819 SLP155 T00730011 50003", "CWHI 060900Z AUTO 08013KT 07/M00 RMK AO1 PK WND 09017/0853 T00691002", "CWHL 060900Z AUTO 33005KT 07/06 RMK AO1 SLP134 T00650055 51008", "CWHO 060900Z AUTO 00028KT M03/M04 RMK AO1 SLP158 T10311040 57014", "CWHP 060900Z AUTO 03012KT 02/M01 RMK AO1 PK WND 04022/0803 SLP134 T00241008 51019", "CWHQ 060900Z AUTO 31003KT 04/02 RMK AO1 T00360020", "CWHT 060900Z AUTO 02001KT M01/M06 RMK AO1 SLP111 T10061064 56001", "CWHV 060900Z AUTO 00000KT 03/02 RMK AO1 SLP202 T00260018 55002", "CWID 060900Z AUTO 00000KT 04/01 RMK AO1 SLP140 T00360011 57004", "CWIG 060900Z AUTO 19012KT RMK AO1", "CWII 060900Z AUTO 09008KT 08/03 RMK AO1 SLP224 T00760026 53005", "CWIJ 060900Z AUTO 10012KT M01/M02 RMK AO1 SOG 73 6013 PK WND 10017/0802 SLP263 T10141015", "CWIK 060900Z AUTO 08009KT 06/02 RMK AO1 SLP190 T00630016 55005", "CWIL 060900Z AUTO ///// ////SM OVC100 M03/M03 A3046", "CWIP 060900Z AUTO 34003KT 09/M00 RMK AO1 T00871002", "CWIS 060900Z AUTO 36002KT 03/M01 RMK AO1 SOG 32 6004 SLP204 T00251006", "CWIT 060900Z AUTO 36005KT 08/04 RMK AO1 SLP234 T00830042 53002", "CWIW 060900Z AUTO 07011KT 05/02 RMK AO1 SLP202 T00500016 58004", "CWIZ 060900Z AUTO 27004KT 08/05 RMK AO1 T00760049", "CWJB 060900Z AUTO 10/02 RMK AO1 T00950019", "CWJC 060900Z AUTO 19007KT 05/M00 RMK AO1 SOG 01 0003 SLP288 T00511003", "CWJD 060900Z AUTO 07002KT 02/01 RMK AO1 SLP247 T00240005 58001", "CWJH 060900Z AUTO 24001KT M01/M02 RMK AO1 SLP278 T10121023 53003", "CWJI 060900Z AUTO 09011KT 06/02 RMK AO1 SLP157 T00620019 56001", "CWJO 060900Z AUTO 00028KT 07/01 RMK AO1 SLP200 T00740012 53001", "CWJR 060900Z AUTO 22003KT 09/09 RMK AO1 2PAST HR 8002 SLP102 P0001 T00930087 50020", "CWJT 060900Z AUTO 00000KT 01/M00 RMK AO1 SLP249 T00101002 53003", "CWJU 060900Z AUTO 28008KT 06/04 RMK AO1 SLP146 T00640037 51005", "CWJV 060900Z AUTO 32001KT 12/12 RMK AO1 6PAST HR 0005 SLP088 P0002 T01150119 50006", "CWJW 060900Z AUTO 06004KT 10/M01 RMK AO1 SLP061 T01001012 51006", "CWJX 060900Z AUTO 08013KT 07/M01 RMK AO1 SOG 01 0002 PK WND 08017/0817 SLP136 T00701010", "CWKG 060900Z AUTO 29001KT M01/M02 RMK AO1 SLP159 T10091022 58014", "CWKH 060900Z AUTO 07/04 RMK AO1 SLP129 T00700040 50001", "CWKM 060900Z AUTO 09025KT ////SM BKN002 BKN190 M07/M08 A3005", "CWKO 060900Z AUTO 12012KT 08/02 RMK AO1 PK WND 10021/0808 SLP147 T00750023 58004", "CWKX 060900Z AUTO 21008KT 06/04 RMK AO1 1PAST HR 3019 SLP105 P0000 T00570039 50001", "CWLB 060900Z AUTO 12006KT 10/M00 RMK AO1 SLP195 T00971001 51009", "CWLC 060900Z AUTO 29007KT 07/06 RMK AO1 T00730056", "CWLE 060900Z AUTO 09012KT 06/01 RMK AO1 SLP176 T00550008 50001", "CWLM 060900Z AUTO 24008KT 09/07 RMK AO1 SLP140 T00870066 51001", "CWLP 060900Z AUTO 27008KT 08/06 RMK AO1 SLP154 T00750063 53006", "CWLS 060900Z AUTO 09003KT 06/03 RMK AO1 SLP270 T00600029 53004", "CWLX 060900Z AUTO ///// ////SM ////// M06/M09 A2995", "CWLY 060900Z AUTO 18010G18KT 9SM OVC046 11/06 A2985 RMK SLP112", "CWME 060900Z AUTO 18005KT 08/07 RMK AO1 3007 SLP146 T00790072 50004", "CWMJ 060900Z AUTO 00000KT 02/02 RMK AO1 SLP259 T00160016 53005", "CWMM 060900Z AUTO 02002KT 10/09 RMK AO1 SLP144 T01040093 58001", "CWMQ 060900Z AUTO 10008KT 09/02 RMK AO1 PK WND 09017/0824 SLP114 T00940024 51005", "CWMT 060900Z AUTO 08006KT 07/02 RMK AO1 SLP162 T00690022 58010", "CWNC 060900Z AUTO 30003KT 05/03 RMK AO1 SLP265 T00510028 53006", "CWND 060900Z AUTO 08015KT M08/M09 RMK AO1 PK WND 08019/0822 SLP174 T10771086 56016", "CWNE 060900Z AUTO 23013KT 05/02 RMK AO1 PK WND 22017/0842 SLP124 T00470021 55013", "CWNH 060900Z AUTO 20005KT 07/02 RMK AO1 SLP182 T00720023 57004", "CWNK 060900Z AUTO 08008KT 09/03 RMK AO1 0001 SLP197 T00900032 50003", "CWNM 060900Z AUTO 19002KT 11/11 RMK AO1 9PAST HR 0000 SLP099 P0004 T01060106 50011", "CWNP 060900Z AUTO 11004KT 11/10 RMK AO1 SLP089 T01130102 51003", "CWNQ 060900Z AUTO 25004KT 11/06 RMK AO1 SLP219 T01080055 55000", "CWNZ 060900Z AUTO 29001KT M01/M02 RMK AO1 SLP278 T10131020 51006", "CWOB 060900Z AUTO 36015G22KT ////SM ////// M04/M07 A2972", "CWOC 060900Z AUTO 32006KT 07/M00 RMK AO1 SLP130 T00651004 55005", "CWOD 060900Z AUTO 29008KT 08/02 RMK AO1 SLP212 T00790017 55000", "CWOE 060900Z AUTO 04015KT 10/02 RMK AO1 PK WND 04022/0802 SLP086 T01000017 53006", "CWOY 060900Z AUTO 09007KT 05/M00 RMK AO1 SLP211 T00511004 58004", "CWPD 060900Z AUTO 12001KT M03/M03 RMK AO1 SLP208 T10321033 55000", "CWPE 060900Z AUTO 30002KT M00/M00 RMK AO1 SLP159 T10031002 56010", "CWPF 060915Z AUTO 21003KT 10/07 RMK AO1 SLP140 T00950071 52001", "CWPO 060900Z AUTO 08011KT 08/05 RMK AO1 PK WND 08017/0842 SLP193 T00780047 50003", "CWPR 060900Z AUTO 00000KT 08/07 RMK AO1 SLP114 T00770072 50004", "CWPZ 060900Z AUTO 12004KT 09/08 RMK AO1 3026 SLP091 T00860077 50003", "CWQH 060900Z AUTO 00000KT 03/02 RMK AO1 SLP226 T00330024 53002", "CWQK 060900Z AUTO 27012KT 09/08 RMK AO1 SLP142 T00860075 52002", "CWQO 060900Z AUTO 23011KT 07/04 RMK AO1 T00700035", "CWQP 060900Z AUTO 31008KT 07/05 RMK AO1 SLP264 T00740054 53004", "CWQR 060900Z AUTO 02010KT 05/M02 RMK AO1 PK WND 02019/0805 T00451016", "CWQS 060900Z AUTO 31012KT 07/03 RMK AO1 SLP141 T00690034 53004", "CWQV 060900Z AUTO 28015KT 07/ RMK AO1 PK WND 28020/0835 T0073", "CWRA 060900Z AUTO 01/M03 RMK AO1 SLP049 T00081027 58003", "CWRJ 060900Z AUTO 10018KT 10/M00 RMK AO1 PK WND 09023/0845 SLP171 T00961002 50002", "CWRK 060900Z AUTO 00000KT M01/M01 RMK AO1 SLP274 T10081008 53005", "CWRM 060900Z AUTO 11003KT 04/M01 RMK AO1 SLP116 T00421011 50001", "CWRN 060900Z AUTO 27010KT 02/01 RMK AO1 SLP127 T00150005 58009", "CWRO 060900Z AUTO 29008KT 07/ RMK AO1 SLP142 T0071 53008", "CWRT 060900Z AUTO 02006KT 09/03 RMK AO1 2PAST HR 3001 SLP092 P0001 T00910032 50004", "CWRU 060900Z AUTO 33010KT 07/ RMK AO1 SLP148 T0073 51002", "CWRY 060900Z AUTO 08010KT 08/02 RMK AO1 SLP068 T00810015 50003", "CWRZ 060900Z AUTO 03017G23KT 07/02 RMK AO1 PK WND 02026/0800 SLP139 T00660019 53022", "CWSA 060900Z AUTO 30009KT 7SM 04/02 A2991 RMK CLD MISG SLP131", "CWSD 060900Z AUTO 24009KT 04/01 RMK AO1 SLP126 T00430012 58022", "CWSF 060900Z AUTO 00000KT 07/02 RMK AO1 SLP161 T00690018 53020", "CWSG 060900Z AUTO 19005KT 04/01 RMK AO1 SLP166 T00390010 53011", "CWSK 060900Z AUTO 00000KT 10/09 RMK AO1 SLP135 T01010092 50001", "CWSL 060900Z AUTO 00000KT 13/11 RMK AO1 SLP089 T01280113 51009", "CWSP 060900Z AUTO 29010KT 09/07 RMK AO1 SLP143 T00860069 58002", "CWSR 060900Z AUTO 10010KT 06/M00 RMK AO1 SLP219 T00591003 50001", "CWSS 060900Z AUTO 26003KT M00/M01 RMK AO1 SLP168 T10031008 56006", "CWST 060900Z AUTO 13002KT 04/02 RMK AO1 SLP182 T00390017 56001", "CWTA 060900Z AUTO 29002KT 12/02 RMK AO1 SLP231 T01220021 53002", "CWTG 060900Z AUTO 34005KT 09/M00 RMK AO1 SLP163 T00851002 53012", "CWTN 060900Z AUTO 35009G15KT 11/02 RMK AO1 SLP191 T01080016 55000", "CWTT 060900Z AUTO 25009KT 10/03 RMK AO1 T00960034", "CWTY 060900Z AUTO 22003KT 09/03 RMK AO1 SLP219 T00920031 53001", "CWUS 060900Z AUTO 28001KT 12/11 RMK AO1 1PAST HR 1004 SLP094 P0000 T01180110 50015", "CWUW 060900Z AUTO 36012KT ////SM ////// M08/M09 A2978", "CWUX 060900Z AUTO 24002KT 04/M00 RMK AO1 SLP206 T00381004 53002", "CWVF 060900Z AUTO 13009KT 10/09 RMK AO1 T01010088", "CWVI 060900Z AUTO 10012KT 09/01 RMK AO1 SLP167 T00940010 58004", "CWVN 060900Z AUTO 08010G16KT 10/02 RMK AO1 SLP116 T00970020 53005", "CWVP 060900Z AUTO 11010G18KT 06/M00 RMK AO1 PK WND 09019/0804 SLP100 T00611004 56005", "CWVQ 060900Z AUTO 24004KT 08/05 RMK AO1 SLP236 T00790046 53002", "CWVT 060900Z AUTO 13004KT 08/01 RMK AO1 SLP254 T00780009 51004", "CWVU 060900Z AUTO 23005KT 06/04 RMK AO1 SLP160 T00600044 56013", "CWWA 060900Z AUTO 09002KT 09/08 RMK AO1 SLP140 T00880084 58001", "CWWB 060900Z AUTO 25002KT 07/05 RMK AO1 SLP273 T00720046 51009", "CWWE 060900Z AUTO 00000KT M00/M02 RMK AO1 SLP160 T10031016 58011", "CWWF 060900Z AUTO 09010KT 05/02 RMK AO1 SLP171 T00490017 56003", "CWWK 060900Z AUTO 00000KT 10/09 RMK AO1 SLP146 T01030090 58001", "CWWL 060900Z AUTO 03005KT 07/06 RMK AO1 SLP139 T00730060 53008", "CWWS 060900Z AUTO 07013KT 03/01 RMK AO1 SLP246 T00320007 54000", "CWWU 060926Z 32011G17KT 15SM -SHSN BKN017 OVC031 00/M01 A2969 RMK SC7SC1 FLRYS SLP054", "CWWZ 060900Z AUTO 31002KT 06/06 RMK AO1 SLP271 T00630059 53007", "CWXA 060900Z AUTO 00003KT 09/M02 RMK AO1 SLP134 T00901024 57005", "CWXC 060900Z AUTO 04001KT M02/M02 RMK AO1 SLP205 T10201015 56001", "CWXI 060900Z AUTO 35010KT 01/M01 RMK AO1 SLP100 T00101012 56004", "CWXL 060900Z AUTO 10011KT 11/01 RMK AO1 SLP088 T01140006 53001", "CWYJ 060900Z AUTO 24002KT 09/07 RMK AO1 SLP141 T00850071 51001", "CWYL 060900Z AUTO 06004KT 06/00 RMK AO1 SLP089 T00570000 57002", "CWYY 060900Z AUTO 12004KT 12/10 RMK AO1 2PAST HR 3003 SLP099 P0001 T01210103 50016", "CWZA 060900Z AUTO 13001KT 10/10 RMK AO1 SLP142 T01030098 55001", "CWZG 060900Z AUTO 05004KT 09/M01 RMK AO1 SLP100 T00871011 58002", "CWZL 060900Z AUTO 04007KT 08/07 RMK AO1 SLP146 T00800066 53006", "CWZN 060900Z AUTO 36010KT 02/M02 RMK AO1 SLP079 T00161016 58004", "CWZO 060900Z AUTO 17002KT RMK AO1", "CWZQ 060900Z AUTO 16006KT 03/M00 RMK AO1 SLP125 T00261004 56017", "CWZW 060900Z AUTO 28003KT 04/04 RMK AO1 2PAST HR 5002 SLP119 P0001 T00390037 50006", "CXAF 060900Z AUTO 12007KT 07/M01 RMK AO1 T00721011", "CXAG 060900Z AUTO 10009KT 06/M00 RMK AO1 T00621003 50004", "CXAJ 060900Z AUTO 11006KT 08/M00 RMK AO1 T00791004", "CXAK 060900Z AUTO 07005KT 05/02 RMK AO1 T00450016", "CXAT 060900Z AUTO 32002KT M08/M10 RMK AO1 SOG 07 1015 SLP235 T10801102", "CXBA 060900Z AUTO 10012KT 08/02 RMK AO1 PK WND 10018/0821 T00770017", "CXBI 060900Z AUTO 28001KT 03/03 RMK AO1 SLP281 T00310026 53009", "CXBK 060900Z AUTO 08010KT 05/02 RMK AO1 SLP179 T00500022 56003", "CXBO 060900Z AUTO 18004KT 09/03 RMK AO1 T00940034", "CXBR 060900Z AUTO 36014KT RMK AO1 PK WND 01022/0804", "CXBW 060900Z AUTO 07012KT 09/02 RMK AO1 PK WND 06017/0822 T00860015", "CXCA 060900Z AUTO 35001KT 03/02 RMK AO1 SLP247 T00290022 56006", "CXCD 060900Z AUTO 08006KT 17/M00 RMK AO1 T01651002", "CXCK 060900Z AUTO 01001KT 02/M01 RMK AO1 SLP097 T00171008 56005", "CXCP 060900Z AUTO 05014KT 08/M01 RMK AO1 PK WND 05020/0840 T00831014", "CXCS 060900Z AUTO 10016KT 08/01 RMK AO1 PK WND 10023/0852 T00810012", "CXDB 060900Z AUTO 29004KT 06/02 RMK AO1 T00640023", "CXDE 060900Z AUTO 11006KT 08/01 RMK AO1 SLP145 T00820009 58013", "CXDI 060900Z AUTO 00000KT 04/03 RMK AO1 SLP263 T00410031 53004", "CXDK 060900Z AUTO 08/04 RMK AO1 SLP121 T00750036 56006", "CXDW 060900Z AUTO 06006KT 08/05 RMK AO1 SLP193 T00770046 58002", "CXEA 060900Z AUTO 09003KT 02/ RMK AO1 SLP232 T0021 55000", "CXEC 060900Z AUTO 13014G20KT 10/M00 RMK AO1 PK WND 12020/0842 SLP156 T00951002 50001", "CXET 060900Z AUTO 09004KT 04/03 RMK AO1 SLP275 T00360030 51008", "CXFM 060900Z AUTO 10018KT 11/01 RMK AO1 PK WND 10027/0802 T01050010", "CXGH 060900Z AUTO 04005KT 02/01 RMK AO1 SLP226 T00240009 53005", "CXHA 060900Z AUTO 12003KT 09/05 RMK AO1 SLP249 T00880051 53004", "CXHD 060900Z AUTO 09010KT 06/M00 RMK AO1 T00641003", "CXHM 060900Z AUTO 00000KT 03/02 RMK AO1 SLP273 T00290018 51010", "CXHP 060900Z AUTO 12006KT 14/M01 RMK AO1 T01361010", "CXHR 060900Z AUTO 08011KT 06/M01 RMK AO1 PK WND 07017/0803 T00581009", "CXIB 060900Z AUTO 25005KT 08/M04 RMK AO1 SLP083 T00841035 58022", "CXKA 060900Z AUTO 00000KT 01/M00 RMK AO1 SLP283 T00071003 53006", "CXKE 060900Z AUTO 28001KT 04/04 RMK AO1 SLP253 T00440040 53005", "CXKI 060900Z AUTO 00000KT M02/M02 RMK AO1 SLP275 T10201015 53002", "CXKM 060900Z AUTO 09008KT 06/M00 RMK AO1 T00621004", "CXKT 060900Z AUTO 22003KT 03/M01 RMK AO1 SLP150 T00321011 56013", "CXLB 060900Z AUTO 26003KT 02/M01 RMK AO1 SLP154 T00231011 58010", "CXLL 060900Z AUTO 02/01 RMK AO1 SLP133 T00220011 57004", "CXMD 060900Z AUTO 05006KT 08/04 RMK AO1 SLP187 T00800040 50000", "CXMG 060900Z AUTO 12006KT 12/01 RMK AO1 T01200006", "CXMI 060900Z AUTO 29005KT 03/M01 RMK AO1 SLP149 T00331009 56006", "CXMM 060900Z AUTO 12008KT 08/M00 RMK AO1 SLP214 T00821002 51010", "CXMO 060900Z AUTO 09013KT 06/02 RMK AO1 PK WND 09019/0812 T00560015", "CXMY 060900Z AUTO M02/M03 RMK AO1 T10151028", "CXNM 060900Z AUTO 26011KT 02/M02 RMK AO1 SOG 53 PK WND 27021/0837 T00171023", "CXOL 060900Z AUTO 08007KT 03/M02 RMK AO1 T00341023", "CXOX 060900Z AUTO 04003KT 02/M01 RMK AO1 SLP255 T00221012 54000", "CXOY 060900Z AUTO 09010KT 06/01 RMK AO1 PK WND 10017/0825 T00610005", "CXPA 060900Z AUTO 11012KT 16/M02 RMK AO1 PK WND 11017/0822 T01581018", "CXPC 060900Z AUTO 04/03 RMK AO1 SLP276 T00410033 51008", "CXPL 060900Z AUTO 08015KT 08/00 RMK AO1 PK WND 08021/0842 T00820000", "CXRB 060900Z AUTO 29001KT M09/M10 RMK AO1 2PAST HR 0001 SLP250 P0001 T10911104 50003", "CXRH 060900Z AUTO 04008KT 01/M03 RMK AO1 SLP106 T00081032 55001", "CXRL 060900Z AUTO 10006KT 09/00 RMK AO1 T00940000", "CXSC 060900Z AUTO 09019KT 10/01 RMK AO1 PK WND 09025/0844 T01010005", "CXSE 060900Z AUTO 23016KT M02/M05 RMK AO1 SOG 23 7006 PK WND 22019/0826 SLP223 T10211046", "CXSH 060900Z AUTO 32008KT 11/02 RMK AO1 SLP219 T01060015 55000", "CXSL 060900Z AUTO 11006KT 08/M00 RMK AO1 T00831004", "CXSP 060900Z AUTO 09009KT 10/01 RMK AO1 T00960010", "CXTD 060900Z AUTO 23009KT 02/M02 RMK AO1 SLP138 T00231018 58017", "CXTH 060900Z AUTO 10014KT 10/01 RMK AO1 PK WND 09021/0810 T01000011", "CXTN 060900Z AUTO 12012KT 02/M01 RMK AO1 SOG 38 7007 PK WND 13017/0859 SLP229 T00231014", "CXTO 060900Z AUTO 08/04 RMK AO1 SLP269 T00770035 53007", "CXTP 060900Z AUTO 33005KT M01/M01 RMK AO1 6009 SLP055 T10061010 50006", "CXTV 060900Z AUTO 35007KT M04/M05 RMK AO1 SOG 46 6012 SLP196 T10351052", "CXVM 060900Z AUTO 11011KT 10/02 RMK AO1 PK WND 10018/0807 T00960015", "CXVN 060900Z AUTO 21002KT 04/04 RMK AO1 SLP271 T00430035 53007", "CXVW 060900Z AUTO 12016KT 13/M02 RMK AO1 PK WND 11024/0839 SLP106 T01341019 51006", "CXWM 060900Z AUTO 10012KT 11/01 RMK AO1 PK WND 09021/0812 T01060008", "CXWN 060900Z AUTO 04003KT 09/02 RMK AO1 SLP207 T00900023 53005", "CXYH 060900Z AUTO 02003KT 03/02 RMK AO1 SLP113 T00320023 58005", "CXZC 060900Z AUTO 28002KT M00/M02 RMK AO1 SOG 03 3007 SLP286 T10021017", "CXZV 060900Z AUTO 33004KT 05/M00 RMK AO1 SLP172 T00481002 53018", "CYAH 060900Z AUTO 23004KT 9SM CLR 05/M02 A3022 RMK SLP245", "CYAM 060900Z 09007KT 10SM -SHRA OVC061 08/08 A3028 RMK SC8 CVCTV CLD EMBD SLP262", "CYAT 060900Z AUTO VRB02KT 9SM CLR M01/M01 A3041 RMK SLP301", "CYAY 060900Z AUTO 32011G19KT 9SM -RA FEW019 OVC033 01/M01 A2981 RMK SLP099", "CYBC 060900Z AUTO 32005KT 9SM CLR 09/01 A3002 RMK SLP168", "CYBG 060900Z 29003KT 25SM SKC 07/01 A3011 RMK DENSITY ALT -418FT SLP201", "CYBK 060921Z 35006KT 20SM FEW050 M04/M05 A3048 RMK SC1 YBK STN CLSD /0921 REOPEN /1330Z SLP324", "CYBQ 060900Z AUTO 16005KT 9SM CLR 03/M01 A3038 RMK SLP304", "CYBR 060900Z 07015G20KT 15SM BKN120 07/02 A3007 RMK AC7 SLP195", "CYBU 060900Z AUTO 03008KT 9SM CLR 05/01 A3019 RMK SLP239", "CYBW 060900Z AUTO 09006KT 9SM SCT060 SCT077 06/M03 A2990 RMK SLP128", "CYBX 060900Z 01012G23KT 15SM FEW027 BKN056 BKN070 02/M03 A2984 RMK SC2SC3AC2 SLP110", "CYCA 060929Z AUTO 34012G18KT 9SM OVC009 M01/M02 A2992 RMK SLP133", "CYCB 060900Z 17011KT 15SM BKN094 M02/M03 A3036 RMK AC6 SLP285", "CYCK 060900Z AUTO 10007KT 9SM CLR 07/05 A3027 RMK SLP255", "CYCO 060900Z 21007KT 15SM SCT170 BKN210 02/M01 A3017 RMK AC4CI2 CC ASOCTD SLP221", "CYCY 060900Z AUTO 32032G37KT 3/8SM SN OVC029 M06/M06 A2989 RMK SLP125", "CYDB 060900Z AUTO VRB02KT 9SM CLR M02/M06 A2972 RMK SLP101", "CYDF 060900Z 00000KT 15SM FEW015 BKN052 02/M01 A2983 RMK SF1SC7 SF TR SLP104", "CYDL 060900Z AUTO 22008KT 9SM -RA FEW024 BKN039 BKN071 OVC092 06/04 A2978 RMK SLP090", "CYDN 060900Z AUTO 04007KT 9SM CLR 03/M00 A3013 RMK SLP215", "CYDP 060900Z 00000KT 15SM FEW150 SCT210 M03/M03 A2996 RMK AC1CI3 SLP147", "CYDQ 060900Z AUTO 11003KT 090V180 9SM CLR 17/00 A2977 RMK SLP078 DENSITY ALT 3200FT", "CYEG 060900Z 11016G21KT 20SM SKC 09/01 A2998 RMK SLP156", "CYEK 060900Z AUTO 00000KT 9SM BKN100 BKN140 M02/M02 A3043 RMK SLP306", "CYEN 060900Z AUTO 07010G15KT 9SM CLR 06/03 A2999 RMK SLP167", "CYER 060900Z AUTO VRB02KT 9SM SCT250 M03/M03 A3047 RMK SLP320", "CYET 060900Z AUTO 07011G17KT 5SM HZ OVC032 11/M01 A2988 RMK SLP120 DENSITY ALT 3400FT", "CYEV 060900Z 06007KT 15SM BKN140 BKN240 03/M02 A3003 RMK AS7CI1 CI TR SLP177", "CYFB 060900Z 32017G24KT 30SM OVC015 M01/M02 A2992 RMK SC8 SLP137", "CYFC 060900Z AUTO 21004KT 9SM CLR 01/M00 A2999 RMK SLP157", "CYFT 060900Z 28006KT 5SM -SN BKN005 M04/M05 A2998 RMK ST7 SLP158", "CYGL 060900Z 29003KT 15SM FEW220 01/M01 A3033 RMK CI1 SLP282", "CYGP 060900Z 35003KT 330V040 15SM SCT070 04/01 A2997 RMK AC3 SLP153", "CYGR 060900Z 33012KT 20SM SCT090 04/02 A2985 RMK AC3 SLP109", "CYGV 060900Z AUTO 03010G17KT 9SM BKN240 03/M04 A2999 RMK SLP161", "CYGW 060900Z AUTO 24006KT 9SM OVC005 M01/M01 A3035 RMK SLP281", "CYGX 060900Z 07003KT 040V110 15SM FEW033 01/M01 A3039 RMK SC1 SLP302", "CYHD 060900Z AUTO 06007KT 9SM CLR 02/01 A3017 RMK SLP235", "CYHE 060929Z AUTO 28005KT 250V320 9SM -RA SCT011 BKN014 OVC045 10/09 A2993 RMK SLP138", "CYHK 060903Z AUTO 23006KT 1/2SM FZFG VV003 M06/M07 A3048 RMK ICE SLP328", "CYHM 060900Z 02007KT 15SM FEW100 FEW230 05/03 A3030 RMK AC1CI2 AC TR SLP268", "CYHU 060900Z AUTO 24004KT 9SM OVC086 07/05 A3021 RMK SLP233", "CYHY 060900Z 07002KT 15SM SCT030 BKN150 01/00 A2995 RMK SC3AC3 SLP152", "CYHZ 060900Z 29008KT 15SM FEW180 FEW250 02/M03 A2995 RMK AC1CI1 SLP148", "CYIN 060930Z AUTO VRB02KT 9SM -RA BKN055 OVC071 07/06 A2982 RMK SLP109", "CYIO 060900Z AUTO 14004KT 080V160 9SM BKN036 M10/M12 A3006 RMK SLP189", "CYIV 060900Z AUTO VRB02KT 9SM OVC081 07/01 A3032 RMK SLP280", "CYJT 060900Z 04004KT 15SM FEW030 FEW075 SCT180 BKN230 02/00 A2981 RMK SC1AC1AC2CI3 SLP096", "CYKA 060900Z 27006KT 30SM -SHRA SCT040 BKN100 OVC220 12/09 A2980 RMK SC4AC3CI1 CVCTV CLD EMBD SLP097", "CYKF 060908Z AUTO 01003KT 310V020 6SM BR SCT120 02/02 A3031 RMK SLP276", "CYKJ 060900Z AUTO 06003KT 9SM CLR M00/M02 A3029 RMK SLP277", "CYKL 060900Z AUTO 00000KT 9SM CLR M03/M05 A3006 RMK SLP205", "CYKP 060900Z AUTO 06008KT 9SM OVC100 05/01 A3034 RMK SLP278", "CYKY 060900Z 09012G18KT 15SM FEW090 BKN240 07/01 A2998 RMK AC2CI4 SLP159", "CYLH 060900Z AUTO 03003KT 9SM OVC100 M01/M01 A3034 RMK SLP291", "CYLL 060900Z AUTO 11014G21KT 9SM OVC091 10/02 A3007 RMK SLP194", "CYLW 060900Z AUTO 19004KT 9SM -RA OVC021 13/12 A2979 RMK SLP091 DENSITY ALT 1700FT", "CYMA 060900Z 01005KT 20SM OVC057 07/02 A2976 RMK SC8 SLP097", "CYMH 060929Z AUTO 33011G18KT 2 1/2SM -RA -UP BR SCT010 BKN013 OVC023 00/M00 A2983 RMK SLP102", "CYMM 060900Z AUTO 12009KT 9SM CLR 08/M00 A3014 RMK SLP217", "CYMO 060900Z AUTO 29003KT 9SM CLR 00/M01 A3035 RMK SLP280", "CYMT 060900Z AUTO 32004KT 9SM CLR 05/00 A3020 RMK SLP238", "CYMX 060900Z 00000KT 25SM FEW120 04/04 A3022 RMK AC1 SLP237", "CYNA 060900Z AUTO 34004KT 9SM CLR M00/M05 A2997 RMK SLP150", "CYNE 060900Z AUTO 07006KT 9SM OVC071 09/02 A3028 RMK SLP263", "CYNM 060900Z AUTO 30005KT 9SM OVC091 08/02 A3028 RMK SLP263", "CYOD 060900Z 09007KT 15SM BKN070 08/01 A3012 RMK AC5 DENSITY ALT 1214FT SLP209", "CYOJ 060900Z AUTO 12012KT 7SM CLR 18/03 A2992 RMK SLP137 DENSITY ALT 1700FT", "CYOO 060900Z AUTO 01003KT 9SM CLR 02/02 A3031 RMK SLP269", "CYOW 060900Z 30008KT 15SM FEW100 06/04 A3027 RMK AC1 AC TR SLP255", "CYPA 060900Z 12010KT 15SM SKC 04/01 A3019 RMK SLP238", "CYPD 060900Z AUTO 32007KT 280V350 9SM SCT200 01/M00 A2987 RMK SLP123", "CYPE 060900Z 13012KT 15SM BKN028 15/M02 A2990 RMK SC8 SLP127 DENSITY ALT 2400FT", "CYPH 060900Z AUTO VRB03KT 9SM SCT120 M02/M03 A3031 RMK SLP267", "CYPL 060900Z AUTO 08007KT 9SM CLR 02/M01 A3028 RMK SLP270", "CYPO 060900Z AUTO 07002KT 9SM CLR M04/M05 A3045 RMK SLP317", "CYPQ 060928Z AUTO 00000KT 1 1/2SM BR CLR 01/01 A3031 RMK VIS VRB 3/4-3 SLP275", "CYPR 060900Z AUTO VRB02KT 9SM SCT013 OVC040 07/05 A2994 RMK SLP142", "CYPX 060900Z AUTO 31014KT 9SM OVC007 M01/M02 A3025 RMK SLP248", "CYPY 060900Z AUTO 14006KT 120V180 9SM CLR 13/01 A3015 RMK SLP218", "CYQA 060900Z AUTO 00000KT 9SM CLR 00/M00 A3032 RMK SLP276", "CYQB 060900Z 00000KT 30SM FEW210 10/01 A3012 RMK CI2 SLP202", "CYQD 060900Z AUTO 05005KT 9SM CLR 07/00 A3025 RMK SLP253", "CYQF 060900Z AUTO 10006KT 9SM CLR 07/M01 A2994 RMK SLP147", "CYQG 060900Z AUTO 09006KT 9SM CLR 08/05 A3026 RMK SLP251", "CYQH 060900Z 00000KT 20SM BKN120 12/04 A2969 RMK AC6 SLP063 DENSITY ALT 2800FT", "CYQI 060900Z 26004KT 15SM SCT250 04/02 A3002 RMK CS3 SLP168", "CYQK 060900Z 07006KT 15SM SKC 05/03 A3015 RMK SLP221", "CYQL 060900Z AUTO 06010G15KT 9SM FEW091 10/02 A2976 RMK SLP075 DENSITY ALT 3400FT", "CYQM 060900Z 23011KT 15SM BKN070 BKN220 02/M01 A2993 RMK AC7CI1 CI TR SLP141", "CYQQ 060900Z 30002KT 20SM -RA OVC031 10/09 A2993 RMK SC8 DENSITY ALT -364FT PCPN VRY LGT SLP135", "CYQR 060900Z 08013KT 15SM FEW110 08/01 A3003 RMK AC1 AC TR SLP183", "CYQT 060900Z 08012KT 4SM BR OVC003 06/05 A3018 RMK ST8 CIG RAG SLP230", "CYQU 060900Z 12011KT 15SM BKN055 16/M01 A2978 RMK FU6 FU SLP082 DENSITY ALT 3100FT", "CYQV 060900Z AUTO 03004KT 9SM FEW150 04/00 A3010 RMK SLP207", "CYQW 060900Z AUTO 09018G24KT 9SM BKN100 09/02 A3010 RMK SLP204", "CYQX 060913Z 35014G19KT 2 1/2SM -SN BR OVC004 M00/M01 A2972 RMK FG2NS6 SLP073", "CYQY 060900Z 24011KT 15SM BKN085 BKN150 02/M01 A2984 RMK AC5AC2 SLP108", "CYQZ 060900Z AUTO 15008KT 9SM OVC032 13/10 A2978 RMK SLP087 DENSITY ALT 2200FT", "CYRB 060900Z 00000KT 1/4SM R35/1100V1200FT/N FZFG VV001 M10/M11 A3025 RMK FG8 SLP252", "CYRJ 060900Z 29009KT 25SM FEW090 10/01 A3013 RMK AC2 SLP208", "CYRL 060900Z 08004KT 15SM FEW080 02/M01 A3021 RMK AC1 AC TR SLP247", "CYRQ 060900Z AUTO 33003KT 280V360 9SM CLR 10/02 A3016 RMK SLP218", "CYRT 060900Z 36007KT 15SM FEW002 FEW160 M08/M08 A3044 RMK ST1AC2 ST TR SLP315", "CYRV 060900Z AUTO 27002KT 9SM BKN046 OVC055 10/07 A2978 RMK SLP088", "CYSB 060916Z 04007KT 15SM SCT075 05/04 A3033 RMK AC4 SLP281", "CYSC 060900Z AUTO 19002KT 9SM CLR 03/02 A3017 RMK SLP223", "CYSF 060900Z AUTO 10003KT 070V130 9SM CLR 02/M00 A3029 RMK SLP268", "CYSJ 060900Z 04002KT 15SM FEW220 M03/M03 A2999 RMK CI1 SLP161", "CYSM 060900Z 14006KT 15SM SKC 14/01 A3010 RMK SLP200", "CYTE 060900Z AUTO 29015G22KT 9SM OVC016 M02/M04 A3009 RMK SLP197", "CYTH 060900Z 06004KT 15SM BKN058 03/00 A3034 RMK SC5 SLP286", "CYTL 060900Z AUTO 08003KT 040V110 9SM CLR 02/M00 A3039 RMK SLP304", "CYTR 060900Z 00000KT 15SM SKC 06/05 A3030 RMK DENSITY ALT -1060FT SLP264", "CYTS 060900Z 00000KT 15SM FEW160 M01/M02 A3034 RMK AC1 SLP287", "CYTZ 060900Z AUTO 26005KT 9SM CLR 07/06 A3032 RMK SLP271", "CYUA 060900Z AUTO VRB02KT ////SM OVC002 ///// A////", "CYUL 060900Z 21005KT 15SM SCT120 08/05 A3022 RMK CI1 SLP235", "CYUX 060900Z AUTO 32017G23KT 9SM CLR M07/M07 A3016 RMK SLP215", "CYUY 060900Z 00000KT 15SM FEW090 01/01 A3031 RMK AC1 SLP275", "CYVC 060900Z 04006KT 15SM SKC 02/M01 A3026 RMK SLP263", "CYVL 060900Z AUTO 09009G15KT 9SM OVC081 05/00 A2996 RMK SLP161", "CYVM 060900Z AUTO 01009KT 9SM -SN BKN041 BKN055 OVC079 M02/M04 A2978 RMK SLP085", "CYVO 060900Z AUTO VRB02KT 9SM CLR 05/03 A3029 RMK SLP271", "CYVP 060900Z VRB03KT 15SM SCT150 M00/M01 A3006 RMK AC3 SLP185", "CYVQ 060900Z 10004KT 30SM BKN150 07/01 A2989 RMK AC5 SLP126", "CYVR 060900Z 11007KT 12SM FEW008 FEW023 BKN058 BKN070 10/09 A2993 RMK SF1SC2SC3AC2 SF TR SLP139", "CYVT 060900Z AUTO 11006KT 9SM CLR 07/01 A3020 RMK SLP241", "CYVV 060900Z VRB03KT 15SM BKN032 OVC250 07/06 A3031 RMK SC7CI1 SLP271", "CYWE 060900Z AUTO 08011KT 9SM BKN130 OVC150 02/00 A3008 RMK ICE MISG SLP209", "CYWG 060900Z 06006KT 15SM SKC 07/02 A3012 RMK SLP207", "CYWK 060900Z AUTO 00000KT 9SM CLR M03/M05 A3006 RMK SLP201", "CYWL 060900Z 28006KT 15SM FEW080 09/06 A2980 RMK AC2 SLP094 DENSITY ALT 3300FT", "CYXC 060900Z 22006KT 25SM BKN120 11/08 A2977 RMK AC6 SLP074 DENSITY ALT 3500FT", "CYXE 060900Z 07010G17KT 15SM FEW100 08/02 A3009 RMK AC2 SLP205", "CYXH 060929Z AUTO 07012KT 9SM SCT096 SCT120 BKN140 10/02 A2982 RMK PCPN 45.5MM PAST HR SLP109", "CYXJ 060900Z 09014KT 6SM FU OVC089 17/00 A2978 RMK FU5AC3 SLP082 DENSITY ALT 3200FT", "CYXL 060900Z 07005KT 15SM FEW060 04/01 A3021 RMK SC1 SLP245", "CYXR 060900Z AUTO VRB03KT 9SM CLR 03/01 A3032 RMK SLP279", "CYXS 060900Z AUTO 18012KT 9SM BKN030 OVC038 14/09 A2977 RMK SLP081 DENSITY ALT 2900FT", "CYXT 060900Z 18008KT 5SM -RA BR FEW005 BKN025 OVC050 07/07 A2989 RMK SF1SC5SC2 SLP130", "CYXU 060900Z 07005KT 15SM SKC 06/03 A3029 RMK SLP264", "CYXX 060900Z 20005KT 8SM -RA FEW010 BKN027 OVC033 10/09 A2994 RMK SF1SC6SC2 SF TR -RA VRY LGT SLP142", "CYXY 060900Z 19010KT 15SM OVC100 04/00 A2977 RMK AS8 SLP111", "CYYB 060900Z AUTO 03007KT 9SM CLR 09/03 A3032 RMK SLP275", "CYYC 060900Z 01006KT 15SM BKN069 07/M03 A2990 RMK AC6 SLP129", "CYYD 060900Z AUTO VRB02KT 9SM FEW009 BKN021 OVC045 09/07 A2978 RMK SLP089", "CYYE 060900Z 31002KT 15SM BKN053 08/05 A2979 RMK FU7 SLP100", "CYYF 060900Z 18006KT 15SM -RA OVC044 12/11 A2980 RMK SC8 SLP094", "CYYG 060900Z 23008KT 15SM BKN093 04/M02 A2988 RMK AC6 SLP122", "CYYH 060900Z 35007KT 15SM FEW008 FEW170 SCT200 M08/M08 A3043 RMK ST1AS1CI1 SLP309", "CYYJ 060900Z VRB02KT 20SM BKN059 OVC074 09/09 A2994 RMK SC6AC2 SLP139", "CYYL 060900Z AUTO 09003KT 9SM CLR 03/M00 A3034 RMK SLP290", "CYYN 060900Z AUTO 11015G20KT 9SM CLR 07/02 A2993 RMK ICE MISG SLP143", "CYYQ 060900Z 21006KT 15SM FEW250 M01/M02 A3043 RMK CI1 SLP310", "CYYR 060900Z 29006KT 15SM FEW035 FEW260 M03/M05 A3000 RMK SC1CI1 DENSITY ALT -2048FT SLP163", "CYYT 060900Z 35013G19KT 3SM -FZDZ BR OVC005 M01/M01 A2965 RMK ST8 SLP048", "CYYU 060900Z 00000KT 15SM FEW080 00/M01 A3033 RMK AC1 AC TR SLP281", "CYYW 060900Z AUTO 35003KT 280V010 9SM OVC091 M01/M01 A3025 RMK SLP254", "CYYY 060900Z 23006KT 15SM BKN085 09/02 A3003 RMK AC5 SLP173", "CYYZ 060900Z 03004KT 15SM FEW260 06/04 A3031 RMK CI1 CI TR SLP270", "CYZE 060917Z AUTO 09004KT 9SM -RA OVC060 08/06 A3031 RMK SLP271", "CYZF 060900Z 09009KT 15SM FEW240 09/03 A3001 RMK CI2 SLP175", "CYZH 060900Z AUTO 10009KT 9SM CLR 12/M00 A2998 RMK SLP158", "CYZP 060900Z AUTO 26008KT 9SM OVC011 07/05 A2995 RMK SLP144", "CYZR 060900Z AUTO 13007KT 9SM CLR 07/05 A3027 RMK SLP256", "CYZS 060900Z 35022G28KT 15SM FEW030 FEW080 M05/M06 A3027 RMK SC1AC1 SC TR SLP257", "CYZT 060900Z 25003KT 15SM OVC027 08/07 A2997 RMK SC8 SLP152", "CYZV 060900Z 33005KT 30SM BKN220 BKN250 06/M01 A3004 RMK CI7CI1 CI TR SLP176", "CYZX 060900Z 00000KT 15SM FEW250 M01/M02 A3000 RMK CI2 DENSITY ALT -1869FT SLP161", "CYZY 060900Z AUTO 15004KT 9SM CLR 10/07 A2975 RMK SLP079 DENSITY ALT 2500FT", "CZBF 060900Z AUTO 32006KT 300V360 9SM OVC096 10/01 A2994 RMK SLP143", "CZCP 060900Z AUTO 05010KT ////SM ////// M02/M03 A3020", "CZCR 060900Z AUTO 22004KT 06/01 RMK AO1 SLP145 T00610011 56006", "CZDB 060900Z AUTO 02001KT M03/M04 RMK AO1 SLP148 T10301035 58010", "CZEL 060900Z AUTO 34004KT 02/02 RMK AO1 SLP276 T00230015 53007", "CZEV 060900Z AUTO 07009KT 03/M01 RMK AO1 SOG 42 7017 SLP182 T00341012", "CZFS 060900Z AUTO 30002KT 05/03 RMK AO1 SLP135 T00480028 56007", "CZHY 060900Z AUTO 06001KT 02/01 RMK AO1 SLP149 T00230009 53006", "CZKD 060900Z AUTO 06004KT 01/00 RMK AO1 SLP297 T00130000 54000", "CZMD 060900Z AUTO 07004KT 9SM FEW086 02/M00 A3035 RMK SLP291", "CZMJ 060900Z AUTO 12006KT 04/01 RMK AO1 SLP185 T00380005 50000", "CZOL 060900Z AUTO 13004KT 09/M00 RMK AO1 T00881003", "CZPC 060922Z AUTO 35015G20KT 9SM -RA BKN060 OVC077 08/05 A2982 RMK LTNG DIST E WSHFT AT 0902Z SLP110 DENSITY ALT 4200FT", "CZSJ 060900Z AUTO 08006KT 9SM SCT076 05/00 A3031 RMK SLP276", "CZSM 060900Z AUTO 15004KT 14/01 RMK AO1 SLP204 T01430011 53017", "CZSP 060900Z AUTO 22007KT 03/M01 RMK AO1 SLP121 T00271008 56018", "CZTB 060900Z AUTO 09009KT 06/06 RMK AO1 SOG 01 5003 SLP233 T00600055", "CZUM 060900Z AUTO 31007KT 9SM CLR M01/M04 A3000 RMK SLP179", "CZVL 060900Z AUTO 12009G17KT 9SM CLR 10/01 A2998 RMK SLP157", "CZZJ 060900Z AUTO 08009G16KT 11/M02 RMK AO1 SLP121 T01111019 52002", "DAAD 060900Z 09004KT 9999 SCT026 28/04 Q1017", "DAAE 060900Z 08004KT 8000 NSC 23/17 Q1012", "DAAG 060900Z 31007KT 290V350 9999 FEW026 BKN200 24/17 Q1013", "DAAJ 060900Z 24006KT CAVOK 28/M08 Q1022", "DAAP 060900Z 14009KT CAVOK 32/// Q1018", "DAAS 060900Z VRB02KT 8000 FEW026TCU SCT030 24/01 Q1019", "DAAT 060900Z 08016KT CAVOK 30/// Q1022", "DAAV 060900Z 33003KT CAVOK 23/15 Q1013", "DAAY 060900Z 23010KT 6000 NSC 25/M00 Q1018", "DABB 060900Z 03007KT CAVOK 21/17 Q1014", "DABC 060900Z 01003KT CAVOK 25/06 Q1017", "DABS 060900Z 32004KT CAVOK 27/M02 Q1018", "DABT 060900Z 16008KT CAVOK 26/M01 Q1018", "DAFH 060900Z 15014KT 9999 FEW040 BKN200 30/M04 Q1017", "DAOB 060900Z 21004KT 140V270 6000 NSC 26/M04 Q1016", "DAOF 060900Z 29018KT CAVOK 22/11 Q1011", "DAOI 060900Z 25009KT 6000 FEW023 BKN233 22/14 Q1014", "DAOL 060900Z 26012KT 9999 FEW026 SCT100 22/13 Q1015", "DAON 060900Z 35003KT 9999 FEW026 SCT233 21/08 Q1016", "DAOO 060900Z 29007KT 230V340 9999 FEW020 BKN030 22/14 Q1014", "DAOR 060900Z VRB02KT 6000 FEW033 BKN233 30/M05 Q1014", "DAOV 060900Z 25006KT 9999 SCT030 BKN233 19/08 Q1015", "DAOY 060900Z 17021KT 8000 NSC 24/M03 Q1016", "DATM 060900Z 13014KT 6000 DRSA NSC 36/02 Q1011", "DAUB 060900Z 10011KT 9999 FEW040 SCT100 28/08 Q1016", "DAUE 060900Z 15010KT 8000 NSC 31/M03 Q1014", "DAUG 060900Z 16009KT 140V200 9999 FEW040 SCT100 31/// Q1016", "DAUH 060900Z 16007KT CAVOK 34/// Q1014", "DAUI 060900Z 10011KT CAVOK 35/// Q1012", "DAUK 060900Z 16005KT CAVOK 30/01 Q1015", "DAUO 060900Z 13005KT 100V180 CAVOK 28/06 Q1015", "DAUT 060900Z 25004KT CAVOK 34/// Q1012", "DAUU 060900Z 17010KT CAVOK 34/// Q1013", "DAUZ 060900Z 14009KT CAVOK 28/M04 Q1019", "DBBB 060900Z 21005KT 170V250 9999 FEW011 SCT013 31/25 Q1013 NOSIG", "DFFD 060900Z 22008KT 170V260 CAVOK 33/20 Q1013 NOSIG", "DFOO 060900Z 23006KT 200V260 CAVOK 30/20 Q1014", "DGAA 060900Z 27006KT 230V310 9999 SCT017 FEW029TCU 30/25 Q1013 NOSIG", "DIAP 060930Z 27004KT 9999 SCT014 29/26 Q1013 NOSIG", "DIBK 060900Z 24006KT 9999 SCT013 27/23 Q1014 NOSIG", "DIYO 060900Z 24006KT 9999 SCT013 29/23 Q1013 NOSIG", "DNAA 060900Z 20004KT 9999 FEW009 25/22 Q1016 NOSIG", "DNIB 060900Z 15005KT 9999 SCT011 29/25 Q1015", "DNJO 060900Z 27012KT 9999 BKN008 23/20 Q1021", "DNKN 060900Z 26012KT CAVOK 34/18 Q1016 NOSIG", "DNMM 060900Z 20004KT 9999 SCT014 31/26 Q1015 NOSIG", "DNMN 060900Z 16011KT 9999 BKN012 30/23 Q1015", "DNYO 060900Z 30006KT 9999 BKN011 29/23 Q1013", "DRRM 060900Z 26012KT 210V300 CAVOK 33/19 Q1014", "DRRN 060900Z 24009KT 9999 TS FEW030 FEW050CB 29/17 Q1011 TEMPO 4000 TSRA", "DRRT 060900Z 24002KT CAVOK 33/18 Q1013", "DRZA 060900Z 08024KT 4500 BLDU NSC 37/05 Q1013", "DRZF 060900Z 12007KT 040V170 8000 NSC 40/03 Q1011", "DRZR 060900Z 27010KT 220V290 CAVOK 36/16 Q1014", "DTKA 060900Z 08007KT 040V120 9999 FEW020 27/13 Q1014 NOSIG", "DTMB 060900Z 15007KT 120V190 9999 FEW023 24/16 Q1017 NOSIG", "DTNH 060900Z 10012KT CAVOK 22/17 Q1017", "DTTA 060900Z 11008KT 060V150 9999 FEW026 25/14 Q1016", "DTTB 060900Z 10011KT CAVOK 25/15 Q1016", "DTTD 060900Z 12003KT CAVOK 27/06 Q1017", "DTTF 060900Z VRB02KT CAVOK 25/10 Q1018", "DTTG 060900Z 32003KT 280V360 9999 FEW030 27/08 Q1017 NOSIG", "DTTJ 060900Z 13007KT 090V160 CAVOK 25/12 Q1017 NOSIG", "DTTK 060900Z 20003KT 9999 FEW023 25/14 Q1017", "DTTL 060900Z 16006KT 9999 FEW020 21/15 Q1018", "DTTN 060900Z ///02KT 9999 FEW020 23/09 Q1016", "DTTR 060900Z 15015KT CAVOK 28/02 Q1018", "DTTX 060900Z 14006KT 100V170 9999 SCT033 23/15 Q1017", "DTTZ 060900Z 11011KT CAVOK 26/08 Q1016", "DXNG 060900Z 20007KT 9999 FEW006 29/20 Q1017", "DXSK 060900Z 22002KT CAVOK 29/24 Q////", "DXXX 060900Z 21006KT 170V240 9999 FEW015 31/25 Q1013 NOSIG", "EBAW 060920Z 15005KT 120V220 9999 FEW021 17/12 Q1017 NOSIG", "EBBE 060855Z AUTO 18005KT 9999 SCT070/// BKN085/// 17/12 Q1017 BLU", "EBBL 060855Z AUTO 18003KT 9999 NCD 18/12 Q1017 BLU", "EBBR 060920Z 19004KT 160V250 9999 SCT030 17/12 Q1017 NOSIG", "EBCI 060920Z 23006KT 200V260 9999 FEW022 17/11 Q1017 NOSIG", "EBCV 060918Z AUTO 18005KT 9999 FEW020/// SCT110/// BKN150/// 17/12 Q1016 BLU", "EBDT 060855Z AUTO 15003KT 9999 BKN091/// 17/12 Q1017 BLU", "EBFN 060855Z AUTO 16005KT 9999 FEW040/// SCT085/// BKN150/// 16/12 Q1016 BLU", "EBFS 060855Z AUTO 18006KT 9999 FEW016/// SCT075/// 15/11 Q1017 BLU", "EBLB 060855Z AUTO 19005KT 9999 FEW022/// SCT035/// 15/08 Q1018 BLU", "EBLG 060920Z VRB05KT 9999 SCT026 18/11 Q1017 NOSIG", "EBOS 060920Z 15006KT 130V190 9999 FEW018 SCT046 16/11 Q1016 NOSIG", "EDAC 060920Z 33007KT 290V010 9999 SCT012 BKN032 BKN037 14/11 Q1018", "EDAH 060920Z 09009KT 9999 -RA NSC 08/05 Q1021", "EDBC 060920Z AUTO 27010KT 9999 // FEW016/// BKN027/// 14/10 Q1018", "EDDB 060920Z AUTO 05008KT 9999 OVC007 08/07 Q1018 BECMG BKN011", "EDDC 060920Z AUTO 31009KT 280V340 9999 BKN011 12/11 Q1017 NOSIG", "EDDE 060920Z AUTO 34005KT 300V030 9999 FEW019 15/10 Q1018 NOSIG", "EDDF 060920Z AUTO VRB03KT 9999 FEW035 SCT043 18/10 Q1018 NOSIG", "EDDG 060920Z AUTO 13004KT 060V190 9999 BKN006 13/11 Q1018 BECMG SCT020", "EDDH 060920Z AUTO 07006KT 050V110 9999 OVC006 09/08 Q1019 NOSIG", "EDDK 060920Z AUTO 16004KT 070V220 CAVOK 18/11 Q1018 NOSIG", "EDDL 060920Z AUTO VRB02KT CAVOK 18/11 Q1017 NOSIG", "EDDM 060920Z AUTO 26005KT 220V310 9999 BKN017 BKN032 OVC049 15/12 Q1019 NOSIG", "EDDN 060920Z AUTO 31004KT 210V020 9999 FEW021 17/12 Q1018 NOSIG", "EDDP 060920Z AUTO 31009KT 9999 SCT016 SCT024 OVC030 14/10 Q1018 NOSIG", "EDDR 060920Z AUTO VRB03KT 9999 SCT013 17/13 Q1018 NOSIG", "EDDS 060920Z AUTO VRB03KT 9999 FEW025 SCT034 BKN041 16/11 Q1019 NOSIG", "EDDV 060920Z AUTO 32007KT 270V350 9999 OVC016 14/11 Q1018 NOSIG", "EDDW 060920Z AUTO VRB02KT 9000 FEW007 OVC012 13/10 Q1018 TEMPO SCT010", "EDFH 060920Z 33003KT 290V060 9999 SCT023 16/09 Q1018", "EDFM 060920Z 23004KT 170V300 CAVOK 19/12 Q1018", "EDGS 060920Z 28004KT 230V010 9999 BKN029 BKN045 14/08 Q1018", "EDHI 060920Z AUTO 07005KT 030V100 9999 // OVC007/// 10/08 Q1019", "EDHK 060920Z 10007KT 9999 OVC006 07/05 Q1020", "EDHL 060920Z 08006KT 060V120 9999 OVC007 07/06 Q1020", "EDJA 060920Z 36006KT 330V040 9999 SCT010 BKN025 15/12 Q1019", "EDLN 060920Z 13004KT 090V210 9999 FEW024 18/12 Q1017", "EDLP 060920Z VRB03KT 9999 FEW020 15/09 Q1018", "EDLV 060920Z VRB03KT CAVOK 18/12 Q1017", "EDLW 060920Z VRB02KT CAVOK 17/11 Q1018", "EDMA 060920Z 31003KT 250V010 9999 SCT017 SCT042 15/12 Q1019", "EDMO 060920Z AUTO VRB01KT 9999 // FEW017/// OVC031/// 15/11 Q1019", "EDNY 060920Z VRB02KT 9999 FEW018 BKN026 17/13 Q1018 RMK/G", "EDQM 060920Z 34005KT 310V020 9999 FEW018 SCT027 BKN040 14/10 Q1018", "EDSB 060920Z VRB02KT 9999 FEW019 SCT025 17/13 Q1018", "EDTL 060920Z 05003KT 320V130 9999 FEW026 18/12 Q1018", "EDTY 060920Z VRB03KT 9999 FEW021 17/11 Q1018", "EDVE 060920Z 33006KT 290V360 9999 SCT015 BKN028 BKN032 14/10 Q1018", "EDVK 060920Z VRB02KT 9999 SCT020 14/10 Q1018", "EDWE 060920Z 08005KT 040V100 9999 BKN007 14/12 Q1018", "EDXW 060920Z 11014KT 9999 BKN007 08/07 Q1020", "EEEI 060850Z 34007KT 300V040 9999 SCT046 07/M05 Q1032 NOSIG", "EEKE 060920Z 18009KT 9999 FEW048 07/M04 Q1033", "EEPU 060920Z AUTO 02005KT 290V070 9999 OVC061/// 07/M07 Q1032", "EETN 060920Z 30007KT 9999 SCT044 07/M04 Q1032 NOSIG", "EETU 060920Z AUTO 36007KT 330V030 9999 OVC066/// 06/M08 Q1030", "EFET 060920Z AUTO 17003KT 060V210 CAVOK 04/M07 Q1026", "EFHA 060920Z AUTO VRB03KT CAVOK 06/M10 Q1030", "EFHK 060920Z VRB04G14KT CAVOK 07/M09 Q1031 BECMG 21010KT", "EFIV 060920Z AUTO VRB05KT 9999 OVC031 05/M02 Q1026", "EFJO 060920Z 29008KT 9999 FEW040 05/M04 Q1028", "EFJY 060920Z AUTO VRB05KT CAVOK 06/M08 Q1030", "EFKE 060920Z AUTO 23007KT 180V260 CAVOK 07/M03 Q1028", "EFKI 060920Z AUTO 27008KT CAVOK 06/M05 Q1028", "EFKK 060920Z AUTO 25008KT 200V290 CAVOK 08/M10 Q1029", "EFKS 060920Z AUTO 32007KT CAVOK 04/M06 Q1026", "EFKT 060920Z AUTO VRB02KT CAVOK 05/M06 Q1026", "EFKU 060920Z AUTO 33007KT 290V010 CAVOK 07/M08 Q1029", "EFLP 060920Z AUTO 36007KT 320V040 9999 FEW047 05/M05 Q1030", "EFMA 060920Z AUTO 21009KT 180V250 CAVOK 06/M04 Q1032", "EFMI 060920Z AUTO 35005KT 280V060 CAVOK 06/M07 Q1030", "EFOU 060920Z AUTO 32007KT 280V360 CAVOK 08/M05 Q1028", "EFPO 060920Z AUTO VRB07KT 9999 VCSH //////CB 08/M06 Q1032", "EFRO 060920Z AUTO 23007KT 190V270 CAVOK 05/M05 Q1027", "EFSA 060920Z AUTO 31008KT 280V350 9999 SCT043 06/M04 Q1028", "EFSI 060920Z AUTO 24004KT 130V290 CAVOK 07/M10 Q1030", "EFTP 060920Z AUTO 28005KT 240V340 CAVOK 06/M08 Q1031", "EFTU 060920Z AUTO VRB04KT CAVOK 08/M07 Q1032", "EFUT 060920Z AUTO 35007KT 250V030 CAVOK 06/M07 Q1030", "EFVA 060920Z AUTO 24009KT 200V280 CAVOK 08/M06 Q1030", "EGAA 060920Z AUTO 15005KT 110V190 9999 BKN012 BKN040 12/10 Q1010", "EGAC 060920Z AUTO 17008KT 140V200 9999 -RADZ FEW016 BKN023 OVC036 13/10 Q1011", "EGAE 060920Z 15005KT 110V200 9999 FEW008 SCT013 BKN035 15/13 Q1010", "EGBB 060920Z 15006KT 3500 RADZ BKN005 BKN009 12/12 Q1013 REDZ", "EGBJ 060920Z 10004KT 060V170 9000 RA FEW017 BKN019 OVC025 14/12 Q1013", "EGCC 060920Z AUTO 15004KT 100V200 9999 SCT021 BKN028 BKN036 15/11 Q1012", "EGCK 060920Z 03004KT 9999 SCT017 BKN030 14/13 Q1011", "EGDM 060850Z AUTO 14012KT 4500 -RA OVC003/// 12/12 Q1012", "EGDR 060850Z AUTO 33006KT 9999 OVC004/// 13/13 Q1009", "EGDY 060920Z 15010KT 4000 -DZ SCT009 OVC016 13/13 Q1010 NOSIG RMK GRN GRN", "EGEO 060920Z 14009KT 100V170 9999 FEW022 14/08 Q1011", "EGFF 060920Z AUTO 11010KT 9999 OVC002 12/12 Q1010", "EGGD 060920Z AUTO 11009KT 090V160 6000 -RA OVC003/// //////TCU 12/12 Q1011 RERA", "EGGP 060920Z 14006KT 090V190 9999 SCT012 BKN022TCU 15/12 Q1012", "EGGW 060920Z AUTO 14007KT 9999 -RA OVC008 13/12 Q1014", "EGHC 060920Z 34008KT 9000 4000N VCFG FEW000 SCT004 BKN007 12/12 Q1009", "EGHE 060920Z 36005KT 5000 BR SCT001 BKN003 13/12 Q1010", "EGHH 060920Z 16008KT 3000 RA BR OVC003 12/12 Q1012", "EGHI 060920Z 14004KT 110V190 6000 -RA BKN006 13/12 Q1013", "EGHQ 060920Z 33003KT 260V010 9999 FEW007 SCT013 14/12 Q1009", "EGJA 060920Z 18014KT 9999 -RA BKN019 12/12 Q1012", "EGJB 060920Z 17013KT 9999 -RA FEW003 BKN015 13/12 Q1012", "EGJJ 060920Z 17016KT 9000 -RA SCT005 BKN017 13/13 Q1013 RERA", "EGKA 060920Z 14008KT 4000 -RA BKN008 12/12 Q1014", "EGKB 060920Z 18010KT 9999 -RA BKN010 13/11 Q1015", "EGKK 060920Z 18006KT 150V240 9999 -RA FEW008 BKN012 BKN030 14/12 Q1014", "EGLC 060920Z AUTO 20007KT 160V230 9999 -RA BKN016/// BKN021/// //////CB 15/12 Q1015", "EGLF 060920Z 14006KT 7000 -RA FEW008 BKN022 13/12 Q1014", "EGLL 060920Z AUTO 17006KT 7000 -RA SCT009/// BKN014/// //////CB 14/12 Q1014 TEMPO 4000 RA BKN009", "EGMC 060920Z 15006KT 120V200 9999 FEW012 BKN026 16/13 Q1015", "EGMD 060920Z 20009KT 9999 -RA SCT008 BKN033 14/13 Q1016", "EGNH 060920Z 15008KT 9999 FEW011 BKN042 15/12 Q1012", "EGNJ 060920Z 20005KT 160V250 9999 FEW008 SCT020 16/13 Q1014", "EGNM 060920Z 13006KT 090V160 9999 SCT011 14/11 Q1013", "EGNR 060920Z 15008KT 120V180 9999 SCT010 BKN023 14/11 Q1012", "EGNS 060920Z 07006KT 9999 FEW004 SCT025 BKN038 12/11 Q1011 NOSIG", "EGNT 060920Z 09005KT 030V180 6000 SCT006 14/12 Q1013", "EGNV 060920Z VRB03KT 9000 SCT010 15/11 Q1013", "EGNX 060920Z 17006KT 130V200 9999 SCT014 BKN044 14/10 Q1013", "EGOM 060850Z AUTO 10005KT 9999 BKN004/// SCT045/// BKN054/// 14/12 Q1012", "EGOP 060850Z AUTO 09006KT 9999 OVC010/// 14/12 Q1010", "EGOS 060850Z AUTO 14007KT 9999 OVC014/// 14/10 Q1012", "EGOV 060850Z AUTO 09004KT 9999 -DZ SCT004/// OVC020/// 13/12 Q1011", "EGPA 060920Z 15018KT 0900 R09/1400N FG FEW001 BKN002 09/08 Q1014", "EGPB 060920Z 15020G30KT 6000 -DZ FEW004 OVC006 08/06 Q1017 TEMPO 4000 BR", "EGPC 060920Z AUTO 14012KT 9999 BKN006/// 10/08 Q1014", "EGPD 060920Z AUTO 12009KT 0300 R16/0325N FG VV/// 08/08 Q1015", "EGPE 060920Z VRB01KT 9000 4000S VCFG FEW006 SCT018 BKN035 10/09 Q1013", "EGPF 060920Z AUTO 06009KT 9999 BKN009 OVC049 11/09 Q1012", "EGPH 060920Z 07008KT 3000 BR BKN002 09/09 Q1013", "EGPI 060920Z 15014KT 9999 OVC005 11/10 Q1011", "EGPK 060920Z 18008KT 150V210 9999 FEW015 SCT028 14/10 Q1012", "EGPL 060920Z 16017KT 9999 VCSH FEW008 BKN016 12/10 Q1010", "EGPN 060920Z 11007KT 3000 -DZ BR FEW002 SCT004 OVC005 09/09 Q1013", "EGPO 060920Z 15006KT 9999 FEW027 13/08 Q1011", "EGPU 060920Z 15008KT 9999 BKN008 10/10 Q1010", "EGQA 060850Z AUTO 07004KT 9999 BKN074/// SCT087/// 11/08 Q1013", "EGQK 060850Z AUTO 35004KT 9999 BKN078/// SCT098/// 10/08 Q1013", "EGQL 060850Z 07009KT 0350 FG OVC002 09/09 Q1013 RMK RED", "EGQM 060850Z AUTO 10003KT 6000 BR OVC002/// 10/10 Q1013", "EGQS 060920Z 11008KT 9999 FEW020 SCT070 BKN100 13/09 Q1013 NOSIG RMK BLU BLU", "EGSH 060920Z 17006KT 120V220 9999 FEW016 BKN042 16/12 Q1015", "EGSS 060920Z AUTO 14008KT 120V190 9999 BKN010 BKN034 15/12 Q1015", "EGSY 060920Z 09008KT 9000 BKN003 OVC004 13/12 Q1010", "EGTC 060920Z 14004KT 100V160 8000 -RA FEW010 SCT026 BKN033 13/12 Q1014", "EGTE 060920Z 16010KT 4500 BR BKN002 14/13 Q1010", "EGTK 060920Z 13007KT 6000 -RA BKN008 12/12 Q1013", "EGUB 060920Z 14008KT 8000 RA FEW011 OVC060 13/12 Q1013 TEMPO 6000 RA SCT010 RMK BLU TEMPO GRN", "EGUL 060855Z AUTO 16005KT M M SCT032 15/15 A2995 RMK AO2 SLP146 T01500148 52005 RVRNO VISNO RWY06 $", "EGUN 060925Z 14008KT 9999 FEW016 BKN028 OVC040 15/15 A2995 RMK AO2A CIG 026 RWY28 SLP145 $", "EGUW 060850Z AUTO 13007KT 9999 -RA BKN025/// SCT035/// 13/12 Q1015", "EGVA 060920Z AUTO 10008KT 9999 -RA BKN012 13/13 A2987 RMK AO2 BKN V FEW CIG 010 RWY27 SLP119 FZRANO $", "EGVN 060920Z 11008KT 5000 -RA BKN006 OVC012 13/12 Q1012 BECMG 9000 -RA BKN009 RMK YLO1 BECMG GRN", "EGVO 060850Z AUTO 14008KT 9999 -RA SCT007/// OVC054/// 12/12 Q1013", "EGVP 060920Z 14010KT 6000 RA FEW001 OVC004 12/12 Q1012 TEMPO 3000 RMK YLO2 TEMPO YLO2", "EGWC 060850Z AUTO 16004KT //// ///////// ///// Q////", "EGWU 060920Z 18006KT 9000 -RA SCT007 BKN050 BKN080 14/12 Q1014 TEMPO 6000 RA", "EGXC 060850Z 19005KT 9999 SCT012 BKN250 15/12 Q1014 RMK GRN", "EGXE 060850Z AUTO 17005KT 5000 BR OVC004/// 12/11 Q1013", "EGXS 060850Z AUTO 16005KT 9999 BKN005/// 14/12 Q1013", "EGXT 060850Z AUTO 19005KT 9999 FEW023/// BKN160/// 14/11 Q1013", "EGXV 060850Z AUTO 18003KT 9999 BKN007/// 14/12 Q1013", "EGXW 060850Z AUTO 15005KT 9999 OVC007/// 14/11 Q1013", "EGXZ 060850Z AUTO 15006KT 6000 BR OVC004/// 13/12 Q1013", "EGYD 060850Z AUTO 19006KT 9999 OVC009/// 13/11 Q1014", "EGYE 060850Z AUTO 16006KT //// ///////// ///// Q////", "EGYH 060850Z AUTO 19006KT 9000 BR FEW009/// 14/12 Q1014", "EGYM 060850Z AUTO 18007KT 9999 // BKN013/// 16/12 Q1014", "EGYP 060850Z 29023KT CAVOK 12/06 Q0992", "EHAK 060925Z AUTO 11018KT 060V130 9000 BKN001/// OVC002/// 08/08 Q1017", "EHAM 060925Z 16004KT 090V240 9999 FEW021 18/11 Q1016 NOSIG", "EHBK 060925Z AUTO 22005KT 160V260 9999 NSC 18/11 Q1017 NOSIG", "EHDL 060925Z AUTO 15003KT 120V260 9999 BKN082 OVC088 16/11 Q1017 BLU", "EHDV 060925Z AUTO 11014KT 4900 HZ SCT000/// 10/// Q1016", "EHEH 060925Z AUTO VRB03KT 9999 OVC190 18/11 Q1017 BLU NOSIG", "EHFD 060925Z AUTO 10016KT 4800 BR OVC002/// 09/08 Q1017", "EHFS 060855Z AUTO 09004KT 060V130 9999 NSC 14/12 Q1016", "EHGG 060925Z AUTO 09006KT 050V150 9999 SCT015 BKN018 16/13 Q1017 NOSIG", "EHGR 060925Z AUTO 13004KT 070V200 9999 FEW022 OVC180 18/13 Q1016 BLU", "EHHW 060925Z AUTO 10011KT 3500 BR SCT000/// SCT001/// BKN003/// 10/09 Q1017", "EHJA 060925Z AUTO 16007KT 9999 NSC 11/10 Q1015", "EHJR 060925Z AUTO 23006KT //// // ///////// 11/10 Q1016 RE// W10/H9", "EHKD 060925Z AUTO 23005KT 140V280 9999 OVC220 16/12 Q1016 BLU NOSIG", "EHKV 060925Z AUTO 24011KT 9999 NSC 11/10 Q1016", "EHLE 060925Z AUTO 14004KT 080V190 9999 FEW012 SCT023 17/13 Q1017 NOSIG", "EHLW 060925Z AUTO 18005KT 120V260 9999 SCT280 17/13 Q1017 BLU", "EHMA 060925Z AUTO 10008KT //// // NSC 14/11 Q1017 RE//", "EHMG 060925Z AUTO 18009KT 2800 BR FEW002 BKN004 12/11 Q1017", "EHPG 060925Z AUTO 17008KT 9999 NSC 12/11 Q1016", "EHRD 060925Z AUTO VRB03KT 4200 HZ FEW023 18/13 Q1016 NOSIG", "EHSA 060925Z AUTO 15009KT 7000 ///////// 12/11 Q1016 W09/H5", "EHSC 060925Z AUTO 16005KT 9999 ///////// 13/12 Q1017 W11/H4", "EHVK 060925Z AUTO 17004KT 100V200 9999 OVC200 17/12 Q1017 BLU", "EHVL 060925Z AUTO 14006KT 120V180 3800 BR FEW007 OVC009 14/12 Q1017 GRN", "EHWO 060925Z AUTO 11005KT 070V200 9999 BKN024 OVC088 18/11 Q1016 WHT", "EICK 060900Z 16009KT 9999 FEW018CB BKN021 12/11 Q1009 NOSIG", "EIDL 060900Z 15010KT CAVOK 14/08 Q1009", "EIDW 060900Z 14005KT 110V180 9999 FEW010 BKN032 13/10 Q1010 NOSIG", "EIKN 060900Z 16006KT 120V200 9999 SCT004 BKN006 11/11 Q1009 BECMG SCT006 BKN020", "EIKY 060900Z 17006KT 130V210 9999 SCT024 16/12 Q1009", "EIME 060900Z 18005KT 140V220 9999 FEW020 SCT031 BKN120 14/09 Q1010", "EINN 060900Z 16008KT 9999 FEW013 BKN060 15/11 Q1009 NOSIG", "EISG 060900Z 18005KT 120V240 9999 FEW014 14/11 Q1009", "EIWF 060900Z 17006KT 9999 BKN005 12/12 Q1010", "EKAH 060920Z AUTO 10015G25KT 9999 BKN050/// 09/02 Q1024", "EKBI 060920Z AUTO 08012KT 9999 -SHRA OVC014/// 06/04 Q1022", "EKCH 060920Z AUTO 09018KT 9999 NCD 10/01 Q1024 NOSIG", "EKEB 060920Z AUTO 10013KT 9999 OVC014/// 07/05 Q1021", "EKKA 060920Z AUTO 09015KT 9999 OVC076/// 07/02 Q1023", "EKOD 060850Z 09011KT 060V130 9999 -RA SCT012 BKN017 07/06 Q1022", "EKRK 060920Z 11017G27KT CAVOK 10/02 Q1024", "EKRN 060920Z AUTO 08020KT 9999 OVC120/// 08/M00 Q1024", "EKRS 060920Z AUTO VRB13KT //// // NCD 09/06 Q1023", "EKSB 060920Z AUTO 10011KT 9999 OVC011/// 08/06 Q1021", "EKSP 060920Z 09011KT 9999 -DZRA OVC008 07/06 Q1021", "EKVD 060850Z 08009KT 9999 -DZ BKN009 07/05 Q1022", "EKVG 060920Z AUTO 12017KT 7000 -DZ OVC004/// 07/07 Q1013 RMK OVC001/// WIND SKEID 13027KT", "EKVJ 060920Z 09013KT 9999 -DZ FEW020 BKN080 06/// Q1022", "EKYT 060920Z AUTO 10017KT 9999 BKN022/// 08/03 Q1025", "ELLX 060920Z 17005KT 130V220 9999 FEW012 15/12 Q1018 NOSIG", "ENAL 060920Z 09003KT 040V130 CAVOK 11/M04 Q1025", "ENAN 060920Z 17010KT 140V210 CAVOK 06/M02 Q1025", "ENAT 060920Z 22008KT 170V260 CAVOK 07/M05 Q1026 RMK WIND 700FT 22014KT", "ENBL 060920Z 13008KT 100V180 CAVOK 08/M08 Q1024", "ENBN 060920Z 18004KT 150V300 CAVOK 11/M06 Q1026", "ENBO 060920Z 11008KT CAVOK 07/M07 Q1026 NOSIG", "ENBR 060920Z 12006KT 070V160 CAVOK 11/M07 Q1023 NOSIG RMK WIND 1200FT 11013KT", "ENBS 060920Z AUTO 26016KT 9999 SCT030/// OVC040/// 02/M00 Q1024", "ENBV 060920Z AUTO 25015KT 9999 BKN026/// BKN031/// OVC039/// 04/01 Q1025", "ENCN 060920Z 08015KT 9999 FEW030 08/M02 Q1027", "ENDR 060920Z AUTO VRB02KT 9999NDV NCD 06/M01 Q1025 W///S5", "ENDU 060920Z 21005KT 170V260 9999 FEW050 06/M07 Q1026 NOSIG RMK WIND 1100FT 18007KT WIND 2200FT 15006KT", "ENEV 060920Z 19005KT 140V230 CAVOK 05/M06 Q1026 RMK WIND 1400FT VRB04KT", "ENFB 060920Z AUTO 14029KT 9999NDV OVC054/// ///// Q//// W///S4", "ENFL 060920Z 10009KT CAVOK 11/M02 Q1024", "ENGC 060920Z 15023KT CAVOK 08/01 Q1022 W07/S5", "ENGM 060920Z 19009G21KT 140V240 CAVOK 08/M07 Q1029 NOSIG", "ENHD 060920Z 11017KT CAVOK 12/M06 Q1023", "ENHE 060850Z 10004KT CAVOK 06/M02 Q1025 W///S2", "ENHF 060920Z AUTO 24010KT 9999 NCD 04/M01 Q1025 RMK WIND 1254FT 26013KT", "ENHK 060920Z AUTO 25003KT 180V300 9999 NCD 07/M02 Q1026", "ENHM 060920Z AUTO 14036KT //// FEW024/// SCT028/// OVC039/// 07/06 Q1021 W08/S/", "ENHV 060920Z AUTO 26012KT 9999 BKN027/// OVC080/// 05/M00 Q1025", "ENJS 060920Z 14039KT 9999 BKN020 07/02 Q1020 W07/S/", "ENKB 060920Z 10005KT 020V160 CAVOK 11/M05 Q1025 RMK WIND 745FT 11007KT", "ENKR 060920Z 29006KT 260V350 CAVOK 06/M00 Q1026 RMK WIND 731FT 30008KT", "ENLA 060920Z AUTO 10028KT 9999NDV OVC009/// 07/06 Q1018 W///S5", "ENLE 060920Z 10025KT 9999 BKN009 07/06 Q1019 W08/S5", "ENLK 060850Z 15007KT 9999 FEW035 06/M02 Q1026", "ENMH 060920Z AUTO 28013KT 9999 FEW027/// SCT034/// BKN127/// 05/02 Q1025", "ENML 060920Z VRB02KT CAVOK 11/M04 Q1025", "ENMS 060920Z 13005KT 070V210 CAVOK 09/M08 Q1026 RMK WIND 412FT VRB03KT", "ENNA 060920Z 36004KT 9999 FEW047 08/M05 Q1026 RMK WIND 1800FT 26010KT", "ENNE 060850Z 08004KT CAVOK 06/M02 Q1025 W///S4", "ENNM 060920Z AUTO 06008KT 9999 NCD 09/M04 Q1026", "ENOA 060920Z 15016KT 100V170 CAVOK 08/01 Q1022 W///S4", "ENOL 060920Z 15003KT 110V200 CAVOK 10/M04 Q1025 NOSIG", "ENOV 060920Z 25005KT 180V310 CAVOK 11/M07 Q1024 RMK WIND RWY24 01003KT WIND 2090FT 17008KT", "ENQA 060920Z AUTO 13016KT 9999NDV BKN066/// BKN110/// 08/01 Q1023 W10/S3", "ENQC 060920Z AUTO 11015KT 9999NDV OVC067/// 10/02 Q1023 W///S3", "ENQR 060920Z AUTO 13018KT 9999NDV OVC058/// 08/02 Q1022 W08/S4", "ENRA 060920Z 30005KT CAVOK 06/M08 Q1026", "ENRM 060920Z AUTO 18004KT 140V220 9999 NCD 09/M04 Q1026", "ENRO 060920Z AUTO 19009KT 150V220 9999 NCD 05/M07 Q1024", "ENRS 060920Z 13005KT 110V170 CAVOK 06/M03 Q1026", "ENRY 060920Z 11009KT 080V140 CAVOK 09/M06 Q1029", "ENSB 060850Z 13016KT 9999 -SN VV015 M01/M04 Q1010 RMK WIND 1400FT 13014KT", "ENSD 060920Z VRB02KT CAVOK 09/M03 Q1025 RMK WIND RWY26 07003KT WIND 1140FT VRB03KT", "ENSE 060920Z AUTO 14025KT //// OVC056/// 08/02 Q1023 W///S4", "ENSF 060920Z AUTO 14027KT 9999NDV OVC055/// ///// Q//// W///S4", "ENSG 060920Z 06007KT 020V100 CAVOK 06/M07 Q1025 RMK WIND 3806FT 12013KT", "ENSH 060920Z 11008KT CAVOK 05/M02 Q1026 RMK WIND 0150FT 12009KT", "ENSK 060920Z 14007KT CAVOK 06/M02 Q1026", "ENSL 060920Z AUTO 11035KT 9999NDV OVC016/// 07/03 Q1019 W05/S5", "ENSR 060920Z AUTO 18004KT 140V230 9999 NCD 06/M05 Q1026 RMK WIND RWY32 15003KT WIND 1118FT 18004KT", "ENSS 060920Z AUTO 26011KT 9999 BKN062/// OVC076/// 04/00 Q1025 RMK WIND 0500FT 26017KT", "ENTC 060920Z 21007KT CAVOK 04/M02 Q1026 NOSIG RMK WIND 2600FT 19006KT", "ENTO 060920Z 10006KT 060V150 CAVOK 08/M05 Q1029 NOSIG", "ENUG 060920Z AUTO 24020KT 9999NDV /// 07/01 Q1023 W///S4", "ENUN 060920Z AUTO 20015KT 9999NDV FEW130/// 06/01 Q1024 W07/S3", "ENVA 060920Z 24008KT CAVOK 08/M01 Q1026 NOSIG RMK WIND 670FT 31005KT", "ENVD 060920Z 28013KT 9999 FEW015 SCT060 06/01 Q1025", "ENWV 060920Z AUTO 11026KT 9999NDV OVC007/// 07/06 Q1018 W///S4", "ENZV 060920Z 10008KT 080V150 CAVOK 12/M06 Q1023", "EPBY 060900Z 08014KT 9999 -RA SCT037 BKN049 06/03 Q1022", "EPGD 060900Z 07010KT 040V100 CAVOK 07/M01 Q1025", "EPKK 060900Z 06011KT CAVOK 13/08 Q1017", "EPKT 060900Z 10011KT CAVOK 14/06 Q1016", "EPLB 060900Z 08016KT CAVOK 12/03 Q1023", "EPLL 060900Z 08016KT 9999 FEW040 10/03 Q1019", "EPMO 060900Z 08015KT 9999 FEW048 11/01 Q1022", "EPPO 060900Z 08011KT 9999 -RA OVC047 07/05 Q1019", "EPRA 060900Z 10016KT CAVOK 12/04 Q1021", "EPRZ 060900Z 09017KT CAVOK 15/07 Q1019", "EPSC 060900Z 07009KT 050V110 9999 -RA FEW043 07/05 Q1021", "EPSY 060900Z 10007KT 040V160 CAVOK 10/00 Q1025", "EPWA 060900Z 10014KT 9999 -RA NSC 11/01 Q1022 NOSIG", "EPWR 060900Z 07004KT 040V110 9000 RA FEW043 09/08 Q1017", "EPZG 060900Z 09009KT 050V120 5000 -RA BR OVC007 08/08 Q1018 RERA", "ESCF 060920Z 13008KT 060V160 9999 FEW039 06/M03 Q1031", "ESCM 060920Z 20005KT 160V250 CAVOK 08/M02 Q1032", "ESDF 060920Z 09016KT 9999 FEW043 09/00 Q1028", "ESGG 060920Z 12012KT CAVOK 09/M04 Q1027", "ESGJ 060920Z AUTO 11008KT 040V160 9999 NCD 07/M02 Q1028", "ESGP 060920Z 11010KT 090V150 CAVOK 10/M05 Q1027", "ESGT 060920Z AUTO 11010KT 070V160 9999 R15///// R33///// NCD 08/M06 Q1028", "ESIA 060920Z 09014KT CAVOK 06/M02 Q1030", "ESIB 060920Z 11009KT 080V140 CAVOK 08/M04 Q1029", "ESKM 060920Z AUTO 11006KT 080V150 9999 FEW160/// SCT190/// 09/M05 Q1029", "ESKN 060920Z 13009KT 110V210 9999 SCT036 06/M03 Q1032", "ESMK 060920Z 10019KT 9999 FEW017 09/02 Q1027", "ESMQ 060920Z AUTO 08012KT 050V120 9999 FEW029/// SCT033/// 07/M01 Q1030", "ESMS 060920Z 09019KT CAVOK 09/00 Q1024", "ESMT 060920Z AUTO 12011KT 080V150 9999 NCD 11/M02 Q1026", "ESMX 060920Z AUTO 07008KT 020V120 9999 R01///// R19/P2000N // FEW043/// 08/M03 Q1028", "ESND 060920Z AUTO 22008KT 170V300 9999 FEW120/// 08/M08 Q1027", "ESNG 060920Z AUTO 14006KT 110V200 9999 NCD ///// Q1025", "ESNK 060920Z AUTO 16010KT 9999 NCD ///// Q1028", "ESNL 060920Z AUTO 21005KT 170V250 9999 NCD 10/M10 Q1026", "ESNN 060920Z AUTO 14011KT 9999 SCT160/// 07/M00 Q1029", "ESNO 060920Z AUTO 18010KT 150V210 9999 NCD 06/M00 Q1028", "ESNQ 060920Z AUTO 20009KT 150V220 9999 NCD 03/M08 Q1024", "ESNS 060920Z 06007KT CAVOK 09/M06 Q1027", "ESNU 060920Z 18013KT CAVOK 06/M01 Q1029", "ESNV 060920Z AUTO 19005KT 150V230 9999 NCD 07/M05 Q1025", "ESNX 060920Z AUTO 19005KT 130V240 9999 NCD 08/M09 Q1025", "ESNZ 060920Z AUTO 20011KT 9999 FEW230/// 07/M07 Q1025", "ESOE 060920Z AUTO 10009KT 070V130 9999 NCD 07/M05 Q1031", "ESOH 060920Z AUTO VRB05KT 9999 NCD 08/M03 Q1030", "ESOK 060920Z AUTO 13008KT 090V190 9999 NCD 07/M04 Q1030", "ESOW 060920Z 19008KT 150V230 CAVOK 08/M04 Q1032", "ESPA 060920Z 14007KT CAVOK 08/M05 Q1028", "ESPE 060920Z AUTO VRB05KT 9999 NCD 09/M08 Q1026", "ESSA 060920Z 15006KT 040V180 CAVOK 06/M07 Q1032 NOSIG", "ESSB 060920Z 17004KT 140V240 CAVOK 07/M08 Q1032", "ESSD 060920Z AUTO 17005KT 110V220 9999 NCD 10/M06 Q1029", "ESSL 060920Z AUTO 12013KT 9999 SCT039/// 07/M03 Q1031", "ESSP 060920Z 12011KT 100V160 9999 SCT040 07/M03 Q1032", "ESST 060920Z AUTO 16009KT 9999 NCD 09/M05 Q1030", "ESSV 060920Z 11014KT 9999 FEW045 06/M05 Q1031", "ESTA 060920Z AUTO 10023KT 9999 FEW200/// 11/M02 Q1025", "ESTL 060920Z 12018KT CAVOK 11/M00 Q1026", "ESUP 060920Z AUTO VRB02KT 9999 BKN059/// ///// Q1027", "ESUT 060920Z AUTO VRB02KT 9999 FEW120/// 04/M07 Q1024", "ETAD 060925Z 22004KT 9999 FEW016 BKN080 BKN150 16/12 A3004 RMK AO2A SLP164", "ETAR 060855Z AUTO 31003KT 9999 FEW200 16/12 A3006 RMK AO2 SLP184 T01560122 50002", "ETEB 060855Z AUTO 27005KT 9999 FEW020 16/11 A3006 RMK AO2 SLP193 T01600107 52008 $", "ETGG 060920Z AUTO 12012G22KT 9999 // ////// 07/06 Q1020 ///", "ETHA 060920Z AUTO 03005KT 9999 // ////// 14/11 Q1019 ///", "ETHB 060920Z AUTO 35004KT 9999 // ////// 14/11 Q1018 ///", "ETHC 060920Z AUTO 27006KT 7000 // ////// 15/11 Q1018 ///", "ETHF 060920Z 08002KT 9999 FEW020 BKN320 16/10 Q1018 BLU+", "ETHL 060920Z 04002KT 9999 FEW020 BKN060 16/11 Q1019 BLU", "ETHN 060920Z 29005KT 9999 SCT022 BKN180 15/10 Q1018 BLU", "ETHS 060920Z AUTO 03004KT 6000 // ////// 12/10 Q1018 ///", "ETIC 060855Z AUTO 30008KT 9999 FEW025 SCT055 16/11 A3003 RMK AO2 SLP171 T01610108 52005 $", "ETIH 060910Z AUTO 25005KT 1800 HZ FEW022 SCT030 17/10 A3006 RMK AO2 SLP180 $", "ETIK 060910Z AUTO 30006KT 9999 SCT025 SCT210 17/12 A3006 RMK AO2 SLP181 FZRANO $", "ETMN 060920Z 15004KT 9000 SCT005 BKN013 10/08 Q1019 GRN", "ETNH 060920Z AUTO 08008KT 4900 // ////// 07/07 Q1019 ///", "ETNL 060920Z 08013KT 9999 -RA SCT013 BKN050 07/05 Q1020 BLU", "ETNN 060920Z 10004KT 9999 FEW030 BKN220 18/10 Q1017 BLU+", "ETNS 060920Z AUTO 09008KT 6000 // ////// 07/06 Q1020 ///", "ETNT 060920Z AUTO 10005KT //// // ////// 11/11 Q1018 ///", "ETNW 060920Z 30006KT 9999 BKN013 13/11 Q1018 GRN", "ETOU 060855Z AUTO 15003KT 9999 BKN085 18/18 A3007 RMK AO2 SLP185 60000 T01770175 52004", "ETSB 060920Z AUTO 15005KT //// // ////// 16/09 Q1018 ///", "ETSH 060920Z 33005KT 8000 BKN006 10/08 Q1017 YLO", "ETSI 060920Z AUTO 29005KT 5000 // ////// 16/11 Q1018 ///", "ETSL 060920Z VRB01KT 9999 SCT015 BKN035 BKN050 15/11 Q1019 BLU", "ETSN 060920Z 28005KT 9999 FEW020 SCT055 BKN210 16/10 Q1018 BLU+", "ETWM 060920Z AUTO 16005KT //// // ////// 16/12 Q1017 ///", "EVGA 060920Z 03008KT 320V070 CAVOK 06/M09 Q1031 NOSIG", "EVLA 060920Z AUTO 09011KT 060V120 CAVOK 08/M07 Q1030", "EVRA 060920Z VRB07KT CAVOK 07/M10 Q1031 NOSIG", "EVVA 060920Z AUTO 12008KT 070V160 CAVOK 08/M06 Q1031", "EYKA 060920Z 03005KT 310V080 CAVOK 10/M05 Q1028", "EYPA 060920Z 07011KT 030V100 CAVOK 09/M05 Q1029", "EYSA 060920Z 06009KT 010V080 CAVOK 07/M06 Q1030 NOSIG", "EYVI 060920Z 07007KT 340V120 CAVOK 09/M06 Q1028 NOSIG", "FABL 060900Z 05011KT 9000 -RA FEW015 OVC080 14/12 Q1023 NOSIG", "FACT 060900Z 34008KT 9999 FEW020 19/14 Q1017 NOSIG", "FACV 060843Z 22006KT CAVOK 14/07 Q1018", "FAEL 060900Z 24010KT 210V270 CAVOK 23/16 Q1012", "FAGG 060900Z 23008KT 190V290 9999 FEW030 18/14 Q1015", "FAJB 060900Z AUTO 33003KT //// // ////// 21/11 Q1026", "FAKM 060900Z 01010KT 9999 FEW060 FEW070CB SCT100 20/14 Q1021", "FAKN 060900Z 04003KT CAVOK 24/14 Q1023 NOSIG", "FALA 060900Z 35006KT 300V050 CAVOK 22/11 Q1026 NOSIG", "FALE 060900Z 35005KT 310V030 CAVOK 27/19 Q1013 NOSIG", "FALW 060900Z AUTO 03005KT //// // ////// 17/13 Q1017", "FAMM 060900Z 05005KT CAVOK 22/10 Q1024 NOSIG", "FAOR 060900Z 33012KT CAVOK 20/10 Q1026 NOSIG", "FAPE 060911Z 24018G28KT CAVOK 22/16 Q1012 NOSIG", "FAPN 060900Z AUTO 06002KT //// // ////// 22/14 Q1023", "FAPP 060900Z 04002KT CAVOK 25/12 Q1026 NOSIG", "FASB 060852Z 26003KT CAVOK 16/03 Q1018", "FASI 060900Z AUTO 02005KT //// // ////// 22/11 Q1030", "FAUP 060900Z 33005KT CAVOK 26/10 Q1018 NOSIG", "FAUT 060900Z 35005KT CAVOK 26/11 Q1015", "FAVV 060900Z AUTO 35009KT //// // ////// 23/11 Q1027", "FAWB 060900Z AUTO 03003KT //// // ////// 22/13 Q1024", "FBKE 060900Z 04008KT 010V090 CAVOK 28/10 Q1022", "FBPM 060900Z 10009KT 050V140 CAVOK 30/06 Q1022", "FBSK 060900Z 05007KT 020V100 CAVOK 25/11 Q1021 NOSIG", "FCBB 060900Z 08006KT 020V120 9999 FEW016 FEW030CB 29/22 Q1016 NOSIG", "FCOD 060900Z 26004KT 9999 FEW015 FEW030CB 28/25 Q1015", "FCPP 060900Z 15005KT 130V190 9999 FEW015 FEW030CB 28/25 Q1013 NOSIG", "FDSK 060900Z 01011KT CAVOK 26/16 Q1020 NOSIG", "FEFF 060900Z 21010KT 9999 FEW020 33/24 Q1013 NOSIG", "FGSL 060900Z 26002KT 8000 SCT010 FEW020CB 27/26 Q1015 NOSIG", "FHAW 060850Z 13015KT 9999 FEW022 27/21 Q1014 NOSIG RMK BLU BLU", "FIMP 060900Z 13007KT 9999 VCSH SCT015 28/23 Q1017", "FJDG 060855Z 15013G20KT 9999 FEW019 SCT080 BKN250 32/26 A2977 RMK SLP078 8/132 T03160256 57024", "FKKD 060900Z 09004KT 060V130 9999 SCT014 FEW016CB 28/23 Q1014 NOSIG", "FKKL 060900Z /////KT CAVOK 36/13 Q1013", "FKKN 060900Z 20004KT 9999 FEW013 27/21 Q1020", "FKKR 060900Z 26009KT 220V290 CAVOK 31/21 Q1012 NOSIG", "FKYS 060900Z VRB02KT 9999 TS BKN010 FEW020CB 24/22 Q1019 NOSIG", "FMCZ 060900Z AUTO 18010KT 150V210 9999 FEW025 SCT033 31/25 Q1015 NOSIG", "FMEE 060900Z AUTO 09010KT 9999 ///CB 29/23 Q1016 TEMPO VRB15G25KT 2500 SHRA", "FMEP 060900Z AUTO 13015KT CAVOK 28/23 Q1016 NOSIG", "FMMI 060930Z 04008KT 360V060 9999 BKN020 25/13 Q1022 NOSIG", "FMMT 060900Z 17006KT 110V210 9999 SCT017TCU 30/22 Q1017 NOSIG", "FMNA 060900Z 14012KT 9999 SCT020 32/19 Q1013", "FMNM 060900Z 22004KT 150V310 9999 FEW023 33/21 Q1015 NOSIG", "FMNN 060900Z 03004KT 9999 FEW020 31/// Q1014", "FMSD 060900Z 10012KT 9999 SCT020 SCT033 28/20 Q1017", "FNLU 060900Z 11004KT 8000 FEW022 BKN080 28/// Q1013 NOSIG", "FOGM 060900Z 00000KT 9999 BKN015 28/24 Q////", "FOGR 060900Z /////KT 9999 SCT010 28/24 Q////", "FOOG 060900Z 14004KT 100V180 9999 TS FEW010 FEW020CB 30/24 Q101 3", "FOOL 060900Z VRB02KT 9999 SCT011 29/25 Q1013 NOSIG", "FOON 060900Z /////KT 9999 SCT011 27/23 Q1015", "FOOT 060900Z 18004KT 9999 SCT010 BKN073 28/25 Q////", "FQBR 060900Z VRB02KT 9999 FEW018 27/18 Q1018", "FQCH 060900Z /////KT 9999 BKN015 24/17 Q1023", "FQIN 060900Z 07004KT 9999 SCT020 29/19 Q1019", "FQLC 060900Z 07007KT 9999 BKN016 22/11 Q1024", "FQMA 060900Z 02010KT 9999 FEW025 29/18 Q1017 NOSIG", "FQNP 060900Z 10003KT 9999 SCT020 26/16 Q1019", "FQPB 060900Z 16011KT 110V190 9999 SCT020 30/20 Q1017", "FQQL 060900Z 27005KT 9999 BKN018 SCT090 27/21 Q1019", "FQTT 060900Z 08004KT 9999 FEW020 30/17 Q1019", "FQVL 060900Z 12006KT 9999 SCT020 28/23 Q1019", "FQXA 060900Z 36009KT 320V040 CAVOK 27/18 Q1020", "FSIA 060900Z 11008KT 080V170 9999 SCT023 31/25 Q1010 NOSIG", "FTTA 060900Z 22006KT CAVOK 35/22 Q1012", "FTTD 060900Z 22004KT CAVOK 34/19 Q1013", "FTTJ 060900Z 34006KT 8000 NSC 37/11 Q1010 NOSIG", "FTTY 060900Z 04021KT 5000 BLSA SKC 34/09 Q1013", "FVCZ 060900Z 08005KT CAVOK 29/12 Q1024", "FVFA 060900Z 08009KT 050V110 CAVOK 27/11 Q1022 NOSIG", "FVJN 060900Z VRB02KT CAVOK 26/09 Q1025 NOSIG", "FVKB 060900Z 00000KT CAVOK 30/16 Q1019 NOSIG", "FVRG 060900Z 15007KT 060V200 CAVOK 25/04 Q1026 NOSIG", "FVWN 060900Z 33005KT CAVOK 26/12 Q1023", "FWCL 060900Z 32006KT 9999 FEW025 25/15 Q1021 BECMG SCT025", "FWKI 060900Z VRB02KT 9999 FEW025 24/10 Q1023 NOSIG", "FYGF 060900Z AUTO 34009KT //// // ////// 27/08 Q1024", "FYKM 060900Z AUTO 07009KT //// // ////// 31/10 Q1020", "FYKT 060900Z 27004KT CAVOK 26/M01 Q1019", "FYLZ 060900Z AUTO 18008G24KT //// // ////// 19/12 Q1016", "FYOA 060900Z AUTO 04002KT //// // ////// 29/08 Q1018", "FYWB 060900Z 36003KT 9999 OVC012 14/12 Q1018", "FYWH 060900Z 00000KT CAVOK 25/05 Q1025 NOSIG", "FYWW 060900Z 00000KT CAVOK 24/03 Q1024", "FZAA 060900Z 22004KT 8000 SCT018 28/22 Q1016 NOSIG", "GABS 060900Z 22008KT 180V250 CAVOK 32/20 Q1013 NOSIG", "GAKD 060900Z 32010KT CAVOK 33/17 Q1011", "GAMB 060900Z 22012KT CAVOK 35/19 Q1011", "GANR 060900Z 28008KT CAVOK 35/18 Q1012", "GBYD 060900Z 36009KT CAVOK 26/20 Q1012", "GCFV 060900Z 01020KT 9999 SCT030 22/14 Q1020", "GCGM 060900Z 01007KT 290V080 9999 FEW025 21/13 Q1022 RMK R09/VRB06KT ARP/02007KT 300V100", "GCHI 060900Z 36011KT 330V030 9999 FEW018 SCT030 BKN040 21/17 Q1022", "GCLA 060900Z 03013KT 9999 SCT025 BKN035 22/18 Q1023", "GCLP 060900Z 01026G36KT 9999 FEW030 SCT038 22/15 Q1021 NOSIG", "GCRR 060900Z 01020KT 9999 BKN030 23/14 Q1020", "GCTS 060900Z 29008KT 250V320 9999 SCT036 23/14 Q1021 NOSIG", "GCXO 060900Z 31016KT 280V340 9999 BKN008 17/15 Q1023 REDZ NOSIG", "GECE 060900Z AUTO VRB04KT CAVOK 22/14 Q1015", "GEML 060900Z 31007KT 230V350 CAVOK 25/12 Q1015", "GFLL 060900Z VRB03KT 9999 SCT011 27/25 Q1012", "GGOV 060900Z 25004KT 160V300 8000 FEW010 28/23 Q1012 NOSIG", "GLRB 060900Z 30005KT 9999 FEW012 27/24 Q1012 NOSIG", "GMAD 060900Z 20003KT 140V240 8000 OVC023 20/16 Q1015 NOSIG", "GMAG 060900Z 31014KT 5000 BKN014 18/15 Q1015 NOSIG", "GMAT 060900Z 02021KT 9999 BKN017 19/13 Q1017 NOSIG", "GMFB 060900Z 04016KT CAVOK 23/02 Q1018 NOSIG", "GMFF 060900Z 33007KT 290V360 CAVOK 19/09 Q1019 NOSIG", "GMFK 060900Z 36014KT CAVOK 27/03 Q1016 NOSIG", "GMFM 060900Z 31006KT 270V350 5000 FEW010 SCT016 18/11 Q1019 NOSIG", "GMFO 060900Z VRB03KT 9999 FEW050 SCT200 23/03 Q1016 NOSIG", "GMMB 060900Z VRB03KT 6000 SCT020 20/12 Q1019 NOSIG", "GMMC 060900Z 36004KT 6000 BKN016 21/12 Q1018", "GMMD 060900Z 24004KT CAVOK 20/11 Q1018 NOSIG", "GMME 060900Z 31004KT 240V040 5000 SCT016 21/13 Q1018 NOSIG", "GMMH 060900Z 02021KT 8000 FEW016 20/14 Q1019 NOSIG", "GMMI 060900Z 07013KT 030V110 6000 FEW023 21/13 Q1018 NOSIG", "GMML 060900Z 03020KT 7000 SCT030 22/13 Q1019 NOSIG", "GMMN 060900Z 08005KT 040V150 9999 SCT020 20/13 Q1019 NOSIG", "GMMW 060900Z VRB03KT CAVOK 22/09 Q1015", "GMMX 060900Z VRB03KT 8000 SCT023 21/13 Q1018 NOSIG", "GMMZ 060900Z 24005KT 9999 FEW040 SCT100 24/05 Q1014 NOSIG", "GMTA 060900Z 35008KT 320V030 CAVOK 22/15 Q1015 NOSIG", "GMTN 060900Z 25017KT 210V270 CAVOK 25/15 Q1015 NOSIG", "GMTT 060900Z 23009KT 8000 SCT016 21/18 Q1017 NOSIG", "GOBD 060900Z 35013KT 8000 NSC 25/20 Q1013 NOSIG", "GOGG 060900Z 32004KT CAVOK 27/24 Q1013", "GOGS 060900Z 32006KT CAVOK 27/21 Q1012", "GOOD 060900Z 34006KT CAVOK 26/19 Q1012", "GOOK 060900Z 32006KT CAVOK 27/17 Q1011", "GOOY 060900Z 36016KT CAVOK 25/20 Q1013", "GOSM 060900Z 32006KT CAVOK 34/10 Q1009", "GOSP 060900Z 04004KT CAVOK 30/12 Q1011", "GOSS 060900Z 36008KT CAVOK 25/19 Q////", "GOTK 060900Z 22008KT CAVOK 31/19 Q1012", "GOTT 060830Z 24010KT CAVOK 30/18 Q1011", "GQNO 060900Z 01016KT 6000 NSC 25/12 Q1012 NOSIG", "GQPP 060900Z 02026KT 8000 NSC 21/13 Q1016 NOSIG", "GUCY 060900Z VRB02KT 9999 BKN015 FEW023TCU 29/25 Q1013 NOSIG", "GVAC 060900Z 04016KT 9999 SCT013 BKN015 23/18 Q1017 NOSIG", "GVBA 060900Z 04019KT 9999 BKN014 24/18 Q1016 NOSIG", "GVNP 060900Z 02023KT 9999 SCT017 23/18 Q1015 NOSIG", "GVSV 060900Z 05029KT 9999 FEW020 24/16 Q1015 NOSIG", "HAAB 060900Z 19002KT 9999 SCT025 23/13 Q1027 NOSIG", "HBBA 060900Z 20005KT 9999 SCT025TCU 30/23 Q1017", "HCMF 060900Z 06020KT CAVOK 32/28 Q1007", "HDAM 060900Z 070/14KT 9999 SCT023 35/22 Q1008", "HEAT 060900Z 32013KT CAVOK 27/07 Q1015 NOSIG", "HEAX 060900Z 27009KT 9999 SCT020 23/13 Q1012 NOSIG", "HEBA 060900Z 28007KT 9999 SCT020 22/15 Q1011 NOSIG", "HEBL 060900Z 36012KT CAVOK 32/05 Q1013 NOSIG", "HECA 060900Z 25012KT 9999 SCT025 27/07 Q1011 NOSIG", "HECP 060900Z 25011KT 9999 SCT020 SCT025 16/07 Q1012 NOSIG", "HEGN 060900Z 01013KT 6000 NSC 30/03 Q1010 NOSIG", "HEIS 060900Z 33005KT CAVOK 26/12 Q1012", "HELX 060900Z 28009KT 6000 NSC 31/04 Q1013 NOSIG", "HEMA 060900Z 36013KT CAVOK 29/12 Q1011 NOSIG", "HEMM 060900Z 28021KT 9999 SCT020 SCT022 21/14 Q1012 NOSIG", "HEPS 060900Z 27002KT 9999 FEW025 23/15 Q1012 NOSIG", "HESG 060900Z 28014KT CAVOK 29/04 Q1012 NOSIG", "HESH 060900Z 09007KT 8000 NSC 31/07 Q1010 NOSIG", "HESN 060900Z 36011KT CAVOK 32/03 Q1013 NOSIG", "HESW 060900Z 29014KT 9999 SACT025 22/10 Q1015", "HESX 060900Z 52015KT 9999 SCT020 27/07 Q1011 NOSIG", "HETR 060900Z 29017KT 3000 SA NSC 27/16 Q1011", "HKJK 060900Z 13004KT 9999 BKN024 22/14 Q1024 NOSIG", "HKKI 060900Z 28003KT 9999 FEW026 27/17 Q1019", "HKML 060900Z 18010KT 9999 BKN023 30/25 Q1014", "HKMO 060830Z 17011KT 9999 FEW025CB SCT080 30/23 Q1014 NOSIG", "HKNW 060900Z 15008KT 9999 BKN026 23/14 Q1025", "HRYR 060930Z 15007KT 090V190 9999 BKN025 25/18 Q1022 NOSIG", "HRZA 060900Z 24005KT 9999 SCT025 25/19 Q1023 NOSIG", "HTDA 060900Z 18008KT 9999 SCT024 BKN026 31/24 Q1016 NOSIG", "HTMW 060900Z 10010KT 9999 FEW026 FEW027CB SCT100 28/18 Q1019 NOSIG", "HTZA 060900Z 22011KT 9999 SCT012 BKN080 29/26 Q1015 NOSIG", "HUEN 060900Z 18012KT 9999 FEW022 FEW024CB 26/20 Q1019 NOSIG", "K04V 060915Z AUTO 28009KT 10SM CLR 01/M10 A3005 RMK AO2", "K04W 060859Z AUTO 03006KT 10SM OVC033 06/05 A3001 RMK AO2", "K05U 060910Z AUTO 00000KT 9SM M02/M02 A2999 RMK A01", "K06C 060915Z AUTO 13006KT 10SM OVC095 17/10 A3008 RMK AO2 T01650095", "K06D 060915Z AUTO 08010KT 10SM BKN055 BKN065 OVC095 07/05 A3003 RMK AO2", "K08D 060915Z AUTO 06009KT 10SM FEW045 06/05 A2996 RMK AO2", "K0A0 060915Z AUTO 12005KT 10SM CLR 09/M12 A3003 RMK AO2", "K0A9 060915Z AUTO 00000KT 10SM CLR 10/08 A3023 RMK AO2", "K0E0 060915Z AUTO 22008KT 10SM CLR 07/M11 A3008 RMK AO2 T00711115", "K0F2 060915Z AUTO 10SM CLR 20/12 A2983 RMK AO2 T01950121", "K0J4 060858Z AUTO 06004KT 10SM CLR 18/15 A3011 RMK AO2 SLP194 T01780150 55002", "K0R0 060915Z AUTO 00000KT 4SM BR OVC003 21/20 A3005 RMK AO2", "K0S9 060915Z AUTO 00000KT 10SM OVC017 09/08 A2995 RMK AO2", "K0V4 060915Z AUTO 09008KT 10SM SCT080 07/07 A3026 RMK AO1", "K0VG 060915Z AUTO 00000KT 10SM CLR 08/08 A3023 RMK AO2", "K10G 060915Z AUTO 05004KT 7SM CLR 09/02 A3025 RMK AO2", "K12N 060854Z AUTO 00000KT 06/04 A3027 RMK AO1 SLP251 T00560039 53004 $", "K13K 060915Z AUTO 14010KT 2SM BR OVC002 19/19 A2979 RMK AO2 T01940193", "K14Y 060915Z AUTO 08008KT 10SM OVC013 07/05 A2996 RMK AO2", "K15M 060915Z AUTO 00000KT 9SM OVC017 15/14 A3011 RMK AO2 T01470138 $", "K17J 060915Z AUTO 06003KT 10SM CLR 17/12 A3011 RMK AO2 T01690124", "K18A 060915Z AUTO 00000KT 10SM -RA SCT070 OVC100 13/12 A3028 RMK AO2 T01330124", "K18H 060915Z AUTO 14018G23KT 3SM BR BKN011 25/24 A2994 RMK A01", "K19S 060915Z AUTO 28009KT 10SM CLR 12/01 A2979 RMK AO2 T01250011", "K1A5 060910Z AUTO 00000KT 10SM SCT090 OVC120 10/09 A3027 RMK AO2 T01030094", "K1A6 060915Z AUTO 00000KT 10SM BKN120 09/09 A3022 RMK AO2 T00860085", "K1A9 060915Z AUTO 00000KT 10SM SCT070 15/12 A3012 RMK AO2 T01470123", "K1AM 060855Z AUTO 00000KT 10SM SCT065 OVC085 08/08 A2974 RMK AO2 RAE06RAB07E52 SLP070 P0001 60002 T00810080 57011 $", "K1BM 060855Z AUTO 23009KT 10SM BKN100 OVC150 08/07 A2974 RMK AO2 DZE0756RAB0756E05DZB05E08RAB08E28 SLP069 P0001 60001 T00780072 58007 $", "K1BN 060855Z AUTO 00000KT 10SM CLR 06/04 A2993 RMK AO2 SLP143 T00550038 56010 $", "K1BW 060855Z AUTO 15005KT 10SM FEW120 05/04 A2990 RMK AO2 SLP097 T00510041 58001 $", "K1CM 060855Z AUTO 18004KT 10SM FEW095 BKN140 BKN160 07/06 A2975 RMK AO2 SLP074 60001 T00670055 58009 $", "K1CN 060855Z AUTO 06010KT 10SM CLR 06/04 A2991 RMK AO2 SLP136 T00610039 56010 $", "K1CW 060855Z AUTO 00000KT 10SM CLR 08/07 A2985 RMK AO2 SLP081 T00840069 58001 $", "K1DM 060855Z AUTO 22009KT 10SM BKN060 BKN085 BKN180 09/07 A2974 RMK AO2 SLP068 60000 T00860069 57011 $", "K1DN 060855Z AUTO 07012KT 10SM CLR 06/04 A2836 RMK AO2 SLP605 T00640042 56012 $", "K1EM 060855Z AUTO 21005KT 10SM OVC055 10/06 A2973 RMK AO2 SLP059 60000 T00990064 57010 $", "K1EN 060855Z AUTO 07012KT 10SM CLR 07/04 A2968 RMK AO2 SLP065 T00690035 56012 $", "K1EW 060855Z AUTO 00000KT 10SM CLR 04/03 A2986 RMK AO2 SLP075 T00380032 50001 $", "K1F0 060915Z AUTO 00000KT 3/4SM BR BKN002 20/20 A2982 RMK AO2 T02010198", "K1FW 060855Z AUTO 00000KT 7SM CLR 04/04 A2984 RMK AO2 SLP069 T00420041 50003 $", "K1GM 060855Z AUTO 00000KT 7SM -RA FEW010 SCT016 SCT023 OVC035 07/07 M RMK AO2 SLPNO P0006 60018 T00700066 $", "K1GN 060855Z AUTO 08012KT 10SM CLR 07/05 A2990 RMK AO2 SLP142 T00650045 57008 $", "K1H2 060915Z AUTO 11005KT 10SM BKN032 OVC041 15/11 A3009 RMK AO2 T01520110", "K1HM 060855Z AUTO 28003KT 10SM -RA FEW006 FEW042 OVC060 09/07 A2971 RMK AO2 SLP066 P0002 60008 T00870073 57009 $", "K1HN 060855Z AUTO M 10SM CLR 08/04 A2990 RMK AO2 SLP135 T00810041 57014 $", "K1HW 060855Z AUTO 28007KT 5SM BR CLR 06/05 A2983 RMK AO2 SLP074 60000 T00570054 50008 $", "K1IM 060855Z AUTO 20005KT 10SM -RA FEW014 OVC055 09/09 A2971 RMK AO2 SLP064 P0004 60008 T00910089 58009 $", "K1IN 060855Z AUTO 07011KT 10SM CLR 06/03 A2993 RMK AO2 SLP146 T00600033 57008 $", "K1IW 060855Z AUTO 29007KT 4SM BR CLR 05/05 A2983 RMK AO2 DZB12E25 SLP072 P0000 60000 T00510047 50008 $", "K1JM 060855Z AUTO 01003KT 10SM -RA BKN023 BKN050 BKN070 OVC085 09/08 A2972 RMK AO2 CIG 023V080 SLP070 P0000 60004 T00870076 58003 $", "K1JN 060855Z AUTO 07006KT 10SM CLR 04/04 A2995 RMK AO2 SLP154 T00440041 57008 $", "K1JW 060855Z AUTO 29005KT 10SM CLR 05/04 M RMK AO2 SLPNO T00520039 $", "K1KM 060855Z AUTO 20003KT 10SM FEW085 BKN220 07/05 A2977 RMK AO2 SLP083 T00670049 58006 $", "K1KN 060855Z AUTO 06007KT 10SM CLR 05/03 A2996 RMK AO2 SLP155 T00460033 57007 $", "K1LN 060855Z AUTO 10008KT 10SM CLR 05/05 A2998 RMK AO2 SLP160 T00510050 58001 $", "K1LW 060855Z AUTO 33004KT 10SM CLR 06/05 A2987 RMK AO2 SLP078 T00570045 50003 $", "K1M4 060856Z AUTO 13004KT 10SM OVC018 14/14 A3013 RMK AO2 SLP193 T01440139 50001", "K1M5 060915Z AUTO 16004KT 10SM OVC055 14/13 A3013 RMK A01", "K1MM 060855Z AUTO 14007KT 10SM OVC140 08/06 A2974 RMK AO2 SLP073 60001 T00780058 58009 $", "K1MN 060855Z AUTO 07009KT 10SM CLR 06/05 A2996 RMK AO2 SLP154 T00580048 55003 $", "K1MW 060855Z AUTO 30005KT 10SM CLR 04/04 A2985 RMK AO2 SLP076 T00430042 50002 $", "K1NW 060855Z AUTO 32004KT 10SM CLR 04/04 A2985 RMK AO2 SLP071 T00400040 50002 $", "K1OM 060855Z AUTO 14008KT 10SM -RA BKN030 BKN038 OVC046 10/09 A2974 RMK AO2 RAB38 SLP068 P0001 60001 T00960087 55003 $", "K1OW 060855Z AUTO 00000KT 10SM CLR 04/02 A2999 RMK AO2 SLP118 T00420016 50002 $", "K1R7 060915Z AUTO 00000KT 1 3/4SM BR OVC003 19/19 A3004 RMK AO2 PWINO", "K1R8 060915Z AUTO 13005KT 10SM SCT013 OVC022 19/19 A3005 RMK AO2", "K1S3 060930Z AUTO 03003KT 10SM 11/11 A2977 ", "K1U7 060915Z AUTO 27014G23KT 10SM BKN036 OVC055 05/01 A2994 RMK A01", "K1V4 060854Z AUTO 02/01 A3020 RMK AO1 SLP227 T00220006 53002", "K1V6 060915Z AUTO 32007G14KT 10SM CLR 08/M05 A2989 RMK AO2", "K20U 060915Z AUTO 13011KT 10SM BKN070 OVC100 10/01 A2989 RMK AO2", "K20V 060915Z AUTO 00000KT 10SM SCT060 BKN070 OVC100 03/M01 A3003 RMK AO2", "K21D 060915Z AUTO 07005KT 10SM OVC010 12/11 A2997 RMK AO2", "K22N 060915Z AUTO 00000KT 10SM CLR 00/00 A3031 RMK AO2", "K24A 060905Z AUTO 15004KT 10SM OVC110 10/07 A3025 RMK AO2 T01000075", "K24J 060915Z AUTO 00000KT 10SM OVC048 20/18 A3010 RMK A01", "K28J 060915Z AUTO 00000KT 10SM OVC055 17/16 A3010 RMK AO2", "K2A0 060915Z AUTO 00000KT 9SM OVC085 13/13 A3018 RMK A01", "K2D5 060915Z AUTO 08013KT 10SM OVC016 11/07 A2989 RMK AO2", "K2DP 060855Z AUTO 00000KT 10SM CLR 07/07 A3022 RMK AO2 SLPNO T00700070 53007 $", "K2G2 060915Z AUTO 09004KT 10SM CLR 08/04 A3024 RMK A01", "K2G4 060915Z AUTO 12010KT 10SM CLR 07/03 A3027 RMK AO2", "K2G9 060915Z AUTO 33003KT 10SM CLR 01/00 A3028 RMK AO2", "K2I0 060915Z AUTO 17004KT 10SM OVC047 17/12 A3012 RMK AO2 T01700117", "K2IS 060915Z AUTO 02003KT 10SM CLR 20/19 A3007 RMK AO2 T01990188", "K2J5 060915Z AUTO 00000KT 10SM BKN080 OVC090 16/14 A3020 RMK AO2 T01610139", "K2J9 060915Z AUTO 05004KT 10SM CLR 16/15 A3011 RMK AO2", "K2M2 060915Z AUTO 14006KT 10SM BKN025 OVC046 13/11 A3011 RMK A01", "K2P2 060915Z AUTO 00000KT 10SM OVC085 07/07 A3015 RMK AO2 T00710071", "K2R9 060915Z AUTO 10007KT 5SM BR OVC008 25/23 A2992 RMK AO2 T02480232", "K2V5 060915Z AUTO 33008KT 10SM CLR 07/07 A2983 RMK AO2", "K2V6 060919Z AUTO 33007KT 10SM CLR 07/02 A2983 RMK AO2", "K2W6 060909Z AUTO 00000KT 1/4SM OVC001 06/06 A3029 RMK AO1", "K2WX 060856Z AUTO 12010G20KT 12/01 A2981 RMK AO1 SLP086 T01220011 53004", "K33N 060915Z AUTO 00000KT M1/4SM FG 08/08 A3027 RMK A01", "K33V 060915Z AUTO 00000KT 10SM CLR 00/M05 A3001 RMK AO1", "K35A 060915Z AUTO 00000KT 10SM SCT075 13/12 A3025 RMK A02 T01320123", "K38S 060930Z AUTO 30017G22KT 10SM 08/04 A2982 ", "K3AU 060915Z AUTO 14008KT 7SM SCT018 SCT025 21/20 A2975 RMK AO2", "K3D2 060915Z AUTO 16006KT 10SM SCT085 OVC100 11/06 A3012 RMK AO2 T01080061", "K3F3 060915Z AUTO 15008KT 10SM CLR 24/23 A2993 RMK AO2 T02380225", "K3K3 060915Z AUTO 29007KT 10SM 11/07 A2981 RMK AO2", "K3L4 060915Z AUTO 19007KT 4SM BR BKN006 OVC009 25/25 A2998 RMK A01", "K3N8 060915Z AUTO 07006KT 10SM CLR 07/05 A2997 RMK AO2 T00690045", "K3R7 060915Z AUTO 19003KT 10SM BKN011 BKN022 OVC034 25/25 A2999 RMK AO2 LTG DSNT W AND NW T02460246", "K3S8 060915Z AUTO 00000KT 10SM OVC034 09/06 A3001 RMK AO2", "K3T5 060915Z AUTO 17007KT 8SM -RA CLR 20/19 A2991 RMK AO2 P0000 T01970189 $", "K3U3 060930Z AUTO 33008KT 10SM 08/03 A2981 ", "K40B 060916Z AUTO 00000KT 01/01 A3007 RMK AO1 SLP194 T00100012 54000", "K40U 060915Z AUTO 00000KT 10SM SCT014 BKN035 OVC046 04/01 A2998 RMK AO2 T00370015", "K41U 060915Z AUTO 00000KT 5SM BR SCT001 00/00 A3002 RMK AO1 T00040004", "K42J 060915Z AUTO 04004KT 10SM OVC050 20/18 A3010 RMK A01", "K46D 060915Z AUTO 09010KT 10SM CLR 09/05 A2996 RMK AO2", "K46U 060915Z AUTO 00000KT 10SM FEW047 BKN065 01/M01 A2996 RMK A01", "K48A 060915Z AUTO 10005KT 10SM SCT023 OVC070 16/14 A3017 RMK AO2 T01640139", "K49A 060915Z AUTO VRB03KT 10SM FEW050 OVC075 12/12 A3019 RMK AO2", "K4A6 060915Z AUTO 00000KT 10SM SCT047 OVC060 13/13 A3017 RMK AO2", "K4A9 060915Z AUTO 01003KT 10SM SCT046 OVC060 15/11 A3016 RMK AO2 T01530111", "K4BM 060915Z AUTO 17013G21KT 10SM SCT110 00/M11 A3010 RMK AO2", "K4F2 060915Z AUTO 10010KT 10SM CLR 22/19 A2987 RMK AO2 T02210186", "K4I3 060915Z AUTO 05005KT 10SM CLR 09/04 A3024 RMK AO2", "K4M9 060915Z AUTO 12005KT 10SM BKN020 BKN034 OVC055 16/16 A3003 RMK AO2 PWINO", "K4MR 060855Z AUTO 27009KT 10SM CLR 14/M12 A2992 RMK AO2 SLP053 T01381124 52008 $", "K4O4 060915Z AUTO 07006KT 4SM BR BKN013 OVC018 22/22 A2989 RMK AO2", "K4R5 060915Z AUTO 02004KT 5SM BR OVC002 03/03 A3006 RMK AO2 T00300030", "K4S1 060915Z AUTO 18012G16KT 7SM CLR 10/09 A2999 RMK AO2", "K4S2 060915Z AUTO 00000KT 10SM SCT038 BKN044 OVC070 10/08 A2994 RMK AO2", "K4U6 060925Z AUTO 10020KT 10SM 12/01 A2983 RMK A01 Circle ", "K4V0 060915Z AUTO 12007KT 10SM SCT043 BKN070 OVC090 06/01 A2998 RMK AO2 T00640014", "K4V1 060915Z AUTO 21012KT 10SM CLR 10/M08 A2993 RMK AO2 T00981080", "K54J 060915Z AUTO 07004KT 10SM CLR 17/16 A3010 RMK AO2 T01740157", "K57C 060915Z AUTO 11004KT 10SM SCT080 OVC090 15/07 A3007 RMK AO2 T01450066", "K5A6 060915Z AUTO 00000KT 10SM 17/16 A3004 RMK AO2 T01720160", "K5C1 060915Z AUTO 12004KT 10SM OVC009 20/17 A2995 RMK AO1", "K5H4 060915Z AUTO 09010KT 10SM CLR 08/M04 A2996 RMK AO2", "K5R8 060915Z AUTO 30012G28KT 5SM RA SCT008 BKN015 OVC030 22/21 A3002 RMK AO2 P0008 T02190205", "K5SM 060915Z AUTO 24010G17KT 200V280 2SM -SN OVC002 M02/M03 A3011 RMK AO2", "K63S 060915Z AUTO 00000KT 10SM BKN018 OVC024 09/07 A2985 RMK A01", "K65S 060915Z AUTO 20005KT 4SM -RA BR FEW007 BKN027 OVC034 08/08 A2982 RMK AO2", "K66R 060915Z AUTO 00000KT 10SM CLR 19/17 A2994 RMK AO2 T01920169", "K6A1 060915Z AUTO 07003KT 10SM OVC065 15/14 A3017 RMK AO2 T01530138", "K6A2 060915Z AUTO 00000KT 10SM OVC060 14/13 A3018 RMK AO2", "K6B0 060915Z AUTO 00000KT 10SM CLR 02/02 A3025 RMK AO2 T00180018", "K6B9 060915Z AUTO 00000KT 9SM CLR 03/03 A3031 RMK AO2", "K6I2 060915Z AUTO 12006KT 10SM SCT100 14/09 A3017 RMK AO2", "K6P9 060915Z AUTO 20008KT 10SM CLR 20/14 A2988 RMK AO2 T01980139", "K6R3 060915Z AUTO 18006KT 10SM CLR 20/19 A2991 RMK AO2 LTG DSNT NE AND E T01970185", "K6S0 060915Z AUTO 00000KT 1/4SM FG OVC002 05/05 A2981 RMK A01", "K6S2 060915Z AUTO 00000KT 10SM SCT035 BKN075 OVC090 09/09 A2997 RMK AO2", "K6S8 060925Z AUTO 24005KT 10SM 07/07 A2981 RMK A01 Laurel ", "K77S 060915Z AUTO 00000KT 3SM BR SCT004 BKN021 OVC028 10/10 A2997 RMK A01", "K79J 060856Z AUTO 09003KT 10SM CLR 18/15 A3009 RMK AO2 SLP187 T01780150 56001", "K7BM 060915Z AUTO 00000KT 10SM SCT065 BKN075 03/M10 A3006 RMK AO2", "K7L2 060915Z AUTO 07009G15KT 10SM 10/06 A2985 RMK AO2", "K7W4 060915Z AUTO 10SM BKN075 OVC095 10/09 A3027 RMK AO1 T00950085", "K7W6 060905Z AUTO 00000KT 10SM CLR 09/08 A3025 RMK AO2 T00900080", "K81R 060915Z AUTO 18006KT 10SM CLR 20/15 A2991 RMK AO2 T02010154", "K82C 060915Z AUTO 00000KT 10SM BKN075 BKN085 13/13 A3001 RMK AO2 T01310131", "K82V 060910Z AUTO 19004KT 10SM 01/01 A2989 RMK AO2", "K8A0 060915Z AUTO 13003KT 10SM BKN040 BKN065 13/11 A3015 RMK AO2", "K8A3 060915Z AUTO 00000KT 10SM OVC065 15/10 A3016 RMK A01", "K8B0 060915Z AUTO 00000KT 10SM CLR 05/03 A3014 RMK AO2", "K8D3 060856Z AUTO 10006KT 12/06 A2988 RMK AO1 SLP106 T01220061 58001", "K8T6 060915Z AUTO 09007G13KT 050V120 6SM BR FEW011 BKN016 OVC027 25/25 A2990 RMK AO2", "K96D 060915Z AUTO 00000KT 10SM SCT100 07/05 A3006 RMK AO2", "K9A5 060915Z AUTO 00000KT 7SM OVC050 12/12 A3020 RMK AO2 T01210121", "K9D7 060915Z AUTO 07013KT 10SM BKN110 08/08 A3002 RMK AO2 TSNO", "K9L2 060855Z AUTO 20014KT 9SM CLR 10/04 A3000 RMK AO2 SLP151 T00950041 57003", "K9MN 060915Z AUTO 10006KT 10SM OVC011 14/14 A2994 RMK AO1 T01400140", "K9S9 060915Z AUTO 20007KT 10SM OVC050 09/08 A2995 RMK AO2 PWINO", "K9V9 060915Z AUTO 00000KT 10SM CLR 13/13 A2971 RMK AO2 T01330133", "KA39 060915Z AUTO 13004KT 10SM CLR 13/M02 A2998 RMK AO2", "KAAA 060915Z AUTO 15006KT 10SM BKN033 BKN039 OVC048 16/11 A3005 RMK AO2 T01560107", "KAAF 060853Z AUTO 00000KT 10SM CLR 18/17 A3007 RMK AO2 SLP183 T01780167 56002", "KAAO 060854Z AUTO 16012KT 7SM SCT020 23/21 A2973 RMK AO2 SLP055 T02330211 56007", "KAAS 060915Z AUTO 11004KT 10SM OVC090 13/10 A3021 RMK AO1", "KAAT 060918Z AUTO 14003KT 10SM BKN029 OVC060 04/02 A2997 RMK AO2 T00390017", "KABE 060851Z 00000KT 10SM CLR 04/03 A3028 RMK AO2 SLP255 T00440033 53004 $", "KABH 060855Z AUTO 06005KT 10SM CLR 07/01 A2991 RMK AO2 SLP076 T00650014 58002", "KABI 060852Z 17016G23KT 10SM -RA CLR 23/15 A2988 RMK AO2 SLP088 P0000 60000 T02330150 58000", "KABQ 060852Z 31004KT 10SM CLR 13/M09 A3006 RMK AO2 SLP114 T01281094 51008", "KABR 060853Z AUTO 09010KT 8SM OVC026 14/12 A2983 RMK AO2 SLP096 T01440117 58001", "KABY 060853Z AUTO 07005KT 10SM OVC090 18/14 A3014 RMK AO2 SLP206 T01830144 55001", "KACB 060915Z AUTO 08007KT 10SM OVC075 13/05 A3019 RMK AO2 T01290048", "KACJ 060915Z AUTO 06005KT 10SM FEW060 OVC100 16/15 A3015 RMK AO2 T01620150", "KACK 060853Z AUTO 29008KT 10SM CLR 09/08 A3014 RMK AO2 SLP207 T00940078 56006", "KACP 060915Z AUTO 21003KT 7SM OVC009 25/22 A2999 RMK AO2 LTG DSNT W AND NW", "KACQ 060915Z AUTO 10SM OVC013 13/13 A2992 RMK AO2", "KACT 060851Z AUTO 21008KT 10SM CLR 20/16 A2986 RMK AO2 SLP103 T02000156 53019", "KACV 060853Z AUTO 00000KT 10SM FEW005 BKN020 OVC026 09/09 A3002 RMK AO2 RAE05 SLP172 P0000 60019 T00940089 58002", "KACY 060918Z AUTO 00000KT 3/4SM BR VV002 04/03 A3027 RMK AO2 T00390033", "KACZ 060905Z AUTO 00000KT 10SM CLR 09/09 A3023 RMK AO2 T00940088", "KADC 060917Z AUTO 07007KT 10SM OVC022 09/06 A2996 RMK AO2 TSNO", "KADF 060856Z AUTO VRB03KT 9SM OVC005 21/21 A2994 RMK AO2 SLP135 T02110206 55007", "KADG 060853Z AUTO 09006KT 10SM CLR 09/04 A3024 RMK AO2 SLP241 T00890044 53001", "KADH 060915Z AUTO 16008KT 2SM BR OVC003 22/22 A2985 RMK AO2", "KADM 060920Z AUTO 00000KT 1/4SM FG BKN001 20/20 A2982 RMK AO2", "KADS 060915Z AUTO 17004KT 10SM CLR 25/11 A2985 RMK AO2 T02450112", "KADT 060915Z AUTO 02005KT 10SM CLR 12/09 A2983 RMK AO2 T01150090", "KADU 060915Z AUTO 00000KT 7SM SCT033 SCT043 OVC070 14/13 A2985 RMK AO2 PWINO", "KADW 060855Z AUTO 00000KT 10SM CLR 07/07 A3025 RMK AO2 SLP251 T00720071 52006 $", "KAEG 060915Z AUTO 26009KT 10SM CLR 04/M11 A3008 RMK AO2 T00431111", "KAEJ 060915Z AUTO 00000KT 10SM SCT090 M01/M07 A3002 RMK AO2 T10141066", "KAEL 060915Z AUTO 15010KT 10SM OVC011 15/13 A2990 RMK AO2", "KAEX 060920Z 24003KT 5SM -RA BR FEW009 BKN016 OVC025 23/22 A2998 RMK AO2 RAB09 P0000 T02330222", "KAFF 060855Z AUTO 03005KT 10SM CLR 05/M07 A2991 RMK AO2 SLP074 T00501069 57002", "KAFJ 060856Z AUTO 00000KT 10SM CLR 03/03 A3027 RMK AO2 SLP254 T00280028 53002", "KAFK 060915Z AUTO 15004KT 10SM OVC011 17/15 A2984 RMK AO2 T01710152", "KAFN 060852Z AUTO 18004KT 10SM CLR 03/01 A3020 RMK AO2 SLP235 T00280011 53001", "KAFO 060910Z AUTO 20003KT 10SM SCT055 SCT110 00/M02 A2995 RMK AO2", "KAFP 060909Z AUTO 00000KT 10SM CLR 09/09 A3023 RMK AO2 T00930087", "KAFW 060853Z 16008KT 10SM SCT250 22/13 A2982 RMK AO2 SLP080 T02170128 53000", "KAGC 060853Z 07005KT 10SM CLR 08/04 A3025 RMK AO2 SLP246 T00830039 53004", "KAGI 060915Z AUTO 12016KT 7SM CLR 25/24 A2996 RMK AO2 T02490235", "KAGO 060915Z AUTO 14005KT 2SM BR BKN004 OVC020 22/22 A2991 RMK A01", "KAGS 060853Z AUTO 00000KT 8SM OVC090 15/14 A3018 RMK AO2 SLP219 60000 T01500144 55000", "KAHN 060851Z AUTO 07004KT 10SM BKN080 BKN120 14/13 A3020 RMK AO2 SLP224 T01390128 53002", "KAHQ 060915Z AUTO 35008KT 7SM -DZ SCT018 OVC028 15/14 A2984 RMK AO2 T01470136", "KAIA 060853Z AUTO 20006KT 5SM BR BKN004 08/07 A2983 RMK AO2 SLP075 T00780072 55003", "KAID 060915Z AUTO 14007KT 10SM CLR 13/04 A3017 RMK AO2 T01330037", "KAIG 060915Z AUTO 09006KT 10SM OVC100 08/08 A3007 RMK AO2 T00810075", "KAIK 060915Z AUTO 07006KT 10SM OVC070 15/13 A3021 RMK AO2 T01510134", "KAIO 060915Z AUTO 18003KT 10SM FEW022 SCT029 OVC055 15/15 A2985 RMK AO2", "KAIT 060926Z AUTO 07009G14KT 10SM BKN010 OVC024 07/06 A3001 RMK AO2", "KAIZ 060856Z AUTO 16005KT 10SM OVC010 17/14 RMK AO2 SLPNO T01670144 $", "KAJG 060915Z AUTO 12005KT 10SM SCT038 OVC045 16/12 A3010 RMK AO2 T01600115", "KAJO 060917Z AUTO 00000KT 10SM SCT028 11/08 A3009 RMK AO2", "KAJR 060915Z AUTO 06003KT 7SM SCT060 BKN090 OVC110 14/13 A3020 RMK AO2 T01350129", "KAJZ 060915Z AUTO 28011G16KT 10SM SCT033 BKN060 OVC085 11/03 A3002 RMK AO2 T01060026 PWINO", "KAKH 060854Z AUTO 00000KT 10SM CLR 11/10 A3021 RMK AO2 SLP229 T01060100 53007", "KAKO 060853Z AUTO 28005KT 10SM CLR 04/03 A2986 RMK AO2 SLP081 T00440033 51002", "KAKQ 060854Z AUTO 00000KT 10SM BKN080 OVC110 10/09 A3026 RMK AO2 SLP246 T01000089 53006", "KAKR 060854Z AUTO 00000KT 10SM CLR 08/01 A3025 RMK AO2 SLP240 T00780006 53001", "KALB 060851Z 00000KT 10SM CLR 06/04 A3027 RMK AO2 SLP251 T00560044 53005", "KALI 060853Z AUTO 12007KT 3SM BR BKN019 24/24 A2986 RMK AO2 SLP109 T02390239 58001", "KALK 060856Z AUTO 24008KT 10SM CLR 09/M03 A3009 RMK AO2 SLP115 T00941028 58004", "KALM 060915Z AUTO 15004KT 10SM FEW037 SCT044 BKN050 14/M12 A3003 RMK AO2", "KALN 060915Z AUTO 15005KT 10SM BKN034 OVC040 17/11 A3002 RMK AO2 T01650113", "KALO 060854Z AUTO 12013KT 10SM SCT030 BKN041 OVC055 15/12 A2991 RMK AO2 RAE45 SLP125 P0008 60016 T01500122 58005", "KALS 060852Z AUTO 24012KT 10SM CLR 06/M09 A3001 RMK AO2 SLP092 T00561089 51000", "KALW 060853Z AUTO 19011KT 10SM OVC025 10/05 A2991 RMK AO2 SLP132 T01000050 50000", "KAMA 060853Z AUTO 25012KT 10SM CLR 17/M06 A2986 RMK AO2 SLP056 T01721061 51002", "KAMG 060853Z AUTO VRB03KT 10SM OVC080 18/16 A3015 RMK AO2 SLP206 60000 T01780161 55002", "KAMN 060915Z AUTO 12006KT 10SM CLR 11/04 A3022 RMK AO2 T01070036", "KAMW 060853Z AUTO 13007KT 10SM OVC038 15/13 A2987 RMK AO2 SLP109 T01500128 51002", "KANB 060853Z AUTO 05007KT 10SM OVC046 16/13 A3015 RMK AO2 SLP209 60000 T01560128 55002", "KAND 060856Z AUTO 00000KT 10SM CLR 14/12 A3021 RMK AO2 SLP223 T01390122 53005", "KANE 060915Z AUTO 06006KT 10SM OVC013 14/12 A2995 RMK AO2", "KANJ 060855Z AUTO 06004KT 10SM -RA OVC060 08/07 A3028 RMK AO2 RAB02E14B31 SLP256 P0001 60007 T00830072 53006", "KANK 060910Z AUTO 27003KT 10SM SCT100 03/M06 A3007 RMK AO1 T00271063", "KANQ 060915Z AUTO 11010KT 10SM FEW042 FEW048 BKN060 10/04 A3020 RMK AO2", "KANW 060915Z AUTO 26007KT 10SM CLR 11/10 A2977 RMK AO2 T01110103", "KAOH 060853Z AUTO 11008KT 10SM CLR 09/06 A3020 RMK AO2 SLP224 T00940056 53003", "KAOO 060853Z AUTO 00000KT 10SM CLR 06/04 A3029 RMK AO2 SLP261 T00560039 53004", "KAPA 060853Z 11006KT 10SM CLR 04/M02 A2989 RMK AO2 SLP081 T00441017 58006", "KAPC 060854Z 20008KT 10SM SCT014 BKN024 OVC046 13/09 A3006 RMK AO2 SLP172 T01280094 58007", "KAPF 060853Z AUTO 07003KT 10SM CLR 22/19 A3005 RMK AO2 SLP174 T02220194 55003 PWINO", "KAPN 060854Z AUTO 12003KT 10SM OVC100 07/06 A3026 RMK AO2 SLP252 T00720056 51005", "KAPS 060917Z AUTO 14005KT 10SM SCT011 OVC022 24/23 A3000 RMK AO2", "KAPY 060915Z AUTO 13006KT 5SM BR CLR 25/23 A2982 RMK AO2 T02500228 TSNO", "KAQO 060915Z AUTO 00000KT 10SM BKN025 BKN031 19/16 A2992 RMK AO2", "KAQP 060913Z AUTO 12012G15KT 10SM 13/07 A2987 RMK AO2", "KAQV 060925Z AUTO 00000KT 6SM TS BR BKN033 BKN050 OVC070 23/22 A2995 RMK AO2 RAB07E17 TSB19 P0000 T02330217", "KAQW 060852Z AUTO 00000KT 1/4SM FG VV002 04/03 A3026 RMK AO2 SLP252 T00390033 53004", "KAQX 060915Z AUTO 00000KT 10SM OVC090 16/14 A3019 RMK AO2", "KARA 060925Z AUTO 19007KT 9SM BKN009 BKN017 OVC023 25/23 A2997 RMK AO2 CIG 008V012 T02500228", "KARB 060853Z AUTO 05003KT 10SM CLR 04/02 A3024 RMK AO2 SLP243 T00440022 53000", "KARG 060856Z AUTO 11003KT 10SM OVC019 17/16 A3001 RMK AO2 SLP163 T01720161 55001", "KARM 060915Z AUTO 11005KT 10SM CLR 21/19 A2995 RMK AO2 T02050193 TSNO", "KARR 060852Z AUTO 12008KT 10SM -RA BKN075 OVC090 15/08 A3006 RMK AO2 RAB14 SLP176 P0000 60000 T01500083 51006", "KART 060856Z AUTO 00000KT 10SM CLR 01/01 A3030 RMK AO2 SLP262 T00110006 53009", "KARV 060915Z AUTO 10004KT 10SM SCT006 OVC100 09/08 A3005 RMK AO2 T00860075", "KARW 060915Z AUTO 04004KT 10SM SCT060 OVC100 17/15 A3018 RMK AO2", "KASD 060853Z AUTO 00000KT 9SM OVC007 23/22 A3001 RMK AO2 CIG 005V010 SLP160 T02280217 55006", "KASE 060920Z AUTO 29005KT 10SM -RA BKN024 OVC060 03/M02 A3003 RMK AO2 RAB11 P0000 T00331017", "KASH 060856Z AUTO 32004KT 10SM CLR 07/07 A3018 RMK AO2 SLP226 T00720067 53002", "KASJ 060905Z AUTO 00000KT 10SM BKN095 10/10 A3025 RMK AO2 T00980096", "KASL 060915Z AUTO 16006KT 10SM CLR 23/22 A2986 RMK AO2 T02330225 $", "KASN 060915Z AUTO 00000KT 10SM OVC042 15/14 A3015 RMK AO2 T01450136", "KAST 060855Z AUTO 00000KT 10SM OVC021 09/08 A2996 RMK AO2 SLP145 T00940083 57002", "KASW 060915Z AUTO 12005KT 10SM CLR 10/05 A3017 RMK AO2 T01010056", "KASX 060853Z AUTO 02007KT 1/2SM FG VV002 04/03 A3006 RMK AO2 SLP187 T00390033 58004", "KATA 060915Z AUTO 13004KT 6SM BR SCT008 BKN014 24/23 A2987 RMK AO2 SLP015 T02370232 $", "KATL 060852Z 12006KT 10SM BKN050 OVC065 16/12 A3018 RMK AO2 SLP217 T01560122 55000", "KATP 060920Z AUTO 14017KT 5SM BR CLR 25/24 A3001 RMK A01", "KATS 060915Z AUTO 22011KT 10SM CLR 15/M11 A2994 RMK AO2", "KATT 060851Z AUTO VRB03KT 10SM CLR 20/17 A2993 RMK AO2 SLP120 T02000167 58022 $", "KATW 060915Z AUTO 16012KT 10SM OVC090 13/07 A3006 RMK AO2", "KATY 060853Z AUTO 07006KT 5SM BR OVC004 12/12 A2984 RMK AO2 SLP101 T01220117 56003", "KAUG 060853Z AUTO 29007KT 10SM CLR 09/03 A3010 RMK AO2 SLP193 T00940028 58004", "KAUH 060915Z AUTO 09010KT 10SM OVC045 13/12 A2977 RMK AO2 T01280115", "KAUM 060916Z AUTO 14007KT 10SM OVC016 15/13 A2991 RMK AO2", "KAUN 060915Z AUTO 17005KT 8SM SCT005 BKN027 OVC033 08/08 A3006 RMK A01", "KAUO 060853Z AUTO 09005KT 10SM SCT055 BKN080 16/13 A3016 RMK AO2 SLP206 T01560133 55001", "KAUS 060853Z 16005KT 10SM SCT026 SCT120 19/17 A2991 RMK AO2 SLP120 T01940167 56022", "KAUW 060854Z AUTO 08009KT 8SM -RA BKN075 OVC095 10/08 A3003 RMK AO2 SLP174 P0004 60014 T01000078 58004", "KAVC 060915Z AUTO 00000KT 10SM BKN075 OVC090 11/11 A3031 RMK AO2 T01110109", "KAVL 060854Z AUTO 00000KT 10SM CLR 12/08 A3024 RMK AO2 SLP225 T01170083 53005", "KAVP 060854Z 16003KT 10SM CLR 03/02 A3029 RMK AO2 SLP259 T00330022 53010", "KAVQ 060915Z AUTO 00000KT 10SM 17/M01 A2997 RMK AO2 T01651007", "KAVX 060851Z AUTO 29007KT 10SM CLR 09/08 A3008 RMK AO2 SLP184 T00940078 58005", "KAWG 060915Z AUTO 14008KT 10SM OVC018 15/15 A2993 RMK AO2", "KAWM 060928Z AUTO 14008KT 10SM BKN028 OVC060 18/14 A3001 RMK AO2 T01780139", "KAWO 060916Z AUTO 00000KT 10SM -RA SCT009 OVC017 09/08 A2997 RMK AO2 P0000", "KAXA 060915Z AUTO 13011G16KT 10SM FEW026 BKN048 OVC060 15/15 A2986 RMK A01", "KAXH 060915Z AUTO 00000KT 10SM CLR 21/19 A2995 RMK AO2 T02100192", "KAXN 060853Z AUTO 08014G20KT 10SM OVC012 09/05 A2994 RMK AO2 SLP140 T00890050 56003", "KAXS 060915Z AUTO 20007KT 10SM CLR 20/13 A2981 RMK AO2 T01970130", "KAXV 060915Z AUTO 11005KT 10SM CLR 10/05 A3020 RMK AO2", "KAXX 060915Z AUTO 25016G19KT 10SM CLR 05/M10 A3009 RMK AO2 T00531104", "KAYS 060915Z AUTO 08004KT 10SM BKN075 BKN080 OVC095 19/18 A3014 RMK AO2 T01900182", "KAZC 060915Z AUTO 16004KT 10SM CLR 01/M03 A3004 RMK AO2", "KAZE 060915Z AUTO 06003KT 10SM OVC070 17/15 A3015 RMK AO2 T01700147", "KAZO 060853Z AUTO 12003KT 10SM CLR 12/03 A3020 RMK AO2 SLP225 T01170033 53006", "KBAB 060855Z AUTO 12008KT 6SM -RA BR OVC055 10/09 A3006 RMK AO2 RAE31DZB31E32RAB32 SLP182 P0002 60009 T01020093 58002 $", "KBAC 060915Z AUTO 05004G11KT 10SM OVC026 08/07 A2994 RMK AO2", "KBAD 060915Z AUTO 18011KT 10SM BKN015 23/22 A2989 RMK AO2 CIG 015V020 SLP124", "KBAF 060915Z AUTO 00000KT 8SM CLR 03/03 A3022 RMK AO2 T00330028", "KBAM 060915Z AUTO 14004KT 10SM BKN049 OVC085 01/00 A2997 RMK AO1", "KBAN 060852Z AUTO 22008KT 10SM BKN070 OVC095 02/M05 A2995 RMK AO2 SLP118 T00221050 58004 $", "KBAX 060915Z AUTO 14007KT 110V170 10SM CLR 10/08 A3027 RMK AO2 T00950075", "KBAZ 060902Z AUTO 11007KT 10SM BKN014 OVC038 22/18 A2992 RMK AO2 T02170178 TSNO", "KBBB 060915Z AUTO 11011G14KT 10SM OVC012 11/07 A2989 RMK AO2", "KBBD 060915Z AUTO 16011G16KT 10SM CLR 21/17 A2991 RMK AO2", "KBBG 060915Z AUTO 12011KT 3SM BR OVC003 15/15 A2994 RMK AO2", "KBBP 060915Z AUTO 00000KT 10SM CLR 11/11 A3022 RMK AO2", "KBBW 060853Z AUTO 23005KT 10SM CLR 12/12 A2974 RMK AO2 LTG DSNT E-S SLP055 60009 T01170117 55029 $", "KBCB 060915Z AUTO 00000KT 10SM CLR 08/07 A3029 RMK AO2 T00810072", "KBCE 060853Z AUTO 00000KT 10SM CLR M04/M06 A3007 RMK AO2 SLP139 T10391061 50000 $", "KBCK 060915Z AUTO 09003KT 10SM SCT045 OVC060 13/13 A2999 RMK AO2 P0001 T01330131", "KBCR 060858Z AUTO 05003KT 10SM CLR 16/15 A3011 RMK AO2 SLP152 T01610150 50001", "KBDE 060853Z AUTO 08010KT 10SM OVC024 09/03 A3008 RMK AO2 SLP190 T00940033 56008", "KBDG 060915Z AUTO 29008KT 10SM 09/M05 A3010 RMK AO1 T00921054", "KBDH 060915Z AUTO 07013KT 10SM OVC009 12/08 A2993 RMK AO2", "KBDL 060851Z 00000KT 10SM CLR 06/04 A3022 RMK AO2 SLP234 T00560044 53003", "KBDN 060915Z AUTO 00000KT 10SM FEW027 SCT033 BKN065 03/02 A2993 RMK AO2", "KBDR 060852Z AUTO 31005KT 10SM CLR 09/07 A3022 RMK AO2 SLP234 T00940067 53001", "KBDU 060915Z AUTO 20003KT 10SM CLR 07/M03 A2986 RMK AO2", "KBEC 060915Z AUTO 16011KT 7SM BKN016 BKN023 23/23 A2973 RMK AO2 T02260225", "KBED 060851Z AUTO 00000KT 10SM CLR 04/03 A3016 RMK AO2 SLP227 T00390033 53002", "KBEH 060853Z AUTO 12009KT 10SM CLR 12/05 A3014 RMK AO2 SLP205 T01220050 53006", "KBFD 060853Z AUTO 00000KT 10SM CLR 02/M01 A3029 RMK AO2 SLP264 T00171006 53004", "KBFF 060928Z AUTO 00000KT 2SM BR FEW005 07/06 A2986 RMK AO2 T00670056 $", "KBFI 060853Z AUTO 00000KT 10SM OVC018 09/08 A2997 RMK AO2 SLP147 T00890078 57002", "KBFL 060854Z AUTO 36006KT 9SM BKN065 13/05 A3005 RMK AO2 SLP174 T01280050 50004", "KBFM 060920Z 10009KT 10SM BKN014 OVC021 21/20 A3007 RMK AO2 T02110200", "KBFR 060915Z AUTO 13004KT 10SM OVC085 15/08 A3013 RMK AO2", "KBGD 060851Z AUTO 19012KT 10SM CLR 21/M04 A2981 RMK AO2 SLP048 T02061044 50001", "KBGE 060915Z AUTO 06003KT 10SM SCT085 17/15 A3011 RMK AO2 T01690145", "KBGF 060915Z AUTO 12009KT 10SM BKN043 OVC050 14/11 A3015 RMK A01", "KBGM 060853Z AUTO 28005KT 10SM CLR 05/03 A3028 RMK AO2 SLP259 T00500033 53007", "KBGR 060853Z 00000KT 10SM FEW150 FEW250 05/02 A3006 RMK AO2 SLP179 T00500017 57005", "KBHB 060856Z AUTO 00000KT 10SM CLR 03/02 A3006 RMK AO2 SLP182 T00280022 58004", "KBHC 060915Z AUTO 04003KT 10SM OVC075 16/15 A3016 RMK AO2", "KBHK 060851Z AUTO 07013KT 10SM -RA SCT050 OVC080 08/ A2985 RMK AO2 SLP100 P0004 60004 T0083 50005 $", "KBHM 060853Z VRB04KT 10SM OVC039 17/12 A3014 RMK AO2 SLP202 T01670117 55002", "KBID 060856Z AUTO 27010KT 10SM CLR 09/08 A3020 RMK AO2 SLP227 T00890078 56003", "KBIE 060915Z AUTO 06005KT 7SM OVC009 18/17 A2980 RMK AO2 T01770166", "KBIF 060855Z 26007KT 7SM 21/M12 A3001 RMK ALTSG WND DATA ESTMD SLPNO", "KBIH 060856Z AUTO 00000KT 10SM OVC100 09/M01 A2992 RMK AO2 SLP103 T00941011 53001", "KBIJ 060915Z AUTO 00000KT 10SM OVC080 16/13 A3012 RMK AO2", "KBIL 060853Z 20005KT 10SM R10L/2600VP6000FT FEW010 SCT100 07/07 A2980 RMK AO2 SLP084 VIS LWR NE-E T00720067 56006 $", "KBIS 060852Z AUTO 06009KT 10SM CLR 09/04 A2988 RMK AO2 SLP120 T00890044 56007", "KBIV 060853Z AUTO 13010KT 10SM CLR 12/03 A3016 RMK AO2 SLP214 T01220033 53006", "KBIX 060855Z AUTO 14007KT 10SM OVC007 23/22 A3000 RMK AO2 SLP162 T02320218 57005", "KBJC 060915Z AUTO 29004KT 10SM CLR 09/M01 A2988 RMK AO2", "KBJI 060915Z AUTO 09008KT 10SM OVC045 07/04 A3001 RMK AO2 T00720044", "KBJJ 060856Z AUTO 09003KT 10SM CLR 07/03 A3026 RMK AO2 SLP247 T00720033 53005", "KBKB 060905Z AUTO 00000KT 5SM -RA BR BKN012 BKN018 OVC028 23/22 A2996 RMK AO2 RAB0853 P0000 T02330222", "KBKD 060915Z AUTO 19013G19KT 10SM CLR 23/15 A2986 RMK AO2 T02340147", "KBKE 060853Z AUTO 00000KT 10SM OVC026 06/04 A2992 RMK AO2 SLP136 60000 T00560039 53001", "KBKF 060858Z 17009KT 10SM CLR 06/01 A2986 RMK AO2A SLP063 T00610012 58008", "KBKL 060853Z AUTO 00000KT 10SM CLR 10/03 A3025 RMK AO2 SLP245 T01000028 53002", "KBKN 060915Z AUTO 16012KT 23/23 A2973 RMK AO2", "KBKS 060915Z AUTO 09006KT 6SM BR BKN008 BKN013 25/25 A2985 RMK AO2 BKN013 V OVC SLP070 T02500250 $", "KBKT 060915Z AUTO 04003KT 10SM OVC070 10/09 A3027 RMK AO1 T00970090", "KBKV 060853Z AUTO 06005KT 10SM BKN036 21/15 A3008 RMK AO2 SLP185 T02110150 56010", "KBKW 060851Z AUTO 13006KT 10SM CLR 11/05 A3023 RMK AO2 SLP219 T01110050 53009", "KBKX 060921Z AUTO 10004KT 5SM BR SCT009 OVC017 13/12 A2986 RMK AO2", "KBLF 060852Z AUTO 00000KT 10SM CLR 11/05 A3024 RMK AO2 SLP220 T01060050 53010", "KBLI 060900Z AUTO 19004KT 10SM BKN007 OVC040 10/10 A2994 RMK AO2 T01000100", "KBLM 060856Z AUTO 25004KT 6SM HZ CLR A3027 RMK AO2 SLPNO 53004 FZRANO $", "KBLU 060852Z AUTO 17003KT 1/4SM -SN FG VV002 01/01 A3002 RMK AO2 SLP172 P0006 60015 T00060006 58006", "KBLV 060855Z 15004KT 10SM OVC033 16/12 A3000 RMK AO2A SLP160 T01620116 55003 $", "KBMC 060910Z AUTO 18012KT 10SM BKN046 OVC060 09/03 A2996 RMK AO1 T00880030", "KBMG 060853Z AUTO 13005KT 10SM OVC080 16/09 A3012 RMK AO2 SLP194 T01560094 53003", "KBMI 060856Z AUTO 16010KT 10SM OVC060 15/10 A3006 RMK AO2 SLP173 T01500100 53006", "KBML 060852Z AUTO 00000KT 10SM CLR M01/M02 A3017 RMK AO2 SLP226 T10061017 52000", "KBMQ 060853Z AUTO 17005KT 10SM CLR 18/17 A2993 RMK AO2 SLP117 T01780167 58007 $", "KBMT 060915Z AUTO 12008KT 4SM -TSRA BKN010 BKN028 OVC075 20/19 A2998 RMK AO2 LTG DSNT ALQDS T01950190", "KBNA 060853Z 00000KT 10SM SCT060 BKN080 15/11 A3015 RMK AO2 SLP206 T01500111 53004", "KBNL 060915Z AUTO 00000KT 10SM OVC080 16/14 A3020 RMK AO2", "KBNO 060853Z AUTO 33005KT 10SM OVC070 03/02 A2995 RMK AO2 SLP151 T00330017 50000", "KBNW 060915Z AUTO 13009KT 10SM OVC036 14/14 A2986 RMK AO2", "KBOI 060908Z 28009KT 10SM SCT018 OVC028 08/04 A2992 RMK AO2 T00830039", "KBOK 060929Z AUTO VRB04KT 10SM OVC007 08/08 A3002 RMK AO2 RAE17 CIG 003V010 P0001", "KBOS 060854Z 30009KT 10SM FEW060 FEW250 11/05 A3017 RMK AO2 SLP214 T01060050 53002", "KBOW 060915Z AUTO 05004KT 10SM OVC045 22/17 A3008 RMK AO2", "KBPC 060915Z AUTO 23009KT 10SM CLR 15/M01 A2980 RMK AO2", "KBPG 060915Z AUTO 00000KT 10SM CLR 15/00 A2990 RMK AO2 T01500000", "KBPI 060853Z AUTO 00000KT 10SM BKN070 OVC090 01/M02 A2994 RMK AO2 SLP101 T00061022 58002", "KBPK 060853Z AUTO 15007KT 10SM OVC008 17/16 A2996 RMK AO2 SLP139 T01720161 58001", "KBPT 060925Z 34011G36KT 3/4SM R12/1200V5500FT +TSRA BR FEW006 BKN017 OVC027 19/19 A2996 RMK AO2 PK WND 33036/0917 WSHFT 0911 LTG DSNT ALQDS RAB0857 TSB03 PRESFR P0084 T01940194 $", "KBQK 060915Z AUTO 09008KT 10SM BKN031 OVC040 19/18 A3015 RMK AO2 T01930177", "KBQP 060915Z AUTO 00000KT 10SM BKN009 OVC014 22/22 A2999 RMK AO2 T02200216", "KBQX 060915Z AUTO 05005KT 2SM BR FEW004 24/23 A2998 RMK A01", "KBRD 060853Z AUTO 06008KT 10SM OVC021 08/05 A2999 RMK AO2 SLP159 T00830050 55004", "KBRG 060915Z AUTO 27009KT 10SM CLR 09/M10 A3007 RMK AO2 T00941097", "KBRL 060853Z AUTO 16009KT 10SM OVC019 16/11 A2997 RMK AO2 SLP144 T01560111 53003", "KBRO 060923Z AUTO 15010KT 7SM SCT019 26/24 A2984 RMK AO2 T02610244 $", "KBRY 060915Z AUTO 12003KT 10SM OVC090 14/12 A3013 RMK AO2 T01410120", "KBTA 060915Z AUTO 31009G15KT 230V330 4SM -VCTSRA SCT007 BKN012 OVC026 15/15 A2986 RMK AO2 LTG DSNT NW THRU NE T01470145", "KBTL 060853Z AUTO 12006KT 10SM CLR 11/03 A3020 RMK AO2 SLP227 T01110028 53005", "KBTM 060853Z AUTO 18007KT 10SM OVC065 08/M01 A2981 RMK AO2 SLP064 T00831011 58001", "KBTN 060915Z AUTO 04009KT 10SM OVC014 11/08 A2985 RMK AO2", "KBTP 060856Z AUTO 05004KT 10SM CLR 04/03 A3027 RMK AO2 SLP260 T00390033 53003 TSNO $", "KBTR 060853Z AUTO 00000KT 8SM OVC019 24/23 A2998 RMK AO2 SLP149 T02440228 56007", "KBTV 060854Z AUTO 00000KT 10SM CLR 06/04 A3024 RMK AO2 SLP241 T00560039 53002", "KBUF 060854Z 10005KT 10SM CLR 06/03 A3031 RMK AO2 SLP266 T00560033 53004", "KBUR 060853Z 00000KT 10SM CLR 11/07 A3007 RMK AO2 SLP176 T01110067 58002", "KBUU 060915Z AUTO 14005KT 10SM SCT080 OVC100 15/07 A3008 RMK AO2 T01470069 PWINO", "KBUY 060854Z AUTO 00000KT 10SM CLR 08/07 A3022 RMK AO2 SLP231 T00830072 53006", "KBVI 060915Z AUTO 10003KT 10SM CLR 09/04 A3026 RMK AO2 T00920036", "KBVN 060915Z AUTO 00000KT 10SM BKN090 14/12 A2972 RMK AO2 T01410119", "KBVO 060853Z AUTO 17008KT 6SM BR OVC008 21/19 A2982 RMK AO2 SLP089 T02060194 53000", "KBVS 060915Z AUTO 00000KT 10SM BKN005 BKN023 OVC046 09/09 A2996 RMK A01", "KBVU 060915Z AUTO 10SM CLR 14/M01 A2993 RMK AO2", "KBVX 060856Z AUTO 12005KT 10SM BKN015 18/16 A2999 RMK AO2 SLP153 T01780161 50001", "KBVY 060853Z AUTO 30006KT 10SM CLR 08/04 A3015 RMK AO2 SLP205 T00830044 51001", "KBWD 060915Z AUTO 14006KT 10SM OVC028 19/15 A2990 RMK AO1", "KBWG 060853Z AUTO 00000KT 10SM OVC055 15/11 A3014 RMK AO2 SLP201 T01500111 52004", "KBWI 060854Z 00000KT 10SM FEW110 07/06 A3027 RMK AO2 SLP249 T00720061 53005", "KBWP 060915Z AUTO 08012KT 10SM OVC020 11/06 A2990 RMK AO2", "KBWW 060915Z AUTO 12007KT 10SM -RA SCT037 BKN050 OVC060 09/06 A2987 RMK AO2", "KBXA 060915Z AUTO 00000KT 4SM OVC003 21/20 A3003 RMK AO2 T02120200", "KBXK 060915Z AUTO 35003KT 10SM CLR 14/M04 A2995 RMK A01", "KBYG 060853Z AUTO 23005KT 10SM CLR 06/03 A2981 RMK AO2 SLP055 T00610028 58001", "KBYI 060853Z AUTO 23007KT 10SM OVC036 07/03 A2993 RMK AO2 SLP122 T00670033 51000", "KBYL 060915Z AUTO 00000KT 10SM OVC100 11/09 A3019 RMK AO1", "KBYS 060855Z AUTO 22008KT 10SM CLR 11/03 A2996 RMK AO2 SLP133 T01060032 58001 $", "KBYY 060915Z AUTO 05005KT 5SM BR SCT008 BKN015 OVC020 23/22 A2996 RMK AO2 T02380232", "KBZN 060856Z AUTO 15010KT 10SM FEW100 04/00 A2979 RMK AO2 SLP078 T00390000 58003", "KC07 060915Z AUTO 18004KT 10SM SCT022 BKN036 OVC050 M01/M05 A3006 RMK AO2", "KC09 060915Z AUTO 13005KT 10SM -RA OVC075 15/09 A3006 RMK AO2 T01500093", "KC29 060915Z AUTO 14007KT 10SM OVC060 14/12 A3004 RMK AO1 P0001 T01410122", "KC35 060915Z AUTO 14006KT 10SM BKN050 BKN070 OVC080 14/11 A3002 RMK AO2 T01360109 PWINO", "KC62 060915Z AUTO 11006KT 10SM CLR 09/05 A3020 RMK AO2 T00930052", "KC65 060915Z AUTO 12006KT 10SM FEW120 13/06 A3015 RMK A01", "KC75 060915Z AUTO 13006KT 10SM BKN037 OVC042 16/12 A3003 RMK AO2 T01590115 PWINO", "KC83 060915Z AUTO 00000KT 10SM OVC060 12/10 A3007 RMK AO2", "KC99 060915Z AUTO 31010G15KT 280V360 10SM CLR M02/M11 A3006 RMK AO2", "KCAD 060915Z AUTO 13006KT 10SM CLR 10/04 A3019 RMK AO2 T00980041", "KCAE 060856Z 00000KT 10SM FEW065 BKN110 14/13 A3020 RMK AO2 SLP224 T01390128 53000", "KCAG 060853Z AUTO 25011KT 10SM OVC100 07/M02 A2997 RMK AO2 SLP110 60000 T00671022 51008", "KCAK 060851Z 07005KT 10SM SCT250 07/02 A3025 RMK AO2 SLP243 T00670022 53001", "KCAO 060855Z AUTO 26012KT 10SM CLR 13/M08 A2989 RMK AO2 SLP059 T01281078 53006", "KCAR 060854Z AUTO 25003KT 10SM CLR 03/M01 A3000 RMK AO2 SLP166 T00331006 56006", "KCAV 060915Z AUTO 13012KT 10SM BKN041 BKN060 OVC090 14/13 A2987 RMK A01", "KCBE 060905Z AUTO 06006KT 10SM CLR 06/05 A3034 RMK AO2 T00580047", "KCBF 060915Z AUTO 12005KT 10SM OVC030 16/16 A2982 RMK AO2", "KCBG 060915Z AUTO 03006KT 10SM OVC016 10/02 A2998 RMK AO2", "KCBK 060915Z AUTO 03010KT 10SM SCT015 12/10 A2978 RMK AO2 T01220104", "KCBM 060855Z AUTO 14005KT 10SM OVC014 17/13 A3005 RMK AO2 CIG 013 RWY31C SLP177 T01720131 53001 $", "KCCA 060915Z AUTO 00000KT 7SM OVC010 18/18 A2997 RMK AO2", "KCCB 060915Z AUTO 00000KT 10SM FEW037 OVC050 09/07 A3007 RMK AO2", "KCCO 060915Z AUTO 11004KT 10SM OVC050 14/14 A3018 RMK AO2 T01430137", "KCCR 060853Z AUTO 18005KT 10SM BKN065 OVC120 12/09 A3007 RMK AO2 SLP168 T01220089 58006", "KCCU 060915Z AUTO 19005KT 10SM SCT050 M01/M10 A3012 RMK AO2", "KCCY 060915Z AUTO 14010KT 10SM OVC009 14/14 A2992 RMK AO2", "KCDA 060915Z AUTO 00000KT 10SM 04/01 A3021 RMK AO2 T00360008", "KCDC 060853Z AUTO 00000KT 10SM CLR M02/M03 A3001 RMK AO2 SLP145 T10171028 58002", "KCDD 060913Z AUTO 07003KT 10SM OVC014 06/04 A3013 RMK AO2 PWINO", "KCDH 060915Z AUTO 14008KT 8SM SCT009 BKN015 OVC028 22/22 A2994 RMK AO2", "KCDI 060915Z AUTO 00000KT 10SM CLR 04/04 A3025 RMK AO2 T00380037", "KCDJ 060851Z AUTO 14006KT 17/14 A2989 RMK AO1 SLP114 T01720139 50002", "KCDN 060915Z AUTO 00000KT 10SM CLR 12/11 A3022 RMK AO2", "KCDR 060853Z AUTO 00000KT 10SM CLR 09/07 A2983 RMK AO2 SLP093 T00890067 51013", "KCDS 060853Z AUTO 19009KT 10SM CLR 17/12 A2982 RMK AO2 SLP070 T01720117 51006", "KCDW 060908Z AUTO 00000KT 3SM BR FEW002 06/04 A3026 RMK AO2 T00560039", "KCEC 060856Z AUTO 16008KT 7SM -RA FEW014 BKN050 OVC075 10/09 A3003 RMK AO2 RAE38B54 SLP169 P0001 60004 T01000094 50002", "KCEF 060855Z AUTO 00000KT 6SM BR CLR 03/03 A3020 RMK AO2 SLP234 T00270026 51003", "KCEU 060854Z AUTO 00000KT 10SM FEW100 FEW120 13/12 A3022 RMK AO2 SLP227 T01280117 53007", "KCEW 060853Z AUTO 00000KT 7SM OVC070 18/16 A3010 RMK AO2 SLP189 T01780161 55002", "KCEY 060915Z AUTO 00000KT 10SM OVC070 14/13 A3008 RMK A01", "KCEZ 060853Z AUTO 20011KT 10SM SCT095 09/M04 A3004 RMK AO2 SLP122 T00891039 51011 $", "KCFD 060915Z AUTO 19010G17KT 10SM CLR 20/17 A2985 RMK AO2 T01980165", "KCFE 060915Z AUTO 06006KT 10SM OVC012 11/09 A2993 RMK AO2", "KCFJ 060915Z AUTO 12006KT 10SM BKN090 OVC110 13/04 A3012 RMK AO2 T01310042", "KCFO 060915Z AUTO 18009KT 10SM CLR 07/02 A2989 RMK AO2 T00730019", "KCFS 060915Z AUTO 13005KT 10SM CLR 10/05 A3026 RMK AO2 T00990045", "KCFV 060925Z AUTO 17007KT 7SM OVC009 21/19 A2981 RMK AO2 T02110194", "KCGC 060915Z AUTO 00000KT 10SM BKN042 20/16 A3009 RMK AO2", "KCGE 060905Z AUTO 00000KT 10SM BKN002 07/07 A3027 RMK A01", "KCGF 060915Z AUTO 14005KT 10SM CLR 09/04 A3027 RMK AO2 T00950038", "KCGI 060853Z AUTO 15008KT 10SM OVC044 16/13 A3004 RMK AO2 SLP169 T01610128 56003", "KCGS 060910Z AUTO 00000KT 10SM CLR 07/07 A3029 RMK AO2 T00690066", "KCGZ 060856Z AUTO 00000KT 10SM CLR 13/M01 A2996 RMK AO2 SLP140 6//// T01331011 50002 PNO $", "KCHA 060853Z 00000KT 7SM OVC080 14/13 A3018 RMK AO2 SLP217 T01390128 53001", "KCHK 060915Z AUTO 15005KT 10SM CLR 20/13 A2977 RMK AO2", "KCHO 060853Z AUTO 02003KT 10SM SCT070 BKN080 12/06 A3027 RMK AO2 SLP245 T01170061 53007", "KCHS 060856Z 00000KT 10SM FEW055 BKN095 17/14 A3020 RMK AO2 RAE02 SLP224 P0000 60000 T01720144 53002", "KCIC 060915Z AUTO 13013KT 10SM BKN012 BKN037 OVC043 10/09 A3005 RMK AO1", "KCID 060919Z AUTO 12010KT 10SM SCT029 OVC055 13/12 A2993 RMK AO2 T01330117", "KCIN 060915Z AUTO 13007KT 10SM OVC026 15/15 A2984 RMK AO2", "KCIU 060856Z AUTO 10006KT 10SM -RA OVC060 07/06 A3028 RMK AO2 RAB20 SLP258 P0001 60001 T00720061 53006", "KCJR 060915Z AUTO 00000KT 10SM BKN090 09/08 A3029 RMK AO2 T00900081", "KCKB 060853Z AUTO 00000KT 10SM CLR 06/03 A3023 RMK AO2 SLP231 T00610033 53005", "KCKC 060916Z AUTO 03008KT 1/2SM FG OVC001 04/04 A3009 RMK AO2", "KCKF 060915Z AUTO 08005KT 10SM OVC070 17/14 A3017 RMK AO2 T01670140", "KCKI 060915Z AUTO 00000KT 10SM CLR 10/07 A3022 RMK AO2", "KCKM 060915Z AUTO 12007KT 10SM 18/18 A3002 RMK A01", "KCKN 060915Z AUTO 08010KT 10SM CLR 08/04 A2999 RMK AO2", "KCKP 060915Z AUTO 14004KT 7SM RA OVC006 15/15 A2986 RMK AO2 LTG DSNT ALQS T01470147", "KCKV 060852Z AUTO 17009G16KT 10SM OVC046 17/10 A3011 RMK AO2 SLP193 T01670100 53004", "KCKZ 060915Z AUTO 00000KT 5SM BR CLR 05/05 A3028 RMK AO2", "KCLE 060851Z 00000KT 10SM FEW250 08/02 A3024 RMK AO2 SLP255 T00830017 53002 $", "KCLI 060915Z AUTO 32003KT 10SM OVC085 10/08 A3007 RMK AO2 T01020083", "KCLK 060915Z AUTO 13007KT 10SM CLR 17/12 A2980 RMK AO2", "KCLL 060853Z AUTO 19011KT 10SM CLR 20/17 A2984 RMK AO2 SLP099 60002 T02000167 56054", "KCLM 060853Z AUTO 24005KT 10SM OVC016 09/07 A2997 RMK AO2 SLP150 T00890067 55001", "KCLS 060915Z AUTO 00000KT 10SM OVC006 09/09 A2997 RMK AO2", "KCLT 060852Z 00000KT 10SM FEW200 13/11 A3022 RMK AO2 SLP242 T01280106 53007", "KCLW 060915Z AUTO 11006KT 10SM CLR 22/17 A3006 RMK AO2", "KCMA 060902Z AUTO 06004KT 10SM SCT017 12/09 A3007 RMK AO2 T01170089", "KCMD 060915Z AUTO 13007KT 10SM FEW029 FEW036 OVC050 15/13 A3014 RMK AO2", "KCMH 060851Z 09007KT 10SM CLR 11/05 A3021 RMK AO2 SLP226 T01110050 53000", "KCMI 060853Z AUTO 15009KT 10SM OVC060 16/M01 A3008 RMK AO2 SLP181 T01561006 53003", "KCMR 060915Z AUTO 14005KT 10SM CLR 01/M04 A3007 RMK AO2", "KCMX 060928Z AUTO 11010G18KT 10SM -RA FEW003 BKN048 OVC075 07/06 A3012 RMK AO2 RAB11 P0000 T00670056", "KCMY 060855Z AUTO 00000KT 9SM OVC070 14/14 A2998 RMK AO2 SLP153 60005 T01370135 50002 FZRANO $", "KCNB 060915Z AUTO 07009KT 030V120 10SM OVC009 14/12 A2986 RMK AO2 T01410118", "KCNC 060915Z AUTO 16012KT 10SM OVC011 16/16 A2987 RMK AO2", "KCNI 060915Z AUTO 00000KT 10SM BKN046 BKN050 OVC120 12/11 A3021 RMK AO2 T01240110", "KCNK 060925Z AUTO 17011G28KT 150V030 9SM BKN009 21/18 A2971 RMK AO2 PK WND 35028/0920 CIG 008V014 T02110183", "KCNM 060853Z AUTO 00000KT 10SM CLR 17/M11 A2991 RMK AO2 SLP074 T01721106 50003 $", "KCNO 060853Z AUTO 00000KT 10SM CLR 10/07 A3009 RMK AO2 SLP187 T01000072 56003", "KCNU 060852Z AUTO 14009KT 5SM BR OVC007 20/19 A2981 RMK AO2 SLP086 T02000189 56005", "KCNY 060853Z AUTO 27006KT 10SM OVC095 11/M01 A2996 RMK AO2 SLP111 60000 T01061006 51013", "KCOD 060856Z AUTO 24007KT 10SM CLR 07/M02 A2985 RMK AO2 SLP087 T00721022 50000", "KCOE 060922Z AUTO 22004KT 10SM BKN014 OVC022 08/07 A2989 RMK AO2 PNO $", "KCOF 060925Z AUTO 11008KT 10SM SCT028 24/19 A3005 RMK AO2 SLP180 $", "KCOM 060915Z AUTO 16005KT 10SM CLR 20/16 A2990 RMK AO2 T02010155", "KCON 060851Z AUTO 00000KT 4SM BR CLR 03/02 A3018 RMK AO2 SLP223 T00280022 53001", "KCOQ 060915Z AUTO 08012G16KT 1SM BR OVC001 04/03 A3003 RMK AO2 TSNO", "KCOS 060854Z 35005KT 10SM CLR 06/M06 A2993 RMK AO2 SLP081 T00611056 53001", "KCOT 060853Z AUTO 10011G19KT 5SM HZ OVC012 27/23 A2987 RMK AO2 SLP105 T02670233 51005", "KCOU 060854Z AUTO 15009KT 10SM OVC013 17/13 A2994 RMK AO2 SLP134 T01670133 55001", "KCPC 060905Z AUTO 00000KT 10SM CLR 11/10 A3023 RMK AO2 T01060097", "KCPF 060915Z AUTO 00000KT 10SM CLR 08/06 A3021 RMK AO2", "KCPP 060920Z AUTO 00000KT 5SM BR SCT065 BKN110 13/13 A3019 RMK AO2", "KCPR 060853Z AUTO 24008KT 10SM CLR 03/M02 A2985 RMK AO2 SLP069 T00331022 50002", "KCPS 060853Z AUTO 16008G18KT 10SM FEW042 OVC065 17/12 A2999 RMK AO2 SLP154 T01670117 55002", "KCPT 060915Z AUTO 18007KT 10SM CLR 21/14 A2986 RMK A01", "KCPW 060915Z AUTO 22017G22KT 10SM OVC026 M05/M09 A3020 RMK AO2", "KCQB 060915Z AUTO 15010KT 4SM BR OVC009 22/22 A2980 RMK AO2 T02250217", "KCQC 060853Z AUTO 27014KT 10SM CLR 06/M11 A3007 RMK AO2 SLP110 T00561106 58002 $", "KCQF 060915Z AUTO 00000KT 7SM SCT003 SCT007 18/18 A3005 RMK AO2", "KCQM 060915Z AUTO 07003KT 10SM SCT070 07/04 A3008 RMK AO2", "KCQT 060847Z AUTO 00000KT 10SM CLR 13/08 A3009 RMK AO2 SLP187 T01280083 56001 $", "KCQW 060915Z AUTO 00000KT 9SM CLR 11/11 A3022 RMK AO2", "KCQX 060852Z AUTO 30007KT 10SM CLR 11/07 A3014 RMK AO2 SLP206 T01060072 56004", "KCRE 060853Z AUTO 00000KT 10SM CLR 12/12 A3021 RMK AO1 SLP230 T01220122 53003", "KCRG 060912Z AUTO 05007KT 10SM BKN024 OVC075 22/20 A3011 RMK AO2 T02220200", "KCRP 060851Z 12009KT 10SM FEW008 SCT011 BKN017 BKN230 26/24 A2988 RMK AO2 SLP115 T02560244 58004", "KCRQ 060853Z AUTO 00000KT 10SM CLR 12/10 A3006 RMK AO2 SLP177 T01220100 56012", "KCRS 060853Z AUTO 15008KT 10SM CLR 24/13 A2983 RMK AO2 SLP095 T02390133 56007", "KCRW 060854Z 00000KT 10SM FEW200 06/06 A3019 RMK AO2 SLP220 T00610056 53006", "KCRX 060915Z AUTO 13003KT 10SM OVC016 15/14 A3008 RMK AO2", "KCSG 060851Z AUTO 08005KT 10SM OVC060 16/13 A3014 RMK AO2 SLP205 T01610133 58002", "KCSM 060853Z AUTO 19009KT 10SM CLR 18/12 A2980 RMK AO2 SLP065 T01830122 53004", "KCSQ 060915Z AUTO 16011KT 10SM OVC008 15/15 A2985 RMK AO2", "KCSV 060853Z AUTO 19004KT 10SM FEW050 OVC070 13/10 A3019 RMK AO2 SLP211 T01280100 53001", "KCTB 060856Z AUTO 09003KT 10SM CLR 06/06 A2974 RMK AO2 SLP060 T00610056 58001", "KCTJ 060915Z AUTO 00000KT 10SM OVC047 13/12 A3021 RMK AO2 T01340124", "KCTY 060915Z AUTO 00000KT 10SM SCT043 OVC090 19/16 A3010 RMK AO2", "KCTZ 060905Z AUTO 00000KT 10SM CLR 11/11 A3024 RMK AO2 T01080108", "KCUB 060853Z AUTO 00000KT 10SM SCT100 14/13 A3022 RMK AO2 SLP229 T01390128 53003", "KCUH 060915Z AUTO 16010KT 5SM BR OVC011 23/22 A2977 RMK AO2 T02270222", "KCUT 060853Z AUTO 00000KT 10SM BKN060 OVC080 07/04 A2987 RMK AO2 RAB0758E05 SLP075 P0000 60000 T00720044 50005", "KCVC 060915Z AUTO 00000KT 10SM SCT055 BKN080 OVC120 13/13 A3018 RMK AO2", "KCVG 060852Z 09006KT 10SM FEW190 12/06 A3017 RMK AO2 SLP211 T01170056 51007", "KCVH 060915Z AUTO 00000KT 10SM FEW019 BKN033 BKN120 11/09 A3010 RMK A01", "KCVN 060856Z AUTO 28015KT 10SM CLR 14/M11 A2994 RMK AO2 SLP098 T01441106 51002", "KCVO 060856Z AUTO 00000KT 10SM OVC055 09/08 A2999 RMK AO2 SLP156 T00940083 56003", "KCVS 060855Z AUTO 30014KT 10SM CLR 15/M13 A2992 RMK AO2 SLP074 T01471126 50002 $", "KCVX 060915Z AUTO 13007KT 10SM -DZ OVC095 13/05 A3018 RMK AO2 T01250051", "KCWA 060915Z AUTO 10008KT 10SM OVC070 08/07 A3005 RMK AO2", "KCWC 060915Z AUTO 00000KT 10SM CLR 21/13 A2982 RMK AO2 T02090132", "KCWF 060915Z AUTO 22006KT 7SM -VCTSRA SCT008 BKN020 OVC028 25/23 A2999 RMK AO2 LTG DSNT SW THRU NE T02480233", "KCWI 060856Z AUTO 14010KT 10SM OVC080 14/13 A3000 RMK AO2 RAE30 SLP161 P0000 60007 T01390128 55001", "KCWN 060855Z AUTO 22003KT 10SM CLR 11/M09 A2992 RMK AO2 SLP969 T01111087 55003 $", "KCWV 060915Z AUTO 00000KT 5SM BR SCT075 OVC090 17/16 A3018 RMK AO2 T01660157", "KCXE 060915Z AUTO 00000KT 10SM SCT070 BKN090 11/10 A3025 RMK AO1 T01050099", "KCXO 060853Z AUTO 16008KT 10SM CLR 19/18 A2990 RMK AO2 RAE0759 SLP120 P0000 60015 T01890178 56043", "KCXP 060915Z AUTO 00000KT 10SM SCT038 BKN044 OVC060 07/M02 A2999 RMK AO2", "KCXU 060915Z AUTO 10004KT 10SM BKN070 19/15 A3012 RMK AO1 T01900151", "KCXW 060915Z AUTO VRB04KT 10SM OVC010 19/M21 A2994 RMK A01", "KCXY 060856Z AUTO 25006KT 10SM CLR 06/04 A3029 RMK AO2 SLP258 T00610039 53005", "KCYS 060853Z AUTO 28008KT 10SM CLR 05/M02 A2988 RMK AO2 SLP084 T00501022 58004 $", "KCZL 060915Z AUTO 00000KT 10SM OVC049 13/13 A3021 RMK AO2", "KCZT 060915Z AUTO 10006KT 5SM BR OVC012 25/25 A2985 RMK AO2", "KD07 060856Z AUTO 05010KT 12/02 A2980 RMK AO1 SLP084 T01170022 58001", "KD25 060915Z AUTO 10004KT 10SM SCT023 BKN028 OVC075 09/09 A3005 RMK AO2 T00850085", "KD39 060915Z AUTO 06010KT 10SM OVC013 08/05 A2994 RMK AO2 T00840052", "KD50 060915Z AUTO 09007KT 10SM CLR 05/04 A2999 RMK AO2", "KD55 060915Z AUTO 07011KT 10SM BKN070 OVC075 07/07 A3004 RMK AO2", "KD57 060915Z AUTO 07007KT 10SM CLR 05/01 A2986 RMK AO2", "KD60 060915Z AUTO 08010KT 10SM CLR 06/06 A2996 RMK AO2", "KD73 060915Z AUTO 08003KT 10SM OVC060 14/ A3020 RMK AO2 T0140////", "KD95 060915Z AUTO 00000KT 10SM CLR 08/04 A3027 RMK AO2 T00760041", "KDAA 060855Z AUTO 00000KT 10SM CLR 08/07 A3026 RMK AO2 SLP250 T00750074 53006 $", "KDAB 060853Z 00000KT 10SM SCT060 21/17 A3009 RMK AO2 SLP188 T02060167 55006", "KDAG 060850Z AUTO 24019G26KT 10SM CLR 13/03 A2998 RMK AO2 PK WND 24026/0850 SLP139 T01330028 56004", "KDAL 060853Z 17008KT 10SM OVC250 26/12 A2982 RMK AO2 SLP088 T02560117 58002", "KDAN 060853Z AUTO 00000KT 10SM CLR 08/06 A3024 RMK AO2 SLP232 T00780061 53008", "KDAW 060851Z AUTO 30009KT 10SM SCT075 11/03 A3014 RMK AO2 SLP204 T01060028 58001", "KDAY 060856Z 11006KT 10SM FEW250 11/04 A3020 RMK AO2 SLP223 T01110044 53008", "KDBN 060915Z AUTO 00000KT 10SM OVC060 16/15 A3020 RMK AO2", "KDBQ 060853Z AUTO 15010KT 10SM -RA SCT031 BKN045 BKN100 13/11 A2999 RMK AO2 SLP152 P0000 60000 T01280111 55001", "KDCA 060852Z 00000KT 10SM FEW120 12/07 A3028 RMK AO2 SLP252 T01170072 51006 $", "KDCU 060853Z AUTO 11004KT 10SM BKN035 OVC055 15/12 A3013 RMK AO2 SLP200 T01500122 55001", "KDCY 060915Z AUTO 14005KT 10SM OVC085 15/11 A3012 RMK AO2 T01500106", "KDDC 060852Z AUTO 21008KT 10SM CLR 12/07 A2973 RMK AO2 SLP043 T01220067 51005 $", "KDDH 060927Z AUTO 00000KT 8SM SCT001 02/00 A3025 RMK AO2 T00170000 PNO $", "KDEC 060854Z AUTO 14007KT 10SM BKN038 OVC060 15/11 A3006 RMK AO2 SLP175 T01500111 53005", "KDED 060910Z AUTO 00000KT 10SM SCT055 BKN070 OVC100 20/17 A3009 RMK AO2 T01970171", "KDEH 060915Z AUTO 14008G14KT 10SM FEW028 BKN037 OVC060 13/13 A2994 RMK AO2", "KDEN 060853Z 20009KT 10SM CLR 08/02 A2987 RMK AO2 SLP061 T00780022 58008", "KDEQ 060853Z AUTO 11004KT 6SM BR OVC006 22/22 A2988 RMK AO2 SLP114 T02220217 55004", "KDET 060853Z 09004KT 10SM CLR 09/04 A3026 RMK AO2 SLP248 T00940044 53002", "KDEW 060906Z AUTO 20006KT 5SM BR FEW007 BKN011 OVC018 08/07 A2988 RMK AO2 T00830067", "KDFI 060853Z AUTO 08004KT 10SM CLR 09/04 A3022 RMK AO2 SLP231 T00940044 53005", "KDFW 060853Z 21008KT 10SM BKN250 23/13 A2982 RMK AO2 SLP086 T02330128 56002", "KDGW 060853Z AUTO 11009KT 10SM FEW100 FEW120 03/01 A2987 RMK AO2 SLP082 T00330006 51004", "KDHN 060853Z AUTO 05003KT 10SM CLR 16/13 A3015 RMK AO2 SLP204 T01610128 53000", "KDHT 060853Z AUTO 24010KT 10SM CLR 13/M05 A2985 RMK AO2 SLP055 T01281050 53004", "KDIJ 060856Z AUTO 08003KT 10SM CLR M01/M03 A2995 RMK AO2 SLP136 T10061033 50005", "KDIK 060856Z AUTO 05007KT 10SM CLR 06/02 A2987 RMK AO2 SLP112 T00610017 55003", "KDKB 060915Z AUTO 12010KT 10SM SCT075 SCT095 OVC110 14/10 A3007 RMK AO2 T01350100", "KDKK 060853Z AUTO 00000KT 10SM CLR 05/02 A3030 RMK AO2 SLP263 T00500017 53004", "KDKR 060915Z AUTO 00000KT 10SM FEW190 OVC210 21/18 A2983 RMK AO2", "KDKX 060915Z AUTO 00000KT 10SM OVC110 14/12 A3019 RMK A01", "KDLF 060855Z AUTO 10015KT 10SM FEW013 FEW023 25/23 A2983 RMK AO2 SLP086 T02500228 50001 $", "KDLH 060921Z 08014G24KT 3/4SM R09/2800V4000FT BR VV002 05/04 A3005 RMK AO2 TWR VIS 1 T00500044", "KDLL 060915Z AUTO 16009KT 10SM -DZ BKN050 OVC075 15/12 A3003 RMK AO2 T01450117", "KDLN 060853Z AUTO 22007KT 10SM SCT085 BKN120 04/M02 A2981 RMK AO2 SLP069 T00441017 58000", "KDLO 060915Z AUTO 32004KT 10SM BKN060 OVC080 11/07 A3006 RMK AO2 T01140065", "KDLP 060915Z AUTO 16007KT 10SM CLR 24/24 A2991 RMK A01", "KDLS 060853Z AUTO 29004KT 10SM FEW055 BKN100 11/08 A2993 RMK AO2 SLP137 T01060078 55001", "KDLZ 060915Z AUTO 10005KT 10SM SCT110 08/03 A3022 RMK AO2", "KDMA 060855Z 14005KT 10SM CLR 13/M01 A2999 RMK AO2A SLP125 T01261006 58001 RVRNO $", "KDMH 060854Z AUTO 11/06 A3028 RMK AO1 SLP254 T01060056 53007", "KDMN 060853Z AUTO 33003KT 10SM CLR 09/M09 A3004 RMK AO2 SLP114 T00891094 50001", "KDMO 060853Z AUTO 15008KT 10SM OVC013 17/14 A2992 RMK AO2 SLP124 T01670139 53001", "KDMW 060905Z AUTO 00000KT 5SM BR CLR 07/06 A3028 RMK AO2", "KDNA 060915Z AUTO 29006KT 10SM CLR 16/M12 A3002 RMK AO2", "KDNL 060853Z AUTO 07003KT 10SM OVC080 17/13 A3020 RMK AO2 SLP222 T01670133 53001", "KDNN 060915Z AUTO 00000KT 2 1/2SM BR BKN048 OVC080 12/12 A3019 RMK AO2 T01210121", "KDNV 060915Z AUTO 13006KT 10SM OVC080 16/09 A3010 RMK AO2 T01580088", "KDOV 060855Z 00000KT 5SM BR CLR 07/07 A3026 RMK AO2A VIS 1 1/8V5 SLP251 T00690069 52007", "KDPA 060852Z 12007KT 10SM OVC085 17/07 A3006 RMK AO2 SLP177 T01670067 52005", "KDPL 060905Z AUTO 00000KT 7SM BR CLR 08/08 A3025 RMK AO2", "KDQH 060915Z AUTO 08006KT 10SM OVC070 18/15 A3016 RMK AO2 T01780153", "KDRA 060853Z AUTO 25011KT 10SM CLR 13/M02 A2992 RMK AO2 SLP101 T01331017 58003", "KDRI 060915Z AUTO 19003KT 7SM -RA VCTS BKN007 BKN012 OVC016 24/24 A2999 RMK AO2 P0000 T02360236 $", "KDRM 060915Z AUTO 11005KT 10SM -RA BKN070 OVC080 08/08 A3028 RMK AO2 T00770075 P0001", "KDRO 060853Z AUTO 00000KT 10SM CLR 04/M05 A3006 RMK AO2 SLP138 T00441050 51010", "KDRT 060853Z AUTO 10010KT 9SM CLR 27/22 A2983 RMK AO2 SLP090 T02670222 51001", "KDSF 060920Z AUTO 14006KT 7SM OVC055 24/23 A3002 RMK A01", "KDSM 060854Z 13010KT 10SM FEW040 SCT100 BKN200 14/12 A2986 RMK AO2 SLP110 T01440122 51003 $", "KDSV 060854Z AUTO 13004KT 10SM CLR 03/02 A3033 RMK AO2 SLP283 T00330017 53006", "KDTA 060915Z AUTO 14011KT 10SM SCT110 02/M01 A2998 RMK AO1", "KDTL 060915Z AUTO 11012G19KT 10SM OVC020 10/05 A2995 RMK AO2", "KDTN 060853Z AUTO 17008G17KT 8SM FEW017 24/22 A2990 RMK AO2 SLP123 T02440222 56014", "KDTO 060853Z AUTO 14003KT 10SM CLR 19/13 A2982 RMK AO2 SLP090 T01940133 53001", "KDTS 060853Z 08003KT 10SM CLR 19/18 A3007 RMK AO2 SLP182 T01940178 56004", "KDTW 060853Z 00000KT 10SM FEW160 BKN230 08/03 A3027 RMK AO2 SLP249 T00780033 53004", "KDUA 060915Z AUTO 16006KT 10SM CLR 20/15 A2985 RMK AO2", "KDUB 060914Z AUTO 31007KT 10SM CLR 01/M06 A2989 RMK AO2", "KDUC 060915Z AUTO 00000KT 10SM CLR 18/14 A2984 RMK AO2 T01830139", "KDUG 060856Z AUTO 01007KT 10SM CLR 08/M08 A3006 RMK AO2 SLP129 T00781083 58001 TSNO", "KDUH 060915Z AUTO 00000KT 10SM CLR 08/06 A3024 RMK AO2 T00760062", "KDUJ 060853Z AUTO 10005KT 10SM CLR 04/02 A3028 RMK AO2 SLP257 T00440022 53005", "KDUX 060915Z AUTO 22014KT 10SM CLR 16/M05 A2984 RMK AO2 T01551047", "KDVK 060910Z AUTO 00000KT 10SM SCT090 11/08 A3020 RMK AO2", "KDVL 060856Z AUTO 08015G19KT 10SM FEW080 BKN100 09/04 A2999 RMK AO2 SLP174 T00890044 51003", "KDVN 060852Z AUTO 12007KT 10SM OVC026 14/ A3000 RMK AO2 SLP153 60004 T0144 55001 $", "KDVO 060915Z AUTO 00000KT 10SM SCT025 SCT029 OVC037 11/11 A3006 RMK AO2", "KDVP 060913Z AUTO 11006KT 10SM BKN008 OVC017 14/12 A2985 RMK AO2 T01410115", "KDVT 060853Z AUTO 00000KT 10SM CLR 16/M01 A2994 RMK AO2 SLP123 T01611006 58002", "KDWA 060915Z AUTO 17005KT 10SM FEW070 OVC080 11/11 A3007 RMK AO2", "KDWH 060853Z AUTO 16003KT 10SM CLR 20/18 A2992 RMK AO2 SLP131 60008 T02000183 58020", "KDWU 060856Z AUTO 00000KT 10SM CLR 07/ A3020 RMK AO2 SLP225 T0067 53005", "KDWX 060915Z AUTO 00000KT 10SM BKN085 05/00 A2998 RMK AO2 T00451001", "KDXR 060853Z AUTO 20003KT 10SM CLR 06/04 A3025 RMK AO2 SLP244 T00610044 53003", "KDXX 060915Z AUTO 10011KT 10SM SCT012 BKN023 16/12 A2987 RMK AO2", "KDYA 060915Z AUTO 07003KT 10SM BKN044 OVC050 17/15 A3008 RMK AO2 T01680148", "KDYB 060915Z AUTO 00000KT 9SM OVC100 15/15 A3019 RMK AO2", "KDYL 060854Z AUTO 00000KT 9SM CLR 07/06 A3026 RMK AO2 SLP249 T00720056 53004", "KDYR 060856Z AUTO 13005KT 10SM CLR 14/ A3006 RMK AO2 SLP184 T0144 53000", "KDYS 060855Z AUTO 17022KT 10SM CLR 23/14 A2983 RMK AO2 PK WND 16029/21 SLP050 T02280141 58005", "KDYT 060915Z AUTO 05018KT 1/4SM -RA FG OVC002 03/03 A3007 RMK AO2", "KDZB 060915Z AUTO 16003KT 10SM BKN016 19/16 A2992 RMK AO2 T01920156", "KDZJ 060915Z AUTO 00000KT 10SM BKN080 OVC120 11/11 A3022 RMK AO2 T01090106", "KE11 060915Z AUTO 24005KT 10SM CLR 16/00 A2993 RMK AO2 T01640000", "KE16 060915Z AUTO 13004KT 10SM SCT022 BKN037 OVC080 11/09 A3011 RMK AO2", "KE38 060915Z AUTO 24008KT 10SM CLR 18/M07 A3006 RMK AO2 T01801067", "KE41 060915Z AUTO 17006KT 10SM CLR 22/13 A2990 RMK AO2 T02180131", "KE42 060915Z AUTO 21013KT 10SM CLR 14/00 A2980 RMK AO2 T01420002", "KEAN 060910Z AUTO 23003KT 10SM CLR 05/04 A2987 RMK AO2 T00490039", "KEAR 060856Z AUTO 10010KT 10SM OVC044 13/12 A2978 RMK AO2 LTG DSNT NW SLP073 60000 T01280117 57009", "KEAT 060855Z AUTO 31013KT 10SM BKN065 11/03 A2984 RMK AO2 SLP104 T01060028 53002", "KEAU 060917Z AUTO 12007KT 3SM BR SCT004 BKN014 OVC021 13/12 A2997 RMK AO2 T01280122", "KEBA 060915Z AUTO 00000KT 10SM BKN075 OVC100 14/14 A3020 RMK AO2 T01390135", "KEBG 060915Z AUTO 17009KT 3SM BR OVC009 25/24 A2984 RMK AO2 T02520242", "KEBS 060915Z AUTO 12010KT 10SM BKN039 BKN044 OVC075 14/14 A2986 RMK AO2", "KECG 060854Z AUTO 00000KT 10SM CLR 10/09 A3025 RMK AO2 SLP242 T01000089 53005", "KECP 060853Z AUTO 00000KT 10SM CLR 18/16 A3007 RMK AO1 SLP195 T01830161 56003", "KECS 060915Z AUTO 13007KT 10SM CLR 07/06 A2985 RMK AO2", "KECU 060915Z AUTO 14014G19KT 6SM HZ OVC016 23/21 A2997 RMK AO2", "KEDC 060855Z AUTO 20006KT 10SM OVC025 18/18 A2989 RMK AO2", "KEDE 060910Z AUTO 00000KT 10SM CLR 10/10 A3026 RMK AO2 T00970097", "KEDJ 060915Z AUTO 14007KT 10SM FEW041 SCT049 BKN055 13/04 A3021 RMK A01", "KEDN 060915Z AUTO 08003KT 10SM SCT060 16/14 A3010 RMK AO2 T01610137 PWINO", "KEDU 060915Z AUTO 19006KT 10SM FEW090 SCT120 11/10 A3007 RMK AO1", "KEDW 060855Z AUTO 23012KT 10SM CLR 09/05 A2999 RMK AO2 SLP149 T00880048 56005", "KEED 060856Z AUTO 21008KT 10SM CLR 18/01 A2992 RMK AO2 SLP109 T01830011 51004", "KEEN 060856Z AUTO 00000KT 1/4SM FG OVC002 04/04 RMK AO2 SLPNO T00390039 $", "KEEO 060911Z AUTO 27010KT 10SM -RA BKN027 OVC034 04/01 A3002 RMK AO2 RAB02 P0000 T00440006", "KEET 060853Z AUTO 07003KT 10SM CLR 16/12 A3013 RMK AO2 SLP197 T01560122 55000", "KEFK 060915Z AUTO 00000KT 10SM BKN070 04/02 A3022 RMK AO2 T00350018", "KEFT 060915Z AUTO 14008KT 10SM OVC060 13/11 A3002 RMK AO2 P0001 T01270111", "KEGE 060856Z AUTO 28011KT 10SM -RA FEW030 BKN036 OVC050 06/02 A3004 RMK AO2 RAE10B27 SLP084 P0000 60000 T00560017 53014", "KEGI 060855Z AUTO 00000KT 10SM CLR 17/15 A3007 RMK AO2 SLP182 T01670154 56003 TSNO $", "KEGT 060915Z AUTO 17012KT 7SM BR CLR 22/21 A2973 RMK AO2 T02220210", "KEGV 060915Z AUTO 13005KT 10SM -DZ BKN005 OVC020 08/08 A3007 RMK AO2 T00780078", "KEHA 060915Z AUTO 30008KT 10SM CLR 16/M05 A2983 RMK AO2 T01571051", "KEHO 060905Z AUTO 00000KT 10SM CLR 10/10 A3023 RMK AO2 T01010097", "KEHR 060856Z AUTO 14003KT 10SM OVC041 15/11 A3011 RMK AO2 SLP194 T01500111 53006", "KEIK 060915Z AUTO 00000KT 10SM CLR 03/00 A2987 RMK AO2 T00300002", "KEKE 060915Z AUTO 12017KT 4SM BR FEW027 25/24 A2990 RMK A01", "KEKN 060851Z AUTO 00000KT 7SM CLR 02/01 A3026 RMK AO2 SLP256 T00170006 53006", "KEKO 060856Z AUTO 36003KT 10SM OVC055 04/02 A2996 RMK AO2 SLP141 T00390017 58003", "KEKQ 060856Z AUTO 06003KT 10SM OVC095 13/11 A3020 RMK AO2 SLP217 T01280106 53004", "KEKS 060915Z AUTO 17010KT 10SM OVC075 05/M02 A2986 RMK AO2", "KEKX 060915Z AUTO 16004KT 10SM OVC090 14/10 A3015 RMK AO2 T01400100", "KEKY 060856Z AUTO 11006KT 10SM CLR A3013 RMK AO2 SLPNO 55003 FZRANO $", "KELA 060915Z AUTO 14004KT 10SM CLR 20/18 A2993 RMK AO2 T02010177", "KELD 060922Z AUTO 14005KT 8SM FEW006 OVC030 22/22 A2996 RMK AO2 T02220217", "KELK 060915Z AUTO 20010KT 10SM CLR 19/14 A2979 RMK AO2 SLP378 T01880144 $", "KELM 060908Z AUTO 23004KT 10SM FEW002 02/01 A3032 RMK AO2 T00170011", "KELN 060853Z AUTO 31012KT 10SM OVC095 09/03 A2987 RMK AO2 SLP114 T00940028 55001", "KELO 060915Z AUTO 07005KT 10SM OVC008 06/04 A3010 RMK AO2", "KELP 060851Z 33009KT 10SM BKN250 22/M12 A2998 RMK AO2 SLP077 T02221117 53005", "KELY 060853Z AUTO 11004KT 10SM FEW060 00/M01 A2999 RMK AO2 SLP130 60001 T00001011 58005", "KELZ 060856Z AUTO 11003KT 5SM BR CLR 02/01 A3031 RMK AO2 SLP275 T00220006 53004", "KEMM 060915Z AUTO 15004KT 10SM SCT035 01/00 A2996 RMK AO2 TSNO", "KEMP 060853Z AUTO 14010KT 2SM BR OVC003 18/17 A2977 RMK AO2 SLP075 T01830172 56009", "KEMV 060915Z AUTO 00000KT 10SM OVC080 10/09 A3028 RMK AO2 T00950091", "KEND 060855Z AUTO 18014KT 10SM CLR 22/18 A2972 RMK AO2 SLP052 T02150177 58002", "KENL 060915Z AUTO 14003KT 10SM OVC041 15/13 A3004 RMK AO2 T01530125", "KENV 060856Z AUTO 32006KT 10SM FEW100 09/00 A2996 RMK AO2 SLP135 T00940000 50004", "KENW 060853Z AUTO 15012KT 10SM FEW060 OVC095 16/06 A3009 RMK AO2 SLP186 T01560061 51006", "KEOE 060835Z AUTO 00000KT 10SM SCT090 13/13 A3024 RMK AO2", "KEOK 060915Z AUTO 15005KT 10SM OVC019 16/13 A2996 RMK A01", "KEPH 060853Z AUTO 01004KT 10SM OVC049 11/09 A2983 RMK AO2 SLP103 T01060089 53002", "KEQA 060915Z AUTO 16011KT 5SM BR BKN007 22/21 A2975 RMK AO2", "KEQY 060853Z AUTO 00000KT 10SM CLR 11/09 A3022 RMK AO2 SLP238 T01060094 53008 $", "KERI 060851Z AUTO 00000KT 10SM CLR 07/03 A3028 RMK AO2 SLP255 T00670033 53002", "KERV 060915Z AUTO 11007KT 10SM SCT017 OVC022 21/17 A2995 RMK AO2 T02080174", "KERY 060915Z AUTO 12007KT 10SM -RA OVC065 08/06 A3022 RMK AO2 T00810063 P0003", "KESC 060856Z AUTO 08006KT 10SM OVC080 08/07 A3015 RMK AO2 SLP216 60000 T00830072 53002", "KESF 060923Z AUTO 23003KT 6SM BR SCT009 BKN013 OVC028 23/23 A2998 RMK AO2 T02330233", "KESN 060911Z AUTO 02003KT 10SM CLR A3031 RMK AO2", "KEST 060852Z AUTO 12011KT 7SM FEW006 OVC018 15/13 A2986 RMK AO2 SLP106 T01500133 55006", "KETB 060915Z AUTO 16006KT 10SM -RA SCT075 OVC090 15/05 A3008 RMK AO2", "KETC 060900Z AUTO 00000KT 7SM OVC090 11/11 A3023 RMK AO2 T01110106", "KETH 060913Z AUTO 08009KT 10SM OVC015 10/06 A2991 RMK AO2", "KETN 060910Z AUTO 16005KT 10SM CLR 19/14 A2989 RMK AO2 T01870140", "KEUF 060858Z AUTO 00000KT 10SM CLR 16/16 A3014 RMK AO2 SLP203 T01610156 55001", "KEUG 060913Z AUTO 00000KT 10SM FEW008 BKN033 OVC060 11/09 A2998 RMK AO2 T01060094", "KEUL 060856Z AUTO 18007KT 10SM -RA OVC020 07/06 A2993 RMK AO2 SLP135 P0003 60003 T00720061 51004", "KEVM 060915Z AUTO 07006KT 10SM OVC010 08/06 A3006 RMK AO2 T00750056", "KEVU 060915Z AUTO 15008KT 7SM OVC009 17/16 A2982 RMK AO2 T01750160", "KEVV 060854Z AUTO 00000KT 10SM OVC050 16/12 A3011 RMK AO2 SLP194 T01560117 53007 $", "KEVW 060921Z AUTO 23014KT 9SM -SN BKN003 OVC055 01/00 A2997 RMK AO2 SNB21 P0000 T00110000", "KEWB 060853Z AUTO VRB04KT 10SM CLR 08/06 A3016 RMK AO2 SLP211 T00830061 56003", "KEWK 060923Z AUTO 15010KT 7SM FEW013 SCT020 22/22 A2974 RMK AO2", "KEWN 060854Z AUTO 00000KT 10SM SCT095 13/12 A3024 RMK AO2 SLP240 T01280117 53005", "KEWR 060851Z 25005KT 10SM CLR 09/07 A3025 RMK AO2 SLP243 T00940067 53003", "KEXX 060910Z AUTO 00000KT 10SM CLR 08/08 A3023 RMK AO2 T00840084", "KEYE 060853Z AUTO 12004KT 10SM CLR 14/07 A3013 RMK AO2 SLP199 T01440067 53007", "KEYF 060910Z AUTO 00000KT 10SM CLR 11/10 A3023 RMK AO2 T01070099", "KEYW 060853Z AUTO 07004KT 10SM SCT028 26/20 A3003 RMK AO2 SLP175 T02560200 55004", "KEZF 060915Z AUTO 00000KT 10SM BKN100 11/11 A3027 RMK AO2 T01050105", "KEZM 060915Z AUTO 07004KT 10SM OVC070 16/14 A3018 RMK AO2", "KEZP 060930Z AUTO 18008KT 7SM OVC021 26/24 A2997 RMK A01", "KEZS 060915Z AUTO 08004KT 10SM SCT080 OVC120 10/10 A3007 RMK AO2 T01020102", "KEZZ 060915Z AUTO 14011KT 10SM OVC012 16/15 A2986 RMK AO2 T01650147", "KF00 060915Z AUTO 16007KT 10SM CLR 22/14 A2984 RMK AO2 T02200140", "KF05 060915Z AUTO 21007KT 10SM CLR 19/14 A2981 RMK AO2 T01920140", "KF17 060835Z AUTO 20007G14KT 10SM CLR 23/17 A2992 RMK AO2", "KF44 060915Z AUTO 00000KT 10SM CLR 23/13 A2984 RMK AO2", "KF46 060915Z AUTO 18004KT 10SM CLR 23/13 A2984 RMK AO2 T02270128", "KF70 060915Z AUTO 00000KT 10SM CLR 10/09 A3007 RMK AO2", "KFAF 060855Z AUTO 00000KT 10SM BKN090 OVC110 13/11 A3023 RMK AO2 SLP240 T01280105 53004 $", "KFAM 060856Z AUTO 17008KT 10SM OVC018 15/12 A3002 RMK AO2 SLP174 T01500122 55003", "KFAR 060853Z 05009KT 10SM FEW085 10/05 A2993 RMK AO2 SLP137 T01000050 50001", "KFAT 060853Z 33006KT 10SM -RA SCT070 BKN080 BKN100 13/09 A3007 RMK AO2 RAB38 SLP180 P0000 60000 T01330089 50003", "KFAY 060853Z 00000KT 10SM CLR 12/11 A3022 RMK AO2 SLP226 T01220106 53005", "KFBG 060855Z AUTO 00000KT 10SM CLR 12/12 A3020 RMK AO2 SLP229 T01170115 52005", "KFBL 060915Z AUTO 10006KT 10SM OVC018 14/13 A2992 RMK AO2", "KFCI 060856Z AUTO 00000KT 10SM BKN085 OVC100 09/09 A3027 RMK AO2 SLP261 T00940094 53008", "KFCM 060853Z AUTO 07006KT 6SM BR SCT008 BKN022 OVC032 13/12 A2992 RMK AO2 SLP132 T01330117 56001", "KFCS 060855Z AUTO 00000KT 10SM CLR 10/M08 A2988 RMK AO2 SLP076 T00951077 50005 $", "KFDK 060910Z AUTO 00000KT M1/4SM VV000 05/05 A3030 RMK AO2", "KFDR 060853Z AUTO 20008KT 10SM CLR 19/14 A2977 RMK AO2 SLP059 T01890139 58001", "KFDW 060915Z AUTO 00000KT 10SM CLR 13/13 A3021 RMK AO1", "KFDY 060853Z AUTO 09006KT 10SM CLR 09/05 A3020 RMK AO2 SLP224 T00940050 53003", "KFEP 060915Z AUTO 12003KT 7SM -RA BKN033 OVC060 13/13 A3005 RMK AO2 P0001 T01320131", "KFET 060915Z AUTO 00000KT 10SM -VCTSRA SCT039 OVC047 14/13 A2986 RMK AO2 LTG DSNT N AND NE T01400130", "KFFA 060910Z AUTO 00000KT 10SM SCT120 12/11 A3024 RMK AO2 T01160109", "KFFC 060853Z AUTO 00000KT 9SM OVC055 14/13 A3018 RMK AO2 SLP219 T01390133 55001", "KFFL 060915Z AUTO 17014KT 10SM OVC017 15/12 A2992 RMK A01", "KFFM 060915Z AUTO 09012G18KT 10SM OVC016 10/06 A2991 RMK AO2", "KFFO 060855Z AUTO 00000KT 10SM SCT200 08/05 A3017 RMK AO2 SLP219 T00830047 53009", "KFFT 060853Z AUTO 00000KT 10SM CLR 11/07 A3016 RMK AO2 SLP208 T01060072 53005", "KFFX 060915Z AUTO 13007KT 10SM BKN100 13/05 A3017 RMK AO2 T01250048", "KFFZ 060854Z AUTO 04003KT 10SM CLR 18/00 A2994 RMK AO2 SLP119 T01830000 50001", "KFGN 060915Z AUTO 10008G15KT 10SM BKN026 07/02 A3012 RMK AO2", "KFGX 060915Z AUTO 11003KT 10SM CLR 10/04 A3021 RMK AO2 T00970038", "KFHB 060915Z AUTO 09015KT 5SM -RA BKN008 BKN013 OVC028 19/ A3013 RMK AO2 P0002", "KFHR 060853Z AUTO 00000KT 10SM BKN029 OVC048 A2995 RMK AO2 SLPNO 50000 $", "KFHU 060855Z AUTO 00000KT 10SM CLR 12/M03 A3008 RMK AO2 SLP139 T01171033 58000", "KFIG 060854Z AUTO 35004KT 5SM BR CLR 02/01 A3030 RMK AO2 SLP267 T00170006 53006", "KFIN 060915Z AUTO 00000KT 10SM SCT065 SCT100 SCT120 20/18 A3010 RMK AO2 T01950180", "KFKL 060856Z AUTO 09003KT 10SM CLR 04/04 A3028 RMK AO2 SLP260 T00390039 53002", "KFKN 060915Z AUTO 00000KT 10SM OVC120 08/08 A3027 RMK AO2 T00800076", "KFKR 060915Z AUTO 12009KT 10SM SCT033 BKN038 OVC120 14/07 A3012 RMK AO2", "KFKS 060915Z AUTO 15014G19KT 10SM BKN100 OVC110 15/07 A3013 RMK AO2 T01480067", "KFLD 060853Z AUTO 13007KT 10SM FEW055 OVC090 14/08 A3006 RMK AO2 RAE05 SLP178 P0000 60000 T01440083 51004", "KFLG 060857Z AUTO 27004KT 10SM CLR 02/M04 A3008 RMK AO2 SLP134 T00221039 58004", "KFLL 060853Z 04003KT 10SM CLR 23/19 A3003 RMK SLP169 T02330194 $", "KFLO 060853Z AUTO 00000KT 10SM CLR 12/10 A3022 RMK AO2 SLP232 T01170100 53004", "KFLP 060928Z AUTO 11004KT 10SM OVC009 18/17 A2995 RMK AO2", "KFLY 060915Z AUTO 35004G14KT 10SM CLR 05/M06 A2996 RMK AO2 T00541058", "KFME 060909Z AUTO 00000KT 7SM CLR 04/04 A3031 RMK AO1", "KFMH 060856Z 3005KT 10SM CLR 08/07 A3015", "KFMM 060915Z AUTO 00000KT 10SM CLR 06/06 A2987 RMK AO2", "KFMN 060853Z AUTO 00000KT 10SM CLR 08/M06 A3003 RMK AO2 SLP134 T00831061 51010", "KFMY 060853Z AUTO 10005KT 10SM SCT039 23/19 A3005 RMK AO2 SLP177 T02280194 56004", "KFNB 060853Z AUTO 15010KT 10SM OVC009 17/16 A2978 RMK AO2 SLP080 T01720161 58001", "KFNL 060856Z 35003KT 10SM CLR 08/02 A2986 RMK AO2 SLP071 T00780022 58008", "KFNT 060853Z AUTO 14009KT 10SM CLR 10/04 A3025 RMK AO2 SLP244 T01000039 53006", "KFOA 060915Z AUTO 14009KT 10SM BKN033 15/12 A3007 RMK AO2", "KFOD 060856Z AUTO 11008KT 10SM FEW050 BKN075 14/13 A2987 RMK AO2 SLP124 60001 T01390128 55002", "KFOE 060853Z AUTO 5SM BR OVC007 18/17 A2979 RMK AO2 SLP080 T01780167 55007 $", "KFOK 060926Z AUTO 00000KT SCT002 02/01 A3024 RMK AO2 T00170006 $", "KFOZ 060913Z AUTO 08007KT 10SM OVC014 09/06 A3011 RMK AO2", "KFPK 060915Z AUTO 12004KT 10SM CLR 10/03 A3021 RMK AO2 T01000030", "KFPR 060853Z AUTO 00000KT 10SM CLR 19/18 A3007 RMK AO2 SLP180 T01940183 56004", "KFPY 060915Z AUTO 00000KT 10SM -DZ CLR 19/16 A3010 RMK AO2 T01900155", "KFQD 060905Z AUTO 00000KT 10SM CLR 10/10 A3024 RMK AO2", "KFRG 060853Z AUTO 33003KT 10SM CLR 09/07 A3024 RMK AO2 SLP240 T00940072 53001", "KFRH 060915Z AUTO 00000KT 10SM OVC080 15/08 A3013 RMK AO1", "KFRI 060920Z AUTO 14013G19KT 10SM SCT011 BKN016 BKN029 19/18 A2971 RMK AO2 CIG 016V029 SLP051 $", "KFRM 060856Z AUTO 12010KT 10SM OVC008 15/13 A2987 RMK AO2 SLP116 T01500133 58006", "KFSD 060856Z AUTO 16006KT 10SM OVC017 16/13 A2984 RMK AO2 SLP099 T01610128 55000", "KFSI 060855Z AUTO 16003KT 10SM CLR 18/14 A2978 RMK AO2 SLP075 T01810140 55000 FZRANO $", "KFSK 060910Z AUTO 14007KT 10SM OVC013 18/17 A2985 RMK AO2 T01830169", "KFSM 060853Z AUTO 07008KT 8SM BKN011 19/18 A2988 RMK AO2 SLP113 T01940178 58007 $", "KFST 060853Z AUTO 24009KT 10SM CLR 21/M07 A2991 RMK AO2 WSHFT 0806 SLP076 T02111072 53004 $", "KFSW 060915Z AUTO 14006KT 10SM 16/12 A2996 RMK AO2", "KFTK 060855Z AUTO 09003KT 10SM -RA OVC085 15/10 A3012 RMK AO2 RAE31RAB43 SLP198 P0000 60000 T01460102 53003", "KFTN 060915Z AUTO 09010KT 5SM HZ OVC015 25/23 A2985 RMK A01", "KFTW 060853Z 13007KT 10SM CLR 22/13 A2982 RMK AO2 SLP088 T02170128 53002", "KFTY 060853Z 00000KT 10SM OVC055 14/13 A3018 RMK AO2 SLP215 T01440133 55002", "KFUL 060853Z AUTO 08003KT 10SM CLR 12/10 A3007 RMK AO2 SLP183 T01220100 56004", "KFVE 060853Z AUTO 30007KT 10SM CLR 08/01 A3001 RMK AO2 SLP163 T00780011 58005", "KFVX 060915Z AUTO 35004KT 10SM SCT070 BKN080 09/07 A3026 RMK AO2 T00910074", "KFWA 060854Z 08007KT 10SM FEW140 BKN250 09/06 A3019 RMK AO2 SLP221 T00890056 53005", "KFWB 060915Z AUTO 11007KT 060V160 3SM BR OVC003 16/16 A2993 RMK AO2", "KFWC 060915Z AUTO 15006KT 10SM BKN033 16/11 A3007 RMK AO1 T01570106", "KFWN 060923Z AUTO 00000KT 3SM BR OVC002 03/02 A3027 RMK AO2 T00280022", "KFWS 060915Z AUTO 19003KT 10SM CLR 20/13 A2985 RMK AO2 T02000130", "KFXE 060853Z 03003KT 10SM CLR 23/20 A3004 RMK AO2 SLP175 6//// T02330200 56005 PNO", "KFXY 060915Z AUTO 13008KT 10SM OVC008 13/12 A2989 RMK AO2", "KFYE 060915Z AUTO VRB04KT 10SM FEW035 SCT048 OVC065 16/14 A3004 RMK A01", "KFYG 060915Z AUTO 13006KT 10SM SCT019 SCT060 SCT090 16/15 A2997 RMK AO2", "KFYJ 060915Z AUTO 00000KT 10SM OVC080 10/09 A3027 RMK AO1 T00960091", "KFYM 060915Z AUTO 14004KT 10SM BKN034 BKN045 OVC055 14/12 A3015 RMK A01", "KFYV 060853Z AUTO 16009KT 6SM HZ SCT014 22/19 A2987 RMK AO2 PK WND 18026/0830 SLP103 T02170189 56009", "KFZG 060915Z AUTO 00000KT 10SM SCT070 OVC080 18/15 A3016 RMK AO2 T01750151", "KFZY 060854Z AUTO 00000KT 5SM BR CLR 03/02 A3031 RMK AO2 SLP265 T00330022 52006", "KGAD 060856Z AUTO 06004KT 10SM OVC045 14/14 A3017 RMK AO2 SLP218 6//// T01440139 55000 PNO $", "KGAF 060915Z AUTO 06008KT 10SM CLR 08/04 A3004 RMK AO2", "KGAG 060853Z AUTO 20007KT 10SM CLR 17/10 A2976 RMK AO2 SLP048 T01670100 53003", "KGAI 060856Z AUTO 00000KT 10SM CLR 07/06 A3029 RMK AO2 SLP270 T00670056 53006", "KGAO 060915Z AUTO 14003KT 10SM CLR 25/24 A3000 RMK AO2 T02510235", "KGBD 060856Z AUTO 19013KT 10SM CLR 18/14 A2968 RMK AO2 SLP036 T01780144 56005", "KGBG 060915Z AUTO 16008KT 10SM OVC021 16/12 A3000 RMK AO2 T01550118 TSNO", "KGCC 060900Z AUTO 26008KT 10SM SCT006 07/06 A2981 RMK AO2 T00670056", "KGCD 060915Z AUTO 00000KT 10SM OVC024 04/04 A2995 RMK AO2 T00380035", "KGCK 060854Z AUTO 32009KT 10SM CLR 13/08 A2974 RMK AO2 SLP044 T01280078 53011", "KGCM 060915Z AUTO 17004KT 3SM BR OVC015 19/19 A2983 RMK AO2", "KGCN 060902Z AUTO 00000KT 7SM CLR M04/M09 A3007 RMK AO2 T10391094", "KGCY 060915Z AUTO 10005KT 10SM SCT070 13/09 A3021 RMK A01", "KGDA 060915Z AUTO 15003KT 10SM SCT037 13/10 A3009 RMK AO2 T01300101 PWINO", "KGDB 060915Z AUTO 07008KT 10SM OVC026 15/13 A2988 RMK AO2 T01450125", "KGDJ 060915Z AUTO 18004KT 10SM CLR 23/13 A2985 RMK AO2 T02260131", "KGDP 060851Z AUTO 23019G33KT 8SM CLR 17/M12 RMK AO2 PK WND 25033/0849 SLPNO T01721122 $", "KGDV 060856Z AUTO 09013KT 10SM FEW060 BKN070 OVC090 12/02 A2987 RMK AO2 SLP108 T01170022 51006 TSNO", "KGED 060927Z AUTO 00000KT 1 1/4SM BR OVC001 08/06 A3028 RMK AO2 T00780061", "KGEG 060853Z 21011KT 10SM FEW005 BKN009 OVC015 08/06 A2988 RMK AO2 SLP119 T00780061 50001", "KGEV 060905Z AUTO 00000KT 10SM CLR 08/05 A3026 RMK AO2 T00780052", "KGEY 060853Z AUTO 00000KT SCT065 SCT075 11/05 A2981 RMK AO2 RAB29E38 SLP068 P0000 60000 T01110050 50009", "KGEZ 060853Z AUTO 13006KT 10SM CLR 14/06 A3015 RMK AO2 SLP205 T01390061 53009 $", "KGFA 060855Z AUTO 21007KT 10SM FEW045 OVC060 09/08 A2974 RMK AO2 DZE28 SLP076 P0000 60006 T00870081 58009 $", "KGFK 060853Z AUTO 08008KT 10SM CLR 08/03 A3000 RMK AO2 SLP160 T00830033 51004", "KGFL 060915Z AUTO 00000KT 3SM BR SCT002 03/01 A3026 RMK AO2 I1000 T00280011", "KGGE 060915Z AUTO 00000KT 10SM CLR 12/12 A3021 RMK AO2", "KGGF 060915Z AUTO 31006KT 10SM CLR 08/08 A2982 RMK AO2", "KGGG 060853Z AUTO 14005KT 10SM CLR 24/16 A2985 RMK AO2 SLP102 T02390156 56013", "KGGI 060915Z AUTO 12008KT 10SM CLR 14/12 A2991 RMK AO2 T01430122", "KGGP 060915Z AUTO 12009KT 10SM CLR 12/06 A3014 RMK AO2", "KGGW 060853Z AUTO 11024G34KT 10SM SCT080 OVC100 13/02 A2984 RMK AO2 PK WND 09035/0838 SLP098 T01280017 58002", "KGHG 060915Z AUTO 23004KT 10SM CLR 07/05 A3015 RMK AO2", "KGHW 060915Z AUTO 07012KT 10SM OVC011 09/06 A2993 RMK AO2", "KGIC 060915Z AUTO 35003KT 5SM BKN006 BKN011 OVC018 06/06 A2988 RMK AO1", "KGIF 060853Z AUTO 07004KT 10SM BKN049 21/17 A3009 RMK AO2 SLP186 T02110172 55004", "KGJT 060853Z AUTO 25011G23KT 10SM BKN070 OVC100 12/M02 A2998 RMK AO2 SLP108 T01171022 51026", "KGKJ 060853Z AUTO 09003KT 10SM CLR 07/03 A3026 RMK AO2 SLP251 T00670033 53001", "KGKT 060915Z AUTO 00000KT 10SM OVC110 13/12 A3020 RMK A01", "KGKY 060853Z AUTO 21004KT 10SM CLR 20/14 A2982 RMK AO2 SLP089 T02000144 51001", "KGLD 060853Z AUTO 33010KT 10SM CLR 09/08 A2979 RMK AO2 SLP054 T00940078 51010", "KGLE 060915Z AUTO 18005KT 10SM CLR 19/12 A2984 RMK AO2 T01850121 PWINO", "KGLH 060853Z AUTO 14010KT 10SM OVC016 21/19 A2998 RMK AO2 SLP159 T02060189 53002", "KGLR 060853Z AUTO 15011KT 10SM OVC085 09/04 A3021 RMK AO2 SLP236 T00940044 53002", "KGLS 060852Z AUTO 34004KT 10SM FEW011 BKN034 OVC041 25/24 A2998 RMK AO2 SLP151 T02500239 58003", "KGLW 060915Z AUTO 00000KT 10SM OVC070 15/11 A3015 RMK AO2 T01470111", "KGLY 060915Z AUTO 14008KT 9SM BKN012 OVC021 18/16 A2988 RMK AO2", "KGMJ 060915Z AUTO 15006KT 5SM BR BKN013 21/20 A2985 RMK AO2", "KGMU 060853Z AUTO 00000KT 10SM CLR 16/11 A3022 RMK AO2 SLP227 T01610106 53006", "KGNA 060856Z AUTO 09010KT 06/04 A3012 RMK AO1 SLP202 T00610044 51005", "KGNB 060915Z AUTO 12004KT 10SM CLR M01/M06 A3002 RMK AO2 T10141060", "KGNC 060910Z AUTO 28004KT 10SM CLR 14/03 A2996 RMK AO2 T01410025", "KGNG 060920Z AUTO 22005KT 10SM BKN042 OVC060 06/06 A2995 RMK AO2", "KGNR 060856Z AUTO 33009KT 09/01 A3005 RMK AO1 SLP181 T00890011 56007", "KGNT 060915Z AUTO 00000KT 10SM CLR 03/M09 A3012 RMK AO2 T00261086", "KGNV 060853Z AUTO 00000KT 10SM FEW049 OVC085 19/17 A3012 RMK AO2 RAB11E21 SLP197 P0000 60000 T01940167 58001", "KGOK 060853Z AUTO 18010KT 6SM BR CLR 23/21 A2975 RMK AO2 SLP064 T02280211 50000 $", "KGON 060923Z AUTO 00000KT 1 3/4SM BR CLR 05/03 A3020 RMK AO2 T00500028", "KGOO 060915Z AUTO 00000KT 1/4SM FG OVC002 05/05 A3003 RMK A01", "KGOV 060855Z AUTO M M M M M M RMK AO2 SLPNO RVRNO PWINO PNO FZRANO CHINO RWY23 $", "KGPC 060915Z AUTO 12004KT 10SM OVC080 14/09 A3013 RMK AO2 T01390090", "KGPH 060915Z AUTO 14005KT 10SM OVC013 17/13 A2986 RMK AO2", "KGPI 060916Z AUTO 15011KT 10SM SCT006 OVC011 09/08 A2977 RMK AO2 RAB0856E07 P0000 T00890083", "KGPM 060915Z AUTO 21005KT 10SM CLR 23/12 A2984 RMK AO2 T02280123", "KGPT 060853Z AUTO 13007KT 10SM OVC006 24/23 A3001 RMK AO2 SLP161 T02390228 56006", "KGPZ 060856Z AUTO 09004KT 10SM OVC013 A3006 RMK AO2 SLPNO 55001 FZRANO", "KGRB 060853Z AUTO 14004KT 10SM OVC110 13/07 A3008 RMK AO2 SLP187 T01280067 53003", "KGRD 060856Z AUTO 00000KT 10SM SCT080 12/11 A3022 RMK AO2 SLP230 T01220111 53004", "KGRF 060915Z 00000KT 10SM BKN021 BKN050 OVC085 08/07 A2994 RMK AO2A CIG 019V050 SLP143 $", "KGRI 060853Z AUTO 11011KT 10SM BKN048 OVC055 13/11 A2977 RMK AO2 RAE04 SLP076 P0001 60021 T01330111 58024", "KGRK 060855Z AUTO 17010KT 10SM CLR 19/15 A2988 RMK AO2 SLP107 T01850154 55004", "KGRN 060915Z AUTO 29006KT 10SM CLR 08/08 A2983 RMK AO2 T00810075", "KGRR 060853Z AUTO 12009KT 10SM CLR 11/03 A3019 RMK AO2 SLP223 T01060028 53004", "KGRY 060915Z AUTO 14009G18KT 10SM FEW017 BKN045 OVC095 24/23 A3001 RMK A01", "KGSB 060855Z 10003KT 10SM SCT085 12/11 A3021 RMK AO2A SLP233 WND DATA ESTMD T01170112 53007 $", "KGSO 060854Z 00000KT 10SM FEW060 FEW250 11/08 A3022 RMK AO2 SLP228 T01060078 53007", "KGSP 060853Z AUTO 00000KT 10SM CLR 13/11 A3022 RMK AO2 SLP226 T01330106 53005", "KGTB 060855Z AUTO 00000KT 10SM CLR 03/03 A3027 RMK AO2 SLP253 T00310030 53007 $", "KGTF 060914Z 22007KT 10SM BKN007 BKN060 OVC080 08/08 A2974 RMK AO2 RAE0856 P0000 T00830078", "KGTR 060856Z AUTO 12010KT 10SM OVC011 18/15 A3009 RMK AO2 CIG 009V014 SLP194 T01780150 53001", "KGTU 060856Z AUTO 19008KT 10SM CLR 18/17 A2993 RMK AO2 SLP127 T01830167 56014", "KGUC 060856Z AUTO 35003KT 10SM BKN095 01/M05 A3005 RMK AO2 SLP139 T00111050 51007 FZRANO", "KGUL 060920Z AUTO 12005KT 3SM BR SCT020 25/24 A2995 RMK A01", "KGUP 060853Z AUTO 18006KT 10SM CLR 04/M07 A3011 RMK AO2 SLP113 T00391067 50005", "KGUR 060855Z AUTO 00000KT 6SM BR FEW100 05/05 A2986 RMK AO2 SLP117 T00500050 50003", "KGUS 060855Z AUTO 13006KT 10SM OVC150 12/06 A3014 RMK AO2 SLP207 T01180063 52010 TSNO $", "KGUY 060853Z AUTO 24005KT 10SM CLR 12/01 A2978 RMK AO2 SLP044 T01170011 51006", "KGVE 060915Z AUTO 00000KT 10SM BKN070 OVC085 10/08 A3027 RMK AO1 T00950082", "KGVL 060853Z AUTO 08005KT 10SM OVC100 14/11 A3021 RMK AO2 SLP223 60000 T01390106 58000", "KGVQ 060856Z AUTO 00000KT 10SM CLR 04/03 A3031 RMK AO2 SLP266 T00390033 51006", "KGVT 060915Z AUTO 11006KT 10SM CLR 20/17 A2985 RMK AO2 TSNO T02000166", "KGVW 060920Z AUTO 33003KT 5SM BR SCT007 BKN011 OVC031 24/24 A2999 RMK A01", "KGWB 060915Z AUTO 09005KT 10SM CLR 08/05 A3021 RMK AO2", "KGWO 060853Z AUTO 15007KT 10SM BKN032 BKN043 20/17 A3001 RMK AO2 SLP161 T02000167 56000", "KGWR 060915Z AUTO 08010G18KT 10SM OVC019 11/08 A2989 RMK A01", "KGWW 060910Z AUTO 00000KT 10SM SCT085 11/11 A3024 RMK AO2 T01080108", "KGXA 060855Z AUTO 26008KT 10SM CLR 09/03 A3000 RMK AO2 SLP148 WND DATA ESTMD T00920031 55007", "KGXF 060855Z AUTO 13008KT 10SM CLR 15/M03 A2995 RMK AO2 SLP134 T01531026 50001 FZRANO $", "KGXY 060856Z AUTO 01005KT 10SM CLR 06/02 A2987 RMK AO2 SLP100 T00560022 58003", "KGYB 060915Z AUTO 19006KT 10SM CLR 19/17 A2990 RMK AO2 T01860173", "KGYF 060915Z AUTO 17015KT 5SM OVC015 A2990 RMK AO2 PWINO", "KGYH 060915Z AUTO 00000KT 10SM CLR 15/12 A3022 RMK A02 T01470116", "KGYI 060915Z AUTO 17008KT 10SM CLR 22/14 A2984 RMK AO2 T02150137 TSNO", "KGYL 060915Z AUTO 08008KT 5SM -RA BKN006 OVC018 13/12 A2991 RMK AO2 T01270122", "KGYY 060915Z AUTO 13006KT 10SM BKN110 A3011 RMK AO2", "KGZH 060853Z AUTO 00000KT 8SM BKN043 OVC060 18/16 A3009 RMK AO2 SLP187 T01780161 55003", "KGZL 060915Z AUTO 10009KT 3SM BR CLR 19/18 A2984 RMK AO2", "KGZN 060900Z AUTO 18014G21KT 10SM SCT019 BKN026 OVC031 21/15 A2986 RMK AO2", "KGZS 060915Z AUTO 00000KT 13/13 RMK A01", "KHAE 060915Z AUTO 14005KT 10SM OVC019 16/12 A2997 RMK AO2", "KHAF 060915Z AUTO 17007KT 9SM OVC009 12/10 A3007 RMK AO2", "KHAI 060915Z AUTO 11005KT 10SM CLR 11/03 A3019 RMK AO2 T01140033", "KHAO 060853Z AUTO 00000KT 10SM CLR 09/07 A3019 RMK AO2 SLP222 T00890067 53008", "KHBG 060914Z AUTO 08003KT 2SM BR OVC003 21/20 A3005 RMK AO2 T02060200", "KHBI 060905Z AUTO 00000KT 10SM CLR 10/09 A3025 RMK AO2 T00950085", "KHBR 060853Z AUTO 20009KT 10SM CLR 19/13 A2980 RMK AO2 SLP071 T01890133 53005", "KHBV 060915Z AUTO 11008KT 3SM BR BKN004 OVC009 24/23 A2987 RMK AO2 T02370230", "KHCD 060915Z AUTO 06007KT 4SM DZ OVC007 13/13 A2992 RMK AO2 T01330127", "KHCO 060915Z AUTO 07007KT 10SM 07/04 A3005 RMK AO2", "KHCR 060915Z AUTO 7SM UP SCT014 SCT021 BKN034 03/00 A2998 RMK AO2", "KHDC 060915Z AUTO 12003KT 7SM BKN004 BKN009 OVC013 23/23 A3000 RMK AO2 T02260225", "KHDE 060915Z AUTO 09012KT 10SM SCT043 SCT055 SCT070 13/10 A2975 RMK AO2 T01310100", "KHDL 060915Z AUTO 00000KT 10SM FEW044 FEW050 SCT070 16/15 A3011 RMK AO2", "KHDN 060856Z AUTO VRB05KT 10SM SCT075 BKN110 05/M03 A2998 RMK AO2 SLP112 60000 T00501028 50006", "KHDO 060851Z AUTO 11011KT 10SM -RA BKN012 OVC024 26/23 A2991 RMK AO2 SLP112 P0000 60000 T02560228 50001", "KHEF 060856Z AUTO 00000KT 10SM FEW085 07/07 A3029 RMK AO2 SLP261 T00720072 53007", "KHEG 060915Z AUTO 00000KT 10SM SCT060 BKN080 OVC120 20/18 A3013 RMK AO2", "KHEI 060853Z AUTO 09014KT 10SM FEW100 10/04 A2986 RMK AO2 SLP106 60000 T01000039 56006", "KHEQ 060915Z AUTO 33008KT 10SM CLR 08/07 A2984 RMK AO2", "KHEY 060855Z AUTO 04003KT 10SM SCT075 17/14 A3009 RMK AO2 SLP190 T01680139 53001", "KHEZ 060856Z AUTO 16006KT 9SM OVC005 22/21 A3000 RMK AO2 SLP158 T02220211 53001", "KHFD 060927Z AUTO 00000KT 3SM BR CLR 06/04 A3023 RMK AO2 T00560044", "KHFF 060855Z AUTO 00000KT 10SM CLR 10/09 A3020 RMK AO2 SLP228 T00960094 52007 $", "KHFJ 060915Z AUTO 12009KT 7SM OVC012 17/17 A2989 RMK AO2", "KHFY 060915Z AUTO 13004KT 10SM SCT080 15/08 A3015 RMK AO2 T01490075", "KHGR 060853Z AUTO 31004KT 10SM CLR 06/04 A3029 RMK AO2 SLP267 T00610039 53007 $", "KHHF 060915Z AUTO 00000KT 10SM CLR 16/00 A2978 RMK AO2 T01620000", "KHHG 060915Z AUTO 09003KT 10SM CLR 09/06 A3018 RMK AO2 T00860064", "KHHR 060853Z AUTO 00000KT 10SM CLR 15/09 A3008 RMK AO2 SLP185 T01500089 58003", "KHHW 060915Z AUTO 12006KT 1/2SM FG OVC003 22/21 A2986 RMK AO2", "KHIB 060853Z AUTO 07007KT 10SM OVC011 07/05 A3005 RMK AO2 SLP184 T00670050 55007", "KHIE 060852Z AUTO 00000KT 10SM CLR M01/M02 A3020 RMK AO2 SLP233 T10061017 51001", "KHIF 060923Z AUTO 17011KT 10SM -RA FEW005 FEW022 BKN033 OVC041 07/04 A2994 RMK AO2 RAB00E20RAB23 SLP114", "KHIO 060853Z 19004KT 10SM OVC036 11/08 A2996 RMK AO2 SLP146 T01110083 56000", "KHJH 060915Z AUTO 04009KT 7SM -RA OVC008 18/17 A2981 RMK AO2 T01790169", "KHJO 060853Z AUTO 34008KT 10SM BKN065 13/08 A3007 RMK AO2 SLP183 T01330078 50004", "KHKA 060853Z AUTO 14006KT 10SM BKN065 16/13 A3003 RMK AO2 SLP167 T01560133 55004 $", "KHKS 060853Z AUTO 13005KT 10SM BKN012 OVC019 21/19 A3003 RMK AO2 SLP160 T02060189 53002", "KHKY 060853Z 00000KT 10SM CLR 10/08 A3022 RMK AO2 SLP217 T01000083 53007", "KHLB 060915Z AUTO 00000KT 10SM CLR 11/06 A3016 RMK A01", "KHLC 060853Z AUTO 05009KT 9SM FEW024 OVC030 18/14 A2972 RMK AO2 SLP040 T01780144 50023", "KHLG 060853Z AUTO 08003KT 10SM CLR 08/02 A3024 RMK AO2 SLP243 T00830022 53006", "KHLN 060853Z AUTO 27006KT 10SM FEW049 BKN120 11/06 A2974 RMK AO2 SLP066 T01110061 58003", "KHLR 060855Z AUTO 18011KT 7SM CLR 20/15 A2988 RMK AO2 SLP107 T01960150 55004", "KHLX 060915Z AUTO 00000KT 10SM CLR 09/06 A3024 RMK AO2 T00850058", "KHMN 060855Z AUTO 10003KT 10SM CLR 14/M10 A3004 RMK AO2 SLP112 T01441104 52007", "KHMP 060915Z AUTO 11006KT 10SM OVC060 15/13 A3021 RMK AO2 T01460132", "KHMT 060915Z AUTO 28004KT 10SM BKN025 09/ A3007 RMK AO2 T0089////", "KHMZ 060915Z AUTO 00000KT 7SM CLR 02/02 A3030 RMK AO2 T00210017", "KHNB 060856Z AUTO 15004KT 10SM OVC075 15/11 A3013 RMK AO2 SLP199 T01500111 53006", "KHND 060856Z AUTO 19016KT 10SM CLR 14/01 A2995 RMK AO2 SLP145 T01390006 50002", "KHNR 060915Z AUTO 00000KT 10SM BKN023 OVC031 15/15 A2984 RMK A01", "KHNZ 060905Z AUTO 00000KT 10SM SCT070 SCT080 09/09 A3024 RMK AO2 T00910090", "KHOB 060915Z AUTO 23004KT 10SM CLR 15/M04 A2994 RMK AO2", "KHOE 060915Z AUTO 07003KT 10SM SCT060 OVC100 19/17 A3013 RMK AO2 T01920171", "KHON 060855Z AUTO 12009KT 6SM BR BKN019 OVC037 15/13 A2978 RMK AO2 SLP078 T01500133 58005", "KHOP 060855Z AUTO 15009KT 10SM OVC046 16/13 A3009 RMK AO2 SLP189 T01590130 53003", "KHOT 060853Z AUTO 08006KT 7SM OVC007 21/19 A2994 RMK AO2 SLP133 T02110194 58007", "KHOU 060913Z 12006KT 10SM FEW030 FEW250 22/19 A2994 RMK AO2 TSE12 TS MOVD NE T02170189 $", "KHPN 060856Z 32008KT 10SM CLR 06/05 A3023 RMK AO2 SLP239 T00610050 53003", "KHPT 060915Z AUTO 13011KT 10SM SCT049 BKN070 BKN100 13/12 A2989 RMK AO2", "KHQG 060915Z AUTO 30010KT 10SM CLR 13/00 A2980 RMK AO2 T01280002", "KHQG 060915Z AUTO 30010KT 10SM CLR 13/00 A2980 RMK AO2 T01280002", "KHQM 060911Z AUTO 00000KT 10SM BKN022 BKN039 OVC060 08/07 A2997 RMK AO2 T00830072", "KHQU 060915Z AUTO 31003KT 10SM OVC085 15/14 A3021 RMK AO2 T01500143", "KHQZ 060915Z AUTO 00000KT 10SM CLR 21/12 A2983 RMK AO1 T02070123", "KHRF 060930Z AUTO 15004KT 5SM -RA BKN027 OVC038 09/08 A2983 RMK AO2 P0003 Hamilton ", "KHRI 060853Z AUTO 23009KT 10SM -RA OVC050 11/07 A2991 RMK AO2 RAB21 SLP129 P0000 60000 T01110072 53002", "KHRJ 060905Z AUTO 05003KT 10SM CLR 10/09 A3024 RMK AO2 T00970093", "KHRL 060908Z AUTO 16009KT 7SM SCT013 26/25 A2984 RMK AO2 T02560250", "KHRO 060853Z AUTO 12007KT 7SM SCT004 OVC008 17/17 A2994 RMK AO2 SLP129 T01720167 58004", "KHRT 060855Z AUTO 00000KT 10SM BKN033 19/18 A3006 RMK AO2 VIS 2 1/4 RWY36 SLP181 T01930176 57005 $", "KHRX 060915Z AUTO 27010KT 10SM CLR 11/M04 A2991 RMK AO2 T01051038", "KHSB 060915Z AUTO 00000KT 10SM CLR 13/13 A3008 RMK AO2 T01280128", "KHSD 060915Z AUTO 18014G20KT 10SM CLR 23/18 A2977 RMK A01", "KHSE 060851Z AUTO 05005KT 10SM CLR 13/07 A3024 RMK AO2 SLP238 T01330072 53003", "KHSG 060915Z AUTO 00000KT 10SM CLR 01/00 A2985 RMK AO2 T00110004", "KHSI 060853Z AUTO 07013KT 10SM OVC029 14/11 A2976 RMK AO2 SLP067 T01390111 56020", "KHSP 060915Z AUTO 11006KT 10SM CLR 08/02 A3028 RMK AO2 T00760022", "KHST 060855Z AUTO 31003KT 10SM CLR 22/19 A3003 RMK AO2 SLP172 T02150187 55001", "KHSV 060853Z AUTO 11006KT 10SM OVC036 15/13 A3012 RMK AO2 SLP198 T01500128 55001", "KHTH 060915Z AUTO 02010KT 10SM BKN031 OVC037 06/03 A2999 RMK A01", "KHTS 060851Z 00000KT 10SM CLR 09/05 A3018 RMK AO2 SLP216 T00890050 53004", "KHUA 060855Z AUTO 17005KT 10SM OVC035 15/13 A3012 RMK AO2 SLP199 T01530128 55002", "KHUF 060853Z 14005KT 10SM OVC080 16/11 A3010 RMK AO2 SLP190 T01560106 53003", "KHUL 060853Z AUTO 00000KT 10SM CLR 01/M01 A3001 RMK AO2 SLP165 T00061011 56009", "KHUM 060915Z AUTO 15004KT 4SM BR BKN008 25/24 A3000 RMK AO2 T02470236", "KHUT 060852Z AUTO 19013G23KT 6SM BR CLR 21/21 A2969 RMK AO2 SLP033 T02110206 56012", "KHVC 060915Z AUTO 00000KT 10SM OVC044 15/12 A3011 RMK AO2", "KHVE 060915Z AUTO 00000KT 10SM CLR 08/M05 A3000 RMK AO2", "KHVN 060853Z AUTO 00000KT 10SM CLR 09/07 A3021 RMK AO2 SLP231 T00890067 55001", "KHVR 060853Z AUTO 09017G23KT 10SM BKN050 OVC080 13/02 A2977 RMK AO2 SLP070 T01280017 58001", "KHVS 060915Z AUTO 00000KT 10SM FEW050 OVC060 12/11 A3022 RMK AO2", "KHWD 060854Z AUTO 15006KT 10SM OVC046 12/11 A3007 RMK AO2 SLP192 60001 T01170106 58008", "KHWO 060853Z AUTO 01003KT 10SM CLR 22/18 A3005 RMK AO2 SLP177 T02220183 56004 $", "KHWV 060856Z AUTO 27004KT 10SM CLR 08/06 A3023 RMK AO2 SLP236 T00780056 58001", "KHWY 060915Z AUTO 00000KT 3/4SM BR VV005 06/05 A3028 RMK AO2 T00630050", "KHXD 060915Z AUTO 00000KT 10SM SCT060 BKN100 18/17 A3019 RMK AO2", "KHYA 060856Z AUTO 31004KT 10SM CLR 08/06 A3013 RMK AO2 SLP204 T00830061 55002", "KHYI 060926Z AUTO 15007KT 10SM SCT013 OVC035 21/18 A2994 RMK AO2", "KHYR 060853Z AUTO 02006KT 10SM OVC015 08/05 A3001 RMK AO2 SLP166 T00780050 56004", "KHYS 060856Z AUTO 27007KT 5SM BR CLR 16/16 A2969 RMK AO2 SLP040 T01610156 53004 $", "KHYW 060915Z AUTO 00000KT 10SM CLR 11/10 A3022 RMK AO2", "KHYX 060915Z AUTO 14007KT 10SM CLR 09/07 A3025 RMK AO2 T00940065", "KHZD 060915Z AUTO 14004KT 10SM OVC070 14/13 A3007 RMK A01", "KHZE 060915Z AUTO 06005KT 10SM CLR 06/05 A2992 RMK AO2", "KHZL 060915Z AUTO 00000KT 02/01 A3031 RMK AO2 PWINO", "KHZR 060915Z AUTO 12003KT 7SM OVC015 23/23 A2998 RMK AO2 T02330227", "KHZX 060915Z AUTO 08007KT 10SM OVC006 06/05 A3003 RMK AO2", "KHZY 060853Z AUTO 12005KT 10SM CLR 06/03 A3027 RMK AO2 SLP252 T00610028 55000", "KI16 060855Z AUTO 10SM CLR A3027 RMK AO2 6////", "KI19 060915Z AUTO VRB04KT 10SM CLR 11/05 A3019 RMK AO2", "KI23 060915Z AUTO 07004KT 10SM CLR 09/04 A3021 RMK AO1", "KI35 060920Z AUTO 00000KT 10SM CLR 09/09 A3023 RMK AO2", "KI63 060915Z AUTO 15005KT 10SM OVC019 15/11 A2999 RMK AO2 T01510114", "KI67 060915Z AUTO 00000KT 10SM CLR 06/05 A3019 RMK AO1", "KI68 060915Z AUTO 10003KT 10SM 12/05 A3020 RMK AO1 T01170047", "KI69 060915Z AUTO 00000KT 10SM CLR 09/05 A3020 RMK AO2 T00860054", "KI74 060915Z AUTO 10003KT 10SM CLR 10/05 A3021 RMK AO2", "KI75 060915Z AUTO 17011G15KT 10SM OVC012 16/14 A2987 RMK AO2 T01610141", "KI95 060915Z AUTO 14003KT 10SM FEW047 09/06 A3020 RMK A01", "KIAB 060855Z AUTO 20016KT 10SM FEW017 23/21 A2971 RMK AO2 PK WND 18026/22 SLP053 T02310210 56007 $", "KIAD 060852Z 00000KT 10SM FEW100 07/05 A3028 RMK AO2 SLP254 T00670050 53007", "KIAG 060853Z AUTO 08003KT 10SM CLR 04/03 A3031 RMK AO2 SLP269 T00440028 53004", "KIAH 060853Z 15007KT 10SM FEW030 SCT040 19/19 A2993 RMK AO2 RAE12 TSE30 SLP136 TS MOVD E P0002 60004 T01940189 58012", "KIBM 060915Z AUTO 00000KT 10SM CLR 02/02 A2988 RMK AO2 T00200016", "KICR 060853Z AUTO 15003KT 10SM CLR 13/12 A2970 RMK AO2 SLP047 60003 T01330122 55031", "KICT 060906Z 17012KT 5SM BR SCT011 23/21 A2972 RMK AO2 T02280211", "KIDA 060853Z AUTO 20009KT 10SM CLR 06/02 A2993 RMK AO2 SLP125 T00560017 51004", "KIDI 060835Z AUTO 00000KT 10SM CLR 04/04 A3031 RMK A01", "KIDP 060915Z AUTO 17014G20KT 5SM BR OVC008 20/19 A2981 RMK AO2 T02030191", "KIEN 060852Z AUTO 23005KT 10SM CLR 08/07 A2983 RMK AO2 SLP085 6//// T00830072 51013 PNO $", "KIER 060915Z AUTO 15006KT 7SM SCT019 BKN038 OVC044 24/23 A2995 RMK AO2 LTG DSNT S AND SW T02350231", "KIFA 060915Z AUTO 10007KT 10SM SCT060 SCT100 14/13 A2991 RMK AO2 T01350131", "KIFP 060915Z AUTO 16010KT 10SM CLR 20/00 A2989 RMK AO2", "KIGM 060851Z AUTO 18006KT 10SM CLR 08/M01 A2999 RMK AO2 SLP111 T00781011 50001", "KIGQ 060915Z AUTO 14006KT 10SM OVC110 16/06 A3010 RMK AO2 T01550063", "KIIB 060915Z AUTO 12013KT 10SM SCT031 OVC048 13/12 A2995 RMK AO2 T01290121", "KIIY 060915Z AUTO 00000KT 10SM OVC080 14/14 A3021 RMK AO2 T01400137", "KIJD 060852Z AUTO 00000KT 1/4SM FG VV001 04/03 A3022 RMK AO2 SLP232 T00390033 53003 $", "KIJX 060915Z AUTO 15007KT 10SM OVC024 16/11 A3001 RMK AO2 T01550111", "KIKG 060915Z AUTO 09007KT 5SM BR OVC016 25/24 A2988 RMK AO2 T02450235", "KIKK 060915Z AUTO 13005KT 10SM OVC080 14/08 A3009 RMK AO2 T01420075 PWINO", "KIKV 060915Z AUTO 13004KT 10SM BKN050 14/13 A2988 RMK AO2", "KIKW 060915Z AUTO 12004KT 10SM CLR 10/05 A3023 RMK AO2 T00980045", "KILE 060856Z AUTO 19011KT 10SM CLR A2989 RMK AO2 SLPNO 50000 FZRANO $", "KILG 060851Z 29004KT 6SM BR CLR 09/07 A3028 RMK AO2 SLP252 T00890072 53004", "KILM 060853Z AUTO 05003KT 10SM CLR 12/11 A3022 RMK AO2 SLP233 T01220106 53004 $", "KILN 060854Z AUTO 11004KT 10SM CLR 10/04 A3020 RMK AO2 SLP226 T01000039 53009", "KIML 060853Z AUTO 31005KT 10SM CLR 10/09 A2981 RMK AO2 SLP075 T01000089 51014", "KIMM 060915Z AUTO 36003KT 10SM SCT042 BKN047 BKN060 A3005 RMK AO2", "KIMS 060915Z AUTO 00000KT 10SM OVC095 12/08 A3017 RMK AO2", "KIMT 060908Z AUTO 08003KT 10SM BKN009 BKN065 OVC110 08/07 A3011 RMK AO2 T00830072", "KIND 060854Z 12007KT 10SM BKN150 OVC200 14/07 A3013 RMK AO2 SLP200 T01440067 51008", "KINF 060915Z AUTO 06003KT 7SM OVC043 20/17 A3010 RMK AO2", "KINJ 060915Z AUTO 00000KT 10SM CLR 19/13 A2986 RMK AO2 T01850126", "KINK 060853Z AUTO 35007KT 10SM CLR 14/M10 A2988 RMK AO2 SLP076 T01391100 50004 $", "KINL 060854Z AUTO 09009KT 10SM OVC019 08/03 A3009 RMK AO2 SLP195 T00780033 56008 $", "KINS 060855Z AUTO 02005KT 10SM CLR 11/M05 A2992 RMK AO2 SLP105 T01121049 50002 $", "KINT 060854Z AUTO 00000KT 10SM CLR 10/08 A3024 RMK AO2 SLP234 T01000078 53009", "KINW 060856Z AUTO 21005KT 10SM CLR 06/M06 A3006 RMK AO2 SLP137 T00561056 50001", "KIOB 060915Z AUTO 00000KT 10SM CLR 08/05 A3020 RMK AO2 PWINO", "KIOW 060852Z AUTO 13009KT 10SM OVC028 14/12 A2995 RMK AO2 SLP142 T01440117 50000", "KIPJ 060905Z AUTO 00000KT 10SM CLR 09/08 A3022 RMK AO2 T00870082", "KIPL 060853Z AUTO 27009KT 10SM CLR 14/05 A2994 RMK AO2 SLP138 T01390050 58004", "KIPT 060915Z AUTO 32003KT 10SM OVC004 04/03 A3031 RMK AO2 T00390028", "KIRK 060907Z AUTO 15008KT 10SM OVC015 15/13 A2993 RMK AO2 T01500128", "KIRS 060915Z AUTO 13008KT 10SM CLR 11/00 A3018 RMK AO2 T01060004", "KISM 060856Z AUTO 00000KT 10SM OVC050 21/18 A3010 RMK AO2 SLP193 6//// T02060178 55002 PNO $", "KISO 060910Z AUTO 00000KT 10SM SCT080 OVC100 12/11 A3025 RMK AO2 T01210114", "KISP 060856Z AUTO 00000KT 10SM CLR 08/07 A3022 RMK AO2 SLP234 T00780072 57000", "KISQ 060915Z AUTO 07005KT 10SM OVC070 08/06 A3017 RMK AO2 T00810062", "KISW 060854Z AUTO 10008KT 9SM SCT035 OVC080 11/09 A3004 RMK AO2 SLP175 60004 T01060089 55001", "KITH 060856Z AUTO 00000KT 9SM CLR 02/02 A3031 RMK AO2 SLP270 T00220022 53008", "KITR 060853Z AUTO 31007KT 10SM CLR 07/05 A2982 RMK AO2 SLP058 T00720050 51000", "KIWA 060915Z AUTO 00000KT 10SM CLR 16/01 A2996 RMK AO2 T01640006", "KIWD 060856Z AUTO 08007KT 10SM -RA FEW027 BKN046 OVC060 09/08 A3005 RMK AO2 SLP178 P0000 60000 T00940083 50001", "KIWI 060853Z AUTO 00000KT 10SM CLR 03/02 A3011 RMK AO2 SLP197 T00330017 58002", "KIXA 060905Z AUTO 00000KT 10SM BKN095 08/08 A3024 RMK AO2", "KIXD 060853Z AUTO 14010G19KT 10SM BKN009 OVC039 17/16 A2983 RMK AO2 CIG 008V012 SLP093 T01720156 58008", "KIYA 060915Z AUTO 15008KT 10SM OVC008 25/22 A2998 RMK AO2 T02500223", "KIZA 060915Z AUTO 00000KT 1/4SM FG OVC002 08/08 A3010 RMK AO2", "KIZG 060854Z AUTO 00000KT 10SM CLR 03/02 A3015 RMK AO2 SLP212 T00280022 56003", "KJAC 060856Z AUTO 02007KT 10SM CLR M03/M05 A2992 RMK AO2 SLP138 6//// T10331050 50000 FZRANO PNO $", "KJAN 060901Z AUTO 13004KT 10SM BKN014 OVC020 21/19 A3003 RMK AO2 T02060189", "KJAQ 060915Z AUTO 00000KT 1/2SM OVC003 09/09 A3006 RMK AO1 T00850085", "KJAS 060915Z AUTO 14007KT 5SM VCTS RA BR FEW003 SCT035 BKN043 20/20 A2992 RMK AO2 LTG DSNT ALQDS", "KJAU 060910Z AUTO 00000KT 10SM OVC100 12/10 A3024 RMK A01", "KJAX 060856Z 06011KT 10SM FEW008 SCT026 OVC070 22/19 A3011 RMK AO2 SLP198 T02170194 53000", "KJBR 060853Z AUTO 14004KT 10SM BKN016 OVC028 18/13 A3003 RMK AO2 SLP166 T01830133 53000 $", "KJCA 060915Z AUTO 06005KT 10SM -RA OVC110 13/ A3021 RMK AO2 T0133////", "KJCT 060851Z AUTO 09006KT 9SM CLR 22/17 A2992 RMK AO2 SLP089 T02220172 58004 $", "KJDD 060915Z AUTO 00000KT 10SM CLR 22/19 A2986 RMK AO2", "KJDN 060848Z AUTO 09008KT 12/09 A2981 RMK AO1 SLP088 P0002 60002 T01170089 55002", "KJEF 060853Z AUTO 15007KT 10SM OVC016 18/13 A2994 RMK AO2 SLP127 T01780133 55002 $", "KJER 060853Z AUTO 23008KT 10SM FEW075 SCT090 06/03 A2993 RMK AO2 SLP127 60000 T00610028 50000", "KJES 060915Z AUTO 00000KT 10SM SCT045 OVC080 18/17 A3018 RMK AO2", "KJFK 060851Z 00000KT 10SM CLR 09/08 A3025 RMK AO2 SLP244 T00940078 53002", "KJFX 060915Z AUTO 00000KT 10SM OVC028 15/15 A3012 RMK AO2", "KJFZ 060915Z AUTO 00000KT 10SM CLR 11/07 A3024 RMK AO2 T01130072", "KJHW 060856Z AUTO 11003KT 10SM CLR 07/03 A3029 RMK AO2 SLP269 6//// T00670033 51004 PNO $", "KJKA 060915Z AUTO 09004KT 9SM BKN018 BKN031 06/06 A3005 RMK AO2", "KJKJ 060915Z AUTO 08007KT 10SM OVC090 09/07 A2994 RMK AO2 TSNO", "KJKL 060853Z AUTO 00000KT 10SM CLR 13/04 A3019 RMK AO2 SLP215 T01330039 53007", "KJLN 060853Z AUTO 14009KT 8SM BKN019 BKN026 19/17 A2985 RMK AO2 SLP100 60000 T01940167 55007", "KJMR 060915Z AUTO 05003KT 10SM OVC018 07/04 A3003 RMK AO2", "KJMS 060926Z AUTO 07011KT 10SM BKN024 08/05 A2991 RMK AO2 T00830050", "KJNX 060905Z AUTO 00000KT 10SM SCT080 10/09 A3023 RMK AO2", "KJOT 060915Z AUTO 12005KT 10SM -DZ OVC080 16/09 A3008 RMK AO2 T01550090", "KJPX 060915Z AUTO 31003KT 10SM CLR 07/07 A3021 RMK AO2 T00650065", "KJQF 060920Z AUTO 00000KT 10SM CLR 10/10 A3025 RMK AO2", "KJRB 060856Z AUTO 00000KT 10SM CLR 11/08 A3026 RMK AO2 SLP247 T01060078 53002", "KJRO 060915Z AUTO 00000KT 10SM CLR 05/04 A3022 RMK AO2", "KJSO 060915Z AUTO 17006KT 10SM CLR 23/14 A2986 RMK AO2 T02320141 TSNO", "KJST 060854Z AUTO 09003KT 10SM CLR 07/03 A3027 RMK AO2 SLP253 T00720028 53002", "KJSV 060915Z AUTO 11008KT 8SM BKN021 20/20 A2986 RMK AO2", "KJTC 060915Z AUTO 00000KT 10SM CLR 04/M06 A3012 RMK AO2", "KJVL 060915Z AUTO 12004KT 10SM RA SCT050 SCT075 OVC085 14/11 A3005 RMK AO2 P0001", "KJVW 060915Z AUTO 12005KT 10SM OVC009 21/21 A3002 RMK AO2", "KJVY 060915Z AUTO 00000KT 10SM CLR 12/12 A3011 RMK AO2 PWINO", "KJWG 060915Z AUTO 19012G19KT 10SM CLR 21/13 A2979 RMK AO2 T02100130", "KJWN 060915Z AUTO 08005KT 10SM SCT034 BKN055 OVC075 15/11 A3011 RMK AO2", "KJWY 060915Z AUTO 18003KT 10SM CLR 21/14 A2987 RMK AO2 T02130135", "KJXN 060856Z AUTO 11007KT 10SM CLR 09/03 A3023 RMK AO2 SLP237 T00890033 53000", "KJYG 060916Z AUTO 10006KT 10SM 14/13 A2988 RMK AO2", "KJYL 060915Z AUTO 09003KT 10SM OVC090 17/14 A3019 RMK AO2 T01680143", "KJYM 060915Z AUTO 10008KT 10SM CLR 10/04 A3022 RMK AO2 T00960041", "KJYO 060915Z AUTO 00000KT 10SM CLR 07/06 A3030 RMK AO2", "KJYR 060915Z AUTO 06009KT 10SM OVC035 14/11 A2980 RMK AO2", "KJZI 060915Z AUTO 00000KT 10SM FEW055 FEW065 OVC085 18/17 A3019 RMK AO2", "KJZP 060915Z AUTO 13006KT 10SM BKN046 BKN055 OVC110 14/10 A3021 RMK AO2 T01360105", "KK62 060915Z AUTO 18006KT 10SM CLR 11/03 A3018 RMK AO2", "KK70 060910Z AUTO 06003KT 10SM OVC050 25/19 A3002 RMK AO2", "KK82 060915Z AUTO 06012G17KT 10SM SCT016 SCT036 BKN046 16/14 A2973 RMK AO2 T01640141", "KK88 060915Z AUTO 14009KT 4SM OVC006 18/18 A2983 RMK AO1 T01820180", "KKLS 060910Z AUTO 00000KT FEW009 OVC017 10/09 A2998 RMK AO2 PWINO $", "KKNB 060915Z AUTO 00000KT 10SM CLR 01/M04 A3006 RMK A01", "KKY8 060915Z AUTO 15006G13KT 10SM BKN060 OVC075 16/12 A3013 RMK A01", "KL08 060915Z AUTO 31004KT 10SM CLR 12/03 A2995 RMK AO2", "KL35 060915Z AUTO 28008KT 10SM CLR 00/M02 A3006 RMK AO2", "KLAA 060853Z AUTO 25005KT 10SM CLR 08/03 A2983 RMK AO2 SLP063 T00780033 51010", "KLAF 060854Z AUTO 13005KT 10SM SCT110 14/07 A3011 RMK AO2 SLP191 T01440067 50006", "KLAL 060915Z AUTO 09005KT 10SM OVC043 23/17 A3008 RMK AO2 T02250165", "KLAM 060915Z AUTO 26010G20KT 10SM CLR 10/M10 A3008 RMK AO2 T00991098 $", "KLAN 060853Z 15010KT 10SM CLR 10/03 A3023 RMK AO2 SLP238 T01000028 53004 $", "KLAR 060853Z AUTO 01003KT 10SM FEW085 01/M05 A2994 RMK AO2 SLP095 T00111050 51002", "KLAS 060856Z 19007KT 10SM SCT250 16/01 A2993 RMK AO2 SLP120 T01610011 51005", "KLAW 060853Z AUTO 06003KT 10SM CLR 17/13 A2981 RMK AO2 SLP081 T01670133 53001", "KLAX 060853Z 26005KT 10SM FEW020 FEW050 13/09 A3008 RMK AO2 SLP183 T01330094 58003", "KLBB 060853Z 25007KT 10SM CLR 17/M02 A2989 RMK AO2 SLP069 T01721017 50002", "KLBE 060915Z AUTO 34004KT 10SM CLR 06/04 A3027 RMK AO2", "KLBF 060853Z AUTO 34006KT 10SM CLR 12/11 A2978 RMK AO2 SLP064 60000 T01170106 51008 $", "KLBL 060856Z AUTO 24010KT 10SM CLR 11/01 A2978 RMK AO2 SLP058 T01110011 51006", "KLBO 060915Z AUTO 15010KT 5SM BR OVC004 15/15 A2996 RMK AO2", "KLBT 060917Z AUTO 00000KT 4SM BR CLR 11/10 A3022 RMK AO2 T01060100", "KLBX 060853Z AUTO 02003KT 6SM BR OVC015 24/23 A2996 RMK AO2 SLP145 T02440233 51001", "KLCG 060915Z AUTO 32014G26KT 10SM RA SCT017 SCT055 OVC095 15/13 A2978 RMK AO2 LTG DSNT E AND SE P0002 T01500133", "KLCH 060926Z AUTO 22004KT 6SM -TSRA BR FEW007 SCT012 OVC049 23/23 A2997 RMK AO2 LTG DSNT ALQDS RAB16 TSB20 P0001 T02330233", "KLCI 060856Z AUTO 24005KT 10SM CLR 06/06 A3018 RMK AO2 SLP223 T00560056 53001", "KLCK 060855Z AUTO 08006KT 10SM CLR 10/05 A3021 RMK AO2 T00990047", "KLCQ 060915Z AUTO 00000KT 10SM OVC050 19/16 A3011 RMK AO2", "KLDM 060915Z AUTO 13007KT 10SM CLR 14/04 A3013 RMK AO2 T01390037", "KLEB 060853Z AUTO 00000KT 10SM CLR 02/01 A3022 RMK AO2 SLP234 T00170006 53002", "KLEE 060853Z AUTO 06004KT 10SM OVC049 21/17 A3009 RMK AO2 SLP189 T02060167 56009", "KLEW 060856Z AUTO 00000KT 10SM CLR 04/02 A3013 RMK AO2 SLP209 T00390022 56003", "KLEX 060854Z 14005KT 10SM CLR 11/07 A3017 RMK AO2 SLP212 T01060067 51007", "KLFI 060855Z AUTO 00000KT 10SM OVC090 12/11 A3024 RMK AO2 SLP247 T01160114 53004 $", "KLFK 060853Z AUTO 04006KT 10SM FEW110 21/18 A2988 RMK AO2 RAE45 SLP115 P0004 60029 T02060183 58023", "KLFT 060908Z AUTO 18006KT 10SM BKN012 OVC019 26/24 A2997 RMK AO2 T02560239", "KLGA 060851Z 31005KT 10SM CLR 11/07 A3024 RMK AO2 SLP240 T01110067 53002 $", "KLGB 060853Z AUTO 00000KT 10SM CLR 13/09 A3008 RMK AO2 SLP184 T01330094 58005", "KLGC 060915Z AUTO 00000KT 10SM SCT085 14/13 A3016 RMK AO2 T01430127", "KLGD 060856Z AUTO 35004KT 10SM OVC032 07/04 A2994 RMK AO2 SLP143 T00670039 53003", "KLGF 060855Z AUTO 31003KT M M CLR 18/04 A2993 RMK AO2 SLP134 T01770039 55001 RVRNO PWINO TSNO $", "KLGU 060851Z AUTO 17007KT 10SM -RA OVC042 08/03 A2994 RMK AO2 RAB04 SLP113 P0001 60001 T00830033 50007", "KLHB 060915Z AUTO 20007KT 10SM CLR 20/17 A2986 RMK AO2 T01970167", "KLHM 060915Z AUTO 15006KT 10SM OVC045 10/10 A3006 RMK AO1", "KLHQ 060853Z AUTO 00000KT 10SM CLR 05/04 A3022 RMK AO2 SLP232 T00500044 53003", "KLHW 060855Z AUTO 09004KT 10SM OVC090 18/16 A3013 RMK AO2 SLP206 T01810157 55003 $", "KLHX 060853Z AUTO 00000KT 10SM CLR 12/M01 A2986 RMK AO2 SLP061 T01221006 51015", "KLHZ 060905Z AUTO 00000KT 7SM BKN085 07/07 A3025 RMK AO2", "KLIC 060855Z AUTO 30008KT 10SM CLR 06/02 A2987 RMK AO2 SLP059 T00610022 58009", "KLIT 060926Z 12007KT 10SM OVC009 20/17 A2997 RMK AO2 T02000172", "KLJF 060915Z AUTO 07006KT 10SM OVC010 11/08 A2991 RMK AO2", "KLKR 060915Z AUTO 00000KT 6SM BR BKN033 BKN039 BKN044 11/11 A3022 RMK AO2", "KLKU 060915Z AUTO 00000KT 10SM SCT070 OVC095 08/08 A3027 RMK AO2 T00830075", "KLKV 060913Z AUTO 19007KT 10SM SCT022 OVC043 03/02 A2997 RMK AO2 RAE13 P0000", "KLLJ 060855Z AUTO 29003KT 10SM OVC080 04/M02 A2985 RMK AO2 SLP087 T00391017 50000", "KLLN 060915Z AUTO 25009KT 10SM SCT048 BKN055 BKN065 12/M01 A2993 RMK AO2", "KLLQ 060853Z AUTO 11004KT 10SM OVC013 21/19 A2998 RMK AO2 SLP149 T02060194 53003", "KLMO 060915Z AUTO 27007KT 10SM CLR 07/M02 A2989 RMK AO2 T00671017", "KLMS 060915Z AUTO VRB04KT 10SM OVC005 17/17 A3010 RMK AO2", "KLMT 060910Z AUTO 10SM BKN024 BKN036 OVC050 04/02 A2994 RMK AO2 T00440022", "KLNA 060915Z AUTO 03003KT 10SM CLR 24/19 A3006 RMK AO2 T02430190", "KLNC 060915Z AUTO 00000KT 10SM CLR 22/13 A2984 RMK AO2 T02160125", "KLND 060853Z AUTO 00000KT 10SM BKN120 08/M04 A2985 RMK AO2 SLP066 T00831039 58001", "KLNK 060917Z AUTO 01009KT 7SM -RA OVC019 17/14 A2982 RMK AO2 RAB15 P0000 T01670139", "KLNL 060915Z AUTO 12008KT 10SM -RA BKN070 OVC090 09/07 A3009 RMK AO2 T00850072", "KLNN 060915Z AUTO 00000KT 10SM CLR 05/04 A3025 RMK AO1 T00490038", "KLNP 060915Z AUTO 21004KT 10SM CLR 05/04 A3024 RMK AO2", "KLNQ 060915Z AUTO 00000KT 4SM SCT003 25/23 A3002 RMK AO2 T02450230", "KLNR 060856Z AUTO 10007KT 10SM BKN060 OVC070 14/12 A3001 RMK AO2 RAE36 SLP156 P0001 60004 T01390117 50001", "KLNS 060853Z AUTO 00000KT 6SM BR CLR 06/06 A3027 RMK AO2 SLP251 T00610056 50002", "KLOL 060853Z AUTO 26004KT 10SM BKN060 BKN070 OVC120 04/03 A2996 RMK AO2 SLP144 T00390028 56001", "KLOM 060915Z AUTO 26003KT 7SM HZ CLR 05/ A3028 RMK AO2 T0050////", "KLOR 060855Z AUTO 00000KT 10SM SCT075 15/14 A3011 RMK AO2 SLP179 T01510138 50002", "KLOT 060915Z AUTO 12007KT 10SM FEW041 FEW048 BKN075 15/10 A3009 RMK AO2", "KLOU 060853Z AUTO 12004KT 10SM SCT100 15/08 A3014 RMK AO2 SLP203 T01500083 53004 $", "KLOZ 060853Z AUTO 00000KT 10SM CLR 09/09 A3019 RMK AO2 SLP216 T00940089 53005", "KLPR 060853Z AUTO 00000KT 10SM CLR 07/03 A3026 RMK AO2 SLP247 T00720033 53002", "KLQK 060915Z AUTO 00000KT 10SM OVC120 12/12 A3021 RMK AO2 T01240119", "KLRD 060856Z AUTO 10008KT 5SM BR CLR 24/22 A2982 RMK AO2 SLP092 T02440222 55005", "KLRF 060855Z 10004KT 10SM BKN015 OVC023 18/18 A2995 RMK AO2A CIG 016V023 CIG 022 RWY07 SLP143 T01840182 53001", "KLRJ 060915Z AUTO 13010G15KT 5SM BR SCT005 BKN065 OVC100 15/15 A2981 RMK AO2", "KLRO 060915Z AUTO 00000KT 10SM OVC090 17/17 A3019 RMK AO2", "KLRU 060915Z AUTO 30005KT 10SM CLR 13/M08 A3004 RMK AO2 T01291085", "KLRY 060915Z AUTO 15009KT 10SM -RA SCT009 OVC016 17/16 A2987 RMK AO2", "KLSE 060853Z AUTO 14006KT 10SM OVC045 15/13 A2996 RMK AO2 SLP140 60007 T01500128 58001", "KLSF 060855Z AUTO 33003KT 10SM SCT065 15/13 A3012 RMK AO2 SLP204 T01520132 55002 $", "KLSV 060855Z AUTO 20013KT 10SM CLR 16/00 A2989 RMK AO2 SLP108 T01630000 52006 $", "KLTS 060855Z AUTO 20012KT 10SM CLR 21/13 A2977 RMK AO2 SLP063 T02050134 50002", "KLUA 060915Z AUTO 00000KT 10SM BKN080 05/04 A3028 RMK AO2", "KLUD 060920Z AUTO 17004KT 10SM CLR 23/11 A2983 RMK AO2 T02320110", "KLUF 060855Z AUTO 00000KT 10SM CLR 18/00 A2992 RMK AO2 SLP124 T01780004 50000 $", "KLUG 060915Z AUTO 12003KT 10SM OVC048 13/11 A3012 RMK A01", "KLUK 060853Z AUTO 00000KT 10SM CLR 07/07 A3019 RMK AO2 SLP223 T00720067 53010", "KLUL 060915Z AUTO 13005KT 7SM HZ OVC004 20/ A3005 RMK A02 T0197////", "KLUM 060915Z 00000KT 5SM OVC006 13/12 A2998 RMK AO2 T01280122 PWINO", "KLUV 060915Z AUTO 15004KT 10SM CLR 12/M07 A2993 RMK AO2", "KLUX 060915Z AUTO 00000KT 10SM SCT120 13/13 A3021 RMK AO2", "KLVJ 060853Z AUTO 07005KT 10SM FEW055 24/18 A2997 RMK AO2 RAB03E22 SLP147 P0000 60000 T02390178 50005", "KLVK 060853Z AUTO 22004KT 10SM BKN055 OVC075 11/09 A3007 RMK AO2 SLP179 60001 T01110089 58006", "KLVM 060853Z AUTO 12004KT 10SM FEW090 04/02 A2980 RMK AO2 SLP081 T00440022 58003", "KLVN 060915Z AUTO 08005KT 4SM BR SCT007 BKN022 OVC047 12/12 A2993 RMK AO2", "KLVS 060853Z AUTO 25014KT 10SM CLR 11/M11 A3002 RMK AO2 PK WND 24027/0818 SLP066 T01111106 51002 $", "KLWA 060915Z AUTO 13008KT 10SM CLR 12/06 A3015 RMK AO2 T01240056", "KLWB 060915Z AUTO 00000KT 10SM CLR 05/03 A3026 RMK AO2 T00520034", "KLWC 060927Z AUTO 13010KT 5SM BR OVC009 18/16 A2981 RMK AO1 T01780161", "KLWD 060853Z AUTO 16009G18KT 10SM OVC011 16/13 A2986 RMK AO2 SLP108 T01610128 50003", "KLWM 060854Z AUTO 20004KT 10SM CLR 06/04 A3018 RMK AO2 SLP220 T00610039 52002", "KLWS 060856Z AUTO 10003KT 10SM BKN035 OVC046 11/06 A2989 RMK AO2 SLP124 T01110061 51002", "KLWT 060854Z AUTO 13005KT 10SM FEW085 FEW120 07/06 A2977 RMK AO2 SLP073 60001 T00670056 58010", "KLWV 060853Z AUTO 14009KT 10SM FEW050 OVC070 16/12 A3010 RMK AO2 SLP190 T01560117 53003 $", "KLXL 060915Z AUTO 06005KT 10SM OVC012 07/05 A2997 RMK AO2", "KLXN 060915Z AUTO 12008KT 10SM CLR 13/12 A2975 RMK AO2 T01300121", "KLXT 060853Z AUTO 15009KT 10SM OVC009 17/15 A2985 RMK AO2 SLP102 T01670150 58006", "KLXY 060915Z AUTO 00000KT 10SM CLR 22/14 A2983 RMK AO2 T02240139", "KLYH 060854Z AUTO 00000KT 10SM BKN060 11/ A3026 RMK AO2 SLP241 T0111 51008 $", "KLYO 060915Z AUTO 17008KT 10SM CLR 18/16 A2970 RMK AO2 T01800162", "KLYV 060915Z AUTO 14007KT 10SM OVC018 14/12 A2985 RMK AO2", "KLZU 060856Z AUTO 00000KT 9SM FEW080 OVC110 13/13 A3019 RMK AO2 SLP231 T01330128 58002", "KLZZ 060915Z AUTO 20005KT 10SM CLR 18/16 A2988 RMK AO2 T01830155", "KM01 060915Z AUTO 14007KT 10SM FEW021 18/15 A3001 RMK AO2 T01780148 $", "KM02 060915Z AUTO 15004KT 10SM SCT031 SCT037 OVC070 12/11 A3010 RMK A01", "KM04 060830Z AUTO 14006KT 10SM SCT047 SCT055 OVC070 15/15 A3004 RMK A01", "KM08 060915Z AUTO 11005KT 10SM OVC014 15/14 A3006 RMK A01", "KM19 060856Z AUTO 16006KT 10SM BKN017 OVC025 18/14 A3001 RMK AO2 SLP160 6//// T01780144 53004 PNO $", "KM21 060915Z AUTO 00000KT 10SM OVC060 14/12 A3012 RMK AO2 T01410118", "KM25 060915Z AUTO 16006KT 10SM BKN034 OVC070 15/11 A3008 RMK AO2 PWINO", "KM30 060915Z AUTO 13003KT 10SM SCT065 14/11 A3007 RMK AO2 T01420107", "KM40 060915Z AUTO 13004KT 10SM OVC015 18/15 A3010 RMK AO2", "KM54 060910Z AUTO 00000KT 10SM OVC085 14/13 A3012 RMK A01", "KM75 060915Z AUTO 09016G23KT 10SM FEW050 OVC065 13/02 A2981 RMK A01", "KM91 060910Z AUTO VRB03KT 10SM OVC050 14/12 A3011 RMK A01", "KMAF 060853Z AUTO 00000KT 9SM CLR 17/M04 A2989 RMK AO2 SLP075 T01721044 50003", "KMAI 060853Z AUTO 06003KT 10SM CLR 16/13 A3009 RMK AO2 SLP189 T01610133 53001", "KMAN 060915Z AUTO 24006G12KT 7SM BKN023 OVC032 08/07 A2993 RMK A01", "KMAO 060915Z AUTO 00000KT 10SM CLR 11/09 A3023 RMK AO2", "KMAW 060915Z AUTO 13005KT 10SM SCT065 15/13 A3005 RMK AO1", "KMBG 060852Z AUTO 07018G26KT 10SM CLR 12/04 A2975 RMK AO2 PK WND 07027/0842 SLP068 T01220044 58021", "KMBL 060856Z AUTO 13006KT 10SM OVC095 14/06 A3014 RMK AO2 SLP207 T01390061 53012", "KMBO 060915Z AUTO VRB03KT 10SM OVC012 20/20 A3003 RMK AO2", "KMBS 060853Z AUTO 14007KT 10SM CLR 10/04 A3024 RMK AO2 SLP243 T01000044 51008", "KMBT 060915Z AUTO 16003KT 10SM OVC060 14/12 A3012 RMK A01", "KMBY 060915Z AUTO 14005KT 10SM OVC014 16/12 A2994 RMK AO2", "KMCB 060924Z AUTO 11004KT 3/4SM BR VV002 20/20 A3001 RMK AO2 T02000200", "KMCC 060915Z AUTO 16005KT 9SM OVC046 11/11 A3007 RMK AO2", "KMCD 060915Z AUTO 09015G21KT 10SM -RA OVC065 03/03 A3024 RMK AO2 T00310031 P0001", "KMCE 060853Z AUTO 01006KT 10SM BKN065 OVC095 12/09 A3007 RMK AO2 SLP184 T01170094 58001", "KMCF 060855Z AUTO 10008KT 10SM CLR 21/17 A3001 RMK AO2 SLP165 T02140170 57008 FZRANO $", "KMCI 060853Z 16011KT 10SM OVC010 17/16 A2983 RMK AO2 SLP092 T01720156 58002 $", "KMCJ 060915Z AUTO 11010KT 10SM FEW047 BKN055 OVC065 21/18 A2993 RMK A01 LTG DSNT N AND NE", "KMCK 060906Z AUTO 06004KT 10SM BKN020 BKN025 13/11 A2978 RMK AO2 T01280111", "KMCN 060853Z AUTO 00000KT 10SM OVC060 16/15 A3018 RMK AO2 SLP216 T01610150 52005", "KMCO 060853Z 00000KT 10SM BKN055 BKN250 21/17 A3009 RMK AO2 SLP189 T02110172 55001", "KMCW 060853Z AUTO 12009KT 10SM OVC006 13/13 A2991 RMK AO2 RAB12E23 SLP118 P0000 60000 T01330128 58005", "KMCZ 060905Z AUTO 07003KT 10SM OVC100 12/10 A3024 RMK AO2 T01180099", "KMDD 060915Z AUTO 18008G14KT 10SM CLR 19/M04 A2991 RMK AO2 T01911042", "KMDH 060852Z AUTO 15006KT 10SM FEW065 15/12 A3004 RMK AO2 SLP170 T01500117 58001", "KMDQ 060915Z AUTO 10SM BKN041 OVC048 15/11 A3014 RMK A02 T01540109", "KMDS 060915Z AUTO 14006KT 10SM BKN012 OVC016 14/14 A2984 RMK AO2", "KMDT 060856Z 35004KT 10SM CLR 07/05 A3028 RMK AO2 SLP255 T00670050 53004", "KMDW 060853Z 14010KT 10SM FEW090 BKN100 OVC150 17/06 A3009 RMK AO2 SLP181 T01720061 51008 $", "KMDZ 060915Z AUTO 11005KT 5SM OVC050 10/10 A3002 RMK AO2 T00960096 PWINO", "KMEB 060852Z AUTO 00000KT 10SM CLR 12/10 A3022 RMK AO2 SLP234 T01220100 53007", "KMEI 060858Z AUTO 13004KT 8SM OVC006 20/19 A3006 RMK AO2 SLP177 T02000189 55000", "KMEM 060854Z 15008KT 10SM BKN050 BKN070 18/14 A3003 RMK AO2 SLP166 T01780139 55000", "KMEV 060915Z AUTO 00000KT 10SM OVC070 06/M02 A2997 RMK AO2", "KMEZ 060915Z AUTO 00000KT 7SM OVC008 23/23 A2992 RMK AO2 T02270225", "KMFD 060852Z 12007KT 10SM CLR 09/03 A3024 RMK AO2 SLP239 T00890033 53003", "KMFE 060853Z AUTO 15008KT 4SM BR OVC008 26/24 A2984 RMK AO2 SLP102 T02560244 58009", "KMFI 060854Z AUTO 10005KT 4SM HZ OVC065 10/ A3001 RMK AO2 SLP168 60008 T0100 55003 $", "KMFR 060853Z AUTO 29003KT 10SM -RA SCT037 BKN060 OVC080 09/07 A2998 RMK AO2 SLP150 P0001 60003 T00890072 58003", "KMFV 060915Z AUTO 00000KT 10SM CLR 05/04 A3026 RMK AO2 T00510044", "KMGC 060915Z AUTO 12005KT 10SM CLR 13/06 A3013 RMK AO2", "KMGE 060855Z AUTO 00000KT 10SM CLR 14/11 A3017 RMK AO2 SLP215 T01350112 55003 $", "KMGG 060915Z AUTO 06009KT 10SM OVC011 12/06 A2995 RMK AO2 T01150063", "KMGJ 060854Z AUTO 00000KT 10SM CLR 03/03 A3025 RMK AO2 SLP245 60000 T00330028 53004", "KMGM 060853Z AUTO 09005KT 10SM FEW070 15/13 A3012 RMK AO2 SLP198 T01500128 55003", "KMGN 060915Z AUTO 06008KT 10SM OVC080 08/06 A3020 RMK AO2 T00900058", "KMGR 060915Z AUTO 00000KT 10SM OVC070 18/16 A3013 RMK AO2 T01850161", "KMGW 060853Z AUTO 00000KT 10SM CLR 10/04 A3025 RMK AO2 SLP241 T01000039 53001", "KMGY 060853Z AUTO 12005KT 10SM CLR 12/04 A3018 RMK AO2 SLP218 T01220039 53009", "KMHE 060853Z AUTO 14010KT 6SM BR BKN038 OVC050 15/13 A2980 RMK AO2 SLP084 T01500128 50001", "KMHK 060852Z AUTO 15010G16KT 9SM OVC011 20/17 A2974 RMK AO2 SLP061 T02000167 58008", "KMHL 060915Z AUTO 13009KT 10SM OVC015 16/13 A2991 RMK AO2", "KMHP 060915Z AUTO 05004KT 10SM SCT060 OVC080 17/15 A3018 RMK AO2 T01670152", "KMHR 060915Z AUTO 13004KT 5SM BR FEW027 FEW036 OVC050 11/11 A3006 RMK A01", "KMHS 060856Z AUTO 00000KT 10SM -RA BKN048 OVC060 04/02 A2996 RMK AO2 SLP166 P0001 60004 T00390017 56005", "KMHT 060853Z 36004KT 10SM FEW250 09/04 A3016 RMK AO2 SLP228 T00890039 53001", "KMHV 060900Z AUTO 28019G27KT 10SM CLR 10/01 A2999 RMK AO2", "KMIA 060853Z 02003KT 10SM CLR 25/19 A3004 RMK AO2 SLP174 T02500194 55003", "KMIB 060855Z AUTO 09007KT 10SM CLR 07/04 A2995 RMK AO2 SLP151 T00710035 55005 $", "KMIC 060853Z AUTO 09007KT 10SM OVC012 14/11 A2993 RMK AO2 SLP135 T01390111 53001", "KMIE 060853Z AUTO 15007KT 10SM CLR 15/04 A3016 RMK AO2 SLP206 T01500044 53007", "KMIO 060915Z AUTO 14008KT 6SM BR SCT015 SCT020 OVC029 20/20 A2984 RMK AO2", "KMIV 060915Z AUTO 00000KT 1/4SM FG VV001 04/04 A3027 RMK AO2 T00440044", "KMIW 060853Z AUTO 12011KT 10SM FEW028 FEW042 14/12 A2989 RMK AO2 SLP117 T01390117 50001", "KMJD 060915Z AUTO 00000KT 3SM BR BKN003 OVC013 21/21 A3001 RMK AO2", "KMKC 060854Z 15009KT 10SM OVC012 18/15 A2984 RMK AO2 SLP097 T01780150 58002", "KMKE 060852Z 15011KT 10SM OVC085 14/06 A3008 RMK AO2 SLP186 T01440061 51008", "KMKG 060855Z AUTO 13013G21KT 10SM CLR 14/03 A3015 RMK AO2 SLP209 T01390033 51009", "KMKJ 060915Z AUTO 00000KT 10SM CLR 05/04 A3028 RMK AO2 T00460036", "KMKL 060926Z AUTO 15004KT 10SM SCT015 OVC070 14/13 A3007 RMK AO2 T01440133", "KMKN 060915Z AUTO 18011G17KT 10SM 21/16 A2989 RMK AO2 T02080156", "KMKO 060853Z AUTO 17005KT 5SM BR CLR 19/18 A2986 RMK AO2 SLP106 T01890183 55001", "KMKS 060915Z AUTO 00000KT 10SM CLR 13/12 A3020 RMK AO2", "KMKT 060856Z AUTO 10008KT 10SM OVC018 14/13 A2990 RMK AO2 SLP126 T01440133 50001", "KMLB 060853Z 00000KT 10SM CLR 22/18 A3006 RMK AO2 SLP178 T02220178 58003", "KMLC 060853Z AUTO VRB03KT 10SM CLR 23/21 A2983 RMK AO2 SLP091 T02280211 57002", "KMLE 060915Z AUTO 00000KT 10SM BKN031 BKN040 OVC045 16/15 A2983 RMK AO2 LTG DSNT N AND NE T01600148", "KMLF 060852Z AUTO 16005KT 10SM CLR 01/M02 A2998 RMK AO2 SLP136 T00061017 58003", "KMLI 060852Z AUTO 14007KT 10SM OVC028 17/11 A2998 RMK AO2 SLP149 60001 T01670111 55002", "KMLJ 060915Z AUTO 00000KT 10SM OVC065 17/15 A3017 RMK AO2", "KMLP 060853Z AUTO 00000KT 1/2SM FG VV001 01/01 A2983 RMK AO2 SLP058 60000 T00110006 58005", "KMLS 060853Z AUTO 03012KT 10SM OVC070 11/07 A2979 RMK AO2 RAB13E23 SLP082 P0000 60000 T01060072 56003", "KMLT 060853Z AUTO 26005KT 10SM CLR 07/03 A3005 RMK AO2 SLP181 T00720033 56009", "KMLU 060926Z AUTO 13004KT 10SM BKN011 BKN017 OVC023 23/22 A2997 RMK AO2 CIG 008V014 T02330217", "KMMH 060915Z AUTO 30006KT 10SM OVC050 01/M03 A2999 RMK AO2 T00101030", "KMMI 060915Z AUTO 00000KT 10SM BKN080 OVC090 13/13 A3020 RMK A01", "KMMK 060928Z AUTO 00000KT 1 3/4SM BR FEW002 04/03 A3023 RMK AO2 VIS 1V5 T00440028", "KMML 060856Z AUTO 08008KT 7SM FEW002 OVC019 13/13 A2986 RMK AO2 SLP111 T01280128 58003", "KMMT 060855Z AUTO 00000KT 10SM SCT160 BKN180 12/12 A3019 RMK AO2 SLP225 T01200115 53001 $", "KMMU 060915Z AUTO 00000KT 1 3/4SM BR OVC001 04/04 A3026 RMK AO2 VIS 3/4V5", "KMMV 060853Z AUTO 10SM BKN034 BKN070 10/09 A2997 RMK AO2 SLP148 T01000089 58001 $", "KMNE 060921Z AUTO 13004KT 7SM SCT007 22/22 A2993 RMK AO2", "KMNH 060915Z AUTO 19006KT 10SM CLR 00/M03 A2996 RMK AO2", "KMNI 060915Z AUTO 00000KT 10SM CLR 10/10 A3022 RMK AO2", "KMNM 060857Z AUTO 14006KT 10SM BKN110 08/06 A3012 RMK AO2 SLP220 6//// T00830061 51006 PNO $", "KMNN 060853Z AUTO 12007KT 10SM CLR 10/04 A3022 RMK AO2 SLP232 T01000039 55000", "KMNV 060915Z AUTO 00000KT 10SM 13/ A3019 RMK A01", "KMOB 060903Z AUTO 08003KT 4SM BR BKN003 OVC012 19/18 A3006 RMK AO2 T01940183 $", "KMOD 060853Z AUTO 02004KT 10SM OVC100 11/10 A3008 RMK AO2 SLP184 60001 T01110100 58003", "KMOP 060915Z AUTO 11003KT 10SM CLR 10/03 A3022 RMK AO2 T01010033", "KMOT 060854Z AUTO 04004KT 10SM CLR 06/03 A2996 RMK AO2 SLP152 T00560028 55004", "KMOX 060915Z AUTO 09016G20KT 10SM 11/04 A2989 RMK AO2", "KMPO 060853Z AUTO 33006KT 10SM CLR 05/03 A3025 RMK AO2 SLP252 T00500028 53004", "KMPR 060915Z AUTO 16015G20KT 10SM SCT018 22/21 A2969 RMK AO2 T02240206", "KMPV 060851Z AUTO 00000KT 10SM CLR 02/01 A3025 RMK AO2 SLP252 T00220006 53001", "KMPZ 060915Z AUTO 17010KT 10SM OVC021 15/11 A2995 RMK AO2", "KMQB 060915Z AUTO 14010KT 10SM OVC019 15/11 A3001 RMK AO2 T01520110", "KMQI 060910Z AUTO 00000KT 10SM CLR 09/08 A3026 RMK AO2 T00920082", "KMQJ 060915Z AUTO 15004KT 10SM CLR 12/06 A3016 RMK AO1", "KMQS 060915Z AUTO 00000KT 1SM BR CLR 05/05 A3028 RMK AO2", "KMQW 060915Z AUTO 04003KT 10SM OVC070 16/15 A3017 RMK AO2 T01620145", "KMQY 060856Z AUTO 06003KT 10SM 14/13 A3015 RMK AO2 SLP215 T01440128 53004 $", "KMRB 060853Z AUTO 00000KT 10SM CLR 03/03 A3028 RMK AO2 SLP255 T00330033 53008", "KMRC 060910Z AUTO 14003KT 10SM OVC047 14/14 A3010 RMK A01", "KMRF 060856Z AUTO 34004KT 10SM CLR 09/M09 A3006 RMK AO2 SLP119 T00941089 58002", "KMRH 060858Z AUTO 00000KT 10SM SCT080 13/12 A3022 RMK AO2 SLP235 T01280122 53004", "KMRJ 060915Z AUTO 13006KT 10SM BKN035 OVC070 12/10 A3003 RMK AO2 PWINO", "KMRN 060905Z AUTO 00000KT 10SM CLR 08/07 A3023 RMK AO2 T00790073", "KMRT 060919Z AUTO 00000KT 10SM CLR 10/04 A3022 RMK AO1", "KMRY 060854Z AUTO 17003KT 10SM BKN120 11/07 A3010 RMK AO2 SLP204 T01060072 58006", "KMSL 060853Z AUTO 13004KT 10SM BKN046 15/13 A3010 RMK AO2 SLP190 T01500128 56004", "KMSN 060853Z AUTO 16009KT 10SM -RA OVC080 14/11 A3004 RMK AO2 RAB0759 SLP169 P0002 60002 T01440111 51007", "KMSO 060853Z AUTO 23003KT 8SM -RA OVC046 09/08 A2983 RMK AO2 SLP095 P0005 60006 T00890078 51002", "KMSP 060853Z 10007KT 9SM SCT008 BKN026 OVC036 13/12 A2994 RMK AO2 SLP140 60001 T01330117 51006", "KMSS 060853Z AUTO 23003KT 10SM CLR 06/04 A3028 RMK AO2 SLP254 T00560039 53004", "KMSV 060856Z AUTO 31005KT 9SM CLR 04/04 A3027 RMK AO2 SLP255 T00440044 53003", "KMSY 060853Z 14003KT 9SM BKN010 BKN019 OVC026 24/24 A2999 RMK AO2 CIG 008V015 SLP160 T02440239 56006", "KMTC 060855Z AUTO 11004KT 10SM CLR 07/05 A3025 RMK AO2 SLP250 T00730051 53003 $", "KMTH 060853Z AUTO 07003KT 10SM CLR 26/19 A3002 RMK AO2 SLP164 T02560189 55006", "KMTJ 060853Z AUTO 25009KT 10SM SCT070 OVC090 10/M01 A3004 RMK AO2 SLP119 T01001006 52014", "KMTK 060915Z AUTO 15012KT 10SM CLR 25/23 A3000 RMK A01", "KMTN 060909Z AUTO 00000KT 10SM OVC003 08/08 A3030 RMK AO2", "KMTO 060853Z AUTO 14007KT 10SM OVC035 14/10 A3006 RMK AO2 SLP177 T01440100 53003", "KMTP 060854Z AUTO 27005KT 11/08 A3021 RMK AO1 SLP231 T01060083 55001", "KMTV 060915Z AUTO 00000KT 10SM CLR 05/04 A3027 RMK AO2 T00510040", "KMTW 060856Z AUTO 19016KT 10SM -RA SCT110 12/07 A3011 RMK AO2 RAB49 SLP197 P0000 60000 T01220067 51011", "KMUI 060855Z AUTO 00000KT 10SM CLR 06/04 A3027 RMK AO2 SLP254 T00550037 53003 TSNO $", "KMUO 060917Z AUTO 02005KT 10SM -DZ BKN043 08/06 A2989 RMK AO2 DZB17 SLP118", "KMUT 060915Z AUTO 15008KT 10SM OVC022 16/13 A2996 RMK AO2", "KMVE 060915Z AUTO 09011KT 10SM OVC011 14/12 A2987 RMK AO2", "KMVL 060854Z AUTO 00000KT 10SM CLR 01/M01 A3023 RMK AO2 SLP242 T00111006 55000", "KMVN 060856Z AUTO 16007KT 10SM OVC050 16/12 A3006 RMK AO2 SLP181 T01560117 50000", "KMVY 060853Z AUTO 29006KT 10SM CLR 09/07 A3015 RMK AO2 SLP210 T00940072 56007", "KMWA 060915Z AUTO 15005KT 10SM CLR 15/13 A3007 RMK AO2 T01450125", "KMWH 060852Z AUTO 17004KT 10SM OVC049 11/06 A2985 RMK AO2 SLP107 T01110056 53002", "KMWK 060905Z AUTO 00000KT 10SM CLR 08/07 A3025 RMK AO2 T00760067", "KMWL 060853Z AUTO 16003KT 10SM CLR 20/12 A2983 RMK AO2 SLP085 T02000117 53001", "KMWM 060915Z AUTO 11007KT 10SM OVC007 14/13 A2985 RMK AO2", "KMWN 060853Z 31040G46KT 80SM FEW003 SCT020 SCT200 M02/M03 RMK", "KMWO 060915Z AUTO 04003KT 10SM CLR 07/06 A3020 RMK AO2 T0071////", "KMWT 060920Z AUTO 11005KT 5SM BR OVC004 22/21 A2990 RMK AO2 T02170206", "KMXF 060855Z AUTO 07004KT 10SM CLR 16/11 A3010 RMK AO2 SLP195 T01570109", "KMYF 060853Z AUTO 00000KT 10SM CLR 11/09 A3007 RMK AO2 SLP181 T01060089 58011", "KMYJ 060915Z AUTO 17008KT 10SM OVC016 15/12 A2995 RMK AO2", "KMYL 060912Z AUTO 20005KT 10SM BKN013 OVC025 04/02 A2986 RMK AO2 T00390022", "KMYR 060856Z AUTO 00000KT 10SM CLR 14/14 A3022 RMK AO2 SLP232 T01440139 53002", "KMYV 060853Z AUTO 14008KT 10SM -RA OVC060 11/10 A3007 RMK AO2 SLP186 P0001 60009 T01110100 58002", "KMYZ 060915Z AUTO 15005KT 10SM BKN011 OVC023 17/17 A2973 RMK AO2", "KMZH 060915Z AUTO 06005KT 5SM BR OVC003 04/03 A3005 RMK AO2", "KMZZ 060915Z AUTO 13004KT 10SM CLR 10/06 A3017 RMK AO2 T01010060", "KN03 060915Z AUTO 00000KT 10SM CLR 00/00 A3032 RMK AO2", "KN38 060915Z AUTO 00000KT 1/2SM FG VV005 01/01 A3029 RMK AO2", "KN60 060852Z AUTO 06008KT 08/04 A2992 RMK AO1 SLP134 T00780044 56011", "KN79 060915Z AUTO 00000KT 10SM CLR 03/03 A3029 RMK AO2 T00330033", "KNAK 060854Z AUTO 36004KT 10SM CLR 11/10 A3027 RMK AO2 SLP253 T01110100 53006 $", "KNBC 060856Z AUTO 03003KT 10SM FEW060 OVC100 17/14 A3018 RMK AO2 SLP221 T01720144 55000 $", "KNBG 060924Z AUTO 17004KT 9SM SCT008 24/23 A3000 RMK AO2 T02440228 $", "KNBT 060851Z AUTO 00000KT 10SM OVC095 18/13 A3023 RMK AO2 SLP239 T01830133 53004", "KNCA 060856Z AUTO 25003KT 8SM SCT085 11/10 A3022 RMK AO2 SLP237 T01060100 53005", "KNDZ 060856Z AUTO 07003KT 10SM BKN035 OVC060 19/18 A3007 RMK AO2 SLP169 60000 T01940178 55003 $", "KNEW 060853Z AUTO 16005KT 10SM FEW011 24/23 A3000 RMK AO2 SLP153 T02440228 56007", "KNFE 060856Z AUTO 00000KT 10SM BKN095 OVC120 12/09 A3025 RMK AO2 SLP245 T01170089 53004", "KNFG 060852Z AUTO 12003KT 10SM CLR 11/08 A3008 RMK AO2 SLP184 T01060083 58008 $", "KNFL 060856Z AUTO 32004KT 10SM BKN055 OVC070 09/00 A2997 RMK AO2 RAB23E33 SLP120 P0000 60000 T00890000 50002", "KNFW 060852Z AUTO 13004KT CLR 22/12 A2983 RMK AO2 SLP085 T02220122 53002 TSNO CHINO S VISNO S $", "KNGP 060917Z AUTO 11011KT 6SM BR BKN006 BKN019 27/25 A2989 RMK AO2 T02670250 $", "KNGU 060859Z 00000KT 10SM SCT100 BKN120 13/11 A3026 RMK AO2 SLP248 T01280111 53005 $", "KNHK 060852Z AUTO 25005KT 10SM CLR 10/08 A3026 RMK AO2 SLP247 T01000078 53005 $", "KNID 060856Z AUTO 00000KT 10SM CLR 12/M01 A2992 RMK AO2 SLP126 T01221006 58002 $", "KNIP 060853Z AUTO 04006KT 10SM OVC080 23/18 A3011 RMK AO2 SLP193 T02280183 56002", "KNJK 060856Z AUTO 27010KT 10SM CLR 16/04 A2996 RMK AO2 SLP160 T01560044 58006 $", "KNJM 060857Z AUTO 04004KT 9SM A3024 RMK AO2 SLP245 53007 $", "KNJW 060857Z AUTO 11005KT 10SM OVC004 18/16 A3009 RMK AO2 SLP105 T01780161 53002", "KNKT 060856Z 00000KT 10SM FEW080 11/11 A3024 RMK AO2 SLP236 T01110111 53004", "KNKX 060855Z 00000KT 10SM CLR 08/08 A3006 RMK AO2 SLP177 T00830078 58011", "KNMM 060925Z AUTO 11003KT 10SM OVC009 18/17 A3008 RMK AO2 T01780167 ", "KNOG 060856Z AUTO 09008KT 3SM BR OVC005 24/23 A2989 RMK AO2 SLP100 T02390233 50000 TSNO $", "KNOW 060910Z AUTO 26006KT 10SM OVC020 09/08 A2997 RMK AO2 T00860080", "KNPA 060912Z AUTO 11008KT 10SM FEW023 OVC032 22/19 A3005 RMK AO2 T02170189 $", "KNQI 060856Z AUTO 12008KT 10SM OVC024 26/24 A2987 RMK AO2 SLP111 T02560244 50002 $", "KNQX 060853Z AUTO 07004KT 10SM CLR A3003 RMK AO2 SLP169 56003 $", "KNRB 060912Z AUTO 07020KT 4SM RA BR FEW006 BKN018 OVC027 22/20 A3011 RMK AO2 PK WND 07026/0908 RAB03 P0002 T02170200", "KNRN 060915Z AUTO 08009KT 10SM CLR 13/10 A2977 RMK AO2", "KNRS 060853Z AUTO 13003KT 10SM CLR 11/09 A3008 RMK AO2 SLP185 T01110089 58009", "KNSE 060856Z AUTO VRB03KT 10SM FEW030 BKN036 OVC060 18/17 A3007 RMK AO2 SLP169 T01830172 55003 $", "KNSI 060853Z AUTO 31006KT 10SM CLR 10/09 A3008 RMK AO2 SLP183 T01000094 57006 $", "KNTD 060855Z AUTO 00000KT CLR 12/10 A3008 RMK AO2 SLP188 T01170100 58000 $", "KNTU 060856Z 00000KT 10SM SCT100 OVC120 12/09 A3024 RMK AO2 SLP243 T01170094 53004", "KNUC 060856Z AUTO 32006KT FEW016 11/ A3010 RMK AO2 SLP191 T0111 58003 $", "KNUI 060853Z AUTO 00000KT 10SM FEW110 09/08 A3026 RMK AO2 SLP245 T00890083 53005", "KNUQ 060915Z AUTO 13005KT 10SM BKN032 BKN050 OVC060 12/11 A3007 RMK AO2", "KNUW 060853Z 21006KT 10SM FEW018 BKN025 OVC050 09/08 A2996 RMK AO2 SLP150 T00940078 51001 VISNO", "KNXF 060856Z AUTO 03006KT 10SM 10/09 A3007 RMK AO2 SLP267 T01000089 58010 $", "KNXP 060856Z AUTO 33006KT 10SM CLR 13/02 A3005 RMK AO2 SLP150 T01330022 50001", "KNYC 060851Z AUTO 29003KT 10SM CLR 09/06 A3027 RMK AO2 SLP241 T00940061 53003 $", "KNYG 060856Z AUTO 29006KT 9SM FEW090 11/ A3029 RMK AO2 SLP256 T0106 53006 $", "KNYL 060857Z AUTO 32006KT 10SM CLR 17/05 A2994 RMK AO2 SLP136 T01720050 58001", "KNZY 060852Z AUTO 02003KT 10SM CLR 14/11 A3006 RMK AO2 SLP180 T01440106 58010", "KO05 060910Z AUTO 19005KT 5SM BR BKN014 BKN023 OVC044 03/02 A2998 RMK A01", "KO22 060915Z AUTO 00000KT 10SM OVC042 08/08 A3006 RMK A01", "KO32 060915Z AUTO 33003KT 10SM SCT100 BKN130 12/12 A3004 RMK AO2 T01190119 $", "KO69 060915Z AUTO 00000KT 10SM BKN032 OVC055 09/09 A3007 RMK A01", "KO86 060915Z AUTO 00000KT 8SM 06/06 A2999 RMK A01", "KOAJ 060856Z AUTO 00000KT 10SM BKN085 09/09 A3024 RMK AO2 SLP243 T00940089 53005", "KOAK 060853Z 18007KT 10SM FEW020 BKN025 OVC045 12/09 A3008 RMK AO2 SLP186 60000 T01220094 56006 $", "KOAR 060915Z AUTO 00000KT 10SM SCT018 SCT024 BKN075 05/03 A3009 RMK AO2 PWINO", "KOBE 060915Z AUTO 00000KT 10SM CLR 19/19 A3005 RMK AO2", "KOCF 060851Z AUTO 00000KT 10SM FEW050 SCT120 21/16 A3010 RMK AO2 SLP192 T02060161 56006 $", "KOCH 060856Z AUTO 13006KT 10SM -RA FEW090 BKN110 A2992 RMK AO2 PK WND 23041/0802 TSB11E26 SLPNO P0009 60023 58014 FZRANO $", "KOCQ 060915Z AUTO 12003KT 10SM CLR 09/09 A3009 RMK AO1 T00860085", "KOCW 060905Z AUTO 00000KT 10SM OVC095 11/10 A3024 RMK AO2 T01120095", "KODO 060853Z AUTO 33007KT 10SM CLR 19/M04 A2990 RMK AO2 SLP075 T01941039 50002", "KODX 060853Z AUTO VRB05KT 10SM -RA FEW040 SCT085 BKN110 14/12 A2968 RMK AO2 LTG DSNT S AND SW RAE14B50 PRESFR SLP045 P0001 60043 T01440122 55056", "KOEB 060915Z AUTO 12007KT 10SM CLR 11/03 A3021 RMK AO2 T01100028", "KOEL 060915Z AUTO 03011KT 10SM SCT013 13/11 A2975 RMK AO1 T01250105", "KOEO 060915Z AUTO 06003KT 10SM OVC011 13/13 A3000 RMK AO2 T01300130 PWINO", "KOFF 060855Z 00000KT 10SM SCT020 OVC030 16/15 A2986 RMK AO2A SLP113 T01620154 53012 PWINO PNO FZRANO TSNO CHINO RWY31 $", "KOFP 060854Z AUTO 00000KT 10SM OVC090 12/10 A3028 RMK AO2 SLP252 T01170100 53006", "KOGA 060915Z AUTO 30005KT 10SM CLR 08/08 A2983 RMK AO2 T00830083", "KOGB 060853Z AUTO 00000KT 10SM OVC110 16/13 A3021 RMK AO2 SLP227 T01560128 53001", "KOGD 060853Z AUTO 19005KT 10SM -RA OVC038 09/04 A2996 RMK AO2 RAB39 SLP116 P0000 60000 T00890039 52004", "KOGS 060915Z AUTO 00000KT 9SM CLR 06/06 A3026 RMK AO2", "KOIC 060915Z AUTO 00000KT 1/4SM FG OVC001 04/04 A3033 RMK AO2 T00390039", "KOIN 060915Z AUTO 04007KT 10SM SCT028 13/10 A2981 RMK AO1 T01250103", "KOJC 060853Z AUTO 16009KT 10SM OVC008 17/16 A2984 RMK AO2 SLP094 T01720156 58007", "KOKB 060852Z AUTO 00000KT 10SM CLR 09/08 A3007 RMK AO2 SLP180 T00940083 58009", "KOKC 060852Z 18008KT 6SM BR CLR 21/20 A2979 RMK AO2 SLP073 T02060200 51001", "KOKK 060856Z AUTO 12004KT 10SM CLR 12/07 A3016 RMK AO2 SLP213 6//// T01170072 53010 PNO $", "KOKM 060915Z AUTO 11005KT 4SM BR SCT004 OVC010 19/19 A2982 RMK AO2 T01870187", "KOKV 060915Z AUTO 00000KT 10SM CLR 03/03 A3028 RMK AO2", "KOKZ 060915Z AUTO 10005KT 10SM -RA OVC060 15/14 A3019 RMK AO2", "KOLE 060835Z AUTO 00000KT 10SM CLR 03/03 A3030 RMK AO2", "KOLF 060853Z AUTO 07013KT 10SM -RA OVC065 11/03 A2990 RMK AO2 RAB34 SLP122 P0000 60000 T01060033 53002", "KOLG 060915Z AUTO 02005KT 10SM OVC004 04/03 A3003 RMK AO1", "KOLM 060926Z AUTO 00000KT 1 1/4SM BR FEW004 OVC060 07/07 A2997 RMK AO2 T00720072", "KOLS 060854Z AUTO 11003KT 10SM CLR 09/M02 A3004 RMK AO2 SLP123 T00941017 58005", "KOLU 060905Z AUTO 10009KT 10SM -RA BKN070 13/13 A2980 RMK AO2 LTG DSNT E TSE0859 P0001", "KOLV 060915Z AUTO 15005KT 10SM SCT012 BKN047 OVC060 17/14 A3004 RMK A01", "KOLY 060910Z AUTO 14007KT 10SM OVC032 16/10 A3009 RMK AO2 T01580101 PWINO", "KOLZ 060915Z AUTO 13011G16KT 4SM BR BKN007 BKN028 OVC075 13/13 A2994 RMK A01", "KOMA 060852Z 00000KT 8SM BKN036 OVC055 15/14 A2983 RMK AO2 LTG DSNT N AND W SLP099 T01500144 53009", "KOMH 060915Z AUTO 00000KT 10SM OVC080 08/08 RMK AO2", "KOMK 060853Z AUTO 18007KT 8SM OVC023 11/09 A2984 RMK AO2 RAB0756E06 SLP105 P0001 60004 T01110094 53004", "KONL 060915Z AUTO 07008KT 10SM BKN005 13/12 A2973 RMK AO2 T01260117", "KONM 060915Z AUTO 32004KT 10SM CLR 12/M09 A3004 RMK AO2 T01151094", "KONO 060853Z AUTO 28010KT 7SM -RA BKN017 OVC028 09/06 A2993 RMK AO2 RAB43 SLP135 P0001 60001 T00940061 53007", "KONP 060915Z AUTO 13003KT 10SM OVC034 08/08 A2999 RMK AO2", "KONT 060853Z 28003KT 10SM FEW050 FEW230 11/07 A3007 RMK AO2 SLP181 T01060072 58002", "KONX 060905Z AUTO 00000KT 10SM BKN110 10/10 A3025 RMK AO2 T01030102", "KONZ 060915Z AUTO 00000KT 10SM CLR 09/06 A3026 RMK AO2 T00930059", "KOOA 060915Z AUTO 17009KT 10SM SCT014 16/13 A2991 RMK AO2 T01570126", "KOPF 060853Z AUTO 01004KT 10SM CLR 23/18 A3005 RMK AO2 SLP175 T02280183 55004", "KOPL 060915Z AUTO 00000KT 10SM BKN013 BKN017 OVC024 24/22 A2998 RMK AO2 T02350223", "KOPN 060915Z AUTO 00000KT 10SM OVC060 15/11 A3018 RMK AO2", "KOQN 060915Z AUTO 35003KT 7SM CLR 08/08 A3028 RMK AO2", "KOQT 060853Z AUTO 00000KT 10SM OVC090 15/11 A3019 RMK AO2 SLP215 T01500106 53003", "KORB 060913Z AUTO 11004KT 10SM OVC012 07/04 A3007 RMK AO2", "KORD 060851Z 15010KT 10SM OVC095 18/06 A3007 RMK AO2 SLP181 T01780056 52008", "KORE 060852Z AUTO 00000KT 1/4SM FG VV002 02/01 A3023 RMK AO2 SLP238 T00220011 53004", "KORF 060851Z 00000KT 10SM SCT100 OVC120 13/11 A3025 RMK AO2 SLP242 T01330106 53004", "KORG 060915Z AUTO 34012G24KT 4SM +TSRA BKN010 OVC017 24/21 A3002 RMK AO2 LTG DSNT ALQS P0009 T02380210", "KORH 060854Z AUTO 32009KT 10SM CLR 09/04 A3018 RMK AO2 SLP223 T00890039 53001", "KORK 060915Z AUTO 10006KT 10SM OVC009 18/18 A2996 RMK AO2", "KORL 060853Z AUTO 00000KT 10SM SCT060 22/17 A3009 RMK AO2 SLP191 T02220172 55005", "KORS 060915Z AUTO 17005KT 10SM BKN031 OVC045 10/09 A2994 RMK AO2", "KOSA 060915Z AUTO 12003KT 4SM BR CLR 23/23 A2986 RMK AO2 T0233////", "KOSC 060915Z AUTO 13003KT 10SM SCT110 10/06 A3027 RMK AO2 T00960056", "KOSH 060853Z AUTO 13006KT 10SM FEW055 BKN075 OVC095 14/08 A3006 RMK AO2 RAB17E48 SLP175 P0001 60004 T01390083 51005", "KOSU 060853Z AUTO 08006KT 10SM CLR 09/04 A3021 RMK AO2 SLP228 T00940039 53003", "KOTG 060856Z AUTO 13006KT 7SM OVC005 14/14 A2985 RMK AO2 RAB20E33 SLP108 6//// T01440139 58007 PNO $", "KOTH 060925Z AUTO 14004KT 10SM BKN004 09/09 A2998 RMK AO2", "KOTM 060853Z AUTO 17015G21KT 10SM OVC016 15/12 A2990 RMK AO2 SLP122 T01500117 50003", "KOUN 060915Z AUTO 16011KT 5SM BR CLR 22/21 A2979 RMK AO2 T02180207", "KOVL 060915Z AUTO 09007KT 050V130 10SM OVC006 13/11 A2988 RMK AO2", "KOVS 060853Z AUTO VRB03KT 10SM FEW045 OVC070 15/12 A2999 RMK AO2 SLP154 60001 T01500122 58001", "KOWA 060913Z AUTO 12006KT 10SM OVC016 14/13 A2992 RMK AO2", "KOWB 060856Z AUTO 16005KT 10SM OVC043 16/12 A3012 RMK AO2 SLP198 T01560117 53005", "KOWD 060920Z AUTO 00000KT 3SM BR CLR 04/02 A3017 RMK AO2 T00390017", "KOWI 060915Z AUTO 15011KT 1 1/2SM BR OVC005 18/17 A2981 RMK AO2 PWINO", "KOWP 060920Z AUTO 14008KT 4SM OVC004 22/21 A2983 RMK AO2 T02150207", "KOWX 060915Z AUTO 12005KT 10SM CLR 08/03 A3023 RMK AO1", "KOXC 060851Z AUTO 33004KT 10SM CLR 06/05 A3023 RMK AO2 SLP251 T00610050 53001", "KOXD 060915Z AUTO 00000KT 10SM CLR 13/05 A3019 RMK AO2 T01310049", "KOXI 060915Z AUTO 14009KT 10SM CLR 14/05 A3013 RMK AO1", "KOXR 060851Z AUTO 08004KT 10SM BKN018 12/09 A3007 RMK AO2 SLP184 T01220094 50000", "KOXV 060915Z AUTO 15006KT 10SM OVC013 14/12 A2988 RMK AO2", "KOYM 060915Z AUTO 00000KT 7SM OVC100 03/02 A3032 RMK AO2 PWINO", "KOZA 060915Z AUTO 17012G16KT 10SM CLR 24/19 A2992 RMK AO2", "KOZR 060855Z AUTO 04005KT 10SM CLR 15/13 A3010 RMK AO2 SLP194 T01540131 50001", "KOZS 060915Z AUTO 16011KT 10SM OVC008 16/14 A2994 RMK AO2", "KOZW 060915Z AUTO 11008KT 10SM CLR 10/04 A3025 RMK AO2 T00950043", "KP08 060915Z AUTO 12007KT 10SM CLR 12/00 A2996 RMK AO2", "KP28 060856Z AUTO 15005KT 17/16 A2970 RMK AO1 SLP045 T01720156 58007 $", "KP52 060915Z AUTO 00000KT 10SM CLR 06/M02 A3002 RMK AO2", "KP53 060856Z AUTO 33004KT 07/06 A3016 RMK AO1 SLP218 P0007 60014 T00670056 58001", "KP58 060855Z AUTO 16008KT 11/07 A3026 RMK AO1 SLP249 T01060067 53006", "KP59 060851Z AUTO 20008G20KT 150V250 07/05 A3013 RMK AO1 SLP209 T00670050 56010", "KP60 060856Z AUTO 00000KT M04/M05 A2994 RMK AO1 SLP133 T10391050 58001 $", "KP68 060853Z AUTO 21003KT M01/M01 A2996 RMK AO1 SLP127 T10111011 58008", "KP69 060852Z AUTO 00000KT 09/09 A2987 RMK AO1 SLP105 T00940089 55001", "KP92 060859Z AUTO VRB04KT 24/24 A2996 RMK AO1 SLP145 T02390239 56009", "KPAE 060918Z AUTO VRB03KT 2 1/2SM BR OVC005 08/07 A2996 RMK AO2 RAE0856 P0000 T00830072", "KPAH 060853Z AUTO 15004KT 10SM BKN070 15/12 A3006 RMK AO2 SLP175 T01500117 58003", "KPAM 060855Z AUTO 02003KT 10SM CLR 18/16 A3007 RMK AO2 SLP186 T01830164 55003 $", "KPAN 060915Z AUTO 00000KT 10SM CLR 07/M03 A3008 RMK AO2 PWINO TSNO", "KPBF 060853Z AUTO 13009KT 10SM BKN025 BKN036 OVC045 20/18 A2997 RMK AO2 SLP145 T02000183 58003", "KPBG 060853Z AUTO 00000KT 10SM CLR 04/03 A3022 RMK AO2 SLP236 T00440033 53002", "KPBH 060915Z AUTO 08004KT 10SM BKN019 OVC028 09/09 A3002 RMK AO2 T00930088", "KPBI 060853Z 05004KT 10SM FEW029 SCT250 24/19 A3006 RMK AO2 SLP178 T02440189 55004", "KPBX 060915Z AUTO 16003KT 10SM CLR 10/05 A3020 RMK AO2 T01040054", "KPCM 060915Z AUTO 09004KT 10SM BKN040 24/17 A3009 RMK AO2", "KPCW 060915Z AUTO 10004KT 10SM CLR 08/08 A3024 RMK AO2", "KPCZ 060915Z AUTO 36003KT 10SM OVC090 11/09 A3006 RMK AO2 T01100085", "KPDK 060853Z AUTO 00000KT 10SM SCT050 BKN120 14/12 A3018 RMK AO2 SLP217 T01390122 53000", "KPDT 060923Z AUTO 26007KT 10SM -RA OVC033 11/05 A2992 RMK AO2 RAB14 P0000 T01060050", "KPDX 060853Z 14003KT 10SM FEW018 OVC043 12/09 A2997 RMK AO2 SLP149 T01170094 58001 $", "KPEA 060915Z AUTO 15006KT 10SM OVC014 14/12 A2989 RMK AO2 T01420119", "KPEO 060853Z AUTO 21005KT 10SM CLR 04/04 A3032 RMK AO2 SLP271 T00440044 53007", "KPEQ 060915Z AUTO 00000KT 10SM CLR 16/M02 A2991 RMK AO2 T01571023", "KPEX 060915Z AUTO 06009KT 10SM OVC012 10/06 A2993 RMK AO2", "KPEZ 060915Z AUTO 10009KT 7SM SCT011 BKN017 OVC025 25/23 A2992 RMK AO2 T02510227", "KPGA 060853Z AUTO 25004KT 10SM CLR 13/M04 A3000 RMK AO2 SLP117 T01281039 51007", "KPGD 060853Z AUTO 11005KT 10SM FEW044 21/19 A3007 RMK AO2 SLP180 T02060194 58003", "KPGV 060905Z AUTO 00000KT 10SM OVC100 12/12 A3023 RMK AO2", "KPHD 060853Z AUTO 00000KT 10SM CLR 06/03 A3025 RMK AO2 SLP245 T00610033 53005", "KPHF 060854Z AUTO 00000KT 10SM OVC090 10/09 A3026 RMK AO2 SLP245 T01000094 53005", "KPHL 060854Z 00000KT 10SM FEW100 08/07 A3028 RMK AO2 SLP252 T00780072 53004", "KPHN 060915Z AUTO 11006KT 10SM CLR 09/04 A3028 RMK AO2", "KPHP 060855Z AUTO 00000KT 10SM -RA OVC080 12/11 A2977 RMK AO2 SLP067 P0000 60000 T01170111 55012", "KPHT 060915Z AUTO 13007KT 10SM SCT024 OVC070 14/13 A3007 RMK A01", "KPHX 060851Z 00000KT 10SM FEW100 BKN250 19/04 A2992 RMK AO2 SLP117 T01940039 50000", "KPIA 060854Z 16010KT 10SM BKN028 BKN035 OVC050 17/11 A3002 RMK AO2 SLP163 T01670111 53002", "KPIB 060924Z AUTO 10003KT 1SM -RA OVC002 19/ A3006 RMK AO2 RAB05 RVRNO PNO $", "KPIE 060853Z AUTO 10006KT 10SM CLR 22/18 A3006 RMK AO2 SLP179 T02220183 55006", "KPIH 060853Z AUTO 22008KT 10SM SCT027 OVC080 07/03 A2994 RMK AO2 SLP120 T00670028 50000", "KPIL 060853Z AUTO 15006KT 5SM BR CLR 26/25 A2986 RMK AO2 SLP111 T02560250 58004", "KPIM 060915Z AUTO 11004KT 10SM OVC060 15/13 A3016 RMK AO2 T01520125", "KPIR 060925Z AUTO 08004KT 10SM FEW060 SCT070 OVC100 13/09 A2972 RMK AO2 LTG DSNT NW T01330089", "KPIT 060851Z 08004KT 10SM FEW250 07/03 A3025 RMK AO2 SLP252 T00720033 53003", "KPJC 060915Z AUTO 00000KT 1SM BR VV007 02/02 A3027 RMK AO2", "KPKB 060853Z AUTO 00000KT 10SM CLR 06/04 A3021 RMK AO2 SLP230 T00560039 53005", "KPKD 060853Z AUTO 10007KT 10SM BKN026 OVC031 09/05 A2999 RMK AO2 SLP158 T00890050 55001", "KPKV 060915Z AUTO 09005KT 5SM BR BKN009 OVC013 26/24 A2994 RMK AO2 T02580242", "KPLN 060854Z AUTO 11007KT 10SM -RA FEW065 OVC080 08/07 A3022 RMK AO2 RAB04 SLP239 P0002 60002 T00830067 53002", "KPLR 060915Z AUTO 00000KT 10SM BKN039 OVC048 15/14 A3015 RMK A01", "KPLU 060915Z AUTO 00000KT 9SM BKN011 BKN032 OVC060 09/09 A2996 RMK AO2", "KPMD 060853Z AUTO 23014KT 10SM CLR 09/04 A3004 RMK AO2 SLP162 T00940039 56003", "KPMH 060859Z AUTO 35003KT 10SM CLR 07/04 A3021 RMK AO2", "KPMP 060853Z AUTO 05003KT 10SM CLR 24/19 A3004 RMK AO2 SLP174 T02440189 56005", "KPMU 060915Z AUTO 00000KT 10SM OVC028 18/15 A3004 RMK AO2", "KPMV 060915Z AUTO 14005KT 10SM OVC013 17/15 A2984 RMK AO2 LTG DSNT N T01700150", "KPNA 060915Z AUTO 00000KT 10SM BKN070 M02/M03 A2994 RMK AO2", "KPNC 060921Z AUTO 17012KT 7SM FEW009 23/22 A2974 RMK AO2 T02330217 $", "KPNE 060854Z AUTO 31004KT 10SM CLR 09/08 A3028 RMK AO2 SLP253 T00890078 53003", "KPNM 060915Z AUTO 05006KT 10SM OVC016 09/06 A2998 RMK AO2", "KPNS 060910Z AUTO 11005KT 10SM FEW021 OVC030 22/19 A3006 RMK AO2 T02220194", "KPO1 060920Z AUTO 06011KT 10SM FEW060 OVC075 11/03 A2991 RMK AO2", "KPOB 060855Z AUTO 00000KT 10SM CLR 10/10 A3021 RMK AO2 SLP232 T01030097 51007 $", "KPOE 060916Z AUTO 21006KT 7SM VCTS -RA BKN005 OVC032 23/23 A2997 RMK AO2 RAE0856RAB16 CIG 005V007 SLP148", "KPOF 060853Z AUTO 10SM BKN060 14/12 A3002 RMK AO2 SLP166 T01390122 55003", "KPOU 060853Z AUTO 00000KT 10SM CLR 04/04 A3025 RMK AO2 SLP241 T00440039 53005", "KPOV 060915Z AUTO 09005KT 10SM CLR 05/02 A3025 RMK AO2 T00500020 PWINO", "KPOY 060915Z AUTO 26003KT 10SM CLR 06/M01 A2982 RMK AO2", "KPPA 060915Z AUTO 24013KT 10SM 19/M02 A2984 RMK AO2 T01941025", "KPPF 060859Z AUTO 17004KT 7SM OVC009 20/18 A2982 RMK AO2 T02000183", "KPPO 060915Z AUTO 11007KT 10SM CLR 12/09 A3014 RMK AO2 T01180087", "KPPQ 060915Z AUTO 15005KT 10SM OVC020 16/14 A3000 RMK AO2 T01550144", "KPQI 060856Z AUTO 00000KT 10SM CLR M01/M01 A3003 RMK AO2 SLP196 T10061006 56005", "KPQL 060922Z AUTO 09003KT 9SM BKN003 OVC009 21/20 A3004 RMK AO2 T02060200", "KPRB 060853Z AUTO 30005KT 10SM CLR 09/07 A3009 RMK AO2 SLP188 T00940067 50003", "KPRC 060853Z 21006KT 10SM CLR 05/M02 A3005 RMK AO2 SLP134 T00501022 58001", "KPRG 060915Z AUTO 14007KT 10SM OVC080 15/11 A3011 RMK AO2 T01530107", "KPRN 060858Z AUTO 12003KT 10SM OVC049 15/13 A3010 RMK AO2 SLP139 T01500133 56003", "KPRO 060915Z AUTO 11007KT 10SM SCT039 BKN050 BKN060 15/13 A2986 RMK AO2 T01460133", "KPRS 060915Z AUTO 00000KT 10SM CLR 19/00 A2994 RMK AO2 T01921001", "KPRX 060924Z AUTO 12008KT 2 1/2SM -RA BR SCT002 22/22 A2987 RMK AO2 P0000", "KPSC 060853Z AUTO 20007KT 10SM BKN036 OVC048 11/08 A2990 RMK AO2 RAB36E48 SLP126 P0000 60000 T01110083 53004", "KPSF 060924Z AUTO 00000KT 1/4SM FG VV001 01/01 A3024 RMK AO2 T00110006", "KPSK 060915Z AUTO 00000KT 10SM CLR 06/06 A3025 RMK AO2 T00580057", "KPSM 060855Z 27004KT 10SM SCT080 07/05 A3014 RMK AO2A SLP209 T00700047 50000", "KPSO 060915Z AUTO 00000KT 10SM CLR 02/M07 A3009 RMK AO2 T00191073", "KPSP 060853Z AUTO 00000KT 10SM CLR 17/05 A2995 RMK AO2 SLP141 T01670050 58002", "KPSX 060912Z AUTO 07005KT 6SM BR SCT013 OVC032 24/24 A2994 RMK AO2 T02440239", "KPTB 060915Z AUTO 00000KT 10SM SCT075 OVC100 09/09 A3027 RMK AO2 T00900085", "KPTD 060915Z AUTO 21004KT 10SM CLR 05/04 A3027 RMK AO2", "KPTK 060853Z AUTO 12005KT 10SM CLR 08/04 A3025 RMK AO2 SLP246 T00830044 53003", "KPTS 060915Z AUTO 14006KT 10SM OVC014 19/19 A2984 RMK AO2 T01920186 PWINO", "KPTT 060915Z AUTO 20008KT 10SM CLR 16/16 A2972 RMK AO2 T01600156", "KPTV 060856Z AUTO 21003KT 10SM BKN060 11/08 A3007 RMK AO2 SLP184 T01060083 50006", "KPTW 060854Z AUTO 00000KT 10SM CLR 04/04 A3030 RMK AO2 SLP257 T00440039 53006", "KPUB 060853Z AUTO 14004KT 10SM CLR 10/M04 A2987 RMK AO2 SLP062 T01001039 53006", "KPUC 060853Z AUTO 00000KT 10SM FEW070 03/M03 A2999 RMK AO2 SLP146 T00331028 53006", "KPUJ 060915Z AUTO 00000KT 7SM OVC050 13/13 A3018 RMK AO2", "KPUW 060853Z AUTO 26006KT 10SM OVC017 07/04 A2990 RMK AO2 SLP133 T00670044 58002", "KPVB 060915Z AUTO 12006KT 10SM SCT031 BKN070 OVC100 13/11 A3001 RMK AO1 T01300112", "KPVC 060856Z AUTO 29007KT 10SM FEW080 09/07 A3015 RMK AO2 SLP209 T00940072 55000", "KPVD 060851Z 27005KT 10SM CLR 07/06 A3018 RMK AO2 SLP221 T00670056 55000", "KPVE 060915Z AUTO VRB03KT 10SM BKN020 BKN055 OVC075 15/13 A3009 RMK A01", "KPVF 060915Z AUTO 18005KT 1/4SM OVC002 06/06 A3007 RMK AO1", "KPVG 060856Z AUTO 10SM OVC085 09/09 A3026 RMK AO2 SLP248 T00890089 53003 $", "KPVJ 060915Z AUTO 15004KT 5SM BR CLR 22/22 A2981 RMK AO2 T02150215", "KPVU 060856Z AUTO 08004KT 10SM SCT055 OVC085 07/03 A3000 RMK AO2 SLP143 T00670028 51001", "KPVW 060915Z AUTO 25008KT 10SM CLR 12/00 A2990 RMK AO2 T01180004", "KPWA 060853Z AUTO 17013KT 7SM CLR 22/20 A2978 RMK AO2 SLP066 T02220200 58001", "KPWC 060915Z AUTO 08008KT 10SM SCT017 OVC027 09/06 A3002 RMK AO2", "KPWD 060915Z AUTO 08012KT 10SM SCT060 OVC070 08/03 A2995 RMK AO2", "KPWG 060856Z AUTO 20006KT 10SM CLR 20/16 A2987 RMK AO2 SLP107 T02000161 53011", "KPWK 060852Z AUTO 14006KT 10SM SCT095 18/06 A3009 RMK AO2 SLP185 T01780061 51006", "KPWM 060851Z 29007KT 10SM FEW150 07/03 A3012 RMK AO2 SLP201 T00670033 58002", "KPWT 060856Z AUTO 22003KT 8SM OVC004 08/08 A2996 RMK AO2 CIG 002V006 SLP150 60000 T00780078 58001", "KPXE 060915Z AUTO 00000KT 10SM OVC070 16/15 A3017 RMK AO2 T01570148", "KPYM 060852Z AUTO 28004KT 10SM CLR 07/05 A3015 RMK AO2 SLP212 T00670050 56002", "KPYX 060915Z AUTO 24012KT 10SM CLR 14/M04 A2977 RMK AO2 T01391042", "KPZQ 060915Z AUTO 00000KT 10SM OVC075 06/06 A3027 RMK AO2 T00550055", "KPZZ 060915Z AUTO 16016KT 7SM CLR A2999 RMK A01", "KQAZ 060855Z AUTO 08020G28KT 9999 CLR 37/M04 A2993 RMK AO2 PK WND 07028/14 SLP127 WND DATA ESTMD T03691040", "KQBL 060855Z AUTO 00000KT 10SM BKN031 BKN043 20/20 A3008 RMK AO2 SLP192 WND DATA ESTMD T01980199 56005", "KQD3 060905Z AUTO 08006G15KT 9999 CLR 37/24 A2975 RMK AO2 SLP059 WND DATA ESTMD", "KQDG 060920Z AUTO 10010KT 9000 -RA BR OVC009 12/11 A2979 RMK AO2 CIG 007V009 SLP090 $", "KQEI 060920Z AUTO 31003KT 9999 FEW027 OVC065 09/07 A2990 RMK A02 TSNO", "KQEJ 060920Z AUTO 06006G10KT 9999 OVC095 11/04 A2989 RMK A02 TSNO", "KQEN 060930Z AUTO 16002KT M0400 -RA FG CLR 05/05 A2991 RMK A02 TSNO", "KQEP 060930Z AUTO 32001KT 9999 FEW031 BKN060 13/09 A2987 RMK A02 TSNO", "KQEQ 060930Z AUTO 03004KT 9999 OVC055 13/07 A2989 RMK A02 TSNO", "KQER 060920Z AUTO 33002G10KT 9999 FEW080 BKN100 12/05 A2985 RMK A02 TSNO", "KQES 060920Z AUTO 04002KT 9999 SCT028 BKN060 13/07 A2993 RMK A02 TSNO", "KQEV 060920Z AUTO 05004KT 6000 -RA OVC021 13/11 A2976 RMK A02 TSNO", "KQEW 060930Z AUTO 05003G11KT 9999 FEW007 OVC039 12/11 A2983 RMK A02 TSNO", "KQEX 060920Z AUTO 04004KT 9000 -DZ CLR 21/13 / RMK A02 TSNO", "KQEY 060920Z AUTO 05004KT 6000 -RA OVC014 13/12 A2948 RMK A02 TSNO", "KQFB 060920Z AUTO 07003KT 9000 -SHRA OVC015 13/11 A2988 RMK A02 TSNO", "KQFT 060920Z AUTO 02003KT 9999 BKN022 OVC049 12/07 A2986 RMK A02 TSNO", "KQFU 060930Z AUTO 05003KT 9999 OVC050 13/08 A2990 RMK A02 TSNO", "KQFV 060930Z AUTO 13003KT 9999 OVC065 11/07 A2992 RMK A02 TSNO", "KQFW 060920Z AUTO 02002KT 9999 OVC065 09/08 A2972 RMK A02 TSNO", "KQFX 060930Z AUTO 06001KT 9999 FEW036 OVC060 12/10 A2983 RMK A02 TSNO", "KQHY 060855Z AUTO 09003KT 10SM BKN034 OVC045 20/19 A3007 RMK AO2 SLP189 T02020187 57005", "KQOA 060850Z AUTO 01003KT 9999 BKN026 23/23 A2996 RMK AO2 BKN V SCT SLP096 PNO FZRANO TSNO $", "KQRH 060855Z AUTO 07011G16KT 050V130 9999 CLR 35/24 A2971 RMK AO2 SLP063 WND DATA ESTMD T03520243 57015", "KQTZ 060855Z 26004KT 9999 SKC 34/01 A2980 RMK SLP093 58007", "KQVF 060855Z AUTO 16014G19KT 120V200 9999 FEW023 SCT055 BKN070 31/24 A2996 RMK AO2 SLP148 WND DATA ESTMD T03080244 58006", "KRAC 060853Z AUTO 16012KT 10SM FEW075 OVC090 13/06 A3011 RMK AO2 PK WND 16026/0802 SLP195 T01280061 51006", "KRAL 060853Z AUTO 00000KT 10SM CLR 10/07 A3008 RMK AO2 SLP175 T01000072 58002", "KRAP 060852Z AUTO 21003KT 10SM FEW065 BKN090 OVC110 12/08 A2982 RMK AO2 SLP085 60000 T01170078 53011", "KRAS 060915Z AUTO 06010KT 5SM BR OVC005 25/24 A2994 RMK AO2 T02490243", "KRAW 060915Z AUTO 17009KT 10SM OVC012 16/14 A2991 RMK AO2", "KRBD 060853Z AUTO 19007KT 10SM CLR 23/13 A2982 RMK AO2 SLP088 T02330128 50003", "KRBG 060853Z AUTO 00000KT 10SM SCT065 OVC090 09/07 A2997 RMK AO2 SLP150 T00940067 57002", "KRBL 060927Z AUTO 14010KT 10SM SCT008 BKN013 OVC080 11/09 A3002 RMK AO2 RAB0859E17 P0000 T01060089", "KRBO 060915Z AUTO 09008KT 5SM BR BKN005 25/24 A2990 RMK AO2 T02450244", "KRBW 060915Z AUTO 04003KT 10SM OVC085 16/13 A3021 RMK AO2", "KRCA 060855Z AUTO 00000KT 10SM OVC085 12/07 A2980 RMK AO2 SLP079 T01150070 52012 $", "KRCE 060915Z AUTO 19012KT 10SM CLR 20/16 A2979 RMK AO2", "KRCM 060915Z AUTO 13009KT 10SM BKN012 OVC018 16/14 A2987 RMK AO2", "KRCR 060915Z AUTO 12008KT 10SM CLR 13/08 A3015 RMK AO2", "KRCV 060915Z AUTO 26007KT 10SM CLR 04/M10 A3005 RMK AO2 T00421097", "KRCX 060915Z AUTO 10006KT 10SM OVC009 12/12 A3002 RMK AO2 T01210120", "KRCZ 060905Z AUTO 00000KT 10SM CLR 12/10 A3023 RMK AO2 T01240103", "KRDD 060920Z AUTO 18005KT 7SM -RA BKN011 OVC015 11/09 A3000 RMK AO2 P0004 T01060094", "KRDG 060854Z AUTO 00000KT 8SM CLR 06/04 A3028 RMK AO2 SLP259 T00610044 53006", "KRDK 060915Z AUTO 16005KT 10SM SCT016 SCT027 BKN033 16/15 A2985 RMK AO2", "KRDM 060856Z AUTO 00000KT 10SM OVC044 04/02 A2993 RMK AO2 SLP133 T00440017 58001", "KRDR 060855Z AUTO 06005KT 10SM CLR 07/04 A2998 RMK AO2 SLP159 T00730037 50003 $", "KRDU 060851Z 00000KT 10SM BKN070 11/08 A3023 RMK AO2 SLP234 T01110083 53007", "KREG 060915Z AUTO 16004KT 10SM SCT009 OVC017 25/24 A2998 RMK AO2 T02520241", "KREO 060852Z AUTO 19004KT 06/05 A2993 RMK AO1 SLP140 P0001 60001 T00560050 50000", "KRFD 060854Z 12004KT 10SM FEW065 OVC090 15/11 A3006 RMK AO2 RAE43 SLP174 P0000 60000 T01500106 55000", "KRFI 060915Z AUTO 11003KT 10SM CLR 24/12 A2985 RMK AO2 T02420121", "KRGA 060915Z AUTO 14005KT 10SM CLR 10/08 A3019 RMK AO2", "KRGK 060915Z AUTO 11004KT 7SM SCT010 BKN018 OVC026 13/12 A2994 RMK AO2", "KRHI 060853Z AUTO 09007KT 9SM -RA OVC100 08/07 A3006 RMK AO2 RAB0754 SLP186 P0000 60000 T00830067 56003", "KRHP 060910Z AUTO 00000KT 10SM -RA OVC090 11/10 A3021 RMK AO2 T01100095", "KRIC 060854Z 00000KT 10SM FEW085 BKN110 12/09 A3026 RMK AO2 SLP251 T01220094 53006", "KRIL 060853Z AUTO 28015G22KT 10SM -RA BKN041 BKN070 OVC085 08/02 A3000 RMK AO2 PK WND 26030/0800 RAB02E12B44 SLP122 P0000 60000 T00830022 53022 $", "KRIV 060855Z AUTO 00000KT 10SM CLR 08/07 A3007 RMK AO2 SLP180 T00750074 58004", "KRIW 060853Z AUTO 33004KT 10SM CLR 04/M01 A2985 RMK AO2 SLP073 T00441006 58000 $", "KRKD 060856Z AUTO 28007KT 10SM CLR 06/03 A3008 RMK AO2 SLP186 T00610028 58003", "KRKP 060923Z AUTO 09011KT 5SM BR SCT006 BKN025 BKN031 25/24 A2992 RMK AO2 T02500244", "KRKR 060915Z AUTO 00000KT 5SM BR SCT025 17/16 A2986 RMK AO2", "KRKS 060912Z AUTO 22007KT 9SM BKN002 BKN120 01/01 A2996 RMK AO2 T00060006", "KRKW 060915Z AUTO 00000KT 10SM OVC065 12/11 A3019 RMK A01", "KRLD 060915Z AUTO 18006KT 10SM OVC055 12/09 A2989 RMK AO2 T01150093", "KRME 060925Z 00000KT 10SM FEW003 02/02 A3031 RMK AO2 T00220017", "KRMG 060853Z AUTO 00000KT 10SM OVC050 13/12 A3016 RMK AO2 SLP209 T01330122 55003", "KRMN 060915Z AUTO 00000KT 10SM SCT100 13/12 A3028 RMK AO2 T01300118", "KRMY 060915Z AUTO 11006KT 10SM CLR 10/03 A3021 RMK AO2 T01020032", "KRNC 060915Z AUTO 00000KT 10SM OVC065 15/10 A3014 RMK A01", "KRND 060915Z AUTO 07005KT 10SM BKN011 OVC029 21/20 A2990 RMK AO2 CIG 011V029 BKN V SCT SLP116 $", "KRNH 060915Z AUTO 09003KT 10SM SCT006 SCT011 OVC026 12/12 A2997 RMK AO2 T01200120", "KRNM 060922Z AUTO 00000KT 1/2SM FG VV002 06/05 A3006 RMK AO2 T00560050", "KRNO 060855Z VRB05KT 10SM SCT035 BKN050 OVC065 08/M01 A2998 RMK AO2 SLP130 T00781011 56001", "KRNP 060915Z AUTO 11005KT 10SM CLR 09/03 A3025 RMK AO2 T00930031", "KRNT 060853Z AUTO 00000KT 10SM BKN017 OVC023 10/08 A2996 RMK AO2 SLP151 T01000083 58001 $", "KROA 060854Z 00000KT 10SM CLR 09/06 A3027 RMK AO2 SLP247 T00890061 51011", "KROC 060854Z 00000KT 10SM CLR 04/04 A3032 RMK AO2 SLP274 T00440039 53006", "KROG 060912Z 12005KT 7SM SCT015 19/18 A2990 RMK AO2", "KROS 060915Z AUTO 05007KT 10SM OVC017 10/07 A2999 RMK AO2 T01020065", "KROW 060851Z AUTO 25006KT 10SM CLR 14/M07 A2990 RMK AO2 SLP064 T01391067 58002", "KROX 060915Z AUTO 06008KT 10SM CLR 05/03 A3006 RMK AO2", "KRPH 060915Z AUTO 19008KT 150V210 10SM CLR 24/14 A2982 RMK AO2 T02350137 $", "KRPJ 060915Z AUTO 12005KT 10SM -RA SCT080 OVC090 13/12 A3005 RMK AO2 T01320116 TSNO", "KRPX 060902Z AUTO 10SM 07/04 A2973 RMK Roundup ", "KRQB 060915Z AUTO 14005KT 10SM CLR 09/03 A3019 RMK AO2 T00900031", "KRQE 060853Z AUTO 00000KT 10SM CLR 05/M07 A3011 RMK AO2 SLP121 T00501067 51003", "KRQO 060915Z AUTO 19009KT 7SM HZ CLR 17/14 A2981 RMK AO2 T01700143", "KRRT 060915Z AUTO 05013KT 10SM OVC026 04/02 A3008 RMK AO2", "KRSL 060853Z AUTO 18011KT 6SM BR CLR 18/17 A2965 RMK AO2 SLP024 T01780167 56001", "KRSN 060915Z AUTO 20004KT 6SM BR FEW006 SCT019 SCT026 OVC031 23/23 A2996 RMK AO2 FEW V SCT T02290229 $", "KRSP 060854Z AUTO 05009KT 030V090 10SM CLR 08/03 A3027 RMK AO2 SLP256 T00830028 53005 $", "KRST 060854Z AUTO 13008KT 10SM OVC010 14/13 A2993 RMK AO2 SLP133 T01390133 55002", "KRSW 060853Z 08003KT 10SM OVC045 22/19 A3005 RMK AO2 SLP174 T02220194 56003", "KRTN 060853Z AUTO 03005KT 10SM CLR 06/M09 A2997 RMK AO2 SLP076 T00561089 51007", "KRTS 060915Z AUTO 28009KT 10SM OVC044 04/M02 A2998 RMK AO2", "KRUE 060853Z AUTO VRB04KT 10SM OVC010 20/18 A2992 RMK AO2 SLP127 T02000178 58005", "KRUG 060915Z AUTO 08015KT 10SM BKN065 BKN075 BKN085 08/05 A2998 RMK AO2", "KRUQ 060905Z AUTO 00000KT 10SM CLR 08/07 A3023 RMK AO2 T00800073", "KRUT 060856Z AUTO 15005KT 10SM CLR 02/02 A3026 RMK AO2 SLP244 T00220022 53003 FZRANO $", "KRVF 060915Z AUTO 18009KT 10SM SCT085 BKN110 06/M01 A2983 RMK AO2", "KRVJ 060915Z AUTO 00000KT 10SM OVC080 17/14 A3017 RMK AO2 T01700138", "KRVL 060915Z AUTO 00000KT M1/4SM FG OVC001 03/03 A3031 RMK AO2", "KRVS 060921Z AUTO 15007KT 7SM SCT006 OVC015 20/18 A2981 RMK AO2 T02000183", "KRWF 060853Z AUTO 06007KT 9SM BKN007 OVC029 14/12 A2987 RMK AO2 SLP113 T01390122 58001", "KRWI 060853Z AUTO 00000KT 10SM BKN090 12/10 A3023 RMK AO2 SLP238 T01220100 53004", "KRWL 060853Z AUTO 25004KT 10SM BKN090 03/M03 A2994 RMK AO2 SLP080 T00331028 58004", "KRWV 060915Z AUTO 22007KT 10SM CLR 18/16 A2989 RMK AO2 T01810165", "KRXE 060853Z AUTO 19007KT 10SM CLR 06/01 A2992 RMK AO2 SLP116 60000 T00560006 53004", "KRYM 060855Z AUTO 06007KT 10SM OVC019 09/06 A2996 RMK AO2 SLP150 T00860055 56002 $", "KRYN 060915Z AUTO 11003KT 10SM FEW034 SCT041 SCT048 11/M01 A2999 RMK AO2", "KRYW 060915Z AUTO 16006KT 10SM CLR 18/17 A2993 RMK AO2 T01750165", "KRYY 060850Z 00000KT 10SM FEW055 14/12 A3019 RMK AO2 SLP219 T01390122 55002 $", "KRZL 060915Z AUTO 12006KT 10SM OVC110 14/07 A3011 RMK AO2", "KRZN 060915Z AUTO 00000KT 10SM BKN017 BKN027 OVC044 08/04 A3000 RMK AO2 T00750041", "KRZR 060915Z AUTO 00000KT 3SM BR BKN003 BKN044 OVC085 13/13 A3017 RMK A01", "KRZT 060915Z AUTO 00000KT 10SM CLR 06/05 A3023 RMK AO2 PWINO", "KS12 060915Z AUTO 00000KT 10SM BKN046 BKN055 OVC110 10/10 A2998 RMK AO2", "KS21 060915Z AUTO 20004KT 10SM BKN049 OVC055 03/01 A2997 RMK AO2", "KS24 060915Z AUTO 07003KT 10SM CLR 09/04 A3024 RMK AO2", "KS25 060915Z AUTO 09007KT 10SM FEW047 FEW060 BKN095 08/04 A2992 RMK AO2", "KS32 060915Z AUTO 08014KT 10SM OVC085 08/08 A2996 RMK AO2 TSNO", "KS33 060915Z AUTO 00000KT 10SM OVC044 A2996 RMK AO2", "KS39 060915Z AUTO 00000KT 10SM SCT038 OVC045 05/03 A2994 RMK AO2", "KS52 060915Z AUTO 00000KT 10SM -RA BKN030 BKN060 OVC080 09/08 A2983 RMK AO2 T00920081", "KS71 060930Z AUTO 09011G21KT 10SM 13/01 A2980 ", "KS85 060925Z AUTO 07013G18KT 10SM 11/04 A2989 RMK A01 Culbertson ", "KSAA 060915Z AUTO 13007KT 10SM SCT100 SCT120 01/M03 A2994 RMK AO2", "KSAC 060853Z AUTO 13003KT 10SM OVC050 12/11 A3008 RMK AO2 RAE32 SLP184 P0001 60005 T01170106 58003", "KSAD 060851Z AUTO 00000KT 10SM CLR 12/M04 A2999 RMK AO2 SLP119 T01171039 50003", "KSAF 060853Z AUTO 11003KT 10SM CLR 09/M10 A3006 RMK AO2 SLP101 T00891100 51004", "KSAN 060851Z 00000KT 10SM FEW028 13/09 A3009 RMK AO2 SLP187 T01330094 58010", "KSAR 060915Z AUTO 14007KT 10SM OVC036 16/12 A3003 RMK AO2 T01570122", "KSAT 060851Z 05004KT 10SM BKN013 OVC038 21/18 A2994 RMK AO2 SLP120 60001 T02110178 50002", "KSAV 060853Z AUTO 07006KT 10SM FEW041 BKN100 BKN120 18/15 A3017 RMK AO2 SLP216 T01830150 55003", "KSAW 060918Z AUTO 12004KT 10SM BKN085 08/06 A3013 RMK AO2 T00790060", "KSAZ 060915Z AUTO 07009G14KT 10SM OVC020 09/06 A2997 RMK AO2", "KSBA 060853Z AUTO 00000KT 10SM CLR 09/07 A3007 RMK AO2 SLP181 T00940072 58002 $", "KSBD 060920Z AUTO 00000KT 10SM SCT041 10/05 A3008 RMK AO2 T01010051", "KSBM 060853Z AUTO 17008KT 10SM OVC080 13/07 A3010 RMK AO2 RAE06 SLP195 P0000 60000 T01280067 51013", "KSBN 060854Z AUTO 12010KT 10SM CLR 12/06 A3016 RMK AO2 SLP211 T01220056 53005", "KSBO 060915Z AUTO 08003KT 10SM OVC065 16/16 A3020 RMK AO2", "KSBP 060856Z 12003KT 10SM CLR 08/06 A3011 RMK AO2 SLP195 T00830061 50000", "KSBS 060915Z AUTO 09003KT 10SM SCT070 BKN095 04/M03 A2996 RMK AO1 T00361031", "KSBY 060854Z AUTO 00000KT 1/2SM FG VV002 07/06 A3027 RMK AO2 SLP251 T00670056 53007", "KSCD 060915Z AUTO 00000KT 10SM SCT048 BKN070 OVC110 16/13 A3014 RMK AO2 T01610128", "KSCK 060855Z AUTO 00000KT 10SM -RA FEW060 SCT070 OVC095 12/11 A3008 RMK AO2 SLP184 P0000 60004 T01170106 58004", "KSCR 060905Z AUTO 00000KT 10SM CLR 07/07 A3023 RMK AO2 T00720072", "KSCX 060915Z AUTO 00000KT 10SM OVC075 13/10 A3018 RMK A01", "KSDA 060915Z AUTO 00000KT 10SM BKN015 OVC025 16/16 A2984 RMK AO2", "KSDB 060917Z AUTO 10SM SCT008 05/03 A3006 RMK AO2 T00500033", "KSDC 060915Z AUTO 00000KT 10SM CLR 03/02 A3033 RMK AO2", "KSDF 060856Z 11005KT 10SM OVC100 17/09 A3014 RMK AO2 SLP203 T01670094 53005", "KSDL 060853Z AUTO 00000KT 10SM CLR 17/03 A2995 RMK AO2 SLP125 T01720028 58001", "KSDM 060853Z AUTO 13003KT 10SM CLR 09/08 A3006 RMK AO2 SLP179 T00940078 58010 $", "KSDY 060856Z AUTO 06008KT 10SM FEW120 11/02 A2990 RMK AO2 SLP125 T01060022 55004", "KSEA 060853Z 21004KT 10SM BKN013 OVC021 09/07 A2996 RMK AO2 SLP153 60000 T00890067 58002", "KSEE 060915Z AUTO 00000KT 10SM CLR 11/09 A3006 RMK AO2", "KSEF 060915Z AUTO 00000KT 10SM SCT046 18/18 A3008 RMK AO2 T01840177", "KSEG 060853Z AUTO 32003KT 10SM CLR 03/03 A3031 RMK AO2 SLP263 T00330028 53005", "KSEM 060915Z AUTO 09005KT 10SM FEW026 OVC045 16/15 A3010 RMK AO2", "KSEP 060920Z AUTO 21007KT 10SM CLR 21/14 A2990 RMK AO2 T02110144", "KSET 060921Z AUTO 15006KT 10SM BKN024 OVC031 17/12 A3000 RMK AO2 T01720117", "KSEZ 060915Z AUTO 15004KT 10SM CLR 10/M01 A3005 RMK AO2", "KSFB 060853Z AUTO 00000KT 10SM OVC050 21/18 A3009 RMK AO2 SLP189 T02060183 55002", "KSFF 060853Z AUTO 18004KT 10SM BKN012 OVC017 09/07 A2989 RMK AO2 SLP120 T00890072 50001", "KSFM 060856Z AUTO 33003KT 10SM CLR 08/03 A3014 RMK AO2 SLP211 T00830028 57002", "KSFO 060856Z 00000KT 10SM FEW040 BKN060 OVC095 13/09 A3007 RMK AO2 SLP182 60000 T01280089 58007", "KSFQ 060915Z AUTO 00000KT 10SM OVC080 11/10 A3027 RMK AO2 T01070098", "KSFZ 060856Z AUTO 31005KT 10SM CLR 08/05 A3018 RMK AO2 SLP222 6//// T00780050 53001", "KSGF 060920Z 15013G20KT 4SM -RA BR OVC004 17/16 A2990 RMK AO2 P0000 T01670161", "KSGH 060856Z AUTO 11007KT 10SM CLR 08/04 A3020 RMK AO2 SLP228 T00830044 53007", "KSGJ 060856Z AUTO 31004KT 10SM 21/18 A3011 RMK AO2 SLP197 T02110183 56006 $", "KSGR 060853Z AUTO 11003KT 10SM CLR 21/18 A2994 RMK AO2 RAE04 SLP138 P0000 60007 T02110183 58005", "KSGS 060915Z AUTO 09004KT 10SM OVC008 13/12 A2994 RMK AO2 T01310118", "KSGT 060856Z AUTO 13007KT 10SM OVC026 19/17 A2999 RMK AO2 SLP154 T01890167 53000", "KSGU 060856Z AUTO 12008KT 10SM FEW095 11/M02 A2996 RMK AO2 SLP130 T01111022 50004", "KSHD 060915Z AUTO 00000KT 10SM OVC060 10/06 A3029 RMK AO2 T00960060", "KSHL 060915Z AUTO 12008KT 6SM BR OVC006 15/15 A2982 RMK AO2", "KSHM 060855Z AUTO 36007KT 10SM CLR 09/M00 A2989 RMK AO2 SLP064 T00851003 58000 $", "KSHN 060853Z AUTO 24004KT 10SM BKN004 OVC055 08/07 A2995 RMK AO2 SLP143 60000 T00780072 51002", "KSHR 060853Z AUTO 13003KT 10SM SCT110 08/05 A2980 RMK AO2 SLP076 T00830050 50002", "KSHV 060856Z 19006KT 7SM BKN015 OVC022 24/22 A2990 RMK SLPNO", "KSIF 060905Z AUTO 00000KT 10SM CLR 07/06 A3024 RMK AO2 T00680063", "KSIK 060915Z AUTO 00000KT 10SM BKN042 OVC047 16/13 A3005 RMK AO2", "KSIY 060902Z AUTO 00000KT 10SM -RA SCT024 OVC034 08/06 A2997 RMK AO2 P0000 T00780061", "KSJC 060853Z AUTO 14005KT 10SM FEW039 OVC065 12/11 A3008 RMK AO2 RAE11 SLP185 P0000 60002 T01170106 58008", "KSJS 060915Z AUTO 00000KT 10SM CLR 09/06 A3020 RMK AO2 T00910055", "KSJT 060851Z AUTO 15006KT 9SM CLR 23/18 A2988 RMK AO2 SLP088 T02280183 50001", "KSJX 060915Z AUTO 09006KT 10SM -RA OVC085 07/07 A3020 RMK AO2 T00730065", "KSKA 060855Z 21007KT 10SM OVC007 07/05 A2986 RMK AO2A CIG 005 RWY05 SLP114 T00690052 50001", "KSKF 060915Z AUTO 06007KT 6SM BR FEW012 SCT019 BKN032 22/20 A2988 RMK AO2 SLP110 $", "KSKX 060856Z AUTO 25012KT 10SM CLR 07/M11 A3009 RMK AO2 SLP138 T00721106 50004", "KSLB 060915Z AUTO 12011KT 7SM BKN005 OVC020 14/14 A2985 RMK AO2", "KSLC 060854Z 15012KT 10SM FEW050 BKN065 10/02 A2996 RMK AO2 SLP116 60000 T01000017 52004", "KSLE 060856Z AUTO 00000KT 10SM OVC060 10/08 A2997 RMK AO2 SLP148 T01000083 58002", "KSLG 060856Z AUTO 12004KT 6SM BR OVC013 20/20 A2987 RMK AO2 SLP104 T02000200 58009", "KSLH 060915Z AUTO 07005KT 7SM -RA OVC065 05/05 A3024 RMK AO2", "KSLI 060855Z AUTO 00000KT 10SM CLR 11/09 A3005 RMK AO2 SLP179 T01120089 55006 $", "KSLK 060856Z AUTO 00000KT 1/4SM FZFG VV001 M02/M02 A3026 RMK AO2 T10171022", "KSLN 060853Z 15011KT 7SM FEW016 21/19 A2968 RMK AO2 SLP038 T02110194 58013", "KSLO 060915Z AUTO 16005KT 10SM OVC042 16/11 A3005 RMK AO2 T01550112", "KSLR 060915Z AUTO 19003KT 7SM CLR 22/21 A2989 RMK AO2 T02180205", "KSMD 060915Z AUTO 07003KT 10SM CLR 09/06 A3020 RMK A01", "KSME 060915Z AUTO 00000KT 10SM FEW080 OVC095 13/11 A3017 RMK AO2", "KSMF 060853Z 17007KT 10SM BKN060 OVC070 12/10 A3006 RMK AO2 RAE11 SLP179 P0000 60004 T01220100 58004", "KSMN 060856Z AUTO 27006KT 10SM OVC095 10/00 A2982 RMK AO2 SLP798 T01000000 51004", "KSMO 060851Z AUTO 31003KT 10SM CLR 12/07 A3008 RMK AO2 SLP185 T01170072 58001", "KSMP 060856Z AUTO 1/4SM FG VV002 02/02 A2989 RMK AO2 SLP137 T00220017 55002", "KSMQ 060906Z AUTO 00000KT 9SM FEW003 03/03 A3025 RMK AO2 T00330028", "KSMS 060915Z AUTO 00000KT 10SM BKN040 11/11 A3022 RMK AO2", "KSMX 060851Z AUTO 15003KT 10SM CLR 08/07 A3011 RMK AO2 SLP199 T00780072 58001", "KSNA 060853Z AUTO 00000KT 10SM CLR 14/09 A3008 RMK AO2 SLP185 T01440089 58004", "KSNC 060915Z AUTO VRB04KT 10SM CLR 08/07 A3021 RMK AO2", "KSNH 060910Z AUTO 17005KT 10SM OVC018 16/14 A3008 RMK A01", "KSNK 060915Z AUTO 00000KT 10SM CLR 18/13 A2990 RMK AO2 T01800130", "KSNS 060853Z AUTO 00000KT 10SM CLR 11/08 A3010 RMK AO2 SLP200 60000 T01110083 58007", "KSNT 060851Z AUTO 10004KT 02/M01 A2988 RMK AO1 SLP070 T00221006 58005", "KSNY 060922Z AUTO 30004KT 1 3/4SM BR CLR 04/04 A2984 RMK AO2 T00390039", "KSOA 060915Z AUTO 00000G13KT 7SM 24/21 A2994 RMK AO2", "KSOP 060856Z AUTO 00000KT 10SM CLR 09/09 A3023 RMK AO2 SLP241 T00890089 53006", "KSOW 060915Z AUTO 00000KT 10SM CLR 06/M04 A3011 RMK AO2", "KSPA 060915Z AUTO 00000KT 10SM CLR 12/11 A3022 RMK AO2", "KSPB 060905Z AUTO 00000KT 10SM FEW012 BKN033 OVC045 11/09 A2996 RMK AO2 T01060089", "KSPD 060856Z AUTO 31009KT 11/M05 A2984 RMK AO1 SLP049 T01111050 53006", "KSPF 060915Z AUTO 13010KT 8SM -RA FEW042 FEW050 OVC070 10/08 A2982 RMK AO2", "KSPG 060853Z AUTO 10010KT 10SM CLR 23/19 A3004 RMK AO2 SLP172 T02330194 58006", "KSPI 060909Z AUTO 15014G21KT 10SM OVC029 16/11 A3003 RMK AO2 T01560111", "KSPK 060915Z AUTO 13005KT 10SM OVC055 06/02 A3000 RMK AO2", "KSPS 060852Z AUTO 22010KT 10SM CLR 21/13 A2980 RMK AO2 SLP076 T02060133 53004 $", "KSPW 060853Z AUTO 13010KT 10SM OVC008 16/13 A2986 RMK AO2 SLP107 T01610128 55000", "KSQI 060856Z AUTO 11006KT 10SM SCT039 SCT075 BKN090 14/13 A3002 RMK AO2 RAE53 SLP030 P0003 60011 T01440128 56004", "KSQL 060915Z AUTO 00000KT 8SM BKN049 OVC065 12/09 A3008 RMK AO2", "KSRB 060915Z AUTO 00000KT 10SM OVC080 13/11 A3016 RMK AO2", "KSRC 060856Z AUTO 06003KT 10SM BKN024 OVC039 18/16 A3000 RMK AO2 SLP155 T01830161 50005", "KSRE 060915Z AUTO 15004KT 4SM BR BKN007 BKN011 BKN110 22/21 A2982 RMK AO2", "KSRQ 060853Z AUTO 12008KT 10SM CLR 22/18 A3002 RMK AO2 SLP164 T02170178 58012", "KSRR 060915Z AUTO 24009G17KT 10SM CLR 13/M13 A3010 RMK AO2", "KSSC 060855Z AUTO 00000KT 10SM OVC170 13/11 A3019 RMK AO2 SLP224 T01290110 53001 $", "KSSF 060927Z AUTO 11009KT 6SM BR FEW020 OVC031 25/23 A2989 RMK AO2 T02500228 $", "KSSI 060853Z AUTO 09007G18KT 5SM -RA OVC029 22/18 A3014 RMK AO2 RAE20B38 SLP209 P0002 60012 T02170183 55001", "KSTC 060853Z AUTO 06007KT 10SM OVC014 09/06 A2995 RMK AO2 SLP151 T00940056 56001", "KSTE 060915Z AUTO 05004KT 10SM SCT049 OVC080 10/08 A3005 RMK AO2 T01010083", "KSTF 060915Z AUTO 12004KT 10SM BKN010 BKN035 OVC043 17/16 A3006 RMK AO2", "KSTJ 060853Z AUTO 14008KT 9SM OVC013 17/15 A2982 RMK AO2 SLP094 T01720150 50000", "KSTK 060915Z AUTO 33006KT 10SM CLR 05/05 A2982 RMK AO2", "KSTL 060851Z 17009KT 10SM SCT031 BKN048 17/11 A3000 RMK AO2 SLP150 T01720111 53001 $", "KSTP 060853Z AUTO 12003KT 10SM OVC011 13/12 A2995 RMK AO2 SLP141 T01330117 53006", "KSTS 060919Z 15005KT 8SM -RA FEW012 SCT026 OVC055 11/10 A3005 RMK AO2 P0001 T01110100", "KSUA 060915Z AUTO 00000KT 10SM SCT055 24/17 A3008 RMK AO2 T02360174", "KSUE 060856Z AUTO 18010KT 10SM OVC100 12/07 A3012 RMK AO2 SLP202 60000 T01220067 51011", "KSUN 060915Z AUTO 31003KT 5SM -RA BKN013 OVC029 03/03 A2993 RMK AO2", "KSUS 060912Z AUTO VRB03KT 10SM BKN019 OVC060 16/12 A2998 RMK AO2 T01610117", "KSUT 060910Z AUTO 00000KT 10SM CLR 12/10 A3023 RMK AO2 T01220102", "KSUU 060855Z AUTO 19005KT 10SM OVC090 11/09 A3005 RMK AO2 SLP182 60000 T01070093 56005", "KSUW 060915Z AUTO 05009G17KT 3/4SM BR OVC002 03/03 A3008 RMK AO2 T00320031", "KSUX 060916Z AUTO 15010KT 7SM -RA OVC090 14/13 A2981 RMK AO2 LTG DSNT NE-SE TSE0856 P0009 T01390128", "KSUZ 060915Z AUTO VRB04KT 10SM OVC007 20/20 A2995 RMK A01", "KSVC 060915Z AUTO 32009KT 10SM CLR 10/M05 A3009 RMK AO2 T00981049", "KSVE 060915Z AUTO 33005KT 10SM OVC040 06/01 A2997 RMK AO2", "KSVH 060905Z AUTO 00000KT 10SM CLR 09/07 A3022 RMK AO2 T00850071", "KSVN 060855Z AUTO 04005KT 10SM SCT041 BKN120 18/16 A3014 RMK AO2 SLP210 T01820163 55004 $", "KSWF 060845Z 00000KT 10SM SKC 05/05 A3025", "KSWO 060915Z 16009KT 5SM BR BKN009 24/22 A2977 RMK AO2 T02390222", "KSWW 060915Z AUTO 17015KT 10SM CLR 21/16 A2991 RMK AO2 T02090164", "KSXK 060915Z AUTO 13009KT 3SM BR OVC006 14/14 A2983 RMK AO2", "KSXS 060855Z AUTO 09003KT 10SM CLR 16/14 A3010 RMK AO2 SLP192 T01560140 50001", "KSXT 060856Z AUTO 18008G17KT 1/4SM FG VV002 02/02 A2994 RMK AO2 SLP141 60002 T00220017 58000", "KSXU 060915Z AUTO 25008KT 10SM CLR 13/M10 A2996 RMK AO2 T01251104", "KSYF 060915Z AUTO 35005KT 10SM CLR 08/06 A2982 RMK AO2 T00760063 PWINO", "KSYI 060915Z AUTO 14007KT 10SM OVC044 14/10 A3013 RMK A01", "KSYM 060915Z AUTO 00000KT 10SM CLR 11/03 A3020 RMK AO2", "KSYN 060915Z AUTO 10005KT 7SM SCT039 OVC045 14/13 A2993 RMK AO2 T01350125", "KSYR 060854Z 25003KT 10SM CLR 05/03 A3032 RMK AO2 SLP264 T00500028 53008", "KSZL 060910Z AUTO 16008KT 10SM BKN012 BKN036 17/14 A2987 RMK AO2 CIG 012V035 BKN012 V SCT SLP112 $", "KSZT 060915Z AUTO 22006KT 10SM OVC019 08/07 A2987 RMK AO2", "KSZY 060915Z AUTO 14005KT 10SM OVC016 15/13 A3008 RMK A01", "KT20 060915Z AUTO 09005KT 10SM OVC013 23/18 A2992 RMK AO2 T02290182", "KT35 060915Z AUTO 20012KT 10SM CLR 19/17 A2986 RMK AO2 T01910167", "KT41 060915Z AUTO 11006KT 10SM CLR 20/19 A2996 RMK AO2 LTG DSNT NE AND E T02010187", "KT69 060915Z AUTO 10007KT 5SM BR BKN009 BKN021 BKN026 25/25 A2991 RMK A01", "KT70 060925Z AUTO 10014KT 10SM SCT014 BKN021 25/23 A2985 RMK AO2 CIG 014V021 SLP093 $", "KT74 060915Z AUTO 20007KT 10SM CLR 18/17 A2990 RMK AO2 T01840166", "KT78 060915Z AUTO 14005KT 10SM FEW006 SCT039 BKN070 19/19 A2993 RMK AO2 LTG DSNT NE-SE", "KT82 060915Z AUTO 15007KT 10SM OVC013 21/18 A2995 RMK AO2 T02130177", "KT89 060915Z AUTO 32006KT 10SM CLR 19/M06 A2987 RMK A01", "KTAD 060854Z AUTO 21007KT 10SM CLR 08/M07 A2993 RMK AO2 SLP066 T00781067 50005", "KTAN 060852Z AUTO 00000KT 10SM CLR 04/03 A3016 RMK AO2 SLP214 T00390028 57002", "KTAZ 060915Z AUTO 15009KT 10SM OVC031 15/11 A3005 RMK AO2 T01480105 PWINO", "KTBN 060855Z AUTO 16008G14KT 10SM OVC009 M M RMK AO2 SLPNO RVRNO $", "KTBR 060915Z AUTO 00000KT 10SM BKN090 16/13 A3019 RMK AO2 T01600130 PWINO", "KTBX 060915Z AUTO 10SM CLR 05/M01 A2998 RMK AO2", "KTCC 060853Z AUTO 24009KT 10SM CLR 16/M10 A2988 RMK AO2 SLP058 T01561100 53008", "KTCL 060928Z AUTO VRB06KT 10SM BKN022 OVC080 17/12 A3011 RMK AO2 T01720122", "KTCM 060909Z AUTO 00000KT 10SM FEW006 BKN018 OVC090 08/08 A2996 RMK AO2 DZE09 CIG 016V085 SLP150 $", "KTCS 060853Z AUTO 29010KT 10SM CLR 15/M08 A3002 RMK AO2 SLP089 T01501078 51001", "KTCY 060915Z AUTO 00000KT 10SM OVC060 11/11 A3007 RMK A01", "KTDF 060905Z AUTO 00000KT 10SM BKN070 07/06 A3026 RMK AO2", "KTDR 060855Z AUTO 02005KT 10SM CLR 18/17 A3004 RMK AO2 SLP176 T01830171 56003 $", "KTDZ 060853Z AUTO 09005KT 10SM CLR 09/04 A3024 RMK AO2 SLP240 T00890044 51004", "KTEB 060851Z 00000KT 10SM MIFG CLR 07/06 A3025 RMK AO2 SLP242 T00670056 53004", "KTEW 060915Z AUTO 14006KT 10SM CLR 11/04 A3023 RMK AO2 T01050036", "KTEX 060915Z AUTO 00000KT 10SM SCT025 BKN065 OVC085 02/M03 A3012 RMK AO2", "KTFP 060835Z AUTO 13011KT 10SM OVC007 26/25 A2990 RMK AO2 T02600245", "KTHA 060915Z AUTO 13007KT 10SM SCT034 BKN042 OVC075 14/10 A3014 RMK A01", "KTIF 060915Z AUTO 28006KT 10SM CLR 10/09 A2978 RMK AO2 T00950092", "KTIK 060855Z AUTO 17011KT 9SM CLR 22/22 A2977 RMK AO2 SLP074 T02180216 50001 $", "KTIP 060915Z AUTO 15006KT 10SM OVC080 15/09 A3008 RMK AO2 T01510091", "KTIW 060853Z AUTO 22003KT 10SM SCT019 OVC080 08/07 A2997 RMK AO2 SLP149 T00830067 55001 $", "KTKC 060915Z AUTO 11005KT 4SM BR SCT003 BKN009 OVC013 13/13 A2986 RMK AO2", "KTKI 060853Z AUTO 17004KT 10SM CLR 21/14 A2983 RMK AO2 SLP094 T02110139 58002", "KTKV 060915Z AUTO 00000KT 5SM SCT004 BKN055 OVC065 09/08 A3005 RMK AO2 T00910080 PWINO", "KTKX 060915Z AUTO 13005KT 7SM FEW026 OVC060 15/15 A3003 RMK AO2", "KTLH 060853Z AUTO 07005KT 10SM CLR 19/15 A3009 RMK AO2 SLP189 T01940150 53001", "KTMA 060855Z AUTO 9SM 18/17 RMK AO2 T01830165 $", "KTMB 060853Z AUTO 00000KT 10SM CLR 21/19 A3004 RMK AO2 SLP172 T02110189 55003", "KTME 060915Z AUTO 15007KT 10SM 20/19 A2994 RMK AO2", "KTMK 060915Z AUTO 00000KT 4SM UP BR SCT014 BKN024 OVC038 10/10 A2999 RMK AO2", "KTMT 060915Z AUTO 14004KT 10SM SCT100 M02/M03 A2997 RMK AO2 T10221029", "KTNB 060915Z AUTO 00000KT 10SM CLR 04/04 A3027 RMK AO2 T00400040 TSNO", "KTNU 060915Z AUTO 14011KT 10SM CLR 13/13 A2988 RMK A01", "KTOB 060915Z AUTO 12006KT 7SM OVC012 13/13 A2993 RMK AO2", "KTOC 060915Z AUTO 00000KT 10SM OVC110 13/11 A3021 RMK AO2 T01300109", "KTOI 060853Z AUTO 04003KT 10SM CLR 16/13 A3013 RMK AO2 SLP197 T01560128 55002", "KTOL 060852Z 10007KT 10SM CLR 10/04 A3023 RMK AO2 SLP235 T01000039 53003", "KTOP 060903Z AUTO 14010KT 8SM OVC009 18/17 A2979 RMK AO2 T01830167", "KTOR 060914Z AUTO 24005KT 1/2SM FG VV001 04/04 A2985 RMK AO2 T00440044", "KTPA 060853Z 09005KT 10SM FEW038 SCT110 BKN250 24/17 A3007 RMK AO2 SLP181 T02390172 56007", "KTPH 060856Z AUTO A2995 RMK AO2 SLPNO 50000 PWINO $", "KTPL 060851Z AUTO 18013G20KT CLR 19/16 A2987 RMK AO2 SLP103 T01890161 50005 PWINO RVRNO $", "KTQE 060906Z AUTO 24006KT 10SM VCTS -RA FEW035 SCT070 BKN095 14/13 A2986 RMK AO2 LTG DSNT ALQDS TSE00 P0000 T01390128", "KTQH 060915Z AUTO 00000KT 5SM BR SCT018 18/16 A2986 RMK AO2", "KTQK 060915Z AUTO 34012KT 10SM CLR 12/10 A2976 RMK AO2 T01190096", "KTQV 060915Z AUTO 00000KT 10SM SCT070 12/09 A3023 RMK A01", "KTRI 060853Z 00000KT 10SM SCT180 09/07 A3023 RMK AO2 SLP220 T00890072 53011", "KTRK 060921Z AUTO 18003KT 10SM SCT026 OVC090 02/M03 A3000 RMK AO2", "KTRL 060853Z AUTO 09004KT 10SM CLR 22/12 A2984 RMK AO2 SLP096 T02220122 58001", "KTRM 060852Z AUTO 32014G19KT 9SM CLR 17/06 A2993 RMK AO2 SLP137 T01670061 50002 $", "KTSP 060915Z AUTO 30011KT 9SM FEW038 05/06 A3006 RMK AO2", "KTTA 060905Z AUTO 00000KT 7SM CLR 07/07 A3023 RMK AO2 T00690069", "KTTD 060853Z AUTO 00000KT 10SM BKN040 OVC048 12/09 A2997 RMK AO2 SLP150 60000 T01170094 50000", "KTTF 060915Z AUTO 09004KT 10SM CLR 09/05 A3024 RMK AO2 T00910050", "KTTN 060853Z AUTO 31004KT 10SM CLR 07/06 A3026 RMK AO2 SLP242 T00720061 53004", "KTTS 060905Z AUTO 00000KT 10SM SCT029 BKN036 20/19 A3006 RMK AO2 SLP184 $", "KTUL 060853Z 15008KT 7SM BKN006 OVC018 20/19 A2982 RMK AO2 SLP092 T02000194 52000", "KTUP 060928Z AUTO 16007KT 10SM OVC015 18/13 A3008 RMK AO2 T01830133 $", "KTUS 060853Z 20004KT 10SM CLR 14/M01 A3001 RMK AO2 SLP129 T01441011 58002 $", "KTVC 060853Z AUTO VRB04KT 10SM FEW060 OVC085 14/07 A3016 RMK AO2 SLP213 T01440067 53007", "KTVF 060856Z AUTO 07014KT 10SM CLR 08/06 A3002 RMK AO2 SLP170 T00780061 58004", "KTVI 060920Z AUTO 09005KT 10SM OVC100 18/17 A3013 RMK AO2", "KTVK 060915Z AUTO 15008KT 10SM SCT011 SCT038 BKN055 15/15 A2992 RMK AO2", "KTVL 060853Z AUTO 18006KT 5SM -SN OVC036 01/M02 A2998 RMK AO2 SNB43 SLP140 P0000 60000 T00111017 58006", "KTVR 060853Z AUTO 16006KT 10SM OVC007 22/20 A3000 RMK AO2 CIG 006V011 SLP164 T02170200 51005", "KTVY 060915Z AUTO 17006KT 10SM SCT060 BKN080 OVC095 10/M02 A2995 RMK AO2", "KTWF 060853Z AUTO 22009KT 10SM SCT075 06/03 A2994 RMK AO2 SLP110 T00560028 50001", "KTWM 060915Z AUTO 05009G17KT 10SM OVC004 06/06 A3006 RMK AO2", "KTWT 060915Z AUTO 12004KT 10SM SCT040 SCT075 14/11 A3009 RMK AO2", "KTXK 060853Z AUTO 17009KT 6SM BR OVC006 24/22 A2990 RMK AO2 SLP121 T02440222 55005", "KTXW 060915Z AUTO 16010KT 7SM BR BKN012 25/24 A2985 RMK AO2 T02540239", "KTYL 060915Z AUTO 29004KT 10SM CLR 02/M05 A3010 RMK AO2", "KTYQ 060915Z AUTO 12006KT 10SM CLR 13/06 A3015 RMK AO2 T01300061", "KTYR 060853Z AUTO 22004KT 10SM CLR 23/16 A2986 RMK AO2 SLP102 T02280161 50010", "KTYS 060853Z 08004KT 10SM BKN095 OVC120 14/11 A3018 RMK AO2 SLP213 T01390106 53005", "KTZR 060915Z AUTO 10004KT 10SM CLR 10/04 A3022 RMK AO2 T01020041", "KU42 060915Z AUTO 16005KT 10SM OVC080 07/01 A2998 RMK AO1 T00730013", "KU55 060915Z AUTO 13005KT 10SM FEW033 SCT043 SCT050 M03/M05 A3007 RMK A01", "KU64 060915Z AUTO 31007KT 10SM BKN085 BKN150 05/M05 A3005 RMK AO2 T00511046 $", "KU68 060915Z AUTO 00000KT 10SM BKN100 07/05 A2982 RMK AO2", "KU69 060915Z AUTO 27007KT 10SM CLR 02/M01 A2999 RMK A01", "KUAO 060853Z AUTO 19003KT 10SM SCT033 BKN060 OVC080 10/09 A2998 RMK AO2 SLP152 T01000089 58000", "KUBE 060915Z AUTO 08003KT 10SM OVC010 12/12 A3000 RMK AO2", "KUCP 060856Z AUTO 00000KT 10SM CLR 04/03 A3027 RMK AO2 SLP266 T00440033 53001", "KUCY 060915Z AUTO 14006KT 10SM BKN044 OVC050 15/15 A3005 RMK A01", "KUDG 060856Z AUTO 00000KT 10SM CLR 13/12 A3023 RMK AO2 SLP236 T01280117 53005", "KUES 060915Z AUTO 12006KT 10SM SCT055 OVC075 13/06 A3009 RMK AO2", "KUGN 060851Z AUTO 14009KT 10SM BKN100 OVC110 13/07 A3008 RMK AO2 RAB27E36 SLP183 P0000 60000 T01330067 51007", "KUIL 060922Z AUTO 00000KT 1/2SM FG VV002 07/06 A2997 RMK AO2 T00720056", "KUIN 060854Z AUTO 16007KT 8SM OVC019 16/12 A2997 RMK AO2 SLP146 T01560122 53008", "KUKF 060905Z AUTO 00000KT 10SM CLR 06/06 A3029 RMK AO2", "KUKI 060856Z AUTO 00000KT 9SM -RA FEW040 OVC050 10/09 A3004 RMK AO2 SLP169 P0004 60005 T01000089 56004", "KUKL 060915Z AUTO 15011G16KT 3SM BR OVC003 18/17 A2981 RMK AO2 T01750165", "KUKT 060915Z AUTO 00000KT 10SM CLR 03/03 A3028 RMK A01", "KULM 060915Z AUTO 11007KT 10SM OVC021 14/13 A2988 RMK AO2", "KULS 060910Z AUTO 30008KT 10SM CLR 11/01 A2978 RMK AO2", "KUMP 060915Z AUTO 13005KT 10SM CLR 13/08 A3015 RMK AO2 T01310084", "KUNI 060915Z AUTO 00000KT 5SM -SN CLR 04/03 A3021 RMK AO2 T00400031", "KUNO 060853Z AUTO VRB04KT 10SM OVC008 16/14 A3000 RMK AO2 SLP153 T01560139 55002", "KUNU 060915Z AUTO 13006KT 10SM -DZ OVC080 14/08 A3007 RMK AO2 T01400080", "KUNV 060915Z AUTO 00000KT 3SM BR SCT080 BKN090 03/03 A3031 RMK AO2 T00300030", "KUOX 060915Z AUTO 14007KT 10SM OVC010 16/14 A3007 RMK AO2", "KUSE 060915Z AUTO 10006KT 10SM CLR 09/04 A3022 RMK AO2", "KUTA 060915Z AUTO 13006KT 4SM -RA BR SCT041 SCT050 18/17 A3002 RMK AO2 P0000 T01770166 $", "KUTS 060853Z AUTO 18012G17KT 10SM CLR 23/17 A2978 RMK AO2 RAE15 PRESFR SLP077 P0000 60011 T02280172 58078", "KUUU 060853Z AUTO 32005KT 10SM CLR 09/06 A3017 RMK AO2 SLP217 T00890056 55002", "KUUV 060915Z AUTO 19009G14KT 10SM SCT037 OVC043 16/13 A3000 RMK AO2", "KUVA 060915Z AUTO 10012G16KT 7SM OVC014 25/25 A2992 RMK AO2 T02500250", "KUXL 060915Z AUTO 22003KT 7SM -RA OVC018 25/24 A2999 RMK AO2 T02480240", "KUYF 060915Z AUTO 09004KT 10SM CLR 07/02 A3021 RMK AO2", "KUZA 060854Z AUTO 00000KT 7SM CLR 11/11 A3022 RMK AO2 SLP227 T01110106 53006", "KVAD 060855Z AUTO 08003KT 10SM FEW070 OVC085 18/16 A3011 RMK AO2 SLP197 T01820156 57005 $", "KVAF 060915Z AUTO 10011KT 2 1/2SM BR OVC029 25/24 A2994 RMK A01", "KVAY 060854Z AUTO 00000KT 10SM CLR 06/05 A3027 RMK AO2 SLP249 T00560050 53002", "KVBG 060855Z AUTO 00000KT 9SM CLR 07/07 A3012 RMK AO2 SLP203 T00690065 58002 TSNO $", "KVBT 060856Z AUTO 13006KT 8SM OVC014 19/18 A2990 RMK AO2 SLP117 T01940183 56007", "KVBW 060915Z AUTO 31003KT 10SM OVC060 08/08 A3027 RMK AO1 T00840081", "KVCB 060901Z AUTO VRB05KT 10SM FEW015 BKN041 OVC050 12/09 A3007 RMK AO2 T01170089", "KVCT 060851Z AUTO 10006KT 3SM -RA FU HZ OVC005 24/24 A2994 RMK AO2 RAB29 SLP138 P0001 60001 T02440244 50012", "KVCV 060915Z AUTO 18007KT 10SM FEW045 FEW050 07/03 A3005 RMK AO2", "KVDF 060915Z AUTO 08003KT 10SM BKN040 21/17 A3007 RMK AO2", "KVDI 060915Z AUTO 00000KT 10SM SCT031 OVC070 17/13 A3018 RMK AO2", "KVEL 060853Z AUTO 00000KT 10SM CLR 05/02 A2997 RMK AO2 SLP119 60000 T00500017 53004", "KVER 060915Z AUTO 14007KT 10SM OVC014 17/15 A2992 RMK AO2 T01710148", "KVES 060910Z AUTO 14005KT 10SM CLR 09/03 A3020 RMK AO2", "KVGC 060915Z AUTO 00000KT 1/2SM FG OVC001 01/ A3030 RMK AO2", "KVGT 060853Z AUTO 18010KT 10SM CLR 17/M01 A2991 RMK AO2 SLP130 T01671011 50004", "KVHN 060915Z AUTO 24007KT 10SM CLR 16/M14 A3004 RMK AO2 T01631137", "KVIH 060853Z AUTO 16009KT 10SM OVC011 15/13 A2997 RMK AO2 SLP143 T01500128 55002", "KVIS 060856Z AUTO 32007KT 10SM CLR 13/08 A3007 RMK AO2 SLP190 T01280083 50004", "KVJI 060915Z AUTO 00000KT 10SM CLR 08/06 A3024 RMK AO2 T00780060", "KVKS 060915Z AUTO 14005KT 10SM OVC007 22/M38 A2999 RMK A01", "KVKY 060915Z AUTO 00000KT 7SM CLR A3004 RMK A01", "KVLD 060853Z AUTO 05003KT 10SM FEW046 SCT090 19/17 A3012 RMK AO1 SLP205 60000 T01890167 56003", "KVLL 060915Z AUTO 00000KT 10SM CLR 09/06 A3029 RMK AO2 T00920055", "KVNC 060915Z AUTO 11007KT 10SM CLR 22/20 A3004 RMK AO2", "KVNW 060915Z AUTO 11004KT 10SM CLR 10/05 A3020 RMK AO2", "KVOA 060915Z AUTO 15010KT 6SM BR BKN065 24/22 A3004 RMK A01", "KVOK 060855Z AUTO 11006KT 10SM OVC090 13/13 A2999 RMK AO2 RAE12RAB18E39DZB39E43 SLP157 P0002 60004 T01310128 51003", "KVPC 060915Z AUTO 00000KT 10SM OVC060 14/13 A3019 RMK AO2", "KVPS 060855Z AUTO 08004KT 10SM FEW042 17/16 A3007 RMK AO2 SLP189 T01730163 55003 $", "KVPZ 060856Z AUTO 12007KT 10SM CLR 14/06 A3012 RMK AO2 SLP196 T01390061 $", "KVQQ 060915Z AUTO 00000KT 10SM BKN055 BKN070 OVC095 20/19 A3011 RMK AO2", "KVRB 060853Z AUTO 00000KT 10SM CLR 20/17 A3007 RMK AO2 SLP181 T02000172 58004", "KVSF 060854Z AUTO 00000KT 1/4SM FG VV002 03/02 A3023 RMK AO2 SLP240 T00280022 51002", "KVTA 060854Z AUTO 04004KT 10SM CLR 08/04 A3022 RMK AO2 SLP233 T00830044 53004", "KVTI 060915Z AUTO 12011KT 10SM BKN032 OVC048 15/12 A2993 RMK AO2 T01460116", "KVTN 060852Z AUTO 20006KT 10SM CLR 11/10 A2974 RMK AO2 SLP062 T01060100 51007", "KVTP 060915Z AUTO 24008G18KT 10SM CLR 01/M19 A3006 RMK AO2", "KVUJ 060905Z AUTO 00000KT 10SM CLR 08/08 A3027 RMK AO2 T00820079", "KVVS 060910Z AUTO 07005KT 10SM CLR 10/04 A3026 RMK AO2 T00980038", "KVVV 060915Z AUTO 08013G17KT 10SM OVC013 12/08 A2986 RMK AO2", "KVWU 060915Z AUTO 09009KT 10SM OVC019 09/06 A3006 RMK AO2", "KVYS 060915Z AUTO 13007KT 10SM BKN046 OVC060 15/10 A3004 RMK AO2 T01540103", "KW13 060915Z AUTO 00000KT 10SM OVC060 10/06 A3028 RMK AO1 T01020056", "KW22 060915Z AUTO 00000KT 10SM CLR 06/02 A3022 RMK AO2", "KW29 060905Z AUTO 00000KT 10SM CLR 09/ A3027 RMK AO2 T0087////", "KW31 060915Z AUTO 10SM SCT070 BKN095 09/08 A3025 RMK AO1 T00850075", "KW40 060905Z AUTO 00000KT 10SM OVC080 11/10 A3024 RMK AO2 T01100096", "KW43 060915Z AUTO 00000KT 10SM OVC110 08/05 A2982 RMK AO2", "KW75 060915Z AUTO 00000KT 10SM OVC110 10/09 A3026 RMK AO1 T01030092", "KW78 060915Z AUTO 00000KT 10SM SCT060 SCT085 09/07 A3025 RMK AO1 T00860070", "KW81 060915Z AUTO 00000KT 10SM CLR 07/06 A3026 RMK AO1 T00720060", "KW96 060915Z AUTO 00000KT 10SM OVC080 11/10 A3026 RMK AO1 T01100100", "KWAL 060922Z AUTO 00000KT 10SM FEW003 08/07 A3027 RMK AO2 T00830072", "KWBF 060915Z AUTO 12008KT 5SM BR BKN012 OVC016 25/25 A3000 RMK A01", "KWDG 060915Z AUTO 17009KT 10SM CLR 21/18 A2975 RMK AO2", "KWDR 060915Z AUTO 00000KT 5SM BR SCT060 OVC110 13/12 A3022 RMK AO2", "KWJF 060856Z AUTO 24014KT 10SM CLR 10/05 A3004 RMK AO2 SLP168 T01000050 55001", "KWLD 060910Z AUTO 17017G25KT 7SM BKN011 23/22 A2975 RMK AO2 T02330217", "KWMC 060856Z AUTO 19004KT 10SM FEW060 OVC075 04/02 A2996 RMK AO2 SLP139 T00390022 55000", "KWRB 060855Z AUTO 00000KT 10SM OVC065 16/15 A3017 RMK AO2 SLP218 T01590154 52006", "KWRI 060855Z 00000KT 2SM BR CLR 06/06 A3026 RMK AO2A SLP247 T00620061 52004", "KWRL 060853Z AUTO 13007KT 10SM CLR 06/04 A2984 RMK AO2 SLP081 60000 T00560039 52004 $", "KWST 060853Z AUTO 00000KT 10SM CLR 07/06 A3019 RMK AO2 SLP225 T00670056 56001", "KWVI 060918Z AUTO 00000KT 10SM FEW017 SCT023 OVC033 12/10 A3009 RMK AO2 T01170100", "KWVL 060856Z AUTO 29004KT 10SM CLR 10/03 A3007 RMK AO2 SLP209 T01000028 56006", "KWWD 060856Z AUTO 00000KT 10SM CLR 07/07 A3028 RMK AO2 SLP255 T00720067 53002 $", "KWWR 060915Z AUTO 19009KT 10SM CLR 16/10 A2978 RMK AO2", "KWYS 060915Z AUTO 19003KT 10SM FEW047 SCT050 OVC065 01/01 A2989 RMK AO2", "KX07 060915Z AUTO 08004KT 10SM OVC040 21/18 A3008 RMK A01", "KX26 060910Z AUTO 00000KT 10SM SCT031 SCT065 20/18 A3007 RMK AO2 TSNO T02010178", "KX60 060915Z AUTO OVC047 19/16 RMK AO2 PWINO TSNO", "KXBP 060910Z AUTO 23003KT 10SM CLR 24/11 A2983 RMK AO2 T02360111", "KXLL 060915Z AUTO 00000KT 10SM CLR 06/05 A3030 RMK AO2", "KXMR 060855Z AUTO 12007KT 10SM BKN030 24/19 A3005 RMK AO2 SLP179 T02360193 57006 $", "KXNA 060853Z AUTO 15006KT 8SM BKN014 19/18 A2988 RMK AO2 SLP106 T01890178 56008", "KXNX 060915Z AUTO 00000KT 10SM SCT060 OVC080 14/14 A3017 RMK A01", "KXSA 060915Z AUTO 00000KT 10SM OVC100 09/09 A3028 RMK AO2 T00920092", "KXVG 060913Z AUTO 08009G14KT 10SM OVC014 08/06 A3001 RMK AO2", "KXWA 060851Z AUTO 08010KT 10SM FEW055 SCT075 OVC090 10/03 A2994 RMK AO2 SLP144 60000 T01000033 56002", "KY19 060915Z AUTO 07011KT 10SM BKN037 BKN044 08/06 A2988 RMK AO2", "KY23 060915Z AUTO 00000KT 10SM RA OVC008 13/13 A2999 RMK AO2 T01270127", "KY31 060915Z AUTO 28004KT 10SM SCT110 05/04 A3025 RMK AO2 T00520040", "KY49 060915Z AUTO 07008KT 10SM OVC016 07/05 A3001 RMK AO2 T00700050", "KY50 060856Z AUTO 08004KT 10SM -RA FEW055 OVC090 11/10 A3005 RMK AO2 RAB40 SLP173 P0000 6//// T01110100 51002 $", "KY63 060915Z AUTO 10013G19KT 10SM OVC013 10/06 A2992 RMK AO2 T01030062", "KY70 060915Z AUTO 12005KT 10SM CLR 10/02 A3021 RMK AO2 T00950023", "KYIP 060853Z 04005KT 10SM CLR 06/03 A3026 RMK AO2 SLP245 T00610028 53002", "KYKM 060853Z AUTO 00000KT 10SM BKN080 OVC120 10/06 A2987 RMK AO2 SLP116 T01000056 55000", "KYKN 060856Z AUTO 23003KT 3SM RA BR OVC004 14/14 A2984 RMK AO2 RAB13 SLP113 P0005 60005 T01440144 53008", "KYNG 060851Z 10006KT 10SM FEW250 06/03 A3026 RMK AO2 SLP249 T00560028 53001", "KZER 060915Z AUTO 36003KT 10SM CLR 06/02 A3029 RMK AO2", "KZPH 060915Z AUTO 10003KT 10SM SCT080 20/16 A3009 RMK A02 T01980159", "KZZV 060853Z AUTO 00000KT 10SM CLR 08/04 A3023 RMK AO2 SLP236 T00830039 53006", "LATI 060920Z 31004KT 280V020 CAVOK 24/11 Q1015 NOSIG", "LBBG 060930Z 06011KT 020V090 9999 FEW046 22/11 Q1016 NOSIG", "LBGO 060930Z AUTO 32006KT 260V040 9999 BKN041/// 20/11 Q1018 NOSIG", "LBIA 060900Z 03016KT 9999 SCT060 22/09 Q1016", "LBPD 060930Z AUTO 02005KT 340V070 9999 BKN057/// BKN087/// 20/09 Q1017 NOSIG", "LBPG 060900Z 12002KT 9999 BKN070 BKN100 20/08 Q1017", "LBPL 060900Z 26002KT 9999 SCT070 18/10 Q1019", "LBSF 060930Z VRB03KT 9999 FEW048 BKN081 17/08 Q1019 NOSIG", "LBWN 060930Z 04011KT 360V100 9999 SCT045 20/11 Q1016 NOSIG", "LCEN 060920Z 35015KT 310V010 7000 -TSRA FEW020CB SCT025 BKN080 22/16 Q1007 NOSIG", "LCLK 060900Z 19022KT 9999 FEW020 FEW030CB 24/16 Q1008 NOSIG", "LCPH 060900Z 25008KT 230V300 9999 FEW020 FEW025TCU SCT030 22/15 Q1010 NOSIG", "LCRA 060920Z 23013KT 9999 FEW022 21/14 Q1010 NOSIG", "LDDU 060900Z 19007KT 160V220 CAVOK 22/07 Q1016 TEMPO 18010KT", "LDLO 060900Z 00000KT CAVOK 20/13 Q1016", "LDOS 060900Z 13006KT 090V180 CAVOK 23/10 Q1017", "LDPL 060900Z 26007KT 220V280 CAVOK 22/14 Q1016 NOSIG", "LDRI 060900Z 26003KT 200V310 CAVOK 22/11 Q1016", "LDSB 060900Z 22007KT 170V260 CAVOK 20/09 Q1017", "LDSP 060900Z 21004KT 100V250 CAVOK 22/11 Q1016 BECMG 23008KT", "LDZA 060900Z VRB04KT CAVOK 21/12 Q1017 NOSIG", "LDZD 060900Z VRB04KT CAVOK 22/12 Q1016 BECMG 28008KT", "LEAB 060900Z 20004KT 150V260 CAVOK 22/03 Q1016 NOSIG", "LEAG 060900Z AUTO VRB03KT CAVOK 22/14 Q1015", "LEAL 060900Z 11006KT 080V170 9999 FEW022 22/16 Q1015 NOSIG", "LEAM 060900Z 18005KT 140V210 CAVOK 21/17 Q1015", "LEAO 060900Z 23003KT CAVOK 22/02 Q1016", "LEAS 060900Z 25007KT 9000 -RA FEW085 15/13 Q1016 TEMPO 3000 SHRA BKN010 SCT030TCU", "LEBA 060900Z 26004KT 190V300 CAVOK 22/08 Q1015", "LEBB 060900Z VRB01KT CAVOK 20/13 Q1014 NOSIG", "LEBG 060900Z VRB01KT CAVOK 16/07 Q1017", "LEBL 060900Z 10007KT CAVOK 20/12 Q1016 NOSIG", "LEBR 060900Z AUTO 09008KT 050V150 9999 NCD 22/11 Q1015", "LEBT 060900Z AUTO 16003KT 060V210 CAVOK 23/11 Q1015", "LEBZ 060900Z 27011KT 230V300 CAVOK 20/11 Q1017", "LECH 060900Z AUTO 09005KT 050V140 CAVOK 21/13 Q1016", "LECO 060900Z 19009KT 9999 FEW025 17/13 Q1015 TEMPO 3000 SHRA BKN010 SCT030TCU", "LECV 060900Z VRB01KT CAVOK 19/02 Q1017", "LEDA 060900Z 08009KT 050V120 CAVOK 23/06 Q1015", "LEGE 060900Z 07002KT 9999 FEW005 21/12 Q1016", "LEGR 060900Z 00000KT CAVOK 21/07 Q1017", "LEGT 060900Z VRB01KT CAVOK 20/04 Q1016", "LEHC 060900Z 13008KT 070V190 CAVOK 22/08 Q1016", "LEIB 060900Z 07010KT 040V100 CAVOK 22/15 Q1015 NOSIG", "LEJR 060930Z 19006KT 140V250 CAVOK 22/13 Q1017", "LELC 060900Z 06009KT 030V100 9999 FEW015 23/17 Q1015 NOSIG", "LELL 060900Z 11003KT 020V160 CAVOK 23/08 Q1016", "LELN 060900Z 26009KT 210V290 9999 FEW020 15/09 Q1017", "LELO 060900Z VRB03KT CAVOK 20/10 Q1015", "LEMD 060900Z 20002KT CAVOK 20/03 Q1016 NOSIG", "LEMG 060900Z 11005KT 030V140 CAVOK 21/15 Q1015 NOSIG", "LEMH 060900Z 11011KT 080V150 9999 FEW006 21/14 Q1016", "LEMI 060900Z 07006KT 040V120 CAVOK 22/12 Q1016", "LEMO 060930Z 24005KT 180V320 CAVOK 23/11 Q1016 NOSIG", "LEPA 060900Z 08008KT 050V120 CAVOK 23/13 Q1015 NOSIG", "LEPP 060900Z 03003KT 320V080 CAVOK 19/11 Q1015", "LERI 060900Z VRB02KT CAVOK 22/07 Q1015 NOSIG", "LERS 060900Z 13004KT 080V230 9999 FEW015 22/13 Q1016", "LERT 060900Z 25007KT 210V290 CAVOK 21/14 Q1016 NOSIG", "LESA 060900Z 29007KT 260V330 CAVOK 16/10 Q1017", "LESB 060900Z AUTO 10008KT CAVOK 23/11 Q1016", "LESO 060900Z 01003KT 330V050 CAVOK 18/14 Q1014", "LEST 060900Z 20007KT 170V230 9999 SCT005 SCT012 15/13 Q1016 TEMPO 3000 SHRA BKN010 SCT030TCU", "LESU 060900Z VRB01KT 9999 FEW050 19/06 Q1018", "LETL 060900Z AUTO 14010KT 100V170 CAVOK 21/04 Q1017", "LETO 060900Z VRB03KT CAVOK 20/05 Q1016 NOSIG", "LETU 060900Z AUTO 08008KT 9999 NCD 20/10 Q1015", "LEVC 060900Z 22003KT 100V270 9999 FEW025 22/13 Q1015 NOSIG", "LEVD 060900Z 28006KT 250V310 CAVOK 17/07 Q1017", "LEVS 060900Z VRB02KT CAVOK 20/04 Q1016", "LEVT 060900Z 27001KT CAVOK 16/11 Q1015", "LEVX 060900Z 19007KT 160V220 9000 BCFG SCT001 BKN015 15/14 Q1016 BECMG BKN025", "LEXJ 060900Z 29010KT 260V320 CAVOK 20/12 Q1015", "LEZG 060900Z 09006KT 060V140 CAVOK 22/12 Q1015", "LEZL 060900Z 15001KT CAVOK 25/10 Q1016 NOSIG", "LFAC 060900Z AUTO 18004KT 140V220 9999 FEW014 17/13 Q1015", "LFAQ 060900Z AUTO 19005KT 150V220 9999 FEW008/// BKN072/// BKN082/// ///TCU 16/14 Q1016 TEMPO 4000 SHRA", "LFAT 060900Z AUTO 23007KT 200V270 9999 FEW021 BKN029 BKN140 16/12 Q1016 TEMPO 4000 SHRA BKN020TCU", "LFBA 060900Z AUTO 10009KT 070V130 CAVOK 20/16 Q1014 NOSIG", "LFBC 060900Z AUTO 13009KT 100V170 CAVOK 23/15 Q1013", "LFBD 060900Z AUTO 12009KT CAVOK 22/14 Q1014 NOSIG", "LFBE 060900Z AUTO 06003KT 030V110 CAVOK 21/16 Q1014 NOSIG", "LFBF 060900Z AUTO 13004KT 080V180 CAVOK 21/13 Q1014", "LFBG 060900Z AUTO 11003KT 050V150 CAVOK 21/14 Q1014", "LFBH 060900Z AUTO 13006KT 100V170 CAVOK 21/14 Q1014 NOSIG", "LFBI 060900Z AUTO 09004KT 050V140 CAVOK 20/12 Q1015 NOSIG", "LFBL 060900Z AUTO 11005KT 070V130 CAVOK 19/11 Q1016 NOSIG", "LFBM 060900Z AUTO 11005KT 060V150 CAVOK 23/16 Q1013 NOSIG", "LFBO 060900Z AUTO 14010KT 9999 FEW008 21/14 Q1014 NOSIG", "LFBP 060900Z AUTO VRB03KT CAVOK 22/14 Q1013 NOSIG", "LFBT 060900Z AUTO 02003KT 320V050 CAVOK 23/14 Q1013 NOSIG", "LFBU 060900Z AUTO 10004KT 060V150 CAVOK 21/13 Q1015 NOSIG", "LFBX 060900Z AUTO VRB02KT CAVOK 21/14 Q1015", "LFBY 060900Z AUTO VRB01KT 9999 // ////// 21/15 Q1013", "LFBZ 060900Z AUTO 27011KT CAVOK 18/15 Q1014 NOSIG", "LFCK 060900Z AUTO 12011KT 080V150 CAVOK 24/11 Q1015 NOSIG", "LFCR 060900Z AUTO 13005KT 090V170 CAVOK 21/13 Q1016 NOSIG", "LFGA 060900Z AUTO 07004KT 360V120 9999 SCT018 BKN024 17/12 Q1018", "LFGJ 060900Z AUTO VRB03KT 9999 FEW015 SCT240 19/16 Q1017 NOSIG", "LFHP 060900Z AUTO VRB03KT CAVOK 17/12 Q1018", "LFJL 060900Z AUTO 16005KT 130V200 9999 NCD 17/12 Q1018 NOSIG", "LFJR 060900Z AUTO 15008KT CAVOK 17/12 Q1015", "LFKB 060900Z AUTO 09006KT 050V130 CAVOK 20/15 Q1017 NOSIG", "LFKC 060900Z AUTO 02007KT 340V050 CAVOK 21/12 Q1017 NOSIG", "LFKF 060900Z AUTO VRB03KT CAVOK 24/11 Q1017 NOSIG", "LFKJ 060900Z AUTO 23008KT CAVOK 21/13 Q1017 NOSIG", "LFKS 060900Z AUTO 09005KT 050V140 CAVOK 21/14 Q1017", "LFLB 060900Z AUTO 35005KT CAVOK 18/13 Q1017 NOSIG", "LFLC 060900Z AUTO 19006KT 150V220 CAVOK 19/13 Q1016 NOSIG", "LFLH 060900Z AUTO 08004KT 350V150 CAVOK 20/13 Q1017", "LFLL 060900Z 01003KT 310V050 9999 FEW012 BKN260 18/13 Q1017 NOSIG", "LFLN 060900Z AUTO 08005KT 050V140 9999 FEW018 19/15 Q1016 NOSIG", "LFLP 060900Z AUTO VRB03KT CAVOK 20/12 Q1017 NOSIG", "LFLS 060900Z AUTO 28004KT 200V340 CAVOK 19/12 Q1017 NOSIG", "LFLU 060900Z AUTO 01003KT 300V070 CAVOK 20/15 Q1017", "LFLV 060900Z AUTO VRB03KT CAVOK 18/13 Q1016", "LFLW 060900Z AUTO 15005KT 110V220 CAVOK 20/12 Q1017 NOSIG", "LFLX 060900Z AUTO 12008KT 090V150 CAVOK 19/14 Q1016 NOSIG", "LFLY 060900Z AUTO VRB02KT CAVOK 20/13 Q1017 NOSIG", "LFMC 060900Z AUTO VRB03KT 9999 ////// 22/10 Q1017", "LFMD 060900Z AUTO 14006KT 100V180 CAVOK 20/14 Q1017 NOSIG", "LFMH 060900Z AUTO VRB03KT CAVOK 20/13 Q1017", "LFMI 060900Z AUTO 24005KT 200V300 CAVOK 22/12 Q1017 NOSIG", "LFMK 060900Z AUTO 09013KT 060V130 CAVOK 19/13 Q1016 NOSIG", "LFML 060900Z AUTO 30005KT CAVOK 20/12 Q1017 NOSIG", "LFMN 060900Z 10011KT 9999 FEW016 19/15 Q1017 NOSIG", "LFMO 060900Z AUTO VRB02KT CAVOK 20/11 Q1017 NOSIG", "LFMP 060900Z AUTO VRB02KT 9999 OVC015 18/14 Q1017 NOSIG", "LFMT 060900Z AUTO VRB03KT CAVOK 18/14 Q1017 NOSIG", "LFMU 060900Z AUTO 17006KT 100V200 9999 BKN025 20/13 Q1017 NOSIG", "LFMV 060900Z AUTO 28003KT 200V340 CAVOK 21/10 Q1017 NOSIG", "LFMY 060900Z AUTO 24004KT 150V290 CAVOK 22/09 Q1017", "LFOA 060900Z AUTO 12005KT 080V170 CAVOK 19/14 Q1017", "LFOB 060900Z AUTO 21005KT 150V270 9999 FEW016 BKN024 BKN070 17/12 Q1016 TEMPO 4000 SHRA BKN020TCU", "LFOE 060900Z AUTO 18006KT 9999 FEW014 OVC042 16/12 Q1016 TEMPO 4500 -RA", "LFOH 060900Z AUTO 14006KT 9999 OVC046 14/12 Q1015 TEMPO 4000 SHRA BKN020TCU", "LFOJ 060900Z AUTO 16006KT CAVOK 18/13 Q1016 NOSIG", "LFOK 060900Z AUTO 18004KT 140V210 CAVOK 17/13 Q1017 NOSIG", "LFOP 060900Z AUTO 17006KT 130V200 9999 OVC042 15/12 Q1016 TEMPO 4000 SHRA BKN020TCU", "LFOT 060900Z AUTO 13006KT 090V150 CAVOK 18/14 Q1015 NOSIG", "LFOV 060900Z AUTO 18005KT 140V210 9999 -RA FEW035/// BKN050/// BKN066/// ///TCU 15/13 Q1015", "LFOZ 060900Z AUTO VRB03KT CAVOK 18/13 Q1017", "LFPB 060900Z AUTO 15005KT 110V180 9999 FEW025 BKN037 BKN074 18/13 Q1016 TEMPO SCT030TCU", "LFPG 060900Z 18006KT 120V210 9999 SCT018 BKN260 18/12 Q1017 NOSIG", "LFPM 060900Z AUTO 16003KT 130V210 9999 FEW016 BKN140 17/14 Q1017", "LFPN 060900Z AUTO 18006KT 140V210 9999 FEW012 OVC064 16/13 Q1017 NOSIG", "LFPO 060900Z AUTO 17006KT 9999 SCT012 SCT033 OVC068 16/13 Q1017 NOSIG", "LFPT 060900Z AUTO VRB04KT 9999 FEW024 SCT030 BKN070 18/13 Q1016", "LFPV 060900Z AUTO 15006KT 110V190 9999 FEW013 OVC064 16/13 Q1017 NOSIG", "LFQA 060900Z AUTO 09004KT 050V110 CAVOK 18/13 Q1017", "LFQB 060900Z AUTO 21005KT 170V250 CAVOK 19/13 Q1017", "LFQG 060900Z AUTO 13006KT 090V170 CAVOK 19/14 Q1017", "LFQQ 060900Z AUTO 18005KT 150V210 9999 FEW013 SCT068 16/13 Q1016 NOSIG", "LFRB 060900Z AUTO 21016KT 2300 -RA BR OVC004 14/14 Q1012 TEMPO RADZ BKN004 BKN020CB", "LFRC 060900Z AUTO 19011KT 9999 BKN010 BKN027 BKN032 14/13 Q1013 TEMPO 20015G25KT 4000 RA", "LFRD 060900Z AUTO 19013KT 9999 -RA BKN036/// BKN088/// ///TCU 15/13 Q1014 BECMG BKN020", "LFRG 060900Z AUTO 17007KT CAVOK 15/13 Q1015 TEMPO 4000 SHRA BKN008 BKN020CB", "LFRH 060900Z AUTO 16008KT 9999 SCT028/// BKN033/// OVC050/// //////TCU 14/13 Q1014 TEMPO 4500 RADZ BKN007CB BKN012 BECMG 22010KT", "LFRI 060900Z AUTO 19005KT 160V230 CAVOK 20/14 Q1015 TEMPO 4000 SHRA SCT045 BKN060CB", "LFRJ 060900Z AUTO 20015KT 9999 OVC006 14/14 Q1012", "LFRK 060900Z AUTO 16006KT 9999 -RA //////TCU 15/13 Q1015 TEMPO 4000 SHRA BKN010 BKN020CB", "LFRL 060900Z AUTO 21015KT 9999 OVC005 14/14 Q1012", "LFRM 060900Z AUTO 17004KT 140V210 9999 FEW008 BKN068 OVC100 18/13 Q1015 TEMPO 4000 SHRA BKN070CB", "LFRN 060900Z AUTO 18009KT 9999 -RA ///TCU 15/13 Q1015 BECMG BKN020", "LFRO 060900Z AUTO 19014KT 170V230 9999 OVC015 16/13 Q1012", "LFRQ 060900Z AUTO 20014KT 9999 OVC007 14/14 Q1013 TEMPO 3000 RA BKN008 BKN020CB", "LFRS 060900Z AUTO VRB03KT 9999 ///TCU 16/12 Q1015 TEMPO 4000 SHRA SCT045 BKN060CB", "LFRT 060900Z AUTO 20011G23KT 170V240 9999 BKN017 BKN023 OVC038 15/12 Q1013", "LFRU 060900Z AUTO 19008KT 160V230 9999 OVC010 15/13 Q1012", "LFRV 060900Z AUTO 17008KT 9999 OVC007 15/13 Q1014", "LFRZ 060900Z AUTO 11004KT 080V150 9000 NSC 16/15 Q1014 TEMPO 4000 SHRA SCT045 BKN060CB", "LFSB 060900Z AUTO 34004KT 280V040 9999 OVC018 17/14 Q1018 NOSIG", "LFSD 060900Z AUTO VRB02KT CAVOK 18/14 Q1017", "LFSG 060900Z AUTO VRB03KT CAVOK 16/11 Q1018", "LFSI 060900Z AUTO VRB02KT CAVOK 18/12 Q1017", "LFSL 060900Z AUTO 12006KT 080V160 CAVOK 21/12 Q1015 NOSIG", "LFSM 060900Z AUTO 03006KT 350V060 9999 SCT013 17/13 Q1018", "LFSN 060900Z AUTO VRB02KT 9999 FEW012 16/13 Q1018", "LFSO 060900Z AUTO VRB03KT 9999 BKN020 OVC150 17/11 Q1018", "LFST 060900Z AUTO 07003KT 350V160 9999 SCT020 BKN028 19/12 Q1018 NOSIG", "LFSX 060900Z AUTO VRB02KT CAVOK 18/12 Q1017", "LFTH 060900Z AUTO 17004KT 110V240 9999 FEW015 20/15 Q1017 NOSIG", "LFTW 060900Z AUTO 10005KT 010V140 CAVOK 21/11 Q1017 BECMG 20010KT", "LFVP 060900Z AUTO 02007KT CAVOK 02/M01 Q1008 TEMPO 3000 -SHRASN BKN015", "LFYR 060900Z AUTO 15007KT 100V200 CAVOK 20/13 Q1016", "LGAD 060920Z 31008KT 9999 FEW020 22/15 Q1014", "LGAL 060920Z 04014G26KT 9999 FEW025 18/09 Q1014", "LGAV 060920Z 36018G28KT 9999 FEW025 SCT040 21/08 Q1013 NOSIG", "LGBL 060920Z 02009KT 9999 FEW035 SCT070 23/11 Q1015", "LGEL 060920Z 35020G30KT 9999 SCT025 21/08 Q1013", "LGHI 060850Z 01015G25KT 9999 SCT025 19/14 Q1008", "LGIO 060920Z 30003KT 9999 FEW035 21/09 Q1015", "LGIR 060920Z 30018KT 9999 FEW016 BKN035 18/12 Q1012 NOSIG", "LGKF 060850Z 16004KT 140V240 9999 FEW040 19/14 Q1014", "LGKL 060920Z 33008KT 9999 FEW030 26/10 Q1013", "LGKO 060920Z 35010KT 9999 FEW018 19/12 Q1006", "LGKP 060920Z 30019KT 9999 BKN018 19/15 Q1008", "LGKR 060920Z 12006KT 9999 FEW025 23/15 Q1013 NOSIG", "LGKV 060920Z 07013G23KT 9999 FEW020 22/03 Q1014", "LGKZ 060850Z 05004KT 9999 FEW025 SCT070 18/05 Q1017", "LGLM 060920Z 03016KT 9999 SCT025 15/11 Q1014", "LGMK 060920Z 36023KT 9999 FEW012 SCT020 17/09 Q1010", "LGMT 060850Z 36015KT 9999 SCT025 19/13 Q1010", "LGNX 060850Z /////KT 9999 SCT020 17/10 Q1010", "LGPA 060850Z 36026G36KT 9999 FEW025 18/10 Q1009", "LGPZ 060920Z 28007KT 9999 FEW035 21/14 Q1014", "LGRP 060920Z 30005KT 9999 FEW018 20/16 Q1006 NOSIG", "LGRX 060920Z 36004KT 9999 FEW020 22/13 Q1014", "LGSA 060920Z 29012G22KT 9999 FEW020 BKN030 18/12 Q1012", "LGSK 060820Z 34011KT 9999 FEW025 20/13 Q1015", "LGSM 060850Z 01012KT 340V050 9999 FEW025 19/13 Q1007", "LGSO 060850Z 01028G38KT 9999 SCT018 18/11 Q1010", "LGSR 060920Z 34024KT 9999 FEW020 19/11 Q1009", "LGTS 060920Z 28008KT 9999 FEW025 22/12 Q1016 NOSIG", "LGZA 060850Z 03007KT CAVOK 22/13 Q1014", "LHBP 060900Z 21006KT 150V260 9999 FEW040 SCT059 21/11 Q1018 NOSIG", "LHDC 060845Z AUTO VRB03KT CAVOK 21/10 Q1019 NOSIG", "LHKE 060915Z VRB04KT 9999 BKN040 21/12 Q1018 NOSIG RMK BLU", "LHPA 060845Z 27004KT 9999 FEW033 SCT083 BKN200 21/12 Q1017 NOSIG RMK BLU", "LHPP 060845Z AUTO 16007KT 110V190 CAVOK 21/11 Q1018", "LHPR 060845Z AUTO 33006KT 280V010 CAVOK 19/13 Q1017 TEMPO SHRA", "LHSM 060845Z AUTO VRB02KT CAVOK 21/13 Q1017 NOSIG", "LHSN 060915Z VRB02KT 9999 SCT047 SCT200 22/11 Q1018 NOSIG RMK BLU", "LIBA 060855Z 30006KT CAVOK 23/11 Q1016 RMK SKC VIS MIN 9999 WIND THR11 27005KT WIND THR29 /////KT BLU", "LIBC 060850Z 03007KT 360V080 CAVOK 22/11 Q1016", "LIBD 060920Z 01005KT 310V050 CAVOK 20/11 Q1017", "LIBF 060850Z 32005KT 300V360 CAVOK 23/08 Q1016", "LIBG 060850Z 03007KT 350V060 CAVOK 24/09 Q1016", "LIBN 060855Z 36009KT CAVOK 22/13 Q1015 RMK SKC VIS MIN 9999 WIND THR14 01010KT WIND THR32 36010KT BLU", "LIBP 060920Z AUTO 07005KT 9999 NCD 23/11 Q1017", "LIBQ 060855Z 04005KT 9999 SCT004 12/04 Q1021", "LIBR 060920Z 33014KT CAVOK 18/11 Q1016", "LIBV 060855Z 01008KT CAVOK 18/07 Q1016 RMK FEW FEW200 VIS MIN 9999 WIND THR32 36008KT WIND THR14 35008KT BLU", "LIBY 060855Z ///13KT CAVOK 20/14 Q1014 RMK SKC QUK 3 QUL 1 N VIS MAR 20 KM VIS MIN 9999", "LICA 060920Z AUTO 25010KT 210V280 9999 SCT014/// 19/15 Q1018", "LICB 060850Z AUTO /////KT 9999 NCD 24/04 Q1017", "LICC 060920Z 06009KT 030V090 CAVOK 22/11 Q1017", "LICD 060920Z AUTO 14007KT 9999 NCD 20/16 Q1018", "LICF 060855Z 06009KT 9999 FEW030 21/15 Q1017 RMK FEW QUK 2 QUL 1 NE VIS MAR 20 KM MON LIB NC VIS MIN 9999", "LICG 060850Z 05004KT CAVOK 20/11 Q1018", "LICJ 060920Z 01007KT 330V040 CAVOK 19/15 Q1017", "LICR 060920Z AUTO 36013KT 9999 NCD 22/11 Q1018", "LICT 060855Z 30007KT CAVOK 22/14 Q1017 RMK SCT SCT200 VIS MIN 9999 WIND THR13 31006KT BLU", "LICZ 060855Z 07002KT CAVOK 21/04 Q1016 RMK SKC VIS MIN 9999 WIND THR28 04003KT WIND THR10 02002KT A3003 BLU", "LIEA 060920Z VRB03KT CAVOK 25/08 Q1017", "LIEB 060855Z 08007KT CAVOK 22/20 Q1017 RMK BKN BKN200 QUK 1 QUL 0 VIS MAR 16 KM MON LIB VIS MIN 9999", "LIED 060855Z 15005KT CAVOK 24/10 Q1017 RMK SCT SCT200 VIS MIN 9999 WIND THR35 /////KT WIND THR17 15005KT BLU", "LIEE 060920Z 18006KT CAVOK 22/10 Q1017", "LIEO 060920Z 05010KT 020V080 CAVOK 22/13 Q1017", "LIMA 060850Z 07004KT 360V120 CAVOK 20/10 Q1017", "LIMC 060920Z 21004KT 170V250 CAVOK 22/12 Q1017 NOSIG", "LIME 060920Z 17003KT 110V210 CAVOK 22/12 Q1017 NOSIG", "LIMF 060920Z 10005KT 030V130 CAVOK 21/13 Q1017", "LIMG 060850Z VRB02KT 8000 BKN020 17/13 Q1018", "LIMH 060855Z AUTO VRB03KT //// 00/M06 Q1025", "LIMJ 060920Z 19005KT 9999 FEW007 17/14 Q1018", "LIMK 060855Z 00000KT CAVOK 17/13 Q1016", "LIML 060920Z VRB02KT CAVOK 23/11 Q1016 NOSIG", "LIMP 060850Z 32004KT 270V010 CAVOK 21/13 Q1017", "LIMS 060855Z 32003KT CAVOK 20/16 Q1016 RMK SKC VIS MIN 9999 WIND THR30 34004KT BLU", "LIMU 060855Z 02004KT 9999 BKN015 18/14 Q1019 RMK BKN QUK 1 QUL 1 SE VIS MAR 20 KM VIS MIN 9999", "LIMV 060855Z /////KT CAVOK 17/08 Q1018 RMK FEW FEW200 MON LIB VAL NIL VIS MIN 9999", "LIMW 060920Z AUTO 09003KT 020V160 9999 NCD 21/10 Q1017", "LIMZ 060920Z AUTO 03003KT 300V090 9999 NCD 21/13 Q1017", "LIPA 060855Z 20004KT 9999 FEW070 20/16 Q1016 RMK SCT SCT200 VIS MIN 9999 WIND THR05 21003KT WIND THR23 23002KT A3002 BLU", "LIPB 060850Z 10004KT 040V160 9999 FEW040 21/13 Q1017", "LIPC 060855Z 04004KT CAVOK 20/13 Q1016 RMK BKN BKN170 VIS MIN 9999 WIND THR11 36003KT WIND THR29 03003KT BLU", "LIPE 060920Z VRB02KT CAVOK 23/14 Q1016", "LIPF 060855Z 00000KT CAVOK 23/15 Q1016 RMK SCT SCT200 VIS MIN 9999", "LIPH 060920Z VRB02KT CAVOK 22/14 Q1016", "LIPI 060855Z 17002KT CAVOK 20/14 Q1016 RMK SCT SCT140 VIS MIN 9999 WIND THR06 28002KT WIND THR24 19002KT BLU", "LIPK 060850Z VRB01KT CAVOK 22/12 Q1016", "LIPL 060855Z 23003KT CAVOK 20/14 Q1016 RMK SKC VIS MIN 9999 WIND THR31 29001KT WIND THR13 26002KT BLU", "LIPO 060920Z AUTO VRB03KT 9999 NCD 23/13 Q1016", "LIPQ 060920Z AUTO 23004KT 180V280 9999 FEW140/// 23/15 Q1016", "LIPR 060920Z 05005KT 010V080 CAVOK 19/12 Q1016", "LIPS 060855Z 00000KT 9000 NSC 21/16 Q1016 RMK SCT SCT200 VIS MIN 9000 WIND THR26 00000KT WIND THR08 00000KT BLU", "LIPU 060850Z VRB02KT 9000 NSC 22/13 Q1016", "LIPX 060920Z VRB02KT CAVOK 22/12 Q1016", "LIPY 060920Z AUTO 05007KT 9999 NCD 20/13 Q1016", "LIPZ 060920Z 18003KT 140V230 CAVOK 21/14 Q1016 NOSIG", "LIQC 060855Z 00000KT CAVOK 18/14 Q1018 RMK SKC QUK 1 QUL 0 VIS MAR 20 KM VIS MIN 9999", "LIQN 060850Z VRB02KT CAVOK 19/14 Q1018", "LIRA 060920Z 22005KT 150V270 CAVOK 21/15 Q1017", "LIRE 060855Z 20004KT 9999 FEW030 20/17 Q1017 RMK FEW VIS MIN 9999 WIND THR13 19004KT WIND THR31 /////KT BLU", "LIRF 060920Z 28005KT 240V340 CAVOK 22/16 Q1017 NOSIG", "LIRI 060850Z 26005KT 210V320 9999 FEW030 19/15 Q1018", "LIRK 060855Z AUTO /////KT //// 11/07 Q1020", "LIRM 060855Z 19003KT 7000 BKN030 20/13 Q1017 RMK BKN VIS MIN 7000 WIND THR06 18002KT WHT", "LIRN 060920Z 21005KT 160V270 9000 SCT030 20/15 Q1018 NOSIG", "LIRP 060915Z VRB03KT CAVOK 19/14 Q1018 NOSIG", "LIRQ 060920Z VRB02KT CAVOK 20/12 Q1017", "LIRS 060855Z 25002KT CAVOK 20/11 Q1017 RMK SCT SCT200 VIS MIN 9999 WIND THR03 27002KT WIND THR21 26002KT BLU", "LIRT 060855Z 00000KT 9999 FEW015 15/11 Q1019", "LIRU 060850Z VRB02KT CAVOK 22/15 Q1017", "LIRV 060855Z 28002KT CAVOK 21/11 Q1017 RMK SCT SCT200 MON E SE LIB NC VIS MIN 9999 WIND THR04/////KT BLU", "LIRX 060855Z 00000KT CAVOK 18/14 Q1016 RMK SCT SCT200 VIS MIN 9999 VIS MAR 20 KM", "LIRZ 060920Z AUTO VRB02KT 9999 NCD 21/11 Q1017", "LIVC 060855Z AUTO /////KT //// ///// Q////", "LIVD 060855Z AUTO VRB02KT //// 15/09 Q1020", "LIVE 060855Z 03006KT 9999 FEW022 12/06 Q1018 RMK BKN BKN060 VIS MIN 9999", "LIVF 060855Z 00000KT CAVOK 18/07 Q1016", "LIVM 060855Z AUTO /////KT //// ///// Q////", "LIVP 060855Z 02005KT 9999 3000S SCT/// 09/05 Q1021 RMK BKN MON CLD CIME VAL CLD SCT VIS MIN 3000S", "LIVR 060855Z 14007KT 9999 SCT030 09/02 Q1021 RMK SCT MON CLD SCT VIS MIN 9999", "LIVT 060855Z AUTO VRB03KT //// 19/14 Q1016", "LJCE 060900Z 09003KT 9999 FEW030 SCT190 20/12 Q1017 RMK BLU", "LJLJ 060900Z VRB02KT CAVOK 19/11 Q1017 NOSIG", "LJMB 060900Z 16004KT CAVOK 21/11 Q1017", "LJPZ 060900Z 28003KT CAVOK 19/13 Q1016", "LKCV 060900Z 30012KT 9999 SCT020 17/12 Q1016 NOSIG RMK BLU BLU", "LKKB 060900Z 30009KT 9999 SCT027 17/11 Q1016 NOSIG", "LKKV 060900Z 25004KT 200V310 9999 SCT020 13/10 Q1017", "LKLN 060900Z AUTO 24007KT 200V300 9999 FEW019 SCT076 17/12 Q1017", "LKMT 060900Z VRB01KT 7000 -RA FEW022 BKN041 12/09 Q1016 BECMG 22012KT", "LKNA 060900Z 25007KT 220V280 9999 FEW015 BKN020 OVC090 15/12 Q1017 NOSIG RMK WHT WHT", "LKPD 060900Z 26010KT 9999 SCT017 BKN050 16/12 Q1016 RMK BLACK", "LKPR 060900Z 28007KT 240V320 9999 FEW025 BKN048 16/11 Q1016 NOSIG", "LKTB 060900Z VRB02KT 9999 SCT006 SCT036 13/11 Q1017 NOSIG", "LLBG 060920Z 28011KT 240V310 9999 FEW035 24/14 Q1011 NOSIG", "LLER 060850Z 04004KT 9000 NSC 28/07 Q1011", "LLHA 060850Z 25009KT 9999 SCT030 23/14 Q1011", "LLIB 060850Z AUTO 24008KT 9999 FEW043 25/11 Q1011", "LMML 060915Z 22005KT 180V290 CAVOK 23/11 Q1018 NOSIG", "LOAN 060900Z VRB02KT 9999 SCT040", "LOAV 060900Z 17005KT 9999 BKN050 20/13", "LOWG 060920Z VRB03KT 9999 FEW050 20/11 Q1017 NOSIG", "LOWI 060920Z 28011KT 9999 -SHRA FEW025 BKN080 FEW080TCU 15/12 Q1019 TEMPO SHRA", "LOWK 060920Z AUTO VRB03KT 9999 FEW060 19/11 Q1018 NOSIG", "LOWL 060920Z AUTO 32007KT 290V350 9999 FEW018 BKN022 18/13 Q1018 NOSIG", "LOWS 060920Z AUTO 32003KT 250V040 9999 FEW026 BKN050 18/12 Q1018 NOSIG", "LOWW 060920Z 17007KT 9999 FEW042 18/13 Q1017 NOSIG", "LOXZ 060920Z VRB03KT 9999 FEW065 BKN230 18/08 Q1018 NOSIG", "LPAZ 060900Z 25010KT 9999 FEW006 BKN023 19/16 Q1024", "LPBJ 060900Z 31006KT 9999 FEW012 18/13 Q1018", "LPCS 060900Z 23005KT 170V270 9999 FEW007 SCT010 BKN024 19/16 Q1017", "LPFL 060900Z 20017G27KT 9999 SCT009 19/15 Q1016", "LPFR 060900Z 30010KT CAVOK 22/11 Q1017", "LPHR 060900Z 24011KT 9999 FEW005 SCT007 BKN010 18/16 Q1020", "LPLA 060900Z /////KT 9999 SCT014 19/16 Q1020", "LPMA 060900Z 01009KT 330V050 9999 FEW015 22/13 Q1023", "LPMR 060900Z 25006KT 210V310 6000 -SHRA SCT008 BKN013 BKN020 18/17 Q1017 RESHRA", "LPMT 060900Z 26006KT 220V280 9999 FEW015 BKN035 20/16 Q1017", "LPOV 060900Z 14005KT 9999 SCT016 SCT022 18/17 Q1017", "LPPD 060900Z 24007KT 9999 FEW005 BKN025 17/17 Q1023", "LPPR 060900Z 00000KT 9999 SCT009 SCT012 BKN035 17/16 Q1016", "LPPS 060900Z 36015KT 9999 FEW014 22/15 Q1023", "LPPT 060900Z 29005KT 260V330 9999 -SHRA FEW012 BKN015 20/16 Q1017", "LQBK 060900Z 01003KT 300V060 9999 FEW033 20/14 Q1017 NOSIG", "LQMO 060900Z VRB02KT 9999 FEW050 22/11 Q1014", "LQSA 060900Z VRB02KT CAVOK 19/08 Q1017 NOSIG", "LQTZ 060900Z 09010KT 050V110 9999 FEW050 22/07 Q1017", "LRAR 060900Z 19006KT 160V220 CAVOK 21/12 Q1018", "LRBC 060900Z 01007KT 340V080 9999 SCT045 19/04 Q1021", "LRBM 060900Z AUTO 16005KT 110V190 9999 NCD 21/10 Q1019", "LRBS 060900Z 05015KT 360V110 9999 FEW047 20/09 Q1020 NOSIG", "LRCK 060900Z 03018KT 9999 FEW031 19/11 Q1018 NOSIG", "LRCL 060900Z 17009KT 9999 FEW050 21/07 Q1019", "LRCV 060900Z 17007KT 9999 SCT047 20/09 Q1019", "LRIA 060900Z 08010KT 030V110 CAVOK 18/02 Q1022", "LROD 060900Z 22007KT 170V250 CAVOK 22/11 Q1018", "LROP 060900Z 07013KT 030V100 9999 FEW045 20/08 Q1020 NOSIG", "LRSB 060900Z 11009KT 080V140 CAVOK 19/06 Q1019", "LRSM 060900Z 20006KT CAVOK 22/10 Q1018", "LRSV 060900Z 08007KT 060V130 9999 SCT040 16/06 Q1022", "LRTC 060900Z 01017KT 9999 SCT045 20/06 Q1019", "LRTM 060900Z 13005KT 080V170 9999 SCT027 21/11 Q1019", "LRTR 060900Z 19008KT 150V220 CAVOK 20/12 Q1018", "LSGC 060920Z 23006KT 190V260 9999 FEW033 SCT039 15/09 Q1018", "LSGG 060920Z 05004KT 360V100 9999 FEW032 19/11 Q1017 NOSIG", "LSGS 060920Z VRB02KT 9999 FEW070 22/10 Q1017", "LSMA 060920Z AUTO 03003KT 360V060 9999NDV FEW057 SCT073 16/14 Q1018 RMK", "LSME 060920Z AUTO VRB01KT 9999NDV FEW070 18/16 Q1018 RMK", "LSMM 060920Z AUTO 27003KT 220V330 9999NDV NCD 18/13 Q1018 RMK", "LSMP 060920Z AUTO VRB02KT 9999NDV NCD 18/12 Q1018 RMK", "LSZA 060920Z 20003KT 160V250 9999 FEW058 21/13 Q1017", "LSZB 060920Z VRB01KT 9999 FEW019 SCT021 BKN065 20/15 Q1017", "LSZC 060920Z AUTO 08005KT 9999 NCD 17/14 Q1018 RERA", "LSZG 060920Z VRB02KT 9999 SCT026 19/13 Q1017", "LSZH 060920Z VRB02KT 9999 FEW025 SCT060 18/11 Q1018 NOSIG", "LSZL 060920Z AUTO 24003KT 9999NDV FEW100 19/13 Q1016 RMK", "LSZR 060920Z 30005KT 9999 SCT070 15/15 Q1018 RMK E", "LSZS 060920Z VRB02KT 9999 SCT075 13/04 Q1020 RMK I TL170", "LTAC 060920Z 09006KT 350V150 9999 SCT040 SCT100 21/04 Q1009 NOSIG", "LTAE 060850Z 15005KT 100V230 9999 SCT040 SCT100 21/04 Q1008 NOSIG RMK RWY21 21005KT 130V270", "LTAF 060920Z VRB05KT 9999 SCT035TCU 25/14 Q1008 NOSIG", "LTAG 060850Z 16008KT 9999 FEW035 SCT100 25/14 Q1008 NOSIG RMK 2CU035 3AC100", "LTAI 060920Z 30006KT 9999 -SHRA FEW015CB BKN025 16/15 Q1007 RETSRA NOSIG", "LTAJ 060920Z 10007KT 030V130 9999 FEW020CB SCT030 BKN080 23/05 Q1009 NOSIG", "LTAL 060850Z VRB05KT 9999 -SHRA FEW022CB BKN028 BKN090 10/04 Q1012", "LTAN 060850Z 17013KT 9999 SCT040 BKN100 19/05 Q1009 TEMPO FM1000 -TSRA", "LTAP 060920Z VRB02KT 9999 FEW040 BKN100 19/06 Q1009 NOSIG", "LTAR 060850Z 14022KT 9999 FEW025CB SCT035 BKN070 14/04 Q1015", "LTAS 060850Z 06004KT 360V130 8000 SCT010 BKN030 BKN080 13/12 Q1013 RESHRA", "LTAT 060920Z 06009KT 360V080 9999 SCT035 BKN090 19/09 Q1013 NOSIG", "LTAU 060920Z 16011G21KT 110V230 9999 SCT040 22/03 Q1009 NOSIG", "LTAW 060850Z 05010KT 9999 SCT040 BKN100 23/11 Q1009", "LTAY 060850Z 00000KT 9999 SCT030 BKN090 16/10 Q1009 NOSIG", "LTAZ 060920Z 13014KT 070V180 9999 FEW040 SCT180 24/01 Q1008", "LTBA 060920Z 02018KT 9999 SCT040 BKN100 17/09 Q1013", "LTBD 060850Z VRB02KT 8000 FEW035 22/13 Q1006", "LTBF 060850Z 02016KT 9999 FEW020 SCT035 BKN100 16/10 Q1012 NOSIG", "LTBH 060850Z 07016KT 9999 SCT030 BKN100 16/09 Q1014", "LTBJ 060920Z 35014KT 9999 SCT030 20/13 Q1008 NOSIG", "LTBO 060850Z 15006KT 120V180 9999 SCT035 17/09 Q1009", "LTBQ 060850Z 02006KT 9999 BKN020 BKN080 14/10 Q1013 RESHRA NOSIG", "LTBR 060920Z 34012KT 9999 SCT029 BKN090 15/11 Q1012 NOSIG", "LTBS 060920Z 22010KT 9999 FEW025TCU SCT030 BKN090 20/16 Q1007 NOSIG", "LTBU 060920Z 01013KT 9999 FEW030 BKN080 15/09 Q1014", "LTBY 060850Z 34014KT 9999 FEW013 SCT040 15/09 Q1009", "LTCA 060850Z 07010KT 050V110 9999 SCT035 BKN100 21/11 Q1013 NOSIG", "LTCB 060850Z 09008KT 9999 SCT030 BKN080 14/12 Q1012 NOSIG", "LTCC 060920Z 06007KT 020V110 9999 FEW040 BKN100 23/12 Q1012 NOSIG", "LTCD 060850Z VRB04KT 9999 SCT040 BKN100 17/09 Q1016 RESHRA TEMPO 12013KT -TSRA", "LTCE 060920Z 04005KT 360V080 9999 SCT035 BKN070 14/04 Q1019 RESHRA NOSIG", "LTCF 060850Z 25008KT 210V280 9999 FEW040 SCT080 18/M01 Q1019 NOSIG", "LTCG 060920Z 10011KT 9999 SCT013 BKN035 14/12 Q1014 RESHRA TEMPO TL1000 3500 BR BKN006", "LTCI 060850Z 30003KT 260V340 9999 SCT030 BKN180 13/06 Q1023 NOSIG", "LTCJ 060920Z 06006KT 340V130 CAVOK 27/08 Q1011 NOSIG", "LTCK 060850Z 11005KT 060V160 9999 FEW035 BKN180 16/04 Q1017", "LTCL 060850Z 23006KT 190V260 9999 FEW040 SCT100 22/11 Q1013", "LTCM 060850Z 06006KT 7000 SCT007 BKN033 13/12 Q1013 RESHRA", "LTCN 060850Z 03004KT 350V070 9999 -SHRA FEW025CB SCT035 BKN090 17/11 Q1011 RETSRA", "LTCO 060850Z 22010KT 9999 SCT040 BKN070 15/02 Q1020", "LTCP 060850Z 08012KT 9999 BKN030 BKN080 23/07 Q1011", "LTCR 060850Z 10015KT 9999 FEW040 SCT100 29/08 Q1010", "LTCS 060920Z 15020KT 9999 FEW040 BKN100 25/04 Q1011", "LTCT 060850Z VRB03KT 9999 SCT080 BKN180 23/01 Q1015", "LTCU 060850Z VRB02KT 9999 SCT035 BKN100 19/08 Q1015", "LTCV 060850Z VRB03KT CAVOK 25/10 Q1012", "LTCW 060850Z 19004KT 120V280 9999 FEW040 19/02 Q1019", "LTDA 060850Z 21020KT 9999 FEW035 SCT100 26/12 Q1008 NOSIG", "LTFB 060850Z 26009KT 9999 SCT035 20/14 Q1008", "LTFC 060920Z 24013KT 9999 FEW020CB BKN030 13/09 Q1009", "LTFD 060850Z 06022KT 030V090 9999 SCT035 SCT100 19/08 Q1011", "LTFE 060920Z 24010KT 9999 SCT035 23/15 Q1006 NOSIG", "LTFG 060850Z 15004KT 090V200 9999 FEW015CB BKN020 18/16 Q1009", "LTFH 060850Z 34006KT 300V030 9000 SCT008 BKN030 BKN100 16/12 Q1012 NOSIG", "LTFJ 060920Z 04014KT 9999 FEW015 SCT035 BKN120 14/11 Q1013 NOSIG", "LTFM 060920Z 02017KT 9999 SCT020 BKN120 15/11 Q1014 NOSIG", "LTFO 060850Z 22012KT 9999 SCT012 BKN028 16/13 Q1016", "LUKK 060930Z 04013KT 360V080 CAVOK 19/03 Q1021 NOSIG", "LWOH 060930Z 15007KT 9999 FEW050 14/10 Q1017", "LWSK 060930Z VRB01KT 9999 SCT050 19/08 Q1017 NOSIG", "LXGB 060920Z 20010KT 9999 FEW024 22/15 Q1015 NOSIG RMK BLU BLU", "LYBE 060900Z 18007KT 130V220 CAVOK 22/11 Q1018 NOSIG", "LYBT 060900Z 15005KT 110V210 CAVOK 22/12 Q1018 NOSIG", "LYKV 060900Z 15005KT 070V200 9999 FEW045 20/10 Q1018 NOSIG", "LYNI 060900Z VRB02KT 9999 FEW045 21/09 Q1018 NOSIG", "LYPG 060900Z 14003KT 060V230 9999 FEW040 23/09 Q1015 NOSIG", "LYTV 060900Z 22004KT 150V290 9999 FEW060 23/10 Q1016 NOSIG", "LYVR 060900Z AUTO 16008KT 130V200 CAVOK 22/11 Q1019", "LZIB 060900Z VRB02KT 9999 FEW030 15/12 Q1017 NOSIG", "LZKZ 060900Z 17006KT 140V220 CAVOK 19/11 Q1018 NOSIG", "LZPP 060900Z 22004KT CAVOK 15/11 Q1017", "LZTT 060900Z VRB05KT 9999 BKN050 18/07 Q1018 NOSIG", "LZZI 060900Z 26003KT 9999 BKN048 14/10 Q1017", "MDPC 060900Z 14008KT 9999 SCT016 27/22 Q1015", "MDPP 060900Z 00000KT 9999 SCT017 SCT300 24/24 Q1013", "MDSD 060900Z 01005KT 9999 SCT016 23/22 Q1015", "MDST 060900Z 11006KT 9999 FEW018CB SCT018 SCT300 24/23 Q1014 CB/N DSIPTG", "MGGT 060900Z 01010KT 8000 OVC012 18/16 Q1021 A3015 BR", "MGHT 060900Z 00000KT CAVOK 14/13 BKN200", "MGMM 060900Z 00000KT CAVOK 23/22 Q1014 A2994", "MGPB 060900Z 09006KT 9999 SCT016 BKN080 28/26 Q1011 A2985", "MHLM 060900Z VRB02KT 9999 BKN014 26/25 Q1012 A2989 NOSIG", "MHPR COR 060900Z 36012KT 7000 SCT048 23/21 Q1017 A3003 NOSIG", "MHTG 060900Z 00000KT 9999 FEW034 20/15 Q1019 A3009 NOSIG", "MKJP 060900Z 02005KT 9999 FEW022 27/23 Q1013", "MKJS 060900Z 14008KT 9999 FEW022 26/23 Q1013", "MMAA 060840Z 31003KT 4SM SCT015 BKN100 OVC300 27/24 A2982 RMK SLP093 57015 903 8/177 HZY", "MMAS 060841Z 21004KT 10SM FEW150 16/M06 A3024 RMK SLP/// 5//// 9// 8/030", "MMGL 060840Z 00000KT 8SM SKC 18/03 A3016 RMK SLP075 57011 952", "MMHO 060842Z 19003KT 10SM FEW200 16/05 A2996 RMK SLP146 57001 910 8/004 HZY", "MMMD 060841Z 14010KT 6SM SCT300 26/23 A2994 RMK SLP139 57006 911 8/008 HZY", "MMMM 060845Z 00000KT 7SM BKN300 13/07 A3024 RMK SLP087 57002 907 8/008 HZY", "MMMX 060845Z 23002KT 8SM SCT250 17/07 A3035 NOSIG RMK SLP078 57011 908 8/008 HZY", "MMMY 060842Z 00000KT 5SM SCT080 23/23 A2984 RMK SLP/// 5//// 9// 8/070", "MMMZ 060841Z 00000KT 10SM SCT090 SCT240 20/16 A2986 RMK SLP112 57007 953 8/032", "MMQT 060840Z 13003KT 5SM BKN020 BKN100 17/08 A3030 RMK 8/570", "MMTJ 060840Z 00000KT 6SM FEW020 13/11 A3010 RMK SLP211 54000 926 8/500 HZY", "MMTO 060840Z 00000KT 5SM SKC 09/08 A3042 RMK SLP121 57003 905 HZY", "MMUN 060840Z 00000KT 7SM SCT015 25/23 A2997 RMK SLP149 57013 917 8/100", "MMZC 060840Z 00000KT 10SM SCT100 15/M03 A3030 RMK 8/030", "MNMG 060900Z 06014KT 9999 FEW020 27/20 Q1010 A2984 NOSIG", "MPMG 060900Z AUTO 33006KT //// R01///// // BKN049/// BKN230/// 27/24 Q1008", "MPTO 060900Z 33003KT 9999 FEW020 27/23 Q1009 NOSIG", "MROC 060900Z 11011KT CAVOK 22/15 A2994 NOSIG", "MSLP 060850Z 08004KT 7000 FEW040 25/20 Q1009 A2980 NOSIG RMK HZ", "MTPP 060859Z AUTO 11013KT 9000 ////// ///// Q//// A//// NOSIG", "MUCC 060850Z 14004KT 9000 SCT020 25/23 Q1015", "MUCF 060859Z AUTO 05006KT 24/23 Q1016", "MUCL 060850Z AUTO 09006KT 060V120 28/24 Q1015", "MUCM 060850Z 02005KT 8000 NSC 24/23 Q1015", "MUCU 060850Z 34003KT 9000 FEW020 25/22 Q1014", "MUGM 060851Z 32004KT 10SM SCT250 26/23 A2995 RMK AO2 SLP143 T02560228 56006 $", "MUHA 060850Z 06002KT 9000 SKC 20/20 Q1016", "MUHG 060850Z 04005KT 8000 VCFG FEW024 24/24 Q1015", "MUSC 060850Z 00000KT 9000 FEW040 23/22 Q1016", "MUVR 060850Z 15004KT 8000 FEW030 21/20 Q1016", "MYCB 060900Z AUTO /////KT ///V/// //// R09///// // BKN046 ///// A////", "MYNN 060900Z 04003KT CAVOK 22/20 A3003", "MYSM 060900Z AUTO 09005KT 9999 SCT050/// 25/22 A3002", "NCAI 060900Z AUTO 13005KT //// ////// 27/25 Q1012", "NCAT 060900Z AUTO NIL", "NCMG 060900Z AUTO 06011KT //// ////// ///// Q////", "NCMH 060900Z AUTO NIL", "NCMK 060900Z AUTO 08006KT //// ////// 26/24 Q1011", "NCMR 060900Z AUTO 05005KT //// ////// ///// Q1012", "NCNS 060900Z AUTO NIL", "NCPK 060900Z AUTO NIL", "NCPL 060900Z AUTO NIL", "NCPY 060900Z AUTO NIL", "NCRG 060900Z AUTO 06009KT 9999 FEW010/// BKN015/// BKN026/// 26/25 Q1013", "NCRK 060900Z AUTO NIL", "NCSW 060900Z AUTO NIL", "NFFN 060900Z 12003KT 9999 -SHRA SCT018TCU BKN045 OVC110 24/23 Q1013 TEMPO 5000 TSRA FEW018CB", "NFNA 060900Z 00000KT 9999 -SHRA SCT018TCU BKN048 BKN110 26/25 Q1011", "NFTF 060900Z 10010KT 9999 FEW015TCU 25/23 Q1013", "NGFU 060900Z 11010KT 9999 SCT020 30/28 Q1008", "NGTA 060900Z 09007KT 9999 FEW020 29/25 Q1008", "NIUE 060900Z AUTO 10005KT NCD 24/23 Q1012", "NLWW 060900Z AUTO 10004KT 9999 NCD 28/25 Q1010 TEMPO 4000 SHRA BKN012 FEW016CB", "NSFA 060900Z 16003KT 9999 FEW029 SCT160 23/23 Q1011", "NSTU 060850Z VRB04KT 10SM FEW021 FEW040 26/25 A2986 RMK SLP112 8/800 T02570252 52017", "NTAA 060900Z AUTO 11004KT 9999 FEW052 27/23 Q1013 NOSIG", "NVSS 060900Z 28001KT 9999 FEW025 23/22 Q1009", "NVVV 060900Z VRB02KT 9999 FEW020 24/23 Q1010", "NWWW 060900Z AUTO 00000KT 9999 FEW025 22/20 Q1013 NOSIG", "NZAA 060900Z AUTO 08007KT 060V130 9999 FEW055/// SCT075/// 18/16 Q1026", "NZCH 060900Z AUTO 07003KT 9999 NCD 09/08 Q1022", "NZCM 060855Z AUTO 00000KT 9999 CLR M24/M29 A2931 RMK AO2 SLP931 T12361288 56005", "NZWN 060900Z AUTO 04008KT 9999 NCD 18/14 Q1026", "OBBI 060900Z 01010KT CAVOK 32/08 Q1010 NOSIG", "OEAB 060900Z 18012KT 9999 FEW020 27/08 Q1024 NOSIG", "OEAH 060900Z 33008KT CAVOK 37/M09 Q1010 NOSIG", "OEAO 060900Z 22008KT CAVOK 35/M08 Q1012 NOSIG", "OEBA 060900Z 13005KT 9999 FEW030 31/03 Q1019 NOSIG", "OEBH 060900Z 18008KT CAVOK 35/15 Q1014 NOSIG", "OEDF 060900Z 02009KT 340V090 CAVOK 36/M07 Q1009 NOSIG", "OEDM 060900Z 21018KT CAVOK 35/01 Q1013", "OEDR 060900Z 01011KT CAVOK 35/M03 Q1009", "OEGN 060900Z 26010KT 9000 NSC 38/19 Q1007 NOSIG", "OEGS 060900Z 19007KT CAVOK 35/12 Q1010", "OEGT 060900Z 29012KT 9000 NSC 26/03 Q1011 NOSIG", "OEHL 060900Z 23006KT CAVOK 34/04 Q1014", "OEJN 060900Z 29007KT 9999 FEW040 39/01 Q1008 NOSIG", "OEKJ 060900Z 19005KT CAVOK 36/M01 Q1015", "OEKM 060900Z 23010KT CAVOK 28/05 Q1023 NOSIG", "OEMA 060900Z 18004KT CAVOK 36/M02 Q1014 NOSIG", "OEMN 060900Z 09002KT CAVOK 38/11 Q1011", "OENG 060900Z 15006KT 9999 FEW030 34/05 Q1017 NOSIG", "OEPA 060900Z 09004KT CAVOK 35/11 Q1011 NOSIG", "OEPS 060855Z 17006KT 9999 CLR 35/01 A2997 RMK AO2A SLP129 WND DATA ESTMD T03520007 57009", "OERF 060900Z 14009KT CAVOK 34/M10 Q1011 NOSIG", "OERK 060900Z 17006KT CAVOK 35/03 Q1014 NOSIG", "OERR 060900Z 17020KT CAVOK 34/M07 Q1009 NOSIG", "OESH 060900Z 10008KT CAVOK 38/06 Q1013 NOSIG", "OESK 060900Z 27018KT CAVOK 35/00 Q1013 NOSIG", "OETB 060900Z 23018KT 8000 NSC 32/M08 Q1011 NOSIG", "OETF 060900Z 04004KT CAVOK 31/01 Q1020 NOSIG", "OETR 060900Z 34012KT 7000 NSC 28/M04 Q1011 NOSIG", "OEWD 060900Z 14014KT CAVOK 37/M05 Q1012", "OEWJ 060900Z 30017KT CAVOK 29/13 Q1010 NOSIG", "OEYN 060900Z 23012KT CAVOK 34/17 Q1007 NOSIG", "OIAA 060900Z 28004KT CAVOK 35/M04 Q1010", "OIAG 060900Z 29012KT CAVOK 37/M02 Q1009", "OIAH 060900Z 26006KT CAVOK 34/M03 Q1013", "OIAM 060900Z 24010KT CAVOK 35/03 Q1008", "OIAW 060900Z 23004KT CAVOK 38/M04 Q1008", "OIBA 060900Z 28006KT CAVOK 29/22 Q1008", "OIBB 060900Z 28008KT CAVOK 27/17 Q1009 A2981 NOSIG", "OIBH 060900Z 24010KT CAVOK 29/15 Q1009 A2981", "OIBJ 060900Z AUTO 21007KT //// // ////// 31/05 Q////", "OIBK 060900Z 16006KT 6000 NSC 30/17 Q1010 OSIG", "OIBL 060900Z 18010KT 5000 HZ NSC 30/23 Q1009", "OIBP 060900Z 18008KT CAVOK 35/18 Q1008 A2979", "OIBQ 060900Z 31008KT CAVOK 29/14 Q1009", "OIBS 060900Z 13004KT 4500 HZ NSC 29/22 Q1009", "OIBV 060900Z 18012KT 8000 NSC 29/22 Q1009", "OICC 060900Z 14006KT CAVOK 25/M03 Q1017 A3005", "OICI 060900Z 16004KT CAVOK 28/M03 Q1018 A3008", "OICK 060900Z 26006KT CAVOK 27/00 Q1016", "OICS 060900Z 18006KT CAVOK 24/M00 Q1017 A3005", "OIFM 060900Z 00000KT CAVOK 25/M11 Q1020 A3012", "OIFS 060900Z 05004KT CAVOK 23/M11 Q1022", "OIGG 060900Z 35004KT 9999 SCT020 22/15 Q1015", "OIHH 060900Z 04004KT CAVOK 23/M07 Q1019 A3010", "OIHR 060900Z 34010KT CAVOK 23/M05 Q1019", "OIIE 060900Z 20004KT CAVOK 26/M07 Q1016", "OIII 060900Z 19008KT 9999 FEW035 23/M07 Q1017 A3004 NOSIG", "OIIK 060900Z 20006KT CAVOK 24/01 Q1016", "OIIP 060900Z 27006KT CAVOK 25/M04 Q1016 A3001", "OIKB 060900Z 22008KT 7000 NSC 36/17 Q1008 A2978 NOSIG", "OIKK 060900Z 29008KT CAVOK 27/M06 Q1018 A3007", "OIKQ 060900Z 20010KT 7000 NSC 33/26 Q1009 NOSIG", "OIMB 060900Z 28008KT CAVOK 24/M12 Q1018 A3008", "OIMJ 060900Z 00000KT 9999 FEW035 22/M04 Q1017", "OIMM 060900Z 07008KT 8000 FEW030 19/09 Q1017 A3004", "OIMN 060900Z 28012KT 9999 FEW040 19/02 Q1017", "OIMS 060900Z 24014KT 9999 FEW035 23/M04 Q1018", "OIMT 060900Z AUTO 35002KT //// // ////// 29/M04 Q1015", "OINE 060900Z 21006KT 9999 FEW035 26/05 Q1013", "OING 060900Z 09008KT CAVOK 27/08 Q1015 NOSIG", "OINN 060900Z 35006KT 9999 FEW020 20/17 Q1014", "OINR 060900Z 05006KT 9999 FEW025 19/16 Q1014", "OINZ 060900Z 07006KT CAVOK 26/11 Q1014", "OISF 060900Z 13010KT CAVOK 30/M16 Q1017 A3004", "OISL 060900Z 06010KT CAVOK 34/04 Q1011 A2988 NOSIG", "OISR 060900Z 14004KT CAVOK 35/09 Q1011 A2988 NOSIG", "OISS 060900Z 14004KT CAVOK 29/M07 Q1017 A3005", "OISY 060900Z 32008KT CAVOK 26/M12 Q1022", "OITL 060900Z VRB08KT 9999 FEW035 23/01 Q1016 NOSIG", "OITM 060900Z 20002KT 9999 FEW035 25/01 Q1017", "OITP 060900Z 09008KT 9999 SCT040 20/20 Q1013", "OITR 060900Z 14006KT 9999 FEW035 BKN160 23/04 Q1016 A3001", "OITT 060900Z 24006KT 9999 FEW027 BKN200 24/M02 Q1017 A3006", "OITZ 060900Z 33004KT 9999 FEW035 23/M02 Q1018 A3006", "OIYY 060900Z 12002KT CAVOK 27/M11 Q1018 NOSIG", "OIZB 060900Z 35010KT CAVOK 31/M00 Q1015", "OIZC 060900Z 20010KT 6000 NSC 34/23 Q1008 A2977", "OIZH 060900Z 34006KT CAVOK 27/M01 Q1018 A3008 NOSIG", "OIZI 060900Z 28008KT CAVOK 36/03 Q1011", "OIZJ 060900Z 27006KT 8000 NSC 30/26 Q1008", "OJAI 060900Z 26018KT 4000 BLDU NSC 22/07 Q1013 NOSIG", "OJAM 060900Z 28012KT 5000 HZ FEW035 21/05 Q1013 NOSIG", "OJAQ 060900Z 01004KT 5000 HZ NSC 29/11 Q1010 NOSIG", "OKAS 060855Z 29004KT 9999 CLR 34/M07 A2984 RMK AO2A SLP100 T03411066 58007 FZRANO $", "OKKK 060900Z 35004KT CAVOK 36/M02 Q1010 NOSIG", "OLBA 060900Z 21013KT 8000 SCT026 22/16 Q1013 NOSIG", "OMAA 060900Z 29007KT 260V330 CAVOK 33/16 Q1008 NOSIG", "OMAD 060900Z 34008KT 300V020 CAVOK 31/19 Q1009 NOSIG", "OMAL 060900Z 25006KT 190V340 CAVOK 36/12 Q1010 NOSIG", "OMDB 060900Z 32011KT 290V350 CAVOK 32/22 Q1009 NOSIG", "OMDW 060900Z 31009KT 270V350 CAVOK 34/20 Q1009 NOSIG", "OMFJ 060900Z 07009KT 030V110 7000 FEW030 31/22 Q1009 A2981", "OMRK 060900Z 32008KT 8000 NSC 34/22 Q1009 A2980", "OMSJ 060900Z 32012KT CAVOK 33/21 Q1009 NOSIG", "OOAD 060850Z AUTO 10008KT 070V150 9999 // NCD 35/08 Q1011 NOSIG", "OODQ 060850Z AUTO 10009KT 070V130 9999 FEW048 30/23 Q1010 NOSIG RMK RH68? 0", "OOKB 060850Z 03011KT CAVOK 31/24 Q1009 NOSIG", "OOMS 060850Z 01008KT 340V050 9000 FEW020 30/25 Q1009 NOSIG", "OOSA 060850Z 11015KT 9999 FEW025 31/26 Q1008 WS ALL RWY NOSIG", "OOSH 060850Z AUTO 04010KT //// ////// 33/20 Q1008 RMK 1005", "OPIS 060900Z 31016KT 7000 FEW040 31/17 Q1007 TEMPO 31015G25KT", "OPKC 060930Z 23012KT 6000 NSC 35/21 Q1007 NOSIG", "OPLA 060925Z 23008KT 7000 FEW100 35/18 Q1006 NOSIG RMK QFE980 A29.71", "OPMT 060930Z 23012KT 5000 HZ NSC 34/19 Q1005 NOSIG", "OPNH 060900Z 23004KT 6000 NSC 41/20 Q1005", "OPPS 060900Z 36010KT 9999 FEW030TCU SCT040 BKN080 25/12 Q1009", "OPSK 060900Z 23008KT 5000 HZ NSC 38/18 Q1005 NOSIG", "OPST 060900Z 00000KT 5000 HZ SCT040 33/14 Q1007 NOSIG 33%", "ORBI 060900Z 30005KT 250V010 CAVOK 34/02 Q1009 NOSIG", "ORER 060900Z VRB03KT CAVOK 31/02 Q1013", "ORMM 060900Z 25006KT CAVOK 35/M05 Q1010 NOSIG", "ORNI 060900Z 00000KT 8000 NSC 33/M01 Q1010", "ORSU 060900Z 13010KT CAVOK 27/07 Q1015", "OSAP 060900Z 28008KT 9999 SCT030 BKN100 24/08 Q1010", "OSDI 060900Z 24011KT CAVOK 25/01 Q1011", "OSKL 060900Z 06010KT 9999 FEW026 SCT100 29/02 Q1010", "OSLK 060900Z 21010G20KT 9999 FEW026 23/15 Q1010", "OTBD 060900Z 02013KT CAVOK 33/07 Q1009 NOSIG", "OTBH 060855Z 01014KT 9999 CLR 37/M05 A2979 Q1008 RMK AO2A SLP089 T03661048 FZRANO $", "OTHH 060900Z 04009KT CAVOK 31/15 Q1009 NOSIG", "PAAD 060915Z AUTO 10005KT 1/4SM OVC003 M07/M08 A3004 RMK AO2 T10731080 PWINO", "PAAK 060856Z AUTO 14010G16KT 10SM BKN025 OVC030 04/00 A3022 RMK AO2 SLP233 T00440000 50001", "PAAQ 060853Z AUTO 00000KT 10SM SCT080 SCT120 06/00 A2982 RMK AO2 SLP100 T00560000 401280022 51002 TSNO", "PABA 060855Z AUTO 08008KT 10SM BKN006 M12/M13 A3006 RMK AO2 FZRANO PNO $", "PABE 060853Z 32015G23KT 10SM FEW010 BKN037 OVC048 M02/M03 A3000 RMK AO2 PK WND 31027/0807 UPE26SNB09E17 SLP159 P0000 60000 T10171033 400221017 51009", "PABI 060853Z AUTO 24009KT 10SM CLR 04/M05 A2976 RMK AO2 SLP092 T00391050 401171017 58005 TSNO", "PABL 060856Z AUTO 31013KT 7SM -SN OVC006 M05/M06 A3003 RMK AO2 SNB28 CIG 004V008 SLP170 P0000 60000 T10501056 51006 FZRANO", "PABR 060853Z AUTO 13009KT 10SM OVC004 M07/M08 A3007 RMK AO2 SLP183 T10671078 410171089 53004 TSNO", "PABT 060853Z 02006KT 10SM FEW050 BKN080 03/M05 A2990 RMK SLP136 T00331050 400891028 58003", "PABV 060856Z AUTO 13005KT 10SM OVC070 04/00 A2984 RMK AO2 SLP112 T00440000 401110000 51002", "PACD 060853Z 33011KT 10SM OVC029 00/M04 A3011 RMK AO2 SLP198 60001 T00001039 400171006 51009 $", "PACM 060856Z AUTO 29009KT OVC019 M03/M06 A3011 RMK AO2 SLP192 T10281056 400111033 51007 PWINO FZRANO $", "PACV 060853Z 00000KT 10SM CLR 02/01 A2988 RMK AO2 SLP117 T00170006 401061033 52006", "PACZ 060855Z AUTO 30006KT 10SM OVC013 M05/M07 A3005 RMK AO2 SLP186 T10461070 410401054 52006", "PADK 060856Z AUTO 17013KT OVC017 04/02 A3011 RMK AO2 SLP196 T00390022 58008 PWINO $", "PADL 060856Z AUTO 00000KT 10SM FEW026 OVC048 01/01 A2991 RMK AO2 SLP133 T00110006 400560011 51004 FZRANO", "PADM 060856Z AUTO 27011KT 9SM -SN FEW011 OVC022 M02/M04 A3004 RMK AO2 SLP178 P0000 60000 T10221039 51008 FZRANO", "PADQ 060853Z AUTO 26003KT 10SM BKN021 OVC055 04/03 A2987 RMK AO2 SLP116 T00390028 400610039 51004 TSNO", "PADU 060856Z AUTO 32008KT 10SM OVC038 02/M06 A3021 RMK AO2 SLP235 60000 T00221056 51014 FZRANO", "PAED 060855Z 00000KT 10SM SCT060 BKN100 05/M00 A2982 RMK AO2A SLP095 T00541002 401110004 53002", "PAEG 060853Z AUTO 00000KT 10SM CLR M01/M06 A2977 RMK AO2 SLP086 T10061061 401501050 55001 TSNO", "PAEH 060855Z AUTO 35023G30KT 300V080 10SM OVC011 M02/M02 A3002 RMK AO2 PK WND 31030/0851 SLP175 T10161019 410041019 52008", "PAEI 060855Z AUTO 13003KT 10SM BKN130 05/M04 A2972 RMK AO2 SLP070 T00451040 401261036 58002 $", "PAEN 060853Z AUTO 11004KT 10SM BKN065 OVC080 05/M01 A2985 RMK AO2 SLP110 T00501011 401000000 53002 TSNO", "PAFA 060853Z 00000KT 10SM SCT090 BKN140 08/M03 A2975 RMK AO2 SLP078 T00781028 401391017 58008", "PAFB 060855Z AUTO 07006KT 10SM M 05/M02 A2974", "PAFE 060856Z AUTO 07005KT 10SM BKN090 04/03 A2993 RMK AO2 SLP147 T00390028 401000028 53013 $", "PAFM 060925Z AUTO 01009KT 10SM BKN011 BKN021 OVC043 00/M02 A3000 RMK AO2 FZRANO", "PAFR 060855Z AUTO 00000KT 10SM OVC060 01/M02 A2983 RMK AO2 SLP109 T00101016 401031026 52004 $", "PAFS 060901Z AUTO 30004KT 10SM OVC080 03/M02 A2983 RMK AO2 SLP110 T00331022 400330033 51002", "PAGK 060853Z AUTO 00000KT 10SM CLR M01/M04 A2979 RMK AO2 SLP109 T10061044 400891067 52004 TSNO", "PAGL 060856Z AUTO 00000KT 10SM OVC075 M01/M03 A3001 RMK AO2 SLP159 T10111033 51008 FZRANO", "PAGN 060856Z AUTO 00000KT 10SM CLR 04/03 A2992 RMK AO2 SLP120 T00390033 400830011 53011", "PAGS 060856Z AUTO 13004KT 10SM BKN055 04/03 A2991 RMK AO2 SLP126 T00440028 400891022 53010", "PAGY 060853Z AUTO 00000KT 10SM OVC065 08/02 A2984 RMK AO2 SLP104 T00830017 401390000 51009 TSNO", "PAHC 060856Z AUTO 33005KT 10SM OVC060 04/M02 A2992 RMK AO2 SLP136 T00391017 53007", "PAHL 060856Z AUTO 30003KT 10SM FEW090 SCT110 02/M01 A2990 RMK AO2 SLP130 T00221006 400781006 58002 FZRANO", "PAHN 060854Z AUTO 12005KT BKN049 OVC060 07/03 A2986 RMK AO2 SLP113 T00720028 401280028 53008 TSNO", "PAHO 060852Z AUTO 00000KT 10SM FEW009 BKN012 OVC070 04/02 A2987 RMK AO2 SLP117 T00440017 400890039 51007 TSNO", "PAHY 060856Z AUTO 00000KT 10SM OVC022 07/05 A2994 RMK AO2 SLP135 T00670050 401220044 51012 $", "PAIG 060856Z AUTO 00000KT 10SM OVC080 01/M01 A2989 RMK AO2 SLP130 T00061006 51005 FZRANO $", "PAIK 060856Z AUTO 00000KT 10SM CLR M02/M04 A3003 RMK AO2 SLP170 T10171039 400441022 51007 FZRANO", "PAIL 060853Z AUTO 31003KT 10SM BKN060 OVC100 02/01 A2989 RMK AO2 SLP124 T00220006 400610017 53001 TSNO", "PAIM 060855Z AUTO VRB03KT 10SM BKN070 05/M05 A2985 RMK AO2 SLP118 T00541054 400791011 57003", "PAIN 060856Z AUTO 00000KT 10SM FEW100 01/M05 A2978 RMK AO2 SLP103 T00111050 58001 FZRANO", "PAIW 060856Z AUTO 12004KT 10SM OVC023 M04/M06 A3007 RMK AO2 SLP185 T10391061 410281106 50005 FZRANO", "PAJC 060857Z AUTO 24018KT 10SM CLR 02/M03 A3001 RMK AO2 SLP162 6//// T00171033 51012 FZRANO PNO $", "PAJN 060853Z 08004KT 10SM OVC050 07/02 A2988 RMK AO2 SLP120 T00670022 401001006 53009", "PAJZ 060914Z AUTO 00000KT 9SM SCT020 OVC060 02/01 A2994 RMK AO2 FZRANO $", "PAKH 060856Z AUTO 10SM -RA OVC006 04/04 A2988 RMK AO2 RAB35 CIG 004V008 SLP119 6//// T00440039 53009 TSNO PNO $", "PAKI 060856Z AUTO 10SM OVC021 M02/M06 A3008 RMK AO2 SLP190 T10221056 400001022 51009 FZRANO $", "PAKN 060907Z 24006KT 10SM -RA FEW005 BKN020 OVC028 03/02 A2988 RMK AO2 P0000 T00280017", "PAKP 060856Z AUTO 00000KT 10SM CLR M03/M08 A2991 RMK AO2 SLP174 T10331078 400331128 55000 FZRANO", "PAKT 060853Z AUTO 15004KT 10SM OVC019 08/06 A2993 RMK AO2 SLP134 T00830061 401060078 53007 TSNO", "PAKV 060853Z AUTO 24006KT 10SM BKN036 BKN065 OVC080 01/00 A2993 RMK AO2 SLP140 60000 T00110000 400671011 51003 TSNO", "PAKW 060853Z AUTO 00000KT 10SM BKN042 BKN050 OVC095 07/04 A2991 RMK AO2 SLP130 T00720039 401500028 52010 TSNO", "PALG 060856Z AUTO 26003KT 10SM OVC075 02/M01 A2992 RMK AO2 SLP135 T00171011 51004 FZRANO", "PALH 060853Z AUTO 00000KT 10SM BKN050 BKN110 05/M01 A2984 RMK AO2 SLP105 T00501011 400941006 53001 TSNO", "PALU 060855Z AUTO 11006KT 10SM CLR M07/M08 A3006 RMK AO2 SLP179 T10691085 52004", "PAMB 060856Z AUTO 00000KT 10SM OVC046 01/00 A2992 RMK AO2 SLP134 T00060000 400560000 51005 FZRANO $", "PAMC 060853Z AUTO 00000KT 10SM BKN075 OVC090 03/00 A2986 RMK AO2 SLP118 T00330000 401000000 50002 TSNO", "PAMD 060851Z AUTO 17004KT 10SM OVC065 04/01 A2989 RMK AO2 SLP109 T00440011 400780033 53004 $", "PAMH 060856Z AUTO 00000KT 10SM CLR 04/M06 A2980 RMK AO2 SLP092 T00441061 58004", "PAMK 060856Z AUTO 28010KT 10SM OVC007 M03/M04 A3003 RMK AO2 SLP171 T10331044 400171033 51007 FZRANO", "PAMM 060856Z AUTO 00000KT 10SM BKN016 08/06 A2994 RMK AO2 SLP232 T00780061 53013 $", "PAMO 060856Z AUTO 33014KT 10SM OVC013 M04/M06 A3004 RMK AO2 SLP179 T10391061 51005 FZRANO", "PAMR 060853Z 00000KT 10SM FEW080 BKN120 05/M01 A2983 RMK AO2 SLP103 T00501011 401110000 53002", "PAMY 060908Z AUTO 26006KT 10SM OVC013 M03/M04 A2959 RMK AO2 FZRANO", "PANA 060903Z AUTO 32013G21KT 9SM -SN SCT011 BKN045 OVC060 M02/M03 A3000 RMK AO2 P0000 FZRANO TSNO $", "PANC 060853Z 18003KT 10SM SCT046 OVC110 03/M01 A2983 RMK AO2 SLP103 T00331011 400941006 53001 $", "PANI 060856Z AUTO 34003KT 10SM SCT038 BKN046 02/M01 A2996 RMK AO2 SLP139 T00221006 51005 FZRANO $", "PANV 060856Z AUTO 31006KT 10SM OVC075 01/M03 A2991 RMK AO2 RAB07E17 SLP220 P0000 60000 T00111028 51008 FZRANO TSNO", "PANW 060856Z AUTO 00000KT 10SM OVC060 02/01 A2990 RMK AO2 SLP133 T00220006 400670011 51004 FZRANO", "PAOH 060856Z AUTO 00000KT 10SM CLR 02/01 A2989 RMK AO2 SLP122 T00220011 401061022 53010 FZRANO", "PAOM 060853Z AUTO 33007KT 10SM BKN018 M06/M07 A3001 RMK AO2 SLP162 T10611072 410221067 51003 TSNO", "PAOO 060856Z AUTO OVC019 M03/M06 A3011 RMK AO2 SLP201 T10281056 410061028 51010 PWINO FZRANO TSNO $", "PAOR 060853Z 23003KT 10SM FEW100 SCT180 M01/M06 A2973 RMK AO2 SLP087 T10111061 401061061 55002", "PAOT 060853Z AUTO 31006KT 10SM BKN075 M07/M08 A3001 RMK AO2 SLP163 T10721078 400061072 51007 TSNO", "PAOU 060911Z AUTO 32015KT 10SM OVC028 M01/M04 A3010 RMK AO2 FZRANO PNO $", "PAPB 060853Z AUTO 08004KT 10SM CLR 00/M08 A3020 RMK AO2 SLP216 T00001078 400781011 51007 TSNO $", "PAPG 060856Z AUTO 00000KT 10SM CLR 06/05 A2992 RMK AO2 SLP133 T00560050 400720028 53009", "PAPH 060856Z AUTO 29013KT 10SM OVC010 01/M01 A3002 RMK AO2 SLP167 60000 T00061011 51014 FZRANO", "PAPM 060856Z AUTO 33019KT 10SM OVC012 M01/M02 A3001 RMK AO2 PK WND 33026/0830 SLP165 T10061022 400281006 51010 FZRANO", "PAPN 060856Z AUTO 24010KT 8SM OVC008 02/00 A2996 RMK AO2 SLP146 T00170000 51007 FZRANO", "PAPO 060903Z AUTO 11004KT 1/2SM FZFG CLR M12/M13 A3007 RMK AO2 FZRANO", "PAQT 060924Z AUTO 08011KT 1 3/4SM UP BR OVC003 M08/M09 A3006 RMK AO2 VIS 3/4V5 UPB12 P0000 I1000 T10781089", "PARC 060856Z AUTO 34007KT 10SM CLR M04/M09 A2993 RMK AO2 SLP184 T10391094 400221117 58009 FZRANO", "PARY 060856Z AUTO 25003KT 10SM FEW100 03/M02 A2985 RMK AO2 SLP121 T00331017 56002", "PASC 060900Z 09009KT 1/2SM R06/1800VP6000FT FZFG VV002 M07/M07 A3004 RMK AO2 T10671072", "PASI 060853Z 00000KT 10SM SCT250 06/02 A2990 RMK AO2 SLP125 T00610022 401060033 53009", "PASK 060856Z AUTO 24004KT 10SM CLR M05/M07 A3001 RMK AO2 SLP160 T10501067 400221061 53003 FZRANO", "PASL 060856Z AUTO 00000KT 10SM CLR M01/M01 A2992 RMK AO2 SLP124 T10061006 400781006 51003 FZRANO", "PASM 060856Z AUTO 35012KT 9SM -SN OVC012 M04/M06 A3004 RMK AO2 SLP184 P0000 60000 T10391056 51007 FZRANO", "PASN 060853Z AUTO 26003KT 10SM CLR M04/M08 A3020 RMK AO2 SLP227 T10441078 400221044 51005 TSNO", "PASO 060853Z AUTO 00000KT 10SM BKN070 BKN080 OVC120 02/01 A2987 RMK AO2 SLP116 T00170011 400890017 51005 TSNO", "PASV 060855Z AUTO 00000KT 10SM -DZ OVC045 01/M01 A2984 RMK AO2 DZB0848 SLP121 P0000 60000 T00101006 400460007 52002", "PASX 060856Z AUTO 00000KT 10SM CLR 05/M01 A2987 RMK AO2 SLP122 T00501006 401061006 51004", "PASY 060924Z 13028G32KT 5SM -RA BR OVC006 04/04 A2956 RMK AO2A SLP014 PNO FZRANO $", "PATA 060852Z AUTO 32004KT 10SM BKN110 01/M03 A2981 RMK AO2 SLP100 T00111033 401171033 58005 TSNO", "PATC 060855Z AUTO 36006KT 10SM BKN016 M04/M07 A3004 RMK AO2 SLP179 T10401068 410371104 52006", "PATE 060856Z AUTO 34006KT 10SM OVC037 M06/M07 A3003 RMK AO2 SLP179 T10561072 410281072 51006 FZRANO", "PATG 060856Z AUTO 31014KT 10SM OVC036 02/M01 A2994 RMK AO2 SLP137 60000 T00171006 400440000 51003 FZRANO", "PATK 060853Z AUTO 14004KT 10SM OVC070 04/M02 A2982 RMK AO2 SLP102 T00441022 401171022 50004 TSNO", "PATL 060855Z AUTO 00000KT 10SM OVC070 03/01 A2988 RMK AO2 SLP127 T00270006 400640012 54000 TSNO $", "PATO 060853Z AUTO 09006KT 10SM BKN120 03/M01 A2986 RMK AO2 SLP111 T00331006 400941011 53003 TSNO", "PATQ 060856Z AUTO 11008KT 10SM OVC004 M06/M07 A3004 RMK AO2 SLP178 T10611072 410171078 53003 FZRANO TSNO", "PAUN 060856Z AUTO 22013KT 9SM -SN OVC006 M02/M03 A3000 RMK AO2 UPB19E42SNB07E19B27E36B42 SLP162 P0000 60000 T10171028 400281028 51008 FZRANO", "PAVC 060924Z AUTO 34014G31KT 10SM BKN027 OVC032 00/M05 A3010 RMK AO2 PK WND 01031/0915 FZRANO PNO $", "PAVD 060856Z AUTO 08003KT CLR 03/00 A2994 RMK AO2 SLP133 T00280000 TSNO $", "PAVL 060853Z AUTO 24006KT 10SM OVC042 M07/M08 A3004 RMK AO2 SLP173 T10671083 410391072 51005 TSNO $", "PAWD 060853Z AUTO 21005KT 10SM BKN039 OVC050 05/01 A2987 RMK AO2 SLP113 60000 T00500011 400830006 53006 TSNO", "PAWI 060853Z AUTO 08003KT 10SM OVC065 M06/M07 A3002 RMK AO2 SLP168 T10561072 410111083 51004 TSNO $", "PAWM 060856Z AUTO 01005KT 9SM OVC075 M02/M04 A3000 RMK AO2 SLP164 T10171044 400331044 52009 FZRANO", "PAWN 060856Z AUTO 00000KT 10SM CLR M05/M06 RMK AO2 SLPNO T10501056 FZRANO $", "PAWS 060856Z AUTO 00000KT 10SM OVC120 04/M01 A2984 RMK AO2 SLP108 T00441006 401220006 52000", "PAYA 060853Z AUTO 00000KT 10SM CLR 01/00 A2990 RMK AO2 SLP124 T00110000 401061022 53008 TSNO $", "PAZK 060856Z AUTO 24004KT 10SM CLR M02/M06 A2973 RMK AO2 SLP114 T10171061 400171050 58003 FZRANO", "PFCL 060856Z AUTO 24006KT 10SM FEW049 02/01 A2992 RMK AO2 SLP125 T00170006 400560011 51005 FZRANO TSNO", "PFEL 060856Z AUTO 32004KT 10SM OVC085 01/M04 A2998 RMK AO2 SLP155 T00061044 400441028 51007 FZRANO", "PFKT 060856Z AUTO VRB05KT 10SM M04/M07 A3006 RMK AO2 SLP181 T10441072 410171067 51005 FZRANO $", "PFKW 060856Z AUTO 32014G20KT 9SM -SN OVC009 M01/M03 A2997 RMK AO2 SNB13 SLP150 P0000 60000 T10111028 400441011 53010 FZRANO", "PFNO 060856Z AUTO 26005KT 10SM FEW070 M03/M04 A3001 RMK AO2 SLP247 T10281044 400391028 51004 FZRANO $", "PFSH 060856Z AUTO 01011KT 10SM BKN055 OVC085 00/M02 A2998 RMK AO2 SLP150 T00001017 400221022 51006 FZRANO", "PFWS 060856Z AUTO 24006KT 10SM UP BKN019 OVC034 02/01 A2993 RMK AO2 UPE01B17E23B53RAB01E53 SLP178 P0000 60000 T00170011 400670006 51004 FZRANO", "PFYU 060856Z AUTO 04009KT 10SM CLR 04/M03 A2985 RMK AO2 SLP119 T00391033 401281044 57007", "PGSN 060854Z 08012KT 10SM FEW017 SCT027 BKN075 28/24 A2980 RMK AO2 SLP114 T02780239 53013 $", "PGUA 060914Z AUTO 07009KT 10SM -RA BKN011 OVC018 26/23 A2980 RMK AO2 RAB14 CIG 010 RWY24L SLP082 $", "PGWT 060852Z 08012KT 7SM FEW017 SCT030 SCT060 BKN080 BKN140 28/23 RMK LAST", "PHBK 060925Z AUTO 08004KT 10SM BKN050 21/17 A3006 RMK AO2 T02110167", "PHHI 060925Z AUTO 07005KT 10SM FEW008 FEW012 SCT025 BKN036 BKN055 20/17 A3011 RMK AO2 DZB24E25 SLP187 $", "PHJR 060853Z AUTO VRB05KT 10SM FEW040 23/17 A3009 RMK AO2 SLP195 T02330172 51012 TSNO", "PHKO 060853Z AUTO 09003KT 10SM SCT045 24/18 A3004 RMK AO2 SLP171 T02440183 51014 TSNO $", "PHLI 060853Z AUTO 08017KT 10SM SCT019 BKN044 OVC070 24/21 A3011 RMK AO2 SLP192 T02390206 50002 TSNO", "PHMK 060854Z AUTO 04012G19KT 10SM FEW043 SCT050 OVC065 A3008 RMK AO2 SLPNO 51010 TSNO", "PHNG 060857Z AUTO 08014G21KT BKN025 BKN070 26/20 A3007 RMK AO2 SLP179 T02560200 51004 $", "PHNL 060853Z 05015KT 10SM FEW025 SCT042 24/19 A3007 RMK AO2 SLP184 VCSH E T02390189 51009", "PHNY 060856Z AUTO 07006KT 10SM CLR 19/17 A3012 RMK AO2 SLPNO T01890172 50009", "PHOG 060854Z 08012G19KT 10SM CLR 23/17 A3006 RMK AO2 SLP184 T02280172 51007", "PHSF 060905Z AUTO 00000KT 10SM SCT015 10/08 A3035 RMK AO2 SLP173 $", "PHTO 060904Z AUTO 23004KT 10SM -RA FEW028 SCT035 OVC060 21/19 A3010 RMK AO2 RAB0856 P0000 T02110194 TSNO", "PKMR 060852Z 07006KT 15SM FEW015 SCT050 BKN120 OVC300 28/25 A2978 RMK SLP088 8/878 T02790252 52027", "PKWA 060920Z AUTO 08014KT 10SM SCT017 28/25 A2980 RMK AO2 T02770249 TSNO", "PMDY 060856Z AUTO 9SM BKN013 OVC018 22/21 A3006 RMK AO2 SLP180 T02220211 53015 TSNO $", "PPIZ 060923Z AUTO 35004KT 8SM -SN SCT020 BKN027 OVC032 M07/M07 A3006 RMK AO2 P0000 FZRANO", "PTKK 060851Z VRB03KT 15SM FEW014 SCT120 OVC280 28/26 A2972 RMK SLP066 8/171 T02820257 52019", "PTPN 060851Z 12005KT 15SM SCT018 BKN300 29/26 A2971 ", "PTRO 060850Z 29004KT 8SM -SHRA BKN014CB BKN110 OVC290 26/25 A2968 RMK CB OHD AND ALQDS", "PTTP 060853Z 11005KT 15SM FEW018 SCT300 28/25 A2976 RMK SLP078 8/101 T02810247 52022", "PTYA 060852Z VRB06KT 12SM SCT016CB BKN120 OVC300 26/25 A2969 RMK CB E-S SLP054 8/378 T02610250 53005", "PWAK 060855Z AUTO 05015KT 10SM FEW270 25/22 A2993 RMK AO2 SLP141 T02540217 52020", "RCFN 060900Z 21009KT 140V250 9999 FEW025 BKN300 30/26 Q1003 NOSIG RMK 21010KT/R04 A2962", "RCKH 060900Z 21007KT 180V250 9999 FEW016 31/22 Q1003 NOSIG RMK A2963", "RCMQ 060900Z 20008KT 9999 FEW012 SCT050 BKN200 29/21 Q1003 NOSIG RMK A2964", "RCNN 060900Z 22008KT 9999 FEW012 SCT100 BKN200 29/21 Q1004 NOSIG RMK A2965", "RCSS 060900Z 08010KT 9999 FEW025 SCT050 BKN150 31/22 Q1002 NOSIG RMK A2960", "RCTP 060900Z 23009KT 190V260 9999 FEW020 SCT150 BKN200 30/23 Q1002 NOSIG RMK A2960", "RJAA 060900Z 21018G35KT 170V240 9999 FEW030 BKN/// 23/15 Q1004 NOSIG", "RJAF 060900Z 15013KT 9999 VCSH FEW025 SCT050 BKN090 19/14 Q1008", "RJAH 060900Z 22015KT 9999 FEW030 BKN170 BKN230 23/14 Q1004", "RJAW 060900Z 10009KT 9999 FEW050 24/22 Q1012 RMK 2SC050 A2991 WIND BY EQPT/25", "RJBB 060900Z 19023KT 9999 -SHRA FEW015 SCT030 BKN100 21/18 Q1007 TEMPO 20025G36KT", "RJBD 060900Z 15010KT 9999 FEW015 SCT040 BKN050 20/18 Q1010", "RJBE 060900Z 19011KT 9999 -SHRA FEW015 SCT030 BKN070 20/18 Q1008", "RJBT 060900Z 18010KT 150V210 9999 -SHRA FEW000 SCT030 BKN110 19/18 Q1005", "RJCB 060900Z 14005KT 4000 -SHRA BR FEW003 BKN005 BKN007 06/06 Q1009", "RJCC 060900Z 36010KT 9999 FEW030 BKN/// 11/04 Q1008", "RJCH 060900Z 11009KT 9999 -DZ FEW006 BKN012 BKN020 09/07 Q1008", "RJCK 060900Z 04009KT 9999 FEW010 BKN035 BKN045 06/02 Q1010", "RJCM 060900Z 07006KT 9999 FEW008 BKN020 BKN040 04/01 Q1011", "RJCN 060900Z 06009KT 9999 FEW010 BKN070 03/01 Q1010", "RJCO 060927Z 30020KT 9999 FEW030 SCT040 BKN050 09/06 Q1010 RMK 1CU030 3CU040 6CU050 A2984", "RJCW 060900Z 02005KT CAVOK 06/01 Q1011", "RJDB 060900Z AUTO 02014KT 3200 -RA BR BKN003 BKN005 OVC010 15/15 Q1006", "RJDC 060900Z 34003KT 290V030 6000 -SHRA FEW004 SCT006 BKN010 19/19 Q1004", "RJDT 060900Z 03013KT 350V060 6000 -SHRA FEW007 BKN010 14/13 Q1007", "RJEC 060900Z 01008KT 9999 FEW010 SCT020 BKN050 09/04 Q1008", "RJFE 060900Z 35007KT 5000 -SHRA BR FEW002 SCT003 BKN005 19/19 Q1005", "RJFF 060900Z 32008KT 4500 -SHRA BR FEW002 BKN007 BKN010 17/16 Q1006 TEMPO 3000 SHRA BR FEW003 BKN005 BKN010", "RJFG 060900Z 18011KT 140V210 8000 FEW003 SCT005 BKN007 21/21 Q1008", "RJFK 060900Z 19009KT 150V220 3000 -SHRA BCFG BR FEW001 BKN002 BKN003 21/20 Q1008", "RJFM 060900Z 15015KT 9999 FEW010 SCT020 BKN030 22/20 Q1006", "RJFO 060900Z 16013KT 9000 -SHRA FEW002 SCT040 BKN060 19/18 Q1004", "RJFR 060900Z 32007KT 8000 -SHRA FEW005 SCT010 BKN020 18/17 Q1005", "RJFS 060900Z 32005KT 290V360 8000 -SHRA FEW003 SCT010 BKN015 20/20 Q1005", "RJFT 060900Z 21008KT 170V240 6000 -SHRA FEW001 SCT008 BKN012 21/21 Q1006", "RJFU 060900Z 23023KT 4000 -SHRA BR FEW005 SCT010 BKN015 22/20 Q1004", "RJGG 060900Z 17009KT 9999 FEW025 BKN050 21/18 Q1008 NOSIG", "RJKA 060900Z 18012KT 9999 FEW012 BKN025 BKN/// 24/22 Q1008", "RJKI 060900Z AUTO 19008KT 150V220 9999 BKN022 BKN160 24/22 Q1009", "RJNK 060900Z 20013KT 9999 -SHRA FEW020 SCT030 BKN050 21/17 Q1004", "RJNS 060900Z 24011KT 200V270 9999 FEW013 SCT015 BKN025 21/17 Q1010", "RJNT 060900Z 19008KT 140V240 9999 -SHRA FEW015 SCT030 BKN050 22/17 Q1005", "RJNW 060900Z VRB01KT 2000 SHRA BR FEW000 SCT008 BKN010 17/17 Q1006", "RJNY 060910Z 24015KT 9999 FEW015 BKN025 BKN050 22/18 Q1010 RMK 1CU015 5CU025 6SC050 A2983", "RJOA 060900Z 14004KT 0600 R10/0400VP2000U -SHRA FG FEW000 SCT003 BKN008 18/18 Q1006", "RJOB 060900Z 08004KT 5000 -SHRA BR BCFG FEW000 SCT035 BKN045 19/18 Q1006", "RJOC 060900Z 25010KT 9999 -SHRA FEW003 SCT006 BKN015 19/18 Q1004", "RJOH 060900Z 25007KT 8000 -SHRA FEW010 SCT020 BKN035 20/20 Q1004", "RJOI 060917Z 17013KT 1 1/2SM RA BR SCT006 BKN015 OVC040 21/20 A2968 RMK AO2 SLP048 P0007 T02060194", "RJOK 060900Z 11009KT 4000 -SHRA BR FEW003 SCT008 BKN010 20/20 Q1008", "RJOM 060900Z 20006KT 140V240 9999 FEW025 SCT070 BKN080 24/19 Q1004", "RJOO 060900Z 25004KT 180V300 9999 -SHRA FEW010 SCT020 BKN030 21/18 Q1008", "RJOR 060900Z 34005KT 290V030 9999 -SHRA FEW020 SCT030 BKN080 20/17 Q1004", "RJOS 060900Z 16024KT 9999 -SHRA SCT030 BKN100 20/18 Q1006", "RJOT 060900Z 08004KT 9999 -SHRA FEW004 SCT045 BKN080 20/19 Q1006", "RJOW 060900Z 31004KT 4000 -SHRA BR FEW001 BKN003 BKN006 17/16 Q1006", "RJOY 060900Z 21003KT 110V270 9999 VCSH FEW020 BKN035 BKN070 23/18 Q1008", "RJSA 060900Z 36006KT 320V030 0600 R24/0650VP2000U FG -RA BKN001 BKN002 09/09 Q1006", "RJSC 060900Z VRB01KT 9999 -SHRA FEW005 SCT020 BKN050 19/18 Q1005", "RJSF 060900Z 36011KT 9999 FEW030 BKN150 BKN/// 21/14 Q1005", "RJSH 060828Z 06008KT 4900 -SHRA BR FEW003 BKN005 OVC040 09/08 Q1007 RMK 2ST003 5ST005 8CU040 A2975", "RJSI 060900Z VRB02KT 9999 -SHRA FEW010 SCT080 BKN100 17/16 Q1004", "RJSK 060900Z 32003KT 280V360 4000 -SHRA BR FEW001 SCT003 BKN006 14/13 Q1005", "RJSM 060900Z 07006KT 8000 -RA SCT003 BKN005 OVC008 08/07 Q1008", "RJSN 060900Z 11003KT 4500 -SHRA BR FEW008 BKN015 BKN025 17/16 Q1006", "RJSO 060820Z 04007KT 4900 -DZRA BR SCT005 BKN007 OVC010 08/07 Q1008 RMK 3ST005 5ST007 8ST010 A2979", "RJSR 060900Z 30004KT 6000 -SHRA FEW002 SCT008 BKN013 14/13 Q1005", "RJSS 060900Z 09003KT 9999 -RA FEW030 SCT060 BKN090 17/15 Q1004", "RJSY 060900Z 24010KT 3500 SHRA BR FEW003 SCT010 BKN015 16/15 Q1006", "RJTT 060900Z 22038KT 9999 FEW030 BKN/// 23/15 Q1004 TEMPO 22036G48KT", "RJTY 060855Z AUTO 20017G26KT 10SM FEW200 25/14 A2967 RMK AO2 PK WND 19026/38 SLP048 T02480140 53003", "RKJB 060900Z 22004KT 9000 SCT008 BKN009 BKN030 16/14 Q1005 NOSIG", "RKJK 060925Z AUTO 06012KT 7SM SCT007 OVC016 14/14 A2967 RMK AO2 CIG 007V016 CIG 006 RWY18 SLP052 $", "RKNY 060900Z 34006KT 9000 -RA SCT015 BKN030 OVC080 09/08 Q1014 NOSIG", "RKPC 060900Z 28006KT 250V340 9999 FEW008 BKN025 16/14 Q1006 NOSIG", "RKPK 060900Z 03008G18KT 9999 SCT020 BKN040 14/10 Q1008", "RKSG 060855Z 09009G17KT 6SM BR SCT020 OVC050 13/10 A2982 RMK AO2A SLP097 WND DATA ALSTG/SLP ESTMD 60015 $", "RKSI 060900Z 05010KT 9999 FEW020 BKN055 BKN120 14/09 Q1010 NOSIG", "RKSM 060900Z 07007KT 9999 SCT030 BKN060 13/08 A2984", "RKSO 060855Z 08009KT 7SM SCT023 OVC055 13/13 A2982 RMK AO2A SLP102 60001 T01300128 50019 $", "RKSS 060900Z 03008KT 9999 FEW025 BKN060 14/10 Q1011 NOSIG", "RKTE 060923Z 03004KT 9999 SCT020 OVC050 14/12 A2977 RMK CIG050", "RKTN 060900Z 14008KT 9000 -RA SCT005 BKN010 OVC025 13/12 Q1010", "RKTU 060900Z 06009KT 9000 -RA BKN020 OVC030 13/11 Q1009", "ROAH 060900Z 17014KT 9999 FEW010 BKN200 26/24 Q1007", "RODE 060859Z AUTO A2977 RMK AO2 SLPNO 56003 PWINO TSNO $", "RODN 060911Z 16007KT 10SM FEW020 BKN100 26/22 A2973 RMK AO2A SLP073 FZRANO $", "ROIG 060900Z 18008KT 9999 FEW008 BKN/// 27/25 Q1006", "ROMD 060900Z AUTO 15005KT 110V180 9999 FEW009 24/22 Q1010", "ROMY 060900Z 16010KT 9999 FEW010 BKN150 27/24 Q1006", "RORK 060900Z AUTO 14010KT 9000 FEW011 25/22 Q1010", "RORS 060900Z 16009KT 9999 -RA FEW010 BKN150 BKN/// 26/25 Q1006", "RORT 060900Z AUTO 16006KT 130V200 9999 NSC 26/25 Q1006", "RORY 060900Z AUTO 15009KT 9000 FEW042 SCT050 BKN080 24/24 Q1008", "ROYN 060900Z AUTO 16013KT 9999 FEW010 28/25 Q1004", "RPLB 060900Z 23010KT 9999 FEW020 31/25 Q1005 NOSIG RMK A2968", "RPLC 060900Z 20008KT 9999 FEW020 SCT300 34/23 Q1005 NOSIG RMK A2968", "RPLI 060900Z 28004KT 220V310 8000 VCSH FEW017CB BKN070 32/26 Q1005 NOSIG RMK A2968 CB SE VCSH E-SE", "RPLL 060900Z 12007KT 070V150 9999 FEW025 34/24 Q1004 NOSIG RMK A2965", "RPMD 060900Z 15003KT 120V180 9999 -SHRA FEW015CB BKN080 BKN250 30/26 Q1005 RMK A2968 CB N NE,E", "RPMR 060900Z 17004KT 9999 SCT018CB OVC080 28/24 Q1006 RMK A2971 CB N NW,SW, W NE", "RPMZ 060900Z 28008KT 240V310 9999 FEW016CB SCT090 BKN300 31/24 Q1005 RMK A2968 CB N-NE SE-E", "RPVD 060900Z 07004KT 9999 VCSH FEW014CB BKN070 29/26 Q1005 RMK A2968 CB VCSH NW-N", "RPVM 060900Z 05005KT 9999 FEW018CB BKN100 31/25 Q1006 NOSIG RMK A2971 CB N", "RPVP 060900Z 21008KT 9999 FEW019 SCT080 BKN240 29/24 Q1005 RMK A2968", "SAAR 060900Z 20008KT 3000 -DZ BR OVC003 16/15 Q1011 RMK PP999", "SABE 060920Z 08013KT 5000 -DZ OVC005 18/17 Q1013 NOSIG", "SACO 060900Z 25006KT CAVOK 10/08 Q1017 NOSIG RMK PP000", "SADF 060900Z 09013KT 2000 +RA OVC004 17/17 Q1012 RMK PP002", "SAEZ 060900Z 11008KT 1000 R11/1700N RA BR OVC005 17/16 Q1013 NOSIG RMK PP001", "SAME 060900Z VRB02KT CAVOK 10/04 Q1016", "SANT 060900Z 33004KT CAVOK 09/08 Q1018 RMK PP000", "SAOC 060900Z 23003KT 9999 FEW025 SCT100 12/10 Q1017", "SARC 060900Z 32005KT 6000 OVC004 17/17 Q1015", "SARE 060900Z 36004KT 2500 -DZ BR OVC003 17/16 Q1015 RMK PP///", "SARF 060900Z 00000KT 9000 -DZ OVC005 17/16 Q1016", "SARI 060914Z 04005KT 0400 R31/0500N FG VV001 22/22 Q1016", "SARL 060900Z 32006KT 8000 OVC008 17/17 Q1015", "SARP 060900Z 27004KT CAVOK 19/19 Q1016", "SASA 060900Z 16004KT 9999 FEW020 OVC040 12/11 Q1021 RMK PP000", "SASJ 060900Z 33003KT 9999 OVC050 14/11 Q1020 RMK PP000", "SAVC 060900Z 29017G27KT CAVOK 16/04 Q1007 RMK PP000", "SAWE 060900Z 29015KT CAVOK 03/02 Q0991 RMK PP000", "SAWG 060900Z 30006KT 250V330 9999 FEW015 SCT200 08/06 Q0997", "SAWH 060900Z 23012KT 9999 SCT025 BKN045 06/03 Q0988 RMK PP000", "SAZM 060900Z 00000KT 0100 R13/0275 FG BKN001 SCT100 05/05 Q1020 RMK PP///", "SAZN 060900Z 00000KT CAVOK 04/03 Q1015", "SAZS 060900Z 25004KT 2000 BCFG SCT022 00/M01 Q1016 RMK PP///", "SBAN 060900Z 11007KT CAVOK 18/15 Q1021", "SBAR 060904Z 10014KT 5000 -RA BR BKN013 FEW019TCU BKN021 25/23 Q1014", "SBBE 060900Z 08003KT 9999 FEW017 25/24 Q1011", "SBBH 060900Z 00000KT 9999 FEW020 16/12 Q1021", "SBBR 060900Z VRB02KT CAVOK 16/13 Q1021", "SBBU 060900Z 14009KT 4000 BR NSC 20/19 Q1019", "SBBV 060900Z 08007KT CAVOK 25/21 Q1012", "SBCB 060900Z 13001KT 9999 FEW015 21/20 Q1019", "SBCF 060900Z 13003KT 9999 FEW040 17/15 Q1021", "SBCG 060900Z VRB03KT CAVOK 21/17 Q1017", "SBCO 060900Z VRB02KT 9999 FEW006 BKN009 OVC040 20/20 Q1017", "SBCT 060900Z 12004KT 6000 BKN004 OVC012 19/18 Q1022", "SBCY 060914Z 17003KT 1000 R35/P2000 BR OVC002 23/23 Q1015", "SBDN 060900Z 10006KT CAVOK 20/17 Q1017", "SBEG 060900Z 00000KT 9999 BKN012 SCT100 25/24 Q1011", "SBES 060900Z 00000KT 0800 FG FEW007 17/17 Q1019", "SBFI 060900Z 07003KT 0600 R15/0700 R33/0900 FG VV002 22/22 Q1016", "SBFL 060900Z 25003KT 6000 FEW005 BKN020 BKN080 23/23 Q1018", "SBFN 060921Z AUTO 13012KT 100V160 9999 SCT018 28/25 Q1013", "SBFZ 060900Z 17006KT 9999 FEW025 25/23 Q1012", "SBGL 060900Z 10002KT 8000 FEW022 BKN030 22/21 Q1019", "SBGO 060900Z 00000KT CAVOK 18/17 Q1019", "SBGR 060900Z 11004KT 9999 OVC011 20/18 Q1022", "SBGW 060900Z 03003KT 4000 BR FEW007 BKN018 20/19 Q1021", "SBIP 060900Z AUTO VRB01KT 9999 BKN023 20/18 Q1019", "SBIZ 060900Z 00000KT 9999 FEW010 23/22 Q1012", "SBJP 060900Z 18003KT 9999 FEW021 24/24 Q1013", "SBJU 060900Z 00000KT 9999 FEW020 23/22 Q1017", "SBJV 060900Z 02002KT 9999 SCT025 BKN050 24/23 Q1018", "SBKG 060900Z 15003KT 4000 BR FEW010 SCT015 22/21 Q1016", "SBKP 060900Z 12010KT 7000 NSC 19/17 Q1020", "SBLB 060900Z AUTO 12005KT 9999 NCD 25/20 Q1018 W///S4", "SBLE 060900Z AUTO VRB02KT 9999 BKN026 21/20 Q1018", "SBLO 060900Z 15002KT CAVOK 20/19 Q1019", "SBLS 060900Z 17007KT CAVOK 17/14 Q1021", "SBMA 060900Z 00000KT CAVOK 23/23 Q1012", "SBME 060900Z 30002KT CAVOK 21/21 Q1018", "SBMG 060900Z 07008KT CAVOK 21/17 Q1017", "SBMK 060900Z 00000KT CAVOK 16/15 Q1020", "SBMN 060900Z 00000KT 9999 BKN008 SCT018 26/24 Q1012", "SBMO 060900Z 33002KT 9999 SCT020 BKN040 23/23 Q1014", "SBMQ 060900Z 34002KT 9999 FEW003 25/25 Q1011", "SBMT 060900Z 09005KT 9999 OVC014 19/19 Q1021", "SBNF 060900Z 05007KT 9999 SCT010 BKN045 24/23 Q1018", "SBNT 060900Z 18004KT 9999 SCT021 FEW030TCU BKN050 24/24 Q1012 RERA", "SBPA 060900Z 18007KT 130V240 9999 SCT009 BKN043 21/20 Q1017", "SBPJ 060900Z 00000KT 9999 FEW010 24/23 Q1014", "SBPK 060900Z 05008KT 5000 -RA BKN005 SCT020 19/19 Q1015 RETSRA", "SBPL 060900Z 17005KT 9999 BKN020 25/21 Q1016", "SBPS 060900Z 24005KT 9999 SCT020 22/21 Q1016", "SBPV 060900Z 00000KT 9999 FEW010 24/23 Q1012", "SBRB 060900Z 10002KT 8000 SCT001 22/22 Q1013", "SBRF 060900Z 12007KT 9999 SCT023 28/22 Q1013", "SBRJ 060900Z 18006KT 9999 FEW010 SCT020 22/21 Q1018", "SBRP 060900Z 11006KT CAVOK 17/15 Q1018", "SBSC 060900Z 03002KT 4000 BR SCT010 21/21 Q1019", "SBSG 060900Z 18004KT 140V220 9000 VCSH SCT010 BKN018 FEW020TCU 24/23 Q1012", "SBSJ 060900Z 09002KT 9999 BKN017 20/18 Q1021", "SBSL 060900Z 10003KT CAVOK 27/26 Q1011", "SBSM 060900Z 10007KT 070V130 3000 BR OVC002 20/20 Q1016", "SBSN 060900Z 17003KT 9999 FEW015 SCT100 24/24 Q1011", "SBSP 060900Z 13005KT 9000 OVC013 19/17 Q1022", "SBSR 060900Z 00000KT CAVOK 21/15 Q1018", "SBSV 060900Z 28003KT 9999 SCT020 24/23 Q1015", "SBTA 060900Z VRB03KT 4000 BR BKN010 OVC018 20/18 Q1021", "SBTE 060900Z 00000KT CAVOK 24/23 Q1011", "SBTU 060900Z AUTO 23004KT 9999 // FEW030/// 23/23 Q1013", "SBUL 060900Z 10007KT CAVOK 18/13 Q1021", "SBUR 060900Z 05005KT CAVOK 20/14 Q1020", "SBVT 060900Z 29003KT 9999 SCT020 BKN040 21/20 Q1018", "SBYS 060900Z 21002KT CAVOK 14/14 Q1020", "SCAP 060900Z AUTO VRB02KT 9999 ////// 08/07 Q1018", "SCAR 060900Z 18005KT 9999 OVC028 18/15 Q1012", "SCAT 060900Z AUTO 08007KT 9999 OVC021/// 12/09 Q1014", "SCBA 060915Z AUTO 28026KT 9999 FEW051/// 11/06 Q1007", "SCCI 060900Z 29010KT 9999 FEW013 04/03 Q0996 NOSIG", "SCCY 060900Z AUTO 07008KT 030V120 9999 OVC044 13/06 Q1010", "SCDA 060900Z 10002KT 9999 OVC034 17/10 Q1012", "SCEL 060900Z 00000KT 1500 R17L/0800V1500N R17R/0800V1500N BR SCT005 03/03 Q1011 NOSIG", "SCFA 060900Z 12003KT CAVOK 11/07 Q1013 NOSIG", "SCHR 060900Z AUTO VRB04KT CAVOK 15/06 Q1002", "SCIC 060900Z AUTO 00000KT //// R/////// // VV001 06/06 Q1011", "SCIE 060900Z 22003KT 7000 OVC007 12/11 Q1013", "SCIP 060900Z 08003KT 040V110 CAVOK 21/18 Q1019 NOSIG", "SCMK 060900Z AUTO VRB02KT //// // BKN002/// OVC004/// 09/09 Q1016", "SCON 060900Z AUTO VRB01KT 5000 BR SCT040/// 06/06 Q1017", "SCPD 060900Z AUTO 32004KT 270V010 //// ///////// 05/M03 Q1012", "SCPQ 060900Z AUTO 00000KT 0600 R35/0700U -SHRA FG VV001 08/08 Q1017", "SCQP 060900Z 00000KT 0400 R01/0550N FG VV001 04/04 Q1013", "SCRM 060900Z 10037KT 0100 BLSN VV002 M08/M10 Q0967 NOSIG", "SCSE 060900Z AUTO 16003KT CAVOK 09/07 Q1014", "SCSN 060900Z AUTO 36003KT 330V030 //// R/////// // OVC002 09/09 Q1013", "SCTE 060900Z 19007KT 5000 BR SCT002 BKN004 OVC007 09/09 Q1017 NOSIG", "SCTN 060900Z AUTO 14003KT 100V170 5000 BKN004 OVC011 10/10 Q1017", "SCVD 060900Z AUTO VRB01KT 8000 R35///// FEW007 OVC011 10/10 Q1015", "SCVM 060900Z 01004KT 300V060 8000 BKN016 09/08 Q1014", "SEGU 060900Z 02004KT 9999 FEW026 BKN100 27/25 Q1008 NOSIG RMK A2977", "SEQM 060900Z 00000KT 9999 FEW030 BKN100 11/09 Q1025 NOSIG RMK A3028", "SGAS 060900Z 00000KT 9999 OVC006 18/18 Q1016", "SGCO 060900Z 18002KT 9999 OVC007 18/18Q1016", "SGEN 060900Z 00000KT 9000 SCT020 BKN050 22/19 Q1015", "SGES 060900Z 06004KT 0500 FG OVC002 22/22Q1016", "SKBO 060900Z VRB02KT 9999 FEW020 SCT070 10/08 Q1026 NOSIG RMK A3031", "SKBQ 060900Z 04009KT 7000 VCFG FEW012 27/24 Q1007 NOSIG RMK A2975", "SKCG 060900Z 08004KT 340V050 9999 FEW017 27/25 Q1006 RMK A2973", "SKCL 060900Z 11004KT 9999 SCT030 BKN200 20/19 Q1013 NOSIG RMK A2993", "SKLT 060900Z 00000KT 9999 FEW010 SCT080 24/24 Q1011 RMK A2987", "SKRG 060900Z VRB02KT 8000 VCFG BKN008 SCT080 15/15 Q1023 NOSIG RMK VCSH/S A3023", "SKSP 060900Z 05011KT 9999 FEW017 28/23 Q1012 RMK A2988", "SLCB 060900Z 00000KT 9000 -RA SCT010 SCT025 OVC070 11/11 Q1027", "SLLP 060900Z VRB02KT 4000E VCFG FEW002 SCT010 BKN070 03/03 Q1037", "SLVR 060900Z 17009KT 9000 -RA FEW007 BKN027 16/14 Q1017", "SMJP 060900Z 09001KT 9999 FEW008 24/24 Q1012 NOSIG", "SMZO 060900Z 04003KT 9999 FEW010 SCT020 24/23 Q1012 NOSIG", "SOCA 060900Z AUTO VRB01KT 9999 BKN019/// BKN024/// BKN030/// ///TCU 25/24 Q1012 TEMPO 2000 SHRA", "SPHI 060900Z 17006KT CAVOK 23/19 Q1009 RMK BIRD HAZARD RWY 19/01 PP000", "SPJC 060900Z 14006KT 9999 OVC019 21/17 Q1010 NOSIG RMK PP000", "SPQT 060900Z 15007KT 110V190 8000 -RA FEW005 SCT012 OVC100 24/23 Q1011 TEMPO 4000 RA RMK PP034", "SPRU 060900Z 08004KT 8000 VCFG NSC 22/20 Q1010 RMK PP000", "SPSO 060900Z 00000KT 5000 BR NSC 18/16 Q1010 RMK PP000", "SPUR 060900Z VRB02KT CAVOK 24/21 Q1009 RMK PP000", "SULS 060900Z 09011KT 4000 RA BR SCT008 OVC015 18/17 Q1017", "SUMU 060900Z 10014KT 9999 BKN011 OVC070 18/17 Q1016 TEMPO RA BR", "SVBC 060903Z AUTO 14001KT NCD 24/23 Q1013", "SVBI 060903Z AUTO /////KT NCD 24/15 Q1015", "SVBM 060903Z AUTO 06002KT NCD 21/19 Q1015", "SVBS 060903Z AUTO 05001KT NCD 22/17 Q1015", "SVCB 060903Z AUTO 09005KT NCD 26/21 Q1012", "SVCS 060903Z AUTO 06001KT NCD 21/18 Q1017", "SVFM 060903Z AUTO NIL", "SVGD 060903Z AUTO 30002KT NCD 23/22 Q1012", "SVGU 060903Z AUTO 31001KT NCD 29/19 Q1012", "SVJM 060903Z AUTO 05001KT NCD 21/18 Q1013", "SVLO 060903Z AUTO NIL", "SVMC 060903Z AUTO 03005KT NCD 25/23 Q1009", "SVMG 060903Z AUTO 06009KT NCD 25/25 Q1014", "SVMI 060903Z AUTO 08007KT NCD 25/20 Q1013", "SVMT 060903Z AUTO 02003KT NCD 24/22 Q1013", "SVPA 060903Z AUTO NIL", "SVPR 060903Z AUTO 06003KT NCD 24/20 Q1014", "SVSA 060903Z AUTO NIL", "SVSR 060903Z AUTO NIL", "SVVA 060903Z AUTO 05003KT NCD 26/20 Q1014", "SVVL 060903Z AUTO ///01KT NCD ///// Q////", "SYCJ 060900Z 04004KT 9999 FEW014 BKN034 25/24 Q1012 NOSIG", "TAPA 060900Z 12005KT 070V170 9999 FEW020 25/21 Q1016 NOSIG", "TBPB 060900Z 09009KT 9999 FEW018 26/22 Q1014 NOSIG", "TFFF 060900Z AUTO 07003KT CAVOK 24/21 Q1015 TEMPO SCT020TCU", "TFFR 060900Z AUTO 31003KT CAVOK 22/21 Q1016 NOSIG", "TGPY 060900Z 06010KT 9999 FEW018 27/23 Q1014 NOSIG", "TIST 060853Z AUTO 07003KT 10SM FEW022 26/22 A2999 RMK AO2 SLP157 T02560222 53001", "TISX 060853Z AUTO 04003KT 10SM SCT026 24/21 A3000 RMK AO2 SLP157 T02390211 53002", "TJPS 060915Z AUTO 00000KT 10SM CLR 24/20 A2999 RMK AO2 TSNO", "TJSJ 060856Z 17003KT 10SM FEW022 25/22 A3000 RMK AO2 SLP157 T02500217 53003", "TLPL 060900Z 10017KT 9999 FEW026 26/21 Q1015 NOSIG", "TNCA 060900Z 11013KT 9999 FEW018 27/23 Q1011 NOSIG", "TNCB 060855Z AUTO 09014KT 9999 FEW029/// SCT038/// 27/23 Q1012", "TNCC 060900Z 11014KT 9999 FEW020 27/23 Q1013 NOSIG", "TNCE 060855Z AUTO 10006KT 070V140 //// // ///////// 25/22 Q1016 RE//", "TNCM 060900Z 08005KT 050V120 9999 FEW017 26/22 Q1017 ", "TTCP 060900Z 07005KT 9999 FEW016 26/22 Q1014 NOSIG", "TTPP 060900Z 70000KT 9999 FEW016 26/22 Q1014 NOSIG", "TXKF 060855Z 32009KT 9999 FEW030 FEW082 17/11 Q1017 ", "UAAA 060900Z 02007MPS 340V080 9999 NSC 18/M06 Q1017 NOSIG", "UAAH 060900Z 10010MPS CAVOK 24/M01 Q1020 NOSIG RMK QFE728/0970", "UAAT 060900Z 02008MPS 9999 NSC 19/M04 Q1018 NOSIG RMK QFE712/0949", "UACC 060900Z 07002MPS CAVOK 24/M01 Q1024 WS R04 NOSIG RMK QFE736/0982", "UACK 060900Z 26003MPS 160V330 CAVOK 25/M07 Q1024 NOSIG RMK QFE744/0992", "UACP 060900Z 24004MPS 190V280 CAVOK 25/M06 Q1023 NOSIG RMK QFE755/1006", "UADD 060900Z 29005MPS 240V340 9999 NSC 21/M04 Q1015 NOSIG RMK QFE703/0938", "UAII 060900Z 29005MPS 9999 BKN050CB 20/06 Q1017 NOSIG RMK QFE725/0967", "UAIT 060900Z 01003MPS 300V080 9999 SCT046 22/M01 Q1014 NOSIG RMK QFE736/0981", "UAKD 060900Z 12011G16MPS CAVOK 24/M01 Q1020 NOSIG RMK QFE731/0975", "UAKK 060900Z 04006MPS 010V070 CAVOK 24/M03 Q1024 NOSIG RMK QFE720/0960", "UAOO 060900Z 13005MPS 100V160 CAVOK 25/M10 Q1013 NOSIG RMK QFE748/0998", "UARR 060900Z 20006G11MPS 160V240 CAVOK 24/05 Q1015 NOSIG RMK QFE758/1011", "UASK 060900Z 23004MPS 190V280 9999 NSC 22/M02 Q1021 NOSIG RMK QFE740/0987", "UASP 060900Z 01003G08MPS CAVOK 26/M06 Q1023 NOSIG RMK QFE757/1009", "UASS 060900Z 33002MPS CAVOK 25/M01 Q1021 NOSIG RMK QFE745/0993", "UATE 060900Z 29006MPS 260V320 9999 SCT011 15/12 Q1016 NOSIG RMK QFE760/1014", "UATG 060900Z 08002MPS CAVOK 24/M07 Q1015 NOSIG RMK QFE763/1017", "UATT 060900Z 12007MPS CAVOK 23/M03 Q1017 NOSIG RMK QFE743/0991", "UAUU 060900Z 21006MPS CAVOK 26/M05 Q1022 NOSIG RMK QFE750/1000", "UBBB 060900Z 06008KT 9999 SCT025 19/13 Q1016 NOSIG", "UBBF 060900Z 05010KT 9999 NSC 22/08 Q1015 NOSIG RMK MT OP", "UBBG 060900Z 10006KT 9999 SCT100 22/11 Q1015 NOSIG", "UBBL 060900Z 10005KT 9999 FEW050 21/14 Q1016 NOSIG RMK MT OP", "UBBN 060930Z 19004KT 9999 SCT046 BKN100 26/01 Q1013 NOSIG RMK MT OP QFE685", "UBBQ 060900Z 26005KT 9999 NSC 23/07 Q1015 NOSIG RMK MT OP", "UBBY 060900Z 35004KT 9999 FEW050 21/11 Q1018 NOSIG RMK MT OP", "UBBZ 060900Z 04010KT 360V080 9999 FEW100 23/10 Q1015 NOSIG RMK MT OP", "UBEE 060900Z 14004KT CAVOK 24/07 Q1015 NOSIG", "UCFL 060900Z 13004MPS 100V160 9999 NSC 09/M05 Q1016", "UCFM 060900Z 05015MPS 9999 VCDS FEW008 23/M07 Q1011 NOSIG", "UCFO 060900Z 28008MPS 9000 FEW036CB 19/01 Q1013 TEMPO 27009G14MPS", "UDSG 060900Z 30003KT 250V330 9999 FEW049 18/04 Q1018 NOSIG", "UDYZ 060900Z VRB01KT 9999 NSC 24/M00 Q1014 NOSIG", "UEEE 060900Z 26002MPS 9999 SCT050CB 13/M05 Q1004 R05/09//60 NOSIG RMK QFE745", "UERP 060900Z 02003MPS 7000 -SHRASN BKN010CB OVC100 01/00 Q0994 NOSIG RMK QFE701", "UERR 060900Z 25008MPS 9999 SCT023CB 05/01 Q1000 R25/290350 NOSIG RMK QFE719/0959", "UGAM 060900Z AUTO 29008KT //// ////// 24/07 Q1012", "UGKO 060900Z 26018KT CAVOK 19/13 Q1012 NOSIG", "UGMS 060900Z VRB02KT 9999 SCT100 20/M09 Q1017", "UGSB 060900Z 23011KT 9999 SCT010 17/14 Q1016 NOSIG", "UGTB 060900Z VRB06KT CAVOK 22/10 Q1016 NOSIG", "UHBB 060900Z 36004MPS 9999 SCT033 18/M10 Q1012 R36/090060 NOSIG RMK QFE741/0989", "UHHH 060900Z 27004MPS 240V300 9999 FEW040CB 13/M05 Q1011 R88/090060 NOSIG RMK QFE752/1003", "UHMA 060900Z 10002MPS 060V160 9999 VCFG FEW003 M04/M06 Q1014 R01/////// TEMPO 1000 BR VV002 RMK MID 10005MPS END R01/10008G11MPS MT OBSC QFE757/1009", "UHMM 060900Z 24002MPS 220V290 9999 NSC 03/M03 Q1005 R10/70D NOSIG RMK QFE739 R28/27003MPS", "UHPP 060900Z 10003MPS 9999 BKN033CB BKN096 03/01 Q0999 R16R/290155 NOSIG RMK MT OBSC QFE746/0995", "UHSS 060900Z 20004MPS 9999 NSC 06/M01 Q1010 R19/70D NOSIG RMK QFE756/1008", "UHWW 060900Z 02003MPS 9999 NSC 18/M07 Q1012 R07R/0///70 NOSIG RMK QFE758", "UIAA 060900Z 27008G13MPS 9999 NSC 15/M11 Q1018 R29/CLRD70 NOSIG RMK QFE705/0940", "UIBB 060900Z 25006MPS 200V300 9999 SCT046 16/03 Q1017 WS R30 R30/290160 NOSIG RMK QFE720/0960", "UIII 060900Z 35003MPS 280V040 CAVOK 19/M05 Q1022 R12/CLRD60 NOSIG RMK QFE723/0965", "UIUU 060900Z 32005MPS 270V360 9999 NSC 17/M08 Q1021 R26/CLRD60 NOSIG RMK QFE722/0962", "ULLI 060900Z 32006MPS 270V360 9999 BKN049 05/M09 Q1029 R88/090060 NOSIG", "ULMM 060900Z 30002MPS 200V360 9999 BKN026CB 04/M02 Q1026 R31/290052 NOSIG RMK QFE762", "ULOO 060900Z 30003MPS 230V020 9999 SCT046 05/M06 Q1030 R01/090060 NOSIG RMK QFE768", "ULPB 060900Z 35005MPS 310V060 9999 FEW015 SCT051CB 04/M06 Q1027 R01/09//60 NOSIG RMK QFE766/1021", "ULWC 060900Z 33004G09MPS 9999 BKN021CB 04/M04 Q1022 R21/010060 NOSIG RMK QFE756/1008", "UMBB 060900Z 11007G11MPS CAVOK 11/M04 Q1025 NOSIG", "UMGG 060900Z 02005G08MPS CAVOK 09/M09 Q1027 NOSIG", "UMII 060900Z 01004G07MPS 9999 BKN043 05/M07 Q1028 NOSIG", "UMIO 060900Z 01005G08MPS 330V050 CAVOK 05/M08 Q1029 NOSIG RMK QFE754/1005", "UMKK 060900Z 06006MPS 040V100 CAVOK 10/M00 Q1027 R06/CLRD95 NOSIG RMK QFE769/1026", "UMMG 060900Z 09003G06MPS 9999 BKN040 10/M01 Q1027 NOSIG", "UMMS 060900Z 03004MPS 340V080 CAVOK 07/M05 Q1028 NOSIG", "UMOO 060900Z 35005MPS CAVOK 06/M07 Q1030 NOSIG", "UNAA 060900Z 20003MPS CAVOK 23/M01 Q1023 R20/CLRD64 NOSIG RMK QFE744", "UNBB 060900Z 17002MPS 110V210 CAVOK 24/M09 Q1022 R24/CLRD66 NOSIG RMK QFE744", "UNEE 060900Z 16001MPS CAVOK 24/M03 Q1022 R23/CLRD60 NOSIG RMK QFE743", "UNKL 060900Z 26005MPS 220V290 CAVOK 20/02 Q1021 R29/CLRD65 NOSIG RMK QFE740", "UNNT 060900Z VRB01MPS 8000 BKN027 26/00 Q1021 R25/090070 R34/090070 NOSIG RMK QFE756/1008", "UNOO 060900Z 23004MPS 180V290 CAVOK 26/M11 Q1023 R25/CLRD60 NOSIG RMK QFE759", "UNTT 060900Z 31003MPS 270V350 CAVOK 23/02 Q1022 R03/090060 NOSIG RMK QFE750", "UNWW 060900Z VRB01MPS CAVOK 23/M01 Q1023 R01/09//55 NOSIG RMK QFE740", "UOOO 060900Z 34004MPS CAVOK M11/M13 Q1017 R01/810260 NOSIG RMK QFE748/0997", "URKA 060900Z 24006MPS CAVOK 17/14 Q1014 R22/010070 TEMPO 0500 FG BKN002 RMK QFE755/1007", "URKK 060900Z 20002MPS 170V240 9999 FEW/// 23/14 Q1013 R05R/CLRD70 NOSIG RMK QFE757", "URMG 060900Z 11005MPS 060V130 CAVOK 21/11 Q1014 R08/090070 NOSIG RMK QFE746/0995", "URML 060900Z 14005MPS 9999 FEW/// 16/13 Q1016 R14/010070 NOSIG RMK QFE762/1016", "URMM 060900Z 09006MPS 9999 FEW/// 22/12 Q1014 R12/090070 NOSIG RMK QFE732/0976", "URMN 060900Z 10004MPS 9999 NSC 21/12 Q1013 R24/010070 NOSIG RMK QFE723", "URMO 060900Z 06007MPS 9999 NSC 21/10 Q1014 R09/010070 NOSIG RMK QFE717/0956", "URMT 060900Z 13005MPS CAVOK 22/10 Q1014 R07/010070 NOSIG RMK QFE721", "URRP 060900Z 02002MPS CAVOK 23/11 Q1015 R23/CLRD70 NOSIG RMK QFE753/1004", "URSS 060900Z 27002MPS 240V320 9999 FEW010 18/12 Q1014 R02/010070 R06/010070 NOSIG RMK R06/30003G06MPS MT OBSC QFE759", "URWA 060900Z 05003MPS 360V140 9999 SCT043 22/10 Q1016 R27/010070 NOSIG RMK QFE764/1019", "URWI 060900Z 14004MPS 090V210 9999 FEW/// 23/07 Q1015 NOSIG", "URWW 060900Z 23004MPS 9999 BKN048CB 23/09 Q1014 R23/010070 TEMPO 1500 TSRAGR BKN005 BKN030CB", "USCC 060900Z 19007MPS CAVOK 24/M04 Q1020 R27/000060 NOSIG RMK QFE744", "USCM 060900Z 17009G14MPS 9999 NSC 22/M04 Q1019 R18/090060 TEMPO 17015MPS RMK QFE727", "USDA 060900Z 33005MPS CAVOK M08/M11 Q1023 R04/CLRD60 NOSIG RMK QFE766/1021", "USHH 060900Z 24004MPS 190V290 CAVOK 21/07 Q1015 R06/010060 NOSIG", "USNN 060900Z 13005MPS 9999 FEW030CB 14/05 Q1020 R21/0///65 NOSIG RMK QFE760", "USPP 060900Z 21008G14MPS CAVOK 21/M01 Q1012 R21/090060 TEMPO 22008G25MPS RMK QFE748", "USRR 060900Z 13004MPS 100V170 CAVOK 13/06 Q1018 R07/CLRD60 NOSIG RMK QFE758", "USSS 060900Z 19006MPS 160V220 CAVOK 24/M04 Q1017 WS R26R R26R/010060 TEMPO 18009G17MPS RMK QFE742/0989", "USTR 060900Z 21007MPS 170V240 CAVOK 25/M05 Q1018 R21/090065 R30/090065 TEMPO 3100 FU", "UTAA 060900Z 12008KT 060V200 9999 SCT050 BKN100 23/07 Q1014 R88/70D NOSIG", "UTAK 060900Z 28012KT 9999 FEW033 21/09 Q1016 R16R/CLRD70 NOSIG", "UTAM 060900Z 21006KT 9999 BKN040 23/05 Q1016 R88/CLRD70 NOSIG", "UTAT 060900Z 28014KT 9999 OVC048 17/12 Q1014 R26/19//60 NOSIG", "UTAV 060900Z 3300KT 9999 -SHRA SCT033CB BKN033 17/10 Q1017 R13/CLRD/70 NOSIG", "UTDD 060900Z VRB01MPS 3900 -SHRA HZ SCT033 SCT033CB 14/08 Q1020 R09/19//60 NOSIG RMK QFE696/0929", "UTDK 060900Z VRB02MPS 8000 FEW030 SCT043CB OVC051 17/10 Q1020 R01/09//70 RMK QFE707/0943", "UTDL 060900Z 25008MPS 9999 -SHRA SCT057CB OVC086 15/07 Q1017 R26/CLRD70 NOSIG RMK QFE725/0967", "UTDT 060900Z 33003MPS 280V020 9000 FEW023 SCT070CB BKN110 18/12 Q1018 R35/290350 RMK QFE724/0966", "UTFF 060900Z 28018KT 9999 NSC 22/M02 Q1012 R18/CLRD70", "UTFN 060900Z 23018KT 9000 NSC 20/03 Q1011 R28/CLRD70 NOSIG", "UTNN 060900Z 19004KT CAVOK 19/05 Q1013 R33/CLRD60 NOSIG", "UTNU 060900Z 22010KT 9999 -SHRA OVC029CB 16/11 Q1014 R31/CLRD70 NOSIG", "UTSA 060900Z 19008KT 150V210 9999 BKN046 16/09 Q1018 R25/CLRD70 NOSIG", "UTSB 060900Z 22010KT 170V260 9999 BKN045 19/09 Q1017 R19/CLRD70 NOSIG", "UTSK 060900Z 20006KT 160V290 9999 OVC033CB 17/07 Q1018 R16/CLRD70", "UTSS 060900Z VRB02KT 9999 BKN066CB 15/08 Q1018 R27/CLRD70 NOSIG", "UTST 060900Z 34004KT 9999 SCT046TCU 23/07 Q1017 R25/CLRD70 NOSIG", "UTTT 060900Z 28006KT 9999 SCT060CB 20/06 Q1018 R26R/CLRD70 NOSIG", "UUBC 060900Z 31006MPS 270V360 CAVOK 07/M07 Q1024 R31/CLRD60 NOSIG RMK QFE751/1002", "UUBP 060900Z 34005MPS 300V010 CAVOK 08/M05 Q1025 R34/////// NOSIG RMK QFE751/1002", "UUBW 060900Z 32006MPS 270V360 9999 BKN043 06/M05 Q1024 R30/010060 NOSIG", "UUDD 060900Z 34007MPS 310V010 9999 BKN039 05/M06 Q1024 RMK WS R32L R88/CLRD60 NOSIG", "UUDL 060900Z 31006MPS 9999 BKN030CB 05/M05 Q1021 R23/010060 NOSIG RMK QFE757", "UUEE 060900Z 32006MPS 280V360 CAVOK 04/M08 Q1024 R24L/CLRD62 R24C/CLRD62 NOSIG", "UUMO 060900Z 34006MPS 300V020 9999 BKN043 05/M05 Q1024 R25/CLRD60 NOSIG RMK QFE753/1004", "UUOB 060900Z 06006G11MPS CAVOK 09/02 Q1021 R29/010070 NOSIG", "UUOK 060900Z 02006MPS 340V060 9999 BKN037 07/M01 Q1024 R12/090060 NOSIG RMK QFE750/1000", "UUOL 060900Z 02004MPS CAVOK 06/M04 Q1022 R33/////// NOSIG", "UUOO 060900Z 35005MPS 9999 BKN040 06/M02 Q1022 R30/010070 NOSIG RMK QFE753", "UUWW 060900Z 34006MPS 300V010 9999 BKN045 05/M07 Q1024 R24/000070 NOSIG", "UUYY 060900Z 04004MPS 9999 BKN007 OVC016CB 06/06 Q1011 R36/29//51 NOSIG RMK QFE749/0999", "UWGG 060900Z 30006G11MPS CAVOK 08/M07 Q1018 R36R/090070 NOSIG", "UWKD 060900Z 36004MPS 9000 -SHRA BKN041CB 06/03 Q1015 R29/290050 NOSIG RMK QFE750/1000", "UWKE 060900Z 21008MPS CAVOK 19/02 Q1010 R21/090070 NOSIG RMK QFE741/0988", "UWKS 060900Z 32004MPS 280V360 9999 -SHRA OVC010CB 05/04 Q1015 R06/290250 NOSIG RMK QFE746", "UWLL 060900Z 34006MPS 9999 -SHRA BKN011 BKN020CB 07/05 Q1016 R02/150150 NOSIG RMK QFE750/1000", "UWLW 060900Z 34005MPS 9000 -SHRA BKN010 OVC020CB 07/06 Q1015 R02/290150 NOSIG RMK QFE755/1006", "UWOO 060900Z 18007MPS 150V210 9999 SCT049 23/M04 Q1017 R08/CLRD60 NOSIG RMK QFE752/1003", "UWOR 060900Z 14010G16MPS CAVOK 22/M03 Q1018 R07/CLRD65 NOSIG RMK QFE739/0986", "UWPS 060900Z 34005MPS 9999 BKN037 08/01 Q1018 R02/190060 NOSIG RMK QFE744", "UWSG 060900Z 32008MPS 9999 SCT020 14/08 Q1016 R26/CLRD70 NOSIG RMK QFE759/1012", "UWUU 060900Z 17010MPS 140V210 CAVOK 22/M04 Q1016 R14R/0///60 NOSIG", "UWWW 060900Z 26006MPS 210V320 9999 BKN026 20/03 Q1012 R15/CLRD60 TEMPO 30017MPS 1000 TSRA BKN010CB RMK QFE747/0997", "VAAH 060900Z 28005KT 5000 FU BKN080 37/17 Q1006 NOSIG", "VABB 060900Z 29011KT 6000 FEW020 32/24 Q1007 NOSIG", "VABO 060900Z 27006KT 6000 FEW020 SCT080 37/20 Q1006 NOSIG", "VABP 060900Z 32005KT 6000 SCT030 35/12 Q1008 NOSIG", "VABV 060900Z 09006KT 6000 FEW025 36/21 Q1006", "VAID 060900Z 00000KT 6000 FEW020 SCT025 34/18 Q1009 NOSIG", "VAJB 060930Z 30006KT 6000 SCT025 36/17 Q1007 NOSIG", "VAJJ 060900Z 28009KT 5000 FU FEW020 31/24 Q1007 NOSIG", "VAJL 060900Z 22002KT 7000 FEW025 37/19 Q1006 NOSIG", "VAKP 060900Z 02005KT 9000 FEW020 34/12 Q1009", "VANP 060900Z 34005KT 5000 HZ FEW020 SCT025 37/21 Q1007 NOSIG", "VAOZ 060900Z 01010KT 6000 SCT030 BKN090 33/17 Q1010 NOSIG", "VARK 060900Z 09003KT 6000 SCT020 38/19 Q1007 NOSIG", "VASD 060930Z 35005KT 5000 HZ SCT020 BKN080 33/15 Q1008 NOSIG", "VASU 060930Z 20010KT 6000 NSC 34/21 Q1006 NOSIG", "VAUD 060900Z 21008KT 4000 DZ SCT025 BKN030 FEW035CB 33/19 Q1008 TEMPO 3000 TSRA", "VCBI 060910Z 24008KT 210V280 9999 FEW012 SCT016 FEW018CB 31/26 Q1007 NOSIG RMK CB E/SE/S", "VCRI 060910Z 24010KT 9999 SCT018 BKN060 31/27 Q1006 NOSIG", "VDPP 060900Z VRB03KT 9999 SCT017 39/20 Q1000", "VDSR 060900Z 19006KT 140V230 9999 SCT017 39/22 Q1000", "VDSV 060900Z 27011KT 9999 SCT015 32/27 Q1002", "VEAT 060900Z 19009KT 6000 SCT020 36/23 Q1003 NOSIG", "VEBI 060900Z 34008KT 6000 SCT020 29/12 Q1008 NOSIG", "VEBN 060900Z 27012KT 5000 HZ NSC 37/17 Q1004 NOSIG", "VEBS 060900Z 16002KT 5000 HZ SCT020 SCT100 35/30 Q1005 NOSIG", "VEBU 060830Z 05005KT 6000 FEW025 36/15 Q1006 NOSIG", "VECC 060900Z 05004KT 3800 HZ SCT020 SCT100 35/25 Q1003 NOSIG", "VECO 060900Z 25005KT 4500 HZ SCT025 34/20 Q1002 NOSIG", "VEDG 060900Z 43008KT 6000 FEW020 SCT100 37/12 Q1003 NOSIG", "VEDO 060900Z 27011KT 7000 NSC 36/07 Q1005 NOSIG", "VEGT 060900Z 24008KT 5000 HZ FEW018 SCT100 39/24 Q1002 NOSIG", "VEGY 060900Z 25015G25KT 7000 NSC 38/14 Q1004 NOSIG", "VEHO 060900Z 04005KT 5000 SCT020 BKN090 25/21 Q1005 NOSIG", "VEIM 060900Z 27007KT 7000 FEW018 32/17 Q1008 NOSIG", "VEJH 060900Z 34005KT 4000 HZ BKN020 BKN100 38/16 Q1004", "VEJR 060900Z 14004KT 6000 FEW025 SCT030 33/19 Q1008", "VEJS 060900Z 31002KT 5000 HZ FEW025 37/16 Q1004", "VEKI 060900Z 30010KT 5000 HZ NSC 36/14 Q1002 NOSIG", "VEKO 060900Z 32003KT 6000 SCT020 SCT025 37/17 Q1005", "VELP 060900Z 35004KT 4000 HZ SCT018 34/18 Q1006 NOSIG", "VELR 060900Z 05012KT 3000 -DZ SCT008 BKN016 FEW025CB OVC080 24/20 Q1006", "VEMN 060900Z 11010KT 4000 BR SCT018 FEW025CB BKN100 23/20 Q1006 NOSIG", "VEMR 060900Z 22004KT 6000 SCT020 36/16 Q1003 NOSIG", "VEPT 060900Z 28009KT 6000 FEW018 37/17 Q1002 NOSIG", "VERC 060900Z 27005KT 6000 FEW020 35/12 Q1008 NOSIG", "VERP 060900Z 32002KT 6000 BKN025 36/18 Q1005 NOSIG", "VERU 060900Z 24008KT 5000 HZ FEW025 32/14 Q1002 NOSIG", "VGEG 060900Z 25008KT 5000 SCT018 BKN100 32/25 Q1004 NOSIG", "VGHS 060900Z 27010KT 3500 TSRA BKN010 FEW025CB BKN100 32/24 Q1004 TEMPO TSRA", "VHHH 060900Z 20012KT 9999 FEW008 SCT028 30/24 Q1002 NOSIG", "VIAR 060900Z 26008KT 6000 FEW035 35/14 Q1006 NOSIG", "VIDN 060900Z 25012KT 6000 SCT030 30/14 Q1008", "VIDP 060900Z 30005KT 4500 HZ SCT035 SCT100 31/12 Q1007 BECMG 5000 HZ", "VIJP 060900Z 32006KT 6000 SCT030 SCT100 37/14 Q1007 NOSIG", "VILK 060900Z 31012KT 5000 HZ FEW020 36/19 Q1004 NOSIG", "VIPT 060900Z 27007G17KT 5000 HZ FEW030 32/16 Q1006", "VLLB 060900Z 24008KT 9999 SCT020 FEW060 42/19 Q0998 NOSIG", "VLLN 060900Z 22006KT 9999 FEW020 37/19 Q1003 NOSIG", "VLPS 060900Z 18006KT 9999 SCT020 40/23 Q1002 NOSIG", "VLVT 060900Z 32006KT 8000 SCT020 42/25 Q0998 NOSIG", "VMMC 060900Z 17007KT 9999 FEW006 SCT015 27/26 Q1001 NOSIG", "VNKT 060930Z 28008KT 9999 FEW020 SCT040 27/14 Q1010 NOSIG", "VOBL 060900Z 21010KT 4000 VCSH SCT015 SCT020 FEW025CB OVC080 23/23 Q1011 NOSIG", "VOBM 060900Z 02005KT 9999 SCT012 SCT018 35/16 Q1011", "VOBZ 060900Z 14006KT 6000 FEW020 SCT025 FEW030CB 36/24 Q1003 NOSIG", "VOCB 060900Z 20009KT 6000 FEW012 FEW020CB BKN080 33/22 Q1007 NOSIG", "VOCI 060900Z 27009KT 6000 FEW015 SCT020 BKN080 33/25 Q1006 NOSIG", "VOCL 060830Z 27010KT 6000 FEW015 FEW025TCU 33/21 Q1007 NOSIG", "VOCP 060900Z 32006KT 6000 FEW020 SCT025 FEW030CB 35/18 Q1004 NOSIG", "VOGA 060900Z 27016KT 6000 FEW020 33/19 Q1006 NOSIG", "VOHB 060900Z 16003KT 9999 FEW015 34/18 Q1009", "VOHS 060900Z VRB04KT 5000 HZ SCT015 FEW030CB BKN100 31/22 Q1009 TEMPO 3000 TSRA", "VOJV 060900Z 28008KT 7000 SCT015 34/16 Q1008", "VOKN 060900Z 31012KT 8000 SCT012 FEW025TCU 35/23 Q1006 NOSIG", "VOKU 060900Z 30004KT 6000 SCT018 36/17 Q1005", "VOML 060900Z 27012KT 9999 FEW015 34/21 Q1006 NOSIG", "VOMM 060900Z 11012KT 5000 HZ SCT020 FEW025CB BKN100 32/27 Q1005 NOSIG", "VOPC 060900Z 14002KT 6000 SCT020 OVC100 33/24 Q1006 NOSIG", "VORY 060900Z 20006KT 6000 FEW020 SCT025 FEW030CB 37/25 Q1003 NOSIG", "VOSM 060900Z 00000KT 8000 SCT020 FEW025TCU SCT100 33/21 Q1005 NOSIG", "VOSR 060830Z 28016KT 5000 FU FEW030 SCT090 32/20 Q1007 NOSIG", "VOTK 060900Z 12010KT 6000 FEW020 SCT100 35/22 Q1005 NOSIG", "VOTV 060900Z 27007KT 6000 FEW015 FEW025TCU BKN080 33/25 Q1007 NOSIG", "VOVZ 060900Z 23009KT 6000 SCT018 FEW025CB 34/24 Q1004 NOSIG", "VQPR 060900Z VRB09G19KT 9999 FEW060 25/03 Q1013", "VRMH 060900Z 29006KT 9999 FEW018 BKN260 32/26 Q1008", "VRMM 060900Z 25011KT 9999 SCT016 FEW017CB BKN260 30/25 Q1008 CB N,E,W,OVERHEAD TEMPO 5000 SHRA", "VTBD 060900Z VRB06KT 9999 FEW030 40/21 Q1000 NOSIG", "VTBO 060900Z 21010KT 8000 FEW018 34/26 Q1003", "VTBS 060900Z 19012KT 9999 FEW020 36/24 Q1000 NOSIG", "VTBU 060900Z 21012KT 9999 FEW020 38/22 Q1001 NOSIG", "VTCC 060900Z VRB05KT 9999 FEW035 39/19 Q1001 NOSIG", "VTCH 060900Z 23004KT 130V300 9999 BKN025 41/18 Q1000 NOSIG", "VTCL 060900Z 22004KT 190V260 9999 FEW025 42/18 Q1000 NOSIG", "VTCN 060900Z 18006KT 9999 FEW030 40/22 Q0999 NOSIG", "VTCP 060900Z 21010KT 180V250 9999 FEW030 42/19 Q0999 NOSIG", "VTCT 060900Z VRB02KT 9999 FEW030 38/21 Q1001 NOSIG", "VTPB 060900Z VRB03KT 9000 FEW030 41/21 Q0999 NOSIG", "VTPH 060900Z 14008KT 9999 FEW030 34/25 Q1001 NOSIG", "VTPM 060900Z 25009KT 220V290 9999 FEW040 37/19 Q1002 NOSIG", "VTPO 060900Z 31003KT 9999 FEW025 42/19 Q0999 NOSIG", "VTPP 060900Z VRB02KT CAVOK 40/21 Q0999 NOSIG", "VTPT 060900Z /////KT 9999 FEW026 40/23 Q1000 NOSIG", "VTSB 060900Z 13003KT 080V220 9999 -TSRA FEW018CB 35/23 Q1002 NOSIG", "VTSC 060900Z 01009KT 9999 FEW022 33/26 Q1003 NOSIG", "VTSE 060900Z 13006KT 9999 -RA FEW018TCU SCT020 33/27 Q1002 NOSIG", "VTSF 060900Z 05009KT 340V070 9999 FEW018 36/28 Q1002 NOSIG", "VTSG 060900Z 19011KT 9999 FEW020 34/27 Q1003 NOSIG", "VTSM 060900Z 32005KT 9999 FEW020 36/27 Q1003 NOSIG", "VTSP 060900Z 28011KT 9999 FEW020 32/26 Q1003 NOSIG", "VTSR 060900Z 29008KT 250V340 9999 FEW020 34/24 Q1003 NOSIG", "VTSS 060900Z 23012KT 9999 SCT020 BKN100 33/26 Q1003 NOSIG", "VTST 060900Z 24007KT 9999 SCT030 34/24 Q1003 NOSIG", "VTSY 060900Z 22008KT 190V250 9999 FEW030 29/25 Q1005 NOSIG", "VTUD 060900Z VRB05KT 9999 FEW030 42/19 Q0998 NOSIG", "VTUI 060900Z VRB02KT 9999 -RA BKN030 37/26 Q0999 NOSIG", "VTUK 060900Z 19007KT 150V220 9999 SCT030 39/22 Q1000 NOSIG", "VTUL 060900Z 24005KT 180V310 9999 BKN040 41/22 Q0999 NOSIG", "VTUO 060900Z 24005KT 200V300 9999 SCT035 39/18 Q1000 NOSIG", "VTUQ 060900Z 21004KT 150V280 9000 SCT030 39/21 Q1001 NOSIG", "VTUU 060900Z 22006KT 190V250 9999 FEW045 39/24 Q1000 NOSIG", "VTUV 060900Z 22007KT 160V260 9000 FEW040 40/21 Q0999 NOSIG", "VTUW 060900Z 23005KT 190V310 7000 FEW040 41/19 Q0999 NOSIG", "VVCI 060900Z 14010KT CAVOK 31/27 Q0997 NOSIG", "VVCR 060900Z 23010KT CAVOK 36/24 Q1002 NOSIG", "VVCT 060900Z 26007KT 220V320 9999 FEW020 33/25 Q1002 NOSIG", "VVDN 060900Z 10006KT 9999 FEW015 32/26 Q1000 NOSIG", "VVNB 060900Z 11007KT 080V160 CAVOK 38/27 Q0996 NOSIG", "VVPB 060900Z 07007KT CAVOK 36/26 Q0999 NOSIG", "VVPQ 060900Z 25008KT 9999 FEW017 33/26 Q1003 NOSIG", "VVTS 060900Z 25006KT 190V340 9999 FEW023 38/22 Q1001 NOSIG", "VVVD 060900Z 18011KT CAVOK 32/26 Q0998 NOSIG", "VYMD 060830Z 14005KT 7000 BKN020 FEW025CB SCT120 40/18 Q1001", "VYNT 060900Z 21008KT 7000 SCT020 FEW025TCU SCT120 40/21 Q1002 NOSIG", "VYYY 060900Z 31007KT 8000 FEW025 40/25 Q1001 NOSIG", "WAAA 060900Z 31005KT 280V340 9999 FEW018 SCT019 31/23 Q1004 NOSIG RMK CB IN APCH", "WABB 060900Z VRB02KT 9999 SCT018 BKN100 29/25 Q1005 NOSIG", "WADD 060900Z 14015KT 9999 FEW017 29/25 Q1006 NOSIG", "WADL 060900Z 13009KT 8000 BKN016 30/24 Q1007 NOSIG", "WAHS 060900Z 31008KT 7000 FEW013CB FEW014 32/25 Q1005 NOSIG RMK CB TO E AND S", "WAJJ 060900Z 27003KT 9999 FEW013 28/24 Q1005 NOSIG", "WALL 060900Z 22004KT 9999 FEW020 29/26 Q1004 NOSIG", "WAMM 060900Z 11004KT 9000 FEW019CB SCT020 29/26 Q1005 NOSIG RMK CB IN CLIMB METAR ", "WAOO 060900Z 16004KT 120V200 9999 FEW020 28/25 Q1004 NOSIG", "WAPP 060900Z 26004KT 210V290 9999 FEW015CB SCT016 28/25 Q1005 RETS NOSIG RMK CB TO NE AND E", "WAQQ 060900Z 08004KT 9999 OVC015 30/26 Q1004", "WARR 060900Z 06006KT 9999 FEW020 31/26 Q1005 NOSIG", "WATT 060900Z 11010KT 9999 FEW018 30/23 Q1007 NOSIG", "WBGB 060900Z 22006KT 170V260 9999 SCT016 28/25 Q1006 RETS", "WBGG 060900Z 32006KT 280V350 8000 -TSRA FEW015CB SCT020 27/24 Q1004 NOSIG", "WBGR 060900Z 28004KT 200V360 9999 FEW016 31/26 Q1004", "WBGS 060900Z VRB02KT 9999 FEW015CB SCT017 28/26 Q1005", "WBGY 060900Z 10005KT 050V160 9999 TS FEW015CB SCT020 26/25 Q1005", "WBKK 060900Z VRB02KT 9999 FEW014 31/26 Q1005 NOSIG", "WBKL 060900Z VRB02KT 9999 FEW014 FEW017CB 30/26 Q1005", "WBKS 060900Z VRB02KT 9999 FEW015 FEW016CB SCT045 28/26 Q1004", "WBKT 060900Z 24003KT 190V300 9999 FEW014 28/25 Q1005", "WBKW 060900Z VRB02KT 9999 FEW016 29/26 Q1004", "WBSB 060900Z 22004KT 9999 FEW014 FEW015CB SCT140 BKN270 28/26 Q1005 RETS NOSIG", "WIBB 060900Z 30009KT 130V350 9999 SCT013 FEW015CB 33/26 Q1002 NOSIG RMK CB TO SW-S", "WIDD 060900Z 11004KT 9999 TS FEW013CB SCT014 30/26 Q1006 NOSIG RMK CB TO SE", "WIDN 060900Z 20009KT 9999 FEW017 31/26 Q1005 NOSIG", "WIEE 060900Z 35007KT 9999 SCT018 27/24 Q1006 RERA NOSIG", "WIHH 060900Z 36005KT 5000 HZ SCT018 32/25 Q1004 NOSIG ", "WIII 060900Z 02006KT 9999 FEW020 30/24 Q1005 NOSIG", "WILL 060900Z 21005KT 9999 SCT015 31/23 Q1005 NOSIG", "WIMM 060900Z 33007KT 8000 FEW016CB SCT017 30/26 Q1004 NOSIG RMK CB TO S, W", "WIOO 060900Z 28003KT 9999 SCT012 29/26 Q1004 NOSIG", "WIPP 060900Z 11006KT 9999 BKN010 31/25 Q1004 NOSIG", "WMAU 060900Z VRB04KT 5000 TSRA FEW025CB SCT025 26/25 Q1004", "WMBA 060900Z VRB04KT 9999 SCT020 33/26 Q1004", "WMKA 060900Z 24007KT 150V320 9999 SCT020 31/27 Q1003", "WMKB 060900Z 30008KT 240V360 9999 FEW020 31/25 Q1004 NOSIG", "WMKC 060900Z 04010KT 350V070 9999 FEW018 32/26 Q1003", "WMKD 060900Z VRB03KT 9999 TS FEW017CB SCT019 34/25 Q1003 NOSIG", "WMKE 060900Z VRB01KT 9999 FEW014CB SCT017 30/26 Q1004", "WMKI 060900Z VRB05KT 9999 FEW017CB 30/26 Q1004", "WMKJ 060900Z VRB05KT 9999 FEW017CB 32/26 Q1004", "WMKK 060900Z 25006KT 170V260 9000 VCSH FEW017CB 32/26 Q1004 NOSIG", "WMKL 060900Z VRB03KT 9999 FEW017CB 31/26 Q1004", "WMKM 060900Z VRB05KT 9999 FEW020 32/25 Q1005", "WMKN 060900Z 05005KT 340V120 9999 FEW018 33/26 Q1003", "WMKP 060900Z VRB02KT 9999 FEW017CB 31/26 Q1004 NOSIG", "WMSA 060900Z 34007KT 280V030 9999 FEW017CB 30/26 Q1004", "WSAP 060900Z 22008KT 9999 FEW020TCU BKN280 33/23 Q1004", "WSSL 060900Z 24006KT 190V300 9999 FEW020 BKN280 32/24 Q1004", "WSSS 060900Z 19008KT 170V240 9999 FEW018 FEW020CB FEW022TCU SCT280 32/25 Q1004 NOSIG", "YAMB 060900Z AUTO 07006KT 9999 // NCD 20/15 Q1017 RF00.0/000.0", "YBAS 060900Z AUTO 14010KT 9999 // NCD 19/03 Q1021 RF00.0/000.0", "YBBN 060900Z 02005KT CAVOK 18/15 Q1018", "YBCG 060900Z AUTO 36004KT 9999 // SCT064 17/15 Q1018 RF00.0/000.0", "YBCS 060900Z AUTO 17006KT 9999 // OVC048 25/21 Q1012 RF00.0/000.0", "YBHM 060900Z AUTO 12017KT 9999 // NCD 25/18 Q1015 RF00.0/000.0", "YBLN 060900Z AUTO 09011KT 9999 // SCT110 18/07 Q1021 RF00.0/000.0", "YBMA 060900Z AUTO 17010KT 9999 // NCD 26/05 Q1015 RF00.0/000.0", "YBRK 060900Z AUTO 12005KT 9999 // NCD 22/16 Q1016 RF00.0/000.0", "YBRM 060900Z AUTO 14005KT 9999 // NCD 29/19 Q1009 RF00.0/000.0", "YBSU 060900Z AUTO 30005KT 9999 // NCD 16/14 Q1018 RF00.0/000.0", "YBTL 060900Z AUTO 11012KT 9999 // SCT045 SCT072 25/19 Q1014", "YBWW 060900Z AUTO 05004KT 9999 // NCD 18/11 Q1017 RF00.0/000.0", "YCFS 060900Z AUTO 36005KT 9999 // NCD 17/14 Q1017 RF00.0/000.0", "YCIN 060900Z AUTO 16006KT 9999 // NCD 31/14 Q1009 RF00.0/000.0", "YFRT 060900Z AUTO 12013KT 9999 // SCT051 16/07 Q1026 RF00.0/000.0", "YGEL 060900Z AUTO 15009KT 9999 // OVC096 19/17 Q1016 RF00.0/002.4", "YGLA 060900Z AUTO 11005KT 9999 // NCD 23/13 Q1017 RF00.0/000.0", "YHID 060923Z AUTO 16005KT 9999 // SCT014 SCT027 BKN068 27/26 Q1009", "YLHI 060900Z AUTO 08012KT 9999 // SCT046 20/10 Q1019 RF00.0////./", "YMAV 060900Z AUTO 27005KT 9999 // SCT088 07/05 Q1022 RF00.0/000.8", "YMHB 060900Z 20007KT 9999 FEW040 06/02 Q1021", "YMLT 060900Z AUTO 16007KT 9999 // BKN115 06/M00 Q1020 RF00.0/000.0", "YMML 060900Z AUTO 23009KT 9999 // SCT029 BKN035 BKN044 08/06 Q1022", "YPAD 060830Z 18009KT 9999 FEW042 SCT057 11/03 Q1026 RF00.0/000.6", "YPCC 060900Z AUTO 19011KT 9999 // SCT014 29/26 Q1006 RF00.0/000.0", "YPDN 060900Z 02005KT 9999 FEW030 SCT091 30/24 Q1008 RF00.0/000.0", "YPEA 060903Z AUTO 07015G25KT 9999 // SCT076 BKN093 OVC110 17/10 Q1019", "YPGV 060900Z AUTO 11007KT 9999 // SCT019 SCT023 27/25 Q1009", "YPJT 060900Z AUTO 07010KT 9999 // SCT105 SCT125 16/11 Q1020", "YPKG 060900Z AUTO 07008KT 9999 // NCD 18/06 Q1024 RF00.0/000.0", "YPKU 060900Z AUTO 11006KT 9999 // ////// 31/17 Q1009 RF00.0/000.0", "YPLM 060900Z AUTO 03010KT 9999 // NCD 28/16 Q1012 RF00.0/000.0", "YPPD 060900Z AUTO 11010KT 9999 // NCD 30/06 Q1011 RF00.0/000.0", "YPPH 060900Z 06015KT CAVOK 17/10 Q1019 BKN160", "YPTN 060900Z AUTO 11006KT 9999 // NCD 30/17 Q1009 RF00.0/000.0", "YPWR 060900Z AUTO 15015KT 9999 // SCT064 14/05 Q1025 RF00.0/000.0", "YPXM 060900Z AUTO 08007KT 9999 // SCT013 28/24 Q1008 RF00.0/000.2", "YSCB 060900Z AUTO 28004KT 9999 // OVC056 11/06 Q1018 RF00.0/000.0", "YSDU 060900Z AUTO 19005KT 9999 // NCD 14/04 Q1018 RF00.0/000.0", "YSNF 060918Z AUTO 09007KT 9999 // BKN016 20/19 Q1016 RF00/0/000/0", "YSRI 060900Z AUTO 00000KT 9999 // NCD 12/10 Q1017 RF00.0/000.0", "YSSY 060900Z AUTO 14005KT 9999 // NCD 17/10 Q1017 RF00.0/000.0", "YSTW 060900Z AUTO 10005KT //// // NCD 12/03 Q1018 RF00.0/000.0", "YWLM 060900Z AUTO 00000KT 9999 // NCD 13/09 Q1016 RF00.0/000.0", "ZBAA 060900Z 27004MPS 220V300 CAVOK 24/M03 Q1014 NOSIG", "ZBAD 060900Z 02002MPS 340V060 CAVOK 24/M03 Q1015 NOSIG", "ZBHH 060900Z 06006MPS 9999 FEW040 17/M03 Q1019 NOSIG", "ZBSJ 060900Z 28004MPS CAVOK 17/11 Q1016 NOSIG", "ZBTJ 060900Z 34005MPS CAVOK 23/03 Q1014 BECMG TL1050 14003MPS", "ZBYN 060900Z 12002MPS 9999 -RA SCT020 10/06 Q1019 NOSIG", "ZGGG 060900Z 08003MPS 9999 OVC033 29/26 Q1001 NOSIG", "ZGHA 060900Z 34007MPS 4800 -RA BR SCT012 19/19 Q1005 NOSIG", "ZGKL 060900Z 04004MPS 9999 SCT026 OVC046 26/21 Q1001 NOSIG", "ZGNN 060900Z 10006MPS CAVOK 35/26 Q0997 NOSIG", "ZGOW 060900Z 21006MPS 9999 BKN040 30/23 Q1002 NOSIG", "ZGSZ 060900Z 17008MPS 9999 FEW020 BKN050 28/26 Q1001 NOSIG", "ZHCC 060900Z 01007MPS 9999 -RA NSC 18/07 Q1014 NOSIG", "ZHHH 060900Z 01003MPS 320V040 7000 -RA SCT033 17/15 Q1008 NOSIG", "ZJHK 060900Z 15005MPS 110V190 CAVOK 34/26 Q0998 NOSIG", "ZJSY 060900Z 16003MPS 110V210 9999 BKN020 31/26 Q1001 NOSIG", "ZLLL 060900Z 10006MPS 9999 SCT023 15/02 Q1016 NOSIG", "ZLXY 060900Z 05006MPS 8000 SCT011 OVC040 13/13 Q1014 NOSIG", "ZMCK 060930Z 31006MPS 270V350 9999 BKN250 12/M12 Q1024 NOSIG", "ZMUB 060900Z 34004MPS 9999 BKN250 13/M14 Q1024 NOSIG RMK QFE660.1 14 MOP", "ZPPP 060900Z 25010G15MPS 220V280 9999 SCT030 29/06 Q1012 NOSIG", "ZSAM 060900Z 21004MPS 9000 -TSRA FEW030CB OVC050 26/23 Q1003 RESHRA BECMG TL0930 TSRA", "ZSFZ 060900Z 20007MPS 9999 -SHRA FEW020 SCT050 25/23 Q1002 BECMG TL1030 TSRA FEW026CB", "ZSHC 060900Z 04006MPS 3000 -RA BR SCT010 BKN017 OVC040 19/19 Q1005 BECMG TL0930 2000 BKN007 BKN017", "ZSNB 060900Z 03003MPS 340V080 3500 -SHRA BR FEW007 BKN020 OVC050 18/17 Q1006 NOSIG", "ZSNJ 060900Z 05003MPS 010V070 9999 BKN020 OVC046 20/15 Q1007 NOSIG", "ZSOF 060900Z 36003MPS 9999 OVC033 19/15 Q1008 NOSIG", "ZSPD 060900Z 03007MPS 9999 FEW020 18/15 Q1006 NOSIG", "ZSQD 060900Z 03007G12MPS 9999 BKN043 19/09 Q1010 BECMG TL1050 02002MPS", "ZSSS 060900Z 04005MPS 9999 SCT020 20/15 Q1006 NOSIG", "ZUCK 060900Z VRB02MPS 9999 FEW026 SCT050 23/17 Q1006 NOSIG", "ZUGY 060900Z 04005MPS 9999 SCT026 24/16 Q1007 NOSIG", "ZUTF 060900Z 31004MPS 270V350 9999 SCT030 28/14 Q1004 NOSIG", "ZUUU 060900Z 22004MPS 190V250 9999 FEW033 27/14 Q1005 NOSIG", "ZWSH 060900Z VRB03MPS 9999 SCT040 15/M02 Q1015 NOSIG", "ZWWW 060900Z 01005MPS 330V040 9999 FEW040 13/M07 Q1022 NOSIG", "ZYCC 060900Z 36002MPS 300V040 CAVOK 20/M09 Q1014 NOSIG", "ZYHB 060900Z 29004MPS 240V330 CAVOK 20/M05 Q1013 NOSIG", "ZYTL 060900Z 09003MPS 060V120 CAVOK 20/07 Q1011 NOSIG", "ZYTX 060900Z 02006MPS CAVOK 22/M04 Q1013 NOSIG"]}