{"station_id": ["AGGH", "ANYN", "AYMH", "AYPY", "BGBW", "BGGH", "BGJN", "BGKK", "BGSF", "BGTL", "BIAR", "BIEG", "BIKF", "BIRK", "CAHR", "CBBC", "CERM", "CMFM", "CMGB", "CPBT", "CPEH", "CPFI", "CPIN", "CPIR", "CPRO", "CPRY", "CPST", "CPSV", "CTCK", "CTNK", "CTRA", "CWAE", "CWAF", "CWAJ", "CWAQ", "CWAR", "CWAV", "CWBA", "CWBK", "CWBO", "CWBS", "CWBT", "CWBU", "CWBV", "CWBY", "CWBZ", "CWCF", "CWCI", "CWCJ", "CWCO", "CWCT", "CWDA", "CWDJ", "CWDK", "CWDM", "CWDO", "CWDQ", "CWDV", "CWDZ", "CWEE", "CWEF", "CWEH", "CWEL", "CWEP", "CWEQ", "CWER", "CWEU", "CWEW", "CWEZ", "CWFF", "CWFJ", "CWFQ", "CWGB", "CWGD", "CWGH", "CWGL", "CWGM", "CWGR", "CWGT", "CWGY", "CWHI", "CWHL", "CWHO", "CWHP", "CWHQ", "CWHT", "CWHV", "CWID", "CWIG", "CWII", "CWIJ", "CWIK", "CWIL", "CWIP", "CWIS", "CWIT", "CWIW", "CWIZ", "CWJB", "CWJC", "CWJD", "CWJH", "CWJI", "CWJO", "CWJR", "CWJU", "CWJV", "CWJW", "CWJX", "CWKD", "CWKG", "CWKH", "CWKM", "CWKO", "CWKX", "CWLB", "CWLC", "CWLE", "CWLM", "CWLP", "CWLS", "CWLX", "CWLY", "CWME", "CWMJ", "CWMM", "CWMQ", "CWMT", "CWNC", "CWND", "CWNE", "CWNH", "CWNK", "CWNM", "CWNP", "CWNQ", "CWNZ", "CWOB", "CWOC", "CWOD", "CWOE", "CWOY", "CWPD", "CWPE", "CWPF", "CWPK", "CWPO", "CWPR", "CWPZ", "CWQH", "CWQK", "CWQO", "CWQP", "CWQR", "CWQS", "CWQV", "CWRA", "CWRJ", "CWRK", "CWRM", "CWRN", "CWRU", "CWRY", "CWRZ", "CWSA", "CWSD", "CWSF", "CWSG", "CWSK", "CWSL", "CWSP", "CWSR", "CWSS", "CWST", "CWSW", "CWTA", "CWTG", "CWTN", "CWTT", "CWTY", "CWUS", "CWUW", "CWUX", "CWVF", "CWVI", "CWVN", "CWVP", "CWVQ", "CWVT", "CWVU", "CWWA", "CWWB", "CWWE", "CWWF", "CWWK", "CWWL", "CWWS", "CWWZ", "CWXA", "CWXC", "CWXI", "CWXL", "CWYJ", "CWYY", "CWZA", "CWZG", "CWZL", "CWZN", "CWZO", "CWZQ", "CWZW", "CXAF", "CXAG", "CXAJ", "CXAK", "CXAT", "CXBA", "CXBI", "CXBK", "CXBO", "CXBR", "CXBW", "CXCA", "CXCD", "CXCK", "CXCP", "CXCS", "CXDB", "CXDE", "CXDI", "CXDK", "CXDW", "CXEA", "CXEC", "CXET", "CXFM", "CXFR", "CXGH", "CXHA", "CXHD", "CXHM", "CXHP", "CXHR", "CXIB", "CXKA", "CXKE", "CXKI", "CXKM", "CXKT", "CXLB", "CXLL", "CXMD", "CXMG", "CXMI", "CXMM", "CXMO", "CXMY", "CXNM", "CXNP", "CXOL", "CXOX", "CXOY", "CXPA", "CXPC", "CXPL", "CXRB", "CXRH", "CXRL", "CXSC", "CXSE", "CXSH", "CXSL", "CXSP", "CXTD", "CXTH", "CXTN", "CXTO", "CXTP", "CXTV", "CXVM", "CXVN", "CXVW", "CXWM", "CXWN", "CXYH", "CXZC", "CXZV", "CYAB", "CYAH", "CYAM", "CYAT", "CYAY", "CYAZ", "CYBB", "CYBC", "CYBD", "CYBG", "CYBK", "CYBL", "CYBQ", "CYBR", "CYBU", "CYBW", "CYBX", "CYCA", "CYCB", "CYCD", "CYCG", "CYCK", "CYCO", "CYCP", "CYCQ", "CYCY", "CYDA", "CYDB", "CYDC", "CYDF", "CYDL", "CYDN", "CYDP", "CYDQ", "CYEG", "CYEK", "CYEN", "CYER", "CYET", "CYEV", "CYFB", "CYFC", "CYFO", "CYFS", "CYGE", "CYGH", "CYGK", "CYGL", "CYGP", "CYGR", "CYGV", "CYGW", "CYGX", "CYHD", "CYHE", "CYHK", "CYHM", "CYHU", "CYHY", "CYHZ", "CYIN", "CYIO", "CYIV", "CYJT", "CYKA", "CYKD", "CYKJ", "CYKL", "CYKP", "CYKY", "CYLD", "CYLJ", "CYLL", "CYLW", "CYMA", "CYMH", "CYMM", "CYMO", "CYMT", "CYMX", "CYNA", "CYND", "CYNE", "CYNM", "CYOD", "CYOJ", "CYOO", "CYOW", "CYPA", "CYPC", "CYPD", "CYPE", "CYPH", "CYPL", "CYPO", "CYPQ", "CYPR", "CYPW", "CYPX", "CYPY", "CYQA", "CYQB", "CYQD", "CYQF", "CYQG", "CYQH", "CYQI", "CYQK", "CYQL", "CYQM", "CYQQ", "CYQR", "CYQT", "CYQU", "CYQV", "CYQW", "CYQX", "CYQY", "CYQZ", "CYRB", "CYRJ", "CYRL", "CYRQ", "CYRT", "CYRV", "CYSB", "CYSC", "CYSF", "CYSJ", "CYSM", "CYSN", "CYTE", "CYTH", "CYTL", "CYTR", "CYTS", "CYTZ", "CYUA", "CYUB", "CYUL", "CYUX", "CYUY", "CYVC", "CYVL", "CYVM", "CYVO", "CYVP", "CYVQ", "CYVR", "CYVT", "CYVV", "CYWE", "CYWG", "CYWH", "CYWJ", "CYWK", "CYWL", "CYXC", "CYXE", "CYXH", "CYXJ", "CYXL", "CYXQ", "CYXR", "CYXS", "CYXT", "CYXU", "CYXX", "CYXY", "CYXZ", "CYYB", "CYYC", "CYYD", "CYYE", "CYYF", "CYYG", "CYYJ", "CYYL", "CYYN", "CYYQ", "CYYR", "CYYT", "CYYU", "CYYY", "CYYZ", "CYZE", "CYZF", "CYZH", "CYZP", "CYZR", "CYZS", "CYZT", "CYZU", "CYZV", "CYZW", "CYZX", "CYZY", "CZBF", "CZCP", "CZCR", "CZDB", "CZEL", "CZEV", "CZFA", "CZFM", "CZFS", "CZHY", "CZKD", "CZMD", "CZMJ", "CZMT", "CZOL", "CZPC", "CZPS", "CZSJ", "CZSM", "CZSP", "CZST", "CZTB", "CZUM", "CZVL", "CZZJ", "DAAG", "DAAT", "DABB", "DABC", "DAON", "DAOO", "DAOY", "DAUE", "DAUH", "DAUI", "DAUK", "DAUL", "DAUO", "DAUT", "DAUU", "DFFD", "DFOO", "DGAA", "DIAP", "DIBK", "DIYO", "DNAA", "DNKN", "DNKT", "DNMM", "DNMN", "DNPO", "DNYO", "DRRN", "DTKA", "DTMB", "DTNH", "DTTA", "DTTB", "DTTD", "DTTF", "DTTG", "DTTJ", "DTTK", "DTTL", "DTTN", "DTTR", "DTTX", "DTTZ", "DXXX", "EBAW", "EBBE", "EBBL", "EBBR", "EBCI", "EBCV", "EBDT", "EBFN", "EBFS", "EBLB", "EBLG", "EBOS", "EDAC", "EDAH", "EDBC", "EDDB", "EDDC", "EDDE", "EDDF", "EDDG", "EDDH", "EDDK", "EDDL", "EDDM", "EDDN", "EDDP", "EDDR", "EDDS", "EDDV", "EDDW", "EDFH", "EDFM", "EDGS", "EDHI", "EDHK", "EDHL", "EDJA", "EDLN", "EDLP", "EDLV", "EDLW", "EDMA", "EDMO", "EDNY", "EDQM", "EDSB", "EDTL", "EDTY", "EDVE", "EDVK", "EDXW", "EEEI", "EEKE", "EEPU", "EETN", "EETU", "EFET", "EFHA", "EFHK", "EFIV", "EFJO", "EFJY", "EFKE", "EFKI", "EFKK", "EFKS", "EFKT", "EFKU", "EFLP", "EFMA", "EFMI", "EFOU", "EFPO", "EFRO", "EFSA", "EFSI", "EFTP", "EFTU", "EFUT", "EFVA", "EGAA", "EGAC", "EGBB", "EGCC", "EGCK", "EGDM", "EGDR", "EGDY", "EGEC", "EGFF", "EGGD", "EGGP", "EGGW", "EGHQ", "EGJB", "EGJJ", "EGKK", "EGLC", "EGLF", "EGLL", "EGMD", "EGNJ", "EGNM", "EGNS", "EGNT", "EGNX", "EGOM", "EGOP", "EGOS", "EGOV", "EGPA", "EGPB", "EGPC", "EGPD", "EGPE", "EGPF", "EGPH", "EGPI", "EGPK", "EGPL", "EGPO", "EGPU", "EGQA", "EGQK", "EGQL", "EGQM", "EGQS", "EGSH", "EGSS", "EGSY", "EGTE", "EGUB", "EGUL", "EGUN", "EGUW", "EGVA", "EGVN", "EGVO", "EGVP", "EGWC", "EGWU", "EGXC", "EGXE", "EGXS", "EGXT", "EGXV", "EGXW", "EGXZ", "EGYD", "EGYE", "EGYH", "EGYM", "EGYP", "EHAK", "EHAM", "EHBK", "EHDL", "EHDV", "EHEH", "EHFD", "EHFS", "EHGG", "EHGR", "EHHW", "EHJA", "EHJR", "EHKD", "EHKV", "EHLE", "EHLW", "EHMA", "EHMG", "EHPG", "EHRD", "EHSA", "EHSC", "EHVK", "EHVL", "EHWO", "EICK", "EIDW", "EIME", "EINN", "EKAH", "EKBI", "EKCH", "EKEB", "EKKA", "EKRK", "EKRN", "EKRS", "EKSB", "EKSP", "EKVD", "EKVG", "EKYT", "ELLX", "ENAL", "ENAN", "ENAT", "ENBL", "ENBN", "ENBO", "ENBR", "ENBS", "ENBV", "ENCN", "ENDR", "ENDU", "ENEV", "ENFB", "ENFL", "ENGC", "ENGM", "ENHD", "ENHE", "ENHF", "ENHK", "ENHM", "ENHV", "ENJS", "ENKB", "ENKR", "ENLA", "ENLE", "ENMH", "ENML", "ENMS", "ENNA", "ENNE", "ENNM", "ENOA", "ENOL", "ENOV", "ENQA", "ENQC", "ENQR", "ENRA", "ENRM", "ENRO", "ENRS", "ENRY", "ENSB", "ENSD", "ENSE", "ENSF", "ENSG", "ENSH", "ENSK", "ENSL", "ENSR", "ENSS", "ENTC", "ENTO", "ENUG", "ENUN", "ENVA", "ENVD", "ENWV", "ENZV", "EPBY", "EPGD", "EPKK", "EPKT", "EPLB", "EPLL", "EPMO", "EPPO", "EPRZ", "EPSC", "EPSY", "EPWA", "EPWR", "ESCF", "ESCM", "ESDF", "ESGG", "ESGJ", "ESGP", "ESGT", "ESIA", "ESIB", "ESKM", "ESKN", "ESKS", "ESMK", "ESMQ", "ESMS", "ESMT", "ESMX", "ESND", "ESNG", "ESNK", "ESNL", "ESNN", "ESNO", "ESNQ", "ESNS", "ESNU", "ESNV", "ESNX", "ESNZ", "ESOE", "ESOH", "ESOK", "ESOW", "ESPA", "ESPE", "ESSA", "ESSB", "ESSD", "ESSL", "ESSP", "ESST", "ESSV", "ESTA", "ESTL", "ESUP", "ESUT", "ETAD", "ETAR", "ETGG", "ETHA", "ETHB", "ETHC", "ETHF", "ETHL", "ETHN", "ETHS", "ETIH", "ETIK", "ETMN", "ETNH", "ETNL", "ETNN", "ETNS", "ETNT", "ETNW", "ETOU", "ETSB", "ETSH", "ETSI", "ETSL", "ETSN", "ETWM", "EVGA", "EVLA", "EVRA", "EVVA", "EYKA", "EYPA", "EYSA", "EYVI", "FABL", "FACT", "FAGG", "FAHS", "FAKN", "FALA", "FALE", "FALW", "FAOR", "FAPE", "FAPN", "FAUP", "FBMN", "FBPM", "FBSK", "FCBB", "FCPP", "FDBB", "FDMY", "FDPP", "FDST", "FEFF", "FGSL", "FIMP", "FJDG", "FKKD", "FKKR", "FKYS", "FMCZ", "FMEE", "FMEP", "FMMI", "FMMT", "FMNM", "FMSD", "FNLU", "FOOG", "FOOL", "FQBR", "FQCH", "FQMA", "FQNP", "FQPB", "FQQL", "FQTT", "FSIA", "FTTJ", "FWKI", "FZAA", "GABS", "GAKD", "GCFV", "GCGM", "GCHI", "GCLA", "GCLP", "GCRR", "GCTS", "GCXO", "GECE", "GEML", "GFLL", "GGOV", "GLRB", "GMAD", "GMFF", "GMFK", "GMFM", "GMFO", "GMMB", "GMME", "GMMI", "GMMN", "GMMW", "GMMX", "GMMZ", "GMTA", "GMTN", "GMTT", "GOBD", "GOGG", "GOGK", "GOGS", "GOOD", "GOOG", "GOOK", "GOSM", "GOSP", "GOSS", "GOTT", "GQNO", "GQPP", "GUCY", "GVAC", "GVNP", "GVSV", "HAAB", "HDAM", "HEAT", "HEBA", "HEBL", "HEGN", "HELX", "HEMA", "HEMM", "HEPS", "HESG", "HESH", "HESN", "HESW", "HETR", "HKEL", "HKJK", "HRYR", "HTDA", "HTMW", "HUEN", "K04V", "K04W", "K05U", "K06C", "K06D", "K08D", "K0A0", "K0A9", "K0CO", "K0E0", "K0F2", "K0J4", "K0R0", "K0S9", "K0V4", "K0VG", "K10G", "K12N", "K13K", "K14Y", "K15M", "K17J", "K18A", "K18H", "K19S", "K1A5", "K1A6", "K1A9", "K1AM", "K1BM", "K1BN", "K1BW", "K1CM", "K1CN", "K1CW", "K1DM", "K1DN", "K1EM", "K1EN", "K1EW", "K1F0", "K1FW", "K1GM", "K1GN", "K1H2", "K1HM", "K1HN", "K1HW", "K1IM", "K1IN", "K1IW", "K1JM", "K1JN", "K1JW", "K1KM", "K1LN", "K1LW", "K1M4", "K1MM", "K1MW", "K1NW", "K1OM", "K1ON", "K1OW", "K1P1", "K1R7", "K1R8", "K1S5", "K1U7", "K1V4", "K1V6", "K1YT", "K20U", "K20V", "K21D", "K22N", "K24A", "K24J", "K27K", "K28J", "K2A0", "K2C8", "K2D5", "K2DP", "K2G4", "K2G9", "K2I0", "K2IS", "K2J3", "K2J5", "K2J9", "K2M2", "K2P2", "K2R9", "K2V5", "K2V6", "K2W6", "K2WX", "K33N", "K33V", "K35A", "K38S", "K3AU", "K3D2", "K3F3", "K3K3", "K3L4", "K3N8", "K3R7", "K3S8", "K3T5", "K3U3", "K40B", "K40U", "K41U", "K42J", "K46D", "K46U", "K48A", "K49A", "K4A6", "K4A9", "K4BM", "K4F2", "K4I3", "K4M9", "K4MR", "K4O4", "K4R5", "K4S1", "K4S2", "K4U6", "K4V0", "K4V1", "K54A", "K54J", "K57C", "K5A6", "K5C1", "K5H4", "K5R8", "K5SM", "K5T9", "K63S", "K65S", "K66R", "K6A1", "K6A2", "K6B0", "K6B9", "K6I2", "K6L4", "K6P9", "K6R3", "K6R6", "K6S0", "K6S2", "K6S8", "K77S", "K79J", "K7BM", "K7L2", "K7W4", "K7W6", "K81R", "K82C", "K8A0", "K8A3", "K8B0", "K8D3", "K8T6", "K8W2", "K96D", "K9A5", "K9D7", "K9L2", "K9MN", "K9S9", "K9V9", "KA39", "KAAA", "KAAF", "KAAO", "KAAS", "KAAT", "KABE", "KABH", "KABI", "KABQ", "KABR", "KABY", "KACB", "KACJ", "KACK", "KACP", "KACQ", "KACT", "KACV", "KACY", "KACZ", "KADC", "KADF", "KADG", "KADH", "KADM", "KADS", "KADT", "KADU", "KADW", "KAEG", "KAEJ", "KAEL", "KAEX", "KAFF", "KAFJ", "KAFK", "KAFN", "KAFO", "KAFP", "KAFW", "KAGC", "KAGI", "KAGO", "KAGS", "KAHN", "KAHQ", "KAIA", "KAIG", "KAIK", "KAIO", "KAIT", "KAIZ", "KAJG", "KAJO", "KAJR", "KAJZ", "KAKH", "KAKO", "KAKQ", "KAKR", "KALB", "KALI", "KALK", "KALM", "KALN", "KALO", "KALS", "KALW", "KAMA", "KAMG", "KAMN", "KAMW", "KANB", "KAND", "KANE", "KANJ", "KANK", "KANQ", "KANW", "KAOH", "KAOO", "KAPA", "KAPC", "KAPF", "KAPN", "KAPS", "KAPY", "KAQO", "KAQP", "KAQV", "KAQW", "KAQX", "KARA", "KARB", "KARG", "KARM", "KARR", "KART", "KARV", "KARW", "KASD", "KASE", "KASG", "KASH", "KASJ", "KASL", "KASN", "KAST", "KASW", "KASX", "KATA", "KATL", "KATP", "KATS", "KATT", "KATW", "KATY", "KAUG", "KAUH", "KAUM", "KAUN", "KAUO", "KAUS", "KAUW", "KAVC", "KAVL", "KAVP", "KAVQ", "KAVX", "KAWG", "KAWM", "KAWO", "KAXA", "KAXH", "KAXN", "KAXS", "KAXV", "KAXX", "KAYS", "KAZC", "KAZE", "KAZO", "KBAC", "KBAD", "KBAF", "KBAK", "KBAM", "KBAN", "KBAX", "KBAZ", "KBBB", "KBBD", "KBBG", "KBBP", "KBBW", "KBCB", "KBCE", "KBCK", "KBCT", "KBDE", "KBDG", "KBDH", "KBDL", "KBDN", "KBDR", "KBDU", "KBEA", "KBEC", "KBED", "KBEH", "KBFD", "KBFF", "KBFI", "KBFL", "KBFM", "KBFR", "KBGD", "KBGE", "KBGF", "KBGM", "KBGR", "KBHB", "KBHC", "KBHK", "KBHM", "KBID", "KBIE", "KBIF", "KBIH", "KBIJ", "KBIL", "KBIS", "KBIV", "KBIX", "KBJC", "KBJI", "KBJJ", "KBKB", "KBKD", "KBKE", "KBKF", "KBKL", "KBKN", "KBKS", "KBKT", "KBKV", "KBKW", "KBKX", "KBLF", "KBLI", "KBLM", "KBLU", "KBLV", "KBMC", "KBMG", "KBMI", "KBML", "KBMQ", "KBMT", "KBNA", "KBNL", "KBNO", "KBNW", "KBOI", "KBOK", "KBOS", "KBPC", "KBPG", "KBPI", "KBPT", "KBQK", "KBQP", "KBQX", "KBRD", "KBRG", "KBRL", "KBRO", "KBRY", "KBTA", "KBTL", "KBTM", "KBTN", "KBTP", "KBTR", "KBTV", "KBUF", "KBUR", "KBUU", "KBUY", "KBVI", "KBVN", "KBVO", "KBVS", "KBVU", "KBVX", "KBVY", "KBWD", "KBWG", "KBWI", "KBWP", "KBWW", "KBXA", "KBXK", "KBYG", "KBYI", "KBYL", "KBYS", "KBYY", "KBZN", "KC09", "KC29", "KC35", "KC62", "KC65", "KC75", "KC83", "KC99", "KCAD", "KCAE", "KCAG", "KCAK", "KCAO", "KCAR", "KCAV", "KCBE", "KCBF", "KCBG", "KCBK", "KCBM", "KCCA", "KCCB", "KCCO", "KCCR", "KCCU", "KCCY", "KCDA", "KCDC", "KCDD", "KCDH", "KCDI", "KCDJ", "KCDN", "KCDR", "KCDS", "KCDW", "KCEC", "KCEF", "KCEU", "KCEW", "KCEY", "KCEZ", "KCFD", "KCFE", "KCFJ", "KCFO", "KCFS", "KCFV", "KCGC", "KCGE", "KCGF", "KCGI", "KCGS", "KCGZ", "KCHA", "KCHD", "KCHK", "KCHO", "KCHS", "KCIC", "KCID", "KCIN", "KCIR", "KCIU", "KCJR", "KCKB", "KCKC", "KCKF", "KCKI", "KCKM", "KCKN", "KCKP", "KCKV", "KCKZ", "KCLE", "KCLI", "KCLK", "KCLL", "KCLM", "KCLS", "KCLT", "KCLW", "KCMA", "KCMD", "KCMH", "KCMI", "KCMR", "KCMX", "KCMY", "KCNB", "KCNC", "KCNI", "KCNK", "KCNM", "KCNO", "KCNU", "KCNW", "KCNY", "KCOD", "KCOE", "KCOF", "KCOM", "KCON", "KCOQ", "KCOS", "KCOT", "KCOU", "KCPC", "KCPF", "KCPK", "KCPR", "KCPS", "KCPT", "KCPW", "KCQB", "KCQC", "KCQF", "KCQM", "KCQT", "KCQW", "KCQX", "KCRE", "KCRG", "KCRP", "KCRQ", "KCRS", "KCRW", "KCRX", "KCSG", "KCSM", "KCSQ", "KCSV", "KCTB", "KCTJ", "KCTY", "KCTZ", "KCUB", "KCUH", "KCUL", "KCUT", "KCVC", "KCVG", "KCVH", "KCVN", "KCVO", "KCVS", "KCVX", "KCWA", "KCWC", "KCWF", "KCWI", "KCWN", "KCWV", "KCXE", "KCXO", "KCXP", "KCXU", "KCXW", "KCXY", "KCYD", "KCYS", "KCZL", "KCZT", "KD07", "KD25", "KD39", "KD50", "KD55", "KD57", "KD60", "KD73", "KD95", "KDAA", "KDAB", "KDAG", "KDAL", "KDAN", "KDAW", "KDAY", "KDBN", "KDBQ", "KDCA", "KDCM", "KDCU", "KDCY", "KDDC", "KDDH", "KDEC", "KDED", "KDEH", "KDEN", "KDEQ", "KDET", "KDEW", "KDFI", "KDFW", "KDGW", "KDHN", "KDHT", "KDIJ", "KDIK", "KDKK", "KDKR", "KDKX", "KDLF", "KDLH", "KDLL", "KDLN", "KDLO", "KDLS", "KDLZ", "KDMA", "KDMH", "KDMN", "KDMO", "KDMW", "KDNA", "KDNL", "KDNN", "KDNV", "KDOV", "KDPA", "KDPL", "KDQH", "KDRA", "KDRI", "KDRM", "KDRO", "KDRT", "KDSF", "KDSM", "KDSV", "KDTA", "KDTL", "KDTO", "KDTS", "KDTW", "KDUA", "KDUB", "KDUC", "KDUG", "KDUH", "KDUJ", "KDUX", "KDVK", "KDVL", "KDVN", "KDVO", "KDVP", "KDVT", "KDWA", "KDWH", "KDWU", "KDWX", "KDXR", "KDXX", "KDYA", "KDYB", "KDYL", "KDYR", "KDYS", "KDYT", "KDZB", "KDZJ", "KE11", "KE16", "KE38", "KE41", "KE42", "KEAN", "KEAR", "KEAT", "KEAU", "KEBA", "KEBG", "KEBS", "KECG", "KECP", "KECS", "KECU", "KEDC", "KEDE", "KEDJ", "KEDN", "KEDU", "KEDW", "KEED", "KEEN", "KEEO", "KEET", "KEFD", "KEFK", "KEFT", "KEGE", "KEGI", "KEGT", "KEGV", "KEHA", "KEHO", "KEHR", "KEIK", "KEKE", "KEKM", "KEKN", "KEKO", "KEKQ", "KEKS", "KEKX", "KEKY", "KELA", "KELD", "KELK", "KELM", "KELN", "KELO", "KELP", "KELY", "KELZ", "KEMM", "KEMP", "KEMT", "KEMV", "KEND", "KENL", "KENV", "KENW", "KEOE", "KEOK", "KEPH", "KEQA", "KEQY", "KERI", "KERV", "KERY", "KESC", "KESF", "KESN", "KEST", "KETB", "KETC", "KETH", "KETN", "KEUF", "KEUG", "KEUL", "KEVB", "KEVM", "KEVU", "KEVV", "KEVW", "KEWB", "KEWK", "KEWN", "KEWR", "KEXX", "KEYE", "KEYF", "KEYW", "KEZF", "KEZM", "KEZP", "KEZS", "KEZZ", "KF00", "KF05", "KF17", "KF44", "KF46", "KF70", "KFAF", "KFAM", "KFAR", "KFAT", "KFAY", "KFBG", "KFBL", "KFCI", "KFCM", "KFCS", "KFDK", "KFDR", "KFDW", "KFDY", "KFEP", "KFET", "KFEW", "KFFA", "KFFC", "KFFL", "KFFM", "KFFO", "KFFT", "KFFX", "KFFZ", "KFGN", "KFGX", "KFHB", "KFHR", "KFHU", "KFIG", "KFIN", "KFKL", "KFKN", "KFKR", "KFKS", "KFLD", "KFLG", "KFLL", "KFLO", "KFLP", "KFLY", "KFME", "KFMH", "KFMM", "KFMN", "KFMY", "KFNB", "KFNL", "KFNT", "KFOA", "KFOD", "KFOE", "KFOK", "KFOZ", "KFPK", "KFPR", "KFPY", "KFQD", "KFRG", "KFRH", "KFRI", "KFRM", "KFRR", "KFSD", "KFSE", "KFSI", "KFSK", "KFSM", "KFST", "KFSW", "KFTK", "KFTN", "KFTW", "KFTY", "KFUL", "KFVE", "KFVX", "KFWA", "KFWB", "KFWC", "KFWN", "KFWS", "KFXE", "KFXY", "KFYE", "KFYG", "KFYJ", "KFYM", "KFYV", "KFZG", "KFZY", "KGAD", "KGAF", "KGAG", "KGAI", "KGAO", "KGBD", "KGBG", "KGCC", "KGCD", "KGCK", "KGCM", "KGCN", "KGCY", "KGDA", "KGDB", "KGDJ", "KGDP", "KGDV", "KGED", "KGEG", "KGEU", "KGEV", "KGEY", "KGEZ", "KGFA", "KGFK", "KGFL", "KGGE", "KGGF", "KGGG", "KGGI", "KGGP", "KGGW", "KGHG", "KGHW", "KGIC", "KGIF", "KGJT", "KGKJ", "KGKY", "KGLD", "KGLE", "KGLH", "KGLR", "KGLS", "KGLW", "KGLY", "KGMJ", "KGMU", "KGNA", "KGNB", "KGNC", "KGNG", "KGNR", "KGNT", "KGNV", "KGOK", "KGON", "KGOO", "KGOP", "KGOV", "KGPC", "KGPH", "KGPI", "KGPM", "KGPT", "KGPZ", "KGRB", "KGRD", "KGRF", "KGRI", "KGRK", "KGRN", "KGRR", "KGRY", "KGSB", "KGSH", "KGSO", "KGSP", "KGTB", "KGTF", "KGTR", "KGTU", "KGUC", "KGUL", "KGUP", "KGUR", "KGUS", "KGUY", "KGVE", "KGVL", "KGVQ", "KGVT", "KGVW", "KGWB", "KGWO", "KGWR", "KGWW", "KGXA", "KGXF", "KGXY", "KGYB", "KGYF", "KGYH", "KGYI", "KGYL", "KGYR", "KGYY", "KGZH", "KGZL", "KGZN", "KGZS", "KHAE", "KHAF", "KHAI", "KHAO", "KHBG", "KHBI", "KHBR", "KHBV", "KHCD", "KHCO", "KHCR", "KHDC", "KHDE", "KHDL", "KHDN", "KHDO", "KHEF", "KHEG", "KHEI", "KHEQ", "KHEY", "KHEZ", "KHFD", "KHFF", "KHFJ", "KHFY", "KHGR", "KHHF", "KHHG", "KHHR", "KHHW", "KHIB", "KHIE", "KHIF", "KHII", "KHIO", "KHJH", "KHJO", "KHKA", "KHKS", "KHKY", "KHLB", "KHLC", "KHLG", "KHLN", "KHLR", "KHLX", "KHMN", "KHMP", "KHMT", "KHMZ", "KHNB", "KHND", "KHNR", "KHNZ", "KHOB", "KHOE", "KHON", "KHOP", "KHOT", "KHOU", "KHPN", "KHPT", "KHQG", "KHQG", "KHQM", "KHQU", "KHQZ", "KHRF", "KHRI", "KHRJ", "KHRL", "KHRO", "KHRT", "KHRX", "KHSA", "KHSB", "KHSD", "KHSE", "KHSG", "KHSI", "KHSP", "KHST", "KHSV", "KHTH", "KHTS", "KHUA", "KHUF", "KHUL", "KHUM", "KHUT", "KHVC", "KHVE", "KHVN", "KHVR", "KHVS", "KHWD", "KHWO", "KHWV", "KHWY", "KHXD", "KHYA", "KHYI", "KHYR", "KHYS", "KHYW", "KHYX", "KHZD", "KHZE", "KHZL", "KHZR", "KHZX", "KHZY", "KI16", "KI19", "KI23", "KI35", "KI63", "KI67", "KI68", "KI69", "KI74", "KI75", "KI95", "KIAB", "KIAD", "KIAG", "KIAH", "KIBM", "KICR", "KICT", "KIDA", "KIDI", "KIDP", "KIEN", "KIER", "KIFA", "KIFP", "KIGM", "KIGQ", "KIIB", "KIIY", "KIJD", "KIJX", "KIKG", "KIKK", "KIKV", "KIKW", "KILE", "KILG", "KILM", "KIML", "KIMM", "KIMS", "KIMT", "KIND", "KINF", "KINJ", "KINK", "KINL", "KINS", "KINT", "KINW", "KIOB", "KIOW", "KIPJ", "KIPL", "KIPT", "KIRK", "KIRS", "KISM", "KISO", "KISP", "KISQ", "KISW", "KITH", "KITR", "KIUA", "KIWA", "KIWD", "KIWI", "KIXA", "KIXD", "KIYA", "KIZA", "KIZG", "KJAC", "KJAN", "KJAQ", "KJAS", "KJAU", "KJAX", "KJBR", "KJCA", "KJCT", "KJDN", "KJEF", "KJER", "KJES", "KJFK", "KJFX", "KJFZ", "KJHW", "KJKJ", "KJKL", "KJLN", "KJMR", "KJMS", "KJNX", "KJOT", "KJPX", "KJQF", "KJRB", "KJRO", "KJSO", "KJST", "KJSV", "KJSY", "KJTC", "KJVL", "KJVY", "KJWG", "KJWN", "KJWY", "KJXI", "KJXN", "KJYG", "KJYL", "KJYM", "KJYO", "KJYR", "KJZI", "KJZP", "KK62", "KK70", "KK82", "KK88", "KKLS", "KKNB", "KKY8", "KL08", "KL18", "KL35", "KLAA", "KLAF", "KLAL", "KLAM", "KLAN", "KLAR", "KLAS", "KLAW", "KLAX", "KLBB", "KLBE", "KLBF", "KLBL", "KLBO", "KLBT", "KLCG", "KLCH", "KLCI", "KLCK", "KLCQ", "KLDJ", "KLDM", "KLEB", "KLEE", "KLEW", "KLEX", "KLFI", "KLFK", "KLFT", "KLGA", "KLGB", "KLGC", "KLGD", "KLGF", "KLGU", "KLHB", "KLHM", "KLHQ", "KLHW", "KLHX", "KLHZ", "KLIC", "KLIT", "KLJF", "KLKR", "KLKU", "KLKV", "KLLJ", "KLLN", "KLLQ", "KLMO", "KLMS", "KLMT", "KLNA", "KLND", "KLNK", "KLNL", "KLNN", "KLNP", "KLNQ", "KLNR", "KLNS", "KLOL", "KLOM", "KLOR", "KLOT", "KLOU", "KLOZ", "KLPR", "KLQK", "KLRD", "KLRF", "KLRJ", "KLRO", "KLRU", "KLRY", "KLSF", "KLSV", "KLTS", "KLUA", "KLUD", "KLUF", "KLUG", "KLUK", "KLUL", "KLUM", "KLUV", "KLUX", "KLVJ", "KLVK", "KLVM", "KLVN", "KLVS", "KLWA", "KLWB", "KLWC", "KLWD", "KLWM", "KLWS", "KLWT", "KLWV", "KLXL", "KLXN", "KLXT", "KLXV", "KLXY", "KLYH", "KLYO", "KLYV", "KLZU", "KLZZ", "KM01", "KM02", "KM04", "KM08", "KM19", "KM21", "KM25", "KM30", "KM40", "KM54", "KM75", "KM91", "KMAF", "KMAN", "KMAO", "KMAW", "KMBG", "KMBL", "KMBS", "KMBT", "KMBY", "KMCB", "KMCC", "KMCD", "KMCE", "KMCF", "KMCI", "KMCJ", "KMCK", "KMCN", "KMCO", "KMCW", "KMCX", "KMCZ", "KMDD", "KMDH", "KMDQ", "KMDS", "KMDT", "KMDW", "KMDZ", "KMEB", "KMEH", "KMEI", "KMEM", "KMER", "KMEV", "KMEZ", "KMFD", "KMFE", "KMFI", "KMFR", "KMGE", "KMGG", "KMGJ", "KMGM", "KMGN", "KMGR", "KMGW", "KMGY", "KMHE", "KMHK", "KMHL", "KMHP", "KMHR", "KMHS", "KMHT", "KMHV", "KMIA", "KMIB", "KMIC", "KMIE", "KMIO", "KMIV", "KMIW", "KMJD", "KMJQ", "KMKC", "KMKE", "KMKG", "KMKJ", "KMKL", "KMKN", "KMKO", "KMKS", "KMKT", "KMLB", "KMLC", "KMLE", "KMLF", "KMLI", "KMLJ", "KMLP", "KMLS", "KMLT", "KMLU", "KMMH", "KMMI", "KMMK", "KMML", "KMMT", "KMMU", "KMMV", "KMNE", "KMNH", "KMNI", "KMNM", "KMNN", "KMNV", "KMNZ", "KMOB", "KMOD", "KMOP", "KMOT", "KMOX", "KMPO", "KMPR", "KMPV", "KMPZ", "KMQB", "KMQI", "KMQJ", "KMQS", "KMQW", "KMQY", "KMRB", "KMRC", "KMRF", "KMRH", "KMRJ", "KMRN", "KMRT", "KMRY", "KMSL", "KMSN", "KMSO", "KMSP", "KMSS", "KMSV", "KMSY", "KMTC", "KMTH", "KMTJ", "KMTK", "KMTN", "KMTO", "KMTP", "KMTV", "KMTW", "KMUO", "KMUT", "KMVE", "KMVH", "KMVL", "KMVN", "KMVY", "KMWA", "KMWC", "KMWH", "KMWK", "KMWL", "KMWM", "KMWN", "KMWO", "KMWT", "KMXF", "KMYF", "KMYJ", "KMYL", "KMYP", "KMYR", "KMYV", "KMYZ", "KMZH", "KMZZ", "KN03", "KN38", "KN60", "KN79", "KNAK", "KNBC", "KNBG", "KNBT", "KNCA", "KNDZ", "KNEL", "KNEW", "KNFE", "KNFG", "KNFL", "KNFW", "KNGP", "KNGU", "KNHK", "KNID", "KNIP", "KNJK", "KNJM", "KNJW", "KNKT", "KNKX", "KNLC", "KNMM", "KNOG", "KNOW", "KNOZ", "KNPA", "KNQA", "KNQI", "KNQX", "KNRB", "KNRN", "KNRS", "KNSE", "KNSI", "KNTD", "KNTU", "KNUC", "KNUI", "KNUQ", "KNUW", "KNXF", "KNXP", "KNYC", "KNYG", "KNYL", "KNZY", "KO05", "KO22", "KO32", "KO69", "KO86", "KOAJ", "KOAK", "KOAR", "KOBE", "KOCF", "KOCH", "KOCQ", "KOCW", "KODO", "KODX", "KOEB", "KOEL", "KOEO", "KOFF", "KOFK", "KOFP", "KOGA", "KOGB", "KOGD", "KOGS", "KOIC", "KOIN", "KOJA", "KOJC", "KOKB", "KOKC", "KOKK", "KOKM", "KOKV", "KOKZ", "KOLE", "KOLF", "KOLG", "KOLM", "KOLS", "KOLU", "KOLV", "KOLY", "KOLZ", "KOMA", "KOMH", "KOMK", "KOMN", "KONL", "KONM", "KONO", "KONP", "KONT", "KONX", "KONZ", "KOOA", "KOPF", "KOPL", "KOPN", "KOQN", "KOQT", "KORB", "KORD", "KORE", "KORF", "KORG", "KORH", "KORK", "KORL", "KORS", "KOSA", "KOSC", "KOSH", "KOSU", "KOTG", "KOTH", "KOTM", "KOUN", "KOVL", "KOVS", "KOWA", "KOWB", "KOWD", "KOWI", "KOWP", "KOWX", "KOXB", "KOXC", "KOXD", "KOXI", "KOXR", "KOXV", "KOYM", "KOZA", "KOZR", "KOZS", "KOZW", "KP08", "KP28", "KP52", "KP53", "KP58", "KP59", "KP60", "KP68", "KP69", "KP92", "KPAE", "KPAH", "KPAM", "KPAN", "KPAO", "KPBF", "KPBG", "KPBH", "KPBI", "KPBX", "KPCM", "KPCW", "KPCZ", "KPDC", "KPDK", "KPDT", "KPDX", "KPEA", "KPEO", "KPEQ", "KPEX", "KPEZ", "KPGA", "KPGV", "KPHD", "KPHF", "KPHL", "KPHN", "KPHP", "KPHT", "KPHX", "KPIA", "KPIB", "KPIE", "KPIH", "KPIL", "KPIM", "KPIR", "KPIT", "KPJC", "KPKB", "KPKD", "KPLN", "KPLR", "KPLU", "KPMD", "KPMH", "KPMP", "KPMU", "KPMV", "KPNA", "KPNC", "KPNE", "KPNM", "KPNS", "KPNT", "KPO1", "KPOB", "KPOC", "KPOE", "KPOF", "KPOU", "KPOV", "KPOY", "KPPA", "KPPF", "KPPO", "KPPQ", "KPQI", "KPQL", "KPRB", "KPRC", "KPRG", "KPRN", "KPRO", "KPRS", "KPRX", "KPSC", "KPSF", "KPSK", "KPSM", "KPSN", "KPSO", "KPSP", "KPSX", "KPTB", "KPTD", "KPTK", "KPTN", "KPTS", "KPTT", "KPTV", "KPTW", "KPUB", "KPUC", "KPUJ", "KPUW", "KPVB", "KPVC", "KPVD", "KPVE", "KPVF", "KPVG", "KPVJ", "KPVU", "KPVW", "KPWA", "KPWC", "KPWD", "KPWG", "KPWK", "KPWM", "KPWT", "KPXE", "KPYM", "KPYX", "KPZQ", "KQAZ", "KQBL", "KQD3", "KQDG", "KQEI", "KQEJ", "KQEN", "KQEP", "KQEQ", "KQER", "KQES", "KQEV", "KQEW", "KQEX", "KQEY", "KQFB", "KQFT", "KQFU", "KQFV", "KQFW", "KQFX", "KQHY", "KQRH", "KQTZ", "KQVF", "KRAC", "KRAL", "KRAP", "KRAS", "KRAW", "KRBD", "KRBG", "KRBL", "KRBO", "KRBW", "KRCA", "KRCE", "KRCM", "KRCR", "KRCV", "KRCX", "KRCZ", "KRDD", "KRDG", "KRDK", "KRDM", "KRDR", "KRDU", "KREG", "KREO", "KRFD", "KRFI", "KRGA", "KRGK", "KRHI", "KRHP", "KRHV", "KRIC", "KRID", "KRIL", "KRIV", "KRIW", "KRKD", "KRKP", "KRKR", "KRKS", "KRKW", "KRLD", "KRME", "KRMG", "KRMN", "KRMY", "KRNC", "KRND", "KRNH", "KRNM", "KRNO", "KRNP", "KRNT", "KROA", "KROC", "KROG", "KROS", "KROW", "KROX", "KRPD", "KRPH", "KRPJ", "KRPX", "KRQB", "KRQE", "KRQO", "KRRL", "KRRT", "KRSL", "KRSP", "KRST", "KRSW", "KRTN", "KRTS", "KRUE", "KRUG", "KRUQ", "KRUT", "KRVF", "KRVJ", "KRVL", "KRVS", "KRWF", "KRWI", "KRWL", "KRWV", "KRXE", "KRYM", "KRYN", "KRYW", "KRYY", "KRZL", "KRZN", "KRZR", "KRZT", "KS21", "KS25", "KS32", "KS33", "KS34", "KS39", "KS52", "KS85", "KSAA", "KSAC", "KSAD", "KSAF", "KSAN", "KSAR", "KSAT", "KSAV", "KSAW", "KSAZ", "KSBA", "KSBM", "KSBN", "KSBO", "KSBP", "KSBS", "KSBY", "KSCD", "KSCH", "KSCK", "KSCR", "KSCX", "KSDA", "KSDB", "KSDC", "KSDF", "KSDL", "KSDM", "KSDY", "KSEA", "KSEE", "KSEF", "KSEG", "KSEM", "KSEP", "KSEQ", "KSET", "KSEZ", "KSFB", "KSFF", "KSFM", "KSFO", "KSFQ", "KSFZ", "KSGF", "KSGH", "KSGJ", "KSGR", "KSGS", "KSGT", "KSGU", "KSHD", "KSHL", "KSHM", "KSHR", "KSHV", "KSIF", "KSIK", "KSIY", "KSJC", "KSJS", "KSJT", "KSJX", "KSKA", "KSKF", "KSKX", "KSLB", "KSLC", "KSLE", "KSLG", "KSLH", "KSLI", "KSLK", "KSLN", "KSLO", "KSLR", "KSMD", "KSME", "KSMF", "KSMN", "KSMO", "KSMQ", "KSMS", "KSMX", "KSNA", "KSNC", "KSNH", "KSNK", "KSNS", "KSNT", "KSNY", "KSOA", "KSOP", "KSOW", "KSPA", "KSPB", "KSPD", "KSPF", "KSPG", "KSPI", "KSPK", "KSPS", "KSPW", "KSQI", "KSQL", "KSRB", "KSRC", "KSRE", "KSRQ", "KSRR", "KSSC", "KSSF", "KSSI", "KSTC", "KSTE", "KSTF", "KSTJ", "KSTK", "KSTL", "KSTP", "KSTS", "KSUA", "KSUE", "KSUN", "KSUS", "KSUT", "KSUU", "KSUW", "KSUX", "KSUZ", "KSVC", "KSVE", "KSVH", "KSVN", "KSWF", "KSWO", "KSWW", "KSXK", "KSXS", "KSXT", "KSXU", "KSYF", "KSYI", "KSYM", "KSYN", "KSYR", "KSZL", "KSZT", "KSZY", "KT20", "KT35", "KT41", "KT69", "KT70", "KT74", "KT82", "KT89", "KTAD", "KTAN", "KTAZ", "KTBN", "KTBR", "KTBX", "KTCL", "KTCM", "KTCS", "KTCY", "KTDF", "KTDR", "KTDZ", "KTEB", "KTEW", "KTEX", "KTFP", "KTGI", "KTHA", "KTHM", "KTIF", "KTIK", "KTIP", "KTIW", "KTIX", "KTKC", "KTKI", "KTKV", "KTKX", "KTLH", "KTMA", "KTMB", "KTME", "KTMK", "KTMT", "KTNB", "KTNU", "KTOA", "KTOB", "KTOC", "KTOI", "KTOL", "KTOP", "KTOR", "KTPA", "KTPF", "KTPH", "KTPL", "KTQE", "KTQH", "KTQK", "KTQV", "KTRI", "KTRK", "KTRL", "KTRM", "KTSP", "KTTA", "KTTD", "KTTF", "KTTN", "KTTS", "KTUL", "KTUP", "KTUS", "KTVC", "KTVF", "KTVI", "KTVK", "KTVL", "KTVR", "KTVY", "KTWF", "KTWM", "KTWT", "KTXK", "KTXW", "KTYL", "KTYQ", "KTYR", "KTYS", "KTZR", "KU42", "KU55", "KU64", "KU68", "KU69", "KUAO", "KUBE", "KUCP", "KUCY", "KUDG", "KUES", "KUGN", "KUIL", "KUIN", "KUKF", "KUKI", "KUKL", "KUKT", "KULM", "KULS", "KUMP", "KUNI", "KUNO", "KUNU", "KUNV", "KUOX", "KUSE", "KUTA", "KUTS", "KUUU", "KUUV", "KUVA", "KUXL", "KUYF", "KUZA", "KVAD", "KVAF", "KVAY", "KVBG", "KVBT", "KVBW", "KVCB", "KVCT", "KVCV", "KVDF", "KVDI", "KVEL", "KVER", "KVES", "KVGC", "KVGT", "KVHN", "KVIH", "KVIS", "KVJI", "KVKS", "KVKY", "KVLD", "KVLL", "KVNC", "KVNW", "KVNY", "KVOA", "KVOK", "KVPC", "KVPS", "KVPZ", "KVQQ", "KVRB", "KVSF", "KVTA", "KVTI", "KVTN", "KVTP", "KVUJ", "KVVS", "KVVV", "KVWU", "KVYS", "KW13", "KW22", "KW29", "KW31", "KW40", "KW43", "KW63", "KW75", "KW78", "KW81", "KW96", "KWAL", "KWBF", "KWDG", "KWDR", "KWHP", "KWJF", "KWLD", "KWMC", "KWRB", "KWRI", "KWRL", "KWST", "KWVI", "KWVL", "KWWD", "KWWR", "KX07", "KX26", "KX60", "KXBP", "KXLL", "KXMR", "KXNA", "KXNO", "KXNX", "KXSA", "KXVG", "KXWA", "KY19", "KY23", "KY31", "KY49", "KY50", "KY51", "KY63", "KY70", "KYIP", "KYKM", "KYKN", "KYNG", "KZER", "KZPH", "KZZV", "LATI", "LBBG", "LBGO", "LBIA", "LBPD", "LBPG", "LBPL", "LBSF", "LBWN", "LCEN", "LCLK", "LCPH", "LCRA", "LDDU", "LDOS", "LDPL", "LDRI", "LDSP", "LDZA", "LDZD", "LEAB", "LEAG", "LEAL", "LEAM", "LEAS", "LEBA", "LEBB", "LEBG", "LEBL", "LEBR", "LEBT", "LECH", "LECO", "LEDA", "LEGE", "LEGR", "LEHC", "LEIB", "LEJR", "LELC", "LELL", "LELN", "LELO", "LEMD", "LEMG", "LEMH", "LEMI", "LEMO", "LEPA", "LEPP", "LERS", "LERT", "LESA", "LESB", "LESO", "LEST", "LETL", "LETO", "LETU", "LEVC", "LEVD", "LEVS", "LEVT", "LEVX", "LEXJ", "LEZG", "LEZL", "LFAQ", "LFAT", "LFBA", "LFBC", "LFBD", "LFBE", "LFBG", "LFBH", "LFBI", "LFBL", "LFBM", "LFBO", "LFBP", "LFBT", "LFBU", "LFBX", "LFBY", "LFBZ", "LFCK", "LFCR", "LFGA", "LFGJ", "LFJL", "LFJR", "LFKB", "LFKC", "LFKF", "LFKJ", "LFKS", "LFLB", "LFLC", "LFLL", "LFLN", "LFLP", "LFLS", "LFLW", "LFLX", "LFLY", "LFMC", "LFMD", "LFMH", "LFMI", "LFMK", "LFML", "LFMN", "LFMO", "LFMP", "LFMT", "LFMU", "LFMV", "LFMY", "LFOA", "LFOB", "LFOE", "LFOH", "LFOJ", "LFOK", "LFOP", "LFOT", "LFOV", "LFOZ", "LFPB", "LFPG", "LFPM", "LFPN", "LFPO", "LFPT", "LFPV", "LFQA", "LFQB", "LFQQ", "LFRB", "LFRC", "LFRD", "LFRG", "LFRH", "LFRI", "LFRJ", "LFRK", "LFRL", "LFRM", "LFRN", "LFRQ", "LFRS", "LFRT", "LFRV", "LFRZ", "LFSB", "LFSD", "LFSG", "LFSI", "LFSL", "LFSN", "LFSO", "LFST", "LFSX", "LFTH", "LFTW", "LFVP", "LFYR", "LGAD", "LGAL", "LGAV", "LGBL", "LGEL", "LGIO", "LGIR", "LGKL", "LGKO", "LGKP", "LGKR", "LGKZ", "LGLM", "LGPZ", "LGRP", "LGRX", "LGSA", "LGSO", "LGSR", "LGTS", "LHBP", "LHDC", "LHKE", "LHPA", "LHPP", "LHPR", "LHSM", "LHSN", "LIBA", "LIBD", "LIBN", "LIBP", "LIBQ", "LIBR", "LIBV", "LICA", "LICB", "LICC", "LICD", "LICJ", "LICR", "LICT", "LICZ", "LIEA", "LIEB", "LIED", "LIEE", "LIEO", "LIMC", "LIME", "LIMF", "LIMH", "LIMJ", "LIML", "LIMZ", "LIPC", "LIPE", "LIPH", "LIPI", "LIPL", "LIPO", "LIPQ", "LIPR", "LIPS", "LIPX", "LIPY", "LIPZ", "LIRA", "LIRE", "LIRF", "LIRK", "LIRM", "LIRN", "LIRP", "LIRQ", "LIRS", "LIRZ", "LIVC", "LIVD", "LIVE", "LIVF", "LIVM", "LIVP", "LIVR", "LIVT", "LJCE", "LJLJ", "LJMB", "LJPZ", "LKCV", "LKKB", "LKKV", "LKLN", "LKMT", "LKNA", "LKPD", "LKPR", "LKTB", "LLBG", "LMML", "LOWG", "LOWI", "LOWK", "LOWL", "LOWS", "LOWW", "LPAZ", "LPBJ", "LPFR", "LPLA", "LPMA", "LPMR", "LPMT", "LPPD", "LPPR", "LPPS", "LPPT", "LQBK", "LQMO", "LQSA", "LQTZ", "LRAR", "LRBC", "LRBM", "LRBS", "LRCK", "LRCL", "LRCV", "LRIA", "LROD", "LROP", "LRSB", "LRSM", "LRSV", "LRTC", "LRTM", "LRTR", "LSGC", "LSGG", "LSGS", "LSMA", "LSMD", "LSMM", "LSMP", "LSZA", "LSZB", "LSZC", "LSZG", "LSZH", "LSZL", "LSZR", "LSZS", "LTAC", "LTAE", "LTAF", "LTAG", "LTAI", "LTAJ", "LTAN", "LTAP", "LTAR", "LTAT", "LTAU", "LTAY", "LTAZ", "LTBA", "LTBD", "LTBF", "LTBH", "LTBJ", "LTBQ", "LTBR", "LTBS", "LTBU", "LTBY", "LTCA", "LTCB", "LTCC", "LTCD", "LTCE", "LTCF", "LTCG", "LTCI", "LTCJ", "LTCN", "LTCS", "LTCT", "LTCV", "LTCW", "LTDA", "LTFC", "LTFD", "LTFE", "LTFG", "LTFH", "LTFJ", "LTFM", "LTFO", "LUKK", "LXGB", "LYBE", "LYBT", "LYKV", "LYNI", "LYPG", "LYTV", "LYVR", "LZIB", "LZKZ", "LZPP", "LZTT", "LZZI", "MBPV", "MGCB", "MGES", "MGHT", "MGMT", "MGPB", "MGQZ", "MGRT", "MGTU", "MGZA", "MHCH", "MHLE", "MHNO", "MHPL", "MHPR", "MHSR", "MHTE", "MHTR", "MHYR", "MKJP", "MKJS", "MMAA", "MMCB", "MMCM", "MMCS", "MMCT", "MMCU", "MMCV", "MMCZ", "MMIA", "MMLO", "MMLP", "MMLT", "MMMA", "MMMD", "MMML", "MMMM", "MMMX", "MMMZ", "MMOX", "MMPA", "MMPB", "MMPE", "MMPG", "MMPQ", "MMPR", "MMQT", "MMRX", "MMSM", "MMTG", "MMTJ", "MMTM", "MMUN", "MMVA", "MMVR", "MMZO", "MNBL", "MNCH", "MNJG", "MNJU", "MNMG", "MNPC", "MNRS", "MPDA", "MPMG", "MPPA", "MPSM", "MPTO", "MRLB", "MRLM", "MROC", "MRPV", "MSLP", "MTPP", "MUCC", "MUCF", "MUCL", "MUCM", "MUCU", "MUGM", "MUHA", "MUHG", "MUSC", "MUVR", "MWCB", "MWCR", "MYCB", "MYGF", "MYNN", "MYSM", "MZBZ", "NCRG", "NFFN", "NFNL", "NFNS", "NFTF", "NFTV", "NGTA", "NIUE", "NLWW", "NSFA", "NSTU", "NTAA", "NVSS", "NVVV", "NWWW", "NZAA", "NZCH", "NZCM", "NZWN", "OBBI", "OEAB", "OEAH", "OEAO", "OEBA", "OEBH", "OEDF", "OEDM", "OEDR", "OEGN", "OEGS", "OEGT", "OEHL", "OEJB", "OEJN", "OEKJ", "OEKM", "OEMA", "OEMN", "OENG", "OEPA", "OEPS", "OERF", "OERK", "OERR", "OESH", "OESK", "OETB", "OETF", "OETR", "OEWD", "OEWJ", "OEYN", "OIAA", "OIAH", "OIAM", "OIAW", "OIBB", "OIBJ", "OIBK", "OICC", "OICI", "OICK", "OICS", "OIFK", "OIFM", "OIFS", "OIGG", "OIHH", "OIIE", "OIII", "OIIK", "OIIP", "OIKB", "OIKK", "OIKO", "OIKQ", "OIMB", "OIMJ", "OIMM", "OIMN", "OING", "OINN", "OISF", "OISS", "OISY", "OITL", "OITP", "OITR", "OITT", "OIYY", "OIZH", "OJAM", "OKAS", "OKKK", "OLBA", "OMAA", "OMAD", "OMAL", "OMDB", "OMDW", "OMFJ", "OMRK", "OMSJ", "OOAD", "OODQ", "OOKB", "OOMS", "OOSA", "OOSH", "OPFA", "OPIS", "OPKC", "OPLA", "OPMT", "OPNH", "OPPS", "OPSK", "OPST", "ORBI", "OTBD", "OTBH", "OTHH", "PAAD", "PAAK", "PAAQ", "PABA", "PABE", "PABI", "PABL", "PABR", "PABT", "PABV", "PACD", "PACM", "PACV", "PACZ", "PADE", "PADG", "PADK", "PADL", "PADM", "PADQ", "PADU", "PAED", "PAEG", "PAEH", "PAEI", "PAEN", "PAFA", "PAFB", "PAFE", "PAFM", "PAFR", "PAFS", "PAGK", "PAGL", "PAGN", "PAGS", "PAGY", "PAHC", "PAHL", "PAHN", "PAHO", "PAIG", "PAIK", "PAIL", "PAIM", "PAIN", "PAIW", "PAJC", "PAJN", "PAJZ", "PAKH", "PAKI", "PAKN", "PAKP", "PAKT", "PAKU", "PAKV", "PAKW", "PAKX", "PALG", "PALH", "PALJ", "PALP", "PALU", "PAMB", "PAMH", "PAMK", "PAMM", "PAMO", "PAMR", "PAMY", "PANC", "PANI", "PANV", "PANW", "PAOH", "PAOM", "PAOO", "PAOR", "PAOT", "PAOU", "PAPB", "PAPG", "PAPH", "PAPM", "PAPN", "PAPO", "PAPT", "PAQT", "PARC", "PARY", "PASC", "PASD", "PASI", "PASK", "PASL", "PASM", "PASN", "PASO", "PASV", "PASX", "PASY", "PATA", "PATC", "PATE", "PATG", "PATK", "PATL", "PATO", "PATQ", "PAUN", "PAVC", "PAVD", "PAVL", "PAWD", "PAWG", "PAWI", "PAWM", "PAWN", "PAWS", "PAYA", "PAZK", "PFCL", "PFEL", "PFKT", "PFNO", "PFSH", "PFYU", "PGRO", "PGSN", "PGUA", "PGUM", "PGWT", "PHBK", "PHHI", "PHJR", "PHKO", "PHLI", "PHMK", "PHNG", "PHNL", "PHNY", "PHOG", "PHSF", "PHTO", "PKMR", "PKWA", "PLCH", "PMDY", "PPIZ", "PTKK", "PTRO", "PTTP", "PTYA", "PWAK", "RCFN", "RCKH", "RCMQ", "RCNN", "RCSS", "RCTP", "RJAA", "RJAH", "RJAW", "RJBB", "RJBE", "RJCC", "RJCH", "RJCK", "RJCO", "RJDB", "RJDC", "RJDT", "RJEC", "RJFF", "RJFK", "RJFM", "RJFO", "RJFR", "RJFS", "RJFT", "RJFU", "RJGG", "RJKA", "RJKI", "RJNK", "RJNS", "RJNT", "RJNY", "RJOA", "RJOB", "RJOC", "RJOF", "RJOH", "RJOI", "RJOK", "RJOM", "RJOO", "RJOR", "RJOS", "RJOT", "RJSA", "RJSF", "RJSK", "RJSM", "RJSN", "RJSS", "RJSY", "RJTC", "RJTE", "RJTR", "RJTT", "RJTY", "RKJB", "RKJK", "RKNY", "RKPC", "RKPK", "RKSG", "RKSI", "RKSM", "RKSO", "RKSS", "RKTN", "RKTU", "ROAH", "RODE", "RODN", "ROIG", "ROMD", "ROMY", "RORK", "RORS", "RORT", "RORY", "ROTM", "ROYN", "RPLB", "RPLC", "RPLI", "RPLL", "RPMD", "RPMZ", "RPVM", "RPVP", "SAAR", "SABE", "SACO", "SADF", "SAEZ", "SAME", "SANT", "SAOC", "SARC", "SARE", "SARF", "SARI", "SARL", "SARP", "SASA", "SASJ", "SAVC", "SAWE", "SAWG", "SAWH", "SAZM", "SAZN", "SAZS", "SBAF", "SBAN", "SBBG", "SBBH", "SBBI", "SBBR", "SBBU", "SBBV", "SBCA", "SBCB", "SBCC", "SBCF", "SBCG", "SBCO", "SBCP", "SBCT", "SBCY", "SBCZ", "SBDN", "SBFI", "SBFL", "SBFN", "SBFZ", "SBGL", "SBGO", "SBGR", "SBGW", "SBIL", "SBIP", "SBJR", "SBJU", "SBJV", "SBKG", "SBKP", "SBLE", "SBLO", "SBLS", "SBMA", "SBME", "SBMG", "SBMK", "SBMQ", "SBMT", "SBNF", "SBNM", "SBNT", "SBOI", "SBPA", "SBPB", "SBPF", "SBPJ", "SBPK", "SBPL", "SBRJ", "SBRP", "SBSC", "SBSJ", "SBSM", "SBSN", "SBSP", "SBSR", "SBTE", "SBTF", "SBUL", "SBUR", "SBUY", "SBVH", "SBVT", "SBYS", "SCAP", "SCAR", "SCAT", "SCBA", "SCCF", "SCCH", "SCCI", "SCCY", "SCDA", "SCFA", "SCFT", "SCGE", "SCHR", "SCIC", "SCIE", "SCIP", "SCJO", "SCMK", "SCON", "SCPD", "SCPQ", "SCQP", "SCRD", "SCRG", "SCRM", "SCSE", "SCSN", "SCTB", "SCTE", "SCTN", "SCVD", "SECO", "SECU", "SEGS", "SEGU", "SEGZ", "SEJD", "SELT", "SEMC", "SEMT", "SENL", "SEQM", "SERO", "SESA", "SESM", "SEST", "SETN", "SKAR", "SKBG", "SKBO", "SKBQ", "SKCC", "SKCG", "SKCL", "SKEJ", "SKIB", "SKIP", "SKLC", "SKLT", "SKMD", "SKMR", "SKMZ", "SKNV", "SKPC", "SKPE", "SKPS", "SKPV", "SKRG", "SKRH", "SKSM", "SKSP", "SKUC", "SKUI", "SKVP", "SKVV", "SLCA", "SLCB", "SLCP", "SLET", "SLLP", "SLRI", "SLSA", "SLSV", "SLTJ", "SLTR", "SLVR", "SOCA", "SPCL", "SPHI", "SPHO", "SPJC", "SPJJ", "SPJL", "SPJR", "SPME", "SPMS", "SPNC", "SPQT", "SPQU", "SPRU", "SPSO", "SPST", "SPTN", "SPTU", "SPUR", "SPYL", "SPZO", "SUAA", "SUCA", "SULS", "SUMU", "SVBC", "SVBI", "SVBM", "SVBS", "SVCB", "SVCS", "SVFM", "SVGD", "SVGU", "SVJM", "SVLO", "SVMC", "SVMG", "SVMI", "SVMT", "SVPA", "SVPR", "SVSA", "SVSR", "SVVL", "SYCJ", "SYEC", "TAPA", "TBPB", "TDPD", "TFFF", "TFFR", "TGPY", "TIST", "TISX", "TJBQ", "TJIG", "TJNR", "TJPS", "TJSJ", "TKPK", "TLPC", "TLPL", "TNCA", "TNCB", "TNCC", "TNCE", "TNCM", "TQPF", "TRPG", "TTCP", "TTPP", "TVSA", "TXKF", "UAAA", "UACC", "UADD", "UAII", "UAIT", "UAKK", "UAOO", "UARR", "UASK", "UASP", "UATE", "UATG", "UATT", "UAUU", "UBBB", "UBBF", "UBBG", "UBBL", "UBBN", "UBBQ", "UBBZ", "UCFL", "UCFM", "UCFO", "UDSG", "UDYZ", "UEEE", "UERP", "UERR", "UGAM", "UGKO", "UGMS", "UGSB", "UGTB", "UHBB", "UHHH", "UHMA", "UHMM", "UHPP", "UHSS", "UHWW", "UIAA", "UIBB", "UIII", "UIUU", "ULAA", "ULLI", "ULMM", "ULOO", "ULPB", "UMBB", "UMGG", "UMIO", "UMKK", "UMMS", "UNAA", "UNBB", "UNEE", "UNKL", "UNNT", "UNOO", "UNTT", "UNWW", "UOOO", "URKA", "URKK", "URMG", "URML", "URMM", "URMN", "URMO", "URMT", "URRP", "URSS", "URWA", "URWI", "URWW", "USCC", "USCM", "USDA", "USHH", "USNN", "USPP", "USRR", "USSS", "USTR", "UTAA", "UTAK", "UTAM", "UTAT", "UTAV", "UTDD", "UTDK", "UTDL", "UTDT", "UTFF", "UTFN", "UTNN", "UTNU", "UTO8", "UTSA", "UTSB", "UTSK", "UTSS", "UTST", "UTTT", "UUBC", "UUBP", "UUBW", "UUDD", "UUDL", "UUEE", "UUMO", "UUOB", "UUOK", "UUOL", "UUOO", "UUWW", "UUYY", "UWGG", "UWKD", "UWKE", "UWKS", "UWLL", "UWLW", "UWOO", "UWOR", "UWPS", "UWSG", "UWUU", "UWWW", "VAAH", "VABB", "VANP", "VCBI", "VDPP", "VDSR", "VDSV", "VEBS", "VECC", "VEGT", "VEPT", "VERC", "VGHS", "VHHH", "VIAR", "VIDP", "VIJP", "VILK", "VMMC", "VNKT", "VOBL", "VOCB", "VOCI", "VOCL", "VOGO", "VOHS", "VOKN", "VOML", "VOMM", "VOTR", "VOTV", "VRMG", "VRMH", "VRMM", "VTBD", "VTBS", "VTBU", "VTCC", "VTCH", "VTCN", "VTCP", "VTCT", "VTPB", "VTPH", "VTPM", "VTPO", "VTPP", "VTPT", "VTSB", "VTSC", "VTSF", "VTSM", "VTSP", "VTSR", "VTSS", "VTST", "VTUD", "VTUI", "VTUK", "VTUL", "VTUO", "VTUQ", "VTUU", "VTUV", "VTUW", "VVCI", "VVCR", "VVCT", "VVDN", "VVNB", "VVPB", "VVPQ", "VVTS", "VVVD", "VYMD", "VYYY", "WAAA", "WABB", "WADD", "WADL", "WAHS", "WAJJ", "WAKK", "WALL", "WAMM", "WAOO", "WAPP", "WAQQ", "WARR", "WATT", "WAYY", "WBGB", "WBGG", "WBGR", "WBGS", "WBGY", "WBKK", "WBKL", "WBKS", "WBKT", "WBKW", "WBSB", "WIBB", "WIDD", "WIDN", "WIEE", "WIHH", "WIII", "WILL", "WIMM", "WIOO", "WIPP", "WMAU", "WMBA", "WMKA", "WMKB", "WMKC", "WMKD", "WMKE", "WMKI", "WMKJ", "WMKK", "WMKL", "WMKM", "WMKN", "WMKP", "WMSA", "WSAP", "WSSL", "WSSS", "YAMB", "YBAS", "YBBN", "YBCG", "YBCS", "YBHM", "YBLN", "YBMA", "YBRK", "YBRM", "YBSU", "YBTL", "YBWW", "YCFS", "YCIN", "YFRT", "YGEL", "YGLA", "YHID", "YLHI", "YMAV", "YMHB", "YMLT", "YMML", "YPAD", "YPCC", "YPDN", "YPEA", "YPGV", "YPJT", "YPKG", "YPKU", "YPLM", "YPPD", "YPPH", "YPTN", "YPWR", "YSCB", "YSDU", "YSNF", "YSRI", "YSSY", "YSTW", "YWLM", "ZBAA", "ZBAD", "ZBHH", "ZBSJ", "ZBTJ", "ZBYN", "ZGGG", "ZGHA", "ZGKL", "ZGNN", "ZGOW", "ZGSZ", "ZHCC", "ZHHH", "ZJHK", "ZJSY", "ZLLL", "ZLXY", "ZPPP", "ZSAM", "ZSFZ", "ZSHC", "ZSNB", "ZSNJ", "ZSOF", "ZSPD", "ZSQD", "ZSSS", "ZUCK", "ZUGY", "ZUTF", "ZUUU", "ZWSH", "ZWWW", "ZYCC", "ZYHB", "ZYTL", "ZYTX"], "observation_time": ["2023-04-29T22:00:00Z", "2023-04-29T22:00:00Z", "2023-04-29T22:00:00Z", "2023-04-29T22:00:00Z", "2023-04-29T22:50:00Z", "2023-04-29T22:50:00Z", "2023-04-29T22:50:00Z", "2023-04-29T22:50:00Z", "2023-04-29T22:50:00Z", "2023-04-29T21:55:00Z", "2023-04-29T22:00:00Z", "2023-04-29T22:00:00Z", "2023-04-29T22:30:00Z", "2023-04-29T22:00:00Z", "2023-04-29T22:00:00Z", "2023-04-29T22:00:00Z", "2023-04-29T22:00:00Z", "2023-04-29T22:00:00Z", "2023-04-29T22:00:00Z", "2023-04-29T22:00:00Z", "2023-04-29T22:00:00Z", "2023-04-29T22:00:00Z", "2023-04-29T22:00:00Z", "2023-04-29T22:00:00Z", "2023-04-29T22:00:00Z", "2023-04-29T22:00:00Z", "2023-04-29T22:00:00Z", "2023-04-29T22:00:00Z", "2023-04-29T22:00:00Z", "2023-04-29T22:00:00Z", "2023-04-29T22:00:00Z", "2023-04-29T22:00:00Z", "2023-04-29T22:00:00Z", "2023-04-29T22:00:00Z", "2023-04-29T22:00:00Z", "2023-04-29T22:00:00Z", "2023-04-29T22:00:00Z", "2023-04-29T22:00:00Z", "2023-04-29T22:00:00Z", "2023-04-29T22:00:00Z", "2023-04-29T22:00:00Z", "2023-04-29T22:00:00Z", "2023-04-29T22:00:00Z", "2023-04-29T22:00:00Z", "2023-04-29T22:00:00Z", "2023-04-29T22:00:00Z", "2023-04-29T22:00:00Z", "2023-04-29T22:00:00Z", "2023-04-29T22:00:00Z", "2023-04-29T22:00:00Z", "2023-04-29T22:00:00Z", "2023-04-29T22:00:00Z", "2023-04-29T22:00:00Z", "2023-04-29T22:00:00Z", "2023-04-29T22:00:00Z", "2023-04-29T22:00:00Z", "2023-04-29T22:00:00Z", "2023-04-29T22:00:00Z", "2023-04-29T22:00:00Z", "2023-04-29T22:00:00Z", "2023-04-29T22:00:00Z", "2023-04-29T22:00:00Z", "2023-04-29T22:00:00Z", "2023-04-29T22:00:00Z", "2023-04-29T22:00:00Z", "2023-04-29T22:00:00Z", "2023-04-29T22:00:00Z", "2023-04-29T22:00:00Z", "2023-04-29T22:00:00Z", "2023-04-29T22:00:00Z", "2023-04-29T22:00:00Z", "2023-04-29T22:00:00Z", "2023-04-29T22:00:00Z", "2023-04-29T22:00:00Z", "2023-04-29T22:00:00Z", "2023-04-29T22:00:00Z", "2023-04-29T22:00:00Z", "2023-04-29T22:00:00Z", "2023-04-29T22:00:00Z", "2023-04-29T22:00:00Z", "2023-04-29T22:00:00Z", "2023-04-29T22:00:00Z", "2023-04-29T22:00:00Z", "2023-04-29T22:00:00Z", "2023-04-29T22:00:00Z", "2023-04-29T22:00:00Z", "2023-04-29T22:00:00Z", "2023-04-29T22:00:00Z", "2023-04-29T22:00:00Z", "2023-04-29T22:00:00Z", "2023-04-29T22:00:00Z", "2023-04-29T22:00:00Z", "2023-04-29T22:00:00Z", "2023-04-29T22:00:00Z", "2023-04-29T22:00:00Z", "2023-04-29T22:00:00Z", "2023-04-29T22:00:00Z", "2023-04-29T22:00:00Z", "2023-04-29T22:00:00Z", "2023-04-29T22:00:00Z", "2023-04-29T22:00:00Z", "2023-04-29T22:00:00Z", "2023-04-29T22:00:00Z", "2023-04-29T22:00:00Z", "2023-04-29T22:00:00Z", "2023-04-29T22:00:00Z", "2023-04-29T22:00:00Z", "2023-04-29T22:00:00Z", "2023-04-29T22:00:00Z", "2023-04-29T22:00:00Z", "2023-04-29T22:00:00Z", "2023-04-29T22:00:00Z", "2023-04-29T22:00:00Z", "2023-04-29T22:00:00Z", "2023-04-29T22:00:00Z", "2023-04-29T22:00:00Z", "2023-04-29T22:00:00Z", "2023-04-29T22:00:00Z", "2023-04-29T22:00:00Z", "2023-04-29T22:00:00Z", "2023-04-29T22:00:00Z", "2023-04-29T22:00:00Z", "2023-04-29T22:00:00Z", "2023-04-29T22:00:00Z", "2023-04-29T22:00:00Z", "2023-04-29T22:00:00Z", "2023-04-29T22:00:00Z", "2023-04-29T22:00:00Z", "2023-04-29T22:00:00Z", "2023-04-29T22:00:00Z", "2023-04-29T22:00:00Z", "2023-04-29T22:00:00Z", "2023-04-29T22:00:00Z", "2023-04-29T22:00:00Z", "2023-04-29T22:00:00Z", "2023-04-29T22:00:00Z", "2023-04-29T22:00:00Z", "2023-04-29T22:00:00Z", "2023-04-29T22:00:00Z", "2023-04-29T22:00:00Z", "2023-04-29T22:00:00Z", "2023-04-29T22:00:00Z", "2023-04-29T22:00:00Z", "2023-04-29T22:00:00Z", "2023-04-29T22:45:00Z", "2023-04-29T22:00:00Z", "2023-04-29T22:00:00Z", "2023-04-29T22:00:00Z", "2023-04-29T22:00:00Z", "2023-04-29T22:00:00Z", "2023-04-29T22:00:00Z", "2023-04-29T22:00:00Z", "2023-04-29T22:00:00Z", "2023-04-29T22:00:00Z", "2023-04-29T22:00:00Z", "2023-04-29T22:00:00Z", "2023-04-29T22:00:00Z", "2023-04-29T22:00:00Z", "2023-04-29T22:00:00Z", "2023-04-29T22:00:00Z", "2023-04-29T22:00:00Z", "2023-04-29T22:00:00Z", "2023-04-29T22:00:00Z", "2023-04-29T22:00:00Z", "2023-04-29T22:00:00Z", "2023-04-29T22:00:00Z", "2023-04-29T22:00:00Z", "2023-04-29T22:00:00Z", "2023-04-29T22:00:00Z", "2023-04-29T22:00:00Z", "2023-04-29T22:00:00Z", "2023-04-29T22:00:00Z", "2023-04-29T22:00:00Z", "2023-04-29T22:00:00Z", "2023-04-29T22:00:00Z", "2023-04-29T22:00:00Z", "2023-04-29T22:00:00Z", "2023-04-29T22:00:00Z", "2023-04-29T22:00:00Z", "2023-04-29T22:00:00Z", "2023-04-29T22:00:00Z", "2023-04-29T22:00:00Z", "2023-04-29T22:00:00Z", "2023-04-29T22:00:00Z", "2023-04-29T22:00:00Z", "2023-04-29T22:00:00Z", "2023-04-29T22:00:00Z", "2023-04-29T22:00:00Z", "2023-04-29T22:00:00Z", "2023-04-29T22:00:00Z", "2023-04-29T22:00:00Z", "2023-04-29T22:00:00Z", "2023-04-29T22:00:00Z", "2023-04-29T22:00:00Z", "2023-04-29T22:00:00Z", "2023-04-29T22:00:00Z", "2023-04-29T22:00:00Z", "2023-04-29T22:00:00Z", "2023-04-29T22:00:00Z", "2023-04-29T22:00:00Z", "2023-04-29T22:00:00Z", "2023-04-29T22:00:00Z", "2023-04-29T22:00:00Z", "2023-04-29T22:00:00Z", "2023-04-29T22:00:00Z", "2023-04-29T22:00:00Z", "2023-04-29T22:00:00Z", "2023-04-29T22:00:00Z", "2023-04-29T22:00:00Z", "2023-04-29T22:00:00Z", "2023-04-29T22:00:00Z", "2023-04-29T22:00:00Z", "2023-04-29T22:00:00Z", "2023-04-29T22:00:00Z", "2023-04-29T22:00:00Z", "2023-04-29T22:00:00Z", "2023-04-29T22:00:00Z", "2023-04-29T22:00:00Z", "2023-04-29T22:00:00Z", "2023-04-29T22:00:00Z", "2023-04-29T22:00:00Z", "2023-04-29T22:00:00Z", "2023-04-29T22:00:00Z", "2023-04-29T22:00:00Z", "2023-04-29T22:00:00Z", "2023-04-29T22:00:00Z", "2023-04-29T22:00:00Z", "2023-04-29T22:00:00Z", "2023-04-29T22:00:00Z", "2023-04-29T22:00:00Z", "2023-04-29T22:00:00Z", "2023-04-29T22:00:00Z", "2023-04-29T22:00:00Z", "2023-04-29T22:00:00Z", "2023-04-29T22:00:00Z", "2023-04-29T22:00:00Z", "2023-04-29T22:00:00Z", "2023-04-29T22:00:00Z", "2023-04-29T22:00:00Z", "2023-04-29T22:00:00Z", "2023-04-29T22:00:00Z", "2023-04-29T22:00:00Z", "2023-04-29T22:00:00Z", "2023-04-29T22:00:00Z", "2023-04-29T22:00:00Z", "2023-04-29T22:00:00Z", "2023-04-29T22:00:00Z", "2023-04-29T22:00:00Z", "2023-04-29T22:00:00Z", "2023-04-29T22:00:00Z", "2023-04-29T22:00:00Z", "2023-04-29T22:00:00Z", "2023-04-29T22:00:00Z", "2023-04-29T22:00:00Z", "2023-04-29T22:00:00Z", "2023-04-29T22:00:00Z", "2023-04-29T22:00:00Z", "2023-04-29T22:00:00Z", "2023-04-29T22:00:00Z", "2023-04-29T22:00:00Z", "2023-04-29T22:00:00Z", "2023-04-29T22:00:00Z", "2023-04-29T22:00:00Z", "2023-04-29T22:00:00Z", "2023-04-29T22:00:00Z", "2023-04-29T22:00:00Z", "2023-04-29T22:00:00Z", "2023-04-29T22:00:00Z", "2023-04-29T22:00:00Z", "2023-04-29T22:00:00Z", "2023-04-29T22:00:00Z", "2023-04-29T22:00:00Z", "2023-04-29T22:00:00Z", "2023-04-29T22:00:00Z", "2023-04-29T22:00:00Z", "2023-04-29T22:00:00Z", "2023-04-29T22:00:00Z", "2023-04-29T22:00:00Z", "2023-04-29T22:00:00Z", "2023-04-29T22:00:00Z", "2023-04-29T22:00:00Z", "2023-04-29T22:00:00Z", "2023-04-29T22:00:00Z", "2023-04-29T22:00:00Z", "2023-04-29T22:00:00Z", "2023-04-29T22:00:00Z", "2023-04-29T22:00:00Z", "2023-04-29T22:00:00Z", "2023-04-29T22:00:00Z", "2023-04-29T22:00:00Z", "2023-04-29T22:00:00Z", "2023-04-29T22:00:00Z", "2023-04-29T22:00:00Z", "2023-04-29T22:00:00Z", "2023-04-29T22:00:00Z", "2023-04-29T22:00:00Z", "2023-04-29T22:00:00Z", "2023-04-29T22:00:00Z", "2023-04-29T22:00:00Z", "2023-04-29T22:00:00Z", "2023-04-29T22:00:00Z", "2023-04-29T22:00:00Z", "2023-04-29T22:00:00Z", "2023-04-29T22:00:00Z", "2023-04-29T22:00:00Z", "2023-04-29T22:53:00Z", "2023-04-29T22:00:00Z", "2023-04-29T22:00:00Z", "2023-04-29T22:00:00Z", "2023-04-29T22:00:00Z", "2023-04-29T22:00:00Z", "2023-04-29T22:00:00Z", "2023-04-29T22:00:00Z", "2023-04-29T22:00:00Z", "2023-04-29T22:00:00Z", "2023-04-29T22:00:00Z", "2023-04-29T22:00:00Z", "2023-04-29T22:00:00Z", "2023-04-29T22:00:00Z", "2023-04-29T22:44:00Z", "2023-04-29T22:00:00Z", "2023-04-29T22:00:00Z", "2023-04-29T22:00:00Z", "2023-04-29T22:00:00Z", "2023-04-29T22:00:00Z", "2023-04-29T22:43:00Z", "2023-04-29T22:00:00Z", "2023-04-29T22:34:00Z", "2023-04-29T22:00:00Z", "2023-04-29T22:00:00Z", "2023-04-29T22:00:00Z", "2023-04-29T22:00:00Z", "2023-04-29T22:00:00Z", "2023-04-29T22:35:00Z", "2023-04-29T22:00:00Z", "2023-04-29T22:00:00Z", "2023-04-29T22:00:00Z", "2023-04-29T22:00:00Z", "2023-04-29T22:00:00Z", "2023-04-29T22:00:00Z", "2023-04-29T22:49:00Z", "2023-04-29T22:00:00Z", "2023-04-29T22:10:00Z", "2023-04-29T22:00:00Z", "2023-04-29T22:00:00Z", "2023-04-29T22:00:00Z", "2023-04-29T22:00:00Z", "2023-04-29T22:00:00Z", "2023-04-29T22:50:00Z", "2023-04-29T22:00:00Z", "2023-04-29T22:00:00Z", "2023-04-29T22:00:00Z", "2023-04-29T22:00:00Z", "2023-04-29T22:00:00Z", "2023-04-29T22:00:00Z", "2023-04-29T22:48:00Z", "2023-04-29T22:00:00Z", "2023-04-29T22:00:00Z", "2023-04-29T22:00:00Z", "2023-04-29T22:00:00Z", "2023-04-29T22:00:00Z", "2023-04-29T22:00:00Z", "2023-04-29T22:00:00Z", "2023-04-29T22:00:00Z", "2023-04-29T22:24:00Z", "2023-04-29T22:00:00Z", "2023-04-29T22:00:00Z", "2023-04-29T22:00:00Z", "2023-04-29T22:00:00Z", "2023-04-29T22:00:00Z", "2023-04-29T22:00:00Z", "2023-04-29T22:00:00Z", "2023-04-29T22:00:00Z", "2023-04-29T22:52:00Z", "2023-04-29T22:16:00Z", "2023-04-29T22:00:00Z", "2023-04-29T22:00:00Z", "2023-04-29T22:00:00Z", "2023-04-29T22:00:00Z", "2023-04-29T22:00:00Z", "2023-04-29T22:29:00Z", "2023-04-29T22:00:00Z", "2023-04-29T22:00:00Z", "2023-04-29T22:00:00Z", "2023-04-29T22:00:00Z", "2023-04-29T22:18:00Z", "2023-04-29T22:00:00Z", "2023-04-29T22:51:00Z", "2023-04-29T22:00:00Z", "2023-04-29T22:00:00Z", "2023-04-29T22:00:00Z", "2023-04-29T22:00:00Z", "2023-04-29T22:00:00Z", "2023-04-29T22:00:00Z", "2023-04-29T22:00:00Z", "2023-04-29T22:00:00Z", "2023-04-29T22:00:00Z", "2023-04-29T22:00:00Z", "2023-04-29T22:00:00Z", "2023-04-29T22:00:00Z", "2023-04-29T22:00:00Z", "2023-04-29T22:00:00Z", "2023-04-29T22:30:00Z", "2023-04-29T22:26:00Z", "2023-04-29T22:00:00Z", "2023-04-29T22:00:00Z", "2023-04-29T22:00:00Z", "2023-04-29T22:00:00Z", "2023-04-29T22:00:00Z", "2023-04-29T22:00:00Z", "2023-04-29T22:33:00Z", "2023-04-29T22:00:00Z", "2023-04-29T22:00:00Z", "2023-04-29T22:36:00Z", "2023-04-29T22:00:00Z", "2023-04-29T22:00:00Z", "2023-04-29T22:00:00Z", "2023-04-29T22:53:00Z", "2023-04-29T22:00:00Z", "2023-04-29T22:00:00Z", "2023-04-29T22:00:00Z", "2023-04-29T22:19:00Z", "2023-04-29T22:00:00Z", "2023-04-29T22:40:00Z", "2023-04-29T22:00:00Z", "2023-04-29T22:00:00Z", "2023-04-29T22:00:00Z", "2023-04-29T22:00:00Z", "2023-04-29T22:53:00Z", "2023-04-29T22:00:00Z", "2023-04-29T22:00:00Z", "2023-04-29T22:47:00Z", "2023-04-29T22:00:00Z", "2023-04-29T22:00:00Z", "2023-04-29T22:00:00Z", "2023-04-29T22:00:00Z", "2023-04-29T22:00:00Z", "2023-04-29T22:40:00Z", "2023-04-29T22:00:00Z", "2023-04-29T22:00:00Z", "2023-04-29T22:00:00Z", "2023-04-29T22:00:00Z", "2023-04-29T22:00:00Z", "2023-04-29T22:00:00Z", "2023-04-29T22:00:00Z", "2023-04-29T22:00:00Z", "2023-04-29T22:00:00Z", "2023-04-29T22:00:00Z", "2023-04-29T22:00:00Z", "2023-04-29T22:00:00Z", "2023-04-29T22:51:00Z", "2023-04-29T22:00:00Z", "2023-04-29T22:00:00Z", "2023-04-29T22:00:00Z", "2023-04-29T22:00:00Z", "2023-04-29T22:00:00Z", "2023-04-29T22:00:00Z", "2023-04-29T22:00:00Z", "2023-04-29T22:00:00Z", "2023-04-29T22:00:00Z", "2023-04-29T22:00:00Z", "2023-04-29T22:00:00Z", "2023-04-29T22:00:00Z", "2023-04-29T22:00:00Z", "2023-04-29T22:00:00Z", "2023-04-29T22:44:00Z", "2023-04-29T22:00:00Z", "2023-04-29T22:00:00Z", "2023-04-29T22:00:00Z", "2023-04-29T22:31:00Z", "2023-04-29T22:00:00Z", "2023-04-29T22:00:00Z", "2023-04-29T22:00:00Z", "2023-04-29T22:00:00Z", "2023-04-29T22:00:00Z", "2023-04-29T22:04:00Z", "2023-04-29T22:00:00Z", "2023-04-29T22:00:00Z", "2023-04-29T22:00:00Z", "2023-04-29T22:00:00Z", "2023-04-29T22:00:00Z", "2023-04-29T22:00:00Z", "2023-04-29T22:00:00Z", "2023-04-29T22:00:00Z", "2023-04-29T22:00:00Z", "2023-04-29T22:00:00Z", "2023-04-29T22:00:00Z", "2023-04-29T22:00:00Z", "2023-04-29T22:00:00Z", "2023-04-29T22:00:00Z", "2023-04-29T22:00:00Z", "2023-04-29T22:00:00Z", "2023-04-29T22:00:00Z", "2023-04-29T22:00:00Z", "2023-04-29T22:00:00Z", "2023-04-29T22:00:00Z", "2023-04-29T22:00:00Z", "2023-04-29T22:38:00Z", "2023-04-29T22:00:00Z", "2023-04-29T22:00:00Z", "2023-04-29T22:00:00Z", "2023-04-29T22:53:00Z", "2023-04-29T22:00:00Z", "2023-04-29T22:00:00Z", "2023-04-29T22:00:00Z", "2023-04-29T22:00:00Z", "2023-04-29T22:00:00Z", "2023-04-29T22:00:00Z", "2023-04-29T22:00:00Z", "2023-04-29T22:30:00Z", "2023-04-29T22:30:00Z", "2023-04-29T22:30:00Z", "2023-04-29T22:30:00Z", "2023-04-29T22:30:00Z", "2023-04-29T22:30:00Z", "2023-04-29T22:00:00Z", "2023-04-29T22:00:00Z", "2023-04-29T22:00:00Z", "2023-04-29T22:00:00Z", "2023-04-29T22:00:00Z", "2023-04-29T22:00:00Z", "2023-04-29T22:00:00Z", "2023-04-29T22:00:00Z", "2023-04-29T22:00:00Z", "2023-04-29T22:00:00Z", "2023-04-29T22:00:00Z", "2023-04-29T22:00:00Z", "2023-04-29T22:30:00Z", "2023-04-29T22:00:00Z", "2023-04-29T22:00:00Z", "2023-04-29T22:00:00Z", "2023-04-29T22:00:00Z", "2023-04-29T22:00:00Z", "2023-04-29T22:00:00Z", "2023-04-29T22:00:00Z", "2023-04-29T22:00:00Z", "2023-04-29T22:00:00Z", "2023-04-29T22:00:00Z", "2023-04-29T22:00:00Z", "2023-04-29T22:30:00Z", "2023-04-29T22:30:00Z", "2023-04-29T22:30:00Z", "2023-04-29T22:00:00Z", "2023-04-29T22:00:00Z", "2023-04-29T22:00:00Z", "2023-04-29T22:00:00Z", "2023-04-29T22:30:00Z", "2023-04-29T22:00:00Z", "2023-04-29T22:00:00Z", "2023-04-29T22:00:00Z", "2023-04-29T22:00:00Z", "2023-04-29T22:00:00Z", "2023-04-29T22:00:00Z", "2023-04-29T22:00:00Z", "2023-04-29T22:50:00Z", "2023-04-29T22:25:00Z", "2023-04-29T22:25:00Z", "2023-04-29T22:50:00Z", "2023-04-29T22:50:00Z", "2023-04-29T22:25:00Z", "2023-04-29T22:25:00Z", "2023-04-29T22:50:00Z", "2023-04-29T22:33:00Z", "2023-04-29T22:33:00Z", "2023-04-29T22:50:00Z", "2023-04-29T22:50:00Z", "2023-04-29T22:50:00Z", "2023-04-29T22:50:00Z", "2023-04-29T22:50:00Z", "2023-04-29T22:50:00Z", "2023-04-29T22:50:00Z", "2023-04-29T22:50:00Z", "2023-04-29T22:50:00Z", "2023-04-29T22:50:00Z", "2023-04-29T22:50:00Z", "2023-04-29T22:50:00Z", "2023-04-29T22:50:00Z", "2023-04-29T22:50:00Z", "2023-04-29T22:50:00Z", "2023-04-29T22:50:00Z", "2023-04-29T22:50:00Z", "2023-04-29T22:50:00Z", "2023-04-29T22:50:00Z", "2023-04-29T22:50:00Z", "2023-04-29T22:50:00Z", "2023-04-29T22:50:00Z", "2023-04-29T22:50:00Z", "2023-04-29T22:50:00Z", "2023-04-29T22:50:00Z", "2023-04-29T22:50:00Z", "2023-04-29T22:50:00Z", "2023-04-29T22:50:00Z", "2023-04-29T22:50:00Z", "2023-04-29T22:50:00Z", "2023-04-29T22:50:00Z", "2023-04-29T22:50:00Z", "2023-04-29T22:50:00Z", "2023-04-29T22:50:00Z", "2023-04-29T22:50:00Z", "2023-04-29T22:50:00Z", "2023-04-29T22:50:00Z", "2023-04-29T22:50:00Z", "2023-04-29T22:50:00Z", "2023-04-29T22:50:00Z", "2023-04-29T22:50:00Z", "2023-04-29T22:53:00Z", "2023-04-29T22:50:00Z", "2023-04-29T22:50:00Z", "2023-04-29T22:50:00Z", "2023-04-29T22:50:00Z", "2023-04-29T22:50:00Z", "2023-04-29T22:50:00Z", "2023-04-29T22:50:00Z", "2023-04-29T22:50:00Z", "2023-04-29T22:50:00Z", "2023-04-29T22:50:00Z", "2023-04-29T22:50:00Z", "2023-04-29T22:50:00Z", "2023-04-29T22:50:00Z", "2023-04-29T22:50:00Z", "2023-04-29T22:50:00Z", "2023-04-29T22:50:00Z", "2023-04-29T22:50:00Z", "2023-04-29T22:50:00Z", "2023-04-29T22:50:00Z", "2023-04-29T22:50:00Z", "2023-04-29T22:50:00Z", "2023-04-29T22:50:00Z", "2023-04-29T22:50:00Z", "2023-04-29T22:50:00Z", "2023-04-29T22:50:00Z", "2023-04-29T22:50:00Z", "2023-04-29T22:50:00Z", "2023-04-29T22:50:00Z", "2023-04-29T22:50:00Z", "2023-04-29T22:50:00Z", "2023-04-29T22:50:00Z", "2023-04-29T22:50:00Z", "2023-04-29T22:50:00Z", "2023-04-29T22:20:00Z", "2023-04-29T22:20:00Z", "2023-04-29T22:20:00Z", "2023-04-29T22:50:00Z", "2023-04-29T22:50:00Z", "2023-04-29T22:50:00Z", "2023-04-29T22:50:00Z", "2023-04-29T22:50:00Z", "2023-04-29T22:50:00Z", "2023-04-29T22:50:00Z", "2023-04-29T22:50:00Z", "2023-04-29T22:50:00Z", "2023-04-29T22:50:00Z", "2023-04-29T22:50:00Z", "2023-04-29T22:50:00Z", "2023-04-29T22:50:00Z", "2023-04-29T22:50:00Z", "2023-04-29T22:50:00Z", "2023-04-29T21:50:00Z", "2023-04-29T22:50:00Z", "2023-04-29T22:50:00Z", "2023-04-29T22:20:00Z", "2023-04-29T22:20:00Z", "2023-04-29T22:20:00Z", "2023-04-29T22:20:00Z", "2023-04-29T22:50:00Z", "2023-04-29T22:50:00Z", "2023-04-29T22:50:00Z", "2023-04-29T22:50:00Z", "2023-04-29T22:50:00Z", "2023-04-29T22:50:00Z", "2023-04-29T22:50:00Z", "2023-04-29T22:20:00Z", "2023-04-29T22:50:00Z", "2023-04-29T22:50:00Z", "2023-04-29T22:50:00Z", "2023-04-29T22:50:00Z", "2023-04-29T22:20:00Z", "2023-04-29T22:20:00Z", "2023-04-29T21:50:00Z", "2023-04-29T22:20:00Z", "2023-04-29T22:20:00Z", "2023-04-29T22:50:00Z", "2023-04-29T22:50:00Z", "2023-04-29T22:50:00Z", "2023-04-29T22:50:00Z", "2023-04-29T22:20:00Z", "2023-04-29T21:55:00Z", "2023-04-29T21:55:00Z", "2023-04-29T22:20:00Z", "2023-04-29T21:55:00Z", "2023-04-29T22:20:00Z", "2023-04-29T22:20:00Z", "2023-04-29T22:20:00Z", "2023-04-29T22:20:00Z", "2023-04-29T22:20:00Z", "2023-04-29T21:50:00Z", "2023-04-29T22:20:00Z", "2023-04-29T22:20:00Z", "2023-04-29T22:20:00Z", "2023-04-29T22:20:00Z", "2023-04-29T22:20:00Z", "2023-04-29T22:20:00Z", "2023-04-29T22:20:00Z", "2023-04-29T22:20:00Z", "2023-04-29T22:20:00Z", "2023-04-29T22:20:00Z", "2023-04-29T22:20:00Z", "2023-04-29T22:25:00Z", "2023-04-29T22:25:00Z", "2023-04-29T22:25:00Z", "2023-04-29T22:25:00Z", "2023-04-29T22:25:00Z", "2023-04-29T22:25:00Z", "2023-04-29T22:25:00Z", "2023-04-29T22:25:00Z", "2023-04-29T22:25:00Z", "2023-04-29T22:25:00Z", "2023-04-29T22:25:00Z", "2023-04-29T22:25:00Z", "2023-04-29T22:25:00Z", "2023-04-29T22:25:00Z", "2023-04-29T22:25:00Z", "2023-04-29T22:25:00Z", "2023-04-29T22:29:00Z", "2023-04-29T22:25:00Z", "2023-04-29T22:25:00Z", "2023-04-29T22:25:00Z", "2023-04-29T22:25:00Z", "2023-04-29T22:25:00Z", "2023-04-29T22:25:00Z", "2023-04-29T22:25:00Z", "2023-04-29T22:25:00Z", "2023-04-29T22:25:00Z", "2023-04-29T22:30:00Z", "2023-04-29T22:30:00Z", "2023-04-29T22:00:00Z", "2023-04-29T22:30:00Z", "2023-04-29T22:50:00Z", "2023-04-29T22:50:00Z", "2023-04-29T22:50:00Z", "2023-04-29T22:50:00Z", "2023-04-29T22:50:00Z", "2023-04-29T22:50:00Z", "2023-04-29T22:50:00Z", "2023-04-29T22:50:00Z", "2023-04-29T22:50:00Z", "2023-04-29T22:50:00Z", "2023-04-29T22:50:00Z", "2023-04-29T22:50:00Z", "2023-04-29T22:50:00Z", "2023-04-29T22:50:00Z", "2023-04-29T22:50:00Z", "2023-04-29T22:50:00Z", "2023-04-29T22:50:00Z", "2023-04-29T22:50:00Z", "2023-04-29T22:50:00Z", "2023-04-29T21:50:00Z", "2023-04-29T22:50:00Z", "2023-04-29T22:50:00Z", "2023-04-29T22:50:00Z", "2023-04-29T22:50:00Z", "2023-04-29T22:50:00Z", "2023-04-29T22:20:00Z", "2023-04-29T22:50:00Z", "2023-04-29T22:50:00Z", "2023-04-29T22:50:00Z", "2023-04-29T22:50:00Z", "2023-04-29T22:50:00Z", "2023-04-29T22:50:00Z", "2023-04-29T22:50:00Z", "2023-04-29T22:50:00Z", "2023-04-29T22:50:00Z", "2023-04-29T22:50:00Z", "2023-04-29T22:50:00Z", "2023-04-29T22:50:00Z", "2023-04-29T22:50:00Z", "2023-04-29T22:50:00Z", "2023-04-29T22:50:00Z", "2023-04-29T22:50:00Z", "2023-04-29T22:50:00Z", "2023-04-29T22:50:00Z", "2023-04-29T22:50:00Z", "2023-04-29T22:50:00Z", "2023-04-29T22:50:00Z", "2023-04-29T22:50:00Z", "2023-04-29T22:50:00Z", "2023-04-29T22:50:00Z", "2023-04-29T22:50:00Z", "2023-04-29T22:50:00Z", "2023-04-29T22:50:00Z", "2023-04-29T22:50:00Z", "2023-04-29T22:50:00Z", "2023-04-29T22:50:00Z", "2023-04-29T22:50:00Z", "2023-04-29T22:50:00Z", "2023-04-29T22:50:00Z", "2023-04-29T22:50:00Z", "2023-04-29T22:50:00Z", "2023-04-29T22:50:00Z", "2023-04-29T22:50:00Z", "2023-04-29T22:50:00Z", "2023-04-29T22:50:00Z", "2023-04-29T22:50:00Z", "2023-04-29T22:50:00Z", "2023-04-29T22:50:00Z", "2023-04-29T22:50:00Z", "2023-04-29T22:50:00Z", "2023-04-29T22:50:00Z", "2023-04-29T22:50:00Z", "2023-04-29T22:50:00Z", "2023-04-29T22:50:00Z", "2023-04-29T22:50:00Z", "2023-04-29T22:50:00Z", "2023-04-29T22:50:00Z", "2023-04-29T22:30:00Z", "2023-04-29T22:30:00Z", "2023-04-29T22:30:00Z", "2023-04-29T22:30:00Z", "2023-04-29T22:30:00Z", "2023-04-29T22:30:00Z", "2023-04-29T22:30:00Z", "2023-04-29T22:30:00Z", "2023-04-29T22:30:00Z", "2023-04-29T22:30:00Z", "2023-04-29T22:30:00Z", "2023-04-29T22:30:00Z", "2023-04-29T22:30:00Z", "2023-04-29T22:50:00Z", "2023-04-29T22:50:00Z", "2023-04-29T22:50:00Z", "2023-04-29T22:50:00Z", "2023-04-29T22:50:00Z", "2023-04-29T22:50:00Z", "2023-04-29T22:50:00Z", "2023-04-29T22:50:00Z", "2023-04-29T22:50:00Z", "2023-04-29T22:50:00Z", "2023-04-29T22:50:00Z", "2023-04-29T22:50:00Z", "2023-04-29T22:50:00Z", "2023-04-29T22:50:00Z", "2023-04-29T22:50:00Z", "2023-04-29T22:50:00Z", "2023-04-29T22:50:00Z", "2023-04-29T22:50:00Z", "2023-04-29T22:50:00Z", "2023-04-29T22:50:00Z", "2023-04-29T22:50:00Z", "2023-04-29T22:50:00Z", "2023-04-29T22:50:00Z", "2023-04-29T22:50:00Z", "2023-04-29T22:50:00Z", "2023-04-29T22:50:00Z", "2023-04-29T22:50:00Z", "2023-04-29T22:50:00Z", "2023-04-29T22:50:00Z", "2023-04-29T22:50:00Z", "2023-04-29T22:50:00Z", "2023-04-29T22:50:00Z", "2023-04-29T22:50:00Z", "2023-04-29T22:50:00Z", "2023-04-29T22:50:00Z", "2023-04-29T22:50:00Z", "2023-04-29T22:50:00Z", "2023-04-29T22:50:00Z", "2023-04-29T22:50:00Z", "2023-04-29T22:50:00Z", "2023-04-29T22:50:00Z", "2023-04-29T22:50:00Z", "2023-04-29T22:50:00Z", "2023-04-29T22:50:00Z", "2023-04-29T22:50:00Z", "2023-04-29T22:50:00Z", "2023-04-29T21:55:00Z", "2023-04-29T21:55:00Z", "2023-04-29T22:20:00Z", "2023-04-29T22:20:00Z", "2023-04-29T22:20:00Z", "2023-04-29T22:20:00Z", "2023-04-29T22:20:00Z", "2023-04-29T22:20:00Z", "2023-04-29T22:20:00Z", "2023-04-29T22:20:00Z", "2023-04-29T21:55:00Z", "2023-04-29T21:55:00Z", "2023-04-29T22:20:00Z", "2023-04-29T22:20:00Z", "2023-04-29T22:20:00Z", "2023-04-29T22:20:00Z", "2023-04-29T22:20:00Z", "2023-04-29T22:20:00Z", "2023-04-29T22:20:00Z", "2023-04-29T21:55:00Z", "2023-04-29T22:20:00Z", "2023-04-29T22:20:00Z", "2023-04-29T22:20:00Z", "2023-04-29T22:20:00Z", "2023-04-29T22:20:00Z", "2023-04-29T22:20:00Z", "2023-04-29T22:50:00Z", "2023-04-29T22:50:00Z", "2023-04-29T22:50:00Z", "2023-04-29T22:50:00Z", "2023-04-29T22:50:00Z", "2023-04-29T22:50:00Z", "2023-04-29T22:20:00Z", "2023-04-29T22:50:00Z", "2023-04-29T22:00:00Z", "2023-04-29T22:00:00Z", "2023-04-29T22:00:00Z", "2023-04-29T22:00:00Z", "2023-04-29T22:00:00Z", "2023-04-29T22:00:00Z", "2023-04-29T22:00:00Z", "2023-04-29T22:00:00Z", "2023-04-29T22:00:00Z", "2023-04-29T22:00:00Z", "2023-04-29T22:00:00Z", "2023-04-29T22:00:00Z", "2023-04-29T22:00:00Z", "2023-04-29T22:00:00Z", "2023-04-29T22:00:00Z", "2023-04-29T22:00:00Z", "2023-04-29T22:00:00Z", "2023-04-29T22:00:00Z", "2023-04-29T22:00:00Z", "2023-04-29T22:00:00Z", "2023-04-29T22:00:00Z", "2023-04-29T22:00:00Z", "2023-04-29T22:00:00Z", "2023-04-29T22:00:00Z", "2023-04-29T21:55:00Z", "2023-04-29T22:00:00Z", "2023-04-29T22:00:00Z", "2023-04-29T22:00:00Z", "2023-04-29T22:30:00Z", "2023-04-29T22:30:00Z", "2023-04-29T22:30:00Z", "2023-04-29T22:30:00Z", "2023-04-29T22:00:00Z", "2023-04-29T22:00:00Z", "2023-04-29T22:00:00Z", "2023-04-29T22:00:00Z", "2023-04-29T22:00:00Z", "2023-04-29T22:00:00Z", "2023-04-29T22:00:00Z", "2023-04-29T22:00:00Z", "2023-04-29T22:00:00Z", "2023-04-29T22:00:00Z", "2023-04-29T22:00:00Z", "2023-04-29T22:00:00Z", "2023-04-29T22:00:00Z", "2023-04-29T22:00:00Z", "2023-04-29T22:00:00Z", "2023-04-29T22:00:00Z", "2023-04-29T22:00:00Z", "2023-04-29T22:30:00Z", "2023-04-29T22:00:00Z", "2023-04-29T22:30:00Z", "2023-04-29T22:30:00Z", "2023-04-29T22:30:00Z", "2023-04-29T22:30:00Z", "2023-04-29T22:30:00Z", "2023-04-29T22:30:00Z", "2023-04-29T22:30:00Z", "2023-04-29T22:30:00Z", "2023-04-29T22:30:00Z", "2023-04-29T22:30:00Z", "2023-04-29T22:00:00Z", "2023-04-29T22:00:00Z", "2023-04-29T22:00:00Z", "2023-04-29T22:30:00Z", "2023-04-29T22:30:00Z", "2023-04-29T22:00:00Z", "2023-04-29T22:00:00Z", "2023-04-29T22:30:00Z", "2023-04-29T22:00:00Z", "2023-04-29T22:30:00Z", "2023-04-29T22:00:00Z", "2023-04-29T22:30:00Z", "2023-04-29T22:00:00Z", "2023-04-29T22:30:00Z", "2023-04-29T22:00:00Z", "2023-04-29T22:00:00Z", "2023-04-29T22:00:00Z", "2023-04-29T22:30:00Z", "2023-04-29T22:30:00Z", "2023-04-29T22:00:00Z", "2023-04-29T22:00:00Z", "2023-04-29T22:00:00Z", "2023-04-29T22:00:00Z", "2023-04-29T22:00:00Z", "2023-04-29T22:00:00Z", "2023-04-29T22:00:00Z", "2023-04-29T22:00:00Z", "2023-04-29T22:00:00Z", "2023-04-29T22:00:00Z", "2023-04-29T22:30:00Z", "2023-04-29T22:00:00Z", "2023-04-29T22:00:00Z", "2023-04-29T22:00:00Z", "2023-04-29T22:00:00Z", "2023-04-29T22:00:00Z", "2023-04-29T22:00:00Z", "2023-04-29T22:00:00Z", "2023-04-29T22:00:00Z", "2023-04-29T22:00:00Z", "2023-04-29T22:00:00Z", "2023-04-29T22:00:00Z", "2023-04-29T22:00:00Z", "2023-04-29T22:00:00Z", "2023-04-29T22:00:00Z", "2023-04-29T22:00:00Z", "2023-04-29T22:00:00Z", "2023-04-29T22:00:00Z", "2023-04-29T22:00:00Z", "2023-04-29T22:00:00Z", "2023-04-29T22:00:00Z", "2023-04-29T22:00:00Z", "2023-04-29T22:30:00Z", "2023-04-29T22:30:00Z", "2023-04-29T22:00:00Z", "2023-04-29T22:00:00Z", "2023-04-29T22:00:00Z", "2023-04-29T22:35:00Z", "2023-04-29T21:59:00Z", "2023-04-29T22:30:00Z", "2023-04-29T22:35:00Z", "2023-04-29T22:35:00Z", "2023-04-29T22:35:00Z", "2023-04-29T22:35:00Z", "2023-04-29T22:35:00Z", "2023-04-29T22:35:00Z", "2023-04-29T22:55:00Z", "2023-04-29T22:35:00Z", "2023-04-29T21:58:00Z", "2023-04-29T22:35:00Z", "2023-04-29T22:35:00Z", "2023-04-29T22:55:00Z", "2023-04-29T22:35:00Z", "2023-04-29T22:35:00Z", "2023-04-29T21:54:00Z", "2023-04-29T22:35:00Z", "2023-04-29T22:35:00Z", "2023-04-29T22:35:00Z", "2023-04-29T22:35:00Z", "2023-04-29T22:35:00Z", "2023-04-29T22:35:00Z", "2023-04-29T22:35:00Z", "2023-04-29T22:50:00Z", "2023-04-29T22:35:00Z", "2023-04-29T22:35:00Z", "2023-04-29T21:55:00Z", "2023-04-29T21:55:00Z", "2023-04-29T21:55:00Z", "2023-04-29T21:55:00Z", "2023-04-29T21:55:00Z", "2023-04-29T21:55:00Z", "2023-04-29T21:55:00Z", "2023-04-29T21:55:00Z", "2023-04-29T21:55:00Z", "2023-04-29T21:55:00Z", "2023-04-29T21:55:00Z", "2023-04-29T21:55:00Z", "2023-04-29T22:35:00Z", "2023-04-29T21:55:00Z", "2023-04-29T21:55:00Z", "2023-04-29T21:55:00Z", "2023-04-29T22:35:00Z", "2023-04-29T21:55:00Z", "2023-04-29T22:26:00Z", "2023-04-29T21:55:00Z", "2023-04-29T21:55:00Z", "2023-04-29T21:55:00Z", "2023-04-29T21:55:00Z", "2023-04-29T21:55:00Z", "2023-04-29T21:55:00Z", "2023-04-29T21:55:00Z", "2023-04-29T21:55:00Z", "2023-04-29T21:55:00Z", "2023-04-29T21:55:00Z", "2023-04-29T22:22:00Z", "2023-04-29T21:55:00Z", "2023-04-29T21:55:00Z", "2023-04-29T21:55:00Z", "2023-04-29T21:55:00Z", "2023-04-29T21:55:00Z", "2023-04-29T21:55:00Z", "2023-04-29T22:55:00Z", "2023-04-29T22:35:00Z", "2023-04-29T22:35:00Z", "2023-04-29T22:55:00Z", "2023-04-29T22:35:00Z", "2023-04-29T22:54:00Z", "2023-04-29T22:35:00Z", "2023-04-29T21:55:00Z", "2023-04-29T22:35:00Z", "2023-04-29T22:35:00Z", "2023-04-29T22:35:00Z", "2023-04-29T22:35:00Z", "2023-04-29T22:45:00Z", "2023-04-29T22:35:00Z", "2023-04-29T22:55:00Z", "2023-04-29T22:35:00Z", "2023-04-29T22:35:00Z", "2023-04-29T22:55:00Z", "2023-04-29T22:35:00Z", "2023-04-29T22:50:00Z", "2023-04-29T22:45:00Z", "2023-04-29T22:35:00Z", "2023-04-29T22:35:00Z", "2023-04-29T22:35:00Z", "2023-04-29T22:35:00Z", "2023-04-29T22:35:00Z", "2023-04-29T22:35:00Z", "2023-04-29T22:30:00Z", "2023-04-29T22:35:00Z", "2023-04-29T22:35:00Z", "2023-04-29T22:35:00Z", "2023-04-29T22:39:00Z", "2023-04-29T22:49:00Z", "2023-04-29T21:56:00Z", "2023-04-29T22:35:00Z", "2023-04-29T22:35:00Z", "2023-04-29T22:35:00Z", "2023-04-29T22:45:00Z", "2023-04-29T22:35:00Z", "2023-04-29T22:35:00Z", "2023-04-29T22:35:00Z", "2023-04-29T22:35:00Z", "2023-04-29T22:35:00Z", "2023-04-29T22:35:00Z", "2023-04-29T22:55:00Z", "2023-04-29T22:35:00Z", "2023-04-29T22:35:00Z", "2023-04-29T22:45:00Z", "2023-04-29T22:16:00Z", "2023-04-29T22:35:00Z", "2023-04-29T22:35:00Z", "2023-04-29T22:35:00Z", "2023-04-29T22:35:00Z", "2023-04-29T22:35:00Z", "2023-04-29T22:35:00Z", "2023-04-29T22:35:00Z", "2023-04-29T22:35:00Z", "2023-04-29T22:35:00Z", "2023-04-29T22:35:00Z", "2023-04-29T22:35:00Z", "2023-04-29T22:35:00Z", "2023-04-29T22:35:00Z", "2023-04-29T21:55:00Z", "2023-04-29T22:35:00Z", "2023-04-29T22:55:00Z", "2023-04-29T22:35:00Z", "2023-04-29T22:35:00Z", "2023-04-29T22:40:00Z", "2023-04-29T22:35:00Z", "2023-04-29T22:35:00Z", "2023-04-29T22:30:00Z", "2023-04-29T22:35:00Z", "2023-04-29T22:35:00Z", "2023-04-29T22:35:00Z", "2023-04-29T22:35:00Z", "2023-04-29T22:35:00Z", "2023-04-29T22:35:00Z", "2023-04-29T22:35:00Z", "2023-04-29T22:35:00Z", "2023-04-29T22:35:00Z", "2023-04-29T22:35:00Z", "2023-04-29T22:35:00Z", "2023-04-29T22:35:00Z", "2023-04-29T22:35:00Z", "2023-04-29T22:35:00Z", "2023-04-29T22:35:00Z", "2023-04-29T22:35:00Z", "2023-04-29T22:55:00Z", "2023-04-29T22:35:00Z", "2023-04-29T22:35:00Z", "2023-04-29T22:51:00Z", "2023-04-29T22:35:00Z", "2023-04-29T22:35:00Z", "2023-04-29T22:40:00Z", "2023-04-29T22:35:00Z", "2023-04-29T22:29:00Z", "2023-04-29T22:35:00Z", "2023-04-29T22:35:00Z", "2023-04-29T22:35:00Z", "2023-04-29T22:50:00Z", "2023-04-29T22:35:00Z", "2023-04-29T22:35:00Z", "2023-04-29T22:35:00Z", "2023-04-29T22:30:00Z", "2023-04-29T22:35:00Z", "2023-04-29T21:56:00Z", "2023-04-29T22:35:00Z", "2023-04-29T22:55:00Z", "2023-04-29T22:35:00Z", "2023-04-29T22:35:00Z", "2023-04-29T22:35:00Z", "2023-04-29T21:55:00Z", "2023-04-29T22:35:00Z", "2023-04-29T22:35:00Z", "2023-04-29T22:35:00Z", "2023-04-29T22:35:00Z", "2023-04-29T22:35:00Z", "2023-04-29T21:53:00Z", "2023-04-29T21:54:00Z", "2023-04-29T22:35:00Z", "2023-04-29T21:55:00Z", "2023-04-29T22:51:00Z", "2023-04-29T21:55:00Z", "2023-04-29T22:52:00Z", "2023-04-29T22:52:00Z", "2023-04-29T21:53:00Z", "2023-04-29T21:55:00Z", "2023-04-29T22:35:00Z", "2023-04-29T22:35:00Z", "2023-04-29T21:53:00Z", "2023-04-29T22:35:00Z", "2023-04-29T22:35:00Z", "2023-04-29T22:51:00Z", "2023-04-29T22:25:00Z", "2023-04-29T22:38:00Z", "2023-04-29T22:45:00Z", "2023-04-29T22:37:00Z", "2023-04-29T21:56:00Z", "2023-04-29T21:53:00Z", "2023-04-29T22:35:00Z", "2023-04-29T22:35:00Z", "2023-04-29T21:47:00Z", "2023-04-29T22:35:00Z", "2023-04-29T22:35:00Z", "2023-04-29T21:55:00Z", "2023-04-29T22:47:00Z", "2023-04-29T22:35:00Z", "2023-04-29T22:35:00Z", "2023-04-29T22:24:00Z", "2023-04-29T21:55:00Z", "2023-04-29T21:56:00Z", "2023-04-29T22:35:00Z", "2023-04-29T22:52:00Z", "2023-04-29T22:30:00Z", "2023-04-29T22:49:00Z", "2023-04-29T21:53:00Z", "2023-04-29T21:53:00Z", "2023-04-29T22:35:00Z", "2023-04-29T22:35:00Z", "2023-04-29T21:53:00Z", "2023-04-29T22:51:00Z", "2023-04-29T22:35:00Z", "2023-04-29T21:53:00Z", "2023-04-29T22:35:00Z", "2023-04-29T22:35:00Z", "2023-04-29T22:35:00Z", "2023-04-29T22:35:00Z", "2023-04-29T21:56:00Z", "2023-04-29T22:35:00Z", "2023-04-29T21:56:00Z", "2023-04-29T22:35:00Z", "2023-04-29T22:35:00Z", "2023-04-29T21:54:00Z", "2023-04-29T22:53:00Z", "2023-04-29T21:54:00Z", "2023-04-29T21:54:00Z", "2023-04-29T22:51:00Z", "2023-04-29T21:53:00Z", "2023-04-29T21:56:00Z", "2023-04-29T22:35:00Z", "2023-04-29T22:50:00Z", "2023-04-29T21:54:00Z", "2023-04-29T22:52:00Z", "2023-04-29T21:53:00Z", "2023-04-29T21:53:00Z", "2023-04-29T22:19:00Z", "2023-04-29T22:35:00Z", "2023-04-29T21:53:00Z", "2023-04-29T21:53:00Z", "2023-04-29T21:56:00Z", "2023-04-29T21:45:00Z", "2023-04-29T22:36:00Z", "2023-04-29T22:30:00Z", "2023-04-29T22:35:00Z", "2023-04-29T22:35:00Z", "2023-04-29T21:53:00Z", "2023-04-29T21:53:00Z", "2023-04-29T21:53:00Z", "2023-04-29T21:54:00Z", "2023-04-29T21:53:00Z", "2023-04-29T22:02:00Z", "2023-04-29T22:42:00Z", "2023-04-29T22:35:00Z", "2023-04-29T22:35:00Z", "2023-04-29T22:53:00Z", "2023-04-29T21:57:00Z", "2023-04-29T22:52:00Z", "2023-04-29T22:35:00Z", "2023-04-29T22:08:00Z", "2023-04-29T21:53:00Z", "2023-04-29T21:56:00Z", "2023-04-29T22:35:00Z", "2023-04-29T22:52:00Z", "2023-04-29T21:56:00Z", "2023-04-29T22:35:00Z", "2023-04-29T22:35:00Z", "2023-04-29T22:09:00Z", "2023-04-29T21:53:00Z", "2023-04-29T22:48:00Z", "2023-04-29T21:56:00Z", "2023-04-29T22:45:00Z", "2023-04-29T22:35:00Z", "2023-04-29T22:35:00Z", "2023-04-29T22:44:00Z", "2023-04-29T22:35:00Z", "2023-04-29T22:29:00Z", "2023-04-29T22:35:00Z", "2023-04-29T22:52:00Z", "2023-04-29T22:40:00Z", "2023-04-29T22:35:00Z", "2023-04-29T22:51:00Z", "2023-04-29T22:45:00Z", "2023-04-29T21:53:00Z", "2023-04-29T21:53:00Z", "2023-04-29T22:35:00Z", "2023-04-29T22:36:00Z", "2023-04-29T22:35:00Z", "2023-04-29T22:53:00Z", "2023-04-29T21:53:00Z", "2023-04-29T22:18:00Z", "2023-04-29T22:35:00Z", "2023-04-29T21:54:00Z", "2023-04-29T22:04:00Z", "2023-04-29T22:35:00Z", "2023-04-29T22:51:00Z", "2023-04-29T22:35:00Z", "2023-04-29T21:53:00Z", "2023-04-29T21:56:00Z", "2023-04-29T22:35:00Z", "2023-04-29T22:35:00Z", "2023-04-29T21:53:00Z", "2023-04-29T22:35:00Z", "2023-04-29T22:35:00Z", "2023-04-29T22:35:00Z", "2023-04-29T22:35:00Z", "2023-04-29T22:35:00Z", "2023-04-29T22:35:00Z", "2023-04-29T22:44:00Z", "2023-04-29T22:35:00Z", "2023-04-29T21:55:00Z", "2023-04-29T21:53:00Z", "2023-04-29T21:45:00Z", "2023-04-29T22:35:00Z", "2023-04-29T22:52:00Z", "2023-04-29T22:35:00Z", "2023-04-29T22:51:00Z", "2023-04-29T22:36:00Z", "2023-04-29T22:35:00Z", "2023-04-29T22:45:00Z", "2023-04-29T22:35:00Z", "2023-04-29T21:53:00Z", "2023-04-29T22:35:00Z", "2023-04-29T21:53:00Z", "2023-04-29T22:35:00Z", "2023-04-29T22:53:00Z", "2023-04-29T21:53:00Z", "2023-04-29T22:35:00Z", "2023-04-29T22:35:00Z", "2023-04-29T22:51:00Z", "2023-04-29T22:35:00Z", "2023-04-29T22:52:00Z", "2023-04-29T22:35:00Z", "2023-04-29T22:55:00Z", "2023-04-29T22:35:00Z", "2023-04-29T22:51:00Z", "2023-04-29T21:53:00Z", "2023-04-29T21:53:00Z", "2023-04-29T21:53:00Z", "2023-04-29T21:53:00Z", "2023-04-29T21:54:00Z", "2023-04-29T21:53:00Z", "2023-04-29T22:55:00Z", "2023-04-29T22:51:00Z", "2023-04-29T22:35:00Z", "2023-04-29T22:35:00Z", "2023-04-29T22:30:00Z", "2023-04-29T21:53:00Z", "2023-04-29T21:56:00Z", "2023-04-29T22:35:00Z", "2023-04-29T22:51:00Z", "2023-04-29T21:53:00Z", "2023-04-29T22:43:00Z", "2023-04-29T22:35:00Z", "2023-04-29T21:55:00Z", "2023-04-29T21:56:00Z", "2023-04-29T22:35:00Z", "2023-04-29T21:53:00Z", "2023-04-29T22:52:00Z", "2023-04-29T22:50:00Z", "2023-04-29T22:52:00Z", "2023-04-29T21:47:00Z", "2023-04-29T22:35:00Z", "2023-04-29T21:56:00Z", "2023-04-29T21:52:00Z", "2023-04-29T22:35:00Z", "2023-04-29T21:53:00Z", "2023-04-29T21:58:00Z", "2023-04-29T21:53:00Z", "2023-04-29T22:35:00Z", "2023-04-29T22:35:00Z", "2023-04-29T22:35:00Z", "2023-04-29T22:28:00Z", "2023-04-29T22:51:00Z", "2023-04-29T21:56:00Z", "2023-04-29T22:52:00Z", "2023-04-29T21:53:00Z", "2023-04-29T22:49:00Z", "2023-04-29T22:52:00Z", "2023-04-29T21:55:00Z", "2023-04-29T22:30:00Z", "2023-04-29T22:51:00Z", "2023-04-29T21:56:00Z", "2023-04-29T22:52:00Z", "2023-04-29T21:53:00Z", "2023-04-29T22:35:00Z", "2023-04-29T21:53:00Z", "2023-04-29T22:35:00Z", "2023-04-29T21:53:00Z", "2023-04-29T22:35:00Z", "2023-04-29T21:53:00Z", "2023-04-29T22:50:00Z", "2023-04-29T21:54:00Z", "2023-04-29T22:35:00Z", "2023-04-29T22:35:00Z", "2023-04-29T21:53:00Z", "2023-04-29T21:53:00Z", "2023-04-29T22:35:00Z", "2023-04-29T22:35:00Z", "2023-04-29T22:35:00Z", "2023-04-29T21:53:00Z", "2023-04-29T22:35:00Z", "2023-04-29T21:53:00Z", "2023-04-29T21:53:00Z", "2023-04-29T22:35:00Z", "2023-04-29T22:35:00Z", "2023-04-29T22:51:00Z", "2023-04-29T21:53:00Z", "2023-04-29T22:35:00Z", "2023-04-29T21:56:00Z", "2023-04-29T22:33:00Z", "2023-04-29T21:54:00Z", "2023-04-29T21:54:00Z", "2023-04-29T21:53:00Z", "2023-04-29T22:35:00Z", "2023-04-29T21:54:00Z", "2023-04-29T22:35:00Z", "2023-04-29T22:35:00Z", "2023-04-29T21:53:00Z", "2023-04-29T22:35:00Z", "2023-04-29T22:35:00Z", "2023-04-29T21:56:00Z", "2023-04-29T22:46:00Z", "2023-04-29T22:35:00Z", "2023-04-29T21:53:00Z", "2023-04-29T21:54:00Z", "2023-04-29T22:35:00Z", "2023-04-29T22:35:00Z", "2023-04-29T22:35:00Z", "2023-04-29T22:35:00Z", "2023-04-29T21:53:00Z", "2023-04-29T22:53:00Z", "2023-04-29T22:35:00Z", "2023-04-29T21:55:00Z", "2023-04-29T22:35:00Z", "2023-04-29T21:56:00Z", "2023-04-29T22:35:00Z", "2023-04-29T22:35:00Z", "2023-04-29T22:35:00Z", "2023-04-29T22:55:00Z", "2023-04-29T22:35:00Z", "2023-04-29T22:35:00Z", "2023-04-29T22:35:00Z", "2023-04-29T22:35:00Z", "2023-04-29T22:35:00Z", "2023-04-29T21:56:00Z", "2023-04-29T21:53:00Z", "2023-04-29T22:51:00Z", "2023-04-29T21:55:00Z", "2023-04-29T21:54:00Z", "2023-04-29T22:35:00Z", "2023-04-29T22:45:00Z", "2023-04-29T22:35:00Z", "2023-04-29T22:35:00Z", "2023-04-29T22:35:00Z", "2023-04-29T22:07:00Z", "2023-04-29T22:35:00Z", "2023-04-29T22:35:00Z", "2023-04-29T22:35:00Z", "2023-04-29T21:53:00Z", "2023-04-29T22:35:00Z", "2023-04-29T22:35:00Z", "2023-04-29T22:35:00Z", "2023-04-29T21:53:00Z", "2023-04-29T22:34:00Z", "2023-04-29T22:35:00Z", "2023-04-29T22:35:00Z", "2023-04-29T22:51:00Z", "2023-04-29T22:35:00Z", "2023-04-29T21:53:00Z", "2023-04-29T21:53:00Z", "2023-04-29T22:46:00Z", "2023-04-29T21:56:00Z", "2023-04-29T22:30:00Z", "2023-04-29T21:54:00Z", "2023-04-29T22:37:00Z", "2023-04-29T22:35:00Z", "2023-04-29T21:53:00Z", "2023-04-29T22:35:00Z", "2023-04-29T22:35:00Z", "2023-04-29T22:35:00Z", "2023-04-29T21:47:00Z", "2023-04-29T22:35:00Z", "2023-04-29T22:52:00Z", "2023-04-29T22:35:00Z", "2023-04-29T22:45:00Z", "2023-04-29T22:45:00Z", "2023-04-29T21:53:00Z", "2023-04-29T22:50:00Z", "2023-04-29T21:56:00Z", "2023-04-29T21:53:00Z", "2023-04-29T22:47:00Z", "2023-04-29T22:35:00Z", "2023-04-29T21:53:00Z", "2023-04-29T21:56:00Z", "2023-04-29T21:47:00Z", "2023-04-29T22:52:00Z", "2023-04-29T22:35:00Z", "2023-04-29T22:35:00Z", "2023-04-29T22:21:00Z", "2023-04-29T22:35:00Z", "2023-04-29T21:53:00Z", "2023-04-29T22:37:00Z", "2023-04-29T22:35:00Z", "2023-04-29T22:35:00Z", "2023-04-29T22:35:00Z", "2023-04-29T22:35:00Z", "2023-04-29T22:35:00Z", "2023-04-29T22:52:00Z", "2023-04-29T22:35:00Z", "2023-04-29T22:51:00Z", "2023-04-29T22:35:00Z", "2023-04-29T22:55:00Z", "2023-04-29T21:53:00Z", "2023-04-29T21:53:00Z", "2023-04-29T22:35:00Z", "2023-04-29T22:52:00Z", "2023-04-29T22:35:00Z", "2023-04-29T21:55:00Z", "2023-04-29T22:35:00Z", "2023-04-29T22:51:00Z", "2023-04-29T21:53:00Z", "2023-04-29T22:35:00Z", "2023-04-29T22:33:00Z", "2023-04-29T21:55:00Z", "2023-04-29T22:35:00Z", "2023-04-29T22:35:00Z", "2023-04-29T22:35:00Z", "2023-04-29T21:55:00Z", "2023-04-29T21:53:00Z", "2023-04-29T21:53:00Z", "2023-04-29T22:52:00Z", "2023-04-29T22:55:00Z", "2023-04-29T21:53:00Z", "2023-04-29T21:56:00Z", "2023-04-29T21:56:00Z", "2023-04-29T22:48:00Z", "2023-04-29T22:35:00Z", "2023-04-29T22:51:00Z", "2023-04-29T22:35:00Z", "2023-04-29T21:54:00Z", "2023-04-29T21:53:00Z", "2023-04-29T21:54:00Z", "2023-04-29T22:45:00Z", "2023-04-29T22:35:00Z", "2023-04-29T22:55:00Z", "2023-04-29T21:53:00Z", "2023-04-29T21:53:00Z", "2023-04-29T22:35:00Z", "2023-04-29T22:35:00Z", "2023-04-29T22:35:00Z", "2023-04-29T21:53:00Z", "2023-04-29T22:35:00Z", "2023-04-29T22:36:00Z", "2023-04-29T22:47:00Z", "2023-04-29T22:35:00Z", "2023-04-29T22:52:00Z", "2023-04-29T21:53:00Z", "2023-04-29T22:25:00Z", "2023-04-29T22:51:00Z", "2023-04-29T21:53:00Z", "2023-04-29T21:53:00Z", "2023-04-29T21:54:00Z", "2023-04-29T22:35:00Z", "2023-04-29T22:51:00Z", "2023-04-29T21:53:00Z", "2023-04-29T22:35:00Z", "2023-04-29T21:53:00Z", "2023-04-29T21:56:00Z", "2023-04-29T22:35:00Z", "2023-04-29T22:35:00Z", "2023-04-29T22:45:00Z", "2023-04-29T21:53:00Z", "2023-04-29T22:35:00Z", "2023-04-29T22:36:00Z", "2023-04-29T21:53:00Z", "2023-04-29T22:35:00Z", "2023-04-29T22:52:00Z", "2023-04-29T22:35:00Z", "2023-04-29T21:56:00Z", "2023-04-29T21:56:00Z", "2023-04-29T22:10:00Z", "2023-04-29T22:35:00Z", "2023-04-29T21:53:00Z", "2023-04-29T22:35:00Z", "2023-04-29T22:45:00Z", "2023-04-29T21:56:00Z", "2023-04-29T21:55:00Z", "2023-04-29T22:35:00Z", "2023-04-29T22:35:00Z", "2023-04-29T21:53:00Z", "2023-04-29T22:35:00Z", "2023-04-29T22:35:00Z", "2023-04-29T22:30:00Z", "2023-04-29T21:56:00Z", "2023-04-29T22:35:00Z", "2023-04-29T21:53:00Z", "2023-04-29T22:35:00Z", "2023-04-29T22:35:00Z", "2023-04-29T21:56:00Z", "2023-04-29T22:35:00Z", "2023-04-29T22:35:00Z", "2023-04-29T22:35:00Z", "2023-04-29T22:35:00Z", "2023-04-29T22:35:00Z", "2023-04-29T22:35:00Z", "2023-04-29T22:35:00Z", "2023-04-29T22:35:00Z", "2023-04-29T21:55:00Z", "2023-04-29T22:49:00Z", "2023-04-29T22:50:00Z", "2023-04-29T21:53:00Z", "2023-04-29T21:53:00Z", "2023-04-29T22:51:00Z", "2023-04-29T21:56:00Z", "2023-04-29T22:35:00Z", "2023-04-29T21:53:00Z", "2023-04-29T22:52:00Z", "2023-04-29T22:35:00Z", "2023-04-29T21:53:00Z", "2023-04-29T22:35:00Z", "2023-04-29T22:52:00Z", "2023-04-29T21:54:00Z", "2023-04-29T21:54:00Z", "2023-04-29T22:30:00Z", "2023-04-29T22:35:00Z", "2023-04-29T21:53:00Z", "2023-04-29T21:53:00Z", "2023-04-29T21:53:00Z", "2023-04-29T21:53:00Z", "2023-04-29T22:38:00Z", "2023-04-29T21:53:00Z", "2023-04-29T21:53:00Z", "2023-04-29T21:53:00Z", "2023-04-29T21:53:00Z", "2023-04-29T21:56:00Z", "2023-04-29T21:56:00Z", "2023-04-29T22:45:00Z", "2023-04-29T22:35:00Z", "2023-04-29T22:35:00Z", "2023-04-29T21:55:00Z", "2023-04-29T21:55:00Z", "2023-04-29T22:55:00Z", "2023-04-29T21:53:00Z", "2023-04-29T22:35:00Z", "2023-04-29T21:53:00Z", "2023-04-29T22:35:00Z", "2023-04-29T21:55:00Z", "2023-04-29T21:54:00Z", "2023-04-29T21:53:00Z", "2023-04-29T21:53:00Z", "2023-04-29T22:45:00Z", "2023-04-29T22:35:00Z", "2023-04-29T21:53:00Z", "2023-04-29T22:35:00Z", "2023-04-29T22:35:00Z", "2023-04-29T22:28:00Z", "2023-04-29T22:52:00Z", "2023-04-29T22:45:00Z", "2023-04-29T22:35:00Z", "2023-04-29T22:53:00Z", "2023-04-29T22:35:00Z", "2023-04-29T22:35:00Z", "2023-04-29T21:53:00Z", "2023-04-29T21:53:00Z", "2023-04-29T22:40:00Z", "2023-04-29T21:54:00Z", "2023-04-29T21:54:00Z", "2023-04-29T22:35:00Z", "2023-04-29T22:35:00Z", "2023-04-29T21:53:00Z", "2023-04-29T22:50:00Z", "2023-04-29T21:53:00Z", "2023-04-29T22:35:00Z", "2023-04-29T22:34:00Z", "2023-04-29T22:35:00Z", "2023-04-29T21:56:00Z", "2023-04-29T22:35:00Z", "2023-04-29T22:21:00Z", "2023-04-29T22:35:00Z", "2023-04-29T22:30:00Z", "2023-04-29T21:56:00Z", "2023-04-29T22:52:00Z", "2023-04-29T22:35:00Z", "2023-04-29T22:53:00Z", "2023-04-29T21:53:00Z", "2023-04-29T22:35:00Z", "2023-04-29T21:53:00Z", "2023-04-29T21:56:00Z", "2023-04-29T22:35:00Z", "2023-04-29T22:41:00Z", "2023-04-29T22:35:00Z", "2023-04-29T22:35:00Z", "2023-04-29T22:35:00Z", "2023-04-29T22:15:00Z", "2023-04-29T21:56:00Z", "2023-04-29T21:55:00Z", "2023-04-29T22:35:00Z", "2023-04-29T22:35:00Z", "2023-04-29T22:35:00Z", "2023-04-29T22:35:00Z", "2023-04-29T22:35:00Z", "2023-04-29T22:35:00Z", "2023-04-29T22:35:00Z", "2023-04-29T22:35:00Z", "2023-04-29T22:30:00Z", "2023-04-29T21:56:00Z", "2023-04-29T21:55:00Z", "2023-04-29T21:56:00Z", "2023-04-29T22:35:00Z", "2023-04-29T22:35:00Z", "2023-04-29T22:35:00Z", "2023-04-29T21:54:00Z", "2023-04-29T22:05:00Z", "2023-04-29T22:35:00Z", "2023-04-29T22:35:00Z", "2023-04-29T22:35:00Z", "2023-04-29T22:45:00Z", "2023-04-29T22:35:00Z", "2023-04-29T22:35:00Z", "2023-04-29T22:35:00Z", "2023-04-29T21:55:00Z", "2023-04-29T21:56:00Z", "2023-04-29T21:56:00Z", "2023-04-29T21:53:00Z", "2023-04-29T21:53:00Z", "2023-04-29T22:54:00Z", "2023-04-29T22:35:00Z", "2023-04-29T22:55:00Z", "2023-04-29T21:56:00Z", "2023-04-29T21:55:00Z", "2023-04-29T22:35:00Z", "2023-04-29T22:35:00Z", "2023-04-29T22:35:00Z", "2023-04-29T22:45:00Z", "2023-04-29T21:56:00Z", "2023-04-29T22:35:00Z", "2023-04-29T22:30:00Z", "2023-04-29T22:35:00Z", "2023-04-29T22:51:00Z", "2023-04-29T21:56:00Z", "2023-04-29T21:56:00Z", "2023-04-29T22:35:00Z", "2023-04-29T22:35:00Z", "2023-04-29T21:56:00Z", "2023-04-29T22:35:00Z", "2023-04-29T22:19:00Z", "2023-04-29T22:35:00Z", "2023-04-29T22:41:00Z", "2023-04-29T21:53:00Z", "2023-04-29T22:35:00Z", "2023-04-29T22:51:00Z", "2023-04-29T21:53:00Z", "2023-04-29T22:24:00Z", "2023-04-29T22:35:00Z", "2023-04-29T21:53:00Z", "2023-04-29T22:45:00Z", "2023-04-29T22:55:00Z", "2023-04-29T21:55:00Z", "2023-04-29T22:35:00Z", "2023-04-29T21:56:00Z", "2023-04-29T21:53:00Z", "2023-04-29T22:35:00Z", "2023-04-29T22:35:00Z", "2023-04-29T21:53:00Z", "2023-04-29T22:35:00Z", "2023-04-29T21:53:00Z", "2023-04-29T22:51:00Z", "2023-04-29T22:35:00Z", "2023-04-29T22:35:00Z", "2023-04-29T21:56:00Z", "2023-04-29T22:41:00Z", "2023-04-29T22:45:00Z", "2023-04-29T22:52:00Z", "2023-04-29T22:55:00Z", "2023-04-29T22:40:00Z", "2023-04-29T22:33:00Z", "2023-04-29T22:30:00Z", "2023-04-29T21:58:00Z", "2023-04-29T21:54:00Z", "2023-04-29T21:56:00Z", "2023-04-29T22:47:00Z", "2023-04-29T22:42:00Z", "2023-04-29T22:35:00Z", "2023-04-29T21:54:00Z", "2023-04-29T21:53:00Z", "2023-04-29T21:53:00Z", "2023-04-29T21:56:00Z", "2023-04-29T21:54:00Z", "2023-04-29T22:51:00Z", "2023-04-29T22:50:00Z", "2023-04-29T21:53:00Z", "2023-04-29T22:50:00Z", "2023-04-29T21:53:00Z", "2023-04-29T22:35:00Z", "2023-04-29T22:35:00Z", "2023-04-29T22:50:00Z", "2023-04-29T22:35:00Z", "2023-04-29T22:35:00Z", "2023-04-29T22:35:00Z", "2023-04-29T22:35:00Z", "2023-04-29T22:29:00Z", "2023-04-29T22:35:00Z", "2023-04-29T22:35:00Z", "2023-04-29T22:35:00Z", "2023-04-29T21:55:00Z", "2023-04-29T21:56:00Z", "2023-04-29T21:53:00Z", "2023-04-29T21:53:00Z", "2023-04-29T21:53:00Z", "2023-04-29T21:55:00Z", "2023-04-29T22:35:00Z", "2023-04-29T21:56:00Z", "2023-04-29T21:53:00Z", "2023-04-29T21:55:00Z", "2023-04-29T22:47:00Z", "2023-04-29T21:53:00Z", "2023-04-29T22:35:00Z", "2023-04-29T21:53:00Z", "2023-04-29T22:35:00Z", "2023-04-29T22:35:00Z", "2023-04-29T21:58:00Z", "2023-04-29T22:55:00Z", "2023-04-29T21:53:00Z", "2023-04-29T22:35:00Z", "2023-04-29T22:35:00Z", "2023-04-29T21:55:00Z", "2023-04-29T21:53:00Z", "2023-04-29T22:35:00Z", "2023-04-29T21:54:00Z", "2023-04-29T22:35:00Z", "2023-04-29T22:35:00Z", "2023-04-29T22:35:00Z", "2023-04-29T21:53:00Z", "2023-04-29T22:18:00Z", "2023-04-29T21:54:00Z", "2023-04-29T21:50:00Z", "2023-04-29T21:56:00Z", "2023-04-29T22:35:00Z", "2023-04-29T22:35:00Z", "2023-04-29T22:35:00Z", "2023-04-29T21:53:00Z", "2023-04-29T22:15:00Z", "2023-04-29T22:53:00Z", "2023-04-29T21:53:00Z", "2023-04-29T21:56:00Z", "2023-04-29T22:35:00Z", "2023-04-29T22:49:00Z", "2023-04-29T21:56:00Z", "2023-04-29T22:35:00Z", "2023-04-29T21:53:00Z", "2023-04-29T21:53:00Z", "2023-04-29T21:53:00Z", "2023-04-29T21:56:00Z", "2023-04-29T21:53:00Z", "2023-04-29T22:35:00Z", "2023-04-29T21:56:00Z", "2023-04-29T21:53:00Z", "2023-04-29T22:50:00Z", "2023-04-29T22:53:00Z", "2023-04-29T22:35:00Z", "2023-04-29T21:53:00Z", "2023-04-29T22:35:00Z", "2023-04-29T22:45:00Z", "2023-04-29T21:53:00Z", "2023-04-29T22:35:00Z", "2023-04-29T21:55:00Z", "2023-04-29T21:56:00Z", "2023-04-29T22:55:00Z", "2023-04-29T21:56:00Z", "2023-04-29T22:35:00Z", "2023-04-29T21:55:00Z", "2023-04-29T22:35:00Z", "2023-04-29T21:53:00Z", "2023-04-29T21:53:00Z", "2023-04-29T22:35:00Z", "2023-04-29T21:55:00Z", "2023-04-29T22:35:00Z", "2023-04-29T21:53:00Z", "2023-04-29T21:53:00Z", "2023-04-29T21:53:00Z", "2023-04-29T21:53:00Z", "2023-04-29T22:35:00Z", "2023-04-29T22:43:00Z", "2023-04-29T22:35:00Z", "2023-04-29T22:35:00Z", "2023-04-29T22:40:00Z", "2023-04-29T22:47:00Z", "2023-04-29T21:53:00Z", "2023-04-29T22:35:00Z", "2023-04-29T22:35:00Z", "2023-04-29T22:35:00Z", "2023-04-29T22:35:00Z", "2023-04-29T22:35:00Z", "2023-04-29T21:53:00Z", "2023-04-29T22:35:00Z", "2023-04-29T22:10:00Z", "2023-04-29T21:56:00Z", "2023-04-29T22:55:00Z", "2023-04-29T22:53:00Z", "2023-04-29T21:56:00Z", "2023-04-29T22:35:00Z", "2023-04-29T21:56:00Z", "2023-04-29T22:35:00Z", "2023-04-29T21:53:00Z", "2023-04-29T22:35:00Z", "2023-04-29T21:54:00Z", "2023-04-29T22:35:00Z", "2023-04-29T21:54:00Z", "2023-04-29T22:35:00Z", "2023-04-29T22:35:00Z", "2023-04-29T22:35:00Z", "2023-04-29T22:35:00Z", "2023-04-29T22:51:00Z", "2023-04-29T21:56:00Z", "2023-04-29T21:54:00Z", "2023-04-29T21:53:00Z", "2023-04-29T22:48:00Z", "2023-04-29T22:45:00Z", "2023-04-29T21:53:00Z", "2023-04-29T22:39:00Z", "2023-04-29T21:55:00Z", "2023-04-29T21:53:00Z", "2023-04-29T21:53:00Z", "2023-04-29T22:35:00Z", "2023-04-29T22:35:00Z", "2023-04-29T21:53:00Z", "2023-04-29T22:35:00Z", "2023-04-29T22:35:00Z", "2023-04-29T21:53:00Z", "2023-04-29T22:35:00Z", "2023-04-29T22:35:00Z", "2023-04-29T22:35:00Z", "2023-04-29T22:51:00Z", "2023-04-29T21:53:00Z", "2023-04-29T22:10:00Z", "2023-04-29T21:53:00Z", "2023-04-29T21:53:00Z", "2023-04-29T22:35:00Z", "2023-04-29T22:43:00Z", "2023-04-29T21:53:00Z", "2023-04-29T22:52:00Z", "2023-04-29T22:35:00Z", "2023-04-29T22:35:00Z", "2023-04-29T22:35:00Z", "2023-04-29T21:53:00Z", "2023-04-29T21:56:00Z", "2023-04-29T22:35:00Z", "2023-04-29T22:30:00Z", "2023-04-29T22:40:00Z", "2023-04-29T21:56:00Z", "2023-04-29T22:35:00Z", "2023-04-29T22:14:00Z", "2023-04-29T21:53:00Z", "2023-04-29T22:50:00Z", "2023-04-29T22:35:00Z", "2023-04-29T22:35:00Z", "2023-04-29T22:40:00Z", "2023-04-29T22:35:00Z", "2023-04-29T22:35:00Z", "2023-04-29T21:55:00Z", "2023-04-29T21:50:00Z", "2023-04-29T22:42:00Z", "2023-04-29T21:56:00Z", "2023-04-29T22:40:00Z", "2023-04-29T21:56:00Z", "2023-04-29T21:55:00Z", "2023-04-29T21:53:00Z", "2023-04-29T22:25:00Z", "2023-04-29T22:35:00Z", "2023-04-29T22:45:00Z", "2023-04-29T22:35:00Z", "2023-04-29T21:55:00Z", "2023-04-29T22:15:00Z", "2023-04-29T21:54:00Z", "2023-04-29T21:53:00Z", "2023-04-29T21:55:00Z", "2023-04-29T21:53:00Z", "2023-04-29T21:56:00Z", "2023-04-29T21:56:00Z", "2023-04-29T21:56:00Z", "2023-04-29T22:40:00Z", "2023-04-29T21:53:00Z", "2023-04-29T22:40:00Z", "2023-04-29T21:55:00Z", "2023-04-29T21:53:00Z", "2023-04-29T22:35:00Z", "2023-04-29T21:53:00Z", "2023-04-29T21:56:00Z", "2023-04-29T22:35:00Z", "2023-04-29T22:40:00Z", "2023-04-29T22:35:00Z", "2023-04-29T21:53:00Z", "2023-04-29T22:35:00Z", "2023-04-29T22:50:00Z", "2023-04-29T21:55:00Z", "2023-04-29T21:55:00Z", "2023-04-29T21:56:00Z", "2023-04-29T22:35:00Z", "2023-04-29T22:35:00Z", "2023-04-29T22:47:00Z", "2023-04-29T21:50:00Z", "2023-04-29T22:35:00Z", "2023-04-29T22:47:00Z", "2023-04-29T22:45:00Z", "2023-04-29T22:18:00Z", "2023-04-29T22:35:00Z", "2023-04-29T22:20:00Z", "2023-04-29T22:35:00Z", "2023-04-29T22:55:00Z", "2023-04-29T22:35:00Z", "2023-04-29T22:35:00Z", "2023-04-29T21:53:00Z", "2023-04-29T21:53:00Z", "2023-04-29T22:45:00Z", "2023-04-29T21:53:00Z", "2023-04-29T22:35:00Z", "2023-04-29T22:35:00Z", "2023-04-29T22:35:00Z", "2023-04-29T22:35:00Z", "2023-04-29T22:35:00Z", "2023-04-29T22:35:00Z", "2023-04-29T22:35:00Z", "2023-04-29T21:56:00Z", "2023-04-29T22:51:00Z", "2023-04-29T21:56:00Z", "2023-04-29T22:35:00Z", "2023-04-29T21:53:00Z", "2023-04-29T22:35:00Z", "2023-04-29T21:55:00Z", "2023-04-29T22:45:00Z", "2023-04-29T21:53:00Z", "2023-04-29T21:55:00Z", "2023-04-29T22:35:00Z", "2023-04-29T22:35:00Z", "2023-04-29T21:53:00Z", "2023-04-29T22:35:00Z", "2023-04-29T22:35:00Z", "2023-04-29T22:44:00Z", "2023-04-29T22:39:00Z", "2023-04-29T21:53:00Z", "2023-04-29T22:52:00Z", "2023-04-29T21:55:00Z", "2023-04-29T22:35:00Z", "2023-04-29T21:53:00Z", "2023-04-29T22:35:00Z", "2023-04-29T21:53:00Z", "2023-04-29T21:53:00Z", "2023-04-29T21:53:00Z", "2023-04-29T21:53:00Z", "2023-04-29T22:35:00Z", "2023-04-29T21:53:00Z", "2023-04-29T21:53:00Z", "2023-04-29T21:53:00Z", "2023-04-29T21:55:00Z", "2023-04-29T22:35:00Z", "2023-04-29T21:55:00Z", "2023-04-29T22:35:00Z", "2023-04-29T22:35:00Z", "2023-04-29T22:35:00Z", "2023-04-29T21:56:00Z", "2023-04-29T21:56:00Z", "2023-04-29T22:35:00Z", "2023-04-29T22:55:00Z", "2023-04-29T21:50:00Z", "2023-04-29T22:35:00Z", "2023-04-29T21:55:00Z", "2023-04-29T22:49:00Z", "2023-04-29T21:53:00Z", "2023-04-29T21:53:00Z", "2023-04-29T21:56:00Z", "2023-04-29T22:35:00Z", "2023-04-29T22:35:00Z", "2023-04-29T22:35:00Z", "2023-04-29T21:53:00Z", "2023-04-29T22:35:00Z", "2023-04-29T22:50:00Z", "2023-04-29T22:50:00Z", "2023-04-29T21:53:00Z", "2023-04-29T22:45:00Z", "2023-04-29T22:52:00Z", "2023-04-29T21:53:00Z", "2023-04-29T22:39:00Z", "2023-04-29T22:35:00Z", "2023-04-29T22:50:00Z", "2023-04-29T22:35:00Z", "2023-04-29T22:35:00Z", "2023-04-29T22:51:00Z", "2023-04-29T22:35:00Z", "2023-04-29T21:53:00Z", "2023-04-29T22:35:00Z", "2023-04-29T21:55:00Z", "2023-04-29T21:53:00Z", "2023-04-29T22:35:00Z", "2023-04-29T22:51:00Z", "2023-04-29T21:55:00Z", "2023-04-29T21:53:00Z", "2023-04-29T21:53:00Z", "2023-04-29T21:45:00Z", "2023-04-29T22:52:00Z", "2023-04-29T22:35:00Z", "2023-04-29T22:35:00Z", "2023-04-29T21:53:00Z", "2023-04-29T21:53:00Z", "2023-04-29T22:35:00Z", "2023-04-29T21:54:00Z", "2023-04-29T21:53:00Z", "2023-04-29T22:18:00Z", "2023-04-29T22:35:00Z", "2023-04-29T22:50:00Z", "2023-04-29T21:56:00Z", "2023-04-29T21:56:00Z", "2023-04-29T22:05:00Z", "2023-04-29T21:56:00Z", "2023-04-29T22:35:00Z", "2023-04-29T22:35:00Z", "2023-04-29T22:35:00Z", "2023-04-29T22:35:00Z", "2023-04-29T22:35:00Z", "2023-04-29T22:35:00Z", "2023-04-29T22:35:00Z", "2023-04-29T21:53:00Z", "2023-04-29T22:35:00Z", "2023-04-29T22:35:00Z", "2023-04-29T22:35:00Z", "2023-04-29T22:38:00Z", "2023-04-29T22:35:00Z", "2023-04-29T22:35:00Z", "2023-04-29T22:35:00Z", "2023-04-29T22:35:00Z", "2023-04-29T22:35:00Z", "2023-04-29T22:35:00Z", "2023-04-29T22:35:00Z", "2023-04-29T21:55:00Z", "2023-04-29T22:52:00Z", "2023-04-29T22:20:00Z", "2023-04-29T21:53:00Z", "2023-04-29T22:35:00Z", "2023-04-29T21:53:00Z", "2023-04-29T21:53:00Z", "2023-04-29T21:53:00Z", "2023-04-29T22:35:00Z", "2023-04-29T22:35:00Z", "2023-04-29T22:52:00Z", "2023-04-29T22:35:00Z", "2023-04-29T22:35:00Z", "2023-04-29T22:48:00Z", "2023-04-29T22:51:00Z", "2023-04-29T22:35:00Z", "2023-04-29T22:35:00Z", "2023-04-29T22:35:00Z", "2023-04-29T22:52:00Z", "2023-04-29T22:35:00Z", "2023-04-29T22:35:00Z", "2023-04-29T22:35:00Z", "2023-04-29T22:35:00Z", "2023-04-29T22:35:00Z", "2023-04-29T21:56:00Z", "2023-04-29T22:51:00Z", "2023-04-29T21:53:00Z", "2023-04-29T21:53:00Z", "2023-04-29T22:35:00Z", "2023-04-29T22:35:00Z", "2023-04-29T21:54:00Z", "2023-04-29T22:28:00Z", "2023-04-29T22:55:00Z", "2023-04-29T22:35:00Z", "2023-04-29T21:53:00Z", "2023-04-29T21:54:00Z", "2023-04-29T21:55:00Z", "2023-04-29T21:54:00Z", "2023-04-29T21:56:00Z", "2023-04-29T22:35:00Z", "2023-04-29T22:52:00Z", "2023-04-29T22:45:00Z", "2023-04-29T21:53:00Z", "2023-04-29T21:54:00Z", "2023-04-29T21:55:00Z", "2023-04-29T22:35:00Z", "2023-04-29T22:37:00Z", "2023-04-29T21:56:00Z", "2023-04-29T22:13:00Z", "2023-04-29T22:35:00Z", "2023-04-29T21:54:00Z", "2023-04-29T21:56:00Z", "2023-04-29T21:53:00Z", "2023-04-29T22:55:00Z", "2023-04-29T21:55:00Z", "2023-04-29T22:46:00Z", "2023-04-29T21:53:00Z", "2023-04-29T22:50:00Z", "2023-04-29T21:53:00Z", "2023-04-29T22:35:00Z", "2023-04-29T22:35:00Z", "2023-04-29T21:54:00Z", "2023-04-29T21:56:00Z", "2023-04-29T21:54:00Z", "2023-04-29T22:35:00Z", "2023-04-29T22:35:00Z", "2023-04-29T22:10:00Z", "2023-04-29T22:12:00Z", "2023-04-29T21:53:00Z", "2023-04-29T22:35:00Z", "2023-04-29T22:51:00Z", "2023-04-29T22:48:00Z", "2023-04-29T21:53:00Z", "2023-04-29T21:53:00Z", "2023-04-29T22:35:00Z", "2023-04-29T22:51:00Z", "2023-04-29T22:35:00Z", "2023-04-29T22:35:00Z", "2023-04-29T22:08:00Z", "2023-04-29T22:35:00Z", "2023-04-29T21:53:00Z", "2023-04-29T21:53:00Z", "2023-04-29T22:35:00Z", "2023-04-29T21:56:00Z", "2023-04-29T22:45:00Z", "2023-04-29T22:35:00Z", "2023-04-29T22:35:00Z", "2023-04-29T22:50:00Z", "2023-04-29T21:56:00Z", "2023-04-29T22:35:00Z", "2023-04-29T22:35:00Z", "2023-04-29T21:54:00Z", "2023-04-29T22:35:00Z", "2023-04-29T22:35:00Z", "2023-04-29T22:35:00Z", "2023-04-29T22:45:00Z", "2023-04-29T22:35:00Z", "2023-04-29T22:35:00Z", "2023-04-29T22:50:00Z", "2023-04-29T22:35:00Z", "2023-04-29T22:55:00Z", "2023-04-29T22:17:00Z", "2023-04-29T22:37:00Z", "2023-04-29T22:35:00Z", "2023-04-29T22:35:00Z", "2023-04-29T22:35:00Z", "2023-04-29T22:35:00Z", "2023-04-29T22:35:00Z", "2023-04-29T22:35:00Z", "2023-04-29T22:35:00Z", "2023-04-29T22:30:00Z", "2023-04-29T22:35:00Z", "2023-04-29T22:35:00Z", "2023-04-29T21:56:00Z", "2023-04-29T22:35:00Z", "2023-04-29T22:35:00Z", "2023-04-29T22:35:00Z", "2023-04-29T22:55:00Z", "2023-04-29T22:35:00Z", "2023-04-29T21:53:00Z", "2023-04-29T21:54:00Z", "2023-04-29T22:50:00Z", "2023-04-29T22:35:00Z", "2023-04-29T22:45:00Z", "2023-04-29T21:53:00Z", "2023-04-29T22:00:00Z", "2023-04-29T21:53:00Z", "2023-04-29T21:53:00Z", "2023-04-29T21:53:00Z", "2023-04-29T22:47:00Z", "2023-04-29T21:53:00Z", "2023-04-29T21:56:00Z", "2023-04-29T22:35:00Z", "2023-04-29T21:56:00Z", "2023-04-29T22:35:00Z", "2023-04-29T22:23:00Z", "2023-04-29T21:56:00Z", "2023-04-29T21:55:00Z", "2023-04-29T22:35:00Z", "2023-04-29T22:55:00Z", "2023-04-29T22:35:00Z", "2023-04-29T21:53:00Z", "2023-04-29T21:53:00Z", "2023-04-29T21:56:00Z", "2023-04-29T21:54:00Z", "2023-04-29T21:55:00Z", "2023-04-29T21:53:00Z", "2023-04-29T21:53:00Z", "2023-04-29T22:51:00Z", "2023-04-29T21:53:00Z", "2023-04-29T22:35:00Z", "2023-04-29T21:56:00Z", "2023-04-29T21:55:00Z", "2023-04-29T22:51:00Z", "2023-04-29T22:35:00Z", "2023-04-29T22:35:00Z", "2023-04-29T21:53:00Z", "2023-04-29T22:29:00Z", "2023-04-29T21:53:00Z", "2023-04-29T22:55:00Z", "2023-04-29T21:55:00Z", "2023-04-29T21:53:00Z", "2023-04-29T22:35:00Z", "2023-04-29T22:35:00Z", "2023-04-29T22:35:00Z", "2023-04-29T22:53:00Z", "2023-04-29T21:55:00Z", "2023-04-29T22:35:00Z", "2023-04-29T21:53:00Z", "2023-04-29T22:35:00Z", "2023-04-29T22:35:00Z", "2023-04-29T21:53:00Z", "2023-04-29T22:35:00Z", "2023-04-29T21:53:00Z", "2023-04-29T21:54:00Z", "2023-04-29T22:35:00Z", "2023-04-29T22:35:00Z", "2023-04-29T22:35:00Z", "2023-04-29T22:35:00Z", "2023-04-29T21:56:00Z", "2023-04-29T22:12:00Z", "2023-04-29T21:53:00Z", "2023-04-29T22:35:00Z", "2023-04-29T21:55:00Z", "2023-04-29T21:55:00Z", "2023-04-29T21:53:00Z", "2023-04-29T21:53:00Z", "2023-04-29T21:53:00Z", "2023-04-29T22:35:00Z", "2023-04-29T21:56:00Z", "2023-04-29T21:55:00Z", "2023-04-29T22:35:00Z", "2023-04-29T22:35:00Z", "2023-04-29T22:35:00Z", "2023-04-29T22:35:00Z", "2023-04-29T22:42:00Z", "2023-04-29T21:55:00Z", "2023-04-29T21:55:00Z", "2023-04-29T22:35:00Z", "2023-04-29T22:35:00Z", "2023-04-29T21:55:00Z", "2023-04-29T22:35:00Z", "2023-04-29T21:53:00Z", "2023-04-29T22:35:00Z", "2023-04-29T22:55:00Z", "2023-04-29T22:35:00Z", "2023-04-29T22:35:00Z", "2023-04-29T21:53:00Z", "2023-04-29T21:53:00Z", "2023-04-29T21:53:00Z", "2023-04-29T22:35:00Z", "2023-04-29T21:53:00Z", "2023-04-29T22:35:00Z", "2023-04-29T22:51:00Z", "2023-04-29T22:52:00Z", "2023-04-29T21:53:00Z", "2023-04-29T22:44:00Z", "2023-04-29T21:56:00Z", "2023-04-29T21:54:00Z", "2023-04-29T21:53:00Z", "2023-04-29T22:35:00Z", "2023-04-29T22:35:00Z", "2023-04-29T22:53:00Z", "2023-04-29T21:53:00Z", "2023-04-29T22:35:00Z", "2023-04-29T21:54:00Z", "2023-04-29T22:35:00Z", "2023-04-29T22:35:00Z", "2023-04-29T21:56:00Z", "2023-04-29T22:35:00Z", "2023-04-29T22:35:00Z", "2023-04-29T22:35:00Z", "2023-04-29T22:20:00Z", "2023-04-29T22:35:00Z", "2023-04-29T21:56:00Z", "2023-04-29T22:35:00Z", "2023-04-29T22:35:00Z", "2023-04-29T22:35:00Z", "2023-04-29T22:35:00Z", "2023-04-29T22:30:00Z", "2023-04-29T22:35:00Z", "2023-04-29T22:30:00Z", "2023-04-29T21:53:00Z", "2023-04-29T22:35:00Z", "2023-04-29T22:35:00Z", "2023-04-29T22:55:00Z", "2023-04-29T22:52:00Z", "2023-04-29T22:39:00Z", "2023-04-29T21:53:00Z", "2023-04-29T22:35:00Z", "2023-04-29T22:35:00Z", "2023-04-29T22:37:00Z", "2023-04-29T22:35:00Z", "2023-04-29T22:35:00Z", "2023-04-29T21:53:00Z", "2023-04-29T22:47:00Z", "2023-04-29T21:53:00Z", "2023-04-29T22:35:00Z", "2023-04-29T21:53:00Z", "2023-04-29T21:53:00Z", "2023-04-29T22:30:00Z", "2023-04-29T22:53:00Z", "2023-04-29T22:55:00Z", "2023-04-29T22:40:00Z", "2023-04-29T22:35:00Z", "2023-04-29T22:52:00Z", "2023-04-29T22:35:00Z", "2023-04-29T22:35:00Z", "2023-04-29T21:56:00Z", "2023-04-29T21:53:00Z", "2023-04-29T22:35:00Z", "2023-04-29T22:52:00Z", "2023-04-29T21:56:00Z", "2023-04-29T22:34:00Z", "2023-04-29T21:54:00Z", "2023-04-29T22:53:00Z", "2023-04-29T22:35:00Z", "2023-04-29T22:35:00Z", "2023-04-29T22:52:00Z", "2023-04-29T21:53:00Z", "2023-04-29T22:05:00Z", "2023-04-29T21:53:00Z", "2023-04-29T21:55:00Z", "2023-04-29T22:35:00Z", "2023-04-29T22:49:00Z", "2023-04-29T21:53:00Z", "2023-04-29T22:35:00Z", "2023-04-29T22:35:00Z", "2023-04-29T21:53:00Z", "2023-04-29T21:53:00Z", "2023-04-29T21:53:00Z", "2023-04-29T22:52:00Z", "2023-04-29T22:35:00Z", "2023-04-29T22:35:00Z", "2023-04-29T22:35:00Z", "2023-04-29T21:56:00Z", "2023-04-29T22:49:00Z", "2023-04-29T22:20:00Z", "2023-04-29T21:53:00Z", "2023-04-29T21:55:00Z", "2023-04-29T22:53:00Z", "2023-04-29T22:41:00Z", "2023-04-29T22:35:00Z", "2023-04-29T22:18:00Z", "2023-04-29T21:53:00Z", "2023-04-29T22:35:00Z", "2023-04-29T22:35:00Z", "2023-04-29T21:54:00Z", "2023-04-29T22:52:00Z", "2023-04-29T22:51:00Z", "2023-04-29T22:35:00Z", "2023-04-29T21:53:00Z", "2023-04-29T22:35:00Z", "2023-04-29T21:53:00Z", "2023-04-29T22:35:00Z", "2023-04-29T21:56:00Z", "2023-04-29T22:38:00Z", "2023-04-29T21:53:00Z", "2023-04-29T22:35:00Z", "2023-04-29T22:52:00Z", "2023-04-29T22:52:00Z", "2023-04-29T22:35:00Z", "2023-04-29T21:53:00Z", "2023-04-29T21:53:00Z", "2023-04-29T21:53:00Z", "2023-04-29T21:53:00Z", "2023-04-29T22:35:00Z", "2023-04-29T22:35:00Z", "2023-04-29T22:29:00Z", "2023-04-29T21:56:00Z", "2023-04-29T21:55:00Z", "2023-04-29T21:47:00Z", "2023-04-29T21:53:00Z", "2023-04-29T22:36:00Z", "2023-04-29T22:35:00Z", "2023-04-29T22:35:00Z", "2023-04-29T22:52:00Z", "2023-04-29T21:53:00Z", "2023-04-29T22:35:00Z", "2023-04-29T22:35:00Z", "2023-04-29T22:52:00Z", "2023-04-29T21:53:00Z", "2023-04-29T22:35:00Z", "2023-04-29T21:54:00Z", "2023-04-29T22:35:00Z", "2023-04-29T21:53:00Z", "2023-04-29T22:35:00Z", "2023-04-29T22:51:00Z", "2023-04-29T22:35:00Z", "2023-04-29T22:35:00Z", "2023-04-29T22:50:00Z", "2023-04-29T22:35:00Z", "2023-04-29T22:35:00Z", "2023-04-29T22:35:00Z", "2023-04-29T21:56:00Z", "2023-04-29T22:36:00Z", "2023-04-29T22:30:00Z", "2023-04-29T21:56:00Z", "2023-04-29T21:58:00Z", "2023-04-29T22:35:00Z", "2023-04-29T22:45:00Z", "2023-04-29T22:39:00Z", "2023-04-29T22:33:00Z", "2023-04-29T21:53:00Z", "2023-04-29T21:53:00Z", "2023-04-29T21:53:00Z", "2023-04-29T21:53:00Z", "2023-04-29T21:53:00Z", "2023-04-29T21:56:00Z", "2023-04-29T21:53:00Z", "2023-04-29T21:56:00Z", "2023-04-29T21:53:00Z", "2023-04-29T21:53:00Z", "2023-04-29T22:35:00Z", "2023-04-29T21:55:00Z", "2023-04-29T21:53:00Z", "2023-04-29T22:54:00Z", "2023-04-29T22:35:00Z", "2023-04-29T22:47:00Z", "2023-04-29T21:55:00Z", "2023-04-29T22:35:00Z", "2023-04-29T22:35:00Z", "2023-04-29T22:40:00Z", "2023-04-29T22:24:00Z", "2023-04-29T21:56:00Z", "2023-04-29T21:53:00Z", "2023-04-29T22:45:00Z", "2023-04-29T21:45:00Z", "2023-04-29T22:52:00Z", "2023-04-29T22:45:00Z", "2023-04-29T21:53:00Z", "2023-04-29T22:35:00Z", "2023-04-29T21:56:00Z", "2023-04-29T22:35:00Z", "2023-04-29T22:53:00Z", "2023-04-29T22:44:00Z", "2023-04-29T21:53:00Z", "2023-04-29T22:35:00Z", "2023-04-29T22:51:00Z", "2023-04-29T22:35:00Z", "2023-04-29T21:56:00Z", "2023-04-29T21:53:00Z", "2023-04-29T22:35:00Z", "2023-04-29T22:35:00Z", "2023-04-29T22:35:00Z", "2023-04-29T22:35:00Z", "2023-04-29T22:15:00Z", "2023-04-29T22:52:00Z", "2023-04-29T22:35:00Z", "2023-04-29T22:54:00Z", "2023-04-29T22:45:00Z", "2023-04-29T21:55:00Z", "2023-04-29T22:51:00Z", "2023-04-29T21:56:00Z", "2023-04-29T22:25:00Z", "2023-04-29T22:06:00Z", "2023-04-29T21:53:00Z", "2023-04-29T21:56:00Z", "2023-04-29T22:52:00Z", "2023-04-29T21:56:00Z", "2023-04-29T22:52:00Z", "2023-04-29T21:56:00Z", "2023-04-29T21:59:00Z", "2023-04-29T22:52:00Z", "2023-04-29T21:56:00Z", "2023-04-29T22:53:00Z", "2023-04-29T21:56:00Z", "2023-04-29T22:22:00Z", "2023-04-29T22:41:00Z", "2023-04-29T22:42:00Z", "2023-04-29T21:55:00Z", "2023-04-29T21:56:00Z", "2023-04-29T22:49:00Z", "2023-04-29T21:56:00Z", "2023-04-29T22:30:00Z", "2023-04-29T21:59:00Z", "2023-04-29T22:30:00Z", "2023-04-29T22:50:00Z", "2023-04-29T21:56:00Z", "2023-04-29T21:53:00Z", "2023-04-29T22:52:00Z", "2023-04-29T22:35:00Z", "2023-04-29T22:53:00Z", "2023-04-29T21:56:00Z", "2023-04-29T22:53:00Z", "2023-04-29T21:55:00Z", "2023-04-29T21:56:00Z", "2023-04-29T21:56:00Z", "2023-04-29T22:53:00Z", "2023-04-29T22:35:00Z", "2023-04-29T22:53:00Z", "2023-04-29T21:56:00Z", "2023-04-29T21:56:00Z", "2023-04-29T22:51:00Z", "2023-04-29T21:56:00Z", "2023-04-29T21:57:00Z", "2023-04-29T22:52:00Z", "2023-04-29T22:35:00Z", "2023-04-29T22:35:00Z", "2023-04-29T22:35:00Z", "2023-04-29T22:35:00Z", "2023-04-29T22:35:00Z", "2023-04-29T21:56:00Z", "2023-04-29T22:02:00Z", "2023-04-29T22:35:00Z", "2023-04-29T22:35:00Z", "2023-04-29T22:51:00Z", "2023-04-29T21:56:00Z", "2023-04-29T22:35:00Z", "2023-04-29T22:45:00Z", "2023-04-29T21:53:00Z", "2023-04-29T21:53:00Z", "2023-04-29T22:35:00Z", "2023-04-29T22:35:00Z", "2023-04-29T22:35:00Z", "2023-04-29T21:55:00Z", "2023-04-29T21:56:00Z", "2023-04-29T21:54:00Z", "2023-04-29T22:35:00Z", "2023-04-29T21:53:00Z", "2023-04-29T22:53:00Z", "2023-04-29T22:35:00Z", "2023-04-29T22:35:00Z", "2023-04-29T22:55:00Z", "2023-04-29T22:35:00Z", "2023-04-29T22:07:00Z", "2023-04-29T22:52:00Z", "2023-04-29T22:52:00Z", "2023-04-29T22:12:00Z", "2023-04-29T22:35:00Z", "2023-04-29T22:35:00Z", "2023-04-29T22:35:00Z", "2023-04-29T22:35:00Z", "2023-04-29T21:53:00Z", "2023-04-29T22:35:00Z", "2023-04-29T21:54:00Z", "2023-04-29T21:54:00Z", "2023-04-29T21:56:00Z", "2023-04-29T22:50:00Z", "2023-04-29T22:30:00Z", "2023-04-29T22:35:00Z", "2023-04-29T22:52:00Z", "2023-04-29T22:35:00Z", "2023-04-29T21:53:00Z", "2023-04-29T22:50:00Z", "2023-04-29T22:35:00Z", "2023-04-29T22:35:00Z", "2023-04-29T21:53:00Z", "2023-04-29T22:35:00Z", "2023-04-29T21:53:00Z", "2023-04-29T22:45:00Z", "2023-04-29T22:35:00Z", "2023-04-29T22:35:00Z", "2023-04-29T21:53:00Z", "2023-04-29T22:35:00Z", "2023-04-29T22:35:00Z", "2023-04-29T22:35:00Z", "2023-04-29T21:53:00Z", "2023-04-29T22:53:00Z", "2023-04-29T22:51:00Z", "2023-04-29T22:52:00Z", "2023-04-29T22:51:00Z", "2023-04-29T22:35:00Z", "2023-04-29T22:52:00Z", "2023-04-29T22:35:00Z", "2023-04-29T22:48:00Z", "2023-04-29T22:35:00Z", "2023-04-29T22:35:00Z", "2023-04-29T22:35:00Z", "2023-04-29T21:53:00Z", "2023-04-29T21:53:00Z", "2023-04-29T21:56:00Z", "2023-04-29T21:56:00Z", "2023-04-29T21:53:00Z", "2023-04-29T22:46:00Z", "2023-04-29T22:35:00Z", "2023-04-29T21:53:00Z", "2023-04-29T22:53:00Z", "2023-04-29T21:56:00Z", "2023-04-29T21:53:00Z", "2023-04-29T22:35:00Z", "2023-04-29T22:35:00Z", "2023-04-29T22:35:00Z", "2023-04-29T21:53:00Z", "2023-04-29T22:51:00Z", "2023-04-29T22:35:00Z", "2023-04-29T22:35:00Z", "2023-04-29T22:51:00Z", "2023-04-29T22:35:00Z", "2023-04-29T22:35:00Z", "2023-04-29T22:35:00Z", "2023-04-29T21:55:00Z", "2023-04-29T22:35:00Z", "2023-04-29T22:35:00Z", "2023-04-29T22:35:00Z", "2023-04-29T21:56:00Z", "2023-04-29T22:35:00Z", "2023-04-29T21:56:00Z", "2023-04-29T21:55:00Z", "2023-04-29T22:51:00Z", "2023-04-29T21:56:00Z", "2023-04-29T22:53:00Z", "2023-04-29T22:52:00Z", "2023-04-29T21:59:00Z", "2023-04-29T21:53:00Z", "2023-04-29T21:53:00Z", "2023-04-29T22:30:00Z", "2023-04-29T22:35:00Z", "2023-04-29T22:47:00Z", "2023-04-29T21:53:00Z", "2023-04-29T21:53:00Z", "2023-04-29T22:55:00Z", "2023-04-29T21:53:00Z", "2023-04-29T22:35:00Z", "2023-04-29T22:35:00Z", "2023-04-29T22:35:00Z", "2023-04-29T22:35:00Z", "2023-04-29T22:55:00Z", "2023-04-29T21:53:00Z", "2023-04-29T21:53:00Z", "2023-04-29T21:53:00Z", "2023-04-29T22:35:00Z", "2023-04-29T21:53:00Z", "2023-04-29T22:35:00Z", "2023-04-29T22:35:00Z", "2023-04-29T22:35:00Z", "2023-04-29T21:53:00Z", "2023-04-29T22:45:00Z", "2023-04-29T21:53:00Z", "2023-04-29T21:54:00Z", "2023-04-29T22:28:00Z", "2023-04-29T22:35:00Z", "2023-04-29T21:55:00Z", "2023-04-29T22:35:00Z", "2023-04-29T22:51:00Z", "2023-04-29T21:54:00Z", "2023-04-29T21:56:00Z", "2023-04-29T22:11:00Z", "2023-04-29T21:53:00Z", "2023-04-29T21:53:00Z", "2023-04-29T22:35:00Z", "2023-04-29T21:53:00Z", "2023-04-29T22:51:00Z", "2023-04-29T22:35:00Z", "2023-04-29T21:53:00Z", "2023-04-29T21:53:00Z", "2023-04-29T21:54:00Z", "2023-04-29T22:35:00Z", "2023-04-29T22:35:00Z", "2023-04-29T21:53:00Z", "2023-04-29T22:35:00Z", "2023-04-29T22:36:00Z", "2023-04-29T22:35:00Z", "2023-04-29T22:35:00Z", "2023-04-29T22:35:00Z", "2023-04-29T21:53:00Z", "2023-04-29T22:50:00Z", "2023-04-29T22:35:00Z", "2023-04-29T21:53:00Z", "2023-04-29T22:35:00Z", "2023-04-29T22:40:00Z", "2023-04-29T21:55:00Z", "2023-04-29T21:47:00Z", "2023-04-29T22:40:00Z", "2023-04-29T21:53:00Z", "2023-04-29T21:53:00Z", "2023-04-29T22:35:00Z", "2023-04-29T22:35:00Z", "2023-04-29T22:35:00Z", "2023-04-29T22:52:00Z", "2023-04-29T22:35:00Z", "2023-04-29T22:35:00Z", "2023-04-29T21:56:00Z", "2023-04-29T21:53:00Z", "2023-04-29T21:53:00Z", "2023-04-29T21:53:00Z", "2023-04-29T22:35:00Z", "2023-04-29T21:58:00Z", "2023-04-29T22:35:00Z", "2023-04-29T22:35:00Z", "2023-04-29T21:56:00Z", "2023-04-29T21:53:00Z", "2023-04-29T21:54:00Z", "2023-04-29T22:35:00Z", "2023-04-29T22:34:00Z", "2023-04-29T22:35:00Z", "2023-04-29T22:35:00Z", "2023-04-29T21:53:00Z", "2023-04-29T21:53:00Z", "2023-04-29T22:35:00Z", "2023-04-29T22:35:00Z", "2023-04-29T21:53:00Z", "2023-04-29T21:56:00Z", "2023-04-29T22:35:00Z", "2023-04-29T22:35:00Z", "2023-04-29T21:56:00Z", "2023-04-29T22:22:00Z", "2023-04-29T21:53:00Z", "2023-04-29T21:53:00Z", "2023-04-29T22:35:00Z", "2023-04-29T21:53:00Z", "2023-04-29T22:35:00Z", "2023-04-29T21:56:00Z", "2023-04-29T22:51:00Z", "2023-04-29T22:35:00Z", "2023-04-29T22:35:00Z", "2023-04-29T21:56:00Z", "2023-04-29T22:35:00Z", "2023-04-29T21:56:00Z", "2023-04-29T22:35:00Z", "2023-04-29T21:53:00Z", "2023-04-29T22:35:00Z", "2023-04-29T22:35:00Z", "2023-04-29T21:56:00Z", "2023-04-29T22:52:00Z", "2023-04-29T22:51:00Z", "2023-04-29T21:56:00Z", "2023-04-29T22:35:00Z", "2023-04-29T22:52:00Z", "2023-04-29T22:35:00Z", "2023-04-29T22:35:00Z", "2023-04-29T21:55:00Z", "2023-04-29T22:15:00Z", "2023-04-29T21:55:00Z", "2023-04-29T21:55:00Z", "2023-04-29T22:50:00Z", "2023-04-29T22:50:00Z", "2023-04-29T22:40:00Z", "2023-04-29T22:50:00Z", "2023-04-29T22:50:00Z", "2023-04-29T22:40:00Z", "2023-04-29T22:40:00Z", "2023-04-29T22:50:00Z", "2023-04-29T22:50:00Z", "2023-04-29T22:50:00Z", "2023-04-29T22:40:00Z", "2023-04-29T22:50:00Z", "2023-04-29T22:50:00Z", "2023-04-29T22:50:00Z", "2023-04-29T22:50:00Z", "2023-04-29T22:50:00Z", "2023-04-29T22:50:00Z", "2023-04-29T22:19:00Z", "2023-04-29T21:55:00Z", "2023-04-29T21:55:00Z", "2023-04-29T22:46:00Z", "2023-04-29T21:53:00Z", "2023-04-29T21:53:00Z", "2023-04-29T22:52:00Z", "2023-04-29T22:35:00Z", "2023-04-29T22:35:00Z", "2023-04-29T21:53:00Z", "2023-04-29T21:53:00Z", "2023-04-29T21:54:00Z", "2023-04-29T22:35:00Z", "2023-04-29T22:35:00Z", "2023-04-29T21:55:00Z", "2023-04-29T22:35:00Z", "2023-04-29T22:55:00Z", "2023-04-29T22:35:00Z", "2023-04-29T22:35:00Z", "2023-04-29T22:35:00Z", "2023-04-29T22:55:00Z", "2023-04-29T21:53:00Z", "2023-04-29T22:43:00Z", "2023-04-29T22:35:00Z", "2023-04-29T21:56:00Z", "2023-04-29T21:55:00Z", "2023-04-29T22:51:00Z", "2023-04-29T22:35:00Z", "2023-04-29T22:52:00Z", "2023-04-29T21:54:00Z", "2023-04-29T22:35:00Z", "2023-04-29T22:35:00Z", "2023-04-29T22:35:00Z", "2023-04-29T22:46:00Z", "2023-04-29T22:50:00Z", "2023-04-29T22:47:00Z", "2023-04-29T21:54:00Z", "2023-04-29T22:55:00Z", "2023-04-29T21:53:00Z", "2023-04-29T21:55:00Z", "2023-04-29T21:53:00Z", "2023-04-29T21:56:00Z", "2023-04-29T21:53:00Z", "2023-04-29T22:35:00Z", "2023-04-29T21:54:00Z", "2023-04-29T22:35:00Z", "2023-04-29T22:35:00Z", "2023-04-29T21:53:00Z", "2023-04-29T21:53:00Z", "2023-04-29T22:35:00Z", "2023-04-29T22:35:00Z", "2023-04-29T22:35:00Z", "2023-04-29T21:55:00Z", "2023-04-29T22:35:00Z", "2023-04-29T21:53:00Z", "2023-04-29T21:55:00Z", "2023-04-29T22:35:00Z", "2023-04-29T21:53:00Z", "2023-04-29T21:54:00Z", "2023-04-29T21:54:00Z", "2023-04-29T21:58:00Z", "2023-04-29T22:35:00Z", "2023-04-29T22:51:00Z", "2023-04-29T22:35:00Z", "2023-04-29T22:55:00Z", "2023-04-29T22:35:00Z", "2023-04-29T22:35:00Z", "2023-04-29T22:01:00Z", "2023-04-29T22:35:00Z", "2023-04-29T21:53:00Z", "2023-04-29T22:35:00Z", "2023-04-29T22:55:00Z", "2023-04-29T22:35:00Z", "2023-04-29T21:53:00Z", "2023-04-29T22:54:00Z", "2023-04-29T21:54:00Z", "2023-04-29T21:53:00Z", "2023-04-29T21:53:00Z", "2023-04-29T22:35:00Z", "2023-04-29T21:53:00Z", "2023-04-29T22:35:00Z", "2023-04-29T22:45:00Z", "2023-04-29T21:56:00Z", "2023-04-29T22:35:00Z", "2023-04-29T22:35:00Z", "2023-04-29T22:35:00Z", "2023-04-29T21:53:00Z", "2023-04-29T21:53:00Z", "2023-04-29T21:53:00Z", "2023-04-29T21:53:00Z", "2023-04-29T22:35:00Z", "2023-04-29T21:53:00Z", "2023-04-29T21:55:00Z", "2023-04-29T22:45:00Z", "2023-04-29T22:35:00Z", "2023-04-29T22:50:00Z", "2023-04-29T22:35:00Z", "2023-04-29T22:35:00Z", "2023-04-29T22:35:00Z", "2023-04-29T22:35:00Z", "2023-04-29T22:35:00Z", "2023-04-29T22:35:00Z", "2023-04-29T22:35:00Z", "2023-04-29T22:35:00Z", "2023-04-29T21:55:00Z", "2023-04-29T22:35:00Z", "2023-04-29T22:35:00Z", "2023-04-29T22:40:00Z", "2023-04-29T22:35:00Z", "2023-04-29T21:53:00Z", "2023-04-29T22:51:00Z", "2023-04-29T21:53:00Z", "2023-04-29T22:51:00Z", "2023-04-29T22:35:00Z", "2023-04-29T22:51:00Z", "2023-04-29T22:39:00Z", "2023-04-29T22:47:00Z", "2023-04-29T22:35:00Z", "2023-04-29T21:53:00Z", "2023-04-29T22:43:00Z", "2023-04-29T21:54:00Z", "2023-04-29T22:35:00Z", "2023-04-29T21:56:00Z", "2023-04-29T22:35:00Z", "2023-04-29T21:54:00Z", "2023-04-29T22:35:00Z", "2023-04-29T22:46:00Z", "2023-04-29T21:55:00Z", "2023-04-29T22:45:00Z", "2023-04-29T22:35:00Z", "2023-04-29T22:35:00Z", "2023-04-29T22:51:00Z", "2023-04-29T22:35:00Z", "2023-04-29T21:56:00Z", "2023-04-29T21:53:00Z", "2023-04-29T21:53:00Z", "2023-04-29T21:56:00Z", "2023-04-29T21:53:00Z", "2023-04-29T22:47:00Z", "2023-04-29T22:35:00Z", "2023-04-29T22:45:00Z", "2023-04-29T22:35:00Z", "2023-04-29T22:35:00Z", "2023-04-29T21:55:00Z", "2023-04-29T21:54:00Z", "2023-04-29T22:35:00Z", "2023-04-29T22:42:00Z", "2023-04-29T21:53:00Z", "2023-04-29T21:56:00Z", "2023-04-29T21:56:00Z", "2023-04-29T22:35:00Z", "2023-04-29T21:56:00Z", "2023-04-29T22:52:00Z", "2023-04-29T21:56:00Z", "2023-04-29T22:36:00Z", "2023-04-29T21:53:00Z", "2023-04-29T22:35:00Z", "2023-04-29T21:56:00Z", "2023-04-29T21:56:00Z", "2023-04-29T22:35:00Z", "2023-04-29T22:35:00Z", "2023-04-29T21:55:00Z", "2023-04-29T21:53:00Z", "2023-04-29T21:56:00Z", "2023-04-29T22:45:00Z", "2023-04-29T22:35:00Z", "2023-04-29T21:53:00Z", "2023-04-29T21:53:00Z", "2023-04-29T22:35:00Z", "2023-04-29T22:51:00Z", "2023-04-29T22:35:00Z", "2023-04-29T21:55:00Z", "2023-04-29T21:55:00Z", "2023-04-29T21:56:00Z", "2023-04-29T22:35:00Z", "2023-04-29T21:54:00Z", "2023-04-29T21:56:00Z", "2023-04-29T21:56:00Z", "2023-04-29T22:35:00Z", "2023-04-29T21:55:00Z", "2023-04-29T22:51:00Z", "2023-04-29T21:53:00Z", "2023-04-29T22:35:00Z", "2023-04-29T22:35:00Z", "2023-04-29T22:35:00Z", "2023-04-29T22:35:00Z", "2023-04-29T21:53:00Z", "2023-04-29T21:56:00Z", "2023-04-29T22:51:00Z", "2023-04-29T21:53:00Z", "2023-04-29T22:35:00Z", "2023-04-29T22:51:00Z", "2023-04-29T21:53:00Z", "2023-04-29T22:35:00Z", "2023-04-29T22:30:00Z", "2023-04-29T22:55:00Z", "2023-04-29T21:53:00Z", "2023-04-29T22:51:00Z", "2023-04-29T21:53:00Z", "2023-04-29T22:35:00Z", "2023-04-29T21:56:00Z", "2023-04-29T22:35:00Z", "2023-04-29T22:35:00Z", "2023-04-29T21:53:00Z", "2023-04-29T21:56:00Z", "2023-04-29T22:35:00Z", "2023-04-29T22:45:00Z", "2023-04-29T22:52:00Z", "2023-04-29T22:35:00Z", "2023-04-29T22:52:00Z", "2023-04-29T21:53:00Z", "2023-04-29T21:56:00Z", "2023-04-29T21:52:00Z", "2023-04-29T22:35:00Z", "2023-04-29T21:56:00Z", "2023-04-29T22:35:00Z", "2023-04-29T22:31:00Z", "2023-04-29T22:35:00Z", "2023-04-29T21:55:00Z", "2023-04-29T21:53:00Z", "2023-04-29T22:14:00Z", "2023-04-29T21:53:00Z", "2023-04-29T22:35:00Z", "2023-04-29T22:35:00Z", "2023-04-29T21:53:00Z", "2023-04-29T22:35:00Z", "2023-04-29T22:51:00Z", "2023-04-29T21:53:00Z", "2023-04-29T21:53:00Z", "2023-04-29T22:50:00Z", "2023-04-29T22:37:00Z", "2023-04-29T21:55:00Z", "2023-04-29T21:54:00Z", "2023-04-29T22:50:00Z", "2023-04-29T21:55:00Z", "2023-04-29T22:55:00Z", "2023-04-29T22:52:00Z", "2023-04-29T22:35:00Z", "2023-04-29T22:35:00Z", "2023-04-29T22:35:00Z", "2023-04-29T22:45:00Z", "2023-04-29T22:44:00Z", "2023-04-29T22:45:00Z", "2023-04-29T21:53:00Z", "2023-04-29T22:35:00Z", "2023-04-29T22:35:00Z", "2023-04-29T22:00:00Z", "2023-04-29T21:56:00Z", "2023-04-29T22:35:00Z", "2023-04-29T22:35:00Z", "2023-04-29T22:35:00Z", "2023-04-29T22:35:00Z", "2023-04-29T22:35:00Z", "2023-04-29T22:09:00Z", "2023-04-29T22:03:00Z", "2023-04-29T22:35:00Z", "2023-04-29T22:35:00Z", "2023-04-29T22:35:00Z", "2023-04-29T22:35:00Z", "2023-04-29T22:35:00Z", "2023-04-29T22:35:00Z", "2023-04-29T21:55:00Z", "2023-04-29T22:35:00Z", "2023-04-29T22:35:00Z", "2023-04-29T22:35:00Z", "2023-04-29T21:54:00Z", "2023-04-29T22:52:00Z", "2023-04-29T22:35:00Z", "2023-04-29T21:55:00Z", "2023-04-29T22:35:00Z", "2023-04-29T22:35:00Z", "2023-04-29T21:53:00Z", "2023-04-29T21:55:00Z", "2023-04-29T21:53:00Z", "2023-04-29T22:35:00Z", "2023-04-29T22:45:00Z", "2023-04-29T22:50:00Z", "2023-04-29T21:53:00Z", "2023-04-29T21:51:00Z", "2023-04-29T22:35:00Z", "2023-04-29T22:35:00Z", "2023-04-29T21:55:00Z", "2023-04-29T22:15:00Z", "2023-04-29T22:35:00Z", "2023-04-29T21:55:00Z", "2023-04-29T22:35:00Z", "2023-04-29T21:55:00Z", "2023-04-29T22:30:00Z", "2023-04-29T21:53:00Z", "2023-04-29T22:47:00Z", "2023-04-29T22:35:00Z", "2023-04-29T21:53:00Z", "2023-04-29T22:35:00Z", "2023-04-29T22:35:00Z", "2023-04-29T22:28:00Z", "2023-04-29T22:35:00Z", "2023-04-29T21:53:00Z", "2023-04-29T22:35:00Z", "2023-04-29T22:35:00Z", "2023-04-29T22:35:00Z", "2023-04-29T22:35:00Z", "2023-04-29T22:35:00Z", "2023-04-29T21:49:00Z", "2023-04-29T22:35:00Z", "2023-04-29T22:35:00Z", "2023-04-29T22:05:00Z", "2023-04-29T22:52:00Z", "2023-04-29T21:53:00Z", "2023-04-29T21:53:00Z", "2023-04-29T22:47:00Z", "2023-04-29T22:35:00Z", "2023-04-29T21:56:00Z", "2023-04-29T22:51:00Z", "2023-04-29T21:54:00Z", "2023-04-29T22:35:00Z", "2023-04-29T22:35:00Z", "2023-04-29T22:35:00Z", "2023-04-29T21:53:00Z", "2023-04-29T22:49:00Z", "2023-04-29T21:53:00Z", "2023-04-29T22:52:00Z", "2023-04-29T22:35:00Z", "2023-04-29T22:45:00Z", "2023-04-29T21:53:00Z", "2023-04-29T22:35:00Z", "2023-04-29T22:42:00Z", "2023-04-29T22:38:00Z", "2023-04-29T21:53:00Z", "2023-04-29T22:30:00Z", "2023-04-29T22:23:00Z", "2023-04-29T21:53:00Z", "2023-04-29T21:56:00Z", "2023-04-29T22:35:00Z", "2023-04-29T22:35:00Z", "2023-04-29T21:53:00Z", "2023-04-29T22:42:00Z", "2023-04-29T22:55:00Z", "2023-04-29T21:53:00Z", "2023-04-29T22:35:00Z", "2023-04-29T22:35:00Z", "2023-04-29T21:53:00Z", "2023-04-29T22:35:00Z", "2023-04-29T22:35:00Z", "2023-04-29T22:35:00Z", "2023-04-29T21:53:00Z", "2023-04-29T21:53:00Z", "2023-04-29T22:47:00Z", "2023-04-29T22:35:00Z", "2023-04-29T22:35:00Z", "2023-04-29T22:35:00Z", "2023-04-29T22:35:00Z", "2023-04-29T22:35:00Z", "2023-04-29T21:53:00Z", "2023-04-29T22:35:00Z", "2023-04-29T21:56:00Z", "2023-04-29T22:35:00Z", "2023-04-29T21:56:00Z", "2023-04-29T22:45:00Z", "2023-04-29T22:51:00Z", "2023-04-29T21:53:00Z", "2023-04-29T21:54:00Z", "2023-04-29T22:45:00Z", "2023-04-29T21:56:00Z", "2023-04-29T22:35:00Z", "2023-04-29T22:35:00Z", "2023-04-29T22:35:00Z", "2023-04-29T22:30:00Z", "2023-04-29T22:35:00Z", "2023-04-29T22:35:00Z", "2023-04-29T21:53:00Z", "2023-04-29T22:55:00Z", "2023-04-29T22:53:00Z", "2023-04-29T22:35:00Z", "2023-04-29T22:35:00Z", "2023-04-29T22:35:00Z", "2023-04-29T21:53:00Z", "2023-04-29T22:05:00Z", "2023-04-29T22:55:00Z", "2023-04-29T22:35:00Z", "2023-04-29T22:35:00Z", "2023-04-29T22:35:00Z", "2023-04-29T21:54:00Z", "2023-04-29T22:28:00Z", "2023-04-29T22:35:00Z", "2023-04-29T22:41:00Z", "2023-04-29T22:15:00Z", "2023-04-29T21:56:00Z", "2023-04-29T22:55:00Z", "2023-04-29T22:28:00Z", "2023-04-29T22:51:00Z", "2023-04-29T22:35:00Z", "2023-04-29T22:35:00Z", "2023-04-29T22:35:00Z", "2023-04-29T21:53:00Z", "2023-04-29T22:55:00Z", "2023-04-29T22:30:00Z", "2023-04-29T22:35:00Z", "2023-04-29T21:53:00Z", "2023-04-29T22:35:00Z", "2023-04-29T21:53:00Z", "2023-04-29T21:56:00Z", "2023-04-29T22:35:00Z", "2023-04-29T22:35:00Z", "2023-04-29T22:35:00Z", "2023-04-29T22:49:00Z", "2023-04-29T22:35:00Z", "2023-04-29T22:35:00Z", "2023-04-29T22:55:00Z", "2023-04-29T22:51:00Z", "2023-04-29T22:35:00Z", "2023-04-29T22:45:00Z", "2023-04-29T22:35:00Z", "2023-04-29T21:55:00Z", "2023-04-29T21:56:00Z", "2023-04-29T22:50:00Z", "2023-04-29T22:05:00Z", "2023-04-29T21:54:00Z", "2023-04-29T21:54:00Z", "2023-04-29T22:35:00Z", "2023-04-29T22:52:00Z", "2023-04-29T22:35:00Z", "2023-04-29T22:45:00Z", "2023-04-29T22:30:00Z", "2023-04-29T22:35:00Z", "2023-04-29T22:35:00Z", "2023-04-29T22:35:00Z", "2023-04-29T22:35:00Z", "2023-04-29T22:35:00Z", "2023-04-29T22:45:00Z", "2023-04-29T22:35:00Z", "2023-04-29T22:45:00Z", "2023-04-29T22:35:00Z", "2023-04-29T22:55:00Z", "2023-04-29T22:55:00Z", "2023-04-29T22:35:00Z", "2023-04-29T22:35:00Z", "2023-04-29T22:35:00Z", "2023-04-29T21:54:00Z", "2023-04-29T22:35:00Z", "2023-04-29T21:45:00Z", "2023-04-29T22:35:00Z", "2023-04-29T22:53:00Z", "2023-04-29T21:56:00Z", "2023-04-29T21:54:00Z", "2023-04-29T21:56:00Z", "2023-04-29T21:58:00Z", "2023-04-29T21:55:00Z", "2023-04-29T21:53:00Z", "2023-04-29T22:15:00Z", "2023-04-29T21:53:00Z", "2023-04-29T21:56:00Z", "2023-04-29T21:56:00Z", "2023-04-29T22:35:00Z", "2023-04-29T22:35:00Z", "2023-04-29T22:30:00Z", "2023-04-29T22:35:00Z", "2023-04-29T22:30:00Z", "2023-04-29T22:35:00Z", "2023-04-29T22:48:00Z", "2023-04-29T21:53:00Z", "2023-04-29T21:55:00Z", "2023-04-29T22:35:00Z", "2023-04-29T22:55:00Z", "2023-04-29T22:53:00Z", "2023-04-29T22:51:00Z", "2023-04-29T22:35:00Z", "2023-04-29T22:35:00Z", "2023-04-29T22:35:00Z", "2023-04-29T22:35:00Z", "2023-04-29T22:15:00Z", "2023-04-29T22:55:00Z", "2023-04-29T22:35:00Z", "2023-04-29T22:35:00Z", "2023-04-29T21:53:00Z", "2023-04-29T21:53:00Z", "2023-04-29T21:56:00Z", "2023-04-29T22:51:00Z", "2023-04-29T22:35:00Z", "2023-04-29T22:35:00Z", "2023-04-29T21:53:00Z", "2023-04-29T22:50:00Z", "2023-04-29T22:30:00Z", "2023-04-29T22:30:00Z", "2023-04-29T22:00:00Z", "2023-04-29T22:30:00Z", "2023-04-29T22:00:00Z", "2023-04-29T22:00:00Z", "2023-04-29T22:30:00Z", "2023-04-29T22:30:00Z", "2023-04-29T22:20:00Z", "2023-04-29T22:30:00Z", "2023-04-29T22:30:00Z", "2023-04-29T22:20:00Z", "2023-04-29T22:30:00Z", "2023-04-29T22:30:00Z", "2023-04-29T22:30:00Z", "2023-04-29T22:30:00Z", "2023-04-29T22:30:00Z", "2023-04-29T22:30:00Z", "2023-04-29T22:30:00Z", "2023-04-29T22:30:00Z", "2023-04-29T22:30:00Z", "2023-04-29T22:30:00Z", "2023-04-29T22:30:00Z", "2023-04-29T22:30:00Z", "2023-04-29T22:30:00Z", "2023-04-29T22:30:00Z", "2023-04-29T22:30:00Z", "2023-04-29T22:30:00Z", "2023-04-29T22:30:00Z", "2023-04-29T22:30:00Z", "2023-04-29T22:30:00Z", "2023-04-29T22:30:00Z", "2023-04-29T22:30:00Z", "2023-04-29T22:30:00Z", "2023-04-29T22:30:00Z", "2023-04-29T22:30:00Z", "2023-04-29T22:30:00Z", "2023-04-29T22:30:00Z", "2023-04-29T22:30:00Z", "2023-04-29T22:30:00Z", "2023-04-29T22:30:00Z", "2023-04-29T22:30:00Z", "2023-04-29T22:30:00Z", "2023-04-29T22:30:00Z", "2023-04-29T22:30:00Z", "2023-04-29T22:30:00Z", "2023-04-29T22:30:00Z", "2023-04-29T22:30:00Z", "2023-04-29T22:30:00Z", "2023-04-29T22:30:00Z", "2023-04-29T22:30:00Z", "2023-04-29T22:30:00Z", "2023-04-29T22:30:00Z", "2023-04-29T22:30:00Z", "2023-04-29T22:30:00Z", "2023-04-29T22:30:00Z", "2023-04-29T22:30:00Z", "2023-04-29T22:30:00Z", "2023-04-29T22:30:00Z", "2023-04-29T22:30:00Z", "2023-04-29T22:30:00Z", "2023-04-29T22:30:00Z", "2023-04-29T22:30:00Z", "2023-04-29T22:33:00Z", "2023-04-29T22:30:00Z", "2023-04-29T22:30:00Z", "2023-04-29T22:30:00Z", "2023-04-29T22:30:00Z", "2023-04-29T22:30:00Z", "2023-04-29T22:30:00Z", "2023-04-29T22:30:00Z", "2023-04-29T22:30:00Z", "2023-04-29T22:30:00Z", "2023-04-29T22:30:00Z", "2023-04-29T22:30:00Z", "2023-04-29T22:30:00Z", "2023-04-29T22:30:00Z", "2023-04-29T22:30:00Z", "2023-04-29T22:30:00Z", "2023-04-29T22:30:00Z", "2023-04-29T22:30:00Z", "2023-04-29T22:30:00Z", "2023-04-29T22:30:00Z", "2023-04-29T22:30:00Z", "2023-04-29T22:30:00Z", "2023-04-29T22:30:00Z", "2023-04-29T22:30:00Z", "2023-04-29T22:30:00Z", "2023-04-29T22:30:00Z", "2023-04-29T22:30:00Z", "2023-04-29T22:30:00Z", "2023-04-29T22:30:00Z", "2023-04-29T22:30:00Z", "2023-04-29T22:30:00Z", "2023-04-29T22:30:00Z", "2023-04-29T22:30:00Z", "2023-04-29T22:30:00Z", "2023-04-29T22:30:00Z", "2023-04-29T22:30:00Z", "2023-04-29T22:30:00Z", "2023-04-29T22:30:00Z", "2023-04-29T22:30:00Z", "2023-04-29T22:30:00Z", "2023-04-29T22:30:00Z", "2023-04-29T22:30:00Z", "2023-04-29T22:30:00Z", "2023-04-29T22:30:00Z", "2023-04-29T22:30:00Z", "2023-04-29T22:30:00Z", "2023-04-29T22:30:00Z", "2023-04-29T22:30:00Z", "2023-04-29T22:30:00Z", "2023-04-29T22:30:00Z", "2023-04-29T22:30:00Z", "2023-04-29T22:30:00Z", "2023-04-29T22:30:00Z", "2023-04-29T22:30:00Z", "2023-04-29T22:30:00Z", "2023-04-29T22:30:00Z", "2023-04-29T22:30:00Z", "2023-04-29T22:30:00Z", "2023-04-29T22:30:00Z", "2023-04-29T22:30:00Z", "2023-04-29T22:30:00Z", "2023-04-29T22:30:00Z", "2023-04-29T22:30:00Z", "2023-04-29T22:30:00Z", "2023-04-29T22:30:00Z", "2023-04-29T22:30:00Z", "2023-04-29T22:30:00Z", "2023-04-29T22:30:00Z", "2023-04-29T22:30:00Z", "2023-04-29T22:30:00Z", "2023-04-29T22:30:00Z", "2023-04-29T22:30:00Z", "2023-04-29T22:30:00Z", "2023-04-29T22:30:00Z", "2023-04-29T22:30:00Z", "2023-04-29T22:30:00Z", "2023-04-29T22:30:00Z", "2023-04-29T22:30:00Z", "2023-04-29T22:30:00Z", "2023-04-29T22:30:00Z", "2023-04-29T22:30:00Z", "2023-04-29T22:30:00Z", "2023-04-29T22:30:00Z", "2023-04-29T22:30:00Z", "2023-04-29T22:30:00Z", "2023-04-29T22:30:00Z", "2023-04-29T22:30:00Z", "2023-04-29T22:30:00Z", "2023-04-29T22:30:00Z", "2023-04-29T22:30:00Z", "2023-04-29T22:30:00Z", "2023-04-29T22:30:00Z", "2023-04-29T22:30:00Z", "2023-04-29T22:30:00Z", "2023-04-29T22:30:00Z", "2023-04-29T22:30:00Z", "2023-04-29T22:30:00Z", "2023-04-29T22:30:00Z", "2023-04-29T22:30:00Z", "2023-04-29T22:30:00Z", "2023-04-29T22:30:00Z", "2023-04-29T22:30:00Z", "2023-04-29T22:30:00Z", "2023-04-29T22:50:00Z", "2023-04-29T22:50:00Z", "2023-04-29T22:50:00Z", "2023-04-29T22:50:00Z", "2023-04-29T22:50:00Z", "2023-04-29T22:50:00Z", "2023-04-29T22:50:00Z", "2023-04-29T22:50:00Z", "2023-04-29T22:20:00Z", "2023-04-29T22:30:00Z", "2023-04-29T22:50:00Z", "2023-04-29T22:50:00Z", "2023-04-29T22:50:00Z", "2023-04-29T22:50:00Z", "2023-04-29T22:20:00Z", "2023-04-29T22:50:00Z", "2023-04-29T22:50:00Z", "2023-04-29T21:50:00Z", "2023-04-29T22:50:00Z", "2023-04-29T22:50:00Z", "2023-04-29T22:30:00Z", "2023-04-29T22:15:00Z", "2023-04-29T22:45:00Z", "2023-04-29T22:15:00Z", "2023-04-29T22:15:00Z", "2023-04-29T22:15:00Z", "2023-04-29T22:15:00Z", "2023-04-29T22:45:00Z", "2023-04-29T21:55:00Z", "2023-04-29T22:50:00Z", "2023-04-29T21:55:00Z", "2023-04-29T22:50:00Z", "2023-04-29T21:55:00Z", "2023-04-29T22:50:00Z", "2023-04-29T21:55:00Z", "2023-04-29T22:50:00Z", "2023-04-29T22:50:00Z", "2023-04-29T22:50:00Z", "2023-04-29T22:50:00Z", "2023-04-29T22:50:00Z", "2023-04-29T22:50:00Z", "2023-04-29T21:55:00Z", "2023-04-29T21:55:00Z", "2023-04-29T22:50:00Z", "2023-04-29T21:55:00Z", "2023-04-29T21:55:00Z", "2023-04-29T22:50:00Z", "2023-04-29T22:50:00Z", "2023-04-29T22:50:00Z", "2023-04-29T22:50:00Z", "2023-04-29T22:50:00Z", "2023-04-29T21:55:00Z", "2023-04-29T22:50:00Z", "2023-04-29T22:50:00Z", "2023-04-29T22:50:00Z", "2023-04-29T21:55:00Z", "2023-04-29T22:50:00Z", "2023-04-29T22:50:00Z", "2023-04-29T21:55:00Z", "2023-04-29T21:55:00Z", "2023-04-29T22:50:00Z", "2023-04-29T22:50:00Z", "2023-04-29T22:50:00Z", "2023-04-29T21:55:00Z", "2023-04-29T22:50:00Z", "2023-04-29T22:50:00Z", "2023-04-29T22:50:00Z", "2023-04-29T22:50:00Z", "2023-04-29T21:55:00Z", "2023-04-29T22:50:00Z", "2023-04-29T21:55:00Z", "2023-04-29T21:55:00Z", "2023-04-29T22:50:00Z", "2023-04-29T22:45:00Z", "2023-04-29T22:50:00Z", "2023-04-29T21:55:00Z", "2023-04-29T22:50:00Z", "2023-04-29T21:55:00Z", "2023-04-29T21:55:00Z", "2023-04-29T21:55:00Z", "2023-04-29T21:55:00Z", "2023-04-29T21:55:00Z", "2023-04-29T21:55:00Z", "2023-04-29T21:55:00Z", "2023-04-29T21:55:00Z", "2023-04-29T22:30:00Z", "2023-04-29T22:30:00Z", "2023-04-29T22:30:00Z", "2023-04-29T22:30:00Z", "2023-04-29T22:30:00Z", "2023-04-29T22:00:00Z", "2023-04-29T22:00:00Z", "2023-04-29T22:00:00Z", "2023-04-29T22:30:00Z", "2023-04-29T22:30:00Z", "2023-04-29T22:30:00Z", "2023-04-29T22:30:00Z", "2023-04-29T22:30:00Z", "2023-04-29T22:50:00Z", "2023-04-29T22:45:00Z", "2023-04-29T22:50:00Z", "2023-04-29T22:50:00Z", "2023-04-29T22:50:00Z", "2023-04-29T22:50:00Z", "2023-04-29T22:50:00Z", "2023-04-29T22:50:00Z", "2023-04-29T22:30:00Z", "2023-04-29T22:00:00Z", "2023-04-29T22:30:00Z", "2023-04-29T22:00:00Z", "2023-04-29T22:30:00Z", "2023-04-29T22:00:00Z", "2023-04-29T22:00:00Z", "2023-04-29T22:30:00Z", "2023-04-29T22:30:00Z", "2023-04-29T22:30:00Z", "2023-04-29T22:30:00Z", "2023-04-29T22:30:00Z", "2023-04-29T22:30:00Z", "2023-04-29T22:30:00Z", "2023-04-29T22:30:00Z", "2023-04-29T22:30:00Z", "2023-04-29T22:30:00Z", "2023-04-29T22:30:00Z", "2023-04-29T22:30:00Z", "2023-04-29T22:30:00Z", "2023-04-29T22:30:00Z", "2023-04-29T22:30:00Z", "2023-04-29T22:30:00Z", "2023-04-29T22:30:00Z", "2023-04-29T22:30:00Z", "2023-04-29T22:30:00Z", "2023-04-29T22:30:00Z", "2023-04-29T22:30:00Z", "2023-04-29T22:30:00Z", "2023-04-29T22:30:00Z", "2023-04-29T22:30:00Z", "2023-04-29T22:50:00Z", "2023-04-29T22:50:00Z", "2023-04-29T22:50:00Z", "2023-04-29T22:20:00Z", "2023-04-29T22:20:00Z", "2023-04-29T22:20:00Z", "2023-04-29T22:20:00Z", "2023-04-29T22:50:00Z", "2023-04-29T22:50:00Z", "2023-04-29T22:50:00Z", "2023-04-29T22:50:00Z", "2023-04-29T22:50:00Z", "2023-04-29T22:20:00Z", "2023-04-29T22:50:00Z", "2023-04-29T22:50:00Z", "2023-04-29T22:20:00Z", "2023-04-29T21:50:00Z", "2023-04-29T22:20:00Z", "2023-04-29T22:20:00Z", "2023-04-29T22:20:00Z", "2023-04-29T22:20:00Z", "2023-04-29T21:50:00Z", "2023-04-29T22:20:00Z", "2023-04-29T21:50:00Z", "2023-04-29T22:20:00Z", "2023-04-29T22:20:00Z", "2023-04-29T21:50:00Z", "2023-04-29T22:20:00Z", "2023-04-29T22:20:00Z", "2023-04-29T21:50:00Z", "2023-04-29T21:50:00Z", "2023-04-29T21:50:00Z", "2023-04-29T22:20:00Z", "2023-04-29T21:50:00Z", "2023-04-29T22:20:00Z", "2023-04-29T22:20:00Z", "2023-04-29T22:20:00Z", "2023-04-29T21:50:00Z", "2023-04-29T21:50:00Z", "2023-04-29T21:50:00Z", "2023-04-29T22:20:00Z", "2023-04-29T21:50:00Z", "2023-04-29T22:20:00Z", "2023-04-29T21:50:00Z", "2023-04-29T22:42:00Z", "2023-04-29T21:50:00Z", "2023-04-29T22:20:00Z", "2023-04-29T21:50:00Z", "2023-04-29T22:20:00Z", "2023-04-29T21:50:00Z", "2023-04-29T21:50:00Z", "2023-04-29T21:50:00Z", "2023-04-29T21:50:00Z", "2023-04-29T22:20:00Z", "2023-04-29T21:50:00Z", "2023-04-29T22:20:00Z", "2023-04-29T21:50:00Z", "2023-04-29T21:50:00Z", "2023-04-29T22:20:00Z", "2023-04-29T22:20:00Z", "2023-04-29T21:50:00Z", "2023-04-29T22:30:00Z", "2023-04-29T22:20:00Z", "2023-04-29T22:30:00Z", "2023-04-29T22:30:00Z", "2023-04-29T22:30:00Z", "2023-04-29T22:30:00Z", "2023-04-29T22:30:00Z", "2023-04-29T22:30:00Z", "2023-04-29T22:30:00Z", "2023-04-29T22:30:00Z", "2023-04-29T22:30:00Z", "2023-04-29T22:30:00Z", "2023-04-29T22:30:00Z", "2023-04-29T22:30:00Z", "2023-04-29T22:00:00Z", "2023-04-29T22:00:00Z", "2023-04-29T22:00:00Z", "2023-04-29T22:00:00Z", "2023-04-29T22:00:00Z", "2023-04-29T22:00:00Z", "2023-04-29T22:00:00Z", "2023-04-29T22:00:00Z", "2023-04-29T22:00:00Z", "2023-04-29T22:00:00Z", "2023-04-29T22:00:00Z", "2023-04-29T22:00:00Z", "2023-04-29T22:00:00Z", "2023-04-29T22:00:00Z", "2023-04-29T22:00:00Z", "2023-04-29T22:00:00Z", "2023-04-29T22:00:00Z", "2023-04-29T22:00:00Z", "2023-04-29T22:00:00Z", "2023-04-29T22:00:00Z", "2023-04-29T22:00:00Z", "2023-04-29T21:42:00Z", "2023-04-29T21:52:00Z", "2023-04-29T21:45:00Z", "2023-04-29T21:43:00Z", "2023-04-29T21:51:00Z", "2023-04-29T21:44:00Z", "2023-04-29T22:41:00Z", "2023-04-29T21:45:00Z", "2023-04-29T21:45:00Z", "2023-04-29T21:46:00Z", "2023-04-29T21:51:00Z", "2023-04-29T21:42:00Z", "2023-04-29T21:42:00Z", "2023-04-29T21:44:00Z", "2023-04-29T21:46:00Z", "2023-04-29T21:42:00Z", "2023-04-29T21:44:00Z", "2023-04-29T21:45:00Z", "2023-04-29T21:43:00Z", "2023-04-29T21:42:00Z", "2023-04-29T21:44:00Z", "2023-04-29T21:43:00Z", "2023-04-29T21:47:00Z", "2023-04-29T21:45:00Z", "2023-04-29T21:42:00Z", "2023-04-29T21:50:00Z", "2023-04-29T21:43:00Z", "2023-04-29T21:46:00Z", "2023-04-29T21:45:00Z", "2023-04-29T21:43:00Z", "2023-04-29T21:44:00Z", "2023-04-29T22:49:00Z", "2023-04-29T21:42:00Z", "2023-04-29T21:46:00Z", "2023-04-29T22:07:00Z", "2023-04-29T22:00:00Z", "2023-04-29T22:00:00Z", "2023-04-29T22:00:00Z", "2023-04-29T22:00:00Z", "2023-04-29T22:25:00Z", "2023-04-29T22:00:00Z", "2023-04-29T22:00:00Z", "2023-04-29T22:00:00Z", "2023-04-29T22:00:00Z", "2023-04-29T22:00:00Z", "2023-04-29T22:00:00Z", "2023-04-29T22:00:00Z", "2023-04-29T22:00:00Z", "2023-04-29T22:00:00Z", "2023-04-29T22:00:00Z", "2023-04-29T22:16:00Z", "2023-04-29T22:50:00Z", "2023-04-29T22:00:00Z", "2023-04-29T22:40:00Z", "2023-04-29T21:59:00Z", "2023-04-29T21:50:00Z", "2023-04-29T21:50:00Z", "2023-04-29T21:50:00Z", "2023-04-29T22:51:00Z", "2023-04-29T21:50:00Z", "2023-04-29T21:50:00Z", "2023-04-29T21:50:00Z", "2023-04-29T21:50:00Z", "2023-04-29T22:00:00Z", "2023-04-29T22:00:00Z", "2023-04-29T22:00:00Z", "2023-04-29T22:00:00Z", "2023-04-29T22:00:00Z", "2023-04-29T22:00:00Z", "2023-04-29T22:00:00Z", "2023-04-29T22:30:00Z", "2023-04-29T22:00:00Z", "2023-04-29T22:00:00Z", "2023-04-29T22:00:00Z", "2023-04-29T22:00:00Z", "2023-04-29T22:00:00Z", "2023-04-29T22:00:00Z", "2023-04-29T22:00:00Z", "2023-04-29T22:30:00Z", "2023-04-29T22:00:00Z", "2023-04-29T22:50:00Z", "2023-04-29T22:30:00Z", "2023-04-29T22:00:00Z", "2023-04-29T22:00:00Z", "2023-04-29T22:30:00Z", "2023-04-29T22:30:00Z", "2023-04-29T22:30:00Z", "2023-04-29T21:55:00Z", "2023-04-29T22:30:00Z", "2023-04-29T22:30:00Z", "2023-04-29T22:00:00Z", "2023-04-29T22:00:00Z", "2023-04-29T22:00:00Z", "2023-04-29T22:00:00Z", "2023-04-29T22:00:00Z", "2023-04-29T22:00:00Z", "2023-04-29T22:00:00Z", "2023-04-29T22:00:00Z", "2023-04-29T22:00:00Z", "2023-04-29T22:00:00Z", "2023-04-29T22:00:00Z", "2023-04-29T22:00:00Z", "2023-04-29T22:00:00Z", "2023-04-29T22:00:00Z", "2023-04-29T22:00:00Z", "2023-04-29T22:00:00Z", "2023-04-29T22:00:00Z", "2023-04-29T22:00:00Z", "2023-04-29T22:00:00Z", "2023-04-29T22:00:00Z", "2023-04-29T21:55:00Z", "2023-04-29T22:00:00Z", "2023-04-29T22:00:00Z", "2023-04-29T22:00:00Z", "2023-04-29T22:00:00Z", "2023-04-29T22:00:00Z", "2023-04-29T22:00:00Z", "2023-04-29T22:00:00Z", "2023-04-29T22:00:00Z", "2023-04-29T22:00:00Z", "2023-04-29T22:00:00Z", "2023-04-29T22:00:00Z", "2023-04-29T22:00:00Z", "2023-04-29T22:00:00Z", "2023-04-29T22:00:00Z", "2023-04-29T22:00:00Z", "2023-04-29T22:00:00Z", "2023-04-29T22:00:00Z", "2023-04-29T22:00:00Z", "2023-04-29T22:00:00Z", "2023-04-29T22:00:00Z", "2023-04-29T22:00:00Z", "2023-04-29T22:00:00Z", "2023-04-29T22:00:00Z", "2023-04-29T22:30:00Z", "2023-04-29T22:00:00Z", "2023-04-29T22:00:00Z", "2023-04-29T22:00:00Z", "2023-04-29T22:30:00Z", "2023-04-29T22:30:00Z", "2023-04-29T22:00:00Z", "2023-04-29T22:00:00Z", "2023-04-29T22:00:00Z", "2023-04-29T22:00:00Z", "2023-04-29T22:00:00Z", "2023-04-29T22:00:00Z", "2023-04-29T22:00:00Z", "2023-04-29T22:00:00Z", "2023-04-29T22:30:00Z", "2023-04-29T22:00:00Z", "2023-04-29T22:00:00Z", "2023-04-29T22:00:00Z", "2023-04-29T22:00:00Z", "2023-04-29T22:30:00Z", "2023-04-29T22:00:00Z", "2023-04-29T22:00:00Z", "2023-04-29T22:00:00Z", "2023-04-29T22:00:00Z", "2023-04-29T22:30:00Z", "2023-04-29T22:00:00Z", "2023-04-29T22:00:00Z", "2023-04-29T22:00:00Z", "2023-04-29T21:55:00Z", "2023-04-29T22:00:00Z", "2023-04-29T22:00:00Z", "2023-04-29T22:00:00Z", "2023-04-29T22:00:00Z", "2023-04-29T22:00:00Z", "2023-04-29T22:00:00Z", "2023-04-29T22:00:00Z", "2023-04-29T22:00:00Z", "2023-04-29T22:00:00Z", "2023-04-29T22:00:00Z", "2023-04-29T21:50:00Z", "2023-04-29T21:50:00Z", "2023-04-29T21:50:00Z", "2023-04-29T21:50:00Z", "2023-04-29T21:50:00Z", "2023-04-29T21:50:00Z", "2023-04-29T22:33:00Z", "2023-04-29T22:30:00Z", "2023-04-29T22:30:00Z", "2023-04-29T22:25:00Z", "2023-04-29T22:30:00Z", "2023-04-29T22:00:00Z", "2023-04-29T22:00:00Z", "2023-04-29T22:00:00Z", "2023-04-29T22:00:00Z", "2023-04-29T22:00:00Z", "2023-04-29T22:30:00Z", "2023-04-29T21:55:00Z", "2023-04-29T22:00:00Z", "2023-04-29T22:35:00Z", "2023-04-29T22:51:00Z", "2023-04-29T22:53:00Z", "2023-04-29T22:52:00Z", "2023-04-29T22:53:00Z", "2023-04-29T22:53:00Z", "2023-04-29T21:56:00Z", "2023-04-29T22:53:00Z", "2023-04-29T21:53:00Z", "2023-04-29T21:56:00Z", "2023-04-29T22:53:00Z", "2023-04-29T22:39:00Z", "2023-04-29T22:53:00Z", "2023-04-29T22:51:00Z", "2023-04-29T22:53:00Z", "2023-04-29T22:10:00Z", "2023-04-29T22:14:00Z", "2023-04-29T21:56:00Z", "2023-04-29T21:56:00Z", "2023-04-29T22:53:00Z", "2023-04-29T21:56:00Z", "2023-04-29T21:55:00Z", "2023-04-29T22:53:00Z", "2023-04-29T21:55:00Z", "2023-04-29T21:55:00Z", "2023-04-29T22:53:00Z", "2023-04-29T22:53:00Z", "2023-04-29T21:55:00Z", "2023-04-29T21:56:00Z", "2023-04-29T21:56:00Z", "2023-04-29T21:55:00Z", "2023-04-29T22:01:00Z", "2023-04-29T22:53:00Z", "2023-04-29T22:30:00Z", "2023-04-29T21:56:00Z", "2023-04-29T22:35:00Z", "2023-04-29T22:53:00Z", "2023-04-29T21:56:00Z", "2023-04-29T21:56:00Z", "2023-04-29T21:54:00Z", "2023-04-29T22:53:00Z", "2023-04-29T21:56:00Z", "2023-04-29T21:56:00Z", "2023-04-29T22:53:00Z", "2023-04-29T21:55:00Z", "2023-04-29T21:56:00Z", "2023-04-29T22:47:00Z", "2023-04-29T22:37:00Z", "2023-04-29T22:53:00Z", "2023-04-29T21:56:00Z", "2023-04-29T22:53:00Z", "2023-04-29T21:56:00Z", "2023-04-29T21:54:00Z", "2023-04-29T21:56:00Z", "2023-04-29T22:53:00Z", "2023-04-29T21:45:00Z", "2023-04-29T22:53:00Z", "2023-04-29T22:53:00Z", "2023-04-29T22:35:00Z", "2023-04-29T21:56:00Z", "2023-04-29T22:53:00Z", "2023-04-29T22:50:00Z", "2023-04-29T22:48:00Z", "2023-04-29T21:55:00Z", "2023-04-29T21:56:00Z", "2023-04-29T21:56:00Z", "2023-04-29T21:56:00Z", "2023-04-29T21:56:00Z", "2023-04-29T22:40:00Z", "2023-04-29T22:53:00Z", "2023-04-29T21:56:00Z", "2023-04-29T22:53:00Z", "2023-04-29T21:56:00Z", "2023-04-29T21:56:00Z", "2023-04-29T21:56:00Z", "2023-04-29T21:56:00Z", "2023-04-29T22:53:00Z", "2023-04-29T22:05:00Z", "2023-04-29T22:53:00Z", "2023-04-29T22:53:00Z", "2023-04-29T21:56:00Z", "2023-04-29T22:19:00Z", "2023-04-29T21:56:00Z", "2023-04-29T21:56:00Z", "2023-04-29T21:56:00Z", "2023-04-29T22:53:00Z", "2023-04-29T22:43:00Z", "2023-04-29T22:52:00Z", "2023-04-29T22:53:00Z", "2023-04-29T21:56:00Z", "2023-04-29T21:56:00Z", "2023-04-29T22:53:00Z", "2023-04-29T22:33:00Z", "2023-04-29T22:53:00Z", "2023-04-29T21:56:00Z", "2023-04-29T21:56:00Z", "2023-04-29T22:33:00Z", "2023-04-29T22:38:00Z", "2023-04-29T22:53:00Z", "2023-04-29T21:55:00Z", "2023-04-29T21:56:00Z", "2023-04-29T21:55:00Z", "2023-04-29T22:52:00Z", "2023-04-29T22:50:00Z", "2023-04-29T21:56:00Z", "2023-04-29T22:35:00Z", "2023-04-29T22:53:00Z", "2023-04-29T21:55:00Z", "2023-04-29T22:53:00Z", "2023-04-29T21:56:00Z", "2023-04-29T21:56:00Z", "2023-04-29T22:43:00Z", "2023-04-29T21:56:00Z", "2023-04-29T21:53:00Z", "2023-04-29T22:53:00Z", "2023-04-29T21:55:00Z", "2023-04-29T22:53:00Z", "2023-04-29T21:56:00Z", "2023-04-29T21:56:00Z", "2023-04-29T21:56:00Z", "2023-04-29T22:53:00Z", "2023-04-29T22:53:00Z", "2023-04-29T21:56:00Z", "2023-04-29T21:56:00Z", "2023-04-29T21:56:00Z", "2023-04-29T21:56:00Z", "2023-04-29T21:56:00Z", "2023-04-29T21:56:00Z", "2023-04-29T22:50:00Z", "2023-04-29T21:54:00Z", "2023-04-29T21:55:00Z", "2023-04-29T21:54:00Z", "2023-04-29T21:50:00Z", "2023-04-29T22:51:00Z", "2023-04-29T22:35:00Z", "2023-04-29T22:53:00Z", "2023-04-29T22:53:00Z", "2023-04-29T22:53:00Z", "2023-04-29T21:54:00Z", "2023-04-29T21:57:00Z", "2023-04-29T22:53:00Z", "2023-04-29T21:56:00Z", "2023-04-29T21:54:00Z", "2023-04-29T22:50:00Z", "2023-04-29T22:53:00Z", "2023-04-29T22:51:00Z", "2023-04-29T22:40:00Z", "2023-04-29T22:00:00Z", "2023-04-29T21:56:00Z", "2023-04-29T21:56:00Z", "2023-04-29T22:50:00Z", "2023-04-29T21:50:00Z", "2023-04-29T21:50:00Z", "2023-04-29T22:50:00Z", "2023-04-29T21:55:00Z", "2023-04-29T22:30:00Z", "2023-04-29T22:30:00Z", "2023-04-29T22:35:00Z", "2023-04-29T22:30:00Z", "2023-04-29T22:30:00Z", "2023-04-29T22:30:00Z", "2023-04-29T22:30:00Z", "2023-04-29T22:00:00Z", "2023-04-29T22:00:00Z", "2023-04-29T22:30:00Z", "2023-04-29T22:00:00Z", "2023-04-29T22:30:00Z", "2023-04-29T22:00:00Z", "2023-04-29T22:00:00Z", "2023-04-29T22:42:00Z", "2023-04-29T22:00:00Z", "2023-04-29T22:00:00Z", "2023-04-29T22:30:00Z", "2023-04-29T22:00:00Z", "2023-04-29T22:30:00Z", "2023-04-29T22:00:00Z", "2023-04-29T22:30:00Z", "2023-04-29T22:00:00Z", "2023-04-29T22:00:00Z", "2023-04-29T22:00:00Z", "2023-04-29T22:00:00Z", "2023-04-29T22:00:00Z", "2023-04-29T22:30:00Z", "2023-04-29T22:00:00Z", "2023-04-29T22:00:00Z", "2023-04-29T22:00:00Z", "2023-04-29T22:30:00Z", "2023-04-29T22:00:00Z", "2023-04-29T22:40:00Z", "2023-04-29T22:00:00Z", "2023-04-29T22:00:00Z", "2023-04-29T22:00:00Z", "2023-04-29T22:37:00Z", "2023-04-29T22:00:00Z", "2023-04-29T21:56:00Z", "2023-04-29T22:00:00Z", "2023-04-29T22:00:00Z", "2023-04-29T22:00:00Z", "2023-04-29T22:00:00Z", "2023-04-29T22:00:00Z", "2023-04-29T22:00:00Z", "2023-04-29T22:00:00Z", "2023-04-29T22:00:00Z", "2023-04-29T22:00:00Z", "2023-04-29T22:00:00Z", "2023-04-29T22:00:00Z", "2023-04-29T22:00:00Z", "2023-04-29T22:00:00Z", "2023-04-29T22:10:00Z", "2023-04-29T22:35:00Z", "2023-04-29T22:36:00Z", "2023-04-29T22:30:00Z", "2023-04-29T22:03:00Z", "2023-04-29T22:00:00Z", "2023-04-29T21:55:00Z", "2023-04-29T22:00:00Z", "2023-04-29T22:00:00Z", "2023-04-29T22:00:00Z", "2023-04-29T21:55:00Z", "2023-04-29T22:30:00Z", "2023-04-29T22:00:00Z", "2023-04-29T21:55:00Z", "2023-04-29T22:00:00Z", "2023-04-29T22:00:00Z", "2023-04-29T22:00:00Z", "2023-04-29T22:30:00Z", "2023-04-29T21:59:00Z", "2023-04-29T21:55:00Z", "2023-04-29T22:00:00Z", "2023-04-29T22:00:00Z", "2023-04-29T22:00:00Z", "2023-04-29T22:00:00Z", "2023-04-29T22:00:00Z", "2023-04-29T22:00:00Z", "2023-04-29T22:00:00Z", "2023-04-29T22:56:00Z", "2023-04-29T22:00:00Z", "2023-04-29T22:00:00Z", "2023-04-29T22:00:00Z", "2023-04-29T22:00:00Z", "2023-04-29T22:00:00Z", "2023-04-29T22:00:00Z", "2023-04-29T22:00:00Z", "2023-04-29T22:00:00Z", "2023-04-29T22:00:00Z", "2023-04-29T22:00:00Z", "2023-04-29T22:00:00Z", "2023-04-29T22:00:00Z", "2023-04-29T22:00:00Z", "2023-04-29T22:00:00Z", "2023-04-29T22:00:00Z", "2023-04-29T22:00:00Z", "2023-04-29T22:00:00Z", "2023-04-29T22:00:00Z", "2023-04-29T22:00:00Z", "2023-04-29T22:00:00Z", "2023-04-29T22:00:00Z", "2023-04-29T22:00:00Z", "2023-04-29T22:00:00Z", "2023-04-29T22:00:00Z", "2023-04-29T22:00:00Z", "2023-04-29T22:00:00Z", "2023-04-29T22:00:00Z", "2023-04-29T22:00:00Z", "2023-04-29T22:00:00Z", "2023-04-29T22:00:00Z", "2023-04-29T22:00:00Z", "2023-04-29T22:00:00Z", "2023-04-29T22:00:00Z", "2023-04-29T22:00:00Z", "2023-04-29T22:00:00Z", "2023-04-29T22:00:00Z", "2023-04-29T22:00:00Z", "2023-04-29T22:00:00Z", "2023-04-29T22:00:00Z", "2023-04-29T22:00:00Z", "2023-04-29T22:00:00Z", "2023-04-29T22:00:00Z", "2023-04-29T22:00:00Z", "2023-04-29T22:00:00Z", "2023-04-29T22:00:00Z", "2023-04-29T22:00:00Z", "2023-04-29T22:00:00Z", "2023-04-29T22:00:00Z", "2023-04-29T22:00:00Z", "2023-04-29T22:00:00Z", "2023-04-29T22:00:00Z", "2023-04-29T22:00:00Z", "2023-04-29T22:00:00Z", "2023-04-29T22:00:00Z", "2023-04-29T22:00:00Z", "2023-04-29T22:00:00Z", "2023-04-29T22:00:00Z", "2023-04-29T22:00:00Z", "2023-04-29T22:00:00Z", "2023-04-29T22:00:00Z", "2023-04-29T22:00:00Z", "2023-04-29T22:00:00Z", "2023-04-29T22:00:00Z", "2023-04-29T22:00:00Z", "2023-04-29T22:00:00Z", "2023-04-29T22:00:00Z", "2023-04-29T22:00:00Z", "2023-04-29T22:00:00Z", "2023-04-29T22:00:00Z", "2023-04-29T22:00:00Z", "2023-04-29T22:00:00Z", "2023-04-29T22:00:00Z", "2023-04-29T22:00:00Z", "2023-04-29T22:00:00Z", "2023-04-29T22:00:00Z", "2023-04-29T22:00:00Z", "2023-04-29T22:00:00Z", "2023-04-29T22:00:00Z", "2023-04-29T22:00:00Z", "2023-04-29T22:00:00Z", "2023-04-29T21:45:00Z", "2023-04-29T22:00:00Z", "2023-04-29T22:00:00Z", "2023-04-29T22:00:00Z", "2023-04-29T22:00:00Z", "2023-04-29T22:00:00Z", "2023-04-29T22:00:00Z", "2023-04-29T22:00:00Z", "2023-04-29T22:00:00Z", "2023-04-29T22:00:00Z", "2023-04-29T22:00:00Z", "2023-04-29T22:00:00Z", "2023-04-29T22:00:00Z", "2023-04-29T22:00:00Z", "2023-04-29T22:45:00Z", "2023-04-29T22:00:00Z", "2023-04-29T22:00:00Z", "2023-04-29T22:00:00Z", "2023-04-29T22:00:00Z", "2023-04-29T22:00:00Z", "2023-04-29T22:00:00Z", "2023-04-29T22:00:00Z", "2023-04-29T22:00:00Z", "2023-04-29T22:00:00Z", "2023-04-29T22:09:00Z", "2023-04-29T22:00:00Z", "2023-04-29T22:00:00Z", "2023-04-29T22:00:00Z", "2023-04-29T22:00:00Z", "2023-04-29T22:00:00Z", "2023-04-29T22:00:00Z", "2023-04-29T22:00:00Z", "2023-04-29T22:00:00Z", "2023-04-29T22:00:00Z", "2023-04-29T22:00:00Z", "2023-04-29T22:00:00Z", "2023-04-29T22:00:00Z", "2023-04-29T22:00:00Z", "2023-04-29T22:00:00Z", "2023-04-29T22:00:00Z", "2023-04-29T22:00:00Z", "2023-04-29T22:00:00Z", "2023-04-29T22:00:00Z", "2023-04-29T22:00:00Z", "2023-04-29T22:00:00Z", "2023-04-29T22:00:00Z", "2023-04-29T22:00:00Z", "2023-04-29T22:00:00Z", "2023-04-29T22:00:00Z", "2023-04-29T22:00:00Z", "2023-04-29T22:00:00Z", "2023-04-29T22:00:00Z", "2023-04-29T22:00:00Z", "2023-04-29T22:00:00Z", "2023-04-29T22:00:00Z", "2023-04-29T22:00:00Z", "2023-04-29T22:00:00Z", "2023-04-29T22:00:00Z", "2023-04-29T22:00:00Z", "2023-04-29T22:00:00Z", "2023-04-29T22:00:00Z", "2023-04-29T22:00:00Z", "2023-04-29T22:00:00Z", "2023-04-29T22:00:00Z", "2023-04-29T22:29:00Z", "2023-04-29T22:00:00Z", "2023-04-29T22:00:00Z", "2023-04-29T22:00:00Z", "2023-04-29T22:00:00Z", "2023-04-29T22:00:00Z", "2023-04-29T22:00:00Z", "2023-04-29T22:00:00Z", "2023-04-29T22:00:00Z", "2023-04-29T22:00:00Z", "2023-04-29T22:00:00Z", "2023-04-29T22:00:00Z", "2023-04-29T22:00:00Z", "2023-04-29T22:00:00Z", "2023-04-29T22:00:00Z", "2023-04-29T22:00:00Z", "2023-04-29T22:00:00Z", "2023-04-29T22:00:00Z", "2023-04-29T22:00:00Z", "2023-04-29T22:00:00Z", "2023-04-29T22:00:00Z", "2023-04-29T22:00:00Z", "2023-04-29T22:00:00Z", "2023-04-29T22:00:00Z", "2023-04-29T22:00:00Z", "2023-04-29T22:00:00Z", "2023-04-29T22:00:00Z", "2023-04-29T22:00:00Z", "2023-04-29T22:00:00Z", "2023-04-29T22:00:00Z", "2023-04-29T22:00:00Z", "2023-04-29T22:00:00Z", "2023-04-29T22:00:00Z", "2023-04-29T22:00:00Z", "2023-04-29T22:00:00Z", "2023-04-29T22:00:00Z", "2023-04-29T22:00:00Z", "2023-04-29T22:00:00Z", "2023-04-29T22:00:00Z", "2023-04-29T22:00:00Z", "2023-04-29T22:00:00Z", "2023-04-29T22:00:00Z", "2023-04-29T22:00:00Z", "2023-04-29T22:30:00Z", "2023-04-29T22:00:00Z", "2023-04-29T22:00:00Z", "2023-04-29T22:00:00Z", "2023-04-29T22:00:00Z", "2023-04-29T22:00:00Z", "2023-04-29T22:00:00Z", "2023-04-29T22:30:00Z", "2023-04-29T22:00:00Z", "2023-04-29T22:00:00Z", "2023-04-29T22:00:00Z", "2023-04-29T22:00:00Z", "2023-04-29T22:00:00Z", "2023-04-29T22:00:00Z", "2023-04-29T22:00:00Z", "2023-04-29T22:00:00Z", "2023-04-29T22:00:00Z", "2023-04-29T22:00:00Z", "2023-04-29T22:00:00Z", "2023-04-29T22:00:00Z", "2023-04-29T22:30:00Z", "2023-04-29T22:00:00Z", "2023-04-29T22:00:00Z", "2023-04-29T22:00:00Z", "2023-04-29T22:00:00Z", "2023-04-29T22:03:00Z", "2023-04-29T22:03:00Z", "2023-04-29T22:03:00Z", "2023-04-29T22:03:00Z", "2023-04-29T22:03:00Z", "2023-04-29T22:03:00Z", "2023-04-29T22:03:00Z", "2023-04-29T22:03:00Z", "2023-04-29T22:03:00Z", "2023-04-29T22:03:00Z", "2023-04-29T22:03:00Z", "2023-04-29T22:03:00Z", "2023-04-29T22:03:00Z", "2023-04-29T22:03:00Z", "2023-04-29T22:03:00Z", "2023-04-29T22:03:00Z", "2023-04-29T22:03:00Z", "2023-04-29T22:03:00Z", "2023-04-29T22:03:00Z", "2023-04-29T22:03:00Z", "2023-04-29T22:00:00Z", "2023-04-29T22:00:00Z", "2023-04-29T22:00:00Z", "2023-04-29T22:00:00Z", "2023-04-29T22:00:00Z", "2023-04-29T22:30:00Z", "2023-04-29T22:30:00Z", "2023-04-29T22:00:00Z", "2023-04-29T22:53:00Z", "2023-04-29T22:53:00Z", "2023-04-29T22:50:00Z", "2023-04-29T22:45:00Z", "2023-04-29T22:53:00Z", "2023-04-29T22:35:00Z", "2023-04-29T21:56:00Z", "2023-04-29T22:00:00Z", "2023-04-29T22:00:00Z", "2023-04-29T22:00:00Z", "2023-04-29T22:00:00Z", "2023-04-29T21:55:00Z", "2023-04-29T22:00:00Z", "2023-04-29T21:55:00Z", "2023-04-29T22:00:00Z", "2023-04-29T22:00:00Z", "2023-04-29T22:00:00Z", "2023-04-29T22:00:00Z", "2023-04-29T22:00:00Z", "2023-04-29T22:00:00Z", "2023-04-29T22:55:00Z", "2023-04-29T22:30:00Z", "2023-04-29T22:30:00Z", "2023-04-29T22:30:00Z", "2023-04-29T22:30:00Z", "2023-04-29T22:30:00Z", "2023-04-29T22:30:00Z", "2023-04-29T22:00:00Z", "2023-04-29T22:00:00Z", "2023-04-29T22:00:00Z", "2023-04-29T22:30:00Z", "2023-04-29T22:30:00Z", "2023-04-29T22:30:00Z", "2023-04-29T22:30:00Z", "2023-04-29T22:30:00Z", "2023-04-29T22:30:00Z", "2023-04-29T22:30:00Z", "2023-04-29T22:30:00Z", "2023-04-29T22:00:00Z", "2023-04-29T22:30:00Z", "2023-04-29T22:00:00Z", "2023-04-29T22:30:00Z", "2023-04-29T22:00:00Z", "2023-04-29T22:30:00Z", "2023-04-29T22:30:00Z", "2023-04-29T22:30:00Z", "2023-04-29T22:30:00Z", "2023-04-29T22:30:00Z", "2023-04-29T22:00:00Z", "2023-04-29T22:00:00Z", "2023-04-29T22:30:00Z", "2023-04-29T22:30:00Z", "2023-04-29T22:30:00Z", "2023-04-29T22:30:00Z", "2023-04-29T22:30:00Z", "2023-04-29T22:30:00Z", "2023-04-29T22:30:00Z", "2023-04-29T22:30:00Z", "2023-04-29T22:30:00Z", "2023-04-29T22:30:00Z", "2023-04-29T22:30:00Z", "2023-04-29T22:30:00Z", "2023-04-29T22:30:00Z", "2023-04-29T22:30:00Z", "2023-04-29T22:30:00Z", "2023-04-29T22:30:00Z", "2023-04-29T22:30:00Z", "2023-04-29T22:30:00Z", "2023-04-29T22:30:00Z", "2023-04-29T22:00:00Z", "2023-04-29T22:00:00Z", "2023-04-29T22:00:00Z", "2023-04-29T22:00:00Z", "2023-04-29T22:30:00Z", "2023-04-29T22:30:00Z", "2023-04-29T22:30:00Z", "2023-04-29T22:30:00Z", "2023-04-29T22:30:00Z", "2023-04-29T22:30:00Z", "2023-04-29T22:30:00Z", "2023-04-29T22:30:00Z", "2023-04-29T22:30:00Z", "2023-04-29T22:30:00Z", "2023-04-29T22:30:00Z", "2023-04-29T22:30:00Z", "2023-04-29T22:30:00Z", "2023-04-29T22:30:00Z", "2023-04-29T22:30:00Z", "2023-04-29T22:30:00Z", "2023-04-29T22:30:00Z", "2023-04-29T22:00:00Z", "2023-04-29T22:30:00Z", "2023-04-29T22:30:00Z", "2023-04-29T22:30:00Z", "2023-04-29T22:30:00Z", "2023-04-29T22:30:00Z", "2023-04-29T22:30:00Z", "2023-04-29T22:30:00Z", "2023-04-29T22:30:00Z", "2023-04-29T22:30:00Z", "2023-04-29T22:30:00Z", "2023-04-29T22:30:00Z", "2023-04-29T22:30:00Z", "2023-04-29T22:30:00Z", "2023-04-29T22:30:00Z", "2023-04-29T22:30:00Z", "2023-04-29T22:30:00Z", "2023-04-29T22:00:00Z", "2023-04-29T22:00:00Z", "2023-04-29T22:00:00Z", "2023-04-29T22:00:00Z", "2023-04-29T22:00:00Z", "2023-04-29T22:30:00Z", "2023-04-29T22:30:00Z", "2023-04-29T22:30:00Z", "2023-04-29T22:30:00Z", "2023-04-29T22:30:00Z", "2023-04-29T22:30:00Z", "2023-04-29T22:30:00Z", "2023-04-29T22:30:00Z", "2023-04-29T22:00:00Z", "2023-04-29T22:30:00Z", "2023-04-29T22:30:00Z", "2023-04-29T22:30:00Z", "2023-04-29T22:30:00Z", "2023-04-29T22:30:00Z", "2023-04-29T22:30:00Z", "2023-04-29T22:30:00Z", "2023-04-29T22:30:00Z", "2023-04-29T22:30:00Z", "2023-04-29T22:30:00Z", "2023-04-29T22:30:00Z", "2023-04-29T22:30:00Z", "2023-04-29T22:30:00Z", "2023-04-29T22:30:00Z", "2023-04-29T22:30:00Z", "2023-04-29T22:30:00Z", "2023-04-29T22:30:00Z", "2023-04-29T22:30:00Z", "2023-04-29T22:30:00Z", "2023-04-29T22:30:00Z", "2023-04-29T22:30:00Z", "2023-04-29T22:30:00Z", "2023-04-29T22:30:00Z", "2023-04-29T22:30:00Z", "2023-04-29T22:00:00Z", "2023-04-29T22:30:00Z", "2023-04-29T22:00:00Z", "2023-04-29T22:30:00Z", "2023-04-29T22:30:00Z", "2023-04-29T22:30:00Z", "2023-04-29T22:30:00Z", "2023-04-29T22:30:00Z", "2023-04-29T22:30:00Z", "2023-04-29T22:30:00Z", "2023-04-29T22:10:00Z", "2023-04-29T22:30:00Z", "2023-04-29T22:30:00Z", "2023-04-29T22:30:00Z", "2023-04-29T22:30:00Z", "2023-04-29T22:30:00Z", "2023-04-29T22:30:00Z", "2023-04-29T22:30:00Z", "2023-04-29T22:00:00Z", "2023-04-29T22:30:00Z", "2023-04-29T22:30:00Z", "2023-04-29T22:30:00Z", "2023-04-29T22:30:00Z", "2023-04-29T22:30:00Z", "2023-04-29T22:30:00Z", "2023-04-29T22:30:00Z", "2023-04-29T22:00:00Z", "2023-04-29T22:30:00Z", "2023-04-29T22:00:00Z", "2023-04-29T22:30:00Z", "2023-04-29T22:30:00Z", "2023-04-29T22:00:00Z", "2023-04-29T22:30:00Z", "2023-04-29T22:30:00Z", "2023-04-29T22:30:00Z", "2023-04-29T22:30:00Z", "2023-04-29T22:30:00Z", "2023-04-29T22:30:00Z", "2023-04-29T22:00:00Z", "2023-04-29T22:00:00Z", "2023-04-29T22:00:00Z", "2023-04-29T22:30:00Z", "2023-04-29T22:30:00Z", "2023-04-29T22:30:00Z", "2023-04-29T22:30:00Z", "2023-04-29T22:00:00Z", "2023-04-29T22:00:00Z", "2023-04-29T22:00:00Z", "2023-04-29T22:00:00Z", "2023-04-29T22:00:00Z", "2023-04-29T22:00:00Z", "2023-04-29T22:00:00Z", "2023-04-29T22:00:00Z", "2023-04-29T22:00:00Z", "2023-04-29T22:00:00Z", "2023-04-29T22:00:00Z", "2023-04-29T22:00:00Z", "2023-04-29T22:00:00Z", "2023-04-29T22:00:00Z", "2023-04-29T22:30:00Z", "2023-04-29T22:00:00Z", "2023-04-29T22:30:00Z", "2023-04-29T22:00:00Z", "2023-04-29T22:00:00Z", "2023-04-29T22:00:00Z", "2023-04-29T22:00:00Z", "2023-04-29T22:00:00Z", "2023-04-29T22:00:00Z", "2023-04-29T22:00:00Z", "2023-04-29T22:00:00Z", "2023-04-29T22:00:00Z", "2023-04-29T22:00:00Z", "2023-04-29T22:30:00Z", "2023-04-29T22:30:00Z", "2023-04-29T22:30:00Z", "2023-04-29T22:30:00Z", "2023-04-29T22:30:00Z", "2023-04-29T22:30:00Z", "2023-04-29T22:30:00Z", "2023-04-29T22:30:00Z", "2023-04-29T22:30:00Z", "2023-04-29T22:30:00Z", "2023-04-29T22:30:00Z", "2023-04-29T22:30:00Z", "2023-04-29T22:30:00Z", "2023-04-29T22:30:00Z", "2023-04-29T22:30:00Z", "2023-04-29T22:00:00Z", "2023-04-29T22:30:00Z", "2023-04-29T22:30:00Z", "2023-04-29T22:30:00Z", "2023-04-29T22:30:00Z", "2023-04-29T22:30:00Z", "2023-04-29T22:30:00Z", "2023-04-29T22:30:00Z", "2023-04-29T22:30:00Z", "2023-04-29T22:30:00Z", "2023-04-29T22:30:00Z", "2023-04-29T22:00:00Z", "2023-04-29T22:30:00Z", "2023-04-29T22:00:00Z", "2023-04-29T22:00:00Z", "2023-04-29T22:00:00Z", "2023-04-29T22:30:00Z", "2023-04-29T22:00:00Z", "2023-04-29T22:00:00Z", "2023-04-29T22:00:00Z", "2023-04-29T22:00:00Z", "2023-04-29T22:30:00Z", "2023-04-29T22:30:00Z", "2023-04-29T22:30:00Z", "2023-04-29T22:30:00Z", "2023-04-29T22:30:00Z", "2023-04-29T22:30:00Z", "2023-04-29T22:30:00Z", "2023-04-29T22:30:00Z", "2023-04-29T22:30:00Z", "2023-04-29T22:30:00Z", "2023-04-29T22:30:00Z", "2023-04-29T22:00:00Z", "2023-04-29T22:00:00Z", "2023-04-29T22:00:00Z", "2023-04-29T22:00:00Z", "2023-04-29T22:00:00Z", "2023-04-29T22:00:00Z", "2023-04-29T22:00:00Z", "2023-04-29T22:00:00Z", "2023-04-29T22:00:00Z", "2023-04-29T22:30:00Z", "2023-04-29T22:00:00Z", "2023-04-29T22:00:00Z", "2023-04-29T22:00:00Z", "2023-04-29T22:30:00Z", "2023-04-29T22:00:00Z", "2023-04-29T22:00:00Z", "2023-04-29T22:00:00Z", "2023-04-29T22:30:00Z", "2023-04-29T22:30:00Z", "2023-04-29T22:30:00Z", "2023-04-29T22:30:00Z", "2023-04-29T22:30:00Z", "2023-04-29T22:30:00Z", "2023-04-29T22:30:00Z", "2023-04-29T22:30:00Z", "2023-04-29T22:30:00Z", "2023-04-29T22:30:00Z", "2023-04-29T22:30:00Z", "2023-04-29T22:30:00Z", "2023-04-29T22:30:00Z", "2023-04-29T22:30:00Z", "2023-04-29T22:30:00Z", "2023-04-29T22:30:00Z", "2023-04-29T22:30:00Z", "2023-04-29T22:30:00Z", "2023-04-29T22:30:00Z", "2023-04-29T22:30:00Z", "2023-04-29T22:30:00Z", "2023-04-29T22:30:00Z", "2023-04-29T22:30:00Z", "2023-04-29T22:30:00Z", "2023-04-29T22:30:00Z", "2023-04-29T22:30:00Z", "2023-04-29T22:30:00Z", "2023-04-29T22:30:00Z", "2023-04-29T22:30:00Z", "2023-04-29T22:30:00Z", "2023-04-29T22:30:00Z", "2023-04-29T22:30:00Z", "2023-04-29T22:30:00Z", "2023-04-29T22:30:00Z", "2023-04-29T22:30:00Z", "2023-04-29T22:30:00Z", "2023-04-29T22:30:00Z", "2023-04-29T22:30:00Z", "2023-04-29T22:30:00Z", "2023-04-29T22:44:00Z", "2023-04-29T22:30:00Z", "2023-04-29T22:32:00Z", "2023-04-29T22:30:00Z", "2023-04-29T22:30:00Z", "2023-04-29T22:30:00Z", "2023-04-29T22:30:00Z", "2023-04-29T22:30:00Z", "2023-04-29T22:00:00Z", "2023-04-29T22:00:00Z", "2023-04-29T22:30:00Z", "2023-04-29T22:30:00Z", "2023-04-29T22:30:00Z", "2023-04-29T22:00:00Z", "2023-04-29T22:00:00Z", "2023-04-29T22:00:00Z", "2023-04-29T22:00:00Z", "2023-04-29T22:00:00Z", "2023-04-29T22:00:00Z", "2023-04-29T22:00:00Z", "2023-04-29T22:00:00Z", "2023-04-29T22:00:00Z", "2023-04-29T22:00:00Z", "2023-04-29T22:00:00Z", "2023-04-29T22:00:00Z", "2023-04-29T22:00:00Z", "2023-04-29T22:00:00Z", "2023-04-29T22:30:00Z", "2023-04-29T22:00:00Z", "2023-04-29T22:00:00Z", "2023-04-29T22:00:00Z", "2023-04-29T22:30:00Z", "2023-04-29T22:00:00Z", "2023-04-29T22:30:00Z", "2023-04-29T22:00:00Z", "2023-04-29T22:00:00Z", "2023-04-29T22:00:00Z", "2023-04-29T22:00:00Z", "2023-04-29T22:00:00Z", "2023-04-29T22:30:00Z", "2023-04-29T22:00:00Z", "2023-04-29T22:00:00Z", "2023-04-29T22:30:00Z", "2023-04-29T22:30:00Z"], "raw_text": ["AGGH 292200Z 11006KT 9999 FEW017 FEW018CB BKN300 29/24 Q1010 RMK CB TO N", "ANYN 292200Z 07009KT 9999 SCT030 30/24 Q1008", "AYMH 292200Z VRB03KT 9999 SCT005 SCT020 17/16 Q1020", "AYPY 292200Z 30510KT 9999 HZ FEW030 26/24 Q1008", "BGBW 292250Z AUTO 07021KT 9999NDV NCD 06/M14 Q1020", "BGGH 292250Z AUTO 03007KT 9999 NCD 02/M01 Q1019", "BGJN 292250Z AUTO 08016KT 9999NDV NCD 03/M08 Q1022", "BGKK 292250Z AUTO 00000KT 9999NDV NCD M03/M08 Q1028", "BGSF 292250Z AUTO 06007KT 9999NDV NCD 05/M07 Q1020", "BGTL 292155Z AUTO 14003KT 9999 OVC038 M05/M09 A3040 RMK AO2 SLP282 T10501088 TSNO $", "BIAR 292200Z 31006KT CAVOK M03/M11 Q1027", "BIEG 292200Z 35006KT CAVOK M03/M10 Q1025", "BIKF 292230Z 07009KT CAVOK 03/M05 Q1021", "BIRK 292200Z 06008KT CAVOK 02/M05 Q1022", "CAHR 292200Z AUTO 04007KT 07/M00 RMK AO1 SLP232 T00721004 58006", "CBBC 292200Z AUTO VRB07KT 9SM CLR 17/09 A2990 RMK SLP127 DENSITY ALT 500FT", "CERM 292200Z AUTO 15006KT 18/01 RMK AO1 SLP180 T01770008 56008", "CMFM 292200Z AUTO 13006KT 12/M01 RMK AO1 SOG 04 6008 SLP168 T01211013", "CMGB 292200Z AUTO 13008G15KT 11/05 RMK AO1 PK WND 11018/2112 SLP147 T01120046 50001", "CPBT 292200Z AUTO 15010KT 22/M00 RMK AO1 PK WND 14018/2153 T02161001", "CPEH 292200Z AUTO 00000KT 21/02 RMK AO1 T02140015", "CPFI 292200Z AUTO 12013KT 22/M02 RMK AO1 PK WND 11021/2134 T02161016", "CPIN 292200Z AUTO 30009KT ////SM ////// ///// A////", "CPIR 292200Z AUTO 14008KT 22/01 RMK AO1 PK WND 14021/2106 T02240009", "CPRO 292200Z AUTO 12007KT 20/M05 RMK AO1 T01951048", "CPRY 292200Z AUTO 15008KT 22/M00 RMK AO1 T02171004", "CPST 292200Z AUTO 16014KT 20/M02 RMK AO1 PK WND 18024/2132 T01961018", "CPSV 292200Z AUTO 07009KT 19/M04 RMK AO1 T01881044", "CTCK 292200Z AUTO 09014G19KT 09/06 RMK AO1 6017 PK WND 09020/2100 SLP110 T00910064 50032", "CTNK 292200Z AUTO 12004KT 08/07 RMK AO1 3PAST HR 6009 SLP060 P0001 T00790071 50013", "CTRA 292200Z AUTO 03006G16KT 07/M04 RMK AO1 PK WND 01021/2143 SLP121 T00691039 50000", "CWAE 292200Z 18002KT 15SM SKC 25/05 A2994 RMK WIND EST SLP138 DENSITY ALT 3800FT", "CWAF 292200Z AUTO 03018G23KT 06/04 RMK AO1 PK WND 04024/2148 T00610036", "CWAJ 292200Z AUTO 15008KT RMK AO1 58009", "CWAQ 292200Z AUTO 34017G23KT 14/M07 RMK AO1 PK WND 34024/2134 SLP217 T01411066 56010", "CWAR 292200Z AUTO 32012KT 04/M01 RMK AO1 PK WND 32018/2104 SLP178 T00411013 53010", "CWAV 292200Z AUTO 12011KT 21/M01 RMK AO1 PK WND 13020/2104 SLP175 T02071013 58017", "CWBA 292200Z AUTO 16007KT 08/07 RMK AO1 8PAST HR M P0003 T00760068 50048", "CWBK 292200Z AUTO 09011KT 05/02 RMK AO1 SLP240 T00500015 50000", "CWBO 292200Z AUTO 10005KT 21/M03 RMK AO1 SLP198 T02101031 56016", "CWBS 292200Z AUTO 21016KT 13/05 RMK AO1 PK WND 21019/2155 T01280047", "CWBT 292200Z AUTO 12003KT 07/M01 RMK AO1 SLP229 T00671009 56008", "CWBU 292200Z AUTO 02013G18KT 12/M05 RMK AO1 PK WND 35024/2120 SLP222 T01241046 53004", "CWBV 292200Z AUTO 22006KT 05/02 RMK AO1 SLP223 T00480021 50000", "CWBY 292200Z AUTO 12012KT 05/M02 RMK AO1 PK WND 12020/2104 SLP226 T00451019 56010", "CWBZ 292200Z AUTO 08009KT 09/07 RMK AO1 6021 SLP114 T00850069 50044", "CWCF 292200Z AUTO 32013G20KT 04/M00 RMK AO1 PK WND 32022/2138 SLP173 T00431004 52007", "CWCI 292200Z AUTO 07006KT 08/06 RMK AO1 SLP006 T00770056 56017", "CWCJ 292200Z AUTO 04005KT 07/06 RMK AO1 6017 SLP031 T00680059 50001", "CWCO 292200Z AUTO 15004KT 11/09 RMK AO1 SLP023 T01060089 56011", "CWCT 292200Z AUTO 11009G15KT 17/M06 RMK AO1 PK WND 09022/2134 SLP224 T01741057 56014", "CWDA 292200Z AUTO 00010KT 03/ RMK AO1 T0027", "CWDJ 292200Z AUTO 34017G25KT 14/M08 RMK AO1 PK WND 34029/2106 SLP211 T01391077 56008", "CWDK 292200Z AUTO 17012G18KT 22/01 RMK AO1 SOG 01 7022 PK WND 16018/2157 SLP172 T02220013", "CWDM 292200Z AUTO 21011KT 04/M00 RMK AO1 SLP223 T00441004 56010", "CWDO 292200Z AUTO 36019KT 01/M01 RMK AO1 PK WND 35022/2117 SLP195 T00061013 57003", "CWDQ 292200Z AUTO 17008KT 17/M01 RMK AO1 SLP131 T01731008 56014", "CWDV 292200Z AUTO 36005KT 01/M00 RMK AO1 4PAST HR 8002 SLP081 P0005 T00071001 50038", "CWDZ 292200Z AUTO 11009G15KT 21/M03 RMK AO1 PK WND 12019/2145 SLP184 T02101033 56018", "CWEE 292200Z AUTO 15/M00 RMK AO1 SLP122 T01521002 56015", "CWEF 292200Z AUTO 01009KT 04/01 RMK AO1 SLP226 T00390011 58001", "CWEH 292200Z AUTO 11003KT 15/M06 RMK AO1 SLP208 T01521061 57013", "CWEL 292200Z AUTO 11015KT 15/09 RMK AO1 PK WND 10017/2113 SLP129 T01470093 58010", "CWEP 292200Z AUTO 35005KT 05/02 RMK AO1 SLP244 T00480017 56004", "CWEQ 292200Z AUTO 02015KT 09/01 RMK AO1 3012 PK WND 01025/2121 SLP200 T00920011 50021", "CWER 292200Z AUTO 06023G28KT RMK AO1 PK WND 05032/2142", "CWEU 292200Z 09010KT 15SM -SN BKN010 M14/M17 A3041 RMK ST7 SLP313", "CWEW 292200Z AUTO 17009G15KT 10/07 RMK AO1 PK WND 18019/2106 SLP148 T01040067 53003", "CWEZ 292200Z AUTO 25008KT 18/10 RMK AO1 SLP134 T01750095 57010", "CWFF 292200Z AUTO 01008G15KT 13/M07 RMK AO1 PK WND 34019/2103 SLP224 T01321070 55000", "CWFJ 292200Z AUTO 12007KT 21/02 RMK AO1 T02050015", "CWFQ 292200Z AUTO 01010G19KT 09/04 RMK AO1 PK WND 01019/2152 SLP137 T00930037 58012", "CWGB 292200Z AUTO 11012KT 15/ RMK AO1 PK WND 12020/2105 SLP125 T0149 56008", "CWGD 292200Z AUTO 19008KT 10/09 RMK AO1 SLP019 T00970090 55002", "CWGH 292200Z AUTO 17009G18KT 11/05 RMK AO1 6015 PK WND 18018/2152 SLP090 T01140054 50014", "CWGL 292200Z AUTO 12013KT 10/09 RMK AO1 PK WND 13021/2132 SLP020 T00980087 56014", "CWGM 292200Z AUTO 22009KT 21/M01 RMK AO1 SOG 01 6018 SLP168 T02051008", "CWGR 292200Z AUTO 35004KT 07/01 RMK AO1 SLP242 T00680005 55003", "CWGT 292200Z AUTO 13011KT 16/08 RMK AO1 PK WND 12018/2119 SLP132 T01600075 57007", "CWGY 292200Z AUTO 08006KT 17/M06 RMK AO1 SOG 01 6011 SLP227 T01651064", "CWHI 292200Z AUTO 12014KT 20/M05 RMK AO1 PK WND 14023/2140 T02021052", "CWHL 292200Z AUTO 16015KT 16/03 RMK AO1 PK WND 14023/2106 SLP090 T01560030 53003", "CWHO 292200Z AUTO 00002KT M00/M02 RMK AO1 SLP223 T10011015 53005", "CWHP 292200Z AUTO 24011KT 04/01 RMK AO1 SLP235 T00420014 56006", "CWHQ 292200Z AUTO 10006KT 14/04 RMK AO1 T01400043", "CWHT 292200Z AUTO 23005KT 10/01 RMK AO1 SLP118 T01000008 57020", "CWHV 292200Z AUTO 16010G19KT 15/01 RMK AO1 PK WND 17024/2137 SLP162 T01510007 55000", "CWID 292200Z AUTO 13006KT 18/M02 RMK AO1 SLP173 T01841024 56021", "CWIG 292200Z AUTO 02012G19KT RMK AO1 PK WND 02022/2142", "CWII 292200Z AUTO 01008KT 07/M01 RMK AO1 SLP154 T00741006 52006", "CWIJ 292200Z AUTO 23011KT 01/M00 RMK AO1 SOG 79 6006 SLP233 T00051003", "CWIK 292200Z AUTO 35017G24KT 10/M05 RMK AO1 PK WND 32028/2108 SLP203 T01031048 53001", "CWIL 292200Z AUTO ///// ////SM OVC004 M07/M08 A3017", "CWIP 292200Z AUTO 07006KT 05/01 RMK AO1 T00480014", "CWIS 292200Z AUTO 07004KT 09/M01 RMK AO1 SOG 58 6008 SLP180 T00891008", "CWIT 292200Z AUTO 11007KT 09/07 RMK AO1 7PAST HR 6017 SLP129 P0007 T00890073 50045", "CWIW 292200Z AUTO 36016G23KT 13/M06 RMK AO1 PK WND 01025/2112 SLP224 T01321057 56004", "CWIZ 292200Z AUTO 12008KT 09/07 RMK AO1 8PAST HR M P0007 T00930068 50031", "CWJB 292200Z AUTO 11/04 RMK AO1 T01070042", "CWJC 292200Z AUTO 32012KT 01/01 RMK AO1 SLP239 T00120005 52008", "CWJD 292200Z AUTO 31004KT 08/05 RMK AO1 1004 SLP194 T00820048 50008", "CWJH 292200Z AUTO 36004KT 07/M02 RMK AO1 SOG 03 2010 SLP247 T00701015", "CWJI 292200Z AUTO 36015G22KT 14/M10 RMK AO1 SOG 01 6011 PK WND 34024/2117 SLP224 T01351096", "CWJO 292200Z AUTO 14009G15KT 18/M00 RMK AO1 PK WND 15019/2130 SLP145 T01841001 57003", "CWJR 292200Z AUTO 24004KT 25/06 RMK AO1 SLP148 T02500057 56026", "CWJU 292200Z AUTO 33001KT 11/07 RMK AO1 SLP081 T01130074 53002", "CWJV 292200Z AUTO 29004KT 26/01 RMK AO1 SLP123 T02570014 58025", "CWJW 292200Z AUTO 12006KT 25/M03 RMK AO1 SOG 01 6021 SLP141 T02461033", "CWJX 292200Z AUTO 36007KT 17/M08 RMK AO1 SOG 02 8010 SLP214 T01741077", "CWKD 292200Z AUTO 09/M02 RMK AO1 SLP176 T00941019 56008", "CWKG 292200Z AUTO 17005KT 11/01 RMK AO1 SLP222 T01140009 53001", "CWKH 292200Z AUTO 21/10 RMK AO1 SLP129 T02070097 58008", "CWKM 292200Z AUTO 09019KT ////SM OVC004 M11/M13 A3019", "CWKO 292200Z AUTO 35013G21KT 13/M08 RMK AO1 PK WND 35024/2145 SLP225 T01341079 56010", "CWKX 292200Z AUTO 19008KT 16/01 RMK AO1 SOG 01 6011 PK WND 22018/2120 SLP125 T01640009", "CWLB 292200Z AUTO 10003KT 16/M08 RMK AO1 SLP229 T01631077 56016", "CWLC 292200Z AUTO 30006KT 12/07 RMK AO1 T01180072", "CWLE 292200Z AUTO 01011G19KT 15/M12 RMK AO1 PK WND 01020/2113 SLP227 T01451124 56011", "CWLM 292200Z AUTO 23009G17KT 14/09 RMK AO1 PK WND 26017/2159 SLP138 T01420091 58008", "CWLP 292200Z AUTO 28008G15KT 14/08 RMK AO1 SLP113 T01430081 55005", "CWLS 292200Z AUTO 20006KT 10/09 RMK AO1 4PAST HR 6006 SLP020 P0002 T01000091 50005", "CWLX 292200Z AUTO ///// ////SM ////// M02/M02 A3013", "CWLY 292200Z AUTO 19012G28KT 160V220 9SM CLR 29/M01 A2983 RMK SLP101 DENSITY ALT 2700FT", "CWME 292200Z AUTO 02001KT 18/08 RMK AO1 SLP106 T01800075 58012", "CWMJ 292200Z AUTO 13013G20KT 08/06 RMK AO1 6010 PK WND 13022/2108 SLP107 T00820060 50003", "CWMM 292200Z AUTO 23005KT 24/10 RMK AO1 SLP138 T02440099 56012", "CWMQ 292200Z AUTO 04004KT 18/M04 RMK AO1 SLP210 T01761035 57013", "CWMT 292200Z AUTO 14011G16KT 10/M04 RMK AO1 PK WND 16019/2120 SLP191 T01031042 56016", "CWNC 292200Z AUTO 10008G15KT 08/07 RMK AO1 PK WND 08017/2127 SLP051 T00820072 55009", "CWND 292200Z AUTO 06010KT M09/M12 RMK AO1 SLP205 T10921115 52005", "CWNE 292200Z AUTO 11009KT 05/03 RMK AO1 SLP230 T00470027 56009", "CWNH 292200Z AUTO 36007KT 08/05 RMK AO1 SLP177 T00810047 56011", "CWNK 292200Z AUTO 33013G19KT 08/03 RMK AO1 PK WND 32022/2106 SLP154 T00750029 53003", "CWNM 292200Z AUTO 03007KT 22/06 RMK AO1 SLP146 T02240056 56027", "CWNP 292200Z AUTO 26002KT 20/03 RMK AO1 SLP151 T01950029 56030", "CWNQ 292200Z AUTO 18010G16KT 17/02 RMK AO1 PK WND 21022/2118 SLP137 T01670015 55004", "CWNZ 292200Z AUTO 02007KT 05/04 RMK AO1 8PAST HR 6015 SLP063 P0007 T00520035 50023", "CWOB 292200Z AUTO 21006KT ////SM ////// M06/M07 A3012", "CWOC 292200Z AUTO 09007KT 06/M00 RMK AO1 SLP224 T00601001 56008", "CWOD 292200Z AUTO 13008KT 18/02 RMK AO1 SLP131 T01780017 56014", "CWOE 292200Z AUTO 04006KT 18/M04 RMK AO1 SLP199 T01811042 58014", "CWOY 292200Z AUTO 33008G15KT 12/M08 RMK AO1 PK WND 35018/2110 SLP222 T01181080 56004", "CWPD 292200Z AUTO 05002KT 11/M02 RMK AO1 SLP152 T01121022 58007", "CWPE 292200Z AUTO 20005KT 09/05 RMK AO1 SLP220 T00930054 56003", "CWPF 292245Z AUTO 17012KT 13/08 RMK AO1 SLP128 T01280075 58013", "CWPK 292200Z AUTO 16007G15KT 13/M02 RMK AO1 PK WND 16017/2129 SLP123 T01321024 56010", "CWPO 292200Z AUTO 01020G25KT 07/03 RMK AO1 SOG 06 1002 PK WND 02026/2122 SLP170 T00700029", "CWPR 292200Z AUTO 21006KT 28/M08 RMK AO1 SLP110 T02811084 56023", "CWPZ 292200Z AUTO 09002KT 21/M02 RMK AO1 SLP125 T02071019 56012", "CWQH 292200Z AUTO 16008KT 11/03 RMK AO1 PK WND 19029/2117 SLP163 T01070033 55000", "CWQK 292200Z AUTO 25019KT 10/08 RMK AO1 PK WND 26022/2112 SLP139 T01030081 58003", "CWQO 292200Z AUTO 03010KT 06/04 RMK AO1 PK WND 05017/2100 T00600038", "CWQP 292200Z AUTO 12022KT 08/07 RMK AO1 PK WND 13028/2132 SLP068 T00800070 55012", "CWQR 292200Z AUTO 11004KT 05/01 RMK AO1 T00490006", "CWQS 292200Z AUTO 14013KT 10/08 RMK AO1 PK WND 14024/2109 SLP078 T01010077 50008", "CWQV 292200Z AUTO 08014KT 14/ RMK AO1 PK WND 08018/2102 T0141", "CWRA 292200Z AUTO 05/M02 RMK AO1 SLP157 T00461018 53008", "CWRJ 292200Z AUTO 36011G17KT 15/M15 RMK AO1 PK WND 33020/2119 SLP228 T01511148 56011", "CWRK 292200Z AUTO 13004KT 08/08 RMK AO1 6PAST HR SOG 01 6009 SLP065 P0002 T00800080 50025", "CWRM 292200Z AUTO 14014G19KT 21/M01 RMK AO1 SOG 01 8018 PK WND 14021/2100 SLP147 T02081010", "CWRN 292200Z AUTO 18010KT 06/M01 RMK AO1 SLP239 T00571012 53002", "CWRU 292200Z AUTO 11029G35KT 09/ RMK AO1 PK WND 12035/2100 SLP123 T0094 56002", "CWRY 292200Z AUTO 18009G16KT 21/M00 RMK AO1 SOG 08 8016 SLP189 T02121001", "CWRZ 292200Z AUTO 20005KT 04/01 RMK AO1 SLP233 T00440013 56010", "CWSA 292200Z AUTO 05007KT 9SM 05/M02 A3022 RMK CLD MISG SLP235", "CWSD 292200Z AUTO 07010KT 08/03 RMK AO1 SLP228 T00840027 57008", "CWSF 292200Z AUTO 00000KT 05/03 RMK AO1 SLP203 T00530032 56014", "CWSG 292200Z AUTO 03005KT 05/03 RMK AO1 SLP205 T00450030 56009", "CWSK 292200Z AUTO 15006KT 26/08 RMK AO1 SLP124 T02610079 56013", "CWSL 292200Z AUTO 34003KT 25/10 RMK AO1 SLP125 T02510098 56030", "CWSP 292200Z AUTO 30018KT 12/08 RMK AO1 PK WND 29027/2105 SLP139 T01220075 58008", "CWSR 292200Z AUTO 34011KT 13/M11 RMK AO1 SLP239 T01281112 57007", "CWSS 292200Z AUTO 11006KT 13/05 RMK AO1 SLP210 T01300052 55004", "CWST 292200Z AUTO 04010G15KT 10/05 RMK AO1 SLP162 T00960054 56012", "CWSW 292200Z 18006KT 130V250 20SM FEW067 BKN280 23/M01 A3001 RMK AC1CI6 CONTRAILS SLP166 DENSITY ALT 5500FT", "CWTA 292200Z AUTO 15003KT 10/07 RMK AO1 3PAST HR 8001 SLP142 P0005 T00980069 50020", "CWTG 292200Z AUTO 04019KT 05/03 RMK AO1 PK WND 04024/2148 SLP202 T00540028 56012", "CWTN 292200Z AUTO 09011G19KT 13/05 RMK AO1 PK WND 09023/2144 SLP153 T01270050 55011", "CWTT 292200Z AUTO 15005KT 09/05 RMK AO1 PK WND 19019/2107 T00850047", "CWTY 292200Z AUTO 15019G26KT 15/02 RMK AO1 PK WND 15026/2151 SLP139 T01470022 55004", "CWUS 292200Z AUTO 04003KT 25/03 RMK AO1 SLP119 T02480027 57027", "CWUW 292200Z AUTO 12014KT ////SM ////// M05/M06 A3009", "CWUX 292200Z AUTO 14010KT 18/M00 RMK AO1 SLP150 T01821003 56008", "CWVF 292200Z AUTO 14011KT 17/09 RMK AO1 T01730091", "CWVI 292200Z AUTO 11009G15KT 18/M06 RMK AO1 SLP219 T01761061 58016", "CWVN 292200Z AUTO 28004KT 16/M07 RMK AO1 SLP215 T01631073 58012", "CWVP 292200Z AUTO 35003KT 15/M09 RMK AO1 SLP203 T01451089 57010", "CWVQ 292200Z AUTO 09010KT 09/07 RMK AO1 7PAST HR 8012 SLP133 P0003 T00930069 50026", "CWVT 292200Z AUTO 06006KT 10/M06 RMK AO1 SLP267 T00951060 56012", "CWVU 292200Z AUTO 14005KT 08/05 RMK AO1 SLP217 T00790046 58001", "CWWA 292200Z AUTO 15002KT 24/09 RMK AO1 SLP142 T02410086", "CWWB 292200Z AUTO 04004KT 09/09 RMK AO1 SLP037 T00900086 55005", "CWWE 292200Z AUTO 17007KT 06/02 RMK AO1 SLP234 T00600019 58005", "CWWF 292200Z AUTO 01021G28KT 13/M05 RMK AO1 SOG 02 5007 PK WND 35029/2103 SLP207 T01311053", "CWWK 292200Z AUTO 24002KT 21/10 RMK AO1 SLP144 T02120102 57009", "CWWL 292200Z AUTO 14018G25KT 10/07 RMK AO1 PK WND 14031/2106 SLP104 T00980070 52014", "CWWS 292200Z AUTO 34015KT 02/00 RMK AO1 SOG 21 3012 PK WND 32019/2122 SLP185 T00160000", "CWWZ 292200Z AUTO 19006KT 11/10 RMK AO1 3001 SLP044 T01140103 50003", "CWXA 292200Z AUTO 00025KT 22/M06 RMK AO1 SLP191 T02211063 56016", "CWXC 292200Z AUTO 15008G18KT 17/M01 RMK AO1 PK WND 14018/2154 SLP152 T01681010 57007", "CWXI 292200Z AUTO 24006KT 04/M00 RMK AO1 SLP210 T00381001 56004", "CWXL 292200Z AUTO 08008KT 20/M02 RMK AO1 SLP193 T02011016 58017", "CWYJ 292200Z AUTO 19005KT 20/09 RMK AO1 SLP139 T01970090 58008", "CWYY 292200Z AUTO 17007KT 27/03 RMK AO1 SLP120 T02650033 56027", "CWZA 292200Z AUTO 21006KT 25/10 RMK AO1 SLP129 T02540099 57017", "CWZG 292200Z AUTO 21007KT 21/M04 RMK AO1 SLP170 T02061036 56009", "CWZL 292200Z AUTO 11002KT 09/08 RMK AO1 SLP099 T00900078 53004", "CWZN 292200Z AUTO 01017KT 05/M04 RMK AO1 PK WND 35022/2113 SLP197 T00541038 53008", "CWZO 292200Z AUTO 17014KT RMK AO1", "CWZQ 292200Z AUTO 36015KT 05/M00 RMK AO1 PK WND 01020/2118 SLP232 T00451001 55004", "CWZW 292200Z AUTO 22002KT 13/02 RMK AO1 SOG 15 8016 SLP115 T01320023", "CXAF 292200Z AUTO 13009KT 17/M06 RMK AO1 PK WND 16020/2108 T01741062", "CXAG 292200Z AUTO 12009KT 17/M06 RMK AO1 PK WND 14017/2138 T01741061", "CXAJ 292200Z AUTO 14009KT 17/M06 RMK AO1 PK WND 12020/2128 T01651055", "CXAK 292200Z AUTO 12010KT 20/M04 RMK AO1 PK WND 14023/2102 T01961035", "CXAT 292200Z AUTO 32010KT M04/M06 RMK AO1 SOG 11 6005 SLP227 T10371055", "CXBA 292200Z AUTO 12007KT 16/M06 RMK AO1 T01611063", "CXBI 292200Z AUTO 13007KT 09/08 RMK AO1 6PAST HR 6013 SLP040 P0002 T00870084 50006", "CXBK 292200Z AUTO 34020G27KT 13/M06 RMK AO1 SOG 02 8008 PK WND 34030/2149 SLP214 T01311057", "CXBO 292200Z AUTO 10011G16KT 09/06 RMK AO1 PK WND 11020/2131 T00890056", "CXBR 292200Z AUTO 12007KT RMK AO1", "CXBW 292200Z AUTO 10010KT 22/M01 RMK AO1 PK WND 13020/2104 T02191007", "CXCA 292200Z AUTO 35008KT 02/01 RMK AO1 3PAST HR 8007 SLP061 P0001 T00190012 50037", "CXCD 292200Z AUTO 10009KT 21/M02 RMK AO1 T02101016", "CXCK 292200Z AUTO 30001KT 09/M02 RMK AO1 SOG 31 8013 SLP129 T00881018", "CXCP 292200Z AUTO 12013KT 22/02 RMK AO1 PK WND 13022/2139 T02160015", "CXCS 292200Z AUTO 07008KT 16/M05 RMK AO1 T01551054", "CXDB 292200Z AUTO 16010KT 19/M00 RMK AO1 PK WND 14017/2102 T01931003", "CXDE 292200Z AUTO 20004KT 03/M04 RMK AO1 SOG 19 5000 SLP174 T00331039", "CXDI 292200Z AUTO 24007KT 11/08 RMK AO1 PK WND 24019/2106 SLP037 T01050076 53002", "CXDK 292200Z AUTO 19/M04 RMK AO1 SLP131 T01891035 56023", "CXDW 292200Z AUTO 34018G23KT 08/04 RMK AO1 SOG 01 0002 PK WND 32023/2103 SLP154 T00760037", "CXEA 292200Z AUTO 03008KT 06/M03 RMK AO1 SLP129 T00621031 51005", "CXEC 292200Z AUTO 14010G16KT 19/M05 RMK AO1 PK WND 13017/2114 SLP192 T01871054 57016", "CXET 292200Z AUTO 15010KT 10/09 RMK AO1 1PAST HR 5009 SLP033 P0000 T00990088 50006", "CXFM 292200Z AUTO 09008KT 20/M02 RMK AO1 PK WND 07020/2147 T01971020", "CXFR 292200Z AUTO 10013KT 20/M02 RMK AO1 PK WND 10021/2149 T02041019", "CXGH 292200Z AUTO 01014G20KT 07/M01 RMK AO1 PK WND 02020/2158 SLP153 T00691006 53005", "CXHA 292200Z AUTO 18008KT 15/09 RMK AO1 SLP016 T01530093 58014", "CXHD 292200Z AUTO 12010KT 18/M06 RMK AO1 PK WND 10019/2107 T01781060", "CXHM 292200Z AUTO 23004KT 13/09 RMK AO1 5005 SLP036 T01340092 50007", "CXHP 292200Z AUTO 07018KT 19/M04 RMK AO1 PK WND 06024/2134 T01911036", "CXHR 292200Z AUTO 14012KT 18/M05 RMK AO1 PK WND 15022/2150 T01821048", "CXIB 292200Z AUTO 02003KT 06/M03 RMK AO1 SLP230 T00611027 51001", "CXKA 292200Z AUTO 08009G16KT 08/07 RMK AO1 1PAST HR 6023 SLP049 P0012 T00800072 50065", "CXKE 292200Z AUTO 10006KT 09/08 RMK AO1 SLP101 T00940077 56014", "CXKI 292200Z AUTO 13007G15KT 08/07 RMK AO1 1PAST HR 6015 PK WND 11019/2127 SLP044 P0008 T00830073 50050", "CXKM 292200Z AUTO 11007KT 17/M07 RMK AO1 T01741069", "CXKT 292200Z AUTO 18005KT 14/02 RMK AO1 SLP212 T01370020 55002", "CXLB 292200Z AUTO 19008KT 07/02 RMK AO1 SLP229 T00690019 55009", "CXLL 292200Z AUTO 19/M04 RMK AO1 SOG 12 6020 SLP139 T01861038", "CXMD 292200Z AUTO 33013G21KT 09/03 RMK AO1 SOG 01 1002 PK WND 33021/2153 SLP149 T00890031", "CXMG 292200Z AUTO 12008KT 20/M04 RMK AO1 T01951040", "CXMI 292200Z AUTO 16010KT 07/01 RMK AO1 SLP228 T00700012 56006", "CXMM 292200Z AUTO 24004KT 16/M09 RMK AO1 SLP236 T01571087 56019", "CXMO 292200Z AUTO 17010KT 19/M00 RMK AO1 PK WND 16019/2130 T01931003", "CXMY 292200Z AUTO 07/M01 RMK AO1 T00681008", "CXNM 292200Z AUTO 03004KT 03/M03 RMK AO1 SOG 69 T00271026", "CXNP 292200Z AUTO 08009KT 12/01 RMK AO1 SLP215 T01240009 56004", "CXOL 292200Z AUTO 13017KT 20/M04 RMK AO1 PK WND 13023/2150 T02031035", "CXOX 292200Z AUTO 36010G15KT 09/M06 RMK AO1 SLP245 T00941058 54000", "CXOY 292200Z AUTO 08007KT 17/M06 RMK AO1 T01661064", "CXPA 292200Z AUTO 10010KT 23/M01 RMK AO1 PK WND 07022/2109 T02291009", "CXPC 292200Z AUTO 09/08 RMK AO1 3PAST HR 6013 SLP031 P0001 T00900077 50010", "CXPL 292200Z AUTO 13007KT 20/M05 RMK AO1 T02001053", "CXRB 292200Z AUTO 11015KT M06/M09 RMK AO1 PK WND 11019/2148 SLP249 T10641086 56002", "CXRH 292200Z AUTO 36006KT 05/M04 RMK AO1 SLP227 T00511036 58001", "CXRL 292200Z AUTO 10006KT 16/M08 RMK AO1 T01591076", "CXSC 292200Z AUTO 03006KT 17/M07 RMK AO1 T01711070", "CXSE 292200Z AUTO 12011KT M12/M14 RMK AO1 SOG 22 2002 SLP229 T11171142", "CXSH 292200Z AUTO 16012G20KT 16/01 RMK AO1 PK WND 14023/2117 SLP135 T01640009 55007", "CXSL 292200Z AUTO 11008KT 17/M07 RMK AO1 T01721067", "CXSP 292200Z AUTO 12005KT 16/M07 RMK AO1 T01601068", "CXTD 292200Z AUTO 34005KT 05/M01 RMK AO1 SLP248 T00461010 56003", "CXTH 292200Z AUTO 13009KT 16/M07 RMK AO1 T01641069", "CXTN 292200Z AUTO 00000KT M05/M08 RMK AO1 SOG 43 3002 SLP231 T10461078", "CXTO 292200Z AUTO 09/08 RMK AO1 5006 SLP038 T00940084 50013", "CXTP 292200Z AUTO 35006KT 03/M04 RMK AO1 PK WND 01020/2103 SLP183 T00331037 53007", "CXTV 292200Z AUTO 35007KT M10/M13 RMK AO1 SOG 46 2005 SLP220 T11041131", "CXVM 292200Z AUTO 09005KT 16/M09 RMK AO1 T01581090", "CXVN 292200Z AUTO 20009KT 13/10 RMK AO1 SLP040 T01270101 55001", "CXVW 292200Z AUTO 15011KT 23/M02 RMK AO1 PK WND 13020/2109 SLP144 T02281020 58019", "CXWM 292200Z AUTO 16010KT 21/M01 RMK AO1 T02091011", "CXWN 292200Z AUTO 33008G15KT 11/M01 RMK AO1 PK WND 30017/2107 SLP144 T01091010 53007", "CXYH 292200Z AUTO 17005KT 21/M03 RMK AO1 SLP116 T02091034 56021", "CXZC 292200Z AUTO 36006KT 06/01 RMK AO1 SOG 07 6022 SLP099 T00550013", "CXZV 292200Z AUTO 09006KT 05/01 RMK AO1 SLP223 T00530007 56002", "CYAB 292200Z 31007KT 8SM BKN022 M03/M05 A3018 RMK SC7 ST ASOCTD. LST STFD OBS/ NXT MONDAY 1100Z SLP224", "CYAH 292200Z AUTO 14006KT 110V170 9SM BKN096 BKN110 14/M03 A2997 RMK SLP166", "CYAM 292200Z 10007KT 12SM -SHRA SCT010 OVC035 08/07 A2954 RMK CF4CU4 SLP009", "CYAT 292200Z AUTO 03015KT 9SM SCT071 BKN096 03/01 A2993 RMK SLP139", "CYAY 292200Z AUTO 04008KT 9SM CLR 04/M02 A3016 RMK SLP219", "CYAZ 292200Z 15016G24KT 15SM FEW020 FEW220 13/10 A2998 RMK SC1CI1 SLP155", "CYBB 292200Z 23011KT 15SM BKN015 M06/M08 A3016 RMK SC7 SLP216", "CYBC 292200Z AUTO 07011KT 9SM CLR 08/03 A3009 RMK SLP193", "CYBD 292200Z 26011KT 15SM BKN250 23/05 A2982 RMK CS7 SLP101 DENSITY ALT 1200FT", "CYBG 292200Z CCA 14012KT 25SM FEW080 BKN200 19/M01 A2996 RMK AC1CS6 DENSITY ALT 1090FT SLP149", "CYBK 292200Z 00000KT 25SM -SN BKN012 OVC020 M04/M05 A3018 RMK SC6SC2 SLP222", "CYBL 292200Z 09011KT 30SM FEW020 BKN270 19/07 A2990 RMK CF1CI5 CF TR SLP127 DENSITY ALT 1000FT", "CYBQ 292200Z AUTO 35007KT 9SM BKN020 BKN027 OVC037 04/M00 A3014 RMK SLP226", "CYBR 292200Z 02023G30KT 15SM FEW044 FEW078 10/01 A2999 RMK CU2AC1 AC TR SLP172", "CYBU 292200Z AUTO 34013G21KT 9SM SCT066 12/M03 A3015 RMK SLP228", "CYBW 292200Z AUTO 13013G21KT 9SM CLR 20/01 A3003 RMK SLP185 DENSITY ALT 5400FT", "CYBX 292200Z 28006KT 15SM SKC 04/M03 A3017 RMK SLP222", "CYCA 292200Z AUTO 01005KT 9SM CLR 04/M01 A3017 RMK SLP219", "CYCB 292253Z VRB02KT 5SM BR BKN012 M10/M11 A3016 RMK SF7 SLP218", "CYCD 292200Z 08007KT 30SM SCT250 22/10 A2992 RMK CI3 SLP133 DENSITY ALT 900FT", "CYCG 292200Z 31004KT 230V030 15SM FEW250 27/03 A2992 RMK CI2 CONTRAILS SLP135 DENSITY ALT 3400FT", "CYCK 292200Z AUTO 20010KT 9SM CLR 11/09 A2959 RMK SLP026", "CYCO 292200Z 27005KT 15SM FEW016 SCT280 M08/M12 A3024 RMK SC1CS3 SLP246", "CYCP 292200Z 08008KT 050V120 15SM SCT350 25/00 A2991 RMK CI3 SLP138 DENSITY ALT 4000FT", "CYCQ 292200Z 05004KT 35SM FEW220 OVC240 23/M01 A2988 RMK CI1CI7 SLP132 DENSITY ALT 3400FT", "CYCY 292200Z AUTO 14012KT 9SM OVC100 M06/M07 A3026 RMK SLP252", "CYDA 292200Z 10008KT 20SM BKN063 OVC110 10/M03 A2985 RMK SC5AS3 SLP129", "CYDB 292200Z 12003KT 100V160 15SM SCT037 SCT060 BKN080 03/M04 A2979 RMK SC3CF1AS3 CF TR LAST STFD OBS/NEXT 301400 SLP129", "CYDC 292200Z 23008G16KT 170V330 25SM FEW260 29/M08 A2989 RMK CI1 CONTRAILS SLP114 DENSITY ALT 4500FT", "CYDF 292200Z 35005KT 300V020 15SM SCT061 08/M05 A3018 RMK SC4 SLP223", "CYDL 292200Z AUTO 22009G16KT 140V240 9SM CLR 16/00 A2983 RMK SLP111 DENSITY ALT 3600FT", "CYDN 292200Z AUTO 04015G23KT 9SM FEW025 SCT036 BKN100 09/03 A3006 RMK SLP194", "CYDP 292244Z 08012KT 15SM VCFG FEW005 SCT080 BKN230 M01/M02 A3019 RMK SF1AC2CS4 SF TR FG BNK E VIS 3 SLP226", "CYDQ 292200Z AUTO VRB07KT 9SM CLR 23/M02 A2990 RMK SLP140 DENSITY ALT 3700FT", "CYEG 292200Z 13017G26KT 100V160 20SM FEW100 BKN250 20/M05 A3007 RMK AC1CI7 AC TR SLP195 DENSITY ALT 3400FT", "CYEK 292200Z AUTO 14003KT 100V190 9SM OVC011 M03/M05 A3023 RMK SLP240", "CYEN 292200Z AUTO 34023G34KT 9SM FEW076 13/M04 A3006 RMK SLP200", "CYER 292200Z AUTO 08011KT 9SM CLR 01/M01 A3015 RMK SLP213", "CYET 292243Z AUTO 12003KT 050V180 5SM HZ CLR 22/M01 A2993 RMK SLP127 DENSITY ALT 4600FT", "CYEV 292200Z 01004KT 330V040 15SM SCT078 M04/M12 A3013 RMK AC4 SLP213", "CYFB 292234Z 15005KT 15SM BKN015 OVC048 M03/M04 A3020 RMK SC6SC2 SLP231", "CYFC 292200Z AUTO 16009KT 9SM CLR 18/M01 A3011 RMK SLP199", "CYFO 292200Z 36013G21KT 15SM BKN045 07/M01 A3015 RMK SC7 SLP226", "CYFS 292200Z 14006KT 090V160 15SM FEW094 SCT110 BKN250 18/M03 A2993 RMK AC1AC3CI3 AC TR SLP144 DENSITY ALT 1000FT", "CYGE 292200Z VRB05KT 20SM FEW080 BKN230 BKN240 24/02 A2997 RMK AC1CI5CC1 AC TR CC TR CONTRAILS SLP153 DENSITY ALT 4200FT", "CYGH 292200Z 32004KT 25SM FEW120 FEW230 07/M05 A3002 RMK AC1CI1 SLP173", "CYGK 292235Z 13013G18KT 15SM BKN027 OVC042 10/07 A2976 RMK SC7SC1 SLP082", "CYGL 292200Z 04006KT 15SM SCT160 OVC240 10/01 A2993 RMK AC3CI5 SLP145", "CYGP 292200Z 33006KT 15SM FEW090 BKN220 09/02 A3016 RMK AC1CI5 SLP217", "CYGR 292200Z 34006KT 330V060 20SM BKN270 07/01 A3024 RMK CI5 SLP243", "CYGV 292200Z AUTO 16004KT 140V200 9SM CLR 06/01 A3019 RMK SLP228", "CYGW 292200Z AUTO 05007KT 9SM CLR 10/04 A2999 RMK SLP159", "CYGX 292200Z 04007KT 15SM BKN220 06/M03 A3010 RMK CI6 SLP206", "CYHD 292249Z AUTO 03012G22KT 350V060 9SM -RA OVC036 05/M02 A2984 RMK SLP124", "CYHE 292200Z AUTO 29006KT 250V340 9SM CLR 27/08 A2987 RMK SLP116 DENSITY ALT 1700FT", "CYHK 292210Z AUTO 22002KT 9SM -SN OVC011 M07/M10 A3017 RMK SLP223", "CYHM 292200Z 23013G19KT 15SM BKN025 BKN058 13/09 A2962 RMK CU5SC2 SLP036 DENSITY ALT 1200FT", "CYHU 292200Z AUTO 15006KT 9SM -RA OVC066 10/07 A2995 RMK PCPN 1.8MM PAST HR SLP144", "CYHY 292200Z 19011G17KT 15SM FEW080 FEW180 SCT240 19/M06 A3006 RMK AC1AC1CI3 AC TR SLP190 DENSITY ALT 1000FT", "CYHZ 292200Z 16008KT 15SM FEW040 FEW280 BKN300 08/00 A3018 RMK SC1CI1CC7 SC TR CI TR CONTRAILS SLP228", "CYIN 292200Z AUTO 20007G18KT 160V250 9SM CLR 23/M04 A2991 RMK SLP131 DENSITY ALT 5500FT", "CYIO 292250Z AUTO VRB02KT 2SM -SN FEW012 OVC034 M05/M05 A3020 RMK SLP236", "CYIV 292200Z AUTO 36013KT 9SM BKN091 BKN110 08/M00 A3001 RMK SLP175", "CYJT 292200Z 36010KT 15SM FEW036 08/M02 A3017 RMK SC1 SC TR SLP220", "CYKA 292200Z 11007G16KT 060V120 40SM FEW260 29/03 A2982 RMK CI2 SLP098 DENSITY ALT 3200FT", "CYKD 292200Z 33007KT 15SM FEW090 M06/M12 A3016 RMK AC1 AC TR SLP217", "CYKJ 292200Z AUTO 02005KT 320V080 9SM FEW048 BKN055 BKN200 08/M04 A3020 RMK SLP254", "CYKL 292200Z AUTO 16003KT 080V190 9SM FEW240 13/M01 A3007 RMK SLP205", "CYKP 292248Z AUTO 02011G17KT 9SM -RA BKN010 BKN013 OVC031 02/02 A2985 RMK SLP119", "CYKY 292200Z 09005KT 050V110 15SM FEW130 16/M06 A3015 RMK AC1 AC TR SLP229 DENSITY ALT 2700FT", "CYLD 292200Z 14006KT 100V160 10SM -RA BKN008 OVC018 07/06 A2955 RMK SF5NS3 SLP028", "CYLJ 292200Z 04010KT 350V060 15SM SKC 15/M10 A3018 RMK SLP240", "CYLL 292200Z 11005KT 010V130 15SM FEW130 15/M09 A3017 RMK AC2 SLP238 DENSITY ALT 2400FT", "CYLW 292200Z AUTO 18004KT 130V200 9SM CLR 26/02 A2990 RMK SLP125 DENSITY ALT 3100FT", "CYMA 292200Z 08011KT 20SM OVC047TCU 07/M01 A2987 RMK TCU8 SLP141", "CYMH 292200Z AUTO 03004KT 010V070 9SM CLR 04/M01 A3017 RMK SLP220", "CYMM 292200Z AUTO VRB03KT 9SM CLR 16/M08 A3018 RMK SLP236", "CYMO 292224Z AUTO 02005KT 350V050 9SM -RA OVC060 05/02 A2981 RMK SLP096", "CYMT 292200Z AUTO 15009G17KT 9SM CLR 15/00 A2986 RMK SLP124 DENSITY ALT 1700FT", "CYMX 292200Z 09005KT 360V160 10SM -RA OVC056 09/07 A2994 RMK SC8 SLP145", "CYNA 292200Z AUTO 20010KT 9SM CLR 07/M01 A3019 RMK SLP227", "CYND 292200Z 08018KT 6SM -RA BR FEW014 OVC028 08/07 A2985 RMK SF1SC7 SLP113", "CYNE 292200Z AUTO 34011KT 290V010 9SM FEW055 SCT083 10/01 A3004 RMK SLP186", "CYNM 292200Z AUTO 15017G23KT 9SM OVC076 15/02 A2975 RMK SLP083 DENSITY ALT 1400FT", "CYOD 292200Z 09006KT 15SM FEW140 15/M09 A3019 RMK AC2 DENSITY ALT 1944FT SLP242", "CYOJ 292200Z 16014KT 120V190 15SM BKN260 19/M04 A3003 RMK CI7 CONTRAILS SLP183 DENSITY ALT 1800FT", "CYOO 292252Z AUTO 10008KT 1SM -RA BR SCT005 BKN009 OVC013 08/08 A2965 RMK PCPN 1.5MM PAST HR SLP046", "CYOW 292216Z 09017G23KT 15SM -DZ BKN017 OVC030 09/07 A2983 RMK SF5NS3 SLP106", "CYPA 292200Z 02015G23KT 320V060 15SM FEW070 13/M07 A3018 RMK AC1 AC TR SLP241", "CYPC 292200Z 06005KT 15SM BKN090 BKN220 M09/M12 A3021 RMK AC5CI2 SLP233", "CYPD 292200Z AUTO 26006KT 9SM CLR 04/01 A3019 RMK SLP230", "CYPE 292200Z 10011G16KT 080V150 15SM BKN250 21/M03 A2998 RMK CI7 SLP163 DENSITY ALT 3000FT", "CYPH 292200Z AUTO 04010KT 9SM CLR 02/M01 A3019 RMK SLP229", "CYPL 292229Z AUTO 03011G19KT 9SM -RA SCT014 BKN022 OVC034 02/00 A2989 RMK SLP143", "CYPO 292200Z AUTO 04010G16KT 9SM BKN043 02/M03 A3009 RMK SLP196", "CYPQ 292200Z AUTO 13010G17KT 9SM -RA OVC009 10/09 A2966 RMK SLP051", "CYPR 292200Z AUTO 30005KT 270V360 9SM CLR 14/06 A2981 RMK SLP097", "CYPW 292200Z 14009G20KT 30SM FEW250 22/09 A2992 RMK CI1 CONTRAILS SLP135 DENSITY ALT 1400FT", "CYPX 292218Z AUTO 33013KT 9SM SCT021 OVC033 01/M00 A3021 RMK SLP233", "CYPY 292200Z AUTO 12012KT 110V170 9SM CLR 12/M08 A3021 RMK SLP246", "CYQA 292251Z AUTO 12010G16KT 2 1/2SM -RA BR OVC006 09/08 A2960 RMK PCPN 0.5MM PAST HR SLP032", "CYQB 292200Z 08017KT 30SM SCT060 OVC130 11/04 A2998 RMK SC3AC5 SLP156", "CYQD 292200Z AUTO 34010G16KT 9SM SCT039 BKN049 OVC055 07/01 A3013 RMK SLP217", "CYQF 292200Z AUTO 14016G25KT 9SM CLR 21/M03 A3005 RMK SLP185 DENSITY ALT 4200FT", "CYQG 292200Z AUTO 18011G17KT 9SM CLR 16/10 A2957 RMK SLP014 DENSITY ALT 1300FT", "CYQH 292200Z 11006KT 40SM SCT180 OVC210 14/00 A2986 RMK AC3CI5 SLP135 DENSITY ALT 2800FT", "CYQI 292200Z 17010KT 15SM FEW050 OVC250 08/04 A3018 RMK SC1CI8 SC TR SLP222", "CYQK 292200Z 03011G19KT 20SM FEW050 BKN072 BKN240 07/M05 A2986 RMK SC1AC5CI1 SC TR SLP130", "CYQL 292200Z 15007G20KT 130V270 60SM FEW250 22/02 A3003 RMK CI1 SLP176 DENSITY ALT 4500FT", "CYQM 292200Z 10010KT 15SM FEW054 BKN220 13/01 A3015 RMK SC1CI5 SLP215", "CYQQ 292200Z 14010KT 20SM SCT250 19/09 A2990 RMK CI4 DENSITY ALT 793FT SLP127", "CYQR 292200Z 33020G28KT 300V010 15SM FEW080 14/M06 A3011 RMK CU1 CU TR SLP217 DENSITY ALT 2100FT", "CYQT 292200Z 35006KT 8SM -SNRA OVC022 03/01 A2965 RMK SC8 SLP052", "CYQU 292200Z 14003G15KT 25SM BKN260 22/M02 A2991 RMK CI5 SLP144 DENSITY ALT 3600FT", "CYQV 292200Z AUTO 35021G29KT 9SM CLR 11/M04 A3008 RMK SLP206", "CYQW 292230Z AUTO 01013G21KT 9SM CLR 15/M11 A3018 RMK WSHFT AT 2218Z SLP228 DENSITY ALT 2000FT", "CYQX 292226Z 35013G25KT 20SM FEW040 FEW150 FEW250 02/M03 A3011 RMK CU1AC1CI1 CU TR AC TR CI TR SLP207", "CYQY 292200Z 02013KT 15SM FEW030 FEW240 04/M01 A3021 RMK SC1CI1 SLP236", "CYQZ 292200Z AUTO 18004KT 130V210 9SM CLR 25/02 A2982 RMK SLP107 DENSITY ALT 3500FT", "CYRB 292200Z 11017KT 10SM -SN DRSN SCT008 OVC016 M06/M08 A3025 RMK ST3SC5 SLP253", "CYRJ 292200Z 16012G20KT 40SM FEW060 OVC150 18/M00 A2991 RMK SC1AS8 SC TR SLP134 DENSITY ALT 1200FT", "CYRL 292200Z 03007G16KT 360V070 15SM VCSH BKN035 OVC040 06/M03 A2992 RMK SC5SC3 VCSH SW CVCTV CLD EMBD SLP152", "CYRQ 292200Z AUTO 17017G22KT 9SM OVC110 17/02 A2993 RMK SLP137 DENSITY ALT 500FT", "CYRT 292233Z 19005KT 150V230 6SM BR BKN011 M02/M04 A3023 RMK SC7 VIS NE 2 SLP241", "CYRV 292200Z AUTO 03003KT 330V060 9SM OVC160 23/04 A2995 RMK SLP148 DENSITY ALT 2700FT", "CYSB 292200Z 13011KT 3SM -RA BR BKN005 OVC015 07/07 A2960 RMK SF6SC2 SLP034", "CYSC 292236Z AUTO 13012G20KT 9SM BKN060 BKN250 11/02 A2999 RMK SLP163", "CYSF 292200Z AUTO 34009KT 310V030 9SM SCT055 09/M03 A3023 RMK SLP252", "CYSJ 292200Z 21010KT 15SM FEW060 BKN240 12/03 A3016 RMK SC1CI5 SLP217", "CYSM 292200Z 04005KT 360V090 15SM FEW097 FEW180 FEW270 14/M10 A3019 RMK CU1AC1CI1 CU TR AC TR SLP236", "CYSN 292253Z 18008KT 10SM FEW007 SCT015 OVC037 11/10 A2965 RMK SF1SC2SC5 SLP043", "CYTE 292200Z AUTO 26009KT 9SM SCT076 M01/M03 A3018 RMK SLP227", "CYTH 292200Z 03003KT 340V080 15SM VCSH SCT055 10/M04 A3008 RMK SC4 SLP199", "CYTL 292200Z AUTO 07007G15KT 030V110 9SM FEW050 08/M04 A3001 RMK SLP179", "CYTR 292219Z 14013G20KT 100V170 6SM -RA BR SCT008 OVC046 11/09 A2970 RMK SF3SC5 DENSITY ALT 232FT SLP060", "CYTS 292200Z 10010G15KT 3SM -RA SCT006 OVC032 08/07 A2963 RMK SC3SC5 SLP047", "CYTZ 292240Z AUTO 05015KT 5SM BR OVC002 08/08 A2964 RMK SLP039", "CYUA 292200Z AUTO 04003KT 330V070 ////SM OVC003 ///// A////", "CYUB 292200Z 06010KT 15SM FEW004 M11/M12 A3018 RMK SC1 SC TR SLP222", "CYUL 292200Z 10011KT 15SM OVC060 10/07 A2993 RMK SC8 SLP139", "CYUX 292200Z 15005KT 10SM -SN FEW021 BKN028 OVC034 M01/M02 A3012 RMK SC2SC3SC3 SLP203", "CYUY 292253Z 12008G16KT 3SM RA BR BKN010 OVC025 07/06 A2971 RMK SF6SC2 SLP072", "CYVC 292200Z 35008G16KT 15SM SCT060 10/M04 A3022 RMK SC4 SLP254", "CYVL 292200Z AUTO 01008KT 9SM CLR 02/M05 A3004 RMK SLP199", "CYVM 292247Z AUTO 01005KT 9SM FEW007 SCT110 SCT130 M07/M08 A3025 RMK SLP246", "CYVO 292200Z 09007KT 15SM -RA OVC044 07/06 A2975 RMK SC8 SLP089", "CYVP 292200Z 04009KT 15SM FEW026 FEW093 FEW210 08/02 A3018 RMK CU1AC1CI1 SLP224", "CYVQ 292200Z 21002KT 30SM FEW120 SCT220 08/M05 A3001 RMK AC1CI4 AC TR SLP169", "CYVR 292200Z 09008KT 080V150 20SM SCT220 22/11 A2992 RMK CI3 SLP135 DENSITY ALT 900FT", "CYVT 292200Z AUTO 06006KT 9SM CLR 11/M06 A3021 RMK SLP254", "CYVV 292240Z 15004KT 1 1/2SM -RA BR OVC009 10/10 A2956 RMK FG2SF6 VIS SW-NW 1/2 SLP015", "CYWE 292200Z AUTO 18009KT 9SM BKN100 BKN120 BKN150 09/M06 A3011 RMK ICE MISG SLP223", "CYWG 292200Z 31013G21KT 15SM SCT018CB BKN060 BKN100 08/04 A2994 RMK CB3SC2AC1 CB S-W MOV SE SLP150", "CYWH 292200Z 19005KT 150V240 15SM SKC 16/09 A2994 RMK SLP140", "CYWJ 292200Z 20005KT 40SM FEW120 FEW210 03/M03 A2999 RMK AC1CI1 AC TR SLP172", "CYWK 292200Z 15005KT 15SM BKN085 14/M01 A3004 RMK AC6 SLP194", "CYWL 292200Z 14003KT 110V220 15SM BKN210 23/01 A2987 RMK CI6 SLP118 DENSITY ALT 4800FT", "CYXC 292200Z CCA 06009KT 010V090 5SM FU BKN014 BKN220 24/02 A2999 RMK FG3FU3CI1 VIS E-SSW 1 SLP152 DENSITY ALT 4800FT", "CYXE 292200Z 35015G21KT 15SM SKC 15/M11 A3015 RMK SLP231", "CYXH 292200Z 11007G16KT 050V130 30SM FEW270 19/M05 A3010 RMK CI1 CI TR SLP197 DENSITY ALT 3200FT", "CYXJ 292200Z 11009G17KT 070V140 60SM BKN240 21/M01 A2992 RMK CI6 CONTRAILS SLP146 DENSITY ALT 3500FT", "CYXL 292200Z 04007G19KT 350V120 12SM -SHRA FEW015 BKN020 OVC110 04/M00 A2985 RMK SF2SC5AC1 CVCTV CLD EMBD SLP127", "CYXQ 292200Z 06013KT 25SM SCT040 BKN100 OVC220 08/M04 A2980 RMK CU3AC2CS3 /LAST STFD OBS/NXT 301600Z/ SLP122", "CYXR 292251Z AUTO 12016G21KT 8SM -RA BKN017 OVC025 08/07 A2964 RMK SLP048", "CYXS 292200Z AUTO 18007KT 140V260 9SM CLR 23/02 A2985 RMK SLP121 DENSITY ALT 3800FT", "CYXT 292200Z 16004KT 20SM FEW085 BKN220 21/03 A2985 RMK AC1CI7 AC TR SLP112 DENSITY ALT 1700FT", "CYXU 292200Z 20010KT 6SM BR BKN007 OVC017 11/10 A2961 RMK SC6SC2 SLP033", "CYXX 292200Z 20006KT 180V260 30SM SCT240 24/11 A2992 RMK CI4 SLP134 DENSITY ALT 1300FT", "CYXY 292200Z 15009KT 40SM FEW045 BKN140 OVC220 12/02 A2978 RMK SC1AC6CI1 SLP110 DENSITY ALT 2700FT", "CYXZ 292200Z 05007KT 030V110 15SM BKN023 OVC048 09/05 A2956 RMK SC7SC1 SLP019", "CYYB 292200Z 11011KT 6SM -RA BR BKN006 OVC015 08/07 A2962 RMK SC6SC2 VIS W 15 SLP042", "CYYC 292200Z 18011G20KT 130V190 20SM FEW180 SCT250 20/00 A3004 RMK AC1CI3 AC TR CONTRAILS SLP185 DENSITY ALT 4900FT", "CYYD 292200Z 14009KT 110V170 25SM FEW060 BKN210 22/02 A2983 RMK CU1CI5 CU TR SLP109 DENSITY ALT 3100FT", "CYYE 292200Z VRB02KT 30SM BKN240 19/M02 A2991 RMK CI7 SLP142 DENSITY ALT 2100FT", "CYYF 292200Z 17014G21KT 15SM FEW210 27/03 A2987 RMK CI1 CI TR SLP114 DENSITY ALT 2900FT", "CYYG 292200Z 04009KT 15SM BKN250 08/M01 A3020 RMK CI7 SLP230", "CYYJ 292200Z 09007KT 30SM FEW250 18/11 A2993 RMK CI1 SLP136 DENSITY ALT 500FT", "CYYL 292200Z AUTO 35008KT 9SM SCT035 06/M00 A3016 RMK SLP235", "CYYN 292244Z AUTO 01020KT 340V080 9SM CLR 15/M04 A3012 RMK ICE MISG SLP205 DENSITY ALT 3100FT", "CYYQ 292200Z 05007KT 15SM FEW005 FEW140 FEW250 M02/M04 A3020 RMK SF1AC1CI1 CI TR SLP231", "CYYR 292200Z 04005KT 15SM FEW130 FEW250 12/M03 A3013 RMK AC1CI1 DENSITY ALT -352FT SLP204", "CYYT 292200Z 01018G27KT 15SM BKN012 01/M02 A3000 RMK SF7 SLP166", "CYYU 292231Z 12009G19KT 060V140 3SM -RA BR SCT005 BKN011 OVC015 08/07 A2963 RMK SC3SC2SC3 SLP046", "CYYY 292200Z 07008KT 30SM BKN090 BKN220 07/04 A3006 RMK AC6CI1 SLP185", "CYYZ 292200Z 14006KT 3SM BR OVC002 10/10 A2962 RMK FG2ST6 SLP037", "CYZE 292200Z AUTO 10006KT 9SM OVC007 08/07 A2955 RMK SLP013", "CYZF 292200Z 14017KT 15SM SCT160 BKN240 09/M06 A3016 RMK AC3CI3 SLP228", "CYZH 292200Z AUTO 12013G24KT 9SM OVC100 19/M05 A3005 RMK SLP189 DENSITY ALT 2800FT", "CYZP 292204Z AUTO 14017KT FEW006 OVC100 10/08 A2980 RMK WX MISG VIS MISG SLP093", "CYZR 292200Z AUTO 18007KT 9SM FEW025 SCT030 BKN043 BKN160 14/09 A2957 RMK SLP017 DENSITY ALT 1000FT", "CYZS 292200Z 30008KT 15SM OVC007 M04/M07 A3023 RMK SC8 SLP247", "CYZT 292200Z 03003KT 20SM BKN250 21/09 A2984 RMK CI6 SLP108 DENSITY ALT 900FT", "CYZU 292200Z 12017G24KT 090V150 15SM BKN240 20/M02 A3000 RMK CI6 SLP168 DENSITY ALT 3700FT", "CYZV 292200Z 09011KT 30SM FEW200 SCT230 05/01 A3018 RMK CI2CI1 SLP226", "CYZW 292200Z 20003KT 160V230 30SM FEW075 BKN140 OVC220 12/03 A2980 RMK AC2AC3CI3 SLP114 DENSITY ALT 2700FT", "CYZX 292200Z 17010KT 15SM FEW060 SCT250 15/03 A3015 RMK SC1CI3 DENSITY ALT -18FT SLP210", "CYZY 292200Z AUTO VRB02KT 9SM CLR 19/01 A2988 RMK SLP139 DENSITY ALT 3400FT", "CZBF 292200Z AUTO 06003KT 010V090 9SM CLR 13/05 A3016 RMK SLP219", "CZCP 292200Z AUTO VRB02KT ////SM ////// M11/M12 A3018", "CZCR 292200Z AUTO 09013KT 07/02 RMK AO1 PK WND 08018/2145 SLP212 T00730019 56009", "CZDB 292200Z AUTO 15007KT 13/02 RMK AO1 SLP220 T01310018 51003", "CZEL 292200Z AUTO 19011KT 10/09 RMK AO1 3PAST HR 5004 PK WND 18017/2127 SLP031 P0001 T00990090 50005", "CZEV 292200Z AUTO 02004KT M06/M13 RMK AO1 SOG 51 3007 SLP217 T10591130", "CZFA 292200Z 11005KT 040V140 30SM FEW062 BKN110 OVC150 13/00 A2982 RMK SC2AC4AC1 LAST STFD OBS/NXT 301400Z SLP121 DENSITY ALT 2800FT", "CZFM 292200Z 29006KT 280V350 35SM FEW100 M01/M11 A3012 RMK AC1 AC TR SLP206", "CZFS 292200Z AUTO 12006KT 18/M03 RMK AO1 SLP144 T01761032 56023", "CZHY 292200Z AUTO 20009G15KT 18/M06 RMK AO1 PK WND 16019/2106 SLP187 T01811057 56024", "CZKD 292200Z AUTO 06005KT 09/M04 RMK AO1 SOG 12 2009 SLP205 T00851035", "CZMD 292200Z AUTO 06007KT 030V120 9SM BKN066 OVC080 08/M04 A3000 RMK SLP175", "CZMJ 292200Z AUTO 35018G24KT 15/M08 RMK AO1 SOG 01 6010 PK WND 00025/2131 SLP225 T01511078", "CZMT 292238Z 16010G19KT 15SM OVC009 10/08 A2979 RMK ST8 SLP089", "CZOL 292200Z AUTO 15009KT 19/M06 RMK AO1 T01911060", "CZPC 292200Z AUTO 10009KT 050V140 9SM CLR 21/02 A3003 RMK SLP174 DENSITY ALT 5400FT", "CZPS 292200Z AUTO 15011KT 20/M04 RMK AO1 T01971039", "CZSJ 292253Z AUTO 14005KT 090V170 9SM -RA SCT055 BKN074 OVC087 09/M04 A2999 RMK SLP168", "CZSM 292200Z AUTO 05005KT 14/M10 RMK AO1 SLP240 T01361101 57016", "CZSP 292200Z AUTO 07006KT 06/M03 RMK AO1 SLP236 T00621030 56005", "CZST 292200Z 19004KT 160V230 15SM FEW100 BKN220 18/07 A2984 RMK AS2CS5 SLP108 DENSITY ALT 500FT", "CZTB 292200Z AUTO 00035KT 03/02 RMK AO1 6PAST HR SOG 01 8008 SLP054 P0002 T00300016 50048", "CZUM 292200Z AUTO 06005KT 9SM CLR 13/M01 A3008 RMK SLP207", "CZVL 292200Z AUTO 13011G22KT 100V170 9SM CLR 19/M04 A3006 RMK SLP192 DENSITY ALT 3200FT", "CZZJ 292200Z AUTO 11005G15KT 22/M01 RMK AO1 PK WND 12018/2137 SLP150 T02181010 58023", "DAAG 292230Z 30007KT 9999 FEW023 SCT200 23/13 Q1014", "DAAT 292230Z 04006KT 9999 FEW046 SCT100 24/M03 Q1021", "DABB 292230Z 24006KT 9999 FEW026 SCT046 24/13 Q1012", "DABC 292230Z VRB02KT 9999 FEW033 BKN100 21/10 Q1018", "DAON 292230Z 29004KT 9999 FEW026 SCT223 23/06 Q1018", "DAOO 292230Z 21014KT 9999 FEW030 SCT233 22/11 Q1016", "DAOY 292200Z 35013KT 9999 FEW030 SCT233 17/10 Q1021", "DAUE 292200Z 16003KT 9999 SCT040 29/M03 Q1014", "DAUH 292200Z 15004KT CAVOK 31/M02 Q1012", "DAUI 292200Z 07012KT CAVOK 32/// Q1011", "DAUK 292200Z 12005KT CAVOK 30/01 Q1011", "DAUL 292200Z 34008KT 9999 -RA FEW030CB BKN033 20/14 Q1021", "DAUO 292200Z VRB02KT CAVOK 29/03 Q1011", "DAUT 292200Z 05006KT CAVOK 31/// Q1013", "DAUU 292200Z 18005KT CAVOK 30/M05 Q1011", "DFFD 292200Z 09013KT 9999 TS FEW020 FEW040CB 30/20 Q1015 NOSIG", "DFOO 292200Z VRB02KT 9999 TS FEW020 FEW033CB 28/19 Q1014", "DGAA 292200Z 01016G26KT 9999 VCTS BKN018 FEW030CB 24/21 Q1015 TEMPO 5000 TSRA BKN010 FEW030CB", "DIAP 292230Z 20006KT 9999 FEW012 28/25 Q1013 NOSIG", "DIBK 292200Z 16004KT 8000 FEW013 27/22 Q1014 NOSIG", "DIYO 292200Z 20004KT 9999 FEW013 28/23 Q1014 NOSIG", "DNAA 292200Z 21005KT CAVOK 26/23 Q1013 NOSIG", "DNKN 292200Z 22007KT CAVOK 28/17 Q1014 NOSIG", "DNKT 292200Z 23012KT CAVOK 31/15 Q1013", "DNMM 292200Z 28003KT 9999 TS FEW008 FEW020CB 24/23 Q1014 NOSIG", "DNMN 292200Z 22003KT CAVOK 27/22 Q1013", "DNPO 292200Z 00000KT 8000 BKN008 26/25 Q1013 NOSIG", "DNYO 292200Z 00000KT CAVOK 33/22 Q1010", "DRRN 292200Z 19011KT CAVOK 33/19 Q1011 NOSIG", "DTKA 292200Z 26005KT CAVOK 24/09 Q1013 NOSIG", "DTMB 292230Z 21006KT CAVOK 23/13 Q1013", "DTNH 292230Z 34002KT CAVOK 20/15 Q1012", "DTTA 292230Z 01002KT 9999 FEW030 20/15 Q1012", "DTTB 292200Z 24007KT 210V270 9999 FEW020 23/12 Q1012", "DTTD 292200Z AUTO 14003KT 080V180 NCD 27/02 Q1014", "DTTF 292200Z 19006KT CAVOK 28/08 Q1013", "DTTG 292200Z 07007KT CAVOK 23/11 Q1012 NOSIG", "DTTJ 292230Z 15008KT CAVOK 21/14 Q1013 NOSIG", "DTTK 292200Z VRB02KT 9999 FEW023 24/14 Q1013", "DTTL 292200Z 19004KT 140V240 9999 FEW020 19/17 Q1013", "DTTN 292200Z /////KT 8000 SCT020 SCT030 25/09 Q1013", "DTTR 292200Z AUTO 06002KT NCD 26/01 Q1014", "DTTX 292200Z 16001KT 9999 FEW033 21/15 Q1013", "DTTZ 292200Z 25003KT CAVOK 29/03 Q1011", "DXXX 292200Z 34009KT 8000 -RA FEW012 23/22 Q1015 RETS NOSIG", "EBAW 292250Z AUTO 01005KT 340V040 9999 // VV/// 09/04 Q1023", "EBBE 292225Z AUTO VRB02KT 9999 NCD 09/07 Q1022 BLU", "EBBL 292225Z AUTO 03004KT 9999 BKN043/// 10/05 Q1022 BLU", "EBBR 292250Z VRB02KT CAVOK 08/06 Q1022 NOSIG", "EBCI 292250Z 01003KT CAVOK 07/05 Q1022 NOSIG", "EBCV 292225Z AUTO 01003KT 9000 BR FEW085/// BKN100/// OVC110/// 08/06 Q1022 BLU", "EBDT 292225Z AUTO 03004KT 9999 SCT039/// 10/06 Q1022 BLU", "EBFN 292250Z AUTO 07003KT 7000 NCD 07/05 Q1023 WHT", "EBFS 292233Z AUTO VRB02KT 7000 BKN220/// 08/06 Q1022 WHT", "EBLB 292233Z AUTO VRB01KT 0100 FG OVC002/// 02/02 Q1022 RED", "EBLG 292250Z VRB01KT 9999 FEW038 09/06 Q1022 NOSIG", "EBOS 292250Z 08005KT CAVOK 06/03 Q1023 NOSIG", "EDAC 292250Z AUTO 32003KT 9999 // OVC065/// 10/07 Q1020", "EDAH 292250Z AUTO 32003KT 280V360 9999 // NCD 07/03 Q1018", "EDBC 292250Z AUTO 31006KT 9999 // NCD 07/04 Q1021", "EDDB 292250Z AUTO 35011KT 9999 FEW040 09/04 Q1019 NOSIG", "EDDC 292250Z AUTO 29004KT 250V320 CAVOK 10/07 Q1019", "EDDE 292250Z AUTO 31006KT CAVOK 07/05 Q1021", "EDDF 292250Z AUTO 01007KT CAVOK 12/07 Q1021 NOSIG", "EDDG 292250Z AUTO VRB01KT CAVOK 06/05 Q1023 NOSIG", "EDDH 292250Z AUTO 33003KT CAVOK 04/02 Q1022 NOSIG", "EDDK 292250Z AUTO 06002KT 6000 2900 BR NCD 08/07 Q1022 TEMPO 4000 BR", "EDDL 292250Z AUTO 05004KT CAVOK 08/05 Q1022 NOSIG", "EDDM 292250Z AUTO 30003KT 270V330 9999 SCT022 10/07 Q1019 NOSIG", "EDDN 292250Z AUTO 35004KT CAVOK 11/06 Q1020", "EDDP 292250Z AUTO 33006KT CAVOK 09/05 Q1020 NOSIG", "EDDR 292250Z AUTO 03007KT 010V070 9999 BKN049 09/07 Q1020", "EDDS 292250Z AUTO 02005KT 9999 SCT023 BKN039 OVC048 11/08 Q1019", "EDDV 292250Z AUTO 30004KT CAVOK 05/03 Q1022", "EDDW 292250Z AUTO 30005KT CAVOK 05/03 Q1023", "EDFH 292250Z 03005KT 010V090 3500 BR BKN044 08/07 Q1021", "EDFM 292250Z AUTO 35005KT 9999 // OVC057/// 12/08 Q1021", "EDGS 292250Z AUTO 34004KT 9999 // OVC048/// 07/06 Q1021", "EDHI 292250Z AUTO 32006KT 280V350 9999 // NCD 06/02 Q1022", "EDHK 292250Z AUTO 30006KT 9999 // NCD 03/M00 Q1022", "EDHL 292250Z AUTO 30006KT 9999 // NCD 04/01 Q1022", "EDJA 292250Z AUTO 06006KT 9999 // OVC037/// 10/07 Q1019", "EDLN 292250Z AUTO 01004KT 340V050 9999 // NCD 10/05 Q1022", "EDLP 292250Z 01004KT 320V050 CAVOK 07/05 Q1022", "EDLV 292250Z AUTO 03004KT 360V080 9999 // NCD 09/06 Q1023", "EDLW 292250Z AUTO 02004KT 350V050 9999 // NCD 08/05 Q1023", "EDMA 292250Z AUTO VRB01KT 9999 // OVC053/// 09/08 Q1019", "EDMO 292250Z AUTO 01006KT 9999 // OVC045/// 10/07 Q1019", "EDNY 292250Z AUTO 03004KT 320V080 9999 // BKN036/// OVC042/// 12/08 Q1018", "EDQM 292250Z AUTO 33003KT 9999 // SCT025/// BKN049/// 07/06 Q1020", "EDSB 292250Z AUTO 02004KT 360V060 9999 FEW031/// BKN054/// 12/09 Q1019", "EDTL 292250Z AUTO 03005KT 9999 // OVC050/// 12/09 Q1019", "EDTY 292250Z AUTO VRB02KT 9999 // OVC049/// 10/07 Q1020", "EDVE 292250Z AUTO 31005KT 9999 NCD 07/04 Q1022", "EDVK 292250Z AUTO 28003KT 250V310 9999 // NCD 06/05 Q1021", "EDXW 292250Z AUTO 33013KT 9999 // SCT035/// 06/M01 Q1022", "EEEI 292253Z AUTO 16007KT 130V190 8000 -RA FEW017/// BKN024/// OVC038/// 05/04 Q1007", "EEKE 292250Z AUTO 23008KT 200V260 9999NDV -DZ FEW009 BKN037 OVC042 07/06 Q1007", "EEPU 292250Z AUTO 23014KT 6000 RA SCT007/// OVC037/// 08/07 Q1007", "EETN 292250Z 17010KT 8000 -RA FEW013 SCT017 OVC031 05/03 Q1007", "EETU 292250Z AUTO 16015KT 9999 OVC066/// 10/M02 Q1009", "EFET 292250Z AUTO 12004KT 070V150 9999 -SN BKN011 M02/M03 Q1000", "EFHA 292250Z AUTO 12007KT 090V150 9999 -RA FEW027 OVC041 03/00 Q1007", "EFHK 292250Z 16014KT 110V180 9999 -RA FEW014 BKN016 05/03 Q1007 TEMPO 6000 RA BKN012", "EFIV 292250Z AUTO 10003KT 060V140 9999 -SN BKN016 M01/M02 Q1004", "EFJO 292250Z AUTO 15007KT CAVOK 01/M01 Q1012", "EFJY 292250Z AUTO 15005KT CAVOK 03/M00 Q1009", "EFKE 292250Z AUTO 17005KT CAVOK M01/M01 Q1005", "EFKI 292250Z AUTO 16007KT CAVOK 01/M01 Q1009", "EFKK 292250Z AUTO 16006KT 9999 SCT012 SCT027 03/00 Q1007", "EFKS 292250Z AUTO 15009KT 9999 BKN026 M01/M02 Q1008", "EFKT 292250Z AUTO 15007KT 9999 -SN OVC004 M02/M02 Q1002", "EFKU 292250Z AUTO 15005KT CAVOK 03/M01 Q1010", "EFLP 292250Z AUTO 13006KT 100V180 CAVOK 03/M03 Q1011", "EFMA 292250Z AUTO 22006KT 190V250 9999 SCT008 03/02 Q1004", "EFMI 292250Z AUTO 13007KT CAVOK 04/M03 Q1010", "EFOU 292250Z AUTO 15007KT CAVOK 00/M01 Q1007", "EFPO 292250Z AUTO 11009KT 9999 OVC008 03/02 Q1004", "EFRO 292250Z AUTO 17011KT 6000 -SN OVC003 M00/M01 Q1004", "EFSA 292250Z AUTO 17006KT CAVOK 03/M02 Q1012", "EFSI 292250Z AUTO 11005KT 9999 -RA BKN015 OVC042 02/01 Q1007", "EFTP 292250Z AUTO 12006KT 9999 -RA FEW012 SCT033 03/02 Q1006", "EFTU 292250Z AUTO 15008KT 9999 -SHRA OVC007 04/03 Q1004", "EFUT 292250Z AUTO 12008KT 9999 OVC045 04/M02 Q1010", "EFVA 292250Z AUTO 16007KT 9999 -RA BKN007 OVC028 03/02 Q1007", "EGAA 292250Z AUTO 10005KT 9999 //////TCU 10/10 Q1018", "EGAC 292250Z AUTO VRB02KT 5000 BR OVC001 10/10 Q1018 RERA", "EGBB 292250Z 22002KT 8000 BKN035 13/12 Q1021", "EGCC 292250Z AUTO VRB01KT 9999 FEW049 13/10 Q1021 NOSIG", "EGCK 292250Z AUTO 27006KT 9999 BKN002/// 11/10 Q1020", "EGDM 292220Z AUTO 15002KT 7000 BR NCD 07/06 Q1022", "EGDR 292220Z AUTO 16004KT 2100 +DZ OVC002/// 11/11 Q1020", "EGDY 292220Z AUTO 15001KT 3100 BR NCD 08/07 Q1021", "EGEC 292250Z AUTO 08003KT 050V120 9000 OVC006/// 09/09 Q1019", "EGFF 292250Z AUTO 13005KT 6000 NCD 11/09 Q1021", "EGGD 292250Z AUTO 17009KT 9999 NCD 10/08 Q1021", "EGGP 292250Z 17004KT 9999 FEW020 SCT039 13/12 Q1020", "EGGW 292250Z AUTO 15006KT 9999 NCD 09/06 Q1022", "EGHQ 292250Z AUTO 16009KT 7000 -DZ BKN004/// 11/10 Q1021", "EGJB 292250Z 13007KT CAVOK 11/07 Q1021", "EGJJ 292250Z AUTO 10010KT 9999 NCD 09/09 Q1021", "EGKK 292250Z 13003KT CAVOK 09/07 Q1022", "EGLC 292250Z AUTO 10006KT 8000 NCD 09/08 Q1023", "EGLF 292250Z AUTO 23001KT 7000 NCD 08/07 Q1022", "EGLL 292250Z AUTO 21003KT 9999 NCD 11/08 Q1022 NOSIG", "EGMD 292250Z AUTO 08009KT 9999 NCD 10/08 Q1023", "EGNJ 292250Z AUTO 09005KT 9999 NCD 10/08 Q1022", "EGNM 292250Z 06004KT 1600 BR BKN002 08/08 Q1021", "EGNS 292150Z 08006KT 3000 BR OVC002 10/10 Q1019", "EGNT 292250Z 12005KT 080V150 6000 -RA BKN005 07/07 Q1022", "EGNX 292250Z 12005KT 9999 SCT038 12/11 Q1021", "EGOM 292220Z AUTO 07007KT 4800 // OVC001/// 06/06 Q1020", "EGOP 292220Z AUTO 00000KT 9999 SCT014/// BKN072/// 11/10 Q1020", "EGOS 292220Z AUTO 07003KT 9999 FEW045/// OVC064/// 13/11 Q1020", "EGOV 292220Z AUTO 19007KT 1000 // OVC001/// 10/10 Q1019", "EGPA 292250Z AUTO 13004KT 9999 FEW033/// 01/M02 Q1022", "EGPB 292250Z AUTO 33002KT 9999 BKN044/// 04/M03 Q1022", "EGPC 292250Z AUTO 13010KT 9999 FEW025/// 05/01 Q1021", "EGPD 292250Z AUTO 17008KT 9999 OVC022 06/02 Q1022 NOSIG", "EGPE 292250Z AUTO 00000KT 9999 OVC024/// 07/05 Q1020", "EGPF 292250Z AUTO 07008KT 9999 OVC009 07/05 Q1021", "EGPH 292250Z 07005KT 9999 FEW011 SCT015 OVC023 08/06 Q1021", "EGPI 292220Z AUTO 14013KT 9999 -RA OVC010/// 10/09 Q1018", "EGPK 292250Z AUTO 03007KT 9000 -RA BKN021/// OVC025/// 08/07 Q1019", "EGPL 292250Z AUTO 14008KT 9999 -RA BKN002/// OVC006/// 09/08 Q1017", "EGPO 292250Z AUTO 13006KT 9999 -RA FEW024/// SCT043/// 08/06 Q1019", "EGPU 292250Z AUTO 13013KT 9999 OVC012/// 09/08 Q////", "EGQA 292220Z AUTO 08006KT 9999 OVC026/// 07/04 Q1020", "EGQK 292220Z AUTO 10006KT 9999 OVC024/// 07/04 Q1020", "EGQL 292150Z 12007KT 9999 -DZ OVC008 07/05 Q1022 RMK GRN", "EGQM 292220Z AUTO 14010KT 9999 OVC008/// 07/06 Q1022", "EGQS 292220Z 13006KT 9999 BKN032 07/03 Q1020 NOSIG RMK BLU BLU", "EGSH 292250Z AUTO 15005KT 9999 NCD 07/06 Q1023", "EGSS 292250Z AUTO 15007KT 6000 NCD 08/07 Q1023", "EGSY 292250Z AUTO 14008KT 090V170 9999 NCD 11/09 Q1021", "EGTE 292250Z 12002KT 8000 SCT006 10/09 Q1021", "EGUB 292220Z AUTO 17009KT 9999 SCT030/// SCT043/// 11/09 Q1022", "EGUL 292155Z AUTO 13004KT 9999 CLR 09/09 A3017 RMK AO2 SLP220 T00940092 $", "EGUN 292155Z AUTO 14006KT 9999 CLR 10/10 A3018 RMK AO2 SLP223 T00950095 $", "EGUW 292220Z AUTO 15005KT 5000 BR NCD 07/06 Q1022", "EGVA 292155Z AUTO 19008KT 9999 CLR 11/11 A3013 RMK AO2 SLP207 T01120110 FZRANO $", "EGVN 292220Z 21004KT CAVOK 12/10 Q1021 NOSIG RMK BLU BLU", "EGVO 292220Z AUTO 16001KT 9000 NCD 09/07 Q1022", "EGVP 292220Z AUTO 11001KT 7000 BR NCD 09/08 Q1022", "EGWC 292220Z AUTO 10001KT //// ///////// ///// Q////", "EGWU 292220Z AUTO 20004KT 9999 SCT018/// 11/08 Q1022", "EGXC 292150Z 11002KT 9999 SCT040 BKN090 11/08 Q1021 RMK BLU", "EGXE 292220Z AUTO 33002KT 5000 BR OVC007/// 08/07 Q1022", "EGXS 292220Z AUTO 11013KT 9999 OVC041/// 10/08 Q1021", "EGXT 292220Z AUTO 16007KT 9999 BKN048/// SCT075/// BKN100/// 12/07 Q1021", "EGXV 292220Z AUTO 06004KT 9000 BR SCT023/// BKN079/// 09/08 Q1021", "EGXW 292220Z AUTO 08005KT 9999 // BKN072/// SCT096/// 11/10 Q1021", "EGXZ 292220Z AUTO 34002KT 7000 BR BKN007/// SCT062/// 09/07 Q1022", "EGYD 292220Z AUTO 13006KT 5000 -RA OVC063/// 11/11 Q1021", "EGYE 292220Z AUTO 21003KT //// ///////// ///// Q////", "EGYH 292220Z AUTO 18006KT 9999 FEW081/// OVC100/// 12/08 Q1021", "EGYM 292220Z AUTO 13007KT 9999 SCT091/// SCT110/// 10/05 Q1022", "EGYP 292220Z AUTO 33009KT 9999 // FEW039/// BKN100/// 07/05 Q0971", "EHAK 292225Z AUTO 34004KT 310V020 9999 NCD 07/01 Q1024", "EHAM 292225Z 04004KT CAVOK 08/06 Q1023 NOSIG", "EHBK 292225Z AUTO VRB01KT 9999 BKN037 09/07 Q1022", "EHDL 292225Z AUTO 03003KT 330V050 9999 NCD 07/05 Q1023 BLU", "EHDV 292225Z AUTO 11010KT 9999 OVC016/// 08/// Q1023", "EHEH 292225Z AUTO 02006KT 9999 NCD 06/03 Q1023 BLU", "EHFD 292225Z AUTO VRB02KT 9999 FEW023/// 07/02 Q1024", "EHFS 292225Z AUTO 03007KT 9999 NCD 08/05 Q1023", "EHGG 292225Z AUTO 35001KT 9999 NCD 03/02 Q1023", "EHGR 292225Z AUTO 03003KT 340V040 9999 NCD 08/03 Q1023 BLU", "EHHW 292225Z AUTO 01004KT 340V060 9999 FEW017/// SCT043/// 07/03 Q1023", "EHJA 292225Z AUTO 12012KT 070V170 9999 FEW013/// OVC023/// 09/06 Q1023", "EHJR 292225Z AUTO 10005KT //// // ///////// 09/06 Q1024 RE// W10/H4", "EHKD 292225Z AUTO 07004KT 9999 SCT300 08/06 Q1023 BLU", "EHKV 292225Z AUTO 12005KT 9999 NSC 09/06 Q1024", "EHLE 292225Z AUTO 05002KT 9999 NCD 07/05 Q1023", "EHLW 292229Z AUTO 06004KT 010V110 9999 FEW020 08/05 Q1023 BLU", "EHMA 292225Z AUTO 01008KT 9999 BKN031 BKN035 08/04 Q1023", "EHMG 292225Z AUTO 05007KT 9999 SCT023 BKN027 09/04 Q1024", "EHPG 292225Z AUTO 08011KT 9999 NCD 09/07 Q1023", "EHRD 292225Z AUTO 04002KT 9999 NCD 07/06 Q1023 NOSIG", "EHSA 292225Z AUTO 06009KT 9999 ///////// 10/07 Q1023 W09/H5", "EHSC 292225Z AUTO 06010KT 9999 ///////// 10/07 Q1024 W11/H5", "EHVK 292225Z AUTO 01003KT 9999 NCD 08/05 Q1023 BLU", "EHVL 292225Z AUTO 06005KT 9999 BKN310 07/06 Q1023 BLU", "EHWO 292225Z AUTO 07003KT 9999 NCD 07/04 Q1023 BLU", "EICK 292230Z 20005KT 0150 R16/0700D R34/0550N DZ FG OVC002 10/10 Q1018 TEMPO 0600", "EIDW 292230Z VRB02KT 9999 FEW007 BKN050 12/11 Q1018 NOSIG", "EIME 292200Z 27005KT 9999 FEW048 BKN060 BKN100 12/11 Q1018", "EINN 292230Z 14005KT 9999 FEW009 BKN020 13/11 Q1017 NOSIG", "EKAH 292250Z AUTO 28011KT 9999 NCD 04/M00 Q1019", "EKBI 292250Z AUTO 28005KT 9999 NCD 01/M02 Q1021", "EKCH 292250Z AUTO 29011KT 9999 NCD 06/01 Q1018 NOSIG", "EKEB 292250Z AUTO 29007KT 9999 FEW034/// 04/00 Q1021", "EKKA 292250Z AUTO 28010KT 9999 FEW030/// 03/M01 Q1020", "EKRK 292250Z AUTO 29010KT 9999 NCD 04/00 Q1018", "EKRN 292250Z AUTO 30008KT 9999 NCD 07/03 Q1017", "EKRS 292250Z AUTO 29006KT 240V340 9999 NCD 05/03 Q1019", "EKSB 292250Z AUTO 30010KT 270V330 9999 NCD 06/00 Q1021", "EKSP 292250Z 28005KT 9999 FEW035 03/M01 Q1021", "EKVD 292250Z AUTO 27005KT //// ///////// 03/M01 Q1021", "EKVG 292250Z AUTO 34007KT 310V020 9999 BKN031/// 01/M05 Q1022 RMK BKN031/// WIND SKEID 34005KT 300V070", "EKYT 292250Z AUTO 30009KT 260V330 9999 NCD 05/M00 Q1018", "ELLX 292250Z 04008KT 9999 BKN045 09/07 Q1021 NOSIG", "ENAL 292250Z AUTO 25018KT 9999 -RA SCT018/// BKN031/// BKN043/// 03/00 Q1013", "ENAN 292250Z AUTO 16002KT 1900 -SN BKN002/// OVC011/// 00/M01 Q1002", "ENAT 292250Z AUTO VRB02KT 9999 BKN027/// OVC062/// 01/M04 Q1005 RMK WIND 700FT 14011KT", "ENBL 292250Z AUTO VRB02KT 1500 -SN M01/M01 Q1015", "ENBN 292250Z AUTO 23007KT 9999NDV SCT026/// 04/M00 Q1008", "ENBO 292150Z 27010KT 9999 SCT025 04/00 Q1005", "ENBR 292250Z 34006KT 9999 SCT010 BKN028 OVC055 02/01 Q1019 RMK WIND 1200FT 31012KT", "ENBS 292250Z AUTO 11032KT 3300 -SN ///021/// M00/M01 Q1008", "ENBV 292250Z AUTO /////KT 9999 OVC014/// 02/M01 Q1009 RMK WIND RWY06 12021G33KT", "ENCN 292250Z AUTO 27008KT 9999 NCD 04/M04 Q1018", "ENDR 292250Z AUTO 21016KT 9999NDV FEW006/// SCT015/// BKN140/// 03/02 Q1006 W///S4", "ENDU 292220Z VRB02KT 9999 VCSH FEW005 SCT025 BKN050 M01/M02 Q1002 RMK WIND 1100FT 15003KT WIND 2200FT 13009KT", "ENEV 292250Z VRB02KT 7000 -RA VV010 01/00 Q1002 RMK WIND 1400FT 24016KT", "ENFB 292250Z AUTO 29025KT 9999NDV -RA BKN037/// 03/M02 Q1019 W///S5", "ENFL 292250Z AUTO 30012KT 270V330 9999NDV SCT036/// OVC052/// 02/M01 Q1017", "ENGC 292250Z 31025KT 9999 BKN035 04/M03 Q1018 W04/S5", "ENGM 292250Z 33007KT 290V010 CAVOK 02/M07 Q1011", "ENHD 292250Z AUTO 31012KT 9999 FEW025/// BKN057/// 04/00 Q1020", "ENHE 292250Z 17009KT 120V190 9999 FEW018 04/00 Q1005 W///S4", "ENHF 292250Z AUTO 08018KT 9999 SCT047/// BKN068/// 00/M03 Q1005 RESN RMK WIND 1254FT 11025KT", "ENHK 292250Z AUTO 10015KT 9999 FEW009/// OVC036/// 01/M01 Q1005", "ENHM 292250Z AUTO /////KT //// FEW035/// BKN052/// BKN067/// 05/M01 Q1021 W08/S/", "ENHV 292250Z AUTO 12018KT 9999 OVC018/// 02/M02 Q1008", "ENJS 292250Z 30010KT 9999 BKN025 05/00 Q1022 W07/S/", "ENKB 292250Z AUTO 22014KT 190V250 9999 -RA FEW009/// BKN019/// OVC028/// 02/M01 Q1010 REDZ REUP RMK WIND 745FT 22023KT", "ENKR 292250Z AUTO 13020KT 5000 -SN ///032/// M01/M03 Q1008 RMK WIND 731FT 12021KT", "ENLA 292250Z AUTO 26009KT 9999NDV FEW036/// BKN042/// 06/00 Q1022 W///S4", "ENLE 292250Z 29006KT 9999 FEW035 06/M03 Q1024 W08/S4", "ENMH 292250Z AUTO 13026KT 9999 FEW017/// 02/M02 Q1008", "ENML 292250Z AUTO 22021KT 9999NDV -DZ FEW023/// OVC030/// 03/00 Q1012", "ENMS 292250Z AUTO VRB03KT 9999 ///////// M01/M05 Q1007 RMK WIND 412FT VRB01KT", "ENNA 292250Z AUTO 17010KT 150V210 9999 OVC029/// 01/M04 Q1006 RMK WIND 1800FT 14020KT", "ENNE 292250Z AUTO 18015KT 9999NDV FEW012/// 03/00 Q1005 W///S4", "ENNM 292250Z AUTO VRB02KT 9999 FEW024/// SCT045/// 02/M01 Q1009 REFZRA", "ENOA 292250Z 30022KT 9999 FEW020 BKN030 04/M03 Q1018 W///S5", "ENOL 292250Z 21015KT 9999 VCSH SCT012CB SCT070 02/00 Q1010", "ENOV 292250Z AUTO 21007KT 170V250 9999 -RA FEW024/// SCT032/// OVC048/// 02/M01 Q1014 RMK WIND RWY24 21007KT WIND 2090FT 22013KT", "ENQA 292250Z AUTO 31022KT 9999NDV OVC058/// 04/M03 Q1019 W10/S5", "ENQC 292250Z AUTO 29019KT 9999NDV OVC050/// 06/M02 Q1018 W///S5", "ENQR 292250Z AUTO 30020KT 8000NDV -SHRA BKN018/// 02/00 Q1017 W08/S5", "ENRA 292250Z AUTO 00000KT 9999 NCD M03/M04 Q1006", "ENRM 292250Z AUTO 20008KT 9999 FEW045/// 02/00 Q1008", "ENRO 292250Z AUTO VRB02KT 9999 SCT023/// BKN048/// M04/M07 Q1008", "ENRS 292250Z AUTO 26009KT 9999 FEW049/// 04/M00 Q1005", "ENRY 292250Z AUTO 30011KT 9999 NCD 05/M06 Q1013", "ENSB 292250Z 00000KT 9999 BKN030 M03/M05 Q1019 RMK WIND 1400FT VRB02KT", "ENSD 292250Z AUTO VRB02KT 9999 -RASN FEW005/// SCT009/// BKN023/// 01/00 Q1016 RERASN RMK WIND RWY26 VRB03KT WIND 1140FT 26004KT", "ENSE 292250Z AUTO 29027KT //// OVC036/// 04/M03 Q1017 W///S6", "ENSF 292250Z AUTO 29023KT 9999NDV -SHRA BKN030/// ///// Q//// W///S5", "ENSG 292250Z AUTO 24012KT 9999 -SN M01/M04 Q1013 RMK WIND 3806FT 28029KT", "ENSH 292250Z AUTO 26006KT 9999 -RA FEW018/// 03/01 Q1003 RMK WIND 0150FT 36007KT", "ENSK 292250Z AUTO 22007KT 9999 SCT014/// BKN025/// OVC068/// 02/00 Q1003", "ENSL 292250Z AUTO 27013KT 9999NDV NCD 06/M01 Q1022 W04/S4", "ENSR 292250Z AUTO 00000KT 9000 -SN FEW004/// SCT012/// BKN030/// M00/M01 Q1004 RMK WIND RWY32 00000KT WIND 1118FT 08006KT", "ENSS 292250Z AUTO 13029KT 3600 SCT009/// OVC019/// 02/00 Q1010 RMK WIND 0500FT 11032G44KT", "ENTC 292250Z AUTO 26006KT 9999 SCT110/// 01/M02 Q1002 RMK WIND 2600FT 13008KT", "ENTO 292250Z AUTO 29009KT 9999 NCD 03/M06 Q1014", "ENUG 292250Z AUTO 13012G26KT 070V180 9999NDV BKN023/// 02/M03 Q1004 W///S4", "ENUN 292250Z AUTO 21008KT 160V230 9999NDV SCT014/// BKN017/// 04/01 Q1004 W06/S4", "ENVA 292250Z 22007KT 160V240 9999 SCT021 BKN030 OVC035 02/M00 Q1011 RMK WIND 670FT 22011KT", "ENVD 292250Z AUTO 12023KT 5000 -SN BKN008/// OVC015/// 00/M01 Q1008", "ENWV 292250Z AUTO 32003KT 9999NDV NCD 05/M02 Q1023 W///S4", "ENZV 292250Z 33009KT 9999 SCT025 SCT055 04/01 Q1020", "EPBY 292230Z 30008KT CAVOK 08/05 Q1016", "EPGD 292230Z 29007KT CAVOK 05/02 Q1014", "EPKK 292230Z 23003KT 210V280 5000 -SHRA BR FEW005 SCT012CB BKN017 11/10 Q1015", "EPKT 292230Z 28005KT 9999 OVC005 10/10 Q1015", "EPLB 292230Z 07003KT CAVOK 05/02 Q1015", "EPLL 292230Z 25002KT 6000 BKN009 10/10 Q1014", "EPMO 292230Z 19005KT 9999 BKN035 13/07 Q1013", "EPPO 292230Z 31005KT CAVOK 08/06 Q1017", "EPRZ 292230Z 08003KT 9999 FEW050CB 11/05 Q1014", "EPSC 292230Z 32003KT 9999 BKN024 07/04 Q1018", "EPSY 292230Z 17003KT 130V200 9999 BKN041 11/06 Q1012", "EPWA 292230Z 16005KT 9999 BKN040 12/07 Q1013 NOSIG", "EPWR 292230Z 33009KT 9999 BKN033 11/07 Q1017", "ESCF 292250Z AUTO 27005KT 9999 NCD 03/M02 Q1010", "ESCM 292250Z AUTO 29014KT 9999 -RA BKN012/// 03/02 Q1005", "ESDF 292250Z AUTO 28006KT 9999 NCD 05/02 Q1014", "ESGG 292250Z 29006KT 250V310 CAVOK 05/M02 Q1014", "ESGJ 292250Z AUTO 26006KT 9999 NCD 02/M02 Q1012", "ESGP 292250Z AUTO 30010KT 9999 NCD 07/M02 Q1014", "ESGT 292250Z AUTO 31009KT 9999 R15///// R33///// -DZ NCD 04/M05 Q1014 REUP REDZ", "ESIA 292250Z AUTO 26006KT 9999 NCD 04/M03 Q1011", "ESIB 292250Z AUTO 29012KT 9999 NCD 05/M03 Q1013", "ESKM 292250Z AUTO 31009KT 9999 NCD 01/M02 Q1007", "ESKN 292250Z 27012KT CAVOK 03/M01 Q1008", "ESKS 292250Z AUTO 29010KT 9999 NCD M02/M06 Q1008", "ESMK 292250Z AUTO 27008KT 9999 NCD 06/02 Q1016", "ESMQ 292250Z AUTO 26010KT 9999 NCD 06/M01 Q1013", "ESMS 292250Z 30011KT CAVOK 06/01 Q1017", "ESMT 292250Z AUTO 30012KT 9999 FEW027/// 07/02 Q1016", "ESMX 292250Z AUTO 25006KT 9999 NCD 03/M00 Q1013", "ESND 292250Z AUTO 29009KT 9999 SCT051/// OVC070/// 00/M02 Q1007", "ESNG 292250Z AUTO 26004KT 9000 -SN VV010 ///// Q1001", "ESNK 292250Z AUTO 00000KT 9999 OVC082/// ///// Q1006", "ESNL 292250Z AUTO 14001KT 9999 FEW057/// M04/M06 Q1005", "ESNN 292250Z AUTO 30007KT 9999 OVC062/// 01/M00 Q1006", "ESNO 292250Z AUTO 32004KT 9999 NCD M01/M02 Q1005", "ESNQ 292250Z AUTO 30005KT 3000 -SN VV028 M03/M04 Q1000", "ESNS 292250Z AUTO 28003KT 9999 NCD M03/M03 Q1005", "ESNU 292250Z AUTO 00000KT 9999 NCD M01/M02 Q1006", "ESNV 292250Z AUTO 29002KT 8000 NCD M04/M06 Q1005", "ESNX 292250Z AUTO 22003KT 9999 NCD M01/M03 Q1003", "ESNZ 292250Z AUTO 29015KT 9999 NCD M01/M01 Q1007", "ESOE 292250Z AUTO 28008KT 9999 NCD 03/M02 Q1010", "ESOH 292250Z AUTO 27003KT 9999 NCD 00/M05 Q1010", "ESOK 292250Z AUTO 29005KT 9999 NCD 01/M04 Q1011", "ESOW 292250Z AUTO 26006KT 230V300 9999 FEW020/// 03/M00 Q1007", "ESPA 292250Z AUTO 00000KT 9999 BKN066/// 00/M00 Q1005", "ESPE 292250Z AUTO VRB01KT 9999 FEW040/// M01/M01 Q1004", "ESSA 292250Z 26011KT 9999 BKN009 03/01 Q1005 TEMPO BKN010", "ESSB 292250Z AUTO 25010KT 9999 BKN018/// BKN025/// OVC031/// 04/02 Q1006", "ESSD 292250Z AUTO 29012KT 9999 NCD 01/M01 Q1006", "ESSL 292250Z AUTO 27011KT 9999 NCD 05/M03 Q1010", "ESSP 292250Z AUTO 28013KT 9999 NCD 05/M02 Q1009", "ESST 292250Z AUTO 33004KT 290V350 9999 NCD M02/M04 Q1011", "ESSV 292250Z AUTO 28013KT 9999 NCD 06/01 Q1010", "ESTA 292250Z AUTO 29018KT 9999 NCD 07/03 Q1016", "ESTL 292250Z AUTO 28010KT 9999 NCD 05/02 Q1016", "ESUP 292250Z AUTO 18004KT 4500 -SN FEW018/// SCT061/// BKN071/// ///// Q1002", "ESUT 292250Z AUTO VRB02KT 9999 NCD M06/M07 Q1005", "ETAD 292155Z AUTO 00000KT 9999 OVC048 09/07 A3014 RMK AO2 SLP201 T00860066", "ETAR 292155Z AUTO 04003KT 9999 SCT026 OVC050 10/08 A3013 RMK AO2 SLP209 T01020076", "ETGG 292220Z AUTO 31009KT 9999 // ////// 05/01 Q1021 ///", "ETHA 292220Z AUTO 05007KT 9999 // ////// 10/07 Q1019 ///", "ETHB 292220Z AUTO 02003KT 9999 // ////// 06/05 Q1022 ///", "ETHC 292220Z AUTO 31005KT 7000 // ////// 07/04 Q1022 ///", "ETHF 292220Z 31003KT 9999 07/06 Q1021 BLU+", "ETHL 292220Z AUTO 06004KT 9999 // ////// 10/08 Q1019 ///", "ETHN 292220Z 03005KT 9999 BKN045 09/06 Q1020 BLU", "ETHS 292220Z AUTO 32005KT 8000 // ////// 05/02 Q1022 ///", "ETIH 292155Z AUTO 00000KT 9999 OVC050 10/06 A3010 RMK AO2 SLP197 T01020060 401540086", "ETIK 292155Z AUTO 00000KT 9999 OVC049 10/08 A3012 RMK AO2 SLP204 T01020078 FZRANO", "ETMN 292220Z 34003KT 9999 SCT025 05/01 Q1022 BLU+", "ETNH 292220Z AUTO 28005KT 9999 // ////// 03/00 Q1021 ///", "ETNL 292220Z 29007KT 9999 05/02 Q1020 BLU+", "ETNN 292220Z 24004KT 8000 FEW045 BKN060 08/07 Q1022 BLU", "ETNS 292220Z AUTO 29004KT 8000 // ////// 03/M00 Q1021 ///", "ETNT 292220Z AUTO 30002KT //// // ////// 05/03 Q1023 ///", "ETNW 292220Z 34005KT 9999 FEW045 06/04 Q1022 BLU+", "ETOU 292155Z AUTO 01003KT 9999 OVC055 11/02 A3015 RMK AO2 SLP214 T01110016", "ETSB 292220Z AUTO 03003KT //// // ////// 08/06 Q1021 ///", "ETSH 292220Z 29004KT 9999 FEW060 09/06 Q1019 BLU+", "ETSI 292220Z AUTO 02002KT 7000 // ////// 11/07 Q1019 ///", "ETSL 292220Z 36003KT 9999 BKN040 10/07 Q1019 BLU", "ETSN 292220Z 35004KT 9999 BKN050 10/07 Q1019 BLU", "ETWM 292220Z AUTO 02001KT //// // ////// 06/05 Q1023 ///", "EVGA 292250Z AUTO 17011KT CAVOK 11/M01 Q1010", "EVLA 292250Z AUTO 27005KT 240V310 CAVOK 08/04 Q1010", "EVRA 292250Z 19009KT 9999 OVC046 11/01 Q1009 NOSIG", "EVVA 292250Z AUTO 26007KT 9999 SCT034 BKN055 07/05 Q1009", "EYKA 292250Z AUTO 17006KT 130V210 9999 OVC100/// 11/M00 Q1013", "EYPA 292250Z AUTO 27003KT 210V330 9999 BKN054/// 07/05 Q1011", "EYSA 292220Z AUTO 18012KT 9999NDV NSC 12/00 Q1011", "EYVI 292250Z 17007KT CAVOK 06/M01 Q1014 NOSIG", "FABL 292200Z AUTO VRB01KT //// R02///// // ///////// 05/01 Q1023", "FACT 292200Z 18008KT CAVOK 14/10 Q1023 NOSIG", "FAGG 292200Z AUTO 31004KT 9999 R29///// // BKN042/// 14/11 Q1025", "FAHS 292200Z AUTO 18008KT //// // ////// 23/18 Q1018", "FAKN 292200Z AUTO 13005KT //// // ////// 18/16 Q1021", "FALA 292200Z AUTO 20004KT //// // ////// 15/13 Q1025", "FALE 292200Z 19008KT 9999 FEW016 BKN019 OVC032 20/18 Q1020 NOSIG", "FALW 292200Z AUTO 17007KT //// // ////// 13/10 Q1021", "FAOR 292200Z 01005KT CAVOK 15/09 Q1025 NOSIG", "FAPE 292200Z 27012KT CAVOK 17/11 Q1023 NOSIG", "FAPN 292200Z AUTO 06001KT //// // ////// 16/15 Q1021", "FAUP 292200Z AUTO 19002KT //// // ////// 11/M12 Q1021", "FBMN 292200Z 08004KT CAVOK 22/11 Q1019", "FBPM 292200Z 35002KT CAVOK 14/06 Q1020", "FBSK 292200Z 09008KT 9999 FEW035CB 21/12 Q1020 NOSIG", "FCBB 292200Z 03005KT 8000 -TSRA SCT017 FEW027CB 23/22 Q1015 NOSIG", "FCPP 292200Z 36004KT 9000 TS FEW013 FEW030CB 26/25 Q1013 NOSIG", "FDBB 292200Z AUTO 25001KT //// // ////// 23/20 Q1017", "FDMY 292200Z AUTO 00000KT //// // ////// 21/20 Q1030", "FDPP 292200Z AUTO 17003KT //// // ////// ///// Q1026", "FDST 292200Z AUTO 06007KT //// // ////// 18/18 Q1019", "FEFF 292200Z 00000KT 6000 NSC 22/22 Q1014 TEMPO 4000 BR", "FGSL 292200Z VRB01KT 9999 FEW010 25/25 Q1014 NOSIG", "FIMP 292200Z 31004KT 9999 FEW017 21/20 Q1012", "FJDG 292155Z 12008KT 9999 FEW022 FEW100 SCT250 27/25 A2974 RMK SLP068 T02740250", "FKKD 292200Z 00000KT 9999 FEW016 FEW020CB 24/24 Q1013 NOSIG", "FKKR 292200Z 30007KT 9999 TS FEW020CB 33/19 Q1010 BECMG NSW", "FKYS 292200Z 00000KT 9999 BKN006 22/21 Q1018 NOSIG", "FMCZ 292230Z AUTO 18007KT CAVOK 27/23 Q1011 NOSIG", "FMEE 292230Z AUTO 18006KT 9999 FEW086 22/18 Q1011 NOSIG", "FMEP 292230Z AUTO 05007KT 9999 FEW025/// SCT039/// BKN046/// ///TCU 23/21 Q1012", "FMMI 292230Z 17004KT 120V210 9999 FEW015 BKN020 15/14 Q1020 NOSIG", "FMMT 292200Z 24008KT 9999 FEW017 SCT033 23/21 Q1014", "FMNM 292200Z 00000KT 9999 FEW020 24/21 Q1013", "FMSD 292200Z 08004KT 9999 FEW016 22/20 Q1014", "FNLU 292200Z 18006KT 150V210 9999 BKN020 26/24 Q1012", "FOOG 292200Z 00000KT 4000 BR FEW013 26/24 Q1013", "FOOL 292200Z 08004KT 9999 SCT012 27/24 Q1012 NOSIG", "FQBR 292200Z /////KT CAVOK 21/20 Q1015", "FQCH 292200Z /////KT CAVOK 19/14 Q1021", "FQMA 292200Z 18008KT 9999 BKN020 25/22 Q1017 NOSIG", "FQNP 292200Z 20004KT 9999 FEW020 19/18 Q1017", "FQPB 292200Z 22005KT 180V250 9999 FEW020 25/22 Q1014", "FQQL 292200Z VRB02KT CAVOK 23/21 Q1016", "FQTT 292200Z 00000KT CAVOK 18/17 Q1016", "FSIA 292200Z 16008KT 9999 SCT022 27/25 Q1006 NOSIG", "FTTJ 292200Z 12014KT 6000 -TSRA FEW033CB 25/20 Q1009 NOSIG", "FWKI 292200Z 17005KT CAVOK 16/14 Q1021 NOSIG", "FZAA 292200Z 09012KT 7000 TS BKN018 SCT028CB 26/22 Q1014 BECMG 4000 TSRA", "GABS 292230Z 24002KT CAVOK 30/12 Q1011 NOSIG", "GAKD 292200Z 31004KT CAVOK 35/08 Q1009", "GCFV 292230Z AUTO 02009KT CAVOK 23/12 Q1018", "GCGM 292230Z AUTO 25004KT CAVOK 24/11 Q1019 RMK R09/26003KT 220V290 ARP/26004KT 210V290", "GCHI 292230Z AUTO 35015KT 9999 FEW015 21/18 Q1020", "GCLA 292230Z AUTO 36006KT CAVOK 21/18 Q1020", "GCLP 292230Z 36014KT CAVOK 24/06 Q1019 NOSIG", "GCRR 292230Z 36020KT CAVOK 21/15 Q1018", "GCTS 292230Z VRB02KT CAVOK 25/04 Q1019 NOSIG", "GCXO 292230Z AUTO 15006KT 120V180 CAVOK 21/01 Q1022", "GECE 292230Z AUTO 30011KT CAVOK 22/15 Q1018", "GEML 292230Z AUTO 28010KT CAVOK 26/09 Q1017", "GFLL 292200Z 25009KT 9999 SCT011 27/24 Q1013", "GGOV 292200Z 24003KT 180V300 6000 NSC 24/21 Q1013 NOSIG", "GLRB 292200Z 23005KT 9999 BKN015 FEW025CB 28/25 Q1013 NOSIG RMK CB/SE-SW", "GMAD 292230Z 00000KT CAVOK 19/16 Q1015 NOSIG", "GMFF 292230Z 25004KT 220V280 CAVOK 18/08 Q1021 NOSIG", "GMFK 292200Z 33007KT 9999 FEW033 26/01 Q1021 NOSIG", "GMFM 292200Z 28006KT CAVOK 19/11 Q1021 NOSIG", "GMFO 292230Z VRB02KT 9999 FEW026 SCT210 21/04 Q1019 WS ALL RWY NOSIG", "GMMB 292200Z AUTO 36005KT 9999 NSC 18/18 Q1020 NOSIG", "GMME 292230Z 05003KT 5000 NSC 18/18 Q1019 NOSIG", "GMMI 292200Z AUTO 01006KT 8000 NSC 23/// Q1017 NOSIG", "GMMN 292230Z 04007KT 010V070 CAVOK 19/17 Q1020 NOSIG", "GMMW 292200Z VRB01KT CAVOK 23/05 Q1018 NOSIG", "GMMX 292230Z 06006KT 020V090 CAVOK 25/09 Q1018 NOSIG", "GMMZ 292200Z 28006KT 9999 NCD 28/M04 Q1020 NOSIG", "GMTA 292200Z VRB02KT CAVOK 22/10 Q1017 NOSIG", "GMTN 292200Z 28008KT 240V310 CAVOK 23/14 Q1018 NOSIG", "GMTT 292230Z 21004KT 180V240 CAVOK 19/19 Q1019 NOSIG", "GOBD 292230Z 29004KT CAVOK 22/21 Q1012 NOSIG", "GOGG 292200Z 26008KT CAVOK 24/23 Q1013", "GOGK 292200Z 18006KT CAVOK 31/22 Q1009", "GOGS 292200Z 32004KT 9999 SCT010 23/22 Q1013", "GOOD 292200Z 32004KT CAVOK 29/19 Q1011", "GOOG 292200Z 00000KT CAVOK 33/07 Q1006", "GOOK 292200Z 28012KT CAVOK 25/21 Q1012", "GOSM 292200Z 00000KT CAVOK 33/08 Q1008", "GOSP 292200Z 36002KT CAVOK 37/14 Q1008", "GOSS 292200Z 36008KT 300V020 CAVOK 22/20 Q1011", "GOTT 292200Z 20004KT CAVOK 34/12 Q1012", "GQNO 292230Z 33014KT 8000 NSC 24/17 Q1010 NOSIG", "GQPP 292200Z 35015KT 8000 NSC 20/18 Q1014 NOSIG", "GUCY 292200Z 31006KT 9999 SCT110 28/25 Q1013 NOSIG", "GVAC 292200Z 01011KT 9999 FEW013 23/20 Q1016 NOSIG", "GVNP 292200Z 34004KT 9999 FEW016 25/10 Q1015 NOSIG", "GVSV 292200Z 05011KT 9999 FEW020 23/19 Q1016 NOSIG", "HAAB 292200Z 33004KT 9999 BKN023 BKN070 16/15 Q1024 NOSIG", "HDAM 292200Z 140/05KT 9999 FEW023 29/25 Q1008", "HEAT 292200Z 01004KT CAVOK 18/03 Q1016 NOSIG", "HEBA 292200Z 31010KT 9999 SCT020 16/09 Q1015 NOSIG", "HEBL 292200Z 33008KT CAVOK 22/05 Q1013 NOSIG", "HEGN 292200Z 30011KT CAVOK 21/02 Q1012 NOSIG", "HELX 292200Z 28002KT CAVOK 21/02 Q1013 NOSIG", "HEMA 292200Z 30005KT CAVOK 20/06 Q1012 NOSIG", "HEMM 292200Z 27008KT 9999 FEW020 SCT022 17/11 Q1017 NOSIG", "HEPS 292200Z 27010KT 9999 SCT020 17/10 Q1014 NOSIG", "HESG 292200Z 27008KT CAVOK 18/01 Q1013 NOSIG", "HESH 292200Z 01017KT CAVOK 23/08 Q1011 NOSIG", "HESN 292200Z 36008KT CAVOK 21/M01 Q1013 NOSIG", "HESW 292200Z 04011KT CAVOK 16/07 Q1016", "HETR 292200Z 31015KT CAVOK 22/06 Q1011", "HKEL 292200Z 13005KT 9999 -RA FEW013 FEW017CB BKN070 14/14 Q1025", "HKJK 292230Z 24003KT 9999 BKN018 BKN080 18/17 Q1021 NOSIG", "HRYR 292230Z 28003KT 210V310 9999 FEW008 SCT023 18/18 Q1021 NOSIG", "HTDA 292200Z 22006KT 9999 FEW011 SCT070 24/23 Q1013 NOSIG", "HTMW 292200Z 00000KT 9999 BKN019 FEW020CB 21/20 Q1017 NOSIG", "HUEN 292200Z 34004KT 9999 VCTS SCT025 FEW027CB 22/19 Q1017 NOSIG", "K04V 292235Z AUTO 32011G22KT 10SM CLR 21/M06 A3021 RMK AO2", "K04W 292159Z AUTO 35010G17KT 10SM SCT050 SCT060 BKN070 10/00 A2970 RMK AO2", "K05U 292230Z AUTO 32005KT 10SM 26/M06 A3016 RMK A01", "K06C 292235Z AUTO 28010G18KT 10SM SCT047 BKN060 BKN070 12/05 A2959 RMK AO2 T01210051", "K06D 292235Z AUTO 35019KT 10SM FEW026 SCT032 SCT037 07/04 A2997 RMK AO2", "K08D 292235Z AUTO 34023G31KT 10SM SCT070 12/M05 A3005 RMK AO2", "K0A0 292235Z AUTO VRB06G13KT 10SM CLR 26/M07 A3011 RMK AO2", "K0A9 292235Z AUTO 00000KT 9SM FEW090 20/13 A2971 RMK AO2", "K0CO 292235Z AUTO 30033G42KT BKN041 OVC047 01/M07 A3041 RMK AO2 PWINO", "K0E0 292255Z AUTO 34009G14KT 10SM CLR 23/M09 A3016 RMK AO2 T02301094", "K0F2 292235Z AUTO 10SM CLR 21/04 A2995 RMK AO2 T02080040", "K0J4 292158Z AUTO 19004KT 10SM SCT028 OVC095 22/17 A2970 RMK AO2 SLP055 T02170172", "K0R0 292235Z AUTO 00000KT 10SM CLR 19/17 A2968 RMK AO2 LTG DSNT ALQDS", "K0S9 292235Z AUTO 32008KT 10SM CLR 19/10 A2993 RMK AO2", "K0V4 292255Z AUTO 15009KT 10SM CLR 22/15 A2972 RMK AO1", "K0VG 292235Z AUTO 00000KT 10SM CLR 19/10 A2971 RMK AO2", "K10G 292235Z AUTO 17010KT 149V209 10SM SCT037 SCT100 16/08 A2965 RMK AO2", "K12N 292154Z AUTO VRB06KT 12/09 A2982 RMK AO1 SLP099 T01220089", "K13K 292235Z AUTO 26016G22KT 10SM CLR 24/04 A2978 RMK AO2 T02360042", "K14Y 292235Z AUTO 31013G19KT 10SM SCT043 SCT060 BKN090 08/02 A2977 RMK AO2", "K15M 292235Z AUTO 10005KT 2SM -RA BR BKN030 OVC060 19/17 A2969 RMK AO2 RAB2214 P0004 T01860172 $", "K17J 292235Z AUTO 14006KT 7SM -RA BR BKN008 OVC014 20/18 A2969 RMK AO2 T02000185", "K18A 292235Z AUTO 21003KT 10SM CLR 22/15 A2979 RMK AO2 T02180150", "K18H 292235Z AUTO 31030KT 8SM FEW036 FEW045 SCT050 21/13 A2981 RMK A01", "K19S 292235Z AUTO 33019KT 10SM SCT110 24/02 A2993 RMK AO2 T02400024", "K1A5 292250Z AUTO 00000KT 10SM SCT120 20/12 A2977 RMK AO2 T01960124", "K1A6 292235Z AUTO 00000KT 10SM SCT120 20/09 A2970 RMK AO2 T01980085", "K1A9 292235Z AUTO 00000KT 10SM -RA SCT070 OVC090 21/17 A2966 RMK AO2 T02110168", "K1AM 292155Z AUTO 00000KT 10SM BKN180 BKN200 20/01 A3006 RMK AO2 SLP178 T01970012 $", "K1BM 292155Z AUTO 09004KT 10SM FEW200 19/01 A3008 RMK AO2 SLP184 T01880008 $", "K1BN 292155Z AUTO 36020G25KT 10SM OVC075 11/M05 A2997 RMK AO2 PK WND 01029/13 SLP163 T01111050 $", "K1BW 292155Z AUTO 34017G28KT 10SM BKN095 17/M03 A3010 RMK AO2 PK WND 34029/20 SLP167 T01741028 $", "K1CM 292155Z AUTO 04008KT 10SM CLR 19/02 A3008 RMK AO2 SLP185 T01860016 $", "K1CN 292155Z AUTO 36022G29KT 10SM SCT070 12/M04 A2998 RMK AO2 PK WND 35032/17 SLP168 T01161037 $", "K1CW 292155Z AUTO 01021G31KT 10SM FEW090 20/M03 A3003 RMK AO2 PK WND 01034/03 SLP143 T02031034 $", "K1DM 292155Z AUTO 02006KT 10SM CLR 19/M01 A3008 RMK AO2 SLP196 T01941006 $", "K1DN 292155Z AUTO 01026G31KT 10SM BKN055 12/M06 A2846 RMK AO2 SLP648 T01171058 $", "K1EM 292155Z AUTO 10005KT 10SM CLR 18/M02 A3008 RMK AO2 SLP190 T01791019 $", "K1EN 292155Z AUTO 01025G31KT 10SM BKN070 13/M06 A2978 RMK AO2 PK WND 35034/2058 SLP107 T01291057 $", "K1EW 292155Z AUTO 16023G27KT 10SM FEW100 20/M02 A3005 RMK AO2 PK WND 16031/05 SLP149 T01971020 $", "K1F0 292235Z AUTO 34012G16KT 10SM CLR 21/03 A2992 RMK AO2 T02090031", "K1FW 292155Z AUTO 34020G25KT 10SM FEW090 19/M01 A3003 RMK AO2 PK WND 34031/2056 SLP142 T01901015 $", "K1GM 292155Z AUTO 03007KT 10SM CLR 19/03 M RMK AO2 SLPNO T01910029 $", "K1GN 292155Z AUTO 36022G30KT 10SM CLR 12/M06 A3000 RMK AO2 PK WND 01031/43 SLP185 T01191060 $", "K1H2 292235Z AUTO 25011G18KT 10SM SCT060 19/03 A2968 RMK AO2 T01900034", "K1HM 292155Z AUTO 25007KT 10SM CLR 20/02 A3003 RMK AO2 SLP170 T02020016 $", "K1HN 292226Z AUTO 32020G27KT 10SM SCT075 13/M06 A3002 RMK AO2 WSHFT 17 SLP186 $", "K1HW 292155Z AUTO 35025G37KT 10SM FEW090 21/M03 A2998 RMK AO2 PK WND 34042/17 SLP135 T02051026 $", "K1IM 292155Z AUTO 15004KT 10SM CLR 20/02 A3002 RMK AO2 SLP169 T01990023 $", "K1IN 292155Z AUTO 36023G31KT 10SM FEW070 12/M06 A3002 RMK AO2 PK WND 35032/20 SLP187 T01211059 $", "K1IW 292155Z AUTO 35031G38KT 10SM CLR 21/M02 A3000 RMK AO2 PK WND 35039/21 SLP144 T02081017 $", "K1JM 292155Z AUTO 11006KT 10SM CLR 19/M01 A3005 RMK AO2 SLP178 T01881006 $", "K1JN 292155Z AUTO 33017G29KT 10SM BKN070 12/M04 A3001 RMK AO2 PK WND 35030/09 SLP178 T01201042 $", "K1JW 292155Z AUTO 35023G28KT 10SM SCT095 20/M02 M RMK AO2 PK WND 34034/16 SLPNO T01951022 $", "K1KM 292155Z AUTO 14008KT 10SM BKN200 19/M00 A3007 RMK AO2 SLP180 T01941001 $", "K1LN 292155Z AUTO 01022G27KT 10SM SCT070 13/M02 A3004 RMK AO2 PK WND 01034/19 SLP187 T01301025 $", "K1LW 292155Z AUTO 32020G27KT 10SM BKN095 20/M02 A3005 RMK AO2 PK WND 31028/09 SLP152 T01951016 $", "K1M4 292222Z AUTO 15006KT 10SM VCTS -RA FEW065 SCT075 BKN090 20/18 A2971 RMK AO2 LTG DSNT SW TSB11 P0001", "K1MM 292155Z AUTO 09005KT 10SM CLR 20/01 A3006 RMK AO2 SLP181 T01960006 $", "K1MW 292155Z AUTO 35018KT 10SM BKN100 21/M03 A3001 RMK AO2 PK WND 36032/06 SLP144 T02101035 $", "K1NW 292155Z AUTO 35017G23KT 10SM BKN120 20/M01 A3003 RMK AO2 PK WND 02029/20 SLP141 T02031009 $", "K1OM 292155Z AUTO 08011KT 10SM CLR 17/M00 A3008 RMK AO2 SLP186 T01731004 $", "K1ON 292155Z AUTO 36018G26KT 10SM SCT070 OVC085 10/M03 M RMK AO2 PK WND 35031/11 SLPNO T00991031 $", "K1OW 292155Z AUTO 35019G24KT 10SM SCT090 19/M02 A3018 RMK AO2 PK WND 34030/2057 SLP196 T01941017 $", "K1P1 292255Z AUTO 11007KT 10SM OVC070 09/06 A3002 RMK AO2 T00860055", "K1R7 292235Z AUTO 00000KT 10SM VCTS CLR 18/18 A2967 RMK AO2 LTG DSNT NE AND W PWINO", "K1R8 292235Z AUTO 19003KT 9SM FEW032 SCT047 OVC090 22/18 A2963 RMK AO2", "K1S5 292255Z AUTO 00000KT 10SM CLR 30/07 A2987 RMK AO2 T02960071", "K1U7 292235Z AUTO 00000KT 10SM CLR 04/M01 A3021 RMK A01", "K1V4 292254Z AUTO 09/04 A2997 RMK AO1 SLP153 T00890039 ", "K1V6 292235Z AUTO 15008KT 10SM CLR 23/M02 A3007 RMK AO2", "K1YT 292155Z AUTO 25006KT 10SM CLR 28/03 A2987 RMK AO2 SLP113 T02750025 $", "K20U 292235Z AUTO 34015G26KT 10SM CLR 14/M09 A3009 RMK AO2", "K20V 292235Z AUTO 29009KT 284V344 10SM SCT090 18/M03 A3021 RMK AO2", "K21D 292235Z AUTO 35015G26KT 10SM SCT050 SCT095 10/M01 A2970 RMK AO2", "K22N 292235Z AUTO 00000KT 4SM BR OVC010 12/10 A2982 RMK AO2", "K24A 292245Z AUTO 14009KT 10SM BKN120 18/11 A2977 RMK AO2 T01810112", "K24J 292235Z AUTO 00000KT 9SM FEW006 SCT021 BKN030 20/20 A2972 RMK A01", "K27K 292255Z AUTO 24004KT 10SM OVC070 14/11 A2970 RMK AO1", "K28J 292235Z AUTO 27007G12KT 9SM UP CLR 20/18 A2975 RMK AO2", "K2A0 292235Z AUTO 21004KT 10SM CLR 22/15 A2968 RMK A01", "K2C8 292255Z AUTO 33012KT 8SM FEW028 SCT039 BKN048 07/07 A2993 RMK AO2", "K2D5 292235Z AUTO 35022G30KT 10SM FEW037 FEW043 OVC055 10/03 A2989 RMK AO2", "K2DP 292250Z AUTO 12006KT 10SM BKN006 19/19 A2975 RMK AO2 SLPNO $", "K2G4 292245Z AUTO 20003KT 10SM BKN085 13/07 A2974 RMK AO2", "K2G9 292235Z AUTO 23005KT 10SM OVC070 13/06 A2972 RMK AO2", "K2I0 292235Z AUTO 22008KT 10SM SCT034 OVC090 20/12 A2970 RMK AO2 T01980117", "K2IS 292235Z AUTO 23010KT 10SM CLR 29/21 A2985 RMK AO2 LTG DSNT E T02850213", "K2J3 292235Z AUTO 00000KT 10SM SCT120 25/17 A2969 RMK AO2 LTG DSNT S AND SW T02540173", "K2J5 292235Z AUTO 13005KT 10SM BKN110 26/16 A2970 RMK AO2 LTG DSNT SE T02560158", "K2J9 292235Z AUTO 00000KT 3SM -DZ BKN033 BKN044 BKN070 19/20 A2969 RMK AO2", "K2M2 292230Z AUTO 00000KT 10SM CLR 21/12 A2968 RMK A01", "K2P2 292235Z AUTO 17004KT 5SM BR OVC002 05/05 A2949 RMK AO2 T00500050", "K2R9 292235Z AUTO 32016G21KT 10SM CLR 25/04 A2996 RMK AO2 T02530041", "K2V5 292235Z AUTO 34026G34KT 10SM CLR 23/M05 A2998 RMK AO2", "K2V6 292239Z AUTO 34023G30KT 10SM SCT095 21/M05 A3001 RMK AO2", "K2W6 292249Z AUTO 00000KT 10SM CLR 16/13 A2978 RMK AO1", "K2WX 292156Z AUTO 34024G33KT 16/M06 A3003 RMK AO1 PK WND 32036/2121 SLP170 T01611061", "K33N 292235Z AUTO 00000KT 10SM SCT024 BKN075 18/14 A2976 RMK A01", "K33V 292235Z AUTO 28011G18KT 10SM CLR 15/M05 A3025 RMK AO1", "K35A 292235Z AUTO 00000KT 10SM CLR 22/19 A2976 RMK A02 T02180186", "K38S 292245Z AUTO 09005KT 10SM 22/M01 A3010 ", "K3AU 292235Z AUTO 25010G16KT 10SM CLR 25/M02 A2978 RMK AO2", "K3D2 292235Z AUTO 22003KT 3SM BR OVC004 06/06 A2948 RMK AO2 T00580055", "K3F3 292235Z AUTO 32009G14KT 270V020 10SM BKN025 BKN049 BKN120 18/13 A2987 RMK AO2 T01750125", "K3K3 292235Z AUTO 33021G25KT 10SM 25/M01 A2995 RMK AO2", "K3L4 292235Z AUTO 33017G24KT 10SM SCT032 BKN041 OVC047 19/14 A2980 RMK A01", "K3N8 292235Z AUTO 32016G20KT 10SM SCT017 SCT042 SCT065 08/04 A2983 RMK AO2 T00750037", "K3R7 292255Z AUTO 31016G26KT 10SM OVC026 17/12 A2981 RMK AO2 T01660119", "K3S8 292235Z AUTO VRB05KT 10SM CLR 31/01 A2994 RMK AO2", "K3T5 292235Z AUTO 32017G21KT 10SM CLR 23/07 A2993 RMK AO2 PK WND 32026/2152 T02310071 $", "K3U3 292245Z AUTO 00000KT 10SM 22/M04 A3008 ", "K40B 292216Z AUTO VRB06KT 15/M01 A3003 RMK AO1 SLP171 T01521006 57006", "K40U 292235Z AUTO 32014G21KT 10SM CLR 21/M05 A3018 RMK AO2 T02061048", "K41U 292235Z AUTO 30009KT 240V330 10SM CLR 25/M06 A3016 RMK AO1 T02451057", "K42J 292235Z AUTO 22012KT 6SM BR FEW014 FEW020 SCT029 21/21 A2974 RMK A01", "K46D 292235Z AUTO 36019G24KT 10SM BKN075 09/03 A2997 RMK AO2", "K46U 292235Z AUTO 00000KT 10SM CLR 16/M05 A3018 RMK A01", "K48A 292235Z AUTO 24007G14KT 3SM RA BR SCT007 BKN041 OVC060 20/19 A2972 RMK AO2 VIS 2V5 LTG DSNT SE P0026 T01970191", "K49A 292235Z AUTO 00000KT 10SM CLR 20/15 A2972 RMK AO2", "K4A6 292235Z AUTO VRB06G11KT 10SM SCT041 22/15 A2969 RMK AO2", "K4A9 292235Z AUTO 19005KT 10SM CLR 22/14 A2970 RMK AO2 T02180138", "K4BM 292235Z AUTO 28010G19KT 240V320 10SM SCT070 SCT080 09/M09 A3040 RMK AO2", "K4F2 292235Z AUTO 34011G16KT 10SM OVC047 17/12 A2986 RMK AO2 T01730117", "K4I3 292235Z AUTO 17009KT 10SM SCT080 15/08 A2965 RMK AO2", "K4M9 292235Z AUTO 23008KT 10SM BKN070 BKN075 21/16 A2972 RMK AO2 PWINO", "K4MR 292155Z AUTO 25008KT 10SM CLR 24/M05 A3006 RMK AO2 SLP128 T02371054 $", "K4O4 292235Z AUTO 32012G20KT 8SM BKN060 20/10 A2986 RMK AO2", "K4R5 292255Z AUTO 03008KT 10SM SCT021 BKN042 OVC050 03/01 A2967 RMK AO2 T00290014", "K4S1 292235Z AUTO 21009KT 3SM BR CLR 10/08 A3007 RMK AO2", "K4S2 292235Z AUTO 30009G23KT 10SM CLR 28/05 A2988 RMK AO2", "K4U6 292240Z AUTO 34017KT 10SM 17/M07 A3009 RMK A01 Circle ", "K4V0 292235Z AUTO 00000KT 10SM CLR 22/M04 A3013 RMK AO2 T02191036", "K4V1 292235Z AUTO 10008G14KT 060V120 10SM CLR 22/M02 A3011 RMK AO2 T02161016", "K54A 292230Z AUTO 23009G16KT 7SM FEW016 SCT050 27/24 A2986 RMK AO2", "K54J 292235Z AUTO 00000KT 10SM SCT010 SCT014 OVC090 20/17 A2967 RMK AO2 T02010174", "K57C 292235Z AUTO 31008G15KT 10SM SCT042 BKN060 OVC080 08/03 A2958 RMK AO2 T00830028", "K5A6 292235Z AUTO 00000KT 10SM 17/14 A2969 RMK AO2 LTG DSNT ALQS T01650140", "K5C1 292235Z AUTO 32011G18KT 10SM CLR 23/M02 A2997 RMK AO1", "K5H4 292235Z AUTO 34021G26KT 10SM FEW065 BKN085 11/M01 A2998 RMK AO2", "K5R8 292235Z AUTO 31013G22KT 10SM SCT020 SCT032 OVC090 17/12 A2985 RMK AO2 T01660117", "K5SM 292235Z AUTO 26005KT 10SM CLR 07/M06 A3044 RMK AO2", "K5T9 292235Z AUTO 30011KT 260V320 10SM CLR 28/M01 A2998 RMK A01", "K63S 292235Z AUTO 00000KT 10SM CLR 26/04 A2994 RMK A01", "K65S 292235Z AUTO 00000KT 10SM CLR 27/01 A2996 RMK AO2", "K66R 292235Z AUTO 32010G20KT 10SM CLR 22/08 A2993 RMK AO2 T02220076", "K6A1 292235Z AUTO 34007KT 7SM RA SCT034 BKN060 OVC085 19/18 A2972 RMK AO2 T01890175", "K6A2 292235Z AUTO 00000KT 10SM SCT050 20/16 A2972 RMK AO2", "K6B0 292235Z AUTO 16010G15KT 350V220 10SM OVC060 09/03 A2991 RMK AO2 T00920025", "K6B9 292235Z AUTO 16008G17KT 120V210 10SM FEW032 OVC041 12/10 A2976 RMK AO2", "K6I2 292235Z AUTO 00000KT 10SM BKN080 17/11 A2971 RMK AO2", "K6L4 292255Z AUTO 00000KT 10SM CLR 18/08 A2970 RMK AO2", "K6P9 292235Z AUTO 33011G20KT 10SM CLR 21/02 A2997 RMK AO2 T02140022", "K6R3 292235Z AUTO 32008KT 290V350 10SM SCT040 OVC050 20/11 A2991 RMK AO2 T01960110 TSNO", "K6R6 292251Z AUTO 28/M05 A3010 RMK AO1 SLP167 T02781050 ", "K6S0 292235Z AUTO 08006KT 10SM CLR 21/M00 A3006 RMK A01", "K6S2 292235Z AUTO 25008KT 200V290 10SM BKN007 12/11 A3004 RMK AO2", "K6S8 292240Z AUTO 07010KT 10SM 20/01 A3007 RMK A01 LAUREL", "K77S 292235Z AUTO VRB06KT 10SM CLR 27/12 A2993 RMK A01", "K79J 292229Z AUTO 00000KT 10SM SCT014 BKN070 OVC100 23/18 A2966 RMK AO2 T02280183 $", "K7BM 292235Z AUTO 34008G14KT 260V010 10SM CLR 13/M08 A3030 RMK AO2", "K7L2 292235Z AUTO 34021G34KT 10SM SCT075 14/M05 A2997 RMK AO2", "K7W4 292235Z AUTO 10SM SCT041 SCT047 22/14 A2973 RMK AO1 T02170143", "K7W6 292250Z AUTO 10007KT 7SM OVC004 19/18 A2977 RMK AO2 T01910184", "K81R 292235Z AUTO 32014G24KT 10SM CLR 24/02 A2998 RMK AO2 T02360017", "K82C 292235Z AUTO 31011KT 10SM RA BKN015 BKN024 OVC030 06/05 A2962 RMK AO2 P0001 T00630049", "K8A0 292235Z AUTO 19007KT 10SM SCT032 SCT047 21/13 A2971 RMK AO2", "K8A3 292230Z AUTO 28005KT 10SM CLR 19/10 A2969 RMK A01", "K8B0 292235Z AUTO 17007G12KT 140V210 10SM CLR 09/M01 A3005 RMK AO2", "K8D3 292156Z AUTO 34025G36KT 11/03 A2983 RMK AO1 PK WND 33036/2150 SLP107 T01110028", "K8T6 292235Z AUTO 34009G14KT 10SM CLR 27/03 A2994 RMK AO2", "K8W2 292255Z AUTO 15005KT 10SM BKN060 21/12 A2968 RMK AO1 T02100121", "K96D 292235Z AUTO 33018G26KT 10SM SCT025 BKN038 OVC055 09/05 A2993 RMK AO2", "K9A5 292235Z AUTO 00000KT 10SM CLR 21/15 A2971 RMK AO2 T02090151", "K9D7 292235Z AUTO 34013KT 10SM FEW032 FEW060 BKN085 06/06 A2999 RMK AO2 TSNO", "K9L2 292155Z AUTO 00000KT 9SM CLR 34/M05 A2997 RMK AO2 SLP128 T03411049 $", "K9MN 292235Z AUTO 33006G18KT 300V040 10SM SCT042 SCT050 SCT100 10/00 A2969 RMK AO1 T00970004", "K9S9 292235Z AUTO 32007KT 10SM CLR 29/06 A2995 RMK AO2 PWINO", "K9V9 292235Z AUTO 34018G30KT 10SM BKN080 16/M04 A2992 RMK AO2 T01641039", "KA39 292235Z AUTO 35009KT 10SM CLR 36/M08 A2990 RMK AO2", "KAAA 292235Z AUTO 30009KT 260V320 10SM SCT070 SCT095 17/02 A2966 RMK AO2 T01700019", "KAAF 292153Z AUTO 13013G21KT 10SM CLR 22/19 A2965 RMK AO2 PK WND 15028/2121 SLP040 T02170194 $", "KAAO 292154Z AUTO 28016G23KT 10SM CLR 24/02 A2980 RMK AO2 SLP086 T02440022", "KAAS 292235Z AUTO 00000KT 10SM OVC100 17/11 A2976 RMK AO1", "KAAT 292155Z AUTO 23014G21KT 200V270 10SM CLR 27/M01 A3007 RMK AO2 PK WND 28027/2119 SLP149 T02721011", "KABE 292251Z 08007KT 3SM BR BKN009 OVC012 12/11 A2979 RMK AO2 RAB2154E18 CIG 003V010 SLP089 P0001 T01170106 $", "KABH 292155Z AUTO 02016G26KT 10SM CLR 20/M03 A3011 RMK AO2 PK WND 02026/44 SLP162 T02041033", "KABI 292252Z 36013G21KT 10SM CLR 24/01 A2999 RMK AO2 SLP142 T02440006", "KABQ 292252Z VRB04KT 10SM FEW120 24/M06 A3011 RMK AO2 SLP144 T02391061", "KABR 292153Z AUTO 34025G37KT 10SM FEW055 SCT070 14/01 A2988 RMK AO2 PK WND 36038/2122 SLP123 T01390006", "KABY 292155Z 21005KT 2 1/2SM RA BR BKN020 BKN030 OVC055 19/18 A2973 RMK AO2 P0000 T01940178", "KACB 292235Z AUTO 00000KT 3SM UP SCT012 OVC021 10/09 A2952 RMK AO2 T01000086", "KACJ 292235Z AUTO 21003KT 3SM -RA BR FEW006 SCT026 SCT065 OVC095 19/19 A2972 RMK AO2 FEW V SCT P0004 T01940194", "KACK 292153Z 10018G27KT 10SM OVC065 09/06 A2997 RMK AO2 PK WND 11027/2125 SLP150 T00940061", "KACP 292235Z AUTO 30010G17KT 10SM OVC019 17/12 A2980 RMK AO2", "KACQ 292235Z AUTO 30015KT 10SM SCT060 SCT070 BKN110 10/01 A2974 RMK AO2", "KACT 292251Z 32013G24KT 10SM FEW001 22/04 A2993 RMK AO2 PK WND 30026/2205 SLP131 T02170044", "KACV 292225Z AUTO 25004KT 10SM BKN006 11/09 A3006 RMK AO2 T01110094", "KACY 292238Z 06004KT 10SM FEW008 OVC015 17/14 A2976 RMK AO2 T01670144", "KACZ 292245Z AUTO 17003KT 10SM SCT060 26/19 A2972 RMK AO2 T02580187", "KADC 292237Z AUTO 31012G19KT 10SM SCT065 09/03 A2978 RMK AO2 TSNO", "KADF 292156Z AUTO 29007KT 10SM FEW033 OVC080 17/15 A2981 RMK AO2 SLP091 T01720150", "KADG 292153Z AUTO 19010G16KT 10SM CLR 18/07 A2955 RMK AO2 SLP007 T01780072", "KADH 292235Z AUTO 32005G14KT 10SM CLR 20/07 A2992 RMK AO2", "KADM 292235Z AUTO 34015KT 10SM CLR 21/03 A2991 RMK AO2", "KADS 292147Z 31014G24KT 10SM SKC 21/03 A2993", "KADT 292235Z AUTO 01019G23KT 10SM CLR 24/M07 A2999 RMK AO2 T02371069", "KADU 292235Z AUTO 33014G24KT 10SM BKN046 BKN060 BKN070 13/01 A2979 RMK AO2 PWINO", "KADW 292155Z AUTO 00000KT 10SM CLR 19/12 A2972 RMK AO2 SLP070 T01860123", "KAEG 292247Z VRB05KT 10SM CLR 24/M08 A3014", "KAEJ 292235Z AUTO 29011G19KT 10SM CLR 19/M09 A3019 RMK AO2 T01911090", "KAEL 292235Z AUTO 31011G18KT 10SM SCT047 SCT050 BKN075 09/03 A2972 RMK AO2", "KAEX 292224Z 31015KT 10SM FEW009 BKN014 OVC028 16/14 A2977 RMK AO2 RAE22 P0002 T01560144", "KAFF 292155Z AUTO 03015G22KT 10SM CLR 19/M04 A3010 RMK AO2 SLP159 T01931042", "KAFJ 292156Z AUTO 22008KT 10SM FEW035 SCT090 16/09 A2973 RMK AO2 SLP065 T01560089", "KAFK 292235Z AUTO 36023G30KT 10SM SCT060 SCT075 SCT090 16/01 A2982 RMK AO2 T01620008", "KAFN 292252Z AUTO 00000KT 10SM SCT034 OVC048 08/03 A2999 RMK AO2 RAE52 SLP164 P0000 T00780028", "KAFO 292230Z AUTO 00000KT 10SM CLR 09/00 A3020 RMK AO2", "KAFP 292249Z AUTO 00000KT 10SM CLR 23/17 A2973 RMK AO2 T02260174", "KAFW 292153Z 33011G22KT 10SM FEW060 22/04 A2993 RMK AO2 PK WND 32028/2059 SLP130 T02220039", "KAGC 292153Z 18008KT 10SM FEW090 SCT120 16/09 A2969 RMK AO2 SLP057 T01610089", "KAGI 292235Z AUTO 32033G41KT 10SM CLR 21/12 A2981 RMK AO2 T02060119", "KAGO 292235Z AUTO 33005KT 10SM SCT040 BKN050 OVC090 16/15 A2979 RMK A01", "KAGS 292153Z 24003KT 10SM CLR 26/14 A2969 RMK AO2 SLP051 T02560144", "KAHN 292251Z 00000KT 10SM CLR 21/14 A2971 RMK AO2 SLP058 T02110144", "KAHQ 292235Z AUTO 35021G31KT 10SM SCT070 BKN090 16/00 A2984 RMK AO2 T01630004", "KAIA 292153Z AUTO 32018G28KT 10SM CLR 20/M03 A3000 RMK AO2 PK WND 32033/2100 SLP141 T02001033", "KAIG 292235Z AUTO 31009KT 10SM -DZ SCT008 OVC016 02/02 A2954 RMK AO2 T00220017", "KAIK 292235Z AUTO 21003KT 10SM CLR 24/16 A2972 RMK AO2 T02430163", "KAIO 292235Z AUTO 01016G25KT 10SM FEW050 SCT060 13/03 A2980 RMK AO2", "KAIT 292235Z AUTO 34009KT 10SM SCT060 08/M02 A2974 RMK AO2", "KAIZ 292156Z AUTO 27011G15KT 10SM CLR 21/02 RMK AO2 SLPNO T02060017 $", "KAJG 292235Z AUTO 21009KT 7SM +RA SCT039 BKN070 OVC080 17/12 A2967 RMK AO2 LTG DSNT NE T01730122", "KAJO 292156Z AUTO 28012G17KT 10SM CLR 27/15 A2994 RMK AO2 SLP131 T02720150", "KAJR 292235Z AUTO 18004KT 5SM HZ CLR 21/15 A2973 RMK AO2 T02100147", "KAJZ 292235Z AUTO 27010KT 10SM CLR 26/M07 A3013 RMK AO2 T02561068 PWINO", "KAKH 292154Z AUTO VRB03KT 10SM CLR 21/16 A2974 RMK AO2 SLP066 T02110161", "KAKO 292253Z AUTO 34021G30KT 10SM FEW110 21/M02 A3003 RMK AO2 PK WND 36034/2240 SLP147 T02111022 TSNO $ ", "KAKQ 292154Z AUTO 17006KT 10SM CLR 23/14 A2974 RMK AO2 SLP072 T02330144", "KAKR 292154Z AUTO 20012KT 10SM SCT032 17/06 A2965 RMK AO2 SLP039 T01670061", "KALB 292251Z 13009KT 10SM OVC040 13/04 A2990 RMK AO2 SLP125 T01330044", "KALI 292153Z AUTO 34020G28KT 10SM CLR 27/05 A2995 RMK AO2 PK WND 33028/2138 SLP141 T02670050", "KALK 292156Z AUTO 34004KT 10SM CLR 31/M08 A3011 RMK AO2 SLP101 T03061078", "KALM 292235Z AUTO VRB03G12KT 10SM CLR 24/M06 A3012 RMK AO2", "KALN 292250Z 25011KT 10SM CLR 19/01 A2968", "KALO 292154Z 33016G25KT 10SM OVC060 12/M01 A2969 RMK AO2 SLP056 T01171006", "KALS 292252Z AUTO 35016G22KT 10SM FEW120 22/M08 A3015 RMK AO2 SLP154 T02221078", "KALW 292153Z 24006KT 10SM CLR 26/08 A2992 RMK AO2 SLP127 T02610078", "KAMA 292153Z 36016G30KT 10SM CLR 23/M01 A3003 RMK AO2 PK WND 36030/2149 SLP141 T02331011", "KAMG 292219Z AUTO 19006KT 5SM -RA BR FEW029 BKN100 OVC110 21/20 A2974 RMK AO2 LTG DSNT NE RAB2156 TSB2158E13 P0000 T02110200 $", "KAMN 292235Z AUTO 25015G23KT 7SM RA BKN046 OVC055 12/08 A2954 RMK AO2 T01170075", "KAMW 292153Z AUTO 30013KT 10SM FEW026 SCT035 BKN050 12/05 A2974 RMK AO2 SLP073 T01170050", "KANB 292153Z AUTO 00000KT 10SM CLR 22/14 A2970 RMK AO2 SLP055 T02220144", "KAND 292156Z AUTO 23005KT 10SM FEW046 23/14 A2973 RMK AO2 SLP059 T02330139", "KANE 292145Z 35011G15KT 10SM VCSH SCT060 BKN090 12/00 A2970", "KANJ 292236Z AUTO 12006KT 10SM BKN010 OVC033 08/06 A2953 RMK AO2 T00830061", "KANK 292230Z AUTO 28013G19KT 10SM SCT110 A3023 RMK AO1", "KANQ 292235Z AUTO 27009KT 9SM SCT025 SCT030 OVC044 12/10 A2957 RMK AO2", "KANW 292235Z AUTO 35025G37KT 10SM SCT090 17/M04 A2994 RMK AO2 T01691038", "KAOH 292153Z AUTO 17013G23KT 10SM CLR 18/08 A2956 RMK AO2 SLP008 T01830083", "KAOO 292153Z AUTO 12004KT 10SM FEW024 SCT043 BKN110 15/10 A2974 RMK AO2 SLP071 T01500100", "KAPA 292153Z 01008G16KT 10SM SCT100 SCT150 SCT220 21/M01 A3011 RMK AO2 SLP162 T02061006", "KAPC 292154Z 19011KT 10SM CLR 21/13 A3000 RMK AO2 SLP148 T02060133", "KAPF 292153Z 21013KT 10SM CLR 29/23 A2984 RMK AO2 SLP103 T02940233", "KAPN 292202Z AUTO 07006KT 10SM BKN008 OVC046 10/08 A2953 RMK AO2 T01000078", "KAPS 292242Z AUTO 30016G19KT 10SM -DZ BKN015 OVC022 19/17 A2970 RMK AO2", "KAPY 292235Z AUTO 33012G19KT 10SM CLR 29/00 A2999 RMK AO2 T02850002 TSNO", "KAQO 292235Z AUTO 30015KT 10SM CLR 25/M02 A2996 RMK AO2", "KAQP 292253Z AUTO 02016G21KT 10SM 11/02 A2981 RMK AO2 P0001", "KAQV 292157Z AUTO 10SM OVC016 15/13 A2979 RMK AO2 SLP088 T01500128", "KAQW 292252Z AUTO 10017G22KT 10SM FEW034 SCT044 OVC070 11/04 A2990 RMK AO2 PK WND 11031/2204 SLP126 T01110044", "KAQX 292235Z AUTO 00000KT 10SM FEW110 27/15 A2969 RMK AO2 LTG DSNT S AND SW", "KARA 292208Z 30013G21KT 10SM SCT024 BKN029 OVC060 18/13 A2974 RMK AO2 T01830128", "KARB 292153Z 17011G17KT 10SM FEW045 17/08 A2954 RMK AO2 SLP001 T01720078", "KARG 292156Z AUTO 22008KT 10SM SCT070 21/14 A2972 RMK AO2 SLP065 T02110139", "KARM 292235Z AUTO 31018G26KT 10SM CLR 22/09 A2992 RMK AO2 T02200091 TSNO", "KARR 292252Z 30015KT 10SM SCT080 BKN120 12/03 A2960 RMK AO2 SLP025 T01170033", "KART 292156Z AUTO 14009G23KT 10SM OVC050 12/06 A2978 RMK AO2 SLP083 T01220056", "KARV 292235Z AUTO 34009G16KT 10SM BKN015 BKN020 OVC035 02/00 A2958 RMK AO2 T00220000", "KARW 292235Z AUTO 17006KT 10SM SCT055 SCT065 BKN085 23/18 A2972 RMK AO2 LTG DSNT S THRU W", "KASD 292209Z AUTO 13003KT 5SM RA BR FEW008 SCT035 OVC095 19/18 A2968 RMK AO2 P0002 T01890183", "KASE 292153Z 32010G18KT 10SM CLR 17/M07 A3023 RMK AO2 SLP161 T01721067 $", "KASG 292248Z 29009G14KT 10SM CLR 18/07 A2984", "KASH 292156Z 11012G16KT 10SM -RA SCT075 OVC100 11/07 A3003 RMK AO2 SLP172 P0000 T01060072", "KASJ 292245Z AUTO 00000KT 10SM CLR 22/17 A2974 RMK AO2 T02200173", "KASL 292235Z AUTO 31011KT 10SM FEW047 18/12 A2984 RMK AO2 T01760120 $", "KASN 292235Z AUTO 00000KT 10SM CLR 22/15 A2970 RMK AO2 T02210151", "KAST 292244Z AUTO 25010KT 10SM BKN012 13/09 A3000 RMK AO2 T01330089", "KASW 292235Z AUTO 30010KT 7SM -RA SCT026 SCT033 OVC055 11/08 A2959 RMK AO2 T01100082", "KASX 292229Z AUTO 36008KT 10SM FEW026 BKN032 OVC044 05/02 A2968 RMK AO2 T00500017", "KATA 292235Z AUTO 31007KT 10SM FEW030 18/12 A2984 RMK AO2 SLP004 T01800119 $", "KATL 292252Z 33005KT 10SM FEW046 SCT110 BKN150 OVC200 22/14 A2969 RMK AO2 SLP050 VIRGA OHD-ALQDS T02220139 $", "KATP 292240Z AUTO 29027KT 8SM FEW021 SCT036 BKN050 23/18 A2973 RMK A01", "KATS 292235Z AUTO 11008G13KT 10SM CLR 25/M04 A3009 RMK AO2", "KATT 292251Z AUTO 34008G18KT 300V020 10SM CLR 24/03 A2995 RMK AO2 SLP137 T02440028 $ ", "KATW 292245Z 29010G14KT 10SM OVC018 06/02 A2953", "KATY 292153Z AUTO 34018G29KT 10SM CLR 11/06 A2982 RMK AO2 PK WND 34040/2114 RAB19E32 SLP108 P0002 T01060056", "KAUG 292153Z AUTO 15008KT 10SM OVC100 11/02 A3012 RMK AO2 SLP203 T01110017", "KAUH 292235Z AUTO 36019G25KT 10SM CLR 18/M01 A2988 RMK AO2 T01751006", "KAUM 292236Z AUTO 31015G22KT 10SM -RA SCT034 BKN050 11/02 A2970 RMK AO2", "KAUN 292235Z AUTO 21007KT 10SM CLR 28/09 A3000 RMK A01", "KAUO 292253Z AUTO 13007KT 10SM -RA SCT022 SCT034 OVC075 21/16 A2969 RMK AO2 LTG DSNT W RAE2158B49 SLP046 T02110161 PNO $", "KAUS 292153Z 32011G21KT 10SM FEW070 23/05 A2994 RMK AO2 SLP135 T02280050 $", "KAUW 292218Z AUTO 29012G19KT 10SM SCT014 BKN019 OVC034 06/M01 A2955 RMK AO2 T00561006", "KAVC 292235Z AUTO 00000KT 10SM SCT049 23/17 A2979 RMK AO2 T02270170", "KAVL 292154Z 17011KT 10SM FEW038 20/12 A2976 RMK AO2 SLP061 T02000122", "KAVP 292204Z 13008G16KT 100V160 6SM HZ SCT021 BKN039 OVC047 13/09 A2979 RMK AO2 T01280094", "KAVQ 292235Z AUTO 21004KT 10SM 36/M12 A2989 RMK AO2 T03631118", "KAVX 292251Z AUTO 24007KT 10SM CLR 18/11 A2999 RMK AO2 SLP148 T01830106", "KAWG 292235Z AUTO 28011KT 10SM CLR 09/08 A2970 RMK AO2", "KAWM 292153Z AUTO 36006KT 10SM SCT036 OVC060 18/13 A2972 RMK AO2 SLP060 T01830128", "KAWO 292156Z AUTO 17012KT 10SM CLR 25/09 A2993 RMK AO2 SLP140 T02500094", "KAXA 292235Z AUTO 35016KT 10SM FEW065 FEW075 10/05 A2975 RMK A01", "KAXH 292235Z AUTO 33012G21KT 10SM OVC050 22/10 A2991 RMK AO2 P0002 T02210096", "KAXN 292153Z AUTO 31015KT 10SM SCT036 BKN048 BKN060 09/04 A2979 RMK AO2 RAB2058E18 SLP099 P0001 T00890039", "KAXS 292235Z AUTO 34004KT 10SM CLR 25/03 A2996 RMK AO2 T02470025", "KAXV 292235Z AUTO 20013G17KT 10SM SCT048 BKN090 OVC110 17/08 A2957 RMK AO2 LTG DSNT N", "KAXX 292235Z AUTO 02007G18KT 10SM SCT110 18/M09 A3024 RMK AO2 T01751091", "KAYS 292235Z AUTO 23009KT 10SM RA SCT075 SCT090 OVC110 21/21 A2974 RMK AO2 T02140207", "KAZC 292235Z AUTO 29006KT 270V330 10SM CLR 29/M06 A3015 RMK AO2", "KAZE 292235Z AUTO 22006KT 4SM -VCTSRA SCT009 BKN029 BKN042 21/20 A2973 RMK AO2 LTG DSNT E T02050197", "KAZO 292244Z 21005KT 3SM -RA BR FEW008 OVC048 09/07 A2958 RMK AO2 P0009 T00940072", "KBAC 292235Z AUTO 35018G26KT 10SM FEW033 FEW043 BKN075 09/02 A2990 RMK AO2", "KBAD 292155Z AUTO 30014G20KT 10SM FEW019 SCT024 SCT180 18/13 A2981 RMK AO2 RAE17 SLP098 P0000 T01780127", "KBAF 292153Z VRB05KT 10SM OVC050 12/03 A2993 RMK AO2 RAB16E29 SLP138 P0000 T01220033", "KBAK 292145Z 20015G25KT 10SM SCT060 BKN070 OVC090 18/08 A2961", "KBAM 292235Z AUTO 30003G08KT 10SM CLR 30/M03 A3008 RMK AO1", "KBAN 292252Z AUTO 23009G19KT 10SM CLR 19/M02 A3022 RMK AO2 SLP166 T01941017 $", "KBAX 292235Z AUTO 18006KT 10SM CLR 12/11 A2955 RMK AO2 T01230108", "KBAZ 292251Z AUTO 32012G20KT 10SM -RA CLR 25/04 A2993 RMK AO2 PK WND 32026/2226 SLP130 P0000 T02500039 $", "KBBB 292236Z AUTO 04015G20KT 10SM SCT035 SCT047 BKN060 09/03 A2980 RMK AO2", "KBBD 292235Z AUTO 32017KT 10SM CLR 24/M02 A2999 RMK AO2", "KBBG 292245Z 27006KT 10SM CLR 18/03 A2981", "KBBP 292235Z AUTO 00000KT 10SM CLR 25/15 A2971 RMK AO2", "KBBW 292153Z AUTO 33024G41KT 10SM CLR 19/M03 A2991 RMK AO2 PK WND 34042/2124 SLP122 T01941028", "KBCB 292235Z AUTO 20004KT 10SM SCT042 BKN055 BKN065 20/13 A2978 RMK AO2 T02000126", "KBCE 292153Z AUTO 31007KT 10SM CLR 22/M08 A3028 RMK AO2 SLP165 T02171078", "KBCK 292235Z AUTO 33009G14KT 7SM RA SCT012 SCT018 OVC027 06/04 A2965 RMK AO2 T00550039", "KBCT 292253Z 17010G20KT 140V220 10SM VCTS OVC050 29/24 A2985 RMK LTG DSNT NW-NE.", "KBDE 292153Z AUTO 01012G22KT 10SM OVC080 10/M03 A2984 RMK AO2 PK WND 36027/2055 SLP113 T01001028 $", "KBDG 292235Z AUTO 20007G15KT 10SM 24/M06 A3022 RMK AO1 T02351061", "KBDH 292235Z AUTO 35016G21KT 10SM SCT038 BKN045 OVC055 10/03 A2981 RMK AO2", "KBDL 292251Z 09008KT 10SM OVC040 12/03 A2993 RMK AO2 SLP136 T01220033 $", "KBDN 292235Z AUTO 20007G13KT 170V240 10SM FEW110 31/00 A2994 RMK AO2", "KBDR 292252Z 08020G27KT 2 1/2SM RA BR OVC006 09/08 A2988 RMK AO2 PK WND 08030/2217 SLP118 P0002 T00940083", "KBDU 292235Z AUTO 09005KT 10SM BKN120 22/M02 A3005 RMK AO2", "KBEA 292255Z AUTO 33014G23KT 10SM CLR 25/M01 A2994 RMK AO2 T02541007", "KBEC 292235Z AUTO 28011G18KT 10SM CLR 25/01 A2978 RMK AO2 T02470012", "KBED 292251Z 10014KT 10SM BKN012 OVC043 09/07 A3001 RMK AO2 RAE51 SLP175 P0002 T00890072", "KBEH 292153Z AUTO 30007KT 4SM BR BKN005 OVC011 08/07 A2959 RMK AO2 RAE18 CIG 004V008 SLP022 P0003 T00830072", "KBFD 292153Z AUTO 17005KT 4SM -RA BR BKN008 OVC013 11/09 A2971 RMK AO2 RAB26 CIG 005V009 SLP064 P0000 T01060089", "KBFF 292153Z AUTO 36021G31KT 10SM BKN090 22/13 A3002 RMK AO2 PK WND 33035/2106 SLP140 T02170133", "KBFI 292153Z AUTO 21008KT 10SM CLR 23/11 A2994 RMK AO2 SLP137 T02330106", "KBFL 292154Z 32010KT 10SM CLR 34/11 A2990 RMK AO2 SLP119 T03390111", "KBFM 292153Z 16010KT 10SM FEW120 23/17 A2966 RMK AO2 SLP042 T02330172", "KBFR 292255Z AUTO 27005KT 5SM DZ SCT017 SCT033 BKN044 16/11 A2964 RMK AO2 LTG DSNT W THRU NE", "KBGD 292251Z AUTO 32013G23KT 10SM CLR 24/00 A3001 RMK AO2 SLP139 T02440000", "KBGE 292235Z AUTO 16010KT 10SM -RA BKN009 BKN040 OVC070 20/19 A2971 RMK AO2 T02000191", "KBGF 292235Z AUTO 20006KT 10SM CLR 22/12 A2966 RMK A01", "KBGM 292230Z 15010G17KT 3SM OVC008 09/08 A2979 RMK AO2 SFC VIS 7 CIG 007V015 T00940078", "KBGR 292153Z 18009KT 10SM FEW060 BKN150 OVC250 13/03 A3012 RMK AO2 SLP201 T01330033", "KBHB 292156Z AUTO 18008KT 10SM CLR 10/04 A3016 RMK AO2 SLP214 T01000039", "KBHC 292235Z AUTO 20004KT 7SM -VCTSRA SCT018 BKN030 OVC090 19/18 A2974 RMK AO2 LTG DSNT NW THRU E", "KBHK 292251Z AUTO 33011KT 10SM CLR 15/M06 A3008 RMK AO2 PK WND 33028/2225 SLP191 T01501061", "KBHM 292153Z 15009KT 10SM FEW039 SCT100 BKN250 23/14 A2971 RMK AO2 SLP056 T02330139", "KBID 292243Z AUTO 08014G23KT 1 3/4SM -RA BR OVC005 08/07 A2992 RMK AO2 CIG 004V009 P0002", "KBIE 292235Z AUTO 36023G33KT 10SM SCT075 SCT085 18/00 A2985 RMK AO2 T01840004", "KBIF 292155Z 19006KT 7SM CLR 24/M06 A3015 RMK SLPNO WND DATA ESTMD ALSTG DATA ESTMD", "KBIH 292156Z AUTO VRB05KT 10SM CLR 31/M05 A3005 RMK AO2 SLP131 T03111050", "KBIJ 292235Z AUTO 00000KT 10SM OVC090 19/17 A2969 RMK AO2", "KBIL 292153Z 05007KT 10SM FEW080 FEW200 20/01 A3008 RMK AO2 SLP172 T02000011 $", "KBIS 292252Z 34021G35KT 10SM FEW075 14/M04 A2999 RMK AO2 PK WND 31039/2202 SLP165 T01391044 $", "KBIV 292250Z AUTO 30010G19KT 5SM BR OVC004 07/06 A2959 RMK AO2 RAB23E43 P0001", "KBIX 292252Z AUTO 24004KT 10SM OVC090 21/18 A2963 RMK AO2 RAB43E52 SLP037", "KBJC 292147Z 03010KT 10SM BKN120 21/M03 A3010", "KBJI 292235Z AUTO 34020G26KT 10SM SCT070 10/M06 A2979 RMK AO2 T01001061", "KBJJ 292156Z AUTO 19007KT 10SM CLR 15/09 A2966 RMK AO2 SLP042 T01500094", "KBKB 292152Z AUTO 10SM BKN016 OVC021 15/13 A2978 RMK AO2 RAB11E28 SLP113 P0000 T01500128", "KBKD 292235Z AUTO 33009G16KT 10SM CLR 24/02 A2998 RMK AO2 T02360022", "KBKE 292153Z AUTO 10011KT 10SM CLR 26/03 A3003 RMK AO2 SLP158 T02610033", "KBKF 292158Z 04010KT 10SM FEW100 SCT160 SCT220 21/M01 A3009 RMK AO2A SLP148 T02091010", "KBKL 292153Z 19013KT 10SM FEW045 17/08 A2962 RMK AO2 SLP028 T01720078", "KBKN 292235Z AUTO 24011KT CLR 23/05 A2985 RMK AO2", "KBKS 292235Z AUTO 32011G21KT 10SM CLR 27/02 A2994 RMK AO2 SLP099 T02740021 $", "KBKT 292235Z AUTO 19004KT 10SM SCT050 22/16 A2974 RMK AO1 T02200155", "KBKV 292228Z 26013G22KT 8SM -RA SCT035 BKN095 OVC110 21/20 A2982 RMK AO2 PK WND 26043/2205 LTG DSNT SE AND S P0014 T02110200", "KBKW 292251Z AUTO 00000KT 10SM BKN110 18/07 A2972 RMK AO2 SLP051 T01780072", "KBKX 292156Z AUTO 31020G24KT 10SM SCT070 BKN080 11/02 A2982 RMK AO2 PK WND 31034/2121 RAB23E35 SLP120 P0000 T01110022", "KBLF 292252Z AUTO 25005KT 10SM CLR 18/06 A2974 RMK AO2 LTG DSNT S SLP049 T01830056", "KBLI 292153Z 22009KT 10SM CLR 22/11 A2993 RMK AO2 SLP141 T02170106 $", "KBLM 292249Z AUTO 04005KT 3/4SM UP OVC004 A2981 RMK AO2 P0001 FZRANO RVRNO $", "KBLU 292252Z AUTO 22008G17KT 180V250 10SM CLR 21/04 A3018 RMK AO2 SLP141 T02060039", "KBLV 292155Z 25004KT 10SM CLR 20/05 A2967 RMK AO2A SLP049 T01980051 $", "KBMC 292230Z AUTO 00000KT 10SM CLR 23/M07 A3012 RMK AO1 T02321072", "KBMG 292251Z 25006KT 1SM TSRA BR FEW020 BKN032 OVC055 13/12 A2966 RMK AO2 LTG DSNT E AND SW RAB10 TSB18 TS OVHD MOV E P0039", "KBMI 292156Z 29019G27KT 10SM CLR 17/01 A2962 RMK AO2 PK WND 30027/2156 SLP029 T01720011", "KBML 292252Z AUTO 13007G17KT 10SM -RA SCT035 OVC070 08/03 A3004 RMK AO2 SLP184 P0000 T00780028", "KBMQ 292153Z AUTO 33012G22KT 10SM CLR 24/02 A2999 RMK AO2 SLP143 T02390017 $", "KBMT 292235Z AUTO 31016G21KT 10SM SCT043 OVC050 19/11 A2987 RMK AO2 T01870108", "KBNA 292153Z 00000KT 10SM SCT047 BKN070 BKN120 22/10 A2970 RMK AO2 SLP054 T02220100", "KBNL 292235Z AUTO 00000KT 10SM CLR 27/15 A2971 RMK AO2", "KBNO 292153Z AUTO 00000KT 10SM CLR 27/M01 A3004 RMK AO2 SLP143 T02671006", "KBNW 292235Z AUTO 32016G25KT 10SM FEW033 SCT047 BKN090 11/04 A2975 RMK AO2", "KBOI 292153Z 00000KT 10SM CLR 28/M01 A3001 RMK AO2 SLP141 T02831011", "KBOK 292250Z AUTO 00000KT 3SM BR OVC003 11/09 A3007 RMK AO2 CIG 003V006 SLP185 T01060094", "KBOS 292154Z 09016KT 8SM -RA OVC012 09/07 A3004 RMK AO2 RAB35 SLP173 P0000 T00940072 $", "KBPC 292235Z AUTO 01013G21KT 10SM CLR 25/00 A2999 RMK AO2", "KBPG 292235Z AUTO 34011G19KT 10SM CLR 26/M04 A3002 RMK AO2 T02581044", "KBPI 292153Z AUTO 35015G21KT 10SM CLR 19/M09 A3020 RMK AO2 SLP173 T01891094", "KBPT 292153Z 32015G26KT 10SM BKN036 OVC044 19/12 A2985 RMK AO2 PK WND 30032/2139 SLP107 T01890117", "KBQK 292235Z AUTO 23017G25KT 10SM SCT047 SCT060 SCT070 23/18 A2976 RMK AO2 LTG DSNT NE AND NW T02340184", "KBQP 292235Z AUTO 31009G16KT 4SM -RA BKN009 OVC026 15/15 A2975 RMK AO2 LTG DSNT NE AND E T01500146", "KBQX 292235Z AUTO 33025G32KT 10SM CLR 22/09 A2991 RMK A01", "KBRD 292153Z AUTO 34016G33KT 10SM -RA FEW055 FEW070 SCT095 11/M03 A2974 RMK AO2 PK WND 34033/2147 RAB52 SLP078 P0000 T01111033", "KBRG 292235Z AUTO 00000KT 10SM CLR 25/M08 A3012 RMK AO2 T02501080", "KBRL 292153Z AUTO 32010G21KT 6SM RA OVC045 09/06 A2972 RMK AO2 PK WND 31029/2100 RAB06 SLP066 P0002 T00890056", "KBRO 292153Z 32017G25KT 10SM CLR 28/06 A2996 RMK AO2 PK WND 34031/2114 SLP143 T02780061", "KBRY 292235Z AUTO 24005KT 10SM BKN065 17/14 A2969 RMK AO2 T01680135", "KBTA 292235Z AUTO 34022G30KT 10SM SCT055 SCT070 SCT100 15/01 A2982 RMK AO2 T01520014", "KBTL 292251Z 27005KT 3SM -RA BR FEW014 BKN030 OVC043 10/08 A2958 RMK AO2 P0011", "KBTM 292153Z AUTO 34009KT 10SM CLR 22/M07 A3012 RMK AO2 SLP169 T02221067", "KBTN 292235Z AUTO 35021G30KT 10SM FEW033 SCT042 OVC050 11/03 A2986 RMK AO2", "KBTP 292156Z AUTO 19008KT 10SM FEW024 OVC048 14/09 A2970 RMK AO2 SLP066 T01390094 TSNO $", "KBTR 292233Z 28011KT 10SM BKN012 BKN020 OVC030 18/16 A2971 RMK AO2 RAB04E22 P0000 T01780156", "KBTV 292154Z 17013G23KT 10SM FEW039 OVC065 12/03 A2993 RMK AO2 SLP135 T01220028", "KBUF 292154Z 23011KT 7SM -RA BKN007 OVC014 11/09 A2968 RMK AO2 CIG 005V010 SLP052 P0000 T01060094", "KBUR 292153Z 13008KT 10SM CLR 28/13 A2995 RMK AO2 SLP129 T02780133 $", "KBUU 292235Z AUTO 31013G21KT 7SM SCT043 BKN050 OVC080 10/03 A2958 RMK AO2 T00970030 PWINO", "KBUY 292154Z AUTO 16006KT 10SM CLR 21/16 A2974 RMK AO2 SLP066 T02110161", "KBVI 292235Z AUTO 19004KT 10SM SCT026 SCT048 SCT120 16/09 A2969 RMK AO2 T01580085", "KBVN 292235Z AUTO 35014G27KT 10SM SCT090 17/M01 A2987 RMK AO2 T01681006", "KBVO 292153Z AUTO VRB06G16KT 10SM CLR 22/04 A2985 RMK AO2 SLP102 T02170044", "KBVS 292235Z AUTO VRB05KT 10SM CLR 23/13 A2992 RMK A01", "KBVU 292235Z AUTO 08005KT 10SM CLR 34/M11 A2993 RMK AO2", "KBVX 292156Z AUTO 30008G15KT 270V350 10SM FEW045 20/11 A2975 RMK AO2 SLP073 T02000111", "KBVY 292246Z 10012KT 10SM BKN013 OVC018 08/06 A3003 RMK AO2 RAE04 P0000 T00830061", "KBWD 292235Z AUTO 33016G23KT 8SM CLR 24/00 A2998 RMK AO1", "KBWG 292153Z AUTO 22003KT 10SM OVC100 20/11 A2970 RMK AO2 SLP055 T02000111", "KBWI 292154Z 11006KT 10SM BKN035 BKN120 BKN250 19/13 A2975 RMK AO2 SLP072 T01940133 $", "KBWP 292235Z AUTO 02016KT 3SM -RA BR FEW018 BKN028 BKN035 06/05 A2985 RMK AO2", "KBWW 292235Z AUTO 34020G28KT 10SM CLR 14/M07 A3005 RMK AO2", "KBXA 292235Z AUTO 00000KT 10SM SCT043 BKN065 OVC090 20/17 A2969 RMK AO2 T02010172", "KBXK 292235Z AUTO 00000KT 10SM CLR 36/M12 A2988 RMK A01", "KBYG 292153Z AUTO 35014G19KT 10SM SCT100 19/02 A3009 RMK AO2 SLP156 T01890022", "KBYI 292253Z AUTO 31005KT 10SM CLR 27/M03 A3004 RMK AO2 SLP146 T02721033", "KBYL 292235Z AUTO 00000KT 10SM CLR 18/10 A2970 RMK AO1", "KBYS 292155Z AUTO 11004KT 10SM CLR 33/M05 A2994 RMK AO2 SLP113 T03341054 $", "KBYY 292235Z AUTO 34014G25KT 10SM CLR 22/08 A2991 RMK AO2 T02240088", "KBZN 292156Z 32006KT 10SM CLR 22/M04 A3008 RMK AO2 SLP171 T02221039", "KC09 292235Z AUTO 30017G25KT 10SM BKN110 13/01 A2961 RMK AO2 T01320014", "KC29 292235Z AUTO 31018G24KT 10SM SCT026 BKN032 OVC047 09/03 A2962 RMK AO1 T00880033", "KC35 292235Z AUTO 32010G15KT 10SM SCT022 BKN027 OVC034 07/03 A2962 RMK AO2 T00650025 PWINO", "KC62 292255Z AUTO 30009G14KT 10SM RA BKN015 OVC021 11/10 A2959 RMK AO2 T01120104", "KC65 292235Z AUTO 29006KT 10SM BKN012 BKN016 BKN120 11/09 A2959 RMK A01", "KC75 292235Z AUTO 31014G22KT 10SM OVC070 14/03 A2965 RMK AO2 T01400025", "KC83 292235Z AUTO 22011KT 10SM CLR 30/11 A2994 RMK AO2", "KC99 292235Z AUTO 30012G22KT 10SM BKN060 OVC070 06/M07 A3035 RMK AO2", "KCAD 292235Z AUTO 24003KT 10SM OVC042 08/06 A2951 RMK AO2 T00750060", "KCAE 292156Z 24005KT 10SM FEW060 BKN200 27/14 A2970 RMK AO2 SLP054 T02670139", "KCAG 292153Z AUTO 31009G23KT 10SM CLR 20/M04 A3017 RMK AO2 SLP189 T02001039", "KCAK 292251Z 19007KT 10SM FEW033 BKN120 BKN200 14/09 A2965 RMK AO2 SLP041 T01440089", "KCAO 292155Z AUTO 34011G24KT 310V020 10SM CLR 23/M04 A3008 RMK AO2 PK WND 36032/2119 SLP148 T02281039", "KCAR 292154Z AUTO 17009KT 10SM OVC080 17/01 A3006 RMK AO2 SLP184 T01720011", "KCAV 292235Z AUTO 34021G27KT 10SM FEW039 SCT065 BKN090 11/01 A2975 RMK A01", "KCBE 292245Z AUTO 13004KT 10SM OVC120 18/11 A2974 RMK AO2 T01830112", "KCBF 292235Z AUTO 35017G29KT 10SM FEW060 15/M01 A2980 RMK AO2", "KCBG 292235Z AUTO 34012G17KT 10SM SCT060 SCT075 SCT085 12/00 A2971 RMK AO2", "KCBK 292235Z AUTO 36020G32KT 10SM CLR 23/M05 A2995 RMK AO2 T02311053", "KCBM 292207Z AUTO 14006KT 10SM SCT043 BKN060 M A2962 RMK AO2 LTG DSNT NW SLPNO ALSTG ESTMD $", "KCCA 292235Z AUTO 32007KT 290V360 10SM OVC050 19/10 A2978 RMK AO2", "KCCB 292235Z AUTO 26013KT 9SM CLR 30/11 A2995 RMK AO2", "KCCO 292235Z AUTO 00000KT 10SM SCT047 SCT075 SCT085 21/15 A2970 RMK AO2 T02090153", "KCCR 292153Z 32010KT 10SM CLR 26/12 A2997 RMK AO2 SLP137 T02610117", "KCCU 292235Z AUTO 30015G28KT 10SM CLR 07/M07 A3043 RMK AO2", "KCCY 292235Z AUTO 30014G22KT 10SM FEW044 SCT050 SCT065 10/03 A2970 RMK AO2", "KCDA 292235Z AUTO 07014G22KT 10SM -DZ 07/03 A3000 RMK AO2 T00720030", "KCDC 292153Z AUTO 12003KT 10SM CLR 25/M04 A3017 RMK AO2 SLP165 T02501044", "KCDD 292234Z AUTO 35005G14KT 10SM SCT047 OVC060 06/M03 A2979 RMK AO2 PWINO", "KCDH 292235Z AUTO 00000KT 7SM -DZ OVC075 16/16 A2979 RMK AO2", "KCDI 292235Z AUTO 18007KT 10SM BKN100 17/10 A2968 RMK AO2 T01660096", "KCDJ 292251Z AUTO 01015G34KT 12/09 A2976 RMK AO1 PK WND 01034/2246 SLP079 T01170089", "KCDN 292235Z AUTO 00000KT 10SM CLR 26/13 A2972 RMK AO2", "KCDR 292153Z AUTO 01014KT 10SM CLR 20/M03 A3001 RMK AO2 SLP159 T02001028", "KCDS 292153Z AUTO 34014G22KT 10SM CLR 25/01 A2998 RMK AO2 SLP139 T02500011", "KCDW 292246Z 07007KT 1 3/4SM -RA BR OVC007 11/09 A2986 RMK AO2 CIG 005V011 P0001 T01060089", "KCEC 292156Z AUTO 19007KT 6SM BR OVC006 11/09 A3008 RMK AO2 SLP186 T01110089", "KCEF 292230Z 07008KT 7SM -RA FEW012 SCT020 SCT025 BKN034 BKN045 OVC050 12/05 A2992 RMK AO2A SLP139", "KCEU 292154Z AUTO 00000KT 10SM CLR 22/14 A2973 RMK AO2 SLP061 T02170139", "KCEW 292237Z AUTO 20004KT 10SM BKN018 BKN025 OVC100 22/17 A2967 RMK AO2 T02170172", "KCEY 292235Z AUTO 22005KT 10SM FEW049 BKN055 OVC095 18/15 A2972 RMK A01", "KCEZ 292153Z AUTO 27011G22KT 10SM CLR 24/M06 A3015 RMK AO2 SLP164 T02391056", "KCFD 292235Z AUTO 32015G21KT 10SM SCT065 22/07 A2994 RMK AO2 T02150072", "KCFE 292235Z AUTO 34018KT 10SM BKN080 OVC090 11/M02 A2971 RMK AO2", "KCFJ 292235Z AUTO 28006KT 10SM BKN050 BKN065 OVC100 13/02 A2964 RMK AO2 LTG DSNT S T01250017", "KCFO 292147Z 36012KT 10SM SKC 22/M04 A3011", "KCFS 292235Z AUTO 12004KT 10SM SCT110 16/08 A2952 RMK AO2 T01550078", "KCFV 292252Z AUTO 28010G20KT 10SM CLR 22/05 A2980 RMK AO2 SLP087 T02220050", "KCGC 292235Z AUTO 20004KT 7SM -RA SCT070 BKN090 OVC120 20/19 A2978 RMK AO2 P0008", "KCGE 292245Z AUTO 00000KT 10SM FEW070 17/15 A2976 RMK A01", "KCGF 292245Z 20005KT 10SM SCT040 16/08 A2962", "KCGI 292153Z 25006KT 10SM SCT090 20/13 A2968 RMK AO2 SLP050 T02000128 $", "KCGS 292250Z AUTO 11003KT 10SM CLR 19/12 A2975 RMK AO2 T01880124", "KCGZ 292156Z AUTO VRB05KT 10SM CLR 36/M06 A2991 RMK AO2 SLP111 T03611061 PNO $", "KCHA 292153Z 17011KT 10SM FEW040 SCT140 OVC200 22/13 A2970 RMK AO2 SLP051 T02220133 $", "KCHD 292247Z 10003KT 10SM CLR 37/M07 A2987", "KCHK 292235Z AUTO 27006KT 10SM CLR 22/05 A2990 RMK AO2 T02190054", "KCHO 292153Z 18006KT 10SM FEW047 OVC060 24/13 A2970 RMK AO2 SLP054 T02390128", "KCHS 292156Z 18012KT 10SM SCT065 SCT110 BKN250 27/17 A2973 RMK AO2 SLP067 T02720167", "KCIC 292147Z 15010G18KT 10SM CLR 32/07", "KCID 292252Z 27019G25KT 10SM BKN060 OVC075 11/03 A2968 RMK AO2 SLP052 T01060028 $", "KCIN 292235Z AUTO 34015G24KT 10SM FEW036 SCT044 BKN065 12/04 A2978 RMK AO2", "KCIR 292235Z AUTO 25006KT 10SM SCT075 OVC085 19/13 A2971 RMK AO2 T01900128", "KCIU 292221Z AUTO 12008KT 10SM OVC005 07/06 A2954 RMK AO2 CIG 003V006", "KCJR 292235Z AUTO 11003KT 10SM OVC046 21/14 A2974 RMK AO2 T02070135", "KCKB 292153Z 23005KT 10SM OVC100 17/08 A2970 RMK AO2 SLP049 T01670083", "KCKC 292237Z AUTO 33014G19KT 1/2SM -SN OVC004 00/M01 A2962 RMK AO2", "KCKF 292235Z AUTO 23004KT 4SM RA SCT022 BKN070 OVC095 19/18 A2974 RMK AO2 LTG DSNT E T01930178", "KCKI 292235Z AUTO 00000KT 10SM CLR 27/13 A2971 RMK AO2", "KCKM 292235Z AUTO 35012KT 10SM FEW044 FEW065 SCT100 17/16 A2971 RMK A01", "KCKN 292235Z AUTO 30009KT 10SM SCT024 BKN070 OVC080 07/M48 A2987 RMK AO2 P0001", "KCKP 292235Z AUTO 34015G23KT 10SM SCT090 13/00 A2980 RMK AO2 T01320000", "KCKV 292252Z AUTO 23003KT 5SM -RA FEW043 SCT050 OVC060 17/13 A2971 RMK AO2 RAB37 SLP060 P0002 T01720128", "KCKZ 292235Z AUTO 06007KT 1 1/4SM BR OVC004 11/11 A2981 RMK AO2", "KCLE 292251Z 18009KT 10SM FEW140 OVC150 17/06 A2960 RMK AO2 SLP036 T01670061 $", "KCLI 292235Z AUTO 32010G14KT 10SM -RA OVC019 05/03 A2956 RMK AO2 T00540032", "KCLK 292255Z AUTO 32009KT 10SM CLR 23/01 A2993 RMK AO2", "KCLL 292153Z 33013G23KT 10SM SCT060 23/08 A2993 RMK AO2 PK WND 33030/2136 SLP132 T02280083", "KCLM 292153Z AUTO 31011KT 10SM CLR 16/09 A2998 RMK AO2 SLP152 T01610089", "KCLS 292235Z AUTO VRB03KT 10SM CLR 24/12 A2993 RMK AO2", "KCLT 292252Z 00000KT 10SM FEW021 OVC250 22/16 A2974 RMK AO2 SLP078 T02170156", "KCLW 292235Z AUTO 23006G20KT 4SM -RA SCT014 BKN070 OVC110 21/19 A2984 RMK AO2 P0005", "KCMA 292155Z 27008KT 10SM CLR 18/13 A2999 RMK AO2 SLP164 T01830128", "KCMD 292235Z AUTO 15007KT 10SM SCT034 BKN039 OVC065 22/16 A2970 RMK AO2", "KCMH 292251Z 17010KT 10SM BKN090 15/12 A2964 RMK AO2 SLP037 T01500117", "KCMI 292153Z 27020G28KT 10SM FEW060 19/01 A2961 RMK AO2 PK WND 27029/2121 SLP028 T01940006", "KCMR 292235Z AUTO 31009KT 10SM CLR 25/M13 A3023 RMK AO2", "KCMX 292233Z AUTO 34013KT 4SM RA BR SCT003 OVC016 03/02 A2955 RMK AO2 P0004 T00330017", "KCMY 292155Z AUTO 31006KT 7SM -RA FEW015 SCT024 BKN036 07/05 A2963 RMK AO2 RAE22RAB48 SLP042 P0000 T00690054 FZRANO $", "KCNB 292235Z AUTO 30013G17KT 10SM SCT040 BKN065 OVC070 10/05 A2982 RMK AO2 T00960048 P0001", "KCNC 292235Z AUTO 32009KT 10SM SCT060 08/08 A2975 RMK AO2", "KCNI 292235Z AUTO 23004KT 10SM BKN110 20/13 A2974 RMK AO2 LTG DSNT S T02020132", "KCNK 292155Z AUTO 33024G37KT 10SM CLR 24/M03 A2982 RMK AO2 PK WND 34041/2100 SLP094 T02391028", "KCNM 292153Z AUTO 22004KT 10SM CLR 24/M06 A3008 RMK AO2 SLP155 T02441061", "KCNO 292153Z 26011KT 10SM SCT250 29/14 A2994 RMK AO2 SLP133 T02940144", "KCNU 292252Z AUTO 26015KT 10SM CLR 24/03 A2977 RMK AO2 SLP075 T02390033", "KCNW 292255Z 31015G20KT 10SM SKC 22/04 A2993", "KCNY 292153Z AUTO VRB04KT 10SM CLR 24/M09 A3011 RMK AO2 SLP160 T02441094", "KCOD 292156Z AUTO VRB06KT 10SM CLR 21/M02 A3008 RMK AO2 SLP158 T02111022", "KCOE 292156Z AUTO 00000KT 10SM CLR 26/04 A3000 RMK AO2 SLP164 T02610039 PNO $", "KCOF 292248Z AUTO 28012G23KT 5SM VCTS -RA BR FEW004 22/21 A2980 RMK AO2 RAE23DZB23E25RAB26 TSB32E48 PRESFR SLP096 $", "KCOM 292235Z AUTO 34011G24KT 10SM CLR 24/00 A3000 RMK AO2 T02421002", "KCON 292251Z AUTO 12006G16KT 10SM FEW055 OVC080 09/02 A3003 RMK AO2 RAB14E36 SLP170 P0000 T00890022", "KCOQ 292235Z AUTO 02010G29KT 10SM SCT050 OVC080 08/M04 A2969 RMK AO2 TSNO", "KCOS 292154Z 02012G22KT 10SM FEW120 SCT150 22/M04 A3011 RMK AO2 PK WND 33026/2056 SLP148 T02171044", "KCOT 292153Z AUTO 31016G23KT 10SM CLR 29/00 A2997 RMK AO2 PK WND 33032/2057 SLP140 T02940000", "KCOU 292154Z 28011G19KT 10SM CLR 21/03 A2969 RMK AO2 SLP052 T02060028", "KCPC 292245Z AUTO 17005KT 7SM CLR 26/18 A2973 RMK AO2 T02570181", "KCPF 292235Z AUTO 00000KT 10SM CLR 18/08 A2970 RMK AO2", "KCPK 292255Z AUTO 10006KT 10SM CLR 21/17 A2974 RMK AO2 T02080165", "KCPR 292153Z 34008KT 10SM BKN100 19/M01 A3006 RMK AO2 SLP151 T01891011", "KCPS 292153Z 28008G22KT 10SM CLR 21/03 A2968 RMK AO2 SLP048 T02060033", "KCPT 292235Z AUTO 33016G22KT 10SM CLR 21/04 A2994 RMK A01", "KCPW 292235Z AUTO 30008G15KT 10SM CLR 07/M09 A3050 RMK AO2", "KCQB 292235Z AUTO 29012G19KT 10SM CLR 20/04 A2990 RMK AO2 T02040044", "KCQC 292153Z AUTO 32012G23KT 10SM CLR 21/M07 A3020 RMK AO2 SLP176 T02061067 $", "KCQF 292235Z AUTO 10SM SCT028 BKN037 BKN110 22/17 A2965 RMK AO2", "KCQM 292236Z AUTO 33004G19KT 10SM -DZ SCT070 SCT075 06/M01 A2974 RMK AO2", "KCQT 292247Z AUTO 26006KT 9SM CLR 18/12 A2997 RMK AO2 SLP149 T01780122 $", "KCQW 292235Z AUTO 00000KT 10SM CLR 26/15 A2971 RMK AO2", "KCQX 292252Z AUTO 11012G17KT 10SM SCT070 OVC085 11/08 A3001 RMK AO2 SLP162 T01060078", "KCRE 292153Z 20011KT 10SM CLR 23/21 A2973 RMK AO1 SLP068 T02280206", "KCRG 292225Z 25012G22KT 3SM +RA BR FEW020 BKN080 OVC100 23/21 A2979 RMK AO2 LTG DSNT SE TSB04E19 PRESFR P0013 T02280206", "KCRP 292251Z 31012KT 10SM CLR 26/08 A2993 RMK AO2 PK WND 33027/2156 SLP133 T02610078", "KCRQ 292153Z 24008KT 10SM OVC010 16/12 A2999 RMK AO2 SLP154 T01610117", "KCRS 292153Z AUTO 32012G22KT 10SM FEW060 22/07 A2993 RMK AO2 PK WND 31027/2055 SLP132 T02170072", "KCRW 292154Z 00000KT 10SM SCT110 BKN150 BKN200 19/07 A2971 RMK AO2 SLP056 T01940072", "KCRX 292235Z AUTO 33005KT 10SM BKN039 OVC045 20/14 A2968 RMK AO2 LTG DSNT SE", "KCSG 292251Z 17012G19KT 10SM -RA FEW028 OVC100 21/18 A2967 RMK AO2 RAB11 SLP044 P0001 T02110178", "KCSM 292153Z AUTO 29008KT 10SM CLR 23/04 A2994 RMK AO2 SLP131 T02280039", "KCSQ 292235Z AUTO 33023G31KT 10SM FEW035 FEW041 FEW049 12/05 A2979 RMK AO2", "KCSV 292153Z AUTO VRB04KT 10SM CLR 19/12 A2972 RMK AO2 SLP054 T01890117", "KCTB 292156Z AUTO 10SM CLR 20/00 A3007 RMK AO2 SLP171 T02000000", "KCTJ 292235Z AUTO 00000KT 10SM OVC120 20/14 A2975 RMK AO2 T01990139", "KCTY 292235Z AUTO 19010KT 10SM SCT016 SCT022 21/20 A2972 RMK AO2", "KCTZ 292245Z AUTO 00000KT 10SM CLR 25/19 A2972 RMK AO2 T02540193", "KCUB 292153Z AUTO 21004KT 10SM CLR 27/13 A2971 RMK AO2 SLP059 T02670133", "KCUH 292235Z AUTO 31008KT 10SM CLR 21/03 A2988 RMK AO2 T02050026", "KCUL 292236Z AUTO 28008KT 10SM SCT070 SCT090 OVC110 20/11 A2967 RMK AO2", "KCUT 292153Z AUTO 33010G21KT 10SM BKN095 OVC110 13/M06 A3007 RMK AO2 SLP150 T01281061 $", "KCVC 292235Z AUTO 00000KT 10SM CLR 21/16 A2971 RMK AO2", "KCVG 292252Z 19011KT 10SM FEW100 17/10 A2963 RMK AO2 SLP031 T01670100 $", "KCVH 292235Z AUTO 26010KT 10SM CLR 23/12 A3000 RMK A01", "KCVN 292156Z AUTO 33017G20KT 10SM CLR 23/M04 A3011 RMK AO2 SLP179 T02331039", "KCVO 292156Z AUTO 11004KT 10SM CLR 25/12 A2996 RMK AO2 SLP145 T02500122", "KCVS 292210Z AUTO 34012G18KT 10SM CLR 24/M05 A3008 RMK AO2 WSHFT 08 SLP152 $", "KCVX 292235Z AUTO 00000KT 10SM -RA SCT038 SCT047 SCT050 10/07 A2952 RMK AO2 T00960074", "KCWA 292153Z 32012G17KT 7SM -DZ BKN016 OVC022 04/02 A2958", "KCWC 292235Z AUTO 30009G17KT 10SM CLR 22/02 A2997 RMK AO2 T02210024", "KCWF 292245Z 31016G23KT 10SM BKN0296 17/12 A2983", "KCWI 292156Z AUTO 30015KT 10SM -RA OVC060 12/02 A2965 RMK AO2 RAB26 SLP045 P0000 T01170022", "KCWN 292155Z AUTO 15003KT 10SM SCT100 BKN120 18/M05 A3010 RMK AO2 SLP044 T01771049 $", "KCWV 292235Z AUTO 19003KT 10SM -VCTSRA SCT035 BKN060 OVC080 23/20 A2972 RMK AO2 LTG DSNT SW AND W T02330203", "KCXE 292235Z AUTO 00000KT 10SM SCT041 22/16 A2973 RMK AO1 T02210157", "KCXO 292153Z 32011G23KT 10SM BKN046 OVC055 19/10 A2991 RMK AO2 PK WND 34026/2125 SLP125 T01890100", "KCXP 292235Z AUTO 25010G24KT 9SM CLR 27/M03 A3011 RMK AO2", "KCXU 292235Z AUTO 20006KT 4SM BKN009 OVC015 20/19 A2972 RMK AO1 T02000185", "KCXW 292230Z AUTO 27006KT 10SM SCT050 BKN075 BKN085 19/M36 A2976 RMK A01", "KCXY 292156Z 09004KT 10SM SCT037 OVC060 16/11 A2978 RMK AO2 SLP084 T01610111", "KCYD 292235Z AUTO 23015KT 5SM -RA OVC075 24/18 A2969 RMK A02 T02380181", "KCYS 292153Z 35010G21KT 320V030 10SM BKN100 18/M02 A3011 RMK AO2 SLP139 T01781017", "KCZL 292235Z AUTO 18003KT 10SM CLR 22/16 A2971 RMK AO2", "KCZT 292235Z AUTO 10SM CLR 28/M01 A2997 RMK AO2", "KD07 292156Z AUTO 34022G32KT 16/M06 A2999 RMK AO1 PK WND 36035/2105 SLP160 T01611056", "KD25 292235Z AUTO 33008KT 290V350 5SM -SN BKN010 OVC015 01/01 A2959 RMK AO2 T00140013", "KD39 292235Z AUTO 30014KT 10SM SCT045 SCT060 BKN075 08/03 A2977 RMK AO2 T00770034", "KD50 292235Z AUTO 35023G30KT 10SM SCT075 13/M06 A3009 RMK AO2", "KD55 292235Z AUTO 35015KT 10SM FEW016 FEW021 SCT120 07/07 A2994 RMK AO2", "KD57 292235Z AUTO 34021G31KT 2 1/2SM HZ CLR 14/M07 A3001 RMK AO2", "KD60 292235Z AUTO 34020G27KT 10SM SCT070 12/M06 A3008 RMK AO2", "KD73 292235Z AUTO 00000KT 10SM CLR 21/16 A2972 RMK AO2 T02090161", "KD95 292235Z AUTO 14005KT 10SM BKN110 15/08 A2954 RMK AO2 T01520082", "KDAA 292155Z AUTO 13005KT 10SM CLR 19/13 A2972 RMK AO2 SLP067 T01910130 $", "KDAB 292249Z 20007G16KT 10SM SCT020 BKN030 OVC130 22/19 A2981 RMK AO2 PK WND 17034/2211 LTG DSNT N-SE RAB03E12 TSE06B07E43 TS MOVD NE P0000 $", "KDAG 292250Z AUTO 01007G17KT 10SM CLR 37/M06 A2990 RMK AO2 SLP099 T03671056", "KDAL 292153Z 33020G29KT 10SM FEW055 22/06 A2991 RMK AO2 PK WND 32029/2151 SLP126 T02170056 $", "KDAN 292153Z AUTO VRB03KT 10SM CLR 22/15 A2973 RMK AO2 SLP058 T02220150", "KDAW 292251Z AUTO 10009KT 10SM SCT080 OVC095 09/04 A3005 RMK AO2 SLP176 T00890039", "KDAY 292156Z 19013KT 10SM FEW042 BKN110 18/08 A2961 RMK AO2 SLP023 T01830083 VISNO RWY 6L $", "KDBN 292235Z AUTO 21008G15KT 165V225 5SM RA SCT040 SCT060 OVC070 21/18 A2972 RMK AO2", "KDBQ 292153Z 33015G25KT 10SM FEW060 BKN085 11/02 A2965 RMK AO2 PK WND 33029/2107 SLP044 T01110022", "KDCA 292252Z 18003KT 10SM FEW034 FEW065 BKN250 19/13 A2975 RMK AO2 SLP073 T01890133 $", "KDCM 292235Z AUTO 00000KT 10SM CLR 21/17 A2974 RMK AO2", "KDCU 292153Z AUTO 17007KT 10SM FEW043 BKN060 23/13 A2968 RMK AO2 SLP045 T02330133", "KDCY 292235Z AUTO 23004KT 10SM -RA BKN037 BKN049 BKN060 16/12 A2966 RMK AO2 LTG DSNT NE P0003 T01570124", "KDDC 292252Z AUTO 34016G33KT 9SM SCT110 24/01 A2988 RMK AO2 PK WND 35037/2153 SLP105 T02440006", "KDDH 292154Z AUTO 14014G23KT 10SM -RA FEW044 OVC060 12/03 A2988 RMK AO2 RAB51 SLP117 T01170028 PNO $", "KDEC 292154Z 28010G20KT 10SM CLR 19/02 A2963 RMK AO2 PK WND 27029/2127 SLP032 T01890017", "KDED 292230Z AUTO 29009G18KT 10SM VCTS BKN031 BKN040 OVC060 27/21 A2981 RMK AO2 LTG DSNT NE THRU SE T02670210", "KDEH 292235Z AUTO 33016KT 10SM SCT037 BKN065 BKN075 11/03 A2965 RMK AO2", "KDEN 292153Z 03009G20KT 10SM SCT110 BKN150 BKN200 22/M01 A3009 RMK AO2 SLP139 T02171011", "KDEQ 292153Z AUTO 10SM FEW035 SCT048 19/11 A2983 RMK AO2 SLP099 T01890106 $", "KDET 292153Z 16008KT 10SM FEW047 17/08 A2955 RMK AO2 SLP007 T01720083", "KDEW 292153Z AUTO 00000KT 10SM CLR 26/03 A2999 RMK AO2 SLP149 T02610028", "KDFI 292238Z AUTO 30010G18KT 3SM TSRA BR SCT039 BKN048 OVC065 12/10 A2957 RMK AO2 LTG DSNT S RAB08 TSB09E24B26 P0012 T01220100", "KDFW 292153Z 32019G27KT 10SM FEW060 22/04 A2992 RMK AO2 PK WND 32029/2131 SLP125 T02220039", "KDGW 292153Z AUTO 33015G24KT 10SM BKN085 BKN110 19/M01 A3007 RMK AO2 PK WND 36026/2120 SLP150 T01891011 $", "KDHN 292153Z 13006KT 10SM BKN100 OVC110 20/18 A2971 RMK AO2 RAE42 SLP056 P0000 T02000178", "KDHT 292153Z AUTO 33014G21KT 10SM CLR 23/M02 A3005 RMK AO2 SLP151 T02331022", "KDIJ 292156Z AUTO 02011KT 340V050 10SM CLR 18/M02 A3021 RMK AO2 SLP207 T01781017", "KDIK 292156Z AUTO 32021G32KT 10SM CLR 14/M09 A3002 RMK AO2 PK WND 35034/2134 SLP174 T01391089", "KDKK 292245Z AUTO 23004KT 10SM -RA FEW007 BKN012 OVC021 12/09 A2968 RMK AO2 RAE2155B43 P0000 T01220094", "KDKR 292235Z AUTO 31006KT 10SM FEW039 BKN050 18/12 A2990 RMK AO2", "KDKX 292235Z AUTO 00000KT 10SM CLR 20/15 A2968 RMK A01", "KDLF 292155Z AUTO 32012G24KT 10SM CLR 27/M03 A2998 RMK AO2 SLP145 T02741035 $", "KDLH 292155Z 35015G27KT 10SM -RA FEW034 BKN042 BKN055 06/00 A2968 RMK AO2 PK WND 34029/2113 RAB38 SLP065 P0000 T00610000 $", "KDLL 292255Z AUTO 32009G18KT 10SM -DZ SCT022 BKN029 OVC047 07/04 A2962 RMK AO2 T00690037", "KDLN 292153Z AUTO 32004KT 10SM CLR 22/M06 A3007 RMK AO2 SLP146 T02171061", "KDLO 292235Z AUTO 31008KT 280V340 10SM CLR 31/10 A2989 RMK AO2 T03140104", "KDLS 292153Z AUTO 33009KT 10SM CLR 31/07 A2987 RMK AO2 SLP115 T03060072", "KDLZ 292235Z AUTO 19017G21KT 10SM SCT039 BKN110 16/08 A2963 RMK AO2", "KDMA 292155Z AUTO 00000KT 10SM CLR 34/M11 A2994 RMK AO2 SLP141 T03421108 RVRNO VISNO RWY30 $", "KDMH 292154Z AUTO 19/12 A2975 RMK AO1 SLP073 T01890122", "KDMN 292153Z AUTO 19009KT 10SM CLR 27/M07 A3013 RMK AO2 SLP150 T02671072", "KDMO 292153Z AUTO 27011G21KT 10SM CLR 21/03 A2972 RMK AO2 SLP062 T02110028", "KDMW 292245Z AUTO 07003KT 10SM CLR 18/12 A2976 RMK AO2", "KDNA 292235Z AUTO VRB05KT 10SM CLR 26/M07 A3012 RMK AO2", "KDNL 292153Z AUTO 23003KT 10SM CLR 26/14 A2971 RMK AO2 SLP056 T02560139", "KDNN 292235Z AUTO 00000KT 10SM OVC160 21/15 A2970 RMK AO2 T02070154", "KDNV 292235Z AUTO 19006KT 10SM BKN075 16/06 A2962 RMK AO2 T01560055", "KDOV 292228Z AUTO 24007KT 10SM SCT023 18/14 A2975 RMK AO2 SLP078", "KDPA 292252Z 28009G21KT 10SM SCT070 OVC120 12/02 A2960 RMK AO2 PK WND 31026/2226 SLP025 T01220022", "KDPL 292245Z AUTO 00000KT 10SM CLR 24/20 A2972 RMK AO2", "KDQH 292235Z AUTO 21007KT 10SM -RA OVC110 21/19 A2975 RMK AO2 LTG DSNT N AND NE T02070192", "KDRA 292253Z AUTO 24009G16KT 10SM CLR 33/M09 A2999 RMK AO2 SLP114 T03281089 $ ", "KDRI 292235Z AUTO 31011KT 9SM OVC019 16/13 A2985 RMK AO2 CIG 016V023 T01570134 $", "KDRM 292235Z AUTO 12004KT 10SM OVC005 08/08 A2954 RMK AO2 T00830075", "KDRO 292153Z AUTO 25011G22KT 10SM CLR 23/M04 A3016 RMK AO2 PK WND 22026/2113 SLP164 T02331039", "KDRT 292153Z AUTO 29015G23KT 10SM CLR 29/M02 A3001 RMK AO2 PK WND 28027/2115 RAB17E26 SLP154 P0000 T02891022", "KDSF 292240Z AUTO 19014KT 9SM FEW015 SCT090 23/19 A2968 RMK A01", "KDSM 292154Z 30013KT 10SM FEW025 SCT060 BKN120 BKN200 09/06 A2976 RMK AO2 RAE09 SLP083 P0000 T00940061", "KDSV 292154Z AUTO 15016G22KT 10SM BKN032 OVC041 15/08 A2971 RMK AO2 SLP071 T01500083", "KDTA 292235Z AUTO 13005KT 10SM CLR 26/M08 A3013 RMK AO1", "KDTL 292235Z AUTO 33020KT 10SM FEW024 SCT090 08/03 A2981 RMK AO2", "KDTO 292153Z 33017G23KT 10SM CLR 21/06 A2993 RMK AO2 PK WND 31027/2110 SLP131 T02110056", "KDTS 292250Z 12004KT 10SM SCT012 BKN019 OVC024 22/19 A2965 RMK AO2", "KDTW 292153Z COR 22013KT 10SM FEW047 SCT120 BKN150 17/07 A2956 RMK AO2 SLP009 T01720067", "KDUA 292235Z AUTO 32013G21KT 10SM CLR 22/01 A2992 RMK AO2", "KDUB 292234Z AUTO 34015G22KT 10SM CLR 18/M12 A3016 RMK AO2", "KDUC 292235Z AUTO 31013KT 10SM CLR 21/04 A2995 RMK AO2 T02110036", "KDUG 292156Z AUTO 19006KT 10SM CLR 31/M08 A3007 RMK AO2 SLP122 T03061083 TSNO", "KDUH 292235Z AUTO 18008G14KT 150V220 10SM CLR 18/06 A2955 RMK AO2 T01810064", "KDUJ 292221Z AUTO 11004KT 10SM BKN027 OVC038 11/09 A2969 RMK AO2 T01110094", "KDUX 292235Z AUTO 33011G22KT 10SM CLR 23/M02 A3003 RMK AO2 T02301016", "KDVK 292230Z AUTO 00000KT 10SM BKN070 OVC120 16/11 A2973 RMK AO2", "KDVL 292156Z AUTO 34020KT 10SM FEW065 BKN090 08/03 A2995 RMK AO2 PK WND 33028/2102 RAB08E19 SLP167 P0000 T00780033", "KDVN 292252Z AUTO 31009KT 10SM BKN070 OVC085 13/01 A2967 RMK AO2 PK WND 30027/2153 SLP046 T01280011", "KDVO 292235Z AUTO 35014KT 10SM CLR 22/14 A2997 RMK AO2", "KDVP 292253Z AUTO 33013G20KT 10SM SCT050 BKN065 BKN090 11/M02 A2979 RMK AO2 T01051019", "KDVT 292153Z 16005KT 10SM CLR 35/M09 A2991 RMK AO2 SLP104 T03501094", "KDWA 292235Z AUTO 00000KT 10SM CLR 30/11 A2994 RMK AO2", "KDWH 292153Z 32012G21KT 10SM BKN050 BKN060 21/09 A2991 RMK AO2 PK WND 34026/2101 SLP125 T02060094", "KDWU 292156Z AUTO 29003KT 10SM OVC090 17/12 A2972 RMK AO2 SLP061 T01720117", "KDWX 292235Z AUTO 25008KT 10SM CLR 20/M01 A3019 RMK AO2 T01961014", "KDXR 292241Z 08008KT 1 3/4SM RA BR OVC010 11/09 A2988 RMK AO2 P0003 T01060089", "KDXX 292235Z AUTO 35019G26KT 10SM BKN040 BKN049 OVC060 12/03 A2982 RMK AO2", "KDYA 292235Z AUTO 00000KT 10SM CLR 24/17 A2964 RMK AO2 T02410172", "KDYB 292235Z AUTO VRB04G10KT 9SM BKN110 27/17 A2971 RMK AO2", "KDYL 292215Z AUTO 03004KT 2SM BR OVC004 12/11 A2980 RMK AO2 CIG 003V007 T01220106", "KDYR 292156Z AUTO 00000KT 10SM OVC048 18/13 A2974 RMK AO2 SLP077 T01830128", "KDYS 292155Z AUTO 35011KT 10SM CLR 24/M02 A2997 RMK AO2 SLP127 T02411017", "KDYT 292235Z AUTO 33014G21KT 10SM FEW060 BKN070 OVC080 08/00 A2969 RMK AO2", "KDZB 292235Z AUTO 33014G18KT 10SM CLR 24/00 A2997 RMK AO2 T02420003", "KDZJ 292235Z AUTO 21006KT 10SM BKN120 20/11 A2975 RMK AO2 T01960109", "KE11 292235Z AUTO 34011G16KT 10SM CLR 26/M05 A3006 RMK AO2 T02591047", "KE16 292235Z AUTO 32010KT 10SM CLR 27/07 A2999 RMK AO2", "KE38 292235Z AUTO 06003KT 10SM CLR 24/M07 A3019 RMK AO2 T02411067", "KE41 292235Z AUTO 31010G16KT 10SM CLR 25/M05 A3006 RMK AO2 T02531049", "KE42 292235Z AUTO 31017G25KT 10SM CLR 24/01 A3000 RMK AO2 T02400007", "KEAN 292230Z AUTO 33014KT 10SM SCT100 22/M01 A3004 RMK AO2 T02151011", "KEAR 292156Z AUTO 33020G41KT 10SM CLR 20/M03 A2989 RMK AO2 PK WND 34041/2148 SLP119 T02001028", "KEAT 292155Z AUTO 11006KT 10SM CLR 26/ A2992 RMK AO2 SLP124 T0261 $", "KEAU 292156Z 36009G23KT 4SM -RA FEW027 BKN055 OVC070 07/03 A2964 RMK AO2 RAE07B50 SLP045 P0003 T00670028", "KEBA 292235Z AUTO 00000KT 10SM CLR 22/17 A2972 RMK AO2 T02170172", "KEBG 292235Z AUTO 34016G24KT 10SM CLR 28/03 A2996 RMK AO2 T02750034", "KEBS 292235Z AUTO 34017G26KT 10SM FEW042 BKN070 BKN095 12/01 A2975 RMK AO2", "KECG 292154Z 12008KT 10SM CLR 22/17 A2977 RMK AO2 SLP079 T02170167", "KECP 292205Z 11008KT 10SM BKN012 OVC019 22/19 A2966 RMK AO1 T02170189", "KECS 292235Z AUTO 36015G18KT 10SM BKN080 16/M05 A3007 RMK AO2", "KECU 292235Z AUTO 31016G22KT 10SM CLR 25/M06 A3007 RMK AO2", "KEDC 292235Z AUTO 33015G18KT 10SM CLR 23/04 A2994 RMK AO2", "KEDE 292245Z AUTO 08005KT 10SM SCT055 22/19 A2976 RMK AO2 T02170193", "KEDJ 292235Z AUTO 21012KT 10SM 17/09 A2959 RMK A01", "KEDN 292235Z AUTO 00000KT 10SM OVC009 20/19 A2967 RMK AO2 T02000192 PWINO", "KEDU 292235Z AUTO 15006KT 10SM CLR 29/11 A2993 RMK AO1", "KEDW 292155Z AUTO 20003KT 10SM CLR 34/00 A2995 RMK AO2 SLP120 T03380004", "KEED 292156Z AUTO 36008KT 10SM CLR 38/M08 A2988 RMK AO2 SLP083 T03831083", "KEEN 292156Z AUTO VRB06KT 10SM 11/02 RMK AO2 RAB09E23 SLPNO P0000 T01110017 $", "KEEO 292153Z AUTO 25012G19KT 10SM CLR 20/M04 A3019 RMK AO2 SLP177 T02001039", "KEET 292153Z AUTO VRB03KT 10SM CLR 23/15 A2969 RMK AO2 SLP050 T02330150", "KEFD 292254Z 33020G29KT 10SM SCT049 21/09 A2988", "KEFK 292235Z AUTO 14013KT 10SM OVC070 09/04 A2999 RMK AO2 T00900040", "KEFT 292255Z AUTO 30016G23KT 10SM SCT038 BKN055 OVC070 09/02 A2961 RMK AO2 T00900020", "KEGE 292156Z 27012G17KT 210V320 10SM CLR 21/M04 A3019 RMK AO2 SLP124 T02061044", "KEGI 292155Z AUTO 00000KT 10SM BKN015 BKN022 OVC100 21/17 A2967 RMK AO2 CIG 015V100 SLP047 T02060170 $", "KEGT 292235Z AUTO 24012G15KT 10SM CLR 24/04 A2981 RMK AO2 P0001 T02420044", "KEGV 292235Z AUTO 33011KT 5SM UP OVC011 02/02 A2956 RMK AO2 T00200017", "KEHA 292235Z AUTO 32018G26KT 10SM SCT100 24/M01 A3001 RMK AO2 T02431013", "KEHO 292245Z AUTO 00000KT 10SM CLR 20/16 A2974 RMK AO2 T01960160", "KEHR 292156Z AUTO 21008KT 10SM SCT065 OVC085 18/12 A2969 RMK AO2 SLP052 T01780122", "KEIK 292235Z AUTO 07005KT 10SM SCT120 23/M04 A3006 RMK AO2 T02291044", "KEKE 292230Z AUTO 27030KT 10SM FEW023 FEW033 OVC044 19/13 A2969 RMK A01", "KEKM 292235Z VRB03KT 2SM BR BKN007 OVC011 09/09 A2960 RMK AO2 RAE2225 CIG 005V010 P0002 T00880088 $", "KEKN 292251Z AUTO 02003KT 10SM SCT110 18/07 A2973 RMK AO2 SLP065 T01780072", "KEKO 292156Z AUTO 10SM CLR 27/M05 A3011 RMK AO2 SLP159 T02721050", "KEKQ 292156Z AUTO 33006KT 10SM FEW120 19/11 A2972 RMK AO2 SLP058 T01940106", "KEKS 292235Z AUTO 32012KT 10SM CLR 22/M07 A3012 RMK AO2", "KEKX 292235Z AUTO 22008KT 10SM SCT060 BKN100 17/11 A2971 RMK AO2 T01650112", "KEKY 292156Z AUTO VRB05KT 10SM CLR A2969 RMK AO2 SLPNO FZRANO $", "KELA 292235Z AUTO 34012G18KT 10SM CLR 23/09 A2992 RMK AO2 T02260087", "KELD 292219Z AUTO 31009KT 10SM -RA SCT010 BKN038 BKN070 16/14 A2979 RMK AO2 RAE2157B01 P0000 T01610144 $", "KELK 292235Z AUTO 32015G20KT 10SM CLR 24/03 A2993 RMK AO2 SLP423 T02380027 $", "KELM 292241Z 17003KT 1 3/4SM -RA BR FEW012 FEW019 OVC028 12/11 A2976 RMK AO2 RAE03B23 P0001 T01220111", "KELN 292153Z AUTO 00000KT 10SM CLR 28/06 A2993 RMK AO2 SLP127 T02780056", "KELO 292235Z AUTO 36008G23KT 10SM SCT039 05/M02 A2972 RMK AO2", "KELP 292251Z 22004KT 10SM CLR 26/M06 A3009 RMK AO2 SLP139 T02611056", "KELY 292153Z AUTO 24008KT 190V270 10SM CLR 25/M06 A3018 RMK AO2 SLP147 T02501056 $", "KELZ 292224Z AUTO 16008KT 5SM BR BKN013 OVC019 10/08 A2973 RMK AO2 T01000078", "KEMM 292235Z AUTO 27011KT 10SM CLR 11/M05 A3025 RMK AO2 TSNO", "KEMP 292153Z AUTO 24015G24KT 10SM CLR 23/04 A2975 RMK AO2 SLP073 T02330039", "KEMT 292245Z 20008G15KT 8SM CLR 25/12 A2994", "KEMV 292255Z AUTO 00000KT 10SM CLR 22/16 A2975 RMK AO2 T02200164", "KEND 292155Z AUTO 29011KT 10SM CLR 22/05 A2986 RMK AO2 SLP110 T02230052 $", "KENL 292235Z AUTO 28012G16KT 10SM SCT055 20/08 A2969 RMK AO2 T01950082", "KENV 292156Z AUTO 10007KT 10SM CLR 22/M01 A3012 RMK AO2 SLP183 T02221011", "KENW 292153Z 29010G17KT 10SM SCT039 OVC049 12/04 A2956 RMK AO2 SLP014 T01170039", "KEOE 292235Z AUTO 00000KT 10SM CLR 22/15 A2975 RMK AO2", "KEOK 292235Z AUTO 34011G20KT 6SM BR BKN047 BKN055 08/07 A2974 RMK A01", "KEPH 292153Z AUTO 14006KT 10SM CLR 27/04 A2992 RMK AO2 SLP127 T02720044", "KEQA 292235Z AUTO 27010G16KT 10SM CLR 25/01 A2977 RMK AO2", "KEQY 292153Z AUTO 28003KT 10SM CLR 23/16 A2973 RMK AO2 SLP069 T02280156 $", "KERI 292251Z AUTO 00000KT 10SM OVC055 12/10 A2966 RMK AO2 SLP043 T01220100", "KERV 292235Z AUTO 34015G23KT 10SM CLR 25/M02 A2998 RMK AO2 T02491020", "KERY 292235Z AUTO 06004KT 10SM OVC023 10/07 A2950 RMK AO2 T00980071", "KESC 292156Z AUTO 08006KT 5SM -RA BR OVC004 07/07 A2950 RMK AO2 SLP999 P0003 T00720072", "KESF 292241Z AUTO 30007G18KT 270V330 10SM BKN014 BKN030 OVC100 18/15 A2975 RMK AO2 RAB07E37 P0000 T01780150", "KESN 292245Z 05003KT 10SM CLR 16/14 A2980", "KEST 292252Z AUTO 35016G25KT 10SM OVC055 11/M01 A2976 RMK AO2 PK WND 33032/2208 SLP085 T01111006", "KETB 292255Z AUTO 28009G16KT 10SM BKN025 OVC034 07/02 A2957 RMK AO2", "KETC 292240Z AUTO 00000KT 7SM CLR 24/19 A2973 RMK AO2 T02360190", "KETH 292233Z AUTO 31019G24KT 10SM SCT035 SCT043 10/03 A2984 RMK AO2", "KETN 292230Z AUTO 33013G21KT 10SM CLR 21/03 A2998 RMK AO2 T02140028", "KEUF 292158Z AUTO 15004KT 10SM -RA SCT075 OVC100 21/21 A2970 RMK AO2 SLP056 P0002 T02110211", "KEUG 292154Z VRB03KT 10SM FEW060 27/08 A2995 RMK AO2 SLP142 T02720078", "KEUL 292156Z AUTO VRB05KT 9SM CLR 27/02 A3001 RMK AO2 SLP150 T02720022", "KEVB 292247Z 20009KT 8SM FEW0058 BKN050 21/21 A2982 RMK TE2133", "KEVM 292242Z AUTO 34012G17KT 10SM SCT048 OVC065 06/M01 A2973 RMK AO2", "KEVU 292235Z AUTO 36016G27KT 10SM CLR 17/04 A2977 RMK AO2 T01740045", "KEVV 292154Z 21010KT 10SM BKN080 OVC100 18/12 A2969 RMK AO2 RAB14E24 SLP051 P0000 T01830122 $", "KEVW 292153Z AUTO 26011KT 10SM CLR 14/M07 A3026 RMK AO2 SLP201 T01391067", "KEWB 292153Z 09010KT 060V120 10SM -RA FEW046 OVC055 09/06 A2998 RMK AO2 RAB09 SLP153 P0000 T00940061", "KEWK 292156Z AUTO 28016KT 10SM SCT110 25/02 A2979 RMK AO2 SLP079 T02500022", "KEWN 292154Z 05006KT 10SM BKN050 24/21 A2975 RMK AO2 RAB07E31 SLP074 P0004 T02390206", "KEWR 292251Z 02009KT 2SM -RA BR OVC004 12/11 A2984 RMK AO2 SLP103 P0005 T01170106 $", "KEXX 292250Z AUTO 23003KT 10SM CLR 19/16 A2975 RMK AO2 T01920163", "KEYE 292153Z AUTO 27006KT 7SM -RA FEW035 OVC065 14/12 A2962 RMK AO2 PK WND 24026/2125 LTG DSNT E AND S RAE2055B25 TSE2057 SLP029 P0003 T01390117 $", "KEYF 292250Z AUTO 18005KT 10SM SCT070 26/18 A2972 RMK AO2 T02600177", "KEYW 292153Z 15007KT 10SM CLR 29/24 A2985 RMK AO2 SLP112 T02940239", "KEZF 292235Z AUTO 11006KT 10SM SCT049 SCT060 21/14 A2972 RMK AO2 T02140140", "KEZM 292235Z AUTO 23006KT 3SM +VCTSRA SCT009 BKN018 OVC037 20/19 A2973 RMK AO2 LTG DSNT NE THRU SE", "KEZP 292250Z AUTO 33033KT 10SM FEW032 FEW042 BKN050 19/13 A2982 RMK A01", "KEZS 292235Z AUTO 31007G14KT 10SM OVC019 07/04 A2954 RMK AO2 T00650042", "KEZZ 292235Z AUTO 01031G41KT 10SM SCT080 BKN110 18/05 A2970 RMK AO2 T01810051", "KF00 292235Z AUTO 29014G19KT 10SM CLR 20/06 A2990 RMK AO2 T02030056", "KF05 292235Z AUTO 32010KT 10SM CLR 25/03 A2995 RMK AO2 T02530031", "KF17 292229Z AUTO 33008G17KT 10SM SCT027 SCT037 BKN043 18/11 A2987 RMK AO2", "KF44 292235Z AUTO 34006KT 10SM SCT050 20/07 A2989 RMK AO2", "KF46 292235Z AUTO 33012KT 10SM CLR 21/06 A2991 RMK AO2 T02070064", "KF70 292235Z AUTO 21008G14KT 10SM CLR 27/13 A2996 RMK AO2", "KFAF 292155Z AUTO 15006KT 10SM CLR 23/14 A2972 RMK AO2 SLP068 T02270135 $", "KFAM 292156Z AUTO VRB04KT 10SM CLR 19/07 A2972 RMK AO2 SLP070 T01890072", "KFAR 292153Z 01010KT 8SM -RA FEW027 BKN039 OVC055 09/05 A2986 RMK AO2 PK WND 01032/2120 RAB07 SLP121 P0000 T00940050", "KFAT 292153Z 26004KT 10SM FEW100 BKN200 34/13 A2992 RMK AO2 SLP128 CU OMTNS NE T03390128", "KFAY 292153Z 20006KT 10SM CLR 27/13 A2971 RMK AO2 SLP052 T02720133", "KFBG 292155Z AUTO 20004KT 10SM CLR 27/13 A2969 RMK AO2 SLP055 T02650125 $", "KFBL 292235Z AUTO 31008KT 10SM -RA SCT032 BKN050 BKN070 10/02 A2972 RMK AO2", "KFCI 292156Z AUTO 16008KT 10SM SCT045 BKN060 23/15 A2973 RMK AO2 SLP079 T02280150", "KFCM 292153Z 36013G25KT 10SM FEW050 BKN095 OVC110 11/M01 A2970 RMK AO2 RAB31E41 SLP060 P0000 T01061006", "KFCS 292155Z AUTO 20010KT 10SM FEW110 22/M05 A3006 RMK AO2 SLP160 T02201050 $", "KFDK 292247Z 00000KT 10SM BKN030 19/13 A2975", "KFDR 292153Z AUTO 33009KT 10SM CLR 24/05 A2993 RMK AO2 SLP125 T02390050", "KFDW 292235Z AUTO 00000KT 10SM CLR 23/15 A2972 RMK AO1", "KFDY 292153Z AUTO 17015KT 10SM CLR 19/07 A2956 RMK AO2 SLP003 T01890072", "KFEP 292235Z AUTO 31014G20KT 10SM SCT042 BKN049 OVC075 11/04 A2964 RMK AO2 T01070042", "KFET 292235Z AUTO 35019G26KT 10SM SCT075 SCT100 15/02 A2984 RMK AO2 T01490019", "KFEW 292158Z 33010G20KT 10SM SCT100 18/M02 A3012 RMK SLPNO WND DATA ESTMD ALSTG ESTMD $", "KFFA 292255Z AUTO 13006KT 10SM CLR 17/15 A2977 RMK AO2 T01700151", "KFFC 292153Z AUTO 29003KT 10SM FEW049 21/17 A2972 RMK AO2 SLP064 T02110167", "KFFL 292235Z AUTO 28009KT 9SM SCT037 SCT048 08/06 A2973 RMK A01", "KFFM 292235Z AUTO 36007KT 10SM -RA BKN025 BKN036 BKN065 05/03 A2983 RMK AO P0005", "KFFO 292155Z 18015G23KT 10SM FEW045 SCT060 BKN085 18/09 A2957 RMK AO2A SLP015 T01780092", "KFFT 292153Z AUTO 18008KT 10SM FEW060 BKN080 BKN090 16/11 A2970 RMK AO2 SLP055 T01610106", "KFFX 292235Z AUTO 28012KT 3SM BR OVC005 07/07 A2955 RMK AO2 T00710068", "KFFZ 292154Z 25004KT 10SM CLR 36/M06 A2989 RMK AO2 SLP097 T03561056", "KFGN 292235Z AUTO 02014KT 10SM SCT070 07/M05 A2987 RMK AO2", "KFGX 292235Z AUTO 26005KT 10SM SCT050 SCT065 OVC075 15/11 A2971 RMK AO2 T01500105", "KFHB 292235Z AUTO 24017G27KT 5SM -RA OVC110 22/ A2979 RMK AO2 LTG DSNT SE P0005", "KFHR 292153Z AUTO 14005KT 10SM CLR 19/10 A2996 RMK AO2 SLP144 T01940100", "KFHU 292218Z AUTO 00000KT 10SM CLR 30/M11 A3009 RMK AO2 SLP130", "KFIG 292154Z AUTO VRB03KT 10SM SCT025 BKN032 OVC042 12/08 A2975 RMK AO2 SLP077 T01170083 $", "KFIN 292150Z 29012G22KT 10SM SCT015 BKN035 23/21 A2980", "KFKL 292156Z AUTO 19008KT 10SM SCT014 BKN022 OVC050 12/12 A2970 RMK AO2 RAE38 SLP060 P0000 T01220117", "KFKN 292235Z AUTO 14004KT 10SM CLR 23/15 A2974 RMK AO2 T02290152", "KFKR 292235Z AUTO 29012KT 9SM BKN050 BKN065 OVC085 13/06 A2962 RMK AO2", "KFKS 292235Z AUTO 21004KT 4SM BR BKN005 BKN009 OVC040 06/05 A2952 RMK AO2 T00620051", "KFLD 292153Z AUTO 29014G24KT 10SM BKN021 OVC031 07/02 A2957 RMK AO2 SLP017 T00720022", "KFLG 292215Z AUTO 17009G18KT 10SM CLR 24/M07 A3024 RMK AO2 WSHFT 2155 T02391067", "KFLL 292253Z 18012KT 10SM FEW026 SCT045 BKN250 30/22 A2986", "KFLO 292153Z 19006KT 10SM CLR 27/13 A2971 RMK AO2 SLP058 T02720128", "KFLP 292156Z AUTO 28010G16KT 10SM FEW046 21/08 A2977 RMK AO2 SLP078 T02060083", "KFLY 292235Z AUTO 01014G20KT 10SM CLR 19/M02 A3015 RMK AO2 T01881022", "KFME 292249Z AUTO 11005KT 10SM CLR 17/13 A2978 RMK AO1", "KFMH 292156Z 11012G20KT 7SM BKN050 10/06 A2998", "KFMM 292235Z AUTO 34022KT 10SM FEW100 23/M01 A3003 RMK AO2 LTG DSNT S", "KFMN 292153Z 27018G27KT 10SM CLR 26/M08 A3012 RMK AO2 PK WND 29027/2148 SLP161 T02561078", "KFMY 292153Z 23014G27KT 10SM CLR 29/22 A2984 RMK AO2 PK WND 25027/2151 SLP107 T02890222", "KFNB 292153Z AUTO 01023G40KT 10SM FEW026 FEW095 20/05 A2972 RMK AO2 PK WND 34041/2139 SLP063 T02000050", "KFNL 292156Z 02016G23KT 10SM SCT110 23/M02 A3004 RMK AO2 SLP133 T02331017", "KFNT 292153Z 16006KT 10SM CLR 16/09 A2952 RMK AO2 SLP997 T01610089", "KFOA 292235Z AUTO 28010KT 10SM CLR 19/09 A2968 RMK AO2", "KFOD 292156Z AUTO 33013G18KT 10SM BKN060 11/02 A2978 RMK AO2 RAE10 SLP103 P0000 T01060017", "KFOE 292153Z 27019G26KT 10SM BKN100 25/04 A2969 RMK AO2 PK WND 28031/2058 SLP050 T02500044 $", "KFOK 292250Z 09011G23KT 2SM -RA BR OVC006 10/10 A2986 RMK AO2 PK WND 10029/2205 P0006", "KFOZ 292253Z AUTO 34009G18KT 323V023 10SM SCT050 SCT055 BKN080 09/M03 A2983 RMK AO2", "KFPK 292235Z AUTO 26007KT 7SM DZ SCT042 BKN060 OVC080 11/08 A2956 RMK AO2 T01070077 P0002", "KFPR 292153Z 16008KT 10SM FEW047 BKN060 BKN085 23/21 A2982 RMK AO2 LTG DSNT NW-E RAE43 TSB22E37 SLP098 P0010 T02330211", "KFPY 292235Z AUTO 13011G14KT 10SM SCT014 BKN023 OVC090 21/20 A2970 RMK AO2 P0001 T02090196", "KFQD 292245Z AUTO 13004KT 10SM CLR 20/15 A2975 RMK AO2", "KFRG 292153Z AUTO 09011G24KT 4SM -RA BR OVC007 11/10 A2984 RMK AO2 CIG 005V011 SLP105 P0005 T01110100", "KFRH 292235Z AUTO 24006KT 10SM SCT120 17/09 A2966 RMK AO1", "KFRI 292155Z AUTO 32020G27KT 10SM CLR 25/M03 A2976 RMK AO2 PK WND 33032/31 SLP073 T02471028", "KFRM 292156Z AUTO 32013KT 10SM -RA FEW026 SCT070 BKN100 09/03 A2977 RMK AO2 PK WND 31026/2146 RAB47 SLP090 P0000 T00940033", "KFRR 292255Z AUTO 00000KT 10SM CLR M37/M41 A2971 RMK AO1", "KFSD 292156Z 33019G33KT 10SM FEW055 FEW075 SCT095 15/01 A2983 RMK AO2 PK WND 34033/2133 RAE05B34E44 SLP107 P0000 T01500011", "KFSE 292235Z AUTO 35019G25KT 10SM -RA SCT022 BKN050 OVC055 07/00 A2984 RMK AO2", "KFSI 292155Z AUTO 34009KT 10SM CLR 22/04 A2991 RMK AO2 SLP125 T02220043 FZRANO $", "KFSK 292235Z AUTO 26013G17KT 10SM CLR 22/02 A2977 RMK AO2 T02220022", "KFSM 292153Z 32012G22KT 10SM FEW055 21/07 A2982 RMK AO2 SLP093 T02110072", "KFST 292153Z AUTO VRB04KT 10SM CLR 23/M04 A3011 RMK AO2 SLP163 T02331044 $", "KFSW 292235Z AUTO 30006KT 5SM RA 08/07 A2972 RMK AO2 P0006", "KFTK 292155Z AUTO 22008KT 10SM FEW030 SCT100 18/10 A2967 RMK AO2 SLP048 T01810102", "KFTN 292235Z AUTO 33014G23KT 10SM CLR 28/M01 A3001 RMK A01", "KFTW 292153Z 33013G24KT 10SM CLR 21/06 A2993 RMK AO2 PK WND 32028/2134 SLP131 T02110056", "KFTY 292153Z 27005KT 10SM FEW110 22/14 A2972 RMK AO2 SLP060 T02220139", "KFUL 292153Z VRB05KT 9SM CLR 25/13 A2994 RMK AO2 SLP139 T02500128", "KFVE 292153Z AUTO 17010KT 10SM OVC075 16/00 A3005 RMK AO2 SLP180 T01610000 $", "KFVX 292235Z AUTO 16005KT 10SM SCT060 22/15 A2971 RMK AO2 T02170147", "KFWA 292243Z 20009KT 2SM +RA BR SCT028 BKN040 OVC090 13/11 A2957 RMK AO2 RAB33 P0005 T01330111 $", "KFWB 292235Z AUTO 30008G15KT 10SM CLR 19/03 A2980 RMK AO2", "KFWC 292235Z AUTO 25005KT 10SM SCT065 SCT080 OVC100 18/09 A2968 RMK AO1 T01820092", "KFWN 292240Z AUTO 01005KT 4SM BR BKN009 OVC014 11/10 A2986 RMK AO2 CIG 007V011 T01060100", "KFWS 292247Z 30017G23KT 10SM CLR 22/03 A2995", "KFXE 292153Z AUTO 16011KT 10SM FEW055 31/23 A2983 RMK AO2 LTG DSNT NE SLP104 T03110233 PNO", "KFXY 292235Z AUTO 34014G31KT 3SM RA BKN026 OVC036 06/03 A2977 RMK AO2 P0002", "KFYE 292235Z AUTO 00000KT 6SM BR SCT039 SCT085 16/15 A2971 RMK A01", "KFYG 292235Z AUTO 24003G11KT 10SM 21/03 A2967 RMK AO2", "KFYJ 292235Z AUTO 00000KT 10SM CLR 21/15 A2975 RMK AO1 T02140154", "KFYM 292235Z AUTO 19007KT 10SM BKN043 BKN049 22/14 A2970 RMK A01", "KFYV 292153Z 32009KT 10SM CLR 19/04 A2983 RMK AO2 SLP095 T01890044", "KFZG 292235Z AUTO 22007KT 10SM SCT014 SCT028 OVC120 21/18 A2973 RMK AO2 LTG DSNT NE AND E T02050183", "KFZY 292210Z AUTO VRB06KT 3SM -RA BR OVC008 09/08 A2977 RMK AO2 P0001 T00940083", "KGAD 292156Z AUTO 00000KT 10SM CLR 21/17 A2971 RMK AO2 SLP064 T02110167 PNO $", "KGAF 292255Z AUTO 36017KT 9SM SCT060 SCT065 SCT100 09/04 A2992 RMK AO2", "KGAG 292253Z AUTO 34013G19KT 10SM CLR 25/02 A2991 RMK AO2 SLP118 T02500017", "KGAI 292156Z AUTO 14006KT 10SM CLR 19/13 A2976 RMK AO2 SLP089 T01890128", "KGAO 292235Z AUTO 29006KT 10SM SCT013 BKN060 OVC070 22/18 A2970 RMK AO2 T02150183", "KGBD 292156Z AUTO 32023G29KT 10SM CLR 26/M01 A2982 RMK AO2 PK WND 35032/2119 SLP093 T02611011", "KGBG 292235Z AUTO 28015G24KT 10SM SCT050 SCT095 12/04 A2970 RMK AO2 T01160039 TSNO", "KGCC 292153Z AUTO 34013G20KT 10SM CLR 18/M01 A3008 RMK AO2 SLP165 T01781011", "KGCD 292235Z AUTO 00000KT 10SM CLR 27/M01 A2999 RMK AO2 T02741006", "KGCK 292154Z 35017KT 10SM FEW110 24/02 A2992 RMK AO2 PK WND 32031/2129 SLP118 T02440017", "KGCM 292235Z AUTO 28009KT 10SM CLR 21/05 A2984 RMK AO2", "KGCN 292154Z 28009G16KT 10SM CLR 25/M08 A3024 RMK AO2 SLP174 T02501078", "KGCY 292235Z AUTO 00000KT 10SM CLR 20/11 A2970 RMK A01", "KGDA 292235Z AUTO 23005KT 10SM SCT075 OVC085 18/11 A2970 RMK AO2 T01750106 PWINO", "KGDB 292235Z AUTO 32016G22KT 10SM SCT046 BKN075 OVC085 12/03 A2981 RMK AO2 T01160030", "KGDJ 292235Z AUTO 32013G16KT 10SM CLR 21/03 A2996 RMK AO2 T02130028", "KGDP 292251Z AUTO 26015G25KT 7SM CLR 23/M06 A3018 RMK AO2 PK WND 25029/2236 SLP173 T02281061 $", "KGDV 292156Z AUTO 33013G24KT 10SM CLR 16/M06 A3010 RMK AO2 PK WND 33026/2102 SLP196 T01611056 TSNO", "KGED 292154Z AUTO VRB03KT 10SM FEW027 22/14 A2977 RMK AO2 SLP079 T02170144 PNO $", "KGEG 292153Z VRB04KT 10SM BKN250 26/04 A2999 RMK AO2 SLP143 T02610039", "KGEU 292248Z 10004KT 10SM SKC 36/M10 A2984", "KGEV 292245Z AUTO 00000KT 10SM OVC016 15/12 A2980 RMK AO2 T01510120", "KGEY 292153Z AUTO 10SM CLR 24/M04 A3002 RMK AO2 SLP150 T02391039", "KGEZ 292239Z AUTO 26016G28KT 4SM VCTS -RA BKN055 OVC070 14/10 A2963 RMK AO2 PK WND 29028/2230 WSHFT 2211 LTG DSNT NE AND E AND SW RAB2154 P0003 T01440100 $", "KGFA 292155Z AUTO 06004KT 10SM CLR 21/02 A3006 RMK AO2 SLP181 T02080021 $", "KGFK 292153Z 34012G19KT 10SM BKN032 BKN039 BKN065 10/05 A2988 RMK AO2 PK WND 03029/2111 WSHFT 2105 RAB15E42GRB20E30 SLP126 VIRGA ACC ALQDS VCSH P0002 T01000050 $", "KGFL 292153Z AUTO 07006KT 10SM OVC050 12/04 A2989 RMK AO2 SLP127 T01170044", "KGGE 292235Z AUTO 20010KT 10SM SCT120 25/17 A2974 RMK AO2", "KGGF 292235Z AUTO 36021G28KT 10SM CLR 21/M06 A2996 RMK AO2", "KGGG 292153Z 32014G22KT 10SM SCT035 BKN043 18/11 A2986 RMK AO2 SLP110 T01830111", "KGGI 292235Z AUTO 28013KT 10SM CLR 12/06 A2974 RMK AO2 T01150061", "KGGP 292235Z AUTO 30006KT 10SM -RA BKN065 OVC080 11/03 A2962 RMK AO2", "KGGW 292153Z AUTO 33010KT 10SM CLR 17/M05 A3012 RMK AO2 SLP205 T01721050", "KGHG 292235Z AUTO 10010KT 10SM FEW016 BKN043 BKN055 10/07 A3001 RMK AO2", "KGHW 292235Z AUTO 30016G22KT 10SM SCT070 09/05 A2979 RMK AO2", "KGIC 292235Z AUTO 09008G14KT 10SM CLR 25/04 A3001 RMK AO1", "KGIF 292251Z AUTO 24013G22KT 10SM VCTS -RA FEW029 FEW055 SCT110 27/21 A2983 RMK AO2 PK WND 24031/2157 LTG DSNT S AND SW RAB50 P0000", "KGJT 292153Z 10SM CLR 23/M07 A3014 RMK AO2 SLP164 T02281072", "KGKJ 292210Z AUTO 20007KT 10SM FEW024 BKN038 OVC048 13/09 A2966 RMK AO2 T01330089", "KGKY 292153Z 29018G26KT 10SM CLR 22/03 A2992 RMK AO2 PK WND 29028/2137 SLP127 T02170028", "KGLD 292153Z AUTO 34024G33KT 10SM FEW100 24/M03 A2995 RMK AO2 PK WND 36040/2123 SLP128 T02391033", "KGLE 292235Z AUTO 32014G19KT 10SM CLR 21/02 A2994 RMK AO2 T02080024 PWINO", "KGLH 292243Z 35018KT 3/4SM VCTS +RA BR FEW005 OVC015 15/14 A2969 RMK AO2 LTG DSNT SE AND S TSB06E37 P0157 T01500144", "KGLR 292153Z AUTO 00000KT 10SM -RA BKN032 OVC039 13/06 A2950 RMK AO2 RAB48 SLP991 P0000 T01280056", "KGLS 292252Z AUTO 33021G30KT 10SM FEW049 22/11 A2988 RMK AO2 PK WND 32032/2234 SLP116 T02220106", "KGLW 292235Z AUTO 24004KT 10SM -DZ SCT090 OVC110 18/11 A2971 RMK AO2 T01810114", "KGLY 292235Z AUTO 26011G20KT 10SM CLR 21/03 A2972 RMK AO2", "KGMJ 292235Z AUTO 31009KT 10SM CLR 20/04 A2983 RMK AO2", "KGMU 292153Z 20008KT 10SM CLR 23/13 A2975 RMK AO2 SLP067 T02330128", "KGNA 292156Z AUTO 01014G27KT 04/01 A2964 RMK AO1 PK WND 35027/2156 SLP044 P0003 T00390011", "KGNB 292235Z AUTO 32012G16KT 10SM SCT090 16/M04 A3024 RMK AO2 T01581043", "KGNC 292230Z AUTO 33010G16KT 10SM CLR 26/M03 A3010 RMK AO2 T02571035", "KGNG 292240Z AUTO 22006KT 10SM CLR 28/M04 A3006 RMK AO2", "KGNR 292156Z AUTO 17008G20KT 12/01 A3005 RMK AO1 SLP183 T01220011", "KGNT 292235Z AUTO 01006G17KT 10SM CLR 24/M12 A3019 RMK AO2 T02421117", "KGNV 292214Z 20012G18KT 6SM -RA BR FEW018 SCT040 BKN110 21/20 A2981 RMK AO2 TSE2158B12E14 PRESFR P0012 T02110200", "KGOK 292153Z AUTO 26011KT 10SM CLR 21/04 A2989 RMK AO2 SLP120 T02060044", "KGON 292250Z 07015G23KT 1SM R05/P6000FT -RA BR BKN007 OVC012 11/08 A2991 RMK AO2 P0001", "KGOO 292235Z AUTO VRB04G10KT 10SM CLR 26/05 A3006 RMK A01", "KGOP 292235Z AUTO 32008G18KT 10SM VCTS CLR 23/03 A2995 RMK AO2 LTG DSNT NE AND SE AND NW", "KGOV 292240Z AUTO 32004KT 3SM RA BR SCT003 10/09 A2951 RMK AO2 SLP003 $", "KGPC 292235Z AUTO 30009KT 10SM SCT046 SCT060 OVC090 14/08 A2965 RMK AO2 LTG DSNT SE AND S T01400083", "KGPH 292235Z AUTO 26011G17KT 10SM 22/02 A2965 RMK AO2", "KGPI 292155Z 17008KT 10SM CLR 23/01 A3000 RMK AO2 SLP157 T02280011", "KGPM 292150Z 34008G15KT 10SM SKC 22/03 A2994", "KGPT 292242Z 28011G17KT 10SM SCT021 BKN026 OVC095 21/16 A2966 RMK AO2 RAB13E25 P0000 T02110161", "KGPZ 292156Z AUTO 34019G24KT 10SM SCT065 OVC080 09/M04 A2975 RMK AO2 PK WND 35026/2141 SLP088 T00891044", "KGRB 292240Z AUTO 28013KT 10SM SCT016 OVC021 06/04 A2953 RMK AO2 T00610039 $", "KGRD 292156Z AUTO 21003KT 10SM CLR 23/14 A2974 RMK AO2 SLP065 T02330139", "KGRF 292155Z AUTO 27008KT 10SM CLR 24/09 A2992 RMK AO2 SLP135 T02410093 $", "KGRI 292153Z 35029G40KT 10SM CLR 20/M03 A2988 RMK AO2 PK WND 35040/2151 SLP121 T02001028", "KGRK 292225Z AUTO 32014G21KT 10SM CLR 22/02 A2994 RMK AO2 WSHFT 19 SLP134", "KGRN 292235Z AUTO 01020G27KT 10SM CLR 17/M04 A2999 RMK AO2 T01701040", "KGRR 292245Z 21009KT 4SM -RA BR SCT010 BKN014 OVC055 09/07 A2955 RMK AO2 CIG 010 RWY 8R P0006 T00890072 $", "KGRY 292235Z AUTO 30014G22KT SCT023 BKN033 OVC055 21/16 A2974 RMK A01", "KGSB 292155Z 16003KT 10SM FEW040 SCT070 BKN250 26/18 A2970 RMK AO2A SLP060 WND DATA ESTMD T02570178 $", "KGSH 292215Z AUTO 31008KT 6SM -RA BR FEW017 SCT024 OVC046 11/08 A2959 RMK AO2 PK WND 30026/2155 RAB2154 P0002 T01060083", "KGSO 292154Z 18007KT 10SM FEW024 OVC250 21/17 A2973 RMK AO2 SLP061 T02110167", "KGSP 292153Z 21008KT 10SM CLR 23/13 A2975 RMK AO2 SLP066 T02280128", "KGTB 292155Z AUTO 16018G29KT 10SM OVC050 11/06 A2976 RMK AO2 PK WND 14036/14 SLPNO T01050057 $", "KGTF 292153Z 11007KT 10SM CLR 21/04 A3007 RMK AO2 SLP180 T02060039", "KGTR 292156Z 15007KT 10SM FEW041 BKN070 BKN085 23/17 A2966 RMK AO2 LTG DSNT ALQDS TSB36E51RAB28E47 SLP051 P0000 T02280167", "KGTU 292156Z 31016G20KT 10SM CLR 23/05 A2997 RMK AO2 PK WND 35027/2131 SLP146 T02280050", "KGUC 292156Z AUTO 01018G23KT 10SM CLR 18/M06 A3022 RMK AO2 SLP192 T01831061", "KGUL 292240Z AUTO 00000KT 10SM FEW032 FEW038 SCT050 20/12 A2985 RMK A01", "KGUP 292153Z AUTO 10SM CLR 25/M07 A3018 RMK AO2 SLP125 T02501072", "KGUR 292240Z AUTO 33010KT 9SM BKN090 21/M01 A3002 RMK AO2 WSHFT 31 SLP162", "KGUS 292155Z AUTO 30017G25KT 10SM FEW028 BKN047 OVC095 13/07 A2958 RMK AO2 PK WND 32029/34 SLP022 T01320072 TSNO $", "KGUY 292153Z AUTO 34015G26KT 10SM CLR 24/01 A2998 RMK AO2 PK WND 32031/2124 SLP127 T02440006", "KGVE 292235Z AUTO 17004KT 10SM BKN048 OVC060 22/14 A2970 RMK AO1 T02200137", "KGVL 292153Z AUTO 16003KT 10SM CLR 22/14 A2975 RMK AO2 SLP064 T02170139", "KGVQ 292156Z AUTO 18010G17KT 10SM SCT036 OVC048 15/08 A2967 RMK AO2 SLP049 T01500083", "KGVT 292235Z AUTO 32013G23KT 10SM CLR 20/06 A2990 RMK AO2 TSNO T02050060", "KGVW 292240Z AUTO 34026G32KT 10SM SCT047 BKN055 20/11 A2988 RMK A01", "KGWB 292235Z AUTO 26004KT 10SM SCT075 BKN085 12/11 A2957 RMK AO2 P0001", "KGWO 292153Z AUTO 31003KT 10SM CLR 19/14 A2967 RMK AO2 SLP046 T01890144 $", "KGWR 292235Z AUTO 35023G29KT 10SM FEW032 BKN048 OVC055 10/05 A2988 RMK A01", "KGWW 292250Z AUTO 00000KT 10SM CLR 24/18 A2974 RMK AO2 T02410183", "KGXA 292155Z AUTO VRB06KT 10SM CLR 33/M14 A2998 RMK AO2 SLP121 WND DATA ESTMD T03281143", "KGXF 292155Z AUTO 34005KT 10SM CLR 37/M15 A2986 RMK AO2 SLP100 T03721151 FZRANO $", "KGXY 292156Z AUTO 34012G25KT 10SM CLR 22/M01 A3004 RMK AO2 PK WND 01031/2101 SLP155 T02171006", "KGYB 292235Z AUTO 33011G19KT 10SM CLR 22/06 A2995 RMK AO2 T02200059", "KGYF 292235Z AUTO 36011G17KT 10SM SCT048 A2990 RMK AO2", "KGYH 292247Z 17007KT 10SM CLR 22/14 A2972", "KGYI 292150Z 32012G22KT 10SM 20/06 A2994", "KGYL 292235Z AUTO 31014G18KT 10SM SCT075 SCT085 SCT110 10/03 A2973 RMK AO2 T01030029 P0001", "KGYR 292247Z 00000KT 10SM SKC 37/M10 A2986", "KGYY 292245Z 05004KT 10SM SCT055 OVC070 A2960", "KGZH 292218Z AUTO 13004KT 10SM FEW006 BKN039 OVC065 22/18 A2966 RMK AO2 RAB00E09 P0000 T02170183", "KGZL 292235Z AUTO 32010G17KT 10SM CLR 21/05 A2985 RMK AO2", "KGZN 292220Z AUTO 34013G20KT 10SM CLR 22/01 A2997 RMK AO2", "KGZS 292235Z AUTO 00000KT 10SM CLR 22/14 A2968 RMK A01", "KHAE 292255Z AUTO 34009G18KT 10SM OVC070 16/02 A2969 RMK AO2", "KHAF 292235Z AUTO 32011KT 10SM OVC007 12/10 A3005 RMK AO2", "KHAI 292235Z AUTO 24003KT 3SM RA SCT013 BKN038 OVC050 11/09 A2959 RMK AO2 T01070089", "KHAO 292153Z AUTO VRB05G16KT 10SM CLR 19/09 A2964 RMK AO2 SLP035 T01890089", "KHBG 292153Z AUTO VRB04G15KT 10SM -RA OVC060 21/16 A2967 RMK AO2 LTG DSNT NE-SE RAB02E14B31 SLP045 P0000 T02110161", "KHBI 292245Z AUTO 00000KT 10SM CLR 20/17 RMK AO2 T02030167", "KHBR 292153Z AUTO 26010KT 10SM CLR 24/04 A2995 RMK AO2 SLP134 T02390039", "KHBV 292235Z AUTO 35015G19KT 10SM CLR 27/01 A2998 RMK AO2 T02660010", "KHCD 292235Z AUTO 32017G20KT 10SM SCT090 11/01 A2975 RMK AO2 T01070012", "KHCO 292235Z AUTO 35014G22KT 10SM SCT060 BKN095 08/03 A2989 RMK AO2", "KHCR 292235Z AUTO 29005KT 10SM CLR 24/M08 A3015 RMK AO2", "KHDC 292235Z AUTO 25003KT 10SM SCT019 SCT025 OVC080 20/17 A2968 RMK AO2 LTG DSNT N T02000166", "KHDE 292235Z AUTO 35029G33KT 10SM CLR 20/M03 A2990 RMK AO2 T01961029", "KHDL 292235Z AUTO 12006KT 10SM BKN090 20/20 A2967 RMK AO2", "KHDN 292156Z AUTO 27010G15KT 10SM CLR 18/M03 A3020 RMK AO2 SLP189 T01831028", "KHDO 292251Z AUTO 33012G20KT 10SM CLR 28/M01 A2995 RMK AO2 SLP132 T02781006", "KHEF 292156Z VRB04KT 10SM CLR 20/13 A2974 RMK AO2 SLP077 T02000133", "KHEG 292235Z AUTO 21007G16KT 150V240 3SM -RA FEW017 SCT035 BKN044 21/20 A2977 RMK AO2 LTG DSNT E AND SE", "KHEI 292153Z AUTO 33021G30KT 10SM CLR 16/M08 A3004 RMK AO2 PK WND 33034/2126 SLP174 T01561078", "KHEQ 292235Z AUTO 34019G33KT 10SM CLR 23/M03 A2999 RMK AO2", "KHEY 292155Z AUTO 14005KT 10SM BKN100 21/20 A2964 RMK AO2 RAE19 SLP038 P0000 T02080199", "KHEZ 292245Z AUTO 30009KT 6SM TSRA BR SCT013 BKN026 OVC055 16/14 A2972 RMK AO2 LTG DSNT ALQDS TSB2159 P0012", "KHFD 292153Z 10008G16KT 10SM BKN038 OVC047 13/06 A2992 RMK AO2 SLP131 T01330056", "KHFF 292155Z AUTO 22003KT 10SM CLR 26/16 A2969 RMK AO2 SLP054 T02600159 $", "KHFJ 292235Z AUTO 27007G16KT 10SM CLR 18/03 A2981 RMK AO2", "KHFY 292235Z AUTO 25005KT 10SM SCT030 BKN036 OVC048 14/12 A2965 RMK AO2 T01410121", "KHGR 292153Z 16004KT 10SM CLR 17/11 A2975 RMK AO2 SLP082 T01720106 $", "KHHF 292235Z AUTO 34013G16KT 10SM CLR 24/02 A2996 RMK AO2 T02430018", "KHHG 292235Z AUTO 29008G23KT 10SM -RA BKN030 OVC038 14/10 A2959 RMK AO2 LTG DSNT E T01360095", "KHHR 292244Z 28010KT 240V300 10SM BKN011 18/11 A2998 RMK AO2 T01780111", "KHHW 292239Z AUTO 31009G20KT 10SM 20/06 A2987 RMK AO2", "KHIB 292153Z AUTO 34015G23KT 10SM SCT049 BKN060 OVC075 07/M04 A2972 RMK AO2 PK WND 34030/2134 SLP075 T00721039", "KHIE 292252Z AUTO VRB05KT 10SM -RA OVC060 07/03 A3000 RMK AO2 SLP168 P0001 T00670033", "KHIF 292155Z AUTO 25006KT 10SM CLR 23/M04 A3013 RMK AO2 SLP163 T02261037", "KHII 292235Z AUTO 36003KT 10SM CLR 38/M09 A2985 RMK AO2", "KHIO 292153Z 21004KT 10SM CLR 26/09 A2994 RMK AO2 SLP135 T02560089", "KHJH 292235Z AUTO 36018G28KT 10SM CLR 20/M01 A2986 RMK AO2 T01951011", "KHJO 292153Z AUTO 34006KT 10SM CLR 32/14 A2992 RMK AO2 SLP132 T03170144", "KHKA 292153Z AUTO 00000KT 10SM FEW080 BKN100 19/12 A2972 RMK AO2 SLP063 T01940122 $", "KHKS 292153Z VRB04KT 10SM -RA OVC100 16/15 A2965 RMK AO2 WSHFT 2044 RAE32B53 PRESFR SLP033 P0006 T01610150 $", "KHKY 292153Z AUTO 20006KT 10SM FEW031 21/14 A2974 RMK AO2 SLP054 T02110144", "KHLB 292235Z AUTO 20007G17KT 180V250 10SM FEW100 18/10 A2961 RMK A01", "KHLC 292153Z AUTO 36021G31KT 10SM CLR 25/M04 A2989 RMK AO2 PK WND 36038/2114 SLP116 T02501039", "KHLG 292153Z 19008KT 10SM FEW038 BKN090 16/08 A2969 RMK AO2 SLP056 T01560083", "KHLN 292153Z 00000KT 10SM CLR 25/M01 A3005 RMK AO2 SLP170 T02501006", "KHLR 292155Z AUTO 31014G21KT 8SM CLR 22/04 A2996 RMK AO2 PK WND 32026/00 SLP141 T02220038", "KHLX 292235Z AUTO 17006KT 10SM BKN023 BKN028 17/13 A2977 RMK AO2 T01650125", "KHMN 292155Z AUTO 36005KT 10SM CLR 24/M05 A3016 RMK AO2 SLP170 T02411051 $", "KHMP 292235Z AUTO 36003KT 10SM BKN045 OVC055 20/18 A2974 RMK AO2 T02010177", "KHMT 292235Z AUTO 21011KT 10SM CLR 32/11 A2994 RMK AO2 T03220110", "KHMZ 292235Z AUTO 13004KT 10SM BKN028 OVC034 15/09 A2973 RMK AO2 T01480093", "KHNB 292156Z AUTO 22012KT 10SM BKN080 OVC100 18/12 A2968 RMK AO2 SLP048 T01830122", "KHND 292156Z VRB04KT 10SM CLR 34/M05 A2999 RMK AO2 SLP146 T03441050", "KHNR 292235Z AUTO 35016G24KT 10SM FEW046 FEW065 14/03 A2981 RMK A01", "KHNZ 292255Z AUTO 00000KT 10SM CLR 21/15 A2973 RMK AO2 T02100153", "KHOB 292150Z 36010G16KT 10SM SKC 26/M06 A3009", "KHOE 292235Z AUTO 17004KT 7SM -RA SCT030 BKN050 OVC085 20/18 A2974 RMK AO2 T02050190", "KHON 292155Z AUTO 33025G37KT 10SM SCT090 BKN110 17/M02 A2984 RMK AO2 PK WND 33038/2135 SLP110 T01721022", "KHOP 292249Z AUTO 26004KT 10SM -DZ OVC060 17/17 A2970 RMK AO2 DZB49 SLP058", "KHOT 292153Z AUTO VRB05KT 10SM SCT060 OVC085 19/14 A2979 RMK AO2 RAB14E25 SLP085 P0000 T01890139", "KHOU 292153Z 32019G30KT 10SM SCT055 21/09 A2989 RMK AO2 PK WND 31034/2132 SLP124 P0000 T02110094 $", "KHPN 292156Z 09011G28KT 1SM R16/P6000FT -RA BR BKN004 OVC006 09/08 A2984 RMK AO2 PK WND 08028/2148 SLP108 P0002 T00890083", "KHPT 292235Z AUTO 31018G24KT 10SM SCT060 BKN070 BKN085 09/01 A2974 RMK AO2", "KHQG 292235Z AUTO 35016G22KT 300V360 10SM SCT110 25/00 A2995 RMK AO2 T02451002", "KHQG 292235Z AUTO 35016G22KT 300V360 10SM SCT110 25/00 A2995 RMK AO2 T02451002", "KHQM 292153Z AUTO 27011KT 10SM CLR 15/10 A3001 RMK AO2 SLP165 T01500100", "KHQU 292235Z AUTO 00000KT 10SM CLR 24/16 A2970 RMK AO2 T02420159", "KHQZ 292250Z 31013G18KT 10SM CLR 21/05 A2991", "KHRF 292250Z AUTO 25008KT 10SM 25/M04 A3003 RMK AO2 Hamilton ", "KHRI 292153Z AUTO 00000KT 10SM CLR 28/06 A2990 RMK AO2 SLP120 T02830061 $", "KHRJ 292245Z AUTO 00000KT 10SM CLR 24/18 A2973 RMK AO2 T02440183", "KHRL 292252Z 33017KT 10SM CLR 27/04 A2995 RMK AO2 PK WND 33028/2155 SLP140 T02720044", "KHRO 292153Z AUTO 31009G17KT 270V340 10SM CLR 18/06 A2979 RMK AO2 SLP083 T01830061", "KHRT 292239Z AUTO 18003KT 10SM BKN023 BKN030 BKN036 OVC080 22/18 A2964 RMK AO2 DZB30E39 CIG 023V030 SLP039 $", "KHRX 292235Z AUTO 32012G20KT 10SM CLR 26/M04 A3005 RMK AO2 T02571042", "KHSA 292250Z 00000KT 5SM -RA BR OVC020 18/16 A2966", "KHSB 292235Z AUTO 00000KT 10SM SCT050 BKN100 BKN120 20/14 A2968 RMK AO2 T01950144", "KHSD 292235Z AUTO 28009KT 10SM CLR 21/05 A2991 RMK A01", "KHSE 292251Z AUTO 10009KT 4SM BR CLR 20/20 A2976 RMK AO2 SLP078 T02000200 $", "KHSG 292235Z AUTO 05005KT 10SM CLR 22/M02 A3004 RMK AO2 T02221020", "KHSI 292153Z AUTO 34023G38KT 10SM CLR 20/M03 A2988 RMK AO2 PK WND 36043/2100 SLP118 T02001028", "KHSP 292235Z AUTO 16009KT 10SM BKN016 BKN026 BKN041 16/11 A2981 RMK AO2 T01550112", "KHST 292155Z 18009KT 10SM CLR 30/21 A2984 RMK AO2A SLP108 T02980209", "KHSV 292153Z 19010KT 10SM SCT042 BKN049 BKN160 23/15 A2968 RMK AO2 SLP044 T02280150", "KHTH 292235Z AUTO VRB05KT 10SM CLR 29/M05 A3003 RMK A01", "KHTS 292251Z 17004KT 10SM CLR 19/07 A2967 RMK AO2 SLP045 T01890067", "KHUA 292155Z AUTO 20008KT 10SM SCT042 BKN140 23/15 A2967 RMK AO2 SLP045 T02320145", "KHUF 292153Z 31009G18KT 10SM OVC095 16/06 A2964 RMK AO2 LTG DSNT SE SLP036 T01610061", "KHUL 292153Z AUTO 18007KT 140V200 10SM CLR 17/00 A3008 RMK AO2 SLP187 T01670000", "KHUM 292145Z 28006KT 7SM SCT016 BKN024 21/19 A2970", "KHUT 292252Z 32021G33KT 10SM CLR 26/00 A2979 RMK AO2 PK WND 31033/2247 SLP075 T02610000", "KHVC 292235Z AUTO 21006KT 10SM SCT055 BKN100 18/13 A2970 RMK AO2", "KHVE 292235Z AUTO 18005KT 10SM CLR 27/M09 A3011 RMK AO2", "KHVN 292153Z 07012G24KT 1 1/2SM R02/5500VP6000FT -RA BR OVC010 11/10 A2988 RMK AO2 PK WND 10031/2059 CIG 006V014 SLP117 P0008 T01110100", "KHVR 292153Z AUTO 09014G18KT 10SM CLR 19/M03 A3010 RMK AO2 SLP190 T01941028", "KHVS 292235Z AUTO 00000KT 10SM CLR 25/15 A2972 RMK AO2", "KHWD 292154Z 30009KT 10SM CLR 19/10 A3002 RMK AO2 SLP175 T01890100", "KHWO 292153Z 19011G19KT 10SM FEW050 31/19 A2985 RMK AO2 SLP107 T03110194 $", "KHWV 292218Z AUTO 10007G21KT 050V140 5SM -RA BR OVC006 11/09 A2986 RMK AO2 P0004 T01060089", "KHWY 292235Z AUTO 10006KT 10SM SCT044 BKN050 21/13 A2973 RMK AO2 T02050129", "KHXD 292250Z 19005KT 10SM TS SCT070 23/20 A2973 RMK LTG DSNT SE-W", "KHYA 292156Z 10010G17KT 10SM SCT070 OVC085 09/07 A2998 RMK AO2 RAB32E41 SLP152 P0000 T00940067", "KHYI 292156Z 33017G22KT 10SM CLR 24/05 A2996 RMK AO2 SLP139 T02390050", "KHYR 292205Z AUTO 01011G20KT 10SM SCT024 SCT033 BKN075 07/02 A2966 RMK AO2 T00670017", "KHYS 292156Z AUTO 35025G30KT 10SM CLR 24/M02 A2985 RMK AO2 PK WND 34033/2118 SLP106 T02441022 $", "KHYW 292235Z AUTO 00000KT 10SM CLR 26/18 A2973 RMK AO2", "KHYX 292235Z AUTO 11006KT 10SM SCT120 15/11 A2951 RMK AO2 T01530113", "KHZD 292235Z AUTO 31003KT 9SM SCT045 OVC055 16/15 A2971 RMK A01", "KHZE 292235Z AUTO 36022G28KT 10SM BKN075 14/M04 A3003 RMK AO2", "KHZL 292235Z AUTO 12003KT OVC006 11/10 A2983 RMK AO2 PWINO", "KHZR 292235Z AUTO 29010G14KT 10SM SCT013 BKN019 OVC047 17/15 A2973 RMK AO2 LTG DSNT N T01740147", "KHZX 292235Z AUTO 35014G21KT 10SM BKN070 09/M03 A2972 RMK AO2", "KHZY 292153Z AUTO 22005KT 10SM SCT034 OVC047 15/08 A2966 RMK AO2 SLP043 T01500078", "KI16 292235Z AUTO 10SM SCT120 19/13 A2976 RMK AO2 T01890125", "KI19 292235Z AUTO 21017G22KT 10SM FEW037 17/10 A2961 RMK AO2", "KI23 292235Z AUTO 19014G22KT 10SM CLR 16/09 A2964 RMK AO1", "KI35 292238Z AUTO 00000KT 10SM CLR 20/11 A2971 RMK AO2", "KI63 292235Z AUTO 36018G23KT 10SM BKN070 OVC080 15/03 A2967 RMK AO2 T01510033", "KI67 292235Z AUTO 20012G18KT 10SM CLR 17/08 A2963 RMK AO1", "KI68 292235Z AUTO 20011G20KT 10SM 18/09 A2963 RMK AO1 T01750090", "KI69 292235Z AUTO 20008G16KT 10SM CLR 17/09 A2967 RMK AO2 T01730086", "KI74 292235Z AUTO 22008KT 10SM SCT044 18/09 A2960 RMK AO2", "KI75 292235Z AUTO 31010KT 10SM SCT047 SCT065 BKN090 10/05 A2978 RMK AO2 T00950051", "KI95 292235Z AUTO 19010G15KT 10SM FEW045 FEW050 BKN120 18/09 A2955 RMK A01", "KIAB 292155Z AUTO 26014G20KT 10SM CLR 24/02 A2978 RMK AO2 SLP082 T02360024 $", "KIAD 292252Z 09005KT 10SM FEW034 SCT120 BKN250 18/12 A2975 RMK AO2 SLP071 T01830122", "KIAG 292220Z 25012KT 2 1/2SM -RA BR BKN009 OVC014 12/10 A2967 RMK AO2 RAE09B13 P0000 T01170100 $", "KIAH 292153Z 33012G20KT 10SM BKN047 20/11 A2990 RMK AO2 SLP125 T02000106", "KIBM 292235Z AUTO 36017G25KT 10SM BKN085 BKN110 19/M01 A3005 RMK AO2 T01921015", "KICR 292153Z AUTO 32025G35KT 10SM CLR 17/M04 A2993 RMK AO2 PK WND 35044/2101 SLP135 T01721044 PWINO $", "KICT 292153Z 28013G23KT 10SM SCT120 SCT170 26/03 A2980 RMK AO2 PK WND 29027/2055 SLP084 T02560028", "KIDA 292153Z 19006KT 10SM CLR 23/M03 A3012 RMK AO2 SLP178 T02331028", "KIDI 292235Z AUTO 22006KT 10SM BKN090 OVC110 14/09 A2974 RMK A01", "KIDP 292235Z AUTO 29012G19KT 10SM CLR 22/04 A2982 RMK AO2 T02200042", "KIEN 292252Z AUTO 36016G24KT 10SM FEW120 17/M03 A3001 RMK AO2 PK WND 36029/2157 SLP156 T01671033", "KIER 292235Z AUTO 32012G17KT 10SM OVC019 16/14 A2981 RMK AO2 LTG DSNT NE T01610143", "KIFA 292235Z AUTO 33023G28KT 10SM OVC065 10/02 A2976 RMK AO2 T01020024", "KIFP 292248Z 00000KT 10SM CLR 38/M12 A2984", "KIGM 292251Z AUTO 28011G16KT 10SM CLR 32/M08 A3003 RMK AO2 SLP106 T03221078", "KIGQ 292235Z AUTO 30005KT 10SM BKN060 OVC070 13/05 A2959 RMK AO2 T01310045", "KIIB 292235Z AUTO 31018G26KT 10SM BKN060 OVC075 11/00 A2970 RMK AO2 T01070000", "KIIY 292235Z AUTO 00000KT 10SM CLR 22/17 A2971 RMK AO2 LTG DSNT S T02230167", "KIJD 292252Z AUTO 08011G16KT 9SM BKN026 OVC042 11/05 A2994 RMK AO2 SLP138 T01060050", "KIJX 292235Z AUTO 30010KT 10SM OVC070 17/01 A2966 RMK AO2 T01700013", "KIKG 292235Z AUTO 29008G15KT 260V340 10SM CLR 27/04 A2995 RMK AO2 T02670036", "KIKK 292235Z AUTO 31011KT 10SM BKN065 BKN110 14/01 A2962 RMK AO2 T01410011 PWINO", "KIKV 292235Z AUTO 30015KT 8SM FEW026 SCT032 SCT041 10/05 A2977 RMK AO2", "KIKW 292235Z AUTO 11011KT 10SM SCT075 BKN100 16/08 A2949 RMK AO2 T01570082", "KILE 292156Z AUTO 32013G20KT 10SM CLR 22/04 A2996 RMK AO2 SLP140 T02220044", "KILG 292251Z 07007KT 10SM BKN019 BKN025 17/14 A2977 RMK AO2 SLP079 T01720139 $", "KILM 292153Z 19008KT 10SM CLR 27/19 A2972 RMK AO2 SLP065 T02670194 $", "KIML 292153Z AUTO 34021G32KT 10SM CLR 23/M03 A2995 RMK AO2 PK WND 36035/2117 SLP133 T02281033", "KIMM 292235Z AUTO 23005KT 10SM CLR A2985 RMK AO2", "KIMS 292235Z AUTO 18015G18KT 10SM CLR 17/10 A2966 RMK AO2", "KIMT 292154Z AUTO 33013KT 3SM -RA BR BKN007 OVC019 06/04 A2949 RMK AO2 CIG 006V010 SLP996 P0001 T00560044", "KIND 292228Z 28011KT 10SM -RA BKN026 BKN037 OVC070 14/11 A2963 RMK AO2 P0001 T01390111", "KINF 292255Z AUTO 20007KT 10SM -DZ SCT031 SCT045 BKN110 20/20 A2979 RMK AO2 LTG DSNT NE P0012", "KINJ 292235Z AUTO 32013G22KT 10SM CLR 21/06 A2993 RMK AO2 T02120064", "KINK 292153Z AUTO 30008KT 10SM CLR 26/M08 A3007 RMK AO2 SLP158 T02561078 $", "KINL 292154Z AUTO 02006G15KT 10SM BKN050 OVC060 06/M02 A2980 RMK AO2 RAB38E50 SLP105 P0000 T00611022 $", "KINS 292155Z AUTO 00000KT 10SM CLR 32/M12 A3001 RMK AO2 SLP121 T03191125 $", "KINT 292154Z 20008KT 10SM FEW025 22/16 A2974 RMK AO2 SLP065 T02170161", "KINW 292156Z AUTO 06005KT 10SM CLR 27/M11 A3014 RMK AO2 SLP158 T02721111", "KIOB 292235Z AUTO 00000KT 10SM SCT110 15/11 A2972 RMK AO2 PWINO", "KIOW 292252Z AUTO 29017G24KT 5SM HZ SCT075 BKN090 12/03 A2970 RMK AO2 SLP058 T01170033 $", "KIPJ 292245Z AUTO 00000KT 10SM CLR 20/16 A2974 RMK AO2 T02010156", "KIPL 292153Z AUTO 08006KT 10SM CLR 38/02 A2981 RMK AO2 SLP097 T03830017", "KIPT 292154Z 15007KT 9SM FEW035 OVC047 13/11 A2977 RMK AO2 RAE04 SLP083 P0000 T01330106", "KIRK 292155Z AUTO 36016G23KT 7SM -RA OVC060 11/07 A2971 RMK AO2 PK WND 35026/2137 RAB46 SLP066 P0000 T01110067", "KIRS 292235Z AUTO 32006KT 7SM -RA BKN017 OVC040 10/07 A2958 RMK AO2 T00990068 P0003", "KISM 292237Z 25013KT 10SM SCT026 BKN032 27/22 A2982 RMK AO2 LTG DSNT NE AND E TSE16 PNO $", "KISO 292156Z 00000KT 10SM CLR 26/18 A2973", "KISP 292213Z 09015G22KT 1 1/2SM R06/6000VP6000FT +RA BR BKN007 OVC011 11/10 A2984 RMK AO2 P0002 T01060100", "KISQ 292235Z AUTO 13005KT 10SM DZ SCT048 BKN050 OVC080 07/06 A2950 RMK AO2 T00730055", "KISW 292154Z AUTO 30010KT 10SM -RA BKN022 BKN028 OVC034 06/03 A2960 RMK AO2 SLP031 P0000 T00560028", "KITH 292156Z 14012KT 5SM BR OVC006 11/10 A2978 RMK AO2 RAE17 SLP086 P0000 T01110100", "KITR 292153Z AUTO 34022G33KT 10SM FEW100 22/M02 A3000 RMK AO2 PK WND 33043/2135 SLP137 T02221022", "KIUA 292255Z AUTO 16007KT 10SM OVC060 12/09 A2971 RMK AO2 T01220092", "KIWA 292155Z VRB05KT 10SM CLR 35/M06 A2991", "KIWD 292246Z AUTO 34009KT 1 1/4SM -RA BR OVC003 01/01 A2964 RMK AO2 P0001 FZRANO", "KIWI 292153Z AUTO 11004KT 10SM BKN110 10/03 A3013 RMK AO2 SLP204 T01000033", "KIXA 292250Z AUTO 00000KT 10SM CLR 21/19 A2973 RMK AO2", "KIXD 292153Z 24013G25KT 10SM CLR 23/04 A2971 RMK AO2 PK WND 24030/2107 SLP056 T02280044", "KIYA 292235Z AUTO 29014G25KT OVC030 18/11 A2977 RMK AO2 T01780105 PWINO", "KIZA 292235Z AUTO 26009KT 10SM CLR 24/15 A2997 RMK AO2", "KIZG 292154Z AUTO 11007KT 10SM BKN050 OVC070 10/03 A3009 RMK AO2 RAB39E49 SLP193 P0000 T01000033", "KJAC 292156Z 28005KT 10SM CLR 18/M05 A3018 RMK AO2 SLP206 T01831050", "KJAN 292154Z 19008KT 10SM FEW070 BKN100 BKN120 17/14 A2967 RMK AO2 RAE42 SLP045 P0014 T01720144", "KJAQ 292235Z AUTO 31006KT 10SM CLR 28/10 A3001 RMK AO1 T02770096", "KJAS 292235Z AUTO 30007G13KT 9SM SCT028 BKN036 OVC044 17/14 A2985 RMK AO2", "KJAU 292210Z AUTO 00000KT 10SM CLR 20/10 A2973 RMK A01", "KJAX 292212Z 23015G28KT 5SM -RA BR FEW035 SCT050 BKN090 OVC130 22/20 A2980 RMK AO2 PK WND 24028/2209 LTG DSNT SE-W TSE12 P0002 T02220200 $", "KJBR 292153Z AUTO 23003KT 10SM OVC090 19/12 A2974 RMK AO2 SLP067 T01940117 $", "KJCA 292235Z AUTO 00000KT 10SM CLR 21/16 A2973 RMK AO2 T02100156", "KJCT 292251Z AUTO 36014G22KT 10SM CLR 26/M02 A3000 RMK AO2 SLP132 T02611017 $", "KJDN 292248Z AUTO 03009KT 15/M04 A3012 RMK AO1 SLP206 T01501039", "KJEF 292153Z 25009KT 10SM CLR 21/02 A2969 RMK AO2 SLP043 T02110022", "KJER 292153Z AUTO 23007KT 10SM CLR 27/M04 A3007 RMK AO2 SLP154 T02671039", "KJES 292235Z AUTO 00000KT 10SM -RA BKN042 BKN050 OVC090 20/18 A2978 RMK AO2 LTG DSNT N AND E", "KJFK 292251Z 08011G22KT 5SM -RA BR OVC006 11/11 A2983 RMK SLP102 P0003 T01110106", "KJFX 292235Z AUTO 00000KT 10SM FEW040 24/15 A2967 RMK AO2", "KJFZ 292235Z AUTO 25004KT 10SM CLR 19/09 A2975 RMK AO2 T01900087", "KJHW 292208Z AUTO 19007KT 10SM -RA SCT004 BKN008 OVC016 11/11 A2968 RMK AO2 RAB08 PNO $", "KJKJ 292235Z AUTO 01019G26KT 10SM SCT028 BKN033 OVC070 08/03 A2987 RMK AO2 TSNO", "KJKL 292153Z AUTO 00000KT 10SM CLR 19/09 A2970 RMK AO2 SLP051 T01890094", "KJLN 292153Z 28009G17KT 10SM CLR 19/04 A2981 RMK AO2 SLP090 T01940039", "KJMR 292235Z AUTO 34010G22KT 10SM SCT060 11/M01 A2974 RMK AO2", "KJMS 292156Z AUTO 36024G34KT 10SM SCT040 BKN065 11/02 A2991 RMK AO2 PK WND 33035/2145 SLP139 T01060017", "KJNX 292245Z AUTO 00000KT 10SM CLR 23/19 A2972 RMK AO2", "KJOT 292235Z AUTO 28008G20KT 260V320 10SM SCT070 BKN110 14/01 A2961 RMK AO2 T01410013", "KJPX 292235Z AUTO 08010G20KT 3SM -RA OVC005 09/09 A2988 RMK AO2 P0008 T00930093", "KJQF 292250Z 25003KT 10SM CLR 22/15 A2977", "KJRB 292156Z AUTO 04010KT 6SM UP OVC007 A2984 RMK AO2 RAE10UPB10 SLPNO FZRANO PNO $", "KJRO 292235Z AUTO 00000KT 10SM SCT046 SCT060 SCT085 17/10 A2970 RMK AO2", "KJSO 292235Z AUTO 32013G20KT SCT035 BKN047 19/11 A2990 RMK AO2 T01900107 PWINO TSNO", "KJST 292154Z AUTO 23007KT 10SM SCT044 14/07 A2972 RMK AO2 SLP065 T01390067", "KJSV 292235Z AUTO 34011KT 10SM CLR 20/05 A2984 RMK AO2", "KJSY 292235Z AUTO 35005KT RMK AO2 PWINO PNO TSNO", "KJTC 292235Z AUTO 33007G14KT 280V350 10SM CLR 24/M14 A3023 RMK AO2", "KJVL 292245Z 32014G21KT 10SM SCT035 OVC060 11/01 A2959", "KJVY 292235Z AUTO 21012KT 10SM CLR 18/11 A2966 RMK AO2 PWINO", "KJWG 292235Z AUTO 28008KT 10SM CLR 23/05 A2993 RMK AO2 T02270048", "KJWN 292250Z 00000KT 10SM SCT070 20/13 A2967", "KJWY 292235Z AUTO 31014G23KT 10SM CLR 21/05 A2995 RMK AO2 P0001 T02110053", "KJXI 292255Z AUTO 32008G14KT 10SM SCT039 18/10 A2987 RMK AO2 T01830098", "KJXN 292217Z 25010G22KT 10SM -RA OVC065 12/08 A2955 RMK AO2 PK WND 22031/2204 WSHFT 2157 RAB2159 CB SW-NW MOV E P0000 T01220078", "KJYG 292237Z AUTO 35014G20KT 10SM -DZ 10/02 A2976 RMK AO2", "KJYL 292235Z AUTO 00000KT 10SM BKN100 27/16 A2972 RMK AO2 T02650161", "KJYM 292235Z AUTO 23007KT 4SM +RA SCT039 OVC050 10/09 A2958 RMK AO2 T01000091 P0008", "KJYO 292235Z AUTO 12005KT 10SM CLR 18/13 A2976 RMK AO2", "KJYR 292235Z AUTO 34016G24KT 10SM CLR 17/00 A2986 RMK AO2", "KJZI 292235Z AUTO 18007KT 10SM SCT110 23/20 A2973 RMK AO2", "KJZP 292235Z AUTO 18003KT 10SM BKN110 20/14 A2974 RMK AO2 T01950137", "KK62 292235Z AUTO 23011G16KT 10SM OVC070 16/07 A2967 RMK AO2", "KK70 292230Z AUTO 18007KT 160V220 10SM CLR 29/24 A2985 RMK AO2", "KK82 292235Z AUTO 34023G32KT 10SM CLR 22/M04 A2989 RMK AO2 T02251041", "KK88 292235Z AUTO 25012G21KT 10SM CLR 22/03 A2978 RMK AO1 T02220028", "KKLS 292156Z AUTO 27006KT CLR 26/12 A2994 RMK AO2 SLP143 T02560122 PWINO $", "KKNB 292235Z AUTO 21009KT 10SM CLR 29/M08 A3014 RMK A01", "KKY8 292235Z AUTO 23005KT 10SM BKN095 19/12 A2967 RMK A01", "KL08 292235Z AUTO 00000KT 10SM CLR 38/M09 A2983 RMK AO2", "KL18 292255Z AUTO 22004KT 10SM CLR 18/14 A2998 RMK AO2", "KL35 292235Z AUTO 29009G15KT 10SM CLR 21/M02 A3027 RMK AO2", "KLAA 292153Z AUTO 34019G31KT 10SM BKN110 24/M01 A2999 RMK AO2 PK WND 01032/2142 SLP131 T02441011", "KLAF 292154Z 27007KT 10SM OVC065 12/07 A2962 RMK AO2 PK WND 29030/2106 RAB33E49 SLP031 P0000 T01170067", "KLAL 292250Z 21015G23KT 10SM DZ SCT012 BKN027 26/21 A2983", "KLAM 292235Z AUTO 13004G14KT 100V160 10SM CLR 20/M06 A3019 RMK AO2 T01991061 $", "KLAN 292245Z 27008KT 5SM -RA BKN060 OVC070 11/08 A2956 RMK AO2 PK WND 25040/2204 WSHFT 2157 LTG DSNT N AND NE TSE23 P0004 T01060078", "KLAR 292153Z AUTO 33018G26KT 10SM FEW080 17/M04 A3015 RMK AO2 PK WND 34029/2059 SLP137 T01721039", "KLAS 292200Z 15004KT 10SM FEW170 34/M08 A2995 RMK AO2 T03441083 $", "KLAW 292153Z 34011G18KT 10SM CLR 23/04 A2994 RMK AO2 SLP134 T02280044", "KLAX 292153Z 26015KT 7SM OVC008 16/12 A2999 RMK AO2 SLP154 VIS W 3 T01610117", "KLBB 292153Z 01012G19KT 10SM CLR 26/M02 A3004 RMK AO2 PK WND 33028/2134 SLP144 T02561017", "KLBE 292247Z 20005KT 20SM BKN080 16/09 A2971", "KLBF 292153Z AUTO 33022G34KT 10SM CLR 22/M02 A2993 RMK AO2 PK WND 33036/2131 SLP126 T02171022", "KLBL 292156Z AUTO 32017G24KT 10SM CLR 25/01 A2996 RMK AO2 PK WND 33031/2132 SLP131 T02500006", "KLBO 292235Z AUTO 27009G17KT 10SM CLR 19/00 A2976 RMK AO2", "KLBT 292156Z AUTO 20003KT 10SM CLR 26/17 A2971 RMK AO2 SLP059 T02610167", "KLCG 292235Z AUTO 34020G29KT 10SM SCT065 SCT085 16/00 A2984 RMK AO2 T01591001", "KLCH 292223Z 33020G30KT 10SM FEW027 OVC036 17/11 A2983 RMK AO2 PK WND 33036/2212 T01670111", "KLCI 292156Z AUTO 07013KT 10SM OVC070 09/04 A3004 RMK AO2 RAB17E36 SLP177 P0000 T00890039", "KLCK 292155Z AUTO 18012G16KT 10SM -RA SCT050 BKN055 OVC065 14/11 A2966 RMK AO2 T01380110", "KLCQ 292235Z AUTO 15005KT 10SM SCT009 BKN038 BKN065 20/19 A2972 RMK AO2 P0003", "KLDJ 292255Z AUTO 09007KT 1 3/4SM RA OVC006 12/11 A2984 RMK AO2 P0002 T01180108", "KLDM 292235Z AUTO 25008KT 1 1/4SM -RA OVC003 06/05 A2954 RMK AO2 T00620052 P0001", "KLEB 292153Z 06005KT 10SM OVC065 09/04 A2999 RMK AO2 RAB08E43 SLP157 P0000 T00940044", "KLEE 292153Z 26008KT 10SM FEW060 BKN075 BKN090 25/23 A2981 RMK AO2 LTG DSNT NW RAE06B32E52 SLP093 P0000 T02500233", "KLEW 292156Z AUTO 12006KT 10SM SCT075 11/03 A3010 RMK AO2 SLP201 T01060028 PNO $", "KLEX 292154Z 21003KT 10SM SCT070 BKN085 17/11 A2970 RMK AO2 RAB2057E35 SLP056 P0000 T01670106 $", "KLFI 292155Z 11009KT 10SM SCT200 22/14 A2974 RMK AO2A SLP077 T02180144 $", "KLFK 292153Z AUTO 31010G16KT 10SM BKN037 OVC049 18/12 A2987 RMK AO2 SLP113 T01780117", "KLFT 292153Z 31010G22KT 10SM OVC022 18/14 A2975 RMK AO2 SLP073 T01830139", "KLGA 292251Z 05015KT 1 1/2SM -RA BR FEW003 OVC009 11/09 A2984 RMK AO2 SFC VIS 3 SLP105 P0004 T01060094 $", "KLGB 292153Z 29009KT 8SM CLR 21/12 A2996 RMK AO2 SLP145 T02110117", "KLGC 292235Z AUTO 00000KT 10SM SCT033 SCT048 OVC100 21/16 A2969 RMK AO2 T02100157", "KLGD 292156Z AUTO 18011KT 10SM CLR 28/04 A2997 RMK AO2 SLP138 T02830044", "KLGF 292155Z AUTO 16007KT M M CLR 40/M05 A2983 RMK AO2 SLP098 T03951048 RVRNO PWINO TSNO $", "KLGU 292251Z AUTO VRB04KT 10SM CLR 23/M02 A3011 RMK AO2 SLP167 T02331022", "KLHB 292235Z AUTO 33013G19KT 10SM CLR 22/08 A2994 RMK AO2 T02220077", "KLHM 292235Z AUTO 22005KT 10SM CLR 31/10 A2991 RMK AO1", "KLHQ 292153Z AUTO 24019G33KT 6SM -RA SCT030 BKN055 OVC100 14/10 A2969 RMK AO2 PK WND 23033/2151 RAB51 PRESRR SLP052 P0000 T01440100", "KLHW 292229Z AUTO 00000KT 10SM -RA FEW029 SCT070 BKN100 19/18 A2969 RMK AO2 LTG DSNT NE-E RAE18DZB18E20RAB29 TSE17 SLP057 $", "KLHX 292153Z AUTO 36020G28KT 10SM CLR 24/M02 A3003 RMK AO2 PK WND 36028/2143 SLP136 T02441022", "KLHZ 292255Z AUTO 00000KT 10SM CLR 22/16 A2975 RMK AO2", "KLIC 292155Z AUTO 35020G35KT 10SM FEW090 SCT110 21/M02 A3008 RMK AO2 PK WND 34037/2137 SLP149 T02061022 $", "KLIT 292153Z 32007KT 10SM FEW041 FEW060 BKN095 BKN250 19/13 A2976 RMK AO2 SLP079 T01940128 $", "KLJF 292235Z AUTO 36016G20KT 10SM SCT048 SCT060 BKN070 11/M01 A2974 RMK AO2", "KLKR 292235Z AUTO 00000KT 10SM CLR 23/19 A2973 RMK AO2", "KLKU 292235Z AUTO 17004KT 10SM SCT046 22/14 A2972 RMK AO2 T02180140", "KLKV 292253Z AUTO 20014G17KT 10SM CLR 26/M02 A3007 RMK AO2 SLP160 T02561017", "KLLJ 292155Z AUTO 32011G19KT 10SM CLR 25/M04 A3009 RMK AO2 PK WND 29027/2101 SLP144 T02501039", "KLLN 292235Z AUTO 32013KT 10SM CLR 25/M05 A3006 RMK AO2", "KLLQ 292153Z AUTO 32005KT 6SM -RA BR SCT007 SCT022 OVC042 16/14 A2973 RMK AO2 SLP066 P0006 T01610144", "KLMO 292235Z AUTO 00000KT 10SM BKN120 24/M03 A3006 RMK AO2 T02441027", "KLMS 292235Z AUTO VRB05G10KT 2SM VCTS RA BR FEW060 SCT070 SCT080 15/14 A2973 RMK AO2 LTG DSNT ALQDS VIS 2V3", "KLMT 292153Z 12005KT 10SM CLR 26/00 A3004 RMK AO2 SLP143 T02610000", "KLNA 292235Z AUTO 16012G17KT 10SM SCT039 SCT050 SCT060 29/25 A2984 RMK AO2 LTG DSNT NE AND E T02920250", "KLND 292153Z AUTO 13005KT 10SM CLR 21/M01 A3007 RMK AO2 SLP141 T02061011 $", "KLNK 292154Z 36026G37KT 10SM SCT070 BKN085 18/02 A2984 RMK AO2 PK WND 35041/2057 SLP106 T01830017", "KLNL 292235Z AUTO 32005KT 3/4SM -SN OVC008 01/01 A2958 RMK AO2 T00090009", "KLNN 292235Z AUTO 19005KT 10SM CLR 16/06 A2962 RMK AO1 T01560061", "KLNP 292235Z AUTO 23003KT 10SM CLR 16/07 A2975 RMK AO2", "KLNQ 292235Z AUTO 31006KT 280V340 10SM SCT012 BKN046 OVC060 22/19 A2968 RMK AO2 T02200191", "KLNR 292156Z AUTO 32018G25KT 10SM SCT034 BKN060 OVC080 09/02 A2964 RMK AO2 PK WND 32028/2134 SLP035 T00890017", "KLNS 292212Z 08005KT 10SM FEW027 BKN035 OVC060 16/13 A2977 RMK AO2 T01560133", "KLOL 292153Z AUTO 00000KT 10SM CLR 28/ A3004 RMK AO2 SLP150 T0283 $", "KLOM 292235Z AUTO 05003KT 2SM -DZ BR OVC006 13/13 A2980 RMK AO2 T01300129", "KLOR 292155Z AUTO 00000KT 9SM FEW110 21/19 A2967 RMK AO2 RAE13 SLP030 P0000 T02050186", "KLOT 292155Z 28011G25KT 10SM SCT050 14/03 A2960", "KLOU 292153Z 22012KT 10SM CLR 18/09 A2967 RMK AO2 SLP046 T01780094", "KLOZ 292153Z AUTO 20005KT 10SM CLR 19/08 A2970 RMK AO2 SLP053 T01940083 $", "KLPR 292153Z AUTO 22011KT 10SM CLR 17/09 A2962 RMK AO2 SLP030 T01670089", "KLQK 292235Z AUTO 00000KT 10SM CLR 21/16 A2972 RMK AO2 T02110156", "KLRD 292156Z 31014G23KT 10SM CLR 27/03 A2999 RMK AO2 SLP153 T02720028", "KLRF 292155Z AUTO 31004KT 10SM FEW036 OVC080 19/13 A2973 RMK AO2 SLP069 T01900125", "KLRJ 292235Z AUTO 31016G23KT 10SM SCT060 BKN075 BKN085 13/01 A2982 RMK AO2", "KLRO 292235Z AUTO 17008KT 8SM CLR 25/19 A2973 RMK AO2", "KLRU 292235Z AUTO 26006KT 10SM CLR 27/M04 A3013 RMK AO2 T02741036", "KLRY 292235Z AUTO 27010G19KT 10SM CLR 22/02 A2973 RMK AO2", "KLSF 292242Z AUTO 12007KT 5SM BR SCT036 20/18 A2966 RMK AO2 DZE2157RAB08E39DZB39E42 SLP048 $", "KLSV 292155Z AUTO 00000KT 10SM CLR 37/M09 A2992 RMK AO2 SLP110 T03651092 $", "KLTS 292155Z AUTO 28010KT 10SM CLR 24/03 A2993 RMK AO2 SLP130 T02420029", "KLUA 292235Z AUTO 00000KT 10SM SCT050 SCT060 20/12 A2970 RMK AO2", "KLUD 292235Z AUTO 32009G17KT 290V010 10SM CLR 21/03 A2994 RMK AO2 T02060033", "KLUF 292155Z AUTO 00000KT 10SM CLR 36/M09 A2987 RMK AO2 SLP099 T03621095 $", "KLUG 292235Z AUTO 18007KT 10SM FEW110 22/13 A2967 RMK A01", "KLUK 292153Z 19014G24KT 10SM CLR 18/09 A2965 RMK AO2 PK WND 21026/2106 SLP041 T01780094", "KLUL 292235Z AUTO 29011G19KT 10SM -RA SCT024 BKN050 OVC065 19/17 A2967 RMK A02 T01900167", "KLUM 292255Z 31006KT 10SM SCT034 BKN060 OVC080 08/02 A2967 RMK AO2 T00810022 PWINO", "KLUV 292235Z AUTO 30012G15KT 10SM BKN120 26/M04 A3004 RMK AO2", "KLUX 292235Z AUTO 00000KT 10SM CLR 22/16 A2972 RMK AO2", "KLVJ 292153Z AUTO 33014G25KT 10SM BKN055 22/09 A2990 RMK AO2 PK WND 33029/2136 SLP122 T02170089", "KLVK 292153Z 29011KT 10SM CLR 27/07 A2998 RMK AO2 SLP148 T02720067", "KLVM 292153Z AUTO 25016KT 10SM CLR 23/M03 A3005 RMK AO2 SLP156 T02281028", "KLVN 292235Z AUTO 35015G21KT 10SM SCT060 BKN075 BKN090 12/M03 A2970 RMK AO2", "KLVS 292153Z AUTO 19007G18KT 10SM CLR 21/M03 A3017 RMK AO2 SLP154 T02061033", "KLWA 292235Z AUTO 30009KT 2SM BR OVC004 09/09 A2959 RMK AO2 T00860086", "KLWB 292251Z 00000KT 10SM SCT050 19/08 A2972", "KLWC 292252Z AUTO 32029G41KT 7SM FEW100 24/00 A2970 RMK AO1 PK WND 33041/2245 SLP055 T02390000", "KLWD 292153Z AUTO 01015G27KT 10SM FEW050 BKN060 OVC090 11/04 A2975 RMK AO2 PK WND 03028/2100 RAE27 SLP077 P0002 T01110044", "KLWM 292244Z 08010G14KT 10SM -RA BKN019 OVC075 09/06 A3004 RMK AO2 RAB36 P0000 T00940056", "KLWS 292156Z 06007KT 10SM CLR 30/07 A2992 RMK AO2 SLP123 T03000072 $", "KLWT 292154Z AUTO 05007KT 10SM CLR 19/01 A3010 RMK AO2 SLP180 T01940011", "KLWV 292153Z AUTO 25011KT 10SM -RA FEW045 SCT055 OVC095 18/11 A2966 RMK AO2 RAB47 SLP041 P0001 T01830106", "KLXL 292235Z AUTO 32010G17KT 303V003 10SM SCT044 BKN060 OVC080 10/M03 A2974 RMK AO2", "KLXN 292235Z AUTO 34019G26KT 10SM CLR 21/M03 A2992 RMK AO2 T02051026", "KLXT 292253Z AUTO 25012G19KT 10SM SCT090 BKN110 21/04 A2967 RMK AO2 PK WND 23026/2159 SLP043 T02110039", "KLXV 292153Z AUTO 32015G28KT 10SM CLR 12/M08 A3031 RMK AO2 PK WND 30032/2120 SLP165 T01171078", "KLXY 292235Z AUTO 32013G19KT 10SM CLR A2992 RMK AO2", "KLYH 292154Z 17009KT 10SM SCT060 23/13 A2972 RMK AO2 SLP056 T02330133", "KLYO 292235Z AUTO 34021G30KT 10SM CLR 25/M01 A2981 RMK AO2 T02521005", "KLYV 292235Z AUTO 33025G36KT 7SM RA SCT039 BKN050 BKN055 10/02 A2984 RMK AO2", "KLZU 292156Z 17004KT 10SM FEW042 22/14 A2973 RMK AO2 SLP072 T02170144", "KLZZ 292235Z AUTO 34012G18KT 10SM CLR 23/00 A2994 RMK AO2 T02260002", "KM01 292235Z AUTO 35005KT 9SM FEW027 OVC055 17/16 A2970 RMK AO2 T01730155 $", "KM02 292235Z AUTO 33006KT 10SM BKN041 OVC060 18/11 A2970 RMK A01", "KM04 292220Z AUTO 33007KT 10SM OVC050 18/13 A2971 RMK A01", "KM08 292235Z AUTO 32005G10KT 10SM SCT041 BKN080 BKN090 16/15 A2969 RMK A01", "KM19 292156Z AUTO 18003KT 10SM SCT030 BKN041 OVC050 19/13 A2974 RMK AO2 SLP070 T01890128 PNO $", "KM21 292235Z AUTO 20004KT 10SM BKN033 BKN042 OVC060 17/13 A2971 RMK AO2 T01700127", "KM25 292235Z AUTO 25004KT 10SM OVC080 18/11 A2973 RMK AO2 PWINO", "KM30 292235Z AUTO 23004KT 10SM OVC080 18/12 A2971 RMK AO2 T01800115", "KM40 292235Z AUTO 30013G20KT 10SM FEW042 SCT048 SCT060 22/17 A2968 RMK AO2", "KM54 292230Z AUTO 00000KT 10SM CLR 21/11 A2966 RMK A01", "KM75 292235Z AUTO 23004KT 10SM CLR 17/M03 A3010 RMK A01", "KM91 292230Z AUTO 34005KT 10SM BKN050 OVC060 18/11 A2969 RMK A01", "KMAF 292153Z AUTO 27008G18KT 9SM CLR 26/M03 A3005 RMK AO2 SLP149 T02561033", "KMAN 292235Z AUTO 31007KT 10SM CLR 28/01 A2999 RMK A01", "KMAO 292235Z AUTO 23004KT 10SM CLR 26/07 A2972 RMK AO2", "KMAW 292255Z AUTO 21008KT 10SM SCT031 SCT039 BKN080 20/12 A2972 RMK AO1", "KMBG 292252Z AUTO 35022G31KT 10SM SCT080 16/M04 A2993 RMK AO2 PK WND 34035/2159 SLP140 T01561039", "KMBL 292239Z AUTO 25006KT 4SM -RA BR OVC005 06/06 A2953 RMK AO2 P0000", "KMBS 292153Z 13007KT 10SM SCT120 16/08 A2951 RMK AO2 SLP994 T01610083", "KMBT 292235Z AUTO 25003KT 10SM FEW050 FEW055 SCT110 22/11 A2965 RMK A01", "KMBY 292235Z AUTO 27010KT 10SM OVC080 18/00 A2967 RMK AO2", "KMCB 292237Z AUTO VRB06KT 10SM FEW010 BKN016 BKN022 18/16 A2967 RMK AO2 LTG DSNT NW T01830161", "KMCC 292235Z AUTO 22005G10KT 10SM CLR 32/09 A2992 RMK AO2", "KMCD 292235Z AUTO 08007KT 1/4SM FG OVC001 02/02 A2952 RMK AO2 T00230023", "KMCE 292153Z AUTO 33009KT 10SM CLR 32/11 A2992 RMK AO2 SLP132 T03170106", "KMCF 292247Z AUTO 27014G24KT 10SM -RA FEW014 FEW019 SCT025 BKN039 22/20 A2979 RMK AO2 DZB26E29RAB29 SLP091 FZRANO $", "KMCI 292153Z 26015G25KT 10SM BKN090 BKN110 23/05 A2967 RMK AO2 PK WND 22026/2138 SLP043 T02280050", "KMCJ 292235Z AUTO 33020G26KT 9SM SCT050 21/09 A2987 RMK A01", "KMCK 292153Z AUTO 35016G34KT 10SM CLR 22/M04 A2992 RMK AO2 PK WND 35037/2057 SLP128 T02221044", "KMCN 292153Z 17005KT 10SM BKN055 OVC100 25/17 A2969 RMK AO2 LTG DSNT SW SLP049 T02500167", "KMCO 292230Z 14004KT 10SM FEW009 BKN033 OVC200 23/22 A2981 RMK AO2 LTG DSNT NE-SE RAE2155 TSE30 OCNL LTGIC DSNT NE-SE CB DSNT NE-SE MOV NE P0000 T02330217", "KMCW 292253Z AUTO 31022G34KT 10SM FEW025 BKN055 OVC080 08/02 A2975 RMK AO2 PK WND 30034/2251 RAB15E33 SLP078 P0000 T00830022", "KMCX 292255Z AUTO 29006KT 10SM SCT110 14/06 A2961 RMK AO2 T01350061", "KMCZ 292240Z AUTO 00000KT 10SM CLR 24/18 A2974 RMK AO2 T02370179", "KMDD 292235Z AUTO 34012KT 10SM 26/M06 A3005 RMK AO2 T02641056", "KMDH 292252Z 33010KT 10SM FEW048 FEW090 19/10 A2969 RMK AO2 SLP052 T01940100", "KMDQ 292235Z AUTO 10SM OVC046 23/12 A2968 RMK A02 T02300124", "KMDS 292235Z AUTO 35016KT 10SM FEW040 FEW048 BKN060 11/04 A2984 RMK AO2", "KMDT 292156Z 00000KT 10SM FEW028 OVC060 16/11 A2977 RMK AO2 SLP082 T01560111", "KMDW 292153Z 29015G22KT 10SM FEW045 BKN060 BKN070 14/04 A2958 RMK AO2 SLP017 T01440039 $", "KMDZ 292235Z AUTO 31009KT 10SM OVC017 04/03 A2959 RMK AO2 T00360034 PWINO", "KMEB 292252Z AUTO 25003KT 10SM CLR 26/14 A2972 RMK AO2 SLP061 T02610144", "KMEH 292156Z AUTO 10SM CLR 25/02 A3002 RMK AO2 SLP155 T02500022", "KMEI 292234Z 00000KT 10SM BKN100 23/17 A2964 RMK AO2 LTG DSNT ALQDS T02280167", "KMEM 292154Z 00000KT 10SM OVC048 17/14 A2972 RMK AO2 SLP061 T01670144 $", "KMER 292253Z 33008KT 10SM CLR 32/12 A2993", "KMEV 292235Z AUTO 19011KT 10SM CLR 27/M03 A3010 RMK AO2", "KMEZ 292235Z AUTO 31006KT 10SM BKN048 16/11 A2985 RMK AO2 T01630107", "KMFD 292252Z 18016KT 10SM CLR 17/06 A2961 RMK AO2 SLP024 T01720061", "KMFE 292153Z 32015G26KT 10SM CLR 27/04 A2997 RMK AO2 PK WND 32033/2114 SLP147 T02720044 $", "KMFI 292205Z AUTO 32016G23KT 10SM -RA SCT018 SCT025 OVC050 05/03 A2959 RMK AO2 P0000 T00500028", "KMFR 292153Z 34009G14KT 10SM CLR 31/06 A2992 RMK AO2 SLP120 T03060056", "KMGE 292155Z AUTO 25004KT 10SM CLR 21/13 A2971 RMK AO2 SLP057 T02130127 $", "KMGG 292235Z AUTO 31014G18KT 10SM SCT060 BKN065 OVC085 11/M01 A2973 RMK AO2 T01101009", "KMGJ 292249Z AUTO 03005KT 5SM -RA BR BKN008 OVC015 09/08 A2986 RMK AO2 P0002", "KMGM 292153Z 22003KT 10SM OVC090 23/18 A2967 RMK AO2 SLP046 T02330178", "KMGN 292235Z AUTO 00000KT 10SM BKN035 BKN046 OVC060 07/06 A2950 RMK AO2 T00800060", "KMGR 292235Z AUTO 18005KT 3SM -RA BR FEW070 BKN090 OVC100 19/19 A2973 RMK AO2 LTG DSNT NE P0002 T01950187", "KMGW 292153Z 22005KT 10SM SCT075 OVC095 17/08 A2972 RMK AO2 SLP060 T01720083 $", "KMGY 292153Z AUTO 20017G23KT 10SM FEW044 SCT075 18/08 A2962 RMK AO2 PK WND 18028/2135 SLP026 T01830083", "KMHE 292153Z AUTO 34019G29KT 10SM SCT080 17/00 A2986 RMK AO2 PK WND 33032/2107 RAB2057E08 SLP117 P0000 T01670000", "KMHK 292252Z 35011G28KT 320V030 10SM OVC037 23/M04 A2980 RMK AO2 PK WND 33029/2158 SLP089 T02331039", "KMHL 292235Z AUTO 23012G19KT 10SM SCT095 20/03 A2969 RMK AO2", "KMHP 292235Z AUTO 16004KT 5SM VCTSRA BR SCT080 BKN090 OVC110 22/21 A2971 RMK AO2 LTG DSNT E THRU W T0216////", "KMHR 292235Z AUTO 23007KT 10SM CLR 30/10 A2992 RMK A01", "KMHS 292156Z AUTO VRB05KT 10SM CLR 26/M07 A3005 RMK AO2 SLP170 T02611067", "KMHT 292249Z VRB06G17KT 10SM BKN017 OVC070 09/04 A3002 RMK AO2 RAE23 P0000", "KMHV 292220Z AUTO 16008KT 130V200 10SM CLR 32/M03 A3000 RMK AO2", "KMIA 292153Z 19012G21KT 10SM FEW044 OVC250 31/20 A2984 RMK AO2 PK WND 20027/2119 SLP106 T03110200 $", "KMIB 292155Z 02018G30KT 10SM SCT070 12/M03 A2999 RMK AO2A PK WND 36034/21 SLP170 T01231035 $", "KMIC 292253Z 35012G25KT 10SM BKN090 11/M02 A2969 RMK AO2 PK WND 36027/2223 SLP060 T01111017 $", "KMIE 292241Z 23018G27KT 1 3/4SM +RA SCT034 BKN041 OVC080 13/10 A2961 RMK AO2 PK WND 21027/2240 LTG DSNT E-S TSE2157 P0009 T01330100", "KMIO 292235Z AUTO 26008G14KT 230V300 10SM CLR 20/03 A2981 RMK AO2", "KMIV 292218Z AUTO 26009KT 10SM FEW024 19/14 A2976 RMK AO2 T01890139 $", "KMIW 292153Z AUTO 28017KT 10SM OVC050 11/03 A2972 RMK AO2 PK WND 29026/2133 RAB43E53 SLP068 P0000 T01060033", "KMJD 292235Z AUTO 00000KT 4SM -RA BR FEW075 18/18 A2967 RMK AO2 LTG DSNT NE", "KMJQ 292235Z AUTO 32019G27KT 10SM SCT055 SCT075 OVC090 11/M01 A2977 RMK AO2", "KMKC 292154Z 22017G25KT 10SM FEW100 22/04 A2967 RMK AO2 SLP044 T02170039", "KMKE 292252Z 30013G21KT 10SM FEW038 BKN060 OVC080 11/02 A2956 RMK AO2 SLP013 T01110022 $", "KMKG 292251Z 30007G16KT 7SM BKN006 OVC015 08/06 A2957 RMK AO2", "KMKJ 292235Z AUTO 20004KT 10SM SCT040 SCT045 SCT070 18/12 A2978 RMK AO2 T01840117", "KMKL 292153Z 32004KT 10SM OVC039 17/14 A2973 RMK AO2 SLP065 T01670139", "KMKN 292235Z AUTO 33010G21KT 10SM 23/03 A2997 RMK AO2 T02290034", "KMKO 292153Z AUTO 31010KT 10SM CLR 21/05 A2987 RMK AO2 SLP112 T02060050", "KMKS 292235Z AUTO 21008KT 10SM BKN120 26/16 A2973 RMK AO2", "KMKT 292156Z AUTO 32009KT 10SM FEW024 SCT033 OVC110 08/03 A2975 RMK AO2 PK WND 33028/2125 WSHFT 2049 RAB08E49 SLP081 P0002 T00830033", "KMLB 292238Z 25006KT 4SM VCTS BR FEW028 BKN055 OVC120 23/21 A2981 RMK AO2 WSHFT 2155 LTG DSNT ALQDS RAE30 TSE32 P0030 T02280206", "KMLC 292153Z AUTO 33011G20KT 10SM -RA FEW110 21/06 A2987 RMK AO2 RAB2056 SLP110 P0000 T02060056", "KMLE 292235Z AUTO 33013G22KT 10SM SCT070 SCT090 16/01 A2983 RMK AO2 T01600007", "KMLF 292252Z AUTO 06005KT 10SM CLR 27/M04 A3009 RMK AO2 SLP149 T02721039", "KMLI 292252Z 31010G16KT 10SM BKN070 OVC085 14/00 A2965 RMK AO2 PK WND 28028/2207 SLP040 T01390000", "KMLJ 292235Z AUTO 00000KT 10SM SCT110 25/19 A2967 RMK AO2", "KMLP 292153Z AUTO 00000KT 10SM CLR 18/M04 A3016 RMK AO2 SLP125 T01781044", "KMLS 292153Z AUTO 03007KT 10SM SCT110 17/M05 A3010 RMK AO2 SLP196 T01671050", "KMLT 292153Z AUTO VRB04G19KT 10SM BKN070 16/03 A3008 RMK AO2 SLP195 T01610028", "KMLU 292153Z 34019G27KT 8SM -RA FEW017 BKN039 OVC049 17/15 A2974 RMK AO2 PK WND 33027/2152 RAE28B49 SLP070 P0003 T01720150", "KMMH 292235Z AUTO 27006KT 10SM CLR 21/M04 A3028 RMK AO2 T02101044", "KMMI 292235Z AUTO 23006KT 10SM CLR 21/13 A2971 RMK A01", "KMMK 292229Z AUTO 05004KT 2 1/2SM -RA BR OVC016 10/08 A2991 RMK AO2 P0002 T01000078", "KMML 292156Z AUTO 33019G23KT 10SM SCT065 OVC085 12/01 A2978 RMK AO2 SLP094 T01170011", "KMMT 292155Z AUTO 22004KT 10SM CLR M A2969 RMK AO2 SLPNO ALSTG ESTMD $", "KMMU 292147Z 07008KT 3SM RA OVC006 11/11 A2985", "KMMV 292153Z AUTO 14005KT 10SM CLR 24/11 A2994 RMK AO2 SLP138 T02390111", "KMNE 292236Z AUTO 31004KT 10SM -RA SCT010 BKN014 OVC050 16/16 A2982 RMK AO2 LTG DSNT E P0004", "KMNH 292235Z AUTO 02007G14KT 10SM SCT085 16/M01 A3017 RMK AO2", "KMNI 292235Z AUTO 00000KT 10SM CLR 26/16 A2971 RMK AO2", "KMNM 292252Z AUTO VRB03KT 6SM BR FEW010 OVC015 07/07 A2949 RMK AO2 PNO $", "KMNN 292153Z AUTO 22014KT 10SM CLR 18/07 A2960 RMK AO2 SLP024 T01830072", "KMNV 292235Z AUTO 23004KT 10SM 21/M39 A2970 RMK A01", "KMNZ 292235Z AUTO 34015G20KT 10SM CLR 22/03 A2997 RMK AO2 T02210027", "KMOB 292252Z 20014G19KT 7SM VCTS BKN023CB BKN065 OVC110 23/17 A2965 RMK AO2 LTG DSNT NE RAB38E48 FRQ LTGICCG SE TS VC SE MOV NE CB DSNT NE P0000", "KMOD 292153Z 34009KT 10SM CLR 31/08 A2993 RMK AO2 SLP135 T03060078", "KMOP 292235Z AUTO 25020G26KT 10SM BKN050 OVC065 14/05 A2951 RMK AO2 T01380052", "KMOT 292154Z 31027G36KT 10SM BKN070 14/M04 A3000 RMK AO2 PK WND 33040/2127 SLP167 T01391044", "KMOX 292235Z AUTO 34019G23KT 10SM 11/M01 A2981 RMK AO2", "KMPO 292153Z AUTO 10008KT 1 1/4SM -RA BR OVC003 08/08 A2980 RMK AO2 SLP100 P0002 T00830083", "KMPR 292235Z AUTO 34026G32KT 10SM CLR 25/01 A2979 RMK AO2 T02490006", "KMPV 292251Z AUTO 13008KT 10SM FEW026 OVC060 08/03 A3001 RMK AO2 RAB2154E46 SLP168 P0000 T00780028", "KMPZ 292235Z AUTO 28008KT 10SM -RA SCT005 SCT010 SCT039 08/06 A2972 RMK AO2", "KMQB 292235Z AUTO 32015G22KT 7SM -RA BKN048 BKN055 OVC070 09/06 A2973 RMK AO2 P0002 T00900057", "KMQI 292250Z AUTO 14008KT 10SM CLR 18/15 A2978 RMK AO2 T01770154", "KMQJ 292235Z AUTO 25007KT 10SM SCT036 OVC050 12/12 A2964 RMK AO1", "KMQS 292235Z AUTO 00000KT 10SM BKN013 BKN032 BKN041 15/15 A2978 RMK AO2", "KMQW 292235Z AUTO 16003KT 7SM -RA SCT034 BKN040 OVC075 20/19 A2972 RMK AO2 LTG DSNT NE THRU SE P0009 T02020189", "KMQY 292156Z 30003KT 10SM BKN065 22/12 A2970 RMK AO2 SLP063 T02170117", "KMRB 292236Z AUTO 09005KT 10SM SCT026 BKN032 17/12 A2972 RMK AO2 T01670117", "KMRC 292230Z AUTO 00000KT 10SM FEW043 SCT050 21/14 A2967 RMK A01", "KMRF 292156Z AUTO VRB04KT 10SM CLR 23/M06 A3018 RMK AO2 SLP176 T02331056", "KMRH 292158Z AUTO 12007KT 10SM BKN050 23/21 A2975 RMK AO2 SLP075 T02330211", "KMRJ 292235Z AUTO 33015G28KT 10SM SCT034 BKN042 BKN070 08/M05 A2966 RMK AO2 PWINO", "KMRN 292245Z AUTO 00000KT 10SM CLR 21/16 A2975 RMK AO2 T02070159", "KMRT 292239Z AUTO 19013G23KT 10SM SCT034 SCT042 17/09 A2962 RMK AO1", "KMRY 292233Z 33007KT 10SM SCT007 13/09 A3004 RMK AO2 T01280094", "KMSL 292153Z AUTO 18006KT 10SM FEW039 23/14 A2967 RMK AO2 LTG DSNT W SLP041 T02330144", "KMSN 292153Z 33007G17KT 10SM BKN031 OVC049 09/02 A2959 RMK AO2 RAE10 SLP024 P0000 T00890022", "KMSO 292153Z VRB03KT 10SM CLR 25/01 A3001 RMK AO2 SLP155 T02500006", "KMSP 292153Z 33018G25KT 10SM FEW060 BKN080 BKN100 12/M02 A2970 RMK AO2 SLP062 T01171022", "KMSS 292153Z AUTO 06008KT 10SM SCT045 OVC055 11/07 A2985 RMK AO2 RAB24E35 SLP112 P0000 T01060067 $", "KMSV 292156Z AUTO 09009KT 4SM -RA BR OVC005 08/08 A2983 RMK AO2 SLP110 P0000 T00780078", "KMSY 292153Z COR 26006KT 10SM FEW035 SCT085 BKN150 21/18 A2968 RMK AO2 RAE37 SLP053 P0003 T02060178 $", "KMTC 292156Z 11008KT 10SM SCT044 OVC130 14/09 A2954 RMK AO2A SLP009 T01370087 $", "KMTH 292153Z AUTO VRB04KT 10SM CLR 30/23 A2983 RMK AO2 SLP102 T03000233", "KMTJ 292153Z AUTO 32006KT 10SM CLR 21/M05 A3020 RMK AO2 SLP179 T02061050", "KMTK 292235Z AUTO 31023KT 10SM SCT017 BKN028 OVC055 22/18 A2967 RMK A01", "KMTN 292155Z 12005KT 10SM CLR 18/13 A2978", "KMTO 292153Z AUTO 28013G18KT 10SM FEW060 18/03 A2963 RMK AO2 SLP032 T01830033", "KMTP 292254Z AUTO 06010G22KT 030V110 09/08 A2991 RMK AO1 SLP127 P0017 T00940083 ", "KMTV 292235Z AUTO 20003KT 10SM CLR 21/13 A2976 RMK AO2 T02110130", "KMTW 292247Z AUTO 28013G19KT 10SM BKN023 OVC030 07/03 A2954 RMK AO2", "KMUO 292155Z AUTO 36005KT 10SM CLR 27/00 A2998 RMK AO2 SLP140 T02740002", "KMUT 292235Z AUTO 28013G20KT 10SM 12/03 A2969 RMK AO2", "KMVE 292235Z AUTO 33015G20KT 10SM SCT038 BKN049 BKN070 11/03 A2979 RMK AO2", "KMVH 292240Z AUTO 09009KT 10SM CLR 17/M01 A3013 RMK AO2 PWINO", "KMVL 292224Z AUTO 17008KT 140V200 10SM SCT029 BKN038 OVC085 09/05 A2998 RMK AO2 RAB2158E20 P0000 T00940050", "KMVN 292156Z AUTO 26006KT 10SM OVC085 18/09 A2969 RMK AO2 SLP057 T01830094", "KMVY 292153Z AUTO 10013KT 10SM FEW041 OVC055 11/06 A2997 RMK AO2 SLP150 T01110061", "KMWA 292245Z 31008KT 20SM SCT044 SCT075 BKN095 19/11 A2969", "KMWC 292145Z 29012G24KT 10SM BKN034 11/03 A2956", "KMWH 292252Z AUTO 23006KT 10SM CLR 28/04 A2991 RMK AO2 SLP124 T02830039", "KMWK 292245Z AUTO 00000KT 10SM CLR 20/15 A2977 RMK AO2 T02000151", "KMWL 292153Z AUTO 31013G24KT 10SM CLR 22/03 A2994 RMK AO2 SLP132 T02220028", "KMWM 292235Z AUTO 33020G26KT 10SM SCT060 SCT080 SCT090 11/01 A2976 RMK AO2", "KMWN 292156Z 12037KT 0SM -SN FZFG BLSN VV000 M04/M04 RMK VRY LGT ICG", "KMWO 292235Z AUTO 19016KT 10SM CLR 18/08 A2963 RMK AO2 T01830081", "KMWT 292253Z AUTO VRB06KT 10SM FEW047 BKN060 17/11 A2980 RMK AO2 SLP088 T01720106 $ ", "KMXF 292244Z AUTO 00000KT 10SM -DZ FEW041 OVC080 22/15 A2963 RMK AO2 DZB44 SLP036", "KMYF 292153Z 28007KT 10SM CLR 19/13 A2999 RMK AO2 SLP152 T01940128", "KMYJ 292235Z AUTO 25010KT 10SM SCT120 18/03 A2967 RMK AO2", "KMYL 292251Z AUTO 18003KT 10SM CLR 18/M04 A3009 RMK AO2 SLP179 T01831044", "KMYP 292235Z AUTO 29013G25KT 10SM CLR 05/M07 A3053 RMK AO2", "KMYR 292156Z 18009KT 10SM CLR 23/22 A2974 RMK AO2 SLP069 T02330222", "KMYV 292153Z AUTO VRB03KT 10SM CLR 31/08 A2993 RMK AO2 SLP139 T03110083 $", "KMYZ 292235Z AUTO 35013KT 10SM SCT075 20/03 A2981 RMK AO2", "KMZH 292235Z AUTO 36008G17KT 10SM SCT060 BKN070 OVC080 08/M02 A2971 RMK AO2", "KMZZ 292235Z AUTO 29015G22KT 3SM +RA SCT026 BKN034 OVC055 12/10 A2962 RMK AO2 P0015 T01200099", "KN03 292235Z AUTO 14009KT 7SM SCT018 BKN034 OVC043 10/08 A2979 RMK AO2", "KN38 292215Z AUTO 18011KT 1 1/4SM -RA OVC005 10/09 A2975 RMK AO2", "KN60 292252Z AUTO 34022G34KT 13/M06 A3001 RMK AO1 PK WND 33035/2155 SLP174 T01281056", "KN79 292235Z AUTO VRB04KT 9SM FEW018 OVC060 13/12 A2976 RMK AO2 T01320122", "KNAK 292254Z AUTO 12004KT 10SM CLR 17/13 A2976 RMK AO2 SLP081 T01670128 $ ", "KNBC 292245Z AUTO 18006KT 10SM TS CLR 25/20 A2971 RMK AO2 TSB39 T02500200", "KNBG 292155Z 32004KT 10SM -RA FEW020 BKN090 BKN250 19/18 A2968 RMK AO2 SLP049 P0006 T01940183 $", "KNBT 292251Z AUTO 13007KT 10SM CLR 26/21 A2975 RMK AO2 SLP078 T02560206 ", "KNCA 292156Z AUTO 18007KT 10SM FEW085 24/19 A2972 RMK AO2 SLP067 T02440189", "KNDZ 292225Z AUTO 18004KT 9SM -RA SCT014 BKN020 BKN038 21/19 A2965 RMK AO2 RAB09 P0001 T02110194 $", "KNEL 292206Z AUTO 07007KT OVC004 13/13 A2977 RMK AO2 SLP081 T01330128 PNO $", "KNEW 292153Z 31004KT 7SM -RA FEW070 BKN090 OVC100 19/17 A2969 RMK AO2 SLP047 P0012 T01940167", "KNFE 292156Z AUTO 13008KT 10SM CLR 21/15 A2977 RMK AO2 SLP081 T02110150", "KNFG 292252Z AUTO 32007KT 8SM SCT012 18/13 A2998 RMK AO2 SLP150 T01830133 $", "KNFL 292156Z VRB04KT 10SM FEW100 BKN250 29/M04 A3005 RMK AO2 SLP144 T02891039", "KNFW 292252Z AUTO 32016G23KT CLR 22/03 A2993 RMK AO2 SLP120 T02170033 TSNO CHINO S VISNO S $ ", "KNGP 292156Z AUTO 33021G27KT 10SM CLR 27/09 A2994 RMK AO2 PK WND 33030/2110 SLP138 T02720089 $", "KNGU 292159Z 08009KT 10SM FEW060 BKN300 21/14 A2976 RMK AO2 SLP079 T02110139 $", "KNHK 292252Z AUTO 03004KT 10SM CLR 18/13 A2976 RMK AO2 SLP078 T01830133 $ ", "KNID 292156Z AUTO VRB05G16KT 10SM CLR 35/M04 A2995 RMK AO2 SLP122 T03501039 $", "KNIP 292253Z 25009KT 10SM -RA SCT040 BKN100 BKN150 23/21 A2971 RMK AO2 PK WND 25029/2157 TSE25 PRESFR SLP057 T1 SET P0021 T02280206 $ ", "KNJK 292156Z 14006KT 10SM SCT250 39/05 A2983 RMK AO2 SLP116 T03890050 $", "KNJM 292222Z AUTO 17007KT 6SM HZ SCT018 BKN025 26/21 A2975 RMK AO2 T02610211", "KNJW 292241Z AUTO 27007G21KT 4SM TSRA FEW018 FEW023 OVC033 16/13 A2972 RMK AO2 PK WND 31028/2216 RAB23 TSE32B40 P0004 T01610133", "KNKT 292242Z 15007KT 10SM BKN019 OVC050 23/22 A2975 RMK AO2 T02330217", "KNKX 292155Z 28009KT 10SM CLR 18/13 A2999 RMK AO2 SLP151 T01780128", "KNLC 292156Z 01008KT 10SM FEW050 BKN210 34/11 A2992 RMK AO2 SLP131 RH/23 T03440111", "KNMM 292249Z AUTO 00000KT 10SM FEW075 SCT120 22/17 A2965 RMK AO2 TSB16B27E43 T02220172 $ ", "KNOG 292156Z AUTO 10SM CLR 27/04 A2996 RMK AO2 PK WND 31031/2120 SLP126 T02670039 TSNO $", "KNOW 292230Z AUTO 29014KT 10SM CLR 14/10 A2995 RMK AO2 T01380095", "KNOZ 292159Z AUTO 25004KT 10SM CLR 38/01 A2984 RMK AO2 SLP055 T03830011 $", "KNPA 292230Z 18009KT 10SM FEW017 SCT024 BKN045 23/18 A2964 RMK AO2 T2 SET T02280183 $", "KNQA 292250Z 35005KT 10SM OVC050 18/14 A2970", "KNQI 292156Z AUTO 10SM CLR 28/05 A2995 RMK AO2 SLP140 T02780050 $", "KNQX 292153Z 17006KT 10SM BKN250 29/24 A2984 RMK AO2 SLP103 T02890239 $", "KNRB 292252Z AUTO 26007G18KT 10SM -RA SCT044 SCT055 BKN095 23/21 A2972 RMK AO2 PK WND 24029/2218 TSE19 PRESFR SLP064 P0012 T02330206 ", "KNRN 292235Z AUTO 02015G23KT 10SM CLR 23/M02 A2994 RMK AO2", "KNRS 292253Z AUTO 29008KT 10SM OVC010 17/13 A3000 RMK AO2 SLP159 T01670128 ", "KNSE 292156Z AUTO 00000KT 10SM FEW012 BKN060 OVC085 22/18 A2967 RMK AO2 RAB25E38 SLP033 P0000 T02220183", "KNSI 292253Z AUTO 30013KT 10SM OVC006 14/11 A2999 RMK AO2 SLP151 T01440106 $ ", "KNTD 292155Z 28011KT 6SM HZ BKN008 15/12 A3001 RMK AO2 SLP164 T01500117 $", "KNTU 292156Z 12010KT 10SM FEW025 BKN280 18/14 A2976 RMK AO2 SLP081 T01780144 $", "KNUC 292156Z AUTO 28012KT OVC006 14/ A3003 RMK AO2 SLP166 T0139 $", "KNUI 292253Z AUTO 10005KT 10SM CLR 18/14 A2976 RMK AO2 SLP075 T01780144 $ ", "KNUQ 292235Z AUTO 35010KT 10SM CLR 19/12 A3000 RMK AO2", "KNUW 292253Z 26008KT 10SM SCT250 14/09 A2994 RMK AO2 SLP144 T01390094 VISNO $ ", "KNXF 292156Z AUTO 27009KT 6SM HZ 16/13 A2999 RMK AO2 SLP241 T01610128 $", "KNXP 292156Z AUTO VRB03KT 10SM CLR 36/09 A3001 RMK AO2 SLP125 T03560089", "KNYC 292251Z AUTO 06010G15KT 040V100 2 1/2SM -RA BR OVC004 10/09 A2986 RMK AO2 SLP104 P0004 T01000094 $ ", "KNYG 292156Z AUTO 03005KT 9SM RA BR FEW060 19/ A2974 RMK AO2 SLP073 P0000 T0194 $", "KNYL 292157Z AUTO 29007KT 10SM CLR 38/04 A2983 RMK AO2 SLP099 T03780039", "KNZY 292252Z 30009KT 10SM BKN010 BKN250 17/13 A2998 RMK AO2 SLP153 T01670133 $", "KO05 292235Z AUTO 20011G17KT 10SM CLR 23/M03 A3013 RMK A01", "KO22 292235Z AUTO 21004KT 10SM CLR 29/09 A3001 RMK A01", "KO32 292235Z AUTO 26003KT 8SM CLR 33/13 A2989 RMK AO2 T03290126 $", "KO69 292235Z AUTO VRB06G12KT 10SM CLR 15/10 A3002 RMK A01", "KO86 292235Z AUTO VRB06G14KT 10SM 29/03 A2997 RMK A01", "KOAJ 292156Z 16005KT 10SM CLR 26/19 A2972 RMK AO2 SLP067 T02560189", "KOAK 292202Z 29013KT 10SM FEW008 BKN200 17/09 A3004 RMK AO2 T01670094", "KOAR 292235Z AUTO 30009G16KT 10SM OVC008 12/09 A3004 RMK AO2 PWINO", "KOBE 292235Z AUTO 15004KT 10SM FEW060 25/24 A2982 RMK AO2 LTG DSNT N AND SE AND W", "KOCF 292251Z 22016G22KT 10SM FEW045 SCT075 BKN120 21/19 A2974 RMK AO2 TSE03RAE46 PRESFR SLP069 P0004 T02110189 $", "KOCH 292156Z AUTO 33011G21KT 10SM BKN034 OVC045 17/12 A2987 RMK AO2 SLP119 T01720117 PWINO", "KOCQ 292235Z AUTO 27013KT 10SM OVC013 06/06 A2951 RMK AO1 T00560056", "KOCW 292245Z AUTO 10004KT 10SM SCT038 BKN049 BKN070 23/18 A2974 RMK AO2 T02300184", "KODO 292153Z AUTO 32010G20KT 10SM CLR 26/M04 A3007 RMK AO2 SLP153 T02611039", "KODX 292153Z AUTO 33024G34KT 10SM CLR 19/M03 A2988 RMK AO2 PK WND 35041/2130 SLP124 T01941028", "KOEB 292235Z AUTO 27004KT 10SM -RA SCT011 BKN050 OVC090 11/10 A2957 RMK AO2 T01070098", "KOEL 292235Z AUTO 01019G27KT 10SM CLR 24/M10 A2993 RMK AO1 T02421104", "KOEO 292235Z AUTO 33011G18KT 10SM BKN060 OVC090 10/02 A2972 RMK AO2 T01000016 PWINO", "KOFF 292155Z 34016G28KT 10SM BKN060 BKN100 18/01 A2983 RMK AO2A PK WND 33031/21 SLP107 T01780009 PWINO PNO FZRANO TSNO $", "KOFK 292156Z AUTO 35016G26KT 10SM SCT070 BKN090 18/00 A2985 RMK AO2 PK WND 34031/2134 SLP110 T01780000", "KOFP 292154Z AUTO 00000KT 10SM SCT045 23/15 A2974 RMK AO2 SLP069 T02330150", "KOGA 292235Z AUTO 36020G30KT 10SM CLR 22/M04 A2996 RMK AO2 T02241040", "KOGB 292153Z AUTO 22005KT 10SM CLR 28/13 A2970 RMK AO2 SLP057 T02780133", "KOGD 292253Z 00000KT 10SM CLR 25/M06 A3011 RMK AO2 SLP157 T02501061 ", "KOGS 292235Z AUTO VRB05G11KT 8SM BKN028 OVC036 11/07 A2980 RMK AO2", "KOIC 292235Z AUTO 00000KT 10SM -RA OVC024 10/09 A2983 RMK AO2 T00960085", "KOIN 292255Z AUTO 36020G25KT 10SM CLR 23/M03 A2997 RMK AO1 T02301028", "KOJA 292235Z AUTO 33009KT 10SM CLR 23/04 A2992 RMK AO2 T02350037", "KOJC 292207Z 25015G25KT 10SM CLR 23/03 A2970 RMK AO2 T02280033", "KOKB 292252Z AUTO 27007KT 10SM OVC011 17/13 A2998 RMK AO2 SLP151 T01670128", "KOKC 292252Z 31012KT 10SM FEW250 21/06 A2991 RMK AO2 SLP123 T02060056", "KOKK 292212Z AUTO 30018G26KT 10SM SCT028 BKN047 OVC070 13/07 A2961 RMK AO2 PK WND 30028/2201 LTG DSNT E PNO $", "KOKM 292235Z AUTO 28007G16KT 10SM CLR 21/04 A2987 RMK AO2 T02080040", "KOKV 292235Z AUTO 09006KT 10SM BKN028 17/12 A2972 RMK AO2", "KOKZ 292235Z AUTO 00000KT 10SM OVC055 24/18 A2969 RMK AO2 LTG DSNT S T02420183", "KOLE 292235Z AUTO 19008KT 7SM -RA OVC010 08/08 A2970 RMK AO2", "KOLF 292153Z AUTO 34014G20KT 10SM CLR 17/M04 A3012 RMK AO2 SLP203 T01721039", "KOLG 292235Z AUTO 35009G15KT 10SM SCT030 BKN049 OVC070 05/00 A2968 RMK AO1", "KOLM 292154Z 22009G16KT 190V250 10SM CLR 24/10 A2995 RMK AO2 SLP142 T02390100", "KOLS 292154Z AUTO 00000KT 10SM CLR 33/M08 A3003 RMK AO2 SLP104 T03331078", "KOLU 292156Z AUTO 34016G25KT 10SM SCT085 17/02 A2987 RMK AO2 PK WND 33031/2105 SLP119 T01670017", "KOLV 292250Z 02004KT 10SM BKN041 OVC070 16/15 A2971", "KOLY 292230Z AUTO 29010G15KT 10SM BKN090 19/06 A2967 RMK AO2 T01900063 PWINO", "KOLZ 292235Z AUTO 31015G21KT 10SM FEW080 11/M00 A2968 RMK A01", "KOMA 292252Z 34015G23KT 10SM BKN060 16/03 A2981 RMK AO2 PK WND 36031/2217 SLP097 T01610028", "KOMH 292235Z AUTO 11005KT 10SM SCT044 SCT050 SCT060 20/14 RMK AO2", "KOMK 292153Z AUTO 20007KT 10SM CLR 27/06 A2993 RMK AO2 SLP132 T02720056", "KOMN 292250Z 14006KT 5SM -RA SCT020 OVC050 24/22 A2982 RMK RB42 LAST", "KONL 292235Z AUTO 32023G31KT 10SM SCT085 18/M09 A2989 RMK AO2 T01751087", "KONM 292235Z AUTO 15004KT 10SM CLR 25/M07 A3011 RMK AO2 T02501075", "KONO 292153Z AUTO VRB03KT 10SM CLR 27/04 A3001 RMK AO2 SLP156 T02720039", "KONP 292235Z AUTO 22011KT 10SM OVC005 11/08 A3006 RMK AO2", "KONT 292153Z 26012KT 10SM BKN280 31/13 A2993 RMK AO2 SLP122 T03110133 $", "KONX 292245Z AUTO 12004KT 10SM CLR 19/15 A2977 RMK AO2 T01910148", "KONZ 292235Z AUTO 17006KT 10SM SCT120 14/10 A2956 RMK AO2 T01420104", "KOOA 292235Z AUTO 30009KT 10SM SCT041 SCT047 SCT070 09/07 A2974 RMK AO2 T00880065", "KOPF 292153Z 22015G20KT 10SM CLR 31/18 A2985 RMK AO2 SLP107 T03110178", "KOPL 292235Z AUTO 30010G18KT 10SM OVC020 17/13 A2977 RMK AO2 T01650126", "KOPN 292235Z AUTO 00000KT 10SM BKN050 BKN060 BKN070 22/15 A2971 RMK AO2", "KOQN 292235Z AUTO 00000KT 10SM OVC007 14/13 A2979 RMK AO2", "KOQT 292153Z AUTO 00000KT 10SM CLR 21/12 A2970 RMK AO2 SLP052 T02110122", "KORB 292253Z AUTO 34004KT 10SM SCT042 BKN060 06/M01 A2974 RMK AO2", "KORD 292251Z 26013G20KT 10SM FEW045 BKN070 BKN110 13/02 A2959 RMK AO2 SLP020 T01280022", "KORE 292252Z AUTO 09006KT 10SM SCT035 OVC047 09/04 A2998 RMK AO2 RAB17E29 SLP155 P0000 T00940039", "KORF 292251Z 12006KT 10SM CLR 19/15 A2974 RMK AO2 SLP071 T01940150", "KORG 292235Z AUTO 31008G15KT 10SM BKN033 OVC050 19/11 A2988 RMK AO2 T01900111", "KORH 292252Z 08011G17KT 7SM -RA SCT010 BKN014 OVC050 08/05 A2996 RMK AO2 RAE11B45 P0000", "KORK 292235Z AUTO 29007KT 10SM FEW065 OVC080 18/14 A2976 RMK AO2", "KORL 292248Z 10004KT 10SM FEW023 SCT029 SCT036 24/23 A2981 RMK AO2 LTG DSNT NE-SE TSE12", "KORS 292235Z AUTO 16008KT 10SM CLR 23/10 A2991 RMK AO2", "KOSA 292235Z AUTO 31008KT 10SM OVC050 18/11 A2988 RMK AO2 T01820111", "KOSC 292235Z AUTO 12005KT 10SM SCT120 09/08 A2953 RMK AO2 T00930079", "KOSH 292153Z 29014G23KT 10SM OVC022 07/02 A2956 RMK AO2 SLP014 T00670017", "KOSU 292153Z 20014KT 10SM FEW039 FEW046 SCT120 18/10 A2963 RMK AO2 PK WND 19026/2141 SLP032 T01830100", "KOTG 292156Z AUTO 32017G24KT 10SM FEW050 BKN060 OVC080 11/00 A2980 RMK AO2 PK WND 32027/2058 SLP102 T01110000 PNO $", "KOTH 292156Z 27012KT 10SM FEW008 13/10 A3006 RMK AO2 SLP179 T01280100", "KOTM 292153Z AUTO 30007KT 8SM -RA BKN044 OVC060 07/06 A2974 RMK AO2 SLP075 P0004 T00720061", "KOUN 292246Z 29008KT 10SM CLR 21/04 A2990", "KOVL 292235Z AUTO 31017G25KT 10SM SCT065 SCT075 10/03 A2976 RMK AO2", "KOVS 292153Z AUTO 31008G15KT 290V350 10SM FEW034 BKN060 OVC085 11/02 A2966 RMK AO2 RAE05 SLP046 P0000 T01060022", "KOWA 292253Z AUTO 32019G23KT 10SM BKN048 OVC110 11/01 A2971 RMK AO2", "KOWB 292156Z 24010KT 10SM BKN095 19/11 A2968 RMK AO2 SLP052 T01940111", "KOWD 292153Z 09008KT 10SM SCT043 OVC065 11/06 A3001 RMK AO2 RAB33E45 SLP163 P0000 T01110056", "KOWI 292235Z AUTO 27016G26KT 10SM CLR 25/04 A2969 RMK AO2 PWINO", "KOWP 292235Z AUTO 27007G16KT 10SM CLR 22/04 A2989 RMK AO2 T02180039", "KOWX 292235Z AUTO 19008G11KT 10SM CLR 18/06 A2957 RMK AO1", "KOXB 292153Z AUTO 21005KT 10SM CLR 18/14 A2978 RMK AO2 SLP083 T01830144", "KOXC 292251Z 08011G18KT 1 3/4SM -RA BR BKN007 OVC014 09/08 A2989 RMK AO2 CIG 004V010 SLP136 P0007 T00890083", "KOXD 292235Z AUTO 21013G19KT 10SM SCT110 20/08 A2961 RMK AO2 LTG DSNT N T02010077", "KOXI 292235Z AUTO 30006KT 10SM BKN070 12/08 A2959 RMK AO1", "KOXR 292251Z 27010KT 10SM OVC007 14/12 A2998 RMK AO2 SLP153 T01390117", "KOXV 292235Z AUTO 30011KT 10SM FEW014 FEW110 09/06 A2975 RMK AO2", "KOYM 292235Z AUTO 14003KT 10SM BKN013 BKN025 OVC048 11/08 A2973 RMK AO2 PWINO", "KOZA 292235Z AUTO 35010G16KT 300V020 10SM CLR 26/M04 A3006 RMK AO2", "KOZR 292155Z AUTO 11006KT 10SM CLR 21/18 A2966 RMK AO2 DZB2059E05 SLP044 P0001 T02050182", "KOZS 292235Z AUTO 29008G17KT 10SM CLR 20/00 A2974 RMK AO2", "KOZW 292235Z AUTO 19007KT 10SM SCT045 OVC100 16/06 A2953 RMK AO2 T01620064", "KP08 292235Z AUTO 31009G14KT 10SM CLR 36/M05 A2988 RMK AO2", "KP28 292156Z AUTO 32013G20KT 26/03 A2983 RMK AO1 SLP096 T02610028 $", "KP52 292235Z AUTO VRB06G12KT 10SM CLR 32/M09 A3001 RMK AO2", "KP53 292156Z AUTO 36005KT 05/04 A2951 RMK AO1 SLP999 P0001 T00500039", "KP58 292155Z AUTO 12011KT 09/08 A2954 RMK AO1 SLP004 T00940083", "KP59 292251Z AUTO VRB04KT 04/03 A2955 RMK AO1 SLP015 P0005 T00390028", "KP60 292156Z AUTO 10003KT 11/M08 A3024 RMK AO1 SLP223 T01061078", "KP68 292253Z AUTO VRB03KT 26/M07 A3012 RMK AO1 SLP134 T02611072 ", "KP69 292252Z AUTO 00000KT 28/08 A2990 RMK AO1 SLP113 T02780083 $ ", "KP92 292159Z AUTO 30010G24KT 18/14 A2973 RMK AO1 SLP067 T01830144", "KPAE 292153Z 17010G17KT 10SM CLR 24/08 A2995 RMK AO2 SLP139 T02440083", "KPAH 292153Z VRB04KT 10SM FEW070 OVC085 19/12 A2970 RMK AO2 SLP054 T01890117", "KPAM 292230Z 10006KT 10SM BKN019 OVC026 21/18 A2963 RMK AO2A CIG 019V023 SLP037 $", "KPAN 292235Z AUTO 25009KT 10SM CLR 27/M06 A3014 RMK AO2 PWINO TSNO", "KPAO 292247Z 33009KT 10SM SCT200 18/11 A3001", "KPBF 292153Z AUTO 33009KT 10SM FEW070 SCT095 BKN120 19/13 A2975 RMK AO2 SLP072 T01890133", "KPBG 292153Z AUTO 16009KT 10SM -RA SCT041 SCT050 OVC090 09/06 A2992 RMK AO2 SLPNO P0002 T00940056", "KPBH 292255Z AUTO 34007KT 10SM -DZ OVC015 03/02 A2961 RMK AO2 T00280016", "KPBI 292153Z 36006G15KT 10SM SCT025 BKN040 BKN250 28/23 A2984 RMK AO2 LTG DSNT ALQDS SLP103 CB DSNT NE MOV NE T02780228", "KPBX 292235Z AUTO 36003KT 10SM SCT120 17/09 A2971 RMK AO2 T01730091", "KPCM 292235Z AUTO 22012G21KT 10SM BKN020 BKN028 BKN050 28/23 A2984 RMK AO2", "KPCW 292235Z AUTO 19011KT 10SM CLR 18/10 A2956 RMK AO2", "KPCZ 292235Z AUTO 27009KT 10SM SCT017 BKN022 OVC034 07/03 A2957 RMK AO2 T00670027", "KPDC 292255Z AUTO 31009KT 10SM SCT070 BKN100 BKN120 11/01 A2966 RMK AO2 T01050013", "KPDK 292153Z 16003KT 10SM CLR 21/14 A2972 RMK AO2 SLP057 T02110139", "KPDT 292153Z 31005KT 10SM CLR 27/08 A2993 RMK AO2 SLP123 T02720078", "KPDX 292153Z 19005KT 10SM FEW070 FEW300 28/04 A2993 RMK AO2 SLP135 T02780039", "KPEA 292235Z AUTO 32011KT 10SM SCT120 09/06 A2975 RMK AO2 T00900061", "KPEO 292153Z AUTO 15005KT 10SM FEW010 OVC036 12/11 A2974 RMK AO2 RAB00E15 SLP075 P0000 T01220111", "KPEQ 292235Z AUTO 00000KT 10SM CLR 25/M05 A3007 RMK AO2 T02541051", "KPEX 292235Z AUTO 35015G21KT 10SM RA SCT021 SCT032 OVC041 07/02 A2978 RMK AO2 P0002", "KPEZ 292235Z AUTO 33011G17KT 10SM CLR 27/01 A2996 RMK AO2 T02740011", "KPGA 292153Z AUTO 05004KT 10SM CLR 28/M11 A3010 RMK AO2 SLP139 T02831106", "KPGV 292245Z AUTO 00000KT 10SM CLR 23/21 A2973 RMK AO2", "KPHD 292153Z AUTO 21004KT 10SM OVC110 16/08 A2967 RMK AO2 SLP046 T01560083", "KPHF 292154Z 13004KT 10SM CLR 22/12 A2975 RMK AO2 SLP073 T02220122", "KPHL 292228Z 01008KT 8SM OVC006 14/14 A2978 RMK AO2 DZE09 P0000 T01440139 $", "KPHN 292235Z AUTO 14006KT 10SM CLR 15/08 A2957 RMK AO2", "KPHP 292155Z AUTO 35023G36KT 10SM CLR 18/M05 A2997 RMK AO2 PK WND 34037/2138 SLP147 T01831050", "KPHT 292235Z AUTO 00000KT 10SM BKN022 BKN033 OVC041 17/14 A2972 RMK A01", "KPHX 292251Z 00000KT 10SM CLR 37/M11 A2984 RMK AO2 SLP086 T03671111", "KPIA 292154Z 31014G26KT 10SM FEW070 16/M01 A2965 RMK AO2 PK WND 29027/2057 SLP038 T01561011", "KPIB 292156Z AUTO VRB06KT 10SM -RA FEW029 BKN049 OVC075 19/17 A2968 RMK AO2 LTG DSNT NE-SE RAB23 SLP050 P0000 T01940172", "KPIE 292211Z 28014G30KT 5SM -RA BR FEW010 BKN044 OVC065 21/20 A2983 RMK AO2 PK WND 27030/2202 LTG DSNT ALQDS RAB2158 P0001 T02110200 $", "KPIH 292153Z 00000KT 10SM CLR 25/M02 A3010 RMK AO2 SLP168 T02501022", "KPIL 292153Z AUTO 32019KT 10SM -RA CLR 27/06 A2996 RMK AO2 PK WND 34033/2136 SLP143 P0000 T02720056", "KPIM 292235Z AUTO 03003KT 10SM -RA BKN044 BKN050 OVC070 21/17 A2969 RMK AO2 T02130167", "KPIR 292153Z AUTO 36025G35KT 10SM FEW085 17/M04 A2993 RMK AO2 PK WND 36036/2054 SLP135 T01671039", "KPIT 292251Z 21007KT 10SM FEW046 BKN100 BKN240 15/08 A2968 RMK AO2 SLP058 T01500078", "KPJC 292235Z AUTO 00000KT 10SM SCT029 BKN120 15/08 A2969 RMK AO2", "KPKB 292153Z 21006KT 10SM FEW060 BKN090 OVC110 17/08 A2970 RMK AO2 SLP054 T01720078", "KPKD 292153Z AUTO 02014G27KT 10SM SCT065 BKN080 BKN095 10/M04 A2976 RMK AO2 PK WND 01027/2118 SLP089 T01001039", "KPLN 292154Z AUTO 06007KT 10SM SCT030 BKN039 11/07 A2952 RMK AO2 SLP999 T01060072", "KPLR 292235Z AUTO 00000KT 10SM CLR 22/17 A2969 RMK A01", "KPLU 292235Z AUTO 31005KT 10SM CLR 26/10 A2994 RMK AO2", "KPMD 292153Z AUTO 24019G24KT 10SM CLR 34/01 A2999 RMK AO2 SLP128 T03440006", "KPMH 292235Z AUTO 00000KT 10SM SCT050 SCT080 SCT110 18/08 A2970 RMK AO2 T01800077", "KPMP 292236Z 16011KT 10SM CLR 29/23 A2984 RMK AO2 WSHFT 2222 LTG DSNT NE T02890233 $", "KPMU 292235Z AUTO 35006KT 10SM FEW017 OVC024 18/15 A2969 RMK AO2", "KPMV 292235Z AUTO 34014G24KT 10SM SCT060 SCT080 16/01 A2982 RMK AO2 T01570012", "KPNA 292235Z AUTO 29014G20KT 7SM CLR 17/M09 A3021 RMK AO2", "KPNC 292153Z AUTO 26006KT 10SM CLR 23/04 A2986 RMK AO2 SLP104 T02280044", "KPNE 292250Z 05007KT 4SM BR OVC004 14/13 A2979 RMK AO2 CIG 003V007", "KPNM 292235Z AUTO 35011KT 10SM SCT090 11/M02 A2972 RMK AO2", "KPNS 292153Z 16010KT 10SM SCT015 SCT085 23/19 A2966 RMK AO2 SLP046 T02330189", "KPNT 292235Z AUTO 31015G21KT 10SM OVC075 15/M01 A2964 RMK AO2 T01501010", "KPO1 292240Z AUTO 33016G22KT 10SM CLR 17/M08 A3011 RMK AO2", "KPOB 292155Z AUTO 18005KT 10SM CLR 26/13 A2970 RMK AO2 SLP059 T02630134 $", "KPOC 292147Z 24012KT 10SM CLR 28/13 A2996", "KPOE 292240Z AUTO 30011G18KT 10SM OVC015 15/13 A2981 RMK AO2 SLP096", "KPOF 292153Z AUTO 19008KT 10SM FEW044 OVC060 19/13 A2970 RMK AO2 SLP054 T01940133", "KPOU 292153Z 06007KT 2 1/2SM BR BKN016 OVC021 11/08 A2986 RMK AO2 RAE42 SLP106 P0002 T01060083", "KPOV 292235Z AUTO 20005KT 10SM SCT036 14/07 A2965 RMK AO2 T01410067 PWINO", "KPOY 292235Z AUTO 36008G15KT 10SM CLR 20/M04 A3007 RMK AO2", "KPPA 292235Z AUTO 35016G25KT 10SM 24/02 A3000 RMK AO2 T02420021", "KPPF 292252Z AUTO 26011G21KT 10SM CLR 22/03 A2980 RMK AO2 SLP086 T02220033", "KPPO 292235Z AUTO 32007KT 10SM OVC065 11/09 A2959 RMK AO2 T01050085", "KPPQ 292235Z AUTO 29005KT 10SM OVC070 18/03 A2967 RMK AO2 T01800026", "KPQI 292156Z AUTO 17010KT 10SM OVC080 17/02 A3007 RMK AO2 SLP211 T01670022", "KPQL 292153Z AUTO 22003KT 10SM BKN100 23/16 A2966 RMK AO2 SLP043 T02280156", "KPRB 292153Z AUTO 28005KT 10SM CLR 32/12 A2995 RMK AO2 SLP135 T03170122", "KPRC 292153Z AUTO 01007KT 10SM CLR 28/M11 A3014 RMK AO2 SLP142 T02831111 $", "KPRG 292235Z AUTO 26013KT 10SM SCT060 18/05 A2964 RMK AO2 LTG DSNT SE T01780047", "KPRN 292158Z AUTO 11006KT 9SM SCT021 SCT027 OVC060 19/18 A2967 RMK AO2 SLP995 T01940183", "KPRO 292235Z AUTO 33013KT 10SM SCT016 SCT039 BKN050 10/06 A2979 RMK AO2 P0001 T00990064", "KPRS 292235Z AUTO 22004KT 10SM CLR 25/02 A3011 RMK AO2 T02490019", "KPRX 292156Z AUTO 32011KT 10SM -RA 20/09 A2988 RMK AO2 SLP117 P0000 T02000089", "KPSC 292153Z 00000KT 10SM CLR 29/04 A2990 RMK AO2 SLP122 T02890044", "KPSF 292154Z AUTO 10012G20KT 10SM BKN036 OVC043 11/03 A2986 RMK AO2 PK WND 11026/2119 SLP108 T01110033", "KPSK 292235Z AUTO 18008KT 10SM SCT049 SCT070 SCT080 20/14 A2974 RMK AO2 LTG DSNT NW T01950135", "KPSM 292234Z 10009KT 10SM BKN015 OVC080 08/05 A3006 RMK AO2A SLP182", "KPSN 292235Z AUTO 32012G21KT 10SM OVC055 20/09 A2989 RMK AO2", "KPSO 292235Z AUTO 22009G17KT 10SM BKN110 21/M06 A3019 RMK AO2 T02091064", "KPSP 292153Z 10007KT 050V130 10SM CLR 40/M03 A2985 RMK AO2 SLP104 T04001028", "KPSX 292153Z AUTO 33021G34KT 10SM CLR 24/09 A2991 RMK AO2 PK WND 34034/2058 SLP127 T02390089 $", "KPTB 292235Z AUTO 00000KT 7SM BKN043 BKN055 22/14 A2975 RMK AO2 T02210144", "KPTD 292235Z AUTO 14006KT 10SM OVC038 11/04 A2984 RMK AO2", "KPTK 292153Z 18009KT 10SM FEW043 SCT060 OVC120 16/06 A2953 RMK AO2 SLP999 T01610061", "KPTN 292156Z AUTO 10SM OVC015 18/15 RMK AO2 SLPNO T01780150 $", "KPTS 292235Z AUTO 27006KT 10SM CLR 21/04 A2978 RMK AO2 T02070041 PWINO", "KPTT 292235Z AUTO 32017G24KT 10SM SCT110 27/M01 A2983 RMK AO2 T02661008", "KPTV 292156Z AUTO 33006KT 10SM CLR 34/12 A2992 RMK AO2 SLP129 T03390117", "KPTW 292222Z AUTO 06007KT 3SM BR BKN007 OVC012 12/12 A2980 RMK AO2 T01170117", "KPUB 292153Z AUTO VRB03KT 10SM CLR 24/M03 A3005 RMK AO2 SLP139 T02391033", "KPUC 292153Z AUTO 10SM CLR 24/M10 A3017 RMK AO2 SLP173 T02441100", "KPUJ 292235Z AUTO 00000KT 7SM CLR 20/14 A2972 RMK AO2", "KPUW 292153Z AUTO 07007KT 10SM CLR 27/04 A3000 RMK AO2 SLP147 T02670039", "KPVB 292235Z AUTO 31014KT 10SM SCT038 SCT043 BKN110 11/00 A2965 RMK AO1 T01080000", "KPVC 292156Z AUTO 11010G17KT 10SM FEW013 OVC085 09/07 A3002 RMK AO2 SLP166 T00940072", "KPVD 292251Z 09012KT 5SM -RA BKN026 OVC045 09/06 A2997 RMK AO2 RAB2156 SLP147 P0001 T00940061", "KPVE 292235Z AUTO 04003KT 10SM FEW050 OVC085 17/15 RMK A01", "KPVF 292235Z AUTO 24006KT 10SM CLR 28/06 A3006 RMK AO1", "KPVG 292156Z AUTO 10SM FEW039 23/16 A2975 RMK AO2 SLP077 T02330161 $", "KPVJ 292235Z AUTO 32010G20KT 10SM CLR 20/03 A2991 RMK AO2 T02000031", "KPVU 292156Z 25004KT 10SM CLR 24/M02 A3014 RMK AO2 SLP170 T02441022", "KPVW 292235Z AUTO 33016G21KT 10SM CLR 23/M02 A3003 RMK AO2 T02311025", "KPWA 292153Z 29008KT 10SM CLR 20/04 A2992 RMK AO2 SLP127 T02000039", "KPWC 292235Z AUTO 35013G23KT 10SM BKN070 11/M02 A2978 RMK AO2", "KPWD 292235Z AUTO 34017G25KT 10SM CLR 14/M08 A3010 RMK AO2", "KPWG 292156Z AUTO 32013G20KT 10SM CLR 22/05 A2995 RMK AO2 SLP140 T02220050", "KPWK 292252Z 29012KT 10SM FEW050 OVC070 13/02 A2960 RMK AO2 SLP025 T01280017", "KPWM 292251Z 08010KT 10SM BKN060 OVC100 08/04 A3010 RMK AO2 SLP191 T00830039", "KPWT 292156Z AUTO 22011G19KT 10SM CLR 24/08 A2995 RMK AO2 SLP145 T02390083", "KPXE 292235Z AUTO 23008KT 10SM -RA OVC100 19/18 A2971 RMK AO2 LTG DSNT SE P0010 T01890183", "KPYM 292252Z AUTO 10007KT 10SM OVC060 10/06 A2999 RMK AO2 SLP160 T01000061", "KPYX 292235Z AUTO 32015G24KT 10SM CLR 21/00 A2996 RMK AO2 P0001 T02091002", "KPZQ 292235Z AUTO 09005KT 10SM BKN004 OVC040 06/06 A2954 RMK AO2 T00600060", "KQAZ 292155Z AUTO 08010KT 9999 BKN160 35/M01 A2991 RMK AO2 SLP118 WND DATA ESTMD T03531013", "KQBL 292215Z AUTO 00000KT 10SM FEW012 SCT024 BKN032 BKN038 22/20 A2968 RMK AO2 SLP057 WND DATA ESTMD", "KQD3 292155Z COR VRB04KT 9999 CLR 29/25 A2975 RMK AO2A SLP059 WND DATA ESTMD T02940251 $", "KQDG 292155Z AUTO 00000KT 5000 -RA BR BKN055 OVC075 12/11 A2946 RMK AO2 RAE40RAB47 SLP978 P0002 T01160105 $", "KQEI 292250Z AUTO 19003KT 9999 CLR 09/03 A2979 RMK A02 TSNO", "KQEJ 292250Z AUTO 21005KT 9999 CLR 10/02 A2976 RMK A02 TSNO", "KQEN 292240Z AUTO 25010G26KT 9999 CLR 05/M00 A2968 RMK A02 TSNO", "KQEP 292250Z AUTO 22001KT 9999 FEW100 10/06 A2988 RMK A02 TSNO", "KQEQ 292250Z AUTO 22002KT 9999 BKN070 10/08 A2988 RMK A02 TSNO", "KQER 292240Z AUTO 14003KT 9999 CLR 09/03 A2976 RMK A02 TSNO", "KQES 292240Z AUTO 23002KT 9999 FEW110 11/06 A2993 RMK A02 TSNO", "KQEV 292250Z AUTO 24003KT 9999 CLR 10/06 A2987 RMK A02 TSNO", "KQEW 292250Z AUTO 23005G12KT 9999 CLR 10/05 A2986 RMK A02 TSNO", "KQEX 292250Z AUTO 28004KT 9999 CLR 11/03 A2979 RMK A02 TSNO", "KQEY 292240Z AUTO 08001KT 9999 CLR 09/05 A2961 RMK A02 TSNO", "KQFB 292250Z AUTO 12001KT 9999 CLR 12/05 A2991 RMK A02 TSNO", "KQFT 292250Z AUTO 17001KT 9999 BKN018 10/06 A2984 RMK A02 TSNO", "KQFU 292250Z AUTO 25003KT 9999 BKN075 10/04 A2988 RMK A02 TSNO", "KQFV 292250Z AUTO 25005KT 9999 CLR 09/01 A2983 RMK A02 TSNO", "KQFW 292250Z AUTO 18003KT 9999 FEW023 10/05 A2965 RMK A02 TSNO", "KQFX 292250Z AUTO 22003KT 9999 CLR 10/05 A2986 RMK A02 TSNO", "KQHY 292219Z AUTO 00000KT 10SM FEW013 SCT030 BKN037 BKN080 22/19 A2966 RMK AO2 LTG DSNT S SLP050", "KQRH 292155Z AUTO VRB04KT 9999 CLR 29/26 A2970 RMK AO2 SLP060 WND DATA ESTMD T02930255", "KQTZ 292155Z VRB02KT 9999 SKC 22/05 A2972 RMK SLP069", "KQVF 292246Z AUTO 00000KT 9000 -RA FEW014 SCT018 BKN040 26/25 A2985 RMK AO2 RAB46 SLP111 WND DATA ESTMD", "KRAC 292153Z AUTO 31009KT 10SM FEW037 OVC070 12/04 A2957 RMK AO2 SLP015 T01220039", "KRAL 292153Z 28011KT 10SM CLR 31/14 A2993 RMK AO2 SLP119 T03060144", "KRAP 292252Z 34023G32KT 10SM CLR 17/M04 A3002 RMK AO2 PK WND 33036/2224 SLP159 T01671044", "KRAS 292235Z AUTO 30016G20KT 10SM CLR 25/07 A2994 RMK AO2 T02530073", "KRAW 292235Z AUTO 28013G18KT 10SM CLR 20/02 A2974 RMK AO2", "KRBD 292153Z 32017G26KT 10SM CLR 21/06 A2991 RMK AO2 PK WND 31028/2129 SLP125 T02110061", "KRBG 292153Z AUTO 35008KT 10SM CLR 28/09 A2994 RMK AO2 SLP134 T02830089", "KRBL 292154Z AUTO 14007KT 10SM CLR 31/09 A2993 RMK AO2 SLP130 T03110094", "KRBO 292235Z AUTO 32012G21KT 10SM CLR 26/05 A2994 RMK AO2 T02590049", "KRBW 292235Z AUTO 17006KT 10SM SCT110 26/17 A2972 RMK AO2", "KRCA 292155Z AUTO 31021G29KT 10SM CLR 18/M04 A3000 RMK AO2 PK WND 33034/37 SLP153 T01761038 $", "KRCE 292235Z AUTO 32006G13KT 10SM CLR 21/05 A2991 RMK AO2", "KRCM 292255Z AUTO 24011G18KT 10SM CLR 21/02 A2969 RMK AO2", "KRCR 292235Z AUTO 30006G11KT 10SM FEW050 SCT060 BKN075 11/07 A2960 RMK AO2", "KRCV 292235Z AUTO 31012G19KT 10SM BKN110 19/M08 A3019 RMK AO2 T01921076", "KRCX 292235Z AUTO 36014G23KT 10SM SCT020 BKN028 OVC050 06/04 A2965 RMK AO2 T00550041", "KRCZ 292255Z AUTO 00000KT 10SM CLR 24/17 A2972 RMK AO2 T02400173", "KRDD 292153Z 21007KT 10SM CLR 32/08 A2991 RMK AO2 SLP122 T03220078", "KRDG 292243Z 03005KT 3SM BR SCT003 BKN008 OVC016 14/13 A2977 RMK AO2 RAB11E20 CIG 007V012 P0000 T01390128", "KRDK 292235Z AUTO 35015G30KT 10SM FEW055 15/03 A2981 RMK AO2", "KRDM 292156Z 32010G19KT 10SM CLR 31/04 A2995 RMK AO2 SLP118 T03060039 $", "KRDR 292155Z AUTO 35016KT 10SM BKN070 BKN080 09/04 A2988 RMK AO2 RAE2057RAB19E30 SLP131 P0000 T00870043 $", "KRDU 292251Z 29003KT 10SM OVC250 22/17 A2974 RMK AO2 SLP067 T02220172", "KREG 292235Z AUTO 30008G17KT 10SM OVC015 18/16 A2971 RMK AO2 T01840155", "KREO 292252Z AUTO 22011G17KT 31/03 A2999 RMK AO1 PK WND 21026/2155 SLP126 T03110033 ", "KRFD 292154Z 29010KT 10SM BKN049 OVC065 12/02 A2961 RMK AO2 SLP030 T01220022 $", "KRFI 292235Z AUTO 32009G16KT 10SM SCT036 SCT045 19/07 A2989 RMK AO2 T01920074", "KRGA 292235Z AUTO 00000KT 10SM BKN120 16/11 A2973 RMK AO2", "KRGK 292235Z AUTO 32006G17KT 10SM SCT100 11/00 A2967 RMK AO2", "KRHI 292246Z AUTO VRB05KT 10SM -RA OVC010 02/01 A2956 RMK AO2 RAE2157B04UPB2157E04 CIG 006V012 P0000 T00220006", "KRHP 292250Z AUTO 25003KT 10SM OVC046 20/12 A2972 RMK AO2 T01980124", "KRHV 292247Z 32007KT 10SM SCT200 25/12 A2999", "KRIC 292154Z 14008KT 10SM FEW035 SCT065 BKN250 23/13 A2973 RMK AO2 SLP071 T02330133", "KRID 292255Z AUTO 26008KT 10SM -RA SCT060 OVC070 14/10 A2962 RMK AO2", "KRIL 292153Z AUTO 27008KT 10SM CLR 21/M02 A3015 RMK AO2 SLP176 T02061022", "KRIV 292155Z AUTO 32010KT 10SM CLR 32/11 A2995 RMK AO2 SLP130 T03180110", "KRIW 292153Z AUTO 18007KT 10SM CLR 20/M02 A3008 RMK AO2 SLP149 T02001022", "KRKD 292156Z AUTO 12006KT 10SM CLR 08/06 A3014 RMK AO2 SLP208 T00830061", "KRKP 292153Z AUTO A2993 RMK AO2 SLP138 PWINO $", "KRKR 292235Z AUTO 34009KT 10SM CLR 19/05 A2985 RMK AO2", "KRKS 292154Z AUTO 28020G29KT 10SM CLR 21/M12 A3017 RMK AO2 PK WND 29029/2154 SLP161 T02061117", "KRKW 292235Z AUTO VRB04KT 10SM CLR 19/12 A2971 RMK A01", "KRLD 292235Z AUTO 05005KT 10SM CLR 30/03 A2988 RMK AO2 T03010032", "KRME 292153Z 12018G24KT 10SM -RA SCT025 OVC035 10/06 A2984 RMK AO2 RAB49 SLP106 P0000 T01000056", "KRMG 292153Z AUTO 19005KT 10SM FEW120 22/14 A2971 RMK AO2 SLP052 T02220144", "KRMN 292235Z AUTO 09004KT 10SM CLR 22/17 A2974 RMK AO2 T02230165", "KRMY 292235Z AUTO 27007KT 7SM -RA BKN009 OVC014 11/10 A2957 RMK AO2 T01060095 P0001", "KRNC 292235Z AUTO 27003KT 10SM BKN044 22/13 A2967 RMK A01", "KRND 292155Z AUTO 33018G23KT 10SM CLR 25/00 A2993 RMK AO2 PK WND 31026/12 SLP130 T02480003", "KRNH 292235Z AUTO 34015KT 10SM SCT060 OVC090 09/05 A2969 RMK AO2 T00870048", "KRNM 292153Z 28009KT 10SM CLR 26/16 A2998 RMK AO2 SLP141 T02610156 $", "KRNO 292155Z 24014G22KT 10SM FEW120 SCT180 SCT250 29/M05 A3008 RMK AO2 PK WND 22026/2141 SLP136 ACSL N T02891050", "KRNP 292235Z AUTO 18010KT 10SM BKN050 BKN070 BKN120 17/05 A2951 RMK AO2 T01700054", "KRNT 292153Z VRB06G15KT 10SM CLR 25/10 A2993 RMK AO2 SLP141 T02500100 $", "KROA 292154Z 16009KT 10SM SCT047 BKN055 22/13 A2973 RMK AO2 SLP059 T02220133", "KROC 292154Z 15010KT 10SM OVC047 15/09 A2968 RMK AO2 SLP054 T01500089", "KROG 292158Z 27009G14KT 10SM CLR 18/04 A2983 RMK AO2 SLP094 T01830039", "KROS 292235Z AUTO 34010G18KT 10SM SCT055 SCT075 OVC090 13/M02 A2970 RMK AO2 T01291018", "KROW 292251Z VRB06KT 10SM CLR 26/M04 A3006 RMK AO2 SLP139 T02611044", "KROX 292235Z AUTO 07005KT 10SM SCT070 BKN100 10/M01 A2985 RMK AO2", "KRPD 292255Z AUTO 33008G11KT 310V010 7SM -RA BKN021 BKN026 OVC043 06/05 A2968 RMK AO2 T00550052", "KRPH 292235Z AUTO 32009G15KT 250V340 10SM CLR 22/04 A2995 RMK AO2 T02210038 $", "KRPJ 292235Z AUTO 28017G20KT 10SM OVC050 11/03 A2962 RMK AO2 T01110031 TSNO", "KRPX 292201Z AUTO 10SM 19/M01 A3001 RMK Roundup ", "KRQB 292235Z AUTO 19006KT 10SM SCT031 OVC044 09/06 A2952 RMK AO2 T00890058", "KRQE 292153Z AUTO 30006KT 10SM CLR 25/M09 A3019 RMK AO2 SLP142 T02501094", "KRQO 292235Z AUTO 28008KT CLR 22/06 A2993 RMK AO2 PWINO T02190058", "KRRL 292255Z AUTO 35007G15KT 10SM RA OVC014 03/03 A2956 RMK AO2 T00330031 TSNO", "KRRT 292235Z AUTO 06008KT 10SM BKN070 06/01 A2987 RMK AO2", "KRSL 292153Z AUTO 34023G38KT 10SM CLR 26/M03 A2983 RMK AO2 PK WND 34039/2113 SLP097 T02561028 $", "KRSP 292254Z AUTO 12010KT 10SM BKN008 15/11 A2976 RMK AO2 SLP080 T01500106 $ ", "KRST 292154Z 34015G22KT 10SM SCT036 SCT046 BKN055 10/02 A2967 RMK AO2 PK WND 33027/2117 SLP056 T01000022", "KRSW 292153Z 23018G24KT 10SM CLR 28/23 A2985 RMK AO2 PK WND 21030/2055 SLP104 T02830228", "KRTN 292153Z AUTO VRB03KT 10SM BKN110 23/M05 A3011 RMK AO2 SLP145 T02331050", "KRTS 292235Z AUTO 27013G21KT 10SM CLR 25/M03 A3013 RMK AO2", "KRUE 292153Z AUTO 32010KT 10SM FEW047 BKN060 21/11 A2978 RMK AO2 SLP077 T02110106", "KRUG 292235Z AUTO 34021G26KT 10SM SCT055 SCT070 BKN090 11/M01 A2996 RMK AO2", "KRUQ 292245Z AUTO 15003KT 10SM CLR 20/16 A2974 RMK AO2 T01950158", "KRUT 292156Z AUTO 13010G28KT 10SM OVC070 09/04 A2991 RMK AO2 PK WND 10028/2149 RAE31 SLP125 P0000 T00940044 $", "KRVF 292235Z AUTO VRB05G12KT 10SM CLR 24/M07 A3007 RMK AO2", "KRVJ 292235Z AUTO 20022G28KT 2 1/2SM +TSRA BR SCT009 BKN045 OVC070 21/21 A2974 RMK AO2 LTG DSNT ALQDS P0007 T02120207", "KRVL 292235Z AUTO 00000KT 10SM SCT017 BKN049 BKN055 14/10 A2975 RMK AO2", "KRVS 292153Z VRB05G20KT 10SM CLR 21/03 A2986 RMK AO2 SLP117 T02060033", "KRWF 292153Z AUTO 30015G27KT 10SM FEW048 OVC065 12/02 A2976 RMK AO2 PK WND 32027/2148 SLP084 T01170017", "KRWI 292153Z AUTO 16003KT 10SM CLR 25/16 A2974 RMK AO2 SLP068 T02500161 $", "KRWL 292153Z AUTO 27017G26KT 10SM CLR 19/M03 A3016 RMK AO2 PK WND 29026/2147 SLP147 T01941033", "KRWV 292235Z AUTO 32010G21KT 290V350 10SM CLR 22/07 A2994 RMK AO2 T02200072", "KRXE 292153Z AUTO VRB06KT 10SM CLR 21/M04 A3012 RMK AO2 SLP182 T02111044", "KRYM 292155Z AUTO 36012KT 10SM SCT070 BKN095 11/M04 A2972 RMK AO2 SLP074 T01091040", "KRYN 292245Z 35005KT 10SM CLR 35/M13 A2990", "KRYW 292235Z AUTO 31010G17KT 280V340 10SM CLR 23/02 A2997 RMK AO2 T02270024", "KRYY 292250Z 27003KT 10SM CLR 22/14 A2971 RMK AO2 SLP055 T02170139 $", "KRZL 292235Z AUTO 24009KT 10SM SCT023 SCT029 SCT034 13/08 A2961 RMK AO2", "KRZN 292235Z AUTO 03006KT 10SM SCT043 BKN075 OVC090 08/01 A2970 RMK AO2 T00820014", "KRZR 292235Z AUTO 19006G13KT 10SM CLR 22/16 A2968 RMK A01", "KRZT 292235Z AUTO 17007KT 10SM OVC080 15/11 A2968 RMK AO2 PWINO", "KS21 292235Z AUTO 18018KT 10SM CLR 26/M02 A3004 RMK AO2", "KS25 292235Z AUTO 36023KT 10SM FEW080 14/M05 A3009 RMK AO2", "KS32 292235Z AUTO 34024KT 10SM SCT030 SCT046 BKN060 09/04 A2991 RMK AO2 TSNO", "KS33 292235Z AUTO 35008KT 10SM CLR A2994 RMK AO2", "KS34 292155Z AUTO 00000KT 10SM 28/28 A2999 RMK Plains ", "KS39 292235Z AUTO 06008KT 350V090 10SM CLR 28/01 A2995 RMK AO2", "KS52 292235Z AUTO 16011KT 10SM OVC110 27/03 A2991 RMK AO2 T02750030", "KS85 292240Z AUTO 35016G24KT 10SM 16/M09 A3008 RMK A01 Culbertson ", "KSAA 292235Z AUTO 25013G17KT 10SM CLR 17/M03 A3019 RMK AO2", "KSAC 292153Z 20006KT 10SM CLR 29/12 A2994 RMK AO2 SLP139 T02940122", "KSAD 292251Z AUTO VRB03KT 10SM CLR 32/M06 A2997 RMK AO2 SLP103 T03171061", "KSAF 292153Z COR 25006KT 10SM CLR 20/M05 A3017 RMK AO2 SLP162 T02001050 $", "KSAN 292251Z 31006KT 10SM BKN012 BKN250 18/13 A3000 RMK AO2 SLP160 T01780128 $", "KSAR 292235Z AUTO 27006G14KT 10SM CLR 20/06 A2970 RMK AO2 T01950060", "KSAT 292251Z 33013G23KT 10SM CLR 25/01 A2995 RMK AO2 SLP128 T02500011", "KSAV 292239Z 18016G25KT 2SM R01/4000VP6000FT +TSRA BR SCT022CB BKN080 OVC120 21/19 A2974 RMK AO2 LTG DSNT ALQDS TSE07B18 FRQ LTGCCCA NW AND SE-SW TS NW AND SE-SW MOV NE P0006 T02110189", "KSAW 292247Z 02006KT 1SM -RA BR OVC003 05/04 A2950", "KSAZ 292235Z AUTO 33015G22KT 10SM SCT100 12/M06 A2974 RMK AO2", "KSBA 292153Z COR 26008KT 6SM HZ BKN005 15/12 A3000 RMK AO2 SLP159 T01500117 $", "KSBM 292243Z AUTO 28011G18KT 10SM BKN027 OVC034 08/03 A2955 RMK AO2 PK WND 28026/2211 T00780033", "KSBN 292154Z 30007KT 10SM BKN006 BKN014 OVC025 09/08 A2961 RMK AO2 RAE45 SLP029 P0005 T00890078", "KSBO 292235Z AUTO 17004KT 10SM SCT090 BKN120 25/16 A2970 RMK AO2 LTG DSNT N THRU E", "KSBP 292156Z 30011KT 10SM CLR 19/13 A3001 RMK AO2 SLP161 T01940128", "KSBS 292235Z AUTO 31011KT 10SM CLR 16/M02 A3019 RMK AO1 T01551017", "KSBY 292154Z VRB03KT 10SM CLR 23/15 A2975 RMK AO2 SLP076 T02280150", "KSCD 292235Z AUTO 00000KT 10SM SCT060 OVC110 22/16 A2969 RMK AO2 T02190157", "KSCH 292246Z 13006G15KT 10SM OVC039 A2988 RMK TEMP AND DP MISSING", "KSCK 292155Z 29012KT 10SM CLR 31/07 A2995 RMK AO2 SLP140 T03060072", "KSCR 292245Z AUTO 00000KT 10SM CLR 21/19 A2975 RMK AO2 T02060186", "KSCX 292235Z AUTO 20005KT 10SM CLR 19/09 A2969 RMK A01", "KSDA 292235Z AUTO 34020G32KT 10SM CLR 17/01 A2979 RMK AO2", "KSDB 292251Z AUTO 20015G27KT 10SM CLR 27/M04 A3014 RMK AO2 PK WND 21027/2249 SLP148 T02671044", "KSDC 292235Z AUTO 14009G18KT 10SM SCT013 OVC070 12/09 A2973 RMK AO2", "KSDF 292156Z 24013KT 10SM FEW040 FEW110 SCT300 19/10 A2967 RMK AO2 SLP045 T01890100", "KSDL 292153Z 10SM CLR 36/M07 A2992 RMK AO2 SLP104 T03561067", "KSDM 292153Z COR 29008KT 10SM FEW010 19/13 A2999 RMK AO2 SLP151 T01940133 $", "KSDY 292156Z AUTO 35019G25KT 10SM CLR 16/M06 A3009 RMK AO2 PK WND 35026/2133 SLP200 T01611061", "KSEA 292153Z 24007G15KT 200V270 10SM FEW140 FEW250 23/09 A2995 RMK AO2 SLP148 ACSL DSNT SE T02330089", "KSEE 292247Z 29010KT 10SM SKC 23/13 A2997", "KSEF 292235Z AUTO 23015KT 10SM CLR 29/21 A2984 RMK AO2 LTG DSNT NE AND NW T02880213", "KSEG 292245Z AUTO 14003KT 10SM BKN019 BKN028 OVC055 14/12 A2977 RMK AO2 T01440117", "KSEM 292235Z AUTO 10005KT 10SM OVC090 22/18 A2964 RMK AO2 LTG DSNT W", "KSEP 292235Z AUTO 33014G20KT 10SM CLR 22/02 A2999 RMK AO2 T02180018", "KSEQ 292155Z AUTO 31013G22KT 10SM CLR 24/03 A2993 RMK AO2 SLP134 T02430030", "KSET 292154Z AUTO 28015G20KT 10SM CLR 21/01 A2966 RMK AO2 SLP041 T02060011", "KSEZ 292235Z AUTO 13006KT 10SM CLR 30/M05 A3010 RMK AO2", "KSFB 292242Z 17006KT 10SM BKN035 BKN043 23/21 A2981 RMK AO2 LTG DSNT NE-SE RAE04 TSE14 P0000 T02280211", "KSFF 292153Z VRB03KT 10SM CLR 27/04 A2997 RMK AO2 SLP142 T02670044", "KSFM 292156Z AUTO 12006KT 10SM FEW065 09/02 A3008 RMK AO2 SLP191 T00890022", "KSFO 292156Z 30018KT 10SM FEW008 BKN200 16/09 A3002 RMK AO2 SLP164 T01610094", "KSFQ 292235Z AUTO 15006KT 10SM CLR 24/16 A2975 RMK AO2 T02370164", "KSFZ 292156Z AUTO 08006KT 10SM -RA BKN040 OVC047 11/04 A2997 RMK AO2 RAE2057B36 SLP151 P0000 T01060039", "KSGF 292252Z 29008G18KT 10SM CLR 19/04 A2978 RMK AO2 SLP077 T01890039", "KSGH 292156Z AUTO 19014G19KT 10SM FEW036 SCT043 BKN055 18/10 A2961 RMK AO2 SLP027 T01780100", "KSGJ 292236Z 27010G18KT 10SM 22/21 A2978 RMK AO2 LTG DSNT E TSE2159B04E30RAE36 P0004 $", "KSGR 292153Z 33013G24KT 10SM BKN050 21/11 A2989 RMK AO2 PK WND 34031/2100 SLP124 T02110106", "KSGS 292235Z AUTO 35010KT 10SM SCT050 SCT070 OVC090 12/M01 A2969 RMK AO2 T01151006", "KSGT 292156Z AUTO 35013KT 10SM SCT080 OVC100 18/13 A2975 RMK AO2 SLP075 T01830133", "KSGU 292156Z AUTO VRB03KT 10SM CLR 32/M04 A3002 RMK AO2 SLP132 T03171039", "KSHD 292235Z AUTO 15007KT 10SM CLR 21/12 A2972 RMK AO2 T02050123", "KSHL 292235Z AUTO 34018G24KT 10SM SCT055 BKN065 OVC085 13/M00 A2978 RMK AO2", "KSHM 292155Z AUTO 01012G22KT 10SM CLR 20/M05 A3007 RMK AO2 SLP144 T01981052 $", "KSHR 292153Z AUTO 01007KT 10SM CLR 21/01 A3007 RMK AO2 SLP169 T02110006", "KSHV 292156Z 33015G24KT 10SM FEW022 SCT045 BKN170 BKN280 19/12 A2982 RMK RAE10 SLPNO", "KSIF 292245Z AUTO 17004KT 10SM CLR 22/17 A2974 RMK AO2 T02170165", "KSIK 292235Z AUTO 00000KT 10SM SCT039 SCT046 SCT070 20/13 A2971 RMK AO2", "KSIY 292153Z AUTO 16017G25KT 10SM CLR 29/02 A2999 RMK AO2 PK WND 16026/2119 SLP143 T02940017 $", "KSJC 292153Z 32010KT 10SM FEW046 SCT150 BKN200 22/13 A3001 RMK AO2 SLP161 T02170133", "KSJS 292235Z AUTO 00000KT 10SM SCT120 19/08 A2970 RMK AO2 T01860083", "KSJT 292251Z 35013G20KT 10SM CLR 27/M02 A3000 RMK AO2 SLP145 T02721022", "KSJX 292235Z AUTO 09003KT 10SM -RA SCT033 OVC050 08/07 A2952 RMK AO2 T00840072", "KSKA 292155Z AUTO 22005KT 10SM CLR 25/04 A2997 RMK AO2 SLP139 T02520038 $", "KSKF 292155Z AUTO 34016G23KT 10SM CLR 25/02 A2994 RMK AO2 SLP135 T02540015 $", "KSKX 292156Z AUTO 36010G16KT 10SM CLR 21/M08 A3018 RMK AO2 SLP188 T02111078", "KSLB 292235Z AUTO 33017G25KT 10SM CLR 12/M00 A2979 RMK AO2", "KSLC 292154Z 33008KT 10SM FEW250 27/M01 A3012 RMK AO2 SLP158 T02671011", "KSLE 292156Z VRB03KT 10SM CLR 27/06 A2993 RMK AO2 SLP135 T02670056", "KSLG 292156Z AUTO 32011KT 10SM CLR 18/04 A2985 RMK AO2 SLP100 T01830044", "KSLH 292235Z AUTO 04005KT 5SM BR OVC002 05/05 A2951 RMK AO2", "KSLI 292155Z 22008KT 10SM FEW200 22/14 A2994 RMK AO2A SLP142 T02170143", "KSLK 292251Z AUTO 14005KT 10SM FEW041 BKN060 OVC075 08/02 A2983 RMK AO2 SLP107 T00830022", "KSLN 292153Z 34025G35KT 10SM CLR 26/M01 A2978 RMK AO2 PK WND 34038/2143 SLP081 T02561006", "KSLO 292235Z AUTO 26010KT 10SM SCT060 19/05 A2968 RMK AO2 T01910054", "KSLR 292235Z AUTO 34013KT 10SM SCT050 20/08 A2990 RMK AO2 T02020080", "KSMD 292235Z AUTO 21004KT 9SM FEW055 BKN070 BKN085 14/13 A2957 RMK A01", "KSME 292235Z AUTO 33006KT 10SM CLR 18/13 A2968 RMK AO2", "KSMF 292153Z 00000KT 10SM BKN250 31/12 A2993 RMK AO2 SLP134 T03110122", "KSMN 292156Z AUTO 01005KT 10SM CLR 25/M05 A3006 RMK AO2 SLP870 T02501050", "KSMO 292251Z 26007KT 10SM OVC006 14/11 A2997 RMK AO2 SLP149 T01440111", "KSMQ 292153Z AUTO 11004KT 2 1/2SM BR OVC012 12/11 A2979 RMK AO2 SLP090 T01220111", "KSMS 292235Z AUTO 00000KT 10SM CLR 27/15 A2972 RMK AO2", "KSMX 292251Z 31008KT 9SM SCT013 16/12 A3001 RMK AO2 SLP166 T01610117", "KSNA 292153Z 22009KT 6SM HZ BKN250 20/12 A2997 RMK AO2 SLP149 T02000122", "KSNC 292235Z AUTO 07007G17KT 3/4SM -RA OVC004 09/09 A2990 RMK AO2", "KSNH 292230Z AUTO 34004KT 10SM BKN110 20/16 A2968 RMK A01", "KSNK 292255Z AUTO 33006KT 10SM CLR 25/M04 A3002 RMK AO2 T02481037", "KSNS 292153Z AUTO 31011KT 10SM CLR 18/10 A3003 RMK AO2 SLP178 T01780100", "KSNT 292251Z AUTO VRB05KT 19/M04 A3018 RMK AO1 SLP168 T01891044", "KSNY 292153Z AUTO 36023G38KT 10SM CLR 20/M01 A3001 RMK AO2 PK WND 35042/2120 SLP145 T02001011", "KSOA 292235Z AUTO 33011KT 310V010 10SM CLR 26/M04 A3006 RMK AO2", "KSOP 292156Z AUTO 17003KT 10SM SCT050 26/15 A2973 RMK AO2 SLP068 T02560150", "KSOW 292235Z AUTO 32010KT 10SM CLR 24/M13 A3022 RMK AO2", "KSPA 292235Z AUTO 00000KT 10SM CLR 21/16 A2973 RMK AO2", "KSPB 292153Z AUTO 12007KT 10SM CLR 26/10 A2993 RMK AO2 SLP133 T02610100", "KSPD 292156Z AUTO 34017G33KT 300V360 24/M02 A3003 RMK AO1 PK WND 30033/2156 SLP132 T02391022", "KSPF 292235Z AUTO 33017KT 10SM CLR 14/M04 A3008 RMK AO2", "KSPG 292245Z 27015G29KT 10SM VCTS -RA SCT015 SCT043 BKN120 22/21 A2982 RMK AO2 PK WND 26038/2226 LTG DSNT E-SW RAB25 P0000 T02220206", "KSPI 292252Z 30013G24KT 10SM SCT065 OVC090 17/04 A2966 RMK AO2 SLP044 T01670039", "KSPK 292235Z AUTO 34004KT 10SM CLR 24/M05 A3012 RMK AO2", "KSPS 292252Z AUTO 31014KT 10SM CLR 23/04 A2994 RMK AO2 SLP133 T02280044 $", "KSPW 292153Z AUTO 32014G26KT 10SM FEW050 BKN095 14/00 A2978 RMK AO2 PK WND 32029/2128 SLP092 T01390000", "KSQI 292156Z AUTO 29013G19KT 10SM OVC070 12/01 A2964 RMK AO2 SLP903 T01220006", "KSQL 292152Z 35008KT 10SM FEW200 18/11 A3003", "KSRB 292235Z AUTO 32004KT 10SM CLR 21/13 A2969 RMK AO2", "KSRC 292156Z AUTO 00000KT 10SM SCT047 OVC080 18/14 A2976 RMK AO2 SLP075 T01830139", "KSRE 292235Z AUTO 33010G16KT 10SM CLR 20/03 A2990 RMK AO2", "KSRQ 292231Z 24013G22KT 10SM OVC009 27/24 A2980 RMK AO2 LTG DSNT ALQDS RAE2159 TSE13 P0000 T02670239", "KSRR 292235Z AUTO 35011G16KT 310V020 10SM CLR 20/M10 A3023 RMK AO2", "KSSC 292155Z AUTO 22006KT 10SM CLR 27/14 A2969 RMK AO2 SLP054 T02720139 $", "KSSF 292153Z 32006G20KT 10SM CLR 26/03 A2993 RMK AO2 PK WND 33026/2054 SLP130 T02610028 $", "KSSI 292214Z AUTO 26008KT 10SM FEW049 SCT080 27/20 A2973 RMK AO2 LTG DSNT N-SE T02720200", "KSTC 292153Z 34012G23KT 10SM FEW070 OVC090 12/M03 A2971 RMK AO2 SLP075 T01171028", "KSTE 292235Z AUTO 28006KT 10SM -DZ BKN019 OVC030 06/01 A2958 RMK AO2 T00600012", "KSTF 292235Z AUTO VRB04G10KT 8SM -TSRA FEW009 SCT036 BKN044 15/15 A2968 RMK AO2 LTG DSNT ALQDS", "KSTJ 292153Z 32025G41KT 10SM SCT100 24/00 A2966 RMK AO2 PK WND 31041/2149 SLP040 T02390000", "KSTK 292235Z AUTO 34016KT 10SM OVC100 21/00 A3001 RMK AO2", "KSTL 292251Z 27008KT 10SM FEW050 21/02 A2968 RMK AO2 SLP046 T02060022 $", "KSTP 292153Z 32016G24KT 10SM -RA FEW045 BKN070 OVC100 11/01 A2971 RMK AO2 PK WND 32027/2056 WSHFT 2054 RAB02 SLP063 P0001 T01060011", "KSTS 292153Z 16009KT 10SM CLR 22/13 A2999 RMK AO2 SLP151 T02220128", "KSUA 292250Z 14010G15KT 7SM VCTS BKN024 25/20 A2984 RMK TSE2145", "KSUE 292237Z AUTO 25009KT 2 1/2SM BR OVC005 06/06 A2951 RMK AO2 RAB18E27 P0000", "KSUN 292155Z 23009KT 10SM SKC 23/00 A3014", "KSUS 292154Z 27009KT 10SM CLR 20/02 A2966 RMK AO2 SLP044 T02000017", "KSUT 292250Z AUTO 24006KT 7SM CLR 23/18 A2975 RMK AO2 T02260182", "KSUU 292155Z AUTO 22015KT 10SM CLR 26/14 A2995 RMK AO2 SLP148 T02550143", "KSUW 292255Z AUTO 34010G18KT 10SM SCT070 OVC080 09/00 A2970 RMK AO2 T00851003", "KSUX 292252Z 35017G26KT 10SM CLR 14/01 A2981 RMK AO2 PK WND 34035/2205 SLP099 T01390011", "KSUZ 292235Z AUTO 32005KT 10SM SCT048 BKN090 18/15 A2977 RMK A01", "KSVC 292235Z AUTO 13006KT 10SM CLR 26/M07 A3015 RMK AO2 T02571068", "KSVE 292235Z AUTO 22013KT 10SM CLR 27/M01 A3008 RMK AO2", "KSVH 292245Z AUTO 00000KT 10SM SCT029 21/16 A2974 RMK AO2 T02050162", "KSVN 292244Z AUTO 19006G31KT 6SM VCTS -RA BR FEW007 BKN035 OVC070 19/18 A2972 RMK AO2 RAB2159E15DZB15E17RAB29 TSB23E44 SLP067 $", "KSWF 292245Z 08007KT 2SM -RA BR OVC004 10/09 A2986", "KSWO 292153Z 28008G17KT 10SM CLR 22/04 A2989 RMK AO2 SLP115 T02220044", "KSWW 292235Z AUTO 33006KT 10SM CLR 26/M02 A3004 RMK AO2 T02571024", "KSXK 292235Z AUTO 32022G31KT 10SM FEW080 14/M00 A2980 RMK AO2", "KSXS 292200Z AUTO 17004KT 10SM BKN011 BKN090 20/19 A2966 RMK AO2 CIG 010V095 BKN011 V SCT SLP044", "KSXT 292156Z AUTO VRB06KT 10SM CLR 24/03 A3007 RMK AO2 SLP130 T02390028", "KSXU 292235Z AUTO 17005KT 10SM CLR 25/M04 A3007 RMK AO2 T02501045", "KSYF 292235Z AUTO 35018G32KT 10SM CLR 23/M06 A2996 RMK AO2 T02301064 PWINO", "KSYI 292235Z AUTO 22005KT 10SM CLR 21/13 A2967 RMK A01", "KSYM 292235Z AUTO 00000KT 10SM SCT085 16/09 A2971 RMK AO2", "KSYN 292235Z AUTO 35017G22KT 10SM SCT065 SCT075 BKN095 11/M01 A2969 RMK AO2 T01111014", "KSYR 292209Z 09012KT 3SM -RA BR FEW006 OVC021 10/09 A2979 RMK AO2 P0001 T01000089", "KSZL 292203Z AUTO 24013KT 10SM CLR 21/03 A2969 RMK AO2 WSHFT 00 SLP054 $", "KSZT 292235Z AUTO 09004KT 10SM CLR 24/02 A2997 RMK AO2", "KSZY 292235Z AUTO VRB03KT 10SM SCT055 OVC095 18/14 A2969 RMK A01", "KT20 292235Z AUTO 33010G19KT 10SM CLR 24/07 A2994 RMK AO2 T02390070", "KT35 292235Z AUTO 33014G19KT 10SM CLR 22/07 A2994 RMK AO2 T02210070", "KT41 292235Z AUTO 32016G23KT 10SM SCT048 SCT060 20/10 A2989 RMK AO2 T02030101", "KT69 292235Z AUTO 34013G21KT 10SM CLR 25/05 A2993 RMK A01", "KT70 292155Z AUTO 31013G23KT 10SM CLR 28/M01 A2999 RMK AO2 SLP147 T02831008 $", "KT74 292235Z AUTO 33016KT 10SM CLR 23/07 A2995 RMK AO2 T02270070", "KT82 292235Z AUTO 32017G23KT 10SM CLR 24/M01 A2999 RMK AO2 T02351008", "KT89 292235Z AUTO 25006KT 10SM CLR 27/M05 A3006 RMK A01", "KTAD 292154Z AUTO 03010G17KT 10SM CLR 22/M02 A3011 RMK AO2 SLP153 T02221022", "KTAN 292252Z AUTO 10004KT 8SM -RA FEW042 OVC050 11/06 A2999 RMK AO2 RAB2157 SLP155 P0000 T01060061", "KTAZ 292235Z AUTO 30013G23KT 10SM SCT075 19/01 A2966 RMK AO2 T01860006 PWINO", "KTBN 292155Z AUTO 30010G15KT 10SM CLR M M RMK AO2 SLPNO RVRNO TSNO $", "KTBR 292235Z AUTO 16003KT 10SM SCT060 BKN080 BKN090 25/18 A2971 RMK AO2 LTG DSNT SE THRU W T02470178 PWINO", "KTBX 292235Z AUTO 10SM CLR 15/M07 A3026 RMK AO2", "KTCL 292153Z VRB04KT 10SM CLR 25/15 A2966 RMK AO2 SLP041 T02500150", "KTCM 292155Z AUTO 30010KT 10SM CLR 24/10 A2994 RMK AO2 SLP142 T02440099 $", "KTCS 292153Z AUTO 16008G17KT 9SM CLR 25/M06 A3013 RMK AO2 SLP145 T02501061", "KTCY 292235Z AUTO 30014G19KT 10SM CLR 30/07 A2994 RMK A01", "KTDF 292245Z AUTO 20004KT 10SM CLR 21/15 A2976 RMK AO2", "KTDR 292250Z AUTO 11007KT 10SM BKN021 OVC027 21/19 A2959 RMK AO2 BKN V OVC SLP024 $", "KTDZ 292153Z AUTO 18010KT 10SM FEW049 18/07 A2956 RMK AO2 SLP010 T01830072", "KTEB 292151Z 060007KT 2 1/2SM -RA OVC006 10/09 A2983", "KTEW 292235Z AUTO 26007G14KT 10SM -RA SCT034 BKN060 OVC070 13/09 A2955 RMK AO2 T01250092", "KTEX 292235Z AUTO 01003KT 10SM CLR 16/M08 A3034 RMK AO2", "KTFP 292155Z AUTO 33015G20KT 10SM CLR 26/06 A2992 RMK AO2 T02610062", "KTGI 292215Z AUTO 00000KT 10SM CLR 18/15 A2977 RMK AO1 T01790149", "KTHA 292235Z AUTO 27004KT 10SM CLR 21/13 A2967 RMK A01", "KTHM 292155Z AUTO 27005KT 10SM 27/04 A3001 RMK Thompson Falls ", "KTIF 292235Z AUTO 34026G30KT 10SM CLR 18/M02 A2995 RMK AO2 T01791017", "KTIK 292155Z AUTO 32008G17KT 10SM CLR 20/04 A2989 RMK AO2 SLP125 T02000037", "KTIP 292230Z AUTO 28013G22KT 10SM CLR 18/M01 A2962 RMK AO2 T01751010", "KTIW 292153Z VRB06KT 10SM CLR 23/11 A2995 RMK AO2 SLP140 T02330106", "KTIX 292247Z 30009KT 1SM RA SCT026 BKN041 OVC055 23/22 A2986", "KTKC 292235Z AUTO 34015G23KT 10SM FEW065 BKN090 12/02 A2977 RMK AO2", "KTKI 292153Z 34016G24KT 10SM CLR 21/04 A2991 RMK AO2 PK WND 34030/2114 SLP130 T02110044", "KTKV 292235Z AUTO 32008KT 10SM OVC015 04/01 A2958 RMK AO2 T00350011 PWINO", "KTKX 292235Z AUTO 22006KT 8SM FEW080 20/14 A2971 RMK AO2", "KTLH 292228Z 00000KT 10SM FEW015 BKN030 OVC070 21/19 A2968 RMK AO2 RAE23 TSE22 CB DSNT NE P0001 T02060189", "KTMA 292235Z AUTO 19006KT 5SM -RA A2974 RMK AO2 LTG DSNT NE AND E RAB2206 P0000 $", "KTMB 292153Z 21011KT 10SM CLR 31/21 A2984 RMK AO2 SLP104 T03060206", "KTME 292235Z AUTO 34015G21KT 10SM 21/09 A2992 RMK AO2", "KTMK 292235Z AUTO 25008KT 10SM CLR 16/11 A3001 RMK AO2", "KTMT 292235Z AUTO 25005KT 10SM CLR 26/M04 A3014 RMK AO2 T02611040", "KTNB 292235Z AUTO 14004KT 10SM BKN018 BKN022 16/12 A2980 RMK AO2 T01590118", "KTNU 292235Z AUTO 30011KT 10SM FEW070 10/08 A2974 RMK A01", "KTOA 292149Z 27017G21KT 7SM HZ SCT010 18/13 A2997", "KTOB 292235Z AUTO 32017G22KT 10SM SCT090 10/M02 A2969 RMK AO2", "KTOC 292235Z AUTO 00000KT 10SM CLR 21/15 A2972 RMK AO2 T02110149", "KTOI 292205Z AUTO 20005KT 10SM SCT016 OVC095 22/18 A2969 RMK AO2 T02220183", "KTOL 292252Z 16005KT 10SM CLR 18/06 A2953 RMK AO2 LTG DSNT SW SLP998 T01830061", "KTOP 292153Z 27019G32KT 10SM SCT100 26/03 A2969 RMK AO2 PK WND 27032/2153 SLP048 T02610028", "KTOR 292153Z AUTO 34017G30KT 10SM FEW095 21/M01 A3002 RMK AO2 PK WND 36032/2056 SLP143 T02111006", "KTPA 292247Z 26018G30KT 5SM -RA SCT033 BKN080 OVC110 22/20 A2983 RMK AO2 PK WND 29039/2209 WSHFT 2155 LTG DSNT E-SW TSB25E46 OCNL LTGIC DSNT NE-E CB DSNT NE-E P0001", "KTPF 292235Z AUTO 29010G18KT 255V315 5SM HZ BKN016 BKN024 OVC029 23/20 A2985 RMK AO2", "KTPH 292156Z AUTO A3013 RMK AO2 SLPNO PWINO $", "KTPL 292251Z AUTO 33016G19KT CLR 22/06 A2994 RMK AO2 SLP134 T02170061 PWINO RVRNO $", "KTQE 292154Z AUTO 34025G31KT 10SM FEW060 17/02 A2983 RMK AO2 PK WND 36031/2134 SLP097 T01670017", "KTQH 292235Z AUTO 29010KT 10SM CLR 21/00 A2986 RMK AO2", "KTQK 292235Z AUTO 36014G24KT 10SM BKN110 23/00 A2993 RMK AO2 T02350000", "KTQV 292235Z AUTO VRB06KT 10SM CLR 22/16 A2974 RMK A01", "KTRI 292153Z 31006KT 10SM SCT150 OVC250 21/10 A2972 RMK AO2 SLP043 T02110100", "KTRK 292249Z 23014G22KT 170V230 10SM SCT250 22/M01 A3020", "KTRL 292153Z AUTO 33010G20KT 10SM FEW060 21/06 A2990 RMK AO2 SLP123 T02110061", "KTRM 292252Z AUTO 12009KT 10SM CLR 40/M02 A2977 RMK AO2 SLP084 T04001017 $", "KTSP 292235Z AUTO 31014KT 10SM CLR 27/07 A3010 RMK AO2", "KTTA 292245Z AUTO 00000KT 10SM CLR 22/18 A2973 RMK AO2 T02190182", "KTTD 292153Z 00000KT 10SM CLR 28/08 A2993 RMK AO2 SLP135 T02780078 $", "KTTF 292235Z AUTO 19010G18KT 10SM CLR 17/07 A2954 RMK AO2 T01720072", "KTTN 292242Z 05006KT 2SM BR OVC005 12/12 A2979 RMK AO2 T01170117", "KTTS 292238Z AUTO 29012KT 3SM +TSRA FEW003 OVC038 M A2981 RMK AO2 VIS 3/4 RWY15/33 TSE00TSB02 SLPNO ALSTG ESTMD $", "KTUL 292153Z 29011G21KT 10SM CLR 22/04 A2985 RMK AO2 SLP103 T02170044", "KTUP 292230Z 00000KT 10SM OVC110 17/15 A2967 RMK AO2 LTG DSNT E-S RAE25 TSE06 P0002 T01720150 $", "KTUS 292223Z 05008KT 10SM CLR 36/M09 A2995 RMK AO2 T03611089", "KTVC 292153Z 00000KT 6SM -RA BR BKN015 OVC022 11/09 A2951 RMK AO2 SLP994 P0007 T01060094", "KTVF 292156Z AUTO 02016G23KT 10SM SCT046 BKN055 10/01 A2985 RMK AO2 RAB09E22 SLP119 P0000 T01000006", "KTVI 292235Z AUTO 16004KT 7SM RA SCT050 BKN070 OVC100 18/18 A2972 RMK AO2", "KTVK 292235Z AUTO 34009KT 4SM -RA BR FEW031 BKN039 BKN046 07/07 A2977 RMK AO2", "KTVL 292153Z AUTO 19014G18KT 10SM CLR 22/M01 A3022 RMK AO2 PK WND 18028/2115 SLP191 T02171011", "KTVR 292242Z AUTO 33003KT 10SM -RA SCT019 BKN031 OVC050 18/16 A2968 RMK AO2 LTG DSNT NE AND S AND SW P0001 T01830161", "KTVY 292255Z AUTO 36006KT 10SM CLR 26/M18 A3011 RMK AO2", "KTWF 292153Z 10SM CLR 28/M03 A3007 RMK AO2 SLP142 T02781028", "KTWM 292235Z AUTO 36008G17KT 10SM BKN046 BKN050 BKN090 08/M01 A2967 RMK AO2", "KTWT 292235Z AUTO 22007KT 10SM SCT070 OVC090 18/11 A2970 RMK AO2", "KTXK 292153Z 30018G26KT 10SM FEW028 FEW055 20/11 A2983 RMK AO2 PK WND 30026/2151 SLP100 T02000111", "KTXW 292235Z AUTO 32015KT 10SM CLR 27/04 A2996 RMK AO2 T02750037", "KTYL 292235Z AUTO 29007KT 10SM CLR 25/M13 A3018 RMK AO2", "KTYQ 292235Z AUTO 29009G15KT 10SM OVC041 12/05 A2965 RMK AO2 LTG DSNT SE T01240054", "KTYR 292153Z 31015G22KT 10SM BKN043 20/10 A2988 RMK AO2 PK WND 31026/2128 SLP115 T02000100", "KTYS 292153Z 00000KT 10SM OVC030 21/13 A2968 RMK AO2 SLP043 T02060128 $", "KTZR 292247Z 19012G22KT 10SM SCT090 16/10 A2965", "KU42 292235Z AUTO 36007KT 10SM CLR 26/M02 A3013 RMK AO1 T02621025", "KU55 292235Z AUTO 31013KT 10SM CLR 24/M09 A3024 RMK A01", "KU64 292235Z AUTO 33016KT 10SM CLR 20/M12 A3023 RMK AO2 T01981115 $", "KU68 292235Z AUTO 05011G15KT 10SM CLR 22/M02 A3003 RMK AO2", "KU69 292235Z AUTO 28018KT 10SM CLR 24/M11 A3014 RMK A01", "KUAO 292153Z VRB05KT 10SM CLR 24/09 A2996 RMK AO2 SLP142 T02440094", "KUBE 292235Z AUTO 34017G25KT 10SM SCT031 BKN060 OVC070 06/05 A2967 RMK AO2", "KUCP 292156Z AUTO 18003KT 10SM SCT038 OVC049 14/09 A2969 RMK AO2 SLP068 T01390094", "KUCY 292235Z AUTO 26005KT 10SM OVC065 18/14 A2971 RMK A01", "KUDG 292156Z AUTO 21006KT 10SM CLR 27/12 A2972 RMK AO2 SLP064 T02720122", "KUES 292245Z 28013G21KT 10SM BKN065 OVC075 08/02 A2958", "KUGN 292251Z 27008G17KT 10SM OVC075 12/03 A2957 RMK AO2 SLP016 T01170028", "KUIL 292153Z AUTO 20007G18KT 10SM OVC011 14/09 A3000 RMK AO2 SLP158 T01390094", "KUIN 292154Z AUTO 33013G20KT 10SM OVC070 17/02 A2966 RMK AO2 SLP041 T01720022", "KUKF 292245Z AUTO 18004KT 10SM CLR 18/14 A2979 RMK AO2", "KUKI 292156Z AUTO 33008KT 10SM CLR 31/08 A2995 RMK AO2 SLP135 T03110083", "KUKL 292235Z AUTO 25014G23KT 10SM CLR 23/01 A2974 RMK AO2 T02300010", "KUKT 292235Z AUTO 07004KT 2SM BR BKN006 OVC011 12/12 A2980 RMK A01 P0001", "KULM 292235Z AUTO 36012G20KT 10SM SCT044 SCT085 BKN100 11/01 A2975 RMK AO2", "KULS 292230Z AUTO 35018G22KT 10SM CLR 25/00 A2993 RMK AO2", "KUMP 292235Z AUTO 26004KT 7SM BKN034 BKN047 OVC065 14/13 A2964 RMK AO2 P0004 T01350132", "KUNI 292235Z AUTO 23006KT 10SM SCT042 BKN060 OVC070 17/07 A2969 RMK AO2 T01660067", "KUNO 292153Z AUTO 28010G15KT 10SM FEW048 19/07 A2975 RMK AO2 SLP069 T01940072", "KUNU 292255Z AUTO 27010G16KT 10SM BKN024 BKN065 OVC075 07/02 A2959 RMK AO2 T00680022", "KUNV 292253Z 17003KT 10SM BKN055 13/09 A2975", "KUOX 292235Z AUTO 00000KT 10SM CLR 17/16 A2971 RMK AO2", "KUSE 292235Z AUTO 17007KT 10SM FEW065 FEW095 17/07 A2953 RMK AO2", "KUTA 292235Z AUTO 35008KT 10SM OVC037 17/16 A2971 RMK AO2 T01660156 $", "KUTS 292153Z AUTO 32011G20KT 10SM FEW044 OVC055 20/11 A2990 RMK AO2 SLP123 T02000106", "KUUU 292205Z AUTO 09014G21KT 10SM -RA BKN022 OVC050 09/06 A2996 RMK AO2 P0000 T00940061", "KUUV 292255Z AUTO 27008KT 10SM CLR 20/02 A2973 RMK AO2", "KUVA 292235Z AUTO 32013G18KT 10SM CLR 27/M02 A2999 RMK AO2 T02741021", "KUXL 292235Z AUTO 31018G22KT 10SM BKN028 OVC060 18/12 A2985 RMK AO2 T01780120", "KUYF 292235Z AUTO 20017G23KT 10SM SCT032 SCT090 17/08 A2962 RMK AO2", "KUZA 292154Z AUTO 00000KT 10SM CLR 22/16 A2974 RMK AO2 SLP063 T02170161", "KVAD 292228Z AUTO 19012KT 10SM -RA FEW120 20/18 A2972 RMK AO2 RAE11DZB11E12RAB12E14RAB28 SLP065 $", "KVAF 292235Z AUTO VRB04KT 10SM CLR 22/09 A2990 RMK A01", "KVAY 292241Z AUTO 03004KT 4SM BR OVC004 14/13 A2978 RMK AO2 RAE03 P0001 T01440133 $", "KVBG 292215Z AUTO 30008KT 10SM OVC007 13/11 A3004 RMK AO2 CIG 006 RWY12 SLP176 TSNO $", "KVBT 292156Z AUTO 28009G19KT 10SM CLR 18/04 A2984 RMK AO2 SLP102 T01830039", "KVBW 292255Z AUTO 15007KT 10SM CLR 20/13 A2970 RMK AO1 T02030131", "KVCB 292228Z AUTO VRB05KT 10SM FEW002 30/13 A2994 RMK AO2 T03000133", "KVCT 292251Z 33018G26KT 10SM CLR 24/08 A2992 RMK AO2 PK WND 31028/2236 SLP130 T02390083", "KVCV 292235Z AUTO 16016G21KT 8SM CLR 33/M06 A3002 RMK AO2", "KVDF 292235Z AUTO 29012G25KT 255V315 10SM BKN020 BKN032 OVC039 25/20 A2983 RMK AO2", "KVDI 292235Z AUTO 18011G20KT 5SM +VCTSRA SCT015 BKN048 OVC065 22/20 A2973 RMK AO2 LTG DSNT ALQS", "KVEL 292153Z AUTO VRB04KT 10SM CLR 21/M03 A3014 RMK AO2 SLP176 T02111028", "KVER 292255Z AUTO 25012G16KT 10SM SCT110 21/04 A2968 RMK AO2 T02140043", "KVES 292230Z AUTO 18005G25KT 4SM RA SCT035 BKN060 OVC075 12/08 A2961 RMK AO2 LTG DSNT N SE AND SW", "KVGC 292235Z AUTO 12005KT 3SM DZ SCT008 SCT012 OVC019 08/07 A2981 RMK AO2 P0001", "KVGT 292153Z 15008KT 10SM CLR 34/M06 A2995 RMK AO2 SLP136 T03391061", "KVHN 292235Z AUTO 20004KT 10SM CLR 25/M06 A3015 RMK AO2 T02501059", "KVIH 292153Z AUTO 26010G18KT 10SM CLR 19/03 A2972 RMK AO2 SLP059 T01890033", "KVIS 292156Z AUTO 30007KT 10SM CLR 32/15 A2992 RMK AO2 SLP137 T03220150", "KVJI 292235Z AUTO 31003KT 10SM SCT070 BKN095 19/09 A2973 RMK AO2 T01870089", "KVKS 292235Z AUTO 29003KT 8SM FEW009 SCT018 BKN026 17/17 A2967 RMK A01", "KVKY 292235Z AUTO 22021KT 10SM CLR A2968 RMK A01", "KVLD 292249Z 00000KT 4SM -RA BR SCT032 BKN041 OVC065 20/19 A2971 RMK AO1 P0006", "KVLL 292235Z AUTO 18006KT 10SM SCT045 BKN050 BKN120 17/07 A2957 RMK AO2 T01700069", "KVNC 292235Z AUTO 22013KT 8SM FEW050 27/26 A2985 RMK AO2", "KVNW 292255Z AUTO 24009G17KT 5SM -RA SCT025 BKN042 OVC049 12/10 A2961 RMK AO2 LTG DSNT ALQDS", "KVNY 292251Z 14008KT 10SM CLR 32/11 A2991 RMK AO2 SLP121 T03170111", "KVOA 292235Z AUTO 18015KT 10SM FEW019 FEW060 SCT110 25/19 A2967 RMK A01", "KVOK 292245Z AUTO 30009KT 10SM -RA BKN005 OVC013 06/04 A2961 RMK AO2 CIG 005V015 BKN V SCT SLP035", "KVPC 292235Z AUTO 00000KT 10SM CLR 22/15 A2971 RMK AO2", "KVPS 292155Z AUTO 12004KT 10SM OVC011 21/19 A2967 RMK AO2 SLP054 T02060185 $", "KVPZ 292156Z AUTO 27005KT 10SM FEW030 BKN055 OVC070 12/06 A2959 RMK AO2 SLP022 T01220061", "KVQQ 292250Z 24008KT 7SM BKN030 22/22 A2972", "KVRB 292205Z 17012KT 10SM FEW047 SCT065 BKN085 24/19 A2980 RMK AO2 LTG DSNT NW-NE T02440194", "KVSF 292154Z AUTO 10007KT 10SM FEW038 OVC060 11/04 A2998 RMK AO2 RAE40 SLP154 P0000 T01060044", "KVTA 292154Z AUTO 21011KT 10SM SCT055 BKN100 17/08 A2965 RMK AO2 SLP038 T01720078", "KVTI 292235Z AUTO 32012G18KT 10SM OVC070 13/M01 A2969 RMK AO2 T01321009", "KVTN 292252Z AUTO 34021G37KT 10SM CLR 17/M07 A2995 RMK AO2 PK WND 33042/2216 SLP141 T01721067", "KVTP 292235Z AUTO 08003KT 10SM BKN090 09/M03 A3032 RMK AO2", "KVUJ 292245Z AUTO 00000KT 10SM CLR 21/17 A2979 RMK AO2 T02060173", "KVVS 292230Z AUTO 21004KT 10SM SCT080 OVC100 16/08 A2971 RMK AO2 T01570083", "KVVV 292235Z AUTO 34021G28KT 10SM SCT032 BKN038 OVC060 10/03 A2982 RMK AO2", "KVWU 292235Z AUTO 02010G16KT 10SM SCT055 SCT070 OVC080 09/M03 A2982 RMK AO2", "KVYS 292235Z AUTO 29015G20KT 10SM SCT075 BKN100 14/00 A2963 RMK AO2 T01431001", "KW13 292235Z AUTO 18008KT 150V210 10SM SCT060 21/12 A2972 RMK AO1 T02050117", "KW22 292235Z AUTO 24004KT 10SM FEW120 17/08 A2973 RMK AO2", "KW29 292245Z AUTO 09004KT 10SM BKN060 17/13 A2977 RMK AO2 T01700132", "KW31 292235Z AUTO 00000KT 10SM CLR 22/15 A2973 RMK AO1 T02150150", "KW40 292245Z AUTO 00000KT 10SM CLR 24/20 A2973 RMK AO2 T02430203", "KW43 292235Z AUTO 35011KT 10SM OVC100 13/M04 A3011 RMK AO2", "KW63 292255Z AUTO 00000KT 10SM CLR 22/17 A2972 RMK AO1", "KW75 292255Z AUTO 09005KT 10SM CLR 17/15 A2977 RMK AO1 T01690148", "KW78 292235Z AUTO 17003KT 10SM CLR 22/15 A2972 RMK AO1 T02200154", "KW81 292235Z AUTO 16003KT 10SM SCT044 SCT055 21/13 A2973 RMK AO1 T02140126", "KW96 292235Z AUTO 13003KT 10SM CLR 22/14 A2974 RMK AO1 T02210140", "KWAL 292154Z AUTO 19010KT 10SM CLR 18/14 A2977 RMK AO2 SLP078 T01830144", "KWBF 292235Z AUTO 33010G19KT 300V010 10SM FEW026 SCT032 BKN040 23/18 A2976 RMK A01", "KWDG 292145Z 31010KT 10SM SKC 22/05 A2989", "KWDR 292235Z AUTO 00000KT 10SM CLR 21/13 A2974 RMK AO2 LTG DSNT SE", "KWHP 292253Z 12006KT 10SM SKC 30/09 A2996", "KWJF 292156Z 24016G23KT 10SM CLR 35/00 A2998 RMK AO2 SLP133 T03500000", "KWLD 292154Z AUTO 24014KT 10SM CLR 23/06 A2985 RMK AO2 SLP104 T02330056 $", "KWMC 292156Z AUTO 14004KT 10SM CLR 29/M03 A3006 RMK AO2 SLP144 T02891028", "KWRB 292158Z AUTO 16005KT 10SM -DZ SCT050 SCT100 25/18 A2968 RMK AO2 DZB58 SLP051", "KWRI 292155Z 08003KT 5SM BR OVC005 14/14 A2978 RMK AO2A CIG 004 RWY24 SLP084 T01370135", "KWRL 292153Z AUTO 02010KT 10SM CLR 23/M02 A3003 RMK AO2 SLP157 T02281017", "KWST 292215Z AUTO 06014KT 2 1/2SM -RA BR OVC014 09/07 A2993 RMK AO2 P0001 T00940072", "KWVI 292153Z AUTO 25006KT 10SM CLR 16/11 A3004 RMK AO2 SLP173 T01610111", "KWVL 292156Z AUTO VRB06KT 10SM OVC100 12/02 A3010 RMK AO2 SLP220 T01170017", "KWWD 292156Z AUTO 28008KT 10SM CLR 18/14 A2978 RMK AO2 SLP086 T01830144 $", "KWWR 292235Z AUTO 31011G22KT 10SM CLR 24/02 A2994 RMK AO2", "KX07 292235Z AUTO 24011KT 10SM CLR 27/22 A2983 RMK A01", "KX26 292230Z AUTO 20008KT 10SM SCT039 BKN110 24/20 A2981 RMK AO2 TSNO T02400200", "KX60 292235Z AUTO 21012G18KT 10SM SCT041 SCT065 BKN100 21/19 A2975 RMK AO2 P0003 T02110194", "KXBP 292230Z AUTO 33008G15KT 10SM CLR 21/04 A2997 RMK AO2 T02110042", "KXLL 292235Z AUTO 06005KT 10SM OVC009 12/11 A2981 RMK AO2", "KXMR 292248Z AUTO 28009KT 6SM -TSRA BR FEW003 FEW007 BKN013 OVC021 22/21 A2983 RMK AO2 CIG 013V018 BKN V SCT CIG 009 RWY31 SLP104 $", "KXNA 292153Z 31012G19KT 10SM CLR 19/04 A2983 RMK AO2 SLP096 T01890044", "KXNO 292155Z AUTO 20006KT 10SM CLR 27/13 A2972 RMK AO2 SLP065 T02690132 $", "KXNX 292235Z AUTO 01003KT 10SM BKN110 20/14 A2972 RMK A01", "KXSA 292255Z AUTO 09004KT 10SM SCT060 20/15 A2976 RMK AO2 T02040151", "KXVG 292253Z AUTO 35015G23KT 324V034 10SM BKN080 08/M06 A2976 RMK AO2", "KXWA 292251Z AUTO 36023G33KT 10SM CLR 13/M05 A3009 RMK AO2 PK WND 35034/2239 SLP207 T01331050", "KY19 292235Z AUTO 36023G31KT 10SM SCT070 13/M02 A2999 RMK AO2", "KY23 292235Z AUTO 34007KT 310V030 10SM BKN029 OVC036 08/05 A2966 RMK AO2 T00790050", "KY31 292235Z AUTO 00000KT 10SM SCT038 OVC100 14/07 A2949 RMK AO2 T01400066", "KY49 292235Z AUTO 36019G25KT 10SM SCT065 10/M06 A2977 RMK AO2 T01011064", "KY50 292215Z AUTO 27013G17KT 10SM -RA FEW017 BKN026 OVC047 06/03 A2959 RMK AO2 RAB2159 P0000 $", "KY51 292255Z AUTO 33014G17KT 10SM SCT030 BKN037 OVC050 08/04 A2963 RMK AO1 T00800043", "KY63 292235Z AUTO 01015G22KT 7SM RA OVC032 05/03 A2984 RMK AO2 T00510029 P0001", "KY70 292235Z AUTO 27010KT 5SM RA SCT014 SCT039 OVC046 10/09 A2955 RMK AO2 T00960085 P0003", "KYIP 292153Z 18010KT 10SM FEW046 17/07 A2955 RMK AO2 SLP004 T01670067", "KYKM 292153Z AUTO 00000KT 10SM CLR 28/04 A2991 RMK AO2 SLP122 T02830044", "KYKN 292156Z AUTO 32023G27KT 10SM SCT090 16/00 A2986 RMK AO2 PK WND 34030/2118 SLP127 T01560000", "KYNG 292251Z 22009KT 10SM SCT031 BKN130 OVC250 14/08 A2967 RMK AO2 SLP046 T01440083", "KZER 292235Z AUTO 12007KT 1/4SM FG OVC001 10/10 A2978 RMK AO2 P0001", "KZPH 292235Z AUTO 26023G30KT 10SM BKN021 BKN026 OVC037 26/22 A2984 RMK A02 LTG DSNT E S AND W T02580219", "KZZV 292153Z AUTO 19008KT 10SM FEW110 17/08 A2967 RMK AO2 SLP044 T01720078", "LATI 292250Z 16002KT 9999 BKN068 OVC130 14/12 Q1015 NOSIG", "LBBG 292230Z AUTO 23005KT 9999 NCD 07/03 Q1014 NOSIG", "LBGO 292230Z AUTO 09004KT 9999 OVC120/// 09/08 Q1014", "LBIA 292200Z 06004KT 9999 BKN100 08/05 Q1014", "LBPD 292230Z AUTO 07004KT 030V110 9999 FEW076/// SCT090/// 13/06 Q1014", "LBPG 292200Z 18004KT 9999 BKN100 13/07 Q1014", "LBPL 292200Z 20002KT 9999 BKN100 13/05 Q1015", "LBSF 292230Z AUTO 19003KT 9999 NSC 10/06 Q1014 NOSIG", "LBWN 292230Z AUTO 26003KT 9999 NCD 06/03 Q1013 NOSIG", "LCEN 292220Z 28011KT 9999 FEW020 12/08 Q1009 NOSIG RMK RWY11 29009KT", "LCLK 292230Z 23005KT 210V270 9999 FEW050 13/09 Q1010 NOSIG", "LCPH 292230Z 01005KT 9999 BKN040 13/08 Q1010 NOSIG", "LCRA 292220Z 28004KT CAVOK 12/08 Q1010 NOSIG", "LDDU 292230Z VRB03KT CAVOK 14/07 Q1015", "LDOS 292230Z 02003KT CAVOK 12/08 Q1014", "LDPL 292230Z 07004KT 5000 BR SCT001 11/11 Q1015", "LDRI 292230Z VRB01KT CAVOK 14/11 Q1015", "LDSP 292230Z AUTO 26004KT 150V310 CAVOK 14/10 Q1015", "LDZA 292230Z VRB02KT CAVOK 14/13 Q1015 NOSIG", "LDZD 292230Z 16003KT 9999 SCT050 12/12 Q1015", "LEAB 292230Z 18005KT CAVOK 15/08 Q1018 NOSIG", "LEAG 292230Z AUTO 27007KT 210V360 CAVOK 22/14 Q1018", "LEAL 292230Z 01003KT 320V070 9999 FEW055 23/14 Q1014 NOSIG", "LEAM 292230Z AUTO VRB03KT CAVOK 21/16 Q1014", "LEAS 292230Z AUTO 26003KT 240V300 9999 OVC009 15/14 Q1023", "LEBA 292230Z AUTO VRB06KT CAVOK 25/10 Q1017", "LEBB 292230Z AUTO 28004KT 240V300 9999 BKN006 BKN010 OVC015 15/15 Q1022", "LEBG 292230Z AUTO 02006KT 350V050 CAVOK 11/08 Q1022", "LEBL 292230Z 33008KT 9999 -RA FEW030 18/17 Q1014 NOSIG", "LEBR 292230Z AUTO 32017KT 9999 NCD 16/10 Q1019", "LEBT 292230Z AUTO VRB02KT 9999 OVC009 18/15 Q1016", "LECH 292230Z AUTO 25003KT 210V340 9000 NSC 17/15 Q1016", "LECO 292230Z VRB02KT 9999 BKN005 14/14 Q1024 TEMPO 3000 BR", "LEDA 292230Z AUTO 22006KT CAVOK 17/13 Q1015", "LEGE 292230Z 30004KT 260V330 9999 -RA FEW090 17/14 Q1014", "LEGR 292230Z AUTO 26004KT CAVOK 18/08 Q1020", "LEHC 292230Z AUTO 24010KT CAVOK 15/10 Q1015", "LEIB 292230Z 25006KT 170V300 9999 FEW049 20/13 Q1014 NOSIG", "LEJR 292230Z AUTO 00000KT CAVOK 19/15 Q1018", "LELC 292230Z AUTO 30006KT 9000 NCD 23/13 Q1014", "LELL 292230Z AUTO 29005KT 250V310 9999 -RA FEW049 SCT069 17/15 Q1015", "LELN 292230Z AUTO 28002KT CAVOK 07/07 Q1022", "LELO 292230Z AUTO 28007KT 250V310 9999 FEW040 OVC050 16/10 Q1021", "LEMD 292230Z 35003KT 280V050 9999 FEW070 19/08 Q1018 NOSIG", "LEMG 292230Z 27005KT CAVOK 25/12 Q1016 NOSIG", "LEMH 292230Z 36010KT 9999 FEW009 17/16 Q1012", "LEMI 292230Z AUTO 16003KT 120V220 CAVOK 20/11 Q1015", "LEMO 292230Z 22005KT CAVOK 19/13 Q1018 NOSIG", "LEPA 292230Z 36004KT 320V030 9999 FEW045 19/16 Q1013 NOSIG", "LEPP 292230Z AUTO 32003KT 280V340 9999 BKN019 13/09 Q1020", "LERS 292230Z AUTO VRB01KT CAVOK 17/16 Q1015", "LERT 292230Z 29005KT CAVOK 20/17 Q1018 NOSIG", "LESA 292230Z AUTO 29008KT 260V320 CAVOK 16/11 Q1021", "LESB 292230Z AUTO 29006KT 260V320 CAVOK 19/15 Q1014", "LESO 292230Z AUTO 28005KT 230V340 4600 BR VV009 16/14 Q1021", "LEST 292230Z 01003KT 330V050 9000 SCT008 BKN015 14/14 Q1024 NOSIG", "LETL 292230Z AUTO 31007KT 280V340 CAVOK 13/11 Q1020 RERA", "LETO 292230Z 02004KT 340V050 CAVOK 17/08 Q1018 WS R22 NOSIG", "LETU 292230Z AUTO 33007KT 9999 BKN042 16/11 Q1020", "LEVC 292230Z 25004KT 160V310 CAVOK 18/15 Q1015 NOSIG", "LEVD 292230Z AUTO 04008KT CAVOK 12/10 Q1021", "LEVS 292230Z AUTO 29006KT 260V320 CAVOK 20/08 Q1018", "LEVT 292230Z 31004KT 7000 SCT016 BKN028 OVC045 14/12 Q1021", "LEVX 292230Z 28006KT 250V310 5000 BCFG BKN001 OVC002 15/15 Q1023 NOSIG", "LEXJ 292233Z 27004KT 3000 -DZ BKN009 BKN016 15/15 Q1022", "LEZG 292230Z 30017G28KT 9999 FEW080 18/11 Q1017", "LEZL 292230Z 28005KT CAVOK 24/12 Q1018 NOSIG", "LFAQ 292230Z AUTO 05003KT 8000 NSC 08/07 Q1022", "LFAT 292230Z AUTO 12004KT 6000 FEW025 08/06 Q1022", "LFBA 292230Z AUTO 26007KT 9999 OVC014/// //////CB 16/15 Q1017", "LFBC 292230Z AUTO 32006KT 9999 FEW007 BKN096 OVC120 14/14 Q1019", "LFBD 292230Z AUTO 30009KT CAVOK 16/13 Q1018 TEMPO BKN004", "LFBE 292230Z AUTO 27007KT 9999 //////TCU 17/16 Q1017", "LFBG 292230Z AUTO 34008KT CAVOK 18/14 Q1018", "LFBH 292230Z AUTO 34007KT CAVOK 15/13 Q1019 NOSIG", "LFBI 292230Z AUTO 03008KT CAVOK 13/11 Q1019 NOSIG", "LFBL 292230Z AUTO 02007KT CAVOK 15/11 Q1018 NOSIG", "LFBM 292230Z AUTO 25006KT 9999 OVC008/// //////TCU 15/14 Q1019 TEMPO 4500 BR", "LFBO 292230Z AUTO 28013KT 9999 FEW010/// BKN045/// BKN068/// //////CB 16/14 Q1017 TEMPO 4000 RA BKN010 BKN025 SCT040TCU", "LFBP 292230Z AUTO 23010KT 9999 OVC008 14/13 Q1020 TEMPO 4000 RA OVC004 BKN035TCU", "LFBT 292230Z AUTO 24008KT 9999 -RA BKN008/// OVC027/// //////TCU 13/13 Q1020 NOSIG", "LFBU 292230Z AUTO 36006KT CAVOK 16/13 Q1018", "LFBX 292230Z AUTO VRB03KT CAVOK 18/13 Q1017", "LFBY 292230Z AUTO 26005KT 230V300 9999 // ////// 15/14 Q1020", "LFBZ 292230Z AUTO 26009KT 210V290 9999 OVC004 15/15 Q1021 TEMPO 2000 RADZ", "LFCK 292230Z AUTO 27009KT 9999 OVC005/// ///CB 16/15 Q1017", "LFCR 292230Z AUTO 28005KT 8000 RA FEW009/// OVC078/// //////CB 14/13 Q1017 BECMG 4000 -RA OVC002", "LFGA 292230Z AUTO 01009KT 9999 OVC049 12/08 Q1019", "LFGJ 292230Z AUTO 01008KT CAVOK 10/07 Q1018", "LFJL 292230Z AUTO 06005KT 9999 OVC045/// 10/07 Q1020 NOSIG", "LFJR 292230Z AUTO 07001KT CAVOK 12/10 Q1020", "LFKB 292230Z AUTO 22002KT 9000 NSC 13/12 Q1013 TEMPO 4500 BR BKN010", "LFKC 292230Z AUTO 24003KT CAVOK 14/11 Q1012", "LFKF 292230Z AUTO 08011KT 9999 BKN013 16/14 Q1012", "LFKJ 292230Z AUTO 06004KT CAVOK 14/11 Q1012 NOSIG", "LFKS 292230Z AUTO VRB02KT 9999 BKN009 OVC015 15/13 Q1013", "LFLB 292230Z AUTO VRB01KT CAVOK 12/12 Q1015", "LFLC 292230Z AUTO 34006KT 9999 BKN043 BKN049 BKN062 14/10 Q1017 NOSIG", "LFLL 292230Z 34009KT CAVOK 14/10 Q1016 NOSIG", "LFLN 292230Z AUTO 03005KT CAVOK 12/09 Q1018", "LFLP 292230Z AUTO 07004KT CAVOK 10/10 Q1016", "LFLS 292230Z AUTO 11003KT 040V150 CAVOK 13/11 Q1015", "LFLW 292230Z AUTO 28003KT 9999 SCT002/// BKN006/// OVC072/// ///CB 14/13 Q1017", "LFLX 292230Z AUTO 03007KT CAVOK 11/10 Q1019 NOSIG", "LFLY 292230Z AUTO 33012KT CAVOK 14/10 Q1016 NOSIG", "LFMC 292230Z AUTO 00000KT 9999 ////// 16/13 Q1013", "LFMD 292230Z AUTO VRB03KT CAVOK 15/14 Q1013", "LFMH 292230Z AUTO 04004KT 9999 FEW048 SCT072 13/10 Q1017", "LFMI 292230Z AUTO 15006KT CAVOK 17/14 Q1013 NOSIG", "LFMK 292230Z AUTO 27009KT 240V300 7000 RA BKN016/// OVC096/// //////TCU 16/15 Q1016", "LFML 292230Z AUTO 17005KT 140V200 CAVOK 17/14 Q1013 NOSIG", "LFMN 292230Z 33006KT 9999 FEW018 SCT070 BKN260 17/14 Q1013 NOSIG", "LFMO 292230Z AUTO 35011KT CAVOK 19/14 Q1012 NOSIG", "LFMP 292230Z AUTO 27011KT 240V310 9999 SCT066/// BKN084/// BKN140/// ///TCU 19/15 Q1014", "LFMT 292230Z AUTO 30005KT CAVOK 18/17 Q1013 TEMPO 3000 SHRA FEW045TCU", "LFMU 292230Z AUTO 28009KT CAVOK 19/15 Q1014", "LFMV 292230Z AUTO 34011KT CAVOK 19/14 Q1012", "LFMY 292230Z AUTO VRB01KT CAVOK 15/14 Q1013", "LFOA 292230Z AUTO 05007KT CAVOK 11/09 Q1019", "LFOB 292230Z AUTO 02004KT CAVOK 07/05 Q1022 NOSIG", "LFOE 292230Z AUTO 11005KT 9000 FEW021 SCT240 09/06 Q1022 NOSIG", "LFOH 292230Z AUTO 10009KT CAVOK 10/07 Q1021", "LFOJ 292230Z AUTO 05008KT CAVOK 09/07 Q1020 NOSIG", "LFOK 292230Z AUTO 03006KT 9999 OVC038 10/08 Q1021 NOSIG", "LFOP 292230Z AUTO 10005KT 9999 OVC023 09/06 Q1022", "LFOT 292230Z AUTO 04004KT 350V080 CAVOK 12/10 Q1020 NOSIG", "LFOV 292230Z AUTO 05003KT 9999 SCT042 BKN180 OVC200 13/11 Q1020", "LFOZ 292230Z AUTO 02005KT CAVOK 09/07 Q1020", "LFPB 292230Z AUTO 03003KT CAVOK 10/06 Q1022 NOSIG", "LFPG 292230Z 02003KT CAVOK 09/06 Q1022 NOSIG", "LFPM 292230Z AUTO VRB03KT 9999 OVC027 11/07 Q1021", "LFPN 292230Z AUTO 08004KT 050V120 9999 OVC024 10/06 Q1021", "LFPO 292230Z 05007KT 9999 BKN026 11/06 Q1021 NOSIG", "LFPT 292230Z AUTO 05001KT CAVOK 08/06 Q1021", "LFPV 292230Z AUTO 07007KT 9999 BKN024 10/06 Q1021 NOSIG", "LFQA 292230Z AUTO 02007KT 9999 BKN045 09/07 Q1021", "LFQB 292230Z AUTO 01005KT 9999 OVC037 11/08 Q1020", "LFQQ 292230Z AUTO 04006KT CAVOK 09/06 Q1022 NOSIG", "LFRB 292230Z AUTO VRB02KT 5000 -RA BR NSC 12/11 Q1021 TEMPO 1200 BR BKN008 BKN015CB", "LFRC 292230Z AUTO 11006KT 7000 NSC 08/07 Q1021", "LFRD 292230Z AUTO 00000KT 0450 0400 R35/0450D FG VV/// 10/09 Q1020 NOSIG", "LFRG 292230Z AUTO 11009KT CAVOK 09/07 Q1022", "LFRH 292230Z AUTO 30003KT CAVOK 14/12 Q1020 TEMPO 3000 SHRA BKN014CB", "LFRI 292230Z AUTO 33006KT 9999 BKN041 13/12 Q1020", "LFRJ 292230Z AUTO 29002KT 3300 -RA BR VV/// 10/10 Q1021", "LFRK 292230Z AUTO VRB02KT 6000 NSC 09/08 Q1021", "LFRL 292230Z AUTO 27004KT 7000 NSC 13/12 Q1021", "LFRM 292230Z AUTO 01003KT CAVOK 13/10 Q1020", "LFRN 292230Z AUTO 34003KT 8000 NSC 13/11 Q1020 TEMPO 0500 FG VV///", "LFRQ 292230Z AUTO 31006KT 280V340 CAVOK 12/11 Q1021", "LFRS 292230Z AUTO 32004KT CAVOK 14/12 Q1019 NOSIG", "LFRT 292230Z AUTO 00000KT 0400 FG VV/// 10/10 Q1021", "LFRV 292230Z AUTO 34005KT CAVOK 13/12 Q1020", "LFRZ 292230Z AUTO 29006KT CAVOK 14/14 Q1020 NOSIG", "LFSB 292230Z AUTO 34006KT 9999 BKN043 BKN052 11/08 Q1019 NOSIG", "LFSD 292230Z AUTO 01004KT 330V040 CAVOK 10/07 Q1018", "LFSG 292230Z AUTO 02008KT 9999 OVC036 10/08 Q1019", "LFSI 292230Z AUTO 03006KT 9999 OVC039 11/08 Q1020", "LFSL 292230Z AUTO VRB03KT CAVOK 17/13 Q1016", "LFSN 292230Z AUTO 03007KT 9999 OVC040 11/08 Q1020", "LFSO 292230Z AUTO 03006KT 9999 OVC036 10/07 Q1020", "LFST 292230Z AUTO 02010KT 9999 OVC049 12/09 Q1019 NOSIG", "LFSX 292230Z AUTO 29003KT 9999 OVC039 10/08 Q1018", "LFTH 292230Z AUTO 02001KT CAVOK 15/13 Q1013 NOSIG", "LFTW 292230Z AUTO 35009KT CAVOK 19/12 Q1013", "LFVP 292230Z AUTO 31016KT CAVOK 04/M01 Q1020 NOSIG", "LFYR 292230Z AUTO 04004KT 010V070 CAVOK 12/09 Q1020", "LGAD 292250Z 14005KT 9999 FEW020 13/12 Q1015", "LGAL 292250Z VRB03KT 9999 FEW025 12/10 Q1014", "LGAV 292250Z 00000KT 9999 FEW030 11/07 Q1015 NOSIG", "LGBL 292250Z 00000KT 9999 FEW030 11/10 Q1014", "LGEL 292250Z 00000KT 9999 FEW030 13/09 Q1014", "LGIO 292250Z AUTO VRB01KT //// -RA ////// 12/10 Q1015 RE//", "LGIR 292250Z 18006KT 9999 FEW020 11/07 Q1015 NOSIG", "LGKL 292250Z AUTO 30004KT 280V340 //// // ////// 10/08 Q1015 RE//", "LGKO 292220Z 34009KT 9999 FEW016 13/05 Q1013", "LGKP 292230Z AUTO 31018KT //// // ////// 15/08 Q1013 RERA", "LGKR 292250Z 00000KT 9999 FEW030 OVC080 16/11 Q1014 NOSIG", "LGKZ 292250Z AUTO VRB03KT //// // ////// 10/08 Q1015 RE//", "LGLM 292250Z 00000KT 9999 FEW025 09/08 Q1014", "LGPZ 292250Z 00000KT 9999 FEW030 15/14 Q1015", "LGRP 292220Z 30010KT CAVOK 17/07 Q1011 NOSIG", "LGRX 292250Z 00000KT 9999 FEW020 13/13 Q1015", "LGSA 292250Z 28004KT 9999 FEW020 12/10 Q1014", "LGSO 292150Z AUTO VRB01KT //// // ////// 13/06 Q1015 RE//", "LGSR 292250Z 28003KT CAVOK 13/08 Q1015", "LGTS 292250Z 10004KT 9999 FEW035 13/11 Q1015 NOSIG", "LHBP 292230Z VRB02KT 9999 FEW048 BKN070 12/08 Q1015 NOSIG", "LHDC 292215Z AUTO 34003KT CAVOK 10/06 Q1015 NOSIG", "LHKE 292245Z 05002KT CAVOK 12/06 Q1015 NOSIG RMK BLU", "LHPA 292215Z 32004KT CAVOK 11/10 Q1016 NOSIG RMK BLU", "LHPP 292215Z AUTO 32006KT 290V010 CAVOK 12/09 Q1015", "LHPR 292215Z AUTO 28004KT 260V340 9000 NSC 11/10 Q1016", "LHSM 292215Z AUTO 34005KT CAVOK 12/12 Q1016", "LHSN 292245Z 00000KT CAVOK 11/07 Q1014 NOSIG RMK BLU", "LIBA 292155Z 09002KT 9999 BKN015 14/13 Q1015 RMK OVC BKN080 VIS MIN 9999 WHT", "LIBD 292250Z VRB02KT CAVOK 14/13 Q1015", "LIBN 292155Z 33003KT CAVOK 16/15 Q1016 RMK OVC BKN080 BKN120 VIS MIN 9999 WIND THR14 34002KT WIND THR32 32002KT BLU", "LIBP 292250Z AUTO VRB01KT 9000 BKN063/// BKN110/// 14/13 Q1015", "LIBQ 292155Z AUTO VRB03KT //// 11/05 Q1018", "LIBR 292250Z 32006KT 290V350 9999 FEW045 16/14 Q1014", "LIBV 292155Z 30003KT 7000 NSC 13/11 Q1014 RMK OVC BKN060 BKN080 VIS MIN 7000 WIND THR32 33003KT WIND THR14 28002KT WHT", "LICA 292250Z AUTO 07003KT 9999 BKN130/// 14/12 Q1014", "LICB 292250Z AUTO VRB02KT 9999 NCD 12/08 Q1015", "LICC 292250Z 25008KT CAVOK 18/10 Q1014", "LICD 292250Z AUTO 17007KT 9999 BKN120/// 19/17 Q1013", "LICJ 292250Z VRB01KT CAVOK 18/14 Q1013", "LICR 292250Z AUTO 06003KT 9999 BKN150/// 17/10 Q1014", "LICT 292155Z 16008KT 9999 FEW020 17/15 Q1013 RMK BKN BKN080 VIS MIN 9999 WIND THR13 17009KT BLU", "LICZ 292155Z 30006KT 9999 BKN120 17/13 Q1014 RMK BKN VIS MIN 9999 WIND THR28 29005KT WIND THR10 30005KT A2995 BLU", "LIEA 292250Z VRB01KT CAVOK 15/15 Q1011", "LIEB 292155Z 14006KT CAVOK 17/16 Q1011 RMK SKC QUK / QUL / VIS MAR 11 KM MON INVIS VIS MIN 9999", "LIED 292155Z 12005KT 9999 SCT025 18/17 Q1010 RMK BKN SCT080 VIS MIN 9999 WIND THR35 /////KT WIND THR17 13005KT BLU", "LIEE 292250Z 21003KT 180V240 CAVOK 18/17 Q1010", "LIEO 292250Z 32003KT 280V340 9999 SCT010 17/15 Q1013", "LIMC 292250Z VRB01KT 9999 BKN030 16/13 Q1015 NOSIG", "LIME 292250Z VRB02KT 9999 BKN030 17/13 Q1015 NOSIG", "LIMF 292250Z 02005KT 9999 BKN120 17/13 Q1014", "LIMH 292155Z AUTO 22007KT 180V270 //// M04/M04 Q1021", "LIMJ 292250Z 23001KT CAVOK 15/13 Q1014", "LIML 292250Z VRB02KT 9999 BKN040 17/14 Q1014 NOSIG", "LIMZ 292250Z AUTO 15005KT 9999 OVC093/// 15/14 Q1014", "LIPC 292155Z 15002KT 9999 SCT050 14/13 Q1014 RMK BKN VIS MIN 9999 WIND THR11 16001KT WIND THR29 17002KT BLU", "LIPE 292250Z 09004KT 8000 SCT040 14/12 Q1015", "LIPH 292250Z AUTO VRB01KT 9999 FEW110/// BKN130/// 13/13 Q1015", "LIPI 292155Z 03002KT CAVOK 11/10 Q1015 RMK SCT SCT120 VIS MIN 9999 WIND THR06 07002KT WIND THR24 06003KT BLU", "LIPL 292155Z 10005KT 9999 BKN043 17/16 Q1014 RMK BKN VIS MIN 9999 WIND THR31 10006KT WIND THR13 10006KT BLU", "LIPO 292250Z AUTO 05006KT 9999 OVC045/// 17/13 Q1015", "LIPQ 292250Z AUTO 35003KT 9999 BKN110/// 11/11 Q1015", "LIPR 292250Z AUTO VRB01KT 9999 FEW059/// BKN170/// 14/12 Q1014", "LIPS 292155Z 06002KT 9999 BKN100 14/12 Q1015 RMK BKN VIS MIN 9999 WIND THR26 06002KT WIND THR08 15002KT BLU", "LIPX 292250Z 08004KT CAVOK 15/13 Q1015", "LIPY 292250Z AUTO 22004KT 9999 FEW058/// BKN091/// BKN160/// 15/12 Q1014", "LIPZ 292250Z 01003KT CAVOK 13/12 Q1015 NOSIG", "LIRA 292250Z VRB02KT 9999 SCT020 16/14 Q1014", "LIRE 292155Z 10004KT 9999 FEW020 16/14 Q1014 RMK BKN SCT100 VIS MIN 9999 WIND THR13 09003KT WIND THR31 /////KT BLU", "LIRF 292250Z 07003KT CAVOK 14/13 Q1014 NOSIG", "LIRK 292155Z AUTO /////KT //// 07/04 Q1021", "LIRM 292155Z 07002KT 9999 FEW020 SCT070 14/12 Q1014 RMK BKN VIS MIN 9999 WIND THR06 06002KT BLU", "LIRN 292250Z VRB01KT CAVOK 16/14 Q1014 NOSIG", "LIRP 292245Z 35004KT 9999 BKN030 16/15 Q1015 NOSIG", "LIRQ 292250Z 08002KT 9999 SCT060 16/15 Q1014", "LIRS 292155Z 13004KT 9999 FEW015 15/14 Q1013 RMK OVC BKN070 VIS MIN 9999 WIND THR03 14005KT WIND THR21 16003KT BLU", "LIRZ 292250Z AUTO 01008KT 9999 -RA OVC078/// 14/12 Q1015", "LIVC 292155Z AUTO /////KT //// ///// Q////", "LIVD 292155Z AUTO VRB01KT //// 06/03 Q1018", "LIVE 292155Z 01004KT 9999 FEW025 08/04 Q1017 RMK BKN SCT060 VIS MIN 9999", "LIVF 292155Z 00000KT 9999 SCT035 13/08 Q1014", "LIVM 292155Z AUTO /////KT //// ///// Q////", "LIVP 292155Z 03009KT 330V060 CAVOK 05/03 Q1018 RMK BKN BKN070 MON LIB VAL S FOSCHIA SKC SUP VIS MIN 9999", "LIVR 292155Z 34004KT CAVOK 05/M00 Q1017 RMK SKC MON LIB VIS MIN 9999", "LIVT 292155Z AUTO VRB02KT //// 14/11 Q1015", "LJCE 292230Z AUTO VRB01KT 9999 NSC 13/12 Q1016", "LJLJ 292230Z 28003KT 9999 MIFG FEW001 SCT250 10/10 Q1016 NOSIG", "LJMB 292230Z AUTO 30003KT 9999 NSC 12/11 Q1016", "LJPZ 292230Z AUTO 12006KT 9999 NSC 12/10 Q1015", "LKCV 292230Z 28009KT 9999 BKN017 BKN060 10/08 Q1018 NOSIG RMK WHT WHT", "LKKB 292200Z 30006KT CAVOK 10/06 Q1018", "LKKV 292200Z 30002KT 9999 FEW028 08/05 Q1019", "LKLN 292200Z AUTO VRB01KT 9999 OVC061 09/06 Q1019", "LKMT 292230Z 36005KT 330V050 9999 BKN012 OVC022 11/10 Q1016 NOSIG", "LKNA 292230Z 31012KT 9999 BKN016 08/06 Q1017 RMK WHT", "LKPD 292230Z 27009KT 9999 BKN020 10/08 Q1018 RMK BLACK", "LKPR 292230Z 27005KT 9999 FEW030 08/06 Q1019 NOSIG", "LKTB 292230Z 31007KT 9999 FEW026 10/08 Q1017 NOSIG", "LLBG 292250Z 23006KT 9999 BKN040 17/07 Q1012 NOSIG", "LMML 292245Z 20007KT CAVOK 17/16 Q1015 NOSIG", "LOWG 292250Z AUTO 04003KT 9999 NCD 09/07 Q1017", "LOWI 292250Z AUTO VRB01KT 9999 -RADZ FEW005 SCT036 BKN050 11/11 Q1018 REDZ", "LOWK 292250Z AUTO 29004KT 9999 FEW050 BKN080 11/11 Q1017", "LOWL 292250Z AUTO 06004KT 020V110 9999 FEW026 BKN030 13/09 Q1018", "LOWS 292250Z AUTO VRB01KT 9999 FEW032 BKN038 11/10 Q1018", "LOWW 292250Z 32008KT 9999 FEW042 SCT050 12/10 Q1017 NOSIG", "LPAZ 292230Z 15013KT 9999 BKN006 18/17 Q1018", "LPBJ 292200Z 32011KT CAVOK 17/13 Q1021", "LPFR 292230Z 28007KT CAVOK 19/15 Q1019", "LPLA 292200Z /////KT 9999 FEW007 BKN014 18/16 Q1014", "LPMA 292230Z 03008KT 9999 SCT013 21/17 Q1022", "LPMR 292200Z 36011KT 9999 SCT007 OVC012 16/15 Q1023", "LPMT 292200Z 34011KT 320V020 9999 BKN020 17/14 Q1022", "LPPD 292230Z 15010KT 9999 FEW006 18/17 Q1017", "LPPR 292230Z 33009KT 6000 -DZ BKN003 16/15 Q1023", "LPPS 292230Z 09007KT 9999 SCT014 20/17 Q1023", "LPPT 292230Z 34011KT 310V010 9999 BKN011 16/14 Q1022", "LQBK 292230Z 14004KT CAVOK 13/12 Q1014 NOSIG", "LQMO 292230Z VRB02KT CAVOK 11/06 Q1014", "LQSA 292230Z VRB01KT 9999 BKN055 12/11 Q1015", "LQTZ 292230Z VRB01KT CAVOK 08/07 Q1014", "LRAR 292230Z 25002KT CAVOK 09/06 Q1014", "LRBC 292230Z 32004KT CAVOK 02/M02 Q1015", "LRBM 292230Z AUTO VRB02KT 9999 NCD 07/04 Q1014", "LRBS 292230Z 31002KT CAVOK 08/05 Q1014 NOSIG", "LRCK 292230Z 29007KT CAVOK 05/02 Q1012 NOSIG", "LRCL 292230Z 26008KT CAVOK 08/03 Q1014", "LRCV 292230Z 00000KT CAVOK 07/02 Q1014", "LRIA 292230Z 29004KT CAVOK 06/M01 Q1015", "LROD 292230Z AUTO 10003KT 9999 OVC080/// 09/06 Q1014", "LROP 292230Z 25003KT 190V270 CAVOK 07/06 Q1014 NOSIG", "LRSB 292230Z VRB02KT 9999 BKN068 10/04 Q1014", "LRSM 292230Z AUTO 23003KT 9999 FEW230/// 06/05 Q1014", "LRSV 292230Z 29003KT CAVOK 08/M01 Q1015", "LRTC 292230Z AUTO 32007KT 9999 OVC190/// 08/00 Q1012", "LRTM 292230Z AUTO 25003KT 9999 SCT075/// BKN110/// 07/05 Q1014", "LRTR 292230Z 29003KT CAVOK 08/08 Q1014 NOSIG", "LSGC 292250Z AUTO 04007KT 9999 OVC006 08/08 Q1017", "LSGG 292250Z AUTO VRB02KT CAVOK 11/10 Q1016 TEMPO 3000 MIFG", "LSGS 292250Z AUTO VRB01KT 9999 FEW031 SCT035 OVC039 13/11 Q1016", "LSMA 292220Z AUTO VRB01KT 9999NDV SCT043 11/11 Q1017 RMK", "LSMD 292220Z AUTO VRB02KT 9999NDV BKN041 BKN048 13/08 Q1018 RMK", "LSMM 292220Z AUTO 10006KT 9999NDV FEW043 10/10 Q1017 RMK", "LSMP 292220Z AUTO 01003KT 9999NDV BKN040 12/09 Q1017 RMK", "LSZA 292250Z AUTO 36003KT 320V030 9999 BKN024 OVC027 15/13 Q1015", "LSZB 292250Z AUTO VRB01KT 9999 FEW034 12/08 Q1017", "LSZC 292250Z AUTO VRB03KT 9999 OVC030 13/09 Q1018", "LSZG 292250Z AUTO 04005KT 9999 FEW034 10/08 Q1017", "LSZH 292250Z AUTO 36006KT 9999 FEW035 SCT045 BKN050 12/07 Q1018 NOSIG", "LSZL 292220Z AUTO 00000KT 9999NDV FEW037 BKN042 14/12 Q1014 RMK", "LSZR 292250Z AUTO 25006KT 220V290 9999 FEW028 OVC032 12/10 Q1018", "LSZS 292250Z AUTO VRB01KT CAVOK 03/M00 Q1018", "LTAC 292220Z 23004KT 9999 SCT026 BKN100 05/01 Q1011 NOSIG RMK RWY21L 25005KT RWY03L VRB01KT RWY21R 25004KT 220V280", "LTAE 292150Z 07004KT 360V130 9999 SCT035 SCT090 05/M00 Q1012 NOSIG RMK RWY21 23005KT 200V260", "LTAF 292220Z 16004KT 9999 SCT035 BKN100 13/10 Q1009 NOSIG RMK RWY23 19005KT 3CU035 5AC100", "LTAG 292220Z VRB02KT 9999 SCT030 BKN100 12/10 Q1008 NOSIG RMK 3CU030 6AC100", "LTAI 292220Z 32011KT CAVOK 14/01 Q1011 NOSIG RMK RWY18C 31010KT RWY36R 31012KT RWY18L 32012KT", "LTAJ 292220Z 00000KT CAVOK 07/04 Q1007 NOSIG RMK RWY10 26003KT 220V290 3AC080", "LTAN 292150Z 04005KT 9999 SCT040 BKN080 03/M00 Q1012 NOSIG", "LTAP 292220Z 27001KT 9999 FEW020 SCT035 BKN080 07/06 Q1010 NOSIG RMK RWY23 00000KT", "LTAR 292150Z 34007KT 9999 SCT005 BKN025 OVC070 M00/M01 Q1009", "LTAT 292220Z 23009KT 9999 FEW015 BKN035 BKN100 08/07 Q1009 RESHRA NOSIG RMK RWY03 23008KT", "LTAU 292220Z 27004KT 9999 BKN030 BKN080 06/05 Q1010 NOSIG RMK RWY07 24005KT", "LTAY 292150Z VRB03KT 9999 FEW035 SCT100 05/00 Q1014 NOSIG", "LTAZ 292220Z 29005KT 9999 BKN025 BKN080 06/03 Q1011 RMK RWY29 31006KT", "LTBA 292220Z 23002KT CAVOK 10/04 Q1015 RMK RWY23 26002KT", "LTBD 292150Z VRB01KT CAVOK 07/04 Q1014", "LTBF 292150Z 25004KT CAVOK 05/03 Q1016 NOSIG", "LTBH 292150Z 07004KT CAVOK 07/05 Q1015", "LTBJ 292220Z VRB02KT CAVOK 07/02 Q1014 NOSIG RMK RWY16 06003KT 350V100", "LTBQ 292150Z 27002KT 9999 FEW040 BKN100 04/04 Q1015 NOSIG", "LTBR 292220Z 33003KT CAVOK 04/03 Q1015 NOSIG RMK RWY07 34002KT", "LTBS 292220Z 36015KT CAVOK 15/02 Q1011 NOSIG RMK RWY19 35013KT SKC", "LTBU 292220Z 00000KT CAVOK 05/03 Q1014 RMK RWY22 20005KT", "LTBY 292150Z 24005KT 9999 SCT025 05/00 Q1014", "LTCA 292150Z 19005KT 9999 BKN030 BKN090 08/07 Q1008 RESHRA NOSIG", "LTCB 292150Z 13003KT 9999 SCT015 BKN033 09/07 Q1012 RESHRA NOSIG", "LTCC 292220Z 19004KT 140V260 9999 SCT040 BKN100 12/08 Q1008 NOSIG RMK RWY16 VRB02KT 3CU040 5AC100", "LTCD 292150Z 31008KT 250V350 9999 FEW035CB BKN040 BKN070 06/05 Q1008 RESHRA TEMPO -TSRA", "LTCE 292220Z VRB03KT 9999 FEW035 SCT070 02/01 Q1009 NOSIG RMK RWY08R 26004KT 220V290 RWY26R 07004KT 030V140 RWY08L 30005KT 1CU035 3AC070", "LTCF 292150Z 09006KT 9999 BKN035 BKN070 04/03 Q1009 NOSIG", "LTCG 292242Z 33004KT 270V360 9999 -SHRA SCT011 BKN025 10/10 Q1012 NOSIG RMK RWY29 33005KT 290V360", "LTCI 292150Z 16007KT 9999 SCT030 BKN070 10/01 Q1012 NOSIG", "LTCJ 292220Z 01003KT 9999 SCT040 BKN100 BKN200 09/08 Q1008 NOSIG RMK RWY20 32003KT 3CU040 5AC100 5CI200", "LTCN 292150Z 13003KT 9999 FEW040 SCT100 09/07 Q1008", "LTCS 292220Z 00000KT 9999 FEW040 SCT100 08/06 Q1007 RMK RWY22 28004KT 2CU040 3AC100", "LTCT 292150Z 00000KT 9999 SCT040 BKN100 13/08 Q1006", "LTCV 292150Z 23005KT CAVOK 09/06 Q1008", "LTCW 292150Z VRB02KT 9999 SCT030 BKN070 11/03 Q1012", "LTDA 292150Z 24012KT 210V270 9999 FEW025CB SCT035 BKN100 14/07 Q1008 NOSIG", "LTFC 292220Z 33011KT 9999 FEW040 05/01 Q1013 RMK RWY23 34007KT", "LTFD 292150Z 10004KT CAVOK 06/03 Q1015", "LTFE 292220Z VRB02KT CAVOK 09/03 Q1013 NOSIG RMK RWY10 09003KT 070V130", "LTFG 292150Z 10005KT CAVOK 12/09 Q1010", "LTFH 292150Z 16002KT 9999 SCT030 09/08 Q1012 NOSIG", "LTFJ 292220Z 25004KT 230V290 CAVOK 09/06 Q1014 NOSIG RMK RWY24 24003KT", "LTFM 292220Z 20007KT CAVOK 07/03 Q1015 NOSIG RMK RWY17L 22008KT RWY34L 22008KT RWY16R 24006KT RWY36 22008KT RWY18 22011KT", "LTFO 292150Z 21006KT 9999 SCT012 BKN028 11/09 Q1012 RESHRA", "LUKK 292230Z 35008KT CAVOK 08/M01 Q1013 NOSIG", "LXGB 292220Z AUTO 24009KT 9999 NCD 22/14 Q1018", "LYBE 292230Z 00000KT CAVOK 12/06 Q1014 NOSIG", "LYBT 292230Z 36003KT CAVOK 11/08 Q1014 NOSIG", "LYKV 292230Z 04002KT CAVOK 09/09 Q1014 NOSIG", "LYNI 292230Z 00000KT CAVOK 09/06 Q1014 NOSIG", "LYPG 292230Z 35006KT 9999 FEW090 13/09 Q1015 NOSIG", "LYTV 292230Z AUTO 00000KT CAVOK 10/09 Q1015", "LYVR 292230Z AUTO 03001KT CAVOK 09/09 Q1015", "LZIB 292230Z 32004KT 9999 FEW012 12/11 Q1016 NOSIG", "LZKZ 292230Z VRB02KT CAVOK 08/06 Q1014 NOSIG", "LZPP 292230Z AUTO VRB02KT 5000 BR SCT049/// 09/09 Q1016", "LZTT 292230Z 28010KT 9999 SCT066 06/04 Q1015", "LZZI 292230Z 14003KT 120V180 3800 -RA BR SCT015 OVC032 10/09 Q1015", "MBPV 292200Z 14005KT 9999 SCT015 28/20 Q1012", "MGCB 292200Z 02006KT 9999 SCT018 SCT060 28/20 QFE 867.4 SCT200", "MGES 292200Z 00000KT 8000 FEW022 SCT090 OVC200 31/16 QFE 906.3 HZ", "MGHT 292200Z 27008KT 9999 SCT030 FEW032CB SCT200 26/11 CB/PCPN DIST E/SE", "MGMT 292200Z 18004KT 8000 SCT070 32/25 HZ", "MGPB 292200Z 07006KT 4000 HZ SKC 34/27 Q1004 A2965", "MGQZ 292200Z 00000KT 9999 TS BKN020 FEW025CB 17/14 QFE 772/4 CB/TS/PCPN W/NW", "MGRT 292200Z 27006KT 9999 FEW020 SCT200 34/21 Q1010 A2983 VOL. STA. MARIA Y SANTIAGUITO EN ACTIVIDAD", "MGTU 292200Z 21004KT 8000 FEW018 34/20 HZ", "MGZA 292200Z 18010KT 9000 FEW030 OVC200 38/18 QFE 979/9 HZ FEW080", "MHCH 292200Z 22007KT 9999 FEW034 35/22", "MHLE 292200Z 28006KT 6000 FEW024 21/16", "MHNO 292200Z 19010KT 9999 FEW040 29/20", "MHPL 292200Z 13014KT 6000 NSC 31/24 Q1009", "MHPR 292200Z 18014KT 5000 FU FEW052 31/17 Q1012 A2989 NOSIG", "MHSR 292200Z 18006KT 3000 FU SCT030TCU FEW032CB 31/17 METAR ", "MHTE 292200Z 03004KT 2000 FU FEW023 32/25 Q1004", "MHTR 292200Z 00000KT 3000 FU NSC 32/26", "MHYR 292200Z 12004KT 8000 SCT025TCU 32/20", "MKJP 292200Z 14020KT 9999 FEW022 30/24 Q1010", "MKJS 292200Z 07009KT 9999 FEW022 31/24 Q1009", "MMAA 292142Z 25015KT 7SM FEW015 OVC300 30/21 A2980 RMK 8/107 HZY", "MMCB 292152Z 14007KT 9SM FEW020 BKN250 33/03 A2993 RMK 8/108 HZY", "MMCM 292145Z 13012KT 3SM HZ SKC 32/26 A2972 RMK HZLYR", "MMCS 292143Z 19006KT 10SM SKC 25/M06 A3015", "MMCT 292151Z 36010KT 7SM OVC100 25/22 A2979 RMK 8/03/", "MMCU 292144Z 00000KT 10SM SKC 25/M07 A3019", "MMCV 292241Z 34004G14KT 10SM FEW100 SCT200 28/03 A2999 RMK 8/018", "MMCZ 292145Z 17007KT 7SM FEW015TCU OVC250 30/24 A2979 RMK 8/207 SC", "MMIA 292145Z 25010KT 5SM BKN180 29/15 A3003 RMK 8/008 HZY", "MMLO 292146Z 25006KT 10SM SKC 30/M12 A3015", "MMLP 292151Z 34008KT 10SM FEW220 31/03 A2986 RMK 8/008", "MMLT 292142Z 07007KT 10SM FEW240 28/16 A2983 RMK 8/001 HZY", "MMMA 292142Z 31012KT 10SM SKC 27/06 A2997", "MMMD 292144Z 02010KT 5SM BKN300 30/18 A2983 RMK 8/008 HZY CU", "MMML 292146Z 24003KT 10SM FEW200 38/M04 A2984 RMK 8/004", "MMMM 292142Z 22012KT 8SM FEW300 30/00 A3008 RMK 8/001 HZY CU", "MMMX 292144Z 15004KT 8SM BKN025CB 27/M03 A3017 NOSIG RMK 8/300 HZY AC", "MMMZ 292145Z 27008KT 15SM SKC 28/17 A2985 RMK ISOL CI", "MMOX 292143Z 09020KT 7SM BKN025 BKN200 28/09 A3003 RMK 8/402 HZY", "MMPA 292142Z 06010KT 7SM SKC 26/13 A3003 RMK ISOL AC", "MMPB 292144Z 18016G26KT 8SM FEW020 SCT220 27/M01 A3016 RMK 8/102 HZY", "MMPE 292143Z 24011KT 10SM SKC 35/00 A2984 RMK RTS", "MMPG 292147Z 36014KT 10SM SKC 27/09 A3005", "MMPQ 292145Z 33010KT 5SM SCT060 35/24 A//// RMK 8/010 HZY", "MMPR 292142Z 22014KT 12SM SKC 27/19 A2984 RMK HZY CI AL S", "MMQT 292150Z 33011KT 8SM FEW020 29/M06 A3014 RMK 8/100", "MMRX 292143Z 35015G25KT 10SM SKC 26/M01 A2998", "MMSM 292146Z 04017KT 7SM BKN025 BKN070 25/07 A3016 RMK 8/230 HZY DU", "MMTG 292145Z 31023G33KT 6SM SKC 35/16 A2980 RMK ISOL CI / FU HZ", "MMTJ 292143Z 28012KT 8SM SCT200 19/14 A3002 RMK 8/008 HZY ST W", "MMTM 292144Z 02012KT 8SM SKC 26/13 A2999 RMK CI", "MMUN 292249Z 26009KT 6SM SCT015CB OVC080 29/24 A2985 RMK 8/37/ HZ PCPN NW", "MMVA 292142Z 33010G20KT 7SM FEW012 SCT100 SCT250 31/23 A2985 RMK 8/151", "MMVR 292146Z 36017G32KT 6SM FEW020 BKN220 27/17 A2992 RMK 8/508 BLSA", "MMZO 292207Z RTD 27015KT 10SM SCT210 27/22 A2979 RMK 8/004", "MNBL 292200Z 18004KT 9999 SCT025 SCT300 29/25 Q1010", "MNCH 292200Z 19004KT 9999 FEW025 SCT090 32/21 Q1010", "MNJG 292200Z 00000KT 5000 FU SCT020 30/17 Q1009", "MNJU 292200Z 18006KT 9999 FEW020 SCT300 33/23 Q1008", "MNMG 292225Z 31006KT 7000 -DZ FEW020CB SCT025 CB/NW/N/SE", "MNPC 292200Z 11008KT 7000 FEW016 30/26 Q1008 HZ", "MNRS 292200Z 00000KT 9000 FEW013CB SCT015 31/24 Q1009 FU CB 4/C", "MPDA 292200Z 19009KT 9000 TS VCSH SCT016CB SCT090 31/24 Q1009", "MPMG 292200Z 36008KT 9000 FEW016TCU SCT080 31/24 Q1009 NOSIG", "MPPA 292200Z 01003KT 9999 FEW018 SCT080 31/23 Q1008", "MPSM 292200Z 16005KT 9999 FEW020 SCT060 30/24 Q1008", "MPTO 292200Z 01005KT 350V050 9000 SCT018 BKN090 28/25 Q1009 NOSIG", "MRLB 292200Z 28006KT 9999 SCT035 BKN150 29/25 A2981", "MRLM 292200Z COR 09005KT 9999 FEW025 BKN240 29/24 A2981", "MROC 292200Z 08011KT 3000 TSRA SCT010CB BKN025 21/20 A2999 NOSIG", "MRPV 292216Z VRB01KT 9999 -RA VCTS FEW004 SCT015CB BKN090 20/20 A3004 NOSIG", "MSLP 292250Z 21006KT 180V250 9999 SCT020 29/25 Q1009 A2981 NOSIG RMK HZ", "MTPP 292200Z 30005KT 9000 SCT025 31/24 Q1011 A2986", "MUCC 292240Z 08004KT 040V130 4000 SHRA BKN018CB 27/23 Q1012 RMK CB AT I AND IV QUAD", "MUCF 292159Z AUTO 19010KT 150V220 31/22 Q1012", "MUCL 292150Z 17011KT 9000 BKN020 30/23 Q1011", "MUCM 292150Z 18010KT 130V210 9000 SCT025 32/18 Q1010", "MUCU 292150Z 17006KT 110V220 9000 FEW020 29/23 Q1012", "MUGM 292251Z 15008KT 10SM FEW060 FEW250 29/25 A2990 RMK AO2 SLP123 T02890250 $ ", "MUHA 292150Z 19011KT 160V230 9000 SCT035 31/22 Q1011", "MUHG 292150Z 11008KT 090V150 9000 SCT039 32/23 Q1010", "MUSC 292150Z 18009KT 140V210 9000 SCT030 32/19 Q1011", "MUVR 292150Z 21010KT 180V240 9000 SCT020 31/19 Q1012", "MWCB 292200Z 12012KT 9999 FEW022 30/24 Q1011", "MWCR 292200Z 16014KT 9999 FEW018 30/24 Q1010", "MYCB 292200Z AUTO /////KT ///V/// //// R09///// // SCT028 ///// A////", "MYGF 292200Z 18008KT 9999 SCT016CB BKN100 OVC200 28/23 A2987", "MYNN 292200Z 19014KT 9999 FEW020 SCT200 29/23 A2991", "MYSM 292200Z AUTO 13011KT 100V160 9999 BKN021/// 27/23 A2992", "MZBZ 292200Z 09007KT 5000 HZ FEW026 32/26 A2970 Q1005 NOSIG RMK-FU", "NCRG 292230Z AUTO 05002KT 9999 BKN040/// 24/20 Q1015", "NFFN 292200Z 17004KT 9999 SCT030 SCT300 30/23 Q1015 NOSIG", "NFNL 292200Z 09005KT 9999 FEW026 SCT300 29/26 Q1014", "NFNS 292200Z 21003KT 9999 SCT020 BKN300 29/26 Q1014", "NFTF 292200Z 09013KT 9999 FEW017TCU SCT300 28/25 Q1016", "NFTV 292200Z 08008KT 9999 SCT016 BKN290 28/25 Q1014", "NGTA 292200Z 09009KT 9999 SCT020 30/25 Q1008", "NIUE 292200Z AUTO 11016KT NCD 27/22 Q1015", "NLWW 292230Z 11011KT 080V140 9999 FEW025 31/26 Q1010 TEMPO 3000 +SHRA BKN014 SCT020CB", "NSFA 292200Z 08010KT 9999 SCT026 BKN290 31/25 Q1012", "NSTU 292250Z 10015KT 12SM SCT019 31/28 A2985 RMK SLP108 T03130277", "NTAA 292230Z 21008KT 9999 VCSH SCT025 BKN040 30/24 Q1011 WS ALL RWY NOSIG", "NVSS 292200Z 14002KT 9999 SCT025 29/26 Q1012", "NVVV 292200Z 10006KT 9999 BKN020 29/24 Q1013", "NWWW 292230Z AUTO VRB02KT CAVOK 24/20 Q1014 NOSIG", "NZAA 292230Z AUTO 08018KT 9999 -DZ BKN024/// 19/16 Q1017", "NZCH 292230Z AUTO 21003KT 9999 NCD 11/10 Q1024", "NZCM 292155Z AUTO 05022KT 9999 CLR M24/M31 A2912 RMK AO2 PK WND 05026/2153 SLP867 T12371307", "NZWN 292230Z AUTO 36006KT 9999 NCD 16/11 Q1024", "OBBI 292230Z 16006KT CAVOK 29/17 Q1004 NOSIG", "OEAB 292200Z 00000KT CAVOK 18/14 Q1022 NOSIG", "OEAH 292200Z 26010KT 8000 NSC 30/09 Q1004 NOSIG", "OEAO 292200Z 18002KT CAVOK 22/M04 Q1012 NOSIG", "OEBA 292200Z 20004KT 9999 FEW030 20/13 Q1018 NOSIG", "OEBH 292200Z 27004KT 7000 NSC 21/18 Q1013 NOSIG", "OEDF 292200Z 14008KT CAVOK 27/13 Q1003 NOSIG", "OEDM 292200Z 12008KT CAVOK 20/04 Q1011", "OEDR 292200Z 12006KT CAVOK 27/14 Q1003", "OEGN 292200Z 30012KT 9999 FEW030 32/23 Q1007 NOSIG", "OEGS 292200Z 06004KT CAVOK 23/05 Q1008", "OEGT 292200Z 28009KT CAVOK 13/04 Q1013 NOSIG", "OEHL 292200Z 00000KT CAVOK 20/05 Q1012", "OEJB 292200Z AUTO 16010KT CAVOK 26/15 Q1003 NOSIG", "OEJN 292200Z 33004KT CAVOK 27/10 Q1008 NOSIG", "OEKJ 292200Z 22010KT CAVOK 26/14 Q1011", "OEKM 292200Z 00000KT CAVOK 18/10 Q1022 NOSIG", "OEMA 292200Z 24005KT CAVOK 26/M04 Q1012 NOSIG", "OEMN 292200Z 00000KT CAVOK 29/06 Q1010", "OENG 292200Z 05003KT 9999 FEW030 SCT090 27/12 Q1014 NOSIG", "OEPA 292200Z 36010KT CAVOK 26/10 Q1007 NOSIG", "OEPS 292155Z 20007KT 9999 CLR 28/12 A2983 RMK AO2A SLP080 WND DATA ESTMD T02770119 403690239", "OERF 292200Z 06006KT CAVOK 23/00 Q1008 NOSIG", "OERK 292200Z 25002KT 8000 NSC 27/13 Q1010 NOSIG", "OERR 292200Z 32007KT CAVOK 19/M04 Q1009 NOSIG", "OESH 292200Z 15010KT 9999 SCT040 SCT080 32/14 Q1008 NOSIG", "OESK 292200Z 33004KT CAVOK 19/01 Q1013 NOSIG", "OETB 292200Z 01009KT CAVOK 17/M04 Q1013 NOSIG", "OETF 292200Z 28005KT CAVOK 19/02 Q1018 NOSIG", "OETR 292200Z 29010KT CAVOK 12/02 Q1013 NOSIG", "OEWD 292200Z 36004KT CAVOK 29/11 Q1009", "OEWJ 292200Z 35005KT CAVOK 20/06 Q1010 NOSIG", "OEYN 292200Z 28008KT CAVOK 25/08 Q1006 NOSIG", "OIAA 292200Z 21002KT 7000 NSC 24/20 Q1004", "OIAH 292200Z 00000KT CAVOK 20/04 Q1010", "OIAM 292200Z 15008KT CAVOK 26/18 Q1004", "OIAW 292200Z 11004KT 8000 NSC 25/13 Q1004", "OIBB 292200Z 00000KT CAVOK 23/08 Q1004 A2965", "OIBJ 292200Z AUTO VRB02KT //// // ////// 21/03 Q////", "OIBK 292200Z 27008KT CAVOK 24/20 Q1004", "OICC 292200Z 00000KT 9999 FEW045 12/05 Q1012 A2991", "OICI 292200Z 13004KT CAVOK 12/07 Q1013 A2993", "OICK 292200Z 13006KT 9999 SCT090 12/08 Q1011", "OICS 292200Z 00000KT 9999 FEW035CB SCT040 11/06 Q1012 A2990", "OIFK 292200Z 00000KT 9999 SCT040 24/01 Q1008 A2978", "OIFM 292230Z 24010KT CAVOK 13/M04 Q1014 A2997", "OIFS 292200Z 03004KT CAVOK 08/M04 Q1018", "OIGG 292200Z 00000KT 7000 FEW020CB SCT025 BKN170 17/17 Q1005", "OIHH 292200Z 04006KT 9999 SCT040 13/01 Q1014 A2995", "OIIE 292230Z 04012KT 9999 FEW035CB SCT100 20/06 Q1009", "OIII 292230Z 01010KT 9999 FEW035CB SCT040 21/04 Q1011 A2988", "OIIK 292200Z 26004KT CAVOK 17/06 Q1012", "OIIP 292200Z 06014KT 9999 SCT040 20/03 Q1010 A2985", "OIKB 292200Z 10004KT 5000 HZ NSC 25/20 Q1005 A2969", "OIKK 292200Z 00000KT CAVOK 10/08 Q1015 A3000", "OIKO 292200Z AUTO 00000KT //// // ////// 24/16 Q1006", "OIKQ 292200Z 24006KT 7000 NSC 26/22 Q1005", "OIMB 292200Z 01004KT CAVOK 17/03 Q1014 A2994", "OIMJ 292200Z AUTO 36004KT //// // ////// 13/07 Q1013", "OIMM 292230Z 31006KT CAVOK 19/07 Q1011 A2988", "OIMN 292200Z 26004KT CAVOK 11/09 Q1012", "OING 292200Z 00000KT CAVOK 16/14 Q1005", "OINN 292200Z 00000KT CAVOK 17/17 Q1005", "OISF 292200Z 35006KT CAVOK 12/07 Q1013 A2992", "OISS 292230Z 00000KT CAVOK 18/M01 Q1014 A2995", "OISY 292200Z 00000KT CAVOK 11/M01 Q1019", "OITL 292200Z 10006KT 9999 FEW040 SCT050CB BKN180 14/04 Q1011", "OITP 292200Z 27010KT CAVOK 21/15 Q1004", "OITR 292200Z 07004KT 9999 FEW035CB SCT040 12/06 Q1008 A2979", "OITT 292230Z 01004KT 9999 FEW027 FEW032CB BKN080 13/08 Q1010 A2985", "OIYY 292200Z 14006KT 9999 FEW035 21/05 Q1012", "OIZH 292200Z 08016KT 9999 FEW035CB SCT100 21/05 Q1013 A2993", "OJAM 292200Z 26009KT 8000 FEW025 SCT030 10/06 Q1013 NOSIG", "OKAS 292155Z 33010KT 9000 HZ CLR 27/04 A2969 RMK AO2A SLP049 T02690040 FZRANO $", "OKKK 292200Z 32005KT 8000 NSC 26/17 Q1004 NOSIG", "OLBA 292200Z 15007KT 8000 NSC 15/11 Q1012 REDZ NOSIG", "OMAA 292200Z 10005KT CAVOK 25/07 Q1005 NOSIG", "OMAD 292200Z 12004KT 050V160 CAVOK 26/10 Q1005 NOSIG", "OMAL 292200Z 07005KT CAVOK 24/08 Q1007 NOSIG", "OMDB 292200Z 18004KT CAVOK 26/11 Q1005 NOSIG", "OMDW 292200Z 14007KT CAVOK 24/09 Q1006 NOSIG", "OMFJ 292200Z 34004KT 310V010 8000 NSC 28/16 Q1005 A2970", "OMRK 292200Z 20006KT CAVOK 22/10 Q1006 A2971", "OMSJ 292200Z 11005KT CAVOK 22/10 Q1006 NOSIG", "OOAD 292150Z AUTO 08005KT //// R31///// // NCD 26/18 Q1008 NOSIG", "OODQ 292150Z AUTO 21011KT CAVOK ////// 25/24 Q1005 NOSIG", "OOKB 292150Z AUTO 03004KT CAVOK ////// 28/18 Q1005 NOSIG", "OOMS 292150Z 20003KT CAVOK 26/20 Q1004 NOSIG", "OOSA 292150Z 08004KT 9999 FEW025 28/25 Q1007 NOSIG", "OOSH 292150Z AUTO 10001KT //// ////// 27/19 Q1004 RMK 1001", "OPFA 292233Z 00000KT 4000 FU FEW100 22/17 Q1007 NOSIG", "OPIS 292230Z 07006KT 6000 FEW040 FEW100 20/14 Q1007 NOSIG", "OPKC 292230Z 00000KT 5000 VCTS FEW025CB SCT030 22/18 Q1006 TEMPO 1000 TSRA FEW025CB", "OPLA 292225Z 09011KT 5000 FU SCT040 SCT100 22/16 Q1007 NOSIG RMK QFE982 A29.75", "OPMT 292230Z 00000KT 4000 FU NSC 22/17 Q1005 NOSIG", "OPNH 292200Z 18004KT 5000 HZ SCT035 FEW100 22/19 Q1006", "OPPS 292200Z 18004KT 4000 HZ SCT120 23/13 Q1007", "OPSK 292200Z 00000KT 4000 HZ FEW040 SCT100 23/18 Q1006 NOSIG", "OPST 292200Z 05004KT 4000 FU FEW040 SCT100 23/15 Q1008 NOSIG 59%", "ORBI 292200Z 36003KT 7000 NSC 20/06 Q1007 NOSIG", "OTBD 292230Z 22006KT 180V250 CAVOK 29/16 Q1005 NOSIG", "OTBH 292155Z 19003KT 9999 CLR 26/15 A2966 Q1004 RMK AO2A SLPNO FZRANO TSNO CHINO RWY34 $", "OTHH 292200Z 18006KT CAVOK 27/19 Q1004 NOSIG", "PAAD 292235Z AUTO 09016KT 7SM OVC004 M12/M14 A3015 RMK AO2 T11221136 PWINO", "PAAK 292251Z AUTO 31028G36KT 1SM -SN BR FEW009 BKN025 OVC036 00/M01 A2920 RMK AO2 PK WND 32041/2205 UPE2157RAB2157E12SNB12 P0000 FZRANO $", "PAAQ 292253Z 17005KT 10SM OVC100 10/M03 A2977 RMK AO2 SLP084 T01001033", "PABA 292252Z AUTO 08017KT 9SM -SN OVC009 M09/M12 A3019 RMK AO2 SLP230 T10941117 FZRANO PNO $", "PABE 292253Z 16004KT 10SM -RA FEW046 BKN055 OVC070 06/M01 A2978 RMK AO2 RAB29 SLP087 P0000 T00561006", "PABI 292253Z 11006KT 10SM SCT070 BKN095 BKN140 06/M06 A2986 RMK AO2 SLP130 VIRGA DSNT N-E WATER FOWL VC T00611061", "PABL 292156Z AUTO 17004KT 10SM CLR 01/M03 A2993 RMK AO2 SLP138 T00111033 FZRANO", "PABR 292253Z 05019KT 9SM OVC080 M11/M14 A3014 RMK AO2 SLP208 T11111139 $", "PABT 292153Z VRB03KT 10SM FEW038 SCT050 07/M04 A2996 RMK SLP159 T00721044", "PABV 292156Z AUTO VRB03KT 10SM FEW110 08/M04 A2982 RMK AO2 SLP103 T00831039", "PACD 292253Z 14021G30KT 9SM FEW031 08/03 A2956 RMK AO2 PK WND 14030/2203 SLP010 T00780033 $", "PACM 292239Z AUTO 14014KT BKN007 03/01 A2978 RMK AO2 PWINO $", "PACV 292253Z VRB03KT 10SM -RA FEW029 BKN035 OVC044 07/06 A2976 RMK AO2 SLP077 P0002 T00720056", "PACZ 292251Z AUTO 14015KT 2 1/2SM -SHRA BR BKN001 M01/M01 A2971 RMK AO2 SLP068", "PADE 292253Z AUTO 02005KT 10SM CLR M01/M04 A2989 RMK AO2 SLP121 T10061039 TSNO $", "PADG 292210Z 08013KT 15 SCT027 SCT031 BKN050 01/M02 A2992", "PADK 292214Z AUTO 01018G28KT FEW017 SCT050 02/M03 A2933 RMK AO2 PK WND 01033/2157 PWINO FZRANO $", "PADL 292156Z 13009KT 10SM CLR 04/00 A2983 RMK AO2 SLP105 T00390000", "PADM 292156Z AUTO 08014KT 10SM -RA FEW024 OVC048 04/00 A2985 RMK AO2 RAB35 SLP115 P0000 T00390000", "PADQ 292253Z 08008KT 10SM CLR 07/01 A2986 RMK AO2 SLP111 T00720011", "PADU 292156Z 11007KT 10SM SCT025 OVC120 08/02 A2946 RMK AO2 SLP981 T00780017", "PAED 292155Z 05005KT 10SM FEW080 SCT100 SCT190 09/M04 A2979 RMK AO2A SLP085 T00941042", "PAEG 292253Z AUTO 04004KT 10SM CLR 11/M04 A2984 RMK AO2 SLP112 T01111039 TSNO", "PAEH 292155Z AUTO 07017G22KT 010V130 10SM -SHRA OVC035 02/M01 A2972 RMK AO2 SHRAB2129 SLP071 P0000 T00221008", "PAEI 292155Z 05006KT 10SM FEW030 FEW100 09/M06 A2995 RMK AO2A SLP038 WND DATA ESTMD ALSTG/SLP ESTMD", "PAEN 292253Z 29006KT 10SM CLR 07/M02 A2982 RMK AO2 SLP099 T00721022", "PAFA 292253Z 00000KT 10SM FEW060 SCT200 11/M06 A2986 RMK AO2 SLP119 T01061061", "PAFB 292155Z 14005KT 10SM FEW050 SCT200 09/M07 A2987 RMK AO2A SLP124 T00911072 $", "PAFE 292156Z AUTO 28004KT 10SM CLR 08/07 A2986 RMK AO2 SLP124 T00830067 $", "PAFM 292156Z AUTO 09006KT 10SM SCT038 BKN050 OVC060 05/M02 A2998 RMK AO2 SLP156 T00501017", "PAFR 292155Z AUTO 30006KT 10SM OVC080 07/M04 A2980 RMK AO2 SLP100 T00681040 $", "PAFS 292201Z AUTO 02008KT 10SM FEW065 08/M06 A2986 RMK AO2 SLP120 T00831061", "PAGK 292253Z AUTO 21005KT 10SM -RA OVC007 01/01 A2981 RMK AO2 UPB45E46RAB46SNE45 SLP122 P0002 T00110006 TSNO", "PAGL 292230Z AUTO 12013KT 10SM SCT029 OVC049 02/M01 A2987 RMK AO2 FZRANO", "PAGN 292156Z AUTO VRB03KT 10SM CLR 09/07 A2985 RMK AO2 SLP098 T00940067", "PAGS 292235Z AUTO 00000KT 10SM BKN017 11/07 A2983 RMK AO2", "PAGY 292253Z AUTO 24006KT 10SM CLR 11/07 A2976 RMK AO2 SLP079 T01060072 TSNO", "PAHC 292156Z AUTO 16005KT 10SM BKN042 OVC050 06/M03 A2984 RMK AO2 SLP110 T00561028", "PAHL 292156Z AUTO 03005KT 10SM CLR 07/M02 A2994 RMK AO2 SLP143 T00671017", "PAHN 292154Z AUTO 29017KT BKN065 14/06 A2980 RMK AO2 SLP095 T01390056 TSNO $", "PAHO 292253Z 23012KT 10SM BKN050 06/02 A2983 RMK AO2 SLP103 T00610017", "PAIG 292156Z AUTO VRB05KT 10SM CLR 03/01 A2984 RMK AO2 SLP114 T00330006 $", "PAIK 292156Z AUTO 09009KT 10SM CLR 04/M01 A2997 RMK AO2 SLP151 T00441011", "PAIL 292253Z 18006KT 10SM BKN060 OVC130 05/M02 A2986 RMK AO2 SLP114 T00501017", "PAIM 292155Z AUTO VRB06KT 10SM SCT041 05/M04 A2992 RMK AO2 SLP145 T00481044", "PAIN 292156Z AUTO 00000KT 10SM CLR 07/M09 A2981 RMK AO2 SLP120 T00671089", "PAIW 292247Z AUTO 04016KT 3/4SM -SN BR OVC006 M07/M08 A2993 RMK AO2 P0000 FZRANO", "PAJC 292237Z AUTO 09007KT 7SM -RA SCT013 BKN017 OVC023 04/02 A2976 RMK AO2 RAB00 PNO $", "PAJN 292253Z 23005KT 10SM FEW036 SCT060 OVC200 12/06 A2982 RMK AO2 SLP096 T01220061 $", "PAJZ 292156Z AUTO 00000KT 9SM FEW080 04/M01 A2990 RMK AO2 SLP131 T00441006 $", "PAKH 292253Z AUTO 10SM OVC029 06/M01 A2989 RMK AO2 TSNO $", "PAKI 292156Z AUTO 10SM FEW043 BKN050 02/00 A2972 RMK AO2 SLP069 T00170000 FZRANO $", "PAKN 292154Z 16009KT 10SM SCT045 BKN049 BKN085 08/M02 A2980 RMK AO2 SLP091 T00831022", "PAKP 292156Z AUTO 15004KT 10SM CLR M01/M07 A2993 RMK AO2 SLP190 T10111072 FZRANO", "PAKT 292253Z 13012KT 10SM CLR 17/05 A2982 RMK AO2 SLP100 HARBOR WIND 14015KT T01720050", "PAKU 292145Z 09015KT 3SM R06/P6000FT DRSN BR SKC M12/M14 A3015", "PAKV 292253Z AUTO 07003KT 10SM FEW055 OVC070 06/M04 A2991 RMK AO2 SLP133 T00611039 TSNO $", "PAKW 292253Z AUTO 04009KT 10SM FEW120 18/08 A2976 RMK AO2 SLP075 T01830083 TSNO", "PAKX 292235Z AUTO 26004KT 10SM CLR 07/M03 A2983 RMK AO2", "PALG 292156Z AUTO VRB06G15KT 10SM FEW034 06/M02 A2981 RMK AO2 SLP099 T00561017", "PALH 292253Z AUTO 00000KT 10SM BKN085 08/M05 A2980 RMK AO2 SLP092 T00781050 TSNO", "PALJ 292250Z 06010KT 30SM SCT060 BKN100 10/04 A2981 RMK EST PASS OPN NOSPECI", "PALP 292248Z 09014KT 8SM SKC M09/M14 A3014", "PALU 292155Z AUTO 09006KT 10SM OVC060 M05/M08 A2999 RMK AO2 SNB2050E2056SHSNB2056E2108 SLP157 T10551076", "PAMB 292156Z AUTO 11008KT 7SM FEW065 03/00 A2982 RMK AO2 SLP101 T00330000 $", "PAMH 292156Z AUTO VRB05KT CLR 07/M05 A2987 RMK AO2 SLP114 T00721050 PWINO $", "PAMK 292156Z AUTO 13012KT 10SM SCT033 BKN049 OVC100 04/M01 A2985 RMK AO2 SLP108 T00441011", "PAMM 292156Z AUTO 24009KT 10SM CLR 11/07 A2984 RMK AO2 SLP198 T01060067 $", "PAMO 292240Z AUTO 13012KT 10SM FEW009 SCT029 04/01 A2980 RMK AO2", "PAMR 292253Z 28004KT 10SM BKN085 09/M05 A2979 RMK AO2 SLP089 T00941050", "PAMY 292156Z AUTO 11012KT 10SM OVC006 02/00 A2950 RMK AO2 UPE2059 SLP989 P0000 T00170000 FZRANO", "PANC 292253Z 22005KT 10SM SCT070 SCT160 07/M04 A2979 RMK AO2 SLP091 T00721039", "PANI 292156Z AUTO 16012KT 10SM OVC036 06/M03 A2988 RMK AO2 SLP112 T00561028 $", "PANV 292156Z AUTO 12011KT 10SM BKN040 05/M03 A2982 RMK AO2 SLP185 T00501028 TSNO", "PANW 292156Z AUTO 00000KT 10SM OVC070 05/M03 A2986 RMK AO2 SLP117 T00501033", "PAOH 292156Z AUTO 27005KT 10SM 12/07 A2983 RMK AO2 SLP100 T01170067 $", "PAOM 292253Z 08012KT 10SM SCT022 BKN050 01/M01 A2982 RMK AO2 SLP099 T00061006", "PAOO 292205Z AUTO SCT006 BKN035 OVC045 01/01 A2974 RMK AO2 PWINO FZRANO TSNO $", "PAOR 292253Z VRB03KT 10SM FEW070 09/M02 A2980 RMK AO2 SLP109 T00891017 PNO", "PAOT 292253Z 12010KT 10SM CLR 00/M01 A2992 RMK AO2 SLP131 T00001006", "PAOU 292156Z AUTO 14021KT 10SM BKN044 05/01 A2966 RMK AO2 PK WND 14032/2107 SLP044 T00500011 PNO $", "PAPB 292219Z AUTO 08010KT 8SM SCT006 OVC016 04/02 A2947 RMK AO2 T00390017 TSNO $", "PAPG 292156Z 09005KT 10SM BKN110 09/06 A2984 RMK AO2 SLP109 T00890061", "PAPH 292156Z AUTO 15021G29KT 10SM FEW025 07/01 A2972 RMK AO2 PK WND 14029/2151 SLP067 T00670011", "PAPM 292156Z AUTO 11012KT 10SM OVC016 04/00 A2975 RMK AO2 SLP075 T00390000", "PAPN 292253Z AUTO 13014KT 8SM SCT029 BKN037 OVC044 07/02 A2976 RMK AO2 RAB18E33 P0000", "PAPO 292243Z AUTO 01006KT 1/2SM -SN FZFG SCT009 BKN013 OVC035 M03/M05 A2998 RMK AO2 UPB10E28SNB01E10B28 P0000 FZRANO", "PAPT 292252Z 35006KT 25SM FEW070 06/02 A2976 RMK NO SPECI 400671044 70000 931000 4/011", "PAQT 292253Z AUTO 08016KT 5SM BLSN OVC005 M12/M14 A3014 RMK AO2 SLP209 T11171144 TSNO PNO $", "PARC 292156Z AUTO 36005KT 10SM CLR 00/M09 A2995 RMK AO2 SLP199 T00001094 FZRANO", "PARY 292156Z AUTO 08007KT 10SM FEW044 07/M03 A2990 RMK AO2 SLP137 T00671033", "PASC 292253Z 08017KT 4SM BLSN SCT003 M11/M13 A3013 RMK AO2 SLP206 T11061133", "PASD 292233Z VRB04KT 8SM FEW012 SCT020 BKN027 06/03 A2967 RMK AO2 VCSH SE-E PNO $", "PASI 292253Z 00000KT 10SM BKN060 11/07 A2978 RMK AO2 SLP084 T01110072", "PASK 292156Z AUTO 08012KT 10SM CLR 03/M01 A2996 RMK AO2 SLP144 T00281011", "PASL 292156Z AUTO 10004KT 10SM SCT043 BKN050 BKN065 06/M02 A2990 RMK AO2 SLP118 T00611022", "PASM 292233Z AUTO 12009KT 10SM SCT012 BKN060 02/00 A2981 RMK AO2 FZRANO", "PASN 292238Z AUTO 09010KT 10SM BKN024 OVC031 03/M01 A2950 RMK AO2 T00281006 TSNO", "PASO 292253Z AUTO VRB04KT 10SM SCT050 07/02 A2984 RMK AO2 SLP106 T00670022 TSNO", "PASV 292155Z AUTO 17004KT 10SM OVC050 04/M08 A2981 RMK AO2 SLP112 T00411081", "PASX 292156Z AUTO 34007KT 300V010 10SM SCT048 08/M04 A2985 RMK AO2 SLP113 T00781039", "PASY 292155Z 32020G25KT 7SM BKN020 OVC040 00/M07 A2980 RMK AO2A PK WND 33028/10 SLP092 T00031068 PNO FZRANO $", "PATA 292252Z 35004KT 10SM SCT060 BKN090 10/M06 A2990 RMK AO2 SLP128 T01001061", "PATC 292250Z AUTO 03024KT 3/4SM -SN BR SCT004 OVC030 M08/M09 A2985 RMK AO2 PK WND 03026/2249 SLP117", "PATE 292156Z AUTO 13008KT 10SM OVC011 01/M02 A2984 RMK AO2 UPB14E16SNE14 SLP110 P0000 T00061022 FZRANO", "PATG 292235Z AUTO 10012KT 10SM FEW023 SCT028 OVC034 04/01 A2980 RMK AO2", "PATK 292253Z AUTO VRB05KT 10SM CLR 10/M05 A2977 RMK AO2 SLP085 T01001050 TSNO", "PATL 292155Z AUTO 00000KT 10SM CLR 06/M04 A2989 RMK AO2 SLP134 T00571040 TSNO $", "PATO 292253Z AUTO VRB04KT 10SM OVC060 07/M03 A2980 RMK AO2 SLP092 T00721033 TSNO", "PATQ 292156Z AUTO 09016KT 6SM -SN CLR M14/M17 A3009 RMK AO2 SLP196 P0000 T11391167 FZRANO TSNO", "PAUN 292156Z AUTO 10012KT 10SM FEW002 04/M02 A2987 RMK AO2 SLP119 T00391017", "PAVC 292243Z AUTO 15014KT 10SM SCT007 BKN011 OVC022 05/05 A2963 RMK AO2", "PAVD 292156Z 30004KT 7SM -RA FEW008 BKN015 OVC035 03/02 A2989 RMK AO2 SLP120 P0000 T00330017 $", "PAVL 292153Z AUTO 10007KT 10SM SCT039 OVC070 01/M01 A2994 RMK AO2 SLP137 T00061011 TSNO $", "PAWD 292253Z AUTO 30008KT 250V320 10SM BKN060 11/M05 A2976 RMK AO2 SLP077 T01061050 TSNO", "PAWG 292155Z 00000KT 10SM OVC090 12/07 A2982", "PAWI 292253Z AUTO 08018KT 4SM BLSN BKN006 BKN027 OVC070 M12/M14 A3006 RMK AO2 SNB09E29B38E48 SLP180 T11171144 TSNO $", "PAWM 292156Z AUTO 12012G17KT 9SM OVC025 03/M02 A2986 RMK AO2 SLP115 T00281017", "PAWN 292156Z AUTO 12007KT 10SM BKN030 OVC050 03/M02 RMK AO2 SLPNO T00331022 $", "PAWS 292156Z AUTO 28006KT 10SM CLR 09/M05 A2980 RMK AO2 SLP099 T00891050", "PAYA 292253Z AUTO 00000KT 10SM -RA SCT009 OVC065 11/08 A2983 RMK AO2 SLP101 P0001 T01060083 TSNO $", "PAZK 292253Z AUTO 35006KT 3/4SM -SN FEW008 OVC020 01/M04 A2973 RMK AO2 P0000 FZRANO", "PFCL 292156Z AUTO 13014KT 10SM CLR 04/00 A2981 RMK AO2 SLP089 T00440000 TSNO", "PFEL 292156Z AUTO 12005KT 10SM OVC041 03/M02 A2987 RMK AO2 SLP119 T00281017", "PFKT 292156Z AUTO 07016KT 10SM UP BKN041 OVC050 A2985 RMK AO2 RAB24E42UPB42SNE22 SLPNO P0000 FZRANO $", "PFNO 292156Z AUTO 09011KT 10SM CLR 03/M01 A2995 RMK AO2 SLP225 T00281006 $", "PFSH 292156Z AUTO 16003KT 10SM CLR 04/M02 A2988 RMK AO2 SLP118 T00391017", "PFYU 292156Z VRB04KT 10SM CLR 06/M04 A2997 RMK AO2 SLP161 T00611044", "PGRO 292250Z 08012KT 7SM FEW018 28/22 A2984", "PGSN 292154Z 09017KT 10SM FEW022 SCT028 BKN060 28/23 A2986 RMK AO2 SLP133 T02780228 $", "PGUA 292155Z AUTO 07014KT 10SM FEW020 27/22 A2986 RMK AO2 SLP102 T02680215 $", "PGUM 292154Z 07010KT 10SM FEW025 28/22 A2986 RMK AO2 SLP103 T02830222", "PGWT 292150Z 09015KT 7SM SCT020 28/22 RMK FIRST", "PHBK 292251Z AUTO 00000KT 10SM OVC026 26/21 A3003 RMK AO2 SLP172 T02560206 $ ", "PHHI 292235Z AUTO 08012KT 10SM BKN025 BKN040 25/18 A3007 RMK AO2 CIG 025V038 BKN025 V SCT SLP174 $", "PHJR 292253Z 04013G20KT 10SM SCT036 BKN047 29/19 A3005 RMK AO2 SLP181 T02890194 PNO", "PHKO 292253Z 21010KT 10SM SCT040 BKN070 28/21 A3001 RMK AO2 SLP162 T02780211", "PHLI 292253Z 10012KT 10SM FEW018 24/21 A3007 RMK AO2 SLP179 T02390206 $", "PHMK 292154Z 05014G24KT 10SM SCT037 27/20 A3006 RMK AO2 SLP181 T02720200", "PHNG 292157Z AUTO 07011G21KT 10SM BKN025 BKN039 OVC047 28/21 A3005 RMK AO2 SLP171 T02780206 $", "PHNL 292253Z 06013KT 10SM FEW026 BKN038 BKN060 28/21 A3004 RMK AO2 SLP172 T02830206", "PHNY 292156Z AUTO 28008KT 10SM BKN023 OVC036 23/19 A3011 RMK AO2 RAE17 SLP176 P0000 T02330194", "PHOG 292154Z 05016G27KT 10SM FEW020 SCT035 28/18 A3005 RMK AO2 PK WND 04027/2148 SLP179 T02830183 $", "PHSF 292250Z AUTO 27007KT 10SM SCT002 OVC008 17/14 A3033 RMK AO2 CIG 006V014 OVC V BKN SLP162 $", "PHTO 292253Z 04007KT 10SM FEW030 BKN060 26/20 A3006 RMK AO2 SLP176 T02610200", "PKMR 292251Z 08007KT 15SM FEW015 SCT050 BKN120 OVC300 29/25 A2980 RMK SLP091 T02900254", "PKWA 292240Z AUTO 07015KT 10SM SCT018 SCT031 30/25 A2983 RMK AO2 T02950251 TSNO", "PLCH 292200Z 10010KT 9999 FEW015CB SCT019 30/25 Q1008 CB AT NE", "PMDY 292156Z AUTO 10SM CLR 23/17 A3012 RMK AO2 SLP199 T02280172 TSNO $", "PPIZ 292156Z AUTO 06013KT 10SM OVC080 M11/M13 A3002 RMK AO2 SLP170 T11061133 FZRANO", "PTKK 292250Z VRB05KT 15SM FEW012CB BKN120 OVC280 30/26 A2977 RMK CB NW SLP083 T02990264", "PTRO 292150Z 06006G14KT 12SM BKN015CB BKN110 OVC290 24/24 A2975 RMK CB ALQDS", "PTTP 292150Z 08004KT 15SM FEW018 BKN300 30/26 A2983 RMK SLP100 T03020263", "PTYA 292250Z 10012KT 12SM FEW016CB SCT130 OVC300 29/26 A2977 RMK CB N-NE SLP083 T02860262", "PWAK 292155Z AUTO 05015KT 8SM CLR 27/22 A2999 RMK AO2 SLP162 T02700215 $", "RCFN 292230Z 34004KT 300V040 9999 VCSH FEW010TCU SCT015 SCT055 24/22 Q1012 NOSIG RMK TCU E A2989", "RCKH 292230Z 34008KT 300V360 9000 FEW014 SCT035 BKN070 27/20 Q1009 NOSIG RMK A2982", "RCMQ 292235Z 36006KT 6000 FEW006 SCT025 BKN060 21/21 Q1011 NOSIG RMK A2986", "RCNN 292230Z 36005KT 6000 FEW012 SCT080 25/20 Q1010 NOSIG RMK A2984", "RCSS 292230Z 09013KT 9999 VCSH SCT009 BKN018 BKN035 20/17 Q1013 NOSIG RMK A2992", "RCTP 292230Z 04016KT 9999 FEW012 BKN016 BKN020 20/19 Q1013 NOSIG RMK A2992", "RJAA 292230Z 18010KT 9999 -SHRA FEW005 SCT008 BKN010 21/20 Q1002 TEMPO FEW005 BKN008", "RJAH 292200Z 18014KT 6000 -SHRA FEW005 BKN008 BKN015 20/20 Q1001", "RJAW 292200Z 14011KT 9999 FEW012 25/22 Q1015 RMK 2CU012 A2999 WIND BY EQPT/25", "RJBB 292230Z 24011KT 9999 -SHRA FEW007 SCT015 BKN035 17/16 Q1007 NOSIG", "RJBE 292200Z 26013KT 9999 -SHRA FEW003 SCT009 BKN110 17/16 Q1005", "RJCC 292230Z 16012KT 7000 -SHRA FEW002 SCT003 BKN004 11/11 Q0997", "RJCH 292200Z VRB01KT 8000 -SHRA FEW003 BKN008 BKN012 11/10 Q0997", "RJCK 292200Z 01008KT 6000 -SHRA FEW002 SCT003 BKN004 06/06 Q1000", "RJCO 292242Z 15017KT 9999 FEW008 SCT060 BKN080 11/10 Q0997 RMK 2ST008 3CU060 7AC080 A2944", "RJDB 292200Z AUTO 29008KT 240V320 9999 NSC 13/10 Q1010", "RJDC 292200Z 26013KT 9999 FEW020 BKN150 BKN/// 15/11 Q1009", "RJDT 292230Z 29004KT 250V340 CAVOK 13/06 Q1011", "RJEC 292200Z 14009KT 9999 -SHRA FEW005 SCT015 BKN050 10/09 Q0997", "RJFF 292230Z 27006KT 220V300 9999 FEW015 SCT025 BKN/// 15/11 Q1011 NOSIG", "RJFK 292200Z 34006KT 9999 FEW010 SCT110 BKN140 14/12 Q1010", "RJFM 292230Z 27013KT 9999 FEW010 BKN100 17/09 Q1008", "RJFO 292200Z 32004KT 270V050 9999 FEW025 SCT130 BKN140 15/10 Q1010", "RJFR 292200Z 25009KT 9999 FEW020 BKN150 BKN/// 14/10 Q1010", "RJFS 292200Z 29009KT 9999 FEW030 SCT140 BKN190 14/11 Q1011", "RJFT 292200Z VRB02KT 9999 FEW001 SCT010 BKN100 13/12 Q1011", "RJFU 292200Z 31009KT 9999 FEW015 BKN020 BKN130 15/11 Q1011", "RJGG 292230Z 32007KT 9999 -SHRA FEW002 BKN015 18/17 Q1005 TEMPO 4000 SHRA BR FEW005 BKN008", "RJKA 292200Z AUTO 35006KT 310V020 8000 -RA FEW011 SCT016 BKN019 20/19 Q1011", "RJKI 292200Z AUTO 34011KT 9999 FEW007 SCT009 BKN010 21/20 Q1010", "RJNK 292200Z 17008KT 8000 -SHRA FEW005 BKN020 OVC030 14/13 Q1006", "RJNS 292230Z 22020G36KT 4500 SHRA BR FEW000 BKN005 BKN007 20/19 Q1003", "RJNT 292200Z 27012KT 9999 -SHRA FEW005 SCT050 BKN060 14/12 Q1005", "RJNY 292240Z 23018G28KT 3000 R27/1100VP1800D SHRA BR FEW008 BKN010 BKN035 21/20 Q1003 RMK 1ST008 6CU010 6CU035 A2964 R1800 VIS SE-SW 2500M", "RJOA 292200Z 27005KT 9999 FEW004 SCT015 BKN160 14/14 Q1008", "RJOB 292200Z 28010KT 9999 FEW015 SCT035 BKN180 15/11 Q1007", "RJOC 292200Z 26017KT 9999 FEW020 BKN030 BKN/// 16/12 Q1007", "RJOF 292237Z 30006KT 270V330 9999 FEW020 SCT150 BKN200 14/11 Q1010 RMK 2CU020 4AC150 A2983", "RJOH 292200Z 26015KT 9999 FEW020 BKN030 BKN050 16/13 Q1006", "RJOI 292156Z 26007KT 10SM FEW020 BKN150 BKN210 16/11 A2979 RMK AO2 SLP087 T01610106", "RJOK 292200Z 29003KT 210V320 9999 FEW002 SCT100 BKN130 18/15 Q1005", "RJOM 292200Z 24013KT 9999 VCSH FEW015 SCT130 BKN160 16/12 Q1009", "RJOO 292200Z 24005KT 170V330 9999 -SHRA FEW003 SCT008 BKN070 18/16 Q1005", "RJOR 292200Z 28012KT 9999 FEW015 SCT050 BKN/// 16/14 Q1006", "RJOS 292200Z 31008KT 9999 -SHRA SCT025 BKN100 18/16 Q1005", "RJOT 292200Z 25011KT 9999 VCSH FEW010 SCT130 BKN150 15/12 Q1007", "RJSA 292200Z 21012KT 9999 -SHRA FEW001 SCT040 BKN100 15/14 Q0997", "RJSF 292200Z 20004KT 1600 -RA BCFG BR FEW001 SCT002 BKN010 15/15 Q1002", "RJSK 292200Z 12003KT 040V180 3000 -SHRA BR FEW000 SCT002 BKN006 14/14 Q1000", "RJSM 292200Z 04002KT 3000 -SHRA BR FEW003 SCT050 BKN100 12/11 Q0998", "RJSN 292200Z 22012KT 7000 -SHRA FEW005 SCT008 BKN010 16/15 Q1002", "RJSS 292200Z 19005KT 150V270 9999 -RA FEW020 SCT080 BKN090 16/15 Q1001", "RJSY 292200Z 24009KT 190V280 4000 SHRA BR FEW002 BKN005 BKN007 15/15 Q1001", "RJTC 292210Z 01005KT 9000 -SHRA FEW008 BKN012 BKN030 17/16 Q1001 RMK 2ST008 6CU012 7CU030 A2958", "RJTE 292235Z 21018G31KT 160V240 3100 SHRA BR BKN006 BKN015 21/20 Q1004 RMK 6ST006 7CU015 A2966", "RJTR 292236Z AUTO 12003KT 6SM BR BKN019 BKN026 21/20 A2961 RMK AO2 RAE15DZB15E19DZB20E21RAB21E36 SLP027 $", "RJTT 292230Z 20022KT 9999 -SHRA FEW005 BKN008 BKN025 22/21 Q1001 BECMG FEW010 BKN015", "RJTY 292203Z 33004KT 6SM -RA OVC010 17/15 A2960 RMK AO2A RAB03 SLP025", "RKJB 292200Z 11004KT CAVOK 08/06 Q1013 NOSIG", "RKJK 292155Z AUTO 23006KT 7SM CLR 10/10 A2989 RMK AO2 SLP126 T01020097 $", "RKNY 292200Z AUTO 28014G25KT 250V320 9999 NCD 13/M00 Q1005", "RKPC 292200Z 18002KT CAVOK 11/06 Q1014 NOSIG", "RKPK 292200Z 29004KT CAVOK 11/03 Q1010", "RKSG 292155Z 26005KT 10SM CLR 10/06 A2987 RMK SLP116 WND DATA ESTMD T00950057 $", "RKSI 292230Z 24006KT CAVOK 11/07 Q1011 NOSIG", "RKSM 292200Z 18006KT 9999 FEW015 FEW100 09/07 A2985", "RKSO 292155Z 23005KT 5SM BR CLR 08/08 A2992 RMK AO2A SLP136 T00840083 $", "RKSS 292200Z 21005KT CAVOK 10/07 Q1011 NOSIG", "RKTN 292200Z 35004KT CAVOK 10/04 Q1010", "RKTU 292200Z 25008KT 9999 FEW030 08/06 Q1011", "ROAH 292230Z 02012KT 9999 FEW011 BKN017 BKN080 23/21 Q1011", "RODE 292159Z AUTO 03010KT 9SM FEW014 BKN024 22/22 A2988 RMK AO2 SLP160 T02220217 $", "RODN 292155Z 35005KT 10SM SCT012 BKN018 22/21 A2984 RMK AO2A SLP110 T02180206 $", "ROIG 292200Z AUTO 03013KT 3100 -RA BR BKN009 OVC010 22/22 Q1011", "ROMD 292200Z AUTO 19010KT 9999 FEW002 SCT005 24/24 Q1012", "ROMY 292200Z AUTO 04010KT 9999 FEW008 SCT010 BKN013 23/22 Q1011", "RORK 292200Z AUTO 19011KT 9000 BKN003 BKN005 24/23 Q1011", "RORS 292200Z AUTO 03016KT 9999 OVC014 23/21 Q1011", "RORT 292200Z AUTO 03009KT 350V050 9999 OVC010 22/21 Q1011", "RORY 292200Z AUTO 01009KT 9999 FEW009 BKN011 OVC016 22/21 Q1011", "ROTM 292256Z 36006KT 9999 SCT010 BKN020 OVC065 22/21 A2990 RMK SLP112 T02220211", "ROYN 292200Z AUTO 04020KT 8000 OVC013 23/21 Q1011", "RPLB 292200Z 06004KT 9999 FEW020 SCT300 26/23 Q1009 RMK A2980", "RPLC 292200Z 28002KT 9999 FEW020 BKN300 27/22 Q1009 NOSIG RMK A2980", "RPLI 292200Z 00000KT 8000 FEW018 25/23 Q1008 NOSIG RMK A2977", "RPLL 292200Z 00000KT 9999 FEW030 28/24 Q1008 NOSIG RMK A2977", "RPMD 292200Z 02002KT 9999 FEW016 BKN090 25/24 Q1008 RMK A2977", "RPMZ 292200Z 07003KT 9999 -RA FEW015 OVC080 24/23 Q1007 RMK A2974", "RPVM 292200Z 32003KT 290V350 9999 FEW020 BKN250 26/24 Q1008 NOSIG RMK A2977", "RPVP 292200Z 09010KT 9999 TS FEW017CB SCT019 OVC080 28/25 Q1009 RMK A2980 CB E-SE", "SAAR 292200Z 04009KT CAVOK 24/18 Q1005 RMK PP000", "SABE 292200Z 35005KT 230V030 CAVOK 23/17 Q1008 NOSIG RMK PP000", "SACO 292200Z 03008KT CAVOK 25/17 Q1004 NOSIG RMK PP000", "SADF 292200Z 04007KT CAVOK 21/15 Q1007 RMK PP000", "SAEZ 292200Z 02006KT CAVOK 24/14 Q1007 NOSIG RMK PP000", "SAME 292200Z 18005KT 140V220 9999 FEW045 24/14 Q1004", "SANT 292200Z 20005KT 9999 SCT035 22/19 Q1005 RMK PP000", "SAOC 292200Z 00000KT CAVOK 24/17 Q1003", "SARC 292200Z 05004KT CAVOK 26/20 Q1008", "SARE 292200Z 05009KT CAVOK 26/19 Q1008 RMK PP///", "SARF 292200Z 07006KT CAVOK 26/20 Q1009", "SARI 292200Z VRB02KT CAVOK 22/19 Q1014 RMK PP000", "SARL 292200Z 05003KT CAVOK 24/17 Q1010", "SARP 292200Z 05005KT CAVOK 25/18 Q1013", "SASA 292200Z 04011KT 010V070 9999 FEW020 21/17 Q1010 RMK PP000", "SASJ 292200Z 07007KT 040V100 9999 FEW025 21/18 Q1009 RMK PP000", "SAVC 292200Z 28019KT CAVOK 15/M03 Q0997 RMK PP000", "SAWE 292200Z 17016KT CAVOK 02/M05 Q0994 RMK PP000", "SAWG 292200Z 20016KT 9999 -RA FEW015 BKN060 06/M00 Q0996", "SAWH 292200Z 17013KT 8000 -RASN BKN035 BKN060 02/M02 Q0997 RMK PP999", "SAZM 292200Z 03003KT 9999 BKN040 21/16 Q1007 RMK PP///", "SAZN 292200Z 23008G28KT CAVOK 20/04 Q1005", "SAZS 292200Z 32012KT 8000 -RA SCT015 BKN027 BKN032 04/02 Q1006 RMK PP///", "SBAF 292200Z 17007KT 7000 -RA FEW012 BKN020 OVC027 22/22 Q1018", "SBAN 292200Z 09003KT 9999 VCSH BKN030 FEW035TCU 21/18 Q1019", "SBBG 292200Z AUTO 01006KT CAVOK 20/14 Q1014", "SBBH 292200Z 11009KT 9999 FEW040 21/16 Q1019 RETS", "SBBI 292200Z 09005KT 9999 SCT008 BKN050 16/14 Q1021", "SBBR 292200Z 20003KT 170V240 CAVOK 21/16 Q1019", "SBBU 292200Z 18003KT CAVOK 23/17 Q1017", "SBBV 292200Z 15003KT 9999 FEW040 FEW045TCU SCT070 30/23 Q1009", "SBCA 292200Z 03008KT CAVOK 20/15 Q1018", "SBCB 292200Z 09008KT 9999 SCT007 BKN040 24/19 Q1018", "SBCC 292200Z 05003KT 9999 SCT030 FEW035TCU BKN100 27/21 Q1013", "SBCF 292200Z 10012KT 9999 FEW030 FEW040TCU BKN100 21/17 Q1020", "SBCG 292200Z 20003KT 9999 FEW045 24/19 Q1015", "SBCO 292200Z 11010KT CAVOK 21/16 Q1016", "SBCP 292200Z 18006KT CAVOK 23/21 Q1017", "SBCT 292200Z 11004KT 9999 BKN010 15/14 Q1021", "SBCY 292200Z 02006KT 9999 SCT020 29/23 Q1011", "SBCZ 292200Z 02006KT 9999 VCSH FEW030 FEW033TCU SCT100 29/26 Q1010", "SBDN 292200Z 14006KT CAVOK 22/18 Q1016", "SBFI 292200Z 05002KT CAVOK 22/19 Q1014", "SBFL 292200Z 07003KT 9999 FEW028 SCT070 22/18 Q1018", "SBFN 292200Z AUTO 08002KT 9999 BKN023 25/24 Q1014", "SBFZ 292200Z 08004KT CAVOK 27/24 Q1012", "SBGL 292200Z 10003KT 7000 -RA BKN018 OVC025 23/20 Q1017", "SBGO 292200Z 11010KT 9999 VCSH BKN045 FEW048TCU 25/18 Q1017", "SBGR 292200Z 14003KT 9999 BKN015 19/17 Q1020", "SBGW 292200Z 05003KT 010V070 9999 BKN025 21/18 Q1019", "SBIL 292200Z 15004KT CAVOK 28/24 Q1015", "SBIP 292200Z AUTO 23005KT 090V250 CAVOK 22/19 Q1018", "SBJR 292200Z 35001KT 9999 SCT018 OVC035 24/22 Q1017", "SBJU 292200Z 00000KT 9999 FEW020 FEW022TCU 27/24 Q1016", "SBJV 292200Z 28003KT 4000 BR BKN008 OVC030 20/19 Q1019", "SBKG 292200Z 10011KT 9999 SCT015 26/22 Q1016", "SBKP 292200Z 12009KT 9999 FEW045 21/17 Q1018", "SBLE 292200Z AUTO VRB02KT CAVOK 24/20 Q1015", "SBLO 292200Z 06002KT 9999 FEW040 24/16 Q1017", "SBLS 292200Z 13010KT 9999 SCT030 FEW035TCU SCT100 20/17 Q1020", "SBMA 292200Z 03008KT 9999 TS FEW025 FEW030CB 26/24 Q1011", "SBME 292200Z 15003KT 9999 BKN020 BKN080 25/23 Q1018", "SBMG 292200Z 06004KT CAVOK 22/16 Q1016", "SBMK 292200Z 23003KT 9999 VCTS FEW050CB SCT100 20/17 Q1017", "SBMQ 292200Z 36005KT 9999 VCSH SCT023 SCT045 27/26 Q1011", "SBMT 292200Z 14007KT 8000 SCT015 BKN017 19/18 Q1020", "SBNF 292200Z 36008KT 9999 BKN040 21/19 Q1018", "SBNM 292200Z 05010KT CAVOK 23/17 Q1014", "SBNT 292200Z 10006KT 9999 FEW017 SCT050 26/24 Q1013", "SBOI 292200Z 05004KT 9999 FEW070 28/23 Q1012", "SBPA 292200Z 10010KT CAVOK 22/17 Q1016", "SBPB 292145Z 09004KT 9999 FEW020 ///// Q1012", "SBPF 292200Z 08001KT CAVOK 20/12 Q1018", "SBPJ 292200Z 31003KT 9999 FEW030 FEW030TCU 29/25 Q1012", "SBPK 292200Z 06004KT CAVOK 20/16 Q1015", "SBPL 292200Z 12006KT 9999 FEW040 30/20 Q1013", "SBRJ 292200Z 11005KT 9999 SCT015 BKN025 OVC030 24/20 Q1017", "SBRP 292200Z 18004KT CAVOK 24/16 Q1016", "SBSC 292200Z 05004KT 9999 SCT025 OVC040 23/21 Q1017", "SBSJ 292200Z 13014KT 9999 BKN030 BKN090 20/17 Q1019", "SBSM 292200Z 08005KT CAVOK 22/17 Q1014", "SBSN 292200Z 11005KT 9999 FEW020TCU 28/25 Q1010", "SBSP 292200Z 15008KT 8000 BKN009 18/16 Q1021", "SBSR 292200Z 20006KT CAVOK 24/15 Q1016", "SBTE 292200Z 00000KT 9999 BKN020 28/24 Q1012 RETS", "SBTF 292245Z 02002KT 9999 SCT025 OVC100 26/25 Q1011", "SBUL 292200Z 21005KT 9999 FEW045 24/16 Q1018", "SBUR 292200Z 20004KT CAVOK 23/18 Q1018", "SBUY 292200Z 05012KT 2000 TSRA BR BKN018 BKN030 FEW035CB 24/24 Q1010", "SBVH 292200Z 36003KT CAVOK 26/22 Q1013", "SBVT 292200Z VRB02KT 8000 -RA BKN010 BKN040 22/21 Q1017", "SBYS 292200Z VRB01KT CAVOK 19/17 Q1017", "SCAP 292200Z AUTO 21003KT 130V250 9999 -SHRA ////// 05/02 Q1008", "SCAR 292200Z 20009KT CAVOK 21/15 Q1013", "SCAT 292200Z 23012KT CAVOK 17/14 Q1016", "SCBA 292209Z AUTO 29021KT 9999 OVC130/// 06/01 Q0998", "SCCF 292200Z 28014KT CAVOK 20/M09 Q1026", "SCCH 292200Z 28009KT 1800 RA SCT010 OVC020 14/12 Q1012", "SCCI 292200Z 23011KT 9999 FEW030 03/M04 Q0998 NOSIG", "SCCY 292200Z VRB03KT 9999 FEW030 BKN040 08/01 Q1000", "SCDA 292200Z 20016KT CAVOK 20/15 Q1013", "SCFA 292200Z 18013KT 9999 FEW020 17/13 Q1015 NOSIG", "SCFT 292200Z VRB03KT 7000 -SHRA BKN020 OVC030 06/04 Q1006", "SCGE 292200Z 30008KT 4000 VCSH SCT007 OVC008 12/11 Q1012 RESHRA", "SCHR 292200Z AUTO VRB02KT 9999 -RA NSC 08/03 Q0995", "SCIC 292200Z 01008KT 9999 BKN030 18/13 Q1015", "SCIE 292200Z 36005KT 330V030 9999 -SHRA FEW010 BKN049 13/12 Q1012", "SCIP 292200Z 11016KT 9999 -SHRA BKN021 BKN032 21/16 Q1026 NOSIG", "SCJO 292200Z 36007KT 9999 FEW020 BKN200 10/06 Q1007", "SCMK 292200Z AUTO VRB04KT //// // FEW014/// BKN041/// BKN049/// 09/05 Q1005", "SCON 292200Z AUTO 24004KT 200V290 9999 -RA BKN029/// OVC110/// 08/06 Q1006 RERA", "SCPD 292200Z 15006KT 120V180 8000 SCT030 BKN070 15/12 Q1017", "SCPQ 292200Z AUTO 04002KT 9999 BKN037 07/05 Q1005", "SCQP 292200Z 31008KT 270V330 9999 -SHRA FEW020 BKN048 13/07 Q1009", "SCRD 292200Z 34006KT 0100 -DZ FG VV000 14/14 Q1018", "SCRG 292200Z 04005KT 4000 HZ SCT013 BKN020 14/13 Q1018", "SCRM 292200Z 23011KT 190V250 9999 BKN018 M04/M06 Q0988 NOSIG", "SCSE 292200Z 27009KT 9999 SCT010 17/14 Q1017", "SCSN 292200Z 32006KT 290V360 6000 FEW006 SCT050 16/16 Q1017", "SCTB 292200Z 19007KT 8000 OVC010 14/12 Q1018", "SCTE 292200Z 03004KT 9999 FEW035 BKN150 10/05 Q1007 NOSIG", "SCTN 292200Z AUTO 01008KT 9999 FEW045 09/07 Q1006", "SCVD 292200Z 04004KT 340V130 6000 SHRA BKN016 BKN040 OVC050 09/09 Q1009", "SECO 292200Z 36002KT 9999 SCT030 BKN100 26/24 Q1011 RMK A2987", "SECU 292200Z 24010KT 9999 BKN040 17/13 Q1025 RERA", "SEGS 292200Z 13010KT 9999 VCSH BKN023 28/24 Q1011 RMK A2987", "SEGU 292200Z 22013KT 9999 FEW013 SCT023 BKN090 28/24 Q1009 NOSIG RMK A2980", "SEGZ 292200Z 31010KT 9999 VCSH SCT020 SCT050 23/21 Q1015", "SEJD 292200Z 11003KT 9999 SCT026 SCT100 26/24 Q1011 RMK A2987", "SELT 292200Z 17009KT 9999 SCT030 14/09 Q1028", "SEMC 292200Z 14004KT 9999 FEW030 26/18 Q1015 RMK A2998", "SEMT 292200Z 29006KT 9999 FEW023 BKN100 28/24 Q1010 RMK A2983", "SENL 292200Z 10003KT 9999 FEW020 BKN100 29/23 Q1011 RMK A2988", "SEQM 292200Z 03009KT 9999 SCT026 SCT080 18/13 Q1024 NOSIG RMK A3025", "SERO 292200Z 00000KT 9999 FEW013 BKN023 28/24 Q1010", "SESA 292229Z 33010KT 8000 -RA SCT013 BKN100 BKN300", "SESM 292200Z 33003KT 300V010 9999 VCSH SCT023 BKN100 22/19 Q1015 RMK A2998", "SEST 292200Z 15006KT 9999 SCT016 28/25 Q1008 RMK A2979", "SETN 292200Z 28006KT 260V320 9999 FEW026 SCT300 30/25 Q1009 RMK A2981", "SKAR 292200Z 00000KT 9000 -DZ FEW020CB BKN023 24/21 Q1014 RMK CB/SW/NW A2997", "SKBG 292200Z 31005KT 9999 SCT015 24/21 Q1014 RMK A2994", "SKBO 292200Z 32005KT 9999 SCT020 19/10 Q1025 NOSIG RMK A3028", "SKBQ 292200Z 03009KT 360V060 9999 FEW015 28/25 Q1008 NOSIG RMK A2979", "SKCC 292200Z 36009KT 9999 SCT020 31/22 Q1011 RMK A2985", "SKCG 292200Z 35006KT 9999 SCT017 BKN090 28/26 Q1008 RMK A2977", "SKCL 292200Z 33008KT 9999 DZ SCT023CB SCT080 28/20 Q1013 TEMPO FM2230 TSRA", "SKEJ 292200Z 01004KT 9999 FEW015 33/24 Q1007 RMK A2974", "SKIB 292200Z 14006KT 110V170 9999 SCT027 25/22 Q1016 RMK A3002", "SKIP 292200Z 08007KT 9999 SCT016 14/10 Q1028 RMK A3038", "SKLC 292200Z VRB02KT 9999 SCT008 OVC300 27/26 Q1009 RMK A2979", "SKLT 292200Z 00000KT 9999 SCT025 30/25 Q1008 RMK A2978", "SKMD 292200Z 18007KT 9999 VCSH SCT035TCU BKN200 24/17 Q1017 RMK TCUVCSH/S/NNW A3006", "SKMR 292200Z 27006KT 9999 BKN017 31/24 Q1008 RMK A2977", "SKMZ 292200Z 00000KT 9000 SCT015 SCT080 19/16 Q1024 RMK A3027", "SKNV 292200Z 17007KT 140V210 9999 FEW035 BKN110 26/21 Q1010 RMK A2985", "SKPC 292200Z 02003KT 9999 FEW013 26/25 Q1010 RMK A2984", "SKPE 292200Z 24003KT 9999 FEW016TCU SCT080 25/20 Q1015 RMK TCUNW A2999", "SKPS 292200Z 00000KT 4000 1000S R02/P2000N R20/P2000N BCFG BKN005 18/18 Q1019 RMK A3010", "SKPV 292200Z 13008KT 9999 FEW017 33/27 Q1010 RMK A2984", "SKRG 292200Z 11008KT 9999 SCT020 BKN200 21/13 Q1024 NOSIG RMK A3024", "SKRH 292200Z 05014KT 020V080 9999 FEW020 SCT200 30/25 Q1008 RMK A2978", "SKSM 292200Z 02010KT 9999 FEW020 BKN070 32/24 Q1009 RETS RMK A2980", "SKSP 292200Z 11006KT 070V160 9999 FEW017 BKN200 30/23 Q1010 RMK A2982", "SKUC 292200Z 15009KT 9999 BKN023 26/24 Q1011 RMK A2986", "SKUI 292200Z 00000KT 9999 FEW030 32/25 Q1007 RMK A2976", "SKVP 292200Z 00000KT 9999 VCSH SCT020TCU SCT080 33/23 Q1009 RMK TCUVCSH/SE A2982", "SKVV 292200Z 00000KT 9999 FEW020 30/20 Q1010 RMK A2985", "SLCA 292200Z 00000KT 9999 BKN036 28/21 Q1010", "SLCB 292200Z 10003KT 9999 FEW033 27/00 Q1020", "SLCP 292200Z 36006KT 9999 FEW020 28/23 Q1014", "SLET 292200Z 32011G22KT 9999 FEW017 29/22 Q1008", "SLLP 292200Z 12010KT 9999 FEW020 14/M07 Q1037", "SLRI 292200Z 36004KT 9999 FEW020 SCT200 32/23 Q1010", "SLSA 292200Z 36004KT 9999 FEW017 SCT200 32/25 Q1007", "SLSV 292200Z 00000KT 9999 NSC 29/25 Q1010", "SLTJ 292200Z 21006KT 9999 NSC 26/11 Q1012", "SLTR 292200Z 35003KT 9999 FEW023 31/25 Q1008", "SLVR 292200Z 35011KT 9999 FEW017 29/22 Q1008", "SOCA 292230Z AUTO 08003KT CAVOK 27/23 Q1012 NOSIG", "SPCL 292200Z 22006KT 9999 SCT020 SCT080 30/23 Q1010 RMK TX32.8 PP000", "SPHI 292200Z 19013KT 9999 FEW040 28/21 Q1010 RMK BIRD HAZARD RWY 19/01 TX30.9 PP000", "SPHO 292200Z 20006KT 9999 FEW050 23/03 Q1025 RMK TX24.9 PP000", "SPJC 292200Z 17012KT 9999 FEW020 25/19 Q1011 NOSIG RMK TX25.9 BIRD HAZARD RWY 16 PP000", "SPJJ 292200Z 36005KT 9999 SCT040 18/// Q1030 RMK TX//./ PP000", "SPJL 292200Z /////KT CAVOK 15/M04 Q1035 RMK WIND RWY12 13013KT.TX/// PP000", "SPJR 292230Z 33002KT 9999 SCT025 17/09 Q1026", "SPME 292200Z 31004KT 9999 BKN025 29/24 Q1010 RMK BIRD HAZARD RWY 32/14 PP000", "SPMS 292200Z 23003KT 9999 FEW015 SCT080 29/24 Q1009 RMK BIRD HAZARD RWY09/27 PP000", "SPNC 292200Z 06013KT 9999 FEW040 25/12 Q1019 RMK TX30.4 PP000", "SPQT 292200Z 32003KT 290V350 9999 FEW020 SCT100 31/23 Q1008 NOSIG RMK TX33.4 PP000", "SPQU 292200Z 26007KT CAVOK 17/08 Q1027 NOSIG RMK TX21.5 PP000", "SPRU 292200Z 15010KT 8000 VCFG SCT070 25/21 Q1010 RMK TX27.2 PP000", "SPSO 292200Z 22018KT CAVOK 23/18 Q1011 RMK TX26.3 BIRD HAZARD RWY 22/04 PP000", "SPST 292200Z 20003KT 9999 FEW020 SCT100 30/23 Q1010 RMK TX32.1 PP000", "SPTN 292200Z 22009KT CAVOK 20/14 Q1014 RMK TX24.8 PP000", "SPTU 292200Z 35003KT 310V020 CAVOK 30/23 Q1008 RMK TX34.7 BIRD HAZARD RWY 01/19 PP000", "SPUR 292200Z 22009KT 9999 SCT030 BKN100 29/22 Q1010 RMK BIRD HAZARD RWY 19/01 TX30.7 PP000", "SPYL 292200Z 25010KT 9999 SCT030 28/24 Q1010 RMK TX29.4 BIRD HAZARD RWY 17/35 PP000", "SPZO 292230Z 34007KT 280V020 9999 NSC 19/01 Q1030 NOSIG RMK BIRD HAZARD RWY 10/28", "SUAA 292200Z 02010KT CAVOK 22/14 Q1010", "SUCA 292200Z 04008KT CAVOK 24/13 Q1008", "SULS 292200Z 06004KT 020V110 CAVOK 21/16 Q1011", "SUMU 292200Z 03002KT CAVOK 22/14 Q1010 NOSIG", "SVBC 292203Z AUTO 01010KT NCD 31/23 Q1011", "SVBI 292203Z AUTO /////KT NCD 31/23 Q1013", "SVBM 292203Z AUTO 11012KT NCD 27/18 Q1013", "SVBS 292203Z AUTO 34001KT NCD 31/21 Q1013", "SVCB 292203Z AUTO 06007KT NCD 33/20 Q1009", "SVCS 292203Z AUTO 20002KT NCD 27/20 Q1015", "SVFM 292203Z AUTO NIL", "SVGD 292203Z AUTO 10007KT NCD 27/24 Q1011", "SVGU 292203Z AUTO 09005KT NCD 23/23 Q1011", "SVJM 292203Z AUTO 11002KT NCD 30/22 Q1011", "SVLO 292203Z AUTO NIL", "SVMC 292203Z AUTO 10005KT NCD 32/24 Q1008", "SVMG 292203Z AUTO 08014KT NCD 31/23 Q1011", "SVMI 292203Z AUTO 05007KT NCD 29/23 Q1012", "SVMT 292203Z AUTO 04007KT NCD 32/25 Q1011", "SVPA 292203Z AUTO NIL", "SVPR 292203Z AUTO 07012KT NCD 31/19 Q1012", "SVSA 292203Z AUTO NIL", "SVSR 292203Z AUTO NIL", "SVVL 292203Z AUTO ///01KT NCD ///// Q////", "SYCJ 292200Z 07010KT 9999 SCT018 28/26 Q1012 NOSIG", "SYEC 292200Z 05008KT 9999 SCT022 28/25 Q1012 NOSIG", "TAPA 292200Z 10005KT 060V140 9999 FEW018 27/23 Q1015 NOSIG", "TBPB 292200Z 09007KT 9999 FEW022 27/23 Q1014 NOSIG", "TDPD 292200Z 13005KT 9999 SCT022 29/24 Q1015", "TFFF 292230Z AUTO 13008KT CAVOK 28/23 Q1014 NOSIG", "TFFR 292230Z AUTO 13009KT CAVOK 27/24 Q1015 NOSIG", "TGPY 292200Z 08015KT 9999 FEW017 28/24 Q1013 NOSIG", "TIST 292253Z 10007KT 10SM FEW021 28/23 A2998 RMK AO2 SLP151 T02780233", "TISX 292253Z 11007KT 10SM CLR 27/23 A2998 RMK AO2 SLP151 T02720228", "TJBQ 292250Z 08008KT 10SM SCT018 SCT037 BKN065 27/23 A2999", "TJIG 292245Z 10011KT 10SM SCT025 BKN070 28/24 A2997", "TJNR 292253Z AUTO 12005KT 10SM BKN022 BKN028 OVC055 27/24 A3000 RMK AO2 RAB24E33 SLP157 P0000 T02670239 ", "TJPS 292235Z AUTO 14006KT 10SM CLR 28/24 A2996 RMK AO2 TSNO", "TJSJ 292156Z 07013KT 10SM -RA FEW033 SCT042 SCT075 27/24 A2996 RMK AO2 RAB11 SLP145 P0004 T02720239", "TKPK 292200Z 05005KT 9999 SCT018 28/24 Q1015", "TLPC 292200Z 12008KT 9999 FEW024 28/24 Q1015 NOSIG", "TLPL 292200Z 12011KT 9999 SCT024 28/24 Q1014 NOSIG", "TNCA 292200Z 08016KT 9999 FEW014 30/25 Q1010 NOSIG", "TNCB 292155Z 08013KT 050V110 9999 SCT011 BKN015 28/25 Q1011", "TNCC 292200Z 09008KT 060V120 9999 FEW019 28/25 Q1011 NOSIG", "TNCE 292155Z AUTO 07006KT 030V100 //// // ///////// 28/24 Q1015 RE//", "TNCM 292200Z 12005KT 9999 FEW018 29/24 Q1016 NOSIG ", "TQPF 292200Z 11007KT 9999 FEW019 28/25 Q1015", "TRPG 292200Z 10007KT 9999 BKN015 27/25 Q1016", "TTCP 292200Z 10009KT 9999 FEW020 28/24 Q1013 NOSIG", "TTPP 292200Z 11010KT 9999 FEW020 29/22 Q1012 NOSIG", "TVSA 292200Z 09007KT 9999 FEW018 27/23 Q1014 ", "TXKF 292255Z 23013KT 9999 VCSH BKN022 BKN045 21/19 Q1014 ", "UAAA 292230Z 04002MPS 9999 SCT050CB BKN100 13/05 Q1009 NOSIG", "UACC 292230Z 05007MPS CAVOK 03/M06 Q1017 NOSIG RMK QFE731/0975", "UADD 292230Z 20006MPS 9999 NSC 16/05 Q1009 NOSIG RMK QFE700/0934", "UAII 292230Z 11005MPS CAVOK 15/06 Q1008 NOSIG RMK QFE721/0962", "UAIT 292230Z 07005MPS CAVOK 15/04 Q1007 NOSIG RMK QFE731/0975", "UAKK 292230Z 05007MPS CAVOK 05/M05 Q1014 NOSIG RMK QFE713/0951", "UAOO 292200Z 01004MPS CAVOK 16/M01 Q1008 NOSIG RMK QFE745/0993", "UARR 292200Z 07006MPS CAVOK 15/05 Q1013 NOSIG RMK QFE756/1009", "UASK 292200Z 14002MPS 120V190 9999 SCT150 12/03 Q1006 NOSIG RMK QFE729/0973", "UASP 292230Z 36004MPS CAVOK 01/M06 Q1016 NOSIG RMK QFE751/1002", "UATE 292230Z 06003MPS CAVOK 19/09 Q1006 NOSIG RMK QFE752/1003", "UATG 292230Z 12010MPS CAVOK 24/06 Q1009 NOSIG RMK QFE759/1012", "UATT 292230Z 10006MPS CAVOK 14/06 Q1017 TEMPO 07009MPS RMK QFE743/0991", "UAUU 292230Z 07002MPS CAVOK 05/M09 Q1022 NOSIG RMK QFE750/1001", "UBBB 292230Z VRB02KT 9999 FEW060CB 16/13 Q1005 NOSIG", "UBBF 292230Z AUTO 08008KT 9999 // NSC 20/14 Q1006", "UBBG 292230Z 29010KT 9999 FEW040CB BKN100 16/12 Q1007 NOSIG", "UBBL 292200Z 21004KT 9999 BKN080 17/17 Q1005 NOSIG RMK MT OP", "UBBN 292230Z 03012KT 9999 -TSRA SCT040CB OVC090 15/09 Q1005 NOSIG RMK MT OP QFE680", "UBBQ 292200Z 23006KT 9999 BKN100 19/13 Q1007 NOSIG RMK MT OP", "UBBZ 292230Z AUTO 25006KT 9999 // NSC 18/09 Q1008", "UCFL 292200Z 34003MPS 300V360 9999 BKN026CB 10/M00 Q1016", "UCFM 292230Z 13007MPS 9999 SCT066CB 17/06 Q1009 TEMPO 13007G12MPS", "UCFO 292230Z 11002MPS 070V150 9999 SCT050CB 15/07 Q1011 NOSIG", "UDSG 292230Z VRB06KT 9999 SCT049CB 10/05 Q1009 NOSIG", "UDYZ 292230Z VRB02KT 9999 SCT040CB 16/05 Q1005 NOSIG", "UEEE 292230Z 03001MPS CAVOK 01/M06 Q1008 R05/09//60 NOSIG RMK QFE747", "UERP 292200Z 08004MPS 9999 SCT040CB OVC100 01/M06 Q0998 NOSIG RMK QFE705", "UERR 292200Z 11004MPS 9999 BKN030CB 03/M07 Q0996 R25/CLRD60 NOSIG RMK QFE716/0954", "UGAM 292230Z AUTO 28004KT //// ////// 08/08 Q1010", "UGKO 292230Z VRB07KT 3500 TS RA SCT024CB OVC045 10/10 Q1010 NOSIG", "UGMS 292230Z AUTO 12002KT //// ////// 04/04 Q1011", "UGSB 292230Z 22006KT 9999 -RA SCT010 BKN023 11/11 Q1012 NOSIG", "UGTB 292230Z 32006KT 9999 -TSRA FEW036 BKN045CB 12/11 Q1010 NOSIG", "UHBB 292230Z 36004MPS 9999 SCT033 06/M00 Q1004 R36/090060 NOSIG RMK QFE736/0981", "UHHH 292230Z 04009MPS 9999 BKN042CB 04/M02 Q0999 R88/090060 NOSIG RMK QFE743/0991", "UHMA 292230Z 35004MPS CAVOK M15/M18 Q1016 R01/////// NOSIG RMK MID 35003MPS END R01/35003MPS QFE759/1012", "UHMM 292230Z 26002MPS 9999 FEW013 M01/M05 Q1016 R10/210560 NOSIG RMK MT OBSC QFE747 R28/32002MPS", "UHPP 292230Z 34005MPS 310V010 9999 FEW040 05/M06 Q1018 R34L/CLRD65 NOSIG RMK QFE760/1013", "UHSS 292230Z 36008MPS 9999 -SHRA SCT006 BKN024CB 02/01 Q1003 R01/250160 NOSIG RMK MT OBSC QFE751/1001", "UHWW 292230Z 24002MPS 9999 SCT007 BKN030CB 07/06 Q0993 R25L/290060 NOSIG RMK QFE744", "UIAA 292230Z 30001MPS 9999 NSC M04/M07 Q1008 R29/CLRD70 NOSIG RMK QFE698/0930", "UIBB 292230Z 24003MPS 6000 FEW003 02/02 Q1000 R30/290150 NOSIG RMK QBB100 MT OBSC QFE708/0944", "UIII 292230Z 19002MPS 160V240 CAVOK 01/M01 Q1003 R12/60D NOSIG RMK QFE710/0947", "UIUU 292230Z 00000MPS 9000 NSC 02/01 Q1005 R26/CLRD60 NOSIG RMK QFE710/0947", "ULAA 292230Z 16001MPS 9000 SCT026 M01/M01 Q1015 R08/290060 NOSIG RMK QFE760/1014", "ULLI 292230Z 15003MPS CAVOK 02/M01 Q1015 R10R/090060 NOSIG", "ULMM 292230Z 13004MPS 9999 BKN021CB M00/M00 Q1009 R13/690245 TEMPO 0500 +SHSN VV003 RMK QFE750", "ULOO 292200Z 13003MPS CAVOK 06/M04 Q1014 NOSIG RMK QFE756", "ULPB 292200Z AUTO 20002MPS 160V220 9999 // NCD 01/M01 Q1016 RMK QFE758/1011", "UMBB 292200Z 15002MPS 9000 NSC 08/01 Q1015 NOSIG", "UMGG 292200Z 02003MPS CAVOK 06/02 Q1018 NOSIG", "UMIO 292230Z VRB01MPS CAVOK 02/M01 Q1018 NOSIG RMK QFE746/0995", "UMKK 292230Z 28005MPS 9999 OVC033 09/04 Q1013 R24/19//95 NOSIG RMK QFE758/1011", "UMMS 292230Z VRB01MPS CAVOK 05/M02 Q1017 NOSIG", "UNAA 292230Z 02004MPS CAVOK 05/M06 Q1007 R02/CLRD64 NOSIG RMK QFE732", "UNBB 292230Z 34003MPS CAVOK 01/M08 Q1011 R06/CLRD66 NOSIG RMK QFE736", "UNEE 292230Z 28004MPS CAVOK M02/M07 Q1009 R23/CLRD60 NOSIG RMK QFE734", "UNKL 292230Z 26004MPS CAVOK M00/M09 Q1005 R29/CLRD65 NOSIG RMK QFE729", "UNNT 292230Z 30003MPS CAVOK M03/M08 Q1013 R25/090070 R16/090070 NOSIG RMK QFE749/0999", "UNOO 292230Z 32002MPS 8000 NSC 01/M08 Q1019 R25/CLRD60 NOSIG RMK QFE756", "UNTT 292230Z 28002MPS CAVOK M02/M09 Q1009 R21/090060 NOSIG RMK QFE742", "UNWW 292230Z 00000MPS CAVOK 01/M08 Q1009 R19/09//55 NOSIG RMK QFE730", "UOOO 292230Z 02016MPS 0450 0350NE R01/0550N BLSN FEW001 M10/M11 Q1011 R01/810260 NOSIG RMK QBB050 QFE744/0992", "URKA 292230Z 22005MPS 9999 SCT015 BKN026 10/08 Q1009 R22/010070 TEMPO 0300 FG BKN002 BKN020CB RMK QFE752/1002", "URKK 292230Z 23002MPS 9999 BKN032 08/08 Q1010 R23L/290060 TEMPO 0500 -SHRA FG SCT003 BKN020CB RMK QFE754", "URMG 292230Z VRB01MPS 9000 -SHRA SCT079CB BKN/// 15/14 Q1008 R26/090070 NOSIG RMK QFE741/0988", "URML 292230Z 16003MPS 1600 1300SE R14/P2000D BR NSC 13/12 Q1007 R14/01//70 NOSIG RMK QFE755/1007", "URMM 292230Z 28006MPS 9999 OVC015 11/09 Q1009 R30/090070 TEMPO 0300 -SHRA FG BKN002 BKN020CB RMK MT OBSC QFE729/0972", "URMN 292200Z 33001MPS 9999 BKN028CB 12/11 Q1007 R24/////// NOSIG RMK QFE719", "URMO 292230Z AUTO 08005MPS 9999 // ///022/// 14/13 Q1008 RMK QFE711/0949", "URMT 292230Z 29005MPS 9999 BKN010 OVC020 09/08 Q1009 R25/150060 NOSIG RMK QFE718", "URRP 292230Z 25006MPS 9999 SCT004 13/13 Q1006 R05/290051 TEMPO 1000 BR BKN001 BKN020CB RMK QBB130 QFE750/1000", "URSS 292230Z 29001MPS 9000 -SHRA BKN010 OVC030CB 10/09 Q1010 R02/290060 R06/290060 NOSIG RMK R06/32002G06MPS MT OBSC QFE756", "URWA 292230Z 25001MPS 9000 NSC 14/13 Q1006 R09/010070 NOSIG RMK QFE757/1009", "URWI 292230Z AUTO 29008MPS 9999 // ///////// 13/11 Q1006", "URWW 292230Z 14007MPS CAVOK 16/13 Q1004 R05/010070 NOSIG", "USCC 292230Z 17003MPS CAVOK 07/M04 Q1021 R09/000060 NOSIG RMK QFE745", "USCM 292230Z 11001MPS 7000 NSC 07/01 Q1021 R36/090060 NOSIG RMK QFE727", "USDA 292230Z AUTO 33004MPS 8000 ///002/// M15/M16 Q1030 RMK QFE771/1028", "USHH 292230Z 30002MPS 280V350 CAVOK M03/M07 Q1022 R06/010060 NOSIG", "USNN 292230Z 30004MPS 2800 -SHSN BKN016CB M04/M05 Q1013 R21/450361 TEMPO 1500 SHSN RMK QFE755", "USPP 292230Z VRB01MPS CAVOK 07/M03 Q1017 R03/090060 NOSIG RMK QFE752", "USRR 292230Z 32006MPS 9999 BKN012 BKN015 M04/M06 Q1016 R25/CLRD60 NOSIG RMK QFE757", "USSS 292230Z 07002MPS CAVOK 01/M04 Q1021 R08L/010060 NOSIG RMK QFE745/0994", "USTR 292230Z 05003MPS CAVOK 00/M07 Q1024 R03/090065 R30/////99 NOSIG", "UTAA 292200Z VRB02KT 9999 FEW050CB FEW050 BKN100 25/04 Q1006 R88/70D NOSIG", "UTAK 292200Z 14004KT CAVOK 26/05 Q1006 R16R/CLRD70 NOSIG", "UTAM 292200Z 05006KT 6000 SCT230 21/02 Q1007 R88/CLRD70 NOSIG", "UTAT 292200Z 05006KT CAVOK 20/04 Q1009 R08/CLRD70 NOSIG", "UTAV 292200Z 33004KT CAVOK 19/03 Q1007 R31/CLRD70 NOSIG", "UTDD 292230Z 05002MPS 9999 NSC 15/06 Q1011 R09/D NOSIG RMK QFE690/0920", "UTDK 292230Z 01006MPS 9999 NSC 17/06 Q1010 R01/09//70 RMK QFE700/0934", "UTDL 292230Z 25002MPS 9999 BKN086 19/07 Q1008 R26/CLRD70 NOSIG RMK QFE719/0958", "UTDT 292230Z 05002MPS 9999 FEW130 16/05 Q1007 R35/CLRD70 RMK QFE716/0955", "UTFF 292230Z 15006KT 9999 SCT060CB 19/03 Q1009 R18/CLRD70", "UTFN 292230Z VRB02KT 9999 SCT050CB 20/05 Q1008 R28/CLRD70 NOSIG", "UTNN 292230Z 35004KT CAVOK 17/03 Q1010 R33/CLRD60 NOSIG", "UTNU 292230Z 03004KT CAVOK 19/03 Q1009 R31/CLRD70 NOSIG", "UTO8 M M M 263/-06/-07/MMMM/M/ SOG 46 8006 13MM", "UTSA 292230Z 08006KT 9999 NSC 15/M06 Q1008 R07/CLRD70 NOSIG", "UTSB 292230Z 33004KT 310V060 CAVOK 21/02 Q1007 R19/CLRD70 NOSIG", "UTSK 292230Z VRB02KT CAVOK 18/02 Q1008 R16/CLRD70", "UTSS 292230Z 13006KT 9999 NSC 15/05 Q1009 R09/70D NOSIG", "UTST 292230Z 03010KT CAVOK 20/07 Q1006 R25/CLRD70 NOSIG", "UTTT 292230Z 07010KT CAVOK 19/04 Q1008 R08R/CLRD70 NOSIG", "UUBC 292230Z 01001MPS CAVOK 00/M02 Q1019 R13/CLRD60 NOSIG RMK QFE746/0994", "UUBP 292230Z AUTO 02002MPS 9999 NCD 05/M01 Q1017 NOSIG RMK QFE745/0994", "UUBW 292230Z 00000MPS 9000 NSC 02/02 Q1020 R30/010060 TEMPO 0300 FG", "UUDD 292230Z 00000MPS CAVOK 02/00 Q1020 R14R/CLRD60 NOSIG", "UUDL 292230Z 00000MPS CAVOK 00/00 Q1020 R23/290355 NOSIG RMK QFE757", "UUEE 292230Z 03002MPS CAVOK 02/M00 Q1019 R06C/CLRD62 NOSIG", "UUMO 292230Z VRB01MPS CAVOK 02/00 Q1020 R25/CLRD60 NOSIG RMK QFE749/0999", "UUOB 292230Z 05007MPS CAVOK 06/02 Q1011 R29/010070 NOSIG", "UUOK 292230Z AUTO 04006MPS 9999 // NSC 06/01 Q1015 RMK QFE742/0990", "UUOL 292230Z 02008MPS CAVOK 05/04 Q1015 R33/090060 NOSIG", "UUOO 292230Z 04006MPS 9999 OVC013 06/04 Q1013 R30/010070 NOSIG RMK QFE746", "UUWW 292230Z 15001MPS CAVOK 02/M01 Q1019 R24/000070 NOSIG", "UUYY 292230Z 09006MPS 9999 -SHRA BKN036CB 02/00 Q1016 R36/29//51 NOSIG RMK QFE753/1004", "UWGG 292230Z 35004MPS CAVOK 03/03 Q1019 R36R/290050 NOSIG", "UWKD 292230Z 14004MPS CAVOK 14/04 Q1014 R11/CLRD70 NOSIG RMK QFE750/1000", "UWKE 292230Z 16005MPS CAVOK 17/04 Q1016 R21/090070 NOSIG RMK QFE745/0994", "UWKS 292230Z 33002MPS 9999 SCT030CB 14/12 Q1015 R06/010060 NOSIG RMK QFE746", "UWLL 292230Z 14002MPS CAVOK 13/05 Q1014 R20/090065 NOSIG RMK QFE750/1000", "UWLW 292200Z VRB01MPS CAVOK 13/05 Q1014 R20/CLRD60 NOSIG RMK QFE755/1006", "UWOO 292230Z 12005MPS CAVOK 12/05 Q1017 R08/CLRD60 NOSIG RMK QFE752/1003", "UWOR 292200Z 13004MPS CAVOK 09/04 Q1019 R07/CLRD65 NOSIG RMK QFE740/0987", "UWPS 292230Z 34005MPS 9999 OVC013 11/09 Q1015 R02/CLRD60 TEMPO 3000 -TSRA BKN010CB RMK QFE742", "UWSG 292230Z 07002MPS CAVOK 14/08 Q1011 R08/CLRD70 NOSIG RMK QFE756/1008", "UWUU 292230Z 29002MPS 250V330 CAVOK 06/03 Q1017 R32L/0///60 NOSIG", "UWWW 292230Z 12004MPS CAVOK 13/02 Q1015 R15/CLRD60 NOSIG RMK QFE750/1000", "VAAH 292230Z 00000KT 4000 HZ SCT020 BKN080 25/18 Q1006 NOSIG", "VABB 292230Z 29005KT 3500 HZ SCT020 SCT100 28/23 Q1007 NOSIG", "VANP 292230Z 34010G20KT 2000 -TSRA SCT020 FEW030CB OVC080 21/19 Q1011 TEMPO 1500 TSRA", "VCBI 292210Z 07003KT 8000 FEW017 23/23 Q1007 NOSIG", "VDPP 292230Z VRB03KT 9999 SCT015 SCT040 28/26 Q1007", "VDSR 292230Z 00000KT 9999 SCT015 27/25 Q1008", "VDSV 292230Z 07004KT 8000 FEW015 25/25 Q1007", "VEBS 292230Z 34002KT 5000 HZ SCT018 BKN100 26/23 Q1007 NOSIG", "VECC 292230Z 15003KT 3500 HZ FEW020 SCT100 25/22 Q1006 NOSIG", "VEGT 292230Z 00000KT 3000 BR SCT018 FEW025CB BKN100 26/26 Q1008 NOSIG", "VEPT 292230Z 00000KT 3000 HZ FEW018 SCT100 29/20 Q1005 NOSIG", "VERC 292200Z 28004KT 4000 HZ FEW020 SCT100 23/16 Q1010 NOSIG", "VGHS 292230Z 05005KT 3500 HZ SCT015 BKN100 26/21 Q1007 NOSIG", "VHHH 292230Z 02007KT 9999 FEW035 22/17 Q1012 NOSIG", "VIAR 292230Z VRB02KT 4000 HZ SCT035 SCT100 21/15 Q1008 TEMPO 02015G30KT 2000 TSRA", "VIDP 292230Z 00000KT 2500 HZ SCT035 FEW040CB BKN100 26/15 Q1007 NOSIG", "VIJP 292230Z VRB03KT 3500 HZ SCT030 BKN090 24/17 Q1008 BECMG 3000 HZ", "VILK 292230Z 32003KT 4000 HZ SCT020 BKN100 26/21 Q1006 NOSIG", "VMMC 292230Z 35014KT CAVOK 22/18 Q1012 NOSIG", "VNKT 292200Z VRB02KT 5000 BR FEW015 SCT030 BKN100 15/13 Q1015 NOSIG", "VOBL 292230Z VRB02KT 6000 SCT012 FEW025CB SCT080 23/20 Q1012 NOSIG", "VOCB 292200Z VRB02KT 4000 BR SCT012 24/23 Q1008 NOSIG", "VOCI 292230Z 12003KT 3000 BR FEW010 SCT012 BKN080 26/25 Q1006 NOSIG", "VOCL 292230Z 00000KT 5000 BR SCT012 BKN080 23/22 Q1006 NOSIG", "VOGO 292200Z 04007KT 6000 FEW030 27/23 Q1006 NOSIG", "VOHS 292230Z 25006KT 5000 BR FEW015 SCT100 23/20 Q1011 NOSIG", "VOKN 292230Z 05005KT 4000 BR FEW012 BKN080 26/24 Q1006 NOSIG", "VOML 292230Z 08006KT 6000 FEW015 FEW025CB 26/22 Q1007 NOSIG", "VOMM 292230Z 28005KT 5000 BR SCT020 SCT100 28/26 Q1006 NOSIG", "VOTR 292230Z 00000KT 3000 BR FEW016 SCT100 26/24 Q1007 NOSIG", "VOTV 292230Z VRB02KT 3000 BR FEW015 FEW025CB SCT080 27/24 Q1006 NOSIG", "VRMG 292200Z 25005KT 9999 FEW017TCU BKN240 28/26 Q1006 TEMPO 5000 TSRA", "VRMH 292200Z 17008KT 9999 TS FEW017 FEW018CB BKN260 28/26 Q1006 RETS CB W", "VRMM 292200Z 28005KT 9999 TS FEW017 FEW018CB BKN260 28/26 Q1005 RETS CB ESE TEMPO 4000 TSRA", "VTBD 292230Z 10006KT 9999 FEW020 28/25 Q1007 NOSIG", "VTBS 292230Z 20005KT 9999 FEW020 29/25 Q1007 NOSIG", "VTBU 292230Z 18006KT 8000 FEW020 29/26 Q1007 NOSIG", "VTCC 292230Z VRB01KT 8000 NSC 27/20 Q1007 NOSIG", "VTCH 292200Z 00000KT 4000 HZ FEW025 27/19 Q1007 NOSIG", "VTCN 292200Z VRB02KT 8000 NSC 25/23 Q1008 NOSIG", "VTCP 292200Z 23007KT 9999 FEW025CB 29/20 Q1006 TEMPO 5000 TSRA", "VTCT 292200Z 04009KT 9999 FEW045 24/20 Q1008 NOSIG", "VTPB 292200Z 34003KT CAVOK 26/24 Q1009 NOSIG", "VTPH 292200Z 00000KT 9999 FEW030 27/23 Q1006 NOSIG", "VTPM 292200Z 12002KT 8000 FEW030 26/22 Q1008 NOSIG", "VTPO 292200Z 11003KT 6000 FEW025 28/22 Q1007 NOSIG", "VTPP 292200Z 10003KT 9999 FEW030 BKN080 28/23 Q1006 NOSIG", "VTPT 292200Z /////KT 7000 FEW026 30/23 Q1006 NOSIG", "VTSB 292200Z VRB01KT 7000 FEW020 25/24 Q1006 NOSIG", "VTSC 292200Z 21003KT 9999 -RA SCT020 BKN100 26/24 Q1006 NOSIG", "VTSF 292200Z 00000KT 7000 FEW018 27/27 Q1009 NOSIG", "VTSM 292200Z 00000KT 9999 FEW020 29/26 Q1007 NOSIG", "VTSP 292230Z 10002KT 9999 FEW020 25/25 Q1006 NOSIG", "VTSR 292200Z 00000KT 9999 SCT025 25/24 Q1006 NOSIG", "VTSS 292230Z 00000KT 9999 FEW020 24/23 Q1006 NOSIG", "VTST 292200Z VRB02KT 7000 FEW020 25/25 Q1006 NOSIG", "VTUD 292200Z 23003KT 9000 FEW007 24/22 Q1010 NOSIG", "VTUI 292200Z VRB02KT 9999 FEW035 BKN090 24/23 Q1009 NOSIG", "VTUK 292200Z 13004KT 110V170 9000 FEW030 SCT100 25/23 Q1011 NOSIG", "VTUL 292200Z 24004KT 8000 DZ BKN030 24/23 Q1011 NOSIG", "VTUO 292200Z 03005KT 330V100 6000 -RA BKN030 BKN060 25/24 Q1010 NOSIG", "VTUQ 292200Z 22005KT 8000 -RA FEW030 BKN080 23/23 Q1010 NOSIG", "VTUU 292200Z 29003KT 240V320 9000 -RA FEW030 BKN080 24/24 Q1010 NOSIG", "VTUV 292200Z 05003KT 010V070 9000 FEW030 24/23 Q1009 NOSIG", "VTUW 292200Z 01003KT 8000 NSC 24/24 Q1010 NOSIG", "VVCI 292230Z 10006KT 9999 FEW034 21/17 Q1011 NOSIG", "VVCR 292230Z 33004KT 0000 SCT015 27/24 Q1010 NOSIG", "VVCT 292230Z 00000KT 6000 BKN015 25/25 Q1007 NOSIG", "VVDN 292230Z 30001KT 8000 FEW015 SCT040 26/23 Q1010 NOSIG", "VVNB 292230Z 03004KT 360V060 9999 -RA SCT035 OVC040 21/18 Q1014 NOSIG", "VVPB 292230Z 29005KT 8000 SCT013 BKN040 26/24 Q1011 TEMPO 4000 RA BR", "VVPQ 292230Z VRB02KT 9999 FEW015 26/25 Q1007 NOSIG", "VVTS 292230Z 13006KT 9999 FEW017 SCT050 29/27 Q1008 NOSIG", "VVVD 292230Z 10003KT 9999 SCT024 OVC030 20/20 Q1013 NOSIG", "VYMD 292230Z 00000KT 6000 HZ FEW020 27/20 Q1006", "VYYY 292230Z 24005KT 7000 FEW025 28/27 Q1006 NOSIG", "WAAA 292230Z 06003KT 9999 FEW019 23/22 Q1008 NOSIG", "WABB 292230Z 00000KT 9999 FEW018CB SCT018 29/25 Q1008 NOSIG RMK CB AT E AND S", "WADD 292230Z 01003KT 9999 FEW017 26/24 Q1008 NOSIG", "WADL 292230Z 00000KT 7000 BKN016 25/24 Q1009 NOSIG", "WAHS 292200Z 14002KT 7000 FEW014 26/24 Q1007 NOSIG", "WAJJ 292230Z 13002KT 9999 FEW011 27/23 Q1008 NOSIG", "WAKK 292230Z 12004KT 9999 SCT016 28/26 Q1007 NOSIG", "WALL 292230Z 00000KT 7000 -RA SCT018 26/25 Q1007", "WAMM 292230Z VRB01KT 9999 FEW019 24/24 Q1008 NOSIG", "WAOO 292230Z 23002KT 9999 FEW020 25/24 Q1007 NOSIG", "WAPP 292230Z 01006KT 340V050 9999 FEW018 25/24 Q1008 NOSIG", "WAQQ 292230Z 04003KT 8000 SCT015 26/25 Q1008 TEMPO FM2300 TL0000 4000 RA", "WARR 292230Z VRB01KT 5000 BR SCT020 26/25 Q1007 NOSIG", "WATT 292230Z 10002KT 9999 FEW018 24/24 Q1010 NOSIG", "WAYY 292230Z 33002KT 9999 FEW016 25/24 Q1009 NOSIG", "WBGB 292200Z 13004KT 080V250 9999 FEW015CB SCT016 26/25 Q1008", "WBGG 292230Z 00000KT 0500 FG SCT000 24/23 Q1007 TEMPO 0500 FG", "WBGR 292200Z VRB03KT 9999 -TSRA SCT014 FEW015CB 24/24 Q1008", "WBGS 292200Z 00000KT 9999 FEW005 SCT016 25/24 Q1008", "WBGY 292200Z AUTO 00000KT //// // ////// 24/24 Q1008", "WBKK 292230Z 12004KT 080V140 9999 FEW014 FEW016CB 26/25 Q1007 NOSIG", "WBKL 292200Z 00000KT 9999 TS FEW014 FEW017CB 24/23 Q1007 RETSRA", "WBKS 292200Z VRB02KT 9000 SCT016 FEW017CB 26/25 Q1007", "WBKT 292200Z 00000KT 9999 FEW015 26/25 Q1007", "WBKW 292200Z VRB02KT 9999 FEW016 24/23 Q1007", "WBSB 292230Z 19003KT 9999 -TSRA FEW003 FEW015CB BKN150 24/24 Q1008 TEMPO 8000 -TSRA", "WIBB 292230Z 21003KT 7000 VCTS FEW017CB SCT025 25/25 Q1005 NOSIG RMK CB TO NE", "WIDD 292230Z 27003KT 8000 FEW014 27/26 Q1008 NOSIG", "WIDN 292230Z 00000KT 8000 FEW017 24/24 Q1007 NOSIG", "WIEE 292230Z 06002KT 9999 SCT020 26/25 Q1007 NOSIG", "WIHH 292230Z 00000KT 4000 HZ FEW018 26/25 Q1007 NOSIG METAR ", "WIII 292230Z VRB02KT 4000 HZ FEW021 27/26 Q1007 NOSIG", "WILL 292230Z 00000KT 6000 -RA FEW013CB BKN013 OVC060 25/24 Q1008 RMK CB TO N AND SE", "WIMM 292230Z 23003KT 3000 BR SCT001 26/25 Q1006 NOSIG", "WIOO 292230Z 05003KT 7000 SCT005 24/23 Q1007 NOSIG", "WIPP 292230Z 20004KT 9999 FEW010CB BKN010 26/25 Q1007 CB TO NEAND SE NOSIG", "WMAU 292200Z 23004KT 7000 FEW002 25/24 Q1006", "WMBA 292200Z 00000KT 9000 FEW031 25/24 Q1006", "WMKA 292200Z 00000KT 9000 FEW010 25/24 Q1006", "WMKB 292200Z 07003KT 7000 FEW024 25/24 Q1006 NOSIG", "WMKC 292200Z VRB02KT 9999 FEW020 26/25 Q1006", "WMKD 292200Z 00000KT 8000 FEW000 26/24 Q1006 NOSIG", "WMKE 292200Z AUTO 00000KT //// // ////// 25/25 Q1006", "WMKI 292200Z 02003KT 8000 FEW025 25/24 Q1006", "WMKJ 292200Z 00000KT 8000 FEW006 25/24 Q1007", "WMKK 292230Z VRB01KT 7000 FEW008 FEW017CB 25/24 Q1006 NOSIG", "WMKL 292200Z VRB02KT 9999 FEW025 27/25 Q1006", "WMKM 292200Z VRB02KT 8000 FEW030 25/24 Q1007", "WMKN 292200Z VRB02KT 9999 FEW022 27/26 Q1006", "WMKP 292230Z 00000KT 8000 FEW025 27/24 Q1006 NOSIG", "WMSA 292200Z 00000KT 7000 FEW008 FEW017CB 26/25 Q1007", "WSAP 292200Z 01003KT 6000 FEW016 FEW018CB BKN300 26/25 Q1007", "WSSL 292200Z VRB01KT 7000 FEW018 BKN300 26/26 Q1007", "WSSS 292230Z 00000KT 5000 BR FEW017TCU FEW018CB BKN300 26/25 Q1007 NOSIG", "YAMB 292230Z AUTO 31003KT 9999 // OVC100 17/15 Q1012 RF00.0/007.6", "YBAS 292230Z AUTO /////KT 9999 // NCD 09/06 Q1020 RF00.0/000.0", "YBBN 292230Z 24007KT 9999 FEW015 BKN160 19/14 Q1012 RF00/0/012/8", "YBCG 292230Z AUTO 28006KT 9999 // OVC105 20/17 Q1011 RF00.0/002.4", "YBCS 292230Z AUTO 14003KT 9999 // NCD 25/21 Q1010 RF00.0/000.0", "YBHM 292230Z AUTO 15014KT 9999 // BKN016 BKN021 23/20 Q1012", "YBLN 292230Z AUTO 10003KT 9999 // NCD 08/08 Q1019 RF00.0/000.0", "YBMA 292230Z AUTO 16010KT 9999 // NCD 16/07 Q1017 RF00.0/000.0", "YBRK 292230Z AUTO 25005KT 210V270 9999 // NCD 20/14 Q1013 RF00.0/001.2", "YBRM 292230Z AUTO 09007KT 9999 // NCD 20/09 Q1011 RF00.0/000.0", "YBSU 292230Z AUTO 23005KT 9999 // NCD 20/16 Q1011 RF00.0/008.2", "YBTL 292230Z AUTO 29007KT 9999 // SCT036 BKN062 22/20 Q1012", "YBWW 292230Z AUTO 21007KT 9999 // OVC012 14/11 Q1013 RF00.0/000.0", "YCFS 292230Z AUTO 28003KT 9999 // NCD 20/15 Q1010 RF00.0/000.4", "YCIN 292230Z AUTO 14010KT 9999 // NCD 20/08 Q1010 RF00.0/000.0", "YFRT 292230Z AUTO 33005KT 9999 // OVC045 14/11 Q1021 RF00.0/000.0", "YGEL 292230Z AUTO 06007KT 9999 // NCD 12/01 Q1016 RF00.0/000.0", "YGLA 292230Z AUTO 18005KT 9999 // NCD 20/13 Q1012 RF00.0/003.6", "YHID 292230Z AUTO 13009KT 9999 // NCD 29/25 Q1008 RF00.0/000.2", "YLHI 292230Z AUTO 07015KT 9999 // NCD 22/15 Q1014 RF00.0/000.0", "YMAV 292230Z AUTO 28003KT 9999 // NCD 07/05 Q1018 RF00.0/000.0", "YMHB 292230Z 34010KT CAVOK 12/02 Q1015", "YMLT 292230Z AUTO 35004KT 9999 // NCD 08/06 Q1017 RF00.0/000.0", "YMML 292230Z 35003KT CAVOK 08/06 Q1018", "YPAD 292230Z 03010KT 9999 -SHRA FEW018 SCT035 BKN043 12/10 Q1018", "YPCC 292230Z AUTO 09007KT 9999 // SCT015 OVC072 27/26 Q1007", "YPDN 292230Z 09003KT 9999 FEW020 27/24 Q1010 DISTANT SHRA TO NW", "YPEA 292230Z AUTO 14003KT 9999 // NCD 07/05 Q1019 RF00.0/000.0", "YPGV 292230Z AUTO 10006KT 9999 // OVC087 28/24 Q1009 RF00.0/001.8", "YPJT 292230Z AUTO 00000KT 9999 // NCD 07/06 Q1019 RF00.0/000.0", "YPKG 292230Z AUTO 00000KT 9999 // NCD 07/04 Q1019 RF00.0/000.0", "YPKU 292230Z AUTO 15008KT 9999 // ////// 25/17 Q1011 RF00.0/000.0", "YPLM 292230Z AUTO 23005KT 9999 // SCT095 21/18 Q1014 RF00.0/000.0", "YPPD 292230Z AUTO 15005KT 9999 // NCD 17/03 Q1014 RF00.0/000.0", "YPPH 292230Z 36003KT CAVOK 06/04 Q1019", "YPTN 292230Z AUTO 12004KT 9999 // NCD 23/16 Q1012 RF00.0/000.0", "YPWR 292230Z AUTO 23005KT 9999 // NCD 10/08 Q1019 RF00.0/000.0", "YSCB 292230Z AUTO 19009KT 9999 -SHRA BKN034 OVC039 10/08 Q1012", "YSDU 292244Z AUTO 24007KT 9999 // SCT008 BKN011 11/10 Q1014", "YSNF 292230Z AUTO 24013KT 9999 // SCT017 BKN040 21/17 Q1012", "YSRI 292232Z AUTO 23004KT 9999 // SCT037 SCT047 BKN055 14/14 Q1010", "YSSY 292230Z 28011KT 9999 FEW018 BKN026 15/12 Q1010 RF00.0/016.8", "YSTW 292230Z AUTO 31010KT 9999 // SCT008 OVC021 13/12 Q1014", "YWLM 292230Z AUTO 29014KT 9999 // SCT100 17/13 Q1010 RF00.0////./", "ZBAA 292230Z 34003MPS CAVOK 12/01 Q1011 NOSIG", "ZBAD 292230Z 06003MPS CAVOK 14/M03 Q1011 NOSIG", "ZBHH 292200Z 06001MPS CAVOK 00/M03 Q1014 NOSIG", "ZBSJ 292200Z 32003MPS CAVOK 11/05 Q1010 NOSIG", "ZBTJ 292230Z 01002MPS CAVOK 13/08 Q1010 NOSIG", "ZBYN 292230Z 10002MPS CAVOK 06/M00 Q1014 NOSIG", "ZGGG 292230Z 35004MPS 9999 BKN050 19/15 Q1013 NOSIG", "ZGHA 292200Z VRB01MPS CAVOK 10/10 Q1016 NOSIG", "ZGKL 292200Z 33001MPS CAVOK 12/12 Q1015 NOSIG", "ZGNN 292200Z VRB01MPS CAVOK 17/15 Q1014 NOSIG", "ZGOW 292200Z 03002MPS 9999 BKN050 21/16 Q1012 NOSIG", "ZGSZ 292200Z 36005G10MPS 280V020 9999 BKN033 21/15 Q1012 NOSIG", "ZHCC 292200Z 26003MPS CAVOK 12/03 Q1011 NOSIG", "ZHHH 292200Z VRB01MPS CAVOK 11/08 Q1015 NOSIG", "ZJHK 292200Z 01002MPS 340V040 9000 FEW014 21/20 Q1012 NOSIG", "ZJSY 292200Z 35001MPS 9999 BKN033 24/21 Q1010 NOSIG", "ZLLL 292200Z 32003MPS CAVOK 03/M12 Q1018 NOSIG", "ZLXY 292200Z 25001MPS CAVOK 08/04 Q1014 NOSIG", "ZPPP 292200Z 01004MPS 9999 SCT026 10/06 Q1021 NOSIG", "ZSAM 292200Z 07006MPS 9999 OVC020 20/17 Q1012 NOSIG", "ZSFZ 292200Z 05008MPS 3500 -SHRA BR BKN006 OVC015 15/14 Q1015 NOSIG", "ZSHC 292230Z 25002MPS CAVOK 14/12 Q1016 NOSIG", "ZSNB 292200Z VRB01MPS CAVOK 14/11 Q1016 NOSIG", "ZSNJ 292200Z 18002MPS 140V230 CAVOK 10/09 Q1014 NOSIG", "ZSOF 292200Z 18002MPS CAVOK 10/05 Q1014 NOSIG", "ZSPD 292230Z VRB01MPS CAVOK 14/12 Q1016 NOSIG", "ZSQD 292200Z 17003MPS CAVOK 12/05 Q1009 NOSIG", "ZSSS 292230Z 18002MPS CAVOK 14/12 Q1016 NOSIG", "ZUCK 292200Z 36003MPS CAVOK 14/09 Q1016 NOSIG", "ZUGY 292200Z 03002MPS 9999 FEW020 BKN040 10/09 Q1018 NOSIG", "ZUTF 292200Z 00000MPS CAVOK 12/11 Q1015 NOSIG", "ZUUU 292200Z 00000MPS CAVOK 13/11 Q1016 NOSIG", "ZWSH 292200Z 31004MPS CAVOK 15/M01 Q1012 NOSIG", "ZWWW 292230Z 18004MPS CAVOK 20/M05 Q1006 NOSIG", "ZYCC 292200Z 29004MPS 260V330 9999 FEW012 OVC026 06/04 Q1003 NOSIG", "ZYHB 292200Z 32004MPS 9999 SCT010 06/05 Q1001 NOSIG", "ZYTL 292230Z 00000MPS CAVOK 10/07 Q1009 NOSIG", "ZYTX 292230Z 22003MPS 6000 NSC 05/04 Q1008 NOSIG"]}