station_id,raw_text
AGGA,TAF AGGA 132330Z 1400/1424 18008KT 9999 SCT019 PROB40 INTER 1403/1409 5000 TSSH SCT015 FEW016CB BKN028 Q 1009 1007 1006 1008
AGGC,TAF AGGC 132330Z 1400/1424 05010KT 9999 SCT019 Q 1009 1007 1006 1008
AGGH,TAF AGGH 140515Z 1406/1506 VRB03KT 9999 SCT018 T 30 28 26 24 Q 1007 1009 1010 1008
AGGK,TAF AGGK 132330Z 1400/1424 05010KT 9999 SCT019 PROB40 INTER 1403/1409 5000 TSSH SCT015 FEW016CB BKN028
AGGL,TAF AGGL 132330Z 1400/1424 05010KT 9999 SCT019 PROB40 INTER 1403/1409 5000 TSSH SCT015 FEW016CB BKN028 Q 1011 1009 1008 1010
AGGM,TAF AGGM 140515Z 1406/1506 VRB03KT 9999 SCT018 Q 1007 1009 1010 1008
AGGN,TAF AGGN 140515Z 1406/1506 VRB03KT 9999 SCT018 Q 1007 1009 1010 1008
AGGR,TAF AGGR 132330Z 1400/1424 34010KT 9999 -SHRA FEW018 BKN100 INTER 1400/1409 5000 TSSH SCT015 FEW016CB BKN028
ANYN,TAF ANYN 140307Z 1406/1506 10012KT 9999 FEW020 T 26 25 25 26 Q 1009 1011 1010 1008
AYPY,TAF AYPY 140230Z 1406/1506 17015KT 9999 -SHRA SCT018 BKN035 FM141200 16015KT 9999 SCT030 INTER 1406/1409 5000 TSRA BKN010 FEW018CB
BGSF,TAF BGSF 140503Z 1406/1422 07008KT 9999 BKN060 BECMG 1408/1411 FEW020 SCT050 BKN100 TEMPO 1411/1412 BKN080
BGTL,TAF BGTL 140300Z 1403/1509 13025G35KT 2000 -SN BKN020 BKN080 620209 520002 540209 QNH2962INS TEMPO 1403/1406 13025G50KT 0800 BLSN 560002 580208 BECMG 1413/1414 14015G25KT 6000 -SN BKN010 OVC020 620109 520001 540109 QNH2970INS BECMG 1416/1417 18010KT 9999 NSW BKN020 OVC040 620209 QNH2986INS BECMG 1500/1501 15010G15KT 9999 BKN030 OVC070 620309 QNH3016INS BECMG 1505/1506 14020G30KT 6000 -SN BKN030 OVC060 620309 530003 550308 QNH3012INS TXM04/1408Z TNM10/1500Z LAST NO AMDS AFT 1403 NEXT 1411
BIAR,TAF BIAR 140435Z 1406/1506 34007KT 9999 SCT012 BKN018 TX03/1416Z TNM00/1408Z TEMPO 1406/1411 6000 -RASN BKN012 TEMPO 1411/1506 3000 RASN OVC008 BECMG 1417/1419 34020G30KT
BIEG,TAF BIEG 140435Z 1406/1506 01008KT 9999 SCT010 BKN018 TX02/1415Z TNM00/1406Z TEMPO 1406/1415 3000 RASN BKN006 BECMG 1411/1413 01018KT PROB40 TEMPO 1415/1506 4000 -SHRASN BKN012 BECMG 1418/1420 32018KT BECMG 1503/1505 28018G30KT
BIKF,TAF BIKF 140434Z 1406/1506 02018G28KT CAVOK TX05/1415Z TN02/1408Z
BIRK,TAF BIRK 140434Z 1406/1506 07007KT CAVOK TX05/1416Z TNM02/1408Z BECMG 1503/1505 03015G25KT
BKPR,TAF BKPR 140530Z 1406/1506 07006KT 9999 SCT020 BKN040 TEMPO 1406/1416 5000 -RA
CWWU,TAF CWWU 131200Z 1312/1412 22005KT P6SM FEW030 FM131800 20004KT P6SM SKC FM140000 18004KT P6SM SCT020 BKN040 FM140700 19005KT P6SM FEW020 SCT035 BKN070 RMK NXT FCST BY 131800Z
CYAM,TAF CYAM 140140Z 1402/1414 16005KT P6SM BKN030 BKN070 TEMPO 1402/1414 5SM -SHRA BR BKN007 OVC020 RMK NXT FCST BY 140800Z
CYAW,TAF AMD CYAW 132350Z 1400/1406 12007KT P6SM SCT002 BKN250 TEMPO 1400/1406 5SM BR BKN002 RMK NXT FCST BY 140600Z
CYAY,TAF AMD CYAY 140408Z 1404/1414 14006KT P6SM SCT004 OVC007 TEMPO 1404/1405 OVC012 PROB40 1404/1405 1SM BR BKN003 FM140500 14005KT P6SM BKN006 TEMPO 1405/1413 SCT006 SCT060 BKN120 PROB30 1405/1413 1SM BR FM141300 VRB03KT P6SM SCT140 RMK FCST BASED ON AUTO OBS. NXT FCST BY 140800Z
CYBC,TAF CYBC 140140Z 1402/1414 07007KT P6SM OVC060 FM141100 09012G22KT P6SM FEW020 OVC030 TEMPO 1411/1413 P6SM -SHRA BKN020 FM141300 09015G25KT 4SM -RA SCT008 BKN020 RMK FCST BASED ON AUTO OBS. NXT FCST BY 140800Z
CYBG,TAF CYBG 140540Z 1406/1506 11012G22KT P6SM FEW040 BKN100 TEMPO 1406/1408 P6SM -SHRA BKN040 OVC100 FM140800 10018G30KT P6SM -RA SCT020 OVC100 TEMPO 1408/1413 4SM RA BR OVC020 FM141300 11012G25KT 4SM -RA BR BKN012 TEMPO 1413/1416 P6SM -SHRA SCT012 OVC030 BECMG 1413/1415 09010KT FM141600 09010KT 3SM -RA BR FEW005 OVC012 TEMPO 1416/1506 6SM -SHRA BR SCT012 OVC030 PROB30 1416/1420 1SM RA BR VV005 RMK NXT FCST BY 141200Z
CYBK,TAF CYBK 140540Z 1406/1418 02008KT P6SM SCT008 TEMPO 1406/1415 3SM BR BKN008 PROB30 1408/1415 3SM -FZDZ BR FM141500 05008KT P6SM -RA BKN010 TEMPO 1415/1418 3SM -RA BR BKN005 RMK NXT FCST BY 141200Z
CYBR,TAF CYBR 140540Z 1406/1418 34015G25KT P6SM OVC040 FM141000 33012KT P6SM FEW020 OVC030 FM141700 36012KT P6SM BKN030 TEMPO 1417/1418 SCT030 RMK NXT FCST BY 141200Z
CYBX,TAF AMD CYBX 140407Z 1404/1414 05005KT P6SM SCT006 BKN120 TEMPO 1404/1407 2SM BR BKN006 FM140700 06006KT P6SM SCT002 BKN160 TEMPO 1407/1413 1SM BR BKN002 FM141300 VRB03KT P6SM SCT160 RMK NXT FCST BY 140800Z
CYCA,TAF AMD CYCA 140435Z 1404/1414 17005KT P6SM BKN015 TEMPO 1404/1409 SCT015 BKN100 FM140900 21010KT P6SM SCT006 BKN060 TEMPO 1409/1412 1SM BR BKN006 FM141200 22008KT P6SM SCT060 RMK FCST BASED ON AUTO OBS. NXT FCST BY 140800Z
CYCB,TAF CYCB 140040Z 1401/1413 12010KT P6SM SCT015 BKN120 TEMPO 1401/1403 FEW005 BKN015 FM140300 14015G25KT P6SM -SN SCT008 BKN060 TEMPO 1403/1408 2SM -SN BKN008 OVC060 PROB30 1405/1408 1SM -SHSN BLSN BKN006 OVC020 FM140800 15025G35KT 3/4SM -SN BLSN OVC005 TEMPO 1408/1413 3SM -SN SCT005 OVC015 RMK NXT FCST BY 140700Z
CYCO,TAF AMD CYCO 140509Z 1405/1413 25007KT 6SM -SN SCT012 OVC025 TEMPO 1405/1413 2SM -SN BR BKN009 OVC012 BECMG 1407/1409 32015KT RMK NXT FCST BY 140700Z
CYCX,TAF CYCX 140240Z 1403/1415 13005KT P6SM SCT040 SCT150 BKN220 BECMG 1403/1405 BKN040 BKN150 FM140500 15008KT P6SM SCT015 BKN040 TEMPO 1405/1412 BKN015 BKN040 FM141200 13010KT P6SM SCT010 OVC030 TEMPO 1412/1415 5SM -SHRA BR BKN010 OVC030 RMK NXT FCST BY 140900Z
CYCY,TAF AMD CYCY 140458Z 1404/1413 24027G37KT P6SM -RA BKN120 TEMPO 1404/1410 1SM -RASN BR FM141000 22015KT P6SM FEW030 BKN120 RMK FCST BASED ON AUTO OBS. NXT FCST BY 140700Z
CYDB,TAF CYDB 140540Z 1406/1418 VRB03KT P6SM FEW040 BECMG 1416/1418 12008KT RMK FCST BASED ON AUTO OBS. NXT FCST BY 141200Z
CYDF,TAF CYDF 140140Z 1402/1414 VRB03KT P6SM BKN220 PROB40 1404/1407 1SM BR FM140700 VRB03KT P6SM SCT003 TEMPO 1407/1413 1SM BR BKN003 PROB30 1407/1413 1/4SM FG FM141300 VRB03KT P6SM SKC RMK NXT FCST BY 140800Z
CYDN,TAF CYDN 140540Z 1406/1418 34015G25KT P6SM OVC030 TEMPO 1406/1411 OVC020 FM141100 34010G20KT P6SM OVC020 TEMPO 1411/1416 2SM -SHSNRA BR BKN008 OVC015 FM141600 33012KT P6SM FEW008 OVC015 TEMPO 1416/1418 5SM -SHRASN RMK FCST BASED ON AUTO OBS. NXT FCST BY 141200Z
CYED,TAF CYED 131740Z 1318/1406 26005KT P6SM BKN250 FM140300 VRB03KT P6SM SCT250 RMK NXT FCST BY 140000Z
CYEG,TAF CYEG 140540Z 1406/1506 27008KT P6SM BKN250 FM141000 29008KT P6SM BKN120 BECMG 1415/1417 32020G30KT FM142000 32020G30KT P6SM SCT060 TEMPO 1420/1503 BKN060 BECMG 1500/1502 34010KT RMK NXT FCST BY 140900Z
CYEK,TAF CYEK 132348Z 1400/1412 36020G30KT 6SM BR OVC004 TEMPO 1400/1405 1SM -DZ BR OVC003 FM140500 02018KT 3/4SM -DZ BR VV002 TEMPO 1405/1412 3SM BR OVC004 RMK WIND SENSOR INOP. NXT FCST BY 140600Z
CYEV,TAF CYEV 140040Z 1401/1413 32008KT P6SM SCT015 SCT040 BKN080 TEMPO 1401/1407 4SM -SN BR FEW009 BKN015 BKN040 FM140700 30005KT P6SM FEW020 SCT040 BECMG 1411/1413 20005KT RMK NXT FCST BY 140700Z
CYFB,TAF CYFB 140540Z 1406/1506 12010KT P6SM BKN008 TEMPO 1406/1410 BKN012 PROB30 1406/1410 BKN005 FM141500 13009KT P6SM SCT008 TEMPO 1415/1506 BKN008 PROB30 1503/1506 2SM -FZDZ BR RMK NXT FCST BY 141200Z
CYFC,TAF CYFC 140540Z 1406/1418 05004KT P6SM FEW020 FEW060 TEMPO 1406/1408 BKN020 FM140800 12008KT P6SM SCT015 OVC030 TEMPO 1408/1412 SCT008 BKN015 OVC030 PROB30 1408/1412 5SM -SHRA BR BKN008 OVC015 FM141200 13010KT P6SM SCT030 BKN180 TEMPO 1412/1418 P6SM -SHRA BKN030 BKN180 BECMG 1413/1415 14015G25KT RMK FCST BASED ON AUTO OBS. NXT FCST BY 141200Z
CYFS,TAF CYFS 140540Z 1406/1418 34020G30KT P6SM FEW080 SCT160 TEMPO 1406/1415 FEW020 SCT040 BKN080 BECMG 1410/1412 34015G25KT FM141500 33012G22KT P6SM SCT040 RMK NXT FCST BY 141200Z
CYGL,TAF CYGL 140543Z 1406/1506 20012G22KT P6SM -SHRA BKN006 OVC015 TEMPO 1406/1410 P6SM NSW SCT006 OVC015 FM141000 17008KT P6SM -RA SCT004 OVC010 TEMPO 1410/1416 2 1/2SM -SHRA BR BKN004 OVC010 PROB30 1410/1414 3/4SM -SHRA BR BKN002 FM141600 09008KT 5SM -SHRA BR BKN008 OVC015 BECMG 1416/1418 18008KT BKN015 OVC025 FM142100 18010KT P6SM -SHRA BKN025 FM150000 15008KT P6SM FEW040 RMK NXT FCST BY 141200Z
CYGP,TAF CYGP 140140Z 1402/1414 VRB03KT P6SM SKC BECMG 1406/1408 10005KT FM140800 10005KT P6SM FEW008 PROB30 1408/1412 1SM BR BKN008 BECMG 1412/1414 13010G20KT FEW020 SCT030 RMK NXT FCST BY 140800Z
CYGQ,TAF AMD CYGQ 140302Z 1403/1414 VRB03KT P6SM SCT001 TEMPO 1403/1405 1/4SM FZFG BKN001 FM140500 VRB03KT 1/4SM FZFG VV001 TEMPO 1405/1412 2SM BR FEW001 FM141200 VRB03KT 1 1/2SM BR SCT001 BECMG 1412/1414 P6SM NSW SKC RMK FCST BASED ON AUTO OBS. NXT FCST BY 140800Z
CYGV,TAF CYGV 140140Z 1402/1414 07009KT P6SM FEW170 TEMPO 1402/1410 4SM BR BKN007 PROB30 1402/1410 1SM BR BKN002 FM141000 08009KT 6SM BR BKN008 PROB30 1410/1412 3/4SM BR BKN002 FM141300 09012KT P6SM SCT008 BKN025 RMK FCST BASED ON AUTO OBS. NXT FCST BY 140800Z
CYGW,TAF CYGW 140540Z 1406/1418 12012G22KT P6SM BKN030 BKN080 TEMPO 1406/1414 P6SM -SHRA BKN020 OVC080 FM141400 11010KT P6SM -RA SCT008 OVC030 TEMPO 1414/1418 3SM SHRA BR BKN008 OVC030 RMK FCST BASED ON AUTO OBS. NXT FCST BY 141200Z
CYGX,TAF CYGX 140040Z 1401/1413 VRB03KT P6SM FEW020 FM141000 31008KT P6SM SCT010 BKN120 TEMPO 1410/1413 BKN008 PROB30 1410/1413 1SM BR OVC003 RMK NXT FCST BY 140700Z
CYHD,TAF AMD CYHD 140418Z 1404/1414 20006KT 1 1/2SM -SHSN BKN004 OVC012 TEMPO 1404/1410 6SM -SHSNRA SCT004 OVC012 FM141000 15006KT P6SM SCT008 OVC015 TEMPO 1410/1414 P6SM -SHSN BKN008 OVC015 RMK FCST BASED ON AUTO OBS. NXT FCST BY 140800Z
CYHK,TAF CYHK 140540Z 1406/1418 VRB03KT P6SM SCT006 BKN012 TEMPO 1406/1410 BKN006 OVC012 BECMG 1408/1410 14020KT FM141200 14020KT P6SM SCT005 BKN010 TEMPO 1412/1418 P6SM -SN BKN005 OVC010 PROB30 1412/1418 3SM -FZDZ BR RMK FCST BASED ON AUTO OBS. NXT FCST BY 141200Z
CYHM,TAF CYHM 140540Z 1406/1506 16005KT P6SM FEW040 BKN070 OVC150 FM141000 22008KT P6SM BKN030 TEMPO 1413/1418 5SM -SHRA OVC020 BECMG 1413/1415 23012G22KT FM141800 23015G25KT P6SM SCT060 BECMG 1419/1421 22012G22KT FM142300 19010KT P6SM BKN060 FM150300 23006KT P6SM FEW060 RMK NXT FCST BY 141200Z
CYHU,TAF CYHU 140540Z 1406/1506 16008KT P6SM -RA SCT008 OVC050 TEMPO 1406/1414 2SM RA BR BKN004 BKN025 OVC040 FM141400 17008KT P6SM FEW020 BKN050 OVC090 TEMPO 1414/1416 P6SM -RA BKN020 OVC050 FM141800 18008KT P6SM SCT070 OVC120 FM142100 21008KT P6SM FEW040 FM142300 21007KT P6SM BKN040 FM150400 VRB03KT P6SM SKC RMK FCST BASED ON AUTO OBS. NXT FCST BY 141200Z
CYHY,TAF CYHY 140540Z 1406/1418 19012KT P6SM SCT090 BKN230 TEMPO 1406/1415 P6SM -SHRA SCT040 BKN090 OVC120 BECMG 1410/1412 34015G30KT FM141500 31018G30KT P6SM FEW020 SCT040 TEMPO 1415/1418 5SM -SHRASN BKN020 BKN040 RMK NXT FCST BY 141200Z
CYHZ,TAF CYHZ 140540Z 1406/1506 12007KT P6SM FEW050 FEW240 TEMPO 1406/1412 2SM BR BKN008 PROB30 1406/1409 1SM BR BKN002 FM141200 14012G22KT P6SM FEW015 BKN040 TEMPO 1412/1421 P6SM -SHRA BKN015 BECMG 1414/1416 12018G28KT FM142100 14015G25KT P6SM SCT008 BKN020 FM150000 14015G25KT 5SM -SHRA BR SCT004 BKN012 RMK NXT FCST BY 140900Z
CYIO,TAF AMD CYIO 140443Z 1404/1413 32006KT P6SM -SN SCT006 BKN025 BKN040 TEMPO 1404/1408 5SM -SN BKN006 OVC025 BECMG 1406/1408 32012G22KT FM140800 33012G22KT P6SM SCT015 TEMPO 1408/1413 BKN015 RMK FCST BASED ON AUTO OBS. NXT FCST BY 140700Z
CYIV,TAF CYIV 140040Z 1401/1413 06008KT P6SM SCT015 OVC025 TEMPO 1401/1403 5SM -RA BR BKN015 FM140300 06008KT P6SM SCT030 TEMPO 1403/1413 BKN020 PROB30 1409/1413 1SM BR BKN003 RMK FCST BASED ON AUTO OBS. NXT FCST BY 140700Z
CYJT,TAF CYJT 140540Z 1406/1506 VRB03KT P6SM FEW160 BECMG 1412/1414 13007KT BECMG 1416/1418 18008KT FM142300 12005KT P6SM SCT015 BECMG 1501/1503 08005KT RMK NXT FCST BY 141200Z
CYKA,TAF CYKA 140040Z 1401/1413 09008KT P6SM FEW240 BECMG 1402/1404 VRB03KT RMK NXT FCST BY 140700Z
CYKF,TAF AMD CYKF 140351Z 1403/1414 VRB03KT P6SM SKC TEMPO 1403/1408 3/4SM BR FM140800 18007KT P6SM FEW010 TEMPO 1408/1412 3SM BR BKN010 FM141200 24012KT P6SM FEW020 BKN050 TEMPO 1412/1414 BKN020 RMK FCST BASED ON AUTO OBS. NXT FCST BY 140800Z
CYKL,TAF AMD CYKL 140510Z 1405/1414 14005KT 1/2SM -RA -DZ FG VV001 TEMPO 1405/1414 2SM BR OVC003 BECMG 1412/1414 16010G20KT RMK FCST BASED ON AUTO OBS. NXT FCST BY 140800Z
CYLL,TAF CYLL 140540Z 1406/1418 VRB03KT P6SM SKC BECMG 1406/1408 29006KT FM141400 29010KT P6SM BKN180 BECMG 1416/1418 31015G25KT RMK FCST BASED ON AUTO OBS. NXT FCST BY 141200Z
CYLT,TAF CYLT 131740Z 1318/1406 18010KT P6SM BKN120 OVC220 FM132200 20010KT P6SM BKN080 OVC120 RMK NXT FCST BY 140000Z
CYLW,TAF CYLW 140040Z 1401/1413 VRB03KT P6SM FEW240 RMK FCST BASED ON AUTO OBS. NXT FCST BY 140700Z
CYMA,TAF CYMA 140540Z 1406/1418 VRB03KT P6SM FEW020 SCT030 TEMPO 1406/1418 P6SM -SN SCT020 BKN030 RMK NXT FCST BY 141200Z
CYMJ,TAF CYMJ 131740Z 1318/1406 30030G40KT P6SM FEW280 BECMG 1400/1402 30012KT RMK NXT FCST BY 140000Z
CYMM,TAF CYMM 140040Z 1401/1413 11008KT P6SM SCT240 RMK FCST BASED ON AUTO OBS. NXT FCST BY 140700Z
CYMO,TAF CYMO 140540Z 1406/1418 12005KT P6SM FEW015 BKN050 TEMPO 1406/1416 BKN015 BKN040 FM141600 14010KT P6SM BKN040 TEMPO 1416/1418 P6SM -SHRA BKN020 BKN040 RMK FCST BASED ON AUTO OBS. NXT FCST BY 141200Z
CYMX,TAF CYMX 140540Z 1406/1506 VRB03KT P6SM -RA SCT010 OVC050 TEMPO 1406/1411 4SM -RA BR BKN006 OVC040 FM141100 VRB03KT P6SM FEW020 BKN050 OVC090 TEMPO 1411/1414 P6SM -RA BKN020 OVC050 FM141500 21005KT P6SM SCT070 OVC120 FM141900 21006KT P6SM FEW040 FM142200 21006KT P6SM BKN040 FM150300 VRB03KT P6SM SKC RMK NXT FCST BY 141200Z
CYNA,TAF CYNA 140140Z 1402/1414 07007KT 3SM BR BKN007 TEMPO 1402/1410 6SM BR FEW007 FEW200 PROB30 1402/1410 1/2SM FG VV002 FM141000 11008KT 6SM BR BKN008 PROB30 1410/1412 1SM BR BKN003 FM141200 11010KT P6SM BKN015 PROB30 1412/1414 5SM BR BKN008 RMK FCST BASED ON AUTO OBS. AUTO OBS REP NON-REPRESENTATIVE PCPN. NXT FCST BY 140800Z
CYNE,TAF AMD CYNE 140443Z 1404/1413 02008KT P6SM SCT006 OVC012 TEMPO 1404/1413 2SM -DZ BR OVC006 PROB30 1409/1413 1/2SM FG VV002 RMK FCST BASED ON AUTO OBS. NXT FCST BY 140700Z
CYOD,TAF CYOD 140540Z 1406/1506 23005KT P6SM SCT220 FM140900 VRB03KT P6SM FEW200 PROB30 1409/1415 1/2SM FG VV002 FM141700 29008KT P6SM SCT120 BKN160 FM142000 32012G22KT P6SM BKN100 FM150000 34012G22KT P6SM -SHRA SCT030 BKN070 RMK NXT FCST BY 141200Z
CYOJ,TAF CYOJ 140040Z 1401/1413 14006KT P6SM SCT250 FM140200 VRB03KT P6SM FEW260 PROB30 1407/1410 3/4SM BR FM141000 VRB03KT P6SM BKN100 TEMPO 1410/1413 5SM BR RMK NXT FCST BY 140700Z
CYOO,TAF CYOO 140140Z 1402/1414 23006KT P6SM SCT090 FM140800 23006KT P6SM FEW010 BKN040 BECMG 1412/1414 23010KT RMK FCST BASED ON AUTO OBS. NXT FCST BY 140800Z
CYOW,TAF CYOW 140540Z 1406/1506 15006KT P6SM FEW020 BKN070 OVC120 TEMPO 1406/1409 P6SM -RA FM141500 17008KT P6SM FEW140 FM141700 20010G20KT P6SM BKN040 FM142300 22008KT P6SM FEW040 FM150200 08006KT P6SM SKC RMK NXT FCST BY 140900Z
CYOY,TAF CYOY 132340Z 1400/1412 12010G20KT P6SM -RA SCT015 OVC040 TEMPO 1400/1405 5SM RA BR BKN015 OVC040 BECMG 1402/1404 12010G25KT FM140500 12010G25KT 4SM -RA BR FEW005 OVC012 TEMPO 1405/1412 6SM -RA BR BKN012 OVC030 PROB30 1406/1410 2SM RA BR VV005 RMK NXT FCST BY 140600Z
CYPA,TAF CYPA 140040Z 1401/1413 32010KT P6SM FEW250 FM140600 36006KT P6SM BKN160 FM141000 VRB03KT P6SM SKC RMK NXT FCST BY 140700Z
CYPE,TAF CYPE 140040Z 1401/1413 26012G22KT P6SM SCT120 BKN220 RMK NXT FCST BY 140700Z
CYPG,TAF AMD CYPG 132023Z 1320/1406 31025G35KT P6SM FEW015 OVC030 TEMPO 1320/1324 1 1/2SM -SHSN BKN015 OVC030 FM140000 31020G30KT 3SM -SHSNRA BKN015 OVC030 TEMPO 1400/1406 P6SM NSW FEW015 OVC030 RMK NXT FCST BY 140000Z
CYPH,TAF CYPH 140540Z 1406/1418 12015KT P6SM SCT030 BKN080 TEMPO 1406/1415 BKN030 BKN080 BECMG 1406/1408 12015G25KT FM141500 18015G25KT P6SM SCT030 BKN080 BECMG 1415/1417 19012KT RMK NXT FCST BY 141200Z
CYPL,TAF CYPL 140140Z 1402/1414 18005KT P6SM SCT020 BKN120 TEMPO 1402/1404 5SM -SHSN BKN020 BKN120 FM140400 15005KT P6SM FEW015 SCT100 PROB30 1407/1412 1SM BR BKN003 RMK FCST BASED ON AUTO OBS. NXT FCST BY 140800Z
CYPR,TAF CYPR 140040Z 1401/1413 13012KT P6SM -RA SCT012 OVC025 TEMPO 1401/1407 2SM -RA BR BKN008 OVC020 FM140700 12005KT P6SM SCT005 OVC012 TEMPO 1407/1413 1SM -DZ BR OVC005 RMK FCST BASED ON AUTO OBS. NXT FCST BY 140700Z
CYPX,TAF CYPX 140540Z 1406/1418 09022G32KT P6SM OVC005 TEMPO 1406/1408 OVC010 FM141400 10020KT P6SM SCT010 TEMPO 1414/1418 BKN010 RMK FCST BASED ON AUTO OBS. NXT FCST BY 141200Z
CYPY,TAF CYPY 132340Z 1400/1406 12010KT P6SM FEW120 SCT240 RMK FCST BASED ON AUTO OBS. NXT FCST BY 141200Z
CYQB,TAF CYQB 140540Z 1406/1506 08012G22KT P6SM -RA SCT025 OVC060 TEMPO 1406/1410 5SM -RA BR BKN012 OVC040 FM141000 10008KT P6SM -RA SCT010 OVC040 TEMPO 1410/1421 4SM RA BR BKN006 OVC030 FM142200 23008KT P6SM -SHRA FEW015 OVC050 FM150400 25005KT P6SM BKN050 OVC080 RMK NXT FCST BY 141200Z
CYQD,TAF CYQD 140040Z 1401/1413 33018G28KT P6SM -RA SCT015 OVC025 TEMPO 1401/1406 5SM -RASN BR OVC015 PROB30 1401/1406 2SM -SN OVC004 FM140600 33012KT P6SM OVC020 TEMPO 1406/1413 SCT008 OVC015 RMK FCST BASED ON AUTO OBS. NXT FCST BY 140700Z
CYQF,TAF CYQF 140540Z 1406/1418 25006KT P6SM SKC FM141100 25006KT P6SM BKN120 FM141600 26008KT P6SM BKN080 BECMG 1416/1418 30010G20KT RMK FCST BASED ON AUTO OBS. NXT FCST BY 141200Z
CYQG,TAF CYQG 140540Z 1406/1506 22008KT P6SM SKC BECMG 1406/1408 23012G22KT BECMG 1416/1418 20015G25KT FM142000 22018G28KT P6SM FEW050 SCT160 BECMG 1422/1424 21015KT FM150300 18012KT P6SM FEW060 SCT150 RMK FCST BASED ON AUTO OBS. NXT FCST BY 141200Z
CYQH,TAF CYQH 140540Z 1406/1418 25015G30KT P6SM BKN060 FM141200 30010G20KT P6SM SCT060 BECMG 1414/1416 31005KT RMK NXT FCST BY 141200Z
CYQI,TAF CYQI 140540Z 1406/1418 14010G20KT P6SM FEW040 BKN240 TEMPO 1406/1409 BKN040 FM140900 13015G25KT P6SM SCT060 FM141200 14020G30KT P6SM FEW020 TEMPO 1412/1414 5SM BR BKN020 RMK NXT FCST BY 141200Z
CYQK,TAF CYQK 140142Z 1402/1414 26008G18KT 2SM -SHSN OVC006 TEMPO 1402/1409 P6SM -SN OVC015 BECMG 1402/1404 27008KT FM140900 VRB03KT 5SM -SHSN BKN008 OVC015 TEMPO 1409/1412 P6SM NSW SCT008 BKN015 BECMG 1409/1411 02007KT FM141200 02007KT P6SM SCT008 BKN015 RMK NXT FCST BY 140800Z
CYQL,TAF CYQL 140540Z 1406/1418 22008KT P6SM SCT240 BECMG 1406/1408 25010KT FM141700 30010KT P6SM SCT120 RMK FCST BASED ON AUTO OBS. NXT FCST BY 141200Z
CYQM,TAF CYQM 140540Z 1406/1506 12010KT P6SM FEW020 FEW220 TEMPO 1406/1413 BKN020 BECMG 1410/1412 13012G22KT FM141300 13015G25KT P6SM BKN030 TEMPO 1413/1418 P6SM -SHRA BKN020 BECMG 1416/1418 17018G28KT FM150000 13014G24KT P6SM BKN020 RMK NXT FCST BY 141200Z
CYQQ,TAF CYQQ 140540Z 1406/1506 VRB03KT P6SM BKN250 FM140800 VRB03KT P6SM SCT250 FM141800 36006KT P6SM SKC BECMG 1422/1424 VRB03KT RMK NXT FCST BY 141200Z
CYQR,TAF CYQR 140540Z 1406/1506 34012KT P6SM SCT100 BKN250 TEMPO 1406/1413 BKN100 BKN250 FM141300 35008KT P6SM SKC FM142100 30012KT P6SM FEW120 SCT250 FM150300 32008KT P6SM BKN080 RMK NXT FCST BY 141200Z
CYQT,TAF CYQT 140140Z 1402/1414 28007KT P6SM SCT030 BKN120 TEMPO 1402/1404 BKN030 BKN120 FM140400 26005KT P6SM FEW030 SCT120 RMK NXT FCST BY 140800Z
CYQU,TAF CYQU 140040Z 1401/1413 26025G35KT P6SM FEW150 BKN240 FM140600 26018G28KT P6SM BKN150 RMK NXT FCST BY 140700Z
CYQV,TAF CYQV 132340Z 1400/1406 33026G36KT P6SM SKC BECMG 1400/1402 33015KT FM140500 34012KT P6SM SCT020 BKN040 RMK FCST BASED ON AUTO OBS. NXT FCST BY 141200Z
CYQW,TAF CYQW 140540Z 1406/1418 VRB03KT P6SM FEW060 FM140900 VRB03KT P6SM SKC FM141600 12005KT P6SM BKN250 RMK FCST BASED ON AUTO OBS. NXT FCST BY 141200Z
CYQX,TAF CYQX 140540Z 1406/1506 19005KT P6SM FEW120 SCT180 PROB30 1406/1413 1SM BR FM141300 22007KT P6SM SCT180 RMK NXT FCST BY 141200Z
CYQY,TAF CYQY 140540Z 1406/1418 19004KT 4SM BR OVC008 TEMPO 1406/1409 P6SM NSW BKN010 PROB30 1406/1409 1/4SM FG VV002 FM140900 13005KT 6SM BR BKN008 TEMPO 1409/1411 1/4SM FG VV002 FM141100 14008KT P6SM FEW008 TEMPO 1411/1414 4SM BR BKN008 FM141400 15012KT P6SM FEW025 RMK NXT FCST BY 141200Z
CYQZ,TAF CYQZ 140040Z 1401/1406 VRB03KT P6SM SKC RMK FCST BASED ON AUTO OBS. NXT FCST BY 141200Z
CYRB,TAF CYRB 140540Z 1406/1506 32010G20KT P6SM FEW008 BKN025 TEMPO 1406/1413 6SM -SN BKN008 OVC025 BECMG 1407/1409 22010G20KT FM141300 13015KT 5SM -SN OVC007 PROB40 1413/1416 2SM -SN BR OVC005 FM141600 13020G30KT 1SM -SN VV006 FM141800 13025G38KT 1/4SM -SN BLSN VV003 FM150500 13020G30KT 1SM -SN VV006 RMK NXT FCST BY 141200Z
CYRQ,TAF CYRQ 140140Z 1402/1414 19010KT P6SM -RA SCT010 OVC025 TEMPO 1402/1414 1 1/2SM RA BR BKN005 OVC012 RMK FCST BASED ON AUTO OBS. NXT FCST BY 140800Z
CYRT,TAF CYRT 140540Z 1406/1418 03010KT P6SM OVC006 TEMPO 1406/1409 1SM -DZ BR OVC004 FM140900 06015KT 1SM -DZ BR BKN004 TEMPO 1409/1418 5SM BR BKN006 PROB30 1409/1418 1/2SM -DZ FG VV002 RMK NXT FCST BY 141200Z
CYSB,TAF CYSB 140140Z 1402/1414 20008KT P6SM SCT070 BKN100 TEMPO 1402/1404 5SM -SHRA BR BKN020 OVC070 FM140400 16008KT P6SM -SHRA OVC015 TEMPO 1404/1412 2 1/2SM -SHRA BR BKN005 OVC015 PROB30 1404/1412 1SM -DZ BR OVC003 FM141200 16012KT 2 1/2SM -SHRA BR OVC006 TEMPO 1412/1414 6SM -SHRA BR OVC010 RMK NXT FCST BY 140800Z
CYSF,TAF CYSF 140540Z 1406/1418 10005KT P6SM BKN240 FM141000 10005KT 6SM BR SCT250 PROB30 1410/1415 1/2SM FZFG VV002 FM141500 14007KT P6SM SCT080 BKN120 TEMPO 1415/1418 BKN080 RMK FCST BASED ON AUTO OBS. NXT FCST BY 141200Z
CYSJ,TAF CYSJ 140540Z 1406/1418 10010G20KT P6SM SCT050 BKN150 TEMPO 1406/1408 5SM BR BKN050 FM140800 12010G20KT P6SM SCT020 BKN050 BKN120 TEMPO 1408/1410 5SM BR BKN020 BKN080 BECMG 1410/1412 12015G25KT FM141400 13017G27KT P6SM -SHRA SCT015 BKN040 TEMPO 1414/1418 5SM -SHRA BR BKN015 RMK NXT FCST BY 141200Z
CYSM,TAF CYSM 140540Z 1406/1418 14010KT P6SM FEW100 SCT240 FM141500 20005KT P6SM SCT080 BKN140 TEMPO 1415/1418 P6SM -SHRA BKN080 OVC120 BECMG 1416/1418 32015G25KT RMK NXT FCST BY 141200Z
CYTE,TAF AMD CYTE 140541Z 1405/1413 11015KT P6SM FEW008 OVC140 TEMPO 1405/1413 2SM BR BKN008 PROB30 1408/1413 1/2SM FG VV002 RMK FCST BASED ON AUTO OBS. NXT FCST BY 140700Z
CYTH,TAF AMD CYTH 140439Z 1404/1413 35008KT 6SM -SN OVC015 TEMPO 1404/1408 1 1/2SM -SN BR BKN006 OVC015 FM140800 33006KT P6SM OVC010 TEMPO 1408/1413 5SM -RASN BR OVC005 PROB30 1408/1413 3/4SM -DZ BR OVC003 RMK NXT FCST BY 140700Z
CYTL,TAF CYTL 140140Z 1402/1414 09005KT P6SM FEW030 PROB30 1407/1412 1SM BR BKN004 RMK FCST BASED ON AUTO OBS. NXT FCST BY 140800Z
CYTR,TAF CYTR 140540Z 1406/1506 25005KT P6SM BKN140 FM140800 19005KT P6SM FEW020 SCT050 TEMPO 1408/1414 P6SM VCSH SCT020 BKN050 PROB30 1408/1412 2SM BR FM141400 20008KT P6SM -SHRA SCT015 BKN040 BECMG 1415/1417 22010G20KT FM142000 22010G20KT P6SM FEW040 BECMG 1420/1422 VRB03KT RMK NXT FCST BY 141200Z
CYTS,TAF CYTS 140140Z 1402/1414 15006KT P6SM BKN025 BKN070 BKN140 TEMPO 1402/1414 BKN015 BKN140 RMK NXT FCST BY 140800Z
CYTZ,TAF CYTZ 140140Z 1402/1502 24012KT P6SM FEW030 FM140600 22012KT P6SM FEW020 SCT080 FM141200 21012KT P6SM SCT030 BKN060 TEMPO 1412/1418 P6SM -SHRA BKN030 FM141800 23010G20KT P6SM BKN040 FM142100 23012KT P6SM SCT060 FM150000 19010G20KT P6SM -SHRA FEW020 BKN050 RMK FCST BASED ON AUTO OBS. NXT FCST BY 140800Z
CYUL,TAF CYUL 140540Z 1406/1506 16008KT P6SM -RA SCT010 OVC050 TEMPO 1406/1412 4SM RA BR BKN007 OVC030 FM141200 17008KT P6SM FEW020 BKN050 OVC090 TEMPO 1412/1415 P6SM -RA BKN020 OVC050 FM141600 20008KT P6SM SCT070 OVC120 FM142000 21008KT P6SM FEW040 FM142300 21007KT P6SM BKN040 FM150400 VRB03KT P6SM SKC RMK NXT FCST BY 140900Z
CYUX,TAF AMD CYUX 140218Z 1402/1413 27015KT P6SM FEW020 SCT050 TEMPO 1402/1413 P6SM -SN BKN020 OVC050 BECMG 1403/1405 30014KT RMK NXT FCST BY 140700Z
CYUY,TAF CYUY 140540Z 1406/1418 16007KT P6SM FEW015 SCT050 BKN100 TEMPO 1406/1411 5SM -SHRA BR BKN007 OVC040 FM141100 17010KT P6SM BKN040 TEMPO 1411/1418 P6SM -SHRA BKN015 BKN040 BECMG 1413/1415 17012G22KT RMK NXT FCST BY 141200Z
CYVC,TAF CYVC 140040Z 1401/1413 32008KT P6SM BKN250 BECMG 1401/1403 36008KT FM141000 02005KT P6SM SCT015 RMK NXT FCST BY 140700Z
CYVM,TAF CYVM 140040Z 1401/1413 20008KT P6SM SKC FM140800 VRB03KT P6SM BKN120 FM141200 36008KT P6SM VCSH SCT025 OVC050 PROB40 1412/1413 36015G25KT 1SM -SHSN OVC020 RMK FCST BASED ON AUTO OBS. NXT FCST BY 140700Z
CYVO,TAF CYVO 140540Z 1406/1418 17008KT P6SM FEW012 SCT050 BKN100 TEMPO 1406/1412 5SM -SHRA BR BKN006 OVC040 FM141200 17010KT P6SM BKN040 TEMPO 1412/1418 P6SM -SHRA BKN015 BKN040 BECMG 1413/1415 17012G22KT RMK FCST BASED ON AUTO OBS. NXT FCST BY 141200Z
CYVP,TAF CYVP 140545Z 1406/1418 10007KT P6SM OVC005 TEMPO 1406/1410 OVC015 FM141000 10005KT P6SM SCT015 BKN200 TEMPO 1410/1413 SCT004 BKN015 BKN100 PROB30 1410/1413 1SM BR OVC004 FM141300 13010KT P6SM FEW040 RMK NXT FCST BY 141200Z
CYVQ,TAF CYVQ 140540Z 1406/1418 29015G25KT 6SM -SN BKN020 OVC050 TEMPO 1406/1416 4SM -SN BKN008 OVC012 BECMG 1413/1415 29012KT FM141600 29009KT P6SM FEW020 SCT050 TEMPO 1416/1418 BKN020 RMK NXT FCST BY 141200Z
CYVR,TAF CYVR 140540Z 1406/1512 VRB03KT P6SM FEW120 SCT220 BECMG 1407/1409 10005KT BECMG 1416/1418 29008KT FM150600 03005KT P6SM SCT200 RMK NXT FCST BY 140900Z
CYWA,TAF CYWA 132340Z 1400/1424 15005KT P6SM FEW015 BKN060 BKN130 TEMPO 1400/1407 P6SM -SHRA BKN015 OVC060 FM140700 15005KT P6SM SCT025 SCT060 PROB30 1407/1413 2SM BR FM141400 13005KT 6SM -SHRA BR BKN015 OVC050 BECMG 1416/1418 19008G18KT FM142000 19008G18KT P6SM FEW020 SCT040 RMK NXT FCST BY 140600Z
CYWG,TAF CYWG 140540Z 1406/1506 32015KT P6SM -SN SCT004 OVC020 TEMPO 1406/1410 1SM -SHSN BKN004 OVC012 FM141000 35015KT P6SM SCT005 OVC020 TEMPO 1410/1417 2SM -SHSN BR BKN005 OVC012 FM141700 35012KT P6SM VCSH FEW006 BKN020 FM142200 35010KT P6SM BKN020 BKN140 TEMPO 1422/1503 SCT020 BKN140 FM150300 20008KT P6SM SCT020 OVC100 RMK NXT FCST BY 141200Z
CYWK,TAF AMD CYWK 140422Z 1404/1414 16006KT P6SM FEW004 BKN020 TEMPO 1404/1408 BKN025 PROB40 1405/1408 1SM BR BKN004 FM140800 16010KT 6SM BR OVC006 TEMPO 1408/1413 1/2SM FG OVC002 FM141300 15010G20KT P6SM SCT006 SCT120 RMK NXT FCST BY 140800Z
CYWL,TAF CYWL 140040Z 1401/1413 VRB03KT P6SM BKN210 RMK NXT FCST BY 140700Z
CYXC,TAF CYXC 140040Z 1401/1413 VRB03KT P6SM FEW240 RMK NXT FCST BY 140700Z
CYXE,TAF CYXE 140540Z 1406/1506 36006KT P6SM SCT090 TEMPO 1406/1410 BKN090 FM141000 VRB03KT P6SM SKC FM141800 24008KT P6SM BKN250 FM150000 30015KT P6SM BKN090 BKN200 FM150400 32012G22KT P6SM -SHRA BKN030 OVC080 RMK NXT FCST BY 141200Z
CYXH,TAF CYXH 140540Z 1406/1418 19005KT P6SM SKC BECMG 1406/1408 24008KT FM141600 24008KT P6SM BKN150 BECMG 1416/1418 29015KT RMK FCST BASED ON AUTO OBS. NXT FCST BY 141200Z
CYXJ,TAF CYXJ 140040Z 1401/1413 23015G25KT P6SM BKN230 RMK NXT FCST BY 140700Z
CYXL,TAF CYXL 140140Z 1402/1414 22008G18KT P6SM -SHRASN SCT007 OVC020 TEMPO 1402/1404 3SM -SHSN BKN007 OVC020 FM140400 18006KT 2SM -SHSN BKN006 OVC015 TEMPO 1404/1409 P6SM -SHSNRA SCT006 BKN015 FM140900 14005KT P6SM SCT008 BKN015 TEMPO 1409/1413 5SM -SHSN BKN008 OVC015 FM141300 10005KT P6SM SCT008 BKN020 RMK NXT FCST BY 140800Z
CYXS,TAF CYXS 140040Z 1401/1413 19011KT P6SM SKC BECMG 1403/1405 19007KT BKN080 RMK FCST BASED ON AUTO OBS. NXT FCST BY 140700Z
CYXT,TAF AMD CYXT 140233Z 1402/1413 VRB03KT 5SM -RA SCT004 BKN015 OVC040 TEMPO 1402/1404 1/2SM -RA FG BKN004 BKN008 OVC030 FM140400 17005KT 4SM -RA BR FEW003 BKN015 TEMPO 1404/1413 1/2SM -RA FG VV003 RMK NXT FCST BY 140700Z
CYXU,TAF CYXU 140540Z 1406/1506 22006KT P6SM FEW060 BECMG 1407/1409 22008KT BECMG 1412/1414 23012G22KT FM141500 23015G25KT P6SM SCT050 TEMPO 1415/1422 BKN050 BECMG 1419/1421 19018G28KT FM142200 21015G25KT P6SM SCT050 FM150000 22015KT P6SM SKC BECMG 1500/1502 18006KT RMK NXT FCST BY 141200Z
CYXX,TAF CYXX 140540Z 1406/1506 VRB03KT P6SM SKC BECMG 1418/1420 24008KT RMK NXT FCST BY 141200Z
CYXY,TAF CYXY 140540Z 1406/1418 35008KT P6SM BKN040 TEMPO 1406/1418 6SM -SN OVC040 BECMG 1410/1412 17005KT RMK NXT FCST BY 141200Z
CYYB,TAF AMD CYYB 140217Z 1402/1414 14008KT P6SM SCT008 BKN025 OVC050 TEMPO 1402/1404 4SM -SHRA BR BKN008 OVC020 FM140400 20010KT P6SM -SHRA SCT005 OVC012 TEMPO 1404/1410 2 1/2SM -SHRA BR BKN005 OVC012 PROB30 1404/1410 1SM -DZ BR OVC003 FM141000 18012KT P6SM SCT010 OVC030 TEMPO 1410/1412 BKN010 RMK NXT FCST BY 140800Z
CYYC,TAF CYYC 140540Z 1406/1506 VRB03KT P6SM FEW200 BECMG 1406/1408 32008KT FM141300 32008KT P6SM BKN120 BECMG 1416/1418 36010KT FM142000 36015KT P6SM BKN100 FM150100 36015KT P6SM SCT080 BECMG 1504/1506 34010KT RMK NXT FCST BY 140900Z
CYYD,TAF CYYD 140040Z 1401/1406 VRB03KT P6SM SCT030 BKN080 TEMPO 1401/1406 BKN030 RMK NXT FCST BY 141400Z
CYYE,TAF CYYE 140040Z 1401/1413 18005KT P6SM FEW200 BKN240 FM141000 31008KT P6SM BKN060 RMK NXT FCST BY 140700Z
CYYF,TAF CYYF 140040Z 1401/1413 36008KT P6SM FEW240 BECMG 1406/1408 VRB03KT RMK NXT FCST BY 140700Z
CYYG,TAF CYYG 140540Z 1406/1418 16007KT P6SM SCT008 SCT220 TEMPO 1406/1410 5SM BR BKN008 PROB30 1406/1410 1SM BR FM141000 14012KT P6SM FEW220 BECMG 1413/1415 14015G25KT FM141700 14015G30KT P6SM SCT025 BKN220 RMK NXT FCST BY 141200Z
CYYH,TAF CYYH 140540Z 1406/1418 35008KT P6SM FEW006 SCT015 BKN240 TEMPO 1406/1418 4SM BR SCT006 BKN015 BECMG 1408/1410 12012G22KT RMK NXT FCST BY 141200Z
CYYJ,TAF CYYJ 140540Z 1406/1506 VRB03KT P6SM FEW240 BECMG 1410/1412 28005KT BECMG 1418/1420 07005KT RMK NXT FCST BY 141200Z
CYYL,TAF AMD CYYL 140244Z 1402/1413 36012G22KT 2SM -SN OVC015 TEMPO 1402/1406 6SM -FZRA BR OVC025 FM140600 36010KT P6SM OVC015 TEMPO 1406/1413 3SM -SN OVC008 PROB30 1406/1413 2SM -FZRA BR OVC005 RMK FCST BASED ON AUTO OBS. NXT FCST BY 140700Z
CYYN,TAF CYYN 140540Z 1406/1418 27008KT P6SM FEW080 SCT250 TEMPO 1406/1410 BKN080 BKN250 FM141000 27008KT P6SM SKC RMK FCST BASED ON AUTO OBS. NXT FCST BY 141200Z
CYYQ,TAF CYYQ 140540Z 1406/1506 01010KT 2SM -DZ BR OVC003 TEMPO 1406/1413 6SM BR OVC006 PROB30 1406/1413 1/2SM FG OVC002 FM141300 01015G25KT 3SM -DZ BR OVC003 TEMPO 1413/1416 6SM -RA BR OVC006 FM141600 03020G30KT 3SM RA BR OVC004 FM142100 06018G28KT 6SM -RA BR OVC006 FM150300 12012G22KT P6SM BKN008 RMK NXT FCST BY 141200Z
CYYR,TAF CYYR 140540Z 1406/1506 VRB03KT P6SM FEW012 SCT060 BKN140 TEMPO 1407/1415 3SM BR FEW004 BKN012 PROB30 1407/1413 2SM BR VV002 FM141700 18007KT P6SM FEW025 SCT140 SCT250 RMK NXT FCST BY 141200Z
CYYT,TAF CYYT 140540Z 1406/1506 28008KT P6SM FEW002 SCT160 PROB30 1406/1413 1SM BR BKN002 FM141300 27008KT P6SM FEW010 SCT200 BECMG 1416/1418 VRB03KT FM150400 21005KT P6SM SKC PROB30 1504/1506 1SM BR RMK NXT FCST BY 141200Z
CYYU,TAF AMD CYYU 140513Z 1405/1414 14005KT P6SM SCT020 BKN140 TEMPO 1405/1414 5SM BR BKN009 BKN140 RMK NXT FCST BY 140800Z
CYYY,TAF CYYY 140140Z 1402/1414 17008G18KT P6SM OVC070 FM141100 14015G25KT P6SM BKN040 OVC100 TEMPO 1411/1413 P6SM -SHRA FM141300 14018G32KT P6SM -RA SCT020 BKN030 RMK NXT FCST BY 140800Z
CYYZ,TAF CYYZ 140540Z 1406/1512 VRB03KT P6SM SCT070 BKN140 FM140900 22008KT P6SM BKN060 FM141200 23008KT P6SM BKN050 TEMPO 1412/1415 P6SM -SHRA FM141500 24012G22KT P6SM -SHRA OVC030 BECMG 1416/1418 22015G25KT FM142000 22015G25KT P6SM SCT050 FM150000 20015KT P6SM BKN040 FM150300 20010KT P6SM FEW050 SCT110 BECMG 1504/1506 12006KT FM150900 14012KT P6SM SCT080 BECMG 1510/1512 18015G25KT RMK NXT FCST BY 140900Z
CYZF,TAF CYZF 140540Z 1406/1506 15020G30KT P6SM SCT080 TEMPO 1406/1415 P6SM -SHRA BKN080 BECMG 1410/1412 32020G35KT FM141500 32020G35KT P6SM FEW020 SCT040 TEMPO 1415/1418 BKN020 FM141800 32020G30KT P6SM SCT015 BKN025 RMK NXT FCST BY 141200Z
CYZH,TAF CYZH 140040Z 1401/1413 28012KT P6SM SKC FM140900 28012KT P6SM SCT100 BKN250 RMK FCST BASED ON AUTO OBS. NXT FCST BY 140700Z
CYZP,TAF CYZP 140040Z 1401/1413 17012KT P6SM -RA OVC030 TEMPO 1401/1404 3SM -RA BR SCT008 OVC020 FM140400 18010KT P6SM SCT015 BKN030 TEMPO 1404/1413 5SM -RA BR SCT008 BKN015 RMK FCST BASED ON AUTO OBS. NXT FCST BY 140700Z
CYZS,TAF CYZS 140040Z 1401/1413 09008KT P6SM OVC012 TEMPO 1401/1406 2SM -DZ BR OVC005 FM140600 07009KT 1SM -DZ BR OVC005 RMK NXT FCST BY 140700Z
CYZT,TAF CYZT 140040Z 1401/1413 VRB03KT P6SM BKN200 FM140500 VRB03KT P6SM FEW005 PROB30 1407/1413 1/2SM FG BKN003 RMK NXT FCST BY 140700Z
CYZV,TAF CYZV 140540Z 1406/1506 09010G20KT P6SM BKN090 TEMPO 1406/1412 P6SM -SHRA FM141200 08012G22KT P6SM FEW020 BKN200 TEMPO 1412/1415 5SM -SHRA BR BKN020 FM141500 09015G25KT P6SM FEW008 BKN020 BKN160 TEMPO 1415/1418 FEW020 BKN160 FM141800 09017G27KT P6SM FEW006 BKN015 BKN060 TEMPO 1418/1501 5SM -SHRA BR SCT005 BKN009 FM150100 08017KT 3SM -RA BR SCT003 OVC006 PROB30 1501/1506 1SM -RA BR OVC003 RMK NXT FCST BY 141200Z
CYZX,TAF CYZX 140540Z 1406/1506 VRB03KT P6SM BKN250 FM140800 12006KT P6SM SCT015 BKN250 TEMPO 1408/1413 BKN015 FM141300 12010KT P6SM BKN020 BKN180 TEMPO 1413/1416 12015G25KT P6SM -SHRA FM141600 12012KT P6SM SCT025 BKN180 TEMPO 1416/1422 12018G30KT BKN025 FM142300 13012G22KT P6SM BKN020 BKN190 FM150400 13010KT P6SM BKN014 OVC150 TEMPO 1504/1506 13015G28KT P6SM -SHRA RMK NXT FCST BY 141200Z
CYZY,TAF CYZY 140040Z 1401/1409 25010KT P6SM BKN200 FM140600 18007KT P6SM BKN040 RMK FCST BASED ON AUTO OBS. NXT FCST BY 140700Z
CZUM,TAF AMD CZUM 140143Z 1402/1414 12006KT 1/2SM -RA -DZ FG OVC001 TEMPO 1402/1413 2SM BR OVC003 FM141300 13008KT 2SM BR BKN004 BECMG 1413/1414 P6SM NSW SCT004 RMK FCST BASED ON AUTO OBS. NXT FCST BY 140800Z
CZVL,TAF CZVL 140540Z 1406/1418 28010KT P6SM BKN250 FM141000 29008KT P6SM BKN120 BECMG 1415/1417 32020G30KT RMK FCST BASED ON AUTO OBS. NXT FCST BY 141200Z
DAAE,TAF DAAE 140500Z 1406/1506 24008KT 9999 FEW016 PROB40 TEMPO 1406/1409 FEW020TCU BECMG 1411/1413 06012KT
DAAG,TAF DAAG 140500Z 1406/1506 VRB02KT 9999 SCT013 SCT083 PROB30 TEMPO 1406/1408 4000 BR BKN012 BECMG 1410/1412 34010KT BECMG 1416/1418 VRB02KT
DAAJ,TAF DAAJ 140500Z 1406/1506 VRB02KT CAVOK BECMG 1410/1412 08010KT
DAAP,TAF DAAP 140500Z 1406/1415 12006KT CAVOK
DAAS,TAF DAAS 140500Z 1406/1506 22008KT 9999 FEW016 TEMPO 1406/1409 3000 BR BKN008
DAAT,TAF DAAT 140500Z 1406/1506 08008KT CAVOK BECMG 1412/1414 26010KT BECMG 1417/1419 06012KT
DAAV,TAF DAAV 140500Z 1406/1506 16006KT 9999 FEW020 PROB40 TEMPO 1406/1409 FEW020TCU BECMG 1411/1413 36012KT
DAAY,TAF DAAY 140500Z 1406/1415 VRB02KT 7000 FEW030 SCT033 PROB40 TEMPO 1403/1407 4000 BR SCT010 BECMG 1410/1412 CAVOK
DABB,TAF DABB 140500Z 1406/1506 24006KT 9999 FEW026 PROB30 TEMPO 1406/1409 2000 BR BKN008 BECMG 1411/1413 04012KT
DABC,TAF DABC 140500Z 1406/1506 32006KT 9999 SCT023 PROB40 TEMPO 1406/1409 3000 BR BKN008
DABS,TAF DABS 140500Z 1406/1506 26006KT 9999 SCT033 PROB30 TEMPO 1406/1410 FEW026TCU BECMG 1410/1412 34012KT
DABT,TAF DABT 140500Z 1406/1506 20008KT 9999 SCT030 TEMPO 1406/1409 3000 BR BKN008
DAOB,TAF DAOB 140500Z 1406/1506 VRB02KT 8000 FEW026 PROB40 TEMPO 1406/1408 2000 BR BKN010 BECMG 1411/1413 32010KT BECMG 1418/1420 VRB02KT
DAOF,TAF DAOF 140500Z 1406/1415 08010KT CAVOK
DAOI,TAF DAOI 140500Z 1406/1506 VRB02KT CAVOK TEMPO 1406/1408 4000 BR SCT010 BECMG 1410/1412 32010KT CAVOK BECMG 1420/1422 VRB02KT
DAON,TAF DAON 140500Z 1406/1506 VRB02KT 9999 FEW026 TEMPO 1406/1408 4000 BR SCT010 BECMG 1410/1412 02010KT 9999 SCT026 BECMG 1414/1416 CAVOK BECMG 1420/1422 VRB02KT
DAOO,TAF DAOO 140500Z 1406/1506 VRB02KT 9999 SCT016 TEMPO 1406/1408 4000 BR SCT010 BECMG 1410/1412 02010KT CAVOK BECMG 1420/1422 VRB02KT
DAOR,TAF DAOR 140500Z 1406/1415 08008KT 8000 FEW033 PROB30 1406/1410 3000 DU
DAOV,TAF DAOV 140500Z 1406/1415 VRB02KT CAVOK TEMPO 1406/1408 4000 BR SCT010 BECMG 1410/1412 36010KT
DAUA,TAF DAUA 140500Z 1406/1506 08012KT 7000 NSC PROB30 1406/1412 08022KT 4000 DRSA
DAUB,TAF DAUB 140500Z 1406/1506 32009KT 9999 FEW040
DAUG,TAF DAUG 140500Z 1406/1506 32006KT CAVOK BECMG 1408/1410 04010KT BECMG 1418/1420 VRB02KT
DAUH,TAF DAUH 140500Z 1406/1506 VRB02KT CAVOK BECMG 1412/1414 34010KT BECMG 1420/1422 04010KT
DAUI,TAF DAUI 140500Z 1406/1506 06014KT 8000 NSC PROB40 1408/1414 08024KT 3000 DRSA
DAUK,TAF DAUK 140500Z 1406/1415 04008KT CAVOK
DAUL,TAF DAUL 140500Z 1406/1415 VRB02KT CAVOK
DAUO,TAF DAUO 140500Z 1406/1415 08008KT CAVOK
DAUT,TAF DAUT 140500Z 1406/1415 06016KT 8000 SCT046
DAUU,TAF DAUU 140500Z 1406/1415 02006KT CAVOK
DAUZ,TAF DAUZ 140500Z 1406/1506 VRB02KT CAVOK BECMG 1412/1414 35010KT
DBBB,TAF DBBB 140500Z 1406/1512 VRB02KT 9999 SCT012 BECMG 1408/1410 22010KT TEMPO 1414/1420 TS BKN012 FEW023CB
DFFD,TAF DFFD 140500Z 1406/1512 16008KT 9999 FEW026 PROB30 TEMPO 1415/1422 VRB25G45KT 2500 SQ BLSA TSRA SCT026 SCT036CB
DFOO,TAF DFOO 140500Z 1406/1506 18008KT 9999 FEW020 PROB30 TEMPO 1418/1424 08025G45KT 2500 SQ BLSA TSRA SCT020 SCT033CB
DGAA,TAF DGAA 140500Z 1406/1512 26010KT 9999 SCT012 BECMG 1411/1413 BKN016 PROB30 TEMPO 1415/1419 6000 TSRA BKN010 FEW030CB BECMG 1420/1422 SCT010
DGLE,TAF DGLE 131130Z 1312/1412 16008KT 9999 SCT015 PROB40 1314/1320 4000 TSRA BKN010 FEW030CB BECMG 1323/1401 FEW010
DGSI,TAF DGSI 131130Z 1312/1412 33006KT 9999 SCT015 PROB40 1315/1321 17008KT 4000 TSRA BKN010 FEW030CB BECMG 1406/1408 5000 BR BKN010
DIAP,TAF DIAP 140550Z 1406/1512 25006KT 8000 SCT012 BKN030 BECMG 1410/1412 BKN012 TEMPO 1415/1422 4000 RA TEMPO 1422/1504 4000 RA
DIBK,TAF DIBK 132340Z 1400/1424 20004KT 8000 SCT013 TEMPO 1400/1403 4000 TSRA BKN013 FEW025CB TEMPO 1405/1408 2000 BR PROB30 TEMPO 1416/1422 TS BKN013 FEW025CB
DIYO,TAF DIYO 132340Z 1400/1424 16004KT 8000 SCT013 TEMPO 1400/1403 4000 TSRA BKN013 FEW025CB TEMPO 1405/1408 2000 BR PROB30 TEMPO 1416/1422 TS BKN013 FEW025CB
DNAA,TAF DNAA 140500Z 1406/1512 20001KT CAVOK BECMG 1408/1410 26010KT BKN010 TEMPO 1416/1420 TS FEW020CB PROB30 1417/1419 08016G32KT 5000 -TSRA BKN008 FEW018CB BECMG 1420/1422 32002KT BECMG 1508/1510 21005KT BKN010
DNAK,TAF DNAK 140500Z 1406/1512 VRB02KT 8000 SCT008 TEMPO 1406/1408 5000 BR BECMG 1408/1410 25010KT BKN013 FEW020CB TEMPO 1411/1417 TS BECMG 1417/1419 VRB02KT SCT011 BECMG 1508/1510 22010KT BKN013 FEW020CB
DNBE,TAF DNBE 140500Z 1406/1512 VRB02KT 7000 FEW008 TEMPO 1406/1408 3000 BR BECMG 1408/1410 21010KT BKN012 FEW020CB TEMPO 1410/1416 TS BECMG 1416/1418 VRB02KT SCT009 BECMG 1509/1511 20010KT BKN012 FEW020CB
DNGO,TAF DNGO 140500Z 1406/1512 06010KT CAVOK
DNIB,TAF DNIB 140500Z 1406/1512 VRB02KT 7000 NSC TEMPO 1406/1408 5000 BR BECMG 1408/1410 24010KT BKN013 FEW020CB TEMPO 1411/1417 TS BECMG 1417/1419 VRB02KT SCT011 BECMG 1508/1510 23010KT BKN013 FEW020CB
DNIL,TAF DNIL 140500Z 1406/1512 00000KT 9999 SCT009 BECMG 1408/1410 21010KT BKN011 TEMPO 1417/1422 TS FEW020CB PROB30 1418/1420 09017G33KT 5000 -TSRA BKN008 FEW018CB BECMG 1422/1424 VRB02KT FEW009 BECMG 1508/1510 21010KT BKN010
DNJO,TAF DNJO 140500Z 1406/1512 10010KT 8000 SCT004 TEMPO 1406/1408 00000KT 5000 BR BKN004 BECMG 1408/1410 24010KT BKN008 TEMPO 1413/1419 TS SCT010 FEW017CB PROB30 1414/1418 07015G35KT 5000 -TSRA BKN005 FEW015CB BECMG 1420/1422 VRB02KT FEW008 BECMG 1508/1510 23010KT
DNKA,TAF DNKA 140500Z 1406/1512 24010KT 9999 SCT008 BECMG 1408/1411 BKN012 TEMPO 1416/1422 TS FEW020CB PROB30 1417/1421 06017G35KT 5000 -TSRA BKN008 FEW018CB BECMG 1422/1424 16005KT FEW010
DNKN,TAF DNKN 140500Z 1406/1512 05010KT CAVOK TEMPO 1408/1412 3000 HZ
DNKT,TAF DNKT 140500Z 1406/1512 06010KT CAVOK TEMPO 1407/1411 3000 HZ PROB30 TEMPO 1410/1414 1000 DU
DNMA,TAF DNMA 140500Z 1406/1512 08010KT CAVOK TEMPO 1406/1408 5000 HZ
DNMM,TAF DNMM 140500Z 1406/1512 VRB02KT 8000 SCT009 TEMPO 1406/1408 5000 BR BECMG 1408/1410 23010KT BKN013 FEW020CB TEMPO 1410/1416 TS BECMG 1416/1418 SCT011 BECMG 1422/1424 VRB02KT BECMG 1508/1510 24010KT BKN013 FEW020CB
DNSO,TAF DNSO 140500Z 1406/1512 10012KT CAVOK TEMPO 1412/1416 5000 HZ
DNSU,TAF DNSU 140500Z 1406/1512 VRB02KT 7000 SCT008 TEMPO 1406/1408 3000 BR BECMG 1408/1410 19010KT BKN012 FEW020CB TEMPO 1410/1416 TS BECMG 1416/1418 VRB02KT SCT009 BECMG 1509/1511 21010KT BKN012 FEW020CB
DNYO,TAF DNYO 140500Z 1406/1512 04010KT CAVOK TEMPO 1414/1418 22005KT SCT012 FEW020CB
DRRN,TAF DRRN 140500Z 1406/1512 18008KT 8000 NSC TEMPO 1407/1411 4000 DU TEMPO 1417/1420 3500 DU
DRZA,TAF DRZA 132300Z 1400/1424 12010KT 8000 NSC TEMPO 1408/1413 12024KT 3500 BLDU
DRZR,TAF DRZR 140500Z 1406/1506 06006KT 3500 DU NSC TEMPO 1406/1412 2500
DTKA,TAF DTKA 140300Z 1404/1413 29010KT 9999 SCT020
DTMB,TAF DTMB 140500Z 1406/1506 33012KT 9999 FEW023
DTNH,TAF DTNH 140500Z 1406/1506 27010KT 9999 FEW033 BECMG 1501/1503 VRB02KT
DTTA,TAF DTTA 140500Z 1406/1506 29010KT 9999 SCT020 TEMPO 1411/1420 28015G25KT
DTTB,TAF DTTB 140300Z 1404/1413 29010KT 9999 SCT016
DTTF,TAF DTTF 140300Z 1404/1413 02010KT 8000 SCT026
DTTG,TAF DTTG 140300Z 1404/1413 04010KT 8000 SCT020
DTTJ,TAF DTTJ 140500Z 1406/1506 02014KT 9999 FEW033 BECMG 1413/1415 VRB03KT
DTTR,TAF DTTR 140300Z 1404/1413 32010KT 6000 SCT030
DTTX,TAF DTTX 140500Z 1406/1506 34010KT 8000 FEW020 BECMG 1419/1421 VRB02KT
DTTZ,TAF DTTZ 140500Z 1406/1506 10010KT 9999 FEW030 BECMG 1410/1412 VRB02KT
DXNG,TAF DXNG 140500Z 1405/1506 VRB05KT 9999 FEW007
DXXX,TAF DXXX 140500Z 1406/1512 VRB03KT 9999 SCT014 PROB30 TEMPO 1406/1408 4000 BR BKN010 BECMG 1408/1410 20010KT BECMG 1422/1424 26005KT
EBAW,TAF EBAW 140500Z 1406/1415 19006KT 8000 BKN008 PROB40 TEMPO 1406/1414 2500 DZ -DZRA BKN004 BECMG 1414/1415 SCT020
EBBR,TAF EBBR 140500Z 1406/1512 21006KT 8000 BKN008 PROB40 TEMPO 1406/1414 3000 -DZ BKN004 BECMG 1413/1415 SCT012 BKN020 TEMPO 1417/1421 4000 RA BKN008 PROB40 TEMPO 1421/1509 3500 -DZ BR BKN005
EBCI,TAF EBCI 140500Z 1406/1512 21007KT 6000 BKN006 PROB40 TEMPO 1406/1412 1500 -DZ BKN003 BECMG 1411/1413 SCT008 BKN012 TEMPO 1416/1421 3500 RA SCT004 BKN008 TEMPO 1421/1510 2500 -DZ BKN003
EBLG,TAF EBLG 140500Z 1406/1512 19006KT 7000 BKN007 PROB40 TEMPO 1406/1413 1500 -DZ BKN003 BECMG 1412/1414 SCT008 BKN012 TEMPO 1418/1423 3500 RA SCT004 BKN008 TEMPO 1423/1510 2500 -DZ BKN003
EBOS,TAF EBOS 140500Z 1406/1512 22007KT 7000 BKN007 PROB40 TEMPO 1406/1410 3000 -DZ BKN004 BECMG 1409/1411 SCT020 PROB30 TEMPO 1415/1421 4000 RA SCT008 BKN012 PROB30 TEMPO 1421/1508 4000 BR BKN005
EDDB,TAF EDDB 140500Z 1406/1506 19006KT 9999 SCT030 PROB30 TEMPO 1422/1503 RA TEMPO 1503/1506 BKN009
EDDC,TAF EDDC 140500Z 1406/1506 19005KT 9999 SCT030 BECMG 1416/1418 16010KT PROB30 TEMPO 1500/1504 RA
EDDE,TAF EDDE 140500Z 1406/1506 20005KT 9999 SCT025 PROB30 TEMPO 1418/1501 RA
EDDF,TAF EDDF 140500Z 1406/1512 19005KT 9999 SCT015 BKN035 PROB40 TEMPO 1406/1410 3500 -RADZ BR BKN008 TEMPO 1410/1412 BKN012 TEMPO 1412/1420 RA BKN012 TEMPO 1420/1502 4000 -RA BKN008 PROB40 TEMPO 1420/1507 BKN004
EDDG,TAF EDDG 140500Z 1406/1506 17004KT 4000 BR BKN020 TEMPO 1406/1409 1200 BR BKN006 PROB40 TEMPO 1406/1408 0500 FG BKN001 BECMG 1409/1412 6000 PROB30 TEMPO 1412/1415 4000 RA BKN007 TEMPO 1418/1506 4000 BR BKN012 PROB40 TEMPO 1503/1506 2000 BR BKN006
EDDH,TAF EDDH 140500Z 1406/1512 21003KT 4000 BR OVC006 TEMPO 1406/1408 2000 DZ OVC003 PROB40 TEMPO 1406/1408 7000 SCT004 BKN015 BECMG 1408/1411 22008KT 9999 SCT025 PROB40 TEMPO 1417/1422 SHRA BKN012TCU BECMG 1422/1501 BKN007 TEMPO 1500/1508 2000 DZ BR OVC003 PROB30 TEMPO 1501/1507 SCT005 BKN015 BECMG 1507/1510 BKN020
EDDK,TAF EDDK 140500Z 1406/1512 14005KT 9999 BKN030 PROB40 TEMPO 1410/1413 RA PROB30 TEMPO 1504/1508 4000 -RADZ BKN007 BECMG 1508/1511 22006KT
EDDL,TAF EDDL 140500Z 1406/1512 17007KT 9999 BKN012 TEMPO 1406/1409 2500 -RADZ BKN004 BECMG 1408/1411 BKN025 TEMPO 1410/1413 RA TEMPO 1411/1415 BKN012 BECMG 1509/1512 23008KT
EDDM,TAF EDDM 140500Z 1406/1512 21005KT 9999 SCT020 TEMPO 1418/1508 RA TEMPO 1502/1508 BKN012 PROB40 TEMPO 1502/1507 4000 BR OVC007 BECMG 1505/1506 23010KT
EDDN,TAF EDDN 140500Z 1406/1506 16005KT 9999 SCT030 TEMPO 1406/1408 4000 BR BKN014 PROB40 TEMPO 1417/1502 RA TEMPO 1502/1506 4000 RA BKN012
EDDP,TAF EDDP 140500Z 1406/1506 20007KT 9999 SCT035 PROB30 TEMPO 1420/1501 RA
EDDR,TAF EDDR 140500Z 1406/1506 20007KT 8000 BKN020 TEMPO 1406/1410 3500 -RADZ BR BKN003 TEMPO 1410/1503 3000 RA BKN004 BECMG 1422/1424 22012KT TEMPO 1503/1506 2500 BR BKN003
EDDS,TAF EDDS 140500Z 1406/1506 VRB03KT 9999 BKN030 BECMG 1410/1412 20005KT TEMPO 1413/1506 RA
EDDV,TAF EDDV 140500Z 1406/1506 21006KT 9999 FEW015 BKN025 PROB30 TEMPO 1406/1408 BKN012 TEMPO 1416/1422 SHRA BKN020TCU PROB30 TEMPO 1422/1506 BKN012
EDDW,TAF EDDW 140500Z 1406/1506 20003KT 4000 BR BKN006 TEMPO 1406/1408 8000 SCT007 BKN015 PROB40 TEMPO 1406/1408 2000 DZ OVC003 BECMG 1408/1411 21008KT BKN020 PROB40 TEMPO 1415/1420 SHRA BKN012TCU BECMG 1420/1423 BKN007 TEMPO 1422/1506 2000 DZ BR OVC003 PROB30 TEMPO 1423/1506 SCT007 BKN015
EDFH,TAF EDFH 140500Z 1406/1506 15005KT 9999 SCT010 BKN025 TEMPO 1406/1410 3500 -RADZ BR BKN003 TEMPO 1410/1503 3000 RA BKN004 BECMG 1410/1413 22009KT TEMPO 1503/1506 2500 BR BKN003
EDFM,TAF EDFM 140522Z 1406/1415 18005KT 9999 SCT015 BKN025 TEMPO 1406/1412 3000 DZRA BR BKN005 TEMPO 1412/1415 4500 RA BR BKN012
EDHI,TAF EDHI 140500Z 1406/1415 21003KT 4000 BR OVC006 TEMPO 1406/1408 7000 SCT004 BKN015 PROB40 TEMPO 1406/1408 2000 DZ OVC003 BECMG 1408/1411 22008KT 9999 SCT025
EDHK,TAF EDHK 140500Z 1406/1415 23004KT 4000 BR OVC003 TEMPO 1406/1408 1200 OVC001 PROB30 TEMPO 1406/1408 7000 SCT003 BKN015 BECMG 1408/1411 24009KT 9999 SCT020
EDHL,TAF EDHL 140500Z 1406/1415 20001KT 4000 BR BKN007 TEMPO 1406/1408 2000 DZ OVC004 PROB40 TEMPO 1406/1407 7000 SCT007 BKN015 BECMG 1407/1410 23006KT 9999 BKN015
EDJA,TAF EDJA 140500Z 1406/1415 23005KT 9999 FEW015 BKN040 BECMG 1410/1412 23010KT
EDLP,TAF EDLP 140500Z 1406/1506 18006KT 9999 BKN025 TEMPO 1406/1410 BKN012 PROB30 TEMPO 1406/1408 4000 -DZ BKN007 PROB40 TEMPO 1414/1416 RA
EDLV,TAF EDLV 140500Z 1406/1506 19005KT 6000 BKN006 TEMPO 1406/1410 VRB02KT 2500 -RADZ BKN003 PROB30 TEMPO 1410/1412 RA BECMG 1411/1415 BKN030 TEMPO 1415/1417 BKN012 PROB30 TEMPO 1417/1503 4000 BR BKN009 BECMG 1503/1506 2500 BR BKN004
EDLW,TAF EDLW 140500Z 1406/1506 19007KT 9999 BKN025 TEMPO 1406/1410 BKN012 PROB30 TEMPO 1406/1408 4000 -DZ BKN004
EDMA,TAF EDMA 140517Z 1406/1415 16004KT 9999 SCT012 BKN035 BECMG 1407/1409 22007KT
EDMO,TAF EDMO 140521Z 1406/1415 22006KT 9999 BKN035
EDNY,TAF EDNY 140500Z 1406/1506 VRB03KT 9999 FEW030 TEMPO 1416/1506 RA
EDQM,TAF EDQM 140523Z 1406/1415 VRB03KT 9999 BKN007 TEMPO 1406/1408 3500 BR BKN004 BECMG 1406/1408 22007KT BECMG 1408/1410 BKN025
EDSB,TAF EDSB 140500Z 1406/1506 17005KT 9999 BKN030 BECMG 1412/1415 20012KT TEMPO 1412/1506 RA PROB30 TEMPO 1420/1506 20015G25KT 4000 RA BKN012
EDTL,TAF EDTL 140500Z 1406/1415 VRB03KT 9999 BKN040 BECMG 1407/1410 20009KT TEMPO 1412/1415 RA
EDTY,TAF EDTY 140528Z 1406/1415 20004KT 9999 BKN035
EDVE,TAF EDVE 140500Z 1406/1415 21006KT 9999 SCT015 BKN025 PROB30 TEMPO 1406/1408 BKN012
EDVK,TAF EDVK 140500Z 1406/1415 20005KT 9999 BKN035 TEMPO 1406/1409 4000 BR BKN010 TEMPO 1413/1415 RA BKN012
EEEI,TAF EEEI 140530Z 1406/1506 17011KT 9999 SCT007 TEMPO 1406/1409 9000 -RA BKN007 BKN040 TEMPO 1410/1418 4000 SHRA BKN004 FEW020CB PROB40 TEMPO 1421/1504 3000 BR SCT005 FEW030CB
EEKA,TAF EEKA 140300Z 1404/1410 18010KT 8000 SCT015 BKN040 PROB40 TEMPO 1404/1408 4000 DZ BR BKN006 OVC015 TEMPO 1408/1410 4000 SHRA BKN006 SCT020CB
EEKE,TAF EEKE 140300Z 1404/1410 19012KT 9999 SCT015 BKN040 PROB40 TEMPO 1404/1407 4000 DZ BR BKN006 OVC015 TEMPO 1407/1410 4000 SHRA BR BKN006 SCT020CB
EETN,TAF EETN 140530Z 1406/1506 18012KT 9999 BKN010 BKN030 PROB40 TEMPO 1406/1408 OVC005 TEMPO 1408/1418 3000 SHRA BR BKN005 SCT020CB TEMPO 1418/1506 2000 RADZ BR OVC003 PROB40 TEMPO 1418/1506 SCT020CB
EFHA,TAF EFHA 140521Z 1406/1415 18007KT 9999 BKN008 TEMPO 1406/1415 4000 -RADZ
EFHK,TAF EFHK 140521Z 1406/1506 19010KT 9999 BKN008 TEMPO 1406/1418 7000 -DZRA BKN012 TEMPO 1418/1424 4000 BR TEMPO 1500/1506 3500 BR BKN004
EFJY,TAF EFJY 140521Z 1406/1506 19006KT 9999 OVC009 TEMPO 1406/1410 4500 -DZRA BKN012 BECMG 1410/1412 3000 BR BKN004 TEMPO 1418/1506 0400 FG VV001
EFKU,TAF EFKU 140534Z 1406/1506 20009KT 9999 FEW012 OVC045 BECMG 1406/1408 BKN012 TEMPO 1408/1414 6000 -RADZ BKN008 BECMG 1414/1416 4000 BR BKN006 TEMPO 1416/1506 0900 FG VV002
EFMA,TAF EFMA 140530Z 1406/1415 19008KT 9999 SCT006 PROB40 TEMPO 1406/1409 BKN006
EFOU,TAF EFOU 140537Z 1406/1506 21005KT 4500 -RA OVC002 TEMPO 1406/1408 0800 FG DZ VV001 BECMG 1408/1410 9999 NSW BKN005 BECMG 1411/1413 BKN012 BECMG 1414/1416 BKN025 TEMPO 1419/1506 2000 BR -RA BKN003
EFPO,TAF EFPO 140530Z 1406/1415 17005KT 9999 BKN017 BKN049 TEMPO 1406/1410 BKN013 PROB30 1406/1409 BKN007
EFRO,TAF EFRO 140537Z 1406/1506 24004KT 0300 FG VV001 TEMPO 1406/1410 2000 -RA OVC002 TEMPO 1410/1419 5000 BR BKN003 TEMPO 1419/1506 3000 BR -RA OVC002
EFSA,TAF EFSA 140534Z 1406/1415 21009KT 9999 FEW012 OVC040 TEMPO 1406/1409 BKN008 TEMPO 1409/1415 BKN012
EFSI,TAF EFSI 140530Z 1406/1415 17006KT 9999 BKN013 TEMPO 1406/1410 BKN008 BECMG 1410/1412 BKN015
EFTP,TAF EFTP 140521Z 1406/1506 18007KT 9999 BKN008 TEMPO 1406/1412 6000 -DZRA OVC004 BECMG 1412/1414 3000 BR BKN004 TEMPO 1414/1505 0400 FG VV001
EFTU,TAF AMD EFTU 140541Z 1406/1506 17005KT 9999 FEW012 BKN020 TEMPO 1406/1411 7000 -RADZ BKN004 FEW020CB PROB30 TEMPO 1411/1415 3000 BR BKN004 TEMPO 1422/1506 4000 BR BKN005
EFUT,TAF EFUT 140534Z 1406/1412 20007KT 9999 BKN005 TEMPO 1406/1408 4000 BR BKN004 TEMPO 1409/1412 6000 -RADZ SCT007 BKN010
EFVA,TAF EFVA 140530Z 1406/1506 20008KT 9999 BKN007 PROB40 TEMPO 1406/1409 7000 -DZ BKN004 BECMG 1409/1411 BKN025 BECMG 1419/1421 BKN010 PROB40 TEMPO 1421/1506 3000 BR BKN005
EGAA,TAF EGAA 140501Z 1406/1506 23010KT 9999 FEW015 SCT028 TEMPO 1406/1409 6000 SHRA BKN008 PROB30 TEMPO 1406/1409 BKN004 PROB30 TEMPO 1409/1417 7000 SHRA BECMG 1421/1424 16010KT TEMPO 1500/1504 17015G25KT 7000 RA SHRA PROB30 TEMPO 1500/1503 4000 +RA +SHRA BKN012 BECMG 1503/1506 22010KT
EGAC,TAF EGAC 140506Z 1406/1415 21008KT 9999 FEW018 SCT030 TEMPO 1406/1415 7000 SHRA PROB30 TEMPO 1406/1409 4000 RADZ BKN007 BECMG 1409/1412 27010KT
EGAE,TAF EGAE 140506Z 1406/1415 25010KT 9999 FEW015 SCT025 TEMPO 1406/1409 6000 SHRA PROB30 TEMPO 1409/1415 4000 +SHRA
EGBB,TAF EGBB 140453Z 1406/1506 21008KT 9999 SCT035 TEMPO 1406/1412 6000 RA BKN008 PROB30 TEMPO 1416/1418 7000 SHRA PROB30 TEMPO 1418/1422 8000 TEMPO 1422/1502 7000 SHRA BKN014
EGCC,TAF EGCC 140455Z 1406/1512 19007KT 9999 FEW025 SCT035 PROB40 TEMPO 1406/1408 7000 RA SHRA BKN008 PROB30 TEMPO 1408/1410 6000 BKN007 TEMPO 1413/1418 7000 RA SHRA BKN008 PROB30 TEMPO 1418/1502 5000 BR BKN008 TEMPO 1502/1506 7000 SHRA BKN014 PROB30 TEMPO 1502/1506 4000 +SHRA BKN007 PROB30 TEMPO 1505/1507 20015G25KT PROB30 TEMPO 1511/1512 6000 SHRA
EGCK,TAF EGCK 140500Z 1406/1415 24010KT 9999 SCT030 TEMPO 1410/1415 7000 RA SHRA BKN012
EGCN,TAF EGCN 140457Z 1406/1506 19007KT 9999 FEW025 SCT035 PROB30 TEMPO 1406/1410 7000 RA BKN008 BECMG 1411/1414 25010KT TEMPO 1415/1419 7000 RA SHRA PROB30 TEMPO 1419/1502 4000 BR BECMG 1421/1424 17005KT TEMPO 1502/1506 7000 SHRA BKN010 PROB30 TEMPO 1502/1505 4000 +SHRA BKN007
EGDR,TAF EGDR 140503Z 1406/1415 31006KT 9999 FEW007 SCT025 TEMPO 1406/1415 SCT007 PROB40 TEMPO 1406/1409 4000 -RADZ BR SCT004 PROB30 TEMPO 1406/1409 0500 FG SCT001
EGFF,TAF EGFF 140455Z 1406/1506 20006KT 9999 BKN025 TEMPO 1406/1412 8000 -RA BKN010 PROB30 TEMPO 1406/1412 4000 RADZ BKN006 BECMG 1411/1414 28010KT PROB40 TEMPO 1412/1418 BKN013 BECMG 1418/1421 19010KT PROB30 TEMPO 1418/1501 8000 -SHRA BKN012 TEMPO 1502/1506 23015G25KT
EGGD,TAF EGGD 140455Z 1406/1506 20006KT 9999 BKN025 TEMPO 1406/1414 7000 -RADZ BKN008 PROB30 TEMPO 1406/1408 3000 RADZ BKN004 PROB30 TEMPO 1408/1413 0300 DZ FG BKN001 BECMG 1410/1413 26010KT PROB40 TEMPO 1414/1418 BKN012 BECMG 1417/1420 20007KT TEMPO 1422/1503 BKN008 PROB30 TEMPO 1422/1502 8000 -SHRA BKN004
EGGP,TAF EGGP 140455Z 1406/1506 19008KT 9999 SCT035 PROB30 TEMPO 1406/1407 6000 RA SHRA BKN010 PROB30 TEMPO 1407/1410 6000 BKN014 BECMG 1410/1413 26010KT TEMPO 1412/1416 7000 RA SHRA BKN012 PROB30 TEMPO 1412/1416 BKN009 PROB30 TEMPO 1418/1424 7000 BECMG 1419/1422 18006KT TEMPO 1500/1505 7000 RA SHRA PROB30 TEMPO 1502/1505 4000 +SHRA BKN012
EGGW,TAF EGGW 140456Z 1406/1506 20008KT 9999 SCT025 TEMPO 1406/1408 8000 PROB30 TEMPO 1408/1412 9000 BKN008 TEMPO 1412/1419 6000 RA BKN008 PROB40 TEMPO 1414/1419 2000 RADZ BR BKN003 TEMPO 1420/1506 8000 PROB30 TEMPO 1500/1504 0300 FG BKN001 PROB30 TEMPO 1504/1506 4000 -SHRA BKN004
EGHH,TAF EGHH 140524Z 1406/1415 21004KT 9999 FEW030 PROB30 TEMPO 1406/1408 8000 TEMPO 1408/1413 6000 RA BKN012
EGHI,TAF EGHI 140524Z 1406/1415 21004KT 9999 FEW030 PROB30 TEMPO 1406/1408 8000 TEMPO 1408/1413 6000 RA BKN012 PROB30 TEMPO 1410/1413 BKN008
EGHQ,TAF EGHQ 140454Z 1406/1415 25006KT 9999 SCT010 TEMPO 1406/1409 4000 RADZ BKN006 PROB30 TEMPO 1406/1409 0300 FG BKN001 PROB30 TEMPO 1409/1413 6000 -RADZ BKN012
EGJB,TAF EGJB 140502Z 1406/1415 19010KT 6000 -RADZ BKN008 TEMPO 1406/1415 9999 BKN012 PROB40 TEMPO 1407/1415 3000 RA BR BKN004 BECMG 1413/1415 28010KT
EGJJ,TAF EGJJ 140502Z 1406/1415 20009KT 6000 -RADZ BKN008 TEMPO 1406/1415 9999 BKN012 PROB40 TEMPO 1407/1415 3000 RA BR BKN004
EGKK,TAF AMD EGKK 140548Z 1406/1512 20003KT 9999 FEW025 PROB30 TEMPO 1406/1408 6000 TEMPO 1411/1418 8000 -RA BKN012 PROB30 TEMPO 1412/1417 RA BKN008 BECMG 1418/1421 7000 PROB30 1422/1503 0500 FG OVC001 BECMG 1501/1504 9999 PROB40 TEMPO 1504/1508 7000 SHRA BKN010 BECMG 1509/1512 21013KT
EGLC,TAF EGLC 140501Z 1406/1415 21005KT 9999 FEW025 PROB30 1406/1409 8000 TEMPO 1411/1415 8000 -RA BKN014 PROB30 TEMPO 1412/1415 RA
EGLL,TAF EGLL 140459Z 1406/1512 21005KT 9999 SCT045 PROB30 1406/1408 8000 TEMPO 1408/1416 BKN012 PROB30 TEMPO 1410/1415 6000 -RADZ BKN007 TEMPO 1421/1502 8000 PROB30 TEMPO 1423/1503 3000 BR TEMPO 1502/1506 7000 SHRA BKN010
EGMC,TAF EGMC 140501Z 1406/1415 22004KT 8000 FEW030 BECMG 1406/1409 9999 PROB30 1406/1408 4000 BR PROB40 TEMPO 1413/1415 8000 -RA BKN014
EGMD,TAF EGMD 140501Z 1406/1415 29004KT 0300 FG OVC001 BECMG 1406/1409 9999 NSW FEW020 BECMG 1410/1413 22010KT PROB30 TEMPO 1410/1415 8000 -SHRA BKN012
EGNJ,TAF EGNJ 140500Z 1406/1415 20010KT 9999 SCT035 TEMPO 1406/1408 7000 PROB30 TEMPO 1406/1408 4000 BR BKN004 PROB40 TEMPO 1408/1412 7000 RA SHRA BKN007
EGNM,TAF EGNM 140457Z 1406/1506 20007KT 9999 FEW020 SCT030 PROB40 TEMPO 1406/1408 7000 RA SHRA BKN008 PROB30 TEMPO 1408/1410 6000 BKN010 BECMG 1410/1413 26010KT TEMPO 1413/1418 7000 RA SHRA BKN014 PROB30 TEMPO 1414/1417 4000 +RA +SHRA BKN009 BECMG 1419/1422 17004KT PROB30 TEMPO 1420/1501 3000 BR BKN004 TEMPO 1501/1506 6000 RA SHRA BKN008 PROB30 TEMPO 1502/1506 4000 +SHRA
EGNS,TAF EGNS 140500Z 1406/1415 26014KT 9999 BKN010 TEMPO 1407/1413 8000 -RA BKN008 PROB30 TEMPO 1408/1411 4000 RA BKN006
EGNT,TAF EGNT 140457Z 1406/1506 21007KT 9999 FEW040 PROB30 TEMPO 1406/1408 7000 TEMPO 1408/1416 7000 RA SHRA BKN014 PROB30 TEMPO 1410/1415 4000 +RA +SHRA TEMPO 1503/1506 6000 SHRA BKN014 PROB30 TEMPO 1503/1506 4000 +SHRA BKN007
EGNV,TAF EGNV 140551Z 1406/1415 18009KT 9999 SCT030 PROB30 TEMPO 1406/1408 7000 RA SHRA BKN012 BECMG 1412/1415 24010KT TEMPO 1412/1415 7000 SHRA PROB30 TEMPO 1413/1415 4000 +SHRA BKN014
EGNX,TAF EGNX 140453Z 1406/1506 20009KT 9999 SCT035 TEMPO 1406/1414 6000 RA BKN008 PROB30 TEMPO 1417/1419 7000 SHRA PROB30 TEMPO 1419/1422 8000 TEMPO 1422/1503 7000 SHRA BKN012 PROB30 TEMPO 1500/1502 4000 +SHRA BKN008
EGPA,TAF EGPA 140458Z 1406/1415 23013KT 9999 SCT018 TEMPO 1406/1415 24016G28KT 8000 -SHRA BKN012 PROB30 TEMPO 1409/1415 5000 SHRA
EGPB,TAF EGPB 140458Z 1406/1415 25024KT 9999 SCT015 TEMPO 1406/1415 8000 -SHRA BKN012 PROB30 TEMPO 1406/1415 5000 SHRA
EGPC,TAF EGPC 140458Z 1406/1415 22009KT 9999 FEW020 PROB30 TEMPO 1409/1415 6000 SHRA
EGPD,TAF EGPD 140456Z 1406/1506 23007KT 9999 FEW040 PROB30 TEMPO 1412/1416 8000 -SHRA BECMG 1423/1502 17010KT
EGPE,TAF EGPE 140458Z 1406/1415 21012KT 9999 FEW025 TEMPO 1406/1415 22015G25KT PROB30 TEMPO 1409/1415 6000 SHRA
EGPF,TAF EGPF 140456Z 1406/1506 22009KT 9999 SCT020 PROB40 TEMPO 1406/1415 7000 SHRA BECMG 1409/1412 28010KT BECMG 1418/1421 VRB03KT PROB30 TEMPO 1421/1501 7000 BECMG 1500/1503 13010KT TEMPO 1502/1506 6000 SHRA PROB30 TEMPO 1503/1506 4000 +SHRA BKN012 BECMG 1504/1506 23012KT
EGPH,TAF EGPH 140456Z 1406/1506 23009KT 9999 FEW020 SCT040 PROB40 TEMPO 1406/1407 7000 -RA BKN012 PROB30 TEMPO 1411/1416 6000 SHRA BECMG 1422/1501 16010KT TEMPO 1503/1506 7000 -SHRA BECMG 1504/1506 24012KT PROB30 TEMPO 1504/1506 SHRA
EGPI,TAF EGPI 140457Z 1406/1415 25012KT 9999 FEW020 SCT035 TEMPO 1406/1413 7000 -SHRA BKN012 PROB30 TEMPO 1406/1409 26015G25KT 4000 SHRA
EGPK,TAF EGPK 140456Z 1406/1506 26012KT 9999 FEW024 TEMPO 1406/1409 7000 -RA BKN012 PROB30 TEMPO 1406/1408 3000 RA BKN008 PROB40 TEMPO 1409/1416 28015G25KT 6000 SHRA BECMG 1417/1420 13007KT BECMG 1502/1505 22012KT TEMPO 1502/1506 7000 -SHRA PROB30 TEMPO 1503/1506 4000 SHRA BKN012
EGPO,TAF EGPO 140458Z 1406/1415 22009KT 9999 FEW018 SCT030 TEMPO 1406/1415 6000 SHRA PROB30 TEMPO 1412/1415 23015G25KT 3000 +SHRA BKN014CB
EGPU,TAF EGPU 140457Z 1406/1415 25012KT 9999 SCT025 TEMPO 1406/1415 7000 -SHRA PROB40 TEMPO 1406/1410 26015G25KT 4000 SHRA BKN012
EGQL,TAF EGQL 140406Z 1406/1415 24008KT 9999 SCT025 BKN045 PROB30 TEMPO 1406/1407 6000 RA PROB40 TEMPO 1409/1415 6000 SHRA SCT020
EGQS,TAF EGQS 140424Z 1406/1424 22010KT 9999 SCT045 PROB30 TEMPO 1409/1411 SCT024 PROB30 TEMPO 1411/1416 5000 SHRA SCT022CB
EGSH,TAF EGSH 140459Z 1406/1415 20006KT 9999 SCT035 TEMPO 1406/1408 2000 BR PROB30 TEMPO 1406/1408 1400 BKN004 TEMPO 1408/1410 6000 BKN008 PROB30 TEMPO 1413/1415 7000 SHRA BKN014
EGSS,TAF EGSS 140456Z 1406/1512 20004KT 9999 SCT035 PROB40 TEMPO 1406/1408 0300 FG VV/// PROB30 TEMPO 1409/1412 9000 BKN010 TEMPO 1412/1419 6000 RA BKN010 PROB30 TEMPO 1415/1419 2500 RADZ BKN004 TEMPO 1419/1509 8000 PROB30 TEMPO 1423/1504 0300 FG BKN001 PROB30 TEMPO 1504/1507 4000 -SHRA BKN004
EGSY,TAF EGSY 140454Z 1406/1415 23005KT 9999 FEW035 TEMPO 1406/1409 6000 RADZ BKN012 PROB30 TEMPO 1406/1409 BKN006 PROB30 TEMPO 1409/1415 8000 -RADZ BKN014
EGTK,TAF EGTK 140533Z 1405/1412 22003KT 4000 BR FEW015 BECMG 1405/1408 9999 NSW TEMPO 1408/1412 7000 -RA BKN008 PROB30 TEMPO 1409/1412 4000 RA
EGUL,TAF EGUL 140500Z 1405/1511 19006KT 8000 BR FEW007 BKN150 QNH2981INS BECMG 1408/1409 20009KT 9999 NSW BKN030 QNH2976INS BECMG 1411/1412 21010G15KT 9999 BKN020 QNH2970INS TEMPO 1412/1415 BKN015 BECMG 1414/1415 22009KT 9999 BKN010 QNH2967INS BECMG 1420/1421 25009KT 6000 BR SCT010 QNH2958INS BECMG 1505/1506 21010G15KT 9999 NSW BKN020 QNH2959INS TX16/1413Z TN11/1405Z
EGUN,TAF EGUN 140400Z 1404/1510 21003KT 5000 BR FEW050 BKN180 QNH2983INS TEMPO 1404/1408 3200 BR BKN025 BECMG 1406/1408 21010KT 8000 BR BKN050 BKN180 600802 QNH2982INS BECMG 1409/1410 21012KT 9999 NSW BKN030 BKN060 600703 QNH2976INS BECMG 1412/1413 22012KT 9999 SCT015 BKN050 BKN080 600802 QNH2969INS TEMPO 1415/1418 23010G15KT 8000 -DZ BKN015 OVC030 BECMG 1420/1422 24009KT 5000 BR MIFG SCT015 SCT080 QNH2968INS TEMPO 1422/1501 3200 BR BCFG SCT008 BKN020 BECMG 1500/1501 21005KT 0800 FG VV002 QNH2961INS BECMG 1506/1507 22010G15KT 6000 BR SCT006 BKN020 QNH2962INS TX17/1414Z TN09/1406Z
EGVA,TAF EGVA 140400Z 1404/1510 VRB06KT 9000 BR FEW005 SCT150 QNH2983INS BECMG 1409/1410 25010G15KT 9999 NSW SCT005 BKN030 OVC150 QNH2972INS BECMG 1418/1419 24006KT 9000 BR SCT006 SCT013 BKN055 510063 QNH2972INS BECMG 1502/1503 19009KT 8000 BR BKN006 OVC020 510053 QNH2964INS BECMG 1506/1507 22009KT 9000 BR SCT006 BKN020 510043 QNH2961INS BECMG 1509/1510 22012G18KT 9999 NSW SCT019 OVC026 510053 QNH2962INS TX14/1415Z TN09/1404Z
EGVN,TAF EGVN 140447Z 1406/1506 23005KT 4000 BR FEW008 BECMG 1406/1409 9999 NSW TEMPO 1406/1414 BKN008 PROB40 TEMPO 1409/1413 3000 RADZ BKN005 PROB30 1418/1424 4000 BR PROB30 TEMPO 1500/1505 SCT010
EGVO,TAF EGVO 140440Z 1406/1418 20005KT 9999 SCT045 TEMPO 1408/1418 SCT020 PROB40 TEMPO 1409/1416 BKN010 PROB30 TEMPO 1410/1414 4000 -RADZ SCT005
EGWU,TAF EGWU 140450Z 1406/1424 19005KT 6000 BR FEW024 BECMG 1406/1409 9999 NSW PROB30 TEMPO 1406/1409 BKN016 BECMG 1409/1412 BKN014 TEMPO 1411/1415 5000 -RA BECMG 1414/1416 FEW014 PROB40 1422/1424 7000 BR
EGXC,TAF EGXC 140423Z 1406/1424 19006KT 9999 SCT025 PROB30 1406/1408 4000 BR PROB40 TEMPO 1406/1415 7000 -RA SCT008 PROB30 TEMPO 1407/1409 SCT006
EGXT,TAF AMD EGXT 140512Z 1406/1415 21006KT 0200 FG VV/// BECMG 1406/1408 7000 BR SCT045 BECMG 1408/1410 9999 NSW BKN008 TEMPO 1410/1413 5000 -RADZ PROB30 TEMPO 1410/1413 3000 RADZ BKN006 BECMG 1413/1415 FEW016
EGXW,TAF EGXW 140418Z 1406/1424 21008KT 9999 SCT030 PROB30 1406/1408 4000 BR PROB40 TEMPO 1406/1414 5000 -RADZ BKN007 PROB30 TEMPO 1406/1410 SCT004 PROB30 1423/1424 6000 BR
EGYD,TAF EGYD 140523Z 1406/1415 22012KT 9999 BKN030 TEMPO 1406/1414 6000 -RA BKN007 PROB30 1406/1408 4000 BR PROB30 TEMPO 1406/1412 SCT005
EGYP,TAF EGYP 140424Z 1406/1424 29017KT 9999 FEW040 TEMPO 1409/1416 29022G32KT BECMG 1416/1419 25015KT TEMPO 1416/1421 25018G28KT PROB40 TEMPO 1416/1422 SCT020 PROB30 TEMPO 1416/1420 7000 -SHRA BECMG 1421/1424 29015KT
EHAM,TAF EHAM 140500Z 1406/1512 15005KT 1200 BR -DZ BKN002 PROB30 TEMPO 1406/1409 BKN001 BECMG 1409/1412 3000 BKN005 BECMG 1413/1416 24006KT 9999 NSW SCT030 BECMG 1421/1424 4000 BR BECMG 1503/1506 20010KT BKN004 PROB40 TEMPO 1505/1510 2000 -DZRA BKN002 BECMG 1510/1512 9999 NSW SCT020
EHBK,TAF COR EHBK 132300Z 1400/1506 21006KT 4000 BR BKN004 TEMPO 1400/1407 1200 -DZ BKN002 BECMG 1405/1408 9999 NSW BKN018 TEMPO 1408/1506 4000 -DZRA BKN004 PROB40 1500/1506 0800 FG -DZ BKN001
EHEH,TAF EHEH 140515Z 1406/1512 15005KT 3500 BR SCT005 BKN007 OVC010 TEMPO 1406/1414 1500 -DZ BKN002 OVC003 PROB30 TEMPO 1406/1412 6000 NSW SCT015 BKN020 BECMG 1413/1416 21006KT 9999 NSW FEW015 BKN030 BECMG 1423/1502 4000 BR SCT005 BKN006 OVC008 PROB40 TEMPO 1500/1512 1500 -DZ BKN002 OVC003 PROB30 1501/1509 0400 FG VV001 BECMG 1510/1512 9999 NSW FEW015 SCT030
EHGG,TAF COR EHGG 132300Z 1400/1506 21004KT 0400 FG VV000 BECMG 1406/1409 2000 BR BKN004 BECMG 1409/1411 15010KT 7000 NSW PROB30 1411/1416 4000 BR BKN006 BECMG 1416/1419 21005KT 2000 BR BKN004 TEMPO 1418/1506 0800 FG -DZ BKN001
EHGR,TAF EHGR 140440Z 1405/1417 16005KT 2500 BR SCT005 BKN006 OVC008 TEMPO 1405/1414 1500 DZ BKN002 OVC003 BECMG 1413/1416 22005KT 9999 NSW FEW015 SCT030
EHKD,TAF EHKD 140444Z 1405/1417 15005KT 0400 FG VV001 BECMG 1407/1410 2500 BR SCT005 BKN006 OVC008 TEMPO 1407/1413 1500 -DZ BKN002 OVC003 BECMG 1413/1416 22008KT 9999 NSW SCT030
EHLE,TAF EHLE 132300Z 1400/1506 15005KT 0300 FG VV000 BECMG 1404/1407 3000 BR BKN005 PROB40 TEMPO 1407/1415 1500 DZ BKN002 BECMG 1423/1502 4000 BR PROB40 TEMPO1500/1506 0800 BCFG BKN002
EHLW,TAF EHLW 140451Z 1405/1417 16006KT 0300 FG VV001 BECMG 1408/1411 2500 BR SCT005 BKN006 OVC008 TEMPO 1408/1417 1500 -DZ BKN002 OVC003
EHRD,TAF EHRD 132300Z 1400/1506 15004KT 6000 BKN030 BECMG 1400/1403 4000 BR BKN005 PROB40 TEMPO 1403/1413 1500 DZ BKN002 BECMG 1412/1415 20006KT 9999 NSW BECMG 1421/1424 4000 BR PROB40 1500/1506 1400 BCFG BKN003 
EHVK,TAF EHVK 140442Z 1405/1417 16003KT 2500 BR SCT005 BKN006 OVC008 TEMPO 1405/1415 1500 DZ BKN002 OVC003 PROB30 TEMPO 1407/1412 6000 NSW SCT014 BKN020 BECMG 1414/1417 21005KT 9999 NSW FEW015 SCT030
EHWO,TAF EHWO 140439Z 1405/1417 19003KT 4500 BR SCT005 BKN006 OVC008 TEMPO 1405/1413 1500 DZ BKN002 OVC003 BECMG 1412/1415 9999 NSW FEW015 SCT030
EICK,TAF EICK 140500Z 1406/1506 25007KT 9999 -RA FEW006 SCT018 PROB30 TEMPO 1406/1408 3000 BR PROB40 TEMPO 1407/1410 -SHRA BKN010 BECMG 1420/1422 22011KT TEMPO 1423/1502 23015G27KT -SHRA BKN012
EIDL,TAF EIDL 140500Z 1406/1415 21007KT 9999 SCT030 BECMG 1406/1408 27015KT TEMPO 1408/1411 25017G28KT
EIDW,TAF EIDW 140500Z 1406/1506 23008KT 9999 FEW018 SCT030 PROB30 TEMPO 1406/1409 4500 -SHRA BKN012 BECMG 1410/1412 27010KT BECMG 1419/1420 18008KT BECMG 1501/1503 23015KT TEMPO 1502/1505 24017G28KT 4000 -RA BKN014
EIKN,TAF EIKN 140500Z 1406/1506 27010KT 9999 FEW015 PROB30 TEMPO 1406/1408 3000 BR BKN007 BECMG 1416/1418 20007KT BECMG 1419/1421 19015KT TEMPO 1422/1501 19016G28KT 3000 SHRA BKN007 SCT017CB BECMG 1500/1502 20010KT
EIKY,TAF EIKY 140500Z 1406/1415 25010KT 9999 FEW010 SCT025
EIME,TAF EIME 140500Z 1406/1415 23010KT 9999 FEW012 SCT025 PROB40 TEMPO 1406/1409 -SHRA BKN014 BECMG 1409/1411 27012KT
EINN,TAF EINN 140500Z 1406/1506 VRB03KT 9999 FEW018 SCT030 BECMG 1409/1411 27010KT BECMG 1418/1420 16010KT BECMG 1422/1424 19015KT TEMPO 1423/1502 24020G30KT 4000 -SHRA SCT017CB BKN018 BECMG 1502/1504 17007KT
EISG,TAF EISG 140500Z 1406/1415 VRB03KT 9999 SCT030 BECMG 1407/1409 26010KT
EIWF,TAF EIWF 140500Z 1406/1415 24008KT 9999 SCT010 BKN020 PROB30 TEMPO 1406/1408 4000 BR BKN007
EKAH,TAF EKAH 140508Z 1406/1506 22005KT 8000 BKN018 TEMPO 1406/1408 1200 BR BKN002 TEMPO 1409/1415 FEW020TCU BECMG 1501/1503 BKN012 TEMPO 1503/1506 2500 BR BKN005
EKBI,TAF EKBI 140508Z 1406/1506 22005KT 8000 BKN025 TEMPO 1406/1407 1000 BR BKN002 TEMPO 1409/1416 FEW020TCU BECMG 1422/1424 BKN008 TEMPO 1500/1506 2500 BR BKN003
EKCH,TAF EKCH 140508Z 1406/1506 24008KT 4000 BR BKN005 BECMG 1406/1408 9999 NSW BKN015 BECMG 1423/1501 -RADZ BKN012 TEMPO 1501/1506 4000 RADZ BKN008
EKEB,TAF EKEB 140508Z 1406/1415 28005KT 9999 SCT025 TEMPO 1406/1407 2500 BR BKN012 TEMPO 1407/1415 FEW020TCU
EKGC,TAF EKGC 140508Z 1406/1415 21012KT 9999 FEW015 TEMPO 1409/1415 BKN012 SCT020TCU
EKHD,TAF EKHD 140508Z 1406/1415 22015KT 9999 FEW025 TEMPO 1409/1415 BKN012 SCT020TCU
EKKA,TAF EKKA 140501Z 1406/1506 17006KT 9999 BKN050 TEMPO 1500/1506 0800 FG BKN002
EKRK,TAF EKRK 140508Z 1406/1415 21005KT 6000 BKN016 TEMPO 1406/1407 0100 FG BKN001 TEMPO 1407/1409 BKN012
EKRN,TAF EKRN 140506Z 1406/1415 22006KT 9999 BKN020 TEMPO 1406/1415 3000 RADZ BR BKN006
EKSB,TAF EKSB 140449Z 1405/1412 21005KT 9999 BKN025 TEMPO 1405/1407 BKN012 TEMPO 1407/1412 FEW020TCU
EKSP,TAF EKSP 140507Z 1406/1506 VRB02KT 9999 FEW003 BKN030 TEMPO 1406/1409 0300 FG BKN001 BECMG 1406/1409 21010KT BECMG 1415/1417 14005KT TEMPO 1421/1506 0300 FG BKN002 BECMG 1423/1501 20008KT
EKYT,TAF EKYT 140501Z 1406/1506 VRB02KT 0300 FG SCT040 BECMG 1406/1408 17008KT 9999 NSW BECMG 1500/1502 7000 -RA BKN012 TEMPO 1502/1506 2500 RA BR BKN004
ELLX,TAF ELLX 140500Z 1406/1512 20005KT 1500 BR BKN005 TEMPO 1406/1413 0300 DZRA FG BKN002 BECMG 1413/1415 6000 BKN020 BECMG 1418/1420 2000 BR BKN005 TEMPO 1418/1505 RA TEMPO 1419/1508 0500 FG BKN005
ENAL,TAF ENAL 140500Z 1406/1415 14012KT 9999 SCT040 BKN080 BECMG 1410/1412 22012KT TEMPO 1411/1415 22018G28KT SHRA BKN014CB
ENAN,ENAN 1406/1506 18008KT 9999 -SHRA SCT040 TEMPO 1406/1411 FEW020TCU BECMG 1415/1417 12012KT
ENAT,TAF ENAT 140500Z 1406/1415 16005KT 9999 SCT030 BKN040
ENBN,TAF ENBN 140500Z 1406/1415 12008KT CAVOK
ENBO,ENBO 1406/1506 10012KT CAVOK
ENBR,ENBR 1406/1506 14015KT 9999 -RA SCT020 BKN030 BECMG 1406/1409 16018G30KT TEMPO 1408/1504 4000 SHRA BKN008 SCT015CB BECMG 1412/1414 18008KT
ENBS,TAF ENBS 140500Z 1406/1415 22005KT 9999 SCT015 BKN025 PROB40 TEMPO 1406/1409 BKN012
ENBV,TAF ENBV 140500Z 1406/1415 24008KT 9999 FEW012 BKN018 TEMPO 1406/1410 DZRA BKN012
ENCN,TAF ENCN 140500Z 1406/1415 VRB05KT 9999 SCT025 BECMG 1412/1414 24010KT
ENDU,ENDU 1406/1506 VRB03KT 9999 FEW015 SCT045
ENEV,ENEV 1406/1506 13005KT 9999 FEW015 SCT040
ENFL,TAF ENFL 140500Z 1406/1415 14018KT 9999 FEW020 BKN040 TEMPO 1406/1412 17018G28KT TEMPO 1408/1415 SHRA BKN014CB BECMG 1410/1412 20010KT
ENGC,ENGC 1406/1506 19038KT 9999 FEW015 BKN020 TEMPO 1406/1409 4000 SHRA BKN012CB PROB30 TEMPO 1406/1409 TS BKN008CB BECMG 1407/1410 23025KT TEMPO 1416/1422 SHRA BKN012CB PROB30 TEMPO 1416/1420 4000 TS
ENGM,TAF COR ENGM 1406/1506 18005KT 8000 BKN002 TEMPO 1406/1409 3000 BR BECMG 1409/1411 BKN020 BECMG 1421/1423 BKN012 PROB40 1500/1506 4000 -RA BKN008
ENHD,TAF ENHD 140500Z 1406/1415 14012KT 9999 FEW025 BKN040 TEMPO 1406/1412 17018G28KT TEMPO 1406/1415 4000 SHRA BKN012CB BECMG 1412/1414 21008KT
ENHE,TAF ENHE 140500Z 1406/1415 16028KT 9999 FEW015 BKN025 TEMPO 1414/1415 SHRA BKN014CB
ENHF,TAF ENHF 140500Z 1406/1415 07005KT 9999 -RADZ FEW010 SCT018 BKN020 TEMPO 1406/1409 RA SCT005 BKN008 BECMG 1408/1410 19010KT TEMPO 1409/1412 BKN014
ENHV,TAF ENHV 140200Z 1403/1412 20005KT 9999 FEW015 BKN030 TEMPO 1403/1406 BKN008
ENKB,TAF ENKB 140500Z 1406/1415 12006KT CAVOK BECMG 1411/1413 19012KT TEMPO 1412/1415 SHRA BKN020CB
ENKR,TAF ENKR 140500Z 1406/1415 23008KT 9999 FEW008 BKN020 TEMPO 1406/1412 BKN005
ENLE,TAF ENLE 140500Z 1406/1415 20025KT 9999 SCT020 BKN070 TEMPO 1406/1409 SHRA BKN012CB PROB30 TEMPO 1409/1415 SHRA BKN020CB
ENML,TAF ENML 140500Z 1406/1415 04008KT 9999 FEW050 SCT090 BECMG 1411/1413 26010KT TEMPO 1411/1415 SHRA BKN025CB
ENMS,TAF ENMS 140500Z 1406/1415 18003KT 0200 FG VV001 BECMG 1406/1408 CAVOK
ENNA,ENNA 1406/1506 18005KT 9999 BKN025 TEMPO 1406/1409 BKN008
ENNE,TAF ENNE 140500Z 1406/1415 16030KT 9999 SCT015 BKN040 TEMPO 1406/1407 SHRA BKN014CB
ENOA,ENOA 1406/1506 19038KT 9999 FEW015 BKN020 TEMPO 1406/1410 4000 SHRA BKN012CB PROB30 TEMPO 1406/1410 TS BKN008CB BECMG 1408/1411 23020KT TEMPO 1418/1422 SHRA BKN012CB PROB30 TEMPO 1418/1420 TS
ENOL,ENOL 1406/1506 14014KT 9999 FEW005 TEMPO 1414/1418 24015G25KT FEW020CB BECMG 1502/1504 23012KT TEMPO 1503/1506 RA
ENOV,TAF ENOV 140500Z 1406/1415 VRB03KT 9999 SCT040 BKN080 TEMPO 1406/1412 20015G25KT TEMPO 1410/1415 SHRA BKN014CB
ENRA,TAF ENRA 140500Z 1406/1415 VRB03KT CAVOK PROB30 1406/1408 0500 FG VV002
ENRM,TAF ENRM 140500Z 1406/1413 08005KT CAVOK
ENRO,TAF COR ENRO 140500Z 1406/1415 VRB03KT 9999 FEW003 SCT010 TEMPO 1406/1408 0300 FZFG VV001 BECMG 1409/1411 18010KT
ENRY,ENRY 1406/1506 17005KT 0500 FG VV001 TEMPO 1406/1409 9999 BKN008 BECMG 1409/1411 BKN020 BECMG 1422/1424 BKN012 PROB40 1500/1506 4000 -RA BKN008
ENSB,ENSB 1406/1506 25006KT 9999 FEW030 SCT035 BECMG 1410/1412 31010KT BECMG 1414/1417 14008KT
ENSD,TAF ENSD 140500Z 1406/1415 08005KT 9999 BKN040 TEMPO 1406/1412 VRB15G25KT TEMPO 1409/1412 SHRA BKN020CB
ENSH,TAF ENSH 140500Z 1406/1412 20009KT 9999 FEW015 BKN040
ENSK,TAF ENSK 140500Z 1406/1415 14005KT 9999 FEW030 BKN040
ENSR,TAF ENSR 140500Z 1406/1415 16005KT 9999 SCT050
ENTC,ENTC 1406/1506 20008KT 9999 BKN035
ENTO,ENTO 1406/1506 VRB05KT 9000 BR SCT002 TEMPO 1406/1408 0500 FG VV002 BECMG 1407/1409 BKN008 BECMG 1410/1412 19010KT BKN020 TEMPO 1420/1424 BKN012 PROB40 1500/1506 4000 -RA BKN008
ENVA,ENVA 1406/1506 13006KT CAVOK TEMPO 1409/1415 16015G25KT PROB40 TEMPO 1418/1503 SHRA BKN030CB TEMPO 1503/1506 SHRA BKN014CB
ENVD,TAF ENVD 140500Z 1406/1415 32008KT 9999 FEW008 BKN020 TEMPO 1414/1415 BKN012
ENZV,ENZV 1406/1506 14008KT 9999 -RA FEW020 BKN030 BECMG 1409/1412 17015G25KT TEMPO 1408/1502 4000 SHRA BKN012CB BECMG 1413/1415 19008KT
EPBY,TAF EPBY 140530Z 1406/1506 10006KT 9999 SCT042 TEMPO 1406/1408 3000 MIFG BR BECMG 1410/1412 17006KT BKN025 PROB30 TEMPO 1413/1418 -SHRA BKN020TCU TEMPO 1422/1506 3000 MIFG BR BKN004
EPCE,TAF EPCE 140500Z 1406/1415 17004KT CAVOK TEMPO 1406/1415 BKN030
EPDA,TAF EPDA 140500Z 1406/1415 15005KT CAVOK TEMPO 1408/1415 BKN034
EPDE,TAF EPDE 140500Z 1406/1415 12003KT 1200 MIFG BR SCT003 BECMG 1407/1409 13010KT 9999 BKN030 BKN150
EPGD,TAF EPGD 140530Z 1406/1506 19005KT 9999 SCT030 PROB30 1406/1408 3000 BR TEMPO 1420/1506 3000 BR PROB40 1422/1506 0500 FG BKN002
EPIR,TAF EPIR 140500Z 1406/1415 15006KT 4000 BR NSC PROB30 1406/1408 0500 FG BKN002 BECMG 1408/1410 18008KT 9999 BKN030
EPKK,TAF EPKK 140530Z 1406/1506 05002KT 9999 BKN040 TEMPO 1413/1420 -SHRA BKN020CB BECMG 1420/1423 2000 BR TEMPO 1420/1506 0800 FG BKN005
EPKS,TAF EPKS 140200Z 1403/1412 18004KT 8000 BKN030 TEMPO 1403/1407 4000 BR BKN006 BECMG 1407/1409 9999 BKN020 PROB30 1409/1412 5000 -RA BR
EPKT,TAF EPKT 140530Z 1406/1506 VRB02KT 9999 BKN035 BECMG 1406/1409 22010KT TEMPO 1412/1418 -SHRA BKN020CB TEMPO 1418/1506 2000 BR BKN005
EPLB,TAF EPLB 140530Z 1406/1506 14005KT 0400 FG BKN002 BECMG 1407/1410 CAVOK
EPLK,TAF EPLK 140500Z 1406/1415 19006KT 9999 BKN030
EPLL,TAF EPLL 140530Z 1406/1506 18005KT 3000 BR NSC BECMG 1406/1409 CAVOK
EPLY,TAF EPLY 140500Z 1406/1415 19006KT CAVOK
EPMB,TAF EPMB 140500Z 1406/1415 17006KT CAVOK
EPMI,TAF EPMI 140200Z 1403/1412 16002KT CAVOK BECMG 1403/1405 4000 BR BKN006 PROB30 TEMPO 1405/1408 1200 BR BKN004 BECMG 1408/1411 9999 BKN025
EPMM,TAF EPMM 140500Z 1406/1415 15006KT 9999 BKN040
EPMO,TAF EPMO 140530Z 1406/1506 15005KT CAVOK
EPOK,TAF EPOK 140500Z 1406/1415 18009KT CAVOK TEMPO 1406/1415 BKN040
EPPO,TAF EPPO 140530Z 1406/1506 16004KT CAVOK TEMPO 1422/1506 4000 BR
EPPR,TAF EPPR 140500Z 1406/1415 18006KT CAVOK TEMPO 1406/1415 BKN040
EPPW,TAF EPPW 140500Z 1406/1415 15006KT 5000 BR NSC BECMG 1409/1411 9999 BKN033 PROB30 1412/1415 -SHRA RA BKN020TCU
EPRA,TAF COR EPRA 140500Z 1406/1415 12006KT CAVOK
EPRZ,TAF EPRZ 140530Z 1406/1506 VRB02KT 0100 FG BKN001 BECMG 1406/1409 18010KT CAVOK TEMPO 1500/1506 -SHRA BKN020CB
EPSC,TAF EPSC 140530Z 1406/1506 12005KT 1500 BR NSC TEMPO 1406/1408 0300 FG BKN002 BECMG 1408/1409 9999 TEMPO 1502/1506 3000 RA BR BKN004 BKN012
EPSN,TAF EPSN 140500Z 1406/1415 17006KT 2500 BR NSC TEMPO 1406/1408 0600 FG BKN003 BECMG 1408/1410 9999 SCT025 PROB30 TEMPO 1410/1415 BKN020TCU
EPSY,TAF EPSY 140530Z 1406/1415 16005KT CAVOK
EPTM,TAF EPTM 140500Z 1406/1415 17006KT CAVOK
EPWA,TAF EPWA 140530Z 1406/1506 15005KT CAVOK
EPWR,TAF EPWR 140530Z 1406/1506 VRB02KT CAVOK TEMPO 1406/1407 4000 BR BECMG 1417/1419 18010KT BECMG 1504/1506 BKN013
EPZG,TAF EPZG 140530Z 1406/1415 VRB02KT 0600 FG NSC BECMG 1406/1408 4000 BR BECMG 1408/1410 CAVOK
ESCF,TAF AMD ESCF 140530Z 1405/1413 19005KT CAVOK TEMPO 1405/1406 5000 BCFG RMK MIL
ESDF,TAF ESDF 140525Z 1406/1415 22003KT 5000 BR SCT004 BKN013 TEMPO 1406/1409 2000 DZ OVC003 BECMG 1409/1412 9999 NSW BKN025 RMK MIL
ESGG,TAF ESGG 140530Z 1406/1506 19008KT 3000 BR OVC005 TEMPO 1406/1409 0200 FG DZ OVC002 BECMG 1409/1411 9999 NSW BKN015 TEMPO 1419/1422 BKN008 BECMG 1422/1424 BKN006 TEMPO 1422/1506 2000 BR BKN004
ESGJ,TAF ESGJ 140530Z 1406/1414 18005KT 4500 BR OVC004 BECMG 1406/1408 9999 NSW SCT006 BKN015 TEMPO 1408/1414 BKN007 TEMPO 1408/1412 BKN006
ESGP,TAF ESGP 140530Z 1406/1415 22007KT 9999 SCT008 OVC015 PROB40 1406/1408 BKN009
ESGT,TAF ESGT 140530Z 1406/1415 19009KT 9999 SCT007 BKN015 PROB40 1406/1409 BKN008
ESIB,TAF ESIB 140530Z 1406/1415 18010KT 9999 BKN008 TEMPO 1406/1408 4000 BR BKN005 BECMG 1408/1410 BKN020 RMK MIL
ESKN,TAF AMD ESKN 140532Z 1406/1506 18005KT 0200 FG SCT030 BECMG 1406/1408 9999 NSW
ESMK,TAF ESMK 140508Z 1406/1415 22005KT 9999 BKN020 TEMPO 1406/1409 2500 BR BKN008
ESMQ,TAF ESMQ 140530Z 1406/1415 20005KT 4500 BR OVC008 BECMG 1406/1408 9999 NSW BKN015
ESMS,TAF ESMS 140508Z 1406/1506 23008KT 9999 BKN020 TEMPO 1406/1407 0100 FG BKN003 TEMPO 1409/1412 BKN014 TEMPO 1500/1503 -RADZ BKN010
ESMT,TAF ESMT 140508Z 1406/1415 18005KT 2000 BR BKN004 TEMPO 1406/1408 6000 NSW BKN012 BECMG 1408/1410 9999 NSW BKN015
ESMX,TAF ESMX 140530Z 1406/1415 20006KT 6000 OVC005 TEMPO 1406/1408 0300 FG VV002 BECMG 1408/1410 FEW010 BKN015 PROB40 1410/1414 BKN012
ESNG,TAF ESNG 140530Z 1406/1415 31006KT 9999 BKN030PROB40 1406/1407 2000 BCFG
ESNK,TAF ESNK 140530Z 1406/1415 VRB03KT 0300 FG VV002 TEMPO 1406/1408 3000 BR FEW004 BKN045 BECMG 1408/1410 6000 NSW PROB40 1410/1415 BKN005
ESNN,TAF AMD ESNN 140439Z 1404/1406 VRB02KT 5000 FEW002 BKN045 PROB40 1404/1406 0500 FG VV002
ESNQ,TAF ESNQ 140230Z 1403/1406 21005KT CAVOK
ESNS,TAF ESNS 140530Z 1406/1415 27005KT 9999 BKN025
ESNU,TAF ESNU 140530Z 1406/1415 VRB02KT 0200 FG VV002 BECMG 1406/1408 9999 NSW PROB40 1408/1412 1200 BR NSC BECMG 1412/1414 BKN006
ESNX,TAF ESNX 140530Z 1406/1415 30004KT CAVOK
ESNZ,TAF ESNZ 140530Z 1406/1415 12004KT 9999 BKN030 PROB40 1406/1409 1200 BR BKN003 PROB40 1409/1412 BKN008
ESOE,TAF ESOE 140530Z 1406/1415 18003KT 9999 BKN017 TEMPO 1406/1415 BKN014
ESOK,TAF ESOK 140530Z 1406/1415 19004KT 2500 BR BKN003 BECMG 1406/1408 7000 NSW BKN008 BECMG 1408/1410 BKN025
ESOW,TAF ESOW 140530Z 1406/1415 19003KT 0300 PRFG NSC BECMG 1406/1408 9999NSW
ESPA,TAF ESPA 140530Z 1406/1415 32004KT 9999 SCT040
ESSA,TAF ESSA 140530Z 1406/1506 18005KT 0100 PRFG VV002 BECMG 1406/1408 9999 NSW PROB40 1406/1408 FEW003 BECMG 1409/1411 BKN030 PROB40 1500/1506 2000 BR BKN003
ESSB,TAF ESSB 140530Z 1406/1415 18005KT 4000 BCFG NSC BECMG 1406/1407 9999 NSW
ESSD,TAF ESSD 140530Z 1406/1415 18005KT 9999 -RA BKN006 PROB40 1406/1408 BKN004 BECMG 1408/1410 BKN020
ESSL,TAF ESSL 140530Z 1406/1415 18006KT 2000 BCFG NSC BECMG 1406/1407 9999 NSW PROB40 1407/1410 BKN012
ESSP,TAF ESSP 140530Z 1406/1414 20005KT 0100 FG VV001 BECMG 1406/1408 8000 NSW BKN020
ESSV,TAF ESSV 140530Z 1406/1415 20005KT 6000 FEW015 PROB40 1406/1415 4000 -RADZ BR BKN013
ESTA,TAF ESTA 140508Z 1406/1415 18005KT 1500 BR BKN004 TEMPO 1406/1408 6000 NSW BKN015 BECMG 1408/1410 9999 NSW BKN015
ESTL,TAF ESTL 140508Z 1406/1415 18005KT 9999 BKN015 TEMPO 1406/1408 4000 BR BKN008 TEMPO 1410/1412 BKN012
ETAD,TAF ETAD 140400Z 1404/1510 20005KT 6000 BR OVC003 QNH2994INS TEMPO 1404/1407 2400 BR OVC002 BECMG 1408/1409 18010KT 6000 -SHRA BKN005 QNH2989INS BECMG 1414/1415 21009KT 8000 -RA OVC004 QNH2987INS BECMG 1502/1503 18006KT 5000 BR BKN005 QNH2983INS TX14/1414Z TN11/1503Z
ETAR,TAF AMD ETAR 140437Z 1404/1508 22006KT 9999 BKN010 OVC015 QNH2996INS BECMG 1407/1408 20010G15KT 9000 -SHRA BKN010 QNH2984INS BECMG 1417/1418 VRB06KT 9000 -RA BKN010 QNH2979INS BECMG 1421/1422 25009KT 8000 -RA BKN015 QNH2976INS TX16/1414Z TN14/1404Z
ETEB,TAF ETEB 131500Z 1315/1421 18003KT 9999 SCT015 BKN030 OVC050 QNH3009INS BECMG 1318/1319 25003KT 5000 -SHRA BR SCT015 BKN040 QNH3008INS BECMG 1322/1323 21006KT 5000 BR FEW008 BKN030 OVC050 QNH3008INS BECMG 1408/1409 21006KT 9999 NSW FEW020 BKN030 QNH3003INS BECMG 1415/1416 21009KT 9999 OVC030 QNH2996INS TX16/1411Z TN11/1321Z LAST NO AMDS AFT 1322 NEXT 1407
ETHA,TAF ETHA 140415Z 1405/1414 27007KT 9999 NSW BKN060 BKN080
ETHB,TAF COR ETHB 140439Z 1405/1414 22007KT 8000 NSW SCT012 BKN050 TEMPO 1405/1408 22005KT 6000 NSW BKN010
ETHC,TAF COR ETHC 140433Z 1405/1414 20004KT 6000 -DZ SCT012 BKN020 TEMPO 1405/1409 20003KT 3000 RADZ BKN008 BECMG 1409/1411 20007KT 9999 NSW BKN030
ETHF,TAF ETHF 140420Z 1405/1414 20005KT 9999 NSW SCT015 BKN035 TEMPO 1405/1408 21008KT 7000 NSW BKN008 TEMPO 1413/1414 22010KT 5000 -DZRA SCT020 BKN030
ETHL,TAF ETHL 140422Z 1405/1414 22005KT 8000 NSW FEW010 BKN050 TEMPO 1405/1408 VRB02KT 3000 BR BKN010 TEMPO 1411/1414 23010KT 4000 RA BKN008 BKN030
ETHN,TAF ETHN 140417Z 1405/1414 22005KT 4000 BR BKN003 BKN030 BECMG 1406/1408 19007KT 9999 NSW FEW010 BKN050
ETHS,TAF ETHS 140415Z 1405/1414 22005KT 5000 BR SCT007 OVC012 TEMPO 1405/1409 22003KT 2000 DZ BKN002 OVC006 BECMG 1409/1411 23008KT 8000 NSW SCT012 BKN030 BY ETGQ
ETIC,TAF ETIC 140200Z 1402/1508 25003KT 3600 BR BKN010 OVC050 QNH3005INS BECMG 1408/1409 21005KT 9999 NSW SCT006 BKN020 QNH3002INS BECMG 1419/1420 18007KT 6000 -SHRA BKN006 OVC020 QNH2997INS BECMG 1507/1508 26005KT 9999 NSW BKN006 OVC015 QNH2989INS TX16/1415Z TN08/1404Z
ETIK,TAF ETIK 132200Z 1322/1504 21004KT 9999 OVC060 QNH3006INS BECMG 1323/1324 VRB06KT 8000 BR SCT015 OVC030 QNH3004INS BECMG 1401/1402 VRB06KT 4800 BR BKN015 QNH3003INS BECMG 1405/1406 VRB06KT 6000 BR BKN015 QNH3003INS BECMG 1409/1410 21009KT 9999 NSW SCT025 BKN030 QNH2998INS BECMG 1416/1417 23009KT 8000 -SHRA BKN020 OVC035 QNH2995INS BECMG 1502/1503 21009KT 6000 BR BKN010 OVC030 QNH2988INS TX17/1412Z TN08/1404Z LAST NO AMDS AFT 1322 NEXT 1406
ETMN,TAF ETMN 140421Z 1405/1414 22005KT 0400 FG VV000 BKN040 BECMG 1406/1408 19005KT 3000 BR BKN003 BKN040 BECMG 1408/1410 19010KT 9999 NSW SCT015 BKN040 BECMG 1413/1414 18008KT 9999 -RA SCT015 OVC040
ETNG,TAF ETNG 140500Z 1406/1421 18003KT 9999 BKN020 BECMG 1408/1410 21008KT TEMPO 1409/1414 4500 -RADZ BKN012 BECMG 1415/1417 SCT025 BKN080
ETNH,TAF ETNH 140424Z 1405/1414 20005KT 1500 BR BKN001 BECMG 1406/1408 21006KT 2000 BR BKN002 BECMG 1408/1410 21008KT 8000 NSW BKN025 TEMPO 1410/1414 19008KT 6000 NSW BKN012 BY ETGL
ETNL,TAF ETNL 140424Z 1405/1417 22006KT 8000 NSW BKN012 TEMPO 1405/1408 20003KT 3000 BR BKN005 TEMPO 1408/1411 22006KT 4000 BR BKN007 BECMG 1409/1411 20006KT 9999 NSW BKN025 BY ETGL
ETNN,TAF ETNN 140422Z 1405/1414 17003KT 9999 NSW FEW020 BKN030 BECMG 1408/1409 14005KT 8000 -RA FEW012 BKN020 TEMPO 1409/1414 15007KT 4000 RA BKN012 BY ETGL
ETNS,TAF ETNS 140424Z 1405/1414 20005KT 1500 BR BKN001 BECMG 1406/1408 21006KT 2000 BR BKN002 BECMG 1408/1410 21008KT 8000 NSW BKN025 TEMPO 1410/1414 19008KT 6000 NSW BKN012 BY ETGL
ETNW,TAF ETNW 140419Z 1405/1505 20005KT 4000 BR SCT008 BKN020 TEMPO 1405/1408 21005KT 3000 -RA BKN005 BECMG 1408/1410 19006KT 9999 NSW SCT020 BKN030 PROB30 1415/1421 16008KT 4000 SHRA BKN020TCU BECMG 1421/1423 18006KT 2000 RA BKN007 BY ETGL
ETOU,TAF ETOU 140400Z 1404/1510 18003KT 6000 BR BKN008 OVC012 QNH2998INS TEMPO 1404/1409 3000 BR OVC002 BECMG 1409/1410 17006KT 9999 NSW SCT005 BKN010 QNH2992INS TEMPO 1410/1413 6000 BR BECMG 1413/1414 17009KT 6000 -SHRA SCT008 BKN010 QNH2986INS BECMG 1416/1417 21006KT 6000 BR SCT008 BKN010 QNH2981INS BECMG 1421/1422 20003KT 6000 -SHRA SCT005 BKN010 QNH2977INS TEMPO 1501/1505 3000 BR BKN003 TX15/1410Z TN12/1404Z
ETSH,TAF ETSH 140412Z 1405/1414 18005KT 9999 NSW SCT030 BKN060 TEMPO 1405/1407 15002KT 6000 NSW BKN060
ETSI,TAF ETSI 140411Z 1405/1414 23005KT 9999 NSW FEW020 BKN050 TEMPO 1405/1409 21003KT 6000 NSW BKN020 BKN100
ETSN,TAF AMD ETSN 140522Z 1405/1414 20003KT 7000 NSW FEW015 BKN050 TEMPO 1405/1407 VRB02KT 2000 MIFG SCT010 BKN030 BECMG 1408/1410 23005KT 8000 NSW SCT015 BKN060 BY ETGL
EVGA,TAF EVGA 140502Z 1406/1506 16005KT 9999 BKN030 TEMPO 1406/1409 BKN012 TEMPO 1500/1506 BKN010
EVLA,TAF EVLA 140504Z 1406/1506 17007KT 9999 BKN030 TEMPO 1406/1418 BKN010 BKN020CB TEMPO 1500/1506 BKN008
EVRA,TAF EVRA 140500Z 1406/1506 17007KT 9999 BKN030 TEMPO 1503/1506 BKN010
EYKA,TAF EYKA 140500Z 1406/1506 15007KT 9000 SCT040 TEMPO 1406/1408 SCT005 BECMG 1410/1412 BKN035 TEMPO 1422/1506 BKN005
EYPA,TAF EYPA 140500Z 1406/1506 16010KT 9000 BKN040 TEMPO 1406/1408 SCT010 TEMPO 1416/1424 BKN030CB TEMPO 1500/1506 5000 SHRA BKN005 BKN015CB
EYSA,TAF EYSA 140500Z 1406/1415 17008KT 9000 NSC BECMG 1409/1411 BKN045
EYVI,TAF EYVI 140500Z 1406/1506 17008KT 9000 SCT045 PROB40 TEMPO 1406/1408 0500 FG SCT002 BECMG 1421/1423 BKN045
FABL,TAF FABL 140400Z 1406/1506 VRB03KT CAVOK TX34/1412Z TN16/1504Z BECMG 1408/1410 32012KT BECMG 1417/1419 20010KT PROB30 TEMPO 1421/1500 FEW090TCU BECMG 1500/1502 05010KT
FACT,TAF FACT 140400Z 1406/1512 20012KT CAVOK TX22/1412Z TN13/1504Z BECMG 1408/1410 18022KT FM141200 18022KT 9999 BKN020 PROB30 TEMPO 1412/1418 18022G32KT BECMG 1420/1422 18012KT FM150900 18010KT CAVOK
FAEL,TAF AMD FAEL 140325Z 1404/1415 24010KT 9999 SCT015 BKN020 TX23/1412Z TN20/1404Z TEMPO 1404/1407 BKN013 BECMG 1413/1415 17010KT
FAGG,TAF FAGG 140400Z 1406/1506 VRB03KT 9999 BKN030 TX21/1412Z TN14/1504Z BECMG 1412/1414 12018KT PROB30 TEMPO 1412/1416 BKN010 PROB40 TEMPO 1416/1506 3500 -RA BKN008
FAKM,TAF FAKM 140300Z 1404/1415 VRB03KT CAVOK TX35/1412Z TN17/1404Z BECMG 1409/1411 34010KT PROB30 TEMPO 1412/1415 FEW080TCU BECMG 1413/1415 20012KT
FALA,TAF FALA 140400Z 1406/1506 VRB03KT CAVOK TX31/1413Z TN16/1504Z PROB30 TEMPO 1415/1418 FEW055TCU BECMG 1419/1421 07011KT
FALE,TAF FALE 140400Z 1406/1512 20016KT 9999 SCT020 TX24/1411Z TN19/1503Z PROB30 TEMPO 1415/1421 5000 TSRA BKN015 FEW035CB FM150400 19006KT 9999 SCT015 BKN030
FAMM,TAF FAMM 140300Z 1404/1415 02015KT CAVOK TX33/1413Z TN15/1404Z FM141000 36009KT CAVOK BECMG 1413/1415 VRB03KT
FAOR,TAF FAOR 140400Z 1406/1512 35008KT CAVOK TX29/1413Z TN14/1503Z BECMG 1408/1410 VRB03KT PROB30 TEMPO 1414/1418 FEW055TCU BECMG 1418/1420 06011KT BECMG 1506/1508 36009KT
FAPE,TAF FAPE 140400Z 1406/1506 23013KT 9999 BKN030 TX21/1410Z TN16/1504Z TEMPO 1414/1418 -RA BKN018 BECMG 1418/1420 10011KT 9999 SCT008 BKN020 TEMPO 1419/1506 3000 RA BKN005
FAPM,TAF FAPM 140300Z 1404/1415 10006KT CAVOK TX27/1411Z TN21/1415Z PROB30 TEMPO 1412/1415 5000 -TSRA BKN015 FEW045CB
FAPP,TAF FAPP 140300Z 1404/1415 VRB03KT CAVOK TX33/1413Z TN14/1404Z BECMG 1410/1412 07010KT PROB30 TEMPO 1411/1415 TS FEW045CB
FARB,TAF FARB 140300Z 1404/1415 01008KT 9999 SCT020 TX25/1411Z TN20/1415Z BECMG 1405/1407 21015KT
FAUP,TAF FAUP 140400Z 1406/1506 VRB03KT CAVOK TX35/1412Z TN20/1504Z PROB30 TEMPO 1412/1416 FEW090TCU
FAUT,TAF FAUT 140300Z 1404/1415 15004KT CAVOK TX25/1412Z TN21/1404Z BECMG 1411/1413 9999 BKN008 TEMPO 1413/1415 4000 DZ BKN005
FAWB,TAF FAWB 140300Z 1404/1415 VRB03KT CAVOK TX33/1413Z TN19/1404Z
FAWK,TAF FAWK 140300Z 1404/1415 VRB03KT CAVOK TX30/1413Z TN18/1404Z
FBKE,FBKE 140300Z 1406/1415 08005KT CAVOK
FBMN,FBMN 140400Z 1406/1506 06006KT CAVOK
FBPM,FBPM 140400Z 1406/1506 04005KT CAVOK
FBSK,FBSK 140400Z 1406/1512 04005KT CAVOK
FCBB,TAF FCBB 140500Z 1406/1512 26004KT 8000 SCT016 BECMG 1412/1415 SCT020 FEW030CB PROB30 1416/1420 TS BECMG 1420/1422 SCT015
FCPP,TAF COR FCPP 140500Z 1406/1506 18006KT 9000 SCT010 BKN020 BECMG 1413/1415 SCT015 FEW030CB BECMG 1417/1418 FEW010 BKN020
FEFF,TAF FEFF 140500Z 1406/1512 VRB03KT 9999 FEW010 BECMG 1407/1409 BKN013 BECMG 1410/1412 BKN023 FEW033CB PROB30 TEMPO 1413/1417 VRB15KT 4000 TSRA TEMPO 1417/1420 TSRA BKN012 FEW033CB FM142100 VRB03KT 7000 FEW010
FGBT,FGBT 140500Z 1406/1506 18006KT 9999 SCT010 PROB40 TEMPO 1406/1409 2000 +TSRA BKN008 SCT018CB PRO30 TEMPO 1415/1419 3000 TSRA BKN010 FEW020CB
FGSL,TAF FGSL 140500Z 1406/1512 25008KT 9999 SCT010 TEMPO 1406/1411 1500 +TSRA BKN008 SCT018CB PROB40 TEMPO 1413/1418 2000 +TSRA BKN010 FEW020CB
FHAW,TAF AMD FHAW 140430Z 1406/1424 14010KT 9999 FEW016 SCT040 PROB30 TEMPO 1406/1410 7000 -SHRA SCT016 PROB30 TEMPO 1421/1424 6000 -SHRA SCT014
FIMP,TAF COR FIMP 140500Z 1406/1512 11012G25KT 9999 SCT017 TEMPO 1406/1408 7000 -SHRA BKN016
FIMR,TAF FIMR 140500Z 1406/1500 11020G32KT 9999 SCT018
FJDG,TAF FJDG 140100Z 1401/1507 16012KT 9999 SCT030 QNH2984INS TX30/1405Z TN25/1501Z FOR MIL USE ONLY
FKKD,TAF FKKD 140500Z 1406/1512 VRB03KT 8000 -TSRA BKN013 FEW016CB BECMG 1409/1411 NSW BKN016 FEW020CB TEMPO 1415/1419 TS BECMG 1420/1422 BKN013 FEW016CB
FLCP,TAF FLCP 122200Z 1300/1406 09010KT 9999 SCT010 BECMG 1304/1308 09010G15KT 9000 HZ NSC BECMG 1310/1314 09010KT
FLHN,TAF FLHN 122200Z 1300/1406 VRB03KT CAVOK BECMG 1220/1222 05005KT CAVOK BECMG 1304/1306 09010KT BECMG 1316/1318 12010KT
FLKK,TAF FLKK 122200Z 1300/1406 09010KT CAVOK BECMG 1304/1308 09010G15KT 8000 HZ NSC BECMG 1310/1314 FEW035
FLKS,TAF FLKS 122200Z 1300/1406 16010KT CAVOK BECMG 1305/1309 09010KT BECMG 1314/1318 15010KT
FLMA,TAF FLMA 122200Z 1300/1406 09005KT CAVOK BECMG 1304/1306 09010KT BECMG 1307/1311 09010G15KT BECMG 1314/1318 09010KT
FLMF,TAF FLMF 122200Z 1300/1406 09010KT 9999 SCT010 BECMG 1304/1308 09010G15KT 9000 HZ NSC BECMG 1310/1314 09010KT
FLMG,TAF FLMG 122200Z 1300/1406 09010KT CAVOK BECMG 1307/1309 05010KT 9999 FEW025 BECMG 1310/1312 BKN030 BECMG 1313/1315 07005KT SCT035
FLSK,TAF FLSK 122200Z 1300/1406 12010KT CAVOK BECMG 1305/1308 09010KT 8000 FU NSC BECMG 1309/1311 FEW030
FLSW,TAF FLSW 122200Z 1300/1406 15005KT CAVOK BECMG 1304/1308 09010KT BECMG 1310/1312 09005KT 9999 FEW035 BECMG 1313/1315 VRB03KT SCT040
FMCH,TAF FMCH 140500Z 1406/1512 24010KT 9999 SCT020 PROB30 TEMPO 1409/1416 4500 SHRA BECMG 1415/1418 09003KT BECMG 1505/1507 22012KT
FMCZ,TAF FMCZ 140500Z 1406/1506 28006KT 9999 FEW025 SCT040 PROB30 TEMPO 1407/1413 SHRA SCT020TCU
FMEE,TAF FMEE 140500Z 1406/1512 14019KT 9999 SCT050 BKN070 BECMG 1407/1409 11020G30KT CAVOK BECMG 1414/1418 12010KT BECMG 1506/1508 11015G25KT
FMEP,TAF FMEP 140500Z 1406/1415 11020KT 9999 SCT050 BECMG 1407/1409 10020G35KT
FMMI,TAF FMMI 140500Z 1406/1512 14015KT 9999 SCT017 BKN020 BECMG 1418/1420 16005KT BECMG 1506/1508 10010KT
FMMS,TAF FMMS 140500Z 1406/1506 16010KT 9999 FEW007 SCT017TCU BKN033 PROB40 TEMPO 1406/1413 4000 SHRA PROB40 TEMPO 1418/1506 4000 SHRA
FMMT,TAF FMMT 140500Z 1406/1506 VRB06KT 9999 FEW007 SCT017TCU BKN033 PROB40 TEMPO 1406/1413 4000 SHRA PROB40 TEMPO 1418/1506 4000 SHRA
FMNA,TAF FMNA 140500Z 1406/1506 14015G30KT 9999 FEW020
FMNM,TAF FMNM 140500Z 1406/1506 14010KT 9999 FEW023 BECMG 1410/1412 34010KT BECMG 1416/1418 10010KT
FMNN,TAF FMNN 140500Z 1406/1506 VRB02KT 9999 FEW020 BECMG 1409/1411 27012KT BECMG 1415/1417 VRB02KT PROB30 TEMPO 1418/1502 4500 SHRA
FMSD,TAF FMSD 140500Z 1406/1506 08018G35KT 9999 FEW020
FMST,TAF FMST 140500Z 1406/1506 VRB02KT 9999 FEW023 BECMG 1409/1411 27012KT BECMG 1418/1421 VRB02KT
FNBG,TAF FNBG 132300Z 1400/1412 VRB02KT 9999 SCT020 TEMPO 1410/1412 26006KT
FNCA,TAF FNCA 132300Z 1400/1412 18008KT 5000 -TSRA SCT012 BKN020 FEW022CB
FNCT,TAF FNCT 132300Z 1400/1412 VRB03KT 9000 SCT015 BECMG 1409/1411 28008KT
FNDU,TAF FNDU 132300Z 1400/1412 VRB03KT 8000 SCT018
FNGI,TAF FNGI 132300Z 1400/1412 28005KT 9999 FEW020
FNHU,TAF FNHU 132300Z 1400/1412 VRB03KT 9999 SCT015
FNKU,TAF FNKU 132300Z 1400/1412 12006KT 9999 SCT020 BECMG 1410/1412 07008KT
FNLU,TAF FNLU 140500Z 1406/1512 17005KT 8000 FEW020 BKN040 BECMG 1413/1417 26010KT
FNMA,TAF FNMA 132300Z 1400/1412 27005KT 8000 SCT015
FNME,TAF FNME 132300Z 1400/1412 08005KT 9999 FEW015
FNMO,TAF FNMO 132300Z 1400/1412 17006KT 8000 SCT018 TEMPO 1410/1412 23012KT
FNSA,TAF FNSA 132300Z 1400/1412 VRB03KT 9999 FEW016
FNSO,TAF FNSO 132300Z 1400/1412 20008KT 8000 BKN012FEW020CB PROB30 TEMPO 1401/1405 6000 -RADZ
FNUB,TAF FNUB 132300Z 1400/1412 VRB03KT 9999 FEW020 PROB30 TEMPO 1409/1412 5000 RADZ SCT012 FEW018CB
FNUE,TAF FNUE 132300Z 1400/1412 09006KT 9999 FEW022
FOOG,TAF FOOG 140500Z 1406/1506 20007KT 9999 SCT008 BKN030 PROB40 TEMPO 1407/1410 4000 TSRA BKN010 FEW018CB
FOOL,TAF FOOL 140500Z 1406/1512 23006KT 4000 TSRA SCT008 BKN030 TEMPO 1406/14011 2500 TSRA BKN008 OVC026 BECMG 1411/1413 8000 NSW
FQBR,TAF FQBR 140400Z 1406/1512 36006KT 9999 FEW020 TX32/1413Z TN22/1503Z BECMG 1412/1414 10015KT BECMG 1419/1421 08010KT
FQCH,TAF FQCH 140400Z 1406/1506 VRB03KT 4000 BR NSC TX35/1413Z TN17/1503Z FM140700 09007KT 9999 FEW020 BECMG 1412/1414 11012KT BECMG 1418/1420 10005KT
FQIN,TAF FQIN 140400Z 1406/1506 10007KT 9999 FEW020 TX29/1413Z TN22/1503Z BECMG 1412/1414 06012KT BECMG 1418/1420 05007KT
FQLC,TAF FQLC 140400Z 1406/1506 09008KT 9999 FEW018 TX28/1413Z TN13/1503Z BECMG 1412/1414 10015KT BECMG 1418/1420 04007KT
FQMA,TAF FQMA 140400Z 1406/1512 36006KT 9999 FEW020 TX30/1413Z TN20/1503Z BECMG 1412/1414 10015KT BECMG 1419/1421 17010KT
FQNC,TAF FQNC 140400Z 1406/1512 VRB03KT 9999 SCT020 TX30/1413Z TN21/1503Z BECMG 1412/1414 06013KT
FQNP,TAF FQNP 140400Z 1406/1506 03008KT 9999 FEW020 TX32/1413Z TN18/1503Z BECMG 1412/1414 09013KT
FQPB,TAF FQPB 140400Z 1406/1506 10007KT 9999 FEW020 TX31/1413Z TN21/1503Z BECMG 1412/1414 10012KT BECMG 1418/1420 04007KT
FQQL,TAF FQQL 140400Z 1406/1506 04007KT 9999 FEW020 TX33/1413Z TN22/1503Z BECMG 1412/1414 09015KT BECMG 1418/1420 10010KT
FQTT,TAF FQTT 140400Z 1406/1506 14007KT 9999 FEW020 TX37/1413Z TN22/1503Z BECMG 1412/1414 16012KT BECMG 1418/1420 17006KT
FQVL,TAF FQVL 140400Z 1406/1506 05007KT 9999 BKN020 TX30/1413Z TN23/1503Z BECMG 1412/1414 06015KT BECMG 1418/1420 06010KT
FQXA,TAF FQXA 140400Z 1406/1506 35007KT 9999 FEW020 TX30/1413Z TN19/1503Z BECMG 1412/1414 11012KT
FSIA,TAF FSIA 132305Z 1400/1424 13010KT 9999 SCT022
FTTJ,TAF FTTJ 140500Z 1406/1512 05005KT 6000 NSC TEMPO 1408/1413 06016KT
FVJN,TAF FVJN 140400Z 1406/1512 12010KT CAVOK
FVRG,TAF FVRG 140400Z 1406/1512 08010KT CAVOK
FWCL,TAF FWCL 140500Z 1406/1512 16003KT 9000 HZ NSC BECMG 1407/1409 08009KT 9999 FEW030 BECMG 1412/1414 11008KT 9999 SCT035 BECMG 1415/1417 12004KT 9999 FEW035 FM141800 09010KT CAVOK BECMG 1508/1510 07010KT 9999 FEW030
FWKI,TAF FWKI 140400Z 1406/1512 06004KT CAVOK BECMG 1408/1410 05008KT 9999 FEW030 FM141100 11012KT CAVOK
FYGF,TAF FYGF 140500Z 1406/1415 00000KT CAVOK BECMG 1410/1412 08007KT 9999 SCT050
FYKM,TAF FYKM 140500Z 1406/1415 07006KT CAVOK
FYLZ,TAF FYLZ 140500Z 1406/1415 22004KT CAVOK BECMG 1408/1410 17015KT
FYOA,TAF FYOA 140500Z 1406/1415 00000KT CAVOK BECMG 1408/1410 09008KT 9999 FEW050 BECMG 1410/1412 SCT050
FYRU,TAF FYRU 140500Z 1406/1415 17003KT CAVOK BECMG 1408/1410 04008KT
FYWB,TAF FYWB 140400Z 1406/1506 06005KT 9999 OVC007 BECMG 1407/1409 34006KT BKN013 BECMG 1410/1412 24014KT CAVOK
FYWE,TAF FYWE 140500Z 1406/1415 19010KT CAVOK BECMG 1409/1411 10015KT 9999 SCT050 BECMG 1412/1414 FEW045TCU SCT050
FYWH,TAF FYWH 140400Z 1406/1506 18014KT CAVOK
FZAA,TAF FZAA 140500Z 1406/1512 20004KT 7000 SCT018 BECMG 1410/1412 32010KT SCT022 FEW030CB PROB30 TEMPO 1415/1419 TS BECMG 1422/1501 18004KT FEW016
FZIC,TAF FZIC 140500Z 1406/1512 21006KT 7000 SCT012 TEMPO 1408/1411 BKN014 FEW024CB BECMG 1411/1413 BKN020 FEW026CB BECMG 1416/1418 NSC FM150200 00000KT 1500 BR BKN003 FM150700 18008KT 8000 SCT016
FZNA,TAF FZNA 140500Z 1406/1512 09006KT 8000 SCT016 BECMG 1409/1411 21010KT SCT020 FEW024CB BECMG 1416/1418 05004KT SCT016
FZQA,TAF FZQA 140500Z 1406/1512 09012G20KT CAVOK BECMG 1414/1416 16008KT
GABS,TAF GABS 140500Z 1406/1512 VRB05KT 8000 FEW020 PROB40 TEMPO 1414/1422 VRB16G30KT 4000 TSRA BKN020 FEW033CB PROB30 TEMPO 1423/1504 12020G35KT 4000 TSRA SCT020 FEW033CB
GAGO,TAF GAGO 140500Z 1406/1506 10010G20KT 8000 NSC PROB40 TEMPO 1407/1412 4000 HZ PROB30 TEMPO 1415/1422 TS SCT030 FEW040CB
GBYD,TAF GBYD 140500Z 1406/1512 24008KT 9999 SCT013 PROB30 TEMPO 1416/1422 3000 TSRA BKN010 FEW030CB
GCFV,TAF GCFV 140200Z 1403/1503 02013KT 9999 FEW025 TX27/1414Z TN21/1406Z
GCGM,TAF GCGM 140200Z 1403/1503 VRB08G20KT 9999 SCT025 TX26/1414Z TN22/1406Z TEMPO 1403/1407 VRB15G30KT PROB40 TEMPO 1403/1407 03012KT
GCHI,TAF GCHI 140200Z 1403/1503 02017KT 9999 BKN020 TX25/1414Z TN21/1406Z PROB40 TEMPO 1403/1421 RA
GCLA,TAF GCLA 140200Z 1403/1503 36012KT 9999 BKN025 TX25/1414Z TN21/1406Z PROB40 TEMPO 1403/1412 RA
GCLP,TAF GCLP 140200Z 1403/1503 36017KT 9999 BKN030 TX26/1414Z TN20/1406Z PROB40 TEMPO 1403/1409 RA PROB30 TEMPO 1410/1418 01020G30KT
GCRR,TAF GCRR 140200Z 1403/1503 02014KT 9999 FEW025 TX27/1414Z TN21/1406Z TEMPO 1411/1417 08016KT
GCTS,TAF GCTS 140200Z 1403/1503 VRB06KT 9999 FEW025 TX28/1414Z TN21/1406Z BECMG 1407/1410 04015KT PROB30 TEMPO 1410/1418 08022G32KT
GCXO,TAF GCXO 140200Z 1403/1503 33011KT 9999 BKN015 TX21/1414Z TN16/1406Z TEMPO 1403/1415 3000 BCFG BKN007 PROB40 TEMPO 1403/1412 1200 RA BKN002
GECE,TAF GECE 140200Z 1403/1503 06012KT 9999 FEW012 BKN020 TX24/1414Z TN19/1406Z PROB40 TEMPO 1403/1411 4000 BR BKN010 PROB40 TEMPO 1418/1503 4000 BR BKN010
GEML,TAF GEML 140500Z 1406/1506 VRB02KT 9999 FEW012 SCT018 TX25/1413Z TN19/1506Z PROB30 TEMPO 1406/1410 4000 BR BKN010 BECMG 1406/1408 06010KT BECMG 1419/1421 VRB02KT
GFLL,TAF GFLL 130500Z 1306/1412 07004KT 5000 BR BKN008 FEW027CB TEMPO 1309/1313 12007KT 9999 BKN010 TEMPO 1316/1320 22006KT BKN011 TEMPO 1402/1406 VRB02KT 8000 TSRA BKN010 FEW026CB
GGOV,TAF GGOV 132300Z 1400/1424 VRB05KT 8000 SCT010 TEMPO 1402/1406 4000 TSRA BKN010 FEW015CB
GLRB,TAF GLRB 131100Z 1312/1412 22010KT 9999 BKN016 TEMPO 1315/1319 SCT020 BECMG 1322/1324 VRB02KT 7000 -TSRA BKN011 FEW022CB
GMAD,TAF GMAD 140500Z 1406/1512 07006KT 8000 NSC BECMG 1412/1414 28012KT BECMG 1419/1422 08006KT
GMAG,TAF GMAG 140500Z 1406/1512 21016KT 8000 FEW020
GMFF,TAF GMFF 140500Z 1406/1512 08006KT CAVOK
GMFK,TAF GMFK 140500Z 1406/1512 32008KT 9999 SCT026 FEW036CB BECMG 1408/1410 FEW030 SCT096
GMFM,TAF GMFM 132300Z 1400/1506 09012KT CAVOK TEMPO 1413/1421 9999 SCT020
GMFO,TAF GMFO 140500Z 1406/1512 36005KT 7000 NSC BECMG 1408/1412 9999 FEW026 TEMPO 1504/1510 18008KT
GMME,TAF GMME 140500Z 1406/1512 08005KT 5000 NSC BECMG 1408/1412 02011KT 9999 SCT015
GMMH,TAF GMMH 140500Z 1406/1512 36018KT 8000 NSC
GMMI,TAF AMD GMMI 140500Z 1406/1512 22015KT 8000 NSC
GMML,TAF GMML 140500Z 1406/1512 36014KT 4000 BR BKN020 BECMG 1407/1411 8000 NSW
GMMN,TAF GMMN 140500Z 1406/1512 12006KT 8000 SCT010 TEMPO 1406/1408 3000 BR SCT006 BECMG 1410/1413 36012KT CAVOK BECMG 1419/1422 16006KT
GMMW,TAF GMMW 140500Z 1406/1512 01006KT 8000 FEW010 SCT020
GMMX,TAF GMMX 140500Z 1406/1512 12006KT CAVOK TEMPO 1417/1421 04016KT
GMMZ,TAF GMMZ 140500Z 1406/1512 28004KT 9999 FEW030 TEMPO 1414/1420 18014G25KT
GMTA,TAF GMTA 140500Z 1406/1512 21005KT 9999 SCT040
GMTT,TAF GMTT 140500Z 1406/1512 08019KT 9000 SCT013 PROB40 TEMPO 1406/1505 09023G33KT
GOBD,TAF GOBD 140500Z 1406/1512 26008KT 9999 SCT015
GOGS,TAF GOGS 140500Z 1406/1506 24008KT 9999 SCT013 PROB40 TEMPO 1415/1421 3000 TSRA BKN010 FEW030CB
GOOY,TAF GOOY 140500Z 1406/1512 28008KT 8000 TS SCT012 FEW030CB BECMG 1407/1409 NSW SCT013
GOSS,TAF GOSS 140500Z 1406/1506 30008KT 9999 SCT013
GQNO,TAF GQNO 140500Z 1406/1512 26008KT 6000 NSC PROB40 TEMPO 1411/1415 06010KT BECMG 1414/1416 32010KT
GQPP,TAF GQPP 140500Z 1406/1506 36015KT 8000 NSC
GUCY,TAF GUCY 140500Z 1406/1512 28006KT 9999 FEW015 SCT110 PROB30 TEMPO 1416/1421 5000 -TSRA BKN012 FEW020CB BKN100
GVAC,TAF GVAC 140500Z 1406/1512 05015KT 9999 BKN014 TEMPO 1410/1418 SCT014
GVBA,TAF GVBA 132300Z 1400/1506 05014KT 9999 SCT014
GVNP,TAF GVNP 140500Z 1406/1512 03014KT 9999 SCT017
GVSV,TAF GVSV 140500Z 1406/1512 06018KT 9999 FEW018 PROB40 TEMPO 1410/1416 06020G30KT
HAAB,TAF HAAB 140330Z 1406/1512 09004KT 9999 SCT020 SCT070 BECMG 1408/1412 9000 -HZ/-RA BKN060
HADR,TAF HADR 140330Z 1406/1512 24006KT 9999 SCT070
HBBA,TAF HBBA 140500Z 1406/1512 36004KT 9999 FEW030 BECMG1409/1411 180010G25KT 9999 FEW025 SCT100 BECMG1414/1416 18012G25KT 9999 FEW030 BECMG1420/1422 00000KT CAVOK BECMG1502/1504 36004KT 9999 FEW030 BECMG1508/1510 18010G20KT
HCMM,TAF HCMM 131100Z 1312/1418 19015KT 9999 SCT022 SCT090 BECMG 1322/1401 18010KT BKN019 BECMG 1408/1411 20015KT SCT023
HDAM,HDAM 140500Z 1406/1506 08013KT 9999 SCT023 SCT133 BECMG 1415/1421 VRB05KT FEW020 FEW133 BECMG 1500/1506 13006KT 9000 HZ BKN020
HEAL,TAF HEAL 140500Z 1406/1512 27008KT 9999 SCT020
HEAR,TAF HEAR 140500Z 1406/1512 27008KT 9999 SCT025
HEAT,TAF HEAT 140500Z 1406/1512 34010KT CAVOK
HEAX,TAF HEAX 140500Z 1406/1512 33008KT 9999 SCT020
HEBA,TAF HEBA 140500Z 1406/1512 VRB03KT 9999 SCT020 BECMG 1407/1409 32008KT
HEBL,TAF HEBL 140500Z 1406/1512 35012KT CAVOK
HECA,TAF HECA 140500Z 1406/1512 VRB03KT CAVOK BECMG 1407/1409 33008KT
HEGN,TAF HEGN 140500Z 1406/1512 34015KT CAVOK
HELX,TAF HELX 140500Z 1406/1512 33006KT 6000 NSC
HEMA,TAF HEMA 140500Z 1406/1512 36015KT CAVOK
HEMM,TAF HEMM 140500Z 1406/1512 27008KT 9999 SCT020
HEOW,TAF HEOW 140500Z 1406/1512 36011KT 6000 NSC
HEPS,TAF HEPS 140500Z 1406/1512 32010KT 9999 SCT020
HESC,TAF HESC 140500Z 1406/1512 32010KT CAVOK
HESG,TAF HESG 140500Z 1406/1512 35011KT CAVOK
HESH,TAF HESH 140500Z 1406/1512 03015KT CAVOK
HESN,TAF HESN 140500Z 1406/1512 36014KT CAVOK
HETB,TAF HETB 140500Z 1406/1512 36012KT CAVOK
HETR,TAF HETR 140500Z 1406/1512 31018G28KT CAVOK
HKEL,TAF HKEL 140500Z 1406/1512 08010KT 9999 FEW022CB SCT023 TEMPO 1413/14 17 -TSRA FEW018CB BKN019 BKN080 BECMG 1420/1423 17005KT NSW FEW017 SC T080 BECMG 1508/1511 13005KT 9999 FEW020CB
HKJK,TAF HKJK 140500Z 1406/1512 10010KT 9999 FEW024 BECMG 1411/1414 SCT028 BECMG 1501/1505 18005KT BKN016 BECMG 1509/1511 12010KT SCT025
HKKI,TAF HKKI 140500Z 1406/1512 08010KT 9999 SCT026 TEMPO 1413/1417 -TSRA FEW021CB SCT022 BKN080 BECMG 1420/1423 06005KT NSW FEW017 SCT080 BECMG 1508/1511 24010KT FEW024CB SCT025
HKML,TAF HKML 140500Z 1406/1506 18010KT 9999 SCT023 BECMG 1409/1412 18020KT FEW025
HKMO,TAF HKMO 140500Z 1406/1512 15015KT 9999 FEW025 BECMG 1500/1503 22005KT SCT020
HKNW,TAF HKNW 132300Z 1400/1424 VRB02KT CAVOK BECMG 1408/1411 12010KT 9999 SCT026 BECMG 1421/1424 06005KT BKN018
HLGD,TAF HLGD 140500Z 1406/1506 24015G25KT 8000 SCT025 BECMG 1410/1412 35015G25KT
HLGT,TAF HLGT 140500Z 1406/1506 VRB02KT CAVOK BECMG 1414/1416 06010KT BECMG 1421/1423 VRB02KT
HLKF,TAF HLKF 140500Z 1406/1506 VRB02KT CAVOK BECMG 1410/1412 05012KT BECMG 1420/1422 VRB02KT
HLLB,TAF HLLB 140500Z 1406/1506 15015KT 8000 SCT025 SCT080 PROB30 TEMPO 1412/1506 6000 SHRA BKN024 BECMG 1412/1414 34015KT
HLLM,TAF HLLM 140500Z 1406/1506 35015KT 8000 SCT025 SCT080 TEMPO 1410/1506 6000 SHRA BKN024
HLLQ,TAF HLLQ 140500Z 1406/1506 22012KT 7000 SCT025 PROB30 TEMPO 1412/1506 6000 SHRA BKN024 BECMG 1414/1416 33012KT
HLLS,TAF HLLS 140500Z 1406/1506 VRB02KT CAVOK
HLMS,TAF HLMS 140500Z 1406/1506 35015G25KT 8000 SCT025 SCT080 PROB30 TEMPO 1418/1506 6000 SHRA BKN024
HLON,TAF HLON 140500Z 1406/1506 VRB02KT CAVOK BECMG 1410/1412 35014KT
HLTD,TAF HLTD 140500Z 1406/1506 VRB02KT 8000 SCT040 SCT080 BECMG 1416/1418 35012KT
HLTQ,TAF HLTQ 140500Z 1406/1506 VRB02KT 8000 FEW025 BECMG 1408/1410 23010KT BECMG 1414/1416 06012KT BECMG 1421/1423 34012KT PROB30 TEMPO 1500/1506 6000 SHRA BKN024
HLUB,TAF HLUB 140500Z 1406/1506 VRB02KT CAVOK
HRYR,HRYR 140500Z 1406/1512 00000KT 9999 FEW026 TEMPO 1412/1416 16010KT FEW023CB SCT025 BECMG 1419/1422 06007KT FEW026 BECMG 1505/1508 14006KT FM150800 12005KT SCT026
HRZA,HRZA 131700Z 1318/1424 02003KT 9999 SCT025 BECMG 1402/1405 34004KT FEW025 SCT100 FM140800 12006KT SCT025 TEMMPO1412/1416 16010G20KT FEW023CB SCT025 BECMG 1419/1422 09006KT SCT025
HSKA,TAF HSKA 140500Z 1406/1512 VRB03KT CAVOK TEMPO 1406/1408 8000 NSW TEMPO 1412/1415 9999 FEW040 SCT140
HSMK,TAF HSMK 130430Z 1306/1412 VRB05KT 9999 SCT090 SCT140 TEMPO 1312/1318 03005KT 9999 FEW045 SCT140
HSOB,TAF HSOB 140500Z 1406/1512 VRB03KT CAVOK TEMPO 1406/1408 8000 NSW TEMPO 1412/1415 9999 FEW040 SCT140
HSPN,TAF HSPN 140500Z 1406/1512 32008KT CAVOK BECMG 1408/1410 05012G22KT 6000 NSW
HSSJ,TAF HSSJ 130430Z 1306/1412 VRB03KT CAVOK BECMG 1308/1310 09004KT 9999 FEW090 SCT140 TEMPO 1312/1318 09006KT 03005KT 9999 FEW045 SCT090
HSSK,TAF HSSK 140500Z 1406/1512 02008G18KT CAVOK TEMPO 1406/1408 8000 NSW TEMPO 1412/1415 9999 FEW040 SCT140
HTAR,HTAR 140500Z 1406/1506 12015KT 9999 FEW035
HTDA,TAF HTDA 140500Z 1406/1512 00000KT 9999 SCT018 BECMG 1407/1410 09010KT
HTDO,HTDO 140500Z 1406/1506 09010KT 9999 NSC
HTKA,HTKA 130500Z 1306/1406 12008KT CAVOK TEMPO 1307/1313 21012KT 9999 FEW022
HTKJ,TAF HTKJ 140500Z 1406/1506 15010KT 9999 FEW030 BECMG 1410/1412 08013KT BECMG 1421/1423 VRB03KT
HTMW,HTMW 140500Z 1406/1506 12010KT 9999 FEW023 FEW024CB BECMG 1413/1415 34010KT
HTTB,HTTB 140500Z 1406/1506 13010KT CAVOK
HTZA,HTZA 140500Z 1406/1506 21010KT 9999 SCT018 BECMG 1410/1412 13015KT BECMG 1419/1421 12005KT
HUEN,TAF HUEN 140500Z 1406/1512 18010KT 9999 FEW023 FEW025CB TEMPO 1409/1411 TS SCT019 FEW021CB BECMG 1420/1504 36010KT
HUSO,TAF HUSO 140500Z 1406/1506 36005KT CAVOK FM 140900 23008KT 9999 FEW021 FEW023CB BECMG 1503/1506 02004KT FEW019
KABE,KABE 140520Z 1406/1506 31005KT P6SM VCSH OVC045 TEMPO 1406/1408 3SM BR FM140800 VRB04KT P6SM BKN050 TEMPO 1408/1410 3SM BR FM141700 27007KT P6SM FEW250
KABI,KABI 140524Z 1406/1506 VRB05KT P6SM SKC FM141600 19010KT P6SM SKC
KABQ,KABQ 140529Z 1406/1506 VRB06KT P6SM SKC FM141900 26007KT P6SM SKC FM150100 VRB06KT P6SM SKC
KABR,KABR 140521Z 1406/1506 23007KT P6SM BKN100 FM141500 33017G25KT P6SM OVC050 FM150000 VRB05KT P6SM BKN250
KABY,KABY 140536Z 1406/1506 VRB03KT P6SM FEW250
KACK,KACK 140530Z 1406/1506 14018G24KT P6SM FEW025 SCT045 SCT060 WS020/16055KT FM140700 15021G32KT 4SM -RA BR OVC025 WS020/16055KT FM141200 15027G45KT 4SM RA BR OVC008 WS020/16065KT FM141700 17020G34KT 1 1/2SM BR VCSH OVC003 WS020/17055KT FM142000 20013G22KT 1SM BR VCSH OVC003 WS020/16050KT FM142300 22008KT 3SM BR OVC025 WS020/18035KT
KACT,KACT 140520Z 1406/1506 VRB04KT P6SM SKC FM141500 18008KT P6SM SKC
KACV,KACV 140520Z 1406/1506 VRB03KT 1/2SM FG VV002 TEMPO 1406/1410 1/4SM FG FM141900 30006KT 6SM BR BKN003 FM150100 VRB03KT 1/2SM FG OVC002
KACY,KACY 140520Z 1406/1506 33010G18KT 4SM BR VCSH OVC015 TEMPO 1406/1407 3SM BR FM140700 33011G19KT 6SM BR VCSH OVC025 TEMPO 1407/1408 3SM BR FM140800 33010G18KT P6SM VCSH BKN035 TEMPO 1408/1409 3SM BR FM140900 34007KT P6SM BKN040 TEMPO 1409/1410 3SM BR FM141400 30007KT P6SM SCT150 FM141700 29007KT P6SM FEW200
KADF,KADF 140520Z 1406/1506 VRB02KT P6SM SKC FM141600 25009G20KT P6SM SKC FM150100 23002KT P6SM SKC
KADW,TAF KADW 140100Z 1401/1507 31010G15KT 9999 VCSH BKN050 QNH2975INS BECMG 1406/1407 28010KT 9999 NSW SKC QNH2981INS BECMG 1415/1416 28012KT 9999 SKC QNH2995INS BECMG 1423/1424 VRB06KT 9999 SCT080 QNH2999INS TX17/1401Z TN12/1410Z
KAEG,KAEG 140529Z 1406/1506 31006KT P6SM SKC FM141900 26007KT P6SM SKC FM150200 31006KT P6SM SKC
KAEX,KAEX 140520Z 1406/1506 VRB04KT P6SM SKC
KAFF,TAF KAFF 131900Z 1319/1501 06009KT 9999 FEW080 QNH3017INS WND 330V160 BECMG 1401/1402 35008KT 9999 SCT250 520304 QNH3018INS BECMG 1410/1411 02009KT 9999 FEW180 520106 QNH3013INS WND 320V120 ROTOR CONDS EXIST BECMG 1415/1416 15009KT 9999 FEW250 520309 QNH3002INS BECMG 1419/1420 01013KT 9999 SKC QNH3001INS TX17/1321Z TNM02/1413Z LAST NO AMDS AFT 1400 NEXT 1411
KAFW,KAFW 140520Z 1406/1506 32004KT P6SM SKC FM141100 21007KT P6SM SKC
KAGC,KAGC 140520Z 1406/1506 22004KT P6SM SCT050 FM141800 24012G20KT P6SM SKC FM142200 19004KT P6SM FEW250
KAGS,KAGS 140540Z 1406/1506 28005KT P6SM SKC FM140800 VRB04KT P6SM SKC
KAHN,KAHN 140545Z 1406/1506 31003KT P6SM SKC FM141500 26007KT P6SM SKC FM142300 24004KT P6SM SKC
KAIA,KAIA 140520Z 1406/1506 29009KT P6SM SCT100 FM141600 32020G30KT P6SM FEW100 FM142300 35014KT P6SM FEW250 FM150300 31005KT P6SM SCT200
KALB,KALB 140525Z 1406/1506 VRB03KT 6SM -RA BR FEW004 BKN035 OVC050 TEMPO 1406/1410 3SM RA BR BKN015 OVC030 FM141100 VRB04KT 6SM BR BKN005 OVC050 FM141500 32005KT P6SM BKN020 BKN060 FM141700 31008KT P6SM SCT040 FM150200 VRB03KT P6SM FEW012
KALI,KALI 140528Z 1406/1506 05005KT P6SM FEW100 FM140900 09003KT 5SM BR SCT015 SCT250 TEMPO 1409/1413 2SM BR BKN015 FM141400 10007KT P6SM VCSH SCT030 FM142300 13010KT P6SM SCT250
KALO,KALO 140520Z 1406/1506 25005KT P6SM FEW140 FM141700 27016G25KT P6SM BKN080 FM142100 31019G30KT P6SM BKN050 FM150100 31009KT P6SM FEW130
KALS,KALS 140537Z 1406/1506 VRB04KT P6SM SKC FM142000 34006KT P6SM SKC
KALW,KALW 140520Z 1406/1506 11006KT P6SM SKC FM141800 24005KT P6SM SKC FM142300 VRB05KT P6SM SKC FM150200 11006KT P6SM SKC
KAMA,KAMA 140533Z 1406/1506 22008KT P6SM SKC FM141500 23014KT P6SM SKC FM150000 21009KT P6SM SKC
KANB,KANB 140535Z 1406/1506 VRB03KT P6SM SKC FM141800 25007KT P6SM SKC FM150000 21005KT P6SM SKC
KAND,KAND 140528Z 1406/1506 29005KT P6SM SKC FM141600 24008KT P6SM SKC FM150000 28004KT P6SM SKC
KAOO,KAOO 140522Z 1406/1506 25004KT P6SM SKC FM140900 VRB03KT 6SM BR VCFG FEW250 FM141400 24008G15KT P6SM SCT060 FM142200 23005KT P6SM SKC
KAPA,KAPA 140530Z 1406/1506 19007KT P6SM SKC FM141500 VRB06KT P6SM FEW250 FM141700 30011KT P6SM SCT200 FM141900 35011G19KT P6SM SCT200 FM150000 05007KT P6SM FEW250 FM150400 15010KT P6SM FEW250
KAPC,KAPC 140531Z 1406/1506 VRB03KT P6SM FEW006 FM140700 VRB03KT P6SM BKN005 TEMPO 1413/1416 2SM BR OVC004 FM141700 VRB05KT P6SM SKC FM142200 19011KT P6SM SKC FM150400 VRB04KT P6SM SKC
KAPF,KAPF 140520Z 1406/1506 VRB04KT P6SM SCT035 BKN100 FM141500 03006KT P6SM VCSH SCT035 BKN100 FM141700 26007KT P6SM VCTS SCT025CB BKN050 FM150200 VRB04KT P6SM SCT040 BKN250
KAPN,KAPN 140535Z 1406/1506 20007KT P6SM VCSH SCT070 FM141300 21008G16KT P6SM BKN100 FM142000 20010G17KT P6SM VCSH BKN070 FM150200 17006KT P6SM VCSH OVC070
KARA,KARA 140520Z 1406/1506 02004KT P6SM SKC FM141500 VRB06KT P6SM SKC
KART,KART 140520Z 1406/1506 17005KT P6SM VCSH OVC080 FM140800 15005KT P6SM SCT080 FM141400 20010KT P6SM SKC FM141800 23014G22KT P6SM SKC FM142300 VRB05KT P6SM SKC
KASD,KASD 140520Z 1406/1506 VRB03KT P6SM SKC FM141600 08005KT P6SM SKC
KASE,KASE 140520Z 1406/1506 21007KT P6SM SKC FM141800 34010G20KT P6SM SKC
KASN,KASN 140535Z 1406/1506 VRB03KT P6SM SKC FM141800 25007KT P6SM SKC FM150000 21005KT P6SM SKC
KAST,KAST 140520Z 1406/1506 VRB04KT P6SM SKC FM141800 34009KT P6SM SKC
KATL,KATL 140545Z 1406/1512 31005KT P6SM SKC FM141700 26010KT P6SM SKC FM142300 24004KT P6SM SKC
KATW,KATW 140520Z 1406/1506 26006KT P6SM OVC060 FM141000 22006KT P6SM BKN060 FM141600 21009G17KT P6SM VCSH OVC050 FM141800 22009G15KT P6SM -SHRA OVC035 TEMPO 1418/1422 BKN025 FM142200 24005KT P6SM VCSH BKN035 OVC070 FM150100 29006KT P6SM BKN070
KATY,KATY 140521Z 1406/1506 23007KT P6SM OVC100 FM141500 32016G25KT P6SM OVC050 FM150000 VRB05KT P6SM BKN250
KAUG,KAUG 140526Z 1405/1424 15011G22KT 6SM -RA BR OVC008 FM140600 14008G16KT 5SM -SHRA BR OVC009 WS020/16035KT FM141000 15012G18KT 2SM RA BR SCT004 OVC007 WS020/16040KT FM141600 15014G20KT 2SM RA BR OVC004 WS020/14045KT FM142000 13008KT 2SM -DZ BR OVC003
KAUS,KAUS 140529Z 1406/1512 02004KT P6SM FEW040 SCT250 FM141700 16008KT P6SM FEW060 SCT250 FM150800 18005KT P6SM BKN009
KAUW,KAUW 140520Z 1406/1506 26005KT P6SM OVC050 FM140900 21004KT P6SM OVC040 TEMPO 1413/1415 6SM -SN FM141500 21007KT 6SM -SN SCT015 OVC022 TEMPO 1415/1418 3SM -SN BKN015 FM141800 21007KT 6SM -SHRASN BKN012 OVC020 FM142200 24005KT P6SM OVC025 FM150100 29005KT P6SM BKN035 BKN060
KAVL,KAVL 140528Z 1406/1506 34008KT P6SM SKC FM141600 32011G18KT P6SM SKC FM150000 33004KT P6SM FEW200
KAVP,KAVP 140520Z 1406/1506 26006KT P6SM -SHRA OVC035 FM140900 VRB03KT P6SM SCT050 FM141400 24007KT P6SM SKC
KAXN,KAXN 140520Z 1406/1506 26007KT P6SM OVC080 FM141000 30012KT 6SM -SHSN BR OVC040 FM141500 32013G23KT P6SM OVC020 PROB30 1415/1420 P6SM -SHRA FM142200 32014G22KT P6SM BKN035 FM150400 30005KT P6SM SCT150
KAZO,KAZO 140540Z 1406/1506 21006KT P6SM SCT040 BKN100 FM141600 21012G28KT P6SM SCT040 BKN150 FM150000 15007KT P6SM OVC050
KBAB,TAF KBAB 140300Z 1403/1509 VRB06KT 9999 SKC QNH2983INS BECMG 1418/1419 21006KT 9999 SKC QNH2970INS WND VRB06KT AFT 1502 TX29/1423Z TN11/1414Z
KBAD,TAF KBAD 140400Z 1404/1510 VRB05KT 9999 SKC QNH2997INS BECMG 1415/1416 23007KT 9999 SKC QNH2997INS TX27/1420Z TN12/1412Z LAST NO AMDS AFT 1404 NEXT 1412
KBAF,KBAF 140530Z 1406/1506 16009KT P6SM -RA OVC008 FM140900 36003KT 3SM +RA BR OVC008 FM141100 36006KT 6SM +RA BR OVC015 FM141400 35006KT P6SM VCSH BKN025 FM141500 34005KT P6SM BKN070 FM141800 28006KT P6SM SCT200
KBAM,KBAM 140520Z 1406/1506 VRB05KT P6SM SKC
KBBD,KBBD 140524Z 1406/1506 VRB05KT P6SM SCT250 FM141800 18008KT P6SM SKC
KBBG,KBBG 140520Z 1406/1506 VRB04KT P6SM SKC FM141400 25009KT P6SM SKC FM141700 27013G25KT P6SM SKC FM142300 25010G20KT P6SM SKC FM150000 25008KT P6SM SKC FM150200 23008KT P6SM FEW230
KBCB,KBCB 140520Z 1406/1506 VRB03KT P6SM SCT080 FM140800 VRB02KT P6SM FEW250 FM141600 26007G14KT P6SM SKC FM150000 00000KT P6SM SKC
KBCE,KBCE 140529Z 1406/1506 30006KT P6SM SKC FM142100 30008KT P6SM SKC FM150400 VRB04KT P6SM SKC
KBDL,KBDL 140530Z 1406/1512 16012KT P6SM -RA BKN011 OVC018 FM140900 02004KT 3SM +RA BR OVC008 FM141100 35007KT 6SM RA BR OVC010 FM141300 35007KT P6SM VCSH BKN020 FM141400 34007KT P6SM BKN060 FM150500 00000KT P6SM FEW200
KBDN,KBDN 140520Z 1406/1506 VRB04KT P6SM SKC FM142100 36007KT P6SM SKC FM150300 28005KT P6SM SKC
KBDR,KBDR 140541Z 1406/1506 32011KT P6SM -SHRA BKN015 FM141000 34012KT P6SM BKN015 FM141200 33010KT P6SM BKN025 FM141400 29009KT P6SM BKN040 FM141800 28008KT P6SM SKC
KBED,KBED 140530Z 1406/1506 17009KT 5SM RA BR FEW009 BKN050 OVC080 WS020/17040KT FM140700 15008KT 4SM +RA BR OVC008 WS020/17040KT FM141200 14010G25KT 1 1/2SM RA BR OVC008 WS020/12050KT FM141400 14010G25KT 2SM BR VCSH OVC008 FM141600 22007KT P6SM BKN010 FM142000 25006KT P6SM BKN050
KBFD,KBFD 140522Z 1406/1506 VRB02KT 6SM BR VCFG SCT004 FM141200 VRB03KT P6SM SKC FM141500 23008G15KT P6SM SCT050 FM150000 15003KT P6SM SKC
KBFF,KBFF 140520Z 1406/1506 30007KT P6SM SKC FM141600 30020G30KT P6SM SKC FM141900 33027G37KT P6SM FEW120 FM142300 34015KT P6SM FEW250 FM150200 34006KT P6SM FEW250
KBFI,KBFI 140527Z 1406/1506 00000KT 6SM HZ SKC FM141900 32006KT 5SM HZ SKC
KBFL,KBFL 140520Z 1406/1506 VRB05KT P6SM SKC
KBFM,KBFM 140520Z 1406/1506 00000KT P6SM SKC FM141800 14005KT P6SM SKC FM150000 00000KT P6SM SKC
KBGM,KBGM 140520Z 1406/1506 34008KT P6SM -SHRA OVC050 FM140800 VRB02KT P6SM SCT200 TEMPO 1410/1414 4SM BR FM141400 22007KT P6SM SKC
KBGR,KBGR 140535Z 1406/1506 14010G18KT P6SM VCSH OVC035 WS020/17050KT FM140800 15012G22KT 6SM -RA BR OVC008 WS020/17050KT FM141200 15020G30KT 3SM -RA BR OVC008 WS020/17050KT FM141500 15022G35KT 2SM +RA BR OVC008 WS020/15055KT FM150000 15015G25KT 3SM RA BR OVC008 WS020/18045KT
KBHB,KBHB 140535Z 1406/1506 14018G28KT P6SM VCSH OVC035 WS020/17050KT FM140900 14020G35KT 6SM -RA BR OVC008 WS020/17050KT FM141200 14025G40KT 3SM -RA BR OVC008 WS020/17050KT FM141500 14025G40KT 2SM +RA BR OVC006 WS020/15055KT FM150000 15018G28KT 3SM RA BR OVC006 WS020/18045KT
KBHM,KBHM 140535Z 1406/1506 VRB03KT P6SM SKC FM141800 25007KT P6SM SKC FM150000 21005KT P6SM SKC
KBIF,TAF KBIF 132200Z 1322/1504 VRB06KT 9999 FEW250 QNH3001INS TX27/1322Z TN11/1412Z
KBIH,KBIH 140520Z 1406/1506 33007KT P6SM SKC FM141800 VRB06KT P6SM SKC FM150400 32007KT P6SM SKC
KBIL,KBIL 140527Z 1406/1506 32009KT P6SM SKC FM141700 31015G25KT P6SM BKN200 FM142200 35013KT P6SM BKN150
KBIS,KBIS 140545Z 1406/1506 31011KT P6SM SKC WS020/33040KT FM141000 32012G17KT P6SM SCT250 FM141300 33018G25KT P6SM SCT035 OVC050 FM141700 34020G29KT P6SM SCT050 FM142000 33016G24KT P6SM SCT250 FM150000 31005KT P6SM FEW300 FM150200 24005KT P6SM FEW300
KBIX,TAF KBIX 140200Z 1402/1508 VRB06KT 9999 SKC QNH2988INS TX27/1420Z TN15/1411Z LAST NO AMDS AFT 1404 NEXT 1410
KBJC,KBJC 140530Z 1406/1506 VRB05KT P6SM SKC FM141600 30011KT P6SM FEW250 FM141900 01012KT P6SM SCT250 FM150100 VRB05KT P6SM FEW250
KBJI,KBJI 140525Z 1406/1506 VRB05KT 3SM -SN BR BKN008 TEMPO 1406/1408 1SM -SN BR FM140800 VRB05KT 1SM -SN OVC007 FM141100 33009KT P6SM OVC009 FM141700 34009KT P6SM BKN016 FM150100 VRB03KT P6SM SCT027
KBKE,KBKE 140520Z 1406/1506 VRB03KT P6SM SKC FM141900 32007KT P6SM SKC FM150400 VRB03KT P6SM SKC
KBKF,TAF KBKF 140100Z 1401/1507 VRB06KT 9999 SKC 510013 QNH3004INS BECMG 1417/1418 31012G18KT 9999 SKC 520083 QNH2996INS BECMG 1423/1424 VRB06KT 9999 SCT110 510083 QNH2999INS TX22/1420Z TN07/1411Z
KBKW,KBKW 140537Z 1406/1506 19005KT P6SM FEW070 FM141400 23008KT P6SM SKC FM141600 25011G18KT P6SM FEW070 FM142200 23007KT P6SM SKC FM150000 18004KT P6SM SKC
KBLF,KBLF 140520Z 1406/1506 26004KT P6SM SKC FM141500 26012G19KT P6SM SKC FM142300 21005KT P6SM SKC
KBLH,KBLH 140520Z 1406/1506 27005KT P6SM SKC FM140900 34006KT P6SM SKC FM141900 14005KT P6SM FEW120 FM150300 20009KT P6SM SCT100 SCT250
KBLI,KBLI 140527Z 1406/1506 00000KT P6SM SKC FM141000 00000KT 3SM BR SCT001 FM141500 00000KT 6SM HZ SKC
KBLV,TAF KBLV 140000Z 1400/1506 28009KT 9999 SCT060 QNH2980INS BECMG 1417/1418 26020G30KT 9999 SKC QNH2969INS BECMG 1423/1424 VRB06KT 9999 SCT060 OVC090 QNH2971INS TX18/1417Z TN03/1411Z
KBMG,KBMG 140525Z 1406/1506 23007KT P6SM SCT100 FM141500 22010G23KT P6SM SCT100 FM141800 23015G30KT P6SM SCT100 FM150000 24009KT P6SM BKN200
KBMI,KBMI 140520Z 1406/1506 23007KT P6SM SCT100 FM141700 23015G25KT P6SM BKN200 FM150000 26010KT P6SM VCSH BKN080
KBNA,KBNA 140523Z 1406/1506 21006KT P6SM SKC FM141600 22011G18KT P6SM SKC FM150000 18010KT P6SM SKC
KBNO,KBNO 140520Z 1406/1506 27006KT P6SM SKC FM141200 VRB04KT P6SM SKC
KBOI,KBOI 140520Z 1406/1506 VRB04KT P6SM SKC FM140900 14007KT P6SM SKC FM142000 31006KT P6SM SKC
KBOS,KBOS 140530Z 1406/1512 16007G15KT 4SM RA BR BKN009 OVC014 WS020/17040KT FM141100 14014G29KT 2SM RA BR OVC008 WS020/14050KT FM141200 14015G32KT 2SM RA BR OVC008 WS020/14060KT FM141500 15015G29KT 3SM BR VCSH OVC008 WS020/18045KT FM141700 19011G19KT P6SM OVC010 FM142000 23008KT P6SM OVC045
KBPI,KBPI 140521Z 1406/1506 VRB05KT P6SM SCT250 FM141900 33012G20KT P6SM SCT250 FM150100 35008KT P6SM SCT250
KBPK,KBPK 140520Z 1406/1506 VRB03KT P6SM SKC FM141600 26012G22KT P6SM SKC FM150100 22006KT P6SM SKC
KBPT,KBPT 140520Z 1406/1506 03004KT P6SM SKC FM141400 06009KT P6SM SKC FM141900 VRB06KT P6SM SKC
KBRD,KBRD 140535Z 1406/1506 21005KT P6SM VCSH OVC070 FM140700 26006KT 2SM -SHSN BR OVC010 FM141000 26006KT 1 1/2SM -SHSN BR OVC010 FM141200 27006KT P6SM OVC015 FM141500 27006KT 4SM -SN BR OVC010 FM142100 33010KT P6SM VCSH BKN021
KBRL,KBRL 140534Z 1406/1506 VRB02KT P6SM SKC FM141600 24011G21KT P6SM FEW060 FM142000 27016G29KT P6SM BKN070 FM150100 31007KT P6SM OVC050
KBRO,KBRO 140523Z 1406/1506 15003KT P6SM SKC FM141600 08009KT P6SM FEW045
KBTL,KBTL 140540Z 1406/1506 21006KT P6SM SCT040 BKN100 FM141600 21013G28KT P6SM SCT040 BKN150 FM150000 13006KT P6SM OVC250
KBTM,KBTM 140520Z 1406/1506 15004KT P6SM SKC FM141200 VRB03KT P6SM SKC FM142000 30008KT P6SM SCT250 FM150100 VRB03KT P6SM SCT150
KBTR,KBTR 140520Z 1406/1506 VRB03KT P6SM SKC FM141500 08005KT P6SM SKC
KBTV,KBTV 140537Z 1406/1506 08004KT 3SM +SHRA BR FEW030 OVC040 TEMPO 1406/1408 5SM BR FM140800 34005KT 4SM SHRA BR OVC009 FM141400 00000KT 5SM -SHRA BR OVC013 FM141900 VRB03KT P6SM VCSH OVC035 FM142100 VRB03KT P6SM SCT020
KBUF,KBUF 140520Z 1406/1506 17006KT P6SM SCT050 FM141300 21012KT P6SM SKC FM141700 22014G22KT P6SM SCT080 FM150000 14005KT P6SM SCT250
KBUR,KBUR 140524Z 1406/1506 VRB03KT 5SM BR OVC008 FM141800 VRB03KT P6SM SKC FM142100 18008KT P6SM SKC FM150200 12007KT P6SM SKC
KBVI,KBVI 140520Z 1406/1506 22004KT P6SM SCT050 FM141800 24012G20KT P6SM SKC FM142200 20005KT P6SM FEW250
KBVO,KBVO 140520Z 1406/1506 00000KT P6SM SKC FM141600 24011G17KT P6SM SKC FM150000 26006KT P6SM SCT150 SCT250 WS020/25040KT
KBWG,KBWG 140520Z 1406/1506 23003KT P6SM SKC FM141500 23012G23KT P6SM SKC FM142300 20008KT P6SM SCT250
KBWI,KBWI 140527Z 1406/1512 36005KT 5SM -RA OVC060 FM140800 33003KT P6SM BKN060 FM141100 29003KT P6SM BKN100 FM141600 23005KT P6SM SKC FM150100 16003KT P6SM SKC
KBYI,KBYI 140520Z 1406/1506 VRB03KT P6SM SKC FM141800 31006KT P6SM SKC FM150400 24008KT P6SM SKC
KBZN,KBZN 140544Z 1406/1512 VRB06KT P6SM SCT150 SCT250
KCAE,KCAE 140540Z 1406/1506 28005KT P6SM SKC FM140800 VRB04KT P6SM SKC
KCAK,KCAK 140547Z 1406/1506 20006KT P6SM SCT060 FM141400 22010G20KT P6SM SCT100 FM150100 18008KT P6SM SCT060 BKN120
KCAR,KCAR 140535Z 1406/1506 15010G18KT P6SM VCSH BKN015 WS020/17050KT FM140900 14015G25KT 6SM -RA BR OVC008 WS020/17050KT FM141800 15020G30KT 3SM -RA BR OVC008 WS020/15050KT FM150000 15015G25KT 3SM -RA BR OVC008 WS020/18045KT
KCBM,TAF KCBM 140100Z 1401/1507 VRB06KT 9999 SKC QNH2991INS BECMG 1414/1415 20009KT 9999 SKC QNH2992INS TX25/1421Z TN07/1411Z
KCDC,KCDC 140529Z 1406/1506 VRB04KT P6SM SKC FM141900 35005KT P6SM SKC FM150300 VRB04KT P6SM SKC
KCDR,KCDR 140520Z 1406/1506 29011KT P6SM SCT100 FM141600 30020G30KT P6SM FEW100 FM141900 33025G35KT P6SM FEW120 FM150100 35012KT P6SM BKN250
KCDS,KCDS 140520Z 1406/1506 VRB05KT P6SM SKC FM141800 23015KT P6SM FEW250
KCEC,KCEC 140520Z 1406/1506 15006KT 1/2SM FG VV002 FM141000 VRB02KT 1/2SM FG VV002 FM141800 29005KT 3SM BR BKN003 FM150200 17006KT 1SM BR OVC002
KCEF,TAF AMD KCEF 140250Z 1402/1508 16010G15KT 4800 RA BR SCT006 BKN012 OVC050 520107 QNH2976INS TEMPO 1402/1405 18015G20KT 1600 +SHRA BR BKN006 OVC010 520008 TEMPO 1405/1409 1600 +SHRA BR BKN004 OVC010 520008 BECMG 1409/1410 32012KT 8000 -RA BR FEW006 SCT010 OVC025 QNH2970INS BECMG 1414/1415 32009KT 9999 NSW SCT025 BKN060 QNH2971INS BECMG 1416/1417 32009KT 9999 FEW040 FEW250 QNH2978INS BECMG 1420/1421 VRB06KT 9999 FEW040 QNH2984INS TX18/1419Z TN13/1410Z LAST NO AMDS AFT 1403 NEXT 1411
KCGI,KCGI 140520Z 1406/1506 VRB03KT P6SM SKC FM141500 23008KT P6SM SKC FM141700 23012G24KT P6SM SKC FM142100 25014G25KT P6SM SKC FM142300 23009KT P6SM FEW240
KCHA,KCHA 140520Z 1406/1506 00000KT P6SM SKC FM141700 24008G16KT P6SM SKC FM142200 21005KT P6SM SKC
KCHO,KCHO 140527Z 1406/1506 07004KT P6SM OVC070 FM141000 VRB03KT P6SM SKC FM141700 21007KT P6SM SKC FM142300 00000KT P6SM SKC
KCHS,KCHS 140520Z 1406/1506 32006KT P6SM SKC FM142000 25005KT P6SM SKC FM150100 00000KT P6SM SKC
KCID,KCID 140534Z 1406/1506 VRB04KT P6SM SCT090 FM141500 26013G25KT P6SM SCT060 FM142000 29017G29KT P6SM OVC070 FM150100 31009KT P6SM SCT060
KCIU,KCIU 140535Z 1406/1506 17004KT P6SM VCSH BKN027 FM141000 17004KT P6SM VCSH BKN015 FM141600 22007KT 6SM -SHRA BKN035 FM142100 17007KT 6SM -SHRA OVC015 FM150200 17007KT P6SM VCSH OVC035
KCKB,KCKB 140537Z 1406/1506 00000KT P6SM FEW070 FM141300 20004KT P6SM FEW070 FM141500 23008G15KT P6SM FEW070 FM141800 24012G18KT P6SM FEW070 FM142200 21007KT P6SM FEW070 FM142300 18005KT P6SM FEW070
KCKV,KCKV 140523Z 1406/1506 23003KT P6SM SKC FM141500 23011G19KT P6SM SKC FM150000 19008KT P6SM SKC
KCLE,KCLE 140547Z 1406/1512 20006KT P6SM FEW060 FM141500 23009KT P6SM SCT100 FM141800 22012G20KT P6SM SCT100 FM150100 18009KT P6SM SCT060 BKN120
KCLL,KCLL 140520Z 1406/1506 06006KT P6SM SKC FM141500 12006KT P6SM SKC FM142000 15006KT P6SM SKC
KCLM,KCLM 140527Z 1406/1506 VRB03KT P6SM SKC
KCLT,KCLT 140528Z 1406/1512 34004KT P6SM SKC FM141600 24006KT P6SM SKC FM150000 18003KT P6SM SKC
KCMA,KCMA 140524Z 1406/1506 VRB03KT P6SM OVC008 FM141600 VRB03KT P6SM OVC010 FM142000 23008KT P6SM SCT015 FM150300 VRB03KT P6SM OVC008
KCMH,KCMH 140523Z 1406/1506 19004KT P6SM BKN100 FM141000 19006KT P6SM SCT100 FM141600 22014G24KT P6SM FEW250 FM150000 16007KT P6SM SCT250 FM150300 17010KT P6SM BKN120 WS020/20040KT
KCMI,KCMI 140520Z 1406/1506 20005KT P6SM SCT100 FM141700 23015G25KT P6SM BKN200 FM150000 24009KT P6SM VCSH BKN080
KCMX,KCMX 140520Z 1406/1506 29005KT P6SM -RA FEW025 OVC035 FM140700 25006KT P6SM VCSH BKN040 FM141100 22007KT P6SM VCSH BKN060 FM141900 17005KT P6SM VCSH BKN027 FM142200 14005KT P6SM VCSH BKN024
KCNM,KCNM 140520Z 1406/1506 16006KT P6SM FEW250
KCNU,KCNU 140520Z 1406/1506 VRB03KT P6SM SKC FM141300 25007KT P6SM SKC FM141700 25019G27KT P6SM FEW250 FM150000 25012KT P6SM FEW250
KCNY,KCNY 140520Z 1406/1506 22003KT P6SM SKC FM141800 33008KT P6SM SKC
KCOD,KCOD 140521Z 1406/1506 21006KT P6SM SCT250 FM141400 VRB05KT P6SM SCT250 FM141800 03006KT P6SM SCT250
KCOE,KCOE 140520Z 1406/1506 10005KT P6SM SKC FM142200 26005KT P6SM SKC
KCOF,TAF KCOF 140200Z 1402/1508 21009KT 9999 SCT020 QNH2984INS BECMG 1408/1409 30009KT 9999 BKN030 BKN080 QNH2987INS BECMG 1414/1415 36012G18KT 9999 SCT030 SCT080 QNH2991INS TX27/1418Z TN23/1409Z LAST NO AMDS AFT 1404 NEXT 1410
KCON,KCON 140526Z 1405/1424 13010G21KT P6SM -RA BKN011 OVC019 WS020/17035KT FM140800 09008G22KT 2SM -RA BR OVC005 WS020/15040KT FM141500 06010G19KT 2SM RA BR BKN007 OVC010 WS020/15040KT FM141800 26005KT P6SM VCSH FEW004 OVC015 FM142000 30004KT P6SM BKN050
KCOS,KCOS 140537Z 1406/1506 35006KT P6SM SKC FM142000 14008KT P6SM SKC FM150100 01006KT P6SM SKC
KCOT,KCOT 140528Z 1406/1506 10007KT P6SM FEW025 FEW250 TEMPO 1410/1414 5SM BR BKN020 FM141500 13008KT P6SM SCT035 SCT250 FM150000 13010G18KT P6SM SCT250
KCOU,KCOU 140530Z 1406/1506 24006KT P6SM SKC FM141600 26013G21KT P6SM SKC FM141800 26017G28KT P6SM FEW250 FM150000 29010G20KT P6SM BKN120 FM150100 32007KT P6SM BKN250
KCPR,KCPR 140521Z 1406/1506 24008KT P6SM SCT250 FM141600 30014G24KT P6SM SCT250 FM150100 33008KT P6SM SCT250
KCPS,KCPS 140530Z 1406/1506 VRB04KT P6SM SKC FM141600 25013G19KT P6SM SKC FM141800 26014G26KT P6SM FEW250 FM142300 26010G18KT P6SM BKN110 FM150200 32005KT P6SM BKN250
KCRE,KCRE 140520Z 1406/1506 28009KT P6SM SKC FM140900 33007KT P6SM SKC FM141400 01007KT P6SM SKC FM141900 VRB03KT P6SM SKC
KCRG,KCRG 140531Z 1406/1506 00000KT P6SM FEW250 TEMPO 1406/1410 6SM BR FEW010 FM141000 34005KT P6SM FEW040 SCT250 FM141400 02008KT P6SM FEW250 FM141900 06007KT P6SM FEW060
KCRP,KCRP 140528Z 1406/1506 10008KT P6SM SCT025 TEMPO 1411/1415 5SM BR BKN010 FM141700 10010KT P6SM VCSH SCT030 FM142100 12010KT P6SM SCT030
KCRQ,KCRQ 140520Z 1406/1506 VRB04KT P6SM OVC010 TEMPO 1411/1415 5SM -DZ BR OVC008 FM141900 25007KT P6SM BKN017 FM150100 VRB05KT P6SM OVC014
KCRW,KCRW 140537Z 1406/1506 00000KT P6SM FEW070 FM141400 23005KT P6SM FEW070 FM141600 24009G18KT P6SM FEW250 FM142200 19007KT P6SM FEW250 FM150000 00000KT P6SM FEW250 FM150400 17004KT P6SM SCT200
KCSG,KCSG 140545Z 1406/1506 33003KT P6SM SKC FM141500 26007KT P6SM SKC FM142300 24004KT P6SM SKC
KCSM,KCSM 140520Z 1406/1506 24006KT P6SM SKC FM141500 22014G22KT P6SM FEW190 FM141800 21016G26KT P6SM FEW170 FM150000 20010KT P6SM SKC
KCSV,KCSV 140523Z 1406/1506 22004KT P6SM SKC FM141600 22011KT P6SM SKC FM150000 17005KT P6SM SKC
KCTB,KCTB 140544Z 1406/1506 27009KT P6SM FEW180 FM141700 33009KT P6SM SCT180
KCUB,KCUB 140540Z 1406/1506 28005KT P6SM SKC FM140800 VRB04KT P6SM SKC
KCVG,KCVG 140523Z 1406/1512 21005KT P6SM BKN100 FM140900 21006KT P6SM SCT100 FM141400 22011KT P6SM FEW250 FM141600 24015G26KT P6SM SCT200 FM142200 17008KT P6SM BKN200 FM150300 19010KT P6SM BKN120
KCVS,TAF KCVS 140200Z 1402/1508 11006KT 9999 SKC QNH3010INS BECMG 1416/1417 23010G15KT 9999 SKC QNH3008INS BECMG 1423/1424 22006KT 9999 SKC QNH2995INS TX25/1422Z TN08/1413Z
KCWA,KCWA 140520Z 1406/1506 26005KT P6SM OVC050 FM140900 21004KT P6SM OVC040 TEMPO 1413/1415 6SM -SN FM141500 21007KT 6SM -SN SCT015 OVC022 TEMPO 1415/1418 3SM -SN BKN015 FM141800 21007KT 6SM -SHRASN BKN012 OVC020 FM142200 24005KT P6SM OVC025 FM150100 29005KT P6SM BKN035 BKN060
KCXO,KCXO 140520Z 1406/1506 VRB03KT P6SM SKC FM141500 12006KT P6SM SKC FM142000 15007KT P6SM SKC
KCXP,KCXP 140520Z 1406/1506 VRB04KT P6SM SKC FM142100 05009KT P6SM FEW100 FM150300 VRB04KT P6SM FEW250
KCYS,KCYS 140520Z 1406/1506 30008KT P6SM SKC FM141600 30015G25KT P6SM SKC FM141800 33020G30KT P6SM SKC FM150100 34008KT P6SM FEW250
KDAA,TAF COR KDAA 132001Z 1320/1502 19009KT 9000 -SHRA FEW010 BKN020 OVC030 QNH2965INS TEMPO 1321/1401 VRB15G25KT 4800 SHRA VCTS OVC010CB BECMG 1400/1401 30012G18KT 9999 VCSH SCT010 OVC030 QNH2966INS BECMG 1402/1403 32010G15KT 9999 NSW BKN050 QNH2970INS BECMG 1406/1407 33006KT 9999 FEW250 QNH2982INS TX19/1419Z TN08/1410Z LAST NO AMDS AFT 1401 NEXT 1412
KDAB,KDAB 140533Z 1406/1506 26004KT P6SM SCT250 FM141400 03008KT P6SM SCT030 FM141800 04009KT P6SM FEW040 FM150000 07005KT P6SM SKC
KDAG,KDAG 140520Z 1406/1506 27008KT P6SM SKC FM141900 08009KT P6SM SKC FM150400 27008KT P6SM FEW100 SCT150
KDAL,KDAL 140520Z 1406/1506 32004KT P6SM SKC FM141100 21007KT P6SM SKC
KDAN,KDAN 140520Z 1406/1506 34003KT P6SM OVC050 FM140900 33003KT P6SM FEW050 FM141500 28005KT P6SM SKC FM142300 00000KT P6SM SKC
KDAY,KDAY 140523Z 1406/1506 17005KT P6SM BKN100 FM140900 20005KT P6SM SCT100 FM141400 21010KT P6SM SCT120 FM141600 23015G26KT P6SM SCT200 FM142200 20011KT P6SM BKN200 FM150300 18012KT P6SM OVC100
KDBQ,KDBQ 140534Z 1406/1506 25006KT P6SM SCT080 FM141500 23011G19KT P6SM BKN060 FM141900 26016G26KT P6SM OVC070 FM150100 30008KT P6SM SCT060
KDCA,KDCA 140527Z 1406/1512 01009KT P6SM -RA OVC060 FM140900 32003KT P6SM OVC070 FM141300 25003KT P6SM SKC FM141700 21006KT P6SM SKC FM150500 17003KT P6SM SKC
KDDC,KDDC 140520Z 1406/1506 29007KT P6SM SKC FM141600 28013KT P6SM SKC
KDEC,KDEC 140520Z 1406/1506 23005KT P6SM SCT100 FM141700 23015G25KT P6SM BKN200 FM150000 25009KT P6SM VCSH BKN080
KDEN,KDEN 140530Z 1406/1512 21010KT P6SM SKC FM141500 VRB06KT P6SM FEW250 FM141700 30011KT P6SM SCT250 FM141900 35012G20KT P6SM SCT250 FM150000 05007KT P6SM FEW250 FM150400 15010KT P6SM FEW250
KDET,KDET 140523Z 1406/1506 22007KT P6SM SCT100 SCT250 FM141400 24013G20KT P6SM SCT040 SCT100 BKN250 FM142000 16013KT P6SM BKN100 OVC250 FM150200 21010KT 6SM -SHRA OVC040
KDFW,KDFW 140520Z 1406/1512 32004KT P6SM SKC FM141100 21007KT P6SM SKC
KDHN,KDHN 140536Z 1406/1506 VRB04KT P6SM FEW250
KDHT,KDHT 140533Z 1406/1506 24007KT P6SM SKC FM141600 23012KT P6SM SKC FM150000 20008KT P6SM SKC
KDIJ,KDIJ 140520Z 1406/1506 15006KT P6SM SKC FM141100 VRB04KT P6SM SKC FM141900 31008KT P6SM SKC FM150200 09006KT P6SM SKC AMD LTD TO CLD VIS AND WIND
KDIK,KDIK 140545Z 1406/1506 29010KT P6SM FEW110 FEW250 WS020/33040KT FM140900 31014G22KT P6SM VCSH OVC100 TEMPO 1410/1414 6SM -RA BKN035 OVC050 FM141400 32016G26KT P6SM FEW050 SCT090 FM141700 33017G27KT P6SM FEW250 FM142100 32014G22KT P6SM FEW250 FM150000 30007KT P6SM FEW150 SCT250
KDLF,TAF AMD KDLF 132300Z 1323/1501 VRB06KT 9999 FEW250 QNH2991INS BECMG 1401/1402 03006KT 9999 SKC QNH2995INS TEMPO 1413/1417 BKN015 BECMG 1417/1418 13006KT 9999 FEW030 FEW250 QNH2990INS TX30/1421Z TN16/1411Z LAST NO AMDS AFT 1323 NEXT 1411
KDLH,KDLH 140535Z 1406/1506 26008KT P6SM VCSH BKN100 FM140900 25005KT 2SM -SHSN BR OVC010 FM141100 VRB04KT 2SM -SN OVC007 FM141700 VRB04KT P6SM VCSH OVC012 FM141900 32005KT P6SM VCSH OVC021 FM142300 33005KT P6SM BKN035
KDLS,KDLS 140520Z 1406/1506 VRB04KT P6SM SKC FM142100 08006KT P6SM SKC FM150400 VRB04KT P6SM SKC
KDMA,TAF COR KDMA 132228Z 1322/1504 33009KT 9999 FEW250 QNH2992INS BECMG 1404/1405 12009KT 9999 SKC QNH2990INS BECMG 1417/1418 18009KT 9999 FEW250 QNH2987INS TX33/1322Z TN18/1412Z
KDMN,KDMN 140520Z 1406/1506 25007KT P6SM SKC FM141800 20007KT P6SM BKN250
KDNL,KDNL 140540Z 1406/1506 28005KT P6SM SKC FM140800 VRB04KT P6SM SKC
KDOV,TAF AMD KDOV 140318Z 1403/1506 30012KT 4800 RA OVC020 QNH2970INS TEMPO 1403/1407 30012G20KT BECMG 1406/1407 33009KT 9999 NSW BKN030 QNH2977INS BECMG 1414/1415 30010G15KT 9999 SKC QNH2991INS BECMG 1422/1423 30006KT 9999 SKC QNH2995INS TX21/1419Z TN12/1412Z
KDPA,KDPA 140540Z 1406/1506 23007KT P6SM BKN080 FM141600 22018G28KT P6SM OVC100 FM142300 27013G24KT P6SM VCSH SCT040 OVC080 PROB30 1423/1502 5SM SHRA OVC035 FM150200 26010KT P6SM SCT025 SCT250
KDRO,KDRO 140520Z 1406/1506 09006KT P6SM SKC FM141800 24011G18KT P6SM SKC
KDRT,KDRT 140529Z 1406/1506 07006KT P6SM SCT250 FM141300 10006KT P6SM BKN020 FM141700 14010KT P6SM SCT050 SCT250
KDSM,KDSM 140520Z 1406/1506 22005KT P6SM FEW240 FM141700 28019G28KT P6SM SCT220 FM142000 30021G36KT P6SM BKN090 FM150100 32009KT P6SM FEW250
KDTW,KDTW 140523Z 1406/1512 22007KT P6SM SCT100 SCT250 FM141400 24013G20KT P6SM SCT040 SCT100 BKN250 FM142000 16013KT P6SM BKN100 OVC250 FM150200 21010KT 6SM -SHRA OVC040
KDUJ,KDUJ 140520Z 1406/1506 22004KT P6SM SKC FM141700 23012G20KT P6SM SKC FM142200 21004KT P6SM SKC
KDVL,KDVL 140525Z 1406/1506 VRB06KT P6SM VCSH BKN060 FM141000 33012KT P6SM BKN035 FM141300 33017G27KT P6SM BKN020 FM142000 33016G24KT P6SM BKN040 FM150100 28006KT P6SM SCT250
KDVT,KDVT 140520Z 1406/1506 04005KT P6SM SKC FM142100 18007KT P6SM FEW120 FEW250 FM150200 VRB04KT P6SM FEW100 SCT250 FM150500 22008KT P6SM SCT100 BKN250
KDYS,TAF KDYS 140000Z 1400/1506 05009KT 9999 FEW100 QNH3000INS BECMG 1407/1408 15009KT 9999 FEW100 QNH3002INS BECMG 1414/1415 19010G15KT 9999 FEW100 QNH2988INS BECMG 1500/1501 17012KT 9999 FEW100 QNH2990INS TX30/1421Z TN12/1412Z
KEAR,KEAR 140523Z 1406/1506 26008KT P6SM FEW120 FM141500 29018G27KT P6SM SCT120 FM141800 32022G32KT P6SM FEW060 BKN100 FM142300 35015G21KT P6SM SCT120 FM150100 02009KT P6SM SCT150
KEAT,KEAT 140520Z 1406/1506 VRB04KT P6SM SKC FM140800 31004KT 5SM FU SKC TEMPO 1414/1418 3SM FU SCT024 FM142000 VRB03KT 5SM FU SKC FM142200 14003KT P6SM SKC
KEAU,KEAU 140520Z 1406/1506 26004KT P6SM OVC060 FM140800 23004KT P6SM OVC070 FM141100 23005KT 3SM -SHSN BR OVC035 TEMPO 1411/1415 2SM -SN BR OVC025 FM141500 24006KT 4SM -SHRASN OVC020 FM142300 30006KT P6SM OVC035
KECG,KECG 140526Z 1406/1506 30005KT 1/2SM FG VV002 FM141000 35007KT P6SM BKN020 FM141300 01007KT P6SM BKN040 FM142100 VRB04KT P6SM SKC
KECP,KECP 140536Z 1406/1506 35004KT P6SM FEW250 FM141400 04006KT P6SM FEW250 FM142000 20006KT P6SM FEW250
KEDW,TAF AMD KEDW 140228Z 1402/1503 VRB06KT 9999 FEW060 FEW120 QNH2992INS BECMG 1401/1402 24008KT 9999 FEW060 FEW120 QNH2993INS BECMG 1403/1404 VRB06KT 9999 SKC QNH2993INS TX31/1423Z TN12/1413Z LAST NO AMDS AFT 1403 NEXT 1413
KEED,KEED 140520Z 1406/1506 24008KT P6SM SKC FM141000 VRB05KT P6SM SKC FM141700 03007KT P6SM SKC FM150300 25008KT P6SM FEW120 SCT200
KEET,KEET 140535Z 1406/1506 VRB03KT P6SM SKC FM141800 25007KT P6SM SKC FM150000 21005KT P6SM SKC
KEFD,TAF KEFD 140400Z 1404/1510 VRB06KT 9999 FEW018 QNH2988INS BECMG 1408/1409 VRB06KT 9999 FEW026 QNH2995INS BECMG 1416/1417 09010G15KT 9999 SKC QNH2994INS BECMG 1502/1503 VRB06KT 9999 SKC QNH3000INS TX27/1420Z TN18/1413Z
KEFK,KEFK 140537Z 1406/1506 29005KT 3SM +SHRA BR SCT008 OVC017 TEMPO 1406/1410 1SM BR FM141000 26005KT 4SM -SHRA BR OVC007 FM141700 34005KT P6SM VCSH OVC008 FM142100 VRB03KT P6SM SCT018
KEGE,KEGE 140520Z 1406/1506 12003KT P6SM SKC FM141800 25008G18KT P6SM SKC
KEGI,TAF AMD KEGI 140500Z 1405/1507 30009KT 9999 FEW250 QNH2984INS BECMG 1408/1409 05009KT 9999 SKC QNH2992INS TX28/1420Z TN10/1410Z LAST NO AMDS AFT 1405 NEXT 1409
KEKN,KEKN 140537Z 1406/1506 00000KT 2SM BR OVC003 TEMPO 1406/1410 1/4SM FG OVC001 FM141000 00000KT 1/4SM FG OVC001 FM141300 VRB03KT 5SM BR BKN002 FM141400 24007KT P6SM FEW070 FM142300 19004KT P6SM FEW070 FM150000 00000KT P6SM FEW250
KEKO,KEKO 140520Z 1406/1506 VRB03KT P6SM SKC
KEKS,KEKS 140544Z 1406/1506 VRB06KT P6SM FEW250
KELD,KELD 140520Z 1406/1506 00000KT P6SM SKC FM141500 22007KT P6SM SKC FM150000 19004KT P6SM SKC
KELM,KELM 140520Z 1406/1506 00000KT P6SM OVC050 FM140700 00000KT P6SM SKC TEMPO 1407/1409 2SM BR SKC FM140900 00000KT 1/2SM FG FEW003 FM141400 22007KT P6SM SKC
KELP,KELP 140520Z 1406/1506 VRB04KT P6SM FEW250 FM150000 25009KT P6SM BKN200
KELY,KELY 140520Z 1406/1506 18009KT P6SM SKC FM141800 36005KT P6SM SKC FM150200 18009KT P6SM SKC
KEND,TAF KEND 140200Z 1402/1508 VRB06KT 9999 FEW250 QNH2996INS BECMG 1409/1410 25009KT 9999 SKC QNH2994INS BECMG 1414/1415 24012G22KT 9999 FEW250 QNH2982INS BECMG 1423/1424 VRB06KT 9999 SKC QNH2977INS TX30/1421Z TN10/1411Z
KENV,KENV 140529Z 1406/1506 VRB04KT P6SM SKC FM141800 11006KT P6SM SKC FM150200 VRB04KT P6SM SKC
KENW,KENW 140530Z 1406/1506 23003KT P6SM OVC080 FM141500 22010KT P6SM BKN150 FM141800 21013G23KT P6SM BKN100 FM142200 24011G22KT P6SM OVC080 FM150000 26008KT P6SM BKN060
KERI,KERI 140547Z 1406/1506 20011KT P6SM VCSH BKN060 FM140900 18009KT P6SM SCT060 FM141400 21012G20KT P6SM SCT100 FM150200 18010KT P6SM SCT060 BKN120
KEUG,KEUG 140520Z 1406/1506 VRB03KT 6SM HZ FEW020 TEMPO 1412/1416 4SM FU HZ BKN020 FM142000 36010KT 6SM HZ SKC
KEUL,KEUL 140520Z 1406/1506 VRB05KT P6SM SKC AMD NOT SKED
KEVV,KEVV 140520Z 1406/1506 00000KT P6SM FEW240 FM141000 22004KT P6SM SKC FM141400 23007KT P6SM SKC FM141700 23012G24KT P6SM SKC FM142300 23008KT P6SM SCT240 FM150300 20005KT P6SM BKN170
KEVW,KEVW 140529Z 1406/1506 16006KT P6SM SKC FM141900 29010KT P6SM SKC FM150400 16005KT P6SM SKC
KEWN,KEWN 140540Z 1406/1506 23008KT P6SM FEW025 BKN080 TEMPO 1406/1409 BKN025 FM140900 35008KT P6SM BKN040 FM141800 01005KT P6SM FEW250
KEWR,KEWR 140541Z 1406/1512 34010KT 5SM -SHRA BR FEW009 SCT015 OVC025 TEMPO 1406/1407 BKN015 FM140700 33011KT P6SM SCT025 BKN040 TEMPO 1407/1408 BKN025 FM141100 33009KT P6SM BKN040 FM141300 32008KT P6SM SCT040 BKN250 FM141600 27010KT P6SM SCT050 SCT250 FM142300 30007KT P6SM FEW250 FM150600 VRB04KT P6SM FEW250
KEYW,KEYW 140520Z 1406/1506 VRB03KT P6SM FEW015 BKN150 FM141400 10006KT P6SM FEW020 SCT150 FM150000 VRB03KT P6SM FEW020 BKN150
KFAF,TAF AMD KFAF 140254Z 1402/1508 VRB06KT 9999 BKN030 QNH2971INS TEMPO 1404/1406 8000 -SHRA BKN020 BECMG 1416/1417 35006KT 9999 SKC QNH2997INS TX19/1420Z TN10/1408Z LAST NO AMDS AFT 1403 NEXT 1410
KFAR,KFAR 140525Z 1406/1506 30007KT P6SM VCSH SCT040 BKN070 FM140900 30010KT P6SM OVC030 FM141400 32013KT P6SM VCSH OVC020 FM141700 33016G24KT P6SM OVC025 FM142100 34015KT P6SM BKN035 FM150200 VRB05KT P6SM SCT250 AMD NOT SKED
KFAT,KFAT 140520Z 1406/1506 31006KT P6SM SKC
KFAY,KFAY 140540Z 1406/1506 24006KT P6SM SKC FM140800 35007KT P6SM SCT040 TEMPO 1408/1410 36011G21KT SCT020 BKN035 FM141100 02010G18KT P6SM BKN045 FM141600 01006KT P6SM SKC
KFBG,TAF KFBG 140101Z 1401/1507 00000KT 9999 SKC QNH2973INS BECMG 1404/1405 34010G20KT 8000 -SHRA BKN010 QNH2980INS BECMG 1409/1410 35008KT 9999 NSW SCT050 QNH2988INS BECMG 1412/1413 33006KT 9999 SKC QNH3003INS TX20/1419Z TN13/1411Z
KFCS,TAF KFCS 140500Z 1405/1511 31005KT 9999 SKC QNH3016INS BECMG 1418/1419 29010G20KT 9999 SKC QNH3005INS BECMG 1500/1501 01005G10KT 9999 SKC QNH2999INS TX24/1421Z TN02/1413Z
KFDY,KFDY 140547Z 1406/1506 20005KT P6SM SKC FM141600 22017G29KT P6SM FEW060 SCT100 FM142300 18010G18KT P6SM SCT060 BKN120
KFFO,TAF KFFO 140300Z 1403/1509 VRB06KT 9999 SCT060 QNH2978INS BECMG 1414/1415 23010G15KT 9999 FEW050 QNH2979INS TEMPO 1417/1422 21015G25KT BECMG 1500/1501 19012KT 9999 BKN060 BKN150 620609 QNH2980INS BECMG 1505/1506 20012KT 8000 -SHRA BKN045 OVC080 620606 QNH2980INS TX17/1419Z TN03/1411Z
KFHU,TAF KFHU 132200Z 1322/1504 13009KT 9999 FEW080 SCT210 QNH3007INS BECMG 1409/1410 14006KT 9999 BKN160 621604 QNH3004INS BECMG 1419/1420 17012KT 9999 FEW070 BKN160 621604 QNH3007INS TX27/1322Z TN14/1412Z
KFKL,KFKL 140520Z 1406/1506 22004KT P6SM SCT050 FM141700 23012G20KT P6SM SKC FM142200 19005KT P6SM SKC
KFLG,KFLG 140532Z 1406/1506 VRB06KT P6SM SKC
KFLL,KFLL 140520Z 1406/1512 VRB04KT P6SM SCT050 BKN250 FM141600 03006KT P6SM VCSH SCT035 BKN100 FM141800 06007KT P6SM VCTS SCT025CB BKN050 BKN250 FM150300 VRB05KT P6SM SCT040 SCT100 BKN250
KFLO,KFLO 140520Z 1406/1506 30007KT P6SM SKC FM140900 35005KT P6SM SKC FM141700 VRB03KT P6SM SKC
KFMH,KFMH 140530Z 1406/1506 20020G28KT P6SM BKN008 BKN012 OVC035 WS020/17050KT FM140800 15017G35KT 2SM +RA BR OVC010 WS020/16050KT FM141400 16021G42KT 2SM BR VCSH OVC008 WS020/16050KT FM141700 19013G25KT 3SM BR OVC003 FM142000 21010G20KT P6SM OVC008 FM142300 22005KT P6SM OVC060
KFMN,KFMN 140529Z 1406/1506 07006KT P6SM SKC FM141400 VRB06KT P6SM SKC FM141900 27012G20KT P6SM SKC FM150100 30006KT P6SM SKC FM150500 07006KT P6SM SKC
KFMY,KFMY 132336Z 1400/1424 22004KT P6SM VCSH FEW020 SCT100 BKN250 FM140400 VRB03KT P6SM SCT020 BKN100 FM141500 09006KT P6SM SCT035 SCT100 BKN250 FM142000 31006KT P6SM SCT050 BKN100
KFNT,KFNT 140523Z 1406/1506 22007KT P6SM SCT040 BKN080 TEMPO 1406/1410 6SM -RA OVC040 FM141000 22007KT P6SM SCT025 BKN040 OVC080 FM141400 24013G20KT P6SM SCT040 SCT100 BKN250 FM142000 16013KT P6SM BKN100 OVC250 FM150200 21010KT 6SM -SHRA OVC040
KFOD,KFOD 140520Z 1406/1506 23005KT P6SM SCT100 FM141800 29018G27KT P6SM BKN080 FM150000 33011KT P6SM FEW180
KFOE,KFOE 140521Z 1406/1506 26005KT P6SM SKC FM141500 26012G25KT P6SM FEW250 FM141800 28019G30KT P6SM BKN100
KFPR,KFPR 140533Z 1406/1506 VRB03KT P6SM BKN110 BKN250 FM141400 02006KT P6SM SCT025 FM141800 05008KT P6SM VCSH SCT035
KFRI,TAF KFRI 140400Z 1404/1510 29007KT 9999 SKC 510073 QNH2986INS BECMG 1415/1416 24012G20KT 9999 FEW100 510003 QNH2976INS BECMG 1418/1419 26020G30KT 9999 SCT100 510003 QNH2969INS BECMG 1421/1422 27012KT 9999 FEW100 QNH2968INS TX21/1421Z TN03/1411Z
KFSD,KFSD 140520Z 1406/1506 28008KT P6SM FEW250 FM141300 28012G22KT P6SM SCT150 FM141600 31018G30KT P6SM SCT080 FM142200 33012G22KT P6SM SCT200 FM150000 32010KT P6SM SCT250
KFSM,KFSM 140520Z 1406/1506 24003KT P6SM SKC FM141700 25013G23KT P6SM SKC FM150000 27005KT P6SM SCT250
KFST,KFST 140520Z 1406/1506 15007KT P6SM BKN250
KFTK,TAF KFTK 131900Z 1319/1501 25012G22KT 9999 FEW200 510006 QNH2977INS BECMG 1322/1323 27009KT 9999 FEW100 SCT200 QNH2980INS BECMG 1415/1416 23012G20KT 9999 FEW200 510005 QNH2984INS BECMG 1422/1423 20012KT 9999 FEW200 QNH2985INS TX20/1419Z TN03/1412Z LAST NO AMDS AFT 1403 NEXT 1411
KFTW,KFTW 140520Z 1406/1506 32004KT P6SM SKC FM141100 21007KT P6SM SKC
KFTY,KFTY 140545Z 1406/1506 33003KT P6SM SKC FM141500 26007KT P6SM SKC FM142300 24004KT P6SM SKC
KFVE,KFVE 140535Z 1406/1506 15012G22KT P6SM -RA OVC015 WS020/17050KT FM140800 15015G25KT 6SM -RA BR OVC008 WS020/17050KT FM141800 15020G30KT 3SM -RA BR OVC008 WS020/15050KT FM150000 15015G25KT 3SM -RA BR OVC008 WS020/18045KT
KFWA,KFWA 140534Z 1406/1506 25007KT P6SM SCT090 FM141700 23016G28KT P6SM SCT250 FM150000 21010G20KT P6SM BKN250
KFXE,KFXE 140520Z 1406/1506 VRB04KT P6SM SCT050 BKN250 FM141600 02008KT P6SM VCSH SCT035 BKN100 FM141800 06007KT P6SM VCTS SCT025CB BKN050 BKN250 FM150100 VRB04KT P6SM SCT040 SCT100 BKN250
KFYV,KFYV 140520Z 1406/1506 22003KT P6SM SKC FM141600 23015G25KT P6SM SKC FM150000 23006KT P6SM SCT150 SCT250
KGBD,KGBD 140520Z 1406/1506 26007KT P6SM SKC FM141500 26012KT P6SM SKC FM141700 27016G24KT P6SM SKC FM150000 30010KT P6SM FEW250
KGCC,KGCC 140520Z 1406/1506 28011G21KT P6SM SCT200 FM141500 31020G33KT P6SM SCT200 FM150200 30011KT P6SM SCT200
KGCK,KGCK 140520Z 1406/1506 29007KT P6SM SKC FM141600 28013KT P6SM SKC
KGCN,KGCN 140532Z 1406/1506 05007KT P6SM FEW250
KGDV,KGDV 140520Z 1406/1506 29010KT P6SM FEW070 WS020/31040KT FM140700 29009KT P6SM BKN090 WS020/33040KT FM141200 31007KT P6SM SCT110 FM142200 31010KT P6SM BKN130
KGEG,KGEG 140520Z 1406/1506 VRB04KT P6SM FEW250 FM142100 33005KT P6SM FEW250
KGFA,TAF KGFA 140400Z 1404/1510 VRB06KT 9999 SKC 510063 QNH2999INS TX17/1421Z TN05/1414Z
KGFK,KGFK 140525Z 1406/1506 30011KT 6SM -SN OVC035 FM140900 32010KT P6SM OVC021 FM141600 34017G24KT P6SM BKN022 FM142300 33012KT P6SM BKN045 FM150300 VRB05KT P6SM SCT250
KGFL,KGFL 140525Z 1406/1506 00000KT 6SM -RA BR FEW005 BKN035 OVC050 TEMPO 1406/1410 3SM RA BR SCT005 OVC025 FM141000 VRB03KT 4SM -RA BR BKN005 OVC010 FM141400 01005KT P6SM BKN015 OVC070 FM141600 35004KT P6SM SCT040 BKN150 FM142200 VRB03KT P6SM FEW012
KGGG,KGGG 140520Z 1406/1506 VRB03KT P6SM SKC FM141500 22009KT P6SM SKC FM150000 19005KT P6SM SKC
KGGW,KGGW 140520Z 1406/1506 31009KT P6SM FEW080 FEW170 FM141400 31007KT P6SM SCT160 FM142000 31012KT P6SM BKN130
KGJT,KGJT 140520Z 1406/1506 11004KT P6SM SKC FM141000 12006KT P6SM SKC FM141900 29008KT P6SM SKC FM150300 05005KT P6SM SKC
KGKY,KGKY 140520Z 1406/1506 32004KT P6SM SKC FM141100 21007KT P6SM SKC
KGLD,KGLD 140520Z 1406/1506 27009KT P6SM SKC FM141400 29014G22KT P6SM SKC FM141800 34025G35KT P6SM SKC FM150000 36010KT P6SM SKC FM150400 29010KT P6SM SKC
KGLH,KGLH 140541Z 1406/1506 24003KT P6SM SKC FM141700 24011G17KT P6SM SKC
KGLS,KGLS 140520Z 1406/1506 VRB04KT P6SM SCT100 FM141000 06009KT P6SM FEW250 FM141500 09010KT P6SM SKC FM141900 12010KT P6SM SKC
KGMU,KGMU 140528Z 1406/1506 31005KT P6SM SKC FM141600 24008KT P6SM SKC FM150000 26003KT P6SM SKC
KGNV,KGNV 140549Z 1406/1506 32003KT 3SM BR BKN004 TEMPO 1406/1408 1/4SM FG VV002 FM141000 01003KT P6SM SCT007 FM141300 02005KT P6SM FEW030 SCT250 FM142000 06005KT P6SM FEW050 FEW250
KGON,KGON 140541Z 1406/1506 15015G21KT 2SM RA BR BKN008 FM140800 32015G30KT 2SM RA BR BKN008 FM141200 34012KT P6SM -SHRA BKN015 FM141400 33010KT P6SM BKN025 FM141600 29010KT P6SM BKN040 FM142100 27010KT P6SM FEW040
KGPI,KGPI 140520Z 1406/1506 00000KT P6SM SKC FM140800 00000KT 5SM BR SKC TEMPO 1412/1414 1SM BR FM141430 00000KT P6SM SCT100
KGPT,KGPT 140520Z 1406/1506 36005KT P6SM SKC FM142000 15007KT P6SM SKC
KGRB,KGRB 140520Z 1406/1506 26006KT P6SM OVC060 FM141000 22006KT P6SM BKN060 FM141600 21009G17KT P6SM VCSH OVC050 FM141800 22009G15KT P6SM -SHRA OVC035 TEMPO 1418/1422 BKN025 FM142200 25005KT P6SM VCSH BKN035 OVC070 FM150100 29006KT P6SM BKN070
KGRF,TAF KGRF 140500Z 1405/1511 VRB03KT 8000 HZ SKC QNH3006INS BECMG 1414/1415 15003KT 6000 HZ SKC QNH3006INS BECMG 1416/1417 02005KT 8000 HZ SKC QNH3006INS TX22/1422Z TN08/1413Z
KGRI,KGRI 140523Z 1406/1506 26008KT P6SM FEW120 FM141500 29018G27KT P6SM SCT120 FM141800 32022G32KT P6SM FEW060 BKN100 FM142300 35015G21KT P6SM SCT120 FM150100 02009KT P6SM SCT150
KGRK,TAF KGRK 140000Z 1400/1506 04007KT 9999 SKC QNH2992INS WND VRB05KT AFT 1410 BECMG 1414/1415 15010KT 9999 SCT250 QNH2989INS TX30/1421Z TN12/1412Z
KGRR,KGRR 140540Z 1406/1506 21006KT P6SM VCSH BKN035 FM141600 23012G24KT P6SM VCSH BKN040 FM150000 10006KT P6SM OVC050
KGSB,TAF KGSB 140400Z 1404/1510 VRB04KT 9999 SCT030 BKN090 QNH2970INS BECMG 1406/1407 01002KT 4800 BR SCT015 BKN023 OVC035 QNH2977INS BECMG 1408/1409 35006KT 9999 NSW FEW035 FEW050 QNH2986INS TX22/1417Z TN13/1503Z LAST NO AMDS AFT 1404 NEXT 1411
KGSO,KGSO 140540Z 1406/1506 35007KT P6SM SCT070 TEMPO 1406/1408 35010G20KT BKN060
KGSP,KGSP 140528Z 1406/1506 35008G16KT P6SM SKC FM140800 32003KT P6SM SKC FM141600 24007KT P6SM SKC FM150000 24003KT P6SM SKC
KGTB,TAF KGTB 140100Z 1401/1507 19006KT 9000 -SHRA FEW030 SCT060 OVC080 QNH2975INS BECMG 1403/1404 VRB06KT 8000 -SHRA BKN009 OVC020 610505 QNH2977INS BECMG 1406/1407 VRB06KT 9000 -SHRA BKN030 OVC100 610505 QNH2980INS BECMG 1409/1410 15006KT 9999 NSW SCT040 QNH2980INS BECMG 1413/1414 16008KT 9999 FEW060 QNH2985INS TX14/1418Z TN09/1501Z
KGTF,KGTF 140544Z 1406/1506 22009KT P6SM SCT150 SCT250
KGTR,KGTR 140541Z 1406/1506 00000KT P6SM SKC FM141800 25005KT P6SM SKC
KGUC,KGUC 140520Z 1406/1506 34003KT P6SM SKC FM141900 26008G18KT P6SM SKC
KGUP,KGUP 140529Z 1406/1506 VRB06KT P6SM SKC FM141900 29008KT P6SM SKC FM150100 VRB06KT P6SM SKC
KGUR,TAF KGUR 140500Z 1405/1511 28006KT 9999 SKC 510053 QNH2997INS BECMG 1416/1417 31020G30KT 9999 SKC 510043 QNH2995INS BECMG 1417/1418 31030G40KT 9999 SKC 510043 QNH2991INS BECMG 1421/1422 32020G30KT 9999 SKC 510033 QNH2991INS BECMG 1500/1501 34012KT 9999 FEW220 510043 QNH2994INS TX21/1420Z TN02/1406Z
KGUS,TAF KGUS 132100Z 1321/1503 25015G25KT 9999 BKN070 620703 QNH2973INS BECMG 1323/1324 26009KT 9999 SCT075 OVC100 QNH2981INS BECMG 1414/1415 24015G20KT 9999 SKC QNH2984INS BECMG 1420/1421 23020G30KT 9999 FEW160 QNH2979INS BECMG 1423/1424 17006KT 9999 FEW070 QNH2979INS TX14/1420Z TN00/1411Z LAST NO AMDS AFT 1403 NEXT 1413
KGUY,KGUY 140533Z 1406/1506 25008KT P6SM SKC FM141800 24014KT P6SM SKC FM150000 18005KT P6SM SKC
KGWO,KGWO 140541Z 1406/1506 00000KT P6SM SKC FM141800 25009G15KT P6SM SKC
KGYY,KGYY 140540Z 1406/1506 20004KT P6SM BKN080 FM141600 20018G28KT P6SM OVC100 FM142330 27012G22KT P6SM VCSH SCT040 OVC080 PROB30 1500/1502 5SM SHRA OVC035 FM150200 26008KT P6SM SCT025 SCT250
KHBG,KHBG 140541Z 1406/1506 29003KT P6SM SKC
KHCR,KHCR 140529Z 1406/1506 VRB04KT P6SM SKC FM142100 34007KT P6SM SKC FM150000 VRB04KT P6SM SKC
KHDC,KHDC 140520Z 1406/1506 VRB03KT P6SM SKC
KHDN,KHDN 140520Z 1406/1506 11009KT P6SM SKC FM141900 30010G18KT P6SM SKC
KHIB,KHIB 140535Z 1406/1506 21003KT 1 1/2SM -SN BR BKN010 OVC024 FM141700 VRB03KT P6SM VCSH OVC014 FM142000 02006KT P6SM VCSH BKN025
KHIE,KHIE 140526Z 1405/1424 16011G19KT 5SM RA OVC070 WS020/16030KT FM141000 14015G25KT 4SM RA BR OVC007 WS020/16040KT FM142100 24005KT P6SM VCSH SCT015 OVC050
KHIF,TAF KHIF 140500Z 1405/1511 11012KT 9999 SKC QNH3016INS BECMG 1418/1419 33006KT 9999 SKC QNH3010INS BECMG 1504/1505 11012KT 9999 SKC QNH3009INS TX22/1423Z TN07/1413Z
KHIO,KHIO 140520Z 1406/1506 VRB03KT P6SM SKC
KHKS,KHKS 140541Z 1406/1506 00000KT P6SM SKC
KHKY,KHKY 140528Z 1406/1506 32004KT P6SM SKC FM141600 24006KT P6SM SKC FM150000 32003KT P6SM SKC
KHLG,KHLG 140520Z 1406/1506 22004KT P6SM SCT050 FM141600 23012G20KT P6SM SKC FM142200 17004KT P6SM SCT250
KHLN,KHLN 140544Z 1406/1506 VRB06KT P6SM SCT150 SCT250
KHMN,TAF AMD KHMN 140010Z 1400/1423 VRB06KT 9999 SCT250 QNH3006INS BECMG 1417/1418 21009KT 9999 FEW120 SCT250 QNH2999INS TX26/1400Z TN08/1412Z LAST NO AMDS AFT 1400 NEXT 1409
KHNB,KHNB 140520Z 1406/1506 19004KT P6SM SCT100 FM141500 23017G27KT P6SM SKC FM142300 18010KT P6SM SCT250
KHND,KHND 140520Z 1406/1506 17008KT P6SM SKC FM141300 VRB05KT P6SM SKC FM141700 05007KT P6SM SKC FM150300 17008KT P6SM SKC
KHOB,KHOB 140520Z 1406/1506 11008KT P6SM SCT040 SCT250
KHON,KHON 140520Z 1406/1506 34008KT P6SM SKC FM141300 32015G25KT P6SM SCT150 FM141500 32020G30KT P6SM SCT200 FM142200 34012G22KT P6SM FEW250 FM150000 34010KT P6SM FEW250
KHOP,TAF KHOP 140000Z 1400/1506 VRB06KT 9999 SKC QNH2989INS BECMG 1416/1417 22012G18KT 9999 SKC QNH2996INS BECMG 1421/1422 21012KT 9999 FEW075 QNH2986INS TX20/1421Z TN08/1412Z
KHOT,KHOT 140520Z 1406/1506 VRB03KT P6SM SKC FM141600 25011G21KT P6SM SKC FM150100 23003KT P6SM SKC
KHOU,KHOU 140520Z 1406/1506 06008KT P6SM FEW020 BKN250 FM141500 09006KT P6SM FEW250 FM142000 12010KT P6SM FEW250 FM150000 15009KT P6SM FEW250
KHPN,KHPN 140541Z 1406/1506 32012KT 5SM -SHRA BR FEW008 SCT025 OVC035 TEMPO 1406/1408 BKN015 FM140900 32011KT P6SM BKN035 FM141400 30008KT P6SM SCT040 SCT250 FM142300 32004KT P6SM FEW250 AMD NOT SKED
KHQM,KHQM 140527Z 1406/1506 VRB03KT P6SM SKC FM141000 09006KT P6SM SKC FM142100 29006KT P6SM SKC FM150300 VRB03KT P6SM SKC
KHRL,KHRL 140523Z 1406/1506 18003KT P6SM FEW120 SCT250 FM141700 08009KT P6SM FEW045
KHRO,KHRO 140520Z 1406/1506 VRB04KT P6SM SKC FM141500 26017G25KT P6SM SKC FM150100 20007KT P6SM SKC
KHRT,TAF KHRT 140200Z 1402/1508 03009KT 9999 SKC 510003 QNH2989INS BECMG 1414/1415 09009KT 9999 SKC QNH2995INS TX28/1420Z TN17/1412Z
KHST,TAF KHST 140300Z 1403/1509 VRB06KT 9999 FEW018 SCT025 SCT045 QNH2984INS BECMG 1414/1415 05008KT 9999 VCSH SCT025 BKN040 QNH2986INS TEMPO 1417/1424 VRB12G20KT 3200 -TSRA BKN025CB OVC040 BECMG 1423/1424 VRB06KT 9999 NSW SCT020 BKN040 QNH2990INS TX30/1419Z TN24/1410Z
KHSV,KHSV 140520Z 1406/1506 VRB03KT P6SM SKC FM141500 26007KT P6SM SKC FM141800 24012G19KT P6SM SKC FM142300 21005KT P6SM SKC
KHTS,KHTS 140537Z 1406/1506 16003KT P6SM FEW250 FM141400 23006KT P6SM FEW070 FM141600 24009G18KT P6SM SKC FM142200 22008KT P6SM FEW070 FM142300 19006KT P6SM FEW070 FM150500 17004KT P6SM SCT120 WS015/22035KT
KHUA,TAF AMD KHUA 132205Z 1322/1502 29009KT 9999 FEW050 510033 QNH2983INS BECMG 1401/1402 VRB06KT 9999 SKC 510043 QNH2996INS TX22/1322Z TN07/1412Z LAST NO AMDS AFT 1400 NEXT 1412
KHUF,KHUF 140525Z 1406/1506 23006KT P6SM SCT100 FM141500 23012G27KT P6SM SCT100 FM141800 22016G33KT P6SM SCT100 FM150000 22010KT P6SM BKN200
KHUL,KHUL 140535Z 1406/1506 14010G18KT P6SM VCSH BKN035 WS020/17050KT FM140900 15012G22KT P6SM -RA OVC015 WS020/17050KT FM141200 15018G28KT 6SM -RA BR OVC008 WS020/17050KT FM141800 15020G30KT 3SM -RA BR OVC008 WS020/15050KT FM150000 15015G25KT 3SM -RA BR OVC008 WS020/18045KT
KHUM,KHUM 140520Z 1406/1506 VRB04KT P6SM FEW250
KHUT,KHUT 140520Z 1406/1506 28005KT P6SM SKC FM141700 27018G28KT P6SM SKC FM150000 28011KT P6SM FEW250
KHVR,KHVR 140544Z 1406/1506 24009KT P6SM SCT180 FM141900 29013G21KT P6SM BKN150
KHYA,KHYA 140530Z 1406/1506 14012G20KT P6SM FEW007 SCT013 BKN035 WS020/16055KT FM140700 15017G32KT 5SM RA BR OVC025 WS020/16055KT FM141100 14022G39KT 3SM RA BR OVC008 WS020/16060KT FM141500 16022G42KT 1 1/2SM BR VCSH OVC008 FM141800 18016G28KT 2SM BR OVC003 FM142000 20012G21KT 1 1/2SM BR OVC003 WS020/17045KT FM150000 23006KT 5SM BR OVC050
KHYR,KHYR 140535Z 1406/1506 25004KT P6SM FEW022 SCT030 OVC050 FM141000 VRB04KT 2SM -SHSN BR OVC010 FM141700 VRB04KT 3SM -SHRA BR OVC010 FM142200 VRB04KT P6SM VCSH BKN022
KHYS,KHYS 140520Z 1406/1506 27007KT P6SM SKC FM141600 30016KT P6SM SKC
KIAB,TAF KIAB 140200Z 1402/1508 VRB06KT 9999 SKC QNH2988INS BECMG 1415/1416 27020G30KT 9999 SKC QNH2972INS BECMG 1423/1424 29009KT 9999 SKC QNH2973INS TX28/1422Z TN08/1413Z
KIAD,KIAD 140527Z 1406/1512 02006KT P6SM OVC060 FM140800 00000KT P6SM BKN070 FM141400 20003KT P6SM SKC FM141700 21006KT P6SM SKC FM142300 16004KT P6SM SKC
KIAG,KIAG 140520Z 1406/1506 18006KT P6SM VCSH BKN050 FM141000 19010KT P6SM BKN050 FM141600 22014G24KT P6SM SCT080 FM150000 14005KT P6SM SCT250
KIAH,KIAH 140520Z 1406/1512 VRB05KT P6SM FEW050 FM141600 10007KT P6SM FEW250 FM142000 14008KT P6SM FEW250 FM150600 VRB03KT P6SM FEW150
KICT,KICT 140520Z 1406/1506 25005KT P6SM SKC FM141700 26018G26KT P6SM FEW250 FM150000 26011KT P6SM FEW250
KIDA,KIDA 140520Z 1406/1506 23010KT P6SM SKC FM140800 27010KT P6SM SKC FM141000 VRB04KT P6SM SKC FM141400 01006KT P6SM SKC FM141700 VRB05KT P6SM SKC
KIFP,KIFP 140520Z 1406/1506 VRB05KT P6SM SKC FM140900 02008KT P6SM SKC FM141600 36014KT P6SM SKC FM142100 33007KT P6SM SKC FM150100 VRB05KT P6SM FEW120 SCT200
KILG,KILG 140520Z 1406/1506 34007KT P6SM VCSH OVC045 TEMPO 1406/1408 3SM BR FM140800 34006KT P6SM BKN050 TEMPO 1408/1410 3SM BR
KILM,KILM 140520Z 1406/1506 27004KT P6SM FEW090 FM140800 31006KT P6SM FEW120 FM141100 34005KT P6SM FEW080 FM141400 02006KT P6SM SCT025 FM141700 35005KT P6SM SKC FM142200 VRB03KT P6SM SKC
KILN,KILN 140523Z 1406/1506 17005KT P6SM BKN100 FM141000 25005KT P6SM SCT100 FM141400 22011KT P6SM SCT250 FM141600 22015G25KT P6SM SCT250 FM142300 21011KT P6SM BKN200 FM150400 18012KT P6SM BKN150
KIND,KIND 140525Z 1406/1512 22006KT P6SM SCT100 FM141500 23012G20KT P6SM SCT100 FM141800 22017G35KT P6SM SCT100 FM150000 23010KT P6SM BKN200 FM150600 27009KT P6SM OVC090
KINK,KINK 140520Z 1406/1506 10007KT P6SM FEW250
KINL,KINL 140535Z 1406/1506 24005KT 2SM -SN BR OVC010 FM141000 VRB03KT 2SM -SHSN BR OVC008 FM141400 VRB03KT P6SM VCSH OVC011 FM141900 02006KT P6SM VCSH BKN023 FM142300 34005KT P6SM BKN040
KINS,TAF KINS 140506Z 1405/1511 07006KT 9999 FEW250 QNH3000INS BECMG 1407/1408 VRB06KT 9999 SKC QNH2991INS BECMG 1420/1421 10012KT 9999 SKC QNH2984INS BECMG 1502/1503 13008KT 9999 SKC QNH2990INS TX32/1421Z TN12/1414Z
KINT,KINT 140540Z 1406/1506 35007KT P6SM SCT070 TEMPO 1406/1408 35010G20KT BKN060
KINW,KINW 140532Z 1406/1506 VRB05KT P6SM SKC
KIPL,KIPL 140520Z 1406/1506 27006KT P6SM SKC FM141500 VRB04KT P6SM SKC FM142000 12009KT P6SM FEW120
KIPT,KIPT 140522Z 1406/1506 00000KT P6SM OVC100 FM140700 00000KT 5SM BR VCFG BKN004 TEMPO 1409/1412 1/2SM FG FM141330 22006KT P6SM SCT060
KISM,KISM 140533Z 1406/1506 30003KT P6SM SCT250 FM141400 04006KT P6SM SCT030 SCT050 FM141800 05008KT P6SM SCT040 FM150000 04003KT P6SM SCT050
KISO,KISO 140540Z 1406/1506 23008KT P6SM SHRA BKN035 TEMPO 1406/1408 BKN025 FM140800 32008KT P6SM BKN040 FM141500 02006KT P6SM SKC AMD LTD TO CLD VIS AND WIND
KISP,KISP 140541Z 1406/1506 33012KT 5SM -SHRA BR BKN008 TEMPO 1406/1407 19008KT 2SM SHRA BR BKN006 FM140700 33012KT P6SM BKN015 FM141000 33010KT P6SM BKN040 FM141500 29010KT P6SM SCT020 BKN250 FM141900 29009KT P6SM SCT250 FM142200 33005KT P6SM SCT250
KITH,KITH 140520Z 1406/1506 VRB03KT P6SM -SHRA OVC050 FM140800 VRB03KT 3SM BR FEW050 FM141300 17006KT P6SM FEW200 FM141500 20007KT P6SM SKC
KIWA,KIWA 140520Z 1406/1506 11005KT P6SM SKC FM142100 21008KT P6SM FEW120 FEW250 FM150300 12006KT P6SM SCT100 BKN250 AMD LTD TO CLD VIS AND WIND TIL 141200
KIWD,KIWD 140520Z 1406/1506 26008KT P6SM FEW050 OVC120 FM141100 23006KT P6SM -SHSN BKN025 FM141500 20005KT 3SM -SHSN BR OVC023 FM141700 VRB04KT 2SM -SHRASN BR OVC023 FM150200 00000KT P6SM BKN019
KIXD,KIXD 140520Z 1406/1506 25005KT P6SM SKC FM141500 27020G30KT P6SM SCT090 FM150000 30011KT P6SM FEW250 FM150200 35008KT P6SM FEW250
KJAC,KJAC 140521Z 1406/1506 01006KT P6SM SCT250 FM141400 VRB05KT P6SM SCT250 FM142100 29007KT P6SM SCT250 FM150200 36006KT P6SM SCT250
KJAN,KJAN 140541Z 1406/1506 00000KT P6SM SKC FM141800 25005KT P6SM SKC
KJAX,KJAX 140531Z 1406/1506 00000KT P6SM FEW250 TEMPO 1406/1410 6SM BR FEW010 FM141000 34005KT P6SM FEW040 SCT250 FM141500 02007KT P6SM FEW250 FM142000 06006KT P6SM FEW060
KJBR,KJBR 140520Z 1406/1506 VRB03KT P6SM SKC FM141600 24017G25KT P6SM SKC FM142300 22012KT P6SM SKC FM150200 21008KT P6SM FEW250 WS020/24045KT
KJCT,KJCT 140524Z 1406/1506 VRB05KT P6SM SCT250 FM141700 18008KT P6SM FEW250
KJEF,KJEF 140530Z 1406/1506 VRB03KT P6SM SKC FM141600 26013G21KT P6SM SKC FM141800 26017G28KT P6SM FEW250 FM150000 29010G20KT P6SM BKN120 FM150100 32007KT P6SM BKN250
KJER,KJER 140520Z 1406/1506 12007KT P6SM SKC FM141600 VRB03KT P6SM SKC FM142200 25007KT P6SM SKC
KJFK,KJFK 140541Z 1406/1512 33012G18KT 5SM -SHRA BR BKN015 FM140700 33013KT 5SM -SHRA SCT025 OVC040 FM140900 33012KT P6SM BKN040 FM141300 32009KT P6SM SCT040 BKN250 FM141600 30010KT P6SM SCT045 SCT250 FM150000 31007KT P6SM FEW250 FM150900 32004KT P6SM FEW250
KJHW,KJHW 140520Z 1406/1506 22006KT P6SM SCT050 FM141400 21010G16KT P6SM SCT080 FM150000 19007KT P6SM SCT250
KJKA,KJKA 140520Z 1406/1506 00000KT P6SM SKC FM141200 36004KT P6SM SKC FM141800 14005KT P6SM SKC FM150000 00000KT P6SM SKC
KJKL,KJKL 140529Z 1406/1506 VRB03KT P6SM SCT100 FM141500 23009G19KT P6SM SKC FM142300 19005KT P6SM SKC
KJLN,KJLN 140520Z 1406/1506 20004KT P6SM SKC FM140800 22007KT P6SM SKC FM141600 25010G18KT P6SM SKC FM141800 25014G23KT P6SM SKC FM142300 25013G22KT P6SM FEW250 FM150100 23008KT P6SM SCT240
KJMS,KJMS 140545Z 1406/1506 30010KT P6SM SCT070 OVC080 FM140800 31010KT P6SM VCSH BKN060 OVC070 FM141100 32014G19KT P6SM SCT020 OVC035 FM141300 33021G31KT P6SM BKN025 OVC035 FM141600 34022G33KT P6SM OVC030 FM142100 33017G27KT P6SM BKN040 FM150100 30006KT P6SM SCT050 SCT150
KJST,KJST 140522Z 1406/1506 28007KT P6SM SKC FM141500 24010G18KT P6SM SCT050 FM142200 24007KT P6SM SKC
KJVL,KJVL 140530Z 1406/1506 23005KT P6SM BKN070 FM141600 21010KT P6SM BKN110 FM141900 22014G23KT P6SM OVC080 FM142100 25013G22KT P6SM OVC080 FM150000 27006KT P6SM BKN060
KJXN,KJXN 140540Z 1406/1506 23007KT P6SM FEW045 BKN100 FM141600 22013G28KT P6SM SCT100 FM142300 16007KT P6SM SCT100
KJZI,KJZI 140520Z 1406/1506 32006KT P6SM SKC FM142000 25005KT P6SM SKC FM150100 00000KT P6SM SKC
KLAF,KLAF 140525Z 1406/1506 24006KT P6SM SCT100 FM141500 23012G29KT P6SM SCT100 FM141800 23017G36KT P6SM SCT100 FM150000 23010KT P6SM BKN200 FM150500 25008KT P6SM OVC090
KLAL,KLAL 132336Z 1400/1424 VRB03KT P6SM FEW020 SCT120 BKN250 FM141000 VRB03KT 6SM BR FEW008 SCT120 BKN250 FM141400 06007KT P6SM SCT035 SCT120 BKN250
KLAN,KLAN 140540Z 1406/1506 21005KT P6SM SCT040 BKN100 FM141600 22013G28KT P6SM SCT040 BKN150 FM150000 12006KT P6SM BKN250
KLAR,KLAR 140520Z 1406/1506 26008KT P6SM SKC FM141600 31015G22KT P6SM SKC FM150000 32007KT P6SM FEW250
KLAS,KLAS 140520Z 1406/1512 24007KT P6SM SKC FM141500 VRB05KT P6SM SKC FM141800 06006KT P6SM SKC FM150300 23007KT P6SM SKC FM150700 23007KT P6SM FEW120
KLAW,KLAW 140520Z 1406/1506 25003KT P6SM SKC FM141600 21013G20KT P6SM FEW190 FM150000 20006KT P6SM SKC
KLAX,KLAX 140524Z 1406/1512 VRB03KT P6SM OVC008 FM141600 24006KT P6SM OVC010 FM141900 27012KT P6SM BKN015 FM150300 27007KT P6SM OVC012 FM150700 VRB03KT P6SM OVC008
KLBB,KLBB 140520Z 1406/1506 VRB06KT P6SM FEW250 FM141700 20015KT P6SM SKC
KLBE,KLBE 140520Z 1406/1506 20003KT P6SM SKC FM141700 23012G20KT P6SM SKC FM142200 22006KT P6SM SKC
KLBF,KLBF 140520Z 1406/1506 30005KT P6SM SKC FM141400 28012KT P6SM SKC FM141700 30020G30KT P6SM FEW250 FM142000 32024G35KT P6SM FEW250 FM142300 34017G27KT P6SM FEW250 FM150100 01010KT P6SM SCT250
KLBL,KLBL 140520Z 1406/1506 29007KT P6SM SKC
KLBT,KLBT 140520Z 1406/1506 29007KT P6SM FEW090 FM140800 35006KT P6SM SKC FM141900 VRB03KT P6SM SKC AMD NOT SKED
KLBX,KLBX 140520Z 1406/1506 VRB03KT P6SM FEW030 BKN120 FM141000 VRB02KT 6SM BR FEW015 FEW150 FM141500 09006KT P6SM FEW250 FM142000 12010KT P6SM FEW250 FM150200 VRB05KT P6SM SKC
KLCH,KLCH 140520Z 1406/1506 04003KT P6SM SKC FM141400 07008KT P6SM SKC FM141900 VRB05KT P6SM SKC
KLCK,KLCK 140523Z 1406/1506 19004KT P6SM BKN100 FM141000 19006KT P6SM SCT100 FM141600 22014G24KT P6SM FEW250 FM150000 16007KT P6SM SCT250 FM150300 17010KT P6SM BKN120 WS020/20040KT
KLEB,KLEB 140526Z 1405/1424 23006G19KT 4SM -RA FEW008 BKN024 OVC050 WS020/16040KT FM140700 20004KT 2SM RA BR OVC007 WS020/16045KT FM141500 27004KT 4SM BR VCSH OVC009 FM141800 VRB03KT P6SM BKN015 OVC050 FM142000 30008KT P6SM SCT050 BKN250
KLEE,KLEE 140533Z 1406/1506 32003KT P6SM SKC FM141500 06006KT P6SM SCT040 SCT100 FM150000 07005KT P6SM FEW050
KLEX,KLEX 140520Z 1406/1506 20005KT P6SM SCT100 FM141500 24017G24KT P6SM FEW250 FM142300 18010KT P6SM SCT250
KLFI,TAF KLFI 140100Z 1401/1507 VRB06KT 9999 BKN050 QNH2973INS TEMPO 1405/1407 35015G25KT 8000 -SHRA BKN009 OVC030 BECMG 1409/1410 36012G20KT 9999 BKN010 OVC045 QNH2981INS BECMG 1411/1412 34009KT 9999 OVC050 QNH2986INS BECMG 1415/1416 VRB06KT 9999 BKN070 QNH2990INS TX21/1420Z TN14/1410Z
KLFK,KLFK 140520Z 1406/1506 00000KT P6SM SKC FM141500 VRB05KT P6SM SKC FM142000 17003KT P6SM SKC
KLFT,KLFT 140520Z 1406/1506 00000KT P6SM SKC FM141500 VRB04KT P6SM SKC
KLGA,KLGA 140541Z 1406/1512 33009KT 4SM -SHRA BR BKN015 FM140700 33011KT 5SM -SHRA BR SCT025 OVC040 FM140900 33012KT P6SM BKN040 FM141200 33010KT P6SM BKN040 FM141400 32009KT P6SM SCT040 BKN250 FM141700 29010KT P6SM FEW250 FM150100 32008KT P6SM FEW250 FM150800 30004KT P6SM SKC
KLGB,KLGB 140524Z 1406/1506 VRB03KT P6SM OVC015 FM142000 19008KT P6SM SKC FM150400 VRB03KT P6SM OVC010
KLGU,KLGU 140529Z 1406/1506 VRB04KT P6SM SKC
KLIT,KLIT 140520Z 1406/1506 VRB04KT P6SM SKC FM141600 25014G23KT P6SM SKC FM150100 22006KT P6SM SKC
KLLQ,KLLQ 140520Z 1406/1506 VRB03KT P6SM SKC FM141600 25009G17KT P6SM SKC FM142200 22004KT P6SM SKC AMD NOT SKED
KLMT,KLMT 140535Z 1406/1506 VRB04KT P6SM SKC
KLND,KLND 140521Z 1406/1506 25007KT P6SM SCT250 FM141100 VRB05KT P6SM SCT250 FM150200 25007KT P6SM SCT250
KLNK,KLNK 140520Z 1406/1506 27008KT P6SM SKC FM141600 30018G33KT P6SM SCT100 FM150000 36007KT P6SM FEW250
KLNS,KLNS 140522Z 1406/1506 32004KT P6SM VCSH OVC060 FM140900 VRB02KT 6SM BR SCT250 FM141400 26006KT P6SM SCT060
KLOZ,KLOZ 140529Z 1406/1506 VRB03KT P6SM SCT100 FM141500 24011G20KT P6SM SKC FM142300 19005KT P6SM SKC
KLRD,KLRD 140528Z 1406/1506 11006KT P6SM FEW025 SCT250 TEMPO 1412/1416 BKN020 FM141600 13010KT P6SM FEW045 SCT250 FM150300 13012KT P6SM FEW250
KLRF,TAF KLRF 132310Z 1323/1505 29012KT 9999 SKC QNH2987INS BECMG 1405/1406 VRB06KT 9999 SKC QNH2993INS BECMG 1415/1416 27012G20KT 9999 SKC QNH2995INS BECMG 1421/1422 22009KT 9999 SKC QNH2984INS TX29/1421Z TN08/1411Z
KLRU,KLRU 140520Z 1406/1506 VRB04KT P6SM SKC FM150000 24006KT P6SM BKN250
KLSE,KLSE 140525Z 1406/1506 28008KT P6SM OVC070 FM141900 26009KT P6SM VCSH OVC050 FM142200 30009KT P6SM OVC050
KLSF,TAF KLSF 132248Z 1321/1503 29008KT 9999 FEW030 BKN250 510102 QNH2982INS TEMPO 1321/1323 30010G15KT BECMG 1322/1323 29004KT 9999 SCT250 QNH2984INS BECMG 1408/1409 06002KT 9999 SKC QNH2997INS BECMG 1417/1418 26007KT 9999 SKC QNH3000INS TX27/1420Z TN08/1412Z LAST NO AMDS AFT 1403 NEXT 1413
KLSV,TAF KLSV 132300Z 1323/1505 06010G15KT 9999 FEW200 QNH2978INS BECMG 1403/1404 28010KT 9999 FEW200 QNH2991INS BECMG 1416/1417 07010KT 9999 SKC QNH2984INS BECMG 1422/1423 15008KT 9999 SKC QNH2978INS TX34/1423Z TN18/1414Z
KLTS,TAF KLTS 140100Z 1401/1507 VRB06KT 9999 SKC QNH2999INS BECMG 1415/1416 22012G18KT 9999 SKC QNH2981INS BECMG 1423/1424 VRB06KT 9999 SKC QNH2980INS TX29/1421Z TN10/1412Z
KLUF,TAF KLUF 140400Z 1404/1510 VRB06KT 9999 FEW150 QNH2970INS TX36/1423Z TN20/1413Z
KLUK,KLUK 140523Z 1406/1506 21005KT P6SM BKN100 FM140900 21006KT P6SM SCT100 FM141400 22011KT P6SM FEW250 FM141600 24015G26KT P6SM SCT200 FM142200 17008KT P6SM BKN200 FM150300 19010KT P6SM BKN120
KLVK,KLVK 140531Z 1406/1506 VRB03KT P6SM SKC FM140900 VRB03KT P6SM BKN009 FM141630 VRB04KT P6SM SKC FM142300 28008KT P6SM SKC FM150300 VRB05KT P6SM SKC
KLVM,KLVM 140527Z 1406/1506 24010KT P6SM SCT250 FM141900 28014KT P6SM BKN150
KLVS,KLVS 140529Z 1406/1506 18007KT P6SM SKC FM141600 21010KT P6SM SKC FM141900 24015G25KT P6SM SKC FM150100 26008KT P6SM SKC
KLWB,KLWB 140520Z 1406/1506 VRB03KT P6SM SKC FM141600 24010G18KT P6SM SKC FM150000 00000KT P6SM SKC
KLWS,KLWS 140520Z 1406/1506 VRB04KT P6SM FEW200
KLWT,KLWT 140544Z 1406/1506 VRB06KT P6SM SCT180 FM142000 31012G22KT P6SM SCT150 FM150000 31009KT P6SM BKN150 BKN250
KLYH,KLYH 140520Z 1406/1506 36008KT P6SM OVC070 FM141000 VRB02KT P6SM FEW250 FM141400 23006KT P6SM SKC FM150000 00000KT P6SM SKC
KMAF,KMAF 140520Z 1406/1506 10009KT P6SM FEW250 FM141500 16011KT P6SM FEW250
KMBG,KMBG 140521Z 1406/1506 31015KT P6SM SKC FM141500 33019G27KT P6SM BKN100 FM150000 VRB05KT P6SM SCT250
KMBL,KMBL 140535Z 1406/1506 27009G16KT 6SM -SHRA SCT025 BKN035 TEMPO 1406/1409 5SM -SHRA BR BKN025 FM140900 25007KT P6SM VCSH OVC045 FM141400 21008G16KT P6SM VCSH OVC060 FM142000 20013G20KT 6SM -SHRA BKN035 FM150300 19005KT P6SM VCSH OVC040
KMBS,KMBS 140523Z 1406/1506 22007KT P6SM SCT035 OVC070 TEMPO 1406/1410 6SM -RA BKN015 OVC035 FM141000 22007KT P6SM -SHRA SCT015 OVC025 FM141400 24013G20KT P6SM SCT035 SCT100 BKN250 FM142000 16013KT P6SM BKN100 OVC250 FM150200 21010KT 6SM -SHRA OVC040
KMCB,KMCB 140520Z 1406/1506 VRB04KT P6SM SKC
KMCC,KMCC 140527Z 1406/1506 VRB05KT P6SM SKC
KMCE,KMCE 140520Z 1406/1506 32005KT P6SM SKC
KMCF,TAF AMD KMCF 140409Z 1404/1507 VRB06KT 9999 SCT010 BKN015 BKN025 QNH2984INS TEMPO 1404/1411 VRB06KT 1400 BR BKN015 BECMG 1415/1416 06010G15KT 9999 FEW020 SCT025 QNH2992INS TX29/1419Z TN21/1409Z
KMCI,KMCI 140520Z 1406/1506 24005KT P6SM SKC FM141400 26019G29KT P6SM SCT080 FM142000 29022G33KT P6SM BKN080 FM150000 35009KT P6SM FEW250
KMCK,KMCK 140520Z 1406/1506 28007KT P6SM SKC FM141400 27010G18KT P6SM SKC FM141700 29019G29KT P6SM SKC FM142000 31025G35KT P6SM SKC FM150100 35006KT P6SM SKC
KMCN,KMCN 140545Z 1406/1506 30003KT P6SM SKC FM141500 26007KT P6SM SKC FM142300 24004KT P6SM SKC
KMCO,KMCO 140533Z 1406/1512 32004KT P6SM SCT250 FM141400 02006KT P6SM SCT030 SCT050 FM141800 05009KT P6SM SCT040 FM150000 05005KT P6SM SCT050
KMCW,KMCW 140520Z 1406/1506 25006KT P6SM SCT180 FM141700 29014G25KT P6SM BKN050 FM150100 31009KT P6SM FEW100
KMDT,KMDT 140522Z 1406/1506 VRB02KT P6SM VCSH OVC060 FM140800 VRB02KT 6SM BR SCT250 FM141400 27006KT P6SM SCT060
KMDW,KMDW 140540Z 1406/1512 24007KT P6SM BKN080 FM141600 22018G28KT P6SM OVC100 FM142300 27013G24KT P6SM VCSH SCT040 OVC080 PROB30 1423/1502 5SM SHRA OVC035 FM150200 27011KT P6SM SCT025 SCT250
KMEI,KMEI 140541Z 1406/1506 00000KT P6SM SKC
KMEM,KMEM 140520Z 1406/1512 VRB03KT P6SM SKC FM141400 21009KT P6SM SKC FM141600 24012G20KT P6SM SKC FM150000 21006KT P6SM SKC FM150300 20010KT P6SM FEW250 WS020/24040KT
KMER,KMER 140520Z 1406/1506 32005KT P6SM SKC
KMEV,KMEV 140520Z 1406/1506 12007KT P6SM SKC FM141500 00000KT P6SM SKC FM142100 01008KT P6SM FEW100 FM150300 VRB04KT P6SM FEW250
KMFD,KMFD 140547Z 1406/1506 20005KT P6SM SCT060 FM141300 22010KT P6SM SCT100 FM141800 22014G25KT P6SM SCT100 FM150000 18009KT P6SM SCT060 BKN120
KMFE,KMFE 140523Z 1406/1506 14003KT P6SM FEW120 BKN250 FM141600 10009KT P6SM FEW050
KMFR,KMFR 140535Z 1406/1506 VRB03KT P6SM SKC
KMGE,TAF COR KMGE 140025Z 1321/1503 30012G25KT 9999 SCT030 SCT250 QNH2985INS BECMG 1400/1401 32009KT 9999 SKC QNH2989INS BECMG 1414/1415 28010G15KT 9999 SKC QNH3001INS BECMG 1423/1424 19006KT 9999 SKC QNH3003INS TX23/1322Z TN08/1411Z LAST NO AMDS AFT 1403 NEXT 1411
KMGM,KMGM 140535Z 1406/1506 VRB03KT P6SM SKC FM141800 27007KT P6SM SKC FM150000 21005KT P6SM SKC
KMGW,KMGW 140520Z 1406/1506 22004KT P6SM SKC FM141600 23012G20KT P6SM SKC FM142200 21005KT P6SM FEW250
KMHK,KMHK 140521Z 1406/1506 28004KT P6SM SKC FM141500 24011G25KT P6SM FEW250 FM141800 27017G30KT P6SM SCT120
KMHR,KMHR 140527Z 1406/1506 VRB03KT P6SM SKC
KMHT,KMHT 140526Z 1405/1424 14011KT P6SM -RA BKN009 BKN024 OVC070 WS020/17045KT FM141000 11009G16KT 3SM -RA BR BKN006 OVC015 WS020/17040KT FM141400 11010G20KT 3SM RA BR SCT004 OVC009 WS020/15040KT FM141700 26006KT P6SM VCSH FEW004 OVC015 FM141900 30005KT P6SM BKN050
KMIA,KMIA 140520Z 1406/1512 VRB04KT P6SM SCT050 BKN250 FM141600 03006KT P6SM VCSH SCT035 BKN100 FM141800 07007KT P6SM VCTS SCT025CB BKN050 BKN250 FM150100 VRB04KT P6SM SCT040 SCT100 BKN250
KMIB,TAF KMIB 140100Z 1401/1507 34015G20KT 9999 FEW090 QNH2970INS TEMPO 1411/1414 33010G15KT 9000 -SN BKN020 OVC030 620208 BECMG 1414/1415 33015G25KT 9999 BKN030 QNH2973INS BECMG 1420/1421 31010G15KT 9999 SCT070 QNH2979INS BECMG 1501/1502 23009KT 9999 SCT080 QNH2974INS TX08/1422Z TN00/1411Z
KMIV,KMIV 140520Z 1406/1506 34009KT P6SM VCSH OVC025 TEMPO 1406/1407 3SM BR FM140700 34008KT P6SM OVC035 TEMPO 1407/1408 3SM BR FM140800 34007KT P6SM BKN040 TEMPO 1408/1410 3SM BR
KMKC,KMKC 140520Z 1406/1506 27004KT P6SM SKC FM141500 26019G27KT P6SM SCT090 FM142000 28020G31KT P6SM BKN080 FM150000 35008KT P6SM FEW250
KMKE,KMKE 140530Z 1406/1512 24006KT P6SM OVC080 FM141600 22010G18KT P6SM BKN120 FM141900 22014G24KT P6SM OVC080 FM150000 24006KT P6SM BKN060 FM151100 27010G18KT P6SM FEW100
KMKG,KMKG 140540Z 1406/1506 24009KT P6SM -SHRA BKN035 FM141500 23012G24KT P6SM VCSH BKN040 FM150000 14008KT P6SM OVC100
KMKL,KMKL 140520Z 1406/1506 VRB04KT P6SM SKC FM141500 21008KT P6SM SKC FM141700 24016G25KT P6SM SKC FM142300 23008KT P6SM SKC FM150300 19008KT P6SM FEW250 WS020/24045KT
KMKT,KMKT 140520Z 1406/1506 25006KT P6SM OVC080 FM141300 28008KT P6SM OVC060 FM141500 30012G20KT P6SM OVC040 FM141800 31015G23KT P6SM BKN050 FM150100 31010KT P6SM SCT070 FM150500 29006KT P6SM FEW200
KMLB,KMLB 140533Z 1406/1506 00000KT P6SM BKN250 FM141400 03008KT P6SM SCT030 SCT120 FM142000 05010KT P6SM VCSH SCT040 FM150000 06006KT P6SM SCT050
KMLC,KMLC 140520Z 1406/1506 00000KT P6SM SKC FM141600 23013G23KT P6SM SKC FM150000 21005KT P6SM SKC
KMLI,KMLI 140534Z 1406/1506 VRB03KT P6SM FEW080 FM141600 24011G20KT P6SM SCT060 FM141900 27015G27KT P6SM BKN060 FM150100 29007KT P6SM BKN050
KMLS,KMLS 140527Z 1406/1506 26009KT P6SM FEW100 BKN250 WS010/29030KT FM141500 33011G20KT P6SM BKN150 FM150100 33011KT P6SM OVC250
KMLU,KMLU 140520Z 1406/1506 00000KT P6SM SKC FM141500 23007KT P6SM SKC FM150000 20003KT P6SM SKC
KMMH,KMMH 140520Z 1406/1506 VRB04KT P6SM SKC FM141800 09006KT P6SM SKC FM150000 14009KT P6SM FEW120 SCT250 FM150300 VRB04KT P6SM FEW250
KMMT,TAF KMMT 132300Z 1323/1505 VRB06KT 9999 FEW014 QNH2970INS TX25/1420Z TN11/1412Z
KMOB,KMOB 140520Z 1406/1506 00000KT P6SM SKC FM141800 14005KT P6SM SKC FM150000 00000KT P6SM SKC
KMOD,KMOD 140527Z 1406/1506 VRB03KT P6SM SKC
KMOT,KMOT 140545Z 1406/1506 29015G21KT P6SM FEW080 FEW110 FM140800 31014G20KT P6SM SCT035 OVC060 FM141000 33014G22KT P6SM VCSH BKN035 OVC050 FM141300 32014G22KT P6SM OVC029 FM141600 32015G23KT P6SM BKN040 FM141900 31013G18KT P6SM FEW040 FM150000 29006KT P6SM FEW250
KMPV,KMPV 140537Z 1406/1506 18006KT 3SM SHRA BR SCT007 OVC019 TEMPO 1406/1408 5SM BR BKN007 OVC017 FM140800 22005KT 3SM +SHRA BR OVC008 FM141100 VRB03KT P6SM SHRA OVC016 FM141600 VRB04KT 5SM BR VCSH OVC020 FM142200 00000KT P6SM SCT070
KMQY,KMQY 140523Z 1406/1506 21005KT P6SM SKC FM141600 22011G18KT P6SM SKC FM150000 18010KT P6SM SKC
KMRB,KMRB 140527Z 1406/1506 00000KT P6SM SCT090 FM141400 20004KT P6SM SKC FM141800 22007KT P6SM FEW080 FM150200 00000KT P6SM SCT090
KMRY,KMRY 140531Z 1406/1506 VRB03KT P6SM OVC004 FM140800 VRB03KT 2SM BR OVC003 TEMPO 1412/1415 1/2SM FG OVC001 FM141700 VRB04KT P6SM BKN006 FM141900 28006KT P6SM FEW008 FM150000 VRB03KT P6SM BKN005
KMSL,KMSL 140520Z 1406/1506 00000KT P6SM SKC FM141500 25007KT P6SM SKC FM141800 24015G23KT P6SM SKC FM142300 20005KT P6SM SKC
KMSN,KMSN 140530Z 1406/1506 VRB04KT P6SM OVC080 FM141600 21010KT P6SM BKN080 FM141900 24012G21KT P6SM OVC060 FM142200 26009KT P6SM OVC060 FM150000 VRB04KT P6SM BKN060
KMSO,KMSO 140520Z 1406/1506 00000KT P6SM SKC FM142000 30005KT P6SM SCT250 FM150100 00000KT P6SM SCT150
KMSP,KMSP 140520Z 1406/1512 29008KT P6SM BKN080 FM140900 25005KT 5SM -SHSN BR OVC035 FM141500 28009KT 6SM -SHRA BR OVC035 FM141800 30012G19KT P6SM -SHRA OVC040 FM142000 30010KT P6SM BKN060 FM150000 31007KT P6SM SCT040
KMSS,KMSS 140537Z 1406/1506 00000KT P6SM -SHRA SCT050 BKN060 FM140700 VRB04KT P6SM SHRA OVC028 FM140900 21005KT P6SM VCSH OVC035 FM142000 23006KT P6SM FEW200
KMSY,KMSY 140520Z 1406/1512 VRB04KT P6SM SKC FM141100 05005KT P6SM SKC FM142300 VRB04KT P6SM FEW250
KMTC,TAF AMD KMTC 132154Z 1321/1501 23015G25KT 9999 SCT024 QNH2958INS BECMG 1322/1323 25006KT 9999 SKC QNH2963INS BECMG 1401/1402 18006KT 9999 BKN040 QNH2970INS BECMG 1412/1413 23015G25KT 9999 SCT030 QNH2983INS TEMPO 1417/1420 20020G30KT BKN070 510003 BECMG 1421/1422 18009KT 9999 SCT050 BKN070 QNH2980INS TX14/1401Z TN04/1412Z LAST NO AMDS AFT 1403 NEXT 1411X11
KMTH,KMTH 140520Z 1406/1506 VRB03KT P6SM FEW015 BKN150 FM141400 07006KT P6SM FEW020 SCT150 FM150000 VRB03KT P6SM FEW020 BKN150
KMTJ,KMTJ 140520Z 1406/1506 15009KT P6SM SKC FM141800 32008KT P6SM SKC
KMTN,KMTN 140527Z 1406/1506 29003KT P6SM -RA OVC050 FM140900 33004KT P6SM OVC070 FM141100 31004KT P6SM BKN100 FM141400 28003KT P6SM SKC FM141600 22005KT P6SM SKC FM142200 17004KT P6SM SKC AMD NOT SKED
KMTW,KMTW 140520Z 1406/1506 27008KT P6SM OVC060 FM141000 24007KT P6SM BKN060 FM141700 21011G18KT P6SM VCSH OVC050 FM141900 22010G17KT P6SM -SHRA OVC035 TEMPO 1419/1423 BKN025 FM142300 24005KT P6SM VCSH BKN035 OVC070 FM150100 29006KT P6SM BKN070
KMUI,TAF KMUI 140300Z 1403/1509 30009KT 9000 BR SCT040 OVC055 QNH2979INS BECMG 1416/1417 25010G15KT 9999 NSW SKC QNH2989INS BECMG 1421/1422 VRB06KT 9999 FEW055 QNH2992INS TX18/1418Z TN07/1503Z LAST NO AMDS AFT 1404 NEXT 1411
KMUO,TAF KMUO 140200Z 1402/1508 32009KT 9999 FEW200 QNH3014INS BECMG 1405/1406 VRB06KT 9999 FEW200 QNH3006INS BECMG 1420/1421 30009KT 9999 FEW200 QNH2998INS BECMG 1505/1506 VRB06KT 9999 FEW200 QNH3000INS TX23/1422Z TN04/1413Z
KMVN,KMVN 140520Z 1406/1506 00000KT P6SM SKC FM141100 22003KT P6SM SKC FM141400 23007KT P6SM SKC FM141700 23011G23KT P6SM SKC FM142200 24010G21KT P6SM SCT220 FM142300 22006KT P6SM SCT160
KMWH,KMWH 140520Z 1406/1506 35005KT P6SM SKC FM142100 VRB04KT P6SM SKC
KMXF,TAF KMXF 131900Z 1319/1501 31009KT 9999 SCT020 QNH2984INS BECMG 1412/1413 VRB06KT 6000 BR SKC QNH3000INS TX25/1320Z TN10/1412Z LAST NO AMDS AFT 1403 NEXT 1411
KMYL,KMYL 140520Z 1406/1506 VRB04KT P6SM SKC FM142100 30008KT P6SM SKC FM150200 VRB03KT P6SM SKC
KMYR,KMYR 140520Z 1406/1506 28008KT P6SM SKC FM140900 33007KT P6SM SKC FM141400 01007KT P6SM SKC FM141900 VRB03KT P6SM SKC
KNBC,TAF KNBC 1403/1503 30008KT 9999 SCT015 SCT100 QNH2982INS BECMG 1409/1410 33010KT 9999 SCT100 QNH2990INS BECMG 1417/1418 VRB06KT 9999 SCT100 QNH2992INS AUTOMATED SENSOR METWATCH 1403 UNTIL 1411 T14/1412Z T24/1418Z LAST NO AMENDS AFT 1403/NEXT 1409
KNBG,TAF KNBG 1323/1423 03005KT 9999 SCT250 QNH2985INS BECMG 1406/1408 04004KT 8000 BR FEW030 SCT250 QNH2992INS BECMG 1410/1412 06008KT 9999 NSW SCT250 QNH3000INS BECMG 1416/1418 09010KT 9999 SCT250 QNH2991INS AUTOMATED SENSOR METWATCH 1404 TIL 1410 T18/1411Z T28/1419Z FN00247
KNCA,TAF KNCA 1403/1503 VRB06KT 9999 SKC QNH2975INS FM141200 VRB06KT 9999 SCT010 BKN018 QNH2987INS BECMG 1416/1418 VRB04KT 9999 SCT020 QNH2993INS T17/1409Z T26/1420Z
KNEW,KNEW 140520Z 1406/1506 03007KT P6SM SKC FM142300 13005KT P6SM SKC
KNFG,TAF KNFG 1403/1503 VRB05KT 9999 OVC012 QNH2991INS BECMG 1407/1409 VRB05KT 8000 BR OVC010 QNH2985INS TEMPO 1409/1415 4800 BR BKN009 FM141800 21008KT 9999 OVC015 QNH2979INS T17/1413Z T21/1421Z
KNFL,TAF KNFL 1323/1423 VRB06KT 9999 SKC QNH3009INS T04/1413Z T28/1423Z FS30198
KNFW,TAF KNFW 1323/1423 VRB06KT 9999 SKC QNH2997INS BECMG 1410/1411 21005G15KT 9999 SKC QNH2998INS AUTOMATED SENSOR METWATCH 1404 TIL 1411 T14/1413Z T33/1422Z FN20070
KNGP,TAF KNGP 1323/1423 11012G19KT 9999 VCTS FEW030CB SCT090 SCT250 QNH2982INS FM140000 11011KT 9999 SCT025 SCT100 BKN250 QNH2983INS FM140600 11006KT 9999 SCT020 BKN090 BKN250 QNH2988INS BECMG 1406/1408 11006KT 9999 VCSH BKN020 BKN100 BKN250 QNH2990INS FM141400 07010KT 9999 SCT025 SCT250 QNH2998INS FM141900 10010KT 9999 SCT030 SCT250 QNH2990INS AUTOMATED SENSOR METWATCH 1404 TIL 1411 T24/1412Z T32/1420Z FN20042
KNGU,TAF KNGU 1323/1423 VRB04KT 9999 VCSH FEW025 SCT050 BKN280 QNH2970INS TEMPO 1400/1406 6000 -SHRA BR FEW015 BKN030 OVC100 FM140600 36011G17KT FEW030 BKN040 BKN250 QNH2977INS FM141200 35007KT 9999 FEW050 SCT280 QNH2990INS FM141800 VRB05KT 9999 FEW280 QNH2995INS T14/1410Z T21/1420Z FN00062
KNHK,TAF KNHK 1323/1423 18006KT 9999 BKN065 BKN280 QNH2966INS BECMG 1401/1403 34014G22KT 9999 VCSH BKN065 BKN280 QNH2972INS TEMPO 1401/1406 9000 -RA BKN025 OVC060 BECMG 1406/1408 02008KT 9999 NSW SCT090 BKN110 QNH2978INS BECMG 1411/1413 VRB05KT 9999 SKC QNH2988INS BECMG 1416/1418 13007KT 9999 SKC QNH2992INS AUTOMATED SENSOR METWATCH 1403 TIL 1408 T13/1410Z T22/1418Z FN20066
KNID,TAF KNID 1323/1423 11010G16KT 9999 FEW100 QNH2991INS BECMG 1401/1403 21007KT 9999 SKC QNH2992INS BECMG 1412/1414 VRB03KT 9999 SCT150 QNH2985INS BECMG 1419/1421 12007KT 9999 FEW080 QNH2980INS LAST NO AMDS AFT 1403 NEXT 1715 T14/1414Z T34/1422Z
KNIP,TAF KNIP 1323/1423 26008KT 9999 SCT030 BKN250 QNH2979INS FM140100 VRB05KT 9999 SCT025 SCT250 QNH2982INS FM141500 04008KT 9999 SCT035 SCT250 QNH2991INS T21/1412Z T28/1419Z FN20083
KNJK,TAF KNJK 1323/1423 VRB06KT 9999 FEW070 QNH2974INS BECMG 1404/1406 26006KT 9999 SKC QHN2973INS FM141500 VRB06KT 9999 SKC QNH2966INS BECMG 1419/1421 12006KT 9999 FEW070 FEW250 QNH2962INS AUTOMATED SENSOR METWATCH 1406 TIL 1413 T21/1413Z T37/1423Z FS30152
KNKT,TAF KNKT 1403/1503 VRB05KT 9999 SKC QNH2977INS TEMPO 1408/1412 BKN025 BECMG 1414/1416 36008KT 9999 SCT030 BKN250 QNH2996INS T16/1410Z T22/1418Z
KNKX,TAF KNKX 1403/1503 VRB05KT 9999 OVC010 QNH2985INS TEMPO 0409/0415 6000 DZ BR OVC004 BECMG 0417/0419 24008KT 9999 OVC010 QNH2979INS T17/1413Z T21/1521Z
KNLC,TAF AMD KNLC 1402/1423 34008KT 9999 FEW130 QNH2984INS TEMPO 1402/1406 02006KT T13/1413Z T32/1423Z AMD 0239 FS30067
KNMM,TAF KNMM 1323/1423 32005KT 9999 SKC QNH2990INS FM141000 28006KT 9999 SKC QNH2996INS T12/1412Z T25/1421Z FN00247
KNPA,TAF KNPA 1323/1423 33005KT 9999 BKN250 QNH2983INS FM140300 35005KT 9999 FEW250 QNH2989INS FM141200 05008KT 9999 SKC QNH2998INS FM141800 15008KT 9999 SKC QNH2990INS AUTOMATED SENSOR METWATCH 1403 TIL 1411 T15/1412Z T27/1421Z FN20034
KNQI,TAF KNQI 1323/1423 10012G18KT 9999 FEW050 BKN100 QNH2984INS BECMG 1401/1403 VRB05KT 9999 FEW030 BKN180 QNH2986INS BECMG 1405/1407 VRB04KT 9999 BKN015 BKN250 QNH2990INS BECMG 1414/1416 10007KT 9999 SCT025 BKN250 QNH2993INS BECMG 1419/1421 11011KT 9999 SCT040 SCT250 QNH2988INS AUTOMATED SENSOR METWATCH 1405 TIL 1412 T21/1412Z T33/1420Z FN20058
KNQX,TAF KNQX 1323/1423 35012KT 9999 VCSH SCT020 BKN150 OVC250 QNH2986INS TEMPO 1323/1403 VRB15G20KT 4800 SHRA BKN020 BECMG 1404/1406 VRB06KT 9999 NSW SCT020 BKN250 QNH2985INS FM141600 VRB06KT 9999 VCTS SCT020CB BKN080 OVC150 QNH2987INS AUTOMATED SENSOR METWATCH 1402 TIL 1410 T27/1410Z T32/1416Z FN20073
KNRB,TAF KNRB 1323/1423 24008KT 9999 SCT035 SCT250 QNH2979INS FM140200 VRB05KT 9999 FEW250 QNH2983INS FM141400 04010KT 9999 FEW040 FEW250 QNH2995INS AUTOMATED SENSOR METWATCH 1404 TIL 1409 T21/1411Z T28/1419Z FN20089
KNSE,TAF KNSE 1323/1423 VRB05KT 9999 SCT250 QNH2983INS FM141500 07007KT 9999 SKC QNH3000INS FM142100 15005KT 9999 SKC QNH2998INS AUTOMATED SENSOR METWATCH 1404 TIL 1411 T14/1411Z T26/1420Z FN20029
KNTD,TAF KNTD 1323/1423 24008KT 9000 HZ BKN013 OVC065 QNH2988INS TEMPO 1400/1404 SCT013 BECMG 1404/1406 VRB06KT 4800 BR OVC009 QNH2986INS TEMPO 1414/1417 3200 BR OVC006 FM141900 15008KT 9999 VCSH FEW010 SCT015 BKN065 QNH2977INS AUTOMATED SENSOR METWATCH 1406 TIL 1413 T15/1413Z T22/1422Z FS30029
KNTU,TAF AMD KNTU 1402/1423 15006KT 9999 BKN005 BKN130 BKN300 QNH2967INS TEMPO 1402/1406 1600 BR VV002 FM140600 33012KT 6000 BR VCSH BKN020 OVC040 QNH2975INS TEMPO 1406/1410 4800 SHRA BKN015 OVC040 FM141000 35010G20KT 9999 BKN040 BKN300 QNH2980INS FM141500 01008KT 9999 FEW300 QNH2995INS T14/1410Z T20/1418Z AMD 0236 FN00247
KNUC,TAF KNUC 1323/1423 27009KT 9999 OVC008 QNH2983INS TEMPO 1410/1416 VRB06KT OVC011 FM141600 24009KT 9999 OVC007 QNH2979INS LAST NO AMDS AFT 1401 NEXT 1415 T16/1411Z T19/1421Z FS30178
KNUW,TAF KNUW 1323/1423 VRB06KT 9999 SCT250 QNH3007INS FM141300 VRB06KT 8000 BR BCFG FEW003 SCT040 BKN250 QNH3006INS FM141700 29008KT 9999 FEW040 SCT250 QNH2998INS T18/1323Z T06/1413Z FS30046
KNXP,TAF KNXP 1403/1503 VRB05KT 9999 SKC QNH2988INS BECMG 1421/1423 16008KT 9999 SKC QNH2981INS T18/1414Z T33/1421Z
KNYG,TAF KNYG 1321/1421 16008KT 9999 FEW026 SCT110 QNH2970INS FM132300 32007KT 4800 RA BR SCT005 BKN015 QNH2970INS BECMG 1406/1408 28007KT 9999 SKC QNH2985INS LAST NO AMDS AFT 1321/ NEXT 1409 AUTOMATED SENSOR METWATCH 1323 TIL 1411 T09/1412Z T18/1418Z
KNYL,TAF KNYL 1403/1503 VRB06KT 9999 SKC QNH2973INS BECMG 1418/1420 16008KT 9999 FEW060 FEW150 QNH2969INS FM142200 17010G20KT 9999 FEW080 FEW150 QNH2964INS AUTOMATED SENSOR METWATCH 1407 TIL 1414 T22/1414Z T37/1422Z
KNZY,TAF KNZY 1323/1423 28008KT 9000 HZ BKN014 OVC018 QNH2989INS FM140200 VRB04KT 9999 OVC012 QNH2986INS FM140800 VRB04KT 8000 BR OVC010 QNH2983INS TEMPO 1408/1414 6000 BR BKN006 OVC014 FM141800 28006KT 9000 HZ BKN015 QNH2980INS T18/1412Z T22/1422Z FS30160
KOAJ,KOAJ 140540Z 1406/1506 23008KT P6SM BKN080 TEMPO 1406/1409 BKN025 FM140900 36008KT P6SM BKN040 FM141800 36008KT P6SM FEW040 AMD LTD TO CLD VIS AND WIND
KOAK,KOAK 140531Z 1406/1512 29006KT P6SM OVC006 FM141800 VRB03KT P6SM SKC FM142100 29010KT P6SM SKC FM150500 30006KT P6SM SCT007 FM150700 27005KT P6SM OVC007
KOFF,TAF KOFF 140200Z 1402/1508 28009KT 9999 SKC QNH2984INS BECMG 1416/1417 28012G18KT 9999 SKC QNH2973INS BECMG 1418/1419 29020G30KT 9999 BKN100 QNH2967INS BECMG 1500/1501 31009KT 9999 FEW120 QNH2978INS TX18/1420Z TN05/1412Z
KOFK,KOFK 140520Z 1406/1506 27009KT P6SM SKC FM141600 32019G33KT P6SM SCT100 FM150000 33006KT P6SM FEW250
KOGB,KOGB 140540Z 1406/1506 27005KT P6SM SKC FM140800 VRB04KT P6SM SKC
KOGD,KOGD 140529Z 1406/1506 17005KT P6SM SKC FM141800 29006KT P6SM SKC FM150100 17005KT P6SM SKC
KOKC,KOKC 140520Z 1406/1506 24007KT P6SM SKC FM141500 23013G21KT P6SM FEW210 FM150100 21008KT P6SM FEW170
KOLF,KOLF 140520Z 1406/1506 29011KT P6SM FEW160 FM140700 28009KT P6SM BKN090 FM141400 VRB05KT P6SM BKN090 FM141700 30010KT P6SM BKN120
KOLM,KOLM 140527Z 1406/1506 00000KT P6SM SKC FM141200 00000KT 1SM BR SCT001 FM141600 02006KT 6SM HZ SKC
KOLS,KOLS 140520Z 1406/1506 VRB04KT P6SM SCT200 FM142000 20008KT P6SM BKN200 FM150300 VRB05KT P6SM OVC200
KOMA,KOMA 140520Z 1406/1506 26008KT P6SM SKC FM141700 32016G31KT P6SM SCT100 FM150100 34006KT P6SM FEW250
KONP,KONP 140520Z 1406/1506 33005KT P6SM SKC FM141000 09006KT P6SM SKC
KONT,KONT 140520Z 1406/1512 25006KT 6SM BR SCT010 FM140700 VRB05KT 5SM BR OVC008 TEMPO 1412/1416 2SM BR OVC005 FM141800 27005KT 5SM HZ SCT011 FM142100 26010KT P6SM FEW100 FM150500 26006KT P6SM BKN012 FM150700 VRB05KT 6SM BR VCSH OVC012
KOPF,KOPF 140520Z 1406/1506 VRB04KT P6SM SCT050 BKN250 FM141600 02006KT P6SM VCSH SCT035 BKN100 FM141800 05008KT P6SM VCTS SCT025CB BKN050 BKN250 FM150100 VRB04KT P6SM SCT040 SCT100 BKN250
KORD,KORD 140540Z 1406/1512 24007KT P6SM BKN080 FM141600 22018G28KT P6SM OVC100 FM142300 27013G24KT P6SM VCSH SCT040 OVC080 PROB30 1423/1502 5SM SHRA OVC035 FM150200 27011KT P6SM SCT025 SCT250
KORF,KORF 140526Z 1406/1506 22008KT P6SM VCSH BKN003 FM140630 35011G18KT P6SM VCSH BKN025 TEMPO 1407/1409 BKN008 FM140900 01010KT P6SM BKN035 FM141700 03006KT P6SM SKC FM150200 00000KT P6SM SKC
KORH,KORH 140530Z 1406/1506 17017G26KT P6SM -RA BKN008 OVC090 WS020/16045KT FM141000 13007KT 2SM RA BR OVC003 FM141200 09005KT 1 1/2SM +RA BR OVC008 FM141400 01005KT 5SM BR VCSH BKN008 FM141600 26007KT P6SM BKN060 FM141800 26007KT P6SM BKN080
KOTH,KOTH 140535Z 1406/1506 34003KT P6SM SKC FM140700 34004KT 1SM BR VCFG SCT002 FM140900 VRB03KT 1/2SM FG OVC002 FM141600 33004KT 5SM BR SCT002
KOTM,KOTM 140520Z 1406/1506 24005KT P6SM FEW230 FM141700 26017G26KT P6SM FEW240 FM142000 28021G34KT P6SM BKN110 FM150200 30006KT P6SM FEW250
KOUN,KOUN 140520Z 1406/1506 24007KT P6SM SKC FM141500 23013G20KT P6SM FEW210 FM150100 21008KT P6SM FEW170
KOWB,KOWB 140520Z 1406/1506 00000KT P6SM FEW250 FM141400 23008KT P6SM SKC FM141800 23014G27KT P6SM SKC FM142300 22009KT P6SM FEW240 FM150300 19007KT P6SM BKN160 WS020/24035KT FM150500 20008KT P6SM SCT150
KOXR,KOXR 140524Z 1406/1506 VRB03KT P6SM OVC008 FM141600 VRB03KT P6SM OVC010 FM141900 24006KT P6SM BKN015 FM142200 27010KT P6SM SCT015 FM150100 27008KT P6SM OVC008
KOZR,TAF KOZR 140000Z 1400/1506 31004KT 9999 SKC QNH2990INS BECMG 1410/1411 02006KT 9999 SKC QNH2994INS TX27/1419Z TN11/1410Z
KPAE,KPAE 140527Z 1406/1506 35006KT 6SM HZ SKC FM141900 35006KT 3SM BR SKC FM150400 35006KT 6SM HZ SKC
KPAH,KPAH 140520Z 1406/1506 23003KT P6SM SKC FM141200 22005KT P6SM SKC FM141500 23007KT P6SM SKC FM141700 23013G24KT P6SM SKC FM142100 25014G25KT P6SM SKC FM142300 23008KT P6SM FEW250
KPAM,TAF KPAM 140300Z 1403/1509 33006KT 9999 FEW100 QNH2988INS BECMG 1405/1406 36006KT 9999 SKC QNH2992INS TEMPO 1410/1414 03012G18KT BECMG 1413/1414 03009KT 9999 FEW100 QNH3001INS WND 06006KT AFT 1500 BECMG 1505/1506 03009KT 9999 SKC QNH3004INS TX28/1419Z TN19/1411Z
KPBF,KPBF 140520Z 1406/1506 VRB03KT P6SM SKC FM141600 25012G19KT P6SM SKC FM142300 21006KT P6SM SKC
KPBG,KPBG 140537Z 1406/1506 11006KT 4SM SHRA BR SCT006 BKN013 TEMPO 1406/1407 2SM BR BKN006 FM140700 00000KT 5SM SHRA BR OVC011 FM140900 VRB03KT 6SM -SHRA BR OVC035 FM141100 VRB03KT P6SM VCSH OVC045 FM141700 VRB04KT P6SM BKN050
KPBI,KPBI 140520Z 1406/1506 VRB04KT P6SM SCT050 BKN250 FM141600 03007KT P6SM VCSH SCT035 BKN100 FM141800 06008KT P6SM VCTS SCT025CB BKN050 BKN250 FM150300 VRB05KT P6SM SCT040 SCT100 BKN250
KPDK,KPDK 140545Z 1406/1506 33003KT P6SM SKC FM141500 26007KT P6SM SKC FM142300 24004KT P6SM SKC
KPDT,KPDT 140520Z 1406/1506 13006KT P6SM SKC FM141700 VRB04KT P6SM FEW250 FM142200 35007KT P6SM FEW250 FM150300 11005KT P6SM SKC
KPDX,KPDX 140520Z 1406/1506 VRB03KT P6SM SKC FM142000 33006KT P6SM SKC
KPEQ,KPEQ 140520Z 1406/1506 09006KT P6SM BKN250
KPGA,KPGA 140532Z 1406/1506 VRB04KT P6SM SKC
KPGD,KPGD 132336Z 1400/1424 28007KT P6SM VCSH FEW020 SCT110 BKN250 FM140200 VRB03KT P6SM SCT020 BKN100 FM141400 08006KT P6SM SCT035 SCT100 BKN250 FM142000 26007KT P6SM SCT050 BKN100
KPGV,KPGV 140540Z 1406/1506 23008KT P6SM SHRA BKN035 TEMPO 1406/1408 BKN025 FM140800 35008KT P6SM BKN040 FM141500 35005KT P6SM FEW040 AMD LTD TO CLD VIS AND WIND
KPHF,KPHF 140526Z 1406/1506 35009KT P6SM BKN015 FM140800 35007KT P6SM BKN040 FM141200 VRB05KT P6SM SCT070 FM141600 VRB02KT P6SM SKC
KPHL,KPHL 140520Z 1406/1512 33007KT 6SM BR VCSH OVC040 TEMPO 1406/1407 3SM BR FM140700 34006KT P6SM OVC040 TEMPO 1407/1408 3SM BR FM140800 34006KT P6SM BKN050 TEMPO 1408/1410 3SM BR
KPHX,KPHX 140520Z 1406/1512 09004KT P6SM SKC FM142200 18008KT P6SM FEW120 FEW250 FM150500 24009KT P6SM SCT100 BKN250 FM150900 11006KT P6SM SCT100 BKN250
KPIA,KPIA 140520Z 1406/1506 23004KT P6SM SCT100 FM141700 23015G25KT P6SM BKN200 FM142300 28009KT P6SM VCSH BKN080
KPIB,KPIB 140541Z 1406/1506 01003KT P6SM SKC
KPIE,KPIE 132336Z 1400/1424 25005KT P6SM FEW020 SCT120 BKN250 FM140100 VRB03KT P6SM FEW020 SCT120 BKN250 FM141400 06007KT P6SM SCT035 SCT250 FM141900 34006KT P6SM SCT050 SCT120 BKN250
KPIH,KPIH 140520Z 1406/1506 24008KT P6SM SKC FM141700 30008KT P6SM SKC FM150100 18008KT P6SM SKC
KPIR,KPIR 140521Z 1406/1506 30011KT P6SM SKC FM141500 31020G30KT P6SM SCT250 FM150000 VRB05KT P6SM SCT250
KPIT,KPIT 140520Z 1406/1512 21003KT P6SM SCT050 FM141700 24012G20KT P6SM SKC FM142200 17004KT P6SM SKC
KPKB,KPKB 140537Z 1406/1506 VRB03KT P6SM SCT070 FM141400 23006KT P6SM FEW070 FM141600 24010G20KT P6SM FEW070 FM142200 18008KT P6SM FEW070 FM150000 00000KT P6SM FEW250 FM150400 16005KT P6SM SCT160
KPLN,KPLN 140535Z 1406/1506 19007KT P6SM VCSH BKN045 FM141000 21006KT 6SM -SHRASN BR BKN013 FM141300 21008G13KT 6SM -SHRA OVC015 FM141700 21010G16KT P6SM VCSH BKN045 FM150100 18009G17KT 6SM -SHRA BR OVC050 FM150500 16005KT P6SM VCSH OVC045
KPMD,KPMD 140524Z 1406/1506 VRB03KT P6SM SKC FM142200 05006KT P6SM SKC FM150200 23007KT P6SM SKC
KPNA,KPNA 140521Z 1406/1506 30007KT P6SM SCT250 FM141800 31015G25KT P6SM SCT250 FM150100 30010KT P6SM SCT250
KPNC,KPNC 140520Z 1406/1506 28004KT P6SM SKC FM141600 24011G18KT P6SM SKC FM141900 24015G24KT P6SM SKC FM150000 26009KT P6SM FEW250
KPNE,KPNE 140520Z 1406/1506 32008KT 6SM BR VCSH OVC040 TEMPO 1406/1407 3SM BR FM140700 34007KT P6SM VCSH OVC040 TEMPO 1407/1409 3SM BR FM140900 34005KT P6SM BKN060 TEMPO 1409/1410 3SM BR
KPNS,KPNS 140520Z 1406/1506 34005KT P6SM SKC FM141800 14005KT P6SM SKC FM150000 00000KT P6SM SKC
KPOB,TAF KPOB 131700Z 1317/1423 23008KT 9999 SCT020 BKN030 BKN090 BKN200 QNH2969INS BECMG 1400/1401 26012G18KT 8000 -SHRA BKN025 OVC080 QNH2974INS BECMG 1405/1406 32010KT 9999 NSW FEW030 SCT080 SCT200 QNH2985INS BECMG 1409/1410 33007KT 9999 FEW080 FEW200 QNH2990INS BECMG 1412/1413 34008KT 9999 SKC QNH2998INS TX24/1320Z TN19/1410Z LAST NO AMDS AFT 1322 NEXT 1417
KPOE,TAF KPOE 132300Z 1323/1505 01007KT 9999 SKC QNH2991INS BECMG 1406/1407 VRB06KT 9999 SKC QNH2999INS TEMPO 1412/1414 8000 BR BKN008 BECMG 1416/1417 17009KT 9999 SKC QNH2997INS TX27/1421Z TN14/1411Z LAST NO AMDS AFT 1405 NEXT 1415
KPOU,KPOU 140553Z 1406/1506 01005KT 6SM -RA BR SCT008 BKN020 OVC040 TEMPO 1406/1408 3SM RA BR BKN008 OVC012 FM141000 36005KT P6SM SCT015 BKN060 TEMPO 1410/1414 1 1/2SM BR BKN003 FM141400 34007KT P6SM BKN100 FM141700 29006KT P6SM FEW070 FM142300 VRB03KT P6SM SKC
KPQI,KPQI 140535Z 1406/1506 15010G18KT P6SM VCSH BKN015 WS020/17050KT FM140900 14015G25KT 6SM -RA BR OVC008 WS020/17050KT FM141800 15020G30KT 3SM -RA BR OVC008 WS020/15050KT FM150000 15015G25KT 3SM -RA BR OVC008 WS020/18045KT
KPRB,KPRB 140524Z 1406/1506 VRB03KT P6SM SKC FM142200 21012KT P6SM SKC FM150200 29007KT P6SM SKC
KPRC,KPRC 140532Z 1406/1506 19007KT P6SM SKC FM141800 23008KT P6SM SKC FM150200 19007KT P6SM SCT200
KPSC,KPSC 140520Z 1406/1506 VRB04KT P6SM SKC
KPSF,KPSF 140525Z 1406/1506 VRB03KT 6SM -RA BR SCT012 OVC040 TEMPO 1406/1410 3SM RA BR BKN010 OVC030 FM141000 32004KT 5SM -RA BR SCT015 OVC025 FM141700 31007KT P6SM SCT025 BKN070 FM142000 30006KT P6SM FEW200 FM150200 VRB03KT P6SM SKC
KPSM,KPSM 140526Z 1405/1424 14014KT 4SM -RA BR BKN004 OVC007 WS020/17045KT FM140700 11015G24KT 2SM RA BR OVC005 WS020/16045KT FM141400 15012G22KT 4SM -SHRA BR BKN006 WS020/16050KT FM141800 16009G18KT 6SM -RA BR OVC007 FM142100 03005KT P6SM OVC050
KPSP,KPSP 140520Z 1406/1506 33011KT P6SM SKC FM140700 VRB04KT P6SM SKC FM141900 11010KT P6SM SKC FM150200 33010KT P6SM SKC
KPTK,KPTK 140523Z 1406/1506 22007KT P6SM SCT035 BKN070 FM141400 24013G20KT P6SM SCT040 SCT100 BKN250 FM142000 16013KT P6SM BKN100 OVC250 FM150200 21010KT 6SM -SHRA OVC040
KPUB,KPUB 140537Z 1406/1506 29004KT P6SM SKC FM142000 36008KT P6SM SKC
KPUW,KPUW 140520Z 1406/1506 00000KT P6SM SKC FM140900 09005KT P6SM SKC FM142000 27005KT P6SM SKC
KPVD,KPVD 140530Z 1406/1506 15007KT P6SM RA BKN007 BKN050 OVC070 WS020/16055KT FM141100 14013G30KT 2SM +RA BR OVC003 WS020/16045KT FM141400 17012G25KT 2SM BR VCSH BKN003 FM141500 19011G24KT P6SM BKN008 FM141800 23008KT P6SM BKN030 FM150000 31005KT P6SM BKN150
KPVU,KPVU 140529Z 1406/1506 VRB04KT P6SM SKC FM141900 26005KT P6SM SKC FM150300 VRB05KT P6SM SKC
KPVW,KPVW 140520Z 1406/1506 VRB05KT P6SM SKC FM141700 21015KT P6SM SKC
KPWM,KPWM 140526Z 1405/1424 14016G27KT P6SM BKN009 BKN040 OVC070 WS020/16040KT FM140800 13012G19KT 2SM RA BR OVC005 WS020/16040KT FM141300 11015G28KT 2SM RA BR OVC009 WS020/16030KT FM141800 14008KT 4SM -DZ BR OVC003 FM142200 17005KT P6SM SCT003 OVC080
KPWT,KPWT 140527Z 1406/1506 04006KT P6SM SKC FM141800 04006KT 6SM HZ SKC
KRAP,KRAP 140520Z 1406/1506 VRB05KT P6SM SCT200 WS020/32050KT FM141600 33025G44KT P6SM SCT200 FM142300 35020G30KT P6SM SCT200 FM150300 29007KT P6SM SCT250
KRBG,KRBG 140535Z 1406/1506 VRB03KT 6SM HZ SKC FM142300 36008KT P6SM SKC
KRBL,KRBL 140527Z 1406/1506 VRB03KT P6SM SKC FM140900 31005KT P6SM SKC
KRCA,TAF KRCA 140300Z 1403/1509 30015KT 9999 SKC QNH2985INS TEMPO 1403/1410 32015G25KT BECMG 1409/1410 32015G25KT 9999 SCT060 BKN120 QNH2980INS BECMG 1415/1416 32025G45KT 9999 OVC060 620654 520002 QNH2977INS BECMG 1422/1423 33012G18KT 9999 FEW060 SCT120 BKN220 QNH2982INS TX18/1422Z TN06/1411Z
KRDD,KRDD 140527Z 1406/1506 VRB03KT P6SM SKC
KRDG,KRDG 140520Z 1406/1506 32005KT P6SM VCSH OVC045 TEMPO 1406/1407 3SM BR FM140700 VRB04KT P6SM BKN060 TEMPO 1407/1410 3SM BR FM141700 26007KT P6SM FEW250
KRDM,KRDM 140520Z 1406/1506 VRB05KT P6SM SKC FM142100 34008KT P6SM SKC FM150300 VRB04KT P6SM SKC
KRDR,TAF AMD KRDR 140300Z 1403/1508 26012KT 9999 BKN030 620304 QNH2952INS TEMPO 1403/1407 9000 -SN BKN015 620205 BECMG 1411/1412 30012G18KT 9000 -SN BKN020 620203 QNH2952INS BECMG 1414/1415 30015G25KT 8000 -SN BKN020 620203 QNH2958INS TEMPO 1415/1419 9000 -RA BECMG 1419/1421 34015G25KT 9999 NSW BKN040 620403 QNH2965INS BECMG 1500/1501 21012KT 9999 SCT030 BKN050 QNH2968INS TX05/1421Z TN00/1407Z
KRDU,KRDU 140540Z 1406/1506 35008KT P6SM SCT035 BKN050 BKN080 TEMPO 1406/1407 35013G21KT FM141200 35006KT P6SM FEW030
KRFD,KRFD 140543Z 1406/1506 19005KT P6SM BKN080 FM141600 21018G28KT P6SM OVC100 FM142100 27013G24KT P6SM VCSH SCT040 BKN060 PROB30 1422/1424 5SM SHRA BKN035 FM150000 28008KT P6SM SCT025 SCT250
KRHI,KRHI 140520Z 1406/1506 26005KT P6SM OVC050 FM141100 23002KT 6SM -SN OVC035 FM141300 20005KT 4SM -SN BKN012 OVC020 TEMPO 1415/1419 1 1/2SM -SN BKN009 FM142300 23004KT 6SM -SN OVC020 FM150100 28004KT P6SM BKN025 OVC050
KRIC,KRIC 140538Z 1406/1506 36012KT P6SM BKN040 FM140800 36004KT P6SM BKN060 FM141500 VRB03KT P6SM SKC
KRIL,KRIL 140520Z 1406/1506 11006KT P6SM SKC FM141900 29008KT P6SM SKC
KRIV,TAF COR KRIV 140435Z 1404/1510 29006KT 9999 FEW120 QNH2994INS BECMG 1407/1408 VRB04KT 4800 BR OVC004 QNH2987INS TEMPO 1410/1413 0400 FG VV001 BECMG 1416/1417 VRB04KT 8000 BR BKN007 QNH2988INS BECMG 1417/1418 31005KT 9999 NSW FEW010 QNH2984INS BECMG 1419/1420 32009KT 9999 SCT120 510005 QNH2979INS TS OMTNS NE-SE AFTER 22Z TEMPO 1421/1502 32012G18KT BECMG 1502/1503 30006KT 9999 BKN010 BKN120 QNH2984INS BECMG 1506/1507 VRB04KT 8000 BR OVC007 QNH2988INS TX28/1422Z TN15/1413Z
KRIW,KRIW 140521Z 1406/1506 29008KT P6SM SCT250 FM141500 VRB05KT P6SM SCT250 FM141800 05006KT P6SM SCT250
KRKD,KRKD 140526Z 1405/1424 12013G18KT P6SM SCT026 BKN060 OVC110 FM140600 14015G25KT 4SM -RA BR BKN007 OVC025 WS020/16050KT FM141500 14020G32KT 3SM RA BR OVC007 WS020/17055KT
KRKS,KRKS 140521Z 1406/1506 21007KT P6SM SCT250 FM141830 27012G20KT P6SM SCT250 FM150100 27010KT P6SM SCT250
KRME,KRME 140520Z 1406/1506 32005KT 6SM -SHRA BR SCT015 OVC035 TEMPO 1406/1409 4SM -SHRA BKN025 FM140900 11003KT P6SM SCT035 FM141400 23006KT P6SM SKC
KRND,TAF AMD KRND 131100Z 1311/1416 35008KT 9999 FEW100 QNH2990INS BECMG 1313/1314 02012G18KT 9999 SKC QNH2989INS TEMPO 1314/1317 03017G25KT BECMG 1316/1317 04012G18KT 9999 SKC QNH2989INS BECMG 1322/1323 04009KT 9999 SCT250 QNH2989INS BECMG 1409/1410 05007KT 9999 SCT025 SCT250 QNH2997INS TX33/1321Z TN17/1410Z
KRNH,KRNH 140520Z 1406/1506 27004KT P6SM BKN060 FM140700 24005KT P6SM OVC050 FM140900 24005KT 5SM -SHSN BR OVC035 TEMPO 1410/1414 2SM -SN BR OVC020 FM141500 26007KT 5SM -SHRASN BR OVC025 FM142200 30006KT P6SM OVC035
KRNO,KRNO 140520Z 1406/1506 VRB03KT P6SM SKC FM142300 04005KT P6SM FEW100 FM150300 00000KT P6SM FEW250
KROA,KROA 140520Z 1406/1506 33013KT P6SM SCT090 FM140800 32006KT P6SM FEW250 FM141400 25008G20KT P6SM SKC FM150000 VRB03KT P6SM SKC
KROC,KROC 140520Z 1406/1506 18005KT P6SM SCT100 FM141400 21008KT P6SM SKC FM141700 24010KT P6SM SCT080 FM142200 VRB05KT P6SM SKC
KROG,KROG 140520Z 1406/1506 23004KT P6SM SKC FM141600 25014G24KT P6SM SKC FM150000 23007KT P6SM SCT150 SCT250
KROW,KROW 140529Z 1406/1506 VRB06KT P6SM SKC FM141600 16008KT P6SM FEW250 FM142000 18012G18KT P6SM FEW250 FM150100 22007KT P6SM SCT250
KRSL,KRSL 140520Z 1406/1506 26006KT P6SM SKC FM141500 26012KT P6SM SKC FM141700 27020G30KT P6SM FEW250 FM150000 33010KT P6SM FEW250
KRST,KRST 140525Z 1406/1506 27008KT P6SM OVC060 FM141600 26011KT P6SM OVC050 FM141800 29014G22KT P6SM OVC050 FM150100 30009KT P6SM OVC060
KRSW,KRSW 132336Z 1400/1424 22004KT P6SM VCSH FEW020 SCT110 BKN250 FM140400 VRB03KT P6SM SCT020 BKN100 FM141500 08005KT P6SM SCT035 SCT100 BKN250 FM142000 30006KT P6SM SCT050 BKN100
KRUT,KRUT 140537Z 1406/1506 00000KT P6SM -SHRA FEW004 BKN013 TEMPO 1406/1410 6SM BR BKN008 FM141500 VRB04KT P6SM VCSH BKN022 FM141800 VRB03KT P6SM SCT180
KRVS,KRVS 140520Z 1406/1506 00000KT P6SM SKC FM141600 23012G22KT P6SM SKC FM150000 23007KT P6SM SCT150 SCT250
KRWF,KRWF 140520Z 1406/1506 27006KT P6SM BKN080 FM141300 30010KT P6SM BKN050 FM141500 31013G23KT P6SM BKN040 FM150000 32011KT P6SM SCT080 FM150400 29006KT P6SM FEW250
KRWI,KRWI 140540Z 1406/1506 00000KT 4SM BR FEW035 SCT090 FM140610 35007KT P6SM BKN040 BKN090 TEMPO 1407/1409 35013G21KT 6SM -SHRA SCT025 BKN040 OVC090 FM141100 01010G18KT P6SM SCT020 BKN040
KRWL,KRWL 140520Z 1406/1506 26007KT P6SM SKC FM141700 27012G20KT P6SM SKC FM150000 30008KT P6SM SKC
KRYY,KRYY 140545Z 1406/1506 30003KT P6SM SKC FM141500 26007KT P6SM SKC FM142300 24004KT P6SM SKC
KSAC,KSAC 140527Z 1406/1506 VRB03KT P6SM SKC
KSAF,KSAF 140529Z 1406/1506 12007KT P6SM SKC FM141000 01007KT P6SM SKC FM141900 27012G20KT P6SM SKC FM150100 36007KT P6SM SKC
KSAN,KSAN 140520Z 1406/1512 VRB04KT P6SM OVC014 TEMPO 1411/1415 5SM -DZ BR BKN009 FM141900 26008KT P6SM BKN018 FM150100 VRB05KT P6SM OVC015 FM150700 VRB05KT P6SM VCSH OVC015
KSAT,KSAT 140529Z 1406/1512 04006KT P6SM FEW040 SCT250 FM141000 03004KT P6SM SCT025 SCT250 FM141700 16008KT P6SM SCT060 SCT250 FM150700 17006KT P6SM BKN009
KSAV,KSAV 140520Z 1406/1506 30006KT P6SM SKC FM142000 25005KT P6SM SKC FM150100 00000KT P6SM SKC
KSAW,KSAW 140520Z 1406/1506 28004KT P6SM BKN070 OVC110 FM141900 19008KT P6SM VCSH BKN028 FM150000 18005KT P6SM BKN040
KSBA,KSBA 140524Z 1406/1506 VRB03KT P6SM OVC007 FM141800 16006KT P6SM BKN008 FM142100 24008KT P6SM SCT010 FM150300 VRB03KT P6SM BKN006
KSBD,KSBD 140520Z 1406/1506 VRB05KT P6SM SKC FM141000 VRB03KT 2SM BR OVC007 FM141700 VRB04KT 3SM HZ SCT010 FM142200 25008KT 4SM HZ FEW100 FM150400 VRB05KT 6SM HZ SCT015
KSBM,KSBM 140530Z 1406/1506 24005KT P6SM SCT070 BKN100 FM141300 23007KT P6SM BKN090 FM141600 22010G18KT P6SM BKN090 FM150100 25005KT P6SM BKN060 FM150500 28007KT P6SM BKN090
KSBN,KSBN 140534Z 1406/1506 24006KT P6SM SCT090 FM141700 22016G28KT P6SM SCT250 FM150000 22010G20KT P6SM BKN080
KSBP,KSBP 140524Z 1406/1506 VRB03KT 5SM BR OVC006 FM141630 32006KT P6SM SCT010 FM141900 31012KT P6SM SKC FM150300 VRB03KT P6SM SKC
KSBY,KSBY 140526Z 1406/1506 34009KT 6SM -SHRA BR BKN027 FM140800 34007KT P6SM VCSH BKN040 FM141000 33005KT P6SM SCT070 FM141600 31008KT P6SM SKC FM150000 00000KT P6SM SKC
KSCK,KSCK 140527Z 1406/1506 VRB03KT P6SM SKC
KSDF,KSDF 140520Z 1406/1512 25005KT P6SM SCT100 FM141500 24016G27KT P6SM FEW250 FM150000 19010KT P6SM SCT150 FM150900 27009KT P6SM SCT200
KSDL,KSDL 140520Z 1406/1506 VRB03KT P6SM SKC FM142200 18006KT P6SM FEW120 FEW250 FM150200 VRB04KT P6SM SCT100 BKN250
KSDY,KSDY 140520Z 1406/1506 31009KT P6SM FEW190 FM140800 30009KT P6SM BKN090 TEMPO 1411/1412 6SM -SHRA BR OVC090 FM141700 34011KT P6SM SCT160
KSEA,KSEA 140527Z 1406/1512 02006KT 6SM HZ SKC FM141900 35006KT 4SM HZ SKC FM150500 02006KT 6SM HZ SKC
KSEZ,KSEZ 140532Z 1406/1506 04010KT P6SM SKC FM141600 17005KT P6SM SKC FM150300 04008KT P6SM SCT250
KSFB,KSFB 140533Z 1406/1506 32005KT P6SM FEW250 FM141400 06007KT P6SM SCT030 SCT080 FM141800 08009KT P6SM SCT050 FM150000 02004KT P6SM FEW050
KSFF,KSFF 140520Z 1406/1506 VRB02KT P6SM FEW250 FM142100 30005KT P6SM FEW200
KSFO,KSFO 140531Z 1406/1512 29012KT P6SM SCT005 FM140900 28006KT P6SM FEW004 BKN006 FM141830 VRB03KT P6SM SCT006 FM142100 30019KT P6SM SKC FM150500 29011KT P6SM FEW006 FM150900 27009KT P6SM BKN006
KSGF,KSGF 140520Z 1406/1506 22004KT P6SM SKC FM140900 22007KT P6SM SKC FM141400 25011G19KT P6SM SKC FM141600 27014G24KT P6SM SKC FM141900 26019G29KT P6SM FEW250 FM142300 25013G25KT P6SM FEW250
KSGJ,KSGJ 140531Z 1406/1506 29003KT P6SM FEW250 FM140800 34003KT P6SM FEW010 SCT250 FM141300 01012KT P6SM FEW035 SCT250 FM142200 05008KT P6SM FEW250
KSGR,KSGR 140520Z 1406/1506 VRB03KT P6SM SCT120 FM141000 VRB03KT 6SM BR FEW015 FEW150 FM141500 09006KT P6SM FEW250 FM142000 12008KT P6SM SKC
KSGU,KSGU 140529Z 1406/1506 VRB05KT P6SM SKC
KSHR,KSHR 140527Z 1406/1506 35007KT P6SM FEW100 WS010/32030KT FM141600 35020G27KT P6SM SCT100
KSHV,KSHV 140520Z 1406/1506 VRB03KT P6SM SKC FM141500 22007KT P6SM SKC FM150000 20004KT P6SM SKC
KSJC,KSJC 140531Z 1406/1506 33006KT P6SM SCT008 FM140700 VRB03KT P6SM BKN008 FM141800 VRB05KT P6SM FEW015 FM142200 33009KT P6SM SKC FM150400 VRB03KT P6SM FEW009
KSJS,KSJS 140529Z 1406/1506 VRB03KT P6SM SCT100 FM141500 24010G18KT P6SM SKC FM142300 17005KT P6SM SKC
KSJT,KSJT 140524Z 1406/1506 VRB05KT P6SM SKC FM141700 18010KT P6SM SKC
KSKA,TAF KSKA 140300Z 1403/1509 VRB06KT 9999 FEW200 QNH3004INS WND 02008KT AFT 1419 TX23/1423Z TN04/1412Z
KSKF,TAF KSKF 140200Z 1402/1508 08009KT 9999 BKN250 QNH2993INS BECMG 1408/1409 05006KT 9999 BKN018 OVC250 QNH2995INS TEMPO 1415/1417 BKN022 OVC250 BECMG 1417/1418 10006KT 9999 SCT045 SCT250 QNH2988INS BECMG 1423/1500 15008KT 9999 BKN055 BKN250 QNH2985INS TX33/1422Z TN19/1412Z LAST NO AMDS AFT 1405 NEXT 1410
KSLC,KSLC 140529Z 1406/1512 15006KT P6SM SKC FM141800 34007KT P6SM SKC FM150300 15006KT P6SM SKC
KSLE,KSLE 140520Z 1406/1506 VRB02KT P6SM SKC FM142000 36007KT P6SM SKC
KSLI,TAF KSLI 140500Z 1405/1511 VRB06KT 8000 BR OVC010 SCT017 QNH2991INS BECMG 1406/1407 VRB06KT 8000 BR BKN010 OVC017 QNH2989INS BECMG 1408/1409 VRB06KT 8000 BR BKN003 OVC010 QNH2983INS BECMG 1421/1422 VRB06KT 8000 BR BKN016 QNH2980INS BECMG 1422/1423 VRB06KT 8000 BR SCT016 QNH2977INS BECMG 1501/1502 VRB06KT 9999 NSW SCT016 BKN023 QNH2978INS BECMG 1505/1506 VRB06KT 8000 BR BKN009 OVC017 QNH2987INS BECMG 1506/1507 VRB06KT 8000 BR OVC010 QNH2987INS BECMG 1507/1508 VRB06KT 8000 BR FEW002 OVC009 QNH2984INS TX21/1423Z TN17/1415Z
KSLK,KSLK 140537Z 1406/1506 VRB03KT 3SM SHRA BR FEW005 BKN050 TEMPO 1406/1407 6SM BR FM140700 VRB03KT 5SM SHRA BR OVC017 FM140800 VRB03KT P6SM VCSH OVC022 FM141200 00000KT P6SM BKN040 FM141900 25005KT P6SM FEW190
KSLN,KSLN 140520Z 1406/1506 VRB03KT P6SM SKC FM141500 25010KT P6SM SKC FM141700 27020G29KT P6SM FEW250 FM150000 31011KT P6SM FEW200
KSME,KSME 140529Z 1406/1506 VRB03KT P6SM SCT100 FM141500 23011G22KT P6SM SKC FM142300 19005KT P6SM SKC
KSMF,KSMF 140527Z 1406/1506 16006KT P6SM SKC
KSMN,KSMN 140520Z 1406/1506 20003KT P6SM SKC
KSMO,KSMO 140524Z 1406/1506 VRB03KT P6SM OVC008 FM141600 VRB03KT P6SM OVC010 FM141900 21006KT P6SM BKN015 FM142100 23010KT P6SM SCT015 FM150200 VRB03KT P6SM OVC010
KSMX,KSMX 140524Z 1406/1506 VRB03KT P6SM OVC005 FM140800 VRB03KT 3SM BR OVC003 FM141500 VRB03KT P6SM OVC006 FM141800 VRB03KT P6SM SCT006 FM142000 30012KT P6SM SKC FM150300 VRB03KT P6SM OVC006
KSNA,KSNA 140520Z 1406/1506 VRB04KT P6SM OVC011 TEMPO 1411/1415 5SM -DZ BR OVC009 FM141900 21007KT P6SM BKN017 FM150200 VRB05KT P6SM OVC015
KSNS,KSNS 140531Z 1406/1506 31005KT P6SM OVC004 FM140700 VRB04KT P6SM OVC003 TEMPO 1412/1415 1SM BR OVC002 FM141800 28010KT P6SM SKC FM150200 29006KT P6SM BKN006
KSNY,KSNY 140520Z 1406/1506 29011KT P6SM SKC FM141600 32024G35KT P6SM SKC FM150000 34013KT P6SM FEW250
KSOA,KSOA 140524Z 1406/1506 VRB05KT P6SM SCT250 FM141700 18008KT P6SM FEW250
KSPI,KSPI 140520Z 1406/1506 23005KT P6SM SCT100 FM141700 23015G25KT P6SM BKN200 FM150000 26008KT P6SM VCSH BKN080
KSPS,KSPS 140520Z 1406/1506 24005KT P6SM SKC FM141600 21013G21KT P6SM FEW190 FM150100 21008KT P6SM SKC
KSRQ,KSRQ 140421Z 1404/1424 VRB03KT 5SM BR FEW010 SCT120 BKN250 TEMPO 1404/1405 2SM BR FM141400 07007KT P6SM SCT035 SCT250 FM141900 30007KT P6SM SCT050 SCT120 BKN250
KSSC,TAF KSSC 132300Z 1323/1505 21010KT 9999 SCT020 QNH2977INS BECMG 1406/1407 31010KT 9999 SKC QNH2988INS BECMG 1413/1414 33004KT 9999 SKC QNH3002INS TX20/1418Z TN12/1412Z
KSSF,KSSF 140529Z 1406/1506 04006KT P6SM FEW040 SCT250 FM141000 04004KT P6SM SCT025 SCT250 FM141700 15007KT P6SM SCT060 SCT250
KSSI,KSSI 140531Z 1406/1506 26003KT P6SM FEW250 FM140900 35008KT P6SM FEW250 FM141400 02010KT P6SM SKC FM141900 07008KT P6SM SKC
KSTC,KSTC 140520Z 1406/1506 28005KT P6SM BKN050 FM140900 27007KT 4SM -SHSN BR OVC035 FM141500 30010KT P6SM -SHRA OVC020 FM142000 32013G21KT P6SM BKN025 FM142300 32009KT P6SM SCT030
KSTJ,KSTJ 140520Z 1406/1506 VRB04KT P6SM SKC FM141500 27018G27KT P6SM SCT090 FM142000 29022G34KT P6SM BKN080 FM150000 36006KT P6SM FEW250
KSTL,KSTL 140530Z 1406/1512 23005KT P6SM SKC FM141600 25013G19KT P6SM SKC FM141800 26014G26KT P6SM FEW250 FM142300 26010G18KT P6SM BKN110 FM150200 32005KT P6SM BKN250
KSTS,KSTS 140531Z 1406/1506 VRB04KT 2SM BR OVC002 FM140800 00000KT 1/2SM FG VV002 FM141700 VRB03KT P6SM BKN005 FM141900 VRB04KT P6SM SKC FM142300 15007KT P6SM SKC FM150400 15005KT P6SM BKN004
KSUA,KSUA 140533Z 1406/1506 VRB03KT P6SM SCT100 BKN250 FM141400 01005KT P6SM SCT025 SCT120 FM141800 05009KT P6SM VCSH SCT030 FM150000 07003KT P6SM SCT035 AMD NOT SKED
KSUN,KSUN 140520Z 1406/1512 32008KT P6SM SKC FM141800 14010KT P6SM SKC FM150400 31006KT P6SM SKC AMD LTD TO CLD VIS AND WIND TIL 141400
KSUS,KSUS 140530Z 1406/1506 VRB03KT P6SM SKC FM141600 25013G19KT P6SM SKC FM141800 26014G26KT P6SM FEW250 FM142300 26010G18KT P6SM BKN110 FM150200 32005KT P6SM BKN250
KSUU,TAF KSUU 140255Z 1403/1509 23012G18KT 9999 SKC QNH2983INS BECMG 1404/1405 23015G25KT 9999 SKC QNH2983INS BECMG 1411/1412 23010G15KT 9999 SKC QNH2980INS BECMG 1418/1419 VRB06KT 9999 SKC QNH2970INS TX30/1423Z TN10/1414Z
KSUX,KSUX 140520Z 1406/1506 28008KT P6SM SKC FM141400 28015G25KT P6SM FEW200 FM141600 29022G32KT P6SM SCT150 FM142200 33018G25KT P6SM FEW200 FM150000 33012KT P6SM FEW200
KSVN,TAF KSVN 140400Z 1404/1510 VRB06KT 9000 BR FEW200 QNH2983INS BECMG 1409/1410 36006KT 9999 NSW SKC QNH2988INS TX26/1418Z TN14/1412Z
KSWF,KSWF 140541Z 1406/1512 31010G16KT 4SM -RA BR BKN012 FM140700 33011KT P6SM BKN025 FM141000 32010KT P6SM BKN040 FM141500 29009KT P6SM BKN040 FM141800 27010KT P6SM SKC FM150000 VRB03KT P6SM SKC
KSWO,KSWO 140520Z 1406/1506 26004KT P6SM SKC FM141600 26009G14KT P6SM SKC FM141900 23015G24KT P6SM SKC FM150000 26009KT P6SM FEW250
KSYM,KSYM 140529Z 1406/1506 VRB04KT P6SM SCT100 FM141500 23011G22KT P6SM SKC FM142300 18005KT P6SM SKC
KSYR,KSYR 140520Z 1406/1506 VRB04KT P6SM -SHRA OVC060 FM140800 VRB03KT P6SM SCT045 FM141500 22007KT P6SM SKC
KSZL,TAF KSZL 140300Z 1403/1509 24009KT 9999 SKC QNH2979INS BECMG 1414/1415 25015G25KT 9999 FEW050 QNH2972INS BECMG 1417/1418 25015G25KT 9999 BKN080 QNH2961INS TEMPO 1418/1423 25025G35KT 8000 -RA OVC080 BECMG 1502/1503 35009KT 9999 SKC QNH2975INS TX21/1421Z TN03/1412Z
KTBN,TAF KTBN 132100Z 1321/1503 28020G30KT 9999 SKC 510052 QNH2985INS BECMG 1323/1324 30006KT 9999 SKC QNH2984INS BECMG 1414/1415 27020G25KT 9999 SKC QNH2980INS BECMG 1420/1421 26025G30KT 9999 SCT100 BKN180 510042 QNH2970INS BECMG 1423/1424 24009KT 9999 BKN100 OVC140 QNH2971INS TX22/1420Z TN05/1411Z LAST NO AMDS AFT 1403 NEXT 1413
KTCC,KTCC 140529Z 1406/1506 23006KT P6SM SKC FM141600 24012G20KT P6SM SKC FM150200 26008KT P6SM SKC
KTCL,KTCL 140535Z 1406/1506 VRB03KT P6SM SKC FM141800 25007KT P6SM SKC FM150000 21005KT P6SM SKC
KTCM,TAF KTCM 140505Z 1405/1511 VRB04KT 9999 SKC QNH3008INS BECMG 1411/1412 VRB04KT 4800 BR SKC QNH3007INS BECMG 1413/1414 03006KT 9999 NSW SKC QNH3005INS TX23/1423Z TN05/1413Z
KTCS,KTCS 140520Z 1406/1506 VRB04KT P6SM SKC FM150000 23006KT P6SM BKN250
KTEB,KTEB 140541Z 1406/1512 35008KT 5SM -SHRA BR SCT009 OVC015 TEMPO 1406/1407 2SM SHRA BR FEW007 BKN012 FM140800 34007KT P6SM SCT025 BKN040 FM141300 33006KT P6SM SCT040 BKN250 FM141700 29008KT P6SM SCT050 SCT250 FM142300 VRB03KT P6SM FEW250
KTEX,KTEX 140520Z 1406/1506 14006KT P6SM SKC FM141800 28008G18KT P6SM SKC
KTIK,TAF KTIK 140100Z 1401/1507 25008KT 9999 SKC QNH2988INS BECMG 1416/1417 24012G18KT 9999 SKC QNH2985INS BECMG 1422/1423 20006KT 9999 SKC QNH2984INS TX28/1422Z TN13/1412Z
KTIX,KTIX 140533Z 1406/1506 20003KT P6SM SCT250 FM141400 02010KT P6SM SCT035 FM141800 04012KT P6SM SCT040 FM150000 05006KT P6SM FEW040 AMD NOT SKED TIL 141100
KTLH,KTLH 140536Z 1406/1506 VRB03KT P6SM FEW250 FM141500 04006KT P6SM SKC
KTMB,KTMB 140520Z 1406/1506 VRB04KT P6SM SCT050 BKN250 FM141600 02006KT P6SM VCSH SCT035 BKN100 FM141800 06007KT P6SM VCTS SCT025CB BKN050 BKN250 FM150100 VRB04KT P6SM SCT040 SCT100 BKN250
KTOI,KTOI 140535Z 1406/1506 35005KT 6SM BR FEW250 TEMPO 1406/1410 2SM BR FM141000 VRB03KT 3SM BR FEW250 TEMPO 1410/1413 1SM BR FM141300 VRB04KT P6SM SKC
KTOL,KTOL 140547Z 1406/1506 21006KT P6SM FEW100 FM141600 22015G26KT P6SM FEW060 SCT100 FM142300 18010KT P6SM SCT060 BKN120
KTOP,KTOP 140521Z 1406/1506 27004KT P6SM SKC FM141500 26012G25KT P6SM FEW250 FM141800 28017G30KT P6SM BKN100
KTPA,KTPA 140315Z 1403/1506 VRB03KT P6SM FEW015 SCT150 BKN250 FM141000 VRB03KT 6SM BR FEW010 SCT120 BKN250 FM141400 04007KT P6SM SCT035 SCT250 FM141900 32005KT P6SM SCT050 SCT120 BKN250 FM150100 VRB03KT P6SM FEW020 SCT120 BKN250
KTPH,KTPH 140520Z 1406/1506 36010KT P6SM SKC FM141600 VRB06KT P6SM SKC
KTRI,KTRI 140520Z 1406/1506 00000KT P6SM FEW250 FM141700 25012G20KT P6SM SKC FM142200 22005KT P6SM FEW250
KTRK,KTRK 140520Z 1406/1506 VRB03KT P6SM SKC FM142200 19006KT P6SM FEW110 FM150000 VRB03KT P6SM FEW250
KTRM,KTRM 140520Z 1406/1506 32007KT P6SM SKC FM140800 VRB05KT P6SM SKC FM141900 15010KT P6SM SKC FM150100 VRB05KT P6SM SKC FM150400 33008KT P6SM SKC
KTTD,KTTD 140520Z 1406/1506 09005KT P6SM FEW030 FM142000 10008KT P6SM FEW030
KTTN,KTTN 140520Z 1406/1506 33006KT 6SM BR VCSH OVC040 TEMPO 1406/1408 3SM BR FM140800 34006KT P6SM VCSH OVC045 TEMPO 1408/1409 3SM BR FM140900 35005KT P6SM BKN050 TEMPO 1409/1410 3SM BR
KTUL,KTUL 140520Z 1406/1506 23004KT P6SM SKC FM141600 25014G24KT P6SM SKC FM150000 22010KT P6SM SCT150 SCT250
KTUP,KTUP 140520Z 1406/1506 VRB02KT P6SM SKC FM141500 22008KT P6SM SKC FM141700 26010G18KT P6SM SKC FM142300 24006KT P6SM SKC FM150200 21005KT P6SM SKC
KTUS,KTUS 140520Z 1406/1506 15006KT P6SM SCT200 FM142100 20006KT P6SM BKN200 FM150300 15006KT P6SM OVC200
KTVC,KTVC 140535Z 1406/1506 23007KT 6SM -SHRA SCT025 OVC040 TEMPO 1406/1410 4SM -SHRA BR BKN025 FM141100 21007KT 6SM BR VCSH BKN035 FM141400 20008G14KT P6SM VCSH BKN035 FM142000 19011G17KT 6SM -SHRA BKN035 FM150200 16007KT P6SM VCSH BKN045
KTVF,KTVF 140525Z 1406/1506 27010KT 3SM -SN OVC005 TEMPO 1406/1410 1SM -SN BR FM141200 31010KT P6SM OVC006 FM141500 35014G21KT P6SM OVC015 FM142200 33012KT P6SM BKN025 FM150100 32006KT P6SM SCT050
KTVL,KTVL 140520Z 1406/1506 18004KT P6SM SKC FM141800 03006KT P6SM FEW110 FM150300 VRB03KT P6SM FEW250
KTWF,KTWF 140520Z 1406/1506 21010KT P6SM SKC FM141700 30007KT P6SM SKC FM150200 21008KT P6SM SKC
KTXK,KTXK 140520Z 1406/1506 VRB03KT P6SM SKC FM141500 24006KT P6SM SKC FM141700 24012G18KT P6SM SKC FM150000 21006KT P6SM SKC
KTYR,KTYR 140520Z 1406/1506 VRB03KT P6SM SKC FM141500 21010KT P6SM SKC FM150000 19005KT P6SM SKC
KTYS,KTYS 140520Z 1406/1506 00000KT P6SM SKC FM141700 24012G20KT P6SM SKC FM142200 22005KT P6SM FEW250
KUAO,KUAO 140520Z 1406/1506 VRB04KT 6SM HZ FEW030
KUES,KUES 140530Z 1406/1506 24004KT P6SM BKN080 FM141500 22007KT P6SM BKN120 FM141900 21013G23KT P6SM OVC080 FM142100 24013G22KT P6SM OVC070 FM150000 25005KT P6SM BKN060
KUIN,KUIN 140530Z 1406/1506 23006KT P6SM FEW250 FM141700 26017G26KT P6SM FEW250 FM142300 29014G26KT P6SM BKN060 FM150100 32009KT P6SM BKN110
KUKI,KUKI 140520Z 1406/1506 00000KT P6SM SKC FM141000 00000KT 1/2SM FG OVC002 FM141700 VRB03KT P6SM SKC
KUNV,KUNV 140522Z 1406/1506 00000KT P6SM VCFG SKC FM140700 00000KT 6SM BR VCFG FEW250 FM141400 24008G15KT P6SM SCT060 FM142200 22003KT P6SM SCT250
KUTS,KUTS 140520Z 1406/1506 VRB03KT P6SM SKC FM141500 12005KT P6SM SKC FM141900 15006KT P6SM SKC
KVAD,TAF KVAD 140000Z 1400/1506 29003KT 9999 SKC QNH2983INS BECMG 1417/1418 05006KT 9999 SCT050 QNH2999INS TX22/1418Z TN15/1412Z
KVBG,TAF KVBG 132200Z 1322/1504 32009KT 9999 SCT010 SCT120 QNH2996INS BECMG 1323/1324 32009KT 9999 BKN006 QNH2993INS BECMG 1401/1402 VRB06KT 4800 BR OVC004 QNH2992INS BECMG 1403/1404 VRB06KT 0800 FG VV002 QNH2990INS BECMG 1405/1406 VRB06KT 0400 FG VV001 QNH2989INS BECMG 1415/1416 VRB06KT 1600 BR OVC002 QNH2986INS BECMG 1416/1417 34006KT 3200 BR OVC003 QNH2984INS BECMG 1417/1418 32006KT 4800 BR OVC005 QNH2982INS BECMG 1418/1419 31009KT 9999 NSW BKN006 QNH2980INS BECMG 1420/1421 32009KT 9999 SCT010 SCT120 QNH2982INS BECMG 1500/1501 32006KT 9999 BKN006 QNH2985INS BECMG 1501/1502 VRB06KT 4800 BR OVC004 QNH2985INS BECMG 1503/1504 VRB06KT 0800 FG VV002 QNH2986INS TX16/1322Z TN12/1414Z LAST NO AMDS AFT 1400 NEXT 1414
KVCT,KVCT 140528Z 1406/1506 VRB05KT P6SM BKN100 FM140900 VRB05KT 5SM BR FEW025 SCT250 TEMPO 1409/1413 2SM BR BKN020 FM141400 06006KT P6SM FEW020 SCT050 FM141800 12008KT P6SM SCT050
KVEL,KVEL 140520Z 1406/1506 27004KT P6SM SKC FM141800 15008KT P6SM SKC
KVGT,KVGT 140520Z 1406/1506 32007KT P6SM SKC FM141900 12007KT P6SM SKC FM150400 32007KT P6SM SKC
KVIS,KVIS 140520Z 1406/1506 VRB03KT P6SM SKC
KVLD,KVLD 140536Z 1406/1506 VRB03KT P6SM FEW250 FM141500 03005KT P6SM SKC
KVNY,KVNY 140524Z 1406/1506 VRB03KT 5SM BR OVC008 FM141800 VRB03KT P6SM SKC FM142100 15008KT P6SM SKC FM150300 VRB03KT P6SM SKC
KVOK,TAF AMD KVOK 131600Z 1316/1415 29012KT 9999 OVC060 510053 QNH2958INS BECMG 1316/1317 29015G25KT 8000 -SHRA BKN040 QNH2960INS BECMG 1322/1323 31008KT 9999 NSW OVC020 QNH2966INS BECMG 1402/1403 28009KT 9999 SCT020 BKN060 510063 QNH2970INS BECMG 1409/1410 21006KT 9999 BKN100 QNH2963INS TX07/1317Z TN00/1408Z
KVPS,TAF KVPS 140100Z 1401/1507 35008KT 9999 SKC QNH2985INS WND 02010KT AFT 1407 BECMG 1418/1419 08005KT 9999 SKC QNH2995INS TX25/1420Z TN14/1410Z
KVQQ,KVQQ 140531Z 1406/1506 00000KT P6SM FEW250 TEMPO 1406/1408 5SM BR FM141000 35003KT 6SM BR FEW015 FM141200 36004KT P6SM FEW040 SCT250 FM141500 02006KT P6SM FEW250 FM142000 06006KT P6SM FEW060
KVRB,KVRB 140533Z 1406/1506 VRB03KT P6SM FEW120 BKN250 FM141400 02007KT P6SM SCT025 SCT060 FM141800 04009KT P6SM VCSH SCT030 FM150000 05005KT P6SM SCT040
KVTN,KVTN 140520Z 1406/1506 29010KT P6SM SKC FM141500 30020G30KT P6SM BKN120 FM142100 33023G33KT P6SM FEW250 FM142300 35016G28KT P6SM FEW250 FM150200 34005KT P6SM SCT250
KWJF,KWJF 140524Z 1406/1506 VRB03KT P6SM SKC FM142200 07007KT P6SM SKC FM150100 28010KT P6SM SKC
KWMC,KWMC 140520Z 1406/1506 VRB05KT P6SM SKC
KWRB,TAF KWRB 140000Z 1400/1506 VRB06KT 9999 FEW250 QNH2983INS TX28/1420Z TN11/1412Z
KWRI,TAF KWRI 140200Z 1402/1508 18009KT 9999 VCSH SCT005 OVC010 QNH2972INS TEMPO 1402/1403 34015G25KT 4800 SHRA BKN008 OVC020 BECMG 1403/1404 31009KT 8000 -SHRA BR OVC025 QNH2975INS BECMG 1406/1407 32005KT 9999 NSW OVC030 QNH2978INS BECMG 1409/1410 31006KT 9999 SCT040 BKN080 QNH2981INS BECMG 1412/1413 30008KT 9999 SCT090 QNH2983INS BECMG 1416/1417 26009KT 9999 FEW250 QNH2990INS BECMG 1422/1423 VRB03KT 9999 SKC QNH3000INS TX21/1419Z TN12/1411Z
KWRL,KWRL 140521Z 1406/1506 18006KT P6SM SCT250 FM141100 VRB05KT P6SM SCT250 FM141700 35006KT P6SM SCT250
KWWR,KWWR 140520Z 1406/1506 25007KT P6SM SKC FM141600 23013G19KT P6SM SKC FM141900 23016G26KT P6SM SKC FM142300 23007G12KT P6SM SKC
KWYS,KWYS 140544Z 1406/1506 VRB06KT P6SM FEW250
KXNA,KXNA 140520Z 1406/1506 23004KT P6SM SKC FM141600 24014G24KT P6SM SKC FM150000 23006KT P6SM SCT150 SCT250
KXWA,KXWA 140545Z 1406/1506 31011KT P6SM SCT100 BKN250 FM140700 32010KT P6SM VCSH SCT080 BKN100 TEMPO 1407/1411 -RA BKN050 OVC080 FM141200 34014G19KT P6SM BKN060 OVC100 FM141400 33013G18KT P6SM FEW050 FM142000 31011KT P6SM SCT250 FM150100 28007KT P6SM BKN080 OVC120
KYIP,KYIP 140523Z 1406/1506 22007KT P6SM SCT100 SCT250 FM141400 24013G20KT P6SM SCT040 SCT100 BKN250 FM142000 16013KT P6SM BKN100 OVC250 FM150200 21010KT 6SM -SHRA OVC040
KYKM,KYKM 140520Z 1406/1506 28006KT P6SM SKC FM141800 VRB05KT P6SM SKC FM150300 29006KT P6SM SKC
KYNG,KYNG 140547Z 1406/1506 24006KT P6SM SCT040 OVC100 FM140800 20004KT P6SM SCT060 FM141500 21012KT P6SM SCT100 FM150200 16006KT P6SM SCT060 BKN120
KZZV,KZZV 140520Z 1406/1506 22004KT P6SM SCT050 FM141600 24012G20KT P6SM SKC FM142200 17004KT P6SM BKN250
LATI,TAF LATI 140500Z 1406/1506 VRB03KT 5000 BR SCT030 BKN060 TX18/1412Z TN09/1503Z BECMG 1409/1411 35013KT TEMPO 1418/1504 VRB03KT 2000 BCFG NSC PROB40 1422/1505 0500 FG
LBBG,TAF LBBG 140500Z 1406/1506 02010KT 9999 SCT025 BKN033 BECMG 1407/1409 06018KT PROB30 TEMPO 1407/1412 5000 SHRA FEW015 FEW030CB BKN040 BECMG 1416/1418 01010KT PROB40 TEMPO 1418/1506 5000 RA SCT007 BKN015 OVC025
LBGO,TAF LBGO 140500Z 1406/1506 VRB04KT 9999 SCT060 BECMG 1406/1408 09010KT BECMG 1500/1502 VRB04KT TEMPO 1502/1506 3000 BR BKN010
LBPD,TAF LBPD 140500Z 1406/1506 VRB04KT 9999 SCT020 SCT040 BKN080 BECMG 1407/1409 10010KT PROB40 TEMPO 1416/1424 5000 RA BKN020 OVC040
LBSF,TAF LBSF 140500Z 1406/1506 09010KT 9999 SCT030 BKN050 BECMG 1418/1420 VRB04KT
LBWN,TAF LBWN 140500Z 1406/1506 04010KT 9999 SCT020 BKN033 BECMG 1407/1409 09016KT BECMG 1416/1418 02010KT TEMPO 1418/1506 SCT006 BKN020
LCEN,TAF LCEN 140440Z 1406/1506 15015KT 9999 FEW025 TEMPO 1409/1409 -SHRA TEMPO 1412/1415 -TSRA FEW020CB BKN025 BKN080 BECMG 1418/1421 28015KT
LCLK,TAF LCLK 140530Z 1406/1506 31006KT 9999 FEW025 BECMG 1408/1411 18012KT BECMG 1417/1420 28006KT
LCPH,TAF LCPH 140530Z 1406/1506 01006KT 9999 FEW025 BECMG 1407/1411 24010KT BECMG 1412/1415 30010KT BECMG 1417/1421 01006KT
LCRA,TAF LCRA 140435Z 1406/1424 36004KT 9999 FEW040 PROB30 1406/1408 04004KT
LDDU,TAF LDDU 140525Z 1406/1506 02015KT 9999 SCT050 TX22/1411Z TN14/1505Z PROB30 TEMPO 1406/1407 02015G25KT BECMG 1408/1410 20008KT PROB40 TEMPO 1411/1415 FEW025TCU BECMG 1413/1415 15008KT BECMG 1419/1421 02010KT
LDLO,TAF LDLO 140525Z 1406/1506 01006KT CAVOK TX21/1412Z TN16/1505Z BECMG 1411/1413 20006KT BECMG 1415/1417 02006KT
LDOS,TAF LDOS 140525Z 1406/1506 VRB02KT CAVOK TX19/1413Z TN08/1504Z TEMPO 1406/1408 2000 BR BECMG 1408/1410 11006KT PROB40 TEMPO 1500/1506 VRB02KT 3000 BR
LDPL,TAF LDPL 140525Z 1406/1506 05005KT CAVOK TX22/1413Z TN11/1504Z PROB40 TEMPO 1410/1417 27008KT
LDRI,TAF LDRI 140525Z 1406/1506 08006KT CAVOK TX20/1412Z TN14/1504Z
LDSP,TAF LDSP 140525Z 1406/1506 31006KT CAVOK TX24/1412Z TN13/1504Z TEMPO 1412/1416 23008KT TEMPO 1418/1423 05008KT
LDZA,TAF LDZA 140525Z 1406/1506 VRB02KT 0100 FG VV001 TX19/1413Z TN08/1505Z BECMG 1407/1409 3000 BR BKN010 BECMG 1409/1411 CAVOK BECMG 1421/1423 3000 BR BECMG 1500/1502 0200 FG VV002
LDZD,TAF LDZD 140525Z 1406/1506 VRB02KT CAVOK TX23/1412Z TN09/1504Z PROB30 TEMPO 1408/1411 06008KT BECMG 1410/1412 30008KT BECMG 1416/1418 VRB02KT PROB30 TEMPO 1418/1421 06008KT
LEAB,TAF LEAB 140500Z 1406/1506 VRB03KT CAVOK TX27/1415Z TN07/1406Z
LEAG,TAF LEAG 140200Z 1403/1503 07009KT 9999 FEW015 TX24/1414Z TN18/1406Z PROB30 TEMPO 1404/1411 4000 BR BKN014 PROB30 TEMPO 1418/1503 4000 BR BKN014
LEAL,TAF LEAL 140500Z 1406/1506 29007KT 9999 FEW040 TX27/1413Z TN16/1406Z BECMG 1411/1413 18011KT BECMG 1418/1420 VRB03KT
LEAM,TAF LEAM 140500Z 1406/1506 34004KT CAVOK TX27/1414Z TN17/1506Z BECMG 1410/1412 19010KT BECMG 1418/1420 VRB02KT
LEAO,TAF LEAO 140200Z 1403/1503 VRB04KT CAVOK TX28/1415Z TN07/1406Z
LEAS,TAF LEAS 140200Z 1403/1503 24006KT 9999 FEW030 TX21/1413Z TN15/1407Z PROB30 TEMPO 1403/1406 3000 BCFG BKN005 PROB30 TEMPO 1412/1418 30010KT
LEBA,TAF LEBA 140200Z 1403/1503 08005KT CAVOK TX31/1415Z TN12/1406Z
LEBB,TAF LEBB 140500Z 1406/1506 VRB04KT 9999 BKN030 TX25/1413Z TN15/1406Z TEMPO 1412/1418 33008KT
LEBG,TAF LEBG 140200Z 1403/1503 VRB05KT CAVOK TX23/1415Z TN04/1406Z PROB30 TEMPO 1405/1409 2000 BR BCFG BKN005 BECMG 1409/1411 24010KT BECMG 1419/1421 16005KT
LEBL,TAF LEBL 140500Z 1406/1506 34007KT 9999 FEW040 TX25/1413Z TN18/1506Z BECMG 1409/1411 09007KT BECMG 1500/1503 35007KT
LEBR,TAF LEBR 140200Z 1403/1503 30006KT 9999 FEW040 TX25/1415Z TN11/1406Z PROB30 TEMPO 1403/1410 3000 BCFG BKN010
LEBZ,TAF LEBZ 140200Z 1403/1503 VRB02KT CAVOK TX32/1415Z TN13/1406Z
LECO,TAF LECO 140200Z 1403/1503 22005KT 9999 BKN020 TX21/1413Z TN17/1407Z PROB40 TEMPO 1403/1409 3000 DZ BR BKN010 PROB30 TEMPO 1403/1408 0800 BCFG VV002
LECV,TAF LECV 140500Z 1406/1506 VRB03KT CAVOK TX23/1415Z TN12/1406Z PROB40 TEMPO 1412/1418 22010KT
LEEC,TAF LEEC 140200Z 1403/1503 VRB02KT CAVOK TX32/1415Z TN14/1406Z BECMG 1408/1410 03010KT BECMG 1419/1421 VRB02KT
LEGA,TAF LEGA 140500Z 1406/1506 VRB02KT CAVOK TX28/1415Z TN09/1506Z BECMG 1411/1413 18010KT BECMG 1420/1422 VRB02KT
LEGE,TAF LEGE 140500Z 1406/1506 32004KT 9999 FEW015 SCT030 TX26/1413Z TN13/1406Z PROB30 TEMPO 1406/1407 4000 BR BKN010 PROB30 TEMPO 1406/1410 BKN014 BECMG 1410/1412 18008KT BECMG 1418/1420 VRB03KT
LEGR,TAF LEGR 140500Z 1406/1506 VRB02KT CAVOK TX28/1415Z TN08/1506Z PROB30 TEMPO 1412/1420 16010KT
LEGT,TAF LEGT 140500Z 1406/1506 VRB04KT CAVOK TX27/1415Z TN11/1406Z PROB30 TEMPO 1411/1418 24010KT
LEHC,TAF LEHC 140200Z 1403/1503 29007KT 9999 FEW020 TX25/1414Z TN14/1406Z PROB30 TEMPO 1403/1407 4000 BR BKN012 BECMG 1407/1409 28012KT BECMG 1417/1419 VRB03KT BECMG 1500/1502 08008KT
LEIB,TAF LEIB 140200Z 1403/1503 25009KT 9999 FEW020 TX24/1412Z TN16/1405Z
LEJR,TAF LEJR 140200Z 1403/1503 03005KT CAVOK TX32/1414Z TN14/1406Z BECMG 1410/1412 11010KT BECMG 1419/1421 VRB02KT
LELC,TAF LELC 140500Z 1406/1506 31004KT CAVOK TX26/1413Z TN15/1506Z BECMG 1409/1411 22010KT BECMG 1420/1422 29004KT
LELL,TAF LELL 140200Z 1403/1503 VRB04KT 9999 FEW020 TX26/1413Z TN14/1405Z TEMPO 1412/1417 13008KT
LELN,TAF LELN 140200Z 1403/1503 27005KT CAVOK TX24/1415Z TN05/1406Z PROB30 TEMPO 1403/1409 3000 BR NSC
LELO,TAF LELO 140200Z 1403/1503 VRB03KT CAVOK TX26/1415Z TN09/1406Z PROB30 TEMPO 1404/1408 1500 BR BCFG BKN005
LEMD,TAF LEMD 140500Z 1406/1512 VRB03KT CAVOK TX28/1415Z TN11/1406Z PROB30 TEMPO 1412/1418 22008G18KT
LEMG,TAF LEMG 140500Z 1406/1506 29006KT CAVOK TX26/1413Z TN16/1506Z BECMG 1409/1411 13006KT BECMG 1419/1421 29004KT
LEMH,TAF LEMH 140200Z 1403/1503 25008KT 9999 FEW020 TX24/1412Z TN17/1405Z PROB30 TEMPO 1403/1407 4000 BR PROB40 TEMPO 1403/1412 VRB03KT BECMG 1418/1420 32006KT
LEMO,TAF LEMO 140200Z 1403/1503 03004KT CAVOK TX31/1415Z TN15/1406Z BECMG 1410/1412 09010KT BECMG 1419/1421 VRB02KT
LEPA,TAF LEPA 140500Z 1406/1506 04005KT 9999 FEW025 TX26/1412Z TN19/1406Z BECMG 1408/1410 23010KT BECMG 1418/1420 VRB03KT
LEPP,TAF LEPP 140200Z 1403/1503 VRB02KT 9999 BKN025 TX23/1415Z TN11/1406Z PROB40 TEMPO 1403/1410 3000 BR BKN010 PROB30 TEMPO 1403/1409 0350 FG VV002
LERI,TAF LERI 140500Z 1406/1506 25006KT CAVOK TX29/1413Z TN14/1506Z
LERL,TAF LERL 140200Z 1403/1503 VRB04KT CAVOK TX28/1415Z TN07/1406Z
LERS,TAF LERS 140200Z 1403/1503 VRB04KT 9999 FEW020 TX26/1412Z TN15/1405Z PROB30 TEMPO 1403/1412 30010KT BECMG 1412/1414 16008KT BECMG 1418/1420 02006KT
LERT,TAF LERT 140200Z 1403/1503 05006KT CAVOK TX28/1413Z TN16/1406Z BECMG 1411/1413 11010KT
LESA,TAF LESA 140200Z 1403/1503 VRB04KT CAVOK TX25/1415Z TN07/1406Z PROB30 TEMPO 1405/1408 4000 BR NSC
LESO,TAF LESO 140500Z 1406/1506 23006KT 9999 BKN025 TX24/1413Z TN17/1406Z PROB30 TEMPO 1406/1409 BKN014
LEST,TAF LEST 140500Z 1406/1506 22005KT 9999 BKN016 TX18/1414Z TN14/1407Z TEMPO 1406/1506 BKN010 TEMPO 1406/1410 3000 DZ BR BKN005 TEMPO 1406/1409 0350 FG VV001 PROB40 TEMPO 1418/1506 3000 DZ BR BKN005 PROB40 TEMPO 1418/1506 0800 FG BKN002
LESU,TAF LESU 140200Z 1403/1503 VRB03KT 9999 SCT050 TX24/1413Z TN11/1405Z TEMPO 1412/1417 20008KT
LETO,TAF LETO 140500Z 1406/1506 VRB03KT CAVOK TX27/1415Z TN10/1406Z PROB30 TEMPO 1411/1418 22010KT
LEVC,TAF LEVC 140500Z 1406/1506 27006KT 9999 FEW040 TX28/1413Z TN15/1406Z BECMG 1410/1412 11008KT BECMG 1418/1420 30004KT
LEVD,TAF LEVD 140200Z 1403/1503 26005KT CAVOK TX25/1415Z TN07/1406Z PROB30 TEMPO 1404/1408 4000 BR NSC
LEVS,TAF LEVS 140500Z 1406/1506 VRB03KT CAVOK TX26/1415Z TN11/1406Z PROB30 TEMPO 1412/1417 23010KT
LEVT,TAF LEVT 140500Z 1406/1506 VRB02KT 9999 FEW030 TX26/1415Z TN09/1406Z PROB40 TEMPO 1406/1409 3000 BR BKN010 PROB30 TEMPO 1406/1409 0350 FG VV001 PROB40 TEMPO 1500/1506 0350 FG VV001
LEVX,TAF LEVX 140500Z 1406/1506 VRB03KT 9999 FEW020 TX21/1414Z TN15/1407Z TEMPO 1406/1410 3000 BR BKN010 TEMPO 1406/1409 0350 DZ FG VV001 TEMPO 1411/1418 28010KT PROB40 TEMPO 1418/1506 3000 BR BKN010 PROB30 TEMPO 1418/1506 0350 DZ BCFG VV001
LEXJ,TAF LEXJ 140200Z 1403/1503 22007KT 9999 FEW015 TX24/1413Z TN15/1406Z PROB30 TEMPO 1403/1406 BKN010 PROB30 TEMPO 1412/1415 30010KT PROB30 TEMPO 1415/1418 02010KT
LEZG,TAF LEZG 140500Z 1406/1506 26007KT 9999 FEW040 TX25/1414Z TN14/1406Z PROB30 TEMPO 1406/1408 22007KT BECMG 1408/1410 30010KT BECMG 1414/1416 VRB03KT
LEZL,TAF LEZL 140200Z 1403/1503 VRB02KT CAVOK TX32/1415Z TN14/1406Z BECMG 1407/1409 07010KT BECMG 1419/1421 VRB02KT
LFAQ,TAF LFAQ 140500Z 1406/1415 20007KT 3000 BR OVC002 PROB30 TEMPO 1406/1408 0700 FG VV/// BECMG 1408/1410 9999 NSW BKN007 BECMG 1410/1412 SCT020
LFAT,TAF LFAT 140500Z 1406/1415 23007KT 9999 SCT007 BKN027 PROB30 TEMPO 1406/1415 BKN012
LFBA,TAF LFBA 140500Z 1406/1415 27005KT 9999 SCT010 BKN030 TEMPO 1406/1409 BKN008 PROB40 TEMPO 1406/1409 4000 -RA
LFBC,TAF AMD LFBC 140200Z 1405/1503 26008KT 9999 SCT013 BKN020 BKN040 PROB30 TEMPO 1405/1408 4000 RADZ BKN007 TEMPO 1410/1414 SHRA BKN009 BKN020 BKN030 BECMG 1500/1502 2000 MIFG PROB40 TEMPO 1502/1503 0800 FG
LFBD,TAF LFBD 140500Z 1406/1512 25010KT 9999 SCT010 OVC020 TX21/1413Z TN14/1500Z TEMPO 1406/1410 4000 -RADZ BKN007 OVC015 TEMPO 1410/1415 -RA OVC013 BECMG 1421/1423 19005KT BECMG 1501/1503 4000 BR TEMPO 1503/1507 0500 FG VV/// BECMG 1508/1510 9999 NSW SCT030
LFBE,TAF LFBE 140500Z 1406/1506 26010KT 9999 SCT010 OVC020 PROB40 TEMPO 1406/1413 3000 -RA OVC010 TEMPO 1413/1417 27015G25KT BECMG 1418/1420 20007KT SCT025 PROB40 1501/1506 3000 BR
LFBG,TAF AMD LFBG 140500Z 1405/1503 23010KT 9999 BKN015 TEMPO 1405/1412 3000 -DZRA BKN007 TEMPO 1412/1416 24015G25KT
LFBH,TAF LFBH 140500Z 1406/1506 26013KT 9999 BKN015 TEMPO 1406/1412 4500 -RA BKN007 TEMPO 1415/1419 4500 -RA BKN009 TEMPO 1501/1504 21020G30KT TEMPO 1502/1505 3000 RA BKN007
LFBI,TAF LFBI 140500Z 1406/1506 24012KT 9999 BKN007 TEMPO 1408/1413 2600 -RA BKN003 OVC008 TEMPO 1416/1419 4500 -RA BKN004 BECMG 1422/1424 BKN030 TEMPO 1422/1502 BKN011 BECMG 1501/1503 20016G26KT BKN009 TEMPO 1503/1506 3600 RA BKN007
LFBL,TAF LFBL 140500Z 1406/1506 24010KT 5000 -RA OVC005 TEMPO 1406/1416 1500 RADZ OVC002 BECMG 1416/1418 9999 NSW OVC015 PROB40 TEMPO 1416/1424 4000 -RA OVC008 TEMPO 1500/1506 19015G25KT 3000 -RADZ OVC005
LFBM,TAF AMD LFBM 140430Z 1404/1503 25005KT 9999 BKN030 TEMPO 1405/1410 4000 -RADZ SCT010 OVC030 BECMG 1420/1422 2000 BR BECMG 1422/1424 0400 VV///
LFBO,TAF LFBO 140500Z 1406/1512 27010KT 9999 BKN014 TEMPO 1406/1410 4000 -RADZ BKN008 BECMG 1410/1412 BKN020 BECMG 1415/1417 CAVOK BECMG 1501/1503 VRB02KT 3000 BR PROB40 TEMPO 1501/1506 0600 FG VV/// PROB30 TEMPO 1502/1506 0300 BECMG 1507/1509 CAVOK
LFBP,TAF LFBP 140500Z 1406/1506 26007KT 9999 BKN020 TEMPO 1406/1410 4000 -RA BKN013 PROB40 TEMPO 1406/1408 2500 -RADZ BKN006 BECMG 1414/1416 CAVOK BECMG 1423/1501 4000 BR TEMPO 1501/1506 0600 FG VV///
LFBT,TAF LFBT 140500Z 1406/1506 27007KT 9999 BKN035 TEMPO 1406/1410 -RA BKN012 PROB40 TEMPO 1406/1409 4500 -RADZ BKN006 BECMG 1416/1418 CAVOK TEMPO 1423/1506 VRB03KT 4000 BR PROB40 TEMPO 1501/1506 0600 FG VV/// 
LFBU,TAF LFBU 140500Z 1406/1506 24010KT 9999 OVC010 TEMPO 1406/1412 2000 DZ OVC003 BECMG 1412/1414 OVC020 PROB40 TEMPO 1412/1416 24015G25KT TEMPO 1412/1421 4000 -RA OVC010 BECMG 1421/1423 18010KT PROB40 TEMPO 1421/1506 4000 -RA OVC005
LFBZ,TAF LFBZ 140500Z 1406/1506 26010KT 9999 SCT015 OVC030 PROB30 TEMPO 1406/1410 4000 -RA OVC010 BECMG 1413/1415 36005KT SCT020 BECMG 1422/1424 VRB03KT 3000 BR PROB40 1501/1506 0500 FG VV///
LFCK,TAF LFCK 140500Z 1406/1415 30006KT 9999 BKN012 TEMPO 1406/1414 4000 -RA OVC008 PROB40 TEMPO 1406/1410 2500 -RADZ OVC005
LFCR,TAF LFCR 140500Z 1406/1506 27010KT 9999 BKN009 TEMPO 1406/1419 4000 -RADZ BKN003 BECMG 1420/1422 VRB03KT BKN015 TEMPO 1422/1506 3000 BR PROB40 TEMPO 1500/1506 0600 FG VV///
LFGJ,TAF LFGJ 140500Z 1406/1415 21010KT 9999 SCT010 BKN020 TEMPO 1406/1411 -RA BKN007 TEMPO 1411/1415 3000 RA
LFJL,TAF LFJL 140500Z 1406/1506 17008KT 9999 FEW010 BKN020 TEMPO 1406/1414 3000 -RADZ OVC003 BECMG 1410/1412 23010KT TEMPO 1414/1424 2000 RA BKN002 TEMPO 1500/1506 -RA BKN004 PROB30 TEMPO 1502/1505 29010KT
LFKB,TAF LFKB 140200Z 1403/1503 25006KT 9999 FEW040 SCT200 TX24/1412Z TN13/1405Z BECMG 1408/1410 14010KT CAVOK BECMG 1418/1420 22006KT
LFKC,TAF LFKC 140200Z 1403/1503 18008KT CAVOK TX24/1412Z TN15/1405Z TEMPO 1410/1415 20012KT
LFKF,TAF LFKF 140200Z 1403/1503 25010KT 9999 FEW025 TEMPO 1409/1417 27015KT
LFKJ,TAF LFKJ 140200Z 1403/1503 05006KT CAVOK BECMG 1409/1411 22010KT CAVOK BECMG 1418/1420 05006KT
LFKS,TAF AMD LFKS 140500Z 1405/1503 27005KT CAVOK BECMG 1409/1411 12010KT BECMG 1418/1420 27005KT
LFLB,TAF AMD LFLB 140457Z 1404/1503 18005KT 9999 FEW030 BKN060 PROB40 TEMPO 1404/1411 4000 -RA BR BKN014 PROB40 TEMPO 1414/1417 4000 RA PROB30 TEMPO 1501/1503 2000 MIFG
LFLC,TAF LFLC 140500Z 1406/1506 20008KT 9999 BKN030
LFLL,TAF LFLL 140500Z 1406/1512 16004KT 9999 BKN030 TEMPO 1410/1417 RA BECMG 1422/1424 6000 NSC PROB40 TEMPO 1500/1507 1500 BCFG BECMG 1507/1509 CAVOK
LFLN,TAF LFLN 140500Z 1406/1415 20005KT 9999 BKN030 TEMPO 1406/1412 26010KT -RA TEMPO 1412/1415 RA
LFLP,TAF AMD LFLP 140459Z 1404/1503 VRB02KT 9999 FEW020 BKN055 PROB40 TEMPO 1404/1412 2000 -RA BR BKN012 PROB40 TEMPO 1412/1418 22010KT 4000 RA PROB30 TEMPO 1501/1503 4000 BR
LFLS,TAF AMD LFLS 140500Z 1405/1503 09006KT 9999 FEW030 BKN040 TEMPO 1405/1410 4000 -RA BR BKN014 PROB30 TEMPO 1412/1416 4000 -RA
LFLW,TAF LFLW 140500Z 1406/1415 25007KT 9999 OVC013 TEMPO 1406/1415 2000 RADZ BR OVC005 PROB30 TEMPO 1406/1415 0600 FG VV///
LFLX,TAF LFLX 140500Z 1406/1512 22010KT 9999 BKN008 TEMPO 1409/1506 22015G25KT 2500 -RADZ BKN004 PROB40 TEMPO 1417/1423 SCT012 BKN040 BECMG 1509/1511 SCT014 BKN018 BKN030
LFLY,TAF LFLY 140500Z 1406/1506 16004KT 9999 BKN030 TEMPO 1410/1417 RA BECMG 1422/1424 6000 NSC PROB40 TEMPO 1500/1506 3000 BR
LFMD,TAF LFMD 140200Z 1403/1503 36005KT 9999 FEW020 PROB40 TEMPO 1403/1410 BKN014 BECMG 1409/1411 16010KT BECMG 1416/1418 VRB03KT PROB30 TEMPO 1422/1503 BKN014
LFMI,TAF LFMI 140200Z 1403/1503 32010KT CAVOK TX25/1414Z TN15/1403Z TEMPO 1403/1406 VRB04KT BECMG 1422/1424 VRB03KT
LFMK,TAF LFMK 140200Z 1403/1503 27010KT 9999 BKN025 TEMPO 1403/1409 BKN014 PROB40 TEMPO 1406/1412 28015G25KT BECMG 1414/1416 SCT030
LFML,TAF LFML 140200Z 1403/1509 30010KT CAVOK TX24/1414Z TN14/1505Z TEMPO 1403/1407 VRB03KT BECMG 1421/1423 VRB03KT PROB30 TEMPO 1503/1506 3000 BR
LFMN,TAF LFMN 140200Z 1403/1509 33010KT CAVOK PROB30 TEMPO 1403/1408 BKN020 BECMG 1409/1411 20010KT BECMG 1416/1418 06005KT BECMG 1420/1422 33010KT PROB30 TEMPO 1505/1509 BKN020
LFMO,TAF LFMO 140200Z 1403/1503 VRB02KT CAVOK TX26/1415Z TN12/1405Z
LFMP,TAF LFMP 140200Z 1403/1503 VRB02KT 9999 FEW010 SCT060 BKN180 BECMG 1403/1405 32010KT TEMPO 1410/1415 32015G25KT
LFMT,TAF LFMT 140200Z 1403/1503 29010KT 9999 FEW045 BKN170 TEMPO 1403/1406 RA FEW040TCU
LFMU,TAF LFMU 140200Z 1403/1503 28010KT 9999 FEW045 BKN160 BECMG 1418/1420 VRB02KT
LFMV,TAF LFMV 140200Z 1403/1503 VRB03KT CAVOK TEMPO 1403/1409 2000 BR PROB30 TEMPO 1403/1408 0800 FG VV/// TEMPO 1411/1416 33010KT TEMPO 1500/1503 2000 BR
LFMY,TAF LFMY 140200Z 1403/1503 VRB03KT CAVOK TX25/1413Z TN13/1405Z BECMG 1407/1409 32010KT BECMG 1418/1420 VRB02KT
LFOA,TAF LFOA 140200Z 1403/1503 21005KT 9999 OVC006 TX18/1414Z TN14/1404Z TEMPO 1403/1408 2000 -DZRA BKN002 TEMPO 1408/1413 4000 RA BKN002 TEMPO 1413/1418 22015G25KT 4000 -RADZ BKN002 BKN010TCU BECMG 1418/1421 SCT010 BKN020 PROB40 TEMPO 1418/1503 2000 -DZRA BKN005
LFOB,TAF LFOB 140500Z 1406/1506 23005KT 9999 OVC007 TEMPO 1406/1410 3000 BR OVC003 TEMPO 1410/1416 BKN015 TEMPO 1416/1506 1500 DZRA OVC001
LFOE,TAF AMD LFOE 140420Z 1404/1503 22010KT 9999 SCT010 BKN030 TEMPO 1404/1408 1200 RADZ SCT003 BKN005 BECMG 1408/1410 3000 RA BKN008 OVC010 TEMPO 1409/1415 BKN004 TEMPO 1411/1415 23015G25KT BECMG 1415/1416 9999 BKN010 OVC020 TEMPO 1416/1418 4000 -RA SCT006 BECMG 1500/1502 3000 RA BKN010 OVC015
LFOH,TAF LFOH 140500Z 1406/1506 23005KT 9999 BKN017 TEMPO 1406/1415 4000 RA BKN007 BECMG 1415/1417 OVC005 TEMPO 1417/1506 1500 DZRA OVC001
LFOJ,TAF LFOJ 140200Z 1403/1503 22010KT 9999 BKN005 OVC015 TX19/1415Z TN13/1406Z TEMPO 1403/1406 4000 -RADZ PROB40 TEMPO 1406/1412 2000 RADZ BKN002 TEMPO 1412/1503 21015G25KT 3000 -RADZ PROB40 1412/1420 BKN002
LFOK,TAF LFOK 140500Z 1406/1506 19010KT 7000 OVC007 TEMPO 1406/1411 1200 DZRA OVC001 TEMPO 1411/1416 BKN013 BECMG 1417/1419 22015G25KT OVC011 TEMPO 1419/1506 2000 DZRA OVC005
LFOP,TAF LFOP 140500Z 1406/1506 23005KT 7000 OVC005 TEMPO 1406/1506 1500 DZRA OVC001
LFOT,TAF LFOT 140500Z 1406/1506 24010KT 8000 BKN004 BECMG 1406/1408 BKN008 TEMPO 1408/1506 22015G25KT 2500 -RADZ BKN005 PROB40 TEMPO 1415/1421 SCT012 BKN040
LFPB,TAF LFPB 140500Z 1406/1506 21005KT 9999 BKN010 PROB30 TEMPO 1406/1408 2000 DZRA BKN005 BECMG 1408/1410 BKN016 TEMPO 1410/1419 4000 RA BKN012 PROB30 TEMPO 1414/1417 2000 RA BKN008 BECMG 1417/1419 28012KT PROB30 TEMPO 1419/1422 27015G25KT BKN010 TEMPO 1423/1501 BKN020 TEMPO 1502/1506 18005KT 4000 RA BKN010
LFPG,TAF LFPG 140500Z 1406/1512 21005KT 9999 BKN006 TX17/1418Z TN14/1411Z PROB40 TEMPO 1406/1408 2000 DZRA BKN003 BECMG 1408/1410 BKN014 TEMPO 1410/1419 4000 RA BKN008 PROB30 TEMPO 1414/1417 2000 RA BKN004 BECMG 1417/1419 28012KT PROB30 TEMPO 1419/1422 27015G25KT BKN008 TEMPO 1423/1501 BKN020 TEMPO 1502/1506 18005KT 4000 RA BKN008 TEMPO 1506/1509 21015G25KT BKN008
LFPN,TAF LFPN 140500Z 1406/1415 22008KT 9999 BKN008 BECMG 1406/1409 SCT012 BKN090 BECMG 1409/1411 -RA BKN012 TEMPO 1411/1415 4000 -RADZ OVC005 PROB40 TEMPO 1413/1415 2500 DZ BKN003
LFPO,TAF AMD LFPO 140550Z 1406/1512 22008KT 9999 BKN008 BECMG 1406/1408 SCT012 BKN090 BECMG 1408/1411 -RA BKN012 TEMPO 1411/1507 4000 -RADZ OVC006 PROB40 TEMPO 1413/1417 2500 DZ BKN004 PROB40 TEMPO 1415/1510 22015G25KT BECMG 1510/1512 NSW BKN025
LFPV,TAF AMD LFPV 140509Z 1405/1503 22004KT 9999 FEW005 BKN015 OVC120 TX14/1415Z TN12/1406Z TEMPO 1406/1411 BKN008 BECMG 1410/1412 OVC006 TEMPO 1410/1418 BKN002 TEMPO 1410/1503 4000 -RADZ TEMPO 1410/1418 1000 RADZ BECMG 1416/1418 SCT008
LFQQ,TAF LFQQ 140500Z 1406/1512 20007KT 4000 BR OVC002 TEMPO 1406/1409 1500 DZ BR BECMG 1409/1412 9999 NSW SCT020 BECMG 1416/1418 OVC012 TEMPO 1418/1508 1500 DZRA OVC003 BECMG 1508/1510 26013KT SCT020
LFRB,TAF LFRB 140500Z 1406/1512 VRB05KT 9999 OVC010 TEMPO 1406/1417 3000 RADZ BKN003 BECMG 1406/1407 23015G25KT PROB40 TEMPO 1406/1417 1200 BR BKN002 BECMG 1409/1411 VRB05KT BECMG 1416/1419 BKN015 TEMPO 1421/1424 3000 RA BKN005 BECMG 1500/1502 SCT020 PROB40 TEMPO 1502/1504 0500 FG VV/// BECMG 1506/1508 22010KT BECMG 1509/1511 22015G25KT PROB40 TEMPO 1510/1512 5000 SHRA
LFRC,TAF LFRC 140500Z 1406/1415 22007KT 9999 BKN013 TEMPO 1406/1411 BKN006 BECMG 1409/1411 16010KT TEMPO 1412/1415 3000 RADZ BKN003 BECMG 1411/1413 VRB05KT BECMG 1413/1415 27010KT
LFRD,TAF LFRD 140500Z 1406/1506 VRB05KT 9999 OVC015 TEMPO 1406/1504 3000 RADZ BKN005 PROB40 TEMPO 1409/1412 2000 RADZ BKN003 BECMG 1406/1408 16010KT BECMG 1410/1412 24015G25KT BECMG 1412/1415 29010KT BECMG 1416/1418 VRB05KT BECMG 1502/1504 31012KT BECMG 1504/1506 25008KT BKN020
LFRG,TAF LFRG 140500Z 1406/1415 23007KT 9999 BKN010 TEMPO 1406/1415 3000 RADZ BKN003 BECMG 1408/1410 19010KT BECMG 1412/1415 24010KT
LFRH,TAF LFRH 140500Z 1406/1506 20010KT 6000 BKN006 OVC010 TEMPO 1406/1412 1200 RADZ BR BKN002 BECMG 1412/1414 OVC010 TEMPO 1414/1419 1200 RADZ BR BKN004 TEMPO 1419/1502 0800 FG VV/// BECMG 1502/1504 30010KT BKN020
LFRI,TAF LFRI 140500Z 1406/1506 24011KT 9999 BKN005 TEMPO 1406/1411 2500 -RA BKN003 TEMPO 1411/1503 22015G25KT 4500 -RA BECMG 1503/1505 BKN017 
LFRJ,TAF LFRJ 140500Z 1406/1415 15010KT 6000 BKN006 OVC010 TEMPO 1406/1415 3000 RADZ BR OVC003 BECMG 1406/1409 27010KT PROB40 TEMPO 1409/1415 26015G25KT 1400 RADZ BR OVC001
LFRK,TAF LFRK 140500Z 1406/1415 22007KT 9999 BKN015 TEMPO 1406/1411 BKN006 BECMG 1408/1410 17010KT TEMPO 1411/1415 3000 RADZ BKN005 BECMG 1411/1413 24012KT PROB40 TEMPO 1413/1415 24015G25KT
LFRL,TAF LFRL 140500Z 1406/1506 22010KT 3100 RADZ OVC002 PROB30 TEMPO 1406/1411 0700 FG VV/// TEMPO 1406/1412 28014G28KT 1500 BKN008 BECMG 1411/1413 25007KT 8000 BKN008 BKN012 TEMPO 1412/1501 3000 RADZ BKN003 BECMG 1500/1502 BKN020
LFRM,TAF LFRM 140500Z 1406/1506 24008KT 9999 BKN008 TEMPO 1408/1417 2800 -RA BKN004 TEMPO 1412/1415 22015G25KT TEMPO 1417/1420 BKN017 TEMPO 1420/1506 4500 -RA BKN005
LFRN,TAF LFRN 140500Z 1406/1506 VRB05KT 9999 OVC015 PROB40 TEMPO 1406/1412 1500 BR BKN002 TEMPO 1406/1504 3000 RADZ BKN005 BECMG 1407/1409 20010KT BECMG 1409/1411 23015G25KT BECMG 1414/1416 22010KT PROB40 TEMPO 1423/1503 22015G25KT BECMG 1503/1506 30010KT BKN020
LFRQ,TAF LFRQ 140500Z 1406/1506 24015G25KT 9999 OVC010 TEMPO 1406/1424 3000 RADZ BKN003 PROB40 TEMPO 1406/1424 1200 BR BKN002 BECMG 1411/1413 29007KT BECMG 1418/1421 22010KT BECMG 1421/1424 32010KT BECMG 1500/1502 9999 BKN015 BECMG 1502/1505 26007KT SCT020
LFRS,TAF LFRS 140500Z 1406/1512 20010KT 9999 BKN013 TEMPO 1406/1411 2400 -RA BKN003 TEMPO 1409/1505 22015G25KT TEMPO 1411/1506 4500 -RA BKN008 TEMPO 1501/1504 23020G30KT BECMG 1504/1506 BKN020
LFRZ,TAF LFRZ 140500Z 1406/1506 23012KT 9999 BKN013 TEMPO 1406/1411 2400 -RA BKN003 TEMPO 1409/1417 22020G30KT TEMPO 1411/1506 4500 -RA BKN008 TEMPO 1500/1503 23020G30KT BECMG 1503/1505 BKN020
LFSB,TAF LFSB 140500Z 1406/1506 15004KT 9999 -RA BKN035 PROB30 TEMPO 1413/1422 4000 RA BECMG 1419/1422 24011KT TEMPO 1422/1504 24015G25KT
LFSI,TAF AMD LFSI 140451Z 1404/1503 20010KT 9999 BKN015 BKN025 BKN040 TEMPO 1404/1410 3000 DZRA BKN005 BKN010 BKN025 TEMPO 1410/1416 BKN008 BKN025 BKN080 BECMG 1416/1417 6000 RA TEMPO 1420/1503 BKN005 BKN010 BKN020
LFSL,TAF LFSL 140500Z 1406/1415 24008KT 9999 OVC007 PROB40 TEMPO 1406/1415 2000 DZ OVC002
LFSO,TAF LFSO 140511Z 1403/1503 17010KT 7000 SCT008 OVC010 TEMPO 1405/1412 3000 -RA BKN007 OVC010 BECMG 1413/1415 BKN012 TEMPO 1413/1501 21015G25KT 3000 -RA BKN007 BECMG 1501/1503 26008KT BKN008 OVC010
LFST,TAF LFST 140500Z 1406/1506 18008KT 9999 -RA BKN030 TEMPO 1415/1503 RA PROB30 TEMPO 1416/1423 4000 RA BKN010
LFSX,TAF LFSX 140545Z 1405/1503 11010KT 8000 DZ OVC014 TEMPO 1405/1410 3000 DZRA BKN005 OVC010 BECMG 1410/1412 22010G20KT 3000 RADZ BKN005 OVC010 TEMPO 1423/1502 22015G30KT
LFTH,TAF LFTH 140200Z 1403/1503 28010KT CAVOK BECMG 1406/1408 VRB03KT BECMG 1410/1412 27012KT BECMG 1423/1501 33005KT
LFTW,TAF LFTW 140200Z 1403/1503 29010KT CAVOK TEMPO 1405/1410 VRB05KT TEMPO 1421/1424 VRB04KT
LFYR,TAF AMD LFYR 140350Z 1404/1503 25005KT 9999 BKN006 TEMPO 1404/1411 2000 RADZ BKN002 TEMPO 1412/1424 25015G25KT 2000 RADZ BKN002 BKN010TCU BECMG 1421/1424 BKN010 OVC025 TEMPO 1500/1503 25015G25KT 4000 RA BKN005
LGAD,TAF LGAD 140500Z 1406/1415 15010KT 9999 BKN020 BKN080 TEMPO 1406/1415 5000 RA PROB40 TEMPO 1406/1415 2000 TSRA FEW018CB BKN020 OVC080
LGAL,TAF LGAL 140500Z 1406/1415 04015KT 9999 FEW020 SCT060 TEMPO 1406/1415 04015G25KT
LGAV,TAF LGAV 140500Z 1406/1506 02015KT 9999 FEW030 SCT070 PROB40 TEMPO 1406/1506 5000 RA FEW018TCU BKN020 BKN070 PROB30 TEMPO 1409/1415 3000 TSRA SCT010 FEW018CB BKN020 BKN070 TEMPO 1503/1506 02015G25KT
LGBL,TAF LGBL 140500Z 1406/1415 10010KT 9999 BKN020 BKN080 PROB40 TEMPO 1406/1415 5000 RA PROB30 TEMPO 1406/1412 3000 TSRA FEW018CB BKN020 OVC080
LGEL,TAF LGEL 140500Z 1406/1506 VRB05KT 9999 FEW020 SCT070 BECMG 1410/1412 04012KT BECMG 1416/1418 35015KT PROB40 TEMPO 1406/1506 5000 RA FEW018TCU BKN020 BKN070 PROB30 TEMPO 1406/1415 3000 TSRA SCT010 FEW018CB BKN020 BKN070
LGHI,TAF LGHI 140500Z 1406/1415 36012KT 9999 FEW020 PROB30 TEMPO 1409/1415 5000 RA FEW018TCU BKN020
LGIO,TAF LGIO 140500Z 1406/1415 07010KT 9999 FEW010 BKN025 OVC080 TEMPO 1406/1415 5000 RA SCT008 BKN025 OVC080 PROB40 TEMPO 1406/1415 3000 TSRA SCT006 FEW018CB BKN020 OVC060
LGIR,TAF LGIR 140500Z 1406/1506 18010KT 9999 FEW020 SCT070 PROB40 TEMPO 1421/1506 5000 RA FEW018TCU BKN020 BKN070 PROB40 TEMPO 1423/1506 3000 TSRA SCT010 FEW018CB BKN020 OVC070 BECMG 1500/1502 VRB05KT
LGKC,TAF LGKC 140500Z 1406/1415 15012KT 9999 FEW015 SCT030 PROB40 TEMPO 1406/1415 5000 RA FEW010 FEW018TCU BKN020 PROB40 TEMPO 1409/1415 3000 TSRA SCT008 FEW018CB BKN020
LGKF,TAF LGKF 140500Z 1406/1415 18015KT 9999 SCT020 BKN070 BECMG 1407/1409 VRB05KT PROB40 TEMPO 1406/1415 5000 RA FEW018TCU BKN020 BKN080 PROB40 TEMPO 1406/1415 3000 TSRA SCT008 FEW018CB BKN020 OVC070 BECMG 1413/1415 06010KT
LGKL,TAF LGKL 140500Z 1406/1415 15010KT 9999 BKN020 BKN080 TEMPO 1406/1415 5000 RA PROB40 TEMPO 1406/1415 2000 TSRA FEW018CB BKN020 OVC080
LGKO,TAF LGKO 140500Z 1406/1506 33012KT 9999 FEW018 BECMG 1414/1416 VRB05KT PROB30 TEMPO 1421/1506 5000 RA FEW018TCU BKN020 BECMG 1501/1503 05010KT
LGKP,TAF LGKP 140500Z 1406/1415 32015G25KT 9999 FEW018
LGKR,TAF LGKR 140500Z 1406/1506 12012KT 9999 SCT018 BKN080 BECMG 1411/1413 03010KT PROB40 TEMPO 1406/1421 5000 RA SCT010 FEW018TCU BKN020 BKN070 PROB30 TEMPO 1406/1418 3000 TSRA SCT008 FEW018CB BKN020 OVC070 BECMG 1502/1504 FEW020
LGKV,TAF LGKV 140500Z 1406/1506 06015KT 9999 FEW010 SCT030 BKN080 PROB30 TEMPO 1412/1506 8000 RA SCT010 BKN025 OVC080
LGLM,TAF LGLM 140500Z 1406/1415 04015KT 9999 SCT020 TEMPO 1406/1415 04015G25KT PROB40 TEMPO 1413/1415 5000 RA BKN020
LGLR,TAF LGLR 140500Z 1406/1415 08010KT 9999 BKN020 BKN080 PROB40 TEMPO 1406/1415 5000 RA PROB30 TEMPO 1406/1412 3000 TSRA FEW018CB BKN020 OVC080
LGMK,TAF LGMK 140500Z 1406/1415 35014KT 9999 FEW018 PROB30 TEMPO 1409/1415 5000 RA FEW010 FEW018TCU BKN020
LGMT,TAF LGMT 140500Z 1406/1415 35012KT 9999 FEW020 PROB30 TEMPO 1409/1415 5000 RA FEW018TCU BKN020
LGPZ,TAF LGPZ 140500Z 1406/1506 06015KT 9999 SCT018 BKN080 PROB40 TEMPO 1406/1424 5000 RA FEW018TCU BKN020 BKN070 PROB40 TEMPO 1406/1421 3000 TSRA SCT008 FEW018CB BKN020 OVC070
LGRP,TAF LGRP 140500Z 1406/1506 25012KT 9999 FEW020 BECMG 1419/1421 VRB05KT PROB40 TEMPO 1500/1506 5000 RA FEW018TCU BKN020 PROB40 TEMPO 1503/1506 3000 TSRA SCT010 FEW018CB BKN020 BECMG 1504/1506 12012KT
LGRX,TAF LGRX 140500Z 1406/1415 15010KT 9999 BKN020 BKN080 TEMPO 1406/1415 5000 RA PROB40 TEMPO 1406/1415 2000 TSRA FEW018CB BKN020 OVC080
LGSA,TAF LGSA 140500Z 1406/1506 10010KT 9999 FEW020 SCT070 BECMG 1419/1421 VRB05KT PROB40 TEMPO 1418/1506 5000 RA FEW018TCU BKN020 BKN070 PROB40 TEMPO 1421/1506 3000 TSRA SCT010 FEW018CB BKN020 OVC070 BECMG 1504/1506 04015KT
LGSK,TAF LGSK 140500Z 1406/1415 06018KT 9999 FEW018 SCT060 PROB40 TEMPO 1406/1415 5000 RA FEW018TCU SCT020 BKN060 PROB30 TEMPO 1406/1415 3000 TSRA FEW018CB BKN020 OVC060
LGSM,TAF LGSM 140500Z 1406/1415 34010KT 9999 FEW020 BECMG 1407/1409 VRB05KT
LGSR,TAF LGSR 140500Z 1406/1506 34012KT 9999 FEW020 BECMG 1410/1412 05012KT PROB40 TEMPO 1418/1506 5000 RA FEW010 FEW018TCU BKN020 PROB40 TEMPO 1500/1506 3000 TSRA SCT010 FEW018CB BKN020 TEMPO 1500/1506 05012G22KT
LGST,TAF LGST 140500Z 1406/1415 30012KT 9999 FEW020 SCT080 BECMG 1410/1412 VRB05KT
LGSY,TAF LGSY 140500Z 1406/1415 02015KT 9999 SCT020 PROB40 TEMPO 1406/1415 5000 RA BKN020 PROB30 TEMPO 1412/1415 3000 TSRA FEW018CB BKN020 TEMPO 1412/1415 02015G25KT
LGTG,TAF LGTG 140500Z 1406/1415 04010KT 9999 SCT020 BKN070 PROB40 TEMPO 1406/1415 5000 RA BKN020 BKN070 PROB30 TEMPO 1406/1415 3000 TSRA FEW018CB BKN020 OVC070
LGTL,TAF LGTL 140500Z 1406/1415 01010KT 9999 FEW020
LGTS,TAF LGTS 140500Z 1406/1506 07010KT 9999 FEW010 SCT025 TEMPO 1406/1424 6000 RA SCT008 BKN025 PROB30 TEMPO 1406/1415 4000 TSRA SCT006 FEW018CB BKN020 BECMG 1414/1416 33015KT
LGZA,TAF LGZA 140500Z 1406/1415 19015KT 9999 SCT020 BKN070 BECMG 1409/1411 VRB05KT PROB40 TEMPO 1406/1415 5000 RA FEW018TCU BKN020 BKN080 PROB40 TEMPO 1406/1415 3000 TSRA SCT008 FEW018CB BKN020 OVC070 BECMG 1413/1415 03010KT
LHBP,TAF LHBP 140515Z 1406/1506 VRB03KT 6000 SCT045 BKN060 BECMG 1406/1409 13005KT 9999 SCT030 SCT050 PROB30 TEMPO 1412/1421 7000 SHRA BKN035TCU BECMG 1421/1424 VRB02KT 4000 BR NSC PROB40 1500/1506 2000 BCFG FEW002 BECMG 1503/1506 12005KT
LHDC,TAF LHDC 140515Z 1406/1415 07004KT 8000 NSC TEMPO 1406/1409 4000 BR PROB30 TEMPO 1406/1408 0800 FG BKN002 BECMG 1408/1411 9999 SCT035 SCT090
LHKE,TAF LHKE 140515Z 1406/1415 VRB03KT 5000 BR SCT040 BKN200 BECMG 1406/1409 9999 NSW
LHPA,TAF LHPA 140515Z 1406/1506 VRB03KT 7000 NSC BECMG 1406/1409 9999 SCT040 BKN200 PROB30 TEMPO 1409/1418 8000 -RA -SHRA SCT035TCU SCT100 BKN200 BECMG 1418/1421 17006KT
LHPP,TAF LHPP 140515Z 1406/1415 04004KT 9999 BKN035 BECMG 1406/1409 SCT030
LHPR,TAF LHPR 140515Z 1406/1415 VRB04KT CAVOK TEMPO 1406/1408 4000 BR BECMG 1406/1409 SCT040 BKN100 PROB30 TEMPO 1411/1415 7000 SHRA BKN035TCU
LHSM,TAF LHSM 140515Z 1406/1415 VRB03KT 0300 FG VV001 BECMG 1406/1408 5000 BR SCT003 SCT100 BECMG 1408/1410 9999 SCT025 PROB30 TEMPO 1410/1415 VRB10G20KT 7000 SHRA BKN030TCU
LHSN,TAF LHSN 140515Z 1406/1415 06004KT 6000 NSC BECMG 1406/1408 VRB02KT CAVOK TEMPO 1409/1412 9999 SCT040 BKN200
LIBA,TAF LIBA 140500Z 1406/1415 28015KT 5000 BR SCT030 SCT060 TEMPO 1406/1412 3000 RA BR SCT025 BKN050 BECMG 1412/1414 09015KT 9999 SCT035 SCT060
LIBC,TAF LIBC 131100Z 1312/1412 20010KT 9999 BKN015 TEMPO 1312/1318 4000 TSRA BECMG 1316/1318 VRB05KT BECMG 1403/1405 35013KT TEMPO 1408/1412 35016G30KT
LIBD,TAF LIBD 140500Z 1406/1506 32012KT 7000 SCT020 TEMPO 1406/1408 RA BECMG 1420/1422 26006KT
LIBF,TAF LIBF 140500Z 1406/1506 32012KT 9999 SCT020 BECMG 1421/1423 26005KT
LIBN,TAF LIBN 140500Z 1406/1415 03012KT 6000 RA FEW010 SCT020 TEMPO 1409/1412 SHRA FEW010TCU SCT020
LIBP,TAF LIBP 140500Z 1406/1506 23005KT CAVOK BECMG 1409/1411 35010KT BECMG 1415/1417 23005KT TEMPO 1421/1506 3000 BR
LIBR,TAF LIBR 140500Z 1406/1506 35011KT 8000 FEW010 BKN040 TEMPO 1406/1409 4000 RA TEMPO 1410/1416 35015G25KT
LIBV,TAF LIBV 140500Z 1406/1415 36012KT 6000 SCT010 BKN020 TEMPO 1406/1409 5000 RA BR SCT006 BKN010 TEMPO 1409/1412 36015G25KT 4000 TSRA SCT010 FEW012CB BKN015
LICA,TAF LICA 140500Z 1406/1506 25010KT 9999 SCT020 TEMPO 1412/1418 SHRA
LICB,TAF LICB 140500Z 1406/1506 28007KT 9999 SCT030
LICC,TAF LICC 140500Z 1406/1506 26016KT 9999 SCT030 BECMG 1409/1412 08010KT BECMG 1417/1419 VRB05KT
LICD,TAF LICD 140500Z 1406/1506 34013KT 9999 SCT020 TEMPO 1414/1420 35018G30KT
LICG,TAF LICG 140500Z 1406/1415 35015KT 7000 BKN018 BECMG 1410/1412 35020G30KT
LICJ,TAF LICJ 140500Z 1406/1506 30015KT 9999 BKN020 TEMPO 1406/1420 RA
LICR,TAF LICR 140500Z 1406/1506 35014KT 9999 SCT030 TEMPO 1406/1409 TSRA
LICT,TAF LICT 140500Z 1406/1415 33015KT 9999 BKN025
LICZ,TAF LICZ 140500Z 1406/1506 27016KT 9999 SCT020 SCT050 BECMG 1409/1411 35020G30KT BECMG 1419/1421 27015KT
LIEA,TAF LIEA 140500Z 1406/1506 VRB05KT 9999 SCT025 BECMG 1409/1411 32015KT BECMG 1418/1420 VRB05KT
LIED,TAF LIED 140500Z 1406/1415 33003KT 9999 SCT025 SCT050 TEMPO 1406/1409 RA SCT003 BECMG 1407/1409 33013KT TEMPO 1411/1415 33016G26KT
LIEE,TAF LIEE 140500Z 1406/1506 33010KT 9999 SCT030 TEMPO 1410/1416 34018G28KT
LIEO,TAF LIEO 140500Z 1406/1506 23010KT 9999 SCT030 BECMG 1408/1410 29016KT BECMG 1417/1419 VRB05KT
LIMC,TAF LIMC 140500Z 1406/1512 VRB05KT CAVOK TEMPO 1406/1408 2500 BCFG TEMPO 1500/1506 4000 BCFG
LIME,TAF LIME 140500Z 1406/1506 VRB05KT CAVOK
LIMF,TAF LIMF 140500Z 1406/1506 VRB05KT CAVOK
LIMG,TAF LIMG 131100Z 1312/1412 VRB05KT CAVOK
LIMJ,TAF LIMJ 140500Z 1406/1506 VRB05KT CAVOK
LIML,TAF LIML 140500Z 1406/1506 VRB05KT CAVOK TEMPO 1406/1408 1500 BCFG
LIMN,TAF LIMN 140500Z 1406/1415 VRB03KT 1500 BR NSC TEMPO 1406/1409 0500 FG BECMG 1409/1411 5000 BR
LIMP,TAF LIMP 140500Z 1406/1506 VRB05KT CAVOK TEMPO 1406/1408 4000 BR
LIMW,TAF LIMW 140500Z 1406/1415 VRB05KT CAVOK
LIMZ,TAF LIMZ 140500Z 1406/1506 VRB05KT CAVOK
LIPA,TAF LIPA 140500Z 1406/1415 VRB03KT 9999 SCT080
LIPB,TAF LIPB 140500Z 1406/1506 VRB05KT 9999 SCT080
LIPC,TAF LIPC 140500Z 1406/1415 30005KT CAVOK TEMPO 1406/1408 5000 BR
LIPE,TAF LIPE 140500Z 1406/1506 VRB05KT CAVOK
LIPH,TAF LIPH 140500Z 1406/1506 VRB03KT CAVOK
LIPI,TAF LIPI 140500Z 1406/1415 33005KT 9999 SCT060
LIPK,TAF LIPK 140500Z 1406/1506 VRB05KT CAVOK
LIPL,TAF COR LIPL 140500Z 1406/1415 15005KT 3000 BR SCT030 BECMG 1407/1409 5000 BR BECMG 1409/1411 8000 NSW
LIPO,TAF LIPO 140500Z 1406/1506 VRB05KT CAVOK
LIPQ,TAF LIPQ 140500Z 1406/1506 03005KT CAVOK
LIPR,TAF LIPR 140500Z 1406/1506 23005KT CAVOK BECMG 1408/1410 32011KT BECMG 1415/1417 24006KT
LIPS,TAF LIPS 140500Z 1406/1415 VRB03KT 5000 BR SCT080 BECMG 1409/1411 8000
LIPX,TAF LIPX 140500Z 1406/1506 VRB05KT CAVOK
LIPY,TAF LIPY 140500Z 1406/1506 VRB04KT CAVOK BECMG 1407/1409 33010KT BECMG 1415/1417 23006KT TEMPO 1423/1504 4000 BR
LIPZ,TAF LIPZ 140500Z 1406/1512 VRB05KT CAVOK
LIQW,TAF LIQW 140500Z 1406/1415 31005KT 9999 BKN050
LIRA,TAF LIRA 140500Z 1406/1506 VRB05KT 9999 SCT040 BECMG 1409/1411 34012KT BECMG 1416/1418 VRB05KT
LIRE,TAF LIRE 140500Z 1406/1415 01008KT CAVOK BECMG 1410/1412 30013KT
LIRF,TAF LIRF 140500Z 1406/1512 02007KT CAVOK BECMG 1409/1411 29015KT BECMG 1416/1418 VRB05KT BECMG 1509/1511 24010KT
LIRG,TAF LIRG 140500Z 1406/1415 VRB02KT CAVOK BECMG 1411/1413 33006KT
LIRH,TAF LIRH 140500Z 1406/1415 VRB02KT CAVOK TEMPO 1406/1408 0100 FG BKN000 TEMPO 1407/1409 3000 BR SCT003 PROB30 TEMPO 1412/1415 9999 RA SCT030
LIRL,TAF LIRL 140500Z 1406/1415 VRB03KT CAVOK
LIRM,TAF LIRM 140500Z 1406/1415 VRB05KT CAVOK BECMG 1412/1414 27009KT
LIRN,TAF LIRN 140500Z 1406/1506 05008KT 9999 SCT040
LIRP,TAF LIRP 140500Z 1406/1506 12008KT 9999 SCT030
LIRQ,TAF LIRQ 140500Z 1406/1506 VRB05KT 9999 SCT070
LIRS,TAF LIRS 140500Z 1406/1415 03005KT CAVOK TEMPO 1409/1412 9999 FEW030 SCT070 BECMG 1412/1414 30010KT
LIRV,TAF LIRV 140500Z 1406/1415 04008KT CAVOK BECMG 1411/1413 33005KT
LIRZ,TAF LIRZ 140500Z 1406/1506 03006KT 9999 FEW040
LJCE,TAF LJCE 140500Z 1406/1415 08003KT 0100 FG VV001 BECMG 1408/1409 3000 BR BKN003 BECMG 1409/1410 9999 NSW FEW025
LJLJ,TAF LJLJ 140500Z 1406/1506 VRB02KT 7000 FEW003 TEMPO 1406/1408 0350 FG VV001 PROB40 1502/1506 0350 FG VV001
LJMB,TAF LJMB 140500Z 1406/1506 VRB02KT 0150 FG VV001 BECMG 1407/1408 3000 BR BKN003 BECMG 1408/1409 9999 NSW SCT015 PROB40 1502/1506 0300 FG VV001
LJPZ,TAF LJPZ 140500Z 1406/1415 12005KT CAVOK
LKKB,TAF LKKB 132300Z 1400/1500 16005KT 9999 BKN030 TEMPO 1400/1409 3000 RA BR SCT010 BKN020 PROB30 TEMPO 1400/1408 1200 RA BR BKN008 BECMG 1413/1415 18008KT CAVOK
LKKV,TAF LKKV 140500Z 1406/1512 20006KT 9999 BKN030 TEMPO 1406/1409 3000 -RA BR BKN007 TEMPO 1410/1419 SCT023 BECMG 1419/1421 17011KT 3000 -RA BR BKN005
LKMT,TAF LKMT 140500Z 1406/1512 22003KT 4000 BR BKN023 PROB40 TEMPO 1406/1408 1500 BCFG BKN005 BECMG 1408/1410 23012KT 9999 BKN030 TEMPO 1410/1416 9000 -SHRA SCT020 BECMG 1416/1418 CAVOK TEMPO 1509/1512 8000 -RA BKN023
LKNA,TAF LKNA 132300Z 1400/1500 12002KT 5000 BR OVC007 PROB40 1400/1406 0600 FG VV002 TEMPO 1406/1409 3000 RA BR SCT006 OVC008 TEMPO 1412/1415 7000 BKN015
LKPD,TAF LKPD 132300Z 1400/1500 VRB02KT 9999 BKN030 PROB40 TEMPO 1400/1409 6000 RA SCT012 BKN020 PROB30 TEMPO 1400/1407 3000 BR BKN010 BECMG 1415/1417 12006KT BKN035
LKPR,TAF LKPR 140500Z 1406/1512 22008KT 9999 BKN035 TEMPO 1406/1408 7000 -RA SCT013 BKN025 BECMG 1415/1417 CAVOK TEMPO 1500/1512 5000 -RA BR BKN015
LKTB,TAF LKTB 140500Z 1406/1512 VRB02KT 9999 BKN023 TEMPO 1406/1412 4000 -RA BR BKN007 TEMPO 1412/1418 SCT030 BECMG 1418/1420 7000 BKN013 PROB30 TEMPO 1502/1512 2000 -RADZ BR BKN003
LLBG,TAF LLBG 140504Z 1406/1506 VRB03KT 9999 SCT035 BECMG 1407/1409 28010KT SCT040 BECMG 1415/1417 VRB03KT SCT035 TEMPO 1420/1506 15005KT BKN030 TX27/1411Z TN21/1504Z
LLER,TAF LLER 140503Z 1406/1506 01010KT CAVOK PROB40 TEMPO 1408/1415 01016KT PROB40 TEMPO 1415/1419 32015KT TX31/1413Z TN20/1504Z
LLHA,TAF LLHA 140516Z 1406/1506 14005KT 9999 SCT035 PROB40 TEMPO 1406/1407 VRB04KT -RA BKN030 BECMG 1407/1409 29010KT PROB40 TEMPO 1409/1415 -RA BKN030 BECMG 1415/1417 VRB04KT PROB40 TEMPO 1417/1506 16005KT -RA BKN030 TX27/1410Z TN19/1504Z
LLHZ,TAF LLHZ 140515Z 1406/1506 VRB03KT 9999 SCT035 TEMPO 1406/1407 15004KT -RA BKN030 BECMG 1407/1409 28010KT PROB40 TEMPO 1409/1415 -RA BKN030 BECMG 1415/1417 VRB03KT PROB40 TEMPO 1417/1506 15005KT -RA BKN030 TX27/1411Z TN20/1504Z
LLIB,TAF LLIB 140518Z 1406/1506 18006KT 9999 SCT035 BECMG 1411/1413 30010KT FEW045 BECMG 1416/1418 VRB03KT SCT030 PROB30 TEMPO 1500/1506 8000 -RA SCT015 BKN020 TX27/1412Z TN15/1504Z
LMML,TAF LMML 140500Z 1406/1506 32020G30KT 9999 FEW023 BECMG 1418/1421 31012KT
LOWG,TAF LOWG 140515Z 1406/1506 VRB04KT 0100 FG VV001 TX17/1413Z TN08/1406Z PROB40 1407/1409 3000 BKN006 BECMG 1407/1409 9999 FEW040 BECMG 1418/1421 1200 BCFG TEMPO 1421/1506 0400 FG PROB40 1421/1506 0100 FG VV001 TEMPO 1505/1506 -RA
LOWI,TAF LOWI 140515Z 1406/1506 28005KT 9999 BKN060 TX17/1414Z TN11/1406Z PROB30 TEMPO 1406/1407 -RA BKN009 TEMPO 1414/1420 -SHRA BECMG 1420/1422 -RA TEMPO 1421/1506 4000 RA BKN009
LOWK,TAF LOWK 140515Z 1406/1506 VRB04KT 9999 FEW050 TX16/1414Z TN08/1406Z TEMPO 1406/1409 BKN006 PROB30 1406/1407 3000 BKN004 PROB30 1502/1506 1200 BCFG TEMPO 1504/1506 -RA
LOWL,TAF LOWL 140515Z 1406/1506 VRB03KT 9999 SCT020 TX17/1414Z TN10/1406Z TEMPO 1406/1408 -SHRA TEMPO 1502/1506 -RA
LOWS,TAF LOWS 140515Z 1406/1506 15004KT 9999 BKN050 TX17/1414Z TN10/1406Z TEMPO 1406/1408 -RA BECMG 1408/1410 03006KT BECMG 1416/1418 15006KT TEMPO 1418/1506 -RA PROB40 TEMPO 1500/1506 4000 RA BKN009
LOWW,TAF LOWW 140515Z 1406/1512 17004KT 8000 SCT025 TX17/1413Z TN08/1406Z TEMPO 1406/1409 2000 BCFG SCT002 BKN014 PROB30 TEMPO 1407/1410 SHRA PROB30 TEMPO 1414/1416 SHRA BECMG 1505/1508 15012KT
LOXA,TAF LOXA 140515Z 1406/1415 VRB03KT 9999 FEW020 BKN050 TEMPO 1406/1410 -SHRA SCT020 BKN040 BECMG 1410/1412 FEW025 SCT050
LOXN,TAF LOXN 140515Z 1406/1415 VRB03KT 5000 BR BKN040 TEMPO 1406/1408 0100 FG VV001 TEMPO 1406/1413 -SRHA SCT020 BKN040 BECMG 1413/1415 16006KT 9000 SCT060
LOXT,TAF LOXT 140515Z 1406/1415 24005KT 5000 BR SCT040 BKN060 TEMPO 1406/14008 0400 FG VV002 TEMPO 1406/1412 -SHRA SCT020 BKN040 BECMG 1412/1414 06006KT 9000 SCT060
LOXZ,TAF LOXZ 140515Z 1406/1415 VRB03KT 0400 FG VV004 BECMG 1407/1409 9999 FEW014 BKN050 TEMPO 1410/1415 -SHRA
LPAZ,TAF LPAZ 140500Z 1406/1512 20008KT 9999 FEW025 TEMPO 1406/1424 FEW020 BKN035 BECMG 1411/1414 27008KT BECMG 1500/1503 25013KT SCT006 BKN012 TEMPO 1503/1508 2000 -RADZ BR SCT002 BKN004 BECMG 1508/1510 04012KT
LPBJ,TAF LPBJ 140503Z 1406/1506 VRB02KT CAVOK TEMPO 1418/1421 33010KT
LPFR,TAF LPFR 140500Z 1406/1506 02005KT CAVOK BECMG 1409/1411 12008KT BECMG 1414/1416 26008KT BECMG 1417/1419 32008KT BECMG 1420/1422 VRB02KT BECMG 1500/1502 06005KT
LPLA,TAF LPLA 140503Z 1406/1506 28010KT 9999 FEW020 SCT030 BECMG 1414/1416 35012KT TEMPO 1415/1502 5000 -RADZ BR BKN015 SCT025 FEW030CB
LPMA,TAF LPMA 140500Z 1406/1506 01013KT 9999 SCT015 TEMPO 1406/1506 01015G25KT BKN015
LPMR,TAF LPMR 140503Z 1406/1506 VRB02KT 5000 BR OVC006 PROB40 1406/1409 0200 FG BKN001 BECMG 1409/1412 34010KT 9999 NSW FEW018 PROB40 1415/1420 5000 BR BKN007 PROB40 1420/1506 0200 FG OVC001
LPMT,TAF LPMT 140503Z 1406/1506 34008KT 9999 FEW012 PROB30 1406/1408 36005KT 5000 BR BKN007 PROB40 1422/1506 1500 BR BKN003
LPOV,TAF LPOV 131704Z 1318/1418 34005KT 9999 BKN015 PROB40 1321/1408 0200 FG BKN002 BECMG 1309/1312 34010KT 9999 FEW018
LPPD,TAF LPPD 140500Z 1406/1506 22007KT 9999 FEW025 TEMPO 1406/1419 FEW020 BKN035 BECMG 1409/1412 25013KT BECMG 1419/1422 SCT006 BKN012 TEMPO 1422/1506 2000 -RADZ BR SCT002 BKN004 BECMG 1502/1504 02015KT
LPPR,TAF LPPR 140500Z 1406/1506 VRB02KT 6000 SCT004 BKN030 TEMPO 1406/1408 3000 BCFG BR BKN002 BECMG 1408/1411 31010KT 9999 BKN020 PROB30 TEMPO 1412/1419 5000 BR BKN008 BECMG 1419/1421 VRB02KT 3000 BCFG BR SCT002 BKN004 PROB40 1421/1506 0200 FG VV001
LPPS,TAF LPPS 140500Z 1406/1512 04008KT 9999 SCT015 TEMPO 1406/1512 SCT012 BKN030 BECMG 1406/1408 03013KT BECMG 1421/1423 03008KT BECMG 1507/1509 06008KT
LPPT,TAF LPPT 140500Z 1406/1512 34007KT 9999 FEW012 TEMPO 1406/1408 BKN008 BECMG 1408/1411 VRB05KT CAVOK BECMG 1413/1415 32012KT BECMG 1420/1422 34007KT 9999 SCT008 TEMPO 1422/1508 BKN004 PROB40 TEMPO 1502/1508 2000 BR BKN003 BECMG 1509/1511 FEW020
LQBK,TAF LQBK 140500Z 1406/1506 03005KT 3000 BR BKN010 TX19/1413Z TN10/1504Z PROB30 1406/1409 0600 FG BKN001 BECMG 1409/1411 7000 NSW SCT020 BECMG 1419/1421 3000 BR PROB40 1500/1506 0200 FG BKN002
LQMO,TAF LQMO 140500Z 1406/1506 33007KT 9999 SCT050 TX25/1413Z TN09/1504Z TEMPO 1406/1424 03012KT
LQSA,TAF LQSA 140500Z 1406/1506 30004KT 9999 SCT050 TX18/1414Z TN06/1504Z TEMPO 1406/1409 1200 BCFG BKN005 PROB30 1406/1408 0500 FG BKN002 PROB40 1503/1506 0500 FG BKN002
LQTZ,TAF LQTZ 140500Z 1406/1506 10006KT 2000 BR BKN007 OVC020 TX18/1413Z TN07/1504Z PROB40 1406/1408 0200 FG BKN001 BECMG 1409/1411 6000 NSW SCT012 BKN035 BECMG 1419/1421 1500 BR BKN005 OVC020 PROB40 1421/1506 0200 FG BKN001
LRAR,TAF LRAR 140500Z 1406/1415 VRB04KT CAVOK
LRBC,TAF LRBC 140500Z 1406/1415 15008KT 9999 BKN030
LRBM,TAF LRBM 140500Z 1406/1415 VRB04KT 3000 BR NSC PROB30 TEMPO 1406/1407 0600 FG OVC002 BECMG 1408/1409 9999 NSW
LRBO,TAF LRBO 140500Z 1406/1506 05010KT 9999 BKN060 TEMPO 1406/1408 4000 RA BR SCT015 BKN025 OVC040 BECMG 1414/1416 35008KT SCT090
LRBS,TAF LRBS 140500Z 1406/1506 06008KT CAVOK PROB40 TEMPO 1406/1410 BKN010
LRCK,TAF LRCK 140500Z 1406/1506 03012KT CAVOK
LRCL,TAF LRCL 140500Z 1406/1415 VRB04KT 3000 BR BKN005 PROB30 TEMPO 1406/1407 1500 BR OVC002 BECMG 1407/1409 9999 BKN015 BECMG 1410/1412 CAVOK
LRCT,TAF LRCT 140500Z 1406/1506 VRB03KT 0500 FG SCT003 SCT100 BECMG 1407/1409 15005KT 9999 SCT070 BECMG 1500/1502 VRB03KT 0500 FG SCT002
LRCV,TAF LRCV 140500Z 1406/1415 07010KT CAVOK
LRFT,TAF LRFT 140500Z 1406/1506 07012KT 9999 SCT050 BKN100 TEMPO 1408/1415 09010G20KT
LRIA,TAF LRIA 140500Z 1406/1415 10006KT 9999 BKN040
LROD,TAF LROD 140500Z 1406/1415 11006KT CAVOK
LROP,TAF LROP 140500Z 1406/1506 06008KT CAVOK TEMPO 1406/1410 BKN010
LRSB,TAF LRSB 140500Z 1406/1506 VRB04KT 5000 BR SCT050 PROB30 TEMPO 1406/1407 1500 BR BKN005 BECMG 1407/1408 CAVOK PROB30 TEMPO 1412/1415 SCT035CB
LRSM,TAF LRSM 140500Z 1406/1415 VRB04KT 0600 FG SCT001 BECMG 1406/1407 1500 BR BECMG 1407/1408 5000 BECMG 1408/1409 9999 NSW
LRSV,TAF LRSV 140500Z 1406/1415 15010KT 7000 BKN010 TEMPO 1406/1408 3000 BR OVC005 BECMG 1409/1411 BKN020
LRTC,TAF LRTC 140500Z 1406/1415 03008KT CAVOK
LRTM,TAF LRTM 140500Z 1406/1415 VRB04KT 1500 BR BKN005 TEMPO 1406/1407 0600 FG OVC002 BECMG 1407/1409 3000 BKN010 BECMG 1409/1411 CAVOK
LRTR,TAF LRTR 140500Z 1406/1506 10006KT 5000 BR NSC BECMG 1406/1408 9999 NSW TEMPO 1500/1506 3000 BR
LRTZ,TAF LRTZ 140500Z 1406/1506 07016KT 9999 BKN030
LSGC,TAF LSGC 140525Z 1406/1415 22010KT 9999 SCT010 BKN015 PROB30 TEMPO 1406/1415 SHRA BKN010
LSGG,TAF LSGG 140525Z 1406/1512 23008KT 9999 FEW030 BKN045 TX18/1415Z TN14/1406Z TN13/1505Z TEMPO 1413/1418 RA BECMG 1502/1504 CAVOK PROB30 TEMPO 1503/1509 3000 BCFG
LSGS,TAF LSGS 140525Z 1406/1415 VRB02KT 9999 SCT050 BKN100 PROB30 TEMPO 1406/1415 SHRA
LSZA,TAF LSZA 140525Z 1406/1415 VRB02KT 4500 BR FEW010 BECMG 1406/1407 9999
LSZB,TAF LSZB 140525Z 1406/1415 12004KT 9999 FEW025 BKN040 PROB30 TEMPO 1406/1411 SHRA
LSZC,TAF LSZC 140525Z 1406/1415 24003KT 9999 BKN045 BKN070 PROB30 1406/1408 4000 BR TEMPO 1406/1415 SHRA
LSZG,TAF LSZG 140525Z 1406/1415 05003KT 4000 BR BKN025 PROB30 TEMPO 1406/1408 BKN014 TEMPO 1406/1412 SHRA BECMG 1406/1409 9999 PROB40 TEMPO 1412/1415 SHRA
LSZH,TAF LSZH 140525Z 1406/1512 VRB02KT 9999 BKN050 TX16/1413Z TN11/1406Z TN13/1506Z PROB30 TEMPO 1406/1416 SHRA BECMG 1416/1418 RA BECMG 1421/1424 NSW PROB30 1504/1507 3000 MIFG FEW003
LSZL,TAF LSZL 140525Z 1406/1415 VRB02KT 7000 SCT030 TEMPO 1406/1408 4000 BR PROB30 TEMPO 1406/1408 1400 PRFG
LSZR,TAF LSZR 140525Z 1406/1415 VRB02KT 9999 BKN085 PROB30 TEMPO 1409/1414 SHRA
LSZS,TAF LSZS 140525Z 1406/1415 VRB02KT 9999 BKN005 OVC007 TX13/1415Z PROB40 1406/1408 4000 BR PROB30 1406/1408 1200 BCFG BECMG 1407/1410 SCT007 PROB40 TEMPO 1410/1415 22010KT SHRA
LTAB,TAF LTAB 140440Z 1406/1415 VRB02KT CAVOK BECMG 1408/1410 SCT040 SCT100
LTAC,TAF LTAC 140440Z 1406/1506 03007KT 9999 SCT040 BKN180 PROB30 TEMPO 1418/1422 -SHRA BKN030 BKN080
LTAD,TAF LTAD 140440Z 1406/1415 12007KT CAVOK BECMG 1408/1412 FEW040 SCT100 BKN200
LTAE,TAF LTAE 140440Z 1406/1415 04005KT CAVOK BECMG 1409/1411 FEW040 SCT100 BKN200
LTAF,TAF LTAF 140440Z 1406/1506 VRB02KT CAVOK BECMG 1406/1408 SCT035 BECMG 1411/1413 20012KT PROB30 TEMPO 1412/1416 -TSRA FEW020CB SCT030 BECMG 1416/1418 VRB02KT CAVOK BECMG 1421/1423 SCT030 PROB30 TEMPO 1423/1503 -TSRA FEW020CB SCT030
LTAG,TAF LTAG 140440Z 1406/1506 VRB02KT CAVOK BECMG 1406/1408 SCT035 BECMG 1411/1413 20012KT PROB30 TEMPO 1412/1416 -TSRA FEW020CB SCT030 BECMG 1416/1418 VRB02KT CAVOK BECMG 1421/1423 SCT030 PROB40 TEMPO 1423/1503 -TSRA FEW020CB SCT030
LTAH,TAF LTAH 140440Z 1406/1415 12006KT CAVOK BECMG 1407/1410 SCT040 SCT100 TEMPO 1412/1415 BKN035
LTAI,TAF LTAI 140440Z 1406/1506 34005KT CAVOK BECMG 1406/1409 16010KT SCT030 TEMPO 1411/1415 FEW020CB BKN030 BECMG 1415/1418 34005KT BECMG 1418/1420 -SHRA BKN030 BKN100 PROB30 TEMPO 1420/1424 -TSRA FEW020CB BKN030
LTAJ,TAF LTAJ 140440Z 1406/1506 VRB02KT CAVOK TEMPO 1406/1409 03012KT BECMG 1407/1409 FEW040 SCT100 BECMG 1416/1418 CAVOK BECMG 1421/1423 SCT040 BKN100
LTAL,TAF LTAL 140440Z 1406/1415 04008KT 0800 FG BKN004 BECMG 1406/1407 2000 BCFG SCT010 SCT027 BKN090 BECMG 1407/1409 9999 NSW PROB30 TEMPO 1412/1415 -SHRA
LTAN,TAF LTAN 140440Z 1406/1415 16007KT 9999 SCT040 SCT100
LTAO,TAF LTAO 140440Z 1406/1415 VRB02KT 9999 SCT040 BKN100
LTAP,TAF LTAP 140440Z 1406/1506 VRB02KT 9999 FEW040 BKN200 BECMG 1411/1414 03015KT
LTAR,TAF LTAR 140440Z 1406/1415 VRB02KT 1100 BCFG FEW002 BKN020 BECMG 1406/1408 9999 NSW SCT035
LTAS,TAF LTAS 140440Z 1406/1415 VRB02KT 2000 BR BKN010 TEMPO 1406/1408 0500 FG BKN002 BECMG 1408/1410 8000 SCT035 BKN100
LTAT,TAF LTAT 140440Z 1406/1506 VRB02KT 9999 SCT040 BKN100
LTAU,TAF LTAU 140440Z 1406/1506 VRB02KT CAVOK BECMG 1406/1409 FEW040 SCT100 BKN180 PROB40 TEMPO 1502/1506 -SHRA BKN035 BKN090
LTAV,TAF LTAV 140440Z 1406/1415 12006KT CAVOK BECMG 1407/1410 SCT040 SCT100 TEMPO 1412/1415 BKN035
LTAW,TAF LTAW 140440Z 1406/1415 VRB02KT 9999 SCT040 BKN180
LTAY,TAF LTAY 140440Z 1406/1415 VRB02KT CAVOK BECMG 1410/1414 28013KT SCT030 BKN100
LTAZ,TAF LTAZ 140440Z 1406/1506 VRB02KT CAVOK BECMG 1406/1409 FEW040 SCT100 BKN180 PROB40 TEMPO 1501/1505 -SHRA BKN035 BKN090
LTBA,TAF LTBA 140440Z 1406/1506 05010KT CAVOK BECMG 1406/1409 05020KT SCT035 BKN100 BECMG 1414/1417 05017G27KT BKN032 BKN080 BECMG 1419/1422 -SHRA
LTBD,TAF LTBD 140440Z 1406/1415 VRB02KT 4000 BR NSC BECMG 1406/1409 9999 NSW SCT030 BKN100 TEMPO 1411/1415 27013KT
LTBF,TAF LTBF 140440Z 1406/1415 VRB02KT 9999 SCT035 BKN200 BECMG 1408/1410 01012KT PROB30 TEMPO 1413/1415 -SHRA
LTBG,TAF LTBG 140440Z 1406/1415 05018KT 9999 SCT035 BKN200 BECMG 1413/1415 FEW010 BKN030 BKN100 PROB30 TEMPO 1413/1415 -SHRA
LTBH,TAF LTBH 140440Z 1406/1415 07018KT 9999 SCT035 BKN200 BECMG 1412/1415 FEW010 BKN030 BKN100 PROB30 TEMPO 1413/1415 -SHRA
LTBI,TAF LTBI 140440Z 1406/1415 10006KT CAVOK BECMG 1407/1410 SCT040 SCT100 TEMPO 1411/1415 BKN035
LTBJ,TAF LTBJ 140440Z 1406/1506 VRB02KT 9999 SCT030 BKN100 TEMPO 1412/1415 35012KT TEMPO 1418/1422 -SHRA PROB30 TEMPO 1502/1506 5000 BR
LTBK,TAF LTBK 140440Z 1406/1415 VRB02KT 9999 SCT030 BKN100 TEMPO 1412/1415 33012KT
LTBL,TAF LTBL 140440Z 1406/1415 VRB02KT 9999 FEW035 SCT100 BKN200 PROB30 TEMPO 1413/1415 -SHRA BKN030 BKN090
LTBN,TAF LTBN 140440Z 1406/1415 VRB02KT CAVOK BECMG 1407/1410 SCT040 SCT100 TEMPO 1411/1415 -SHRA BKN035
LTBO,TAF LTBO 140440Z 1406/1415 VRB02KT CAVOK BECMG 1410/1413 SCT030 BKN100
LTBP,TAF LTBP 140440Z 1406/1415 06007KT 9999 SCT025 BKN080 BECMG 1406/1410 06017KT
LTBQ,TAF LTBQ 140440Z 1406/1415 VRB02KT 9999 FEW015 BKN028 BKN090 BECMG 1406/1409 05012KT SCT030 BKN090 PROB30 1413/1415 -SHRA SCT015 BKN025 BKN080
LTBR,TAF LTBR 140440Z 1406/1506 VRB02KT 9999 SCT035 BKN100 BECMG 1406/1410 04015KT BKN030 BKN090 PROB30 TEMPO 1415/1419 -SHRA BECMG 1416/1419 VRB02KT TEMPO 1420/1424 -SHRA BKN025 BKN080 PROB40 TEMPO 1502/1506 3500 -SHRA BR
LTBS,TAF LTBS 140440Z 1406/1506 VRB02KT CAVOK BECMG 1406/1408 21012KT FEW030 BKN120 BECMG 1416/1418 VRB02KT
LTBT,TAF LTBT 140440Z 1406/1415 VRB02KT 9999 FEW035 SCT100 BKN200 PROB30 TEMPO 1412/1415 -SHRA BKN030 BKN090
LTBU,TAF LTBU 140440Z 1406/1506 03012KT 9999 SCT030 BKN090 BECMG 1406/1409 05022KT BECMG 1414/1417 05017G27KT BKN032 BKN080 BECMG 1420/1423 -SHRA
LTBV,TAF LTBV 140440Z 1406/1415 VRB02KT CAVOK BECMG 1408/1411 25013KT FEW035 SCT100 BKN200 BECMG 1414/1415 VRB02KT
LTBX,TAF LTBX 140440Z 1406/1415 04017KT 9999 SCT025 BKN090 TEMPO 1409/1413 03017G27KT
LTBY,TAF LTBY 140440Z 1406/1415 10006KT CAVOK BECMG 1407/1410 SCT040 SCT100 TEMPO 1411/1415 BKN035
LTBZ,TAF LTBZ 140440Z 1406/1415 VRB02KT CAVOK BECMG 1407/1410 SCT040 SCT100 TEMPO 1411/1415 -SHRA BKN035
LTCA,TAF LTCA 140440Z 1406/1415 VRB02KT 9999 SCT035 BKN100
LTCB,TAF LTCB 140440Z 1406/1415 VRB02KT 9999 BKN035 TEMPO 1406/1410 -SHRA SCT015 BKN028
LTCC,TAF LTCC 140440Z 1406/1506 06010KT 9999 FEW040 BKN100 BECMG 1406/1408 CAVOK BECMG 1410/1412 12007KT FEW040 BKN100
LTCD,TAF LTCD 140440Z 1406/1415 VRB02KT 9999 SCT090 BKN170
LTCE,TAF LTCE 140440Z 1406/1506 VRB02KT 9999 SCT035 BKN080 TEMPO 1410/1414 25012KT -SHRA FEW025CB BKN035 TEMPO 1418/1421 -SHRA
LTCF,TAF LTCF 140440Z 1406/1415 VRB02KT 0700 FG VV002 BECMG 1406/1407 4000 BR SCT040 BECMG 1407/1408 9999 NSW BECMG 1408/1410 BKN035 BKN070 TEMPO 1411/1415 27012KT -TSRA FEW025CB BKN035
LTCG,TAF LTCG 140440Z 1406/1506 VRB02KT 9999 SCT035 BKN100 TEMPO 1406/1410 -SHRA SCT015 BKN028 TEMPO 1410/1414 -SHRA SCT015 BKN028
LTCI,TAF LTCI 140440Z 1406/1415 04008KT 9999 SCT035 BKN080 BECMG 1406/1408 32010KT TEMPO 1406/1410 -TSRA FEW020CB BKN030 PROB40 TEMPO 1410/1414 -TSRA FEW020CB BKN030
LTCJ,TAF LTCJ 140440Z 1406/1506 VRB02KT 9999 FEW040 SCT100 BECMG 1409/1411 19012KT BECMG 1416/1418 VRB02KT CAVOK
LTCK,TAF LTCK 140440Z 1406/1415 09009KT 9999 SCT040 BKN070 TEMPO 1406/1410 27012G22KT -TSRA FEW020CB BKN030 PROB40 TEMPO 1410/1414 27012G22KT -TSRA FEW020CB BKN030
LTCL,TAF LTCL 140440Z 1406/1415 21010KT 9999 SCT040 BKN100 PROB40 TEMPO 1410/1414 -TSRA FEW025CB BKN100
LTCM,TAF LTCM 140440Z 1406/1415 VRB02KT 9999 SCT030 BKN090 BKN180 BECMG 1408/1412 09012KT
LTCN,TAF LTCN 140440Z 1406/1415 VRB02KT 9999 FEW040 SCT200 BECMG 1411/1413 30013KT
LTCO,TAF LTCO 140440Z 1406/1415 VRB02KT 9999 SCT035 BKN070 TEMPO 1406/1409 -SHRA BECMG 1408/1410 23012KT TEMPO 1410/1413 -SHRA BECMG 1413/1415 VRB02KT
LTCP,TAF LTCP 140440Z 1406/1415 VRB02KT 9999 FEW040 SCT100
LTCR,TAF LTCR 140440Z 1406/1415 18008KT 9999 FEW040 BKN100
LTCS,TAF LTCS 140440Z 1406/1506 23012KT CAVOK BECMG 1409/1411 FEW040 BKN100 BECMG 1416/1418 VRB02KT CAVOK
LTCT,TAF LTCT 140440Z 1406/1415 VRB02KT 9999 SCT040 BKN100 TEMPO 1406/1410 -SHRA PROB40 TEMPO 1410/1414 29012KT -TSRA FEW025CB BKN035
LTCU,TAF LTCU 140440Z 1406/1415 VRB02KT 9999 SCT035 BKN100 TEMPO 1409/1412 23012G22KT
LTCV,TAF LTCV 140440Z 1406/1506 VRB02KT 9999 FEW040 BKN100 BECMG 1409/1411 20013KT BECMG 1413/1415 07007KT BECMG 1417/1419 CAVOK
LTCW,TAF LTCW 140440Z 1406/1415 08008KT 9999 SCT030 BKN080 BECMG 1406/1408 20012KT TEMPO 1406/1410 -TSRA FEW020CB BKN030 PROB40 TEMPO 1410/1414 -TSRA FEW020CB BKN030
LTDA,TAF LTDA 140440Z 1406/1415 VRB02KT 9999 FEW040 BECMG 1408/1411 24013KT
LTFA,TAF LTFA 140440Z 1406/1415 VRB02KT 9999 FEW035 SCT100 BKN200 PROB30 TEMPO 1413/1415 -SHRA BKN030 BKN090
LTFB,TAF LTFB 140440Z 1406/1415 VRB02KT 4000 BR NSC BECMG 1406/1409 9999 NSW SCT030 BKN100 TEMPO 1411/1415 25013KT
LTFC,TAF LTFC 140440Z 1406/1506 03006KT 9999 SCT030 BECMG 1407/1410 18012KT BECMG 1410/1413 BKN030 BKN100 PROB30 TEMPO 1414/1418 -SHRA FEW020CB BKN030 BECMG 1417/1419 03006KT
LTFD,TAF LTFD 140440Z 1406/1415 08015KT 9999 SCT035 BKN200 TEMPO 1411/1415 -SHRA
LTFE,TAF LTFE 140440Z 1406/1506 VRB02KT CAVOK BECMG 1408/1411 25013KT FEW035 SCT100 BKN200 BECMG 1414/1417 VRB02KT
LTFG,TAF LTFG 140440Z 1406/1415 11005KT 9999 SCT030 BECMG 1406/1409 24010KT BECMG 1412/1415 BKN030
LTFH,TAF LTFH 140440Z 1406/1415 VRB02KT 9999 SCT036 BKN100
LTFJ,TAF LTFJ 140440Z 1406/1506 03017KT 9999 SCT025 BKN090 TEMPO 1409/1413 03017G27KT BECMG 1416/1420 -SHRA SCT010 BKN025 BKN080 TEMPO 1418/1422 03017G27KT
LTFK,TAF LTFK 140440Z 1406/1415 03018KT 9999 SCT035 BKN200 BECMG 1412/1415 FEW010 BKN025 BKN090 PROB30 TEMPO 1412/1415 -SHRA
LTFM,TAF LTFM 140440Z 1406/1512 06017KT 9999 SCT030 BKN100 BECMG 1406/1408 06020G30KT BECMG 1413/1416 BKN022 BKN080 PROB30 TEMPO 1416/1420 -SHRA BECMG 1422/1501 -SHRA PROB40 TEMPO 1502/1506 4000 SHRA TEMPO 1506/1510 3200 SHRA
LTFO,TAF LTFO 140440Z 1406/1415 VRB02KT 9999 SCT035 BKN100 TEMPO 1406/1409 SCT015 BKN028 TEMPO 1409/1413 -SHRA SCT015 BKN028
LUKK,TAF LUKK 140520Z 1406/1506 VRB04KT 9999 BKN040 BECMG 1407/1409 11006KT
LWOH,TAF LWOH 140530Z 1406/1506 VRB02KT 9999 SCT020 OVC040 TEMPO 1406/1412 RA SCT010 OVC030
LWSK,TAF LWSK 140530Z 1406/1506 VRB02KT 9999 SCT020 OVC040 TEMPO 1406/1414 RA SCT010 OVC030
LXGB,TAF LXGB 140435Z 1406/1415 05008KT 9999 FEW010 PROB30 TEMPO 1406/1409 SCT010 PROB30 TEMPO 1409/1415 08012G22KT 520002
LYBE,TAF LYBE 140500Z 1406/1506 11008KT CAVOK TX20/1413Z TN10/1504Z
LYBT,TAF LYBT 140500Z 1406/1506 04005KT CAVOK TX19/1413Z TN09/1505Z PROB30 1406/1407 3000 BR TEMPO 1410/1416 10010KT
LYKV,TAF COR LYKV 140500Z 1406/1506 06006KT 9999 SCT050 TX19/1413Z TN07/1505Z TEMPO 1406/1408 3000 BR TEMPO 1503/1506 2000 BR
LYNI,TAF LYNI 140500Z 1406/1506 11006KT CAVOK TX20/1413Z TN09/1504Z
LYPG,TAF LYPG 140500Z 1406/1506 36005KT 6000 SCT040 SCT080 TX22/1413Z TN10/1505Z TEMPO 1406/1407 2000 BR PROB30 TEMPO 1408/1416 SHRA FEW030TCU SCT040 BKN070 BECMG 1417/1420 4000 BR TEMPO 1420/1506 2000 PROB30 1420/1506 0800 FG
LYTV,TAF LYTV 140500Z 1406/1506 28005KT 9999 FEW050 TX22/1413Z TN10/1504Z PROB30 TEMPO 1409/1416 SHRA FEW030TCU SCT040
LYVR,TAF LYVR 140500Z 1406/1506 13005KT CAVOK TX20/1413Z TN11/1504Z BECMG 1407/1409 13015G25KT
LZIB,TAF LZIB 140515Z 1406/1506 12004KT 9999 BKN030 PROB30 TEMPO 1406/1407 VRB02KT 2500 BR BCFG FEW005 TEMPO 1409/1415 24008KT -SHRA FEW010 BKN020
LZKZ,TAF LZKZ 140515Z 1406/1506 01003KT 9999 SCT030 BECMG 1410/1412 18006KT
LZMC,TAF LZMC 140430Z 1406/1418 VRB04KT 7000 SCT015 BKN030 TEMPO 1406/1409 2000 BR BCFG MIFG PROB30 TEMPO 1406/1408 0800 FG VV002 TEMPO 1406/1410 SHRA BKN010 OVC020
LZPP,TAF LZPP 140515Z 1406/1415 20006KT 9999 BKN035 TEMPO 1406/1407 3000 BR TEMPO 1409/1413 -SHRA SCT010 BKN025
LZPW,TAF LZPW 140430Z 1406/1418 VRB04KT 0200 FG OVC001 BECMG 1408/1410 18008KT 6000 FEW030 SCT100 BECMG 1412/1414 CAVOK
LZSL,TAF LZSL 140430Z 1406/1418 VRB03KT 6000 FEW005 SCT010 BKN035 BECMG 1406/1408 9999 BKN035 TEMPO 1412/1418 19006KT
LZTT,TAF LZTT 140515Z 1406/1506 21005KT 9999 BKN030 PROB40 TEMPO 1406/1407 2500 BR BCFG SCT003 TEMPO 1412/1418 21005KT -SHRA SCT005 BKN030 PROB40 TEMPO 1502/1506 2500 BR BCFG BKN003
LZZI,TAF LZZI 140515Z 1406/1415 27004KT 6000 BKN030 TEMPO 1406/1408 VRB02KT 3000 BR TEMPO 1410/1415 -SHRA SCT010 BKN025
MBGT,MBGT 140400Z 1406/1506 13010KT 9999 SCT018 SCT050 OVC200 TEMPO 1410/1412 9000 SHRA
MBPV,MBPV 140400Z 1406/1506 13010KT 9999 SCT018 SCT050 OVC200 TEMPO 1410/1412 9000 SHRA
MDBH,TAF COR MDBH 140400Z 1406/1506 00000KT 9999 FEW016CB SCT018 SCT300 BECMG 1413/1415 13010KT
MDCY,TAF MDCY 140400Z 1406/1506 06004KT 9999 SCT016 PROB30 1412/1418 8000-TSRA FEW016CB BKN017
MDJB,TAF MDJB 140400Z 1406/1506 00000KT 9999 FEW018 SCT300 BECMG 1413/1415 03005KT FM 141800 18010KT 9999 SCT020
MDLR,TAF COR MDLR 140400Z 1406/1506 00000KT 9999 FEW016 PROB40 1418/1500 7000 TSRA FEW016CB BKN016 BKN070 TEMPO 1409/1411 00000KT
MDPC,TAF COR MDPC 140400Z 1406/1506 08005KT 9999 SCT020 PROB30 1408/1414 8000-TSRA FEW016CB BKN018 SCT070
MDPP,TAF COR MDPP 140400Z 1406/1506 09010KT 9999 FEW018 BECMG 1403/1405 00000KT
MDSD,TAF COR MDSD 140400Z 1406/1506 08004KT 9999 SCT018 PROB30 1409/1415 8000-TSRA FEW016CB BKN018 SCT070 BECMG 1401/1406 04004KT
MDST,TAF COR MDST 140400Z 1406/1506 12008KT 9999 FEW024 SCT300 BECMG 1407/1409 00000KT TEMPO 1408/1411 3000 BR BKN010
MGGT,MGGT 140530Z 1406/1506 18006KT 9999 SCT016 TX26/1420Z TN16/1412Z TEMPO 1406/1412 5000 BR BKN014 BECMG 1414/1416 14006KT SCT018 BECMG 1418/1420 SCT020 TEMPO 1420/1504 8000 TSRA SCT020TCU FEW025CB BECMG 1501/1503 00000KT SCT016
MGMM,MGMM 140530Z 1406/1506 00000KT 9999 FEW016 TX34/1420Z TN23/1412Z BECMG 1414/1416 12006KT SCT018 BECMG 1418/1420 SCT020 TEMPO 1420/1503 TSRA SCT20TCU FEW025CB BECMG 1501/1503 00000KT SCT016
MGPB,MGPB 140530Z 1406/1506 00000KT 9999 FEW016 TX32/1420Z TN20/1412Z BECMG 1414/1416 30006KT FEW018 BECMG 1419/1421 04006KT SCT020 TEMPO 1420/1502 TSRA SCT020TCU FEW025CB BECMG 1500/1502 00000KT SCT016
MGSJ,MGSJ 140530Z 1406/1506 30004KT 9999 SCT016 TX33/1420Z TN20/1412Z TEMPO 1406/1407 DZRA SCT018 BECMG 1414/1416 25008KT FEW018 BECMG 1418/1420 SCT020 TEMPO 1420/1503 7000 TSRA SCT020TCU FEW025CB BECMG 1501/1503 00000KT SCT016
MHLC,TAF MHLC 140504Z 1406/1506 VRB05KT 9999 SCT028 TX31/1419Z TN23/1412Z TEMPO 1420/1502 7000 RA SCT030TCU SCT080
MHLM,TAF MHLM 140504Z 1406/1506 VRB05KT 9999 SCT028 TX32/1421Z TN23/1412Z BECMG 1418/1420 03012KT SCT030TCU TEMPO 1421/1502 8000 VCSH FM150200 VRB03KT 9999 SCT028
MHPR,TAF MHPR 140500Z 1406/1506 VRB05KT 9999 SCT046 TX31/1419Z TN21/1408Z FM141800 18010KT 7000 RA SCT048TCU FEW048CB FM150200 VRB05KT 9999 SCT046
MHRO,TAF MHRO 140504Z 1406/1506 09012KT 9999 FEW022 TX31/1421Z TN27/1412Z TEMPO 1410/1414 8000 VCSH SCT024TCU BECMG 1414/1416 VRB05KT BECMG 1500/1502 09014KT
MHTG,TAF MHTG 140504Z 1406/1506 VRB05KT 9999 SCT030 TX28/1421Z TN19/1412Z TEMPO 1421/1501 7000 RA SCT030TCU SCT080
MKJP,TAF MKJP 140515Z 1406/1506 36007KT 9999 FEW022CB BKN032 TEMPO 1406/1412 SHRA SCT018CB BKN030 BECMG 1414/1416 14020KT BECMG 1502/1504 36007KT FEW022
MKJS,TAF MKJS 140515Z 1406/1506 VRB04KT 9999 FEW020 FEW022CB SCT032 BECMG 1414/1416 04014KT TEMPO 1418/1424 4000 TSRA BKN018 SCT020CB BECMG 1501/1503 15004KT FEW022 SCT034
MMAA,TAF MMAA 140418Z 1406/1512 00000KT 5SM HZ SCT015 BKN100 BKN300 TX31/1420Z TN25/1412Z TEMPO 1410/1414 5SM -RA BKN015CB FM141800 23010KT 6SM HZ SCT020 BKN300 TEMPO 1422/1502 5SM TSRA BKN020CB
MMAN,TAF MMAN 140443Z 1406/1506 00000KT 6SM HZ SKC TEMPO 1412/1415 3SM HZ BKN015 FM142000 13010KT P6SM SCT030 TEMPO 1422/1502 6SM -RA SCT020CB FM150500 13005KT P6SM SKC
MMAS,TAF MMAS 140432Z 1406/1506 06005KT P6SM SKC FM141800 07010KT P6SM SCT020 SCT200 FM150200 06005KT P6SM SCT200
MMBT,TAF MMBT 140416Z 1406/1506 00000KT 5SM SCT020 SCT100 FM141600 18005KT P6SM SCT020 SCT100 TEMPO 1416/1420 BKN020 FM142100 30005KT P6SM SCT020 PROB40 1421/1501 5SM RA BKN020 FM150100 00000KT P6SM SCT020 SCT080
MMCB,TAF MMCB 140416Z 1406/1506 20005KT P6SM SCT020 BKN200 FM141800 18008KT P6SM SCT020 BKN200 FM150200 00000KT P6SM SCT020 BKN200
MMCE,TAF MMCE 140457Z 1406/1506 24005KT 3SM HZ BKN015 OVC080 TEMPO 1406/1410 3SM TSRA BKN015CB FM141000 23010KT 5SM RA BKN015 OVC080 TEMPO 1414/1418 3SM TSRA BKN015CB FM141800 23015KT 5SM RA BKN015CB OVC080 TEMPO 1420/1424 3SM TSRA
MMCL,TAF MMCL 140431Z 1406/1506 00000KT P6SM SKC FM142000 24010KT P6SM SKC FM150400 24005KT P6SM SKC
MMCM,TAF MMCM 140457Z 1406/1506 12005KT P6SM BKN020 BKN080 TEMPO 1406/1410 3SM RA FM141400 12010KT P6SM BKN020 PROB40 1414/1418 5SM RA FM142000 12010KT P6SM SCT020 BKN100 FM150200 12005KT P6SM SCT020 BKN080
MMCN,TAF MMCN 140519Z 1406/1506 24005KT P6SM SKC FM141800 24010KT P6SM SCT030 FM150400 24005KT P6SM BKN080
MMCP,TAF MMCP 140457Z 1406/1506 16005KT P6SM SCT015 BKN080 TEMPO 1406/1410 5SM RA FM141000 16005KT P6SM SCT015 BKN080 TEMPO 1412/1416 3SM SHRA FM141600 16010KT 6SM VC RA BKN015 BKN080 TEMPO 1420/1424 3SM TSRA FM150200 12005KT P6SM SCT020 BKN200
MMCS,TAF MMCS 140443Z 1406/1506 00000KT P6SM SCT100 FM141800 14010KT P6SM SCT100 SCT200 FM150300 14005KT P6SM BKN200
MMCU,TAF MMCU 140443Z 1406/1506 00000KT P6SM SCT100 FM141900 08010KT P6SM SCT100 SCT200 FM150300 08005KT P6SM SCT100
MMCV,TAF MMCV 140533Z 1406/1506 00000KT P6SM SKC FM142100 09010KT P6SM BKN020 BKN080 PROB40 1422/1502 5SM RA BKN020CB FM150200 06005KT P6SM SCT020
MMCZ,TAF MMCZ 140438Z 1406/1512 13005KT P6SM SCT250 FM141800 14010KT P6SM SCT020 BKN100 BKN250 TEMPO 1422/1502 5SM RA BKN015CB
MMDO,TAF MMDO 140519Z 1406/1506 03005KT P6SM SKC FM141500 03010KT P6SM SCT030 SCT200 FM150200 03005KT 6SM HZ SCT030 SCT200
MMEP,TAF MMEP 140432Z 1406/1506 36005KT P6SM SCT015 FM140900 00000KT 3SM BR BKN010 TEMPO 1410/1414 1/2SM FG BKN005 FM141500 00000KT P6SM SCT020 FM141800 03005KT P6SM SCT020 FM150200 36005KT 5SM HZ BKN015
MMGL,TAF MMGL 140425Z 1406/1512 00000KT 6SM HZ SKC TX29/1421Z TN11/1412Z TEMPO 1412/1415 3SM HZ FM141800 12010KT P6SM SCT030 FM150300 12005KT P6SM SKC
MMGM,TAF MMGM 140519Z 1406/1506 24005KT P6SM SKC FM142000 27015KT P6SM BKN220 FM150200 25005KT P6SM SCT030 SCT220
MMHO,TAF MMHO 140431Z 1406/1506 24005KT P6SM SKC FM141800 23010KT P6SM SKC FM150300 23005KT P6SM SKC
MMIA,TAF MMIA 140432Z 1406/1506 00000KT 4SM HZ BKN012 TEMPO 1410/1414 2SM BR BKN008 FM141900 23008KT P6SM SCT020 PROB40 1422/1502 5SM TSRA BKN020CB FM150200 00000KT 5SM HZ SCT015
MMIO,TAF MMIO 140443Z 1406/1506 03005KT P6SM SKC FM141900 03010KT P6SM SKC FM150400 03005KT P6SM SKC
MMLM,TAF MMLM 140519Z 1406/1506 25005KT P6SM SKC TEMPO 1412/1416 BKN015 FM142200 23015KT P6SM SCT020 FM150100 24005KT P6SM SCT020
MMLO,TAF MMLO 140432Z 1406/1506 06005KT P6SM SKC FM141800 06008KT P6SM SCT020 FM150200 06005KT P6SM SKC
MMLP,TAF MMLP 140431Z 1406/1506 16005KT P6SM SKC FM141800 33010KT P6SM SKC FM150300 33005KT P6SM SKC
MMLT,TAF MMLT 140519Z 1406/1506 06005KT P6SM SKC FM142000 10010KT P6SM SCT020 FM150300 06005KT P6SM SCT040
MMMA,TAF MMMA 140533Z 1406/1506 06005KT P6SM SCT080 FM141400 12010KT P6SM BKN020 FM142000 09020KT P6SM BKN020 FM150100 12005KT P6SM SKC
MMMD,TAF MMMD 140438Z 1406/1512 12005KT 6SM -RA BKN020CB OVC100 TX31/1419Z TN25/1412Z TEMPO 1406/1410 4SM RA FM141000 13005KT 5SM HZ BKN015 OVC080 TEMPO 1412/1416 5SM -RA FM141800 08012KT 6SM HZ BKN025 BKN100 BKN300 TEMPO 1422/1502 5SM TSRA OVC015CB
MMML,TAF MMML 140431Z 1406/1506 16005KT P6SM SKC FM142100 16010KT P6SM SCT050 FM150400 16005KT P6SM SKC
MMMM,TAF MMMM 140425Z 1406/1512 00000KT 6SM HZ SKC FM141800 24010KT P6SM SCT030 TEMPO 1422/1502 6SM -RA SCT020CB FM150400 24005KT P6SM SKC
MMMT,TAF MMMT 140457Z 1406/1506 36008KT P6SM SCT020 BKN200 TEMPO 1410/1414 3SM RA BKN020 FM141400 36012KT P6SM SCT020 BKN080 TEMPO 1414/1418 3SM RA BKN015 FM141900 36015KT P6SM BKN020 BKN080 TEMPO 1419/1423 3SM RA FM142300 36015G25KT 5SM RA BKN015CB OVC080 TEMPO 1500/1504 3SM TSRA
MMMV,TAF MMMV 140443Z 1406/1506 04005KT P6SM SKC FM141900 06010KT P6SM SCT040 FM150300 06005KT P6SM SKC
MMMX,TAF MMMX 140418Z 1406/1512 04005KT P6SM SCT020 SCT250 TX25/1421Z TN11/1412Z FM141800 03010KT P6SM SCT030 BKN200 TEMPO 1422/1502 BKN020 FM150300 03005KT 6SM HZ SCT015 SCT250
MMMY,TAF MMMY 140443Z 1406/1512 33005KT P6SM SKC TX34/1421Z TN20/1412Z TEMPO 1412/1415 3SM HZ BKN015 FM141800 14010KT P6SM SCT030 TEMPO 1422/1502 6SM -RA SCT030CB FM150300 14005KT P6SM SKC
MMMZ,TAF MMMZ 140431Z 1406/1512 00000KT P6SM SKC TX31/1420Z TN20/1412Z FM141800 26010KT P6SM SKC FM150300 24005KT P6SM SKC
MMNL,TAF MMNL 140533Z 1406/1506 00000KT P6SM SKC TEMPO 1410/1414 2SM BR BKN010 FM141600 13010KT P6SM SCT020 BKN080 FM150200 12005KT P6SM SKC
MMOX,TAF MMOX 140416Z 1406/1506 13005KT P6SM SCT020 SCT100 FM142000 12008KT P6SM BKN020 TEMPO 1420/1424 5SM RA FM150200 12005KT P6SM SCT020 SCT100
MMPA,TAF MMPA 140533Z 1406/1506 03005KT P6SM SCT015 TEMPO 1410/1414 2SM BR BKN010 FM141500 00000KT P6SM SKC FM142000 31010KT P6SM SCT070 BKN280 FM150400 12005KT 5SM HZ BKN015
MMPB,TAF MMPB 140416Z 1406/1506 36005KT P6SM BKN200 FM141700 36010KT P6SM SCT020 BKN200 FM150200 36005KT P6SM SCT020 BKN200
MMPG,TAF MMPG 140533Z 1406/1506 34005KT P6SM SCT080 FM141200 00000KT P6SM SCT040 SCT120 FM142200 03010KT P6SM BKN050 FM150500 12006KT P6SM SCT200
MMPN,TAF MMPN 140432Z 1406/1506 00000KT 5SM HZ SCT020 TEMPO 1410/1414 3SM BR BKN010 FM141800 18010KT P6SM SCT020 TEMPO 1421/1501 5SM TSRA BKN020CB FM150200 00000KT P6SM SCT020 SCT200
MMPQ,TAF MMPQ 140457Z 1406/1506 24005KT P6SM SCT020 BKN080 FM141600 23010KT P6SM SCT020 BKN080 TEMPO 1416/1420 4SM RA FM142000 24015KT 5SM RA BKN015 OVC080 TEMPO 1420/1424 2SM TSRA BKN015CB FM150000 23015G25KT 5SM RA BKN015CB OVC080 TEMPO 1500/1504 2SM TSRA
MMPR,TAF MMPR 140425Z 1406/1512 04005KT P6SM SKC TX31/1420Z TN19/1412Z TEMPO 1410/1414 BKN015 FM141800 23010KT P6SM SKC FM150300 24005KT P6SM SKC
MMPS,TAF MMPS 140416Z 1406/1506 03005KT P6SM SCT010 SCT080 FM141800 22010KT P6SM SCT020 FM142100 20010KT P6SM BKN020 PROB40 1421/1501 4SM RA FM150300 03005KT P6SM SCT020 BKN200
MMQT,TAF MMQT 140432Z 1406/1506 13005KT P6SM SKC TEMPO 1410/1414 3SM BR BKN010 FM141600 06010KT P6SM SCT020 FM150200 06005KT P6SM SCT020 SCT250
MMRX,TAF MMRX 140533Z 1406/1506 00000KT P6SM SCT030 TEMPO 1410/1414 2SM BR BKN010 FM141500 12005KT P6SM SKC FM142200 10015KT P6SM SCT040 FM150500 12005KT P6SM BKN020
MMSD,TAF MMSD 140519Z 1406/1506 30005KT P6SM SKC FM141800 16010KT P6SM SCT200 FM150200 14005KT P6SM SKC
MMSL,TAF MMSL 140519Z 1406/1506 30008KT P6SM SKC FM142000 25015KT P6SM SKC FM150200 30008KT P6SM BKN020 SCT200
MMSM,TAF MMSM 140418Z 1406/1512 00000KT 6SM HZ SCT200 TEMPO 1412/1415 3SM BR HZ SCT010 FM141800 03010KT P6SM SCT020 SCT200 FM150300 03005KT P6SM SCT200
MMSP,TAF MMSP 140425Z 1406/1512 13005KT 6SM HZ SCT020 TX25/1421Z TN09/1412Z TEMPO 1410/1414 2SM BR BKN010 FM141800 13010KT P6SM SCT030 BKN100
MMTC,TAF MMTC 140443Z 1406/1506 00000KT 6SM HZ SKC FM141900 08010KT P6SM SCT030 FM150300 08005KT P6SM SKC
MMTG,TAF MMTG 140438Z 1406/1506 33010KT 6SM HZ SCT020 BKN300 TEMPO 1410/1414 2SM BR BKN010 FM141800 33010KT P6SM SCT030 BKN090 BKN300 TEMPO 1422/1502 5SM TSRA BKN020CB
MMTJ,TAF COR MMTJ 140449Z 1406/1512 25005KT 1 1/2SM BR -DZ OVC006 TX21/1420Z TN17/1412Z FM140800 00000KT 1SM BR DZ OVC005 TEMPO 1408/1412 1/2SM FG VV002 FM141700 25006KT 3SM BR OVC007 FM141800 25010KT 5SM HZ OVC012 FM141900 25010KT 6SM HZ BKN015 FM150200 24005KT 3SM BR OVC010 TEMPO 1506/1510 1SM BR OVC008
MMTM,TAF MMTM 140418Z 1406/1506 03005KT 6SM HZ BKN015 FM141500 03005KT 6SM HZ SCT015 FM141800 03010KT P6SM SCT020 TEMPO 1418/1422 6SM -RA BKN015 FM150300 03005KT 6SM HZ SCT015
MMTO,TAF MMTO 140418Z 1406/1512 06005KT 6SM HZ SCT080 TX22/1421Z TN07/1412Z TEMPO 1411/1415 2SM BR SCT010 FM141800 04010KT P6SM SCT020 SCT200 TEMPO 1422/1502 6SM -RA BKN015 FM150300 06005KT 6SM HZ SCT200
MMTP,TAF MMTP 140438Z 1406/1512 00000KT 6SM HZ SCT030 BKN100 FM141800 24010KT P6SM SCT020 BKN100 BKN200 TEMPO 1423/1503 6SM TSRA BKN020CB
MMUN,TAF MMUN 140438Z 1406/1512 13005KT 6SM HZ SCT015 SCT090 BKN250 TX32/1420Z TN24/1412Z TEMPO 1406/1410 6SM RA SCT010CB FM141800 16010KT 6SM HZ SCT020 BKN090 BKN250 TEMPO 1422/1502 6SM TSRA BKN015CB
MMVA,TAF MMVA 140457Z 1406/1506 23005KT P6SM SCT015 BKN200 TEMPO 1412/1416 5SM RA FM141600 23010KT P6SM VC RA BKN015 OVC080 TEMPO 1416/1420 3SM RA FM142000 23015G25KT 5SM RA BKN015CB OVC080 TEMPO 1422/1502 2SM TSRA
MMVR,TAF MMVR 140418Z 1406/1506 02010KT 6SM HZ SCT015 SCT080 BKN250 TX31/1419Z TN22/1412Z TEMPO 1412/1415 5SM -RA BKN010 FM141800 03010KT 6SM HZ BKN020CB TEMPO 1422/1502 5SM TSRA BKN015CB
MMZC,TAF MMZC 140425Z 1406/1512 00000KT P6SM SCT050 TX24/1420Z TN08/1412Z FM141800 03010KT P6SM SCT040 TEMPO 1418/1422 BKN040 FM150400 03005KT P6SM SKC
MMZH,TAF MMZH 140416Z 1406/1506 00000KT P6SM SCT020 FM141700 22010KT P6SM SCT020 FM150300 00000KT P6SM SCT020 SCT200
MMZO,TAF MMZO 140425Z 1406/1506 00000KT P6SM SCT200 FM141800 24010KT P6SM SCT030 BKN200 TEMPO 1422/1502 6SM RA BKN020CB FM150300 24005KT P6SM SCT020 BKN200
MNBL,MNBL 122120Z 1400/1424 09006KT 8000 VCRA BKN017 BECMG 1410/1412 34004KT 5000 DZ/RA BKN016 SCT070
MNMG,MNMG 140510Z 1406/1506 VRB06KT 9999 SCT020 SCT300 BECMG 1413/1415 10010KT BKN022
MNPC,TAF MNPC 1400/1424 08010KT 6000 HZ/VCRA FEW014CB BKN016TCU BECMG 1407/1409 04012KT 5000 DZ/TSRA
MPDA,TAF COR MPDA 132300Z 1400/1412 22008KT 9999 SCT016 SCT080 TEMPO 1400/1414 6000 TSRA SCT014CB BKN080
MPMG,TAF MPMG 132300Z 1400/1412 16006KT 9999 SCT015 BKN090 TEMPO 1406/1410 VRB02KT
MPPA,TAF MPPA 132300Z 1400/1506 18006KT 9999 SCT016 BKN080 TEMPO 1406/1410 00000KT TEMPO 1417/1421 6000 TSRA SCT015CB BKN080 TEMPO 1422/1500 9999 NSW
MPSM,TAF MPSM 131715Z 1318/1424 32006KT 9999 SCT016 TEMPO 1320/1324 6000 TSRA SCT015CB BKN080 PROB30 1400/1404 8000 RA SCT015CB BKN100
MPTO,TAF MPTO 140500Z 1406/1512 06005KT 9999 SCT016 BKN090 TEMPO 1406/1410 VRB02KT TEMPO 1417/1421 18008KT 6000 TSRA SCT016CB BKN080 TEMPO 1422/1500 9999 NSW
MRLB,MRLB 140512Z 1406/1506 31003KT 9999 FEW035 SCT120 TX30/1419Z TN22/1411Z TEMPO 1408/1413 VRB02KT 3000 BR SCT002 TEMPO 1420/1423 28007KT TSRA SCT020CB 
MRLM,MRLM 140512Z 1406/1506 01007KT 9999 FEW030 BKN140 TX31/1420Z TN22/1411Z TEMPO 1408/1414 DZ FEW020TCU BECMG 1416/1418 04006KT BECMG 1500/1503 27006KT 
MROC,MROC 140512Z 1406/1506 VRB02KT 9999 FEW020 BKN150 TX29/1418Z TN19/1410Z BECMG 1406/1409 09005KT BECMG 1415/1417 25007KT TEMPO 1420/1424 5000 TSRA SCT015CB BKN030 TEMPO 1500/1504 VRB02KT 5000 BR BKN010 
MRPV,MRPV 140512Z 1406/1506 34005KT 9999 FEW025 BKN130 TX28/1418Z TN18/1410Z BECMG 1415/1417 29007KT TEMPO 1419/1423 5000 TSRA SCT015CB TEMPO 1423/1503 VRB02KT BCFG BKN015 
MSLP,TAF MSLP 140325Z 1406/1506 06006KT 9999 SCT030 FEW033CB TX32/1418Z TN23/1410Z PROB40 TEMPO 1407/1409 8000 TSRA FM141800 21012KT 9999 SCT020 FEW037CB TEMPO 1419/1422 8000 TSRA FM150000 VRB03KT 9999 SCT020 FEW033CB
MSSS,TAF MSSS 140325Z 1406/1506 35008KT 9999 SCT020 TX29/1419Z TN20/1410Z TEMPO 1410/1414 5000 BR FM141800 18012KT 9999 SCT023 FEW033CB TEMPO 1422/1501 8000 TSRA
MTCH,TAF MTCH 131750Z 1318/1418 01008KT 9000 FEW030TCU PROB40 TEMPO 1400/1406 4000 TSRA SCT022CB BKN040 BECMG 1408/1412 VRB02KT 8000 NSW FEW020 TEMPO 1414/1418 05012KT
MTPP,TAF MTPP 131750Z 1318/1418 30010KT 9000 SCT030CB SCT050 PROB30 TEMPO 1321/1403 4000 TSRA BECMG 1406/1410 VRB02KT 9000 NSW FEW016 FM141200 10012KT 9000 FEW020
MUCC,MUCC 140500Z 1406/1506 VRB03KT 9000 SCT020 BKN090 TEMPO 1415/1418 FEW020CB TEMPO 1419/1424 7000 TSRA SCT018CB BKN020
MUCF,MUCF 131700Z 1318/1406 21008KT 9000 SCT020 BECMG 1319/1320 VRB03KT TEMPO 1321/1402 FEW020CB TEMPO 1403/1406 BKN050
MUCL,MUCL 131700Z 1318/1406 VRB03KT 9000 SCT020 TEMPO 1401/1406 FEW018CB
MUCM,TAF COR MUCM 140500Z 1406/1506 VRB03KT 9000 FEW020 SCT050 TEMPO 1418/1424 FEW020CB
MUCU,TAF COR MUCU 140500Z 1406/1506 VRB03KT 9000 FEW020 SCT050 TEMPO 1407/1412 FEW020CB TEMPO 1417/1423 FEW018CB
MUGM,TAF MUGM 1323/1423 22008KT 9999 FEW030 BKN250 QNH2984INS BECMG 1323/1401 VRB06KT 9999 FEW030 FEW250 QNH2986INS BECMG 1415/1417 22008KT 9999 FEW080 BKN250 QNH2985INS T24/1410Z T32/1418Z FN20097
MUHA,MUHA 140500Z 1406/1506 VRB03KT 9000 SCT030 TEMPO 1419/1501 VRB10KT 3000 TSRA FEW018CB BKN020
MUHG,TAF COR MUHG 140500Z 1406/1506 VRB03KT 9000 SCT030 TEMPO 1408/1411 3000 BR TEMPO 1419/1424 5000 TSRA SCT018CB
MUPB,MUPB 140500Z 1406/1506 VRB03KT 9000 SCT020 BKN100 TEMPO 1419/1423 FEW018CB
MUSA,MUSA 140500Z 1406/1506 VRB03KT 9000 FEW020 BKN090 TEMPO 1415/1418 FEW020CB TEMPO 1419/1423 5000 TSRA SCT018CB
MUSC,MUSC 140500Z 1406/1506 VRB03KT 9000 SCT018 BKN070 TEMPO 1415/1418 FEW020CB TEMPO 1419/1424 5000 TSRA SCT018CB
MUVR,TAF COR MUVR 140500Z 1406/1506 VRB03KT 9000 SCT020 BKN070 TEMPO 1418/1424 7000 RA SCT020CB
MWCB,TAF MWCB 131700Z 1318/1418 11014KT 9999 SCT018
MWCR,TAF MWCR 132300Z 1400/1424 15005KT 9999 FEW018
MYGF,MYGF 140400Z 1406/1506 09005KT 8000 SHRA FEW016CB SCT020 BKN150 FM 141800 06004KT 9999 FEW018 SCT025 BKN150
MYNN,MYNN 140400Z 1406/1506 10007KT 8000 SHRA SCT025 SCT060 BKN150 FM 141400 FEW016CB BKN060 BKN150
MZBZ,TAF MZBZ 140300Z 1406/1506 12006KT 9999 SCT022
NCRG,TAF NCRG 140505Z 1406/1506 08005KT 9999 BKN048
NFFN,TAF NFFN 140503Z 1406/1506 23005KT 9999 FEW030
NFNA,TAF NFNA 140515Z 1406/1506 22005KT 9999 SCT018 BKN045 FM150000 18006KT 9999 FEW030
NFTF,TAF NFTF 140510Z 1406/1506 33006KT 9999 FEW008 SCT015 TEMPO 1406/1412 33015G28KT 3000 +TSRA BKN008 SCT018CB PROB40 TEMPO 1412/1418 5000 TSRA BKN012 FEW018CB BECMG 1416/1418 27007KT 9999 SCT020 BKN045
NFTV,TAF NFTV 140522Z 1406/1506 01005KT 9999 SCT016 BKN100 TEMPO 1406/1409 5000 TSRA BKN015 FEW018CB PROB40 TEMPO 1412/1424 5000 TSRA BKN009 FEW016CB
NGFU,TAF NGFU 140521Z 1406/1506 VRB03KT 9999 FEW020
NGTA,TAF NGTA 140516Z 1406/1506 12008KT 9999 FEW019 SCT040 PROB40 TEMPO 1409/1415 5000 TSRA BKN016 FEW017CB
NIUE,TAF NIUE 140518Z 1406/1506 02006KT 9999 SCT020 PROB40 TEMPO 1406/1424 8000 SHRA BKN016
NLWF,TAF NLWF 140500Z 1406/1506 32008KT 9999 FEW018 SCT030 BKN060 TEMPO 1412/1418 4000 SHRA BKN014 FEW020TCU
NLWW,TAF NLWW 140500Z 1406/1506 VRB02KT 9999 FEW020 SCT060 PROB30 TEMPO 1412/1418 SHRA FEW025TCU BECMG 1422/1424 10010KT TEMPO 1500/1503 4000 SHRA BKN014 SCT020TCU
NSFA,TAF NSFA 140512Z 1406/1506 07008KT 9999 SCT024 BKN040
NSTU,NSTU 140537Z 1406/1506 08009KT P6SM VCSH SCT020 SCT040 BKN100 FM150000 08012KT P6SM FEW020 SCT040
NTAA,TAF NTAA 140500Z 1406/1512 VRB05KT 9999 FEW023 TEMPO 1420/1506 3500 SHRA BKN018 BKN035
NVSC,TAF NVSC 140500Z 1406/1506 VRB02KT 9999 FEW010 BKN020 INTER 1404/1406 8000 SHRA FEW008 BKN018
NVSG,TAF NVSG 140500Z 1406/1506 VRB02KT 9999 SCT022
NVSL,TAF NVSL 140500Z 1406/1506 VRB02KT 9999 SCT022
NVSP,TAF NVSP 140500Z 1406/1506 VRB02KT 9999 SCT020
NVSS,TAF NVSS 140500Z 1406/1506 VRB02KT 9999 SCT022
NVVA,TAF NVVA 140500Z 1406/1506 02005KT 9999 SCT022
NVVV,TAF NVVV 140500Z 1406/1506 17005KT 9999 SCT022
NVVW,TAF NVVW 140500Z 1406/1506 18008KT 9999 SCT022
NWWD,TAF NWWD 140500Z 1406/1506 20010KT 9999 FEW040 SCT050 BKN060 BECMG 1406/1409 VRB02KT PROB30 TEMPO 1406/1409 SHRA PROB30 TEMPO 1418/1420 SHRA BECMG 1422/1424 20012KT
NWWE,TAF NWWE 131700Z 1318/1418 15012KT 9999 SCT020 SCT040 PROB30 TEMPO 1318/1321 SHRA BKN014 BECMG 1408/1410 VRB02KT
NWWK,TAF NWWK 140500Z 1406/1506 14014KT 9999 FEW050 SCT060 BECMG 1407/1409 VRB02KT BECMG 1422/1424 17012KT
NWWL,TAF NWWL 131700Z 1318/1418 VRB02KT 9999 FEW020 SCT040 BECMG 1323/1401 14012KT BECMG 1408/1410 VRB02KT
NWWM,TAF NWWM 131700Z 1318/1418 15015KT 9999 FEW025 SCT035 PROB30 TEMPO 1318/1321 SHRA FEW020TCU BECMG 1408/1410 10005KT
NWWR,TAF NWWR 131700Z 1318/1418 VRB02KT 9999 SCT030 BECMG 1323/1401 16012KT BECMG 1408/1410 VRB02KT
NWWU,TAF NWWU 131700Z 1318/1418 17012KT 9999 FEW040 BECMG 1408/1410 VRB02KT
NWWW,TAF NWWW 140500Z 1406/1506 14014KT 9999 FEW030 SCT050 BKN065 BECMG 1407/1409 VRB02KT PROB30 TEMPO 1407/1409 SHRA PROB30 TEMPO 1412/1418 SHRA BECMG 1422/1424 16012KT
NZAA,TAF NZAA 140524Z 1406/1512 09012KT 9999 SCT035 BECMG 1504/1506 15010KT
NZCH,TAF NZCH 140413Z 1406/1512 06018KT CAVOK BECMG 1407/1409 05008KT BECMG 1422/1500 07020KT BECMG 1507/1509 06010KT
NZFX,TAF NZFX 140256Z 1403/1503 VRB06KT 9999 SKC QNH2872INS TEMPO 1415/1420 14010G20KT GRID31010G20KT 
NZQN,TAF AMD NZQN 140022Z 1400/1412 26008KT 9999 SKC BECMG 1405/1407 20010KT BECMG 1408/1410 VRB02KT
NZWN,TAF NZWN 140524Z 1406/1512 15015KT 9999 FEW030 BKN040 FM141200 VRB02KT 9999 SCT040 BECMG 1421/1423 09010KT BECMG 1506/1508 03010KT
OBBI,TAF OBBI 140500Z 1406/1512 VRB03KT CAVOK BECMG 1409/1411 05010KT BECMG 1418/1420 VRB03KT
OEAB,TAF OEAB 132300Z 1400/1506 VRB03KT 7000 NSC BECMG 1406/1408 20010KT 9999 FEW020 PROB30 TEMPO 1412/1418 SCT020 FEW025CB BECMG 1418/1420 VRB03KT
OEAH,TAF OEAH 132100Z 1400/1506 VRB03KT 8000 NSC TEMPO 1402/1406 4000 HZ BECMG 1406/1408 13008KT BECMG 1416/1418 VRB03KT TEMPO 1500/1506 4000 BR TEMPO 1501/1504 0500 FG
OEAO,TAF OEAO 132300Z 1400/1506 VRB03KT CAVOK BECMG 1408/1410 22012KT BECMG 1418/1420 VRB03KT
OEBA,TAF OEBA 132300Z 1400/1506 20008KT CAVOK BECMG 1406/1408 13010KT 9999 FEW030 PROB30 TEMPO 1412/1418 FEW025CB SCT030 BECMG 1418/1420 20008KT
OEBH,TAF OEBH 132300Z 1400/1506 20008KT CAVOK BECMG 1408/1410 12010KT BECMG 1420/1422 19006KT
OEDF,TAF OEDF 140300Z 1406/1512 110010KT 7000 FEW030 SCT100 BECMG 1422/1500 VRB03KT TEMPO 1500/1506 4000 BR TEMPO 1501/1504 0500 FG
OEDM,TAF OEDM 140500Z 1405/1421 15014KT CAVOK BECMG 1418/1420 11008KT
OEDR,TAF OEDR 132130Z 1400/1506 23006KT 7000 NSC TEMPO 1401/1406 5000 HZ BECMG 1406/1408 08010KT BECMG 1422/1500 VRB03KT TEMPO 1500/1506 4000 BR TEMPO 1501/1504 0500 FG
OEGN,TAF OEGN 132300Z 1400/1506 VRB03KT 7000 SCT030 SCT100 PROB30 TEMPO 1400/1406 4000 HZ BECMG 1406/1408 28012KT TEMPO 1412/1420 TS FEW035CB BECMG 1418/1420 VRB03KT
OEGS,TAF OEGS 132300Z 1400/1506 20006KT CAVOK BECMG 1406/1408 15010KT BECMG 1418/1420 19006KT
OEGT,TAF OEGT 132300Z 1400/1506 30010KT 7000 FEW040 TEMPO 1400/1405 3500 BR FEW020 BECMG 1406/1408 35012KT CAVOK BECMG 1418/1420 31010KT 7000 FEW040
OEHL,TAF OEHL 132300Z 1400/1506 26010KT CAVOK BECMG 1406/1408 20014KT 7000 NSC BECMG 1416/1418 27008KT CAVOK
OEJN,TAF OEJN 140500Z 1406/1512 28010KT 9999 FEW040 BECMG 1418/1420 VRB03KT 7000 NSC PROB30 TEMPO 1501/1506 3500 BR FEW020 BECMG 1506/1508 26010KT 9999 FEW040
OEKJ,TAF OEKJ 132300Z 1400/1506 VRB03KT CAVOK BECMG 1409/1411 10010KT BECMG 1418/1420 VRB03KT
OEKM,TAF OEKM 132300Z 1400/1506 VRB03KT 7000 NSC BECMG 1406/1408 20010KT 9999 FEW020 PROB30 TEMPO 1412/1418 SCT020 FEW025CB BECMG 1418/1420 VRB03KT
OEMA,TAF OEMA 140500Z 1406/1512 18010KT 9999 FEW045 PROB30 TEMPO 1414/1418 FEW035CB BECMG 1418/1420 VRB03KT CAVOK
OENG,TAF OENG 132300Z 1400/1506 VRB03KT CAVOK BECMG 1408/1410 06010KT BECMG 1418/1420 26006KT
OEPA,TAF OEPA 132100Z 1400/1506 18012KT CAVOK
OEPS,TAF OEPS 140100Z 1401/1507 04006KT 9999 SKC QNH3000INS BECMG 1411/1412 10012G18KT 9000 HZ SKC QNH2999INS BECMG 1414/1415 12009KT 9999 NSW SKC QNH3002INS BECMG 1421/1422 VRB04KT 9999 SKC QNH3003INS TX36/1411Z TN22/1403Z
OERF,TAF OERF 132300Z 1400/1506 24008KT CAVOK BECMG 1406/1408 21016KT 7000 NSC BECMG 1418/1420 18006KT CAVOK
OERK,TAF OERK 140500Z 1406/1512 16010KT CAVOK BECMG 1422/1500 VRB03KT BECMG 1506/1508 15008KT
OERR,TAF OERR 132300Z 1400/1506 30008KT CAVOK BECMG 1409/1411 22010KT BECMG 1418/1420 30008KT
OESH,TAF OESH 132300Z 1400/1506 08006KT CAVOK BECMG 1408/1410 03010KT BECMG 1418/1420 12008KT
OESK,TAF OESK 132300Z 1400/1506 24006KT CAVOK BECMG 1406/1408 29014KT 7000 NSC BECMG 1416/1418 34006KT CAVOK
OETB,TAF OETB 132300Z 1400/1506 VRB03KT CAVOK BECMG 1406/1408 24010KT BECMG 1418/1420 31006KT
OETF,TAF OETF 132300Z 1400/1506 18008KT CAVOK BECMG 1406/1408 12012KT 9999 FEW030 PROB30 TEMPO 1410/1415 FEW025CB BECMG 1416/1418 29008KT CAVOK
OETR,TAF OETR 132300Z 1400/1506 35006KT 7000 FEW040 TEMPO 1400/1405 3500 BR FEW020 BECMG 1407/1409 26010KT CAVOK BECMG 1418/1420 32006KT
OEWD,TAF OEWD 132300Z 1400/1506 VRB03KT CAVOK BECMG 1408/1410 08010KT BECMG 1418/1420 11008KT
OEWJ,TAF OEWJ 132300Z 1400/1506 01008KT 7000 FEW040 PROB30 TEMPO 1400/1406 4000 HZ BECMG 1408/1410 31015KT CAVOK BECMG 1418/1420 02008KT
OEYN,TAF OEYN 132300Z 1400/1506 VRB03KT 6000 FEW040 TEMPO 1400/1406 3000 BR BECMG 1406/1408 28014KT 9999 FEW040 BECMG 1420/1422 12008KT
OIAA,TAF OIAA 132300Z 1400/1506 28008KT 7000 NSC TEMPO 1402/1405 5000 HZ TEMPO 1409/1415 12010KT
OIAW,TAF OIAW 132300Z 1400/1506 28008KT 7000 NSC TEMPO 1403/1405 5000 HZ
OIBB,TAF OIBB 140230Z 1403/1412 30008KT 8000 NSC
OIBK,TAF OIBK 132300Z 1400/1506 20010KT 3000 HZ/BR NSC TEMPO 1400/1404 1500 BR SCT025 BECMG 1406/1408 5000 HZ TEMPO 1409/1415 15012KT TEMPO 1500/1505 3000 BR SCT030
OIBP,TAF OIBP 140230Z 1403/1412 20008KT 5000 HZ NSC TEMPO 1403/1405 3000 BR BECMG 1408/1410 7000
OICC,TAF OICC 140230Z 1403/1412 27008KT 8000 NSC
OICI,TAF OICI 132300Z 1400/1506 12008KT 8000 NSC TEMPO 1409/1415 20016KT FEW040 SCT100
OIFM,TAF OIFM 132300Z 1400/1506 34008KT 7000 NSC TEMPO 1412/1418 24014KT FEW040
OIGG,TAF OIGG 140230Z 1403/1412 27008KT 8000 SCT015 BKN070 TEMPO 1403/1405 5000 BR BKN010 TEMPO 1406/1412 FEW015CB SCT020 BKN070
OIIE,TAF OIIE 132300Z 1400/1506 32008KT 8000 NSC TEMPO 1409/1415 14014KT FEW040 TEMPO 1420/1424 05012KT
OIII,TAF OIII 132300Z 1400/1506 34008KT 8000 NSC TEMPO 1409/1415 16012KT FEW040 TEMPO 1503/1506 5000 HZ
OIIP,TAF OIIP 140230Z 1403/1412 12008KT 8000 FEW040 SCT100 TEMPO 1403/1405 5000 HZ
OIKB,TAF OIKB 132300Z 1400/1506 20008KT 5000 HZ/BR NSC TEMPO 1400/1404 2000 BR SCT020 BECMG 1406/1408 22008KT 6000 NSC TEMPO 1409//1415 24016KT BECMG 1421/1423 5000 HZ FEW030
OIKK,TAF OIKK 132300Z 1400/1506 10008KT 8000 NSC TEMPO 1412/1416 27014KT SCT040
OIMM,TAF OIMM 132300Z 1400/1506 17008KT 8000 NSC TEMPO 1409/1415 10014KT FEW040
OING,TAF OING 140230Z 1403/1412 24008KT 8000 FEW030 SCT090
OINZ,TAF OINZ 140230Z 1403/1412 20008KT 8000 FEW030 SCT090
OISL,TAF OISL 132300Z 1400/1506 28008KT 8000 NSC
OISS,TAF OISS 132300Z 1400/1506 28008KT 7000 NSC TEMPO 1410/1415 10012KT
OITL,TAF OITL 140230Z 1403/1412 07008KT 3000 BR OVC003 TEMPO 1403/1405 0500 FG OVC001 BECMG 1405/1407 8000 FEW025 SCT080 BECMG 1409/1411 07018KT
OITR,TAF OITR 132300Z 1400/1506 28008KT FEW040 TEMPO 1409/1415 28012KT FEW035CB SCT100
OITT,TAF OITT 132300Z 1400/1506 07008KT 7000 FEW035 TEMPO 1400/1403 07014KT TEMPO 1409/1415 27018KT FEW035TCU SCT100
OIYY,TAF OIYY 140230Z 1403/1412 30008KT CAVOK
OIZH,TAF OIZH 132300Z 1400/1506 05008KT 8000 NSC TEMPO 1409/1415 03014KT
OJAI,TAF OJAI 140500Z 1406/1512 31010KT 5000 HZ FEW030 PROB40 TEMPO 1501/1506 0800 FG
OJAM,TAF OJAM 140500Z 1406/1512 30008KT 5000 HZ FEW030
OJAQ,TAF OJAQ 140500Z 1406/1512 36010KT 7000 NSC PROB30 TEMPO 1412/1416 36016KT 5000 BLDU
OKAS,TAF OKAS 140000Z 1400/1506 20009KT 9999 SKC QNH2983INS WND 09009KT AFT 1418 TX37/1412Z TN20/1403Z
OKBK,TAF OKBK 140500Z 1406/1512 VRB03KT 7000 NSC TEMPO 1410/1418 17012KT
OLBA,TAF OLBA 132200Z 1400/1506 16008KT 8000 SCT023 TEMPO 1400/1406 6000 RA BKN023 BECMG 1406/1408 20010KT SCT026 BECMG 1418/1420 SCT026 SCT200 TEMPO 1418/1506 6000 RA BKN023
OMAA,TAF OMAA 140500Z 1406/1512 19008KT CAVOK BECMG 1408/1410 33012KT BECMG 1416/1418 06005KT PROB30 1500/1505 4000 HZ BECMG 1504/1506 17010KT BECMG 1508/1510 32010KT
OMAD,TAF OMAD 140500Z 1406/1512 19007KT CAVOK BECMG 1408/1410 33010KT BECMG 1416/1418 04005KT PROB30 1500/1505 4000 HZ BECMG 1504/1506 17008KT BECMG 1508/1510 32010KT
OMAL,TAF OMAL 140500Z 1406/1512 18010KT CAVOK BECMG 1412/1414 33008KT BECMG 1416/1418 08006KT BECMG 1501/1503 16015KT BECMG 1509/1511 30008KT
OMDB,TAF OMDB 140500Z 1406/1512 19009KT CAVOK BECMG 1408/1410 33010KT BECMG 1415/1417 12005KT BECMG 1508/1510 34010KT
OMDW,TAF OMDW 140500Z 1406/1512 18009KT CAVOK BECMG 1410/1412 33012KT BECMG 1415/1417 12005KT BECMG 1502/1504 18010KT BECMG 1509/1511 33012KT
OMFJ,TAF OMFJ 140500Z 1406/1512 09008KT 8000 NSC BECMG 1414/1416 VRB03KT BECMG 1421/1423 29005KT BECMG 1506/1508 09008KT
OMRK,TAF OMRK 140500Z 1406/1512 20009KT CAVOK BECMG 1408/1410 33010KT BECMG 1414/1416 VRB02KT BECMG 1508/1510 33010KT
OMSJ,TAF OMSJ 140500Z 1406/1512 19009KT CAVOK BECMG 1409/1411 33010KT BECMG 1415/1417 12005KT BECMG 1508/1510 34010KT
OODQ,TAF OODQ 140500Z 1406/1506 07012KT 8000 NSC BECMG 1418/1420 VRB03KT PROB30 TEMPO 1422/1505 4000 BR BKN015
OOMS,TAF OOMS 140500Z 1406/1512 03012KT 8000 NSC BECMG 1416/1418 22010KT BECMG 1506/1508 04010KT
OOSA,TAF OOSA 140540Z 1406/1512 19012KT 9999 FEW025 BECMG 1416/1418 VRB03KT BECMG 1506/1508 18012KT
OOSH,TAF OOSH 140500Z 1406/1512 06010KT 8000 NSC BECMG 1416/1418 VRB02KT BECMG 1506/1508 06010KT
OPBW,TAF OPBW 140345Z 1406/1424 13010KT 4000 FU FEW120 TX36/1410Z
OPDG,TAF OPDG 140345Z 1406/1424 18010KT 5000 FU FEW120 TX35/1410Z
OPFA,TAF OPFA 140345Z 1406/1424 27004KT 5000 HZ FEW040 TX32/1410Z FM141400 VRB02KT 4000 FU NSC
OPGD,TAF OPGD 140330Z 1406/1506 21012KT 6000 NSC FM141800 23007KT 2500 BR NSC TEMPO 1500/1504 VRB03KT 0500 FG VV///
OPIS,TAF OPIS 140345Z 1406/1512 27010KT 5000 FU NSC TEMPO 1409/1412 30010KT 7000 FEW040 SCT100 TEMPO 1423/1503 12010KT 2000 BR
OPKC,TAF OPKC 140330Z 1406/1512 24012KT 6000 NSC FM141800 05007KT 4000 FU NSC TEMPO 1500/1506 05005KT 2500 FU NSC FM150600 24012KT 6000 NSC
OPLA,TAF OPLA 140345Z 1406/1512 31010KT 5000 HZ FEW100 TX33/1410Z TN19/1501Z FM 14/1600 27003KT 4000 FU NSC TEMPO 1500/1504 VRB02KT 1500 BR FM 15/0600 32010KT 5000 HZ NSC
OPMT,TAF OPMT 140345Z 1406/1424 18010KT 4000 FU FEW120 TX35/1410Z
OPNH,TAF OPNH 140330Z 1406/1512 16007KT 6000 NSC FM141800 34005KT 4000 FU NSC TEMPO 1500/1506 VRB03KT 3000 FU NSC FM150600 36010KT 6000 NSC
OPPS,TAF OPPS 140330Z 1406/1512 05006KT 6000 NSC BECMG 1413/1415 23004KT 5000 HZ TEMPO 1421/1501 VRB02KT 2500 FU
OPRK,TAF OPRK 140345Z 1406/1424 13010KT 5000 FU FEW120 TX37/1410Z
OPSK,TAF OPSK 140330Z 1406/1506 05007KT 5000 HZ NSC FM141700 03005KT 4000 HZ NSC TEMPO 1500/1504 VRB03KT 3000 HZ NSC
OPST,TAF OPST 140345Z 1406/1512 31006KT 4000 FU FEW040 TX31/1410Z TN19/1501Z TEMPO 1500/1504 05003KT 1000 BR
ORBI,TAF ORBI 140400Z 1406/1506 09008KT 7000 NSC
ORER,TAF ORER 140400Z 1406/1506 16004KT 7000 NSC BECMG 1406/1409 18010KT NSC BECMG 1415/1418 27008KT
ORMM,TAF ORMM 1406/1506 VRB03KT 4000 DU NSC BECMG 1406/1409 CAVOK
ORNI,TAF ORNI 140400Z 1406/1506 14006KT 7000 NSC
ORSU,TAF ORSU 140500Z 1406/1506 29005KT CAVOK BECMG 1410/1412 22010KT 8000 FEW045 BECMG 1415/1417 32006KT CAVOK 
OSAP,OSAP 140500Z 1406/1506 30008KT 9999 SCT030 BKN100 BECMG 1412/1414 25008KT 9999 FEW030
OSDI,OSDI 140500Z 1406/1512 22010KT CAVOK TEMPO 1410/1418 24015G25KT 9999 FEW030 SCT100
OSLK,OSLK 140500Z 1406/1506 22010G20KT 9999 FEW026TCU SCT030 BECMG 1420/1422 20010G25KT 7000TS SHRA FEW026CB SCT030
OTBD,TAF OTBD 140509Z 1406/1512 VRB03KT 8000 NSC TEMPO 1406/1418 11008KT TEMPO 1408/1416 6000 FEW040 TCU BKN090 PROB30 TEMPO 1408/1416 VRB15G25KT 3000 -TSRA/BLDU FEW030CB TEMPO 1414/1421 05008KT
OTBH,TAF AMD OTBH 140145Z 1401/1506 VRB06KT 9999 SKC QNH2984INS BECMG 1403/1404 VRB06KT 5000 BR SKC QNH2980INS BECMG 1405/1406 02006KT 9999 NSW SKC QNH2982INS BECMG 1408/1409 10009KT 9999 SKC QNH2985INS BECMG 1502/1503 VRB06KT 8000 BR SKC QNH2978INS TX37/1412Z TN24/1401Z
OTHH,TAF OTHH 131702Z 1318/1424 03005KT 8000 NSC TEMPO 1318/1406 VRB03KT 5000 HZ PROB30 TEMPO 1400/1404 2500 BR BECMG 1406/1408 09009KT
PAAQ,PAAQ 140520Z 1406/1506 VRB06KT P6SM SKC FM141000 VRB06KT P6SM VCFG SKC FM141800 VRB06KT P6SM SCT100
PABE,PABE 140539Z 1406/1506 04008KT P6SM OVC200 FM141800 04012KT P6SM SCT050 OVC080 FM150000 04015G22KT P6SM OVC100
PABI,TAF PABI 132200Z 1322/1504 VRB06KT 9999 OVC035 620352 510033 QNH2981INS BECMG 1405/1406 VRB06KT 9999 SKC 510033 QNH3001INS TXM03/1323Z TNM20/1415Z
PABR,PABR 140538Z 1406/1506 29015KT P6SM SCT015 BKN050 OVC080 TEMPO 1406/1410 2SM -SHSN BR SCT013 BKN025 OVC050 FM141000 29017KT 5SM -SHSN BR BKN015 OVC025 FM142000 25013KT P6SM VCSH BKN020 OVC050
PABT,PABT 140538Z 1406/1506 VRB03KT P6SM OVC013 FM141500 35006KT P6SM FEW100
PACD,PACD 140539Z 1406/1506 13027G37KT 5SM -RA BR SCT015 OVC030 TEMPO 1406/1410 BKN025 FM141200 12015G25KT 5SM -RA BR OVC015 FM141500 14013KT 6SM BR OVC015 FM142000 10018G30KT 4SM -RA BR BKN015 OVC025 FM150300 07013G23KT 4SM -RA BR OVC015
PACV,PACV 140520Z 1406/1506 VRB06KT P6SM SKC
PADL,PADL 140539Z 1406/1506 03011KT P6SM OVC120 FM141800 04017G25KT P6SM SCT030 BKN100
PADQ,PADQ 140520Z 1406/1506 VRB06KT P6SM SKC FM141600 07010KT P6SM SKC FM142000 07015G25KT P6SM VCSH OVC050 FM142200 06020G30KT P6SM -RA OVC025 FM150300 05030G40KT 2SM -RA BR OVC007
PADU,PADU 140540Z 1406/1506 13006KT P6SM -SHRA SCT025 OVC035 TEMPO 1406/1410 BKN025 FM150000 VRB03KT P6SM VCSH SCT015 OVC025
PAED,TAF PAED 140500Z 1405/1511 36006KT 9999 FEW200 QNH2992INS BECMG 1412/1413 36006KT 9999 VCFG FEW020 QNH3000INS BECMG 1417/1418 36009KT 9999 NSW FEW040 SCT120 QNH2977INS BECMG 1509/1510 36009KT 9999 VCSH FEW020 SCT050 OVC070 620709 510203 QNH2958INS TX04/1502Z TNM06/1413Z
PAEI,TAF PAEI 140545Z 1406/1512 VRB06KT 9999 FEW070 QNH3003INS TXM01/1500Z TNM12/1415Z
PAEN,PAEN 140520Z 1406/1506 VRB06KT P6SM SKC FM141000 VRB06KT P6SM VCFG SKC FM141800 02012KT P6SM SKC
PAFA,PAFA 140538Z 1406/1512 04005KT P6SM BKN015 BKN070 FM140800 03005KT P6SM SCT015 BKN050 FM140900 03003KT P6SM FEW100
PAFB,TAF COR PAFB 132235Z 1322/1504 29009KT 9999 VCSH SCT008 BKN030 OVC070 620307 QNH2987INS TEMPO 1323/1401 8000 -SN BKN025 620258 BECMG 1406/1407 VRB05KT 9999 NSW SCT035 BKN070 620703 QNH3004INS TXM02/1401Z TNM11/1417Z
PAGA,PAGA 140538Z 1406/1506 VRB03KT P6SM SCT025 OVC040 FM142100 03006KT P6SM FEW100 AMD LTD TO CLD VIS WX
PAGK,PAGK 140520Z 1406/1506 VRB06KT P6SM SKC
PAGS,PAGS 140532Z 1406/1506 VRB05KT P6SM BKN035 OVC050 FM141200 00000KT P6SM VCFG SCT070 FM142100 29006KT P6SM SKC FM150300 31004KT P6SM -RA OVC050 AMD LTD TO CLD VIS AND WIND
PAGY,PAGY 140532Z 1406/1506 21015G25KT P6SM VCSH BKN080 FM141200 04005KT P6SM VCFG OVC050 FM150300 02003KT P6SM -SHRA OVC050 AMD LTD TO CLD VIS AND WIND
PAHN,PAHN 140532Z 1406/1506 09008G15KT P6SM FEW070 FM141000 31005KT P6SM VCFG SKC FM142100 31008KT P6SM SKC FM150300 31005KT P6SM -SHRA OVC050
PAHO,PAHO 140520Z 1406/1506 VRB06KT P6SM SKC
PAIL,PAIL 140539Z 1406/1506 01008KT P6SM BKN150 FM142000 07012KT P6SM SCT050 BKN150
PAJN,PAJN 140532Z 1406/1506 VRB03KT P6SM VCSH FEW004 SCT030 BKN040 FM141500 00000KT 4SM BCFG FEW004 BKN050 FM142100 24006KT P6SM BKN100 FM150300 11005KT P6SM -RA OVC050
PAKN,PAKN 140539Z 1406/1506 07006KT P6SM OVC110 FM142100 07013G23KT P6SM SCT100
PAKT,PAKT 140532Z 1406/1506 12016KT 6SM -RA BR BKN005 OVC013 TEMPO 1406/1410 5SM -RA BR OVC004 FM141500 15005KT P6SM VCSH SCT007 OVC015 FM142100 14007KT 6SM -RA BR BKN007 OVC015 AMD LTD TO CLD VIS AND WIND TIL 141500
PAKW,PAKW 132322Z 1400/1424 17010KT 5SM -SHRA OVC019 WS020/21035KT TEMPO 1400/1404 2SM SHRA OVC015 FM140400 20006KT 6SM -SHRA BR SCT015 OVC025 WS020/24025KT FM141200 20005KT P6SM OVC025 AMD LTD TO CLD VIS AND WIND
PAMC,PAMC 140538Z 1406/1506 VRB03KT P6SM FEW100 FM150000 03005KT P6SM SKC
PANC,PANC 140520Z 1406/1512 VRB06KT P6SM SKC FM141000 VRB06KT P6SM VCFG SKC FM141800 VRB06KT P6SM SCT100
PAOM,PAOM 140538Z 1406/1506 05009KT P6SM SKC
PAOR,PAOR 140538Z 1406/1506 VRB03KT P6SM FEW050 SCT120
PAOT,PAOT 140538Z 1406/1506 VRB04KT P6SM -SHSN FEW006 BKN060 OVC100 FM141200 VRB05KT P6SM SCT030 OVC050 FM142000 10012KT P6SM SCT030
PAPG,PAPG 140532Z 1406/1506 VRB05KT P6SM -RA FEW030 BKN040 TEMPO 1406/1410 FEW010 BKN025 OVC030 FM141200 VRB04KT 4SM BCFG FEW004 FM142100 VRB05KT P6SM VCSH SCT025 OVC050 FM150000 VRB05KT 5SM -RA BR OVC025 AMD LTD TO CLD VIS AND WIND TIL 141500
PAQT,PAQT 140538Z 1406/1506 25010KT P6SM SCT020 TEMPO 1406/1409 4SM -SHSN BR BKN025 OVC040 FM141400 24016KT P6SM VCSH OVC025
PASC,PASC 140538Z 1406/1506 25015KT P6SM OVC040 TEMPO 1406/1409 4SM -SHSN BR BKN025 OVC040 FM141900 25017G25KT 4SM BLSN VCSH OVC030
PASD,PASD 140539Z 1406/1506 15012G20KT 6SM -RA BR OVC018 FM141800 07011KT 4SM -RA BR BKN015 OVC025
PASI,PASI 140532Z 1406/1506 28004KT P6SM FEW015 BKN035 FM141200 09003KT P6SM VCFG SCT070 FM142100 09007KT P6SM VCSH OVC050 FM150000 09010KT P6SM -RA BKN025 OVC050
PASN,PASN 140539Z 1406/1506 06030G43KT 5SM -RA BR SCT007 OVC015 FM141800 05025G35KT 2SM -RA BR BKN007 OVC015
PASY,TAF AMD PASY 140240Z 1402/1504 36020G30KT 9999 SCT012 OVC025 620354 510004 QNH2952INS BECMG 1404/1405 35025KT 9999 BKN035 BKN050 620354 510023 QNH2982INS BECMG 1411/1412 30012KT 9999 SCT020 BKN035 620354 510023 QNH2999INS BECMG 1419/1420 30012KT 9999 BKN015 OVC035 620354 510023 QNH3001INS TX08/1415Z TN06/1421Z LIMITED METWATCH 1401 TIL 1409
PATA,PATA 140538Z 1406/1506 VRB03KT P6SM BKN050 OVC060 FM141800 07006KT P6SM SKC
PATK,PATK 140520Z 1406/1506 VRB06KT P6SM SKC
PAUN,PAUN 140538Z 1406/1506 08004KT P6SM SCT025 FM140900 08009KT P6SM SKC FM150000 07017G22KT P6SM SKC
PAVD,PAVD 140520Z 1406/1506 VRB06KT P6SM FEW100 AMD LTD TO CLD VIS AND WIND
PAWG,PAWG 140532Z 1406/1506 00000KT P6SM -RA FEW025 BKN035 OVC040 TEMPO 1406/1410 BKN025 OVC040 FM141500 10005KT P6SM SCT015 BKN025 FM142100 08005KT P6SM VCSH OVC025 FM150000 14003KT 5SM -RA BR OVC025 AMD LTD TO CLD VIS AND WIND TIL 141500
PAYA,PAYA 140532Z 1406/1506 00000KT P6SM SCT025 BKN040 FM141200 00000KT 4SM BCFG SKC FM141800 07004KT P6SM SKC FM150500 07003KT P6SM -SHRA BKN050 AMD LTD TO CLD VIS AND WIND
PGRO,PGRO 140542Z 1406/1506 19011KT P6SM VCSH BKN015 BKN100 TEMPO 1406/1410 5SM -SHRA BKN013 BKN050
PGSN,PGSN 140542Z 1406/1506 22011KT P6SM -SHRA SCT015 BKN040 BKN110 TEMPO 1406/1410 24011G21KT 3SM SHRA BKN015 BKN030 OVC100 FM141100 22011KT P6SM VCSH SCT018 BKN050 BKN110
PGUA,TAF AMD PGUA 140202Z 1402/1508 23012KT 9999 VCSH SCT009 BKN014 OVC100 QNH2971INS TEMPO 1402/1408 24015G25KT 6000 -SHRA BKN009 TEMPO 1408/1508 22012G18KT 8000 -SHRA TX29/1406Z TN24/1418Z
PGUM,PGUM 140542Z 1406/1512 20011KT P6SM VCSH FEW020 SCT030 FM141200 20008KT P6SM VCSH SCT020 BKN030 BKN100
PGWT,PGWT 140542Z 1406/1506 22011KT P6SM -SHRA SCT015 BKN040 BKN110 TEMPO 1406/1410 24011G21KT 3SM SHRA BKN015 BKN030 OVC100 FM141100 22011KT P6SM VCSH SCT018 BKN050 BKN110
PHHI,TAF AMD PHHI 132308Z 1323/1505 34009KT 9999 SCT020 BKN030 BKN045 QNH2994INS TEMPO 1400/1405 33010G15KT 4800 -SHRA FEW007 BKN012 OVC030 BECMG 1411/1412 VRB06KT 9999 FEW025 SCT035 QNH3005INS BECMG 1419/1420 02009KT 9999 SCT025 BKN035 QNH3010INS TX29/1423Z TN20/1415Z
PHJH,PHJH 132339Z 1400/1424 25009KT P6SM SCT030 FM140300 VRB05KT P6SM FEW030 FM142000 02011KT P6SM FEW030 SCT045
PHJR,PHJR 140537Z 1406/1506 06005KT P6SM FEW025 SCT040 BKN060 FM141800 23008KT P6SM FEW025 SCT040 SCT060 FM150000 36008KT P6SM FEW025 SCT040 BKN060
PHKO,PHKO 140537Z 1406/1506 31011KT P6SM VCSH SCT020 SCT035 BKN050 FM140800 04005KT P6SM FEW020 SCT035 SCT050 FM142000 31011KT P6SM FEW025 SCT035 BKN050
PHLI,PHLI 140537Z 1406/1506 34006KT P6SM VCSH SCT025 BKN045 FM142000 02012KT P6SM FEW025 SCT045 BKN090
PHMK,PHMK 140537Z 1406/1506 35008KT P6SM SCT020 SCT040 FM141800 02008KT P6SM FEW020 SCT040 BKN060 FM142200 02011KT P6SM VCSH SCT020 BKN040 FM150400 02011KT 5SM SHRA BKN015 OVC030
PHNG,TAF PHNG 1403/1503 36008KT 9999 SCT025 BKN030 QHN2994INS TEMPO 1403/1409 8000 -SHRA T24/1415Z T28/1422Z
PHNL,PHNL 140537Z 1406/1512 VRB05KT P6SM VCSH SCT025 BKN050 FM141000 35005KT P6SM FEW025 SCT050 FM142200 05011KT P6SM FEW025 SCT050 BKN070 FM150600 02005KT P6SM FEW025 SCT050 SCT070
PHNY,PHNY 140537Z 1406/1506 35008KT P6SM FEW020 SCT035 FM140800 05005KT P6SM SCT009 BKN020 FM142000 02011KT P6SM SCT015 BKN030 FM150000 02014KT P6SM SCT025 BKN040
PHOG,PHOG 140537Z 1406/1506 03008KT P6SM FEW030 SCT050 FM141800 07008KT P6SM FEW030 SCT050 FM150000 03014KT P6SM VCSH SCT020 BKN035
PHTO,PHTO 140537Z 1406/1506 VRB06KT P6SM VCSH SCT025 SCT040 BKN100 FM140900 24004KT P6SM FEW025 SCT040 FM142000 03008KT P6SM FEW025 SCT040 BKN080 FM150400 36008KT P6SM VCSH SCT025 BKN040
PKMJ,PKMJ 140542Z 1406/1506 08013KT P6SM VCSH FEW015 SCT050 SCT120
PKWA,PKWA 140542Z 1406/1506 10011KT P6SM VCSH FEW025 SCT035
PLCH,TAF PLCH 140520Z 1406/1506 11008KT 9999 SCT020 PROB30 TEMPO 1406/1408 11010G20KT PROB30 TEMPO 1418/1506 11015G25KT
PMDY,PMDY 140537Z 1406/1506 08009KT P6SM VCSH SCT035 SCT050 BKN100 FM150000 08012KT P6SM FEW035 SCT050 BKN100
PTKK,PTKK 140542Z 1406/1506 VRB06KT P6SM VCSH FEW014 SCT120
PTPN,PTPN 140542Z 1406/1506 10008KT P6SM VCSH SCT018 SCT130 OVC300
PTRO,PTRO 140542Z 1406/1506 25011KT P6SM VCSH SCT015 BKN120 TEMPO 1406/1410 25015G25KT 4SM SHRA BKN015 OVC110
PTSA,PTSA 132343Z 1400/1424 09011KT P6SM VCSH SCT020 BKN130 TEMPO 1400/1404 09011G21KT 3SM SHRA BKN018 OVC130
PTYA,PTYA 140542Z 1406/1506 24011KT P6SM VCSH FEW016 BKN130 TEMPO 1406/1410 4SM SHRA SCT016 BKN050 OVC120
PWAK,TAF PWAK 132200Z 1322/1504 09009KT 9999 SCT018 QNH2991INS TEMPO 1322/1404 9000 -SHRA BKN018 TX30/1401Z TN25/1408Z FOR MIL USE ONLY
RCFN,TAF RCFN 140500Z 1406/1506 06010KT 9999 FEW015 BKN032 TEMPO 1406/1410 03008KT FEW010 BKN020 BECMG 1410/1412 36007KT TEMPO 1500/1506 03010KT
RCKH,TAF RCKH 140500Z 1406/1512 27010KT 8000 FEW015 BKN032 TEMPO 1406/1412 33005KT BECMG 1412/1414 36005KT TEMPO 1418/1424 05005KT 3500 HZ FEW010 BKN020 BECMG 1501/1503 27005KT TEMPO 1503/1509 24008KT
RCMQ,TAF RCMQ 140500Z 1406/1506 01016KT 9999 FEW010 SCT020 TX29/1505Z TN20/1421Z BECMG 1412/1415 01012KT TEMPO 1418/1423 FEW010 BKN040 BECMG 1502/1505 01016KT FEW010 BKN060
RCNN,TAF RCNN 140500Z 1406/1506 34008KT 9999 FEW012 SCT060 TX30/1505Z TN20/1420Z BECMG 1411/1414 05004KT FEW012 BKN060 BECMG 1415/1418 FEW012 SCT060 TEMPO 1419/1424 8000 FEW012 SCT030 BKN060 BECMG 1501/1504 02010KT FEW012 BKN060
RCSS,TAF RCSS 140500Z 1406/1506 08005KT 6000 -RA FEW010 BKN020 TEMPO 1406/1412 08013KT FEW012 BKN032 TEMPO 1412/1418 08012KT 4000 RA FEW007 BKN013 TEMPO 1420/1424 4000 RA SCT007 BKN013 TEMPO 1500/1506 08013KT 3500 RA SCT006 BKN012
RCTP,TAF RCTP 140500Z 1406/1512 04020KT 7000 FEW010 BKN020 TEMPO 1406/1410 03025G35KT FEW012 BKN032 TEMPO 1414/1420 05015KT 4000 RA FEW007 BKN013 TEMPO 1420/1502 06015KT 4000 RA SCT007 BKN013 TEMPO 1502/1508 04023G33KT 3800 RA SCT006 BKN012
RJAA,TAF RJAA 140505Z 1406/1512 36010KT 9999 FEW008 BKN015 BECMG 1408/1410 4000 -RA BR FEW004 BKN008 TEMPO 1412/1421 3000 -RA BR FEW002 BKN004 BECMG 1421/1500 9999 NSW FEW008 BKN015
RJAH,TAF RJAH 140505Z 1406/1512 04008KT 9999 FEW008 BKN020 TEMPO 1412/1421 FEW004 BKN008 TEMPO 1421/1503 4000 -RA BR FEW004 BKN008
RJBB,TAF RJBB 140505Z 1406/1512 33004KT 9999 FEW020 BECMG 1408/1410 04015KT BECMG 1503/1506 28007KT BECMG 1509/1512 04015KT
RJCB,TAF RJCB 140506Z 1406/1512 16005KT 9999 FEW008 BKN020 BECMG 1412/1414 32004KT TEMPO 1414/1500 2000 BR FEW002 BKN004 BECMG 1500/1503 15008KT
RJCC,TAF RJCC 140505Z 1406/1512 14008KT 9999 FEW008 BKN015 TEMPO 1500/1506 FEW010 BKN025 FEW025CB
RJCH,TAF RJCH 140506Z 1406/1512 09007KT 9999 FEW015 TEMPO 1412/1421 FEW003 BKN006
RJCK,TAF RJCK 140506Z 1406/1512 20007KT 9999 FEW020 BKN045 BECMG 1409/1411 34005KT TEMPO 1415/1421 3000 BR FEW003 BKN005 BECMG 1500/1503 17007KT BECMG 1509/1512 33005KT
RJCM,TAF RJCM 140506Z 1406/1512 02006KT 9999 FEW020 SCT040 BECMG 1407/1409 19007KT TEMPO 1503/1509 FEW020 BKN040 FEW040CB
RJEC,TAF RJEC 140507Z 1406/1512 35005KT 9999 FEW020 SCT040 BECMG 1407/1409 17008KT TEMPO 1500/1506 FEW010 BKN025 FEW025CB BECMG 1503/1506 35006KT BECMG 1509/1512 17005KT
RJFF,TAF RJFF 140505Z 1406/1512 34011KT 9999 FEW030 BECMG 1411/1413 15004KT BECMG 1500/1503 31009KT
RJFK,TAF RJFK 140505Z 1406/1512 12010KT 9999 FEW030 BECMG 1411/1413 34004KT BECMG 1500/1503 18006KT
RJFM,TAF RJFM 140505Z 1406/1512 04012KT 9999 FEW020 BKN045 BECMG 1413/1415 28006KT BECMG 1500/1503 07007KT
RJFO,TAF RJFO 140505Z 1406/1512 03005KT 9999 FEW030 BECMG 1408/1410 26004KT BECMG 1421/1500 04010KT BECMG 1509/1512 30004KT
RJFR,TAF RJFR 140505Z 1406/1512 15005KT 9999 FEW030 BECMG 1407/1409 02010KT BECMG 1500/1503 16004KT BECMG 1506/1509 01012KT
RJFS,TAF RJFS 140509Z 1406/1512 26006KT 9999 FEW040 BECMG 1408/1410 02006KT BECMG 1503/1506 34005KT
RJFT,TAF RJFT 140509Z 1406/1512 24005KT 9999 FEW030 BECMG 1408/1410 09006KT BECMG 1500/1503 27005KT BECMG 1509/1512 10004KT
RJFU,TAF RJFU 140509Z 1406/1512 36009KT 9999 FEW040 BECMG 1413/1415 15005KT BECMG 1421/1500 29006KT
RJGG,TAF RJGG 140507Z 1406/1512 20008KT 9999 FEW030 BECMG 1410/1412 32010KT
RJNK,TAF RJNK 140505Z 1406/1512 04006KT 9999 FEW030 BECMG 1412/1414 16004KT BECMG 1500/1503 02014KT
RJNS,TAF RJNS 140506Z 1406/1512 08008KT 9999 FEW025 SCT040 BECMG 1411/1413 32004KT BECMG 1500/1503 08006KT
RJNT,TAF RJNT 140505Z 1406/1512 36008KT 9999 FEW020 BECMG 1408/1410 22004KT BECMG 1500/1503 02010KT
RJOA,TAF RJOA 140506Z 1406/1512 03006KT 9999 FEW025
RJOB,TAF RJOB 140506Z 1406/1512 02004KT 9999 FEW025
RJOC,TAF RJOC 140506Z 1406/1512 06012KT 9999 FEW020 BECMG 1411/1413 17005KT BECMG 1500/1503 06013KT
RJOH,TAF RJOH 140505Z 1406/1512 05010KT 9999 FEW030 BECMG 1412/1414 18004KT BECMG 1500/1503 05010KT
RJOI,TAF RJOI 1403/1503 04008KT 9999 FEW030 QNH2995INS FM141200 34006KT 9999 FEW025 FEW200 512406 QNH2995INS BECMG 1420/1422 02006KT 9999 FEW030 SCT060 SCT200 511909 QNH2997INS T26/1406Z T17/1421Z
RJOK,TAF RJOK 140508Z 1406/1512 20008KT 9999 FEW030 BECMG 1408/1410 35007KT BECMG 1503/1506 19009KT BECMG 1509/1512 35007KT
RJOM,TAF RJOM 140507Z 1406/1512 36012KT 9999 FEW030 BECMG 1407/1409 12007KT BECMG 1500/1503 35009KT BECMG 1509/1512 12007KT
RJOO,TAF RJOO 140506Z 1406/1512 35009KT 9999 FEW030
RJOT,TAF RJOT 140506Z 1406/1512 15006KT 9999 FEW025 SCT035
RJSA,TAF RJSA 140506Z 1406/1512 02005KT 9999 FEW030 BECMG 1408/1410 20004KT BECMG 1500/1503 02005KT BECMG 1509/1512 20004KT
RJSF,TAF RJSF 140505Z 1406/1512 36008KT 9999 FEW010 BKN020 TEMPO 1415/1500 3000 BR FEW001 BKN003 BKN005
RJSI,TAF RJSI 140506Z 1406/1512 19005KT 9999 FEW020 SCT030 BECMG 1410/1412 01004KT BECMG 1500/1503 19005KT
RJSK,TAF RJSK 140506Z 1406/1512 30005KT 9999 FEW030 BECMG 1407/1409 13005KT BECMG 1503/1506 30007KT
RJSN,TAF RJSN 140505Z 1406/1512 34008KT 9999 FEW030 SCT060 BECMG 1406/1408 03006KT BECMG 1500/1503 33010KT BECMG 1506/1509 01010KT
RJSS,TAF RJSS 140505Z 1406/1512 12005KT 9999 FEW020 SCT040 BECMG 1409/1411 34004KT BECMG 1500/1503 12008KT BECMG 1509/1512 34004KT
RJTT,TAF RJTT 140505Z 1406/1512 36012KT 9999 FEW015 BKN020 TEMPO 1415/1500 FEW005 BKN008
RJTY,TAF RJTY 140501Z 1405/1511 36009KT 9999 SCT025 BKN035 OVC060 QNH3007INS TEMPO 1405/1413 -RA SCT015 BKN025 OVC035 BECMG 1412/1413 34006KT 9999 SCT008 BKN015 OVC025 QNH3005INS TEMPO 1413/1420 4800 -RA BR SCT005 OVC008 BECMG 1423/1424 01009KT 9999 SCT015 BKN030 QNH3000INS TX21/1405Z TN15/1421Z
RKJB,TAF RKJB 140500Z 1406/1512 34007KT CAVOK TN12/1421Z TX22/1505Z BECMG 1412/1413 11005KT 9999 BKN035 BKN200 BECMG 1418/1419 4000 BR BECMG 1421/1422 7000 NSW FEW035 BKN200 BECMG 1502/1503 34006KT BECMG 1511/1512 11005KT
RKJK,TAF RKJK 140000Z 1400/1506 07006KT 9999 SCT200 QNH3003INS BECMG 1404/1405 35006KT 9999 FEW200 QNH3002INS BECMG 1410/1411 03006KT 8000 BR SCT180 QNH3003INS TEMPO 1418/1423 6000 BR TX20/1407Z TN13/1422Z
RKNY,TAF RKNY 140500Z 1406/1512 10006KT CAVOK TN13/1421Z TX20/1505Z BECMG 1409/1411 23010KT TEMPO 1423/1501 01006KT BECMG 1501/1503 09006KT BECMG 1509/1511 25006KT
RKPC,TAF RKPC 140500Z 1406/1512 07015G25KT 9999 SCT030 TN16/1420Z TX21/1505Z BECMG 1409/1410 10010KT BECMG 1414/1415 BKN030 BECMG 1500/1501 07015G25KT SCT030 BECMG 1510/1511 BKN030
RKPK,TAF RKPK 140500Z 1406/1512 03006KT 9999 SCT030 TN12/1421Z TX25/1506Z BECMG 1409/1410 33006KT
RKSG,TAF RKSG 140300Z 1403/1509 VRB06KT 9999 SCT180 SCT260 QNH3007INS TX21/1406Z TN11/1422Z
RKSI,TAF RKSI 140500Z 1406/1512 32007KT CAVOK TN13/1421Z TX21/1505Z BECMG 1416/1418 07006KT TEMPO 1419/1501 01006KT 6000 NSC BECMG 1501/1503 32006KT
RKSM,TAF RKSM 140500Z 1406/1512 15006KT 9999 SCT030 BKN180 TN11/1421Z TX23/1506Z
RKSO,TAF RKSO 140500Z 1405/1511 33006KT 9999 FEW030 SCT200 QNH3007INS BECMG 1417/1418 01006KT 8000 BR FEW030 FEW200 QNH3009INS BECMG 1418/1419 05006KT 4800 BR FEW030 FEW200 QNH3010INS BECMG 1500/1501 10006KT 9999 NSW FEW030 FEW200 QNH3011INS BECMG 1507/1508 35006KT 9999 FEW030 SCT200 QNH3007INS TX22/1405Z TN12/1421Z
RKSS,TAF RKSS 140500Z 1406/1512 35005KT CAVOK TN10/1421Z TX23/1505Z BECMG 1414/1415 06005KT 6000 NSC BECMG 1417/1419 4000 BR BECMG 1420/1422 6000 NSW BECMG 1502/1504 32005KT CAVOK
RKTN,TAF RKTN 140500Z 1406/1512 12006KT 9999 SCT030 SCT200 TX24/1406Z TN10/1421Z
RKTU,TAF RKTU 140500Z 1406/1512 09006KT 9999 SCT030 BKN200 TN09/1421Z TX23/1506Z BECMG 1419/1420 06006KT 4800 BR BECMG 1421/1422 3200 BECMG 1423/1424 4800 BECMG 1500/1501 9999 NSW
ROAH,TAF ROAH 140507Z 1406/1512 06018KT 9999 FEW015 BKN025 TEMPO 1412/1415 4000 SHRA FEW008 BKN015 FEW020CB TEMPO 1500/1509 08019G30KT
RODN,TAF AMD RODN 140230Z 1402/1506 04015G20KT 9999 VCSH SCT025 BKN050 QNH2970INS TEMPO 1403/1406 8000 -SHRA BKN018 BECMG 1415/1416 08012G18KT 9000 -SHRA SCT020 BKN030 QNH2969INS TEMPO 1416/1420 4800 VCTS BKN020CB BECMG 1423/1424 09012KT 9999 NSW SCT020 BKN030 QNH2971INS TX30/1405Z TN25/1419Z
ROIG,TAF ROIG 140512Z 1406/1512 03018KT 9999 FEW010 BKN020 TEMPO 1412/1418 4000 SHRA SCT008 BKN015 FEW020CB
ROTM,TAF ROTM 1403/1503 05012G20KT 9999 VCSH SCT020 SCT060 QNH2969INS TEMPO 1403/1409 05014G22KT 8000 -SHRA BKN020 BKN060 BECMG 1409/1411 07010G18KT 9000 -SHRA SCT020 BKN060 BKN150 611609 QNH2970INS TEMPO 1415/1421 07012G20KT 6000 SHRA BKN020 BKN040 FM142100 09010G16KT 9999 VCSH SCT020 SCT150 611609 QNH2971INS T30/1405Z T25/1418Z
RPLB,TAF RPLB 140500Z 1406/1506 23006KT 9999 FEW020 SCT300 TX32/1406Z TN25/1421Z TEMPO 1406/1412 29009KT 8000 TS -SHRA FEW016CB SCT018 BKN080
RPLC,TAF RPLC 140500Z 1406/1512 14008KT 9999 SCT020 BKN300 TX34/1406Z TN26/1421Z TEMPO 1406/1412 20010KT 7000 -TSRA FEW015CB SCT020 BKN100
RPLI,TAF RPLI 140500Z 1406/1506 02012KT 9999 FEW018 SCT290 TEMPO 1406/1412 04010G20KT 8000 VCSH FEW017CB SCT018 TEMPO 1504/1506 36012G28KT 5000 TS SHRA FEW017CB SCT018 OVC090
RPLL,TAF RPLL 140500Z 1406/1512 26006KT 9999 FEW025 SCT100 BKN300 TX32/1406Z TN26/1421Z TEMPO 1406/1412 24010KT 7000 SHRA FEW022CB SCT023 BKN090 TEMPO 1412/1416 22007KT 6000 -TSRA FEW020CB SCT022 OVC090 TEMPO 1416/1422 VRB05KT 5000 -RA SCT020 OVC080
RPMD,TAF RPMD 140500Z 1406/1506 18006KT 9999 FEW016 SCT290 TEMPO 1406/1412 22010KT -SHRA FEW015CB SCT016 BKN090 TEMPO 1412/1416 16008KT FEW015CB BKN090 BKN290
RPMR,TAF RPMR 140500Z 1406/1506 18006KT 9999 FEW018 SCT080 BKN250 TEMPO 1406/1412 22012KT 8000 -TSRA FEW017CB SCT018 BKN080
RPMZ,TAF RPMZ 140500Z 1406/1506 24006KT 9999 FEW017 SCT090 BKN300 TEMPO 1406/1412 26008KT -TSRA FEW016CB SCT017 BKN090
RPVD,TAF RPVD 140500Z 1406/1506 32006KT 9999 FEW015 SCT070 BKN220 TEMPO 1406/1412 25010KT -SHRA FEW014CB SCT015 BKN070
RPVM,TAF RPVM 140500Z 1406/1512 22007KT 9999 FEW020 SCT300 TEMPO 1406/1412 23008KT 9000 -TSRA FEW018CB OVC100 TEMPO 1412/1418 VRB03KT 8000 TSRA FEW018CB OVC090
RPVP,TAF RPVP 140500Z 1406/1506 21008KT 9999 FEW019 SCT080 BKN240 TEMPO 1406/1412 24012KT -TSRA FEW017CB SCT019 BKN080 TEMPO 1412/1418 27010KT -SHRA FEW017CB SCT019 BKN080
SAAR,TAF SAAR 140500Z 1406/1506 10010KT CAVOK TX21/1419Z TN08/1410Z BECMG 1410/1415 09015KT BECMG 1422/1501 BKN030 OVC100 BECMG 1402/1404 3000 RA BKN020 OVC035
SABE,TAF SABE 140500Z 1406/1506 06015KT 9999 BKN035 TX17/1419Z TN11/1410Z BECMG 1416/1419 09020KT SCT030
SACO,TAF SACO 140500Z 1406/1506 29005KT CAVOK TX21/1418Z TN05/1310Z BECMG 1412/1415 07010KT 9999 BKN040 BECMG 1420/1423 7000 -DZ RA OVC010 FEW050TCU BECMG 1500/1503 18010KT
SADF,TAF SADF 140500Z 1406/1506 050015KT 9999 FEW040 TX18/1419Z TN10/1410Z BECMG 1416/1419 09020KT SCT030
SAEZ,TAF SAEZ 140500Z 1406/1506 12005KT 9999 SCT030 TX19/1419Z TN07/1409Z BECMG 1413/1415 09015G25KT CAVOK BECMG 1502/1504 09005KT
SAME,TAF SAME 140500Z 1406/1506 VRB03KT CAVOK TX23/1420Z TN05/1411Z PROB40 TEMPO 1411/1414 6000 HZ NSC BECMG 1415/1418 05010KT
SANR,TAF SANR 132300Z 1400/1424 14005KT CAVOK TX26/1418Z TN10/1410Z BECMG 1411/1414 BKN040
SANT,TAF SANT 140500Z 1406/1506 20005KT 7000 NSC TX28/1418Z TN12/1410Z BECMG 1417/1419 07010KT BECMG 1423/1502 27005KT
SARE,TAF SARE 140500Z 1406/1506 14005KT 2000 BR NSC TX31/1418Z TN13/1410Z BECMG 1410/1411 CAVOK
SARF,TAF SARF 132300Z 1400/1424 14005KT CAVOK TX31/1418Z TN16/1410Z
SARI,TAF SARI 140500Z 1406/1506 VRB02KT 6000 -RA SCT004 OVC010 TX27/1418Z TN13/1410Z BECMG 1407/1408 0500 BCFG BKN003 BECMG 1412/1413 9999 FEW020 BECMG 1415/1417 3000 RADZ OVC010
SARP,TAF SARP 140500Z 1406/1506 16005KT 1500 BR NSC TX27/1418Z TN14/1410Z BECMG 1411/1412 CAVOK PROB30 1503/1506 0800 BCFG NSC 
SASA,TAF SASA 140500Z 1406/1506 36005KT 9999 BKN050 TX23/1418Z TN11/1410Z BECMG 1413/1416 05015KT 9999 NSC BECMG 1423/1502 25005KT 9999 BKN040
SASJ,TAF SASJ 140500Z 1406/1506 20010KT 8000 OVC050 TX24/1418Z TN14/1410Z BECMG 1414/1417 07015KT CAVOK BECMG 1423/1502 28015KT 9999 BKN040
SAVC,TAF SAVC 140520Z 1406/1506 VRB03KT CAVOK TX19/1419Z TN05/1410Z BECMG 1410/1412 30010KT
SAWE,TAF SAWE 140520Z 1406/1506 31015KT CAVOK TX11/1419Z TN05/1410Z BECMG 1407/1409 30020KT 9999 SCT020 BKN030 BECMG 1416/1418 SCT030 SCT090 BECMG 1423/1424 30030G45KT BKN030 BKN090
SAWG,TAF SAWG 140520Z 1406/1506 30010KT CAVOK TX16/1419Z TN03/1410Z BECMG 1412/1414 30015KT 9999 SCT030 BKN090 BECMG 1503/1505 25025G35KT
SAWH,TAF SAWH 140520Z 1406/1506 VRB05KT 9999 FEW040 BKN065 TX09/1419Z TN03/1406Z TEMPO 1407/1415 25020KT -SHRA FEW010 BKN020 BECMG 1415/1417 30012KT SCT020 SCT030 BECMG 1421/1423 32020G30KT SCT030 BKN090 BECMG 1503/1504 23025G35KT 5000 RA BKN020 BKN050
SAZM,TAF SAZM 140500Z 1406/1506 VRB03KT CAVOK TX12/1419Z TN00/1410Z TEMPO 1406/1409 25005KT 3000 BR BECMG 1413/1417 05015KT BECMG 1423/1501 02010KT
SAZN,TAF SAZN 140500Z 1406/1506 VRB03KT CAVOK TX21/1419Z TN06/1410Z BECMG 1413/1417 05015KT BECMG 1423/1501 05010KT
SAZS,TAF SAZS 140500Z 1406/1506 VRB03KT 9999 SCT045 TX15/1419Z TN01/1411Z BECMG 1406/1408 4000 BR SCT020 BECMG 1410/1412 9999 NSW SCT035 BECMG 1417/1419 30010KT CAVOK BECMG 1500/1503 VRB03KT
SBAF,TAF SBAF 132100Z 1400/1412 19005KT CAVOK TN21/1406Z TX27/1412Z PROB30 1406/1408 3000 BR BECMG 1409/1411 16005KT RMK PEH
SBAN,TAF SBAN 132100Z 1400/1412 09008KT CAVOK TN20/1406Z TX30/1412Z RMK PEH
SBAR,TAF SBAR 140024Z 1406/1506 13010KT 8000 SCT023 TN25/1409Z TX29/1416Z TEMPO 1409/1412 7000 BKN017 RMK PHC
SBAT,TAF SBAT 132015Z 1400/1412 02005KT 8000 SCT025 BKN030 TN23/1409Z TX25/1412Z PROB40 1400/1402 4000 TSRA BKN014 FEW030CB RMK PHP
SBBE,TAF SBBE 140025Z 1406/1506 04005KT CAVOK TN24/1409Z TX32/1416Z BECMG 1410/1412 08010KT 9999 BKN020 BECMG 1415/1417 03010KT BKN035 FEW045TCU PROB40 1418/1421 35015KT 6000 TSRA BKN020 FEW030CB BECMG 1421/1423 04010KT CAVOK RMK PGB
SBBG,TAF SBBG 140300Z 1406/1418 12015KT 9999 BKN013 TN08/1407Z TX18/1417Z BECMG 1415/1417 SCT015 BKN030 RMK PFP
SBBI,TAF SBBI 132100Z 1400/1412 10005KT 8000 BKN010 TN16/1406Z TX19/1412Z BECMG 1403/1405 3000 RA BR BKN005 BECMG 1409/1411 8000 BKN010 RMK PEH
SBBR,TAF SBBR 132300Z 1406/1506 11005KT CAVOK TN17/1409Z TX32/1418Z BECMG 1409/1411 08010KT BECMG 1418/1420 11005KT RMK PGN
SBBU,TAF SBBU 132100Z 1400/1412 14007KT 9999 SCT040 TX26/1400Z TN21/1408Z RMK PGQ
SBBV,TAF SBBV 140025Z 1406/1506 34005KT 8000 SCT020 FEW045TCU TN23/1410Z TX32/1420Z BECMG 1407/1409 06010KT 7000 SCT017 BKN040 BECMG 1412/1414 09013KT 9999 BKN020 FEW035TCU TEMPO 1416/1420 12013KT 3500 TSRA BKN015 FEW025CB BECMG 1421/1423 06007KT SCT035 BECMG 1504/1506 03007KT RMK PGB
SBBW,TAF SBBW 132000Z 1400/1412 07008KT CAVOK TN21/1409Z TX27/1412Z BECMG 1401/1403 27004KT BECMG 1409/1411 10005KT RMK PGN
SBCB,TAF SBCB 140024Z 1406/1418 05015KT 8000 FEW017 TN23/1409Z TX29/1418Z RMK PHC
SBCF,TAF SBCF 140400Z 1406/1506 12005KT CAVOK TN18/1409Z TX32/1418Z BECMG 1409/1411 09007KT BECMG 1414/1416 FEW045 PROB30 1417/1421 08012KT 9999 FEW040TCU BECMG 1421/1423 11005KT CAVOK BECMG 1501/1503 14005KT RMK PGO
SBCG,TAF SBCG 132300Z 1406/1506 15010KT 9999 FEW040 TN20/1410Z TX28/1417Z PROB30 1406/1409 SHRA BKN015 FEW045TCU TEMPO 1416/1423 14013KT TSRA SCT023 FEW045CB RMK PGN
SBCJ,TAF SBCJ 140025Z 1406/1418 32005KT 6000 NSC TN23/1410Z TX30/1418Z BECMG 1410/1412 36005KT 4000 FU SCT015 BECMG 1414/1416 06010KT 7000 NSW SCT020 RMK PGB
SBCO,TAF SBCO 132100Z 1400/1412 13010KT 9999 SCT030 TN15/1406Z TX18/1412Z RMK PEH
SBCP,TAF SBCP 140024Z 1406/1418 04007KT 8000 FEW017 TN23/1409Z TX31/1418Z BECMG 1410/1413 07012KT RMK PHC
SBCR,TAF SBCR 132300Z 1406/1506 20003KT 8000 FEW020 TN21/1409Z TX29/1417Z TEMPO 1406/1412 6000 TSRA BKN010 FEW025CB TEMPO 1416/1423 18010KT 6000 TSRA BKN013 FEW030CB BECMG 1500/1502 18003KT RMK PGN
SBCT,TAF SBCT 140300Z 1406/1506 05006KT 3500 RA BR BKN012 TX20/1416Z TN14/1505Z PROB30 1407/1411 BKN005 BECMG 1413/1415 13010G25KT 2000 RA BKN005 BECMG 1418/1419 4000 RA BR OVC003 RMK PEC
SBCY,TAF SBCY 140013Z 1406/1506 31002KT 9999 SCT020 TN23/1410Z TX32/1418Z BECMG 1412/1414 16007KT BECMG 1504/1506 22002KT RMK PHP
SBCZ,TAF SBCZ 140013Z 1406/1506 32005KT 7000 SCT030 TN24/1406Z TX34/1418Z PROB30 1406/1408 4500 DZ BR BKN005 BKN010 TEMPO 1412/1415 18010KT 4000 TSRA BKN014 FEW040CB TEMPO 1418/1422 16015KT 4000 TSRA BKN014 FEW030CB RMK PHP
SBDN,TAF SBDN 132100Z 1400/1412 15010KT CAVOK TX24/1400Z TN20/1409Z BECMG 1402/1404 08005KT RMK PGQ
SBEG,TAF SBEG 140025Z 1406/1506 02005KT 9999 FEW020 TN24/1409Z TX33/1418Z BECMG 1410/1412 08010KT 8000 RA SCT020 FEW030TCU TEMPO 1413/1417 5000 TSRA BKN017 FEW027CB BECMG 1418/1419 04010KT 9999 NSW SCT030 FEW040TCU BECMG 1421/1422 08007KT FEW030 BECMG 1504/1506 04007KT RMK PGB
SBFI,TAF SBFI 140300Z 1406/1506 09005KT 9999 VCSH SCT025 FEW030TCU TN15/1407Z TX27/1418Z BECMG 1408/1410 SCT025 BECMG 1413/1415 02005KT SCT030 FEW040TCU PROB30 1415/1418 3000 TSRA SCT030 FEW040CB BECMG 1420/1422 CAVOK BECMG 1502/1503 0600 FG NSC RMK PEC
SBFL,TAF SBFL 140300Z 1406/1506 31009KT 9999 SCT025 TN18/1408Z TX23/1417Z TEMPO 1408/1416 8000 RA BKN010 BKN020 RMK PEB
SBFN,TAF SBFN 140024Z 1406/1418 18007KT 9999 SCT020 TN25/1409Z TX30/1415Z BECMG 1406/1408 15012KT RMK PHC
SBFZ,TAF SBFZ 140024Z 1406/1506 11013KT 9999 SCT023 TN26/1409Z TX32/1417Z BECMG 1406/1408 14013KT BECMG 1412/1414 10015KT BECMG 1419/1421 09010KT BECMG 1500/1502 11013KT RMK PHC
SBGL,TAF SBGL 140024Z 1406/1512 32005KT 8000 FEW020 TN22/1409Z TX29/1417Z BECMG 1406/1409 04003KT 4000 BR BKN010 BECMG 1409/1412 08005KT 8000 NSW SCT017 BECMG 1413/1416 15010KT BECMG 1417/1419 21012KT BECMG 1422/1501 25007KT 7000 BKN016 BECMG 1505/1508 18006KT 4000 RA BR BKN012 BECMG 1508/1511 09006KT 7000 NSW RMK PHC
SBGO,TAF SBGO 132300Z 1406/1506 08008KT CAVOK TN20/1409Z TX34/1418Z BECMG 1416/1418 12005KT BECMG 1420/1422 15005KT BECMG 1500/1502 10003KT RMK PGN
SBGR,TAF SBGR 140230Z 1406/1512 00000KT 8000 NSC TN17/1409Z TX26/1415Z PROB30 1407/1411 0800 FG BKN002 BECMG 1412/1414 17005KT BKN015 BECMG 1420/1422 BKN011 BECMG 1501/1503 13005KT RMK PGE
SBGW,TAF SBGW 131500Z 1318/1406 06005KT CAVOK TX33/1318Z TN19/1406Z BECMG 1322/1324 10005KT RMK PEH
SBIH,TAF SBIH 132000Z 1400/1412 04005KT 9999 SCT020 TN23/1410Z TX26/1412Z BECMG 1410/1412 07015KT 5000 SHRA BKN010 FEW023TCU RMK PGB
SBIL,TAF SBIL 132000Z 1400/1412 13010KT 9999 SCT020 TN24/1408Z TX27/1412Z TEMPO 1406/1411 7000 SHRA BKN016 FEW023TCU RMK PGN
SBIZ,TAF SBIZ 132000Z 1400/1412 05005KT 9999 FEW030 TN25/1410Z TX29/1412Z BECMG 1404/1406 01005KT CAVOK BECMG 1409/1411 07010KT 9999 FEW030 RMK PGB
SBJE,TAF SBJE 132200Z 1400/1412 08010KT 9999 FEW020 TN26/1409Z TX31/1412Z RMK PHC
SBJP,TAF SBJP 140024Z 1406/1506 17006KT 8000 SCT020 TN23/1409Z TX30/1417Z BECMG 1406/1408 20006KT BECMG 1410/1413 12015KT BECMG 1421/1423 14010KT BECMG 1500/1503 17006KT RMK PHC
SBJV,TAF SBJV 132100Z 1400/1412 25005KT 9999 SCT040 TN13/1406Z TX16/1412Z BECMG 1406/1408 21003KT RMK PEH
SBKG,TAF SBKG 132200Z 1400/1412 11010KT 9999 FEW020 TN20/1409Z TX25/1412Z BECMG 1400/1402 14007KT BECMG 1404/1407 8000 BKN010 RMK PHC
SBKP,TAF SBKP 140230Z 1406/1506 14006KT 8000 NSC TN19/1409Z TX31/1416Z BECMG 1408/1410 05005KT BECMG 1411/1413 19005KT FEW025 RMK PGE
SBLO,TAF SBLO 132330Z 1406/1418 18008KT 9999 BKN020 TN19/1409Z TX24/1417Z PROB30 1408/1411 3000 BR BKN005 RMK PGQ
SBMA,TAF SBMA 140025Z 1406/1418 01005KT CAVOK TN24/1409Z TX37/1418Z BECMG 1409/1411 34010KT 9999 SCT017 BECMG 1414/1416 08010KT SCT025 RMK PGB
SBME,TAF SBME 132200Z 1400/1412 07008KT 9999 FEW020 TN23/1409Z TX30/1412Z BECMG 1400/1402 03006KT BECMG 1409/1411 07008KT RMK PHC
SBMN,TAF SBMN 140300Z 1406/1418 05006KT 9999 FEW030 TN26/1408Z TX35/1417Z BECMG 1416/1418 09007KT 8000 TSRA BKN020 FEW035CB RMK PEB
SBMO,TAF SBMO 140024Z 1406/1506 15005KT 7000 BKN016 TN23/1409Z TX28/1416Z BECMG 1406/1409 12005KT 4000 BR BECMG 1409/1412 7000 NSW BECMG 1412/1414 13010KT 8000 BKN023 BECMG 1419/1422 15005KT SCT023 BECMG 1500/1502 12005KT RMK PHC
SBMQ,TAF SBMQ 140025Z 1406/1506 36005KT 9999 FEW020 TN25/1409Z TX34/1418Z BECMG 1409/1411 7000 DZ SCT010 BECMG 1412/1414 09010KT 9999 NSW SCT023 BECMG 1416/1418 07015KT SCT030 FEW040TCU BECMG 1421/1423 05010KT FEW025 BECMG 1502/1505 36007KT SCT017 RMK PGB
SBNF,TAF SBNF 140300Z 1406/1506 24008KT 9999 BKN020 TN19/1408Z TX24/1417Z TEMPO 1408/1416 27006KT 8000 RA BKN010 BKN020 RMK PEB
SBNT,TAF SBNT 140024Z 1406/1418 17008KT 8000 SCT023 TN23/1409Z TX29/1417Z BECMG 1409/1412 14012KT TEMPO 1414/1417 14014G24KT RMK PHC
SBOI,TAF SBOI 140025Z 1406/1418 09005KT 9999 FEW020 TN23/1410Z TX35/1417Z BECMG 1409/1411 11010KT SCT017 BECMG 1416/1418 08015KT SCT040 RMK PGB
SBPA,TAF SBPA 140300Z 1406/1506 16015KT 5000 BR BKN008 TX18/1417Z TN15/1500Z BECMG 1414/1416 8000 SCT010 BKN020 BECMG 1501/1503 SCT025 RMK PFP
SBPB,TAF SBPB 140024Z 1406/1418 15010KT 9999 FEW020 TN26/1409Z TX34/1415Z BECMG 1410/1413 13015KT RMK PHC
SBPJ,TAF SBPJ 140024Z 1406/1506 07005KT 7000 FEW035 TN25/1408Z TX36/1418Z BECMG 1406/1409 13005KT 5000 FU BECMG 1409/1412 27005KT 7000 NSW BECMG 1412/1414 30008KT BECMG 1420/1423 20005KT BECMG 1500/1502 07005KT RMK PHC
SBPK,TAF SBPK 140300Z 1406/1506 18008KT 7000 SCT007 TN11/1406Z TX17/1418Z BECMG 1410/1412 10015KT 9999 SCT010 BKN030 BECMG 1501/1503 SCT030 RMK PFP
SBPL,TAF SBPL 140024Z 1406/1506 18007KT 9999 FEW035 TN24/1409Z TX35/1418Z BECMG 1409/1412 15012KT BECMG 1420/1422 18007KT RMK PHC
SBPP,TAF SBPP 132330Z 1406/1506 02005KT 8000 BKN015 TN19/1410Z TX28/1417Z TEMPO 1406/1412 4000 RA BR BKN005 PROB30 TEMPO 1414/1420 20010KT 5000 RA BR BKN007 RMK PGQ
SBPS,TAF SBPS 140024Z 1406/1506 07008KT 8000 SCT020 TN23/1409Z TX27/1417Z BECMG 1406/1408 10008KT PROB40 1411/1413 7000 BKN016 BECMG 1504/1506 7000 BKN017 RMK PHC
SBPV,TAF SBPV 140013Z 1406/1506 07002KT 7000 SCT020 TN23/1409Z TX32/1418Z PROB30 1406/1409 4000 TSRA BKN010 FEW025CB BECMG 1416/1418 36005KT TEMPO 1419/1424 17005KT 4500 TSRA BKN010 FEW035CB TEMPO 1500/1503 14002KT TS BKN014 FEW045CB BECMG 1504/1506 07002KT RMK PHP
SBRB,TAF SBRB 140013Z 1406/1418 07005KT 7000 BKN020 TN22/1409Z TX29/1417Z PROB40 TEMPO 1410/1413 4000 TSRA BKN008 FEW030CB PROB30 TEMPO 1416/1418 4000 TSRA BKN014 FEW040CB RMK PHP
SBRF,TAF SBRF 140024Z 1406/1506 12007KT 8000 BKN020 TN26/1409Z TX29/1416Z BECMG 1406/1409 15007KT 4000 BR BECMG 1409/1412 15013KT 7000 NSW BECMG 1420/1423 15008KT SCT020 BECMG 1501/1503 14008KT BKN020 TEMPO 1504/1506 4000 RA BR RMK PHC
SBRJ,TAF SBRJ 140024Z 1406/1418 34005KT 8000 SCT015 TN22/1409Z TX27/1418Z BECMG 1406/1409 01005KT 4000 BR BKN007 BECMG 1409/1412 8000 NSW SCT017 BECMG 1413/1416 20010KT RMK PHC
SBRP,TAF SBRP 132300Z 1406/1418 12005KT CAVOK TN20/1408Z TX35/1418Z BECMG 1409/1411 07005KT BECMG 1413/1415 03005KT FEW040 RMK PGN
SBSC,TAF SBSC 132100Z 1400/1412 20005KT CAVOK TN21/1406Z TX25/1412Z PROB30 1406/1408 3000 BR BECMG 1409/1411 18008KT 9999 SCT025 RMK PEH
SBSG,TAF SBSG 140024Z 1406/1506 21007KT 9999 SCT023 TN23/1409Z TX31/1416Z BECMG 1406/1408 24006KT BECMG 1409/1412 19010KT BECMG 1413/1415 16014KT TEMPO 1415/1419 17014G25KT BECMG 1420/1423 17008KT BECMG 1500/1502 21007KT RMK PHC
SBSJ,TAF SBSJ 140230Z 1406/1418 00000KT 8000 SCT006 TN17/1409Z TX27/1416Z PROB30 1408/1411 3000 BR BKN005 BECMG 1411/1413 23005KT BKN020 BECMG 1414/1416 20009KT BKN025 RMK PGE
SBSL,TAF SBSL 140024Z 1406/1506 04008KT CAVOK TN27/1408Z TX34/1417Z BECMG 1410/1412 07013KT SCT025 BECMG 1414/1417 36013KT BKN025 BECMG 1419/1422 04010KT FEW025 RMK PHC
SBSM,TAF SBSM 132100Z 1400/1412 17005KT 9999 SCT030 TN12/1406Z TX17/1412Z BECMG 1407/1409 12010KT SCT015 RMK PEH
SBSN,TAF SBSN 140025Z 1406/1506 05007KT 7000 BKN017 FEW025TCU TN25/1410Z TX31/1419Z TEMPO 1406/1410 12015KT 4500 TSRA BKN013 FEW020CB BECMG 1410/1412 10010KT BKN017 BECMG 1414/1416 08015KT 9999 SCT025 FEW035TCU BECMG 1418/1420 12010KT FEW025 BECMG 1504/1506 07010KT 8000 BKN023 FEW030TCU RMK PGB
SBSP,TAF SBSP 140230Z 1406/1418 00000KT 8000 NSC TN17/1409Z TX25/1415Z PROB30 1407/1411 3000 BR OVC005 BECMG 1411/1413 20009KT BKN012 BECMG 1413/1415 5000 BR OVC006 BECMG 1416/1418 8000 OVC009 RMK PGE
SBSV,TAF SBSV 140400Z 1406/1506 12010KT 9999 SCT020 FEW023TCU TN24/1408Z TX29/1417Z PROB30 1409/1414 FEW020 FEW023TCU TEMPO 1414/1417 VCSH SCT020 FEW023TCU TEMPO 1504/1506 VCSH SCT020 FEW023TCU RMK PGO
SBTD,TAF SBTD 132330Z 1406/1418 05005KT 8000 SCT020 TN17/1409Z TX24/1417Z TEMPO 1415/1418 4000 TSRA SCT005 BKN020 FEW030CB RMK PGQ
SBTE,TAF SBTE 140024Z 1406/1418 36005KT 9999 FEW030 TN25/1409Z TX37/1417Z BECMG 1406/1408 07005KT BECMG 1412/1415 14008KT RMK PHC
SBTF,TAF SBTF 140025Z 1406/1418 12010KT 4000 TSRA BKN017 FEW025CB TN25/1409Z TX34/1418Z BECMG 1410/1412 08010KT 7000 RA SCT010 OVC017 BECMG 1414/1416 8000 NSW BKN020 FEW030TCU RMK PGB
SBTT,TAF SBTT 140013Z 1406/1506 34003KT 7000 SCT025 FEW030TCU TN23/1411Z TX32/1419Z PROB30 TEMPO 1406/1409 4000 BR BKN006 PROB40 TEMPO 1412/1421 07005KT 4000 TSRA SCT015 FEW020CB TEMPO 1500/1506 4000 TSRA BKN020 FEW030CB RMK PHP
SBUG,TAF SBUG 140300Z 1406/1418 13015KT CAVOK TN10/1406Z TX24/1417Z RMK PFP
SBUL,TAF SBUL 132000Z 1400/1412 10005KT CAVOK TN20/1408Z TX26/1412Z BECMG 1408/1410 05015KT RMK PGN
SBUR,TAF SBUR 132000Z 1400/1412 04010KT CAVOK TN21/1408Z TX27/1412Z BECMG 1408/1410 02015KT RMK PGN
SBVH,TAF SBVH 132015Z 1400/1412 21005KT 7000 BKN020 TN21/1411Z TX23/1412Z BECMG 1404/1406 11007KT RMK PHP
SBVT,TAF SBVT 140024Z 1406/1506 01007KT 9999 FEW025 TN22/1409Z TX30/1416Z BECMG 1406/1408 34006KT BECMG 1410/1413 02010KT BECMG 1414/1416 06015KT BECMG 1421/1423 03010KT BECMG 1500/1502 01007KT RMK PHC
SBYS,TAF SBYS 132100Z 1400/1412 18003KT CAVOK TN21/1406Z TX30/1412Z BECMG 1409/1411 04005KT RMK PEH
SCAR,TAF SCAR 140400Z 1406/1506 20004KT 9999 OVC027 TN16/1406Z TX18/1418Z BECMG 1416/1418 23010KT CAVOK BECMG 1500/1502 20004KT
SCAT,TAF SCAT 140400Z 1406/1506 12004KT 8000 OVC007 TN12/1410Z TX17/1418Z TEMPO 1406/1410 4500 BR OVC004 BECMG 1411/1413 01012KT 9999 OVC015 BECMG 1417/1419 33018KT BKN028 BECMG 1423/1501 OVC017 BECMG 1504/1506 34008KT
SCBA,TAF SCBA 140311Z 1406/1506 30015KT 9999 FEW040 TN02/1406Z TX12/1418Z BECMG 1413/1415 30023KT BECMG 1502/1504 30012KT
SCCF,TAF SCCF 140400Z 1406/1506 10017KT CAVOK TN00/1410Z TX24/1418Z BECMG 1413/1414 09004KT BECMG 1415/1417 28020KT TEMPO 1417/1421 28025G35KT BECMG 1423/1501 27008KT BECMG 1503/1505 11015KT
SCCI,TAF SCCI 140402Z 1406/1506 33015KT 9999 SCT035 TN05/1406Z TX12/1419Z BECMG 1406/1408 29025G35KT TEMPO 1408/1412 8000 -SHRA SCT015 BKN025 TEMPO 1414/1417 28035G48KT TEMPO 1423/1504 25035G48KT 8000 -SHRA SCT015 BKN030
SCDA,TAF SCDA 140400Z 1406/1506 12004KT 9999 OVC028 TN15/1406Z TX18/1418Z BECMG 1413/1415 27006KT BECMG 1416/1418 22010KT CAVOK BECMG 1500/1502 34004KT
SCEL,TAF SCEL 140400Z 1406/1506 16004KT 8000 NSC TX28/1419Z TN08/1410Z TEMPO 1408/1412 VRB02KT BECMG 1416/1418 20008KT CAVOK BECMG 1419/1421 20015KT BECMG 1502/1504 15004KT
SCFA,TAF SCFA 140400Z 1406/1506 01004KT 9999 OVC020 TN13/1410Z TX17/1418Z BECMG 1413/1415 30006KT FEW030 BECMG 1417/1419 21012KT BECMG 1500/1502 15004KT OVC026 BECMG 1504/1506 01010KT
SCIE,TAF SCIE 140400Z 1406/1506 20008KT CAVOK TX18/1419Z TN06/1410Z BECMG 1416/1418 22015KT TEMPO 1416/1421 22015G25KT BECMG 1502/1504 18008KT
SCIP,TAF SCIP 140410Z 1406/1506 02004KT 9999 SCT020 TN14/1410Z TX24/1420Z BECMG 1414/1416 08010KT BECMG 1503/1505 02004KT
SCQP,TAF SCQP 132218Z 1400/1424 23005KT 9999 FEW030 TN01/1410Z TX20/1420Z BECMG 1402/1404 VRB02KT PROB40 TEMPO 1409/1412 5000 BR SCT003 BECMG 1414/1416 23010KT CAVOK BECMG 1422/1424 23004KT
SCSE,TAF SCSE 140400Z 1406/1506 11004KT CAVOK TX19/1419Z TN10/1410Z TEMPO 1409/1413 30004KT BKN010 BECMG 1416/1418 29012KT BECMG 1501/1503 01004KT FEW010 BECMG 1503/1505 BKN008 OVC012
SCTE,TAF SCTE 140308Z 1406/1506 01007KT 9999 -RA FEW002 OVC020 TN07/1406Z TX14/1418Z BECMG 1409/1411 VRB02KT NSW OVC030 BECMG 1415/1417 16010KT SCT035 BECMG 1419/1421 CAVOK BECMG 1500/1502 20005KT
SCVM,TAF SCVM 140400Z 1406/1506 26004KT CAVOK TX22/1419Z TN08/1410Z BECMG 1415/1417 32012KT TEMPO 1418/1500 24015KT BECMG 1501/1503 11004KT
SEGU,SEGU 140420Z 1406/1506 21006KT 9999 FEW010 SCT023 BECMG 1412/1414 SCT026 SCT100 BECMG 1420/1422 14006KT BKN023 BECMG 1502/1504 22010KT FEW013 BKN023 TX30/1420Z TN21/1410Z
SELT,SELT 140420Z 1406/1506 02004KT 9999 FEW016 BKN026 BKN080 BECMG 1412/1414 17004KT BKN030 BKN090 TEMPO 1420/1422 35014KT SHRA FEW023TCU BKN030 BKN090 BECMG 1423/1501 05004KT FEW013 OVC026 TX20/1419Z TN06/1411Z
SEMT,SEMT 140420Z 1406/1506 22008KT 9999 BKN020 BECMG 1415/1416 SCT023 BECMG 1423/1501 OVC020 TX28/1420Z TN21/1410Z
SEQM,SEQM 140420Z 1406/1506 VRB03KT 6000 BCFG SCT005 BKN020 BKN080 FM141300 15003KT 9999 SCT026 SCT100 BECMG 1417/1419 34013KT BKN030 BKN100 TEMPO 1419/1422 TSRA FEW023CB BKN030 BKN100 BECMG 1423/1501 06003KT FEW008 BKN026 TX23/1419Z TN10/1411Z
SGAS,TAF SGAS 140400Z 1406/1506 VRB05KT 9999 BKN015 TX27/1419Z TN17/1410Z PROB30 TEMPO 1407/1411 VRB03KT 4000 BR BKN010 BECMG 1413/1416 15007KT 9999 BKN027 BECMG 1420/1423 9999 SCT030
SGCO,TAF SGCO 140400Z 1406/1506 23005KT 9999 OVC020 TX27/1419Z TN18/1410Z PROB30 1407/1410 6000 -RA OVC020 BECMG 1413/1416 9999 BKN020 PROB30 1417/1419 7000 RA BKN020
SGEN,TAF SGEN 140400Z 1406/1506 19007KT 9999 BKN020 TX27/1419Z TN14/1410Z BECMG 1414/1416 13010KT CAVOK
SGES,TAF SGES 140400Z 1406/1506 00000KT 7000 RA OVC013 TX25/1419Z TN17/1410Z PROB40 1408/1411 21015KT 4000 RA BR BKN008 OVC012 BECMG 1416/1419 9999 BKN027
SKAR,TAF SKAR 140430Z 1406/1506 VRB02KT 9999 SCT020 TEMPO 1410/1412 2000 DZ BR BKN015 BECMG 1416/1418 26006KT TEMPO 1419/1422 SCT020CB BECMG 1502/1504 VRB02KT TX29/1420Z TN16/1411Z
SKBG,TAF SKBG 140430Z 1406/1506 VRB02KT 9999 SCT010 SCT080 TEMPO 1406/1409 5000 DZ BKN007 TEMPO 1410/1413 5000 BCFG BKN010 BECMG 1416/1418 32008KT SCT015 TEMPO 1418/1422 DZRA SCT015TCU BKN080 PROB40 1500/1504 5000 RA BKN010TCU BKN070 TX25/1418Z TN18/1410Z
SKBO,TAF SKBO 140430Z 1406/1506 VRB02KT 9999 SCT015 BKN080 TEMPO 1407/1410 DZ BECMG 1416/1418 29010KT BKN017 TEMPO 1420/1424 5000 TSRA BKN015CB BKN070 BECMG 1501/1503 VRB02KT PROB40 1502/1506 DZRA TX20/1418Z TN09/1410Z
SKBQ,TAF SKBQ 140430Z 1406/1506 18004KT 9999 FEW015 PROB40 TEMPO 1406/1409 RA SCT015CB TEMPO 1410/1413 5000 BR BKN008 TEMPO 1419/1422 TSRA SCT015CB TX31/1417Z TN24/1409Z
SKCC,TAF SKCC 140430Z 1406/1506 VRB02KT 9999 SCT012 BKN080 TEMPO 1406/1410 RA BKN012TCU BECMG 1412/1414 18012KT SCT017 BECMG 1417/1419 36014KT SCT020TCU TEMPO 1418/1422 5000 TSRA SCT017CB BKN080 BECMG 1500/1502 VRB02KT TX33/1418Z TN23/1410Z
SKCG,TAF SKCG 140430Z 1406/1506 VRB02KT 9999 SCT017 BKN090 TEMPO 1406/1410 DZRA SCT015TCU BECMG 1413/1415 19010KT PROB40 1418/1420 TSRA SCT015CB BECMG 1502/1504 VRB02KT TX31/1419Z TN26/1410Z
SKCL,TAF SKCL 140430 1406/1506 36011KT 9999 FEW020 TEMPO 1406/1408 DZ FEW030CB BKN100 BECMG 1411/1413 VRB02KT TEMPO 1421/1424 DZ SCT020CB TX31/1420Z TN20/1411Z
SKLT,TAF SKLT 140430Z 1406/1506 00000KT CAVOK BECMG 1410/1412 SCT015 TEMPO 1417/1420 33007KT TSRA SCT015CB BECMG 1500/1502 VRB02KT FEW012 TX34/1419Z TN24/1410Z
SKPE,TAF SKPE 140430Z 1406/1506 VRB02KT 9999 SCT015 TEMPO 1409/1412 3000 BR BKN015 BECMG 1415/1417 11009KT TEMPO 1421/1424 DZ SCT015TCU BECMG 1501/1503 VRB02KT TX28/1420Z TN18/1411Z
SKRG,TAF SKRG 140430Z 1406/1506 VRB02KT 5000 DZ BKN010 OVC080 BECMG 1407/1409 4000 BCFG BKN006 BECMG 1413/1415 10010KT 9999 NSW SCT015 TEMPO 1419/1423 TS SCT017CB BECMG 1500/1502 VRB02KT TX22/1419Z TN13/1410Z
SKSM,TAF SKSM 132230Z 1400/1424 24006KT 9999 SCT020 TEMPO 1320/1324 RA SCT018CB TEMPO 1400/1404 TSRA FEW017CB SCT018 TEMPO 1419/1423 RA SCT018CB TX34/1419Z TN24/1409Z
SKSP,TAF SKSP 140430Z 1406/1506 VRB02KT 9999 SCT015 TEMPO 1412/1416 DZRA SCT017TCU BECMG 1415/1417 08010KT SCT018 TX32/1419Z TN25/1410Z
SLAL,TAF SLAL 140400Z 1406/1506 00000KT 9999 SCT010 BKN070 TX17/1419Z TN06/1411Z TEMPO 1409/1411 22010KT BKN010 BECMG 1414/1416 02015KT SCT015 TEMPO 1419/1421 FEW020 FEW030CB BKN070
SLCB,TAF SLCB 140400Z 1406/1506 13008KT 9999 FEW030 BKN070 TX22/1419Z TN09/1411Z BECMG 1414/1416 25010KT BECMG 1417/1419 05012KT PROB30 TEMPO 1419/1421 8000 SHRA SCT033 FEW036CB BKN070 BECMG 1423/1501 13010KT FEW030 SCT070
SLCO,TAF SLCO 140400Z 1406/1506 00000KT 9999 BKN006 FEW017CB OVC070 TX27/ 1419Z TN21/1410Z TEMPO 1414/1417 15006KT 8000 SHRA SCT015 BKN070 BECMG 1418/1420 18008KT SCT020 9999 BKN080 BECMG 1422/1502 00000KT FEW017 SCT070
SLET,TAF SLET 140400Z 1406/1506 14004KT 9999 BKN020 BKN070 TX30/1420Z TN19 /1409Z TEMPO 1407/1411 5000 RA BKN005 BKN015 OVC070 BECMG 1416/1418 VRB02KTPROB30 TEMPO 1420/1423 8000 TSRA FEW030
SLLP,TAF SLLP 140400Z 1406/1506 07005KT 9999 NSC TX16/1419Z TNM02/1410Z TEMPO 1407/1410 3000E BCFG BKN010 BECMG 1413/1416 29010KT TEMPO 1418/ 1422 29015G25KT BECMG 1423/1501 08005KT
SLTJ,TAF SLTJ 140400Z 1406/1506 000000KT 9999 FEW027 SCT070 TX27/1419Z TN09/1411 BECMG 1415/1417 13012KT BECMG 1418/1420 SCT030 BKN070
SLTR,TAF SLTR 140400Z 1406/1506 00000KT 9999 SCT015 FEW017B SCT080 TX29/ 1419Z TN21/1410Z TEMPO 1412/1415 15008KT 8000 RA SCT015 SCT080 PROB30 TEMPO 1418/1421 17007KT 7000 SHRA FEW025CB BECMG 1422/1502 00000KT 9999 SCT017 SCT070
SLVR,TAF SLVR 140400Z 1406/1506 14004KT 9999 BKN020 BKN070 TX30/1420Z TN19 /1409Z TEMPO 1407/1411 5000 RA BKN005 BKN015 OVC070 BECMG 1416/1418 VRB02KT PROB30 TEMPO 1420/1423 8000 TSRA FEW030
SMJP,TAF SMJP 140400Z 1406/1506 VRB02KT 9999 FEW010 SCT025 TX33/1417Z TN23/1409Z PROB30 TEMPO 1409/1411 2000 BR SCT002 BECMG 1411/1413 14006KT TEMPO 1418/1422 VRB10G20KT 5000 TSRA FEW010 FEW015CB SCT020
SMZO,TAF SMZO 140400Z 1406/1506 VRB02KT 9999 FEW010 SCT025 TX33/1417Z TN24/1409Z BECMG 1411/1413 14006KT TEMPO 1418/1421 VRB10G20KT 5000 TSRA FEW010 FEW015CB SCT020
SOCA,TAF AMD SOCA 132154Z 1321/1418 VRB02KT 9999 SCT030 PROB40 TEMPO 1321/1323 3000 SHRA SCT010CB BKN015TCU BECMG 1413/1414 07012KT
SPCL,TAF SPCL 132300Z 1400/1424 02005KT 9999 SCT020 SCT100 TX32/1418Z TN23/1411Z TEMPO 1409/1412 3000 BR BKN008 TEMPO 1417/1422 06015KT 3000 SHRA BKN010 FEW025CB BKN080
SPEO,TAF SPEO 131630Z 1318/1418 22015KT 9999 FEW015 SCT050 TX20/1319Z TN13/1411Z TEMPO 1318/1320 BKN017 TEMPO 1412/1414 VRB02KT BKN010
SPGM,TAF SPGM 131700Z 1318/1418 03005KT 9999 FEW040 TX30/1319Z TN21/1411Z FM141200 VRB02KT 9999 FEW020 BKN100 TEMPO 1412/1414 4000 BR
SPHI,TAF SPHI 131630Z 1318/1418 18016KT CAVOK TX22/1319Z TN14/1411Z TEMPO 1318/1320 FEW020 TEMPO 1412/1414 18008KT BKN020
SPHO,SPHO 131700Z 1318/1418 03004KT CAVOK TX28/1320Z TN09/1411Z TEMPO 1318/1322 33010KT
SPHY,SPHY 131700Z 1318/1418 36010KT 9999 FEW012 SCT070 TX18/1319Z TNM03/1411Z BECMG 1400/1401 VRB04KT
SPJC,TAF SPJC 140500Z 1406/1506 17006KT 9999 OVC015 TX18/1420Z TN14/1411Z TEMPO 1407/1409 8000 DZ OVC010 BECMG 1413/1415 24010KT BKN016 BECMG 1419/1421 16010KT CAVOK BECMG 1501/1503 10004KT
SPJI,TAF SPJI 131700Z 1318/1418 03005KT 9999 SCT020 SCT100 TX36/1320Z TN20/1411Z TEMPO 1318/1322 4000 SHRA SCT020 FEW025TCU BKN080 TEMPO 1410/1414 3000 BCFG SCT010
SPJL,TAF SPJL 131700Z 1318/1418 33007KT CAVOK TX20/1318Z TNM07/1410Z BECMG 1319/1322 21010KT BECMG 1400/1402 05005KT
SPJR,TAF SPJR 131700Z 1318/1418 15010KT 9999 SCT027 TX26/1319Z TN08/1411Z TEMPO 1319/1322 SCT023 BKN046 BECMG 1401/1403 VRB03KT FM141100 VRB02KT 9999 SCT023
SPLO,TAF SPLO 131700Z 1318/1418 17008KT 9999 BKN030 TX21/1319Z TN15/1411Z
SPME,TAF AMD SPME 140015Z 1400/1424 27005KT 9999 SCT017 TX25/1419Z TN20/1411Z TEMPO 1412/1416 VRB02KT OVC012
SPMS,TAF SPMS 131700Z 1318/1418 03005KT 9999 SCT020 TX35/1320Z TN23/1411Z TEMPO 1318/1322 3000 RA BKN010 FEW025TCU BKN080 TEMPO 1410/1413 5000 BR SCT010
SPNC,TAF SPNC 131700Z 1318/1418 07015KT 9999 FEW040 SCT120 TX30/1319Z TN17/1411Z BECMG 1323/1402 06004KT FM141200 07005KT 9999 FEW027 BKN110 TEMPO 1412/1414 FEW25 BKN100
SPPY,TAF SPPY 131700Z 1318/1418 36008KT 9999 SCT020 SCT050 TX23/1320Z TN10/1411Z TEMPO 1318/1322 4000 SHRA SCT010 FEW025TCU BKN080 TEMPO 1410/1414 2000 DZ BCFG BKN010 BKN040
SPQT,TAF SPQT 140500Z 1406/1506 00000KT 9999 SCT008 BKN080 TX32/1419Z TN23/1411Z TEMPO 1408/1412 DZ BECMG 1414/1416 02005KT BKN015 SCT100 TEMPO 1419/1423 08015KT 3000 TSRA BKN010 FEW025CB BKN080 TEMPO 1423/1503 RA
SPQU,TAF SPQU 132300Z 1400/1424 06005KT CAVOK TX22/1417Z TN08/1410Z BECMG 1413/1416 25010KT FM142400 06005KT CAVOK
SPRU,TAF SPRU 140500Z 1406/1506 16008KT 4000 BR NSC TX17/1419Z TN15/1411Z TEMPO 1408/1413 3000 BR OVC007 BECMG 1415/1417 7000 NSW OVC012 BECMG 1501/1503 13005KT 5000 BR BKN009
SPSO,TAF SPSO 140500Z 1406/1506 20010KT 9999 OVC020 TX19/1420Z TN12/1411Z BECGM 1410/1012 12005KT 9999 SCT013 BKN015 BECMG 1414/1416 26010KT CAVOK BECMG 1418/1420 20014KT BECMG 1501/1503 02005KT
SPST,TAF SPST 132300Z 1400/1424 34004KT 9999 SCT020 SCT100 TX35/1419Z TN22/1411Z FM141200 12003KT 9999 SCT020 BKN080 TEMPO 1412/1414 4000 RA BR
SPTN,TAF SPTN 132300Z 1400/1424 25005KT 8000 OVC016 TX21/1419Z TN10/1410Z TEMPO 1403/1405 OVC010 FM141530 22010KT CAVOK FM142400 25004KT 8000 OVC020
SPTU,SPTU 131700Z 1318/1418 16005KT 9999 BKN007 BKN100 TX24/1320Z TN18/1411Z BECMG 1318/1320 BKN012 BKN100 BECMG 1320/1322 FEW020 SCT100
SPYL,TAF COR SPYL 132240Z 1400/1424 18008KT CAVOK TX25/1419Z TN14/1411Z TEMPO 1412/1414 SCT040
SPZO,TAF SPZO 132305Z 1400/1424 34005KT 9999 FEW050 TX23/1419Z TN03/1411Z TEMPO 1418/1421 28012KT RA FEW040TCU BKN080
SUAA,TAF SUAA 140530Z 1406/1506 13010KT CAVOK TX16/1418Z TN05/1409Z TEMPO 1418/1424 13015G25KT
SUCA,TAF SUCA 140530Z 1406/1506 11010KT CAVOK TX16/1418Z TN04/1409Z TEMPO 1418/1424 11015G25KT
SUDU,TAF SUDU 140530Z 1406/1506 10010KT CAVOK TX19/1418Z TN02/1409Z
SULS,TAF SULS 140530Z 1406/1506 13010KT CAVOK TX15/1418Z TN04/1409Z
SUMU,TAF SUMU 140530Z 1406/1506 13010KT CAVOK TX15/1418Z TN05/1409Z TEMPO 1418/1424 13015G25KT
SURV,TAF SURV 140530Z 1406/1506 13012KT CAVOK TX19/1418Z TN05/1409Z
SUSO,TAF SUSO 140530Z 1406/1506 12012KT CAVOK TX21/1418Z TN05/1409Z
SVBC,TAF SVBC 140400Z 1406/1506 08006KT 8000 TSDZ OVC010 CB TX33/1518Z TN22/1507Z 1407/1510 07003KT 9000 DZ BKN010
SVJC,TAF SVJC 140400Z 1406/1506 09003KT 6000 TSRA OVC013 CB TX33/1519Z TN22/1507Z 1407/1410 09003KT 9999 BKN013
SVMC,TAF SVMC 140400Z 1406/1506 05003KT 6000 TSRA OVC013 CB TX33/1519Z TN21/1508Z 1407/1510 00000KT 9999 BKN013
SVMG,TAF SVMG 140400Z 1406/1506 08003KT 9999 SCT010 TX33/1518Z TN22/1508Z TEMPO 1407/1410 07003KT 9000 DZ BKN010
SVMI,TAF SVMI 140400Z 1406/1506 00000KT 9000 DZ BKN016 TX32/1518Z TN20/1507Z 1407/1410 00000KT 9999 SCT016 BKN070
SVPR,TAF SVPR 140400Z 1406/1506 05003KT 8000 +TSDZ OVC013 CB TX33/1519Z TN22/1507Z 1407/1410 07003KT 9999 BKN013 
SVSA,TAF SVSA 140400Z 1406/1506 07003KT 9999 SCT020 TX31/1519Z TN19/1508Z TEMPO 1407/1410 00000KT 9000 DZ BKN020
SVVA,TAF SVVA 131600Z 1318/1418 24005KT 9999 SCT016 BKN080 TX32/1319 TN23/1409 TEMPO 1318/1323 VRB05T 9000 DZ BKN020 FM 132330 07005KT 9999 SCT020 BKN100
SYCJ,TAF SYCJ 140500Z 1406/1506 00000KT 9999 FEW016 SCT040 BKN100 PROB30 TEMPO 1410/1417 8000 SHRA FEW014CB BECMG 1418/1420 06006KT 9999 BKN016 BKN100
SYEC,TAF SYEC 140500Z 1406/1506 VRB04KT 9999 SCT016 BKN040 BKN100 TEMPO 1412/1418 8000 TS SHRA FEW014CB BKN034 BECMG 1418/1420 06008KT 9999 BKN017 BKN090
TAPA,TAF TAPA 140500Z 1406/1506 09007KT 9999 SCT020
TBPB,TAF TBPB 140500Z 1406/1506 09012KT 9999 SCT018
TDPD,TAF TDPD 140500Z 1406/1506 11007KT 9999 SCT018
TFFF,TAF TFFF 131700Z 1318/1418 09013KT 9999 SCT030 BECMG 1323/1401 VRB02KT PROB30 TEMPO 1406/1410 4000 -SHRA SCT020TCU BECMG 1411/1413 09010KT PROB30 TEMPO 1414/1418 3000 SHRA BKN018TCU
TFFR,TAF TFFR 131700Z 1318/1418 10010KT 9999 SCT030 BECMG 1320/1322 VRB02KT PROB40 TEMPO 1400/1416 4000 SHRA BKN018TCU BECMG 1411/1413 10010KT
TGPY,TGPY 132138Z 1400/1424 09012KT 9999 FEW020 BECMG 1410/1412 09015KT FEW023
TIST,TIST 140536Z 1406/1506 06004KT P6SM VCSH FEW025 FM141400 12012KT P6SM FEW025 SCT035 FM142200 09007KT P6SM VCSH SCT030
TISX,TISX 140536Z 1406/1506 02004KT P6SM VCSH FEW025 FM141400 10012KT P6SM FEW025 SCT035 FM142300 06007KT P6SM VCSH SCT025
TJBQ,TJBQ 140536Z 1406/1506 00000KT P6SM SKC FM141400 07009KT P6SM FEW030 SCT050 FM141800 06012KT P6SM VCTS SCT025CB BKN040 FM142200 VRB03KT P6SM VCSH SCT030 AMD NOT SKED TIL 141100
TJPS,TJPS 140536Z 1406/1506 00000KT P6SM SKC FM141400 15014KT P6SM SCT030 FM142200 VRB05KT P6SM FEW030 AMD NOT SKED
TJSJ,TJSJ 140536Z 1406/1506 11007KT P6SM VCSH FEW025 SCT040 FM141400 06010KT P6SM FEW030 SCT050 FM141700 07012KT P6SM VCSH SCT025 SCT050 FM142200 09007KT P6SM VCSH SCT030
TKPK,TAF TKPK 132300Z 1400/1424 09007KT 9999 SCT020
TKPN,TAF TKPN 131700Z 1318/1418 08010KT 9999 SCT022
TLPC,TAF TLPC 132300Z 1400/1424 09007KT 9999 SCT024
TLPL,TAF TLPL 132300Z 1400/1424 08013KT 9999 SCT024
TNCA,TAF TNCA 140515Z 1406/1506 09016KT 9999 FEW018
TNCB,TAF TNCB 132300Z 1400/1506 09012KT 9999 SCT020 PROB30 TEMPO 1407/1418 4000 SHRA BKN014 FEW018CB
TNCC,TAF TNCC 140515Z 1406/1506 10011KT 9999 SCT018
TNCM,TNCM 132200Z 1400/1424 09008KT 9999 SCT020 
TQPF,TAF TQPF 131700Z 1318/1418 10011KT 9999 SCT020
TRPG,TAF TRPG 131700Z 1318/1418 08011KT 9999 SCT022
TTCP,TAF TTCP 140400Z 1406/1506 08005KT 9999 FEW016 BECMG 1412/1414 11008KT 9999 FEW020 BECMG 1500/1502 07005KT 9999 SCT016
TTPP,TAF TTPP 140400Z 1406/1506 00000KT 9999 FEW016 BECMG 1412/1414 11008KT 9999 SCT018 PROB30 TEMPO 1415/1421 5000 SHRA FEW012CB BECMG 1500/1502 00000KT 9999 SCT016
TUPJ,TAF TUPJ 132300Z 1400/1424 09006KT 9999 SCT020
TVSA,TAF TVSA 140500Z 1406/1506 07009KT 9999 SCT018
TXKF,TAF TXKF 140533Z 1406/1506 12014KT 9999 FEW025 BKN300 
UAAA,TAF UAAA 140502Z 1406/1506 35003MPS 9999 FEW050 SCT100 TX24/1409Z TN05/1501Z TEMPO 1406/1412 04003G08MPS BECMG 1412/1413 16003MPS 5000 FU TEMPO 1412/1420 21003G08MPS 2200 BECMG 1502/1503 34003MPS SCT050CB BKN100 TEMPO 1502/1506 03003G08MPS
UAAH,TAF UAAH 140500Z 1406/1415 09004MPS CAVOK
UAAT,TAF UAAT 140506Z 1406/1415 30003G08MPS 9999 BKN100 TEMPO 1406/1409 22003MPS
UACC,TAF UACC 140500Z 1406/1506 23004MPS CAVOK TX18/1409Z TN02/1501Z TEMPO 1406/1412 25005MPS BECMG 1412/1414 VRB02MPS SCT020 BKN050 TEMPO 1418/1422 3100 BR SCT005 BKN015 TEMPO 1422/1503 1000 BR BKN005 BKN011
UACK,TAF UACK 140509Z 1406/1415 23005MPS 9999 SCT040 TEMPO 1406/1415 25008MPS
UACP,TAF UACP 140502Z 1406/1415 14006MPS 9999 SCT020 BKN040CB TEMPO 1406/1407 16007MPS BECMG 1407/1409 20008MPS TEMPO 1409/1412 23007G12MPS
UADD,TAF UADD 140500Z 1406/1415 01003G08MPS 9999 NSC
UAII,TAF UAII 140500Z 1406/1506 27003G08MPS 8000 SCT040 TX25/1410Z TN09/1501Z TEMPO 1406/1415 32004G09MPS SCT050CB TEMPO 1415/1503 13003G08MPS 4000 FU
UAIT,TAF UAIT 140522Z 1406/1415 15005MPS CAVOK TEMPO 1406/1408 19006G11MPS BECMG 1408/1409 24003G08MPS TEMPO 1409/1415 20003G08MPS
UAKD,TAF UAKD 140502Z 1406/1415 31003MPS 9999 SCT030 BKN100 TEMPO 1406/1412 VRB02MPS 5000 FU TEMPO 1412/1415 VRB02MPS 5000 FU
UAKK,TAF UAKK 140500Z 1406/1506 25005MPS 9999 SCT030 BKN100 TX19/1410Z TNM02/1424Z BECMG 1412/1414 VRB02MPS
UAOO,TAF UAOO 140500Z 1406/1415 VRB01MPS CAVOK
UARR,TAF UARR 140504Z 1406/1415 27004MPS 9999 BKN011 BKN020CB TEMPO 1406/1409 4000 BR SCT005 TEMPO 1409/1415 30005G10MPS
UASK,TAF UASK 140502Z 1406/1415 14003MPS 9999 NSC TEMPO 1406/1412 03003MPS SCT050
UASP,TAF UASP 140500Z 1406/1415 10008MPS 9999 SCT020 TEMPO 1406/1412 15013G18MPS TEMPO 1412/1415 15005MPS
UASS,TAF UASS 140500Z 1406/1415 09005MPS 9999 SCT040 BKN100
UATE,TAF UATE 140501Z 1406/1506 14007MPS 9999 SCT011 BKN040CB TX15/1409Z TN10/1502Z TEMPO 1406/1412 08006MPS -SHRA
UATG,TAF UATG 140501Z 1406/1506 VRB01MPS 9999 SCT030CB TX16/1410Z TN05/1503Z TEMPO 1407/1412 26006MPS
UATT,TAF UATT 140500Z 1406/1506 26003MPS 9999 BKN011 BKN033CB TX14/1412Z TN04/1500Z TEMPO 1406/1412 24008MPS TEMPO 1412/1418 20002MPS TEMPO 1422/1505 1000 BR BKN005 BKN033CB
UAUU,TAF UAUU 140503Z 1406/1415 20005MPS 9999 BKN030 TEMPO 1406/1415 23007G12MPS
UBBB,TAF UBBB 140458Z 1406/1506 02008KT 9999 FEW030CB BKN030 TX21/1410Z TN16/1502Z TEMPO 1406/1408 34005KT -TSRA SCT012 SCT025CB OVC025 BECMG 1409/1411 08008KT SCT020 TEMPO 1411/1415 13010KT BECMG 1415/1417 35005KT
UBBF,TAF UBBF 140500Z 1406/1415 32006KT 9999 BKN010 OVC030 TEMPO 1406/1409 VRB04KT 5000 -RA BR BKN007 OVC015 BECMG 1409/1411 04008KT SCT012 BKN025
UBBG,TAF COR UBBG 140500Z 1406/1506 VRB04KT 9999 SCT040 BKN080 TX18/1412Z TN12/1503Z TEMPO 1410/1416 06008KT -SHRA SCT030CB BKN060 BECMG 1416/1418 26008KT
UBBL,TAF UBBL 140457Z 1406/1506 32008KT 9999 BKN030 BKN100 TX20/1410Z TN15/1502Z TEMPO 1406/1409 VRB04KT 5000 -RA SCT010 OVC020 TEMPO 1409/1416 02006KT BECMG 1416/1418 VRB04KT TEMPO 1420/1506 4000 BR SCT007
UBBN,TAF UBBN 140501Z 1406/1506 VRB04KT 9999 FEW050CB BKN100 TX24/1412Z TN10/1503Z TEMPO 1406/1410 13010KT TEMPO 1412/1418 28012KT SCT040CB BKN080 PROB30 TEMPO 1412/1418 TS
UBBQ,TAF UBBQ 140455Z 1406/1506 28008KT 9999 BKN030 BKN080 TX19/1410Z TN12/1502Z TEMPO 1406/1408 VRB04KT SCT012 TEMPO 1410/1418 24006KT BECMG 1418/1420 VRB04KT
UBBY,TAF UBBY 140500Z 1406/1415 VRB04KT 6000 FEW050CB OVC080 TEMPO 1406/1410 VRB10KT -SHRA SCT030CB BKN060
UBEE,TAF UBEE 140500Z 1406/1415 VRB04KT 6000 SCT030 OVC070 TEMPO 1410/1414 -SHRA SCT025CB BKN050
UCFL,TAF UCFL 140438Z 1406/1506 14003G08MPS 9999 SCT030CB BECMG 1415/1416 35003G08MPS
UCFM,TAF UCFM 140449Z 1406/1506 34003G08MPS 9999 SCT050CB BECMG 1414/1416 14003G08MPS TEMPO 1416/1502 1500 BR FU
UCFO,TAF UCFO 140441Z 1406/1506 30003G08MPS 9999 NSC TEMPO 1406/1412 FEW050 BECMG 1412/1414 17003G08MPS TEMPO 1412/1418 12003G08MPS 2500 FU FEW050
UDSG,TAF UDSG 140459Z 1406/1506 22006KT 9999 SCT040CB TEMPO 1408/1421 VRB16KT -TSRA BKN030CB OVC050
UDYZ,TAF UDYZ 140500Z 1406/1506 16006KT 6000 BKN040 TEMPO 1406/1415 VRB14KT -SHRA BKN030CB
UEEE,TAF UEEE 140500Z 1406/1512 24003MPS 9999 -SHSN SCT008 BKN020CB OVC070 TEMPO 1406/1415 1000 SHSNRA BR VV004
UERP,TAF UERP 140500Z 1406/1506 28003G08MPS 7000 BKN012CB OVC100 TEMPO 1406/1410 2500 -SHSN BR BKN007 BKN012CB OVC100 TEMPO 1410/1415 4000 -SHSN BECMG 1412/1414 VRB01MPS BKN014 OVC100 BECMG 1502/1504 23003G08MPS
UERR,TAF UERR 140500Z 1406/1506 34003MPS 9999 BKN007 OVC020CB TEMPO 1406/1409 1000 -SHSN VV002
UGAM,TAF UGAM 140400Z 1405/1411 09006KT 9999 SCT090
UGKO,TAF UGKO 140500Z 1406/1506 09007KT CAVOK TX20/1411Z TN11/1503Z BECMG 1409/1412 26010KT BECMG 1423/1502 VRB02KT
UGMS,TAF UGMS 140400Z 1405/1411 VRB02KT 9999 BKN100 TEMPO 1410/1411 BKN060
UGSB,TAF UGSB 140500Z 1406/1506 12015KT 9999 FEW030 SCT120 TX21/1411Z TN14/1502Z BECMG 1407/1409 32007KT BECMG 1417/1419 12012KT
UGTB,TAF UGTB 140500Z 1406/1506 VRB02KT 9999 SCT045 TX20/1412Z TN12/1502Z BECMG 1416/1419 SCT015 BKN025 TEMPO 1419/1504 4000 RA SCT010 BKN018
UHBB,TAF UHBB 140436Z 1406/1506 19003G08MPS 9999 SCT033 BECMG 1423/1501 26005G10MPS
UHHH,TAF UHHH 140451Z 1406/1512 22003MPS 9999 SCT020 FM141800 VRB01MPS 0500 FG SCT003 FM150000 24003MPS 9999 SCT020CB
UHMA,TAF UHMA 140443Z 1406/1506 35003MPS 9999 FEW030 TEMPO 1409/1506 16005MPS 5000 BR SCT011
UHMD,TAF UHMD 140145Z 1403/1409 02003MPS 9999 SCT025
UHMM,TAF UHMM 140450Z 1406/1512 10003MPS 9999 SCT040
UHPP,TAF UHPP 140433Z 1406/1512 28005G15MPS 9999 SCT040CB
UHSS,TAF UHSS 140450Z 1406/1512 23003MPS 9999 SCT030 BECMG 1411/1413 VRB01MPS BKN025CB
UHWW,TAF UHWW 140455Z 1406/1506 20003MPS 9999 BKN030 BECMG 1410/1414 6000 FEW002 BKN016 TEMPO 1415/1424 0300 FG
UIAA,TAF UIAA 140500Z 1406/1506 30010G16MPS 9999 BKN033CB TEMPO 1406/1506 29005G12MPS 3100 -SHSNRA BKN014CB
UIBB,TAF UIBB 140500Z 1406/1506 30005MPS 6000 -SHSNRA FEW005 BKN016CB TEMPO 1406/1418 0700 +SHSNRA VV003 BECMG 1503/1505 24003MPS
UIII,TAF UIII 140500Z 1406/1506 32006MPS 9999 BKN025CB
UIUU,TAF UIUU 140500Z 1406/1506 32008G15MPS 9999 BKN030CB TEMPO 1406/1506 2900 -SHSNRA OVC014CB
ULAA,TAF ULAA 140500Z 1406/1506 20003MPS 6000 BKN016 TEMPO 1406/1409 21003G08MPS 3000 -SHRA BR FEW007 BKN011CB FM140900 20003MPS 9999 BKN016 TEMPO 1409/1506 19003G08MPS 6000 -SHRA FEW007 BKN016CB
ULLI,TAF ULLI 140453Z 1406/1506 19003G08MPS 9999 BKN020
ULMM,TAF ULMM 140450Z 1406/1506 23003MPS 6000 BKN011CB TEMPO 1406/1506 BKN006 BKN011CB
ULOO,TAF ULOO 140455Z 1406/1415 14003MPS 9999 BKN016 TEMPO 1406/1409 BKN011 TEMPO 1409/1415 18003G08MPS
ULPB,TAF ULPB 140453Z 1406/1415 21005G10MPS 9999 BKN010 TEMPO 1406/1415 BKN016
ULWC,TAF ULWC 140500Z 1406/1415 23003MPS 6000 FEW005 BKN017 TEMPO 1406/1409 1000 BR BKN004 TEMPO 1409/1415 20005MPS
UMBB,TAF UMBB 140500Z 1406/1415 17004MPS 9999 SCT020 TEMPO 1406/1409 VRB02MPS 5000 BR TEMPO 1409/1415 20003G08MPS
UMGG,TAF UMGG 140500Z 1406/1506 VRB02MPS 2000 BR BKN005 BECMG 1407/1409 6000 NSW BKN020 TEMPO 1409/1419 17005MPS TEMPO 1419/1506 15004MPS 1200 BR BKN004
UMII,TAF UMII 140509Z 1406/1415 17003MPS 6000 BKN015 TEMPO 1406/1408 VRB02MPS 0800 FG BKN005 TEMPO 1408/1415 20003G08MPS 2000 BR BKN005
UMIO,TAF UMIO 140504Z 1406/1415 VRB02MPS 0300 FG VV001 TEMPO 1406/1408 1200 BCFG BR BKN002 BECMG 1408/1410 6000 NSW BKN003 BECMG 1410/1412 BKN015
UMKK,TAF UMKK 140456Z 1406/1506 17003G08MPS 9999 SCT016 TEMPO 1423/1506 3100 -RA BR BKN003
UMMG,TAF UMMG 140446Z 1405/1415 16003MPS 6000 BKN016 TEMPO 1405/1408 2000 BR SCT006 TEMPO 1408/1415 18003G08MPS
UMMS,TAF AMD UMMS 140545Z 1406/1506 VRB02MPS 0600 FG SCT002 TEMPO 1406/1408 0300 FZFG SCT001 BECMG 1408/1409 16005MPS 9999 NSW BKN012 TEMPO 1409/1418 18005G10MPS TEMPO 1418/1506 3000 BR BKN010
UMOO,TAF UMOO 140504Z 1406/1415 VRB02MPS 8000 BKN015 TX12/1412Z TNM01/1406Z TEMPO 1406/1408 0600 FZFG VV002
UNAA,TAF UNAA 140449Z 1406/1506 01003G08MPS 9999 SCT040
UNBB,TAF UNBB 140500Z 1406/1506 09005G10MPS CAVOK
UNEE,TAF UNEE 140500Z 1406/1506 06003G08MPS 8000 SCT040
UNKL,TAF UNKL 140450Z 1406/1506 29005MPS 8000 -SHSNRA BKN016CB BECMG 1410/1412 12003G08MPS
UNNT,TAF UNNT 140500Z 1406/1506 11003G08MPS 8000 BKN040
UNOO,TAF UNOO 140450Z 1406/1506 12006G14MPS 9999 NSC TEMPO 1406/1410 13013MPS BECMG 1412/1414 15003G10MPS BECMG 1419/1421 17003MPS
UNTT,TAF UNTT 140500Z 1406/1415 10003MPS 8000 BKN040
UNWW,TAF UNWW 140500Z 1406/1506 08003G08MPS 8000 SCT040
UOOO,TAF COR UOOO 140459Z 1406/1506 19012G20MPS 6000 -SHSN BLSN SCT011 BKN016CB BECMG 1407/1409 3000 -SHSN BLSN TEMPO 1409/1414 1000 SHSN BLSN SCT004 BKN014CB FM141400 22007G15MPS 0300 SHSNRA FG BKN002 BKN012CB TEMPO 1414/1506 1200 -SHRASN BR SCT003 BKN016CB
URKA,TAF URKA 140454Z 1406/1506 06007G14MPS 9999 SCT030 TEMPO 1406/1506 02009G14MPS
URKK,TAF URKK 140446Z 1406/1506 05008G13MPS 9999 SCT030 TEMPO 1406/1418 03003G08MPS
URMG,TAF URMG 140500Z 1406/1415 10003G08MPS 9999 BKN016
URML,TAF URML 140500Z 1406/1415 33003G10MPS 6000 SCT016 OVC025 TEMPO 1406/1409 36006G12MPS 3000 -SHRA BKN011 SCT033CB PROB40 TEMPO 1409/1415 VRB06G11MPS 3000 -TSRA BKN016 SCT033CB
URMM,TAF URMM 140500Z 1406/1506 09003G08MPS 9999 BKN030 TX17/1412Z TN06/1503Z TEMPO 1414/1421 6000 -SHRA BKN016 BKN030CB TEMPO 1421/1506 3100 BR BKN011
URMN,TAF URMN 140500Z 1406/1415 06003G08MPS 9999 BKN030
URMO,TAF URMO 140500Z 1406/1415 VRB01MPS 9999 BKN020
URMT,TAF URMT 140500Z 1406/1415 04003G08MPS 9999 BKN020 TEMPO 1406/1409 VRB01MPS
URRP,TAF URRP 140455Z 1406/1506 02003G12MPS 9999 SCT016
URSS,TAF URSS 140455Z 1406/1506 04006MPS 9999 FEW040 SCT100 BECMG 1408/1409 19003G09MPS TEMPO 1409/1411 23003G08MPS BECMG 1411/1413 28003G08MPS BECMG 1415/1416 05003G08MPS SCT100 BECMG 1418/1420 04006G11MPS
URWA,TAF URWA 140457Z 1406/1415 12003G08MPS CAVOK
URWI,TAF URWI 140455Z 1406/1415 12003G12MPS 9999 SCT016 TEMPO 1406/1415 06003G12MPS
URWW,TAF URWW 140452Z 1406/1415 35003G08MPS 6000 BKN016 BKN020CB TEMPO 1406/1415 32005G10MPS -SHRA PROB40 TEMPO 1406/1415 -TSRAGR
USCC,TAF USCC 140500Z 1406/1506 24003G10MPS 9999 BKN030CB TEMPO 1406/1412 27008G13MPS
USCM,TAF USCM 140500Z 1406/1415 23003G12MPS 9999 BKN020CB TEMPO 1406/1412 26008G14MPS
USDA,TAF USDA 140454Z 1406/1415 23008MPS 6000 SCT011 BKN016 BECMG 1408/1410 22009G14MPS
USHH,TAF USHH 140444Z 1406/1506 12005G13MPS 9999 SCT020 TEMPO 1406/1415 -SHRA FEW004 BKN016CB TEMPO 1415/1503 5000 -SHRA BR SCT003 BKN016CB
USNN,TAF USNN 140456Z 1406/1506 15005G10MPS CAVOK
USPP,TAF USPP 140457Z 1406/1506 08003G08MPS 6000 -RA BKN016 TEMPO 1406/1415 1100 -SHRA BR BKN004 BKN011CB BECMG 1411/1412 26003G08MPS
USRR,TAF USRR 140440Z 1406/1506 16006G13MPS 9999 SCT020
USSS,TAF USSS 140454Z 1406/1506 18003G08MPS 9999 BKN020CB BECMG 1408/1410 24003G12MPS TEMPO 1408/1418 -TSRA BKN016CB FM141800 19003G08MPS 6000 -SHRA BKN016CB TEMPO 1420/1506 SCT006 BKN016CB
USTR,TAF USTR 140448Z 1406/1506 13005G13MPS 9999 SCT020 TEMPO 1406/1415 -SHRA BKN016CB BECMG 1407/1409 15005G13MPS BECMG 1413/1415 18003G08MPS FM142200 20003G08MPS 3100 BR MIFG FEW007 TEMPO 1422/1504 0300 FG VV002
UTAA,TAF UTAA 140450Z 1406/1506 10014KT 6000 SCT050 TEMPO 1406/1412 02010G20KT BECMG 1414/1416 14014KT
UTAK,TAF UTAK 140430Z 1406/1506 06014G24KT 9999 BKN016 SCT060CB BKN100 TEMPO 1406/1412 36016KT 6000 -SHRA BKN010 SCT033CB BKN100 PROB40 TEMPO 1408/1412 VRB26KT TS BECMG 1412/1414 32014G24KT 6000
UTAM,TAF UTAM 140430Z 1406/1506 10016KT 5000 SCT050 SCT100 TEMPO 1406/1415 03014KT 3000 HZ BECMG 1415/1416 VRB04KT
UTAT,TAF UTAT 140433Z 1406/1506 09016KT CAVOK TEMPO 1406/1412 13016G26KT
UTAV,TAF UTAV 140430Z 1406/1506 11012KT CAVOK TEMPO 1406/1413 05014G24KT 3000 DRDU NSC BECMG 1415/1417 19010KT 5000 SCT050 TEMPO 1415/1502 11010KT 2000 HZ BKN040
UTDD,TAF UTDD 140300Z 1404/1416 VRB02MPS 6000 FEW066 SCT100
UTDK,TAF UTDK 140300Z 1404/1413 VRB02MPS 9999 FEW066 SCT100 TEMPO 1405/1413 21005MPS
UTDL,TAF AMD UTDL 140425Z 1404/1416 08005MPS 9999 NSC TEMPO 1413/1416 VRB02MPS
UTDT,TAF UTDT 140300Z 1404/1413 VRB02MPS 6000 FEW066 SCT100
UTFA,TAF UTFA 140300Z 1404/1413 24010KT 7000 NSC TEMPO 1404/1408 VRB08KT 3500 BR
UTFF,TAF UTFF 140300Z 1404/1413 34010KT 7000 NSC
UTFN,TAF UTFN 140500Z 1406/1506 14010KT 7000 NSC
UTNN,TAF UTNN 140500Z 1406/1506 01008G18KT CAVOK TEMPO 1406/1412 07010G20KT
UTNU,TAF UTNU 140500Z 1406/1506 05010G20KT CAVOK
UTSA,TAF UTSA 140501Z 1406/1506 VRB03KT 7000 NSC TEMPO 1406/1417 05014KT 4000 FU SCT033
UTSB,TAF UTSB 140500Z 1406/1506 VRB03KT 7000 NSC TEMPO 1406/1417 36014KT SCT033
UTSK,TAF UTSK 140250Z 1404/1413 07010KT CAVOK TEMPO 1404/1413 32010KT
UTSS,TAF UTSS 140500Z 1406/1506 13010KT 9999 NSC TEMPO 1406/1412 30010G20KT
UTST,TAF UTST 140500Z 1406/1506 VRB06KT 6000 NSC TEMPO 1406/1417 10008G18KT
UTTT,TAF UTTT 140500Z 1406/1506 08010KT 7000 NSC TEMPO 1406/1412 28015KT FEW060CB SCT100
UUBC,TAF UUBC 140452Z 1406/1415 VRB01MPS 6000 FEW005 SCT025 TEMPO 1406/1409 0300 FG VV002
UUBP,TAF UUBP 140440Z 1406/1415 VRB01MPS 6000 FEW005 SCT030 TEMPO 1406/1408 0500 FG VV002 TEMPO 1408/1410 BKN004
UUBW,TAF UUBW 140454Z 1406/1506 28003MPS 6000 FEW005 BKN016 TX10/1412Z TN00/1503Z TEMPO 1406/1408 0300 FG OVC002 PROB40 TEMPO 1416/1506 0300 FG OVC002
UUDD,TAF UUDD 140451Z 1406/1512 26003MPS 6000 FEW006 BKN016 TX09/1412Z TN00/1502Z PROB40 TEMPO 1418/1507 0300 FG SCT002
UUDL,TAF UUDL 140455Z 1406/1506 VRB01MPS 9999 BKN040 TX09/1412Z TN01/1503Z
UUEE,TAF UUEE 140456Z 1406/1506 28003MPS 6000 FEW005 BKN020 TX08/1412Z TN02/1406Z TEMPO 1406/1408 0300 FG OVC001 PROB40 TEMPO 1418/1503 0300 FG OVC001
UUMO,TAF UUMO 140455Z 1406/1415 26003MPS 0200 FZFG OVC001 TEMPO 1406/1407 1000 BR BECMG 1407/1409 6000 NSW FEW005 BKN016
UUOB,TAF UUOB 140459Z 1406/1415 01003MPS 9999 BKN020
UUOK,TAF UUOK 140453Z 1406/1415 30003MPS 6000 SCT030 TEMPO 1406/1409 BKN004
UUOL,TAF UUOL 140500Z 1406/1415 33003MPS 9999 SCT030
UUOO,TAF UUOO 140500Z 1406/1415 34003MPS 9999 SCT020
UUWW,TAF UUWW 140457Z 1406/1506 24003MPS 1500 BR BKN003 TX08/1412Z TNM01/1406Z TEMPO 1406/1408 0500 FZFG OVC001 BECMG 1408/1409 6000 NSW FEW005 BKN016 PROB40 TEMPO 1418/1506 0300 FG OVC001
UUYY,TAF UUYY 140500Z 1406/1506 36003G08MPS 9999 -SHRA BKN006 BKN017CB TEMPO 1406/1409 0300 -SHRA FG BKN003 BKN016CB BECMG 1409/1411 33003MPS BKN011 BKN017CB FM141500 32003MPS 6000 FEW005 BKN016 TEMPO 1415/1422 0300 FG VV003 TEMPO 1422/1506 0300 FZFG VV002
UWGG,TAF UWGG 140452Z 1406/1506 30003G08MPS 8000 BKN020 TX08/1415Z TNM01/1503Z
UWKD,TAF UWKD 140500Z 1406/1506 31005G12MPS 6000 -RA OVC011 TX07/1411Z TN03/1502Z TEMPO 1406/1415 3100 -SHRA BKN005 BKN013CB BECMG 1415/1417 9999 NSW BKN013
UWKE,TAF UWKE 140456Z 1406/1506 28003G10MPS 6000 -RA BKN007 TEMPO 1406/1412 0700 FG OVC002 TEMPO 1412/1418 3100 -SHRA SCT005 BKN016CB
UWKS,TAF UWKS 140445Z 1406/1415 32006G13MPS 9999 -SHRA BKN016CB TX07/1411Z TN05/1406Z TEMPO 1406/1412 BKN010CB
UWLL,TAF UWLL 140451Z 1406/1506 31005G12MPS 9999 BKN016 TX10/1412Z TN03/1503Z TEMPO 1406/1409 -SHRA BKN007 BKN012CB TEMPO 1409/1415 -SHRA BKN012CB
UWLW,TAF UWLW 140456Z 1406/1506 30003G09MPS 9999 BKN016 TX09/1411Z TN03/1502Z TEMPO 1406/1415 34006G12MPS 6000 -SHRA BKN012CB BECMG 1415/1417 34003MPS
UWOO,TAF UWOO 140456Z 1406/1506 24005G12MPS 6000 BKN016CB TX13/1410Z TN02/1423Z TEMPO 1406/1506 28003MPS -SHRA FEW005 BKN010CB
UWOR,TAF UWOR 140458Z 1406/1415 25007G14MPS 9999 BKN020 TX12/1410Z TN09/1415Z TEMPO 1406/1415 23003G09MPS 6000 -SHRA BKN016CB
UWPS,TAF UWPS 140450Z 1406/1415 30003G08MPS 9999 SCT040 TX08/1412Z TN04/1406Z
UWSG,TAF UWSG 140456Z 1406/1415 31003G08MPS 9999 BKN016 TX10/1411Z TN07/1406Z TEMPO 1406/1409 FEW006
UWUU,TAF UWUU 140454Z 1406/1506 24003G08MPS 6000 -RA BKN007 BKN017 TX10/1409Z TN05/1501Z TEMPO 1406/1506 20003G08MPS 2100 -SHRA BR BKN005 BKN016CB
UWWW,TAF UWWW 140452Z 1406/1506 28005G10MPS 6000 -RA BKN011 TX09/1411Z TN04/1502Z TEMPO 1406/1418 32008G13MPS 2000 SHRA BKN005 BKN011CB
VAAH,TAF VAAH 140500Z 1406/1415 04005KT 6000 BECMG 1407/1409 07006KT BECMG 1410/1412 36004KT SCT020 BECMG 1412/1414 09004KT
VAAU,TAF VAAU 140500Z 1406/1415 09008KT 3000 -RA HZ SCT012 FEW025TCU/CB BKN090 TEMPO 1406/1412 2000 -TSRA SHRA SCT015 FEW030CB OVC080 BECMG 1409/1411 03006KT 
VABB,TAF VABB 140500Z 1406/1415 25005KT 3000 -RA HZ SCT018 SCT025 BKN090 TEMPO 1409/1415 12005KT 2000 -TSRA SHRA SCT018 FEW030CB BKN090 
VABJ,TAF VABJ 140500Z 1406/1415 VRB02KT 6000 NSC BECMG 1407/1409 01006KT BECMG 1410/1412 05006KT
VABO,TAF VABO 140500Z 1406/1512 04007KT 6000 NSC BECMG 1415/1417 07004KT 5000 HZ BECMG 1501/1503 05003KT 3000 HZ BECMG 1504/1506 09008KT 
VABP,TAF VABP 140500Z 1406/1512 05010KT 6000 NSC BECMG 1413/1415 5000 HZ BECMG 1421/1423 3000 HZ TEMPO 1500/1504 02005KT 2000 BR BECMG 1504/1506 36010KT 5000 HZ BECMG 1507/1509 6000
VABV,TAF VABV 140500Z 1406/1415 32004KT 5000 HZ FU NSC BECMG 1408/1410 03008KT 6000
VADU,TAF VADU 140500Z 1406/1415 08008KT 5000 HZ FU NSC BECMG 1407/1409 15010KT BECMG 1412/1414 09006KT
VAID,TAF VAID 140500Z 1406/1512 05010KT 6000 NSC BECMG 1413/1415 5000 HZ BECMG 1421/1423 3000 HZ TEMPO 1500/1504 02005KT 2000 BR BECMG 1504/1506 36010KT 5000 HZ BECMG 1507/1509 6000
VAJB,TAF VAJB 140500Z 1406/1415 05010KT 6000 NSC BECMG 1413/1415 5000 HZ
VAJL,TAF VAJL 140500Z 1406/1415 09008KT 3000 -RA HZ SCT012 FEW025TCU/CB BKN090 TEMPO 1406/1412 2000 -TSRA SHRA SCT015 FEW030CB OVC080 BECMG 1409/1411 03006KT 
VAJM,TAF VAJM 140500Z 1406/1415 05008KT 6000 NSC BECMG 1407/1409 36008KT BECMG 1411/1413 32004KT
VAKE,TAF VAKE 140500Z 1406/1415 36005KT 5000 HZ FU FEW025 BECMG 1407/1409 18006KT BECMG 1413/1415 23004KT SCT020
VAKP,VAKP 140500Z 1406/1415 09006KT 3000 -RA HZ SCT018 FEW025TCU/CB BKN090 TEMPO 1408/1414 2000 -TSRA SHRA SCT015 FEW030CB OVC080 BECMG 1409/1411 03005KT 
VANP,TAF VANP 140500Z 1406/1415 04007KT 5000 -RA HZ SCT020 SCT025 FEW030TCU BKN090 TEMPO 1409//1413 32010G20KT 1200 TSRA SCT015 FEW030CB OVC080 BECMG 1412/1414 02005KT 3000 -RA BR SCT018 FEW030TCU BKN090
VAOZ,TAF VAOZ 140200Z 1403/1415 VRB02KT 5000 BR SCT020 SCT030 SCT100 BECMG 1404/1405 09010KT 6000 SCT030 SCT100 TEMPO 1410/1415 09010G20KT 6000 SCT020 FEW030CB SCT100
VAPO,TAF VAPO 1400/1506 07010KT 6000 SCT025 BKN090 TEMPO 1401/1403 4000 BR TEMPO 1409/1412 09010G20KT 4000 TSRA SCT020 FEW025CB BKN080 TEMPO 1501/1503 4000 BR
VAPR,TAF VAPR 140500Z 1406/1415 23005KT 6000 FEW020 BECMG 1410/1412 30008KT
VARK,TAF VARK 140500Z 1406/1415 07008KT 6000
VASD,VASD 140500Z 1406/1415 09008KT 3000 -RA HZ SCT012 FEW025TCU/CB BKN090 TEMPO 1406/1412 2000 -TSRA SHRA SCT015 FEW030CB OVC080 BECMG 1409/1411 03006KT 
VASL,VASL 140500Z 1406/1415 09006KT 3000 -RA HZ SCT018 FEW025TCU/CB BKN090 TEMPO 1408/1414 2000 -TSRA SHRA SCT015 FEW030CB OVC080 BECMG 1409/1411 03005KT 
VASU,TAF VASU 140500Z 1406/1415 09008KT 6000 NSC BECMG 1410/1412 02006KT BECMG 1412/1414 02006KT
VAUD,TAF VAUD 140500Z 1406/1512 02005KT 5000 HZ NSC BECMG 1414/1416 VRB03KT 3000 HZ BECMG 1503/1505 06005KT 5000 HZ NSC
VCBI,TAF VCBI 140500Z 1406/1512 24009KT 9999 BKN018 TX29/1407Z TN24/1500Z PROB40 TEMPO 1406/1415 7000 -TSRA/SHRA FEW012 BKN016 FEW020CB
VCRI,TAF VCRI 140500Z 1406/1512 24012KT 9999 SCT018 TX31/1407Z TN24/1500Z PROB40 TEMPO 1406/1414 7000 -TSRA/SHRA SCT016 FEW018CB BKN080
VDPP,TAF VDPP 140500Z 1406/1424 34010KT 9999 SCT017 SCT040 TEMPO 1407/1412 SCT015 FEW017CB SCT040
VDSR,TAF VDSR 140500Z 1406/1424 36010KT 9999 SCT017 SCT040 TEMPO 1407/1412 SCT015 FEW017CB SCT040
VDSV,TAF VDSV 140500Z 1406/1424 34010KT 9999 SCT017 SCT040 TEMPO 1407/1412 SCT015 FEW017CB SCT040
VEAB,TAF VEAB 140330Z 1406/1418 24005KT 6000 FEW025 BECMG 1412/1418 02005KT 6000 FEW020
VEAN,TAF VEAN 140500Z 1406/1415 14005KT 3000 HZ SCT018 BKN100
VEAT,TAF VEAT 140500Z 1406/1415 00000KT 5000 HZ SCT018 SCT025 TEMPO 1408/1412 2500 -TSRA SCT018 FEW030CB BKN100 BECMG 1412/1415 2800 BR FEW018 SCT100
VEBD,TAF VEBD 140500Z 1406/1512 12005KT 6000 FEW025 SCT100 TEMPO 1412/1416 5000 BR BECMG 1416/1418 3000 BR TEMPO 1501/1503 0100 FG BECMG 1504/1506 6000
VEBI,TAF VEBI 140500Z 1406/1415 30005KT 5000 HZ SCT018 BKN100 BECMG 1412/1414 00000KT 3000 BR
VEBN,TAF VEBN 140500 1406/1415 18004KT 3000 BR HZ NSC BECMG 1406/1408 5000 HZ FEW020 SCT100
VEBS,TAF VEBS 140500Z 1406/1415 06005KT 5000 HZ SCT018 SCT100 TEMPO 1408/1412 2000 -TSRA BKN016 FEW030CB OVC090 BECMG 1413/1415 03005KT 4000 HZ SCT016 SCT100
VEBU,TAF VEBU 140500Z 1406/1415 04007KT 5000 -RA HZ SCT018 SCT025 FEW030CB BKN090 TEMPO 1408/1412 30010G20KT 1200 TSRA SCT015 FEW030CB OVC080 BECMG 1410/1412 35005KT 3000 -RA BR SCT018 FEW030CB OVC100
VECC,TAF VECC 140500Z 1406/1512 02007KT 3500 -RA HZ SCT018 SCT100 TEMPO 1408/1412 1500 TSRA SCT015 FEW025CB OVC090 BECMG 1500/1502 00000KT 2500 -RA HZ BECMG 1503/1505 02008KT 3500 -RA HZ FEW018 SCT025
VECO,TAF VECO 140200Z 1403/1412 00000KT 1500 -RA BR SCT018 BKN090 BECMG 1404/1406 26005KT 3000 -RA HZ BECMG 1406/1408 FEW020 SCT100
VECX,TAF VECX 140330Z 1406/1418 32008KT 5000 BR SCT020 BECMG 1408/1410 6000 SCT030
VEDG,TAF VEDG 140500Z 1406/1415 02005KT 4500 -RA HZ SCT018 SCT025 PROB40 TEMPO 1409/1413 2000 TSRA SCT015 FEW025CB OVC090 BECMG 1413/1415 00000KT 2500 -RA HZ SCT018 SCT100
VEDZ,TAF VEDZ 140500Z 1406/1415 11005KT 3000 HZ SCT018 BKN100
VEGK,TAF VEGK 140330Z 1406/1418 27005KT 6000 FEW030 TEMPO 1409/1412 FEW030TCU
VEGT,TAF VEGT 140500Z 1406/1415 27005KT 5000 HZ SCT018 BKN100 BECMG 1413/1415 00000KT 3000 BR
VEGY,TAF VEGY 140500Z 1406/1415 00000KT 4000 BR HZ FEW018 SCT025 BECMG 1408/1410 29005KT 5000 HZ
VEIM,TAF VEIM 140500Z 1406/1415 27005KT 5000 HZ SCT018 BKN100 BECMG 1413/1415 00000KT 3000 BR
VEJH,TAF VEJH 140500Z 1406/1415 05005KT 5000 HZ SCT020 SCT100 TEMPO 1408/1412 2000 -TSRA BKN016 FEW030CB OVC090
VEJR,TAF VEJR 140500Z 1406/1415 05004KT 5000 -RA HZ SCT018 SCT025 FEW030CB BKN090 TEMPO 1409/1413 09010G20KT 1200 TSRA SCT015 FEW030CB OVC080 BECMG 1410/1412 3000 -RA BR FEW010 SCT018 FEW030CB BN080
VEJS,TAF VEJS 140500Z 1406/1415 00000KT 3500 HZ SCT018 BKN100 BECMG 1409/1411 23005KT 5000 -RA HZ SCT018 SCT025 BKN100 BECMG 1412/1414 3200 BR SCT018 SCT100
VEJT,TAF VEJT 140500Z 1406/1415 07005KT 5000 HZ SCT018 BKN100 BECMG 1412/1414 00000KT 3000 BR
VEKO,TAF VEKO 140500Z 1406/1415 05010KT 5000 HZ NSC BECMG 1413/1415 4000 HZ
VELP,TAF VELP 140500Z 1406/1415 18003KT 4000 HZ SCT016 SCT025 BKN100 TEMPO 1408/1411 2500 -TSRA SCT015 FEW030CB BKN100 BECMG 1411/1415 00000KT 2800 BR SCT016 BKN100
VELR,TAF VELR 140500Z 1406/1415 05005KT 4000 HZ SCT018 BKN100 TEMPO 1413/1415 3000 BR SCT016 FEW025CB OVC090
VEMN,TAF VEMN 140500Z 1406/1415 09005KT 5000 HZ SCT018 FEW025CB BKN100 BECMG 1412/1415 3000 BR SCT020 BKN100
VEMR,TAF VEMR 140500Z 1406/1415 11005KT 5000 HZ SCT018 BKN100 BECMG 1412/1414 00000KT 3000 BR
VEPT,TAF VEPT 140500Z 1406/1415 25005KT 4000 HZ FEW018 SCT100 BECMG 1408/1410 5000 FEW018 SCT025 
VEPY,TAF VEPY 140500Z 1406/1415 19005KT 5000 -RA HZ SCT015 SCT100 BECMG 1413/1415 00000KT 3000 -RA HZ
VERC,TAF VERC 140500Z 1406/1415 35005KT 4000 HZ SCT018 SCT100 BECMG 1408/1410 5000 -RA BR SCT018 SCT025 BKN100
VERP,TAF VERP 140500Z 1406/1512 06005KT 5000 HZ SCT020 BKN090 TEMPO 1409/1413 32010KT 3000 -TSRA - SHRA SCT020 FEW030CB BKN090 BECMG 1500/1502 09002KT 2000 -RA BR FEW020 SCT090 BECMG 1505/1507 09005KT 5000 HZ FEW020 SCT025 BKN080 TEMPO 1509/1512 32010KT 4000 -TSRA -SHRA SCT020 FEW030CB BKN080
VERU,TAF VERU 140500Z 1406/1415 27005KT 5000 HZ SCT018 BKN100 BECMG 1413/1415 00000KT 3000 BR
VETJ,TAF VETJ 140500Z 1406/1415 11005KT 3000 HZ SCT018 BKN100
VETZ,TAF VETZ 140330Z 1406/1418 24010KT 6000 SCT015 FEW025TCU SCT080 TEMPO 1414/1418 10005KT SCT020 FEW025CB BKN090
VEZO,TAF VEZO 140500Z 1406/1415 21005KT 3000 HZ SCT018 BKN100
VGEG,TAF VGEG 140500Z 1406/1512 29007KT 5000 SCT016 SCT100 BECMG 1412/1414 27008KT 5000 SCT018 SCT100 BECMG 1420/1422 35005KT 5000 SCT016 SCT100 BECMG 1502/1504 02005KT 4000 SCT015 BKN100 BECMG 1508/1510 34008KT 5000 SCT018 SCT100
VGHS,TAF VGHS 140500Z 1406/1512 VRB04KT 3500 HZ SCT012 BKN100 TEMPO 1406/1412 20020KT 2500 RA/TSRA SCT008 FEW025CB BKN090 BECMG 1414/1416 20005KT 3500 HZ FEW015 SCT100
VHHH,TAF VHHH 140500Z 1406/1512 32010KT 9999 FEW025 TX31/1406Z TX32/1506Z TN25/1422Z BECMG 1408/1410 10010KT BECMG 1417/1419 03010KT BECMG 1503/1505 33010KT BECMG 1508/1510 10010KT
VIAG,TAF VIAG 140500Z 1406/1512 34008KT 6000 FEW250 BECMG 1421/1422 3000 BR BECMG 1500/1503 1500 BR BECMG 1504/1505 3000 BR BECMG 1506/1507 5000 HZ
VIAR,TAF VIAR 140500Z 1406/1415 29005KT 3000 HZ NSC BECMG 1408/1410 5000 HZ 
VIBR,TAF VIBR 140500Z 1406/1415 00000KT 6000 FEW025
VIBT,TAF VIBT 140330Z 1406/1418 27010KT 6000 FEW025 TEMPO 1416/1418 VRB02KT 5000 BR
VIBY,TAF VIBY 140330Z 1406/1418 28008KT 5000 BR SCT030 BECMG 1407/1408 6000 SCT025 TX 32/09Z
VICG,TAF VICG 140500Z 1406/1512 32010KT 6000 NSC TEMPO 1407/1409 32010KT 6000 FEW030 BECMG 1415/1418 VRB02KT 6000 NSC TEMPO 1422/1500 VRB02KT 5000 BR NSC BECMG 1501/1503 33005KT 6000 NSC TEMPO 1506/1508 32010KT 5000 BR NSC
VIDN,TAF VIDN 140500Z 1406/1415 27005KT 6000 FEW030 BECMG 1412/1414 03003KT 4000 BR SCT030
VIDP,TAF VIDP 140500Z 1406/1415 29006KT 2000 FU NSC BECMG 1408/1410 4000 HZ 
VIGG,TAF VIGG 140500Z 1406/1415 00000KT 8000 NSC BECMG 1412/1414 6000
VIGR,TAF VIGR 140330Z 1406/1418 30005KT 6000 FEW025
VIJO,TAF VIJO 140500Z 1406/1415 34005KT 5000 HZ NSC
VIJP,TAF VIJP 140500Z 1406/1512 34005KT 5000 HZ NSC BECMG 1412/1414 VRB03KT 3000 HZ FU BECMG 1500/1502 00000KT 1500 FU NSC BECMG 1503/1505 VRB03KT 5000 HZ
VIJU,TAF VIJU 140330Z 1406/1418 04005KT 6000 NSC
VIKG,TAF VIKG 140500Z 1406/1415 36005KT 5000 HZ NSC BECMG 1412/1414 VRB03KT 3000 HZ FU
VIKO,TAF VIKO 132300Z 1400/1409 VRB02KT 3000 HZ NSC BECMG 1404/1406 VRB03KT 5000 HZ
VILH,TAF VILH 140330Z 1406/1408 27006KT 6000 FEW070 SCT100 TEMPO 1410/1412 29015KT
VILK,TAF VILK 140500 1406/1415 VRB02KT 3000 BR HZ NSC BECMG 1406/1408 5000 HZ FEW020 SCT100
VIPT,TAF VIPT 140500Z 1406/1415 29005KT 5000 HZ FEW030 
VISM,TAF VISM 140500Z 1406/1415 27003KT 8000 FEW020 BECMG 1412/1414 6000 NSC
VISR,TAF VISR 140330Z 1406/1418 32003KT 6000 FEW025 BECMG 1409/1410 32006KT FEW025 FEW030CB SCT100 BECMG 1415/1416 5000 HZ FEW025
VLLB,TAF VLLB 140500Z 1406/1506 04006KT 9999 SCT020 BKN080
VLLN,TAF VLLN 140500Z 1406/1506 09006KT 9000 SCT020 BKN100
VLPS,TAF VLPS 140500Z 1406/1506 36008KT 4000 RA SCT017 BKN040
VLSK,TAF VLSK 140500Z 1406/1506 06006KT 8000 SCT020 BKN100
VLVT,TAF VLVT 140500Z 1406/1506 09006KT 8000 SCT020 BKN200
VMMC,TAF VMMC 140500Z 1406/1512 03008KT CAVOK TEMPO 1409/1414 10010KT
VNKT,TAF VNKT 140500Z 1406/1506 12003KT 8000 FEW015 SCT030 BECMG 1407/1408 25008KT 8000 FEW015 SCT030 BKN100 PROB30 1408/1412 VRB10KT 5000 -TSRA/-RA FEW025CB BECMG 1414/1415 17003KT 7000 FEW015 SCT100 BECMG 1500/1502 VRB02KT 6000 FEW015 SCT030 BKN100 BECMG 1504/1505 15003KT 8000 FEW015 SCT030
VOAR,TAF VOAR 132300Z 1400/1506 VRB02KT 4500 BR FEW020 SCT090 BECMG 1403/1405 16010KT 6000 TEMPO 1411/1415 3400 -TSRA/RA SCT018 FEW025TCU/CB BKN090 BECMG 1415/1417 VRB02KT 4500 BR BECMG 1501/1503 15008KT BECMG 1503/1505 6000
VOAT,TAF VOAT 140200Z 1403/1412 32010KT 4000 -RA BR SCT012 FEW025CB OVC080 BECMG 1406/1407 5000 DZ HZ SCT012 FEW025CB BKN080
VOBG,TAF VOBG 140500Z 1406/1415 21010KT 6000 SCT012 SCT018 TEMPO 1409/1415 3000 TSRA RA SCT010 SCT012 FEW025CB BKN080
VOBL,TAF VOBL 140500Z 1406/1512 21010KT 6000 SCT012 SCT018 TEMPO 1409/1415 3000 TSRA RA SCT010 SCT012 FEW025CB BKN080 BECMG 1417/1418 4000 DZ BR SCT010 SCT012 TEMPO 1420/1423 3000 RA DZ SCT008 SCT012 FEW025CB BKN080 TEMPO 1500/1503 2000 DZ BR BKN006 SCT012 BECMG 1504/1505 6000 SCT012 TEMPO 1509/1512 3000 TSRA RA SCT008 SCT012 FEW025CB BKN080
VOBM,TAF VOBM 140500Z 1406/1415 29010KT 6000 SCT008 SCT015 TEMPO 1409/1415 3000 TSRA RA SCT008 SCT012 FEW025CB BKN080
VOBZ,TAF VOBZ 140500Z 1406/1512 12010KT 6000 SCT015 SCT025 TEMPO 1409/1415 FEW030CB BKN080 BECMG 1415/1417 14006KT 5000 DZ HZ SCT015 SCT100 TEMPO 1423/1503 VRB04KT 1500 DZ BR BKN010 BKN080 BECMG 1504/1506 07008KT 6000 SCT015 SCT025 TEMPO 1509/1515 FEW030CB BKN080
VOCB,TAF VOCB 140500Z 1406/1512 07005KT 5000 HZ SCT012 BKN080PROB30 TEMPO 1406/1412 4000 -TSRA/RA SCT010 FEW020CB BKN080BECMG 1500/1501. 21005KT 3000 BRBECMG 1503/1505 5000 HZBECMG 1506/1507 07005KT 6000
VOCI,TAF VOCI 140500Z 1406/1512 29005KT 6000 FEW015 TEMPO 1410/1414 28010KT 5000 HZ SCT015 FEW025CB BKN080 BECMG 1414/1415 28005KT 4000 BR TEMPO 1422/1502 VRB03KT 2500 BR FEW015 SCT080 BECMG 1504/1505 28005KT 6000 FEW010 SCT015 SCT080 TEMPO 1510/1512 28010KT SCT012 FEW025CB BKN080
VOCL,TAF VOCL 140500Z 1406/1512 24005KT 6000 FEW015 SCT080 TEMPO 1412/1414 28010KT 4000 -TSRA BR FEW008 SCT012 FEW025CB BKN080 TEMPO 1422/1502 VRB03KT 3000 BR SCT015 SCT080 BECMG 1503/1504 6000 SCT012 SCT080 TEMPO 1510/1512 29010KT SCT012 FEW025CB BKN080
VOCP,TAF VOCP 140500Z 1406/1415 12010KT 6000 SCT015 SCT025 TEMPO 1409/1415 FEW030CB BKN080
VOGB,TAF VOGB 140500Z 1406/1415 VRB02KT 6000 SCT012 BKN080 TEMPO 1409/1415 3000 RA DZ SCT012 SCT018 FEW025CB BKN080
VOGO,TAF VOGO 140500Z 1406/1415 12005KT 6000 FEW018 SCT030 SCT090 TEMPO 1408/1410 23007KT 6000 TEMPO 1414/1415 4000 -TSRA RA FEW008 SCT018 FEW025CB BKN080
VOHB,TAF VOHB 140500Z 1406/1512 29010KT 6000 SCT008 SCT015 TEMPO 1409/1415 3000 TSRA RA SCT008 SCT012 FEW025CB BKN080 BECMG 1422/1423 5000 BR TEMPO 1500/1503 2000 BR SCT008 SCT012 BECMG 1503/1504 6000 SCT012 TEMPO 1509/1512 3000 TSRA RA SCT008 SCT012 FEW025CB BKN080
VOHS,TAF VOHS 140500Z 1406/1512 09008KT 6000 SCT015 SCT025 BKN100 TEMPO 1409/1415 14010KT 3000 RA DZ SCT015 FEW030CB BKN080 BECMG 1417/1419 10006KT 5000 HZ DZ SCT015 BKN100 TEMPO 1423/1503 VRB03KT 1500 DZ BR BKN010 SCT015 BKN080 BECMG 1504/1506 13010KT 5000 BR DZ SCT015 SCT025 BKN080 TEMPO 1509/1512 FEW030CB
VOHY,TAF VOHY 140500Z 1406/1415 09008KT 5000 DZ BR SCT015 SCT025 BKN080 TEMPO 1409/1415 14010KT 3000 RA DZ SCT010 SCT015 BKN080
VOJV,TAF VOJV 140500Z 1406/1415 VRB02KT 6000 SCT012 BKN080 TEMPO 1409/1415 3000 RA DZ SCT012 SCT018 FEW025CB BKN080
VOKN,TAF VOKN 140500Z 1406/1512 22005KT 6000 SCT012 BKN080 TEMPO 1410/1414 29010KT 4000 -TSRA BR SCT012 FEW025CB BKN080 BECMG 1414/1415 28005KT 3000 BR SCT012 BKN080 TEMPO 1422/1502 VRB03KT 1500 BR SCT003 SCT012 BKN080 BECMG 1504/1505 6000 SCT012 SCT080 TEMPO 1510/1512 28010KT SCT012 FEW025CB BKN080
VOKU,TAF VOKU 140500Z 1406/1415 14008KT 6000 SCT015 SCT025 TEMPO 1409/1415 12005KT 3000 RA DZ SCT010 FEW030CB BKN080
VOLT,VOLT 140500Z 1406/1415 09006KT 3000 -RA HZ SCT018 FEW025TCU/CB BKN090 TEMPO 1408/1414 2000 -TSRA SHRA SCT015 FEW030CB OVC080 BECMG 1409/1411 03005KT 
VOMD,TAF VOMD 140500Z 1406/1512 07005KT 6000 SCT020 BKN100PROB30 TEMPO 1406/1412 4000 -TSRA/RA SCT015 FEW025CB BKN080BECMG 1500/1501 5000 HZBECMG 1503/1504 6000
VOML,TAF VOML 140500Z 1406/1512 29010KT 6000 SCT012 SCT080 TEMPO 1409/1415 3000 RA DZ FEW005 SCT012 FEW025CB BKN080 BECMG 1418/1419 VRB02KT 3000 BR SCT005 SCT012 TEMPO 1500/1503 11008KT 1000 MIFG BR SCT002 SCT012 BECMG 1504/1505 27010KT 6000 SCT012
VOMM,TAF VOMM 140500Z 1406/1512 11010KT 5000 HZ SCT020 BKN100PROB30 TEMPO 1406/1412 4000 -TSRA/RA SCT015 FEW025CB BKN080BECMG 1418/1419 27005KT.BECMG 1500/1501 3000 BRBECMG 1503/1504 5000 HZBECMG 1506/1507 6000
VOMY,TAF VOMY 140500Z 1406/1415 21010KT 6000 SCT012 SCT018 TEMPO 1409/1415 3000 TSRA RA SCT010 SCT012 FEW025CB BKN080
VOND,VOND 140500Z 1406/1415 09008KT 3000 -RA HZ SCT012 FEW025TCU/CB BKN090 TEMPO 1406/1412 2000 -TSRA SHRA SCT015 FEW030CB OVC080 BECMG 1409/1411 03006KT 
VOPB,TAF VOPB 140300Z 1406/1415 20006KT 6000 SCT014 SCT080 TEMPO 1406/1410 4000 RA DZ SCT012 FEW022TCU BKN080 BECMG 1412/1414 VRB02KT 5000 BR
VORY,TAF VORY 140500Z 1406/1512 12010KT 6000 SCT015 SCT025 TEMPO 1409/1415 FEW030CB BKN080 BECMG 1415/1417 14006KT 5000 DZ HZ SCT015 SCT100 TEMPO 1423/1503 08006KT 1500 DZ BR BKN010 BKN080 BECMG 1504/1506 12010KT 6000 SCT015 SCT025 TEMPO 1509/1515 FEW030CB BKN080
VOSR,VOSR 140500Z 1406/1415 23006KT 3000 -RA HZ SCT018 FEW025TCU/CB BKN090 TEMPO 1406/1410 2000 -TSRA SHRA SCT015 FEW030CB OVC080 BECMG 1412/1414 VRB03KT 4000 HZ SCT020 BKN100
VOTP,TAF VOTP 140500Z 1406/1512 12010KT 6000 SCT015 SCT025 TEMPO 1409/1415 FEW030CB BKN080 BECMG 1415/1417 14006KT 5000 DZ HZ SCT015 SCT100 TEMPO 1423/1503 VRB03KT 3000 DZ BR BKN010 BKN080 BECMG 1504/1506 12010KT 6000 SCT015 SCT025 TEMPO 1509/1515 FEW030CB BKN080
VOTR,TAF VOTR 140500Z 1406/1512 11010KT 5000 -DZ/HZ SCT015 BKN080PROB30 TEMPO 1406/1412 4000 -TSRA/RA SCT012 FEW025CB BKN080BECMG 1500/1501 3000 BRBECMG 1503/1504 5000 HZBECMG 1506/1507 6000
VOTV,TAF VOTV 140500Z 1406/1512 28010KT 6000 SCT015 SCT080 TEMPO 1410/1414 4000 -TSRA BR SCT012 FEW025CB BKN080 BECMG 1414/1415 28005KT 3000 -TSRA BR SCT015 FEW025CB BKN080 TEMPO 1422/1502 VRB03KT 2500 BR SCT015 BKN080 BECMG 1503/1504 28005KT 6000 FEW015 SCT080 TEMPO 1510/1512 28010KT 4000 -TSRA RA SCT012 FEW025CB BKN080
VOVZ,TAF VOVZ 140500Z 1406/1512 03007KT 4000 DZ BR SCT016 FEW022TCU BKN080 TEMPO 1407/1411 05008G18KT 2000 RA SCT016 FEW022TCU/CB BKN080 BECMG 1414/1416 VRB02KT 4500 BR SCT016 BKN080 TEMPO 1420/1424 07008G18KT 2000 TSRA/RA SCT014 FEW025CB BKN080 BECMG 1502/1504 06006KT 4500 BR SCT016 BKN080 TEMPO 15/1511 05008KTG18KT 2000 TSRA/RA SCT016 FEW022TCU/CB BKN080
VRMG,TAF VRMG 140500Z 1406/1512 27017KT 9999 FEW017TCU TEMPO 1406/1412 5000 SHRA FEW017CB
VRMH,TAF VRMH 140500Z 1406/1512 25012KT 9999 FEW018TCU BKN100 TEMPO 1406/1412 4000 SHRA SCT016CB
VRMM,TAF VRMM 140500Z 1406/1512 27020KT 9999 SCT017TCU BKN100 TEMPO 1406/1412 27025G40KT 3000 SHRA SCT016CB
VTBD,TAF VTBD 140500Z 1406/1512 08008KT 9999 FEW030
VTBO,TAF VTBO 140500Z 1406/1506 05008KT 9999 FEW020
VTBS,TAF VTBS 140500Z 1406/1512 08008KT 9999 FEW030
VTBU,TAF VTBU 140500Z 1406/1506 05008KT 8000 FEW020 BECMG 1416/1418 33005KT BECMG 1501/1503 04008KT
VTCC,TAF VTCC 140500Z 1406/1512 02005KT 9999 SCT035 TEMPO 1406/1412 -TSRA FEW025CB BKN030 BECMG 1412/1414 24005KT BECMG 1416/1418 30005KT TEMPO 1506/1512 -TSRA FEW025CB BKN030
VTCH,TAF VTCH 140500Z 1406/1506 15005KT 9999 SCT025 TEMPO 1406/1412 -TSRA FEW020CB BKN025 BECMG 1421/1423 00000KT 1500 BR BECMG 1500/1502 16005KT 9999 NSW
VTCL,TAF VTCL 140500Z 1406/1506 17005KT 9999 SCT025 TEMPO 1406/1412 -TSRA FEW020CB SCT025
VTCN,TAF VTCN 140500Z 1406/1506 03005KT 9999 SCT025
VTCP,TAF VTCP 140500Z 1406/1506 14005KT 9999 SCT025 TEMPO 1406/1412 -TSRA FEW020CB SCT025
VTCT,TAF VTCT 140500Z 1406/1512 01005KT 9999 SCT030 TEMPO 1406/1412 -TSRA FEW020CB BKN030 BECMG 1408/1410 14005KT BECMG 1414/1416 03005KT
VTPB,TAF VTPB 140500Z 1406/1506 03005KT 9999 FEW030
VTPH,TAF VTPH 140500Z 1406/1506 05008KT 9000 FEW020 SCT100 BECMG 1413/1415 35003KT BECMG 1503/1505 05008KT
VTPM,TAF VTPM 140500Z 1406/1506 08005KT 9999 SCT030 TEMPO 1406/1412 -TSRA FEW020CB SCT030
VTPO,TAF VTPO 140500Z 1406/1506 22005KT 9999 SCT025 TEMPO 1406/1412 -TSRA FEW018CB SCT020
VTPP,TAF VTPP 140500Z 1406/1506 14005KT 9999 FEW025
VTSB,TAF VTSB 140500Z 1406/1506 02006KT 9999 FEW020 SCT100 PROB40 TEMPO 1406/1413 VRB15G25KT 4000 TSRA FEW016CB SCT018 BKN100 BECMG 1413/1415 00000KT BECMG 1503/1505 02006KT
VTSC,TAF VTSC 140500Z 1406/1506 32010KT 9999 FEW020 BECMG 1413/1415 20004KT BECMG 1503/1505 32010KT
VTSE,TAF VTSE 140500Z 1406/1506 04008KT 9000 SCT020 TEMPO 1406/1413 VRB15G25KT 4000 TSRA FEW016CB SCT018 BKN100 BECMG 1413/1415 00000KT BECMG 1503/1505 04008KT
VTSF,TAF VTSF 140500Z 1406/1506 03008KT 9999 FEW020 SCT100 BECMG 1413/1415 00000KT BECMG 1503/1505 03008KT
VTSG,TAF VTSG 140500Z 1406/1506 28006KT 9999 SCT020 TEMPO 1406/1412 28015G25KT 3000 TSRA FEW018CB SCT020 BKN100 BECMG 1412/1414 00000KT BECMG 1500/1502 26006KT
VTSM,TAF VTSM 140500Z 1406/1506 33008KT 9999 FEW020 BECMG 1412/1414 00000KT PROB30 TEMPO 1414/1420 VRB15G25KT 4000 TSRA FEW016CB SCT018 BKN100 BECMG 1502/1504 30008KT
VTSP,TAF VTSP 140500Z 1406/1512 30008KT 9999 SCT020 TEMPO 1406/1412 30015G25KT 3000 TSRA FEW018CB SCT020 BKN100 TEMPO 1420/1502 30015G25KT 3000 TSRA FEW018CB SCT020 BKN100
VTSR,TAF VTSR 140500Z 1406/1506 30006KT 9999 SCT020 BECMG 1412/1414 00000KT
VTSS,TAF VTSS 140500Z 1406/1506 25008KT 9999 SCT020 SCT100 TEMPO 1406/1413 VRB15G25KT 3000 TSRA FEW016CB SCT018 BKN100 BECMG 1413/1415 00000KT PROB40 TEMPO 1415/1421 4000 RA
VTST,TAF VTST 140500Z 1406/1506 26006KT 9999 SCT020 TEMPO 1406/1412 26015G25KT 3000 TSRA FEW018CB SCT020 BKN100 BECMG 1412/1414 00000KT
VTUD,TAF VTUD 140500Z 1406/1506 07005KT 9000 FEW030
VTUI,TAF VTUI 140500Z 1406/1506 06005KT 9000 FEW030
VTUK,TAF VTUK 140500Z 1406/1506 05005KT 9000 FEW030
VTUL,TAF VTUL 140500Z 1406/1506 09005KT 9000 FEW030
VTUO,TAF VTUO 140500Z 1406/1506 02008KT 9000 NSC TEMPO 1500/1504 VRB15KT 3000 TSRA SCT015CB BKN020
VTUQ,TAF VTUQ 140500Z 1406/1506 03006KT 9000 NSC TEMPO 1503/1506 VRB15KT 4000 TSRA SCT015CB BKN020
VTUU,TAF VTUU 140500Z 1406/1506 03008KT 9000 NSC TEMPO 1412/1415 VRB15KT 4000 TSRA SCT015CB BKN020 TEMPO 1417/1422 VRB15KT 3000 TSRA SCT015CB BKN020 TEMPO 1503/1506 VRB15KT 4000 TSRA SCT015CB BKN020
VTUV,TAF VTUV 140500Z 1406/1506 04008KT 9000 NSC TEMPO 1418/1422 VRB15KT 3000 TSRA SCT015CB BKN020
VTUW,TAF VTUW 140500Z 1406/1506 07005KT 9000 FEW030
VVCI,TAF VVCI 140500Z 1406/1506 01009KT CAVOK
VVCR,TAF VVCR 140500Z 1406/1506 32008KT 9999 FEW013 BKN060 TEMPO 1409/1418 4500 RA
VVCT,TAF VVCT 140500Z 1406/1506 34007KT 9999 SCT015 SCT040 TEMPO 1407/1412 5000 TSRA BKN013 FEW015CB TEMPO 1422/1502 4000 SHRA BKN013 FEW015CB BKN040
VVDN,TAF VVDN 140500Z 1406/1506 34014KT 5000 RA SCT013 OVC050 TEMPO 1406/1412 2500 +SHRA SCT008 FEW015CB OVC050 TEMPO 1412/1418 02015G25KT 2000 +TSRA SCT008 SCT015CB OVC040 BECMG 1418/1420 05018KT TEMPO 1420/1504 06018G28KT 1400 +SHRA BKN008 SCT015CB OVC040 BECMG 1504/1505 13015KT
VVNB,TAF VVNB 140500Z 1406/1506 02009KT CAVOK TEMPO 1411/1414 3000 FU
VVPB,TAF VVPB 140500Z 1406/1506 30010KT 2800 RA BR BKN010 OVC040 BECMG 1420/1422 02015KT TEMPO 1422/1504 03015G25KT 1400 +SHRA BKN008 SCT015CB OVC030 BECMG 1504/1505 4500 RA BR
VVPQ,TAF VVPQ 140500Z 1406/1506 27007KT 9999 SCT015 SCT040 TEMPO 1412/1416 5000 SHRA BKN015 FEW017CB BKN040 TEMPO 1422/1502 5000 SHRA BKN015 FEW017CB BKN040
VVTS,TAF VVTS 140500Z 1406/1512 33009KT 9999 SCT015 SCT050 TEMPO 1409/1413 4000 SHRA SCT013 FEW015CB BKN050 TEMPO 1420/1501 3000 SHRA SCT013 SCT015CB BKN050
VYMD,TAF VYMD 140500Z 1406/1506 36004KT 7000 BKN020 TEMPO 1406/1412 36005KT 6000 BKN020 FEW025CB
VYNT,TAF VYNT 140500Z 1406/1506 29007KT 7000 SCT020 FEW025CB BKN120 TEMPO 1406/1412 32006KT 7000 TS SCT018 FEW023CB BKN110
VYYY,TAF VYYY 140500Z 1406/1506 04006KT 8000 SCT015 FEW020CB BKN100 BECMG 1406/1408 6000 DZ TEMPO 1408/1413 33010G20KT 3000 TSRA BKN010 FEW016CB OVC080
WAAA,TAF WAAA 140500Z 1406/1512 28010KT 9999 SCT019 TEMPO 1405/1408 5000 TSRA FEW018CB BECMG 1410/1411 11003KT
WABB,TAF WABB 140500Z 1406/1512 09007KT 9999 SCT018 PROB40 TEMPO 1406/1408 5000 RA
WADD,TAF WADD 140500Z 1406/1506 17010KT 9999 SCT016
WADL,TAF WADL 140500Z 1406/1506 15010KT 7000 BKN016
WALL,TAF WALL 140500Z 1406/1512 20005KT 9999 FEW020
WALS,TAF WALS 140500Z 1406/1418 25005KT 9999 SCT018
WAMM,TAF WAMM 140500Z 1406/1512 15008KT 9999 SCT020 PROB40 TEMPO 1406/1408 5000 RA FEW018CB BECMG 1410/1412 VRB03KT
WAOO,TAF WAOO 140500Z 1406/1506 20006KT 9999 SCT018 TEMPO 1406/1410 4000 RA
WAPP,TAF WAPP 140500Z 1406/1506 19007KT 9999 SCT017 BECMG 1411/1413 35006KT
WAQA,TAF WAQA 140500Z 1406/1418 27003KT 9999 FEW012
WAQD,TAF WAQD 140500Z 1406/1418 16002KT 7000 FEW015 BECMG 1406/1408 9999
WAQJ,TAF WAQJ 140500Z 1406/1418 24007KT 8000 BKN017 BECMG 1407/1409 SCT018
WAQQ,TAF WAQQ 140500Z 1406/1418 23004KT 9999 FEW015
WAQT,TAF WAQT 140500Z 1406/1418 26005KT 9999 SCT018
WARR,TAF WARR 140500Z 1406/1506 08010KT 9999 FEW020 PROB30 TEMPO 1408/1412 34010KT 5000 TSRA SCT020CB BECMG 1416/1418 26005KT 5000 HZ
WATT,TAF WATT 140500Z 1406/1506 23010KT 9999 SCT017 PROB40 TEMPO 1406/1409 5000 RA FEW015CB BKN015
WBGB,TAF WBGB 140500Z 1406/1506 22006KT 9999 SCT016
WBGG,TAF WBGG 140500Z 1406/1506 24005KT 9999 SCT018 TEMPO 1409/1412 5000 -TSRA FEW015CB SCT018
WBGR,TAF WBGR 140500Z 1406/1506 23010KT 9999 SCT018
WBGS,TAF WBGS 140500Z 1406/1506 24005KT 9999 SCT016
WBKK,TAF WBKK 140500Z 1406/1506 21008KT 9999 FEW014 PROB30 TEMPO 1420/1500 3000 +RA FEW010 FEW016CB SCT035
WBKL,TAF WBKL 140500Z 1406/1506 22005KT 9999 FEW014 TEMPO 1411/1415 23010G20KT 4000 RA FEW010 SCT030
WBKS,TAF WBKS 140500Z 1406/1506 20005KT 9999 FEW016
WBKW,TAF WBKW 140500Z 1406/1506 16006KT 9999 FEW016 BECMG 1410/1412 VRB02KT TEMPO 1416/1420 5000 TSRA FEW010 FEW016CB
WBSB,TAF WBSB 140500Z 1406/1512 20010KT 9999 FEW015 FEW016CB TEMPO 1408/1414 6000 -SHRA SCT014 BECMG 1412/1414 FEW014 FEW015CB
WIDD,TAF WIDD 140500Z 1406/1506 28010KT 9999 SCT014 PROB30 TEMPO 1406/1409 5000 RA
WIEE,TAF WIEE 140500Z 1406/1506 27005KT 9999 SCT020 TEMPO 1410/1413 30010KT 1500 RA BKN015
WIHH,TAF WIHH 140500Z 1406/1506 15006KT 6000 SCT020 TEMPO 1407/1411 34012KT 3000 -TSRA FEW017CB BKN018 TEMPO 1413/1415 06006KT 4000 -RA SCT018 BECMG 1416/1418 00000KT FEW020
WIII,TAF WIII 140500Z 1406/1512 33007KT 9000 SCT020 TEMPO 1408/1412 13010KT 4000 -TSRA FEW020CB BECMG 1412/1414 VRB04KT 5000 BR BECMG 1423/1501 8000 NSW
WIMM,TAF WIMM 140500Z 1406/1506 36010KT 9999 SCT018 BECMG 1410/1412 VRB05KT 5000 HZ TEMPO 1414/1418 TSRA FEW016CB
WIPB,TAF WIPB 140500Z 1406/1418 06006KT 8000 BKN010 TEMPO 1412/1416 5000 -TSRA FEW010CB BKN011
WIPP,TAF WIPP 140500Z 1406/1506 27007KT 9999 SCT010 TEMPO 1407/1411 3000 RA FEW010CB BKN011 TEMPO 1420/1424 3000 BR
WIPY,TAF WIPY 132300Z 1400/1412 19005KT 9999 SCT010 TEMPO 1400/1402 5000 HZ
WITT,TAF WITT 140500Z 1406/1506 24008KT 9999 SCT017 BECMG 1414/1416 12006KT PROB30 TEMPO 1417/1420 VRB05KT 5000 RA FEW016CB
WMAP,TAF WMAP 140500Z 1406/1506 VRB03KT 9999 FEW018 TEMPO 1406/1411 4000 TSRA FEW017CB SCT018
WMBT,TAF WMBT 140500Z 1406/1506 VRB02KT 9999 FEW020 PROB30 TEMPO 1409/1413 5000 TSRA FEW017CB
WMKA,TAF WMKA 140500Z 1406/1506 29004KT 9000 -RA FEW010 BECMG 1411/1413 VRB03KT 9999 NSW FEW030
WMKB,TAF WMKB 140500Z 1406/1506 30007KT 8000 FEW020 TEMPO 1406/1409 6000 RA FEW010 TEMPO 1413/1418 5000 TSRA FEW017CB
WMKC,TAF WMKC 140500Z 1406/1506 32008KT 9999 FEW018
WMKE,TAF WMKE 140500Z 1406/1506 06006KT 9999 FEW017 TEMPO 1407/1411 5000 TSRA FEW008 FEW014CB
WMKI,TAF WMKI 140500Z 1406/1506 05005KT 9999 FEW020 TEMPO 1407/1412 5000 TSRA FEW017CB BECMG 1412/1414 VRB02KT 8000 FEW026
WMKJ,TAF WMKJ 140500Z 1406/1506 VRB03KT 9999 FEW017CB TEMPO 1406/1411 26005G18KT 4000 TSRA FEW016CB SCT018
WMKK,TAF WMKK 140500Z 1406/1512 28006KT 9999 FEW017CB TEMPO 1406/1410 3000 TSRA FEW008 FEW016CB
WMKL,TAF WMKL 140500Z 1406/1506 VRB05KT 7000 -RA FEW006 SCT025 BECMG 1411/1413 VRB03KT 9999 NSW FEW026 TEMPO 1421/1501 5000 TSRA FEW010 FEW017CB
WMKM,TAF WMKM 140500Z 1406/1506 VRB03KT 9999 FEW017CB TEMPO 1406/1410 4000 TSRA FEW008 FEW016CB
WMKN,TAF WMKN 140500Z 1406/1506 33010KT 9999 FEW018
WMKP,TAF WMKP 140500Z 1406/1506 22006KT 9999 FEW020 BECMG 1410/1412 00000KT 8000 FEW025 TEMPO 1421/1501 5000 TSRA FEW010 FEW017CB
WMPA,TAF WMPA 140500Z 1406/1506 32005KT 9999 FEW017CB TEMPO 1406/1410 6000 RA SCT022 BECMG 1411/1413 VRB02KT 8000 FEW031 PROB30 TEMPO 1419/1424 5000 TSRA FEW017CB
WMSA,TAF WMSA 140500Z 1406/1506 30008KT 9999 FEW018 PROB30 TEMPO 1406/1410 4000 TSRA FEW017CB SCT018
WPDL,TAF WPDL 140514Z 1406/1418 36008KT 9999 SCT035 FM141100 16005KT 9999 FEW020 PROB30 TEMPO 1406/1410 VRB20G35KT 1000 TSRA BKN010 SCT030CB
WSAP,TAF WSAP 140500Z 1406/1512 21007KT 9999 FEW015 BKN020 PROB30 TEMPO 1423/1501 4000 TSRA FEW012CB BKN015
WSSL,TAF WSSL 140500Z 1406/1512 21007KT 9999 FEW015 BKN020 PROB30 TEMPO 1423/1501 4000 TSRA FEW012CB BKN015
WSSS,TAF WSSS 140500Z 1406/1512 21007KT 9999 FEW015 BKN020 PROB30 TEMPO 1423/1501 4000 TSRA FEW012CB BKN015
YAMB,TAF YAMB 140509Z 1406/1506 33010KT 9999 SCT040 FM140700 24006KT 9999 -SHRA SCT040 BKN050 FM141000 VRB03KT CAVOK FM142300 12008KT CAVOK
YBAS,TAF YBAS 140512Z 1406/1506 10012KT CAVOK FM141000 10007KT CAVOK FM150000 10012KT CAVOK
YBBN,TAF YBBN 140505Z 1406/1512 01015KT 9999 FEW045 FM140700 36010KT 9999 -SHRA FEW025 BKN050 FM141100 25008KT 9999 NSW SCT050 FM141500 22008KT CAVOK FM150000 12012KT CAVOK
YBCG,TAF YBCG 140528Z 1406/1506 01016KT 9999 -SHRA SCT045 FM140800 32010KT 9999 -RA SCT018 BKN050 FM141500 22008KT CAVOK FM142200 16014KT 9999 SCT045
YBCS,TAF YBCS 140515Z 1406/1506 09012KT 9999 SCT040 FM140900 17006KT 9999 SCT025 FM150100 09012KT 9999 SCT035
YBHM,TAF YBHM 140516Z 1406/1418 12014KT 9999 FEW020 FM140800 09012KT 9999 BKN018
YBLN,TAF YBLN 140502Z 1406/1506 29014KT 9999 -SHRA SCT020 BKN030 FM141000 18008KT 9999 NSW SCT015 BKN035 FM141400 16005KT 9999 FEW035 FM142000 13004KT CAVOK FM150100 13005KT 9999 SCT030 INTER 1406/1410 3000 SHRA BKN015 PROB30 1416/1422 0300 FG
YBMA,TAF YBMA 140516Z 1406/1418 16014KT CAVOK FM140900 16010KT CAVOK
YBRK,TAF AMD YBRK 140528Z 1406/1506 04008KT 9999 SCT045 FM141000 04008KT 9999 SCT012 FM141200 VRB04KT 9999 SCT010 FM142300 VRB04KT 9999 SCT040 FM150300 04008KT 9999 SCT050 TEMPO 1412/1423 9999 BKN010 PROB30 1416/1422 0500 FG
YBRM,TAF YBRM 140505Z 1406/1506 23012KT CAVOK FM141200 22005KT CAVOK FM142300 15008KT CAVOK FM150400 28012KT CAVOK
YBTL,TAF YBTL 140404Z 1405/1500 06014KT 9999 FEW035 FM140900 08010KT 9999 SCT020 FM141500 13007KT 9999 SCT020
YBWW,TAF AMD YBWW 140524Z 1406/1506 27012KT 9999 -RA FEW008 BKN035 FM140700 25010KT 9999 NSW SCT008 BKN035 FM141300 22005KT 9999 FEW035 TEMPO 1408/1413 9999 BKN008 PROB30 1413/1422 0300 FG
YCFS,TAF YCFS 140507Z 1406/1506 02012KT 9999 FEW045 FM140900 25008KT CAVOK FM150100 16010KT CAVOK
YCIN,TAF YCIN 140114Z 1402/1414 12016KT CAVOK FM140400 12008KT CAVOK FM140700 30008KT CAVOK
YFRT,TAF YFRT 140103Z 1402/1414 27006KT CAVOK FM140300 21010KT CAVOK FM140700 18008KT CAVOK FM141000 13012KT CAVOK
YGEL,TAF YGEL 140509Z 1406/1500 18016KT CAVOK FM141000 16012KT CAVOK FM141600 14008KT CAVOK
YGLA,TAF YGLA 140529Z 1406/1418 05012KT 9999 SCT035 FM140900 07006KT 9999 SCT012 FM141500 21005KT 9999 SCT012 TEMPO 1412/1418 9999 BKN010
YHID,TAF YHID 140518Z 1406/1506 11018KT 9999 SCT025 FM141000 12014KT 9999 BKN018 FM150000 11018KT 9999 SCT022
YLHI,TAF YLHI 140518Z 1406/1506 03014KT 9999 SCT030 FM141200 36016G26KT 9999 -SHRA SCT012 BKN020 FM142000 24014KT 9999 -SHRA BKN020 FM142200 22014KT CAVOK FM150200 19018KT CAVOK INTER 1415/1421 3000 SHRA BKN012
YMAV,TAF YMAV 140506Z 1406/1506 27018G32KT 9999 -SHRA BKN030 FM140800 27010KT 9999 NSW SCT035 FM141100 30006KT 9999 SCT035 FM142200 27014KT 9999 FEW040
YMHB,TAF YMHB 140523Z 1406/1506 04010KT 9999 -SHRA BKN040 FM141200 31008KT 9999 NSW SCT040 FM150000 25012KT 9999 -SHRA SCT030
YMLT,TAF YMLT 140522Z 1406/1506 33014KT 9999 -SHRA SCT020 FM140900 35010KT CAVOK FM150000 30014KT 9999 BKN040 INTER 1406/1408 4000 SHRA SCT015
YMML,TAF YMML 140505Z 1406/1512 29018G28KT 9999 -SHRA SCT020 BKN040 FM140700 25012KT 9999 -SHRA SCT035 FM141000 31008KT 9999 NSW SCT035 FM142200 27010KT 9999 SCT035 FM150900 19010KT 9999 -DZ BKN020
YPAD,TAF YPAD 140511Z 1406/1512 25014KT 9999 -SHRA FEW030 BKN050 FM140900 24008KT 9999 NSW SCT050 FM141400 26005KT 9999 BKN020 FM142100 02005KT 9999 SCT025 FM150100 30010KT 9999 SCT050 FM150400 24010KT CAVOK
YPCC,TAF YPCC 140504Z 1406/1506 10014KT 9999 BKN020
YPDN,TAF YPDN 140542Z 1406/1512 32010KT 9999 SCT030 FM141000 28005KT 9999 SCT020 FM141800 10005KT 9999 SCT015 FM150100 01010KT 9999 SCT025 SCT035 INTER 1416/1422 4000 SHRA BKN015
YPEA,TAF YPEA 140402Z 1405/1418 23012KT CAVOK FM140900 22008KT CAVOK
YPGV,TAF YPGV 140123Z 1402/1414 06012KT 9999 SCT020 FM140600 12012KT 9999 SCT020 FM140900 11008KT 9999 SCT015
YPJT,TAF YPJT 140507Z 1406/1500 23010KT CAVOK FM141100 16006KT CAVOK FM141600 13005KT CAVOK
YPKG,TAF YPKG 140502Z 1406/1506 30010KT CAVOK FM140900 03008KT CAVOK FM141200 19008KT CAVOK FM150000 33010KT CAVOK
YPKU,TAF YPKU 140116Z 1402/1414 13008KT CAVOK FM140400 01010KT CAVOK
YPLM,TAF YPLM 140504Z 1406/1506 01012KT CAVOK FM140900 31014KT CAVOK FM141400 22006KT CAVOK FM150300 04010KT CAVOK
YPPD,TAF YPPD 140505Z 1406/1506 34014KT CAVOK FM141100 28006KT CAVOK FM141400 22006KT CAVOK FM142300 13008KT CAVOK FM150300 02012KT CAVOK
YPPH,TAF YPPH 140506Z 1406/1512 24012KT CAVOK FM141300 16006KT CAVOK FM141800 13003KT CAVOK FM150400 24012KT CAVOK FM151100 21010KT CAVOK
YPTN,TAF YPTN 140517Z 1406/1506 VRB03KT CAVOK FM141400 05007KT 9999 SCT035 FM150000 10005KT 9999 FEW025 PROB30 TEMPO 1406/1409 VRB20G35KT 1000 TSRA BKN010 SCT035CB
YPWR,TAF YPWR 140454Z 1406/1500 24008KT CAVOK FM141500 18007KT CAVOK
YPXM,TAF AMD YPXM 140506Z 1405/1506 13010KT 9999 BKN022 FM141500 14007KT 9999 BKN015 FM150300 13010KT 9999 BKN020 TEMPO 1415/1503 9999 BKN013
YSCB,TAF AMD YSCB 140520Z 1405/1506 27015G25KT 9999 -SHRA FEW020 SCT045 FM140700 28014KT 9999 NSW SCT040 FM141200 30006KT 9999 SCT030 FM150000 31014KT CAVOK
YSDU,TAF YSDU 140514Z 1406/1500 27015G25KT 9999 SCT045 FM140700 23008KT CAVOK FM141300 VRB03KT CAVOK
YSNF,TAF YSNF 140513Z 1406/1506 19012KT 9999 SCT025
YSRI,TAF YSRI 140512Z 1406/1506 26018G28KT CAVOK FM140700 26008KT CAVOK FM141100 VRB03KT CAVOK FM150000 11008KT CAVOK
YSSY,TAF YSSY 140503Z 1406/1512 24014G26KT CAVOK FM140800 26010KT CAVOK FM142100 23005KT CAVOK FM150100 13008KT 9999 FEW040 FM150600 06012KT 9999 SCT035
YSTW,TAF YSTW 140517Z 1406/1500 28014KT 9999 SCT045 FM141300 14008KT CAVOK
YWLM,TAF YWLM 140514Z 1406/1506 29018G30KT CAVOK FM140700 28008KT CAVOK BECMG 1500/1502 16010KT CAVOK
ZBAA,TAF ZBAA 140300Z 1406/1506 18004MPS 3500 BR NSC TX22/1407Z TN09/1421Z
ZBAD,TAF ZBAD 140301Z 1406/1506 20004MPS 3000 BR NSC TX22/1407Z TN10/1421Z
ZBHH,TAF ZBHH 140300Z 1406/1506 24004MPS CAVOK TX20/1407Z TN06/1422Z
ZBSJ,TAF ZBSJ 140302Z 1406/1506 18003MPS 4000 HZ NSC TX23/1407Z TN10/1421Z BECMG 1421/1422 1600 BR BECMG 1502/1503 3000 HZ
ZBTJ,TAF ZBTJ 140304Z 1406/1506 21003MPS 3000 BR NSC TX23/1406Z TN11/1421Z BECMG 1417/1418 2400 BECMG 1423/1424 3000
ZBYN,TAF COR ZBYN 140354Z 1406/1506 21003MPS 3000 HZ NSC TX20/1407Z TN06/1422Z
ZGGG,TAF ZGGG 140304Z 1406/1506 01004MPS CAVOK TX32/1407Z TN22/1422Z
ZGHA,TAF ZGHA 140302Z 1406/1506 35004MPS 6000 SCT050 TX27/1407Z TN14/1422Z
ZGKL,TAF ZGKL 140307Z 1406/1506 05003MPS 7000 FEW060 TX30/1407Z TN11/1422Z
ZGNN,TAF ZGNN 140307Z 1406/1506 01003MPS CAVOK TX30/1407Z TN15/1422Z
ZGOW,TAF ZGOW 140305Z 1406/1506 10003MPS 6000 SCT050 TX32/1506Z TN19/1422Z
ZGSZ,TAF ZGSZ 140301Z 1406/1506 32004MPS 8000 FEW030 TX30/1406Z TN24/1422Z BECMG 1411/1412 08004MPS
ZHCC,TAF ZHCC 140306Z 1406/1506 34003MPS 4000 HZ NSC TX22/1407Z TN12/1422Z
ZHHH,TAF ZHHH 140301Z 1406/1506 02003MPS 6000 NSC TX25/1407Z TN11/1422Z
ZJHK,TAF ZJHK 140305Z 1406/1506 05004MPS 9999 SCT020 TX28/1406Z TN22/1421Z TEMPO 1406/1412 05009G14MPS
ZJSY,TAF ZJSY 140306Z 1406/1506 07005MPS 9999 SCT020 BKN050 TX31/1506Z TN22/1421Z TEMPO 1406/1412 TSRA SCT016 FEW025CB BKN040 TEMPO 1418/1424 SHRA SCT018 FEW025CB
ZKPY,TAF ZKPY 140420Z 1406/1506 32003MPS 7000 BKN040 TX19/1406Z TN07/1421Z BECMG 1409/1411 CAVOK TEMPO 1420/1424 0300 FG
ZKWS,TAF ZKWS 140420Z 1406/1506 27003MPS CAVOK TX19/1406Z TN10/1421Z
ZLLL,TAF ZLLL 140301Z 1406/1506 17003MPS 6000 NSC TX14/1408Z TN05/1423Z
ZLXY,TAF ZLXY 140308Z 1406/1506 24003MPS 3000 BR NSC TX20/1407Z TN11/1422Z
ZMCK,TAF ZMCK 140436Z 1406/1512 32007MPS 9999 SCT033 SCT100 TX06/1407Z TNM09/1422Z BECMG 1410/1412 34005MPS FM141400 VRB02MPS BECMG 1501/1503 33008MPS SCT100 BECMG 1510/1512 33005MPS
ZMUB,TAF ZMUB 140451Z 1406/1512 VRB02MPS 9999 BKN033 TX05/1407Z TNM10/1422Z BECMG 1410/1412 VRB02MPS BECMG 1502/1504 34007MPS SCT100 BECMG 1510/1512 VRB02MPS
ZPPP,TAF ZPPP 140311Z 1406/1506 04004MPS 6000 FEW005 SCT020 OVC036 TX15/1408Z TN10/1423Z
ZSAM,TAF ZSAM 140304Z 1406/1506 10006G12MPS 8000 SCT030 TX32/1506Z TN22/1421Z BECMG 1411/1412 03004G09MPS
ZSFZ,TAF ZSFZ 140313Z 1406/1506 03009G14MPS 9999 BKN025 TX27/1406Z TN21/1421Z BECMG 1419/1420 04004MPS BECMG 1500/1501 03009G14MPS
ZSHC,TAF ZSHC 140301Z 1406/1506 03003MPS 6000 SCT030 TX25/1406Z TN14/1421Z
ZSJN,TAF ZSJN 140312Z 1406/1506 24003MPS 3500 BR NSC TX22/1506Z TN11/1422Z
ZSNB,TAF ZSNB 140302Z 1406/1506 03004MPS 6000 BKN030 TX23/1406Z TN17/1421Z
ZSNJ,TAF ZSNJ 140305Z 1406/1506 06004MPS 3500 HZ NSC TX23/1506Z TN13/1421Z TEMPO 1420/1423 1500 BR
ZSOF,TAF ZSOF 140302Z 1406/1506 09003MPS 3000 HZ NSC TX23/1406Z TN11/1421Z
ZSPD,TAF ZSPD 140305Z 1406/1506 03004MPS 6000 BKN030 TX23/1406Z TN15/1421Z
ZSQD,TAF ZSQD 140314Z 1406/1506 18003MPS 5000 BR BKN040 TX21/1406Z TN09/1421Z BECMG 1415/1416 2500 BECMG 1418/1419 0300 FG BECMG 1501/1502 3500 BR
ZSSS,TAF ZSSS 140304Z 1406/1506 03004MPS 6000 BKN030 TX24/1406Z TN15/1421Z
ZUCK,TAF ZUCK 140300Z 1406/1506 24003MPS 6000 OVC050 TX20/1408Z TN16/1421Z
ZUGY,TAF ZUGY 140302Z 1406/1506 02004MPS 6000 OVC033 TX22/1407Z TN13/1422Z
ZUUU,TAF ZUUU 140301Z 1406/1506 22003MPS 6000 SCT040 TX21/1506Z TN15/1422Z
ZWSH,TAF ZWSH 140314Z 1406/1506 12004MPS 6000 FEW040 TX20/1409Z TN11/1501Z BECMG 1422/1423 33005MPS
ZWWW,TAF ZWWW 140303Z 1406/1506 36004MPS CAVOK TX19/1409Z TN08/1423Z BECMG 1413/1414 18004MPS BECMG 1502/1503 36004MPS
ZYCC,TAF ZYCC 140305Z 1406/1506 22004MPS 5000 BR SCT030 TX15/1406Z TN08/1420Z
ZYHB,TAF ZYHB 140302Z 1406/1506 18004MPS 3000 BR FEW030 TX14/1406Z TN04/1421Z TEMPO 1406/1412 1000
ZYTL,TAF ZYTL 140304Z 1406/1506 21004MPS 5000 BR NSC TX20/1406Z TN12/1422Z
ZYTX,TAF ZYTX 140300Z 1406/1506 18003MPS 6000 NSC TX21/1506Z TN07/1421Z
