station_id, observation_time,raw_text
AYPY,2022-11-05T11:00:00Z,AYPY 051100Z 30005KT 9999 SCT100 25/24 Q1010
AZUH,2022-11-05T11:00:00Z,AZUH 051100Z 30004KT 9999 FEW040 SCT090 14/03 Q1017
BGBW,2022-11-05T11:50:00Z,BGBW 051150Z VRB05KT 9999 FEW180 SCT220 02/M05 Q0998
BGGH,2022-11-05T11:50:00Z,BGGH 051150Z 05009KT 2000 -SN BKN011 OVC018 M04/M05 Q0996
BGJN,2022-11-05T11:50:00Z,BGJN 051150Z 00000KT 9999 FEW020 BKN034 BKN058 M06/M08 Q0999
BGKK,2022-11-05T11:50:00Z,BGKK 051150Z 09017KT 9999 VCSH FEW012 SCT022 BKN042 01/M02 Q1006
BGSF,2022-11-05T11:50:00Z,BGSF 051150Z AUTO 27007KT 210V300 9999NDV SCT021/// OVC030/// M03/M06 Q0998
BGTL,2022-11-05T11:52:00Z,BGTL 051152Z AUTO 13015KT 8000 HZ SCT014 SCT020 SCT027 M10/M14 A2938 RMK AO2 SNE1054 SLP936 TSNO $
BIAR,2022-11-05T11:00:00Z,BIAR 051100Z 11012KT 9999 FEW050 01/M03 Q1007
BIEG,2022-11-05T11:00:00Z,BIEG 051100Z 02007KT 9999 SCT002 BKN026 M00/M00 Q1007
BIKF,2022-11-05T11:30:00Z,BIKF 051130Z 08017KT CAVOK 04/M02 Q0997
BIRK,2022-11-05T11:00:00Z,BIRK 051100Z 07017KT CAVOK 06/M07 Q0998
CAHR,2022-11-05T11:00:00Z,CAHR 051100Z AUTO 22010G15KT 12/11 RMK AO1 PK WND 22017/1031 SLP196 T01220111 58002
CBAR,2022-11-05T11:48:00Z,CBAR 051148Z AUTO 31017KT ////SM SCT006 OVC010 M14/M16 A3013
CBBC,2022-11-05T11:45:00Z,CBBC 051145Z AUTO 00000KT 9SM FEW042 BKN060 BKN077 01/01 A2961 RMK SLP031
CERM,2022-11-05T11:00:00Z,CERM 051100Z AUTO 03002KT 03/03 RMK AO1 SLP168 T00330030 56004
CMFM,2022-11-05T11:00:00Z,CMFM 051100Z AUTO 24005KT 10/08 RMK AO1 PK WND 23019/1038 SLP165 T01030078 56005
CMGB,2022-11-05T11:00:00Z,CMGB 051100Z AUTO 20004KT 16/10 RMK AO1 SLP180 T01590095 57003
CPIN,2022-11-05T11:38:00Z,CPIN 051138Z AUTO 34014KT ////SM BKN004 OVC007 ///// A////
CTCK,2022-11-05T11:00:00Z,CTCK 051100Z AUTO 19007KT 15/10 RMK AO1 SLP154 T01510104 57008
CTNK,2022-11-05T11:00:00Z,CTNK 051100Z AUTO 21003KT 14/09 RMK AO1 SLP129 T01400093 57008
CTRA,2022-11-05T11:00:00Z,CTRA 051100Z AUTO 19003KT M05/M05 RMK AO1 SLP078 T10451051 56021
CWAF,2022-11-05T11:00:00Z,CWAF 051100Z AUTO 21030KT 10/07 RMK AO1 PK WND 21035/1029 T00990067
CWAJ,2022-11-05T11:00:00Z,CWAJ 051100Z AUTO 16014KT RMK AO1 PK WND 16018/1035 55010
CWAQ,2022-11-05T11:00:00Z,CWAQ 051100Z AUTO 16009KT M01/M05 RMK AO1 SLP888 T10101049 58041
CWAR,2022-11-05T11:00:00Z,CWAR 051100Z AUTO 18019KT 11/10 RMK AO1 PK WND 18023/1048 SLP195 T01070101 56003
CWAV,2022-11-05T11:00:00Z,CWAV 051100Z AUTO 33005KT M02/M03 RMK AO1 SOG 05 5000 SLP829 T10181029
CWBA,2022-11-05T11:00:00Z,CWBA 051100Z AUTO 18005KT 14/12 RMK AO1 T01390115 50004
CWBK,2022-11-05T11:00:00Z,CWBK 051100Z AUTO 23004KT 12/10 RMK AO1 SLP214 T01160104 55001
CWBO,2022-11-05T11:00:00Z,CWBO 051100Z AUTO 18004KT 03/00 RMK AO1 SOG 01 6031 SLP791 T00320000
CWBS,2022-11-05T11:00:00Z,CWBS 051100Z AUTO 20012KT 13/10 RMK AO1 T01330103
CWBT,2022-11-05T11:00:00Z,CWBT 051100Z AUTO 24001KT 02/02 RMK AO1 SLP092 T00170016 56009
CWBU,2022-11-05T11:00:00Z,CWBU 051100Z AUTO 03005KT M05/M06 RMK AO1 SOG 01 8023 SLP921 T10511061
CWBV,2022-11-05T11:00:00Z,CWBV 051100Z AUTO 25020KT 13/12 RMK AO1 PK WND 25025/1037 SLP221 T01300122 51001
CWBY,2022-11-05T11:00:00Z,CWBY 051100Z AUTO 22006KT 10/06 RMK AO1 SLP099 T01020063 56006
CWBZ,2022-11-05T11:00:00Z,CWBZ 051100Z AUTO 20005KT 16/10 RMK AO1 SLP162 T01590103 58007
CWCF,2022-11-05T11:00:00Z,CWCF 051100Z AUTO 14007KT M02/M05 RMK AO1 SLP000 T10201049 56024
CWCI,2022-11-05T11:00:00Z,CWCI 051100Z AUTO 05015KT 05/05 RMK AO1 4PAST HR 7029 PK WND 06019/1059 SLP062 P0002 T00450049 50028
CWCJ,2022-11-05T11:00:00Z,CWCJ 051100Z AUTO 06004KT 01/01 RMK AO1 SLP098 T00050005 56021
CWCO,2022-11-05T11:00:00Z,CWCO 051100Z AUTO 20011G21KT 18/10 RMK AO1 PK WND 20022/1013 SLP103 T01750100 56014
CWCT,2022-11-05T11:00:00Z,CWCT 051100Z AUTO 36008KT M04/M05 RMK AO1 SOG 19 6022 SLP833 T10411050
CWDA,2022-11-05T11:00:00Z,CWDA 051100Z AUTO 18004KT 10/ RMK AO1 T0103
CWDC,2022-11-05T11:00:00Z,CWDC 051100Z AUTO 28004KT M08/M10 RMK AO1 SOG 11 3011 SLP964 T10811099 50001
CWDJ,2022-11-05T11:00:00Z,CWDJ 051100Z AUTO 14015KT M01/M07 RMK AO1 PK WND 15019/1051 SLP883 T10071067 58049
CWDK,2022-11-05T11:00:00Z,CWDK 051100Z AUTO 31009KT 04/01 RMK AO1 SLP798 T00360009 55013
CWDM,2022-11-05T11:00:00Z,CWDM 051100Z AUTO 22010KT 07/06 RMK AO1 SLP089 T00700059 57006
CWDO,2022-11-05T11:00:00Z,CWDO 051100Z AUTO 22015G22KT 09/06 RMK AO1 PK WND 21027/1020 SLP110 T00860062 56014
CWDQ,2022-11-05T11:00:00Z,CWDQ 051100Z AUTO 16006KT 13/08 RMK AO1 SLP145 T01340084 53001
CWDV,2022-11-05T11:00:00Z,CWDV 051100Z AUTO 08002KT M09/M10 RMK AO1 6021 SLP098 T10911100 50001
CWDZ,2022-11-05T11:00:00Z,CWDZ 051100Z AUTO 32005KT M03/M04 RMK AO1 SLP817 T10291043 56020
CWEB,2022-11-05T11:00:00Z,CWEB 051100Z AUTO 00032KT 06/03 RMK AO1 6PAST HR 1016 SLP072 P0002 T00560034 50015
CWEE,2022-11-05T11:00:00Z,CWEE 051100Z AUTO 07/07 RMK AO1 SLP101 T00730069 53021
CWEF,2022-11-05T11:00:00Z,CWEF 051100Z AUTO 24016KT 12/08 RMK AO1 PK WND 22022/1019 SLP175 T01220077 53001
CWEH,2022-11-05T11:00:00Z,CWEH 051100Z AUTO 23014KT 05/00 RMK AO1 PK WND 24018/1058 SLP828 T00530000 56037
CWEK,2022-11-05T11:00:00Z,CWEK 051100Z AUTO 16015KT 03/ RMK AO1 0008 PK WND 15018/1058 SLP952 T0032 50004
CWEL,2022-11-05T11:00:00Z,CWEL 051100Z AUTO 27013KT 08/03 RMK AO1 PK WND 29018/1020 SLP041 T00770031 51030
CWEP,2022-11-05T11:00:00Z,CWEP 051100Z AUTO 20013KT 12/10 RMK AO1 PK WND 19017/1056 SLP200 T01160102 55000
CWEQ,2022-11-05T11:00:00Z,CWEQ 051100Z AUTO 34001KT M07/M08 RMK AO1 SLP944 T10701084 57033
CWER,2022-11-05T11:00:00Z,CWER 051100Z AUTO 25010KT RMK AO1
CWEU,2022-11-05T11:00:00Z,CWEU 051100Z 07002KT 15SM IC BKN180 M27/M30 A2942 RMK AC6 SLP978
CWEW,2022-11-05T11:00:00Z,CWEW 051100Z AUTO 18005KT 12/09 RMK AO1 SLP174 T01240092 58004
CWEZ,2022-11-05T11:00:00Z,CWEZ 051100Z AUTO 28003KT 06/01 RMK AO1 SLP043 T00600013 51028
CWFD,2022-11-05T11:00:00Z,CWFD 051100Z AUTO ///// ////SM ////// M15/M17 A2931
CWFF,2022-11-05T11:00:00Z,CWFF 051100Z AUTO 11005KT M02/M04 RMK AO1 SLP897 T10191035 58035
CWFJ,2022-11-05T11:00:00Z,CWFJ 051100Z AUTO 30012G25KT 04/02 RMK AO1 7PAST HR M PK WND 30025/1055 P0003 T00360016 50007
CWFQ,2022-11-05T11:00:00Z,CWFQ 051100Z AUTO 18007KT 15/11 RMK AO1 SLP185 T01510111 58005
CWGB,2022-11-05T11:00:00Z,CWGB 051100Z AUTO 31017KT 08/ RMK AO1 PK WND 31022/1008 SLP040 T0075 51029
CWGD,2022-11-05T11:00:00Z,CWGD 051100Z AUTO 17013G18KT 17/10 RMK AO1 PK WND 15019/1011 SLP103 T01660098 55006
CWGH,2022-11-05T11:00:00Z,CWGH 051100Z AUTO 20009KT 16/11 RMK AO1 SLP165 T01610110 57010
CWGL,2022-11-05T11:00:00Z,CWGL 051100Z AUTO 18015KT 15/10 RMK AO1 PK WND 18019/1007 SLP112 T01480104 56012
CWGM,2022-11-05T11:00:00Z,CWGM 051100Z AUTO 01010KT 02/01 RMK AO1 8PAST HR 5019 PK WND 22017/1005 SLP822 P0011 T00190007 50060
CWGR,2022-11-05T11:00:00Z,CWGR 051100Z AUTO 22016G22KT 12/09 RMK AO1 PK WND 22024/1038 SLP172 T01180088 51002
CWGT,2022-11-05T11:00:00Z,CWGT 051100Z AUTO 32017KT 07/02 RMK AO1 PK WND 33021/1010 SLP047 T00710020 51031
CWGW,2022-11-05T11:00:00Z,CWGW 051100Z AUTO 21007KT 02/01 RMK AO1 4PAST HR SOG 07 5023 PK WND 19019/1023 SLP826 P0005 T00160006 50066
CWGY,2022-11-05T11:00:00Z,CWGY 051100Z AUTO 14001KT M04/M04 RMK AO1 SOG 15 6033 SLP819 T10351035
CWHL,2022-11-05T11:00:00Z,CWHL 051100Z AUTO 20012KT 04/01 RMK AO1 0014 PK WND 24021/1008 SLP984 T00420014 50006
CWHO,2022-11-05T11:00:00Z,CWHO 051100Z AUTO 00030KT 08/02 RMK AO1 3035 SLP961 T00800016 50006
CWHP,2022-11-05T11:00:00Z,CWHP 051100Z AUTO 24012KT 09/07 RMK AO1 PK WND 24017/1012 SLP119 T00860072 58004
CWHQ,2022-11-05T11:00:00Z,CWHQ 051100Z AUTO 04001KT 02/02 RMK AO1 T00200018
CWHT,2022-11-05T11:00:00Z,CWHT 051100Z AUTO 33009G15KT M11/M18 RMK AO1 SLP159 T11121181 53020
CWHV,2022-11-05T11:00:00Z,CWHV 051100Z AUTO 19002KT 07/06 RMK AO1 SLP184 T00730058 55003
CWID,2022-11-05T11:00:00Z,CWID 051100Z AUTO 35008KT M14/M17 RMK AO1 SLP081 T11401167 53025
CWIG,2022-11-05T11:00:00Z,CWIG 051100Z AUTO 19008KT RMK AO1
CWII,2022-11-05T11:00:00Z,CWII 051100Z AUTO 16017KT M00/M06 RMK AO1 PK WND 15021/1040 SLP028 T10011064 56024
CWIJ,2022-11-05T11:00:00Z,CWIJ 051100Z AUTO 01010KT M18/M20 RMK AO1 SOG 07 1019 SLP091 T11831195
CWIK,2022-11-05T11:00:00Z,CWIK 051100Z AUTO 14009KT M04/M07 RMK AO1 SLP925 T10371069 58043
CWIL,2022-11-05T11:00:00Z,CWIL 051100Z AUTO ///// ////SM OVC006 ///// A////
CWIP,2022-11-05T11:00:00Z,CWIP 051100Z AUTO 21012G22KT 16/07 RMK AO1 PK WND 20022/1059 T01570073
CWIS,2022-11-05T11:00:00Z,CWIS 051100Z AUTO 24008G17KT 10/08 RMK AO1 PK WND 24018/1045 SLP157 T00950078 56003
CWIT,2022-11-05T11:00:00Z,CWIT 051100Z AUTO 14001KT 10/08 RMK AO1 SLP170 T01020083 58003
CWIW,2022-11-05T11:00:00Z,CWIW 051100Z AUTO 11009KT M01/M04 RMK AO1 SLP865 T10081040 58053
CWIX,2022-11-05T11:00:00Z,CWIX 051100Z AUTO 22012KT 17/09 RMK AO1 5002 SLP105 T01670091 50001
CWIZ,2022-11-05T11:00:00Z,CWIZ 051100Z AUTO 19010KT 13/10 RMK AO1 T01330095
CWJB,2022-11-05T11:00:00Z,CWJB 051100Z AUTO 23005KT 12/08 RMK AO1 T01160083
CWJC,2022-11-05T11:00:00Z,CWJC 051100Z AUTO 16011KT M08/M10 RMK AO1 2PAST HR SOG 01 6005 SLP961 P0001 T10831096 50002
CWJD,2022-11-05T11:00:00Z,CWJD 051100Z AUTO 17004KT M07/M07 RMK AO1 SLP955 T10661074 58030
CWJH,2022-11-05T11:00:00Z,CWJH 051100Z AUTO 11002KT M04/M05 RMK AO1 SOG 23 6009 SLP963 T10351051
CWJI,2022-11-05T11:00:00Z,CWJI 051100Z AUTO 17010KT 02/M04 RMK AO1 SLP861 T00211042 58045
CWJO,2022-11-05T11:00:00Z,CWJO 051100Z AUTO 12015G21KT 17/08 RMK AO1 PK WND 10024/1005 SLP110 T01720075 56001
CWJR,2022-11-05T11:00:00Z,CWJR 051100Z AUTO 08005KT 06/03 RMK AO1 4PAST HR 3002 PK WND 27018/1032 SLP871 P0002 T00570030 50047
CWJT,2022-11-05T11:00:00Z,CWJT 051100Z AUTO 19002KT 14/11 RMK AO1 SLP158 T01380107 57006
CWJU,2022-11-05T11:00:00Z,CWJU 051100Z AUTO 26029G37KT 05/03 RMK AO1 PK WND 28037/1032 SLP968 T00470030 55004
CWJV,2022-11-05T11:00:00Z,CWJV 051100Z AUTO 27004KT 04/M02 RMK AO1 PRESRR 3057 SLP960 T00401018 50087
CWJW,2022-11-05T11:00:00Z,CWJW 051100Z AUTO 32004KT M02/M02 RMK AO1 3PAST HR SOG 11 3013 SLP865 P0005 T10171024 50020
CWJX,2022-11-05T11:00:00Z,CWJX 051100Z AUTO 25004KT 04/M00 RMK AO1 8042 SLP796 T00371001 50002
CWKD,2022-11-05T11:00:00Z,CWKD 051100Z AUTO 05/05 RMK AO1 6PAST HR 1033 SLP109 P0002 T00490046 50045
CWKH,2022-11-05T11:00:00Z,CWKH 051100Z AUTO 04/M02 RMK AO1 SLP036 T00401015 51026
CWKK,2022-11-05T11:00:00Z,CWKK 051100Z AUTO 09011KT M01/ RMK AO1 SLP117 T1007 56016
CWKM,2022-11-05T11:00:00Z,CWKM 051100Z AUTO 28020G25KT ////SM FEW013 OVC025 M11/M13 A3038
CWKO,2022-11-05T11:00:00Z,CWKO 051100Z AUTO 18016KT M00/M04 RMK AO1 PK WND 18019/1058 SLP873 T10031040 58043
CWKP,2022-11-05T11:00:00Z,CWKP 051100Z AUTO 27021KT ////SM BKN003 BKN008 OVC014 M18/M20 A2985
CWKX,2022-11-05T11:00:00Z,CWKX 051100Z AUTO 01007KT M06/M12 RMK AO1 SOG 06 2027 SLP028 T10571117
CWLB,2022-11-05T11:00:00Z,CWLB 051100Z AUTO 06007KT M01/ RMK AO1 SOG 05 6007 SLP899 T1008
CWLC,2022-11-05T11:00:00Z,CWLC 051100Z AUTO 20007KT 04/01 RMK AO1 PK WND 20017/1036 T00410014
CWLE,2022-11-05T11:00:00Z,CWLE 051100Z AUTO 17011KT 02/M00 RMK AO1 5PAST HR 6044 PK WND 19017/1017 SLP831 P0002 T00231004 50005
CWLI,2022-11-05T11:00:00Z,CWLI 051100Z AUTO 33011G17KT ////SM BKN006 OVC010 M14/M16 A3016
CWLM,2022-11-05T11:00:00Z,CWLM 051100Z AUTO 26020G31KT 07/03 RMK AO1 PK WND 25040/1003 SLP048 T00740027 51032
CWLS,2022-11-05T11:00:00Z,CWLS 051100Z AUTO 19010G15KT 15/10 RMK AO1 PK WND 17017/1045 SLP123 T01470096 56009
CWLX,2022-11-05T11:00:00Z,CWLX 051100Z AUTO ///// ////SM ////// M14/M15 A2944
CWLY,2022-11-05T11:41:00Z,CWLY 051141Z AUTO VRB06G16KT 9SM FEW002 04/03 A2945 RMK SLP980
CWME,2022-11-05T11:00:00Z,CWME 051100Z AUTO 19007KT 03/01 RMK AO1 6PAST HR 1014 SLP022 P0002 T00250008 50078
CWMJ,2022-11-05T11:00:00Z,CWMJ 051100Z AUTO 18007KT 15/10 RMK AO1 SLP137 T01480102 58006
CWMM,2022-11-05T11:00:00Z,CWMM 051100Z AUTO 25006KT 07/M00 RMK AO1 SLP034 T00651004 51042
CWMQ,2022-11-05T11:00:00Z,CWMQ 051100Z AUTO 20017KT 07/02 RMK AO1 PK WND 20026/1016 SLP811 T00710017 57028
CWMT,2022-11-05T11:00:00Z,CWMT 051100Z AUTO 01008KT M19/M21 RMK AO1 SOG 06 1021 SLP092 T11891210
CWMZ,2022-11-05T11:00:00Z,CWMZ 051100Z AUTO 21021KT 17/ RMK AO1 PK WND 21025/1058 SLP104 T0171 57011
CWNC,2022-11-05T11:00:00Z,CWNC 051100Z AUTO 30001KT 14/11 RMK AO1 SLP150 T01370111 58009
CWND,2022-11-05T11:24:00Z,CWND M01/M01 RMK SOG 24 3011 T10141006
CWNE,2022-11-05T11:00:00Z,CWNE 051100Z AUTO 21019KT 12/09 RMK AO1 PK WND 21024/1024 SLP167 T01230087 58003
CWNH,2022-11-05T11:00:00Z,CWNH 051100Z AUTO 21010G23KT 15/08 RMK AO1 PK WND 21023/1051 SLP142 T01540080 53001
CWNK,2022-11-05T11:00:00Z,CWNK 051100Z AUTO 15011KT M04/M08 RMK AO1 SLP016 T10441082 56028
CWNM,2022-11-05T11:00:00Z,CWNM 051100Z AUTO 20002KT 04/04 RMK AO1 2PAST HR 3017 SLP890 P0001 T00370036 50014
CWNP,2022-11-05T11:00:00Z,CWNP 051100Z AUTO 36003KT 04/02 RMK AO1 PRESRR 3048 SLP906 T00440018 50030
CWNQ,2022-11-05T11:00:00Z,CWNQ 051100Z AUTO 21008KT 15/10 RMK AO1 SLP165 T01460100 56004
CWNZ,2022-11-05T11:00:00Z,CWNZ 051100Z AUTO 07002KT M02/M03 RMK AO1 SLP130 T10221030 56007
CWOB,2022-11-05T11:00:00Z,CWOB 051100Z AUTO 01020G27KT ////SM NCD M12/M14 A2955
CWOC,2022-11-05T11:00:00Z,CWOC 051100Z AUTO 26001KT 07/06 RMK AO1 SLP141 T00670058 58005
CWOD,2022-11-05T11:00:00Z,CWOD 051100Z AUTO 22011G17KT 17/11 RMK AO1 PK WND 23017/1058 SLP099 T01670106 56002
CWOE,2022-11-05T11:00:00Z,CWOE 051100Z AUTO 19005KT 06/01 RMK AO1 SLP812 T00610008 58046
CWOY,2022-11-05T11:00:00Z,CWOY 051100Z AUTO 14009KT M00/M06 RMK AO1 SLP889 T10041056 56047
CWPC,2022-11-05T11:00:00Z,CWPC 051100Z AUTO 20022KT 16/11 RMK AO1 PK WND 20025/1002 SLP158 T01610109 58012
CWPD,2022-11-05T11:00:00Z,CWPD 051100Z AUTO 20006KT 09/07 RMK AO1 SLP131 T00890072 58003
CWPE,2022-11-05T11:00:00Z,CWPE 051100Z AUTO 23005KT 13/12 RMK AO1 SOG 01 3001 SLP215 T01280121
CWPF,2022-11-05T11:45:00Z,CWPF 051145Z AUTO 25017G26KT 08/01 RMK AO1 PK WND 23026/1141 SLP055 T00820014 51025
CWPK,2022-11-05T11:00:00Z,CWPK 051100Z AUTO 21006KT 12/11 RMK AO1 8001 SLP118 T01150107 50004
CWPO,2022-11-05T11:00:00Z,CWPO 051100Z AUTO 17012KT M04/M07 RMK AO1 SLP010 T10381070 56032
CWPR,2022-11-05T11:00:00Z,CWPR 051100Z AUTO 26011G18KT 03/M06 RMK AO1 SOG 03 3060 PK WND 28025/1017 SLP977 T00341063
CWPX,2022-11-05T11:00:00Z,CWPX 051100Z AUTO 35011KT ////SM //// BKN003 M30/M34 A2970
CWPZ,2022-11-05T11:00:00Z,CWPZ 051100Z AUTO 00000KT M04/M04 RMK AO1 1025 SLP964 T10361044 50010
CWQH,2022-11-05T11:00:00Z,CWQH 051100Z AUTO 20002KT 12/09 RMK AO1 SLP194 T01230090 58002
CWQK,2022-11-05T11:00:00Z,CWQK 051100Z AUTO 00000KT RMK AO1
CWQO,2022-11-05T11:00:00Z,CWQO 051100Z AUTO 22017G22KT 10/06 RMK AO1 PK WND 23022/1050 T00980060
CWQP,2022-11-05T11:00:00Z,CWQP 051100Z AUTO 15/12 RMK AO1 25 8012 SLP159 T01470121
CWQR,2022-11-05T11:00:00Z,CWQR 051100Z AUTO 24010KT 08/06 RMK AO1 T00840055
CWQS,2022-11-05T11:00:00Z,CWQS 051100Z AUTO 30036G47KT 05/02 RMK AO1 PK WND 28053/1025 SLP998 T00480022 58008
CWQV,2022-11-05T11:00:00Z,CWQV 051100Z AUTO 25001KT 13/07 RMK AO1 T01270073
CWRA,2022-11-05T11:00:00Z,CWRA 051100Z AUTO 00024KT 09/09 RMK AO1 SLP210 T00930091 55001
CWRH,2022-11-05T11:00:00Z,CWRH 051100Z AUTO 32032G44KT ////SM ////// ///// A2954
CWRJ,2022-11-05T11:00:00Z,CWRJ 051100Z AUTO 11008KT 01/M01 RMK AO1 3PAST HR 8048 SLP816 P0001 T00061009 50005
CWRK,2022-11-05T11:00:00Z,CWRK 051100Z AUTO 18004KT 12/09 RMK AO1 SOG 01 7013 SLP138 T01170092
CWRM,2022-11-05T11:00:00Z,CWRM 051100Z AUTO 33007KT M03/M04 RMK AO1 SOG 08 3001 SLP829 T10291035 50017
CWRN,2022-11-05T11:00:00Z,CWRN 051100Z AUTO 23012G17KT 12/11 RMK AO1 PK WND 24018/1045 SLP222 T01220113 57002
CWRO,2022-11-05T11:00:00Z,CWRO 051100Z AUTO 20010KT 01/ RMK AO1 SLP977 T0012 51001
CWRT,2022-11-05T11:00:00Z,CWRT 051100Z AUTO 30011G21KT 02/01 RMK AO1 0PAST HR 5009 PK WND 25022/1044 SLP818 P0004 T00240005 50056
CWRU,2022-11-05T11:00:00Z,CWRU 051100Z AUTO 29031G41KT 04/ RMK AO1 3011 PK WND 30044/1001 SLP059 T0035 50002
CWRX,2022-11-05T11:00:00Z,CWRX 051100Z AUTO ///// ////SM OVC017 M14/M15 A2945
CWRY,2022-11-05T11:00:00Z,CWRY 051100Z AUTO 24016G25KT 05/01 RMK AO1 SOG 10 8042 PK WND 23025/1058 SLP797 T00520012
CWRZ,2022-11-05T11:00:00Z,CWRZ 051100Z AUTO 26009KT 09/06 RMK AO1 SLP131 T00890060 58005
CWSA,2022-11-05T11:00:00Z,CWSA 051100Z AUTO 24019G25KT 8SM CLR 14/12 A3028 RMK SLP254
CWSD,2022-11-05T11:00:00Z,CWSD 051100Z AUTO 21013KT 12/12 RMK AO1 PK WND 21017/1031 SLP192 T01200115 50000
CWSF,2022-11-05T11:00:00Z,CWSF 051100Z AUTO 23012G20KT 19/08 RMK AO1 PK WND 25024/1016 SLP093 T01930081 56011
CWSG,2022-11-05T11:00:00Z,CWSG 051100Z AUTO 18/08 RMK AO1 23 8008 SLP097 T01770080
CWSK,2022-11-05T11:00:00Z,CWSK 051100Z AUTO 05002KT 01/01 RMK AO1 SLP021 T00120010 51039
CWSL,2022-11-05T11:00:00Z,CWSL 051100Z AUTO 29007G16KT 06/M03 RMK AO1 PRESRR 3062 PK WND 32017/1036 SLP954 T00561030 50038
CWSP,2022-11-05T11:00:00Z,CWSP 051100Z AUTO 28036G42KT 09/02 RMK AO1 PK WND 28042/1052 SLP053 T00860018 51026
CWSR,2022-11-05T11:00:00Z,CWSR 051100Z AUTO 10006KT M04/M06 RMK AO1 4PAST HR SOG 07 8035 SLP878 P0002 T10351057 50004
CWSS,2022-11-05T11:00:00Z,CWSS 051100Z AUTO 00000KT 03/02 RMK AO1 SLP210 T00260023 57001
CWST,2022-11-05T11:00:00Z,CWST 051100Z AUTO 23007KT 13/08 RMK AO1 PK WND 21019/1014 SLP155 T01320075 53001
CWTA,2022-11-05T11:00:00Z,CWTA 051100Z AUTO 18004KT 13/10 RMK AO1 SLP170 T01300095 58005
CWTG,2022-11-05T11:00:00Z,CWTG 051100Z AUTO 26022KT 08/05 RMK AO1 PK WND 26024/1046 SLP100 T00800054 55004
CWTN,2022-11-05T11:00:00Z,CWTN 051100Z AUTO 28003KT 11/09 RMK AO1 SLP161 T01140089 50000
CWTT,2022-11-05T11:00:00Z,CWTT 051100Z AUTO 01002KT 07/06 RMK AO1 T00730058
CWTY,2022-11-05T11:00:00Z,CWTY 051100Z AUTO 22004KT 12/10 RMK AO1 SLP170 T01240099 56002
CWUS,2022-11-05T11:00:00Z,CWUS 051100Z AUTO 30007KT 02/M00 RMK AO1 9PAST HR PRESRR 3085 PK WND 33029/1000 SLP993 P0007 T00181002 50019
CWUW,2022-11-05T11:09:00Z,CWUW 051109Z AUTO 18007KT ////SM SCT009 BKN031 OVC047 M21/M23 A2938
CWVF,2022-11-05T11:00:00Z,CWVF 051100Z AUTO 31020KT 08/02 RMK AO1 PK WND 30024/1007 T00830020
CWVH,2022-11-05T11:00:00Z,CWVH 051100Z AUTO 32015KT ////SM OVC004 M16/M17 A3015
CWVI,2022-11-05T11:00:00Z,CWVI 051100Z AUTO 05011KT M04/M08 RMK AO1 SOG 13 6009 SLP868 T10431081
CWVN,2022-11-05T11:00:00Z,CWVN 051100Z AUTO 18013G18KT 04/M02 RMK AO1 PK WND 17018/1058 SLP848 T00401016 58046
CWVP,2022-11-05T11:00:00Z,CWVP 051100Z AUTO 22013G22KT 03/00 RMK AO1 PK WND 21022/1004 SLP825 T00280000 56032
CWVQ,2022-11-05T11:00:00Z,CWVQ 051100Z AUTO 15001KT 10/09 RMK AO1 SLP166 T01010087 58007
CWVT,2022-11-05T11:00:00Z,CWVT 051100Z AUTO 06006KT M05/M06 RMK AO1 SLP951 T10531063 55002
CWVU,2022-11-05T11:00:00Z,CWVU 051100Z AUTO 19011G18KT 14/13 RMK AO1 PK WND 19020/1009 SLP232 T01440130 55000
CWWA,2022-11-05T11:00:00Z,CWWA 051100Z AUTO 29002KT 06/M02 RMK AO1 SLP031 T00601015 51037
CWWB,2022-11-05T11:00:00Z,CWWB 051100Z AUTO 18006KT 17/10 RMK AO1 SLP136 T01680103 58013
CWWE,2022-11-05T11:00:00Z,CWWE 051100Z AUTO 23009KT 13/13 RMK AO1 SLP249 T01330130 52002
CWWF,2022-11-05T11:00:00Z,CWWF 051100Z AUTO 17012KT M02/M07 RMK AO1 PK WND 17017/1045 SLP904 T10221071 56045
CWWK,2022-11-05T11:00:00Z,CWWK 051100Z AUTO 28002KT 07/02 RMK AO1 SLP044 T00720019 51032
CWWL,2022-11-05T11:00:00Z,CWWL 051100Z AUTO 24014KT 05/02 RMK AO1 PK WND 27027/1003 SLP998 T00460017 50003
CWWS,2022-11-05T11:00:00Z,CWWS 051100Z AUTO 17021KT 03/M02 RMK AO1 SOG 01 6020 PK WND 17025/1037 SLP978 T00291017
CWWZ,2022-11-05T11:00:00Z,CWWZ 051100Z AUTO 15009KT 17/11 RMK AO1 SLP140 T01700107 58013
CWXA,2022-11-05T11:00:00Z,CWXA 051100Z AUTO 00021KT M01/M02 RMK AO1 8PAST HR 3001 SLP840 P0003 T10081019 50008
CWXC,2022-11-05T11:00:00Z,CWXC 051100Z AUTO 18005KT 13/10 RMK AO1 2PAST HR 0000 SLP109 P0001 T01290104 50002
CWXI,2022-11-05T11:00:00Z,CWXI 051100Z AUTO 21027G33KT 10/08 RMK AO1 PK WND 22035/1012 SLP061 T00970080 56016
CWXL,2022-11-05T11:00:00Z,CWXL 051100Z AUTO 22010KT 04/M00 RMK AO1 SLP800 T00371002 58036
CWYJ,2022-11-05T11:00:00Z,CWYJ 051100Z AUTO 26004KT 06/02 RMK AO1 SLP053 T00620021 51030
CWYL,2022-11-05T11:00:00Z,CWYL 051100Z AUTO 24011KT M04/M04 RMK AO1 4PAST HR SOG 24 3011 PK WND 25018/1039 SLP851 P0002 T10361044 50084
CWYY,2022-11-05T11:00:00Z,CWYY 051100Z AUTO 35009G20KT 08/M03 RMK AO1 PRESRR 3059 PK WND 00020/1058 SLP959 T00781026 50015
CWZA,2022-11-05T11:00:00Z,CWZA 051100Z AUTO 24010G22KT 08/M00 RMK AO1 PK WND 24022/1053 SLP030 T00771004 51039
CWZG,2022-11-05T11:00:00Z,CWZG 051100Z AUTO 23006KT M02/M03 RMK AO1 7PAST HR SOG 15 5003 SLP823 P0003 T10241029 50063
CWZL,2022-11-05T11:00:00Z,CWZL 051100Z AUTO 19021G31KT 05/01 RMK AO1 PK WND 18031/1056 SLP021 T00460011 52008
CWZN,2022-11-05T11:00:00Z,CWZN 051100Z AUTO 23013KT 10/10 RMK AO1 SLP190 T01020098 55002
CWZO,2022-11-05T11:00:00Z,CWZO 051100Z AUTO 26015KT RMK AO1 PK WND 26020/1032
CWZQ,2022-11-05T11:00:00Z,CWZQ 051100Z AUTO 18010KT 13/09 RMK AO1 SLP207 T01290086 55004
CWZW,2022-11-05T11:00:00Z,CWZW 051100Z AUTO 30006KT M10/M15 RMK AO1 SOG 05 3027 SLP092 T10951151
CXAF,2022-11-05T11:00:00Z,CXAF 051100Z AUTO 04009KT M03/M04 RMK AO1 4PAST HR M P0002 T10261039
CXAJ,2022-11-05T11:00:00Z,CXAJ 051100Z AUTO 03008KT M02/M02 RMK AO1 5PAST HR SOG 04 M P0002 T10161017
CXAT,2022-11-05T11:00:00Z,CXAT 051100Z AUTO 15008KT M17/M21 RMK AO1 SOG 08 3013 SLP932 T11741211
CXBI,2022-11-05T11:00:00Z,CXBI 051100Z AUTO 21005KT 15/10 RMK AO1 SLP131 T01470095 56015
CXBK,2022-11-05T11:00:00Z,CXBK 051100Z AUTO 15013KT M01/M05 RMK AO1 SOG 01 8050 PK WND 15018/1047 SLP880 T10111051
CXBO,2022-11-05T11:00:00Z,CXBO 051100Z AUTO 26002KT 07/06 RMK AO1 T00730063
CXCA,2022-11-05T11:00:00Z,CXCA 051100Z AUTO 04003KT M02/M03 RMK AO1 SLP106 T10191031 56019
CXCK,2022-11-05T11:00:00Z,CXCK 051100Z AUTO 01002KT M19/M21 RMK AO1 SOG 09 3023 SLP176 T11871214
CXCS,2022-11-05T11:00:00Z,CXCS 051100Z AUTO 04005KT M04/M05 RMK AO1 T10391047
CXDE,2022-11-05T11:00:00Z,CXDE 051100Z AUTO 32005KT M17/M19 RMK AO1 SOG 09 3023 SLP154 T11711193
CXDI,2022-11-05T11:00:00Z,CXDI 051100Z AUTO 20009G15KT 16/10 RMK AO1 SLP135 T01630102 56010
CXDK,2022-11-05T11:00:00Z,CXDK 051100Z AUTO M15/M16 RMK AO1 SOG 07 3025 SLP134 T11471164
CXDW,2022-11-05T11:00:00Z,CXDW 051100Z AUTO 18011KT M01/M08 RMK AO1 PK WND 21020/1030 SLP008 T10081078 56029
CXEA,2022-11-05T11:00:00Z,CXEA 051100Z AUTO 13004KT M04/M06 RMK AO1 SLP071 T10431057 56014
CXEC,2022-11-05T11:00:00Z,CXEC 051100Z AUTO 07010G16KT M02/M04 RMK AO1 PK WND 05019/1050 SLP864 T10211043 51003
CXEG,2022-11-05T11:00:00Z,CXEG 051100Z AUTO 04009KT M02/M06 RMK AO1 SOG 11 4000 SLP857 T10221062
CXET,2022-11-05T11:00:00Z,CXET 051100Z AUTO 18010KT 14/10 RMK AO1 SLP126 T01440097 56015
CXGH,2022-11-05T11:00:00Z,CXGH 051100Z AUTO 19019G24KT 01/M05 RMK AO1 PK WND 18024/1050 SLP017 T00091049 56025
CXHA,2022-11-05T11:00:00Z,CXHA 051100Z AUTO 19010KT 15/10 RMK AO1 SLP112 T01480099 56011
CXHM,2022-11-05T11:00:00Z,CXHM 051100Z AUTO 26003KT 16/10 RMK AO1 SLP138 T01560101 57011
CXIB,2022-11-05T11:00:00Z,CXIB 051100Z AUTO 23008KT 13/07 RMK AO1 SLP187 T01290068 55002
CXKA,2022-11-05T11:00:00Z,CXKA 051100Z AUTO 05003KT 00/M02 RMK AO1 SLP130 T00001015 58004
CXKE,2022-11-05T11:00:00Z,CXKE 051100Z AUTO 19006KT 15/10 RMK AO1 SLP159 T01510095 58007
CXKT,2022-11-05T11:00:00Z,CXKT 051100Z AUTO 23006KT 14/12 RMK AO1 SLP222 T01390115 55002
CXLB,2022-11-05T11:00:00Z,CXLB 051100Z AUTO 25007KT 14/12 RMK AO1 SLP240 T01360115 53002
CXLL,2022-11-05T11:00:00Z,CXLL 051100Z AUTO 01005KT M11/M14 RMK AO1 SOG 14 3025 SLP131 T11061141
CXMD,2022-11-05T11:00:00Z,CXMD 051100Z AUTO 16007KT M04/M08 RMK AO1 SLP015 T10381083 56027
CXMI,2022-11-05T11:00:00Z,CXMI 051100Z AUTO 24012KT 13/12 RMK AO1 PK WND 23018/1017 SLP233 T01250124 50000
CXMM,2022-11-05T11:00:00Z,CXMM 051100Z AUTO 35008KT M05/M07 RMK AO1 3017 SLP967 T10501068 50007
CXMY,2022-11-05T11:00:00Z,CXMY 051100Z AUTO 11/11 RMK AO1 T01090109
CXNM,2022-11-05T11:00:00Z,CXNM 051100Z AUTO 25021G30KT 11/07 RMK AO1 PK WND 26030/1049 T01120071
CXNP,2022-11-05T11:00:00Z,CXNP 051100Z AUTO 21008KT 13/12 RMK AO1 PK WND 23018/1010 SLP208 T01300118 55000
CXOX,2022-11-05T11:00:00Z,CXOX 051100Z AUTO 10006KT M03/M04 RMK AO1 SOG 21 6013 SLP938 T10331044
CXPC,2022-11-05T11:00:00Z,CXPC 051100Z AUTO 17/10 RMK AO1 SLP103 T01650100 56013
CXRB,2022-11-05T11:00:00Z,CXRB 051100Z AUTO 33019KT M23/M26 RMK AO1 SOG 05 3006 PK WND 33024/1042 SLP943 T12281259
CXRH,2022-11-05T11:00:00Z,CXRH 051100Z AUTO 23012G19KT 12/07 RMK AO1 SOG 02 8004 PK WND 20025/1022 SLP129 T01200074
CXSE,2022-11-05T11:00:00Z,CXSE 051100Z AUTO 30018KT M23/M25 RMK AO1 SOG 04 5000 PK WND 30022/1057 SLP046 T12261249
CXSH,2022-11-05T11:00:00Z,CXSH 051100Z AUTO 21006KT 10/08 RMK AO1 SLP166 T01020082 58001
CXTD,2022-11-05T11:00:00Z,CXTD 051100Z AUTO 21013KT 12/11 RMK AO1 PK WND 21019/1028 SLP227 T01180106 53001
CXTN,2022-11-05T11:00:00Z,CXTN 051100Z AUTO 34001KT M21/M23 RMK AO1 SOG 21 2022 SLP166 T12091233
CXTO,2022-11-05T11:00:00Z,CXTO 051100Z AUTO 15/10 RMK AO1 SLP139 T01510098 57012
CXTP,2022-11-05T11:00:00Z,CXTP 051100Z AUTO 24010KT 07/06 RMK AO1 PK WND 23020/1018 SLP156 T00650061 55005
CXTV,2022-11-05T11:00:00Z,CXTV 051100Z AUTO 33009KT M14/M16 RMK AO1 SOG 11 3032 SLP247 T11381160
CXVN,2022-11-05T11:00:00Z,CXVN 051100Z AUTO 19011KT 17/11 RMK AO1 SLP138 T01650108 58013
CXWN,2022-11-05T11:00:00Z,CXWN 051100Z AUTO 25002KT M02/M08 RMK AO1 SLP031 T10231076 56024
CXYH,2022-11-05T11:00:00Z,CXYH 051100Z AUTO 01002KT M12/M15 RMK AO1 SLP124 T11241148 53024
CXZC,2022-11-05T11:00:00Z,CXZC 051100Z AUTO 24002KT M02/M02 RMK AO1 SLP135 T10171022 55000
CXZV,2022-11-05T11:00:00Z,CXZV 051100Z AUTO 26005KT 11/07 RMK AO1 SLP080 T01110068 55003
CYAH,2022-11-05T11:49:00Z,CYAH 051149Z AUTO 24007KT 9SM OVC014 M01/M01 A2983 RMK SLP122
CYAM,2022-11-05T11:47:00Z,CYAM 051147Z 08006KT 3SM -SHRA BR BKN003 BKN007 OVC160TCU 09/09 A2961 RMK SF5CF2TCU1 VIS VRB 2-4 CIG VRB 2-4 TCU OHD MOV NE SLP034
CYAT,2022-11-05T11:56:00Z,CYAT 051156Z AUTO 32003KT 8SM BKN006 OVC017 M04/M04 A2991 RMK PRESFR SLP131
CYAY,2022-11-05T11:00:00Z,CYAY 051100Z AUTO 20015G23KT 9SM CLR 10/07 A2972 RMK SLP069
CYBC,2022-11-05T11:00:00Z,CYBC 051100Z AUTO 24026G33KT 9SM OVC091 11/07 A2983 RMK SLP105
CYBG,2022-11-05T11:00:00Z,CYBG 051100Z 24014G21KT 25SM FEW070 BKN110 BKN150 18/09 A2987 RMK AC1AC4AC1 SLP116
CYBK,2022-11-05T11:00:00Z,CYBK 051100Z 07014KT 3SM -SN OVC020 M15/M17 A2971 RMK SC8 SLP064
CYBQ,2022-11-05T11:00:00Z,CYBQ 051100Z AUTO /////KT 9SM OVC006 M07/M08 A2944 RMK WIND MISG SLP993
CYBR,2022-11-05T11:00:00Z,CYBR 051100Z 08008KT 15SM FEW250 M06/M09 A2941 RMK CI2 SLP982
CYBU,2022-11-05T11:46:00Z,CYBU 051146Z AUTO 03011KT 9SM -SN BKN071 OVC085 M04/M04 A2921 RMK SLP916
CYBW,2022-11-05T11:56:00Z,CYBW 051156Z AUTO 30009KT 1SM R35/3000VP6000FT/ -SN VV006 M01/M02 A2894 RMK PRESRR SLP841 DENSITY ALT 4100FT
CYBX,2022-11-05T11:00:00Z,CYBX 051100Z 25012G18KT 15SM FEW015 SCT200 07/06 A2973 RMK SC2CI1 SLP072
CYCA,2022-11-05T11:00:00Z,CYCA 051100Z AUTO 21011G18KT 9SM -RA BKN055 OVC098 08/06 A2951 RMK SLP997
CYCB,2022-11-05T11:48:00Z,CYCB 051148Z 32003KT 12SM IC SCT009 OVC015 M24/M27 A2980 RMK SF3SC5 CIG RAG SLP098
CYCK,2022-11-05T11:00:00Z,CYCK 051100Z AUTO 19017KT 9SM CLR 15/11 A2988 RMK SLP119 DENSITY ALT 900FT
CYCO,2022-11-05T11:00:00Z,CYCO 051100Z 26013KT 15SM -SN DRSN BKN018 M20/M22 A2989 RMK SC6 SLP128
CYCY,2022-11-05T11:00:00Z,CYCY 051100Z AUTO 27007KT 9SM CLR M17/M22 A2939 RMK SLP956
CYDB,2022-11-05T11:00:00Z,CYDB 051100Z AUTO 28007KT 9SM -SN SCT044 OVC091 M16/M19 A2987 RMK SLP187
CYDF,2022-11-05T11:00:00Z,CYDF 051100Z 27004KT 200V330 15SM FEW150 BKN220 10/09 A2995 RMK AC1CI4 SLP143
CYDL,2022-11-05T11:05:00Z,CYDL 051105Z AUTO 02009G16KT 340V080 9SM BKN050 OVC096 M06/M12 A2948 RMK SLP018
CYDN,2022-11-05T11:00:00Z,CYDN 051100Z AUTO 20011KT 9SM CLR 02/M07 A2937 RMK SLP959
CYDP,2022-11-05T11:00:00Z,CYDP 051100Z 29032G44KT 15SM FEW033 FEW120 02/M04 A2943 RMK SC1AC1 TR SC SLP969
CYDQ,2022-11-05T11:56:00Z,CYDQ 051156Z AUTO 33015KT 1SM -SN VV009 M12/M14 A2953 RMK SLP052
CYEG,2022-11-05T11:47:00Z,CYEG 051147Z CCA 04013KT 15SM -SN FEW012 OVC046 M02/M05 A2905 RMK SC1SC8 LWR SC TR SLP868
CYEK,2022-11-05T11:53:00Z,CYEK 051153Z AUTO 17028G36KT 130V210 3/4SM -SN BKN010 OVC015 M02/M02 A2953 RMK SLP003
CYEN,2022-11-05T11:00:00Z,CYEN 051100Z AUTO 15010KT 9SM SCT071 M02/M07 A2925 RMK SLP929
CYER,2022-11-05T11:31:00Z,CYER 051131Z AUTO 16005KT 9SM FEW002 SCT250 M08/M09 A2984 RMK SLP108
CYET,2022-11-05T11:49:00Z,CYET 051149Z AUTO 03007KT 1 3/4SM -SN BKN010 OVC016 M02/ A2911 RMK VIS VRB 1 1/4-3 ICE PAST HR DP MISG SLP894
CYEV,2022-11-05T11:10:00Z,CYEV 051110Z 31006KT 15SM -SN OVC013 M14/M16 A3023 RMK SC8 SLP248
CYFB,2022-11-05T11:00:00Z,CYFB 051100Z 32009KT 15SM -SN BKN027 OVC050 M10/M13 A2976 RMK SC5SC3 SLP083
CYFC,2022-11-05T11:51:00Z,CYFC 051151Z AUTO VRB02KT 4SM BR CLR 08/07 A3012 RMK SLP202
CYFO,2022-11-05T11:38:00Z,CYFO 051138Z VRB02KT 1SM BR VV003 M05/M06 A2933 RMK FG8 SLP953
CYFS,2022-11-05T11:00:00Z,CYFS 051100Z 32012KT 15SM -SN FEW018 BKN038 BKN080 OVC100 M11/M14 A2982 RMK SC2SC4AC1AC2 AC TR SLP116
CYFT,2022-11-05T11:00:00Z,CYFT 051100Z 27023G32KT 15SM BKN020 11/08 A2940 RMK CU7 PRESRR SLP960 DENSITY ALT 500FT
CYGK,2022-11-05T11:00:00Z,CYGK 051100Z 18010KT 15SM FEW250 14/12 A3001 RMK CI1 SLP166
CYGL,2022-11-05T11:39:00Z,CYGL 051139Z 00000KT 15SM SCT007 BKN020 M02/M02 A2987 RMK SF3SC3 SLP131
CYGP,2022-11-05T11:00:00Z,CYGP 051100Z 28009G16KT 15SM SCT200 15/07 A2988 RMK CI4 SLP121 DENSITY ALT 300FT
CYGR,2022-11-05T11:00:00Z,CYGR 051100Z 23017G26KT 20SM FEW290 12/09 A3003 RMK CI2 SLP172
CYGV,2022-11-05T11:00:00Z,CYGV 051100Z AUTO 25007KT 9SM SCT066 07/06 A2978 RMK SLP089
CYGW,2022-11-05T11:48:00Z,CYGW 051148Z AUTO 35005KT 300V020 9SM -SN SCT019 OVC028 M01/M03 A2991 RMK SLP130
CYGX,2022-11-05T11:00:00Z,CYGX 051100Z 14005KT 14SM -SN OVC018 M05/M06 A2955 RMK SC8 SLP022
CYHD,2022-11-05T11:46:00Z,CYHD 051146Z AUTO 12006KT 070V140 1/2SM R12/3000VP6000FT FZFG VV002 M04/M05 A2970 RMK SLP086
CYHK,2022-11-05T11:54:00Z,CYHK 051154Z AUTO 27011KT 9SM BKN004 M23/M26 A2973 RMK SLP078
CYHM,2022-11-05T11:00:00Z,CYHM 051100Z 19009KT 15SM BKN260 14/10 A2994 RMK CI6 SLP140 DENSITY ALT 900FT
CYHU,2022-11-05T11:00:00Z,CYHU 051100Z AUTO 18014G21KT 9SM CLR 14/10 A3003 RMK SLP171
CYHY,2022-11-05T11:00:00Z,CYHY 051100Z 33011G17KT 1SM -SN DRSN FEW008 BKN010 OVC012 M14/M16 A2966 RMK SC2SC3SC3 SLP061
CYHZ,2022-11-05T11:00:00Z,CYHZ 051100Z 23010KT 12SM FEW005 BKN250 12/12 A3021 RMK SF2CI4 SLP235
CYIN,2022-11-05T11:00:00Z,CYIN 051100Z AUTO 30007KT 9SM CLR M04/M08 A2932 RMK SLP962
CYIO,2022-11-05T11:30:00Z,CYIO 051130Z AUTO 19007KT 9SM -SN SCT037 BKN048 OVC100 M18/M22 A2932 RMK SLP939
CYIV,2022-11-05T11:00:00Z,CYIV 051100Z AUTO 16009G16KT 9SM SCT220 OVC240 M02/M06 A2953 RMK SLP019
CYJT,2022-11-05T11:00:00Z,CYJT 051100Z 25016KT 15SM FEW210 11/08 A3002 RMK CI2 SLP167
CYKA,2022-11-05T11:00:00Z,CYKA 051100Z 36004KT 40SM FEW063 SCT140 05/M05 A2938 RMK SC1AC3 SLP962
CYKF,2022-11-05T11:00:00Z,CYKF 051100Z AUTO 18009KT 9SM CLR 15/10 A2992 RMK SLP132 DENSITY ALT 1300FT
CYKJ,2022-11-05T11:51:00Z,CYKJ 051151Z AUTO 30004KT 200V320 9SM BKN005 OVC019 M05/M05 A2932 RMK SLP964
CYKL,2022-11-05T11:45:00Z,CYKL 051145Z AUTO 29011G20KT 9SM FEW020 BKN040 00/M01 A2965 RMK SLP071
CYKP,2022-11-05T11:00:00Z,CYKP 051100Z AUTO 30002KT 9SM CLR M07/M07 A2988 RMK ICE SLP134
CYKY,2022-11-05T11:00:00Z,CYKY 051100Z 14009KT 15SM SCT100 BKN230 01/M01 A2888 RMK AC4CI3 SLP810 DENSITY ALT 2400FT
CYLC,2022-11-05T11:50:00Z,CYLC 051150Z 35004KT 15SM -SHSN SCT029 BKN035 M08/M12 A2978 RMK SC3SC4 SNW CVR/ ONE LOOSE SLP092
CYLD,2022-11-05T11:46:00Z,CYLD 051146Z 04008KT 15SM -RA OVC005 02/01 A2975 RMK NS8 SLP092
CYLH,2022-11-05T11:00:00Z,CYLH 051100Z AUTO 00000KT 9SM CLR M11/M11 A2985 RMK SLP130
CYLL,2022-11-05T11:51:00Z,CYLL 051151Z AUTO 03013G18KT 2 1/2SM -SN OVC010 M04/M07 A2900 RMK SLP856
CYLW,2022-11-05T11:00:00Z,CYLW 051100Z AUTO 17012G17KT 9SM SCT043 OVC110 02/00 A2940 RMK SLP974
CYMA,2022-11-05T11:00:00Z,CYMA 051100Z 35008KT 280V360 20SM BKN051 M18/M22 A2991 RMK SC6 SLP184
CYMH,2022-11-05T11:00:00Z,CYMH 051100Z AUTO 22013G22KT 9SM FEW220 09/06 A2962 RMK SLP034
CYMM,2022-11-05T11:00:00Z,CYMM 051100Z AUTO 35008KT 9SM BKN014 BKN019 OVC040 M05/M07 A2937 RMK SLP967
CYMO,2022-11-05T11:00:00Z,CYMO 051100Z AUTO 24003KT 9SM SCT028 M01/M03 A2992 RMK SLP134
CYMT,2022-11-05T11:10:00Z,CYMT 051110Z AUTO 02004KT 9SM -RA SCT008 OVC036 03/03 A2985 RMK SLP128
CYMX,2022-11-05T11:00:00Z,CYMX 051100Z 13002KT 25SM FEW250 07/06 A3002 RMK CI2 SLP169
CYNA,2022-11-05T11:00:00Z,CYNA 051100Z AUTO 26005KT 9SM SCT060 BKN210 BKN240 07/06 A2981 RMK SLP097
CYND,2022-11-05T11:00:00Z,CYND 051100Z 00000KT 15SM FEW250 12/10 A2998 RMK CI1 SLP156
CYNE,2022-11-05T11:00:00Z,CYNE 051100Z AUTO 10004KT 9SM CLR M05/M05 A2942 RMK SLP979
CYNM,2022-11-05T11:50:00Z,CYNM 051150Z AUTO 08003KT 010V110 6SM -RA BR BKN003 OVC010 01/01 A2988 RMK SLP134
CYOD,2022-11-05T11:00:00Z,CYOD 051100Z 05007KT 3SM -SN OVC040 M02/M03 A2915 RMK SC8 DENSITY ALT 913FT /S02/ SLP897
CYOJ,2022-11-05T11:53:00Z,CYOJ 051153Z AUTO 32006KT 9SM -SN SCT028 OVC047 M13/M15 A2962 RMK SLP064
CYOO,2022-11-05T11:00:00Z,CYOO 051100Z AUTO 11003KT 060V120 9SM CLR 08/07 A2995 RMK SLP146
CYOW,2022-11-05T11:00:00Z,CYOW 051100Z 19009G15KT 15SM SCT250 15/11 A2998 RMK CI3 SLP157 DENSITY ALT 400FT
CYPA,2022-11-05T11:00:00Z,CYPA 051100Z 08010KT 15SM OVC070 M05/M05 A2918 RMK AC8 SLP907
CYPD,2022-11-05T11:00:00Z,CYPD 051100Z AUTO 25008KT 9SM CLR 11/10 A3016 RMK SLP218
CYPE,2022-11-05T11:51:00Z,CYPE 051151Z 01020G29KT 6SM -SN DRSN BKN009 OVC090 M11/M14 A2946 RMK SC7AC1 SLP014
CYPH,2022-11-05T11:00:00Z,CYPH 051100Z AUTO 02004KT 9SM OVC044 M08/M12 A2995 RMK SLP146
CYPL,2022-11-05T11:00:00Z,CYPL 051100Z AUTO 16005KT 9SM CLR M07/M08 A2978 RMK SLP112
CYPO,2022-11-05T11:00:00Z,CYPO 051100Z AUTO VRB02KT 9SM CLR M06/M06 A2987 RMK SLP122
CYPQ,2022-11-05T11:00:00Z,CYPQ 051100Z AUTO 16003KT 9SM CLR 08/08 A2995 RMK SLP148
CYPR,2022-11-05T11:46:00Z,CYPR 051146Z AUTO 23007KT 150V250 9SM -RA BKN023 BKN030 OVC055 04/01 A2947 RMK SLP984
CYPX,2022-11-05T11:00:00Z,CYPX 051100Z AUTO 13002KT OVC036 M08/M10 A2993 RMK WX MISG VIS MISG SLP138
CYPY,2022-11-05T11:00:00Z,CYPY 051100Z AUTO 30008KT 9SM -SN OVC012 M10/M12 A2946 RMK SLP996
CYQA,2022-11-05T11:00:00Z,CYQA 051100Z AUTO 16010G15KT 9SM BKN071 OVC082 15/10 A2988 RMK SLP122 DENSITY ALT 1200FT
CYQB,2022-11-05T11:00:00Z,CYQB 051100Z 25009KT 15SM FEW240 10/08 A3001 RMK CI1 SLP168
CYQD,2022-11-05T11:00:00Z,CYQD 051100Z AUTO 12003KT 9SM SCT150 OVC170 M04/M05 A2934 RMK SLP954
CYQF,2022-11-05T11:53:00Z,CYQF 051153Z AUTO 36008G19KT 9SM OVC008 M05/M06 A2899 RMK SLP863
CYQG,2022-11-05T11:00:00Z,CYQG 051100Z AUTO 19014G21KT 9SM BKN230 16/09 A2985 RMK SLP111 DENSITY ALT 1000FT
CYQH,2022-11-05T11:00:00Z,CYQH 051100Z 08009KT 10SM -SN OVC078 M11/M17 A2969 RMK AC8 SLP101
CYQI,2022-11-05T11:00:00Z,CYQI 051100Z 23009KT 7SM FEW005 SCT250 14/14 A3027 RMK SF1CC4 SF TR SLP252
CYQK,2022-11-05T11:00:00Z,CYQK 051100Z 17007KT 20SM SKC M04/M05 A2968 RMK SLP075
CYQL,2022-11-05T11:45:00Z,CYQL 051145Z 25012KT 10SM FEW042 OVC130 03/02 A2891 RMK SC2AC6 WSHFT 1125 PRESRR SLP809 DENSITY ALT 3600FT
CYQM,2022-11-05T11:00:00Z,CYQM 051100Z 19005KT 15SM MIFG FEW080 FEW220 BKN250 08/07 A3011 RMK AC1CI2CI4 AC TR SLP200
CYQQ,2022-11-05T11:00:00Z,CYQQ 051100Z 26004KT 20SM FEW075 00/M01 A2967 RMK AC1 SLP047
CYQR,2022-11-05T11:00:00Z,CYQR 051100Z 13016KT 15SM OVC075 M01/M06 A2913 RMK AC8 PRESFR SLP887
CYQT,2022-11-05T11:00:00Z,CYQT 051100Z 30003KT 15SM FEW270 M04/M05 A2978 RMK CI2 SLP097
CYQU,2022-11-05T11:00:00Z,CYQU 051100Z 36012G18KT 2SM -SN DRSN VV013 M09/M12 A2938 RMK SN8 /S01/ PRESRR SLP987
CYQV,2022-11-05T11:00:00Z,CYQV 051100Z AUTO 14013KT 9SM OVC150 M02/M06 A2923 RMK SLP922
CYQW,2022-11-05T11:37:00Z,CYQW 051137Z AUTO 08015KT 9SM -SN FEW009 SCT018 OVC025 M01/M02 A2899 RMK SLP842
CYQX,2022-11-05T11:00:00Z,CYQX 051100Z 21014G21KT 20SM FEW020 FEW100 SCT200 BKN250 10/06 A2996 RMK SC1AC1CC2CI4 SC TR CONTRAILS SLP152
CYQY,2022-11-05T11:00:00Z,CYQY 051100Z 24012KT 15SM FEW100 BKN240 09/07 A3013 RMK AC1CI5 AC TR CLD HGTS ESTD SLP207
CYQZ,2022-11-05T11:00:00Z,CYQZ 051100Z AUTO 13004KT 070V140 9SM CLR M01/M03 A2931 RMK SLP950
CYRB,2022-11-05T11:00:00Z,CYRB 051100Z 32020KT 6SM -SN DRSN OVC037 M23/M26 A2934 RMK SC8 SLP947
CYRJ,2022-11-05T11:00:00Z,CYRJ 051100Z 21015G22KT 25SM FEW060 SCT110 BKN220 17/09 A2983 RMK SC1AC3CC3 SLP105 DENSITY ALT 1100FT
CYRL,2022-11-05T11:00:00Z,CYRL 051100Z 15008KT 15SM SKC M03/M06 A2968 RMK SLP075
CYRQ,2022-11-05T11:00:00Z,CYRQ 051100Z AUTO 21008KT 9SM CLR 10/09 A3001 RMK SLP167
CYRT,2022-11-05T11:00:00Z,CYRT 051100Z 14017G23KT 3SM -SN SCT010 OVC016 M05/M07 A2971 RMK SC4SC4 SLP066
CYRV,2022-11-05T11:21:00Z,CYRV 051121Z AUTO 01015G20KT 9SM -RA FEW055 BKN110 OVC130 05/00 A2925 RMK PRESRR SLP917
CYSB,2022-11-05T11:00:00Z,CYSB 051100Z 19013KT 8SM FEW005 OVC035 12/11 A2974 RMK SF2SC6 SLP077 DENSITY ALT 1400FT
CYSC,2022-11-05T11:00:00Z,CYSC 051100Z AUTO 21007KT 170V240 9SM CLR 14/10 A3009 RMK SLP193 DENSITY ALT 800FT
CYSF,2022-11-05T11:31:00Z,CYSF 051131Z AUTO 25003KT 9SM -SN OVC029 M05/M06 A2936 RMK SLP960
CYSJ,2022-11-05T11:00:00Z,CYSJ 051100Z 21009KT 3SM BR OVC004 13/13 A3016 RMK ST8 SLP217
CYSK,2022-11-05T11:00:00Z,CYSK 051100Z 01011G17KT 7SM OVC032 M04/M09 A2994 RMK SC8 CALL OUT SLP143
CYSM,2022-11-05T11:00:00Z,CYSM 051100Z 28013KT 12SM -SN DRSN OVC011 M09/M11 A2944 RMK SC8 SLP990
CYSN,2022-11-05T11:00:00Z,CYSN 051100Z 18013KT 15SM BKN250 17/11 A2994 RMK CI5 SLP139 DENSITY ALT 600FT
CYTE,2022-11-05T11:14:00Z,CYTE 051114Z AUTO 29014KT 9SM -SN OVC028 M08/M11 A2972 RMK SLP072
CYTH,2022-11-05T11:00:00Z,CYTH 051100Z 07004KT 15SM -SN OVC005 M05/M06 A2946 RMK SC8 SLP994
CYTL,2022-11-05T11:00:00Z,CYTL 051100Z AUTO /////KT 9SM BKN086 M03/M05 A2976 RMK WIND MISG SLP096
CYTR,2022-11-05T11:00:00Z,CYTR 051100Z 19004KT 15SM BKN270 15/11 A2998 RMK CI5 DENSITY ALT 422FT SLP154
CYTS,2022-11-05T11:00:00Z,CYTS 051100Z 03007KT 5SM -RA BKN005 OVC015 01/01 A2984 RMK SF7SC1 SLP120
CYTZ,2022-11-05T11:00:00Z,CYTZ 051100Z AUTO 11003KT 9SM CLR 12/10 A2994 RMK SLP141
CYUA,2022-11-05T11:06:00Z,CYUA 051106Z AUTO 31007KT ////SM BKN021 OVC110 M16/M18 A3030
CYUL,2022-11-05T11:00:00Z,CYUL 051100Z 15010KT 15SM FEW250 13/10 A3002 RMK CI2 SLP168
CYUS,2022-11-05T11:44:00Z,CYUS 051144Z AUTO 28011G16KT ////SM //// BKN002 BKN014 M22/M25 A2970
CYUX,2022-11-05T11:46:00Z,CYUX 051146Z AUTO 29022KT 3SM -SN OVC035 M17/M19 A2956 RMK SLP013
CYUY,2022-11-05T11:32:00Z,CYUY 051132Z 05006KT 5SM -DZ BR FEW004 SCT006 OVC015 03/03 A2981 RMK SF1SF4SC4 SF TR PRESFR SLP104
CYVC,2022-11-05T11:45:00Z,CYVC 051145Z 08011KT 12SM -SN OVC006 M03/M05 A2930 RMK SC8 SLP946
CYVL,2022-11-05T11:00:00Z,CYVL 051100Z AUTO 36014G22KT 9SM OVC091 M16/M18 A2996 RMK SLP178
CYVM,2022-11-05T11:00:00Z,CYVM 051100Z AUTO 23005KT 140V240 9SM CLR M14/M22 A2955 RMK SLP007
CYVO,2022-11-05T11:00:00Z,CYVO 051100Z 03009KT 5SM -RA BR BKN007 OVC010 04/04 A2982 RMK SF7NS1 SLP111
CYVP,2022-11-05T11:00:00Z,CYVP 051100Z 34010G17KT 4SM -SN SCT012 BKN039 OVC055 M03/M04 A2973 RMK SN2ST2SC3SC1 /S01/ SLP073
CYVQ,2022-11-05T11:00:00Z,CYVQ 051100Z 29009KT 3SM -SN SCT030 BKN066 BKN100 M15/M17 A3007 RMK SC3AC3AC2 SLP193
CYVR,2022-11-05T11:00:00Z,CYVR 051100Z 29015KT 15SM FEW060 FEW083 07/02 A2964 RMK SC1AC1 SC TR SLP038
CYVT,2022-11-05T11:20:00Z,CYVT 051120Z AUTO 09007KT 9SM SCT004 OVC091 M05/M07 A2927 RMK SLP941
CYVV,2022-11-05T11:00:00Z,CYVV 051100Z 18014G19KT 15SM FEW100 17/10 A2980 RMK AC2 SLP094 DENSITY ALT 1300FT
CYWE,2022-11-05T11:45:00Z,CYWE 051145Z AUTO 03008KT 9SM OVC016 M17/M20 A2965 RMK ICE MISG SLP084
CYWG,2022-11-05T11:00:00Z,CYWG 051100Z 17018G24KT 15SM SKC M01/M08 A2957 RMK SLP027
CYWK,2022-11-05T11:00:00Z,CYWK 051100Z 27008KT 15SM OVC100 03/02 A2968 RMK AC8 SLP068
CYWL,2022-11-05T11:00:00Z,CYWL 051100Z 24010G16KT 15SM FEW100 M03/M07 A2932 RMK AC1 SLP964
CYXC,2022-11-05T11:52:00Z,CYXC 051152Z VRB06KT 15SM -RA BKN018 BKN050 04/00 A2906 RMK SC5SC1 PRESRR SLP860 DENSITY ALT 3500FT
CYXE,2022-11-05T11:47:00Z,CYXE 051147Z 10015KT 3SM -SN DRSN SCT005 OVC021 M01/M02 A2899 RMK SF3SC5 PRESFR SLP843
CYXH,2022-11-05T11:54:00Z,CYXH 051154Z AUTO 20009KT 9SM -RA BKN060 OVC076 06/02 A2887 RMK SLP787 DENSITY ALT 3100FT
CYXJ,2022-11-05T11:00:00Z,CYXJ 051100Z 34014KT 15SM -SN OVC015 M13/M16 A2953 RMK SC8 SLP042
CYXL,2022-11-05T11:00:00Z,CYXL 051100Z 13004KT 15SM SKC M05/M06 A2975 RMK FROIN SLP102
CYXR,2022-11-05T11:30:00Z,CYXR 051130Z AUTO 02007KT 4SM -RA BR OVC007 04/04 A2979 RMK SLP100
CYXS,2022-11-05T11:00:00Z,CYXS 051100Z AUTO 34011G18KT 9SM -SN BKN013 OVC018 M03/M05 A2924 RMK PRESRR SLP935
CYXT,2022-11-05T11:00:00Z,CYXT 051100Z 18006KT 150V220 5SM RASN BKN004 OVC020 01/00 A2945 RMK SF5SC3 SLP983
CYXU,2022-11-05T11:00:00Z,CYXU 051100Z 17011G16KT 15SM BKN250 15/11 A2991 RMK CI6 SLP130 DENSITY ALT 1100FT
CYXX,2022-11-05T11:00:00Z,CYXX 051100Z 20013KT 15SM FEW030 06/01 A2964 RMK SC1 SC TR SLP041
CYXY,2022-11-05T11:00:00Z,CYXY 051100Z 34009G17KT 10SM -SN DRSN OVC026 M13/M18 A2978 RMK ST8 SLP145
CYXZ,2022-11-05T11:00:00Z,CYXZ 051100Z 05007KT 1SM -RA BR FEW009 OVC070 03/02 A2976 RMK SF1AC8 SF TR SLP092
CYYB,2022-11-05T11:00:00Z,CYYB 051100Z 18011KT 15SM BKN043 OVC110 15/11 A2979 RMK SC6AC2 SLP093 DENSITY ALT 1700FT
CYYC,2022-11-05T11:39:00Z,CYYC 051139Z 35016G21KT 2 1/2SM R35L/4000VP6000FT/D R29/3500VP6000FT/U -SN BR OVC010 M02/M03 A2892 RMK SC8 SLP829
CYYD,2022-11-05T11:09:00Z,CYYD 051109Z AUTO VRB03KT 6SM BR BKN005 OVC022 M01/M01 A2937 RMK SLP967
CYYE,2022-11-05T11:00:00Z,CYYE 051100Z 30009KT 15SM -SN SCT048 M14/M17 A2976 RMK SC4 SLP111
CYYF,2022-11-05T11:23:00Z,CYYF 051123Z 05003KT 10SM -SHRA BKN010 OVC025 02/01 A2949 RMK SC6SC2 CVCTV CLD EMBD SLP999
CYYG,2022-11-05T11:00:00Z,CYYG 051100Z 22011KT 15SM SCT008 BKN250 12/11 A3011 RMK SF4CI3 SLP198
CYYH,2022-11-05T11:00:00Z,CYYH 051100Z 23003KT 150V270 12SM IC BKN018 M22/M24 A2968 RMK SC6 FROIN AURBO SLP057
CYYJ,2022-11-05T11:00:00Z,CYYJ 051100Z 26008KT 30SM SKC 06/M00 A2967 RMK SLP048
CYYL,2022-11-05T11:00:00Z,CYYL 051100Z AUTO 13004KT 9SM OVC004 M06/M06 A2938 RMK SLP979
CYYN,2022-11-05T11:17:00Z,CYYN 051117Z AUTO 20012G17KT 9SM -UP OVC046 03/01 A2895 RMK ICE MISG SLP825 DENSITY ALT 3000FT
CYYQ,2022-11-05T11:00:00Z,CYYQ 051100Z 19009KT 8SM -SN OVC080 M05/M06 A2959 RMK AC8 SLP024
CYYR,2022-11-05T11:24:00Z,CYYR 051124Z 25017G27KT 15SM FEW043 BKN050 OVC080 12/07 A2955 RMK SC1SC6AC1 SH DIST NE AND SW SLP009
CYYT,2022-11-05T11:00:00Z,CYYT 051100Z 27021G27KT 15SM FEW008 BKN220 09/08 A3005 RMK SF1CI5 SLP182
CYYU,2022-11-05T11:00:00Z,CYYU 051100Z 05005KT 15SM BKN017 OVC100 M00/M02 A2987 RMK SC6AC2 SLP130
CYYW,2022-11-05T11:00:00Z,CYYW 051100Z AUTO 00000KT 9SM OVC021 M07/M07 A2982 RMK ICE MISG SLP123
CYYY,2022-11-05T11:00:00Z,CYYY 051100Z 21016G28KT 30SM FEW087 SCT220 16/08 A2986 RMK AC1CI2 SLP115 DENSITY ALT 500FT
CYYZ,2022-11-05T11:00:00Z,CYYZ 051100Z 15005KT 15SM SCT180 BKN260 13/11 A2993 RMK AC3CI4 SLP138
CYZE,2022-11-05T11:29:00Z,CYZE 051129Z AUTO 17014G19KT 6SM -RA BR BKN045 OVC055 12/11 A2968 RMK PCPN 1.0MM PAST HR SLP054 DENSITY ALT 700FT
CYZF,2022-11-05T11:00:00Z,CYZF 051100Z 33011KT 15SM -SN BKN016 M18/M20 A2961 RMK SC7 SLP050
CYZH,2022-11-05T11:32:00Z,CYZH 051132Z AUTO 03009G15KT 330V050 9SM BKN018 OVC037 M03/M07 A2927 RMK PRESRR SLP945
CYZP,2022-11-05T11:24:00Z,CYZP 051124Z AUTO 26023KT 6SM -RA BR OVC018 03/01 A2952 RMK PCPN 1.0MM PAST HR SLP999
CYZR,2022-11-05T11:00:00Z,CYZR 051100Z AUTO 19012G20KT 9SM OVC250 16/10 A2985 RMK SLP109 DENSITY ALT 900FT
CYZS,2022-11-05T11:00:00Z,CYZS 051100Z 32003KT 15SM SCT018 M19/M19 A2981 RMK SC3 SLP104
CYZT,2022-11-05T11:34:00Z,CYZT 051134Z 25008KT 3SM -SHRA BR BKN011 OVC020 03/01 A2972 RMK SF5SC3 CIGR RAG CVCTV CLD EMBD PRESRR SLP065
CYZV,2022-11-05T11:00:00Z,CYZV 051100Z 33005KT 20SM SCT130 BKN170 BKN200 BKN240 08/07 A2977 RMK AC3AC3CC1CI1 CI TR SLP084
CYZX,2022-11-05T11:00:00Z,CYZX 051100Z 28004KT 10SM FEW015 SCT250 11/10 A3020 RMK SC1CI3 FG BANK NW SLP227
CYZY,2022-11-05T11:38:00Z,CYZY 051138Z AUTO 36008KT 340V050 9SM OVC043 M08/M15 A2944 RMK SLP015
CZBF,2022-11-05T11:00:00Z,CZBF 051100Z AUTO 20005KT 9SM SCT230 09/06 A2997 RMK SLP154
CZCP,2022-11-05T11:00:00Z,CZCP 051100Z AUTO 31010G17KT 270V010 ////SM //// ////// M14/M16 A3001
CZCR,2022-11-05T11:00:00Z,CZCR 051100Z AUTO 26005KT 14/07 RMK AO1 SLP142 T01390066 55003
CZDB,2022-11-05T11:00:00Z,CZDB 051100Z AUTO 00000KT 06/ RMK AO1 SOG 01 8001 SLP227 T0060
CZEL,2022-11-05T11:00:00Z,CZEL 051100Z AUTO 17010KT 14/10 RMK AO1 SLP135 T01390096 56012
CZEV,2022-11-05T11:00:00Z,CZEV 051100Z AUTO 32007KT M14/M16 RMK AO1 SOG 12 3031 SLP247 T11401161
CZFS,2022-11-05T11:00:00Z,CZFS 051100Z AUTO 30011KT M11/M14 RMK AO1 SOG 09 3024 PK WND 31019/1003 SLP115 T11131139
CZHY,2022-11-05T11:00:00Z,CZHY 051100Z AUTO 34010G16KT M13/M16 RMK AO1 SOG 07 3029 PK WND 33021/1004 SLP057 T11341155 50002
CZKD,2022-11-05T11:00:00Z,CZKD 051100Z AUTO 11002KT M06/M07 RMK AO1 SOG 16 8017 SLP004 T10581069
CZMD,2022-11-05T11:00:00Z,CZMD 051100Z AUTO 15004KT 120V210 9SM OVC081 M04/M06 A2968 RMK SLP070
CZMJ,2022-11-05T11:00:00Z,CZMJ 051100Z AUTO 17012KT 04/M04 RMK AO1 SLP866 T00361037 58053
CZPC,2022-11-05T11:55:00Z,CZPC 051155Z AUTO 23014G21KT 9SM SCT015 BKN130 02/01 A2892 RMK PCPN 2.2MM PAST HR SLP820 DENSITY ALT 4400FT
CZPS,2022-11-05T11:00:00Z,CZPS 051100Z AUTO 01009KT M06/M07 RMK AO1 T10591070
CZRP,2022-11-05T11:00:00Z,CZRP 051100Z AUTO 29032KT M24/M27 RMK AO1 8PAST HR SOG 52 8009 PK WND 28037/1022 SLP006 P0003 T12431266 50021
CZSJ,2022-11-05T11:00:00Z,CZSJ 051100Z AUTO 15008G15KT 9SM CLR M02/M06 A2962 RMK SLP049
CZSM,2022-11-05T11:00:00Z,CZSM 051100Z AUTO 27007KT M09/M10 RMK AO1 2PAST HR SOG 09 1018 SLP987 P0001 T10881095 50002
CZSP,2022-11-05T11:00:00Z,CZSP 051100Z AUTO 21014KT 12/11 RMK AO1 PK WND 22019/1047 SLP195 T01240108 55001
CZTB,2022-11-05T11:00:00Z,CZTB 051100Z AUTO 32003KT M05/M06 RMK AO1 SLP098 T10511057 56024
CZUM,2022-11-05T11:35:00Z,CZUM 051135Z AUTO 27006KT 230V310 9SM FEW019 SCT044 BKN066 OVC076 04/03 A2964 RMK SLP056
CZVL,2022-11-05T11:40:00Z,CZVL 051140Z AUTO 02009G15KT 9SM -SN OVC008 M02/M02 A2909 RMK PRESRR SLP879
CZZJ,2022-11-05T11:00:00Z,CZZJ 051100Z AUTO 03007KT M02/M03 RMK AO1 2PAST HR SOG 04 2016 SLP879 P0001 T10171027 50002
DAAD,2022-11-05T11:00:00Z,DAAD 051100Z 32014KT 8000 SCT026 18/04 Q1022
DAAE,2022-11-05T11:20:00Z,DAAE 051120Z 31006KT 9999 SCT016 FEW023TCU SCT040 19/12 Q1019 RERA
DAAG,2022-11-05T11:30:00Z,DAAG 051130Z 31010KT 290V350 9999 SCT026 21/10 Q1021
DAAJ,2022-11-05T11:00:00Z,DAAJ 051100Z 35003KT CAVOK 22/01 Q1022
DAAP,2022-11-05T11:00:00Z,DAAP 051100Z 32004KT CAVOK 25/M01 Q1019
DAAS,2022-11-05T11:00:00Z,DAAS 051100Z 33015KT 8000 SCT026 14/01 Q1020
DAAT,2022-11-05T11:30:00Z,DAAT 051130Z 30003KT 240V020 CAVOK 24/M05 Q1023
DAAV,2022-11-05T11:00:00Z,DAAV 051100Z 30007KT 9000 -RA FEW020 FEW026CB SCT033 17/13 Q1019
DAAY,2022-11-05T11:00:00Z,DAAY 051100Z 29006KT 9999 SCT033 18/09 Q1025
DABB,2022-11-05T11:30:00Z,DABB 051130Z 32026G38KT 9999 FEW023 FEW026TCU 21/08 Q1015
DABC,2022-11-05T11:30:00Z,DABC 051130Z 35019KT 9999 BKN030 FEW033TCU 13/08 Q1019
DABS,2022-11-05T11:00:00Z,DABS 051100Z 30020G31KT 9999 FEW026TCU BKN030 13/04 Q1017
DABT,2022-11-05T11:00:00Z,DABT 051100Z 28022KT 9999 FEW020 FEW026CB SCT030 15/06 Q1019
DAFH,2022-11-05T11:00:00Z,DAFH 051100Z 36016KT 8000 DRSA NSC 20/05 Q1022
DAOB,2022-11-05T11:00:00Z,DAOB 051100Z 31010KT 9999 FEW023 17/05 Q1024
DAOF,2022-11-05T11:00:00Z,DAOF 051100Z 15004KT CAVOK 26/M04 Q1021
DAOI,2022-11-05T11:00:00Z,DAOI 051100Z 19004KT 140V270 8000 SCT023 21/09 Q1022
DAON,2022-11-05T11:30:00Z,DAON 051130Z 19002KT 9999 FEW026 24/13 Q1021
DAOO,2022-11-05T11:30:00Z,DAOO 051130Z 35003KT 300V040 9999 FEW013 SCT020TCU 23/16 Q1021
DAOR,2022-11-05T11:00:00Z,DAOR 051100Z 27004KT CAVOK 24/04 Q1023
DAOV,2022-11-05T11:00:00Z,DAOV 051100Z 31006KT 9999 BKN026 21/12 Q1022
DAOY,2022-11-05T11:00:00Z,DAOY 051100Z 32012KT 9999 SCT030 14/06 Q1024
DATM,2022-11-05T11:00:00Z,DATM 051100Z 17005KT 150V210 CAVOK 30/M03 Q1017
DAUA,2022-11-05T11:00:00Z,DAUA 051100Z 02010KT CAVOK 28/M00 Q1020
DAUB,2022-11-05T11:00:00Z,DAUB 051100Z 32020KT 9999 FEW040 SCT233 23/03 Q1017
DAUE,2022-11-05T11:00:00Z,DAUE 051100Z 03005KT CAVOK 24/09 Q1021
DAUG,2022-11-05T11:00:00Z,DAUG 051100Z 35011KT 310V010 CAVOK 22/06 Q1021
DAUH,2022-11-05T11:00:00Z,DAUH 051100Z 34016KT 5000 DRSA NSC 24/M04 Q1019
DAUI,2022-11-05T11:00:00Z,DAUI 051100Z 07006KT CAVOK 28/M03 Q1019
DAUK,2022-11-05T11:00:00Z,DAUK 051100Z 34017KT 3000 DRSA NSC 23/02 Q1018
DAUL,2022-11-05T11:00:00Z,DAUL 051100Z 34016KT CAVOK 20/05 Q1020
DAUO,2022-11-05T11:00:00Z,DAUO 051100Z 34022KT 1500 DRSA NSC 23/02 Q1017
DAUT,2022-11-05T11:00:00Z,DAUT 051100Z 08014KT CAVOK 27/09 Q1020
DAUU,2022-11-05T11:00:00Z,DAUU 051100Z 01010KT CAVOK 24/01 Q1018
DAUZ,2022-11-05T11:00:00Z,DAUZ 051100Z 23002KT CAVOK 25/M02 Q1019
DBBB,2022-11-05T11:00:00Z,DBBB 051100Z 22009KT 9999 SCT017 31/25 Q1012 NOSIG
DFFD,2022-11-05T11:00:00Z,DFFD 051100Z 10011KT 070V130 6000 NSC 35/12 Q1014 NOSIG
DFOO,2022-11-05T11:00:00Z,DFOO 051100Z 10006KT 050V120 6000 NSC 32/12 Q1014
DGAA,2022-11-05T11:00:00Z,DGAA 051100Z 17007KT 120V220 9999 FEW027 30/25 Q1012 NOSIG
DIAP,2022-11-05T11:30:00Z,DIAP 051130Z 21008KT 180V240 9999 FEW013 30/26 Q1012 NOSIG
DIBK,2022-11-05T11:00:00Z,DIBK 051100Z 14004KT 9999 SCT015 30/22 Q1014 NOSIG
DIYO,2022-11-05T11:00:00Z,DIYO 051100Z 24004KT 9999 BKN015 31/24 Q1013 NOSIG
DNAA,2022-11-05T11:00:00Z,DNAA 051100Z 33002KT 8000 NSC 32/18 Q1014 NOSIG
DNEN,2022-11-05T11:00:00Z,DNEN 051100Z 35005KT 9999 SCT013 32/21 Q1012
DNGO,2022-11-05T11:00:00Z,DNGO 051100Z 03013KT 9000 NSC 32/09 Q1014
DNIL,2022-11-05T11:00:00Z,DNIL 051100Z 12003KT 9999 FEW012 31/22 Q1013
DNKA,2022-11-05T11:00:00Z,DNKA 051100Z 05012KT 6000 NSC 28/08 Q1017
DNKN,2022-11-05T11:00:00Z,DNKN 051100Z 07010KT 8000 NSC 30/07 Q1018 NOSIG
DNMM,2022-11-05T11:00:00Z,DNMM 051100Z 04004KT 8000 BKN014 32/26 Q1013 NOSIG
DNMN,2022-11-05T11:00:00Z,DNMN 051100Z 05007KT 8000 33/11 Q1012
DNPO,2022-11-05T11:00:00Z,DNPO 051100Z 27003KT 9999 BKN012 FEW020CB 32/25 Q1011 NOSIG
DNYO,2022-11-05T11:00:00Z,DNYO 051100Z 15006KT CAVOK 33/16 Q1014
DRRM,2022-11-05T11:00:00Z,DRRM 051100Z 10008KT 8000 NSC 32/06 Q1015
DRRN,2022-11-05T11:00:00Z,DRRN 051100Z 11010KT 6000 NSC 34/03 Q1014 NOSIG
DRRT,2022-11-05T11:00:00Z,DRRT 051100Z 10006KT CAVOK 33/03 Q1016
DRZA,2022-11-05T11:00:00Z,DRZA 051100Z 08004KT CAVOK 29/02 Q1017
DRZR,2022-11-05T11:00:00Z,DRZR 051100Z 02007KT CAVOK 32/01 Q1016
DTKA,2022-11-05T11:00:00Z,DTKA 051100Z 31027G46KT 5000 RA SCT020 FEW023CB BKN030 15/12 Q1012 NOSIG:CB/N
DTMB,2022-11-05T11:30:00Z,DTMB 051130Z 30026G40KT 9999 FEW023 SCT040 20/08 Q1011
DTNH,2022-11-05T11:30:00Z,DTNH 051130Z 28028KT 9999 SCT023 19/10 Q1011
DTTA,2022-11-05T11:30:00Z,DTTA 051130Z 26019KT 8000 -RA SCT023TCU FEW026CB 17/12 Q1009
DTTB,2022-11-05T11:00:00Z,DTTB 051100Z 28024G34KT 9999 TS SCT020 FEW023CB SCT030 19/13 Q1009
DTTF,2022-11-05T11:00:00Z,DTTF 051100Z 34024G34KT 4000 SA SCT026 21/04 Q1015 NOSIG
DTTG,2022-11-05T11:00:00Z,DTTG 051100Z VRB10KT 9999 FEW030 23/02 Q1015 NOSIG
DTTJ,2022-11-05T11:30:00Z,DTTJ 051130Z 31021KT 9999 FEW020 SCT026 23/07 Q1014 NOSIG
DTTK,2022-11-05T11:00:00Z,DTTK 051100Z 32010G23KT 260V010 9999 BKN023 19/08 Q1013
DTTL,2022-11-05T11:00:00Z,DTTL 051100Z 22011KT 9999 SCT020 SCT030 16/13 Q1008 RERA
DTTN,2022-11-05T11:00:00Z,DTTN 051100Z 31016G32KT 9999 SCT020 SCT030 19/08 Q1013
DTTR,2022-11-05T11:00:00Z,DTTR 051100Z 31014KT 8000 NSC 22/04 Q1017
DTTX,2022-11-05T11:00:00Z,DTTX 051100Z 29017KT 250V310 9999 FEW020 22/06 Q1013
DTTZ,2022-11-05T11:00:00Z,DTTZ 051100Z 30014KT 6000 NSC 24/03 Q1015
DXNG,2022-11-05T11:00:00Z,DXNG 051100Z 04006KT 6000 FEW010 32/19 Q1014
DXXX,2022-11-05T11:00:00Z,DXXX 051100Z 20008KT 9999 FEW015 32/24 Q1012 NOSIG
EBAW,2022-11-05T11:50:00Z,EBAW 051150Z 20010KT 160V220 9999 FEW035 11/05 Q1018 NOSIG
EBBE,2022-11-05T11:25:00Z,EBBE 051125Z AUTO 19011KT 9999 FEW190/// 10/06 Q1018 BLU
EBBL,2022-11-05T11:25:00Z,EBBL 051125Z AUTO 21007KT 9999 BKN210/// 10/07 Q1018 BLU
EBBR,2022-11-05T11:50:00Z,EBBR 051150Z 21011KT 9999 FEW043 11/06 Q1018 NOSIG
EBCI,2022-11-05T11:50:00Z,EBCI 051150Z 21010KT 9999 FEW040 10/06 Q1018 NOSIG
EBCV,2022-11-05T11:25:00Z,EBCV 051125Z AUTO 21010KT 9999 BKN120/// 10/07 Q1018 BLU
EBDT,2022-11-05T11:25:00Z,EBDT 051125Z AUTO 20008KT 9999 FEW045/// SCT160/// BKN190/// 10/06 Q1018 BLU
EBFN,2022-11-05T11:25:00Z,EBFN 051125Z AUTO 19006KT 9999 FEW038/// BKN110/// 11/09 Q1016 BLU
EBFS,2022-11-05T11:25:00Z,EBFS 051125Z AUTO 19009KT 9999 FEW042/// BKN049/// ///// Q1019 BLU
EBLB,2022-11-05T11:25:00Z,EBLB 051125Z AUTO 23006KT 9999 BKN010/// BKN200/// 07/05 Q1019 GRN
EBLG,2022-11-05T11:50:00Z,EBLG 051150Z 20011KT CAVOK 10/05 Q1019 NOSIG
EBOS,2022-11-05T11:50:00Z,EBOS 051150Z 20009KT 9999 SCT034 10/08 Q1017 NOSIG
EDAH,2022-11-05T11:50:00Z,EDAH 051150Z 25010KT CAVOK 12/08 Q1014
EDBC,2022-11-05T11:50:00Z,EDBC 051150Z AUTO 29007KT 240V340 9999 // SCT028/// 12/05 Q1017
EDDB,2022-11-05T11:50:00Z,EDDB 051150Z AUTO 28009KT CAVOK 12/06 Q1016 NOSIG
EDDC,2022-11-05T11:50:00Z,EDDC 051150Z AUTO 30007KT 270V330 9999 FEW016 SCT037 BKN043 11/07 Q1017 NOSIG
EDDE,2022-11-05T11:50:00Z,EDDE 051150Z AUTO 27008KT 250V310 9999 FEW019 11/06 Q1018 NOSIG
EDDF,2022-11-05T11:50:00Z,EDDF 051150Z AUTO 28005KT 240V330 9999 FEW022 12/06 Q1019 NOSIG
EDDG,2022-11-05T11:50:00Z,EDDG 051150Z AUTO 22009KT 190V260 CAVOK 12/07 Q1017 NOSIG
EDDH,2022-11-05T11:50:00Z,EDDH 051150Z AUTO 23013KT 200V260 CAVOK 11/06 Q1015 NOSIG
EDDK,2022-11-05T11:50:00Z,EDDK 051150Z AUTO 21007KT 180V240 9999 FEW024 SCT047 12/06 Q1019 NOSIG
EDDL,2022-11-05T11:50:00Z,EDDL 051150Z AUTO 21009KT 9999 SCT046 11/07 Q1018 NOSIG
EDDM,2022-11-05T11:50:00Z,EDDM 051150Z AUTO 28006KT 240V310 9999 -SHRA FEW010 BKN045 FEW///TCU 09/07 Q1018 TEMPO SHRA BKN011
EDDN,2022-11-05T11:50:00Z,EDDN 051150Z AUTO 31005KT 280V010 9999 FEW013 10/07 Q1018 NOSIG
EDDP,2022-11-05T11:50:00Z,EDDP 051150Z AUTO 24009KT 9999 VCSH FEW///TCU 12/07 Q1017 NOSIG
EDDR,2022-11-05T11:50:00Z,EDDR 051150Z AUTO 27007KT 9999 OVC006 07/06 Q1021 BECMG BKN010
EDDS,2022-11-05T11:50:00Z,EDDS 051150Z AUTO 30008KT 9999 FEW012 BKN030 OVC047 09/07 Q1019 NOSIG
EDDV,2022-11-05T11:50:00Z,EDDV 051150Z AUTO 23010KT 190V250 9999 FEW019 11/06 Q1017 NOSIG
EDDW,2022-11-05T11:50:00Z,EDDW 051150Z AUTO 23011KT CAVOK 12/07 Q1015 NOSIG
EDFH,2022-11-05T11:50:00Z,EDFH 051150Z 27009KT 240V300 5000 BR BKN003 06/06 Q1019
EDFM,2022-11-05T11:50:00Z,EDFM 051150Z VRB02KT 9999 SCT021 BKN025 12/06 Q1020
EDGS,2022-11-05T11:50:00Z,EDGS 051150Z 22006KT 180V240 9999 FEW012 07/04 Q1018
EDHI,2022-11-05T11:50:00Z,EDHI 051150Z 23009KT 200V260 CAVOK 11/07 Q1015
EDHK,2022-11-05T11:50:00Z,EDHK 051150Z 25008KT 9999 FEW015 10/07 Q1013
EDHL,2022-11-05T11:50:00Z,EDHL 051150Z 25007KT 170V310 9999 FEW026 12/06 Q1015
EDJA,2022-11-05T11:50:00Z,EDJA 051150Z 25007KT 9999 -RA SCT009 BKN022 OVC027 07/06 Q1019
EDLN,2022-11-05T11:50:00Z,EDLN 051150Z 22006KT 180V250 CAVOK 11/07 Q1018
EDLP,2022-11-05T11:50:00Z,EDLP 051150Z 22011KT 200V260 9999 SCT021 10/05 Q1018
EDLV,2022-11-05T11:50:00Z,EDLV 051150Z 22010KT CAVOK 11/07 Q1018
EDLW,2022-11-05T11:50:00Z,EDLW 051150Z 19011KT 9999 FEW024 SCT029 11/06 Q1018
EDMA,2022-11-05T11:50:00Z,EDMA 051150Z 27006KT 9999 09/07 Q1019
EDMO,2022-11-05T11:50:00Z,EDMO 051150Z 27008KT 9999 -RA FEW008 SCT010 BKN033 08/06 Q1018
EDNY,2022-11-05T11:50:00Z,EDNY 051150Z 26004KT 230V290 9999 -SHRA FEW013 BKN029 OVC034 08/07 Q1020
EDQM,2022-11-05T11:50:00Z,EDQM 051150Z 28006KT 9999 FEW016 SCT044 08/05 Q1017
EDSB,2022-11-05T11:50:00Z,EDSB 051150Z 23006KT 200V300 9999 FEW017 SCT020TCU 12/07 Q1021
EDTL,2022-11-05T11:50:00Z,EDTL 051150Z VRB03KT 9999 FEW021 10/07 Q1021
EDTY,2022-11-05T11:50:00Z,EDTY 051150Z 33007KT 9999 -SHRA FEW012 BKN019TCU 09/07 Q1019
EDVE,2022-11-05T11:50:00Z,EDVE 051150Z 25011KT 220V290 9999 BKN018 11/07 Q1017
EDVK,2022-11-05T11:50:00Z,EDVK 051150Z 27007KT 240V300 9999 SCT029 10/04 Q1018
EDXW,2022-11-05T11:50:00Z,EDXW 051150Z 23008KT 9999 VCSH SCT037TCU 11/09 Q1012
EEEI,2022-11-05T11:50:00Z,EEEI 051150Z 13009KT 100V180 9999 OVC011 00/M03 Q1017 NOSIG
EEKE,2022-11-05T11:20:00Z,EEKE 051120Z 14019KT 9999 OVC012 06/04 Q1014
EEPU,2022-11-05T11:50:00Z,EEPU 051150Z AUTO 13009KT 080V150 9999 OVC011/// 01/M01 Q1018
EETN,2022-11-05T11:50:00Z,EETN 051150Z 14010KT 110V180 9999 BKN011 M00/M03 Q1018 NOSIG
EETU,2022-11-05T11:50:00Z,EETU 051150Z AUTO 13011KT 9999 OVC014/// 00/M03 Q1019
EFET,2022-11-05T11:50:00Z,EFET 051150Z AUTO 19010KT 9999 OVC015 02/01 Q1008
EFHA,2022-11-05T11:50:00Z,EFHA 051150Z AUTO 13008KT 110V170 9999 OVC013 01/M02 Q1017
EFHK,2022-11-05T11:50:00Z,EFHK 051150Z 12011KT 9999 BKN016 02/M02 Q1018 NOSIG
EFIV,2022-11-05T11:50:00Z,EFIV 051150Z AUTO 22008KT 180V250 9999 OVC017 04/01 Q1010
EFJO,2022-11-05T11:50:00Z,EFJO 051150Z 19006KT 160V230 9999 OVC008 M00/M01 Q1021
EFJY,2022-11-05T11:50:00Z,EFJY 051150Z AUTO 15008KT 9999 OVC010 M01/M03 Q1018
EFKE,2022-11-05T11:50:00Z,EFKE 051150Z AUTO 18010KT 140V210 9999 FEW009 OVC036 05/03 Q1015
EFKI,2022-11-05T11:50:00Z,EFKI 051150Z AUTO 16007KT 120V200 6000 -FZRA OVC004 M00/M01 Q1018
EFKK,2022-11-05T11:50:00Z,EFKK 051150Z AUTO 14010KT 9999 BKN008 OVC035 03/01 Q1015
EFKS,2022-11-05T11:50:00Z,EFKS 051150Z AUTO 22009KT 9999 OVC008 01/M00 Q1016
EFKT,2022-11-05T11:50:00Z,EFKT 051150Z 21008KT 170V250 9999 OVC018 04/01 Q1011
EFKU,2022-11-05T11:50:00Z,EFKU 051150Z AUTO 15007KT 130V200 9999 -SHSN OVC006 M01/M02 Q1020 REFZRA
EFLP,2022-11-05T11:50:00Z,EFLP 051150Z AUTO 13004KT 090V170 9999 OVC004 M02/M03 Q1021
EFMA,2022-11-05T11:50:00Z,EFMA 051150Z AUTO 13013G23KT 100V160 9999 OVC014 08/05 Q1012
EFMI,2022-11-05T11:50:00Z,EFMI 051150Z AUTO 13006KT 9999 OVC009 M01/M03 Q1020
EFOU,2022-11-05T11:50:00Z,EFOU 051150Z AUTO 16005KT 130V200 9999 OVC012 04/02 Q1016
EFPO,2022-11-05T11:50:00Z,EFPO 051150Z AUTO 12010KT 9999 OVC010 05/02 Q1015
EFRO,2022-11-05T11:50:00Z,EFRO 051150Z AUTO 19013KT 9999 BKN007 OVC023 03/02 Q1014
EFSA,2022-11-05T11:50:00Z,EFSA 051150Z AUTO 19007KT 9999 OVC008 M01/M03 Q1021
EFSI,2022-11-05T11:50:00Z,EFSI 051150Z AUTO 13011KT 9999 BKN008 OVC032 03/01 Q1015
EFTP,2022-11-05T11:50:00Z,EFTP 051150Z AUTO 12010KT 9999 OVC007 02/M00 Q1016
EFTU,2022-11-05T11:50:00Z,EFTU 051150Z AUTO 12009KT 4100 -DZ OVC005 03/02 Q1015
EFUT,2022-11-05T11:50:00Z,EFUT 051150Z AUTO 13008KT 9999 OVC006 M00/M01 Q1020
EFVA,2022-11-05T11:50:00Z,EFVA 051150Z AUTO 14010KT 9999 OVC040 04/02 Q1015
EGAA,2022-11-05T11:50:00Z,EGAA 051150Z AUTO 24010KT 9999 FEW009 11/10 Q1003
EGAC,2022-11-05T11:50:00Z,EGAC 051150Z AUTO 26007KT 230V300 9999 BKN018 12/09 Q1004
EGAE,2022-11-05T11:50:00Z,EGAE 051150Z 23013KT 9999 FEW025 13/10 Q1003
EGBB,2022-11-05T11:50:00Z,EGBB 051150Z 19010KT 160V220 9999 -SHRA BKN012 11/10 Q1010
EGBJ,2022-11-05T11:50:00Z,EGBJ 051150Z 18010KT 9999 VCSH SCT010 SCT028 BKN045 13/11 Q1010
EGCC,2022-11-05T11:50:00Z,EGCC 051150Z AUTO 16006KT 100V210 9999 SCT011 BKN016 OVC032 11/09 Q1007
EGCK,2022-11-05T11:50:00Z,EGCK 051150Z 19018KT 6000 RA OVC010 13/12 Q1005
EGCN,2022-11-05T11:50:00Z,EGCN 051150Z 16010KT 9999 FEW008 SCT014 BKN046 10/09 Q1009
EGDM,2022-11-05T11:20:00Z,EGDM 051120Z AUTO 20009KT 9999 -RA OVC004/// 11/11 Q1012
EGDR,2022-11-05T11:20:00Z,EGDR 051120Z AUTO 19017KT 1200 RA OVC001/// 13/13 Q1011
EGDY,2022-11-05T11:20:00Z,EGDY 051120Z AUTO 18012KT 9999 -RA OVC011/// 13/11 Q1012
EGEO,2022-11-05T11:50:00Z,EGEO 051150Z 23011KT 9999 VCSH SCT025 12/11 Q1001
EGFF,2022-11-05T11:50:00Z,EGFF 051150Z AUTO 20007KT 9999 -RA BKN016/// OVC025/// //////TCU 13/11 Q1010
EGGD,2022-11-05T11:50:00Z,EGGD 051150Z AUTO 19010KT 160V220 9999 OVC006 11/10 Q1011
EGGP,2022-11-05T11:50:00Z,EGGP 051150Z 16008KT 090V210 9999 SCT025 BKN036 11/10 Q1006
EGGW,2022-11-05T11:50:00Z,EGGW 051150Z AUTO 19009KT 160V220 9999 -RA BKN004 OVC014 10/10 Q1012
EGHC,2022-11-05T11:50:00Z,EGHC 051150Z 21021KT 0100 FG VV/// 13/13 Q1010
EGHE,2022-11-05T11:50:00Z,EGHE 051150Z 22023KT 2000 DZ BR FEW001 BKN002 14/14 Q1010
EGHH,2022-11-05T11:50:00Z,EGHH 051150Z 22009KT 9999 FEW010 SCT017 13/12 Q1013
EGHI,2022-11-05T11:50:00Z,EGHI 051150Z 20007KT 170V240 9000 -RA FEW010 SCT031 13/11 Q1014
EGHQ,2022-11-05T11:50:00Z,EGHQ 051150Z 20015KT 8000 BKN005 14/13 Q1010
EGJA,2022-11-05T11:50:00Z,EGJA 051150Z 22017KT 9999 -SHRA SCT014 13/11 Q1015
EGJB,2022-11-05T11:50:00Z,EGJB 051150Z 22017KT 9999 VCSH FEW010 SCT017 BKN038 13/10 Q1016
EGJJ,2022-11-05T11:50:00Z,EGJJ 051150Z 21017KT 9999 VCSH FEW015 SCT036 13/11 Q1016
EGKA,2022-11-05T11:50:00Z,EGKA 051150Z 22014KT 9999 -RA FEW016 14/11 Q1014
EGKB,2022-11-05T11:50:00Z,EGKB 051150Z 19011KT 9999 3000S BKN004 10/10 Q1014
EGKK,2022-11-05T11:50:00Z,EGKK 051150Z 20007KT 9999 FEW010 12/11 Q1014
EGLC,2022-11-05T11:50:00Z,EGLC 051150Z AUTO 20007KT 130V290 9999 NCD 12/10 Q1014
EGLF,2022-11-05T11:50:00Z,EGLF 051150Z 19008KT 9999 -DZRA SCT016 BKN033 12/11 Q1013
EGLL,2022-11-05T11:50:00Z,EGLL 051150Z AUTO 20009KT 150V250 9999 -RA BKN009 12/11 Q1013 TEMPO BKN010
EGMC,2022-11-05T11:50:00Z,EGMC 051150Z 20007KT 170V230 9999 -RA SCT016 BKN020 11/10 Q1014
EGMD,2022-11-05T11:50:00Z,EGMD 051150Z 23017KT 9999 FEW013 SCT025 BKN030 13/11 Q1016 RESHRA
EGNH,2022-11-05T11:50:00Z,EGNH 051150Z 17016KT 9999 -RA FEW007 SCT020 BKN028 11/10 Q1006
EGNJ,2022-11-05T11:50:00Z,EGNJ 051150Z 19010KT 9000 -RA FEW006 BKN040 11/10 Q1009
EGNM,2022-11-05T11:50:00Z,EGNM 051150Z 17005KT 130V200 9000 VCSH SCT008 BKN012 09/08 Q1007
EGNR,2022-11-05T11:50:00Z,EGNR 051150Z 16009KT 9999 VCSH FEW012 SCT019 BKN027 11/10 Q1007
EGNS,2022-11-05T11:50:00Z,EGNS 051150Z 25018KT 9999 -DZ FEW004 BKN007 OVC015 13/12 Q1004 NOSIG
EGNT,2022-11-05T11:50:00Z,EGNT 051150Z 18008KT 150V240 9999 SCT007 BKN030 09/08 Q1005
EGNV,2022-11-05T11:50:00Z,EGNV 051150Z 17015KT 9999 FEW008 SCT016 09/08 Q1006
EGNX,2022-11-05T11:50:00Z,EGNX 051150Z 18013KT 9999 -RA BKN011 BKN044 11/09 Q1009
EGOM,2022-11-05T11:20:00Z,EGOM 051120Z AUTO 20009KT 7000 -DZ OVC007/// 09/08 Q1004
EGOP,2022-11-05T11:20:00Z,EGOP 051120Z AUTO 21032KT 3800 OVC007/// 13/13 Q1008
EGOS,2022-11-05T11:20:00Z,EGOS 051120Z AUTO 16009KT 9999 // OVC010/// 11/09 Q1008
EGOV,2022-11-05T11:20:00Z,EGOV 051120Z AUTO 19024KT 2100 -RA OVC003/// 13/13 Q1005
EGPA,2022-11-05T11:50:00Z,EGPA 051150Z 18002KT 9999 FEW008 SCT020 08/07 Q1001
EGPB,2022-11-05T11:50:00Z,EGPB 051150Z 27007KT 9999 FEW014CB SCT020 09/07 Q1001
EGPC,2022-11-05T11:50:00Z,EGPC 051150Z AUTO 14009KT 9999 NCD 09/06 Q1000
EGPD,2022-11-05T11:50:00Z,EGPD 051150Z 17010KT 9000 -RA FEW010 BKN040 08/07 Q1002 TEMPO BKN008
EGPE,2022-11-05T11:50:00Z,EGPE 051150Z 06002KT 9999 4000SE -RA FEW004 BKN028 07/07 Q1000
EGPF,2022-11-05T11:50:00Z,EGPF 051150Z AUTO VRB02KT 4900 -DZ SCT004 BKN009 10/09 Q1002 REDZ
EGPH,2022-11-05T11:50:00Z,EGPH 051150Z 26004KT 200V320 9999 -RA FEW015 BKN024 11/10 Q1002
EGPI,2022-11-05T11:50:00Z,EGPI 051150Z 26013KT 9999 SCT021 13/10 Q1002
EGPK,2022-11-05T11:50:00Z,EGPK 051150Z AUTO 24012KT 3900 RA FEW013/// SCT029/// 12/11 Q1002
EGPL,2022-11-05T11:50:00Z,EGPL 051150Z 26019KT 9999 SCT018 12/09 Q0998
EGPN,2022-11-05T11:50:00Z,EGPN 051150Z 08005KT 060V220 7000 -RA FEW003 BKN020 09/08 Q1002
EGPO,2022-11-05T11:50:00Z,EGPO 051150Z 13010KT 7000 -RADZ SCT003 BKN010 09/08 Q0998
EGPU,2022-11-05T11:50:00Z,EGPU 051150Z 26016KT 9999 FEW024 12/09 Q1001
EGQK,2022-11-05T11:20:00Z,EGQK 051120Z AUTO 09003KT 9999 -DZ BKN037/// 07/06 Q1001
EGQL,2022-11-05T10:58:00Z,EGQL 051058Z 11003KT 9999 OVC024 08/08 Q1003 RMK WHT
EGQM,2022-11-05T11:50:00Z,EGQM 051150Z AUTO 17011KT 9999 FEW006/// BKN043/// BKN070/// 09/08 Q1004 RERA
EGQS,2022-11-05T11:50:00Z,EGQS 051150Z 12007KT 9999 -RA FEW022 BKN038 07/05 Q1001 TEMPO 7000 RA SCT022 RMK BLU TEMPO WHT
EGSH,2022-11-05T11:50:00Z,EGSH 051150Z 19010KT 160V230 9000 -RA FEW012 SCT020 BKN045 10/09 Q1013
EGSS,2022-11-05T11:50:00Z,EGSS 051150Z AUTO 17009KT 9999 BKN003 10/10 Q1013
EGSY,2022-11-05T11:50:00Z,EGSY 051150Z 17008KT 9999 -RA FEW010 BKN019 13/11 Q1010
EGTC,2022-11-05T11:50:00Z,EGTC 051150Z 20012KT 9999 SCT010 SCT036 11/09 Q1011
EGTE,2022-11-05T11:50:00Z,EGTE 051150Z 20017KT 9999 BKN016 13/12 Q1012
EGTK,2022-11-05T11:50:00Z,EGTK 051150Z 19011KT 8000 -RA FEW010 BKN015 12/11 Q1011
EGUB,2022-11-05T11:20:00Z,EGUB 051120Z AUTO 18011KT 9999 -RA BKN008/// SCT030/// BKN039/// 12/11 Q1012
EGUL,2022-11-05T11:55:00Z,EGUL 051155Z AUTO 19010KT 9999 SCT050 BKN070 10/10 A2988 RMK AO2 RAB1058E08DZB08E13RAB13E31DZB31E32RAB32E33 SLP122 P0000 60000 T01040102 10104 20067 57016 $
EGUN,2022-11-05T11:43:00Z,EGUN 051143Z COR 18010G15KT 9999 FEW050 OVC075 10/10 A2989 RMK AO2A RAE43 SLP125 $ COR 1152
EGUW,2022-11-05T10:50:00Z,EGUW 051050Z AUTO 20008KT 9999 -RA BKN050/// 09/08 Q1014
EGVA,2022-11-05T11:37:00Z,EGVA 051137Z AUTO 20011KT 9999 -RA BKN013 BKN020 BKN043 BKN065 12/11 A2983 RMK AO2 DZB1057E1059RAB1059 CIG 013V043 SLP106 $
EGVN,2022-11-05T11:50:00Z,EGVN 051150Z 19010KT 9999 -RA BKN012 12/10 Q1011 NOSIG
EGVO,2022-11-05T11:20:00Z,EGVO 051120Z AUTO 19011KT 9999 -RA BKN009/// SCT029/// OVC051/// 12/11 Q1013
EGVP,2022-11-05T11:20:00Z,EGVP 051120Z AUTO 20009KT 9999 -RA OVC006/// 12/11 Q1013
EGWU,2022-11-05T11:50:00Z,EGWU 051150Z 20008KT 9999 -RA BKN012 BKN060 12/11 Q1013 TEMPO 7000
EGXC,2022-11-05T10:50:00Z,EGXC 051050Z 19009KT 9999 -RA FEW007 BKN060 OVC090 09/09 Q1011 RMK BLU
EGXE,2022-11-05T11:20:00Z,EGXE 051120Z AUTO 16011KT 9999 // OVC003/// 09/09 Q1007
EGXS,2022-11-05T10:50:00Z,EGXS 051050Z AUTO 18009KT 9999 -RA OVC050/// 09/08 Q1010
EGXT,2022-11-05T11:20:00Z,EGXT 051120Z AUTO 18013KT 9999 // BKN006/// OVC045/// 10/09 Q1011
EGXV,2022-11-05T11:20:00Z,EGXV 051120Z AUTO 19007KT 9999 -RA OVC041/// 09/08 Q1009
EGXW,2022-11-05T11:20:00Z,EGXW 051120Z 19012KT 9999 FEW009 SCT040 BKN050 10/09 Q1010 TEMPO SCT009 RMK BLU TEMPO GRN
EGXZ,2022-11-05T11:20:00Z,EGXZ 051120Z AUTO 15014KT 9999 // SCT021/// SCT029/// BKN049/// 09/09 Q1007
EGYD,2022-11-05T10:50:00Z,EGYD 051050Z AUTO 19014KT 9999 OVC046/// 10/09 Q1011
EGYE,2022-11-05T11:20:00Z,EGYE 051120Z AUTO 18011KT //// VV/// ///// Q////
EGYH,2022-11-05T11:20:00Z,EGYH 051120Z AUTO 20013KT 9999 // BKN056/// BKN080/// BKN100/// 10/09 Q1011
EGYM,2022-11-05T11:20:00Z,EGYM 051120Z AUTO 18011KT 9999 -RA OVC048/// 10/09 Q1012
EGYP,2022-11-05T11:20:00Z,EGYP 051120Z 26019KT CAVOK 16/09 Q1015 NOSIG
EHAK,2022-11-05T11:25:00Z,EHAK 051125Z AUTO 22019KT 9999 FEW016/// SCT022/// BKN046/// 11/08 Q1009
EHAM,2022-11-05T11:25:00Z,EHAM 051125Z 21016KT 9999 FEW035 12/08 Q1016 NOSIG
EHBK,2022-11-05T11:25:00Z,EHBK 051125Z AUTO 22011KT 180V250 9999 FEW017 10/07 Q1019 NOSIG
EHDL,2022-11-05T11:55:00Z,EHDL 051155Z AUTO 22010KT 140V270 9999 OVC200 11/06 Q1017 BLU
EHDV,2022-11-05T11:25:00Z,EHDV 051125Z AUTO 21018KT 9999 FEW014/// SCT026/// 12/08 Q1011
EHEH,2022-11-05T11:25:00Z,EHEH 051125Z AUTO 20009KT 180V240 9999 OVC200 10/07 Q1018 BLU NOSIG
EHFD,2022-11-05T11:25:00Z,EHFD 051125Z AUTO 25016KT 9999 FEW026/// 12/06 Q1011
EHFS,2022-11-05T11:25:00Z,EHFS 051125Z AUTO 20015KT 9999 OVC043/// 11/08 Q1016
EHGG,2022-11-05T11:25:00Z,EHGG 051125Z AUTO 22012KT 190V260 9999 NSC 12/08 Q1014 TEMPO 7000 -RA -SHRA BKN030 FEW030TCU
EHGR,2022-11-05T11:55:00Z,EHGR 051155Z AUTO 20009KT 160V250 9999 OVC150 11/07 Q1017 BLU
EHHW,2022-11-05T11:25:00Z,EHHW 051125Z AUTO 25019KT 9999 FEW030/// 13/05 Q1013
EHJA,2022-11-05T11:25:00Z,EHJA 051125Z AUTO 23019KT 9999 FEW010/// SCT015/// OVC039/// 11/08 Q1012
EHJR,2022-11-05T11:25:00Z,EHJR 051125Z AUTO 23022KT //// // ///////// 12/06 Q1013 RE// W16/H16
EHKD,2022-11-05T11:25:00Z,EHKD 051125Z AUTO 24013KT 210V270 9999 SCT029 SCT034 BKN041 13/06 Q1014 BLU
EHKV,2022-11-05T11:25:00Z,EHKV 051125Z AUTO 24024KT 9999 FEW023 SCT030 13/06 Q1013
EHLE,2022-11-05T11:25:00Z,EHLE 051125Z AUTO 21010KT 9999 NSC 11/08 Q1016 NOSIG
EHLW,2022-11-05T11:55:00Z,EHLW 051155Z AUTO 21010KT 9999 FEW039 BKN053 OVC059 11/08 Q1014 BLU
EHMA,2022-11-05T11:25:00Z,EHMA 051125Z AUTO 21015KT 9999 FEW025 12/08 Q1013
EHMG,2022-11-05T11:25:00Z,EHMG 051125Z AUTO 25021KT 9999 FEW023 SCT026 BKN038 13/06 Q1014
EHPG,2022-11-05T11:25:00Z,EHPG 051125Z AUTO 24021KT 9999 FEW025 SCT029 13/07 Q1015
EHQE,2022-11-05T11:25:00Z,EHQE 051125Z AUTO /////KT 9999 FEW025 SCT035 13/07 Q1014
EHRD,2022-11-05T11:25:00Z,EHRD 051125Z AUTO 21013KT 190V250 9999 NSC 11/08 Q1016 NOSIG
EHSA,2022-11-05T11:25:00Z,EHSA 051125Z AUTO 23019KT 9999 ///////// 13/07 Q1015 W15/H14
EHSC,2022-11-05T11:25:00Z,EHSC 051125Z AUTO 24020KT 9999 ///////// 12/06 Q1016 W15/H15
EHVK,2022-11-05T11:55:00Z,EHVK 051155Z AUTO 22011KT 190V250 9999 OVC200 11/07 Q1017 BLU
EHVL,2022-11-05T11:55:00Z,EHVL 051155Z AUTO 25020KT 9999 BKN059 OVC150 13/07 Q1013 BLU
EHWO,2022-11-05T11:55:00Z,EHWO 051155Z AUTO 21008KT 180V260 9999 OVC130 11/07 Q1017 BLU
EICK,2022-11-05T11:30:00Z,EICK 051130Z 26011KT 9999 FEW018 12/08 Q1008 NOSIG
EIDL,2022-11-05T11:30:00Z,EIDL 051130Z 24014KT CAVOK 13/07 Q1002
EIDW,2022-11-05T11:30:00Z,EIDW 051130Z 27016KT 9999 -RA FEW010 SCT014 BKN060 12/10 Q1005 NOSIG
EIKN,2022-11-05T11:30:00Z,EIKN 051130Z 21008KT 170V260 9999 FEW020 11/08 Q1004 NOSIG
EIKY,2022-11-05T11:30:00Z,EIKY 051130Z 22008KT 9999 SCT032 13/10 Q1007
EIME,2022-11-05T11:00:00Z,EIME 051100Z 25010KT 9999 -RA FEW015 BKN050 12/10 Q1005
EINN,2022-11-05T11:30:00Z,EINN 051130Z 23010KT 9999 FEW020 13/09 Q1007 NOSIG
EISG,2022-11-05T11:30:00Z,EISG 051130Z 20005KT 130V240 CAVOK 12/08 Q1004
EIWF,2022-11-05T11:30:00Z,EIWF 051130Z 31009KT 250V350 9999 FEW030 13/11 Q1007
EKAH,2022-11-05T11:50:00Z,EKAH 051150Z AUTO 24006KT 190V280 9999 FEW024/// BKN047/// BKN067/// 12/08 Q1010
EKBI,2022-11-05T11:50:00Z,EKBI 051150Z AUTO 21009KT 9999 FEW020/// BKN048/// 12/08 Q1011
EKCH,2022-11-05T11:50:00Z,EKCH 051150Z AUTO 25012KT 9999 BKN024/// 13/07 Q1012 NOSIG
EKEB,2022-11-05T11:50:00Z,EKEB 051150Z AUTO 23007KT 9999 SCT040/// SCT057/// 11/08 Q1011
EKKA,2022-11-05T11:50:00Z,EKKA 051150Z AUTO 22009KT 9999 FEW025/// SCT038/// SCT110/// 11/08 Q1009
EKOD,2022-11-05T11:50:00Z,EKOD 051150Z 22011KT CAVOK 12/09 Q1011
EKRK,2022-11-05T11:50:00Z,EKRK 051150Z AUTO 27012KT 9999 SCT023/// BKN043/// 12/07 Q1011
EKRN,2022-11-05T11:50:00Z,EKRN 051150Z AUTO 27015KT 9999 BKN019/// 12/08 Q1012
EKRS,2022-11-05T11:50:00Z,EKRS 051150Z AUTO 24007KT 140V310 9999 FEW021/// SCT049/// 12/12 Q1012
EKSB,2022-11-05T11:50:00Z,EKSB 051150Z AUTO 23007KT 190V270 9999 -RA BKN052/// BKN084/// 12/07 Q1012
EKSP,2022-11-05T11:50:00Z,EKSP 051150Z 22011KT 9999 FEW019 SCT028 12/07 Q1011
EKVD,2022-11-05T11:50:00Z,EKVD 051150Z 25013KT 200V290 9999 -RA BKN030 11/08 Q1011
EKVG,2022-11-05T11:50:00Z,EKVG 051150Z AUTO 02002KT 9999 OVC016/// 06/03 Q1000 RMK OVC018/// WIND SKEID 06003KT
EKVJ,2022-11-05T11:50:00Z,EKVJ 051150Z 25013KT 9999 FEW025CB FEW035 12/07 Q1010
EKYT,2022-11-05T11:50:00Z,EKYT 051150Z AUTO 25013KT 9999 FEW041/// BKN047/// 11/08 Q1008
ELLX,2022-11-05T11:50:00Z,ELLX 051150Z 22006KT 200V260 7000 FEW004 BKN006 06/06 Q1020 NOSIG
ENAL,2022-11-05T11:50:00Z,ENAL 051150Z 14008KT 9999 SCT041 BKN082 09/07 Q1000
ENAN,2022-11-05T11:50:00Z,ENAN 051150Z 19008KT 9999 BKN031 06/05 Q1005
ENAT,2022-11-05T11:50:00Z,ENAT 051150Z 00000KT CAVOK 00/M00 Q1006 RMK WIND 700FT 15011KT
ENBL,2022-11-05T11:50:00Z,ENBL 051150Z 20004KT 9999 VCSH FEW007 SCT013 BKN020 06/05 Q1001
ENBN,2022-11-05T11:50:00Z,ENBN 051150Z 14007KT 090V190 9999 FEW030 BKN060 10/04 Q1002
ENBO,2022-11-05T11:50:00Z,ENBO 051150Z 14007KT 110V170 9999 SCT049 BKN061 09/03 Q1004 NOSIG
ENBR,2022-11-05T11:50:00Z,ENBR 051150Z 21008KT 9999 VCSH FEW005 SCT016CB BKN030 10/08 Q1003 TEMPO 4000 SHRA BKN012CB RMK WIND 1200FT 23010KT
ENBS,2022-11-05T11:50:00Z,ENBS 051150Z AUTO 24004KT 200V270 9999 BKN070/// OVC088/// 01/00 Q1008
ENBV,2022-11-05T11:50:00Z,ENBV 051150Z AUTO VRB02KT 9999 SCT095 OVC127 03/00 Q1008
ENCN,2022-11-05T11:50:00Z,ENCN 051150Z 25010KT 9999 VCSH SCT023 11/06 Q1005
ENDR,2022-11-05T11:50:00Z,ENDR 051150Z AUTO 22010KT 9999NDV FEW062/// OVC100/// 09/07 Q0999 W///S3
ENDU,2022-11-05T11:50:00Z,ENDU 051150Z 00000KT 9999 FEW001 SCT060 00/M00 Q1005 NOSIG RMK WIND 1100FT 15007KT WIND 2200FT 15008KT
ENEV,2022-11-05T11:50:00Z,ENEV 051150Z 22004KT 190V270 9999 -DZ BKN049 06/03 Q1005 RMK WIND 1400FT 15008KT
ENFB,2022-11-05T11:50:00Z,ENFB 051150Z AUTO 24020KT 9999NDV BKN024/// 09/05 Q1000 W///S4
ENFL,2022-11-05T11:50:00Z,ENFL 051150Z AUTO 16013KT 6000NDV -SHRA SCT007/// BKN012/// BKN032/// 08/07 Q1001
ENGC,2022-11-05T11:50:00Z,ENGC 051150Z 25018KT 9999 VCSH FEW015TCU SCT020 08/05 Q1000 W08/S4
ENGM,2022-11-05T11:50:00Z,ENGM 051150Z 13009KT 6000 OVC007 08/07 Q1001 TEMPO 4000 -RADZ BR
ENHD,2022-11-05T11:50:00Z,ENHD 051150Z 24013KT 9999 VCSH FEW016CB SCT024 10/07 Q1004
ENHE,2022-11-05T11:50:00Z,ENHE 051150Z 20015KT 9999 FEW010 BKN085 10/08 Q0998 W///S3
ENHF,2022-11-05T11:50:00Z,ENHF 051150Z 25005KT CAVOK 04/01 Q1005 RMK WIND 1254FT 20012KT
ENHK,2022-11-05T11:50:00Z,ENHK 051150Z AUTO VRB02KT 9999 NCD 05/02 Q1005
ENHM,2022-11-05T11:50:00Z,ENHM 051150Z AUTO 23019KT 9999NDV FEW018/// SCT033/// 09/06 Q1002 W11/S/
ENHV,2022-11-05T11:50:00Z,ENHV 051150Z AUTO 18004KT 120V230 9999 BKN084/// OVC110/// 04/02 Q1006
ENJS,2022-11-05T11:50:00Z,ENJS 051150Z 23018KT 9999 VCSH BKN016 10/06 Q1004 W11/S/
ENKB,2022-11-05T11:50:00Z,ENKB 051150Z 26006KT 9000 DZ SCT007 BKN050 08/07 Q1000 RMK WIND 745FT 25009KT
ENKR,2022-11-05T11:50:00Z,ENKR 051150Z 20010KT 9999 FEW016 BKN022 03/02 Q1010 RMK WIND 731FT 21017KT
ENLA,2022-11-05T11:50:00Z,ENLA 051150Z AUTO 20021KT 9999NDV FEW019/// 10/// Q1005 W///S4
ENLE,2022-11-05T11:50:00Z,ENLE 051150Z 21023KT 9999 SCT020 BKN220 10/06 Q1007 W12/S4
ENLK,2022-11-05T11:50:00Z,ENLK 051150Z 08003KT 040V140 9999 VCSH FEW020 BKN040 08/05 Q1004
ENMH,2022-11-05T11:50:00Z,ENMH 051150Z AUTO 25002KT 9999 BKN092 03/01 Q1007
ENML,2022-11-05T11:50:00Z,ENML 051150Z 06006KT 9999 FEW001 SCT060 07/06 Q1000
ENMS,2022-11-05T11:50:00Z,ENMS 051150Z 14003KT 110V190 9999 -RA FEW030 SCT035 BKN050 07/05 Q1003 RMK WIND 412FT 08004KT
ENNA,2022-11-05T11:50:00Z,ENNA 051150Z VRB05KT 9999 FEW013 05/02 Q1007 RMK WIND 1800FT 17012KT
ENNE,2022-11-05T11:50:00Z,ENNE 051150Z 14021KT CAVOK 09/07 Q0998 W///S4
ENNM,2022-11-05T11:50:00Z,ENNM 051150Z 08012KT 060V130 CAVOK 10/05 Q1001
ENNO,2022-11-05T11:50:00Z,ENNO 051150Z 13003KT 9999 FEW019 10/08 Q1002
ENOA,2022-11-05T11:50:00Z,ENOA 051150Z 24015KT 9999 VCSH FEW015CB SCT040 09/07 Q1001 W///S4
ENOL,2022-11-05T11:50:00Z,ENOL 051150Z 16007KT 9999 FEW030 BKN060 10/05 Q1000 TEMPO 24012KT SHRA SCT030CB
ENOV,2022-11-05T11:50:00Z,ENOV 051150Z 00000KT 9999 SCT042 BKN078 08/05 Q1000 RMK WIND RWY24 06005KT WIND 2090FT 14018KT
ENQA,2022-11-05T11:50:00Z,ENQA 051150Z AUTO 22016KT 9999NDV FEW012/// 09/06 Q1002 W15/S4
ENQC,2022-11-05T11:50:00Z,ENQC 051150Z AUTO 22017KT 9999NDV BKN018/// 09/05 Q1000 W///S4
ENQR,2022-11-05T11:50:00Z,ENQR 051150Z AUTO 23023KT 9999NDV BKN013/// 09/07 Q0998 W10/S4
ENRA,2022-11-05T11:50:00Z,ENRA 051150Z 15009G20KT 090V160 9999 -RA SCT035 BKN050 09/03 Q1005
ENRM,2022-11-05T11:50:00Z,ENRM 051150Z AUTO 12009KT 070V150 9999 FEW062 BKN090 10/05 Q1001
ENRO,2022-11-05T11:50:00Z,ENRO 051150Z AUTO 14003KT 090V180 9999 OVC020 06/03 Q1001
ENRS,2022-11-05T11:50:00Z,ENRS 051150Z 16012KT 9999 RA BKN035 08/07 Q1003
ENRY,2022-11-05T11:50:00Z,ENRY 051150Z 21008KT 9999 FEW009 BKN017 10/08 Q1002
ENSB,2022-11-05T11:50:00Z,ENSB 051150Z 12009KT 9999 SCT031 SCT100 M04/M05 Q1005 RMK WIND 1400FT 12009KT
ENSD,2022-11-05T11:50:00Z,ENSD 051150Z 06006KT 9999 -DZ FEW004 SCT033 BKN037 08/06 Q1001 RMK WIND RWY26 VRB02KT WIND 1140FT 00000KT
ENSE,2022-11-05T11:50:00Z,ENSE 051150Z AUTO 23022KT 9999NDV SCT013/// OVC016/// 09/07 Q0999 W///S4
ENSF,2022-11-05T11:50:00Z,ENSF 051150Z AUTO 23021KT 9999NDV FEW016/// BKN023/// ///// Q//// W///S4
ENSG,2022-11-05T11:50:00Z,ENSG 051150Z VRB03KT 9999 0500E FG FEW/// SCT040 05/04 Q1002 RMK WIND 3806FT 19014KT
ENSH,2022-11-05T11:50:00Z,ENSH 051150Z 11009KT 9999 -DZ BKN035 08/04 Q1004 RMK WIND 150FT 13008KT
ENSK,2022-11-05T11:50:00Z,ENSK 051150Z 05006KT 9999 -RADZ FEW018 SCT031 BKN045 06/06 Q1004
ENSL,2022-11-05T11:50:00Z,ENSL 051150Z AUTO 25018KT 9999NDV SCT040/// 10/06 Q1004 W09/S4
ENSR,2022-11-05T11:50:00Z,ENSR 051150Z AUTO 15012KT 9999 OVC062/// 05/00 Q1006 RMK WIND RWY32 15011KT WIND 1118FT 15011KT
ENSS,2022-11-05T11:50:00Z,ENSS 051150Z AUTO 23009KT 9999 SCT004 OVC037 03/02 Q1009 RMK WIND 0500FT 23018KT
ENTC,2022-11-05T11:50:00Z,ENTC 051150Z 21002KT 9999 BKN047 04/02 Q1005 NOSIG RMK WIND 2600FT 19005KT
ENTO,2022-11-05T11:50:00Z,ENTO 051150Z 25007KT 180V270 9999 SCT013 10/08 Q1002 NOSIG
ENUG,2022-11-05T11:50:00Z,ENUG 051150Z AUTO VRB04KT 9999NDV OVC097/// 07/04 Q1005 W///S3
ENUN,2022-11-05T11:50:00Z,ENUN 051150Z AUTO 15017KT 9999NDV FEW014/// SCT023/// OVC044/// 09/08 Q0998 W08/S3
ENVA,2022-11-05T11:50:00Z,ENVA 051150Z 16004KT 090V230 CAVOK 12/04 Q1001 TEMPO 15015G25KT RMK WIND 670FT 16010KT
ENVD,2022-11-05T11:50:00Z,ENVD 051150Z 23009KT 9999 FEW007 SCT012 BKN018 04/04 Q1009
ENWV,2022-11-05T11:50:00Z,ENWV 051150Z AUTO 21021KT 9999NDV FEW020/// BKN210/// 11/08 Q1008 W///S4
ENZV,2022-11-05T11:50:00Z,ENZV 051150Z 25010KT 220V280 9000 -SHRA FEW005 SCT015TCU BKN020 10/08 Q1005 RERA
EPBY,2022-11-05T11:30:00Z,EPBY 051130Z 27007KT 9999 FEW011 SCT018 10/08 Q1013
EPGD,2022-11-05T11:30:00Z,EPGD 051130Z 28012KT 9999 FEW016 SCT023 09/07 Q1011
EPKK,2022-11-05T11:30:00Z,EPKK 051130Z 22006KT 6000 -RA FEW006 BKN008 09/08 Q1013
EPKT,2022-11-05T11:30:00Z,EPKT 051130Z 29006KT 5000 -DZ BR BKN003 OVC004 08/08 Q1014
EPLB,2022-11-05T11:30:00Z,EPLB 051130Z 10008KT 9999 FEW012 BKN023 08/08 Q1014
EPLL,2022-11-05T11:30:00Z,EPLL 051130Z 29007KT 9999 BKN007 OVC014 09/08 Q1013
EPMO,2022-11-05T11:30:00Z,EPMO 051130Z 15006KT 120V180 4700 BR BKN005 09/09 Q1013
EPPO,2022-11-05T11:30:00Z,EPPO 051130Z 30008KT 9999 BKN012 10/07 Q1015
EPRZ,2022-11-05T11:30:00Z,EPRZ 051130Z 29007KT 270V330 3000 -RA BR BKN003 09/08 Q1013
EPSC,2022-11-05T11:30:00Z,EPSC 051130Z 27010KT 9999 FEW022 12/07 Q1014
EPSY,2022-11-05T11:30:00Z,EPSY 051130Z 16005KT 120V200 4500 BR OVC005 07/07 Q1013
EPWA,2022-11-05T11:30:00Z,EPWA 051130Z 15005KT 9000 -RA BKN008 09/08 Q1013 NOSIG
EPWR,2022-11-05T11:30:00Z,EPWR 051130Z 31013KT 9999 BKN013 11/08 Q1016
EPZG,2022-11-05T11:30:00Z,EPZG 051130Z 27008KT 230V290 9999 FEW019 11/08 Q1016
ESCF,2022-11-05T11:50:00Z,ESCF 051150Z AUTO 18007KT 9999 BKN010/// OVC150/// 09/08 Q1007
ESCM,2022-11-05T11:50:00Z,ESCM 051150Z AUTO 13008KT 9999 -RA FEW022/// BKN031/// 08/07 Q1009
ESDF,2022-11-05T11:50:00Z,ESDF 051150Z 24004KT 210V270 CAVOK 10/10 Q1010
ESGG,2022-11-05T11:50:00Z,ESGG 051150Z 24014KT 9999 BKN012 10/07 Q1007
ESGJ,2022-11-05T11:50:00Z,ESGJ 051150Z AUTO 22009KT 8000 SCT016/// BKN020/// BKN028/// 09/07 Q1007
ESGP,2022-11-05T11:50:00Z,ESGP 051150Z 22011KT 9999 SCT015 11/08 Q1007
ESGT,2022-11-05T11:50:00Z,ESGT 051150Z AUTO 22011KT 190V250 9999 SCT014/// BKN025/// 10/08 Q1006
ESIA,2022-11-05T11:50:00Z,ESIA 051150Z AUTO 20010KT 9999 BKN021/// 10/07 Q1006
ESIB,2022-11-05T11:50:00Z,ESIB 051150Z AUTO 22014KT 9999 -RA FEW005/// BKN016/// BKN039/// OVC050/// 11/09 Q1005
ESKM,2022-11-05T11:50:00Z,ESKM 051150Z AUTO 14011KT 9999 RA SCT004/// BKN014/// OVC024/// 08/07 Q1005
ESKN,2022-11-05T11:50:00Z,ESKN 051150Z 13010KT 3900 DZ BKN004 09/08 Q1007
ESKS,2022-11-05T11:50:00Z,ESKS 051150Z AUTO 13010KT 9999 OVC010/// 06/05 Q1003
ESMK,2022-11-05T11:50:00Z,ESMK 051150Z AUTO 27008KT 250V310 9999 SCT018/// 12/08 Q1011
ESMQ,2022-11-05T11:50:00Z,ESMQ 051150Z 25006KT CAVOK 10/09 Q1009
ESMS,2022-11-05T11:50:00Z,ESMS 051150Z 25013KT 9999 SCT023 BKN043 11/07 Q1011
ESMT,2022-11-05T11:50:00Z,ESMT 051150Z AUTO 25014KT 9999 R01///// R19/P2000N FEW011/// SCT035/// BKN041/// 12/09 Q1009
ESMX,2022-11-05T11:50:00Z,ESMX 051150Z AUTO 24009KT 9999 SCT008/// OVC011/// 09/08 Q1009
ESND,2022-11-05T11:50:00Z,ESND 051150Z AUTO 11007KT 9999 -DZ OVC007/// 06/05 Q1005
ESNG,2022-11-05T11:50:00Z,ESNG 051150Z AUTO VRB04KT 360V360 9999 OVC031/// 04/// Q1009
ESNK,2022-11-05T11:50:00Z,ESNK 051150Z AUTO 15014KT 9999 OVC009/// 08/06 Q1010 REDZ
ESNL,2022-11-05T11:50:00Z,ESNL 051150Z AUTO 13010KT 9999 FEW009/// BKN012/// OVC016/// 06/05 Q1010
ESNN,2022-11-05T11:50:00Z,ESNN 051150Z AUTO 13016KT 9999 OVC008/// 08/06 Q1010
ESNO,2022-11-05T11:50:00Z,ESNO 051150Z AUTO 16011KT 9999 OVC005/// 06/05 Q1012 REDZ
ESNQ,2022-11-05T11:50:00Z,ESNQ 051150Z AUTO 21020KT 9999 BKN150/// 03/00 Q1006
ESNS,2022-11-05T11:50:00Z,ESNS 051150Z AUTO 18007KT 150V220 9999 OVC009/// 06/05 Q1013
ESNU,2022-11-05T11:50:00Z,ESNU 051150Z AUTO 16009KT 9999 OVC009/// 06/05 Q1013
ESNV,2022-11-05T11:50:00Z,ESNV 051150Z AUTO 15008KT 9999 -RA BKN016/// OVC023/// 05/03 Q1008
ESNX,2022-11-05T11:50:00Z,ESNX 051150Z AUTO 16009KT 9999 FEW010/// BKN013/// BKN019/// 05/04 Q1010 REDZ
ESNZ,2022-11-05T11:50:00Z,ESNZ 051150Z AUTO 13013KT 9999 -RA FEW010/// BKN026/// 06/06 Q1005
ESOE,2022-11-05T11:50:00Z,ESOE 051150Z 14006KT 9999 BKN038 09/08 Q1006
ESOH,2022-11-05T11:50:00Z,ESOH 051150Z AUTO 16008KT 9999 -RA FEW008/// BKN011/// OVC013/// 08/08 Q1004 REDZ RESHUP
ESOK,2022-11-05T11:50:00Z,ESOK 051150Z AUTO 17008KT 9999 +DZ FEW010/// SCT025/// BKN039/// 09/// Q1004 RERA
ESOW,2022-11-05T11:50:00Z,ESOW 051150Z AUTO 11008KT 9999 -DZ SCT008/// BKN012/// BKN020/// 08/07 Q1008
ESPA,2022-11-05T11:50:00Z,ESPA 051150Z 18010KT 9999 OVC008 06/05 Q1013
ESPE,2022-11-05T11:50:00Z,ESPE 051150Z AUTO 16005KT 9999 OVC031/// 06/03 Q1011
ESSA,2022-11-05T11:50:00Z,ESSA 051150Z 13008KT 9999 -RA OVC010 07/06 Q1009 TEMPO RA
ESSB,2022-11-05T11:50:00Z,ESSB 051150Z 13010KT 9999 -RA BKN007 OVC010 08/07 Q1009
ESSD,2022-11-05T11:50:00Z,ESSD 051150Z AUTO 13010KT 9999 DZ BKN008/// OVC012/// 07/06 Q1006
ESSL,2022-11-05T11:50:00Z,ESSL 051150Z AUTO 18006KT 9999 OVC024/// 09/08 Q1007
ESSP,2022-11-05T11:50:00Z,ESSP 051150Z AUTO 22005KT 9999 BKN044/// OVC055/// 09/08 Q1007
ESST,2022-11-05T11:50:00Z,ESST 051150Z AUTO 14008KT 8000 FEW007/// BKN010/// 09/08 Q1003 REDZ
ESSV,2022-11-05T11:50:00Z,ESSV 051150Z 15009KT 9000 -RA OVC005 09/08 Q1008
ESTA,2022-11-05T11:50:00Z,ESTA 051150Z 24013KT 9999 FEW013 SCT015 11/08 Q1010
ESTL,2022-11-05T11:50:00Z,ESTL 051150Z AUTO 24008KT 210V300 9999 FEW014/// BKN019/// 11/09 Q1011
ESUP,2022-11-05T11:50:00Z,ESUP 051150Z AUTO 18008KT 140V210 9999 OVC028/// 05/03 Q1011
ESUT,2022-11-05T11:50:00Z,ESUT 051150Z AUTO 14016KT 110V180 9999 BKN020/// OVC025/// 05/02 Q1005
ETAD,2022-11-05T11:25:00Z,ETAD 051125Z 25005KT 9000 BR BKN005 OVC009 07/06 A3010 RMK AO2A BKN V OVC CIG 004 RWY05 SLP192 $
ETAR,2022-11-05T10:55:00Z,ETAR 051055Z 25006KT 9999 BKN015 09/06 A3012 RMK AO2A CIG 013 RWY08 SLP208 T00890056
ETEB,2022-11-05T11:32:00Z,ETEB 051132Z AUTO 32008KT 9999 DZ BKN009 08/07 A3006 RMK AO2 RAB17E29DZB29 SLP203 $
ETGG,2022-11-05T11:20:00Z,ETGG 051120Z AUTO 27010KT 9999 // ////// 13/07 Q1012 ///
ETHA,2022-11-05T11:20:00Z,ETHA 051120Z AUTO 28011KT 9999 // ////// 06/04 Q1019 ///
ETHB,2022-11-05T11:20:00Z,ETHB 051120Z 22011KT 9999 FEW013 10/06 Q1017 BLU+
ETHC,2022-11-05T11:20:00Z,ETHC 051120Z 23010KT 9999 SCT019 11/06 Q1016 BLACKBLU+
ETHF,2022-11-05T11:20:00Z,ETHF 051120Z 25006KT 9999 FEW025 11/05 Q1018 BLU+
ETHL,2022-11-05T11:20:00Z,ETHL 051120Z AUTO 28006KT 9999 // ////// 09/05 Q1019 ///
ETHN,2022-11-05T11:20:00Z,ETHN 051120Z 30004KT 8000 BKN005 BKN040 08/06 Q1018 YLO
ETHS,2022-11-05T11:20:00Z,ETHS 051120Z AUTO 24010KT 6000 // ////// 11/07 Q1016 ///
ETIC,2022-11-05T11:55:00Z,ETIC 051155Z AUTO 09003KT 9999 FEW019 SCT026 BKN075 09/06 A3004 RMK AO2 RAB21E27DZB27E31 SLP184 P0000 60000 T00870061 10088 20047 52009 $
ETIH,2022-11-05T11:55:00Z,ETIH 051155Z AUTO 00000KT 9999 FEW047 BKN060 09/05 A3006 RMK AO2 SLP188 70001 T00910051 10101 20051 52008 $
ETIK,2022-11-05T11:05:00Z,ETIK 051105Z AUTO 31005KT 9999 FEW007 FEW014 OVC037 09/08 A3008 RMK AO2 DZE05 SLP194 $
ETMN,2022-11-05T11:20:00Z,ETMN 051120Z 22010KT 9999 FEW020 SCT050 11/07 Q1014 BLU+
ETNH,2022-11-05T11:20:00Z,ETNH 051120Z AUTO 22009KT 9999 // ////// 11/08 Q1013 ///
ETNL,2022-11-05T11:20:00Z,ETNL 051120Z 23007KT 9999 FEW060 11/06 Q1014 BLU+
ETNN,2022-11-05T11:20:00Z,ETNN 051120Z 23009KT 9999 FEW030 SCT220 11/05 Q1019 BLU+
ETNS,2022-11-05T11:20:00Z,ETNS 051120Z AUTO 26010KT 9999 // ////// 10/07 Q1013 ///
ETNT,2022-11-05T11:20:00Z,ETNT 051120Z AUTO 23008KT //// // ////// 10/08 Q1014 ///
ETNW,2022-11-05T11:20:00Z,ETNW 051120Z 24010KT 9999 FEW016 10/06 Q1017 BLU+
ETOU,2022-11-05T10:55:00Z,ETOU 051055Z AUTO 23003KT 9999 FEW050 11/M06 A3011 RMK AO2 SLP201 T01091065
ETSB,2022-11-05T11:20:00Z,ETSB 051120Z AUTO 22009KT //// // ////// 05/05 Q1019 ///
ETSH,2022-11-05T11:20:00Z,ETSH 051120Z 27006KT 9999 FEW017 11/07 Q1017 BLU+
ETSI,2022-11-05T11:20:00Z,ETSI 051120Z AUTO 26004KT 9999 // ////// 09/07 Q1018 ///
ETSL,2022-11-05T11:20:00Z,ETSL 051120Z AUTO 26008KT 9999 // ////// 08/05 Q1018 ///
ETSN,2022-11-05T11:20:00Z,ETSN 051120Z 28006KT 9999 FEW010 BKN035 09/07 Q1018 BLU
ETWM,2022-11-05T11:20:00Z,ETWM 051120Z AUTO 21008KT //// // ////// 11/06 Q1016 ///
EVGA,2022-11-05T11:50:00Z,EVGA 051150Z 12010KT 080V160 9999 OVC014 05/02 Q1017 BECMG OVC015
EVLA,2022-11-05T11:50:00Z,EVLA 051150Z AUTO 13008KT 9999 -RA SCT008/// OVC010/// 06/05 Q1011
EVRA,2022-11-05T11:50:00Z,EVRA 051150Z 14010KT 100V170 9999 OVC016 05/03 Q1015 NOSIG
EVVA,2022-11-05T11:50:00Z,EVVA 051150Z AUTO 13009KT 9999 -RA BKN014 OVC024 05/05 Q1012
EYKA,2022-11-05T11:50:00Z,EYKA 051150Z 18012KT 120V260 9999 OVC017 08/04 Q1015
EYPA,2022-11-05T11:50:00Z,EYPA 051150Z 16012KT 9999 OVC009 07/06 Q1012
EYSA,2022-11-05T11:50:00Z,EYSA 051150Z 14015KT 9999 OVC014 06/04 Q1014 NOSIG
EYVI,2022-11-05T11:50:00Z,EYVI 051150Z 15013KT 9999 BKN019 07/02 Q1017 NOSIG
FABL,2022-11-05T11:00:00Z,FABL 051100Z 29009KT 260V320 9999 SCT030TCU 27/11 Q1016 NOSIG
FACT,2022-11-05T11:00:00Z,FACT 051100Z 18014KT 140V200 9999 FEW020 24/16 Q1015 NOSIG
FACV,2022-11-05T10:54:00Z,FACV 051054Z 25004KT 9999 SCT040 27/10 Q1015
FAEL,2022-11-05T11:00:00Z,FAEL 051100Z 21014KT CAVOK 23/17 Q1014
FAGG,2022-11-05T11:39:00Z,FAGG 051139Z 21010KT 0900 R29/1900D FG SCT001 OVC004 18/17 Q1016
FAGM,2022-11-05T11:00:00Z,FAGM 051100Z 33017KT CAVOK 24/12 Q1021
FAHS,2022-11-05T11:00:00Z,FAHS 051100Z AUTO 01007KT //// // ////// 34/20 Q1013
FAJB,2022-11-05T11:00:00Z,FAJB 051100Z AUTO 31003KT //// // ////// 25/13 Q1019
FAKM,2022-11-05T11:00:00Z,FAKM 051100Z 33008KT 9999 FEW040 29/00 Q1014
FAKN,2022-11-05T11:00:00Z,FAKN 051100Z 05010KT 9999 SCT025 27/20 Q1015 NOSIG
FALA,2022-11-05T11:00:00Z,FALA 051100Z 30012KT 280V350 9999 SCT035 26/14 Q1019 NOSIG
FALE,2022-11-05T11:00:00Z,FALE 051100Z 19017KT 9999 FEW027 ///// Q//// NOSIG
FALW,2022-11-05T11:00:00Z,FALW 051100Z AUTO 24010KT //// // ////// 23/15 Q1014
FAMM,2022-11-05T11:00:00Z,FAMM 051100Z 32011KT 9999 SCT030 29/14 Q1016 NOSIG
FAOR,2022-11-05T11:30:00Z,FAOR 051130Z 30013KT 250V340 9999 FEW035 24/13 Q1020 NOSIG
FAPE,2022-11-05T11:00:00Z,FAPE 051100Z 18010KT 140V200 9999 FEW021 23/18 Q1014 NOSIG
FAPP,2022-11-05T11:00:00Z,FAPP 051100Z 33007KT 9999 FEW035 30/13 Q1019 NOSIG
FAUP,2022-11-05T11:00:00Z,FAUP 051100Z 21005KT 9999 FEW050 29/04 Q1014 NOSIG
FAUT,2022-11-05T11:00:00Z,FAUT 051100Z 17006KT 9999 SCT030 24/14 Q1026
FAVV,2022-11-05T11:00:00Z,FAVV 051100Z AUTO 30009KT //// // ////// 26/15 Q1020
FAWB,2022-11-05T11:00:00Z,FAWB 051100Z AUTO 33012KT //// // ////// 28/15 Q1016
FBKE,2022-11-05T11:00:00Z,FBKE 051100Z 09011KT 040V130 9999 FEW030 SCT070 32/17 Q1015
FBMN,2022-11-05T11:00:00Z,FBMN 051100Z 04007KT 9999 FEW030 32/17 Q1014
FBPM,2022-11-05T11:00:00Z,FBPM 051100Z 32007KT 260V020 9999 FEW030 SCT070 32/14 Q1015
FBSK,2022-11-05T11:00:00Z,FBSK 051100Z 32007KT 280V020 9999 FEW020 30/15 Q1015 NOSIG
FDMS,2022-11-05T11:00:00Z,FDMS 051100Z 08005KT 9999 SCT035 27/20 Q1012
FDSK,2022-11-05T11:00:00Z,FDSK 051100Z 09012KT 9999 BKN030 29/20 Q1012
FGSL,2022-11-05T11:00:00Z,FGSL 051100Z 32003KT 290V010 9999 SCT011 FEW020CB 29/24 Q1012 N OSIG
FHAW,2022-11-05T11:50:00Z,FHAW 051150Z 14013KT 9999 FEW015 SCT027 26/21 Q1016 RMK BLU
FIMP,2022-11-05T11:00:00Z,FIMP 051100Z 04012KT 8000 VCSH FEW///CB FEW009 SCT015 BKN050 27/21 Q1018
FJDG,2022-11-05T11:55:00Z,FJDG 051155Z 14008KT 9999 FEW020 FEW095 SCT230 29/25 A2987 RMK SLP112 70048 8/162 T02930253 10325 20293 55003
FKYS,2022-11-05T11:00:00Z,FKYS 051100Z 04005KT 360V120 9999 BKN016 FEW023CB 28/21 Q1016 TEMPO TS
FMCH,2022-11-05T11:00:00Z,FMCH 051100Z 12015KT 9999 FEW025 32/19 Q1014 NOSIG
FMCZ,2022-11-05T11:30:00Z,FMCZ 051130Z AUTO 06011KT 9999 SCT023 30/22 Q1014 NOSIG
FMEE,2022-11-05T11:30:00Z,FMEE 051130Z AUTO 06004KT 9999 FEW088/// 28/21 Q1017 BECMG 34010KT
FMEP,2022-11-05T11:30:00Z,FMEP 051130Z AUTO 16009KT 9999 BKN068 OVC084 26/21 Q1018 BECMG 31012KT
FMMI,2022-11-05T11:30:00Z,FMMI 051130Z VRB05KT 9999 BKN020CB 28/13 Q1019 NOSIG
FMMT,2022-11-05T11:00:00Z,FMMT 051100Z 08012KT 040V110 9999 FEW017TCU 28/22 Q1016 NOSIG
FMNM,2022-11-05T11:00:00Z,FMNM 051100Z VRB01KT 9999 -RA FEW010 FEW020CB SCT040 23/23 Q1014 NOSIG
FMNN,2022-11-05T11:00:00Z,FMNN 051100Z 34006KT 9999 FEW020 33/// Q1013
FMSD,2022-11-05T11:00:00Z,FMSD 051100Z 08024KT 9999 FEW023 29/23 Q1014
FNCA,2022-11-05T11:00:00Z,FNCA 051100Z 27006KT 9999 BKN015 FEW023CB 29/25 Q1012
FNCT,2022-11-05T11:00:00Z,FNCT 051100Z 00000KT 9999 OVC015 26/// Q1012
FNGI,2022-11-05T11:00:00Z,FNGI 051100Z 21010KT 9999 SCT020 30/02 Q1015
FNHU,2022-11-05T11:00:00Z,FNHU 051100Z 19012KT 9999 SCT017 BKN070 22/14 Q1021 HR58?
FNKU,2022-11-05T11:00:00Z,FNKU 051100Z 00000KT 9999 BKN030 24/14 Q1018
FNSA,2022-11-05T11:00:00Z,FNSA 051100Z 30005KT 8000 OVC015 22/19 Q1016
FNSO,2022-11-05T11:00:00Z,FNSO 051100Z 26008KT 9999 SCT013 FEW015CB BKN070 29/25 Q////
FNUE,2022-11-05T11:00:00Z,FNUE 051100Z 00000KT 9999 BKN030 24/20 Q1019
FNUG,2022-11-05T11:00:00Z,FNUG 051100Z 24004KT 9999 BKN020 25/20 Q1015
FOGM,2022-11-05T11:00:00Z,FOGM 051100Z /////KT 9999 SCT011 BKN026 29/24 Q////
FOGO,2022-11-05T11:00:00Z,FOGO 051100Z /////KT 9999 SCT011 BKN030 24/22 Q////
FOGR,2022-11-05T11:00:00Z,FOGR 051100Z /////KT 9999 SCT012 31/24 Q////
FOOB,2022-11-05T11:00:00Z,FOOB 051100Z /////KT 9999 SCT011 FEW013CB BKN025 24/20 Q////
FOOG,2022-11-05T11:30:00Z,FOOG 051130Z 19010KT 9999 SCT012 FEW020CB BKN033 28/25 Q1012
FOOL,2022-11-05T11:00:00Z,FOOL 051100Z 24006KT 7000 RA SCT016 27/25 Q1012 TEMPO 4000 RA
FOON,2022-11-05T11:00:00Z,FOON 051100Z VRB02KT 9999 SCT011 30/21 Q1013
FQBR,2022-11-05T11:00:00Z,FQBR 051100Z 14013KT 9999 FEW020TCU 32/25 Q1011
FQCH,2022-11-05T11:00:00Z,FQCH 051100Z /////KT 9999 BKN015 FEW020CB 28/22 Q1017 RMK CB TO NW/NE/SW
FQIN,2022-11-05T11:00:00Z,FQIN 051100Z 08012KT 9999 SCT020 30/22 Q1013
FQLC,2022-11-05T11:00:00Z,FQLC 051100Z 08012KT 9999 BKN020 29/13 Q1019
FQMA,2022-11-05T11:00:00Z,FQMA 051100Z 09011KT 9999 SCT025 32/23 Q1010 NOSIG
FQNC,2022-11-05T11:00:00Z,FQNC 051100Z /////KT 9999 SCT020 28/// Q1014
FQNP,2022-11-05T11:00:00Z,FQNP 051100Z 05010KT 010V100 9999 FEW020 34/15 Q1013
FQPB,2022-11-05T11:00:00Z,FQPB 051100Z 06012KT 020V090 9999 FEW020 30/22 Q1014
FQQL,2022-11-05T11:00:00Z,FQQL 051100Z 11012KT 9999 FEW020 SCT/// 35/22 Q1009
FQTT,2022-11-05T11:00:00Z,FQTT 051100Z 12006KT 9999 BKN020 36/20 Q1010
FQVL,2022-11-05T11:00:00Z,FQVL 051100Z 05012KT 9999 SCT020 SCT/// 30/24 Q1012
FQXA,2022-11-05T11:00:00Z,FQXA 051100Z 01008KT 330V060 9999 SCT020 33/20 Q1012
FSIA,2022-11-05T11:00:00Z,FSIA 051100Z VRB02KT 9999 FEW022 28/23 Q1010 NOSIG
FTTA,2022-11-05T11:00:00Z,FTTA 051100Z 01006KT CAVOK 35/08 Q1012
FTTC,2022-11-05T11:00:00Z,FTTC 051100Z 00000KT CAVOK 37/// Q1013
FTTJ,2022-11-05T11:00:00Z,FTTJ 051100Z VRB06KT 8000 NSC 33/02 Q1013 NOSIG
FTTY,2022-11-05T11:00:00Z,FTTY 051100Z 04012KT CAVOK 31/08 Q1017
FWCL,2022-11-05T11:00:00Z,FWCL 051100Z 19007KT 9999 TSRA FEW020CB BKN025 26/19 Q1014 NOSIG
FWKI,2022-11-05T11:00:00Z,FWKI 051100Z 09012KT 9999 FEW036 SCT110 30/10 Q1017 NOSIG
FYGF,2022-11-05T11:00:00Z,FYGF 051100Z 09004KT 9999 FEW030CB SCT035 30/M04 Q1019
FYKM,2022-11-05T11:00:00Z,FYKM 051100Z AUTO 07007KT //// // ////// 32/16 Q1014
FYLZ,2022-11-05T11:00:00Z,FYLZ 051100Z AUTO 19012KT //// // ////// 27/14 Q1012
FYRU,2022-11-05T11:00:00Z,FYRU 051100Z AUTO 03009KT //// // ////// 30/15 Q1018
FYWE,2022-11-05T11:00:00Z,FYWE 051100Z 34012G24KT CAVOK 28/M02 Q1020
FYWH,2022-11-05T11:00:00Z,FYWH 051100Z 02010KT CAVOK 30/02 Q1019 NOSIG
FYWW,2022-11-05T11:00:00Z,FYWW 051100Z 32009KT CAVOK 28/02 Q1020
GABS,2022-11-05T11:00:00Z,GABS 051100Z 06013KT 8000 NSC 32/06 Q1014 NOSIG
GBYD,2022-11-05T11:00:00Z,GBYD 051100Z 10009KT CAVOK 32/17 Q1011
GCFV,2022-11-05T11:30:00Z,GCFV 051130Z 05012KT 020V080 9999 SCT022 24/18 Q1021
GCGM,2022-11-05T11:30:00Z,GCGM 051130Z 22006KT 170V270 9999 FEW025 23/17 Q1022 RMK R09/24004KT 190V290 ARP/VRB05KT
GCHI,2022-11-05T11:30:00Z,GCHI 051130Z 02009KT 340V050 9999 FEW022 25/18 Q1022
GCLA,2022-11-05T11:30:00Z,GCLA 051130Z 03011KT 360V060 9999 SCT022 BKN030 23/21 Q1022
GCLP,2022-11-05T11:30:00Z,GCLP 051130Z 02017KT 360V060 9999 FEW025 25/18 Q1021 NOSIG
GCRR,2022-11-05T11:30:00Z,GCRR 051130Z 07014KT 9999 FEW030 24/18 Q1021
GCTS,2022-11-05T11:30:00Z,GCTS 051130Z 08014KT 050V110 9999 FEW030 25/18 Q1021 NOSIG
GCXO,2022-11-05T11:30:00Z,GCXO 051130Z 34006KT 290V070 9999 BKN015 21/17 Q1024 NOSIG
GECE,2022-11-05T11:30:00Z,GECE 051130Z AUTO 32007KT CAVOK 20/17 Q1020
GEML,2022-11-05T11:30:00Z,GEML 051130Z 30011KT 250V340 9999 FEW016 23/16 Q1021
GGOV,2022-11-05T11:00:00Z,GGOV 051100Z 05004KT 6000 NSC 30/18 Q1012 NOSIG
GMAD,2022-11-05T11:30:00Z,GMAD 051130Z 26005KT 230V300 8000 NSC 22/18 Q1019 NOSIG
GMAG,2022-11-05T11:00:00Z,GMAG 051100Z 00000KT 6000 NSC 22/15 Q1020 NOSIG
GMAT,2022-11-05T11:00:00Z,GMAT 051100Z 06004KT 8000 NSC 22/17 Q1020 NOSIG
GMAZ,2022-11-05T11:00:00Z,GMAZ 051100Z AUTO VRB01KT CAVOK 25/M03 Q1023
GMFB,2022-11-05T11:00:00Z,GMFB 051100Z 12004KT CAVOK 22/08 Q1025 NOSIG
GMFF,2022-11-05T11:30:00Z,GMFF 051130Z 01006KT 340V050 CAVOK 22/09 Q1022 NOSIG
GMFK,2022-11-05T11:00:00Z,GMFK 051100Z 15005KT 070V240 CAVOK 23/04 Q1025 NOSIG
GMFM,2022-11-05T11:00:00Z,GMFM 051100Z 02006KT CAVOK 22/13 Q1022 NOSIG
GMFO,2022-11-05T11:30:00Z,GMFO 051130Z VRB03KT 9999 SCT033 23/12 Q1022 NOSIG
GMMB,2022-11-05T11:00:00Z,GMMB 051100Z 06011KT 030V090 9999 SCT016 22/20 Q1022 NOSIG
GMMC,2022-11-05T11:00:00Z,GMMC 051100Z 10008KT 8000 NSC 23/16 Q1021
GMMD,2022-11-05T11:00:00Z,GMMD 051100Z VRB03KT CAVOK 24/08 Q1020 NOSIG
GMME,2022-11-05T11:30:00Z,GMME 051130Z 06007KT 020V110 6000 SCT013 SCT016 24/16 Q1020 NOSIG
GMMH,2022-11-05T11:00:00Z,GMMH 051100Z 03016KT 010V080 CAVOK 21/17 Q1018 NOSIG
GMMI,2022-11-05T11:00:00Z,GMMI 051100Z 02004KT 300V080 8000 NSC 25/14 Q1020 NOSIG
GMML,2022-11-05T11:00:00Z,GMML 051100Z 05014KT 8000 FEW020 24/22 Q1020 NOSIG
GMMN,2022-11-05T11:30:00Z,GMMN 051130Z 05011KT 020V080 9999 FEW010 23/16 Q1021 NOSIG
GMMW,2022-11-05T11:00:00Z,GMMW 051100Z 29004KT 250V330 CAVOK 24/12 Q1021 NOSIG
GMMX,2022-11-05T11:30:00Z,GMMX 051130Z 35004KT 280V050 CAVOK 25/11 Q1020 NOSIG
GMMZ,2022-11-05T11:00:00Z,GMMZ 051100Z VRB02KT CAVOK 22/M02 Q1024 NOSIG
GMTA,2022-11-05T11:04:00Z,GMTA 051104Z 35007KT 330V030 CAVOK 23/15 Q1021 NOSIG
GMTN,2022-11-05T11:00:00Z,GMTN 051100Z VRB04KT CAVOK 26/17 Q1021 NOSIG
GMTT,2022-11-05T11:30:00Z,GMTT 051130Z 27007KT 240V300 7000 FEW003 23/19 Q1021 NOSIG
GOBD,2022-11-05T11:30:00Z,GOBD 051130Z 10009KT CAVOK 32/05 Q1012 NOSIG
GOGG,2022-11-05T11:00:00Z,GOGG 051100Z 04004KT CAVOK 30/19 Q1012
GOGK,2022-11-05T11:00:00Z,GOGK 051100Z 08006KT CAVOK 29/19 Q1010
GOGS,2022-11-05T11:00:00Z,GOGS 051100Z 06006KT CAVOK 31/22 Q1012
GOOD,2022-11-05T11:00:00Z,GOOD 051100Z 04002KT CAVOK 33/11 Q1012
GOOG,2022-11-05T11:00:00Z,GOOG 051100Z 10012KT CAVOK 35/00 Q1010
GOOK,2022-11-05T11:00:00Z,GOOK 051100Z 08006KT CAVOK 33/15 Q1012
GOOY,2022-11-05T11:00:00Z,GOOY 051100Z 04008KT CAVOK 30/13 Q1012
GOSM,2022-11-05T11:00:00Z,GOSM 051100Z 12002KT CAVOK 34/08 Q1012
GOSS,2022-11-05T11:00:00Z,GOSS 051100Z 10006KT 010V170 CAVOK 33/05 Q1013
GOTK,2022-11-05T11:00:00Z,GOTK 051100Z 08004KT CAVOK 32/12 Q1012
GOTT,2022-11-05T11:00:00Z,GOTT 051100Z 09014KT 8000 NSC 35/13 Q1012
GQNO,2022-11-05T11:30:00Z,GQNO 051130Z 10016KT CAVOK 33/M02 Q1013 NOSIG
GQPP,2022-11-05T11:00:00Z,GQPP 051100Z 04010KT CAVOK 27/06 Q1016 NOSIG
GVAC,2022-11-05T11:00:00Z,GVAC 051100Z 06015KT 9999 FEW013 BKN200 27/22 Q1015 NOSIG
GVBA,2022-11-05T11:00:00Z,GVBA 051100Z 04014KT 9999 FEW014 BKN200 28/22 Q1015 NOSIG
GVNP,2022-11-05T11:00:00Z,GVNP 051100Z 03014KT CAVOK 31/15 Q1014 NOSIG
GVSV,2022-11-05T11:00:00Z,GVSV 051100Z 06022KT 9999 FEW018 BKN200 27/20 Q1014 NOSIG
HAAB,2022-11-05T11:00:00Z,HAAB 051100Z 12008KT 9999 FEW025 23/06 Q1025 NOSIG
HCMF,2022-11-05T11:00:00Z,HCMF 051100Z 36016KT 9999 FEW031 28/23 Q1010
HCMM,2022-11-05T11:00:00Z,HCMM 051100Z 15011KT 9999 BKN024 29/26 Q1010
HDAM,2022-11-05T11:00:00Z,HDAM 051100Z 10012KT 9999 FEW023 33/21 Q1012
HEAT,2022-11-05T11:00:00Z,HEAT 051100Z 35012KT CAVOK 26/09 Q1017 NOSIG
HEAX,2022-11-05T11:00:00Z,HEAX 051100Z 21004KT 9999 SCT020 25/15 Q1018 NOSIG
HEBA,2022-11-05T11:00:00Z,HEBA 051100Z 21003KT 9999 SCT020 24/12 Q1017 NOSIG
HEBL,2022-11-05T11:00:00Z,HEBL 051100Z 36005KT CAVOK 28/12 Q1016 NOSIG
HECA,2022-11-05T11:30:00Z,HECA 051130Z 34007KT 9999 SCT025 25/10 Q1016 NOSIG
HEGN,2022-11-05T11:00:00Z,HEGN 051100Z 32012KT CAVOK 28/12 Q1015 NOSIG
HEIS,2022-11-05T11:00:00Z,HEIS 051100Z 32008KT CAVOK 28/12 Q1017
HELX,2022-11-05T11:00:00Z,HELX 051100Z 29006KT CAVOK 27/07 Q1014 NOSIG
HEMA,2022-11-05T11:00:00Z,HEMA 051100Z 36016KT CAVOK 27/16 Q1013 NOSIG
HEMM,2022-11-05T11:00:00Z,HEMM 051100Z 32008KT 9999 SCT020 23/14 Q1017 NOSIG
HEPS,2022-11-05T11:00:00Z,HEPS 051100Z 04004KT 9999 SCT025 24/13 Q1017 NOSIG
HESG,2022-11-05T11:00:00Z,HESG 051100Z 33007KT CAVOK 26/09 Q1014 NOSIG
HESH,2022-11-05T11:00:00Z,HESH 051100Z 04012KT CAVOK 28/15 Q1014 NOSIG
HESN,2022-11-05T11:00:00Z,HESN 051100Z 36006KT CAVOK 28/07 Q1016 NOSIG
HESW,2022-11-05T11:00:00Z,HESW 051100Z 23005KT CAVOK 25/08 Q1017
HETR,2022-11-05T11:00:00Z,HETR 051100Z 30014KT CAVOK 27/17 Q1013
HKEL,2022-11-05T11:00:00Z,HKEL 051100Z 13014KT 9999 FEW022CB BKN023 23/10 Q1022
HKGA,2022-11-05T11:00:00Z,HKGA 051100Z 14004KT 9999 SCT027 32/21 Q1011
HKJK,2022-11-05T11:30:00Z,HKJK 051130Z 07011KT 9999 BKN029 27/12 Q1019 NOSIG
HKKT,2022-11-05T11:00:00Z,HKKT 051100Z 00000KT 9999 -SHRA BKN023 25/13
HKNK,2022-11-05T11:00:00Z,HKNK 051100Z 36009KT 9999 FEW025CB BKN026 25/12 RESH
HKNW,2022-11-05T11:00:00Z,HKNW 051100Z 07018KT 9999 SCT027 26/12 Q1020
HKWJ,2022-11-05T11:00:00Z,HKWJ 051100Z 13009KT 9999 SCT033 31/20 Q1010
HRYR,2022-11-05T11:30:00Z,HRYR 051130Z 03006KT 350V080 9999 FEW023CB BKN025 27/15 Q1017 NOSIG
HRZA,2022-11-05T11:00:00Z,HRZA 051100Z 09003KT 9999 FEW023CB BKN025 22/15 Q1019 NOSIG
HSSK,2022-11-05T11:00:00Z,HSSK 051100Z 36010KT CAVOK 36/06 Q1010 NOSIG
HTAR,2022-11-05T11:00:00Z,HTAR 051100Z 11015KT 9999 FEW040 27/14 Q1019 NOSIG
HTBU,2022-11-05T11:00:00Z,HTBU 051100Z 00000KT 9999 FEW019 FEW021CB BKN090 24/19 Q1015
HTDA,2022-11-05T11:00:00Z,HTDA 051100Z 04012KT 9999 SCT039 32/20 Q1013 NOSIG
HTDO,2022-11-05T11:00:00Z,HTDO 051100Z 06012KT 9999 FEW034 31/11 Q1015 NOSIG
HTIB,2022-11-05T11:00:00Z,HTIB 051100Z 14008KT 9999 FEW028 FEW029CB 32/10 Q1013
HTIR,2022-11-05T11:00:00Z,HTIR 051100Z 06021KT 9999 SCT031 28/11 Q1017
HTJN,2022-11-05T11:00:00Z,HTJN 051100Z AUTO 07111KT 007V107 //// 30/12 Q1018
HTKA,2022-11-05T11:00:00Z,HTKA 051100Z 21015KT 9999 SCT024 FEW025CB BKN100 27/20 Q1013 NOSIG
HTKJ,2022-11-05T11:00:00Z,HTKJ 051100Z 15012KT 9999 FEW038 30/15 Q1015 NOSIG
HTMG,2022-11-05T11:00:00Z,HTMG 051100Z 06005KT 9999 SCT029 32/15 Q1013
HTMP,2022-11-05T11:00:00Z,HTMP 051100Z 16005KT 9999 SCT026 31/13 Q1016
HTMT,2022-11-05T11:00:00Z,HTMT 051100Z 36014KT 9999 SCT026 30/20 Q1014 NOSIG
HTMU,2022-11-05T11:00:00Z,HTMU 051100Z 33012KT 9999 FEW024 FEW026CB 29/17 Q1015
HTMW,2022-11-05T11:00:00Z,HTMW 051100Z 33015KT 9999 BKN026 FEW027CB 26/19 Q1014 NOSIG
HTSO,2022-11-05T11:00:00Z,HTSO 051100Z 04011KT 9999 SCT026 30/13 Q1018
HTSU,2022-11-05T11:00:00Z,HTSU 051100Z 09004KT 9999 FEW024 26/09 Q1021
HTTB,2022-11-05T11:00:00Z,HTTB 051100Z 09012KT 9999 SCT026 32/11 Q1015 NOSIG
HTZA,2022-11-05T11:00:00Z,HTZA 051100Z 25008KT 9999 SCT022 31/23 Q1012 NOSIG
HUEN,2022-11-05T11:30:00Z,HUEN 051130Z 14015KT 9999 FEW026 FEW028CB 27/20 Q1014 NOSIG
K04V,2022-11-05T11:35:00Z,K04V 051135Z AUTO 07004KT 10SM SCT040 SCT048 M04/M10 A3001 RMK AO2
K04W,2022-11-05T11:35:00Z,K04W 051135Z AUTO 02005KT 10SM CLR M01/M02 A2963 RMK AO2
K05U,2022-11-05T11:35:00Z,K05U 051135Z AUTO 22003KT 10SM 03/M02 A3006 RMK A01
K06D,2022-11-05T11:55:00Z,K06D 051155Z AUTO 15007KT 10SM CLR M06/M08 A2944 RMK AO2
K08D,2022-11-05T11:55:00Z,K08D 051155Z AUTO 18012KT 10SM OVC060 02/M03 A2929 RMK AO2
K0A0,2022-11-05T11:35:00Z,K0A0 051135Z AUTO 34010KT 10SM CLR 01/M06 A3006 RMK AO2
K0A9,2022-11-05T11:35:00Z,K0A9 051135Z AUTO 00000KT 10SM BKN050 OVC060 18/14 A3007 RMK A01
K0CO,2022-11-05T11:55:00Z,K0CO 051155Z AUTO 31029G52KT 1/2SM SN OVC001 M08/M09 A2983 RMK AO2
K0E0,2022-11-05T11:55:00Z,K0E0 051155Z AUTO 00000KT 10SM CLR M04/M11 A3002 RMK AO2 T10391109 10021 21040 TSNO
K0F2,2022-11-05T11:35:00Z,K0F2 051135Z AUTO 27005KT 10SM CLR 03/02 A2991 RMK AO2 T00340017
K0J4,2022-11-05T10:58:00Z,K0J4 051058Z AUTO 00000KT 10SM CLR 16/13 A3003 RMK AO2 SLP165 T01560128 $
K0R0,2022-11-05T11:35:00Z,K0R0 051135Z AUTO 16008G14KT 6SM -RA BR BKN013 22/21 A2990 RMK AO2 LTG DSNT SW AND W
K0R4,2022-11-05T11:35:00Z,K0R4 051135Z AUTO 02008KT 10SM RA CLR 12/11 A2992 RMK AO2 LTG DSNT NE THRU SW P0006 T01150111
K0V4,2022-11-05T11:55:00Z,K0V4 051155Z AUTO 15008KT 7SM BKN006 BKN018 OVC028 18/18 A3019 RMK AO1
K0VG,2022-11-05T11:55:00Z,K0VG 051155Z AUTO 14005G11KT 10SM OVC060 20/14 A3006 RMK AO2
K10G,2022-11-05T11:55:00Z,K10G 051155Z AUTO 18008KT 10SM CLR 16/10 A2998 RMK AO2
K11R,2022-11-05T11:55:00Z,K11R 051155Z AUTO 36008KT 10SM SCT075 BKN085 14/12 A2993 RMK AO2 7//// T01370116 10155 20137
K12N,2022-11-05T11:54:00Z,K12N 051154Z AUTO 00000KT 16/14 A3024 RMK AO1 SLP239 T01610144 10172 20133 50000
K13K,2022-11-05T11:35:00Z,K13K 051135Z AUTO 29016KT 10SM SCT055 BKN075 OVC090 03/02 A2973 RMK AO2 T00270017
K14Y,2022-11-05T11:55:00Z,K14Y 051155Z AUTO 36003KT 10SM CLR M06/M06 A2963 RMK AO2
K15M,2022-11-05T11:55:00Z,K15M 051155Z AUTO VRB03KT 8SM -RA BKN037 OVC070 18/15 A2997 RMK AO2 P0000 T01760153 $
K17J,2022-11-05T11:35:00Z,K17J 051135Z AUTO 00000KT 10SM CLR 15/14 A3004 RMK AO2 T01540140
K18A,2022-11-05T11:35:00Z,K18A 051135Z AUTO 13006KT 7SM BR OVC003 18/18 A3012 RMK AO2 P0001 T01810177
K18H,2022-11-05T11:35:00Z,K18H 051135Z AUTO 15024KT 6SM HZ FEW016 27/24 A2983 RMK A01
K19S,2022-11-05T11:35:00Z,K19S 051135Z AUTO 25007KT 10SM CLR M03/M05 A2976 RMK AO2 T10291048
K1A5,2022-11-05T11:55:00Z,K1A5 051155Z AUTO 04003KT 10SM SCT030 SCT047 BKN055 16/16 A3015 RMK AO2 P0001 60001 70001 T01610155 10190 20137
K1A6,2022-11-05T11:35:00Z,K1A6 051135Z AUTO 00000KT 10SM SCT060 OVC070 11/10 A3006 RMK AO2 T01100101
K1A9,2022-11-05T11:55:00Z,K1A9 051155Z AUTO 00000KT 10SM CLR 13/13 A3001 RMK AO2 T01270126 10175 20120
K1AM,2022-11-05T10:55:00Z,K1AM 051055Z AUTO 30003KT 10SM FEW170 BKN230 10/M02 A2909 RMK AO2 PK WND 23029/20 PRESFR SLP855 T01041016 $
K1AW,2022-11-05T10:55:00Z,K1AW 051055Z AUTO 27017KT 10SM SCT200 SCT230 01/M04 A2958 RMK AO2 SLP035 T00141043 FZRANO $
K1BM,2022-11-05T10:55:00Z,K1BM 051055Z AUTO 25028G45KT 10SM FEW210 BKN230 11/M01 A2905 RMK AO2 PK WND 25045/48 PRESFR SLP841 T01061015 $
K1BW,2022-11-05T10:55:00Z,K1BW 051055Z AUTO 26020G29KT 10SM CLR 03/M05 A2959 RMK AO2 PK WND 26032/29 SLP035 T00331049 FZRANO $
K1CM,2022-11-05T10:55:00Z,K1CM 051055Z AUTO 24026G35KT 10SM BKN230 OVC250 10/M02 A2910 RMK AO2 PK WND 25042/14 SLP855 T01001020 $
K1CW,2022-11-05T10:55:00Z,K1CW 051055Z AUTO 28012KT 10SM CLR 01/M04 A2957 RMK AO2 SLP023 T00051043 FZRANO $
K1D1,2022-11-05T11:35:00Z,K1D1 051135Z AUTO 00000KT 10SM CLR M08/M09 A2963 RMK AO2
K1DM,2022-11-05T10:55:00Z,K1DM 051055Z AUTO 20014KT 10SM OVC130 10/M01 A2911 RMK AO2 PRESFR SLP866 T00981013 $
K1DW,2022-11-05T10:55:00Z,K1DW 051055Z AUTO 27012KT 10SM FEW220 01/M05 A2958 RMK AO2 SLP034 T00141047 FZRANO $
K1EM,2022-11-05T10:55:00Z,K1EM 051055Z AUTO 23020G27KT 10SM OVC130 10/M01 A2909 RMK AO2 PK WND 23028/10 SLP857 T01021015 $
K1EW,2022-11-05T10:55:00Z,K1EW 051055Z AUTO 08010KT 10SM FEW230 02/M05 A2957 RMK AO2 SLP023 T00161053 FZRANO $
K1F0,2022-11-05T11:35:00Z,K1F0 051135Z AUTO 00000KT 10SM CLR 03/02 A2989 RMK AO2 T00340024
K1FM,2022-11-05T10:55:00Z,K1FM 051055Z AUTO 23025G32KT 10SM SCT055 BKN075 BKN100 07/01 A2907 RMK AO2 PK WND 24040/13 SLP848 T00680007 $
K1GM,2022-11-05T10:55:00Z,K1GM 051055Z AUTO 22037G50KT 10SM CLR 06/01 A2901 RMK AO2 PK WND 23050/52 SLP835 T00610008 $
K1H2,2022-11-05T11:35:00Z,K1H2 051135Z AUTO 14022G29KT 10SM -RA OVC013 16/14 A2966 RMK AO2 T01570142
K1HM,2022-11-05T10:55:00Z,K1HM 051055Z AUTO 27035G44KT 10SM CLR 08/M00 A2901 RMK AO2 PK WND 27048/23 SLP834 T00841001 $
K1HW,2022-11-05T10:55:00Z,K1HW 051055Z AUTO 26011KT 10SM CLR M04/M06 A2956 RMK AO2 SLP030 T10381063 FZRANO $
K1IM,2022-11-05T10:55:00Z,K1IM 051055Z AUTO 24034G46KT 10SM CLR 11/M01 A2902 RMK AO2 PK WND 23046/49 PRESFR SLP833 T01121009 $
K1IW,2022-11-05T10:55:00Z,K1IW 051055Z AUTO 25010KT 10SM CLR M03/M07 A2957 RMK AO2 SLP029 T10301072 FZRANO $
K1JM,2022-11-05T10:55:00Z,K1JM 051055Z AUTO 22018KT 10SM CLR 07/M00 A2902 RMK AO2 PK WND 22026/41 SLP837 T00671005 PWINO $
K1JW,2022-11-05T10:55:00Z,K1JW 051055Z AUTO 24010KT 10SM CLR M01/M08 A2957 RMK AO2 SLP022 T10111079 FZRANO $
K1K1,2022-11-05T11:55:00Z,K1K1 051155Z AUTO 23005KT 10SM SCT120 02/01 A2974 RMK AO2 T00200010 10029 20010
K1KM,2022-11-05T10:55:00Z,K1KM 051055Z AUTO 23020G32KT 10SM SCT060 OVC230 10/M02 A2919 RMK AO2 PK WND 22035/04 SLP887 T01021021 $
K1LM,2022-11-05T10:55:00Z,K1LM 051055Z AUTO 21016G25KT 10SM OVC170 08/M01 A2920 RMK AO2 PK WND 23026/37 PRESFR SLP891 T00801013 $
K1M4,2022-11-05T10:56:00Z,K1M4 051056Z AUTO 16014G22KT 10SM CLR 17/13 A2993 RMK AO2 SLP122 T01720128
K1M5,2022-11-05T11:35:00Z,K1M5 051135Z AUTO 17012G24KT 10SM SCT120 19/13 A2988 RMK A01
K1MM,2022-11-05T10:55:00Z,K1MM 051055Z AUTO 21020KT 10SM OVC160 09/M02 A2915 RMK AO2 SLP878 T00901020 $
K1MW,2022-11-05T10:55:00Z,K1MW 051055Z AUTO 26008KT 10SM M M05/M09 A2960 RMK AO2 SLP038 T10491092 FZRANO $
K1NM,2022-11-05T10:55:00Z,K1NM 051055Z AUTO 26025G33KT 10SM BKN150 BKN180 OVC200 11/M02 A2907 RMK AO2 PRESFR SLP847 T01101021 $
K1OM,2022-11-05T10:55:00Z,K1OM 051055Z AUTO 25025G33KT 10SM FEW130 BKN180 12/M01 A2907 RMK AO2 PRESFR SLP850 T01161012 $
K1OW,2022-11-05T10:55:00Z,K1OW 051055Z AUTO 23009KT 10SM CLR M00/M08 A2971 RMK AO2 SLP076 T10021077 FZRANO $
K1P1,2022-11-05T11:55:00Z,K1P1 051155Z AUTO 00000KT 5SM BR SCT047 02/02 A3021 RMK AO2 T00160016 10032 20013
K1R7,2022-11-05T11:55:00Z,K1R7 051155Z AUTO 30009G15KT 1 3/4SM BR 13/13 A2996 RMK AO2 LTG DSNT ALQDS P0001 PWINO
K1R8,2022-11-05T11:35:00Z,K1R8 051135Z AUTO 13005KT 9SM SCT027 OVC095 18/18 A2997 RMK AO2
K1S3,2022-11-05T11:45:00Z,K1S3 051145Z AUTO 22011G18KT 10SM 11/M08 A2922 
K1S5,2022-11-05T11:55:00Z,K1S5 051155Z AUTO 26022G30KT 10SM CLR 10/M03 A2964 RMK AO2 T00951031 10155 20095
K1U7,2022-11-05T11:35:00Z,K1U7 051135Z AUTO 00000KT 3SM BR SCT004 SCT013 OVC026 M01/M01 A2982 RMK A01
K1V4,2022-11-05T11:54:00Z,K1V4 051154Z AUTO 07/05 A3015 RMK AO1 SLP211 6//// 7//// T00670050 10089 20061 55003 PNO
K1V6,2022-11-05T11:55:00Z,K1V6 051155Z AUTO 29020G28KT 10SM CLR 07/M07 A2970 RMK AO2
K20U,2022-11-05T11:55:00Z,K20U 051155Z AUTO 18014G20KT 10SM OVC070 04/M06 A2927 RMK AO2
K20V,2022-11-05T11:35:00Z,K20V 051135Z AUTO 26009G15KT 10SM OVC043 M01/M06 A2992 RMK AO2
K21D,2022-11-05T11:55:00Z,K21D 051155Z AUTO 01006KT 10SM BKN120 00/00 A2957 RMK AO2
K22N,2022-11-05T11:55:00Z,K22N 051155Z AUTO 00000KT 10SM OVC014 13/11 A3023 RMK AO2
K24A,2022-11-05T11:55:00Z,K24A 051155Z AUTO 00000KT 10SM SCT029 BKN037 BKN050 16/14 A3015 RMK AO2 T01620139 10167 20149 60001 70001
K24J,2022-11-05T11:55:00Z,K24J 051155Z AUTO 00000KT 3SM BR OVC003 18/18 A3003 RMK A01
K27K,2022-11-05T11:55:00Z,K27K 051155Z AUTO 16011G17KT 10SM CLR 16/10 A2991 RMK AO1
K28J,2022-11-05T11:55:00Z,K28J 051155Z AUTO 00000KT 2SM BR FEW029 FEW035 16/16 A3002 RMK AO2 TSNO
K2A0,2022-11-05T11:35:00Z,K2A0 051135Z AUTO 00000KT 4SM BR FEW012 SCT021 BKN028 17/16 A3003 RMK A01
K2C8,2022-11-05T11:55:00Z,K2C8 051155Z AUTO 16010KT 10SM CLR M05/M08 A2957 RMK AO2
K2D5,2022-11-05T11:55:00Z,K2D5 051155Z AUTO 23003KT 10SM SCT003 BKN015 BKN048 M10/M10 A2960 RMK AO2
K2DP,2022-11-05T11:25:00Z,K2DP 051125Z AUTO 00000KT 5/8SM BR BKN018 M A3020 RMK AO2 VIS 5/8V1 1/8 BKN V SCT SLPNO ALSTG ESTMD RVRNO $
K2G2,2022-11-05T11:35:00Z,K2G2 051135Z AUTO 17007KT 10SM CLR 16/11 A3002 RMK A01
K2G4,2022-11-05T11:40:00Z,K2G4 051140Z AUTO 15009KT 10SM CLR 12/12 A3015 RMK AO1
K2G9,2022-11-05T11:35:00Z,K2G9 051135Z AUTO 17006KT 10SM SCT010 13/12 A3014 RMK AO2
K2I0,2022-11-05T11:35:00Z,K2I0 051135Z AUTO 18013G19KT 10SM -RA SCT065 SCT075 OVC100 19/14 A2986 RMK AO2 P0001 T01910136
K2IS,2022-11-05T11:35:00Z,K2IS 051135Z AUTO 33004KT 7SM BR CLR 20/19 A2997 RMK AO2 T01960192
K2J3,2022-11-05T11:35:00Z,K2J3 051135Z AUTO 00000KT 1 1/4SM BR OVC003 18/18 A3011 RMK AO2 T01840181
K2J5,2022-11-05T11:30:00Z,K2J5 051130Z AUTO 00000KT 2 1/2SM BR OVC003 19/18 A3010 RMK AO2 T01880185
K2J9,2022-11-05T11:55:00Z,K2J9 051155Z AUTO 09004KT 8SM BKN019 BKN024 BKN044 14/14 A3004 RMK AO2
K2M2,2022-11-05T11:35:00Z,K2M2 051135Z AUTO 15017G23KT 10SM SCT026 BKN031 BKN120 18/12 A2989 RMK A01
K2P2,2022-11-05T11:55:00Z,K2P2 051155Z AUTO 04011G15KT 7SM -RA OVC006 05/05 A2958 RMK AO2 60022 70104 T00500050 10055 20050
K2V5,2022-11-05T11:35:00Z,K2V5 051135Z AUTO 26008KT 10SM CLR M02/M08 A2963 RMK AO2
K2W6,2022-11-05T11:40:00Z,K2W6 051140Z AUTO 00000KT 7SM CLR 16/15 A3024 RMK AO1
K2WX,2022-11-05T10:56:00Z,K2WX 051056Z AUTO 18005KT 02/M07 A2937 RMK AO1 SLP959 T00221072
K33N,2022-11-05T11:35:00Z,K33N 051135Z AUTO 00000KT 10SM CLR 16/16 A3024 RMK A01
K33V,2022-11-05T11:35:00Z,K33V 051135Z AUTO 24030G37KT 7SM CLR M02/M05 A2979 RMK AO1
K35A,2022-11-05T11:55:00Z,K35A 051155Z AUTO 00000KT M1/4SM FG OVC002 18/ A3018 RMK A02 T0179//// 10182 20166
K36K,2022-11-05T11:30:00Z,K36K 051130Z AUTO 20004KT 10SM FEW031 SCT040 M03/M06 A2976 RMK AO2
K38S,2022-11-05T11:45:00Z,K38S 051145Z AUTO 19010G21KT 10SM 08/01 A2930 
K3AU,2022-11-05T11:55:00Z,K3AU 051155Z AUTO 23006KT 10SM SCT120 01/00 A2975 RMK AO2
K3D2,2022-11-05T11:55:00Z,K3D2 051155Z AUTO 02008KT 3SM -RA OVC004 05/05 A2956 RMK AO2 60018 70085 T00510050 10056 20050
K3F3,2022-11-05T11:35:00Z,K3F3 051135Z AUTO 16006KT 10SM OVC080 13/12 A2995 RMK AO2 T01280120
K3I2,2022-11-05T11:35:00Z,K3I2 051135Z AUTO 00000KT 10SM CLR 12/09 A3002 RMK AO2 T01150092
K3J7,2022-11-05T11:55:00Z,K3J7 051155Z AUTO 11004KT 3SM BR OVC003 17/17 A3010 RMK AO2
K3K3,2022-11-05T11:35:00Z,K3K3 051135Z AUTO 27005KT 10SM CLR M07/M09 A2973 RMK AO2
K3LF,2022-11-05T11:55:00Z,K3LF 051155Z AUTO 16024G33KT 10SM OVC010 17/15 A2950 RMK AO2 60062 70067 T01660150 10180 20165
K3N8,2022-11-05T11:55:00Z,K3N8 051155Z AUTO 14005KT 10SM CLR M05/M07 A2962 RMK AO2 T10461067 11038 21055
K3R7,2022-11-05T11:55:00Z,K3R7 051155Z AUTO 09008KT 10SM -RA SCT050 BKN085 OVC100 11/11 A2996 RMK AO2 P0030 60198 70199 T01120112 10250 20111
K3S8,2022-11-05T11:35:00Z,K3S8 051135Z AUTO 00000KT 7SM FEW014 SCT024 OVC029 12/11 A2998 RMK AO2
K3U3,2022-11-05T11:45:00Z,K3U3 051145Z AUTO 17017G28KT 9SM 04/01 A2930 
K40B,2022-11-05T11:16:00Z,K40B 051116Z AUTO 20012G19KT 13/07 A3004 RMK AO1 SLP179 T01330073 55008
K40U,2022-11-05T11:35:00Z,K40U 051135Z AUTO 25005KT 10SM SCT050 OVC085 M02/M04 A2984 RMK AO2 T10231040
K41U,2022-11-05T11:35:00Z,K41U 051135Z AUTO 00000KT 10SM SCT050 M01/M03 A3001 RMK AO1 T10111026
K42J,2022-11-05T11:55:00Z,K42J 051155Z AUTO 00000KT 3SM BR FEW031 FEW060 19/19 A3002 RMK A01
K46D,2022-11-05T11:55:00Z,K46D 051155Z AUTO 16014KT 10SM CLR M03/M07 A2952 RMK AO2
K46U,2022-11-05T11:35:00Z,K46U 051135Z AUTO VRB04G19KT 1 1/2SM BR OVC004 00/M00 A2979 RMK A01
K48A,2022-11-05T11:35:00Z,K48A 051135Z AUTO 04003KT 1/2SM FG OVC003 14/13 A3008 RMK AO2 T01370134
K49A,2022-11-05T11:35:00Z,K49A 051135Z AUTO 17007KT 140V200 10SM OVC010 19/17 A3012 RMK AO2 T01870165
K4A6,2022-11-05T11:55:00Z,K4A6 051155Z AUTO VRB05G12KT 10SM FEW022 FEW029 SCT039 19/15 A3001 RMK AO2
K4A9,2022-11-05T11:35:00Z,K4A9 051135Z AUTO 16006KT 10SM SCT021 17/14 A3003 RMK AO2 T01740140
K4BM,2022-11-05T11:35:00Z,K4BM 051135Z AUTO 19011G18KT 10SM CLR M07/M10 A2978 RMK AO2
K4F2,2022-11-05T11:35:00Z,K4F2 051135Z AUTO 10006KT 1 1/4SM BR VV007 09/09 A2993 RMK AO2 VIS 1/2V5 T00900088
K4I3,2022-11-05T11:55:00Z,K4I3 051155Z AUTO 15007KT 10SM CLR 14/11 A2997 RMK AO2
K4M9,2022-11-05T11:55:00Z,K4M9 051155Z AUTO 21017KT 10SM FEW048 16/14 A2970 RMK AO2 PWINO
K4MR,2022-11-05T10:55:00Z,K4MR 051055Z AUTO 26014KT 10SM CLR 04/M09 A2985 RMK AO2 SLP074 T00401087 $
K4O4,2022-11-05T11:35:00Z,K4O4 051135Z AUTO 27008G13KT 10SM OVC021 08/06 A2990 RMK AO2
K4R5,2022-11-05T11:55:00Z,K4R5 051155Z AUTO 07005G08KT 10SM OVC017 05/02 A2966 RMK AO2 T00470018
K4S1,2022-11-05T11:55:00Z,K4S1 051155Z AUTO 34005KT 1SM RA OVC003 12/12 A3001 RMK AO2 P0002
K4S2,2022-11-05T11:55:00Z,K4S2 051155Z AUTO 00000KT 10SM SCT042 07/02 A2982 RMK AO2
K4V0,2022-11-05T11:35:00Z,K4V0 051135Z AUTO 21004KT 10SM OVC049 02/M04 A2993 RMK AO2 T00221042
K4V1,2022-11-05T11:30:00Z,K4V1 051130Z AUTO 26026G35KT 10SM CLR 06/M08 A2976 RMK AO2 T00611080
K54A,2022-11-05T11:35:00Z,K54A 051135Z AUTO 04005KT 10SM CLR 20/20 A2995 RMK AO2
K54J,2022-11-05T11:55:00Z,K54J 051155Z AUTO 00000KT 10SM CLR 17/15 A3003 RMK AO2 T01690154 10185 20169
K57C,2022-11-05T11:35:00Z,K57C 051135Z AUTO 17014G23KT 10SM OVC014 16/16 A2949 RMK AO2 T01580157
K5A6,2022-11-05T11:55:00Z,K5A6 051155Z AUTO 00000KT 5SM TSRA SCT023 BKN038 OVC080 17/17 A2989 RMK AO2 LTG DSNT NE THRU S P0016 60065 70065 T01720168 10215 20172
K5C1,2022-11-05T11:35:00Z,K5C1 051135Z AUTO 00000KT 10SM SCT070 BKN085 14/M06 A2995 RMK AO1
K5H4,2022-11-05T11:55:00Z,K5H4 051155Z AUTO 18012G18KT 10SM CLR M02/M13 A2947 RMK AO2
K5M9,2022-11-05T11:35:00Z,K5M9 051135Z AUTO 18012G23KT 150V210 5SM RA SCT065 BKN080 OVC100 15/13 A2981 RMK AO2 T01500132
K5R8,2022-11-05T11:35:00Z,K5R8 051135Z AUTO 00000KT 10SM CLR 12/11 A2992 RMK AO2 P0017 T01210112
K5SM,2022-11-05T11:35:00Z,K5SM 051135Z AUTO 23010G19KT 200V270 5SM BR OVC001 M08/M10 A3000 RMK AO2
K5T9,2022-11-05T11:35:00Z,K5T9 051135Z AUTO 26005KT 10SM OVC075 11/06 A2995 RMK A01
K63S,2022-11-05T11:35:00Z,K63S 051135Z AUTO 27012KT 10SM BKN075 OVC090 08/M04 A2930 RMK A01
K65S,2022-11-05T11:35:00Z,K65S 051135Z AUTO 21012G19KT 160V240 10SM FEW027 SCT032 BKN038 07/00 A2913 RMK AO2
K66R,2022-11-05T11:35:00Z,K66R 051135Z AUTO 00000KT 10SM OVC060 14/14 A2992 RMK AO2 T01430140
K6A1,2022-11-05T11:35:00Z,K6A1 051135Z AUTO 13004KT 10SM CLR 16/16 A3009 RMK AO2 T01630162
K6A2,2022-11-05T11:55:00Z,K6A2 051155Z AUTO 00000KT 2SM OVC002 16/15 A3010 RMK AO2 VIS 1 1/4V4
K6B0,2022-11-05T11:55:00Z,K6B0 051155Z AUTO 17006KT 10SM OVC042 16/14 A3015 RMK AO2 T01550140 10166 20143
K6B9,2022-11-05T11:55:00Z,K6B9 051155Z AUTO 19008G16KT 150V220 10SM CLR 17/15 A3009 RMK AO2
K6I2,2022-11-05T11:35:00Z,K6I2 051135Z AUTO 17020G27KT 10SM CLR 20/13 A2988 RMK AO2
K6L4,2022-11-05T11:55:00Z,K6L4 051155Z AUTO 17004KT 10SM CLR 20/13 A3004 RMK AO2
K6P9,2022-11-05T11:35:00Z,K6P9 051135Z AUTO 25004KT 10SM CLR 04/03 A2994 RMK AO2 T00400026
K6R6,2022-11-05T10:51:00Z,K6R6 051051Z AUTO 29007KT 09/M07 A2997 RMK AO1 SLP130 T00891067
K6S0,2022-11-05T11:35:00Z,K6S0 051135Z AUTO 25037G53KT 10SM CLR 09/M03 A2919 RMK A01
K6S2,2022-11-05T11:55:00Z,K6S2 051155Z AUTO 33009KT 7SM OVC050 11/10 A2998 RMK AO2
K6S8,2022-11-05T11:40:00Z,K6S8 051140Z AUTO 23016G23KT 10SM 08/M06 A2928 RMK A01 LAUREL
K74V,2022-11-05T11:35:00Z,K74V 051135Z AUTO 00000KT 10SM 00/M03 A2995 RMK AO2
K77S,2022-11-05T11:55:00Z,K77S 051155Z AUTO 31010G15KT 10SM FEW025 BKN038 OVC046 12/10 A2993 RMK A01
K79J,2022-11-05T10:56:00Z,K79J 051056Z AUTO 29003KT 10SM CLR 17/13 A3002 RMK AO2 SLP162 T01670128
K7BM,2022-11-05T11:35:00Z,K7BM 051135Z AUTO 30018G39KT 10SM CLR 00/M07 A2982 RMK AO2
K7L2,2022-11-05T11:55:00Z,K7L2 051155Z AUTO 14014KT 10SM CLR M05/M08 A2950 RMK AO2
K7N0,2022-11-05T11:03:00Z,K7N0 051103Z AUTO 17007KT 100V200 9SM OVC013 24/23 A2989 RMK AO2 PNO $
K7W4,2022-11-05T11:55:00Z,K7W4 051155Z AUTO 00000KT 5SM SCT003 SCT008 BKN065 16/16 A3021 RMK AO1 T01570157 10175 20156
K81R,2022-11-05T11:35:00Z,K81R 051135Z AUTO 34003KT 10SM CLR 06/01 A2996 RMK AO2 T00590007
K82C,2022-11-05T11:55:00Z,K82C 051155Z AUTO 04005KT 7SM -RA OVC006 07/07 A2946 RMK AO2 P0009 60013 70101 T00660066 10073 20066
K82V,2022-11-05T11:55:00Z,K82V 051155Z AUTO 22010KT 10SM CLR 02/M05 A2958 RMK AO2
K8A0,2022-11-05T11:35:00Z,K8A0 051135Z AUTO 15006KT 10SM CLR 16/12 A3001 RMK AO2
K8A3,2022-11-05T11:35:00Z,K8A3 051135Z AUTO 19011G23KT 10SM CLR 19/14 A2995 RMK A01
K8D3,2022-11-05T10:56:00Z,K8D3 051056Z AUTO 00000KT M08/M11 A2963 RMK AO1 SLP054 T10781106
K8T6,2022-11-05T11:35:00Z,K8T6 051135Z AUTO 00000KT 10SM FEW055 17/13 A2992 RMK AO2
K8W2,2022-11-05T11:55:00Z,K8W2 051155Z AUTO 00000KT 5SM SCT007 BKN027 OVC032 15/15 A3017 RMK AO1 P0002 60002 70002 T01510145 10155 20125
K96D,2022-11-05T11:55:00Z,K96D 051155Z AUTO 14008KT 10SM CLR M04/M08 A2954 RMK AO2
K9A5,2022-11-05T11:35:00Z,K9A5 051135Z AUTO 26003KT 10SM SCT018 SCT023 OVC030 16/15 A3006 RMK AO2 T01620147
K9D7,2022-11-05T11:35:00Z,K9D7 051135Z AUTO 15009KT 10SM CLR M03/M05 A2951 RMK AO2 TSNO
K9L2,2022-11-05T10:55:00Z,K9L2 051055Z AUTO 00000KT 10SM CLR 01/M06 A3012 RMK AO2 SLP199 T00091060
K9MN,2022-11-05T11:35:00Z,K9MN 051135Z AUTO 36005KT 10SM OVC003 03/03 A2953 RMK AO1 T00300028
K9S5,2022-11-05T10:55:00Z,K9S5 051055Z AUTO 21019G26KT 10SM 10/M02 A2940 RMK Three Forks 
K9V9,2022-11-05T11:35:00Z,K9V9 051135Z AUTO 11006KT 10SM CLR M05/M07 A2955 RMK AO2 T10511074
KAAA,2022-11-05T11:35:00Z,KAAA 051135Z AUTO 16025G32KT 10SM OVC012 17/17 A2948 RMK AO2 T01710171
KAAF,2022-11-05T11:53:00Z,KAAF 051153Z AUTO 09003KT 10SM CLR 22/22 A3000 RMK AO2 SLP160 T02220217 10222 20217 53007 $
KAAO,2022-11-05T11:54:00Z,KAAO 051154Z AUTO 23007KT 10SM FEW120 03/01 A2973 RMK AO2 SLP077 60016 70218 T00280011 10033 20011 51001
KAAS,2022-11-05T11:55:00Z,KAAS 051155Z AUTO 20016G23KT 10SM CLR 19/13 A2994 RMK AO1
KAAT,2022-11-05T10:55:00Z,KAAT 051055Z AUTO 23004KT 10SM OVC023 03/01 A3005 RMK AO2 RAB38E55 SLP177 P0000 T00330006
KABE,2022-11-05T11:51:00Z,KABE 051151Z 00000KT 10SM SCT015 OVC070 16/14 A3022 RMK AO2 SLP234 T01610144 10167 20122 58003
KABH,2022-11-05T10:55:00Z,KABH 051055Z AUTO 04003KT 10SM SCT240 M06/M09 A2971 RMK AO2 SLP089 T10611095
KABI,2022-11-05T11:52:00Z,KABI 051152Z 16006KT 10SM CLR 04/02 A2994 RMK AO2 SLP132 70003 T00390022 10089 20033 58004
KABQ,2022-11-05T11:52:00Z,KABQ 051152Z 09003KT 10SM FEW250 M02/M08 A3007 RMK AO2 SLP182 T10171083 10033 21017 56012
KABR,2022-11-05T11:53:00Z,KABR 051153Z AUTO 00000KT 10SM CLR M11/M12 A2959 RMK AO2 SLP040 I1000 I6000 T11111122 11083 21122 56028
KABY,2022-11-05T11:53:00Z,KABY 051153Z 06004KT 9SM CLR 14/13 A3007 RMK AO2 SLP180 T01440133 10156 20144 53002 $
KACB,2022-11-05T11:55:00Z,KACB 051155Z AUTO 18009KT 10SM OVC014 15/14 A2958 RMK AO2 T01530142 10153 20119
KACJ,2022-11-05T11:55:00Z,KACJ 051155Z AUTO 08003KT 8SM FEW023 14/14 A3006 RMK AO2 T01440138
KACK,2022-11-05T11:53:00Z,KACK 051153Z 19009KT 10SM CLR 18/17 A3032 RMK AO2 SLP266 T01780172 10183 20172 53004
KACP,2022-11-05T11:55:00Z,KACP 051155Z AUTO 04005KT 5SM RA SCT055 SCT075 OVC110 12/10 A2992 RMK AO2 LTG DSNT S
KACQ,2022-11-05T11:55:00Z,KACQ 051155Z AUTO 36006KT 10SM OVC110 00/00 A2955 RMK AO2
KACT,2022-11-05T11:51:00Z,KACT 051151Z 32006KT 10SM FEW110 09/06 A2993 RMK AO2 SLP133 70065 T00890061 10111 20083 55001
KACV,2022-11-05T11:53:00Z,KACV 051153Z AUTO 16010KT 2SM +RA BR BKN004 OVC012 13/13 A3008 RMK AO2 SLP191 P0031 60063 70073 T01330128 10133 20128 58020
KACY,2022-11-05T11:54:00Z,KACY 051154Z 16005KT 10SM CLR 17/16 A3027 RMK AO2 SLP248 T01670161 10183 20167 50002
KADC,2022-11-05T11:37:00Z,KADC 051137Z AUTO 08004KT 10SM CLR M07/M08 A2963 RMK AO2 TSNO
KADF,2022-11-05T10:56:00Z,KADF 051056Z AUTO 24011KT 10SM SCT016 11/09 A2986 RMK AO2 SLP110 T01110094
KADG,2022-11-05T11:53:00Z,KADG 051153Z AUTO 20009KT 10SM OVC100 15/09 A2983 RMK AO2 SLP100 T01500089 10167 20133 56006
KADH,2022-11-05T11:30:00Z,KADH 051130Z AUTO 27006KT 10SM CLR 03/02 A2987 RMK AO2
KADM,2022-11-05T11:50:00Z,KADM 051150Z 00000KT 10SM CLR 03/01 A2989
KADS,2022-11-05T11:47:00Z,KADS 051147Z 27004KT 13SM SKC 07/03 A2995
KADT,2022-11-05T11:30:00Z,KADT 051130Z AUTO 26008KT 10SM CLR M04/M08 A2969 RMK AO2 T10391076
KADU,2022-11-05T11:35:00Z,KADU 051135Z AUTO 33010G14KT 10SM OVC075 02/M01 A2952 RMK AO2
KADW,2022-11-05T11:55:00Z,KADW 051155Z AUTO 16006KT 10SM CLR 16/16 A3019 RMK AO2 SLP230 T01570155 10167 20152 58000 $
KAEG,2022-11-05T11:47:00Z,KAEG 051147Z 00000KT 10SM CLR M04/M11 A3007
KAEJ,2022-11-05T11:55:00Z,KAEJ 051155Z AUTO 25025G33KT 10SM 01/M07 A2983 RMK AO2 T00131072 10018 21051
KAEL,2022-11-05T11:35:00Z,KAEL 051135Z AUTO 01006KT 10SM -RA OVC007 02/02 A2952 RMK AO2
KAEX,2022-11-05T11:53:00Z,KAEX 051153Z 13006KT 10SM FEW065 FEW085 BKN120 13/11 A2991 RMK AO2 RAE44 SLP130 P0005 60203 70210 T01280106 10256 20128 53010 $
KAFF,2022-11-05T11:48:00Z,KAFF 051148Z AUTO 31016G25KT 10SM BKN170 06/M09 A2964 RMK AO2 WSHFT 41 SLP021
KAFJ,2022-11-05T10:56:00Z,KAFJ 051056Z AUTO 20005KT 10SM CLR 13/10 A3008 RMK AO2 SLP185 T01280100
KAFK,2022-11-05T11:35:00Z,KAFK 051135Z AUTO 33012G18KT 10SM OVC090 02/M01 A2957 RMK AO2 T00221014
KAFN,2022-11-05T11:52:00Z,KAFN 051152Z AUTO 20006KT 10SM FEW007 BKN027 15/14 A3023 RMK AO2 SLP242 T01500139 10161 20150 56001
KAFO,2022-11-05T11:30:00Z,KAFO 051130Z AUTO 18006KT 10SM -SN SCT019 OVC030 00/M02 A2980 RMK AO2
KAFP,2022-11-05T11:55:00Z,KAFP 051155Z AUTO 00000KT 1/4SM FG BKN003 BKN048 15/14 A3017 RMK AO2 T01500144 10162 20134
KAFW,2022-11-05T11:53:00Z,KAFW 051153Z 22005KT 10SM CLR 06/03 A2994 RMK AO2 SLP140 70087 T00610033 10083 20061 53013
KAGC,2022-11-05T11:53:00Z,KAGC 051153Z 15004KT 8SM CLR 14/11 A3006 RMK AO2 SLP179 T01440106 10172 20139 56003
KAGI,2022-11-05T11:55:00Z,KAGI 051155Z AUTO 19013KT 10SM CLR 26/23 A2988 RMK AO2 T02620234 10262 20260
KAGO,2022-11-05T11:55:00Z,KAGO 051155Z AUTO 24006KT 10SM CLR 10/09 A2988 RMK A01
KAHN,2022-11-05T11:51:00Z,KAHN 051151Z 13003KT 9SM OVC005 18/17 A3010 RMK AO2 SLP191 60000 T01780172 10178 20150 53001
KAHQ,2022-11-05T11:35:00Z,KAHQ 051135Z AUTO 32010KT 10SM CLR M01/M03 A2959 RMK AO2 T10071035
KAIA,2022-11-05T11:53:00Z,KAIA 051153Z AUTO 23007KT 10SM CLR M03/M06 A2952 RMK AO2 SNB08E40 SLP020 P0000 60000 70012 T10281056 11017 21061 56029
KAID,2022-11-05T11:55:00Z,KAID 051155Z AUTO 18013G17KT 10SM CLR 17/09 A2983 RMK AO2 T01670085 10180 20167
KAIG,2022-11-05T11:55:00Z,KAIG 051155Z AUTO 04009KT 4SM -RA OVC007 03/03 A2956 RMK AO2 60006 70029 T00300030 10042 20029
KAIK,2022-11-05T11:55:00Z,KAIK 051155Z AUTO 00000KT 7SM OVC004 19/18 A3013 RMK AO2 P0001 T01860184 10186 20166 60004 70004
KAIO,2022-11-05T11:35:00Z,KAIO 051135Z AUTO 35013KT 10SM OVC070 02/02 A2950 RMK AO2
KAIT,2022-11-05T11:55:00Z,KAIT 051155Z AUTO 00000KT 10SM OVC015 M05/M05 A2965 RMK AO2
KAIZ,2022-11-05T10:56:00Z,KAIZ 051056Z AUTO 22019G34KT 10SM OVC017 07/04 RMK AO2 PK WND 22034/1052 SLPNO T00720039 $
KAJG,2022-11-05T11:35:00Z,KAJG 051135Z AUTO 15019G28KT 7SM RA BKN095 OVC110 17/14 A2974 RMK AO2 T01650142
KAJO,2022-11-05T10:56:00Z,KAJO 051056Z AUTO 00000KT 10SM CLR 05/02 A3012 RMK AO2 SLP197 T00500022
KAJR,2022-11-05T11:35:00Z,KAJR 051135Z AUTO 00000KT 4SM BR OVC002 18/18 A3012 RMK AO2 T01800180
KAJZ,2022-11-05T11:35:00Z,KAJZ 051135Z AUTO 06005KT 10SM OVC060 02/M01 A3007 RMK AO2 T00231012
KAKH,2022-11-05T11:54:00Z,KAKH 051154Z AUTO 15004KT 2SM BR OVC002 18/18 A3016 RMK AO2 RAE00 SLP207 P0000 60008 70008 T01830183 10183 20161 53002
KAKO,2022-11-05T11:53:00Z,KAKO 051153Z AUTO 22012KT 10SM CLR M01/M09 A2962 RMK AO2 SLP046 T10061089 11006 21039 56024
KAKQ,2022-11-05T11:54:00Z,KAKQ 051154Z AUTO 00000KT 1/4SM FG VV008 12/12 A3022 RMK AO2 SLP233 T01220122 10144 20117 55000
KAKR,2022-11-05T11:54:00Z,KAKR 051154Z AUTO 18007KT 10SM CLR 18/10 A2997 RMK AO2 SLP143 T01780100 10189 20172 56005
KALB,2022-11-05T11:51:00Z,KALB 051151Z 17011KT 10SM FEW010 SCT038 SCT250 17/14 A3017 RMK AO2 SLP214 T01670139 10167 20161 58007
KALI,2022-11-05T11:53:00Z,KALI 051153Z AUTO 35005KT 10SM OVC050 19/13 A2993 RMK AO2 SLP131 T01890128 10244 20183 53008
KALK,2022-11-05T10:56:00Z,KALK 051056Z AUTO 00000KT 10SM CLR 02/M02 A3012 RMK AO2 SLP155 T00221017
KALM,2022-11-05T11:55:00Z,KALM 051155Z AUTO VRB04KT 10SM FEW037 FEW043 00/M07 A3005 RMK AO2
KALN,2022-11-05T11:50:00Z,KALN 051150Z 17019G31KT 10SM OVC012 18/16 A2951
KALO,2022-11-05T11:54:00Z,KALO 051154Z 34010KT 6SM -RA BR OVC007 06/05 A2940 RMK AO2 SLP961 P0006 60030 70146 T00610050 10061 20056 58043
KALS,2022-11-05T11:52:00Z,KALS 051152Z AUTO VRB03KT 10SM CLR M10/M13 A2998 RMK AO2 SLP173 T11001128 11072 21106 56008
KALW,2022-11-05T11:53:00Z,KALW 051153Z AUTO 28020G32KT 10SM -RA CLR 09/01 A2962 RMK AO2 PK WND 25049/1107 RAB15 PRESRR SLP031 P0000 60001 70071 T00940006 10156 20089 53054
KALX,2022-11-05T11:55:00Z,KALX 051155Z AUTO 00000KT 10SM CLR 14/14 A3004 RMK AO2 T01410139 10165 20133
KAMA,2022-11-05T11:53:00Z,KAMA 051153Z 23007KT 10SM CLR M02/M03 A2981 RMK AO2 SLP103 70016 T10171033 11006 21022 57014
KAMG,2022-11-05T11:53:00Z,KAMG 051153Z AUTO 00000KT 3/4SM BR FEW024 BKN033 OVC041 18/17 A3006 RMK AO2 SLP179 T01780172 10183 20167 51007
KAMN,2022-11-05T11:55:00Z,KAMN 051155Z AUTO 17015G18KT 10SM BKN060 OVC070 18/09 A2969 RMK AO2 T01820086 10182 20170
KAMW,2022-11-05T11:53:00Z,KAMW 051153Z AUTO 34012G21KT 6SM -RA BR OVC005 04/03 A2944 RMK AO2 SLP971 P0002 60030 70137 T00440033 10044 20044 58025
KANB,2022-11-05T11:53:00Z,KANB 051153Z AUTO 07004KT 10SM FEW018 17/14 A3003 RMK AO2 SLP164 T01670139 10178 20156 58000
KAND,2022-11-05T10:56:00Z,KAND 051056Z AUTO 10006KT 10SM BKN006 OVC055 18/18 A3012 RMK AO2 SLP193 T01830178
KANE,2022-11-05T11:55:00Z,KANE 051155Z AUTO 02006KT 10SM SCT015 01/00 A2958 RMK AO2
KANJ,2022-11-05T11:30:00Z,KANJ 051130Z AUTO 08005KT 4SM -RA BR FEW003 BKN013 OVC070 09/09 A2962 RMK AO2 P0006 T00940094
KANK,2022-11-05T11:30:00Z,KANK 051130Z AUTO 20006G15KT 10SM CLR 02/M08 A2992 RMK AO1 T00231079
KANQ,2022-11-05T11:55:00Z,KANQ 051155Z AUTO 17011KT 10SM FEW070 16/10 A2977 RMK AO2
KANW,2022-11-05T11:55:00Z,KANW 051155Z AUTO 23007KT 10SM CLR M04/M08 A2954 RMK AO2 T10431081 11040 21077
KAOH,2022-11-05T10:53:00Z,KAOH 051053Z AUTO 18015G23KT 10SM -RA CLR 17/09 A2985 RMK AO2 SLP103 P0000 T01720089
KAOO,2022-11-05T11:53:00Z,KAOO 051153Z AUTO 00000KT 10SM BKN016 15/13 A3015 RMK AO2 SLP204 T01500128 10167 20144 55006
KAPA,2022-11-05T11:53:00Z,KAPA 051153Z 14007KT 10SM FEW120 SCT140 BKN200 02/M06 A2963 RMK AO2 SLP037 T00221056 10044 21022 56023
KAPC,2022-11-05T11:54:00Z,KAPC 051154Z AUTO 23005KT 7SM SCT004 12/11 A3019 RMK AO2 SLP213 60001 70001 T01220111 10139 20089 58019
KAPF,2022-11-05T11:53:00Z,KAPF 051153Z 00000KT 10SM CLR 22/20 A2994 RMK AO2 SLP139 T02170200 10222 20211 53003 $
KAPN,2022-11-05T11:54:00Z,KAPN 051154Z AUTO 17012KT 10SM -RA OVC100 15/13 A2965 RMK AO2 RAB12 PRESFR SLP038 P0000 60000 70066 T01500128 10156 20133 56022
KAPS,2022-11-05T11:36:00Z,KAPS 051136Z AUTO 17010KT 10SM BKN012 OVC017 24/22 A2988 RMK AO2
KAQO,2022-11-05T11:35:00Z,KAQO 051135Z AUTO 00000KT 10SM BKN080 04/01 A2994 RMK AO2
KAQP,2022-11-05T11:53:00Z,KAQP 051153Z AUTO 00000KT 10SM M07/M08 A2962 RMK AO2
KAQV,2022-11-05T10:57:00Z,KAQV 051057Z AUTO 00000KT 10SM SCT065 BKN080 12/11 A2989 RMK AO2 RAE04 SLP119 P0000 T01220106
KAQW,2022-11-05T11:52:00Z,KAQW 051152Z AUTO VRB03KT 10SM CLR 18/14 A3019 RMK AO2 SLP223 T01780139 10194 20167 58004
KAQX,2022-11-05T11:55:00Z,KAQX 051155Z AUTO 00000KT 7SM FEW027 SCT045 BKN055 19/19 A3010 RMK AO2
KARA,2022-11-05T11:53:00Z,KARA 051153Z 34013G22KT 3SM RA BR FEW008 BKN028 OVC035 13/12 A2995 RMK AO2 PK WND 34032/1125 SLP141 P0036 60049 7//// T01280117 10256 20128 53035
KARB,2022-11-05T11:53:00Z,KARB 051153Z 18007G16KT 10SM SCT100 16/08 A2982 RMK AO2 SLP095 T01560083 10161 20133 56004
KARG,2022-11-05T10:56:00Z,KARG 051056Z AUTO 21017G24KT 10SM CLR 17/11 A2971 RMK AO2 PK WND 20031/0958 SLP059 T01670111
KARM,2022-11-05T11:35:00Z,KARM 051135Z AUTO 00000KT 10SM BKN055 BKN085 14/14 A2992 RMK AO2 T01400140 TSNO
KARR,2022-11-05T11:52:00Z,KARR 051152Z 15020G35KT 9SM OVC014 16/14 A2950 RMK AO2 PK WND 15040/1116 SLP988 60016 70043 T01560139 10183 20156 58014
KART,2022-11-05T10:56:00Z,KART 051056Z AUTO 17011G21KT 10SM CLR 17/12 A3003 RMK AO2 SLP165 T01720117
KARV,2022-11-05T11:55:00Z,KARV 051155Z AUTO 04006KT 5SM DZ OVC006 03/02 A2960 RMK AO2 T00250018 10026 20021
KARW,2022-11-05T11:55:00Z,KARW 051155Z AUTO 12003KT 10SM SCT070 22/18 A3009 RMK AO2
KASD,2022-11-05T11:53:00Z,KASD 051153Z AUTO 15008KT 10SM BKN020 BKN024 OVC070 24/22 A2989 RMK AO2 RAE02B19E28 SLP123 P0000 60000 T02390222 10244 20233 55007
KASE,2022-11-05T11:53:00Z,KASE 051153Z AUTO 32003KT 10SM BKN055 OVC075 M04/M08 A2998 RMK AO2 SLP143 70001 T10391078 11033 21039 58010
KASG,2022-11-05T11:48:00Z,KASG 051148Z 24011KT 10SM OVC009 06/06 A2978
KASH,2022-11-05T11:04:00Z,KASH 051104Z 11003KT 6SM HZ CLR 09/ A3022 RMK AO2 $
KASJ,2022-11-05T11:55:00Z,KASJ 051155Z AUTO 00000KT M1/4SM FG OVC008 12/12 A3022 RMK AO2 T01160116 10146 20112
KASL,2022-11-05T11:35:00Z,KASL 051135Z AUTO 23004KT 10SM CLR 09/08 A2989 RMK AO2 T00910085 $
KASN,2022-11-05T11:55:00Z,KASN 051155Z AUTO 12004KT 10SM CLR 17/14 A3003 RMK AO2 T01660143 10195 20152
KAST,2022-11-05T10:55:00Z,KAST 051055Z AUTO 29012G16KT 10SM BKN037 BKN045 OVC060 10/04 A2987 RMK AO2 SLP114 T01000039 $
KASW,2022-11-05T11:35:00Z,KASW 051135Z AUTO 19009G17KT 160V230 10SM SCT090 17/09 A2974 RMK AO2 T01700092
KASX,2022-11-05T11:53:00Z,KASX 051153Z AUTO 07004KT 10SM SCT028 BKN110 03/02 A2965 RMK AO2 SLP050 T00330017 10033 20000 56028
KATA,2022-11-05T11:55:00Z,KATA 051155Z AUTO 00000KT 10SM SCT020 07/07 A2991 RMK AO2 SLP027 T00730072
KATL,2022-11-05T11:52:00Z,KATL 051152Z 14007KT 1SM R09R/P6000FT BR OVC004 18/16 A3009 RMK AO2 SFC VIS 6 SLP183 CIG 003V005 T01780161 10178 20167 53002
KATP,2022-11-05T11:35:00Z,KATP 051135Z AUTO 16017G24KT 10SM FEW022 26/23 A2989 RMK A01
KATS,2022-11-05T11:55:00Z,KATS 051155Z AUTO VRB04KT 10SM CLR 04/M05 A2994 RMK AO2
KATT,2022-11-05T11:51:00Z,KATT 051151Z AUTO VRB03KT 10SM FEW085 11/04 A2994 RMK AO2 SLP132 70051 T01110039 10178 20100 52007 $
KATW,2022-11-05T11:45:00Z,KATW 051145Z 04010G15KT 5SM -RA BR OVC004 06/06 A2951
KATY,2022-11-05T11:53:00Z,KATY 051153Z AUTO 00000KT 10SM CLR M09/M11 A2957 RMK AO2 SLP036 I1000 I6000 T10941106 11044 21094 56029
KAUG,2022-11-05T11:53:00Z,KAUG 051153Z AUTO 20004KT 8SM CLR 12/11 A3018 RMK AO2 SLP223 T01170111 10122 20111 51004
KAUH,2022-11-05T11:35:00Z,KAUH 051135Z AUTO 27003KT 10SM CLR M04/M06 A2962 RMK AO2 T10431061
KAUM,2022-11-05T11:55:00Z,KAUM 051155Z AUTO 02006KT 10SM -DZ OVC005 03/02 A2949 RMK AO2
KAUN,2022-11-05T11:35:00Z,KAUN 051135Z AUTO 11008KT 10SM FEW025 OVC042 10/03 A3020 RMK A01
KAUO,2022-11-05T10:56:00Z,KAUO 051056Z AUTO 13005KT 10SM CLR 16/14 A3007 RMK AO2 SLP198 T01610144
KAUS,2022-11-05T11:53:00Z,KAUS 051153Z 00000KT 10SM BCFG FEW002 FEW080 11/11 A2992 RMK AO2 SLP128 70041 T01060106 10150 20100 53002 $
KAUW,2022-11-05T11:54:00Z,KAUW 051154Z AUTO 03009KT 3SM -RA BR OVC008 04/03 A2953 RMK AO2 RAB01 SLP010 P0001 60010 70044 T00440028 10056 20044 58032
KAVC,2022-11-05T11:55:00Z,KAVC 051155Z AUTO 00000KT 1/4SM OVC001 15/15 A3026 RMK AO2 T01520151 10176 20152
KAVK,2022-11-05T11:35:00Z,KAVK 051135Z AUTO 24006KT 10SM CLR 02/01 A2980 RMK AO2 PWINO
KAVL,2022-11-05T11:54:00Z,KAVL 051154Z 16007KT 5SM -RA BR BKN005 OVC011 17/16 A3015 RMK AO2 SLP194 P0003 60007 70008 T01670161 10167 20150 56002
KAVP,2022-11-05T11:54:00Z,KAVP 051154Z AUTO VRB05KT 10SM BKN017 OVC022 19/16 A3019 RMK AO2 SLP219 T01890156 10189 20172 58007
KAVQ,2022-11-05T11:35:00Z,KAVQ 051135Z AUTO 19004KT 10SM CLR 04/M02 A3009 RMK AO2 T00381017
KAWG,2022-11-05T11:35:00Z,KAWG 051135Z AUTO 31008KT 6SM -RA OVC003 10/10 A2932 RMK AO2
KAWM,2022-11-05T11:53:00Z,KAWM 051153Z AUTO VRB03KT 10SM SCT013 BKN022 OVC100 17/15 A2974 RMK AO2 RAE46 SLP068 P0006 60185 70185 T01670150 10217 20161 58018 $
KAXA,2022-11-05T11:35:00Z,KAXA 051135Z AUTO 36012KT 10SM BKN080 OVC090 01/01 A2952 RMK A01
KAXH,2022-11-05T11:55:00Z,KAXH 051155Z AUTO 04004KT 10SM OVC055 16/15 A2994 RMK AO2 60012 70036 T01570150 10162 20147
KAXN,2022-11-05T11:53:00Z,KAXN 051153Z AUTO 07006KT 10SM CLR M04/M06 A2962 RMK AO2 SLP050 I6000 T10391061 11022 21061 56027
KAXS,2022-11-05T11:55:00Z,KAXS 051155Z AUTO 23004KT 10SM CLR 03/01 A2990 RMK AO2 70002 T00250010 10045 20018
KAXV,2022-11-05T11:55:00Z,KAXV 051155Z AUTO 18018G23KT 10SM CLR 17/10 A2985 RMK AO2
KAXX,2022-11-05T11:35:00Z,KAXX 051135Z AUTO 23009KT 10SM CLR M07/M10 A2997 RMK AO2 T10661098
KAYS,2022-11-05T11:35:00Z,KAYS 051135Z AUTO 00000KT 5SM BR SCT002 BKN033 OVC040 18/17 A3006 RMK AO2 T01810174
KAZC,2022-11-05T11:55:00Z,KAZC 051155Z AUTO 10006KT 10SM CLR M02/M04 A3014 RMK AO2
KAZE,2022-11-05T11:35:00Z,KAZE 051135Z AUTO 00000KT OVC002 18/17 A3006 RMK AO2 T01750171 PWINO
KAZO,2022-11-05T11:53:00Z,KAZO 051153Z 18019G30KT 10SM FEW050 SCT085 BKN110 19/09 A2971 RMK AO2 PK WND 17030/1153 SLP055 T01890094 10194 20183 58013 $
KBAB,2022-11-05T11:15:00Z,KBAB 051115Z AUTO 12010KT 3SM HZ SCT034 OVC050 13/03 A3018 RMK AO2 SLP223 $
KBAC,2022-11-05T11:55:00Z,KBAC 051155Z AUTO 19006KT 10SM CLR M09/M10 A2959 RMK AO2
KBAD,2022-11-05T11:32:00Z,KBAD 051132Z AUTO 26004KT 10SM -RA FEW095 12/09 A2990 RMK AO2 RAB32 SLP128
KBAF,2022-11-05T11:47:00Z,KBAF 051147Z 18004KT 6SM R20/3500VP6000FT BR FEW004 BKN027 12/12 A3024 RMK AO2
KBAK,2022-11-05T11:55:00Z,KBAK 051155Z 17010KT 10SM SCT050 BKN095 17/10 A2986
KBAM,2022-11-05T11:55:00Z,KBAM 051155Z AUTO 26009KT 10SM OVC080 11/00 A2999 RMK AO1
KBAN,2022-11-05T11:52:00Z,KBAN 051152Z AUTO 22017G23KT 10SM CLR 09/M08 A3014 RMK AO2 SLP141 T00891083 10100 20056 56016 $
KBAX,2022-11-05T11:35:00Z,KBAX 051135Z AUTO 17014G21KT 10SM CLR 15/09 A2976 RMK AO2 T01530093
KBAZ,2022-11-05T11:51:00Z,KBAZ 051151Z AUTO 33003KT 10SM FEW085 12/05 A2992 RMK AO2 SLP125 70005 T01170050 10189 20111 53004
KBBB,2022-11-05T11:36:00Z,KBBB 051136Z AUTO 10004KT 10SM CLR M09/M11 A2962 RMK AO2
KBBD,2022-11-05T11:35:00Z,KBBD 051135Z AUTO 30005KT 10SM CLR 07/M04 A2995 RMK AO2
KBBG,2022-11-05T11:45:00Z,KBBG 051145Z 22008KT 8SM BKN014 OVC021 05/05 A2976
KBBP,2022-11-05T11:35:00Z,KBBP 051135Z AUTO 00000KT 7SM OVC047 17/17 A3016 RMK AO2
KBBW,2022-11-05T11:53:00Z,KBBW 051153Z AUTO 25005KT 10SM CLR M05/M07 A2958 RMK AO2 SLP039 I6001 T10501072 11044 21078 56028
KBCB,2022-11-05T11:55:00Z,KBCB 051155Z AUTO 13005KT 10SM BKN026 BKN032 BKN040 17/17 A3021 RMK AO2 T01720172 10176 20157
KBCE,2022-11-05T10:53:00Z,KBCE 051053Z AUTO 29009KT 10SM CLR M04/M08 A3008 RMK AO2 SLP162 T10441078
KBCK,2022-11-05T11:35:00Z,KBCK 051135Z AUTO 03005KT 4SM DZ OVC007 05/05 A2951 RMK AO2 P0001 T00510047
KBCR,2022-11-05T10:58:00Z,KBCR 051058Z AUTO 00000KT 10SM CLR 14/13 A3003 RMK AO2 SLP126 T01390128
KBCT,2022-11-05T11:53:00Z,KBCT 051153Z 10007G15KT 10SM FEW029 25/20 A2994
KBDE,2022-11-05T11:53:00Z,KBDE 051153Z AUTO 14005KT 10SM CLR M06/M09 A2967 RMK AO2 SLP066 T10611089 11033 21061 56023
KBDG,2022-11-05T11:35:00Z,KBDG 051135Z AUTO 36003KT 10SM M02/M05 A3013 RMK AO1 T10211052
KBDH,2022-11-05T11:55:00Z,KBDH 051155Z AUTO 02006KT 10SM CLR M04/M06 A2964 RMK AO2
KBDL,2022-11-05T11:51:00Z,KBDL 051151Z 00000KT 3SM BCFG BR BKN070 BKN250 13/12 A3025 RMK AO2 SLP244 VIS N 1/4 BCFG N AND SW-NW T01280122 10144 20117 53001
KBDN,2022-11-05T11:35:00Z,KBDN 051135Z AUTO 26010G16KT 10SM FEW027 FEW039 09/07 A2975 RMK AO2
KBDR,2022-11-05T10:52:00Z,KBDR 051052Z 00000KT 10SM OVC065 15/14 A3026 RMK AO2 SLP245 T01500144
KBDU,2022-11-05T11:55:00Z,KBDU 051155Z AUTO 09003KT 10SM CLR 05/M05 A2959 RMK AO2
KBEA,2022-11-05T11:55:00Z,KBEA 051155Z AUTO 00000KT 10SM BKN060 BKN080 16/12 A2992 RMK AO2 T01610116 10185 20160 PWINO
KBEC,2022-11-05T11:35:00Z,KBEC 051135Z AUTO 23006KT 10SM BKN120 02/02 A2974 RMK AO2 T00230020
KBED,2022-11-05T11:51:00Z,KBED 051151Z 00000KT 10SM CLR 14/13 A3023 RMK AO2 SLP248 T01440133 10156 20122 56002
KBEH,2022-11-05T11:53:00Z,KBEH 051153Z AUTO 16020G34KT 4SM RA FEW033 BKN075 OVC100 16/13 A2957 RMK AO2 PK WND 14034/1150 SLP011 P0009 60012 70033 T01560128 10206 20156 58036
KBFD,2022-11-05T11:53:00Z,KBFD 051153Z AUTO 15007KT 10SM FEW050 15/11 A3009 RMK AO2 SLP182 T01500111 10150 20139 55008
KBFF,2022-11-05T11:53:00Z,KBFF 051153Z AUTO 00000KT 10SM CLR 01/M04 A2954 RMK AO2 SLP013 T00111044 10028 21028 56031 $
KBFI,2022-11-05T11:53:00Z,KBFI 051153Z 13003KT 10SM CLR 06/02 A2974 RMK AO2 SLP071 T00610017 10139 20061 51034
KBFL,2022-11-05T11:54:00Z,KBFL 051154Z AUTO 24003KT 6SM HZ CLR 07/03 A3021 RMK AO2 SLP228 T00720033 10111 20072 58014
KBFM,2022-11-05T11:53:00Z,KBFM 051153Z 13010KT 10SM SCT021 BKN029 BKN034 22/20 A2997 RMK AO2 SLP148 T02170200 10222 20206 58001
KBGD,2022-11-05T11:51:00Z,KBGD 051151Z AUTO 23006KT 10SM CLR 00/M01 A2982 RMK AO2 SLP109 70031 I6003 T00001011 10017 20000 58016
KBGE,2022-11-05T11:35:00Z,KBGE 051135Z AUTO 09004KT 3 1/2SM BR CLR 16/15 A3004 RMK AO2 T01570155
KBGF,2022-11-05T11:35:00Z,KBGF 051135Z AUTO 16011KT 10SM SCT031 18/13 A2998 RMK A01
KBGM,2022-11-05T11:53:00Z,KBGM 051153Z 19007KT 160V230 10SM OVC024 16/14 A3015 RMK AO2 SLP208 T01560139 10156 20139 58008
KBGR,2022-11-05T11:53:00Z,KBGR 051153Z 20005KT 10SM FEW100 BKN200 13/12 A3017 RMK AO2 SLP215 T01330117 10133 20111 51007
KBHB,2022-11-05T10:56:00Z,KBHB 051056Z AUTO 21008KT 10SM CLR 14/12 A3018 RMK AO2 SLP221 T01390122 PNO $
KBHC,2022-11-05T11:35:00Z,KBHC 051135Z AUTO 00000KT 7SM BKN028 OVC035 17/17 A3007 RMK AO2
KBHK,2022-11-05T11:51:00Z,KBHK 051151Z AUTO 18010KT 10SM OVC070 04/M05 A2930 RMK AO2 SLP931 T00441050 10056 20039 56037
KBHM,2022-11-05T11:53:00Z,KBHM 051153Z 13012KT 10SM BKN100 18/13 A3000 RMK AO2 SLP153 T01830133 10200 20178 58011
KBID,2022-11-05T10:56:00Z,KBID 051056Z AUTO 21011KT 10SM FEW034 BKN047 OVC070 17/15 A3029 RMK AO2 SLP257 T01670150
KBIE,2022-11-05T11:35:00Z,KBIE 051135Z AUTO 29008KT 10SM OVC120 01/M01 A2963 RMK AO2 T00121015
KBIF,2022-11-05T10:55:00Z,KBIF 051055Z AUTO 32005KT 10SM CLR 04/M04 A3004 RMK AO2 SLP149 T00441043 $
KBIH,2022-11-05T10:56:00Z,KBIH 051056Z AUTO 35007KT 10SM CLR M02/M07 A3015 RMK AO2 SLP195 T10171067
KBIJ,2022-11-05T11:35:00Z,KBIJ 051135Z AUTO 00000KT 10SM CLR 14/13 A3005 RMK AO2
KBIL,2022-11-05T11:53:00Z,KBIL 051153Z 24023G28KT 10SM SCT140 OVC170 09/M05 A2925 RMK AO2 PK WND 24028/1151 SLP902 T00891050 10089 20067 58035
KBIS,2022-11-05T11:52:00Z,KBIS 051152Z AUTO 15010KT 10SM CLR M03/M07 A2947 RMK AO2 SLP997 T10281067 11017 21033 56031
KBIV,2022-11-05T11:53:00Z,KBIV 051153Z AUTO 15013G29KT 7SM RA BKN080 OVC100 16/13 A2959 RMK AO2 PK WND 18029/1147 RAB23 PRESFR SLP017 P0005 60020 70023 T01560133 10200 20156 58035
KBIX,2022-11-05T11:45:00Z,KBIX 051145Z AUTO 16008KT 10SM OVC029 23/20 A2991 RMK AO2 CIG 028 RWY04 SLP131
KBJC,2022-11-05T11:35:00Z,KBJC 051135Z AUTO 33008KT 10SM CLR 05/M06 A2962 RMK AO2
KBJI,2022-11-05T11:35:00Z,KBJI 051135Z AUTO 00000KT 10SM CLR M07/M08 A2965 RMK AO2 T10751076
KBJJ,2022-11-05T10:56:00Z,KBJJ 051056Z AUTO 18012KT 10SM CLR 16/11 A2997 RMK AO2 SLP147 T01560106
KBKB,2022-11-05T11:52:00Z,KBKB 051152Z AUTO 00000KT 10SM FEW002 FEW060 SCT085 12/11 A2989 RMK AO2 RAE04 SLP149 P0000 60173 70217 T01220111 10244 20117 51004 
KBKD,2022-11-05T11:55:00Z,KBKD 051155Z AUTO 22003KT 10SM CLR 05/03 A2994 RMK AO2 T00460025 10086 20046
KBKE,2022-11-05T11:53:00Z,KBKE 051153Z AUTO 24008G25KT 10SM -RA FEW055 OVC075 05/03 A2958 RMK AO2 RAB03 SLP028 P0000 60000 70031 T00500028 10089 20006 56016 $
KBKF,2022-11-05T10:58:00Z,KBKF 051058Z 17008KT 10SM FEW120 SCT140 BKN220 01/M07 A2963 RMK AO2A SLP021 T00111074
KBKL,2022-11-05T11:53:00Z,KBKL 051153Z 17012KT 10SM CLR 19/11 A2992 RMK AO2 PK WND 18028/1129 SLP128 T01940111 10200 20178 55006
KBKS,2022-11-05T11:55:00Z,KBKS 051155Z AUTO 04007KT 6SM HZ OVC038 20/10 A2990 RMK AO2 SLP086 T01980102 $
KBKT,2022-11-05T11:55:00Z,KBKT 051155Z AUTO 15004KT 1/4SM FG OVC001 16/16 A3021 RMK AO1 T01550155 10169 20152
KBKV,2022-11-05T11:53:00Z,KBKV 051153Z 04004KT 1/4SM FG VV002 20/20 A3001 RMK AO2 SLP162 T02000200 10206 20200 51008
KBKW,2022-11-05T11:51:00Z,KBKW 051151Z AUTO 15007KT 10SM BKN036 BKN043 OVC050 17/13 A3013 RMK AO2 SLP184 T01670133 10167 20156 55001
KBKX,2022-11-05T10:56:00Z,KBKX 051056Z AUTO 00000KT 10SM CLR M10/M11 A2961 RMK AO2 SLP063 T11001111 FZRANO
KBLF,2022-11-05T11:52:00Z,KBLF 051152Z AUTO 19009G21KT 130V240 10SM FEW019 BKN036 OVC043 17/13 A3015 RMK AO2 RAB1053E21 SLP186 P0001 60001 70001 T01670128 10167 20156 56002
KBLH,2022-11-05T11:52:00Z,KBLH 051152Z AUTO 36004KT 10SM CLR 08/M05 A3008 RMK AO2 SLP181 T00781050 10139 20072 56016 TSNO
KBLI,2022-11-05T11:53:00Z,KBLI 051153Z AUTO 00000KT 10SM BKN045 06/04 A2968 RMK AO2 SLP060 70139 T00560044 10083 20056 51024
KBLM,2022-11-05T10:56:00Z,KBLM 051056Z AUTO 18003KT 10SM CLR A3028 RMK AO2 SLPNO FZRANO $
KBLU,2022-11-05T11:52:00Z,KBLU 051152Z AUTO 16004KT 10SM SCT008 OVC013 03/01 A3020 RMK AO2 SLP210 T00330011 10044 20033 55009
KBLV,2022-11-05T10:55:00Z,KBLV 051055Z 15020G33KT 10SM SCT009 OVC014 18/16 A2951 RMK AO2A PK WND 15033/51 RAE06DZB06E36 PRESFR SLP993 P0002 T01770160 $
KBMC,2022-11-05T11:30:00Z,KBMC 051130Z AUTO 10SM SCT027 BKN033 OVC040 05/01 A2993 RMK AO1 T00460007
KBMG,2022-11-05T11:53:00Z,KBMG 051153Z 16014G24KT 9SM -RA SCT060 BKN090 OVC110 17/13 A2979 RMK AO2 PK WND 18029/1105 PRESFR SLP081 P0013 60013 70013 T01670128 10200 20161 58001
KBMI,2022-11-05T10:56:00Z,KBMI 051056Z 16024G33KT 10SM OVC007 16/15 A2955 RMK AO2 PK WND 16036/1018 SLP998 T01610150
KBML,2022-11-05T11:52:00Z,KBML 051152Z AUTO 23007KT 10SM CLR 16/11 A3015 RMK AO2 SLP215 T01560106 10161 20006 56004
KBMQ,2022-11-05T11:53:00Z,KBMQ 051153Z AUTO 01004KT 10SM FEW085 09/02 A2995 RMK AO2 SLP133 T00940017 10161 20089 55002
KBMT,2022-11-05T11:30:00Z,KBMT 051130Z AUTO 34003KT 10SM BKN060 14/13 A2990 RMK AO2 T01380133
KBNA,2022-11-05T11:53:00Z,KBNA 051153Z 18014G26KT 10SM FEW150 BKN250 20/11 A2991 RMK AO2 PK WND 19033/1055 SLP121 T02000111 10206 20189 55007
KBNL,2022-11-05T11:55:00Z,KBNL 051155Z AUTO 00000KT 3/4SM BR OVC003 18/18 A3011 RMK AO2
KBNO,2022-11-05T11:53:00Z,KBNO 051153Z AUTO 24011G19KT 10SM -RA FEW019 BKN032 OVC050 06/04 A2977 RMK AO2 SLP074 P0002 60005 70006 T00610039 10100 20061 58018
KBNW,2022-11-05T11:55:00Z,KBNW 051155Z AUTO 35016G23KT 3SM BR OVC005 03/03 A2945 RMK AO2 P0001
KBOI,2022-11-05T11:53:00Z,KBOI 051153Z VRB03KT 10SM OVC050 10/04 A2973 RMK AO2 SLP066 60000 70049 T01000039 10111 20056 56025
KBOK,2022-11-05T11:45:00Z,KBOK 051145Z AUTO 31004KT 1 1/4SM RA BR OVC003 11/11 A3002 RMK AO2 VIS 1/2V3 P0017 $
KBOS,2022-11-05T10:54:00Z,KBOS 051054Z 24004KT 10SM FEW250 14/13 A3025 RMK AO2 SLP244 T01440133
KBOW,2022-11-05T11:55:00Z,KBOW 051155Z AUTO 33004KT 10SM FEW025 20/20 A3000 RMK AO2
KBPG,2022-11-05T11:35:00Z,KBPG 051135Z AUTO 17004KT 10SM CLR 04/M04 A2996 RMK AO2 T00361041
KBPI,2022-11-05T11:53:00Z,KBPI 051153Z AUTO 09003KT 10SM OVC037 M04/M06 A2975 RMK AO2 SNB13E21 SLP080 P0000 60000 T10441061 11039 21067 56024
KBPK,2022-11-05T11:53:00Z,KBPK 051153Z AUTO VRB04KT 10SM SCT028 08/04 A2975 RMK AO2 SLP069 70174 T00780039 10178 20078 51031
KBPT,2022-11-05T11:53:00Z,KBPT 051153Z 00000KT 10SM OVC060 14/13 A2993 RMK AO2 PRESRR SLP135 60131 70132 T01390128 10250 20133 53018
KBQK,2022-11-05T11:35:00Z,KBQK 051135Z AUTO 10005KT 10SM SCT030 SCT040 OVC060 22/21 A3006 RMK AO2 T02150208
KBQP,2022-11-05T11:35:00Z,KBQP 051135Z AUTO 00000KT 10SM SCT090 BKN120 11/11 A2990 RMK AO2 LTG DSNT SE AND S T01140111
KBQX,2022-11-05T11:35:00Z,KBQX 051135Z AUTO 05016G28KT 7SM 17/12 A2991 RMK A01
KBRD,2022-11-05T11:53:00Z,KBRD 051153Z AUTO 03006KT 10SM BKN012 M03/M06 A2965 RMK AO2 SLP056 I1000 I6002 T10331056 11028 21056 56023
KBRG,2022-11-05T11:55:00Z,KBRG 051155Z AUTO 02004KT 10SM CLR M02/M10 A3008 RMK AO2 T10231096 10015 21049
KBRL,2022-11-05T11:53:00Z,KBRL 051153Z AUTO 17022G35KT 9SM -RA BKN006 OVC012 17/16 A2932 RMK AO2 PK WND 18035/1151 SLP928 P0002 60009 70066 T01720161 10172 20122 56039
KBRO,2022-11-05T11:53:00Z,KBRO 051153Z 18007KT 10SM CLR 24/24 A2984 RMK AO2 SLP105 T02440239 10256 20233 50004
KBRY,2022-11-05T11:55:00Z,KBRY 051155Z AUTO 19012G21KT 10SM FEW260 20/13 A2987 RMK AO2 PRESRR T02000130
KBTA,2022-11-05T11:55:00Z,KBTA 051155Z AUTO 34008KT 10SM BKN120 00/M04 A2957 RMK AO2 70005 T00001043 10030 20000
KBTL,2022-11-05T11:53:00Z,KBTL 051153Z 18018G28KT 10SM FEW055 SCT100 18/09 A2972 RMK AO2 PK WND 18028/1149 SLP058 70001 T01830089 10189 20178 58011
KBTM,2022-11-05T11:53:00Z,KBTM 051153Z AUTO 27004G15KT 10SM BKN045 BKN060 07/M02 A2934 RMK AO2 SLP919 T00721017 10072 20044 56041
KBTN,2022-11-05T11:35:00Z,KBTN 051135Z AUTO 18004KT 10SM CLR M06/M06 A2959 RMK AO2
KBTP,2022-11-05T10:56:00Z,KBTP 051056Z AUTO 14009KT 10SM FEW050 15/11 A3006 RMK AO2 SLP184 T01500111 TSNO
KBTR,2022-11-05T11:53:00Z,KBTR 051153Z 34009G19KT 4SM RA BR BKN007 BKN016 OVC020 14/13 A2993 RMK AO2 LTG DSNT NW SLP134 P0030 60036 70042 T01390128 10244 20139 53025
KBTV,2022-11-05T11:54:00Z,KBTV 051154Z 19011KT 10SM FEW060 FEW120 16/13 A3011 RMK AO2 SLP195 T01610128 10172 20156 55003
KBUF,2022-11-05T11:54:00Z,KBUF 051154Z 19015G22KT 10SM SCT160 BKN230 BKN270 18/11 A2998 RMK AO2 SLP151 T01830111 10183 20161 56008
KBUR,2022-11-05T11:53:00Z,KBUR 051153Z 26003KT 10SM CLR 10/01 A3010 RMK AO2 SLP186 T01000011 10139 20100 56014
KBUU,2022-11-05T11:35:00Z,KBUU 051135Z AUTO 18013G21KT 10SM OVC016 16/15 A2950 RMK AO2 T01600150 PWINO
KBUY,2022-11-05T11:54:00Z,KBUY 051154Z AUTO 12005KT 5SM BR OVC004 18/18 A3018 RMK AO2 SLP216 60002 70002 T01780178 10189 20144 55001
KBVI,2022-11-05T11:55:00Z,KBVI 051155Z AUTO 14006KT 10SM CLR 16/11 A3004 RMK AO2 T01640105
KBVN,2022-11-05T11:35:00Z,KBVN 051135Z AUTO 00000KT 10SM CLR M07/M08 A2961 RMK AO2 T10681081 PWINO
KBVO,2022-11-05T11:53:00Z,KBVO 051153Z AUTO 23008KT 10SM CLR 04/03 A2982 RMK AO2 SLP095 70098 T00390028 10056 20033 53018
KBVS,2022-11-05T11:35:00Z,KBVS 051135Z AUTO VRB05G13KT 10SM CLR 07/04 A2970 RMK A01
KBVU,2022-11-05T11:55:00Z,KBVU 051155Z AUTO 00000KT 10SM CLR 05/M05 A3009 RMK AO2
KBVX,2022-11-05T11:43:00Z,KBVX 051143Z AUTO 27011KT 10SM BKN015 12/09 A2978 RMK AO2
KBVY,2022-11-05T11:53:00Z,KBVY 051153Z 19005KT 10SM CLR 14/13 A3023 RMK AO2 SLP233 T01390133 10144 20122 58001
KBWD,2022-11-05T11:35:00Z,KBWD 051135Z AUTO 00000KT 10SM CLR 04/02 A2995 RMK AO1
KBWG,2022-11-05T11:53:00Z,KBWG 051153Z AUTO 21010G20KT 10SM FEW049 BKN090 OVC110 21/12 A2992 RMK AO2 PK WND 19028/1058 SLP128 T02110122 10211 20189 53011
KBWI,2022-11-05T11:54:00Z,KBWI 051154Z 00000KT 3/4SM R10/1200VP6000FT MIFG BR FEW007 FEW060 SCT250 16/15 A3021 RMK AO2 SLP230 VIS SE 1/2 T01560150 10172 20156 58000
KBWP,2022-11-05T11:55:00Z,KBWP 051155Z AUTO 13004KT 6SM BR FEW002 FEW016 FEW029 M10/M11 A2961 RMK AO2
KBWW,2022-11-05T11:55:00Z,KBWW 051155Z AUTO 19013KT 10SM BKN060 OVC070 03/M08 A2934 RMK AO2
KBXA,2022-11-05T11:55:00Z,KBXA 051155Z AUTO 17009KT 10SM BKN012 OVC017 23/21 A2990 RMK AO2 T02330210 10238 20230
KBXK,2022-11-05T11:55:00Z,KBXK 051155Z AUTO 33004KT 10SM CLR 05/00 A3009 RMK A01
KBYG,2022-11-05T11:53:00Z,KBYG 051153Z AUTO 10SM BKN100 03/M04 A2936 RMK AO2 SLP950 T00331039 10056 21006 56025
KBYI,2022-11-05T11:53:00Z,KBYI 051153Z AUTO 21015KT 10SM -RA OVC043 07/03 A2978 RMK AO2 RAB13 SLP078 P0000 60000 70003 T00720028 10072 20044 56023
KBYL,2022-11-05T11:35:00Z,KBYL 051135Z AUTO 14007KT 10SM CLR 15/11 A3000 RMK AO1
KBYS,2022-11-05T10:55:00Z,KBYS 051055Z AUTO 00000KT 10SM CLR 06/M07 A3009 RMK AO2 SLP184 T00571072 $
KBYY,2022-11-05T11:35:00Z,KBYY 051135Z AUTO 03007KT 10SM 16/13 A2990 RMK AO2 T01600139
KBZN,2022-11-05T10:56:00Z,KBZN 051056Z AUTO 22015G29KT 10SM OVC070 10/M02 A2937 RMK AO2 PK WND 22029/1049 SLP939 T01001017
KC07,2022-11-05T11:55:00Z,KC07 051155Z AUTO 27006KT 1/2SM -SN OVC001 A2986 RMK AO2
KC09,2022-11-05T11:55:00Z,KC09 051155Z AUTO 17024G36KT 10SM OVC013 16/15 A2952 RMK AO2 60019 70021 T01600153 10180 20160
KC29,2022-11-05T11:55:00Z,KC29 051155Z AUTO 05003KT 2 1/2SM OVC005 10/10 A2942 RMK AO1 P0012 60036 70145 T01000097 10106 20088
KC35,2022-11-05T11:35:00Z,KC35 051135Z AUTO 04007KT 7SM OVC005 07/07 A2945 RMK AO2 P0005 T00690069 PWINO
KC65,2022-11-05T11:35:00Z,KC65 051135Z AUTO 17012G18KT 9SM SCT044 BKN065 OVC075 16/11 A2970 RMK A01
KC75,2022-11-05T11:35:00Z,KC75 051135Z AUTO 16022G30KT 10SM OVC014 17/16 A2943 RMK AO2 T01740163 PWINO
KC83,2022-11-05T11:35:00Z,KC83 051135Z AUTO 04005KT 5SM HZ BKN022 OVC039 11/08 A3021 RMK AO2
KC99,2022-11-05T11:35:00Z,KC99 051135Z AUTO 29041G56KT 4SM OVC004 M07/M08 A2954 RMK AO2
KCAD,2022-11-05T11:55:00Z,KCAD 051155Z AUTO 18013G16KT 10SM RA OVC011 14/14 A2961 RMK AO2 T01440136 10155 20135
KCAE,2022-11-05T11:26:00Z,KCAE 051126Z 08003KT 1/4SM FG VV002 18/18 A3012 RMK AO2 T01830183 RVRNO
KCAG,2022-11-05T11:53:00Z,KCAG 051153Z AUTO 00000KT 10SM OVC037 M01/M03 A2991 RMK AO2 UPE06 SLP149 P0000 60000 T10061028 11006 21011 58019
KCAK,2022-11-05T11:51:00Z,KCAK 051151Z 16011KT 10SM SCT250 16/11 A2998 RMK AO2 SLP147 T01610111 10183 20156 56006
KCAR,2022-11-05T11:54:00Z,KCAR 051154Z AUTO 16004KT 10SM CLR 08/04 A3005 RMK AO2 SLP182 T00780044 10111 20072 53002
KCAV,2022-11-05T11:35:00Z,KCAV 051135Z AUTO 35011G17KT 7SM OVC007 02/02 A2949 RMK A01
KCBE,2022-11-05T11:35:00Z,KCBE 051135Z AUTO 00000KT 10SM CLR 09/09 A3018 RMK AO2 T00900085
KCBF,2022-11-05T11:35:00Z,KCBF 051135Z AUTO 33010KT 10SM FEW070 OVC085 00/M03 A2954 RMK AO2
KCBG,2022-11-05T11:55:00Z,KCBG 051155Z AUTO 00000KT 10SM CLR M02/M08 A2961 RMK AO2
KCBK,2022-11-05T11:35:00Z,KCBK 051135Z AUTO 23008KT 10SM CLR M04/M07 A2966 RMK AO2 T10391072
KCBM,2022-11-05T11:52:00Z,KCBM 051152Z AUTO 28011KT 9SM SCT021 SCT026 BKN032 OVC070 20/16 A2993 RMK AO2 SLP136 TSNO $
KCCA,2022-11-05T11:55:00Z,KCCA 051155Z AUTO 23007G13KT 200V260 10SM FEW015 SCT023 09/05 A2983 RMK AO2
KCCB,2022-11-05T11:35:00Z,KCCB 051135Z AUTO 05003KT 10SM CLR 11/00 A3010 RMK AO2
KCCO,2022-11-05T11:35:00Z,KCCO 051135Z AUTO 00000KT 10SM OVC006 16/15 A3008 RMK AO2 T01580150
KCCR,2022-11-05T11:53:00Z,KCCR 051153Z AUTO 18005KT 10SM FEW016 FEW026 13/12 A3019 RMK AO2 SLP207 T01280117 10139 20122 56013
KCCU,2022-11-05T11:35:00Z,KCCU 051135Z AUTO OVC002 M07/M10 A2992 RMK AO2 PWINO
KCCY,2022-11-05T11:35:00Z,KCCY 051135Z AUTO 02010KT 2 1/2SM -RA OVC005 05/05 A2947 RMK AO2
KCDA,2022-11-05T11:55:00Z,KCDA 051155Z AUTO 00000KT 10SM 10/09 A3018 RMK AO2 T00980085 10121 20095
KCDC,2022-11-05T11:53:00Z,KCDC 051153Z AUTO 24005KT 10SM CLR M01/M03 A3007 RMK AO2 SLP181 T10111033 10028 21017 56018
KCDD,2022-11-05T11:38:00Z,KCDD 051138Z AUTO 00000KT 1 1/4SM BR OVC002 M08/M09 A2974 RMK AO2
KCDH,2022-11-05T11:55:00Z,KCDH 051155Z AUTO 23003KT 9SM CLR 11/11 A2987 RMK AO2
KCDI,2022-11-05T11:55:00Z,KCDI 051155Z AUTO 16004KT 10SM CLR 17/13 A3000 RMK AO2 T01650127 10171 20158
KCDJ,2022-11-05T11:51:00Z,KCDJ 051151Z AUTO 24007KT 06/06 A2948 RMK AO1 SLP986 P0002 60021 70232 T00610056 10067 20061 51010
KCDN,2022-11-05T11:55:00Z,KCDN 051155Z AUTO 00000KT BKN003 BKN031 19/19 A3015 RMK AO2
KCDR,2022-11-05T11:53:00Z,KCDR 051153Z AUTO 25008KT 10SM CLR M04/M07 A2950 RMK AO2 SLP022 T10391067 11017 21050 56031 $
KCDS,2022-11-05T11:53:00Z,KCDS 051153Z AUTO 21005KT 10SM CLR 02/00 A2988 RMK AO2 SLP121 T00170000 10044 20011 58006
KCDW,2022-11-05T11:53:00Z,KCDW 051153Z 00000KT 10SM FEW010 OVC070 15/13 A3026 RMK AO2 SLP250 T01500133 10150 20128 50002
KCEC,2022-11-05T10:56:00Z,KCEC 051056Z AUTO 16015G25KT 1 1/2SM +RA BR OVC003 12/12 A3005 RMK AO2 PK WND 15030/1039 SLP176 P0034 T01220117
KCEF,2022-11-05T11:32:00Z,KCEF 051132Z 18003KT 3SM R23/2800VP6000FT BR SCT004 BKN065 13/13 A3022 RMK AO2A SLP239
KCEU,2022-11-05T11:54:00Z,KCEU 051154Z AUTO 10004KT 5SM -RA BR BKN004 OVC039 18/18 A3013 RMK AO2 SLP195 P0005 60006 70006 T01780178 10178 20161 58000
KCEW,2022-11-05T11:53:00Z,KCEW 051153Z AUTO 08004KT 10SM CLR 14/14 A3003 RMK AO2 SLP168 T01440139 10161 20133 53010
KCEY,2022-11-05T11:55:00Z,KCEY 051155Z AUTO 15015G27KT 5SM BR OVC034 16/15 A2983 RMK A01 P0016
KCEZ,2022-11-05T11:53:00Z,KCEZ 051153Z AUTO 05005KT 10SM CLR M05/M06 A3009 RMK AO2 SLP195 T10501061 11022 21050 55007
KCFD,2022-11-05T11:55:00Z,KCFD 051155Z AUTO 35003KT 10SM BKN085 11/09 A2995 RMK AO2 70056 T01120094 10135 20112
KCFE,2022-11-05T11:55:00Z,KCFE 051155Z AUTO 01006KT 10SM SCT050 BKN060 M02/M04 A2959 RMK AO2
KCFJ,2022-11-05T11:55:00Z,KCFJ 051155Z AUTO 16020G30KT 5SM -RA BKN050 OVC070 14/09 A2973 RMK AO2 P0019 60025 70025 T01350093 10190 20135
KCFO,2022-11-05T11:35:00Z,KCFO 051135Z AUTO 23005KT 10SM CLR 05/M08 A2963 RMK AO2 T00451084
KCFS,2022-11-05T11:35:00Z,KCFS 051135Z AUTO 17011G18KT 10SM CLR 19/08 A2975 RMK AO2 T01910079
KCFV,2022-11-05T11:52:00Z,KCFV 051152Z AUTO 23009KT 10SM SCT019 BKN023 04/02 A2976 RMK AO2 SLP081 60000 70117 T00440022 10056 20044 51021
KCGC,2022-11-05T11:55:00Z,KCGC 051155Z AUTO 06004KT 3/4SM BR OVC002 19/19 A3002 RMK AO2
KCGE,2022-11-05T11:35:00Z,KCGE 051135Z AUTO 1/2SM FG BKN025 BKN030 OVC035 16/16 A3023 RMK A01
KCGF,2022-11-05T11:45:00Z,KCGF 051145Z 17011KT 10SM CLR 17/11 A2994
KCGS,2022-11-05T11:35:00Z,KCGS 051135Z AUTO 00000KT M1/4SM FG OVC028 13/13 A3021 RMK AO2 T01340133
KCGZ,2022-11-05T10:56:00Z,KCGZ 051056Z AUTO 10003KT 10SM CLR 04/M02 A3010 RMK AO2 SLP195 T00441022 $
KCHA,2022-11-05T11:53:00Z,KCHA 051153Z 16005KT 10SM SCT020 BKN035 OVC049 19/15 A3004 RMK AO2 SLP167 T01890150 10200 20156 58002
KCHK,2022-11-05T11:30:00Z,KCHK 051130Z AUTO 00000KT 10SM CLR 02/01 A2984 RMK AO2 T00210014
KCHO,2022-11-05T11:53:00Z,KCHO 051153Z 21005KT 7SM BKN006 OVC012 19/17 A3019 RMK AO2 CIG 004V009 SLP218 60006 70006 T01890172 10194 20183 53002
KCHS,2022-11-05T10:56:00Z,KCHS 051056Z 03003KT 6SM BR FEW021 SCT035 SCT050 19/18 A3010 RMK AO2 SLP193 T01890183
KCIC,2022-11-05T11:35:00Z,KCIC 051135Z AUTO 14013KT 2SM OVC029 14/02 A3016 RMK AO1
KCID,2022-11-05T11:52:00Z,KCID 051152Z 36012KT 4SM -RA BR BKN006 OVC014 07/07 A2934 RMK AO2 SLP938 P0024 60035 70215 T00720067 10078 20072 55011
KCII,2022-11-05T11:40:00Z,KCII 051140Z AUTO 23018G24KT 10SM 07/02 A2906 RMK A01 
KCIN,2022-11-05T11:35:00Z,KCIN 051135Z AUTO 34012G18KT 10SM OVC070 01/01 A2950 RMK AO2
KCIR,2022-11-05T11:35:00Z,KCIR 051135Z AUTO 19026G33KT 4SM SCT012 BKN090 OVC110 17/16 A2968 RMK AO2 P0003 T01710155
KCIU,2022-11-05T11:42:00Z,KCIU 051142Z AUTO 09006KT 10SM RA SCT004 OVC013 08/08 A2962 RMK AO2 P0007
KCJR,2022-11-05T11:55:00Z,KCJR 051155Z AUTO 00000KT 7SM OVC060 18/17 A3020 RMK AO2 T01770169 10190 20164
KCKB,2022-11-05T11:53:00Z,KCKB 051153Z 00000KT 10SM CLR 11/08 A3008 RMK AO2 SLP177 T01060078 10139 20100 55001
KCKC,2022-11-05T11:36:00Z,KCKC 051136Z AUTO 02005KT 10SM CLR M05/M05 A2968 RMK AO2
KCKF,2022-11-05T11:35:00Z,KCKF 051135Z AUTO 00000KT 7SM OVC002 16/15 A3008 RMK AO2 T01600149
KCKI,2022-11-05T11:55:00Z,KCKI 051155Z AUTO 00000KT 3/4SM BR OVC031 16/15 A3014 RMK AO2
KCKM,2022-11-05T11:55:00Z,KCKM 051155Z AUTO 19007KT 10SM FEW021 SCT039 BKN060 13/13 A2983 RMK A01 P0004
KCKN,2022-11-05T11:35:00Z,KCKN 051135Z 15008KT 10SM M08/M09 A2964 RMK AO2
KCKP,2022-11-05T11:35:00Z,KCKP 051135Z AUTO 03005KT 10SM CLR M03/M05 A2957 RMK AO2 T10351049
KCKV,2022-11-05T10:52:00Z,KCKV 051052Z AUTO 22012G19KT 8SM -RA SCT048 OVC080 21/11 A2991 RMK AO2 PK WND 18029/1007 WSHFT 1021 RAB52 SLP122 P0000 T02110111
KCKZ,2022-11-05T11:35:00Z,KCKZ 051135Z AUTO 21003KT 7SM BKN004 OVC070 16/16 A3026 RMK AO2
KCLE,2022-11-05T11:51:00Z,KCLE 051151Z 19012KT 10SM SCT250 18/09 A2991 RMK AO2 SLP142 T01780094 10183 20172 56005
KCLI,2022-11-05T11:55:00Z,KCLI 051155Z AUTO 05011G20KT 4SM RA BR OVC006 05/04 A2955 RMK AO2 P0003 T00460041 10064 20046 60022 70107
KCLK,2022-11-05T11:55:00Z,KCLK 051155Z AUTO 00000KT 10SM CLR 01/01 A2986 RMK AO2
KCLL,2022-11-05T11:53:00Z,KCLL 051153Z AUTO 35007KT 10SM BKN085 12/10 A2993 RMK AO2 SLP130 70064 T01220100 10144 20117 53004
KCLM,2022-11-05T11:53:00Z,KCLM 051153Z AUTO 27016G26KT 10SM CLR 08/00 A2974 RMK AO2 PK WND 25032/1131 SLP071 70051 T00780000 10089 20078 51014
KCLS,2022-11-05T11:55:00Z,KCLS 051155Z AUTO 29006KT 10SM FEW025 SCT038 SCT045 08/04 A2983 RMK AO2
KCLT,2022-11-05T11:52:00Z,KCLT 051152Z 14009KT 7SM OVC004 19/19 A3016 RMK RAE1057 SLP205 60002 70002 P0000 T01940189 10194 20189 55002
KCLW,2022-11-05T11:55:00Z,KCLW 051155Z AUTO 00000KT 1SM BR OVC002 20/19 A2999 RMK AO2
KCMA,2022-11-05T10:55:00Z,KCMA 051055Z AUTO 00000KT 10SM CLR 06/01 A3011 RMK AO2 SLP206 T00610006
KCMD,2022-11-05T11:35:00Z,KCMD 051135Z AUTO 15008G13KT 10SM CLR 16/13 A2998 RMK AO2
KCMH,2022-11-05T11:51:00Z,KCMH 051151Z 16008KT 10SM BKN250 17/11 A2994 RMK AO2 SLP135 T01720111 10178 20167 56006
KCMI,2022-11-05T11:53:00Z,KCMI 051153Z 15026G38KT 10SM SCT017 OVC022 16/14 A2958 RMK AO2 PK WND 14046/1115 RAB21E37 SLP014 P0000 60040 70040 T01560139 10206 20156 56039
KCMR,2022-11-05T11:55:00Z,KCMR 051155Z AUTO 17007KT 10SM CLR M05/M07 A3015 RMK AO2
KCMX,2022-11-05T11:53:00Z,KCMX 051153Z AUTO 05006KT 10SM OVC013 03/01 A2967 RMK AO2 SLP057 T00280006 10039 20028 56026
KCMY,2022-11-05T10:58:00Z,KCMY 051058Z AUTO 00000KT 6SM R29/5000FT -RA BR BKN006 OVC013 06/06 A2954 RMK AO2 RAB08E18RAB34 SLP011 P0001 T00590058 $
KCNB,2022-11-05T11:55:00Z,KCNB 051155Z AUTO 00000KT 10SM CLR M08/M10 A2963 RMK AO2 T10781097 11051 21081
KCNC,2022-11-05T11:35:00Z,KCNC 051135Z AUTO 36006KT 2SM RA OVC004 05/05 A2942 RMK AO2
KCNI,2022-11-05T11:35:00Z,KCNI 051135Z AUTO 13006KT 10SM OVC006 18/17 A3010 RMK AO2 T01760167
KCNK,2022-11-05T10:55:00Z,KCNK 051055Z AUTO 27011KT 10SM CLR 01/M03 A2967 RMK AO2 SLP054 T00111033
KCNM,2022-11-05T11:53:00Z,KCNM 051153Z AUTO 00000KT 10SM CLR 02/M05 A2993 RMK AO2 SLP117 T00171050 10083 20017 56009
KCNO,2022-11-05T11:53:00Z,KCNO 051153Z AUTO 00000KT 10SM CLR 07/02 A3011 RMK AO2 SLP195 T00670022 10122 20061 56017
KCNU,2022-11-05T11:52:00Z,KCNU 051152Z AUTO 29014G24KT 10SM FEW016 BKN075 OVC100 04/03 A2971 RMK AO2 RAE45 SLP062 P0001 60004 70184 T00440028 10056 20039 51012
KCNW,2022-11-05T11:55:00Z,KCNW 051155Z 31003KT 10SM SKC 08/07 A2994
KCNY,2022-11-05T11:53:00Z,KCNY 051153Z AUTO 13003KT 10SM OVC075 02/M02 A2999 RMK AO2 SLP160 T00171017 10022 20011 56014
KCOD,2022-11-05T10:56:00Z,KCOD 051056Z AUTO 23019G27KT 10SM CLR 07/M04 A2947 RMK AO2 PK WND 24029/1039 SLP974 T00721044
KCOE,2022-11-05T10:56:00Z,KCOE 051056Z AUTO 25017G27KT 10SM FEW034 08/01 A2930 RMK AO2 PK WND 23036/1014 SLP945 T00780006
KCOF,2022-11-05T10:55:00Z,KCOF 051055Z AUTO 10010KT 10SM CLR 25/25 A2995 RMK AO2 SLP147 T02480246 $
KCOM,2022-11-05T11:35:00Z,KCOM 051135Z AUTO 00000KT 10SM CLR 04/03 A2996 RMK AO2 T00420025
KCON,2022-11-05T11:51:00Z,KCON 051151Z AUTO 15009KT 10SM SCT040 13/13 A3021 RMK AO2 SLP230 T01330128 10133 20111 56003
KCOQ,2022-11-05T11:55:00Z,KCOQ 051155Z AUTO 00000KT 10SM OVC018 M01/M02 A2962 RMK AO2 TSNO
KCOS,2022-11-05T11:54:00Z,KCOS 051154Z 07010G17KT 020V090 10SM SCT190 BKN250 01/M09 A2967 RMK AO2 SLP056 T00061094 10006 21056 58023
KCOT,2022-11-05T11:53:00Z,KCOT 051153Z AUTO 00000KT 10SM OVC080 17/03 A2994 RMK AO2 SLP133 T01670028 10228 20161 53003
KCOU,2022-11-05T11:54:00Z,KCOU 051154Z 23021G37KT 10SM OVC017 08/04 A2955 RMK AO2 PK WND 23042/1137 SLP002 60003 70105 T00780039 10189 20078 51036
KCPC,2022-11-05T11:35:00Z,KCPC 051135Z AUTO 00000KT 1/2SM FG VV005 17/16 A3017 RMK AO2 T01680162
KCPF,2022-11-05T11:55:00Z,KCPF 051155Z AUTO 00000KT 10SM CLR 12/10 A3002 RMK AO2
KCPK,2022-11-05T11:55:00Z,KCPK 051155Z AUTO 00000KT 11/10 A3023 RMK AO2 T01100100 10132 20107
KCPR,2022-11-05T11:53:00Z,KCPR 051153Z 22027G40KT 10SM CLR 02/M03 A2953 RMK AO2 PK WND 22040/1057 SNE1057 SLP010 P0000 60000 T00171028 10017 21006 56030
KCPS,2022-11-05T11:53:00Z,KCPS 051153Z 16014G25KT 10SM -RA BKN015 OVC020 18/16 A2950 RMK AO2 PK WND 15037/1058 RAB45 SLP985 P0001 60039 7//// T01830161 10183 20178 55025 $
KCPT,2022-11-05T11:55:00Z,KCPT 051155Z AUTO 30004KT 10SM CLR 06/04 A2996 RMK A01
KCPU,2022-11-05T11:55:00Z,KCPU 051155Z AUTO 00000KT 10SM CLR 05/02 A3023 RMK AO2 T00500022 10072 20040
KCPW,2022-11-05T11:35:00Z,KCPW 051135Z AUTO 24011G17KT 10SM SCT110 M09/M09 A3007 RMK AO2
KCQB,2022-11-05T11:35:00Z,KCQB 051135Z AUTO 27007KT 10SM CLR 04/02 A2985 RMK AO2 T00360024
KCQC,2022-11-05T11:53:00Z,KCQC 051153Z AUTO 29028G39KT 10SM CLR M02/M11 A2995 RMK AO2 PK WND 30039/1148 SLP146 70001 T10221111 11022 21039 58016
KCQF,2022-11-05T11:35:00Z,KCQF 051135Z AUTO 04003KT 7SM BKN026 BKN032 17/17 A2998 RMK AO2
KCQM,2022-11-05T11:35:00Z,KCQM 051135Z AUTO 00000KT 10SM SCT001 M10/M12 A2969 RMK AO2
KCQT,2022-11-05T11:47:00Z,KCQT 051147Z AUTO 00000KT 10SM CLR 09/05 A3011 RMK AO2 SLP196 T00940050 10133 20094 56016
KCQW,2022-11-05T11:55:00Z,KCQW 051155Z AUTO 00000KT M1/4SM FG OVC002 18/18 A3015 RMK AO2 PWINO
KCQX,2022-11-05T11:52:00Z,KCQX 051152Z AUTO 22006KT 10SM FEW037 SCT065 17/16 A3031 RMK AO2 SLP266 T01670156 10172 20161 53005
KCRE,2022-11-05T11:53:00Z,KCRE 051153Z 10005KT 10SM OVC033 22/18 A3014 RMK AO1 SLP206 T02170183 10222 20206 $
KCRG,2022-11-05T11:53:00Z,KCRG 051153Z 13005KT 3SM -RA FEW029 SCT041 OVC060 23/21 A3003 RMK AO2 RAB49 SLP168 P0002 60003 70003 T02330206 10239 20200 53004
KCRP,2022-11-05T11:51:00Z,KCRP 051151Z 03009KT 10SM -RA FEW037 OVC041 18/13 A2992 RMK AO2 RAB44 SLP130 P0000 60003 70003 T01830133 10239 20167 53007 $
KCRQ,2022-11-05T11:53:00Z,KCRQ 051153Z AUTO 00000KT 10SM CLR 11/04 A3008 RMK AO2 SLP185 T01060044 10133 20106 55015
KCRS,2022-11-05T11:53:00Z,KCRS 051153Z AUTO 30010KT 10SM CLR 08/05 A2994 RMK AO2 SLP136 70043 T00830050 10111 20083 51006
KCRW,2022-11-05T11:54:00Z,KCRW 051154Z 00000KT 10SM SCT120 BKN250 12/11 A3003 RMK AO2 SLP164 T01170106 10156 20111 58001
KCRX,2022-11-05T11:35:00Z,KCRX 051135Z AUTO 21010G20KT 2 1/2SM +RA SCT004 BKN032 OVC075 17/14 A2993 RMK AO2
KCSG,2022-11-05T11:51:00Z,KCSG 051151Z AUTO 08003KT 10SM CLR 15/13 A3006 RMK AO2 SLP176 T01500133 10172 20144 53005 $
KCSM,2022-11-05T11:53:00Z,KCSM 051153Z AUTO 22007KT 10SM CLR 01/00 A2984 RMK AO2 SLP111 70031 T00060000 10033 20006 56009 $
KCSQ,2022-11-05T11:55:00Z,KCSQ 051155Z AUTO 34013G18KT 1 3/4SM +RA OVC005 03/03 A2944 RMK AO2
KCSV,2022-11-05T10:53:00Z,KCSV 051053Z AUTO 17013G27KT 140V200 10SM CLR 18/15 A3002 RMK AO2 PK WND 19027/1019 SLP151 T01780150
KCTB,2022-11-05T10:56:00Z,KCTB 051056Z AUTO 23027G38KT 10SM CLR 07/01 A2896 RMK AO2 PK WND 24048/1002 SLP805 T00720006
KCTJ,2022-11-05T11:35:00Z,KCTJ 051135Z AUTO 15009KT 10SM OVC006 16/15 A3011 RMK AO2 T01610152
KCTY,2022-11-05T11:35:00Z,KCTY 051135Z AUTO 00000KT 1/2SM FG OVC003 18/18 A3002 RMK AO2 T01800179
KCTZ,2022-11-05T11:55:00Z,KCTZ 051155Z AUTO 00000KT 5SM CLR 17/17 A3019 RMK AO2 T01680168 10190 20162
KCUB,2022-11-05T11:53:00Z,KCUB 051153Z AUTO 00000KT 3SM BR OVC006 18/17 A3013 RMK AO2 SLP202 T01830172 10206 20178 55000
KCUH,2022-11-05T11:35:00Z,KCUH 051135Z AUTO 26007KT 10SM CLR A2983 RMK AO2
KCUL,2022-11-05T11:33:00Z,KCUL 051133Z AUTO 16021G27KT 7SM RA SCT065 SCT080 OVC090 17/14 A2974 RMK AO2 P0001
KCUT,2022-11-05T11:53:00Z,KCUT 051153Z AUTO 23006KT 10SM FEW060 SCT120 M02/M07 A2944 RMK AO2 SLP992 T10221067 11017 21039 56025
KCVC,2022-11-05T11:55:00Z,KCVC 051155Z AUTO 14003KT 5SM BR OVC004 17/17 A3010 RMK AO2
KCVG,2022-11-05T11:52:00Z,KCVG 051152Z 15010KT 10SM FEW130 BKN250 16/12 A2987 RMK AO2 SLP109 T01610117 10172 20150 56017
KCVH,2022-11-05T11:55:00Z,KCVH 051155Z AUTO 00000KT 10SM OVC018 08/07 A3023 RMK A01
KCVN,2022-11-05T10:56:00Z,KCVN 051056Z AUTO 27013KT 10SM CLR 02/M07 A2986 RMK AO2 SLP114 T00221072 FZRANO
KCVO,2022-11-05T11:42:00Z,KCVO 051142Z AUTO 31010KT 10SM SCT026 BKN031 OVC055 11/07 A2994 RMK AO2
KCVS,2022-11-05T10:55:00Z,KCVS 051055Z AUTO 26008KT 10SM CLR 01/M07 A2986 RMK AO2 SLP105 T00111067 $
KCVX,2022-11-05T11:55:00Z,KCVX 051155Z AUTO 13004KT 4SM DZ BKN015 OVC021 12/12 A2956 RMK AO2 T01220122 10122 20085
KCWA,2022-11-05T11:47:00Z,KCWA 051147Z 04010KT 2 1/2SM -RA OVC006 04/03 A2953
KCWC,2022-11-05T11:55:00Z,KCWC 051155Z AUTO 25003KT 10SM CLR 04/02 A2993 RMK AO2 70008 T00410022 10070 20041
KCWF,2022-11-05T11:51:00Z,KCWF 051151Z 06008KT 7SM -RA SCT080 BKN110 12/11 A2991
KCWI,2022-11-05T11:35:00Z,KCWI 051135Z AUTO 17016G21KT 10SM FEW006 OVC011 17/ A2939 RMK AO2 RAE18 P0000
KCWN,2022-11-05T10:55:00Z,KCWN 051055Z AUTO 16006KT 10SM BKN180 OVC230 01/M10 A2916 RMK AO2 PRESRR SLP780 T00121100 $
KCWV,2022-11-05T11:35:00Z,KCWV 051135Z AUTO 11003KT 5SM -RA SCT025 BKN050 OVC070 18/18 A3009 RMK AO2 T01840178
KCXE,2022-11-05T11:55:00Z,KCXE 051155Z AUTO 13004KT 3SM OVC002 16/16 A3020 RMK AO1 60001 70005 T01600160 10167 20155
KCXO,2022-11-05T11:53:00Z,KCXO 051153Z 07003KT 10SM OVC060 13/12 A2994 RMK AO2 SLP137 60000 70018 T01280122 10144 20128 53013
KCXP,2022-11-05T11:35:00Z,KCXP 051135Z AUTO 22013G25KT 10SM CLR 12/M03 A3007 RMK AO2
KCXU,2022-11-05T11:55:00Z,KCXU 051155Z AUTO 09003KT 3SM 17/15 A3005 RMK AO1 SKY OBSCURED T01650152 10176 20143
KCXW,2022-11-05T11:35:00Z,KCXW 051135Z AUTO 30009G15KT 10SM OVC020 11/ A2983 RMK A01
KCXY,2022-11-05T10:56:00Z,KCXY 051056Z 13005KT 4SM HZ OVC019 17/14 A3019 RMK AO2 SLP223 T01720144
KCYD,2022-11-05T11:32:00Z,KCYD 051132Z AUTO 18011KT 7SM OVC060 26/23 A2994 RMK A02 T02570232
KCYS,2022-11-05T11:53:00Z,KCYS 051153Z 26025G34KT 10SM CLR 04/M03 A2957 RMK AO2 PK WND 27034/1144 SLP016 60000 T00391033 10039 20006 56023 $
KCZL,2022-11-05T11:55:00Z,KCZL 051155Z AUTO 17005KT 10SM SCT016 OVC025 19/17 A3008 RMK AO2
KCZT,2022-11-05T11:35:00Z,KCZT 051135Z AUTO 00000KT 10SM CLR 12/01 A2996 RMK AO2
KD07,2022-11-05T10:56:00Z,KD07 051056Z AUTO 17013KT M06/M07 A2945 RMK AO1 SLPNO T10561072 $
KD25,2022-11-05T11:55:00Z,KD25 051155Z AUTO 06006KT 10SM -DZ OVC005 02/02 A2960 RMK AO2 T00210021 10021 20016
KD39,2022-11-05T11:35:00Z,KD39 051135Z AUTO 34004KT 10SM OVC002 M06/M07 A2963 RMK AO2 T10631067
KD50,2022-11-05T11:55:00Z,KD50 051155Z AUTO 18016KT 10SM OVC065 01/M07 A2921 RMK AO2
KD55,2022-11-05T11:35:00Z,KD55 051135Z AUTO 17015KT 10SM CLR M03/M06 A2951 RMK AO2
KD57,2022-11-05T11:55:00Z,KD57 051155Z AUTO 13007KT 10SM OVC070 M01/M07 A2938 RMK AO2
KD60,2022-11-05T11:55:00Z,KD60 051155Z AUTO 16011KT 10SM OVC065 01/M07 A2926 RMK AO2
KD73,2022-11-05T11:35:00Z,KD73 051135Z AUTO 04004KT 1/2SM FG OVC003 17/ A3011 RMK AO2 T0173////
KD95,2022-11-05T11:55:00Z,KD95 051155Z AUTO 17011G15KT 10SM CLR 16/08 A2979 RMK AO2 T01600080 10193 20160
KDAA,2022-11-05T11:55:00Z,KDAA 051155Z AUTO 00000KT 1/4SM R32/2200V2400FT FG CLR 13/13 A3020 RMK AO2 SLP230 T01330133 10177 20130 58001 $
KDAB,2022-11-05T11:53:00Z,KDAB 051153Z 10003KT 10SM FEW055 BKN250 23/21 A3001 RMK AO2 SLP161 60013 70022 T02330211 10239 20222 53002
KDAG,2022-11-05T11:50:00Z,KDAG 051150Z AUTO 26011KT 10SM CLR 08/M02 A3010 RMK AO2 SLP186 T00781017 10100 20072 56018
KDAL,2022-11-05T11:53:00Z,KDAL 051153Z 29007KT 10SM CLR 08/03 A2994 RMK AO2 SLP137 70072 T00780033 10100 20078 53008
KDAN,2022-11-05T11:53:00Z,KDAN 051153Z AUTO 00000KT 1/2SM FG VV004 17/16 A3019 RMK AO2 RAB06E15 SLP213 P0000 60003 70003 T01670161 10178 20167 55003
KDAW,2022-11-05T11:51:00Z,KDAW 051151Z AUTO 00000KT 10SM SCT003 13/12 A3021 RMK AO2 SLP227 T01280122 10144 20117 55003
KDAY,2022-11-05T10:56:00Z,KDAY 051056Z 18013G21KT 10SM BKN250 18/10 A2990 RMK AO2 SLP119 T01780100
KDBN,2022-11-05T11:35:00Z,KDBN 051135Z AUTO 00000KT 3/4SM BR OVC003 15/14 A3010 RMK AO2
KDBQ,2022-11-05T11:53:00Z,KDBQ 051153Z 03009KT 1 3/4SM -RA BR BKN005 OVC010 09/09 A2936 RMK AO2 VIS 1 1/4V3 SLP945 P0005 60041 70202 T00890089 10100 20078 56031
KDCA,2022-11-05T11:52:00Z,KDCA 051152Z 20006KT 9SM BKN026 BKN250 17/16 A3022 RMK AO2 SLP231 T01720161 10183 20167 58001
KDCM,2022-11-05T11:35:00Z,KDCM 051135Z AUTO 13007KT 3/4SM BR OVC003 18/18 A3015 RMK AO2
KDCU,2022-11-05T11:53:00Z,KDCU 051153Z AUTO 14018G26KT 10SM CLR 18/12 A2992 RMK AO2 PK WND 14028/1139 SLP127 T01780122 10178 20167 56022
KDCY,2022-11-05T11:30:00Z,KDCY 051130Z AUTO 17015G19KT 10SM -RA SCT070 BKN100 OVC120 16/13 A2978 RMK AO2 P0001 T01570128
KDDC,2022-11-05T11:52:00Z,KDDC 051152Z AUTO 26011KT 10SM CLR 01/M04 A2974 RMK AO2 SLP080 70005 T00061039 10011 21006 56012
KDDH,2022-11-05T10:54:00Z,KDDH 051054Z AUTO 18006KT 10SM FEW046 18/11 A3020 RMK AO2 SLP223 T01780111
KDEC,2022-11-05T11:54:00Z,KDEC 051154Z 17023G35KT 10SM OVC016 17/16 A2953 RMK AO2 PK WND 18039/1105 RAE22 SLP997 P0000 60039 70039 T01670156 10194 20167 58028
KDED,2022-11-05T11:30:00Z,KDED 051130Z AUTO 00000KT 10SM CLR 20/20 A3001 RMK AO2 T02050200
KDEN,2022-11-05T11:53:00Z,KDEN 051153Z 21010KT 10SM FEW120 SCT140 BKN220 04/M06 A2961 RMK AO2 SLP008 T00441056 10056 21017 56025
KDEQ,2022-11-05T11:53:00Z,KDEQ 051153Z AUTO 23006KT 10SM BKN019 OVC024 09/06 A2987 RMK AO2 SLP112 7//// T00890056 53006 $
KDET,2022-11-05T11:53:00Z,KDET 051153Z 17009KT 9SM CLR 17/09 A2984 RMK AO2 SLP102 T01720089 10172 20161 58006
KDEW,2022-11-05T11:53:00Z,KDEW 051153Z AUTO 27012G20KT 10SM CLR 06/M04 A2935 RMK AO2 PK WND 26031/1119 PRESRR SLP948 70072 T00611039 10100 20061 53038
KDFI,2022-11-05T11:53:00Z,KDFI 051153Z AUTO 18009KT 10SM SCT095 17/09 A2982 RMK AO2 SLP096 T01670094 10178 20167 55002
KDFW,2022-11-05T11:53:00Z,KDFW 051153Z 27005KT 10SM CLR 07/03 A2992 RMK AO2 SLP131 70301 T00720028 10100 20067 53012 $
KDGW,2022-11-05T11:53:00Z,KDGW 051153Z AUTO 28013G21KT 10SM CLR 04/M04 A2952 RMK AO2 PK WND 26031/1114 SLP998 T00441039 10044 20006 56020
KDHN,2022-11-05T11:53:00Z,KDHN 051153Z AUTO 02003KT 10SM CLR 16/16 A3007 RMK AO2 SLP181 T01560156 10183 20156 53009
KDHT,2022-11-05T11:53:00Z,KDHT 051153Z AUTO 21008KT 10SM CLR M04/M05 A2979 RMK AO2 SLP102 70007 I1000 I6000 T10391050 11017 21050 58016
KDIJ,2022-11-05T10:56:00Z,KDIJ 051056Z AUTO 20017G22KT 4SM -SN BR SCT023 OVC027 M01/M02 A2973 RMK AO2 SLP091 P0000 T10061017
KDIK,2022-11-05T10:56:00Z,KDIK 051056Z AUTO 18012KT 10SM OVC060 03/M07 A2934 RMK AO2 SLP948 T00281067
KDKB,2022-11-05T11:35:00Z,KDKB 051135Z AUTO 16022G31KT 10SM OVC010 16/15 A2950 RMK AO2 T01560151
KDKK,2022-11-05T11:53:00Z,KDKK 051153Z AUTO 18015G25KT 10SM CLR 18/10 A2998 RMK AO2 PK WND 18028/1133 SLP151 T01830100 10200 20183 56008
KDKR,2022-11-05T11:35:00Z,KDKR 051135Z AUTO 00000KT 10SM BKN085 10/10 A2992 RMK AO2
KDKX,2022-11-05T11:30:00Z,KDKX 051130Z AUTO 00000KT 10SM BKN050 OVC065 13/12 A3005 RMK A01
KDLF,2022-11-05T10:55:00Z,KDLF 051055Z AUTO 18003KT 9SM CLR 10/00 A2993 RMK AO2 SLP129 T00980001 $
KDLH,2022-11-05T10:55:00Z,KDLH 051055Z 08010KT 10SM BKN016 02/M01 A2966 RMK AO2 SLP059 T00221011
KDLL,2022-11-05T11:55:00Z,KDLL 051155Z AUTO 03006KT 2 1/2SM RA SCT005 OVC008 06/06 A2945 RMK AO2 P0014 60023 70122 T00600060 10070 20059
KDLN,2022-11-05T11:53:00Z,KDLN 051153Z AUTO 23022G32KT 10SM CLR 07/M02 A2938 RMK AO2 PK WND 22032/1150 SLP936 T00671017 10067 20044 58043
KDLO,2022-11-05T11:35:00Z,KDLO 051135Z AUTO 00000KT 10SM CLR 02/M01 A3022 RMK AO2 T00181011
KDLS,2022-11-05T11:53:00Z,KDLS 051153Z AUTO 28021G32KT 10SM CLR 11/01 A2975 RMK AO2 PK WND 29040/1055 RAE33 SLP074 P0000 60006 70049 T01060006 10167 20106 51064
KDLZ,2022-11-05T11:55:00Z,KDLZ 051155Z AUTO 17013KT 10SM CLR 15/10 A2993 RMK AO2
KDMA,2022-11-05T10:55:00Z,KDMA 051055Z AUTO 00000KT 10SM CLR 03/M02 A3010 RMK AO2 SLP226 T00311016 $
KDMH,2022-11-05T11:54:00Z,KDMH 051154Z AUTO 17/16 A3022 RMK AO1 SLP234 T01670156 10178 20167 50000 
KDMN,2022-11-05T11:53:00Z,KDMN 051153Z AUTO 22004KT 10SM CLR 02/M03 A3008 RMK AO2 SLP167 T00171033 10056 20006 58006
KDMO,2022-11-05T11:53:00Z,KDMO 051153Z AUTO 21018G28KT 10SM OVC015 06/03 A2957 RMK AO2 PK WND 22033/1124 SLP013 60000 70050 T00610033 10106 20061 53013
KDMW,2022-11-05T11:35:00Z,KDMW 051135Z AUTO 15007KT 7SM SCT006 17/17 A3020 RMK AO2
KDNA,2022-11-05T11:55:00Z,KDNA 051155Z AUTO 00000KT 10SM CLR 01/M05 A3008 RMK AO2
KDNL,2022-11-05T11:53:00Z,KDNL 051153Z AUTO 12005KT 6SM BR BKN004 BKN008 BKN055 19/18 A3011 RMK AO2 RAB33E46 SLP192 P0003 60003 70003 T01890183 10200 20189 53002
KDNN,2022-11-05T11:55:00Z,KDNN 051155Z AUTO 16007KT 10SM FEW015 BKN022 OVC028 19/17 A3006 RMK AO2 CIG 018V025 OVC V BKN T01910167
KDNV,2022-11-05T11:35:00Z,KDNV 051135Z AUTO 16023G34KT 10SM -RA SCT019 BKN080 OVC110 15/13 A2967 RMK AO2 P0001 T01530132
KDOV,2022-11-05T11:55:00Z,KDOV 051155Z AUTO 14003KT 8SM CLR 14/14 A3023 RMK AO2 SLP240 T01410141 10168 20138 50001
KDPA,2022-11-05T11:52:00Z,KDPA 051152Z 17019G37KT 10SM OVC015 17/13 A2951 RMK AO2 PK WND 18038/1053 SLP988 60017 70040 T01670133 10194 20161 56025
KDPL,2022-11-05T11:35:00Z,KDPL 051135Z AUTO 00000KT M1/4SM FG OVC013 14/ A3019 RMK AO2
KDQH,2022-11-05T11:35:00Z,KDQH 051135Z AUTO 08005KT 7SM BKN002 BKN060 18/17 A3008 RMK AO2 T01780174
KDRA,2022-11-05T11:53:00Z,KDRA 051153Z AUTO 00000KT 10SM CLR 03/M08 A3009 RMK AO2 SLP175 T00331083 10061 20011 56020
KDRI,2022-11-05T11:55:00Z,KDRI 051155Z AUTO 07003KT 2 1/2SM BR BKN075 BKN220 12/12 A2993 RMK AO2 T01220121 $
KDRM,2022-11-05T11:55:00Z,KDRM 051155Z AUTO 13005KT 3SM -RA OVC002 12/12 A2960 RMK AO2 60025 70085 T01160116 10116 20079 P0006
KDRO,2022-11-05T11:53:00Z,KDRO 051153Z AUTO 03003KT 10SM CLR M05/M07 A3007 RMK AO2 SLP206 T10501067 11028 21050 55003
KDRT,2022-11-05T11:53:00Z,KDRT 051153Z AUTO 27003KT 10SM CLR 08/02 A2996 RMK AO2 SLP143 T00830017 10139 20083 56002
KDSF,2022-11-05T11:35:00Z,KDSF 051135Z AUTO 12017KT 10SM FEW026 FEW031 26/20 A2993 RMK A01
KDSM,2022-11-05T11:54:00Z,KDSM 051154Z 33010G21KT 9SM -RA OVC006 04/04 A2940 RMK AO2 SLP962 P0020 60051 70216 T00440039 10044 20039 56041
KDSV,2022-11-05T11:54:00Z,KDSV 051154Z AUTO 14010KT 10SM CLR 17/12 A3006 RMK AO2 SLP186 T01670117 10172 20122 57008
KDTA,2022-11-05T11:55:00Z,KDTA 051155Z AUTO 17013KT 10SM CLR 01/M03 A3000 RMK AO1
KDTL,2022-11-05T11:55:00Z,KDTL 051155Z AUTO 13008KT 10SM CLR M03/M05 A2962 RMK AO2
KDTN,2022-11-05T11:53:00Z,KDTN 051153Z AUTO 26004KT 10SM CLR 12/08 A2992 RMK AO2 SLP130 70037 T01170078 10156 20117 53011
KDTO,2022-11-05T11:53:00Z,KDTO 051153Z 26004KT 10SM CLR 04/03 A2994 RMK AO2 SLP139 70113 T00440028 10078 20044 53014
KDTS,2022-11-05T11:53:00Z,KDTS 051153Z 09004KT 10SM BKN012 OVC020 22/19 A3000 RMK AO2 SLP159 T02220189 10233 20200 53010
KDTW,2022-11-05T11:53:00Z,KDTW 051153Z 18011KT 10SM FEW070 BKN230 16/08 A2983 RMK AO2 SLP101 T01610083 10167 20150 58004
KDUA,2022-11-05T11:55:00Z,KDUA 051155Z AUTO 29004KT 10SM CLR 05/04 A2992 RMK AO2
KDUB,2022-11-05T11:34:00Z,KDUB 051134Z AUTO 32014G22KT 7SM -SN OVC039 M01/M04 A2960 RMK AO2
KDUC,2022-11-05T11:35:00Z,KDUC 051135Z AUTO 29005KT 10SM CLR 02/02 A2989 RMK AO2 T00220017
KDUH,2022-11-05T11:55:00Z,KDUH 051155Z AUTO 18005KT 10SM CLR 16/08 A2984 RMK AO2 T01570077 10173 20156
KDUJ,2022-11-05T11:53:00Z,KDUJ 051153Z AUTO 15007KT 10SM BKN044 OVC055 16/12 A3009 RMK AO2 SLP184 T01560117 10156 20144 55005 $
KDUX,2022-11-05T11:35:00Z,KDUX 051135Z AUTO 22007KT 10SM CLR M03/M04 A2979 RMK AO2 T10281037
KDVK,2022-11-05T11:35:00Z,KDVK 051135Z AUTO 19013G18KT 10SM CLR 18/12 A2992 RMK AO2
KDVL,2022-11-05T10:56:00Z,KDVL 051056Z AUTO 16013KT 10SM CLR M01/M07 A2953 RMK AO2 SLP029 T10111067 FZRANO
KDVN,2022-11-05T11:52:00Z,KDVN 051152Z AUTO 16014G25KT 2 1/2SM -RA BR BKN007 OVC011 17/16 A2936 RMK AO2 SLP937 P0003 60015 70215 T01720161 10172 20128 58025
KDVO,2022-11-05T11:35:00Z,KDVO 051135Z AUTO 00000KT 10SM FEW020 BKN027 OVC032 13/13 A3020 RMK AO2
KDVP,2022-11-05T11:53:00Z,KDVP 051153Z AUTO 30005KT 10SM CLR M06/M07 A2960 RMK AO2 T10591075 11030 21059
KDVT,2022-11-05T11:53:00Z,KDVT 051153Z 05003KT 10SM CLR 07/02 A3009 RMK AO2 SLP182 T00670017 10100 20061 55013
KDWA,2022-11-05T11:30:00Z,KDWA 051130Z AUTO 13004KT 7SM BKN004 OVC026 12/11 A3019 RMK AO2
KDWH,2022-11-05T11:53:00Z,KDWH 051153Z AUTO 08005KT 10SM BKN060 14/13 A2993 RMK AO2 SLP134 60001 70014 T01440128 10156 20139 53010
KDWU,2022-11-05T10:56:00Z,KDWU 051056Z AUTO 08003KT 10SM CLR 14/13 A3000 RMK AO2 SLP158 T01390133
KDWX,2022-11-05T11:30:00Z,KDWX 051130Z AUTO 10SM SCT017 BKN033 OVC043 00/M03 A2988 RMK AO2 T10051026
KDXR,2022-11-05T11:53:00Z,KDXR 051153Z 22004KT 10SM OVC011 17/15 A3027 RMK AO2 SLP249 T01720150 10172 20139 51002
KDXX,2022-11-05T11:55:00Z,KDXX 051155Z AUTO 29003KT 10SM CLR M07/M09 A2964 RMK AO2
KDYA,2022-11-05T11:55:00Z,KDYA 051155Z AUTO 13007KT 10SM CLR 17/14 A2993 RMK AO2 T01710140 10171 20147
KDYB,2022-11-05T11:55:00Z,KDYB 051155Z AUTO 00000KT 1SM BR FEW020 SCT033 SCT040 18/18 A3010 RMK AO2
KDYL,2022-11-05T11:54:00Z,KDYL 051154Z AUTO VRB03KT 10SM OVC070 17/15 A3024 RMK AO2 SLP238 T01670150 10167 20139 50002
KDYR,2022-11-05T11:27:00Z,KDYR 051127Z AUTO 15012G19KT 10SM RA BKN014 OVC070 17/ A2979 RMK AO2 P0004
KDYS,2022-11-05T10:55:00Z,KDYS 051055Z AUTO 00000KT 10SM CLR 04/01 A2992 RMK AO2 SLP119 T00410011
KDYT,2022-11-05T11:55:00Z,KDYT 051155Z AUTO 07014G20KT 050V120 10SM OVC025 06/02 A2965 RMK AO2
KDZB,2022-11-05T11:55:00Z,KDZB 051155Z AUTO 27003KT 10SM CLR 08/01 A2994 RMK AO2 T00810006 10166 20078
KDZJ,2022-11-05T11:35:00Z,KDZJ 051135Z AUTO 12006KT 10SM -RA BKN024 OVC030 18/16 A3012 RMK AO2 T01790159
KE11,2022-11-05T11:35:00Z,KE11 051135Z AUTO 24005KT 10SM CLR 05/M05 A2996 RMK AO2 T00451048
KE16,2022-11-05T11:35:00Z,KE16 051135Z AUTO 00000KT 10SM OVC009 10/09 A3024 RMK AO2 PWINO PNO
KE38,2022-11-05T11:35:00Z,KE38 051135Z AUTO 24019KT 10SM CLR 06/M08 A3007 RMK AO2 T00551082
KE41,2022-11-05T11:35:00Z,KE41 051135Z AUTO 27006KT 10SM CLR 06/M05 A2999 RMK AO2 T00581046
KE42,2022-11-05T11:35:00Z,KE42 051135Z AUTO 24005KT 10SM CLR M03/M04 A2981 RMK AO2 T10351044
KEAN,2022-11-05T11:30:00Z,KEAN 051130Z AUTO 27029G44KT 10SM BKN110 07/M04 A2950 RMK AO2 T00701036
KEAR,2022-11-05T10:56:00Z,KEAR 051056Z AUTO 22003KT 10SM CLR M04/M07 A2964 RMK AO2 SLP052 T10441072 FZRANO
KEAT,2022-11-05T10:55:00Z,KEAT 051055Z AUTO 32010KT 10SM CLR 04/M01 A2952 RMK AO2 SLP003 T00391011
KEAU,2022-11-05T10:56:00Z,KEAU 051056Z 04007KT 5SM -RA BR BKN006 OVC010 04/03 A2957 RMK AO2 RAB18 SLP020 P0002 T00440033
KEBA,2022-11-05T11:35:00Z,KEBA 051135Z AUTO 11007KT 2SM BR OVC003 18/18 A3011 RMK AO2 VIS 1 1/2V3 T01830180
KEBG,2022-11-05T11:35:00Z,KEBG 051135Z AUTO 36013G17KT 10SM OVC027 21/07 A2990 RMK AO2 T02050074 PWINO
KEBS,2022-11-05T11:30:00Z,KEBS 051130Z AUTO 35017KT 3SM -RA OVC007 02/02 A2946 RMK AO2
KECG,2022-11-05T11:54:00Z,KECG 051154Z 00000KT 10SM BKN038 BKN045 17/17 A3022 RMK AO2 SLP234 T01720167 10194 20144 55001
KECP,2022-11-05T11:53:00Z,KECP 051153Z 05004KT 10SM FEW050 17/16 A3001 RMK AO1 SLP173 T01670156 10172 20150 53006
KECS,2022-11-05T11:55:00Z,KECS 051155Z AUTO 12005KT 10SM BKN080 00/M06 A2948 RMK AO2
KECU,2022-11-05T11:35:00Z,KECU 051135Z AUTO 32009KT 10SM CLR 11/M05 A3001 RMK AO2
KEDC,2022-11-05T11:35:00Z,KEDC 051135Z AUTO 01005KT 10SM BKN075 11/07 A2993 RMK AO2
KEDE,2022-11-05T11:55:00Z,KEDE 051155Z AUTO 00000KT 2SM BR CLR 16/16 A3022 RMK AO2 VIS 1V5 T01590159 10196 20153
KEDJ,2022-11-05T11:55:00Z,KEDJ 051155Z AUTO 19015KT 10SM CLR 16/10 A2989 RMK A01
KEDN,2022-11-05T11:35:00Z,KEDN 051135Z AUTO 10004KT 10SM CLR 16/15 A3003 RMK AO2 T01580151
KEDU,2022-11-05T11:35:00Z,KEDU 051135Z AUTO 20006KT 7SM BKN005 OVC026 13/12 A3018 RMK AO1
KEDW,2022-11-05T10:55:00Z,KEDW 051055Z 01004KT 30SM SCT250 03/M05 A3011 RMK AO2A SLP195 T00281054
KEED,2022-11-05T10:56:00Z,KEED 051056Z AUTO 16005KT 10SM CLR 10/M08 A3010 RMK AO2 SLP181 T01001078
KEEN,2022-11-05T10:56:00Z,KEEN 051056Z AUTO 00000KT 10SM BKN033 08/08 A3022 RMK AO2 SLP239 T00780078 $
KEEO,2022-11-05T11:53:00Z,KEEO 051153Z AUTO 21006KT 10SM OVC038 00/M06 A2994 RMK AO2 SLP145 T00001061 10000 21011 56019
KEET,2022-11-05T11:53:00Z,KEET 051153Z AUTO VRB04KT 10SM CLR 16/13 A2999 RMK AO2 SLP149 T01610128 10172 20133 58009
KEFD,2022-11-05T10:54:00Z,KEFD 051054Z 33004KT 10SM BKN050 16/14 A2989
KEFK,2022-11-05T11:55:00Z,KEFK 051155Z AUTO 17005KT 10SM CLR 11/10 A3013 RMK AO2 T01100097 10132 20102
KEFT,2022-11-05T11:55:00Z,KEFT 051155Z AUTO 17020G27KT 10SM OVC008 15/15 A2940 RMK AO2 60013 70150 T01520150 10152 20092
KEGE,2022-11-05T10:56:00Z,KEGE 051056Z AUTO 27013KT 10SM OVC042 00/M07 A2999 RMK AO2 SLP073 T00001072 FZRANO
KEGI,2022-11-05T10:55:00Z,KEGI 051055Z AUTO 14004KT 10SM CLR 18/16 A3000 RMK AO2 SLP159 T01830163 $
KEGT,2022-11-05T11:35:00Z,KEGT 051135Z AUTO 23006KT 10SM CLR 02/02 A2977 RMK AO2 T00230017
KEHA,2022-11-05T11:35:00Z,KEHA 051135Z AUTO 26012KT 10SM CLR M01/M03 A2976 RMK AO2 T10111031
KEHO,2022-11-05T11:55:00Z,KEHO 051155Z AUTO 16003KT 5SM BR OVC004 18/18 A3015 RMK AO2 T01780178 10179 20145
KEHR,2022-11-05T10:56:00Z,KEHR 051056Z AUTO 16012KT 10SM -RA FEW041 BKN075 OVC095 16/13 A2982 RMK AO2 TSB16E31 SLP096 P0008 T01610128
KEIK,2022-11-05T11:55:00Z,KEIK 051155Z AUTO 00000KT 10SM CLR 01/M04 A2961 RMK AO2 T00081040 10008 21026
KEKM,2022-11-05T11:55:00Z,KEKM 051155Z AUTO 17014G20KT 130V200 10SM -RA OVC095 17/10 A2970 RMK AO2 RAB1155 P0000 T01730105
KEKN,2022-11-05T11:51:00Z,KEKN 051151Z AUTO 17009G17KT 10SM CLR 19/12 A3010 RMK AO2 SLP189 T01890122 10194 20178 56003
KEKO,2022-11-05T10:56:00Z,KEKO 051056Z AUTO 22007KT 10SM OVC070 06/M01 A2996 RMK AO2 SLP144 T00561006 $
KEKQ,2022-11-05T10:56:00Z,KEKQ 051056Z AUTO 18017G21KT 10SM CLR 20/14 A2999 RMK AO2 PK WND 17026/1016 SLP143 T02000139
KEKS,2022-11-05T11:35:00Z,KEKS 051135Z AUTO 16019G27KT 10SM FEW060 FEW120 05/M03 A2948 RMK AO2
KEKX,2022-11-05T11:55:00Z,KEKX 051155Z AUTO 22012G15KT 10SM BKN080 OVC110 19/12 A2992 RMK AO2 T01920122 10192 20160
KEKY,2022-11-05T10:56:00Z,KEKY 051056Z AUTO 13006KT 10SM CLR 16/13 A3000 RMK AO2 SLP006 T01610128
KELA,2022-11-05T11:35:00Z,KELA 051135Z AUTO 10SM OVC050 15/14 A2991 RMK AO2 T01520139
KELD,2022-11-05T11:53:00Z,KELD 051153Z AUTO 22006KT 10SM CLR 12/11 A2988 RMK AO2 SLP117 60028 70173 T01170106 10144 20117 53007
KELK,2022-11-05T11:55:00Z,KELK 051155Z AUTO 21004KT 10SM CLR 00/M01 A2983 RMK AO2 SLP391 T00001007 $
KELM,2022-11-05T11:53:00Z,KELM 051153Z 29004KT 10SM BKN030 16/13 A3011 RMK AO2 SLP196 T01610133 10167 20100 56006
KELN,2022-11-05T11:53:00Z,KELN 051153Z AUTO 29020G35KT 10SM -RA BKN029 03/M01 A2964 RMK AO2 PK WND 31045/1102 SLP044 P0000 60008 70090 T00331006 10106 20033 51057
KELO,2022-11-05T11:55:00Z,KELO 051155Z AUTO 00000KT 10SM OVC013 M04/M04 A2970 RMK AO2
KELP,2022-11-05T11:51:00Z,KELP 051151Z 18003KT 10SM FEW250 06/M03 A3005 RMK AO2 SLP147 T00561033 10106 20039 56005
KELY,2022-11-05T10:53:00Z,KELY 051053Z AUTO 18006KT 10SM FEW095 M03/M04 A3006 RMK AO2 SLP170 T10281039
KELZ,2022-11-05T11:13:00Z,KELZ 051113Z AUTO 18010G22KT 10SM FEW008 16/11 A3010 RMK AO2 T01560111
KEMM,2022-11-05T11:35:00Z,KEMM 051135Z AUTO 7SM -SN OVC010 M01/M02 A2981 RMK AO2
KEMP,2022-11-05T11:53:00Z,KEMP 051153Z AUTO 30011G24KT 6SM -SN BR FEW008 OVC026 01/00 A2969 RMK AO2 PK WND 27040/1111 RAB04E30SNB30 SLP064 P0001 60033 70267 T00110000 10039 20011 51010
KEMV,2022-11-05T11:55:00Z,KEMV 051155Z AUTO 00000KT 1/4SM FG OVC026 11/11 A3023 RMK AO2 T01140114 10140 20114
KEND,2022-11-05T10:55:00Z,KEND 051055Z AUTO 19006KT 10SM CLR 01/00 A2979 RMK AO2 SLP097 T00130003 $
KENV,2022-11-05T10:56:00Z,KENV 051056Z AUTO 06009KT 10SM BKN095 04/M03 A2993 RMK AO2 SLP137 T00441028
KENW,2022-11-05T11:53:00Z,KENW 051153Z AUTO 18018G31KT 10SM OVC018 18/14 A2950 RMK AO2 PK WND 17036/1139 SLP989 60011 70056 T01780144 10194 20172 56025
KEOE,2022-11-05T11:55:00Z,KEOE 051155Z AUTO 00000KT 1/2SM FG OVC002 17/17 A3017 RMK AO2
KEOK,2022-11-05T11:35:00Z,KEOK 051135Z AUTO 19013G28KT 3SM BR SCT005 BKN008 OVC012 17/17 A2933 RMK A01
KEPH,2022-11-05T11:53:00Z,KEPH 051153Z AUTO 27026G37KT 10SM FEW007 07/M07 A2951 RMK AO2 PK WND 28037/1148 SLP995 60000 T00721067 10133 20067 51045 $
KEQA,2022-11-05T11:35:00Z,KEQA 051135Z AUTO 27004KT 10SM SCT090 SCT110 03/02 A2972 RMK AO2
KEQY,2022-11-05T11:53:00Z,KEQY 051153Z AUTO 00000KT 6SM BR OVC002 19/18 A3016 RMK AO2 SLP214 T01890183 10189 20172 55002
KERI,2022-11-05T11:51:00Z,KERI 051151Z 17011G20KT 10SM CLR 16/10 A2997 RMK AO2 SLP148 60000 T01610100 10189 20161 55004 $
KERV,2022-11-05T11:55:00Z,KERV 051155Z AUTO 00000KT 10SM CLR 07/00 A2996 RMK AO2 T00660002 10124 20061
KERY,2022-11-05T11:35:00Z,KERY 051135Z AUTO 35005KT 2SM BR OVC003 06/05 A2962 RMK AO2 T00560053 P0009
KESC,2022-11-05T11:13:00Z,KESC 051113Z AUTO 01008KT 10SM OVC008 04/04 A2961 RMK AO2 PNO $
KESF,2022-11-05T11:53:00Z,KESF 051153Z AUTO 11004KT 7SM RA BKN100 BKN110 12/11 A2993 RMK AO2 SLP133 P0014 60142 70147 T01170111 10239 20117 53007 $
KESN,2022-11-05T11:50:00Z,KESN 051150Z 14003KT 10SM CLR 17/16 A3027
KEST,2022-11-05T11:52:00Z,KEST 051152Z AUTO 34009KT 10SM CLR M02/M04 A2954 RMK AO2 SLP017 T10171039 11011 21028 56030
KETB,2022-11-05T11:55:00Z,KETB 051155Z AUTO 08004KT 5SM -RA OVC003 08/08 A2949 RMK AO2
KETC,2022-11-05T11:35:00Z,KETC 051135Z AUTO 00000KT M1/4SM FG 12/12 A3021 RMK AO2 T01160115
KETH,2022-11-05T11:53:00Z,KETH 051153Z AUTO 00000KT 10SM M11/M12 A2964 RMK AO2
KETN,2022-11-05T11:35:00Z,KETN 051135Z AUTO 10SM CLR 01/00 A2994 RMK AO2 T00090003
KEUF,2022-11-05T10:58:00Z,KEUF 051058Z AUTO 00000KT 10SM CLR 14/13 A3005 RMK AO2 SLP173 T01390128
KEUG,2022-11-05T11:54:00Z,KEUG 051154Z AUTO VRB03KT 10SM BKN021 BKN030 OVC038 11/09 A2995 RMK AO2 RAE1055 SLP142 P0000 60034 70105 T01110089 10144 20111 53041
KEVB,2022-11-05T10:47:00Z,KEVB 051047Z 12006KT 10SM SCT020 23/22 A2999 RMK FIRST
KEVM,2022-11-05T11:41:00Z,KEVM 051141Z AUTO 00000KT 10SM SCT015 M07/M08 A2969 RMK AO2
KEVU,2022-11-05T11:55:00Z,KEVU 051155Z AUTO 30013G18KT 4SM RA BKN006 OVC010 03/03 A2952 RMK AO2 P0013 T00370032
KEVV,2022-11-05T11:54:00Z,KEVV 051154Z 17010G17KT 8SM -RA FEW050 BKN100 BKN120 17/13 A2980 RMK AO2 SLP089 P0004 60014 70014 T01670133 10206 20161 56022
KEVW,2022-11-05T11:53:00Z,KEVW 051153Z AUTO 22019G25KT 6SM BR SCT002 BKN020 OVC043 M01/M02 A2987 RMK AO2 PK WND 22031/1120 SNE15B24E51 SLP123 P0000 60000 T10111022 11011 21028 58007 $
KEWB,2022-11-05T11:53:00Z,KEWB 051153Z 20003KT 9SM -RA SCT037 BKN050 OVC070 17/16 A3028 RMK AO2 RAB51 SLP253 P0000 60000 T01720156 10172 20150 53005
KEWK,2022-11-05T10:56:00Z,KEWK 051056Z AUTO 25005KT 10SM FEW080 BKN100 02/02 A2973 RMK AO2 SLP075 T00170017 FZRANO
KEWN,2022-11-05T11:54:00Z,KEWN 051154Z 00000KT 1/2SM FG VV010 14/13 A3020 RMK AO2 SLP227 70006 T01390133 10172 20133 55003 $
KEWR,2022-11-05T11:51:00Z,KEWR 051151Z 20004KT 10SM BKN070 17/16 A3025 RMK AO2 SLP244 T01720156 10178 20161 50003
KEXX,2022-11-05T11:55:00Z,KEXX 051155Z AUTO 15003KT 2 1/2SM -RA OVC003 19/19 A3016 RMK AO2 70001 T01850185 10185 20171
KEYE,2022-11-05T11:53:00Z,KEYE 051153Z AUTO 18012G25KT 8SM RA SCT095 OVC120 17/12 A2979 RMK AO2 RAB09 SLP082 P0002 60002 70002 T01670117 10194 20167 50004 $
KEYF,2022-11-05T11:55:00Z,KEYF 051155Z AUTO 00000KT 1/2SM FG BKN003 OVC008 17/17 A3018 RMK AO2 T01730172 10190 20167 60001 70005
KEYW,2022-11-05T11:53:00Z,KEYW 051153Z 05004KT 10SM CLR 24/22 A2992 RMK AO2 SLP132 T02440222 10256 20244 53002
KEZF,2022-11-05T11:55:00Z,KEZF 051155Z AUTO 00000KT 2SM BR OVC028 14/14 A3019 RMK AO2 VIS 3/4V5 T01400140 10185 20133
KEZM,2022-11-05T11:55:00Z,KEZM 051155Z AUTO 00000KT 1/4SM FG OVC002 13/13 A3008 RMK AO2
KEZP,2022-11-05T11:35:00Z,KEZP 051135Z AUTO 22016KT 10SM FEW014 SCT019 OVC120 27/24 A2987 RMK A01
KEZS,2022-11-05T11:55:00Z,KEZS 051155Z AUTO 04010G16KT 5SM -DZ OVC005 06/06 A2957 RMK AO2 60008 70062 T00550055 10070 20055
KEZZ,2022-11-05T11:35:00Z,KEZZ 051135Z AUTO 27011KT 2SM -DZ BR OVC004 04/04 A2950 RMK AO2 T00400038
KF00,2022-11-05T11:35:00Z,KF00 051135Z AUTO 29005KT 10SM CLR 05/04 A2992 RMK AO2 T00530036
KF05,2022-11-05T11:55:00Z,KF05 051155Z AUTO 23007KT 10SM CLR 03/02 A2991 RMK AO2 70018 T00320023 10056 20032
KF17,2022-11-05T11:55:00Z,KF17 051155Z AUTO 00000KT 10SM BKN085 12/11 A2993 RMK AO2
KF44,2022-11-05T11:35:00Z,KF44 051135Z AUTO 00000KT 10SM CLR 08/06 A2992 RMK AO2
KF45,2022-11-05T11:00:00Z,KF45 051100Z AUTO 10SM 20/20 RMK AO2 PWINO TSNO
KF46,2022-11-05T11:35:00Z,KF46 051135Z AUTO 31006KT 10SM CLR 07/04 A2993 RMK AO2 T00720035
KF70,2022-11-05T11:55:00Z,KF70 051155Z AUTO 00000KT 10SM CLR 07/M01 A3011 RMK AO2
KFAF,2022-11-05T11:55:00Z,KFAF 051155Z AUTO 13003KT 10SM CLR 16/15 A3020 RMK AO2 SLP230 T01580148 10173 20151 50002 $
KFAM,2022-11-05T11:51:00Z,KFAM 051151Z AUTO 19022G33KT 6SM -RA BR SCT009 BKN014 OVC033 18/16 A2956 RMK AO2 PK WND 19033/1147 RAB04 P0007
KFAR,2022-11-05T11:53:00Z,KFAR 051153Z 15005KT 10SM CLR M05/M08 A2962 RMK AO2 SLP042 T10501083 11039 21072 56029
KFAT,2022-11-05T11:53:00Z,KFAT 051153Z 00000KT 10SM SCT200 07/03 A3022 RMK AO2 SLP232 T00720033 10100 20067 56021
KFAY,2022-11-05T11:53:00Z,KFAY 051153Z 08003KT 2 1/2SM BR OVC036 18/18 A3017 RMK AO2 SLP211 60001 70002 T01780178 10189 20167 51002
KFBG,2022-11-05T11:45:00Z,KFBG 051145Z AUTO 00000KT 2 1/4SM BR FEW029 SCT036 18/17 A3015 RMK AO2 VIS 2 1/4V3 SLP211 $
KFBL,2022-11-05T11:55:00Z,KFBL 051155Z AUTO 36008KT 10SM SCT009 OVC110 01/00 A2954 RMK AO2
KFCI,2022-11-05T11:16:00Z,KFCI 051116Z AUTO 00000KT 10SM OVC026 13/ A3022 RMK AO2
KFCM,2022-11-05T11:53:00Z,KFCM 051153Z 02005KT 10SM CLR 01/M02 A2956 RMK AO2 SLP015 T00061022 10022 20000 56036
KFCS,2022-11-05T10:55:00Z,KFCS 051055Z AUTO 00000KT 10SM CLR M04/M08 A2969 RMK AO2 SLP085 T10391084 $
KFDK,2022-11-05T11:47:00Z,KFDK 051147Z 00000KT 5SM BR OVC016 18/18 A3019
KFDR,2022-11-05T10:53:00Z,KFDR 051053Z AUTO 23007KT 10SM CLR 03/01 A2987 RMK AO2 SLP115 T00330011
KFDW,2022-11-05T11:55:00Z,KFDW 051155Z AUTO 11005KT 7SM OVC002 18/17 A3014 RMK AO1
KFDY,2022-11-05T11:53:00Z,KFDY 051153Z AUTO 16014KT 10SM CLR 17/10 A2983 RMK AO2 SLP096 T01670100 10167 20150 58010
KFEP,2022-11-05T11:35:00Z,KFEP 051135Z AUTO 16018G26KT 10SM OVC011 16/16 A2944 RMK AO2 T01580157
KFET,2022-11-05T11:55:00Z,KFET 051155Z AUTO 28009KT 10SM CLR M02/M04 A2959 RMK AO2 T10201042 10000 21023
KFFA,2022-11-05T11:55:00Z,KFFA 051155Z AUTO 12004KT 5SM BR CLR 18/17 A3022 RMK AO2 T01750165 10342 20072
KFFC,2022-11-05T11:53:00Z,KFFC 051153Z AUTO 13005KT 8SM OVC006 17/15 A3008 RMK AO2 CIG 003V007 SLP185 T01670150 10167 20122 53001
KFFL,2022-11-05T11:35:00Z,KFFL 051135Z AUTO 30009KT 5SM BR OVC003 08/08 A2935 RMK A01
KFFM,2022-11-05T11:55:00Z,KFFM 051155Z AUTO 10005KT 10SM CLR M03/M06 A2960 RMK AO2
KFFO,2022-11-05T10:55:00Z,KFFO 051055Z 17016KT 10SM BKN250 17/10 A2987 RMK AO2A SLP114 T01720101
KFFT,2022-11-05T11:53:00Z,KFFT 051153Z AUTO 17009KT 10SM CLR 18/13 A2988 RMK AO2 SLP112 T01780128 10178 20161 56020
KFFX,2022-11-05T11:55:00Z,KFFX 051155Z AUTO 14021G27KT 10SM RA SCT065 BKN090 OVC110 17/13 A2953 RMK AO2 T01720130 10204 20161
KFFZ,2022-11-05T10:54:00Z,KFFZ 051054Z 07003KT 10SM CLR 09/02 A3009 RMK AO2 SLP179 T00890022
KFGN,2022-11-05T11:55:00Z,KFGN 051155Z AUTO 17017KT 10SM CLR 01/M03 A2965 RMK AO2
KFGX,2022-11-05T11:35:00Z,KFGX 051135Z AUTO 18012G16KT 10SM CLR 17/11 A2997 RMK AO2 T01650106
KFHB,2022-11-05T11:35:00Z,KFHB 051135Z AUTO 14007KT 7SM BR SCT028 SCT038 BKN050 23/21 A3004 RMK AO2
KFHR,2022-11-05T11:53:00Z,KFHR 051153Z AUTO 00000KT 10SM CLR 05/01 A2971 RMK AO2 SLP060 70026 T00500011 10094 20044 53025
KFHU,2022-11-05T10:55:00Z,KFHU 051055Z AUTO 00000KT 10SM CLR 03/M01 A3012 RMK AO2 SLP187 T00251008
KFIG,2022-11-05T11:54:00Z,KFIG 051154Z AUTO 36004KT 10SM CLR 10/09 A3013 RMK AO2 SLP204 T01000089 10156 20094 55006
KFIN,2022-11-05T11:35:00Z,KFIN 051135Z AUTO 11003KT 10SM 21/20 A3001 RMK AO2 T02100202
KFIT,2022-11-05T11:52:00Z,KFIT 051152Z AUTO 00000KT 9SM BKN022 13/11 A3024 RMK AO2 SLP241 T01330111 10172 20100 55000
KFKA,2022-11-05T11:55:00Z,KFKA 051155Z AUTO 01008KT 3SM BR OVC002 04/03 A2949 RMK AO2 70001 T00360031 10036 20028
KFKL,2022-11-05T10:56:00Z,KFKL 051056Z AUTO 16010KT 10SM CLR 14/11 A3005 RMK AO2 SLP173 T01390106
KFKN,2022-11-05T11:35:00Z,KFKN 051135Z AUTO 00000KT 10SM SCT019 SCT026 11/11 A3022 RMK AO2 T01110108
KFKR,2022-11-05T11:35:00Z,KFKR 051135Z AUTO 17015G24KT 5SM -RA HZ FEW038 SCT050 BKN060 16/12 A2974 RMK AO2
KFKS,2022-11-05T11:55:00Z,KFKS 051155Z AUTO 18010G16KT 7SM DZ BKN017 OVC023 16/15 A2955 RMK AO2 T01580147 10158 20106
KFLD,2022-11-05T11:53:00Z,KFLD 051153Z AUTO 03008KT 10SM -RA BKN007 OVC012 09/07 A2950 RMK AO2 CIG 005V009 SLP990 P0013 60049 70157 T00890067 10100 20089 58024
KFLG,2022-11-05T10:57:00Z,KFLG 051057Z AUTO 35003KT 10SM CLR 03/M04 A3011 RMK AO2 SLP160 T00281044
KFLL,2022-11-05T11:53:00Z,KFLL 051153Z 09008KT 10SM SCT035 25/20 A2992 RMK AO2 SLP131 60001 70001 T02500200 10261 20239 53003 $
KFLO,2022-11-05T11:53:00Z,KFLO 051153Z 00000KT M1/4SM FG FEW002 OVC018 17/17 A3015 RMK AO2 SLP206 T01720167 10183 20167 50002
KFLP,2022-11-05T10:56:00Z,KFLP 051056Z AUTO 26013KT 10SM CLR 09/06 A2976 RMK AO2 SLP072 T00890056
KFLY,2022-11-05T11:55:00Z,KFLY 051155Z AUTO 00000KT 10SM CLR M02/M09 A2970 RMK AO2 T10231086 11017 21067
KFME,2022-11-05T11:39:00Z,KFME 051139Z AUTO 00000KT 7SM CLR 12/11 A3024 RMK AO1
KFMH,2022-11-05T11:45:00Z,KFMH 051145Z 20010KT 10SM BKN065 17/16 A3029
KFMM,2022-11-05T11:35:00Z,KFMM 051135Z AUTO 28009KT 10SM CLR M05/M11 A2963 RMK AO2
KFMN,2022-11-05T11:53:00Z,KFMN 051153Z 03003KT 10SM CLR M02/M07 A3007 RMK AO2 SLP194 T10171072 10011 21022 55005
KFMY,2022-11-05T11:53:00Z,KFMY 051153Z 04005KT 10SM CLR 21/19 A2995 RMK AO2 SLP145 T02110194 10222 20206 53004
KFNB,2022-11-05T11:53:00Z,KFNB 051153Z AUTO 28016G27KT 4SM -SN BR BKN035 OVC045 02/00 A2958 RMK AO2 PK WND 29027/1144 RAE43SNB43 SLP022 P0012 60052 70220 T00170000 10033 20017 53017
KFNL,2022-11-05T10:56:00Z,KFNL 051056Z 14004KT 10SM CLR M03/M04 A2963 RMK AO2 SLP037 T10281044 FZRANO
KFNT,2022-11-05T11:53:00Z,KFNT 051153Z 18012G20KT 10SM OVC075 17/09 A2977 RMK AO2 SLP079 T01720094 10189 20172 58004
KFOA,2022-11-05T11:35:00Z,KFOA 051135Z AUTO 17025G32KT 10SM -RA OVC015 16/15 A2969 RMK AO2 P0002
KFOD,2022-11-05T11:44:00Z,KFOD 051144Z AUTO 35008KT 10SM -RA FEW009 BKN015 OVC085 02/01 A2950 RMK AO2 P0001 FZRANO
KFOE,2022-11-05T11:53:00Z,KFOE 051153Z 29018G26KT 9SM -RA OVC010 03/02 A2962 RMK AO2 PK WND 28032/1122 CIG 007V013 SLP037 P0005 6//// 7//// T00280022 10039 20028 53014 $
KFOK,2022-11-05T11:53:00Z,KFOK 051153Z 22004KT 10SM OVC070 18/17 A3030 RMK AO2 SLP259 60000 T01780167 10183 20167 51004
KFOT,2022-11-05T11:25:00Z,KFOT 051125Z AUTO 11006KT 3SM FEW004 BKN009 OVC024 12/12 A3012 RMK AO1 P0002
KFOZ,2022-11-05T11:53:00Z,KFOZ 051153Z AUTO 00000KT 10SM CLR M09/M11 A2973 RMK AO2
KFPK,2022-11-05T11:55:00Z,KFPK 051155Z AUTO 18016G19KT 10SM BKN065 OVC075 17/09 A2972 RMK AO2 T01670086 10180 20167
KFPR,2022-11-05T11:53:00Z,KFPR 051153Z 10008KT 10SM FEW030 SCT039 25/21 A2996 RMK AO2 SLP144 T02500211 10256 20233 53002
KFPY,2022-11-05T11:35:00Z,KFPY 051135Z AUTO 08004KT 5SM BR OVC003 18/18 A3003 RMK AO2 T01830176 TSNO
KFQD,2022-11-05T11:35:00Z,KFQD 051135Z AUTO 15005KT 1/2SM FG OVC003 17/17 A3016 RMK AO2
KFRG,2022-11-05T11:53:00Z,KFRG 051153Z 19006KT 10SM OVC070 17/16 A3027 RMK AO2 SLP250 T01720161 10172 20156 51001
KFRH,2022-11-05T11:55:00Z,KFRH 051155Z AUTO 18011G19KT 7SM SCT045 SCT065 OVC085 17/11 A2984 RMK AO1
KFRI,2022-11-05T10:55:00Z,KFRI 051055Z AUTO 25005KT 10SM CLR 03/01 A2969 RMK AO2 RAE27 SLP059 P0001 T00310010 FZRANO $
KFRM,2022-11-05T10:56:00Z,KFRM 051056Z AUTO 34009KT 10SM CLR M02/M03 A2958 RMK AO2 SLP031 T10221033 FZRANO
KFRR,2022-11-05T11:55:00Z,KFRR 051155Z AUTO 00000KT 10SM SCT017 BKN036 OVC042 14/13 A3016 RMK AO1
KFSD,2022-11-05T10:56:00Z,KFSD 051056Z 00000KT 10SM CLR M04/M08 A2962 RMK AO2 SLP044 T10441078
KFSE,2022-11-05T11:55:00Z,KFSE 051155Z AUTO 13004KT 10SM CLR M05/M08 A2963 RMK AO2
KFSI,2022-11-05T10:55:00Z,KFSI 051055Z AUTO 34003KT 10SM CLR 04/02 A2984 RMK AO2 SLP107 T00380017
KFSK,2022-11-05T11:35:00Z,KFSK 051135Z AUTO 25014G19KT 10SM -RA OVC010 03/02 A2968 RMK AO2 T00310020
KFSM,2022-11-05T11:53:00Z,KFSM 051153Z 24007KT 10SM BKN016 OVC022 08/07 A2984 RMK AO2 SLP101 70193 T00830072 10089 20083 53009
KFSO,2022-11-05T11:55:00Z,KFSO 051155Z AUTO 19008KT 10SM CLR 17/13 A3008 RMK AO2 T01650125 10175 20165
KFST,2022-11-05T11:53:00Z,KFST 051153Z AUTO 22012KT 10SM CLR 08/M07 A2998 RMK AO2 SLP126 T00831072 10083 20067 55006
KFSW,2022-11-05T11:35:00Z,KFSW 051135Z AUTO 16009G15KT 7SM -RA 17/17 A2932 RMK AO2 P0004
KFTK,2022-11-05T11:55:00Z,KFTK 051155Z AUTO 20009KT 10SM OVC090 19/12 A2990 RMK AO2 SLP123 T01900120 10190 20171 53009 $
KFTN,2022-11-05T11:35:00Z,KFTN 051135Z AUTO 30004KT 10SM OVC075 15/02 A2998 RMK A01
KFTW,2022-11-05T11:53:00Z,KFTW 051153Z 00000KT 10SM CLR 06/04 A2994 RMK AO2 SLP138 70074 T00560039 10089 20056 53012
KFTY,2022-11-05T11:53:00Z,KFTY 051153Z 13006KT 10SM OVC007 18/17 A3008 RMK AO2 SLP179 T01830172 10183 20178 53003
KFUL,2022-11-05T11:53:00Z,KFUL 051153Z AUTO 00000KT 10SM CLR 09/03 A3009 RMK AO2 SLP188 T00940033 10139 20094 56017
KFVE,2022-11-05T11:53:00Z,KFVE 051153Z AUTO 20006KT 10SM CLR 12/06 A3002 RMK AO2 SLP167 T01170061 10117 20089 53004
KFVX,2022-11-05T11:55:00Z,KFVX 051155Z AUTO 00000KT 1/4SM FG OVC003 17/17 A3019 RMK AO2 T01650165 10168 20159
KFWA,2022-11-05T11:54:00Z,KFWA 051154Z 19017G25KT 10SM FEW070 FEW100 BKN220 OVC250 17/09 A2980 RMK AO2 PK WND 20026/1142 SLP088 T01720094 10178 20144 58005
KFWB,2022-11-05T11:55:00Z,KFWB 051155Z AUTO 23014G21KT 10SM BKN013 BKN020 OVC038 06/05 A2973 RMK AO2
KFWC,2022-11-05T11:35:00Z,KFWC 051135Z AUTO 16017G30KT 10SM -RA BKN015 BKN041 OVC120 15/15 A2971 RMK AO1 P0002 T01510147
KFWN,2022-11-05T11:53:00Z,KFWN 051153Z AUTO 00000KT 10SM SCT016 OVC070 14/12 A3024 RMK AO2 SLP241 T01440122 10144 20122 58001
KFWS,2022-11-05T11:51:00Z,KFWS 051151Z 26003KT 10SM CLR 06/04 A2996
KFWZ,2022-11-05T11:35:00Z,KFWZ 051135Z AUTO 25016G31KT 4SM -SN OVC012 M02/M03 A2960 RMK AO2
KFXE,2022-11-05T11:53:00Z,KFXE 051153Z 08007KT 10SM SCT025 23/19 A2993 RMK AO2 SLP136 60000 T02330194 10244 20222 53003 $
KFXY,2022-11-05T11:35:00Z,KFXY 051135Z AUTO 34009KT 10SM -DZ OVC018 01/00 A2951 RMK AO2
KFYE,2022-11-05T11:30:00Z,KFYE 051130Z AUTO 18013G19KT 140V200 5SM BR SCT036 SCT070 OVC110 17/16 A2983 RMK A01
KFYG,2022-11-05T11:55:00Z,KFYG 051155Z AUTO 25009G22KT 10SM FEW020 SCT041 BKN055 12/12 A2953 RMK AO2
KFYJ,2022-11-05T11:55:00Z,KFYJ 051155Z AUTO 00000KT 7SM CLR 12/12 A3023 RMK AO1 T01220119 10163 20119
KFYM,2022-11-05T11:40:00Z,KFYM 051140Z AUTO 16019KT 10SM FEW028 SCT100 18/13 A2995 RMK A01
KFYV,2022-11-05T11:53:00Z,KFYV 051153Z 24007KT 8SM OVC009 07/05 A2979 RMK AO2 RAE52 CIG 007V012 SLP083 P0001 60001 70111 T00670050 10083 20061 53010
KFZG,2022-11-05T11:35:00Z,KFZG 051135Z AUTO 00000KT 1/2SM OVC002 16/16 A3007 RMK AO2 T01630157
KFZY,2022-11-05T10:54:00Z,KFZY 051054Z AUTO 19010KT 10SM CLR 18/12 A3006 RMK AO2 SLP179 T01780117
KGAD,2022-11-05T11:49:00Z,KGAD 051149Z AUTO 00000KT 10SM SCT021 13/12 A3002 RMK AO2 $
KGAF,2022-11-05T11:35:00Z,KGAF 051135Z AUTO 16007KT 9SM CLR M08/M10 A2961 RMK AO2
KGAG,2022-11-05T11:53:00Z,KGAG 051153Z AUTO 21003KT 10SM CLR 00/M02 A2980 RMK AO2 SLP102 70041 T00001017 10022 20000 58007 $
KGAI,2022-11-05T10:56:00Z,KGAI 051056Z AUTO 15007KT 10SM FEW010 BKN041 OVC060 17/16 A3021 RMK AO2 SLP243 T01720161
KGAO,2022-11-05T11:55:00Z,KGAO 051155Z AUTO 15007KT 10SM SCT045 OVC050 26/23 A2990 RMK AO2 T02580233 10260 20255
KGBD,2022-11-05T10:56:00Z,KGBD 051056Z AUTO 28009KT 10SM CLR 00/M02 A2973 RMK AO2 SLP079 T00001022 FZRANO
KGBG,2022-11-05T11:35:00Z,KGBG 051135Z AUTO 16017G23KT 10SM OVC012 17/17 A2939 RMK AO2 T01730167
KGBK,2022-11-05T11:35:00Z,KGBK 051135Z AUTO 17017KT 6SM HZ CLR 27/24 A2986 RMK A01
KGCC,2022-11-05T11:53:00Z,KGCC 051153Z AUTO 22022G31KT 10SM OVC085 04/M04 A2937 RMK AO2 PK WND 23036/1128 SLP950 T00441039 10044 20017 56031
KGCD,2022-11-05T11:35:00Z,KGCD 051135Z AUTO 23023G33KT 10SM BKN041 OVC049 09/04 A2964 RMK AO2 T00890038
KGCK,2022-11-05T11:54:00Z,KGCK 051154Z AUTO 24007KT 10SM CLR M06/M07 A2972 RMK AO2 SLP080 T10561067 11022 21056 56020
KGCM,2022-11-05T11:35:00Z,KGCM 051135Z AUTO 26007KT 10SM BKN021 OVC026 05/02 A2983 RMK AO2
KGCN,2022-11-05T11:54:00Z,KGCN 051154Z AUTO 00000KT 10SM CLR M06/M07 A3013 RMK AO2 SLP200 T10561067 11039 21056 56016
KGCY,2022-11-05T11:35:00Z,KGCY 051135Z AUTO VRB05G13KT 10SM BKN035 BKN044 BKN050 20/15 A3006 RMK A01
KGDB,2022-11-05T11:35:00Z,KGDB 051135Z AUTO 00000KT 10SM CLR M08/M09 A2964 RMK AO2 T10761090
KGDJ,2022-11-05T11:55:00Z,KGDJ 051155Z AUTO 16003KT 10SM CLR 05/03 A2997 RMK AO2 70018 T00460033 10085 20046
KGDV,2022-11-05T10:56:00Z,KGDV 051056Z AUTO 18013KT 10SM OVC070 06/M06 A2926 RMK AO2 SLP916 T00561056
KGED,2022-11-05T11:54:00Z,KGED 051154Z AUTO 16004KT 1SM BR VV020 14/13 A3025 RMK AO2 SLP243 T01390133 10172 20133 50002
KGEG,2022-11-05T11:53:00Z,KGEG 051153Z 27026G35KT 10SM FEW050 03/M05 A2939 RMK AO2 PK WND 26036/1107 SLP957 60000 70058 T00331050 10100 20033 $
KGEV,2022-11-05T11:35:00Z,KGEV 051135Z AUTO 16006G15KT 10SM DZ OVC008 15/14 A3019 RMK AO2 P0001 T01460140
KGEY,2022-11-05T11:53:00Z,KGEY 051153Z AUTO 18005KT 10SM CLR M02/M05 A2946 RMK AO2 SLP997 T10171050 11006 21028 56034
KGEZ,2022-11-05T11:53:00Z,KGEZ 051153Z AUTO 16011KT 10SM BKN090 18/11 A2984 RMK AO2 SLP100 T01780106 10194 20172 50009 $
KGFA,2022-11-05T10:55:00Z,KGFA 051055Z AUTO 21026G33KT 10SM FEW070 FEW230 10/M01 A2905 RMK AO2 PK WND 21035/28 PRESFR SLP847 T01041007 $
KGFK,2022-11-05T11:53:00Z,KGFK 051153Z 15009KT 10SM CLR M07/M11 A2960 RMK AO2 SLP036 T10721106 11044 21078 56030
KGFL,2022-11-05T11:53:00Z,KGFL 051153Z AUTO 00000KT 10SM BKN045 09/08 A3016 RMK AO2 SLP215 T00890078 10122 20083 58008
KGGE,2022-11-05T11:55:00Z,KGGE 051155Z AUTO 11003KT 7SM CLR 19/18 A3013 RMK AO2
KGGF,2022-11-05T11:35:00Z,KGGF 051135Z AUTO 25010KT 10SM CLR M04/M09 A2960 RMK AO2
KGGG,2022-11-05T11:53:00Z,KGGG 051153Z 27003KT 10SM CLR 09/07 A2992 RMK AO2 SLP128 60000 70056 T00890067 10133 20089 53009
KGGI,2022-11-05T11:35:00Z,KGGI 051135Z AUTO 36014G23KT 7SM RA OVC005 06/06 A2939 RMK AO2 T00630058
KGGP,2022-11-05T11:35:00Z,KGGP 051135Z AUTO 18014KT 10SM -RA SCT080 OVC100 16/11 A2975 RMK AO2
KGGW,2022-11-05T11:53:00Z,KGGW 051153Z AUTO 14012KT 10SM OVC100 07/M01 A2909 RMK AO2 SLP861 T00671011 10072 20039 56040
KGHB,2022-11-05T11:35:00Z,KGHB 051135Z AUTO 16008G15KT 6SM HZ FEW018 SCT024 27/24 A2987 RMK A01
KGHG,2022-11-05T11:35:00Z,KGHG 051135Z AUTO 21005KT 10SM 16/14 A3026 RMK AO2
KGHW,2022-11-05T11:55:00Z,KGHW 051155Z AUTO 03007KT 10SM CLR M06/M07 A2961 RMK AO2
KGIC,2022-11-05T11:35:00Z,KGIC 051135Z AUTO 21026G33KT 7SM SCT034 BKN043 OVC049 07/04 A2941 RMK AO1
KGIF,2022-11-05T11:53:00Z,KGIF 051153Z AUTO 34003KT 10SM CLR 21/20 A3001 RMK AO2 SLP159 T02110200 10211 20200 53005
KGJT,2022-11-05T11:53:00Z,KGJT 051153Z 10008KT 10SM OVC065 02/M03 A3001 RMK AO2 SLP158 T00221028 10022 20017 58019
KGKJ,2022-11-05T11:53:00Z,KGKJ 051153Z AUTO VRB04KT 10SM CLR 15/10 A3002 RMK AO2 SLP161 T01500100 10161 20150 55005
KGKT,2022-11-05T11:35:00Z,KGKT 051135Z AUTO 00000KT 10SM FEW050 BKN060 12/10 A3005 RMK A01
KGKY,2022-11-05T11:53:00Z,KGKY 051153Z AUTO 26004KT 10SM CLR 06/04 A2994 RMK AO2 SLP138 70081 T00610044 10100 20056 53007
KGLD,2022-11-05T11:53:00Z,KGLD 051153Z AUTO 24013KT 10SM CLR 01/M06 A2964 RMK AO2 SLP046 T00061056 10006 21039 56029
KGLE,2022-11-05T11:35:00Z,KGLE 051135Z AUTO 30005KT 10SM CLR 04/02 A2993 RMK AO2 T00400024
KGLH,2022-11-05T11:53:00Z,KGLH 051153Z 20008KT 10SM SCT100 SCT120 13/11 A2987 RMK AO2 RAE38 SLP122 P0004 60134 70134 T01280106 10233 20128 53004
KGLR,2022-11-05T11:53:00Z,KGLR 051153Z AUTO 18014G23KT 9SM -RA OVC012 15/13 A2962 RMK AO2 PK WND 18026/1139 SLP029 P0003 60039 70116 T01500128 10150 20139 56024
KGLS,2022-11-05T11:52:00Z,KGLS 051152Z 05006KT 10SM BKN055 17/14 A2993 RMK AO2 RAE07 SLP133 P0000 60059 70060 T01670139 10250 20161 53013
KGLW,2022-11-05T11:35:00Z,KGLW 051135Z AUTO 17016G22KT 10SM CLR 20/14 A2988 RMK AO2 T02000135
KGLX,2022-11-05T11:35:00Z,KGLX 051135Z AUTO 00000KT 10SM SCT021 BKN033 OVC065 25/22 A2993 RMK A01
KGLY,2022-11-05T11:55:00Z,KGLY 051155Z AUTO 23014G26KT 3SM -RA BR SCT013 BKN022 OVC039 05/04 A2959 RMK AO2
KGMJ,2022-11-05T11:35:00Z,KGMJ 051135Z AUTO 26012G18KT 10SM OVC017 M00/M04 A2977 RMK AO2
KGMU,2022-11-05T11:50:00Z,KGMU 051150Z 14007KT 1 3/4SM BR OVC002 18/18 A3014 RMK AO2 SLP201 60011 70011 T01830178 10194 20183 56002
KGNA,2022-11-05T10:56:00Z,KGNA 051056Z AUTO 04005KT 01/M03 A2974 RMK AO1 SLP079 T00061033
KGNB,2022-11-05T11:35:00Z,KGNB 051135Z AUTO 00000KT 10SM OVC017 M04/M07 A2990 RMK AO2 T10401067
KGNC,2022-11-05T11:30:00Z,KGNC 051130Z AUTO 29005KT 10SM CLR 05/M04 A2997 RMK AO2 T00451040
KGNG,2022-11-05T11:35:00Z,KGNG 051135Z AUTO 29005KT 10SM -RA OVC036 06/06 A2980 RMK AO2
KGNR,2022-11-05T10:56:00Z,KGNR 051056Z AUTO 20005KT 12/07 A3010 RMK AO1 SLP198 T01220067
KGNT,2022-11-05T11:55:00Z,KGNT 051155Z AUTO 00000KT 10SM CLR M06/M07 A3011 RMK AO2 T10631074 10000 21067
KGNV,2022-11-05T11:53:00Z,KGNV 051153Z 01003KT 10SM SCT038 BKN070 20/19 A3005 RMK AO2 SLP173 T02000189 10206 20183 53006
KGOK,2022-11-05T11:53:00Z,KGOK 051153Z AUTO 22005KT 10SM CLR 02/01 A2983 RMK AO2 SLP107 70013 T00220011 10050 20022 58003
KGON,2022-11-05T10:56:00Z,KGON 051056Z 00000KT 10SM SCT035 OVC065 16/14 A3028 RMK AO2 SLP251 T01610139
KGOO,2022-11-05T11:35:00Z,KGOO 051135Z AUTO 14006KT 10SM SCT016 OVC030 07/02 A3017 RMK A01
KGOP,2022-11-05T11:35:00Z,KGOP 051135Z AUTO 10SM CLR 07/06 A2996 RMK AO2
KGOV,2022-11-05T11:28:00Z,KGOV 051128Z AUTO 19008G15KT 10SM FEW010 BKN016 BKN035 OVC060 14/13 A2965 RMK AO2 RAE13 CIG 016V055 BKN016 V SCT SLP047 $
KGPC,2022-11-05T11:35:00Z,KGPC 051135Z AUTO 17017G25KT 7SM RA BR SCT070 OVC110 15/13 A2978 RMK AO2 P0009 T01500130
KGPH,2022-11-05T11:55:00Z,KGPH 051155Z AUTO 26008KT 3SM DZ OVC006 04/03 A2952 RMK AO2 P0001
KGPI,2022-11-05T10:55:00Z,KGPI 051055Z AUTO 19011KT 10SM BKN044 BKN050 OVC075 06/03 A2908 RMK AO2 RAE07B45E55 SLP858 P0000 T00610033
KGPM,2022-11-05T11:35:00Z,KGPM 051135Z AUTO 00000KT 10SM CLR 08/03 A2997 RMK AO2 T00800033
KGPT,2022-11-05T11:53:00Z,KGPT 051153Z 15011KT 10SM BKN022 OVC028 24/21 A2992 RMK AO2 SLP133 T02390211 10239 20228 55002
KGPZ,2022-11-05T11:48:00Z,KGPZ 051148Z AUTO 00000KT 10SM BKN011 M07/M08 A2970 RMK AO2 FZRANO
KGRB,2022-11-05T11:53:00Z,KGRB 051153Z 03013KT 4SM RA BR OVC005 07/06 A2953 RMK AO2 RAB02 SLP004 P0004 60026 70116 T00670056 10083 20061 55013
KGRD,2022-11-05T10:56:00Z,KGRD 051056Z AUTO 12005KT 3/4SM BR OVC002 18/18 A3014 RMK AO2 SLP200 T01780178
KGRF,2022-11-05T10:55:00Z,KGRF 051055Z 21018G25KT 10SM FEW080 07/02 RMK SLPNO
KGRI,2022-11-05T11:53:00Z,KGRI 051153Z 23004KT 10SM CLR M04/M06 A2963 RMK AO2 SLP053 T10441061 11017 21044 56023
KGRK,2022-11-05T10:55:00Z,KGRK 051055Z AUTO 36008KT 10SM CLR 08/05 A2989 RMK AO2 SLP117 T00830054
KGRN,2022-11-05T11:35:00Z,KGRN 051135Z AUTO 23010KT 10SM CLR M02/M06 A2950 RMK AO2 T10211060
KGRR,2022-11-05T11:53:00Z,KGRR 051153Z 17014KT 10SM SCT049 BKN060 OVC095 18/11 A2967 RMK AO2 SLP045 60000 70011 T01780106 10189 20178 58012 $
KGRY,2022-11-05T11:35:00Z,KGRY 051135Z AUTO 20010KT 10SM SCT016 BKN022 BKN027 26/23 A2989 RMK A01
KGSB,2022-11-05T11:08:00Z,KGSB 051108Z 00000KT 2SM BR FEW200 17/17 A3016 RMK AO2A VIS S 1/2 SLP216 $
KGSH,2022-11-05T11:53:00Z,KGSH 051153Z AUTO 18020G31KT 10SM OVC090 18/09 A2972 RMK AO2 PK WND 18033/1112 SLP060 T01780094 10194 20178 58007
KGSO,2022-11-05T11:54:00Z,KGSO 051154Z 18009KT 10SM OVC005 19/18 A3017 RMK AO2 SLP210 60000 T01890178 10189 20172 55003
KGSP,2022-11-05T11:53:00Z,KGSP 051153Z 15005KT 1/2SM FG VV002 18/17 A3014 RMK AO2 SLP200 60007 70007 T01780172 10183 20150 51004
KGTB,2022-11-05T10:55:00Z,KGTB 051055Z AUTO 20014KT 10SM CLR 17/11 A3002 RMK AO2 SLP165 T01660111
KGTF,2022-11-05T11:53:00Z,KGTF 051153Z 23037G50KT 10SM CLR 11/01 A2904 RMK AO2 PK WND 23050/1152 SLP833 T01060006 10106 20083 56044
KGTR,2022-11-05T11:46:00Z,KGTR 051146Z VRB04G16KT 10SM BKN015 OVC070 19/16 A2996 RMK AO2
KGTU,2022-11-05T10:56:00Z,KGTU 051056Z AUTO 34005KT 10SM FEW090 11/01 A2994 RMK AO2 SLP135 T01060011
KGUC,2022-11-05T10:56:00Z,KGUC 051056Z AUTO 00000KT 10SM OVC070 M04/M08 A3003 RMK AO2 SLP191 T10391078 FZRANO
KGUL,2022-11-05T11:35:00Z,KGUL 051135Z AUTO 24006KT 10SM BKN017 BKN023 27/25 A2987 RMK A01
KGUP,2022-11-05T11:53:00Z,KGUP 051153Z AUTO 24003KT 10SM CLR M03/M07 A3010 RMK AO2 SLP197 T10281067 11011 21028 55010
KGUR,2022-11-05T10:55:00Z,KGUR 051055Z AUTO 27027G34KT 10SM SCT120 06/M04 A2948 RMK AO2 PRESFR SLP987 T00551044
KGUS,2022-11-05T11:55:00Z,KGUS 051155Z AUTO 18013KT 10SM -RA OVC080 15/11 A2973 RMK AO2 PK WND 18026/37 RAB28 SLP068 T01530113 10187 20153 58007 PNO $
KGUY,2022-11-05T11:53:00Z,KGUY 051153Z AUTO 20010KT 10SM CLR M01/M02 A2975 RMK AO2 SLP082 70007 T10111022 10006 21017 56023
KGVL,2022-11-05T11:53:00Z,KGVL 051153Z AUTO 10004KT 1/2SM FG VV002 17/17 A3013 RMK AO2 SLP192 60000 T01720167 10172 20167 53004
KGVQ,2022-11-05T10:56:00Z,KGVQ 051056Z AUTO 20016G20KT 10SM CLR 18/10 A3000 RMK AO2 SLP156 T01780100
KGVT,2022-11-05T11:35:00Z,KGVT 051135Z AUTO 29008KT 10SM CLR 07/04 A2992 RMK AO2 TSNO T00710044
KGVW,2022-11-05T11:30:00Z,KGVW 051130Z AUTO 04012KT 10SM FEW017 SCT035 BKN049 19/11 A2992 RMK A01
KGWB,2022-11-05T11:35:00Z,KGWB 051135Z AUTO 19006KT 10SM BKN070 16/10 A2980 RMK AO2
KGWO,2022-11-05T11:53:00Z,KGWO 051153Z AUTO 10004KT 4SM RA BR FEW012 SCT050 OVC080 14/12 A2987 RMK AO2 LTG DSNT NE AND SE SLP113 P0029 60129 70129 T01390122 10239 20139 50000
KGWR,2022-11-05T11:55:00Z,KGWR 051155Z AUTO 23004KT 10SM CLR M10/M10 A2959 RMK A01
KGWW,2022-11-05T11:55:00Z,KGWW 051155Z AUTO 00000KT M1/4SM OVC001 13/13 A3020 RMK AO2 T01340134 10158 20127
KGXF,2022-11-05T10:55:00Z,KGXF 051055Z AUTO 14004KT 10SM CLR 07/M06 A3009 RMK AO2 SLP186 T00651061 FZRANO $
KGXY,2022-11-05T10:56:00Z,KGXY 051056Z 00000KT 10SM CLR M05/M07 A2965 RMK AO2 SLP064 T10501072 FZRANO $
KGYB,2022-11-05T11:55:00Z,KGYB 051155Z AUTO 36006KT 10SM SCT085 BKN090 13/11 A2992 RMK AO2 70049 T01320114 10146 20117
KGYF,2022-11-05T11:35:00Z,KGYF 051135Z AUTO 25010KT 10SM SCT017 SCT023 SCT050 30/24 A2986 RMK AO2 T02960241
KGYH,2022-11-05T11:47:00Z,KGYH 051147Z 12006KT 3SM RA BKN005 18/18 A3014
KGYI,2022-11-05T11:50:00Z,KGYI 051150Z 29004KT 10SM SKC 05/03 A2993
KGYL,2022-11-05T11:55:00Z,KGYL 051155Z AUTO 35005KT 7SM CLR M03/M04 A2958 RMK AO2 T10291045 11010 21030
KGYY,2022-11-05T10:45:00Z,KGYY 051045Z 17012KT 10SM BKN050 16/14 A2960
KGZH,2022-11-05T11:53:00Z,KGZH 051153Z AUTO 00000KT 9SM CLR 12/10 A3000 RMK AO2 SLP156 T01170100 10139 20106 50000
KGZL,2022-11-05T11:35:00Z,KGZL 051135Z AUTO 30009KT 10SM OVC026 07/05 A2983 RMK AO2
KGZN,2022-11-05T11:20:00Z,KGZN 051120Z AUTO 25005KT 10SM CLR 03/02 A2992 RMK AO2
KGZS,2022-11-05T11:35:00Z,KGZS 051135Z AUTO 16015G20KT 10SM BKN032 19/13 A2990 RMK A01
KH71,2022-11-05T11:35:00Z,KH71 051135Z AUTO 25006KT 10SM 06/04 A2982 RMK AO2
KHAE,2022-11-05T11:55:00Z,KHAE 051155Z AUTO 23014G24KT 10SM -DZ SCT013 BKN018 OVC034 11/08 A2945 RMK AO2 P0001
KHAF,2022-11-05T11:55:00Z,KHAF 051155Z AUTO 00000KT 1/4SM FG BKN005 OVC030 12/12 A3021 RMK AO2
KHAI,2022-11-05T11:55:00Z,KHAI 051155Z AUTO 19013G20KT 10SM BKN075 BKN110 18/09 A2972 RMK AO2 T01800092 10191 20175
KHAO,2022-11-05T11:53:00Z,KHAO 051153Z AUTO VRB04KT 10SM CLR 17/11 A2989 RMK AO2 SLP119 T01670106 10183 20139 56012
KHBG,2022-11-05T11:53:00Z,KHBG 051153Z AUTO 16009KT 10SM BKN026 BKN065 OVC100 22/19 A2991 RMK AO2 SLP124 T02170194 10217 20206 55016
KHBI,2022-11-05T11:55:00Z,KHBI 051155Z AUTO 15005KT 5SM BR OVC003 18/18 A3019 RMK AO2 60006 70006 T01780178 10184 20176
KHBR,2022-11-05T11:53:00Z,KHBR 051153Z AUTO 28007KT 10SM CLR 01/00 A2986 RMK AO2 SLP116 70049 T00110000 10033 20011 58010
KHBV,2022-11-05T11:30:00Z,KHBV 051130Z AUTO 36003KT 10SM OVC050 18/10 A2995 RMK AO2 T01760095
KHCD,2022-11-05T11:35:00Z,KHCD 051135Z AUTO 35004KT 10SM CLR M02/M04 A2961 RMK AO2 T10201041
KHCO,2022-11-05T11:55:00Z,KHCO 051155Z AUTO 16007KT 10SM CLR M05/M08 A2960 RMK AO2
KHCR,2022-11-05T11:35:00Z,KHCR 051135Z AUTO 05004KT 10SM -SN SCT025 BKN044 OVC050 00/M03 A2994 RMK AO2
KHDC,2022-11-05T11:37:00Z,KHDC 051137Z AUTO 15009G14KT 10SM OVC006 23/22 A2988 RMK AO2 LTG DSNT NW P0004
KHDE,2022-11-05T11:35:00Z,KHDE 051135Z AUTO 26005KT 10SM CLR M05/M07 A2963 RMK AO2 T10491073
KHDN,2022-11-05T11:39:00Z,KHDN 051139Z AUTO 13003KT 3SM UP BR FEW004 BKN011 OVC016 M02/M03 A2992 RMK AO2 SNB22E31 P0002 FZRANO
KHDO,2022-11-05T11:51:00Z,KHDO 051151Z AUTO 32003KT 10SM BKN085 14/M01 A2995 RMK AO2 SLP131 T01391011 10189 20122 53004
KHEF,2022-11-05T10:56:00Z,KHEF 051056Z 17006KT 10SM OVC060 18/17 A3020 RMK AO2 SLP230 T01830167
KHEG,2022-11-05T11:55:00Z,KHEG 051155Z AUTO 00000KT 5SM BR FEW047 SCT070 18/18 A3005 RMK AO2
KHEI,2022-11-05T11:53:00Z,KHEI 051153Z AUTO 13005KT 10SM OVC070 01/M06 A2939 RMK AO2 SLP970 T00111056 10017 21039 56034
KHEQ,2022-11-05T11:30:00Z,KHEQ 051130Z AUTO 24005KT 10SM CLR M03/M08 A2962 RMK AO2
KHEY,2022-11-05T10:55:00Z,KHEY 051055Z AUTO 03003KT 10SM CLR 15/14 A3000 RMK AO2 SLP160 T01450143
KHEZ,2022-11-05T11:37:00Z,KHEZ 051137Z AUTO VRB03KT 10SM -RA SCT005 BKN047 OVC100 11/11 A2996 RMK AO2 LTG DSNT E-S TSE12 PRESRR P0018
KHFD,2022-11-05T11:53:00Z,KHFD 051153Z 00000KT 10SM OVC070 16/14 A3026 RMK AO2 SLP246 T01610144 10167 20122 53001
KHFF,2022-11-05T11:47:00Z,KHFF 051147Z AUTO 00000KT 1 1/4SM BR OVC003 17/17 A3015 RMK AO2 VIS 3/4V1 1/4 SLP211 $
KHFJ,2022-11-05T11:35:00Z,KHFJ 051135Z AUTO 23018G25KT 10SM OVC011 04/04 A2973 RMK AO2
KHFY,2022-11-05T11:55:00Z,KHFY 051155Z AUTO 18013G17KT 10SM SCT070 OVC090 18/13 A2983 RMK AO2 T01770125 10189 20177
KHGR,2022-11-05T11:53:00Z,KHGR 051153Z 15008KT 6SM BR FEW009 OVC042 18/17 A3017 RMK AO2 RAB38E48 SLP224 P0000 60000 T01780167 10183 20172 58003 $
KHHF,2022-11-05T11:55:00Z,KHHF 051155Z AUTO 25004KT 10SM CLR M01/M02 A2983 RMK AO2 T10151021 10011 21015
KHHG,2022-11-05T11:35:00Z,KHHG 051135Z AUTO 19012G19KT 10SM CLR 17/10 A2980 RMK AO2 T01720096
KHHR,2022-11-05T11:53:00Z,KHHR 051153Z AUTO 00000KT 10SM CLR 12/04 A3010 RMK AO2 SLP192 T01220039 10150 20117 56017
KHHV,2022-11-05T11:35:00Z,KHHV 051135Z AUTO 24013KT 10SM CLR 27/23 A2985 RMK A01
KHHW,2022-11-05T11:40:00Z,KHHW 051140Z AUTO 28005KT 10SM OVC018 06/04 A2990 RMK AO2
KHIB,2022-11-05T11:53:00Z,KHIB 051153Z AUTO 32003KT 10SM CLR M09/M09 A2968 RMK AO2 SLP076 I1000 I6000 T10891094 11078 21094 58010
KHIE,2022-11-05T11:52:00Z,KHIE 051152Z AUTO 00000KT 10SM CLR 02/01 A3017 RMK AO2 SLP227 T00170006 10033 21006 56003
KHIF,2022-11-05T11:45:00Z,KHIF 051145Z AUTO 16013KT 10SM -DZ FEW024 BKN041 OVC070 02/01 A2990 RMK AO2 RAB05E28DZB45 SLP123
KHII,2022-11-05T11:35:00Z,KHII 051135Z AUTO 35004KT 10SM CLR 10/M08 A3009 RMK AO2
KHIO,2022-11-05T11:53:00Z,KHIO 051153Z AUTO 30003KT 10SM OVC050 09/04 A2989 RMK AO2 SLP122 60003 70188 T00890039 10139 20083 51036 $
KHJH,2022-11-05T11:35:00Z,KHJH 051135Z AUTO 27006KT 10SM CLR M02/M04 A2966 RMK AO2 T10161037
KHJO,2022-11-05T11:53:00Z,KHJO 051153Z AUTO 04003KT 7SM CLR 02/01 A3024 RMK AO2 SLP241 T00220006 10056 20022 58015 $
KHKA,2022-11-05T11:53:00Z,KHKA 051153Z AUTO 17019G31KT 10SM -RA BKN011 BKN037 BKN043 17/16 A2973 RMK AO2 PK WND 17031/1147 SLP064 P0012 60118 70118 T01720156 10228 20172 58014 $
KHKS,2022-11-05T11:53:00Z,KHKS 051153Z 30010KT 2SM VCTS +RA SCT005 SCT015 OVC027 14/13 A2993 RMK AO2 LTG DSNT S AND SW SLP128 P0062 60132 70132 T01390128 10222 20139 51028
KHLB,2022-11-05T11:35:00Z,KHLB 051135Z AUTO VRB06G12KT 10SM SCT100 17/11 A2989 RMK A01
KHLC,2022-11-05T11:53:00Z,KHLC 051153Z AUTO 00000KT 10SM CLR M04/M07 A2968 RMK AO2 SLP065 T10441072 11017 21044 58016
KHLG,2022-11-05T11:53:00Z,KHLG 051153Z AUTO 15008KT 10SM CLR 16/11 A3003 RMK AO2 SLP168 T01610106 10172 20144 56006
KHLN,2022-11-05T11:53:00Z,KHLN 051153Z 21017G29KT 10SM FEW075 11/M01 A2917 RMK AO2 PK WND 23035/1054 SLP885 T01111011 10128 20094 56047
KHLR,2022-11-05T10:55:00Z,KHLR 051055Z AUTO 34010KT 10SM CLR 09/07 A2992 RMK AO2 SLP127 T00910065
KHLX,2022-11-05T11:35:00Z,KHLX 051135Z AUTO 17008G17KT 120V200 7SM -DZ OVC006 16/13 A3017 RMK AO2 P0001 T01600130
KHME,2022-11-05T11:00:00Z,KHME 051100Z 24006KT 9999 FEW030CB 20/04 Q1017
KHMN,2022-11-05T10:55:00Z,KHMN 051055Z AUTO 36006KT 10SM CLR M01/M08 A3010 RMK AO2 SLP176 T10081080
KHMP,2022-11-05T11:35:00Z,KHMP 051135Z AUTO 12004KT 5SM BR OVC003 16/16 A3013 RMK AO2 T01600155
KHMT,2022-11-05T11:35:00Z,KHMT 051135Z AUTO 04003KT 10SM CLR 05/M02 A3010 RMK AO2 T00531024
KHMZ,2022-11-05T11:35:00Z,KHMZ 051135Z AUTO 00000KT 10SM SCT019 07/06 A3014 RMK AO2 T00670063
KHNB,2022-11-05T10:56:00Z,KHNB 051056Z AUTO 18006KT 10SM -RA BKN049 OVC080 17/13 A2988 RMK AO2 PK WND 19026/0957 WSHFT 0957 LTG DSNT W RAB23 SLP113 P0000 T01670133
KHND,2022-11-05T10:56:00Z,KHND 051056Z AUTO 18003KT 10SM CLR 04/M07 A3011 RMK AO2 SLP215 T00441072
KHNR,2022-11-05T11:35:00Z,KHNR 051135Z AUTO 34013KT 10SM OVC080 01/M00 A2952 RMK A01
KHNZ,2022-11-05T11:55:00Z,KHNZ 051155Z AUTO 16004KT 5SM BR OVC001 16/16 A3020 RMK AO2 7//// T01560155 10165 20155
KHOB,2022-11-05T11:50:00Z,KHOB 051150Z 25005KT 10SM SKC 02/M05 A2992
KHOE,2022-11-05T11:35:00Z,KHOE 051135Z AUTO 00000KT 1 3/4SM BR BKN001 OVC030 17/16 A3006 RMK AO2 T01700163
KHON,2022-11-05T10:55:00Z,KHON 051055Z AUTO 15003KT 10SM CLR M08/M10 A2962 RMK AO2 SLP044 T10781100
KHOP,2022-11-05T11:55:00Z,KHOP 051155Z AUTO 20009KT 10SM SCT050 OVC085 19/14 A2989 RMK AO2 DZE02RAB02E11DZB11E13 SLP120 P0001 60001 70001 T01850138 10205 20182 53026
KHOT,2022-11-05T11:53:00Z,KHOT 051153Z AUTO VRB05KT 10SM BKN024 11/07 A2985 RMK AO2 SLP104 70104 T01060072 10178 20106 51012
KHOU,2022-11-05T11:53:00Z,KHOU 051153Z 34005KT 10SM BKN065 BKN250 17/13 A2992 RMK AO2 SLP137 60012 70022 T01670128 10167 20156 53009
KHPN,2022-11-05T10:56:00Z,KHPN 051056Z 00000KT 7SM OVC070 16/15 A3026 RMK AO2 SLP245 T01560150
KHPT,2022-11-05T11:35:00Z,KHPT 051135Z AUTO 36011KT 10SM OVC004 03/03 A2945 RMK AO2 P0001
KHQG,2022-11-05T11:35:00Z,KHQG 051135Z AUTO 23006KT 10SM CLR M02/M03 A2974 RMK AO2 T10191034
KHQG,2022-11-05T11:35:00Z,KHQG 051135Z AUTO 23006KT 10SM CLR M02/M03 A2974 RMK AO2 T10191034
KHQM,2022-11-05T11:53:00Z,KHQM 051153Z AUTO 29008KT 10SM FEW030 BKN055 08/04 A2984 RMK AO2 RAB28E38 SLP109 P0000 60000 70236 T00830039 10106 20083 51019
KHQU,2022-11-05T11:35:00Z,KHQU 051135Z AUTO 10003KT 2SM BR OVC002 15/15 A3010 RMK AO2 T01510146
KHQZ,2022-11-05T11:50:00Z,KHQZ 051150Z 29008KT 10SM CLR 07/04 A2984
KHRF,2022-11-05T11:45:00Z,KHRF 051145Z AUTO 16024KT 4SM HZ 07/04 A2926 RMK AO2 P0002 Hamilton 
KHRI,2022-11-05T11:53:00Z,KHRI 051153Z AUTO 26024G39KT 10SM CLR 11/02 A2966 RMK AO2 PK WND 26041/1118 SLP041 P0001 60013 70015 T01060022 10167 20106 53037
KHRJ,2022-11-05T11:55:00Z,KHRJ 051155Z AUTO 11004KT 7SM SCT034 OVC041 18/18 A3020 RMK AO2 T01820176 10187 20175
KHRL,2022-11-05T11:52:00Z,KHRL 051152Z 33003KT 10SM FEW012 SCT028 OVC032 23/23 A2985 RMK AO2 SLP107 T02330233 10261 20222 53001
KHRO,2022-11-05T11:53:00Z,KHRO 051153Z AUTO 23011KT 10SM OVC025 07/03 A2977 RMK AO2 SLP075 70207 T00720033 10156 20067 50014
KHRT,2022-11-05T11:45:00Z,KHRT 051145Z COR 06004KT 10SM BKN008 21/19 A2998 RMK AO2A SLP154 $ COR 1147
KHRX,2022-11-05T11:55:00Z,KHRX 051155Z AUTO 20004KT 10SM CLR M02/M04 A2984 RMK AO2 T10211041 10001 21025
KHSB,2022-11-05T11:22:00Z,KHSB 051122Z AUTO 17018G30KT 7SM RA SCT019 BKN100 OVC120 16/16 A2974 RMK AO2 P0004
KHSD,2022-11-05T11:35:00Z,KHSD 051135Z AUTO 22005KT 10SM CLR 03/01 A2983 RMK A01
KHSE,2022-11-05T11:51:00Z,KHSE 051151Z AUTO 13010KT 8SM OVC034 22/19 A3021 RMK AO2 SLP229 70001 T02170189 10217 20211 58001
KHSG,2022-11-05T11:30:00Z,KHSG 051130Z AUTO 00000KT 10SM CLR M04/M06 A2948 RMK AO2 T10371064
KHSI,2022-11-05T11:53:00Z,KHSI 051153Z AUTO 25005KT 10SM CLR M03/M05 A2963 RMK AO2 SLP049 T10331050 11017 21039 56022
KHSP,2022-11-05T11:55:00Z,KHSP 051155Z AUTO 19009G16KT 150V210 1/2SM -RA OVC002 15/15 A3024 RMK AO2 P0010 60028 70028 T01470147
KHST,2022-11-05T11:55:00Z,KHST 051155Z AUTO 06006KT 10SM BKN026 25/21 A2990 RMK AO2 CIG 026V034 SLP128 70001 T02480211 10248 20217 53001
KHSV,2022-11-05T11:53:00Z,KHSV 051153Z 16018G30KT 10SM SCT110 BKN250 19/13 A2993 RMK AO2 PK WND 16031/1139 RAB1058E32 SLP130 P0000 60000 T01890128 10189 20156 58020
KHTL,2022-11-05T10:53:00Z,KHTL 051053Z AUTO 17012G20KT 5SM RA BR FEW031 BKN085 OVC100 14/13 A2967 RMK AO2 RAB03 SLP049 P0007 T01390128
KHTS,2022-11-05T11:51:00Z,KHTS 051151Z 10004KT 10SM CLR 16/11 A2999 RMK AO2 SLP150 T01560106 10183 20144 58007
KHUF,2022-11-05T11:53:00Z,KHUF 051153Z 17017G29KT 6SM RA BR OVC090 16/14 A2973 RMK AO2 PK WND 15036/1115 SLP063 P0014 60038 70038 T01560139 10206 20156 58013
KHUL,2022-11-05T11:53:00Z,KHUL 051153Z AUTO 21007KT 10SM CLR 10/08 A3010 RMK AO2 SLP195 T01000078 10117 20100 53004
KHUM,2022-11-05T11:47:00Z,KHUM 051147Z 17010KT 7SM OVC018 24/23 A2989
KHUT,2022-11-05T11:52:00Z,KHUT 051152Z 26006KT 10SM CLR 01/00 A2972 RMK AO2 SLP067 60016 70122 T00110000 10039 20011 56005
KHVE,2022-11-05T11:35:00Z,KHVE 051135Z AUTO 16005KT 10SM BKN085 01/M03 A3003 RMK AO2
KHVN,2022-11-05T11:53:00Z,KHVN 051153Z 20006KT 9SM OVC070 18/17 A3027 RMK AO2 SLP249 T01830172 10183 20117 53001
KHVR,2022-11-05T11:53:00Z,KHVR 051153Z AUTO 22026G36KT 10SM CLR 12/00 A2896 RMK AO2 PK WND 22040/1114 SLP808 T01220000 10128 20078 58040
KHVS,2022-11-05T11:35:00Z,KHVS 051135Z AUTO 07004KT 1/4SM FG OVC002 18/18 A3015 RMK AO2
KHWD,2022-11-05T11:54:00Z,KHWD 051154Z AUTO 00000KT 4SM BR OVC003 12/12 A3021 RMK AO2 SLP239 T01220122 10128 20122 55009
KHWO,2022-11-05T11:53:00Z,KHWO 051153Z 07005KT 10SM CLR 23/20 A2994 RMK AO2 SLP138 60003 70003 T02280200 10244 20222 53002
KHWV,2022-11-05T10:56:00Z,KHWV 051056Z AUTO 15004KT 10SM OVC065 17/15 A3028 RMK AO2 SLP254 T01720150
KHWY,2022-11-05T11:55:00Z,KHWY 051155Z AUTO 15005KT 10SM OVC050 19/18 A3023 RMK AO2 T01940177 10195 20185
KHXD,2022-11-05T11:50:00Z,KHXD 051150Z 15004KT 10SM FEW041 SCT070 BKN080 23/20 A3009
KHYA,2022-11-05T10:56:00Z,KHYA 051056Z 20007KT 10SM CLR 16/16 A3028 RMK AO2 SLP255 T01610156
KHYI,2022-11-05T10:56:00Z,KHYI 051056Z AUTO 00000KT 10SM CLR RMK AO2 SLPNO FZRANO $
KHYR,2022-11-05T11:53:00Z,KHYR 051153Z AUTO 04007KT 10SM OVC110 03/00 A2960 RMK AO2 SLP037 T00280000 10028 21017 56033 $
KHYS,2022-11-05T10:56:00Z,KHYS 051056Z AUTO 27009KT 10SM CLR M04/M06 A2972 RMK AO2 SLP079 T10391056 FZRANO $
KHYW,2022-11-05T11:35:00Z,KHYW 051135Z AUTO 00000KT 4SM BR CLR 16/16 A3014 RMK AO2
KHYX,2022-11-05T11:55:00Z,KHYX 051155Z AUTO 18013G20KT 10SM BKN065 OVC080 18/09 A2973 RMK AO2 T01820087 10191 20181
KHZD,2022-11-05T11:35:00Z,KHZD 051135Z AUTO 16012G18KT 4SM BR FEW004 BKN035 OVC070 16/15 A2985 RMK A01
KHZE,2022-11-05T11:55:00Z,KHZE 051155Z AUTO 16017KT 10SM OVC070 00/M06 A2939 RMK AO2
KHZL,2022-11-05T11:55:00Z,KHZL 051155Z AUTO 17006KT 7SM OVC003 16/16 A3024 RMK AO2 P0001
KHZR,2022-11-05T11:35:00Z,KHZR 051135Z AUTO 33007G14KT 4SM +VCTSRA BKN005 BKN015 OVC024 12/11 A2996 RMK AO2 LTG DSNT NE AND NW P0035 T01180113
KHZX,2022-11-05T11:35:00Z,KHZX 051135Z AUTO 00000KT 10SM SCT010 OVC016 M01/M02 A2966 RMK AO2
KHZY,2022-11-05T11:53:00Z,KHZY 051153Z AUTO 18012KT 10SM CLR 17/11 A2999 RMK AO2 SLP150 T01670106 10167 20156 55007
KI23,2022-11-05T11:35:00Z,KI23 051135Z AUTO 14006KT 10SM CLR 14/10 A2993 RMK AO1
KI35,2022-11-05T11:55:00Z,KI35 051155Z AUTO 17004KT 10SM SCT065 19/14 A3004 RMK AO2 T01910136 10194 20181
KI63,2022-11-05T11:35:00Z,KI63 051135Z AUTO 18015G19KT 4SM -RA OVC010 17/17 A2938 RMK AO2 P0003 T01700170
KI67,2022-11-05T11:35:00Z,KI67 051135Z AUTO 20007G14KT 170V230 10SM CLR 18/11 A2988 RMK AO1
KI68,2022-11-05T11:55:00Z,KI68 051155Z AUTO 18014G20KT 10SM CLR 17/12 A2990 RMK AO1 T01710115 10172 20155
KI69,2022-11-05T11:55:00Z,KI69 051155Z AUTO 17005KT 10SM CLR 17/11 A2991 RMK AO2 T01670105 10174 20162
KI74,2022-11-05T11:35:00Z,KI74 051135Z AUTO 17008KT 10SM CLR 15/10 A2991 RMK AO2
KI75,2022-11-05T11:35:00Z,KI75 051135Z AUTO 35008KT 5SM RA OVC005 05/05 A2943 RMK AO2 P0017 T00470047
KIAB,2022-11-05T10:55:00Z,KIAB 051055Z AUTO 26006KT 10SM BKN110 03/02 A2972 RMK AO2 SLP075 T00300020
KIAD,2022-11-05T11:52:00Z,KIAD 051152Z 16008KT 10SM SCT025 BKN058 18/17 A3019 RMK AO2 SLP222 T01830167 10189 20183 51000
KIAG,2022-11-05T11:53:00Z,KIAG 051153Z 18010KT 10SM CLR 18/11 A2996 RMK AO2 SLP146 T01780106 10178 20156 56008
KIAH,2022-11-05T11:53:00Z,KIAH 051153Z 03004KT 10SM SCT060 BKN100 13/13 A2993 RMK AO2 SLP134 60000 70014 T01330128 10156 20133 53009 $
KIBM,2022-11-05T11:35:00Z,KIBM 051135Z AUTO 25008KT 10SM CLR 00/M05 A2959 RMK AO2 T10021050
KICL,2022-11-05T11:35:00Z,KICL 051135Z AUTO 33013G19KT 3SM RA OVC014 03/03 A2953 RMK AO2
KICR,2022-11-05T11:53:00Z,KICR 051153Z AUTO 19010KT 10SM CLR M01/M07 A2952 RMK AO2 SLP011 T10111072 10011 21022 56033 $
KICT,2022-11-05T11:53:00Z,KICT 051153Z 22007KT 10SM FEW120 02/01 A2974 RMK AO2 SLP079 60012 70237 T00170006 10033 20011 55001
KIDA,2022-11-05T11:53:00Z,KIDA 051153Z AUTO 20022G33KT 10SM OVC023 04/01 A2969 RMK AO2 PK WND 20036/1056 SLP059 60000 T00440006 10050 20017 56031
KIDI,2022-11-05T11:55:00Z,KIDI 051155Z AUTO 20006G11KT 9SM CLR 16/13 A3013 RMK A01
KIDP,2022-11-05T11:35:00Z,KIDP 051135Z AUTO 24009KT 10SM BKN014 BKN023 04/02 A2977 RMK AO2 T00370022
KIEN,2022-11-05T11:52:00Z,KIEN 051152Z AUTO 26004KT 10SM CLR M06/M08 A2949 RMK AO2 SLP013 T10561078 11039 21056 56030
KIER,2022-11-05T11:55:00Z,KIER 051155Z AUTO 00000KT 10SM SCT075 BKN090 13/12 A2987 RMK AO2 60041 70179 T01250122 10136 20123
KIFA,2022-11-05T11:55:00Z,KIFA 051155Z AUTO 34013KT 10SM RA OVC005 05/04 A2946 RMK AO2 60008 70030 T00450041 10046 20042
KIFP,2022-11-05T11:35:00Z,KIFP 051135Z AUTO 00000KT 10SM CLR 09/M09 A3009 RMK AO2
KIGM,2022-11-05T11:51:00Z,KIGM 051151Z AUTO 34003KT 10SM CLR 01/M04 A3010 RMK AO2 SLP165 T00111044 10044 20006 56017
KIGQ,2022-11-05T11:55:00Z,KIGQ 051155Z AUTO 17026G34KT 10SM OVC015 15/15 A2958 RMK AO2 60031 70031 T01540150 10200 20154
KIIY,2022-11-05T11:35:00Z,KIIY 051135Z AUTO 11003KT 1/2SM FG OVC003 17/17 A3011 RMK AO2 T01690169
KIJD,2022-11-05T11:52:00Z,KIJD 051152Z AUTO 00000KT 10SM OVC060 11/11 A3026 RMK AO2 SLP248 T01110106 10111 20089 56003
KIJX,2022-11-05T11:35:00Z,KIJX 051135Z AUTO 16022G34KT 10SM OVC014 18/18 A2942 RMK AO2 T01780178
KIKK,2022-11-05T11:35:00Z,KIKK 051135Z AUTO 17015G28KT 10SM OVC014 16/13 A2959 RMK AO2 T01560130
KIKV,2022-11-05T11:35:00Z,KIKV 051135Z AUTO 34014KT 3SM RA OVC006 05/04 A2942 RMK AO2
KIKW,2022-11-05T11:55:00Z,KIKW 051155Z AUTO 16006G14KT 10SM BKN048 BKN060 OVC090 18/10 A2969 RMK AO2 70005 T01800100 10196 20180
KILE,2022-11-05T10:56:00Z,KILE 051056Z AUTO 34004KT 10SM SCT095 09/07 A2993 RMK AO2 SLP131 T00890072
KILG,2022-11-05T11:51:00Z,KILG 051151Z AUTO 00000KT 1/4SM R01/2600V3500FT FG VV002 14/14 A3025 RMK AO2 SLP243 T01440139 10156 20133 51001 $
KILM,2022-11-05T11:53:00Z,KILM 051153Z 00000KT 10SM BKN039 21/17 A3016 RMK AO2 SLP214 T02060172 10222 20189 55001
KILN,2022-11-05T11:54:00Z,KILN 051154Z AUTO 18009KT 10SM CLR 17/11 A2992 RMK AO2 SLP129 T01670106 10167 20150 58009 $
KIML,2022-11-05T10:53:00Z,KIML 051053Z AUTO 25007KT 10SM CLR M04/M11 A2963 RMK AO2 SLP050 T10441106
KIMS,2022-11-05T11:35:00Z,KIMS 051135Z AUTO 20011G15KT 10SM SCT090 SCT110 17/12 A2990 RMK AO2
KIMT,2022-11-05T11:54:00Z,KIMT 051154Z AUTO 01006KT 2 1/2SM -RA BR SCT006 BKN010 OVC023 03/03 A2959 RMK AO2 SLP030 P0001 60008 70008 T00330028 10044 20033 58019
KIND,2022-11-05T11:54:00Z,KIND 051154Z 18017G28KT 9SM -RA BKN100 OVC110 17/12 A2979 RMK AO2 PK WND 20029/1132 RAB08 SLP085 P0001 60001 70001 T01670117 10189 20167 50006
KINF,2022-11-05T11:55:00Z,KINF 051155Z AUTO 00000KT 5SM BR OVC003 20/20 A3002 RMK AO2
KINJ,2022-11-05T11:55:00Z,KINJ 051155Z AUTO 32007KT 10SM CLR 07/07 A2994 RMK AO2 7//// T00710071 10097 20070
KINK,2022-11-05T11:53:00Z,KINK 051153Z AUTO 00000KT 10SM CLR 02/M06 A2995 RMK AO2 SLP129 T00171061 10072 20017 55008 $
KINL,2022-11-05T11:54:00Z,KINL 051154Z AUTO 13003KT 10SM CLR M07/M09 A2969 RMK AO2 SLP076 I1000 I6001 T10721089 56020 $
KINS,2022-11-05T10:55:00Z,KINS 051055Z AUTO 27004KT 10SM CLR 02/M06 A3010 RMK AO2 SLP182 T00211065
KINT,2022-11-05T11:54:00Z,KINT 051154Z 17005KT 2SM BR OVC002 19/19 A3018 RMK AO2 RAB1059E12 SLP212 P0000 60000 T01890189 10189 20183 55004
KINW,2022-11-05T10:56:00Z,KINW 051056Z AUTO 12004KT 10SM CLR M02/M06 A3011 RMK AO2 SLP191 T10171061
KIOB,2022-11-05T11:55:00Z,KIOB 051155Z AUTO 16007KT 10SM CLR 17/11 A2996 RMK AO2 PWINO
KIOW,2022-11-05T11:52:00Z,KIOW 051152Z AUTO 34006KT 7SM -RA OVC006 11/09 A2934 RMK AO2 CIG 005V011 SLP935 P0011 60032 70195 T01060094 10111 20094 56046
KIPJ,2022-11-05T11:55:00Z,KIPJ 051155Z AUTO 00000KT 2SM BR OVC006 17/17 A3016 RMK AO2 T01690168 10170 20136
KIPL,2022-11-05T11:53:00Z,KIPL 051153Z AUTO 21003KT 10SM CLR 09/M01 A3005 RMK AO2 SLP177 T00941011 10128 20089 56022
KIPT,2022-11-05T11:54:00Z,KIPT 051154Z 13010G14KT 10SM FEW014 BKN028 17/15 A3015 RMK AO2 SLP207 T01720150 10178 20150 53001
KIRK,2022-11-05T10:55:00Z,KIRK 051055Z AUTO 21014G26KT 10SM SCT005 OVC010 11/09 A2940 RMK AO2 PK WND 22026/1047 RAE03B12E21 CIG 009V013 SLP961 P0001 T01060094 $
KIRS,2022-11-05T11:55:00Z,KIRS 051155Z AUTO 19014G24KT 10SM CLR 17/08 A2973 RMK AO2 T01700083 10176 20168
KISM,2022-11-05T10:56:00Z,KISM 051056Z 00000KT 10SM FEW060 22/20 A3000 RMK AO2 SLP158 T02170200 PNO $
KISO,2022-11-05T10:56:00Z,KISO 051056Z 00000KT 10SM CLR 18/17 A3020
KISP,2022-11-05T10:56:00Z,KISP 051056Z 19004KT 10SM OVC060 18/17 A3027 RMK AO2 SLP250 T01780167
KISQ,2022-11-05T11:55:00Z,KISQ 051155Z AUTO 02012G15KT 10SM BKN004 OVC010 05/05 A2956 RMK AO2 60021 70068 T00470046 10047 20040 P0002
KISW,2022-11-05T11:54:00Z,KISW 051154Z AUTO 06009KT 5SM RA BR OVC007 06/04 A2951 RMK AO2 SLP000 P0004 60015 70101 T00560044 10072 20056 56037
KITH,2022-11-05T10:56:00Z,KITH 051056Z 17010KT 10SM CLR 16/13 A3013 RMK AO2 SLP201 T01610133
KITR,2022-11-05T11:53:00Z,KITR 051153Z AUTO 24009KT 10SM CLR 00/M05 A2966 RMK AO2 SLP049 T00001050 10006 21056 56025
KIUA,2022-11-05T11:55:00Z,KIUA 051155Z AUTO 15005KT 10SM CLR 14/11 A3005 RMK AO2 T01430105 10155 20143
KIWA,2022-11-05T11:35:00Z,KIWA 051135Z AUTO 11005KT 10SM CLR 07/00 A3010 RMK AO2 T00670001
KIWD,2022-11-05T11:17:00Z,KIWD 051117Z AUTO 05004KT 10SM OVC013 02/01 A2965 RMK AO2 FZRANO
KIWI,2022-11-05T11:53:00Z,KIWI 051153Z AUTO 22006KT 10SM CLR 15/13 A3021 RMK AO2 SLP230 T01500128 10150 20139 53001
KIXA,2022-11-05T11:55:00Z,KIXA 051155Z AUTO 00000KT 3/4SM BR VV005 12/12 A3021 RMK AO2
KIXD,2022-11-05T11:53:00Z,KIXD 051153Z 26013G23KT 7SM -RA OVC006 02/01 A2959 RMK AO2 PK WND 26028/1141 SLP023 P0005 60019 7//// T00220011 10050 20022 53013 $
KIYA,2022-11-05T11:55:00Z,KIYA 051155Z AUTO 34014G19KT 7SM -RA BKN007 OVC013 13/10 A2996 RMK AO2 LTG DSNT N AND NE T01250103 10248 20125
KIZA,2022-11-05T11:35:00Z,KIZA 051135Z AUTO 04004KT 10SM CLR 05/00 A3014 RMK AO2
KIZG,2022-11-05T11:54:00Z,KIZG 051154Z AUTO VRB03KT 10SM CLR 13/11 A3018 RMK AO2 SLP222 T01330111 10150 20111 55000
KJAC,2022-11-05T11:48:00Z,KJAC 051148Z AUTO 21013G16KT 2SM -SN BR BKN009 OVC014 M01/M02 A2969 RMK AO2 CIG 007V012 P0001 FZRANO
KJAN,2022-11-05T11:54:00Z,KJAN 051154Z 35009KT 1 1/2SM R16L/6000VP6000FT +RA BR FEW009 BKN028 OVC040 15/14 A2992 RMK AO2 LTG DSNT SW AND W SLP129 P0046 60089 70089 T01500139 10217 20150 53024
KJAQ,2022-11-05T11:55:00Z,KJAQ 051155Z AUTO 00000KT 10SM BKN040 07/04 A3020 RMK AO1 7//// T00670036 10075 20053
KJAS,2022-11-05T11:35:00Z,KJAS 051135Z AUTO 34003KT 10SM OVC065 14/14 A2990 RMK AO2
KJAU,2022-11-05T11:30:00Z,KJAU 051130Z AUTO 00000KT 10SM BKN060 OVC070 11/10 A3008 RMK A01
KJAX,2022-11-05T10:56:00Z,KJAX 051056Z 06004KT 10SM SCT030 21/20 A3002 RMK AO2 SLP166 T02110200
KJBR,2022-11-05T11:53:00Z,KJBR 051153Z AUTO 20013G20KT 10SM CLR 16/13 A2976 RMK AO2 SLP074 60154 70158 T01610128 10211 20161 51014 $
KJCA,2022-11-05T11:35:00Z,KJCA 051135Z AUTO 12006KT 4SM HZ OVC003 18/ A3012 RMK AO2 T0179////
KJCT,2022-11-05T11:51:00Z,KJCT 051151Z AUTO 27003KT 10SM CLR 04/M01 A2997 RMK AO2 SLP129 T00441006 10111 20039 55005
KJDD,2022-11-05T11:35:00Z,KJDD 051135Z AUTO 31003KT 10SM CLR 08/05 A2992 RMK AO2
KJDN,2022-11-05T11:48:00Z,KJDN 051148Z AUTO 21015KT 07/M03 A2913 RMK AO1 SLP877 T00721028 10072 20039 56037
KJEF,2022-11-05T11:53:00Z,KJEF 051153Z 24017G29KT 10SM OVC020 09/04 A2958 RMK AO2 PK WND 24033/1112 SLP005 60005 70106 T00890039 10200 20089 51044 $
KJER,2022-11-05T11:53:00Z,KJER 051153Z AUTO 26015G24KT 10SM -RA OVC044 07/03 A2978 RMK AO2 PK WND 27031/1121 RAB1056 SLP086 P0000 60001 70012 T00720028 10083 20056 56022
KJES,2022-11-05T11:30:00Z,KJES 051130Z AUTO 00000KT 10SM SCT065 OVC075 19/18 A3009 RMK AO2
KJFK,2022-11-05T11:51:00Z,KJFK 051151Z 20006KT 10SM BKN070 BKN250 17/16 A3027 RMK AO2 SLP249 T01720161 10172 20156 50000
KJFX,2022-11-05T11:55:00Z,KJFX 051155Z AUTO VRB05G13KT 10SM CLR 18/14 A2994 RMK AO2
KJFZ,2022-11-05T11:55:00Z,KJFZ 051155Z AUTO 16006G14KT 10SM BKN026 BKN033 BKN044 17/13 A3012 RMK AO2 T01710128 10180 20170
KJHN,2022-11-05T11:35:00Z,KJHN 051135Z AUTO 24009KT 10SM CLR M02/M05 A2972 RMK AO2 T10201050
KJHW,2022-11-05T10:56:00Z,KJHW 051056Z AUTO 18006KT 10SM CLR 13/09 A3005 RMK AO2 SLP177 T01280094
KJKA,2022-11-05T11:35:00Z,KJKA 051135Z AUTO 13004KT 10SM FEW026 BKN034 OVC040 22/20 A2997 RMK AO2
KJKJ,2022-11-05T11:55:00Z,KJKJ 051155Z AUTO 15004KT 10SM CLR M07/M08 A2962 RMK AO2 TSNO
KJKL,2022-11-05T11:53:00Z,KJKL 051153Z AUTO 16004KT 10SM CLR 17/12 A3001 RMK AO2 SLP151 T01670117 10183 20167 58005
KJLN,2022-11-05T11:53:00Z,KJLN 051153Z 24015G24KT 10SM OVC015 04/02 A2973 RMK AO2 PK WND 24032/1115 SLP065 60001 70033 T00440022 10061 20044 53014 $
KJMR,2022-11-05T11:55:00Z,KJMR 051155Z AUTO 00000KT 10SM CLR M02/M03 A2965 RMK AO2
KJMS,2022-11-05T10:56:00Z,KJMS 051056Z AUTO 17008KT 10SM CLR M07/M10 A2956 RMK AO2 SLP028 T10671100
KJNX,2022-11-05T11:35:00Z,KJNX 051135Z AUTO 00000KT 2SM BR SCT021 13/12 A3019 RMK AO2 VIS 1V5
KJOT,2022-11-05T11:35:00Z,KJOT 051135Z AUTO 17015G27KT 10SM OVC015 17/15 A2954 RMK AO2 T01690145
KJPX,2022-11-05T11:55:00Z,KJPX 051155Z AUTO 22007KT 10SM BKN070 17/17 A3028 RMK AO2 T01720167 10172 20156
KJQF,2022-11-05T11:55:00Z,KJQF 051155Z AUTO 00000KT 1/2SM FG OVC002 18/17 A3019 RMK AO2
KJRB,2022-11-05T10:56:00Z,KJRB 051056Z AUTO 28006KT 10SM OVC070 A3027 RMK AO2 SLPNO FZRANO $
KJRO,2022-11-05T11:55:00Z,KJRO 051155Z AUTO 00000KT 10SM CLR 15/11 A2999 RMK AO2
KJSO,2022-11-05T11:55:00Z,KJSO 051155Z AUTO 00000KT 10SM CLR 09/08 A2994 RMK AO2 7//// T00850075 10121 20084 TSNO
KJST,2022-11-05T11:54:00Z,KJST 051154Z AUTO 17008KT 10SM SCT013 14/13 A3013 RMK AO2 SLP200 T01390133 10144 20133 55000
KJSY,2022-11-05T11:55:00Z,KJSY 051155Z AUTO 5SM RA SCT027 OVC035 09/04 A2949 RMK AO2 P0004 60009 7//// T00850036 10092 20072 TSNO
KJVL,2022-11-05T11:45:00Z,KJVL 051145Z 16020G31KT 7SM OVC015 16/16 A2944
KJVW,2022-11-05T11:55:00Z,KJVW 051155Z AUTO 31008G13KT 10SM -TSRA SCT006 BKN018 OVC032 13/13 A2995 RMK AO2 LTG DSNT ALQDS
KJVY,2022-11-05T11:35:00Z,KJVY 051135Z AUTO 24009G14KT 10SM SCT085 SCT120 20/13 A2990 RMK AO2 PWINO
KJWG,2022-11-05T11:55:00Z,KJWG 051155Z AUTO 24003KT 10SM CLR 02/01 A2985 RMK AO2 T00240005 10036 20023 70128
KJWN,2022-11-05T11:50:00Z,KJWN 051150Z 27013G21KT 10SM BKN040 20/13 A2993
KJWY,2022-11-05T11:35:00Z,KJWY 051135Z AUTO 29006KT 10SM CLR 07/05 A2995 RMK AO2 T00680045
KJXI,2022-11-05T11:55:00Z,KJXI 051155Z AUTO 10SM CLR 08/05 A2992 RMK AO2 7//// T00800052 10124 20077
KJXN,2022-11-05T10:56:00Z,KJXN 051056Z 17010G24KT 10SM OVC070 17/09 A2979 RMK AO2 SLP084 T01670089
KJYG,2022-11-05T11:55:00Z,KJYG 051155Z AUTO 32006KT 10SM M04/M06 A2955 RMK AO2 TSNO
KJYL,2022-11-05T11:55:00Z,KJYL 051155Z AUTO 00000KT 4SM BR CLR 19/18 A3010 RMK AO2 T01880183 10200 20169
KJYM,2022-11-05T11:55:00Z,KJYM 051155Z AUTO 17010G14KT 10SM OVC065 15/09 A2979 RMK AO2 T01500087 10163 20142
KJYO,2022-11-05T11:55:00Z,KJYO 051155Z AUTO 17007KT 7SM BKN055 17/17 A3020 RMK AO2
KJYR,2022-11-05T11:35:00Z,KJYR 051135Z AUTO 29008KT 10SM CLR M04/M06 A2963 RMK AO2
KJZI,2022-11-05T11:55:00Z,KJZI 051155Z AUTO 12005KT 5SM BR SCT032 SCT042 SCT049 22/20 A3011 RMK AO2
KK62,2022-11-05T11:35:00Z,KK62 051135Z AUTO 16008KT 10SM CLR 15/10 A2991 RMK AO2
KK70,2022-11-05T11:30:00Z,KK70 051130Z AUTO 08008KT 10SM FEW029 FEW035 25/22 A2990 RMK AO2
KK88,2022-11-05T11:35:00Z,KK88 051135Z AUTO 27013G20KT 10SM SCT010 BKN013 OVC027 02/02 A2970 RMK AO1 P0001 T00210021
KKLS,2022-11-05T10:56:00Z,KKLS 051056Z AUTO 34005KT 10SM FEW030 BKN065 09/04 A2986 RMK AO2 SLP114 T00890044
KKNB,2022-11-05T11:35:00Z,KKNB 051135Z AUTO 10SM CLR M02/M03 A3015 RMK A01
KKY8,2022-11-05T11:55:00Z,KKY8 051155Z AUTO 16012G17KT 9SM SCT034 SCT060 OVC075 19/14 A2985 RMK A01
KL08,2022-11-05T11:55:00Z,KL08 051155Z AUTO 00000KT 10SM FEW029 FEW033 SCT041 06/M03 A3006 RMK AO2
KL18,2022-11-05T11:55:00Z,KL18 051155Z AUTO 03004KT 10SM CLR 10/02 A3009 RMK AO2
KL35,2022-11-05T11:55:00Z,KL35 051155Z AUTO 26003KT 10SM CLR M03/M05 A3023 RMK AO2
KL52,2022-11-05T11:55:00Z,KL52 051155Z AUTO 10005KT 10SM CLR 04/01 A3016 RMK A01
KLAA,2022-11-05T11:53:00Z,KLAA 051153Z AUTO 24006KT 10SM CLR M09/M11 A2970 RMK AO2 SLP075 T10891111 11050 21094 56022
KLAF,2022-11-05T11:54:00Z,KLAF 051154Z 17013G25KT 6SM -RA BR BKN070 OVC090 15/13 A2971 RMK AO2 PK WND 16031/1131 SLP057 P0009 60022 70022 T01500128 10211 20150 58008
KLAL,2022-11-05T11:55:00Z,KLAL 051155Z AUTO 02003KT 10SM CLR 19/19 A3000 RMK AO2 T01940194 10206 20192
KLAM,2022-11-05T11:35:00Z,KLAM 051135Z AUTO 21004KT 10SM CLR M04/M10 A3003 RMK AO2 T10431100
KLAN,2022-11-05T11:53:00Z,KLAN 051153Z 19017G24KT 10SM BKN070 OVC095 19/08 A2973 RMK AO2 PK WND 17027/1132 SLP065 70003 T01890083 10194 20183 56011
KLAR,2022-11-05T11:53:00Z,KLAR 051153Z AUTO 22012G22KT 10SM OVC032 M01/M04 A2967 RMK AO2 PK WND 23033/1113 SLP053 T10061039 10006 21039 56017
KLAS,2022-11-05T10:56:00Z,KLAS 051056Z 21004KT 10SM BKN250 08/M07 A3010 RMK AO2 SLP187 T00781072
KLAW,2022-11-05T11:53:00Z,KLAW 051153Z AUTO 23005KT 10SM CLR 03/ A2989 RMK AO2 SLP124 70033 T0028 10056 20022 55001 $
KLAX,2022-11-05T11:53:00Z,KLAX 051153Z 06003KT 10SM FEW250 12/05 A3010 RMK AO2 SLP191 7//// T01170050 10150 20117 56017
KLBB,2022-11-05T11:53:00Z,KLBB 051153Z 26008KT 10SM CLR 02/M02 A2988 RMK AO2 SLP112 70002 T00221022 10039 20011 58003
KLBE,2022-11-05T11:47:00Z,KLBE 051147Z 00000KT 15SM CLR 17/13 A3008
KLBF,2022-11-05T11:53:00Z,KLBF 051153Z AUTO 00000KT 10SM CLR M07/M10 A2960 RMK AO2 SLP043 T10721100 11050 21078 56028
KLBL,2022-11-05T10:56:00Z,KLBL 051056Z AUTO 22006KT 10SM CLR M03/M04 A2978 RMK AO2 SLP102 T10331039 FZRANO
KLBO,2022-11-05T11:55:00Z,KLBO 051155Z AUTO 23020G27KT 10SM OVC019 07/03 A2965 RMK AO2
KLBT,2022-11-05T11:45:00Z,KLBT 051145Z AUTO 00000KT 1/4SM FG OVC032 17/17 A3016 RMK AO2 T01670167 TSNO
KLBX,2022-11-05T11:53:00Z,KLBX 051153Z AUTO 10004KT 10SM SCT050 BKN075 OVC090 16/14 A2992 RMK AO2 SLP131 60020 70021 T01560144 10256 20150 53009
KLCG,2022-11-05T11:55:00Z,KLCG 051155Z AUTO 00000KT 10SM CLR M05/M07 A2960 RMK AO2 T10541075 11021 21054
KLCH,2022-11-05T11:53:00Z,KLCH 051153Z 08009KT 7SM -RA BKN100 OVC120 12/11 A2992 RMK AO2 SLP138 P0015 60144 70146 T01170106 10244 20117 55001
KLCI,2022-11-05T10:56:00Z,KLCI 051056Z AUTO 32004KT 10SM CLR 11/ A3019 RMK AO2 SLP223 T0111
KLCK,2022-11-05T10:55:00Z,KLCK 051055Z AUTO 15006KT 10SM CLR 16/11 A2995 RMK AO2 T01580106
KLCQ,2022-11-05T11:35:00Z,KLCQ 051135Z AUTO 00000KT 1SM BR OVC001 17/16 A3004 RMK AO2
KLDJ,2022-11-05T11:55:00Z,KLDJ 051155Z AUTO 00000KT 10SM OVC075 16/15 A3026 RMK AO2 T01620150 10165 20147
KLDM,2022-11-05T11:55:00Z,KLDM 051155Z AUTO 18013G21KT 10SM SCT019 BKN043 OVC070 17/14 A2954 RMK AO2 60031 70157 T01690140 10171 20153 P0001
KLEB,2022-11-05T11:53:00Z,KLEB 051153Z 00000KT 10SM SCT045 09/08 A3018 RMK AO2 SLP218 T00940078 10128 20072 58002
KLEE,2022-11-05T11:53:00Z,KLEE 051153Z 06004KT 10SM FEW038 SCT080 21/20 A3001 RMK AO2 SLP162 T02110200 10217 20200 53006
KLEW,2022-11-05T10:56:00Z,KLEW 051056Z AUTO 16006KT 10SM CLR 13/13 A3019 RMK AO2 SLP228 T01280128
KLEX,2022-11-05T11:54:00Z,KLEX 051154Z 15010KT 10SM CLR 17/11 A2990 RMK AO2 SLP121 T01670111 10172 20156 58020
KLFI,2022-11-05T11:45:00Z,KLFI 051145Z AUTO 00000KT 1/4SM R08/1600V2800FT FG CLR 15/14 A3022 RMK AO2 VIS 1/4V1 3/4 SLP240 $
KLFK,2022-11-05T11:53:00Z,KLFK 051153Z AUTO 00000KT 10SM CLR 13/12 A2992 RMK AO2 SLP129 60000 70018 T01280117 10150 20128 50011
KLFT,2022-11-05T11:53:00Z,KLFT 051153Z 34013G20KT 5SM RA BR FEW010 BKN034 OVC047 13/12 A2997 RMK AO2 LTG DSNT W SLP148 P0034 60086 70086 T01280117 10261 20128 53045
KLGA,2022-11-05T11:51:00Z,KLGA 051151Z 20006KT 10SM FEW025 BKN070 18/15 A3025 RMK AO2 SLP242 T01780150 10183 20172 50001
KLGB,2022-11-05T11:53:00Z,KLGB 051153Z AUTO 00000KT 10SM CLR 12/03 A3010 RMK AO2 SLP192 T01170033 10150 20111 56017
KLGC,2022-11-05T11:35:00Z,KLGC 051135Z AUTO 00000KT 10SM SCT010 11/09 A3007 RMK AO2 T01060094
KLGD,2022-11-05T11:28:00Z,KLGD 051128Z AUTO 30024G34KT 5SM -RA BKN041 BKN050 BKN100 09/07 A2961 RMK AO2 PK WND 30034/1128 WSHFT 1108 RAB13 PRESRR P0008
KLGF,2022-11-05T10:55:00Z,KLGF 051055Z AUTO 15004KT M M CLR 09/M07 A3007 RMK AO2 SLP183 T00941069 RVRNO PWINO TSNO $
KLGU,2022-11-05T11:51:00Z,KLGU 051151Z AUTO 10SM -RA SCT027 OVC033 04/02 A2988 RMK AO2 RAB1056 SLP116 P0001 60003 70003 T00390017 10044 20028 56028
KLHB,2022-11-05T11:35:00Z,KLHB 051135Z AUTO 00000KT 10SM CLR 10/08 A2994 RMK AO2 T00950080
KLHM,2022-11-05T11:35:00Z,KLHM 051135Z AUTO 13006KT 10SM BKN036 OVC049 12/02 A3019 RMK AO1
KLHQ,2022-11-05T11:53:00Z,KLHQ 051153Z AUTO 15006KT 10SM CLR 17/11 A2996 RMK AO2 SLP141 T01670111 10178 20156 56007
KLHW,2022-11-05T11:48:00Z,KLHW 051148Z AUTO 00000KT 9SM RA FEW010 FEW022 BKN029 BKN045 20/19 A3005 RMK AO2 RAE11DZB15E22RAB22E38RAB48 CIG 029V047 SLP179 $
KLHX,2022-11-05T11:53:00Z,KLHX 051153Z AUTO 27011KT 10SM CLR M04/M08 A2971 RMK AO2 SLP067 T10391083 11006 21050 56020 $
KLHZ,2022-11-05T11:55:00Z,KLHZ 051155Z AUTO 00000KT M1/4SM FG OVC001 15/15 A3022 RMK AO2 P0001
KLIC,2022-11-05T10:55:00Z,KLIC 051055Z AUTO 01006KT 10SM CLR M09/M14 A2968 RMK AO2 SLP064 T10941144
KLIT,2022-11-05T11:53:00Z,KLIT 051153Z 30009G17KT 10SM SCT020 BKN085 13/08 A2982 RMK AO2 SLP098 60012 70099 T01330083 10206 20133 53017 $
KLJF,2022-11-05T11:55:00Z,KLJF 051155Z AUTO 00000KT 10SM CLR M04/M06 A2960 RMK AO2
KLKR,2022-11-05T11:55:00Z,KLKR 051155Z AUTO 09004KT 5SM BR OVC004 19/19 A3015 RMK AO2
KLKU,2022-11-05T11:55:00Z,KLKU 051155Z AUTO 14004KT 7SM BKN004 OVC050 17/ A3021 RMK AO2 T0166//// 10171 20161
KLKV,2022-11-05T11:53:00Z,KLKV 051153Z AUTO 15014KT 10SM UP OVC013 03/01 A2999 RMK AO2 UPE10B48 SLP161 P0000 60000 T00280011 10044 20028 58013
KLLJ,2022-11-05T10:55:00Z,KLLJ 051055Z AUTO 16010G21KT 10SM OVC055 08/M02 A2956 RMK AO2 PK WND 16026/1021 SLP991 T00831017
KLLQ,2022-11-05T11:53:00Z,KLLQ 051153Z AUTO 19005KT 10SM CLR 12/11 A2986 RMK AO2 SLP108 60105 70162 T01220111 10200 20122 51013
KLMO,2022-11-05T11:35:00Z,KLMO 051135Z AUTO 00000KT 10SM CLR M01/M03 A2963 RMK AO2 T10101035
KLMT,2022-11-05T11:53:00Z,KLMT 051153Z AUTO 17013KT 10SM -RA BKN021 OVC028 07/04 A2994 RMK AO2 SLP128 P0004 60017 70017 T00670044 10094 20067 58019
KLNA,2022-11-05T11:35:00Z,KLNA 051135Z AUTO 09008KT 10SM CLR 26/21 A2995 RMK AO2 T02570205 PNO
KLNC,2022-11-05T11:55:00Z,KLNC 051155Z AUTO 30006KT 10SM CLR 07/04 A2995 RMK AO2 70050 T00700043 10095 20065
KLND,2022-11-05T11:53:00Z,KLND 051153Z AUTO VRB03KT 10SM CLR M01/M06 A2954 RMK AO2 SLP008 T10061056 10006 21033 56027
KLNK,2022-11-05T11:54:00Z,KLNK 051154Z 29007KT 10SM BKN110 01/M04 A2962 RMK AO2 SLP038 70007 T00061044 10028 20006 55012
KLNL,2022-11-05T11:55:00Z,KLNL 051155Z AUTO 05007KT 3SM -RA OVC006 03/02 A2963 RMK AO2 P0001 60003 70004 T00260023 10027 20018
KLNN,2022-11-05T11:35:00Z,KLNN 051135Z AUTO 19009G15KT 10SM CLR 18/09 A2993 RMK AO1 T01760090
KLNP,2022-11-05T11:55:00Z,KLNP 051155Z AUTO 17010G18KT 10SM BKN048 17/12 A3010 RMK AO2
KLNR,2022-11-05T11:45:00Z,KLNR 051145Z AUTO 05004KT 1 3/4SM RA OVC011 11/08 A2942 RMK AO2 P0010 T01060078
KLNS,2022-11-05T11:53:00Z,KLNS 051153Z 17004KT 10SM OVC065 18/16 A3021 RMK AO2 SLP229 T01780161 10183 20156 56004 $
KLOL,2022-11-05T11:53:00Z,KLOL 051153Z AUTO 21009KT 10SM OVC085 11/00 A3003 RMK AO2 SLP160 T01060000 10106 20056 58016
KLOM,2022-11-05T11:35:00Z,KLOM 051135Z AUTO 17004KT 7SM BR OVC004 16/16 A3025 RMK AO2 T01610160
KLOR,2022-11-05T10:55:00Z,KLOR 051055Z AUTO 00000KT 9SM FEW290 12/12 A3002 RMK AO2 SLP149 T01230120
KLOT,2022-11-05T11:35:00Z,KLOT 051135Z AUTO 16023G32KT 10SM OVC014 16/15 A2955 RMK AO2
KLOU,2022-11-05T11:53:00Z,KLOU 051153Z 22010G23KT 10SM BKN090 BKN110 20/13 A2990 RMK AO2 PK WND 19029/1135 WSHFT 1136 SLP122 T02000128 10200 20172 53006
KLOZ,2022-11-05T11:53:00Z,KLOZ 051153Z AUTO 16004KT 10SM CLR 16/11 A2999 RMK AO2 SLP146 T01560111 10156 20111 58008
KLPC,2022-11-05T10:56:00Z,KLPC 051056Z AUTO 27008KT 10SM CLR 07/04 A3016 RMK AO2 SLP213 T00670044
KLPR,2022-11-05T11:53:00Z,KLPR 051153Z AUTO 18013KT 10SM CLR 16/11 A2993 RMK AO2 SLP132 T01610106 10172 20156 56003
KLQK,2022-11-05T11:55:00Z,KLQK 051155Z AUTO 10SM OVC005 18/18 A3012 RMK AO2 7//// T01800180 10180 20168
KLRD,2022-11-05T10:56:00Z,KLRD 051056Z 34007KT 10SM OVC065 A2995 RMK AO2 SLPNO $
KLRF,2022-11-05T10:55:00Z,KLRF 051055Z 27007KT 10SM CLR 13/09 A2978 RMK AO2A SLP086 WND DATA ESTMD T01280087 RVRNO FZRANO $
KLRJ,2022-11-05T11:35:00Z,KLRJ 051135Z AUTO 00000KT 10SM CLR M04/M05 A2959 RMK AO2
KLRO,2022-11-05T11:55:00Z,KLRO 051155Z AUTO 09003KT 3SM BR BKN033 BKN042 OVC055 21/21 A3011 RMK AO2
KLRU,2022-11-05T11:55:00Z,KLRU 051155Z AUTO 32006KT 10SM CLR 00/M06 A3008 RMK AO2 T10051058 10037 21007
KLRY,2022-11-05T11:55:00Z,KLRY 051155Z AUTO 26009KT -RA BKN009 OVC016 04/03 A2961 RMK AO2 TSNO
KLSE,2022-11-05T11:53:00Z,KLSE 051153Z 01007KT 4SM RA BR OVC014 06/05 A2949 RMK AO2 RAB1058 SLP992 P0003 60015 70084 T00610050 10067 20056 56037
KLSF,2022-11-05T11:40:00Z,KLSF 051140Z AUTO 29003KT 1 1/4SM BR CLR 10/10 M RMK AO2 VIS 1 1/4V5 SLPNO CHINO RWY15 $
KLSV,2022-11-05T10:55:00Z,KLSV 051055Z AUTO 03004KT 10SM CLR 07/M06 A3008 RMK AO2 SLP180 T00661064
KLTS,2022-11-05T10:55:00Z,KLTS 051055Z AUTO 27005KT 10SM CLR 02/01 A2986 RMK AO2 SLP115 T00220009 $
KLUA,2022-11-05T11:35:00Z,KLUA 051135Z AUTO 21003KT 7SM BKN028 OVC039 17/17 A3017 RMK AO2 P0001
KLUD,2022-11-05T11:35:00Z,KLUD 051135Z AUTO 28006KT 7SM CLR 05/02 A2992 RMK AO2 T00480022
KLUF,2022-11-05T10:55:00Z,KLUF 051055Z AUTO 00000KT 10SM CLR 08/02 A3008 RMK AO2 SLP184 T00770017 $
KLUG,2022-11-05T11:35:00Z,KLUG 051135Z AUTO 16012G21KT 10SM CLR 19/12 A2989 RMK A01
KLUK,2022-11-05T11:53:00Z,KLUK 051153Z 19011G19KT 10SM CLR 17/11 A2990 RMK AO2 SLP121 T01670106 10167 20128 57014
KLUL,2022-11-05T11:35:00Z,KLUL 051135Z AUTO 16010KT 10SM BKN009 OVC070 21/20 A2990 RMK A02 T02060195
KLUM,2022-11-05T11:55:00Z,KLUM 051155Z AUTO 36007KT 10SM OVC009 05/05 A2955 RMK AO2 T00460046 10048 20041 PWINO
KLUV,2022-11-05T11:35:00Z,KLUV 051135Z AUTO 27009KT 10SM CLR 06/M04 A2993 RMK AO2
KLUX,2022-11-05T11:35:00Z,KLUX 051135Z AUTO 00000KT 1/2SM FG OVC002 17/17 A3014 RMK AO2
KLVJ,2022-11-05T11:53:00Z,KLVJ 051153Z AUTO 00000KT 10SM BKN055 16/13 A2994 RMK AO2 SLP137 60014 70026 T01610133 10183 20161 53012
KLVK,2022-11-05T11:53:00Z,KLVK 051153Z AUTO 00000KT 2SM BR SCT005 OVC013 11/11 A3020 RMK AO2 SLP225 T01110106 10117 20089 56015
KLVL,2022-11-05T11:55:00Z,KLVL 051155Z AUTO 00000KT 1/2SM OVC001 16/16 A3022 RMK AO1 T01640159 10179 20162
KLVM,2022-11-05T11:53:00Z,KLVM 051153Z AUTO 21041G55KT 10SM OVC070 08/M03 A2926 RMK AO2 PK WND 21055/1153 PRESFR SLP905 T00781028 10083 20056 58031
KLVN,2022-11-05T11:35:00Z,KLVN 051135Z AUTO 01005KT 10SM SCT013 120 01/M01 A2957 RMK AO2
KLVS,2022-11-05T11:53:00Z,KLVS 051153Z AUTO 27005KT 10SM CLR M04/M09 A2985 RMK AO2 SLP098 70003 T10391089 10000 21050 56017
KLWA,2022-11-05T11:55:00Z,KLWA 051155Z AUTO 15006G18KT 10SM RA SCT050 OVC095 16/13 A2958 RMK AO2 T01550130 10207 20155
KLWB,2022-11-05T11:35:00Z,KLWB 051135Z AUTO 16003KT 10SM SCT037 BKN048 OVC050 17/14 A3017 RMK AO2 T01730136
KLWC,2022-11-05T11:52:00Z,KLWC 051152Z AUTO 29016G25KT 5SM RA BR BKN010 OVC014 03/02 A2960 RMK AO1 CIG 008V012 SLP027 P0007 60046 70227 T00330017 10050 20033 53010
KLWD,2022-11-05T11:53:00Z,KLWD 051153Z AUTO 34008KT 4SM -RA BR BKN005 OVC010 04/03 A2942 RMK AO2 SLP968 P0003 60036 70307 T00390033 10044 20039 56014
KLWM,2022-11-05T11:54:00Z,KLWM 051154Z 20004KT 10SM CLR 15/13 A3025 RMK AO2 SLP243 T01500133 10156 20128 55003
KLWS,2022-11-05T10:56:00Z,KLWS 051056Z AUTO 26019G24KT 10SM -RA SCT041 BKN048 OVC060 12/08 A2940 RMK AO2 PK WND 21031/0958 SLP955 P0004 T01220078
KLWT,2022-11-05T11:54:00Z,KLWT 051154Z AUTO 19008KT 10SM BKN065 08/M02 A2913 RMK AO2 PK WND 24036/1101 PRESFR SLP861 T00781017 10100 20072 58037
KLWV,2022-11-05T11:53:00Z,KLWV 051153Z AUTO 16019G26KT 6SM RA BR BKN095 OVC110 16/14 A2975 RMK AO2 PK WND 16027/1102 SLP071 P0011 60041 70041 T01560144 10211 20156 58008 TSNO $
KLXL,2022-11-05T11:35:00Z,KLXL 051135Z AUTO 00000KT M06/M07 A2965 RMK AO2 PWINO
KLXN,2022-11-05T11:35:00Z,KLXN 051135Z AUTO 30003KT 10SM CLR M06/M07 A2962 RMK AO2 T10621075
KLXT,2022-11-05T11:53:00Z,KLXT 051153Z AUTO 26015G21KT 4SM -RA BR BKN007 OVC011 03/03 A2954 RMK AO2 RAB19 CIG 004V008 SLP009 P0000 60003 70252 T00330033 10044 20033 53006
KLXV,2022-11-05T11:53:00Z,KLXV 051153Z AUTO 01013G19KT 6SM BR SCT029 BKN033 OVC043 M05/M07 A2988 RMK AO2 SNE24 SLP102 P0001 60004 70004 T10501072 11050 21094 58018
KLYH,2022-11-05T11:54:00Z,KLYH 051154Z 17007KT 2SM R04/6000VP6000FT RA BR OVC005 19/18 A3019 RMK AO2 RAB38 SLP217 P0003 60018 70018 T01890178 10194 20183 55001
KLYO,2022-11-05T11:55:00Z,KLYO 051155Z AUTO 27009KT 10SM CLR 01/M01 A2971 RMK AO2 T00081014 10039 20008 60001 70032
KLYV,2022-11-05T11:55:00Z,KLYV 051155Z AUTO 00000KT 10SM CLR M04/M07 A2960 RMK AO2
KLZU,2022-11-05T11:55:00Z,KLZU 051155Z 10004KT 1 1/2SM BR OVC003 17/17 A3011 RMK AO2 VIS 3/4V3 SLP201 T01720167 10172 20150 53002
KLZZ,2022-11-05T11:35:00Z,KLZZ 051135Z AUTO 35006KT 10SM CLR 08/04 A2992 RMK AO2 T00780035
KM01,2022-11-05T11:55:00Z,KM01 051155Z AUTO 17012KT 8SM BKN007 OVC013 17/17 A2977 RMK AO2 WSHFT 1147 RAE1152 P0001 T01720172 $
KM02,2022-11-05T11:35:00Z,KM02 051135Z AUTO 22011G18KT 10SM OVC036 19/12 A2992 RMK A01
KM04,2022-11-05T11:30:00Z,KM04 051130Z AUTO 18012KT 140V200 4SM BR FEW008 BKN027 OVC055 17/16 A2980 RMK A01
KM08,2022-11-05T11:35:00Z,KM08 051135Z AUTO 13010KT 4SM BR SCT029 BKN034 OVC065 17/16 A2985 RMK A01
KM19,2022-11-05T10:56:00Z,KM19 051056Z AUTO 20012KT 10SM CLR 15/13 A2975 RMK AO2 SLP072 T01500133
KM21,2022-11-05T11:55:00Z,KM21 051155Z AUTO 19009KT 10SM SCT060 SCT070 OVC090 19/13 A2990 RMK AO2 T01850125 10201 20184
KM25,2022-11-05T11:55:00Z,KM25 051155Z AUTO 18013G24KT 10SM BKN110 15/14 A2981 RMK AO2 P0009 PWINO
KM30,2022-11-05T11:35:00Z,KM30 051135Z AUTO 16013G19KT 10SM -RA SCT016 SCT034 OVC110 16/16 A2978 RMK AO2 T01620157
KM40,2022-11-05T11:55:00Z,KM40 051155Z AUTO VRB05G11KT 5SM -DZ BKN026 BKN035 OVC070 18/18 A2998 RMK AO2
KM54,2022-11-05T11:30:00Z,KM54 051130Z AUTO 16013G23KT 10SM CLR 20/13 A2987 RMK A01
KM75,2022-11-05T11:35:00Z,KM75 051135Z AUTO 19006KT 10SM FEW065 BKN075 OVC110 07/M00 A2903 RMK A01
KM91,2022-11-05T11:35:00Z,KM91 051135Z AUTO 18014G22KT 10SM BKN039 BKN080 OVC110 20/13 A2989 RMK A01
KMAE,2022-11-05T11:53:00Z,KMAE 051153Z AUTO 07004KT 10SM CLR 06/03 A3023 RMK AO2 SLP237 T00610028 10083 20044 56017
KMAF,2022-11-05T11:53:00Z,KMAF 051153Z 24006KT 10SM CLR 04/M04 A2995 RMK AO2 SLP125 T00441039 10061 20033 56004
KMAI,2022-11-05T11:53:00Z,KMAI 051153Z AUTO 00000KT 10SM CLR 15/14 A3002 RMK AO1 SLP164 T01500139 10178 20144 53005
KMAN,2022-11-05T11:55:00Z,KMAN 051155Z AUTO 25009G16KT 10SM CLR 12/04 A2971 RMK A01
KMAO,2022-11-05T11:55:00Z,KMAO 051155Z AUTO 00000KT 5SM BR CLR 17/15 A3015 RMK AO2
KMAW,2022-11-05T11:55:00Z,KMAW 051155Z AUTO 18023G29KT 10SM -RA BKN010 OVC017 18/17 A2970 RMK AO1
KMBG,2022-11-05T11:52:00Z,KMBG 051152Z AUTO 15010KT 10SM CLR M01/M06 A2947 RMK AO2 SLP993 T10061056 10000 21033 56034
KMBL,2022-11-05T11:48:00Z,KMBL 051148Z AUTO 17008KT 10SM -RA SCT011 BKN014 OVC028 16/15 A2956 RMK AO2 RAB16 P0000
KMBO,2022-11-05T11:55:00Z,KMBO 051155Z AUTO 29003KT 1 3/4SM -RA BR OVC004 14/14 A2992 RMK AO2 LTG DSNT ALQDS P0006 VIS 1 1/4V2 1/2
KMBS,2022-11-05T11:53:00Z,KMBS 051153Z 17012G22KT 10SM FEW060 OVC080 18/10 A2972 RMK AO2 SLP061 70022 T01780100 10183 20172 57010
KMBT,2022-11-05T11:35:00Z,KMBT 051135Z AUTO 17013G27KT 10SM CLR 20/13 A2989 RMK A01
KMBY,2022-11-05T11:55:00Z,KMBY 051155Z AUTO 22025G30KT 10SM OVC016 07/03 A2948 RMK AO2
KMCB,2022-11-05T11:53:00Z,KMCB 051153Z AUTO 32007G17KT 1 1/2SM +TSRA BR FEW005 BKN024 OVC033 14/13 A2994 RMK AO2 WSHFT 1040 LTG DSNT W TSB46 SLP133 P0050 60093 70094 T01390128 10222 20139 53020
KMCC,2022-11-05T11:35:00Z,KMCC 051135Z AUTO 15011KT 10SM OVC013 12/04 A3019 RMK AO2
KMCD,2022-11-05T11:35:00Z,KMCD 051135Z AUTO 08006KT 5SM -RA OVC002 08/08 A2960 RMK AO2 T00800080 P0008
KMCE,2022-11-05T11:53:00Z,KMCE 051153Z AUTO 08003KT 10SM CLR 07/04 A3022 RMK AO2 SLP233 T00670039 10089 20044 56015
KMCF,2022-11-05T11:52:00Z,KMCF 051152Z AUTO 36003KT 10SM FEW003 20/19 A2995 RMK AO2 SLP145 FZRANO $
KMCI,2022-11-05T11:53:00Z,KMCI 051153Z 29013G21KT 8SM -RA BKN007 OVC012 04/02 A2953 RMK AO2 SLP002 P0004 60028 70271 T00390022 10056 20039 51003 $
KMCJ,2022-11-05T11:55:00Z,KMCJ 051155Z AUTO 06009KT 10SM BKN060 16/11 A2991 RMK A01
KMCK,2022-11-05T11:53:00Z,KMCK 051153Z AUTO 28006KT 10SM CLR M06/M09 A2963 RMK AO2 SLP054 T10561089 11028 21067 56029
KMCN,2022-11-05T11:53:00Z,KMCN 051153Z 00000KT 10SM FEW005 FEW019 12/12 A3008 RMK AO2 SLP183 T01220117 10139 20122 53003
KMCO,2022-11-05T11:53:00Z,KMCO 051153Z 02004KT 10SM FEW031 SCT050 SCT070 SCT250 22/21 A3000 RMK AO2 SLP156 VCSH NW 60000 T02170206 10222 20206 53005
KMCW,2022-11-05T11:53:00Z,KMCW 051153Z AUTO 36011KT 8SM -RA OVC006 03/02 A2950 RMK AO2 UPB44E51RAB51 SLP994 P0000 60001 70009 T00280022 10028 20028 56027
KMDD,2022-11-05T11:35:00Z,KMDD 051135Z AUTO 26003KT 10SM CLR 06/M05 A2996 RMK AO2 T00551054
KMDH,2022-11-05T11:49:00Z,KMDH 051149Z 170/27G40KT 10SM OVC013 17/16 A2960
KMDQ,2022-11-05T11:35:00Z,KMDQ 051135Z AUTO 14015G20KT 10SM CLR 19/12 A2995 RMK A02 T01860121
KMDS,2022-11-05T11:55:00Z,KMDS 051155Z AUTO 07003KT 10SM CLR M07/M07 A2958 RMK AO2
KMDT,2022-11-05T10:56:00Z,KMDT 051056Z 12003KT 10SM BKN018 OVC024 16/14 A3019 RMK AO2 SLP222 T01560139
KMDW,2022-11-05T11:53:00Z,KMDW 051153Z 18019G35KT 10SM OVC017 18/13 A2954 RMK AO2 PK WND 18037/1129 SLP997 6//// 7//// T01780133 10206 20167 56025 $
KMDZ,2022-11-05T11:55:00Z,KMDZ 051155Z AUTO 04007KT 3SM BKN006 BKN024 OVC030 03/03 A2954 RMK AO2 P0001 60005 70007 T00320032 10037 20031 PWINO
KMEB,2022-11-05T11:52:00Z,KMEB 051152Z AUTO 09003KT 1/4SM FG VV003 18/17 A3017 RMK AO2 SLP214 T01830172 10194 20183 53000
KMEH,2022-11-05T11:40:00Z,KMEH 051140Z AUTO VRB06G24KT 10SM -RA BKN009 BKN012 OVC018 04/03 A2963 RMK AO2 PK WND 29036/1116 P0007 T00440033
KMEI,2022-11-05T11:41:00Z,KMEI 051141Z 17010KT 10SM BKN013 OVC070 20/18 A2990 RMK AO2 T02000183
KMEM,2022-11-05T11:54:00Z,KMEM 051154Z 18014G24KT 3SM -RA BR BKN009 BKN043 OVC100 17/16 A2978 RMK AO2 SLP082 P0015 60161 70161 T01670161 10222 20167 56016
KMER,2022-11-05T11:35:00Z,KMER 051135Z AUTO 00000KT 7SM CLR 04/04 A3022 RMK AO1
KMEV,2022-11-05T11:35:00Z,KMEV 051135Z AUTO 20005G10KT 10SM SCT045 SCT055 07/M05 A3008 RMK AO2
KMEZ,2022-11-05T11:55:00Z,KMEZ 051155Z AUTO 25003KT 10SM 07/05 A2986 RMK AO2 T00690050
KMFD,2022-11-05T11:52:00Z,KMFD 051152Z 16015KT 10SM CLR 16/11 A2993 RMK AO2 SLP133 T01610106 10167 20156 56005
KMFE,2022-11-05T11:53:00Z,KMFE 051153Z 36015G23KT 10SM OVC026 22/11 A2990 RMK AO2 SLP123 T02170106 10256 20217 53019
KMFI,2022-11-05T11:54:00Z,KMFI 051154Z AUTO 06012KT 4SM BR BKN007 OVC010 04/04 A2950 RMK AO2 RAE51 SLP999 P0002 60007 70022 T00440039 10050 20044 58037
KMFR,2022-11-05T11:53:00Z,KMFR 051153Z AUTO 36005KT 4SM -RA BR OVC036 11/11 A2992 RMK AO2 SLP132 P0001 60018 70018 T01110106 10122 20100 56021
KMFV,2022-11-05T11:55:00Z,KMFV 051155Z AUTO 15005KT 10SM CLR 15/14 A3024 RMK AO2 T01500137 10162 20142
KMGC,2022-11-05T11:35:00Z,KMGC 051135Z AUTO 16016G26KT 7SM -RA SCT055 BKN100 OVC120 15/13 A2959 RMK AO2
KMGE,2022-11-05T10:55:00Z,KMGE 051055Z AUTO 12007KT 10SM OVC007 18/16 A3007 RMK AO2 SLP178 T01810164 $
KMGG,2022-11-05T11:55:00Z,KMGG 051155Z AUTO 35006KT 10SM CLR M02/M04 A2961 RMK AO2 T10161040 10000 21017
KMGJ,2022-11-05T11:54:00Z,KMGJ 051154Z AUTO 00000KT 10SM FEW017 OVC070 12/12 A3022 RMK AO2 SLP236 60000 T01220117 10122 20089 58003
KMGM,2022-11-05T11:53:00Z,KMGM 051153Z 09005KT 10SM CLR 12/12 A3002 RMK AO2 SLP162 T01220117 10150 20117 58004
KMGN,2022-11-05T11:55:00Z,KMGN 051155Z AUTO 09005KT 10SM RA SCT006 OVC016 08/08 A2959 RMK AO2 T00900090
KMGR,2022-11-05T11:35:00Z,KMGR 051135Z AUTO 00000KT 1SM BR OVC001 17/17 A3005 RMK AO2
KMGW,2022-11-05T11:53:00Z,KMGW 051153Z 15005KT 10SM CLR 17/12 A3008 RMK AO2 SLP181 T01670122 10172 20150 56002
KMGY,2022-11-05T11:53:00Z,KMGY 051153Z AUTO 18012G22KT 10SM CLR 17/11 A2989 RMK AO2 SLP117 T01720106 10178 20161 58009
KMHE,2022-11-05T11:53:00Z,KMHE 051153Z AUTO 00000KT 10SM CLR M09/M13 A2960 RMK AO2 SLP040 T10941133 11056 21100 56030 $
KMHK,2022-11-05T11:52:00Z,KMHK 051152Z 25006KT 10SM OVC120 04/03 A2968 RMK AO2 SLP056 60060 70214 T00390028 10044 20022 51004
KMHL,2022-11-05T11:55:00Z,KMHL 051155Z AUTO 21013G26KT 10SM OVC014 05/03 A2954 RMK AO2
KMHP,2022-11-05T11:30:00Z,KMHP 051130Z AUTO 08004KT 7SM HZ SCT037 SCT065 18/ A3008 RMK AO2 T0182////
KMHR,2022-11-05T11:35:00Z,KMHR 051135Z AUTO 15009KT 10SM OVC021 11/04 A3018 RMK A01
KMHS,2022-11-05T10:56:00Z,KMHS 051056Z AUTO 00000KT 8SM -RA SCT020 BKN055 OVC095 03/01 A3011 RMK AO2 SLP215 P0000 T00330006
KMHT,2022-11-05T11:53:00Z,KMHT 051153Z 18005KT 10SM FEW030 SCT250 15/13 A3021 RMK AO2 SLP243 T01500133 10156 20139 53001
KMHV,2022-11-05T11:40:00Z,KMHV 051140Z AUTO 34006KT 10SM CLR 05/M03 A3011 RMK A01
KMIA,2022-11-05T11:53:00Z,KMIA 051153Z 00000KT 10SM FEW030 SCT040 24/22 A2993 RMK AO2 RAB01E13 SLP134 P0000 60001 70003 T02440217 10250 20228 53002 $
KMIB,2022-11-05T11:16:00Z,KMIB 051116Z 20009G14KT 10SM OVC070 00/M05 A2933 RMK SLP952 $
KMIC,2022-11-05T11:53:00Z,KMIC 051153Z 10SM CLR M01/M03 A2957 RMK AO2 SLP022 T10111033 10006 21017 56033 $
KMIE,2022-11-05T11:53:00Z,KMIE 051153Z 19011G25KT 10SM CLR 18/09 A2982 RMK AO2 PK WND 19027/1059 SLP091 T01780094 10194 20178 53008
KMIV,2022-11-05T11:54:00Z,KMIV 051154Z AUTO 00000KT 1/4SM FG SCT027 12/12 A3025 RMK AO2 SLP243 T01220122 10161 20117 50002
KMIW,2022-11-05T11:53:00Z,KMIW 051153Z AUTO 01015KT 6SM RA BR BKN006 OVC020 06/04 A2939 RMK AO2 SLP955 P0016 60049 70197 T00560044 10056 20056 58043 $
KMJD,2022-11-05T11:35:00Z,KMJD 051135Z AUTO 15009KT 10SM UP FEW007 SCT017 BKN044 23/23 A2989 RMK AO2
KMJQ,2022-11-05T11:35:00Z,KMJQ 051135Z AUTO 33009KT 10SM CLR M03/M05 A2957 RMK AO2
KMKC,2022-11-05T11:54:00Z,KMKC 051154Z 26012G20KT 10SM OVC013 04/03 A2955 RMK AO2 SLP009 60003 70235 T00390028 10056 20039 53008 $
KMKE,2022-11-05T11:52:00Z,KMKE 051152Z 16007KT 10SM OVC020 16/14 A2949 RMK AO2 SLP986 60019 70059 T01560139 10156 20117 57028
KMKG,2022-11-05T10:55:00Z,KMKG 051055Z 15014G27KT 8SM -RA FEW070 OVC090 17/14 A2963 RMK AO2 PK WND 15030/1025 SLP031 P0008 T01720144
KMKJ,2022-11-05T11:55:00Z,KMKJ 051155Z AUTO 00000KT 10SM -DZ BKN022 OVC029 17/14 A3018 RMK AO2 T01650135 10176 20163
KMKL,2022-11-05T11:53:00Z,KMKL 051153Z 17014G24KT 6SM -RA BR OVC100 17/15 A2985 RMK AO2 SLP105 P0015 60051 70051 T01670150 10211 20161 50024
KMKN,2022-11-05T11:55:00Z,KMKN 051155Z AUTO 30006KT 10SM CLR 06/04 A2995 RMK AO2 T00630035 10143 20060
KMKO,2022-11-05T11:53:00Z,KMKO 051153Z AUTO 28007KT 10SM SCT020 SCT040 06/03 A2986 RMK AO2 SLP109 70102 T00610033 10078 20061 51013
KMKS,2022-11-05T11:35:00Z,KMKS 051135Z AUTO 00000KT 7SM OVC031 18/17 A3012 RMK AO2
KMKT,2022-11-05T11:16:00Z,KMKT 051116Z AUTO 01008KT 10SM BKN007 M01/M02 A2959 RMK AO2 FZRANO PNO $
KMKY,2022-11-05T10:56:00Z,KMKY 051056Z AUTO 03005KT 10SM CLR 21/19 A2995 RMK AO2 SLP140 T02060189 TSNO PNO $
KMLB,2022-11-05T11:53:00Z,KMLB 051153Z 10010KT 10SM FEW027 BKN032 BKN055 25/21 A2996 RMK AO2 SLP145 60000 70003 T02500206 10256 20239 53002
KMLC,2022-11-05T11:53:00Z,KMLC 051153Z AUTO 25003KT 10SM FEW070 06/03 A2987 RMK AO2 SLP113 70049 T00610033 10078 20061 53010
KMLE,2022-11-05T11:35:00Z,KMLE 051135Z AUTO 33007KT 10SM SCT120 01/M04 A2958 RMK AO2 T00101037
KMLF,2022-11-05T11:52:00Z,KMLF 051152Z AUTO 22013KT 10SM CLR 01/M03 A3003 RMK AO2 SLP170 T00111033 10011 20000 56015 TSNO
KMLI,2022-11-05T11:52:00Z,KMLI 051152Z 17014G29KT 4SM -RA BR OVC012 18/16 A2933 RMK AO2 PK WND 17030/1139 RAB04 SLP930 P0003 60015 70166 T01830161 10189 20156 58041
KMLJ,2022-11-05T11:35:00Z,KMLJ 051135Z AUTO VRB06KT 7SM OVC003 19/19 A3008 RMK AO2
KMLP,2022-11-05T11:53:00Z,KMLP 051153Z AUTO 31009G30KT 270V020 10SM M01/M04 A2923 RMK AO2 PK WND 28042/1137 SLP867 6//// 7//// T10111039 10006 21011 $
KMLS,2022-11-05T11:53:00Z,KMLS 051153Z AUTO 15009KT 10SM CLR 04/M04 A2924 RMK AO2 SLP909 T00441044 10067 20039 56036
KMLT,2022-11-05T11:53:00Z,KMLT 051153Z AUTO 00000KT 10SM CLR 05/04 A3014 RMK AO2 SLP211 T00500044 10089 20039 53005
KMLU,2022-11-05T11:53:00Z,KMLU 051153Z 19004KT 10SM OVC095 12/11 A2993 RMK AO2 RAB01E24 SLP134 P0000 60169 70173 T01220111 10250 20122 53013
KMMH,2022-11-05T11:34:00Z,KMMH 051134Z AUTO 00000KT 10SM CLR M06/M08 A3019 RMK AO2
KMMI,2022-11-05T11:35:00Z,KMMI 051135Z AUTO 00000KT 10SM FEW037 SCT042 OVC050 18/15 A3006 RMK A01
KMMK,2022-11-05T11:53:00Z,KMMK 051153Z AUTO VRB03KT 10SM OVC070 16/14 A3027 RMK AO2 SLP249 T01610139 10161 20100 53001
KMML,2022-11-05T10:56:00Z,KMML 051056Z AUTO 29007KT 10SM CLR M09/M11 A2963 RMK AO2 SLP052 T10941111 FZRANO
KMMT,2022-11-05T11:45:00Z,KMMT 051145Z 10003KT 3SM BR FEW003 FEW009 BKN070 BKN250 19/19 A3011 RMK AO2A SLP198 $
KMMU,2022-11-05T11:45:00Z,KMMU 051145Z 00000KT 10SM OVC070 15/15 A3025
KMMV,2022-11-05T11:53:00Z,KMMV 051153Z AUTO 27006KT 10SM OVC050 10/04 A2990 RMK AO2 SLP125 60003 70209 T01000039 10144 20100 51037 $
KMNH,2022-11-05T11:35:00Z,KMNH 051135Z AUTO 21009KT 10SM CLR 01/M26 A2969 RMK AO2
KMNI,2022-11-05T11:55:00Z,KMNI 051155Z AUTO 00000KT 5SM BR SCT029 BKN034 OVC041 18/18 A3013 RMK AO2 P0001
KMNM,2022-11-05T10:56:00Z,KMNM 051056Z AUTO 04011KT 4SM BR OVC006 04/04 A2959 RMK AO2 SLP023 T00440039 PNO $
KMNN,2022-11-05T11:53:00Z,KMNN 051153Z AUTO 17012KT 9SM CLR 17/10 A2991 RMK AO2 SLP126 T01670100 10167 20139 58007
KMNV,2022-11-05T11:35:00Z,KMNV 051135Z AUTO VRB04KT 10SM SCT035 BKN042 OVC060 20/16 A3004 RMK A01
KMNZ,2022-11-05T11:55:00Z,KMNZ 051155Z AUTO 33005KT 10SM CLR 06/03 A2995 RMK AO2 7//// T00630034 10119 20060
KMOB,2022-11-05T10:56:00Z,KMOB 051056Z 12005KT 7SM FEW017 SCT080 20/19 A2997 RMK AO2 SLP146 T02000189 $
KMOD,2022-11-05T11:53:00Z,KMOD 051153Z AUTO 11003KT 10SM BKN030 OVC045 06/05 A3021 RMK AO2 SLP230 T00610050 10083 20056 58012
KMOP,2022-11-05T11:35:00Z,KMOP 051135Z AUTO 16009G14KT 10SM CLR 17/11 A2968 RMK AO2 T01670105
KMOR,2022-11-05T11:35:00Z,KMOR 051135Z AUTO 00000KT 10SM SCT050 BKN060 14/13 A3003 RMK A01
KMOT,2022-11-05T11:54:00Z,KMOT 051154Z AUTO 16014G22KT 10SM OVC070 02/M06 A2934 RMK AO2 SLP951 T00171056 10022 20006 56036
KMOX,2022-11-05T11:35:00Z,KMOX 051135Z AUTO 09004KT 10SM CLR M06/M08 A2962 RMK AO2
KMPO,2022-11-05T11:53:00Z,KMPO 051153Z AUTO 18011KT 5SM BR OVC002 16/16 A3024 RMK AO2 SLP237 60000 T01560156 10156 20150 58003
KMPR,2022-11-05T11:35:00Z,KMPR 051135Z AUTO 24007KT 10SM CLR 01/00 A2971 RMK AO2 T00131000
KMPV,2022-11-05T11:51:00Z,KMPV 051151Z AUTO 17007KT 10SM BKN037 16/11 A3019 RMK AO2 SLP222 T01610106 10189 20144 56004
KMPZ,2022-11-05T11:30:00Z,KMPZ 051130Z AUTO 18009G17KT 10SM BKN006 OVC012 17/17 A2932 RMK AO2 P0001
KMQB,2022-11-05T11:43:00Z,KMQB 051143Z AUTO 17018G25KT 5SM HZ OVC013 A2940 RMK AO2
KMQI,2022-11-05T11:35:00Z,KMQI 051135Z AUTO 13005KT 10SM CLR 18/16 A3023 RMK AO2 T01810162
KMQJ,2022-11-05T11:55:00Z,KMQJ 051155Z AUTO 16009KT 10SM OVC090 16/11 A2983 RMK AO1
KMQS,2022-11-05T11:35:00Z,KMQS 051135Z AUTO 00000KT 4SM BR BKN002 OVC008 16/16 A3025 RMK AO2
KMQW,2022-11-05T11:35:00Z,KMQW 051135Z AUTO 00000KT 1/2SM FG OVC003 16/15 A3008 RMK AO2 T01560153
KMQY,2022-11-05T10:56:00Z,KMQY 051056Z AUTO 15014G21KT 10SM CLR 19/13 A2991 RMK AO2 SLP131 T01940128
KMRB,2022-11-05T11:53:00Z,KMRB 051153Z 00000KT 10SM BKN019 BKN043 OVC050 14/13 A3016 RMK AO2 SLP211 T01440133 10144 20117 56004
KMRC,2022-11-05T11:30:00Z,KMRC 051130Z AUTO 17008G23KT 10SM CLR 20/13 A2987 RMK A01
KMRF,2022-11-05T10:56:00Z,KMRF 051056Z AUTO 17005KT 10SM CLR 01/M08 A3006 RMK AO2 SLP159 T00061083 FZRANO
KMRH,2022-11-05T10:58:00Z,KMRH 051058Z AUTO 12005KT 10SM CLR 21/18 A3019 RMK AO2 SLP224 T02110183
KMRJ,2022-11-05T11:55:00Z,KMRJ 051155Z AUTO 06008KT 7SM DZ OVC004 10/10 A2938 RMK AO2 P0005
KMRN,2022-11-05T11:55:00Z,KMRN 051155Z AUTO 13003KT 4SM -RA OVC004 19/18 A3018 RMK AO2 P0001 60007 70007 T01850180 10185 20138
KMRT,2022-11-05T11:35:00Z,KMRT 051135Z AUTO 20012KT 10SM CLR 15/10 A2992 RMK AO2 T01530097
KMRY,2022-11-05T11:54:00Z,KMRY 051154Z AUTO 00000KT 10SM OVC024 11/10 A3021 RMK AO2 SLP243 T01110100 10117 20100 56020
KMSL,2022-11-05T11:53:00Z,KMSL 051153Z AUTO 17013G26KT 10SM BKN090 BKN120 20/13 A2991 RMK AO2 PK WND 18029/1104 SLP122 T02000133 10200 20183 55008
KMSN,2022-11-05T11:53:00Z,KMSN 051153Z 36003KT 4SM -RA BR OVC004 11/09 A2941 RMK AO2 SLP962 P0007 60043 70193 T01060094 10106 20083 57017
KMSO,2022-11-05T11:53:00Z,KMSO 051153Z 28010G17KT 10SM -RA OVC040 07/04 A2924 RMK AO2 PRESRR SLP910 P0003 60005 70010 T00720039 10094 20067 55036
KMSP,2022-11-05T11:53:00Z,KMSP 051153Z 36006KT 10SM SCT013 OVC170 00/M02 A2957 RMK AO2 SLP021 T00001022 10017 20000 56035
KMSS,2022-11-05T11:53:00Z,KMSS 051153Z AUTO 20010KT 10SM CLR 17/11 A3002 RMK AO2 SLP167 T01670106 10172 20161 58007
KMSV,2022-11-05T11:46:00Z,KMSV 051146Z AUTO 19006KT 8SM BKN007 BKN020 OVC070 15/15 A3023 RMK AO2 RAB06E19 CIG 007V015 P0000
KMSY,2022-11-05T11:53:00Z,KMSY 051153Z 15012KT 10SM OVC009 24/23 A2988 RMK AO2 RAB16E35 CIG 008V012 SLP121 P0002 60002 70003 T02440233 10244 20239 55004
KMTC,2022-11-05T10:55:00Z,KMTC 051055Z AUTO 17011KT 10SM CLR 15/09 A2982 RMK AO2 SLP102 T01520091
KMTH,2022-11-05T11:53:00Z,KMTH 051153Z AUTO 03007KT 10SM CLR 25/22 A2991 RMK AO2 SLP127 T02500217 10261 20244 53002
KMTJ,2022-11-05T11:53:00Z,KMTJ 051153Z AUTO 14004KT 10SM OVC050 M01/M04 A3004 RMK AO2 SLP169 T10061039 11006 21011 58015
KMTK,2022-11-05T11:40:00Z,KMTK 051140Z AUTO 14015KT 10SM FEW026 SCT070 26/23 A2991 RMK A01
KMTN,2022-11-05T11:54:00Z,KMTN 051154Z 00000KT 2SM BR OVC004 16/16 A3024
KMTO,2022-11-05T11:53:00Z,KMTO 051153Z AUTO 16021G39KT 10SM OVC015 16/13 A2961 RMK AO2 PK WND 11044/1112 RAE29 SLP022 P0001 60038 70038 T01560133 10211 20156 56040
KMTP,2022-11-05T11:54:00Z,KMTP 051154Z AUTO VRB05KT 18/16 A3030 RMK AO1 SLP259 T01830161 10189 20178 51005 
KMTV,2022-11-05T11:55:00Z,KMTV 051155Z AUTO 16004KT 4SM BR OVC004 18/17 A3020 RMK AO2 T01800165 10180 20139
KMTW,2022-11-05T11:33:00Z,KMTW 051133Z AUTO 36006KT 6SM RA BR OVC006 08/08 A2954 RMK AO2 CIG 004V008 P0021
KMUI,2022-11-05T11:03:00Z,KMUI 051103Z AUTO M 10SM OVC008 15/14 A3019 RMK AO2 SLP226 $
KMUO,2022-11-05T11:43:00Z,KMUO 051143Z AUTO 25018G23KT 10SM -RA OVC065 10/03 A2974 RMK AO2 RAB16E27RAB43 SLP074 $
KMUT,2022-11-05T11:55:00Z,KMUT 051155Z AUTO 16013G19KT 5SM BR BKN007 OVC010 17/17 A2931 RMK AO2
KMVE,2022-11-05T11:55:00Z,KMVE 051155Z AUTO 00000KT 10SM CLR M07/M07 A2962 RMK AO2
KMVH,2022-11-05T11:35:00Z,KMVH 051135Z AUTO 25026G37KT 10SM FEW100 SCT120 10/M03 A2915 RMK AO2 PWINO
KMVL,2022-11-05T11:54:00Z,KMVL 051154Z AUTO 21007KT 10SM CLR 17/11 A3013 RMK AO2 SLP205 T01720111 10178 20117 56004
KMVN,2022-11-05T11:35:00Z,KMVN 051135Z AUTO 17019G24KT 10SM -RA OVC014 16/15 A2964 RMK AO2 PK WND 17032/1116 P0001
KMVY,2022-11-05T11:53:00Z,KMVY 051153Z 21011KT 10SM OVC070 18/17 A3030 RMK AO2 SLP261 T01830167 10183 20161 51004
KMWA,2022-11-05T11:45:00Z,KMWA 051145Z 15026G41KT 7SM -RA BKN013 OVC017 16/16 A2960
KMWC,2022-11-05T11:55:00Z,KMWC 051155Z AUTO 00000KT 7SM SCT003 OVC017 10/08 A2950 RMK AO2
KMWH,2022-11-05T11:52:00Z,KMWH 051152Z 27024G31KT 10SM -RA CLR 07/M07 A2952 RMK AO2 PK WND 26031/1147 SLP000 P0000 60000 T00721067 10139 20061 51050
KMWK,2022-11-05T11:35:00Z,KMWK 051135Z AUTO 16005KT 1SM BR OVC003 18/18 A3019 RMK AO2 T01760175
KMWL,2022-11-05T11:53:00Z,KMWL 051153Z AUTO 23004KT 10SM CLR 04/02 A2993 RMK AO2 SLP133 T00440022 10089 20044 53006
KMWM,2022-11-05T11:55:00Z,KMWM 051155Z AUTO 34005KT 10SM CLR M06/M07 A2957 RMK AO2
KMWN,2022-11-05T10:51:00Z,KMWN 051051Z 28053G64KT 0SM FG VV000 05/05 RMK
KMWO,2022-11-05T11:35:00Z,KMWO 051135Z AUTO 17009KT 10SM CLR 17/10 A2990 RMK AO2 T01720099
KMWT,2022-11-05T10:53:00Z,KMWT 051053Z AUTO 31004KT 10SM BKN024 09/06 A2982 RMK AO2 SLP094 T00890056 $
KMXF,2022-11-05T10:55:00Z,KMXF 051055Z AUTO 05003KT 10SM CLR 14/10 A3001 RMK AO2 SLP164 T01420104
KMYF,2022-11-05T11:53:00Z,KMYF 051153Z AUTO 00000KT 10SM CLR 09/03 A3010 RMK AO2 SLP190 T00940033 10133 20089 55015
KMYJ,2022-11-05T11:55:00Z,KMYJ 051155Z AUTO 24017G26KT 10SM BKN016 OVC041 08/06 A2951 RMK AO2
KMYL,2022-11-05T11:51:00Z,KMYL 051151Z AUTO 19016KT 10SM OVC020 04/00 A2957 RMK AO2 RAB16E17 SLP016 P0000 60008 70061 T00440000 10050 20039 58029 $
KMYP,2022-11-05T10:50:00Z,KMYP 051050Z AUTO OVC001 M11/M13 A2998 RMK AO2 PWINO
KMYR,2022-11-05T10:56:00Z,KMYR 051056Z 12005KT 10SM CLR 22/19 A3014 RMK AO2 SLP206 T02220194
KMYV,2022-11-05T11:53:00Z,KMYV 051153Z AUTO 10SM SCT037 OVC050 12/03 A3017 RMK AO2 SLP219 T01220033 10128 20083 58017 PWINO $
KMYZ,2022-11-05T11:30:00Z,KMYZ 051130Z AUTO 00000KT 10SM SCT095 02/00 A2965 RMK AO2
KMZH,2022-11-05T11:35:00Z,KMZH 051135Z AUTO 00000KT 10SM SCT016 M02/M03 A2964 RMK AO2
KMZJ,2022-11-05T11:30:00Z,KMZJ 051130Z AUTO 17006KT 10SM CLR 02/M03 A3012 RMK AO2
KMZZ,2022-11-05T11:35:00Z,KMZZ 051135Z AUTO 19019G25KT 10SM SCT070 17/10 A2981 RMK AO2 T01670100
KN03,2022-11-05T11:35:00Z,KN03 051135Z AUTO 21005KT 10SM CLR 15/13 A3013 RMK AO2
KN38,2022-11-05T11:55:00Z,KN38 051155Z AUTO 19012G19KT 10SM OVC013 16/14 A3013 RMK AO2
KN60,2022-11-05T11:52:00Z,KN60 051152Z AUTO 16013KT 01/M04 A2938 RMK AO1 SLP963 T00111039 10017 20000 56036
KNAK,2022-11-05T11:54:00Z,KNAK 051154Z AUTO 16005KT 7SM BKN007 17/16 A3022 RMK AO2 SLP235 T01720161 10178 20167 58002 
KNBC,2022-11-05T10:56:00Z,KNBC 051056Z AUTO 00000KT 10SM SCT033 BKN049 OVC070 21/19 A3009 RMK AO2 SLP189 T02060189
KNBG,2022-11-05T11:25:00Z,KNBG 051125Z AUTO 15012KT 10SM SCT015 BKN049 BKN120 24/23 A2988 RMK AO2 T02440228 $
KNBT,2022-11-05T11:00:00Z,KNBT 051100Z AUTO 07004KT 10SM OVC039 23/18 A3020 RMK AO2 SLP230 T02280178
KNCA,2022-11-05T10:56:00Z,KNCA 051056Z AUTO 10005KT 10SM BKN040 18/18 A3017 RMK AO2 SLP219 T01780178
KNDZ,2022-11-05T10:56:00Z,KNDZ 051056Z AUTO 06004KT 10SM FEW019 17/16 A2999 RMK AO2 SLP143 T01670156 $
KNEL,2022-11-05T11:00:00Z,KNEL 051100Z AUTO 00000KT OVC033 14/14 A3025 RMK AO2 SLP243 T01440144 $
KNEW,2022-11-05T11:53:00Z,KNEW 051153Z 15012KT 10SM FEW013 BKN060 OVC110 24/22 A2989 RMK AO2 SLP114 60000 T02440217 10244 20239 55007
KNFE,2022-11-05T11:43:00Z,KNFE 051143Z AUTO 00000KT 2 1/2SM BR OVC030 14/13 A3023 RMK AO2 VIS 1 1/2V5 T01440128 PWINO $
KNFG,2022-11-05T11:52:00Z,KNFG 051152Z AUTO 00000KT 10SM CLR 05/03 A3011 RMK AO2 SLP194 T00500028 10111 20039 56014 $
KNFL,2022-11-05T10:56:00Z,KNFL 051056Z AUTO 14009KT 10SM CLR 05/M01 A3006 RMK AO2 SLP146 T00501011 $
KNFW,2022-11-05T11:52:00Z,KNFW 051152Z VRB04KT 10SM CLR 06/02 A2995 RMK AO2 SLP126 70065 T00560022 10089 20050 53010 $
KNGP,2022-11-05T10:56:00Z,KNGP 051056Z AUTO 03015KT 10SM -RA OVC037 21/18 A2990 RMK AO2 RAE06B32 SLP124 P0001 T02060178 $
KNGU,2022-11-05T10:59:00Z,KNGU 051059Z 00000KT 1S BKN036 16/15 A3024 RMK AO2 SLP238 T01610150 $
KNHK,2022-11-05T10:52:00Z,KNHK 051052Z COR 13004KT 4SM BR CLR 17/16 A3022 RMK AO2 SLP234 T01670156 $
KNID,2022-11-05T10:56:00Z,KNID 051056Z AUTO 21004KT 10SM CLR 03/M06 A3011 RMK AO2 SLP198 T00331061 $
KNIP,2022-11-05T11:53:00Z,KNIP 051153Z 11007KT 10SM FEW032 BKN070 BKN250 22/21 A3003 RMK AO2 SLP164 VCSH W T02220211 10222 20217 53004
KNJK,2022-11-05T11:56:00Z,KNJK 051156Z AUTO 22004KT 10SM CLR 10/M03 A3008 RMK AO2 SLP200 T01001033 10144 20089 56021 $ 
KNJM,2022-11-05T10:57:00Z,KNJM 051057Z AUTO 12007KT 7SM CLR 23/18 A3019 RMK AO2 SLP226 T02330183
KNJW,2022-11-05T10:57:00Z,KNJW 051057Z AUTO 16010G19KT 10SM FEW012 OVC070 20/17 A2991 RMK AO2 SLP043 T02000167 $
KNKT,2022-11-05T10:56:00Z,KNKT 051056Z AUTO 00000KT 6SM FEW036 15/15 A3020 RMK AO2 SLP223 T01500150
KNKX,2022-11-05T10:55:00Z,KNKX 051055Z 00000KT 10SM CLR 07/03 A3008 RMK AO2 SLP185 T00720028
KNLC,2022-11-05T10:56:00Z,KNLC 051056Z AUTO 22003KT 10SM CLR 03/M03 A3024 RMK AO2 SLP242 T00331033
KNMM,2022-11-05T11:52:00Z,KNMM 051152Z AUTO 14005KT 10SM FEW008 BKN012 OVC075 18/17 A2991 RMK AO2
KNOG,2022-11-05T10:56:00Z,KNOG 051056Z AUTO 36005KT 10SM FEW050 BKN065 BKN080 17/11 A2992 RMK AO2 SLP112 T01720111 PNO $
KNOW,2022-11-05T11:35:00Z,KNOW 051135Z AUTO 26020G27KT 10SM CLR 08/02 A2972 RMK AO2 T00790022
KNOZ,2022-11-05T10:59:00Z,KNOZ 051059Z AUTO 00000KT 10SM CLR 11/ A3007 RMK AO2 SLP135 T0111 TSNO $
KNPA,2022-11-05T11:41:00Z,KNPA 051141Z AUTO 16007KT 10SM FEW027 BKN035 BKN043 23/ A2998 RMK AO2 T0233 $
KNQA,2022-11-05T11:50:00Z,KNQA 051150Z 16012KT 10SM RA BKN010 OVC031 16/16 A2977
KNQI,2022-11-05T10:56:00Z,KNQI 051056Z AUTO 03006KT 10SM OVC037 18/13 A2992 RMK AO2 RAB02E26 SLP127 P0002 T01780133 $
KNQX,2022-11-05T10:53:00Z,KNQX 051053Z 05008KT 10SM FEW020 27/22 A2991 RMK AO2 SLP126 T02720217 PNO $
KNRB,2022-11-05T11:52:00Z,KNRB 051152Z AUTO 14006KT 10SM SCT060 BKN075 24/21 A3003 RMK AO2 RAB1054E07 SLP167 P0001 60001 70001 T02390206 10244 20228 53004
KNRN,2022-11-05T11:35:00Z,KNRN 051135Z AUTO 24003KT 10SM CLR M04/M07 A2970 RMK AO2
KNRS,2022-11-05T11:53:00Z,KNRS 051153Z AUTO 07006KT 10SM CLR 11/04 A3010 RMK AO2 SLP190 T01060039 10133 20072 56018 $
KNSE,2022-11-05T10:56:00Z,KNSE 051056Z AUTO 00000KT 9SM FEW016 16/15 A2999 RMK AO2 SLP143 T01560150 PNO $
KNTD,2022-11-05T10:55:00Z,KNTD 051055Z AUTO 02005KT 10SM CLR 07/02 A3012 RMK AO2 SLP201 T00720022 $
KNTU,2022-11-05T10:56:00Z,KNTU 051056Z 14003KT 10SM BKN034 16/16 A3022 RMK AO2 VIS 1 RWY 5R SLP234 T01610156
KNUC,2022-11-05T10:56:00Z,KNUC 051056Z AUTO 16005KT 10SM CLR 12/ A3011 RMK AO2 SLP194 T0117
KNUI,2022-11-05T10:53:00Z,KNUI 051053Z AUTO 13004KT 9SM CLR 18/16 A3022 RMK AO2 SLP231 T01830161
KNUQ,2022-11-05T11:35:00Z,KNUQ 051135Z AUTO 19004KT 4SM BR BKN013 OVC017 12/11 A3021 RMK AO2
KNUW,2022-11-05T11:53:00Z,KNUW 051153Z 26027G38KT 9SM SCT022 BKN100 08/04 A2974 RMK AO2 PK WND 27041/1113 SLP070 70075 T00830039 10100 20083 53026 VISNO
KNXF,2022-11-05T10:56:00Z,KNXF 051056Z AUTO 10SM 09/M02 A3009 RMK AO2 SLP274 T00941022 PWINO $
KNXP,2022-11-05T10:56:00Z,KNXP 051056Z AUTO 36004KT CLR 07/M08 A3018 RMK AO2 SLP199 T00671078 $
KNY0,2022-11-05T11:38:00Z,KNY0 051138Z AUTO 00000KT 7SM SCT032 12/11 A3016 RMK AO2
KNYC,2022-11-05T11:51:00Z,KNYC 051151Z AUTO VRB04KT 10SM OVC070 19/16 A3027 RMK AO2 SLP243 T01890161 10189 20178 50001 $
KNYG,2022-11-05T11:37:00Z,KNYG 051137Z AUTO 00000KT 6SM BR OVC028 17/16 A3022 RMK AO2 T01670156 $
KNYL,2022-11-05T10:57:00Z,KNYL 051057Z AUTO 13006KT 10SM CLR 09/M02 A3007 RMK AO2 SLP182 T00941022 $
KNZY,2022-11-05T11:52:00Z,KNZY 051152Z AUTO 06005KT 10SM CLR 12/05 A3009 RMK AO2 SLP187 T01170050 10144 20100 56018 $
KO05,2022-11-05T11:35:00Z,KO05 051135Z AUTO 00000KT 10SM FEW017 SCT021 OVC031 03/02 A3013 RMK A01
KO22,2022-11-05T11:55:00Z,KO22 051155Z AUTO 00000KT 10SM CLR 03/03 A3021 RMK A01
KO32,2022-11-05T11:55:00Z,KO32 051155Z AUTO 00000KT 10SM CLR 03/02 A3020 RMK AO2 T00330023 $
KO69,2022-11-05T11:35:00Z,KO69 051135Z AUTO 00000KT 10SM OVC005 12/12 A3020 RMK A01
KOAJ,2022-11-05T11:47:00Z,KOAJ 051147Z 04003KT 1 3/4SM BR SCT039 16/15 A3019 RMK AO2 VIS 1/2V5
KOAK,2022-11-05T11:53:00Z,KOAK 051153Z 00000KT 6SM BR OVC008 13/13 A3022 RMK AO2 RAB1059E14 SLP231 VIS GTR S P0000 60002 70002 T01280128 10133 20122 56013
KOAR,2022-11-05T11:55:00Z,KOAR 051155Z AUTO 00000KT 1/4SM HZ OVC001 M10/M13 A3021 RMK AO2
KOBE,2022-11-05T11:35:00Z,KOBE 051135Z AUTO 00000KT 10SM CLR 19/19 A2996 RMK AO2
KOCF,2022-11-05T11:51:00Z,KOCF 051151Z 00000KT 4SM BR FEW002 18/18 A3003 RMK AO2 SLP168 6//// 7//// T01830183 10200 20183 51007 PNO $
KOCH,2022-11-05T10:56:00Z,KOCH 051056Z AUTO 00000KT 10SM OVC080 12/12 A2993 RMK AO2 SLP137 P0001 T01170117 PWINO $
KOCW,2022-11-05T11:35:00Z,KOCW 051135Z AUTO 00000KT 10SM CLR 13/12 A3021 RMK AO2 T01310123
KODO,2022-11-05T11:53:00Z,KODO 051153Z AUTO 28005KT 10SM CLR 06/M06 A2996 RMK AO2 SLP127 T00561056 10072 20044 56004 $
KODX,2022-11-05T11:53:00Z,KODX 051153Z AUTO 00000KT 10SM CLR M07/M09 A2959 RMK AO2 SLP042 I1000 I6000 T10721089 11050 21083 56028
KOEB,2022-11-05T11:35:00Z,KOEB 051135Z AUTO 17010G16KT 10SM SCT080 16/09 A2976 RMK AO2 T01630090
KOEL,2022-11-05T11:35:00Z,KOEL 051135Z AUTO 27010KT 10SM CLR M03/M07 A2967 RMK AO1 T10261068
KOEO,2022-11-05T11:55:00Z,KOEO 051155Z AUTO 34004KT 10SM BKN016 00/00 A2961 RMK AO2 T10021002 10005 21021
KOFF,2022-11-05T10:55:00Z,KOFF 051055Z 32014KT 10SM OVC085 03/M03 A2959 RMK AO2A SLP031 T00321027 PWINO PNO FZRANO TSNO $
KOFK,2022-11-05T10:56:00Z,KOFK 051056Z AUTO 28005KT 10SM CLR M04/M07 A2961 RMK AO2 SLP042 T10441067
KOFP,2022-11-05T11:54:00Z,KOFP 051154Z AUTO 00000KT 6SM BR FEW031 16/15 A3022 RMK AO2 SLP233 7//// T01560150 10172 20150 55001
KOGA,2022-11-05T11:35:00Z,KOGA 051135Z AUTO 26003KT 10SM CLR M05/M07 A2960 RMK AO2 T10471074
KOGB,2022-11-05T11:53:00Z,KOGB 051153Z AUTO 06004KT 1/2SM FG BKN002 OVC006 19/19 A3012 RMK AO2 SLP198 60001 70001 T01890189 10200 20183 53002
KOGD,2022-11-05T11:53:00Z,KOGD 051153Z AUTO 13010KT 10SM -RA FEW039 BKN045 OVC070 04/01 A2991 RMK AO2 RAB1056SNE1056 SLP120 P0001 60003 70003 T00440011 10056 20017 58030
KOGS,2022-11-05T11:35:00Z,KOGS 051135Z AUTO 17005KT 10SM CLR 13/10 A3000 RMK AO2
KOIC,2022-11-05T11:55:00Z,KOIC 051155Z AUTO 18008KT 10SM SCT020 SCT032 16/14 A3017 RMK AO2 T01570138 10158 20144
KOIN,2022-11-05T11:55:00Z,KOIN 051155Z AUTO 23004KT 10SM CLR M07/M08 A2968 RMK AO1 T10671084
KOJA,2022-11-05T11:55:00Z,KOJA 051155Z AUTO 24005KT 10SM CLR 02/01 A2984 RMK AO2 T00240006 10039 20023 70108
KOJC,2022-11-05T11:53:00Z,KOJC 051153Z 27012G21KT 10SM -RA OVC008 03/01 A2956 RMK AO2 SLP014 P0004 60010 70259 T00280011 10044 20028 53011 $
KOKB,2022-11-05T11:52:00Z,KOKB 051152Z AUTO 04004KT 10SM CLR 07/04 A3010 RMK AO2 SLP190 T00720044 10111 20061 55014
KOKC,2022-11-05T11:52:00Z,KOKC 051152Z 28005KT 10SM CLR 02/01 A2984 RMK AO2 SLP108 7//// T00220011 10056 20022 55005 $
KOKK,2022-11-05T10:56:00Z,KOKK 051056Z AUTO 18015KT 10SM FEW065 17/10 A2980 RMK AO2 SLP087 T01670100 PNO $
KOKM,2022-11-05T11:35:00Z,KOKM 051135Z AUTO 27010G16KT 10SM BKN015 06/02 A2985 RMK AO2 T00560016
KOKV,2022-11-05T11:55:00Z,KOKV 051155Z AUTO 00000KT 10SM SCT029 BKN046 OVC055 16/15 A3015 RMK AO2
KOKZ,2022-11-05T11:35:00Z,KOKZ 051135Z AUTO 10006KT 1/2SM FG OVC003 18/18 A3009 RMK AO2 T01810176
KOLE,2022-11-05T11:35:00Z,KOLE 051135Z AUTO 19011G14KT 10SM SCT045 12/10 A3008 RMK AO2
KOLF,2022-11-05T11:53:00Z,KOLF 051153Z AUTO 25006KT CLR 06/M05 A2915 RMK AO2 SLP883 T00611050 10061 21039 56043 $
KOLG,2022-11-05T11:55:00Z,KOLG 051155Z AUTO 03006KT 10SM SCT017 00/00 A2963 RMK AO1
KOLM,2022-11-05T11:54:00Z,KOLM 051154Z AUTO 25009G18KT 10SM BKN034 BKN041 07/02 A2980 RMK AO2 SLP090 60000 70295 T00720022 10111 20067 51026
KOLS,2022-11-05T11:54:00Z,KOLS 051154Z AUTO 07004KT 10SM CLR 00/M04 A3009 RMK AO2 SLP172 T00001039 10033 21011 56008
KOLU,2022-11-05T10:56:00Z,KOLU 051056Z AUTO 27006KT 10SM CLR M04/M06 A2964 RMK AO2 SLP050 T10391061 FZRANO
KOLV,2022-11-05T11:35:00Z,KOLV 051135Z AUTO 14016KT 6SM BR BKN008 BKN017 OVC036 16/16 A2980 RMK A01
KOLY,2022-11-05T11:35:00Z,KOLY 051135Z AUTO 16018G26KT 7SM -RA SCT016 SCT024 BKN044 16/15 A2970 RMK AO2 P0003 T01570151
KOLZ,2022-11-05T11:35:00Z,KOLZ 051135Z AUTO 02015G21KT 3SM BR BKN007 OVC015 05/05 A2940 RMK A01
KOMA,2022-11-05T11:52:00Z,KOMA 051152Z 35009KT 10SM SCT120 BKN200 M01/M03 A2956 RMK AO2 SLP018 70020 T10061033 10033 21006 56016
KOMH,2022-11-05T11:55:00Z,KOMH 051155Z AUTO 18003KT 10SM OVC060 17/17 A3021 RMK AO2
KOMN,2022-11-05T11:50:00Z,KOMN 051150Z 00000KT 7SM CLR 23/23 A3001
KONA,2022-11-05T11:35:00Z,KONA 051135Z AUTO 00000KT 4SM -RA BKN011 OVC023 05/04 A2953 RMK AO2 P0003
KONL,2022-11-05T11:35:00Z,KONL 051135Z AUTO 15005KT 10SM CLR M06/M08 A2958 RMK AO2 T10571083
KONM,2022-11-05T11:55:00Z,KONM 051155Z AUTO 00000KT 10SM CLR M01/M07 A3006 RMK AO2 T10091066 10051 21009
KONO,2022-11-05T11:53:00Z,KONO 051153Z AUTO 22012G21KT 10SM BKN048 OVC095 12/05 A2968 RMK AO2 SLP055 70030 T01220050 10122 20039 56028 $
KONT,2022-11-05T11:53:00Z,KONT 051153Z 00000KT 9SM BKN250 08/03 A3009 RMK AO2 SLP189 T00830028 10128 20078 56018
KONX,2022-11-05T11:35:00Z,KONX 051135Z AUTO 00000KT 10SM SCT036 A3022 RMK AO2
KONZ,2022-11-05T11:35:00Z,KONZ 051135Z AUTO 18007KT 10SM SCT110 15/11 A2984 RMK AO2 T01450106
KOOA,2022-11-05T11:35:00Z,KOOA 051135Z AUTO 32004KT 5SM BKN005 BKN008 OVC013 07/07 A2939 RMK AO2 P0004 T00710071
KOPF,2022-11-05T11:53:00Z,KOPF 051153Z 00000KT 10SM FEW034 22/21 A2993 RMK AO2 SLP137 60003 70004 T02170206 10233 20211 53001
KOPL,2022-11-05T11:35:00Z,KOPL 051135Z AUTO 03007KT 2 1/2SM +VCTSRA BKN007 BKN018 OVC041 11/11 A2998 RMK AO2 VIS 1 1/4V5 LTG DSNT ALQS P0025 T01100110
KOPN,2022-11-05T11:35:00Z,KOPN 051135Z AUTO 14004KT 10SM BKN005 19/17 A3010 RMK AO2
KOQN,2022-11-05T11:35:00Z,KOQN 051135Z AUTO 00000KT 2 1/2SM BR OVC003 16/15 A3025 RMK AO2
KOQT,2022-11-05T11:53:00Z,KOQT 051153Z AUTO 00000KT 10SM BKN043 BKN050 OVC065 16/12 A3005 RMK AO2 SLP170 T01560122 10156 20128 50003
KORB,2022-11-05T11:53:00Z,KORB 051153Z AUTO 00000KT 10SM CLR M10/M11 A2967 RMK AO2
KORD,2022-11-05T11:51:00Z,KORD 051151Z 17015G32KT 10SM BKN015 OVC020 17/13 A2952 RMK AO2 PK WND 18042/1123 SLP994 60013 70023 T01670133 10206 20167 56021
KORE,2022-11-05T11:52:00Z,KORE 051152Z AUTO 21003KT 1/4SM FG BKN014 OVC019 11/11 A3024 RMK AO2 SLP244 T01110106 10150 20100 55002
KORF,2022-11-05T11:51:00Z,KORF 051151Z 00000KT 10SM BKN040 17/16 A3023 RMK AO2 SLP235 T01670161 10183 20167 51002
KORG,2022-11-05T11:35:00Z,KORG 051135Z AUTO 06004KT 10SM BKN070 14/13 A2992 RMK AO2 T01430125
KORH,2022-11-05T11:54:00Z,KORH 051154Z 23015KT 10SM CLR 16/15 A3024 RMK AO2 SLP240 T01610150 10161 20144 56003
KORL,2022-11-05T11:53:00Z,KORL 051153Z 07004KT 10SM SCT065 22/21 A3000 RMK AO2 SLP161 60003 70003 T02170206 10222 20211 53005
KORS,2022-11-05T11:55:00Z,KORS 051155Z AUTO 00000KT 10SM CLR 04/02 A2969 RMK AO2
KOSA,2022-11-05T11:35:00Z,KOSA 051135Z AUTO 29004KT 10SM CLR 08/06 A2992 RMK AO2 T00790059
KOSC,2022-11-05T11:35:00Z,KOSC 051135Z AUTO 19010G19KT 10SM BKN100 17/11 A2970 RMK AO2 T01700105
KOSH,2022-11-05T11:53:00Z,KOSH 051153Z 06009G20KT 5SM -RA BR SCT006 BKN010 OVC019 07/06 A2949 RMK AO2 SLP989 P0012 60042 70148 T00720061 10089 20072 56021
KOSU,2022-11-05T11:53:00Z,KOSU 051153Z 16010KT 10SM CLR 17/11 A2993 RMK AO2 SLP132 T01720106 10172 20161 56005
KOTG,2022-11-05T10:56:00Z,KOTG 051056Z AUTO 34005KT 10SM CLR M04/M06 A2961 RMK AO2 SLP045 T10441061 FZRANO PNO $
KOTH,2022-11-05T11:14:00Z,KOTH 051114Z AUTO 36009KT 8SM -RA SCT006 SCT023 OVC032 11/10 A3000 RMK AO2 P0000
KOTM,2022-11-05T11:53:00Z,KOTM 051153Z AUTO 33008KT 10SM OVC004 07/06 A2936 RMK AO2 RAE42 SLP946 P0001 60008 70191 T00670061 10072 20067 56031
KOUN,2022-11-05T11:35:00Z,KOUN 051135Z AUTO 28004KT 10SM CLR 03/02 A2983 RMK AO2 T00310015
KOVE,2022-11-05T11:53:00Z,KOVE 051153Z AUTO 14011KT 10SM FEW039 OVC048 14/03 A3018 RMK AO2 SLP220 T01390033 10144 20111 56017
KOVL,2022-11-05T11:55:00Z,KOVL 051155Z AUTO 02004KT 10SM CLR M05/M07 A2960 RMK AO2
KOVS,2022-11-05T11:53:00Z,KOVS 051153Z AUTO 01004KT 5SM -RA BR OVC010 08/07 A2941 RMK AO2 SLP963 P0005 60012 70168 T00780072 10078 20078 58048
KOWA,2022-11-05T11:53:00Z,KOWA 051153Z AUTO 36006KT 10SM OVC007 02/01 A2953 RMK AO2
KOWB,2022-11-05T10:56:00Z,KOWB 051056Z 18008KT 10SM -RA SCT049 BKN060 OVC085 18/13 A2988 RMK AO2 WSHFT 1002 RAB44 SLP115 P0000 T01780128
KOWD,2022-11-05T11:53:00Z,KOWD 051153Z 12003KT 10SM CLR 14/13 A3026 RMK AO2 SLP245 T01440133 10156 20100 53000
KOWP,2022-11-05T11:35:00Z,KOWP 051135Z AUTO 27006KT 10SM BKN017 07/04 A2984 RMK AO2 T00660042
KOWX,2022-11-05T11:35:00Z,KOWX 051135Z AUTO 20008G14KT 10SM CLR 17/08 A2985 RMK AO1
KOXB,2022-11-05T11:53:00Z,KOXB 051153Z AUTO 18003KT 10SM CLR 17/17 A3026 RMK AO2 SLP246 T01720167 10178 20150 50004
KOXC,2022-11-05T11:51:00Z,KOXC 051151Z COR 00000KT 6SM BR BKN004 16/15 A3028 RMK AO2 SLP267 T01560150 10156 20150 53002
KOXD,2022-11-05T11:35:00Z,KOXD 051135Z AUTO 19010G16KT 10SM CLR 19/11 A2989 RMK AO2 T01920105
KOXI,2022-11-05T11:55:00Z,KOXI 051155Z AUTO 17020G24KT 5SM SCT029 BKN040 OVC060 14/13 A2967 RMK AO1
KOXR,2022-11-05T11:51:00Z,KOXR 051151Z AUTO 07005KT 10SM CLR 07/01 A3010 RMK AO2 SLP191 T00720011 10111 20072 57015
KOXV,2022-11-05T11:55:00Z,KOXV 051155Z AUTO 27005KT 1 1/2SM -RA OVC004 06/05 A2942 RMK AO2 P0003
KOYM,2022-11-05T11:55:00Z,KOYM 051155Z AUTO 16005KT 10SM BKN045 OVC060 15/12 A3015 RMK AO2 PWINO
KOZA,2022-11-05T11:30:00Z,KOZA 051130Z AUTO 00000KT 10SM CLR 02/M01 A3001 RMK AO2
KOZR,2022-11-05T10:55:00Z,KOZR 051055Z AUTO 06003KT 10SM CLR 15/13 A3001 RMK AO2 SLP163 T01530133 $
KOZS,2022-11-05T11:55:00Z,KOZS 051155Z AUTO 23016G27KT 10SM OVC016 06/02 A2964 RMK AO2
KOZW,2022-11-05T11:55:00Z,KOZW 051155Z AUTO 17012G20KT 10SM OVC070 17/09 A2978 RMK AO2 T01710093 10185 20165
KP08,2022-11-05T11:35:00Z,KP08 051135Z AUTO 12005KT 10SM CLR 05/03 A3009 RMK AO2
KP28,2022-11-05T10:56:00Z,KP28 051056Z AUTO 27003KT 02/01 A2977 RMK AO1 SLP087 T00170006 $
KP53,2022-11-05T10:56:00Z,KP53 051056Z AUTO 05011KT 07/06 A2965 RMK AO1 SLP046 P0005 T00670056
KP58,2022-11-05T10:55:00Z,KP58 051055Z AUTO 18010G19KT 17/11 A2975 RMK AO1 SLP070 T01720106
KP59,2022-11-05T11:51:00Z,KP59 051151Z AUTO 09006G18KT 05/03 A2970 RMK AO1 SLP063 70001 T00500028 10050 20044 56028
KP60,2022-11-05T10:56:00Z,KP60 051056Z AUTO 00000KT M03/M04 A2964 RMK AO1 SLP058 P0002 T10331044
KP68,2022-11-05T11:53:00Z,KP68 051153Z AUTO 21003KT 02/M02 A3003 RMK AO1 SLP151 T00221017 10061 20006 58018
KP69,2022-11-05T11:52:00Z,KP69 051152Z AUTO 00000KT 02/01 A2942 RMK AO1 SLP980 P0006 60023 70222 T00170011 10017 20011 56035
KP92,2022-11-05T10:59:00Z,KP92 051059Z AUTO VRB04KT 24/23 A2984 RMK AO1 SLP105 P0002 T02390233
KPAE,2022-11-05T11:53:00Z,KPAE 051153Z AUTO A2972 RMK AO2 SLPNO 6//// 7//// 53027 PWINO FZRANO PNO $
KPAH,2022-11-05T11:53:00Z,KPAH 051153Z 17016G29KT 6SM RA FEW049 BKN100 OVC120 17/14 A2975 RMK AO2 PK WND 19030/1111 SLP072 P0006 60087 70087 T01720144 10222 20167 55007
KPAM,2022-11-05T11:30:00Z,KPAM 051130Z AUTO 09006KT 10SM SCT015 18/17 A2999 RMK AO2 SLP159 $
KPAN,2022-11-05T11:55:00Z,KPAN 051155Z AUTO 03003KT 10SM CLR 01/M03 A3013 RMK AO2 PWINO TSNO
KPBF,2022-11-05T11:53:00Z,KPBF 051153Z AUTO 23008KT 10SM CLR 13/12 A2983 RMK AO2 SLP101 60061 70232 T01330117 10206 20133 53011
KPBG,2022-11-05T11:53:00Z,KPBG 051153Z AUTO 23003KT 10SM CLR 07/04 A3009 RMK AO2 SLP188 T00670044 10156 20067 58002
KPBH,2022-11-05T11:55:00Z,KPBH 051155Z AUTO 05007KT 7SM DZ OVC005 02/02 A2958 RMK AO2 P0001 60001 70002 T00230023 10025 20018
KPBI,2022-11-05T11:53:00Z,KPBI 051153Z 09007KT 10SM SCT030 25/20 A2995 RMK AO2 SLP142 60013 70015 T02500200 10256 20228 53002 $
KPBX,2022-11-05T11:35:00Z,KPBX 051135Z AUTO 15006KT 10SM CLR 18/12 A3003 RMK AO2 T01840121
KPCD,2022-11-05T11:35:00Z,KPCD 051135Z AUTO 18022G33KT 7SM OVC011 18/17 A2956 RMK AO2 T01760172
KPCM,2022-11-05T11:55:00Z,KPCM 051155Z AUTO 00000KT 7SM CLR 21/20 A3002 RMK AO2
KPCW,2022-11-05T11:35:00Z,KPCW 051135Z AUTO 20013KT 10SM CLR 17/12 A2986 RMK AO2
KPCZ,2022-11-05T11:55:00Z,KPCZ 051155Z AUTO 04011G15KT 10SM -RA BKN006 OVC017 06/05 A2952 RMK AO2 P0004 60013 70108 T00600053 10080 20060
KPDC,2022-11-05T11:55:00Z,KPDC 051155Z AUTO 31005KT 5SM RA SCT008 BKN015 OVC039 06/06 A2942 RMK AO2 P0015 60023 70189 T00630056 10066 20063
KPDK,2022-11-05T11:53:00Z,KPDK 051153Z VRB04KT 8SM OVC005 18/17 A3009 RMK AO2 SLP182 60000 T01780167 10178 20167 53002
KPDT,2022-11-05T11:53:00Z,KPDT 051153Z AUTO 26034G47KT 10SM -RA CLR 09/03 A2964 RMK AO2 PK WND 26048/1120 PRESRR SLP030 P0000 60008 70013 T00940033 10167 20094 53053 $
KPDX,2022-11-05T11:53:00Z,KPDX 051153Z 23005KT 10SM FEW037 BKN045 OVC070 10/05 A2990 RMK AO2 RAB04E13 SLP125 P0000 60004 70184 T01000050 10150 20100 51039
KPEA,2022-11-05T11:35:00Z,KPEA 051135Z AUTO 01009KT 5SM -RA BR BKN004 OVC017 05/05 A2940 RMK AO2 P0003 T00540050
KPEO,2022-11-05T11:53:00Z,KPEO 051153Z AUTO 21006KT 10SM CLR 16/12 A3009 RMK AO2 SLP188 T01560122 10167 20144 56008
KPEQ,2022-11-05T11:35:00Z,KPEQ 051135Z AUTO 00000KT 10SM CLR 05/M06 A2998 RMK AO2 T00511061
KPEX,2022-11-05T11:35:00Z,KPEX 051135Z AUTO 00000KT 10SM CLR M06/M07 A2963 RMK AO2
KPEZ,2022-11-05T11:35:00Z,KPEZ 051135Z AUTO 31003KT 10SM SCT070 15/06 A2994 RMK AO2 T01490059
KPGV,2022-11-05T11:55:00Z,KPGV 051155Z AUTO 00000KT M1/4SM FG OVC019 15/15 A3020 RMK AO2
KPHD,2022-11-05T11:53:00Z,KPHD 051153Z AUTO 15009KT 10SM CLR 18/12 A2999 RMK AO2 SLP154 T01780122 10183 20161 56006
KPHF,2022-11-05T11:54:00Z,KPHF 051154Z 08004KT 3SM BR OVC030 12/12 A3023 RMK AO2 SLP235 60001 70001 T01220122 10150 20117 51002 $
KPHL,2022-11-05T11:54:00Z,KPHL 051154Z 00000KT 10SM BCFG FEW004 SCT024 SCT070 BKN260 15/15 A3025 RMK AO2 SLP243 T01500150 10150 20133 50003
KPHN,2022-11-05T11:55:00Z,KPHN 051155Z AUTO 17012G17KT 10SM CLR 17/09 A2984 RMK AO2
KPHP,2022-11-05T11:17:00Z,KPHP 051117Z AUTO 00000KT 3SM BR CLR M08/M08 A2949 RMK AO2 T10831083
KPHT,2022-11-05T11:35:00Z,KPHT 051135Z AUTO 17016G26KT 5SM BR BKN032 OVC039 16/15 A2985 RMK A01
KPHX,2022-11-05T11:51:00Z,KPHX 051151Z 10005KT 10SM BKN210 10/02 A3006 RMK AO2 SLP172 T01000017 10133 20094 57018
KPIA,2022-11-05T11:54:00Z,KPIA 051154Z 17021G39KT 10SM OVC013 18/15 A2941 RMK AO2 PK WND 18041/1136 SLP955 60005 70063 T01830150 10189 20178 58038
KPIB,2022-11-05T11:54:00Z,KPIB 051154Z AUTO 15013KT 10SM SCT012 OVC018 21/20 A2990 RMK AO2
KPIE,2022-11-05T11:53:00Z,KPIE 051153Z 05006KT 10SM BKN006 22/22 A2999 RMK AO2 SLP156 T02170217 10222 20217 51008
KPIH,2022-11-05T11:53:00Z,KPIH 051153Z 19019G25KT 10SM OVC030 05/01 A2977 RMK AO2 PK WND 18026/1123 RAB51E52SNE51 SLP086 P0001 60009 70016 T00500011 10056 20028 56025
KPIL,2022-11-05T11:53:00Z,KPIL 051153Z AUTO 18005KT 10SM CLR 24/24 A2985 RMK AO2 SLP106 T02440239 10261 20239 50006
KPIM,2022-11-05T11:35:00Z,KPIM 051135Z AUTO 14008KT 10SM BKN008 18/16 A3007 RMK AO2 T01750159
KPIR,2022-11-05T11:53:00Z,KPIR 051153Z AUTO 17007KT 10SM CLR M06/M08 A2951 RMK AO2 SLP010 T10561083 11017 21056 56030
KPIT,2022-11-05T11:51:00Z,KPIT 051151Z 15006KT 10SM BKN250 14/10 A3005 RMK AO2 SLP180 T01440100 10161 20139 55005
KPKB,2022-11-05T11:53:00Z,KPKB 051153Z 16007KT 10SM CLR 18/13 A3002 RMK AO2 SLP160 T01830128 10189 20172 56007
KPKD,2022-11-05T11:53:00Z,KPKD 051153Z AUTO 00000KT 10SM CLR M09/M12 A2963 RMK AO2 SLP057 I1000 I6001 T10941122 11056 21106 56028
KPLN,2022-11-05T11:54:00Z,KPLN 051154Z AUTO 00000KT 7SM -RA BKN005 BKN009 OVC017 08/08 A2960 RMK AO2 SLP026 P0008 60055 70132 T00830083 10083 20078 58035
KPLR,2022-11-05T11:55:00Z,KPLR 051155Z AUTO 00000KT 10SM CLR 17/15 A3002 RMK A01
KPLU,2022-11-05T11:35:00Z,KPLU 051135Z AUTO 25008G18KT 220V290 10SM CLR 07/02 A2975 RMK AO2
KPMD,2022-11-05T11:53:00Z,KPMD 051153Z AUTO 19006KT 10SM CLR 03/M02 A3012 RMK AO2 SLP194 T00331017 10094 20033 56017
KPMH,2022-11-05T11:35:00Z,KPMH 051135Z AUTO 00000KT 10SM CLR 10/08 RMK AO2 T01020079
KPMP,2022-11-05T11:53:00Z,KPMP 051153Z 08007KT 10SM FEW033 26/19 A2993 RMK AO2 SLP135 60000 70001 T02610194 10267 20239 53002
KPMU,2022-11-05T11:35:00Z,KPMU 051135Z AUTO 15006KT 3SM RA SCT032 BKN046 OVC110 17/16 A2984 RMK AO2
KPMV,2022-11-05T11:35:00Z,KPMV 051135Z AUTO 32011KT 10SM OVC085 02/M02 A2956 RMK AO2 T00161023
KPNA,2022-11-05T11:35:00Z,KPNA 051135Z AUTO 10005KT 3SM -SN SCT019 OVC025 M03/M03 A2977 RMK AO2
KPNC,2022-11-05T11:53:00Z,KPNC 051153Z AUTO 23005KT 10SM CLR 03/02 A2980 RMK AO2 SLP092 60000 70039 T00330022 10056 20033 51009
KPNE,2022-11-05T11:54:00Z,KPNE 051154Z 00000KT 1/4SM FG VV018 12/11 A3027 RMK AO2 SLP249 T01220111 10156 20122 50000 RVRNO
KPNM,2022-11-05T11:55:00Z,KPNM 051155Z AUTO 35005KT 10SM CLR M03/M04 A2961 RMK AO2 TSNO
KPNS,2022-11-05T11:53:00Z,KPNS 051153Z 08004KT 10SM SCT023 BKN032 OVC040 22/21 A2999 RMK AO2 SLP156 T02220206 10228 20206 51009
KPNT,2022-11-05T11:35:00Z,KPNT 051135Z AUTO 16022G37KT 10SM OVC011 16/16 A2954 RMK AO2 T01630163
KPO1,2022-11-05T11:35:00Z,KPO1 051135Z AUTO 19009KT 10SM CLR 05/M05 A2918 RMK AO2
KPOB,2022-11-05T11:51:00Z,KPOB 051151Z AUTO 00000KT 3/4SM R23/3000VP6000FT BR BKN000 BKN033 16/16 A3017 RMK AO2 CIG 000V033 BKN000 V SCT SLP219
KPOE,2022-11-05T11:55:00Z,KPOE 051155Z AUTO 00000KT 10SM SCT080 BKN210 12/12 A2991 RMK AO2 LTG DSNT N SLP129 60162 70187 T01170115 10240 20116 50009
KPOF,2022-11-05T11:53:00Z,KPOF 051153Z AUTO 21020G31KT 10SM SCT037 BKN047 17/12 A2967 RMK AO2 PK WND 21039/1123 SLP043 60132 70145 T01670122 10200 20167 53006
KPOU,2022-11-05T11:53:00Z,KPOU 051153Z 00000KT 10SM OVC075 13/12 A3022 RMK AO2 SLP231 T01280122 10167 20111 58002
KPOV,2022-11-05T11:55:00Z,KPOV 051155Z AUTO 17005KT 10SM CLR 16/10 A2998 RMK AO2 T01570100 PWINO
KPOY,2022-11-05T11:35:00Z,KPOY 051135Z AUTO 16009G14KT 10SM CLR 03/M08 A2938 RMK AO2
KPPA,2022-11-05T11:35:00Z,KPPA 051135Z AUTO 22007KT 10SM CLR M01/M02 A2983 RMK AO2 T10091017
KPPF,2022-11-05T11:52:00Z,KPPF 051152Z AUTO 24009KT 10SM OVC015 04/02 A2975 RMK AO2 SLP076 60000 70156 T00390022 10056 20039 51022
KPPO,2022-11-05T11:35:00Z,KPPO 051135Z AUTO 16019G30KT 5SM -RA SCT032 BKN040 OVC060 14/14 A2964 RMK AO2 P0009 T01380138
KPPQ,2022-11-05T11:35:00Z,KPPQ 051135Z AUTO 17016G25KT 10SM BKN014 OVC021 19/19 A2942 RMK AO2 P0002 T01850185
KPQI,2022-11-05T10:56:00Z,KPQI 051056Z AUTO 20003KT 10SM CLR 07/06 A3005 RMK AO2 SLP205 T00720056
KPQL,2022-11-05T11:53:00Z,KPQL 051153Z AUTO 14008KT 10SM FEW035 23/21 A2994 RMK AO2 SLP140 T02280211 10228 20217 58003
KPRB,2022-11-05T11:53:00Z,KPRB 051153Z AUTO 04003KT 10SM CLR 02/M03 A3024 RMK AO2 SLP239 T00221033 10089 20017 58016 $
KPRC,2022-11-05T11:53:00Z,KPRC 051153Z AUTO 20007KT 10SM CLR 01/M05 A3011 RMK AO2 SLP175 T00061050 10017 21011 56020
KPRG,2022-11-05T11:35:00Z,KPRG 051135Z AUTO 16027G33KT 10SM -RA BKN015 OVC022 15/14 A2970 RMK AO2 P0001 T01460142
KPRN,2022-11-05T10:58:00Z,KPRN 051058Z AUTO 15003KT 10SM CLR 13/12 A3001 RMK AO2 SLP111 T01330122 $
KPRO,2022-11-05T11:55:00Z,KPRO 051155Z AUTO 33011KT 7SM DZ OVC007 04/03 A2946 RMK AO2 60003 70048 T00350025 10041 20035
KPRS,2022-11-05T11:35:00Z,KPRS 051135Z AUTO 34004KT 10SM CLR 04/M05 A3007 RMK AO2 T00441055
KPRX,2022-11-05T10:56:00Z,KPRX 051056Z AUTO 27003KT FEW014 06/06 A2989 RMK AO2 SLP121 T00560056 PWINO $
KPSC,2022-11-05T11:53:00Z,KPSC 051153Z AUTO 31014G23KT 10SM CLR 09/01 A2964 RMK AO2 PK WND 31030/1110 SLP035 60001 70002 T00890006 10161 20083 53063
KPSF,2022-11-05T11:54:00Z,KPSF 051154Z AUTO 21011G18KT 10SM FEW045 17/14 A3022 RMK AO2 SLP215 T01670139 10167 20156 58002
KPSK,2022-11-05T11:35:00Z,KPSK 051135Z AUTO 16005KT 7SM -DZ SCT018 BKN025 OVC048 17/16 A3017 RMK AO2 T01650158
KPSM,2022-11-05T10:55:00Z,KPSM 051055Z 00000KT 7SM BCFG SCT250 12/12 A3022 RMK AO2A SLP236 T01210118
KPSN,2022-11-05T11:35:00Z,KPSN 051135Z AUTO 32003KT 10SM CLR 08/08 A2992 RMK AO2
KPSO,2022-11-05T11:35:00Z,KPSO 051135Z AUTO 00000KT 10SM CLR M08/M08 A3005 RMK AO2 T10801081
KPSP,2022-11-05T11:53:00Z,KPSP 051153Z AUTO 34003KT 10SM CLR 12/M02 A3009 RMK AO2 SLP188 T01171022 10156 20111 56019
KPSX,2022-11-05T10:53:00Z,KPSX 051053Z AUTO 35006KT 10SM BKN050 17/15 A2988 RMK AO2 SLP117 T01670150 $
KPTB,2022-11-05T11:35:00Z,KPTB 051135Z AUTO 00000KT 1/2SM FG OVC023 12/12 A3022 RMK AO2 T01220116
KPTK,2022-11-05T11:53:00Z,KPTK 051153Z 15007KT 10SM BKN090 BKN210 15/08 A2981 RMK AO2 SLP093 T01500083 10189 20150 58005
KPTN,2022-11-05T11:10:00Z,KPTN 051110Z AUTO 16005KT 10SM FEW005 BKN019 OVC070 24/23 A2987 RMK AO2 $
KPTS,2022-11-05T11:55:00Z,KPTS 051155Z AUTO 26008G15KT 10SM OVC010 04/03 A2971 RMK AO2 60001 70049 T00380030 10060 20038 PWINO
KPTT,2022-11-05T11:35:00Z,KPTT 051135Z AUTO 27009KT 10SM CLR 01/01 A2974 RMK AO2 T00100007
KPTV,2022-11-05T10:56:00Z,KPTV 051056Z AUTO 00000KT 10SM CLR 06/04 A3024 RMK AO2 SLP242 T00610039
KPTW,2022-11-05T11:54:00Z,KPTW 051154Z AUTO 00000KT 6SM BR SCT010 OVC070 16/15 A3025 RMK AO2 SLP240 T01560150 10161 20128 58001
KPUB,2022-11-05T11:53:00Z,KPUB 051153Z 13007KT 10SM CLR M04/M11 A2969 RMK AO2 SLP059 T10391106 11033 21067 58024
KPUC,2022-11-05T11:53:00Z,KPUC 051153Z AUTO 16003KT 10SM BKN050 01/M08 A2997 RMK AO2 SLP168 T00061083 10022 20006 56019
KPUJ,2022-11-05T11:35:00Z,KPUJ 051135Z AUTO 16005KT 5SM BR OVC006 16/16 A3008 RMK AO2
KPUW,2022-11-05T11:53:00Z,KPUW 051153Z AUTO 27019G33KT 10SM SCT055 05/00 A2949 RMK AO2 PK WND 28038/1103 RAE1058 SLP992 P0000 60011 70184 T00500000 10111 20050 53039
KPVB,2022-11-05T11:35:00Z,KPVB 051135Z AUTO 04007KT 5SM BKN005 OVC009 10/10 A2939 RMK AO1 P0002 T00960096
KPVC,2022-11-05T10:56:00Z,KPVC 051056Z AUTO 19010KT 10SM CLR 16/16 A3028 RMK AO2 SLP253 T01610156
KPVD,2022-11-05T11:51:00Z,KPVD 051151Z 17005KT 10SM BKN065 16/15 A3028 RMK AO2 SLP253 T01560150 10156 20128 53001
KPVF,2022-11-05T11:55:00Z,KPVF 051155Z AUTO 13003KT 10SM FEW027 OVC032 07/01 A3022 RMK AO1
KPVJ,2022-11-05T11:55:00Z,KPVJ 051155Z AUTO 00000KT 10SM CLR 03/02 A2988 RMK AO2 70004 T00250018 10057 20025
KPVU,2022-11-05T10:56:00Z,KPVU 051056Z AUTO 00000KT 10SM SCT065 OVC080 03/M02 A3002 RMK AO2 SLP170 T00281022
KPVW,2022-11-05T11:30:00Z,KPVW 051130Z AUTO 26007KT 10SM CLR M01/M04 A2986 RMK AO2 T10131036
KPWA,2022-11-05T11:53:00Z,KPWA 051153Z 22006KT 10SM CLR 01/01 A2983 RMK AO2 SLP107 70021 T00110006 10056 20011 56006
KPWC,2022-11-05T11:55:00Z,KPWC 051155Z AUTO 00000KT 10SM SCT007 BKN013 M08/M09 A2969 RMK AO2
KPWD,2022-11-05T11:35:00Z,KPWD 051135Z AUTO 14010KT 10SM OVC070 00/M07 A2918 RMK AO2
KPWG,2022-11-05T10:56:00Z,KPWG 051056Z AUTO 31004KT 10SM CLR 08/07 A2994 RMK AO2 SLP134 T00830067
KPWK,2022-11-05T11:52:00Z,KPWK 051152Z 17022G35KT 10SM OVC018 17/14 A2953 RMK AO2 PK WND 18037/1127 SLP996 60016 70035 T01720139 10211 20167 56022
KPWM,2022-11-05T11:51:00Z,KPWM 051151Z 00000KT 10SM FEW150 FEW250 13/12 A3021 RMK AO2 SLP229 T01280122 10139 20128 55002
KPWT,2022-11-05T10:56:00Z,KPWT 051056Z AUTO 27005KT 10SM CLR 06/01 A2971 RMK AO2 SLP065 T00610011
KPXE,2022-11-05T11:35:00Z,KPXE 051135Z AUTO 00000KT 10SM OVC005 13/13 A3008 RMK AO2 T01340132
KPYM,2022-11-05T11:52:00Z,KPYM 051152Z AUTO 21007KT 10SM FEW065 17/15 A3028 RMK AO2 SLP254 T01720150 10172 20156 53004
KPYX,2022-11-05T11:55:00Z,KPYX 051155Z AUTO 24007KT 10SM CLR M01/M02 A2978 RMK AO2 70013 T10101021 11002 21025
KPZQ,2022-11-05T11:55:00Z,KPZQ 051155Z AUTO 17004KT 5SM -RA SCT002 SCT028 OVC090 10/10 A2965 RMK AO2 T01040099 10118 20090
KPZZ,2022-11-05T11:35:00Z,KPZZ 051135Z AUTO 17017KT 5SM HZ FEW020 FEW032 27/24 A2987 RMK A01
KQAZ,2022-11-05T11:55:00Z,KQAZ 051155Z AUTO 00000KT 9999 CLR 29/M01 A3002 RMK AO2 SLP165 WND DATA ESTMD T02911014 10306 20188 57023
KQBL,2022-11-05T11:00:00Z,KQBL 051100Z AUTO 00000KT 10SM BKN013 BKN021 23/23 A2999 RMK AO2 SLP161 WND DATA ESTMD
KQD3,2022-11-05T10:55:00Z,KQD3 051055Z AUTO 06009KT 9999 FEW038 32/21 A2988 RMK AO2 SLP103 WND DATA ESTMD T03150212
KQDG,2022-11-05T10:55:00Z,KQDG 051055Z AUTO 26009KT 9999 FEW070 08/02 A2997 RMK AO2 SLP151 T00770015 $
KQEI,2022-11-05T11:50:00Z,KQEI 051150Z AUTO 32001KT 9999 CLR 02/M06 A3025 RMK A02 TSNO
KQEJ,2022-11-05T11:50:00Z,KQEJ 051150Z AUTO 00000KT 9999 // CLR 21/21 / RMK A02 TSNO
KQEN,2022-11-05T11:50:00Z,KQEN 051150Z AUTO 26008KT 9999 // CLR / / RMK A02 TSNO
KQEP,2022-11-05T11:50:00Z,KQEP 051150Z AUTO 12001KT 9999 CLR 04/M03 A3031 RMK A02 TSNO
KQEQ,2022-11-05T11:50:00Z,KQEQ 051150Z AUTO 13003KT 9999 CLR 06/M00 A3031 RMK A02 TSNO
KQER,2022-11-05T11:40:00Z,KQER 051140Z AUTO 34001KT 9999 CLR 03/M04 A3022 RMK A02 TSNO
KQEV,2022-11-05T11:50:00Z,KQEV 051150Z AUTO 31001KT 9999 CLR 04/M00 A3026 RMK A02 TSNO
KQEW,2022-11-05T11:50:00Z,KQEW 051150Z AUTO 30001KT 9999 CLR 06/M05 A3026 RMK A02 TSNO
KQEX,2022-11-05T11:50:00Z,KQEX 051150Z AUTO 30001KT 9999 CLR 08/M05 A3019 RMK A02 TSNO
KQEY,2022-11-05T11:50:00Z,KQEY 051150Z AUTO 12002KT 9999 CLR 05/M01 A3000 RMK A02 TSNO
KQFB,2022-11-05T11:50:00Z,KQFB 051150Z AUTO 26001KT 9000 HZ CLR 05/M04 A3031 RMK A02 TSNO
KQFT,2022-11-05T11:50:00Z,KQFT 051150Z AUTO 16002KT 9999 CLR 03/M05 A3027 RMK A02 TSNO
KQFU,2022-11-05T11:50:00Z,KQFU 051150Z AUTO 02001KT 9999 CLR 05/M02 A3031 RMK A02 TSNO
KQFV,2022-11-05T11:50:00Z,KQFV 051150Z AUTO 11001KT 6000 HZ CLR 01/M05 A3028 RMK A02 TSNO
KQFW,2022-11-05T11:40:00Z,KQFW 051140Z AUTO 08001KT 9999 CLR M01/M06 A3011 RMK A02 TSNO
KQFX,2022-11-05T11:50:00Z,KQFX 051150Z AUTO 16002KT 9999 CLR 18/16 / RMK A02 TSNO
KQHY,2022-11-05T11:43:00Z,KQHY 051143Z AUTO 09003KT 10SM BKN009 OVC014 22/20 A3000 RMK AO2 CIG 009V011 SLP165
KQN3,2022-11-05T10:55:00Z,KQN3 051055Z AUTO 00000KT 9999 CLR 34/04 A2997 RMK AO2 SLPNO WND DATA ESTMD T03410043
KQRH,2022-11-05T10:55:00Z,KQRH 051055Z AUTO 08010G15KT 040V120 9999 CLR 31/23 A2983 RMK AO2 SLP104 WND DATA ESTMD T03130225
KQTZ,2022-11-05T10:55:00Z,KQTZ 051055Z VRB02KT 9999 SKC 28/02 A3003 RMK SLP169 WND DATA ESTMD ALSTG/SLP ESTMD
KQVF,2022-11-05T11:37:00Z,KQVF 051137Z AUTO 14012KT 9999 FEW020 SCT024 BKN030 28/23 A2988 RMK AO2 SLP121 WND DATA ESTMD
KRAC,2022-11-05T11:53:00Z,KRAC 051153Z AUTO A2953 RMK AO2 SLPNO 70065 56020 PWINO FZRANO $
KRAL,2022-11-05T11:53:00Z,KRAL 051153Z AUTO 10003KT 10SM CLR 08/02 A3010 RMK AO2 SLP183 T00780022 10122 20078 56018
KRAP,2022-11-05T11:52:00Z,KRAP 051152Z 27005KT 10SM SCT070 M05/M09 A2942 RMK AO2 SLP990 T10501089 11017 21072 56032
KRAS,2022-11-05T11:35:00Z,KRAS 051135Z AUTO 02006KT 10SM OVC042 A2992 RMK AO2
KRBD,2022-11-05T11:53:00Z,KRBD 051153Z 29007KT 10SM CLR 06/04 A2993 RMK AO2 SLP135 70100 T00610039 10094 20061 53005
KRBG,2022-11-05T11:53:00Z,KRBG 051153Z AUTO 34009KT 7SM -RA FEW009 BKN031 OVC040 13/11 A2993 RMK AO2 SLP134 P0001 60060 70069 T01330106 10139 20133 53005
KRBL,2022-11-05T11:54:00Z,KRBL 051154Z AUTO 20003KT 10SM SCT027 OVC090 08/04 A3014 RMK AO2 SLP206 T00830039 10089 20050 56027
KRBO,2022-11-05T11:35:00Z,KRBO 051135Z AUTO 10SM BKN048 BKN075 BKN110 19/13 A2992 RMK AO2 T01850131
KRBW,2022-11-05T11:35:00Z,KRBW 051135Z AUTO 00000KT 2 1/2SM BR CLR 17/17 A3012 RMK AO2
KRCA,2022-11-05T10:55:00Z,KRCA 051055Z AUTO 18004KT 10SM OVC070 M02/M10 A2941 RMK AO2 SLP978 T10161104 $
KRCE,2022-11-05T11:55:00Z,KRCE 051155Z AUTO 23005KT 10SM CLR 02/01 A2983 RMK AO2
KRCM,2022-11-05T11:55:00Z,KRCM 051155Z AUTO 21016G23KT 5SM BR BKN010 OVC019 04/04 A2955 RMK AO2
KRCR,2022-11-05T11:35:00Z,KRCR 051135Z AUTO 17014KT 9SM FEW031 SCT055 BKN065 18/10 A2973 RMK AO2
KRCV,2022-11-05T11:35:00Z,KRCV 051135Z AUTO 26008KT 10SM CLR M08/M11 A3000 RMK AO2 T10801107
KRCX,2022-11-05T11:55:00Z,KRCX 051155Z AUTO 05006KT 10SM -RA OVC010 04/04 A2958 RMK AO2 T00360036 10038 20035
KRCZ,2022-11-05T11:55:00Z,KRCZ 051155Z AUTO 11004KT 4SM BR BKN003 BKN043 OVC050 19/18 A3016 RMK AO2 T01850181 10190 20182
KRDD,2022-11-05T11:53:00Z,KRDD 051153Z AUTO 34004KT 10SM OVC033 09/04 A3014 RMK AO2 SLP204 T00940044 10111 20078 56019
KRDG,2022-11-05T11:54:00Z,KRDG 051154Z 16004KT 10SM FEW021 SCT060 OVC075 19/17 A3021 RMK AO2 SLP232 T01890167 10189 20167 56003
KRDK,2022-11-05T11:35:00Z,KRDK 051135Z AUTO 32014G21KT 10SM FEW055 BKN060 OVC070 03/01 A2952 RMK AO2
KRDM,2022-11-05T11:51:00Z,KRDM 051151Z AUTO 35012G18KT 10SM FEW016 BKN028 OVC035 10/07 A2974 RMK AO2 RAB04E19 P0000
KRDR,2022-11-05T10:55:00Z,KRDR 051055Z AUTO 17007KT 10SM CLR M08/M10 A2960 RMK AO2 SLP041 T10781105 $
KRDU,2022-11-05T11:51:00Z,KRDU 051151Z 13004KT 8SM SCT034 BKN250 18/17 A3019 RMK AO2 SLP220 T01830167 10194 20178 51000
KREG,2022-11-05T11:35:00Z,KREG 051135Z AUTO 17008KT 10SM OVC014 25/23 A2986 RMK AO2 LTG DSNT N T02500230
KREO,2022-11-05T11:52:00Z,KREO 051152Z AUTO 25026G38KT 11/01 A2981 RMK AO1 PK WND 24038/1124 SLP082 70005 T01060011 10111 20100 56017
KRFD,2022-11-05T11:54:00Z,KRFD 051154Z 16018G29KT 10SM OVC013 17/14 A2946 RMK AO2 PK WND 15034/1059 SLP973 60018 70087 T01670144 10172 20150 58025 $
KRFI,2022-11-05T11:35:00Z,KRFI 051135Z AUTO 00000KT 10SM CLR 10/07 A2994 RMK AO2 T00990069
KRGA,2022-11-05T11:35:00Z,KRGA 051135Z AUTO 16009KT 10SM CLR 17/12 A2996 RMK AO2
KRGK,2022-11-05T11:55:00Z,KRGK 051155Z AUTO 00000KT 10SM -DZ OVC011 04/02 A2954 RMK AO2
KRHI,2022-11-05T11:53:00Z,KRHI 051153Z AUTO VRB06KT 3SM -RA BR FEW006 BKN013 OVC032 03/02 A2959 RMK AO2 SLP033 P0006 60021 70025 T00280017 10028 20028 56016 TSNO
KRHP,2022-11-05T11:55:00Z,KRHP 051155Z AUTO 23007KT 210V280 10SM OVC026 18/15 A3009 RMK AO2 T01840145 10200 20176
KRIC,2022-11-05T11:54:00Z,KRIC 051154Z 15004KT 4SM BR FEW031 SCT300 14/14 A3022 RMK AO2 SLP236 T01440139 10172 20144 53001
KRIL,2022-11-05T11:53:00Z,KRIL 051153Z AUTO 00000KT 10SM OVC055 01/M03 A3001 RMK AO2 SLP164 T00111033 10017 20006 58016
KRIV,2022-11-05T10:55:00Z,KRIV 051055Z AUTO 00000KT 10SM CLR 08/M00 A3010 RMK AO2 SLP189 T00751002
KRIW,2022-11-05T11:53:00Z,KRIW 051153Z AUTO 19005KT 10SM CLR M01/M04 A2955 RMK AO2 SLP015 T10061044 10017 21011 56024
KRKD,2022-11-05T10:56:00Z,KRKD 051056Z AUTO 23012G17KT 10SM CLR 14/14 A3019 RMK AO2 SLP222 T01440144
KRKP,2022-11-05T11:53:00Z,KRKP 051153Z AUTO 01006KT 10SM -RA 17/15 A2992 RMK AO2 RAB19 SLP132 P0001 60001 70001 T01670150 10256 20150 53006 $
KRKR,2022-11-05T11:35:00Z,KRKR 051135Z AUTO 00000KT 10SM OVC016 07/05 A2986 RMK AO2
KRKS,2022-11-05T11:54:00Z,KRKS 051154Z AUTO 26032G41KT 10SM UP SCT060 OVC090 01/M02 A2977 RMK AO2 PK WND 26041/1154 UPB19SNE19 SLP097 P0000 60000 T00061017 10006 21017 58016
KRKW,2022-11-05T11:35:00Z,KRKW 051135Z AUTO 21012G19KT 10SM BKN048 OVC055 18/15 A3004 RMK A01
KRLD,2022-11-05T11:55:00Z,KRLD 051155Z AUTO 30010G19KT 10SM 10/01 A2963 RMK AO2 60001 70001 T01040005 10161 20088
KRME,2022-11-05T11:53:00Z,KRME 051153Z 07007KT 10SM CLR 15/12 A3012 RMK AO2 SLP197 T01500122 10167 20128 58012
KRMG,2022-11-05T11:53:00Z,KRMG 051153Z AUTO 00000KT 10SM OVC014 16/13 A3005 RMK AO2 SLP169 T01560133 10156 20128 58004
KRMN,2022-11-05T11:55:00Z,KRMN 051155Z AUTO 00000KT 5SM BR BKN006 OVC026 17/16 A3024 RMK AO2 T01730161 10192 20173
KRMY,2022-11-05T11:35:00Z,KRMY 051135Z AUTO 17009G16KT 10SM SCT060 BKN080 BKN090 17/09 A2974 RMK AO2 T01660090
KRNC,2022-11-05T11:35:00Z,KRNC 051135Z AUTO 19008G19KT 150V210 10SM CLR 19/14 A2996 RMK A01
KRND,2022-11-05T10:55:00Z,KRND 051055Z AUTO 00000KT 10SM BKN080 14/M00 A2990 RMK AO2 SLP119 T01401005
KRNH,2022-11-05T11:35:00Z,KRNH 051135Z AUTO 01004KT 10SM OVC110 01/01 A2958 RMK AO2 T00100010
KRNM,2022-11-05T11:53:00Z,KRNM 051153Z AUTO 00000KT 10SM CLR 02/00 A3009 RMK AO2 SLP187 T00220000 10061 20017 55017
KRNO,2022-11-05T10:55:00Z,KRNO 051055Z VRB03G15KT 10SM FEW180 07/M01 A3009 RMK AO2 SLP170 T00671011
KRNP,2022-11-05T11:55:00Z,KRNP 051155Z AUTO 18014G17KT 10SM SCT070 17/08 A2974 RMK AO2 T01730083 10186 20172
KRNT,2022-11-05T11:53:00Z,KRNT 051153Z AUTO VRB04KT 10SM CLR 07/03 A2974 RMK AO2 SLP077 T00720028 10144 20072 51035 $
KRNV,2022-11-05T11:55:00Z,KRNV 051155Z AUTO 16008KT 10SM SCT110 12/11 A2986 RMK AO2 P0008 60127 70127 T01230107 10225 20121 TSNO
KROA,2022-11-05T11:54:00Z,KROA 051154Z 13006KT 8SM -RA FEW020 BKN025 OVC035 18/17 A3018 RMK AO2 SLP213 P0004 60008 70008 T01830172 10194 20178 55004
KROC,2022-11-05T11:54:00Z,KROC 051154Z 20010KT 10SM FEW140 SCT200 BKN240 17/11 A3002 RMK AO2 SLP167 T01670106 10172 20167 55006
KROG,2022-11-05T11:54:00Z,KROG 051154Z 10SM OVC009 06/04 A2978 RMK AO2 RAE13 P0000 $
KROS,2022-11-05T11:44:00Z,KROS 051144Z AUTO 03004KT 10SM CLR 01/M01 A2961 RMK AO2
KROW,2022-11-05T11:51:00Z,KROW 051151Z 00000KT 10SM CLR 04/M05 A2992 RMK AO2 SLP104 T00391050 10083 20028 58013
KROX,2022-11-05T11:55:00Z,KROX 051155Z AUTO 13005KT 10SM CLR M03/M05 A2963 RMK AO2
KRPD,2022-11-05T11:55:00Z,KRPD 051155Z AUTO 03008KT 10SM OVC015 03/03 A2959 RMK AO2 T00320030 10032 20013
KRPH,2022-11-05T11:55:00Z,KRPH 051155Z AUTO 00000KT 10SM CLR 03/02 A2993 RMK AO2 T00250019 $
KRPJ,2022-11-05T11:35:00Z,KRPJ 051135Z AUTO 16026G32KT 10SM OVC012 16/16 A2946 RMK AO2 T01600160 TSNO
KRQB,2022-11-05T11:55:00Z,KRQB 051155Z AUTO 16006KT 10SM SCT039 SCT110 16/14 A2963 RMK AO2 60020 70098 T01550136 10183 20146 P0003
KRQE,2022-11-05T11:53:00Z,KRQE 051153Z AUTO 00000KT 10SM CLR M04/M08 A3011 RMK AO2 SLP183 T10441078 11022 21050 55007
KRQO,2022-11-05T11:55:00Z,KRQO 051155Z AUTO 26009KT 02/02 A2985 RMK AO2 PWINO T00230017 10044 20019
KRRL,2022-11-05T11:55:00Z,KRRL 051155Z AUTO 04006KT 3SM RA OVC007 03/03 A2955 RMK AO2 T00330033 10041 20032 TSNO
KRRT,2022-11-05T11:35:00Z,KRRT 051135Z AUTO 14005KT 10SM CLR M04/M07 A2966 RMK AO2
KRSL,2022-11-05T11:53:00Z,KRSL 051153Z AUTO 26007KT 10SM CLR M03/M06 A2968 RMK AO2 SLP067 70001 T10331056 10033 21033 56012
KRSN,2022-11-05T11:35:00Z,KRSN 051135Z AUTO 00000KT 10SM OVC085 12/11 A2990 RMK AO2 T01180113
KRST,2022-11-05T11:54:00Z,KRST 051154Z 02010KT 4SM RA BR OVC003 03/02 A2951 RMK AO2 UPB05E08 SLP003 P0005 60008 70011 T00280017 10028 20028 58020
KRSV,2022-11-05T11:55:00Z,KRSV 051155Z AUTO 16022G27KT 5SM RA SCT075 OVC110 15/14 A2972 RMK AO2 P0012 60040 70040 T01470135 10202 20145
KRSW,2022-11-05T11:53:00Z,KRSW 051153Z 04004KT 10SM FEW002 20/19 A2996 RMK AO2 SLP142 T02000194 10211 20200 53003
KRTN,2022-11-05T11:53:00Z,KRTN 051153Z AUTO 08007KT 10SM CLR M07/M08 A2982 RMK AO2 SLP106 70005 I6000 T10671083 11050 21078 55009
KRTS,2022-11-05T11:35:00Z,KRTS 051135Z AUTO 36009KT 10SM CLR 06/M02 A3008 RMK AO2
KRUE,2022-11-05T11:53:00Z,KRUE 051153Z AUTO 00000KT 10SM BKN022 BKN037 08/06 A2983 RMK AO2 SLP096 70064 T00830056 10139 20083 50018
KRUG,2022-11-05T11:55:00Z,KRUG 051155Z AUTO 16015KT 10SM CLR M03/M07 A2942 RMK AO2
KRUQ,2022-11-05T11:55:00Z,KRUQ 051155Z AUTO 17005KT 7SM OVC004 19/18 A3017 RMK AO2 T01880181 10188 20155
KRUT,2022-11-05T10:56:00Z,KRUT 051056Z AUTO VRB03KT 10SM CLR 16/12 A3017 RMK AO2 SLP213 T01560117 $
KRVF,2022-11-05T11:35:00Z,KRVF 051135Z AUTO 21020G28KT 10SM SCT060 SCT070 BKN095 09/M01 A2942 RMK AO2
KRVJ,2022-11-05T11:35:00Z,KRVJ 051135Z AUTO 07005KT 4SM HZ SCT028 SCT035 OVC042 18/ A3008 RMK AO2 T0184////
KRVL,2022-11-05T11:55:00Z,KRVL 051155Z AUTO 00000KT 10SM OVC016 16/14 A3015 RMK AO2
KRVS,2022-11-05T11:53:00Z,KRVS 051153Z 24004KT 10SM FEW023 06/03 A2983 RMK AO2 SLP107 70085 T00560028 10072 20056 51005
KRWF,2022-11-05T11:53:00Z,KRWF 051153Z AUTO 32004KT 10SM CLR M04/M07 A2960 RMK AO2 SLP036 T10441067 11011 21044 56026
KRWI,2022-11-05T11:53:00Z,KRWI 051153Z AUTO 00000KT 1/4SM FG VV016 13/12 A3021 RMK AO2 SLP228 70006 T01280122 10156 20128 53001
KRWL,2022-11-05T11:53:00Z,KRWL 051153Z AUTO 23023G33KT 9SM -SN OVC021 M01/M04 A2973 RMK AO2 PK WND 21045/1058 SLP079 P0000 60000 T10061044 10006 21017 56005
KRWV,2022-11-05T11:35:00Z,KRWV 051135Z AUTO 36005KT 10SM CLR 11/10 A2993 RMK AO2 T01100098
KRXE,2022-11-05T11:53:00Z,KRXE 051153Z AUTO 21022G34KT 10SM OVC016 04/01 A2966 RMK AO2 PK WND 19044/1130 SLP050 60005 70021 I6007 T00440011 10044 20011 56031
KRYM,2022-11-05T10:55:00Z,KRYM 051055Z AUTO 36003KT 10SM CLR M05/M06 A2965 RMK AO2 SLP057 T10511064 $
KRYV,2022-11-05T11:55:00Z,KRYV 051155Z AUTO 16014G20KT 10SM OVC012 A2944 RMK AO2 P0001 60031 70164
KRYW,2022-11-05T11:55:00Z,KRYW 051155Z AUTO 03004KT 10SM SCT080 12/M03 A2994 RMK AO2 T01191033 10166 20119
KRYY,2022-11-05T11:50:00Z,KRYY 051150Z 14004KT 3SM BR OVC008 18/17 A3009 RMK AO2 SLP182 T01830172 10183 20161 53006 $
KRZL,2022-11-05T11:55:00Z,KRZL 051155Z AUTO 15027G34KT 10SM -DZ BKN090 BKN120 14/13 A2965 RMK AO2
KRZN,2022-11-05T11:55:00Z,KRZN 051155Z AUTO 05004KT 10SM CLR 00/M01 A2961 RMK AO2 T10051010 11005 21018
KRZR,2022-11-05T11:35:00Z,KRZR 051135Z AUTO 21010KT 10SM FEW029 SCT038 OVC050 19/18 A3003 RMK A01
KRZT,2022-11-05T11:55:00Z,KRZT 051155Z AUTO 17004KT 10SM CLR 15/09 A2997 RMK AO2 PWINO
KS21,2022-11-05T11:35:00Z,KS21 051135Z AUTO 20011KT 4SM -RA SCT005 BKN011 OVC055 07/06 A2981 RMK AO2
KS24,2022-11-05T11:55:00Z,KS24 051155Z AUTO 18011G18KT 10SM CLR 18/10 A2987 RMK AO2
KS25,2022-11-05T11:55:00Z,KS25 051155Z AUTO 20009G15KT 10SM OVC065 04/M06 A2926 RMK AO2
KS32,2022-11-05T11:55:00Z,KS32 051155Z AUTO 17010KT 10SM CLR M07/M08 A2957 RMK AO2 TSNO
KS33,2022-11-05T11:35:00Z,KS33 051135Z AUTO 31016G26KT 10SM SCT036 SCT049 SCT070 06/03 A2977 RMK AO2
KS34,2022-11-05T10:55:00Z,KS34 051055Z AUTO 00000KT 3 1/2SM HZ 07/M19 A2928 RMK Plains 
KS39,2022-11-05T11:35:00Z,KS39 051135Z AUTO 26011G18KT 10SM FEW009 SCT023 BKN045 09/07 A2973 RMK AO2
KS52,2022-11-05T11:35:00Z,KS52 051135Z AUTO 00000KT 5SM BR CLR M02/M02 A2949 RMK AO2 T10211025
KS71,2022-11-05T11:45:00Z,KS71 051145Z AUTO 22022G31KT 10SM 14/M01 A2899 
KS85,2022-11-05T11:40:00Z,KS85 051140Z AUTO VRB05KT 10SM OVC080 06/M07 A2919 RMK A01 Culbertson 
KSAA,2022-11-05T11:35:00Z,KSAA 051135Z AUTO 22018G26KT 10SM SCT055 OVC110 00/M03 A2979 RMK AO2
KSAC,2022-11-05T11:53:00Z,KSAC 051153Z AUTO 13006KT 10SM OVC012 11/04 A3019 RMK AO2 SLP223 T01060044 10111 20089 58017
KSAD,2022-11-05T11:51:00Z,KSAD 051151Z AUTO 16005KT 10SM CLR 00/M03 A3009 RMK AO2 SLP180 T00001028 10061 20000 58009 $
KSAF,2022-11-05T11:53:00Z,KSAF 051153Z AUTO 33007KT 10SM CLR M03/M09 A3002 RMK AO2 SLP158 T10331089 11006 21039 55008
KSAN,2022-11-05T11:51:00Z,KSAN 051151Z 00000KT 10SM SCT250 10/05 A3011 RMK AO2 SLP195 T01000050 10139 20094 56017
KSAR,2022-11-05T11:35:00Z,KSAR 051135Z AUTO 16013G27KT 10SM OVC011 17/16 A2956 RMK AO2 T01680156
KSAT,2022-11-05T11:51:00Z,KSAT 051151Z 00000KT 10SM SCT080 14/M03 A2994 RMK AO2 SLP124 70001 T01441028 10206 20133 53007 $
KSAV,2022-11-05T11:53:00Z,KSAV 051153Z 10007KT 8SM SCT033 BKN055 BKN250 21/19 A3008 RMK AO2 SLP185 70003 T02110194 10211 20178 53003
KSAW,2022-11-05T11:45:00Z,KSAW 051145Z 03014G19KT 4SM -RA OVC004 04/03 A2962
KSAZ,2022-11-05T11:55:00Z,KSAZ 051155Z 00000KT 10SM M07/M08 A2963 RMK AO2
KSBA,2022-11-05T11:53:00Z,KSBA 051153Z AUTO 00000KT 10SM CLR 06/01 A3009 RMK AO2 SLP188 T00560011 10106 20044 58014 $
KSBD,2022-11-05T11:40:00Z,KSBD 051140Z AUTO 00000KT 10SM CLR 07/M01 A3011 RMK AO2 T00681006
KSBM,2022-11-05T11:53:00Z,KSBM 051153Z AUTO 04006KT 1 1/4SM BR OVC002 09/09 A2950 RMK AO2 RAE1054B31E40 SLP991 P0000 60024 70141 T00940089 10094 20083 56033
KSBN,2022-11-05T11:54:00Z,KSBN 051154Z 17019G25KT 7SM -RA SCT065 BKN080 OVC100 16/12 A2968 RMK AO2 PK WND 18030/1126 SLP048 P0005 60007 70007 T01610117 10206 20161 58015
KSBO,2022-11-05T11:35:00Z,KSBO 051135Z AUTO 00000KT 1/2SM FG OVC003 18/18 A3010 RMK AO2
KSBS,2022-11-05T11:35:00Z,KSBS 051135Z AUTO 00000KT 2SM OVC003 M03/M03 A2989 RMK AO1 T10311031
KSBY,2022-11-05T11:54:00Z,KSBY 051154Z 11004KT 9SM BKN033 OVC043 13/12 A3024 RMK AO2 SLP243 T01280122 10161 20122 50002
KSCD,2022-11-05T11:55:00Z,KSCD 051155Z AUTO 11004KT 10SM BKN080 BKN095 OVC120 15/13 A3002 RMK AO2 T01470134 10182 20143
KSCK,2022-11-05T11:14:00Z,KSCK 051114Z AUTO 14004KT 10SM BKN028 OVC037 09/05 A3021 RMK AO2 T00940050
KSCR,2022-11-05T11:55:00Z,KSCR 051155Z AUTO 14003KT 3SM BR OVC002 18/18 A3018 RMK AO2 T01810181 10183 20176
KSDA,2022-11-05T11:35:00Z,KSDA 051135Z AUTO 31013G18KT 10SM -RA OVC060 02/01 A2953 RMK AO2
KSDB,2022-11-05T11:53:00Z,KSDB 051153Z AUTO 01008G18KT 330V060 10SM CLR 08/M02 A3018 RMK AO2 SLP195 T00831022 10094 20067 $
KSDC,2022-11-05T11:55:00Z,KSDC 051155Z AUTO 17006KT 10SM CLR 16/11 A3005 RMK AO2
KSDF,2022-11-05T11:45:00Z,KSDF 051145Z 24015G25KT 10SM SCT085 BKN110 21/13 A2991 RMK AO2 PK WND 18027/1128 WSHFT 1129 PRESRR T02060128
KSDL,2022-11-05T11:53:00Z,KSDL 051153Z AUTO 00000KT 10SM CLR 08/03 A3009 RMK AO2 SLP182 T00780033 10117 20067 $
KSDM,2022-11-05T11:53:00Z,KSDM 051153Z AUTO 06005KT 10SM CLR 09/02 A3008 RMK AO2 SLP185 T00890017 10117 20067 56017
KSDY,2022-11-05T10:56:00Z,KSDY 051056Z AUTO 21004KT 10SM OVC080 M01/M04 A2926 RMK AO2 SLP927 T10111044 FZRANO PNO $
KSEA,2022-11-05T11:53:00Z,KSEA 051153Z 18003KT 10SM FEW250 07/01 A2974 RMK AO2 SLP077 70020 T00670006 10128 20061 51031
KSEE,2022-11-05T11:55:00Z,KSEE 051155Z AUTO 00000KT 10SM CLR 07/04 A3010 RMK AO2
KSEF,2022-11-05T11:35:00Z,KSEF 051135Z AUTO 36005KT 10SM CLR A2998 RMK AO2
KSEG,2022-11-05T11:53:00Z,KSEG 051153Z AUTO 00000KT 10SM OVC015 17/15 A3017 RMK AO2 SLP215 T01670150 10167 20122 57009
KSEM,2022-11-05T11:35:00Z,KSEM 051135Z AUTO 13005KT 10SM BKN034 14/14 A2997 RMK AO2
KSEP,2022-11-05T11:55:00Z,KSEP 051155Z AUTO 29003KT 10SM CLR 06/03 A2996 RMK AO2 T00580028 10088 20058
KSEQ,2022-11-05T10:55:00Z,KSEQ 051055Z AUTO 01003KT 10SM FEW080 13/11 A2990 RMK AO2 LTG DSNT E SLP122 T01270108 $
KSET,2022-11-05T11:54:00Z,KSET 051154Z AUTO 17019G25KT 10SM -RA BKN015 OVC021 19/17 A2946 RMK AO2 PK WND 16034/1056 RAB29 SLP971 P0000 60026 70089 T01890167 10194 20178 55025
KSEZ,2022-11-05T11:55:00Z,KSEZ 051155Z AUTO 00000KT 10SM 05/M03 A3012 RMK AO2
KSFB,2022-11-05T11:53:00Z,KSFB 051153Z 05005KT 10SM CLR 21/21 A3000 RMK AO2 SLP157 60000 T02060206 10217 20206 53003
KSFF,2022-11-05T11:53:00Z,KSFF 051153Z AUTO 26015G24KT 10SM CLR 06/M04 A2938 RMK AO2 PK WND 24031/1125 PRESRR SLP952 70059 T00561044 10117 20056 53039
KSFM,2022-11-05T10:56:00Z,KSFM 051056Z AUTO VRB03KT 10SM BKN039 13/12 A3021 RMK AO2 SLP232 T01280122
KSFO,2022-11-05T11:08:00Z,KSFO 051108Z 00000KT 6SM BR FEW002 BKN004 OVC008 13/13 A3021 RMK AO2 T01280128
KSFQ,2022-11-05T11:55:00Z,KSFQ 051155Z AUTO 00000KT 2SM BR OVC028 14/14 A3024 RMK AO2 VIS 1V5 T01350135 10177 20130
KSFY,2022-11-05T11:33:00Z,KSFY 051133Z AUTO 15019G22KT 10SM OVC014 17/16 A2938 RMK AO2 P0001
KSFZ,2022-11-05T10:56:00Z,KSFZ 051056Z AUTO 20004KT 10SM CLR 15/14 A3027 RMK AO2 SLP250 T01500144
KSGF,2022-11-05T11:52:00Z,KSGF 051152Z 23021G30KT 10SM -RA BKN011 OVC017 06/04 A2969 RMK AO2 PK WND 22032/1109 RAB06 SLP051 P0000 60000 70136 T00560039 10133 20056 53014 $
KSGH,2022-11-05T10:56:00Z,KSGH 051056Z AUTO 17007KT 10SM CLR 16/10 A2992 RMK AO2 SLP129 T01560100
KSGJ,2022-11-05T10:56:00Z,KSGJ 051056Z 13013G17KT 10SM FEW030 23/23 A3003 RMK AO2 SLP168 T02330233
KSGR,2022-11-05T11:53:00Z,KSGR 051153Z 00000KT 10SM SCT060 15/13 A2993 RMK AO2 SLP137 60007 70037 T01500133 10161 20133 53013
KSGS,2022-11-05T11:55:00Z,KSGS 051155Z AUTO 36006KT 10SM SCT020 BKN120 01/00 A2957 RMK AO2 T00121002 10029 20010
KSGT,2022-11-05T10:56:00Z,KSGT 051056Z AUTO 20011KT 10SM CLR 14/13 A2980 RMK AO2 SLP089 P0001 T01440128
KSGU,2022-11-05T10:56:00Z,KSGU 051056Z AUTO 27003KT 10SM CLR 03/M05 A3013 RMK AO2 SLP201 T00331050
KSHD,2022-11-05T11:55:00Z,KSHD 051155Z AUTO 00000KT 7SM SCT026 BKN030 OVC050 16/16 A3020 RMK AO2 P0001 60005 70005 T01620162 10175 20158
KSHL,2022-11-05T11:35:00Z,KSHL 051135Z AUTO 32006KT 10SM CLR M06/M06 A2956 RMK AO2
KSHN,2022-11-05T11:53:00Z,KSHN 051153Z AUTO 25012G22KT 10SM CLR 06/03 A2975 RMK AO2 SLP076 70219 T00560028 10100 20050 51028
KSHR,2022-11-05T11:53:00Z,KSHR 051153Z AUTO VRB05KT 10SM CLR 06/M03 A2931 RMK AO2 SLP939 T00611028 10078 21006 57033
KSHV,2022-11-05T10:56:00Z,KSHV 051056Z 28005KT 10SM SCT080 BKN150 13/09 A2990 RMK SLPNO
KSIF,2022-11-05T11:35:00Z,KSIF 051135Z AUTO 00000KT 4SM RA OVC005 18/18 A3017 RMK AO2 T01820182
KSIK,2022-11-05T11:55:00Z,KSIK 051155Z AUTO 16015G28KT 10SM SCT014 17/16 A2966 RMK AO2 P0010
KSIY,2022-11-05T11:53:00Z,KSIY 051153Z AUTO 22008KT 10SM -RA OVC042 08/04 A3000 RMK AO2 SLP164 P0000 60000 T00780039 10100 20078 58012
KSJC,2022-11-05T11:53:00Z,KSJC 051153Z AUTO 16004KT 2 1/2SM BR FEW004 OVC022 13/12 A3020 RMK AO2 SLP227 T01280117 10133 20122 58020
KSJS,2022-11-05T11:35:00Z,KSJS 051135Z AUTO 17006KT 10SM CLR 17/12 A3002 RMK AO2 T01690124
KSJT,2022-11-05T11:51:00Z,KSJT 051151Z 25007KT 10SM CLR 07/M03 A2996 RMK AO2 SLP139 T00671028 10122 20067 55001
KSJX,2022-11-05T11:55:00Z,KSJX 051155Z AUTO 08008KT 10SM -DZ BKN004 OVC007 09/09 A2957 RMK AO2 T00880088 10088 20072
KSKA,2022-11-05T10:55:00Z,KSKA 051055Z 26026G39KT 10SM CLR 04/M04 A2932 RMK AO2A PK WND 26039/50 SLP141 T00391041 $
KSKF,2022-11-05T11:35:00Z,KSKF 051135Z AUTO 00000KT 10SM BKN070 13/01 A2992 RMK AO2 SLP127 $
KSKX,2022-11-05T10:56:00Z,KSKX 051056Z AUTO 10SM CLR M07/M08 A3003 RMK AO2 SLP189 T10671083 FZRANO
KSLB,2022-11-05T11:35:00Z,KSLB 051135Z AUTO 36011KT 10SM CLR M01/M03 A2954 RMK AO2
KSLC,2022-11-05T11:54:00Z,KSLC 051154Z 17007KT 10SM SCT044 BKN085 06/M03 A2992 RMK AO2 SLP125 T00611028 10061 20056 56026
KSLE,2022-11-05T10:56:00Z,KSLE 051056Z AUTO 28004KT 10SM FEW033 SCT055 11/07 A2989 RMK AO2 SLP121 T01060067 $
KSLG,2022-11-05T10:56:00Z,KSLG 051056Z AUTO 25011KT 10SM OVC011 06/05 A2980 RMK AO2 RAE50 CIG 005V012 SLP085 P0001 T00560050
KSLH,2022-11-05T11:35:00Z,KSLH 051135Z AUTO 00000KT 7SM RA OVC005 09/09 A2960 RMK AO2
KSLI,2022-11-05T10:55:00Z,KSLI 051055Z AUTO 00000KT 10SM CLR 08/04 A3008 RMK AO2 SLP189 T00750035 $
KSLK,2022-11-05T11:51:00Z,KSLK 051151Z AUTO 22007KT 10SM CLR 13/10 A3009 RMK AO2 SLP189 T01280100 10139 20117 58007
KSLN,2022-11-05T11:53:00Z,KSLN 051153Z 25005KT 10SM CLR 02/M01 A2970 RMK AO2 SLP064 60002 70043 T00171006 10050 20017 56006
KSLR,2022-11-05T11:35:00Z,KSLR 051135Z AUTO 29011KT 10SM CLR 08/05 A2993 RMK AO2 T00810051
KSMD,2022-11-05T11:35:00Z,KSMD 051135Z AUTO 17007KT 10SM CLR 17/10 A2981 RMK A01
KSME,2022-11-05T11:35:00Z,KSME 051135Z AUTO 19005G11KT 10SM CLR 19/15 A2996 RMK AO2
KSMF,2022-11-05T11:53:00Z,KSMF 051153Z 15009KT 10SM BKN007 OVC020 12/04 A3018 RMK AO2 SLP218 T01170044 10128 20100 58015
KSMN,2022-11-05T10:56:00Z,KSMN 051056Z AUTO 00000KT 10SM CLR 03/02 A2947 RMK AO2 RAE35 PRESFR SLP693 P0000 T00330017
KSMO,2022-11-05T11:51:00Z,KSMO 051151Z AUTO 02003KT 10SM CLR 10/03 A3010 RMK AO2 SLP191 T01000028 10128 20100 56019
KSMP,2022-11-05T11:47:00Z,KSMP 051147Z AUTO 26008G28KT 190V340 5SM BR BKN004 BKN010 OVC028 M01/M02 A2960 RMK AO2 PK WND 27028/1138 UPB08E14B26E29SNE08B14E26 P0000 T10111022 $
KSMQ,2022-11-05T11:53:00Z,KSMQ 051153Z AUTO 5SM BR OVC075 13/12 A3023 RMK AO2 SLP239 T01330122 10133 20100 50003
KSMS,2022-11-05T11:55:00Z,KSMS 051155Z AUTO 00000KT 3/4SM BR BKN003 OVC026 18/18 A3014 RMK AO2
KSMX,2022-11-05T11:51:00Z,KSMX 051151Z AUTO 34003KT 10SM CLR 08/03 A3015 RMK AO2 SLP212 T00780028 10100 20072 58019 $
KSNA,2022-11-05T11:53:00Z,KSNA 051153Z AUTO 00000KT 10SM CLR 11/04 A3010 RMK AO2 SLP191 T01110039 10156 20111 55015
KSNC,2022-11-05T11:55:00Z,KSNC 051155Z AUTO 19004KT 9SM OVC060 17/17 A3028 RMK AO2
KSNH,2022-11-05T11:30:00Z,KSNH 051130Z AUTO 23007KT 9SM FEW006 BKN043 OVC050 19/14 A2992 RMK A01
KSNK,2022-11-05T11:55:00Z,KSNK 051155Z AUTO 21004KT 10SM CLR 03/M01 A2993 RMK AO2 T00331011
KSNL,2022-11-05T11:35:00Z,KSNL 051135Z AUTO 27003KT 10SM CLR 04/02 A2985 RMK AO2 T00360021
KSNS,2022-11-05T11:53:00Z,KSNS 051153Z AUTO 12005KT 1/4SM R31/1400V2000FT FG VV002 09/09 A3021 RMK AO2 SLP240 T00890089 10122 20089 56019
KSNT,2022-11-05T11:51:00Z,KSNT 051151Z AUTO VRB05KT 02/00 A2965 RMK AO1 SLP009 P0004 60027 70061 T00170000 10022 20011 56027
KSNY,2022-11-05T11:53:00Z,KSNY 051153Z AUTO 23009KT 10SM CLR M04/M08 A2957 RMK AO2 SLP037 T10441078 11011 21067 56027
KSOA,2022-11-05T11:35:00Z,KSOA 051135Z AUTO 00000KT 10SM CLR 02/M00 A3002 RMK AO2
KSOP,2022-11-05T10:56:00Z,KSOP 051056Z AUTO 00000KT 1/4SM FG OVC002 17/17 A3019 RMK AO2 SLP224 T01670167 TSNO
KSOW,2022-11-05T11:55:00Z,KSOW 051155Z AUTO 00000KT 10SM CLR M03/M06 A3012 RMK AO2
KSPA,2022-11-05T11:55:00Z,KSPA 051155Z AUTO 00000KT 1/2SM FG OVC002 17/16 A3014 RMK AO2
KSPB,2022-11-05T11:53:00Z,KSPB 051153Z AUTO 23007KT 200V270 10SM BKN029 OVC038 09/05 A2988 RMK AO2 SLP118 60007 70291 T00940050 10144 20094 51038
KSPD,2022-11-05T10:56:00Z,KSPD 051056Z AUTO 23004KT M04/M07 A2973 RMK AO1 SLP069 T10391072
KSPF,2022-11-05T11:55:00Z,KSPF 051155Z AUTO 00000KT 10SM OVC070 07/M07 A2938 RMK AO2
KSPG,2022-11-05T11:53:00Z,KSPG 051153Z 01004KT 10SM CLR 22/22 A2997 RMK AO2 SLP149 T02220222 10233 20222 53006
KSPI,2022-11-05T11:52:00Z,KSPI 051152Z 16027G48KT 10SM OVC015 18/16 A2945 RMK AO2 PK WND 15048/1143 SLP970 60048 70063 T01780161 10183 20172 58026 $
KSPK,2022-11-05T11:35:00Z,KSPK 051135Z AUTO 12003KT 10SM CLR 03/M03 A2997 RMK AO2
KSPS,2022-11-05T11:52:00Z,KSPS 051152Z AUTO 23009KT 10SM CLR 03/02 A2991 RMK AO2 SLP128 60000 70003 T00330017 10067 20033 53000
KSPW,2022-11-05T11:53:00Z,KSPW 051153Z AUTO 34006KT 10SM CLR M04/M07 A2955 RMK AO2 SLP019 T10391072 11006 21044 56031 $
KSQI,2022-11-05T11:16:00Z,KSQI 051116Z AUTO 14008G14KT 10SM OVC013 17/16 A2944 RMK AO2
KSQL,2022-11-05T11:55:00Z,KSQL 051155Z AUTO 00000KT 6SM BR OVC008 12/12 A3022 RMK AO2
KSRB,2022-11-05T11:35:00Z,KSRB 051135Z AUTO 16012G19KT 10SM CLR 19/15 A2996 RMK A01
KSRE,2022-11-05T11:35:00Z,KSRE 051135Z AUTO 00000KT 10SM CLR 04/02 A2986 RMK AO2
KSRQ,2022-11-05T11:53:00Z,KSRQ 051153Z 04004KT 10SM CLR 20/19 A2997 RMK AO2 SLP147 T02000189 10206 20200 53007 $
KSRR,2022-11-05T11:55:00Z,KSRR 051155Z AUTO 29012G28KT 10SM 02/M09 A2998 RMK AO2
KSSC,2022-11-05T11:45:00Z,KSSC 051145Z AUTO 03003KT 7/8SM R04/4500VP6000FT BR OVC002 18/17 A3012 RMK AO2 VIS 7/8V1 5/8 SLP200 $
KSSF,2022-11-05T11:53:00Z,KSSF 051153Z 00000KT 10SM SCT075 16/03 A2992 RMK AO2 SLP122 7//// T01560033 10217 20139 53005 $
KSSI,2022-11-05T11:53:00Z,KSSI 051153Z AUTO 11006KT 10SM SCT065 23/21 A3005 RMK AO2 SLP176 60004 70004 T02330206 10239 20222 53005
KSTC,2022-11-05T11:53:00Z,KSTC 051153Z 00000KT 10SM CLR M04/M06 A2961 RMK AO2 SLP047 T10391056 11006 21050 58028
KSTE,2022-11-05T11:35:00Z,KSTE 051135Z AUTO 05010KT 5SM -DZ OVC006 06/04 A2954 RMK AO2 T00560040
KSTF,2022-11-05T11:55:00Z,KSTF 051155Z AUTO 00000KT 7SM -RA SCT025 BKN039 OVC065 18/17 A2994 RMK AO2 LTG DSNT SW-NW
KSTJ,2022-11-05T11:53:00Z,KSTJ 051153Z AUTO 30014G23KT 6SM -RA BR BKN011 BKN018 OVC026 03/03 A2953 RMK AO2 SLP005 P0007 60062 70230 T00280028 10033 20028 51012
KSTK,2022-11-05T11:35:00Z,KSTK 051135Z AUTO 18009KT 10SM CLR M05/M10 A2962 RMK AO2
KSTL,2022-11-05T11:51:00Z,KSTL 051151Z 17015G31KT 10SM -RA BKN013 BKN021 OVC090 19/16 A2947 RMK AO2 PK WND 17034/1057 RAB32 SLP971 P0000 60036 70108 T01940161 10194 20178 55028 $
KSTP,2022-11-05T11:53:00Z,KSTP 051153Z 34005KT 10SM CLR 01/M01 A2958 RMK AO2 SLP022 T00061011 10028 21006 56035
KSTS,2022-11-05T11:53:00Z,KSTS 051153Z AUTO 13004KT 9SM SCT027 11/10 A3018 RMK AO2 SLP214 60000 T01110100 10117 20106 56014
KSUA,2022-11-05T11:47:00Z,KSUA 051147Z 11010KT 7SM SCT020 26/19 A2997
KSUE,2022-11-05T11:50:00Z,KSUE 051150Z AUTO 04008KT 3/4SM BR OVC003 06/06 A2956 RMK AO2 RAB20E50 P0001 RVRNO
KSUN,2022-11-05T11:35:00Z,KSUN 051135Z AUTO 16010KT 10SM -RA BKN020 BKN025 OVC035 02/02 A2976 RMK AO2
KSUS,2022-11-05T11:54:00Z,KSUS 051154Z 18013G22KT 10SM SCT018 BKN023 BKN030 19/17 A2946 RMK AO2 PK WND 17031/1113 RAB14E27 SLP969 P0001 60024 70113 T01890172 10194 20172 55024
KSUT,2022-11-05T11:35:00Z,KSUT 051135Z AUTO 00000KT 10SM SCT036 SCT043 20/17 A3016 RMK AO2 T01960174
KSUU,2022-11-05T10:55:00Z,KSUU 051055Z AUTO 21005KT 10SM OVC006 13/12 A3019 RMK AO2 SLP230 T01280123 $
KSUW,2022-11-05T11:55:00Z,KSUW 051155Z AUTO 10009KT 10SM OVC023 04/00 A2967 RMK AO2 T00441001 10044 20020
KSUX,2022-11-05T11:52:00Z,KSUX 051152Z 31007KT 10SM CLR M05/M06 A2960 RMK AO2 SLP033 T10501061 11011 21050 56022
KSUZ,2022-11-05T11:55:00Z,KSUZ 051155Z AUTO VRB05KT 10SM SCT020 12/10 A2982 RMK A01
KSVC,2022-11-05T11:35:00Z,KSVC 051135Z AUTO 32010KT 10SM CLR 02/M02 A3009 RMK AO2 T00161021
KSVE,2022-11-05T11:55:00Z,KSVE 051155Z AUTO 30017G23KT 10SM CLR 07/01 A3005 RMK AO2
KSVH,2022-11-05T11:35:00Z,KSVH 051135Z AUTO 14003KT 1 3/4SM BR OVC002 19/18 A3015 RMK AO2 T01850178
KSVN,2022-11-05T10:55:00Z,KSVN 051055Z AUTO 10006KT 10SM FEW070 22/21 A3005 RMK AO2 SLP179 T02180208 $
KSWF,2022-11-05T11:45:00Z,KSWF 051145Z 00000KT 10SM FEW010 BKN070 15/15 A3023
KSWO,2022-11-05T11:53:00Z,KSWO 051153Z AUTO 24006KT 10SM CLR 04/03 A2982 RMK AO2 SLP099 70009 T00390028 10061 20039 50000
KSWW,2022-11-05T11:55:00Z,KSWW 051155Z AUTO 22010KT 10SM CLR 06/00 A2995 RMK AO2 70003 T00570000 10077 20046
KSXK,2022-11-05T11:35:00Z,KSXK 051135Z AUTO 02006KT 10SM CLR M05/M06 A2958 RMK AO2
KSXS,2022-11-05T11:46:00Z,KSXS 051146Z AUTO 00000KT 10SM CLR 15/14 A3003 RMK AO2 SLP170
KSXT,2022-11-05T11:41:00Z,KSXT 051141Z AUTO 22011G20KT 1/2SM -RA FG VV002 07/07 A2994 RMK AO2 P0010 T00720072
KSXU,2022-11-05T11:55:00Z,KSXU 051155Z AUTO 26016G24KT 10SM CLR 05/M09 A2985 RMK AO2 T00451091 10050 20037
KSYF,2022-11-05T11:55:00Z,KSYF 051155Z AUTO 24009KT 10SM CLR M04/M07 A2964 RMK AO2 T10451072 11039 21053 PWINO
KSYI,2022-11-05T11:35:00Z,KSYI 051135Z AUTO 16012G20KT 10SM CLR 19/13 A2992 RMK A01
KSYM,2022-11-05T11:55:00Z,KSYM 051155Z AUTO 16006KT 10SM CLR 16/11 A2998 RMK AO2
KSYR,2022-11-05T11:54:00Z,KSYR 051154Z 18014G21KT 10SM FEW120 FEW180 BKN250 19/13 A3007 RMK AO2 SLP177 T01940128 10194 20172 56009
KSZL,2022-11-05T11:35:00Z,KSZL 051135Z 22015G20KT 8SM -DZ FEW002 OVC010 05/04 A2949 RMK AO2A DZB34 OVC V BKN SLP991 $
KSZT,2022-11-05T11:55:00Z,KSZT 051155Z AUTO 27010G22KT 10SM SCT060 SCT070 07/M01 A2926 RMK AO2
KSZY,2022-11-05T11:35:00Z,KSZY 051135Z AUTO 21006KT 1 3/4SM BR BKN003 BKN027 OVC050 16/14 A2993 RMK A01
KT20,2022-11-05T11:35:00Z,KT20 051135Z AUTO 28003KT 10SM SCT075 14/13 A2991 RMK AO2 T01400130
KT35,2022-11-05T11:35:00Z,KT35 051135Z AUTO 35003KT 10SM CLR 10/08 A2993 RMK AO2 T01010078
KT41,2022-11-05T11:35:00Z,KT41 051135Z AUTO 10SM SCT060 15/13 A2992 RMK AO2 LTG DSNT SE T01530132
KT69,2022-11-05T11:55:00Z,KT69 051155Z AUTO 00000KT 10SM OVC050 18/15 A2993 RMK A01
KT70,2022-11-05T10:55:00Z,KT70 051055Z AUTO 07004KT 10SM SCT080 09/03 A2996 RMK AO2 SLP138 T00860032 $
KT74,2022-11-05T11:35:00Z,KT74 051135Z AUTO 35003KT 10SM CLR 10/09 A2994 RMK AO2 T01020086
KT78,2022-11-05T11:55:00Z,KT78 051155Z AUTO 33004KT 10SM FEW060 SCT070 14/14 A2991 RMK AO2
KT82,2022-11-05T11:55:00Z,KT82 051155Z AUTO 00000KT 10SM SCT080 06/M02 A2996 RMK AO2 7//// T00641016 10101 20063
KT89,2022-11-05T11:35:00Z,KT89 051135Z AUTO 33005KT 10SM FEW038 BKN043 BKN049 07/M10 A3001 RMK A01
KTAD,2022-11-05T11:54:00Z,KTAD 051154Z AUTO 25011KT 10SM CLR M01/M06 A2976 RMK AO2 SLP079 70006 T10061061 11006 21044 55011 $
KTAN,2022-11-05T11:52:00Z,KTAN 051152Z AUTO A3027 RMK AO2 SLPNO 55000 PWINO FZRANO TSNO $
KTAZ,2022-11-05T11:30:00Z,KTAZ 051130Z AUTO 16024G38KT 10SM OVC013 17/15 A2951 RMK AO2 T01700150 PWINO
KTBN,2022-11-05T10:55:00Z,KTBN 051055Z AUTO 23011G24KT 10SM OVC015 08/05 A2960 RMK AO2 PK WND 22032/30 OVC V BKN SLP022 T00800051
KTBR,2022-11-05T11:35:00Z,KTBR 051135Z AUTO 00000KT 1/4SM FG OVC002 17/16 A3009 RMK AO2 T01710163
KTBX,2022-11-05T11:35:00Z,KTBX 051135Z AUTO CLR 01/M06 A2959 RMK AO2 PWINO
KTCC,2022-11-05T11:53:00Z,KTCC 051153Z AUTO 24005KT 10SM CLR 01/M06 A2979 RMK AO2 SLP089 T00061056 10011 21028 58017
KTCL,2022-11-05T11:53:00Z,KTCL 051153Z AUTO 14008KT 10SM FEW120 19/14 A2994 RMK AO2 SLP136 T01890139 10189 20172 56017
KTCM,2022-11-05T10:55:00Z,KTCM 051055Z AUTO 25016G22KT 10SM CLR 07/02 A2973 RMK AO2 PK WND 27026/01 SLP072 T00710022
KTCS,2022-11-05T11:53:00Z,KTCS 051153Z AUTO 34008KT 10SM CLR 05/M08 A3006 RMK AO2 SLP149 T00501083 10061 20039 58009
KTCY,2022-11-05T11:35:00Z,KTCY 051135Z AUTO 13004KT 10SM OVC034 08/05 A3020 RMK A01
KTDF,2022-11-05T11:35:00Z,KTDF 051135Z AUTO 00000KT 7SM BKN003 BKN023 OVC037 17/17 A3021 RMK AO2
KTDR,2022-11-05T11:23:00Z,KTDR 051123Z AUTO 08005KT 10SM FEW012 SCT018 18/17 A2997 RMK AO2 SLP152 $
KTDZ,2022-11-05T11:53:00Z,KTDZ 051153Z AUTO 18013KT 10SM CLR 17/09 A2985 RMK AO2 SLP104 T01670094 10172 20161 58007
KTEB,2022-11-05T11:51:00Z,KTEB 051151Z 20003KT 10SM OVC070 16/15 A3024 RMK AO2 SLP241 T01610150 10161 20128 50001
KTEW,2022-11-05T11:55:00Z,KTEW 051155Z AUTO 16010G19KT 10SM OVC070 18/09 A2975 RMK AO2 T01790089 10200 20172
KTEX,2022-11-05T11:35:00Z,KTEX 051135Z AUTO 12005KT 10SM SCT033 OVC050 M06/M10 A3008 RMK AO2
KTFP,2022-11-05T11:15:00Z,KTFP 051115Z AUTO 06005KT 10SM BKN050 19/15 A2991 RMK AO2 T01870148
KTGI,2022-11-05T11:55:00Z,KTGI 051155Z AUTO 14005KT 10SM CLR 18/17 A3023 RMK AO1 T01770165 10328 20093
KTHA,2022-11-05T11:35:00Z,KTHA 051135Z AUTO 15011G19KT 10SM CLR 18/12 A2994 RMK A01
KTHM,2022-11-05T10:55:00Z,KTHM 051055Z AUTO 23007KT 10SM 08/05 A2930 RMK Thompson Falls 
KTHV,2022-11-05T11:53:00Z,KTHV 051153Z AUTO 17004KT 10SM SCT031 BKN060 19/16 A3019 RMK AO2 SLP225 T01890161 10194 20111 56005
KTIF,2022-11-05T11:30:00Z,KTIF 051130Z AUTO 24005KT 10SM CLR M06/M08 A2956 RMK AO2 T10561080
KTIK,2022-11-05T10:55:00Z,KTIK 051055Z AUTO 29006KT 10SM CLR 04/02 A2981 RMK AO2 SLP107 T00360018
KTIP,2022-11-05T11:35:00Z,KTIP 051135Z AUTO 16022G34KT 10SM RA BKN015 BKN065 BKN080 15/14 A2962 RMK AO2 T01500135
KTIW,2022-11-05T11:53:00Z,KTIW 051153Z AUTO 24009G21KT 10SM CLR 07/02 A2975 RMK AO2 SLP074 70077 T00720022 10122 20072 51032 $
KTIX,2022-11-05T11:52:00Z,KTIX 051152Z 10005KT 6SM BR SCT030 26/22 A3000
KTKC,2022-11-05T11:55:00Z,KTKC 051155Z AUTO 30005KT 10SM CLR M06/M07 A2960 RMK AO2
KTKI,2022-11-05T11:53:00Z,KTKI 051153Z 27008KT 10SM CLR 07/03 A2993 RMK AO2 SLP144 70129 T00670033 10089 20061 53012
KTKV,2022-11-05T11:35:00Z,KTKV 051135Z AUTO 00000KT 2 1/2SM OVC004 04/03 A2959 RMK AO2 T00350025 PWINO
KTKX,2022-11-05T11:55:00Z,KTKX 051155Z AUTO 21016G25KT 7SM OVC010 18/18 A2972 RMK AO2 TSNO
KTLH,2022-11-05T11:53:00Z,KTLH 051153Z AUTO 00000KT 10SM FEW050 16/14 A3003 RMK AO2 SLP167 T01560144 10172 20150 53006
KTMB,2022-11-05T11:53:00Z,KTMB 051153Z 00000KT 10SM CLR 23/21 A2993 RMK AO2 SLP133 70001 T02280206 10233 20200 53002
KTME,2022-11-05T11:55:00Z,KTME 051155Z AUTO 05003KT 10SM OVC050 15/15 A2994 RMK AO2
KTMK,2022-11-05T11:35:00Z,KTMK 051135Z AUTO 24005KT 10SM SCT038 BKN050 OVC070 10/05 A2994 RMK AO2
KTMT,2022-11-05T11:35:00Z,KTMT 051135Z AUTO 23015KT 10SM OVC100 08/M03 A3008 RMK AO2 T00831030
KTNB,2022-11-05T11:30:00Z,KTNB 051130Z AUTO 15013G20KT 100V190 7SM -RA BKN006 OVC012 15/15 A3019 RMK AO2 T01500150
KTNU,2022-11-05T11:55:00Z,KTNU 051155Z AUTO 01015KT 3SM BR BKN005 OVC022 05/05 A2937 RMK A01 P0006
KTOB,2022-11-05T11:55:00Z,KTOB 051155Z AUTO 02008KT 5SM -DZ OVC002 02/02 A2952 RMK AO2 P0001
KTOC,2022-11-05T11:30:00Z,KTOC 051130Z AUTO 00000KT 1 1/4SM -RA BR OVC002 17/17 A3013 RMK AO2 T01670165
KTOI,2022-11-05T11:53:00Z,KTOI 051153Z AUTO 14005KT 10SM CLR 18/15 A3004 RMK AO2 SLP168 T01830150 10189 20167 53007
KTOL,2022-11-05T11:52:00Z,KTOL 051152Z 19007KT 10SM CLR 16/09 A2984 RMK AO2 SLP102 T01610089 10178 20161 55003 $
KTOP,2022-11-05T11:53:00Z,KTOP 051153Z 28013G20KT 10SM -RA BKN011 BKN017 OVC025 04/02 A2963 RMK AO2 PK WND 29028/1138 SLP036 P0004 60046 70214 T00390017 10050 20039 53011
KTOR,2022-11-05T11:53:00Z,KTOR 051153Z AUTO 26013G25KT 10SM CLR 07/M03 A2951 RMK AO2 PK WND 29034/1133 WSHFT 1124 SLP992 T00671033 10067 20022 56030
KTPA,2022-11-05T11:53:00Z,KTPA 051153Z VRB03KT 1 1/2SM OVC003 21/20 A3000 RMK AO2 SFC VIS 7 SLP158 T02110200 10217 20206 53008 $
KTPH,2022-11-05T10:56:00Z,KTPH 051056Z AUTO 34004KT 10SM CLR M02/M07 A3012 RMK AO2 SLP192 T10221067 $
KTPL,2022-11-05T11:51:00Z,KTPL 051151Z AUTO 00000KT 10SM BKN095 08/07 A2994 RMK AO2 SLP134 6//// 7//// T00830072 10111 20083 55001
KTQE,2022-11-05T11:54:00Z,KTQE 051154Z AUTO 34005KT 10SM FEW110 M02/M04 A2958 RMK AO2 SLP021 T10171044 10011 21022 56021
KTQH,2022-11-05T11:55:00Z,KTQH 051155Z AUTO 25003KT 10SM SCT023 BKN040 06/02 A2982 RMK AO2
KTQK,2022-11-05T11:35:00Z,KTQK 051135Z AUTO 24008KT 10SM CLR M02/M05 A2972 RMK AO2 T10161055
KTQV,2022-11-05T11:35:00Z,KTQV 051135Z AUTO 13007KT 9SM SCT023 BKN029 OVC038 18/17 A3018 RMK A01
KTRI,2022-11-05T11:53:00Z,KTRI 051153Z 17004KT 10SM SCT055 BKN250 20/14 A3007 RMK AO2 SLP162 T02000139 10206 20128 50001
KTRK,2022-11-05T11:38:00Z,KTRK 051138Z AUTO 25004KT 5SM BR CLR M02/M03 A3016 RMK AO2
KTRL,2022-11-05T11:53:00Z,KTRL 051153Z AUTO 30007KT 10SM CLR 07/04 A2992 RMK AO2 SLP131 70079 T00720044 10100 20072 53006
KTRM,2022-11-05T11:52:00Z,KTRM 051152Z AUTO 35005KT 10SM CLR 08/01 A3006 RMK AO2 SLP179 T00830006 10128 20067 56023
KTSP,2022-11-05T11:55:00Z,KTSP 051155Z AUTO 32010KT 10SM CLR 03/M02 A3019 RMK AO2
KTTA,2022-11-05T11:35:00Z,KTTA 051135Z AUTO 00000KT M1/4SM FG OVC027 15/15 A3018 RMK AO2 T01460146
KTTD,2022-11-05T11:53:00Z,KTTD 051153Z AUTO 00000KT 10SM FEW014 SCT060 OVC075 09/06 A2990 RMK AO2 RAB08E36 SLP124 P0002 60008 70179 T00890056 10156 20089 51046
KTTF,2022-11-05T11:35:00Z,KTTF 051135Z AUTO 18013G22KT 10SM CLR 16/09 A2983 RMK AO2 T01620086
KTTN,2022-11-05T11:53:00Z,KTTN 051153Z 18003KT 3SM BR BKN003 OVC025 14/14 A3025 RMK AO2 SLP236 T01390139 10144 20128 50003
KTTS,2022-11-05T10:55:00Z,KTTS 051055Z AUTO 11006KT 10SM FEW030 24/18 A2997 RMK AO2 SLP153 T02370177 $
KTUL,2022-11-05T11:53:00Z,KTUL 051153Z 26008KT 10SM BKN020 06/03 A2984 RMK AO2 SLP104 70101 T00610028 10067 20056 53014
KTUP,2022-11-05T11:53:00Z,KTUP 051153Z 19016G22KT 5SM RA BKN055 OVC075 18/15 A2995 RMK AO2 SLP140 P0008 60013 70013 T01780150 10217 20178 53031 $
KTUS,2022-11-05T11:53:00Z,KTUS 051153Z 16006KT 10SM CLR 04/M01 A3011 RMK AO2 SLP182 T00441011 10078 20022 57014
KTVC,2022-11-05T11:53:00Z,KTVC 051153Z 18006KT 10SM -RA BKN018 OVC024 16/14 A2955 RMK AO2 RAE30B50 SLP006 P0000 60073 70179 T01610144 10161 20111 56031
KTVF,2022-11-05T10:56:00Z,KTVF 051056Z AUTO 14006KT 10SM CLR M07/M08 A2966 RMK AO2 SLP061 T10721083 FZRANO
KTVI,2022-11-05T11:35:00Z,KTVI 051135Z AUTO 00000KT 1 1/4SM BR OVC003 17/16 A3006 RMK AO2
KTVK,2022-11-05T11:35:00Z,KTVK 051135Z AUTO 28009G17KT 2 1/2SM -RA BR SCT003 SCT007 BKN013 05/05 A2940 RMK AO2
KTVL,2022-11-05T11:53:00Z,KTVL 051153Z AUTO 20013G18KT 10SM CLR 06/M05 A3015 RMK AO2 SLP187 T00611050 10067 21017 58017
KTVR,2022-11-05T11:53:00Z,KTVR 051153Z AUTO 16004KT 4SM +RA BR FEW050 BKN090 OVC110 13/12 A2993 RMK AO2 SLP141 P0011 60165 70165 T01280122 10228 20122 53010
KTVY,2022-11-05T11:55:00Z,KTVY 051155Z AUTO 18016G24KT 10SM OVC090 05/M02 A2991 RMK AO2
KTWF,2022-11-05T11:53:00Z,KTWF 051153Z 23022G36KT 10SM -RA OVC065 09/01 A2978 RMK AO2 PK WND 25038/1101 RAB49 SLP065 P0000 60000 70015 T00940011 10100 20067 56025 $
KTWM,2022-11-05T11:55:00Z,KTWM 051155Z AUTO 07007KT 10SM OVC021 03/M01 A2966 RMK AO2
KTWT,2022-11-05T11:55:00Z,KTWT 051155Z AUTO 18016G25KT 7SM -RA SCT065 SCT090 OVC110 16/13 A2981 RMK AO2
KTXK,2022-11-05T11:53:00Z,KTXK 051153Z 27004KT 10SM BKN022 09/06 A2990 RMK AO2 SLP123 70131 T00940061 10144 20089 53005
KTXW,2022-11-05T11:30:00Z,KTXW 051130Z AUTO 35014G20KT 10SM OVC020 22/18 A2988 RMK AO2 T02200177
KTYL,2022-11-05T11:35:00Z,KTYL 051135Z AUTO 00000KT 10SM CLR M03/M04 A3012 RMK AO2
KTYQ,2022-11-05T11:35:00Z,KTYQ 051135Z AUTO 18015G21KT 10SM DZ SCT060 SCT075 OVC110 16/11 A2979 RMK AO2 T01570111
KTYR,2022-11-05T11:53:00Z,KTYR 051153Z 27004KT 10SM CLR 08/06 A2992 RMK AO2 SLP127 70091 T00830061 10128 20083 53009 $
KTYS,2022-11-05T11:53:00Z,KTYS 051153Z 00000KT 10SM FEW043 BKN050 OVC070 15/12 A3004 RMK AO2 RAB14E28 SLP166 P0000 60000 T01500122 10178 20122 50006
KTZR,2022-11-05T11:45:00Z,KTZR 051145Z 16007KT 10SM CLR 14/11 A2995
KU42,2022-11-05T11:55:00Z,KU42 051155Z AUTO 19014G18KT 10SM OVC085 04/M02 A2994 RMK AO1 T00431025 10043 20030
KU55,2022-11-05T11:35:00Z,KU55 051135Z AUTO 00000KT 10SM M07/M08 A3011 RMK A01
KU68,2022-11-05T11:55:00Z,KU68 051155Z AUTO 09011KT 10SM CLR 01/M07 A2942 RMK AO2
KUAO,2022-11-05T11:53:00Z,KUAO 051153Z AUTO 15003KT 10SM CLR 09/06 A2992 RMK AO2 SLP131 60003 70183 T00940061 10144 20094 51045 $
KUBE,2022-11-05T11:15:00Z,KUBE 051115Z AUTO 05009KT 10SM OVC019 03/03 A2959 RMK AO2
KUCP,2022-11-05T10:56:00Z,KUCP 051056Z AUTO 15006KT 10SM CLR 16/11 A3003 RMK AO2 SLP181 T01560106
KUCY,2022-11-05T11:35:00Z,KUCY 051135Z AUTO 17018G27KT 10SM FEW024 SCT050 OVC065 17/16 A2979 RMK A01
KUDG,2022-11-05T11:51:00Z,KUDG 051151Z AUTO 05003KT 1SM BR BKN002 OVC047 18/18 A3016 RMK AO2
KUES,2022-11-05T11:45:00Z,KUES 051145Z 12005KT 7SM BR OVC013 12/12 A2950
KUGN,2022-11-05T10:55:00Z,KUGN 051055Z 20015G21KT 10SM OVC019 17/14 A2953 RMK AO2 RAE03 SLP994 P0000 T01720144
KUIL,2022-11-05T11:53:00Z,KUIL 051153Z AUTO 26006KT 10SM BKN038 BKN048 OVC075 07/03 A2979 RMK AO2 SLP089 60000 70197 T00720028 10083 20067 51012
KUIN,2022-11-05T11:54:00Z,KUIN 051154Z AUTO 23018G29KT 10SM BKN010 OVC018 12/11 A2941 RMK AO2 PK WND 23036/1133 WSHFT 1124 RAE02B33E50 SLP956 P0009 60012 70040 T01220111 10183 20122 53003
KUKF,2022-11-05T11:35:00Z,KUKF 051135Z AUTO 00000KT 10SM OVC007 17/17 A3021 RMK AO2
KUKI,2022-11-05T11:16:00Z,KUKI 051116Z AUTO 00000KT 10SM BKN028 BKN034 OVC055 12/11 A3017 RMK AO2 T01220111
KUKL,2022-11-05T11:30:00Z,KUKL 051130Z AUTO 28015G23KT 7SM -RA BKN011 BKN026 OVC043 01/00 A2968 RMK AO2 P0004 T00080000
KUKT,2022-11-05T11:55:00Z,KUKT 051155Z AUTO 00000KT 7SM BKN006 BKN031 OVC070 16/16 A3024 RMK A01
KULM,2022-11-05T11:35:00Z,KULM 051135Z AUTO 01004KT 10SM CLR M02/M04 A2959 RMK AO2
KULS,2022-11-05T11:30:00Z,KULS 051130Z AUTO 20003KT 10SM CLR M04/M06 A2973 RMK AO2
KUMP,2022-11-05T11:35:00Z,KUMP 051135Z AUTO 18013G20KT 10SM OVC075 19/12 A2981 RMK AO2 T01850118
KUNI,2022-11-05T11:35:00Z,KUNI 051135Z AUTO 14005KT 10SM CLR 17/12 A2999 RMK AO2 T01650116
KUNO,2022-11-05T11:53:00Z,KUNO 051153Z AUTO 24014G23KT 10SM BKN017 08/04 A2972 RMK AO2 PK WND 26028/1057 SLP057 60000 70171 T00830044 10183 20083 53033
KUNU,2022-11-05T11:55:00Z,KUNU 051155Z AUTO 00000KT 7SM RA OVC005 11/11 A2946 RMK AO2 T01080108 10110 20087
KUNV,2022-11-05T11:53:00Z,KUNV 051153Z 28006KT 10SM BKN014 17/15 A3014
KUOX,2022-11-05T11:55:00Z,KUOX 051155Z AUTO 16007KT 110V190 3SM RA SCT002 OVC006 16/16 A2990 RMK AO2 LTG DSNT SE AND S
KUSE,2022-11-05T11:35:00Z,KUSE 051135Z AUTO 17008KT 10SM CLR 14/10 A2982 RMK AO2
KUTA,2022-11-05T11:55:00Z,KUTA 051155Z AUTO 20008KT 10SM FEW022 SCT035 SCT075 BKN100 15/15 A2982 RMK AO2 T01520152 $
KUTS,2022-11-05T11:53:00Z,KUTS 051153Z AUTO 00000KT 10SM FEW065 12/10 A2994 RMK AO2 SLP134 60000 70028 T01170100 10144 20117 53012
KUUU,2022-11-05T11:53:00Z,KUUU 051153Z AUTO 21009G15KT 170V240 10SM SCT035 SCT045 OVC070 17/16 A3029 RMK AO2 SLP255 T01720156 10172 20161 53005
KUVA,2022-11-05T11:55:00Z,KUVA 051155Z AUTO 00000KT 10SM CLR 12/02 A2998 RMK AO2 T01240015 10176 20106
KUXL,2022-11-05T11:55:00Z,KUXL 051155Z AUTO 07007KT 10SM -RA SCT060 SCT080 SCT120 13/12 A2993 RMK AO2 P0007 60091 70092 T01300116
KUYF,2022-11-05T11:35:00Z,KUYF 051135Z AUTO 16007KT 10SM CLR 13/08 A2993 RMK AO2
KUZA,2022-11-05T11:54:00Z,KUZA 051154Z AUTO 00000KT 3SM BR OVC002 18/18 A3016 RMK AO2 SLP204 60002 70002 T01830183 10183 20144 55002
KVAD,2022-11-05T11:48:00Z,KVAD 051148Z AUTO 07003KT 5/8SM R36/5000VP6000FT BR VV001 18/17 A3004 RMK AO2 CIG 000 RWY18 SLP174 $
KVAF,2022-11-05T11:35:00Z,KVAF 051135Z AUTO 22016KT 10SM CLR 27/23 A2987 RMK A01
KVAY,2022-11-05T11:54:00Z,KVAY 051154Z AUTO 00000KT 10SM FEW060 12/11 A3025 RMK AO2 SLP244 T01170111 10139 20111 50003 $
KVBG,2022-11-05T10:55:00Z,KVBG 051055Z AUTO 01007KT 10SM CLR 08/07 A3017 RMK AO2 SLP220 T00820068 TSNO $
KVBT,2022-11-05T11:48:00Z,KVBT 051148Z AUTO 24012KT 10SM OVC011 06/04 A2979 RMK AO2 RAE01 CIG 008V013 P0000
KVCB,2022-11-05T11:53:00Z,KVCB 051153Z AUTO 21003KT 10SM SCT018 13/11 A3018 RMK AO2 SLP220 T01280111 10133 20072 58013
KVCT,2022-11-05T11:51:00Z,KVCT 051151Z 31004KT 10SM SCT060 OVC070 17/16 A2991 RMK AO2 SLP126 60002 70006 T01670156 10172 20156 55001
KVCV,2022-11-05T11:35:00Z,KVCV 051135Z AUTO 14008KT 10SM CLR 06/M02 A3015 RMK AO2
KVDF,2022-11-05T11:55:00Z,KVDF 051155Z AUTO 1 3/4SM BR OVC002 A3001 RMK AO2
KVDI,2022-11-05T11:35:00Z,KVDI 051135Z AUTO 00000KT 3/4SM BR OVC001 18/17 A3008 RMK AO2
KVEL,2022-11-05T11:53:00Z,KVEL 051153Z AUTO 29003KT 10SM OVC043 01/M04 A2992 RMK AO2 SLP140 T00061039 10011 21017 56019
KVER,2022-11-05T11:55:00Z,KVER 051155Z AUTO 21014G29KT 10SM BKN015 OVC022 07/05 A2955 RMK AO2 70047 T00740054 10305 21045
KVES,2022-11-05T11:35:00Z,KVES 051135Z AUTO 19010G19KT 10SM CLR 16/08 A2987 RMK AO2
KVGC,2022-11-05T11:55:00Z,KVGC 051155Z AUTO 15009KT 7SM BKN022 15/12 A3014 RMK AO2
KVGT,2022-11-05T11:53:00Z,KVGT 051153Z AUTO 31004KT 10SM CLR 07/M06 A3008 RMK AO2 SLP201 T00671061 10106 20067 58020
KVHN,2022-11-05T11:35:00Z,KVHN 051135Z AUTO 21013KT 10SM CLR 05/M05 A3008 RMK AO2 T00501046
KVIH,2022-11-05T11:53:00Z,KVIH 051153Z AUTO 22015G23KT 10SM OVC018 08/05 A2959 RMK AO2 PK WND 24041/1054 SLP015 60008 70153 T00780050 10178 20078 53032
KVIS,2022-11-05T10:56:00Z,KVIS 051056Z AUTO 04003KT 10SM CLR 04/03 A3025 RMK AO2 SLP253 T00440028
KVJI,2022-11-05T11:55:00Z,KVJI 051155Z AUTO 23004KT 10SM SCT041 BKN050 20/12 A3010 RMK AO2 T01970123 10197 20182
KVKS,2022-11-05T11:35:00Z,KVKS 051135Z AUTO 00000KT 2 1/2SM BR FEW006 BKN036 OVC095 12/12 A2993 RMK A01
KVLD,2022-11-05T11:53:00Z,KVLD 051153Z AUTO 08004KT 1SM BR OVC002 18/18 A3004 RMK AO2 SLP181 T01830178 10183 20156 53002
KVLL,2022-11-05T11:55:00Z,KVLL 051155Z AUTO 17008KT 130V190 10SM CLR 19/09 A2985 RMK AO2 T01870093 10194 20183
KVNW,2022-11-05T11:55:00Z,KVNW 051155Z AUTO 20012KT 10SM SCT100 17/09 A2984 RMK AO2
KVNY,2022-11-05T11:51:00Z,KVNY 051151Z AUTO 00000KT 10SM CLR 09/01 A3010 RMK AO2 SLP188 T00940011 10144 20094 56014
KVOA,2022-11-05T11:40:00Z,KVOA 051140Z AUTO 14015G20KT 9SM BKN026 BKN032 25/20 A2996 RMK A01
KVOK,2022-11-05T10:55:00Z,KVOK 051055Z 04004KT 3SM -RA BR OVC004 06/06 A2950 RMK AO2A SLPNO
KVPC,2022-11-05T11:35:00Z,KVPC 051135Z AUTO 00000KT 10SM BKN014 OVC023 17/15 A3008 RMK AO2
KVPS,2022-11-05T11:05:00Z,KVPS 051105Z AUTO 10007KT 10SM BKN009 20/17 A2997 RMK AO2 SLP155 $
KVPZ,2022-11-05T10:56:00Z,KVPZ 051056Z AUTO 17021G34KT 4SM RA BR BKN085 OVC100 15/13 A2964 RMK AO2 PK WND 18034/1056 SLP033 P0017 T01500133
KVQQ,2022-11-05T11:50:00Z,KVQQ 051150Z 00000KT 5SM BR SCT027 BKN038 17/17 A3003
KVRB,2022-11-05T11:53:00Z,KVRB 051153Z 10010KT 10SM FEW055 25/22 A2997 RMK AO2 RAE1058B12E26 SLP148 P0003 60005 70008 T02500217 10250 20233 53003
KVSF,2022-11-05T11:54:00Z,KVSF 051154Z AUTO 00000KT 10SM SCT007 BKN050 07/06 A3020 RMK AO2 SLP230 T00720061 10078 20056 58003
KVTA,2022-11-05T11:54:00Z,KVTA 051154Z AUTO 18005KT 10SM CLR 17/11 A2996 RMK AO2 SLP140 T01720106 10183 20167 56007
KVTI,2022-11-05T11:55:00Z,KVTI 051155Z AUTO 36011G15KT 5SM RA OVC006 06/06 A2937 RMK AO2 P0007 60010 70137 T00610061 10061 20061
KVTN,2022-11-05T11:52:00Z,KVTN 051152Z AUTO 22005KT 10SM CLR M07/M09 A2952 RMK AO2 SLP022 T10721094 11067 21089 56035 $
KVTP,2022-11-05T11:55:00Z,KVTP 051155Z AUTO 26024G33KT 10SM CLR M08/M11 A2983 RMK AO2
KVUJ,2022-11-05T11:35:00Z,KVUJ 051135Z AUTO 15003KT 7SM SCT007 BKN027 OVC043 19/18 A3021 RMK AO2 T01860182
KVUO,2022-11-05T11:53:00Z,KVUO 051153Z AUTO 00000KT 10SM BKN041 OVC050 10/04 A2991 RMK AO2 SLP127 60004 70190 T01000044 10150 20094 51038
KVVS,2022-11-05T11:35:00Z,KVVS 051135Z AUTO 00000KT 10SM CLR 17/12 A3009 RMK AO2 T01690123
KVVV,2022-11-05T11:55:00Z,KVVV 051155Z 00000KT 1 1/4SM BR M07/M08 A2961 RMK AO2
KVWU,2022-11-05T11:35:00Z,KVWU 051135Z AUTO 11004KT 10SM CLR M06/M08 A2968 RMK AO2
KVYS,2022-11-05T11:35:00Z,KVYS 051135Z AUTO 15024G35KT 10SM OVC010 17/15 A2945 RMK AO2 T01700153
KW13,2022-11-05T11:55:00Z,KW13 051155Z AUTO 17003KT 10SM SCT016 BKN022 OVC029 17/17 A3019 RMK AO1 60012 70015 T01710170 10175 20162
KW22,2022-11-05T11:35:00Z,KW22 051135Z AUTO 00000KT 10SM CLR 15/13 A3008 RMK AO2
KW29,2022-11-05T11:35:00Z,KW29 051135Z AUTO 15005KT 7SM HZ CLR 16/ A3022 RMK AO2 T0161////
KW31,2022-11-05T11:55:00Z,KW31 051155Z AUTO M1/4SM OVC002 16/16 A3020 RMK AO1 T01550155 10167 20152
KW43,2022-11-05T11:35:00Z,KW43 051135Z AUTO 21010KT 10SM BKN080 OVC085 03/M05 A2941 RMK AO2
KW63,2022-11-05T11:55:00Z,KW63 051155Z AUTO 00000KT 3SM OVC002 16/16 A3019 RMK AO1
KW75,2022-11-05T11:55:00Z,KW75 051155Z AUTO 00000KT 1/2SM OVC032 15/15 A3023 RMK AO1 T01460145 10162 20142
KW78,2022-11-05T11:55:00Z,KW78 051155Z AUTO 10003KT 3SM SCT001 OVC055 16/15 A3019 RMK AO1 T01590151 10166 20140
KW81,2022-11-05T11:55:00Z,KW81 051155Z AUTO 00000KT 1/4SM OVC003 16/14 A3020 RMK AO1 T01550140 10167 20141
KW96,2022-11-05T11:55:00Z,KW96 051155Z AUTO 00000KT 1SM SCT026 13/13 A3022 RMK AO1 VIS 1/4V5 T01300130 10161 20126
KW99,2022-11-05T11:42:00Z,KW99 051142Z AUTO 00000KT 10SM CLR 09/09 A3015 RMK AO2
KWAL,2022-11-05T11:54:00Z,KWAL 051154Z AUTO 17003KT 10SM CLR 16/15 A3025 RMK AO2 SLP240 T01610150 10178 20161 50002
KWBF,2022-11-05T11:35:00Z,KWBF 051135Z AUTO 13008G21KT 9SM 26/24 A2988 RMK A01
KWDG,2022-11-05T11:45:00Z,KWDG 051145Z 22007KT 10SM SCT150 03/02 A2981
KWDR,2022-11-05T11:35:00Z,KWDR 051135Z AUTO 00000KT 3/4SM BR OVC003 17/16 A3013 RMK AO2
KWJF,2022-11-05T10:56:00Z,KWJF 051056Z AUTO 24004KT 10SM CLR 06/M02 A3013 RMK AO2 SLP203 T00561022
KWLD,2022-11-05T11:54:00Z,KWLD 051154Z AUTO 23006KT 10SM CLR 03/02 A2978 RMK AO2 SLP090 60001 70098 T00280017 10050 20028 51007 $
KWMC,2022-11-05T10:56:00Z,KWMC 051056Z AUTO 24013G21KT 10SM OVC080 10/00 A3000 RMK AO2 SLP144 T01000000
KWRB,2022-11-05T10:58:00Z,KWRB 051058Z AUTO 00000KT 10SM SCT007 13/13 A3007 RMK AO2 SLP184
KWRI,2022-11-05T11:45:00Z,KWRI 051145Z 00000KT 1 1/4SM BR CLR 11/11 A3025 RMK AO2A VIS 1/4V1 1/4 VIS 1/4 RWY06/24 VIS 1/8 RWY18 VIS 1/4 RWY36 SLP243 $
KWRL,2022-11-05T11:53:00Z,KWRL 051153Z AUTO 22004KT 10SM CLR M04/M06 A2947 RMK AO2 SLP005 T10441056 11028 21056 56028 TSNO
KWST,2022-11-05T11:53:00Z,KWST 051153Z AUTO 21004KT 10SM SCT036 BKN055 OVC070 17/16 A3028 RMK AO2 RAB12E35 SLP254 P0000 60000 T01720161 10172 20139 51003
KWVI,2022-11-05T11:53:00Z,KWVI 051153Z AUTO 34003KT 10SM BKN038 07/07 A3022 RMK AO2 SLP233 T00670067 10094 20056 56016
KWVL,2022-11-05T11:48:00Z,KWVL 051148Z AUTO 22005KT 3/4SM BR CLR 10/10 A3015 RMK AO2
KWWD,2022-11-05T10:56:00Z,KWWD 051056Z AUTO 16005KT 10SM CLR 16/16 A3027 RMK AO2 SLP251 T01610161 PNO $
KWWR,2022-11-05T11:30:00Z,KWWR 051130Z AUTO 22011KT 10SM CLR 00/00 A2983 RMK AO2
KX07,2022-11-05T11:55:00Z,KX07 051155Z AUTO 01003KT 10SM CLR 20/20 A2999 RMK A01
KX26,2022-11-05T11:35:00Z,KX26 051135Z AUTO 10011KT 10SM SCT029 SCT041 25/20 A2997 RMK AO2 T02510205
KX60,2022-11-05T11:55:00Z,KX60 051155Z AUTO 04003KT 1/4SM FG OVC002 18/18 A3003 RMK AO2 10192 20172
KXBP,2022-11-05T11:35:00Z,KXBP 051135Z AUTO 26003KT 10SM CLR 06/03 A2995 RMK AO2 T00570025
KXER,2022-11-05T11:35:00Z,KXER 051135Z AUTO 18016KT 10SM CLR 27/23 A2980 RMK A01
KXIF,2022-11-05T10:55:00Z,KXIF 051055Z AUTO 24003KT 1 1/2SM BR BKN009 18/16 A3018 RMK AO2 PK WND 23033/39 SLP221 T01750163 $
KXLL,2022-11-05T11:55:00Z,KXLL 051155Z AUTO 22005KT 10SM SCT010 OVC070 17/16 A3024 RMK AO2
KXMR,2022-11-05T10:55:00Z,KXMR 051055Z AUTO 11013KT 10SM CLR 25/21 A2996 RMK AO2 SLP148 T02480209 $
KXNA,2022-11-05T11:53:00Z,KXNA 051153Z 23009KT 10SM FEW009 BKN019 OVC038 06/04 A2978 RMK AO2 SLP079 60000 70251 T00560039 10072 20056 51010
KXNO,2022-11-05T10:55:00Z,KXNO 051055Z AUTO 06004KT 10SM CLR 19/19 A3012 RMK AO2 SLP200 T01860186 $
KXNX,2022-11-05T11:55:00Z,KXNX 051155Z AUTO 17009G20KT 10SM FEW039 20/13 A2993 RMK A01
KXVG,2022-11-05T11:53:00Z,KXVG 051153Z AUTO 00000KT 10SM CLR M08/M09 A2966 RMK AO2
KXWA,2022-11-05T11:51:00Z,KXWA 051151Z AUTO 16009KT 10SM OVC070 01/M06 A2922 RMK AO2 SLP921 T00061061 10011 21028 56039
KY19,2022-11-05T11:55:00Z,KY19 051155Z AUTO 16013KT 10SM CLR M03/M05 A2944 RMK AO2
KY23,2022-11-05T11:55:00Z,KY23 051155Z AUTO 03005KT 10SM -DZ BKN011 OVC023 04/04 A2956 RMK AO2 T00420037 10045 20040
KY31,2022-11-05T11:35:00Z,KY31 051135Z AUTO 19005KT 10SM SCT037 BKN045 OVC070 18/11 A2968 RMK AO2 T01760110
KY49,2022-11-05T11:35:00Z,KY49 051135Z AUTO 00000KT 10SM CLR M05/M05 A2965 RMK AO2 T10471053
KY50,2022-11-05T10:56:00Z,KY50 051056Z AUTO 04010KT 4SM -RA BR OVC004 06/06 A2953 RMK AO2 PRESFR SLP001 P0000 T00610061 $
KY51,2022-11-05T11:55:00Z,KY51 051155Z AUTO 01007KT 5SM OVC004 06/06 A2944 RMK AO1 P0009 60014 70088 T00600060 10060 20048
KY63,2022-11-05T11:55:00Z,KY63 051155Z AUTO 10007KT 10SM CLR M02/M04 A2962 RMK AO2 T10221037 11015 21027
KY70,2022-11-05T11:55:00Z,KY70 051155Z AUTO 17017G22KT 10SM SCT047 BKN065 OVC080 18/09 A2969 RMK AO2 70018 T01760092 10191 20172
KYIP,2022-11-05T11:53:00Z,KYIP 051153Z 17012G19KT 10SM CLR 17/10 A2982 RMK AO2 SLP088 T01720100 $
KYKM,2022-11-05T11:53:00Z,KYKM 051153Z AUTO 28020G30KT 10SM CLR 08/M04 A2963 RMK AO2 PK WND 28033/1140 SLP034 60003 70004 T00781039 10144 20078 51057
KYKN,2022-11-05T10:56:00Z,KYKN 051056Z AUTO 00000KT 10SM CLR M05/M07 A2963 RMK AO2 SLP058 T10501067 FZRANO
KYNG,2022-11-05T11:51:00Z,KYNG 051151Z 17008G17KT 10SM BKN250 16/10 A3001 RMK AO2 SLP159 T01610100 10167 20150 55004
KZER,2022-11-05T11:35:00Z,KZER 051135Z AUTO 17011KT 1/4SM FG OVC002 15/15 A3022 RMK AO2
KZPH,2022-11-05T11:35:00Z,KZPH 051135Z AUTO 34003KT 1/4SM FG OVC001 19/19 A3001 RMK A02 T01900189
KZZV,2022-11-05T11:53:00Z,KZZV 051153Z AUTO 16010KT 10SM CLR 16/12 A2998 RMK AO2 SLP150 T01610117 10167 20150 58007
LATI,2022-11-05T11:50:00Z,LATI 051150Z 08004KT 060V120 9000 -RA SCT001 BKN027 OVC055 16/15 Q1007 NOSIG
LBBG,2022-11-05T11:30:00Z,LBBG 051130Z 16008KT 9000 NSC 20/13 Q1012 NOSIG
LBGO,2022-11-05T11:30:00Z,LBGO 051130Z AUTO VRB01KT 9999 NCD 25/08 Q1009 NOSIG
LBIA,2022-11-05T11:00:00Z,LBIA 051100Z 05004KT 8000 BKN200 18/10 Q1013
LBPD,2022-11-05T11:30:00Z,LBPD 051130Z AUTO 11004KT 010V170 9999 NCD 18/09 Q1011 NOSIG
LBPG,2022-11-05T11:00:00Z,LBPG 051100Z 12008KT 6000 HZ BKN200 17/09 Q1012
LBPL,2022-11-05T11:00:00Z,LBPL 051100Z 30002KT 9999 BKN200 18/09 Q1010
LBSF,2022-11-05T11:30:00Z,LBSF 051130Z 08005KT 010V140 CAVOK 18/07 Q1011 NOSIG
LBWN,2022-11-05T11:30:00Z,LBWN 051130Z 11011KT CAVOK 20/11 Q1011 NOSIG
LCEN,2022-11-05T11:20:00Z,LCEN 051120Z 08005KT 9999 SCT025 26/11 Q1016 NOSIG RMK RWY11 13006KT
LCLK,2022-11-05T11:30:00Z,LCLK 051130Z 11005KT 080V140 9999 FEW025 26/16 Q1016 NOSIG
LCPH,2022-11-05T11:30:00Z,LCPH 051130Z 25005KT 180V320 9999 FEW025TCU 24/17 Q1016
LCRA,2022-11-05T11:20:00Z,LCRA 051120Z 15007KT 9999 FEW040 24/14 Q1016 NOSIG
LDDU,2022-11-05T11:30:00Z,LDDU 051130Z 11018KT 080V140 9999 -RA FEW025 BKN040 15/13 Q1005 TEMPO 4000 TSRA FEW025CB
LDOS,2022-11-05T11:30:00Z,LDOS 051130Z 31008KT 9999 BKN037 10/08 Q1011
LDPL,2022-11-05T11:30:00Z,LDPL 051130Z 05013KT 020V080 CAVOK 15/03 Q1010 NOSIG
LDRI,2022-11-05T11:30:00Z,LDRI 051130Z VRB08G19KT 9999 FEW035 BKN047 15/03 Q1010
LDSP,2022-11-05T11:30:00Z,LDSP 051130Z 05014KT 9999 FEW033 BKN045 13/08 Q1005 TEMPO 05015G25KT
LDZA,2022-11-05T11:30:00Z,LDZA 051130Z 26006KT CAVOK 11/07 Q1014 NOSIG
LDZD,2022-11-05T11:30:00Z,LDZD 051130Z 04018KT 010V080 9999 -RA BKN050 10/06 Q1007 TEMPO 05020G30KT
LEAB,2022-11-05T11:30:00Z,LEAB 051130Z 30013KT CAVOK 16/M00 Q1023 NOSIG
LEAG,2022-11-05T11:30:00Z,LEAG 051130Z AUTO 13005KT 090V180 CAVOK 22/12 Q1021
LEAL,2022-11-05T11:30:00Z,LEAL 051130Z VRB04G14KT CAVOK 22/05 Q1021 NOSIG
LEAM,2022-11-05T11:30:00Z,LEAM 051130Z 19007KT 160V220 9999 FEW040 23/14 Q1021
LEAO,2022-11-05T11:30:00Z,LEAO 051130Z VRB03KT CAVOK 15/02 Q1024
LEAS,2022-11-05T11:30:00Z,LEAS 051130Z VRB02KT CAVOK 15/07 Q1021 NOSIG
LEBA,2022-11-05T11:30:00Z,LEBA 051130Z 08006KT 050V120 CAVOK 18/03 Q1022
LEBB,2022-11-05T11:30:00Z,LEBB 051130Z VRB01KT CAVOK 17/10 Q1022 NOSIG
LEBG,2022-11-05T11:30:00Z,LEBG 051130Z 23006KT 170V270 CAVOK 11/04 Q1024
LEBL,2022-11-05T11:30:00Z,LEBL 051130Z 03006KT 330V060 CAVOK 19/03 Q1020 NOSIG
LEBR,2022-11-05T11:30:00Z,LEBR 051130Z AUTO 30008KT 9999 NCD 16/07 Q1022
LEBT,2022-11-05T11:30:00Z,LEBT 051130Z AUTO 24002KT CAVOK 22/M01 Q1021
LEBZ,2022-11-05T11:30:00Z,LEBZ 051130Z 08004KT 030V120 CAVOK 16/08 Q1023
LECH,2022-11-05T11:30:00Z,LECH 051130Z AUTO 12005KT 070V170 9000 NCD 19/M02 Q1021
LECO,2022-11-05T11:30:00Z,LECO 051130Z 18005KT 120V240 9999 FEW027 15/10 Q1022 NOSIG
LECV,2022-11-05T11:30:00Z,LECV 051130Z VRB01KT CAVOK 12/03 Q1023
LEDA,2022-11-05T11:30:00Z,LEDA 051130Z 25009KT 210V280 CAVOK 15/05 Q1021
LEGE,2022-11-05T11:30:00Z,LEGE 051130Z 12002KT 9999 FEW040 18/00 Q1019
LEGR,2022-11-05T11:30:00Z,LEGR 051130Z 00000KT CAVOK 18/08 Q1023
LEGT,2022-11-05T11:30:00Z,LEGT 051130Z 14002KT CAVOK 14/04 Q1024
LEHC,2022-11-05T11:30:00Z,LEHC 051130Z 25008KT 210V300 CAVOK 15/03 Q1021
LEIB,2022-11-05T11:30:00Z,LEIB 051130Z 03007KT 340V080 9999 FEW030 20/09 Q1021 NOSIG
LELC,2022-11-05T11:30:00Z,LELC 051130Z 30010KT CAVOK 25/00 Q1021 NOSIG
LELL,2022-11-05T11:30:00Z,LELL 051130Z 22006KT 170V300 CAVOK 18/00 Q1019
LELN,2022-11-05T11:30:00Z,LELN 051130Z 17004KT 130V220 CAVOK 10/04 Q1023
LELO,2022-11-05T11:30:00Z,LELO 051130Z AUTO 29009KT 250V330 CAVOK 14/05 Q1023
LEMD,2022-11-05T11:30:00Z,LEMD 051130Z 20002KT CAVOK 13/02 Q1024 NOSIG
LEMG,2022-11-05T11:30:00Z,LEMG 051130Z 16009KT 120V190 CAVOK 24/13 Q1021 NOSIG
LEMH,2022-11-05T11:30:00Z,LEMH 051130Z 36020KT 9999 FEW032 18/05 Q1018
LEMI,2022-11-05T11:30:00Z,LEMI 051130Z 32011KT CAVOK 22/M01 Q1021
LEPA,2022-11-05T11:30:00Z,LEPA 051130Z 34010KT 310V010 9999 FEW030 22/07 Q1019 NOSIG
LEPP,2022-11-05T11:30:00Z,LEPP 051130Z 31002KT 9999 FEW020 13/07 Q1022
LERI,2022-11-05T11:30:00Z,LERI 051130Z VRB03KT CAVOK 22/00 Q1021 NOSIG
LERS,2022-11-05T11:30:00Z,LERS 051130Z 28012KT 240V310 CAVOK 19/06 Q1020
LERT,2022-11-05T11:30:00Z,LERT 051130Z VRB03KT 9999 FEW008 21/17 Q1022 NOSIG
LESA,2022-11-05T11:30:00Z,LESA 051130Z VRB01KT CAVOK 15/01 Q1024
LESB,2022-11-05T11:30:00Z,LESB 051130Z AUTO 35009KT 320V020 CAVOK 21/06 Q1019
LESO,2022-11-05T11:30:00Z,LESO 051130Z 09003KT 020V140 CAVOK 17/10 Q1022
LEST,2022-11-05T11:30:00Z,LEST 051130Z 21008KT 170V240 9999 FEW015 13/09 Q1023 NOSIG
LESU,2022-11-05T11:30:00Z,LESU 051130Z 06004KT 010V100 CAVOK 10/01 Q1021
LETL,2022-11-05T11:30:00Z,LETL 051130Z AUTO 35011KT 310V020 CAVOK 13/00 Q1023
LETO,2022-11-05T11:30:00Z,LETO 051130Z 18001KT CAVOK 14/03 Q1024 NOSIG
LETU,2022-11-05T11:30:00Z,LETU 051130Z AUTO 34007KT 300V040 7000 // NCD ///// Q1023
LEVC,2022-11-05T11:30:00Z,LEVC 051130Z 16005KT 130V190 CAVOK 21/M02 Q1020 NOSIG
LEVD,2022-11-05T11:30:00Z,LEVD 051130Z 20003KT CAVOK 12/04 Q1024
LEVS,2022-11-05T11:30:00Z,LEVS 051130Z 20002KT CAVOK 14/02 Q1024
LEVT,2022-11-05T11:30:00Z,LEVT 051130Z 20003KT 9999 FEW004 SCT007 10/10 Q1023
LEVX,2022-11-05T11:30:00Z,LEVX 051130Z 21005KT CAVOK 12/09 Q1023 NOSIG
LEXJ,2022-11-05T11:30:00Z,LEXJ 051130Z VRB02KT CAVOK 16/09 Q1022
LEZG,2022-11-05T11:30:00Z,LEZG 051130Z 29013KT 260V320 CAVOK 16/06 Q1022
LEZL,2022-11-05T11:30:00Z,LEZL 051130Z 04002KT CAVOK 20/06 Q1021 NOSIG
LFAC,2022-11-05T11:30:00Z,LFAC 051130Z AUTO 19008KT 9999 FEW036 SCT045 BKN052 12/10 Q1016
LFAQ,2022-11-05T11:30:00Z,LFAQ 051130Z AUTO 19009KT CAVOK 10/08 Q1018 NOSIG
LFAT,2022-11-05T11:30:00Z,LFAT 051130Z AUTO 21008KT 180V250 9999 -RA SCT021/// SCT035/// OVC064/// ///TCU 12/09 Q1017 TEMPO 22015G25KT 3000 RA BKN013 OVC020
LFBA,2022-11-05T11:30:00Z,LFBA 051130Z AUTO 09006KT 050V140 CAVOK 15/10 Q1023
LFBC,2022-11-05T11:30:00Z,LFBC 051130Z AUTO 18007KT 150V210 CAVOK 17/09 Q1022
LFBD,2022-11-05T11:30:00Z,LFBD 051130Z AUTO 20006KT 160V220 9999 BKN031 BKN037 16/09 Q1022 NOSIG
LFBE,2022-11-05T11:30:00Z,LFBE 051130Z AUTO 19004KT 100V240 CAVOK 15/07 Q1023 NOSIG
LFBF,2022-11-05T11:30:00Z,LFBF 051130Z AUTO 33004KT 240V010 CAVOK 15/08 Q1023
LFBG,2022-11-05T11:30:00Z,LFBG 051130Z AUTO 18008KT 150V210 CAVOK 15/09 Q1022
LFBH,2022-11-05T11:30:00Z,LFBH 051130Z AUTO 21009KT 9999 FEW049 16/09 Q1021
LFBI,2022-11-05T11:30:00Z,LFBI 051130Z AUTO 20010KT CAVOK 13/08 Q1022
LFBL,2022-11-05T11:30:00Z,LFBL 051130Z AUTO 09003KT 070V130 9999 ////// 06/06 Q1023
LFBM,2022-11-05T11:30:00Z,LFBM 051130Z AUTO VRB03KT 9999 // FEW032 16/09 Q1023
LFBO,2022-11-05T11:30:00Z,LFBO 051130Z AUTO 33004KT 250V010 CAVOK 15/08 Q1023
LFBP,2022-11-05T11:30:00Z,LFBP 051130Z AUTO 10004KT 040V160 CAVOK 16/08 Q1023
LFBT,2022-11-05T11:30:00Z,LFBT 051130Z AUTO VRB02KT CAVOK 15/06 Q1023
LFBU,2022-11-05T11:30:00Z,LFBU 051130Z AUTO 15006KT 120V180 9999 SCT032 13/07 Q1023 NOSIG
LFBX,2022-11-05T11:30:00Z,LFBX 051130Z AUTO VRB02KT CAVOK 12/09 Q1023
LFBY,2022-11-05T11:30:00Z,LFBY 051130Z AUTO 21003KT 160V260 9999 // ////// 17/09 Q1022
LFBZ,2022-11-05T11:30:00Z,LFBZ 051130Z AUTO VRB03KT CAVOK 17/08 Q1022 NOSIG
LFCK,2022-11-05T11:30:00Z,LFCK 051130Z AUTO 31007KT 280V350 CAVOK 12/06 Q1024
LFCR,2022-11-05T11:30:00Z,LFCR 051130Z AUTO 31009KT CAVOK 09/03 Q1023
LFGA,2022-11-05T11:30:00Z,LFGA 051130Z AUTO 30007KT CAVOK 12/03 Q1021
LFGJ,2022-11-05T11:30:00Z,LFGJ 051130Z AUTO 29008KT 9999 FEW024 SCT035 BKN041 11/06 Q1022 NOSIG
LFHP,2022-11-05T11:30:00Z,LFHP 051130Z AUTO 33010KT 9999 SCT025 BKN035 07/02 Q1021
LFJL,2022-11-05T11:30:00Z,LFJL 051130Z AUTO 20004KT 150V230 9999 FEW012 OVC220 09/06 Q1021 NOSIG
LFJR,2022-11-05T11:30:00Z,LFJR 051130Z AUTO 18008KT CAVOK 14/09 Q1020
LFKB,2022-11-05T11:30:00Z,LFKB 051130Z AUTO 30010KT 270V340 9999 FEW025 SCT043 BKN076 20/10 Q1010
LFKC,2022-11-05T11:30:00Z,LFKC 051130Z AUTO 36009KT 330V040 9999 FEW049 19/09 Q1011
LFKF,2022-11-05T11:30:00Z,LFKF 051130Z AUTO 24006KT 200V270 9999 BKN074 BKN086 21/07 Q1009
LFKJ,2022-11-05T11:30:00Z,LFKJ 051130Z AUTO 21006KT 170V250 9999 FEW049 21/10 Q1009
LFKS,2022-11-05T11:30:00Z,LFKS 051130Z AUTO 02012KT 9999 SCT054 SCT074 BKN088 20/10 Q1009
LFLB,2022-11-05T11:30:00Z,LFLB 051130Z AUTO 33004KT 270V040 9999 FEW033 12/07 Q1021
LFLC,2022-11-05T11:30:00Z,LFLC 051130Z AUTO VRB02KT 9999 FEW033 BKN140 12/04 Q1022
LFLH,2022-11-05T11:30:00Z,LFLH 051130Z AUTO 22003KT 180V280 9999 SCT022 SCT028 OVC180 10/07 Q1023
LFLL,2022-11-05T11:30:00Z,LFLL 051130Z 36012KT 330V030 9999 BKN025 SCT036 11/06 Q1022 NOSIG
LFLN,2022-11-05T11:30:00Z,LFLN 051130Z AUTO 33005KT 290V360 9999 BKN015 BKN021 BKN170 10/07 Q1022 NOSIG
LFLP,2022-11-05T11:30:00Z,LFLP 051130Z AUTO 02005KT 320V070 9999 FEW032 BKN045 11/06 Q1020
LFLS,2022-11-05T11:30:00Z,LFLS 051130Z AUTO 34010KT 9999 FEW019 BKN036 BKN045 10/07 Q1021
LFLU,2022-11-05T11:30:00Z,LFLU 051130Z AUTO 35018KT 9999 SCT030 BKN043 OVC052 12/06 Q1020
LFLV,2022-11-05T11:30:00Z,LFLV 051130Z AUTO VRB02KT 9999 BKN023 BKN030 BKN042 11/06 Q1023
LFLW,2022-11-05T11:30:00Z,LFLW 051130Z AUTO 29006KT 250V330 CAVOK 09/05 Q1022
LFLX,2022-11-05T11:30:00Z,LFLX 051130Z AUTO 22008KT CAVOK 11/07 Q1022 NOSIG
LFLY,2022-11-05T11:30:00Z,LFLY 051130Z AUTO 35010KT 9999 SCT026 BKN039 BKN052 11/06 Q1022 NOSIG
LFMC,2022-11-05T11:30:00Z,LFMC 051130Z AUTO 28008KT 230V310 9999 ////// 19/01 Q1013
LFMD,2022-11-05T11:30:00Z,LFMD 051130Z AUTO VRB03KT CAVOK 20/04 Q1012
LFMH,2022-11-05T11:30:00Z,LFMH 051130Z AUTO 36010KT 9999 BKN021 BKN028 OVC170 09/04 Q1022
LFMI,2022-11-05T11:30:00Z,LFMI 051130Z AUTO 34023G33KT 310V010 CAVOK 16/05 Q1017
LFMK,2022-11-05T11:30:00Z,LFMK 051130Z AUTO 27014KT CAVOK 14/07 Q1023
LFML,2022-11-05T11:30:00Z,LFML 051130Z AUTO 32027KT CAVOK 16/07 Q1015
LFMN,2022-11-05T11:30:00Z,LFMN 051130Z AUTO 30005KT CAVOK 19/05 Q1012
LFMO,2022-11-05T11:30:00Z,LFMO 051130Z AUTO 34022G33KT 8000 NSC 14/06 Q1018 NOSIG
LFMP,2022-11-05T11:30:00Z,LFMP 051130Z AUTO 31015G25KT 270V350 CAVOK 17/04 Q1021
LFMT,2022-11-05T11:30:00Z,LFMT 051130Z AUTO 34013KT 320V020 CAVOK 18/01 Q1019
LFMU,2022-11-05T11:30:00Z,LFMU 051130Z AUTO 33016KT 270V360 CAVOK 18/M02 Q1020
LFMV,2022-11-05T11:30:00Z,LFMV 051130Z AUTO 35020G34KT 320V020 CAVOK 15/06 Q1018
LFMY,2022-11-05T11:30:00Z,LFMY 051130Z AUTO 34017G28KT 300V010 CAVOK 15/06 Q1016
LFOA,2022-11-05T11:30:00Z,LFOA 051130Z AUTO 23005KT 190V270 CAVOK 10/07 Q1022
LFOB,2022-11-05T11:30:00Z,LFOB 051130Z AUTO 21006KT CAVOK 11/08 Q1019 NOSIG
LFOE,2022-11-05T11:30:00Z,LFOE 051130Z AUTO 22010KT 9999 ///TCU 10/07 Q1019 TEMPO 4500 -RA BECMG SCT040
LFOH,2022-11-05T11:30:00Z,LFOH 051130Z AUTO 19011KT 9999 BKN046 OVC056 11/08 Q1018 BECMG 20015G25KT
LFOJ,2022-11-05T11:30:00Z,LFOJ 051130Z AUTO 21009KT CAVOK 09/08 Q1021 NOSIG
LFOK,2022-11-05T11:30:00Z,LFOK 051130Z AUTO 20010KT 9999 FEW006 SCT047 OVC150 08/08 Q1021 NOSIG
LFOP,2022-11-05T11:30:00Z,LFOP 051130Z AUTO 21011KT 9999 -RA FEW035 SCT220 10/07 Q1019 NOSIG
LFOT,2022-11-05T11:30:00Z,LFOT 051130Z AUTO 18007KT CAVOK 10/08 Q1021 NOSIG
LFOV,2022-11-05T11:30:00Z,LFOV 051130Z AUTO 20008KT 150V240 9999 BKN035 BKN190 12/08 Q1020
LFOZ,2022-11-05T11:30:00Z,LFOZ 051130Z AUTO 21007KT 9999 SCT009 OVC120 09/07 Q1022
LFPB,2022-11-05T11:30:00Z,LFPB 051130Z AUTO 14003KT 100V210 9999 SCT049 OVC120 12/08 Q1020 NOSIG
LFPG,2022-11-05T11:30:00Z,LFPG 051130Z 19006KT 130V210 CAVOK 11/07 Q1020 NOSIG
LFPM,2022-11-05T11:30:00Z,LFPM 051130Z AUTO 20005KT CAVOK 10/08 Q1021
LFPN,2022-11-05T11:30:00Z,LFPN 051130Z AUTO 23009KT CAVOK 11/08 Q1020 NOSIG
LFPO,2022-11-05T11:30:00Z,LFPO 051130Z AUTO 20005KT 170V240 CAVOK 11/08 Q1020 NOSIG
LFPT,2022-11-05T11:30:00Z,LFPT 051130Z AUTO 23008KT 9999 BKN047 BKN110 11/08 Q1020
LFPV,2022-11-05T11:30:00Z,LFPV 051130Z AUTO 23005KT 190V260 CAVOK 11/07 Q1020 NOSIG
LFQA,2022-11-05T11:30:00Z,LFQA 051130Z AUTO 19004KT 130V240 CAVOK 11/08 Q1020
LFQB,2022-11-05T11:30:00Z,LFQB 051130Z AUTO 17005KT CAVOK 09/07 Q1021
LFQG,2022-11-05T11:30:00Z,LFQG 051130Z AUTO 16005KT 120V190 9999 SCT008 OVC130 09/07 Q1023
LFQQ,2022-11-05T11:30:00Z,LFQQ 051130Z AUTO 18008KT CAVOK 10/08 Q1018 NOSIG
LFRB,2022-11-05T11:30:00Z,LFRB 051130Z AUTO 21014KT 5000 -RA BR BKN013 OVC019 13/11 Q1016
LFRC,2022-11-05T11:30:00Z,LFRC 051130Z AUTO 18010KT 9999 BKN005 BKN009 BKN046 11/10 Q1016
LFRD,2022-11-05T11:30:00Z,LFRD 051130Z AUTO 19010KT 9999 -RA SCT045/// SCT052/// OVC078/// //////TCU 13/11 Q1018
LFRG,2022-11-05T11:30:00Z,LFRG 051130Z AUTO 18009KT 9999 -RA OVC046 10/08 Q1018
LFRH,2022-11-05T11:30:00Z,LFRH 051130Z AUTO 22014KT 9999 FEW038 BKN068 BKN080 15/09 Q1018
LFRI,2022-11-05T11:30:00Z,LFRI 051130Z AUTO 15006KT 120V180 9999 OVC041 14/10 Q1021
LFRJ,2022-11-05T11:30:00Z,LFRJ 051130Z AUTO 21018KT 9999 BKN018 OVC026 13/11 Q1016
LFRK,2022-11-05T11:30:00Z,LFRK 051130Z AUTO 18010KT CAVOK 10/08 Q1018
LFRL,2022-11-05T11:30:00Z,LFRL 051130Z AUTO 21014KT 170V230 9000 DZ BKN017 OVC023 13/11 Q1017
LFRM,2022-11-05T11:30:00Z,LFRM 051130Z AUTO 17004KT 120V220 9999 FEW031 BKN150 11/08 Q1021
LFRN,2022-11-05T11:30:00Z,LFRN 051130Z AUTO 20010KT 9999 FEW021 BKN041 BKN049 14/10 Q1019
LFRO,2022-11-05T11:30:00Z,LFRO 051130Z AUTO 19009KT 9999 BKN038 BKN045 OVC062 12/11 Q1016
LFRQ,2022-11-05T11:30:00Z,LFRQ 051130Z AUTO 21012KT 9999 OVC028 13/11 Q1017
LFRS,2022-11-05T11:30:00Z,LFRS 051130Z AUTO 18010KT 9999 FEW007 SCT032 OVC041 13/11 Q1020
LFRT,2022-11-05T11:30:00Z,LFRT 051130Z AUTO 20007KT 160V230 9999 -RA FEW015/// BKN034/// OVC042/// //////TCU 12/10 Q1017
LFRU,2022-11-05T11:30:00Z,LFRU 051130Z AUTO 19009KT 150V240 9999 BKN023 OVC039 13/10 Q1016
LFRV,2022-11-05T11:30:00Z,LFRV 051130Z AUTO 20010KT 160V240 9999 BKN017 BKN023 OVC043 14/11 Q1018
LFRZ,2022-11-05T11:30:00Z,LFRZ 051130Z AUTO 21014KT 9999 SCT022 BKN052 16/13 Q1019
LFSB,2022-11-05T11:30:00Z,LFSB 051130Z AUTO 26007KT 220V290 9999 FEW026 BKN058 OVC230 11/07 Q1021 NOSIG
LFSD,2022-11-05T11:30:00Z,LFSD 051130Z AUTO 27004KT 210V330 9999 BKN025 OVC042 11/05 Q1022
LFSG,2022-11-05T11:30:00Z,LFSG 051130Z AUTO 19005KT 9999 BKN022 OVC210 09/05 Q1021
LFSI,2022-11-05T11:30:00Z,LFSI 051130Z AUTO 21006KT 180V240 9999 OVC009 09/07 Q1021
LFSL,2022-11-05T11:30:00Z,LFSL 051130Z AUTO 16004KT 110V210 CAVOK 09/06 Q1023 NOSIG
LFSM,2022-11-05T11:30:00Z,LFSM 051130Z AUTO 26009KT 9999 FEW048 OVC220 10/05 Q1022
LFSN,2022-11-05T11:30:00Z,LFSN 051130Z AUTO 21004KT 150V240 9999 SCT024 OVC220 10/05 Q1021
LFSO,2022-11-05T11:30:00Z,LFSO 051130Z AUTO 22005KT 200V260 9999 SCT018 OVC210 09/05 Q1021
LFST,2022-11-05T11:30:00Z,LFST 051130Z AUTO 31006KT 290V350 9999 FEW027 SCT052 BKN240 12/06 Q1021 NOSIG
LFSX,2022-11-05T11:30:00Z,LFSX 051130Z AUTO 29006KT 9999 SCT016 OVC220 09/06 Q1022
LFTH,2022-11-05T11:30:00Z,LFTH 051130Z AUTO 36010KT CAVOK 20/03 Q1013
LFTW,2022-11-05T11:30:00Z,LFTW 051130Z AUTO 34019G29KT CAVOK 15/04 Q1018
LFVP,2022-11-05T11:30:00Z,LFVP 051130Z AUTO 25014KT 9000 NSC 11/11 Q1020 NOSIG
LFYR,2022-11-05T11:30:00Z,LFYR 051130Z AUTO 18004KT 150V210 CAVOK 10/08 Q1022
LGAD,2022-11-05T11:50:00Z,LGAD 051150Z 16019KT 9999 SCT020 23/15 Q1009
LGAL,2022-11-05T11:50:00Z,LGAL 051150Z 21009KT 9999 FEW015 21/14 Q1012
LGAV,2022-11-05T11:50:00Z,LGAV 051150Z 20015KT 9999 FEW025 23/14 Q1012 NOSIG
LGBL,2022-11-05T11:50:00Z,LGBL 051150Z 10011KT 9999 FEW030 23/15 Q1009
LGEL,2022-11-05T11:50:00Z,LGEL 051150Z 16012G22KT 9999 FEW025 23/15 Q1011
LGHI,2022-11-05T11:50:00Z,LGHI 051150Z 18010KT 9999 FEW020 22/15 Q1013
LGIO,2022-11-05T11:50:00Z,LGIO 051150Z AUTO VRB03KT //// -RA ////// 15/12 Q1009 RE//
LGIR,2022-11-05T11:50:00Z,LGIR 051150Z 19011G21KT CAVOK 25/13 Q1014 NOSIG
LGKC,2022-11-05T11:50:00Z,LGKC 051150Z 20013G23KT 9999 FEW016 SCT025 20/16 Q1014
LGKF,2022-11-05T11:50:00Z,LGKF 051150Z 16023G33KT 9999 TS FEW018CB BKN025 BKN070 22/17 Q1009
LGKL,2022-11-05T11:50:00Z,LGKL 051150Z 14012KT 9999 SCT025 22/13 Q1012
LGKO,2022-11-05T11:50:00Z,LGKO 051150Z 15012KT 9999 FEW014 25/18 Q1016
LGKP,2022-11-05T11:50:00Z,LGKP 051150Z 20011KT 9999 SCT016 23/17 Q1016
LGKR,2022-11-05T11:50:00Z,LGKR 051150Z 14010KT 5000 TSRA SCT010 SCT015TCU FEW018CB BKN025 16/15 Q1007 NOSIG
LGKV,2022-11-05T11:50:00Z,LGKV 051150Z 12008KT 9999 FEW010 21/14 Q1012
LGKZ,2022-11-05T11:50:00Z,LGKZ 051150Z AUTO 13008KT 090V150 //// // ////// 18/02 Q1010 RE//
LGLM,2022-11-05T11:50:00Z,LGLM 051150Z 19008KT 9999 FEW015 21/16 Q1013
LGMK,2022-11-05T11:50:00Z,LGMK 051150Z /////KT 9999 FEW012 21/14 Q1013
LGMT,2022-11-05T11:50:00Z,LGMT 051150Z 19010KT CAVOK 25/08 Q1014
LGPA,2022-11-05T10:50:00Z,LGPA 051050Z AUTO 16009KT 120V200 //// -RA ////// 21/17 Q1014 RE//
LGPZ,2022-11-05T11:50:00Z,LGPZ 051150Z 15017G32KT 9999 TS FEW016CB SCT020 BKN070 23/14 Q1007
LGRP,2022-11-05T11:50:00Z,LGRP 051150Z 14007KT 070V170 9999 FEW015 24/17 Q1015 NOSIG
LGRX,2022-11-05T11:50:00Z,LGRX 051150Z 16014KT 9999 SCT020 25/13 Q1009
LGSA,2022-11-05T11:50:00Z,LGSA 051150Z 02008KT CAVOK 23/16 Q1013
LGSM,2022-11-05T11:50:00Z,LGSM 051150Z 16004KT 9999 FEW025 23/14 Q1015
LGSO,2022-11-05T11:50:00Z,LGSO 051150Z 21010KT 9999 SCT011 22/16 Q1014
LGSR,2022-11-05T11:50:00Z,LGSR 051150Z 00000KT 9999 FEW025 22/18 Q1014
LGTS,2022-11-05T11:50:00Z,LGTS 051150Z 32006KT 290V360 9999 FEW025 20/15 Q1011 NOSIG
LGZA,2022-11-05T11:50:00Z,LGZA 051150Z 17018KT 9999 BKN020 SCT070 22/17 Q1009
LHBP,2022-11-05T11:30:00Z,LHBP 051130Z 30010KT 9999 FEW014 SCT050 BKN120 11/08 Q1010 NOSIG
LHDC,2022-11-05T11:15:00Z,LHDC 051115Z AUTO 12007KT 060V160 9999 -SHRA NSC 15/13 Q1010 NOSIG
LHKE,2022-11-05T11:15:00Z,LHKE 051115Z 33008KT 9999 FEW015 BKN040 OVC053 11/08 Q1010 NOSIG RMK BLU
LHPA,2022-11-05T11:15:00Z,LHPA 051115Z 34017G27KT 9999 SCT020 SCT037 BKN083 OVC200 11/07 Q1013 NOSIG RMK BLU
LHPP,2022-11-05T11:15:00Z,LHPP 051115Z AUTO 34010KT 300V010 9999 -RA NSC 11/07 Q1012
LHPR,2022-11-05T11:15:00Z,LHPR 051115Z AUTO 33018KT 9999 BKN024 11/06 Q1013 NOSIG
LHSM,2022-11-05T11:15:00Z,LHSM 051115Z AUTO 35018G31KT 330V030 CAVOK 12/06 Q1013 NOSIG
LHSN,2022-11-05T11:45:00Z,LHSN 051145Z 33004KT 290V360 8000 OVC005 11/10 Q1010 NOSIG RMK YLO
LIBA,2022-11-05T10:55:00Z,LIBA 051055Z /////KT 9999 FEW040 SCT060 15/13 Q1003
LIBC,2022-11-05T10:50:00Z,LIBC 051050Z 20009KT 9999 FEW070 17/12 Q1003
LIBD,2022-11-05T11:50:00Z,LIBD 051150Z 34004KT 280V020 9999 FEW030 18/13 Q1002
LIBF,2022-11-05T10:50:00Z,LIBF 051050Z 33014KT 9999 VCSH FEW015 SCT020 BKN040 15/12 Q1004
LIBG,2022-11-05T10:50:00Z,LIBG 051050Z 25005KT 220V280 9999 FEW010 SCT025 17/15 Q1002
LIBN,2022-11-05T10:55:00Z,LIBN 051055Z 14015KT 6000 -RA SCT015 BKN030 16/14 Q1003 RMK OVC BKN070 VIS MIN 6000 WIND THR14 14015KT WIND THR32 14015KT WHT
LIBP,2022-11-05T11:50:00Z,LIBP 051150Z AUTO 02014G25KT 9999 RA BKN017/// BKN042/// BKN066/// 14/12 Q1007
LIBQ,2022-11-05T10:55:00Z,LIBQ 051055Z /////KT 0000 FG VV/// 06/04 Q1005
LIBR,2022-11-05T11:50:00Z,LIBR 051150Z 16006KT 8000 TS SCT010CB BKN030 17/16 Q1002 RESHRA
LIBV,2022-11-05T10:55:00Z,LIBV 051055Z 24004KT 6000 -RA FEW006 SCT030 15/15 Q1002 RMK OVC BKN100 VIS MIN 6000 WIND THR32 26004KT WIND THR14 /////KT WHT
LIBY,2022-11-05T10:55:00Z,LIBY 051055Z 19010KT 6000 -TSRA FEW013CB BKN015TCU 16/14 Q1004 RMK OVC QUK 5 QUL 3 S VIS MAR 6 KM VIS MIN 6000
LICA,2022-11-05T11:50:00Z,LICA 051150Z AUTO 24004KT 9999 VCTS FEW058/// 17/12 Q1004
LICB,2022-11-05T11:50:00Z,LICB 051150Z AUTO 26019KT 9999 SCT034/// BKN073/// 17/11 Q1006
LICC,2022-11-05T11:50:00Z,LICC 051150Z 23016KT 9999 FEW030 BKN050 20/12 Q1004
LICD,2022-11-05T11:50:00Z,LICD 051150Z AUTO 28017G28KT 240V300 9999 +TSRA FEW021/// BKN047/// 17/13 Q1010
LICF,2022-11-05T10:55:00Z,LICF 051055Z 33003KT 9999 SCT030 20/02 Q1004 RMK BKN BKN200 QUK 1 QUL 0 VIS MAR 16 KM MON CLD SCT NC VIS MIN 9999
LICG,2022-11-05T10:50:00Z,LICG 051050Z 27025G35KT 9999 SCT025 15/10 Q1008
LICJ,2022-11-05T11:50:00Z,LICJ 051150Z 16009KT 7000 -RA FEW022 SCT040 15/11 Q1004
LICR,2022-11-05T11:50:00Z,LICR 051150Z AUTO 35010KT 320V030 9999 SCT140/// BKN220/// 23/08 Q1003
LICT,2022-11-05T10:55:00Z,LICT 051055Z 30020KT 9999 FEW018CB SCT025 20/12 Q1004 RMK BKN VIS MIN 9999 WIND THR13 32020KT BLU
LICZ,2022-11-05T10:55:00Z,LICZ 051055Z /////KT 9999 SCT022 SCT070 19/08 Q1004
LIEA,2022-11-05T11:50:00Z,LIEA 051150Z 36012G22KT 320V040 9999 SCT030 20/10 Q1010
LIEB,2022-11-05T10:55:00Z,LIEB 051055Z 34022G40KT 9999 -RA FEW004 FEW018CB SCT020 18/09 Q1007 RMK BKN QUK 4 QUL 3 NE VIS MAR 10 KM MON LIB VIS MIN 9999
LIED,2022-11-05T10:55:00Z,LIED 051055Z 31019KT 9999 FEW030 18/10 Q1008 RMK SCT VIS MIN 9999 WIND THR35 /////KT WIND THR17 32016KT BLU
LIEE,2022-11-05T11:50:00Z,LIEE 051150Z 35016KT 9999 FEW030 19/10 Q1009
LIEO,2022-11-05T11:50:00Z,LIEO 051150Z 34014KT 320V030 9999 SCT035 20/12 Q1009
LIMA,2022-11-05T10:50:00Z,LIMA 051050Z 18006KT 150V210 CAVOK 15/03 Q1013
LIMC,2022-11-05T11:50:00Z,LIMC 051150Z 33010KT CAVOK 19/00 Q1013 NOSIG
LIME,2022-11-05T11:50:00Z,LIME 051150Z 17003KT 140V240 CAVOK 16/05 Q1012 NOSIG
LIMF,2022-11-05T11:50:00Z,LIMF 051150Z 19008KT CAVOK 17/01 Q1013
LIMG,2022-11-05T10:50:00Z,LIMG 051050Z 01007KT 300V070 CAVOK 20/M02 Q1012
LIMH,2022-11-05T10:55:00Z,LIMH 051055Z AUTO 05020KT //// M11/M12 Q1014
LIMJ,2022-11-05T11:50:00Z,LIMJ 051150Z 02011KT 340V050 CAVOK 20/M00 Q1011
LIMK,2022-11-05T10:55:00Z,LIMK 051055Z 03003KT CAVOK 14/M06 Q1013
LIML,2022-11-05T11:50:00Z,LIML 051150Z 22003KT 180V270 CAVOK 17/07 Q1012 NOSIG
LIMP,2022-11-05T10:50:00Z,LIMP 051050Z 28007KT CAVOK 15/07 Q1013
LIMS,2022-11-05T10:55:00Z,LIMS 051055Z 01004KT CAVOK 15/10 Q1012 RMK SKC VIS MIN 9999 WIND THR30 01003KT BLU
LIMU,2022-11-05T10:55:00Z,LIMU 051055Z 09012KT CAVOK 19/03 Q1009 RMK SKC QUK 3 QUL 1 E VIS MAR 25 KM VIS MIN 9999
LIMV,2022-11-05T10:55:00Z,LIMV 051055Z /////KT CAVOK 13/M01 Q1012
LIMW,2022-11-05T11:50:00Z,LIMW 051150Z AUTO 28009KT 9999 NCD 16/M02 Q1016
LIMZ,2022-11-05T11:50:00Z,LIMZ 051150Z AUTO 19003KT 140V280 9999 NCD 17/M01 Q1014
LIPA,2022-11-05T10:55:00Z,LIPA 051055Z 28002KT CAVOK 18/04 Q1011 RMK SCT SCT200 VIS MIN 9999 WIND THR05 /////KT WIND THR23 /////KT A2986 BLU
LIPB,2022-11-05T11:50:00Z,LIPB 051150Z VRB01KT CAVOK 15/04 Q1014
LIPC,2022-11-05T10:55:00Z,LIPC 051055Z 28008KT 9999 SCT035 14/10 Q1011 RMK BKN SCT070 VIS MIN 9999 WIND THR11 28006KT WIND THR29 29007KT BLU
LIPE,2022-11-05T11:50:00Z,LIPE 051150Z 31006KT 270V360 CAVOK 17/03 Q1012
LIPF,2022-11-05T10:55:00Z,LIPF 051055Z 30005KT 9999 FEW070 13/05 Q1012 RMK SCT VIS MIN 9999
LIPH,2022-11-05T11:50:00Z,LIPH 051150Z VRB02KT CAVOK 18/02 Q1011
LIPI,2022-11-05T10:55:00Z,LIPI 051055Z 06005KT CAVOK 17/05 Q1011 RMK BKN BKN160 VIS MIN 9999 WIND THR06 09005KT WIND THR24 07005KT BLU
LIPK,2022-11-05T11:50:00Z,LIPK 051150Z 28005KT 9999 SCT030 14/08 Q1011
LIPL,2022-11-05T10:55:00Z,LIPL 051055Z 26004KT CAVOK 16/06 Q1011 RMK SKC VIS MIN 9999 WIND THR31 27005KT WIND THR13 27004KT BLU
LIPO,2022-11-05T11:50:00Z,LIPO 051150Z AUTO 24007KT 210V310 9999 NCD 17/05 Q1012
LIPQ,2022-11-05T11:50:00Z,LIPQ 051150Z AUTO 24003KT 220V280 9999 SCT220/// 17/06 Q1011
LIPR,2022-11-05T11:50:00Z,LIPR 051150Z 30007KT 9999 BKN050 14/11 Q1011
LIPS,2022-11-05T10:55:00Z,LIPS 051055Z /////KT CAVOK 18/02 Q1011
LIPU,2022-11-05T10:50:00Z,LIPU 051050Z 07004KT 030V120 CAVOK 18/01 Q1012
LIPX,2022-11-05T11:50:00Z,LIPX 051150Z 16003KT 110V200 CAVOK 19/03 Q1011
LIPY,2022-11-05T11:50:00Z,LIPY 051150Z AUTO 06012KT 9999 BKN040/// 16/09 Q1009
LIPZ,2022-11-05T11:50:00Z,LIPZ 051150Z 08004KT 050V110 CAVOK 18/00 Q1011 NOSIG
LIQC,2022-11-05T10:55:00Z,LIQC 051055Z 06005KT 9999 BKN025 14/12 Q1004 RMK BKN QUK 2 QUL 1 N VIS MAR 50 KM VIS MIN 9999
LIQN,2022-11-05T10:50:00Z,LIQN 051050Z VRB01KT 9999 SCT045 14/10 Q1006
LIQO,2022-11-05T10:55:00Z,LIQO 051055Z AUTO /////KT //// ///// Q////
LIRA,2022-11-05T11:50:00Z,LIRA 051150Z 05006KT 020V090 9999 SCT025 16/10 Q1005
LIRE,2022-11-05T10:55:00Z,LIRE 051055Z 02009KT 9999 SCT040 16/11 Q1004 RMK OVC BKN100 VIS MIN 9999 WIND THR13 04009KT WIND THR31 /////KT BLU
LIRF,2022-11-05T11:50:00Z,LIRF 051150Z 02010KT CAVOK 18/10 Q1005 NOSIG
LIRI,2022-11-05T10:50:00Z,LIRI 051050Z VRB02KT 9999 SCT040 16/14 Q1003
LIRK,2022-11-05T11:06:00Z,LIRK 051106Z AUTO 09032G47KT ///// 02/01 Q1031
LIRM,2022-11-05T10:55:00Z,LIRM 051055Z 35007KT 9999 -RA FEW010 SCT040 BKN080 14/12 Q1005 RMK OVC VIS MIN 9999 WIND THR06 02005KT BLU
LIRN,2022-11-05T11:50:00Z,LIRN 051150Z 12003KT 060V190 9999 SCT050 15/13 Q1003 NOSIG
LIRP,2022-11-05T11:45:00Z,LIRP 051145Z 32003KT 260V030 CAVOK 19/03 Q1009 NOSIG
LIRQ,2022-11-05T11:50:00Z,LIRQ 051150Z VRB06KT CAVOK 19/06 Q1010
LIRS,2022-11-05T10:55:00Z,LIRS 051055Z 01015KT 9999 FEW025 SCT040 17/10 Q1007 RMK BKN VIS MIN 9999 WIND THR03 02014KT WIND THR21 02015KT BLU
LIRT,2022-11-05T10:55:00Z,LIRT 051055Z 34003KT 0000 -RA FG VV/// 09/07 Q1004 RMK MON INVIS VAL INVIS VIS MIN 0000
LIRU,2022-11-05T10:50:00Z,LIRU 051050Z 01005KT CAVOK 16/12 Q1005
LIRV,2022-11-05T10:55:00Z,LIRV 051055Z 04018KT 9999 FEW025 14/07 Q1006 RMK BKN BKN200 MON E SE LIB NC VIS MIN 9999 WIND THR04 /////KT BLU
LIRX,2022-11-05T10:55:00Z,LIRX 051055Z 35016KT 9999 SCT020 15/09 Q1007 RMK SCT VIS MIN 9999 VIS MAR 40 KM
LIRZ,2022-11-05T11:50:00Z,LIRZ 051150Z AUTO 01008KT 9999 BKN029/// BKN084/// 15/10 Q1008
LIVC,2022-11-05T11:06:00Z,LIVC 051106Z AUTO 03020KT ///// M02/M04 Q1011
LIVD,2022-11-05T10:55:00Z,LIVD 051055Z AUTO VRB03KT //// 03/01 Q1016
LIVE,2022-11-05T10:55:00Z,LIVE 051055Z 03007KT 9999 SCT025 05/M01 Q1015 RMK SCT VIS MIN 9999
LIVF,2022-11-05T10:55:00Z,LIVF 051055Z 29007KT 1200 -RA BR OVC002 08/08 Q1008 RMK OVC MON INVIS VAL INVIS VIS MIN 1200
LIVM,2022-11-05T10:55:00Z,LIVM 051055Z AUTO 05009KT //// 15/11 Q1010
LIVP,2022-11-05T10:55:00Z,LIVP 051055Z 36015KT CAVOK M02/M07 Q1011
LIVR,2022-11-05T10:55:00Z,LIVR 051055Z 29009KT CAVOK 02/M04 Q1010 RMK SKC MON LIB VIS MIN 9999
LIVT,2022-11-05T10:55:00Z,LIVT 051055Z AUTO 12006G16KT //// 16/03 Q1010
LJCE,2022-11-05T11:30:00Z,LJCE 051130Z VRB02KT CAVOK 11/07 Q1014 RMK BLU
LJLJ,2022-11-05T11:30:00Z,LJLJ 051130Z 14003KT 090V200 9999 FEW050 BKN140 10/06 Q1013 NOSIG
LJMB,2022-11-05T11:30:00Z,LJMB 051130Z 01005KT CAVOK 12/04 Q1013
LJPZ,2022-11-05T11:30:00Z,LJPZ 051130Z 07007KT 010V120 CAVOK 18/03 Q1011
LKCV,2022-11-05T11:30:00Z,LKCV 051130Z 31014KT 9999 SCT022 BKN060 11/07 Q1016 NOSIG RMK BLU BLU
LKKB,2022-11-05T11:00:00Z,LKKB 051100Z 32006KT 280V360 9999 SCT024 SCT040 11/06 Q1017 NOSIG
LKKV,2022-11-05T11:30:00Z,LKKV 051130Z 27004KT 220V330 9999 BKN020 09/03 Q1017
LKLN,2022-11-05T11:00:00Z,LKLN 051100Z AUTO VRB03KT 9999 FEW014 OVC075 10/07 Q1018
LKMT,2022-11-05T11:30:00Z,LKMT 051130Z 36008KT 9999 BKN012 OVC028 09/07 Q1015 NOSIG
LKNA,2022-11-05T11:30:00Z,LKNA 051130Z 32012KT 9999 BKN013 08/06 Q1015 NOSIG RMK GRN GRN
LKPD,2022-11-05T11:30:00Z,LKPD 051130Z 30006KT 9999 SCT015 BKN033 10/07 Q1016 NOSIG RMK BLU BLU
LKPR,2022-11-05T11:30:00Z,LKPR 051130Z 32008KT 9999 SCT022 SCT031 BKN043 10/05 Q1017 NOSIG
LKTB,2022-11-05T11:30:00Z,LKTB 051130Z 34009KT 9999 SCT023 11/07 Q1015 NOSIG
LLBG,2022-11-05T11:50:00Z,LLBG 051150Z 32010KT CAVOK 26/13 Q1014 NOSIG
LLER,2022-11-05T11:50:00Z,LLER 051150Z 02012KT CAVOK 27/09 Q1012 RMK FEW070
LLHA,2022-11-05T11:50:00Z,LLHA 051150Z 35013KT CAVOK 25/16 Q1014
LLIB,2022-11-05T11:50:00Z,LLIB 051150Z AUTO VRB04KT CAVOK 28/03 Q1014 RMK SCT100
LMML,2022-11-05T11:45:00Z,LMML 051145Z 29025G41KT 250V310 8000 -SHRA SCT025CB 19/11 Q1008 TEMPO 5000
LOAN,2022-11-05T11:00:00Z,LOAN 051100Z 33014G24KT 9999 SCT030
LOAV,2022-11-05T11:00:00Z,LOAV 051100Z 32010G22KT 9999 SCT025 13/09
LOWG,2022-11-05T11:50:00Z,LOWG 051150Z 36011KT 9999 FEW050 12/04 Q1014 NOSIG
LOWI,2022-11-05T11:50:00Z,LOWI 051150Z VRB02KT 9999 FEW010 SCT018 BKN060 08/04 Q1019 NOSIG
LOWK,2022-11-05T11:50:00Z,LOWK 051150Z AUTO 33003KT 270V360 9999 FEW040 10/07 Q1014 NOSIG
LOWL,2022-11-05T11:50:00Z,LOWL 051150Z AUTO 26011KT 9999 FEW012 SCT013 BKN070 09/06 Q1018 TEMPO SCT012 BKN014
LOWS,2022-11-05T11:50:00Z,LOWS 051150Z 15003KT 9999 -RADZ FEW006 SCT020 BKN028 07/06 Q1019 RERA NOSIG
LOWW,2022-11-05T11:50:00Z,LOWW 051150Z 33017KT 9999 FEW024 BKN028 12/06 Q1015 NOSIG
LOXZ,2022-11-05T11:50:00Z,LOXZ 051150Z VRB01KT 9999 FEW040 SCT055 BKN170 09/03 Q1015 NOSIG
LPAZ,2022-11-05T11:30:00Z,LPAZ 051130Z 29010KT 9000 SCT005 BKN011 20/20 Q1024
LPBJ,2022-11-05T11:00:00Z,LPBJ 051100Z VRB02KT CAVOK 17/06 Q1023
LPCS,2022-11-05T11:30:00Z,LPCS 051130Z VRB03KT CAVOK 18/10 Q1023
LPFL,2022-11-05T11:30:00Z,LPFL 051130Z VRB03KT 9999 FEW028 19/11 Q1025
LPFR,2022-11-05T11:30:00Z,LPFR 051130Z 11007KT CAVOK 20/14 Q1022
LPHR,2022-11-05T11:30:00Z,LPHR 051130Z 31007KT 270V330 9999 FEW018 19/10 Q1025
LPLA,2022-11-05T11:00:00Z,LPLA 051100Z /////KT 9999 FEW023 SCT035 18/13 Q1024
LPMA,2022-11-05T11:30:00Z,LPMA 051130Z 03012KT 9999 -RADZ BKN013 FEW015TCU 20/18 Q1024
LPMR,2022-11-05T11:00:00Z,LPMR 051100Z VRB01KT CAVOK 17/08 Q1023
LPMT,2022-11-05T11:00:00Z,LPMT 051100Z 02007KT CAVOK 14/09 Q1023
LPOV,2022-11-05T11:00:00Z,LPOV 051100Z VRB02KT CAVOK 17/13 Q1023
LPPD,2022-11-05T11:30:00Z,LPPD 051130Z 36012KT 9999 FEW007 SCT015 BKN030 18/16 Q1024
LPPR,2022-11-05T11:30:00Z,LPPR 051130Z 13004KT 090V170 CAVOK 16/08 Q1023
LPPS,2022-11-05T11:30:00Z,LPPS 051130Z 05007KT 360V080 9999 SCT015 22/17 Q1024
LPPT,2022-11-05T11:30:00Z,LPPT 051130Z 07005G19KT 030V100 CAVOK 16/09 Q1023
LQBK,2022-11-05T11:30:00Z,LQBK 051130Z 28004KT 9999 -RA FEW013 BKN030 OVC040 09/08 Q1013 NOSIG
LQMO,2022-11-05T11:20:00Z,LQMO 051120Z VRB01KT 8000 SHRA FEW010 FEW040TCU BKN045 15/14 Q1004
LQSA,2022-11-05T11:30:00Z,LQSA 051130Z 29010KT 8000 RA SCT012 OVC035 08/08 Q1010 NOSIG
LQTZ,2022-11-05T11:30:00Z,LQTZ 051130Z 28007KT 7000 -RA FEW010 BKN018 OVC030 09/09 Q1011
LRAR,2022-11-05T11:30:00Z,LRAR 051130Z 20005KT CAVOK 16/12 Q1009
LRBC,2022-11-05T11:30:00Z,LRBC 051130Z 17008KT 6000 BKN014 BKN017 13/11 Q1014
LRBM,2022-11-05T11:30:00Z,LRBM 051130Z AUTO 10006KT 9999 FEW065/// BKN095/// 18/09 Q1010
LRBS,2022-11-05T11:30:00Z,LRBS 051130Z AUTO 05011KT 360V100 9999 NCD 19/13 Q1012 NOSIG
LRCK,2022-11-05T11:30:00Z,LRCK 051130Z 11015KT 9999 SCT009 BKN020 17/14 Q1013 TEMPO BKN010
LRCL,2022-11-05T11:30:00Z,LRCL 051130Z 06008KT 030V090 CAVOK 15/08 Q1011
LRCV,2022-11-05T11:30:00Z,LRCV 051130Z 07008KT CAVOK 17/09 Q1010
LRIA,2022-11-05T11:30:00Z,LRIA 051130Z 14014KT 9999 SCT025 BKN040 16/10 Q1015
LROD,2022-11-05T11:30:00Z,LROD 051130Z 32002KT CAVOK 17/12 Q1010
LROP,2022-11-05T11:30:00Z,LROP 051130Z 06014KT 9000 FEW017 18/13 Q1012 BECMG SCT015
LRSB,2022-11-05T11:30:00Z,LRSB 051130Z 13006KT CAVOK 15/08 Q1010
LRSM,2022-11-05T11:30:00Z,LRSM 051130Z 12004KT CAVOK 16/10 Q1010
LRSV,2022-11-05T11:30:00Z,LRSV 051130Z 14011KT 6000 BKN011 14/12 Q1013
LRTC,2022-11-05T11:30:00Z,LRTC 051130Z 11014KT 9999 FEW015 BKN025 16/09 Q1014
LRTM,2022-11-05T11:30:00Z,LRTM 051130Z 07004KT CAVOK 14/09 Q1011
LRTR,2022-11-05T11:30:00Z,LRTR 051130Z 29005KT CAVOK 16/13 Q1010 NOSIG
LSGC,2022-11-05T11:50:00Z,LSGC 051150Z 36003KT 310V070 9999 BKN015 BKN025 04/01 Q1020
LSGG,2022-11-05T11:50:00Z,LSGG 051150Z 10006KT 070V140 9999 FEW035 10/04 Q1021 NOSIG
LSGS,2022-11-05T11:50:00Z,LSGS 051150Z VRB03KT 9999 FEW020 SCT090 11/03 Q1019
LSMA,2022-11-05T11:50:00Z,LSMA 051150Z AUTO 00000KT 9999NDV -RA FEW010 BKN035 OVC043 08/05 Q1021 RMK
LSMD,2022-11-05T11:50:00Z,LSMD 051150Z AUTO 29004KT 260V360 9999NDV FEW013 BKN015 OVC049 09/06 Q1021 RMK
LSME,2022-11-05T11:50:00Z,LSME 051150Z AUTO VRB02KT 9999NDV -SHRA BKN026 OVC034 08/06 Q1021 RMK
LSMM,2022-11-05T11:50:00Z,LSMM 051150Z AUTO VRB02KT 9999NDV FEW014 BKN017 OVC023 07/06 Q1021 RMK
LSMP,2022-11-05T11:50:00Z,LSMP 051150Z AUTO VRB02KT 9999NDV FEW021 OVC045 10/04 Q1021 RMK
LSZA,2022-11-05T11:50:00Z,LSZA 051150Z AUTO 02009KT 350V080 9999 NCD 18/00 Q1013
LSZB,2022-11-05T11:50:00Z,LSZB 051150Z 15004KT 9999 FEW016 BKN050 09/06 Q1021
LSZC,2022-11-05T11:50:00Z,LSZC 051150Z AUTO VRB01KT 9999 -RA SCT032 BKN036 08/06 Q1021
LSZG,2022-11-05T11:50:00Z,LSZG 051150Z 31003KT 260V350 9999 FEW034 BKN050 11/03 Q1021
LSZH,2022-11-05T11:50:00Z,LSZH 051150Z 24007KT 9999 -SHRA FEW012 SCT018 BKN030 09/06 Q1021 NOSIG
LSZL,2022-11-05T11:50:00Z,LSZL 051150Z AUTO 10009KT 060V160 9999NDV FEW100 19/M00 Q1013 RMK
LSZR,2022-11-05T11:50:00Z,LSZR 051150Z 25007KT 200V280 9999 -RA FEW018 BKN035 08/07 Q1020 RMK F
LSZS,2022-11-05T11:50:00Z,LSZS 051150Z 21002KT 9999 FEW049 BKN055 01/M02 Q1016 RMK K TL170
LTAC,2022-11-05T11:20:00Z,LTAC 051120Z 19009KT 160V220 CAVOK 20/01 Q1019 NOSIG RMK RWY21L 18008KT RWY03L 19009KT 160V220 RWY21R 19010KT 160V220
LTAE,2022-11-05T10:50:00Z,LTAE 051050Z VRB04KT CAVOK 20/03 Q1019 NOSIG RMK RWY21 21003KT 120V280
LTAF,2022-11-05T11:20:00Z,LTAF 051120Z VRB03KT CAVOK 27/11 Q1015 NOSIG RMK RWY23 VRB04KT SKC
LTAG,2022-11-05T11:20:00Z,LTAG 051120Z 25006KT CAVOK 26/06 Q1014 NOSIG RMK SKC
LTAI,2022-11-05T11:20:00Z,LTAI 051120Z 18007KT 9999 FEW030 23/13 Q1017 NOSIG RMK RWY18C 16007KT RWY36R 16006KT 130V220 RWY18L 17007KT 140V200
LTAJ,2022-11-05T11:20:00Z,LTAJ 051120Z 13004KT 060V170 9999 FEW040 22/02 Q1017 NOSIG RMK RWY10 VRB02KT 1CU040
LTAL,2022-11-05T10:50:00Z,LTAL 051050Z 24012KT CAVOK 19/M00 Q1018
LTAN,2022-11-05T10:50:00Z,LTAN 051050Z 16004KT 110V220 CAVOK 18/01 Q1020 NOSIG
LTAP,2022-11-05T11:20:00Z,LTAP 051120Z VRB02KT CAVOK 19/05 Q1017 NOSIG RMK RWY23 18005KT 150V220
LTAR,2022-11-05T10:50:00Z,LTAR 051050Z 26010KT 240V300 9999 SCT040 13/M01 Q1022
LTAS,2022-11-05T10:50:00Z,LTAS 051050Z VRB01KT 9999 FEW040 BKN200 23/12 Q1015
LTAT,2022-11-05T11:20:00Z,LTAT 051120Z VRB03KT 9999 FEW040 21/M02 Q1020 NOSIG RMK RWY03 19004KT 110V240
LTAU,2022-11-05T11:20:00Z,LTAU 051120Z VRB01KT 9999 FEW040 18/00 Q1020 NOSIG RMK RWY07 VRB02KT
LTAW,2022-11-05T10:50:00Z,LTAW 051050Z VRB03KT 9999 FEW040 18/05 Q1017
LTAY,2022-11-05T10:50:00Z,LTAY 051050Z 09007KT 9999 FEW035 22/00 Q1018
LTAZ,2022-11-05T11:20:00Z,LTAZ 051120Z 36003KT 270V080 9999 FEW040 21/M01 Q1020 RMK RWY29 30002KT
LTBA,2022-11-05T11:20:00Z,LTBA 051120Z 23006KT CAVOK 22/08 Q1014 RMK RWY23 24007KT
LTBD,2022-11-05T10:50:00Z,LTBD 051050Z 07007KT CAVOK 26/06 Q1015
LTBF,2022-11-05T10:50:00Z,LTBF 051050Z 00000KT CAVOK 25/05 Q1014 NOSIG
LTBH,2022-11-05T10:50:00Z,LTBH 051050Z 26008KT 230V300 CAVOK 23/11 Q1013
LTBJ,2022-11-05T11:20:00Z,LTBJ 051120Z 20006KT 160V240 CAVOK 26/06 Q1014 NOSIG RMK RWY16 22005KT 160V280
LTBO,2022-11-05T10:50:00Z,LTBO 051050Z VRB05KT CAVOK 22/M01 Q1018
LTBQ,2022-11-05T10:50:00Z,LTBQ 051050Z VRB02KT CAVOK 27/07 Q1014 NOSIG
LTBR,2022-11-05T11:20:00Z,LTBR 051120Z VRB01KT CAVOK 24/07 Q1015 NOSIG RMK RWY07 VRB02KT
LTBS,2022-11-05T11:20:00Z,LTBS 051120Z 19009KT 9999 SCT030 23/17 Q1017 NOSIG RMK RWY19 19012KT 160V220 3CU030
LTBU,2022-11-05T11:20:00Z,LTBU 051120Z 20010KT CAVOK 25/05 Q1014 RMK RWY22 23010KT 190V250
LTBY,2022-11-05T10:50:00Z,LTBY 051050Z 11004KT 060V160 CAVOK 20/02 Q1018
LTCA,2022-11-05T10:50:00Z,LTCA 051050Z VRB02KT 9999 FEW035 SCT100 20/01 Q1019 NOSIG
LTCB,2022-11-05T10:50:00Z,LTCB 051050Z 07006KT CAVOK 17/12 Q1017
LTCC,2022-11-05T11:20:00Z,LTCC 051120Z VRB03KT CAVOK 22/00 Q1018 NOSIG RMK RWY16 01004KT 290V100 1AC100
LTCD,2022-11-05T10:50:00Z,LTCD 051050Z 23011KT 200V260 CAVOK 17/M01 Q1019 NOSIG
LTCE,2022-11-05T11:20:00Z,LTCE 051120Z 25017KT 9999 SCT040 12/M06 Q1019 NOSIG RMK RWY08R 24015KT RWY26R 26019KT 220V280 RWY08L 25016KT 3SC040
LTCF,2022-11-05T10:50:00Z,LTCF 051050Z 23017KT 9999 SCT040 12/M04 Q1018
LTCG,2022-11-05T11:20:00Z,LTCG 051120Z 09007KT CAVOK 17/12 Q1018 NOSIG RMK RWY29 10007KT
LTCI,2022-11-05T10:50:00Z,LTCI 051050Z 30009KT 9999 SCT030 13/M02 Q1023 NOSIG
LTCJ,2022-11-05T11:20:00Z,LTCJ 051120Z 25003KT 200V320 CAVOK 22/03 Q1018 NOSIG RMK RWY20 28001KT 2AC100
LTCK,2022-11-05T10:50:00Z,LTCK 051050Z 30005KT 250V350 9999 SCT035 16/M02 Q1019
LTCL,2022-11-05T10:50:00Z,LTCL 051050Z VRB04KT 9999 FEW040 22/03 Q1019
LTCN,2022-11-05T10:50:00Z,LTCN 051050Z 25004KT 190V310 9999 FEW040 23/03 Q1018 NOSIG
LTCO,2022-11-05T10:50:00Z,LTCO 051050Z 23017KT 9999 SCT070 13/M02 Q1018
LTCP,2022-11-05T10:50:00Z,LTCP 051050Z 17006KT 140V220 9999 FEW040 21/02 Q1018
LTCR,2022-11-05T10:50:00Z,LTCR 051050Z VRB05KT 9999 FEW040 23/04 Q1018
LTCS,2022-11-05T11:20:00Z,LTCS 051120Z VRB04KT CAVOK 21/M00 Q1019 RMK RWY22 30008KT 270V330 SKC
LTCT,2022-11-05T10:50:00Z,LTCT 051050Z 12006KT 080V160 9999 FEW080 SCT180 16/00 Q1017
LTCU,2022-11-05T10:50:00Z,LTCU 051050Z 32005KT 220V010 9999 FEW035 18/M00 Q1019
LTCV,2022-11-05T10:50:00Z,LTCV 051050Z 19004KT 120V260 9999 FEW040 23/M01 Q1018
LTCW,2022-11-05T10:50:00Z,LTCW 051050Z 18010KT 130V220 9999 SCT035 13/M04 Q1021
LTDA,2022-11-05T10:50:00Z,LTDA 051050Z VRB02KT CAVOK 24/09 Q1016 NOSIG
LTFB,2022-11-05T10:50:00Z,LTFB 051050Z 27012KT CAVOK 25/07 Q1015
LTFC,2022-11-05T11:20:00Z,LTFC 051120Z 08002KT CAVOK 21/01 Q1018 RMK RWY23 VRB02KT
LTFD,2022-11-05T10:50:00Z,LTFD 051050Z 28006KT 250V310 CAVOK 24/06 Q1014
LTFE,2022-11-05T11:20:00Z,LTFE 051120Z 18009KT 150V230 9999 FEW035 27/07 Q1015 NOSIG RMK RWY10 21011KT
LTFG,2022-11-05T10:50:00Z,LTFG 051050Z 22008KT 190V270 9999 FEW030CB 23/17 Q1017
LTFH,2022-11-05T10:50:00Z,LTFH 051050Z 09005KT 050V140 CAVOK 22/11 Q1016 NOSIG
LTFJ,2022-11-05T11:20:00Z,LTFJ 051120Z 23005KT 210V270 CAVOK 26/05 Q1014 NOSIG RMK RWY24 24004KT
LTFM,2022-11-05T11:20:00Z,LTFM 051120Z 22015KT CAVOK 24/06 Q1014 NOSIG RMK RWY17L 21013KT RWY34L 20014KT RWY16R 21012KT RWY36 22015KT RWY18 22015KT
LTFO,2022-11-05T10:50:00Z,LTFO 051050Z VRB02KT 9999 FEW035 SCT100 17/13 Q1017
LUBM,2022-11-05T11:30:00Z,LUBM 051130Z 13014KT 9999 BKN039 14/09 Q1016
LUKK,2022-11-05T11:30:00Z,LUKK 051130Z 13013KT CAVOK 16/06 Q1016 NOSIG
LWOH,2022-11-05T11:30:00Z,LWOH 051130Z 31004KT 9999 FEW020 OVC043 14/09 Q1009
LXGB,2022-11-05T11:20:00Z,LXGB 051120Z 08003KT 9999 FEW030 22/11 Q1021 NOSIG RMK BLU BLU
LYBE,2022-11-05T11:30:00Z,LYBE 051130Z 27010KT 5000 BR OVC003 11/11 Q1010 NOSIG
LYBT,2022-11-05T11:30:00Z,LYBT 051130Z 29006KT 4000 -DZ BR BKN005 11/11 Q1010 NOSIG
LYKV,2022-11-05T11:30:00Z,LYKV 051130Z 28004KT 9999 SCT033 15/15 Q1008 NOSIG
LYNI,2022-11-05T11:30:00Z,LYNI 051130Z VRB02KT CAVOK 19/08 Q1009 NOSIG
LYPG,2022-11-05T11:30:00Z,LYPG 051130Z 33008KT 9999 -RA FEW007 SCT027 SCT034 15/15 Q1007 RERA NOSIG
LYTV,2022-11-05T11:30:00Z,LYTV 051130Z VRB01KT 9999 FEW010 SCT043 OVC083 16/15 Q1006 NOSIG
LYVR,2022-11-05T11:30:00Z,LYVR 051130Z AUTO 31007KT CAVOK 17/14 Q1010
LZIB,2022-11-05T11:30:00Z,LZIB 051130Z 33011KT 9999 BKN026 12/07 Q1014 NOSIG
LZKZ,2022-11-05T11:30:00Z,LZKZ 051130Z 02011KT 3500 -RA BR OVC011 10/10 Q1011 TEMPO BKN009
LZPP,2022-11-05T11:30:00Z,LZPP 051130Z 33015KT 9999 BKN025 11/07 Q1013
LZTT,2022-11-05T11:30:00Z,LZTT 051130Z 24008KT 9000 -RA SCT007 BKN016 07/06 Q1012 NOSIG
LZZI,2022-11-05T11:30:00Z,LZZI 051130Z 09004KT 060V120 9999 -RA OVC020 09/07 Q1014
MBPV,2022-11-05T11:00:00Z,MBPV 051100Z 09006KT 9999 SCT015 23/17 Q1010
MDCY,2022-11-05T11:00:00Z,MDCY 051100Z 00000KT 8000 VCSH FEW014CB SCT016 BKN070 22/22 Q1011 CB/E/SE
MDJB,2022-11-05T11:00:00Z,MDJB 051100Z 00000KT 9999 BKN016 BKN070 22/21 Q1011
MDLR,2022-11-05T11:00:00Z,MDLR 051100Z 00000KT 7000 -RA FEW016CB BKN016 OVC070 21/21 Q1010 CB/E
MDPC,2022-11-05T11:00:00Z,MDPC 051100Z 06005KT 8000 -RA FEW016CB BKN018 BKN070 23/22 Q1012 RETS CB/SE/S DISIP
MDPP,2022-11-05T11:00:00Z,MDPP 051100Z 00000KT 9999 SCT016 22/22 Q1010
MDSD,2022-11-05T11:00:00Z,MDSD 051100Z 08005KT 7000 -RA FEW014CB BKN015 OVC070 22/21 Q1011 CB/SW
MDST,2022-11-05T11:00:00Z,MDST 051100Z 00000KT 9999 SCT016 BKN070 23/22 Q1011
MGGT,2022-11-05T11:20:00Z,MGGT 051120Z 18006KT 5000 -DZ BR SCT002 OVC014
MGMM,2022-11-05T11:00:00Z,MGMM 051100Z 00000KT CAVOK 23/22 Q1012 A2988 FEW090
MGPB,2022-11-05T11:00:00Z,MGPB 051100Z 00000KT CAVOK 24/23 Q1008 A2977
MHPR,2022-11-05T11:00:00Z,MHPR 051100Z 00000KT 9999 FEW022 SCT048 BKN090 21/20 Q1015 A2998 NOSIG
MKJP,2022-11-05T11:00:00Z,MKJP 051100Z 01012KT 9999 FEW022 26/20 Q1009
MKJS,2022-11-05T11:00:00Z,MKJS 051100Z 14004KT 9999 FEW024 25/22 Q1009
MMCE,2022-11-05T11:49:00Z,MMCE 051149Z 13012KT 7SM FEW100 26/24 A2982 RMK SLP095 5//// 924 8/080 RTS
MMCM,2022-11-05T11:53:00Z,MMCM 051153Z 00000KT 6SM SCT015 BKN100 24/24 A2986 RMK SLP113 5/// 900 8/570 RTS
MMCP,2022-11-05T11:11:00Z,MMCP 051111Z RTD 13008KT 7SM SKC 24/23 A2983 RMK RTS
MMDO,2022-11-05T11:05:00Z,MMDO 051105Z RTD 14004KT 6SM SKC 02/M01 A3020 RMK RTS
MMMX,2022-11-05T10:47:00Z,MMMX 051047Z 00000KT 6SM SKC 13/11 A3026 NOSIG RMK HZY
MMOX,2022-11-05T11:07:00Z,MMOX 051107Z RTD 00000KT 8SM SCT030 16/14 A3014 RMK 8/500 RTS
MMSP,2022-11-05T10:43:00Z,MMSP 051043Z 00000KT 6SM SKC 09/05 A3015
MMTG,2022-11-05T11:24:00Z,MMTG 051124Z 00000KT 1SM BR BKN001 21/21 A2991 RMK 8/600 VRBL COND
MMTM,2022-11-05T11:06:00Z,MMTM 051106Z RTD 00000KT 6SM BKN025 25/24 A2981 RMK 8/500 LWR ST RTS
MNMG,2022-11-05T11:00:00Z,MNMG 051100Z 00000KT 9999 FEW020 SCT300 22/22 Q1009 A2981 NOSIG
MPDA,2022-11-05T11:00:00Z,MPDA 051100Z VRB01KT 9999 SCT010 BKN080 23/23 Q1010
MPMG,2022-11-05T11:00:00Z,MPMG 051100Z 20008KT 9999 SCT016 SCT080 26/22 Q1009 NOSIG
MPPA,2022-11-05T11:00:00Z,MPPA 051100Z 20007KT 9999 SCT017 BKN080 25/23 Q1009
MPTO,2022-11-05T11:00:00Z,MPTO 051100Z 15007KT 9999 SCT018 BKN090 25/23 Q1009 NOSIG
MROC,2022-11-05T11:28:00Z,MROC 051128Z COR 34003KT 5000 BR -DZ FEW005 BKN015 19/19 A3001 NOSIG
MRPV,2022-11-05T11:54:00Z,MRPV 051154Z 31005KT 4000 BR OVC008 18/18 A3005 NOSIG
MSLP,2022-11-05T11:50:00Z,MSLP 051150Z 08005KT 9999 SCT015 FEW033CB BKN078 25/24 Q1011 A2985 TEMPO 8000 TSRA RMK CB S SW
MTPP,2022-11-05T10:59:00Z,MTPP 051059Z AUTO 11010KT //// ////// 22/21 Q1009 A2981 NOSIG
MUCC,2022-11-05T10:50:00Z,MUCC 051050Z 07002KT 9000 BKN018TCU 21/20 Q1011
MUCF,2022-11-05T10:59:00Z,MUCF 051059Z AUTO 01004KT 20/19 Q1012
MUCL,2022-11-05T10:50:00Z,MUCL 051050Z 06006KT 020V110 9000 FEW018 25/20 Q1012
MUCM,2022-11-05T10:50:00Z,MUCM 051050Z VRB01KT 8000 FEW018 18/17 Q1012
MUCU,2022-11-05T10:50:00Z,MUCU 051050Z 36007KT 9000 FEW020 22/20 Q1010
MUGM,2022-11-05T11:51:00Z,MUGM 051151Z 31008KT 10SM FEW030 FEW080 23/21 A2987 RMK AO2 SLP116 T02330206 10233 20222 53013 $
MUHA,2022-11-05T10:50:00Z,MUHA 051050Z 14005KT 120V190 9000 FEW030 21/20 Q1013
MUHG,2022-11-05T10:50:00Z,MUHG 051050Z VRB01KT 7000 VCFG FEW020 18/18 Q1011
MUSC,2022-11-05T10:50:00Z,MUSC 051050Z 01004KT 8000 SCT020 19/19 Q1012
MUVR,2022-11-05T10:50:00Z,MUVR 051050Z VRB03KT 9999 FEW018 19/18 Q1012
MWCR,2022-11-05T11:00:00Z,MWCR 051100Z 05009KT 9999 FEW018 27/22 Q1010
MYGF,2022-11-05T11:00:00Z,MYGF 051100Z 07007KT 9999 FEW025 22/20 A2994
MYNN,2022-11-05T11:00:00Z,MYNN 051100Z 08003KT 9999 FEW025 23/21 A2992
MYSM,2022-11-05T11:00:00Z,MYSM 051100Z AUTO 08003KT 9999 FEW031/// 23/21 A2990
MZBZ,2022-11-05T11:00:00Z,MZBZ 051100Z 00000KT 9999 SCT020 25/25 A2983 Q1010 NOSIG
NCAI,2022-11-05T11:00:00Z,NCAI 051100Z AUTO 17008KT //// ////// 25/20 Q1010
NCAT,2022-11-05T11:00:00Z,NCAT 051100Z AUTO 13003KT //// ////// ///// Q////
NCMG,2022-11-05T11:00:00Z,NCMG 051100Z AUTO 11004KT //// ////// ///// Q////
NCMH,2022-11-05T11:00:00Z,NCMH 051100Z AUTO 35005KT //// ////// ///// Q1010
NCMK,2022-11-05T11:00:00Z,NCMK 051100Z AUTO NIL
NCMR,2022-11-05T11:00:00Z,NCMR 051100Z AUTO 09005KT //// ////// ///// Q1010
NCNS,2022-11-05T11:00:00Z,NCNS 051100Z AUTO 11002KT //// ////// 25/22 Q1009
NCPK,2022-11-05T11:00:00Z,NCPK 051100Z AUTO NIL
NCPL,2022-11-05T11:00:00Z,NCPL 051100Z AUTO 11004KT //// ////// 25/22 Q1011
NCPY,2022-11-05T11:00:00Z,NCPY 051100Z AUTO 36005KT //// ////// 27/23 Q1011
NCRG,2022-11-05T11:30:00Z,NCRG 051130Z AUTO 10011KT 070V140 9999 FEW027/// SCT036/// 23/18 Q1012
NCRK,2022-11-05T11:00:00Z,NCRK 051100Z AUTO 35004KT //// ////// 25/24 Q1010
NCSW,2022-11-05T11:00:00Z,NCSW 051100Z AUTO 09002KT //// ////// 25/22 Q1010
NFFN,2022-11-05T11:00:00Z,NFFN 051100Z 15004KT 9999 FEW028 SCT048 24/22 Q1014 NOSIG
NFNA,2022-11-05T11:00:00Z,NFNA 051100Z 00000KT 9999 SCT020 SCT045 25/23 Q1014
NFTF,2022-11-05T11:00:00Z,NFTF 051100Z 10005KT 9999 FEW016TCU SCT100 22/21 Q1017
NGTA,2022-11-05T11:00:00Z,NGTA 051100Z 11004KT 9999 FEW020 26/21 Q1012
NIUE,2022-11-05T11:00:00Z,NIUE 051100Z AUTO 15002KT 21/20 Q1014
NLWW,2022-11-05T11:30:00Z,NLWW 051130Z AUTO 13006KT 090V180 9999 SCT020/// BKN029/// 27/24 Q1011 TEMPO 2000 +SHRA BKN010 SCT016CB
NSFA,2022-11-05T11:00:00Z,NSFA 051100Z 15003KT 9999 FEW024 SCT270 24/23 Q1011
NSTU,2022-11-05T10:50:00Z,NSTU 051050Z 13013KT 10SM FEW017 SCT040 BKN100 27/25 A2984 RMK SLP107 T02680246 402950252
NTAA,2022-11-05T11:30:00Z,NTAA 051130Z AUTO 07009KT 9999 -RA BKN024 BKN040 BKN047 23/20 Q1011 BECMG FEW010 SCT015 FEW016CB
NVVV,2022-11-05T11:00:00Z,NVVV 051100Z 04001KT 9999 SCT020 23/22 Q1013
NWWW,2022-11-05T11:30:00Z,NWWW 051130Z AUTO 14006KT 9999 SCT010 SCT056 23/22 Q1016 NOSIG
NZAA,2022-11-05T11:30:00Z,NZAA 051130Z AUTO 20008KT 170V240 9999 FEW030/// 15/10 Q1025 NOSIG
NZCH,2022-11-05T11:30:00Z,NZCH 051130Z AUTO 06008KT 9999 OVC023/// 11/07 Q1028 NOSIG
NZCM,2022-11-05T11:55:00Z,NZCM 051155Z AUTO 00000KT 9999 CLR M15/M21 A2883 RMK AO2 SLP767 T11501213 11130 21155 411261220 58006
NZWN,2022-11-05T11:30:00Z,NZWN 051130Z AUTO 35005KT 9999 OVC038/// 14/08 Q1026 NOSIG
OBBI,2022-11-05T11:30:00Z,OBBI 051130Z 35009KT 310V020 CAVOK 29/14 Q1015 NOSIG
OEAB,2022-11-05T11:00:00Z,OEAB 051100Z 20010KT 9999 FEW020 25/09 Q1024 NOSIG
OEAH,2022-11-05T11:00:00Z,OEAH 051100Z 02007KT CAVOK 30/09 Q1015 NOSIG
OEAO,2022-11-05T11:00:00Z,OEAO 051100Z 24004KT CAVOK 29/04 Q1015 NOSIG
OEBA,2022-11-05T11:00:00Z,OEBA 051100Z 16004KT CAVOK 30/10 Q1020 NOSIG
OEBH,2022-11-05T11:00:00Z,OEBH 051100Z 09008KT CAVOK 32/12 Q1016 NOSIG
OEDF,2022-11-05T11:00:00Z,OEDF 051100Z 36008KT 9999 FEW040 BKN200 30/11 Q1015 NOSIG
OEDM,2022-11-05T11:00:00Z,OEDM 051100Z 18016KT 7000 NSC 30/11 Q1016
OEDR,2022-11-05T11:00:00Z,OEDR 051100Z 35008KT CAVOK 30/11 Q1014
OEGN,2022-11-05T11:00:00Z,OEGN 051100Z 26008KT 9999 FEW030 35/25 Q1011 NOSIG
OEGS,2022-11-05T11:00:00Z,OEGS 051100Z 21015KT 5000 BKN040 31/15 Q1013
OEGT,2022-11-05T11:00:00Z,OEGT 051100Z 17004KT 9999 FEW030 26/02 Q1015 NOSIG
OEHL,2022-11-05T11:00:00Z,OEHL 051100Z 25004KT CAVOK 27/08 Q1016
OEJB,2022-11-05T11:00:00Z,OEJB 051100Z 36010KT 9999 FEW030 SCT060 28/11 Q1015 NOSIG
OEJN,2022-11-05T11:00:00Z,OEJN 051100Z 28010KT CAVOK 34/12 Q1011 NOSIG
OEKJ,2022-11-05T11:00:00Z,OEKJ 051100Z 11008KT 9999 SCT040 29/12 Q1019
OEKM,2022-11-05T11:00:00Z,OEKM 051100Z 10008KT 9999 FEW022 27/03 Q1024 NOSIG
OEMA,2022-11-05T11:00:00Z,OEMA 051100Z 00000KT CAVOK 31/04 Q1015 NOSIG
OEMN,2022-11-05T11:00:00Z,OEMN 051100Z 23005KT CAVOK 35/14 Q1013
OENG,2022-11-05T11:00:00Z,OENG 051100Z 09008KT CAVOK 31/03 Q1019 NOSIG
OEPA,2022-11-05T11:00:00Z,OEPA 051100Z 10008KT 9999 BKN035 24/12 Q1017 NOSIG
OEPS,2022-11-05T10:55:00Z,OEPS 051055Z 12008KT 9000 HZ BKN320 29/12 A3011 RMK AO2A SLP171 WND DATA ESTMD ALSTG/SLP ESTMD T02860123
OERF,2022-11-05T11:00:00Z,OERF 051100Z 12010KT 9999 BKN035 26/02 Q1016 NOSIG
OERK,2022-11-05T11:00:00Z,OERK 051100Z 14008KT CAVOK 28/11 Q1017 NOSIG
OERR,2022-11-05T11:00:00Z,OERR 051100Z 11011KT CAVOK 25/01 Q1016 NOSIG
OESH,2022-11-05T11:00:00Z,OESH 051100Z 03005KT CAVOK 33/07 Q1015 NOSIG
OESK,2022-11-05T11:00:00Z,OESK 051100Z 10008KT CAVOK 28/02 Q1018 NOSIG
OETB,2022-11-05T11:00:00Z,OETB 051100Z 34006KT CAVOK 26/02 Q1015 NOSIG
OETF,2022-11-05T11:00:00Z,OETF 051100Z 34009KT 9999 FEW030 SCT200 29/07 Q1021 NOSIG
OETR,2022-11-05T11:00:00Z,OETR 051100Z 09006KT CAVOK 24/07 Q1018 NOSIG
OEWD,2022-11-05T11:00:00Z,OEWD 051100Z 12010KT CAVOK 33/16 Q1014
OEWJ,2022-11-05T11:00:00Z,OEWJ 051100Z 25006KT 9999 FEW030 BKN200 29/17 Q1012 NOSIG
OEYN,2022-11-05T11:00:00Z,OEYN 051100Z 27010KT CAVOK 32/13 Q1010 NOSIG
OIAA,2022-11-05T11:00:00Z,OIAA 051100Z 29004KT CAVOK 29/02 Q1015
OIAG,2022-11-05T11:00:00Z,OIAG 051100Z 34006KT 9999 SCT040 SCT200 28/09 Q1015
OIAH,2022-11-05T11:00:00Z,OIAH 051100Z 30004KT CAVOK 24/08 Q1017
OIAI,2022-11-05T11:00:00Z,OIAI 051100Z 24004KT CAVOK 26/10 Q1015
OIAM,2022-11-05T11:00:00Z,OIAM 051100Z 32008KT 9999 SCT040 29/01 Q1015
OIAW,2022-11-05T11:30:00Z,OIAW 051130Z 28004KT CAVOK 28/03 Q1014
OIBA,2022-11-05T11:00:00Z,OIBA 051100Z 28012KT 6000 FEW030 BKN200 32/17 Q1013
OIBB,2022-11-05T11:00:00Z,OIBB 051100Z 32008KT CAVOK 28/10 Q1014 A2996 NOSIG
OIBH,2022-11-05T11:00:00Z,OIBH 051100Z 30014KT CAVOK 26/12 Q1014 A2995
OIBJ,2022-11-05T11:00:00Z,OIBJ 051100Z AUTO 08003KT //// // ////// 23/13 Q1017
OIBK,2022-11-05T11:00:00Z,OIBK 051100Z 27014KT CAVOK 30/15 Q1013 NOSIG
OIBL,2022-11-05T11:00:00Z,OIBL 051100Z 30010KT 8000 NSC 30/18 Q1012
OIBP,2022-11-05T11:00:00Z,OIBP 051100Z 29006KT CAVOK 30/12 Q1012 A2990
OIBQ,2022-11-05T11:00:00Z,OIBQ 051100Z 33008KT CAVOK 28/10 Q1015 A2998
OIBS,2022-11-05T11:00:00Z,OIBS 051100Z 27014KT 9999 FEW030 BKN100 31/15 Q1013
OIBV,2022-11-05T11:00:00Z,OIBV 051100Z 29008KT CAVOK 29/14 Q1012
OICC,2022-11-05T11:30:00Z,OICC 051130Z 27010KT CAVOK 18/M12 Q1020 A3013
OICI,2022-11-05T11:00:00Z,OICI 051100Z 25008KT CAVOK 19/M02 Q1021 A3017
OICJ,2022-11-05T11:00:00Z,OICJ 051100Z 16004KT 9999 FEW040 17/M03 Q1021
OICK,2022-11-05T11:00:00Z,OICK 051100Z 28010KT 9999 FEW050 20/M04 Q1019
OICM,2022-11-05T11:00:00Z,OICM 051100Z 31010KT CAVOK 28/01 Q1012
OICS,2022-11-05T11:00:00Z,OICS 051100Z 16008KT 9999 FEW040 18/M04 Q1019 A3010
OIFK,2022-11-05T11:00:00Z,OIFK 051100Z 06006KT CAVOK 22/M03 Q1017 A3004
OIFM,2022-11-05T11:30:00Z,OIFM 051130Z 09004KT 6000 NSC 16/02 Q1021 A3015
OIFS,2022-11-05T11:00:00Z,OIFS 051100Z 09006KT CAVOK 14/M05 Q1022
OIGG,2022-11-05T11:30:00Z,OIGG 051130Z 30004KT 9999 FEW015CB SCT025 BKN070 19/13 Q1017
OIGK,2022-11-05T10:50:00Z,OIGK 051050Z 20006KT 9999 FEW040 14/M07 Q1021
OIHH,2022-11-05T11:00:00Z,OIHH 051100Z 30006KT 9999 FEW040 16/M09 Q1020 A3013
OIHM,2022-11-05T11:00:00Z,OIHM 051100Z 28010KT 9999 SCT040 16/M09 Q1020
OIHR,2022-11-05T11:00:00Z,OIHR 051100Z 33006KT 9999 FEW035 16/00 Q1020
OIIE,2022-11-05T11:30:00Z,OIIE 051130Z 21004KT 9999 FEW040 21/M04 Q1017
OIII,2022-11-05T11:30:00Z,OIII 051130Z 26014KT 9999 FEW040 19/M07 Q1017 A3004
OIIK,2022-11-05T11:00:00Z,OIIK 051100Z 20004KT 9999 FEW030 19/M01 Q1017
OIIP,2022-11-05T11:00:00Z,OIIP 051100Z 30008KT 9999 FEW040 18/M04 Q1016 A3003
OIIS,2022-11-05T11:00:00Z,OIIS 051100Z 20004KT 9999 SCT030CB SCT200 19/01 Q1017
OIKB,2022-11-05T11:30:00Z,OIKB 051130Z 26008KT 6000 FEW030 OVC190 30/22 Q1012 A2989
OIKK,2022-11-05T11:00:00Z,OIKK 051100Z 22004KT 9999 FEW040 SCT200 19/07 Q1020 A3013
OIKO,2022-11-05T11:00:00Z,OIKO 051100Z 16004KT 6000 FEW030CB BKN090 31/17 Q1013
OIKQ,2022-11-05T11:00:00Z,OIKQ 051100Z 25012KT 5000 HZ FEW030 BKN120 30/24 Q1012 NOSIG
OIKR,2022-11-05T11:00:00Z,OIKR 051100Z 29016KT 9999 FEW03 BKN200 20/05 Q1019 A3012
OIMB,2022-11-05T11:00:00Z,OIMB 051100Z 14006KT 9999 SCT035 17/03 Q1019 A3010
OIMC,2022-11-05T10:56:00Z,OIMC 051056Z 14008KT CAVOK 23/11 Q1014
OIMD,2022-11-05T11:00:00Z,OIMD 051100Z 00000KT 9999 BKN030 18/07 Q1015
OIMJ,2022-11-05T11:00:00Z,OIMJ 051100Z 31010KT 9999 SCT030CB 17/M00 Q1018
OIMM,2022-11-05T11:30:00Z,OIMM 051130Z 32006KT 8000 NSC 18/09 Q1017 A3003
OIMN,2022-11-05T11:00:00Z,OIMN 051100Z 23012KT 9999 FEW025 SCT030CB BKN180 17/03 Q1017
OIMQ,2022-11-05T11:00:00Z,OIMQ 051100Z 23008KT 9999 FEW035 19/05 Q1018
OIMS,2022-11-05T11:00:00Z,OIMS 051100Z 26010KT 9999 FEW030CB 20/05 Q1019
OIMT,2022-11-05T11:00:00Z,OIMT 051100Z AUTO 19004KT //// // ////// 24/02 Q1015
OINB,2022-11-05T11:00:00Z,OINB 051100Z 28004KT 9999 FEW025 BKN100 22/15 Q1016
OINE,2022-11-05T11:00:00Z,OINE 051100Z 24006KT 9999 FEW030 BKN200 20/10 Q1016
OING,2022-11-05T11:00:00Z,OING 051100Z 28010KT 7000 FEW045 SCT190 22/13 Q1017 NOSIG
OINK,2022-11-05T11:00:00Z,OINK 051100Z 22004KT 9999 FEW030 BKN180 21/10 Q1014 A2996
OINN,2022-11-05T11:00:00Z,OINN 051100Z 28006KT 9999 SCT023CB SCT027 20/15 Q1016
OINR,2022-11-05T11:00:00Z,OINR 051100Z 33012KT 9999 FEW022CB BKN025 20/14 Q1016
OINZ,2022-11-05T11:00:00Z,OINZ 051100Z 28006KT 9999 BKN027TCU 22/13 Q1016
OISA,2022-11-05T11:00:00Z,OISA 051100Z 02002KT CAVOK 14/M04 Q1021 A3018
OISF,2022-11-05T11:00:00Z,OISF 051100Z 00000KT 7000 FEW040 21/06 Q1019 A3009
OISL,2022-11-05T11:00:00Z,OISL 051100Z 22004KT CAVOK 26/10 Q1015 NOSIG
OISR,2022-11-05T11:00:00Z,OISR 051100Z 26004KT CAVOK 28/14 Q1016 A3000 NOSIG
OISS,2022-11-05T11:30:00Z,OISS 051130Z 18004KT 7000 FEW040 SCT200 20/07 Q1019 A3010
OISY,2022-11-05T11:00:00Z,OISY 051100Z 16004KT 9999 FEW090 BKN200 17/M02 Q1022
OITK,2022-11-05T11:00:00Z,OITK 051100Z 17004KT 9999 SCT035TCU BKN190 17/M01 Q1017
OITL,2022-11-05T11:00:00Z,OITL 051100Z 31010KT 250V340 9999 FEW040TCU BKN180 17/M02 Q1016 NOSIG
OITM,2022-11-05T11:00:00Z,OITM 051100Z 26006KT 9999 FEW040 18/M04 Q1018
OITP,2022-11-05T11:00:00Z,OITP 051100Z 09004KT CAVOK 20/09 Q1016
OITR,2022-11-05T11:00:00Z,OITR 051100Z 15012KT 9999 FEW035 17/M03 Q1018
OITT,2022-11-05T11:30:00Z,OITT 051130Z 24008KT 9999 SCT030 17/M04 Q1019 A3011
OITU,2022-11-05T10:53:00Z,OITU 051053Z 16008KT 9999 SCT040 17/M03 Q1017
OITZ,2022-11-05T11:00:00Z,OITZ 051100Z 25004KT 9999 FEW035 SCT190 15/M03 Q1017 A3004
OIYY,2022-11-05T11:00:00Z,OIYY 051100Z 36002KT 8000 FEW040 SCT200 21/02 Q1019 NOSIG
OIZB,2022-11-05T11:00:00Z,OIZB 051100Z 06006KT 9999 FEW040 26/09 Q1016
OIZC,2022-11-05T11:00:00Z,OIZC 051100Z 21014KT 5000 SA FEW030TCU SCT090 BKN170 31/22 Q1012
OIZH,2022-11-05T11:30:00Z,OIZH 051130Z 02006KT 9999 SCT040TCU 23/09 Q1018 A3008 NOSIG
OIZI,2022-11-05T11:00:00Z,OIZI 051100Z 26008KT 8000 FEW040 BKN100 29/10 Q1016
OIZJ,2022-11-05T11:00:00Z,OIZJ 051100Z 20008KT 5000 BR FEW025 BKN090 29/25 Q1012
OJAQ,2022-11-05T11:00:00Z,OJAQ 051100Z 01011KT CAVOK 27/11 Q1013 NOSIG
OKAS,2022-11-05T10:55:00Z,OKAS 051055Z 00000KT 9999 SCT120 BKN200 28/02 A3000 RMK AO2A SLP153 $
OKBK,2022-11-05T11:00:00Z,OKBK 051100Z 36009KT CAVOK 29/05 Q1016 NOSIG
OLBA,2022-11-05T11:00:00Z,OLBA 051100Z 35009KT 9999 FEW026 25/11 Q1017 NOSIG
OMAA,2022-11-05T11:00:00Z,OMAA 051100Z 30010KT CAVOK 32/17 Q1013 NOSIG
OMAD,2022-11-05T11:17:00Z,OMAD 051117Z 34010KT CAVOK 31/21 Q1013 NOSIG
OMAL,2022-11-05T11:00:00Z,OMAL 051100Z 24004KT 150V320 CAVOK 32/11 Q1015 NOSIG
OMDB,2022-11-05T11:00:00Z,OMDB 051100Z 28009KT 240V350 CAVOK 31/21 Q1013 NOSIG
OMDW,2022-11-05T11:00:00Z,OMDW 051100Z 30009KT CAVOK 31/21 Q1014 NOSIG
OMFJ,2022-11-05T11:00:00Z,OMFJ 051100Z 12010KT 090V150 9999 SCT025 31/21 Q1013 A2991
OMRK,2022-11-05T11:00:00Z,OMRK 051100Z 28010KT CAVOK 31/22 Q1013 A2994
OMSJ,2022-11-05T11:00:00Z,OMSJ 051100Z 28010KT 240V310 9999 FEW040 31/20 Q1014 NOSIG
OOAD,2022-11-05T10:50:00Z,OOAD 051050Z AUTO VRB03KT //// R31///// // NCD 32/12 Q1015 NOSIG
OODQ,2022-11-05T10:50:00Z,OODQ 051050Z AUTO 09009KT CAVOK ////// 30/21 Q1013 NOSIG RMK RH60? 0
OOKB,2022-11-05T10:50:00Z,OOKB 051050Z 25007KT 210V290 9999 FEW030 SCT200 32/17 Q1013 NOSIG
OOMS,2022-11-05T10:50:00Z,OOMS 051050Z 36010KT CAVOK 30/21 Q1013 NOSIG
OOSA,2022-11-05T10:50:00Z,OOSA 051050Z 16008KT CAVOK 30/19 Q1013 NOSIG
OOSH,2022-11-05T10:50:00Z,OOSH 051050Z AUTO 07011KT //// ////// 32/20 Q1012 RMK 1008
OPFA,2022-11-05T10:55:00Z,OPFA 051055Z 05004KT 1200 FU FEW100 27/20 Q1013 NOSIG
OPIS,2022-11-05T11:30:00Z,OPIS 051130Z 09004KT 3000 VCTS FEW030CB SCT040 BKN100 23/18 Q10 15 TEMPO 13015G30KT 2000 TSRA FEW030CB
OPKC,2022-11-05T11:00:00Z,OPKC 051100Z 24013KT 6000 NSC 33/14 Q1013 NOSIG
OPLA,2022-11-05T11:25:00Z,OPLA 051125Z 07008KT 1500 R36/1500N R18/1500N FU FEW100 26/17 Q1013 NOSIG RMK RMID/1300U QFE987 A29.93
OPPS,2022-11-05T11:30:00Z,OPPS 051130Z 18016KT 2100 TSRA FEW025CB SCT040 OVC070 17/16 Q10 20
OPSK,2022-11-05T11:00:00Z,OPSK 051100Z 00000KT 5000 HZ NSC 34/21 Q1009 NOSIG
ORBI,2022-11-05T11:00:00Z,ORBI 051100Z VRB04KT CAVOK 27/02 Q1017 NOSIG
OSDI,2022-11-05T11:00:00Z,OSDI 051100Z 15003KT CAVOK 24/03 Q1018
OSKL,2022-11-05T11:00:00Z,OSKL 051100Z 17006KT CAVOK 24/01 Q1018
OSLK,2022-11-05T11:00:00Z,OSLK 051100Z 28006KT 9999 FEW026 26/15 Q1016
OTBD,2022-11-05T11:30:00Z,OTBD 051130Z 02009KT CAVOK 30/17 Q1014 NOSIG
OTBH,2022-11-05T10:55:00Z,OTBH 051055Z 31004KT 9999 BKN180 32/07 A2993 RMK AO2A SLP136 T03180068 PWINO FZRANO TSNO $
OTHH,2022-11-05T11:00:00Z,OTHH 051100Z 02009KT CAVOK 30/17 Q1014 NOSIG
PAAD,2022-11-05T11:35:00Z,PAAD 051135Z AUTO 28007KT 10SM -SN BKN010 OVC018 M15/M17 A3046 RMK AO2 T11531170
PAAQ,2022-11-05T11:53:00Z,PAAQ 051153Z AUTO 04029G39KT 6SM BLSN CLR M04/M16 A2990 RMK AO2 PK WND 05040/1112 SLP131 T10441156 11039 21061 53027 TSNO
PABA,2022-11-05T11:52:00Z,PABA 051152Z AUTO 29012KT 9SM -SN OVC013 M13/M15 A3045 RMK AO2 SLP319 P0000 60000 T11281150 11128 21139 51029 FZRANO
PABE,2022-11-05T11:53:00Z,PABE 051153Z 28010KT 10SM FEW029 SCT041 M08/M10 A3052 RMK AO2 SLP339 70002 T10831100 11067 21089 51025
PABI,2022-11-05T11:53:00Z,PABI 051153Z AUTO 30008KT 5SM -SN BR OVC060 M12/M14 A3016 RMK AO2 SLP258 P0000 60000 70003 T11221144 11122 21122 51031 TSNO
PABL,2022-11-05T10:56:00Z,PABL 051056Z AUTO 00000KT 10SM FEW001 SCT031 M17/M18 A3041 RMK AO2 SLP299 T11671183 FZRANO $
PABR,2022-11-05T11:53:00Z,PABR 051153Z AUTO VRB03KT 10SM OVC020 M11/M13 A3052 RMK AO2 SNE13 SLP337 P0000 60000 70003 T11061128 11100 21128 51024 TSNO $
PABT,2022-11-05T11:53:00Z,PABT 051153Z 15003KT 10SM OVC070 M17/M20 A3033 RMK AO2 SLP296 4/005 T11721200 11156 21172 51034 $
PABV,2022-11-05T10:56:00Z,PABV 051056Z AUTO 00000KT 10SM OVC120 M09/M13 A2994 RMK AO2 SLP147 T10891128 FZRANO
PACD,2022-11-05T11:53:00Z,PACD 051153Z AUTO 29017KT 10SM SCT024 BKN031 OVC055 04/03 A3061 RMK AO2 SLP366 60003 70007 T00390028 10039 20028 53006 TSNO $
PACV,2022-11-05T11:53:00Z,PACV 051153Z 03003KT 10SM BKN065 M03/M13 A2965 RMK AO2 SLP040 T10281133 11028 21083 51016
PACZ,2022-11-05T11:46:00Z,PACZ 051146Z AUTO 32010KT 10SM OVC025 M03/M08 A3051 RMK AO2 SLP343
PADK,2022-11-05T10:56:00Z,PADK 051056Z AUTO 18016KT OVC024 06/01 A3055 RMK AO2 PK WND 16030/1001 SLP346 T00560011 PWINO $
PADL,2022-11-05T10:56:00Z,PADL 051056Z AUTO 00000KT 10SM CLR M09/M13 A3040 RMK AO2 SLP299 T10891128 FZRANO
PADM,2022-11-05T10:56:00Z,PADM 051056Z AUTO 00000KT 10SM OVC009 M09/M11 A3050 RMK AO2 SLP335 T10941106 FZRANO
PADQ,2022-11-05T11:53:00Z,PADQ 051153Z AUTO 28028G37KT 10SM CLR M01/M10 A3000 RMK AO2 PK WND 28049/1108 SLP160 70005 T10111100 10000 21017 53026 TSNO
PADU,2022-11-05T10:56:00Z,PADU 051056Z AUTO 00000KT 10SM CLR 02/M02 A3073 RMK AO2 SLP410 T00171022 FZRANO
PAED,2022-11-05T10:55:00Z,PAED 051055Z 01010KT 10SM FEW200 M07/M15 A2992 RMK AO2A SLP131 T10681148 $
PAEG,2022-11-05T11:53:00Z,PAEG 051153Z AUTO 00000KT 10SM SCT050 M21/M23 A3015 RMK AO2 SLP235 70001 T12061233 11206 21228 51033 TSNO
PAEH,2022-11-05T10:55:00Z,PAEH 051055Z AUTO 34023G28KT 300V010 10SM BKN037 M03/M08 A3050 RMK AO2 PK WND 34030/1029 SLP341 T10261085
PAEI,2022-11-05T11:47:00Z,PAEI 051147Z AUTO 00000KT 8SM BKN015 OVC025 M14/M16 A3021 RMK AO2 SNB05E46 SLP247 CHINO RWY14 $
PAEN,2022-11-05T11:53:00Z,PAEN 051153Z AUTO 03012KT 10SM CLR M09/M14 A2999 RMK AO2 SLP160 60000 T10891144 11089 21194 51023 TSNO
PAFA,2022-11-05T11:53:00Z,PAFA 051153Z 36006KT 9SM -SN BKN040 BKN070 OVC085 M11/M15 A3025 RMK AO2 SLP257 P0000 60000 70001 T11061150 11094 21122 53037 $
PAFB,2022-11-05T11:28:00Z,PAFB 051128Z AUTO 00000KT 5SM BR BKN030 OVC042 M12/M14 A3022 RMK AO2 SNB04E28 SLP250
PAFE,2022-11-05T10:56:00Z,PAFE 051056Z AUTO 04008KT 10SM OVC070 01/00 A2949 RMK AO2 RAE18 SLP998 P0000 T00110000 FZRANO
PAFM,2022-11-05T11:45:00Z,PAFM 051145Z AUTO 36003KT 10SM SCT001 M18/M19 A3045 RMK AO2 FZRANO
PAFR,2022-11-05T10:55:00Z,PAFR 051055Z AUTO 00000KT 10SM FEW080 M17/M19 A2988 RMK AO2 SLP132 T11681186 VISNO RWY35 CHINO RWY35 $
PAFS,2022-11-05T11:01:00Z,PAFS 051101Z AUTO 10SM OVC037 M21/M23 A3032 RMK AO2 SLP284 T12111228 FZRANO $
PAGA,2022-11-05T10:56:00Z,PAGA 051056Z AUTO 9SM OVC060 M11/M12 A3037 RMK AO2 SNE51 SLP287 P0000 T11061122 FZRANO $
PAGK,2022-11-05T11:53:00Z,PAGK 051153Z AUTO 32012KT 10SM CLR M12/M19 A2988 RMK AO2 SLP164 T11221194 11106 21133 51025 TSNO
PAGL,2022-11-05T10:56:00Z,PAGL 051056Z AUTO 33006KT 10SM CLR M09/M11 A3043 RMK AO2 SLP301 T10941111 PWINO FZRANO $
PAGN,2022-11-05T10:56:00Z,PAGN 051056Z AUTO 00000KT 10SM FEW070 BKN090 00/00 A2953 RMK AO2 SLP988 T00000000 FZRANO
PAGS,2022-11-05T10:56:00Z,PAGS 051056Z AUTO 33007KT 10SM OVC070 M01/M05 A2959 RMK AO2 SLP018 T10061050 FZRANO
PAGY,2022-11-05T11:53:00Z,PAGY 051153Z AUTO 02008KT 10SM OVC090 M02/M12 A2980 RMK AO2 SLP090 70003 T10221122 11017 21022 51031 TSNO
PAHL,2022-11-05T10:56:00Z,PAHL 051056Z AUTO 05003KT 10SM OVC050 M12/M13 A3036 RMK AO2 SLP289 T11221133 FZRANO
PAHN,2022-11-05T11:54:00Z,PAHN 051154Z AUTO 31011KT 10SM OVC060 M04/M10 A2978 RMK AO2 SLP086 70039 T10441100 11033 21044 53022 TSNO $
PAHO,2022-11-05T11:53:00Z,PAHO 051153Z AUTO 00000KT 10SM CLR M08/M13 A3000 RMK AO2 SLP160 T10831128 11033 21083 52021 TSNO $
PAHX,2022-11-05T11:02:00Z,PAHX 051102Z AUTO 15004KT 10SM FEW036 M16/M17 A3042 RMK AO2 SLP302 T11561172 FZRANO
PAHY,2022-11-05T10:56:00Z,PAHY 051056Z AUTO 00000KT 10SM CLR 00/M01 A2945 RMK AO2 SLP970 T00001006 FZRANO $
PAIG,2022-11-05T11:39:00Z,PAIG 051139Z AUTO 29014G21KT 10SM BKN026 M06/M10 A3034 RMK AO2 FZRANO $
PAIK,2022-11-05T10:56:00Z,PAIK 051056Z AUTO 00000KT 10SM FEW027 M19/M21 A3044 RMK AO2 SLP313 T11941211 FZRANO
PAIL,2022-11-05T11:53:00Z,PAIL 051153Z AUTO 32014G23KT 10SM SCT095 M07/M11 A3024 RMK AO2 PK WND 31029/1115 SLP244 60000 70006 T10721111 11056 21072 51038 TSNO
PAIM,2022-11-05T11:39:00Z,PAIM 051139Z AUTO 00000KT 10SM SCT003 M18/M21 A3027 RMK AO2 SLP299
PAIN,2022-11-05T11:13:00Z,PAIN 051113Z AUTO 01005KT 2 1/2SM -SN BR FEW022 SCT028 OVC040 M13/M14 A3010 RMK AO2 VIS 1 1/2V4 P0000 FZRANO
PAIW,2022-11-05T11:16:00Z,PAIW 051116Z AUTO 33015KT 10SM OVC006 M04/M04 A3048 RMK AO2 FZRANO
PAJC,2022-11-05T11:28:00Z,PAJC 051128Z AUTO 27013G24KT 7SM -SN BKN026 OVC031 02/M03 A3047 RMK AO2 RAE11UPB11E14SNB14 FZRANO PNO $
PAJN,2022-11-05T11:53:00Z,PAJN 051153Z 24003KT 10SM SCT090 BKN120 M02/M03 A2960 RMK AO2 SLP022 70031 T10221033 10000 21028 53022
PAJZ,2022-11-05T10:56:00Z,PAJZ 051056Z AUTO 32013G22KT 9SM CLR M07/M12 A3039 RMK AO2 PK WND 32026/1017 SLP298 T10671117 FZRANO $
PAKF,2022-11-05T10:56:00Z,PAKF 051056Z AUTO 29010G25KT 9SM -RA OVC025 A3063 RMK AO2 SLPNO P0000 FZRANO $
PAKH,2022-11-05T10:56:00Z,PAKH 051056Z AUTO 10SM OVC041 A3021 RMK AO2 SLPNO FZRANO TSNO $
PAKI,2022-11-05T10:56:00Z,PAKI 051056Z AUTO 30006KT 10SM CLR M08/M09 A3057 RMK AO2 SLP354 T10831094 FZRANO PNO $
PAKK,2022-11-05T11:11:00Z,PAKK 051111Z AUTO 00000KT 10SM SCT011 OVC050 M07/M08 A3035 RMK AO2 SNE1059 P0000 FZRANO
PAKN,2022-11-05T11:54:00Z,PAKN 051154Z 32010KT 10SM FEW055 M07/M13 A3036 RMK AO2 SLP284 70001 T10721133 11039 21078 53030
PAKP,2022-11-05T10:56:00Z,PAKP 051056Z AUTO 06011KT 9SM -SN OVC027 M16/M17 A3022 RMK AO2 SLP309 P0000 T11561172 FZRANO
PAKT,2022-11-05T11:53:00Z,PAKT 051153Z AUTO 18003KT 10SM OVC039 01/00 A2947 RMK AO2 SLP980 60015 70031 T00060000 10028 20006 53017 TSNO
PAKU,2022-11-05T11:45:00Z,PAKU 051145Z 30003KT 10SM R24/P6000FT -SN OVC011 M13/M15 A3049
PAKV,2022-11-05T11:53:00Z,PAKV 051153Z AUTO 00000KT 10SM FEW055 OVC075 M13/M14 A3042 RMK AO2 SLP308 T11281144 11128 21156 51034 TSNO $
PAKW,2022-11-05T11:53:00Z,PAKW 051153Z AUTO 00000KT 10SM FEW045 SCT080 01/M01 A2946 RMK AO2 SLP975 60001 70050 T00061006 10017 20006 53020 TSNO $
PAKX,2022-11-05T11:55:00Z,PAKX 051155Z AUTO 30003KT 10SM SCT043 OVC055 M05/M10 A3019 RMK AO2
PALG,2022-11-05T10:56:00Z,PALG 051056Z AUTO 00000KT 10SM FEW034 OVC050 M10/M11 A3045 RMK AO2 SLP314 T11001111 FZRANO
PALP,2022-11-05T11:45:00Z,PALP 051145Z VRB02KT 10SM -SN OVC011 M13/M15 A3052
PALU,2022-11-05T11:08:00Z,PALU 051108Z AUTO 12013KT 10SM -SHSN OVC016 M10/M13 A3049 RMK AO2 SLP325
PAMB,2022-11-05T10:56:00Z,PAMB 051056Z AUTO 25008KT 9SM M06/M11 A3041 RMK AO2 SLP303 T10561106 FZRANO $
PAMC,2022-11-05T11:53:00Z,PAMC 051153Z AUTO 00000KT 10SM OVC029 M14/M16 A3038 RMK AO2 SLP297 70001 I6000 T11391156 11106 21161 53039 TSNO $
PAMD,2022-11-05T11:51:00Z,PAMD 051151Z AUTO 34015G21KT 10SM BKN049 M01/M08 A2965 RMK AO2 SLP028 6//// 7//// T10111083 11006 21017 53020 FZRANO PNO $
PAMH,2022-11-05T10:56:00Z,PAMH 051056Z AUTO 00000KT 10SM OVC044 M11/M13 A3026 RMK AO2 SLP256 T11111128 FZRANO
PAMR,2022-11-05T11:53:00Z,PAMR 051153Z 35012G20KT 10SM BKN200 M07/M16 A2995 RMK AO2 SLP145 T10671156 11067 21078 51023
PANA,2022-11-05T10:56:00Z,PANA 051056Z AUTO 29006KT 10SM CLR M09/M11 A3050 RMK AO2 SLP328 T10941106 FZRANO TSNO $
PANC,2022-11-05T11:53:00Z,PANC 051153Z 34009KT 10SM FEW200 M08/M14 A2996 RMK AO2 SLP148 4/006 T10781139 11072 21094 51023
PANI,2022-11-05T10:56:00Z,PANI 051056Z AUTO 33006KT 10SM BKN050 M09/M11 A3048 RMK AO2 SLP315 T10891106 FZRANO $
PANN,2022-11-05T11:53:00Z,PANN 051153Z AUTO 30004KT 10SM OVC065 M12/M14 A3027 RMK AO2 SLP263 T11171144 11106 21117 51038 TSNO
PANV,2022-11-05T10:56:00Z,PANV 051056Z AUTO 24005KT 10SM CLR M11/M12 A3037 RMK AO2 SLP423 T11111122 FZRANO TSNO
PANW,2022-11-05T10:56:00Z,PANW 051056Z AUTO 34010KT 10SM CLR M08/M13 A3036 RMK AO2 SLP289 T10781128 FZRANO
PAOH,2022-11-05T10:56:00Z,PAOH 051056Z AUTO 00000KT 10SM OVC100 M02/M02 A2957 RMK AO2 SLP012 T10171017 FZRANO
PAOM,2022-11-05T11:53:00Z,PAOM 051153Z AUTO 02003KT 10SM BKN055 M13/M16 A3048 RMK AO2 SLP321 T11331161 11061 21139 51035 TSNO
PAOO,2022-11-05T10:56:00Z,PAOO 051056Z AUTO 35003KT BKN035 M07/M09 A3058 RMK AO2 SLP363 T10671089 PWINO FZRANO TSNO $
PAOR,2022-11-05T11:53:00Z,PAOR 051153Z 32004KT 10SM FEW060 M17/M21 A3002 RMK AO2 SLP223 4/007 T11721206 11161 21217 $
PAOT,2022-11-05T11:53:00Z,PAOT 051153Z AUTO 05004KT 10SM CLR M18/M19 A3043 RMK AO2 SLP306 I1000 I6000 T11781189 11133 21189 51037 TSNO
PAOU,2022-11-05T11:27:00Z,PAOU 051127Z AUTO 30026G31KT 7SM BKN019 BKN025 OVC035 04/02 A3055 RMK AO2 PK WND 30031/1127 RAB07E18 PNO $
PAPB,2022-11-05T11:53:00Z,PAPB 051153Z AUTO 23010KT CLR 04/ A3062 RMK AO2 SLP358 70002 T0039 10044 20039 53007 TSNO $
PAPG,2022-11-05T10:56:00Z,PAPG 051056Z AUTO 26004KT 5SM BR OVC008 01/01 A2947 RMK AO2 UPB20E34RAB34E44 SLP984 P0000 T00060006 FZRANO
PAPH,2022-11-05T10:56:00Z,PAPH 051056Z AUTO 32021G28KT 10SM SCT031 SCT035 OVC090 00/M05 A3047 RMK AO2 PK WND 32030/1038 SLP319 T00001050 FZRANO
PAPM,2022-11-05T10:56:00Z,PAPM 051056Z AUTO 33015KT 10SM FEW037 A3053 RMK AO2 SLPNO FZRANO $
PAPO,2022-11-05T10:56:00Z,PAPO 051056Z AUTO 10SM CLR M08/M12 A3045 RMK AO2 SLP310 T10831117 FZRANO PNO $
PAQT,2022-11-05T11:53:00Z,PAQT 051153Z AUTO 02005KT 7SM UP OVC013 M13/M14 A3053 RMK AO2 SNB21E30 SLP341 T11281144 11100 21128 53035 TSNO PNO
PARC,2022-11-05T10:56:00Z,PARC 051056Z AUTO 00000KT 10SM CLR M22/M24 A3012 RMK AO2 SLP285 T12221244 FZRANO
PARS,2022-11-05T11:51:00Z,PARS 051151Z AUTO 00000KT 10SM BKN006 OVC015 A3046 RMK AO2 FZRANO $
PARY,2022-11-05T10:56:00Z,PARY 051056Z AUTO 00000KT 9SM -SN OVC023 M11/M13 A3030 RMK AO2 SLP282 P0000 T11111133 FZRANO
PASA,2022-11-05T11:18:00Z,PASA 051118Z AUTO 00000KT 10SM BKN019 M04/M07 A3054 RMK AO2 FZRANO
PASC,2022-11-05T11:53:00Z,PASC 051153Z 29005KT 10SM OVC012 M13/M15 A3049 RMK AO2 SLP326 T11281150 11106 21133 51035
PASD,2022-11-05T11:17:00Z,PASD 051117Z AUTO 31019G25KT 10SM FEW019 SCT026 BKN033 05/01 A3054 RMK AO2 RAE02 P0000 $
PASH,2022-11-05T10:56:00Z,PASH 051056Z AUTO 33015KT 10SM OVC022 M04/M07 A3042 RMK AO2 SLP300 T10391072 FZRANO
PASI,2022-11-05T10:53:00Z,PASI 051053Z 08003KT 10SM SCT150 02/M02 A2945 RMK SLP972 T00171022
PASK,2022-11-05T10:56:00Z,PASK 051056Z AUTO 00000KT 9SM SCT001 M19/M21 A3044 RMK AO2 SLP304 T11891211 FZRANO
PASL,2022-11-05T10:56:00Z,PASL 051056Z AUTO VRB04KT 9SM -SN SCT043 M09/M11 A3039 RMK AO2 SNE04B45 SLP283 P0000 T10941111 FZRANO
PASM,2022-11-05T10:56:00Z,PASM 051056Z AUTO 26004KT 10SM OVC041 M06/M07 A3047 RMK AO2 SNE26 SLP329 P0000 T10561067 FZRANO
PASN,2022-11-05T11:53:00Z,PASN 051153Z AUTO 24010KT 10SM SCT019 BKN026 03/01 A3060 RMK AO2 SLP364 60000 70001 T00330011 10044 20033 53006 TSNO $
PASO,2022-11-05T11:53:00Z,PASO 051153Z AUTO 01008KT 10SM CLR M03/M08 A2999 RMK AO2 SLP154 7//// T10281083 11017 21033 53020 TSNO $
PASV,2022-11-05T11:31:00Z,PASV 051131Z AUTO 35012G22KT 320V020 1 1/4SM -SN BR OVC003 M11/M13 A3019 RMK AO2 SLP270
PASX,2022-11-05T10:56:00Z,PASX 051056Z AUTO 00000KT 10SM CLR M21/M22 A3000 RMK AO2 SLP167 T12061222 FZRANO
PASY,2022-11-05T10:56:00Z,PASY 051056Z 18032G46KT 7SM OVC010 A2995 RMK AO2A PK WND 18048/1041 SLP140 SLP ESTMD WND DATA ESTMD T00720055 RVRNO PNO $
PATA,2022-11-05T11:52:00Z,PATA 051152Z AUTO 00000KT 10SM OVC045 M10/M13 A3033 RMK AO2 SLP280 T11001133 11094 21111 53035 TSNO $
PATC,2022-11-05T11:45:00Z,PATC 051145Z AUTO 36016KT 10SM -FZDZ BKN004 M04/M05 A3045 RMK AO2 SLP317
PATE,2022-11-05T10:56:00Z,PATE 051056Z AUTO 22007KT 10SM CLR M10/M11 A3042 RMK AO2 SLP310 T11001111 FZRANO
PATG,2022-11-05T10:56:00Z,PATG 051056Z AUTO 30013KT 10SM CLR M06/M09 A3048 RMK AO2 SLP321 T10561089 FZRANO
PATK,2022-11-05T11:53:00Z,PATK 051153Z AUTO 00000KT 10SM CLR M15/M18 A3001 RMK AO2 SLP173 T11501183 11122 21178 53028 TSNO
PATL,2022-11-05T10:55:00Z,PATL 051055Z AUTO 00000KT 10SM -SN OVC021 M10/M12 A3031 RMK AO2 SHSNB0954E1012 SLP295 P0000 T10981122 TSNO $
PATQ,2022-11-05T10:56:00Z,PATQ 051056Z AUTO 04007KT 9SM -SN OVC023 M12/M14 A3051 RMK AO2 SLP337 P0000 T11221139 FZRANO TSNO
PAUN,2022-11-05T11:30:00Z,PAUN 051130Z AUTO 11006KT 10SM SCT026 OVC050 M12/M14 A3042 RMK AO2 FZRANO
PAUT,2022-11-05T11:55:00Z,PAUT 051155Z AUTO 29012KT 10SM SCT030 SCT037 03/00 A3069 RMK AO2
PAVA,2022-11-05T11:47:00Z,PAVA 051147Z AUTO 29008KT 10SM OVC029 M03/M07 A3056 RMK AO2 FZRANO
PAVC,2022-11-05T10:56:00Z,PAVC 051056Z AUTO 27016G24KT 10SM OVC024 04/02 A3059 RMK AO2 PK WND 26029/1017 RAE52 SLP359 T00440017 PNO $
PAVD,2022-11-05T10:56:00Z,PAVD 051056Z AUTO 05024G43KT -SN CLR A2985 RMK AO2 PK WND 01044/1015 SLPNO P0000 FZRANO TSNO $
PAWD,2022-11-05T11:53:00Z,PAWD 051153Z AUTO 33023G36KT 10SM CLR M03/M18 A2984 RMK AO2 PK WND 34039/1134 SLP104 7//// T10331178 11033 21039 51026 TSNO $
PAWG,2022-11-05T10:56:00Z,PAWG 051056Z AUTO 34005KT 10SM OVC009 02/01 A2946 RMK AO2 CIG 007V011 SLP977 T00170006 FZRANO TSNO
PAWI,2022-11-05T11:53:00Z,PAWI 051153Z AUTO 00000KT 10SM OVC026 M09/M12 A3053 RMK AO2 SLP338 T10941122 11083 21100 TSNO $
PAWM,2022-11-05T10:56:00Z,PAWM 051056Z AUTO 34010KT 10SM FEW046 M10/M11 A3041 RMK AO2 SLP305 T11001106 FZRANO
PAWN,2022-11-05T11:40:00Z,PAWN 051140Z AUTO 01004KT 10SM CLR M21/M23 A3046 RMK AO2 FZRANO
PAWS,2022-11-05T10:56:00Z,PAWS 051056Z AUTO 00000KT 10SM OVC100 M11/M14 A2993 RMK AO2 SLP144 T11111144 FZRANO
PAYA,2022-11-05T11:53:00Z,PAYA 051153Z AUTO 06005KT 9SM -SN OVC032 M01/M09 A2958 RMK AO2 SNB48 SLP016 P0000 60000 T10111094 11006 21028 53016 TSNO $
PAZK,2022-11-05T10:56:00Z,PAZK 051056Z AUTO 00000KT 10SM FEW060 M18/M21 A2976 RMK AO2 SLP170 T11831211 FZRANO
PFCL,2022-11-05T10:56:00Z,PFCL 051056Z AUTO 31014G20KT 10SM CLR A3040 RMK AO2 SLPNO FZRANO TSNO $
PFEL,2022-11-05T10:56:00Z,PFEL 051056Z AUTO 36003KT 10SM CLR M08/M11 A3039 RMK AO2 SLP295 T10781111 FZRANO
PFKT,2022-11-05T11:48:00Z,PFKT 051148Z AUTO 00000KT 9SM -SN SCT023 OVC034 M07/M09 A3048 RMK AO2 SNB31 P0000 FZRANO
PFKW,2022-11-05T10:56:00Z,PFKW 051056Z AUTO 28007KT 10SM CLR M08/M09 A3048 RMK AO2 SLP323 T10831094 FZRANO
PFNO,2022-11-05T10:56:00Z,PFNO 051056Z AUTO 06005KT 10SM OVC028 M17/M18 A3043 RMK AO2 SLP393 T11671183 FZRANO
PFSH,2022-11-05T10:56:00Z,PFSH 051056Z AUTO 07005KT 10SM BKN048 M09/M11 A3040 RMK AO2 SLP295 T10941106 FZRANO
PFWS,2022-11-05T10:56:00Z,PFWS 051056Z AUTO 31011KT 10SM CLR M06/M11 A3038 RMK AO2 SLP334 T10611106 FZRANO
PFYU,2022-11-05T10:56:00Z,PFYU 051056Z AUTO 00000KT 10SM BKN048 M18/M21 A3027 RMK AO2 SLP271 T11831206 FZRANO
PGSN,2022-11-05T11:54:00Z,PGSN 051154Z 11007KT 10SM SCT016 BKN032 29/26 A2988 RMK AO2 SLP137 60000 T02890261 10311 20283 51016 $
PGUA,2022-11-05T11:38:00Z,PGUA 051138Z AUTO 09005KT 8SM BKN008 BKN013 OVC032 27/26 A2988 RMK AO2 RAE1057RAB07E17RAB26E38 CIG 008V015 CIG 006 RWY24L SLP109 $
PGUM,2022-11-05T11:54:00Z,PGUM 051154Z 05004KT 10SM SCT035 BKN046 28/27 A2988 RMK AO2 SLP109 70026 T02780267 10311 20278 50015 
PHBK,2022-11-05T11:55:00Z,PHBK 051155Z AUTO 00000KT 10SM BKN046 25/19 A3006 RMK AO2 T02500194
PHHI,2022-11-05T11:02:00Z,PHHI 051102Z AUTO 06006KT 10SM FEW038 OVC048 23/18 A3011 RMK AO2 DZE02 SLP185 $
PHJR,2022-11-05T11:53:00Z,PHJR 051153Z AUTO 05004KT 10SM CLR 24/21 A3008 RMK AO2 SLP192 60001 70003 T02440211 10261 20244 58013 TSNO
PHKO,2022-11-05T11:53:00Z,PHKO 051153Z AUTO 13010KT 10SM FEW029 FEW034 27/20 A3004 RMK AO2 SLP170 T02670200 10283 20267 55003 TSNO
PHLI,2022-11-05T11:53:00Z,PHLI 051153Z AUTO 09017KT 9SM FEW018 BKN033 OVC050 A3008 RMK AO2 SLPNO 58014 TSNO $
PHMK,2022-11-05T11:54:00Z,PHMK 051154Z AUTO 08009KT 10SM CLR 26/17 A3007 RMK AO2 SLP181 T02610167 10261 20244 56018 TSNO
PHNG,2022-11-05T10:57:00Z,PHNG 051057Z AUTO 09010G21KT 10SM OVC055 A3006 RMK AO2 PK WND 08026/1009 SLP176
PHNL,2022-11-05T11:53:00Z,PHNL 051153Z 06009KT 10SM FEW025 OVC200 26/21 A3006 RMK AO2 SLP179 60000 T02610211 10272 20256 58016
PHNY,2022-11-05T11:36:00Z,PHNY 051136Z AUTO 11004KT 10SM BKN017 22/21 A3013 RMK AO2 $
PHOG,2022-11-05T11:54:00Z,PHOG 051154Z 07010KT 10SM CLR 27/18 A3005 RMK AO2 SLP179 T02720178 10283 20272 56017
PHSF,2022-11-05T10:58:00Z,PHSF 051058Z AUTO 12012G23KT 10SM SCT140 14/05 A3040 RMK AO2 SLP186 T01360045 $
PHTO,2022-11-05T11:53:00Z,PHTO 051153Z AUTO 06003KT 10SM SCT060 22/19 A3010 RMK AO2 RAB20E29 SLP191 P0000 60004 70196 T02170194 10244 20217 58017 TSNO
PKMR,2022-11-05T10:51:00Z,PKMR 051051Z 08004KT 15SM FEW015 FEW050 OVC300 28/24 A2988 RMK SLP120 T02770241
PKWA,2022-11-05T11:40:00Z,PKWA 051140Z AUTO 08010KT 10SM SCT022 28/24 A2990 RMK AO2 T02780240
PLCH,2022-11-05T11:00:00Z,PLCH 051100Z 11006KT 9999 FEW019 BKN040 26/23 Q1011
PMDY,2022-11-05T10:56:00Z,PMDY 051056Z AUTO 32005KT 10SM FEW034 21/16 A2993 RMK AO2 SLP138 T02110156 402220189 TSNO
PPIZ,2022-11-05T11:53:00Z,PPIZ 051153Z AUTO 07010KT 1 1/4SM HZ CLR M24/M27 A3055 RMK AO2 SNE01 P0000 FZRANO
PTKK,2022-11-05T10:52:00Z,PTKK 051052Z COR VRB03KT 15SM -SHRA SCT013CB OVC110 27/25 A2988 RMK SHRAB13 CB ALQDS SLP120 T02720250
PTPN,2022-11-05T11:50:00Z,PTPN 051150Z 11003KT 15SM SCT017 BKN130 OVC300 27/25 A2985 
PTRO,2022-11-05T11:50:00Z,PTRO 051150Z 00000KT 14SM SCT015 SCT110 BKN290 25/23 A2985 
PTTP,2022-11-05T11:50:00Z,PTTP 051150Z 00000KT 15SM FEW018 SCT130 BKN300 26/24 A2990 RMK SLP124 70105 8/171 T02550239 10280 20255 50007
PTYA,2022-11-05T11:50:00Z,PTYA 051150Z VRB05KT 12SM FEW016 BKN300 28/26 A2986 RMK MDT CU SE SLP112 8/201 T02790256 10302 20274 52017
PWAK,2022-11-05T10:55:00Z,PWAK 051055Z AUTO 00000KT 9999 SCT012 SCT023 BKN050 BKN080 OVC190 26/25 A2991 RMK AO2 RAB38E51 SLP135 P0000 T02620246 $
RCFN,2022-11-05T11:30:00Z,RCFN 051130Z 36007KT 290V080 9999 VCSH FEW010 SCT040 OVC045 21/19 Q1020 NOSIG RMK A3014
RCKH,2022-11-05T11:30:00Z,RCKH 051130Z VRB02KT 9999 FEW016 SCT028 BKN054 26/21 Q1016 NOSIG RMK A3002
RCMQ,2022-11-05T11:30:00Z,RCMQ 051130Z 01015KT 9999 FEW010 SCT030 BKN060 19/15 Q1018 NOSIG RMK A3008 AWOS R36 N/A
RCNN,2022-11-05T11:30:00Z,RCNN 051130Z 02005KT 9999 FEW012 SCT025 BKN050 22/18 Q1017 RMK A3005
RCSS,2022-11-05T11:30:00Z,RCSS 051130Z 10012KT 9999 -DZ FEW006 BKN030 BKN045 19/17 Q1021 NOSIG RMK A3017
RCTP,2022-11-05T11:30:00Z,RCTP 051130Z 06019KT 9999 FEW012 BKN028 BKN040 20/16 Q1021 NOSIG RMK A3016
RJAA,2022-11-05T11:30:00Z,RJAA 051130Z 01006KT 9999 FEW030 12/06 Q1019 NOSIG
RJAH,2022-11-05T11:00:00Z,RJAH 051100Z 34003KT 9999 FEW030 SCT100 08/08 Q1019
RJBB,2022-11-05T11:30:00Z,RJBB 051130Z 04016KT 9999 FEW025 SCT040 15/09 Q1020 NOSIG
RJBE,2022-11-05T11:00:00Z,RJBE 051100Z 04008KT 9999 FEW030 16/07 Q1020
RJCB,2022-11-05T11:00:00Z,RJCB 051100Z VRB01KT 9999 FEW040 01/M04 Q1014
RJCC,2022-11-05T11:30:00Z,RJCC 051130Z 17003KT 130V210 9999 FEW030 SCT060 02/M02 Q1016
RJCH,2022-11-05T11:00:00Z,RJCH 051100Z 32005KT 270V360 9999 FEW030 SCT050 06/02 Q1016
RJCK,2022-11-05T11:00:00Z,RJCK 051100Z 27009KT 9999 FEW040 06/M05 Q1014
RJCM,2022-11-05T11:00:00Z,RJCM 051100Z VRB02KT 9999 FEW050 SCT070 BKN080 03/M01 Q1012
RJCO,2022-11-05T11:00:00Z,RJCO 051100Z 20005KT 9999 FEW030 BKN060 08/M02 Q1016
RJDB,2022-11-05T11:00:00Z,RJDB 051100Z AUTO 31004KT 9999 NCD 10/05 Q1023
RJDC,2022-11-05T11:00:00Z,RJDC 051100Z 32004KT 250V020 9999 FEW025 SCT040 BKN070 14/09 Q1021
RJDT,2022-11-05T11:00:00Z,RJDT 051100Z 27003KT CAVOK 10/00 Q1023
RJEC,2022-11-05T11:00:00Z,RJEC 051100Z 19009KT 150V220 9999 -SHRASN FEW008 SCT020 BKN050 04/M02 Q1013
RJFF,2022-11-05T11:30:00Z,RJFF 051130Z 05004KT 9999 FEW030 11/06 Q1022 NOSIG
RJFK,2022-11-05T11:00:00Z,RJFK 051100Z 35005KT 9999 FEW030 11/05 Q1020
RJFM,2022-11-05T11:00:00Z,RJFM 051100Z 27007KT 9999 FEW030 14/10 Q1020
RJFO,2022-11-05T11:00:00Z,RJFO 051100Z 31007KT 9999 FEW035 14/08 Q1021
RJFR,2022-11-05T11:00:00Z,RJFR 051100Z 27008KT 9999 FEW030 BKN045 15/09 Q1021
RJFS,2022-11-05T11:00:00Z,RJFS 051100Z 35005KT 9999 FEW045 SCT/// 10/06 Q1022
RJFT,2022-11-05T11:00:00Z,RJFT 051100Z 04003KT 350V080 CAVOK 09/05 Q1021
RJFU,2022-11-05T11:00:00Z,RJFU 051100Z 01010KT CAVOK 14/07 Q1022
RJGG,2022-11-05T11:30:00Z,RJGG 051130Z 33014KT 9999 FEW030 16/08 Q1019 NOSIG
RJKA,2022-11-05T11:00:00Z,RJKA 051100Z AUTO 36011KT 9999 FEW038 20/12 Q1020
RJKI,2022-11-05T11:00:00Z,RJKI 051100Z AUTO 01014KT 9999 FEW040 SCT042 21/12 Q1020
RJNK,2022-11-05T11:00:00Z,RJNK 051100Z 10003KT 060V120 9999 FEW030 10/07 Q1021
RJNS,2022-11-05T11:00:00Z,RJNS 051100Z 33004KT 290V360 9999 FEW030 13/08 Q1018
RJNT,2022-11-05T11:00:00Z,RJNT 051100Z 17003KT 9999 FEW040 SCT/// 09/08 Q1021
RJOA,2022-11-05T11:00:00Z,RJOA 051100Z 02006KT 9999 FEW030 12/08 Q1020
RJOB,2022-11-05T11:00:00Z,RJOB 051100Z 34004KT 290V030 9999 FEW025 SCT070 11/09 Q1020
RJOC,2022-11-05T11:00:00Z,RJOC 051100Z 11006KT 9999 FEW008 SCT020 BKN050 12/10 Q1022
RJOF,2022-11-05T11:13:00Z,RJOF 051113Z 28009KT 9999 FEW025 BKN060 13/10 Q1021 RMK 1CU025 5SC060 A3016
RJOH,2022-11-05T11:00:00Z,RJOH 051100Z 07002KT 9999 -SHRA FEW006 SCT008 BKN015 12/12 Q1021
RJOI,2022-11-05T10:56:00Z,RJOI 051056Z 30007KT 9999 FEW020 FEW040 14/08 A3014 RMK AO2 SLP205 T01440078
RJOK,2022-11-05T11:00:00Z,RJOK 051100Z 35010KT 9999 FEW030 16/07 Q1019
RJOM,2022-11-05T11:00:00Z,RJOM 051100Z 31006KT 9999 FEW025 SCT040 16/10 Q1020
RJOO,2022-11-05T11:00:00Z,RJOO 051100Z 32008KT 9999 FEW030 13/07 Q1020
RJOR,2022-11-05T11:00:00Z,RJOR 051100Z 12005KT 9999 FEW010 SCT030 BKN040 13/09 Q1021
RJOS,2022-11-05T11:00:00Z,RJOS 051100Z 03010KT 9999 -SHRA SCT025 BKN040 BKN080 16/10 Q1020
RJOT,2022-11-05T11:00:00Z,RJOT 051100Z 15007KT 9999 VCSH FEW030 SCT050 BKN070 12/08 Q1020
RJSA,2022-11-05T11:00:00Z,RJSA 051100Z 24010KT 9999 FEW020 SCT060 06/00 Q1017
RJSF,2022-11-05T11:00:00Z,RJSF 051100Z 33011KT 9999 FEW060 08/03 Q1020
RJSK,2022-11-05T11:00:00Z,RJSK 051100Z VRB02KT 9999 FEW035 SCT045 09/03 Q1019
RJSM,2022-11-05T11:00:00Z,RJSM 051100Z 24008KT 9999 FEW030 SCT070 07/M01 Q1018
RJSN,2022-11-05T11:00:00Z,RJSN 051100Z 25005KT 9999 FEW040 SCT050 11/01 Q1021
RJSS,2022-11-05T11:00:00Z,RJSS 051100Z 30004KT 280V360 9999 FEW020 08/01 Q1020
RJSY,2022-11-05T11:00:00Z,RJSY 051100Z 28011KT 9999 FEW020 SCT045 BKN070 12/02 Q1020
RJTT,2022-11-05T11:30:00Z,RJTT 051130Z 05009KT 9999 FEW030 SCT090 15/08 Q1019 NOSIG
RJTY,2022-11-05T10:55:00Z,RJTY 051055Z 02003KT 10SM BKN070 13/08 A3014 RMK AO2A SLP211 T01260077 $
RKJB,2022-11-05T11:00:00Z,RKJB 051100Z 08002KT 9999 FEW030 08/04 Q1026 NOSIG
RKJK,2022-11-05T10:55:00Z,RKJK 051055Z AUTO 01003KT 10SM CLR 07/M02 A3027 RMK AO2 SLP255 T00691020
RKNY,2022-11-05T11:00:00Z,RKNY 051100Z 26012KT 230V290 CAVOK 10/M10 Q1022 NOSIG
RKPC,2022-11-05T11:00:00Z,RKPC 051100Z 01006KT 300V060 9999 SCT040 13/04 Q1026 NOSIG
RKPK,2022-11-05T11:00:00Z,RKPK 051100Z 32002KT CAVOK 09/M08 Q1024
RKSG,2022-11-05T10:55:00Z,RKSG 051055Z AUTO 00000KT 10SM CLR 05/03 A3027 RMK AO2 SLP254 T00530025 TSNO $
RKSI,2022-11-05T11:30:00Z,RKSI 051130Z 16003KT CAVOK 09/02 Q1025 NOSIG
RKSM,2022-11-05T11:00:00Z,RKSM 051100Z 19001KT 9999 SKC 06/M02 A3029
RKSO,2022-11-05T10:55:00Z,RKSO 051055Z AUTO 00000KT 9SM CLR 04/01 A3030 RMK AO2 SLP265 T00420009 TSNO CHINO RWY09 $
RKSS,2022-11-05T11:00:00Z,RKSS 051100Z 15004KT CAVOK 07/M02 Q1025 NOSIG
RKTN,2022-11-05T11:00:00Z,RKTN 051100Z 33004KT CAVOK 07/M08 Q1025
RKTU,2022-11-05T11:00:00Z,RKTU 051100Z 10001KT CAVOK 05/M03 Q1026
ROAH,2022-11-05T11:30:00Z,ROAH 051130Z 02019KT 9999 FEW032 SCT045 BKN190 22/15 Q1019
RODN,2022-11-05T10:56:00Z,RODN 051056Z 01012KT 10SM OVC040 22/14 A3008 RMK AO2A SLPNO RVRNO TSNO $
ROIG,2022-11-05T11:00:00Z,ROIG 051100Z 02012KT 9999 -SHRA BKN024 22/18 Q1019
ROMD,2022-11-05T11:00:00Z,ROMD 051100Z AUTO 36010KT 9999 BKN034 23/17 Q1018
ROMY,2022-11-05T11:00:00Z,ROMY 051100Z 03012KT 9999 SCT029 BKN040 22/17 Q1019
RORK,2022-11-05T11:00:00Z,RORK 051100Z AUTO 36013KT 9999 FEW036 23/16 Q1018
RORY,2022-11-05T11:00:00Z,RORY 051100Z AUTO 02012KT 9999 FEW038 SCT042 BKN046 22/13 Q1020
ROTM,2022-11-05T10:56:00Z,ROTM 051056Z 01010KT 9999 SCT035 BKN045 OVC100 21/16 A3008 RMK SLP187 T02080164
ROYN,2022-11-05T11:00:00Z,ROYN 051100Z AUTO 03025KT 9999 UP FEW023 OVC034 22/// Q1020
RPLB,2022-11-05T11:00:00Z,RPLB 051100Z 01004KT 330V050 9999 FEW018 SCT080 26/23 Q1013 RMK A2991
RPLC,2022-11-05T11:00:00Z,RPLC 051100Z 18006KT 9999 FEW020 BKN100 28/23 Q1014 NOSIG RMK A2994
RPLI,2022-11-05T11:00:00Z,RPLI 051100Z 15006KT 9999 FEW017CB BKN018 28/26 Q1012 NOSIG RMK A2988 CB SE-S
RPLL,2022-11-05T11:00:00Z,RPLL 051100Z 11004KT 080V140 9999 FEW023 SCT100 27/23 Q1012 NOSIG RMK A2988
RPMD,2022-11-05T11:00:00Z,RPMD 051100Z 31003KT 280V340 9999 SCT016 BKN090 BKN260 27/26 Q1011 RMK A2985
RPVM,2022-11-05T11:00:00Z,RPVM 051100Z 03007KT 9999 FEW020 SCT300 29/25 Q1011 RMK A2985
RPVP,2022-11-05T11:00:00Z,RPVP 051100Z 03004KT 9999 FEW019 28/25 Q1011 RMK A2985
SAAR,2022-11-05T11:00:00Z,SAAR 051100Z 09011KT CAVOK 17/11 Q1022 RMK PP000
SABE,2022-11-05T11:00:00Z,SABE 051100Z 04010KT 010V070 9999 FEW015 17/13 Q1025 NOSIG RMK PP000
SACO,2022-11-05T11:00:00Z,SACO 051100Z 04005KT CAVOK 18/08 Q1020 NOSIG RMK PP000
SADF,2022-11-05T11:00:00Z,SADF 051100Z 04012KT CAVOK 17/12 Q1025 RMK PP000
SAEZ,2022-11-05T11:00:00Z,SAEZ 051100Z 05011KT 9999 SCT021 18/12 Q1025 NOSIG RMK PP000
SAME,2022-11-05T11:00:00Z,SAME 051100Z 18002KT CAVOK 18/02 Q1015
SANT,2022-11-05T11:00:00Z,SANT 051100Z 35005KT 6000 NSC 17/04 Q1016 RMK PP000
SAOC,2022-11-05T11:00:00Z,SAOC 051100Z 02016G26KT CAVOK 17/07 Q1019
SARC,2022-11-05T11:00:00Z,SARC 051100Z 11011KT CAVOK 17/11 Q1018
SARE,2022-11-05T11:00:00Z,SARE 051100Z 09007KT CAVOK 18/11 Q1018 RMK PP///
SARF,2022-11-05T11:00:00Z,SARF 051100Z 14007KT CAVOK 19/14 Q1017
SARI,2022-11-05T11:00:00Z,SARI 051100Z 08008KT CAVOK 18/11 Q1019 RMK PP000
SARL,2022-11-05T11:00:00Z,SARL 051100Z 11014KT CAVOK 16/13 Q1021
SARP,2022-11-05T11:00:00Z,SARP 051100Z 11008KT CAVOK 18/11 Q1019
SASA,2022-11-05T11:00:00Z,SASA 051100Z VRB01KT 4500 FU NSC 13/M01 Q1021 RMK PP000
SASJ,2022-11-05T11:00:00Z,SASJ 051100Z 32004KT 280V360 1000 R34/P2000N FU NSC 17/02 Q1020 RMK PP000
SAVC,2022-11-05T11:00:00Z,SAVC 051100Z VRB01KT CAVOK 17/04 Q1014 RMK PP000
SAWE,2022-11-05T11:00:00Z,SAWE 051100Z 28018KT CAVOK 16/07 Q1012 RMK PP000
SAWG,2022-11-05T11:00:00Z,SAWG 051100Z 23002KT CAVOK 13/07 Q1014
SAWH,2022-11-05T11:00:00Z,SAWH 051100Z 34003KT 250V010 9999 FEW048 13/08 Q1009 RMK PP000
SAZM,2022-11-05T11:00:00Z,SAZM 051100Z 02008KT CAVOK 16/13 Q1027 RMK PP///
SAZN,2022-11-05T11:00:00Z,SAZN 051100Z 09006KT CAVOK 21/04 Q1013
SAZS,2022-11-05T11:00:00Z,SAZS 051100Z 30005KT 9999 FEW035 SCT100 BKN200 13/09 Q1017 RMK PP///
SBAF,2022-11-05T11:00:00Z,SBAF 051100Z 30002KT 9999 FEW030 21/// Q1021
SBAN,2022-11-05T11:00:00Z,SBAN 051100Z 08011KT 9999 FEW020 20/15 Q1019
SBAX,2022-11-05T11:00:00Z,SBAX 051100Z AUTO 10011KT CAVOK 17/11 Q1020
SBBE,2022-11-05T11:00:00Z,SBBE 051100Z 09005KT 5000 BR BKN006 25/24 Q1012
SBBG,2022-11-05T11:40:00Z,SBBG 051140Z AUTO 09014KT 9999 SCT014 BKN020 17/12 Q1024
SBBH,2022-11-05T11:00:00Z,SBBH 051100Z 11009KT CAVOK 18/09 Q1021
SBBI,2022-11-05T11:00:00Z,SBBI 051100Z 11006KT 9999 SCT020 13/08 Q1024
SBBQ,2022-11-05T11:00:00Z,SBBQ 051100Z 13005KT 090V240 9999 OVC015 13/09 Q1024
SBBR,2022-11-05T11:00:00Z,SBBR 051100Z 09008KT 9999 SCT013 BKN022 18/16 Q1019
SBBU,2022-11-05T11:00:00Z,SBBU 051100Z 16012KT CAVOK 18/12 Q1020
SBCA,2022-11-05T11:00:00Z,SBCA 051100Z 07011KT 9999 FEW025 17/09 Q1021
SBCC,2022-11-05T11:00:00Z,SBCC 051100Z 27005KT 9999 FEW020 BKN070 23/18 Q1014
SBCH,2022-11-05T11:00:00Z,SBCH 051100Z 10006KT CAVOK 16/10 Q1022
SBCJ,2022-11-05T11:00:00Z,SBCJ 051100Z 00000KT 5000 BR SCT003 BKN090 21/20 Q1017
SBCO,2022-11-05T11:00:00Z,SBCO 051100Z 04002KT 9999 FEW015 18/13 Q1024
SBCT,2022-11-05T11:00:00Z,SBCT 051100Z 11008KT 080V140 9999 SCT015 13/10 Q1024
SBCY,2022-11-05T11:00:00Z,SBCY 051100Z 13002KT CAVOK 22/15 Q1014
SBDN,2022-11-05T11:00:00Z,SBDN 051100Z 10015KT CAVOK 17/10 Q1019
SBES,2022-11-05T11:00:00Z,SBES 051100Z 24007KT 200V290 9999 SCT020 21/16 Q1020
SBFL,2022-11-05T11:00:00Z,SBFL 051100Z 29004KT 260V340 9999 FEW030 19/12 Q1023
SBFN,2022-11-05T11:00:00Z,SBFN 051100Z AUTO 14007KT 080V180 9999 SCT015 28/23 Q1014
SBFS,2022-11-05T11:00:00Z,SBFS 051100Z 21014KT 9999 FEW020 23/19 Q1019
SBGO,2022-11-05T11:00:00Z,SBGO 051100Z 14007KT 9999 FEW015 21/16 Q1017
SBGR,2022-11-05T11:00:00Z,SBGR 051100Z 11006KT CAVOK 16/09 Q1022
SBGW,2022-11-05T11:00:00Z,SBGW 051100Z 03002KT 6000 SCT015 SCT035 17/13 Q1022
SBHT,2022-11-05T11:00:00Z,SBHT 051100Z 00000KT 9999 SCT010 BKN080 25/24 Q1013
SBIH,2022-11-05T11:00:00Z,SBIH 051100Z 00000KT 9999 FEW015 SCT080 26/23 Q1012
SBIL,2022-11-05T11:00:00Z,SBIL 051100Z 25008KT 9999 SCT025 OVC080 21/21 Q1017
SBIP,2022-11-05T11:00:00Z,SBIP 051100Z AUTO 18006KT 150V220 CAVOK 20/09 Q1020
SBIZ,2022-11-05T11:00:00Z,SBIZ 051100Z 34003KT 9999 FEW010 25/23 Q1013
SBJP,2022-11-05T11:00:00Z,SBJP 051100Z 07007KT 9999 BKN020 29/22 Q1015
SBJR,2022-11-05T11:00:00Z,SBJR 051100Z 32001KT 9999 FEW030 27/17 Q1020
SBJU,2022-11-05T11:00:00Z,SBJU 051100Z 04005KT 1500 -RA BR BKN009 BKN015 OVC070 22/22 Q1018
SBJV,2022-11-05T11:00:00Z,SBJV 051100Z 15003KT 9999 FEW030 19/15 Q1022
SBKG,2022-11-05T11:00:00Z,SBKG 051100Z 07007KT 9999 SCT020 26/19 Q1016
SBKP,2022-11-05T11:00:00Z,SBKP 051100Z 12012KT 9999 SCT045 16/09 Q1021
SBLB,2022-11-05T11:00:00Z,SBLB 051100Z AUTO 20017KT //// NCD 22/16 Q1018 W/////
SBLO,2022-11-05T11:00:00Z,SBLO 051100Z 15006KT CAVOK 16/10 Q1021
SBLS,2022-11-05T11:00:00Z,SBLS 051100Z 16007KT 100V170 9999 FEW025 17/12 Q1021
SBMA,2022-11-05T11:00:00Z,SBMA 051100Z 24002KT 9999 -RA SCT006 OVC080 23/23 Q1014
SBME,2022-11-05T11:00:00Z,SBME 051100Z 24004KT 9999 FEW030 24/17 Q1019
SBMG,2022-11-05T11:00:00Z,SBMG 051100Z 13010KT 110V190 CAVOK 18/08 Q1019
SBMK,2022-11-05T11:00:00Z,SBMK 051100Z VRB03KT 9999 FEW020 21/13 Q1019
SBMQ,2022-11-05T11:00:00Z,SBMQ 051100Z 07004KT 9999 SCT025 BKN080 26/25 Q1012
SBMT,2022-11-05T11:00:00Z,SBMT 051100Z 08009KT CAVOK 15/09 Q1022
SBNF,2022-11-05T11:00:00Z,SBNF 051100Z 24006KT 9999 SCT040 19/13 Q1022
SBNT,2022-11-05T11:00:00Z,SBNT 051100Z 10008KT 060V140 9999 BKN020 FEW021TCU 28/22 Q1014
SBPB,2022-11-05T11:00:00Z,SBPB 051100Z 21004KT 9999 FEW020 SCT100 29/24 Q1013
SBPF,2022-11-05T11:00:00Z,SBPF 051100Z 08013KT CAVOK 13/08 Q1023
SBPK,2022-11-05T11:00:00Z,SBPK 051100Z 12014KT 9999 BKN020 21/16 Q1025
SBPL,2022-11-05T11:00:00Z,SBPL 051100Z 16006KT 9999 BKN018 BKN070 24/22 Q1016
SBPP,2022-11-05T11:15:00Z,SBPP 051115Z 06010KT CAVOK 21/11 Q1020
SBPR,2022-11-05T11:00:00Z,SBPR 051100Z 19005KT CAVOK 19/10 Q1021
SBRJ,2022-11-05T11:00:00Z,SBRJ 051100Z 01005KT 9999 SCT030 20/17 Q1020
SBRP,2022-11-05T11:00:00Z,SBRP 051100Z 11006KT CAVOK 19/12 Q1019
SBSC,2022-11-05T11:00:00Z,SBSC 051100Z VRB02KT 9999 FEW015 21/17 Q1020
SBSJ,2022-11-05T11:00:00Z,SBSJ 051100Z 34001KT 9999 FEW020 BKN070 16/11 Q1023
SBSM,2022-11-05T11:00:00Z,SBSM 051100Z 10008KT 9999 FEW007 15/13 Q1023
SBSP,2022-11-05T11:00:00Z,SBSP 051100Z 10009KT 080V140 9999 SCT040 SCT080 15/10 Q1023
SBSR,2022-11-05T11:00:00Z,SBSR 051100Z 15007KT CAVOK 17/11 Q1019
SBST,2022-11-05T11:00:00Z,SBST 051100Z 01003KT 9999 FEW010 SCT031 BKN066 19/16 Q1021
SBTA,2022-11-05T11:00:00Z,SBTA 051100Z VRB02KT 9999 BKN015 BKN035 16/11 Q1022
SBTF,2022-11-05T11:15:00Z,SBTF 051115Z 02003KT CAVOK 24/23 Q1013
SBTT,2022-11-05T11:00:00Z,SBTT 051100Z 11002KT CAVOK 21/20 Q1013
SBTU,2022-11-05T11:00:00Z,SBTU 051100Z AUTO VRB02KT 9999 FEW004 BKN007 OVC015 23/22 Q1015
SBUL,2022-11-05T11:00:00Z,SBUL 051100Z 09012KT CAVOK 19/12 Q1019
SBUR,2022-11-05T11:00:00Z,SBUR 051100Z 08008KT CAVOK 19/11 Q1019
SBUY,2022-11-05T11:00:00Z,SBUY 051100Z 00000KT CAVOK 24/22 Q1012
SBVH,2022-11-05T11:00:00Z,SBVH 051100Z 10005KT CAVOK 20/14 Q1015
SBVT,2022-11-05T11:00:00Z,SBVT 051100Z 21012KT 9999 FEW030 24/14 Q1018
SBYS,2022-11-05T11:00:00Z,SBYS 051100Z 17007KT 130V200 CAVOK 17/11 Q1021
SCAP,2022-11-05T11:00:00Z,SCAP 051100Z AUTO /////KT ///V/// //// // ////// ///// Q////
SCAR,2022-11-05T11:00:00Z,SCAR 051100Z 23004KT 9999 OVC030 17/12 Q1017
SCAT,2022-11-05T11:00:00Z,SCAT 051100Z AUTO 24007KT 9000 OVC013/// 12/10 Q1017
SCBA,2022-11-05T11:00:00Z,SCBA 051100Z 00000KT CAVOK 06/03 Q1015
SCCF,2022-11-05T11:00:00Z,SCCF 051100Z 10021KT CAVOK 06/M11 Q1026
SCCH,2022-11-05T11:00:00Z,SCCH 051100Z AUTO 22003KT 170V240 9999 OVC024 12/08 Q1019
SCCI,2022-11-05T11:00:00Z,SCCI 051100Z 36005KT CAVOK 11/07 Q1012 NOSIG
SCCY,2022-11-05T11:00:00Z,SCCY 051100Z 23002KT CAVOK 08/05 Q1015
SCDA,2022-11-05T11:00:00Z,SCDA 051100Z 21003KT 170V250 9999 OVC029 16/09 Q1017
SCFA,2022-11-05T11:00:00Z,SCFA 051100Z 23005KT 9999 OVC023 15/09 Q1017 NOSIG
SCFM,2022-11-05T11:00:00Z,SCFM 051100Z 35004KT 310V060 CAVOK 13/07 Q1013
SCFT,2022-11-05T11:00:00Z,SCFT 051100Z AUTO 29005KT 9999 SCT009/// OVC210/// 11/09 Q1017 MSG PRUEBA
SCIC,2022-11-05T11:00:00Z,SCIC 051100Z AUTO VRB02KT //// R/////// // OVC017 11/08 Q1018
SCIE,2022-11-05T11:00:00Z,SCIE 051100Z 00000KT 9999 BKN015 OVC025 12/09 Q1019
SCIP,2022-11-05T11:00:00Z,SCIP 051100Z 30004KT 260V350 9999 -SHRA SCT035 OVC050 16/13 Q1014 NOSIG
SCJO,2022-11-05T11:00:00Z,SCJO 051100Z AUTO 04004KT 9999 BKN015/// BKN018/// OVC028/// 11/09 Q1018
SCMK,2022-11-05T11:00:00Z,SCMK 051100Z AUTO 36002KT //// // OVC004/// 10/10 Q1018
SCON,2022-11-05T11:00:00Z,SCON 051100Z AUTO 09004KT 9999 OVC002/// 11/11 Q1018
SCPD,2022-11-05T11:00:00Z,SCPD 051100Z AUTO VRB02KT //// ///////// 10/07 Q1017
SCPQ,2022-11-05T11:00:00Z,SCPQ 051100Z AUTO 34007KT 290V010 6000 BKN004 OVC008 10/09 Q1017
SCQP,2022-11-05T11:00:00Z,SCQP 051100Z VRB02KT 5000 BR FEW003 SCT005 OVC012 11/11 Q1019
SCRG,2022-11-05T11:00:00Z,SCRG 051100Z 11001KT 6000 NSC 10/07 Q1018
SCSE,2022-11-05T11:00:00Z,SCSE 051100Z 10004KT 060V130 9999 OVC020 12/09 Q1018
SCSN,2022-11-05T11:00:00Z,SCSN 051100Z AUTO 23004KT 9999 OVC022 13/09 Q1019
SCTB,2022-11-05T11:00:00Z,SCTB 051100Z 00000KT CAVOK 09/07 Q1018
SCTE,2022-11-05T11:00:00Z,SCTE 051100Z 05005KT 3200 -DZ BR BKN003 OVC008 11/11 Q1018 NOSIG
SCTN,2022-11-05T11:00:00Z,SCTN 051100Z AUTO VRB02KT //// R/////// // FEW005 OVC019 11/11 Q1018
SCVD,2022-11-05T11:00:00Z,SCVD 051100Z AUTO 00000KT 9999 OVC014 12/11 Q1019
SECA,2022-11-05T11:00:00Z,SECA 051100Z VRB02KT CAVOK 17/12 Q1019 RMK A3011
SECU,2022-11-05T11:00:00Z,SECU 051100Z 22003KT 9999 OVC020 11/09 Q1026
SEGU,2022-11-05T11:00:00Z,SEGU 051100Z 23004KT 9999 SCT026 BKN090 20/16 Q1013 NOSIG RMK A2994
SELT,2022-11-05T11:20:00Z,SELT 051120Z 35003KT 0500 FG BKN003 BKN030 04/04 Q1030
SEMT,2022-11-05T11:00:00Z,SEMT 051100Z 22002KT 9999 OVC020 20/18 Q1014 RMK A2998
SEQM,2022-11-05T11:00:00Z,SEQM 051100Z 16002KT 9999 BKN026 12/10 Q1027 NOSIG RMK A3033
SESA,2022-11-05T11:00:00Z,SESA 051100Z 24007KT 9999 BKN010 19/17 Q1014 RMK A2996
SESG,2022-11-05T11:00:00Z,SESG 051100Z 22006KT 9999 FEW035 24/03 Q1018
SESM,2022-11-05T11:00:00Z,SESM 051100Z 33003KT CAVOK 17/15 Q1017 RMK A3003
SFAL,2022-11-05T11:50:00Z,SFAL 051150Z 25015KT CAVOK 17/10 Q1015
SGEN,2022-11-05T11:00:00Z,SGEN 051100Z 11005KT CAVOK 15/08 Q1018
SKAR,2022-11-05T11:00:00Z,SKAR 051100Z 00000KT 9999 BKN022 18/17 Q1020 RMK A3012
SKBG,2022-11-05T11:00:00Z,SKBG 051100Z 19004KT 8000 -DZ VCFG SCT010 BKN070 18/17 Q1016 RMK A3000
SKBO,2022-11-05T11:00:00Z,SKBO 051100Z VRB02KT 9999 MIFG FEW010 SCT070 10/10 Q1026 NOSIG RMK A3031
SKBQ,2022-11-05T11:00:00Z,SKBQ 051100Z VRB02KT 7000 3000SW +RA BKN010 24/23 Q1010 NOSIG RMK A2984
SKCC,2022-11-05T11:00:00Z,SKCC 051100Z VRB02KT 9999 SCT018 SCT070 22/22 Q1012 RMK A2989
SKCG,2022-11-05T11:00:00Z,SKCG 051100Z 22008KT 190V250 7000 -RA SCT014 BKN070 27/23 Q1009 RMK A2979
SKCL,2022-11-05T11:00:00Z,SKCL 051100Z VRB02KT 9999 BKN020 SCT050 20/19 Q1017 NOSIG RMK A3004
SKEJ,2022-11-05T11:00:00Z,SKEJ 051100Z VRB02KT 9999 SCT020 SCT070 24/24 Q1010 RMK A2985
SKIB,2022-11-05T11:00:00Z,SKIB 051100Z 11003KT 1000 BR OVC001 20/20 Q1018 RMK A3007
SKIP,2022-11-05T11:00:00Z,SKIP 051100Z 00000KT 9999 FEW012 BKN070 08/07 Q1029 RMK A3040
SKLC,2022-11-05T11:00:00Z,SKLC 051100Z 18003KT 9999 FEW003 23/23 Q1011 RMK A2986
SKLT,2022-11-05T11:00:00Z,SKLT 051100Z 00000KT CAVOK 22/21 Q1012 RMK A2989
SKMD,2022-11-05T11:00:00Z,SKMD 051100Z 00000KT 9999 FEW030 BKN100 19/16 Q1020 RMK A3014
SKMR,2022-11-05T11:00:00Z,SKMR 051100Z 00000KT 9999 BKN017 24/23 Q1010 RMK A2983
SKMZ,2022-11-05T11:00:00Z,SKMZ 051100Z 00000KT 8000 VCFG BKN015 13/13 Q1026 RMK VCFG/W A3032
SKNV,2022-11-05T11:00:00Z,SKNV 051100Z 20003KT 9999 FEW045 BKN100 22/18 Q1013 RMK/A2993
SKPC,2022-11-05T11:00:00Z,SKPC 051100Z 00000KT 9999 NSC 22/22 Q1011 RMK A2988
SKPE,2022-11-05T11:00:00Z,SKPE 051100Z 12007KT 9000 MIFG SCT016 BKN080 18/17 Q1018 RMK A3008
SKPS,2022-11-05T11:00:00Z,SKPS 051100Z 00000KT 8000 3000S BCFG BKN010 15/15 Q1021 RMK A3017
SKPV,2022-11-05T11:00:00Z,SKPV 051100Z VRB02KT 9999 FEW017 BKN200 25/24 Q1010 RMK A2982
SKRG,2022-11-05T11:00:00Z,SKRG 051100Z VRB02KT 9999 SCT010 SCT080 14/13 Q1025 NOSIG RMK A3027
SKRH,2022-11-05T11:00:00Z,SKRH 051100Z 18003KT 7000 DZ SCT012 OVC080 24/24 Q1009 RMK A2982
SKSM,2022-11-05T11:00:00Z,SKSM 051100Z 21012KT 5000 RA SCT015 OVC070 25/24 Q1011 RMK A2987
SKSP,2022-11-05T11:00:00Z,SKSP 051100Z VRB02KT 9999 FEW014 SCT200 25/24 Q1009 RMK A2980
SKUC,2022-11-05T11:00:00Z,SKUC 051100Z 16003KT 9999 BKN020 21/21 Q1012 RMK A2990
SKUI,2022-11-05T11:00:00Z,SKUI 051100Z VRB02KT 5000 BR SCT004 OVC010 24/23 Q1012 RMK A2989
SKVP,2022-11-05T11:00:00Z,SKVP 051100Z 27005KT 250V310 8000 VCFG SCT010 SCT070 23/23 Q1012 RMK A2990
SKVV,2022-11-05T11:00:00Z,SKVV 051100Z 00000KT 9999 FEW020 SCT200 19/18 Q1014 RMK A2995
SLCA,2022-11-05T11:00:00Z,SLCA 051100Z 00000KT 9999 NSC 10/05 Q1021
SLCB,2022-11-05T11:00:00Z,SLCB 051100Z 00000KT 9999 NSC 13/M01 Q1025
SLCP,2022-11-05T11:00:00Z,SLCP 051100Z 00000KT 9999 NSC 16/12 Q1017
SLET,2022-11-05T11:00:00Z,SLET 051100Z 26003KT 9999 NSC 19/12 Q1015
SLLP,2022-11-05T11:00:00Z,SLLP 051100Z VRB02KT 9999 NSC 06/M09 Q1037
SLPS,2022-11-05T11:00:00Z,SLPS 051100Z 00000KT 9999 NSC 16/11 Q1023
SLRI,2022-11-05T11:00:00Z,SLRI 051100Z 00000KT 9999 NSC 17/14 Q1014
SLSA,2022-11-05T11:00:00Z,SLSA 051100Z 00000KT 9999 NSC 17/14 Q1012
SLSV,2022-11-05T11:00:00Z,SLSV 051100Z 00000KT 9999 NSC 16/13 Q1012
SLTJ,2022-11-05T11:00:00Z,SLTJ 051100Z 00000KT 9999 NSC 10/01 Q1023
SLTR,2022-11-05T11:00:00Z,SLTR 051100Z 00000KT 9999 NSC 18/14 Q1013
SLVM,2022-11-05T11:00:00Z,SLVM 051100Z 00000KT 9999 NSC 15/07 Q1016
SLVR,2022-11-05T11:00:00Z,SLVR 051100Z 19007KT 9999 NSC 19/12 Q1016
SMJP,2022-11-05T11:00:00Z,SMJP 051100Z 19002KT 9999 FEW007 FEW018CB 24/23 Q1012 NOSIG
SMZO,2022-11-05T11:00:00Z,SMZO 051100Z 00000KT 9999 FEW012 24/23 Q1012 NOSIG
SOCA,2022-11-05T11:30:00Z,SOCA 051130Z AUTO 22004KT 180V250 9999 OVC007 26/24 Q1012 BECMG BKN015
SPHI,2022-11-05T11:00:00Z,SPHI 051100Z 18014KT 9999 SCT006 15/14 Q1016 RMK BIRD HAZARD RWY 19/01 PP000
SPHO,2022-11-05T11:00:00Z,SPHO 051100Z 18002KT 9999 FEW090 13/M00 Q1026 RMK PP000
SPHY,2022-11-05T11:00:00Z,SPHY 051100Z /////KT 9999 FEW012 04/M03 Q1036 RMK BIRD HAZARD RWY03/21 PP000
SPJC,2022-11-05T11:00:00Z,SPJC 051100Z 16009KT 9999 OVC016 16/13 Q1015 BECMG OVC013 RMK PP000
SPJR,2022-11-05T11:30:00Z,SPJR 051130Z VRB01KT CAVOK 09/04 Q1027
SPQT,2022-11-05T11:00:00Z,SPQT 051100Z VRB01KT 9999 FEW005 BKN070 23/22 Q1012 NOSIG RMK BIRD HAZARD RWY 06/24 PP000
SPQU,2022-11-05T11:00:00Z,SPQU 051100Z 02003KT CAVOK 12/M11 Q1026 NOSIG RMK PP000
SPRU,2022-11-05T11:00:00Z,SPRU 051100Z 12005KT 7000 BCFG SCT022 15/13 Q1016 RMK PP000
SPSO,2022-11-05T11:00:00Z,SPSO 051100Z 09002KT 9999 OVC018 16/13 Q1016 RMK PP000
SPST,2022-11-05T11:00:00Z,SPST 051100Z 00000KT 9999 FEW025 SCT100 18/18 Q1913 RMK BIRD HAZARD RWY 17/35 PP000
SPTN,2022-11-05T11:00:00Z,SPTN 051100Z 24003KT 9999 OVC025 14/11 Q1017 RMK PP000
SPTU,2022-11-05T11:00:00Z,SPTU 051100Z 00000KT CAVOK 15/12 Q1013 RMK BIRD HAZARD RWY 01/19 PP000
SPZO,2022-11-05T11:30:00Z,SPZO 051130Z VRB02KT 9999 NSC 11/01 Q1031 NOSIG RMK BIRD HAZARD RWY 10/28
SULS,2022-11-05T11:00:00Z,SULS 051100Z 06004KT 360V110 9999 FEW010 16/12 Q1027
SUSO,2022-11-05T11:00:00Z,SUSO 051100Z 10004KT CAVOK 16/12 Q1023
SVBC,2022-11-05T11:03:00Z,SVBC 051103Z AUTO 17004KT NCD 22/22 Q1012
SVBI,2022-11-05T11:03:00Z,SVBI 051103Z AUTO 28001KT NCD 21/21 Q1015
SVBM,2022-11-05T11:03:00Z,SVBM 051103Z AUTO NIL
SVBS,2022-11-05T11:03:00Z,SVBS 051103Z AUTO 00001KT NCD 21/18 Q1014
SVCB,2022-11-05T11:03:00Z,SVCB 051103Z AUTO 21002KT NCD 23/20 Q1011
SVCJ,2022-11-05T11:03:00Z,SVCJ 051103Z AUTO NIL
SVFM,2022-11-05T11:03:00Z,SVFM 051103Z AUTO 09002KT NCD 18/17 Q1013
SVGD,2022-11-05T11:03:00Z,SVGD 051103Z AUTO 12001KT NCD 21/21 Q1012
SVGU,2022-11-05T11:03:00Z,SVGU 051103Z AUTO NIL
SVJM,2022-11-05T11:03:00Z,SVJM 051103Z AUTO 01002KT NCD 20/20 Q1012
SVLO,2022-11-05T11:03:00Z,SVLO 051103Z AUTO NIL
SVMC,2022-11-05T11:03:00Z,SVMC 051103Z AUTO NIL
SVMI,2022-11-05T11:03:00Z,SVMI 051103Z AUTO 21011KT NCD 25/17 Q1010
SVMT,2022-11-05T11:03:00Z,SVMT 051103Z AUTO 29002KT NCD 23/23 Q1011
SVPA,2022-11-05T11:03:00Z,SVPA 051103Z AUTO NIL
SVPR,2022-11-05T11:03:00Z,SVPR 051103Z AUTO 27004KT NCD 23/19 Q1013
SVSR,2022-11-05T11:03:00Z,SVSR 051103Z AUTO NIL
SVVA,2022-11-05T11:03:00Z,SVVA 051103Z AUTO 18001KT NCD 21/20 Q1013
SYCJ,2022-11-05T11:00:00Z,SYCJ 051100Z 24004KT 9999 FEW015CB SCT080 25/23 Q1012 NOSIG RMK CB N
SYEC,2022-11-05T11:00:00Z,SYEC 051100Z 24006KT 9999 FEW015CB BKN090 27/24 Q1012 NOSIG RMK CB-N
TAPA,2022-11-05T11:00:00Z,TAPA 051100Z 11013KT 050V160 9999 VCSH BKN017 SCT038 28/23 Q1011 TEMPO SHRA
TBPB,2022-11-05T11:00:00Z,TBPB 051100Z 11013KT 9999 VCSH SCT018 SCT036 27/24 Q1011 NOSIG
TDPD,2022-11-05T11:00:00Z,TDPD 051100Z 14009G19KT 9999 BKN016TCU 23/22 Q1013
TFFF,2022-11-05T11:30:00Z,TFFF 051130Z AUTO 10007KT CAVOK 25/24 Q1012 TEMPO VRB20G30KT 1200 TSRA SCT008 BKN012CB
TFFR,2022-11-05T11:30:00Z,TFFR 051130Z AUTO 10003KT 9999 ///TCU 25/23 Q1012 TEMPO VRB20G30KT 1200 TSRA SCT008 BKN012CB
TGPY,2022-11-05T11:00:00Z,TGPY 051100Z 08010KT 9999 FEW017 BKN035 27/24 Q1011 NOSIG
TIST,2022-11-05T11:53:00Z,TIST 051153Z 10010KT 10SM SCT034 SCT050 26/21 A2987 RMK AO2 SLP117 60024 70060 T02560206 10272 20222 53007
TISX,2022-11-05T11:53:00Z,TISX 051153Z 16016G24KT 1/2SM +RA SCT025 BKN030 OVC090 24/21 A2991 RMK AO2 RAB44 SLP126 P0041 60041 70046 T02390211 10278 20239 53020 $
TJBQ,2022-11-05T11:50:00Z,TJBQ 051150Z 12006KT 10SM SCT017 SCT050 23/22 A2989 RMK LTG DSNT SE-NW
TJIG,2022-11-05T11:50:00Z,TJIG 051150Z 00000KT 8SM -RA SCT020 SCT030 BKN055 24/23 A2988 RMK -RA ALQDS
TJNR,2022-11-05T11:53:00Z,TJNR 051153Z AUTO 00000KT 10SM BKN090 OVC110 25/23 A2989 RMK AO2 SLP121 70146 T02500228 10256 20228 53009
TJSJ,2022-11-05T10:56:00Z,TJSJ 051056Z 13003KT 10SM FEW032 BKN060 BKN085 25/23 A2988 RMK AO2 RAB46E56 SLP117 VCSH S-SW P0000 T02500228
TKPK,2022-11-05T11:00:00Z,TKPK 051100Z 08012KT 9999 FEW020 BKN036 28/23 Q1011
TKPN,2022-11-05T11:00:00Z,TKPN 051100Z 10017KT 9999 SCT018 BKN040 28/25 Q1011
TLPL,2022-11-05T11:00:00Z,TLPL 051100Z 10016KT 9999 FEW021 BKN040 27/23 Q1011 NOSIG
TNCA,2022-11-05T11:00:00Z,TNCA 051100Z VRB05KT 9999 -RA SCT015 26/23 Q1009 NOSIG
TNCB,2022-11-05T10:55:00Z,TNCB 051055Z 15006KT 100V200 CAVOK 27/23 Q1009
TNCC,2022-11-05T11:35:00Z,TNCC 051135Z 28005KT 250V310 9999 -TSRA SCT012CB BKN017TCU 25/24 Q1009 TEMPO 27005G20KT 3000 TSRA SCT012CB BKN017TCU BKN022
TNCE,2022-11-05T10:55:00Z,TNCE 051055Z AUTO 10012KT 060V140 //// // ///////// 28/23 Q1011 RE//
TNCM,2022-11-05T11:00:00Z,TNCM 051100Z 09010KT 9999 BKN015 SCT035 28/24 Q1012 NOSIG 
TQPF,2022-11-05T11:00:00Z,TQPF 051100Z 11015KT 9999 SCT018 27/25 Q1011
TRPG,2022-11-05T11:00:00Z,TRPG 051100Z 10022G32KT 9999 SCT018 26/24 Q1011
TTCP,2022-11-05T11:00:00Z,TTCP 051100Z 06003KT 9999 FEW016 26/24 Q1011 NOSIG
TTPP,2022-11-05T11:00:00Z,TTPP 051100Z 00000KT 9999 FEW010CB 24/23 Q1011 NOSIG RMK CB-NW/W/SW
TUPJ,2022-11-05T11:00:00Z,TUPJ 051100Z 10010KT 10SM -SHRA FEW010 SCT017 25/22 A2988 RMK Q1012 VIS16KM
TVSA,2022-11-05T11:00:00Z,TVSA 051100Z 12007KT 9999 VCSH BKN014 27/25 Q1011 NOSIG 
TXKF,2022-11-05T11:55:00Z,TXKF 051155Z 08016KT 9999 VCSH SCT030 SCT050 BKN065 22/17 Q1024 
UAAA,2022-11-05T11:30:00Z,UAAA 051130Z 04002MPS 010V070 9999 BKN050CB OVC100 11/09 Q1020 NOSIG
UAAH,2022-11-05T11:30:00Z,UAAH 051130Z 27005MPS 9999 SCT028 06/M01 Q1021 NOSIG RMK QFE727/0969
UAAT,2022-11-05T11:53:00Z,UAAT 051153Z 34002MPS 5000 BR SCT040CB BKN100 10/09 Q1021 NOSIG RMK QFE714/0952
UACC,2022-11-05T11:30:00Z,UACC 051130Z 25006MPS 9999 BKN030 M01/M06 Q1018 NOSIG RMK QFE732/0976
UACK,2022-11-05T11:00:00Z,UACK 051100Z 25010MPS 9999 DRSN OVC017 M01/M04 Q1010 NOSIG RMK QFE733/0978
UACP,2022-11-05T11:30:00Z,UACP 051130Z 24014G19MPS 7000 BLSN OVC016CB M00/M02 Q1003 NOSIG RMK QFE740/0986
UADD,2022-11-05T11:30:00Z,UADD 051130Z 02002MPS 9999 SCT050 OVC100 12/09 Q1020 NOSIG RMK QFE708/0944
UAII,2022-11-05T11:30:00Z,UAII 051130Z 02003MPS 9999 SCT033 12/07 Q1020 NOSIG RMK QFE728/0970
UAIT,2022-11-05T11:30:00Z,UAIT 051130Z 34003MPS 9999 SCT046 10/02 Q1021 NOSIG RMK QFE741/0988
UAKD,2022-11-05T11:00:00Z,UAKD 051100Z 22004MPS 9999 SCT031CB OVC036 00/M04 Q1021 NOSIG RMK QFE732/0977
UAKK,2022-11-05T11:30:00Z,UAKK 051130Z 23005MPS 9999 SCT028 M01/M06 Q1019 NOSIG RMK QFE717/0957
UAOO,2022-11-05T11:00:00Z,UAOO 051100Z 08002MPS 020V110 9999 OVC040CB 05/M02 Q1022 NOSIG RMK QFE755/1007
UARR,2022-11-05T11:30:00Z,UARR 051130Z 10002MPS CAVOK M00/M02 Q1020 TEMPO BKN003 RMK QFE762/1016
UASK,2022-11-05T11:30:00Z,UASK 051130Z 32002MPS 270V020 9999 SCT033CB OVC048 09/05 Q1021 NOSIG RMK QFE740/0987
UASP,2022-11-05T11:30:00Z,UASP 051130Z 24004MPS CAVOK 01/M05 Q1019 NOSIG RMK QFE753/1004
UASS,2022-11-05T11:30:00Z,UASS 051130Z 30002MPS 7000 BKN030 05/M02 Q1021 NOSIG RMK QFE747/0997
UATE,2022-11-05T11:30:00Z,UATE 051130Z 02002MPS 340V060 CAVOK 12/03 Q1018 NOSIG RMK QFE762/1016
UATG,2022-11-05T11:30:00Z,UATG 051130Z 07002MPS 5000 BR BKN018CB 05/02 Q1019 NOSIG RMK QFE766/1022
UATT,2022-11-05T11:30:00Z,UATT 051130Z 31003MPS 9999 SCT007 M02/M03 Q1019 NOSIG RMK QFE744/0992
UAUU,2022-11-05T11:30:00Z,UAUU 051130Z 21004MPS CAVOK M02/M05 Q1012 NOSIG RMK QFE742/0990
UBBB,2022-11-05T11:30:00Z,UBBB 051130Z 03008KT 9999 BKN025 16/10 Q1018 NOSIG
UBBF,2022-11-05T11:30:00Z,UBBF 051130Z 06010KT 9999 SCT100 18/03 Q1016 NOSIG RMK MT OP
UBBG,2022-11-05T11:30:00Z,UBBG 051130Z 00000KT 9999 SCT100 18/04 Q1016 NOSIG
UBBL,2022-11-05T11:00:00Z,UBBL 051100Z 06004KT 9999 SCT100 17/10 Q1018 NOSIG RMK MT OP
UBBN,2022-11-05T11:30:00Z,UBBN 051130Z VRB02KT 9999 SCT046 20/M02 Q1015 NOSIG RMK MT OP QFE686
UBBQ,2022-11-05T11:00:00Z,UBBQ 051100Z 25003KT 9999 FEW200 17/03 Q1016 NOSIG RMK MT OP
UBBY,2022-11-05T11:00:00Z,UBBY 051100Z 32006KT 9999 FEW100 18/03 Q1019 NOSIG RMK MT OP
UBBZ,2022-11-05T11:30:00Z,UBBZ 051130Z 05006KT 020V080 9999 BKN100 18/04 Q1017 NOSIG RMK MT OP
UCFL,2022-11-05T11:00:00Z,UCFL 051100Z 11002MPS 9999 SCT026CB BKN100 10/02 Q1020
UCFM,2022-11-05T11:30:00Z,UCFM 051130Z 27007MPS 9000 NSC 13/10 Q1019 TEMPO 30007G12MPS
UCFO,2022-11-05T11:30:00Z,UCFO 051130Z VRB01MPS 9999 SCT023 BKN050CB 12/09 Q1021 NOSIG
UDSG,2022-11-05T11:30:00Z,UDSG 051130Z 23007KT 9999 NSC 12/M04 Q1018 R02/CLRD70 NOSIG
UDYZ,2022-11-05T11:30:00Z,UDYZ 051130Z 19003KT 150V220 9999 NSC 18/M03 Q1016 R09/010070 NOSIG
UEEE,2022-11-05T11:30:00Z,UEEE 051130Z 21001MPS 9999 -SN NSC M14/M16 Q1004 R23L/450150 NOSIG RMK QFE744
UERP,2022-11-05T11:00:00Z,UERP 051100Z 28002MPS CAVOK M18/M20 Q1002 RMK QFE708
UERR,2022-11-05T11:00:00Z,UERR 051100Z 25005MPS 9999 SCT023CB M11/M13 Q1006 R25/490545 NOSIG RMK QFE724/0965
UGAM,2022-11-05T11:30:00Z,UGAM 051130Z 22003KT 180V270 9999 SCT100 13/07 Q1017
UGKO,2022-11-05T11:30:00Z,UGKO 051130Z VRB02KT 9999 BKN077 17/09 Q1017 NOSIG
UGMS,2022-11-05T11:30:00Z,UGMS 051130Z AUTO VRB02KT //// ////// 08/M01 Q1019
UGSB,2022-11-05T11:30:00Z,UGSB 051130Z 33003KT 9999 SCT067 17/13 Q1018 NOSIG
UGTB,2022-11-05T11:30:00Z,UGTB 051130Z 31012KT CAVOK 17/04 Q1016 NOSIG
UHBB,2022-11-05T11:00:00Z,UHBB 051100Z 15002MPS 9999 FEW033 M07/M16 Q1016 R36/090060 NOSIG RMK QFE744/0992
UHHH,2022-11-05T11:30:00Z,UHHH 051130Z 28009MPS CAVOK M03/M18 Q1012 R88/090060 NOSIG RMK QFE753/1004
UHMA,2022-11-05T11:00:00Z,UHMA 051100Z 12015G21MPS 1200 1000N -SN BLSN SCT020 SCT036 BKN047 M02/M04 Q1019 R01/////// NOSIG RMK TDZ R01/12015G21MPS END R01/11018G23MPS QFE760/1014
UHMM,2022-11-05T11:00:00Z,UHMM 051100Z 06001MPS 9999 SCT028CB M07/M08 Q0988 RMK QFE726 R28/00000MPS
UHPP,2022-11-05T11:00:00Z,UHPP 051100Z 15004MPS 7000 -SHSNRA SCT008 OVC024CB 01/01 Q0997 R16R/492031 NOSIG RMK QFE745/0993
UHSS,2022-11-05T11:30:00Z,UHSS 051130Z 29004MPS 9999 SCT030CB 02/M03 Q1009 R01/70D NOSIG RMK MT OBSC QFE756/1008
UHWW,2022-11-05T11:30:00Z,UHWW 051130Z VRB01MPS 9999 NSC M01/M06 Q1019 R25L/0///70 NOSIG RMK QFE763
UIAA,2022-11-05T11:30:00Z,UIAA 051130Z 19002MPS 9999 FEW050CB M04/M05 Q1015 R29/410160 NOSIG RMK QFE703/0937
UIBB,2022-11-05T11:30:00Z,UIBB 051130Z VRB01MPS 9999 BKN020CB M02/M02 Q1020 R30/590335 NOSIG RMK QFE721/0962
UIII,2022-11-05T11:30:00Z,UIII 051130Z 07002MPS 4100 FU BR NSC M01/M02 Q1021 R30/CLRD60 NOSIG RMK QFE720/0961
UIUU,2022-11-05T11:30:00Z,UIUU 051130Z 09002MPS 020V170 9999 SCT040CB M01/M05 Q1019 R26/60D NOSIG RMK QFE720/0961
ULAA,2022-11-05T11:30:00Z,ULAA 051130Z 26003MPS 230V300 9999 OVC007 02/02 Q1019 R26/510150 NOSIG RMK QFE763/1017
ULLI,2022-11-05T11:30:00Z,ULLI 051130Z 13005MPS 9999 OVC007 M01/M03 Q1023 R88/090060 NOSIG RMK OBST OBSC
ULMM,2022-11-05T11:30:00Z,ULMM 051130Z 23002MPS 9999 BKN028 04/04 Q1012 R13/290160 NOSIG RMK QFE752
ULOO,2022-11-05T11:30:00Z,ULOO 051130Z 15004MPS 100V190 9999 BKN016 01/M03 Q1022 R19/090060 NOSIG RMK QFE762
ULPB,2022-11-05T11:30:00Z,ULPB 051130Z 27003MPS 240V300 9999 -SN OVC008 M03/M04 Q1024 R19/090060 NOSIG RMK QBB250 QFE764/1019
ULWC,2022-11-05T11:30:00Z,ULWC 051130Z 00000MPS 9000 -SN BKN004 OVC018 M01/M02 Q1025 R21/390060 NOSIG RMK QBB140 QFE758/1011
UMBB,2022-11-05T11:00:00Z,UMBB 051100Z 12005G08MPS 3600 BR OVC005 07/06 Q1014 NOSIG RMK QBB150
UMGG,2022-11-05T11:30:00Z,UMGG 051130Z 11006MPS 9999 BKN018 03/M02 Q1024 NOSIG
UMII,2022-11-05T11:00:00Z,UMII 051100Z 13003G06MPS 9999 BKN010 M02/M05 Q1023 TEMPO BKN005
UMIO,2022-11-05T11:30:00Z,UMIO 051130Z 14005MPS 9999 OVC012 M01/M03 Q1023 NOSIG RMK QFE750/1000
UMKK,2022-11-05T11:30:00Z,UMKK 051130Z 16005MPS 9000 OVC006 07/07 Q1011 R24/290095 NOSIG RMK QBB180 OBST OBSC QFE757/1010
UMMG,2022-11-05T11:00:00Z,UMMG 051100Z 15006G09MPS 9999 OVC011 07/05 Q1015 NOSIG
UMMS,2022-11-05T11:30:00Z,UMMS 051130Z 12007MPS 9999 OVC012 02/M00 Q1021 NOSIG
UMOO,2022-11-05T11:00:00Z,UMOO 051100Z 11006MPS 9999 OVC019 02/M03 Q1024 NOSIG
UNAA,2022-11-05T11:30:00Z,UNAA 051130Z 13003MPS 3100 BR FU NSC M01/M01 Q1022 R02/150057 NOSIG RMK QFE743
UNBB,2022-11-05T11:30:00Z,UNBB 051130Z 24005MPS CAVOK 02/M02 Q1021 R24/190060 NOSIG RMK QFE743
UNEE,2022-11-05T11:30:00Z,UNEE 051130Z 21003MPS 9999 SCT020CB 03/01 Q1018 R23/290155 NOSIG RMK QFE740
UNKL,2022-11-05T11:30:00Z,UNKL 051130Z 16001MPS CAVOK M03/M05 Q1020 R29/150060 NOSIG RMK QFE739
UNNT,2022-11-05T11:30:00Z,UNNT 051130Z 23004MPS CAVOK 02/M04 Q1019 R25/090070 R16/090070 NOSIG RMK QFE754/1005
UNOO,2022-11-05T11:30:00Z,UNOO 051130Z 21011G16MPS 9999 -SHSN BKN022CB 00/M04 Q1008 R25/290050 NOSIG RMK QFE748
UNTT,2022-11-05T11:30:00Z,UNTT 051130Z 22004MPS 9999 BKN014 02/00 Q1016 R21/190050 NOSIG RMK QFE747
UNWW,2022-11-05T11:30:00Z,UNWW 051130Z 24005MPS 9999 -SHRA BKN033CB 06/02 Q1020 R19/210257 NOSIG RMK QFE738
UOOO,2022-11-05T11:00:00Z,UOOO 051100Z 20008MPS 1200 1000S R19/P2000D SHSN BLSN BKN014CB M06/M06 Q1004 R19/451033 NOSIG RMK QFE737/0983
URKA,2022-11-05T11:30:00Z,URKA 051130Z 08005MPS CAVOK 14/03 Q1019 R04/010070 NOSIG RMK QFE760/1014
URKK,2022-11-05T11:30:00Z,URKK 051130Z 03003MPS 350V050 9999 SCT016 10/06 Q1020 R23L/CLRD70 NOSIG RMK QFE762
URMG,2022-11-05T11:30:00Z,URMG 051130Z 34008MPS 9999 BKN052 11/06 Q1018 R26/090070 NOSIG RMK QFE748/0998
URML,2022-11-05T11:30:00Z,URML 051130Z 04004MPS 9999 SCT073 14/07 Q1017 R14/01//70 NOSIG RMK QFE763/1017
URMM,2022-11-05T11:30:00Z,URMM 051130Z 25004MPS 9999 BKN024 09/03 Q1019 R30/090070 NOSIG RMK QFE736/0981
URMN,2022-11-05T11:30:00Z,URMN 051130Z 02003MPS 9999 OVC018CB 10/05 Q1017 R24/010070 NOSIG RMK MT OBSC QFE727
URMO,2022-11-05T11:30:00Z,URMO 051130Z 01006MPS 9999 BKN026 09/06 Q1018 R27/010070 NOSIG RMK QFE718/0958
URMT,2022-11-05T11:30:00Z,URMT 051130Z 02004MPS 9999 SCT030 09/02 Q1019 R25/010070 NOSIG RMK QFE725
URRP,2022-11-05T11:30:00Z,URRP 051130Z 36004MPS 9999 SCT030 09/04 Q1020 R23/290050 NOSIG RMK QFE757/1010
URSS,2022-11-05T11:30:00Z,URSS 051130Z 20002MPS 9999 FEW032 16/10 Q1018 R02/010070 R06/010070 NOSIG RMK R06/18002MPS MT OBSC QFE762
URWA,2022-11-05T11:30:00Z,URWA 051130Z 07003MPS 040V100 3700 -DZ BR OVC003 05/05 Q1018 R09/290350 TEMPO 0800 DZ FG OVC002 RMK OBST OBSC QFE765/1021
URWI,2022-11-05T11:30:00Z,URWI 051130Z 33005MPS 9999 SCT018 07/02 Q1019 R27/290050 NOSIG
URWW,2022-11-05T11:30:00Z,URWW 051130Z 35003MPS 9999 BKN012 OVC022 03/00 Q1019 R24/010070 TEMPO 2000 SHSNRA BKN004 BKN020CB
USCC,2022-11-05T11:30:00Z,USCC 051130Z 28008MPS 1700 0500E R27/0500N +SHSN SCT006 BKN030CB M00/M00 Q1009 R27/690542 NOSIG RMK QFE737
USCM,2022-11-05T11:30:00Z,USCM 051130Z 28003MPS 9999 OVC040CB M01/M05 Q1013 R18/090060 NOSIG RMK QFE722
USDA,2022-11-05T11:30:00Z,USDA 051130Z 25006MPS 0700 0600NW R22/1700D FG BKN005 01/01 Q1000 R22/290245 NOSIG RMK QBB150 QFE749/0999
USHH,2022-11-05T11:30:00Z,USHH 051130Z 03003MPS 7000 -SN BKN007 M00/M00 Q1006 R06/490250 TEMPO 1000 SN OVC002
USNN,2022-11-05T11:30:00Z,USNN 051130Z 11005MPS 3100 -SHSN SCT005 BKN030CB 00/00 Q1007 R03/29//55 TEMPO 1000 SHSN RMK QFE751
USPP,2022-11-05T11:30:00Z,USPP 051130Z 31004MPS 9999 -SHGS BKN011 OVC047CB M01/M03 Q1016 R21/090060 NOSIG RMK QFE751
USRR,2022-11-05T11:30:00Z,USRR 051130Z 10006MPS 1700 R07/1700U SHSN SCT004 BKN021CB 00/M01 Q1006 R07/290050 TEMPO 0800 +SHSN VV002 RMK OBST OBSC QFE749
USSS,2022-11-05T11:30:00Z,USSS 051130Z 31009MPS 2100 -SN DRSN OVC011 M01/M03 Q1010 R26L/590332 NOSIG RMK QFE737/0982
USTR,2022-11-05T11:30:00Z,USTR 051130Z 01006MPS 0800 0500NE R30/0600 +SHSN BLSN VV003 M01/M01 Q1001 R30/590337 R21/////99 TEMPO 32014MPS 0200 +SHSN BLSN VV001 RMK QBB090
UTAA,2022-11-05T11:00:00Z,UTAA 051100Z 30012KT 9999 FEW050CB BKN050 BKN100 18/09 Q1015 R88/70D NOSIG
UTAK,2022-11-05T11:00:00Z,UTAK 051100Z 28012KT 9999 SCT033 BKN100 17/10 Q1016 R16R/CLRD70 NOSIG
UTAM,2022-11-05T11:00:00Z,UTAM 051100Z 14012KT CAVOK 21/11 Q1017 R88/CLRD70 NOSIG
UTAT,2022-11-05T11:00:00Z,UTAT 051100Z 10012KT CAVOK 12/03 Q1018 R08/CLRD70 NOSIG
UTAV,2022-11-05T11:00:00Z,UTAV 051100Z 05004KT CAVOK 20/04 Q1018 R31/CLRD70 NOSIG
UTDD,2022-11-05T11:30:00Z,UTDD 051130Z 11002MPS 9999 FEW066CB SCT120 15/10 Q1020 R09/D NOSIG RMK QFE696/0929
UTDK,2022-11-05T11:30:00Z,UTDK 051130Z 00000MPS 9999 NSC 18/11 Q1020 R01/09//70 RMK QFE707/0943
UTDL,2022-11-05T11:30:00Z,UTDL 051130Z 07005MPS 9999 SCT086 14/10 Q1020 R08/CLRD70 NOSIG RMK QFE726/0968
UTDT,2022-11-05T11:30:00Z,UTDT 051130Z 35002MPS 310V010 9999 FEW032 19/12 Q1018 R35/CLRD70 RMK QFE724/0965
UTFF,2022-11-05T11:30:00Z,UTFF 051130Z 35004KT 9999 NSC 14/08 Q1021 R18/CLRD70
UTFN,2022-11-05T11:30:00Z,UTFN 051130Z 15002KT 9999 NSC 14/09 Q1021 R28/CLRD70 NOSIG
UTNN,2022-11-05T11:30:00Z,UTNN 051130Z 07008KT CAVOK 10/02 Q1019 R15/290050 NOSIG
UTNU,2022-11-05T11:30:00Z,UTNU 051130Z 07008KT 9999 BKN066CB 12/01 Q1019 R31/CLRD70 NOSIG
UTO8,2022-11-05T11:43:00Z,UTO8 M M M 966/-21/-24/2732+39/M/ PK WND 2743 1000Z SOG 27 1005 98MM
UTSA,2022-11-05T11:30:00Z,UTSA 051130Z 24006KT 8000 NSC 17/04 Q1019 R07/CLRD70 NOSIG
UTSB,2022-11-05T11:30:00Z,UTSB 051130Z 18002KT CAVOK 19/05 Q1018 R01/CLRD70 NOSIG
UTSK,2022-11-05T11:30:00Z,UTSK 051130Z 26004KT 230V290 8000 NSC 19/10 Q1019 R16/CLRD70
UTSS,2022-11-05T11:30:00Z,UTSS 051130Z VRB02KT 9999 FEW060CB 16/10 Q1019 R09/CLRD70 NOSIG
UTST,2022-11-05T11:30:00Z,UTST 051130Z 04004KT 9999 FEW024 18/10 Q1019 R25/CLRD70 NOSIG
UTTT,2022-11-05T11:30:00Z,UTTT 051130Z 26006KT CAVOK 15/12 Q1020 R08L/CLRD70 NOSIG
UUBC,2022-11-05T11:30:00Z,UUBC 051130Z 03001MPS 9999 BKN012 M00/M02 Q1025 R31/CLRD60 NOSIG RMK QFE752/1003
UUBP,2022-11-05T11:30:00Z,UUBP 051130Z 07003MPS 9999 SCT016 03/M03 Q1024 R34/////// NOSIG RMK QFE750/1001
UUBW,2022-11-05T11:30:00Z,UUBW 051130Z 32003MPS 9999 OVC020 01/M03 Q1025 R30/010060 NOSIG
UUDD,2022-11-05T11:30:00Z,UUDD 051130Z 35003MPS 9999 OVC018 01/M04 Q1025 R32L/190050 NOSIG
UUDL,2022-11-05T11:30:00Z,UUDL 051130Z 35002MPS 310V020 9999 OVC013 M00/M04 Q1025 R23/010060 NOSIG RMK QFE760
UUEE,2022-11-05T11:30:00Z,UUEE 051130Z 01003MPS 9999 OVC008 M01/M03 Q1025 R06R/290051 R06C/290045 NOSIG
UUMO,2022-11-05T11:30:00Z,UUMO 051130Z 31003MPS 9999 OVC017 01/M03 Q1025 R25/190055 NOSIG RMK QFE753/1005
UUOB,2022-11-05T11:30:00Z,UUOB 051130Z 07003MPS 7000 BKN023 00/M03 Q1023 R29/190065 NOSIG
UUOK,2022-11-05T11:30:00Z,UUOK 051130Z 04003MPS 360V070 9999 BKN013 02/00 Q1023 R30/090060 NOSIG RMK QFE749/0998
UUOL,2022-11-05T11:30:00Z,UUOL 051130Z 01003MPS 9999 BKN030 02/M01 Q1023 R33/290050 NOSIG
UUOO,2022-11-05T11:30:00Z,UUOO 051130Z 01002MPS 2500 -DZ BR OVC006 02/01 Q1023 R30/190060 NOSIG RMK QFE753
UUWW,2022-11-05T11:30:00Z,UUWW 051130Z 34003MPS 9999 OVC014 M00/M04 Q1025 R06/190050 NOSIG
UUYY,2022-11-05T11:30:00Z,UUYY 051130Z 26003MPS 9000 -SHSN SCT009 BKN020CB M03/M04 Q1019 R36/510150 NOSIG RMK QFE755/1007
UWGG,2022-11-05T11:30:00Z,UWGG 051130Z 35001MPS 9999 OVC027 02/M02 Q1023 R36R/190055 NOSIG
UWKD,2022-11-05T11:30:00Z,UWKD 051130Z 34003MPS 9999 OVC017 02/M02 Q1020 R29/2/0050 NOSIG RMK QFE754/1005
UWKE,2022-11-05T11:30:00Z,UWKE 051130Z 03003MPS 9999 OVC010 M01/M02 Q1018 R03/210355 NOSIG RMK QFE747/0996
UWKS,2022-11-05T11:30:00Z,UWKS 051130Z 01002MPS 9999 OVC010CB 01/M01 Q1021 R06/150051 NOSIG RMK QFE750
UWLL,2022-11-05T11:30:00Z,UWLL 051130Z 32003MPS 9999 BKN015CB 03/01 Q1020 R02/090065 NOSIG RMK QFE753/1004
UWLW,2022-11-05T11:00:00Z,UWLW 051100Z 33004MPS 9999 OVC013 03/01 Q1020 R02/290150 NOSIG RMK QFE758/1011
UWOO,2022-11-05T11:30:00Z,UWOO 051130Z 25002MPS 9999 -SN OVC009 M01/M03 Q1020 R26/310050 NOSIG RMK QFE754/1006
UWOR,2022-11-05T11:00:00Z,UWOR 051100Z 28006MPS 9999 BKN046 M01/M04 Q1017 R25/CLRD60 NOSIG RMK QFE739/0986
UWPS,2022-11-05T11:30:00Z,UWPS 051130Z 36003MPS 9999 BKN009 02/01 Q1021 R02/290250 NOSIG RMK QFE746
UWSG,2022-11-05T11:30:00Z,UWSG 051130Z 04002MPS 010V070 9999 BKN011 04/02 Q1020 R08/290060 NOSIG RMK QFE762/1017
UWUU,2022-11-05T11:30:00Z,UWUU 051130Z 26004MPS 9999 SCT013 01/M02 Q1017 R32L/0///60 NOSIG
UWWW,2022-11-05T11:30:00Z,UWWW 051130Z 31003MPS 270V330 9999 SCT026 03/M00 Q1019 R33/290050 NOSIG RMK QFE754/1005
VAAH,2022-11-05T11:30:00Z,VAAH 051130Z 34003KT 5000 FU NSC 35/17 Q1013 NOSIG
VAAU,2022-11-05T11:00:00Z,VAAU 051100Z 05004KT 5000 HZ NSC 31/13 Q1015 NOSIG
VABB,2022-11-05T11:30:00Z,VABB 051130Z 25007KT 4000 FU NSC 38/18 Q1011 NOSIG
VABO,2022-11-05T11:30:00Z,VABO 051130Z 05004KT 6000 NSC 35/16 Q1012 NOSIG
VABP,2022-11-05T11:30:00Z,VABP 051130Z 26002KT 6000 FEW030 SCT100 31/11 Q1016 NOSIG
VADU,2022-11-05T11:00:00Z,VADU 051100Z 15009KT 6000 NSC 34/20 Q1012 NOSIG
VAID,2022-11-05T11:00:00Z,VAID 051100Z 00000KT 6000 FEW030 31/12 Q1017 NOSIG
VAJB,2022-11-05T11:30:00Z,VAJB 051130Z 32003KT 4000 HZ NSC 30/17 Q1015 NOSIG
VAJJ,2022-11-05T11:30:00Z,VAJJ 051130Z 29006KT 4000 FU NSC 29/23 Q1011 BECMG 3000 FU
VAKE,2022-11-05T11:30:00Z,VAKE 051130Z 16005KT 3500 FU NSC 35/12 Q1012 NOSIG
VANP,2022-11-05T11:30:00Z,VANP 051130Z 18002KT 5000 HZ NSC 30/20 Q1015 BECMG 4000 HZ
VAOZ,2022-11-05T11:30:00Z,VAOZ 051130Z 13004KT 6000 NSC 28/09 Q1017 NOSIG
VASD,2022-11-05T11:00:00Z,VASD 051100Z 10007KT 6000 NSC 29/07 Q1016 NOSIG
VASU,2022-11-05T11:32:00Z,VASU 051132Z 29005KT 6000 NSC 32/19 Q1012 NOSIG
VAUD,2022-11-05T11:30:00Z,VAUD 051130Z 17003KT 6000 FEW030 32/10 Q1016 NOSIG
VCBI,2022-11-05T11:10:00Z,VCBI 051110Z 07004KT 350V130 9000 -SHRA SCT015 27/25 Q1010 NOSIG
VCRI,2022-11-05T11:10:00Z,VCRI 051110Z 02003KT 5000 TSRA SCT018 SCT020 CB 24/24 Q1011 NOSIG RMK E/SE/OH
VDPP,2022-11-05T11:30:00Z,VDPP 051130Z 30007KT 250V330 4000 TSRA SCT013 FEW017CB BKN040 25/25 Q1012 RMK CB:S/W
VDSR,2022-11-05T11:30:00Z,VDSR 051130Z 26002KT 9000 SCT015 BKN040 26/24 Q1012
VDSV,2022-11-05T11:30:00Z,VDSV 051130Z 20009KT 9000 SCT015 FEW017CB 28/24 Q1012 RMK CB:E/SW
VEAT,2022-11-05T11:30:00Z,VEAT 051130Z 00000KT 4000 BR FEW018 FEW030CB 29/26 Q1013 NOSIG
VEBN,2022-11-05T11:30:00Z,VEBN 051130Z 09003KT 3500 HZ NSC 28/19 Q1014 BECMG 3000 HZ
VEBS,2022-11-05T11:30:00Z,VEBS 051130Z 10003KT 4000 HZ SCT018 29/21 Q1014 NOSIG
VECC,2022-11-05T11:30:00Z,VECC 051130Z 01005KT 4000 HZ FEW020 28/19 Q1012 NOSIG
VECO,2022-11-05T11:00:00Z,VECO 051100Z 00000KT 6000 NSC 28/21 Q1013
VEDG,2022-11-05T11:30:00Z,VEDG 051130Z 34003KT 3800 HZ FEW020 SCT090 27/17 Q1014 NOSIG
VEGT,2022-11-05T11:30:00Z,VEGT 051130Z 00000KT 4000 BR FEW020 SCT100 27/24 Q1014 BECMG 3000 BR
VEGY,2022-11-05T11:30:00Z,VEGY 051130Z 00000KT 4000 HZ NSC 28/17 Q1014 NOSIG
VEIM,2022-11-05T11:00:00Z,VEIM 051100Z 21003KT 6000 HZ FEW018 27/19 Q1017 NOSIG
VEJH,2022-11-05T11:30:00Z,VEJH 051130Z 14003KT 2500 HZ NSC 27/20 Q1014
VEJR,2022-11-05T11:00:00Z,VEJR 051100Z 05004KT 5000 HZ NSC 29/14 Q1016
VEJS,2022-11-05T11:00:00Z,VEJS 051100Z 00000KT 2000 HZ SCT020 28/19 Q1013
VEKI,2022-11-05T11:00:00Z,VEKI 051100Z VRB02KT 3000 HZ NSC 27/17 Q1013 NOSIG
VELR,2022-11-05T11:00:00Z,VELR 051100Z 09002KT 8000 FEW025 30/21 Q1014
VEMN,2022-11-05T11:30:00Z,VEMN 051130Z 00000KT 4000 HZ FEW020 25/20 Q1014 BECMG 3000 BR
VEPT,2022-11-05T11:30:00Z,VEPT 051130Z 09003KT 3500 HZ NSC 27/21 Q1013 NOSIG
VERC,2022-11-05T11:30:00Z,VERC 051130Z 00000KT 4000 HZ SCT020 BKN100 25/18 Q1017 NOSIG
VERP,2022-11-05T11:30:00Z,VERP 051130Z 34002KT 5000 HZ NSC 29/15 Q1014 NOSIG
VERU,2022-11-05T11:00:00Z,VERU 051100Z 00000KT 5000 BR NSC 26/25 Q1013 NOSIG
VGEG,2022-11-05T11:00:00Z,VGEG 051100Z 28006KT 5000 HZ FEW018 30/22 Q1013 NOSIG
VGHS,2022-11-05T11:30:00Z,VGHS 051130Z 00000KT 4000 HZ FEW015 30/21 Q1013 NOSIG
VHHH,2022-11-05T11:30:00Z,VHHH 051130Z 02009KT 9999 FEW018 SCT028 22/17 Q1019 NOSIG
VIAR,2022-11-05T11:30:00Z,VIAR 051130Z 08004KT 1200 R34/2000 FU SCT040 BKN100 26/22 Q1014 NOSIG
VIDP,2022-11-05T11:30:00Z,VIDP 051130Z 09004KT 1500 R28/2000 R29L/2000 FU NSC 28/20 Q1015 NOSIG
VIJP,2022-11-05T11:30:00Z,VIJP 051130Z VRB03KT 5000 HZ NSC 33/06 Q1015 NOSIG
VILK,2022-11-05T11:30:00Z,VILK 051130Z 00000KT 2500 HZ NSC 29/23 Q1014 NOSIG
VLLB,2022-11-05T11:00:00Z,VLLB 051100Z 36002KT CAVOK 27/16 Q1015 NOSIG
VLLN,2022-11-05T11:00:00Z,VLLN 051100Z 18002KT 8000 FEW020 21/20 Q1018 NOSIG
VLPS,2022-11-05T11:00:00Z,VLPS 051100Z 32002KT 9999 FEW030 BKN050 29/21 Q1013 NOSIG
VLVT,2022-11-05T11:30:00Z,VLVT 051130Z 00000KT 5000 BR FEW050 24/20 Q1014 NOSIG
VMMC,2022-11-05T11:30:00Z,VMMC 051130Z 35013KT 9999 FEW022 SCT030 21/18 Q1018 NOSIG
VOBG,2022-11-05T11:30:00Z,VOBG 051130Z 07005KT 6000 SCT012 27/19 Q1016 NOSIG
VOBL,2022-11-05T11:30:00Z,VOBL 051130Z 07008KT 9999 FEW015 27/18 Q1016 NOSIG
VOBM,2022-11-05T11:30:00Z,VOBM 051130Z 07006KT 9999 SCT012 SCT018 28/17 Q1017
VOBZ,2022-11-05T11:30:00Z,VOBZ 051130Z VRB02KT 4000 HZ SCT020 BKN100 30/24 Q1012 NOSIG
VOCB,2022-11-05T11:30:00Z,VOCB 051130Z 06003KT 5000 HZ SCT012 FEW020CB BKN080 26/21 Q1013 NOSIG
VOCI,2022-11-05T11:30:00Z,VOCI 051130Z VRB02KT 3500 BR SCT012 BKN080 26/25 Q1011 NOSIG
VOCL,2022-11-05T11:30:00Z,VOCL 051130Z 14005KT 4000 -TSRA FEW006 SCT012 FEW025CB BKN080 24/21 Q1011 NOSIG
VOGB,2022-11-05T11:00:00Z,VOGB 051100Z VRB02KT 9000 NSC 30/21 Q1014 NOSIG
VOGO,2022-11-05T11:00:00Z,VOGO 051100Z 23008KT 6000 FEW030 31/23 Q1010 NOSIG
VOHB,2022-11-05T11:30:00Z,VOHB 051130Z 09009KT 8000 FEW015 SCT080 30/18 Q1014
VOHS,2022-11-05T11:30:00Z,VOHS 051130Z 09005KT 5000 HZ FEW015 29/19 Q1016 NOSIG
VOHY,2022-11-05T11:30:00Z,VOHY 051130Z 05005KT 6000 SCT020 28/16 Q1016 NOSIG
VOJV,2022-11-05T11:30:00Z,VOJV 051130Z 12006KT 8000 SCT015 SCT018 29/20 Q1015
VOKN,2022-11-05T11:30:00Z,VOKN 051130Z 18003KT 5000 -TSRA FEW006 SCT012 FEW025CB BKN080 29/25 Q1011 NOSIG
VOMD,2022-11-05T11:30:00Z,VOMD 051130Z 36003KT 5000 HZ SCT018 BKN100 28/24 Q1011 NOSIG
VOML,2022-11-05T11:30:00Z,VOML 051130Z 23008KT 8000 FEW015 SCT020 29/24 Q1010 NOSIG
VOMM,2022-11-05T11:30:00Z,VOMM 051130Z 06007KT 6000 SCT020 30/24 Q1011 NOSIG
VOMY,2022-11-05T11:30:00Z,VOMY 051130Z 09010KT 9999 FEW015 28/19 Q1015
VOND,2022-11-05T11:30:00Z,VOND 051130Z 10001KT 7000 NSC 31/12 Q1015 NOSIG
VOPB,2022-11-05T11:00:00Z,VOPB 051100Z 09005KT 6000 SCT014 SCT220 28/22 Q1011 NOSIG
VOPC,2022-11-05T11:30:00Z,VOPC 051130Z 09007KT 6000 FEW015 SCT020 31/24 Q1012 NOSIG
VORY,2022-11-05T11:30:00Z,VORY 051130Z 11007KT 4000 HZ FEW020 30/24 Q1012 NOSIG
VOTK,2022-11-05T11:00:00Z,VOTK 051100Z 03002KT 6000 FEW020 FEW025TCU SCT100 30/23 Q1011 NOSIG
VOTP,2022-11-05T11:30:00Z,VOTP 051130Z 07009KT 6000 FEW020 29/22 Q1012 NOSIG
VOTR,2022-11-05T11:30:00Z,VOTR 051130Z 14003KT 4000 HZ FEW015 SCT080 FEW025CB 28/23 Q1011 NOSIG
VOTV,2022-11-05T11:30:00Z,VOTV 051130Z 24003KT 5000 DZ SCT015 BKN090 28/24 Q1011 NOSIG
VOVZ,2022-11-05T11:30:00Z,VOVZ 051130Z 10007KT 5000 HZ NSC 29/18 Q1013 NOSIG
VQPR,2022-11-05T11:00:00Z,VQPR 051100Z 19007KT 9999 NSC 18/M02 Q1024
VRMG,2022-11-05T11:00:00Z,VRMG 051100Z 26009KT 9999 FEW018 FEW019CB BKN260 30/25 Q1011 CB NW NOSIG
VRMH,2022-11-05T11:00:00Z,VRMH 051100Z 29003KT 9999 FEW018 SCT120 BKN250 29/24 Q1011
VRMM,2022-11-05T11:00:00Z,VRMM 051100Z 24011KT 9999 FEW017 SCT120 BKN250 28/25 Q1011 TEMPO 5000 SHRA
VTBD,2022-11-05T11:30:00Z,VTBD 051130Z 12005KT 9999 FEW030 BKN080 30/21 Q1013 NOSIG
VTBO,2022-11-05T11:00:00Z,VTBO 051100Z 03008KT 5000 HZ FEW020 BKN100 27/22 Q1013
VTBS,2022-11-05T11:30:00Z,VTBS 051130Z 03006KT 9999 FEW030 BKN070 30/19 Q1013 NOSIG
VTBU,2022-11-05T11:30:00Z,VTBU 051130Z 36003KT 6000 FEW025 SCT100 27/22 Q1013 NOSIG
VTCC,2022-11-05T11:30:00Z,VTCC 051130Z 29003KT 9999 FEW035 26/19 Q1015 NOSIG
VTCH,2022-11-05T11:00:00Z,VTCH 051100Z 07003KT 020V100 9999 FEW020TCU SCT025 27/21 Q1014 NOSIG
VTCL,2022-11-05T11:00:00Z,VTCL 051100Z 24003KT 170V290 9999 FEW025 28/17 Q1015 NOSIG
VTCN,2022-11-05T11:00:00Z,VTCN 051100Z VRB01KT CAVOK 24/21 Q1014 NOSIG
VTCP,2022-11-05T11:00:00Z,VTCP 051100Z 00000KT CAVOK 27/19 Q1014 NOSIG
VTCT,2022-11-05T11:00:00Z,VTCT 051100Z 35003KT CAVOK 25/19 Q1016 NOSIG
VTPB,2022-11-05T11:00:00Z,VTPB 051100Z 00000KT 9999 FEW030 25/22 Q1013 NOSIG
VTPH,2022-11-05T11:00:00Z,VTPH 051100Z 00000KT 9000 FEW030 26/20 Q1012 NOSIG
VTPM,2022-11-05T11:00:00Z,VTPM 051100Z 05004KT 030V100 CAVOK 27/15 Q1014 NOSIG
VTPO,2022-11-05T11:00:00Z,VTPO 051100Z VRB02KT 9999 FEW025 30/17 Q1014 NOSIG
VTPP,2022-11-05T11:00:00Z,VTPP 051100Z 34001KT CAVOK 26/19 Q1013 NOSIG
VTSB,2022-11-05T11:00:00Z,VTSB 051100Z 00000KT 9999 FEW018 25/24 Q1011 NOSIG
VTSC,2022-11-05T11:00:00Z,VTSC 051100Z VRB01KT 9999 -RA FEW016 BKN100 27/25 Q1010 NOSIG
VTSE,2022-11-05T11:00:00Z,VTSE 051100Z 04003KT 320V080 9000 -RA BKN020 OVC080 25/25 Q1011 NOSIG
VTSF,2022-11-05T11:00:00Z,VTSF 051100Z 28003KT 240V310 9999 BKN018 BKN022 27/26 Q1011 NOSIG
VTSG,2022-11-05T11:00:00Z,VTSG 051100Z 06002KT 9999 -RA SCT020 26/25 Q1011 NOSIG
VTSM,2022-11-05T11:00:00Z,VTSM 051100Z 08005KT 9999 FEW012 SCT018 26/25 Q1011 NOSIG
VTSP,2022-11-05T11:30:00Z,VTSP 051130Z VRB02KT 9999 FEW015 26/25 Q1010 NOSIG
VTSR,2022-11-05T11:00:00Z,VTSR 051100Z VRB06KT 9999 BKN020 26/22 Q1010 NOSIG
VTSS,2022-11-05T11:30:00Z,VTSS 051130Z VRB03KT 7000 -TSRA FEW010 FEW018CB SCT020 OVC090 24/24 Q1012 RERA NOSIG
VTST,2022-11-05T11:00:00Z,VTST 051100Z VRB01KT 8000 3500W -RA SCT020 SCT025 BKN050 26/25 Q1010 NOSIG
VTUD,2022-11-05T11:00:00Z,VTUD 051100Z 06003KT 030V140 9999 FEW030 27/18 Q1014 NOSIG
VTUI,2022-11-05T11:00:00Z,VTUI 051100Z 01003KT 330V030 9999 BKN035 27/20 Q1014 NOSIG
VTUK,2022-11-05T11:00:00Z,VTUK 051100Z 14002KT 9000 FEW030 SCT080 28/18 Q1015 NOSIG
VTUL,2022-11-05T11:00:00Z,VTUL 051100Z 00000KT 9000 FEW030 24/21 Q1015 NOSIG
VTUO,2022-11-05T11:00:00Z,VTUO 051100Z 08002KT CAVOK 28/21 Q1014 NOSIG
VTUQ,2022-11-05T11:00:00Z,VTUQ 051100Z 03002KT 9999 FEW030 25/20 Q1015 NOSIG
VTUU,2022-11-05T11:00:00Z,VTUU 051100Z VRB02KT 9000 NSC 26/21 Q1014 NOSIG
VTUV,2022-11-05T11:00:00Z,VTUV 051100Z 00000KT 9000 FEW040 26/20 Q1014 NOSIG
VTUW,2022-11-05T11:00:00Z,VTUW 051100Z 06007KT 8000 FEW035 26/17 Q1015 NOSIG
VVCI,2022-11-05T11:30:00Z,VVCI 051130Z 11007KT CAVOK 24/19 Q1017 NOSIG
VVCR,2022-11-05T11:30:00Z,VVCR 051130Z 06010KT 9999 FEW015 26/22 Q1015 NOSIG
VVCT,2022-11-05T11:30:00Z,VVCT 051130Z VRB03KT 9999 FEW015 FEW017CB SCT050 27/22 Q1013 NOSIG
VVDN,2022-11-05T11:30:00Z,VVDN 051130Z 36007KT 9999 FEW017 SCT060 25/21 Q1016 NOSIG
VVNB,2022-11-05T11:30:00Z,VVNB 051130Z 35002KT 6000 NSC 25/18 Q1017 NOSIG
VVPB,2022-11-05T11:30:00Z,VVPB 051130Z 25003KT 8000 SCT015 BKN050 24/23 Q1017 NOSIG
VVPQ,2022-11-05T11:30:00Z,VVPQ 051130Z VRB03KT 8000 -RA SCT013 FEW015CB SCT040 24/23 Q1013 NOSIG
VVTS,2022-11-05T11:30:00Z,VVTS 051130Z 16005KT 140V200 9999 FEW017 29/22 Q1012 NOSIG
VYNT,2022-11-05T11:00:00Z,VYNT 051100Z 20003KT 6000 SCT020 SCT110 29/22 Q1013 NOSIG
VYYY,2022-11-05T11:30:00Z,VYYY 051130Z 35003KT 7000 NSC 30/22 Q1012 NOSIG
WAAA,2022-11-05T11:30:00Z,WAAA 051130Z 10003KT 8000 FEW019 25/24 Q1011 NOSIG
WADD,2022-11-05T11:30:00Z,WADD 051130Z 16010KT 9999 SCT017 29/26 Q1011 NOSIG
WADL,2022-11-05T11:30:00Z,WADL 051130Z 12005KT 090V150 5000 FEW015CB SCT016 28/24 Q1012 NOSIG RMK CB TO NW
WAHS,2022-11-05T11:30:00Z,WAHS 051130Z 27003KT 7000 TS FEW013CB SCT014 29/26 Q1010 RMK CB TO SE AND S
WAJJ,2022-11-05T11:30:00Z,WAJJ 051130Z 36002KT 9000 FEW012 28/23 Q1010 NOSIG
WALL,2022-11-05T11:30:00Z,WALL 051130Z 17001KT 9000 FEW020 28/26 Q1010 NOSIG
WAMM,2022-11-05T11:30:00Z,WAMM 051130Z VRB02KT 9999 SCT020 24/24 Q1011 NOSIG
WAOO,2022-11-05T11:30:00Z,WAOO 051130Z 14003KT 110V170 9999 FEW016CB SCT018 26/24 Q1010 NOSIG RMK CB TO N
WAPP,2022-11-05T11:30:00Z,WAPP 051130Z 31006KT 250V350 8000 -TSRA FEW017CB SCT018 26/24 Q1010 NOSIG RMK CB TO SE
WAQQ,2022-11-05T11:30:00Z,WAQQ 051130Z 07003KT 8000 FEW015 28/25 Q1010 NOSIG
WARR,2022-11-05T11:30:00Z,WARR 051130Z 12003KT 9999 SCT020 28/26 Q1010 NOSIG
WBGB,2022-11-05T11:00:00Z,WBGB 051100Z VRB02KT 9999 SCT016 26/25 Q1011
WBGG,2022-11-05T11:30:00Z,WBGG 051130Z VRB05KT 9999 SCT020 28/25 Q1011 NOSIG
WBGR,2022-11-05T11:00:00Z,WBGR 051100Z VRB03KT 9999 SCT014 26/24 Q1011
WBGS,2022-11-05T11:00:00Z,WBGS 051100Z 00000KT 9999 SCT018 26/24 Q1011
WBGY,2022-11-05T11:00:00Z,WBGY 051100Z AUTO 00000KT //// // ////// 24/23 Q1011
WBKK,2022-11-05T11:30:00Z,WBKK 051130Z VRB02KT 9999 FEW013 24/24 Q1010 NOSIG
WBKL,2022-11-05T11:00:00Z,WBKL 051100Z 35003KT 260V030 1000 +RA SCT008 BKN030 26/25 Q1012
WBKS,2022-11-05T11:00:00Z,WBKS 051100Z 27003KT 9999 FEW015 26/25 Q1010
WBKT,2022-11-05T11:00:00Z,WBKT 051100Z VRB02KT 9999 FEW013 26/25 Q1011
WBKW,2022-11-05T11:00:00Z,WBKW 051100Z VRB02KT 9999 FEW016 27/25 Q1010
WBSB,2022-11-05T11:30:00Z,WBSB 051130Z 27004KT 4000 -TSRA FEW004 SCT012 FEW015CB BKN150 25/25 Q1012 TEMPO 3000 TSRA
WIBB,2022-11-05T11:30:00Z,WIBB 051130Z 05004KT 8000 SCT012 27/25 Q1009 NOSIG
WIDD,2022-11-05T11:30:00Z,WIDD 051130Z 00000KT 9999 FEW013 26/24 Q1012 NOSIG
WIEE,2022-11-05T11:30:00Z,WIEE 051130Z VRB01KT 9999 SCT020 26/23 Q1012
WIII,2022-11-05T11:30:00Z,WIII 051130Z 24006KT 7000 FEW020 26/24 Q1011 NOSIG
WIMM,2022-11-05T11:30:00Z,WIMM 051130Z 33002KT 5000 -RA FEW017CB BKN018 28/24 Q1010 TEMPO FM1200 3000 -TSRA RMK CB TO SW W NW
WIOO,2022-11-05T11:30:00Z,WIOO 051130Z 13003KT 6000 -RA FEW010CB BKN011 24/24 Q1012 NOSIG
WMAU,2022-11-05T11:00:00Z,WMAU 051100Z VRB02KT 9000 SCT025 27/25 Q1010
WMBA,2022-11-05T11:00:00Z,WMBA 051100Z 00000KT 9999 FEW031 29/25 Q1010
WMKA,2022-11-05T11:00:00Z,WMKA 051100Z VRB02KT 9999 FEW020 SCT027 26/25 Q1010
WMKB,2022-11-05T11:00:00Z,WMKB 051100Z VRB02KT 7000 -RA FEW024 27/25 Q1010 NOSIG
WMKC,2022-11-05T11:00:00Z,WMKC 051100Z 00000KT 9999 FEW020 27/25 Q1010
WMKD,2022-11-05T11:00:00Z,WMKD 051100Z VRB02KT 9999 FEW025 28/25 Q1010 NOSIG
WMKE,2022-11-05T11:00:00Z,WMKE 051100Z 00000KT 9999 FEW022 27/25 Q1010
WMKI,2022-11-05T11:00:00Z,WMKI 051100Z 23003KT 9000 FEW019 29/24 Q1010
WMKJ,2022-11-05T11:00:00Z,WMKJ 051100Z 00000KT 9999 FEW020 26/25 Q1010
WMKK,2022-11-05T11:30:00Z,WMKK 051130Z VRB01KT 9999 FEW030 27/25 Q1010 NOSIG
WMKL,2022-11-05T11:00:00Z,WMKL 051100Z 00000KT 8000 -RA FEW005 SCT025 25/24 Q1010
WMKM,2022-11-05T11:00:00Z,WMKM 051100Z VRB01KT 9999 FEW028 28/25 Q1011
WMKN,2022-11-05T11:00:00Z,WMKN 051100Z VRB01KT 9999 FEW022 27/26 Q1010
WMKP,2022-11-05T11:30:00Z,WMKP 051130Z 00000KT 8000 FEW017CB 28/24 Q1010 NOSIG
WMSA,2022-11-05T11:00:00Z,WMSA 051100Z VRB02KT 9999 FEW026 29/24 Q1010
WSAP,2022-11-05T11:00:00Z,WSAP 051100Z 03002KT 9999 FEW016 BKN260 26/24 Q1010
WSSL,2022-11-05T11:00:00Z,WSSL 051100Z 36002KT 9999 FEW018 BKN270 26/24 Q1010
WSSS,2022-11-05T11:30:00Z,WSSS 051130Z VRB02KT 9999 -RA FEW018 BKN150 25/24 Q1011 NOSIG
YAMB,2022-11-05T11:30:00Z,YAMB 051130Z AUTO 13005KT 9999 // OVC087 18/13 Q1025
YAYT,2022-11-05T11:00:00Z,YAYT 051100Z 32008KT 9999 FEW040CB SCT045 24/03 Q1016
YBAS,2022-11-05T11:30:00Z,YBAS 051130Z AUTO 11008KT 9999 // NCD 23/M04 Q1018 RF00.0/000.0
YBBN,2022-11-05T11:30:00Z,YBBN 051130Z 16007KT 9999 VCSH FEW032 SCT080 19/13 Q1025
YBCG,2022-11-05T11:30:00Z,YBCG 051130Z AUTO 20005KT 9999 // SCT033 17/13 Q1025 RF00.0/000.0
YBCS,2022-11-05T11:30:00Z,YBCS 051130Z AUTO 17009KT 9999 // NCD 25/19 Q1015
YBHM,2022-11-05T11:30:00Z,YBHM 051130Z AUTO 12025KT //// // NCD 25/18 Q1019 RF00.0/000.0
YBLN,2022-11-05T11:30:00Z,YBLN 051130Z AUTO 18012KT 9999 // NCD 15/09 Q1019 RF00.0/000.0
YBMA,2022-11-05T11:30:00Z,YBMA 051130Z AUTO 20005KT 9999 // NCD 27/08 Q1014 RF00.0/000.0
YBRK,2022-11-05T11:30:00Z,YBRK 051130Z AUTO 12007KT 9999 // SCT037 21/15 Q1021 RF00.0/000.0
YBRM,2022-11-05T11:30:00Z,YBRM 051130Z AUTO 31008KT 9999 // NCD 28/21 Q1011 RF00.0/000.0
YBSU,2022-11-05T11:30:00Z,YBSU 051130Z AUTO 14013KT 9999 // SCT034 SCT050 OVC084 21/15 Q1024
YBTL,2022-11-05T11:30:00Z,YBTL 051130Z AUTO 12014KT 9999 // SCT035 BKN041 BKN046 25/19 Q1017
YBWW,2022-11-05T11:30:00Z,YBWW 051130Z AUTO 09014KT 9999 // NCD 16/11 Q1025 RF00.0/000.0
YCFS,2022-11-05T11:30:00Z,YCFS 051130Z AUTO 22003KT 9999 // BKN037 OVC052 16/15 Q1027
YCIN,2022-11-05T11:30:00Z,YCIN 051130Z AUTO 33008KT 9999 // NCD 29/20 Q1010 RF00.0/000.0
YFRT,2022-11-05T11:30:00Z,YFRT 051130Z AUTO 18019KT 9999 // NCD 18/12 Q1017 RF00.0/000.0
YGEL,2022-11-05T11:30:00Z,YGEL 051130Z AUTO 18016KT 9999 // NCD 18/13 Q1013 RF00.0/000.0
YGLA,2022-11-05T11:30:00Z,YGLA 051130Z AUTO 14007KT 9999 // NCD 21/15 Q1022 RF00.0/000.0
YHID,2022-11-05T11:30:00Z,YHID 051130Z AUTO 11015KT 9999 // SCT022 BKN029 29/24 Q1012
YLHI,2022-11-05T11:30:00Z,YLHI 051130Z AUTO 10012KT 9999 // SCT031 18/12 Q1027 RF00.0/000.2
YMAV,2022-11-05T11:30:00Z,YMAV 051130Z AUTO 21005KT 9999 // NCD 13/12 Q1024 RF00.0/000.0
YMHB,2022-11-05T11:30:00Z,YMHB 051130Z AUTO 19004KT 9999 // OVC040 12/10 Q1024 RF00.0/000.0
YMLT,2022-11-05T11:30:00Z,YMLT 051130Z AUTO 29006KT 9999 // NCD 11/07 Q1024 RF00.0/000.0
YMML,2022-11-05T11:30:00Z,YMML 051130Z 00000KT CAVOK 15/10 Q1024
YPAD,2022-11-05T11:30:00Z,YPAD 051130Z 08005KT CAVOK 18/08 Q1020
YPBO,2022-11-05T11:21:00Z,YPBO 051121Z AUTO 27015KT 9999 // NCD 35/00 Q1008
YPCC,2022-11-05T11:30:00Z,YPCC 051130Z AUTO 11011KT 9999 // SCT018 OVC046 26/23 Q1014
YPDN,2022-11-05T11:37:00Z,YPDN 051137Z 12019G29KT 9999 VCSH FEW024 SCT060 BKN150 27/20 Q1013
YPEA,2022-11-05T11:30:00Z,YPEA 051130Z AUTO 20007KT 9999 // NCD 17/11 Q1016
YPGV,2022-11-05T11:30:00Z,YPGV 051130Z AUTO 14004KT 9999 // NCD 28/24 Q1012 RF00.0/000.0
YPJT,2022-11-05T11:30:00Z,YPJT 051130Z AUTO 19011KT 9999 // NCD 18/12 Q1017 RF00.0/000.0
YPKG,2022-11-05T11:30:00Z,YPKG 051130Z AUTO 17009KT 9999 // NCD 24/05 Q1016 RF00.0/000.0
YPKU,2022-11-05T11:30:00Z,YPKU 051130Z AUTO 00000KT 9999 // NCD 27/21 Q1011 RF00.0/000.0
YPLM,2022-11-05T11:30:00Z,YPLM 051130Z AUTO 23015KT //// // NCD 22/14 Q1011 RF00.0/000.0
YPPD,2022-11-05T11:30:00Z,YPPD 051130Z AUTO 29011KT 9999 // NCD 25/23 Q1010 RF00.0/000.0
YPPH,2022-11-05T11:30:00Z,YPPH 051130Z 20013KT CAVOK 19/11 Q1017
YPTN,2022-11-05T11:30:00Z,YPTN 051130Z AUTO 25004KT 200V310 9999 // NCD 32/14 Q1011 RF00.0/000.0
YPWR,2022-11-05T11:30:00Z,YPWR 051130Z AUTO 08008KT 9999 // NCD 21/06 Q1020 RF00.0/000.0
YPXM,2022-11-05T11:30:00Z,YPXM 051130Z AUTO 14007KT 9999 // OVC011 OVC017 24/23 Q1014
YSCB,2022-11-05T11:30:00Z,YSCB 051130Z AUTO 33002KT 9999 // SCT097 13/09 Q1026
YSDU,2022-11-05T11:30:00Z,YSDU 051130Z AUTO 09005KT 9999 // NCD 13/10 Q1025 RF00.0/000.0
YSNF,2022-11-05T11:30:00Z,YSNF 051130Z AUTO 11013KT 9999 // ////// 17/15 Q1023 RF00.0/000.0
YSRI,2022-11-05T11:30:00Z,YSRI 051130Z AUTO 00000KT 9999 // NCD 15/12 Q1027 RF00.0/000.0
YSSY,2022-11-05T11:30:00Z,YSSY 051130Z 02005KT CAVOK 19/11 Q1027
YSTW,2022-11-05T11:30:00Z,YSTW 051130Z AUTO 09007KT 9999 // OVC068 17/10 Q1026 RF00.0/000.0
YWLM,2022-11-05T11:30:00Z,YWLM 051130Z AUTO 13001KT 9999 // NCD 14/12 Q1026 RF00.0/000.0
ZBAA,2022-11-05T11:30:00Z,ZBAA 051130Z VRB01MPS CAVOK 04/M03 Q1023 NOSIG
ZBAD,2022-11-05T11:30:00Z,ZBAD 051130Z 21002MPS CAVOK 07/03 Q1023 NOSIG
ZBHH,2022-11-05T11:00:00Z,ZBHH 051100Z 04003MPS CAVOK 03/M06 Q1020 NOSIG
ZBSJ,2022-11-05T11:00:00Z,ZBSJ 051100Z 05001MPS 3500 BR NSC 07/06 Q1023 NOSIG
ZBTJ,2022-11-05T11:30:00Z,ZBTJ 051130Z 18001MPS 6000 NSC 10/04 Q1023 NOSIG
ZBYN,2022-11-05T11:30:00Z,ZBYN 051130Z 09002MPS 8000 NSC 09/02 Q1021 NOSIG
ZGGG,2022-11-05T11:30:00Z,ZGGG 051130Z 01004MPS 9999 OVC030 20/16 Q1020 NOSIG
ZGHA,2022-11-05T11:00:00Z,ZGHA 051100Z 32004MPS 8000 NSC 18/11 Q1023 NOSIG
ZGKL,2022-11-05T11:00:00Z,ZGKL 051100Z 06005MPS 9999 SCT033 21/09 Q1021 BECMG FM1200 35002MPS
ZGNN,2022-11-05T11:00:00Z,ZGNN 051100Z 10003MPS CAVOK 22/16 Q1019 NOSIG
ZGOW,2022-11-05T11:00:00Z,ZGOW 051100Z 12004MPS 9999 OVC040 22/16 Q1020 NOSIG
ZGSZ,2022-11-05T11:00:00Z,ZGSZ 051100Z 02005MPS 9999 -RA BKN026 21/16 Q1019 NOSIG
ZHCC,2022-11-05T11:00:00Z,ZHCC 051100Z 00000MPS CAVOK 11/03 Q1024 NOSIG
ZHHH,2022-11-05T11:00:00Z,ZHHH 051100Z 00000MPS CAVOK 15/09 Q1024 NOSIG
ZJHK,2022-11-05T11:00:00Z,ZJHK 051100Z 04004MPS 9999 SCT015 BKN040 23/20 Q1017 BECMG AT1250 BKN011 BKN026
ZJSY,2022-11-05T11:00:00Z,ZJSY 051100Z 00000MPS 9999 SCT040 26/21 Q1015 NOSIG
ZLLL,2022-11-05T11:00:00Z,ZLLL 051100Z 06002MPS CAVOK 09/M02 Q1019 NOSIG
ZLXY,2022-11-05T11:00:00Z,ZLXY 051100Z 27003MPS 5000 HZ NSC 13/08 Q1021 NOSIG
ZPPP,2022-11-05T11:00:00Z,ZPPP 051100Z 30003MPS 260V350 5000 -SHRA BR FEW023TCU FEW023 BKN036 11/10 Q1025 NOSIG
ZSAM,2022-11-05T11:00:00Z,ZSAM 051100Z 06007MPS 9999 FEW040 20/13 Q1021 NOSIG
ZSFZ,2022-11-05T11:00:00Z,ZSFZ 051100Z 03008MPS 9999 BKN033 18/12 Q1024 NOSIG
ZSHC,2022-11-05T11:30:00Z,ZSHC 051130Z 00000MPS CAVOK 12/07 Q1026 NOSIG
ZSNB,2022-11-05T11:00:00Z,ZSNB 051100Z 29003MPS CAVOK 11/09 Q1027 NOSIG
ZSNJ,2022-11-05T11:00:00Z,ZSNJ 051100Z 12003MPS CAVOK 13/05 Q1026 NOSIG
ZSOF,2022-11-05T11:00:00Z,ZSOF 051100Z 14002MPS CAVOK 13/02 Q1026 NOSIG
ZSPD,2022-11-05T11:30:00Z,ZSPD 051130Z 02005MPS CAVOK 14/07 Q1027 NOSIG
ZSQD,2022-11-05T11:00:00Z,ZSQD 051100Z 15003MPS CAVOK 09/02 Q1026 NOSIG
ZSSS,2022-11-05T11:30:00Z,ZSSS 051130Z 05003MPS CAVOK 15/06 Q1027 NOSIG
ZUCK,2022-11-05T11:00:00Z,ZUCK 051100Z 34002MPS 310V010 6000 NSC 18/13 Q1020 NOSIG
ZUGY,2022-11-05T11:00:00Z,ZUGY 051100Z 13003MPS 9999 SCT040 15/08 Q1022 NOSIG
ZUTF,2022-11-05T11:00:00Z,ZUTF 051100Z VRB01MPS 9999 SCT050 17/14 Q1020 NOSIG
ZUUU,2022-11-05T11:00:00Z,ZUUU 051100Z 13003G08MPS 080V180 9999 FEW026 SCT050 18/12 Q1020 NOSIG
ZWSH,2022-11-05T11:00:00Z,ZWSH 051100Z AUTO 14002MPS 9999 // ///////// 14/M06 Q1018
ZWWW,2022-11-05T11:30:00Z,ZWWW 051130Z 35001MPS 7000 NSC 09/01 Q1023 NOSIG
ZYCC,2022-11-05T11:00:00Z,ZYCC 051100Z VRB01MPS CAVOK M03/M09 Q1022 NOSIG
ZYHB,2022-11-05T11:00:00Z,ZYHB 051100Z 21002MPS CAVOK M02/M06 Q1022 NOSIG
ZYTL,2022-11-05T11:30:00Z,ZYTL 051130Z 00000MPS 8000 NSC 08/01 Q1024 NOSIG
ZYTX,2022-11-05T11:30:00Z,ZYTX 051130Z 14002MPS 110V170 CAVOK 02/M09 Q1023 NOSIG
