station_id,raw_text
AGGA,TAF AGGA 272310Z 2800/2824 23007KT 9999 FEW020 Q 1007 1005 1004 1006
AGGC,TAF AGGC 272310Z 2800/2824 VRB03KT 9999 FEW020 SCT030 Q 1009 1007 1006 1008
AGGH,TAF AGGH 280510Z 2806/2906 34008KT 9999 FEW018 T 31 29 27 25 Q 1005 1007 1008 1006
AGGK,TAF AGGK 272310Z 2800/2824 05010KT 9999 FEW020
AGGL,TAF AGGL 272310Z 2800/2824 12008KT 9999 FEW020 SCT030 Q 1010 1008 1007 1009
AGGM,TAF AGGM 280510Z 2806/2906 09008KT 9999 FEW018 Q 1004 1006 1007 1005
AGGN,TAF AGGN 280510Z 2806/2906 09008KT 9999 FEW018 Q 1004 1006 1007 1005
AGGR,TAF AGGR 272310Z 2800/2824 VRB03KT 9999 FEW020 SCT030 Q 1010 1008 1007 1009
ANYN,TAF ANYN 280307Z 2806/2906 09010KT 9999 SCT020 T 28 26 26 27 Q 1008 1010 1009 1007
AYPY,TAF AYPY 280230Z 2806/2906 16007KT 9999 -SHRA SCT018 SCT030 BKN120 FM281000 16010KT 9999 -RADZ SCT018 SCT040 INTER 2806/2809 4000 +TSRA BKN008 FEW017CB
BGAA,TAF BGAA 281011Z 2809/2818 02005KT 9000 -SN SCT005 BKN010 TEMPO 2809/2814 3000 BKN005 BECMG 2814/2816 FEW010 BKN120
BGBW,TAF BGBW 280902Z 2809/2818 07020KT 9999 FEW060 SCT100 TEMPO 2809/2818 07020G30KT
BGCO,TAF BGCO 280855Z 2809/2816 36010KT 9999 SCT200
BGGH,TAF BGGH 280801Z 2809/2818 02005KT 8000 BCFG FEW002 TEMPO 2809/2813 20010KT 0300 FZFG VV002 FM281300 22005KT 9999 SCT004 TEMPO 2813/2818 BKN004
BGJN,TAF BGJN 280813Z 2809/2818 08005KT 9999 FEW200
BGKK,TAF BGKK 280946Z 2809/2818 33004KT 9999 FEW004 TEMPO 2809/2811 BKN004 BECMG 2809/2811 08012KT TEMPO 2811/2813 BKN010 BECMG 2813/2815 23006KT
BGMQ,TAF BGMQ 280801Z 2809/2818 14004KT 8000 BCFG FEW001 TEMPO 2809/2813 0300 FZFG VV002 FM281300 17005KT 9999 BKN004 TEMPO 2813/2818 BKN007
BGPT,TAF BGPT 281003Z 2809/2818 03003KT 9999 FEW200 BECMG 2815/2817 33010KT BKN006 TEMPO 2817/2818 SCT006
BGSF,TAF AMD BGSF 280559Z 2806/2902 05008KT 9999 BKN024 TEMPO 2806/2809 SCT024 BECMG 2809/2811 FEW200
BGSS,TAF BGSS 281017Z 2809/2818 VRB02KT 9999 FEW200 BECMG 2817/2818 0300 FZFG VV002
BGTL,TAF BGTL 280300Z 2803/2909 VRB06KT 9999 SCT025 BKN040 620404 QNH3050INS BECMG 2812/2813 VRB06KT 9999 SCT035 QNH3044INS BECMG 2817/2818 VRB06KT 9999 SKC QNH3041INS TXM07/2821Z TNM20/2808Z
BGUK,TAF BGUK 281004Z 2809/2818 06006KT 9999 FEW003 SCT120
BGUQ,TAF BGUQ 280955Z 2809/2818 12004KT 9999 FEW200
BIAR,TAF BIAR 280753Z 2809/2909 34008KT 9999 SCT020 BKN030 TX01/2815Z TNM07/2906Z PROB40 TEMPO 2811/2821 3000 -SHSN BKN014
BIBD,TAF BIBD 281027Z 2811/2816 03008KT 9999 FEW025
BIEG,TAF BIEG 280753Z 2809/2909 15005KT 9999 -SHSN SCT025 BKN040 TX01/2815Z TNM05/2906Z BECMG 2809/2811 32015KT PROB40 TEMPO 2812/2821 3000 -SHSN BKN014
BIGJ,TAF BIGJ 281024Z 2811/2817 02014KT 9999 BKN022
BIGR,TAF BIGR 281023Z 2811/2817 34013KT 9999 BKN025 PROB40 TEMPO 2811/2817 2000 -SHSN BKN008
BIHN,TAF BIHN 281027Z 2811/2820 02014KT 9999 FEW045 TEMPO 2811/2820 32018G30KT
BIIS,TAF BIIS 281028Z 2811/2818 02014KT 9999 SCT030
BIKF,TAF BIKF 280753Z 2809/2909 07008KT 9999 SCT010 BKN025 TX04/2818Z TNM02/2906Z PROB40 TEMPO 2809/2816 3000 -SNRA BKN007 OVC015 TEMPO 2821/2900 06018KT
BIRK,TAF BIRK 280753Z 2809/2909 09008KT 9999 SCT020 BKN035 TX04/2815Z TNM02/2906Z PROB40 TEMPO 2809/2813 3000 -SNRA BKN012
BIVM,TAF BIVM 281026Z 2811/2818 09008KT 9999 SCT020 BKN030 PROB40 TEMPO 2811/2813 3500 -SNRA BKN006 OVC020
BKPR,TAF BKPR 280530Z 2806/2906 VRB05KT CAVOK
CWWU,TAF CWWU 280810Z 2808/2906 34012KT 5SM -FZDZ BR OVC007 FM281100 35012KT 5SM -DZ BR OVC010 FM281500 36013G24KT 5SM -DZ BR OVC010 FM281800 36015G24KT 5SM -DZ BR OVC007 FM282100 35016G27KT 5SM -DZ BR OVC007 FM290000 35017G27KT 5SM -DZ BR OVC005 RMK NXT FCST BY 281200Z
CYAM,TAF CYAM 280740Z 2808/2820 09008KT P6SM BKN050 RMK NXT FCST BY 281400Z
CYAT,TAF AMD CYAT 281029Z 2810/2819 VRB03KT P6SM FEW015 OVC040 TEMPO 2810/2813 P6SM -SN OVC015 PROB30 2810/2813 2SM BR OVC003 FM281300 VRB03KT 2SM BR OVC003 TEMPO 2813/2815 P6SM NSW OVC010 PROB30 2813/2815 1 1/2SM -FZDZ BR FM281500 06006KT 2SM -DZ BR OVC003 TEMPO 2815/2819 P6SM NSW OVC006 RMK FCST BASED ON AUTO OBS. NXT FCST BY 281500Z
CYAY,TAF CYAY 280740Z 2808/2820 33012KT P6SM SCT008 OVC025 TEMPO 2808/2812 5SM -SN BR OVC008 PROB30 2808/2812 OVC006 FM281200 36015G25KT P6SM SCT015 OVC030 TEMPO 2812/2820 5SM -RASN BKN015 OVC030 RMK FCST BASED ON AUTO OBS. NXT FCST BY 281400Z
CYBC,TAF CYBC 280740Z 2808/2820 VRB03KT P6SM FEW080 PROB30 2808/2812 2SM BR FM281400 19005KT P6SM SCT050 RMK FCST BASED ON AUTO OBS. NXT FCST BY 281400Z
CYBG,TAF CYBG 280540Z 2806/2906 VRB03KT P6SM SKC PROB30 2806/2812 1SM BR OVC003 FM281500 VRB03KT P6SM SCT150 FM290000 09005KT P6SM SCT060 RMK NXT FCST BY 281200Z
CYBK,TAF AMD CYBK 280903Z 2809/2818 VRB03KT 6SM BR OVC010 TEMPO 2809/2810 1SM -SN -FZDZ BR OVC002 FM281000 14007KT 1/2SM FZFG OVC002 TEMPO 2810/2818 5SM -SN BR OVC006 RMK NXT FCST BY 281200Z
CYBR,TAF CYBR 280540Z 2806/2818 33005KT P6SM SCT100 FM280800 34008KT P6SM SCT008 BKN040 TEMPO 2808/2814 5SM BR BKN008 PROB30 2808/2814 3/4SM BR FM281400 34006KT P6SM SCT020 TEMPO 2814/2818 BKN020 BECMG 2816/2818 27006KT RMK NXT FCST BY 281200Z
CYBX,TAF CYBX 280740Z 2808/2820 03010KT P6SM OVC015 TEMPO 2808/2812 BKN025 FM281200 03012G22KT P6SM BKN030 TEMPO 2812/2820 BKN020 RMK NXT FCST BY 281400Z
CYCA,TAF AMD CYCA 281012Z 2810/2820 34010G20KT 2SM -SN BR OVC005 TEMPO 2810/2818 P6SM NSW SCT005 OVC015 PROB40 2810/2812 3/4SM -FZDZ BR OVC003 FM281800 36010KT 3SM -SNRA BR OVC008 RMK FCST BASED ON AUTO OBS. NXT FCST BY 281400Z
CYCB,TAF AMD CYCB 281002Z 2810/2819 12010KT P6SM FEW010 BKN080 TEMPO 2810/2819 P6SM -SN BKN010 OVC100 RMK NXT FCST BY 281300Z
CYCO,TAF AMD CYCO 281004Z 2810/2819 24010KT P6SM OVC030 TEMPO 2810/2819 P6SM -SN OVC015 PROB30 2810/2816 P6SM -FZRA OVC008 RMK NXT FCST BY 281300Z
CYCX,TAF AMD CYCX 280912Z 2809/2822 VRB03KT P6SM BKN080 FM281500 VRB03KT P6SM FEW030 SCT080 RMK NXT FCST BY 281500Z
CYCY,TAF CYCY 280640Z 2807/2819 14012KT 6SM -SN SCT007 OVC040 TEMPO 2807/2819 2SM -SN BR OVC007 PROB30 2807/2815 1/2SM FZFG OVC002 RMK FCST BASED ON AUTO OBS. NXT FCST BY 281300Z
CYDB,TAF CYDB 280540Z 2806/2818 12012G22KT P6SM SKC FM281200 12008KT P6SM SCT240 RMK FCST BASED ON AUTO OBS. NXT FCST BY 281200Z
CYDF,TAF CYDF 280740Z 2808/2820 VRB03KT P6SM OVC008 TEMPO 2808/2813 SCT008 OVC025 PROB30 2808/2813 2SM -FZDZ BR OVC004 FM281300 04008KT P6SM BKN015 TEMPO 2813/2815 BKN025 FM281500 04008KT P6SM BKN030 RMK NXT FCST BY 281400Z
CYDN,TAF CYDN 280540Z 2806/2818 27006KT P6SM FEW080 FM280800 27008KT P6SM FEW006 TEMPO 2808/2814 3SM BR PROB30 2808/2814 1/2SM FZFG VV005 FM281400 30008KT P6SM FEW060 FM281700 VRB03KT P6SM SCT060 RMK FCST BASED ON AUTO OBS. NXT FCST BY 281200Z
CYDP,TAF CYDP 280940Z 2810/2822 09008KT P6SM OVC015 TEMPO 2810/2815 BKN025 FM281500 09008KT P6SM BKN030 TEMPO 2815/2822 BKN020 RMK NXT FCST BY 281400Z
CYEG,TAF CYEG 280840Z 2809/2906 24005KT P6SM OVC080 BECMG 2809/2810 30010KT BKN100 BKN200 FM281200 31012KT P6SM BKN120 BKN220 BECMG 2814/2816 32015G25KT SCT140 BKN240 FM281800 32018KT P6SM SCT240 FM282100 32018KT P6SM SCT070 TEMPO 2821/2823 BKN070 FM290100 32015KT P6SM SCT240 BECMG 2902/2904 03008KT BKN140 FM290500 06006KT P6SM BKN110 RMK NXT FCST BY 281200Z
CYEK,TAF AMD CYEK 280918Z 2809/2818 01006KT 6SM BR SCT003 OVC060 TEMPO 2809/2815 1SM BR OVC003 FM281500 15008KT 6SM BR SCT003 OVC006 TEMPO 2815/2818 3SM -SN BR OVC003 RMK FCST BASED ON AUTO OBS. NXT FCST BY 281200Z
CYER,TAF AMD CYER 281027Z 2810/2819 VRB03KT P6SM OVC025 TEMPO 2810/2818 3SM -SN OVC005 PROB30 2810/2818 2SM -FZDZ BR FM281800 10005KT P6SM BKN005 OVC010 TEMPO 2818/2819 SCT005 BKN010 RMK FCST BASED ON AUTO OBS. NXT FCST BY 281500Z
CYEV,TAF AMD CYEV 281005Z 2810/2819 30008KT P6SM -SN FEW008 OVC040 TEMPO 2810/2816 5SM -SN BR OVC008 FM281600 30010KT P6SM SCT015 BKN040 TEMPO 2816/2819 P6SM -SN BKN015 BKN040 RMK NXT FCST BY 281300Z
CYFB,TAF CYFB 280540Z 2806/2906 14010KT P6SM SCT080 OVC100 TEMPO 2806/2808 SCT010 OVC080 FM280800 14012KT P6SM -SN SCT005 OVC060 TEMPO 2808/2815 4SM -SHSN BR BKN005 PROB30 2808/2811 P6SM -FZRA FM281500 14015KT P6SM -SN SCT008 OVC040 TEMPO 2815/2820 3SM -SHSN BR OVC008 FM282000 14010KT 2SM -SN BR OVC006 TEMPO 2820/2903 5SM -SN BR SCT006 OVC020 FM290300 12008KT P6SM -SN SCT008 BKN060 TEMPO 2903/2906 4SM -SHSN BR BKN008 RMK NXT FCST BY 281200Z
CYFC,TAF CYFC 280540Z 2806/2818 VRB03KT P6SM SCT090 TEMPO 2806/2812 1/2SM FG VV002 FM281200 VRB03KT P6SM SCT050 RMK FCST BASED ON AUTO OBS. NXT FCST BY 281200Z
CYFS,TAF CYFS 280540Z 2806/2818 25008KT P6SM FEW080 BECMG 2808/2810 VRB03KT RMK NXT FCST BY 281200Z
CYGL,TAF CYGL 280540Z 2806/2906 11006KT P6SM FEW030 OVC070 FM280900 11008KT P6SM SCT040 OVC070 TEMPO 2809/2812 3SM -SHRA BR OVC020 FM281200 12008KT P6SM OVC025 TEMPO 2812/2821 3SM -SHRA BR OVC006 FM282100 14008KT P6SM BKN015 FM290300 09005KT P6SM BKN015 PROB30 2903/2906 2SM BR RMK NXT FCST BY 281200Z
CYGP,TAF CYGP 280740Z 2808/2820 VRB03KT P6SM SKC TEMPO 2808/2812 5SM BR PROB30 2808/2812 1/2SM FZFG VV002 FM281200 VRB03KT P6SM FEW030 BECMG 2817/2819 06008KT RMK NXT FCST BY 281400Z
CYGQ,TAF CYGQ 280740Z 2808/2820 VRB03KT P6SM SCT005 OVC020 TEMPO 2808/2814 5SM -RASN BR OVC005 PROB30 2808/2814 1/2SM -FZDZ FZFG VV002 FM281400 04005KT P6SM BKN015 RMK FCST BASED ON AUTO OBS. NXT FCST BY 281400Z
CYGV,TAF AMD CYGV 280922Z 2809/2820 VRB03KT P6SM SKC TEMPO 2809/2812 2SM BR SCT001 PROB30 2809/2812 1/2SM FG BKN001 FM281200 06008KT P6SM FEW040 BECMG 2814/2816 15006KT BECMG 2817/2819 19008KT RMK FCST BASED ON AUTO OBS. NXT FCST BY 281400Z
CYGW,TAF CYGW 280540Z 2806/2818 VRB03KT P6SM BKN040 TEMPO 2806/2813 4SM -SNRA OVC010 PROB30 2806/2813 2SM -FZDZ BR OVC006 FM281300 VRB03KT P6SM FEW025 BKN120 FM281500 VRB03KT P6SM SCT080 TEMPO 2815/2818 BKN080 RMK FCST BASED ON AUTO OBS. NXT FCST BY 281200Z
CYGX,TAF AMD CYGX 280807Z 2808/2819 04005KT P6SM SCT015 TEMPO 2808/2816 2SM BR BKN008 OVC015 PROB30 2809/2814 3/4SM BR VV005 FM281600 VRB03KT P6SM SCT020 RMK NXT FCST BY 281300Z
CYHD,TAF CYHD 280740Z 2808/2820 06005KT P6SM SCT015 SCT230 TEMPO 2808/2814 5SM BR BKN015 PROB30 2808/2812 2SM BR OVC006 FM281400 06008KT P6SM SCT015 TEMPO 2814/2818 BKN015 FM281800 06008KT P6SM SCT050 RMK FCST BASED ON AUTO OBS. NXT FCST BY 281400Z
CYHK,TAF AMD CYHK 280806Z 2808/2818 VRB03KT 1/4SM FZFG VV002 TEMPO 2808/2815 3SM -SN BR OVC005 FM281500 15010KT 6SM BR SCT004 OVC006 TEMPO 2815/2818 3SM BR OVC004 RMK FCST BASED ON AUTO OBS. NXT FCST BY 281200Z
CYHM,TAF CYHM 280540Z 2806/2906 04012KT P6SM SCT250 FM281400 05012KT P6SM FEW020 BKN060 FM281700 05015KT P6SM -RA BKN025 OVC050 FM282000 06015G25KT 2 1/2SM -RA BR BKN006 OVC025 FM290400 06015G25KT 4SM -RA -DZ BR OVC004 RMK NXT FCST BY 281200Z
CYHU,TAF CYHU 280541Z 2806/2906 VRB03KT P6SM SKC PROB30 2806/2811 1/2SM FG BKN002 FM281500 10008KT P6SM SKC BECMG 2900/2902 03008KT RMK FCST BASED ON AUTO OBS. NXT FCST BY 281200Z
CYHY,TAF CYHY 280540Z 2806/2818 VRB03KT P6SM BKN150 FM281000 28006KT P6SM FEW100 RMK NXT FCST BY 281200Z
CYHZ,TAF CYHZ 280843Z 2809/2906 35007KT 6SM BR SCT002 TEMPO 2809/2812 1/2SM FG VV002 FM281200 35005KT P6SM FEW010 BKN040 FM281400 35012KT P6SM FEW040 BECMG 2822/2824 35008KT FM290400 02005KT P6SM FEW002 RMK NXT FCST BY 281200Z
CYIO,TAF AMD CYIO 280737Z 2807/2819 18006KT P6SM FEW250 TEMPO 2807/2812 1SM BR BKN002 FM281200 VRB03KT P6SM BKN040 TEMPO 2812/2819 5SM -SN BR BKN020 RMK FCST BASED ON AUTO OBS. NXT FCST BY 281300Z
CYIV,TAF CYIV 280640Z 2807/2819 VRB03KT P6SM SKC PROB30 2810/2814 1/2SM FZFG RMK FCST BASED ON AUTO OBS. NXT FCST BY 281300Z
CYJT,TAF AMD CYJT 280939Z 2809/2906 04008KT P6SM SCT008 OVC015 TEMPO 2809/2814 OVC008 FM281400 03008KT P6SM SCT020 TEMPO 2814/2816 BKN020 FM281600 03008KT P6SM BKN040 FM282300 03008KT P6SM OVC025 FM290300 04008KT P6SM SCT020 RMK NXT FCST BY 281200Z
CYKA,TAF CYKA 280640Z 2807/2819 09006KT P6SM SKC RMK NXT FCST BY 281300Z
CYKF,TAF CYKF 280740Z 2808/2820 08010KT P6SM BKN250 FM281100 08010KT P6SM BKN080 BKN250 FM281600 08010G20KT P6SM -RA BKN020 OVC060 FM281900 08012G22KT 3SM -RA BR BKN008 OVC025 RMK FCST BASED ON AUTO OBS. NXT FCST BY 281400Z
CYKJ,TAF CYKJ 280940Z 2810/2822 20010KT P6SM OVC080 BECMG 2812/2814 P6SM -SHRA SCT012 OVC040 FM281400 18005KT P6SM -SHRA SCT008 OVC020 TEMPO 2814/2817 5SM -SHRA BR BKN008 OVC012 BECMG 2817/2818 31015KT OVC025 FM281800 31015G25KT P6SM BKN025 TEMPO 2819/2822 P6SM -SHRA OVC020 RMK FCST BASED ON AUTO OBS. NXT FCST BY 281300Z
CYKL,TAF CYKL 280740Z 2808/2820 VRB03KT P6SM SCT080 PROB30 2808/2812 1/2SM FZFG VV002 BECMG 2812/2814 15008KT FM281700 16008KT P6SM BKN040 RMK FCST BASED ON AUTO OBS. NXT FCST BY 281400Z
CYLL,TAF CYLL 280540Z 2806/2818 19008KT P6SM BKN150 BKN240 BECMG 2808/2809 P6SM VCSH BKN100 OVC160 FM280900 23010KT P6SM -SHRA BKN080 BKN200 BECMG 2811/2813 28012G22KT P6SM NSW FM281300 31015G25KT P6SM SCT110 BKN240 FM281500 32018G28KT P6SM FEW240 RMK FCST BASED ON AUTO OBS. NXT FCST BY 281200Z
CYLT,TAF AMD CYLT 280808Z 2808/2818 24010KT P6SM FEW070 BKN220 BECMG 2808/2810 24015KT FM281000 23015KT P6SM BKN100 RMK NXT FCST BY 281200Z
CYLW,TAF CYLW 280640Z 2807/2819 VRB03KT P6SM SCT200 TEMPO 2807/2819 BKN200 BECMG 2816/2818 33008KT RMK FCST BASED ON AUTO OBS. NXT FCST BY 281300Z
CYMA,TAF CYMA 280540Z 2806/2818 VRB03KT P6SM BKN150 FM281100 VRB03KT P6SM FEW150 PROB30 2811/2815 1/2SM FZFG VV003 FM281500 VRB03KT P6SM SCT120 RMK NXT FCST BY 281200Z
CYMH,TAF CYMH 280840Z 2809/2821 34010G20KT 2SM -SNRA BR OVC008 TEMPO 2809/2813 P6SM NSW SCT008 OVC015 PROB30 2809/2813 1SM -FZDZ BR OVC005 FM281300 01010G20KT P6SM SCT008 OVC025 TEMPO 2813/2815 5SM -RASN BR OVC008 FM281500 01010G20KT P6SM BKN025 TEMPO 2815/2821 OVC015 BECMG 2818/2820 01015G25KT RMK FCST BASED ON AUTO OBS. NXT FCST BY 281400Z
CYMJ,TAF CYMJ 272340Z 2800/2812 31012KT P6SM SCT040 BKN060 TEMPO 2800/2803 P6SM -SHRA BECMG 2800/2802 36005KT FM280900 VRB03KT P6SM SCT050 BKN160 RMK NXT FCST BY 280600Z
CYMM,TAF CYMM 280640Z 2807/2819 16008KT P6SM SCT090 OVC110 BECMG 2808/2810 24006KT FM281000 24006KT P6SM OVC080 BECMG 2810/2812 31010KT FM281300 31010KT P6SM FEW080 BECMG 2814/2816 31015KT FM281700 31015G25KT P6SM SCT070 TEMPO 2817/2819 BKN070 RMK FCST BASED ON AUTO OBS. NXT FCST BY 281300Z
CYMO,TAF CYMO 280543Z 2806/2818 12005KT 3SM -RA BR OVC010 TEMPO 2806/2810 6SM -RA BR FEW010 OVC025 FM281000 VRB03KT 6SM -RA BR BKN009 OVC015 TEMPO 2810/2813 P6SM NSW SCT009 OVC015 FM281300 21007KT P6SM -RA BKN015 TEMPO 2813/2818 SCT015 BKN025 RMK FCST BASED ON AUTO OBS. NXT FCST BY 281200Z
CYMX,TAF CYMX 280540Z 2806/2906 VRB03KT P6SM FEW040 FM280800 VRB03KT P6SM SKC PROB30 2808/2811 2SM BR FM281400 09007KT P6SM SKC BECMG 2900/2902 05007KT BKN200 RMK NXT FCST BY 281200Z
CYNA,TAF CYNA 280740Z 2808/2820 07005KT 6SM BR SCT002 TEMPO 2808/2812 1/2SM FZFG VV002 FM281200 07010KT P6SM SCT020 TEMPO 2812/2815 BKN020 FM281500 VRB03KT P6SM FEW040 BECMG 2817/2819 19012KT RMK FCST BASED ON AUTO OBS. NXT FCST BY 281400Z
CYNE,TAF CYNE 280640Z 2807/2819 02005KT P6SM SKC PROB30 2810/2814 1/2SM FZFG FM281400 VRB03KT P6SM BKN050 BECMG 2816/2818 22006KT RMK FCST BASED ON AUTO OBS. NXT FCST BY 281300Z
CYOD,TAF CYOD 280540Z 2806/2906 16005KT P6SM OVC080 BECMG 2810/2812 28008KT FM281400 32015G25KT P6SM SCT060 BECMG 2822/2824 32012KT BECMG 2903/2905 VRB03KT RMK NXT FCST BY 281200Z
CYOJ,TAF CYOJ 280640Z 2807/2819 27008KT P6SM BKN090 BECMG 2807/2809 FEW090 FM281000 28008KT P6SM SKC BECMG 2814/2816 29015KT FM281800 29012KT P6SM SKC RMK FCST BASED ON AUTO OBS. NXT FCST BY 281300Z
CYOO,TAF CYOO 280740Z 2808/2820 06010KT P6SM SKC FM281300 06012KT P6SM FEW030 BKN250 FM281600 08012KT P6SM BKN060 BKN180 RMK FCST BASED ON AUTO OBS. NXT FCST BY 281400Z
CYOW,TAF CYOW 280840Z 2809/2906 08007KT P6SM FEW050 BKN080 BECMG 2812/2814 09010KT FM281400 09010KT P6SM SKC BECMG 2900/2902 10007KT BKN200 RMK NXT FCST BY 281200Z
CYOY,TAF CYOY 272340Z 2800/2812 VRB03KT P6SM FEW050 FM280200 VRB03KT P6SM FEW006 PROB30 2804/2812 1SM BR OVC003 RMK NXT FCST BY 280600Z
CYPA,TAF CYPA 280640Z 2807/2819 22008KT P6SM SKC FM280900 VRB03KT P6SM FEW060 BKN200 FM281300 21006KT P6SM BKN060 BECMG 2814/2816 21012KT RMK NXT FCST BY 281300Z
CYPE,TAF CYPE 280640Z 2807/2819 27012G22KT P6SM BKN210 BECMG 2807/2809 FEW210 FM281100 28008KT P6SM SKC BECMG 2813/2815 31012KT FM281700 32010KT P6SM SKC BECMG 2818/2819 28008KT RMK NXT FCST BY 281300Z
CYPH,TAF AMD CYPH 280922Z 2809/2818 VRB03KT P6SM SCT004 OVC015 TEMPO 2809/2812 1/2SM -SN FZFG VV004 PROB30 2809/2812 2SM -SN FZDZ BR FM281200 VRB03KT P6SM SCT004 OVC020 TEMPO 2812/2818 1 1/2SM -SN -FZDZ BR OVC004 RMK FCST BASED ON AUTO OBS. NXT FCST BY 281200Z
CYPL,TAF CYPL 280740Z 2808/2820 05005KT P6SM SCT012 TEMPO 2808/2815 2SM BR BKN008 OVC012 PROB30 2808/2814 1SM BR OVC006 FM281500 VRB03KT P6SM BKN025 TEMPO 2815/2820 BKN015 RMK FCST BASED ON AUTO OBS. NXT FCST BY 281400Z
CYPQ,TAF CYPQ 280940Z 2810/2822 04005KT P6SM SCT250 FM281300 08010KT P6SM SCT030 BKN200 BECMG 2816/2818 12015G25KT FM282000 12015G25KT P6SM BKN060 OVC140 RMK FCST BASED ON AUTO OBS. NXT FCST BY 281400Z
CYPR,TAF CYPR 280640Z 2807/2819 VRB03KT P6SM OVC050 TEMPO 2807/2812 5SM -RA BR OVC040 FM281200 VRB03KT P6SM OVC040 TEMPO 2812/2819 OVC030 RMK FCST BASED ON AUTO OBS. NXT FCST BY 281300Z
CYPX,TAF AMD CYPX 280758Z 2807/2818 16006KT 1/4SM FZFG VV002 TEMPO 2807/2810 6SM -SN BR OVC012 FM281000 VRB03KT 1/2SM FZFG VV002 TEMPO 2810/2818 5SM -SN BR OVC005 RMK FCST BASED ON AUTO OBS. NXT FCST BY 281200Z
CYQB,TAF CYQB 280541Z 2806/2906 VRB03KT P6SM SKC PROB40 2806/2814 1/2SM FG VV002 FM281500 08008KT P6SM SKC BECMG 2900/2902 05008KT RMK NXT FCST BY 281200Z
CYQD,TAF CYQD 280640Z 2807/2819 VRB03KT P6SM SCT070 FM280900 VRB03KT P6SM FEW060 PROB30 2810/2814 1/2SM FZFG VV003 FM281500 22008KT P6SM SCT060 TEMPO 2815/2819 BKN060 RMK FCST BASED ON AUTO OBS. NXT FCST BY 281300Z
CYQF,TAF CYQF 280540Z 2806/2818 19008KT P6SM SCT120 BKN240 TEMPO 2806/2810 BKN120 BECMG 2808/2810 24008KT FM281100 28008KT P6SM BKN090 BKN200 BECMG 2812/2814 31008KT FM281600 34012KT P6SM SCT090 BKN240 TEMPO 2817/2818 BKN090 RMK FCST BASED ON AUTO OBS. NXT FCST BY 281200Z
CYQG,TAF CYQG 280540Z 2806/2906 06005KT P6SM BKN250 FM281100 06008KT P6SM BKN080 OVC160 FM281400 07012KT P6SM -RA BKN025 OVC050 FM281600 07012G22KT 3SM -RA BR BKN012 OVC030 FM282000 06015G25KT 2 1/2SM -RA BR BKN008 OVC025 FM290100 06012KT 4SM -RA -DZ BR OVC004 RMK FCST BASED ON AUTO OBS. NXT FCST BY 281200Z
CYQH,TAF CYQH 280540Z 2806/2818 24012G22KT P6SM BKN060 BECMG 2806/2808 24006KT RMK NXT FCST BY 281200Z
CYQI,TAF CYQI 280540Z 2806/2818 VRB03KT 3/4SM BR OVC003 TEMPO 2806/2809 6SM BR SCT003 BKN008 FM280900 VRB03KT 3/4SM BR OVC003 TEMPO 2809/2812 6SM BR SCT003 FM281200 VRB03KT P6SM SKC BECMG 2814/2816 30006KT RMK NXT FCST BY 281200Z
CYQK,TAF CYQK 280740Z 2808/2820 VRB03KT P6SM SCT230 TEMPO 2808/2812 BKN030 FM281200 04006KT P6SM SCT020 TEMPO 2812/2818 BKN020 FM281800 05008KT P6SM BKN050 RMK NXT FCST BY 281400Z
CYQL,TAF CYQL 280542Z 2806/2818 16010KT P6SM BKN300 BECMG 2808/2810 23012KT BECMG 2811/2813 27010KT FM281500 27005KT P6SM FEW180 SCT300 BECMG 2816/2818 02008KT RMK FCST BASED ON AUTO OBS. NXT FCST BY 281200Z
CYQM,TAF CYQM 280540Z 2806/2906 VRB03KT P6SM FEW040 BKN070 PROB30 2806/2808 2SM BR BKN003 FM280800 VRB03KT 2SM BR BKN004 BKN050 TEMPO 2808/2812 6SM BR SCT004 BKN050 PROB40 2808/2812 3/4SM BR OVC003 FM281200 VRB03KT P6SM FEW008 SCT040 FM281400 03008KT P6SM SCT030 FM290300 VRB03KT 6SM BR SCT002 RMK NXT FCST BY 281200Z
CYQQ,TAF CYQQ 280540Z 2806/2906 VRB03KT P6SM SKC RMK NXT FCST BY 281200Z
CYQR,TAF CYQR 280540Z 2806/2906 32006KT P6SM SCT080 FM280900 30005KT P6SM FEW060 SCT200 PROB30 2809/2815 1/2SM FZFG VV002 FM281500 25006KT P6SM SCT060 BKN120 BECMG 2816/2818 25012KT FM282000 27015KT P6SM BKN060 BECMG 2822/2824 32018KT FM290500 32012KT P6SM SCT060 RMK NXT FCST BY 281200Z
CYQT,TAF CYQT 280740Z 2808/2820 08005KT P6SM OVC050 TEMPO 2808/2810 4SM -RA -DZ BR OVC005 FM281000 08006KT P6SM -RA OVC020 TEMPO 2810/2818 5SM -DZ BR OVC006 FM281800 08008KT P6SM OVC015 RMK NXT FCST BY 281400Z
CYQU,TAF CYQU 280640Z 2807/2819 26012G22KT P6SM BKN160 BECMG 2810/2812 28008KT BECMG 2813/2815 34005KT FM281700 32008KT P6SM SCT080 BKN130 BKN240 RMK NXT FCST BY 281300Z
CYQW,TAF CYQW 280540Z 2806/2818 13005KT P6SM BKN240 FM280800 13005KT P6SM SCT080 BKN150 FM281000 13005KT P6SM BKN080 BECMG 2810/2812 20008KT BECMG 2813/2815 24015KT FM281700 31020G30KT P6SM SCT080 RMK FCST BASED ON AUTO OBS. NXT FCST BY 281200Z
CYQX,TAF AMD CYQX 280716Z 2807/2906 36010G20KT 2SM -FZDZ -SN BR OVC002 TEMPO 2807/2812 P6SM NSW SCT002 OVC010 FM281200 35015KT P6SM -SN BKN008 OVC015 FM281400 35015KT P6SM OVC015 BECMG 2818/2820 35015G25KT FM282100 35015G25KT 6SM -SN OVC015 FM290000 35015G25KT 5SM -SN BKN008 OVC015 RMK NXT FCST BY 281200Z
CYQY,TAF AMD CYQY 280853Z 2808/2818 33006KT P6SM SCT004 TEMPO 2808/2812 1/2SM FG VV002 PROB30 2808/2812 1/4SM FG FM281200 35005KT P6SM FEW040 FM281500 01008KT P6SM BKN040 RMK NXT FCST BY 281200Z
CYRB,TAF CYRB 280540Z 2806/2906 12020KT P6SM -SN OVC080 FM280800 13015KT P6SM SCT008 BKN100 FM281800 12015KT P6SM SCT008 BKN120 TEMPO 2818/2906 5SM -SN OVC008 RMK NXT FCST BY 281200Z
CYRQ,TAF CYRQ 280740Z 2808/2820 VRB03KT P6SM SKC PROB40 2808/2814 1/4SM FG VV002 FM281400 06007KT P6SM SKC BECMG 2814/2816 09007KT RMK FCST BASED ON AUTO OBS. NXT FCST BY 281400Z
CYRT,TAF CYRT 280540Z 2806/2818 VRB03KT 1/2SM -FZDZ FZFG VV002 TEMPO 2806/2818 5SM BR OVC005 RMK NXT FCST BY 281200Z
CYSB,TAF CYSB 280740Z 2808/2820 13008KT P6SM OVC060 TEMPO 2808/2814 P6SM -RA BECMG 2811/2813 08010KT FM281400 08008KT P6SM BKN060 FM281900 08008KT P6SM SCT060 RMK NXT FCST BY 281400Z
CYSF,TAF AMD CYSF 280915Z 2809/2818 07004KT P6SM FEW060 OVC100 TEMPO 2809/2811 P6SM -SHRA BKN060 FM281100 VRB03KT P6SM -SHRA SCT020 BKN050 TEMPO 2811/2814 6SM -SHRA BR BKN020 OVC040 FM281400 26005KT P6SM SCT008 OVC015 TEMPO 2814/2817 5SM -SHRA BR OVC008 FM281700 29010KT P6SM OVC020 TEMPO 2817/2818 P6SM -SHRA RMK FCST BASED ON AUTO OBS. NXT FCST BY 281200Z
CYSJ,TAF CYSJ 280540Z 2806/2818 VRB02KT P6SM BKN060 TEMPO 2806/2812 1/2SM FG VV002 PROB30 2806/2812 1/4SM FG FM281200 VRB03KT 4SM BR BKN003 BECMG 2812/2813 P6SM NSW FEW003 SCT050 FM281400 34005KT P6SM SCT040 RMK NXT FCST BY 281200Z
CYSM,TAF CYSM 280554Z 2806/2818 VRB02KT P6SM -SHRA SCT040 OVC100 TEMPO 2806/2809 6SM -SHRA BR SCT020 OVC040 BECMG 2809/2811 27008KT BKN070 FM281100 27008KT P6SM BKN070 BECMG 2813/2815 FEW070 FM281500 29010KT P6SM SKC BECMG 2815/2817 30015KT FM281700 30015KT P6SM SCT060 TEMPO 2817/2818 BKN060 RMK NXT FCST BY 281200Z
CYTE,TAF AMD CYTE 281030Z 2810/2819 10012KT 1/2SM -FZRA FZFG VV002 TEMPO 2810/2815 3SM -SN BR SCT002 OVC010 BECMG 2813/2815 18008KT FM281500 18008KT 1SM -FZDZ BR OVC002 TEMPO 2815/2819 5SM BR SCT002 OVC006 RMK FCST BASED ON AUTO OBS. NXT FCST BY 281300Z
CYTH,TAF AMD CYTH 281007Z 2810/2819 VRB03KT P6SM SKC FM281100 VRB03KT P6SM SCT006 TEMPO 2811/2814 2SM BR BKN006 PROB30 2811/2814 1SM BR BKN004 FM281400 VRB03KT P6SM SCT200 FM281700 15006KT P6SM BKN120 RMK NXT FCST BY 281300Z
CYTL,TAF CYTL 280740Z 2808/2820 VRB03KT P6SM SCT020 TEMPO 2808/2816 BKN020 PROB30 2808/2816 1/2SM -FZDZ FZFG VV002 FM281600 VRB03KT P6SM SCT020 TEMPO 2816/2820 BKN020 RMK FCST BASED ON AUTO OBS. NXT FCST BY 281400Z
CYTR,TAF CYTR 280540Z 2806/2906 07006KT P6SM SKC BECMG 2807/2809 10007KT FM281500 12010KT P6SM SCT025 BKN220 FM290200 15007KT P6SM -RA BKN060 BECMG 2903/2905 3SM -RA BR OVC015 RMK NXT FCST BY 281200Z
CYTS,TAF CYTS 280740Z 2808/2820 18005KT P6SM BKN025 BKN040 FM281800 14010KT P6SM BKN050 RMK NXT FCST BY 281400Z
CYTZ,TAF CYTZ 280740Z 2808/2908 06018G28KT P6SM FEW250 FM281700 06018G28KT P6SM BKN060 OVC120 FM282000 06020G30KT P6SM -RA BKN040 OVC060 FM282300 06020G30KT 6SM -RA BR BKN006 OVC040 FM290200 06020G30KT 2 1/2SM -RA BR BKN004 OVC020 FM290600 06018G28KT 2SM -RA -DZ BR OVC004 RMK FCST BASED ON AUTO OBS. NXT FCST BY 281400Z
CYUL,TAF CYUL 280840Z 2809/2906 VRB03KT P6SM SKC BECMG 2809/2811 09010KT BECMG 2900/2902 VRB03KT FM290200 05010KT P6SM BKN200 RMK NXT FCST BY 281200Z
CYUX,TAF CYUX 280640Z 2807/2819 VRB03KT 1/2SM FZFG VV002 TEMPO 2807/2819 3SM -FZDZ -SN BR VV005 BECMG 2810/2812 12012KT RMK FCST BASED ON AUTO OBS. NXT FCST BY 281300Z
CYUY,TAF CYUY 280541Z 2806/2818 16005KT P6SM BKN040 FM280700 VRB03KT P6SM -SHRA OVC030 BECMG 2812/2814 18010KT RMK NXT FCST BY 281200Z
CYVC,TAF CYVC 280640Z 2807/2819 VRB03KT P6SM SKC FM281000 17005KT P6SM BKN060 FM281400 17006KT P6SM BKN030 TEMPO 2814/2819 P6SM -SHRA BECMG 2816/2818 25006KT RMK NXT FCST BY 281300Z
CYVM,TAF CYVM 280640Z 2807/2819 15005KT 1/2SM FZFG VV003 TEMPO 2807/2819 6SM -SN BR SCT003 OVC009 RMK FCST BASED ON AUTO OBS. NXT FCST BY 281300Z
CYVO,TAF CYVO 280541Z 2806/2818 16005KT P6SM BKN040 FM280900 16007KT P6SM -SHRA OVC030 BECMG 2811/2813 16010KT RMK FCST BASED ON AUTO OBS. NXT FCST BY 281200Z
CYVP,TAF CYVP 280540Z 2806/2818 VRB03KT P6SM OVC050 TEMPO 2806/2815 5SM -SHRA BR OVC040 FM281500 04008KT P6SM OVC040 TEMPO 2815/2818 3SM -SHRA BR SCT006 OVC020 RMK NXT FCST BY 281200Z
CYVQ,TAF CYVQ 280540Z 2806/2818 VRB03KT P6SM FEW040 SCT080 BKN120 FM281500 VRB03KT P6SM SKC RMK NXT FCST BY 281200Z
CYVR,TAF CYVR 280840Z 2809/2912 VRB03KT P6SM SCT250 TEMPO 2809/2908 BKN250 BECMG 2816/2818 29010KT FM290800 08006KT P6SM SCT250 TEMPO 2908/2912 SCT040 BKN250 RMK NXT FCST BY 281200Z
CYWA,TAF CYWA 272340Z 2800/2824 12006KT P6SM FEW070 BKN120 BKN250 RMK NXT FCST BY 280600Z
CYWG,TAF AMD CYWG 280804Z 2808/2906 32006KT P6SM SCT012 OVC040 TEMPO 2808/2810 5SM BR OVC020 FM281000 36008KT P6SM SCT006 BKN025 TEMPO 2810/2815 2SM BR BKN006 PROB30 2810/2815 3/4SM BR BKN003 FM281500 01008KT P6SM SCT020 BKN040 TEMPO 2815/2818 5SM BR FEW010 BKN020 BECMG 2819/2821 33006KT RMK NXT FCST BY 281200Z
CYWK,TAF CYWK 280740Z 2808/2820 VRB03KT P6SM SKC PROB30 2808/2812 1/2SM FZFG VV002 FM281700 VRB03KT P6SM BKN040 RMK FCST BASED ON AUTO OBS. NXT FCST BY 281400Z
CYWL,TAF CYWL 280640Z 2807/2819 VRB03KT P6SM SCT140 TEMPO 2807/2812 BKN120 FM281200 VRB03KT P6SM SCT120 RMK NXT FCST BY 281300Z
CYXC,TAF CYXC 280640Z 2807/2819 27006KT P6SM SCT240 BECMG 2810/2812 VRB03KT SCT120 FM281200 VRB03KT P6SM SCT120 TEMPO 2812/2819 BKN120 BECMG 2816/2818 10006KT RMK NXT FCST BY 281300Z
CYXE,TAF CYXE 280540Z 2806/2906 VRB03KT P6SM SCT060 FM280800 17008KT P6SM FEW050 BKN160 FM281200 17010KT P6SM FEW050 BKN080 BECMG 2815/2817 25018KT BECMG 2819/2821 32020G30KT FM290200 36015KT P6SM SCT080 RMK NXT FCST BY 281200Z
CYXH,TAF CYXH 280545Z 2806/2818 VRB02KT P6SM BKN270 BECMG 2808/2810 21005KT BKN210 FM281200 23010KT P6SM SCT140 BKN240 BECMG 2814/2816 31010KT BKN140 FM281700 32010KT P6SM BKN120 BKN200 RMK FCST BASED ON AUTO OBS. NXT FCST BY 281200Z
CYXJ,TAF CYXJ 280640Z 2807/2819 24018G28KT P6SM SCT200 FM281100 26015KT P6SM FEW160 SCT240 BECMG 2812/2814 28008KT FM281700 28010KT P6SM FEW160 BKN240 RMK NXT FCST BY 281300Z
CYXL,TAF CYXL 280740Z 2808/2820 04005KT P6SM SCT015 SCT230 TEMPO 2808/2815 5SM BR BKN015 PROB30 2808/2813 2SM BR OVC006 FM281500 02005KT P6SM SCT015 TEMPO 2815/2820 BKN015 RMK NXT FCST BY 281400Z
CYXS,TAF CYXS 280640Z 2807/2819 20008KT P6SM SCT060 BKN100 TEMPO 2807/2809 P6SM -SHRA OVC060 FM280900 18005KT P6SM BKN100 FM281500 VRB03KT P6SM SCT100 RMK FCST BASED ON AUTO OBS. NXT FCST BY 281300Z
CYXT,TAF CYXT 280640Z 2807/2819 VRB03KT P6SM BKN080 FM281200 VRB03KT P6SM BKN050 TEMPO 2812/2819 BKN040 RMK NXT FCST BY 281300Z
CYXU,TAF CYXU 280540Z 2806/2906 10010KT P6SM BKN250 FM281100 08012KT P6SM FEW020 BKN060 FM281400 10012G22KT P6SM -RA BKN025 OVC050 FM282000 06015G25KT 3SM -RA BR BKN008 OVC025 FM290200 06012KT 4SM -RA -DZ BR OVC004 RMK NXT FCST BY 281200Z
CYXX,TAF CYXX 280540Z 2806/2906 VRB03KT P6SM SCT200 TEMPO 2806/2820 BKN200 BECMG 2810/2812 02006KT FM282000 26006KT P6SM SCT240 TEMPO 2820/2906 BKN240 BECMG 2904/2906 05006KT RMK NXT FCST BY 281200Z
CYXY,TAF CYXY 280540Z 2806/2818 18012G22KT P6SM SCT050 BKN150 RMK NXT FCST BY 281200Z
CYYB,TAF CYYB 280740Z 2808/2820 16005KT P6SM OVC060 BECMG 2811/2813 08010KT FM281400 08008KT P6SM BKN060 FM281900 08008KT P6SM SCT060 RMK FCST BASED ON AUTO OBS. NXT FCST BY 281400Z
CYYC,TAF CYYC 280840Z 2809/2906 VRB03KT P6SM FEW130 BKN200 BECMG 2809/2811 29008KT FM281400 34007KT P6SM BKN100 BKN200 BECMG 2816/2818 02005KT FEW120 BKN220 FM282100 10005KT P6SM FEW070 BECMG 2901/2903 07005KT RMK NXT FCST BY 281200Z
CYYE,TAF CYYE 280640Z 2807/2819 25004KT P6SM SKC BECMG 2816/2818 29012KT BKN240 FM281800 29012KT P6SM BKN240 RMK NXT FCST BY 281300Z
CYYF,TAF CYYF 280640Z 2807/2819 01006KT P6SM SCT240 TEMPO 2807/2819 BKN240 BECMG 2816/2818 17008KT RMK NXT FCST BY 281300Z
CYYG,TAF AMD CYYG 281029Z 2810/2818 34005KT 1/4SM FG VV002 TEMPO 2810/2812 3SM BR SCT002 BKN006 FM281200 32007KT 1/2SM FG VV002 BECMG 2812/2813 P6SM NSW FEW002 FM281500 35010KT P6SM FEW040 RMK NXT FCST BY 281200Z
CYYH,TAF AMD CYYH 280903Z 2809/2818 03006KT P6SM FEW020 TEMPO 2809/2810 3/4SM BR BKN002 FM281000 06008KT 3SM BR SCT002 TEMPO 2810/2818 1/2SM FZFG BKN002 RMK NXT FCST BY 281200Z
CYYJ,TAF CYYJ 280540Z 2806/2906 29006KT P6SM SCT250 TEMPO 2806/2903 BKN250 BECMG 2818/2820 04006KT FM290300 VRB03KT P6SM SCT250 TEMPO 2903/2906 BKN250 RMK NXT FCST BY 281200Z
CYYL,TAF CYYL 280640Z 2807/2819 14006KT P6SM SKC FM281000 14006KT P6SM BKN060 BECMG 2814/2816 18010KT FM281800 18010KT P6SM BKN050 TEMPO 2818/2819 P6SM -SHRA RMK FCST BASED ON AUTO OBS. NXT FCST BY 281300Z
CYYN,TAF CYYN 280540Z 2806/2818 29005KT P6SM BKN070 FM280800 21008KT P6SM SCT180 FM281000 22010KT P6SM BKN100 FM281400 23010KT P6SM BKN060 BECMG 2816/2818 27015KT RMK FCST BASED ON AUTO OBS. NXT FCST BY 281200Z
CYYQ,TAF CYYQ 280540Z 2806/2906 02006KT 2SM -SN BR OVC004 TEMPO 2806/2815 1/2SM FZFG VV002 BECMG 2808/2810 32005KT FM281500 VRB03KT 2SM BR BKN006 FM281800 VRB03KT P6SM FEW006 BKN012 BECMG 2819/2821 16006KT FM290200 12006KT P6SM SCT004 BKN010 RMK NXT FCST BY 281200Z
CYYR,TAF AMD CYYR 280933Z 2809/2906 04008KT P6SM SCT008 BKN015 TEMPO 2809/2815 5SM -SHSN BKN008 FM281500 04008KT P6SM BKN025 FM290000 VRB03KT P6SM SCT030 SCT120 RMK NXT FCST BY 281200Z
CYYT,TAF AMD CYYT 280637Z 2806/2906 35010G20KT 2SM -FZDZ -SN BR OVC003 TEMPO 2806/2814 P6SM NSW SCT003 OVC010 FM281400 36012G22KT 4SM -SN BR OVC012 FM281600 35015G25KT P6SM -SN OVC015 BECMG 2821/2823 36020G30KT FM282300 36020G30KT P6SM -SN BKN008 OVC015 RMK NXT FCST BY 281200Z
CYYU,TAF CYYU 280740Z 2808/2820 19008KT P6SM -RA BKN009 OVC030 TEMPO 2808/2810 SCT009 OVC030 FM281000 VRB03KT P6SM BKN030 TEMPO 2810/2814 BKN020 FM281400 VRB03KT P6SM SCT030 FM281900 VRB03KT P6SM -RA BKN030 RMK NXT FCST BY 281400Z
CYYY,TAF CYYY 280740Z 2808/2820 VRB03KT P6SM SKC PROB30 2808/2813 1SM BR BKN002 FM281400 26008KT P6SM FEW050 RMK NXT FCST BY 281400Z
CYYZ,TAF CYYZ 280840Z 2809/2912 08008KT P6SM FEW120 FEW250 BECMG 2813/2815 09015KT FM281700 09015KT P6SM BKN060 OVC120 FM282000 10015KT P6SM -RA BKN025 OVC050 FM282300 10015KT 6SM -RA BR BKN008 OVC020 FM290200 10015G25KT 2 1/2SM -RA BR BKN004 OVC012 FM290700 10015G25KT 2SM -RA -DZ BR OVC004 PROB30 2907/2911 OVC003 FM291100 10015G25KT 4SM -SHRA BR OVC004 RMK NXT FCST BY 281200Z
CYZE,TAF CYZE 280940Z 2810/2822 15012KT P6SM SCT060 BKN120 BECMG 2811/2813 08008KT FM281400 08008KT P6SM SCT120 RMK FCST BASED ON AUTO OBS. NXT FCST BY 281400Z
CYZF,TAF CYZF 280540Z 2806/2906 VRB03KT P6SM BKN060 TEMPO 2806/2807 P6SM -SHRA FM280700 VRB03KT P6SM SCT060 BECMG 2808/2810 27006KT FM281500 31010KT P6SM FEW100 FM282000 33015G25KT P6SM SCT060 FM290200 34010KT P6SM SKC RMK NXT FCST BY 281200Z
CYZH,TAF CYZH 280640Z 2807/2819 27022G32KT P6SM FEW080 BKN170 BECMG 2809/2811 28015G25KT SCT170 BKN240 FM281200 30015KT P6SM FEW240 RMK FCST BASED ON AUTO OBS. NXT FCST BY 281300Z
CYZP,TAF CYZP 280640Z 2807/2819 12006KT P6SM SCT006 BKN030 TEMPO 2807/2809 2SM -RA BR OVC006 PROB30 2807/2809 1SM -RA BR OVC003 FM280900 15008KT P6SM SCT005 OVC025 TEMPO 2809/2819 1SM -DZ BR OVC005 RMK FCST BASED ON AUTO OBS. NXT FCST BY 281300Z
CYZR,TAF CYZR 280740Z 2808/2820 05005KT P6SM FEW250 FM281100 06008KT P6SM BKN080 OVC160 FM281400 07012KT P6SM -RA BKN025 OVC060 FM281600 07012G22KT 3SM -RA BR BKN008 OVC025 RMK FCST BASED ON AUTO OBS. NXT FCST BY 281400Z
CYZS,TAF CYZS 280640Z 2807/2819 06012KT P6SM SCT020 OVC040 TEMPO 2807/2809 2SM -SN BR OVC006 FM280900 05008KT 6SM -SN BR SCT006 OVC012 TEMPO 2809/2819 2SM -SN BR OVC006 PROB30 2809/2819 3/4SM -FZDZ BR OVC002 RMK NXT FCST BY 281300Z
CYZT,TAF CYZT 280640Z 2807/2819 VRB03KT P6SM SCT240 BECMG 2816/2818 05006KT RMK NXT FCST BY 281300Z
CYZV,TAF CYZV 280540Z 2806/2906 31005KT P6SM SCT080 FM280800 34006KT P6SM SCT040 PROB30 2808/2812 2SM BR BKN004 BKN020 FM281400 16008KT P6SM SCT020 SCT040 BECMG 2820/2822 VRB03KT FM290300 VRB03KT P6SM FEW002 BKN040 PROB30 2903/2906 2SM BR RMK NXT FCST BY 281200Z
CYZX,TAF CYZX 280540Z 2806/2906 VRB03KT P6SM BKN040 OVC090 TEMPO 2806/2811 6SM BR SCT008 BKN015 OVC040 PROB30 2808/2811 1/2SM FG VV004 FM281100 01005KT P6SM BKN040 TEMPO 2811/2813 BKN020 FM281300 01010KT P6SM SCT040 FM282300 VRB03KT P6SM SKC FM290400 VRB03KT P6SM SCT012 RMK NXT FCST BY 281200Z
CZBF,TAF CZBF 280844Z 2809/2821 VRB03KT P6SM BKN040 TEMPO 2809/2812 SCT020 FM281200 34005KT P6SM SCT020 FM281500 02005KT P6SM FEW050 BECMG 2817/2819 06008KT RMK FCST BASED ON AUTO OBS. NXT FCST BY 281400Z
CZMD,TAF CZMD 280940Z 2810/2822 05006KT P6SM SCT060 TEMPO 2810/2820 BKN060 FM282000 VRB03KT P6SM BKN060 RMK FCST BASED ON AUTO OBS. NXT FCST BY 281600Z
CZSJ,TAF CZSJ 280940Z 2810/2822 05005KT P6SM SCT060 TEMPO 2810/2818 BKN060 FM281800 VRB03KT P6SM FEW060 RMK FCST BASED ON AUTO OBS. NXT FCST BY 281600Z
CZUM,TAF CZUM 280740Z 2808/2820 05005KT P6SM SCT100 PROB30 2808/2812 1/2SM FZFG VV002 RMK FCST BASED ON AUTO OBS. NXT FCST BY 281400Z
CZVL,TAF CZVL 280540Z 2806/2818 21008KT P6SM BKN090 OVC200 TEMPO 2807/2812 P6SM VCSH BKN080 OVC120 BECMG 2807/2809 29012G22KT FM281200 31012KT P6SM BKN120 BKN220 BECMG 2814/2816 32015G25KT SCT140 BKN240 FM281700 32018KT P6SM SCT240 RMK FCST BASED ON AUTO OBS. NXT FCST BY 281200Z
DAAD,TAF DAAD 280800Z 2809/2818 06008KT CAVOK
DAAE,TAF DAAE 280500Z 2806/2906 24012KT CAVOK BECMG 2810/2812 10008KT
DAAG,TAF DAAG 280500Z 2806/2906 VRB02KT CAVOK BECMG 2810/2812 02010KT BECMG 2816/2818 VRB02KT
DAAJ,TAF DAAJ 280500Z 2806/2906 VRB02KT 7000 NSC BECMG 2810/2812 20010KT PROB30 TEMPO 2812/2820 FEW040CB SCT100
DAAP,TAF DAAP 280800Z 2809/2818 08008KT CAVOK
DAAS,TAF DAAS 280500Z 2806/2906 22006KT CAVOK TEMPO 2812/2818 34012KT
DAAT,TAF DAAT 280500Z 2806/2906 08010KT 7000 NSC PROB40 TEMPO 2808/2811 11015G25KT PROB30 TEMPO 2814/2822 FEW040CB SCT100
DAAV,TAF DAAV 280500Z 2806/2906 20006KT CAVOK
DAAY,TAF DAAY 280800Z 2809/2818 22014KT CAVOK
DABB,TAF DABB 280500Z 2806/2906 20006KT CAVOK TEMPO 2812/2818 04012KT
DABC,TAF DABC 280500Z 2806/2906 20006KT CAVOK
DABS,TAF DABS 280500Z 2806/2906 10006KT CAVOK TEMPO 2812/2818 36012KT
DABT,TAF DABT 280500Z 2806/2906 20006KT CAVOK TEMPO 2812/2818 32012KT
DAFH,TAF DAFH 280800Z 2809/2818 18008KT CAVOK
DAOB,TAF DAOB 280500Z 2806/2906 VRB02KT CAVOK BECMG 2807/2810 22012KT BECMG 2813/2816 35012KT BECMG 2819/2822 VRB02KT
DAOF,TAF DAOF 280800Z 2809/2818 30006KT CAVOK BECMG 2811/2813 16010KT
DAOI,TAF DAOI 280500Z 2806/2906 06008KT 9999 FEW030 BECMG 2808/2810 34010KT BECMG 2817/2819 VRB02KT
DAON,TAF DAON 280500Z 2806/2906 VRB02KT CAVOK PROB30 TEMPO 2806/2809 3000 BR BKN010 BECMG 2810/2813 01012KT BECMG 2819/2822 VRB02KT
DAOO,TAF DAOO 280500Z 2806/2906 VRB02KT 9999 SCT020 PROB30 TEMPO 2806/2809 3000 BR BKN010 BECMG 2810/2813 01012KT BECMG 2819/2822 VRB02KT
DAOR,TAF DAOR 280800Z 2809/2818 VRB02KT 9999 FEW033 BECMG 2810/2812 20010KT
DAOV,TAF DAOV 280800Z 2809/2818 16005KT 9999 FEW030 BECMG 2812/2816 34010KT
DATM,TAF DATM 280800Z 2809/2818 06006KT CAVOK
DAUA,TAF DAUA 280500Z 2806/2906 06012KT CAVOK PROB40 TEMPO 2808/2815 08015G25KT 4000 DRSA
DAUB,TAF DAUB 280500Z 2806/2906 24008KT CAVOK
DAUG,TAF DAUG 280500Z 2806/2906 VRB02KT CAVOK
DAUH,TAF DAUH 280500Z 2806/2906 VRB02KT CAVOK
DAUI,TAF DAUI 280500Z 2806/2906 06020KT 8000 DRSA NSC PROB40 TEMPO 2807/2812 08020G30KT 2000
DAUK,TAF DAUK 280800Z 2809/2818 08006KT CAVOK
DAUL,TAF DAUL 280800Z 2809/2818 VRB02KT CAVOK BECMG 2810/2812 22010KT
DAUO,TAF DAUO 280800Z 2809/2818 11010KT CAVOK
DAUT,TAF DAUT 280800Z 2809/2818 08012KT CAVOK
DAUU,TAF DAUU 280800Z 2809/2818 06008KT CAVOK
DAUZ,TAF DAUZ 280500Z 2806/2906 08010KT CAVOK PROB30 TEMPO 2808/2811 11015G25KT 4000 DRSA
DBBB,TAF DBBB 280500Z 2806/2912 VRB02KT 9999 SCT012 BECMG 2808/2810 22010KT TEMPO 2814/2820 TS BKN012 FEW023CB
DFFD,TAF DFFD 280500Z 2806/2912 20008KT CAVOK PROB30 TEMPO 2816/2822 TS FEW026 FEW040CB
DFOO,TAF DFOO 280500Z 2806/2906 22008KT 9999 FEW023 PROB40 TEMPO 2816/2824 TS FEW023 FEW036CB
DGAA,TAF DGAA 280500Z 2806/2912 25007KT 9999 FEW015 PROB30 TEMPO 2806/2809 5000 BR BECMG 2812/2814 18015KT SCT025 PROB30 TEMPO 2815/2819 TS FEW030CB
DGLE,TAF DGLE 280500Z 2806/2906 19008KT 9999 SCT015 PROB30 TEMPO 2815/2819 5000 TSRA BKN010 FEW030CB
DGSI,TAF DGSI 280500Z 2806/2906 19006KT 9999 SCT015 PROB30 TEMPO 2806/2809 5000 BR BKN010 TEMPO 2815/2819 TS FEW030CB
DIAP,TAF DIAP 280517Z 2806/2912 14006KT 9999 SCT012 BKN040 PROB40 TEMPO 2806/2812 4000 TSRA BKN010 FEW020CB BKN030 BECMG 2809/2810 21010KT PROB30 TEMPO 2812/2817 TS BKN012 FEW020CB BKN040 PROB30 TEMPO 2902/2907 4000 RA BKN010 BKN030
DIBK,TAF COR DIBK 280520Z 2806/2906 19008KT 8000 SCT013 PROB30 TEMPO 2806/2809 4000 RA BKN010 BKN030 BECMG 2808/2809 BKN013 BECMG 2814/2815 SCT013 PROB30 TEMPO 2816/2821 TS BKN012 FEW023CB PROB30 TEMPO 2817/2820 4000 TSRA BKN010 FEW023CB BKN030
DIYO,TAF DIYO 280522Z 2806/2906 20008KT 8000 SCT012 PROB30 TEMPO 2806/2809 4000 TSRA BKN010 FEW020CB BKN030 BECMG 2808/2809 BKN012 BECMG 2814/2815 SCT012 PROB30 TEMPO 2816/2821 TS BKN012 FEW020CB PROB30 TEMPO 2817/2820 4000 TSRA BKN010 FEW020CB BKN030
DNAA,TAF DNAA 280500Z 2806/2912 10006KT 9999 FEW009 BECMG 2808/2810 25010KT BKN012 TEMPO 2816/2822 TS SCT013 FEW020CB BECMG 2822/2824 VRB02KT CAVOK BECMG 2909/2911 23011KT BKN011
DNAK,TAF DNAK 280500Z 2806/2912 VRB02KT 8000 SCT010 TEMPO 2806/2808 3000 BR BECMG 2808/2810 21010KT BKN013 FEW020CB TEMPO 2814/2818 TS BECMG 2818/2820 VRB02KT SCT011 PROB30 2905/2907 5000 BR BECMG 2909/2911 25010KT BKN013 FEW020CB
DNBE,TAF DNBE 280500Z 2806/2912 VRB02KT 7000 SCT008 TEMPO 2806/2808 3000 BR BECMG 2808/2810 23010KT BKN012 FEW020CB TEMPO 2813/2819 5000 -TSRA BKN008 FEW018CB BECMG 2819/2821 VRB02KT SCT008 TEMPO 2905/2908 3000 BR BECMG 2908/2910 21010KT BKN013 FEW020CB
DNGO,TAF DNGO 280500Z 2806/2912 24010KT 9999 FEW012 TEMPO 2814/2819 TS SCT013 FEW021CB
DNIB,TAF DNIB 280500Z 2806/2912 VRB02KT 7000 FEW010 TEMPO 2806/2807 4000 BR BECMG 2808/2810 20010KT BKN013 FEW020CB TEMPO 2814/2818 TS BECMG 2818/2820 VRB02KT SCT011 BECMG 2909/2911 24010KT BKN013 FEW020CB
DNIL,TAF DNIL 280500Z 2806/2912 00000KT 9999 FEW009 BECMG 2808/2810 18010KT BKN010 TEMPO 2815/2819 TS SCT013 FEW020CB BECMG 2819/2821 VRB02KT FEW010 BECMG 2908/2910 22010KT BKN010
DNJO,TAF DNJO 280500Z 2806/2912 26008KT CAVOK BECMG 2809/2811 BKN009 TEMPO 2814/2819 TS FEW017CB BECMG 2819/2821 VRB02KT CAVOK BECMG 2910/2912 20012KT BKN010
DNKA,TAF DNKA 280500Z 2806/2912 20010KT 9999 SCT009 BECMG 2810/2812 BKN012 TEMPO 2816/2821 TS SCT013 FEW020CB BECMG 2821/2823 12006KT CAVOK BECMG 2910/2912 23010KT BKN012
DNKN,TAF COR DNKN 280500Z 2806/2912 24010KT CAVOK TEMPO 2815/2820 TS SCT014 FEW022CB
DNKT,TAF DNKT 280500Z 2806/2912 23010KT CAVOK TEMPO 2816/2821 SCT014 FEW022CB
DNMA,TAF DNMA 272300Z 2800/2906 23008KT CAVOK
DNMM,TAF DNMM 280500Z 2806/2912 VRB02KT 8000 SCT010 TEMPO 2806/2808 3000 BR SCT010 FEW019CB BECMG 2809/2811 24010KT BKN013 FEW020CB TEMPO 2814/2820 TS BECMG 2820/2822 VRB02KT SCT011 BECMG 2909/2911 23010KT BKN013 FEW020CB
DNSO,TAF DNSO 280500Z 2806/2912 28012KT CAVOK TEMPO 2816/2821 TS SCT014 FEW022CB
DNSU,TAF DNSU 280500Z 2806/2912 VRB02KT 8000 SCT007 TEMPO 2806/2808 3000 BR BECMG 2808/2810 22010KT BKN012 FEW020CB TEMPO 2812/2818 5000 -TSRA BKN008 FEW019CB BECMG 2818/2820 VRB02KT SCT010 TEMPO 2906/2908 4000 BR BECMG 2909/2911 22010KT BKN013 FEW020CB
DNYO,TAF DNYO 280500Z 2806/2912 24008KT 9999 FEW012 TEMPO 2814/2819 TS SCT013 FEW021CB
DRRN,TAF COR DRRN 280500Z 2806/2912 22010KT 8000 NSC PROB30 TEMPO 2815/2821 VRB25KT 2500 BLDU TSRA SCT040 FEW045CB
DRZA,TAF DRZA 280500Z 2806/2906 12010KT 8000 NSC
DRZR,TAF DRZR 280500Z 2806/2906 26006KT CAVOK PROB30 TEMPO 2815/2820 TS FEW040 FEW045CB
DTKA,TAF DTKA 280900Z 2810/2819 08005KT CAVOK BECMG 2810/2812 33008KT 9999 FEW020 BECMG 2814/2816 VRB03KT
DTMB,TAF DTMB 280500Z 2806/2906 VRB02KT 8000 FEW016 BECMG 2806/2808 10008KT BECMG 2813/2815 13016KT BECMG 2819/2821 14004KT
DTNH,TAF DTNH 280500Z 2806/2906 VRB02KT 9999 FEW030 BECMG 2808/2810 11010KT CAVOK BECMG 2819/2821 VRB03KT
DTTA,TAF DTTA 280500Z 2806/2906 VRB02KT 9999 FEW023 BECMG 2807/2809 11006KT CAVOK BECMG 2812/2814 13015KT BECMG 2819/2821 VRB03KT
DTTB,TAF DTTB 280900Z 2810/2819 11005KT CAVOK BECMG 2811/2813 11012KT 9999 FEW020
DTTF,TAF DTTF 280900Z 2810/2819 36004KT 9999 FEW033 BECMG 2810/2812 17010KT
DTTG,TAF DTTG 280900Z 2810/2819 08012KT 9999 FEW030
DTTJ,TAF DTTJ 280500Z 2806/2906 06005KT CAVOK BECMG 2807/2809 11008KT BECMG 2812/2814 10016KT BECMG 2819/2821 10004KT
DTTR,TAF DTTR 280900Z 2810/2819 13013KT 8000 NSC BECMG 2810/2812 18005KT BECMG 2813/2815 36008KT CAVOK
DTTX,TAF DTTX 280500Z 2806/2906 VRB03KT CAVOK BECMG 2807/2809 11010KT BECMG 2819/2821 VRB03KT
DTTZ,TAF DTTZ 280500Z 2806/2906 09015KT CAVOK BECMG 2810/2812 09010KT TEMPO 2815/2818 VRB03KT BECMG 2819/2821 09014KT
DXNG,TAF DXNG 280500Z 2806/2906 VRB05KT 9999 FEW008 PROB30 TEMPO 2816/2821 TS
DXXX,TAF DXXX 280500Z 2806/2912 VRB05KT 9999 FEW014 BECMG 2808/2810 20010KT BECMG 2822/2824 26005KT
EBAW,TAF EBAW 280810Z 2809/2818 25012KT 9999 SCT008 BKN012 BECMG 2809/2811 SCT012 BKN022 PROB30 TEMPO 2812/2817 27015G25KT
EBBE,TAF EBBE 280841Z 2810/2819 25010KT 9999 FEW015 SCT020 BECMG 2812/2814 FEW020 SCT025 TEMPO 2810/2818 25015G25KT
EBBL,TAF COR EBBL 280930Z 2810/2819 25010KT 6000 SCT010 BKN015 BECMG 2810/2812 9999 SCT020 BKN040 TEMPO 2812/2816 27015G25KT BECMG 2818/2819 BKN008 BKN015
EBBR,TAF EBBR 280500Z 2806/2912 19007KT 6000 -RA SCT005 BKN008 TEMPO 2806/2808 2500 RADZ BR BECMG 2808/2810 26011KT SCT012 BKN018 TEMPO 2810/2816 26015G25KT TEMPO 2900/2907 SCT008 BKN012 BECMG 2904/2907 33005KT
EBCI,TAF EBCI 280500Z 2806/2912 21010KT 6000 -RA SCT004 BKN006 TEMPO 2806/2808 2500 RADZ BR BKN003 BECMG 2808/2810 27011KT SCT009 BKN014 BECMG 2810/2812 SCT015 BKN025 TEMPO 2810/2816 27015G25KT TEMPO 2901/2908 SCT007 BKN011 BECMG 2904/2907 33005KT PROB30 TEMPO 2904/2907 BKN006
EBCV,TAF EBCV 280841Z 2810/2819 25012KT 9999 FEW015 BKN020 PROB30 TEMPO 2810/2812 25014G25KT 6000 -SHRA SCT015 BKN020 TEMPO 2810/2819 FEW020 SCT025 BY EBWM
EBFN,TAF EBFN 280851Z 2810/2819 26015G25KT 9999 SCT015 BKN030 TEMPO 2810/2819 SCT008 BKN010 PROB40 TEMPO 2810/2819 FEW025 BKN035
EBFS,TAF EBFS 280841Z 2810/2819 24010KT 9999 FEW008 SCT012 BKN015 TEMPO 2810/2812 24010G20KT BECMG 2810/2812 27012KT SCT015 BKN020 TEMPO 2812/2816 27015G25KT FEW022 BKN025
EBLG,TAF EBLG 280500Z 2806/2912 21010KT 8000 -RA SCT006 BKN010 TEMPO 2806/2809 2500 RADZ BR BKN004 BECMG 2809/2811 27011KT SCT015 BKN025 TEMPO 2811/2817 27015G25KT TEMPO 2902/2908 SCT008 BKN012 BECMG 2904/2907 33005KT
EBOS,TAF EBOS 280500Z 2806/2912 23010KT 3000 -DZ BR BKN004 BECMG 2806/2808 26015G25KT 9999 NSW SCT008 BKN012 BECMG 2808/2810 SCT015 BKN025 BECMG 2819/2821 34009KT TEMPO 2821/2908 SCT008 BKN012
EDAC,TAF EDAC 280800Z 2809/2818 17005KT 9999 SCT040 TEMPO 2815/2818 4000 SHRA BKN020CB
EDAH,TAF EDAH 280800Z 2809/2818 13009KT CAVOK BECMG 2813/2815 07009KT
EDBC,TAF EDBC 280800Z 2809/2818 14010KT CAVOK PROB30 TEMPO 2810/2813 RA PROB40 TEMPO 2813/2818 4000 SHRA BKN020CB BECMG 2815/2818 18005KT
EDDB,TAF EDDB 280500Z 2806/2906 12009KT 9999 SCT030 PROB30 TEMPO 2816/2820 RA BECMG 2817/2819 12004KT PROB30 TEMPO 2900/2905 1400 RA BKN004 BECMG 2900/2903 25005KT 4500 -RA BKN007
EDDC,TAF EDDC 280500Z 2806/2906 16008KT 9999 SCT030 BKN040 PROB30 TEMPO 2813/2906 RA BECMG 2900/2902 22006KT TEMPO 2902/2906 4500 -SHRA BKN004TCU
EDDE,TAF EDDE 280500Z 2806/2906 12004KT 9999 SCT035 PROB30 TEMPO 2810/2814 RA PROB40 TEMPO 2814/2823 4000 SHRA BKN020CB BECMG 2820/2822 26010KT PROB30 TEMPO 2821/2903 BKN003
EDDF,TAF AMD EDDF 280829Z 2808/2912 06004KT 9999 BKN030 TEMPO 2808/2811 BKN008 BECMG 2808/2810 20008KT BECMG 2811/2813 SCT035 TEMPO 2812/2820 SHRA BKN025CB PROB30 TEMPO 2815/2819 27010G20KT 4000 TSRA BECMG 2900/2903 29007KT BKN030
EDDG,TAF EDDG 280500Z 2806/2906 11005KT 9999 BKN030 PROB30 TEMPO 2808/2818 SHRA BKN012CB BECMG 2811/2814 20008KT BECMG 2814/2816 27009KT BECMG 2818/2821 BKN010 TEMPO 2821/2906 4000 DZ BKN005
EDDH,TAF EDDH 280500Z 2806/2912 09005KT CAVOK BECMG 2807/2809 11011KT TEMPO 2816/2821 4500 RA FEW004 BKN006 BECMG 2818/2820 06006KT TEMPO 2821/2906 BKN004 OVC006 BECMG 2902/2904 34005KT BECMG 2908/2910 32010KT
EDDK,TAF EDDK 280500Z 2806/2912 11007KT 9999 BKN030 TEMPO 2806/2811 4000 SHRA BKN012 BKN020CB BECMG 2810/2813 28011KT PROB30 TEMPO 2811/2819 29015G25KT SHRA SCT015CB BECMG 2823/2902 BKN010 PROB30 TEMPO 2902/2909 4000 DZ BKN005 BECMG 2909/2912 BKN020
EDDL,TAF EDDL 280500Z 2806/2912 14010KT 9999 BKN030 TEMPO 2806/2811 4000 SHRA BKN008 BKN020CB BECMG 2809/2812 24010KT PROB30 TEMPO 2811/2817 29015G25KT SHRA SCT015CB BECMG 2817/2820 30009KT BECMG 2822/2901 BKN010 PROB30 TEMPO 2901/2908 4000 DZ BKN005 BECMG 2908/2910 BKN020
EDDM,TAF EDDM 280500Z 2806/2912 12004KT 9999 BKN040 TEMPO 2808/2815 24013KT RA BECMG 2809/2811 23008KT PROB30 TEMPO 2811/2815 BKN012 TEMPO 2815/2819 24015G25KT 4000 SHRA BKN012 BKN020CB PROB40 TEMPO 2819/2906 BKN012
EDDN,TAF AMD EDDN 281016Z 2810/2906 12007KT 9999 BKN020 TEMPO 2810/2812 4000 RADZ BKN008 BKN014 TEMPO 2812/2823 25013KT 4000 SHRA BKN008 BKN020CB BECMG 2812/2814 23007KT PROB40 TEMPO 2815/2821 TSRA TEMPO 2823/2906 4500 BR BKN007
EDDP,TAF EDDP 280500Z 2806/2906 12007KT CAVOK PROB30 TEMPO 2810/2816 RA BECMG 2811/2815 18005KT PROB40 TEMPO 2816/2904 4000 SHRA BKN020CB BECMG 2820/2823 25005KT
EDDR,TAF EDDR 280500Z 2806/2906 19005KT 9999 SCT008 OVC015 TEMPO 2806/2810 2500 RA OVC004 BECMG 2807/2810 24010KT BKN008 BECMG 2810/2812 BKN012 TEMPO 2811/2816 SHRA BKN012CB BECMG 2812/2814 BKN015 BECMG 2819/2821 28005KT
EDDS,TAF EDDS 280500Z 2806/2906 VRB03KT 9999 BKN040 TEMPO 2807/2811 RA BECMG 2808/2810 22008KT TEMPO 2812/2819 SHRA BKN025CB PROB30 TEMPO 2815/2819 21015G25KT 4500 TSRA BKN014CB
EDDV,TAF EDDV 280500Z 2806/2906 10010KT CAVOK PROB30 TEMPO 2809/2814 RA PROB30 TEMPO 2816/2821 4500 SHRA BKN014CB BECMG 2817/2819 15005KT PROB30 TEMPO 2819/2906 SCT004 BKN007 BECMG 2821/2823 28007KT
EDDW,TAF EDDW 280500Z 2806/2906 11010KT CAVOK TEMPO 2816/2820 4500 RA BKN008 BECMG 2817/2819 12005KT BECMG 2819/2821 04005KT PROB40 TEMPO 2820/2906 BKN004 OVC006 BECMG 2821/2823 32007KT
EDFH,TAF EDFH 280500Z 2806/2906 17010KT 9999 SCT005 OVC015 TEMPO 2806/2810 2500 RA OVC003 BECMG 2807/2810 25010KT BKN008 TEMPO 2810/2816 SHRA BKN012CB BECMG 2811/2813 BKN012 BECMG 2813/2815 SCT015 PROB30 TEMPO 2814/2816 27015G25KT TSRA BKN010CB BECMG 2819/2821 28005KT
EDFM,TAF EDFM 280800Z 2809/2818 19007KT 9999 SCT010 BKN020 TEMPO 2809/2813 3000 RA BKN009 TEMPO 2813/2818 4500 SHRA BKN015CB PROB30 TEMPO 2814/2818 TSRA BKN012CB
EDGS,TAF EDGS 280800Z 2809/2818 15010KT 6000 OVC005 TEMPO 2809/2813 1300 RADZ BKN001 BECMG 2809/2812 25009KT PROB30 TEMPO 2813/2818 2500 SHRA BKN004CB
EDHI,TAF EDHI 280800Z 2809/2818 11009KT CAVOK
EDHK,TAF EDHK 280800Z 2809/2818 12007KT CAVOK
EDHL,TAF EDHL 280800Z 2809/2818 13010KT CAVOK BECMG 2816/2818 07005KT
EDJA,TAF EDJA 280800Z 2809/2818 23013KT 9999 SCT015 BKN025 TEMPO 2809/2816 4500 RA BKN012 PROB40 TEMPO 2812/2816 BKN008 TEMPO 2816/2818 4000 TSRA SCT008 BKN012CB
EDLN,TAF EDLN 280800Z 2809/2818 14005KT 9999 BKN025 BECMG 2809/2812 27010KT TEMPO 2809/2811 RA BKN012 PROB30 TEMPO 2811/2815 4000 SHRA BKN015CB
EDLP,TAF EDLP 280500Z 2806/2906 15008KT 9999 BKN030 PROB40 TEMPO 2811/2820 SHRA BKN012CB BECMG 2812/2815 24008KT PROB30 TEMPO 2816/2820 4000 TSRA BECMG 2820/2823 BKN010 TEMPO 2823/2906 4000 DZ BKN004
EDLV,TAF EDLV 280500Z 2806/2906 12005KT 9999 BKN025 TEMPO 2806/2812 4000 SHRA BKN008 BKN015CB BECMG 2808/2811 26010KT BECMG 2821/2824 OVC010 TEMPO 2902/2906 4500 DZ BKN004
EDLW,TAF EDLW 280500Z 2806/2906 14007KT 9999 BKN030 TEMPO 2806/2813 4000 SHRA BKN012CB BECMG 2810/2813 26008KT TEMPO 2813/2819 SHRA SCT015CB PROB30 TEMPO 2814/2817 TSRA BECMG 2821/2824 BKN010 PROB30 TEMPO 2822/2906 4000 DZ BKN004
EDMA,TAF EDMA 280800Z 2809/2818 23010KT 9999 BKN035 TEMPO 2809/2816 RA BKN012 PROB30 TEMPO 2816/2818 4000 SHRA BKN012CB
EDMO,TAF EDMO 280800Z 2809/2818 22010KT 9999 SCT030 BKN045 TEMPO 2809/2816 4000 RA BKN012 PROB30 TEMPO 2816/2818 4000 SHRA SCT008 BKN012CB
EDNY,TAF AMD EDNY 280942Z 2809/2906 17003KT 6000 BKN040 TEMPO 2809/2813 3500 RA BKN008 TEMPO 2813/2823 4000 SHRA SCT008 BKN012 BKN020CB PROB30 TEMPO 2815/2820 TSRA
EDQM,TAF EDQM 280800Z 2809/2818 15007KT CAVOK TEMPO 2812/2816 4000 RA BKN012
EDSB,TAF EDSB 280500Z 2806/2906 19005KT 9999 BKN045 TEMPO 2806/2811 4000 RA BECMG 2807/2809 21010KT TEMPO 2811/2818 SHRA BKN025CB PROB30 TEMPO 2814/2818 21015G25KT 4500 TSRA BKN014CB BECMG 2818/2820 23005KT
EDTL,TAF EDTL 280800Z 2809/2818 21010KT 9999 FEW014 BKN025 TEMPO 2809/2814 4000 RA BKN014 TEMPO 2814/2818 4000 SHRA BKN015CB PROB30 TEMPO 2815/2818 TSRA BKN012CB
EDTY,TAF EDTY 280800Z 2809/2818 23008KT 9999 SCT012 BKN030 TEMPO 2809/2812 RA BKN012 TEMPO 2812/2818 SHRA BKN012CB PROB40 TEMPO 2814/2818 4000 TSRA
EDVE,TAF EDVE 280800Z 2809/2818 10010KT CAVOK PROB30 TEMPO 2815/2818 4500 SHRA BKN014CB
EDVK,TAF EDVK 280800Z 2809/2818 14006KT 9999 FEW020 BKN040 TEMPO 2810/2815 3000 RA BKN010 BECMG 2815/2817 22006KT TEMPO 2815/2818 4000 SHRA BKN015CB
EDWE,TAF EDWE 280800Z 2809/2818 09007KT CAVOK PROB30 TEMPO 2809/2811 SHRA BKN014CB PROB30 TEMPO 2814/2816 BKN012 BECMG 2816/2818 BKN012 TEMPO 2816/2818 4500 SHRA BKN009CB
EDXW,TAF EDXW 280800Z 2809/2818 10015KT CAVOK
EEEI,TAF EEEI 280530Z 2806/2906 20008KT 9999 SCT020 PROB40 TEMPO 2810/2815 4000 SHRA SCT005 BKN010 FEW020CB PROB30 TEMPO 2811/2815 VRB20KT TSRA BECMG 2814/2816 27006KT BECMG 2817/2819 BKN012
EETN,TAF EETN 280530Z 2806/2906 20006KT 9999 SCT015 BKN030 TEMPO 2807/2811 SCT020CB TEMPO 2811/2818 3000 SHRA SCT005 BKN010 SCT020CB PROB40 TEMPO 2811/2815 VRB15KT TSGS BECMG 2815/2817 26010KT TEMPO 2818/2824 BKN010 TEMPO 2900/2906 BKN005
EFHA,TAF EFHA 280836Z 2809/2815 18003KT 9999 BKN025
EFHK,TAF EFHK 280836Z 2809/2909 24009KT 9999 FEW035TCU SCT045 TEMPO 2810/2815 7000 -SHRA FEW040CB BECMG 2818/2820 SCT040 PROB30 2823/2903 BKN006
EFJY,TAF EFJY 280836Z 2809/2909 28003KT 9999 FEW012 BKN020 PROB30 2900/2905 2000 BCFG TEMPO 2906/2908 BKN008
EFKE,TAF AMD EFKE 280917Z 2809/2818 09007KT 8000 -SNRA BKN015 BECMG 2809/2811 1500 SNRA BKN004 TEMPO 2811/2818 4000 -SN BKN010
EFKI,TAF EFKI 280837Z 2809/2818 11005KT 9999 -RA BKN018 BECMG 2809/2811 1300 SNRA BKN006 TEMPO 2811/2816 4000 -RASN BKN004 BECMG 2816/2818 3000 -SNRA BR BKN003
EFKK,TAF EFKK 280837Z 2809/2818 25004KT 9999 BKN020 TEMPO 2810/2817 FEW025TCU PROB30 2814/2816 34010KT
EFKU,TAF EFKU 280822Z 2809/2909 29006KT 9999 BKN012 BECMG 2809/2811 SCT020
EFLP,TAF EFLP 280822Z 2809/2818 27006KT CAVOK
EFMA,TAF EFMA 280837Z 2809/2818 24006KT 9999 SCT012 BKN020 BECMG 2809/2811 30010KT TEMPO 2809/2815 BKN010 FEW025CB TEMPO 2815/2818 BKN008
EFOU,TAF AMD EFOU 280942Z 2809/2909 31005KT 8000 -SN BKN015 TEMPO 2809/2813 2000 SNRA BKN003 PROB40 2813/2819 3000 -SNRA BR BKN002 BECMG 2819/2821 3000 -SN BR BKN002 TEMPO 2821/2906 0800 -SN FZFG BKN001 BECMG 2906/2908 25010KT 8000 NSW BKN006
EFPO,TAF EFPO 280837Z 2809/2818 22005KT 9999 SCT020 TEMPO 2809/2816 SHRA FEW025CB PROB40 2814/2816 28010KT BECMG 2816/2818 BKN007
EFRO,TAF EFRO 280833Z 2809/2909 09013KT CAVOK PROB30 2810/2815 SHRA TEMPO 2815/2818 7000 RA BECMG 2818/2820 1500 SN TEMPO 2818/2820 BKN004 TEMPO 2820/2909 3000 -SN BKN005
EFSA,TAF EFSA 280822Z 2809/2818 29008KT 9999 BKN006 BECMG 2809/2811 SCT020
EFSI,TAF EFSI 280837Z 2809/2818 15004KT 9999 BKN004 BECMG 2809/2810 SCT012 TEMPO 2810/2816 FEW035CB PROB30 2814/2816 31010KT
EFTP,TAF EFTP 280836Z 2809/2909 21006KT 9999 SCT020 TEMPO 2812/2819 FEW030CB PROB40 2823/2906 0500 FZFG BKN001
EFTU,TAF EFTU 280836Z 2809/2909 14003KT 9999 FEW030 TEMPO 2809/2818 SCT030CB PROB30 2810/2816 3000 SHRA BECMG 2822/2824 0900 FZFG BKN001 BECMG 2904/2906 9999 NSW FEW005
EFUT,TAF EFUT 280822Z 2809/2812 24007KT 9999 FEW030
EFVA,TAF EFVA 280837Z 2809/2909 06003KT 9999 BKN004 BECMG 2809/2810 FEW012 FEW020TCU TEMPO 2810/2815 31010KT SHRA FEW025CB BECMG 2819/2821 0300 FZFG VV001 TEMPO 2821/2904 0700 VV002 BECMG 2904/2906 9000 NSW BKN003 BECMG 2906/2908 25010KT SCT012
EGAA,TAF AMD EGAA 281027Z 2810/2906 20005KT 9999 FEW015 SCT025 TEMPO 2810/2812 7000 BKN012 PROB30 TEMPO 2810/2812 BKN008 TEMPO 2812/2820 6000 SHRA PROB30 TEMPO 2813/2819 4000 +SHRA PROB30 2823/2901 8000 BKN006 BECMG 2901/2904 6000 BKN006 PROB30 TEMPO 2901/2906 4000 SHRA PROB30 2904/2906 BKN002
EGAC,TAF EGAC 280802Z 2809/2818 17005KT 2000 -DZ BR BKN004 BECMG 2809/2812 9999 NSW FEW015 SCT025 BECMG 2812/2815 04010KT TEMPO 2813/2818 7000 SHRA PROB30 TEMPO 2814/2818 4000 +SHRA
EGAE,TAF AMD EGAE 281022Z 2810/2818 24005KT 9999 FEW008 BKN020 TEMPO 2810/2811 7000 -RADZ BKN012 TEMPO 2811/2818 7000 SHRA PROB30 TEMPO 2811/2812 BKN014 PROB30 TEMPO 2812/2818 4000 +SHRA
EGBB,TAF AMD EGBB 280824Z 2808/2906 29008KT 9999 SCT030 TEMPO 2808/2811 8000 BKN008 PROB30 TEMPO 2900/2906 6000
EGBJ,TAF EGBJ 280757Z 2809/2818 30009KT 9999 SCT025 PROB30 TEMPO 2809/2810 8000 BKN009
EGCC,TAF EGCC 280459Z 2806/2912 04005KT 9999 SCT012 BKN030 BECMG 2806/2809 30010KT TEMPO 2806/2812 6000 -RA BKN008 PROB40 TEMPO 2806/2811 3000 DZ BR BKN004 BECMG 2821/2824 18005KT 7000 TEMPO 2900/2908 4000 BR PROB40 2903/2907 0300 FG VV/// BECMG 2908/2911 9999 TEMPO 2908/2912 7000 SHRA PROB30 TEMPO 2910/2912 3000 +SHRA
EGCK,TAF EGCK 280758Z 2809/2818 VRB03KT 6000 SCT006 BKN030 BECMG 2809/2812 26010KT 9999 PROB30 TEMPO 2815/2818 BKN008
EGDM,TAF EGDM 280743Z 2809/2818 30012KT 9999 SCT010 BKN015 BECMG 2809/2811 SCT018 BECMG 2811/2813 SCT025
EGDR,TAF AMD EGDR 280958Z 2809/2818 28010KT 4000 BR FEW003 SCT008 TEMPO 2809/2818 3000 -DZ BR SCT003 BKN005
EGDY,TAF EGDY 280811Z 2809/2818 27010KT 9999 FEW010 SCT020 TEMPO 2809/2812 SCT010 BECMG 2810/2813 FEW020
EGEC,TAF EGEC 280759Z 2809/2818 16005KT 6000 SCT008 BKN015 TEMPO 2809/2818 3000 -RADZ BR BKN008 PROB30 TEMPO 2809/2813 1200 DZRA BKN003
EGEO,TAF EGEO 280856Z 2809/2817 08003KT 9999 FEW008 BKN020 PROB30 TEMPO 2809/2812 6000 -RADZ BKN008 BECMG 2812/2815 27010KT
EGFF,TAF AMD EGFF 280811Z 2808/2906 26013KT 1100 BR OVC001 BECMG 2808/2811 9999 NSW BKN012 TEMPO 2808/2810 0300 FG BECMG 2811/2814 FEW015 PROB30 TEMPO 2814/2818 BKN014 BECMG 2818/2821 BKN003 TEMPO 2818/2906 0300 DZ FG BKN000
EGGD,TAF AMD EGGD 280811Z 2808/2906 26011KT 6000 BKN002 TEMPO 2808/2810 0300 DZ FG BKN000 BECMG 2810/2813 9999 NSW BKN012 BECMG 2813/2815 FEW012 PROB30 TEMPO 2815/2820 BKN012 BECMG 2820/2823 0300 FG BKN000
EGGP,TAF EGGP 280459Z 2806/2906 09005KT 9999 BKN012 BECMG 2806/2809 31010KT TEMPO 2806/2810 6000 -RADZ BKN006 PROB40 TEMPO 2806/2809 3000 DZ BR BKN004 BECMG 2810/2813 SCT020 PROB30 TEMPO 2810/2815 7000 BECMG 2822/2901 16006KT TEMPO 2822/2906 6000
EGGW,TAF EGGW 280501Z 2806/2906 24012KT 9999 BKN006 PROB40 TEMPO 2806/2809 2000 BR BKN003 BECMG 2809/2812 30013KT FEW035 PROB30 TEMPO 2812/2814 BKN014 BECMG 2816/2819 VRB03KT TEMPO 2900/2906 4000 BR BKN003 PROB30 2902/2906 0300 FG VV///
EGHC,TAF EGHC 280757Z 2809/2818 28010KT 3000 BR BKN002 TEMPO 2809/2818 0300 FG BKN001 PROB30 TEMPO 2809/2815 9999 NSW SCT002
EGHE,TAF EGHE 280757Z 2809/2818 27010KT 9999 SCT003 TEMPO 2809/2815 2000 DZ BKN004 PROB30 TEMPO 2809/2815 0300 FG BKN001 BECMG 2815/2818 2000 DZ BKN004
EGHH,TAF EGHH 280757Z 2809/2818 28009KT 9999 SCT022 PROB40 TEMPO 2809/2810 8000 BKN010
EGHI,TAF EGHI 280757Z 2809/2818 28008KT 9999 SCT020 PROB30 TEMPO 2809/2810 8000 BKN010
EGHQ,TAF EGHQ 280757Z 2809/2818 28012KT 5000 BR BKN005 TEMPO 2809/2812 2000 DZ BKN002 PROB40 TEMPO 2809/2812 0300 FG BKN001 TEMPO 2812/2815 9999 NSW SCT008 TEMPO 2815/2818 2000 DZ BKN002
EGJA,TAF EGJA 280758Z 2809/2818 27013KT 3000 -DZ BR SCT001 BKN003 PROB40 TEMPO 2809/2815 0200 FG BKN000 PROB30 TEMPO 2809/2816 9999 NSW SCT008
EGJB,TAF EGJB 280758Z 2809/2818 28015KT 3000 -DZ BR FEW001 BKN003 PROB40 TEMPO 2809/2818 0200 FG BKN000 PROB30 TEMPO 2809/2818 9999 NSW SCT008 BECMG 2816/2818 29005KT
EGJJ,TAF EGJJ 280758Z 2809/2818 28015KT 3000 -DZ BR FEW001 BKN004 PROB40 TEMPO 2809/2818 0200 FG BKN000 PROB30 TEMPO 2809/2818 9999 NSW SCT008 BECMG 2816/2818 31005KT
EGKA,TAF EGKA 280805Z 2809/2818 24012KT 7000 -DZ BKN007 BECMG 2809/2812 9999 NSW SCT015
EGKB,TAF EGKB 280805Z 2809/2818 26010KT 9999 SCT015 PROB30 TEMPO 2809/2811 BKN014 BECMG 2814/2817 32006KT
EGKK,TAF EGKK 280459Z 2806/2912 25010KT 9999 SCT004 BKN006 TEMPO 2806/2809 6000 BKN004 PROB30 TEMPO 2806/2808 4000 -DZ BR BECMG 2809/2812 SCT035 BECMG 2814/2817 31005KT PROB30 TEMPO 2823/2908 4000 BR MIFG
EGLC,TAF EGLC 280805Z 2809/2818 25010KT 9999 BKN008 BECMG 2809/2812 SCT035 BECMG 2813/2816 31008KT
EGLF,TAF AMD EGLF 280903Z 2809/2818 25010KT 9999 SCT015 TEMPO 2809/2811 9000 PROB30 TEMPO 2809/2811 BKN014 BECMG 2813/2816 31007KT
EGLL,TAF EGLL 280501Z 2806/2912 23007KT 9999 BKN007 BECMG 2806/2809 BKN012 BECMG 2809/2812 30011KT SCT030 BECMG 2818/2821 04003KT PROB30 TEMPO 2902/2907 6000
EGMC,TAF EGMC 280805Z 2809/2818 25008KT 9999 BKN007 BECMG 2809/2812 SCT022 BECMG 2813/2816 31010KT
EGMD,TAF EGMD 280805Z 2809/2818 23013KT 9999 BKN007 BECMG 2809/2812 SCT015 PROB30 TEMPO 2809/2810 8000 -DZ PROB30 TEMPO 2812/2816 24016G26KT
EGNH,TAF AMD EGNH 281027Z 2810/2818 30006KT 7000 SCT020 TEMPO 2810/2818 9999
EGNJ,TAF EGNJ 280758Z 2809/2818 32005KT 6000 BKN006 BECMG 2809/2812 9999 NSW BKN016 TEMPO 2809/2811 4000 -DZ BR BKN003 PROB30 TEMPO 2809/2810 0300 DZ FG VV/// PROB40 TEMPO 2812/2818 BKN014
EGNM,TAF AMD EGNM 280938Z 2809/2906 VRB03KT 6000 BKN003 TEMPO 2809/2810 1200 DZ BECMG 2810/2813 9999 SCT020 TEMPO 2822/2906 5000 BR PROB40 2902/2906 0300 FG VV///
EGNO,TAF EGNO 280758Z 2809/2818 30005KT 9999 BKN012 PROB30 TEMPO 2809/2810 5000 -DZ BKN006 BECMG 2812/2815 SCT016
EGNR,TAF EGNR 280758Z 2809/2818 VRB03KT 6000 BKN006 BECMG 2809/2812 32010KT PROB30 TEMPO 2809/2810 3000 BR BKN003 BECMG 2810/2813 9999 NSW SCT016
EGNS,TAF EGNS 280800Z 2809/2818 VRB05KT 5000 BR FEW007 BKN008 TEMPO 2809/2815 9999 NSW BKN012
EGNT,TAF EGNT 280458Z 2806/2906 12006KT 9999 BKN012 TEMPO 2806/2815 6000 -RA BKN008 PROB40 TEMPO 2806/2811 2500 DZ BR BKN003 BECMG 2815/2818 SCT016 BECMG 2900/2903 6000 BKN006 TEMPO 2900/2906 3000 -DZ BR BKN004 PROB30 2903/2906 1200 DZ
EGNV,TAF EGNV 280758Z 2809/2818 VRB03KT 2000 BR BKN010 BECMG 2809/2812 9999 NSW SCT020
EGNX,TAF EGNX 280455Z 2806/2906 VRB04KT 5000 -RADZ BR BKN005 BECMG 2806/2809 29010KT TEMPO 2806/2808 2000 RADZ BKN002 PROB30 TEMPO 2806/2808 0300 FG BKN001 BECMG 2809/2812 9999 NSW SCT025 PROB30 TEMPO 2809/2814 6000 PROB30 TEMPO 2902/2906 6000
EGOS,TAF AMD EGOS 280943Z 2809/2818 30010KT 9999 SCT008 BKN020 BECMG 2809/2812 FEW018 SCT025 PROB30 TEMPO 2812/2816 -SHRA SCT022 PROB30 TEMPO 2816/2818 SCT020
EGPA,TAF EGPA 280757Z 2809/2818 21004KT 9999 SCT008 BKN020 TEMPO 2809/2815 8000 -DZ BKN008 PROB30 TEMPO 2809/2812 4000 BR DZ BKN003 BECMG 2810/2813 36015KT
EGPB,TAF AMD EGPB 281002Z 2810/2818 13012KT 9999 SCT009 BKN012 BECMG 2810/2813 02016KT SCT012 BKN025 TEMPO 2810/2814 7000 -RA BKN007 PROB40 TEMPO 2810/2814 4000 RADZ BR BKN004 PROB40 TEMPO 2815/2818 03019G29KT 6000 SHRA BKN012
EGPC,TAF EGPC 280757Z 2809/2818 26005KT 9999 SCT008 BKN020 TEMPO 2809/2812 8000 -DZ BKN006 BECMG 2811/2814 33012KT PROB30 TEMPO 2812/2814 8000 -DZ BKN008
EGPD,TAF EGPD 280457Z 2806/2906 17005KT 9999 BKN008 TEMPO 2806/2809 5000 -RADZ BKN006 PROB40 TEMPO 2806/2808 2500 DZ BR BKN004 BECMG 2808/2811 FEW008 BKN018 PROB30 TEMPO 2809/2818 7000 -RA BKN014 BECMG 2815/2818 34010KT PROB40 TEMPO 2818/2821 6000 RADZ BKN009 BECMG 2900/2903 VRB03KT
EGPE,TAF EGPE 280757Z 2809/2818 VRB03KT 9999 FEW010 SCT020 PROB30 TEMPO 2809/2815 BKN010 BECMG 2813/2816 01010KT
EGPF,TAF AMD EGPF 280915Z 2809/2906 VRB03KT 1200 BR DZRA BKN003 OVC011 BECMG 2809/2811 9999 NSW SCT006 BKN011 BECMG 2811/2814 SCT014 BKN020 TEMPO 2811/2814 5000 -RA BKN008 PROB30 TEMPO 2815/2818 7000 -SHRA BECMG 2822/2901 09010KT TEMPO 2900/2906 7000 -RA BKN012
EGPH,TAF AMD EGPH 281010Z 2810/2906 27005KT 9999 FEW010 BKN025 TEMPO 2810/2813 7000 -RADZ PROB40 TEMPO 2810/2812 4000 RADZ BR BKN007 PROB30 TEMPO 2813/2818 6000 SHRA BECMG 2821/2824 06010KT TEMPO 2822/2906 7000 -RA BKN008 PROB40 TEMPO 2822/2901 4000 RA BKN004
EGPI,TAF EGPI 280759Z 2809/2818 16005KT 6000 SCT004 BKN010 TEMPO 2809/2818 3000 -RADZ BR BKN004 PROB30 TEMPO 2809/2813 1200 DZRA BKN001 BECMG 2815/2818 SCT010 BKN025
EGPK,TAF EGPK 280457Z 2806/2906 VRB03KT 9999 SCT018 TEMPO 2806/2814 6000 -RA BKN014 PROB30 TEMPO 2806/2812 3000 RADZ BKN006 BECMG 2809/2812 25010KT BECMG 2821/2824 10005KT PROB40 TEMPO 2900/2906 8000 -RA BKN008
EGPL,TAF AMD EGPL 281033Z 2810/2818 09009KT 9999 SCT010 BKN025 PROB40 TEMPO 2810/2814 7000 -RADZ BKN008 BECMG 2815/2818 09019KT
EGPN,TAF EGPN 280759Z 2809/2818 12004KT 2500 BR DZ BKN004 BECMG 2809/2812 9999 NSW FEW006 BKN030
EGPO,TAF EGPO 280757Z 2809/2818 36005KT 9999 FEW012 BKN030 BECMG 2809/2810 02015KT PROB30 TEMPO 2809/2818 7000 -SHRA BKN012 PROB40 TEMPO 2812/2818 03018G28KT
EGPU,TAF EGPU 280759Z 2809/2818 14005KT 9999 SCT008 OVC012 TEMPO 2809/2818 8000 -DZ BKN005 PROB40 TEMPO 2809/2815 4000 BR DZRA BKN003
EGQL,TAF EGQL 280753Z 2809/2818 VRB03KT 9999 BKN025 TEMPO 2809/2813 4000 -RADZ SCT008 PROB40 TEMPO 2809/2812 1200 RADZ BR SCT002 BKN008 PROB40 TEMPO 2813/2818 7000 -SHRA SCT018
EGSC,TAF AMD EGSC 280859Z 2809/2818 25010KT 9000 BKN008 BECMG 2809/2812 9999 SCT035 BECMG 2812/2815 31009KT
EGSH,TAF EGSH 280755Z 2809/2818 VRB03KT 1500 BR OVC002 BECMG 2809/2811 28010KT 9999 NSW BKN020 PROB30 TEMPO 2811/2815 6000 SHRA BECMG 2815/2818 34008KT PROB40 TEMPO 2815/2818 BKN011
EGSS,TAF EGSS 280501Z 2806/2912 23010KT 2000 BR BKN002 BECMG 2806/2808 9999 NSW BKN010 PROB30 TEMPO 2808/2811 BKN009 BECMG 2811/2814 32013KT FEW035 BECMG 2817/2820 VRB03KT PROB40 2822/2824 6000 BECMG 2900/2903 4000 BR BKN004 PROB30 TEMPO 2902/2907 0300 FG VV/// BECMG 2906/2909 9999 NSW FEW020
EGSY,TAF EGSY 280757Z 2809/2818 25012KT 9999 BKN012 TEMPO 2809/2811 2000 -DZ BKN002 BECMG 2812/2815 FEW015 TEMPO 2816/2818 8000 BKN004
EGTC,TAF EGTC 280805Z 2809/2818 24010KT 9999 SCT004 BKN007 BECMG 2809/2812 SCT030 PROB30 TEMPO 2809/2811 8000 -DZ BECMG 2811/2814 32010KT
EGTE,TAF EGTE 280757Z 2809/2818 27012KT 9999 SCT014 TEMPO 2809/2810 8000 BKN009
EGTK,TAF EGTK 280805Z 2809/2818 24010KT 8000 SCT005 PROB30 TEMPO 2809/2810 4000 BR BKN005 BECMG 2810/2813 9999 BECMG 2812/2815 31009KT
EGUL,TAF AMD EGUL 281023Z 2810/2911 28009KT 5000 BR BKN007 BKN010 OVC015 QNH2979INS TEMPO 2810/2812 3200 -DZ BR BECMG 2811/2812 28012G22KT 9999 NSW SCT007 BKN010 OVC015 QNH2981INS BECMG 2813/2814 31012G22KT 9999 SCT020 BKN025 BKN030 QNH2983INS BECMG 2817/2818 01009KT 9999 FEW015 SCT025 QNH2989INS BECMG 2821/2822 02005KT 8000 BR FEW008 SCT015 QNH2996INS BECMG 2902/2903 VRB03KT 5000 BR FEW005 BKN008 QNH3002INS BECMG 2907/2909 VRB05KT 8000 BR SCT007 BKN010 QNH3011INS TX14/2814Z TN06/2905Z
EGUN,TAF AMD EGUN 280926Z 2809/2910 29007KT 3200 -RA BR OVC012 QNH2978INS TEMPO 2809/2812 1600 BKN007 BKN010 BECMG 2813/2814 30012G22KT 9999 VCSH BKN020 OVC040 510008 QNH2978INS BECMG 2817/2818 04006KT 9000 BR FEW025 BKN050 QNH2987INS BECMG 2820/2822 12004KT 4000 BR FEW003 SCT040 QNH2997INS BECMG 2900/2901 20003KT 0600 FG VV001 QNH3001INS BECMG 2906/2907 23003KT 0800 FG VV003 QNH3002INS BECMG 2907/2909 04003KT 1600 BR OVC005 QNH3004INS TX15/2813Z TN06/2904Z
EGUW,TAF EGUW 280739Z 2809/2818 26012KT 9999 BKN012 BECMG 2809/2812 SCT025 TEMPO 2812/2813 SCT020
EGVA,TAF EGVA 280400Z 2804/2910 24009KT 8000 -DZ BR OVC005 510063 QNH2974INS BECMG 2809/2810 27015G20KT 9000 -RA BKN006 OVC013 510063 QNH2980INS BECMG 2814/2815 30012G18KT 9999 NSW FEW021 BKN029 OVC040 QNH2987INS BECMG 2818/2819 32006KT 9999 SCT022 BKN029 QNH2992INS TX17/2815Z TN08/2904Z
EGVN,TAF EGVN 280752Z 2809/2909 24010KT 9999 BKN008 BECMG 2810/2813 BKN030 PROB40 2902/2908 5000 HZ PROB30 2904/2907 2000 BR SCT004
EGVO,TAF EGVO 280726Z 2809/2821 24011KT 9999 BKN010 BECMG 2809/2812 BKN025
EGVP,TAF EGVP 280758Z 2809/2818 28012KT 9999 BKN008 BECMG 2809/2811 BKN015 BECMG 2811/2813 FEW020 BKN025 TEMPO 2813/2815 SCT020 BKN025 PROB30 TEMPO 2815/2818 SCT022
EGXE,TAF AMD EGXE 281024Z 2810/2818 03004KT 7000 BR BKN006 BECMG 2810/2811 9999 NSW BKN012 BECMG 2811/2814 FEW022 PROB40 TEMPO 2814/2818 SCT022
EGXT,TAF AMD EGXT 280922Z 2809/2818 28010KT 7000 BR BKN002 TEMPO 2809/2810 2000 BECMG 2810/2813 9999 NSW BKN014 BECMG 2813/2815 BKN025
EGXW,TAF EGXW 280730Z 2809/2903 30005KT 5000 BR BKN003 BECMG 2809/2811 9999 NSW BKN010 BECMG 2813/2816 BKN030 TEMPO 2816/2819 BKN020 PROB30 2822/2903 2000 BR SCT004
EGYD,TAF EGYD 280744Z 2809/2818 VRB04KT 3000 BR BKN003 BECMG 2809/2812 9999 NSW BKN010 BECMG 2813/2816 BKN025 PROB30 TEMPO 2816/2818 SCT020
EGYE,TAF AMD EGYE 280859Z 2809/2818 VRB04KT 3000 BR OVC001 BECMG 2809/2812 9999 NSW BKN010 BECMG 2813/2816 BKN025 PROB30 TEMPO 2816/2818 SCT020
EHAM,TAF EHAM 280436Z 2806/2912 09010KT 9999 BKN035 BECMG 2807/2809 16007KT 6000 -DZ BKN006 BECMG 2809/2812 25013KT PROB40 TEMPO 2810/2813 2000 DZ SCT002 BKN003 TEMPO 2813/2816 4000 DZ PROB40 TEMPO 2817/2820 2000 DZ SCT002 BKN003 BECMG 2819/2822 31012KT 9999 NSW SCT008 BKN014 PROB40 2821/2905 BKN008 BECMG 2906/2909 34007KT SCT022 BKN025
EHBK,TAF EHBK 280515Z 2806/2912 15007KT 9999 -RA BKN014 BECMG 2806/2808 25012KT 4000 -DZ BKN006 BECMG 2808/2811 9999 NSW SCT012 BKN020 BECMG 2819/2822 28010KT PROB30 2902/2911 7000 -RADZ BKN014 BECMG 2908/2912 35005KT
EHEH,TAF EHEH 280543Z 2806/2912 13006KT 9999 BKN015 TEMPO 2806/2807 4500 RA SCT008 OVC012 BECMG 2807/2809 4000 BR -DZ SCT005 OVC007 PROB40 TEMPO 2809/2811 2000 DZ SCT003 OVC005 BECMG 2811/2812 25010KT SCT012 BKN016 BECMG 2812/2814 6000 NSW SCT015 BKN025 BECMG 2818/2820 FEW005 SCT008 OVC010 TEMPO 2820/2901 SCT004 BKN006 BECMG 2909/2911 33006KT FEW015 SCT020 BKN025
EHGG,TAF EHGG 280514Z 2806/2912 09008KT CAVOK BECMG 2810/2813 7000 -RADZ BKN014 BECMG 2813/2816 4000 -DZ BKN006 BECMG 2816/2818 25007KT TEMPO 2816/2824 2000 DZ BR BKN003 PROB40 TEMPO 2817/2823 1200 BR BKN002 BECMG 2905/2908 36009KT 9999 NSW SCT040
EHGR,TAF EHGR 280850Z 2809/2821 17006KT 4000 BR -DZ SCT004 OVC006 TEMPO 2809/2812 1500 DZ SCT002 OVC004 BECMG 2811/2813 24010KT 7000 NSW SCT012 BKN016 TEMPO 2812/2821 SCT007 BKN010 PROB30 TEMPO 2820/2821 SCT004 OVC006
EHKD,TAF EHKD 280833Z 2809/2821 10010KT 9999 BKN035 OVC040 BECMG 2809/2810 SCT015 BKN020 TEMPO 2809/2812 4000 RA SCT008 OVC012 BECMG 2810/2812 21008KT 4000 BR -DZ SCT006 OVC008 PROB40 TEMPO 2811/2819 2000 DZ SCT002 OVC004 BECMG 2818/2821 9999 NSW SCT010 OVC015
EHLE,TAF EHLE 280437Z 2806/2912 09008KT 9999 BKN045 BECMG 2808/2811 16006KT 6000 -DZ BKN006 PROB40 TEMPO 2810/2821 2500 DZ SCT002 BKN003 BECMG 2812/2815 25012KT BECMG 2819/2822 29010KT 9999 NSW BECMG 2900/2903 32008KT BECMG 2906/2909 SCT016 BKN020
EHLW,TAF EHLW 280827Z 2809/2821 08010KT 9999 BKN045 OVC050 BECMG 2809/2810 SCT015 BKN020 TEMPO 2809/2812 4000 RA SCT008 OVC012 BECMG 2810/2813 21008KT 4000 BR -DZ SCT006 OVC008 PROB40 TEMPO 2812/2821 2000 DZ BR SCT002 OVC004
EHRD,TAF EHRD 280436Z 2806/2912 13007KT 9999 BKN012 BECMG 2806/2808 6000 -DZ BKN006 BECMG 2807/2810 25012KT PROB40 TEMPO 2807/2810 2000 DZ SCT002 BKN003 TEMPO 2811/2818 4000 DZ PROB40 TEMPO 2818/2821 2000 DZ SCT002 BKN003 BECMG 2820/2823 31008KT SCT008 BKN014 PROB40 2823/2906 BKN008 BECMG 2906/2909 SCT022 BKN025
EHVK,TAF EHVK 280838Z 2809/2821 17006KT 4000 BR -DZ SCT006 OVC008 PROB40 TEMPO 2809/2812 2000 DZ SCT002 OVC005 BECMG 2811/2813 24010KT 7000 NSW SCT012 BKN016 TEMPO 2812/2821 SCT007 BKN010 PROB30 TEMPO 2820/2821 SCT004 OVC006
EICK,TAF AMD EICK 280640Z 2806/2906 26007KT 1000 BR BKN002 PROB30 TEMPO 2806/2807 0600 FG BECMG 2807/2809 5000 NSW BKN008 BECMG 2809/2811 9999 BKN020 PROB30 TEMPO 2814/2818 SHRA SCT018CB BECMG 2819/2821 3000 BR BKN005 TEMPO 2822/2906 0500 -RADZ FG BKN001
EIDL,TAF EIDL 280800Z 2809/2818 VRB03KT 9999 SCT007 BKN025 PROB30 TEMPO 2809/2814 3000 -DZ BR BKN007 PROB30 TEMPO 2814/2816 BKN012
EIDW,TAF AMD EIDW 280642Z 2806/2906 VRB03KT 3000 BR SCT004 BKN009 BECMG 2806/2808 28007KT PROB40 TEMPO 2806/2808 1500 BR BKN004 BECMG 2808/2810 9999 BKN015 PROB30 TEMPO 2814/2818 SHRA SCT018CB
EIKN,TAF AMD EIKN 280941Z 2809/2906 25006KT 9999 FEW003 BKN006 BECMG 2810/2812 SCT006 BKN025 PROB30 TEMPO 2812/2818 -SHRA FEW017CB PROB30 TEMPO 2900/2906 0500 -DZ FG BKN002
EIKY,TAF EIKY 280800Z 2809/2818 27006KT 9999 FEW007 BKN025 PROB30 TEMPO 2809/2811 BKN007 PROB30 TEMPO 2812/2818 -SHRA FEW018CB
EIME,TAF EIME 280800Z 2809/2818 26007KT 9999 SCT008 BKN015 PROB40 TEMPO 2809/2810 3000 -RADZ BKN008 PROB30 TEMPO 2812/2818 SHRA SCT018CB
EINN,TAF EINN 280500Z 2806/2906 26007KT 4000 -DZ BR BKN004 BECMG 2806/2808 9999 BKN015 PROB30 TEMPO 2814/2818 SHRA SCT018CB PROB30 TEMPO 2904/2906 3000 -RADZ BR BKN007
EISG,TAF EISG 280800Z 2809/2818 VRB03KT 9999 FEW014 BKN025 PROB30 TEMPO 2809/2812 BKN014 PROB30 TEMPO 2814/2818 -SHRA FEW018CB
EIWF,TAF EIWF 280800Z 2809/2818 31007KT 9999 SCT010 BKN025 BECMG 2810/2812 23010KT PROB30 TEMPO 2812/2818 SHRA SCT018CB
EKAH,TAF EKAH 280508Z 2806/2906 23003KT CAVOK BECMG 2808/2811 17010KT BECMG 2821/2824 VRB02KT
EKBI,TAF EKBI 280508Z 2806/2906 12003KT CAVOK BECMG 2807/2810 12010KT BECMG 2822/2901 08004KT PROB40 2902/2905 3000 MIFG BR
EKCH,TAF EKCH 280508Z 2806/2906 24005KT CAVOK BECMG 2808/2811 16012KT BECMG 2818/2821 11006KT
EKEB,TAF EKEB 280807Z 2809/2818 11010KT CAVOK
EKGC,TAF EKGC 280853Z 2809/2818 12018KT CAVOK
EKHD,TAF EKHD 280853Z 2809/2818 13018KT CAVOK
EKKA,TAF EKKA 280807Z 2809/2909 13007KT 9999 FEW030 BKN100 BECMG 2820/2823 VRB02KT BECMG 2907/2909 29010KT
EKOD,TAF EKOD 280600Z 2806/2815 12008KT CAVOK
EKRK,TAF EKRK 280821Z 2809/2818 18005KT 9999 FEW030 BECMG 2809/2812 12010KT
EKRN,TAF EKRN 280814Z 2809/2818 VRB02KT 9999 FEW050 SCT180 BECMG 2810/2813 12008KT
EKSB,TAF EKSB 280600Z 2806/2815 12008KT CAVOK
EKSP,TAF EKSP 280810Z 2809/2909 10012KT 9999 FEW040 BKN120 PROB40 2817/2822 7000 -RA BECMG 2823/2901 VRB02KT PROB40 2902/2905 2000 MIFG BECMG 2906/2908 30012KT
EKVD,TAF EKVD 280600Z 2806/2815 12008KT CAVOK
EKVG,TAF EKVG 280821Z 2809/2818 36014KT 9999 SCT025 BKN040 TEMPO 2815/2818 2000 -SHSN BKN012TCU
EKYT,TAF EKYT 280807Z 2809/2909 23006KT 9999 FEW030 BKN120 BECMG 2810/2813 12010KT BECMG 2820/2823 VRB02KT BECMG 2907/2909 26015KT -RA BKN012
ELLX,TAF ELLX 280500Z 2806/2912 24006KT 0500 -DZ FG BKN001 TEMPO 2806/2810 2500 RA BKN003 BECMG 2810/2812 6000 BKN012 TEMPO 2812/2817 24015G25KT -SHRA BKN012TCU BECMG 2821/2824 32008KT TEMPO 2900/2903 3500 BR BKN005
ENAL,TAF ENAL 280800Z 2809/2818 15010KT CAVOK BECMG 2810/2812 34008KT
ENAN,TAF ENAN 280500Z 2806/2906 24006KT 9999 BKN030 PROB40 TEMPO 2806/2810 3000 DZ VV008 BECMG 2810/2814 BKN010 TEMPO 2810/2902 2000 RASN BR VV005 TEMPO 2902/2906 4000 RA BKN015
ENAT,TAF ENAT 280800Z 2809/2818 15008KT 9999 SCT030
ENBN,TAF ENBN 280800Z 2809/2818 27005KT 9999 BKN040 PROB30 TEMPO 2809/2812 -SHRASN BKN012 FEW020CB
ENBO,TAF AMD ENBO 280849Z 2808/2906 24010KT 9999 FEW010 BKN040 TEMPO 2808/2814 RADZ FEW005 BKN012 TEMPO 2821/2906 09009KT
ENBR,TAF ENBR 280500Z 2806/2906 12005KT CAVOK BECMG 2812/2815 9999 BKN012 TEMPO 2814/2901 4000 RA BKN008 BECMG 2818/2821 15015KT TEMPO 2820/2901 16018G28KT BECMG 2901/2904 33018KT TEMPO 2901/2906 BKN008
ENBS,TAF ENBS 280800Z 2809/2818 17009KT 9999 FEW010
ENBV,TAF ENBV 280800Z 2809/2818 14015KT CAVOK
ENCN,TAF ENCN 280800Z 2809/2818 08005KT CAVOK
ENDU,TAF ENDU 280500Z 2806/2906 12008KT 9999 FEW030 BKN050 TEMPO 2819/2906 2000 RASN VV012 PROB30 TEMPO 2823/2906 0400 FG VV003
ENEV,TAF ENEV 280500Z 2806/2906 VRB03KT 9999 -RADZ FEW001 BKN016 TEMPO 2806/2906 2000 RASN BR VV006 PROB40 TEMPO 2808/2903 0400 FG VV003
ENFL,TAF ENFL 280800Z 2809/2818 09010KT CAVOK BECMG 2809/2811 25008KT BECMG 2816/2818 09010KT
ENGC,TAF AMD ENGC 281000Z 2810/2909 19020KT 9999 SCT030 BKN050 BECMG 2812/2814 12020KT 4000 -RADZ BR BKN010 TEMPO 2812/2822 2000 RADZ BR BKN004 BECMG 2819/2821 36030KT BECMG 2821/2823 9999 NSW FEW015TCU SCT030 TEMPO 2823/2909 3000 SHSNRAGS BKN012CB
ENGM,TAF ENGM 280500Z 2806/2906 04008KT CAVOK BECMG 2810/2813 18010KT PROB40 2818/2824 VRB05KT PROB30 2904/2906 BKN012
ENHD,TAF ENHD 280800Z 2809/2818 12007KT 9999 FEW020 BKN045 BECMG 2809/2811 20010KT BECMG 2813/2815 14010KT
ENHE,TAF ENHE 280800Z 2809/2818 25020KT 9999 FEW020 SCT040 PROB30 TEMPO 2809/2818 4000 SHRASN BKN010 SCT020CB BECMG 2814/2817 22030KT
ENHF,TAF ENHF 280800Z 2809/2818 14009KT CAVOK TEMPO 2809/2818 15020G30KT
ENHK,TAF ENHK 280800Z 2809/2818 10020KT CAVOK
ENHV,TAF ENHV 280800Z 2809/2818 19009KT CAVOK TEMPO 2809/2818 18015G25KT
ENKB,TAF ENKB 280800Z 2809/2818 VRB05KT CAVOK PROB30 2812/2815 33010KT
ENKR,TAF ENKR 280800Z 2809/2818 12009KT CAVOK
ENLE,TAF ENLE 280800Z 2809/2818 13022KT 9999 BKN050 BECMG 2815/2817 14012KT
ENMH,TAF ENMH 280800Z 2809/2818 14008KT CAVOK
ENML,TAF ENML 280800Z 2809/2818 07005KT 9999 FEW020 BECMG 2813/2815 25010KT
ENMS,TAF ENMS 280800Z 2809/2818 22003KT 9999 FEW020 SCT040
ENNA,TAF ENNA 280500Z 2806/2906 19015KT CAVOK
ENNE,TAF ENNE 280800Z 2809/2817 22018KT 9999 FEW020TCU BKN040 TEMPO 2809/2817 22028KT 3000 SHRASN BKN012 SCT020CB
ENNM,TAF ENNM 280800Z 2809/2818 26007KT 9999 FEW020 SCT040 PROB30 TEMPO 2809/2815 4000 SHRASN BKN010 SCT020CB
ENNO,TAF ENNO 280800Z 2809/2817 VRB02KT CAVOK BECMG 2811/2813 16010KT
ENOA,TAF ENOA 280800Z 2809/2909 14015KT 9999 SCT025 BKN060 BECMG 2809/2812 15025KT 4000 -RADZ BKN010 TEMPO 2811/2824 2000 RADZ BR BKN004 BECMG 2816/2818 18035KT BECMG 2820/2822 35035KT 9999 NSW FEW015TCU SCT030 TEMPO 2901/2909 3000 SHSNRAGS BKN012CB BECMG 2906/2908 32025KT
ENOL,TAF ENOL 280500Z 2806/2906 24008KT 9999 FEW020 SCT040 TEMPO 2806/2815 FEW020CB PROB40 TEMPO 2806/2810 3000 SHSNRA VV010 PROB30 2816/2821 35010KT
ENOV,TAF ENOV 280800Z 2809/2818 VRB03KT CAVOK
ENRA,TAF ENRA 280800Z 2809/2818 27008KT 9999 SCT020 BKN040 TEMPO 2809/2813 -RADZ BKN012
ENRM,TAF ENRM 280800Z 2809/2818 26008KT 9999 FEW025 SCT050 PROB30 TEMPO 2809/2816 4000 SHRASN SCT020CB BKN040
ENRO,TAF ENRO 280800Z 2809/2818 34005KT 9999 SCT020 BECMG 2813/2815 12010KT
ENRS,TAF ENRS 280800Z 2809/2818 24009KT 9999 SCT040
ENRY,TAF ENRY 280500Z 2806/2906 33008KT CAVOK BECMG 2811/2813 21010KT PROB30 2900/2905 4000 BR BKN003
ENSB,TAF AMD ENSB 280911Z 2809/2906 36008KT 9999 -SN FEW010 BKN030 TEMPO 2809/2818 2000 SN VV006 BECMG 2903/2906 12012KT
ENSD,TAF ENSD 280800Z 2809/2818 VRB05KT CAVOK
ENSH,TAF ENSH 280800Z 2809/2818 20005KT 9999 -RA FEW005 SCT012 TEMPO 2809/2815 RA BKN008
ENSK,TAF ENSK 280800Z 2809/2818 12005KT 9999 FEW005 SCT015 BKN030 TEMPO 2809/2818 3000 RADZ BKN002
ENSO,TAF ENSO 280800Z 2809/2818 12008KT 9999 FEW015 BKN050 PROB40 2809/2815 22010KT TEMPO 2812/2818 BKN014
ENSR,TAF ENSR 280800Z 2809/2818 12015KT 9999 FEW030 BKN060 TEMPO 2809/2816 18020G35KT
ENSS,TAF ENSS 280800Z 2809/2818 15018KT 9999 FEW010 TEMPO 2809/2812 BKN012
ENTC,TAF AMD ENTC 280623Z 2806/2906 22009KT CAVOK TEMPO 2814/2821 TEMPO 2821/2906 2000 RASN VV005
ENTO,TAF ENTO 280500Z 2806/2906 34008KT CAVOK BECMG 2810/2812 14010KT BECMG 2813/2815 21010KT
ENVA,TAF AMD ENVA 280928Z 2809/2906 25008KT 9999 FEW025 SCT040 PROB40 2809/2811 FEW025CB
ENVD,TAF ENVD 280800Z 2809/2818 09015KT CAVOK
ENZV,TAF ENZV 280500Z 2806/2906 15005KT 9999 FEW040 BKN070 BECMG 2808/2810 21010KT TEMPO 2820/2902 18015G25KT 4000 RA BKN008 BECMG 2902/2905 32020KT TEMPO 2902/2906 BKN008
EPBY,TAF EPBY 280530Z 2806/2906 VRB03KT CAVOK BECMG 2808/2811 16006KT BECMG 2900/2903 8000 -RA BKN014
EPCE,TAF EPCE 280500Z 2806/2818 24006KT CAVOK TEMPO 2806/2818 VRB02KT
EPDA,TAF EPDA 280500Z 2806/2818 VRB03KT CAVOK BECMG 2811/2813 02007G25KT
EPDE,TAF EPDE 280500Z 2806/2818 VRB03KT CAVOK BECMG 2809/2811 25008KT
EPGD,TAF EPGD 280530Z 2806/2906 25010KT CAVOK PROB40 TEMPO 2811/2817 SCT035TCU BECMG 2815/2817 11006KT
EPIR,TAF EPIR 280500Z 2806/2818 16008KT CAVOK
EPKK,TAF EPKK 280830Z 2809/2909 14005KT 9999 SCT050 TEMPO 2901/2908 4500 -RA BR
EPKS,TAF EPKS 280500Z 2806/2818 15006KT CAVOK
EPKT,TAF EPKT 280530Z 2806/2906 VRB02KT CAVOK BECMG 2806/2809 17010KT BECMG 2901/2903 BKN012 TEMPO 2903/2906 4500 -RA BR BKN009
EPLB,TAF EPLB 280530Z 2806/2906 27004KT CAVOK
EPLK,TAF EPLK 280500Z 2806/2818 14008KT CAVOK
EPLL,TAF EPLL 280530Z 2806/2906 VRB02KT CAVOK BECMG 2817/2820 14010KT
EPLY,TAF EPLY 280500Z 2806/2818 VRB03KT CAVOK BECMG 2816/2818 14008KT
EPMB,TAF EPMB 280500Z 2806/2818 21006KT CAVOK
EPMI,TAF EPMI 280500Z 2806/2818 16008KT CAVOK
EPMM,TAF EPMM 280500Z 2806/2818 VRB03KT CAVOK BECMG 2808/2811 26006KT
EPMO,TAF EPMO 280530Z 2806/2906 VRB02KT CAVOK BECMG 2818/2821 14010KT
EPOK,TAF EPOK 280500Z 2806/2818 26008KT CAVOK BECMG 2810/2812 07013KT
EPPO,TAF EPPO 280530Z 2806/2906 VRB02KT CAVOK PROB30 TEMPO 2806/2807 4000 BR BECMG 2807/2810 14012KT BECMG 2822/2901 BKN012 PROB30 TEMPO 2903/2906 4000 -RA BKN007
EPPR,TAF EPPR 280500Z 2806/2818 21008KT CAVOK
EPPW,TAF EPPW 280500Z 2806/2818 15006KT CAVOK
EPRA,TAF EPRA 280830Z 2809/2818 21006KT CAVOK
EPRZ,TAF EPRZ 280530Z 2806/2906 20004KT CAVOK BECMG 2815/2818 12010KT
EPSC,TAF EPSC 280530Z 2806/2906 14011KT CAVOK PROB40 TEMPO 2822/2903 4000 RA BKN014
EPSN,TAF EPSN 280500Z 2806/2818 17008KT 9999 SCT040 BECMG 2815/2818 11006KT
EPSY,TAF EPSY 280830Z 2809/2818 25008KT CAVOK
EPTM,TAF EPTM 280500Z 2806/2818 21006KT CAVOK BECMG 2816/2818 14008KT
EPWA,TAF EPWA 280830Z 2809/2909 22005KT CAVOK BECMG 2818/2820 15010KT
EPWR,TAF EPWR 280830Z 2809/2909 13010KT CAVOK BECMG 2823/2902 19005KT TEMPO 2902/2909 4000 RA BR BKN013 BECMG 2906/2909 27010KT
EPZG,TAF EPZG 280830Z 2809/2818 11008KT CAVOK
ESCF,TAF ESCF 280830Z 2809/2813 30012G20KT CAVOK RMK MIL
ESDF,TAF ESDF 280820Z 2809/2818 21008G18KT CAVOK RMK MIL
ESGG,TAF ESGG 280830Z 2809/2909 VRB03KT CAVOK
ESGJ,TAF AMD ESGJ 281029Z 2810/2818 22008KT CAVOK TEMPO 2810/2815 SCT030TCU
ESGP,TAF ESGP 280830Z 2809/2818 27006KT CAVOK
ESGT,TAF ESGT 280830Z 2809/2816 VRB03KT CAVOK
ESIA,TAF ESIA 280830Z 2809/2818 30010G15KT CAVOK RMK MIL
ESIB,TAF ESIB 280830Z 2809/2815 03005KT CAVOK RMK MIL
ESKN,TAF ESKN 280830Z 2809/2909 30012KT CAVOK TEMPO 2811/2816 SCT050CB
ESMK,TAF ESMK 280806Z 2809/2816 25005KT CAVOK BECMG 2811/2814 14012KT
ESMQ,TAF ESMQ 280830Z 2809/2818 25005KT CAVOK BECMG 2809/2811 18014KT
ESMS,TAF ESMS 280809Z 2809/2909 20010KT CAVOK BECMG 2816/2819 11006KT
ESMT,TAF ESMT 280806Z 2809/2818 24006KT 9999 SCT020
ESMX,TAF ESMX 280830Z 2809/2818 25006KT 9999 FEW020
ESNG,TAF ESNG 280830Z 2809/2818 09009KT 9999 -RA SCT008 BKN015 TEMPO 2809/2818 1200 SN BKN006
ESNK,TAF AMD ESNK 280850Z 2809/2817 34007KT 9999 SCT015 BKN025 TEMPO 2809/2817 SHRA BKN030CB
ESNN,TAF ESNN 281030Z 2811/2818 34005KT 9999 BKN025 TEMPO 2811/2818 SHRA BKN030CB
ESNO,TAF ESNO 281030Z 2811/2818 14005KT 9999 BKN020 TEMPO 2811/2818 SHRA BKN012 BKN030CB
ESNQ,TAF ESNQ 280830Z 2809/2818 09010KT 8000 -RASN FEW003 BKN015 TEMPO 2809/2818 1200 SN BKN003
ESNS,TAF ESNS 280830Z 2809/2818 24004KT CAVOK
ESNU,TAF ESNU 280830Z 2809/2818 VRB03KT 9999 BKN030
ESNX,TAF AMD ESNX 280850Z 2809/2818 VRB03KT 9999 BKN045 TEMPO 2809/2812 BKN012 PROB40 2812/2818 SHRA BKN030CB
ESOE,TAF ESOE 280830Z 2809/2818 27007KT CAVOK TEMPO 2810/2816 SCT045CB
ESOK,TAF ESOK 280830Z 2809/2815 32008KT CAVOK PROB40 2813/2815 19010KT
ESOW,TAF ESOW 280830Z 2809/2816 31007KT 9999 BKN025 TEMPO 2810/2816 SCT045CB
ESPA,TAF ESPA 280830Z 2809/2818 VRB03KT 9999 -RASN FEW007 BKN015 TEMPO 2809/2810 2500 -SNRA BKN004 TEMPO 2810/2812 2000 SNRA BKN006 PROB40 2812/2815 BKN009
ESSA,TAF ESSA 280830Z 2809/2909 30010KT 9999 BKN014 BECMG 2809/2810 BKN018 PROB40 2811/2817 SCT035CB BECMG 2817/2819 15004KT
ESSB,TAF ESSB 280830Z 2809/2818 28009KT 9999 BKN012 BECMG 2809/2810 BKN017 PROB40 2811/2817 SCT035TCU
ESSD,TAF ESSD 280830Z 2809/2815 30010KT 9999 BKN030 PROB40 2809/2811 SCT040TCU TEMPO 2811/2815 SCT050CB
ESSL,TAF ESSL 280830Z 2809/2816 29011KT CAVOK
ESSP,TAF ESSP 280830Z 2809/2815 28012KT CAVOK
ESSV,TAF ESSV 280830Z 2809/2818 25010KT CAVOK
ESTA,TAF ESTA 280806Z 2809/2818 24005KT 9999 SCT020
ESTL,TAF ESTL 280806Z 2809/2815 24005KT CAVOK
ETAD,TAF AMD ETAD 280830Z 2808/2911 24006KT 9999 FEW004 BKN005 QNH2985INS TEMPO 2808/2809 9000 -SHRA BKN007 BECMG 2809/2810 24010G15KT 9000 -RA SCT009 BKN012 QNH2982INS TEMPO 2810/2813 25010G20KT 6000 -TSRA BKN025CB BECMG 2814/2815 26010G15KT 9999 NSW SCT025 QNH2980INS BECMG 2818/2819 27009KT 9999 BKN020 QNH2983INS TEMPO 2900/2905 VRB06KT 3200 BR BKN012 TX18/2816Z TN08/2903Z
ETAR,TAF ETAR 281000Z 2810/2916 18009KT 8000 -RA BKN020 620808 QNH2990INS BECMG 2810/2811 24010G20KT 6000 -SHRA BKN020 610909 510005 QNH2986INS TEMPO 2812/2818 VCTS BKN015CB BECMG 2817/2818 25009KT 9999 NSW BKN020 QNH2987INS BECMG 2903/2904 26006KT 5000 BR BKN015 QNH2995INS BECMG 2908/2909 30009KT 9999 NSW BKN020 QNH3002INS TX17/2814Z TN09/2902Z
ETEB,TAF ETEB 280700Z 2807/2913 20006KT 9000 -RA FEW017 SCT025 OVC040 620804 QNH2996INS BECMG 2808/2809 19012KT 9000 -RA SCT009 BKN015 OVC025 620804 QNH2994INS BECMG 2810/2811 23015G20KT 8000 -RA FEW005 OVC009 620804 510033 QNH2992INS TEMPO 2817/2821 VRB15G25KT 6000 -TSRA SCT009 OVC015CB BECMG 2820/2821 VRB06KT 8000 BR FEW005 OVC009 620803 QNH2991INS BECMG 2902/2903 VRB06KT 4800 BR OVC002 QNH2990INS BECMG 2907/2908 VRB06KT 8000 BR BKN010 OVC017 QNH2995INS BECMG 2910/2911 30009KT 9999 NSW SCT025 OVC040 QNH2996INS TX14/2816Z TN09/2807Z
ETHA,TAF ETHA 280720Z 2808/2817 25008KT 9000 -RA FEW020 BKN050 TEMPO 2808/2811 27010G20KT 4000 RA SCT010 OVC020 TEMPO 2811/2817 26015G30KT 4000 RA BKN010 OVC020
ETHB,TAF ETHB 280718Z 2808/2817 14008KT 9999 NSW SCT050 BKN090 TEMPO 2810/2815 16010KT 7000 -RA SCT020 BKN030
ETHC,TAF ETHC 280714Z 2808/2817 09010KT 9999 NSW SCT040 BKN100 BECMG 2812/2817 12012KT 9999 NSW BKN040 BKN090 TEMPO 2813/2817 13012KT 8000 -RA BKN030
ETHF,TAF COR ETHF 280732Z 2808/2817 VRB03KT 9999 NSW BKN050 TEMPO 2808/2817 16008KT 5000 -RADZ OVC015
ETHL,TAF ETHL 280724Z 2808/2817 22010KT 7000 -RA FEW010 BKN020 TEMPO 2808/2814 23012G22KT 3000 RA BKN005 BKN010 TEMPO 2814/2817 23012G25KT 4000 SHRA BKN008 BKN020CB PROB30 2814/2817 23015G25KT 2000 TSRAGS BKN003 BKN020CB
ETHN,TAF ETHN 280701Z 2808/2817 17005KT 9999 NSW BKN030 BECMG 2808/2810 24007KT 9999 NSW BKN020 OVC050 TEMPO 2809/2814 27008KT 4000 -DZRA BKN003 OVC012
ETHS,TAF ETHS 280715Z 2808/2817 12010KT 9999 NSW FEW035 SCT060 BKN100 TEMPO 2815/2817 12007KT 7000 -RA BKN015 BKN040
ETIC,TAF ETIC 281000Z 2810/2916 12006KT 8000 -RA BR SCT030 OVC050 620505 QNH2998INS TEMPO 2812/2818 21010G15KT 6000 -SHRA BR SCT015 BKN025 OVC035 610604 BECMG 2817/2818 25009KT 8000 -RA BR BKN025 620703 QNH2988INS TEMPO 2820/2824 6000 -SHRA BR VCTS SCT015 BKN025CB OVC035 BECMG 2823/2824 VRB03KT 3200 -RA BR SCT008 OVC015 620604 QNH2988INS TEMPO 2824/2906 BKN008 BECMG 2906/2907 28009KT 9000 BR BKN015 OVC035 620505 QNH2993INS BECMG 2911/2912 28010G15KT 9999 NSW BKN035 620604 QNH2995INS TX12/2813Z TN09/2902Z
ETIK,TAF AMD ETIK 280905Z 2809/2912 19009KT 8000 -SHRA BKN050 BKN080 610709 QNH2991INS TEMPO 2809/2811 4800 SHRA BKN025 BECMG 2810/2811 22010G15KT 8000 -SHRA BKN020 BKN035 QNH2986INS TEMPO 2813/2819 24010G20KT 5000 SHRA BKN015 BECMG 2820/2821 27006KT 9999 NSW BKN010 QNH2988INS TEMPO 2821/2823 25010G15KT BECMG 2907/2908 30009KT 9999 BKN040 QNH2995INS TX17/2816Z TN11/2904Z
ETMN,TAF ETMN 281017Z 2811/2820 10010KT 9999 NSW FEW015 BKN050 TEMPO 2811/2815 11010G20KT 4000 SHRA SCT015 BKN020CB BECMG 2815/2817 08005KT 6000 -RA SCT008 BKN020 TEMPO 2815/2820 06010KT 2000 RADZ SCT002 BKN004
ETNG,TAF ETNG 280800Z 2809/2824 26010G20KT 5000 -DZ BR BKN010 TEMPO 2809/2811 2500 DZRA BKN006 BECMG 2811/2813 9999 NSW BKN020 PROB30 TEMPO 2811/2813 4500 -SHRA BKN010 BKN015TCU BECMG 2817/2819 29007G14KT
ETNH,TAF ETNH 280703Z 2808/2817 10012KT 9999 NSW BKN100 BKN280 BECMG 2816/2817 08012G22KT 8000 -RA FEW020 BKN040 BY ETGL
ETNL,TAF ETNL 281010Z 2811/2823 11010KT 9999 NSW BKN120 BECMG 2818/2820 09010KT 8000 -RA BKN050 BY ETGL
ETNN,TAF ETNN 280732Z 2808/2817 18005KT 8000 -RA SCT015 BKN025 TEMPO 2808/2810 25010KT 4000 RADZ BKN012 BKN020 PROB30 2808/2814 27010KT 2000 +SHRA BKN010TCU BECMG 2810/2812 28012G22KT 9999 NSW BKN030 BY ETGL
ETNS,TAF ETNS 280703Z 2808/2817 10012KT 9999 NSW BKN100 BKN280 BECMG 2816/2817 08012G22KT 8000 -RA FEW020 BKN040 BY ETGL
ETNW,TAF ETNW 281019Z 2811/2911 12010KT 9999 NSW SCT040 BKN080 TEMPO 2811/2817 14010KT 6000 -RA BKN020 TEMPO 2817/2821 20010G20KT 4000 SHRA BKN010 BKN015CB BECMG 2821/2823 27010KT 8000 NSW BKN015 TEMPO 2823/2908 30005KT 3000 BR BKN005 BECMG 2908/2910 31010KT 9999 NSW BKN030 BY ETGL
ETOU,TAF AMD ETOU 280514Z 2805/2910 VRB05KT 8000 -SHRA SCT006 BKN012 OVC030 640804 QNH2991INS TEMPO 2805/2807 6000 -SHRA BKN006 BECMG 2807/2808 18009KT 6000 -SHRA BKN006 OVC012 640804 540006 QNH2988INS BECMG 2812/2813 23009KT 8000 VCTS SCT010 BKN025CB 510006 QNH2984INS TEMPO 2813/2817 24010G20KT 6000 -TSRA BKN020CB BECMG 2818/2819 27006KT 9999 NSW BKN030 QNH2985INS TX17/2813Z TN10/2805Z
ETSB,TAF AMD ETSB 281014Z 2810/2817 26005KT 8000 NSW BKN003 BY ETGL
ETSH,TAF ETSH 280723Z 2808/2817 14010KT 9999 NSW FEW060 BKN100 BKN200 TEMPO 2812/2817 14010KT 6000 -RADZ SCT020 BKN050
ETSI,TAF ETSI 280710Z 2808/2817 08004KT 9999 NSW BKN040 BECMG 2808/2810 24005KT 8000 -RA BKN015 TEMPO 2809/2813 25006KT 4000 RA BKN007 TEMPO 2813/2817 26006KT 4000 SHRA BKN012CB
ETSL,TAF ETSL 281010Z 2811/2820 23010KT 8000 -RA SCT008 BKN050 TEMPO 2811/2817 24012G22KT 3000 RA BKN008 BKN050 TEMPO 2817/2819 25012G25KT 2000 SHRA BKN006 BKN030CB TEMPO 2819/2820 25010KT 6000 NSW FEW004 BKN008 BY ETGL
EVGA,TAF EVGA 280803Z 2809/2909 20005KT 9999 BKN020 TEMPO 2809/2820 BKN020CB PROB40 TEMPO 2812/2818 VRB28KT TS TEMPO 2820/2903 2000 BR PROB40 TEMPO 2820/2903 0700 FG VV001
EVLA,TAF EVLA 280805Z 2809/2909 23010KT CAVOK TEMPO 2809/2812 SCT020CB BECMG 2818/2820 VRB02KT TEMPO 2820/2903 2000 BR PROB40 TEMPO 2820/2903 0700 FG BKN001
EVRA,TAF EVRA 280801Z 2809/2909 21007KT 9999 SCT030 TEMPO 2809/2815 SCT030CB PROB40 TEMPO 2809/2815 TS TEMPO 2822/2903 3000 BR
EVVA,TAF EVVA 280807Z 2809/2818 20010KT CAVOK TEMPO 2809/2815 SCT020CB
EYKA,TAF EYKA 280500Z 2806/2906 26012KT 9000 SCT015 BECMG 2807/2809 BKN030 TEMPO 2809/2812 BKN030CB TEMPO 2812/2817 26015G25KT 5000 SHRA BKN025CB PROB40 TEMPO 2812/2817 TS BECMG 2817/2818 VRB02KT NSC
EYPA,TAF EYPA 280500Z 2806/2906 26009KT 9000 SCT010 TEMPO 2806/2815 SCT005 BKN015 BECMG 2815/2816 NSC
EYSA,TAF COR EYSA 280947Z 2809/2818 27010G20KT 9000 BKN030 TEMPO 2809/2815 BKN025CB PROB40 TEMPO 2810/2815 TSRA
EYVI,TAF AMD EYVI 280914Z 2809/2906 27015KT 9000 BKN030 TEMPO 2809/2818 BKN020CB PROB40 TEMPO 2812/2818 TSRA BECMG 2818/2819 VRB05KT TEMPO 2821/2904 0600 FG VV002
FAEL,TAF FAEL 280900Z 2810/2819 07010KT 9999 SCT020 BKN035 TX23/2812Z TN20/2819Z BECMG 2813/2815 BKN015 BECMG 2816/2818 VRB03KT
FAHS,TAF FAHS 280900Z 2810/2818 16010KT 9999 SCT035 TX31/2812Z TN24/2818Z PROB30 TEMPO 2813/2818 FEW040TCU
FAKM,TAF FAKM 280900Z 2810/2818 30010KT CAVOK TX30/2812Z TN20/2818Z
FAKN,TAF FAKN 280900Z 2810/2818 VRB03KT 9999 SCT025 TX29/2812Z TN20/2818Z PROB40 TEMPO 2813/2818 -TSRA FEW030CB
FAMM,TAF FAMM 280900Z 2810/2818 VRB03KT 9999 SCT040 TX30/2812Z TN21/2818Z PROB30 TEMPO 2811/2817 -TSRA FEW045CB
FAPM,TAF FAPM 280900Z 2810/2821 VRB03KT 9999 BKN035 TX27/2812Z TN16/2821Z
FAPP,TAF FAPP 280900Z 2810/2818 17007KT 9999 SCT045 TX29/2812Z TN21/2818Z BECMG 2816/2818 VRB03KT
FARB,TAF FARB 280900Z 2810/2818 21015KT 9999 SCT030 TX28/2812Z TN21/2818Z BECMG 2816/2818 VRB02KT
FAUT,TAF FAUT 280900Z 2810/2818 10006KT 9999 BKN020 TX24/2811Z TN16/2818Z BECMG 2810/2812 SCT025 BECMG 2816/2818 BKN015 PROB30 TEMPO 2816/2818 5000 BR BKN008
FAWB,TAF FAWB 280900Z 2810/2818 VRB03KT 9999 SCT045 TX30/2812Z TN23/2818Z PROB30 TEMPO 2812/2817 -TSRA FEW045CB
FCBB,TAF FCBB 280500Z 2806/2912 26004KT 8000 -TSRA SCT016 FEW020CB BECMG 2807/2809 NSW SCT018 PROB30 2823/2903 4000 TSRA SCT016 FEW025CB
FCPP,TAF FCPP 280500Z 2806/2906 20005KT 9000 FEW016 PROB30 2816/2820 FEW020 FEW030CB
FEFF,TAF FEFF 280500Z 2806/2912 18006KT 9999 FEW010 BECMG 2809/2810 BKN013 BECMG 2811/2813 SCT023 FEW040CB PROB30 TEMPO 2813/2818 09015G30KT 4000 TSRA TEMPO 2821/2901 4000 TSRA
FGBT,TAF FGBT 280500Z 2806/2906 18006KT 9999 SCT010 PROB40 TEMPO 2811/2815 4500 TSSHRA BKN010 FEW020CB PROB30 TEMPO 2816/2822 3000 TSRA BKN008 SCT018CB
FGSL,TAF FGSL 280500Z 2806/2912 24006KT 9999 SCT010 PROB30 TEMPO 2812/2817 4500 TSSHRA BKN010 FEW020CB TEMPO 2802/2908 3000 TSRA BKN008 SCT018CB
FIMP,TAF COR FIMP 280510Z 2806/2912 17010KT 9999 SCT018 PROB30 TEMPO 2818/2900 7000 -SHRA BKN016
FIMR,TAF FIMR 280515Z 2806/2900 07015G25KT 9999 SCT018 TEMPO 2808/2900 7000 -SHRA BKN016 PROB30 TEMPO 2815/2900 4000 SHRA/TSRA FEW008 FEW012CB BKN014
FJDG,TAF FJDG 280900Z 2809/2915 14012KT 9999 SCT040 QNH2977INS TEMPO 2816/2822 14015G20KT 9000 -SHRA VCTS BKN030CB TX31/2812Z TN27/2901Z FOR MIL USE ONLY
FKKD,TAF COR FKKD 280500Z 2806/2912 VRB03KT 9999 BKN013 FEW016CB TEMPO 2803/2809 2500 BR BECMG 2809/2811 BKN016 FEW020CB TEMPO 2818/2908 TS PROB40 2820/2824 3000 TSRA
FKKL,TAF COR FKKL 280500Z 2806/2818 09008KT CAVOK
FKKR,TAF COR FKKR 280500Z 2806/2818 29010KT 9999 FEW020
FKYS,TAF COR FKYS 280500Z 2806/2906 27002KT 9999 BKN006 BECMG 2807/2809 BKN016 TEMPO 2813/2820 TS BKN016 FEW023CB TEMPO 2814/2818 3000 TSRA BECMG 2820/2822 BKN006
FMCH,TAF FMCH 280500Z 2806/2912 20013KT 9999 FEW020 PROB30 TEMPO 2809/2814 4500 TSSHRA FEW020CB SCT025 BECMG 2815/2817 10004KT BECMG 2905/2907 20012KT
FMCZ,TAF FMCZ 280500Z 2806/2906 17010KT 8000 FEW015CB BKN020TCU BECMG 2811/2813 9999 SCT025 TEMPO 2821/2903 4500 SHRA FEW015CB SCT020TCU
FMEE,TAF FMEE 280500Z 2806/2912 09012KT 9999 FEW030 PROB30 TEMPO 2809/2811 4500 SHRA BECMG 2819/2821 18006KT BECMG 2905/2907 14015G25KT
FMEP,TAF FMEP 280800Z 2809/2818 14015KT 9999 SCT030
FMMI,TAF FMMI 280500Z 2806/2912 13009KT 9999 FEW017 BKN020
FMMS,TAF FMMS 280500Z 2806/2906 18014KT 9999 SCT017TCU BKN033 PROB30 TEMPO 2806/2821 4000 SHRA PROB40 TEMPO 2821/2906 4000 SHRA
FMMT,TAF FMMT 280500Z 2806/2906 20010KT 9999 SCT017TCU BKN033 PROB30 TEMPO 2806/2809 4000 SHRA PROB40 TEMPO 2818/2906 4000 SHRA
FMNA,TAF FMNA 280500Z 2806/2906 14012KT 9999 FEW020
FMNM,TAF FMNM 280500Z 2806/2906 11007KT 9999 FEW020 BECMG 2810/2812 30010KT BECMG 2815/2818 SCT020CB BECMG 2819/2822 12007KT BECMG 2902/2904 FEW020
FMNN,TAF FMNN 280500Z 2806/2906 VRB05KT 9999 FEW020 BECMG 2809/0500Z 2806/2906 12009KT 9999 FEW020 BECMG 2809/2811 22010G20KT BECMG 2816/2818 12010KT
FMSD,TAF FMSD 280500Z 2806/2906 08010KT 9999 SCT016 BKN033 PROB30 TEMPO 2806/2816 4500 SHRA
FMST,TAF FMST 280500Z 2806/2906 12009KT 9999 FEW020 BECMG 2809/2811 22010G20KT BECMG 2816/2818 12010KT
FNBG,TAF FNBG 272300Z 2800/2812 VRB03KT 9999 SCT015
FNCA,TAF FNCA 272300Z 2800/2812 23004KT 9000 DZ SCT015 PROB30 TEMPO 2805/2811 4000 TSRA FEW014CB OVC016
FNCT,TAF FNCT 272300Z 2800/2812 VRB03KT 9999 SCT018
FNDU,TAF FNDU 272300Z 2800/2812 18004KT 9000 NSC
FNGI,TAF FNGI 272300Z 2800/2812 VRB03KT 9999 SCT020
FNHU,TAF FNHU 272300Z 2800/2812 11007KT CAVOK
FNKU,TAF FNKU 272300Z 2800/2812 11005KT CAVOK
FNLU,TAF FNLU 280500Z 2806/2912 16005KT 9999 FEW020 BKN030 TEMPO 2813/2819 24010KT
FNMA,TAF FNMA 272300Z 2800/2812 VRB03KT 9999 FEW015 PROB30 TEMPO 2301/2307 3000 BR OVC020
FNME,TAF FNME 272300Z 2800/2812 08005KT CAVOK
FNMO,TAF FNMO 272300Z 2800/2812 VRB03KT 9000 NSC BECMG 2806/2808 3000 BR BKN020
FNSA,TAF FNSA 272300Z 2800/2812 20007KT 9999 FEW010 SCT018
FNSO,TAF FNSO 272300Z 2800/2812 VRB03KT 9000 SCT010 BKN020 PROB30 TEMPO 2805/2811 4000 TSRA FEW015CB OVC020
FNUB,TAF FNUB 272300Z 2800/2812 VRB03KT CAVOK BECMG 2310/2812 08006KT
FNUE,TAF FNUE 272300Z 2800/2812 15006KT CAVOK
FOOG,TAF FOOG 280500Z 2806/2906 20004KT 9999 SCT010 TEMPO 2812/2815 TS BKN012 FEW020CB PROB40 TEMPO 2815/2821 4000 TSRA BKN008 FEW018CB
FOOL,TAF FOOL 280500Z 2806/2912 04005KT 9999 SCT012 TEMPO 2811/2813 TS BKN012 FEW020CB PROB40 TEMPO 2813/2821 4000 TSRA BKN008 FEW018CB
FSIA,TAF FSIA 280505Z 2806/2906 12010KT 9999 SCT020 TEMPO 2900/2906 8000 SHRA FEW010 FEW016CB BKN018
FTTJ,TAF COR FTTJ 280500Z 2806/2912 28008KT 7000 NSC TEMPO 2816/2819 4000 DU TEMPO 2822/2909 2000 DU
FYGF,TAF FYGF 280800Z 2809/2818 00000KT 9999 SCT030 BECMG 2809/2811 05006KT SCT045 TEMPO 2813/2818 -TSRA FEW035CB SCT040TCU
FYKM,TAF FYKM 280800Z 2809/2818 06008KT CAVOK BECMG 2810/2812 9999 SCT040
FYLZ,TAF FYLZ 280800Z 2809/2818 17015KT CAVOK
FYOA,TAF FYOA 280800Z 2809/2818 00000KT CAVOK BECMG 2810/2812 03005KT 9999 SCT050
FYRU,TAF FYRU 280800Z 2809/2818 07006KT CAVOK BECMG 2810/2812 9999 SCT040
FYWE,TAF FYWE 280800Z 2809/2818 00000KT 9999 NSC BECMG 2809/2811 36006KT SCT045 TEMPO 2813/2818 -TSRA FEW040CB
FZAA,TAF FZAA 280500Z 2806/2912 09012KT 6000 TSRA SCT014 FEW026CB BECMG 2808/2810 22006KT NSW BKN016 BECMG 2812/2814 32010KT FEW020 FEW030CB PROB30 TEMPO 2816/2820 -TSRA BECMG 2823/2901 18004KT SCT016
FZIC,TAF FZIC 280500Z 2806/2912 09008KT 7000 SCT014 TEMPO 2807/2810 RA BKN014 BECMG 2810/2812 BKN012 FEW030CB BECMG 2815/2817 NSC FM290100 00000KT 3000 BR BKN003 FM290700 12008KT 8000 SCT018
FZNA,TAF FZNA 280500Z 2806/2912 09004KT 6000 -TSRA SCT014 FEW018CB BECMG 2807/2809 21010KT NSW TEMPO 2813/2818 TS BECMG2819/2821 05004KT SCT012 BECMG 2907/2909 18010KT SCT016 FEW020CB
FZQA,TAF FZQA 280500Z 2806/2912 09008KT CAVOK BECMG 2810/2812 16010KT 9999 SCT018 BECMG 2816/2818 09006KT CAVOK
GABS,TAF GABS 280500Z 2806/2912 VRB06KT 8000 NSC
GAGO,TAF GAGO 280500Z 2806/2906 19012KT 8000 NSC
GBYD,TAF GBYD 280500Z 2806/2912 36008KT CAVOK
GCFV,TAF GCFV 280800Z 2809/2909 08006KT 9999 FEW015 TX25/2814Z TN19/2906Z PROB30 2814/2817 14010KT PROB40 2817/2820 05016KT BECMG 2819/2821 02011KT
GCGM,TAF GCGM 280800Z 2809/2909 21007KT 9999 FEW020 TX23/2814Z TN19/2906Z
GCHI,TAF GCHI 280800Z 2809/2909 36012KT 9999 FEW025 TX24/2814Z TN20/2906Z PROB30 TEMPO 2809/2815 06005KT
GCLA,TAF GCLA 280800Z 2809/2909 03007KT 9999 FEW025 TX24/2814Z TN19/2906Z PROB30 2809/2811 33010KT
GCLP,TAF GCLP 280800Z 2809/2909 03018KT 9999 FEW025 TX25/2814Z TN20/2906Z PROB30 2809/2811 36008KT
GCRR,TAF GCRR 280800Z 2809/2909 14007KT 9999 FEW020 TX25/2814Z TN19/2906Z PROB30 2809/2810 34010KT BECMG 2818/2820 36014KT
GCTS,TAF GCTS 280800Z 2809/2909 15005KT 9999 SCT025 TX26/2814Z TN19/2906Z PROB30 TEMPO 2809/2811 22010KT BECMG 2813/2815 09010KT BECMG 2820/2822 03005KT
GCXO,TAF GCXO 280800Z 2809/2909 30010KT 9999 FEW004 TX24/2814Z TN15/2906Z PROB40 TEMPO 2809/2815 12006KT
GECE,TAF GECE 280800Z 2809/2909 12006KT 9999 FEW015 TX23/2813Z TN18/2904Z PROB30 TEMPO 2809/2812 BKN005 BECMG 2822/2824 31010KT
GEML,TAF GEML 280500Z 2806/2906 09005KT CAVOK TX23/2814Z TN17/2806Z PROB40 TEMPO 2806/2809 4000 BR BKN005 BECMG 2814/2816 29010KT TEMPO 2819/2824 VRB02KT
GFLL,TAF GFLL 271100Z 2712/2818 28008KT 9999 BKN012 TEMPO 2718/2824 27012KT 9999 NSC TEMPO 2806/2812 21006KT 9999 BKN010 BECMG 2816/2818 26010KT 9999 SCT013
GGOV,TAF GGOV 272300Z 2800/2824 VRB06KT 8000 NSC
GLRB,TAF GLRB 280500Z 2806/2906 22009KT 9999 BKN016 BECMG 2806/2809 06003KT 8000 SCT012 TEMPO 2810/2814 21011KT 9999 BKN018
GMAD,TAF GMAD 280500Z 2806/2912 06008KT 6000 BKN010 TEMPO 2806/2809 2000 BR BECMG 2811/2813 27012KT CAVOK
GMAG,TAF GMAG 280500Z 2806/2912 25013KT 8000 NSC
GMFF,TAF GMFF 280500Z 2806/2912 16003KT CAVOK BECMG 2814/2818 32012KT FEW033 SCT200 BECMG 2818/2821 18005KT CAVOK
GMFK,TAF GMFK 280500Z 2806/2912 VRB02KT CAVOK BECMG 2810/2814 21016KT BECMG 2819/2822 36004KT
GMFM,TAF GMFM 280500Z 2806/2912 15004KT CAVOK TEMPO 2812/2820 24006KT 9999 FEW023 SCT200 BECMG 2820/2823 CAVOK
GMFO,TAF GMFO 280500Z 2806/2912 22006KT 9999 FEW033 SCT200 BECMG 2816/2820 34014KT SCT030
GMME,TAF GMME 280500Z 2806/2912 24004KT 6000 SCT016 BKN200 BECMG 2808/2810 30010KT NSC TEMPO 2900/2908 22004KT
GMMH,TAF GMMH 280500Z 2806/2912 36016KT 8000 NSC
GMMI,TAF GMMI 280500Z 2806/2912 22012KT 8000 NSC
GMML,TAF GMML 280500Z 2806/2912 05014KT 6000 BKN013
GMMN,TAF GMMN 280500Z 2806/2912 18006KT CAVOK BECMG 2812/2814 34014KT BECMG 2818/2820 30006KT PROB30 TEMPO 2900/2906 3000 BR BKN010
GMMW,TAF GMMW 280500Z 2806/2912 VRB02KT 4000 BR SCT002 SCT098 BECMG 2810/2814 8000 NSW
GMMX,TAF GMMX 280500Z 2806/2912 28006KT 8000 SCT090 TEMPO 2815/2821 34020KT SCT033TCU
GMMZ,TAF GMMZ 280500Z 2806/2912 VRB02KT 9999 FEW040 TEMPO 2812/2820 20015G25KT
GMTA,TAF GMTA 280500Z 2806/2906 VRB02KT 7000 BKN009
GMTT,TAF GMTT 280500Z 2806/2912 08012KT CAVOK BECMG 2813/2817 23009KT
GOBD,TAF GOBD 280500Z 2806/2912 36014KT CAVOK
GOGS,TAF GOGS 280500Z 2806/2906 36008KT CAVOK
GOOY,TAF GOOY 280500Z 2806/2912 36012KT CAVOK
GOSS,TAF GOSS 280500Z 2806/2906 36008KT CAVOK
GQNO,TAF GQNO 280500Z 2806/2912 36012KT 8000 NSC
GQPP,TAF GQPP 280500Z 2806/2906 35018KT 8000 NSC PROB40 TEMPO 2806/2809 BKN005
GUCY,TAF GUCY 280500Z 2806/2912 25006KT 9999 FEW015 SCT110 TEMPO 2808/2814 30012KT CAVOK
GVAC,TAF GVAC 280500Z 2806/2912 04016KT 9999 SCT014 TEMPO 2806/2812 BKN014
GVBA,TAF GVBA 272300Z 2800/2906 02014KT 9999 SCT014
GVNP,TAF GVNP 280500Z 2806/2912 01015KT 9999 FEW015
GVSV,TAF GVSV 280500Z 2806/2912 06020KT 9999 FEW020 PROB40 TEMPO 2900/2908 05010KT
HBBA,TAF HBBA 280500Z 2806/2912 36004KT 9999 FEW030 BKN100 BECMG 2807/2809 18010KT PROB40 TEMPO 2812/2817 09015G30KT 5000 TSRA FEW025CB SCT030 BKN090 BECMG 2812/2820 00000KT 9999 FEW030 SCT100 BECMG 2902/2904 36003KT BECMG 2907/2909 18006KT
HCMM,TAF HCMM 280500Z 2806/2912 20008KT 9999 SCT020 FEW022TCU BECMG 2806/2811 -SHRA SCT020CB BECMG 2812/2815 SCT024 TEMPO 2821/2903 -SHRA BKN018 SCT020CB
HEAL,TAF HEAL 280500Z 2806/2912 31015KT 9999 SCT020 PROB40 TEMPO 2806/2812 6000 -RA BKN020
HEAR,TAF HEAR 280500Z 2806/2912 32012KT 9999 SCT025
HEAT,TAF HEAT 280500Z 2806/2912 34008G18KT CAVOK
HEAX,TAF HEAX 280500Z 2806/2912 33013KT 9999 SCT020 PROB30 TEMPO 2808/2812 6000 -RA BKN020
HEBA,TAF HEBA 280500Z 2806/2912 32013KT 9999 SCT020 PROB30 TEMPO 2808/2812 6000 -RA BKN020
HEBL,TAF HEBL 280500Z 2806/2912 35007KT 7000 NSC
HECA,TAF HECA 280500Z 2806/2912 33011KT 9999 SCT025 PROB40 TEMPO 2811/2815 33011G22KT 4000 SA NSC
HEGN,TAF HEGN 280500Z 2806/2912 34015KT CAVOK
HELX,TAF HELX 280500Z 2806/2912 25005KT 6000 NSC TEMPO 2806/2810 5000 HZ
HEMA,TAF HEMA 280500Z 2806/2912 03015KT CAVOK
HEMM,TAF HEMM 280500Z 2806/2912 31015KT 9999 SCT020 PROB30 TEMPO 2806/2812 6000 -RA BKN020
HEOW,TAF HEOW 280500Z 2806/2912 28005KT 6000 NSC TEMPO 2806/2810 5000 HZ
HEPS,TAF HEPS 280500Z 2806/2912 34011KT 9999 SCT020 BKN070 TEMPO 2811/2815 32015G28KT 4000 SA NSC
HESC,TAF HESC 280500Z 2806/2912 27012KT CAVOK
HESG,TAF HESG 280500Z 2806/2912 33008G18KT CAVOK
HESH,TAF HESH 280500Z 2806/2912 03015KT CAVOK
HESN,TAF HESN 280500Z 2806/2912 35008KT 7000 NSC TEMPO 2815/2818 32008G18KT 3000 SA
HETB,TAF HETB 280500Z 2806/2912 35015KT CAVOK
HETR,TAF HETR 280500Z 2806/2912 31018G28KT 6000 NSC TEMPO 2810/2817 3000 SA
HKEL,TAF HKEL 280500Z 2806/2912 30010KT 9999 FEW021CB BKN022 BKN080 TEMPO 2812/2816 -TSRA BECMG 2820/2823 VRB02KT NSW SCT016 BKN080 BECMG 2908/ 2910 30010KT FEW021CB SCT022
HKJK,TAF HKJK 280500Z 2806/2912 06010KT 9999 BKN026 BECMG 2900/2903 VRB02KT SCT008 BKN015 BECMG 2908/2910 06010KT BKN023
HKKI,TAF HKKI 280500Z 2806/2912 23010KT 9999 FEW024CB SCT025 BKN080 TEMPO 2812/2816 -TSRA BECMG 2820/2823 06005KT NSW SCT018 BKN080 BECMG 2908/2910 22010KT FEW023CB SCT024
HKML,TAF HKML 280500Z 2806/2906 21010KT 9999 FEW018 BKN080 TEMPO 2815/2818 18010KT -RA BKN018 OVC080 BECMG 2900/2903 00000KT SCT017 BKN080
HKMO,TAF HKMO 280500Z 2806/2912 18010KT 9999 SCT026 BKN090 TEMPO 2815/2818 -RA BKN023 BKN080 BECMG 2900/2903 21005KT -RA SCT017 OVC080 BECMG 2909/2912 18010KT FEW025 BKN080
HKNW,TAF HKNW 280500Z 2806/2906 07010KT 9999 FEW024CB BKN025 BECMG 2900/2903 VRB02KT SCT008 BKN015
HLGD,TAF HLGD 280500Z 2806/2906 10010KT CAVOK 
HLGT,TAF HLGT 280500Z 2806/2906 VRB02KT CAVOK BECMG 2814/2816 36010KT BECMG 2900/2902 VRB02KT 
HLKF,TAF HLKF 280500Z 2806/2906 34012KT CAVOK 
HLLB,TAF HLLB 280500Z 2806/2906 36012KT 8000 FEW025
HLLM,TAF HLLM 280500Z 2806/2906 08010KT 8000 NSC
HLLQ,TAF HLLQ 280500Z 2806/2906 36015KT 8000 FEW025
HLLS,TAF HLLS 280500Z 2806/2906 08010KT CAVOK
HLMS,TAF HLMS 280500Z 2806/2906 12012KT 8000 NSC 
HLON,TAF HLON 280500Z 2806/2906 10010KT CAVOK BECMG 2814/2816 36010KT BECMG 2821/2823 07010KT 
HLTD,TAF HLTD 280500Z 2806/2906 06008KT CAVOK
HLTQ,TAF HLTQ 280500Z 2806/2906 34014KT 9999 FEW025 SCT070
HLUB,TAF HLUB 280500Z 2806/2906 11008KT CAVOK 
HRYR,TAF HRYR 280930Z 2806/2912 14006KT 8000 BKN022 SCT100 FM280900 20006KT 9999-RA BKN025 TEMPO 2814/2818 08010G20KT -TSRA FEW022CB BKN025 FM282100 32008KT NSW SCT025 BKN100 BECMG 2901/2904 07007KT 7000 RA BKN022 BKN100
HRZA,TAF HRZA 271100Z 2712/2818 30008KT 9999 SCT025 TEMPO 2713/2717 12010KT -TSRA FEW023CB BKN025 BECMG 2720/2722 12006KT BKN025 BECMG 2801/2803 VRB03KT 9999 SCT025 TEMPO 2811/2815 14010KT -TSRA FEW023CB BKN025
HSSJ,TAF HSSJ 280600Z 2807/2912 VRB04KT 6000 SHRA FEW024 SCT040 BKN090 BECMG 2809/2812 18006G16KT PROB40 TEMPO 2812/2818 VRB10KT 4000 TSRA SCT030 FEW045CB OVC090 TEMPO 2818/2824 VRB06KT 9999 FEW040 SCT140
HTAR,TAF HTAR 280500Z 2806/2906 12010KT 9999 FEW006 BKN024 TEMPO 2809/2810 SHRA BKN026 FEW028CB BECMG 2811/2814 NSW BKN030 FEW032CB BECMG 2815/2818 00000KT SCT026
HTDA,TAF HTDA 280500Z 2806/2906 21010KT 5000 BKN011 FEW013CB BECMG 2812/2815 9999 NSW SCT015 FEW016CB
HTDO,TAF HTDO 272300Z 2800/2824 09005KT 9999 FEW022
HTKA,TAF HTKA 280500Z 2806/2906 00000KT 9999 FEW018 FEW019CB BKN080 BECMG 2807/2811 -TSRA SCT020 FEW021CB BKN090
HTKJ,TAF HTKJ 280500Z 2806/2906 09005KT 9999 BKN025 BECMG 2810/2813 FEW028CB BKN030 BECMG 2811/2814 TS/RA BECMG 2818/2821 BKN026
HTMW,TAF HTMW 280500Z 2806/2906 13010KT 9999 FEW022 FEW023CB BKN090 TEMPO 2817/2820 00000KT TSRA BKNO21 FEW021CB
HTTB,TAF HTTB 280500Z 2806/2906 13010KT 9999 FEW026
HTZA,TAF HTZA 280500Z 2806/2906 21015KT 9999 BKN016 FEW018CB TEMPO 2807/2810 7000 TSRA BKN012 FEW014CB BKN070 BECMG 2810/2812 15015KT SCT018 FEW020CB PROB30 TEMPO 2900/2906 21010KT 7000 TSRA BKN012 FEW014CB BKN070
HUEN,TAF HUEN 280500Z 2806/2912 18010KT 9999 FEW022 FEW024CB BECMG 2806/2810 8000 -TSRA BKN020 FEW022CB OVC120 TEMPO 2821/2823 27006KT FM290000 VRB20KT 7000 -TSRA BKN017 FEW019CB OVC090
HUSO,TAF HUSO 280500Z 2806/2906 05006KT 9999 FEW018 BKN100 BECMG 2809/2812 27007KT -RA BKN020 FEW022CB FM281700 09009KT 9000 -TSRA BKN018 FEW020CB BECMG 2902/2906 36005KT FEW018 SCT100
KABE,KABE 280833Z 2809/2906 08008KT P6SM OVC025 TEMPO 2809/2812 BKN010 FM281200 09010G18KT P6SM OVC015 FM281600 09010G18KT 5SM -RA BR OVC010 FM282000 09012G18KT 3SM RA BR OVC008 FM290200 08015G25KT 3SM RA BR OVC008
KABI,KABI 280542Z 2806/2906 16010KT P6SM SKC WS020/22050KT TEMPO 2812/2815 20012G22KT P6SM SKC FM281500 30015G25KT P6SM FEW150 SCT250 FM281900 35025G35KT P6SM SCT060 BKN090 FM290000 34012G22KT P6SM SCT015 OVC025 FM290400 34010KT P6SM BKN015 OVC025
KABQ,KABQ 280541Z 2806/2906 32008KT P6SM SCT080 BKN250 FM281300 03030G40KT P6SM SCT070 FM281500 07022G35KT P6SM BKN070 FM281900 06010G20KT P6SM SCT070 FM282300 12008KT P6SM SKC
KABR,KABR 280715Z 2807/2906 01019G29KT P6SM -RA OVC040 FM281000 35017G25KT P6SM BKN040 FM290100 34012KT P6SM BKN060 FM290400 33006KT P6SM FEW150
KABY,KABY 280520Z 2806/2906 15006KT P6SM BKN008 FM280700 15004KT 3SM BR OVC003 FM281500 20006KT P6SM BKN010 FM281700 23012G18KT P6SM SCT020 FM290000 VRB04KT P6SM SCT025
KACK,KACK 280531Z 2806/2906 26006KT P6SM FEW200 FM280900 33004KT 6SM BR SCT003 FM281100 03005KT P6SM FEW250 FM281400 08008KT P6SM FEW250 FM281800 13009KT P6SM SCT250 FM290000 11007KT P6SM BKN250
KACT,KACT 280852Z 2809/2906 14007KT P6SM FEW250 FM281300 17008KT P6SM SCT025 FM282100 16013KT P6SM VCTS SCT030CB TEMPO 2821/2901 VRB25G35KT 1SM TSRA OVC015CB FM290100 35014G24KT 4SM BR VCSH OVC015
KACV,KACV 280620Z 2806/2906 15004KT 6SM BR FEW005 FM280700 10003KT 4SM BR SCT003 TEMPO 2807/2811 2SM BR BKN003 FM281100 16003KT 1/2SM FG VV002 FM281600 22004KT 2SM BR BKN004 FM281900 22004KT 6SM HZ BKN012 OVC300 TEMPO 2821/2901 SCT012 BKN300 FM290200 00000KT 6SM BR BKN005
KACY,KACY 280520Z 2806/2906 09007KT P6SM OVC040 FM281000 10012KT P6SM OVC025 FM281400 10015G23KT P6SM OVC020 FM281700 10018G28KT 5SM -RA BR OVC008 FM281900 09020G30KT 3SM RA BR OVC008 FM290200 09020G30KT 3SM RA BR OVC005
KADF,KADF 280520Z 2806/2906 VRB02KT 5SM BR BKN020 OVC030 TEMPO 2809/2813 2SM BR BKN004 OVC009 FM281500 VRB05KT P6SM BKN015 BKN050 FM281800 VRB04KT P6SM BKN050 FM290000 VRB04KT P6SM SCT050 OVC250
KADW,TAF KADW 280900Z 2809/2915 09012KT 8000 -RA OVC008 QNH2996INS BECMG 2812/2813 08015G25KT 4800 -RA BR OVC005 520003 QNH2987INS BECMG 2816/2817 08020G30KT 6000 -RA BR BKN006 530003 QNH2974INS TEMPO 2817/2822 09020G35KT 3200 RA VCTS BKN006CB BECMG 2903/2904 06012KT 9000 -RA BR BKN005 QNH2968INS BECMG 2909/2910 33006KT 9999 NSW BKN003 QNH2979INS TX15/2819Z TN10/2909Z
KAEG,KAEG 280541Z 2806/2906 32010KT P6SM FEW090 BKN250 FM281300 34025G38KT P6SM SCT070 FM281500 02025G38KT P6SM BKN070 FM281900 12010G18KT P6SM SCT070 FM282300 32008KT P6SM SKC
KAEX,KAEX 280520Z 2806/2906 VRB03KT P6SM FEW035 FM280800 00000KT 6SM BR FEW025 TEMPO 2809/2813 3SM BR FM281400 VRB05KT P6SM FEW035
KAFF,TAF AMD KAFF 271957Z 2719/2901 33012G18KT 9999 SCT090 BKN120 520009 QNH2980INS ROTOR CONDS EXIST WND 220V030 TEMPO 2720/2802 32018G30KT 530009 BECMG 2801/2802 35035G40KT 3200 -SHRAPL -SHRAPL SCT016 OVC024 630249 530009 QNH2981INS TEMPO 2802/2805 35035G50KT 0800 TSSNGR TSSNGR OVC003CB BECMG 2805/2806 35015G40KT 3200 -SN BLSN BKN012 OVC020 620129 530009 QNH3007INS BECMG 2813/2814 35020G35KT 9000 -SN SCT011 BKN020 600209 530009 QNH3012INS BECMG 2817/2818 35015G25KT 9999 NSW SCT020 SCT030 BKN060 510009 QNH3016INS BECMG 2820/2821 35017KT 9999 SCT060 QNH3013INS TX16/2720Z TNM02/2810Z LAST NO AMDS AFT 2800 NEXT 2811
KAFW,KAFW 280852Z 2809/2906 12007KT P6SM BKN250 FM281800 13010KT P6SM FEW025 BKN050 FM282000 06010KT P6SM VCTS FEW025CB OVC050 TEMPO 2821/2901 VRB25G35KT 1SM TSRA OVC015CB FM290100 36016G26KT 5SM BR VCTS OVC009CB FM290400 34018G28KT 5SM BR VCTS OVC008CB
KAGC,KAGC 281006Z 2810/2906 11010KT P6SM -RA OVC040 FM281200 11015G30KT 4SM -RA BR OVC025 FM281600 11015G25KT P6SM -SHRA OVC018 TEMPO 2820/2824 BKN022 FM290000 12010G18KT 6SM BR VCSH OVC018
KAGS,KAGS 280843Z 2809/2906 19004KT 3SM BR OVC007 FM281500 23005KT P6SM OVC015 FM281900 25010G18KT P6SM BKN035 FM290000 VRB03KT P6SM FEW200
KAHN,KAHN 280706Z 2807/2906 14002KT 1SM BR OVC004 TEMPO 2807/2811 1/2SM FG VV002 FM281300 19005KT 5SM BR BKN006 FM281600 23008KT P6SM BKN010 FM281800 23010KT P6SM BKN025 FM282000 25011KT P6SM SCT060 FM290300 30006KT P6SM FEW250
KAIA,KAIA 280520Z 2806/2906 36025G38KT P6SM BKN070 FM281000 32018G30KT P6SM BKN070 FM290000 31007KT P6SM SKC
KALB,KALB 280532Z 2806/2906 VRB03KT P6SM SCT250 TEMPO 2809/2811 4SM BR FM281600 16009KT P6SM SCT040 SCT250 FM290000 15004KT P6SM BKN040 BKN150
KALI,KALI 280526Z 2806/2906 VRB03KT 6SM BR FEW250 FM280900 VRB03KT 3SM BR FEW008 TEMPO 2809/2813 1/2SM FG BKN004 FM281300 17009KT 6SM BR BKN007 FM281600 16015G22KT P6SM SCT020 SCT250 FM290200 32012G20KT 6SM TSRA OVC020CB
KALO,KALO 280520Z 2806/2906 15005KT P6SM BKN220 FM282200 28007KT P6SM BKN080 FM282300 31009KT P6SM -SHRA BKN040 FM290200 33011KT P6SM BKN025
KALS,KALS 281016Z 2810/2906 11018G34KT P6SM VCSH SCT020 BKN070 BKN090 TEMPO 2810/2814 1SM -SN BKN020 BKN060 OVC080 FM281500 13006KT P6SM SCT050 BKN100 FM282000 33012KT P6SM SCT100 SCT200 FM290200 VRB06KT P6SM FEW200
KALW,KALW 280520Z 2806/2906 VRB06KT P6SM SKC FM281800 24003KT P6SM BKN250
KAMA,KAMA 280922Z 2809/2906 02020G30KT P6SM OVC015 FM281500 36030G40KT 4SM -SHRA BR OVC007 FM282000 36025G35KT P6SM OVC020 FM290100 35010KT P6SM SCT250
KANB,KANB 280520Z 2806/2906 VRB03KT P6SM VCSH OVC035 FM280800 VRB03KT P6SM VCTS OVC010CB FM281000 VRB03KT P6SM VCSH OVC005 FM281500 25007KT P6SM BKN022 FM281800 26009KT P6SM SCT035 FM290100 29004KT P6SM FEW250
KAND,KAND 280553Z 2806/2906 18004KT 1 1/2SM BR VCSH SCT004 OVC009 FM280800 21003KT 1SM BR OVC002 FM281300 22005KT 3SM BR OVC004 FM281600 23008KT P6SM VCSH SCT011 BKN027 FM282000 23010G18KT P6SM SCT045
KAOO,KAOO 280912Z 2809/2906 10007KT P6SM OVC015 FM281200 09009KT 4SM -RA BR OVC007 FM281600 11013G20KT 2SM -RA BR OVC007
KAPA,KAPA 280716Z 2807/2906 36011G18KT 5SM -RASN BR SCT008 BKN012 OVC025 TEMPO 2808/2810 2SM -SN BR OVC008 FM281000 36011KT P6SM VCSH SCT008 BKN020 OVC040 FM281500 36012G18KT P6SM SCT025 BKN050 FM281800 36014G20KT P6SM BKN060 FM282100 01014G20KT P6SM SCT070 FM290100 05008KT P6SM FEW070 SCT200 FM290300 13005KT P6SM SCT200
KAPC,KAPC 280520Z 2806/2906 19006KT P6SM SKC FM282100 21010KT P6SM FEW200
KAPF,KAPF 280840Z 2809/2906 VRB04KT P6SM SCT015 BKN050 FM281500 16008KT P6SM FEW050 FM281700 20012G20KT P6SM SCT030 BKN060 FM282100 20013G23KT P6SM VCSH SCT025 BKN040 FM290000 17005KT P6SM SCT050
KAPN,KAPN 280520Z 2806/2906 13007KT P6SM SCT060 BKN120 FM281600 09009KT P6SM SCT150 BKN250 FM290000 11007KT 6SM -SHRA BKN025 OVC040
KARA,KARA 280520Z 2806/2906 VRB04KT P6SM SCT035 FM280800 00000KT 5SM BR FEW025 TEMPO 2809/2813 2SM BR FM281400 VRB05KT P6SM FEW035 FM282000 16007KT P6SM SCT035
KART,KART 280859Z 2809/2906 10005KT P6SM SCT200 FM281200 12007KT P6SM SCT250 FM281800 14009KT P6SM BKN250 FM290100 14006KT P6SM OVC140 FM290500 13008KT P6SM OVC100
KASD,KASD 281028Z 2810/2906 00000KT P6SM SKC FM281100 30006KT P6SM FEW035 FEW250 FM290200 19007KT P6SM FEW025 FEW250
KASE,KASE 280906Z 2809/2906 29006KT P6SM VCSH SCT023 BKN030 OVC045 FM281000 31010KT P6SM BKN035 FM281800 35008KT P6SM SCT070 FM290200 18005KT P6SM FEW250
KASN,KASN 280520Z 2806/2906 VRB03KT P6SM VCSH OVC035 FM280800 VRB03KT P6SM VCTS OVC010CB FM281000 VRB03KT P6SM VCSH OVC005 FM281500 25007KT P6SM BKN022 FM281800 26009KT P6SM SCT035 FM290100 29004KT P6SM FEW250
KAST,KAST 280537Z 2806/2906 32005KT P6SM SKC FM280800 VRB05KT P6SM SKC FM281300 VRB04KT 5SM BR SCT005 FM281500 07007KT P6SM SCT100 FM290100 22008KT P6SM FEW250
KATL,KATL 280956Z 2810/2912 16005KT 2SM BR OVC004 TEMPO 2810/2812 1/4SM FG VV002 FM281300 19005KT 5SM BR BKN006 FM281600 23008KT P6SM BKN010 FM281800 23010KT P6SM BKN025 FM282000 25011KT P6SM SCT060 FM290300 30006KT P6SM FEW250
KATW,KATW 280520Z 2806/2906 12007KT P6SM BKN200
KATY,KATY 280825Z 2808/2906 01017G28KT P6SM -RA OVC008 FM281400 34021G31KT P6SM BKN021 FM281700 35019G30KT P6SM BKN060 FM282300 34013KT P6SM BKN060 FM290100 34009KT P6SM BKN060
KAUG,KAUG 280956Z 2810/2906 VRB04KT P6SM SKC FM282300 20004KT P6SM SCT250
KAUS,KAUS 280926Z 2809/2912 20005KT P6SM SKC FM281200 19005KT 6SM BR BKN006 FM281500 19013G23KT P6SM SCT035 BKN250 FM282300 17012G22KT 6SM TSRA BKN035CB TEMPO 2823/2901 VRB20G30KT 1SM +TSRA BKN009CB FM290100 36015G25KT 6SM SHRA BKN025 OVC100 FM290300 34016G26KT P6SM SCT025 BKN150
KAUW,KAUW 280520Z 2806/2906 13007KT P6SM BKN150 FM290300 11005KT P6SM -SHRA BKN090
KAVL,KAVL 280541Z 2806/2906 00000KT P6SM VCSH OVC015 TEMPO 2808/2812 1/2SM FG OVC003 FM281200 VRB02KT 3/4SM BR BKN004 FM281400 21004KT P6SM BKN015 FM281700 20007KT P6SM BKN027 PROB30 2818/2823 4SM TSRA BR BKN035CB BKN060
KAVP,KAVP 280859Z 2809/2906 10003KT P6SM BKN035 TEMPO 2810/2812 BKN025 FM281200 11008KT P6SM OVC025 FM281600 12010G18KT P6SM OVC025 FM282000 11010G18KT P6SM -RA OVC025 FM290100 09012G22KT 5SM -RA BR OVC015
KAXN,KAXN 280520Z 2806/2906 04014G22KT P6SM -SHRA SCT009 BKN025 OVC050 FM281200 36014G22KT P6SM OVC035 FM282200 35010KT P6SM SCT035
KAZO,KAZO 280544Z 2806/2906 00000KT P6SM SKC FM281300 06008KT P6SM VCSH OVC080 FM281400 06008KT 6SM BR VCSH OVC035 FM281500 06009KT 5SM -SHRA BR OVC012 FM281800 06011KT 3SM -SHRA BR OVC009 FM282000 06012G21KT 3SM -SHRA BR OVC010
KBAB,TAF KBAB 280300Z 2803/2909 VRB06KT 9999 SKC QNH2984INS WND 19009KT AFT 2818 TX32/2823Z TN13/2813Z
KBAD,TAF COR KBAD 280427Z 2804/2910 27009KT 9999 SKC QNH2978INS BECMG 2812/2813 32006KT 9999 FEW025 QNH2979INS WND 23005KT AFT 2818 BECMG 2820/2821 15008KT 9999 SKC QNH2975INS BECMG 2902/2903 11006KT 9999 OVC040 QNH2983INS BECMG 2907/2908 19010KT 9999 VCTS OVC130CB QNH2982INS BECMG 2908/2910 21020G30KT 9999 -TSRA OVC120CB QNH2982INS TX24/2821Z TN11/2812Z
KBAF,KBAF 280805Z 2808/2906 00000KT 1SM BR BKN005 TEMPO 2808/2811 1/2SM FG OVC002 FM281100 00000KT P6SM SCT005 FM281400 07005KT P6SM BKN250 FM281800 15008KT P6SM BKN250 FM290300 09003KT P6SM OVC100
KBAM,KBAM 280520Z 2806/2906 34008KT P6SM SKC FM281800 VRB06KT P6SM SKC
KBBD,KBBD 280542Z 2806/2906 VRB05KT P6SM SKC FM280900 18012KT P6SM SKC FM281200 22015G30KT P6SM SKC FM282200 34025G35KT P6SM VCTS FEW025 BKN040CB FM290300 35020G30KT P6SM BKN015 OVC025
KBBG,KBBG 281012Z 2810/2906 VRB04KT 6SM BR FEW007 BKN015 FM281500 VRB04KT P6SM SCT015 OVC025 FM281800 VRB05KT P6SM BKN050
KBCB,KBCB 280601Z 2806/2906 08010KT 5SM RA OVC004 TEMPO 2806/2810 4SM +RA SCT004 OVC009 FM281000 08005KT 4SM -RA BR OVC007 FM281600 01005KT P6SM OVC015 FM282000 36005KT P6SM SCT015 BKN035 TEMPO 2820/2824 5SM -SHRA OVC015 FM290000 05003KT P6SM OVC015
KBCE,KBCE 280540Z 2806/2906 32012G20KT P6SM FEW200 FM281600 01010G18KT P6SM SKC
KBDL,KBDL 280804Z 2808/2912 00000KT 3SM BR BKN005 FM281100 08003KT P6SM SCT005 FM281200 08005KT P6SM BKN250 FM281500 10006KT P6SM BKN250 FM281700 15009KT P6SM BKN250 FM290300 13004KT P6SM OVC100 FM291100 07007KT P6SM VCSH OVC050
KBDN,KBDN 280520Z 2806/2906 VRB06KT P6SM SKC FM282100 34009G15KT P6SM SKC
KBDR,KBDR 280833Z 2809/2906 VRB03KT P6SM SCT010 SCT050 BKN250 TEMPO 2809/2812 5SM BR BKN010 FM281200 08011KT P6SM SCT010 SCT050 BKN200 FM281500 11014G21KT P6SM SCT060 BKN150 FM290000 07016G24KT P6SM SCT040 BKN070 OVC120
KBED,KBED 280800Z 2808/2906 00000KT 1/4SM FG OVC002 FM280900 00000KT 2SM BR SCT250 TEMPO 2809/2811 1/2SM FG BKN003 FM281200 00000KT P6SM SCT250 FM281400 09006KT P6SM SCT250 FM281700 12009KT P6SM BKN250 FM290100 00000KT P6SM BKN250
KBFD,KBFD 280912Z 2809/2906 13008KT P6SM OVC015 FM281400 13011G18KT P6SM OVC007 FM281600 13013G21KT 6SM -RA BR OVC007 WS020/14043KT FM282000 12012G20KT 2SM -RA BR OVC015 WS020/13042KT
KBFF,KBFF 280520Z 2806/2906 34022G33KT P6SM BKN040 FM282000 33015G25KT P6SM SCT100 FM290000 33007KT P6SM SKC
KBFI,KBFI 280520Z 2806/2906 31004KT P6SM FEW250 FM281200 VRB03KT P6SM SCT250 FM281800 32005KT P6SM SCT250 FM290200 VRB03KT P6SM FEW250
KBFL,KBFL 280520Z 2806/2906 34005KT P6SM SKC
KBFM,KBFM 280751Z 2808/2906 29003KT 6SM BR BKN003 BKN013 TEMPO 2809/2813 2SM BR BKN003 FM281300 32004KT P6SM SCT015 BKN250 FM281800 18010KT P6SM FEW250 FM290000 21005KT P6SM SKC
KBGM,KBGM 280859Z 2809/2906 13005KT P6SM BKN100 TEMPO 2811/2813 BKN025 FM281300 13009KT P6SM OVC025 FM281600 14012G18KT P6SM OVC025 FM290000 13010G18KT P6SM -RA OVC025 FM290400 11014G22KT 6SM -RA BR OVC015
KBGR,KBGR 280520Z 2806/2906 30003KT P6SM FEW080 FM282100 00000KT P6SM FEW080 FM290200 19004KT P6SM FEW080
KBHB,KBHB 280520Z 2806/2906 31003KT P6SM FEW080 FM281200 01005KT P6SM FEW080 FM281800 23003KT P6SM FEW080
KBHM,KBHM 280520Z 2806/2906 18005KT P6SM VCSH BKN015 FM280800 19005KT P6SM VCSH OVC008 FM281200 24005KT P6SM OVC012 FM281700 27008KT P6SM BKN035 FM281800 27008KT P6SM FEW045 FM290100 31005KT P6SM SKC
KBIF,TAF KBIF 280600Z 2806/2912 25015G25KT 9999 FEW250 QNH2985INS BECMG 2808/2809 30010KT 9999 SKC QNH2985INS BECMG 2818/2819 31020G30KT 9000 BLDU FEW150 520009 520909 QNH2984INS BECMG 2821/2822 34025G35KT 8000 BLDU SKC 520505 531008 QNH2988INS BECMG 2909/2910 12006KT 9999 NSW SKC 520009 520909 QNH3025INS TX21/2821Z TN14/2812Z
KBIH,KBIH 280520Z 2806/2906 33008KT P6SM SCT250 FM281800 19009KT P6SM FEW250 FM290300 30006KT P6SM FEW250
KBIL,KBIL 280520Z 2806/2906 30010KT P6SM FEW200 FM280800 25010KT P6SM SCT200 FM282000 29009KT P6SM SCT200 FM290100 VRB06KT P6SM BKN200
KBIS,KBIS 280521Z 2806/2906 34012KT P6SM VCSH BKN050 OVC100 FM280900 33008KT P6SM BKN080 FM281600 32008KT P6SM BKN028 FM281900 34012KT P6SM BKN035 FM290300 10005KT P6SM SCT120
KBIX,TAF KBIX 280200Z 2802/2908 15007KT 9999 BKN010 QNH2975INS TEMPO 2802/2809 SCT010 BECMG 2809/2810 30007KT 9999 FEW005 SCT030 QNH2973INS BECMG 2814/2815 31012KT 9999 FEW200 QNH2982INS TX26/2818Z TN18/2812Z LAST NO AMDS AFT 2804 NEXT 2810
KBJC,KBJC 280528Z 2806/2906 02010G18KT P6SM VCSH SCT008 BKN040 OVC070 TEMPO 2806/2810 -SHRA FM281000 01010KT P6SM SCT008 BKN024 BKN040 FM281800 36014G20KT P6SM FEW035 BKN060 FM282100 01014G20KT P6SM SCT070 FM290100 05008KT P6SM FEW070 SCT200 FM290300 25005KT P6SM SCT200
KBJI,KBJI 280520Z 2806/2906 02006KT P6SM OVC040 FM281200 01007KT P6SM BKN014 FM281400 36007KT P6SM BKN021 FM281700 36008KT P6SM BKN035
KBKE,KBKE 280520Z 2806/2906 VRB05KT P6SM FEW200 FM281500 12009KT P6SM SKC FM290400 VRB03KT P6SM SKC
KBKF,TAF KBKF 280900Z 2809/2915 36015G20KT 9999 BKN026 OVC035 530054 QNH3015INS TEMPO 2809/2810 35025G35KT BECMG 2810/2811 36012KT 9999 SCT026 OVC040 530054 QNH3018INS BECMG 2812/2813 36009KT 9999 FEW026 SCT040 BKN060 530054 QNH3021INS BECMG 2815/2816 35010G15KT 9999 FEW035 520053 QNH3016INS BECMG 2905/2906 VRB06KT 9999 FEW055 510052 QNH3019INS TX10/2823Z TN00/2812Z
KBKW,KBKW 280848Z 2809/2906 13012G20KT 6SM -RA BR SCT010 OVC035 TEMPO 2809/2812 3SM RA BR OVC015 FM281400 13008G16KT P6SM BKN013 FM281700 15007KT P6SM SCT025 FM282100 18007KT P6SM VCTS SCT040CB FM290300 18005KT P6SM VCSH BKN009
KBLF,KBLF 280601Z 2806/2906 12010G18KT 6SM -RA BR OVC012 FM281200 14005KT 5SM -RA BR OVC007 FM281600 20006KT P6SM -RA OVC025 FM281900 24007KT P6SM SCT025 BKN040 TEMPO 2820/2824 5SM -TSRA OVC025CB
KBLH,KBLH 280520Z 2806/2906 23006KT P6SM SKC FM281200 VRB04KT P6SM SKC FM281700 02009KT P6SM SKC FM290200 VRB04KT P6SM SKC
KBLI,KBLI 280520Z 2806/2906 VRB03KT P6SM SCT250 FM281200 VRB03KT P6SM SCT250 FM282100 31005KT P6SM SCT250 FM290300 VRB03KT P6SM SCT250
KBLV,TAF KBLV 280800Z 2808/2914 36006KT 9999 BKN050 QNH2975INS BECMG 2815/2816 34009KT 9999 SCT050 QNH2976INS BECMG 2819/2820 33006KT 9999 SCT060 BKN250 QNH2975INS BECMG 2904/2905 VRB06KT 9999 SCT060 BKN250 QNH2976INS TX20/2821Z TN10/2908Z
KBMG,KBMG 280520Z 2806/2906 06009KT 6SM -SHRA BR OVC013 FM280800 05007KT P6SM VCSH OVC008 FM281400 34007KT P6SM OVC005 FM282200 30010KT P6SM BKN011 FM290400 29005KT P6SM BKN035
KBMI,KBMI 280520Z 2806/2906 VRB06KT P6SM BKN120 FM281300 36007KT P6SM BKN080 FM282000 03009KT P6SM SCT100 FM290200 VRB05KT P6SM SCT250
KBNA,KBNA 281001Z 2810/2906 02003KT P6SM SCT003 SCT025 BKN070 FM281500 29007KT P6SM VCSH OVC015 FM281800 28008KT P6SM OVC025 FM282100 29007KT P6SM OVC050 FM290000 30007KT P6SM SCT050
KBNO,KBNO 280520Z 2806/2906 06010KT P6SM SCT200 FM281500 VRB05KT P6SM SKC
KBOI,KBOI 280648Z 2807/2906 14005KT P6SM FEW200 FM280800 14011KT P6SM SKC FM290400 13006KT P6SM SKC
KBOS,KBOS 280759Z 2808/2912 32003KT P6SM FEW250 FM281200 04005KT P6SM SCT250 FM281500 09010KT P6SM SCT250 FM290000 13006KT P6SM BKN250 FM290900 09007KT P6SM OVC120
KBPI,KBPI 280520Z 2806/2906 34007KT P6SM FEW100 SCT200 FM281000 VRB05KT P6SM FEW200
KBPK,KBPK 280953Z 2810/2906 VRB02KT 5SM BR BKN002 OVC015 FM281100 00000KT 2SM BR BKN002 FM281500 30003KT 3SM BR SCT005 OVC015 FM282100 VRB04KT P6SM OVC050
KBPT,KBPT 280520Z 2806/2906 VRB04KT P6SM SCT035 FM280800 00000KT 5SM BR FEW025 TEMPO 2809/2813 2SM BR FM281400 VRB05KT P6SM FEW035 FM282000 16007KT P6SM SCT035
KBRD,KBRD 280825Z 2808/2906 04009KT 6SM BR VCSH OVC007 FM290000 36006KT P6SM OVC015
KBRL,KBRL 280520Z 2806/2906 VRB03KT P6SM FEW250
KBRO,KBRO 280528Z 2806/2906 05003KT 6SM BR BKN018 TEMPO 2809/2813 3SM BR BKN006 FM281500 13007KT P6SM BKN020 FM281800 14011KT P6SM BKN040 FM290300 16009KT P6SM VCTS BKN020CB
KBTL,KBTL 280544Z 2806/2906 10005KT P6SM SKC FM281300 06008KT P6SM VCSH OVC070 FM281400 06008KT P6SM VCSH OVC035 FM281500 07009KT 5SM -SHRA BR OVC013 FM281700 07010KT 4SM -SHRA BR OVC009 FM282100 06013G22KT 4SM BR OVC010
KBTM,KBTM 280520Z 2806/2906 VRB04KT P6SM SCT050 BKN120
KBTR,KBTR 281024Z 2810/2906 VRB04KT P6SM SKC
KBTV,KBTV 280530Z 2806/2906 06003KT P6SM SKC FM281300 18010KT P6SM FEW050 FEW230
KBUF,KBUF 280859Z 2809/2906 11007KT P6SM SCT250 FM281500 13011G17KT P6SM OVC200 FM282000 12012G18KT P6SM -RA OVC025 FM290000 10016G23KT P6SM -RA OVC020 FM290200 11018G26KT P6SM -RA OVC015
KBUR,KBUR 280549Z 2806/2906 VRB03KT P6SM SKC FM280900 VRB03KT 3SM BR OVC005 FM281600 VRB03KT P6SM SKC FM281900 17008KT P6SM SKC FM290300 VRB03KT P6SM SKC
KBVI,KBVI 281006Z 2810/2906 11010KT P6SM -RA OVC025 FM281200 11015G25KT 4SM -RA BR OVC015 FM281600 11015G25KT P6SM -SHRA OVC018 TEMPO 2820/2824 BKN022 FM290000 13010G18KT 6SM BR VCSH OVC018
KBVO,KBVO 280921Z 2809/2906 00000KT P6SM OVC045 TEMPO 2809/2813 1SM BR FM281600 05004KT P6SM OVC015 PROB30 2818/2824 4SM -SHRA BR BKN009 FM290000 35009KT P6SM OVC012
KBWG,KBWG 280520Z 2806/2906 20005KT 6SM BR VCSH BKN007 TEMPO 2808/2812 BKN003 FM281300 27005KT P6SM BKN007 FM281700 27008KT P6SM BKN015 FM282300 30005KT P6SM BKN035
KBWI,KBWI 280901Z 2809/2912 09010G18KT P6SM SCT008 OVC012 FM281000 10014G24KT 6SM -RA BKN008 OVC015 FM281600 10019G34KT 3SM RA BKN008 OVC015 FM290000 10013G23KT 3SM -RA BR OVC003 FM291100 07010KT 3SM -RA BR OVC004
KBYI,KBYI 280520Z 2806/2906 07015G25KT P6SM FEW200 FM280800 07009KT P6SM FEW200 FM282100 28008KT P6SM SCT200
KBZN,KBZN 280531Z 2806/2912 13011KT P6SM FEW150 SCT250
KCAE,KCAE 280929Z 2809/2906 21003KT 5SM BR OVC007 FM281500 23006KT P6SM BKN015 FM281900 25010G18KT P6SM BKN035 FM290000 VRB03KT P6SM FEW200
KCAK,KCAK 280522Z 2806/2906 06009KT P6SM SCT070 BKN200 FM281000 12009KT P6SM -RA OVC035 FM281200 11013KT P6SM -RA OVC023 FM281600 11016G26KT 4SM -RA BR OVC014 FM282000 12013G21KT 6SM BR OVC016 FM290100 12013G21KT 4SM -SHRA OVC013 FM290500 13014KT P6SM OVC012
KCAR,KCAR 280520Z 2806/2906 33005KT P6SM FEW080 FM290000 00000KT P6SM FEW080
KCBM,TAF KCBM 280900Z 2809/2915 25006KT 9999 SCT007 BKN050 QNH2966INS TEMPO 2809/2812 8000 BR BKN007 BECMG 2813/2814 29010G15KT 9999 SCT040 QNH2976INS BECMG 2816/2817 31009KT 9999 SCT040 QNH2975INS BECMG 2820/2821 33006KT 9999 SCT030 QNH2977INS BECMG 2908/2909 09006KT 9999 SCT030 QNH2978INS TX23/2821Z TN15/2809Z
KCDC,KCDC 281010Z 2810/2906 03010KT P6SM SKC FM281700 36011KT P6SM SKC
KCDR,KCDR 280520Z 2806/2906 01020G32KT P6SM BKN060 FM281000 31013G23KT P6SM BKN080 FM281600 33018G30KT P6SM BKN080 FM290000 26006KT P6SM SKC
KCDS,KCDS 280520Z 2806/2906 12008KT P6SM SCT250 FM281000 05012KT P6SM SCT015 FM281300 02020G30KT P6SM OVC015 FM290100 01011KT P6SM OVC100
KCEC,KCEC 280556Z 2806/2906 18006KT 4SM BR FEW005 FM280800 17004KT 2SM BR SCT004 TEMPO 2808/2811 1SM BR BKN003 FM281100 17003KT 1/2SM FG VV002 FM281600 18004KT 1SM BR OVC003 FM281900 18006KT 4SM HZ BKN007 OVC300 TEMPO 2821/2901 SCT012 BKN300 FM290200 18004KT 4SM BR BKN005
KCEF,TAF KCEF 280000Z 2800/2906 VRB06KT 9999 FEW070 SCT250 QNH3016INS BECMG 2806/2807 VRB06KT 1600 BR BKN004 QNH3018INS BECMG 2814/2815 16009KT 9999 NSW SCT050 BKN250 QNH3010INS WND 16012KT AFT 2818 BECMG 2823/2824 VRB06KT 9999 FEW070 SCT120 BKN170 QNH3007INS TX18/2821Z TN02/2810Z LAST NO AMDS AFT 2803 NEXT 2812
KCGI,KCGI 280632Z 2807/2906 01006KT 5SM -DZ BR SCT005 OVC009 FM280800 01006KT 6SM BR OVC009 FM281200 33008KT 6SM BR OVC020 FM281700 34009KT P6SM BKN025 FM282200 35006KT P6SM SCT080 FM290100 VRB03KT P6SM SKC
KCHA,KCHA 281008Z 2810/2906 19004KT 6SM BR BKN006 OVC015 TEMPO 2810/2812 4SM SHRA BR OVC005 FM281200 22007KT P6SM VCSH BKN015 OVC025 FM281800 25010KT P6SM OVC050
KCHO,KCHO 280534Z 2806/2906 12005KT 5SM -RA BKN025 OVC050 FM280800 11004KT 3SM RA BR BKN008 OVC015 FM281300 08014G27KT 3SM RA BR BKN008 OVC015 FM281800 06008G16KT 6SM -SHRA BR BKN008 OVC015 FM290300 34008KT 3SM -RA BR OVC005
KCHS,KCHS 280659Z 2807/2906 15010KT P6SM VCSH SCT008 BKN012 FM280900 16008KT P6SM BKN007 FM281330 24009KT P6SM SCT008 BKN014 FM281800 22010G17KT P6SM SCT025 BKN040 FM290000 21007KT P6SM BKN150
KCID,KCID 280520Z 2806/2906 11004KT P6SM SCT250 FM290100 31007KT P6SM SCT090
KCIU,KCIU 280520Z 2806/2906 12009KT P6SM SCT050 BKN100 FM281500 12008KT P6SM SCT150 BKN250 FM290000 12007KT P6SM BKN040 OVC080
KCKB,KCKB 280848Z 2809/2906 10008KT 6SM -RA BR OVC060 FM281000 09012G21KT 6SM SHRA BR OVC040 WS020/11050KT FM281600 11010G21KT P6SM BKN035 FM290000 09009KT P6SM VCTS BKN016CB
KCKV,KCKV 280953Z 2810/2906 33004KT P6SM BKN006 OVC012 FM281400 30007KT P6SM VCSH OVC015 FM281700 29009KT P6SM VCSH OVC025 FM282000 30007KT P6SM OVC040 FM290000 30007KT P6SM SCT040
KCLE,KCLE 280856Z 2809/2912 14007KT P6SM BKN200 OVC250 FM281300 11011KT 6SM -RA BR OVC045 FM281600 10013G23KT 4SM -RA OVC022 FM282100 12013G21KT P6SM OVC018 FM290200 14014G23KT 4SM -SHRA OVC017 FM290900 16010KT P6SM BKN018
KCLL,KCLL 280520Z 2806/2906 VRB04KT P6SM SKC FM281400 17007KT 6SM BR FEW025 FM281700 17012KT P6SM SCT080 FM290100 VRB08G20KT P6SM VCTS BKN035CB FM290400 30009KT P6SM VCSH OVC018
KCLM,KCLM 280520Z 2806/2906 VRB03KT P6SM SCT250 FM281700 09005KT P6SM SCT250 FM290100 VRB03KT P6SM SCT250
KCLT,KCLT 281002Z 2810/2912 25007KT 5SM SHRA BR SCT008 BKN015 TEMPO 2811/2813 BKN003 OVC008 FM281500 23007KT P6SM BKN011 FM281800 22008KT P6SM BKN045 FM282300 23007KT P6SM SCT250 FM290900 29003KT P6SM FEW004 SCT220
KCMA,KCMA 280549Z 2806/2906 23006KT 5SM BR OVC003 FM280900 VRB03KT 1/2SM FG VV002 FM281500 VRB03KT 2SM BR OVC004 FM281700 23006KT 5SM BR BKN006 FM281900 23008KT P6SM SKC FM290200 VRB03KT 4SM BR BKN005
KCMH,KCMH 280520Z 2806/2906 08009KT 6SM -RA SCT025 OVC040 FM280800 09011KT 4SM RA BR OVC022 FM281300 12006KT 5SM BR VCSH OVC007 FM281600 15006KT P6SM VCSH OVC015 FM281900 18006KT P6SM -SHRA VCTS BKN025CB TEMPO 2819/2822 4SM -TSRA FM282300 21007KT P6SM VCSH BKN035 FM290200 23008KT P6SM BKN025
KCMI,KCMI 280520Z 2806/2906 VRB05KT P6SM BKN100 FM280800 04007KT P6SM OVC050 FM281400 34011KT P6SM OVC035 FM282100 35008KT P6SM SCT050 FM290200 36005KT P6SM SCT250
KCMX,KCMX 280526Z 2806/2906 09006KT P6SM VCSH OVC060 FM280800 09006KT P6SM -SHRA OVC040 FM281100 09007KT 5SM BR VCSH OVC017 FM281200 08008KT 4SM -SHRA BR OVC009 FM281800 08010KT 4SM BR VCSH BKN011 FM290100 05010KT 3SM -SHRA BR BKN008
KCNM,KCNM 280520Z 2806/2906 26011KT P6SM BKN250 FM281200 34028G40KT P6SM FEW250 FM281500 35024G35KT P6SM OVC040
KCNU,KCNU 280909Z 2809/2906 VRB04KT 1SM BR VV003 TEMPO 2809/2811 1/2SM FG FM281600 VRB03KT P6SM BKN025 FM282100 32005KT P6SM -RA OVC035 FM290200 35011KT P6SM OVC025
KCNY,KCNY 280535Z 2806/2906 31010KT P6SM SCT200 FM280700 02015G25KT P6SM FEW250 FM281300 36010KT P6SM SKC FM281400 03011KT P6SM SKC FM290200 08009KT P6SM FEW250
KCOD,KCOD 280520Z 2806/2906 VRB06KT P6SM FEW100 SCT200 FM281800 03010KT P6SM SCT200 FM290100 VRB06KT P6SM SCT150 BKN200
KCOE,KCOE 280520Z 2806/2906 06005KT P6SM SCT250 FM281500 05008KT P6SM BKN200 FM282100 35005KT P6SM SCT200
KCOF,TAF KCOF 281000Z 2810/2916 19008KT 9999 SCT040 QNH2985INS TEMPO 2815/2819 6000 SHRA BKN040 BECMG 2819/2820 23010G15KT 9000 -SHRA VCTS BKN040CB QNH2982INS TEMPO 2823/2903 25015G25KT 4800 TSRA OVC040CB BECMG 2905/2906 23010KT 9999 NSW SCT050 QNH2983INS TX27/2819Z TN20/2810Z
KCON,KCON 280930Z 2810/2906 00000KT 2SM BR BKN002 FM281300 VRB03KT P6SM SKC FM281800 15007KT P6SM SKC FM290000 00000KT P6SM BKN200
KCOS,KCOS 280834Z 2809/2906 34015G25KT P6SM VCSH SCT020 BKN030 BKN040 TEMPO 2809/2811 02012G26KT 6SM -RA BKN020 BKN030 OVC040 FM281100 35028G38KT P6SM VCSH BKN040 OVC080 FM281400 34022G32KT P6SM SCT050 BKN090 FM282000 35014G24KT P6SM SCT090 SCT200 FM290100 33007KT P6SM FEW200
KCOT,KCOT 280526Z 2806/2906 VRB06KT P6SM FEW250 TEMPO 2810/2814 BKN015 FM281700 17015G20KT P6SM SKC FM290100 01018G25KT 5SM TSRA BKN020CB FM290400 35010G18KT P6SM BKN050
KCOU,KCOU 280520Z 2806/2906 VRB03KT P6SM SCT090 FM281400 34006KT P6SM FEW050 SCT100
KCPR,KCPR 280520Z 2806/2906 01015G25KT P6SM VCSH BKN015 OVC050 FM280800 35009KT P6SM SCT030 BKN050 FM281500 30010KT P6SM FEW100 SCT250 FM290500 24007KT P6SM SCT200
KCPS,KCPS 280520Z 2806/2906 VRB03KT P6SM BKN050 FM281500 34006KT P6SM SCT045 FM290100 28005KT P6SM SCT180
KCRE,KCRE 280538Z 2806/2906 14008KT 6SM -SHRA BR SCT020 BKN070 TEMPO 2806/2810 3SM SHRA BR BKN020 OVC040 FM281300 22012KT P6SM VCSH BKN015 FM281700 21013G19KT P6SM BKN040 FM290100 22008KT P6SM BKN250
KCRG,KCRG 280521Z 2806/2906 25006KT P6SM SCT010 FM280700 19003KT P6SM SCT025 OVC090 FM281400 23010G15KT P6SM VCSH BKN020 FM281600 22012G20KT P6SM TSRA BKN020CB OVC100 FM282000 22010KT P6SM OVC050
KCRP,KCRP 280526Z 2806/2906 VRB04KT P6SM SCT250 TEMPO 2809/2813 4SM BR BKN019 FM281300 16008KT P6SM BKN025 FM281800 15014G25KT P6SM SCT030 FM290200 32012G20KT 6SM TSRA OVC020CB
KCRQ,KCRQ 280520Z 2806/2906 VRB04KT 6SM BR OVC005 FM280700 VRB04KT 2SM BR OVC003 FM281500 VRB04KT 5SM BR OVC007 FM281700 VRB04KT P6SM SCT009 FM282000 27007KT P6SM SCT009 FM290000 VRB04KT P6SM OVC007
KCRW,KCRW 281033Z 2811/2906 04005KT 6SM -RA BR OVC035 FM281500 16005G15KT P6SM BKN025 FM281900 19006KT P6SM VCTS SCT040CB FM290200 22005KT P6SM VCTS BKN019CB
KCSG,KCSG 281013Z 2810/2906 23004KT 6SM BR SCT005 OVC012 TEMPO 2810/2812 2SM BR BKN006 FM281600 23008KT P6SM BKN010 FM281800 23010KT P6SM BKN025 FM282000 25011KT P6SM SCT060 FM290300 30006KT P6SM FEW250
KCSM,KCSM 280520Z 2806/2906 10006KT P6SM SCT250 FM281500 01013KT P6SM OVC025 TEMPO 2815/2818 P6SM -RA OVC025 FM281800 35021G28KT 4SM BR OVC007 TEMPO 2821/2824 1 1/2SM -RA OVC007 FM290000 35020KT 4SM BR OVC015 FM290300 35010KT P6SM OVC100
KCSV,KCSV 281002Z 2810/2906 18004KT 5SM BR VCTS OVC002CB FM281600 30007KT P6SM VCSH BKN007 OVC015 FM282100 30007KT P6SM OVC050 FM290000 28005KT P6SM SCT050
KCTB,KCTB 280531Z 2806/2906 VRB06KT P6SM FEW150 SCT250
KCUB,KCUB 280843Z 2809/2906 20004KT 5SM BR OVC007 FM281500 23006KT P6SM BKN015 FM281900 25009KT P6SM BKN035 FM290000 VRB03KT P6SM FEW200
KCVG,KCVG 280857Z 2809/2912 VRB05KT 3SM BR VCSH OVC005 TEMPO 2809/2812 2SM BR OVC003 FM281500 21007KT P6SM OVC012 FM281800 24010KT P6SM VCSH BKN022 FM282100 27009KT P6SM SCT009 OVC018 FM290400 26007KT 6SM BR OVC009
KCVS,TAF KCVS 281000Z 2810/2916 01025G35KT 9999 SKC 510003 QNH2982INS TEMPO 2810/2811 01030G40KT 9000 BLDU 540003 BECMG 2811/2812 02020G35KT 9999 BKN020 510003 QNH2987INS BECMG 2815/2816 02020G35KT 9999 VCSH BKN015 510003 QNH3003INS TEMPO 2816/2820 8000 -SHRA 540003 BECMG 2820/2821 01020G30KT 9999 NSW BKN050 510003 QNH3009INS BECMG 2902/2903 33010G20KT 9999 FEW070 QNH3015INS TX12/2822Z TN07/2815Z
KCWA,KCWA 280520Z 2806/2906 12007KT P6SM BKN150 FM290300 10005KT P6SM -SHRA BKN090
KCXO,KCXO 280520Z 2806/2906 VRB03KT P6SM SKC FM281400 16006KT P6SM FEW030 FM281700 18011KT P6SM SKC FM290200 VRB07G18KT P6SM VCTS OVC050CB
KCXP,KCXP 280520Z 2806/2906 VRB04KT P6SM FEW250 FM281500 07008KT P6SM FEW250 FM290000 26008KT P6SM SCT250
KCYS,KCYS 280520Z 2806/2906 36022G35KT P6SM OVC035 TEMPO 2806/2809 4SM -SN OVC015 FM281100 35020G30KT P6SM BKN050 FM281800 35020G30KT P6SM SCT080 FM290100 30010KT P6SM SKC
KDAA,TAF KDAA 272000Z 2720/2902 VRB06KT 9999 FEW045 OVC070 QNH3004INS BECMG 2805/2806 VRB06KT 9999 SCT015 OVC050 QNH3000INS BECMG 2811/2812 08009KT 4800 RA FEW010 BKN025 OVC040 QNH3000INS BECMG 2814/2815 09012KT 8000 -RA OVC008 QNH2997INS BECMG 2817/2818 09010G15KT 9000 -RA BKN009 OVC015 520705 QNH2992INS BECMG 2820/2821 08012KT 9000 -DZ OVC009 QNH2990INS TX20/2721Z TN11/2810Z LAST NO AMDS AFT 2801 NEXT 2812
KDAB,KDAB 280543Z 2806/2906 18007KT P6SM BKN130 FM281000 23003KT P6SM BKN060 FM281500 22012G18KT P6SM VCTS SCT035CB BKN080 TEMPO 2815/2818 3SM TSRA BKN030CB FM282000 22008KT P6SM VCSH BKN080 FM290200 22007KT P6SM SCT100 SCT250
KDAG,KDAG 280520Z 2806/2906 26010KT P6SM FEW250 FM281800 07009KT P6SM SKC FM290300 VRB05KT P6SM SKC
KDAL,KDAL 280852Z 2809/2906 12007KT P6SM BKN250 FM281800 13010KT P6SM FEW025 BKN050 FM282000 06010KT P6SM VCTS FEW025CB OVC050 TEMPO 2821/2901 VRB25G35KT 1SM TSRA OVC015CB FM290100 36016G26KT 5SM BR VCTS OVC009CB FM290400 34018G28KT 5SM BR VCTS OVC008CB
KDAN,KDAN 280601Z 2806/2906 06009KT 4SM RA BR OVC004 FM281300 06006KT 4SM -RA BR OVC007 FM281600 04005KT P6SM SCT008 OVC015 FM282100 24005KT P6SM VCTS OVC040CB
KDAY,KDAY 280943Z 2810/2906 05008KT 4SM -RA BR OVC006 TEMPO 2810/2813 2SM BR OVC004 FM281300 04007KT 3SM BR VCSH OVC006 FM281600 VRB05KT P6SM VCSH OVC008 FM281900 20007KT P6SM OVC012 FM282200 24007KT P6SM OVC018 FM290200 25007KT 6SM BR OVC008
KDBQ,KDBQ 280520Z 2806/2906 12004KT P6SM SCT250
KDCA,KDCA 280901Z 2809/2912 09010G18KT 6SM -RA BKN011 OVC050 FM281100 09015G30KT 5SM RA BR BKN008 OVC015 FM281500 10020G35KT 3SM RA BKN008 OVC015 FM282200 08012G20KT 6SM -SHRA BR BKN008 OVC015 FM290500 08012KT 3SM RA BR OVC003 FM290700 03006KT 4SM -RA BR OVC003
KDDC,KDDC 280532Z 2806/2906 36012KT P6SM VCSH BKN060 FM280900 32017G26KT P6SM VCSH OVC035 FM281300 36027G37KT P6SM OVC020 FM282000 36030G31KT P6SM SCT110
KDEC,KDEC 280520Z 2806/2906 VRB03KT P6SM BKN100 FM280900 VRB04KT P6SM OVC060 FM281200 36007KT P6SM OVC060 FM282000 35009KT P6SM SCT100 FM290100 VRB04KT P6SM SCT250
KDEN,KDEN 280847Z 2809/2912 36015G23KT P6SM SCT015 BKN040 OVC090 FM281200 36012G20KT P6SM SCT025 SCT050 BKN090 FM281800 36015G22KT P6SM BKN060 FM282100 01015G22KT P6SM SCT070 FM290100 05008KT P6SM FEW070 SCT200 FM290300 13005KT P6SM SCT200 FM290600 22010KT P6SM FEW150 BKN200
KDET,KDET 280521Z 2806/2906 09007KT P6SM BKN250 FM280700 04007KT P6SM FEW070 OVC150 FM281200 06008KT P6SM -SHRA BKN025 BKN060 FM281400 07010G24KT 3SM -RA BR OVC007 TEMPO 2814/2818 2SM RA BR OVC004 FM282200 09010G22KT 5SM -SHRA OVC007
KDFW,KDFW 280852Z 2809/2912 12007KT P6SM BKN250 FM281800 13010KT P6SM FEW025 BKN050 FM282000 06010KT P6SM VCTS FEW025CB OVC050 TEMPO 2821/2901 VRB25G35KT 1SM TSRA OVC015CB FM290100 36016G26KT 5SM BR VCTS OVC009CB FM290400 34018G28KT 5SM BR VCTS OVC008CB FM291000 33022G32KT 5SM BR OVC008
KDHN,KDHN 280520Z 2806/2906 18006KT 3SM BR OVC004 FM281400 20008KT P6SM BKN008 FM281600 24012G18KT P6SM SCT015 FM290000 25006KT P6SM SCT025
KDHT,KDHT 280923Z 2809/2906 01025G35KT P6SM OVC025 FM281400 36034G44KT 4SM -SHRA BR OVC015 FM282000 36024G34KT P6SM OVC150 FM290100 36010KT P6SM SKC
KDIJ,KDIJ 280520Z 2806/2906 VRB05KT P6SM SCT200 AMD LTD TO CLD VIS AND WIND
KDIK,KDIK 280521Z 2806/2906 34007KT P6SM SCT050 OVC080 FM280900 31008KT P6SM BKN100 FM281800 32012KT P6SM BKN070 FM290300 28006KT P6SM SCT150 FM290500 25007KT P6SM SCT150
KDLF,TAF AMD KDLF 280050Z 2800/2901 VRB06KT 9999 SKC QNH2972INS BECMG 2812/2813 16010KT 9999 FEW220 QNH2971INS BECMG 2816/2817 18012G20KT 9999 FEW150 QNH2958INS BECMG 2821/2822 34015G25KT 9999 VCTS SCT060CB QNH2956INS TEMPO 2822/2901 VRB25G35KT 6000 -TSRA BKN040CB TX34/2822Z TN16/2810Z LAST NO AMDS AFT 2801 NEXT 2811
KDLH,KDLH 280919Z 2809/2906 07011KT 6SM -RA BR OVC007 FM281700 06013KT 2SM RA BR OVC003 FM282100 06011KT 2SM -RA BR OVC005 FM282300 05009KT 2SM BR VCSH OVC005
KDLS,KDLS 280520Z 2806/2906 VRB04KT P6SM SKC
KDMA,TAF KDMA 280600Z 2806/2912 VRB06KT 9999 SKC QNH2990INS BECMG 2817/2818 31012KT 9999 SKC QNH2993INS BECMG 2819/2820 31012G20KT 9999 SKC QNH2988INS BECMG 2901/2902 31012KT 9999 SKC QNH2989INS BECMG 2902/2903 VRB06KT 9999 SKC QNH2994INS TX32/2821Z TN12/2812Z
KDMN,KDMN 280523Z 2806/2906 25011G20KT P6SM SCT250 FM281900 31012G22KT P6SM SCT250 FM282300 03015G25KT P6SM SKC FM290300 07012KT P6SM SKC
KDNL,KDNL 280843Z 2809/2906 19004KT 6SM BR OVC006 TEMPO 2809/2813 2SM BR OVC004 FM281500 23005KT P6SM OVC015 FM281900 25009G16KT P6SM BKN035 FM290000 VRB03KT P6SM FEW200
KDOV,TAF AMD KDOV 280943Z 2809/2914 10012G18KT 9999 SCT015 BKN050 510102 QNH3007INS BECMG 2810/2811 10015G25KT 9999 BKN015 OVC020 520005 QNH3004INS BECMG 2814/2815 10020G30KT 6000 RA BKN010 OVC020 530005 QNH2968INS TEMPO 2900/2905 BKN009 BECMG 2905/2906 10015G25KT 8000 -RA BKN009 OVC015 520005 QNH2963INS TEMPO 2906/2909 10025G35KT TSRA BKN009CB BECMG 2911/2912 27006KT 9999 NSW BKN009 OVC015 QNH2966INS TX15/2818Z TN12/2810Z
KDPA,KDPA 280832Z 2809/2906 07005KT P6SM BKN200 FM281300 04008KT P6SM BKN080 OVC150 FM290500 30004KT P6SM SCT250
KDRO,KDRO 280535Z 2806/2906 31010KT P6SM SKC WS020/33035KT FM280900 32013G24KT P6SM FEW250 WS020/36030KT FM281400 35012G20KT P6SM FEW250 FM290300 34009KT P6SM FEW250
KDRT,KDRT 280520Z 2806/2906 12007KT P6SM SKC FM281700 14010G20KT P6SM FEW250 FM282100 33018G28KT P6SM FEW250
KDSM,KDSM 280520Z 2806/2906 VRB04KT P6SM BKN210 FM282200 29007KT P6SM VCSH BKN060 FM290000 32011KT P6SM BKN030 FM290300 33012G21KT P6SM BKN017
KDTW,KDTW 280916Z 2809/2912 06008KT 6SM -SHRA SCT025 OVC060 TEMPO 2814/2816 4SM -SHRA BKN025 OVC050 FM281600 07012G22KT 4SM -SHRA BKN020 OVC040 FM281900 08012G23KT 5SM -SHRA OVC007 FM290200 10009KT 6SM -SHRA OVC005 FM290700 12005KT 3SM BR OVC004
KDUG,KDUG 280520Z 2806/2906 33009KT P6SM FEW250 FM280800 VRB03KT P6SM SKC FM282000 32020G30KT P6SM SKC
KDUJ,KDUJ 280758Z 2808/2906 11010KT P6SM OVC015 FM281300 11015G25KT 4SM -RA OVC015 FM282000 11020G30KT P6SM -SHRA OVC018 FM290000 12015G25KT 6SM -SHRA BR OVC012
KDVL,KDVL 280520Z 2806/2906 36008KT P6SM BKN100 FM281100 34008KT P6SM SCT050 FM281800 33009KT P6SM BKN030 FM290000 31007KT P6SM BKN050 FM290200 27005KT P6SM SCT060
KDVT,KDVT 280520Z 2806/2906 VRB04KT P6SM SKC FM281200 08008KT P6SM SKC FM281800 02012G20KT P6SM SKC FM290200 07006KT P6SM SKC
KDYS,TAF KDYS 280000Z 2800/2906 VRB06KT 9999 SKC QNH2978INS BECMG 2801/2802 16009KT 9999 SKC QNH2969INS BECMG 2813/2814 27025G35KT 9999 SKC QNH2971INS BECMG 2815/2816 34015G25KT 9999 SKC QNH2974INS BECMG 2821/2822 34025G35KT 9999 OVC030 QNH2986INS BECMG 2904/2905 34015G25KT 9999 OVC015 QNH3003INS TX23/2817Z TN13/2812Z LAST NO AMDS AFT 2805 NEXT 2812
KEAR,KEAR 280543Z 2806/2906 34011KT P6SM VCSH FEW025 OVC060 FM280800 34018G24KT P6SM VCSH SCT008 OVC012 FM281400 35024G34KT P6SM VCSH SCT008 OVC012 FM281900 35024G35KT P6SM SCT015 BKN040 FM290000 36016G25KT P6SM SCT040 FM290200 36010KT P6SM SKC
KEAT,KEAT 280520Z 2806/2906 31005KT P6SM SCT250 FM281900 12005KT P6SM SCT250 FM290300 VRB04KT P6SM FEW250
KEAU,KEAU 280520Z 2806/2906 06007KT P6SM OVC080 FM282000 35007KT P6SM OVC060 FM290000 35005KT P6SM -SHRA OVC015
KECG,KECG 281017Z 2810/2906 11012G18KT 3SM RA BR BKN009 OVC030 FM281200 11014G21KT 4SM RA BR OVC007 FM281400 13015G22KT 4SM RA BR OVC006 FM282000 13010KT P6SM -SHRA BKN012 FM290300 20005KT P6SM BKN008
KECP,KECP 280520Z 2806/2906 VRB06KT 3SM BR OVC007 FM281500 19010KT P6SM BKN008 FM281700 20014G20KT P6SM SCT020 FM290000 19006KT P6SM SCT025
KEDW,TAF AMD KEDW 280100Z 2801/2903 26012KT 9999 SKC QNH2985INS BECMG 2804/2805 25007KT 9999 SKC QNH2990INS BECMG 2814/2815 03012G18KT 9999 SKC QNH2997INS TX33/2823Z TN12/2814Z LAST NO AMDS AFT 2801 NEXT 2813
KEED,KEED 280520Z 2806/2906 29006KT P6SM FEW250 FM281200 34011KT P6SM FEW250 FM281500 02016G26KT P6SM SKC FM290200 32008KT P6SM SKC
KEET,KEET 280520Z 2806/2906 18005KT P6SM VCSH BKN035 TEMPO 2806/2808 BKN010 FM280800 19005KT P6SM VCSH OVC008 FM281200 24005KT P6SM OVC012 FM281700 27008KT P6SM BKN035 FM281800 27008KT P6SM FEW045 FM290100 31005KT P6SM SKC
KEFD,TAF KEFD 280400Z 2804/2910 VRB06KT 9999 FEW035 QNH2975INS BECMG 2822/2823 16012KT 9999 SCT025 QNH2972INS BECMG 2905/2906 VRB06KT 9999 BKN020 QNH2976INS BECMG 2909/2910 VRB06KT 6000 -SHRA BKN016 QNH2978INS TX26/2820Z TN15/2812Z
KEFK,KEFK 280530Z 2806/2906 00000KT P6SM SKC FM281500 12003KT P6SM FEW050
KEGE,KEGE 280602Z 2806/2906 11008KT P6SM -SHRA BKN045 OVC060 TEMPO 2806/2807 VRB03KT -SHRA BKN014 OVC022 FM280700 04006KT P6SM VCSH SCT045 BKN060 TEMPO 2807/2809 VRB10KT 6SM -SHRASN BKN045 FM281300 04006KT P6SM SCT200 FM281800 35009KT P6SM FEW250 FM290200 04007KT P6SM FEW250
KEGI,TAF KEGI 280900Z 2809/2915 21009KT 9999 BKN007 QNH2976INS TEMPO 2809/2814 SCT008 BKN010 BECMG 2813/2814 24012KT 9999 FEW030 SCT250 QNH2978INS BECMG 2822/2823 23006KT 9999 FEW040 QNH2980INS TX28/2819Z TN18/2811Z LAST NO AMDS AFT 2809 NEXT 2812
KEKN,KEKN 280848Z 2809/2906 14004KT 5SM RA BR OVC040 WS020/14030KT FM281300 13012G30KT 6SM -SHRA BR BKN028 WS020/12045KT FM281700 12011G28KT P6SM SCT024 FM290200 16006G17KT P6SM VCTS BKN008CB
KEKO,KEKO 280520Z 2806/2906 VRB06KT P6SM SKC
KEKS,KEKS 280531Z 2806/2906 VRB06KT P6SM FEW150 SCT250
KELD,KELD 280521Z 2806/2906 27006KT P6SM FEW045 FM280700 VRB03KT P6SM SCT004 SCT040 FM281400 33003KT P6SM SCT007 FM281600 VRB05KT P6SM SCT040 FM290300 VRB03KT P6SM OVC110
KELM,KELM 280859Z 2809/2906 08004KT P6SM BKN200 TEMPO 2811/2813 BKN025 FM281300 13008KT P6SM OVC025 FM281700 13012G18KT P6SM OVC025 FM282100 13012G18KT P6SM -RA OVC025 FM290200 12016G23KT 5SM -RA BR OVC015
KELP,KELP 280523Z 2806/2906 27015G25KT P6SM SCT250 FM281400 35012G22KT P6SM FEW250 FM282000 03020G30KT P6SM FEW250 FM290400 08007KT P6SM SKC
KELY,KELY 280520Z 2806/2906 35007KT P6SM SKC FM281000 17010KT P6SM SKC FM281900 VRB06KT P6SM SKC
KEND,TAF KEND 281000Z 2810/2916 VRB06KT 8000 BR FEW005 BKN030 BKN100 QNH2979INS TEMPO 2811/2814 32012KT 3200 -SHRA BR BKN010 BECMG 2814/2815 34012KT 6000 -SHRA BR BKN010 QNH2988INS BECMG 2817/2818 34012G22KT 6000 -SHRA BR SCT004 OVC010 QNH2990INS BECMG 2823/2824 35012KT 8000 BR BKN030 QNH2993INS BECMG 2905/2906 33006KT 8000 BR BKN050 QNH3001INS BECMG 2911/2912 34012G22KT 9999 NSW SKC QNH2998INS TX11/2819Z TN08/2812Z
KENV,KENV 280540Z 2806/2906 01012G22KT P6SM SKC FM281000 35011KT P6SM SKC FM281900 10009KT P6SM SKC FM290500 32006KT P6SM SKC
KENW,KENW 280920Z 2809/2906 10005KT P6SM SCT250 FM281500 05007KT P6SM BKN250 FM290100 02006KT P6SM BKN110
KERI,KERI 280522Z 2806/2906 08006KT P6SM OVC200 FM281200 13015KT P6SM OVC100 FM281600 13014KT P6SM -RA OVC035 FM281800 11014G22KT 3SM -RA OVC022 FM282300 11016G25KT P6SM OVC020 FM290200 12020G33KT 6SM -SHRA OVC023
KEUG,KEUG 280537Z 2806/2906 36005KT P6SM SKC FM282000 06004KT P6SM FEW250 FM290400 23009KT P6SM SCT250
KEUL,KEUL 280520Z 2806/2906 32006KT P6SM FEW200 FM281000 14006KT P6SM SKC FM290300 VRB04KT P6SM SKC
KEVV,KEVV 280640Z 2807/2906 36008KT 6SM BR SCT009 OVC020 TEMPO 2808/2812 BKN009 FM281500 32008KT P6SM OVC015 FM282000 31009KT P6SM BKN026 FM282200 31009KT P6SM SCT040 FM290100 30005KT P6SM FEW120
KEVW,KEVW 280819Z 2808/2906 09011KT P6SM SKC FM281900 28010KT P6SM FEW180 SCT250
KEWN,KEWN 280836Z 2809/2906 15010G25KT 4SM RA BR OVC015 FM280930 15005KT 5SM BR SCT015 OVC035 FM281600 16007KT 5SM BR SCT021 BKN030 FM282100 VRB04KT 5SM BR FEW030 BKN110
KEWR,KEWR 280833Z 2809/2912 07005KT P6SM SCT012 BKN050 BKN250 TEMPO 2809/2812 BKN012 FM281500 09011KT P6SM SCT060 BKN150 FM290000 06013G20KT P6SM SCT030 BKN060 OVC120 FM290100 06015G23KT 5SM -RA BR SCT010 OVC020 FM290500 05019G27KT 3SM RA BR SCT006 OVC012
KEYW,KEYW 280851Z 2809/2906 14009KT P6SM FEW020 FEW060 FM281800 19008KT P6SM FEW020
KFAF,TAF KFAF 281000Z 2810/2916 09010G15KT 9000 -RA SCT020 OVC055 QNH2992INS TEMPO 2812/2816 10015G25KT OVC015 BECMG 2817/2818 14012G18KT 6000 RA OVC010 QNH2977INS BECMG 2820/2821 13012KT 9000 -RA BKN010 QNH2971INS BECMG 2902/2903 VRB06KT 9000 -SHRA SCT010 BKN025 QNNH2973INS TX20/2823Z TN14/2912Z
KFAR,KFAR 280520Z 2806/2906 36013KT P6SM OVC060 FM290200 32009KT P6SM BKN070
KFAT,KFAT 280520Z 2806/2906 VRB03KT P6SM SKC
KFAY,KFAY 280520Z 2806/2906 12008KT 6SM -RA BR BKN007 OVC015 TEMPO 2808/2812 18005KT 4SM SHRA BR OVC004 FM281400 22012KT P6SM BKN015 OVC050 FM281730 24011G18KT P6SM BKN050 FM282200 22005KT P6SM SCT050 SCT250
KFBG,TAF KFBG 280900Z 2809/2915 18008KT 8000 -SHRA OVC006 QNH2978INS 550013 BECMG 2814/2815 20010G25KT 9999 NSW OVC008 QNH2975INS BECMG 2817/2818 23006KT 9999 SCT012 QNH2970INS BECMG 2821/2822 23006KT 9999 FEW040 QNH2965INS TX26/2821Z TN18/2809Z
KFCS,TAF KFCS 280500Z 2805/2911 35025G35KT 4800 -SHRA OVC020 620209 530009 QNH2995INS TEMPO 2805/2810 35035G45KT 560009 BECMG 2809/2810 36025G35KT 4800 -RASN BKN040 610402 530009 QNH3001INS TEMPO 2810/2812 35035G45KT 560009 BECMG 2814/2815 36025G35KT 9999 NSW BKN050 620502 530009 QNH3008INS BECMG 2820/2821 36015G25KT 9999 SCT080 530009 QNH3010INS BECMG 2905/2906 30009KT 9999 FEW150 QNH3016INS TX11/2821Z TN01/2812Z
KFDY,KFDY 280522Z 2806/2906 05011KT P6SM BKN080 BKN200 FM281000 07006KT P6SM -RA OVC060 FM281200 07008KT 5SM -RA BR OVC023 FM281400 07012KT 4SM -RA BR OVC013 FM282100 10006KT 4SM BR OVC008 FM290500 22007KT P6SM BKN009
KFFO,TAF KFFO 280300Z 2803/2909 07009KT 9000 -RA SCT020 BKN070 OVC110 620709 510102 QNH2977INS BECMG 2805/2807 08009KT 8000 -RA SCT009 OVC015 620709 510102 QNH2969INS BECMG 2807/2809 09009KT 4800 RA BR SCT004 OVC009 620709 510102 QNH2968INS BECMG 2809/2811 11009KT 6000 -RA BR OVC004 QNH2969INS TEMPO 2815/2819 14012G18KT BECMG 2817/2819 14009KT 8000 -SHRA BKN020 OVC030 QNH2967INS TEMPO 2819/2824 20012G18KT BECMG 2823/2901 24009KT 9999 NSW BKN015 OVC020 QNH2968INS BECMG 2903/2904 25009KT 8000 BR SCT007 OVC010 QNH2970INS TX18/2821Z TN09/2811Z
KFHU,TAF KFHU 280600Z 2806/2912 24009KT 9999 SKC QNH3000INS BECMG 2816/2817 30012G18KT 9999 SKC 520007 QNH2999INS TEMPO 2820/2902 32015G25KT 530007 BECMG 2902/2903 32012KT 9999 SKC QNH3006INS TX28/2821Z TN12/2812Z
KFKL,KFKL 280527Z 2806/2906 12010KT P6SM OVC080 FM281300 12015G25KT 4SM -RA OVC015 FM282000 12020G30KT P6SM -SHRA OVC018 FM290000 12015G25KT 6SM -SHRA BR OVC015
KFLG,KFLG 280721Z 2807/2906 34012G22KT P6SM BKN250 FM281200 04010G20KT P6SM SKC FM281500 05019G32KT P6SM FEW250 FM282000 05016G25KT P6SM FEW250 FM290200 05009G17KT P6SM SKC
KFLL,KFLL 280840Z 2809/2912 16007KT P6SM SCT015 BKN050 FM281400 19011G20KT P6SM SCT035 SCT060 FM281900 20013G25KT P6SM VCTS SCT025CB BKN050 FM290100 17005KT P6SM SCT050
KFLO,KFLO 280814Z 2808/2906 14006KT 6SM -SHRA BR SCT007 BKN030 OVC070 FM281100 18007KT P6SM BKN007 OVC012 FM281500 24010KT P6SM BKN025 FM281800 23010G15KT P6SM BKN040 FM290100 22005KT P6SM BKN250
KFMH,KFMH 280531Z 2806/2906 27004KT P6SM SCT008 FM280800 32003KT 3SM BR BKN008 FM281100 02004KT P6SM SCT250 FM281500 09007KT P6SM SCT250 FM281800 13010KT P6SM SCT250 FM290000 13004KT P6SM BKN250
KFMN,KFMN 280541Z 2806/2906 29011KT P6SM SCT080 SCT110 FM281200 29012G20KT P6SM SCT080 SCT110 FM281500 30025G35KT P6SM FEW080 SCT250 FM290100 32012G18KT P6SM SKC
KFMY,KFMY 280543Z 2806/2906 31005KT P6SM FEW050 SCT220 FM281300 22009KT P6SM BKN040 OVC250 FM281500 24012G20KT P6SM BKN250 FM290000 VRB05KT P6SM SCT200
KFNT,KFNT 280521Z 2806/2906 15007KT P6SM SCT250 FM280700 04007KT P6SM FEW070 OVC150 FM281200 06008KT P6SM BKN035 BKN060 FM281400 07010G24KT 6SM -SHRA OVC025 FM281600 07010G24KT 3SM -RA BR OVC012 FM282200 09010G22KT 3SM -SHRA OVC012
KFOD,KFOD 280520Z 2806/2906 19005KT P6SM BKN190 FM281800 30010KT P6SM VCSH BKN045 FM282000 31010KT P6SM -SHRA BKN050 FM290000 34015G20KT P6SM BKN016
KFOE,KFOE 280536Z 2806/2906 18005KT P6SM OVC070 FM281400 32005KT P6SM VCSH SCT022 OVC035 FM282100 31011KT 5SM -SHRA BR SCT012 OVC021 FM290200 33012KT P6SM SCT012 OVC021
KFPR,KFPR 280543Z 2806/2906 28007KT P6SM FEW017 BKN050 OVC060 FM280800 VRB03KT P6SM VCSH SCT025 BKN050 FM281100 18007KT P6SM BKN050 BKN100 FM281800 28012G18KT P6SM VCTS SCT035CB BKN080 TEMPO 2818/2821 3SM TSRA BKN030CB FM290200 21004KT P6SM SCT100 SCT250
KFRI,TAF KFRI 280400Z 2804/2910 VRB06KT 9999 BKN060 QNH2977INS BECMG 2808/2809 32006KT 9999 OVC040 QNH2978INS BECMG 2815/2816 34015G20KT 6000 -RA OVC015 620906 QNH2987INS BECMG 2903/2904 35012KT 9999 NSW SCT050 QNH2995INS TX13/2821Z TN11/2812Z
KFSD,KFSD 280520Z 2806/2906 23006KT P6SM VCSH BKN060 FM280800 30007KT P6SM VCSH BKN027 FM281000 33011KT P6SM -RA OVC015 FM281100 34014G20KT P6SM -RA OVC008 FM281600 35020G29KT P6SM BKN045 FM290300 34011KT P6SM SCT045
KFSM,KFSM 280524Z 2806/2906 25004KT P6SM SCT025 OVC040 TEMPO 2806/2809 BKN025 FM281000 VRB03KT 2SM BR BKN005 TEMPO 2810/2814 1/2SM FG VV002 FM281600 05005KT P6SM BKN020 FM281800 08005KT P6SM SCT020 BKN035 PROB30 2902/2906 3SM -TSRA BKN009CB
KFST,KFST 280520Z 2806/2906 19011KT P6SM SKC FM281500 33014G23KT P6SM FEW250 FM282100 35023G35KT P6SM BKN060
KFTK,TAF KFTK 271900Z 2719/2901 09012KT 9999 VCSH BKN060 OVC120 QNH2980INS BECMG 2722/2723 09009KT 9000 -RA BKN020 OVC050 QNH2979INS BECMG 2723/2724 09009KT 8000 -RA BKN012 OVC025 QNH2977INS BECMG 2800/2801 14009KT 4800 -RA BR OVC005 QNH2966INS TEMPO 2804/2810 3200 -DZ BR OVC003 BECMG 2812/2813 20008KT 9000 BR VCSH OVC005 QNH2968INS BECMG 2815/2816 23009KT 9999 VCSH OVC008 QNH2970INS BECMG 2818/2819 27010KT 9999 NSW BKN015 OVC030 QNH2969INS TX21/2720Z TN11/2811Z LAST NO AMDS AFT 2803 NEXT 2811
KFTW,KFTW 280852Z 2809/2906 12007KT P6SM BKN250 FM281800 13010KT P6SM FEW025 BKN050 FM282000 06010KT P6SM VCTS FEW025CB OVC050 TEMPO 2821/2901 VRB25G35KT 1SM TSRA OVC015CB FM290100 36016G26KT 5SM BR VCTS OVC009CB FM290400 34018G28KT 5SM BR VCTS OVC008CB
KFTY,KFTY 281033Z 2811/2906 17005KT 6SM BR FEW012 BKN020 TEMPO 2811/2813 2SM BR OVC012 FM281300 19004KT 5SM BR BKN006 FM281600 23007KT P6SM BKN010 FM281800 23010KT P6SM BKN025 FM282000 25011KT P6SM SCT060 FM290300 30006KT P6SM FEW250
KFVE,KFVE 280520Z 2806/2906 33003KT P6SM FEW080 FM290000 00000KT P6SM FEW080
KFWA,KFWA 280547Z 2806/2906 06013KT P6SM -SHRA BKN060 FM281100 05015KT 5SM -RA BR SCT015 OVC035 TEMPO 2812/2816 3SM -RA BR SCT006 BKN015 FM281600 04012KT 2SM -RA BR OVC006 FM282200 36008KT 2SM BR VCSH OVC005 FM290100 32009KT 2SM BR OVC005
KFXE,KFXE 280840Z 2809/2906 16007KT P6SM SCT015 BKN050 FM281400 19011G20KT P6SM SCT035 SCT060 FM281900 20013G25KT P6SM VCTS SCT025CB BKN050 FM290100 17005KT P6SM SCT050
KFYV,KFYV 280922Z 2809/2906 00000KT 3SM BR OVC015 TEMPO 2809/2813 1/4SM FG BKN002 FM281500 05002KT P6SM OVC015 FM281800 03005KT P6SM SCT022 BKN035 PROB30 2900/2906 4SM -SHRA BKN009
KGBD,KGBD 280520Z 2806/2906 27006KT P6SM -RA BKN120 FM281100 33015G24KT P6SM -RA BKN025 FM281300 34020G30KT P6SM -RA BKN020 FM282100 36020G32KT P6SM -RA OVC035 FM290000 36018G26KT P6SM BKN100
KGCC,KGCC 280520Z 2806/2906 32013KT P6SM SCT015 BKN025 FM281300 31011KT P6SM SCT060
KGCK,KGCK 280532Z 2806/2906 35012KT P6SM BKN050 FM281100 36027G36KT P6SM OVC017 FM281700 36026G35KT P6SM BKN040 FM290200 36013KT P6SM FEW250
KGCN,KGCN 280520Z 2806/2906 VRB06KT P6SM SKC FM281200 06020G30KT P6SM SKC FM282200 05014G21KT P6SM SKC FM290500 08008KT P6SM SKC
KGDV,KGDV 280520Z 2806/2906 VRB06KT P6SM BKN070 FM281800 31012KT P6SM BKN110 FM290300 VRB05KT P6SM BKN120
KGEG,KGEG 280520Z 2806/2906 VRB03KT P6SM SCT250 FM281500 05006KT P6SM BKN200 FM290300 10003KT P6SM SCT200
KGFA,TAF KGFA 280400Z 2804/2910 VRB06KT 9999 SKC QNH3011INS BECMG 2823/2824 30009KT 9999 FEW065 QNH3011INS TX17/2823Z TN02/2812Z
KGFK,KGFK 280520Z 2806/2906 35012KT P6SM BKN080 FM281700 33010KT P6SM BKN040 FM290200 30007KT P6SM BKN060 FM290500 27005KT P6SM SCT130
KGFL,KGFL 280532Z 2806/2906 00000KT P6SM SCT250 TEMPO 2808/2811 1SM BR VV003 FM281700 15006KT P6SM SCT040 SCT250 FM290200 12003KT P6SM BKN040 BKN150
KGGG,KGGG 280521Z 2806/2906 26004KT P6SM SKC FM281000 00000KT 3SM BR SKC FM281400 12004KT P6SM SKC FM281800 14007KT P6SM SCT040 SCT250 FM290000 03005KT P6SM VCTS BKN050CB OVC150
KGGW,KGGW 280520Z 2806/2906 VRB06KT P6SM BKN060 FM281800 28013G21KT P6SM BKN120 FM290300 VRB06KT P6SM BKN190
KGJT,KGJT 280535Z 2806/2906 02015G25KT P6SM BKN090 OVC120 TEMPO 2806/2808 VRB20G30KT -SHRA SCT045 BKN060 FM281000 36012G20KT P6SM FEW250 FM281400 01012KT P6SM SKC FM290400 03007KT P6SM FEW250
KGKY,KGKY 280852Z 2809/2906 12007KT P6SM BKN250 FM281800 13010KT P6SM FEW025 BKN050 FM282000 06010KT P6SM VCTS FEW025CB OVC050 TEMPO 2821/2901 VRB25G35KT 1SM TSRA OVC015CB FM290100 36016G26KT 5SM BR VCTS OVC009CB FM290400 34018G28KT 5SM BR VCTS OVC008CB
KGLD,KGLD 280520Z 2806/2906 33019G26KT P6SM BKN040 FM280800 35025G33KT 6SM -SHRA BR OVC022 FM281000 35026G34KT P6SM VCSH BKN035 FM290100 36013G21KT P6SM SCT250
KGLH,KGLH 281027Z 2810/2906 28005KT 1SM BR OVC003 FM281500 32006KT P6SM BKN015 FM281800 33006KT P6SM SCT020 BKN050
KGLS,KGLS 280520Z 2806/2906 VRB06KT P6SM SKC FM281100 12007KT P6SM SKC FM281700 15010KT P6SM FEW250 FM290500 10009KT P6SM VCTS BKN018CB
KGMU,KGMU 280807Z 2808/2906 00000KT P6SM OVC007 FM281000 24003KT 1SM BR BKN003 FM281400 23006KT P6SM BKN007 FM281600 23008KT P6SM BKN013 FM281800 22010G18KT P6SM SCT035 BKN045 FM282300 23009KT P6SM SCT060
KGNV,KGNV 280921Z 2809/2906 23005KT 5SM BR SCT020 BKN250 FM281100 23006KT P6SM OVC019 FM281400 22010G15KT P6SM VCSH BKN025 FM281600 23010G18KT P6SM VCTS SCT030CB BKN050 FM281900 22010KT P6SM OVC050
KGON,KGON 280833Z 2809/2906 VRB04KT 2SM BR OVC006 TEMPO 2809/2812 1/2SM FG VV002 FM281200 11006KT P6SM FEW015 SCT060 BKN200 FM281500 12010KT P6SM SCT070 BKN150 FM290100 09014G21KT P6SM SCT040 BKN070 OVC120
KGPI,KGPI 280520Z 2806/2906 VRB03KT P6SM SCT120
KGPT,KGPT 281027Z 2810/2906 31005KT P6SM SCT040 FM290400 16008KT P6SM SKC
KGRB,KGRB 280520Z 2806/2906 09008KT P6SM BKN200
KGRF,TAF KGRF 280500Z 2805/2911 04008KT 9999 SKC QNH2991INS TX22/2823Z TN08/2813Z
KGRI,KGRI 280543Z 2806/2906 32011KT P6SM VCSH FEW025 OVC060 FM280900 33018G24KT P6SM VCSH SCT008 OVC012 FM281400 34024G34KT P6SM VCSH SCT008 OVC012 FM281900 35024G35KT P6SM SCT015 BKN040 FM290000 36016G25KT P6SM SCT040 FM290200 36010KT P6SM SKC
KGRK,TAF KGRK 280800Z 2808/2914 18005KT 9999 SKC 510008 QNH2975INS BECMG 2815/2816 17015G22KT 9999 SKC 510008 QNH2977INS BECMG 2820/2821 17015G25KT 9999 -SHRA VCTS BKN050CB OVC080 QNH2963INS TEMPO 2822/2902 VRB35G45KT 1600 +TSRAGR BKN020 OVC030CB BECMG 2902/2903 34020G30KT 9000 -SHRA BKN025 OVC040 QNH2982INS BECMG 2906/2907 34015KT 9999 NSW BKN015 OVC030 QNH2986INS BECMG 2913/2914 33020G28KT 9999 SCT050 QNH2998INS TX30/2821Z TN13/2908Z
KGRR,KGRR 280544Z 2806/2906 14008KT P6SM SKC FM281500 06010KT P6SM VCSH OVC070 FM281600 06010KT P6SM VCSH OVC030 FM281700 07011KT 4SM -SHRA BR OVC015 FM282300 06011G19KT P6SM BKN015
KGSB,TAF AMD KGSB 281025Z 2810/2910 12009KT 8000 -SHRA BKN014 QNH2977INS TEMPO 2810/2812 4800 -SHRA BR BKN006 BECMG 2811/2812 12009KT 6000 -SHRA BKN015 OVC020 QNH2973INS TEMPO 2814/2818 12015G25KT 4800 TSRA BKN005 OVC020CB BECMG 2817/2818 25009KT 9999 NSW BKN030 QNH2968INS TX25/2820Z TN18/2810Z
KGSO,KGSO 281012Z 2810/2906 17012KT 5SM -SHRA BR OVC007 FM281300 21007KT P6SM OVC007 FM281600 25008KT P6SM OVC015 FM281900 23008KT P6SM BKN050 PROB30 2822/2902 2SM TS BKN025CB FM290400 34003KT P6SM BKN050
KGSP,KGSP 280804Z 2808/2906 15005KT P6SM -SHRA SCT007 OVC011 TEMPO 2808/2810 OVC007 FM281000 21003KT 1SM BR BKN003 FM281400 23006KT P6SM BKN007 FM281600 23008KT P6SM BKN013 FM281800 22010G18KT P6SM SCT035 BKN045 FM282300 23009KT P6SM SCT060
KGTB,TAF KGTB 280900Z 2809/2915 12006KT 9999 SKC QNH3009INS BECMG 2811/2812 14010G15KT 9999 FEW050 QNH3005INS BECMG 2905/2906 13010G25KT 8000 -RA SCT070 BKN080 620802 QNH2997INS BECMG 2910/2911 12015G35KT 8000 -RA SCT040 OVC050 620505 QNH2994INS TX16/2818Z TN06/2809Z
KGTF,KGTF 280531Z 2806/2906 20009KT P6SM FEW150 SCT250
KGTR,KGTR 280532Z 2806/2906 16006KT P6SM SCT060 FM280700 26003KT P6SM VCSH BKN100 FM280800 26003KT P6SM BKN006 FM281500 29004KT P6SM BKN019 FM281800 31007KT P6SM SCT100
KGUC,KGUC 280903Z 2809/2906 24006KT P6SM VCSH BKN008 BKN013 OVC110 TEMPO 2809/2811 5SM -SHSN FM281100 32011KT P6SM BKN045 FM281700 34014KT P6SM FEW250 FM290200 30010KT P6SM FEW250
KGUP,KGUP 280541Z 2806/2906 30007KT P6SM FEW090 BKN250 FM281000 25008KT P6SM SCT080 SCT250 FM281300 26020G35KT P6SM SKC FM281600 02015G25KT P6SM SKC FM290000 33008KT P6SM SKC
KGUR,TAF KGUR 280500Z 2805/2911 34018KT 9999 FEW021 BKN030 OVC045 510053 QNH3012INS BECMG 2806/2807 34015KT 9999 BKN021 OVC030 510053 QNH3014INS BECMG 2813/2814 32009KT 9999 SCT022 OVC030 510062 QNH3024INS BECMG 2814/2815 34020G30KT 9999 SCT022 OVC030 510063 QNH3024INS BECMG 2818/2819 33015G20KT 9999 FEW065 510063 QNH3013INS BECMG 2901/2902 29009KT 9999 SCT075 QNH3013INS TX14/2823Z TN02/2812Z
KGUS,TAF KGUS 272100Z 2721/2903 12009KT 9999 SCT100 BKN150 QNH2987INS BECMG 2802/2803 08009KT 9000 -SHRA SCT050 BKN080 QNH2977INS BECMG 2807/2808 08012KT 8000 -SHRA SCT015 BKN030 QNH2975INS BECMG 2811/2812 07010G15KT 6000 -SHRA BKN012 OVC025 QNH2972INS BECMG 2817/2818 36012G20KT 9000 -SHRA OVC012 QNH2969INS BECMG 2900/2901 33010G15KT 9999 NSW SCT015 BKN030 QNH2974INS TX17/2721Z TN07/2813Z LAST NO AMDS AFT 2803 NEXT 2813
KGUY,KGUY 280533Z 2806/2906 02025G35KT P6SM BKN060 FM281000 36023G33KT 4SM -SHRA BR OVC015 FM281400 36028G38KT 4SM -SHRA BR OVC015 FM282000 36021G31KT P6SM OVC100 FM290100 35010KT P6SM SKC
KGWO,KGWO 281025Z 2810/2906 26003KT 1SM BR OVC004 FM281100 30005KT P6SM OVC009 FM281500 30005KT P6SM BKN015 FM281800 30005KT P6SM BKN050
KGYY,KGYY 280832Z 2809/2906 06005KT P6SM BKN200 FM281500 01010KT P6SM VCSH BKN050 OVC150 FM282200 01010KT P6SM BKN040 FM290500 31005KT P6SM SCT250
KHBG,KHBG 280532Z 2806/2906 28003KT P6SM SKC FM281200 29003KT 4SM BR BKN009 FM281300 30003KT P6SM BKN250
KHCR,KHCR 280540Z 2806/2906 02011KT P6SM FEW250 FM280700 VRB04KT P6SM FEW250
KHDC,KHDC 281031Z 2811/2906 VRB04KT P6SM SKC FM290200 18003KT P6SM SKC
KHDN,KHDN 280535Z 2806/2906 31005KT P6SM BKN050 FM280800 30007KT P6SM BKN080 FM281000 29005KT P6SM BKN100 FM281600 31006KT P6SM FEW250 FM281700 32008KT P6SM FEW250 FM290200 36005KT P6SM FEW250
KHIB,KHIB 280535Z 2806/2906 VRB03KT P6SM SCT050 OVC080 FM281000 05007KT P6SM VCSH BKN025 FM281400 04009KT 6SM BR VCSH OVC015 FM282100 03006KT 2SM -SHRA BR OVC005 FM290200 05003KT 6SM BR OVC007
KHIE,KHIE 280842Z 2809/2906 00000KT P6SM SKC FM281000 00000KT 1SM BR SCT001 FM281100 00000KT 1/2SM FG BKN001 FM281200 VRB03KT P6SM SKC FM281800 16005KT P6SM SCT045 FM290300 00000KT P6SM SCT250
KHIF,TAF AMD KHIF 280728Z 2807/2911 06015G25KT 9999 SCT100 510009 QNH3016INS TEMPO 2807/2810 06025G35KT BECMG 2814/2815 07012KT 9999 FEW150 BKN200 QNH3018INS BECMG 2817/2818 05012KT 9999 FEW150 QNH3021INS BECMG 2902/2903 09010KT 9999 SKC QNH3024INS TX16/2821Z TN06/2812Z
KHIO,KHIO 280537Z 2806/2906 VRB04KT P6SM SKC FM281800 10006KT P6SM SKC
KHKS,KHKS 280532Z 2806/2906 24007KT P6SM SKC FM281200 27003KT P6SM BKN006 FM281500 31004KT P6SM BKN011 FM281800 30005KT P6SM SCT250
KHKY,KHKY 280904Z 2809/2906 10009KT 3SM SHRA BR SCT005 BKN019 OVC110 TEMPO 2810/2814 BKN005 OVC019 FM281400 21003KT P6SM OVC006 FM281700 21005KT P6SM BKN018 FM281900 20006KT P6SM BKN045 PROB30 2821/2901 4SM TSRA BR BKN035CB
KHLG,KHLG 280527Z 2806/2906 11010KT P6SM OVC060 FM280700 11010G18KT P6SM -RA OVC040 FM281100 11015G25KT 4SM -RA BR OVC018 FM281500 11015G25KT P6SM -SHRA OVC018 FM281700 11015G25KT P6SM -SHRA BKN025 FM290000 12010G18KT 6SM -SHRA BR OVC018
KHLN,KHLN 280531Z 2806/2906 VRB06KT P6SM FEW150 SCT250
KHMN,TAF COR KHMN 280950Z 2809/2915 VRB06KT 9999 FEW240 QNH2985INS BECMG 2815/2816 33015G25KT 9999 FEW240 QNH2995INS BECMG 2821/2822 35025G35KT 8000 BLDU FEW240 510006 QNH3002INS BECMG 2902/2903 01009KT 9999 NSW SKC QNH3014INS TX24/2819Z TN07/2812Z
KHNB,KHNB 280520Z 2806/2906 03006KT P6SM BKN008 FM281600 32009KT P6SM BKN015 FM282100 32007KT P6SM BKN035
KHND,KHND 280520Z 2806/2906 21006KT P6SM FEW250 FM281100 04015G24KT P6SM FEW250 FM282300 04008KT P6SM FEW250 FM290400 27005KT P6SM FEW250
KHOB,KHOB 280520Z 2806/2906 23011KT P6SM BKN250 FM281300 36028G40KT P6SM FEW250 FM281500 35024G36KT P6SM BKN040 FM281800 36027G38KT P6SM OVC030
KHON,KHON 280520Z 2806/2906 35017G27KT P6SM -RA OVC011 FM280700 35020G31KT P6SM -RA OVC009 FM281000 35024G35KT P6SM VCSH BKN009 FM281200 34023G32KT P6SM BKN060 FM281600 34019G28KT P6SM SCT060 FM290200 33008KT P6SM FEW050
KHOP,TAF KHOP 280800Z 2808/2914 VRB06KT 2400 BR OVC002 QNH2972INS TEMPO 2808/2812 1000 BR VV002 BECMG 2814/2815 VRB06KT 9999 NSW OVC007 QNH2973INS BECMG 2818/2819 32008KT 9999 OVC020 QNH2979INS BECMG 2902/2903 30006KT 9999 SCT040 QNH2984INS TX20/2821Z TN14/2810Z
KHOT,KHOT 280953Z 2810/2906 VRB02KT 6SM BR BKN009 OVC025 TEMPO 2810/2813 2SM BR BKN001 FM281500 VRB05KT P6SM BKN015 BKN050 FM281800 VRB04KT P6SM BKN050 FM290000 VRB04KT P6SM SCT050 OVC250
KHOU,KHOU 280520Z 2806/2906 VRB03KT P6SM SKC FM281700 17007KT P6SM SKC FM290000 16012KT P6SM FEW250 FM290300 VRB07G18KT P6SM VCTS BKN025CB FM290500 VRB06G15KT P6SM VCTS OVC015CB
KHPN,KHPN 280833Z 2809/2906 VRB03KT 5SM BR OVC006 FM281200 09005KT P6SM SCT010 BKN050 BKN250 FM281500 12011KT P6SM SCT060 BKN150 FM290000 09012G19KT P6SM SCT030 BKN060 OVC120 FM290300 09013G20KT 5SM -RA BR SCT010 OVC020 AMD NOT SKED
KHQM,KHQM 280520Z 2806/2906 VRB03KT P6SM SCT250 FM281200 VRB03KT P6SM VCFG SCT002 TEMPO 2812/2815 1/2SM FG OVC002 FM281500 07004KT P6SM SCT250 FM282100 22009KT P6SM SCT250
KHRF,KHRF 280520Z 2806/2906 VRB06KT P6SM SCT120
KHRL,KHRL 280528Z 2806/2906 36004KT P6SM FEW018 FM280900 16005KT P6SM BKN013 TEMPO 2809/2813 3SM BR BKN006 FM281500 13007KT P6SM BKN020 FM281800 14011KT P6SM BKN040 FM290300 16009KT P6SM VCTS BKN025CB
KHRO,KHRO 280853Z 2809/2906 VRB02KT 6SM BR BKN003 OVC010 FM281500 VRB05KT 3SM BR SCT005 OVC015 FM282100 VRB04KT P6SM OVC050
KHRT,TAF KHRT 281000Z 2810/2916 27005KT 9999 FEW008 QNH2976INS TEMPO 2810/2813 BKN007 BECMG 2812/2813 25009KT 9999 SCT020 QNH2982INS BECMG 2817/2818 23012KT 9999 FEW030 QNH2979INS BECMG 2905/2906 30005KT 6000 BR FEW010 QNH2982INS BECMG 2912/2913 24008KT 9999 NSW SCT012 QNH2986INS TX23/2818Z TN20/2811Z
KHST,TAF KHST 280300Z 2803/2909 VRB06KT 9999 SCT030 QNH2988INS BECMG 2814/2815 18012G18KT 9999 VCSH SCT030 SCT120 QNH2986INS BECMG 2823/2824 VRB06KT 9999 NSW FEW025 SCT045 QNH2987INS TX31/2819Z TN23/2811Z
KHSV,KHSV 280759Z 2808/2906 VRB04KT 6SM BR VCSH OVC020 TEMPO 2808/2810 3SM SHRA BR OVC010 FM281400 28008KT P6SM OVC025 FM282100 30007KT P6SM SCT025 BKN070
KHTS,KHTS 280930Z 2810/2906 09004KT P6SM -RA OVC025 TEMPO 2810/2812 BKN007 FM281500 18005KT P6SM VCSH BKN018 FM282100 23007KT P6SM VCTS SCT040CB FM290200 25006KT P6SM SCT035
KHUA,TAF KHUA 272000Z 2720/2902 12012KT 8000 BR OVC010 QNH2975INS TEMPO 2808/2810 OVC007 BECMG 2810/2811 VRB06KT 8000 -SHRA OVC009 QNH2965INS BECMG 2815/2816 27010G15KT 8000 BR OVC009 QNH2976INS BECMG 2901/2902 VRB06KT 9999 NSW SCT025 QNH2980INS TX20/2721Z TN16/2802Z LAST NO AMDS AFT 2800 NEXT 2812
KHUF,KHUF 280520Z 2806/2906 04007KT 6SM -SHRA BR OVC060 FM280900 02008KT 6SM -SHRA BR OVC011 FM281100 36009KT P6SM VCSH OVC009 FM282000 33012KT P6SM OVC012 FM290400 32006KT P6SM BKN070
KHUL,KHUL 280520Z 2806/2906 32004KT P6SM FEW080 FM281500 36007KT P6SM SKC FM282300 00000KT P6SM FEW060 FM290300 12003KT P6SM FEW070
KHUM,KHUM 281028Z 2810/2906 29005KT P6SM SKC FM281200 31009KT 5SM BR SKC FM281400 26005KT P6SM SKC
KHUT,KHUT 280520Z 2806/2906 VRB05KT P6SM BKN040 FM281300 34015G22KT P6SM -RA BKN015 FM282100 35019G30KT P6SM -RA OVC025 FM290300 36013G21KT P6SM BKN120
KHVR,KHVR 280531Z 2806/2906 VRB06KT P6SM FEW150 SCT250 FM281700 24012KT P6SM FEW150 SCT250 FM282100 28012KT P6SM FEW150 SCT250 FM282300 31009KT P6SM FEW150 SCT250
KHYA,KHYA 280809Z 2808/2906 00000KT P6SM SCT005 TEMPO 2808/2811 3SM BR FM281200 03005KT P6SM FEW250 FM281600 09008KT P6SM SCT250 FM281800 13009KT P6SM SCT250 FM282300 13004KT P6SM BKN250
KHYR,KHYR 280826Z 2808/2906 09007KT P6SM -SHRA OVC050 FM281500 09007KT 5SM -RA OVC009 FM282000 04009KT 4SM -RA OVC009
KHYS,KHYS 280532Z 2806/2906 36012KT P6SM OVC050 FM280800 34018G27KT P6SM BKN040 FM281300 35022G30KT P6SM BKN030 FM281500 35025G34KT P6SM OVC017 FM282000 36024G34KT P6SM BKN035 FM290200 35011KT P6SM FEW240
KIAB,TAF KIAB 281000Z 2810/2916 VRB06KT 9000 BR OVC050 651003 QNH2978INS BECMG 2814/2815 32009KT 8000 -RA OVC015 620802 QNH2986INS BECMG 2817/2818 34015G25KT 8000 -RA OVC015 620804 QNH2991INS BECMG 2902/2903 34009KT 9999 NSW BKN020 BKN060 QNH2996INS BECMG 2908/2909 33006KT 9999 SKC QNH2996INS BECMG 2914/2915 32012G18KT 9999 SKC QNH2998INS TX14/2821Z TN10/2812Z
KIAD,KIAD 280901Z 2809/2912 09010G18KT 6SM -RA SCT008 OVC015 FM281000 10012G20KT 5SM RA BKN008 OVC015 FM281500 11018G32KT 3SM RA BKN008 OVC015 FM290000 08013G20KT 5SM -SHRA BR OVC004 FM290500 05009KT 3SM -RA BR OVC003 FM291000 04005KT 4SM BR OVC003
KIAG,KIAG 280859Z 2809/2906 10007KT P6SM SCT250 FM281900 13013KT P6SM OVC035 FM282100 12012G19KT 5SM -RA BR OVC035 FM290000 11018G27KT P6SM -RA OVC015 FM290500 11016G24KT P6SM OVC020
KIAH,KIAH 280520Z 2806/2912 VRB02KT P6SM FEW040 FM281400 16006KT P6SM FEW035 FM281800 17012KT P6SM FEW080 FM290300 VRB08G20KT P6SM VCTS BKN030CB FM290700 35006KT P6SM VCSH OVC015 FM291100 32008KT P6SM OVC010
KICT,KICT 280705Z 2807/2906 14006KT 4SM BR SKC TEMPO 2807/2809 3SM BR FM281500 33010KT P6SM -RA BKN025 FM281800 34016G22KT P6SM -RA OVC015 FM282200 35018G26KT P6SM -RA OVC025 FM290300 36016KT P6SM BKN060
KIDA,KIDA 280520Z 2806/2906 04009KT P6SM FEW190 FM282100 24007KT P6SM SCT200 FM290200 VRB05KT P6SM SCT200
KIFP,KIFP 280520Z 2806/2906 VRB05KT P6SM FEW250 FM280900 02008KT P6SM FEW250 FM281200 35018G28KT P6SM SKC FM290200 01008KT P6SM SKC
KILG,KILG 280520Z 2806/2906 09007KT P6SM OVC040 FM280800 08010KT P6SM OVC025 FM281100 09012G19KT P6SM OVC020 FM281400 09015G25KT 5SM -RA BR OVC015 FM281800 09018G28KT 3SM RA BR OVC008 FM290100 09020G30KT 3SM RA BR OVC005
KILM,KILM 280706Z 2807/2906 16007KT 6SM -SHRA BR SCT020 BKN060 TEMPO 2810/2814 3SM SHRA BR BKN015 OVC040 FM281400 22012KT P6SM VCSH BKN015 FM281800 23013G18KT P6SM BKN045 FM290100 22007KT P6SM BKN250
KILN,KILN 280804Z 2808/2906 05008KT 3SM -RA BR OVC006 TEMPO 2808/2810 2SM -RA BR OVC004 FM281000 07007KT 3SM BR VCSH OVC006 FM281500 VRB05KT P6SM OVC012 FM281900 21007KT P6SM VCSH BKN015 FM282200 26007KT P6SM BKN022 FM290400 24007KT 6SM BR OVC008
KIND,KIND 280520Z 2806/2912 05012KT 5SM -SHRA BR SCT020 OVC035 FM280700 04012KT 5SM -SHRA BR SCT009 OVC022 FM281000 03009KT 6SM -SHRA BR OVC009 FM281300 01010KT P6SM VCSH OVC006 FM281700 34009KT P6SM OVC007 FM290900 27005KT P6SM BKN045
KINK,KINK 280520Z 2806/2906 25011KT P6SM BKN250 FM281400 35014G24KT P6SM FEW250 FM281600 36020G32KT P6SM FEW250 FM281900 36026G37KT P6SM BKN050
KINL,KINL 280535Z 2806/2906 05007KT P6SM BKN040 FM281100 04004KT P6SM OVC035 FM281400 04007KT P6SM OVC015 FM281900 03005KT P6SM OVC035
KINS,TAF KINS 280448Z 2805/2911 25010KT 9999 FEW250 QNH2991INS BECMG 2809/2810 03011KT 9999 FEW250 QNH2996INS BECMG 2815/2816 05015G23KT 9999 FEW250 QNH3005INS BECMG 2820/2821 10010G21KT 9999 FEW250 QNH3000INS BECMG 2823/2824 12008KT 9999 FEW250 QNH3001INS BECMG 2903/2904 VRB06KT 9999 FEW250 QNH3007INS TX30/2822Z TN13/2813Z
KINT,KINT 281013Z 2810/2906 17012KT 6SM -SHRA BR OVC007 FM281300 22007KT P6SM OVC007 FM281600 25008KT P6SM OVC015 FM281900 23008KT P6SM BKN050 PROB30 2822/2902 2SM TS BKN025CB FM290400 34003KT P6SM BKN050
KINW,KINW 280520Z 2806/2906 27008G14KT P6SM FEW250 FM281400 32011G17KT P6SM SKC FM281600 36014G21KT P6SM SKC FM290200 35008KT P6SM SKC
KIPL,KIPL 280520Z 2806/2906 VRB04KT P6SM SKC FM282200 04005KT P6SM SKC FM290100 VRB04KT P6SM SKC
KIPT,KIPT 280912Z 2809/2906 10003KT P6SM OVC025 FM281200 11010G17KT 6SM BR OVC015 FM281600 10011G19KT 3SM -RA BR OVC007
KISM,KISM 280543Z 2806/2906 22009KT P6SM FEW100 SCT190 BKN250 FM281200 22005KT P6SM SCT025 BKN080 FM281500 23009KT P6SM VCTS SCT035CB BKN080 TEMPO 2816/2819 3SM TSRA BKN030CB FM282100 25011KT P6SM VCSH SCT080 BKN200 FM290200 21004KT P6SM SCT100 SCT250
KISO,KISO 280832Z 2809/2906 12007KT 5SM RA BR VCTS SCT015 SCT035 OVC100CB FM281200 15007KT 5SM SHRA BR OVC025 FM281700 20006KT P6SM SCT024 BKN030 FM282300 VRB04KT P6SM FEW030 BKN130 AMD LTD TO CLD VIS AND WIND
KISP,KISP 280833Z 2809/2906 VRB03KT 6SM BR SCT010 SCT050 BKN250 TEMPO 2809/2812 5SM BR BKN010 FM281200 10008KT P6SM SCT010 SCT050 BKN200 FM281500 12013G19KT P6SM SCT060 BKN150 FM290000 09013G20KT P6SM SCT040 BKN070 OVC120 FM290500 08016G23KT 5SM -RA BR SCT010 OVC020
KITH,KITH 280859Z 2809/2906 13005KT P6SM BKN250 TEMPO 2813/2817 BKN025 FM281800 14010G18KT P6SM OVC045 FM290000 12014G21KT P6SM -RA OVC040 FM290200 12016G23KT P6SM -RA OVC025 FM290400 12017G26KT P6SM -RA OVC015
KIWA,KIWA 280520Z 2806/2906 23006KT P6SM FEW250 FM280700 12007KT P6SM SKC FM281800 36010KT P6SM SKC FM290300 03004KT P6SM SKC AMD LTD TO CLD VIS AND WIND TIL 281200
KIWD,KIWD 280526Z 2806/2906 13006KT P6SM -SHRA OVC035 FM280700 13007KT 6SM -SHRA BR OVC029 FM280900 12006KT 6SM BR VCSH OVC018 FM282100 36009KT 3SM -SHRA BR BKN009 FM290300 01007KT 1 1/2SM -SHRA BR OVC004 FM290500 35006KT 3/4SM -SHRA BR OVC003
KIXD,KIXD 280520Z 2806/2906 22005KT P6SM OVC080 FM281500 30007KT P6SM BKN050 OVC090 FM282000 30009KT P6SM VCSH SCT030 BKN040 FM282200 31010G20KT 6SM -SHRA VCTS SCT025 BKN040CB FM290200 34015KT P6SM BKN025
KJAC,KJAC 280520Z 2806/2906 01009KT P6SM FEW100 SCT200 FM281200 VRB06KT P6SM SCT200
KJAN,KJAN 280532Z 2806/2906 22003KT P6SM SKC FM281200 27003KT P6SM BKN006 FM281500 31004KT P6SM BKN011 FM281800 30005KT P6SM SCT250
KJAX,KJAX 280918Z 2809/2906 19003KT 5SM BR FEW010 BKN250 FM281400 23010G15KT P6SM VCSH BKN025 FM281600 22012G20KT P6SM TSRA BKN020CB OVC100 FM281900 22010KT P6SM OVC050
KJBR,KJBR 280520Z 2806/2906 35008KT 5SM BR OVC004 TEMPO 2809/2812 1SM BR FM281500 34005KT P6SM OVC015 FM282000 VRB03KT P6SM BKN050 FM290000 00000KT P6SM FEW050 BKN100
KJCT,KJCT 280542Z 2806/2906 VRB05KT P6SM SKC FM281400 21012G22KT P6SM FEW250 FM282000 31018G30KT P6SM VCTS BKN050CB FM290200 35015G25KT P6SM SCT035 BKN050
KJEF,KJEF 280520Z 2806/2906 VRB03KT P6SM SCT080 FM281500 34006KT P6SM FEW050 SCT090
KJER,KJER 280520Z 2806/2906 28012KT P6SM FEW200 FM281600 10009KT P6SM SKC FM290300 VRB05KT P6SM SKC
KJFK,KJFK 280833Z 2809/2912 08005KT P6SM SCT010 BKN050 BKN250 TEMPO 2809/2812 BKN010 FM281400 10010KT P6SM SCT010 BKN050 BKN200 FM281600 11016G21KT P6SM SCT060 BKN150 FM290000 08016G23KT P6SM SCT030 BKN060 OVC120 FM290200 08018G25KT 5SM -RA BR SCT010 OVC020 FM290600 08022G30KT 3SM RA BR SCT008 OVC015
KJHW,KJHW 280859Z 2809/2906 12009KT P6SM BKN050 FM281200 12011G17KT P6SM OVC020 FM281700 13015G22KT P6SM -RA OVC025 FM281900 12016G24KT 4SM RA BR OVC007
KJKA,KJKA 281006Z 2810/2906 22004KT 4SM BR OVC009 FM281300 25006KT P6SM BKN015 BKN250 FM281700 25011KT P6SM SCT015 SCT250
KJKL,KJKL 280548Z 2806/2906 VRB03KT P6SM OVC035 TEMPO 2806/2810 OVC020 FM281000 VRB03KT P6SM OVC030 FM281600 27004KT P6SM VCTS SCT030CB BKN150 FM282300 28004KT P6SM SCT030
KJLN,KJLN 281011Z 2810/2906 VRB03KT 1/2SM FG OVC003 TEMPO 2810/2813 1/4SM FG OVC002 FM281500 VRB04KT P6SM SCT015 OVC025 FM281800 VRB05KT P6SM BKN050 FM290300 32006KT P6SM BKN025
KJMS,KJMS 280521Z 2806/2906 32009KT P6SM OVC080 FM280900 34015KT P6SM BKN060 FM281500 34012KT P6SM BKN025 FM281900 33014KT P6SM BKN035 FM290200 31007KT P6SM BKN060
KJST,KJST 280912Z 2809/2906 12011KT P6SM OVC007 FM281200 10009G17KT 2SM -RA BR OVC007 FM282100 10015G22KT 4SM -RA BR OVC007
KJVL,KJVL 280920Z 2809/2906 11006KT P6SM FEW250 FM281600 07006KT P6SM SCT250
KJXN,KJXN 280544Z 2806/2906 06006KT P6SM SKC FM281300 07008KT P6SM -SHRA OVC035 FM281400 09008KT 6SM -SHRA BR OVC018 FM281500 09009KT 4SM -SHRA BR OVC009 FM281700 07009KT 3SM -SHRA BR OVC006 FM282000 06014G25KT 3SM -SHRA BR OVC007
KJZI,KJZI 280722Z 2807/2906 15010KT P6SM VCSH SCT008 BKN012 TEMPO 2807/2809 4SM -SHRA BKN008 FM280900 16008KT P6SM BKN006 TEMPO 2809/2811 4SM BR BKN005 FM281330 24009KT P6SM SCT008 BKN014 FM281800 22010G17KT P6SM SCT025 BKN040 FM290000 21007KT P6SM BKN150
KLAF,KLAF 280520Z 2806/2906 09007KT 6SM -SHRA BR OVC060 FM281100 03010G18KT 6SM -SHRA BR OVC022 FM281300 02012KT P6SM VCSH OVC013 FM282000 35013KT P6SM OVC009 FM290500 30006KT P6SM BKN017
KLAL,KLAL 280543Z 2806/2906 VRB05KT P6SM SCT100 FM281200 22008KT P6SM VCSH SCT040 BKN140 FM281500 25008G14KT 6SM -TSRA BKN035CB BKN150 FM282100 25008KT P6SM SCT030 BKN200 FM290500 20005KT P6SM SCT020 BKN200
KLAN,KLAN 280544Z 2806/2906 09005KT P6SM SKC FM281500 07008KT 6SM BR VCSH OVC015 FM281800 08009KT 3SM -SHRA BR OVC013 FM281900 07011G19KT 3SM -SHRA BR OVC008 FM282100 07012G23KT 4SM -SHRA BR OVC011 FM282200 07013G23KT 4SM -SHRA BR OVC009
KLAR,KLAR 280520Z 2806/2906 33012G22KT P6SM -SN OVC040 TEMPO 2806/2809 3SM -SN BR OVC018 FM281400 33020G30KT P6SM BKN050 FM290000 30012KT P6SM SCT050
KLAS,KLAS 280520Z 2806/2912 25007KT P6SM SCT250 FM281100 01011KT P6SM FEW250 FM281400 03014G23KT P6SM FEW250 FM282300 06007KT P6SM FEW250 FM290400 30006KT P6SM FEW250
KLAW,KLAW 280520Z 2806/2906 32006KT P6SM SKC FM281000 05006KT P6SM BKN060 FM281800 03012KT P6SM OVC025 FM282000 35016G22KT 6SM BR OVC015
KLAX,KLAX 280859Z 2809/2912 VRB03KT 3SM -DZ BR SCT002 OVC005 FM281700 26006KT 3SM BR OVC007 FM281900 26010KT P6SM BKN009 FM282200 26010KT P6SM FEW010 FM290100 26010KT 5SM BR BKN007 FM290800 26006KT 2SM BR OVC005
KLBB,KLBB 280520Z 2806/2906 23008KT P6SM FEW080 FEW250 FM281100 01020G30KT 6SM BLDU FEW012 FM281400 36030G42KT 6SM BLDU BKN020 FM290100 01011KT P6SM SCT250
KLBE,KLBE 281006Z 2810/2906 11010KT 6SM -RA OVC025 FM281200 11025G35KT 4SM -RA BR OVC025 FM281600 11025G35KT P6SM -SHRA OVC022 FM290000 12015G30KT 6SM BR VCSH OVC018
KLBF,KLBF 280607Z 2806/2906 34022G36KT P6SM OVC015 FM281600 35023G35KT P6SM OVC030 FM282100 35018G29KT P6SM SCT070 FM290200 35008KT P6SM FEW250
KLBL,KLBL 280532Z 2806/2906 35012KT P6SM BKN050 FM281100 36027G36KT P6SM OVC017 FM281700 36026G35KT P6SM BKN040 FM290200 36013KT P6SM FEW250
KLBT,KLBT 280958Z 2810/2906 16006KT 6SM -SHRA BR SCT006 BKN030 OVC070 FM281200 18007KT P6SM BKN006 OVC012 FM281500 25010KT P6SM BKN025 FM281700 24010G15KT P6SM BKN040 FM290100 23005KT P6SM BKN250
KLBX,KLBX 281011Z 2810/2906 VRB04KT P6SM SKC TEMPO 2811/2813 2SM BR FM281300 VRB04KT 6SM BR FEW020 FM281700 16011KT P6SM FEW040 FM290400 15008KT P6SM VCTS BKN015CB
KLCH,KLCH 280520Z 2806/2906 VRB04KT P6SM SCT035 FM280800 00000KT 5SM BR FEW025 TEMPO 2809/2813 2SM BR FM281400 VRB05KT P6SM FEW035 FM282000 16007KT P6SM SCT035
KLCK,KLCK 280520Z 2806/2906 08009KT 6SM -RA SCT025 OVC040 FM280800 09011KT 4SM RA BR OVC022 FM281300 12006KT 5SM BR VCSH OVC007 FM281600 15006KT P6SM VCSH OVC015 FM281900 18006KT P6SM -SHRA VCTS BKN025CB TEMPO 2819/2822 4SM -TSRA FM282300 21007KT P6SM VCSH BKN035 FM290200 23008KT P6SM BKN025
KLEB,KLEB 280842Z 2809/2906 00000KT 1/4SM FG OVC001 FM281200 00000KT P6SM BKN003 FM281300 VRB03KT P6SM SKC FM281700 17007KT P6SM FEW040 FM290000 VRB03KT P6SM SCT200
KLEE,KLEE 280543Z 2806/2906 18009KT P6SM VCSH SCT009 FM280900 21005KT P6SM BKN060 FM281400 22008KT P6SM VCTS SCT035CB BKN080 TEMPO 2815/2818 3SM TSRA BKN030CB FM281900 22008KT P6SM VCSH BKN080 FM290200 22007KT P6SM SCT100 SCT250
KLEX,KLEX 280520Z 2806/2906 14007KT 5SM -RA BR BKN006 FM280800 16004KT 4SM BR VCSH BKN005 FM281300 21006KT P6SM BKN008 FM281600 23010KT P6SM BKN016 FM282100 26012KT P6SM BKN035
KLFI,TAF COR KLFI 281000Z 2810/2915 12015G25KT 9000 -RA OVC020 QNH2992INS BECMG 2815/2816 11015G25KT 6000 RA OVC005 QNH2990INS BECMG 2823/2824 13015G25KT 9000 -RA BKN010 OVC015 QNH2986INS BECMG 2914/2915 14015G20KT 9999 NSW SCT020 BKN025 QNNH2982INS TX20/2823Z TN14/2912Z
KLFK,KLFK 280521Z 2806/2906 00000KT P6SM SKC FM280900 00000KT 2SM BR SKC FM281400 15004KT P6SM SKC FM281800 15007KT P6SM FEW250 FM290000 12004KT P6SM VCTS BKN040CB BKN250 TEMPO 2902/2906 VRB15G25KT 2SM -TSRA OVC040CB
KLFT,KLFT 280520Z 2806/2906 00000KT P6SM SCT035 FM280800 00000KT 5SM BR FEW025 TEMPO 2809/2813 2SM BR FM281400 VRB04KT P6SM FEW035 FM282000 16006KT P6SM SCT035
KLGA,KLGA 280833Z 2809/2912 09007KT P6SM SCT010 BKN050 BKN250 TEMPO 2809/2810 BKN012 FM281400 09011KT P6SM SCT010 BKN050 BKN200 FM281600 09016G21KT P6SM SCT060 BKN150 FM290000 08016G23KT P6SM SCT030 BKN060 OVC120 FM290200 07018G25KT 5SM -RA BR SCT010 OVC020 FM290600 08023G31KT 3SM RA BR SCT008 OVC015
KLGB,KLGB 280908Z 2809/2906 VRB03KT 5SM BR OVC010 FM281800 20006KT 6SM BR SCT015 FM282000 20008KT P6SM SKC FM290000 29008KT P6SM SKC FM290400 VRB03KT P6SM BKN005
KLGU,KLGU 280658Z 2807/2906 07006KT P6SM SKC FM281200 VRB04KT P6SM FEW250
KLIT,KLIT 280520Z 2806/2906 VRB04KT 5SM BR OVC009 TEMPO 2809/2813 3SM BR OVC004 FM281600 VRB06KT P6SM BKN020 OVC035 FM281800 VRB06KT P6SM OVC035 FM290000 VRB05KT P6SM SCT035 OVC100
KLLQ,KLLQ 280752Z 2808/2906 VRB03KT 1SM BR BKN002 OVC015 FM281600 33004KT P6SM BKN015 FM281900 29004KT P6SM SCT050 FM290000 VRB04KT P6SM BKN250
KLMT,KLMT 280520Z 2806/2906 04005KT P6SM SKC FM282200 18009G16KT P6SM SKC FM290100 18007KT P6SM SKC
KLND,KLND 280520Z 2806/2906 28007KT P6SM FEW100 SCT200 FM281100 VRB05KT P6SM SCT200
KLNK,KLNK 280520Z 2806/2906 19005KT P6SM OVC080 FM280800 30005KT P6SM OVC050 FM281200 33009KT 4SM -RA BR OVC015 FM281400 34015G25KT 2SM -RA BR OVC007 FM282000 35021G28KT P6SM OVC007 FM282100 36017G23KT P6SM OVC015 FM290100 35011KT P6SM OVC025 FM290200 35008KT P6SM BKN050 FM290300 34006KT P6SM SCT250
KLNS,KLNS 280912Z 2809/2906 11007KT P6SM OVC015 FM281200 11008KT 3SM -RA BR OVC007
KLOZ,KLOZ 280548Z 2806/2906 16004KT P6SM OVC035 TEMPO 2806/2810 OVC010 FM281000 19004KT P6SM OVC030 FM281600 25008KT P6SM VCTS SCT030CB BKN150 FM282300 26005KT P6SM SCT030
KLRD,KLRD 280526Z 2806/2906 VRB06KT P6SM FEW250 TEMPO 2810/2814 BKN015 FM281400 17011KT P6SM FEW250 FM281900 17015G20KT P6SM SKC FM290200 36015G25KT 6SM BR VCTS OVC030CB
KLRF,TAF AMD KLRF 281003Z 2810/2913 VRB06KT 9999 OVC015 QNH2972INS BECMG 2811/2812 VRB06KT 9999 OVC040 QNH2978INS BECMG 2814/2815 VRB06KT 9999 BKN060 QNH2977INS BECMG 2908/2909 VRB06KT 8000 -SHRA BKN030 QNH2979INS TX19/2820Z TN11/2812Z
KLRU,KLRU 280523Z 2806/2906 27010G20KT P6SM SKC FM281400 31012G22KT P6SM FEW250 FM281800 36020G30KT P6SM FEW250 FM290300 14007KT P6SM SKC
KLSE,KLSE 280520Z 2806/2906 17007KT P6SM BKN200 FM282100 22007KT P6SM VCSH SCT060 BKN100 FM290000 31009KT P6SM -SHRA BKN035
KLSF,TAF AMD KLSF 280251Z 2802/2903 13004KT 2000 BR FEW070 QNH2976INS BECMG 2803/2804 VRB03KT 0800 FG VV001 QNH2971INS TEMPO 2808/2812 0400 FG VV001 BECMG 2816/2817 26009KT 9999 NSW SCT030 BKN050 QNH2972INS BECMG 2901/2902 30005KT 9999 FEW050 QNH2975INS TX26/2821Z TN16/2811Z LAST NO AMDS AFT 2803 NEXT 2813
KLSV,TAF KLSV 280700Z 2807/2913 30006KT 9999 FEW250 QNH2985INS BECMG 2811/2812 01015G25KT 9999 FEW250 520009 QNH2996INS TEMPO 2813/2815 03020G35KT 530009 BECMG 2816/2817 03010G20KT 9999 FEW250 510009 QNH2994INS BECMG 2903/2904 36009KT 9999 FEW250 QNH2999INS TX32/2822Z TN17/2809Z
KLTS,TAF AMD KLTS 280930Z 2809/2915 04012G18KT 9999 FEW100 SCT130 BKN140 QNH2977INS BECMG 2811/2812 05010G15KT 9999 FEW050 QNH2977INS BECMG 2814/2815 04010G20KT 9999 BKN020 QNH2984INS BECMG 2817/2818 01015G25KT 8000 -SHRA OVC004 QNH2989INS BECMG 2820/2821 35020G35KT 9000 -DZ BKN025 OVC048 510003 QNH2994INS BECMG 2905/2906 33008KT 9999 NSW FEW060 QNH3003INS BECMG 2914/2915 35010G22KT 9999 SKC 510201 QNH3001INS TX13/2815Z TN03/2909Z
KLUF,TAF KLUF 280400Z 2804/2910 23009KT 9999 FEW250 QNH2975INS WND VRB06KT AFT 2806 BECMG 2818/2819 05010G15KT 9999 FEW250 QNH2986INS BECMG 2822/2823 05009KT 9999 FEW250 QNH2982INS TEMPO 2900/2902 05010G18KT TX35/2823Z TN13/2813Z
KLUK,KLUK 280858Z 2809/2906 VRB04KT 3SM BR VCSH OVC006 TEMPO 2809/2812 2SM BR OVC004 FM281500 21006KT P6SM OVC015 FM281800 24008KT P6SM VCSH BKN025 FM282100 27007KT P6SM SCT012 OVC020 FM290400 26006KT 6SM BR OVC012
KLVK,KLVK 280520Z 2806/2906 VRB03KT P6SM SKC FM282200 29009KT P6SM SKC FM290500 31005KT P6SM SKC
KLVM,KLVM 280520Z 2806/2906 27010KT P6SM FEW200 FM281100 30009KT P6SM SCT200 FM281600 26011KT P6SM SCT200
KLVS,KLVS 280541Z 2806/2906 30011KT P6SM SCT080 BKN250 FM280700 03016G28KT P6SM BKN070 FM280900 02025G35KT P6SM VCSH BKN025 TEMPO 2810/2814 5SM -SN BLSN FM281900 03015G25KT P6SM VCSH BKN035 FM290100 08012KT P6SM SCT040
KLWB,KLWB 280601Z 2806/2906 10007KT 5SM RA BR SCT007 OVC010 FM281200 07005KT 3SM -RA BR OVC007 FM281500 05005KT P6SM -RA OVC015 FM281900 11006KT P6SM VCSH OVC020
KLWS,KLWS 280520Z 2806/2906 VRB03KT P6SM FEW250 FM281500 06006KT P6SM SCT250 FM290000 17004KT P6SM SCT250
KLWT,KLWT 280826Z 2808/2906 VRB06KT P6SM FEW150 FEW250 FM281600 28009KT P6SM FEW150 SCT250
KLYH,KLYH 280601Z 2806/2906 09008KT 4SM RA BR BKN008 OVC012 FM280900 07011KT 2SM RA BR OVC006 FM281100 05014G20KT 1SM -RA BR OVC004 FM281600 03006KT 4SM -RA BR OVC007 FM281900 02006KT P6SM OVC015
KMAF,KMAF 280520Z 2806/2906 21011KT P6SM FEW250 FM281400 35015G24KT P6SM SCT250 FM281600 36024G36KT P6SM FEW250 FM281900 36027G38KT P6SM BKN050
KMBG,KMBG 280717Z 2807/2906 35007KT P6SM OVC110 FM281700 34016G24KT P6SM SCT070 FM290100 36010KT P6SM SCT150 FM290400 07004KT P6SM FEW200
KMBL,KMBL 280520Z 2806/2906 00000KT P6SM SCT250 FM281500 07007KT P6SM SCT150 BKN250 FM290000 10005KT P6SM SCT040 OVC080
KMBS,KMBS 280521Z 2806/2906 10007KT P6SM SCT250 FM280700 04007KT P6SM FEW070 OVC150 FM281200 06008KT P6SM BKN035 BKN060 FM281600 07010G24KT 6SM -SHRA OVC025 FM282200 09010G22KT 3SM -SHRA OVC012
KMCB,KMCB 281026Z 2810/2906 16003KT 1SM BR VV003 FM281230 29005KT 3SM BR FEW003 SCT025 FM281330 30006KT P6SM SKC
KMCC,KMCC 280523Z 2806/2906 VRB05KT P6SM SKC
KMCE,KMCE 280520Z 2806/2906 VRB04KT P6SM SKC
KMCF,TAF KMCF 280900Z 2809/2915 21009KT 9999 FEW015 SCT025 QNH2979INS BECMG 2818/2819 23010G15KT 9000 -SHRA SCT025 BKN030 QNH2976INS TEMPO 2819/2823 22015G25KT 8000 -TSRA SCT015CB BKN025 BECMG 2823/2824 23009KT 9999 NSW FEW010 SCT080 BKN200 QNH2980INS BECMG 2905/2906 21009KT 9999 SCT010 BKN015 QNH2976INS TX30/2819Z TN22/2810Z
KMCI,KMCI 280520Z 2806/2906 22005KT P6SM BKN080 FM281500 30007KT P6SM BKN050 OVC090 FM282000 30009KT P6SM VCSH SCT030 BKN040 FM282300 31010G20KT 6SM -SHRA VCTS SCT025 BKN040CB FM290200 34015KT P6SM BKN025
KMCK,KMCK 280520Z 2806/2906 36008KT P6SM BKN100 FM280700 34022G31KT P6SM VCSH OVC025 FM281400 35026G34KT P6SM BKN035 FM290100 36014KT P6SM FEW250
KMCN,KMCN 280838Z 2809/2906 17006KT P6SM OVC035 TEMPO 2809/2812 1SM BR OVC012 FM281300 19005KT 5SM BR BKN006 FM281600 23008KT P6SM BKN010 FM281800 23010KT P6SM BKN025 FM282000 25011KT P6SM SCT060 PROB30 2820/2823 4SM TSRA BR BKN035CB FM290300 30006KT P6SM FEW250
KMCO,KMCO 280901Z 2809/2912 18004KT P6SM BKN200 FM281300 20007KT P6SM SCT025 BKN080 FM281500 23009KT P6SM VCTS SCT035CB BKN080 TEMPO 2816/2819 3SM TSRA BKN030CB FM282100 25011KT P6SM VCSH SCT080 BKN200 FM290200 21004KT P6SM SCT100 SCT250
KMCW,KMCW 280520Z 2806/2906 17006KT P6SM BKN130 FM281700 27006KT P6SM BKN100 FM282200 32012KT P6SM -SHRA BKN030 FM290000 33014G20KT P6SM BKN014
KMDT,KMDT 280912Z 2809/2906 11007KT P6SM OVC015 FM281300 11008KT 3SM -RA BR OVC007
KMDW,KMDW 280832Z 2809/2912 07005KT P6SM OVC150 FM281500 03010KT P6SM BKN070 OVC150 FM290500 30004KT P6SM SCT250
KMEI,KMEI 280532Z 2806/2906 19005KT P6SM BKN040 FM281200 25004KT P6SM BKN007 FM281500 29006KT P6SM SCT015 FM281700 30005KT P6SM SCT250
KMEM,KMEM 280859Z 2809/2912 31005KT 4SM BR OVC006 FM281500 32005KT P6SM OVC015 FM282000 33006KT P6SM OVC025 FM290000 36003KT P6SM BKN050
KMER,KMER 280520Z 2806/2906 VRB04KT P6SM SKC AMD NOT SKED
KMEV,KMEV 280520Z 2806/2906 VRB05KT P6SM FEW250 FM281800 25008KT P6SM SCT250
KMFD,KMFD 280522Z 2806/2906 05006KT P6SM BKN080 OVC200 FM281000 11008KT P6SM -RA OVC023 FM281200 10013KT 5SM -RA BR OVC017 FM281600 12014G24KT P6SM OVC012 FM282100 13011G18KT 6SM -RA BKN008 FM290500 16010KT P6SM BKN008
KMFE,KMFE 280528Z 2806/2906 04003KT P6SM SKC FM280830 12005KT 6SM BR BKN025 TEMPO 2809/2813 3SM BR BKN010 FM281500 13007KT P6SM BKN020 FM281800 14011KT P6SM BKN050 FM290200 16009KT P6SM VCTS BKN035CB TEMPO 2903/2906 34020G35KT 2SM +TSRA BR OVC008CB
KMFR,KMFR 280520Z 2806/2906 00000KT P6SM SKC
KMGE,TAF AMD KMGE 280138Z 2801/2903 10007KT 9999 OVC007 QNH2981INS BECMG 2801/2802 11007KT 9999 OVC005 QNH2979INS BECMG 2804/2805 16007KT 3200 -RA BR OVC005 QNH2976INS BECMG 2806/2807 22007KT 4800 -SHRA BR VCTS BKN005 OVC015CB QNH2974INS BECMG 2810/2811 24007KT 3200 BR OVC007 QNH2977INS BECMG 2814/2815 25007KT 8000 BR OVC012 QNH2979INS BECMG 2815/2816 27012G18KT 9999 NSW BKN020 BKN050 QNH2980INS BECMG 2823/2824 29009KT 9999 SCT050 QNH2982INS TX24/2820Z TN15/2812Z LAST NO AMDS AFT 2803 NEXT 2811
KMGM,KMGM 281017Z 2810/2906 18005KT P6SM OVC015 FM281500 26008KT P6SM SCT025 FM281800 26008KT P6SM FEW040 FM290000 28003KT P6SM SKC
KMGW,KMGW 280527Z 2806/2906 11010G20KT P6SM -RA OVC035 FM281300 11015G30KT 6SM -SHRA BR OVC028 FM281800 11015G25KT P6SM VCSH OVC035 FM282300 12010G18KT 5SM -SHRA BR OVC018
KMHK,KMHK 280536Z 2806/2906 21005KT P6SM OVC070 FM281400 29005KT P6SM VCSH SCT025 BKN035 FM281700 32007KT 5SM -SHRA BR SCT011 BKN020 FM282300 35011KT P6SM SCT012 BKN022
KMHR,KMHR 280523Z 2806/2906 VRB05KT P6SM SKC
KMHT,KMHT 280842Z 2809/2906 VRB03KT 6SM BR FEW002 FM281100 00000KT 2SM BR SCT002 FM281300 11004KT P6SM SKC FM281800 14008KT P6SM SKC FM290000 14004KT P6SM BKN150
KMIA,KMIA 280840Z 2809/2912 16006KT P6SM SCT015 BKN050 TEMPO 2809/2812 BKN015 FM281400 17011G20KT P6SM SCT035 SCT060 FM281900 19011G20KT P6SM VCTS SCT025CB BKN050 FM290000 17005KT P6SM SCT050
KMIB,TAF KMIB 280900Z 2809/2915 34009KT 9999 FEW050 BKN090 QNH3004INS BECMG 2812/2813 30009KT 9999 BKN015 620207 QNH3007INS BECMG 2816/2817 32010G15KT 9999 SCT015 BKN030 620309 QNH2996INS BECMG 2900/2901 28009KT 9999 BKN050 620507 QNH2989INS BECMG 2909/2910 32012KT 9999 SCT015 SCT080 QNH2991INS BECMG 2913/2914 33020G30KT 9999 SCT080 510002 QNH2999INS TX12/2822Z TNM01/2812Z
KMIV,KMIV 280520Z 2806/2906 09007KT P6SM OVC040 FM281000 08010KT P6SM OVC025 FM281300 10014G23KT P6SM OVC020 FM281600 10018G28KT 5SM -RA BR OVC008 FM281800 09020G30KT 3SM RA BR OVC008 FM290100 09020G30KT 3SM RA BR OVC005
KMKC,KMKC 280520Z 2806/2906 22005KT P6SM BKN080 FM281500 30007KT P6SM BKN050 OVC090 FM282000 30009KT P6SM VCSH SCT030 BKN040 FM282300 31010G20KT 6SM -SHRA VCTS SCT025 BKN040CB FM290200 34015KT P6SM BKN025
KMKE,KMKE 280920Z 2809/2912 VRB04KT P6SM FEW250 FM281500 05007KT P6SM BKN250 FM290200 02005KT P6SM BKN250
KMKG,KMKG 280544Z 2806/2906 13004KT P6SM SKC FM281300 07008KT P6SM BKN200 FM281800 07009KT P6SM BKN035 FM281900 06009KT P6SM VCSH OVC025
KMKL,KMKL 280558Z 2806/2906 00000KT P6SM SCT090 FM280900 26003KT P6SM OVC007 TEMPO 2809/2813 1SM BR OVC004 FM281300 32007KT P6SM OVC007 FM281600 31006KT P6SM OVC018 FM282100 32006KT P6SM BKN050 FM290100 00000KT P6SM SCT050 BKN250
KMKT,KMKT 280520Z 2806/2906 11007KT P6SM -SHRA OVC090 FM281200 34008KT P6SM -SHRA OVC050 FM281500 34011KT P6SM -SHRA BKN012 OVC050 FM282100 34014G22KT P6SM -SHRA OVC012 FM290300 34011KT P6SM BKN035
KMLB,KMLB 280543Z 2806/2906 28007KT P6SM BKN120 FM281000 VRB03KT P6SM BKN080 FM281600 23012G18KT P6SM VCTS SCT035CB BKN080 TEMPO 2817/2820 3SM TSRA BKN030CB FM282100 22010G18KT P6SM VCSH BKN080 FM290200 21004KT P6SM SCT100 SCT250
KMLC,KMLC 280804Z 2808/2906 00000KT P6SM OVC026 TEMPO 2810/2814 1/2SM FG VV002 FM281500 06005KT P6SM BKN020 FM281800 06006KT P6SM SCT025 BKN035 PROB30 2900/2906 4SM TSRA BR OVC015CB
KMLI,KMLI 280520Z 2806/2906 VRB04KT P6SM FEW250
KMLS,KMLS 280520Z 2806/2906 31009KT P6SM VCSH SCT050 BKN090 FM280800 28007KT P6SM FEW060 SCT120 FM281800 31010G18KT P6SM SCT200 FM290200 29008KT P6SM BKN200
KMLU,KMLU 280521Z 2806/2906 26005KT P6SM SKC FM280900 VRB03KT 4SM BR SCT003 SCT035 TEMPO 2812/2815 BKN003 FM281500 32005KT P6SM SCT007 FM281600 VRB05KT P6SM SCT250
KMMH,KMMH 280520Z 2806/2906 27008KT P6SM SCT220 FM281600 VRB04KT P6SM FEW250 FM282200 25007KT P6SM SCT250
KMMT,TAF AMD KMMT 281017Z 2810/2913 20009KT 8000 -SHRA OVC005 QNH2973INS TEMPO 2810/2812 BKN015 BECMG 2811/2812 VRB06KT 8000 BR OVC006 QNH2976INS BECMG 2815/2816 26012KT 9000 BR BKN021 QNH2978INS BECMG 2818/2819 25012KT 9999 NSW SCT029 QNH2972INS BECMG 2821/2822 23010G15KT 9999 SCT035 QNH2970INS BECMG 2901/2902 VRB06KT 9999 FEW029 QNH2975INS TX25/2821Z TN19/2810Z
KMOB,KMOB 281008Z 2810/2906 27005KT 4SM BR OVC003 FM281300 32004KT P6SM SCT015 BKN250 FM281800 27007KT P6SM FEW250 FM290000 21005KT P6SM SKC
KMOD,KMOD 280523Z 2806/2906 33006KT P6SM SKC
KMOT,KMOT 280521Z 2806/2906 34008KT P6SM OVC090 FM281300 32008KT P6SM BKN012 FM281700 32011KT P6SM BKN025 FM281900 28008KT P6SM BKN050 FM290200 19006KT P6SM BKN080
KMPV,KMPV 280906Z 2809/2906 00000KT P6SM SKC TEMPO 2809/2812 1/4SM FZFG VV002 FM281500 14009KT P6SM FEW050 FEW240
KMQY,KMQY 280902Z 2809/2906 34009KT 6SM SHRA VCTS SCT025CB SCT040 BKN050 FM281500 29007KT P6SM VCSH OVC015 FM281800 26008KT P6SM OVC025 FM282100 30007KT P6SM OVC050 FM290000 29007KT P6SM SCT050
KMRB,KMRB 280906Z 2809/2906 11009KT 6SM -RA BKN020 OVC030 FM281100 12009KT 6SM -RA BKN008 OVC015 FM281400 11017G26KT 3SM RA BKN008 OVC015 FM282000 08016G25KT 3SM RA BR SCT004 BKN008 OVC015 FM290500 08010KT 3SM RA BR OVC003
KMRY,KMRY 280520Z 2806/2906 00000KT 1SM BR OVC002 FM281600 VRB03KT 6SM BR FEW007 FM282100 30007KT P6SM FEW200 FM290300 VRB03KT P6SM FEW006
KMSL,KMSL 280717Z 2807/2906 VRB02KT 6SM BR SCT005 OVC015 TEMPO 2807/2810 2SM BR OVC005 FM281400 28007KT P6SM OVC025 FM282000 29005KT P6SM SCT025 BKN090
KMSN,KMSN 280920Z 2809/2906 14006KT P6SM FEW250 FM281600 07006KT P6SM SCT250
KMSO,KMSO 280520Z 2806/2906 VRB04KT P6SM SCT120
KMSP,KMSP 280900Z 2809/2912 02007KT P6SM -RA OVC080 FM281500 36008KT P6SM -RA SCT018 OVC050 FM281700 35010KT P6SM -SHRA OVC015 FM290200 35011KT P6SM BKN025
KMSS,KMSS 280530Z 2806/2906 09004KT P6SM SCT100
KMSY,KMSY 281025Z 2810/2912 30007KT P6SM FEW060 FM290000 18005KT P6SM SKC
KMTC,TAF AMD KMTC 272100Z 2721/2823 13010G15KT 9000 BR SKC QNH3004INS BECMG 2812/2813 13010G15KT 9999 NSW SCT100 QNH2990INS BECMG 2815/2816 12015G25KT 4800 -SHRA OVC050 QNH2992INS TEMPO 2816/2823 09025G35KT 3000 TSRA OVC020CB TX13/2722Z TN08/2807Z LAST NO AMDS AFT 2803 NEXT 2811
KMTH,KMTH 280531Z 2806/2906 15007KT P6SM FEW020 FEW060 FM281600 20007KT P6SM FEW020
KMTJ,KMTJ 280907Z 2809/2906 30013KT P6SM VCSH FEW030 SCT035 BKN100 FM281100 31012G21KT P6SM SCT150 FM281400 31009KT P6SM FEW250 FM290100 36012KT P6SM FEW250 FM290300 04007KT P6SM FEW250
KMTN,KMTN 280534Z 2806/2906 10006KT P6SM BKN015 OVC050 FM280900 09008KT P6SM SCT008 OVC015 FM281000 10015G26KT 5SM -RA BR BKN008 OVC015 FM281600 09018G34KT 3SM RA BR BKN008 OVC015 FM290400 09014G23KT 3SM -RA BR OVC003 AMD NOT SKED
KMTW,KMTW 280743Z 2808/2906 10003KT P6SM SCT120 BKN250 TEMPO 2808/2812 3SM BR FM281200 08007KT P6SM BKN250
KMUI,TAF KMUI 280300Z 2803/2909 12006KT 9999 BKN040 QNH3008INS BECMG 2811/2812 09012KT 8000 -RA BKN015 QNH3008INS BECMG 2817/2818 09012KT 8000 -RA OVC010 QNH3001INS BECMG 2906/2907 09012KT 8000 -RA BKN015 QNH2974INS TX13/2803Z TN09/2810Z LAST NO AMDS AFT 2803 NEXT 2811
KMUO,TAF KMUO 281000Z 2810/2916 08010G18KT 9999 FEW060 QNH3021INS BECMG 2813/2814 10015G25KT 9999 FEW070 510009 QNH3020INS BECMG 2817/2818 10010G15KT 9999 SKC QNH3006INS BECMG 2901/2902 VRB06KT 9999 FEW200 QNH3006INS TX23/2823Z TN05/2813Z
KMVN,KMVN 280633Z 2807/2906 04008KT 6SM BR VCSH SCT025 OVC035 TEMPO 2807/2810 OVC025 FM281000 36009KT P6SM OVC020 FM281700 35009KT P6SM BKN025 FM282000 34009KT P6SM BKN040 FM282200 35006KT P6SM SCT080 FM290100 VRB03KT P6SM SKC
KMWH,KMWH 280520Z 2806/2906 03003KT P6SM SCT250 FM281800 07005KT P6SM SCT250 FM290300 01004KT P6SM FEW250
KMXF,TAF KMXF 271900Z 2719/2901 VRB06KT 8000 BR OVC100 QNH2972INS TEMPO 2719/2801 BKN008 TEMPO 2719/2801 BKN010 BECMG 2800/2801 VRB06KT 9999 NSW SCT006 QNH2967INS BECMG 2805/2806 VRB06KT 8000 -SHRA BKN007 QNH2970INS BECMG 2812/2813 VRB06KT 8000 BR OVC001 QNH2972INS BECMG 2814/2815 28010G15KT 8000 BR FEW007 QNH2976INS BECMG 2900/2901 VRB06KT 9999 NSW FEW035 QNH2976INS TX24/2721Z TN16/2802Z LAST NO AMDS AFT 2803 NEXT 2811
KMYL,KMYL 280520Z 2806/2906 VRB04KT P6SM SCT200
KMYR,KMYR 280538Z 2806/2906 14009KT 6SM -SHRA BR SCT020 BKN070 TEMPO 2806/2810 3SM SHRA BR BKN020 OVC040 FM281300 24012KT P6SM VCSH BKN015 FM281700 22014G20KT P6SM BKN040 FM290100 22008KT P6SM BKN250
KNBC,TAF KNBC 2809/2909 VRB06KT 9999 BKN010 OVC030 QNH2975INS BECMG 2815/2816 24010KT 9999 BKN015 OVC050 QNH2973INS BECMG 2821/2822 22012G22KT 9999 VCTS BKN015CB OVC030 QNH2971INS AUTOMATED SENSOR METWATCH TIL 2811 T20/2809Z T27/2819Z
KNBG,TAF KNBG 2807/2907 VRB06KT 9999 SCT030 BKN080 OVC250 QNH2972INS TEMPO 2812/2815 6000 BR BKN015 OVC050 FM282100 32008KT 9999 FEW120 SCT250 QNH2975INS FM290400 VRB06KT 6000 BR SCT010 BKN050 OVC120 QNH2978INS TEMPO 2904/2907 3200 BR BKN008 OVC030 AUTOMATED SENSOR METWATCH 2807 TIL 2811 TX26/2820Z TN21/2811Z FN00172
KNCA,TAF KNCA 2809/2909 19012KT 6000 -RA BR BKN010 BKN030 OVC070 QNH2974INS TEMPO 2809/2812 21015G25KT 1600 RA BR BKN005 OVC050 FM281200 20015G25KT 6000 -RA BR VCTS BKN010CB OVC065 QNH2968INS TEMPO 2812/2817 VRB18G30KT 4800 TSRA BR BKN007CB OVC040 BECMG 2819/2821 23012G22KT 9999 VCSH BKN020 OVC050 QNH2967INS AUTOMATED SENSOR METWATCH 2805 TIL 2811 T18/2809Z T25/2819Z
KNEW,KNEW 281029Z 2810/2906 30010KT P6SM SKC FM290300 18005KT P6SM SKC
KNFG,TAF KNFG 2809/2909 VRB05KT 9000 BR OVC004 QNH2990INS TEMPO 2809/2814 1600 BR OVC002 FM281430 VRB05KT 4800 BR OVC007 QNH2994INS FM281730 25006KT 9999 NSW FEW010 QNH2993INS BECMG 2819/2821 27010KT 9999 SKC QNH2991INS BECMG 2901/2903 VRB05KT 9999 SCT010 QNH2996INS FM290400 VRB05KT 9999 BKN008 QNH2996INS T13/2814Z T24/2821Z
KNFL,TAF KNFL 2807/2907 VRB06KT 9999 SCT220 QNH2999INS AUTOMATED SENSOR METWATCH 2807 TIL 2815 TX29/2900Z TN08/2813Z FS30202
KNFW,TAF COR KNFW 2808/2907 VRB06KT 9999 FEW040 QNH2970INS BECMG 2813/2815 15010KT 9999 SCT020 BKN170 QNH2971INS BECMG 2816/2818 16010G15KT 9999 BKN035 BKN170 QNH2963INS FM282000 34015G25KT 8000 SHRA OVC020CB OVC120 QNH2960INS TEMPO 2820/2823 VRB40G50KT 0400 +TSRAGR OVC005CB AUTOMATED SENSOR METWATCH 2807 TIL 2811 TX25/2821Z TN12/2812Z COR 0832 FN00172
KNGP,TAF AMD KNGP 2810/2907 16011KT 6000 BR FEW008 SCT014 SCT250 QNH2973INS TEMPO 2810/2816 VRB04KT 1600 BR BKN005 BKN010 FM281700 14015G23KT 9999 SCT020 BKN040 QNH2969INS FM282100 14018G25KT 9999 FEW025 SCT250 QNH2963INS FM290200 17014G22KT 9999 VCTS FEW015 SCT050CB SCT180 BKN250 QNH2965INS TEMPO 2902/2905 VRB25G45KT 1200 +TSRA BR SCT008 BKN012 OVC050CB FM290500 34022G34KT 4800 TSRA BR SCT004 BKN008 OVC030CB 520009 QNH2973INS AUTOMATED SENSOR METWATCH 2810 TIL 2811 TX28/2819Z TN18/2907Z AMD 1000 FN20061
KNGU,TAF COR KNGU 2808/2907 08013G18KT 9999 SCT040 BKN050 OVC100 640909 641805 QNH2991INS TEMPO 2808/2809 6000 -SHRA BR BKN015 OVC040 FM280900 11013G23KT 8000 -SHRA SCT009 BKN015 OVC030 WS020/14045KT 640909 641805 540009 540909 QNH2976INS TEMPO 2809/2812 11020G30KT 2400 +SHRA OVC005 FM281200 12018G28KT 8000 -SHRA BKN015 OVC030 WS020/14045KT 640909 641805 540009 540909 QNH2972INS TEMPO 2812/2817 3200 +SHRA OVC010 FM281800 16018G28KT 6000 SHRA BKN010CB OVC035 600000 540009 540909 QNH2968INS TEMPO 2818/2900 VRB25G35KT 1600 TSRA BKN005CB OVC025 FM290100 VRB06KT 9999 SCT015 BKN040 OVC080 500000 QNH2972INS TX21/2820Z TN15/2809Z COR 0803 FN00172
KNHK,TAF KNHK 2807/2907 09013G18KT 9999 VCSH SCT008 SCT055 BKN100 QNH2995INS TEMPO 2807/2811 6000 -SHRA BKN008 BKN060 OVC090 FM281200 10018G23KT 6000 -SHRA SCT010 BKN035 OVC070 QNH2992INS TEMPO 2812/2818 09020G35KT 3200 SHRA BKN005 OVC020 FM281900 09020G30KT 8000 -SHRA BKN010 OVC025 QNH2974INS TEMPO 2819/2901 1600 +SHRA OVC005 FM290200 12018G28KT 6000 SHRA SCT010 BKN035 OVC070 QNH2970INS TEMPO 2902/2907 3200 +SHRA BKN008 OVC025 AUTOMATED SENSOR METWATCH 2807 TIL 2808 TX17/2823Z TN14/2810Z FN00172
KNID,TAF KNID 2723/2823 12007KT 9999 BKN250 QNH2985INS WND 20007KT AFT 2804 BECMG 2813/2815 VRB04KT 9999 FEW250 QNH2995INS WND 12006KT AFT 2819 LAST NO AMDS AFT 2805 NEXT 0115 T13/2813Z T34/2823Z
KNIP,TAF COR KNIP 2808/2907 VRB06KT 9999 SCT025 BKN080 BKN250 QNH2975INS FM280900 20010KT 9999 SCT010 BKN040 OVC210 QNH2973INS FM281200 24010G15KT 9999 VCSH SCT015CB BKN035 OVC120 QNH2978INS TEMPO 2812/2818 VRB20G30KT 4800 TSRA BKN015CB OVC025 FM281900 15008G13KT 9999 FEW025 SCT050 BKN180 OVC210 QNH2981INS FM290600 15010G15KT 9999 SCT020 BKN035 OVC150 QNH2983INS AUTOMATED SENSOR METWATCH 2807 TIL 2809 TX26/2821Z TN19/2811Z COR 0825 FN00172
KNJK,TAF KNJK 2807/2907 26009KT 9999 FEW250 QNH2972INS FM281800Z VRB06KT 9999 FEW250 QNH2978INS AUTOMATED SENSOR METWATCH 2807 TIL 2813 TX36/2821Z TN19/2812Z FS30205
KNKT,TAF KNKT 2809/2909 19012KT 6000 -RA BR BKN010 BKN030 OVC070 QNH2974INS TEMPO 2809/2812 21015G25KT 1600 RA BR BKN005 OVC050 FM281200 20015G25KT 6000 -RA BR VCTS BKN010CB OVC065 QNH2968INS TEMPO 2812/2817 VRB18G30KT 4800 TSRA BR BKN007CB OVC040 BECMG 2819/2821 23012G22KT 9999 VCSH BKN020 OVC050 QNH2967INS T18/2809Z T25/2819Z
KNKX,TAF KNKX 2809/2909 VRB03KT 8000 BR OVC005 QNH2990INS TEMPO 2809/2815 0800 FG VV002 FM281500 VRB03KT 4800 BR OVC003 QNH2993INS BECMG 2816/2818 30008KT 9999 SKC QNH2991INS BECMG 2902/2904 28005KT 8000 OVC005 QNH2994INS T11/2813Z T21/2821Z
KNLC,TAF KNLC 2807/2907 30007KT 9999 SCT220 QNH2983INS TEMPO 2807/2813 VRB06KT AUTOMATED SENSOR METWATCH 2807 TIL 2814 TX36/2823Z TN14/2813Z FS30202
KNMM,TAF KNMM 2807/2907 VRB06KT 8000 BR SCT010 BKN035 OVC050 QNH2968INS TEMPO 2807/2811 3200 BR BKN010 OVC025 FM281500 28010KT 9999 SCT030 BKN080 OVC120 QNH2974INS FM290500 VRB06KT 9999 SCT080 BKN150 OVC210 QNH2976INS AUTOMATED SENSOR METWATCH 2807 TIL 2811 TX27/2821Z TN20/2811Z COR 0932 FN00259
KNPA,TAF KNPA 2807/2907 VRB06KT 8000 BR SCT008 SCT250 QNH2972INS TEMPO 2809/2815 3200 BR BKN005 FM281500 22010KT 9999 SCT030 SCT250 QNH2976INS FM290300 VRB06KT 6000 BR BKN015 OVC035 QNH2973INS TEMPO 2903/2907 3200 BR OVC008 AUTOMATED SENSOR METWATCH 2807 TIL 2811 TX26/2820Z TN18/2812Z FN00172
KNQI,TAF AMD KNQI 2809/2907 VRB06KT 8000 BR SCT003 SCT015 OVC080 QNH2970INS TEMPO 2809/2812 1600 BR OVC003 BKN010 OVC025 FM281300 15007KT 3200 BR BKN008 BKN015 QNH2974INS FM281500 17012G18KT 9999 SCT025 QNH2976INS FM281800 13017G25KT 9999 SCT040 SCT250 QNH2967INS FM290200 15018G28KT 9999 BKN010 BKN250 QNH2965INS FM290500 33018G25KT 9999 VCTS SCT008 BKN015CB OVC100 QNH2964INS TEMPO 2905/2907 VRB35G50KT 1600 +TSRAGR BKN005 OVC015CB AUTOMATED SENSOR METWATCH 2807 TIL 2812 TX32/2820Z TN18/2812Z AMD 0929 FN00259
KNQX,TAF KNQX 2807/2907 13012KT 9999 FEW025 SCT250 QNH2982INS FM281200 17013G18KT 9999 SCT025 QNH2980INS FM290300 VRB06KT 9999 FEW030 QNH2981INS AUTOMATED SENSOR METWATCH 2807 TIL 2810 TX30/2819Z TN25/2811Z FN00172
KNRB,TAF COR KNRB 2808/2907 VRB06KT 9999 SCT030 BKN070 OVC150 QNH2974INS FM280900 21008KT 9999 SCT020 BKN050 OVC120 QNH2976INS FM281200 23008G13KT 9999 VCSH SCT010CB BKN035 OVC120 QNH2978INS TEMPO 2812/2818 VRB20G30KT 4800 TSRA BKN010CB OVC025 FM282000 15015G20KT 9999 FEW025 SCT050 BKN180 OVC210 QNH2981INS FM290600 16013G18KT 9999 SCT020 BKN035 OVC150 QNH2983INS AUTOMATED SENSOR METWATCH 2807 TIL 2809 TX29/2819Z TN20/2811Z COR 0824 FN00172
KNSE,TAF KNSE 2807/2907 VRB06KT 4800 BR OVC006 QNH2973INS TEMPO 2806/2812 0800 FG VV003 FM281500 25010KT 9999 FEW010 SCT030 SCT100 QNH2979INS FM282100 26010G15KT 9999 SCT035 BKN250 QNH2976INS FM290300 VRB06KT 4800 BR BKN010 OVC025 QNH2973INS TEMPO 2903/2907 0800 FG VV002 AUTOMATED SENSOR METWATCH 2807 TIL 2811 TX28/2819Z TN19/2812Z FN00172
KNTD,TAF KNTD 2807/2907 VRB06KT 4800 BR OVC004 QNH2989INS TEMPO 2811/2815 2400 BR OVC002 FM281600Z VRB06KT 8000 BR BKN004 QNH2992INS TEMPO 2818/2822 3200 BR FM290000Z 29010KT 9999 SCT006 QNH2990INS BECMG 2902/2904 VRB05KT 3200 BR OVC004 QNH2991INS AUTOMATED SENSOR METWATCH 2807 TIL 2813 TX17/2820Z TN11/2813Z FS30205
KNTU,TAF KNTU 2807/2907 10013G18KT 9999 SCT040 OVC090 640909 641805 QNH2991INS TEMPO 2807/2809 6000 -SHRA BR BKN015 OVC040 FM280900 10018G23KT 8000 -SHRA SCT009 BKN015 OVC030 WS020/16045KT 641109 540009 540909 QNH2976INS TEMPO 2809/2812 10025G35KT 2400 +SHRA OVC005 FM281200 12025G35KT 8000 -SHRA BKN015 OVC030 WS020/16045KT 641109 540009 540909 QNH2972INS TEMPO 2812/2817 3200 +SHRA OVC010 FM281800 14028G30KT 6000 SHRA BKN010CB OVC035 600000 540009 540909 QNH2968INS TEMPO 2818/2900 VRB30G40KT 1600 TSRA BKN005CB OVC025 FM290100 VRB06KT 9999 SCT015 BKN040 OVC080 500000 QNH2972INS TX21/2819Z TN14/2810Z FN00172
KNUC,TAF KNUC 2723/2823 27009KT 9999 OVC005 QNH2991INS FM280600 VRB06KT 6000 BR OVC003 QNH2988INS TEMPO 2806/2811 3200 BR OVC001 FM281100 28007KT 3200 BR OVC001 QNH2987INS TEMPO 2813/2817 6000 BR OVC003 FM281700 28009KT 8000 BR OVC005 QNH2993INS FM282000 28009KT 9999 OVC007 QNH2994INS LAST NO AMDS AFT 2801 NEXT 2815 TX16/2821Z TN10/2812Z FS30210
KNUW,TAF KNUW 2807/2907 00000KT 9999 SCT250 QNH3007INS BECMG 2809/2811 VRB06KT 3200 BR BKN020 QNH3004INS TEMPO 2811/2817 00000KT 0400 FG VV002 FM281700 27007KT 9999 FEW250 QNH2987INS FM290600 VRB06KT 9999 SKC QNH2986INS TX18/2822Z TN08/2812Z FS30202
KNXP,TAF KNXP 2809/2909 VRB06KT 9999 SKC QNH2996INS BECMG 2819/2821 05008KT QNH3000INS BECMG 2823/2901 VRB06KT QNH2995INS T18/2812Z T34/2823Z
KNYG,TAF KNYG 2809/2909 05010KT 8000 -RA BR SCT015 BKN030 OVC040 QNH2975INS TEMPO 2815/2821 08014G24KT 6000 -RA BR BECMG 2903/2905 VRB06KT 6000 FG BKN030 OVC060 QNH2972INS AUTOMATED SENSOR METWATCH 2723 TIL 2812 T14/2809Z T16/2818Z
KNYL,TAF KNYL 2809/2909 17005KT 9999 SKC QNH2975INS BECMG 2817/2819 22008KT 9999 SKC QNH2974INS FM290300 VRB06KT 9999 SKC QNH2979INS AUTOMATED SENSOR METWATCH 2806 TIL 2814 T18/2813Z T38/2823Z
KNZY,TAF KNZY 2807/2907 34006KT 8000 BR OVC008 QNH2988INS TEMPO 2809/2815 3200 BR OVC005 FM281800Z 30009KT 9999 SCT015 SCT250 QNH2989INS FM290400Z VRB06KT 8000 BR BKN010 QNH2991INS TX19/2820Z TN13/2813Z FS30205
KOAJ,KOAJ 280829Z 2808/2906 15006KT 5SM RA BR VCTS SCT025 OVC035CB FM281300 16007KT 5SM BR VCSH OVC020 FM281600 18007KT P6SM BKN025 BKN030 FM282200 23006KT P6SM SCT030 BKN100 AMD LTD TO CLD VIS AND WIND
KOAK,KOAK 280520Z 2806/2912 VRB04KT P6SM FEW010 FM281300 28004KT 4SM BR SCT010 FM281800 31011KT P6SM FEW200 FM290400 30006KT P6SM FEW200 FM291000 VRB04KT P6SM FEW010
KOFF,TAF KOFF 281000Z 2810/2916 VRB06KT 9000 -SHRA SCT070 BKN140 QNH2976INS BECMG 2811/2812 VRB06KT 9000 -SHRA BKN030 OVC035 QNH2976INS BECMG 2815/2816 30009KT 9999 NSW BKN015 OVC020 QNH2984INS BECMG 2817/2818 30009KT 9999 VCSH BKN015 OVC020 QNH2985INS BECMG 2821/2822 34015G25KT 9999 VCSH BKN015 OVC020 QNH2989INS BECMG 2903/2904 34012KT 9999 NSW SCT020 QNH2995INS BECMG 2907/2908 31009KT 9999 FEW030 QNH2993INS TX14/2816Z TN03/2910Z
KOFK,KOFK 281035Z 2811/2906 32018G25KT P6SM -RA OVC009 FM281700 34023G29KT P6SM OVC015 FM282200 35015G22KT P6SM BKN050 FM290200 35009KT P6SM SKC
KOGB,KOGB 280843Z 2809/2906 19004KT 4SM BR OVC007 FM281500 23006KT P6SM BKN015 FM281900 25009KT P6SM BKN035 FM290000 VRB03KT P6SM FEW200
KOGD,KOGD 280540Z 2806/2906 03018G32KT P6SM FEW090 FEW250 FM280800 02007KT P6SM FEW100 FEW250 FM281000 13008KT P6SM FEW250 FM281800 28006KT P6SM SCT250
KOKC,KOKC 280520Z 2806/2906 VRB03KT P6SM SCT060 SCT250 FM281000 10004KT 4SM BR BKN250 TEMPO 2810/2814 1SM BR OVC015 FM281400 04008KT P6SM BKN010 FM281800 01010G18KT 4SM BR OVC015 FM290000 36018G23KT 4SM BR OVC007
KOLF,KOLF 280520Z 2806/2906 VRB06KT P6SM BKN080 FM281800 28012G20KT P6SM BKN110 FM290300 VRB06KT P6SM BKN180
KOLM,KOLM 280520Z 2806/2906 03005KT P6SM SCT250 FM281200 VRB03KT P6SM SCT250 FM281600 03006KT P6SM SCT250 FM290300 VRB03KT P6SM SCT250
KOLS,KOLS 280520Z 2806/2906 VRB03KT P6SM FEW250 FM282000 35014G22KT P6SM SKC
KOMA,KOMA 280520Z 2806/2906 18007KT P6SM OVC080 FM281200 32005KT P6SM OVC050 FM281400 33008KT 4SM -RA BR OVC015 FM281700 33012G18KT 4SM -RA BR OVC007 FM282200 34017G24KT P6SM OVC015 FM290000 34012KT P6SM OVC015 FM290200 34007KT P6SM OVC050
KONP,KONP 280537Z 2806/2906 04003KT P6SM SKC FM281100 07003KT 5SM BR SCT003 FM282100 22008KT P6SM SCT100 FM290400 21010KT 4SM BR SCT005
KONT,KONT 280520Z 2806/2912 VRB04KT P6SM SKC FM281300 VRB04KT 5SM HZ SKC FM281800 VRB04KT P6SM SKC FM282100 25012G18KT P6SM SKC FM290400 VRB04KT P6SM SKC
KOPF,KOPF 280840Z 2809/2906 16006KT P6SM SCT015 BKN050 FM281400 19010G20KT P6SM SCT035 SCT060 FM281900 19012G25KT P6SM VCTS SCT025CB BKN050 FM290000 17005KT P6SM SCT050
KORD,KORD 280832Z 2809/2912 07005KT P6SM OVC150 FM281500 04010KT P6SM BKN070 OVC150 FM290500 30004KT P6SM SCT250
KORF,KORF 281014Z 2810/2906 09012G18KT 6SM -RA SCT020 OVC045 FM281200 10015G24KT 4SM RA BR OVC010 FM281500 11017G27KT 4SM RA BR OVC007 FM281900 10014G22KT 5SM -SHRA BR OVC006 FM282100 10013G20KT 6SM -SHRA BR OVC005 FM290100 11008KT 5SM BR BKN006
KORH,KORH 280531Z 2806/2906 26005KT P6SM FEW250 FM280900 31003KT P6SM SCT250 FM281200 04005KT P6SM SCT250 FM281500 13008KT P6SM BKN250 FM290000 14004KT P6SM BKN250
KOTH,KOTH 280520Z 2806/2906 36011KT 5SM BR OVC004 FM280800 33006KT 1/2SM FG OVC003 FM281900 27006KT 4SM BR OVC007 FM282100 27005KT P6SM SCT010
KOTM,KOTM 280520Z 2806/2906 15004KT P6SM BKN240 FM281200 28004KT P6SM SCT080 FM282200 30007KT P6SM SCT070
KOUN,KOUN 280520Z 2806/2906 VRB04KT P6SM SCT060 SCT250 FM281000 10004KT 4SM BR BKN250 TEMPO 2810/2814 1SM BR OVC010 FM281400 02008KT P6SM BKN010 FM281800 34010G18KT 4SM BR OVC015 FM290000 34018G23KT 4SM BR OVC007
KOWB,KOWB 280638Z 2807/2906 05008KT 6SM BR BKN006 OVC012 TEMPO 2807/2811 SCT006 OVC012 FM281500 32008KT P6SM OVC015 FM282000 31009KT P6SM BKN026 FM282200 31009KT P6SM SCT040 FM290100 30005KT P6SM FEW120
KOXR,KOXR 280549Z 2806/2906 VRB03KT 2SM BR OVC002 FM280900 VRB03KT 1/2SM FG VV002 FM281500 VRB03KT 2SM BR OVC004 FM281700 25006KT 5SM BR OVC006 FM281900 27008KT P6SM BKN008 FM282200 27010KT P6SM SCT010 FM290100 VRB03KT 4SM BR BKN005
KOZR,TAF KOZR 280200Z 2802/2908 VRB06KT 9999 FEW006 BKN015 QNH2978INS BECMG 2803/2804 VRB06KT 9999 FEW004 BKN006 OVC012 QNH2976INS TEMPO 2804/2808 4800 BR BKN004 BECMG 2807/2808 VRB06KT 4800 BR OVC004 QNH2978INS TEMPO 2810/2812 1600 BR BECMG 2812/2813 VRB06KT 9999 NSW BKN004 OVC007 QNH2980INS BECMG 2814/2815 VRB06KT 9999 BKN008 QNH2982INS BECMG 2816/2817 24006KT 9999 FEW030 QNH2980INS BECMG 2822/2823 VRB06KT 9999 SKC QNH2978INS TX28/2821Z TN17/2811Z LAST NO AMDS AFT 2806 NEXT 2810
KPAE,KPAE 280520Z 2806/2906 35005KT P6SM SCT250 FM281200 VRB03KT P6SM SCT250 FM281800 35006KT P6SM SCT250 FM290300 VRB03KT P6SM SCT250
KPAH,KPAH 280802Z 2808/2906 03004KT 3SM BR OVC003 TEMPO 2811/2813 OVC006 FM281300 33008KT 6SM BR OVC015 FM281800 34009KT P6SM BKN019 FM282200 35006KT P6SM SCT080 FM290100 VRB03KT P6SM SKC
KPAM,TAF AMD KPAM 280736Z 2807/2909 20010G15KT 9999 BKN010 QNH2978INS TEMPO 2811/2814 22012G18KT 6000 -SHRA VCTS BKN010CB BECMG 2815/2816 24009KT 9999 BKN015 QNH2977INS BECMG 2817/2818 23012KT 9999 SCT015 BKN030 QNH2981INS BECMG 2900/2901 23009KT 9999 SCT030 QNH2985INS TX25/2819Z TN21/2807Z
KPBF,KPBF 280649Z 2807/2906 VRB04KT 6SM BR OVC005 TEMPO 2809/2813 2SM BR OVC004 FM281600 VRB06KT P6SM BKN020 OVC035 FM281800 VRB06KT P6SM OVC035 FM290000 VRB05KT P6SM SCT035 OVC100
KPBG,KPBG 280530Z 2806/2906 00000KT P6SM SKC FM281200 12013KT P6SM FEW050 FEW230
KPBI,KPBI 280840Z 2809/2906 19007KT P6SM SCT015 BKN050 FM281400 19012G23KT P6SM SCT050 BKN100 FM281800 19013G25KT P6SM VCTS SCT025CB BKN050 FM290200 17005KT P6SM SCT050
KPDK,KPDK 281011Z 2810/2906 16004KT 5SM BR SCT012 BKN025 TEMPO 2810/2812 2SM BR OVC005 FM281300 19005KT 5SM BR BKN006 FM281600 23008KT P6SM BKN010 FM281800 23010KT P6SM BKN025 FM282000 25011KT P6SM SCT060 FM290300 30006KT P6SM FEW250
KPDT,KPDT 280520Z 2806/2906 VRB06KT P6SM SKC
KPDX,KPDX 280855Z 2809/2906 32004KT P6SM SKC FM281800 09010G18KT P6SM SKC FM290200 09005KT P6SM FEW250
KPEQ,KPEQ 280520Z 2806/2906 27005KT P6SM FEW250 FM281400 33018G27KT P6SM FEW250 FM281800 33026G38KT P6SM SCT060
KPGA,KPGA 280520Z 2806/2906 30008KT P6SM FEW250 FM280900 34008G16KT P6SM SCT250 FM281500 04012G22KT P6SM FEW250 FM282100 07008G14KT P6SM FEW250
KPGD,KPGD 280543Z 2806/2906 17005KT P6SM FEW050 SCT220 FM281300 22008KT P6SM BKN040 BKN250 FM281700 22008G15KT P6SM SCT035 SCT100 FM282100 24012KT P6SM SCT250 FM290000 29006KT P6SM SCT020 BKN150
KPGV,KPGV 280947Z 2810/2906 11007KT 6SM -RA BR SCT015 OVC070 FM281200 14007KT 6SM SHRA BR OVC030 FM281700 15005KT P6SM SCT025 BKN035 AMD LTD TO CLD VIS AND WIND
KPHF,KPHF 281016Z 2810/2906 09013G20KT 6SM -RA BR SCT010 OVC040 TEMPO 2810/2812 3SM RA BR OVC010 FM281200 10016G25KT 3SM RA BR OVC007 FM281500 11017G27KT 4SM RA BR OVC006 FM281800 11014G23KT 5SM -SHRA BR OVC006 FM290000 09008KT 4SM BR OVC004
KPHL,KPHL 280833Z 2809/2912 08010KT P6SM OVC015 FM281200 09012G19KT P6SM OVC020 FM281500 09015G25KT 5SM -RA BR OVC015 FM281900 09015G25KT 3SM RA BR OVC008 FM290200 07018G28KT 3SM RA BR OVC005 FM290600 07020G30KT 3SM RA BR OVC005
KPHX,KPHX 280853Z 2809/2912 23004KT P6SM SKC FM281100 09005KT P6SM SKC FM281800 03010G17KT P6SM SKC FM290200 06006KT P6SM SKC
KPIA,KPIA 280520Z 2806/2906 VRB03KT P6SM BKN120 FM281500 36007KT P6SM SCT250 FM290100 VRB03KT P6SM SCT250
KPIB,KPIB 280532Z 2806/2906 00000KT P6SM BKN030 FM281200 29003KT 4SM BR BKN009 FM281300 30003KT P6SM BKN250
KPIE,KPIE 280543Z 2806/2906 VRB05KT P6SM -RA FEW100 FM280900 15005KT P6SM SCT050 SCT110 FM281200 20008G15KT 6SM SHRA SCT040 BKN060 FM281500 22012G20KT 6SM -TSRA BKN040CB BKN050 FM282100 24012KT P6SM SCT050 BKN120 FM290200 22004KT P6SM VCSH SCT030 BKN230
KPIH,KPIH 280520Z 2806/2906 07009KT P6SM FEW200 FM282100 22008KT P6SM SCT200 FM290200 12006KT P6SM SCT200
KPIR,KPIR 280825Z 2808/2906 34014KT P6SM OVC080 FM281400 33016G22KT P6SM SCT080 FM290200 34008KT P6SM FEW250 FM290500 26004KT P6SM FEW250
KPIT,KPIT 280934Z 2810/2912 12011KT P6SM -RA OVC045 FM281200 11015G25KT 5SM -RA BR OVC018 FM281600 11015G25KT P6SM -SHRA OVC018 TEMPO 2820/2824 BKN022 FM290000 13010G18KT 6SM BR VCSH OVC018
KPKB,KPKB 280900Z 2809/2906 08008KT 6SM RA BR OVC045 TEMPO 2809/2812 08008G16KT 3SM RA BR BKN025 FM281600 13007G14KT P6SM OVC027 FM282200 14006KT P6SM VCTS BKN035CB FM290200 18006KT P6SM VCTS BKN018CB
KPLN,KPLN 280520Z 2806/2906 00000KT P6SM BKN060 BKN120 FM281500 09009KT P6SM SCT150 BKN250 FM290000 11007KT P6SM BKN040 OVC080
KPMD,KPMD 280549Z 2806/2906 23006KT P6SM SKC FM281200 VRB03KT P6SM SKC FM281800 06008KT P6SM SKC FM290100 22010KT P6SM SKC
KPNA,KPNA 280520Z 2806/2906 31006KT P6SM FEW100 SCT200 FM281800 30009KT P6SM FEW200
KPNC,KPNC 280520Z 2806/2906 VRB03KT P6SM BKN060 FM281000 00000KT 3SM BR OVC004 FM281800 34009KT 4SM BR OVC007 FM282000 34013G18KT 4SM BR OVC007 FM290300 35007KT 4SM BR OVC015
KPNE,KPNE 280923Z 2809/2906 08008KT P6SM OVC008 FM281200 10012G19KT P6SM OVC020 FM281500 10014G23KT 5SM -RA BR OVC015 FM281900 10015G25KT 3SM RA BR OVC008 FM290200 09018G28KT 3SM RA BR OVC005
KPNS,KPNS 280520Z 2806/2906 23003KT P6SM SCT008 TEMPO 2809/2813 5SM BR BKN010 FM281300 28005KT P6SM BKN015 BKN250 FM281700 26011KT P6SM SCT015 SCT250
KPOB,TAF KPOB 280100Z 2801/2907 06005KT 9999 VCSH SCT012 OVC100 QNH2992INS BECMG 2802/2803 08004KT 8000 -RA BR BKN004 OVC010 QNH2990INS BECMG 2804/2805 11005KT 4800 -RA BR OVC003 540104 QNH2973INS TEMPO 2807/2810 16010G15KT 6000 -SHRA BR VCTS SCT004 BKN012CB BECMG 2809/2810 19010KT 9999 NSW BKN009 OVC015 540104 QNH2969INS BECMG 2813/2814 22010G15KT 9999 SCT010 BKN025 QNH2967INS BECMG 2817/2818 24011G16KT 9999 VCSH SCT015 BKN035 BKN050 QNH2965INS BECMG 2819/2820 23012G18KT 6000 -SHRA VCTS SCT030CB BKN090 BKN180 QNH2963INS BECMG 2822/2823 23009KT 9999 VCSH FEW030 BKN040 OVC080 QNH2963INS BECMG 2900/2901 23007KT 8000 -SHRA SCT025 BKN055 OVC070 QNH2971INS BECMG 2903/2904 23004KT 9999 NSW SCT015 BKN040 OVC055 QNH2970INS TX25/2820Z TN15/2810Z LAST NO AMDS AFT 2802 NEXT 2817
KPOE,TAF KPOE 280700Z 2807/2913 VRB06KT 9999 SKC QNH2980INS BECMG 2807/2808 VRB06KT 9999 SCT009 QNH2978INS TEMPO 2808/2810 4800 BR BECMG 2809/2810 VRB06KT 0800 FG OVC005 QNH2978INS TEMPO 2812/2814 9999 SCT009 BKN015 BECMG 2813/2814 VRB06KT 9999 NSW SCT009 BKN015 QNH2981INS BECMG 2817/2818 25007KT 9999 SKC QNH2978INS BECMG 2900/2901 VRB06KT 9999 SKC QNH2976INS TX24/2820Z TN11/2812Z
KPOU,KPOU 281034Z 2811/2906 00000KT P6SM BKN250 TEMPO 2811/2813 4SM BR OVC002 FM281300 VRB03KT P6SM SCT003 BKN200 FM281700 12006KT P6SM BKN050 BKN150 FM290000 05005KT P6SM BKN035 OVC050
KPQI,KPQI 280520Z 2806/2906 32003KT P6SM FEW080 FM281400 36004KT P6SM SKC FM282200 04003KT P6SM FEW060
KPRB,KPRB 280549Z 2806/2906 32006KT P6SM SKC FM282000 20007KT P6SM SKC FM290000 20015KT P6SM SKC FM290400 20008KT P6SM SKC AMD NOT SKED
KPRC,KPRC 280520Z 2806/2906 VRB06KT P6SM SKC FM281500 04009G16KT P6SM SKC FM290400 20006KT P6SM FEW250
KPSC,KPSC 280520Z 2806/2906 VRB06KT P6SM SKC FM281800 36003KT P6SM BKN250
KPSF,KPSF 280920Z 2809/2906 00000KT P6SM FEW250 TEMPO 2809/2812 1/4SM FG VV003 FM281500 12007KT P6SM SCT040 SCT250 FM290000 15004KT P6SM BKN040 BKN150
KPSM,KPSM 280842Z 2809/2906 00000KT 6SM BR FEW002 FM281200 VRB04KT P6SM SKC FM281800 13008KT P6SM SKC FM290000 VRB03KT P6SM BKN200
KPSP,KPSP 280520Z 2806/2906 33010KT P6SM SKC FM280700 VRB04KT P6SM SKC FM290200 33010KT P6SM SKC
KPTK,KPTK 280521Z 2806/2906 11007KT P6SM BKN250 FM280700 04007KT P6SM FEW070 OVC150 FM281400 07010G24KT 3SM -RA BR OVC007 TEMPO 2814/2818 2SM RA BR OVC004 FM282200 09010G22KT 5SM -SHRA OVC007
KPUB,KPUB 280529Z 2806/2906 36020G30KT P6SM VCSH SCT050 BKN090 TEMPO 2806/2809 -SHRA BKN040 FM280900 35025G35KT P6SM VCSH BKN050 BKN090 FM281500 34018G28KT P6SM SCT060 BKN100 FM282000 34013G23KT P6SM SCT100 SCT200 FM290100 30006KT P6SM FEW200
KPUW,KPUW 280520Z 2806/2906 VRB02KT P6SM SCT250 FM281500 12008KT P6SM SCT250 FM290100 20003KT P6SM SCT250
KPVD,KPVD 280808Z 2808/2906 00000KT P6SM BKN005 TEMPO 2808/2811 3SM BR FM281130 04003KT P6SM SCT250 FM281500 11007KT P6SM SCT250 FM281800 16010KT P6SM BKN250 FM290000 15005KT P6SM BKN250 FM290500 09004KT P6SM OVC150
KPVU,KPVU 280540Z 2806/2906 35016G22KT P6SM FEW250 FM281000 12009KT P6SM SKC FM281800 30006KT P6SM FEW250
KPVW,KPVW 280520Z 2806/2906 13009KT P6SM FEW080 SCT250 FM281000 02020G30KT 6SM BLDU SCT008 FM281300 01028G38KT 6SM BLDU OVC015 FM290100 01011KT P6SM SCT250
KPWM,KPWM 280842Z 2809/2906 VRB03KT P6SM SKC FM281700 16008KT P6SM SKC FM290000 VRB03KT P6SM SKC
KPWT,KPWT 280520Z 2806/2906 05006KT P6SM SCT250 FM281200 04006KT P6SM SCT200 FM281800 03008KT P6SM SCT200 FM290300 VRB03KT P6SM SCT200
KRAP,KRAP 280520Z 2806/2906 34020G30KT P6SM BKN035 FM281300 34018G28KT P6SM SCT060 FM282300 32011KT P6SM SCT250
KRBG,KRBG 280520Z 2806/2906 00000KT P6SM SKC
KRBL,KRBL 280523Z 2806/2906 VRB05KT P6SM SKC FM282200 16007KT P6SM SKC
KRCA,TAF KRCA 280300Z 2803/2909 34015G25KT 9999 VCSH OVC020 620209 QNH2994INS TEMPO 2803/2804 35025G35KT 520003 BECMG 2807/2808 33012G18KT 9999 NSW SCT040 QNH3008INS BECMG 2813/2814 34015G25KT 9999 SCT040 QNH3005INS TEMPO 2814/2817 BKN030 BECMG 2902/2903 28012G18KT 9999 FEW040 SCT220 QNH3012INS TX16/2821Z TN04/2812Z
KRDD,KRDD 280523Z 2806/2906 VRB05KT P6SM SKC FM282200 19006KT P6SM SKC
KRDG,KRDG 280520Z 2806/2906 10006KT P6SM OVC050 FM280900 09008KT P6SM OVC025 FM281200 08010G18KT P6SM OVC010 FM281600 08010G18KT 5SM -RA BR OVC008 FM282000 09010G18KT 3SM RA BR OVC008 FM290200 08015G25KT 3SM RA BR OVC008
KRDM,KRDM 280520Z 2806/2906 VRB06KT P6SM SKC FM282200 34009G15KT P6SM SKC
KRDR,TAF KRDR 281000Z 2810/2916 34012KT 9999 BKN040 OVC110 620404 QNH3000INS BECMG 2815/2816 33010G15KT 9999 BKN015 620404 QNH3001INS BECMG 2820/2821 33009KT 9999 BKN030 620505 QNH2983INS BECMG 2912/2913 VRB06KT 9000 -RA BKN007 BKN010 620509 QNH2983INS TX11/2821Z TN01/2811Z
KRDU,KRDU 281017Z 2810/2906 10008KT 6SM -RA BR BKN007 BKN015 OVC040 TEMPO 2811/2813 2SM SHRA FM281500 20004KT P6SM BKN015 FM281800 24008KT P6SM BKN050 PROB30 2900/2903 3SM TSRA BKN035CB
KRFD,KRFD 280832Z 2809/2906 07007KT P6SM SCT150 BKN250
KRHI,KRHI 280743Z 2808/2906 10004KT P6SM OVC090 FM281100 13005KT P6SM BKN110 FM290300 04005KT P6SM -SHRA BKN045
KRIC,KRIC 281011Z 2810/2906 09012G18KT 5SM -RA BR SCT008 OVC020 TEMPO 2810/2812 3SM -RA BR OVC008 FM281200 09013G22KT 3SM RA BR OVC007 FM282100 10008KT 4SM -SHRA BR OVC006 FM290000 10007KT 5SM -SHRA BR OVC006 FM290200 09005KT 5SM -SHRA BR OVC005
KRIL,KRIL 280822Z 2808/2906 28014KT P6SM VCSH BKN060 OVC080 FM281000 30011G20KT P6SM SCT130 FM281200 31008KT P6SM FEW250 FM282000 35010KT P6SM FEW250 FM290300 32009KT P6SM FEW250
KRIV,TAF KRIV 280400Z 2804/2910 32006KT 9999 FEW250 QNH2993INS BECMG 2805/2806 VRB04KT 9999 SKC QNH2989INS BECMG 2817/2818 36008KT 9999 SKC QNH2994INS BECMG 2819/2820 32009KT 9999 SKC 510005 QNH2990INS TEMPO 2821/2901 32012G20KT BECMG 2905/2906 VRB05KT 9999 FEW250 QNH2997INS TX32/2822Z TN09/2813Z
KRIW,KRIW 280520Z 2806/2906 VRB05KT P6SM FEW100 SCT200 FM282000 36007KT P6SM FEW200 FM290300 VRB06KT P6SM SCT180
KRKD,KRKD 280842Z 2809/2906 VRB03KT P6SM SKC FM281800 17008KT P6SM SKC
KRKS,KRKS 280520Z 2806/2906 05011KT P6SM SCT100 SCT200 FM280900 VRB06KT P6SM SCT200 FM281800 29008KT P6SM SCT180
KRME,KRME 280859Z 2809/2906 10005KT P6SM SCT250 FM290000 12006KT P6SM OVC100 FM290400 11009KT P6SM -RA OVC070
KRND,TAF KRND 280935Z 2810/2916 VRB05KT 4800 BR OVC005 QNH2973INS BECMG 2811/2812 19005KT 2400 BR BKN003 OVC007 QNH2974INS BECMG 2814/2815 18012KT 9999 NSW BKN010 BKN020 QNH2972INS BECMG 2815/2816 18012G20KT 9999 SCT030 QNH2966INS BECMG 2822/2823 18012G25KT 9999 VCTS SCT040CB SCT250 510004 QNH2962INS TEMPO 2823/2903 VRB25G45KT 1600 +TSRAGR BKN010CB OVC020 BECMG 2902/2903 36015G25KT 9999 VCSH OVC015 QNH2963INS BECMG 2903/2904 36010G20KT 9999 NSW SCT030 QNH2975INS BECMG 2914/2915 36015G30KT 9999 SKC QNH3000INS TX30/2822Z TN12/2910Z
KRNH,KRNH 280520Z 2806/2906 06007KT P6SM -SHRA OVC080 FM281800 36008KT P6SM -SHRA SCT020 OVC080 FM282100 35010KT P6SM -SHRA OVC015
KRNO,KRNO 280520Z 2806/2906 VRB05KT P6SM FEW250 FM281400 14007KT P6SM FEW250 FM290000 25008KT P6SM SCT250
KROA,KROA 280601Z 2806/2906 12010KT 4SM -RA BKN008 OVC012 TEMPO 2806/2809 6SM RA SCT008 OVC015 FM281000 09005KT 3SM -RA BR OVC009 FM281300 04005KT 5SM -RA BR OVC007 FM281600 01006KT P6SM OVC015
KROC,KROC 280859Z 2809/2906 12005KT P6SM SCT250 FM281300 13009KT P6SM BKN250 FM282200 12014G21KT P6SM -RA OVC035 FM290200 12015G23KT P6SM -RA OVC030 FM290400 12017G25KT P6SM RA OVC012
KROG,KROG 280657Z 2807/2906 00000KT 2SM BR BKN015 TEMPO 2807/2809 1/4SM FG VV001 FM280900 00000KT 2SM BR OVC009 TEMPO 2809/2813 1SM BR FM281500 06003KT P6SM OVC015 FM281800 04005KT P6SM SCT022 BKN035 PROB30 2900/2906 4SM -SHRA BKN009
KROW,KROW 280541Z 2806/2906 26008KT P6SM FEW100 FM280800 31010G20KT P6SM SCT080 SCT250 FM281100 36024G38KT P6SM BKN080 FM281900 02022G32KT P6SM VCSH BKN028 FM282300 36012G18KT P6SM SCT040 FM290200 01010KT P6SM FEW040
KRSL,KRSL 280520Z 2806/2906 24010KT P6SM -RA BKN070 FM281100 33018G24KT P6SM -RA BKN025 FM281300 34020G30KT P6SM -RA BKN015 FM282100 35021G34KT P6SM -RA OVC035 FM290000 36018G26KT P6SM BKN100
KRST,KRST 280520Z 2806/2906 17010KT P6SM BKN100 FM281500 21007KT P6SM SCT050 BKN100 FM281900 30012KT P6SM -SHRA BKN030 FM290100 33012KT P6SM VCSH BKN010
KRSW,KRSW 280543Z 2806/2906 32005KT P6SM SCT050 BKN120 FM281300 22010KT P6SM BKN040 OVC250 FM281600 24014G22KT P6SM BKN250 FM290000 VRB05KT P6SM SCT200
KRUT,KRUT 280530Z 2806/2906 12012KT P6SM SKC FM281900 16010G16KT P6SM FEW050 SCT200
KRVS,KRVS 280803Z 2808/2906 00000KT P6SM OVC035 TEMPO 2810/2813 1/2SM FG VV002 FM281600 05004KT P6SM OVC015 PROB30 2818/2824 4SM -SHRA BR BKN009 FM290000 35008KT P6SM OVC012
KRWF,KRWF 280842Z 2809/2906 35005KT 4SM -RA BR BKN004 OVC040 FM281100 35010KT P6SM -RA OVC008 FM281900 34014G22KT P6SM OVC018 FM290100 34007KT P6SM BKN035
KRWI,KRWI 281018Z 2810/2906 09007KT 5SM -RA BR BKN005 OVC015 TEMPO 2813/2815 2SM SHRA BR FM281500 20004KT P6SM BKN015 FM281800 24008KT P6SM BKN050 PROB30 2901/2904 3SM TSRA BKN035CB
KRWL,KRWL 280520Z 2806/2906 01013G23KT P6SM -SN OVC040 TEMPO 2806/2810 3SM -SN BR OVC015 FM281000 34011KT P6SM BKN040 FM281500 29015KT P6SM SCT080 FM290000 27010KT P6SM SCT080
KRYY,KRYY 280858Z 2809/2906 12004KT 5SM BR SCT025 BKN030 TEMPO 2809/2812 1SM BR BKN004 FM281300 19005KT 5SM BR BKN006 FM281600 23008KT P6SM BKN010 FM281800 23010KT P6SM BKN025 FM282000 25011KT P6SM SCT060 FM290300 30006KT P6SM FEW250
KSAC,KSAC 280523Z 2806/2906 21005KT P6SM SKC
KSAF,KSAF 280541Z 2806/2906 33010G18KT P6SM FEW090 BKN250 FM280800 01010KT P6SM SCT090 SCT250 FM281200 03030G45KT 6SM BLDU VCSH BKN035 FM281600 04015G25KT P6SM BKN040 FM282300 14010G18KT P6SM FEW050
KSAN,KSAN 280837Z 2809/2912 VRB04KT 6SM BR OVC007 TEMPO 2812/2816 4SM BR OVC005 FM281700 VRB04KT 6SM HZ SCT010 FM281900 29010KT P6SM SCT012 FM290300 VRB04KT 6SM BR OVC010 FM291000 VRB04KT 4SM BR OVC006
KSAT,KSAT 280927Z 2809/2912 17003KT P6SM BKN008 FM281200 20004KT 2SM BR BKN004 FM281500 19009KT P6SM BKN015 BKN250 FM281600 19012G22KT P6SM SCT040 SCT250 FM282300 17010G20KT 6SM TSRA BKN035CB TEMPO 2900/2902 VRB20G30KT 1SM TSRA BKN009CB FM290200 36013G23KT 6SM SHRA BKN025 OVC100 FM290400 35015G25KT P6SM SCT040 BKN150
KSAV,KSAV 280529Z 2806/2906 15008KT P6SM BKN008 TEMPO 2806/2807 BKN012 FM280900 21004KT 6SM BR BKN007 FM281500 23010KT P6SM SCT012 BKN020 FM281800 22010G17KT P6SM VCSH SCT025 BKN040 FM282300 20008KT P6SM BKN200
KSAW,KSAW 280845Z 2809/2906 06007KT 3SM BR VCSH OVC005 FM281200 14005KT 5SM BR BKN080 FM281300 14005KT P6SM BKN130 FM281900 13008KT P6SM SCT230 FM282300 08008KT P6SM SCT220
KSBA,KSBA 280549Z 2806/2906 VRB03KT 1/2SM FG VV002 FM281300 VRB03KT 1SM BR OVC003 FM281700 VRB03KT 4SM BR OVC005 FM282000 24006KT 6SM BR BKN007 FM282200 24008KT P6SM SCT010 FM290200 VRB03KT 4SM BR BKN005
KSBD,KSBD 280520Z 2806/2906 VRB04KT P6SM SKC FM282200 25010KT P6SM SKC FM290200 VRB04KT P6SM SKC
KSBM,KSBM 280920Z 2809/2906 VRB04KT P6SM SCT250 FM281600 07006KT P6SM BKN250
KSBN,KSBN 280547Z 2806/2906 08008KT P6SM SCT070 BKN150 FM281200 06008KT P6SM VCSH SCT025 BKN035 FM281500 03009KT P6SM -RA SCT015 BKN025 TEMPO 2816/2820 4SM BR BKN015 FM290000 35009KT P6SM BKN015
KSBP,KSBP 280812Z 2808/2906 VRB03KT 1/2SM FG VV002 FM281500 VRB03KT 2SM BR OVC003 FM281700 VRB03KT P6SM SKC FM282100 29007KT P6SM SKC FM290300 VRB03KT 4SM BR BKN003
KSBY,KSBY 281012Z 2810/2906 09010KT P6SM -RA SCT007 OVC060 TEMPO 2810/2812 4SM -RA BR OVC007 FM281200 09013G21KT 4SM -RA BR OVC008 FM281500 10018G31KT 3SM RA BR OVC007 FM282100 10020G33KT 4SM -SHRA BR OVC007 FM290300 10014G23KT 4SM -SHRA BR OVC005
KSCK,KSCK 280523Z 2806/2906 32006KT P6SM SKC
KSDF,KSDF 280909Z 2809/2912 36005KT 2SM -DZ BR BKN004 FM281300 32005KT 5SM BR BKN008 FM281600 26007KT P6SM BKN015 FM281800 28012KT P6SM BKN025 FM282200 28010KT P6SM BKN035
KSDL,KSDL 280520Z 2806/2906 VRB03KT P6SM FEW250 FM281400 05008KT P6SM SKC FM281900 02012G20KT P6SM SKC FM290100 05003KT P6SM SKC
KSDY,KSDY 280520Z 2806/2906 VRB06KT P6SM BKN060 FM281800 28010KT P6SM BKN090 FM290300 VRB06KT P6SM BKN090
KSEA,KSEA 280912Z 2809/2912 01008KT P6SM FEW250 FM281200 01008KT P6SM SCT250 FM282100 33007KT P6SM SCT250 FM290200 01004KT P6SM SCT250 FM290900 18007KT P6SM SCT250
KSEZ,KSEZ 280520Z 2806/2906 04008KT P6SM SKC FM281300 03014G32KT P6SM SKC FM281800 05016G26KT P6SM SKC FM290200 04008G15KT P6SM FEW250
KSFB,KSFB 280543Z 2806/2906 22009KT P6SM FEW100 SCT190 BKN250 FM281200 22005KT P6SM SCT025 BKN080 FM281500 23009KT P6SM VCTS SCT035CB BKN080 TEMPO 2816/2819 3SM TSRA BKN030CB FM282100 25011KT P6SM VCSH SCT080 BKN200 FM290200 21007KT P6SM SCT100 SCT250
KSFF,KSFF 280520Z 2806/2906 VRB03KT P6SM SCT250
KSFO,KSFO 280906Z 2809/2912 30009KT P6SM FEW006 FEW200 FM281200 29005KT 4SM BR SCT010 FM281600 VRB05KT P6SM FEW010 FM282200 30015KT P6SM SKC FM290800 29007KT P6SM FEW010
KSGF,KSGF 281012Z 2810/2906 VRB04KT 6SM BR BKN015 FM281500 VRB04KT P6SM SCT015 OVC025 FM281800 VRB05KT P6SM BKN050 FM290300 32006KT P6SM BKN025
KSGJ,KSGJ 280521Z 2806/2906 20005KT P6SM SCT030 FM281300 23010G16KT P6SM VCSH OVC020 FM281700 22008KT P6SM VCTS SCT030CB BKN050 FM290000 22008KT P6SM OVC050
KSGR,KSGR 280802Z 2808/2906 VRB03KT 6SM BR SKC TEMPO 2808/2812 3SM BR FM281400 17005KT P6SM FEW025 FM281900 17012KT P6SM FEW035 FM290300 14008KT P6SM VCTS BKN020CB FM290500 33007KT P6SM VCTS OVC012CB
KSGU,KSGU 280540Z 2806/2906 VRB05KT P6SM SKC FM280900 04015G25KT P6SM SKC FM281500 09010KT P6SM SKC FM282200 VRB05KT P6SM SKC
KSHR,KSHR 280520Z 2806/2906 29010KT P6SM SCT050 SCT090 FM281000 VRB06KT P6SM FEW100 FM281700 33010G18KT P6SM SCT200 FM290000 32008KT P6SM BKN200
KSHV,KSHV 280521Z 2806/2906 27004KT P6SM SKC FM280900 34004KT 3SM BR SKC FM281400 VRB05KT P6SM SKC FM290000 VRB03KT P6SM VCTS BKN040CB BKN100
KSJC,KSJC 280520Z 2806/2906 VRB04KT P6SM SKC FM282200 32012KT P6SM FEW200 FM290500 30005KT P6SM FEW200
KSJS,KSJS 280548Z 2806/2906 VRB03KT P6SM OVC040 FM281000 VRB03KT P6SM OVC030 FM281600 27004KT P6SM VCTS SCT030CB BKN150 FM282300 28004KT P6SM SCT030
KSJT,KSJT 280542Z 2806/2906 VRB06KT P6SM SKC TEMPO 2809/2812 20012KT FM281200 21015G25KT P6SM SKC FM281900 33025G35KT P6SM SKC FM290300 35015G25KT P6SM SCT025 BKN050
KSKA,TAF KSKA 280300Z 2803/2909 VRB06KT 9999 FEW220 QNH3021INS BECMG 2816/2817 06008KT 9999 FEW160 SCT240 QNH3009INS WND VRB06KT AFT 2901 TX22/2822Z TN05/2813Z
KSKF,TAF KSKF 281000Z 2810/2916 VRB06KT 9999 BKN010 OVC020 QNH2978INS TEMPO 2810/2813 6000 BR BKN007 BECMG 2814/2815 17012KT 9999 NSW FEW015 QNH2972INS BECMG 2816/2817 19015G25KT 9999 SCT030 QNH2972INS BECMG 2822/2823 17012G25KT 9999 VCTS SCT040CB SCT250 510004 QNH2960INS TEMPO 2900/2905 VRB25G50KT 1600 +TSRAGR BKN010CB OVC020 BECMG 2906/2907 35017G27KT 9999 VCSH OVC015 QNH2963INS BECMG 2909/2910 34012KT 9999 NSW BKN025 QNH2990INS TX31/2822Z TN17/2810Z
KSLC,KSLC 280818Z 2808/2912 VRB05KT P6SM FEW120 SCT200 FM281200 16006KT P6SM SKC FM281700 32009KT P6SM FEW250 FM290400 15006KT P6SM SCT250
KSLE,KSLE 280537Z 2806/2906 VRB04KT P6SM SKC FM281800 01008KT P6SM SCT250
KSLI,TAF KSLI 280500Z 2805/2911 VRB06KT 9999 SKC QNH2988INS TX22/2901Z TN11/2815Z
KSLK,KSLK 280530Z 2806/2906 00000KT P6SM SKC FM281400 13009KT P6SM FEW050 FEW230
KSLN,KSLN 280520Z 2806/2906 VRB03KT P6SM BKN050 FM281300 31010KT P6SM -RA OVC025 FM281600 34016G24KT P6SM -RA OVC025 FM282000 35020G30KT P6SM -RA OVC015 FM290000 36015G24KT P6SM OVC040
KSME,KSME 280548Z 2806/2906 16004KT 6SM BR OVC008 TEMPO 2806/2810 SCT010 OVC025 FM281000 16004KT P6SM OVC008 TEMPO 2810/2814 SCT010 OVC025 FM281600 25008KT P6SM VCTS SCT025CB BKN150 FM282300 26005KT P6SM SCT030
KSMF,KSMF 280523Z 2806/2906 18005KT P6SM SKC
KSMN,KSMN 280520Z 2806/2906 VRB04KT P6SM SKC
KSMO,KSMO 280549Z 2806/2906 VRB03KT 1SM BR OVC002 FM281400 VRB03KT 2SM BR OVC004 FM281700 VRB03KT 3SM BR OVC007 FM282000 23008KT P6SM BKN009 FM282200 23008KT P6SM SCT010 FM290200 VRB03KT 5SM BR BKN007
KSMX,KSMX 280549Z 2806/2906 VRB03KT 1SM BR OVC002 FM280800 VRB03KT 1/4SM FG VV002 FM281500 VRB03KT 2SM BR OVC003 FM281800 VRB03KT P6SM SKC FM282000 30009KT P6SM SKC FM290300 VRB03KT 4SM BR BKN003
KSNA,KSNA 280520Z 2806/2906 VRB04KT P6SM OVC008 FM280700 VRB04KT 3SM BR OVC005 FM281500 VRB04KT 5SM BR OVC009 FM281700 VRB04KT P6SM SCT010 FM282000 23008KT P6SM SKC FM290300 VRB04KT P6SM OVC008
KSNS,KSNS 280520Z 2806/2906 30005KT 4SM BR OVC002 FM281500 13007KT 6SM BR FEW010 FM282000 31014KT P6SM FEW200 FM290300 VRB03KT P6SM FEW006
KSNY,KSNY 280520Z 2806/2906 34025G35KT P6SM VCSH BKN040 TEMPO 2806/2809 4SM -RA BKN018 FM281200 35025G35KT P6SM BKN050 FM290000 33013KT P6SM SKC
KSOA,KSOA 280542Z 2806/2906 VRB05KT P6SM SKC FM281200 21012KT P6SM SKC FM281800 32012G22KT P6SM FEW150 SCT250 FM282200 35022G32KT P6SM SCT025 BKN150 FM290400 36020G30KT P6SM SCT015 OVC025 AMD NOT SKED
KSPI,KSPI 280520Z 2806/2906 VRB03KT P6SM BKN100 FM281500 34008KT P6SM BKN120 FM281900 35007KT P6SM SCT120 FM290100 VRB04KT P6SM SCT250
KSPS,KSPS 280520Z 2806/2906 08006KT P6SM SKC FM281400 07011KT P6SM BKN100 FM281800 03010G17KT P6SM OVC050 FM282100 01019G25KT 6SM BR OVC015 FM290000 36024G31KT 4SM BR OVC015 FM290300 36016KT P6SM OVC015
KSRB,KSRB 280031Z 2801/2824 15005KT P6SM VCSH BKN016 OVC022 FM280300 14006KT P6SM BKN007 TEMPO 2803/2806 2SM SHRA BR OVC004 FM280600 VRB04KT P6SM BKN005 FM281500 24005KT 6SM -SHRA OVC006 FM281700 25007KT P6SM VCSH BKN013 FM282300 28008KT P6SM SCT030
KSRQ,KSRQ 280543Z 2806/2906 14008KT P6SM SCT100 FM281200 21010G16KT 6SM SHRA SCT040 BKN100 FM281600 23010G16KT 6SM SHRA BKN040 OVC100 FM282100 24009KT P6SM SCT030 BKN200
KSSC,TAF AMD KSSC 280935Z 2809/2913 18006KT 9999 BKN005 QNH2974INS BECMG 2811/2812 23009KT 9999 BKN010 QNH2972INS BECMG 2813/2814 23010G15KT 9999 SCT010 BKN020 QNH2983INS BECMG 2815/2816 25010G15KT 9999 SCT020 QNH2986INS BECMG 2819/2820 25009KT 9999 BKN050 QNH2977INS TX27/2820Z TN16/2810Z
KSSF,KSSF 280927Z 2809/2906 15003KT P6SM BKN008 FM281200 19003KT 2SM BR BKN004 FM281500 18007KT P6SM BKN015 BKN250 FM281600 18010G20KT P6SM SCT040 SCT250 FM290000 16010G20KT 6SM TSRA BKN035CB TEMPO 2900/2902 VRB20G30KT 1SM TSRA BKN009CB FM290200 36010G20KT 6SM SHRA BKN025 OVC100 FM290400 35014G24KT P6SM SCT040 BKN150
KSSI,KSSI 280915Z 2809/2906 23005KT P6SM BKN250 FM281400 23009G15KT P6SM VCSH BKN025 FM281800 23010G20KT P6SM VCTS BKN020CB FM290000 22008KT P6SM OVC050
KSTC,KSTC 280750Z 2808/2906 06008KT P6SM -RA SCT007 OVC040 FM281100 01008KT P6SM -RA OVC008 FM282000 35008KT P6SM OVC018
KSTJ,KSTJ 280520Z 2806/2906 00000KT P6SM OVC080 FM281500 30007KT P6SM BKN050 OVC090 FM282000 30009KT P6SM VCSH SCT030 BKN040 FM282300 31010G20KT 6SM -SHRA VCTS SCT025 BKN040CB FM290200 34015KT P6SM BKN025
KSTL,KSTL 280858Z 2809/2912 VRB04KT P6SM OVC070 FM281500 34006KT P6SM SCT045 FM290100 28005KT P6SM SCT180
KSTS,KSTS 280520Z 2806/2906 14005KT P6SM SKC FM281400 00000KT 5SM BR FEW005 FM281700 17008KT P6SM FEW200
KSUA,KSUA 280543Z 2806/2906 23006KT P6SM SCT024 BKN030 OVC120 FM280900 VRB03KT P6SM VCSH SCT025 BKN050 FM281100 18007KT P6SM BKN050 BKN100 FM281800 28012G18KT P6SM VCTS SCT035CB BKN080 TEMPO 2819/2823 3SM TSRA BKN030CB FM290200 21004KT P6SM SCT100 SCT250 AMD NOT SKED
KSUN,KSUN 280520Z 2806/2912 31011KT P6SM SCT150 FM281800 13007KT P6SM FEW200 FM290300 31008KT P6SM SKC AMD LTD TO CLD VIS AND WIND TIL 281300
KSUS,KSUS 280719Z 2807/2906 VRB03KT 6SM BR BKN060 TEMPO 2809/2812 4SM BR FM281500 34006KT P6SM SCT045 FM290100 28005KT P6SM SCT180
KSUU,TAF KSUU 280255Z 2803/2909 23009KT 9999 SKC QNH2982INS BECMG 2813/2814 VRB06KT 9999 SKC QNH2988INS BECMG 2823/2824 23009KT 9999 SKC QNH2987INS TX33/2823Z TN12/2813Z
KSUX,KSUX 280520Z 2806/2906 22006KT P6SM VCSH BKN060 FM280900 29005KT P6SM VCSH BKN050 FM281200 32008KT 6SM -RA OVC008 FM281500 34015G23KT 6SM -RA OVC007 FM282100 34018G26KT P6SM BKN015 FM282300 34016G24KT P6SM SCT050
KSVN,TAF AMD KSVN 280936Z 2809/2915 20009KT 9999 BKN004 OVC050 QNH2975INS BECMG 2815/2816 24010G15KT 9999 SCT024 SCT040 QNH2978INS BECMG 2901/2902 23006KT 9999 FEW015 BKN035 QNH2978INS TX26/2821Z TN19/2909Z
KSWF,KSWF 280833Z 2809/2912 VRB03KT 6SM BR SCT008 BKN040 TEMPO 2809/2812 5SM BR BKN010 FM281200 10005KT P6SM SCT010 BKN050 BKN250 FM281500 12009KT P6SM SCT060 BKN150 FM290000 09012G19KT P6SM SCT030 BKN060 OVC120 FM290300 09013G20KT 5SM -RA BR SCT010 OVC020 FM290700 09016G24KT 3SM RA BR SCT006 OVC012 AMD NOT SKED
KSWO,KSWO 280520Z 2806/2906 VRB03KT P6SM BKN060 FM281000 00000KT 3SM BR OVC004 FM281800 34009KT 4SM BR OVC007 FM282000 34013G18KT 4SM BR OVC007 FM290300 35007KT 4SM BR OVC015
KSYM,KSYM 280628Z 2806/2906 12010KT 6SM -RA BR OVC015 TEMPO 2806/2809 3SM BR BKN006 OVC015 FM280900 13006KT P6SM OVC015 FM281600 27004KT P6SM VCTS SCT030CB BKN150 FM282300 28004KT P6SM SCT030
KSYR,KSYR 280859Z 2809/2906 10005KT P6SM SCT250 FM281600 12009KT P6SM OVC080 FM290300 12012G18KT P6SM -RA OVC060
KSZL,TAF KSZL 280300Z 2803/2909 VRB06KT 9999 BKN070 QNH2979INS BECMG 2808/2809 VRB06KT 9999 SCT020 BKN070 QNH2980INS BECMG 2813/2814 VRB06KT 9999 BKN060 QNH2985INS BECMG 2903/2904 32010KT 9000 -RA BKN050 TX19/2822Z TN07/2811Z QNH2990INS
KTBN,TAF KTBN 272100Z 2721/2903 VRB10G15KT 8000 -SHRA VCTS SCT025CB OVC060 QNH2978INS BECMG 2722/2723 VRB06KT 8000 BR SCT012 OVC019 QNH2978INS BECMG 2806/2807 VRB06KT 4800 BR BKN004 OVC012 QNH2976INS BECMG 2814/2815 VRB06KT 8000 BR FEW005 BKN012 BKN020 QNH2984INS BECMG 2815/2816 VRB06KT 9999 NSW FEW060 QNH2983INS TX18/2821Z TN10/2810Z LAST NO AMNDS AFT 28/03Z NEXT 27/13Z
KTCC,KTCC 280541Z 2806/2906 30008KT P6SM SCT090 SCT250 FM280700 03018G30KT P6SM SCT035 BKN050 TEMPO 2807/2808 01033G45KT 6SM BLDU BKN025 FM281500 01024G40KT P6SM VCSH BKN025 FM282000 02020G30KT P6SM VCSH BKN040 FM290000 03012G18KT P6SM SCT040
KTCL,KTCL 280809Z 2808/2906 21007KT P6SM OVC004 FM281300 24007KT P6SM BKN012 FM281600 29007KT P6SM SCT035 FM290100 31004KT P6SM SKC
KTCM,TAF KTCM 280500Z 2805/2911 VRB04KT 9999 SKC QNH3006INS BECMG 2814/2815 03012KT 9999 SKC QNH2986INS BECMG 2901/2902 VRB04KT 9999 SKC QNH2985INS TX25/2823Z TN08/2813Z
KTCS,KTCS 280523Z 2806/2906 30008KT P6SM SCT250 FM281300 35015G25KT P6SM SCT250 FM282100 02010G20KT P6SM SKC FM290300 03007KT P6SM SKC
KTEB,KTEB 280833Z 2809/2912 VRB03KT P6SM SCT012 BKN050 BKN250 TEMPO 2809/2812 BKN012 FM281500 11009KT P6SM SCT060 BKN150 FM290000 08011G18KT P6SM SCT030 BKN060 OVC120 FM290100 07013G21KT 5SM -RA BR SCT010 OVC020 FM290500 06017G25KT 3SM RA BR SCT006 OVC012
KTEX,KTEX 280905Z 2809/2906 35005KT 2SM -SN SCT012 BKN017 OVC024 FM281000 35008KT P6SM VCSH SCT030 BKN045 FM281100 35013G23KT P6SM BKN040 FM290200 35008KT P6SM FEW250
KTIK,TAF KTIK 280900Z 2809/2915 VRB06KT 8000 BR OVC020 QNH2975INS BECMG 2813/2814 08009KT 9999 NSW BKN020 BKN250 620205 QNH2984INS BECMG 2816/2817 01012G18KT 9999 SCT010 BKN020 BKN250 620204 QNH2984INS BECMG 2819/2820 35015G25KT 8000 -SHRA SCT007 OVC012 620124 BECMG 2904/2905 35009KT 9999 NSW BKN020 QNH2985INS TX17/2821Z TN08/2812Z
KTIX,KTIX 280543Z 2806/2906 22009KT P6SM FEW100 SCT190 BKN250 FM281200 22005KT P6SM SCT025 BKN080 FM281500 23009KT P6SM VCTS SCT035CB BKN080 TEMPO 2817/2820 3SM TSRA BKN030CB FM282100 25011KT P6SM VCSH SCT080 BKN200 FM290200 21004KT P6SM SCT100 SCT250 AMD NOT SKED TIL 281100
KTLH,KTLH 280744Z 2808/2906 14004KT 2SM BR OVC004 FM281200 18006KT 3SM BR VCTS OVC006CB FM281600 22014G20KT P6SM SCT015 FM290000 23007KT P6SM SCT025
KTMB,KTMB 280840Z 2809/2906 15006KT P6SM SCT015 BKN050 TEMPO 2809/2812 BKN015 FM281400 19011KT P6SM SCT035 SCT060 FM282000 19011G20KT P6SM VCTS SCT025CB BKN050 FM290000 17005KT P6SM SCT050
KTOI,KTOI 281017Z 2810/2906 21005KT P6SM OVC012 FM281500 25006KT P6SM SCT020 FM281800 26008KT P6SM FEW040 FM290000 29003KT P6SM SKC
KTOL,KTOL 280522Z 2806/2906 06008KT P6SM BKN100 BKN250 FM281200 05006KT 6SM -RA BR OVC026 FM281300 05008KT 5SM -RA BR OVC016 FM281500 06011G19KT 4SM -RA BR OVC009 FM290000 06008KT 3SM BR OVC007
KTOP,KTOP 280536Z 2806/2906 18006KT P6SM OVC080 FM281700 33005KT P6SM VCSH SCT025 OVC035 FM282100 31011KT 5SM -SHRA BR SCT015 OVC023 FM290200 33011KT P6SM SCT015 BKN023
KTPA,KTPA 280906Z 2809/2912 19006KT P6SM FEW120 FM281200 21008KT P6SM SHRA SCT040 BKN060 FM281500 22008G16KT 6SM -TSRA BKN040CB BKN080 FM282000 23012G20KT P6SM SCT050 BKN120 FM290300 23005KT P6SM VCSH SCT030 BKN230
KTPH,KTPH 280520Z 2806/2906 01011KT P6SM SKC FM281500 VRB06KT P6SM SKC FM282200 20010G20KT P6SM SKC
KTRI,KTRI 280900Z 2809/2906 VRB04KT 6SM BR VCSH BKN035 OVC050 FM281100 VRB03KT P6SM BKN025 FM281600 24007KT P6SM BKN050 FM281800 25012KT P6SM VCSH BKN050 PROB30 2818/2824 6SM -SHRA BR OVC050
KTRK,KTRK 280520Z 2806/2906 VRB03KT P6SM FEW250 FM282200 20007KT P6SM SCT250
KTRM,KTRM 280520Z 2806/2906 33009KT P6SM SKC FM281100 VRB04KT P6SM SKC FM282000 14010KT P6SM SKC FM290100 VRB04KT P6SM SKC
KTTD,KTTD 280537Z 2806/2906 09009KT P6SM SKC FM281600 09010G20KT P6SM SKC FM281800 09015G27KT P6SM SKC FM290300 10008KT P6SM SKC
KTTN,KTTN 280845Z 2809/2906 08008KT P6SM OVC025 TEMPO 2809/2812 BKN004 FM281200 10010G18KT P6SM OVC020 FM281600 12012G19KT 5SM -RA BR OVC015 FM282000 12014G23KT 3SM RA BR OVC008 FM290200 09015G25KT 3SM RA BR OVC008
KTUL,KTUL 280803Z 2808/2906 00000KT P6SM SCT015 OVC035 TEMPO 2810/2813 1/2SM FG VV002 FM281600 05005KT P6SM OVC015 PROB30 2818/2824 4SM -SHRA BR BKN009 FM290000 35010KT P6SM OVC015
KTUP,KTUP 280858Z 2809/2906 21006KT P6SM BKN080 TEMPO 2809/2812 1SM BR BKN004 FM281500 32006KT P6SM BKN015 FM282000 34006KT P6SM BKN050 FM290000 VRB03KT P6SM FEW050 BKN250
KTUS,KTUS 280520Z 2806/2906 22005KT P6SM FEW250 FM280700 14007KT P6SM SKC FM282000 32014G22KT P6SM SKC
KTVC,KTVC 280520Z 2806/2906 00000KT P6SM SCT250 FM281500 07008KT P6SM SCT150 BKN250 FM290000 10006KT P6SM SCT040 OVC080
KTVF,KTVF 280520Z 2806/2906 01010KT P6SM BKN060
KTVL,KTVL 280520Z 2806/2906 VRB03KT P6SM FEW250 FM290000 20006KT P6SM SCT250
KTWF,KTWF 280645Z 2807/2906 10018G25KT P6SM FEW200 FM281000 11011KT P6SM SKC FM282300 08010KT P6SM SKC FM290300 14007KT P6SM SKC
KTXK,KTXK 280521Z 2806/2906 28007KT P6SM SCT035 TEMPO 2806/2810 BKN035 FM281000 VRB03KT 3SM BR SCT007 FM281600 VRB05KT P6SM FEW030 SCT250 FM290000 07005KT P6SM VCTS BKN050CB OVC110
KTYR,KTYR 280521Z 2806/2906 00000KT P6SM SKC FM281000 VRB03KT 4SM BR SKC FM281400 16009KT P6SM SCT050 FM290000 16009KT P6SM VCTS BKN050CB OVC110
KTYS,KTYS 281004Z 2810/2906 VRB04KT 3SM BR BKN004 OVC050 TEMPO 2810/2812 2SM BR BKN002 FM281200 23004KT 4SM BR VCSH SCT001 OVC015 FM281500 24015KT P6SM BKN050 PROB30 2819/2824 5SM -SHRA BR OVC035
KUAO,KUAO 280537Z 2806/2906 VRB04KT P6SM SKC FM281600 01008KT P6SM SCT250
KUES,KUES 280920Z 2809/2906 VRB04KT P6SM SCT250 FM281600 07007KT P6SM SCT250
KUIN,KUIN 280520Z 2806/2906 VRB03KT P6SM SCT250 FM281400 31006KT P6SM SCT250
KUKI,KUKI 280556Z 2806/2906 VRB03KT P6SM SKC FM281900 15010KT P6SM FEW250 FM290000 22007KT P6SM FEW250 FM290400 20003KT P6SM FEW250
KUNV,KUNV 280912Z 2809/2906 06006KT P6SM OVC015 FM281200 07005KT P6SM OVC007 FM281300 07008KT 2SM -RA BR OVC007
KUTS,KUTS 280520Z 2806/2906 VRB02KT P6SM SKC FM281000 VRB03KT 6SM BR FEW025 FM281500 17010KT P6SM FEW030 FM290200 VRB08G20KT P6SM VCTS BKN080CB FM290500 28007KT P6SM VCSH OVC035
KVAD,TAF AMD KVAD 281015Z 2810/2914 20009KT 9999 BKN025 QNH2980INS BECMG 2813/2814 22010G15KT 9999 BKN025 QNH2983INS TEMPO 2816/2818 9000 -SHRA BKN015 BECMG 2819/2820 22009KT 9999 BKN030 QNH2980INS BECMG 2904/2905 22009KT 9999 SCT030 QNH2984INS BECMG 2909/2910 19006KT 4800 BR BKN005 QNH2984INS BECMG 2913/2914 19009KT 9999 NSW SKC QNH2987INS TX29/2818Z TN19/2811Z
KVBG,TAF KVBG 272200Z 2722/2904 27009KT 6000 BR SCT006 QNH2996INS BECMG 2723/2724 29009KT 6000 BR BKN006 QNH2995INS BECMG 2800/2801 31006KT 4800 BR OVC004 QNH2995INS BECMG 2802/2803 VRB06KT 3200 BR OVC003 QNH2994INS BECMG 2804/2805 VRB06KT 0400 FG VV001 QNH2990INS BECMG 2816/2817 VRB06KT 4800 BR OVC003 QNH2995INS BECMG 2818/2819 29009KT 9999 NSW SCT005 SCT250 QNH2997INS BECMG 2901/2902 31009KT 6000 BR BKN005 BKN250 QNH2999INS BECMG 2903/2904 32006KT 3200 BR OVC003 QNH3001INS TX14/2821Z TN08/2813Z LAST NO AMDS AFT 2800 NEXT 2814
KVCT,KVCT 280822Z 2808/2906 VRB03KT 3SM BR FEW010 TEMPO 2809/2813 1/2SM FG BKN007 FM281300 17005KT 5SM BR BKN025 FM281800 16012G20KT P6SM SCT250 FM290100 32012G20KT 5SM TSRA BKN020CB
KVEL,KVEL 280535Z 2806/2906 01015G25KT P6SM -SHRA OVC040 FM280800 02018G27KT P6SM SCT250 FM281000 02013KT P6SM SCT250 FM281700 10006KT P6SM SKC FM290200 34005KT P6SM FEW250
KVGT,KVGT 280520Z 2806/2906 32009KT P6SM FEW250 FM281300 04014G23KT P6SM FEW250 FM282300 08009KT P6SM FEW250 FM290400 31006KT P6SM FEW250
KVIS,KVIS 280520Z 2806/2906 VRB03KT P6SM SKC
KVLD,KVLD 280520Z 2806/2906 15008KT P6SM SCT007 OVC015 FM280900 17003KT 3SM BR BKN006 FM281400 21006KT P6SM VCTS BKN015CB FM281800 21010G15KT P6SM SCT020 FM290000 19003KT P6SM SCT025
KVNY,KVNY 280549Z 2806/2906 10007KT P6SM SKC FM281000 VRB03KT 3SM BR SKC FM281600 VRB03KT P6SM SKC FM281900 13007KT P6SM SKC FM290300 VRB03KT P6SM SKC
KVOK,TAF KVOK 280900Z 2809/2915 15006KT 9999 SCT130 QNH2979INS BECMG 2901/2902 VRB06KT 9999 SCT130 BKN150 621503 QNH2977INS BECMG 2906/2907 30009KT 9000 -RA OVC015 620609 QNH2969INS BECMG 2913/2914 32015G20KT 9999 NSW OVC015 620603 QNH2966INS TX18/2821Z TN05/2906Z
KVPS,TAF AMD KVPS 281015Z 2810/2915 21009KT 9999 FEW200 QNH2976INS TEMPO 2810/2814 4800 BR BKN008 BECMG 2813/2814 24012KT 9999 FEW030 SCT250 QNH2978INS BECMG 2822/2823 23006KT 9999 FEW050 QNH2980INS TX27/2819Z TN18/2907Z
KVQQ,KVQQ 280806Z 2808/2906 VRB03KT P6SM SKC TEMPO 2808/2811 1SM BR FM281400 22010G15KT P6SM VCSH BKN025 BKN120 FM281500 22009KT P6SM VCTS SCT030CB BKN050 OVC100 FM282000 22010KT P6SM OVC050
KVRB,KVRB 280543Z 2806/2906 26005KT P6SM BKN050 BKN070 OVC100 FM280700 19004KT P6SM VCSH SCT025 BKN050 FM281100 18007KT P6SM BKN050 BKN100 FM281800 23012G18KT P6SM VCTS SCT035CB BKN080 TEMPO 2818/2821 3SM TSRA BKN030CB FM290200 21004KT P6SM SCT100 SCT250
KVTN,KVTN 280608Z 2806/2906 34025G39KT P6SM OVC009 FM281000 34024G37KT P6SM OVC020 FM281600 35021G30KT P6SM BKN080 FM282200 34012KT P6SM SCT200
KWJF,KWJF 280549Z 2806/2906 23006KT P6SM SKC FM281200 VRB03KT P6SM SKC FM281800 06008KT P6SM SKC FM290100 22010KT P6SM SKC
KWMC,KWMC 280520Z 2806/2906 01007KT P6SM SCT200 FM281000 06010KT P6SM SKC
KWRB,TAF AMD KWRB 280945Z 2809/2914 15008KT 9999 OVC008 QNH2976INS TEMPO 2809/2814 4800 BR OVC005 BECMG 2814/2815 25009KT 9999 SCT010 BKN025 QNH2977INS BECMG 2817/2818 27010G15KT 9999 FEW050 QNH2976INS BECMG 2820/2821 27010G20KT 9999 VCSH BKN030 QNH2973INS BECMG 2900/2901 VRB06KT 9999 NSW BKN030 QNH2981INS BECMG 2904/2905 VRB06KT 9999 FEW200 QNH2984INS TX28/2821Z TN17/2811Z
KWRI,TAF KWRI 281000Z 2810/2916 08006KT 9999 OVC035 QNH3011INS BECMG 2811/2812 09010G15KT 9999 OVC020 QNH3010INS BECMG 2815/2816 09015G25KT 9000 -RA OVC012 QNH2991INS BECMG 2901/2902 07015G25KT 6000 -RA OVC007 QNH2975INS BECMG 2909/2910 09015G25KT 4800 -RA OVC005 QNH2973INS TX15/2820Z TN08/2810Z
KWRL,KWRL 280520Z 2806/2906 34012KT P6SM SCT080 SCT200 FM281000 VRB06KT P6SM FEW100 SCT200 FM281800 33008KT P6SM SKC FM290100 VRB05KT P6SM SCT180
KWWR,KWWR 280520Z 2806/2906 10006KT P6SM SCT025 BKN250 FM281000 34008KT 4SM -SHRA BR OVC010 FM281300 35013G21KT 2SM -SHRA BR OVC009 FM290000 35011G18KT P6SM OVC015 FM290300 35006KT P6SM OVC050
KXNA,KXNA 280806Z 2808/2906 00000KT 2SM BR BKN015 TEMPO 2808/2812 1SM BR BKN001 FM281200 00000KT 2SM BR OVC007 TEMPO 2812/2813 1SM BR BKN003 FM281500 05002KT P6SM OVC015 FM281800 03005KT P6SM SCT022 BKN035 PROB30 2900/2906 4SM -SHRA BKN009
KXWA,KXWA 280521Z 2806/2906 33008KT P6SM OVC090 FM281800 31011KT P6SM SCT120 FM290100 27009KT P6SM SCT110 FM290500 29012KT P6SM SCT200
KYIP,KYIP 280521Z 2806/2906 10007KT P6SM BKN250 FM280700 04007KT P6SM FEW070 OVC150 FM281200 06008KT P6SM -SHRA BKN025 BKN060 FM281400 07010G24KT 3SM -RA BR OVC007 TEMPO 2814/2818 2SM RA BR OVC004 FM282200 09010G22KT 5SM -SHRA OVC007
KYKM,KYKM 280520Z 2806/2906 VRB06KT P6SM SKC
KYNG,KYNG 280522Z 2806/2906 09008KT P6SM SCT120 BKN200 FM281300 11012KT P6SM -RA OVC022 FM281400 11013KT 4SM -RA OVC016 FM281900 12016G25KT P6SM OVC012 FM290100 12015G24KT 4SM -SHRA OVC015
KZZV,KZZV 280935Z 2810/2906 11010G18KT 5SM -RA BR OVC008 FM281200 12010G20KT P6SM VCSH OVC008 FM281800 13010KT P6SM -SHRA BKN018 FM290300 19010KT P6SM BKN015
LAKU,TAF LAKU 280500Z 2806/2906 VRB05KT CAVOK TX20/2812Z TN04/2904Z BECMG 2809/2811 36014KT BECMG 2818/2820 VRB05KT
LATI,TAF LATI 280500Z 2806/2906 VRB05KT CAVOK TX23/2812Z TN05/2904Z BECMG 2810/2812 32012KT BECMG 2817/2819 VRB05KT
LBBG,TAF LBBG 280500Z 2806/2906 34012KT 9999 SCT040 BECMG 2818/2820 VRB04KT
LBGO,TAF LBGO 280500Z 2806/2906 VRB04KT 9999 BKN050 BECMG 2809/2811 32010KT BECMG 2818/2820 VRB04KT
LBPD,TAF LBPD 280500Z 2806/2906 30014KT 9999 SCT070 BECMG 2811/2813 09010KT BECMG 2820/2822 VRB04KT
LBSF,TAF LBSF 280500Z 2806/2906 30010KT 9999 SCT060 BECMG 2813/2815 VRB04KT
LBWN,TAF LBWN 280500Z 2806/2906 30014KT 9999 SCT040 PROB40 TEMPO 2806/2809 36016G26KT BECMG 2820/2822 VRB04KT
LCEN,TAF LCEN 280440Z 2806/2906 18015G25KT 9999 FEW025 BKN100 TEMPO 2806/2810 SHRA TEMPO 2810/2814 5000 TSRA FEW020CB BKN080 BECMG 2815/2819 28015G25KT
LCLK,TAF LCLK 280530Z 2806/2906 27009KT 9999 FEW025 PROB30 TEMPO 2806/2902 5000 SHRA SCT020TCU BECMG 2806/2809 20020KT PROB30 TEMPO 2809/2820 VRB25G35KT 3000 TSRA SCT020CB BECMG 2816/2819 32008KT
LCPH,TAF LCPH 280530Z 2806/2906 35008KT 9999 FEW025 PROB30 TEMPO 2806/2906 5000 SHRA SCT020TCU BECMG 2806/2808 26014KT PROB30 TEMPO 2806/2818 VRB25G35KT 3000 TSRA SCT020CB BECMG 2816/2819 34009KT
LDDU,TAF LDDU 280525Z 2806/2906 02015KT CAVOK TX18/2812Z TN12/2903Z BECMG 2806/2808 18008KT BECMG 2809/2811 29010KT BECMG 2816/2818 02008KT BECMG 2903/2905 12008KT
LDLO,TAF LDLO 280525Z 2806/2906 15008KT CAVOK TX19/2812Z TN11/2806Z TEMPO 2810/2816 18012KT
LDOS,TAF LDOS 280525Z 2806/2906 10005KT CAVOK TX17/2813Z TN06/2806Z BECMG 2809/2811 11012KT BECMG 2822/2900 11006KT
LDPL,TAF LDPL 280525Z 2806/2906 11008KT CAVOK TX19/2813Z TN11/2904Z TEMPO 2811/2817 16006KT
LDRI,TAF LDRI 280525Z 2806/2906 VRB02KT CAVOK TX19/2813Z TN11/2904Z PROB40 TEMPO 2811/2816 18008KT
LDSP,TAF LDSP 280527Z 2806/2906 08005KT CAVOK TX20/2813Z TN12/2903Z BECMG 2809/2811 23010KT BECMG 2816/2818 32005KT
LDZA,TAF LDZA 280525Z 2806/2906 04004KT CAVOK TX20/2813Z TN08/2904Z TEMPO 2812/2816 22006KT
LDZD,TAF LDZD 280525Z 2806/2906 12005KT CAVOK TX20/2812Z TN10/2904Z BECMG 2808/2810 18008KT BECMG 2816/2818 13005KT
LEAB,TAF LEAB 280500Z 2806/2906 16010KT CAVOK TX34/2814Z TN15/2806Z PROB40 TEMPO 2815/2818 18015G28KT
LEAG,TAF LEAG 280800Z 2809/2909 15005KT 9999 FEW015 TX23/2815Z TN18/2905Z BECMG 2820/2823 25010KT
LEAL,TAF LEAL 280500Z 2806/2906 02006KT CAVOK TX27/2812Z TN15/2806Z PROB30 TEMPO 2806/2808 BKN007 BECMG 2808/2810 08010KT BECMG 2816/2818 VRB03KT
LEAM,TAF LEAM 280500Z 2806/2906 35010KT CAVOK TX28/2813Z TN17/2806Z BECMG 2808/2810 22010KT BECMG 2821/2823 VRB02KT
LEAO,TAF COR LEAO 280828Z 2809/2909 VRB05KT CAVOK TX35/2815Z TN13/2906Z BECMG 2810/2812 25010KT PROB40 TEMPO 2812/2819 25017G30KT FEW050TCU BECMG 2820/2822 VRB05KT BECMG 2906/2908 27010KT
LEAS,TAF LEAS 280800Z 2809/2909 04007KT 7000 BKN005 TX17/2812Z TN13/2905Z PROB40 TEMPO 2809/2909 3000 BR BCFG BKN002 PROB30 TEMPO 2809/2810 0350 FG VV001 TEMPO 2813/2818 29010KT PROB40 TEMPO 2814/2903 3000 BR BCFG BKN002 PROB40 TEMPO 2814/2909 0350 FG VV001
LEBA,TAF LEBA 280800Z 2809/2909 VRB02KT CAVOK TX37/2815Z TN15/2906Z BECMG 2810/2812 24011KT BECMG 2903/2905 VRB02KT
LEBB,TAF AMD LEBB 280629Z 2806/2906 30007KT 9999 FEW010 TX26/2812Z TN14/2806Z PROB30 TEMPO 2806/2808 3000 BR BCFG BKN005 PROB30 TEMPO 2806/2808 0800 FG BKN002 PROB40 TEMPO 2816/2906 3000 BR BKN005 BKN010 PROB30 TEMPO 2818/2906 0800 FG BKN002
LEBG,TAF COR LEBG 280846Z 2809/2909 04007KT CAVOK TX28/2815Z TN06/2906Z BECMG 2809/2811 23010KT PROB40 TEMPO 2812/2818 23015G25KT FEW045TCU BECMG 2819/2821 04008KT TEMPO 2900/2908 BKN008
LEBL,TAF LEBL 280500Z 2806/2906 33006KT CAVOK TX22/2812Z TN14/2806Z PROB30 TEMPO 2806/2810 BKN009 BECMG 2808/2810 16008KT BECMG 2818/2820 33006KT
LEBR,TAF LEBR 280800Z 2809/2909 12009KT CAVOK TX31/2815Z TN16/2906Z PROB30 TEMPO 2813/2823 12019KT BECMG 2902/2906 31014KT
LEBZ,TAF LEBZ 280800Z 2809/2909 17004KT CAVOK TX34/2815Z TN16/2906Z BECMG 2809/2811 23010KT BECMG 2815/2817 29010KT
LECO,TAF LECO 280800Z 2809/2909 32008KT 9999 FEW005 TX19/2814Z TN13/2903Z PROB40 TEMPO 2809/2813 BKN005 PROB30 TEMPO 2809/2812 3000 BR BCFG BKN010 PROB40 TEMPO 2821/2909 3000 BR BCFG BKN005 PROB30 TEMPO 2900/2909 0350 FG VV001 PROB30 TEMPO 2903/2909 RA
LECV,TAF LECV 280500Z 2806/2906 06006KT CAVOK TX28/2814Z TN17/2806Z BECMG 2810/2812 24010KT PROB40 TEMPO 2812/2818 24015G28KT BECMG 2820/2822 35007KT
LEEC,TAF LEEC 280800Z 2809/2909 VRB02KT CAVOK TX36/2815Z TN17/2906Z BECMG 2810/2812 22011KT BECMG 2902/2905 VRB02KT
LEGA,TAF LEGA 280500Z 2806/2906 VRB02KT CAVOK TX37/2815Z TN14/2806Z BECMG 2810/2812 21012KT PROB30 TEMPO 2811/2817 22015G27KT BECMG 2819/2821 VRB02KT
LEGE,TAF LEGE 280500Z 2806/2906 VRB03KT 9999 FEW040 TX27/2812Z TN11/2806Z PROB30 TEMPO 2806/2807 4000 BR BKN008 BECMG 2809/2811 18014KT TEMPO 2812/2817 18017G27KT BECMG 2819/2821 VRB03KT
LEGR,TAF AMD LEGR 281004Z 2810/2906 16007KT CAVOK TX37/2815Z TN14/2906Z BECMG 2811/2813 22013KT BECMG 2818/2821 VRB02KT
LEGT,TAF AMD LEGT 280817Z 2808/2906 VRB05KT CAVOK TX33/2814Z TN17/2906Z BECMG 2810/2812 23010KT TEMPO 2812/2817 25015G27KT BECMG 2816/2818 29010KT PROB40 TEMPO 2821/2906 VRB05KT
LEHC,TAF LEHC 280800Z 2809/2909 10010KT CAVOK TX30/2815Z TN14/2905Z BECMG 2822/2824 VRB03KT
LEIB,TAF LEIB 280800Z 2809/2909 08008KT 9999 FEW010 TX23/2812Z TN15/2905Z PROB30 TEMPO 2900/2906 BKN010
LEJR,TAF LEJR 280800Z 2809/2909 14007KT CAVOK TX35/2815Z TN15/2906Z BECMG 2810/2812 23012KT BECMG 2820/2823 17007KT
LELC,TAF LELC 280500Z 2806/2906 04010KT CAVOK TX23/2812Z TN19/2806Z PROB30 TEMPO 2806/2808 33004KT BECMG 2817/2819 VRB02KT
LELL,TAF LELL 280800Z 2809/2909 VRB03KT 9999 FEW040 TX27/2813Z TN13/2905Z BECMG 2810/2812 13010KT BECMG 2818/2820 VRB03KT
LELN,TAF COR LELN 280848Z 2809/2909 VRB04KT 9999 FEW045 TX27/2814Z TN08/2906Z PROB30 TEMPO 2809/2818 RA SHRA FEW040TCU SCT050 BECMG 2812/2814 23010KT BECMG 2815/2817 30010KT BECMG 2820/2822 VRB05KT
LELO,TAF COR LELO 280851Z 2809/2909 09010KT CAVOK TX29/2815Z TN13/2906Z PROB40 TEMPO 2809/2813 10015G25KT PROB30 TEMPO 2815/2821 FEW045TCU BECMG 2816/2818 VRB05KT BECMG 2821/2823 29010KT
LEMD,TAF AMD LEMD 280801Z 2808/2912 VRB05KT CAVOK TX33/2814Z TN14/2906Z BECMG 2810/2812 22010KT TEMPO 2812/2817 24015G25KT BECMG 2816/2818 28010KT BECMG 2821/2823 VRB05KT BECMG 2910/2912 28010KT
LEMG,TAF LEMG 280500Z 2806/2906 29007KT CAVOK TX25/2814Z TN16/2806Z BECMG 2809/2811 13010KT BECMG 2819/2821 VRB02KT BECMG 2902/2904 29008KT
LEMH,TAF LEMH 280800Z 2809/2909 10010KT 9999 FEW020 TX22/2812Z TN15/2905Z BECMG 2823/2901 VRB03KT
LEMO,TAF LEMO 280800Z 2809/2909 30004KT CAVOK TX36/2815Z TN16/2906Z BECMG 2810/2813 24012KT BECMG 2821/2823 18006KT
LEPA,TAF LEPA 280500Z 2806/2906 04004KT CAVOK TX29/2812Z TN14/2806Z BECMG 2807/2809 14010KT PROB30 TEMPO 2808/2814 20007KT BECMG 2818/2820 VRB03KT
LEPP,TAF LEPP 280800Z 2809/2909 18006KT CAVOK TX27/2814Z TN12/2905Z PROB40 TEMPO 2820/2901 34010KT PROB40 TEMPO 2900/2907 3000 BR BKN005 BECMG 2905/2908 34010KT PROB40 TEMPO 2906/2909 BKN010
LERI,TAF LERI 280500Z 2806/2906 VRB02KT CAVOK TX31/2812Z TN14/2806Z BECMG 2809/2811 10010KT BECMG 2818/2820 VRB02KT
LERL,TAF COR LERL 280830Z 2809/2909 VRB05KT CAVOK TX35/2815Z TN13/2906Z BECMG 2810/2812 25010KT PROB40 TEMPO 2812/2819 25017G30KT FEW050TCU BECMG 2820/2822 VRB05KT BECMG 2906/2908 27010KT
LERS,TAF LERS 280800Z 2809/2909 VRB04KT 9999 FEW020 TX24/2812Z TN14/2905Z PROB40 TEMPO 2810/2814 15010KT PROB30 TEMPO 2823/2906 4000 BR BKN010
LERT,TAF LERT 280800Z 2809/2909 15007KT CAVOK TX30/2815Z TN15/2906Z BECMG 2809/2811 23012KT BECMG 2820/2823 17010KT BECMG 2903/2906 31010KT
LESA,TAF COR LESA 280837Z 2809/2909 VRB04KT CAVOK TX29/2815Z TN11/2906Z BECMG 2809/2811 22010KT PROB40 TEMPO 2812/2818 23015G25KT FEW045TCU BECMG 2818/2820 28010KT BECMG 2821/2823 VRB05KT
LESO,TAF LESO 280500Z 2806/2906 02006KT 9999 FEW010 TX24/2814Z TN15/2904Z PROB30 TEMPO 2806/2810 3000 BR BKN005 BECMG 2815/2818 24010KT PROB40 TEMPO 2818/2906 3000 BR BKN005 BKN010 PROB30 TEMPO 2818/2906 0800 BCFG BKN002 PROB40 TEMPO 2818/2823 25017G27KT
LEST,TAF LEST 280500Z 2806/2906 36007KT CAVOK TX20/2812Z TN12/2806Z PROB40 TEMPO 2806/2807 3000 BR BKN005 PROB40 TEMPO 2821/2906 3000 BR BKN010 PROB30 TEMPO 2900/2906 0350 FG VV001 PROB40 TEMPO 2902/2906 22010KT
LESU,TAF LESU 280800Z 2809/2909 21006KT 9999 SCT070 TX27/2815Z TN10/2905Z TEMPO 2811/2816 FEW060TCU
LETO,TAF AMD LETO 280807Z 2808/2906 VRB05KT CAVOK TX33/2814Z TN14/2906Z BECMG 2810/2812 22010KT PROB40 TEMPO 2812/2817 24015G25KT BECMG 2816/2818 28010KT BECMG 2821/2823 VRB05KT
LEVC,TAF AMD LEVC 280717Z 2807/2906 VRB03KT CAVOK TX27/2812Z TN14/2906Z TEMPO 2807/2810 BKN010 TEMPO 2811/2816 09010KT
LEVD,TAF COR LEVD 280842Z 2809/2909 16006KT CAVOK TX28/2815Z TN11/2906Z BECMG 2810/2812 23010KT PROB40 TEMPO 2812/2818 23015G25KT FEW045TCU BECMG 2817/2819 29010KT BECMG 2822/2824 VRB05KT
LEVS,TAF AMD LEVS 280815Z 2808/2906 VRB05KT CAVOK TX31/2814Z TN17/2906Z BECMG 2810/2812 23010KT TEMPO 2812/2817 25015G25KT BECMG 2816/2818 29010KT PROB40 TEMPO 2821/2906 VRB05KT
LEVT,TAF LEVT 280500Z 2806/2906 14007KT CAVOK TX29/2814Z TN09/2806Z PROB40 TEMPO 2818/2906 36010KT PROB40 TEMPO 2823/2906 3000 BR BCFG BKN005 PROB30 TEMPO 2900/2906 0350 FG VV001
LEVX,TAF LEVX 280500Z 2806/2906 27007KT CAVOK TX23/2814Z TN14/2806Z PROB40 TEMPO 2821/2906 3000 BR BKN010 PROB30 TEMPO 2900/2906 0350 FG VV001
LEXJ,TAF LEXJ 280800Z 2809/2909 29009KT 7000 SCT005 TX20/2812Z TN15/2906Z TEMPO 2809/2813 04010KT PROB40 TEMPO 2813/2824 BKN005 PROB40 TEMPO 2815/2909 3000 BR BKN002 PROB30 TEMPO 2903/2907 0800 BCFG VV002
LEZG,TAF LEZG 280500Z 2806/2906 10009KT CAVOK TX33/2815Z TN16/2806Z
LEZL,TAF LEZL 280800Z 2809/2909 VRB02KT CAVOK TX36/2815Z TN18/2906Z BECMG 2810/2812 23012KT BECMG 2902/2905 VRB02KT
LFAQ,TAF LFAQ 280800Z 2809/2818 24010KT 9999 SCT014 OVC018 TEMPO 2809/2811 BKN011
LFAT,TAF LFAT 280800Z 2809/2818 26007KT 8000 OVC007 TEMPO 2809/2818 OVC004 PROB40 2809/2815 3000 BR OVC002
LFBA,TAF LFBA 280800Z 2809/2818 12010KT CAVOK
LFBC,TAF LFBC 280800Z 2809/2909 05008KT CAVOK TEMPO 2816/2909 4000 SHRA BKN050TCU BKN130 TEMPO 2819/2905 VRB15G25KT 2000 TSRA BKN040CB TEMPO 2901/2904 BKN010
LFBD,TAF LFBD 280500Z 2806/2912 09005KT CAVOK TX27/2812Z TN15/2806Z BECMG 2816/2818 02010KT PROB40 TEMPO 2821/2909 -SHRA FEW060CB BKN080TCU PROB30 TEMPO 2821/2903 VRB15KT 3000 -TSRA BKN060CB PROB40 TEMPO 2903/2906 BKN005
LFBE,TAF LFBE 280500Z 2806/2906 09005KT CAVOK PROB30 TEMPO 2901/2906 4000 -TSRA BKN006 SCT050CB
LFBG,TAF AMD LFBG 280447Z 2805/2903 09003KT CAVOK TEMPO 2821/2903 4000 -TSRA SCT030CB
LFBH,TAF LFBH 280500Z 2806/2906 06004KT 8000 SCT035 SCT210 TEMPO 2806/2810 3500 BR BKN006 TEMPO 2812/2820 CAVOK TEMPO 2820/2901 SHRA SCT080TCU
LFBI,TAF LFBI 280500Z 2806/2906 VRB02KT 6000 SCT002 OVC084 TEMPO 2806/2809 1400 BR BKN002 PROB30 TEMPO 2806/2809 0400 FG VV/// BECMG 2806/2809 CAVOK TEMPO 2820/2901 SHRA SCT090TCU
LFBL,TAF LFBL 280500Z 2806/2906 08005KT 9999 BKN040 BECMG 2807/2809 CAVOK BECMG 2810/2812 VRB02KT BECMG 2816/2818 04010KT PROB40 TEMPO 2900/2906 -SHRA BKN060TCU
LFBM,TAF LFBM 280800Z 2809/2909 09005KT CAVOK BECMG 2819/2821 24010KT BECMG 2821/2823 BKN007 PROB30 TEMPO 2902/2904 4000 SHRA SCT015 SCT030CB
LFBO,TAF LFBO 280500Z 2806/2912 14010KT CAVOK BECMG 2823/2901 19005KT BECMG 2901/2903 BKN012 TEMPO 2901/2908 BKN008 BECMG 2903/2905 27005KT BECMG 2809/2811 BKN025
LFBP,TAF LFBP 280500Z 2806/2906 VRB03KT CAVOK BECMG 2810/2812 08007KT BECMG 2819/2821 28010KT BKN007 PROB30 TEMPO 2903/2906 BKN004
LFBT,TAF LFBT 280500Z 2806/2906 VRB03KT CAVOK BECMG 2809/2811 08007KT BECMG 2819/2821 29010KT BKN008 BECMG 2900/2902 27004KT PROB30 TEMPO 2903/2906 BKN003
LFBU,TAF LFBU 280500Z 2806/2906 13008KT 9999 BKN040 BECMG 2806/2808 CAVOK BECMG 2816/2818 03010KT PROB40 TEMPO 2900/2906 -SHRA SCT070TCU
LFBZ,TAF AMD LFBZ 280925Z 2809/2906 VRB02KT CAVOK BECMG 2809/2811 33007KT BECMG 2816/2818 27010KT BKN005 TEMPO 2818/2906 27015G25KT PROB40 TEMPO 2902/2906 3000 -DZ OVC002
LFCK,TAF LFCK 280800Z 2809/2818 12012KT CAVOK TEMPO 2809/2818 12015G25KT TEMPO 2816/2818 12020G35KT
LFCR,TAF LFCR 280500Z 2806/2906 14007KT CAVOK BECMG 2822/2824 VRB03KT PROB30 TEMPO 2904/2906 4000 SHRA SCT020TCU BKN080
LFGJ,TAF LFGJ 280800Z 2809/2818 20007KT 9999 BKN035 TEMPO 2809/2818 4000 SHRA SCT040TCU PROB30 TEMPO 2815/2818 TSRA SCT035CB
LFJL,TAF LFJL 280500Z 2806/2906 24009KT 9999 OVC015 TEMPO 2806/2810 3000 RA BKN004 FEW015CB TEMPO 2810/2817 -SHRA SCT025TCU PROB30 TEMPO 2810/2815 4000 SHRA BKN012 FEW020CB TEMPO 2902/2906 3000 BR PROB30 TEMPO 2904/2906 0400 FG VV///
LFKB,TAF LFKB 280800Z 2809/2909 12010KT 9999 FEW020 TX20/2812Z TN13/2903Z BECMG 2818/2820 VRB03KT PROB40 TEMPO 2820/2905 2000 BR BKN005 BECMG 2905/2907 BKN008
LFKC,TAF LFKC 280800Z 2809/2909 VRB05KT 9999 SCT015 BKN080 TX24/2812Z TN13/2904Z BECMG 2809/2811 30010KT BECMG 2817/2819 VRB03KT
LFKF,TAF LFKF 280800Z 2809/2909 VRB03KT CAVOK BECMG 2812/2814 22010KT BECMG 2820/2822 05005KT PROB30 TEMPO 2900/2906 2000 BR BKN005
LFKJ,TAF LFKJ 280800Z 2809/2909 22010KT CAVOK BECMG 2818/2820 05003KT
LFKS,TAF LFKS 280800Z 2809/2909 15010KT CAVOK BECMG 2814/2816 BKN008 BECMG 2907/2908 CAVOK
LFLB,TAF AMD LFLB 280935Z 2809/2909 35005KT CAVOK PROB40 TEMPO 2819/2824 5000 SHRA BKN070TCU PROB30 TEMPO 2819/2901 VRB15G30KT 2000 TSRA BKN060CB BECMG 2900/2902 VRB02KT TEMPO 2903/2906 4000 RA SCT015 OVC050
LFLC,TAF LFLC 280500Z 2806/2906 VRB03KT CAVOK TEMPO 2816/2905 SHRA SCT030TCU PROB40 TEMPO 2816/2822 VRB15G30KT 2000 TSRA BKN030CB PROB30 TEMPO 2900/2905 VRB15G25KT 3000 TSRA BKN030CB
LFLL,TAF AMD LFLL 280734Z 2807/2912 19009KT CAVOK PROB40 TEMPO 2808/2812 18015G25KT PROB30 TEMPO 2818/2901 VRB15G25KT 3500 TSRA SCT055CB BKN060 PROB40 TEMPO 2901/2906 VRB10KT 3500 TSRA BKN014 SCT050CB BKN060 PROB40 TEMPO 2906/2910 -RA BKN012 FEW020TCU BECMG 2910/2912 36007KT FEW025
LFLN,TAF LFLN 280800Z 2809/2818 18004KT 9999 SCT035 PROB30 TEMPO 2812/2818 26010KT SHRA FEW030TCU
LFLP,TAF LFLP 280800Z 2809/2909 23007KT CAVOK PROB40 TEMPO 2819/2824 5000 SHRA BKN060TCU PROB30 TEMPO 2819/2901 VRB15G30KT 2000 TSRA BKN050CB BECMG 2900/2902 VRB02KT TEMPO 2903/2906 4000 RA SCT015 OVC050
LFLS,TAF LFLS 280800Z 2809/2909 22008KT CAVOK PROB40 TEMPO 2819/2901 5000 SHRA BKN060TCU PROB30 TEMPO 2819/2901 2000 TSRA SCT015 BKN050CB BECMG 2822/2824 VRB02KT TEMPO 2903/2906 4000 RA BKN012
LFLW,TAF AMD LFLW 280831Z 2809/2818 16008KT CAVOK TEMPO 2809/2812 FEW080CB
LFLX,TAF LFLX 280500Z 2806/2912 25004KT 9999 SCT025 PROB40 TEMPO 2806/2807 4000 BR PROB30 TEMPO 2806/2807 0800 FG VV/// PROB40 TEMPO 2820/2903 02012KT 2500 SHRA SCT060CB BECMG 2903/2905 03010KT TEMPO 2905/2908 BKN008
LFLY,TAF AMD LFLY 280742Z 2807/2906 19009KT CAVOK TEMPO 2808/2812 18015G25KT PROB30 TEMPO 2818/2901 VRB15G25KT 3500 TSRA SCT055CB BKN060 PROB40 TEMPO 2901/2906 VRB10KT 3500 TSRA BKN014 SCT050CB BKN060
LFMD,TAF LFMD 280800Z 2809/2909 17010KT 9999 FEW015 BKN260 BECMG 2818/2822 33005KT PROB40 2818/2906 4500 BR SCT004 BKN009 TEMPO 2906/2909 09010KT BKN015
LFMI,TAF LFMI 280800Z 2809/2909 09004KT CAVOK TX23/2813Z TN13/2901Z BECMG 2810/2812 17010KT BECMG 2819/2821 VRB02KT 3200 BR TEMPO 2822/2901 1600 BECMG 2900/2902 CAVOK
LFMK,TAF LFMK 280800Z 2809/2909 10012KT 9999 BKN010 BECMG 2809/2811 CAVOK TEMPO 2810/2821 10017G27KT BECMG 2820/2822 BKN008 BECMG 2901/2903 VRB03KT BECMG 2906/2908 28011KT BKN018
LFML,TAF LFML 280800Z 2809/2915 VRB03KT CAVOK TX23/2811Z TN16/2905Z BECMG 2809/2810 18010KT BECMG 2818/2820 VRB04KT PROB40 TEMPO 2821/2909 3000 BR BKN008 BECMG 2913/2915 24010KT
LFMN,TAF LFMN 280800Z 2809/2915 16004KT 9999 FEW015 BKN260 BECMG 2809/2812 18010KT BECMG 2815/2818 08005KT PROB40 2818/2906 33008KT 4500 BR SCT004 BKN009 TEMPO 2906/2915 09010KT BKN015
LFMO,TAF LFMO 280800Z 2809/2909 VRB02KT CAVOK TX25/2814Z TN12/2904Z TEMPO 2815/2820 22012KT
LFMP,TAF LFMP 280800Z 2809/2909 VRB03KT 9999 BKN014 BECMG 2809/2811 05010KT TEMPO 2816/2820 BKN012 BECMG 2820/2822 VRB05KT OVC005 TEMPO 2820/2903 2000 BR OVC003
LFMT,TAF AMD LFMT 280920Z 2809/2909 VRB05KT 9999 OVC014 BECMG 2810/2812 18010KT CAVOK PROB30 TEMPO 2814/2818 BKN014 BECMG 2818/2820 VRB03KT TEMPO 2818/2903 BKN010 PROB30 TEMPO 2900/2903 3000 BR
LFMU,TAF AMD LFMU 280919Z 2809/2909 08010KT 9999 OVC008 BECMG 2810/2812 12010KT BECMG 2815/2817 CAVOK BECMG 2820/2821 05005KT PROB40 TEMPO 2900/2904 1500 BR BKN003
LFMV,TAF LFMV 280800Z 2809/2909 VRB03KT CAVOK BECMG 2811/2813 22010KT BECMG 2820/2822 VRB03KT PROB40 TEMPO 2900/2908 3000 BR BKN008
LFMY,TAF LFMY 280800Z 2809/2909 20010KT CAVOK TX25/2812Z TN10/2904Z BECMG 2818/2820 VRB02KT
LFOA,TAF LFOA 280800Z 2809/2909 19005KT 9999 NSC TX23/2815Z TN13/2905Z PROB40 TEMPO 2810/2817 -SHRA SCT030TCU BECMG 2812/2815 33005KT TEMPO 2820/2902 4000 -RA BECMG 2902/2904 04005KT TEMPO 2904/2908 3000 -DZ BKN006
LFOB,TAF AMD LFOB 280748Z 2807/2906 24010KT 8000 SCT016 TEMPO 2807/2811 BKN009 OVC012 BECMG 2815/2818 32005KT TEMPO 2823/2906 OVC007
LFOE,TAF LFOE 280800Z 2809/2909 26010KT 9999 BKN015 TEMPO 2809/2810 4000 -RADZ BKN007 BECMG 2811/2814 SCT020 BECMG 2822/2824 BKN004 BECMG 2900/2902 32004KT 0800 FG BKN002 TEMPO 2902/2907 0500 FG VV/// BECMG 2907/2909 06004KT 9999 NSW BKN009
LFOH,TAF AMD LFOH 280923Z 2809/2906 24011KT 8000 BKN008 OVC015 TEMPO 2809/2812 2000 BR OVC002 PROB40 2809/2812 0600 FG VV/// FM281600 33005KT 9999 SCT016 TEMPO 2818/2906 OVC002
LFOJ,TAF LFOJ 280800Z 2809/2909 24006KT 9999 BKN010 TX21/2815Z TN09/2904Z PROB40 TEMPO 2809/2811 4000 -SHRA BKN010TCU BECMG 2811/2813 SCT030 BECMG 2813/2815 30010KT BECMG 2820/2822 01006KT BECMG 2901/2903 3000 BR BKN003 BECMG 2907/2909 9999 NSW BKN007
LFOK,TAF LFOK 280500Z 2806/2906 24012KT 8000 SCT007 BKN030 TEMPO 2806/2810 4000 DZRA BKN007 OVC013 TEMPO 2810/2813 BKN013 BECMG 2816/2819 33004KT TEMPO 2902/2906 OVC003
LFOP,TAF AMD LFOP 280833Z 2809/2818 22007KT 9999 SCT006 SCT012 BKN025 TEMPO 2809/2812 BKN012 PROB30 2809/2810 BKN006
LFOT,TAF AMD LFOT 280712Z 2807/2906 25004KT 9999 SCT040 BKN060 PROB40 TEMPO 2807/2809 4000 BR OVC006 BECMG 2809/2811 BKN020 PROB30 TEMPO 2819/2824 4000 SHRA SCT060CB BECMG 2901/2903 BKN012 PROB40 TEMPO 2903/2906 OVC006
LFPB,TAF AMD LFPB 280710Z 2807/2906 24010KT 9999 BKN025 TEMPO 2807/2809 BKN008 BKN011 BECMG 2816/2819 30008KT BECMG 2901/2903 BKN006 PROB40 2903/2906 2000 BR BKN003 PROB30 TEMPO 2904/2906 0800 BCFG
LFPG,TAF AMD LFPG 280705Z 2807/2912 24010KT 9999 BKN025 TX20/2814Z TN09/2904Z TEMPO 2807/2809 BKN008 BKN011 BECMG 2816/2819 30008KT BECMG 2901/2903 BKN006 PROB40 2903/2906 2000 BR BKN003 PROB30 TEMPO 2904/2906 0800 BCFG BECMG 2906/2909 01010KT BKN012 BECMG 2909/2911 BKN018
LFPN,TAF LFPN 280800Z 2809/2818 24010KT 9999 BKN012 TEMPO 2809/2811 4000 -RADZ BKN007 BECMG 2811/2813 BKN020
LFPO,TAF LFPO 280500Z 2806/2912 24010KT 9999 BKN020 PROB40 TEMPO 2806/2811 BKN012 PROB30 TEMPO 2806/2810 4000 -RA BKN007 BECMG 2816/2818 33005KT CAVOK TEMPO 2902/2910 BKN008 PROB40 TEMPO 2904/2907 3000 BR OVC004
LFPV,TAF AMD LFPV 280937Z 2810/2909 25008KT 9999 BKN013 BKN021 OVC026 TX19/2815Z TN09/2903Z BECMG 2810/2812 BKN016 OVC025 BECMG 2816/2818 CAVOK PROB40 TEMPO 2823/2906 OVC005 PROB40 TEMPO 2901/2905 4000 BR OVC003
LFQQ,TAF LFQQ 280500Z 2806/2912 23010KT 8000 SCT013 OVC030 TEMPO 2806/2810 OVC008 TEMPO 2810/2819 BKN014 TEMPO 2819/2906 BKN007 OVC012 BECMG 2823/2903 32005KT
LFRB,TAF LFRB 280500Z 2806/2912 VRB05KT 9999 OVC008 TEMPO 2806/2810 2000 BR BKN003 PROB40 TEMPO 2806/2809 0800 FG VV/// BECMG 2810/2812 BKN012 BECMG 2814/2816 BKN020 BECMG 2819/2821 3000 BR BKN004 TEMPO 2821/2907 1500 BR OVC002 PROB40 TEMPO 2822/2906 0800 FG VV/// BECMG 2907/2909 9999 NSW BKN012 BECMG 2909/2911 BKN020
LFRC,TAF LFRC 280800Z 2809/2818 25010KT 9999 OVC008 TEMPO 2809/2811 4000 BR BKN002 BECMG 2812/2814 BKN020
LFRD,TAF LFRD 280500Z 2806/2906 23010KT 9999 BKN015 BECMG 2807/2809 VRB05KT TEMPO 2806/2812 BKN008 TEMPO 2812/2815 BKN012 BECMG 2815/2817 BKN008 BECMG 2822/2824 3000 BR BKN004 TEMPO 2900/2906 1500 BR OVC002 PROB40 TEMPO 2900/2906 0800 FG VV///
LFRG,TAF LFRG 280800Z 2809/2818 27010KT 9999 BKN009 TEMPO 2809/2812 3000 DZ BKN004 BECMG 2812/2814 BKN016
LFRH,TAF AMD LFRH 280929Z 2809/2906 26005KT 9999 OVC002 BECMG 2809/2811 BKN008 BECMG 2811/2813 BKN015 TEMPO 2812/2822 BKN015 PROB40 TEMPO 2902/2906 OVC002
LFRI,TAF AMD LFRI 281008Z 2810/2906 VRB02KT 9999 BKN016 TEMPO 2810/2811 BKN006 TEMPO 2812/2816 CAVOK TEMPO 2816/2824 SHRA SCT080TCU
LFRJ,TAF LFRJ 280800Z 2809/2818 26005KT 8000 OVC006 TEMPO 2809/2812 2000 BR OVC002 PROB40 TEMPO 2809/2812 0600 FG VV/// BECMG 2811/2813 OVC010 BECMG 2813/2815 BKN015
LFRK,TAF LFRK 280800Z 2809/2818 26010KT 9999 BKN016 TEMPO 2809/2812 BKN008 
LFRL,TAF LFRL 280500Z 2806/2906 VRB05KT 2000 BR OVC002 TEMPO 2806/2809 0600 FG VV/// BECMG 2809/2811 8000 NSW BKN006 OVC010 PROB30 TEMPO 2811/2816 BKN003 BECMG 2816/2818 SCT014 BECMG 2820/2822 OVC002 TEMPO 2822/2906 2000 BR PROB40 TEMPO 2822/2906 0500 FG VV///
LFRM,TAF LFRM 280500Z 2806/2906 21003KT 8000 BKN009 TEMPO 2806/2809 3500 -DZ BKN004 BECMG 2806/2808 BKN006 TEMPO 2808/2810 BKN011 BECMG 2810/2812 BKN016 TEMPO 2902/2906 4500 BR BKN005
LFRN,TAF LFRN 280500Z 2806/2906 VRB05KT 9999 BKN012 TEMPO 2806/2808 BKN005 BECMG 2808/2810 BKN020 BECMG 2818/2820 BKN008 TEMPO 2900/2906 3000 BR OVC002
LFRQ,TAF AMD LFRQ 280620Z 2806/2906 VRB05KT 9999 OVC008 TEMPO 2806/2809 2000 BR BKN003 PROB40 TEMPO 2806/2809 0300 FG VV/// BECMG 2809/2811 BKN012 BECMG 2811/2813 BKN020 TEMPO 2822/2906 3000 BR BKN004
LFRS,TAF LFRS 280500Z 2806/2912 20006KT 8000 BKN003 TEMPO 2806/2808 2500 BR BKN002 BECMG 2807/2809 BKN006 TEMPO 2809/2811 BKN011 BECMG 2811/2813 BKN016 TEMPO 2817/2823 SHRA SCT016 BKN070TCU BECMG 2901/2903 3500 BR BKN002 BECMG 2907/2909 9999 NSW BKN006 BECMG 2909/2911 CAVOK
LFRZ,TAF LFRZ 280500Z 2806/2906 32008KT 9999 OVC003 TEMPO 2806/2809 3500 BR BKN002 BECMG 2809/2812 SCT006 BKN016 TEMPO 2817/2823 SHRA SCT016 BKN070TCU TEMPO 2900/2906 BKN004
LFSB,TAF LFSB 280500Z 2806/2906 16004KT 9999 BKN035 TEMPO 2806/2810 -RA PROB40 TEMPO 2806/2810 3000 RA FEW030CB TEMPO 2810/2821 3000 SHRA FEW030CB PROB40 TEMPO 2810/2814 24012G22KT PROB30 TEMPO 2815/2818 BKN012 PROB40 TEMPO 2902/2906 2000 BR BKN003
LFSI,TAF LFSI 280800Z 2809/2909 22010KT 9999 SCT007 BKN015 BKN020 TEMPO 2809/2816 4000 SHRA BKN009 BKN015TCU PROB30 2811/2814 3000 TSRA SCT009 BKN015CB BECMG 2814/2816 SCT020 PROB30 TEMPO 2822/2906 4000 BR BKN008
LFSL,TAF LFSL 280800Z 2809/2818 15007KT CAVOK
LFSO,TAF LFSO 280800Z 2809/2909 25012KT 9999 BKN010 BECMG 2809/2811 BKN015 TEMPO 2811/2817 4000 -SHRA BKN020TCU PROB30 TEMPO 2812/2816 2900 -TSRA BKN015CB BECMG 2822/2824 31005KT TEMPO 2904/2906 3000 BR BKN005
LFST,TAF LFST 280500Z 2806/2906 18007KT 9999 BKN030 TEMPO 2806/2810 3000 RA BKN020TCU PROB30 TEMPO 2806/2810 BKN007 TEMPO 2810/2818 -SHRA SCT020TCU PROB30 TEMPO 2810/2816 4000 SHRA FEW025CB PROB30 TEMPO 2900/2906 4000 BR
LFSX,TAF LFSX 280800Z 2809/2909 24010KT 8000 SCT010 OVC025 TEMPO 2809/2812 3000 DZRA SCT010 OVC020 BECMG 2812/2814 SCT015TCU OVC030 TEMPO 2814/2820 VRB15G25KT 2000 SHRA SCT010CB OVC020 PROB40 TEMPO 2815/2820 1000 TSGS BECMG 2820/2822 04002KT 1000 BR SCT015 BECMG 2822/2824 0050 FG VV/// BECMG 2907/2909 22010KT CAVOK
LFTH,TAF LFTH 280800Z 2809/2909 13008KT CAVOK BECMG 2812/2814 22012KT TEMPO 2821/2903 FEW008
LFTW,TAF LFTW 280800Z 2809/2909 16010KT CAVOK BECMG 2818/2820 VRB03KT PROB40 TEMPO 2822/2907 3000 BR BKN008
LFVP,TAF LFVP 280800Z 2809/2818 04016KT 9999 BKN020 BECMG 2816/2818 34012KT
LFYR,TAF LFYR 280800Z 2809/2909 18005KT 9999 BKN004 BKN015 BECMG 2809/2812 30005KT BKN020 PROB30 TEMPO 2812/2818 -SHRA BKN030CB PROB30 TEMPO 2821/2824 -RA BECMG 2900/2903 04010KT BKN009 BKN015 BECMG 2906/2909 SCT020
LGAD,TAF LGAD 280800Z 2809/2818 VRB03KT 9999 FEW020 SCT080 BECMG 2810/2812 30010KT
LGAL,TAF LGAL 280800Z 2809/2818 04010KT 9999 FEW020 SCT030
LGAV,TAF LGAV 280500Z 2806/2906 03013KT 9999 FEW020 SCT035 TEMPO 2806/2812 03013G23KT BECMG 2818/2820 VRB03KT
LGBL,TAF LGBL 280800Z 2809/2818 09010KT 9999 FEW025
LGEL,TAF LGEL 280500Z 2806/2906 35010KT 9999 FEW025 BECMG 2815/2817 VRB03KT
LGHI,TAF LGHI 280800Z 2809/2818 36016KT 9999 FEW025 TEMPO 2809/2815 01016G26KT
LGIO,TAF LGIO 280800Z 2809/2818 VRB03KT 9999 FEW025
LGIR,TAF LGIR 280500Z 2806/2906 33012KT 9999 FEW020 SCT030 TEMPO 2806/2815 35013G23KT PROB30 TEMPO 2806/2814 5000 RA FEW018 BKN020
LGKC,TAF LGKC 280800Z 2809/2818 04018KT 9999 FEW018 SCT025
LGKF,TAF LGKF 280800Z 2809/2818 VRB03KT 9999 FEW030 BECMG 2810/2812 30010KT
LGKL,TAF LGKL 280800Z 2809/2818 34010KT 9999 FEW025 SCT080 TEMPO 2809/2814 15010KT PROB30 TEMPO 2812/2815 5000 RA SCT025 BKN080
LGKO,TAF LGKO 280500Z 2806/2906 34018KT 9999 FEW016 TEMPO 2806/2816 33023G35KT TEMPO 2816/2824 32020G30KT
LGKP,TAF LGKP 280800Z 2809/2818 31025G35KT 9999 FEW012 SCT020
LGKR,TAF LGKR 280500Z 2806/2906 VRB03KT 9999 FEW025 BECMG 2810/2812 31013KT BECMG 2820/2822 VRB03KT
LGKV,TAF LGKV 280500Z 2806/2906 VRB03KT 9999 FEW025 BKN080 PROB30 TEMPO 2811/2817 5000 SHRA FEW018TCU SCT025 BKN080
LGLM,TAF LGLM 280800Z 2809/2818 05012KT 9999 FEW020
LGLR,TAF LGLR 280800Z 2809/2818 04010KT 9999 FEW025
LGMK,TAF LGMK 280800Z 2809/2818 36020KT 9999 FEW018 TEMPO 2809/2815 36020G30KT
LGMT,TAF LGMT 280800Z 2809/2818 35016KT 9999 SCT025
LGPZ,TAF LGPZ 280500Z 2806/2906 04008KT 9999 FEW020 BECMG 2810/2812 27010KT
LGRP,TAF LGRP 280500Z 2806/2906 28014KT 9999 FEW018 TEMPO 2810/2824 28020G30KT
LGRX,TAF LGRX 280800Z 2809/2818 VRB03KT 9999 FEW020 SCT080 BECMG 2810/2812 28010KT
LGSA,TAF LGSA 280500Z 2806/2906 34010KT 9999 FEW020 BECMG 2815/2817 VRB05KT TEMPO 2806/2812 5000 RA FEW018 BKN025 TEMPO 2900/2905 BKN020
LGSK,TAF LGSK 280800Z 2809/2818 35012KT 9999 FEW020 SCT030 TEMPO 2809/2812 34012G22KT BECMG 2812/2814 06010KT
LGSM,TAF LGSM 280800Z 2809/2818 01016KT 9999 FEW018 SCT025 TEMPO 2809/2815 01016G26KT
LGSR,TAF LGSR 280500Z 2806/2906 34020KT 9999 FEW025 TEMPO 2806/2817 34020G34KT
LGST,TAF LGST 280800Z 2809/2818 32025KT 9999 FEW018 SCT030 TEMPO 2809/2815 32028G38KT
LGSY,TAF LGSY 280800Z 2809/2818 03012KT 9999 SCT020 TEMPO 2809/2812 BKN020
LGTG,TAF LGTG 280800Z 2809/2818 01012KT 9999 SCT025
LGTL,TAF LGTL 280800Z 2809/2818 01014KT 9999 FEW018 SCT025 TEMPO 2809/2818 01016G26KT PROB30 TEMPO 2809/2817 5000 RA BKN025
LGTS,TAF LGTS 280500Z 2806/2906 34015KT 9999 FEW025 BECMG 2812/2814 VRB03KT TEMPO 2818/2824 14013KT
LGZA,TAF LGZA 280800Z 2809/2818 VRB03KT 9999 FEW018 BECMG 2812/2814 30010KT
LHBP,TAF LHBP 280451Z 2806/2906 09004KT CAVOK BECMG 2807/2810 18008KT BECMG 2815/2818 12006KT TEMPO 2819/2906 18007KT 8000 -RA -SHRA SCT035TCU BKN045 PROB30 TEMPO 2822/2906 4000 SHRA SCT030CB BKN035
LHDC,TAF LHDC 280815Z 2809/2818 VRB02KT CAVOK BECMG 2809/2812 22007KT
LHKE,TAF LHKE 280815Z 2809/2818 17008KT CAVOK TEMPO 2809/2817 9999 SCT040 BKN080
LHPA,TAF LHPA 280515Z 2806/2906 16009KT CAVOK TEMPO 2808/2815 18013G24KT PROB30 TEMPO 2816/2820 VRB13G24KT 9999 -SHRA -RA SCT060TCU BKN083 PROB30 TEMPO 2822/2906 VRB15G29KT 9999 SHRA -TSRA FEW030CB SCT050TCU BKN060
LHPP,TAF LHPP 280815Z 2809/2818 14004KT CAVOK BECMG 2809/2812 17009KT
LHPR,TAF LHPR 280815Z 2809/2818 14010KT CAVOK BECMG 2809/2812 17016KT
LHSM,TAF LHSM 280815Z 2809/2818 16010KT CAVOK BECMG 2809/2812 19016KT
LHSN,TAF LHSN 280815Z 2809/2818 19006KT CAVOK BECMG 2815/2818 14006KT
LIBA,TAF LIBA 280800Z 2809/2818 10013KT 9999 FEW040
LIBC,TAF LIBC 280616Z 2807/2906 02007KT CAVOK BECMG 2811/2813 20012KT BECMG 2818/2820 VRB05KT
LIBD,TAF LIBD 280500Z 2806/2906 25007KT CAVOK BECMG 2809/2811 06010KT BECMG 2816/2818 14007KT
LIBF,TAF LIBF 280500Z 2806/2906 VRB05KT CAVOK BECMG 2807/2809 10012KT BECMG 2817/2819 VRB05KT
LIBG,TAF LIBG 280800Z 2809/2818 VRB05KT CAVOK
LIBN,TAF LIBN 280800Z 2809/2818 02010KT CAVOK
LIBP,TAF LIBP 280500Z 2806/2906 24006KT CAVOK BECMG 2808/2810 09012KT BECMG 2816/2818 VRB05KT
LIBR,TAF LIBR 280500Z 2806/2906 30008KT CAVOK BECMG 2806/2808 02010KT BECMG 2815/2817 17006KT
LIBV,TAF LIBV 280800Z 2809/2818 02007KT CAVOK BECMG 2813/2815 18006KT 9999 FEW030
LICA,TAF LICA 280500Z 2806/2906 08006KT CAVOK BECMG 2808/2810 26010KT BECMG 2816/2818 VRB05KT
LICB,TAF LICB 280500Z 2806/2906 VRB05KT CAVOK BECMG 2809/2811 25012KT BECMG 2817/2819 VRB05KT
LICC,TAF LICC 280500Z 2806/2906 25006KT CAVOK BECMG 2809/2811 10012KT BECMG 2818/2820 25006KT
LICD,TAF LICD 280500Z 2806/2906 15010KT CAVOK
LICG,TAF LICG 280800Z 2809/2818 16012KT CAVOK
LICJ,TAF LICJ 280500Z 2806/2906 VRB05KT CAVOK BECMG 2810/2812 05010KT BECMG 2816/2818 20006KT
LICR,TAF LICR 280500Z 2806/2906 VRB05KT CAVOK BECMG 2807/2809 20012KT BECMG 2816/2818 VRB05KT
LICT,TAF LICT 280800Z 2809/2818 18012KT CAVOK
LICZ,TAF LICZ 280500Z 2806/2906 27007KT CAVOK TEMPO 2809/2818 09015KT
LIEA,TAF LIEA 280500Z 2806/2906 VRB05KT CAVOK BECMG 2810/2812 25010KT BECMG 2816/2818 VRB05KT
LIED,TAF LIED 280800Z 2809/2818 15008KT 9999 FEW020 BECMG 2811/2813 15015KT CAVOK
LIEE,TAF LIEE 280500Z 2806/2906 VRB05KT CAVOK BECMG 2808/2810 16014KT BECMG 2817/2819 VRB05KT
LIEO,TAF LIEO 280500Z 2806/2906 VRB05KT CAVOK BECMG 2808/2810 09010KT BECMG 2816/2818 VRB05KT
LIMC,TAF LIMC 280500Z 2806/2912 VRB05KT CAVOK TEMPO 2809/2815 10010KT BECMG 2812/2815 VRB05KT BECMG 2906/2908 17010KT
LIME,TAF LIME 280500Z 2806/2906 VRB05KT CAVOK BECMG 2811/2814 24010KT BECMG 2819/2822 VRB05KT
LIMF,TAF LIMF 280500Z 2806/2906 04005KT CAVOK
LIMG,TAF LIMG 280500Z 2807/2906 VRB05KT CAVOK BECMG 2808/2810 12010KT BECMG 2816/2818 VRB05KT
LIMJ,TAF LIMJ 280500Z 2806/2906 VRB05KT CAVOK BECMG 2808/2810 17010KT
LIML,TAF LIML 280500Z 2806/2906 09006KT CAVOK BECMG 2812/2815 25010KT
LIMN,TAF LIMN 280800Z 2809/2818 03005KT 9999 SCT060
LIMP,TAF LIMP 280500Z 2806/2906 08007KT CAVOK BECMG 2816/2818 24010KT
LIMW,TAF LIMW 280800Z 2809/2818 VRB05KT 9999 FEW080 BECMG 2810/2812 27013KT BECMG 2816/2818 VRB05KT
LIMZ,TAF LIMZ 280500Z 2806/2906 VRB05KT 9999 FEW070 BECMG 2807/2809 02010KT BECMG 2816/2818 11005KT
LIPA,TAF LIPA 280800Z 2809/2818 04005KT 9999 BKN060
LIPB,TAF LIPB 280500Z 2806/2906 VRB05KT 9999 SCT060
LIPC,TAF LIPC 280800Z 2809/2818 32005KT CAVOK BECMG 2811/2813 10010KT
LIPE,TAF LIPE 280500Z 2806/2906 VRB05KT 9999 SCT050 BECMG 2808/2810 01010KT BECMG 2816/2818 23006KT
LIPH,TAF LIPH 280500Z 2806/2906 VRB05KT 9999 FEW050 BECMG 2811/2813 13010KT BECMG 2816/2818 VRB05KT
LIPI,TAF LIPI 280800Z 2809/2818 VRB03KT 9999 FEW050 SCT110
LIPK,TAF LIPK 280500Z 2806/2906 VRB05KT 9999 FEW050 BECMG 2814/2816 24012KT BECMG 2819/2821 VRB05KT
LIPL,TAF LIPL 280800Z 2809/2818 VRB03KT 9999 FEW033 SCT080
LIPO,TAF LIPO 280500Z 2806/2906 08006KT CAVOK BECMG 2812/2814 26010KT BECMG 2819/2822 VRB05KT
LIPQ,TAF LIPQ 280500Z 2806/2906 VRB05KT 9999 SCT050 BECMG 2809/2811 21010KT BECMG 2815/2817 VRB05KT
LIPR,TAF LIPR 280500Z 2806/2906 VRB05KT 9999 FEW050 BECMG 2808/2810 06010KT BECMG 2815/2817 VRB05KT
LIPS,TAF LIPS 280800Z 2809/2818 12005KT 9999 BKN100
LIPX,TAF LIPX 280500Z 2806/2906 09006KT CAVOK
LIPY,TAF LIPY 280500Z 2806/2906 VRB05KT 9999 FEW050 BECMG 2809/2811 08010KT BECMG 2814/2816 24006KT
LIPZ,TAF LIPZ 280500Z 2806/2912 VRB05KT 9999 FEW050 BECMG 2809/2811 14010KT BECMG 2818/2820 03007KT BECMG 2908/2910 15010KT
LIQW,TAF LIQW 280800Z 2809/2818 VRB03KT 9999 SCT025
LIRA,TAF LIRA 280500Z 2806/2906 VRB05KT CAVOK BECMG 2810/2812 23010KT BECMG 2816/2818 16006KT
LIRE,TAF LIRE 280800Z 2809/2818 18008KT 9999 FEW020
LIRF,TAF LIRF 280500Z 2806/2912 VRB05KT CAVOK BECMG 2809/2811 23010KT BECMG 2816/2818 VRB05KT BECMG 2902/2904 16012KT
LIRG,TAF LIRG 280800Z 2809/2818 28005KT CAVOK
LIRH,TAF LIRH 280800Z 2809/2818 16006KT CAVOK TEMPO 2812/2816 20012KT 9999 FEW040
LIRL,TAF LIRL 280800Z 2809/2818 18005KT CAVOK
LIRM,TAF LIRM 280800Z 2809/2818 23010KT CAVOK
LIRN,TAF LIRN 280500Z 2806/2906 VRB05KT CAVOK BECMG 2810/2812 22010KT BECMG 2816/2818 VRB05KT
LIRP,TAF LIRP 280500Z 2806/2906 17006KT CAVOK BECMG 2816/2818 23009KT 9999 FEW030 SCT060
LIRQ,TAF LIRQ 280500Z 2806/2906 VRB05KT CAVOK BECMG 2809/2811 25010KT BECMG 2817/2819 VRB05KT
LIRS,TAF LIRS 280800Z 2809/2818 22010KT 9999 FEW025
LIRU,TAF LIRU 280800Z 2809/2818 VRB05KT CAVOK BECMG 2809/2811 22010KT BECMG 2816/2818 VRB05KT
LIRV,TAF LIRV 280800Z 2809/2818 27003KT CAVOK
LIRZ,TAF LIRZ 280500Z 2806/2906 VRB05KT CAVOK BECMG 2809/2811 22012KT BECMG 2817/2819 VRB05KT
LJCE,TAF LJCE 280800Z 2809/2818 VRB02KT CAVOK PROB40 TEMPO 2812/2815 25010KT
LJLJ,TAF LJLJ 280500Z 2806/2906 VRB02KT 9999 FEW070 TEMPO 2812/2817 25012KT PROB30 TEMPO 2821/2902 -RA
LJMB,TAF LJMB 280500Z 2806/2906 VRB02KT CAVOK BECMG 2809/2811 21012KT PROB30 TEMPO 2812/2816 -RA BECMG 2819/2821 VRB02KT PROB30 TEMPO 2821/2900 -RA
LJPZ,TAF LJPZ 280800Z 2809/2818 12006KT CAVOK BECMG 2809/2811 26010KT
LKCV,TAF LKCV 280500Z 2806/2906 14006KT CAVOK TEMPO 2808/2816 14016KT BECMG 2814/2816 BKN030 TEMPO 2816/2906 7000 RA BKN020
LKKB,TAF LKKB 280500Z 2806/2906 07004KT CAVOK BECMG 2810/2812 17004KT BKN035 TEMPO 2813/2821 22010KT 6000 RA BKN015 OVC022 BECMG 2821/2823 23006KT
LKKV,TAF LKKV 280500Z 2806/2906 15002KT CAVOK BECMG 2810/2812 16006KT 9999 -RA SCT006 BKN017 BECMG 2812/2814 5000 -RA BR BKN012 BECMG 2814/2816 0600 RA FG BKN002 TEMPO 2816/2906 1500 BR BKN004
LKMT,TAF LKMT 280500Z 2806/2906 22005KT CAVOK TEMPO 2812/2817 19015KT BECMG 2822/2900 21008KT 7000 -RA BKN030 BECMG 2904/2906 4000 RA BR BKN017
LKNA,TAF LKNA 280500Z 2806/2906 10005KT CAVOK TEMPO 2810/2819 14014G24KT BECMG 2814/2816 BKN035 TEMPO 2818/2902 7000 RA BKN018
LKPR,TAF LKPR 280800Z 2809/2915 17007KT CAVOK BECMG 2814/2816 6000 -RA BKN017 BECMG 2820/2822 22007KT 3000 BR OVC010 TEMPO 2822/2903 1500 BR OVC003 BECMG 2905/2907 6000 BKN014 BECMG 2907/2909 9999 SCT030 TEMPO 2909/2915 31012G26KT 6000 SHRA BKN017 SCT025CB
LKTB,TAF LKTB 280500Z 2806/2906 12005KT CAVOK BECMG 2807/2809 16010KT BECMG 2816/2818 7000 -RA BKN016 BECMG 2819/2821 5000 RA BR BKN009 TEMPO 2822/2906 18005KT 1500 RA BR BKN005
LLBG,TAF AMD LLBG 280855Z 2809/2906 27012KT 9999 SCT030 PROB40 2809/2816 21015G25KT SCT025 BECMG 2816/2818 21005KT SCT025 PROB30 TEMPO 2902/2906 18010KT 7000 RA BKN020 TX22/2811Z TN15/2903Z
LLER,TAF LLER 280502Z 2806/2906 36008KT CAVOK BECMG 2810/2812 34017KT PROB30 TEMPO 2813/2817 32020G30KT 5000 HZ BECMG 2819/2821 35010KT TX32/2813Z TN16/2903Z
LLHA,TAF AMD LLHA 280853Z 2809/2906 27012KT 9999 SCT025 PROB40 TEMPO 2809/2816 27016G26KT -RA BKN020 BECMG 2816/2818 23006KT PROB40 TEMPO 2818/2824 -RA BKN020 PROB40 TEMPO 2900/2906 23012KT 6000 RA FEW020TCU BKN025 TX22/2811Z TN15/2903Z
LLHZ,TAF AMD LLHZ 280852Z 2809/2906 27010KT 9999 SCT025 PROB40 TEMPO 2809/2816 27020G30KT -RA BKN020 BECMG 2816/2818 23005KT PROB30 TEMPO 2900/2906 23010KT 7000 RA BKN020 TX21/2811Z TN15/2903Z
LLIB,TAF LLIB 280501Z 2806/2906 18008KT 9999 SCT030 PROB40 TEMPO 2806/2809 -RA BKN025 BECMG 2809/2811 27012KT SCT040 BECMG 2816/2818 VRB04KT SCT025 PROB40 TEMPO 2818/2824 21006KT 7000 -RA BKN020 PROB40 TEMPO 2900/2906 18010KT 5000 RA BR SCT010 FEW020TCU BKN025 TX22/2812Z TN09/2903Z
LMML,TAF LMML 280700Z 2808/2906 VRB06KT 9999 FEW020
LOAN,TAF LOAN 280815Z 2809/2818 16014KT 9999 FEW060 TEMPO 2814/2818 RA BECMG 2815/2817 18004KT
LOAV,TAF LOAV 280815Z 2809/2818 16013KT 9999 FEW060 TEMPO 2814/2818 RA TEMPO 2816/2818 10003KT
LOWG,TAF LOWG 280515Z 2806/2906 VRB04KT 9999 FEW050 BKN070 TX15/2813Z TN08/2806Z TEMPO 2812/2823 16007KT -RA TEMPO 2900/2906 0500 BCFG
LOWI,TAF LOWI 280515Z 2806/2906 27004KT 9999 -RA SCT040 BKN060 TX14/2815Z TN08/2806Z TEMPO 2806/2815 29010KT RA PROB30 TEMPO 2810/2816 4000 RA BKN012 TEMPO 2816/2824 29015G25KT 4000 SHRA SCT012 SCT025CB BKN030 PROB30 TEMPO 2816/2821 TSRA TEMPO 2900/2906 29012KT -SHRA
LOWK,TAF LOWK 280515Z 2806/2906 VRB04KT 9999 SCT050 BKN080 TX16/2814Z TN07/2806Z TEMPO 2812/2816 22010KT PROB30 TEMPO 2812/2821 -SHRA
LOWL,TAF LOWL 280515Z 2806/2906 09005KT CAVOK TX14/2815Z TN08/2806Z TEMPO 2811/2816 -RA PROB40 TEMPO 2816/2820 26012G25KT SHRA FM282200 25004KT 9999 BKN040 TEMPO 2905/2906 -SHRA
LOWS,TAF LOWS 280515Z 2806/2906 15006KT 9999 FEW040 BKN060 TX14/2814Z TN10/2806Z TEMPO 2806/2812 28009KT -RA PROB30 TEMPO 2810/2812 4000 RA BKN014 TEMPO 2812/2816 28009KT 4000 RA BKN014 TEMPO 2816/2824 32015G25KT 4000 SHRA SCT020CB BKN030 TEMPO 2818/2821 TSRA TEMPO 2900/2906 29012KT -SHRA PROB30 TEMPO 2903/2906 SHRA
LOWW,TAF LOWW 280815Z 2809/2915 14013KT CAVOK TX18/2913Z TN10/2902Z TEMPO 2809/2815 16017G27KT TEMPO 2814/2820 RA BECMG 2816/2818 15004KT PROB30 TEMPO 2902/2908 SHRA BECMG 2905/2907 29007KT TEMPO 2908/2915 26015G25KT SHRA BKN030 FEW040CB PROB40 TEMPO 2909/2915 VRB20G30KT TSRA
LOXA,TAF LOXA 280815Z 2809/2818 VRB03KT 9999 FEW050 BKN080 TEMPO 2809/2818 -RA SCT040 BKN050 PROB30 TEMPO 2812/2818 8000 RA FEW025 BKN040
LOXN,TAF LOXN 280815Z 2809/2818 16010KT 9999 FEW060 SCT140 BKN200 BECMG 2813/2815 24008KT -RA SCT060 BKN080
LOXT,TAF LOXT 280515Z 2806/2815 VRB03KT 9999 FEW150 SCT230 TEMPO 2806/2812 14010KT BECMG 2812/2814 -RA SCT050 BKN080
LOXZ,TAF LOXZ 280815Z 2809/2818 VRB03KT 9999 FEW030 SCT050 BKN130 BECMG 2810/2812 23008KT -RA FEW030 SCT040 BKN060
LPAR,TAF LPAR 280803Z 2809/2818 33010KT CAVOK TEMPO 2815/2818 35012G22KT
LPAZ,TAF LPAZ 280500Z 2806/2912 23015KT 9999 SCT012 PROB30 TEMPO 2806/2812 8000 SHRA SCT006 BKN012 FEW018CB TEMPO 2812/2912 FEW015 SCT035
LPBJ,TAF LPBJ 280504Z 2806/2906 VRB02KT CAVOK BECMG 2812/2814 30008KT
LPCS,TAF LPCS 280800Z 2809/2818 36013KT CAVOK
LPFR,TAF LPFR 280500Z 2806/2906 VRB02KT CAVOK PROB30 TEMPO 2806/2810 5000 BR SCT008 BECMG 2810/2812 18007KT BECMG 2814/2816 25008KT BECMG 2820/2823 30008KT
LPHR,TAF LPHR 280800Z 2809/2818 24015KT 9999 SCT015 PROB30 TEMPO 2809/2818 24018G30KT 5000 SHRA SCT004 BKN008 FEW018CB
LPLA,TAF LPLA 280504Z 2806/2906 22012KT 9999 FEW015 SCT030 TEMPO 2810/2818 22018G28KT
LPMA,TAF LPMA 280500Z 2806/2906 VRB05KT 9999 SCT015 BECMG 2811/2813 21008KT BECMG 2819/2821 VRB05KT
LPMR,TAF AMD LPMR 280626Z 2806/2906 VRB02KT 0600 FG BKN002 BECMG 2808/2810 34008KT CAVOK BECMG 2902/2904 SCT004 PROB40 2904/2906 3000 BR BKN004
LPMT,TAF LPMT 280504Z 2806/2906 VRB02KT CAVOK BECMG 2811/2813 34010KT
LPOV,TAF AMD LPOV 280610Z 2806/2906 VRB02KT 3000 BR SCT004 PROB40 2806/2808 0500 FG BKN004 BECMG 2808/2810 34008KT CAVOK BECMG 2902/2904 VRB02KT SCT004 PROB40 2904/2906 3000 BR BKN004
LPPD,TAF LPPD 280500Z 2806/2906 24013KT 9999 SCT012 PROB30 TEMPO 2806/2818 5000 SHRA SCT004 BKN008 FEW018CB TEMPO 2818/2906 FEW015 SCT035
LPPR,TAF AMD LPPR 280639Z 2806/2906 VRB02KT 9999 SCT012 TEMPO 2806/2810 SCT004 BKN008 BECMG 2810/2812 29007KT CAVOK BECMG 2813/2815 32008KT BECMG 2820/2823 VRB02KT 9999 SCT008 PROB40 TEMPO 2900/2906 5000 -RA BR SCT006 BKN012
LPPS,TAF LPPS 280500Z 2806/2912 VRB05KT 9999 SCT015 PROB30 TEMPO 2818/2912 BKN012
LPPT,TAF LPPT 280500Z 2806/2912 30007KT CAVOK BECMG 2815/2817 33010KT BECMG 2900/2903 35007KT 9999 SCT012
LPST,TAF LPST 280802Z 2809/2818 35008KT 9999 FEW010 SCT012 BECMG 2809/2811 CAVOK
LQBK,TAF LQBK 280500Z 2806/2906 09006KT CAVOK TX20/2814Z TN07/2806Z
LQMO,TAF LQMO 280500Z 2806/2906 32005KT CAVOK TX22/2813Z TN10/2806Z TEMPO 2809/2816 20010KT
LQSA,TAF LQSA 280500Z 2806/2906 15005KT CAVOK TX21/2814Z TN04/2806Z
LQTZ,TAF LQTZ 280500Z 2806/2906 VRB02KT CAVOK TX18/2814Z TN03/2806Z PROB40 TEMPO 2810/2816 10010KT
LRAR,TAF LRAR 280800Z 2809/2818 VRB04KT CAVOK
LRBC,TAF LRBC 280800Z 2809/2818 33016KT 9999 SCT040 TEMPO 2809/2814 35016G27KT
LRBM,TAF LRBM 280800Z 2809/2818 27010KT CAVOK BECMG 2815/2817 VRB04KT
LRBS,TAF LRBS 280500Z 2806/2906 32008KT CAVOK
LRCK,TAF LRCK 280500Z 2806/2906 32017KT CAVOK TEMPO 2807/2815 34020G30KT
LRCL,TAF LRCL 280800Z 2809/2818 VRB04KT CAVOK
LRCV,TAF LRCV 280800Z 2809/2818 VRB03KT CAVOK PROB30 TEMPO 2810/2816 28010KT
LRIA,TAF LRIA 280800Z 2809/2818 32014KT CAVOK TEMPO 2809/2814 33018G28KT
LROD,TAF LROD 280800Z 2809/2818 VRB04KT CAVOK
LROP,TAF LROP 280500Z 2806/2906 32008KT CAVOK
LRSB,TAF LRSB 280500Z 2806/2906 VRB04KT CAVOK
LRSM,TAF LRSM 280800Z 2809/2818 VRB04KT CAVOK BECMG 2810/2812 34010KT
LRSV,TAF LRSV 280800Z 2809/2818 33014KT 9999 SCT040
LRTC,TAF LRTC 280800Z 2809/2818 34020KT CAVOK TEMPO 2809/2815 35023G33KT
LRTM,TAF LRTM 280800Z 2809/2818 VRB04KT CAVOK
LRTR,TAF LRTR 280500Z 2806/2906 VRB04KT CAVOK BECMG 2809/2811 35010KT BECMG 2815/2817 VRB04KT
LSGC,TAF LSGC 280825Z 2809/2818 25010KT 9999 SCT015 BKN020 PROB40 TEMPO 2814/2818 SHRA SCT018TCU PROB30 TEMPO 2816/2818 4500 TSRA SCT018CB
LSGG,TAF LSGG 280825Z 2809/2915 25012KT 9999 FEW045 SCT090 TX22/2815Z TN13/2905Z TX19/2915Z PROB40 TEMPO 2818/2903 SHRA SCT050TCU PROB30 TEMPO 2818/2821 27015G25KT 4500 TSRA FEW050CB BECMG 2820/2823 VRB02KT TEMPO 2903/2908 RA
LSGS,TAF LSGS 280825Z 2809/2818 VRB02KT 9999 SCT080 BKN110 BECMG 2810/2813 26010KT
LSZA,TAF LSZA 280825Z 2809/2818 VRB02KT 9999 BKN060
LSZB,TAF LSZB 280825Z 2809/2818 VRB02KT 9999 FEW015 BKN040 PROB30 TEMPO 2809/2812 SHRA BECMG 2810/2814 FEW050TCU PROB30 TEMPO 2813/2818 25013G25KT 3000 TSRA FEW040CB
LSZC,TAF LSZC 280825Z 2809/2818 VRB02KT 9999 FEW050 BKN070 TEMPO 2809/2813 SHRA TEMPO 2813/2818 SHRA FEW040TCU PROB40 TEMPO 2816/2818 27012G25KT 4000 TSRA SCT035CB
LSZG,TAF LSZG 280825Z 2809/2818 23005KT 9999 FEW035 BKN050 PROB40 TEMPO 2809/2813 SHRA FEW035TCU TEMPO 2813/2818 SHRA FEW035TCU PROB40 TEMPO 2815/2818 25015G28KT 4000 TSRA SCT030CB
LSZH,TAF LSZH 280825Z 2809/2915 23003KT 8000 -RA FEW010 BKN040 TX16/2815Z TN11/2905Z TX20/2915Z TEMPO 2809/2821 SHRA BKN030TCU PROB30 2814/2821 25014KT 4000 TSRA SCT030CB PROB40 2902/2907 4000 BR BKN006 PROB30 2903/2907 2000 BCFG BKN002 BECMG 2907/2911 FEW020 SCT030 TEMPO 2911/2915 CAVOK PROB30 TEMPO 2912/2915 SHRA SCT060TCU
LSZL,TAF LSZL 280525Z 2806/2815 VRB02KT 9999 SCT080
LSZR,TAF AMD LSZR 280841Z 2808/2818 15005KT 6000 RA SCT020 BKN060 TEMPO 2809/2814 18012G25KT BECMG 2810/2814 NSW FEW060TCU PROB40 TEMPO 2814/2818 SHRA
LSZS,TAF LSZS 280825Z 2809/2818 22012KT 9999 FEW050 BKN070 TX11/2814Z PROB40 TEMPO 2813/2818 SHRA
LTAB,TAF LTAB 280740Z 2809/2818 32012KT 9999 SCT040 BKN100 TEMPO 2810/2814 34015G25KT -SHRA BKN030 BKN090
LTAC,TAF LTAC 280440Z 2806/2906 32012KT 9999 SCT040 BKN100 PROB30 TEMPO 2811/2814 32015G25KT -TSRA FEW025CB BKN030 BECMG 2816/2818 VRB02KT
LTAD,TAF LTAD 280740Z 2809/2818 32012KT 9999 BKN035 BKN090 TEMPO 2809/2813 32015G25KT -SHRA BECMG 2813/2815 SCT040 SCT100
LTAE,TAF LTAE 280740Z 2809/2818 35012KT 9999 SCT035 BKN100 TEMPO 2809/2813 35015G25KT -SHRA BKN033 BKN090
LTAF,TAF LTAF 280440Z 2806/2906 VRB02KT 9999 -SHRA SCT030 BKN100 TEMPO 2808/2812 -TSRA FEW025CB BKN030 TEMPO 2812/2816 21012KT -TSRA FEW025CB BKN030 TEMPO 2822/2902 -TSRA SCT025CB BKN030
LTAG,TAF LTAG 280440Z 2806/2906 VRB02KT 9999 -SHRA SCT030 BKN100 TEMPO 2808/2812 -TSRA FEW025CB BKN030 TEMPO 2812/2816 21012KT -TSRA FEW025CB BKN030
LTAH,TAF LTAH 280740Z 2809/2818 33013KT 9999 BKN030 BKN090 TEMPO 2809/2813 -SHRA
LTAI,TAF LTAI 280440Z 2806/2906 34008KT 9999 SCT030 BKN080 PROB30 TEMPO 2810/2814 -TSRA FEW020CB BKN030 BECMG 2815/2818 34015G25KT CAVOK
LTAJ,TAF LTAJ 280440Z 2806/2906 VRB02KT CAVOK BECMG 2806/2810 21012KT SCT035 BKN100 TEMPO 2809/2813 25018G28KT -TSRA FEW020CB BKN030 PROB40 TEMPO 2813/2817 21018G28KT -TSRA FEW020CB BKN030 PROB30 TEMPO 2817/2820 -TSRA FEW020CB BKN030 BECMG 2820/2822 VRB02KT CAVOK BECMG 2901/2905 BKN035
LTAL,TAF LTAL 280740Z 2809/2818 25012KT 6000 -SHRA SCT008 BKN028 BKN080 BECMG 2810/2812 SCT034 BKN100
LTAN,TAF LTAN 280740Z 2809/2818 35017KT 9999 SCT035 BKN090 TEMPO 2810/2814 -SHRA
LTAO,TAF LTAO 280740Z 2809/2818 20010KT 9999 SCT035 BKN100 BECMG 2811/2813 20015G25KT PROB30 TEMPO 2814/2818 -SHRA
LTAP,TAF LTAP 280440Z 2806/2906 03008KT 9999 SCT040 BKN100 BECMG 2806/2809 -SHRA FEW030CB BKN035 TEMPO 2811/2815 03018KT -TSRA TEMPO 2816/2820 -TSRA
LTAR,TAF LTAR 280740Z 2809/2818 VRB02KT 8000 -SHRA BKN025 BKN080 TEMPO 2810/2814 29015G25KT -TSRA FEW020CB BKN025 TEMPO 2814/2818 29015G25KT TSRA FEW020CB BKN025
LTAS,TAF LTAS 280740Z 2809/2818 31012KT 8000 -SHRA SCT018 BKN030 BKN080
LTAT,TAF LTAT 280440Z 2806/2906 VRB02KT 9999 SCT035 BKN100 TEMPO 2808/2812 20012G22KT TEMPO 2817/2820 24015KT -SHRA BKN030 BKN080 TEMPO 2818/2820 -SHRA BKN030 BKN080
LTAU,TAF LTAU 280440Z 2806/2906 VRB02KT 9999 BKN025 BKN080 BECMG 2806/2809 -SHRA BKN035 BKN080 PROB40 TEMPO 2810/2814 27015G25KT TSRA FEW025CB BKN030 TEMPO 2814/2818 27015G25KT TSRA FEW025CB BKN030
LTAV,TAF LTAV 280740Z 2809/2818 33015KT 9999 BKN025
LTAW,TAF LTAW 280740Z 2809/2818 08008KT 9999 -SHRA FEW030CB BKN035 TEMPO 2811/2815 VRB18G28KT -TSRA
LTAY,TAF LTAY 280440Z 2806/2906 29005KT 9999 SCT035 BKN100 TEMPO 2808/2812 -SHRA BKN030 BECMG 2811/2813 35015KT BECMG 2818/2821 27005KT
LTAZ,TAF LTAZ 280440Z 2806/2906 33012KT 9999 -SHRA BKN035 BKN080 TEMPO 2810/2814 33015G25KT TSRA FEW025CB BKN030 TEMPO 2814/2818 33015G25KT TSRA FEW025CB BKN030
LTBA,TAF LTBA 280440Z 2806/2906 35006KT CAVOK BECMG 2806/2809 35016KT SCT032 BKN080 BECMG 2815/2818 33006KT BKN035 BKN080 BECMG 2900/2903 SCT030 BKN100
LTBD,TAF LTBD 280740Z 2809/2818 VRB02KT 9999 SCT035 BECMG 2811/2814 01018G28KT BECMG 2814/2816 CAVOK
LTBF,TAF LTBF 280740Z 2809/2818 01012KT 9999 SCT035 PROB30 2812/2815 -SHRA BKN030
LTBG,TAF LTBG 280740Z 2809/2818 03015KT 9999 SCT035 SCT100
LTBH,TAF LTBH 280740Z 2809/2818 06015KT 9999 SCT035 BKN100 BECMG 2815/2818 VRB02KT
LTBI,TAF LTBI 280740Z 2809/2818 28012KT 9999 BKN025 TEMPO 2812/2815 -SHRA
LTBJ,TAF LTBJ 280440Z 2806/2906 36018G28KT 9999 FEW030 SCT100 BECMG 2806/2808 CAVOK BECMG 2808/2811 SCT030 BECMG 2819/2821 36013KT CAVOK TEMPO 2901/2905 FEW030 SCT100
LTBK,TAF LTBK 280740Z 2809/2818 36018G28KT 9999 SCT030 BECMG 2815/2818 CAVOK
LTBL,TAF LTBL 280740Z 2809/2818 36009KT 9999 FEW035 SCT100
LTBN,TAF LTBN 280740Z 2809/2818 33015KT 9999 BKN025
LTBO,TAF LTBO 280740Z 2809/2818 34015G25KT 9999 SCT030 BKN100
LTBP,TAF LTBP 280740Z 2809/2818 35009KT 9999 SCT035
LTBQ,TAF LTBQ 280740Z 2809/2818 30008KT 9999 BKN030 TEMPO 2811/2815 -SHRA TEMPO 2815/2818 -SHRA SCT010 BKN020
LTBR,TAF LTBR 280440Z 2806/2906 VRB02KT 9999 FEW017 BKN025 TEMPO 2806/2810 -SHRA BECMG 2808/2811 32012KT SCT035 BECMG 2813/2817 VRB02KT PROB40 2902/2906 3500 BR
LTBS,TAF LTBS 280440Z 2806/2906 01016G26KT 9999 FEW030 SCT100 PROB30 TEMPO 2812/2816 -TSRA FEW012CB BKN020 BECMG 2816/2818 CAVOK
LTBT,TAF LTBT 280740Z 2809/2818 36012KT 9999 SCT035 SCT100
LTBU,TAF LTBU 280440Z 2806/2906 36005KT 9999 SCT030 SCT080 BECMG 2806/2808 01015KT BECMG 2808/2811 BKN032 PROB30 TEMPO 2811/2815 -SHRA BKN025 BECMG 2815/2818 32005KT SCT035 BKN100
LTBV,TAF LTBV 280740Z 2809/2818 35013KT CAVOK BECMG 2809/2811 35015G25KT FEW035 BECMG 2814/2816 CAVOK
LTBX,TAF LTBX 280740Z 2809/2818 36012KT 9999 SCT035
LTBY,TAF AMD LTBY 280911Z 2809/2818 33015G25KT 9999 BKN025 TEMPO 2812/2815 -RA
LTBZ,TAF LTBZ 280740Z 2809/2818 33015KT 9999 BKN025 TEMPO 2812/2815 -SHRA
LTCA,TAF LTCA 280740Z 2809/2818 09008KT 9999 SCT035 BKN100 BECMG 2810/2812 18015G25KT PROB30 TEMPO 2815/2818 -TSRA FEW025CB BKN030
LTCB,TAF LTCB 280740Z 2809/2818 28009KT 8000 -SHRA SCT012 BKN033 TEMPO 2810/2812 4000 SHRA FEW020CB BKN028
LTCC,TAF LTCC 280440Z 2806/2906 VRB02KT 9999 FEW040 BKN100 BECMG 2809/2811 19013KT BECMG 2814/2816 VRB02KT BECMG 2819/2821 33013KT TEMPO 2820/2824 -SHRA BKN035 BKN090 BECMG 2900/2902 VRB02KT TEMPO 2900/2903 -SHRA BKN035 BKN090
LTCD,TAF LTCD 280740Z 2809/2818 12015KT 9999 SCT045 BKN080 TEMPO 2811/2815 12020G35KT TEMPO 2815/2818 24015KT -TSRA FEW035CB BKN040 BKN070
LTCE,TAF LTCE 280440Z 2806/2906 VRB02KT 9999 SCT035 BKN080 BECMG 2806/2808 18012KT TEMPO 2806/2810 -SHRA FEW025CB SCT035 TEMPO 2810/2814 -TSRA FEW025CB SCT035 TEMPO 2814/2817 -TSRA FEW025CB SCT035 BECMG 2817/2818 VRB02KT BECMG 2823/2902 -SHRA FEW025CB BKN035 TEMPO 2902/2906 -TSRA
LTCF,TAF LTCF 280440Z 2806/2906 VRB02KT 9999 SCT040 BKN080 BECMG 2808/2812 BKN040 BKN080 TEMPO 2808/2810 20018KT TEMPO 2812/2815 28018KT -SHRA FEW025CB BECMG 2815/2818 SCT040 BKN070 TEMPO 2903/2906 14015KT -SHRA
LTCG,TAF LTCG 280440Z 2806/2906 28009KT 9999 SCT035 BKN100 BECMG 2807/2810 28015G25KT -SHRA SCT012 BKN028 PROB40 TEMPO 2810/2814 2500 TSRA BKN006 FEW020CB BKN025 BECMG 2814/2817 28012KT TEMPO 2814/2818 BKN006 FEW020CB BKN025 BECMG 2817/2821 VRB02KT PROB40 2901/2905 BKN006 FEW020CB BKN025
LTCI,TAF LTCI 280740Z 2809/2818 28009KT 9999 SCT030 BKN070 PROB30 TEMPO 2812/2816 12012G22KT -TSRA FEW020CB BKN030
LTCJ,TAF LTCJ 280440Z 2806/2906 16012KT 9999 FEW040 BKN100 TEMPO 2808/2812 18015G25KT TEMPO 2812/2814 18015G25KT BECMG 2818/2820 VRB02KT TEMPO 2901/2905 -SHRA BKN030 BKN090
LTCK,TAF LTCK 280740Z 2809/2818 28009KT 9999 SCT030 BKN070 TEMPO 2809/2813 16014G29KT -TSRA FEW020CB BKN030 PROB40 TEMPO 2813/2817 16014G30KT -TSRA FEW020CB BKN030
LTCL,TAF LTCL 280740Z 2809/2818 12012KT 9999 FEW040 BKN100
LTCM,TAF LTCM 280740Z 2809/2818 28018G30KT 9999 SCT014 SCT030 BKN100
LTCN,TAF AMD LTCN 280948Z 2809/2818 24015KT 9999 -SHRA SCT035 BKN090 TEMPO 2811/2815 30020G30KT -TSRA FEW025CB BKN030
LTCO,TAF LTCO 280740Z 2809/2818 VRB02KT 9999 SCT040 BKN070 BECMG 2809/2812 19012KT TEMPO 2809/2812 TS FEW025CB TEMPO 2812/2814 19015G30KT
LTCP,TAF COR LTCP 280740Z 2809/2818 21012G22KT 9999 FEW035 SCT100 PROB30 TEMPO 2814/2818 -TSRA FEW025CB BKN030
LTCR,TAF LTCR 280740Z 2809/2818 20012KT 9999 FEW040 SCT100 BECMG 2813/2815 VRB02KT
LTCS,TAF LTCS 280440Z 2806/2906 VRB02KT 9999 SCT040 BKN100 BECMG 2812/2814 29012KT BECMG 2819/2822 22007KT TEMPO 2822/2902 -SHRA BKN035 BKN090
LTCT,TAF LTCT 280740Z 2809/2818 VRB02KT 9999 FEW040 BKN100 TEMPO 2809/2812 09012KT TS FEW030CB SCT040 TEMPO 2812/2815 14020G30KT
LTCU,TAF LTCU 280740Z 2809/2818 18015KT 9999 SCT035 BKN100 PROB30 TEMPO 2813/2817 18020G30KT -TSRA FEW025CB BKN080
LTCV,TAF LTCV 280440Z 2806/2906 15015KT 9999 FEW040 BKN100 TEMPO 2806/2810 15015G25KT TEMPO 2810/2814 15015G25KT PROB30 TEMPO 2812/2815 -SHRA BKN030 BKN080 BECMG 2816/2818 07015KT TEMPO 2818/2822 -SHRA BKN030 BKN080 TEMPO 2902/2906 -SHRA BKN030 BKN080 BECMG 2903/2904 VRB02KT
LTCW,TAF LTCW 280740Z 2809/2818 22014KT 9999 SCT030 BKN070 TEMPO 2811/2815 -TSRA FEW020CB BKN030 PROB30 TEMPO 2815/2818 -TSRA FEW020CB BKN030
LTDA,TAF LTDA 280740Z 2809/2818 VRB02KT 9999 SCT035 TEMPO 2809/2813 VRB12KT -SHRA SCT030TCU BECMG 2809/2811 22016KT PROB40 TEMPO 2816/2818 -SHRA FEW025TCU SCT035 BECMG 2816/2818 18006KT
LTFA,TAF LTFA 280740Z 2809/2818 36009KT 9999 FEW035 SCT100
LTFB,TAF LTFB 280740Z 2809/2818 01018G28KT 9999 SCT035 BECMG 2815/2817 02013KT CAVOK
LTFC,TAF LTFC 280440Z 2806/2906 34015G25KT 9999 BKN035 BECMG 2815/2818 34008KT SCT035
LTFD,TAF LTFD 280740Z 2809/2818 06015KT 9999 SCT035 TEMPO 2810/2814 -SHRA BKN030
LTFE,TAF LTFE 280440Z 2806/2906 35013KT CAVOK BECMG 2808/2811 35015G25KT FEW035 BECMG 2814/2816 CAVOK BECMG 2821/2824 05005KT
LTFG,TAF AMD LTFG 281003Z 2810/2818 07008KT 9999 FEW020CB BKN025 TEMPO 2810/2814 4000 TSGRRA TEMPO 2814/2818 -TSRA
LTFH,TAF LTFH 280740Z 2809/2818 32008KT 6000 FEW012 SCT030 BKN100 TEMPO 2810/2813 -SHRA FEW020CB BKN028 BKN080 TEMPO 2815/2818 -SHRA
LTFJ,TAF LTFJ 280440Z 2806/2906 02012KT 9999 SCT035 BECMG 2816/2819 VRB02KT BECMG 2821/2824 BKN030 TEMPO 2902/2906 -SHRA
LTFK,TAF LTFK 280740Z 2809/2818 02013KT 9999 SCT025 BECMG 2815/2818 VRB02KT
LTFM,TAF LTFM 280440Z 2806/2912 36018KT 9999 FEW030 SCT080 BECMG 2814/2817 30008KT BKN035 BKN080 BECMG 2823/2902 36014KT SCT030 BKN100 BECMG 2908/2911 CAVOK
LTFO,TAF LTFO 280740Z 2809/2818 28009KT 9999 BKN028 BKN100 BECMG 2809/2811 23015G25KT -SHRA BKN012 BKN028 PROB40 TEMPO 2812/2816 4500 TSRA BKN007 FEW020CB BKN025
LUBM,TAF LUBM 280813Z 2809/2818 34012KT 9999 SCT030 TEMPO 2809/2814 35018G28KT
LUKK,TAF LUKK 280502Z 2806/2906 33014KT CAVOK TEMPO 2806/2816 35018G28KT BECMG 2817/2819 33006KT
LWOH,TAF LWOH 280815Z 2809/2909 33008KT CAVOK
LWSK,TAF LWSK 280815Z 2809/2909 VRB02KT CAVOK TEMPO 2809/2814 34010KT
LXGB,TAF LXGB 280746Z 2809/2818 10010KT 9999 FEW008 PROB40 TEMPO 2809/2810 5000 BR SCT008 PROB40 TEMPO 2809/2815 13014KT 520002 BECMG 2815/2818 23008KT
LYBE,TAF LYBE 280500Z 2806/2906 12005KT CAVOK TX17/2813Z TN06/2806Z
LYBT,TAF LYBT 280500Z 2806/2906 10005KT CAVOK TX17/2814Z TN05/2806Z
LYKV,TAF LYKV 280500Z 2806/2906 30004KT CAVOK TX17/2814Z TN04/2806Z
LYNI,TAF LYNI 280500Z 2806/2906 26004KT CAVOK TX18/2814Z TN04/2902Z TEMPO 2808/2814 32012KT
LYPG,TAF LYPG 280500Z 2806/2906 36008KT CAVOK TX22/2813Z TN09/2904Z
LYTV,TAF LYTV 280500Z 2806/2906 34008KT CAVOK TX19/2813Z TN09/2904Z
LYVR,TAF LYVR 280500Z 2806/2906 35004KT CAVOK TX17/2813Z TN00/2806Z
LZIB,TAF LZIB 280515Z 2806/2906 06005KT CAVOK BECMG 2808/2810 16014KT TEMPO 2810/2816 17015G25KT BECMG 2818/2820 03004KT 9999 SCT012 OVC022 TEMPO 2820/2906 -RA BKN006 OVC016 PROB40 TEMPO 2820/2906 2800 SHRA BR BKN003 OVC013
LZKZ,TAF LZKZ 280515Z 2806/2906 VRB02KT CAVOK TEMPO 2809/2818 22008KT
LZPP,TAF LZPP 280815Z 2809/2818 15006KT CAVOK TEMPO 2810/2817 15014G24KT BECMG 2815/2817 9999 SCT012 BKN021
LZTT,TAF LZTT 280515Z 2806/2906 27006KT 9999 FEW050 TEMPO 2810/2820 23013KT BECMG 2901/2903 -RA BKN016 OVC030
LZZI,TAF LZZI 280815Z 2809/2818 08003KT CAVOK BECMG 2811/2813 23012KT 9999 BKN055
MGGT,MGGT 280430Z 2806/2906 18008KT 9999 SCT016 TX28/2820Z TN17/2812Z TEMPO 2806/2813 00000KT 4000 BR BKN014 BECMG 2814/2816 FEW018 BECMG 2818/2820 SCT020 TEMPO 2820/2902 TSRA FEW020TCU BKN025CB BECMG 2900/2902 25008KT SCT016
MGMM,MGMM 280430Z 2806/2906 00000KT CAVOK TX39/2820Z TN22/2812Z TEMPO 2806/2812 09006KT 8000 FEW014 BECMG 2814/2816 04006KT BECMG 2819/2821 FEW025 BECMG 2900/2902 00000KT FEW016
MGPB,MGPB 280430Z 2806/2906 00000KT CAVOK TX33/2820Z TN22/2812Z BECMG 2814/2816 30006KT 8000 FEW018 BECMG 2819/2821 05006KT SCT020 BECMG 2901/2903 00000KT FEW016
MHLC,TAF MHLC 280500Z 2806/2906 VRB05KT 3000 FU SCT025 TX33/2819Z TN23/2812Z BECMG 2901/2903 08012KT
MHLM,TAF MHLM 280500Z 2806/2906 08006KT 2000 FU FEW030 TX38/2821Z TN24/2812Z BECMG 2810/2812 00000KT BECMG 2814/2816 27005KT BECMG 2818/2820 02010KT BECMG 2901/2903 08005KT
MHPR,TAF MHPR 280500Z 2806/2906 16008KT 5000 FU SCT048 TX35/2821Z TN22/2811Z BECMG 2819/2821 18018KT
MHRO,TAF MHRO 280500Z 2806/2906 11020KT 6000 FEW025 TX30/2820Z TN27/2812Z BECMG 2810/2812 15005KT 3000 FU BECMG 2817/2819 00000KT BECMG 2821/2823 09012KT 6000
MHTG,TAF MHTG 280500Z 2806/2906 20004KT 7000 SCT028TCU TX31/2820Z TN19/2812Z BECMG 2809/2811 4000 FU TEMPO 2820/2902 21010KT 8000 VCSH BKN034TCU BECMG 2902/2904 21005KT 5000 RA SCT032TCU BKN080
MKJP,TAF MKJP 280515Z 2806/2906 36006KT 9999 FEW022 BECMG 2814/2816 15015KT BECMG 2904/2906 34005KT
MKJS,TAF MKJS 280515Z 2806/2906 15005KT 9999 FEW022 BECMG 2813/2815 06015KT PROB30 TEMPO 2818/2824 SHRA SCT020 SCT034 BECMG 2902/2904 16005KT
MMAA,TAF MMAA 280430Z 2806/2906 26005KT 5SM HZ SCT015 SCT300 TX32/2819Z TN25/2812Z TEMPO 2806/2810 BKN015 FM281900 24010KT 6SM HZ SCT020 BKN300 FM290400 24005KT 6SM HZ BKN300
MMAN,TAF AMD MMAN 281008Z 2810/2906 00000KT 6SM HZ SKC FM281800 13010KT P6SM SCT030 TEMPO 2902/2906 6SM -TSRA BKN030CB
MMAS,TAF MMAS 280457Z 2806/2906 28005KT P6SM SKC FM281800 26012KT P6SM SCT200 FM290200 24005KT P6SM SKC
MMBT,TAF MMBT 280451Z 2806/2906 00000KT P6SM SCT020 FM281800 20010KT P6SM SCT020 FM290200 00000KT P6SM SKC
MMCB,TAF MMCB 280451Z 2806/2906 30005KT P6SM SCT120 SCT250 FM281800 18010KT P6SM SCT200 FM290200 18005KT P6SM SCT200
MMCE,TAF MMCE 280517Z 2806/2906 03005KT 5SM HZ SCT020 FM281000 12015KT P6SM SCT015 FM281600 03012KT 5SM HZ SCT015 FM290200 03005KT 5SM HZ SCT015
MMCL,TAF MMCL 280452Z 2806/2906 00000KT P6SM SKC FM282000 24015KT P6SM SCT200 FM290400 24005KT P6SM BKN200
MMCM,TAF MMCM 280517Z 2806/2906 11005KT P6SM SCT020 BKN200 FM281600 12012KT P6SM SCT020 SCT250 FM290200 08005KT P6SM SCT020 BKN200
MMCN,TAF MMCN 280506Z 2806/2906 26005KT P6SM SKC FM281800 24010KT P6SM SCT250 FM290200 20005KT P6SM SCT200
MMCP,TAF MMCP 280517Z 2806/2906 13005KT 6SM HZ SCT015 TEMPO 2810/2814 BKN010 FM281800 03012KT P6SM SCT020 SCT250 FM290200 12005KT 6SM HZ SKC
MMCS,TAF MMCS 280512Z 2806/2906 26010KT P6SM SKC FM281800 33020KT P6SM SKC FM290300 13010KT P6SM SKC
MMCU,TAF MMCU 280512Z 2806/2906 07005KT P6SM SKC FM282100 08010KT P6SM SKC FM290300 06005KT P6SM SKC
MMCV,TAF MMCV 280539Z 2806/2906 08005KT P6SM SCT020CB BKN030 TEMPO 2806/2808 5SM RA FM280800 13005KT P6SM SCT020 SCT080 FM281600 16015KT P6SM SCT020 FM290200 13005KT P6SM SCT020 FM290600 33015KT 5SM -RA BKN020
MMCZ,TAF MMCZ 280501Z 2806/2906 12005KT 6SM HZ BKN250 FM281600 14015KT P6SM SCT020 BKN250 FM290200 13005KT 6SM HZ SCT015 BKN250
MMDO,TAF MMDO 280506Z 2806/2906 23005KT P6SM SKC FM281800 23010KT P6SM SCT200 FM290200 24005KT P6SM BKN250
MMEP,TAF MMEP 280457Z 2806/2906 36005KT P6SM SKC FM281900 36010KT P6SM SCT200 FM290200 00000KT P6SM SCT250
MMGL,TAF MMGL 280438Z 2806/2906 26005KT P6SM SKC TX32/2821Z TN15/2812Z FM281800 26010KT P6SM SKC FM290400 24005KT P6SM SKC
MMGM,TAF MMGM 280506Z 2806/2906 20005KT P6SM SKC FM281800 20012KT P6SM SCT250 FM290200 20005KT P6SM BKN250
MMHO,TAF MMHO 280452Z 2806/2906 25005KT P6SM SKC FM282000 24012KT P6SM SKC FM290400 24005KT P6SM SKC
MMIA,TAF MMIA 280457Z 2806/2906 23005KT P6SM SCT200 FM281800 24010KT P6SM SCT200 FM290200 00000KT P6SM SCT020 SCT200
MMIO,TAF MMIO 280512Z 2806/2906 00000KT P6SM SKC FM281800 33010KT P6SM SKC FM290200 33020KT P6SM BKN030 TEMPO 2902/2906 6SM TSRA BKN020CB
MMLM,TAF MMLM 280506Z 2806/2906 03005KT P6SM SKC FM281800 25015KT P6SM SCT250 FM290200 24005KT P6SM BKN250
MMLO,TAF MMLO 280457Z 2806/2906 23005KT P6SM SCT200 FM281800 23010KT P6SM SCT200 FM290200 23005KT P6SM SCT200
MMLP,TAF MMLP 280452Z 2806/2906 20010KT P6SM SKC FM281900 35010KT P6SM BKN200 FM290300 20008KT P6SM BKN200
MMLT,TAF MMLT 280506Z 2806/2906 03005KT P6SM SCT250 FM281700 06010KT P6SM BKN250 FM290200 03005KT P6SM BKN250
MMMA,TAF MMMA 280539Z 2806/2906 11005KT 6SM HZ BKN010 TEMPO 2810/2814 3SM BR HZ BKN008 FM281600 12015G25KT P6SM SCT020 FM290200 12010KT 6SM HZ BKN015 FM290400 33010KT 5SM HZ BKN010
MMMD,TAF MMMD 280501Z 2806/2906 13012KT 6SM HZ SKC TX40/2821Z TN24/2812Z FM281100 14010KT 6SM HZ SCT010 TEMPO 2811/2815 3SM BR BKN010 FM281600 14010KT 6SM HZ SCT030 FM282100 34015KT P6SM SCT030 FM290300 13010KT 6SM HZ SCT020
MMML,TAF MMML 280452Z 2806/2906 33005KT P6SM SKC FM281800 34010KT P6SM SKC FM290300 03008KT P6SM SKC
MMMM,TAF MMMM 280438Z 2806/2906 24005KT 6SM HZ SKC FM281900 20012KT P6SM SCT030 SCT300 FM290300 16005KT 6SM HZ SKC
MMMT,TAF MMMT 280517Z 2806/2906 16005KT P6SM SKC FM281600 16018KT P6SM SCT020 FM290200 16005KT P6SM SCT020
MMMV,TAF MMMV 280512Z 2806/2906 09005KT P6SM SCT050 TEMPO 2812/2815 BKN020 FM282100 04010KT P6SM BKN050 FM290300 03020G30KT P6SM BKN030 TEMPO 2903/2906 5SM TSRA OVC020CB
MMMX,TAF MMMX 280430Z 2806/2906 06005KT 6SM HZ SCT080 OVC200 TX29/2821Z TN15/2812Z FM281900 14010KT P6SM SCT020 BKN200 FM290300 20008KT 6SM HZ BKN200
MMMY,TAF AMD MMMY 280906Z 2809/2906 00000KT 6SM HZ SKC TX31/2819Z TN21/2812Z TEMPO 2812/2815 BKN010 FM281800 13010KT P6SM SCT030 TEMPO 2902/2906 6SM TSRA BKN020CB
MMMZ,TAF AMD MMMZ 281007Z 2810/2906 00000KT 5/16SM FG VV001 TX30/2820Z TN16/2812Z FM281400 00000KT 2SM BR BKN010 FM281500 00000KT 5SM HZ SCT010 FM281800 24010KT P6SM BKN200 FM290300 24005KT P6SM BKN200
MMNL,TAF MMNL 280539Z 2806/2906 16005KT P6SM SCT015 TEMPO 2810/2814 BKN012 FM281600 12010KT P6SM SCT020 FM290200 33012KT 5SM VC RA BKN020 TEMPO 2902/2906 3SM TSRA BKN012CB
MMOX,TAF MMOX 280451Z 2806/2906 16005KT P6SM SCT200 FM281700 13010KT P6SM SCT020 FM290200 16005KT P6SM SCT020 SCT200
MMPA,TAF MMPA 280539Z 2806/2906 00000KT 4SM HZ BKN015 BKN250 TEMPO 2810/2814 2SM BR BKN010 FM281600 06008KT 5SM HZ SCT020 FM290200 08005KT 4SM HZ BKN010
MMPB,TAF MMPB 280451Z 2806/2906 16005KT P6SM SCT250 FM281700 16015KT P6SM SCT020 FM290100 16005KT P6SM SCT020 SCT200
MMPG,TAF MMPG 280539Z 2806/2906 13005KT P6SM SKC TEMPO 2810/2814 2SM BR BKN010 FM281600 13012KT P6SM SCT020 FM290000 33015G25KT P6SM SCT010 FM290300 33010KT P6SM SCT020
MMPN,TAF MMPN 280457Z 2806/2906 00000KT P6SM SCT200 FM281800 18010KT P6SM SCT200 FM290100 18005KT P6SM SKC
MMPQ,TAF MMPQ 280517Z 2806/2906 00000KT 4SM VC TS SCT020 BKN070 FM281000 00000KT 4SM HZ SCT020 SCT250 FM281800 08005KT 5SM HZ SCT020 PROB40 2822/2902 5SM TSRA BKN020CB FM290200 00000KT 4SM HZ SCT020 SCT100
MMPR,TAF MMPR 280438Z 2806/2906 24005KT P6SM SCT015 TX28/2822Z TN19/2812Z TEMPO 2808/2812 BKN015 FM281800 22010KT P6SM SKC FM290300 24005KT P6SM SKC
MMPS,TAF MMPS 280451Z 2806/2906 03005KT P6SM SCT020 FM281700 22010KT P6SM SCT020 FM290200 03005KT P6SM SCT020
MMQT,TAF MMQT 280457Z 2806/2906 22005KT P6SM SCT250 FM281800 23012KT P6SM SCT200 FM290200 23005KT P6SM SCT200
MMRX,TAF MMRX 280539Z 2806/2906 08005KT 6SM HZ SCT015 SCT250 FM280900 08005KT 3SM BR HZ BKN015 TEMPO 2810/2814 1SM BR BKN008 FM281600 14015KT P6SM SCT020 FM290100 12010KT P6SM SCT020 FM290400 33015KT P6SM SCT020
MMSD,TAF MMSD 280506Z 2806/2906 30005KT P6SM SCT250 FM281600 16010KT P6SM BKN250 FM290200 30005KT P6SM BKN250
MMSL,TAF MMSL 280506Z 2806/2906 30008KT P6SM SCT250 FM281800 22012KT P6SM BKN250 FM290200 30005KT P6SM BKN250
MMSM,TAF MMSM 280430Z 2806/2906 04005KT 6SM HZ SCT100 BKN200 FM281800 26010KT P6SM SCT020 BKN200 TEMPO 2822/2902 6SM -RA BKN020CB FM290300 24005KT 6SM HZ SCT090 BKN200
MMSP,TAF MMSP 280438Z 2806/2906 05005KT 6SM HZ SCT020 TX30/2821Z TN14/2812Z FM280900 00000KT 4SM HZ SCT015 TEMPO 2811/2815 1SM BR BKN005 OVC010 FM281600 08005KT 6SM HZ SCT015 FM281800 24010KT P6SM SKC BECMG 2821/2822 24010G20KT FM290400 24008KT 6SM HZ SKC
MMTC,TAF MMTC 280512Z 2806/2906 28005KT 6SM HZ SKC FM282000 25010KT P6SM SKC FM290300 33005KT P6SM SKC
MMTG,TAF MMTG 280501Z 2806/2906 26005KT 6SM HZ SKC TEMPO 2812/2815 3SM HZ BKN015 FM281800 20010KT P6SM SCT030 BKN300 FM290300 16005KT P6SM BKN300
MMTJ,TAF AMD MMTJ 280904Z 2809/2906 00000KT 5SM HZ OVC012 TX22/2820Z TN13/2812Z TEMPO 2812/2815 1SM BR OVC005 FM281500 00000KT 5SM HZ BKN010 FM281600 00000KT 6SM HZ SCT010 FM281800 26010KT 6SM HZ SKC FM290400 24005KT 6SM HZ BKN015
MMTM,TAF MMTM 280430Z 2806/2906 02010KT 5SM HZ SCT010 BKN200 TEMPO 2806/2810 5SM -TSRA BKN010CB FM281000 02005KT 4SM HZ SCT010 BKN080 TEMPO 2812/2815 2SM BR BKN010 FM281800 13010KT 6SM HZ BKN015 BKN200 FM290300 13005KT 6SM HZ BKN015
MMTO,TAF MMTO 280430Z 2806/2906 33005KT 6SM HZ OVC200 TX24/2821Z TN07/2812Z TEMPO 2812/2815 3SM BR FM281900 23010KT 6SM HZ SCT070 BKN200 FM290300 24005KT 6SM HZ BKN200
MMTP,TAF MMTP 280501Z 2806/2906 00000KT 6SM HZ SKC FM281800 25010KT 6SM HZ SCT030 BKN200 TEMPO 2823/2903 6SM TSRA BKN020CB
MMUN,TAF MMUN 280501Z 2806/2906 14010KT 6SM HZ SCT250 TX30/2819Z TN25/2812Z BECMG 2814/2815 14015KT FM281800 14020KT 6SM HZ SCT020 BKN250 FM290200 13012KT 6SM HZ SCT015 SCT250
MMVA,TAF COR MMVA 280559Z 2806/2906 00000KT 3SM BR HZ SCT012 BKN070 TEMPO 2806/2808 2SM -RA FM280900 00000KT 3SM BR HZ BKN015 TEMPO 2810/2814 1SM BR BKN008 FM281600 06005KT 5SM HZ SCT012 FM290200 06005KT 5SM HZ SCT015
MMVR,TAF MMVR 280430Z 2806/2906 02005KT 6SM HZ SCT010 BKN200 TX34/2821Z TN24/2812Z TEMPO 2812/2815 3SM BR FM281900 08010KT 6SM HZ BKN020 BKN200 TEMPO 2822/2902 6SM -TSRA BKN010CB
MMZC,TAF MMZC 280438Z 2806/2906 22010KT P6SM SKC TX27/2821Z TN09/2812Z FM281900 24020KT P6SM SCT200 FM290400 24010KT P6SM SCT200
MMZH,TAF MMZH 280451Z 2806/2906 00000KT P6SM SCT120 FM281600 24008KT P6SM SKC FM290200 24005KT P6SM SCT020
MMZO,TAF MMZO 280438Z 2806/2906 33005KT P6SM SCT015 TEMPO 2810/2814 BKN015 FM281800 24010KT P6SM SCT020 FM290300 24005KT P6SM SCT015
MNBL,MNBL 272055Z 2800/2824 08006KT 9999 SCT018 TEMPO 2804/2813 12004KT BKN018 BECMG 2813/2815 09012KT
MNPC,MNPC 272055Z 2800/2824 08006KT 9999 SCT016 TEMPO 2804/2812 12004KT FEW020 BECMG 2812/2814 07010KT
MPDA,TAF MPDA 272300Z 2800/2812 22008KT 9999 SCT018 TEMPO 2801/2805 03005KT CAVOK
MPMG,TAF MPMG 272300Z 2800/2812 31006KT 9999 SCT018 TEMPO 2803/2807 VRB02KT CAVOK
MPPA,TAF MPPA 271700Z 2718/2824 34006KT 9999 SCT018 TEMPO 2718/2722 17005KT TEMPO 2803/2807 VRB02KT CAVOK PROB40 2818/2822 17009KT 6000 TSSHRA SCT015CB BKN080
MPSM,TAF MPSM 271700Z 2718/2824 35006KT 9999 SCT018 TEMPO 2718/2722 16005KT TEMPO 2803/2807 VRB02KT CAVOK PROB30 2818/2822 16007KT 6000 TSSHRA SCT015CB BKN080
MPTO,TAF MPTO 280530Z 2806/2912 27006KT 9999 FEW017 TEMPO 2807/2811 VRB02KT CAVOK TEMPO 2812/2815 22006KT BECMG 2816/2820 15012KT TEMPO 2820/2823 18008KT
MRLB,MRLB 280515Z 2806/2906 12005KT 9999 FEW035 TX36/2820Z TN21/2811Z BECMG 2816/2818 29007KT BECMG 2902/2904 09004KT 
MRLM,MRLM 280515Z 2806/2906 24005KT 9999 FEW030 TX31/2821Z TN20/2811Z BECMG 2815/2817 08006KT BECMG 2900/2903 23004KT 
MROC,MROC 280515Z 2806/2906 07005KT 9999 SCT035 TX31/2819Z TN18/2811Z TEMPO 2806/2808 VRB02KT BKN030 BECMG 2814/2817 25008KT TEMPO 2820/2824 RA FEW025TCU TEMPO 2901/2904 VRB02KT BKN020 
MRPV,MRPV 280515Z 2806/2906 11005KT 9999 SCT030 TX29/2818Z TN18/2811Z BECMG 2815/2817 28006KT TEMPO 2820/2824 RA FEW020TCU TEMPO 2900/2903 VRB02KT 
MUCC,MUCC 280500Z 2806/2906 12005KT 9000 SCT020 BECMG 2813/2815 09012KT BECMG 2902/2904 11007KT
MUCM,AMD MUCM 280900Z 2809/2906 VRB03KT 9000 FEW020 TEMPO 2809/2812 3000 BR BECMG 2813/2815 07010KT SCT020 TEMPO 2821/2901 5000 SHRA RA FEW020CB BKN020 BECMG 2902/2904 VRB03KT
MUCU,MUCU 280500Z 2806/2906 01005KT 9000 SCT020 BECMG 2814/2816 17010KT BECMG 2901/2902 35006KT
MUGM,TAF MUGM 2807/2907 32006KT 9999 FEW030 QNH2987INS FM281500 11008KT 9999 FEW030 SCT250 QNH2993INS FM281800 13013G18KT 9999 FEW030 SCT250 QNH2987INS FM290600 34006KT 9999 FEW035 QNH2990INS TX31/2817Z TN22/2810Z FN00172
MUHA,MUHA 280500Z 2806/2906 VRB03KT 9000 SCT040 BECMG 2813/2815 17014KT BECMG 2901/2903 18004KT
MUHG,MUHG 280500Z 2806/2906 VRB03KT 9000 FEW030 TEMPO 2809/2812 3000 BR BECMG 2813/2815 07012KT SCT025 BECMG 2902/2904 VRB03KT
MUSC,MUSC 280500Z 2806/2906 VRB03KT 9000 FEW020 TEMPO 2809/2812 3000 BR BECMG 2813/2815 09010KT SCT020 TEMPO 2821/2901 BKN020 BECMG 2902/2904 VRB03KT
MUVR,MUVR 280500Z 2806/2906 VRB03KT 9000 FEW020 BECMG 2812/2815 12010KT SCT020 TEMPO 2821/2901 FEW020TCU BKN020 BECMG 2902/2904 VRB03KT
MWCB,TAF MWCB 271700Z 2718/2818 12012KT 9999 VCSH SCT016 BECMG 2800/2802 FEW018
MWCR,TAF MWCR 272300Z 2800/2824 12005KT 9999 FEW018 TEMPO 2812/2818 9000 SHRA SCT014CB
MZBZ,TAF MZBZ 280300Z 2806/2906 11008KT 9999 SCT022
NCRG,TAF NCRG 280517Z 2806/2906 12009KT 9999 SCT020
NFFN,TAF NFFN 280517Z 2806/2906 35009KT 9999 SCT020 BKN040 PROB40 TEMPO 2806/2812 5000 SHRA BKN015
NFNA,TAF NFNA 280518Z 2806/2906 35008KT 9999 SCT018 SCT040 PROB40 TEMPO 2806/2812 5000 TSRA FEW018CB
NFTF,TAF NFTF 280517Z 2806/2906 04014KT 9999 -SHRA SCT008 BKN016 OVC100 TEMPO 2806/2824 2000 +TSRA BKN010 FEW018CB
NFTV,TAF NFTV 280519Z 2806/2906 08010KT 9999 -SHRA SCT016 SCT050 PROB40 TEMPO 2806/2824 5000 TSRA BKN015 FEW018CB
NGFU,TAF NGFU 280519Z 2806/2906 07009KT 9999 SCT020 SCT050 PROB40 TEMPO 2806/2824 5000 TSRA FEW016CB
NGTA,TAF NGTA 280518Z 2806/2906 08009KT 9999 SCT020
NIUE,TAF NIUE 280519Z 2806/2906 07010KT 9999 BKN018 PROB40 TEMPO 2806/2818 5000 SHRA BKN015
NLWF,TAF NLWF 280500Z 2806/2906 07010KT 9999 FEW020 PROB40 TEMPO 2809/2818 SHRA FEW020TCU
NLWW,TAF NLWW 280500Z 2806/2906 08008KT 9999 SCT020 TEMPO 2806/2906 SHRA FEW020TCU PROB40 TEMPO 2809/2818 4000 SHRA BKN014 FEW018CB BECMG 2818/2821 10015KT
NSFA,TAF NSFA 280518Z 2806/2906 06015KT 9999 SCT020 PROB40 TEMPO 2806/2818 5000 TSRA FEW018CB
NSTU,NSTU 280521Z 2806/2906 09010KT P6SM VCSH SCT020 SCT040 BKN100 FM281000 08006KT 6SM SHRA SCT018 BKN040 OVC100
NTAA,TAF NTAA 280500Z 2806/2912 VRB04KT 9999 FEW023 TEMPO 2819/2824 05012KT
NWWD,TAF NWWD 280500Z 2806/2906 20010KT 9999 SCT025 BECMG 2806/2809 VRB02KT PROB40 TEMPO 2809/2820 4000 SHRA BKN014 FEW018TCU BECMG 2821/2824 21010KT
NWWE,TAF AMD NWWE 271859Z 2718/2818 20012KT 9999 SCT020 TEMPO 2718/2818 SHRA FEW020TCU PROB40 TEMPO 2718/2809 18020G30KT 4500 SHRA BKN014 SCT018CB PROB30 TEMPO 2718/2724 2000 SHRA BKN009 SCT016CB
NWWK,TAF NWWK 280500Z 2806/2906 16014KT 9999 FEW025 BECMG 2808/2810 VRB02KT PROB30 TEMPO 2816/2821 SHRA FEW018TCU BECMG 2821/2823 15015KT 
NWWL,TAF NWWL 271700Z 2718/2818 20008KT 9999 FEW025 PROB40 TEMPO 2718/2803 4500 SHRA FEW020TCU
NWWM,TAF AMD NWWM 271910Z 2719/2818 14012KT 9999 SCT020 TEMPO 2719/2818 4500 SHRA FEW020TCU PROB40 TEMPO 2719/2724 14018G28KT 2500 +SHRA BKN014 SCT020CB
NWWR,TAF NWWR 271700Z 2718/2818 20008KT 9999 SCT020 TEMPO 2718/2803 4500 SHRA BKN014 FEW020TCU PROB30 TEMPO 2718/2724 20015G25KT
NWWU,TAF NWWU 271700Z 2718/2818 18008KT 9999 SCT035 PROB40 TEMPO 2800/2806 SHRA FEW020TCU
NWWW,TAF NWWW 280500Z 2806/2906 17010KT 9999 SCT022 BKN045 TEMPO 2806/2906 SHRA FEW020TCU PROB30 TEMPO 2806/2812 4500 +SHRA FEW018CB BECMG 2806/2809 VRB02KT PROB40 TEMPO 2817/2822 4000 SHRA BKN012 FEW018CB BECMG 2821/2824 19010KT
NZAA,TAF NZAA 280800Z 2809/2912 12005KT 9999 FEW030 SCT045 FM282100 06012KT 9999 FEW015 BKN025 BECMG 2904/2906 07015G25KT
NZCH,TAF NZCH 280801Z 2809/2912 06015KT 9999 BKN012 BECMG 2812/2814 03005KT BKN006 PROB30 2815/2821 0400 FG BKN003 BECMG 2818/2820 NSC BECMG 2900/2902 09010KT BECMG 2909/2911 03005KT
NZQN,TAF NZQN 271702Z 2718/2812 04005KT 9999 SKC BECMG 2800/2802 24010KT BECMG 2806/2808 04005KT
NZWN,TAF NZWN 280800Z 2809/2912 03010KT CAVOK
OEAB,TAF OEAB 272300Z 2800/2906 VRB03KT 7000 SCT020 BECMG 2806/2808 21013KT TEMPO 2806/2818 4000 TSRA BKN020 FEW025CB BECMG 2818/2820 18004KT
OEAH,TAF OEAH 272230Z 2800/2906 22007KT CAVOK PROB30 TEMPO 2812/2821 VRB20KT 3000 BLDU FEW030CB SCT040
OEAO,TAF OEAO 272300Z 2800/2906 VRB03KT CAVOK BECMG 2806/2808 27018KT 7000 NSC PROB30 TEMPO 2806/2814 3000 BLDU BECMG 2822/2900 VRB03KT
OEBA,TAF OEBA 272300Z 2800/2906 19004KT 9999 FEW030 BECMG 2806/2808 24014KT 7000 TEMPO 2810/2820 VRB20KT 4000 TSRA FEW025CB SCT030
OEBH,TAF OEBH 272300Z 2800/2906 18004KT 9999 FEW030 BECMG 2808/2810 27012KT TEMPO 2810/2820 VRB20KT 4000 BLDU FEW025CB PROB30 TEMPO 2810/2814 1000 BECMG 2818/2820 VRB03KT
OEDF,TAF OEDF 280415Z 2806/2912 25007KT CAVOK BECMG 2808/2810 03012KT BECMG 2818/2820 15010KT PROB30 TEMPO 2818/2900 5000 DU NSC
OEDM,TAF OEDM 272300Z 2800/2906 17014KT 7000 FEW040 PROB30 TEMPO 2800/2806 VRB25KT 3000 BLDU TSRA FEW035CB BECMG 2808/2810 27015KT PROB30 TEMPO 2808/2818 4000 BLDU
OEDR,TAF OEDR 272230Z 2800/2906 22007KT CAVOK BECMG 2808/2810 03012KT BECMG 2818/2820 15010KT PROB30 TEMPO 2818/2900 5000 DU NSC
OEGN,TAF OEGN 272300Z 2800/2906 01005KT 7000 FEW030 PROB30 TEMPO 2800/2806 3000 HZ BECMG 2806/2808 30011KT SCT030 PROB40 TEMPO 2812/2818 4000 DU FEW035CB BECMG 2822/2900 VRB03KT 6000
OEGS,TAF OEGS 272300Z 2800/2906 13004KT 9999 FEW040 PROB40 TEMPO 2800/2806 FEW025CB BECMG 2804/2806 24015KT 7000 NSC PROB30 TEMPO 2804/2816 4000 BLDU BECMG 2818/2820 30006KT
OEGT,TAF OEGT 272300Z 2800/2906 30006KT 9999 FEW040 BECMG 2810/2812 33018KT 7000 PROB30 TEMPO 2810/2820 4000 BLDU FEW035CB SCT040 BECMG 2822/2900 28005KT 6000 SCT040
OEHL,TAF OEHL 272300Z 2800/2906 27014KT 7000 NSC TEMPO 2800/2815 4000 BLDU BECMG 2816/2818 30006KT BECMG 2820/2822 28016KT 6000
OEJN,TAF OEJN 280500Z 2806/2912 33015KT 9999 SCT040 PROB40 TEMPO 2806/2816 3000 BLDU TS FEW035CB BECMG 2818/2820 01006KT 7000 FEW040 BECMG 2906/2908 33013KT CAVOK
OEKJ,TAF OEKJ 272300Z 2800/2906 25006KT 7000 FEW040 TEMPO 2800/2815 VRB20KT 3000 BLDU TSRA FEW035CB SCT040 BECMG 2820/2822 20006KT
OEKM,TAF OEKM 272300Z 2800/2906 VRB03KT 7000 SCT020 BECMG 2806/2808 21013KT TEMPO 2806/2818 4000 TSRA BKN020 FEW025CB BECMG 2818/2820 18004KT
OEMA,TAF OEMA 280500Z 2806/2912 29012KT 9999 FEW045 PROB30 TEMPO 2810/2815 FEW035CB SCT045 BECMG 2818/2820 VRB03KT CAVOK BECMG 2906/2908 27010KT
OENG,TAF OENG 272300Z 2800/2906 30005KT 7000 FEW030 PROB30 TEMPO 2800/2806 3000 DU BECMG 2806/2808 18010KT TEMPO 2808/2820 3000 BLDU TSRA FEW025CB SCT030 BECMG 2818/2820 27012KT
OEPA,TAF OEPA 272230Z 2800/2906 15010KT CAVOK TEMPO 2808/2815 20015KT 5000 BLDU PROB30 TEMPO 2809/2814 2000
OEPS,TAF OEPS 2809/2915 20010G16KT 9999 SKC QNH2990INS BECMG 2812/2813 24018KT 9999 FEW120 QNH2985INS BECMG 2813/2814 27015KT 8000 -RA HZ BKN100 OVC120 QNH2980INS TEMPO 2815/2818 27020G35KT 5000 TSRAGR OVC100CB BECMG 2820/2821 24015KT 9999 NSW BKN100 QNH2985INS BECMG 2823/2900 18010KT 9999 FEW100 QNH2985INS TX36/2909Z TN23/2903Z
OERF,TAF OERF 272300Z 2800/2906 17015KT 7000 FEW040 TEMPO 2800/2812 4000 BLDU FEW035CB BECMG 2814/2816 27010KT
OERK,TAF OERK 280500Z 2806/2912 17015KT 7000 SCT040 TEMPO 2806/2816 6000 TSRA FEW035CB BECMG 2820/2822 24006KT BECMG 2906/2908 22012KT 9999 FEW040
OERR,TAF OERR 272300Z 2800/2906 36006KT 7000 SCT040 PROB40 TEMPO 2800/2806 4000 BLDU FEW025CB BECMG 2806/2808 26014KT TEMPO 2810/2818 4000 BLDU BECMG 2900/2902 34010KT 9999 FEW040
OESH,TAF OESH 272300Z 2800/2906 13015KT 7000 FEW040 TEMPO 2800/2808 13014KT 3000 BLDU BECMG 2810/2812 07010KT TEMPO 2810/2820 VRB25KT 2000 BLDU TSRA FEW030CB
OESK,TAF OESK 272300Z 2800/2906 01012KT 7000 FEW040 TEMPO 2800/2806 FEW025CB BECMG 2806/2808 26014KT TEMPO 2808/2820 3000 BLDU BECMG 2820/2822 33010KT 9999 FEW040
OETB,TAF OETB 272300Z 2800/2906 VRB03KT CAVOK BECMG 2807/2809 26010KT BECMG 2820/2822 35008KT 9999 FEW040
OETF,TAF AMD OETF 280155Z 2802/2906 23006KT 7000 FEW030 TEMPO 2802/2808 TS FEW025CB SCT030 BECMG 2806/2808 27015KT TEMPO 2810/2818 4000 BLDU TSRA FEW025CB SCT030 BECMG 2818/2820 26005KT
OETR,TAF OETR 272300Z 2800/2906 01010KT 7000 FEW040 TEMPO 2800/2808 VRB20KT 4000 BLDU FEW035CB BECMG 2806/2808 26012KT BECMG 2816/2818 32013KT
OEWD,TAF OEWD 272300Z 2800/2906 18008KT 7000 SCT040 PROB30 TEMPO 2800/2808 13014KT 3000 BLDU BECMG 2808/2810 27010KT TEMPO 2810/2900 4000 TSRA FEW035CB BECMG 2816/2818 36012KT
OEWJ,TAF OEWJ 272300Z 2800/2906 27004KT 7000 NSC BECMG 2806/2808 18012KT BECMG 2812/2814 30010KT
OEYN,TAF OEYN 272300Z 2800/2906 35005KT CAVOK BECMG 2806/2808 29018KT 7000 NSC PROB30 TEMPO 2806/2814 3000 BLDU BECMG 2820/2822 34005KT
OIAA,TAF OIAA 280545Z 2806/2912 12008KT 8000 NSC TEMPO 2809/2818 35008KT TEMPO 2908/2912 14020KT 3000 SA DU
OIAW,TAF OIAW 280545Z 2806/2912 12008KT 8000 NSC TEMPO 2809/2818 35008KT
OIBB,TAF OIBB 280845Z 2809/2818 12008KT 7000 NSC TEMPO 2809/2812 24018KT
OIBK,TAF OIBK 280545Z 2806/2912 26008KT 8000 FEW030 TEMPO 2810/2815 26018KT TEMPO 2906/2912 05008KT
OIBP,TAF OIBP 280845Z 2809/2818 15008KT 7000 NSC
OICC,TAF OICC 280845Z 2809/2818 12008KT CAVOK
OICI,TAF OICI 280545Z 2806/2912 29008KT 8000 FEW040 BECMG 2900/2902 FEW035CB SCT040 SCT100 TEMPO 2906/2912 19016KT 4000 DU
OIFM,TAF OIFM 280545Z 2806/2912 35008KT 8000 FEW035 TEMPO 2809/2815 06020KT 4000 SA FEW035CB SCT040 BKN100
OIGG,TAF OIGG 280845Z 2809/2818 06008KT 7000 FEW015 BKN030 BECMG 2815/2817 3000 BR BKN010
OIIE,TAF OIIE 280545Z 2806/2912 13008KT 8000 FEW040 TEMPO 2810/2815 13018KT FEW035CB SCT040 BKN100 TEMPO 2821/2906 30008KT
OIII,TAF OIII 280545Z 2806/2912 14008KT 8000 FEW040 TEMPO 2810/2815 20018KT FEW035CB SCT040 BKN100
OIIP,TAF OIIP 280845Z 2809/2818 24008KT 7000 NSC TEMPO 2812/2815 28016KT FEW030CB SCT035 BKN100
OIKB,TAF OIKB 280545Z 2806/2912 19008KT 7000 FEW030 TEMPO 2812/2815 19018KT FEW030TCU BECMG 2818/2820 4000 HZ BECMG 2904/2906 7000
OIKK,TAF OIKK 280545Z 2806/2912 22008KT 8000 SCT035 SCT100 BECMG 2807/2809 FEW035CB SCT040 BKN100 TEMPO 2809/2815 22018G28KT 3000 SA TSRA SCT035CB BKN040 BKN09 BECMG 2818/2820 SCT035 SCT100 TEMPO 2900/2903 5000 BR
OIMM,TAF OIMM 280545Z 2806/2912 08008KT 8000 FEW035 TEMPO 2811/2815 08018KT FEW035CB SCT040 SCT100
OING,TAF OING 280845Z 2809/2818 22010KT 6000 FEW030 SCT100
OINZ,TAF OINZ 280845Z 2809/2818 22006KT 7000 NSC
OISL,TAF OISL 280545Z 2806/2912 20008KT 8000 FEW035 SCT100 TEMPO 2808/2816 20016G26KT 5000 TSRA SCT035CB SCT040 BKN100 TEMPO 2909/2912 27018KT
OISS,TAF OISS 280545Z 2806/2912 02008KT 8000 FEW035 SCT100 BECMG 2807/2809 FEW030CB SCT035 SCT100 TEMPO 2809/2815 27014G26KT 4000 TSRA SA SCT035CB SCT040 BKN100 BECMG 2816/2818 FEW035 TEMPO 2909/2912 27020KT 4000 SA
OITL,TAF OITL 280845Z 2809/2818 20008KT 7000 NSC TEMPO 2809/2815 07018KT FEW035TCU
OITR,TAF OITR 280545Z 2806/2912 19010KT 8000 FEW035 SCT100 TEMPO 2809/2815 05012KT FEW035TCU BECMG 2903/2905 FEW035CB FEW040 BKN100 TEMPO 2905/2909 6000 RA TEMPO 2909/2912 20018G28KT 3000 TSRA SA SCT035CB SCT040 OVC090
OITT,TAF OITT 280545Z 2806/2912 28010KT 8000 FEW035 SCT100 TEMPO 2809/2815 05012KT FEW035TCU BECMG 2903/2905 FEW035CB FEW040 BKN100 TEMPO 2909/2912 20018G28KT 3000 TSRA SA SCT035CB SCT040 OVC090
OIYY,TAF OIYY 280845Z 2809/2818 14010KT 7000 FEW035CB SCT040 BKN100 TEMPO 2812/2815 32016KT 4000 TSRA SCT030CB SCT035 BKN080
OIZH,TAF OIZH 280545Z 2806/2912 32008KT 7000 FEW035CB SCT040 SCT100 TEMPO 2806/2815 23016G28KT 3000 TSRA SA SCT030CB SCT035 BKN090 BECMG 2816/2818 FEW035 SCT100 TEMPO 2909/2912 23016G28KT 4000 TSRA SA SCT030CB SCT035 BKN090
OJAI,TAF OJAI 280500Z 2806/2912 26015KT 6000 FEW030 BECMG 2810/2812 28020KT 3000 BLDU BKN035 TEMPO 2818/2906 26015KT TEMPO 2902/2906 OVC025
OJAM,TAF OJAM 280500Z 2806/2912 26015KT 6000 FEW030 BECMG 2810/2812 28020KT 3000 BLDU BKN035 TEMPO 2818/2906 26015KT TEMPO 2902/2906 OVC025
OJAQ,TAF OJAQ 280500Z 2806/2912 02014KT 5000 HZ NSC BECMG 2818/2820 SCT035
OKAS,TAF OKAS 280800Z 2808/2914 VRB06KT 9999 SKC QNH2971INS BECMG 2810/2811 13009KT 9999 SKC QNH2966INS BECMG 2813/2814 13010G20KT 9999 SKC QNH2965INS BECMG 2819/2820 16010G20KT 9999 FEW130 QNH2963INS TEMPO 2900/2905 16015G25KT 8000 BLDU BECMG 2906/2907 23009KT 9999 SKC QNH2960INS TX39/2911Z TN24/2902Z
OMAA,TAF OMAA 280500Z 2806/2912 22005KT CAVOK BECMG 2806/2808 31011KT BECMG 2817/2819 17005KT BECMG 2907/2909 31010KT
OMAD,TAF OMAD 280500Z 2806/2912 22005KT CAVOK BECMG 2806/2808 32010KT BECMG 2818/2820 17005KT BECMG 2907/2909 32008KT
OMAL,TAF OMAL 280500Z 2806/2912 23005KT CAVOK BECMG 2806/2808 31012KT BECMG 2818/2820 10005KT BECMG 2907/2909 31012KT
OMDB,TAF OMDB 280500Z 2806/2912 23007KT CAVOK BECMG 2806/2808 29010KT BECMG 2816/2818 18005KT BECMG 2906/2908 29010KT
OMDW,TAF OMDW 280500Z 2806/2912 24007KT CAVOK BECMG 2806/2808 30014KT BECMG 2816/2818 17005KT BECMG 2906/2908 31013KT
OMFJ,TAF OMFJ 280500Z 2806/2912 VRB03KT CAVOK BECMG 2806/2808 07010KT BECMG 2816/2818 29008KT BECMG 2906/2908 07010KT
OMRK,TAF OMRK 280500Z 2806/2912 20005KT CAVOK BECMG 2807/2809 30012KT BECMG 2815/2817 VRB02KT BECMG 2907/2909 29012KT
OMSJ,TAF OMSJ 280500Z 2806/2912 23007KT CAVOK BECMG 2806/2808 29012KT BECMG 2816/2818 17005KT BECMG 2906/2908 29012KT
OODQ,TAF OODQ 280500Z 2806/2906 20014KT 8000 SCT040 PROB30 TEMPO 2808/2811 4000 -TSRA FEW025CB BKN035
OOMS,TAF OOMS 280500Z 2806/2912 28014KT 8000 SCT035 BECMG 2806/2808 05012KT BECMG 2817/2819 22005KT BECMG 2906/2908 04010KT
OOSA,TAF OOSA 2806/2912 19010KT 9999 BKN025 BECMG 2815/2817 VRB03KT BECMG 2906/2908 19010KT
OOSH,TAF OOSH 280500Z 2806/2912 04014KT 8000 SCT035 BECMG 2814/2816 VRB02KT BECMG 2906/2908 05010KT
OPFA,TAF OPFA 280500Z 2806/2912 25006KT 5000 HZ SCT040 SCT100 TX36/2810Z TN21/2901Z PROB30 TEMPO 2822/2904 23015G30KT 2500 TSRA FEW030CB SCT040 BKN100 BE CMG 2907/2912 24005KT 6000 SCT040 SCT100
OPGD,TAF OPGD 280500Z 2806/2906 23010G20KT 5000 HZ SCT030 BKN100 TEMPO 2810/2816 05020G35KT 1500 DSTSRA FEW025CB SCT030 OVC080 TEMPO 2900/2904 18005KT 2000 -RADZ SCT030 BKN080
OPIS,TAF OPIS 280510Z 2806/2912 31008KT 5000 HZ FEW040 SCT100 TEMPO 2806/2809 31010G20KT 4000 TSRA FEW030CB SCT040 BKN100 PROB30 TEMPO 2909/2912 31010G20KT 4000 -TSRA FEW030CB SCT040 BKN100
OPKC,TAF OPKC 280500Z 2806/2912 24010G20KT 6000 SCT030 BKN100 TEMPO 2810/2816 04020G35KT 1500 DSTSRA FEW025CB SCT030 OVC080 BECMG 2819/2821 26010KT 4000 HZ SCT030 SCT100 FM290500 24010G20KT 6000 SCT030 SCT100
OPLA,TAF OPLA 280500Z 2806/2912 13010KT 5000 HZ FEW100 TX35/2810Z TN20/2900Z PROB30 TEMPO 2808/2812 09020G40KT 2000 -TSRA FEW030CB SCT040 BKN100 FM 28/1600 31008KT 4000 FU SCT040 SCT100 FM 29/0500 33010G20KT 5000 HZ SCT100
OPNH,TAF OPNH 280500Z 2806/2912 18012KT 5000 HZ SCT030 SCT100 TEMPO 2811/2817 33020G35KT 1500 DSTSRA FEW025CB SCT030 OVC090 BECMG 2818/2820 18010KT 4000 HZ SCT030 SCT100 TEMPO 2908/2912 33020G35KT 1500 TSRA FEW025CB SCT030 OVC090
OPPS,TAF OPPS 280500Z 2806/2912 32006KT 5000 HZ FEW040TCU SCT060 BKN100 TEMPO 2812/2815 29006KT 4000 FU FEW040 SCT100 BECMG 2909/2912 14008G18KT 3500 -TSRA FEW040CB SCT080 OVC100
OPRK,TAF OPRK 280945Z 2806/2824 13010KT 5000 HZ FEW040 SCT100 TN20/2901Z PROB30 TEMPO 2812/2815 05020KT 2500 -TSRA FEW030CB SCT040 SCT100
OPSK,TAF OPSK 280500Z 2806/2906 16010KT 4000 HZ SCT030 BKN100 TEMPO 2810/2817 33020G35KT 1500 DSTSRA FEW025CB SCT030 OVC090 BECMG 2819/2821 18008KT 4000 HZ SCT030 BKN100
OPST,TAF OPST 280500Z 2806/2912 09010KT 4000 FU FEW040 TX34/2810Z TN20/2900Z PROB30 TEMPO 2810/2812 32010G25KT 2000 -TSRA FEW030CB SCT040 BKN100
ORBI,TAF ORBI 280400Z 2806/2906 15008KT CAVOK BECMG 2814/2816 8000 SCT030 SCT080 TEMPO 2818/2906 -RA
ORER,TAF ORER 280500Z 2806/2906 10009KT 7000 NSC BECMG 2809/2812 21006G17KT PROB30 2815/2818 33007G20KT -TSRA FEW040CB SCT090
ORMM,TAF ORMM 280400Z 2806/2906 VRB02KT CAVOK TEMPO 2806/2818 19011KT BECMG 2812/2815 FEW040 SCT100 
ORSU,TAF ORSU 280500Z 2806/2906 14004KT CAVOK
OTBD,TAF OTBD 280501Z 2806/2912 14008KT CAVOK TEMPO 2806/2809 30007KT TEMPO 2806/2811 06008KT TEMPO 2823/2903 VRB03KT
OTBH,TAF OTBH 280800Z 2808/2914 28010G20KT 9999 SKC QNH2969INS BECMG 2812/2813 14009KT 9999 SKC QNH2968INS BECMG 2907/2908 17010G15KT 9999 SKC QNH2964INS TX37/2812Z TN22/2901Z
OTHH,TAF OTHH 280501Z 2806/2912 14008KT CAVOK TEMPO 2806/2809 30007KT TEMPO 2806/2811 06008KT TEMPO 2823/2903 VRB03KT
OYAA,TAF OYAA 280500Z 2806/2912 10012KT 9999 SCT020 BKN100 BKN200 TEMPO 2810/2816 FEW040CB
PAAQ,PAAQ 280530Z 2806/2906 14005KT P6SM VCSH FEW060 OVC100
PABE,PABE 280902Z 2809/2906 17008KT P6SM -SHSN SCT015 BKN025 TEMPO 2809/2812 3SM -SN BR BKN015 FM281900 13010KT P6SM VCSH OVC015 FM290100 15010KT P6SM OVC050
PABI,TAF PABI 280600Z 2806/2912 20012KT 9999 FEW110 QNH2965INS TX07/2822Z TNM05/2812Z
PABR,PABR 281005Z 2810/2906 02015KT 5SM -SN BR BKN015 OVC050
PABT,PABT 280533Z 2806/2906 04005KT P6SM SCT100
PACD,PACD 280908Z 2809/2906 15008KT P6SM VCSH SCT020 OVC045 TEMPO 2809/2811 4SM -SN BR BKN020 FM281100 16012KT P6SM -SN SCT025 OVC050 FM282100 16015G23KT P6SM BKN050
PACV,PACV 280530Z 2806/2906 12008KT 6SM -SHRA BKN015 OVC025 TEMPO 2806/2810 4SM -RA FM281000 10008G15KT 5SM -RA BKN015
PADL,PADL 280904Z 2809/2906 15008KT P6SM -SHSN SCT010 BKN025 TEMPO 2809/2812 2SM -SN BR BKN010 FM281500 10010KT P6SM -SN OVC015 FM281800 11010G18KT P6SM OVC030 FM282200 12012G20KT P6SM OVC035
PADQ,PADQ 280530Z 2806/2906 27005KT P6SM FEW035 BKN060 FM281500 11004KT P6SM -RA BKN025 BKN040 FM282100 10007KT 6SM -RA OVC015
PADU,PADU 280539Z 2806/2906 VRB06KT P6SM SCT025 BKN050 TEMPO 2806/2810 -SHRASN OVC025 FM281000 21006KT P6SM -SHSN SCT025 BKN050 FM281900 18008KT P6SM OVC050 FM290300 14006KT P6SM SHRA OVC025
PAED,TAF PAED 280502Z 2805/2911 20007KT 9999 -RA SCT030 BKN055 OVC100 610558 QNH2972INS WND VRB04KT AFT 2809 TEMPO 2805/2807 FEW017 BKN025 OVC050 610309 TEMPO 2813/2816 9999 -SNRA BECMG 2816/2817 21007KT 9999 NSW FEW035 BKN060 BKN100 620606 510304 QNH2992INS BECMG 2823/2824 33007KT 9999 SCT055 QNH2986INS TX08/2900Z TN01/2815Z
PAEI,TAF PAEI 280600Z 2806/2912 VRB03KT 9999 SCT090 BKN100 QNH2968INS BECMG 2813/2814 16009KT 9999 SCT060 BKN080 620802 QNH2978INS TEMPO 2817/2822 15010G15KT TX09/2901Z TNM05/2812Z
PAEN,PAEN 280530Z 2806/2906 20008KT P6SM VCSH BKN050
PAFA,PAFA 280533Z 2806/2912 VRB04KT P6SM FEW050 BKN150
PAFB,TAF PAFB 280600Z 2806/2912 VRB06KT 9999 FEW060 BKN150 BKN200 QNH2970INS BECMG 2820/2821 05006KT 9999 VCSH SCT050 BKN150 QNH2984INS BECMG 2900/2901 25006KT 9999 NSW SCT100 QNH2985INS TX09/2902Z TNM02/2815Z LAST NO AMDS AFT 2906 NEXT 2914
PAGA,PAGA 280533Z 2806/2906 09008KT P6SM VCSH BKN035 OVC050 FM281500 09007KT 5SM -SN BKN025 BKN050 AMD NOT SKED
PAGK,PAGK 280530Z 2806/2906 15012G20KT P6SM OVC100
PAGS,PAGS 280752Z 2808/2906 14006KT P6SM VCSH SCT030 OVC050 TEMPO 2808/2812 6SM -SHRA BR BKN030 OVC040 FM281500 VRB05KT P6SM VCSH SCT025 OVC050 FM282300 14009G15KT 6SM -RA BKN025 OVC035 AMD LTD TO CLD VIS AND WIND
PAGY,PAGY 280746Z 2808/2906 20013G23KT P6SM VCSH SCT060 BKN080 FM281500 20005KT P6SM OVC050 FM290400 VRB05KT P6SM -RA SCT025 OVC050 AMD LTD TO CLD VIS AND WIND
PAHN,PAHN 280750Z 2808/2906 10010G18KT P6SM -RA SCT015 OVC070 TEMPO 2808/2812 BKN015 OVC070 FM281200 09008KT P6SM VCSH SCT015 OVC050 FM290300 10006KT 6SM -RA BR SCT015 OVC030 AMD NOT SKED
PAHO,PAHO 280530Z 2806/2906 25008KT P6SM VCSH FEW040 OVC070 FM281500 18005KT P6SM VCSH SCT030 BKN060
PAIL,PAIL 280547Z 2806/2906 16004KT P6SM SCT025 BKN040 OVC070 TEMPO 2806/2810 2SM -SN BR BKN020 FM281000 14004KT P6SM SCT020 OVC030 FM281400 11006KT P6SM SCT020 OVC035 FM290100 12010KT P6SM -RA OVC025
PAJN,PAJN 280813Z 2808/2906 09010KT P6SM VCSH SCT018 BKN025 OVC060 TEMPO 2808/2812 6SM -SHRA FEW005 BKN018 OVC025 FM281200 10007KT P6SM VCSH SCT025 OVC060 FM282300 15008KT 6SM -RA OVC025
PAKN,PAKN 280906Z 2809/2906 11006KT P6SM VCSH SCT030 BKN100 FM281800 13012KT P6SM BKN100 FM282300 16013G20KT P6SM BKN100
PAKT,PAKT 280805Z 2808/2906 VRB03KT P6SM VCSH BKN040 OVC050 TEMPO 2808/2812 6SM -RA BR FEW005 BKN030 OVC040 FM281600 32008KT P6SM VCSH BKN025 OVC050 FM282300 33008KT P6SM BKN050 AMD LTD TO CLD VIS AND WIND TIL 281500
PAKW,PAKW 280523Z 2806/2906 03005KT P6SM -SHRA OVC035 FM280900 02002KT 6SM -SHRA BR BKN025 FM281700 03002KT P6SM SCT025 OVC060 AMD LTD TO CLD VIS AND WIND
PAMC,PAMC 280533Z 2806/2906 VRB05KT P6SM SCT035 OVC050 AMD NOT SKED
PANC,PANC 280530Z 2806/2912 16008KT P6SM VCSH FEW050 BKN060 TEMPO 2808/2812 16008G18KT FM281400 17008KT P6SM BKN050
PAOM,PAOM 280533Z 2806/2906 03008KT P6SM VCSH BKN035 OVC050 FM280800 03008KT 6SM -SN BKN025 OVC035 FM281500 05008KT 3SM -SN BR OVC015 FM290300 11008KT P6SM BKN025 OVC035
PAOR,PAOR 280533Z 2806/2906 VRB04KT P6SM BKN100
PAOT,PAOT 280533Z 2806/2906 31005KT P6SM BKN200 FM281500 09013KT P6SM VCSH OVC035
PAPG,PAPG 280523Z 2806/2906 VRB03KT P6SM -SHRA FEW010 OVC022 FM280900 VRB03KT P6SM -SHRA SCT007 OVC015 FM281500 06002KT P6SM BKN025 OVC050 FM290100 09002KT P6SM SCT025 OVC050 AMD LTD TO CLD VIS AND WIND 2806/2815
PAQT,PAQT 280533Z 2806/2906 13008KT 6SM BR OVC015 FM282100 07009KT P6SM SCT015 BKN025
PASC,PASC 280533Z 2806/2906 VRB03KT 6SM BR SCT015 BKN050 OVC100 FM281000 07011KT 6SM BR BKN015 OVC050
PASD,PASD 280539Z 2806/2906 20008KT P6SM FEW030 BKN050 FM281400 17008KT P6SM -RA SCT025 BKN050 FM281900 17008KT P6SM VCSH BKN050
PASI,PASI 280759Z 2808/2906 10005KT P6SM VCSH FEW020 BKN025 OVC035 TEMPO 2808/2812 5SM -SHRA BR FEW015 BKN020 OVC025 FM281800 06005KT 4SM -RA BR BKN015 OVC025 FM290200 14007KT 6SM -SHRA SCT015 OVC025
PASN,PASN 280911Z 2809/2906 01011KT 6SM -SHSN BR SCT025 OVC040 TEMPO 2809/2812 3SM -SN BR BKN025 FM281900 04006KT P6SM OVC015
PASY,TAF PASY 280600Z 2806/2912 08020KT 9999 BKN025 OVC040 QNH2958INS BECMG 2901/2902 03025KT 9999 FEW025 BKN040 OVC055 QNH2964INS BECMG 2903/2904 02025KT 9999 BKN025 OVC040 QNH2965INS TX01/2808Z TN00/2812Z LIMITED METWATCH 2806 TIL 2809
PATA,PATA 280533Z 2806/2906 VRB04KT P6SM SCT100 BKN150
PATK,PATK 280530Z 2806/2906 20003KT P6SM VCSH SCT025 BKN050 OVC070 FM281000 18003KT 3SM -SN BR OVC025 FM281600 VRB02KT 5SM -RASN BKN025
PAUN,PAUN 280833Z 2809/2906 09010KT P6SM VCSH BKN035 OVC050 FM281800 10007KT P6SM SCT035
PAVD,PAVD 280530Z 2806/2906 VRB03KT P6SM SCT035 BKN040 BKN070 FM280900 VRB03KT 5SM -RA SCT015 BKN030
PAWG,PAWG 280523Z 2806/2906 12005KT P6SM -SHRA SCT015 OVC025 FM281400 10005KT 4SM -SHRA BR OVC015 FM281900 11005KT P6SM -SHRA BKN025 OVC050 FM282300 10004KT P6SM OVC050 AMD NOT SKED 2806/2815
PAYA,PAYA 280743Z 2808/2906 13007KT P6SM VCSH FEW015 OVC035 TEMPO 2808/2812 4SM -SHRA BR BKN015 OVC035 FM281600 06004KT P6SM VCSH SCT025 OVC050 FM290000 07004KT 5SM -RA BR SCT015 OVC025 AMD LTD TO CLD VIS AND WIND
PGRO,PGRO 280530Z 2806/2906 08016G22KT P6SM VCSH BKN015 BKN050
PGSN,PGSN 280530Z 2806/2906 07020G26KT P6SM VCSH SCT015 SCT040 BKN050 FM281000 08016G22KT P6SM VCSH SCT015 SCT030 BKN045 FM282300 08018G26KT P6SM VCSH SCT015 SCT040
PGUA,TAF PGUA 281000Z 2810/2916 08015G20KT 9999 VCSH BKN012 QNH2980INS TEMPO 2810/2821 09018G25KT 3200 SHRA BKN010 TEMPO 2900/2906 08018G25KT 4800 -SHRA BKN010 TX29/2902Z TN25/2818Z
PGUM,PGUM 280530Z 2806/2912 08015G22KT P6SM VCSH SCT018 SCT030 FM280900 08012KT P6SM VCSH SCT015 SCT025 BKN040 FM282300 08016G23KT P6SM VCSH SCT018 SCT030
PGWT,PGWT 280530Z 2806/2906 08016G22KT P6SM VCSH SCT015 SCT025 BKN050
PHHI,TAF PHHI 280700Z 2807/2913 VRB06KT 9999 BKN015 BKN035 QNH3000INS TEMPO 2807/2814 3200 -SHRA BR SCT008 BKN015 OVC030 BECMG 2818/2819 04009KT 9999 BKN025 BKN035 QNH2997INS TEMPO 2822/2904 03012KT 6000 -SHRA SCT006 BKN015 BKN020 TX24/2823Z TN18/2815Z
PHJH,PHJH 280417Z 2804/2824 VRB05KT P6SM VCTS SCT020CB OVC035 FM280700 VRB05KT P6SM SCT020 BKN035 OVC060 FM281800 VRB05KT P6SM FEW020 SCT035 BKN060 AMD NOT SKED
PHJR,PHJR 280521Z 2806/2906 VRB05KT 6SM SHRA FEW012 BKN025 OVC030 TEMPO 2806/2809 2SM SHRA BR SCT009 BKN015 OVC030 FM280900 VRB03KT P6SM SCT025 BKN040 FM282100 15008KT P6SM SCT035 BKN050 FM290100 08005KT P6SM FEW030 SCT050
PHKO,PHKO 280521Z 2806/2906 20008KT P6SM VCSH SCT025 BKN040 OVC070 FM281200 VRB05KT P6SM FEW025 SCT040 BKN070 FM282000 26009KT P6SM SCT025 SCT070
PHLI,PHLI 280927Z 2809/2906 02009KT P6SM VCSH BKN025 OVC040 TEMPO 2809/2813 5SM SHRA BKN015 FM282000 04012KT P6SM VCSH SCT025 BKN040
PHMK,PHMK 280540Z 2806/2906 02005KT P6SM VCSH SCT004 BKN025 OVC050 TEMPO 2806/2808 1SM BR BKN004 FM281500 VRB05KT P6SM VCSH FEW012 SCT025 BKN050 FM290100 03008KT P6SM SCT025 BKN050
PHNG,TAF PHNG 2809/2909 06007KT 2400 SHRA BR BKN005 OVC015 QNH2990INS TEMPO 2809/2815 VRB06KT 4800 -SHRA BKN015 OVC025 T22/2815Z T26/2823Z
PHNL,PHNL 280908Z 2809/2912 VRB06KT 6SM SHRA SCT015 BKN025 OVC035 FM281600 03006KT P6SM VCSH SCT025 BKN040 FM281900 14009KT P6SM FEW025 BKN040 FM290100 06008KT P6SM FEW025 SCT040
PHNY,PHNY 280521Z 2806/2906 VRB05KT P6SM VCSH SCT009 SCT020 BKN050 TEMPO 2806/2809 2SM SHRA BR BKN012 FM281600 VRB06KT P6SM FEW009 SCT015 BKN035
PHOG,PHOG 280521Z 2806/2906 VRB08KT 6SM SHRA VCTS SCT006 SCT015CB BKN030 FM280700 VRB05KT 6SM SHRA SCT015 BKN035 FM281500 VRB02KT P6SM VCSH SCT015 SCT030 BKN045 FM282100 01011KT P6SM FEW015 SCT030 BKN045
PHTO,PHTO 280521Z 2806/2906 VRB05KT P6SM FEW025 SCT045 BKN060 FM280800 23004KT P6SM VCSH SCT025 OVC045 FM282100 06010KT P6SM VCSH SCT025 OVC045
PKMJ,PKMJ 280530Z 2806/2906 08014KT P6SM VCSH SCT015 SCT050 BKN120
PKWA,PKWA 280530Z 2806/2906 08014KT P6SM VCSH SCT015 BKN050 FM281400 VRB12G18KT 5SM SHRA VCTS BKN015CB BKN035 FM282200 08013KT P6SM VCSH SCT015 SCT050
PLCH,TAF PLCH 280518Z 2806/2906 10009KT 9999 SCT020
PMDY,PMDY 280521Z 2806/2906 07009G18KT P6SM VCSH FEW015 BKN025 BKN045 FM281800 09006KT P6SM FEW020 SCT040 AMD NOT SKED
PTKK,PTKK 280530Z 2806/2906 09010KT P6SM VCSH SCT012 BKN040 BKN100 TEMPO 2806/2810 VRB10G18KT 5SM SHRA BKN012
PTPN,PTPN 280530Z 2806/2906 VRB10G18KT 5SM SHRA VCTS BKN015CB BKN040 OVC120 FM281200 09008KT P6SM VCSH SCT015 BKN120
PTRO,PTRO 280530Z 2806/2906 07008KT P6SM VCSH SCT015 SCT050 BKN110 TEMPO 2806/2810 VRB10G18KT 6SM -SHRA BKN015
PTSA,PTSA 280530Z 2806/2906 VRB10G18KT 5SM SHRA VCTS BKN015CB BKN040 OVC120 FM281500 06009KT P6SM VCSH SCT015 SCT040 BKN120
PTYA,PTYA 280530Z 2806/2906 09010KT P6SM VCSH SCT016 SCT050 SCT110 TEMPO 2810/2814 VRB10G18KT 6SM -SHRA BKN015
PWAK,TAF PWAK 280600Z 2806/2912 07015KT 9999 SCT020 QNH2991INS TX30/2812Z TN25/2902Z FOR MIL USE ONLY
RCFN,TAF RCFN 280500Z 2806/2906 10010KT 9999 FEW020 TEMPO 2806/2810 FEW012 FEW015TCU SCT020 BKN032 BECMG 2810/2812 33005KT BECMG 2901/2903 15007KT
RCKH,TAF RCKH 280500Z 2806/2912 27010KT 9999 FEW015 BECMG 2810/2812 17005KT BECMG 2901/2903 27010KT
RCMQ,TAF RCMQ 280500Z 2806/2906 34008KT 8000 FEW010 SCT080 TX29/2905Z TN21/2820Z TEMPO 2807/2812 6000 FEW010 BKN080 BECMG 2813/2816 24004KT FEW010 BKN060 TEMPO 2818/2823 5000 BR FEW010 BKN040 BECMG 2901/2904 24008KT 9999
RCNN,TAF RCNN 280500Z 2806/2906 30008KT 9999 FEW012 SCT100 TX31/2905Z TN22/2821Z TEMPO 2807/2811 FEW012 BKN080 BECMG 2812/2815 36004KT FEW012 BKN060 TEMPO 2818/2823 7000 FEW012 SCT050 BECMG 2900/2903 36006KT FEW012 SCT080
RCSS,TAF RCSS 280500Z 2806/2906 28010KT 9999 FEW020 TEMPO 2810/2814 09005KT BECMG 2814/2816 VRB03KT BECMG 2901/2903 31005KT
RCTP,TAF RCTP 280500Z 2806/2912 33005KT 9999 SCT004 BKN007 TEMPO 2806/2810 02010KT SCT007 BKN011 BKN030 BECMG 2810/2812 12005KT FEW010 SCT020 BKN032 TEMPO 2818/2824 21005KT 5000 BR FEW010 BKN016 BKN040 BECMG 2900/2902 25012KT TEMPO 2904/2910 28015G25KT
RJAA,TAF RJAA 280505Z 2806/2912 18006KT 9999 FEW030 TEMPO 2903/2909 18016G26KT
RJAH,TAF RJAH 280506Z 2806/2912 22014KT 9999 FEW030
RJBB,TAF RJBB 280505Z 2806/2912 19009KT 9999 FEW030 BECMG 2818/2821 12005KT BECMG 2903/2906 18014KT
RJCB,TAF RJCB 280505Z 2806/2912 35013KT 9999 FEW030 BKN050 BECMG 2808/2810 13008KT BECMG 2814/2816 34004KT BECMG 2821/2900 14005KT TEMPO 2909/2912 FEW002 BKN005
RJCC,TAF AMD RJCC 280627Z 2806/2912 18008KT 9999 FEW015 BKN030 TEMPO 2815/2821 3000 BR FEW003 BKN006 BECMG 2900/2903 17020KT TEMPO 2909/2912 3000 BR FEW002 BKN005
RJCH,TAF RJCH 280509Z 2806/2912 23018KT 9999 FEW015 TEMPO 2806/2808 23020G30KT BECMG 2809/2811 26005KT BECMG 2813/2815 02005KT BECMG 2900/2903 13010KT
RJCK,TAF RJCK 280509Z 2806/2912 11006KT 9999 FEW030 BKN050 BECMG 2811/2813 01005KT BECMG 2900/2903 16006KT TEMPO 2909/2912 3000 BR FEW002 BKN006
RJCM,TAF RJCM 280509Z 2806/2912 05006KT 9999 FEW030 SCT050 BECMG 2812/2814 17010KT
RJEC,TAF RJEC 280505Z 2806/2912 27007KT 9999 FEW020 BKN040 BECMG 2808/2810 18011KT
RJFF,TAF RJFF 280506Z 2806/2912 18011KT 9999 FEW030 SCT045 BECMG 2806/2808 32008KT BECMG 2810/2812 15009KT TEMPO 2900/2906 17019G29KT 4000 -SHRA BR BECMG 2906/2909 29014KT TEMPO 2906/2912 3000 SHRA BR FEW002 BKN008 BKN010
RJFK,TAF RJFK 280506Z 2806/2912 16008KT 9999 FEW030 SCT040 TEMPO 2906/2909 4000 -SHRA BR FEW003 BKN008 BKN020 TEMPO 2909/2912 1500 TSRA BR FEW003 BKN005 BKN020 FEW025CB
RJFM,TAF RJFM 280507Z 2806/2912 11007KT 9999 FEW030 BECMG 2811/2813 30005KT BECMG 2900/2903 13006KT TEMPO 2909/2912 4000 -TSRA BR FEW008 SCT010 BKN020 FEW025CB BECMG 2909/2912 18004KT
RJFO,TAF RJFO 280508Z 2806/2912 14016KT 9999 FEW030 BECMG 2812/2814 20004KT BECMG 2821/2900 15014KT TEMPO 2900/2909 4000 -SHRA BR FEW003 BKN005 BKN010 TEMPO 2909/2912 3000 SHRA BR FEW003 BKN005 BKN010
RJFR,TAF RJFR 280506Z 2806/2912 10010KT 9999 FEW030 BECMG 2806/2808 06006KT BECMG 2811/2813 14006KT TEMPO 2900/2906 4000 -SHRA BR FEW005 BKN008 BKN010 TEMPO 2906/2912 3000 SHRA BR FEW005 BKN008 BKN010 BECMG 2909/2912 28015KT
RJFS,TAF RJFS 280507Z 2806/2912 20009KT 9999 FEW030 SCT050 BECMG 2813/2815 15007KT TEMPO 2821/2906 4000 -SHRA BR FEW003 SCT005 BKN008 TEMPO 2906/2909 3000 TSRA BR FEW003 SCT005 BKN008 FEW030CB BECMG 2909/2912 29011KT
RJFT,TAF RJFT 280505Z 2806/2912 24010KT 9999 FEW030 SCT050 BECMG 2811/2813 06004KT BECMG 2900/2903 22006KT TEMPO 2906/2909 4000 -SHRA BR FEW001 SCT005 BKN008 TEMPO 2909/2912 3000 TSRA BR FEW001 BKN005 BKN008 FEW025CB
RJFU,TAF AMD RJFU 280604Z 2806/2912 25008KT 9999 FEW030 BECMG 2807/2809 14010KT TEMPO 2821/2906 4000 -SHRA BR FEW003 SCT005 BKN008 BECMG 2903/2906 18020KT TEMPO 2906/2909 20025G40KT 3000 TSRA BR FEW003 SCT005 BKN008 FEW030CB BECMG 2909/2912 32013KT
RJGG,TAF RJGG 280510Z 2806/2912 14010KT 9999 FEW030 BECMG 2816/2818 05004KT BECMG 2821/2900 14018KT
RJNK,TAF RJNK 280512Z 2806/2912 01005KT 9999 FEW030 BECMG 2809/2811 22008KT
RJNS,TAF RJNS 280512Z 2806/2912 22010KT 9999 FEW030 BECMG 2810/2812 28008KT
RJNT,TAF RJNT 280505Z 2806/2912 02006KT 9999 FEW030 BECMG 2809/2811 18008KT TEMPO 2906/2912 18018G30KT
RJOA,TAF RJOA 280505Z 2806/2912 20006KT 9999 FEW030 BECMG 2818/2821 09005KT BECMG 2906/2909 20006KT TEMPO 2906/2912 3000 SHRA BR BCFG FEW000 SCT005 BKN008
RJOB,TAF RJOB 280506Z 2806/2912 18005KT 9999 FEW030 BECMG 2806/2808 12005KT TEMPO 2906/2912 4000 -SHRA BR FEW002 SCT005 BKN008
RJOC,TAF AMD RJOC 280817Z 2808/2912 26007KT 9999 FEW030 TEMPO 2903/2909 22016G28KT TEMPO 2909/2912 22016G28KT 4000 SHRA BR FEW003 BKN008 BKN015
RJOH,TAF RJOH 280506Z 2806/2912 03006KT 9999 FEW030 BECMG 2810/2812 18006KT TEMPO 2909/2912 4000 SHRA BR FEW005 BKN008 BKN015
RJOI,TAF RJOI 2809/2909 20008KT 9999 FEW030 FEW200 QNH3004INS BECMG 2812/2814 VRB05KT 9999 FEW025 SCT060 BKN150 621402 QNH2999INS FM281900 02006KT 9999 SCT020 BKN050 OVC080 621204 QNH2994INS BECMG 2822/2900 VRB05KT 9999 VCSH SCT015 SCT030 OVC050 621206 QNH2992INS FM290100 VRB06KT 9000 -SHRA BR SCT015 OVC040 621206 QNH2988INS FM290300 VRB06KT 8000 -SHRA BR SCT015 OVC040 621206 QNH2984INS BECMG 2904/2906 17008KT 6000 SHRA BR SCT020 OVC040 621206 QNH2977INS T15/2820Z T19/2911Z
RJOK,TAF RJOK 280505Z 2806/2912 15008KT 9999 FEW030 BECMG 2811/2813 35007KT BECMG 2900/2903 15013KT TEMPO 2903/2912 4000 SHRA BR FEW003 SCT005 BKN008
RJOM,TAF RJOM 280505Z 2806/2912 36006KT 9999 FEW030 BECMG 2808/2810 12006KT BECMG 2821/2900 36007KT BECMG 2906/2909 18012KT
RJOO,TAF RJOO 280505Z 2806/2912 32006KT 9999 FEW030 BECMG 2821/2900 22008KT
RJOT,TAF RJOT 280505Z 2806/2912 01006KT 9999 FEW030 BECMG 2807/2809 24004KT BECMG 2811/2813 15006KT
RJSA,TAF RJSA 280505Z 2806/2912 27013KT 9999 FEW030 BECMG 2808/2810 21010KT BECMG 2903/2906 04008KT
RJSF,TAF RJSF 280505Z 2806/2912 21010KT 9999 FEW030 BECMG 2809/2811 14005KT BECMG 2900/2903 19015KT
RJSI,TAF RJSI 280505Z 2806/2912 26012KT 9999 FEW030 BECMG 2806/2808 35005KT BECMG 2821/2900 19010KT
RJSK,TAF RJSK 280505Z 2806/2912 26008KT 9999 FEW030 BECMG 2808/2810 14004KT BECMG 2900/2903 30008KT BECMG 2909/2912 14004KT
RJSN,TAF RJSN 280505Z 2806/2912 34006KT 9999 FEW030 BECMG 2810/2812 16004KT BECMG 2900/2903 35008KT BECMG 2906/2909 04008KT
RJSS,TAF RJSS 280505Z 2806/2912 14012KT 9999 FEW030 BECMG 2809/2811 32004KT BECMG 2821/2900 12010KT
RJTT,TAF RJTT 280505Z 2806/2912 20020KT 9999 FEW030
RJTY,TAF RJTY 280500Z 2805/2911 17009KT 9999 BKN200 QNH3009INS BECMG 2817/2818 22009KT 9999 SCT020 QNH3009INS BECMG 2902/2903 21012G20KT 9999 FEW040 510003 QNH2990INS TEMPO 2904/2909 18020G30KT 530003 TX25/2904Z TN11/2820Z
RKJB,TAF RKJB 280500Z 2806/2912 18008KT 9999 BKN035 TX20/2806Z TN12/2912Z BECMG 2812/2814 4000 -RA SCT010 BKN030 OVC080 TEMPO 2818/2822 2000 BKN005 BKN020 OVC070 TEMPO 2900/2904 22008KT 2000 RA BECMG 2904/2905 25010KT BECMG 2906/2907 31012KT BR
RKJK,TAF RKJK 280000Z 2800/2906 12008KT 9999 SKC QNH3006INS BECMG 2802/2803 22012KT 9999 SCT030 BKN050 QNH2998INS BECMG 2807/2808 23009KT 9999 VCSH BKN030 QNH2989INS BECMG 2814/2815 17006KT 8000 -RA BKN020 OVC030 QNH2983INS BECMG 2820/2821 20012G18KT 6000 -RA OVC020 QNH2976INS TX19/2803Z TN14/2800Z LAST NO AMDS AFT 2806 NEXT 0100
RKNN,TAF RKNN 280500Z 2806/2912 12006KT 9999 FEW200 WND 24008KT AFT 2808 BECMG 2817/2818 15006KT 4800 -RA BR SCT015 BKN040 TN14/2821Z TX20/2906Z 
RKNW,TAF RKNW 280500Z 2806/2912 24010KT 9999 SCT030 BKN200 BECMG 2809/2810 24006KT 9999 BKN030 BKN180 BECMG 2815/2816 24006KT 4800 -RA BR SCT015 BKN030 BECMG 2820/2821 24006KT 3200 -RA BR BKN015 OVC030 BECMG 2902/2903 24006G16KT 3200 -RA BR BKN015 OVC030 BECMG 2907/2908 24006G16KT 4800 -RA BR BKN015 OVC030 TN12/2821Z TX18/2906Z 
RKNY,TAF AMD RKNY 280950Z 2810/2912 19010G20KT CAVOK TN13/2821Z TX19/2905Z TEMPO 2810/2812 27015G25KT BECMG 2813/2815 06006KT 6000 BKN025 OVC080 BECMG 2816/2818 03006KT 3000 -RA SCT005 BKN020 OVC060 BECMG 2903/2905 25008KT 6000 BKN030 BECMG 2906/2908 NSW
RKPC,TAF RKPC 280500Z 2806/2912 36008KT 9999 FEW010 BKN030 OVC100 TN17/2820Z TX19/2903Z BECMG 2813/2814 6000 -RA BECMG 2816/2817 20015G30KT BECMG 2823/2824 26017G33KT BECMG 2903/2904 4000 RA
RKPK,TAF RKPK 280500Z 2806/2912 18010KT 9999 SCT030 TX21/2806Z TN16/2821Z BECMG 2809/2810 18008KT BKN030 BECMG 2815/2816 21008KT 4800 -RA BR BKN015 OVC030 BECMG 2820/2821 21006G16KT 3200 BKN010 OVC030 BECMG 2906/2907 21008KT 4800 BKN015 OVC030 BECMG 2909/2910 30008KT 9999 NSW BKN030
RKSG,TAF RKSG 280300Z 2803/2909 22009KT 9999 FEW060 QNH2998INS BECMG 2807/2808 24009KT 9999 BKN050 510055 QNH2996INS BECMG 2811/2812 19006KT 9000 BR BKN030 510055 QNH2982INS BECMG 2820/2821 21009KT 8000 -SHRA BKN020 510055 QNH2975INS BECMG 2900/2901 24012G18KT 6000 -RA OVC010 510055 QNH2972INS BECMG 2906/2907 27012G20KT 9000 BR BKN020 520055 QNH2972INS TX21/2806Z TN14/2902Z
RKSI,TAF AMD RKSI 280635Z 2807/2912 23010KT 9999 BKN040 TN13/2821Z TX15/2905Z BECMG 2810/2812 17007KT 6000 BKN030 OVC080 BECMG 2814/2816 14006KT 3500 -RA SCT010 BKN025 OVC080 BECMG 2820/2822 21012G25KT 2000 BKN003 BKN020 OVC060 BECMG 2902/2904 25015G25KT 4000 BECMG 2905/2907 28018G30KT 6000 NSW SCT030
RKSM,TAF RKSM 280500Z 2806/2912 21010KT 9999 SCT030 SCT200 BECMG 2809/2810 24006KT 9999 BKN030 BECMG 2814/2815 24006KT 8000 -RA BR SCT015 BKN030 BECMG 2817/2818 24010KT 4800 -RA BR BKN015 OVC030 TN12/2821Z TX16/2906Z 
RKSO,TAF AMD RKSO 280900Z 2809/2911 VRB06KT 9999 FEW030 BKN040 QNH2988INS TEMPO 2810/2815 8000 -SHRA BKN030 BECMG 2814/2815 18009KT 6000 -SHRA SCT009 BKN015 OVC025 QNH2972INS BECMG 2821/2822 22010G15KT 4800 -SHRA FEW005 BKN010 OVC025 QNH2969INS BECMG 2905/2906 26010G15KT 8000 BR BKN015 QNH2964INS TEMPO 2907/2910 26015G20KT BKN020 TX19/2809Z TN14/2905Z
RKSS,TAF AMD RKSS 280900Z 2809/2912 24010G22KT 9999 FEW012 BKN040 OVC080 TN14/2821Z TX17/2906Z BECMG 2811/2813 16006KT 6000 BECMG 2815/2817 4000 -RA FEW009 BKN025 OVC070 BECMG 2821/2823 19008G20KT 2800 BECMG 2904/2906 25010G25KT 6000 NSW NSC BECMG 2910/2912 FEW012 BKN025 OVC070
RKSW,TAF RKSW 280500Z 2806/2912 24008KT 9999 SCT030 BKN200 BECMG 2808/2809 24008KT 9999 BKN030 BKN150 BECMG 2815/2816 24010G20KT 4800 -RA BR BKN015 OVC030 BECMG 2908/2909 24006KT 9999 NSW BKN025 TN14/2821Z TX17/2906Z 
RKTE,TAF RKTE 280500Z 2806/2912 25006KT 9999 SCT230 BECMG 2806/2807 25006KT 9999 BKN040 BECMG 2815/2816 25008KT 4800 -RA BR BKN015 OVC030 BECMG 2905/2906 24006KT 9999 NSW BKN030 TN14/2821Z TX18/2906Z 
RKTI,TAF RKTI 280500Z 2806/2912 24006KT 9999 SCT200 BECMG 2811/2812 24006KT 9999 BKN040 BECMG 2817/2818 24006KT 4800 -RA BR SCT015 OVC030 BECMG 2909/2910 24006KT 9999 -RA BKN015 TX25/2806Z TN13/2822Z 
RKTN,TAF RKTN 280500Z 2806/2912 27009KT 9999 SCT030 SCT200 TX26/2807Z TN15/2821Z BECMG 2816/2817 24006KT 4800 -RA BR SCT015 BKN030 BECMG 2909/2910 9999 NSW BKN030
RKTP,TAF RKTP 280500Z 2806/2912 21012KT 9999 BKN030 BKN250 BECMG 2817/2818 21006KT 4800 -RA BR BKN010 OVC030 BECMG 2905/2906 21006KT 9999 NSW BKN015 TN12/2821Z TX16/2906Z 
RKTU,TAF RKTU 280500Z 2806/2912 24010KT 9999 SCT040 SCT250 TX23/2807Z TN14/2821Z BECMG 2808/2809 27006KT BKN040 BKN250 BECMG 2816/2817 24006KT 8000 -RA BKN030 BECMG 2821/2822 21008KT BKN015 OVC030 BECMG 2902/2903 24010G20KT BECMG 2907/2908 27008KT 9999 NSW BKN030
RKTY,TAF RKTY 280500Z 2806/2912 28006KT 9999 SCT030 SCT200 BECMG 2809/2810 28006KT 9999 BKN030 BECMG 2817/2818 15006KT 4800 -RA BR BKN030 BECMG 2821/2822 15006KT 3200 -RA BR BKN015 BKN030 BECMG 2908/2909 28006KT 4800 BR BKN025 TN13/2821Z TX19/2906Z 
ROAH,TAF ROAH 280509Z 2806/2912 14010KT 9999 FEW015 SCT025 TEMPO 2818/2900 FEW006 BKN008
RODN,TAF RODN 280800Z 2808/2914 12009KT 9999 BKN022 QNH2993INS BECMG 2814/2815 16009KT 9999 SCT008 BKN015 QNH2990INS TEMPO 2820/2901 SCT005 BKN008 BECMG 2905/2906 20009KT 8000 -SHRA SCT008 BKN015 QNH2982INS TEMPO 2908/2912 1600 +TSRA SCT006 BKN010CB TX25/2905Z TN20/2818Z
ROIG,TAF ROIG 280509Z 2806/2912 11010KT 9999 FEW015 SCT025 BECMG 2811/2813 15008KT TEMPO 2818/2900 FEW006 BKN008
ROTM,TAF ROTM 2722/2821 11008KT 9999 FEW020 SCT120 510305 QNH2996INS TEMPO 2800/2806 12008G15KT SCT020 BKN120 BECMG 2815/2817 15006KT 9999 FEW020 510305 QNH2990INS T26/2804Z T22/2821Z LAST NO AMD AFT 2804/ NEXT 2821
RPLB,TAF RPLB 280500Z 2806/2906 07008KT 9999 FEW020 TX35/2806Z TN25/2821Z TEMPO 2806/2812 09014KT SCT020
RPLC,TAF RPLC 280500Z 2806/2912 09010KT 9999 SCT020 BKN300 TX35/2806Z TN26/2821Z TEMPO 2806/2812 18008KT FEW020 BKN300
RPLI,TAF COR RPLI 280500Z 2806/2906 27010KT 9999 FEW017 SCT240 BECMG 2811/2815 14005KT FEW018 TEMPO 2902/2906 29014KT
RPLL,TAF RPLL 280500Z 2806/2912 12006KT 9999 FEW025 TX35/2806Z TN27/2821Z TEMPO 2806/2812 11012KT FEW023CB SCT100 BECMG 2814/2816 08007KT
RPMD,TAF RPMD 280500Z 2806/2906 36006KT 9999 FEW016 TEMPO 2806/2812 02009KT -SHRA FEW015CB SCT016 BKN260 BECMG 2815/2817 34005KT
RPMR,TAF RPMR 280500Z 2806/2906 03008KT 9999 FEW018 TEMPO 2806/2812 14013KT FEW017CB SCT080 BECMG 2816/2818 32006KT
RPMZ,TAF COR RPMZ 280500Z 2806/2906 26007KT 9999 FEW017 SCT090 BKN300 TEMPO 2806/2812 VRB03KT -TSRA FEW016CB SCT017 BKN090 BECMG 2818/2820 07005KT
RPVD,TAF RPVD 280500Z 2806/2906 07006KT 9999 FEW015 TEMPO 2806/2812 02010KT FEW14CB SCT070 BECMG 2818/2820 29005KT
RPVM,TAF RPVM 280500Z 2806/2912 05007KT 9999 FEW020 SCT300 TEMPO 2806/2812 04009KT FEW018CB SCT100 TEMPO 2812/2818 8000 -SHRA FEW018CB BKN100
RPVP,TAF RPVP 280500Z 2806/2906 09007KT 9999 FEW019 TEMPO 2806/2812 06016KT FEW017CB SCT080
SAAR,TAF SAAR 280500Z 2806/2906 36010KT CAVOK TX28/2818Z TN11/2810Z TEMPO 2806/2811 VRB03KT 0800 FG NSC TEMPO 2816/2823 36015G25KT
SABE,TAF SABE 280500Z 2806/2906 36005KT CAVOK TX24/2818Z TN17/2810Z BECMG 2822/2824 36015KT
SACO,TAF SACO 280500Z 2806/2906 36010KT CAVOK TX30/2818Z TN13/2810Z BECMG 2812/2815 02020G30KT BECMG 2822/2901 36010KT
SADF,TAF SADF 280500Z 2806/2906 36010KT CAVOK TX26/2818Z TN13/2810Z TEMPO 2806/2811 VRB03KT 3000 MIFG BR NSC
SAEZ,TAF SAEZ 280500Z 2806/2906 36005KT CAVOK TX27/2818Z TN15/2809Z TEMPO 2806/2810 5000 BR NSC BECMG 2813/2815 36015KT TEMPO 2816/2822 9999 SCT040
SAME,TAF SAME 280500Z 2806/2906 14005KT CAVOK TX30/2820Z TN11/2811Z BECMG 2813/2816 05010KT BECMG 2823/2902 18005KT
SANR,TAF SANR 272300Z 2800/2824 05005KT CAVOK TX28/2818Z TN16/2810Z BECMG 2805/2808 2000 BR BKN010 TEMPO 2809/2912 0500 FG BKN005 BECMG 2813/2816 05015KT 9999 NSW NSC
SANT,TAF SANT 280500Z 2806/2906 36005KT CAVOK TX28/2818Z TN15/2810Z TEMPO 2809/2812 5000 BR NSC BECMG 2813/2816 CAVOK
SARE,TAF SARE 280500Z 2806/2906 VRB02KT 0500 FG NSC TX28/2818Z TN12/2810Z BECMG 2812/2813 9999 SCT020
SARF,TAF SARF 280500Z 2806/2906 VRB02KT CAVOK TX28/2818Z TN14/2810Z PROB40 2808/2812 0500 FG NSC
SARI,TAF SARI 280500Z 2806/2906 VRB02KT CAVOK TX26/2818Z TN15/2810Z PROB40 2808/2812 0500 FG NSC
SARP,TAF SARP 280500Z 2806/2906 VRB02KT CAVOK TX27/2818Z TN16/2810Z PROB40 2808/2812 3000 BR NSC
SASA,TAF SASA 280500Z 2806/2906 VRB03KT 7000 BKN020 TX23/2818Z TN12/2810Z BECMG 2807/2809 3000 BR BKN010 PROB40 TEMPO 2810/2812 0500 FG BKN005 BECMG 2813/2816 05010KT CAVOK BECMG 2823/2902 VRB02KT
SASJ,TAF SASJ 280500Z 2806/2906 25005KT 7000 BKN040 TX26/2818Z TN15/2810Z BECMG 2807/2809 3000 BR BKN015 PROB40 TEMPO 2810/2812 0800 FG BKN010 BECMG 2813/2816 07015KT CAVOK BECMG 2823/2902 23005KT
SAVC,TAF AMD SAVC 280515Z 2806/2906 34015KT 9999 BKN035 TX21/2818Z TN11/2810Z TEMPO 2806/2811 VRB03KT TEMPO 2812/2818 8000 -RADZ BKN020 OVC050 BECMG 2818/2820 34030G40KT CAVOK
SAVT,TAF SAVT 280500Z 2806/2906 34012KT CAVOK TX20/2821Z TN15/2806Z BECMG 2812/2814 9999 -RA SCT030 OVC050 PROB30 TEMPO 2816/2820 5000 RA BKN030 OVC050 BECMG 2821/2823 32020G30KT CAVOK
SAWE,TAF AMD SAWE 280515Z 2806/2906 29010KT CAVOK TX08/2818Z TNM03/2811Z TEMPO 2806/2811 VRB03KT BECMG 2812/2815 15010KT 4000 RADZ OVC015 BECMG 2900/2902 8000 -DZ
SAWG,TAF AMD SAWG 280555Z 2806/2906 VRB03KT 9999 FEW030 OVC050 TX11/2818Z TN02/2811Z BECMG 2807/2810 09010KT 9999 SCT030 OVC100 BECMG 2811/2813 7000 -RADZ BECMG 2818/2820 9999 NSW SCT035 BECMG 2900/2902 15010KT 5000 DZ BR OVC015
SAWH,TAF AMD SAWH 280515Z 2806/2906 34010KT 9999 SCT040 TX05/2818Z TNM00/2811Z BECMG 2810/2813 VRB03KT 9999 BKN020 OVC030 BECMG 2818/2820 2000 RASN BR OVC010
SAZM,TAF SAZM 280500Z 2806/2906 VRB03KT CAVOK TX27/2818Z TN09/2810Z TEMPO 2806/2811 0500 FG BECMG 2811/2813 36015G25KT 9999 NSW SCT030
SAZN,TAF SAZN 280500Z 2806/2906 VRB03KT CAVOK TX28/2818Z TN08/2810Z BECMG 2816/2818 29020KT 9999 SCT030 SCT100
SAZS,TAF SAZS 280500Z 2806/2906 32010KT 9999 SCT030 BKN040 TX15/2818Z TN05/2811Z BECMG 2807/2809 6000 RADZ OVC030 TEMPO 2807/2811 VRB03KT TEMPO 2811/2818 3000 +RA BKN005 OVC020
SBAF,TAF SBAF 280300Z 2806/2818 22005KT 9999 SCT020 FEW035TCU TN20/2809Z TX25/2817Z PROB30 TEMPO 2806/2812 4000 RA BKN010 FEW040TCU PROB30 2815/2818 4000 SHRA BKN020 FEW037TCU RMK PEW
SBAN,TAF SBAN 280300Z 2806/2818 10004KT 9999 SCT030 TN18/2808Z TX27/2817Z BECMG 2815/2817 32005KT SCT040 FEW045TCU RMK PEW
SBAT,TAF SBAT 272046Z 2806/2818 12005KT 8000 SCT012 TN23/2810Z TX33/2817Z RMK PHI
SBBI,TAF SBBI 280300Z 2806/2818 05005KT 8000 BKN006 TN13/2808Z TX21/2818Z PROB30 2806/2810 0300 FG OVC001 BECMG 2813/2815 9999 SCT015 BECMG 2816/2818 BKN030 RMK PEW
SBBU,TAF SBBU 272200Z 2806/2818 13005KT 8000 BKN010 TN17/2809Z TX25/2817Z PROB30 2807/2812 3000 BR BKN008 BECMG 2812/2814 VRB02KT 9999 SCT025 BECMG 2814/2816 30003KT RMK PHG
SBBW,TAF SBBW 272200Z 2806/2818 27003KT 9999 SCT030 TN21/2808Z TX31/2817Z PROB30 TEMPO 2809/2812 RA SCT017 RMK PHG
SBCO,TAF SBCO 280300Z 2806/2818 31003KT 8000 NSC TN14/2809Z TX24/2817Z PROB30 2808/2810 2000 BR SCT004 BECMG 2814/2816 15005KT SCT030 RMK PFD
SBCZ,TAF SBCZ 272046Z 2806/2906 21002KT 9999 BKN005 TN23/2811Z TX32/2818Z TEMPO 2806/2812 0500 FG VV001 BECMG 2812/2814 15005KT BKN015 PROB30 TEMPO 2818/2823 30005KT 4000 TSRA BKN015 FEW025CB BECMG 2823/2824 00000KT BECMG 2904/2906 21002KT BKN005 RMK PHI
SBDN,TAF SBDN 272200Z 2806/2818 00000KT CAVOK TN16/2809Z TX26/2817Z PROB30 2808/2811 10002KT 5000 BR BKN012 BECMG 2812/2814 02004KT BECMG 2815/2817 30005KT FEW030 RMK PHG
SBGW,TAF SBGW 280300Z 2806/2818 12005KT 8000 SCT010 TN16/2807Z TX23/2817Z PROB40 2806/2808 4000 BR BKN012 BECMG 2810/2812 21005KT SCT025 PROB30 2814/2818 8000 RA BKN030 FEW035TCU RMK PEW
SBIH,TAF SBIH 272046Z 2806/2818 00000KT 9999 SCT008 TN25/2810Z TX33/2818Z BECMG 2813/2815 06007KT BECMG 2816/2818 TS SCT020 FEW025CB RMK PHI
SBIL,TAF SBIL 272200Z 2806/2818 28005KT 9999 FEW022 TN23/2808Z TX28/2817Z BECMG 2811/2813 04003KT BECMG 2815/2817 10005KT RMK PHG
SBIZ,TAF SBIZ 272046Z 2806/2818 36003KT 9999 SCT012 TN24/2809Z TX33/2818Z BECMG 2812/2814 06005KT RMK PHI
SBJV,TAF SBJV 280400Z 2806/2818 03005KT 4000 BR BKN012 TN18/2807Z TX24/2817Z BECMG 2810/2812 08004KT 8000 NSW SCT020 RMK PEA
SBKG,TAF SBKG 280100Z 2806/2818 16007KT 6000 SCT010 BKN020 TN22/2809Z TX31/2816Z BECMG 2809/2811 13010KT 8000 SCT017 BKN025 BECMG 2816/2818 5000 TSRA BKN016 FEW030CB RMK PGB
SBME,TAF SBME 280100Z 2806/2818 25010KT 9999 SCT025 TN22/2809Z TX27/2816Z BECMG 2808/2810 23010KT 7000 RA BKN017 FEW025TCU BECMG 2816/2818 8000 NSW RMK PGB
SBNT,TAF SBNT 280100Z 2806/2818 19007KT 8000 BKN017 TN24/2808Z TX30/2815Z BECMG 2808/2810 15010KT SCT017 FEW027TCU BECMG 2812/2814 15015KT BKN023 FEW035TCU RMK PGB
SBSC,TAF SBSC 280300Z 2806/2818 21008KT 9999 SCT020 FEW035TCU TN21/2809Z TX24/2817Z PROB30 TEMPO 2806/2812 4000 RA BKN010 FEW040TCU PROB30 2815/2818 4000 SHRA BKN020 FEW037TCU RMK PEW
SBSM,TAF SBSM 280300Z 2806/2818 03003KT 8000 NSC TN13/2809Z TX25/2817Z BECMG 2806/2808 0800 FG VV002 BECMG 2810/2812 4000 BR SCT004 BECMG 2812/2814 CAVOK BECMG 2816/2818 9999 SCT035 RMK PFD
SBUG,TAF SBUG 280300Z 2806/2818 05007KT CAVOK TN15/2808Z TX26/2817Z RMK PFD
SBUL,TAF SBUL 272200Z 2806/2818 12005KT CAVOK TN18/2808Z TX27/2817Z PROB30 2809/2812 4000 BR BKN003 BECMG 2813/2815 03002KT FEW030 TEMPO 2815/2818 27005KT VCTS SCT035 FEW040CB RMK PHG
SBUR,TAF SBUR 272200Z 2806/2818 07005KT CAVOK TN18/2808Z TX26/2817Z PROB30 2809/2812 4000 RA BR BKN003 BECMG 2813/2815 03002KT FEW030 TEMPO 2816/2818 27005KT VCTS SCT035 FEW040CB RMK PHG
SBVH,TAF SBVH 272046Z 2806/2818 09005KT 9999 SCT015 TN22/2811Z TX31/2818Z TEMPO 2816/2818 SHRA RMK PHI
SBYS,TAF SBYS 280300Z 2806/2818 16005KT 3000 BR BKN006 TN17/2807Z TX24/2811Z BECMG 2810/2812 9999 NSW SCT015 BECMG 2815/2817 SCT025 FEW040TCU PROB30 2817/2818 8000 TS SCT030 FEW040CB RMK PEW
SCBA,TAF SCBA 280418Z 2806/2906 25005KT 7000 RA SCT015 OVC030 TN04/2808Z TX13/2818Z TEMPO 2815/2819 31011KT NSW BKN040 BECMG 2902/2904 30022KT SCT035
SCCI,TAF SCCI 280421Z 2806/2906 36005KT 9999 FEW015 BKN045 TX07/2818Z TN01/2806Z BECMG 2806/2808 07005KT RA SCT015 BKN030 BECMG 2809/2811 6000 RA DZ SCT012 BKN025 TEMPO 2814/2823 12015KT 3000 RA BR SCT008 BKN015 BECMG 2819/2821 16017KT 4000 RA FEW008 BKN012
SCEL,TAF COR SCEL 280506Z 2806/2906 15004KT 5000 HZ SCT180 BKN220 TX17/ 2818Z TN09/2810Z TEMPO 2808/2813 VRB02KT 2000 BR SCT008 BECMG 2815/2817 19010KT 7000 BECMG 2821/2823 VRB02KT BKN130 BKN170 BECMG 2904/2906 30004KT 4000 -RA BKN030 BKN130 BKN170
SCIE,TAF AMD SCIE 280628Z 2807/2906 01012KT 9999 BKN004 OVC010 TX13/2818Z TN11/2810Z TEMPO 2807/2809 4000 -DZ BECMG 2809/2811 04015G25KT 7000 -RA SCT012 OVC025 TEMPO 2814/2820 01025G40KT 2000 RA BKN005 OVC010 BECMG 2821/2823 4000 RA OVC004
SCIP,TAF SCIP 280417Z 2806/2906 12012KT 9999 SCT040 TN17/2811Z TX24/2820Z
SCQP,TAF SCQP 280416Z 2806/2906 01012KT 9999 BKN020 TN13/2812Z TX16/2819Z BECMG 2809/2811 36022KT 5000 RA OVC020 BECMG 2812/2814 36022G32KT PROB40 TEMPO 2822/2901 32012G25KT 3000 TSRA BKN025TCU BECMG 2902/2904 6000 SHRA OVC020
SCSE,TAF COR SCSE 280538Z 2806/2906 VRB02KT 9999 BKN005 OVC012 TX15/2818Z TN12/2810Z TEMPO 2807/2813 4000 BR BECMG 2816/2818 29012KT CAVOK BECMG 2818/2820 SCT015 BKN025 BECMG 2902/2904 30004KT
SCTE,TAF SCTE 280417Z 2806/2906 01020G30KT 6000 -RA BKN015 OVC060 TN12/2811Z TX15/2817Z BECMG 2808/2810 36030G42KT 3000 RA SCT005 OVC020 BECMG 2815/2817 7000 -SHRA BKN020 BECMG 2900/2902 35013KT
SCVM,TAF SCVM 280417Z 2806/2906 32005KT 6000 BKN010 OVC018 TX14/2818Z TN11/2810Z TEMPO 2806/2812 3000 BR BKN003 OVC005 BECMG 2813/2815 36017KT 9999 TEMPO 2816/2821 BKN020 OVC035 BECMG 2902/2904 4000 -DZ BKN010 OVC160
SGAS,TAF SGAS 280408Z 2806/2906 00000KT 9000 NSC TX28/2819Z TN16/2810Z BECMG 2808/2811 VRB03KT 6000 NSC BECMG 2814/2817 05005KT CAVOK
SGCO,TAF SGCO 280408Z 2806/2906 18004KT CAVOK TX28/2819Z TN16/2810Z
SGEN,TAF SGEN 280408Z 2806/2906 00000KT CAVOK TX27/2819Z TN14/2810Z BECMG 2808/2811 5000 BR NSC BECMG 2814/2817 03005KT CAVOK
SGES,TAF SGES 280408Z 2806/2906 18004KT CAVOK TX26/2819Z TN14/2810Z BECMG 2808/2811 5000 BR NSC BECMG 2814/2817 06005KT CAVOK
SLAL,TAF SLAL 272200Z 2800/2824 02010KT 9999 NSC TX23/2819Z TN02/2810Z BECMG 2802/2804 00000KT BECMG 2815/2817 02010KT
SLCB,TAF SLCB 272200Z 2800/2824 13010KT 9999 NSC TX30/2819Z TN06/2810Z BECMG 2802/2804 00000KT BECMG 2817/2819 29010KT
SLCO,TAF SLCO 272200Z 2800/2824 00000KT 9999 BKN010 TX34/2719Z TN22/2810Z TEMPO 2809/2812 3000 BR BKN004 BECMG 2813/2815 35005KT SCT020
SLET,TAF SLET 272200Z 2800/2824 VRB02KT 9999 FEW020 TX31/2819Z TN20/2810Z BECMG 2803 /2805 34004KT FEW023 BKN070 BECMG 2813/2815 34012KT SCT023
SLLP,TAF SLLP 272200Z 2800/2824 08008KT 9999 FEW013 TX16/2819Z TNM02/2810Z TEMPO 2807/2810 3000E BCFG FEW002 SCT008 BECMG 2814/2816 14010KT
SLTJ,TAF SLTJ 272200Z 2800/2824 00000KT 9999 NSC TX29/2819Z TN06/2810Z BECMG 2819/2821 SCT030
SLTR,TAF SLTR 272200Z 2800/2824 00000KT 9999 SCT015 TX34/2819Z TN23/2810Z BECMG 2813/2815 35006KT BECMG 2822/2824 00000KT
SLVR,TAF SLVR 272200Z 2800/2824 VRB02KT 9999 FEW020 TX31/2819Z TN20/2810Z BECMG 2803 /2805 34004KT FEW023 BKN070 BECMG 2813/2815 34012KT SCT023
SOCA,TAF SOCA 280500Z 2806/2906 VRB02KT 2000 BR VV/// PROB30 TEMPO 2806/2811 0800 FG BECMG 2813/2815 07010KT 9999 NSW SCT020 BECMG 2822/2824 VRB02KT PROB30 TEMPO 2900/2906 4000 SHRA SCT020TCU
SPCL,TAF SPCL 272300Z 2800/2824 06005KT 9999 SCT020 BKN100 TX32/2819Z TN22/2811Z TEMPO 2803/2807 4000 DZRA BKN010 BKN080 TEMPO 2808/2812 00000KT 2000 BCFG BKN005 BKN080 TEMPO 2819/2823 06015KT 3000 SHRA BKN010 FEW025TCU BKN080
SPEO,TAF COR SPEO 272004Z 2718/2818 19016KT 9999 FEW040 TX30/2719Z TN22/2811Z TEMPO 2722/2802 13024KT 5000 BR BECMG 2802/2804 25006KT
SPGM,TAF SPGM 271700Z 2718/2818 31007KT 9999 FEW020 BKN100 TX31/2719Z TN20/2811Z TEMPO 2810/2812 5000 BR
SPHI,TAF SPHI 2806/2906 20006KT CAVOK TX32/2819Z TN24/2811Z BECMG 2815/2817 19012KT BECMG 2902/2904 13007KT
SPHO,TAF SPHO 271700Z 2718/2818 VRB05KT 9999 FEW040 TX23/2719Z TN08/2811Z TEMPO 2718/2721 15015KT FEW040TCU
SPJC,TAF SPJC 280500Z 2806/2906 17010KT 9999 SCT012 BKN020 TX27/2819Z TN23/2811Z TEMPO 2810/2812 BKN010 FM281800 18015KT CAVOK
SPJI,TAF SPJI 271700Z 2718/2818 10004KT 9999 SCT020 BKN080 TX32/2720Z TN22/2811Z TEMPO 2719/2723 4000 RA BKN015 BKN080 TEMPO 2810/2813 3000 BCFG BKN010 BKN100
SPJJ,TAF SPJJ 271700Z 2718/2818 36005KT 9999 SCT040 TX19/2720Z TN03/2811Z TEMPO 2718/2723 12015KT SCT040TCU SCT080
SPJL,TAF SPJL 271700Z 2718/2818 17004KT 9999 FEW025 BKN200 TX20/2719Z TN01/2810Z FM272000 12007KT CAVOK FM281200 29003KT CAVOK
SPJR,TAF SPJR 271700Z 2718/2818 16005KT 9999 FEW025 BKN050 TX22/2719Z TN09/2811Z TEMPO 2818/2821 RA TEMPO 2810/2812 5000 BR
SPLO,TAF SPLO 271700Z 2718/2818 16012KT CAVOK TX26/2719Z TN18/2810Z FM281300 19006KT CAVOK
SPME,TAF SPME 272305Z 2800/2824 28004KT 9999 BKN010 TX31/2819Z TN24/2811Z BECMG 2807/2809 SCT030 TEMPO 2811/2814 DZ BKN005 BECMG 2814/2816 FEW020
SPMS,TAF SPMS 271700Z 2718/2818 VRB02KT 9999 SCT010 BKN070 TX24/2720Z TN22/2811Z TEMPO 2718/2722 3000 RADZ BKN009 OVC070 TEMPO 2810/2813 2000 BR BKN005 BKN100
SPNC,TAF SPNC 271700Z 2718/2818 08012KT 9999 FEW040 TX30/2719Z TN15/2811Z BECMG 2800/2802 23006KT TEMPO 2812/2814 5000 BR
SPPY,TAF SPPY 271700Z 2718/2818 10010KT 9999 SCT010 SCT040 TX19/2719Z TN09/2811Z TEMPO 2718/2722 4000 SHRA BKN010 SCT012TCU BKN040 TEMPO 2812/2816 2000 DZ BCFG BKN010 OVC040
SPQT,TAF SPQT 280500Z 2806/2906 VRB02KT CAVOK TX33/2820Z TN22/2811Z TEMPO 2810/2812 1000 BR BKN003 BECMG 2813/2815 08008KT 9999 BKN015 SCT100 TEMPO 2820/2823 12012KT 4000 SHRA BKN010 FEW025CB BKN080
SPQU,TAF SPQU 272300Z 2800/2824 03004KT CAVOK TX21/2816Z TN07/2810Z FM281430 24005KT CAVOK FM281800 27011KT CAVOK
SPRU,TAF SPRU 2806/2906 16010KT 7000 NSC TX28/2819Z TN24/2811Z BECMG 2803/2805 23004KT TEMPO 2807/2811 5000 BR BKN010
SPSO,TAF SPSO 280500Z 2806/2906 VRB03KT CAVOK TX27/2819Z TN20/2811Z TEMPO 2810/2812 4000 BR BECMG 2813/2815 29010KT BECMG 2819/2821 22012KT BECMG 2902/2904 VRB03KT
SPST,SPST 272305Z 2800/2824 VRB02KT 9999 FEW020 SCT080 TX30/2820Z TN21/2811Z TEMPO 2811/2814 4000 BR BKN010 BECMG 2817/2819 17012KT BECMG 2821/2823 VRB02KT
SPTN,TAF SPTN 272300Z 2800/2824 23004KT CAVOK TX26/2819Z TN15/2810Z FM280330 VRB01KT 9999 OVC020 FM281530 22007KT CAVOK
SPTU,TAF SPTU 271700Z 2718/2818 16005KT 9999 SCT020 TX33/2720Z TN22/2811Z
SPUR,TAF SPUR 280510Z 2806/2906 10009KT CAVOK TX33/2819Z TN23/2811Z BECMG 2811/2813 16004KT TEMPO 2821/2824 18009KT 8000 RA SCT020TCU BKN050
SPYL,TAF SPYL 272305Z 2800/2824 18010KT 9999 SCT030 TX32/2819Z TN23/2811Z TEMPO 2802/2805 BKN020 BECMG 2806/2809 24006KT TEMPO 2813/2816 BKN010
SPZO,TAF SPZO 272300Z 2800/2824 01010KT 9999 NSC TX21/2819Z TN02/2811Z BECMG 2800/2801 VRB02KT TEMPO 2818/2822 36010KT
SUAA,TAF SUAA 280535Z 2806/2906 02005KT 3000 BR BKN008 TX26/2818Z TN12/2810Z TEMPO 2806/2811 0800 FG BKN003 BECMG 2812/2815 34008KT 9999 FEW020
SUCA,TAF SUCA 280535Z 2806/2906 35010KT CAVOK TX25/2818Z TN14/2810Z TEMPO 2806/2811 3000 BR FEW010 TEMPO 2807/2810 0800 FG SCT005
SUDU,TAF SUDU 280535Z 2806/2906 33005KT CAVOK TX27/2818Z TN13/2810Z TEMPO 2806/2811 3000 BR SCT008 TEMPO 2807/2811 0500 FG BKN005
SULS,TAF SULS 280535Z 2806/2906 02005KT 3000 BR BKN006 TX25/2818Z TN12/2810Z TEMPO 2806/2812 0800 FG BKN003 BECMG 2813/2816 34008KT 9999 SCT015
SUMU,TAF SUMU 280535Z 2806/2906 01005KT 3000 BR BKN008 TX26/2818Z TN12/2810Z TEMPO 2806/2811 0800 FG BKN003 BECMG 2812/2815 34008KT 9999 FEW020
SURV,TAF SURV 280535Z 2806/2906 02005KT 9999 FEW020 TX27/2818Z TN11/2810Z TEMPO 2806/2811 3000 BR BKN008 TEMPO 2807/2811 0500 FG BKN005
SUSO,TAF SUSO 280535Z 2806/2906 03005KT CAVOK TX27/2818Z TN13/2810Z TEMPO 2806/2811 3000 BR BKN010 TEMPO 2807/2811 0500 FG BKN005
SYCJ,TAF SYCJ 280500Z 2806/2906 06006KT 9999 FEW016 SCT090 PROB30 TEMPO 2808/2811 VRB02KT 4000 BR BECMG 2811/2813 07012KT 9999 BKN018 SCT037 BECMG 2817/2819 SCT022 BECMG 2822/2900 04004KT 9999 FEW016
SYEC,TAF SYEC 272325Z 2800/2824 05006KT 9999 FEW015 SCT090 TEMPO 2808/2811 5000 SHRA BKN015 SCT036 BECMG 2811/2813 07012KT 9999 BKN018 SCT040 BECMG 2816/2818 SCT023
TAPA,TAF TAPA 280500Z 2806/2906 16003KT 9999 BKN019 PROB40 TEMPO 2806/2816 SHRA
TBPB,TAF TBPB 280500Z 2806/2906 10010KT 9999 SCT018
TDPD,TAF TDPD 280500Z 2806/2906 VRB02KT 9999 SCT018 PROB30 TEMPO 2809/2812 SHRA BKN015
TFFF,TAF TFFF 280500Z 2806/2906 VRB02KT 9999 SCT025 BECMG 2812/2814 14010KT PROB30 TEMPO 2817/2822 4000 SHRA SCT020TCU BECMG 2823/2824 VRB02KT
TFFR,TAF TFFR 280500Z 2806/2906 12005KT 9999 SCT013 BKN030 BKN080 PROB30 TEMPO 2806/2812 3000 SHRA SCT011 BKN016TCU BECMG 2812/2814 15010KT PROB40 TEMPO 2815/2903 4000 SHRA FEW013 BKN018TCU PROB40 TEMPO 2819/2824 1200 SHRA SCT007 SCT010CB BKN015TCU
TIST,TIST 280541Z 2806/2906 09003KT P6SM SKC FM281400 13010KT P6SM FEW025 SCT040 FM281800 14009KT P6SM VCSH SCT030 BKN060 FM282200 08006KT P6SM FEW035 FM290200 07004KT P6SM FEW025
TISX,TISX 280541Z 2806/2906 01004KT P6SM SKC FM281400 12009KT P6SM FEW025 SCT040 FM281800 13008KT P6SM VCSH SCT030 BKN040 FM282300 05004KT P6SM FEW025
TJBQ,TJBQ 280541Z 2806/2906 05008KT P6SM FEW023 FEW050 SCT100 FM281400 02009KT P6SM FEW025 SCT040 SCT100 FM282300 08007KT P6SM FEW025 FEW070 AMD NOT SKED TIL 281100
TJPS,TJPS 280541Z 2806/2906 36004KT P6SM FEW035 FEW050 BKN100 FM281400 13008KT P6SM FEW030 SCT060 SCT100 FM281700 17007G14KT P6SM VCSH SCT030 SCT060 FM282100 10005KT P6SM VCSH SCT030 BKN050 FM290100 05002KT P6SM FEW035 FEW070
TJSJ,TJSJ 280541Z 2806/2906 13008KT P6SM -RA FEW023 BKN045 BKN100 FM281400 04012KT P6SM FEW035 SCT050 FM281700 04012KT P6SM VCSH SCT030 SCT060 FM282200 06006KT P6SM FEW022 SCT045 BKN090
TKPK,TAF TKPK 272300Z 2800/2824 20006KT 9999 SCT018 PROB40 TEMPO 2800/2818 SHRA BKN016
TKPN,TAF TKPN 271741Z 2718/2818 16007KT 9999 SCT019 PROB30 TEMPO 2718/2724 SHRA PROB40 TEMPO 2800/2812 SHRA
TLPC,TAF TLPC 280510Z 2806/2906 13007KT 9999 SCT024 TEMPO 2806/2818 SHRA
TLPL,TAF TLPL 280510Z 2806/2906 12010KT 9999 SCT024 TEMPO 2806/2818 SHRA
TNCA,TAF TNCA 280502Z 2806/2906 10013KT 9999 SCT015
TNCB,TAF TNCB 280352Z 2806/2912 09014KT 9999 SCT020
TNCC,TAF TNCC 280500Z 2806/2906 10008KT 9999 SCT013
TQPF,TAF TQPF 271741Z 2718/2818 14010KT 9999 SCT019 PROB30 TEMPO 2718/2724 SHRA PROB40 TEMPO 2800/2812 SHRA
TRPG,TAF TRPG 271741Z 2718/2818 12008KT 9999 SCT019 PROB30 TEMPO 2718/2724 SHRA PROB40 TEMPO 2800/2812 SHRA
TUPJ,TAF TUPJ 272300Z 2800/2824 08003KT 9999 SCT018 PROB30 TEMPO 2814/2822 SHRA
TVSA,TAF TVSA 280500Z 2806/2906 09007KT 9999 SCT018 TEMPO 2806/2809 SHRA BKN015
TXKF,TAF TXKF 280536Z 2806/2906 02010KT 9999 FEW030 SCT300 BECMG 2821/2824 07008KT FEW035 BKN100 
UAAA,TAF UAAA 280503Z 2806/2906 02003MPS 9999 FEW100 TX27/2809Z TN09/2901Z TEMPO 2806/2812 07004G10MPS BECMG 2812/2813 21003MPS TEMPO 2812/2824 16003MPS BECMG 2902/2903 34003MPS SCT050CB BKN100
UAAH,TAF UAAH 280808Z 2809/2818 12007MPS CAVOK
UAAT,TAF UAAT 280801Z 2809/2818 01005G10MPS 9999 NSC TEMPO 2809/2812 04005G10MPS
UACC,TAF UACC 280503Z 2806/2906 22006MPS 9999 SCT030 BKN100 TX27/2810Z TN07/2901Z TEMPO 2806/2812 25009MPS BECMG 2816/2818 30004MPS TEMPO 2818/2903 VRB02MPS BECMG 2903/2905 02007MPS
UACK,TAF AMD UACK 281010Z 2810/2818 26010MPS CAVOK TEMPO 2810/2818 28011G16MPS SCT030CB
UACP,TAF UACP 280804Z 2809/2818 29009MPS 9999 BKN020CB TEMPO 2809/2811 33010G15MPS BECMG 2811/2812 36010G15MPS
UADD,TAF UADD 280800Z 2809/2818 34003G08MPS 9999 SCT050 BKN100 TEMPO 2809/2815 22005G10MPS
UAII,TAF UAII 280500Z 2806/2906 28003G08MPS 9999 SCT040 TX28/2810Z TN14/2901Z TEMPO 2806/2816 22007G12MPS -TSRA BKN033CB TEMPO 2816/2904 12003G08MPS 3100 FU
UAIT,TAF UAIT 280804Z 2809/2818 24003G08MPS CAVOK TEMPO 2809/2815 31003G08MPS
UAKD,TAF UAKD 280802Z 2809/2818 14005MPS 9999 SCT040 TEMPO 2809/2812 VRB02MPS 5000 HZ BECMG 2812/2814 VRB02MPS TEMPO 2812/2815 24005MPS
UAKK,TAF UAKK 280500Z 2806/2906 24005MPS 9999 SCT030 BKN100 TX27/2810Z TN01/2801Z TEMPO 2806/2812 VRB02MPS
UAOO,TAF UAOO 280801Z 2809/2818 06006MPS CAVOK
UARR,TAF UARR 280800Z 2809/2818 03004MPS CAVOK TEMPO 2809/2815 06004G09MPS BECMG 2815/2816 VRB02MPS
UASK,TAF UASK 280800Z 2809/2818 16006MPS 9999 NSC TEMPO 2809/2815 18009G14MPS SCT100
UASP,TAF UASP 280800Z 2809/2818 25010G18MPS 9999 BKN030 TEMPO 2809/2815 25006MPS TEMPO 2815/2818 25005MPS 3100 FU
UASS,TAF UASS 280800Z 2809/2818 19003G08MPS CAVOK TEMPO 2809/2815 24007MPS SCT050
UATE,TAF UATE 280500Z 2806/2906 12006MPS CAVOK TX26/2810Z TN15/2903Z TEMPO 2807/2814 18005MPS BECMG 2814/2816 VRB03MPS
UATG,TAF UATG 280500Z 2806/2906 07006MPS 9999 SCT050 TX28/2811Z TN16/2902Z BECMG 2815/2816 VRB02MPS BECMG 2822/2824 08007MPS
UATT,TAF UATT 280500Z 2806/2906 VRB01MPS CAVOK TX27/2812Z TN11/2901Z TEMPO 2808/2812 35006MPS
UAUU,TAF UAUU 280800Z 2809/2818 VRB02MPS 9999 SCT040 TEMPO 2811/2818 02003G08MPS SCT030CB
UBBB,TAF UBBB 280449Z 2806/2906 18018KT 6000 BKN006 TX23/2810Z TN12/2902Z TEMPO 2806/2807 3000 BR BKN004 BECMG 2807/2809 9999 SCT014 TEMPO 2809/2814 18020G30KT BECMG 2815/2817 19008KT TEMPO 2820/2904 17006KT 3000 BR BCFG BKN003
UBBF,TAF UBBF 280800Z 2809/2818 06010KT 9999 SCT100 TEMPO 2809/2816 08014KT FEW040CB SCT040
UBBG,TAF UBBG 280500Z 2806/2906 VRB04KT 9999 FEW040 SCT100 TX26/2812Z TN15/2902Z TEMPO 2806/2809 29008KT BECMG 2810/2812 08008KT TEMPO 2812/2818 -TSRA SCT030CB BKN060
UBBL,TAF UBBL 280454Z 2806/2906 15010KT 9000 BKN010 TX21/2810Z TN12/2902Z TEMPO 2806/2808 VRB04KT BKN005 TEMPO 2808/2815 14016KT BECMG 2815/2817 VRB04KT 6000 TEMPO 2818/2904 2000 BR BCFG BKN002 BECMG 2904/2906 16006KT 9000 BKN020
UBBN,TAF UBBN 280503Z 2806/2906 VRB04KT 9999 SCT045 BKN100 TX25/2812Z TN08/2902Z TEMPO 2806/2809 05008KT TEMPO 2810/2818 25012KT SCT040CB BKN080 PROB40 TEMPO 2812/2818 -TSRA TEMPO 2819/2903 33010KT
UBBQ,TAF UBBQ 280459Z 2806/2906 VRB04KT 3000 BR SCT010 SCT100 TX26/2810Z TN10/2902Z TEMPO 2806/2807 0800 FG BKN003 BECMG 2807/2809 23008KT 9000 NSW SCT020 TEMPO 2809/2815 18010KT BECMG 2817/2819 VRB04KT TEMPO 2822/2905 3000 BR SCT007
UBBY,TAF UBBY 280832Z 2809/2818 VRB04KT 9999 FEW100
UBBZ,TAF UBBZ 280800Z 2809/2818 03014KT 9999 SCT100 TEMPO 2810/2816 06018G28KT FEW040CB
UBEE,TAF AMD UBEE 281016Z 2810/2818 VRB04KT 9999 FEW040CB SCT080 TEMPO 2810/2815 VRB14KT -TSRA SCT030CB BKN060
UCFL,TAF UCFL 280447Z 2806/2906 15003G08MPS 9999 SCT030CB TEMPO 2806/2814 VRB13MPS 2000 TSRA BKN025CB BECMG 2814/2816 34003G08MPS TEMPO 2814/2820 25003G08MPS
UCFM,TAF UCFM 280458Z 2806/2906 28003G08MPS 9999 SCT040CB BKN100 TEMPO 2806/2815 VRB12G17MPS 2000 -TSRA BLDU FEW003 BKN015CB BECMG 2815/2817 12003G08MPS TEMPO 2815/2822 22003G08MPS 3100 FU TEMPO 2822/2903 20003G08MPS 2000 FU
UCFO,TAF UCFO 280441Z 2806/2906 32003G08MPS 9999 FEW050CB SCT100 TEMPO 2806/2812 26003G08MPS 5000 DU SCT030CB PROB40 TEMPO 2806/2812 VRB08G13MPS -TSRA BECMG 2812/2814 18003G08MPS TEMPO 2812/2818 VRB08G13MPS 2000 TSRA BKN020CB
UDSG,TAF UDSG 280458Z 2806/2906 21006KT 9999 SCT050 TEMPO 2806/2809 VRB16KT SCT040CB TEMPO 2809/2821 VRB16G26KT -TSRA BKN030CB
UDYZ,TAF UDYZ 280500Z 2806/2906 20006KT 9999 SCT040 TEMPO 2809/2818 VRB16G26KT -TSRA BKN030CB
UEEE,TAF UEEE 280800Z 2809/2915 04003MPS 9999 SCT030 BKN100
UERP,TAF UERP 280800Z 2809/2909 14003G08MPS 8000 BKN023CB OVC100 TEMPO 2809/2821 3000 -SHSN BKN012CB OVC100 BECMG 2819/2821 09003G08MPS TEMPO 2821/2909 3000 -SHSN BKN010CB OVC100
UERR,TAF UERR 280800Z 2809/2909 21004MPS 9999 SCT023CB BECMG 2901/2903 12004G09MPS
UGAM,TAF UGAM 281000Z 2811/2817 28010KT 9999 BKN050 PROB40 TEMPO 2812/2817 VRB14KT 4000 TSRA BKN017CB OVC040
UGKO,TAF UGKO 280500Z 2806/2906 25006KT 9999 SCT033 BKN060 TX22/2810Z TN12/2902Z TEMPO 2812/2818 27016KT 4000 TSRA SCT015 BKN022CB TEMPO 2822/2904 3000 BR OVC010
UGMS,TAF UGMS 281000Z 2811/2817 17007KT 9999 SCT045 BKN065CB TEMPO 2811/2817 VRB15KT SHRA SCT025 BKN050CB
UGSB,TAF UGSB 280500Z 2806/2906 23010KT 9999 SCT015 BKN100 TX25/2811Z TN14/2902Z TEMPO 2806/2812 23020G30KT 3000 TSRA SCT008 BKN035CB TEMPO 2812/2824 23020KT 3000 TSRA SCT015CB BKN035 TEMPO 2820/2906 13010KT
UGTB,TAF UGTB 280500Z 2806/2906 VRB02KT 9999 SCT060 TX24/2811Z TN14/2903Z TEMPO 2807/2812 14010KT PROB40 TEMPO 2814/2820 VRB14KT TSRA BKN040CB TEMPO 2820/2905 31012KT
UHBB,TAF UHBB 280741Z 2809/2909 05003G08MPS 9999 SCT030CB TEMPO 2809/2812 09007MPS TEMPO 2819/2909 3100 -SHRASN SCT011 BKN020CB BECMG 2902/2904 12003G08MPS
UHHH,TAF UHHH 280748Z 2809/2915 06006MPS CAVOK TEMPO 2809/2901 05007G12MPS
UHMA,TAF UHMA 280749Z 2809/2909 36007G12MPS 9999 NSC TEMPO 2809/2909 03011G16MPS DRSN
UHMM,TAF UHMM 280750Z 2809/2915 02003G08MPS 9999 NSC
UHPP,TAF UHPP 280734Z 2809/2915 34003G12MPS 9999 BKN030CB TEMPO 2809/2812 31008MPS TEMPO 2900/2909 16005MPS
UHSS,TAF UHSS 280750Z 2809/2915 12003MPS 9999 SCT040CB
UHWW,TAF UHWW 280800Z 2809/2909 20003MPS 9999 SCT030 TEMPO 2809/2818 -SHRA FEW010 BKN017CB FM290200 24003G08MPS 6000 -SHRA FEW009 BKN017CB
UIAA,TAF UIAA 280800Z 2809/2909 34003G08MPS 9999 SCT030CB TEMPO 2809/2812 06005G10MPS TEMPO 2812/2909 27005G10MPS
UIBB,TAF UIBB 280800Z 2809/2909 16003G08MPS 6000 -SHSNRA BKN004 BKN012CB TEMPO 2809/2818 1900 SHSNRA VV001 BECMG 2902/2904 22005G10MPS
UIII,TAF UIII 280800Z 2809/2909 VRB01MPS 9999 SCT040CB
UIUU,TAF UIUU 280800Z 2809/2909 24005G10MPS 9999 SCT040CB TEMPO 2809/2903 17003G08MPS
ULAA,TAF ULAA 280800Z 2809/2909 10005G10MPS 9999 BKN020 TEMPO 2809/2909 08006G14MPS BKN016
ULLI,TAF ULLI 280754Z 2809/2909 28003G09MPS 6000 SCT016 BECMG 2820/2821 OVC010 TEMPO 2821/2906 24003MPS 0400 FG BKN004 TEMPO 2906/2909 BKN005
ULMM,TAF ULMM 280752Z 2809/2909 12005G10MPS CAVOK TEMPO 2809/2909 09006G12MPS
ULOO,TAF ULOO 280754Z 2809/2818 27004G09MPS 9999 BKN020
ULPB,TAF ULPB 280753Z 2809/2818 10006G12MPS 6000 BKN016 TEMPO 2809/2815 4000 -SHRA BKN016CB TEMPO 2815/2818 2000 SHRA BR BKN010 BKN016CB
ULWC,TAF ULWC 280800Z 2809/2818 09005G10MPS 6000 BKN017CB TEMPO 2811/2815 12005G14MPS 2100 -TSRA SCT005 BKN010CB TEMPO 2815/2818 12005G15MPS 1500 TSRA BKN005 BKN010CB
UMBB,TAF UMBB 280800Z 2809/2818 27003MPS 9999 SCT030 TEMPO 2809/2815 28003G08MPS
UMGG,TAF UMGG 280500Z 2806/2906 31005G10MPS 9999 BKN007 TEMPO 2808/2819 33007G12MPS
UMII,TAF UMII 280802Z 2809/2818 29003G08MPS 9999 BKN020 TEMPO 2809/2818 31004G09MPS 3000 -SHRA SCT010 BKN017CB
UMIO,TAF UMIO 280802Z 2809/2818 31006G11MPS 9999 SCT020 TEMPO 2809/2818 -SHRA BKN010 SCT012CB
UMKK,TAF UMKK 280755Z 2809/2909 27005G10MPS 9999 SCT020 BECMG 2813/2815 VRB01MPS BECMG 2820/2822 10003G08MPS BECMG 2903/2905 13003MPS
UMMG,TAF UMMG 280803Z 2809/2818 27005G10MPS 9999 BKN025 TEMPO 2809/2815 28006G11MPS -SHRA SCT016CB TEMPO 2815/2818 26003G08MPS
UMMS,TAF UMMS 280500Z 2806/2906 30005G10MPS 9999 BKN030 TEMPO 2809/2818 -SHRA SCT010 SCT020CB BECMG 2818/2820 VRB02MPS TEMPO 2820/2906 3000 BCFG BR FEW003
UMOO,TAF UMOO 280802Z 2809/2818 30006G11MPS 8000 BKN016 TEMPO 2809/2818 35007G12MPS 5000 -SHRA BR SCT006 BKN020CB
UNAA,TAF UNAA 280750Z 2809/2909 24008G18MPS 9999 BKN020CB BECMG 2812/2814 19005G12MPS BECMG 2900/2903 24010G17MPS TEMPO 2906/2909 28005G12MPS
UNBB,TAF UNBB 280800Z 2809/2909 23008G18MPS 9999 SCT040 TEMPO 2821/2901 27003G08MPS BECMG 2901/2902 34003G08MPS
UNEE,TAF UNEE 280800Z 2809/2909 22010G18MPS 8000 BKN040CB TEMPO 2809/2818 25015G20MPS BECMG 2818/2821 28005G10MPS TEMPO 2821/2903 32010G18MPS -SHRA BKN011CB TEMPO 2903/2909 32007G15MPS
UNKL,TAF UNKL 280800Z 2809/2909 24007G15MPS 6000 -SHRA BKN016CB TEMPO 2809/2814 20002G07MPS BECMG 2902/2904 29003G08MPS TEMPO 2904/2906 26008G15MPS BECMG 2906/2908 24005G12MPS
UNNT,TAF UNNT 280800Z 2809/2909 25010G18MPS 8000 BKN040CB TEMPO 2809/2813 26015G23MPS BECMG 2813/2815 24006G15MPS PROB40 TEMPO 2815/2824 -TSRA BECMG 2818/2821 33008G18MPS
UNOO,TAF UNOO 280750Z 2809/2909 28010G19MPS 9999 SCT033CB TEMPO 2811/2816 4000 -SHRA BKN030CB BECMG 2813/2815 36009G15MPS
UNTT,TAF UNTT 280800Z 2809/2818 25008G18MPS 9999 BKN040CB TEMPO 2809/2818 21006G17MPS
UNWW,TAF UNWW 280800Z 2809/2909 23009G18MPS 8000 BKN040CB BECMG 2817/2821 23003G08MPS
UOOO,TAF UOOO 280752Z 2809/2909 04006G13MPS 6000 -SHSN BLSN SCT016CB TEMPO 2809/2909 3200 -SHSN BLSN BECMG 2823/2902 03011G19MPS
URKA,TAF URKA 280750Z 2809/2909 16006G11MPS 9999 SCT030CB TEMPO 2809/2818 20008G13MPS 6000 -SHRA SCT010 BKN020CB PROB40 2809/2818 -TSRA BKN016CB FM281800 20003G08MPS 6000 SCT020CB
URKK,TAF URKK 280752Z 2809/2909 21003G08MPS 9999 SCT030CB TEMPO 2809/2909 25003G08MPS 6000 -TSRA FEW011 BKN016CB
URMG,TAF URMG 280800Z 2809/2818 33003G08MPS 9999 BKN016 TEMPO 2809/2812 01005G13MPS BKN011 TEMPO 2812/2818 02005G13MPS 6000 -SHRA BKN016 BKN030CB
URML,TAF URML 280800Z 2809/2818 12003G08MPS 5000 BR BKN005 TEMPO 2809/2814 3000 BR BKN003 BECMG 2814/2816 05003G08MPS 0500 FG
URMM,TAF URMM 280800Z 2809/2909 09003G08MPS 9999 BKN020 TX20/2812Z TN09/2903Z TEMPO 2809/2909 VRB08G18MPS 6000 -TSRAGR BKN016 BKN030CB
URMN,TAF COR URMN 280800Z 2809/2818 04003G08MPS 6000 BKN016CB TEMPO 2809/2812 SCT008 BKN016CB TEMPO 2812/2815 -TSRA
URMO,TAF URMO 280800Z 2809/2818 02003G08MPS 9999 BKN030 TEMPO 2812/2818 VRB05G13MPS 6000 -TSRA BKN016 BKN030CB
URMT,TAF URMT 280800Z 2809/2818 14003G10MPS 9999 BKN020CB TEMPO 2809/2812 6000 -SHRA SCT016 BKN020CB FM281200 08003G10MPS 9999 BKN016 BKN020CB TEMPO 2812/2818 VRB08G16MPS 6000 -TSRA BKN011 BKN020CB
URRP,TAF URRP 280755Z 2809/2909 11003G12MPS 9999 -SHRA SCT016 SCT030CB TEMPO 2809/2821 15008G14MPS 6000 -TSRAGR FEW005 BKN020CB TEMPO 2821/2906 0300 FG SCT001 SCT020CB
URSS,TAF URSS 280755Z 2809/2909 18004G09MPS 9999 SCT016 BKN040CB BKN100 TEMPO 2809/2811 VRB06G12MPS 2100 -TSRA BKN006 BKN030CB OVC100 FM281100 27005G10MPS 6000 -SHRA BKN006 BKN030CB OVC100 TEMPO 2811/2816 VRB07G12MPS 2100 -TSRA BR BKN004 BKN020CB OVC100 FM281600 VRB01MPS 4000 -SHRA BR BKN004 BKN020CB OVC100 TEMPO 2816/2909 VRB06G12MPS 1000 TSRA BR BKN002 BKN020CB OVC100
URWA,TAF URWA 280757Z 2809/2818 12008G14MPS CAVOK BECMG 2815/2816 09005G11MPS
URWI,TAF URWI 280755Z 2809/2818 12003G12MPS 9999 SCT016 SCT030CB TEMPO 2809/2818 08008G14MPS 6000 -SHRA FEW007 BKN020CB PROB40 TEMPO 2809/2818 -TSRA
URWW,TAF URWW 280757Z 2809/2818 11007G13MPS 9999 BKN016 BKN030CB TEMPO 2809/2818 14009G15MPS PROB40 TEMPO 2815/2818 -TSRAGR
USCC,TAF USCC 280800Z 2809/2909 30003G10MPS 9999 BKN030CB TEMPO 2809/2812 34008G15MPS -TSRA FM281200 04003G10MPS 9999 BKN020CB TEMPO 2812/2816 01008G15MPS -SHRA BKN016CB
USCM,TAF USCM 280800Z 2809/2818 36003G13MPS 9999 SCT040
USDA,TAF USDA 280751Z 2809/2818 03012G19MPS 3200 -SN BLSN FEW003 BKN011 TEMPO 2809/2818 1800 SN BLSN SCT007
USHH,TAF USHH 280734Z 2809/2909 30006G16MPS 6000 BKN020CB TEMPO 2809/2815 33008G18MPS 3100 -SHRASN SCT004 OVC016CB TEMPO 2815/2906 5000 -SHSN FEW005 BKN016CB BECMG 2815/2817 34003G13MPS
USNN,TAF AMD USNN 281005Z 2810/2909 29008G15MPS 6000 -SHSN FEW010 SCT016CB OVC020 TEMPO 2810/2818 30011G25MPS 0600 +SHSN SCT004 BKN016CB BECMG 2900/2902 9999 NSW SCT016 BKN030
USPP,TAF USPP 280755Z 2809/2909 02003G14MPS 8000 -SHRA BKN016CB BECMG 2815/2816 9999 NSW BKN016
USRR,TAF USRR 280745Z 2809/2909 31011G17MPS 6000 -SHSN SCT011 BKN020CB TEMPO 2809/2818 32011G25MPS 0500 +SHSN VV007 BECMG 2818/2820 9999 NSW
USSS,TAF USSS 280758Z 2809/2909 02003G14MPS 9999 -SHRA BKN016CB FM281800 07003G10MPS 6000 -RA SCT016 BECMG 2903/2906 11003G12MPS 9999 NSW
USTR,TAF USTR 280750Z 2809/2909 36007G14MPS 9999 FEW007 BKN020 TEMPO 2809/2812 02014MPS -SHRA SCT007 BKN016CB BECMG 2815/2817 05003G08MPS TEMPO 2815/2903 2100 BR SCT004 BKN016 BECMG 2904/2906 33005G10MPS SCT030
UTAA,TAF UTAA 280445Z 2806/2906 27016KT 6000 BKN040 SCT050CB PROB40 TEMPO 2807/2810 VRB26KT -TSRA TEMPO 2810/2816 VRB28KT 3000 BLDU -TSRA BECMG 2819/2821 24014KT BECMG 2821/2823 02014KT
UTAK,TAF UTAK 280430Z 2806/2906 16012KT CAVOK TEMPO 2806/2808 11010KT TEMPO 2808/2810 21012KT SCT020 BECMG 2810/2811 26014KT TEMPO 2811/2816 31014KT 4000 BR BKN007
UTAM,TAF UTAM 280435Z 2806/2906 04016KT 5000 SCT030CB SCT030 BKN100 TEMPO 2806/2812 14014KT 3000 HZ PROB40 TEMPO 2810/2816 VRB28KT 1500 BLDU -TSRA VV007 BECMG 2816/2817 03014KT 6000 SCT050 SCT100
UTAT,TAF UTAT 280447Z 2806/2906 VRB04KT CAVOK TEMPO 2806/2813 13010KT
UTAV,TAF UTAV 280431Z 2806/2906 11012KT CAVOK TEMPO 2806/2815 05016G26KT 3000 BLDU SCT050 BECMG 2815/2817 01010KT 5000 NSC TEMPO 2817/2902 VRB04KT 2000 HZ FU SKC
UTDD,TAF UTDD 280900Z 2810/2822 VRB02MPS 9999 SCT060CB BKN100 TEMPO 2810/2819 VRB09G14MPS TS
UTDK,TAF UTDK 280900Z 2810/2819 VRB02MPS 9999 SCT060CB BKN100 TEMPO 2810/2816 21008G13MPS TS
UTDL,TAF UTDL 280900Z 2810/2822 VRB02MPS 9999 FEW060CB TEMPO 2810/2819 24005MPS
UTDT,TAF UTDT 280900Z 2810/2819 VRB02MPS 9999 FEW060CB SCT100 TEMPO 2810/2815 VRB08G13MPS TS
UTFF,TAF UTFF 280900Z 2810/2819 34010KT 7000 NSC TEMPO 2810/2816 28014KT SCT060CB
UTFN,TAF UTFN 280500Z 2806/2906 14010KT 7000 NSC TEMPO 2810/2817 23012KT SCT060CB
UTNN,TAF UTNN 280500Z 2806/2906 VRB04KT CAVOK TX35/2811Z TN15/2901Z
UTNU,TAF UTNU 280500Z 2806/2906 VRB04KT CAVOK TX35/2811Z TN16/2901Z
UTSA,TAF UTSA 280501Z 2806/2906 VRB03KT 7000 NSC TEMPO 2806/2817 06012KT FEW033
UTSB,TAF UTSB 280500Z 2806/2906 VRB03KT 7000 NSC TEMPO 2806/2817 34012KT FEW033
UTSK,TAF UTSK 280851Z 2810/2819 24008KT CAVOK TEMPO 2810/2813 34010KT BECMG 2815/2817 VRB04KT
UTSS,TAF UTSS 280500Z 2806/2906 07010G20KT 9999 NSC TEMPO 2806/2814 31010KT BECMG 2816/2818 15008KT
UTST,TAF UTST 280500Z 2806/2906 VRB06KT 6000 NSC TEMPO 2806/2813 06010G20KT BKN040 BKN100
UTTT,TAF AMD UTTT 280920Z 2809/2906 20010KT 7000 FEW060CB TEMPO 2809/2816 VRB20G30KT 3000 -TSRA -DS SCT050CB
UUBC,TAF UUBC 280757Z 2809/2818 27003G08MPS 9999 OVC016 TEMPO 2809/2818 33003G08MPS -SHRA BKN011 BKN016CB
UUBP,TAF UUBP 280751Z 2809/2818 30005MPS 9999 SCT007 BKN017 TEMPO 2809/2812 32010MPS 2000 TSRA BKN004 BKN013CB
UUBW,TAF UUBW 280754Z 2809/2909 15005MPS 8000 BKN016 TX16/2809Z TN04/2903Z TEMPO 2809/2816 26008G15MPS 2100 -TSRA FEW007 BKN016CB BECMG 2816/2818 32006G11MPS TEMPO 2821/2909 1800 SHRA BKN007 BKN012CB
UUDD,TAF UUDD 280755Z 2809/2915 16005MPS 6000 -RA FEW007 OVC016 TX16/2809Z TN03/2903Z TEMPO 2809/2816 28010G17MPS 1500 TSRA FEW005 BKN016CB BECMG 2816/2818 32006MPS TEMPO 2818/2909 36009G16MPS 1200 SHRA FEW004 BKN012CB
UUDL,TAF UUDL 280800Z 2809/2909 13003G08MPS 8000 BKN040 TX19/2812Z TN06/2903Z TEMPO 2810/2818 15008G13MPS 3000 -TSRA BKN020CB TEMPO 2818/2909 BKN010 BECMG 2822/2824 33005G10MPS
UUEE,TAF UUEE 280757Z 2809/2909 16005G10MPS 6000 BKN016 TX15/2812Z TN04/2903Z TEMPO 2809/2816 26008G16MPS 1400 TSRA FEW005 BKN016CB BECMG 2816/2817 31006G13MPS TEMPO 2818/2907 1200 SHRA BKN005 BKN016CB
UUMO,TAF UUMO 280746Z 2809/2818 17003G08MPS 9999 BKN016 TEMPO 2809/2812 21008G14MPS 1500 TSRA BKN005 BKN012CB TEMPO 2812/2818 34010MPS 2000 SHRA BKN003 BKN011CB
UUOB,TAF UUOB 280755Z 2809/2818 25003MPS 9999 BKN030 BECMG 2811/2813 33005G10MPS BKN016CB TEMPO 2813/2818 35010G16MPS 2100 -TSRA SCT004 BKN010CB
UUOK,TAF UUOK 280758Z 2809/2818 36003G08MPS 9999 BKN020 TEMPO 2811/2818 4000 -SHRA BKN020CB
UUOL,TAF UUOL 280800Z 2809/2818 15003G08MPS 9999 BKN016 TEMPO 2809/2815 VRB13MPS -TSRA SQ BKN016CB
UUOO,TAF UUOO 280800Z 2809/2818 14003G08MPS 6000 BKN018CB TEMPO 2809/2818 VRB15MPS -TSRA SQ
UUWW,TAF UUWW 280754Z 2809/2909 20003G08MPS 6000 BKN016 TX14/2810Z TN02/2902Z TEMPO 2809/2815 28008G15MPS 1400 TSRA FEW004 BKN020CB BECMG 2815/2816 35005MPS OVC007 TEMPO 2816/2821 31008G15MPS 2100 -SHRA FEW004 BKN012CB TEMPO 2821/2907 32008G14MPS 1100 SHRASN BKN004 BKN012CB BECMG 2907/2909 FEW004 BKN016
UUYY,TAF UUYY 280800Z 2809/2909 06003G10MPS CAVOK BECMG 2816/2818 09003G08MPS
UWGG,TAF AMD UWGG 281006Z 2810/2909 21003G09MPS 9999 SCT040 TX22/2812Z TN07/2903Z TEMPO 2810/2815 20008G15MPS -TSRA BKN014CB
UWKD,TAF UWKD 280758Z 2809/2909 29003MPS 9999 SCT030 TX21/2812Z TN09/2903Z
UWKE,TAF UWKE 280745Z 2809/2909 34005G12MPS 9999 SCT020 TEMPO 2809/2815 27007G14MPS SCT016CB BECMG 2815/2817 06003G10MPS
UWKS,TAF UWKS 280746Z 2809/2818 16003MPS 9999 SCT040CB TX22/2811Z TN14/2818Z
UWLL,TAF UWLL 280754Z 2809/2909 16003G08MPS 9999 SCT020 TX22/2812Z TN08/2903Z TEMPO 2809/2818 10007G14MPS
UWLW,TAF UWLW 280746Z 2809/2909 15003MPS 9999 SCT033 TX24/2811Z TN08/2901Z TEMPO 2809/2815 10005G11MPS
UWOO,TAF UWOO 280741Z 2809/2909 01006G12MPS 9999 SCT033 TX25/2812Z TN10/2901Z TEMPO 2809/2815 04003G12MPS SCT020CB BECMG 2815/2816 03003G10MPS TEMPO 2903/2909 07003G12MPS
UWOR,TAF UWOR 280746Z 2809/2818 33003G10MPS 9999 SCT033 TX25/2812Z TN15/2818Z TEMPO 2809/2818 01006G12MPS
UWPS,TAF UWPS 280757Z 2809/2818 16003G09MPS 9999 SCT040CB TX24/2811Z TN17/2818Z TEMPO 2809/2815 19008G13MPS
UWSG,TAF UWSG 280755Z 2809/2818 13003G08MPS CAVOK TX25/2812Z TN15/2818Z
UWUU,TAF UWUU 280749Z 2809/2909 31006G14MPS 9999 BKN040 TX21/2811Z TN08/2902Z TEMPO 2809/2811 26003G08MPS TEMPO 2811/2815 36003G08MPS -SHRA BKN020CB BECMG 2815/2816 34003G08MPS TEMPO 2816/2909 03003G08MPS
UWWW,TAF UWWW 280751Z 2809/2909 08003G09MPS 9999 SCT020 TX23/2810Z TN09/2902Z BECMG 2821/2822 12006G12MPS
VAAH,TAF VAAH 280800Z 2809/2818 28005KT 6000 FEW025 BECMG 2810/2812 24010KT FEW020 FEW025TCU SCT090 BECMG 2813/2815 32007KT 4000 FU BECMG 2816/2818 32003KT FEW020 SCT090
VAAU,TAF VAAU 280800Z 2809/2818 20008KT 3500 -RA HZ SCT020 SCT025 OVC080 TEMPO 2809/2813 19007G17KT 2500 TSRA -SHRA SCT015 FEW030CB BKN090 BECMG 2816/2818 12005KT 3000 BR HZ
VABB,TAF VABB 280800Z 2809/2818 28008KT 3500 HZ FEW100 TEMPO 2809/2812 29007G17KT BECMG 2813/2815 34005KT 3000 HZ BECMG 2816/2818 26003KT 2500 HZ
VABO,TAF VABO 280800Z 2809/2818 20008KT 6000 FEW020 SCT090 BECMG 2813/2815 22005KT
VABP,TAF VABP 280800Z 2809/2818 16008KT 6000 FEW025 SCT100 TEMPO 2811/2815 16010G20KT 5000 -TSRA FEW030CB
VABV,TAF VABV 280800Z 2809/2818 09008KT 6000 SCT025 BECMG 2810/2812 16012KT FEW025 SCT080 BECMG 2816/2818 27008KT FEW090
VADU,TAF VADU 280800Z 2809/2818 24015KT 6000 FEW025 BECMG 2810/2812 28015G25KT FEW020 FEW025TCU SCT080 BECMG 2816/2818 28010KT FEW090
VAID,TAF VAID 280800Z 2809/2818 21010KT 6000 FEW025 SCT100 TEMPO 2811/2815 16010G20KT 5000 -TSRA FEW030CB
VAJB,TAF VAJB 280800Z 2809/2818 25010KT 5000 HZ FEW025 SCT100 TEMPO 2811/2815 23010G20KT 4000 -TSRA SCT020 FEW030CB SCT100
VAJL,TAF VAJL 280200Z 2803/2812 18007KT 4000 HZ FU SCT020 SCT025 BECMG 2809/2811 23010KT 5000 HZ FU FEW020 SCT025 BKN090 TEMPO 2809/2812 23008G18KT 2000 -TSRA -TSGR -SHRA SCT015 FEW030CB OVC080
VAKE,TAF VAKE 280800Z 2809/2818 19010KT 5000 FU SCT025 SCT080 TEMPO 2809/2811 23015G25KT 1000 TSRA DRDU SCT020 FEW030CB BKN080 BECMG 2810/2812 23012KT BECMG 2813/2815 27008KT FEW020 SCT080
VAKP,TAF VAKP 280800Z 2809/2818 25008KT 4000 HZ FEW020 SCT100 TEMPO 2809/2813 28007G17KT BECMG 2814/2816 33008KT 3500 BR HZ FEW100
VANP,TAF VANP 280800Z 2809/2818 22005KT 4000 HZ FEW020 SCT100 TEMPO 2810/2815 22005G15KT 3000 TSRA/HZ FEW030CB BECMG 2814/2815 VRB05KT 4000 HZ
VAOZ,TAF VAOZ 280800Z 2809/2821 24005KT 6000 SCT030 FEW100 SCT300 TEMPO 2811/2814 24010G20KT 5000 TSRA SCT030 FEW030CB SCT090 BECMG 2819/2821 VRB02KT 6000 NSC
VAPO,TAF VAPO 280500Z 2806/2912 30005KT 6000 SCT030 SCT090 TEMPO 2809/2811 28015G25KT 4000 TSRA SCT025 FEW030CB SCT090 BECMG 2900/2902 VRB02KT 5000 BR FEW030 SCT100 TEMPO 2904/2906 28008KT 6000 SCT030 SCT100 TEMPO 2910/2912 SCT030 FEW030CB SCT100
VAPR,TAF VAPR 280800Z 2809/2818 26015G25KT 6000 FEW025 SCT080 BECMG 2813/2815 27012KT BECMG 2816/2818 27008KT FEW020 SCT090
VARK,TAF VARK 280800Z 2809/2818 26006KT 6000 SCT020 BECMG 2810/2812 28010KT FEW020 FEW025TCU SCT080 TEMPO 2810/2814 28015G25KT 1000 TSRA DRDU SCT020 FEW030CB BKN080 BECMG 2816/2818 28006KT FEW020 SCT090
VASD,TAF VASD 280800Z 2809/2818 20008KT 3500 -RA HZ SCT020 SCT025 OVC080 TEMPO 2809/2813 19007G17KT 2500 TSRA -SHRA SCT015 FEW030CB BKN090 BECMG 2816/2818 12005KT 3000 BR HZ
VASL,TAF VASL 280800Z 2809/2818 12008KT 3000 +RA HZ SCT020 SCT025 OVC080 TEMPO 2809/2813 14007G17KT 2500 +TSRA -SHRA SCT015 FEW030CB BKN090 BECMG 2816/2818 10005KT 3000 BR HZ FEW020 SCT100
VASU,TAF VASU 280800Z 2809/2818 28008KT 6000 FEW025 BECMG 2810/2812 22008KT FEW025 SCT090
VAUD,TAF VAUD 280800Z 2809/2818 23010KT 5000 HZ BLDU SCT035 SCT100 TEMPO 2809/2814 27010G20KT 1500 BLDU TSRA SCT030 FEW035CB BKN080 BECMG 2812/2814 VRB03KT 3000 HZ DU SCT030 BKN100
VCBI,TAF VCBI 280500Z 2806/2912 VRB05KT 9999 SCT018 TX33/2807Z TN24/2900Z TEMPO 2807/2813 6000 -TSRA SCT016 FEW020CB OVC080 TEMPO 2907/2912 6000 TSRA SCT016 FEW020CB OVC080
VCRI,TAF VCRI 280500Z 2806/2912 06010KT 9999 SCT018 FEW020CB TX32/2808Z TN24/2900Z PROB30 TEMPO 2808/2815 7000 -TSRA/SHRA FEW018 FEW020CB BKN080 BECMG 2813/2815 VRB05KT
VDPP,TAF VDPP 280500Z 2806/2824 16007KT 9999 SCT017 SCT040 TEMPO 2807/2812 TS SCT015 FEW017CB
VDSR,TAF VDSR 280500Z 2806/2824 18006KT 9999 SCT017 TEMPO 2807/2812 TS SCT015 FEW017CB SCT040
VDSV,TAF VDSV 280500Z 2806/2824 25008KT 9999 SCT017 SCT040 TEMPO 2807/2812 TS SCT015 FEW017CB
VEAN,TAF VEAN 280500Z 2806/2815 11005KT 4000 HZ FEW018 SCT100
VEAT,TAF VEAT 280800Z 2809/2818 24004KT 6000 FEW020 SCT100 TEMPO 2812/2815 28008G18KT 2500 -TSRA SCT018 FEW030CB BKN100 BECMG 2815/2818 00000KT 4000 -RA BR SCT018 BKN100
VEBD,TAF VEBD 280500Z 2806/2812 16005KT 6000 FEW025 SCT100 BKN200 TEMPO 2810/2814 FEW025 FEWCB030 BKN100 TEMPO 2910/2914 TS FEW025 FEWCB030 BKN090
VEBI,TAF VEBI 280800Z 2809/2818 11005KT 4000 HZ SCT018
VEBN,TAF VEBN 280800Z 2809/2818 26006KT 3000 HZ FEW020 SCT100 BECMG 2816/2818 VRB02KT 2000 BR
VEBS,TAF VEBS 280800Z 2809/2818 20005KT 5000 HZ SCT018 SCT100 TEMPO 2809/2813 1500 TSRA BKN016 FEW030CB OVC080 BECMG 2813/2815 4000 HZ
VEBU,TAF VEBU 280500Z 2806/2815 27005KT 4000 HZ FEW020 SCT100 TEMPO 2807/2813 27005G15KT 3000 -TSRA/HZ FEW030CB
VECC,TAF VECC 280800Z 2809/2818 25005KT 4000 HZ SCT018 BKN100 PROB40 TEMPO 2810/2814 28015G25KT 2000 TSRA SCT015 FEW025CB OVC090 BECMG 2814/2816 17005KT
VECO,TAF VECO 280200Z 2803/2812 09005KT 3500 HZ FEW020 BECMG 2807/2809 25005KT 5000 HZ FEW020 SCT100
VEDG,TAF VEDG 280800Z 2809/2818 30005KT 4000 HZ SCT018 BKN100 TEMPO 2809/2813 28015G25KT 2000 TSRA SCT015 FEW025CB OVC090 BECMG 2814/2816 18005KT
VEDZ,TAF VEDZ 280500Z 2806/2815 07005KT 4000 HZ FEW018 SCT100 BECMG 2813/2815 00000KT 3000 BR
VEGK,TAF VEGK 280330Z 2806/2818 24005KT 6000 FEW100 SCT250 TEMPO 2808/2812 28010G20KT 4000 BLDU SCT025 FEW030CB SCT100 BECMG 2815/2818 27005KT SCT100 BKN250
VEGT,TAF VEGT 280800Z 2809/2818 30004KT 4000 HZ FEW018 SCT100 BECMG 2813/2815 00000KT 3000 BR FEW020 FEW025CB BKN100
VEGY,TAF VEGY 280800Z 2809/2818 23006KT 5000 HZ FEW018 SCT100 BECMG 2815/2817 00000KT 3000 HZ
VEIM,TAF VEIM 280800Z 2809/2818 20006KT 5000 HZ FEW018
VEJH,TAF VEJH 280800Z 2809/2818 25005KT 5000 HZ SCT018 SCT100 TEMPO 2809/2813 1500 TSRA BKN016 FEW030CB OVC080 BECMG 2813/2815 4000 HZ
VEJR,TAF VEJR 280500Z 2806/2815 25005KT 4000 HZ FEW020 SCT100 TEMPO 2808/2813 27005G15KT 3000 TSRA/HZ FEW030CB
VEJS,TAF VEJS 280800Z 2809/2818 30005KT 4000 HZ SCT020 SCT100 BECMG 2815/2817 00000KT 2500 HZ
VEKI,TAF VEKI 280200Z 2803/2812 VRB02KT 3000 HZ FEW020 SCT100 BECMG 2805/2807 28005KT 4000 HZ
VEKO,TAF VEKO 280800Z 2809/2818 25010KT 5000 HZ FEW025 SCT100 TEMPO 2811/2815 23010G20KT 4000 -TSRA SCT020 FEW030CB SCT100
VEKU,TAF VEKU 280800Z 2809/2818 05004KT 5000 HZ FEW018 SCT100
VELP,TAF VELP 280800Z 2809/2818 16003KT 4000 HZ FEW018 SCT100 BECMG 2812/2814 00000KT 2800 BR FEW018 SCT100
VELR,TAF VELR 280800Z 2809/2818 21004KT 5000 HZ FEW018 FEW025CB BKN100 
VEMN,TAF VEMN 280800Z 2809/2818 09008KT 4000 HZ SCT018 FEW025CB BKN100 TEMPO 2812/2815 14015KT 1500 -TSRA FEW008 SCT018 FEW025CB OVC090
VEMR,TAF VEMR 280800Z 2809/2818 14005KT 3000 HZ FEW018
VEPT,TAF VEPT 280800Z 2809/2818 28006KT 5000 HZ FEW020 SCT100 BECMG 2815/2817 3000 HZ
VEPY,TAF VEPY 280800Z 2809/2818 20005KT 5000 HZ FEW015 SCT100 TEMPO 2809/2813 2000 TSRA FEW008 SCT012 FEW025CB OVC090 BECMG 2814/2816 18005KT 3000 HZ 
VERC,TAF VERC 280800Z 2809/2818 15006KT 5000 HZ SCT020 BKN100 BECMG 2815/2817 00000KT 3000 HZ
VERK,TAF VERK 280800Z 2809/2818 25005KT 5000 HZ SCT020 SCT100 TEMPO 2809/2813 1500 TSRA BKN016 FEW030CB OVC080 BECMG 2813/2815 4000 HZ
VERP,TAF VERP 280800Z 2809/2818 14005KT 5000 HZ FEW100 TEMPO 2811/2815 32010G20KT 3000 TSRA HZ SCT020 FEW030CB BKN090
VERU,TAF VERU 280800Z 2809/2818 02005KT 5000 HZ FEW018 SCT100
VETJ,TAF VETJ 280500Z 2806/2815 09005KT 4000 HZ FEW018 SCT100 BECMG 2812/2814 00000KT 3000 BR
VEZO,TAF VEZO 280500Z 2806/2815 05005KT 4000 HZ FEW018 FEW025CB BKN100 
VGHS,TAF VGHS 280500Z 2806/2912 25006KT 4000 HZ FEW015 SCT100 TEMPO 2807/2815 29020G30KT 2000 TSRA/RA BKN008 FEW025CB OVC090 BECMG 2816/2818 26005KT 3500 HZ FEW015 SCT100 TEMPO 2904/2908 29020G30KT 2000 TSRA/RA BKN008 FEW025CB OVC090 BECMG 2910/2912 28006KT 3500 HZ SCT100
VHHH,TAF VHHH 280800Z 2809/2915 10010KT 9999 FEW020 TX28/2809Z TX27/2906Z TN23/2823Z TEMPO 2809/2811 27010KT BECMG 2821/2823 VRB05KT TEMPO 2904/2910 33010KT 4000 SHRA FEW010CB SCT020 BECMG 2910/2912 36010KT
VIAG,TAF VIAG 280500Z 2806/2912 09005KT 6000 SCT030 BKN100 TEMPO 2807/2811 32015G25KT 5000 TSRA BLDU SCT030 FEW030CB BKN100 TEMPO 2814/2818 34015G25KT 3000 BLDU TEMPO 2908/2912 32015G25KT TSRA BLDU SCT030 FEW030CB BKN100
VIAR,TAF COR VIAR 280500Z 2806/2912 34005KT 6000 SCT100 BECMG 2810/2812 29008KT 4500 HZ -RA SCT035 BKN100 TEMPO 2811/2813 FEW035CB BECMG 2820/2822 VRB02KT 3500 HZ FEW035 SCT100 BECMG 2904/2906 34006KT 6000 TEMPO 2909/2912 34015G25KT 0800 DS TSRA SCT035 FEW040CB BKN090
VIBR,TAF VIBR 280500Z 2806/2815 22005KT 6000 FEW035 SCT080 BECMG 2809/2810 25010KT 2000 TSRA SCT030 FEW035CB BKN070 BECMG 2813/2815 00000KT 3500 HZ FEW030 SCT080 
VICG,TAF VICG 280500Z 2806/2912 27010KT 6000 FEW030 SCT250 TEMPO 2810/2814 30010KT 6000 SCT030 FEW030TCU CB BKN250 BECMG 2815/2816 VRB02KT 6000 FEW100 BKN250 TEMPO 2909/2912 03010G20KT 5000 -TSRA SCT025 FEW030TCU CB BKN100
VIDN,TAF VIDN 280500Z 2806/2815 16005KT 5000 HZ FEW030 SCT090 BECMG 2810/2812 32010KT 4000 HZ -RA SCT030 BKN090 TEMPO 2811/2814 FEW035CB 
VIDP,VIDP 280500Z 2806/2912 25006KT 4000 HZ DZ SCT035 BKN090 BECMG 2808/2810 32010KT 4000 HZ -RA TEMPO 2809/2812 FEW035CB BECMG 2815/2817 25004KT 3000 HZ FEW035 SCT100 BECMG 2900/2902 1500 HZ BECMG 2905/2907 29008G18KT 4000 HZ SCT035 BKN090 TEMPO 2909/2912 29015G25KT 1500 TSRA FEW035CB
VIGG,TAF VIGG 280500Z 2806/2815 22005KT 6000 FEW035 SCT080 BECMG 2809/2810 25010KT 2000 TSRA SCT030 FEW035CB BKN070 BECMG 2813/2815 00000KT 3500 HZ FEW030 SCT080 
VIJP,TAF VIJP 280800Z 2809/2818 23010KT 5000 HZ BLDU SCT035 SCT100 TEMPO 2810/2815 27010G20KT 1500 BLDU TSRA SCT030 FEW035CB BKN080 BECMG 2812/2814 27010KT 3000 HZ BLDU SCT030 BKN100
VIKG,TAF VIKG 280500Z 2806/2815 VRB03KT 5000 HZ SCT035 SCT100 TEMPO 28011/2815 22010G20KT 1500 BLDU TSRA SCT030 FEW035CB BKN080
VILK,TAF VILK 280800Z 2809/2818 27010G20KT 1500 TSRA SCT020 BKN100 TEMPO 2809/2813 27020G30KT 1000 -TSRA -RA FEW030CB OVC090 BECMG 2816/2818 VRB02KT 3000 BR
VIPT,TAF VIPT 270500Z 2706/2812 21004KT 5000 HZ FEW030
VISM,TAF VISM 280500Z 2806/2815 27004KT 5000 HZ FEW030 SCT080 BECMG 2810/2812 07005KT 3000 HZ -RA SCT025 BKN080 BECMG 2813/2815 VRB02KT 2500 HZ FEW100 
VLLB,TAF VLLB 280500Z 2806/2906 27004KT 9999 SCT020 SCT060
VLLN,TAF VLLN 280500Z 2806/2906 22004KT 8000 SCT020 FEW100
VLPS,TAF VLPS 280500Z 2806/2906 14006KT 7000 SCT020 SCT200
VLSK,TAF VLSK 280500Z 2806/2906 22004KT 8000 SCT020 SCT100
VLVT,TAF VLVT 280500Z 2806/2906 22004KT 8000 SCT020 FEW050
VMMC,TAF VMMC 280500Z 2806/2912 10008KT 9999 FEW020 TEMPO 2900/2904 4000 SHRA FEW015CB SCT020 TEMPO 2904/2908 VRB15G25KT 3500 TSRA FEW010CB SCT020 BECMG 2908/2910 36010KT
VNKT,TAF VNKT 280500Z 2806/2906 20004KT 5000 HZ FEW015 BECMG 2807/2809 24010KT 7000 FEW020 SCT025 BKN100 PROB30 2808/2812 VRB12KT 4000 -TSRA FEW025CB BECMG 2814/2815 24004KT 6000 FEW015 SCT100 BECMG 2900/2902 VRB02KT 4000 BR FEW010 SCT025 PROB30 2901/2903 3000 BR BECMG 2904/2905 11004KT 5000 HZ FEW015 SCT025 BKN100
VOAT,TAF VOAT 280200Z 2803/2812 34005KT 5000 HZ FEW015 SCT080 BECMG 2804/2805 32010KT 6000 SCT015
VOBG,TAF VOBG 280800Z 2809/2818 16010KT 6000 SCT015 SCT020 TEMPO 2809/2815 3000 TSRA RA SCT012 SCT020 FEW025CB BKN080
VOBL,TAF VOBL 280800Z 2809/2818 16010KT 6000 SCT015 SCT020 TEMPO 2809/2815 3000 TSRA RA SCT012 SCT020 FEW025CB BKN080
VOBM,TAF VOBM 280800Z 2809/2818 27010KT 6000 SCT015 SCT020 TEMPO 2809/2815 3000 TSRA RA SCT012 SCT020 FEW025CB BKN080
VOBZ,VOBZ 280500Z 2806/2815 20006KT 6000 FEW020 SCT025 TEMPO 2809/2814 27010KT 3000 TSRA SCT010 SCT025 FEW030CB
VOCB,TAF VOCB 280800Z 2809/2818 11005KT 6000 SCT012 BKN080 PROB30 TEMPO 2809/2813 4000 -TSRA/RA SCT010 FEW020CB BKN080 BECMG 2813/2814 5000 HZ
VOCI,TAF VOCI 280500Z 2806/2912 28005KT 5000 HZ FEW015 SCT080 TEMPO 2810/2814 29010KT 3500 TSRA RA SCT012 FEW025CB BKN080 BECMG 2814/2816 VRB03KT 4000 TS BR SCT015 FEW025CB BKN080 TEMPO 2822/2902 VRB02KT 3000 BR -RA SCT015 SCT080 BECMG 2903/2905 12005KT 5000 HZ FEW015 SCT080 TEMPO 2910/2912 29010KT 3500 TSRA RA SCT012 FEW025CB BKN080
VOCL,TAF VOCL 280500Z 2806/2815 05005KT 6000 FEW015 TEMPO 2810/2814 29010KT 4000 -TSRA RA SCT015 FEW025CB BKN080 BECMG 2815/2815 27005KT 3500 TS BR SCT015 FEW025CB BKN080
VOCP,VOCP 280500Z 2806/2815 09006KT 6000 FEW020 TEMPO 2809/2814 32010KT 3000 TSRA SCT010 SCT025 FEW030CB
VOGB,TAF VOGB 280800Z 2809/2818 09010KT 6000 SCT015 SCT020 TEMPO 2809/2815 3000 TSRA RA SCT012 SCT020 FEW025CB BKN080
VOGO,TAF VOGO 280500Z 2806/2815 28010KT 6000 FEW030 SCT090 TEMPO 2808/2812 30010G20KT FEW090
VOHB,TAF VOHB 280800Z 2809/2818 27010KT 6000 SCT015 SCT020 TEMPO 2809/2815 3000 TSRA RA SCT012 SCT020 FEW025CB BKN080
VOHS,TAF COR VOHS 280500Z 2806/2815 34006KT 5000 HZ SCT015 BKN080 TEMPO 2809/2814 32010KT 3000 TSRA SCT010 SCT025 FEW030CB
VOHY,TAF COR VOHY 280500Z 2806/2815 34006KT 5000 HZ SCT015 BKN080 TEMPO 2809/2814 32010KT 3000 TSRA SCT010 SCT025 FEW030CB
VOJV,TAF VOJV 280800Z 2809/2818 VRB02KT 6000 SCT015 SCT020 TEMPO 2809/2815 3000 TSRA RA SCT012 SCT020 FEW025CB BKN080
VOKN,TAF VOKN 280500Z 2806/2815 09005KT 6000 FEW015 TEMPO 2810/2814 29010KT 3000 TSRA RA SCT012 FEW025CB BKN080 BECMG 2815/2815 VRB03KT 4000 TS BR SCT012 FEW025CB BKN080
VOKU,VOKU 280500Z 2806/2815 04006KT 6000 FEW020 TEMPO 2809/2814 32010KT 3000 TSRA SCT010 SCT025 FEW030CB
VOLT,TAF VOLT 280800Z 2809/2818 12008KT 3000 +RA HZ SCT020 SCT025 OVC080 TEMPO 2809/2813 14007G17KT 2500 +TSRA -SHRA SCT015 FEW030CB BKN090 BECMG 2816/2818 10005KT 3000 BR HZ FEW020 SCT100
VOMD,TAF VOMD 280800Z 2809/2818 18005KT 6000 SCT020 BKN100 PROB30 TEMPO 2809/2813 4000 -TSRA/RA SCT015 FEW025CB BKN080 BECMG 2813/2814 5000 HZ
VOML,TAF VOML 280800Z 2809/2818 27010KT 6000 SCT015 TEMPO 2809/2815 3000 TSRA RA SCT012 SCT020 FEW025CB BKN080
VOMM,TAF VOMM 280800Z 2809/2818 14010KT 6000 SCT020 BKN100
VOMY,TAF VOMY 280800Z 2809/2818 12005KT 6000 SCT015 SCT020 TEMPO 2809/2815 3000 TSRA RA SCT012 SCT020 FEW025CB BKN080
VOND,TAF VOND 280800Z 2809/2818 20008KT 3500 -RA HZ SCT020 SCT025 OVC080 TEMPO 2809/2813 19007G17KT 2500 TSRA -SHRA SCT015 FEW030CB BKN090 BECMG 2816/2818 12005KT 3000 BR HZ
VOPC,TAF VOPC 280200Z 2803/2812 07005KT 5000 HZ SCT020 SCT100 BECMG 2806/2807 14010KT 6000 TEMPO 2806/2812 SCT018 FEW025TCU/CB SCT100
VORY,VORY 280500Z 2806/2815 25010KT 6000 SCT020 SCT025 TEMPO 2809/2814 TEMPO 2809/2814 32010KT 3000 TSRA SCT010 SCT025 FEW030CB
VOSM,TAF VOSM 280200Z 2803/2812 VRB02KT 5000 HZ SCT020 SCT100 BECMG 2806/2807 18005KT 6000
VOSR,TAF VOSR 280800Z 2809/2818 25008KT 4000 HZ FEW020 SCT100 TEMPO 2809/2813 28007G17KT BECMG 2814/2816 33008KT 3500 BR HZ FEW100
VOTK,TAF VOTK 280200Z 2803/2812 03005KT 5000 HZ SCT020 SCT100 BECMG 2806/2807 11010KT 6000 TEMPO 2806/2812 SCT018 FEW025TCU/CB SCT100
VOTP,VOTP 280500Z 2806/2815 23010KT 5000 HZ SCT020 TEMPO 2809/2814 TEMPO 2809/2814 22010KT 3000 TSRA SCT010 SCT025 FEW030CB
VOTR,TAF VOTR 280800Z 2809/2818 11010KT 5000 HZ SCT015 BKN100 BECMG 2815/2816 11003KT 3000 BR
VOTV,TAF VOTV 280500Z 2806/2912 26005KT 6000 SCT015 FEW025TCU SCT080 TEMPO 2809/2813 28010KT 3000 TSRA RA SCT012 FEW025CB BKN080 BECMG 2814/2816 27005KT 4000 TS BR SCT015 FEW025CB BKN080 TEMPO 2822/2902 VRB02KT 3000 BR -RA SCT015 FEW025CB SCT080 BECMG 2903/2905 25005KT 6000 FEW015 SCT080
VOVZ,TAF VOVZ 280500Z 2806/2815 23008KT 4000 HZ SCT018 SCT080 TEMPO 2808/2812 23007G17KT SCT018 FEW022TCU/CB SCT080
VRMG,TAF VRMG 280500Z 2806/2912 25008KT 9999 SCT018TCU BKN110 TEMPO 2806/2812 4000 TSRA FEW017CB
VRMH,TAF VRMH 280500Z 2806/2912 05005KT 9999 FEW018TCU TEMPO 2806/2812 5000 TSRA FEW017CB
VRMM,TAF VRMM 280500Z 2806/2912 24005KT 9999 SCT018TCU TEMPO 2806/2812 5000 TSRA FEW017CB
VTBD,TAF VTBD 280500Z 2806/2912 21008KT 9999 FEW020 BECMG 2820/2822 12005KT BECMG 2902/2904 20008KT
VTBO,TAF VTBO 280500Z 2806/2906 22008KT 9999 FEW020 TEMPO 2807/2811 VRB15KT 3000 TSRA FEW018CB SCT022 BKN080
VTBS,TAF VTBS 280500Z 2806/2912 20008KT 9999 FEW020 BECMG 2820/2822 14005KT BECMG 2902/2904 20008KT
VTBU,TAF VTBU 280500Z 2806/2906 18010KT 8000 FEW020 BECMG 2813/2815 35003KT BECMG 2902/2904 18010KT
VTCC,TAF VTCC 280500Z 2806/2912 19005KT 8000 FEW035 BECMG 2813/2815 25005KT BECMG 2820/2822 08005KT BECMG 2823/2901 17005KT
VTCH,TAF VTCH 280500Z 2806/2906 19005KT 8000 FEW025 BECMG 2820/2822 3000 HZ BECMG 2902/2904 25005KT 8000 NSW
VTCL,TAF VTCL 280500Z 2806/2906 15005KT 9999 FEW025
VTCN,TAF VTCN 280500Z 2806/2906 20005KT 8000 FEW025
VTCP,TAF VTCP 280500Z 2806/2906 20005KT 8000 FEW045
VTCT,TAF VTCT 280500Z 2806/2912 17005KT 8000 FEW025 BECMG 2812/2814 26005KT BECMG 2819/2821 01005KT BECMG 2905/2907 17005KT
VTPB,TAF VTPB 280500Z 2806/2906 18005KT 8000 FEW030
VTPH,TAF VTPH 280500Z 2806/2906 11010KT 9999 FEW020 BECMG 2814/2816 24003KT BECMG 2903/2905 13010KT
VTPM,TAF VTPM 280500Z 2806/2906 30005KT 9000 FEW025 BECMG 2808/2810 16005KT
VTPO,TAF VTPO 280500Z 2806/2906 16005KT 8000 FEW025
VTPP,TAF VTPP 280500Z 2806/2906 18005KT 9000 FEW030
VTPT,TAF VTPT 280500Z 2806/2906 18005KT 8000 FEW026
VTSB,TAF VTSB 280500Z 2806/2906 06010KT 9999 SCT020 TEMPO 2806/2812 VRB15G25KT 4000 TSRA FEW016CB SCT018 BKN100 BECMG 2813/2815 00000KT BECMG 2903/2905 06008KT
VTSC,TAF VTSC 280500Z 2806/2906 08008KT 9999 FEW020 BECMG 2814/2816 19004KT PROB40 TEMPO 2818/2903 4000 RA
VTSE,TAF VTSE 280500Z 2806/2906 14008KT 9999 SCT020 PROB40 TEMPO 2807/2812 VRB15G25KT 4000 TSRA FEW016CB SCT018 BKN100 BECMG 2813/2815 28003KT BECMG 2903/2905 14008KT
VTSF,TAF VTSF 280500Z 2806/2906 08008KT 9999 FEW020 BECMG 2813/2815 29003KT PROB40 TEMPO 2818/2903 4000 RA
VTSG,TAF VTSG 280500Z 2806/2906 06006KT 9999 SCT020
VTSM,TAF VTSM 280500Z 2806/2906 13010KT 9999 FEW020 BECMG 2816/2818 00000KT BECMG 2902/2904 14010KT
VTSP,TAF VTSP 280500Z 2806/2912 28006KT 9999 SCT020 BECMG 2814/2816 08006KT BECMG 2906/2908 28007KT
VTSR,TAF VTSR 280500Z 2806/2906 30006KT 9999 SCT030 BECMG 2814/2816 00000KT BECMG 2900/2902 10006KT
VTSS,TAF VTSS 280500Z 2806/2906 07010KT 9999 SCT020 BECMG 2813/2815 30003KT PROB40 TEMPO 2814/2902 VRB15G25KT 4000 TSRA FEW016CB SCT018 BKN100 BECMG 2903/2905 07010KT
VTST,TAF VTST 280500Z 2806/2906 06006KT 9999 SCT030
VTSY,TAF VTSY 280500Z 2806/2906 04006KT 9999 SCT020 TEMPO 2806/2813 VRB15G25KT 4000 TSRA FEW016CB SCT018 BKN100 BECMG 2813/2815 00000KT BECMG 2821/2823 1500 BR BKN005 BECMG 2904/2906 04006KT 9999 NSW FEW020
VTUD,TAF VTUD 280500Z 2806/2906 18005KT 8000 FEW030
VTUI,TAF VTUI 280500Z 2806/2906 12005KT 8000 FEW030
VTUK,TAF VTUK 280500Z 2806/2906 18005KT 8000 FEW030
VTUL,TAF VTUL 280500Z 2806/2906 20005KT 7000 FEW030
VTUO,TAF VTUO 280500Z 2806/2906 23005KT 9000 FEW030
VTUQ,TAF VTUQ 280500Z 2806/2906 22005KT 9000 FEW030
VTUU,TAF VTUU 280500Z 2806/2906 21005KT 9000 FEW030
VTUV,TAF VTUV 280500Z 2806/2906 20005KT 9000 FEW030
VTUW,TAF VTUW 280500Z 2806/2906 12005KT 8000 FEW030
VVCI,TAF VVCI 280500Z 2806/2906 14010KT 9999 SCT017 BKN030 TEMPO 2819/2824 VRB15G25KT 5000 TSRA SCT013 FEW025CB BKN030 TEMPO 2900/2904 05015G25KT 3000 +TSRA BKN010 FEW025CB BKN030
VVCR,TAF VVCR 280500Z 2806/2906 06013KT 9999 FEW015 BECMG 2815/2816 33006KT BECMG 2902/2903 07010KT
VVCT,TAF VVCT 280500Z 2806/2906 08010KT 9999 SCT017 TEMPO 2810/2812 5000 TSRA BKN015 FEW017CB
VVDN,TAF VVDN 280500Z 2806/2906 10011KT 9999 SCT015 TEMPO 2809/2812 TS SCT013 FEW017CB SCT060 BECMG 2813/2814 19006KT
VVNB,TAF VVNB 280500Z 2806/2906 13006KT 9999 SCT017 BKN030 TEMPO 2806/2809 5000 RA SCT017 FEW020TCU BKN030 TEMPO 2819/2824 VRB15G25KT 5000 TSRA SCT013 FEW025CB BKN030 TEMPO 2900/2904 05015G25KT 3000 +TSRA BKN010 FEW025CB BKN030
VVPB,TAF VVPB 280500Z 2806/2906 07010KT 9999 FEW015 SCT060 TEMPO 2808/2812 TS SCT013 FEW017CB SCT060 BECMG 2812/2813 23005KT
VVPQ,TAF VVPQ 280500Z 2806/2906 09003KT 9999 SCT015 TEMPO 2810/2813 3000 TSRA BKN015 SCT017CB BKN040
VVTS,TAF VVTS 280500Z 2806/2912 10008KT 9999 SCT017 TEMPO 2808/2812 3000 TSRA BKN013 SCT015CB TEMPO 2909/2912 5000 TSRA BKN015 FEW017CB
VVVD,TAF VVVD 280500Z 2806/2906 15008KT 9999 FEW025 BKN040 TEMPO 2819/2824 VRB15G25KT 5000 TSRA SCT013 FEW025CB BKN030 TEMPO 2900/2904 05015G25KT 3000 +TSRA BKN010 FEW025CB BKN030
VYMD,TAF VYMD 271100Z 2712/2812 27004KT 7000 FEW025 TEMPO 2712/2718 22007KT 6000 HZ SCT025
VYNT,TAF VYNT 280500Z 2806/2906 23008KT 7000 SCT025 FEW030CB SCT120 TEMPO 2806/2812 19010KT 7000 SCT020 FEW025CB SCT120
VYYY,TAF VYYY 280500Z 2806/2906 23006KT 8000 SCT020 TEMPO 2806/2812 6000 HZ SCT015 FEW020CB
WAAA,TAF WAAA 280500Z 2806/2912 30010KT 9999 SCT019 TEMPO 2806/2808 4000 TSRA FEW018CB BECMG 2810/2812 11003KT
WABB,TAF WABB 280500Z 2806/2912 34005KT 9999 SCT018 BECMG 2900/2901 19005KT
WADD,TAF WADD 280500Z 2806/2906 12009KT 8000 SCT016 TEMPO 2815/2819 -TSRA FEW014CB BKN014
WALL,TAF WALL 280500Z 2806/2912 36008KT 9999 SCT020
WALS,TAF WALS 280500Z 2806/2818 04011KT 9999 SCT019
WAMM,TAF WAMM 280500Z 2806/2912 05008KT 9999 SCT020 TEMPO 2806/2809 5000 RA FEW018CB BECMG 2811/2812 VRB03KT
WAOO,TAF WAOO 272300Z 2800/2824 03008KT 9999 SCT018 TEMPO 2804/2808 4000 RA
WAPP,TAF WAPP 280500Z 2806/2906 21008KT 9999 SCT017 BECMG 2810/2812 34006KT
WAQA,TAF WAQA 280500Z 2806/2818 33005KT 9999 SCT012
WAQD,TAF WAQD 280500Z 2806/2818 33004KT 8000 SCT015
WAQJ,TAF WAQJ 280500Z 2806/2818 22007KT 9000 SCT013
WAQQ,TAF WAQQ 280500Z 2806/2818 29007KT 9999 BKN015
WAQT,TAF WAQT 280500Z 2806/2818 02007KT 5000 -TSRA FEW013CB BKN020 BECMG 2806/2808 9999 NSW SCT015
WARR,TAF WARR 280500Z 2806/2906 10008KT 9999 SCT020 PROB30 TEMPO 2808/2812 4000 TSRA BKN018CB TEMPO 2820/2900 24005KT 5000 HZ
WATT,TAF WATT 280500Z 2806/2906 12015KT 9999 SCT016
WBGB,TAF WBGB 280500Z 2806/2906 VRB03KT 9999 FEW016 TEMPO 2806/2810 3000 +TSRA FEW014 FEW015CB SCT030
WBGG,TAF WBGG 280500Z 2806/2906 VRB03KT 9999 SCT016 TEMPO 2806/2810 4000 TSRA FEW015CB SCT020
WBGR,TAF WBGR 280500Z 2806/2906 VRB03KT 9999 FEW016 TEMPO 2806/2811 3000 +TSRA FEW014 FEW015CB SCT030
WBGS,TAF WBGS 280500Z 2806/2906 VRB03KT 9999 SCT016 TEMPO 2806/2811 31005G20KT 2000 +TSRA FEW015CB SCT020
WBKK,TAF WBKK 280500Z 2806/2906 30005KT 9999 FEW014 TEMPO 2808/2812 5000 TSRA FEW013 FEW016CB SCT035 BECMG 2810/2812 11005KT
WBKL,TAF WBKL 280500Z 2806/2906 VRB03KT 9999 FEW015
WBKS,TAF WBKS 280500Z 2806/2906 05006KT 9999 FEW016 BECMG 2816/2818 VRB03KT
WBKW,TAF WBKW 280500Z 2806/2906 15006KT 9999 FEW017 BECMG 2810/2812 VRB03KT
WBSB,TAF WBSB 280500Z 2806/2912 33008KT 9999 FEW015 FEW016CB TEMPO 2810/2814 6000 -TSRA BECMG 2812/2814 03005KT FEW014 FEW015CB
WIDD,TAF WIDD 280500Z 2806/2906 05010KT 9999 SCT014 TEMPO 2808/2812 5000 -TSRA FEW013CB
WIEE,TAF WIEE 280500Z 2806/2906 27005KT 9999 SCT020 TEMPO 2808/2812 3000 RA BKN015
WIHH,TAF WIHH 280500Z 2806/2906 09010KT 6000 SCT018 TEMPO 2808/2811 20015KT 3000 TSRA FEW016CB BKN017 BECMG 2813/2815 15004KT 5000 HZ
WIII,TAF WIII 280500Z 2806/2912 02010KT 7000 SCT020 BECMG 2812/2814 19005K T BECMG 2816/2818 5000 HZ
WIMM,TAF WIMM 280500Z 2806/2906 36010KT 9999 NSW SCT018 BECMG 2812/2813 VRB03KT 5000 HZ
WIPB,TAF WIPB 280500Z 2806/2818 08005KT 9999 SCT010 TEMPO 2807/2811 3000 TSRA FEW010CB BKN010
WIPP,TAF WIPP 280500Z 2806/2906 31008KT 9999 SCT010 TEMPO 2821/2824 3000 BR
WIPY,TAF WIPY 272300Z 2800/2812 34007KT 9999 SCT010 TEMPO 2806/2810 3000 TSRA FEW009CB BKN010
WITT,TAF WITT 280500Z 2806/2906 04010KT 8000 SCT018 PROB40 TEMPO 2808/2811 4000 TSRA FEW016CB BECMG 2813/28 15 16006KT
WMAP,TAF WMAP 280500Z 2806/2906 29006KT 9999 FEW018 TEMPO 2806/2809 5000 TSRA FEW010 FEW017CB TEMPO 2904/2906 03006KT 3000 +TSRA FEW010 FEW017CB
WMBT,TAF WMBT 280500Z 2806/2906 VRB02KT 9999 FEW020 TEMPO 2806/2810 8000 TS FEW017CB
WMKA,TAF WMKA 280500Z 2806/2906 VRB04KT 9000 FEW020 TEMPO 2808/2812 5000 TSRA FEW010 FEW017CB
WMKB,TAF WMKB 280500Z 2806/2906 06005KT 7000 FEW020 TEMPO 2809/2812 30008KT 6000 TSRA FEW017CB
WMKC,TAF WMKC 280500Z 2806/2906 09006KT 9999 FEW018
WMKE,TAF WMKE 280500Z 2806/2906 VRB03KT 9999 FEW017
WMKI,TAF WMKI 280500Z 2806/2906 04005KT 9999 FEW020 TEMPO 2808/2813 24007KT 5000 TSRA FEW017CB
WMKJ,TAF WMKJ 280500Z 2806/2906 28006KT 9999 FEW018 TEMPO 2806/2808 5000 TSRA FEW010 FEW016CB TEMPO 2808/2813 3000 +TSRA FEW010 FEW016CB TEMPO 2904/2906 02006KT 3000 +TSRA FEW010 FEW016CB
WMKK,TAF WMKK 280500Z 2806/2912 02006KT 9999 SCT018 TEMPO 2806/2811 4000 TSRA FEW010 FEW017CB PROB40 TEMPO 2814/2817 VRB02KT 5000 TSRA FEW008 FEW017CB TEMPO 2903/2908 33006KT 4000 TSRA FEW010 FEW017CB
WMKL,TAF WMKL 280500Z 2806/2906 21006KT 9999 FEW020 TEMPO 2808/2812 6000 TSRA FEW010 FEW017CB BECMG 2810/2812 VRB03KT FEW026
WMKM,TAF WMKM 280500Z 2806/2906 01006KT 9999 FEW020 TEMPO 2806/2810 4000 TSRA FEW010 FEW017CB TEMPO 2811/2816 VRB02KT 4000 TSRA FEW008 FEW017CB TEMPO 2903/2906 33006KT 5000 TSRA FEW010 FEW017CB
WMKN,TAF WMKN 280500Z 2806/2906 VRB03KT 9999 FEW018
WMKP,TAF WMKP 280500Z 2806/2906 22008KT 9999 FEW020 TEMPO 2809/2812 6000 TSRA FEW010 FEW017CB BECMG 2810/2812 00000KT 8000 FEW025
WMPA,TAF WMPA 280500Z 2806/2906 VRB02KT 9999 FEW021 TEMPO 2809/2813 29008KT 6000 TSRA FEW017CB
WMSA,TAF WMSA 280500Z 2806/2906 02006KT 9999 FEW018 TEMPO 2806/2811 3000 +TSRA FEW010 FEW017CB TEMPO 2903/2906 31006KT 4000 TSRA FEW010 FEW017CB
WPDL,TAF WPDL 280500Z 2806/2818 06010KT 9999 SCT030 FM281500 16005KT 9999 FEW030 PROB30 TEMPO 2806/2810 VRB20G35KT 1000 TSRA BKN010 SCT030CB
WSAP,TAF AMD WSAP 280800Z 2808/2912 35007KT 9999 FEW015 SCT020
WSSL,TAF AMD WSSL 280800Z 2808/2912 35007KT 9999 FEW015 SCT020
WSSS,TAF AMD WSSS 280800Z 2808/2912 35007KT 9999 FEW015 SCT020
YAMB,TAF YAMB 280404Z 2805/2900 08009KT 9999 SCT045 FM280800 12005KT 9999 FEW040 FM281500 VRB03KT 9999 MIFG FEW002 SCT025 FM282200 28005KT 9999 NSW SCT030 PROB40 2815/2822 0500 FG SCT002
YBAS,TAF AMD YBAS 280501Z 2806/2906 14012KT CAVOK FM280900 15012KT 9999 -SHRA NSC FM281800 16012KT 9999 -SHRA SCT030 FM290000 14018KT 9999 NSW SCT030 FM290300 14012KT CAVOK
YBBN,TAF YBBN 280815Z 2809/2912 13006KT 9999 FEW025 FM281300 21006KT 9999 SCT025 FM290200 04008KT 9999 FEW030
YBCG,TAF YBCG 280819Z 2809/2906 15007KT 9999 -SHRA SCT035 FM281000 20004KT 9999 -SHRA SCT025 FM290100 01008KT 9999 NSW FEW030
YBCS,TAF YBCS 280807Z 2809/2906 15010KT 9999 SCT030 FM281000 17005KT 9999 FEW030 FM290000 10010KT 9999 FEW035
YBHM,TAF AMD YBHM 280847Z 2808/2818 14018KT 9999 SCT020 INTER 2815/2818 4000 SHRA SCT015
YBLN,TAF YBLN 280511Z 2806/2906 18010KT 9999 BKN040 FM281800 VRB03KT 9999 FEW025 FM290200 29008KT 9999 FEW050
YBMA,TAF YBMA 280444Z 2806/2818 06008KT CAVOK FM281200 10005KT CAVOK
YBRK,TAF YBRK 280503Z 2806/2906 09010KT 9999 SCT045 FM281000 14005KT 9999 FEW020 FM290100 07008KT 9999 SCT030 INTER 2903/2906 4000 SHRA BKN015
YBRM,TAF YBRM 280824Z 2809/2906 30007KT CAVOK FM281500 13010KT CAVOK FM290000 12017G27KT CAVOK FM290400 12013KT CAVOK
YBSU,TAF AMD YBSU 280505Z 2806/2906 14012KT 9999 SCT030 FM281100 22006KT 9999 -SHRA SCT025 FM290200 05008KT 9999 NSW SCT030 INTER 2821/2902 4000 SHRA BKN015
YBTL,TAF YBTL 280501Z 2806/2906 06014KT 9999 SCT040 FM280900 12010KT 9999 FEW030 FM281400 20005KT 9999 SCT022 FM290000 05015KT 9999 SCT040
YBWW,TAF AMD YBWW 280504Z 2806/2906 09010KT 9999 SCT045 FM281200 08005KT CAVOK FM281700 06004KT 9999 SCT008 FM282300 02008KT CAVOK PROB30 2818/2822 0500 FG
YCFS,TAF YCFS 280506Z 2806/2906 04012KT 9999 SCT040 FM281000 31008KT CAVOK FM290000 01013KT CAVOK
YCIN,TAF YCIN 280622Z 2808/2820 33006KT CAVOK FM281400 20007KT CAVOK FM281600 15010KT CAVOK
YFRT,TAF AMD YFRT 280823Z 2808/2820 20017KT 9999 SCT050 FM281200 24014KT 9999 SCT050
YGEL,TAF YGEL 280509Z 2806/2900 14014KT CAVOK
YGLA,TAF YGLA 280406Z 2806/2818 09014KT 9999 SCT040 FM280900 13008KT 9999 FEW035 FM281300 20006KT 9999 FEW025
YHID,TAF YHID 280444Z 2806/2906 12014KT 9999 SCT025 FM281200 15010KT 9999 -SHRA SCT020 FM290000 12014KT 9999 -SHRA SCT025 INTER 2814/2902 15015G25KT 3000 SHRA SCT015
YLHI,TAF YLHI 280524Z 2806/2906 09014KT 9999 SCT030 BKN045 FM281200 08010KT 9999 -SHRA BKN025
YMAV,TAF AMD YMAV 280819Z 2808/2906 30005KT 9999 FEW040 FM282200 28010KT 9999 SCT040 FM290300 23008KT 9999 -SHRA BKN040
YMHB,TAF YMHB 280827Z 2809/2906 31010KT 9999 FEW040
YMLT,TAF YMLT 280524Z 2806/2906 30015KT 9999 FEW045 FM280800 33010KT 9999 FEW040
YMML,TAF YMML 280826Z 2809/2912 19004KT 9999 -RA SCT035 FM281200 35005KT 9999 NSW FEW035 FM281700 27008KT 9999 FEW035 FM290300 22010KT 9999 BKN040 INTER 2809/2810 5000 SHRA BKN025
YPAD,TAF YPAD 280808Z 2809/2912 25010KT 9999 -SHRA SCT040 FM281600 26008KT 9999 -SHRA SCT030 INTER 2809/2900 23015G25KT 5000 SHRA BKN025 SCT040TCU
YPCC,TAF YPCC 280526Z 2806/2906 09010KT 9999 SCT012 BKN022 FM290000 06008KT 9999 SCT012 BKN022 INTER 2806/2906 3000 SHRA BKN010
YPDN,TAF YPDN 280806Z 2809/2912 02010KT CAVOK FM281200 20005KT 9999 FEW040 FM281800 08005KT 9999 FEW012 FM282300 08005KT 9999 FEW030 FM290500 05010KT CAVOK
YPEA,TAF YPEA 280413Z 2805/2818 12012KT CAVOK
YPGV,TAF YPGV 280703Z 2808/2820 12012KT 9999 -SHRA SCT030 FM281200 14008KT 9999 -SHRA SCT020
YPJT,TAF YPJT 280507Z 2806/2900 18010KT CAVOK FM281200 13006KT CAVOK
YPKG,TAF YPKG 280510Z 2806/2906 18008KT CAVOK
YPKU,TAF YPKU 280703Z 2808/2820 09008KT CAVOK FM280900 VRB04KT CAVOK
YPLM,TAF YPLM 280517Z 2806/2906 07008KT CAVOK FM280900 33005KT CAVOK FM281000 21008KT CAVOK FM282000 16007KT CAVOK FM290000 10010KT CAVOK FM290300 03014KT CAVOK
YPPD,TAF YPPD 280522Z 2806/2906 09012KT CAVOK FM280700 36007KT CAVOK FM281400 12009KT CAVOK FM282000 12014KT CAVOK FM290000 11019G29KT CAVOK FM290400 11016KT CAVOK
YPPH,TAF YPPH 280808Z 2809/2912 17010KT CAVOK FM281200 11007KT CAVOK FM282100 04004KT CAVOK FM290100 10007KT CAVOK FM290500 19008KT CAVOK FM291100 12006KT CAVOK
YPTN,TAF YPTN 280501Z 2806/2906 10010KT 9999 FU NSC FM280900 VRB04KT 9999 FU NSC FM290200 10010KT 9999 FU NSC
YPWR,TAF AMD YPWR 280824Z 2808/2900 24014KT 9999 -SHRA SCT040 FM281200 24010KT CAVOK INTER 2808/2812 24015G25KT 5000 SHRA BKN020
YPXM,TAF AMD YPXM 280831Z 2808/2906 11012KT 9999 BKN005 FM290200 13011KT 9999 BKN008 TEMPO 2808/2810 VRB20G35KT 1000 TSRA BKN002 SCT015CB TEMPO 2809/2902 2000 SHRA BKN003 TEMPO 2902/2906 2000 SHRA BKN005 PROB30 TEMPO 2810/2812 VRB20G35KT 1000 TSRA BKN002 SCT015CB PROB30 TEMPO 2815/2906 VRB20G35KT 1000 TSRA BKN002 SCT015CB
YSCB,TAF AMD YSCB 280943Z 2809/2906 35008KT 9999 -SHRA NSC FM281000 33006KT 9999 -SHRA SCT015 SCT040 BECMG 2817/2818 35005KT 9999 NSW FEW010 FM290000 34008KT 9999 -SHRA FEW015 SCT045 TEMPO 2809/2813 VRB20G35KT 2000 TSRA SCT040CB TEMPO 2809/2817 4000 SHRA BKN010 TEMPO 2817/2820 9999 -SHRA BKN010
YSDU,TAF YSDU 280518Z 2806/2900 35014KT CAVOK FM280800 35010KT 9999 -SHRA NSC FM282000 20008KT 9999 -SHRA BKN030
YSNF,TAF YSNF 280525Z 2806/2906 12020G30KT 9999 -SHRA BKN018 FM281800 16030G42KT 9999 -SHRA SCT010 BKN015 FM290200 19035G50KT 9999 -SHRA BKN010 TEMPO 2806/2902 5000 SHRA BKN010 TEMPO 2902/2906 3000 SHRA BKN005
YSRI,TAF YSRI 280507Z 2806/2906 02010KT 9999 -SHRA NSC FM281200 VRB03KT 9999 -RA NSC FM290200 17005KT 9999 -RA SCT030 BKN050 TEMPO 2901/2906 4000 RA BKN030
YSSY,TAF YSSY 280812Z 2809/2912 02014KT CAVOK FM281500 32008KT 9999 -SHRA NSC FM290000 27010KT 9999 -RA SCT050 FM290500 20012KT 9999 -RA BKN020 INTER 2818/2905 5000 SHRA SCT020 TEMPO 2905/2912 2000 SHRA BKN012
YSTW,TAF YSTW 280516Z 2806/2900 03006KT CAVOK
YWLM,TAF YWLM 280507Z 2806/2906 06008KT CAVOK FM281800 29006KT CAVOK FM290100 27010KT 9999 -RA SCT030 BKN050
ZKPY,TAF ZKPY 280400Z 2806/2906 20007MPS CAVOK TX20/2806Z TN13/2821Z BECMG 2816/2818 18005MPS 4000 -RA OVC020 TEMPO 2819/2822 2000 TSSHRA BKN010CB SCT017
ZKWS,TAF ZKWS 280400Z 2806/2906 21005MPS CAVOK TX21/2806Z TN14/2821Z BECMG 2819/2821 3000 -RA OVC017
ZMCK,TAF ZMCK 280438Z 2806/2912 29007MPS 9999 SCT033 SCT100 TX08/2807Z TNM02/2823Z BECMG 2809/2811 VRB02MPS BECMG 2902/2904 30007MPS BECMG 2910/2912 VRB02MPS
ZMUB,TAF ZMUB 280436Z 2806/2912 VRB02MPS 9999 SCT033 TX05/2807Z TNM03/2823Z
ZUGY,TAF AMD ZUGY 281008Z 2806/2906 01004MPS 6000 OVC033 TX20/2807Z TN10/2822Z TEMPO 2810/2812 -TSRA FEW030CB OVC033
