No errors
No warnings
149 ms
data source=metars
4919 results
raw_text,station_id,observation_time,latitude,longitude,temp_c,dewpoint_c,wind_dir_degrees,wind_speed_kt,wind_gust_kt,visibility_statute_mi,altim_in_hg,sea_level_pressure_mb,corrected,auto,auto_station,maintenance_indicator_on,no_signal,lightning_sensor_off,freezing_rain_sensor_off,present_weather_sensor_off,wx_string,sky_cover,cloud_base_ft_agl,sky_cover,cloud_base_ft_agl,sky_cover,cloud_base_ft_agl,sky_cover,cloud_base_ft_agl,flight_category,three_hr_pressure_tendency_mb,maxT_c,minT_c,maxT24hr_c,minT24hr_c,precip_in,pcp3hr_in,pcp6hr_in,pcp24hr_in,snow_in,vert_vis_ft,metar_type,elevation_m
ZMCK 060930Z 31006MPS 270V350 9999 BKN250 12/M12 Q1024 NOSIG,ZMCK,2023-05-06T09:30:00Z,47.65,106.82,12.0,-12.0,310,12,,6.21,30.236221,,,,,,TRUE,,,,,BKN,25000,,,,,,,VFR,,,,,,,,,,,,METAR,1366.0
VNKT 060930Z 28008KT 9999 FEW020 SCT040 27/14 Q1010 NOSIG,VNKT,2023-05-06T09:30:00Z,27.68,85.37,27.0,14.0,280,8,,6.21,29.822834,,,,,,TRUE,,,,,FEW,2000,SCT,4000,,,,,VFR,,,,,,,,,,,,METAR,1334.0
VASU 060930Z 20010KT 6000 NSC 34/21 Q1006 NOSIG,VASU,2023-05-06T09:30:00Z,21.12,72.73,34.0,21.0,200,10,,3.73,29.704725,,,,,,TRUE,,,,,CLR,,,,,,,,MVFR,,,,,,,,,,,,METAR,6.0
VASD 060930Z 35005KT 5000 HZ SCT020 BKN080 33/15 Q1008 NOSIG,VASD,2023-05-06T09:30:00Z,19.68,74.38,33.0,15.0,350,5,,3.11,29.763779,,,,,,TRUE,,,,HZ,SCT,2000,BKN,8000,,,,,MVFR,,,,,,,,,,,,METAR,587.0
VAJB 060930Z 30006KT 6000 SCT025 36/17 Q1007 NOSIG,VAJB,2023-05-06T09:30:00Z,23.18,80.05,36.0,17.0,300,6,,3.73,29.734253,,,,,,TRUE,,,,,SCT,2500,,,,,,,MVFR,,,,,,,,,,,,METAR,489.0
UBBN 060930Z 19004KT 9999 SCT046 BKN100 26/01 Q1013 NOSIG RMK MT OP QFE685,UBBN,2023-05-06T09:30:00Z,39.18,45.45,26.0,1.0,190,4,,6.21,29.911417,,,,,,TRUE,,,,,SCT,4600,BKN,10000,,,,,VFR,,,,,,,,,,,,METAR,857.0
OPMT 060930Z 23012KT 5000 HZ NSC 34/19 Q1005 NOSIG,OPMT,2023-05-06T09:30:00Z,30.2,71.42,34.0,19.0,230,12,,3.11,29.675198,,,,,,TRUE,,,,HZ,CLR,,,,,,,,MVFR,,,,,,,,,,,,METAR,122.0
OPKC 060930Z 23012KT 6000 NSC 35/21 Q1007 NOSIG,OPKC,2023-05-06T09:30:00Z,24.9,67.13,35.0,21.0,230,12,,3.73,29.734253,,,,,,TRUE,,,,,CLR,,,,,,,,MVFR,,,,,,,,,,,,METAR,20.0
LWSK 060930Z VRB01KT 9999 SCT050 19/08 Q1017 NOSIG,LWSK,2023-05-06T09:30:00Z,41.97,21.63,19.0,8.0,0,1,,6.21,30.029528,,,,,,TRUE,,,,,SCT,5000,,,,,,,VFR,,,,,,,,,,,,METAR,232.0
LWOH 060930Z 15007KT 9999 FEW050 14/10 Q1017,LWOH,2023-05-06T09:30:00Z,41.18,20.75,14.0,10.0,150,7,,6.21,30.029528,,,,,,,,,,,FEW,5000,,,,,,,VFR,,,,,,,,,,,,METAR,700.0
LUKK 060930Z 04013KT 360V080 CAVOK 19/03 Q1021 NOSIG,LUKK,2023-05-06T09:30:00Z,46.93,28.93,19.0,3.0,40,13,,6.21,30.147638,,,,,,TRUE,,,,,CAVOK,,,,,,,,VFR,,,,,,,,,,,,METAR,102.0
LEMO 060930Z 24005KT 180V320 CAVOK 23/11 Q1016 NOSIG,LEMO,2023-05-06T09:30:00Z,37.17,-5.62,23.0,11.0,240,5,,6.21,30.0,,,,,,TRUE,,,,,CAVOK,,,,,,,,VFR,,,,,,,,,,,,METAR,82.0
LEJR 060930Z 19006KT 140V250 CAVOK 22/13 Q1017,LEJR,2023-05-06T09:30:00Z,36.75,-6.07,22.0,13.0,190,6,,6.21,30.029528,,,,,,,,,,,CAVOK,,,,,,,,VFR,,,,,,,,,,,,METAR,25.0
LBWN 060930Z 04011KT 360V100 9999 SCT045 20/11 Q1016 NOSIG,LBWN,2023-05-06T09:30:00Z,43.22,27.82,20.0,11.0,40,11,,6.21,30.0,,,,,,TRUE,,,,,SCT,4500,,,,,,,VFR,,,,,,,,,,,,METAR,74.0
LBSF 060930Z VRB03KT 9999 FEW048 BKN081 17/08 Q1019 NOSIG,LBSF,2023-05-06T09:30:00Z,42.65,23.37,17.0,8.0,0,3,,6.21,30.088583,,,,,,TRUE,,,,,FEW,4800,BKN,8100,,,,,VFR,,,,,,,,,,,,METAR,592.0
LBPD 060930Z AUTO 02005KT 340V070 9999 BKN057/// BKN087/// 20/09 Q1017 NOSIG,LBPD,2023-05-06T09:30:00Z,42.05,24.85,20.0,9.0,20,5,,6.21,30.029528,,,TRUE,,,TRUE,,,,,BKN,5700,BKN,8700,,,,,VFR,,,,,,,,,,,,METAR,182.0
LBGO 060930Z AUTO 32006KT 260V040 9999 BKN041/// 20/11 Q1018 NOSIG,LBGO,2023-05-06T09:30:00Z,43.15,25.72,20.0,11.0,320,6,,6.21,30.059055,,,TRUE,,,TRUE,,,,,BKN,4100,,,,,,,VFR,,,,,,,,,,,,METAR,84.0
LBBG 060930Z 06011KT 020V090 9999 FEW046 22/11 Q1016 NOSIG,LBBG,2023-05-06T09:30:00Z,42.57,27.52,22.0,11.0,60,11,,6.21,30.0,,,,,,TRUE,,,,,FEW,4600,,,,,,,VFR,,,,,,,,,,,,METAR,41.0
KS71 060930Z AUTO 09011G21KT 10SM 13/01 A2980 ,KS71,2023-05-06T09:30:00Z,48.6,-109.25,13.0,1.0,90,11,21,10.0,29.799213,,,TRUE,,,,,,,,,,,,,,,,,,,,,,,,,,,,METAR,736.0
KQFX 060930Z AUTO 06001KT 9999 FEW036 OVC060 12/10 A2983 RMK A02 TSNO,KQFX,2023-05-06T09:30:00Z,,,12.0,10.0,60,1,,6.21,29.828741,,,TRUE,TRUE,,,TRUE,,,,FEW,3600,OVC,6000,,,,,VFR,,,,,,,,,,,,METAR,
KQFV 060930Z AUTO 13003KT 9999 OVC065 11/07 A2992 RMK A02 TSNO,KQFV,2023-05-06T09:30:00Z,,,11.0,7.0,130,3,,6.21,29.920275,,,TRUE,TRUE,,,TRUE,,,,OVC,6500,,,,,,,VFR,,,,,,,,,,,,METAR,
KQFU 060930Z AUTO 05003KT 9999 OVC050 13/08 A2990 RMK A02 TSNO,KQFU,2023-05-06T09:30:00Z,,,13.0,8.0,50,3,,6.21,29.899607,,,TRUE,TRUE,,,TRUE,,,,OVC,5000,,,,,,,VFR,,,,,,,,,,,,METAR,
KQEW 060930Z AUTO 05003G11KT 9999 FEW007 OVC039 12/11 A2983 RMK A02 TSNO,KQEW,2023-05-06T09:30:00Z,,,12.0,11.0,50,3,11,6.21,29.828741,,,TRUE,TRUE,,,TRUE,,,,FEW,700,OVC,3900,,,,,VFR,,,,,,,,,,,,METAR,
KQEQ 060930Z AUTO 03004KT 9999 OVC055 13/07 A2989 RMK A02 TSNO,KQEQ,2023-05-06T09:30:00Z,,,13.0,7.0,30,4,,6.21,29.890747,,,TRUE,TRUE,,,TRUE,,,,OVC,5500,,,,,,,VFR,,,,,,,,,,,,METAR,
KQEP 060930Z AUTO 32001KT 9999 FEW031 BKN060 13/09 A2987 RMK A02 TSNO,KQEP,2023-05-06T09:30:00Z,,,13.0,9.0,320,1,,6.21,29.870079,,,TRUE,TRUE,,,TRUE,,,,FEW,3100,BKN,6000,,,,,VFR,,,,,,,,,,,,METAR,
KQEN 060930Z AUTO 16002KT M0400 -RA FG CLR 05/05 A2991 RMK A02 TSNO,KQEN,2023-05-06T09:30:00Z,,,5.0,5.0,160,2,,0.25,29.911417,,,TRUE,TRUE,,,TRUE,,,-RA FG,CLR,,,,,,,,LIFR,,,,,,,,,,,,METAR,
KHRF 060930Z AUTO 15004KT 5SM -RA BKN027 OVC038 09/08 A2983 RMK AO2 P0003 Hamilton ,KHRF,2023-05-06T09:30:00Z,46.25,-114.13,9.0,8.0,150,4,,5.0,29.828741,,,TRUE,TRUE,,,,,,-RA,BKN,2700,OVC,3800,,,,,MVFR,,,,,,0.03,,,,,,METAR,1112.0
KEZP 060930Z AUTO 18008KT 7SM OVC021 26/24 A2997 RMK A01,KEZP,2023-05-06T09:30:00Z,28.22,-92.8,26.0,24.0,180,8,,7.0,29.970472,,,TRUE,TRUE,,,,,,,OVC,2100,,,,,,,MVFR,,,,,,,,,,,,METAR,30.0
K3U3 060930Z AUTO 33008KT 10SM 08/03 A2981 ,K3U3,2023-05-06T09:30:00Z,46.15,-112.87,8.0,3.0,330,8,,10.0,29.811024,,,TRUE,,,,,,,,,,,,,,,,,,,,,,,,,,,,METAR,1534.0
K38S 060930Z AUTO 30017G22KT 10SM 08/04 A2982 ,K38S,2023-05-06T09:30:00Z,46.38,-112.77,8.0,4.0,300,17,22,10.0,29.819881,,,TRUE,,,,,,,,,,,,,,,,,,,,,,,,,,,,METAR,1430.0
K1S3 060930Z AUTO 03003KT 10SM 11/11 A2977 ,K1S3,2023-05-06T09:30:00Z,46.27,-106.62,11.0,11.0,30,3,,10.0,29.769686,,,TRUE,,,,,,,,,,,,,,,,,,,,,,,,,,,,METAR,831.0
HRYR 060930Z 15007KT 090V190 9999 BKN025 25/18 Q1022 NOSIG,HRYR,2023-05-06T09:30:00Z,-1.97,30.13,25.0,18.0,150,7,,6.21,30.177166,,,,,,TRUE,,,,,BKN,2500,,,,,,,MVFR,,,,,,,,,,,,METAR,1493.0
FMMI 060930Z 04008KT 360V060 9999 BKN020 25/13 Q1022 NOSIG,FMMI,2023-05-06T09:30:00Z,-18.8,47.47,25.0,13.0,40,8,,6.21,30.177166,,,,,,TRUE,,,,,BKN,2000,,,,,,,MVFR,,,,,,,,,,,,METAR,1269.0
DIAP 060930Z 27004KT 9999 SCT014 29/26 Q1013 NOSIG,DIAP,2023-05-06T09:30:00Z,5.25,-3.92,29.0,26.0,270,4,,6.21,29.911417,,,,,,TRUE,,,,,SCT,1400,,,,,,,VFR,,,,,,,,,,,,METAR,4.0
CYIN 060930Z AUTO VRB02KT 9SM -RA BKN055 OVC071 07/06 A2982 RMK SLP109,CYIN,2023-05-06T09:30:00Z,51.27,-121.68,7.0,6.0,0,2,,9.0,29.819881,1010.9,,TRUE,,,,,,,-RA,BKN,5500,OVC,7100,,,,,VFR,,,,,,,,,,,,SPECI,1127.0
BKPR 060930Z 04006KT 010V100 9999 FEW040 19/07 Q1018 NOSIG,BKPR,2023-05-06T09:30:00Z,42.58,21.03,19.0,7.0,40,6,,6.21,30.059055,,,,,,TRUE,,,,,FEW,4000,,,,,,,VFR,,,,,,,,,,,,METAR,545.0
KBOK 060929Z AUTO VRB04KT 10SM OVC007 08/08 A3002 RMK AO2 RAE17 CIG 003V010 P0001,KBOK,2023-05-06T09:29:00Z,42.07,-124.28,8.0,8.0,0,4,,10.0,30.02067,,,TRUE,TRUE,,,,,,,OVC,700,,,,,,,IFR,,,,,,0.01,,,,,,SPECI,140.0
CYXH 060929Z AUTO 07012KT 9SM SCT096 SCT120 BKN140 10/02 A2982 RMK PCPN 45.5MM PAST HR SLP109,CYXH,2023-05-06T09:29:00Z,50.02,-110.72,10.0,2.0,70,12,,9.0,29.819881,1010.9,,TRUE,,,,,,,,SCT,9600,SCT,12000,BKN,14000,,,VFR,,,,,,,,,,,,SPECI,717.0
CYMH 060929Z AUTO 33011G18KT 2 1/2SM -RA -UP BR SCT010 BKN013 OVC023 00/M00 A2983 RMK SLP102,CYMH,2023-05-06T09:29:00Z,52.3,-55.82,0.0,0.0,330,11,18,2.5,29.828741,1010.2,,TRUE,,,,,,,-RA BR UP,SCT,1000,BKN,1300,OVC,2300,,,IFR,,,,,,,,,,,,SPECI,18.0
CYHE 060929Z AUTO 28005KT 250V320 9SM -RA SCT011 BKN014 OVC045 10/09 A2993 RMK SLP138,CYHE,2023-05-06T09:29:00Z,49.37,-121.5,10.0,9.0,280,5,,9.0,29.929134,1013.8,,TRUE,,,,,,,-RA,SCT,1100,BKN,1400,OVC,4500,,,MVFR,,,,,,,,,,,,SPECI,43.0
CYCA 060929Z AUTO 34012G18KT 9SM OVC009 M01/M02 A2992 RMK SLP133,CYCA,2023-05-06T09:29:00Z,53.68,-57.03,-1.0,-2.0,340,12,18,9.0,29.920275,1013.3,,TRUE,,,,,,,,OVC,900,,,,,,,IFR,,,,,,,,,,,,SPECI,12.0
KTUP 060928Z AUTO 16007KT 10SM OVC015 18/13 A3008 RMK AO2 T01830133 $,KTUP,2023-05-06T09:28:00Z,34.27,-88.77,18.3,13.3,160,7,,10.0,30.079725,,,TRUE,TRUE,TRUE,,,,,,OVC,1500,,,,,,,MVFR,,,,,,,,,,,,SPECI,107.0
KTCL 060928Z AUTO VRB06KT 10SM BKN022 OVC080 17/12 A3011 RMK AO2 T01720122,KTCL,2023-05-06T09:28:00Z,33.22,-87.62,17.2,12.2,0,6,,10.0,30.109253,,,TRUE,TRUE,,,,,,,BKN,2200,OVC,8000,,,,,MVFR,,,,,,,,,,,,SPECI,48.0
KMMK 060928Z AUTO 00000KT 1 3/4SM BR FEW002 04/03 A3023 RMK AO2 VIS 1V5 T00440028,KMMK,2023-05-06T09:28:00Z,41.52,-72.83,4.4,2.8,0,0,,1.75,30.230314,,,TRUE,TRUE,,,,,,BR,FEW,200,,,,,,,IFR,,,,,,,,,,,,SPECI,30.0
KFLP 060928Z AUTO 11004KT 10SM OVC009 18/17 A2995 RMK AO2,KFLP,2023-05-06T09:28:00Z,36.28,-92.58,18.0,17.0,110,4,,10.0,29.949802,,,TRUE,TRUE,,,,,,,OVC,900,,,,,,,IFR,,,,,,,,,,,,SPECI,215.0
KCMX 060928Z AUTO 11010G18KT 10SM -RA FEW003 BKN048 OVC075 07/06 A3012 RMK AO2 RAB11 P0000 T00670056,KCMX,2023-05-06T09:28:00Z,47.17,-88.48,6.7,5.6,110,10,18,10.0,30.121063,,,TRUE,TRUE,,,,,,-RA,FEW,300,BKN,4800,OVC,7500,,,VFR,,,,,,0.005,,,,,,SPECI,326.0
KBFF 060928Z AUTO 00000KT 2SM BR FEW005 07/06 A2986 RMK AO2 T00670056 $,KBFF,2023-05-06T09:28:00Z,41.87,-103.6,6.7,5.6,0,0,,2.0,29.861221,,,TRUE,TRUE,TRUE,,,,,BR,FEW,500,,,,,,,IFR,,,,,,,,,,,,SPECI,1204.0
KAWM 060928Z AUTO 14008KT 10SM BKN028 OVC060 18/14 A3001 RMK AO2 T01780139,KAWM,2023-05-06T09:28:00Z,35.13,-90.23,17.8,13.9,140,8,,10.0,30.008858,,,TRUE,TRUE,,,,,,,BKN,2800,OVC,6000,,,,,MVFR,,,,,,,,,,,,SPECI,64.0
CYPQ 060928Z AUTO 00000KT 1 1/2SM BR CLR 01/01 A3031 RMK VIS VRB 3/4-3 SLP275,CYPQ,2023-05-06T09:28:00Z,44.22,-78.37,1.0,1.0,0,0,,1.5,30.31004,1027.5,,TRUE,,,,,,,BR,CLR,,,,,,,,IFR,,,,,,,,,,,,SPECI,190.0
RJCO 060927Z 30020KT 9999 FEW030 SCT040 BKN050 09/06 Q1010 RMK 1CU030 3CU040 6CU050 A2984,RJCO,2023-05-06T09:27:00Z,43.12,141.37,9.0,6.0,300,20,,6.21,29.822834,,,,,,,,,,,FEW,3000,SCT,4000,BKN,5000,,,VFR,,,,,,,,,,,,SPECI,7.0
KSSF 060927Z AUTO 11009KT 6SM BR FEW020 OVC031 25/23 A2989 RMK AO2 T02500228 $,KSSF,2023-05-06T09:27:00Z,29.33,-98.47,25.0,22.8,110,9,,6.0,29.890747,,,TRUE,TRUE,TRUE,,,,,BR,FEW,2000,OVC,3100,,,,,VFR,,,,,,,,,,,,SPECI,175.0
KRBL 060927Z AUTO 14010KT 10SM SCT008 BKN013 OVC080 11/09 A3002 RMK AO2 RAB0859E17 P0000 T01060089,KRBL,2023-05-06T09:27:00Z,40.15,-122.25,10.6,8.9,140,10,,10.0,30.02067,,,TRUE,TRUE,,,,,,,SCT,800,BKN,1300,OVC,8000,,,MVFR,,,,,,0.005,,,,,,SPECI,107.0
KLWC 060927Z AUTO 13010KT 5SM BR OVC009 18/16 A2981 RMK AO1 T01780161,KLWC,2023-05-06T09:27:00Z,39.02,-95.22,17.8,16.1,130,10,,5.0,29.811024,,,TRUE,TRUE,,,,,,BR,OVC,900,,,,,,,IFR,,,,,,,,,,,,SPECI,252.0
KHFD 060927Z AUTO 00000KT 3SM BR CLR 06/04 A3023 RMK AO2 T00560044,KHFD,2023-05-06T09:27:00Z,41.73,-72.65,5.6,4.4,0,0,,3.0,30.230314,,,TRUE,TRUE,,,,,,BR,CLR,,,,,,,,MVFR,,,,,,,,,,,,SPECI,3.0
KGED 060927Z AUTO 00000KT 1 1/4SM BR OVC001 08/06 A3028 RMK AO2 T00780061,KGED,2023-05-06T09:27:00Z,38.68,-75.37,7.8,6.1,0,0,,1.25,30.280512,,,TRUE,TRUE,,,,,,BR,OVC,100,,,,,,,LIFR,,,,,,,,,,,,SPECI,15.0
KDDH 060927Z AUTO 00000KT 8SM SCT001 02/00 A3025 RMK AO2 T00170000 PNO $,KDDH,2023-05-06T09:27:00Z,42.9,-73.25,1.7,0.0,0,0,,8.0,30.250984,,,TRUE,TRUE,TRUE,,,,,,SCT,100,,,,,,,VFR,,,,,,,,,,,,SPECI,241.0
KOLM 060926Z AUTO 00000KT 1 1/4SM BR FEW004 OVC060 07/07 A2997 RMK AO2 T00720072,KOLM,2023-05-06T09:26:00Z,46.97,-122.9,7.2,7.2,0,0,,1.25,29.970472,,,TRUE,TRUE,,,,,,BR,FEW,400,OVC,6000,,,,,IFR,,,,,,,,,,,,SPECI,58.0
KMLU 060926Z AUTO 13004KT 10SM BKN011 BKN017 OVC023 23/22 A2997 RMK AO2 CIG 008V014 T02330217,KMLU,2023-05-06T09:26:00Z,32.52,-92.03,23.3,21.7,130,4,,10.0,29.970472,,,TRUE,TRUE,,,,,,,BKN,1100,BKN,1700,OVC,2300,,,MVFR,,,,,,,,,,,,SPECI,22.0
KMKL 060926Z AUTO 15004KT 10SM SCT015 OVC070 14/13 A3007 RMK AO2 T01440133,KMKL,2023-05-06T09:26:00Z,35.6,-88.92,14.4,13.3,150,4,,10.0,30.070866,,,TRUE,TRUE,,,,,,,SCT,1500,OVC,7000,,,,,VFR,,,,,,,,,,,,SPECI,130.0
KLIT 060926Z 12007KT 10SM OVC009 20/17 A2997 RMK AO2 T02000172,KLIT,2023-05-06T09:26:00Z,34.73,-92.23,20.0,17.2,120,7,,10.0,29.970472,,,,TRUE,,,,,,,OVC,900,,,,,,,IFR,,,,,,,,,,,,SPECI,77.0
KLCH 060926Z AUTO 22004KT 6SM -TSRA BR FEW007 SCT012 OVC049 23/23 A2997 RMK AO2 LTG DSNT ALQDS RAB16 TSB20 P0001 T02330233,KLCH,2023-05-06T09:26:00Z,30.13,-93.22,23.3,23.3,220,4,,6.0,29.970472,,,TRUE,TRUE,,,,,,-TSRA BR,FEW,700,SCT,1200,OVC,4900,,,VFR,,,,,,0.01,,,,,,SPECI,2.0
KJMS 060926Z AUTO 07011KT 10SM BKN024 08/05 A2991 RMK AO2 T00830050,KJMS,2023-05-06T09:26:00Z,46.93,-98.67,8.3,5.0,70,11,,10.0,29.911417,,,TRUE,TRUE,,,,,,,BKN,2400,,,,,,,MVFR,,,,,,,,,,,,SPECI,455.0
KHYI 060926Z AUTO 15007KT 10SM SCT013 OVC035 21/18 A2994 RMK AO2,KHYI,2023-05-06T09:26:00Z,29.88,-97.87,21.0,18.0,150,7,,10.0,29.940945,,,TRUE,TRUE,,,,,,,SCT,1300,OVC,3500,,,,,VFR,,,,,,,,,,,,SPECI,180.0
KFOK 060926Z AUTO 00000KT SCT002 02/01 A3024 RMK AO2 T00170006 $,KFOK,2023-05-06T09:26:00Z,40.85,-72.62,1.7,0.6,0,0,,,30.239174,,,TRUE,TRUE,TRUE,,,,,,SCT,200,,,,,,,,,,,,,,,,,,,SPECI,13.0
KAIT 060926Z AUTO 07009G14KT 10SM BKN010 OVC024 07/06 A3001 RMK AO2,KAIT,2023-05-06T09:26:00Z,46.53,-93.67,7.0,6.0,70,9,14,10.0,30.008858,,,TRUE,TRUE,,,,,,,BKN,1000,OVC,2400,,,,,MVFR,,,,,,,,,,,,SPECI,367.0
CWWU 060926Z 32011G17KT 15SM -SHSN BKN017 OVC031 00/M01 A2969 RMK SC7SC1 FLRYS SLP054,CWWU,2023-05-06T09:26:00Z,47.52,-52.98,0.0,-1.0,320,11,17,15.0,29.68996,1005.4,,,,,,,,,-SHSN,BKN,1700,OVC,3100,,,,,MVFR,,,,,,,,,,,,SPECI,2.0
RKJK 060925Z AUTO 06012KT 7SM SCT007 OVC016 14/14 A2967 RMK AO2 CIG 007V016 CIG 006 RWY18 SLP052 $,RKJK,2023-05-06T09:25:00Z,35.9,126.62,14.0,14.0,60,12,,7.0,29.66929,1005.2,,TRUE,TRUE,TRUE,,,,,,SCT,700,OVC,1600,,,,,MVFR,,,,,,,,,,,,SPECI,8.0
PHHI 060925Z AUTO 07005KT 10SM FEW008 FEW012 SCT025 BKN036 BKN055 20/17 A3011 RMK AO2 DZB24E25 SLP187 $,PHHI,2023-05-06T09:25:00Z,21.48,-158.05,20.0,17.0,70,5,,10.0,30.109253,1018.7,,TRUE,TRUE,TRUE,,,,,,FEW,800,FEW,1200,SCT,2500,BKN,3600,VFR,,,,,,,,,,,,SPECI,246.0
PHBK 060925Z AUTO 08004KT 10SM BKN050 21/17 A3006 RMK AO2 T02110167,PHBK,2023-05-06T09:25:00Z,22.03,-159.78,21.1,16.7,80,4,,10.0,30.059055,,,TRUE,TRUE,,,,,,,BKN,5000,,,,,,,VFR,,,,,,,,,,,,SPECI,5.0
PAFM 060925Z AUTO 01009KT 10SM BKN011 BKN021 OVC043 00/M02 A3000 RMK AO2 FZRANO,PAFM,2023-05-06T09:25:00Z,67.1,-157.85,0.0,-2.0,10,9,,10.0,30.0,,,TRUE,TRUE,,,,TRUE,,,BKN,1100,BKN,2100,OVC,4300,,,MVFR,,,,,,,,,,,,SPECI,79.0
OPLA 060925Z 23008KT 7000 FEW100 35/18 Q1006 NOSIG RMK QFE980 A29.71,OPLA,2023-05-06T09:25:00Z,31.52,74.4,35.0,18.0,230,8,,4.35,29.704725,,,,,,TRUE,,,,,FEW,10000,,,,,,,MVFR,,,,,,,,,,,,METAR,217.0
KT70 060925Z AUTO 10014KT 10SM SCT014 BKN021 25/23 A2985 RMK AO2 CIG 014V021 SLP093 $,KT70,2023-05-06T09:25:00Z,29.12,-100.48,25.0,23.0,100,14,,10.0,29.84941,1009.3,,TRUE,TRUE,TRUE,,,,,,SCT,1400,BKN,2100,,,,,MVFR,,,,,,,,,,,,SPECI,296.0
KS85 060925Z AUTO 07013G18KT 10SM 11/04 A2989 RMK A01 Culbertson ,KS85,2023-05-06T09:25:00Z,48.15,-104.5,11.0,4.0,70,13,18,10.0,29.890747,,,TRUE,TRUE,,,,,,,,,,,,,,,,,,,,,,,,,,,METAR,596.0
KRME 060925Z 00000KT 10SM FEW003 02/02 A3031 RMK AO2 T00220017,KRME,2023-05-06T09:25:00Z,43.22,-75.4,2.2,1.7,0,0,,10.0,30.31004,,,,TRUE,,,,,,,FEW,300,,,,,,,VFR,,,,,,,,,,,,SPECI,146.0
KPIR 060925Z AUTO 08004KT 10SM FEW060 SCT070 OVC100 13/09 A2972 RMK AO2 LTG DSNT NW T01330089,KPIR,2023-05-06T09:25:00Z,44.38,-100.28,13.3,8.9,80,4,,10.0,29.719488,,,TRUE,TRUE,,,,,,,FEW,6000,SCT,7000,OVC,10000,,,VFR,,,,,,,,,,,,SPECI,524.0
KOTH 060925Z AUTO 14004KT 10SM BKN004 09/09 A2998 RMK AO2,KOTH,2023-05-06T09:25:00Z,43.42,-124.25,9.0,9.0,140,4,,10.0,29.97933,,,TRUE,TRUE,,,,,,,BKN,400,,,,,,,LIFR,,,,,,,,,,,,SPECI,3.0
KNMM 060925Z AUTO 11003KT 10SM OVC009 18/17 A3008 RMK AO2 T01780167 ,KNMM,2023-05-06T09:25:00Z,32.53,-88.53,17.8,16.7,110,3,,10.0,30.079725,,,TRUE,TRUE,,,,,,,OVC,900,,,,,,,IFR,,,,,,,,,,,,SPECI,94.0
KCOF 060925Z AUTO 11008KT 10SM SCT028 24/19 A3005 RMK AO2 SLP180 $,KCOF,2023-05-06T09:25:00Z,28.23,-80.6,24.0,19.0,110,8,,10.0,30.050198,1018.0,,TRUE,TRUE,TRUE,,,,,,SCT,2800,,,,,,,VFR,,,,,,,,,,,,SPECI,1.0
KCNK 060925Z AUTO 17011G28KT 150V030 9SM BKN009 21/18 A2971 RMK AO2 PK WND 35028/0920 CIG 008V014 T02110183,KCNK,2023-05-06T09:25:00Z,39.55,-97.65,21.1,18.3,170,11,28,9.0,29.71063,,,TRUE,TRUE,,,,,,,BKN,900,,,,,,,IFR,,,,,,,,,,,,SPECI,445.0
KCFV 060925Z AUTO 17007KT 7SM OVC009 21/19 A2981 RMK AO2 T02110194,KCFV,2023-05-06T09:25:00Z,37.08,-95.57,21.1,19.4,170,7,,7.0,29.811024,,,TRUE,TRUE,,,,,,,OVC,900,,,,,,,IFR,,,,,,,,,,,,SPECI,228.0
KBPT 060925Z 34011G36KT 3/4SM R12/1200V5500FT +TSRA BR FEW006 BKN017 OVC027 19/19 A2996 RMK AO2 PK WND 33036/0917 WSHFT 0911 LTG DSNT ALQDS RAB0857 TSB03 PRESFR P0084 T01940194 $,KBPT,2023-05-06T09:25:00Z,29.95,-94.03,19.4,19.4,340,11,36,0.75,29.958662,,,,TRUE,TRUE,,,,,+TSRA BR,FEW,600,BKN,1700,OVC,2700,,,LIFR,,,,,,0.84,,,,,,SPECI,6.0
KARA 060925Z AUTO 19007KT 9SM BKN009 BKN017 OVC023 25/23 A2997 RMK AO2 CIG 008V012 T02500228,KARA,2023-05-06T09:25:00Z,30.03,-91.88,25.0,22.8,190,7,,9.0,29.970472,,,TRUE,TRUE,,,,,,,BKN,900,BKN,1700,OVC,2300,,,IFR,,,,,,,,,,,,SPECI,5.0
KAQV 060925Z AUTO 00000KT 6SM TS BR BKN033 BKN050 OVC070 23/22 A2995 RMK AO2 RAB07E17 TSB19 P0000 T02330217,KAQV,2023-05-06T09:25:00Z,31.4,-93.3,23.3,21.7,0,0,,6.0,29.949802,,,TRUE,TRUE,,,,,,TS BR,BKN,3300,BKN,5000,OVC,7000,,,VFR,,,,,,0.005,,,,,,SPECI,123.0
K6S8 060925Z AUTO 24005KT 10SM 07/07 A2981 RMK A01 Laurel ,K6S8,2023-05-06T09:25:00Z,45.7,-108.77,7.0,7.0,240,5,,10.0,29.811024,,,TRUE,TRUE,,,,,,,,,,,,,,,,,,,,,,,,,,,METAR,1072.0
K4U6 060925Z AUTO 10020KT 10SM 12/01 A2983 RMK A01 Circle ,K4U6,2023-05-06T09:25:00Z,47.42,-105.57,12.0,1.0,100,20,,10.0,29.828741,,,TRUE,TRUE,,,,,,,,,,,,,,,,,,,,,,,,,,,METAR,739.0
ETAD 060925Z 22004KT 9999 FEW016 BKN080 BKN150 16/12 A3004 RMK AO2A SLP164,ETAD,2023-05-06T09:25:00Z,49.98,6.7,16.0,12.0,220,4,,6.21,30.041338,1016.4,,,TRUE,,,,,,,FEW,1600,BKN,8000,BKN,15000,,,VFR,,,,,,,,,,,,SPECI,365.0
EHWO 060925Z AUTO 11005KT 070V200 9999 BKN024 OVC088 18/11 Q1016 WHT,EHWO,2023-05-06T09:25:00Z,51.45,4.33,18.0,11.0,110,5,,6.21,30.0,,,TRUE,,,,,,,,BKN,2400,OVC,8800,,,,,MVFR,,,,,,,,,,,,METAR,15.0
EHVL 060925Z AUTO 14006KT 120V180 3800 BR FEW007 OVC009 14/12 Q1017 GRN,EHVL,2023-05-06T09:25:00Z,53.28,5.08,14.0,12.0,140,6,,2.36,30.029528,,,TRUE,,,,,,,BR,FEW,700,OVC,900,,,,,IFR,,,,,,,,,,,,METAR,2.0
EHVK 060925Z AUTO 17004KT 100V200 9999 OVC200 17/12 Q1017 BLU,EHVK,2023-05-06T09:25:00Z,51.65,5.7,17.0,12.0,170,4,,6.21,30.029528,,,TRUE,,,,,,,,OVC,20000,,,,,,,VFR,,,,,,,,,,,,METAR,20.0
EHSC 060925Z AUTO 16005KT 9999 ///////// 13/12 Q1017 W11/H4,EHSC,2023-05-06T09:25:00Z,51.93,3.67,13.0,12.0,160,5,,6.21,30.029528,,,TRUE,,,,,,,,,,,,,,,,,,,,,,,,,,,,METAR,19.0
EHSA 060925Z AUTO 15009KT 7000 ///////// 12/11 Q1016 W09/H5,EHSA,2023-05-06T09:25:00Z,52.0,3.28,12.0,11.0,150,9,,4.35,30.0,,,TRUE,,,,,,,,,,,,,,,,,,,,,,,,,,,,METAR,18.0
EHRD 060925Z AUTO VRB03KT 4200 HZ FEW023 18/13 Q1016 NOSIG,EHRD,2023-05-06T09:25:00Z,51.95,4.45,18.0,13.0,0,3,,2.61,30.0,,,TRUE,,,TRUE,,,,HZ,FEW,2300,,,,,,,IFR,,,,,,,,,,,,METAR,-4.0
EHPG 060925Z AUTO 17008KT 9999 NSC 12/11 Q1016,EHPG,2023-05-06T09:25:00Z,52.37,3.35,12.0,11.0,170,8,,6.21,30.0,,,TRUE,,,,,,,,CLR,,,,,,,,VFR,,,,,,,,,,,,METAR,24.0
EHMG 060925Z AUTO 18009KT 2800 BR FEW002 BKN004 12/11 Q1017,EHMG,2023-05-06T09:25:00Z,53.62,4.97,12.0,11.0,180,9,,1.74,30.029528,,,TRUE,,,,,,,BR,FEW,200,BKN,400,,,,,LIFR,,,,,,,,,,,,METAR,30.0
EHMA 060925Z AUTO 10008KT //// // NSC 14/11 Q1017 RE//,EHMA,2023-05-06T09:25:00Z,53.5,5.95,14.0,11.0,100,8,,,30.029528,,,TRUE,,,,,,,,CLR,,,,,,,,,,,,,,,,,,,,METAR,27.0
EHLW 060925Z AUTO 18005KT 120V260 9999 SCT280 17/13 Q1017 BLU,EHLW,2023-05-06T09:25:00Z,53.22,5.75,17.0,13.0,180,5,,6.21,30.029528,,,TRUE,,,,,,,,SCT,28000,,,,,,,VFR,,,,,,,,,,,,METAR,1.0
EHLE 060925Z AUTO 14004KT 080V190 9999 FEW012 SCT023 17/13 Q1017 NOSIG,EHLE,2023-05-06T09:25:00Z,52.45,5.52,17.0,13.0,140,4,,6.21,30.029528,,,TRUE,,,TRUE,,,,,FEW,1200,SCT,2300,,,,,VFR,,,,,,,,,,,,METAR,-3.0
EHKV 060925Z AUTO 24011KT 9999 NSC 11/10 Q1016,EHKV,2023-05-06T09:25:00Z,53.27,3.63,11.0,10.0,240,11,,6.21,30.0,,,TRUE,,,,,,,,CLR,,,,,,,,VFR,,,,,,,,,,,,METAR,28.0
EHKD 060925Z AUTO 23005KT 140V280 9999 OVC220 16/12 Q1016 BLU NOSIG,EHKD,2023-05-06T09:25:00Z,52.92,4.77,16.0,12.0,230,5,,6.21,30.0,,,TRUE,,,TRUE,,,,,OVC,22000,,,,,,,VFR,,,,,,,,,,,,SPECI,1.0
EHJR 060925Z AUTO 23006KT //// // ///////// 11/10 Q1016 RE// W10/H9,EHJR,2023-05-06T09:25:00Z,53.22,3.22,11.0,10.0,230,6,,,30.0,,,TRUE,,,,,,,,,,,,,,,,,,,,,,,,,,,,METAR,31.0
EHJA 060925Z AUTO 16007KT 9999 NSC 11/10 Q1015,EHJA,2023-05-06T09:25:00Z,53.82,2.95,11.0,10.0,160,7,,6.21,29.970472,,,TRUE,,,,,,,,CLR,,,,,,,,VFR,,,,,,,,,,,,METAR,34.0
EHHW 060925Z AUTO 10011KT 3500 BR SCT000/// SCT001/// BKN003/// 10/09 Q1017,EHHW,2023-05-06T09:25:00Z,54.03,6.03,10.0,9.0,100,11,,2.17,30.029528,,,TRUE,,,,,,,BR,SCT,0,SCT,100,BKN,300,,,LIFR,,,,,,,,,,,,METAR,10.0
EHGR 060925Z AUTO 13004KT 070V200 9999 FEW022 OVC180 18/13 Q1016 BLU,EHGR,2023-05-06T09:25:00Z,51.55,4.93,18.0,13.0,130,4,,6.21,30.0,,,TRUE,,,,,,,,FEW,2200,OVC,18000,,,,,VFR,,,,,,,,,,,,METAR,12.0
EHGG 060925Z AUTO 09006KT 050V150 9999 SCT015 BKN018 16/13 Q1017 NOSIG,EHGG,2023-05-06T09:25:00Z,53.12,6.57,16.0,13.0,90,6,,6.21,30.029528,,,TRUE,,,TRUE,,,,,SCT,1500,BKN,1800,,,,,MVFR,,,,,,,,,,,,METAR,2.0
EHFD 060925Z AUTO 10016KT 4800 BR OVC002/// 09/08 Q1017,EHFD,2023-05-06T09:25:00Z,54.85,4.7,9.0,8.0,100,16,,2.98,30.029528,,,TRUE,,,,,,,BR,OVC,200,,,,,,,LIFR,,,,,,,,,,,,METAR,24.0
EHEH 060925Z AUTO VRB03KT 9999 OVC190 18/11 Q1017 BLU NOSIG,EHEH,2023-05-06T09:25:00Z,51.45,5.38,18.0,11.0,0,3,,6.21,30.029528,,,TRUE,,,TRUE,,,,,OVC,19000,,,,,,,VFR,,,,,,,,,,,,SPECI,20.0
EHDV 060925Z AUTO 11014KT 4900 HZ SCT000/// 10/// Q1016,EHDV,2023-05-06T09:25:00Z,54.32,2.93,,,110,14,,3.04,30.0,,,TRUE,,,,,,,HZ,SCT,0,,,,,,,MVFR,,,,,,,,,,,,METAR,36.0
EHDL 060925Z AUTO 15003KT 120V260 9999 BKN082 OVC088 16/11 Q1017 BLU,EHDL,2023-05-06T09:25:00Z,52.07,5.88,16.0,11.0,150,3,,6.21,30.029528,,,TRUE,,,,,,,,BKN,8200,OVC,8800,,,,,VFR,,,,,,,,,,,,METAR,49.0
EHBK 060925Z AUTO 22005KT 160V260 9999 NSC 18/11 Q1017 NOSIG,EHBK,2023-05-06T09:25:00Z,50.92,5.77,18.0,11.0,220,5,,6.21,30.029528,,,TRUE,,,TRUE,,,,,CLR,,,,,,,,VFR,,,,,,,,,,,,METAR,112.0
EHAM 060925Z 16004KT 090V240 9999 FEW021 18/11 Q1016 NOSIG,EHAM,2023-05-06T09:25:00Z,52.32,4.78,18.0,11.0,160,4,,6.21,30.0,,,,,,TRUE,,,,,FEW,2100,,,,,,,VFR,,,,,,,,,,,,METAR,-2.0
EHAK 060925Z AUTO 11018KT 060V130 9000 BKN001/// OVC002/// 08/08 Q1017,EHAK,2023-05-06T09:25:00Z,55.38,3.82,8.0,8.0,110,18,,5.59,30.029528,,,TRUE,,,,,,,,BKN,100,OVC,200,,,,,LIFR,,,,,,,,,,,,METAR,33.0
EGUN 060925Z 14008KT 9999 FEW016 BKN028 OVC040 15/15 A2995 RMK AO2A CIG 026 RWY28 SLP145 $,EGUN,2023-05-06T09:25:00Z,52.37,0.48,15.0,15.0,140,8,,6.21,29.949802,1014.5,,,TRUE,TRUE,,,,,,FEW,1600,BKN,2800,OVC,4000,,,MVFR,,,,,,,,,,,,SPECI,10.0
PAVC 060924Z AUTO 34014G31KT 10SM BKN027 OVC032 00/M05 A3010 RMK AO2 PK WND 01031/0915 FZRANO PNO $,PAVC,2023-05-06T09:24:00Z,55.12,-162.27,0.0,-5.0,340,14,31,10.0,30.100393,,,TRUE,TRUE,TRUE,,,TRUE,,,BKN,2700,OVC,3200,,,,,MVFR,,,,,,,,,,,,SPECI,48.0
PASY 060924Z 13028G32KT 5SM -RA BR OVC006 04/04 A2956 RMK AO2A SLP014 PNO FZRANO $,PASY,2023-05-06T09:24:00Z,52.72,174.12,4.0,4.0,130,28,32,5.0,29.56004,1001.4,,,TRUE,TRUE,,,TRUE,,-RA BR,OVC,600,,,,,,,IFR,,,,,,,,,,,,SPECI,6.0
PAQT 060924Z AUTO 08011KT 1 3/4SM UP BR OVC003 M08/M09 A3006 RMK AO2 VIS 3/4V5 UPB12 P0000 I1000 T10781089,PAQT,2023-05-06T09:24:00Z,70.22,-151.0,-7.8,-8.9,80,11,,1.75,30.059055,,,TRUE,TRUE,,,,,,BR UP,OVC,300,,,,,,,LIFR,,,,,,0.005,,,,,,SPECI,11.0
KPSF 060924Z AUTO 00000KT 1/4SM FG VV001 01/01 A3024 RMK AO2 T00110006,KPSF,2023-05-06T09:24:00Z,42.43,-73.28,1.1,0.6,0,0,,0.25,30.239174,,,TRUE,TRUE,,,,,,FG,OVX,0,,,,,,,LIFR,,,,,,,,,,,100,SPECI,352.0
KPRX 060924Z AUTO 12008KT 2 1/2SM -RA BR SCT002 22/22 A2987 RMK AO2 P0000,KPRX,2023-05-06T09:24:00Z,33.63,-95.45,22.0,22.0,120,8,,2.5,29.870079,,,TRUE,TRUE,,,,,,-RA BR,SCT,200,,,,,,,IFR,,,,,,0.005,,,,,,METAR,165.0
KPIB 060924Z AUTO 10003KT 1SM -RA OVC002 19/ A3006 RMK AO2 RAB05 RVRNO PNO $,KPIB,2023-05-06T09:24:00Z,31.47,-89.33,19.0,,100,3,,1.0,30.059055,,,TRUE,TRUE,TRUE,,,,,-RA,OVC,200,,,,,,,LIFR,,,,,,,,,,,,METAR,91.0
KNBG 060924Z AUTO 17004KT 9SM SCT008 24/23 A3000 RMK AO2 T02440228 $,KNBG,2023-05-06T09:24:00Z,29.83,-90.02,24.4,22.8,170,4,,9.0,30.0,,,TRUE,TRUE,TRUE,,,,,,SCT,800,,,,,,,VFR,,,,,,,,,,,,SPECI,0.0
KMCB 060924Z AUTO 11004KT 3/4SM BR VV002 20/20 A3001 RMK AO2 T02000200,KMCB,2023-05-06T09:24:00Z,31.18,-90.47,20.0,20.0,110,4,,0.75,30.008858,,,TRUE,TRUE,,,,,,BR,OVX,0,,,,,,,LIFR,,,,,,,,,,,200,SPECI,124.0
YHID 060923Z AUTO 16005KT 9999 // SCT014 SCT027 BKN068 27/26 Q1009,YHID,2023-05-06T09:23:00Z,-10.58,142.3,27.0,26.0,160,5,,6.21,29.793306,,,TRUE,,,,,,,,SCT,1400,SCT,2700,BKN,6800,,,VFR,,,,,,,,,,,,SPECI,5.0
RKTE 060923Z 03004KT 9999 SCT020 OVC050 14/12 A2977 RMK CIG050,RKTE,2023-05-06T09:23:00Z,36.57,127.5,14.0,12.0,30,4,,6.21,29.769686,,,,,,,,,,,SCT,2000,OVC,5000,,,,,VFR,,,,,,,,,,,,SPECI,78.0
PPIZ 060923Z AUTO 35004KT 8SM -SN SCT020 BKN027 OVC032 M07/M07 A3006 RMK AO2 P0000 FZRANO,PPIZ,2023-05-06T09:23:00Z,69.73,-163.0,-7.0,-7.0,350,4,,8.0,30.059055,,,TRUE,TRUE,,,,TRUE,,-SN,SCT,2000,BKN,2700,OVC,3200,,,MVFR,,,,,,0.005,,,,,,SPECI,5.0
KRKP 060923Z AUTO 09011KT 5SM BR SCT006 BKN025 BKN031 25/24 A2992 RMK AO2 T02500244,KRKP,2023-05-06T09:23:00Z,28.08,-97.05,25.0,24.4,90,11,,5.0,29.920275,,,TRUE,TRUE,,,,,,BR,SCT,600,BKN,2500,BKN,3100,,,MVFR,,,,,,,,,,,,METAR,8.0
KPDT 060923Z AUTO 26007KT 10SM -RA OVC033 11/05 A2992 RMK AO2 RAB14 P0000 T01060050,KPDT,2023-05-06T09:23:00Z,45.7,-118.83,10.6,5.0,260,7,,10.0,29.920275,,,TRUE,TRUE,,,,,,-RA,OVC,3300,,,,,,,VFR,,,,,,0.005,,,,,,SPECI,453.0
KHIF 060923Z AUTO 17011KT 10SM -RA FEW005 FEW022 BKN033 OVC041 07/04 A2994 RMK AO2 RAB00E20RAB23 SLP114,KHIF,2023-05-06T09:23:00Z,41.12,-111.97,7.0,4.0,170,11,,10.0,29.940945,1011.4,,TRUE,TRUE,,,,,,-RA,FEW,500,FEW,2200,BKN,3300,OVC,4100,VFR,,,,,,,,,,,,SPECI,1461.0
KGON 060923Z AUTO 00000KT 1 3/4SM BR CLR 05/03 A3020 RMK AO2 T00500028,KGON,2023-05-06T09:23:00Z,41.33,-72.05,5.0,2.8,0,0,,1.75,30.200787,,,TRUE,TRUE,,,,,,BR,CLR,,,,,,,,IFR,,,,,,,,,,,,SPECI,2.0
KFWN 060923Z AUTO 00000KT 3SM BR OVC002 03/02 A3027 RMK AO2 T00280022,KFWN,2023-05-06T09:23:00Z,41.2,-74.63,2.8,2.2,0,0,,3.0,30.268702,,,TRUE,TRUE,,,,,,BR,OVC,200,,,,,,,LIFR,,,,,,,,,,,,METAR,129.0
KEWK 060923Z AUTO 15010KT 7SM FEW013 SCT020 22/22 A2974 RMK AO2,KEWK,2023-05-06T09:23:00Z,38.05,-97.27,22.0,22.0,150,10,,7.0,29.740158,,,TRUE,TRUE,,,,,,,FEW,1300,SCT,2000,,,,,VFR,,,,,,,,,,,,METAR,468.0
KESF 060923Z AUTO 23003KT 6SM BR SCT009 BKN013 OVC028 23/23 A2998 RMK AO2 T02330233,KESF,2023-05-06T09:23:00Z,31.4,-92.28,23.3,23.3,230,3,,6.0,29.97933,,,TRUE,TRUE,,,,,,BR,SCT,900,BKN,1300,OVC,2800,,,MVFR,,,,,,,,,,,,SPECI,27.0
KBRO 060923Z AUTO 15010KT 7SM SCT019 26/24 A2984 RMK AO2 T02610244 $,KBRO,2023-05-06T09:23:00Z,25.92,-97.42,26.1,24.4,150,10,,7.0,29.840551,,,TRUE,TRUE,TRUE,,,,,,SCT,1900,,,,,,,VFR,,,,,,,,,,,,SPECI,6.0
KWAL 060922Z AUTO 00000KT 10SM FEW003 08/07 A3027 RMK AO2 T00830072,KWAL,2023-05-06T09:22:00Z,37.93,-75.47,8.3,7.2,0,0,,10.0,30.268702,,,TRUE,TRUE,,,,,,,FEW,300,,,,,,,VFR,,,,,,,,,,,,SPECI,10.0
KUIL 060922Z AUTO 00000KT 1/2SM FG VV002 07/06 A2997 RMK AO2 T00720056,KUIL,2023-05-06T09:22:00Z,47.93,-124.55,7.2,5.6,0,0,,0.5,29.970472,,,TRUE,TRUE,,,,,,FG,OVX,0,,,,,,,LIFR,,,,,,,,,,,200,SPECI,58.0
KSNY 060922Z AUTO 30004KT 1 3/4SM BR CLR 04/04 A2984 RMK AO2 T00390039,KSNY,2023-05-06T09:22:00Z,41.1,-102.98,3.9,3.9,300,4,,1.75,29.840551,,,TRUE,TRUE,,,,,,BR,CLR,,,,,,,,IFR,,,,,,,,,,,,SPECI,1307.0
KRNM 060922Z AUTO 00000KT 1/2SM FG VV002 06/05 A3006 RMK AO2 T00560050,KRNM,2023-05-06T09:22:00Z,33.03,-116.92,5.6,5.0,0,0,,0.5,30.059055,,,TRUE,TRUE,,,,,,FG,OVX,0,,,,,,,LIFR,,,,,,,,,,,200,SPECI,423.0
KPQL 060922Z AUTO 09003KT 9SM BKN003 OVC009 21/20 A3004 RMK AO2 T02060200,KPQL,2023-05-06T09:22:00Z,30.47,-88.53,20.6,20.0,90,3,,9.0,30.041338,,,TRUE,TRUE,,,,,,,BKN,300,OVC,900,,,,,LIFR,,,,,,,,,,,,METAR,4.0
KELD 060922Z AUTO 14005KT 8SM FEW006 OVC030 22/22 A2996 RMK AO2 T02220217,KELD,2023-05-06T09:22:00Z,33.22,-92.82,22.2,21.7,140,5,,8.0,29.958662,,,TRUE,TRUE,,,,,,,FEW,600,OVC,3000,,,,,MVFR,,,,,,,,,,,,SPECI,76.0
KCOE 060922Z AUTO 22004KT 10SM BKN014 OVC022 08/07 A2989 RMK AO2 PNO $,KCOE,2023-05-06T09:22:00Z,47.77,-116.82,8.0,7.0,220,4,,10.0,29.890747,,,TRUE,TRUE,TRUE,,,,,,BKN,1400,OVC,2200,,,,,MVFR,,,,,,,,,,,,SPECI,693.0
CZPC 060922Z AUTO 35015G20KT 9SM -RA BKN060 OVC077 08/05 A2982 RMK LTNG DIST E WSHFT AT 0902Z SLP110 DENSITY ALT 4200FT,CZPC,2023-05-06T09:22:00Z,49.52,-114.0,8.0,5.0,350,15,20,9.0,29.819881,1011.0,,TRUE,,,,,,,-RA,BKN,6000,OVC,7700,,,,,VFR,,,,,,,,,,,,SPECI,1187.0
SBFN 060921Z AUTO 13012KT 100V160 9999 SCT018 28/25 Q1013,SBFN,2023-05-06T09:21:00Z,-3.85,-32.42,28.0,25.0,130,12,,6.21,29.911417,,,TRUE,,,,,,,,SCT,1800,,,,,,,VFR,,,,,,,,,,,,METAR,52.0
KTRK 060921Z AUTO 18003KT 10SM SCT026 OVC090 02/M03 A3000 RMK AO2,KTRK,2023-05-06T09:21:00Z,39.32,-120.13,2.0,-3.0,180,3,,10.0,30.0,,,TRUE,TRUE,,,,,,,SCT,2600,OVC,9000,,,,,VFR,,,,,,,,,,,,SPECI,1800.0
KSET 060921Z AUTO 15006KT 10SM BKN024 OVC031 17/12 A3000 RMK AO2 T01720117,KSET,2023-05-06T09:21:00Z,38.93,-90.43,17.2,11.7,150,6,,10.0,30.0,,,TRUE,TRUE,,,,,,,BKN,2400,OVC,3100,,,,,MVFR,,,,,,,,,,,,METAR,133.0
KRVS 060921Z AUTO 15007KT 7SM SCT006 OVC015 20/18 A2981 RMK AO2 T02000183,KRVS,2023-05-06T09:21:00Z,36.05,-95.98,20.0,18.3,150,7,,7.0,29.811024,,,TRUE,TRUE,,,,,,,SCT,600,OVC,1500,,,,,MVFR,,,,,,,,,,,,SPECI,191.0
KPNC 060921Z AUTO 17012KT 7SM FEW009 23/22 A2974 RMK AO2 T02330217 $,KPNC,2023-05-06T09:21:00Z,36.73,-97.1,23.3,21.7,170,12,,7.0,29.740158,,,TRUE,TRUE,TRUE,,,,,,FEW,900,,,,,,,VFR,,,,,,,,,,,,SPECI,304.0
KMNE 060921Z AUTO 13004KT 7SM SCT007 22/22 A2993 RMK AO2,KMNE,2023-05-06T09:21:00Z,32.65,-93.3,22.0,22.0,130,4,,7.0,29.929134,,,TRUE,TRUE,,,,,,,SCT,700,,,,,,,VFR,,,,,,,,,,,,METAR,84.0
KEVW 060921Z AUTO 23014KT 9SM -SN BKN003 OVC055 01/00 A2997 RMK AO2 SNB21 P0000 T00110000,KEVW,2023-05-06T09:21:00Z,41.27,-111.03,1.1,0.0,230,14,,9.0,29.970472,,,TRUE,TRUE,,,,,,-SN,BKN,300,OVC,5500,,,,,LIFR,,,,,,0.005,,,,,,SPECI,2178.0
KDLH 060921Z 08014G24KT 3/4SM R09/2800V4000FT BR VV002 05/04 A3005 RMK AO2 TWR VIS 1 T00500044,KDLH,2023-05-06T09:21:00Z,46.85,-92.2,5.0,4.4,80,14,24,0.75,30.050198,,,,TRUE,,,,,,BR,OVX,0,,,,,,,LIFR,,,,,,,,,,,200,SPECI,434.0
KBKX 060921Z AUTO 10004KT 5SM BR SCT009 OVC017 13/12 A2986 RMK AO2,KBKX,2023-05-06T09:21:00Z,44.3,-96.82,13.0,12.0,100,4,,5.0,29.861221,,,TRUE,TRUE,,,,,,BR,SCT,900,OVC,1700,,,,,MVFR,,,,,,,,,,,,METAR,494.0
CYBK 060921Z 35006KT 20SM FEW050 M04/M05 A3048 RMK SC1 YBK STN CLSD /0921 REOPEN /1330Z SLP324,CYBK,2023-05-06T09:21:00Z,64.3,-96.07,-4.0,-5.0,350,6,,20.0,30.481298,1032.4,,,,,,,,,,FEW,5000,,,,,,,VFR,,,,,,,,,,,,SPECI,14.0
SABE 060920Z 08013KT 5000 -DZ OVC005 18/17 Q1013 NOSIG,SABE,2023-05-06T09:20:00Z,-34.57,-58.42,18.0,17.0,80,13,,3.11,29.911417,,,,,,TRUE,,,,-DZ,OVC,500,,,,,,,IFR,,,,,,,,,,,,SPECI,3.0
PKWA 060920Z AUTO 08014KT 10SM SCT017 28/25 A2980 RMK AO2 T02770249 TSNO,PKWA,2023-05-06T09:20:00Z,8.72,167.72,27.7,24.9,80,14,,10.0,29.799213,,,TRUE,TRUE,,,TRUE,,,,SCT,1700,,,,,,,VFR,,,,,,,,,,,,METAR,6.0
LXGB 060920Z 20010KT 9999 FEW024 22/15 Q1015 NOSIG RMK BLU BLU,LXGB,2023-05-06T09:20:00Z,36.15,-5.33,22.0,15.0,200,10,,6.21,29.970472,,,,,,TRUE,,,,,FEW,2400,,,,,,,VFR,,,,,,,,,,,,METAR,5.0
LTFM 060920Z 02017KT 9999 SCT020 BKN120 15/11 Q1014 NOSIG,LTFM,2023-05-06T09:20:00Z,41.27,28.75,15.0,11.0,20,17,,6.21,29.940945,,,,,,TRUE,,,,,SCT,2000,BKN,12000,,,,,VFR,,,,,,,,,,,,METAR,99.0
LTFJ 060920Z 04014KT 9999 FEW015 SCT035 BKN120 14/11 Q1013 NOSIG,LTFJ,2023-05-06T09:20:00Z,40.9,29.3,14.0,11.0,40,14,,6.21,29.911417,,,,,,TRUE,,,,,FEW,1500,SCT,3500,BKN,12000,,,VFR,,,,,,,,,,,,METAR,83.0
LTFE 060920Z 24010KT 9999 SCT035 23/15 Q1006 NOSIG,LTFE,2023-05-06T09:20:00Z,37.25,27.67,23.0,15.0,240,10,,6.21,29.704725,,,,,,TRUE,,,,,SCT,3500,,,,,,,VFR,,,,,,,,,,,,METAR,6.0
LTFC 060920Z 24013KT 9999 FEW020CB BKN030 13/09 Q1009,LTFC,2023-05-06T09:20:00Z,37.87,30.38,13.0,9.0,240,13,,6.21,29.793306,,,,,,,,,,,FEW,2000,BKN,3000,,,,,MVFR,,,,,,,,,,,,METAR,862.0
LTCS 060920Z 15020KT 9999 FEW040 BKN100 25/04 Q1011,LTCS,2023-05-06T09:20:00Z,37.45,38.9,25.0,4.0,150,20,,6.21,29.852362,,,,,,,,,,,FEW,4000,BKN,10000,,,,,VFR,,,,,,,,,,,,METAR,825.0
LTCJ 060920Z 06006KT 340V130 CAVOK 27/08 Q1011 NOSIG,LTCJ,2023-05-06T09:20:00Z,37.93,41.12,27.0,8.0,60,6,,6.21,29.852362,,,,,,TRUE,,,,,CAVOK,,,,,,,,VFR,,,,,,,,,,,,METAR,559.0
LTCG 060920Z 10011KT 9999 SCT013 BKN035 14/12 Q1014 RESHRA TEMPO TL1000 3500 BR BKN006,LTCG,2023-05-06T09:20:00Z,41.0,39.77,14.0,12.0,100,11,,6.21,29.940945,,,,,,,,,,,SCT,1300,BKN,3500,,,,,VFR,,,,,,,,,,,,METAR,28.0
LTCE 060920Z 04005KT 360V080 9999 SCT035 BKN070 14/04 Q1019 RESHRA NOSIG,LTCE,2023-05-06T09:20:00Z,39.95,41.17,14.0,4.0,40,5,,6.21,30.088583,,,,,,TRUE,,,,,SCT,3500,BKN,7000,,,,,VFR,,,,,,,,,,,,METAR,1758.0
LTCC 060920Z 06007KT 020V110 9999 FEW040 BKN100 23/12 Q1012 NOSIG,LTCC,2023-05-06T09:20:00Z,37.88,40.2,23.0,12.0,60,7,,6.21,29.88189,,,,,,TRUE,,,,,FEW,4000,BKN,10000,,,,,VFR,,,,,,,,,,,,METAR,676.0
LTBU 060920Z 01013KT 9999 FEW030 BKN080 15/09 Q1014,LTBU,2023-05-06T09:20:00Z,41.13,27.92,15.0,9.0,10,13,,6.21,29.940945,,,,,,,,,,,FEW,3000,BKN,8000,,,,,VFR,,,,,,,,,,,,METAR,165.0
LTBS 060920Z 22010KT 9999 FEW025TCU SCT030 BKN090 20/16 Q1007 NOSIG,LTBS,2023-05-06T09:20:00Z,36.7,28.78,20.0,16.0,220,10,,6.21,29.734253,,,,,,TRUE,,,,,FEW,2500,SCT,3000,BKN,9000,,,VFR,,,,,,,,,,,,METAR,2.0
LTBR 060920Z 34012KT 9999 SCT029 BKN090 15/11 Q1012 NOSIG,LTBR,2023-05-06T09:20:00Z,40.25,29.57,15.0,11.0,340,12,,6.21,29.88189,,,,,,TRUE,,,,,SCT,2900,BKN,9000,,,,,VFR,,,,,,,,,,,,METAR,233.0
LTBJ 060920Z 35014KT 9999 SCT030 20/13 Q1008 NOSIG,LTBJ,2023-05-06T09:20:00Z,38.28,27.15,20.0,13.0,350,14,,6.21,29.763779,,,,,,TRUE,,,,,SCT,3000,,,,,,,VFR,,,,,,,,,,,,METAR,123.0
LTBA 060920Z 02018KT 9999 SCT040 BKN100 17/09 Q1013,LTBA,2023-05-06T09:20:00Z,40.97,28.82,17.0,9.0,20,18,,6.21,29.911417,,,,,,,,,,,SCT,4000,BKN,10000,,,,,VFR,,,,,,,,,,,,METAR,33.0
LTAZ 060920Z 13014KT 070V180 9999 FEW040 SCT180 24/01 Q1008,LTAZ,2023-05-06T09:20:00Z,38.77,34.52,24.0,1.0,130,14,,6.21,29.763779,,,,,,,,,,,FEW,4000,SCT,18000,,,,,VFR,,,,,,,,,,,,METAR,944.0
LTAU 060920Z 16011G21KT 110V230 9999 SCT040 22/03 Q1009 NOSIG,LTAU,2023-05-06T09:20:00Z,38.77,35.48,22.0,3.0,160,11,21,6.21,29.793306,,,,,,TRUE,,,,,SCT,4000,,,,,,,VFR,,,,,,,,,,,,METAR,1053.0
LTAT 060920Z 06009KT 360V080 9999 SCT035 BKN090 19/09 Q1013 NOSIG,LTAT,2023-05-06T09:20:00Z,38.43,38.08,19.0,9.0,60,9,,6.21,29.911417,,,,,,TRUE,,,,,SCT,3500,BKN,9000,,,,,VFR,,,,,,,,,,,,METAR,850.0
LTAP 060920Z VRB02KT 9999 FEW040 BKN100 19/06 Q1009 NOSIG,LTAP,2023-05-06T09:20:00Z,40.83,35.52,19.0,6.0,0,2,,6.21,29.793306,,,,,,TRUE,,,,,FEW,4000,BKN,10000,,,,,VFR,,,,,,,,,,,,METAR,536.0
LTAJ 060920Z 10007KT 030V130 9999 FEW020CB SCT030 BKN080 23/05 Q1009 NOSIG,LTAJ,2023-05-06T09:20:00Z,36.95,37.48,23.0,5.0,100,7,,6.21,29.793306,,,,,,TRUE,,,,,FEW,2000,SCT,3000,BKN,8000,,,VFR,,,,,,,,,,,,METAR,684.0
LTAI 060920Z 30006KT 9999 -SHRA FEW015CB BKN025 16/15 Q1007 RETSRA NOSIG,LTAI,2023-05-06T09:20:00Z,36.9,30.8,16.0,15.0,300,6,,6.21,29.734253,,,,,,TRUE,,,,-SHRA,FEW,1500,BKN,2500,,,,,MVFR,,,,,,,,,,,,METAR,50.0
LTAF 060920Z VRB05KT 9999 SCT035TCU 25/14 Q1008 NOSIG,LTAF,2023-05-06T09:20:00Z,36.98,35.28,25.0,14.0,0,5,,6.21,29.763779,,,,,,TRUE,,,,,SCT,3500,,,,,,,VFR,,,,,,,,,,,,METAR,19.0
LTAC 060920Z 09006KT 350V150 9999 SCT040 SCT100 21/04 Q1009 NOSIG,LTAC,2023-05-06T09:20:00Z,40.12,32.98,21.0,4.0,90,6,,6.21,29.793306,,,,,,TRUE,,,,,SCT,4000,SCT,10000,,,,,VFR,,,,,,,,,,,,METAR,952.0
LSZS 060920Z VRB02KT 9999 SCT075 13/04 Q1020 RMK I TL170,LSZS,2023-05-06T09:20:00Z,46.53,9.88,13.0,4.0,0,2,,6.21,30.11811,,,,,,,,,,,SCT,7500,,,,,,,VFR,,,,,,,,,,,,SPECI,1708.0
LSZR 060920Z 30005KT 9999 SCT070 15/15 Q1018 RMK E,LSZR,2023-05-06T09:20:00Z,47.48,9.57,15.0,15.0,300,5,,6.21,30.059055,,,,,,,,,,,SCT,7000,,,,,,,VFR,,,,,,,,,,,,METAR,396.0
LSZL 060920Z AUTO 24003KT 9999NDV FEW100 19/13 Q1016 RMK,LSZL,2023-05-06T09:20:00Z,46.17,8.88,19.0,13.0,240,3,,,30.0,,,TRUE,,,,,,,,FEW,10000,,,,,,,,,,,,,,,,,,,SPECI,198.0
LSZH 060920Z VRB02KT 9999 FEW025 SCT060 18/11 Q1018 NOSIG,LSZH,2023-05-06T09:20:00Z,47.48,8.53,18.0,11.0,0,2,,6.21,30.059055,,,,,,TRUE,,,,,FEW,2500,SCT,6000,,,,,VFR,,,,,,,,,,,,METAR,424.0
LSZG 060920Z VRB02KT 9999 SCT026 19/13 Q1017,LSZG,2023-05-06T09:20:00Z,47.17,7.42,19.0,13.0,0,2,,6.21,30.029528,,,,,,,,,,,SCT,2600,,,,,,,VFR,,,,,,,,,,,,METAR,428.0
LSZC 060920Z AUTO 08005KT 9999 NCD 17/14 Q1018 RERA,LSZC,2023-05-06T09:20:00Z,46.97,8.38,17.0,14.0,80,5,,6.21,30.059055,,,TRUE,,,,,,,,CLR,,,,,,,,VFR,,,,,,,,,,,,METAR,445.0
LSZB 060920Z VRB01KT 9999 FEW019 SCT021 BKN065 20/15 Q1017,LSZB,2023-05-06T09:20:00Z,46.92,7.5,20.0,15.0,0,1,,6.21,30.029528,,,,,,,,,,,FEW,1900,SCT,2100,BKN,6500,,,VFR,,,,,,,,,,,,METAR,510.0
LSZA 060920Z 20003KT 160V250 9999 FEW058 21/13 Q1017,LSZA,2023-05-06T09:20:00Z,46.0,8.92,21.0,13.0,200,3,,6.21,30.029528,,,,,,,,,,,FEW,5800,,,,,,,VFR,,,,,,,,,,,,METAR,276.0
LSMP 060920Z AUTO VRB02KT 9999NDV NCD 18/12 Q1018 RMK,LSMP,2023-05-06T09:20:00Z,46.83,6.92,18.0,12.0,0,2,,,30.059055,,,TRUE,,,,,,,,CLR,,,,,,,,,,,,,,,,,,,,METAR,490.0
LSMM 060920Z AUTO 27003KT 220V330 9999NDV NCD 18/13 Q1018 RMK,LSMM,2023-05-06T09:20:00Z,46.75,8.12,18.0,13.0,270,3,,,30.059055,,,TRUE,,,,,,,,CLR,,,,,,,,,,,,,,,,,,,,METAR,570.0
LSME 060920Z AUTO VRB01KT 9999NDV FEW070 18/16 Q1018 RMK,LSME,2023-05-06T09:20:00Z,47.1,8.3,18.0,16.0,0,1,,,30.059055,,,TRUE,,,,,,,,FEW,7000,,,,,,,,,,,,,,,,,,,METAR,427.0
LSMA 060920Z AUTO 03003KT 360V060 9999NDV FEW057 SCT073 16/14 Q1018 RMK,LSMA,2023-05-06T09:20:00Z,46.95,8.28,16.0,14.0,30,3,,,30.059055,,,TRUE,,,,,,,,FEW,5700,SCT,7300,,,,,,,,,,,,,,,,,METAR,441.0
LSGS 060920Z VRB02KT 9999 FEW070 22/10 Q1017,LSGS,2023-05-06T09:20:00Z,46.22,7.32,22.0,10.0,0,2,,6.21,30.029528,,,,,,,,,,,FEW,7000,,,,,,,VFR,,,,,,,,,,,,METAR,482.0
LSGG 060920Z 05004KT 360V100 9999 FEW032 19/11 Q1017 NOSIG,LSGG,2023-05-06T09:20:00Z,46.25,6.12,19.0,11.0,50,4,,6.21,30.029528,,,,,,TRUE,,,,,FEW,3200,,,,,,,VFR,,,,,,,,,,,,METAR,411.0
LSGC 060920Z 23006KT 190V260 9999 FEW033 SCT039 15/09 Q1018,LSGC,2023-05-06T09:20:00Z,47.08,6.8,15.0,9.0,230,6,,6.21,30.059055,,,,,,,,,,,FEW,3300,SCT,3900,,,,,VFR,,,,,,,,,,,,METAR,1018.0
LOXZ 060920Z VRB03KT 9999 FEW065 BKN230 18/08 Q1018 NOSIG,LOXZ,2023-05-06T09:20:00Z,47.2,14.75,18.0,8.0,0,3,,6.21,30.059055,,,,,,TRUE,,,,,FEW,6500,BKN,23000,,,,,VFR,,,,,,,,,,,,METAR,678.0
LOWW 060920Z 17007KT 9999 FEW042 18/13 Q1017 NOSIG,LOWW,2023-05-06T09:20:00Z,48.12,16.57,18.0,13.0,170,7,,6.21,30.029528,,,,,,TRUE,,,,,FEW,4200,,,,,,,VFR,,,,,,,,,,,,METAR,179.0
LOWS 060920Z AUTO 32003KT 250V040 9999 FEW026 BKN050 18/12 Q1018 NOSIG,LOWS,2023-05-06T09:20:00Z,47.78,13.02,18.0,12.0,320,3,,6.21,30.059055,,,TRUE,,,TRUE,,,,,FEW,2600,BKN,5000,,,,,VFR,,,,,,,,,,,,METAR,427.0
LOWL 060920Z AUTO 32007KT 290V350 9999 FEW018 BKN022 18/13 Q1018 NOSIG,LOWL,2023-05-06T09:20:00Z,48.22,14.18,18.0,13.0,320,7,,6.21,30.059055,,,TRUE,,,TRUE,,,,,FEW,1800,BKN,2200,,,,,MVFR,,,,,,,,,,,,METAR,290.0
LOWK 060920Z AUTO VRB03KT 9999 FEW060 19/11 Q1018 NOSIG,LOWK,2023-05-06T09:20:00Z,46.65,14.32,19.0,11.0,0,3,,6.21,30.059055,,,TRUE,,,TRUE,,,,,FEW,6000,,,,,,,VFR,,,,,,,,,,,,METAR,450.0
LOWI 060920Z 28011KT 9999 -SHRA FEW025 BKN080 FEW080TCU 15/12 Q1019 TEMPO SHRA,LOWI,2023-05-06T09:20:00Z,47.27,11.33,15.0,12.0,280,11,,6.21,30.088583,,,,,,,,,,-SHRA,FEW,2500,BKN,8000,FEW,8000,,,VFR,,,,,,,,,,,,METAR,570.0
LOWG 060920Z VRB03KT 9999 FEW050 20/11 Q1017 NOSIG,LOWG,2023-05-06T09:20:00Z,47.0,15.43,20.0,11.0,0,3,,6.21,30.029528,,,,,,TRUE,,,,,FEW,5000,,,,,,,VFR,,,,,,,,,,,,METAR,337.0
LLBG 060920Z 28011KT 240V310 9999 FEW035 24/14 Q1011 NOSIG,LLBG,2023-05-06T09:20:00Z,32.0,34.88,24.0,14.0,280,11,,6.21,29.852362,,,,,,TRUE,,,,,FEW,3500,,,,,,,VFR,,,,,,,,,,,,METAR,35.0
LIRZ 060920Z AUTO VRB02KT 9999 NCD 21/11 Q1017,LIRZ,2023-05-06T09:20:00Z,43.1,12.5,21.0,11.0,0,2,,6.21,30.029528,,,TRUE,,,,,,,,CLR,,,,,,,,VFR,,,,,,,,,,,,METAR,206.0
LIRQ 060920Z VRB02KT CAVOK 20/12 Q1017,LIRQ,2023-05-06T09:20:00Z,43.8,11.2,20.0,12.0,0,2,,6.21,30.029528,,,,,,,,,,,CAVOK,,,,,,,,VFR,,,,,,,,,,,,METAR,33.0
LIRN 060920Z 21005KT 160V270 9000 SCT030 20/15 Q1018 NOSIG,LIRN,2023-05-06T09:20:00Z,40.88,14.3,20.0,15.0,210,5,,5.59,30.059055,,,,,,TRUE,,,,,SCT,3000,,,,,,,VFR,,,,,,,,,,,,METAR,76.0
LIRF 060920Z 28005KT 240V340 CAVOK 22/16 Q1017 NOSIG,LIRF,2023-05-06T09:20:00Z,41.78,12.23,22.0,16.0,280,5,,6.21,30.029528,,,,,,TRUE,,,,,CAVOK,,,,,,,,VFR,,,,,,,,,,,,METAR,2.0
LIRA 060920Z 22005KT 150V270 CAVOK 21/15 Q1017,LIRA,2023-05-06T09:20:00Z,41.8,12.58,21.0,15.0,220,5,,6.21,30.029528,,,,,,,,,,,CAVOK,,,,,,,,VFR,,,,,,,,,,,,METAR,101.0
LIPZ 060920Z 18003KT 140V230 CAVOK 21/14 Q1016 NOSIG,LIPZ,2023-05-06T09:20:00Z,45.5,12.35,21.0,14.0,180,3,,6.21,30.0,,,,,,TRUE,,,,,CAVOK,,,,,,,,VFR,,,,,,,,,,,,METAR,3.0
LIPY 060920Z AUTO 05007KT 9999 NCD 20/13 Q1016,LIPY,2023-05-06T09:20:00Z,43.62,13.37,20.0,13.0,50,7,,6.21,30.0,,,TRUE,,,,,,,,CLR,,,,,,,,VFR,,,,,,,,,,,,METAR,11.0
LIPX 060920Z VRB02KT CAVOK 22/12 Q1016,LIPX,2023-05-06T09:20:00Z,45.38,10.87,22.0,12.0,0,2,,6.21,30.0,,,,,,,,,,,CAVOK,,,,,,,,VFR,,,,,,,,,,,,METAR,67.0
LIPR 060920Z 05005KT 010V080 CAVOK 19/12 Q1016,LIPR,2023-05-06T09:20:00Z,44.02,12.62,19.0,12.0,50,5,,6.21,30.0,,,,,,,,,,,CAVOK,,,,,,,,VFR,,,,,,,,,,,,METAR,10.0
LIPQ 060920Z AUTO 23004KT 180V280 9999 FEW140/// 23/15 Q1016,LIPQ,2023-05-06T09:20:00Z,45.82,13.47,23.0,15.0,230,4,,6.21,30.0,,,TRUE,,,,,,,,FEW,14000,,,,,,,VFR,,,,,,,,,,,,METAR,6.0
LIPO 060920Z AUTO VRB03KT 9999 NCD 23/13 Q1016,LIPO,2023-05-06T09:20:00Z,45.42,10.33,23.0,13.0,0,3,,6.21,30.0,,,TRUE,,,,,,,,CLR,,,,,,,,VFR,,,,,,,,,,,,METAR,104.0
LIPH 060920Z VRB02KT CAVOK 22/14 Q1016,LIPH,2023-05-06T09:20:00Z,45.63,12.18,22.0,14.0,0,2,,6.21,30.0,,,,,,,,,,,CAVOK,,,,,,,,VFR,,,,,,,,,,,,METAR,10.0
LIPE 060920Z VRB02KT CAVOK 23/14 Q1016,LIPE,2023-05-06T09:20:00Z,44.52,11.3,23.0,14.0,0,2,,6.21,30.0,,,,,,,,,,,CAVOK,,,,,,,,VFR,,,,,,,,,,,,METAR,37.0
LIMZ 060920Z AUTO 03003KT 300V090 9999 NCD 21/13 Q1017,LIMZ,2023-05-06T09:20:00Z,44.53,7.62,21.0,13.0,30,3,,6.21,30.029528,,,TRUE,,,,,,,,CLR,,,,,,,,VFR,,,,,,,,,,,,METAR,377.0
LIMW 060920Z AUTO 09003KT 020V160 9999 NCD 21/10 Q1017,LIMW,2023-05-06T09:20:00Z,45.73,7.37,21.0,10.0,90,3,,6.21,30.029528,,,TRUE,,,,,,,,CLR,,,,,,,,VFR,,,,,,,,,,,,METAR,554.0
LIML 060920Z VRB02KT CAVOK 23/11 Q1016 NOSIG,LIML,2023-05-06T09:20:00Z,45.47,9.27,23.0,11.0,0,2,,6.21,30.0,,,,,,TRUE,,,,,CAVOK,,,,,,,,VFR,,,,,,,,,,,,METAR,109.0
LIMJ 060920Z 19005KT 9999 FEW007 17/14 Q1018,LIMJ,2023-05-06T09:20:00Z,44.42,8.83,17.0,14.0,190,5,,6.21,30.059055,,,,,,,,,,,FEW,700,,,,,,,VFR,,,,,,,,,,,,METAR,3.0
LIMF 060920Z 10005KT 030V130 CAVOK 21/13 Q1017,LIMF,2023-05-06T09:20:00Z,45.22,7.65,21.0,13.0,100,5,,6.21,30.029528,,,,,,,,,,,CAVOK,,,,,,,,VFR,,,,,,,,,,,,METAR,295.0
LIME 060920Z 17003KT 110V210 CAVOK 22/12 Q1017 NOSIG,LIME,2023-05-06T09:20:00Z,45.67,9.7,22.0,12.0,170,3,,6.21,30.029528,,,,,,TRUE,,,,,CAVOK,,,,,,,,VFR,,,,,,,,,,,,METAR,239.0
LIMC 060920Z 21004KT 170V250 CAVOK 22/12 Q1017 NOSIG,LIMC,2023-05-06T09:20:00Z,45.62,8.72,22.0,12.0,210,4,,6.21,30.029528,,,,,,TRUE,,,,,CAVOK,,,,,,,,VFR,,,,,,,,,,,,METAR,221.0
LIEO 060920Z 05010KT 020V080 CAVOK 22/13 Q1017,LIEO,2023-05-06T09:20:00Z,40.88,9.52,22.0,13.0,50,10,,6.21,30.029528,,,,,,,,,,,CAVOK,,,,,,,,VFR,,,,,,,,,,,,METAR,8.0
LIEE 060920Z 18006KT CAVOK 22/10 Q1017,LIEE,2023-05-06T09:20:00Z,39.25,9.07,22.0,10.0,180,6,,6.21,30.029528,,,,,,,,,,,CAVOK,,,,,,,,VFR,,,,,,,,,,,,METAR,1.0
LIEA 060920Z VRB03KT CAVOK 25/08 Q1017,LIEA,2023-05-06T09:20:00Z,40.62,8.28,25.0,8.0,0,3,,6.21,30.029528,,,,,,,,,,,CAVOK,,,,,,,,VFR,,,,,,,,,,,,METAR,22.0
LICR 060920Z AUTO 36013KT 9999 NCD 22/11 Q1018,LICR,2023-05-06T09:20:00Z,38.07,15.65,22.0,11.0,360,13,,6.21,30.059055,,,TRUE,,,,,,,,CLR,,,,,,,,VFR,,,,,,,,,,,,METAR,16.0
LICJ 060920Z 01007KT 330V040 CAVOK 19/15 Q1017,LICJ,2023-05-06T09:20:00Z,38.17,13.08,19.0,15.0,10,7,,6.21,30.029528,,,,,,,,,,,CAVOK,,,,,,,,VFR,,,,,,,,,,,,METAR,20.0
LICD 060920Z AUTO 14007KT 9999 NCD 20/16 Q1018,LICD,2023-05-06T09:20:00Z,35.5,12.62,20.0,16.0,140,7,,6.21,30.059055,,,TRUE,,,,,,,,CLR,,,,,,,,VFR,,,,,,,,,,,,METAR,20.0
LICC 060920Z 06009KT 030V090 CAVOK 22/11 Q1017,LICC,2023-05-06T09:20:00Z,37.47,15.05,22.0,11.0,60,9,,6.21,30.029528,,,,,,,,,,,CAVOK,,,,,,,,VFR,,,,,,,,,,,,METAR,6.0
LICA 060920Z AUTO 25010KT 210V280 9999 SCT014/// 19/15 Q1018,LICA,2023-05-06T09:20:00Z,38.9,16.25,19.0,15.0,250,10,,6.21,30.059055,,,TRUE,,,,,,,,SCT,1400,,,,,,,VFR,,,,,,,,,,,,METAR,7.0
LIBR 060920Z 33014KT CAVOK 18/11 Q1016,LIBR,2023-05-06T09:20:00Z,40.65,17.95,18.0,11.0,330,14,,6.21,30.0,,,,,,,,,,,CAVOK,,,,,,,,VFR,,,,,,,,,,,,METAR,5.0
LIBP 060920Z AUTO 07005KT 9999 NCD 23/11 Q1017,LIBP,2023-05-06T09:20:00Z,42.42,14.18,23.0,11.0,70,5,,6.21,30.029528,,,TRUE,,,,,,,,CLR,,,,,,,,VFR,,,,,,,,,,,,METAR,10.0
LIBD 060920Z 01005KT 310V050 CAVOK 20/11 Q1017,LIBD,2023-05-06T09:20:00Z,41.13,16.77,20.0,11.0,10,5,,6.21,30.029528,,,,,,,,,,,CAVOK,,,,,,,,VFR,,,,,,,,,,,,METAR,42.0
LGTS 060920Z 28008KT 9999 FEW025 22/12 Q1016 NOSIG,LGTS,2023-05-06T09:20:00Z,40.52,22.97,22.0,12.0,280,8,,6.21,30.0,,,,,,TRUE,,,,,FEW,2500,,,,,,,VFR,,,,,,,,,,,,METAR,4.0
LGSR 060920Z 34024KT 9999 FEW020 19/11 Q1009,LGSR,2023-05-06T09:20:00Z,36.4,25.48,19.0,11.0,340,24,,6.21,29.793306,,,,,,,,,,,FEW,2000,,,,,,,VFR,,,,,,,,,,,,METAR,31.0
LGSA 060920Z 29012G22KT 9999 FEW020 BKN030 18/12 Q1012,LGSA,2023-05-06T09:20:00Z,35.53,24.13,18.0,12.0,290,12,22,6.21,29.88189,,,,,,,,,,,FEW,2000,BKN,3000,,,,,MVFR,,,,,,,,,,,,METAR,122.0
LGRX 060920Z 36004KT 9999 FEW020 22/13 Q1014,LGRX,2023-05-06T09:20:00Z,38.17,21.42,22.0,13.0,360,4,,6.21,29.940945,,,,,,,,,,,FEW,2000,,,,,,,VFR,,,,,,,,,,,,METAR,16.0
LGRP 060920Z 30005KT 9999 FEW018 20/16 Q1006 NOSIG,LGRP,2023-05-06T09:20:00Z,36.4,28.08,20.0,16.0,300,5,,6.21,29.704725,,,,,,TRUE,,,,,FEW,1800,,,,,,,VFR,,,,,,,,,,,,METAR,3.0
LGPZ 060920Z 28007KT 9999 FEW035 21/14 Q1014,LGPZ,2023-05-06T09:20:00Z,38.92,20.77,21.0,14.0,280,7,,6.21,29.940945,,,,,,,,,,,FEW,3500,,,,,,,VFR,,,,,,,,,,,,METAR,3.0
LGMK 060920Z 36023KT 9999 FEW012 SCT020 17/09 Q1010,LGMK,2023-05-06T09:20:00Z,37.43,25.35,17.0,9.0,360,23,,6.21,29.822834,,,,,,,,,,,FEW,1200,SCT,2000,,,,,VFR,,,,,,,,,,,,METAR,126.0
LGLM 060920Z 03016KT 9999 SCT025 15/11 Q1014,LGLM,2023-05-06T09:20:00Z,39.92,25.23,15.0,11.0,30,16,,6.21,29.940945,,,,,,,,,,,SCT,2500,,,,,,,VFR,,,,,,,,,,,,METAR,4.0
LGKV 060920Z 07013G23KT 9999 FEW020 22/03 Q1014,LGKV,2023-05-06T09:20:00Z,40.92,24.62,22.0,3.0,70,13,23,6.21,29.940945,,,,,,,,,,,FEW,2000,,,,,,,VFR,,,,,,,,,,,,METAR,5.0
LGKR 060920Z 12006KT 9999 FEW025 23/15 Q1013 NOSIG,LGKR,2023-05-06T09:20:00Z,39.62,19.92,23.0,15.0,120,6,,6.21,29.911417,,,,,,TRUE,,,,,FEW,2500,,,,,,,VFR,,,,,,,,,,,,METAR,2.0
LGKP 060920Z 30019KT 9999 BKN018 19/15 Q1008,LGKP,2023-05-06T09:20:00Z,35.42,27.15,19.0,15.0,300,19,,6.21,29.763779,,,,,,,,,,,BKN,1800,,,,,,,MVFR,,,,,,,,,,,,METAR,20.0
LGKO 060920Z 35010KT 9999 FEW018 19/12 Q1006,LGKO,2023-05-06T09:20:00Z,36.8,27.08,19.0,12.0,350,10,,6.21,29.704725,,,,,,,,,,,FEW,1800,,,,,,,VFR,,,,,,,,,,,,METAR,130.0
LGKL 060920Z 33008KT 9999 FEW030 26/10 Q1013,LGKL,2023-05-06T09:20:00Z,37.07,22.02,26.0,10.0,330,8,,6.21,29.911417,,,,,,,,,,,FEW,3000,,,,,,,VFR,,,,,,,,,,,,METAR,4.0
LGIR 060920Z 30018KT 9999 FEW016 BKN035 18/12 Q1012 NOSIG,LGIR,2023-05-06T09:20:00Z,35.33,25.17,18.0,12.0,300,18,,6.21,29.88189,,,,,,TRUE,,,,,FEW,1600,BKN,3500,,,,,VFR,,,,,,,,,,,,METAR,37.0
LGIO 060920Z 30003KT 9999 FEW035 21/09 Q1015,LGIO,2023-05-06T09:20:00Z,39.7,20.82,21.0,9.0,300,3,,6.21,29.970472,,,,,,,,,,,FEW,3500,,,,,,,VFR,,,,,,,,,,,,METAR,476.0
LGEL 060920Z 35020G30KT 9999 SCT025 21/08 Q1013,LGEL,2023-05-06T09:20:00Z,38.07,23.55,21.0,8.0,350,20,30,6.21,29.911417,,,,,,,,,,,SCT,2500,,,,,,,VFR,,,,,,,,,,,,METAR,21.0
LGBL 060920Z 02009KT 9999 FEW035 SCT070 23/11 Q1015,LGBL,2023-05-06T09:20:00Z,39.22,22.8,23.0,11.0,20,9,,6.21,29.970472,,,,,,,,,,,FEW,3500,SCT,7000,,,,,VFR,,,,,,,,,,,,METAR,13.0
LGAV 060920Z 36018G28KT 9999 FEW025 SCT040 21/08 Q1013 NOSIG,LGAV,2023-05-06T09:20:00Z,37.93,23.95,21.0,8.0,360,18,28,6.21,29.911417,,,,,,TRUE,,,,,FEW,2500,SCT,4000,,,,,VFR,,,,,,,,,,,,METAR,83.0
LGAL 060920Z 04014G26KT 9999 FEW025 18/09 Q1014,LGAL,2023-05-06T09:20:00Z,40.85,25.95,18.0,9.0,40,14,26,6.21,29.940945,,,,,,,,,,,FEW,2500,,,,,,,VFR,,,,,,,,,,,,METAR,5.0
LGAD 060920Z 31008KT 9999 FEW020 22/15 Q1014,LGAD,2023-05-06T09:20:00Z,37.92,21.28,22.0,15.0,310,8,,6.21,29.940945,,,,,,,,,,,FEW,2000,,,,,,,VFR,,,,,,,,,,,,METAR,8.0
LCRA 060920Z 23013KT 9999 FEW022 21/14 Q1010 NOSIG,LCRA,2023-05-06T09:20:00Z,34.58,32.98,21.0,14.0,230,13,,6.21,29.822834,,,,,,TRUE,,,,,FEW,2200,,,,,,,VFR,,,,,,,,,,,,METAR,23.0
LCEN 060920Z 35015KT 310V010 7000 -TSRA FEW020CB SCT025 BKN080 22/16 Q1007 NOSIG,LCEN,2023-05-06T09:20:00Z,35.15,33.5,22.0,16.0,350,15,,4.35,29.734253,,,,,,TRUE,,,,-TSRA,FEW,2000,SCT,2500,BKN,8000,,,MVFR,,,,,,,,,,,,METAR,91.0
LATI 060920Z 31004KT 280V020 CAVOK 24/11 Q1015 NOSIG,LATI,2023-05-06T09:20:00Z,41.42,19.72,24.0,11.0,310,4,,6.21,29.970472,,,,,,TRUE,,,,,CAVOK,,,,,,,,VFR,,,,,,,,,,,,METAR,32.0
KTVI 060920Z AUTO 09005KT 10SM OVC100 18/17 A3013 RMK AO2,KTVI,2023-05-06T09:20:00Z,30.9,-83.88,18.0,17.0,90,5,,10.0,30.129921,,,TRUE,TRUE,,,,,,,OVC,10000,,,,,,,VFR,,,,,,,,,,,,METAR,74.0
KSGF 060920Z 15013G20KT 4SM -RA BR OVC004 17/16 A2990 RMK AO2 P0000 T01670161,KSGF,2023-05-06T09:20:00Z,37.23,-93.38,16.7,16.1,150,13,20,4.0,29.899607,,,,TRUE,,,,,,-RA BR,OVC,400,,,,,,,LIFR,,,,,,0.005,,,,,,SPECI,387.0
KSEP 060920Z AUTO 21007KT 10SM CLR 21/14 A2990 RMK AO2 T02110144,KSEP,2023-05-06T09:20:00Z,32.22,-98.17,21.1,14.4,210,7,,10.0,29.899607,,,TRUE,TRUE,,,,,,,CLR,,,,,,,,VFR,,,,,,,,,,,,METAR,399.0
KSBD 060920Z AUTO 00000KT 10SM SCT041 10/05 A3008 RMK AO2 T01010051,KSBD,2023-05-06T09:20:00Z,34.08,-117.25,10.1,5.1,0,0,,10.0,30.079725,,,TRUE,TRUE,,,,,,,SCT,4100,,,,,,,VFR,,,,,,,,,,,,METAR,353.0
KRDD 060920Z AUTO 18005KT 7SM -RA BKN011 OVC015 11/09 A3000 RMK AO2 P0004 T01060094,KRDD,2023-05-06T09:20:00Z,40.52,-122.3,10.6,9.4,180,5,,7.0,30.0,,,TRUE,TRUE,,,,,,-RA,BKN,1100,OVC,1500,,,,,MVFR,,,,,,0.04,,,,,,SPECI,152.0
KQFW 060920Z AUTO 02002KT 9999 OVC065 09/08 A2972 RMK A02 TSNO,KQFW,2023-05-06T09:20:00Z,,,9.0,8.0,20,2,,6.21,29.719488,,,TRUE,TRUE,,,TRUE,,,,OVC,6500,,,,,,,VFR,,,,,,,,,,,,METAR,
KQFT 060920Z AUTO 02003KT 9999 BKN022 OVC049 12/07 A2986 RMK A02 TSNO,KQFT,2023-05-06T09:20:00Z,,,12.0,7.0,20,3,,6.21,29.861221,,,TRUE,TRUE,,,TRUE,,,,BKN,2200,OVC,4900,,,,,MVFR,,,,,,,,,,,,METAR,
KQFB 060920Z AUTO 07003KT 9000 -SHRA OVC015 13/11 A2988 RMK A02 TSNO,KQFB,2023-05-06T09:20:00Z,,,13.0,11.0,70,3,,5.59,29.878937,,,TRUE,TRUE,,,TRUE,,,-SHRA,OVC,1500,,,,,,,MVFR,,,,,,,,,,,,METAR,
KQEY 060920Z AUTO 05004KT 6000 -RA OVC014 13/12 A2948 RMK A02 TSNO,KQEY,2023-05-06T09:20:00Z,,,13.0,12.0,50,4,,3.73,29.480314,,,TRUE,TRUE,,,TRUE,,,-RA,OVC,1400,,,,,,,MVFR,,,,,,,,,,,,METAR,
KQEX 060920Z AUTO 04004KT 9000 -DZ CLR 21/13 / RMK A02 TSNO,KQEX,2023-05-06T09:20:00Z,,,21.0,13.0,40,4,,5.59,,,,TRUE,TRUE,,,TRUE,,,-DZ,CLR,,,,,,,,VFR,,,,,,,,,,,,METAR,
KQEV 060920Z AUTO 05004KT 6000 -RA OVC021 13/11 A2976 RMK A02 TSNO,KQEV,2023-05-06T09:20:00Z,,,13.0,11.0,50,4,,3.73,29.760826,,,TRUE,TRUE,,,TRUE,,,-RA,OVC,2100,,,,,,,MVFR,,,,,,,,,,,,METAR,
KQES 060920Z AUTO 04002KT 9999 SCT028 BKN060 13/07 A2993 RMK A02 TSNO,KQES,2023-05-06T09:20:00Z,,,13.0,7.0,40,2,,6.21,29.929134,,,TRUE,TRUE,,,TRUE,,,,SCT,2800,BKN,6000,,,,,VFR,,,,,,,,,,,,METAR,
KQER 060920Z AUTO 33002G10KT 9999 FEW080 BKN100 12/05 A2985 RMK A02 TSNO,KQER,2023-05-06T09:20:00Z,,,12.0,5.0,330,2,10,6.21,29.84941,,,TRUE,TRUE,,,TRUE,,,,FEW,8000,BKN,10000,,,,,VFR,,,,,,,,,,,,METAR,
KQEJ 060920Z AUTO 06006G10KT 9999 OVC095 11/04 A2989 RMK A02 TSNO,KQEJ,2023-05-06T09:20:00Z,,,11.0,4.0,60,6,10,6.21,29.890747,,,TRUE,TRUE,,,TRUE,,,,OVC,9500,,,,,,,VFR,,,,,,,,,,,,METAR,
KQEI 060920Z AUTO 31003KT 9999 FEW027 OVC065 09/07 A2990 RMK A02 TSNO,KQEI,2023-05-06T09:20:00Z,,,9.0,7.0,310,3,,6.21,29.899607,,,TRUE,TRUE,,,TRUE,,,,FEW,2700,OVC,6500,,,,,VFR,,,,,,,,,,,,METAR,
KQDG 060920Z AUTO 10010KT 9000 -RA BR OVC009 12/11 A2979 RMK AO2 CIG 007V009 SLP090 $,KQDG,2023-05-06T09:20:00Z,,,12.0,11.0,100,10,,5.59,29.790354,1009.0,,TRUE,TRUE,TRUE,,,,,-RA BR,OVC,900,,,,,,,IFR,,,,,,,,,,,,SPECI,
KPO1 060920Z AUTO 06011KT 10SM FEW060 OVC075 11/03 A2991 RMK AO2,KPO1,2023-05-06T09:20:00Z,48.13,-105.17,11.0,3.0,60,11,,10.0,29.911417,,,TRUE,TRUE,,,,,,,FEW,6000,OVC,7500,,,,,VFR,,,,,,,,,,,,METAR,621.0
KOWP 060920Z AUTO 14008KT 4SM OVC004 22/21 A2983 RMK AO2 T02150207,KOWP,2023-05-06T09:20:00Z,36.18,-96.15,21.5,20.7,140,8,,4.0,29.828741,,,TRUE,TRUE,,,,,,,OVC,400,,,,,,,LIFR,,,,,,,,,,,,SPECI,267.0
KOWD 060920Z AUTO 00000KT 3SM BR CLR 04/02 A3017 RMK AO2 T00390017,KOWD,2023-05-06T09:20:00Z,42.18,-71.17,3.9,1.7,0,0,,3.0,30.171259,,,TRUE,TRUE,,,,,,BR,CLR,,,,,,,,MVFR,,,,,,,,,,,,METAR,14.0
KMWT 060920Z AUTO 11005KT 5SM BR OVC004 22/21 A2990 RMK AO2 T02170206,KMWT,2023-05-06T09:20:00Z,34.55,-93.58,21.7,20.6,110,5,,5.0,29.899607,,,TRUE,TRUE,,,,,,BR,OVC,400,,,,,,,LIFR,,,,,,,,,,,,SPECI,220.0
KLUD 060920Z AUTO 17004KT 10SM CLR 23/11 A2983 RMK AO2 T02320110,KLUD,2023-05-06T09:20:00Z,33.25,-97.58,23.2,11.0,170,4,,10.0,29.828741,,,TRUE,TRUE,,,,,,,CLR,,,,,,,,VFR,,,,,,,,,,,,METAR,319.0
KJQF 060920Z AUTO 00000KT 10SM CLR 10/10 A3025 RMK AO2,KJQF,2023-05-06T09:20:00Z,35.38,-80.72,10.0,10.0,0,0,,10.0,30.250984,,,TRUE,TRUE,,,,,,,CLR,,,,,,,,VFR,,,,,,,,,,,,METAR,204.0
KI35 060920Z AUTO 00000KT 10SM CLR 09/09 A3023 RMK AO2,KI35,2023-05-06T09:20:00Z,36.87,-83.37,9.0,9.0,0,0,,10.0,30.230314,,,TRUE,TRUE,,,,,,,CLR,,,,,,,,VFR,,,,,,,,,,,,METAR,467.0
KGVW 060920Z AUTO 33003KT 5SM BR SCT007 BKN011 OVC031 24/24 A2999 RMK A01,KGVW,2023-05-06T09:20:00Z,29.13,-94.55,24.0,24.0,330,3,,5.0,29.991142,,,TRUE,TRUE,,,,,,BR,SCT,700,BKN,1100,OVC,3100,,,MVFR,,,,,,,,,,,,METAR,37.0
KGUL 060920Z AUTO 12005KT 3SM BR SCT020 25/24 A2995 RMK A01,KGUL,2023-05-06T09:20:00Z,27.3,-93.53,25.0,24.0,120,5,,3.0,29.949802,,,TRUE,TRUE,,,,,,BR,SCT,2000,,,,,,,MVFR,,,,,,,,,,,,SPECI,20.0
KGNG 060920Z AUTO 22005KT 10SM BKN042 OVC060 06/06 A2995 RMK AO2,KGNG,2023-05-06T09:20:00Z,42.92,-114.77,6.0,6.0,220,5,,10.0,29.949802,,,TRUE,TRUE,,,,,,,BKN,4200,OVC,6000,,,,,VFR,,,,,,,,,,,,METAR,1128.0
KFRI 060920Z AUTO 14013G19KT 10SM SCT011 BKN016 BKN029 19/18 A2971 RMK AO2 CIG 016V029 SLP051 $,KFRI,2023-05-06T09:20:00Z,39.05,-96.77,19.0,18.0,140,13,19,10.0,29.71063,1005.1,,TRUE,TRUE,TRUE,,,,,,SCT,1100,BKN,1600,BKN,2900,,,MVFR,,,,,,,,,,,,SPECI,232.0
KDSF 060920Z AUTO 14006KT 7SM OVC055 24/23 A3002 RMK A01,KDSF,2023-05-06T09:20:00Z,28.35,-88.27,24.0,23.0,140,6,,7.0,30.02067,,,TRUE,TRUE,,,,,,,OVC,5500,,,,,,,VFR,,,,,,,,,,,,METAR,40.0
KCPP 060920Z AUTO 00000KT 5SM BR SCT065 BKN110 13/13 A3019 RMK AO2,KCPP,2023-05-06T09:20:00Z,,,13.0,13.0,0,0,,5.0,30.188976,,,TRUE,TRUE,,,,,,BR,SCT,6500,BKN,11000,,,,,MVFR,,,,,,,,,,,,METAR,
KBFM 060920Z 10009KT 10SM BKN014 OVC021 21/20 A3007 RMK AO2 T02110200,KBFM,2023-05-06T09:20:00Z,30.62,-88.07,21.1,20.0,100,9,,10.0,30.070866,,,,TRUE,,,,,,,BKN,1400,OVC,2100,,,,,MVFR,,,,,,,,,,,,SPECI,7.0
KATP 060920Z AUTO 14017KT 5SM BR CLR 25/24 A3001 RMK A01,KATP,2023-05-06T09:20:00Z,27.2,-90.03,25.0,24.0,140,17,,5.0,30.008858,,,TRUE,TRUE,,,,,,BR,CLR,,,,,,,,MVFR,,,,,,,,,,,,SPECI,50.0
KASE 060920Z AUTO 29005KT 10SM -RA BKN024 OVC060 03/M02 A3003 RMK AO2 RAB11 P0000 T00331017,KASE,2023-05-06T09:20:00Z,39.23,-106.87,3.3,-1.7,290,5,,10.0,30.029528,,,TRUE,TRUE,,,,,,-RA,BKN,2400,OVC,6000,,,,,MVFR,,,,,,0.005,,,,,,SPECI,2384.0
KAEX 060920Z 24003KT 5SM -RA BR FEW009 BKN016 OVC025 23/22 A2998 RMK AO2 RAB09 P0000 T02330222,KAEX,2023-05-06T09:20:00Z,31.33,-92.57,23.3,22.2,240,3,,5.0,29.97933,,,,TRUE,,,,,,-RA BR,FEW,900,BKN,1600,OVC,2500,,,MVFR,,,,,,0.005,,,,,,SPECI,25.0
KADM 060920Z AUTO 00000KT 1/4SM FG BKN001 20/20 A2982 RMK AO2,KADM,2023-05-06T09:20:00Z,34.3,-97.02,20.0,20.0,0,0,,0.25,29.819881,,,TRUE,TRUE,,,,,,FG,BKN,100,,,,,,,LIFR,,,,,,,,,,,,METAR,223.0
EYVI 060920Z 07007KT 340V120 CAVOK 09/M06 Q1028 NOSIG,EYVI,2023-05-06T09:20:00Z,54.63,25.28,9.0,-6.0,70,7,,6.21,30.35433,,,,,,TRUE,,,,,CAVOK,,,,,,,,VFR,,,,,,,,,,,,METAR,180.0
EYSA 060920Z 06009KT 010V080 CAVOK 07/M06 Q1030 NOSIG,EYSA,2023-05-06T09:20:00Z,55.9,23.4,7.0,-6.0,60,9,,6.21,30.413385,,,,,,TRUE,,,,,CAVOK,,,,,,,,VFR,,,,,,,,,,,,METAR,135.0
EYPA 060920Z 07011KT 030V100 CAVOK 09/M05 Q1029,EYPA,2023-05-06T09:20:00Z,55.97,21.08,9.0,-5.0,70,11,,6.21,30.383858,,,,,,,,,,,CAVOK,,,,,,,,VFR,,,,,,,,,,,,METAR,15.0
EYKA 060920Z 03005KT 310V080 CAVOK 10/M05 Q1028,EYKA,2023-05-06T09:20:00Z,54.97,24.08,10.0,-5.0,30,5,,6.21,30.35433,,,,,,,,,,,CAVOK,,,,,,,,VFR,,,,,,,,,,,,METAR,68.0
EVVA 060920Z AUTO 12008KT 070V160 CAVOK 08/M06 Q1031,EVVA,2023-05-06T09:20:00Z,57.35,21.55,8.0,-6.0,120,8,,6.21,30.442913,,,TRUE,,,,,,,,CAVOK,,,,,,,,VFR,,,,,,,,,,,,METAR,1.0
EVRA 060920Z VRB07KT CAVOK 07/M10 Q1031 NOSIG,EVRA,2023-05-06T09:20:00Z,56.92,23.97,7.0,-10.0,0,7,,6.21,30.442913,,,,,,TRUE,,,,,CAVOK,,,,,,,,VFR,,,,,,,,,,,,METAR,7.0
EVLA 060920Z AUTO 09011KT 060V120 CAVOK 08/M07 Q1030,EVLA,2023-05-06T09:20:00Z,56.52,21.1,8.0,-7.0,90,11,,6.21,30.413385,,,TRUE,,,,,,,,CAVOK,,,,,,,,VFR,,,,,,,,,,,,METAR,5.0
EVGA 060920Z 03008KT 320V070 CAVOK 06/M09 Q1031 NOSIG,EVGA,2023-05-06T09:20:00Z,56.78,24.85,6.0,-9.0,30,8,,6.21,30.442913,,,,,,TRUE,,,,,CAVOK,,,,,,,,VFR,,,,,,,,,,,,METAR,61.0
ETWM 060920Z AUTO 16005KT //// // ////// 16/12 Q1017 ///,ETWM,2023-05-06T09:20:00Z,52.72,7.33,16.0,12.0,160,5,,,30.029528,,,TRUE,,,,,,,,,,,,,,,,,,,,,,,,,,,,SPECI,18.0
ETSN 060920Z 28005KT 9999 FEW020 SCT055 BKN210 16/10 Q1018 BLU+,ETSN,2023-05-06T09:20:00Z,48.72,11.22,16.0,10.0,280,5,,6.21,30.059055,,,,,,,,,,,FEW,2000,SCT,5500,BKN,21000,,,VFR,,,,,,,,,,,,METAR,378.0
ETSL 060920Z VRB01KT 9999 SCT015 BKN035 BKN050 15/11 Q1019 BLU,ETSL,2023-05-06T09:20:00Z,48.18,10.87,15.0,11.0,0,1,,6.21,30.088583,,,,,,,,,,,SCT,1500,BKN,3500,BKN,5000,,,VFR,,,,,,,,,,,,METAR,548.0
ETSI 060920Z AUTO 29005KT 5000 // ////// 16/11 Q1018 ///,ETSI,2023-05-06T09:20:00Z,48.72,11.53,16.0,11.0,290,5,,3.11,30.059055,,,TRUE,,,,,,,,,,,,,,,,,,,,,,,,,,,,METAR,366.0
ETSH 060920Z 33005KT 8000 BKN006 10/08 Q1017 YLO,ETSH,2023-05-06T09:20:00Z,51.77,13.17,10.0,8.0,330,5,,4.97,30.029528,,,,,,,,,,,BKN,600,,,,,,,IFR,,,,,,,,,,,,METAR,79.0
ETSB 060920Z AUTO 15005KT //// // ////// 16/09 Q1018 ///,ETSB,2023-05-06T09:20:00Z,50.17,7.07,16.0,9.0,150,5,,,30.059055,,,TRUE,,,,,,,,,,,,,,,,,,,,,,,,,,,,SPECI,477.0
ETNW 060920Z 30006KT 9999 BKN013 13/11 Q1018 GRN,ETNW,2023-05-06T09:20:00Z,52.45,9.42,13.0,11.0,300,6,,6.21,30.059055,,,,,,,,,,,BKN,1300,,,,,,,MVFR,,,,,,,,,,,,METAR,57.0
ETNT 060920Z AUTO 10005KT //// // ////// 11/11 Q1018 ///,ETNT,2023-05-06T09:20:00Z,53.53,7.67,11.0,11.0,100,5,,,30.059055,,,TRUE,,,,,,,,,,,,,,,,,,,,,,,,,,,,SPECI,5.0
ETNS 060920Z AUTO 09008KT 6000 // ////// 07/06 Q1020 ///,ETNS,2023-05-06T09:20:00Z,54.47,9.52,7.0,6.0,90,8,,3.73,30.11811,,,TRUE,,,,,,,,,,,,,,,,,,,,,,,,,,,,SPECI,22.0
ETNN 060920Z 10004KT 9999 FEW030 BKN220 18/10 Q1017 BLU+,ETNN,2023-05-06T09:20:00Z,50.82,6.67,18.0,10.0,100,4,,6.21,30.029528,,,,,,,,,,,FEW,3000,BKN,22000,,,,,VFR,,,,,,,,,,,,METAR,108.0
ETNL 060920Z 08013KT 9999 -RA SCT013 BKN050 07/05 Q1020 BLU,ETNL,2023-05-06T09:20:00Z,53.92,12.27,7.0,5.0,80,13,,6.21,30.11811,,,,,,,,,,-RA,SCT,1300,BKN,5000,,,,,VFR,,,,,,,,,,,,METAR,40.0
ETNH 060920Z AUTO 08008KT 4900 // ////// 07/07 Q1019 ///,ETNH,2023-05-06T09:20:00Z,54.32,9.55,7.0,7.0,80,8,,3.04,30.088583,,,TRUE,,,,,,,,,,,,,,,,,,,,,,,,,,,,SPECI,6.0
ETMN 060920Z 15004KT 9000 SCT005 BKN013 10/08 Q1019 GRN,ETMN,2023-05-06T09:20:00Z,53.77,8.67,10.0,8.0,150,4,,5.59,30.088583,,,,,,,,,,,SCT,500,BKN,1300,,,,,MVFR,,,,,,,,,,,,METAR,23.0
ETHS 060920Z AUTO 03004KT 6000 // ////// 12/10 Q1018 ///,ETHS,2023-05-06T09:20:00Z,52.92,10.18,12.0,10.0,30,4,,3.73,30.059055,,,TRUE,,,,,,,,,,,,,,,,,,,,,,,,,,,,SPECI,71.0
ETHN 060920Z 29005KT 9999 SCT022 BKN180 15/10 Q1018 BLU,ETHN,2023-05-06T09:20:00Z,49.38,9.97,15.0,10.0,290,5,,6.21,30.059055,,,,,,,,,,,SCT,2200,BKN,18000,,,,,VFR,,,,,,,,,,,,METAR,466.0
ETHL 060920Z 04002KT 9999 FEW020 BKN060 16/11 Q1019 BLU,ETHL,2023-05-06T09:20:00Z,48.22,9.92,16.0,11.0,40,2,,6.21,30.088583,,,,,,,,,,,FEW,2000,BKN,6000,,,,,VFR,,,,,,,,,,,,METAR,536.0
ETHF 060920Z 08002KT 9999 FEW020 BKN320 16/10 Q1018 BLU+,ETHF,2023-05-06T09:20:00Z,51.12,9.28,16.0,10.0,80,2,,6.21,30.059055,,,,,,,,,,,FEW,2000,BKN,32000,,,,,VFR,,,,,,,,,,,,METAR,171.0
ETHC 060920Z AUTO 27006KT 7000 // ////// 15/11 Q1018 ///,ETHC,2023-05-06T09:20:00Z,52.6,10.02,15.0,11.0,270,6,,4.35,30.059055,,,TRUE,,,,,,,,,,,,,,,,,,,,,,,,,,,,SPECI,35.0
ETHB 060920Z AUTO 35004KT 9999 // ////// 14/11 Q1018 ///,ETHB,2023-05-06T09:20:00Z,52.27,9.07,14.0,11.0,350,4,,6.21,30.059055,,,TRUE,,,,,,,,,,,,,,,,,,,,,,,,,,,,SPECI,69.0
ETHA 060920Z AUTO 03005KT 9999 // ////// 14/11 Q1019 ///,ETHA,2023-05-06T09:20:00Z,47.83,10.87,14.0,11.0,30,5,,6.21,30.088583,,,TRUE,,,,,,,,,,,,,,,,,,,,,,,,,,,,SPECI,738.0
ETGG 060920Z AUTO 12012G22KT 9999 // ////// 07/06 Q1020 ///,ETGG,2023-05-06T09:20:00Z,54.83,9.5,7.0,6.0,120,12,22,6.21,30.11811,,,TRUE,,,,,,,,,,,,,,,,,,,,,,,,,,,,SPECI,33.0
ESUT 060920Z AUTO VRB02KT 9999 FEW120/// 04/M07 Q1024,ESUT,2023-05-06T09:20:00Z,65.8,15.08,4.0,-7.0,0,2,,6.21,30.236221,,,TRUE,,,,,,,,FEW,12000,,,,,,,VFR,,,,,,,,,,,,METAR,457.0
ESUP 060920Z AUTO VRB02KT 9999 BKN059/// ///// Q1027,ESUP,2023-05-06T09:20:00Z,67.25,23.07,,,0,2,,6.21,30.324802,,,TRUE,,,,,,,,BKN,5900,,,,,,,VFR,,,,,,,,,,,,METAR,164.0
ESTL 060920Z 12018KT CAVOK 11/M00 Q1026,ESTL,2023-05-06T09:20:00Z,56.07,13.2,11.0,0.0,120,18,,6.21,30.295275,,,,,,,,,,,CAVOK,,,,,,,,VFR,,,,,,,,,,,,METAR,39.0
ESTA 060920Z AUTO 10023KT 9999 FEW200/// 11/M02 Q1025,ESTA,2023-05-06T09:20:00Z,56.28,12.83,11.0,-2.0,100,23,,6.21,30.265747,,,TRUE,,,,,,,,FEW,20000,,,,,,,VFR,,,,,,,,,,,,METAR,19.0
ESSV 060920Z 11014KT 9999 FEW045 06/M05 Q1031,ESSV,2023-05-06T09:20:00Z,57.67,18.35,6.0,-5.0,110,14,,6.21,30.442913,,,,,,,,,,,FEW,4500,,,,,,,VFR,,,,,,,,,,,,METAR,38.0
ESST 060920Z AUTO 16009KT 9999 NCD 09/M05 Q1030,ESST,2023-05-06T09:20:00Z,60.15,12.98,9.0,-5.0,160,9,,6.21,30.413385,,,TRUE,,,,,,,,CLR,,,,,,,,VFR,,,,,,,,,,,,METAR,110.0
ESSP 060920Z 12011KT 100V160 9999 SCT040 07/M03 Q1032,ESSP,2023-05-06T09:20:00Z,58.58,16.25,7.0,-3.0,120,11,,6.21,30.47244,,,,,,,,,,,SCT,4000,,,,,,,VFR,,,,,,,,,,,,METAR,3.0
ESSL 060920Z AUTO 12013KT 9999 SCT039/// 07/M03 Q1031,ESSL,2023-05-06T09:20:00Z,58.4,15.67,7.0,-3.0,120,13,,6.21,30.442913,,,TRUE,,,,,,,,SCT,3900,,,,,,,VFR,,,,,,,,,,,,METAR,51.0
ESSD 060920Z AUTO 17005KT 110V220 9999 NCD 10/M06 Q1029,ESSD,2023-05-06T09:20:00Z,60.42,15.5,10.0,-6.0,170,5,,6.21,30.383858,,,TRUE,,,,,,,,CLR,,,,,,,,VFR,,,,,,,,,,,,METAR,151.0
ESSB 060920Z 17004KT 140V240 CAVOK 07/M08 Q1032,ESSB,2023-05-06T09:20:00Z,59.35,17.93,7.0,-8.0,170,4,,6.21,30.47244,,,,,,,,,,,CAVOK,,,,,,,,VFR,,,,,,,,,,,,METAR,14.0
ESSA 060920Z 15006KT 040V180 CAVOK 06/M07 Q1032 NOSIG,ESSA,2023-05-06T09:20:00Z,59.65,17.93,6.0,-7.0,150,6,,6.21,30.47244,,,,,,TRUE,,,,,CAVOK,,,,,,,,VFR,,,,,,,,,,,,METAR,36.0
ESPE 060920Z AUTO VRB05KT 9999 NCD 09/M08 Q1026,ESPE,2023-05-06T09:20:00Z,65.88,20.15,9.0,-8.0,0,5,,6.21,30.295275,,,TRUE,,,,,,,,CLR,,,,,,,,VFR,,,,,,,,,,,,METAR,182.0
ESPA 060920Z 14007KT CAVOK 08/M05 Q1028,ESPA,2023-05-06T09:20:00Z,65.53,22.12,8.0,-5.0,140,7,,6.21,30.35433,,,,,,,,,,,CAVOK,,,,,,,,VFR,,,,,,,,,,,,METAR,12.0
ESOW 060920Z 19008KT 150V230 CAVOK 08/M04 Q1032,ESOW,2023-05-06T09:20:00Z,59.58,16.63,8.0,-4.0,190,8,,6.21,30.47244,,,,,,,,,,,CAVOK,,,,,,,,VFR,,,,,,,,,,,,METAR,7.0
ESOK 060920Z AUTO 13008KT 090V190 9999 NCD 07/M04 Q1030,ESOK,2023-05-06T09:20:00Z,59.45,13.33,7.0,-4.0,130,8,,6.21,30.413385,,,TRUE,,,,,,,,CLR,,,,,,,,VFR,,,,,,,,,,,,METAR,101.0
ESOH 060920Z AUTO VRB05KT 9999 NCD 08/M03 Q1030,ESOH,2023-05-06T09:20:00Z,60.02,13.58,8.0,-3.0,0,5,,6.21,30.413385,,,TRUE,,,,,,,,CLR,,,,,,,,VFR,,,,,,,,,,,,METAR,145.0
ESOE 060920Z AUTO 10009KT 070V130 9999 NCD 07/M05 Q1031,ESOE,2023-05-06T09:20:00Z,59.22,15.05,7.0,-5.0,100,9,,6.21,30.442913,,,TRUE,,,,,,,,CLR,,,,,,,,VFR,,,,,,,,,,,,METAR,57.0
ESNZ 060920Z AUTO 20011KT 9999 FEW230/// 07/M07 Q1025,ESNZ,2023-05-06T09:20:00Z,63.18,14.5,7.0,-7.0,200,11,,6.21,30.265747,,,TRUE,,,,,,,,FEW,23000,,,,,,,VFR,,,,,,,,,,,,METAR,360.0
ESNX 060920Z AUTO 19005KT 130V240 9999 NCD 08/M09 Q1025,ESNX,2023-05-06T09:20:00Z,65.58,19.28,8.0,-9.0,190,5,,6.21,30.265747,,,TRUE,,,,,,,,CLR,,,,,,,,VFR,,,,,,,,,,,,METAR,380.0
ESNV 060920Z AUTO 19005KT 150V230 9999 NCD 07/M05 Q1025,ESNV,2023-05-06T09:20:00Z,64.58,16.83,7.0,-5.0,190,5,,6.21,30.265747,,,TRUE,,,,,,,,CLR,,,,,,,,VFR,,,,,,,,,,,,METAR,348.0
ESNU 060920Z 18013KT CAVOK 06/M01 Q1029,ESNU,2023-05-06T09:20:00Z,63.78,20.28,6.0,-1.0,180,13,,6.21,30.383858,,,,,,,,,,,CAVOK,,,,,,,,VFR,,,,,,,,,,,,METAR,8.0
ESNS 060920Z 06007KT CAVOK 09/M06 Q1027,ESNS,2023-05-06T09:20:00Z,64.62,21.07,9.0,-6.0,60,7,,6.21,30.324802,,,,,,,,,,,CAVOK,,,,,,,,VFR,,,,,,,,,,,,METAR,41.0
ESNQ 060920Z AUTO 20009KT 150V220 9999 NCD 03/M08 Q1024,ESNQ,2023-05-06T09:20:00Z,67.82,20.33,3.0,-8.0,200,9,,6.21,30.236221,,,TRUE,,,,,,,,CLR,,,,,,,,VFR,,,,,,,,,,,,METAR,447.0
ESNO 060920Z AUTO 18010KT 150V210 9999 NCD 06/M00 Q1028,ESNO,2023-05-06T09:20:00Z,63.4,18.97,6.0,0.0,180,10,,6.21,30.35433,,,TRUE,,,,,,,,CLR,,,,,,,,VFR,,,,,,,,,,,,METAR,100.0
ESNN 060920Z AUTO 14011KT 9999 SCT160/// 07/M00 Q1029,ESNN,2023-05-06T09:20:00Z,62.52,17.43,7.0,0.0,140,11,,6.21,30.383858,,,TRUE,,,,,,,,SCT,16000,,,,,,,VFR,,,,,,,,,,,,METAR,4.0
ESNL 060920Z AUTO 21005KT 170V250 9999 NCD 10/M10 Q1026,ESNL,2023-05-06T09:20:00Z,64.55,18.72,10.0,-10.0,210,5,,6.21,30.295275,,,TRUE,,,,,,,,CLR,,,,,,,,VFR,,,,,,,,,,,,METAR,220.0
ESNK 060920Z AUTO 16010KT 9999 NCD ///// Q1028,ESNK,2023-05-06T09:20:00Z,63.03,17.77,,,160,10,,6.21,30.35433,,,TRUE,,,,,,,,CLR,,,,,,,,VFR,,,,,,,,,,,,SPECI,4.0
ESNG 060920Z AUTO 14006KT 110V200 9999 NCD ///// Q1025,ESNG,2023-05-06T09:20:00Z,67.13,20.82,,,140,6,,6.21,30.265747,,,TRUE,,,,,,,,CLR,,,,,,,,VFR,,,,,,,,,,,,SPECI,300.0
ESND 060920Z AUTO 22008KT 170V300 9999 FEW120/// 08/M08 Q1027,ESND,2023-05-06T09:20:00Z,62.05,14.42,8.0,-8.0,220,8,,6.21,30.324802,,,TRUE,,,,,,,,FEW,12000,,,,,,,VFR,,,,,,,,,,,,METAR,352.0
ESMX 060920Z AUTO 07008KT 020V120 9999 R01///// R19/P2000N // FEW043/// 08/M03 Q1028,ESMX,2023-05-06T09:20:00Z,56.92,14.72,8.0,-3.0,70,8,,6.21,30.35433,,,TRUE,,,,,,,,FEW,4300,,,,,,,VFR,,,,,,,,,,,,SPECI,176.0
ESMT 060920Z AUTO 12011KT 080V150 9999 NCD 11/M02 Q1026,ESMT,2023-05-06T09:20:00Z,56.68,12.82,11.0,-2.0,120,11,,6.21,30.295275,,,TRUE,,,,,,,,CLR,,,,,,,,VFR,,,,,,,,,,,,METAR,24.0
ESMS 060920Z 09019KT CAVOK 09/00 Q1024,ESMS,2023-05-06T09:20:00Z,55.53,13.37,9.0,0.0,90,19,,6.21,30.236221,,,,,,,,,,,CAVOK,,,,,,,,VFR,,,,,,,,,,,,METAR,68.0
ESMQ 060920Z AUTO 08012KT 050V120 9999 FEW029/// SCT033/// 07/M01 Q1030,ESMQ,2023-05-06T09:20:00Z,56.68,16.3,7.0,-1.0,80,12,,6.21,30.413385,,,TRUE,,,,,,,,FEW,2900,SCT,3300,,,,,VFR,,,,,,,,,,,,METAR,3.0
ESMK 060920Z 10019KT 9999 FEW017 09/02 Q1027,ESMK,2023-05-06T09:20:00Z,55.92,14.08,9.0,2.0,100,19,,6.21,30.324802,,,,,,,,,,,FEW,1700,,,,,,,VFR,,,,,,,,,,,,METAR,20.0
ESKN 060920Z 13009KT 110V210 9999 SCT036 06/M03 Q1032,ESKN,2023-05-06T09:20:00Z,58.78,16.92,6.0,-3.0,130,9,,6.21,30.47244,,,,,,,,,,,SCT,3600,,,,,,,VFR,,,,,,,,,,,,METAR,41.0
ESKM 060920Z AUTO 11006KT 080V150 9999 FEW160/// SCT190/// 09/M05 Q1029,ESKM,2023-05-06T09:20:00Z,60.97,14.52,9.0,-5.0,110,6,,6.21,30.383858,,,TRUE,,,,,,,,FEW,16000,SCT,19000,,,,,VFR,,,,,,,,,,,,METAR,184.0
ESIB 060920Z 11009KT 080V140 CAVOK 08/M04 Q1029,ESIB,2023-05-06T09:20:00Z,58.42,12.7,8.0,-4.0,110,9,,6.21,30.383858,,,,,,,,,,,CAVOK,,,,,,,,VFR,,,,,,,,,,,,METAR,51.0
ESIA 060920Z 09014KT CAVOK 06/M02 Q1030,ESIA,2023-05-06T09:20:00Z,58.52,14.5,6.0,-2.0,90,14,,6.21,30.413385,,,,,,,,,,,CAVOK,,,,,,,,VFR,,,,,,,,,,,,METAR,94.0
ESGT 060920Z AUTO 11010KT 070V160 9999 R15///// R33///// NCD 08/M06 Q1028,ESGT,2023-05-06T09:20:00Z,58.32,12.33,8.0,-6.0,110,10,,6.21,30.35433,,,TRUE,,,,,,,,CLR,,,,,,,,VFR,,,,,,,,,,,,METAR,40.0
ESGP 060920Z 11010KT 090V150 CAVOK 10/M05 Q1027,ESGP,2023-05-06T09:20:00Z,57.77,11.87,10.0,-5.0,110,10,,6.21,30.324802,,,,,,,,,,,CAVOK,,,,,,,,VFR,,,,,,,,,,,,METAR,15.0
ESGJ 060920Z AUTO 11008KT 040V160 9999 NCD 07/M02 Q1028,ESGJ,2023-05-06T09:20:00Z,57.77,14.07,7.0,-2.0,110,8,,6.21,30.35433,,,TRUE,,,,,,,,CLR,,,,,,,,VFR,,,,,,,,,,,,METAR,224.0
ESGG 060920Z 12012KT CAVOK 09/M04 Q1027,ESGG,2023-05-06T09:20:00Z,57.67,12.3,9.0,-4.0,120,12,,6.21,30.324802,,,,,,,,,,,CAVOK,,,,,,,,VFR,,,,,,,,,,,,METAR,152.0
ESDF 060920Z 09016KT 9999 FEW043 09/00 Q1028,ESDF,2023-05-06T09:20:00Z,56.27,15.27,9.0,0.0,90,16,,6.21,30.35433,,,,,,,,,,,FEW,4300,,,,,,,VFR,,,,,,,,,,,,METAR,52.0
ESCM 060920Z 20005KT 160V250 CAVOK 08/M02 Q1032,ESCM,2023-05-06T09:20:00Z,59.88,17.6,8.0,-2.0,200,5,,6.21,30.47244,,,,,,,,,,,CAVOK,,,,,,,,VFR,,,,,,,,,,,,METAR,21.0
ESCF 060920Z 13008KT 060V160 9999 FEW039 06/M03 Q1031,ESCF,2023-05-06T09:20:00Z,58.38,15.52,6.0,-3.0,130,8,,6.21,30.442913,,,,,,,,,,,FEW,3900,,,,,,,VFR,,,,,,,,,,,,METAR,86.0
ENZV 060920Z 10008KT 080V150 CAVOK 12/M06 Q1023,ENZV,2023-05-06T09:20:00Z,58.88,5.63,12.0,-6.0,100,8,,6.21,30.206694,,,,,,,,,,,CAVOK,,,,,,,,VFR,,,,,,,,,,,,METAR,7.0
ENWV 060920Z AUTO 11026KT 9999NDV OVC007/// 07/06 Q1018 W///S4,ENWV,2023-05-06T09:20:00Z,56.28,3.4,7.0,6.0,110,26,,,30.059055,,,TRUE,,,,,,,,OVC,700,,,,,,,,,,,,,,,,,,,METAR,30.0
ENVD 060920Z 28013KT 9999 FEW015 SCT060 06/01 Q1025,ENVD,2023-05-06T09:20:00Z,70.07,29.85,6.0,1.0,280,13,,6.21,30.265747,,,,,,,,,,,FEW,1500,SCT,6000,,,,,VFR,,,,,,,,,,,,METAR,39.0
ENVA 060920Z 24008KT CAVOK 08/M01 Q1026 NOSIG RMK WIND 670FT 31005KT,ENVA,2023-05-06T09:20:00Z,63.47,10.92,8.0,-1.0,240,8,,6.21,30.295275,,,,,,TRUE,,,,,CAVOK,,,,,,,,VFR,,,,,,,,,,,,SPECI,12.0
ENUN 060920Z AUTO 20015KT 9999NDV FEW130/// 06/01 Q1024 W07/S3,ENUN,2023-05-06T09:20:00Z,,,6.0,1.0,200,15,,,30.236221,,,TRUE,,,,,,,,FEW,13000,,,,,,,,,,,,,,,,,,,METAR,
ENUG 060920Z AUTO 24020KT 9999NDV /// 07/01 Q1023 W///S4,ENUG,2023-05-06T09:20:00Z,71.3,22.25,7.0,1.0,240,20,,,30.206694,,,TRUE,,,,,,,,,,,,,,,,,,,,,,,,,,,,METAR,30.0
ENTO 060920Z 10006KT 060V150 CAVOK 08/M05 Q1029 NOSIG,ENTO,2023-05-06T09:20:00Z,59.2,10.27,8.0,-5.0,100,6,,6.21,30.383858,,,,,,TRUE,,,,,CAVOK,,,,,,,,VFR,,,,,,,,,,,,METAR,84.0
ENTC 060920Z 21007KT CAVOK 04/M02 Q1026 NOSIG RMK WIND 2600FT 19006KT,ENTC,2023-05-06T09:20:00Z,69.68,18.92,4.0,-2.0,210,7,,6.21,30.295275,,,,,,TRUE,,,,,CAVOK,,,,,,,,VFR,,,,,,,,,,,,SPECI,9.0
ENSS 060920Z AUTO 26011KT 9999 BKN062/// OVC076/// 04/00 Q1025 RMK WIND 0500FT 26017KT,ENSS,2023-05-06T09:20:00Z,70.35,31.05,4.0,0.0,260,11,,6.21,30.265747,,,TRUE,,,,,,,,BKN,6200,OVC,7600,,,,,VFR,,,,,,,,,,,,SPECI,13.0
ENSR 060920Z AUTO 18004KT 140V230 9999 NCD 06/M05 Q1026 RMK WIND RWY32 15003KT WIND 1118FT 18004KT,ENSR,2023-05-06T09:20:00Z,69.78,20.97,6.0,-5.0,180,4,,6.21,30.295275,,,TRUE,,,,,,,,CLR,,,,,,,,VFR,,,,,,,,,,,,SPECI,5.0
ENSL 060920Z AUTO 11035KT 9999NDV OVC016/// 07/03 Q1019 W05/S5,ENSL,2023-05-06T09:20:00Z,58.37,1.9,7.0,3.0,110,35,,,30.088583,,,TRUE,,,,,,,,OVC,1600,,,,,,,,,,,,,,,,,,,METAR,50.0
ENSK 060920Z 14007KT CAVOK 06/M02 Q1026,ENSK,2023-05-06T09:20:00Z,68.57,15.02,6.0,-2.0,140,7,,6.21,30.295275,,,,,,,,,,,CAVOK,,,,,,,,VFR,,,,,,,,,,,,METAR,3.0
ENSH 060920Z 11008KT CAVOK 05/M02 Q1026 RMK WIND 0150FT 12009KT,ENSH,2023-05-06T09:20:00Z,68.25,14.67,5.0,-2.0,110,8,,6.21,30.295275,,,,,,,,,,,CAVOK,,,,,,,,VFR,,,,,,,,,,,,SPECI,9.0
ENSG 060920Z 06007KT 020V100 CAVOK 06/M07 Q1025 RMK WIND 3806FT 12013KT,ENSG,2023-05-06T09:20:00Z,61.15,7.13,6.0,-7.0,60,7,,6.21,30.265747,,,,,,,,,,,CAVOK,,,,,,,,VFR,,,,,,,,,,,,SPECI,493.0
ENSF 060920Z AUTO 14027KT 9999NDV OVC055/// ///// Q//// W///S4,ENSF,2023-05-06T09:20:00Z,61.25,1.85,,,140,27,,,,,,TRUE,,,,,,,,OVC,5500,,,,,,,,,,,,,,,,,,,METAR,15.0
ENSE 060920Z AUTO 14025KT //// OVC056/// 08/02 Q1023 W///S4,ENSE,2023-05-06T09:20:00Z,61.45,2.15,8.0,2.0,140,25,,,30.206694,,,TRUE,,,,,,,,OVC,5600,,,,,,,,,,,,,,,,,,,METAR,10.0
ENSD 060920Z VRB02KT CAVOK 09/M03 Q1025 RMK WIND RWY26 07003KT WIND 1140FT VRB03KT,ENSD,2023-05-06T09:20:00Z,61.82,6.12,9.0,-3.0,0,2,,6.21,30.265747,,,,,,,,,,,CAVOK,,,,,,,,VFR,,,,,,,,,,,,SPECI,61.0
ENRY 060920Z 11009KT 080V140 CAVOK 09/M06 Q1029,ENRY,2023-05-06T09:20:00Z,59.37,10.77,9.0,-6.0,110,9,,6.21,30.383858,,,,,,,,,,,CAVOK,,,,,,,,VFR,,,,,,,,,,,,METAR,45.0
ENRS 060920Z 13005KT 110V170 CAVOK 06/M03 Q1026,ENRS,2023-05-06T09:20:00Z,67.52,12.1,6.0,-3.0,130,5,,6.21,30.295275,,,,,,,,,,,CAVOK,,,,,,,,VFR,,,,,,,,,,,,METAR,4.0
ENRO 060920Z AUTO 19009KT 150V220 9999 NCD 05/M07 Q1024,ENRO,2023-05-06T09:20:00Z,62.57,11.33,5.0,-7.0,190,9,,6.21,30.236221,,,TRUE,,,,,,,,CLR,,,,,,,,VFR,,,,,,,,,,,,METAR,624.0
ENRM 060920Z AUTO 18004KT 140V220 9999 NCD 09/M04 Q1026,ENRM,2023-05-06T09:20:00Z,64.83,11.13,9.0,-4.0,180,4,,6.21,30.295275,,,TRUE,,,,,,,,CLR,,,,,,,,VFR,,,,,,,,,,,,METAR,4.0
ENRA 060920Z 30005KT CAVOK 06/M08 Q1026,ENRA,2023-05-06T09:20:00Z,66.37,14.3,6.0,-8.0,300,5,,6.21,30.295275,,,,,,,,,,,CAVOK,,,,,,,,VFR,,,,,,,,,,,,METAR,66.0
ENQR 060920Z AUTO 13018KT 9999NDV OVC058/// 08/02 Q1022 W08/S4,ENQR,2023-05-06T09:20:00Z,61.52,2.22,8.0,2.0,130,18,,,30.177166,,,TRUE,,,,,,,,OVC,5800,,,,,,,,,,,,,,,,,,,METAR,10.0
ENQC 060920Z AUTO 11015KT 9999NDV OVC067/// 10/02 Q1023 W///S3,ENQC,2023-05-06T09:20:00Z,60.88,3.62,10.0,2.0,110,15,,,30.206694,,,TRUE,,,,,,,,OVC,6700,,,,,,,,,,,,,,,,,,,METAR,20.0
ENQA 060920Z AUTO 13016KT 9999NDV BKN066/// BKN110/// 08/01 Q1023 W10/S3,ENQA,2023-05-06T09:20:00Z,60.65,3.72,8.0,1.0,130,16,,,30.206694,,,TRUE,,,,,,,,BKN,6600,BKN,11000,,,,,,,,,,,,,,,,,METAR,90.0
ENOV 060920Z 25005KT 180V310 CAVOK 11/M07 Q1024 RMK WIND RWY24 01003KT WIND 2090FT 17008KT,ENOV,2023-05-06T09:20:00Z,62.17,6.07,11.0,-7.0,250,5,,6.21,30.236221,,,,,,,,,,,CAVOK,,,,,,,,VFR,,,,,,,,,,,,SPECI,72.0
ENOL 060920Z 15003KT 110V200 CAVOK 10/M04 Q1025 NOSIG,ENOL,2023-05-06T09:20:00Z,63.7,9.6,10.0,-4.0,150,3,,6.21,30.265747,,,,,,TRUE,,,,,CAVOK,,,,,,,,VFR,,,,,,,,,,,,METAR,9.0
ENOA 060920Z 15016KT 100V170 CAVOK 08/01 Q1022 W///S4,ENOA,2023-05-06T09:20:00Z,60.5,2.83,8.0,1.0,150,16,,6.21,30.177166,,,,,,,,,,,CAVOK,,,,,,,,VFR,,,,,,,,,,,,SPECI,5.0
ENNM 060920Z AUTO 06008KT 9999 NCD 09/M04 Q1026,ENNM,2023-05-06T09:20:00Z,64.47,11.57,9.0,-4.0,60,8,,6.21,30.295275,,,TRUE,,,,,,,,CLR,,,,,,,,VFR,,,,,,,,,,,,METAR,2.0
ENNA 060920Z 36004KT 9999 FEW047 08/M05 Q1026 RMK WIND 1800FT 26010KT,ENNA,2023-05-06T09:20:00Z,70.07,24.97,8.0,-5.0,360,4,,6.21,30.295275,,,,,,,,,,,FEW,4700,,,,,,,VFR,,,,,,,,,,,,SPECI,12.0
ENMS 060920Z 13005KT 070V210 CAVOK 09/M08 Q1026 RMK WIND 412FT VRB03KT,ENMS,2023-05-06T09:20:00Z,65.78,13.22,9.0,-8.0,130,5,,6.21,30.295275,,,,,,,,,,,CAVOK,,,,,,,,VFR,,,,,,,,,,,,SPECI,44.0
ENML 060920Z VRB02KT CAVOK 11/M04 Q1025,ENML,2023-05-06T09:20:00Z,62.75,7.27,11.0,-4.0,0,2,,6.21,30.265747,,,,,,,,,,,CAVOK,,,,,,,,VFR,,,,,,,,,,,,METAR,3.0
ENMH 060920Z AUTO 28013KT 9999 FEW027/// SCT034/// BKN127/// 05/02 Q1025,ENMH,2023-05-06T09:20:00Z,71.02,27.82,5.0,2.0,280,13,,6.21,30.265747,,,TRUE,,,,,,,,FEW,2700,SCT,3400,BKN,12700,,,VFR,,,,,,,,,,,,METAR,10.0
ENLE 060920Z 10025KT 9999 BKN009 07/06 Q1019 W08/S5,ENLE,2023-05-06T09:20:00Z,56.53,3.22,7.0,6.0,100,25,,6.21,30.088583,,,,,,,,,,,BKN,900,,,,,,,IFR,,,,,,,,,,,,METAR,10.0
ENLA 060920Z AUTO 10028KT 9999NDV OVC009/// 07/06 Q1018 W///S5,ENLA,2023-05-06T09:20:00Z,57.1,2.83,7.0,6.0,100,28,,,30.059055,,,TRUE,,,,,,,,OVC,900,,,,,,,,,,,,,,,,,,,METAR,10.0
ENKR 060920Z 29006KT 260V350 CAVOK 06/M00 Q1026 RMK WIND 731FT 30008KT,ENKR,2023-05-06T09:20:00Z,69.72,29.88,6.0,0.0,290,6,,6.21,30.295275,,,,,,,,,,,CAVOK,,,,,,,,VFR,,,,,,,,,,,,SPECI,86.0
ENKB 060920Z 10005KT 020V160 CAVOK 11/M05 Q1025 RMK WIND 745FT 11007KT,ENKB,2023-05-06T09:20:00Z,63.12,7.82,11.0,-5.0,100,5,,6.21,30.265747,,,,,,,,,,,CAVOK,,,,,,,,VFR,,-0.7,,,,,,,,,,SPECI,62.0
ENJS 060920Z 14039KT 9999 BKN020 07/02 Q1020 W07/S/,ENJS,2023-05-06T09:20:00Z,,,7.0,2.0,140,39,,6.21,30.11811,,,,,,,,,,,BKN,2000,,,,,,,MVFR,,,,,,,,,,,,METAR,
ENHV 060920Z AUTO 26012KT 9999 BKN027/// OVC080/// 05/M00 Q1025,ENHV,2023-05-06T09:20:00Z,71.02,25.97,5.0,0.0,260,12,,6.21,30.265747,,,TRUE,,,,,,,,BKN,2700,OVC,8000,,,,,MVFR,,,,,,,,,,,,METAR,13.0
ENHM 060920Z AUTO 14036KT //// FEW024/// SCT028/// OVC039/// 07/06 Q1021 W08/S/,ENHM,2023-05-06T09:20:00Z,59.57,2.23,7.0,6.0,140,36,,,30.147638,,,TRUE,,,,,,,,FEW,2400,SCT,2800,OVC,3900,,,,,,,,,,,,,,,METAR,10.0
ENHK 060920Z AUTO 25003KT 180V300 9999 NCD 07/M02 Q1026,ENHK,2023-05-06T09:20:00Z,70.48,22.13,7.0,-2.0,250,3,,6.21,30.295275,,,TRUE,,,,,,,,CLR,,,,,,,,VFR,,,,,,,,,,,,METAR,6.0
ENHF 060920Z AUTO 24010KT 9999 NCD 04/M01 Q1025 RMK WIND 1254FT 26013KT,ENHF,2023-05-06T09:20:00Z,70.67,23.67,4.0,-1.0,240,10,,6.21,30.265747,,,TRUE,,,,,,,,CLR,,,,,,,,VFR,,,,,,,,,,,,SPECI,79.0
ENHD 060920Z 11017KT CAVOK 12/M06 Q1023,ENHD,2023-05-06T09:20:00Z,59.35,5.22,12.0,-6.0,110,17,,6.21,30.206694,,,,,,,,,,,CAVOK,,,,,,,,VFR,,,,,,,,,,,,METAR,22.0
ENGM 060920Z 19009G21KT 140V240 CAVOK 08/M07 Q1029 NOSIG,ENGM,2023-05-06T09:20:00Z,60.2,11.07,8.0,-7.0,190,9,21,6.21,30.383858,,,,,,TRUE,,,,,CAVOK,,,,,,,,VFR,,,,,,,,,,,,METAR,204.0
ENGC 060920Z 15023KT CAVOK 08/01 Q1022 W07/S5,ENGC,2023-05-06T09:20:00Z,61.02,2.02,8.0,1.0,150,23,,6.21,30.177166,,,,,,,,,,,CAVOK,,,,,,,,VFR,,,,,,,,,,,,SPECI,10.0
ENFL 060920Z 10009KT CAVOK 11/M02 Q1024,ENFL,2023-05-06T09:20:00Z,61.57,5.02,11.0,-2.0,100,9,,6.21,30.236221,,,,,,,,,,,CAVOK,,,,,,,,VFR,,,,,,,,,,,,METAR,1.0
ENFB 060920Z AUTO 14029KT 9999NDV OVC054/// ///// Q//// W///S4,ENFB,2023-05-06T09:20:00Z,61.2,1.83,,,140,29,,,,,,TRUE,,,,,,,,OVC,5400,,,,,,,,,,,,,,,,,,,SPECI,10.0
ENEV 060920Z 19005KT 140V230 CAVOK 05/M06 Q1026 RMK WIND 1400FT VRB04KT,ENEV,2023-05-06T09:20:00Z,68.48,16.67,5.0,-6.0,190,5,,6.21,30.295275,,,,,,,,,,,CAVOK,,,,,,,,VFR,,,,,,,,,,,,SPECI,26.0
ENDU 060920Z 21005KT 170V260 9999 FEW050 06/M07 Q1026 NOSIG RMK WIND 1100FT 18007KT WIND 2200FT 15006KT,ENDU,2023-05-06T09:20:00Z,69.05,18.55,6.0,-7.0,210,5,,6.21,30.295275,,,,,,TRUE,,,,,FEW,5000,,,,,,,VFR,,,,,,,,,,,,SPECI,65.0
ENDR 060920Z AUTO VRB02KT 9999NDV NCD 06/M01 Q1025 W///S5,ENDR,2023-05-06T09:20:00Z,64.35,7.77,6.0,-1.0,0,2,,,30.265747,,,TRUE,,,,,,,,CLR,,,,,,,,,,,,,,,,,,,,SPECI,10.0
ENCN 060920Z 08015KT 9999 FEW030 08/M02 Q1027,ENCN,2023-05-06T09:20:00Z,58.2,8.07,8.0,-2.0,80,15,,6.21,30.324802,,,,,,,,,,,FEW,3000,,,,,,,VFR,,,,,,,,,,,,METAR,17.0
ENBV 060920Z AUTO 25015KT 9999 BKN026/// BKN031/// OVC039/// 04/01 Q1025,ENBV,2023-05-06T09:20:00Z,70.87,29.02,4.0,1.0,250,15,,6.21,30.265747,,,TRUE,,,,,,,,BKN,2600,BKN,3100,OVC,3900,,,MVFR,,,,,,,,,,,,METAR,13.0
ENBS 060920Z AUTO 26016KT 9999 SCT030/// OVC040/// 02/M00 Q1024,ENBS,2023-05-06T09:20:00Z,70.62,29.68,2.0,0.0,260,16,,6.21,30.236221,,,TRUE,,,,,,,,SCT,3000,OVC,4000,,,,,VFR,,,,,,,,,,,,METAR,144.0
ENBR 060920Z 12006KT 070V160 CAVOK 11/M07 Q1023 NOSIG RMK WIND 1200FT 11013KT,ENBR,2023-05-06T09:20:00Z,60.28,5.22,11.0,-7.0,120,6,,6.21,30.206694,,,,,,TRUE,,,,,CAVOK,,,,,,,,VFR,,-1.3,,,,,,,,,,SPECI,49.0
ENBO 060920Z 11008KT CAVOK 07/M07 Q1026 NOSIG,ENBO,2023-05-06T09:20:00Z,67.27,14.37,7.0,-7.0,110,8,,6.21,30.295275,,,,,,TRUE,,,,,CAVOK,,,,,,,,VFR,,,,,,,,,,,,METAR,13.0
ENBN 060920Z 18004KT 150V300 CAVOK 11/M06 Q1026,ENBN,2023-05-06T09:20:00Z,65.47,12.22,11.0,-6.0,180,4,,6.21,30.295275,,,,,,,,,,,CAVOK,,,,,,,,VFR,,,,,,,,,,,,METAR,3.0
ENBL 060920Z 13008KT 100V180 CAVOK 08/M08 Q1024,ENBL,2023-05-06T09:20:00Z,61.4,5.77,8.0,-8.0,130,8,,6.21,30.236221,,,,,,,,,,,CAVOK,,,,,,,,VFR,,,,,,,,,,,,METAR,313.0
ENAT 060920Z 22008KT 170V260 CAVOK 07/M05 Q1026 RMK WIND 700FT 22014KT,ENAT,2023-05-06T09:20:00Z,69.97,23.37,7.0,-5.0,220,8,,6.21,30.295275,,,,,,,,,,,CAVOK,,,,,,,,VFR,,,,,,,,,,,,SPECI,3.0
ENAN 060920Z 17010KT 140V210 CAVOK 06/M02 Q1025,ENAN,2023-05-06T09:20:00Z,69.3,16.13,6.0,-2.0,170,10,,6.21,30.265747,,,,,,,,,,,CAVOK,,,,,,,,VFR,,,,,,,,,,,,METAR,13.0
ENAL 060920Z 09003KT 040V130 CAVOK 11/M04 Q1025,ENAL,2023-05-06T09:20:00Z,62.57,6.12,11.0,-4.0,90,3,,6.21,30.265747,,,,,,,,,,,CAVOK,,,,,,,,VFR,,,,,,,,,,,,METAR,21.0
ELLX 060920Z 17005KT 130V220 9999 FEW012 15/12 Q1018 NOSIG,ELLX,2023-05-06T09:20:00Z,49.63,6.2,15.0,12.0,170,5,,6.21,30.059055,,,,,,TRUE,,,,,FEW,1200,,,,,,,VFR,,,,,,,,,,,,METAR,374.0
EKYT 060920Z AUTO 10017KT 9999 BKN022/// 08/03 Q1025,EKYT,2023-05-06T09:20:00Z,57.1,9.87,8.0,3.0,100,17,,6.21,30.265747,,,TRUE,,,,,,,,BKN,2200,,,,,,,MVFR,,,,,,,,,,,,METAR,2.0
EKVJ 060920Z 09013KT 9999 -DZ FEW020 BKN080 06/// Q1022,EKVJ,2023-05-06T09:20:00Z,55.98,8.35,,,90,13,,6.21,30.177166,,,,,,,,,,-DZ,FEW,2000,BKN,8000,,,,,VFR,,,,,,,,,,,,SPECI,5.0
EKVG 060920Z AUTO 12017KT 7000 -DZ OVC004/// 07/07 Q1013 RMK OVC001/// WIND SKEID 13027KT,EKVG,2023-05-06T09:20:00Z,62.07,-7.27,7.0,7.0,120,17,,4.35,29.911417,,,TRUE,,,,,,,-DZ,OVC,400,,,,,,,LIFR,,,,,,,,,,,,SPECI,89.0
EKSP 060920Z 09011KT 9999 -DZRA OVC008 07/06 Q1021,EKSP,2023-05-06T09:20:00Z,55.22,9.27,7.0,6.0,90,11,,6.21,30.147638,,,,,,,,,,-DZ -RA,OVC,800,,,,,,,IFR,,,,,,,,,,,,METAR,40.0
EKSB 060920Z AUTO 10011KT 9999 OVC011/// 08/06 Q1021,EKSB,2023-05-06T09:20:00Z,54.97,9.8,8.0,6.0,100,11,,6.21,30.147638,,,TRUE,,,,,,,,OVC,1100,,,,,,,MVFR,,,,,,,,,,,,METAR,23.0
EKRS 060920Z AUTO VRB13KT //// // NCD 09/06 Q1023,EKRS,2023-05-06T09:20:00Z,55.42,11.8,9.0,6.0,0,13,,,30.206694,,,TRUE,,,,,,,,CLR,,,,,,,,,,,,,,,,,,,,METAR,34.0
EKRN 060920Z AUTO 08020KT 9999 OVC120/// 08/M00 Q1024,EKRN,2023-05-06T09:20:00Z,55.07,14.75,8.0,0.0,80,20,,6.21,30.236221,,,TRUE,,,,,,,,OVC,12000,,,,,,,VFR,,,,,,,,,,,,METAR,14.0
EKRK 060920Z 11017G27KT CAVOK 10/02 Q1024,EKRK,2023-05-06T09:20:00Z,55.58,12.13,10.0,2.0,110,17,27,6.21,30.236221,,,,,,,,,,,CAVOK,,,,,,,,VFR,,,,,,,,,,,,METAR,40.0
EKKA 060920Z AUTO 09015KT 9999 OVC076/// 07/02 Q1023,EKKA,2023-05-06T09:20:00Z,56.3,9.12,7.0,2.0,90,15,,6.21,30.206694,,,TRUE,,,,,,,,OVC,7600,,,,,,,VFR,,,,,,,,,,,,METAR,50.0
EKEB 060920Z AUTO 10013KT 9999 OVC014/// 07/05 Q1021,EKEB,2023-05-06T09:20:00Z,55.52,8.55,7.0,5.0,100,13,,6.21,30.147638,,,TRUE,,,,,,,,OVC,1400,,,,,,,MVFR,,,,,,,,,,,,METAR,29.0
EKCH 060920Z AUTO 09018KT 9999 NCD 10/01 Q1024 NOSIG,EKCH,2023-05-06T09:20:00Z,55.62,12.67,10.0,1.0,90,18,,6.21,30.236221,,,TRUE,,,TRUE,,,,,CLR,,,,,,,,VFR,,,,,,,,,,,,METAR,4.0
EKBI 060920Z AUTO 08012KT 9999 -SHRA OVC014/// 06/04 Q1022,EKBI,2023-05-06T09:20:00Z,55.73,9.15,6.0,4.0,80,12,,6.21,30.177166,,,TRUE,,,,,,,-SHRA,OVC,1400,,,,,,,MVFR,,,,,,,,,,,,METAR,67.0
EKAH 060920Z AUTO 10015G25KT 9999 BKN050/// 09/02 Q1024,EKAH,2023-05-06T09:20:00Z,56.28,10.62,9.0,2.0,100,15,25,6.21,30.236221,,,TRUE,,,,,,,,BKN,5000,,,,,,,VFR,,,,,,,,,,,,METAR,25.0
EGWU 060920Z 18006KT 9000 -RA SCT007 BKN050 BKN080 14/12 Q1014 TEMPO 6000 RA,EGWU,2023-05-06T09:20:00Z,51.55,-0.42,14.0,12.0,180,6,,5.59,29.940945,,,,,,,,,,-RA,SCT,700,BKN,5000,BKN,8000,,,VFR,,,,,,,,,,,,METAR,33.0
EGVP 060920Z 14010KT 6000 RA FEW001 OVC004 12/12 Q1012 TEMPO 3000 RMK YLO2 TEMPO YLO2,EGVP,2023-05-06T09:20:00Z,51.13,-1.57,12.0,12.0,140,10,,3.73,29.88189,,,,,,,,,,RA,FEW,100,OVC,400,,,,,LIFR,,,,,,,,,,,,METAR,80.0
EGVN 060920Z 11008KT 5000 -RA BKN006 OVC012 13/12 Q1012 BECMG 9000 -RA BKN009 RMK YLO1 BECMG GRN,EGVN,2023-05-06T09:20:00Z,51.77,-1.58,13.0,12.0,110,8,,3.11,29.88189,,,,,,,,,,-RA,BKN,600,OVC,1200,,,,,IFR,,,,,,,,,,,,METAR,83.0
EGVA 060920Z AUTO 10008KT 9999 -RA BKN012 13/13 A2987 RMK AO2 BKN V FEW CIG 010 RWY27 SLP119 FZRANO $,EGVA,2023-05-06T09:20:00Z,51.67,-1.78,13.0,13.0,100,8,,6.21,29.870079,1011.9,,TRUE,TRUE,TRUE,,,TRUE,,-RA,BKN,1200,,,,,,,MVFR,,,,,,,,,,,,SPECI,84.0
EGUB 060920Z 14008KT 8000 RA FEW011 OVC060 13/12 Q1013 TEMPO 6000 RA SCT010 RMK BLU TEMPO GRN,EGUB,2023-05-06T09:20:00Z,51.62,-1.08,13.0,12.0,140,8,,4.97,29.911417,,,,,,,,,,RA,FEW,1100,OVC,6000,,,,,MVFR,,,,,,,,,,,,METAR,56.0
EGTK 060920Z 13007KT 6000 -RA BKN008 12/12 Q1013,EGTK,2023-05-06T09:20:00Z,51.83,-1.32,12.0,12.0,130,7,,3.73,29.911417,,,,,,,,,,-RA,BKN,800,,,,,,,IFR,,,,,,,,,,,,METAR,78.0
EGTE 060920Z 16010KT 4500 BR BKN002 14/13 Q1010,EGTE,2023-05-06T09:20:00Z,50.73,-3.42,14.0,13.0,160,10,,2.8,29.822834,,,,,,,,,,BR,BKN,200,,,,,,,LIFR,,,,,,,,,,,,METAR,30.0
EGTC 060920Z 14004KT 100V160 8000 -RA FEW010 SCT026 BKN033 13/12 Q1014,EGTC,2023-05-06T09:20:00Z,52.07,-0.62,13.0,12.0,140,4,,4.97,29.940945,,,,,,,,,,-RA,FEW,1000,SCT,2600,BKN,3300,,,MVFR,,,,,,,,,,,,METAR,110.0
EGSY 060920Z 09008KT 9000 BKN003 OVC004 13/12 Q1010,EGSY,2023-05-06T09:20:00Z,51.4,-3.43,13.0,12.0,90,8,,5.59,29.822834,,,,,,,,,,,BKN,300,OVC,400,,,,,LIFR,,,,,,,,,,,,METAR,46.0
EGSS 060920Z AUTO 14008KT 120V190 9999 BKN010 BKN034 15/12 Q1015,EGSS,2023-05-06T09:20:00Z,51.88,0.22,15.0,12.0,140,8,,6.21,29.970472,,,TRUE,,,,,,,,BKN,1000,BKN,3400,,,,,MVFR,,,,,,,,,,,,METAR,101.0
EGSH 060920Z 17006KT 120V220 9999 FEW016 BKN042 16/12 Q1015,EGSH,2023-05-06T09:20:00Z,52.68,1.28,16.0,12.0,170,6,,6.21,29.970472,,,,,,,,,,,FEW,1600,BKN,4200,,,,,VFR,,,,,,,,,,,,METAR,21.0
EGQS 060920Z 11008KT 9999 FEW020 SCT070 BKN100 13/09 Q1013 NOSIG RMK BLU BLU,EGQS,2023-05-06T09:20:00Z,57.72,-3.32,13.0,9.0,110,8,,6.21,29.911417,,,,,,TRUE,,,,,FEW,2000,SCT,7000,BKN,10000,,,VFR,,,,,,,,,,,,METAR,6.0
EGPU 060920Z 15008KT 9999 BKN008 10/10 Q1010,EGPU,2023-05-06T09:20:00Z,56.5,-6.88,10.0,10.0,150,8,,6.21,29.822834,,,,,,,,,,,BKN,800,,,,,,,IFR,,,,,,,,,,,,METAR,12.0
EGPO 060920Z 15006KT 9999 FEW027 13/08 Q1011,EGPO,2023-05-06T09:20:00Z,58.22,-6.32,13.0,8.0,150,6,,6.21,29.852362,,,,,,,,,,,FEW,2700,,,,,,,VFR,,,,,,,,,,,,METAR,10.0
EGPN 060920Z 11007KT 3000 -DZ BR FEW002 SCT004 OVC005 09/09 Q1013,EGPN,2023-05-06T09:20:00Z,56.45,-3.02,9.0,9.0,110,7,,1.86,29.911417,,,,,,,,,,-DZ BR,FEW,200,SCT,400,OVC,500,,,IFR,,,,,,,,,,,,METAR,4.0
EGPL 060920Z 16017KT 9999 VCSH FEW008 BKN016 12/10 Q1010,EGPL,2023-05-06T09:20:00Z,57.47,-7.37,12.0,10.0,160,17,,6.21,29.822834,,,,,,,,,,VCSH,FEW,800,BKN,1600,,,,,MVFR,,,,,,,,,,,,METAR,3.0
EGPK 060920Z 18008KT 150V210 9999 FEW015 SCT028 14/10 Q1012,EGPK,2023-05-06T09:20:00Z,55.5,-4.58,14.0,10.0,180,8,,6.21,29.88189,,,,,,,,,,,FEW,1500,SCT,2800,,,,,VFR,,,,,,,,,,,,METAR,14.0
EGPI 060920Z 15014KT 9999 OVC005 11/10 Q1011,EGPI,2023-05-06T09:20:00Z,55.68,-6.25,11.0,10.0,150,14,,6.21,29.852362,,,,,,,,,,,OVC,500,,,,,,,IFR,,,,,,,,,,,,METAR,17.0
EGPH 060920Z 07008KT 3000 BR BKN002 09/09 Q1013,EGPH,2023-05-06T09:20:00Z,55.95,-3.35,9.0,9.0,70,8,,1.86,29.911417,,,,,,,,,,BR,BKN,200,,,,,,,LIFR,,,,,,,,,,,,METAR,29.0
EGPF 060920Z AUTO 06009KT 9999 BKN009 OVC049 11/09 Q1012,EGPF,2023-05-06T09:20:00Z,55.87,-4.42,11.0,9.0,60,9,,6.21,29.88189,,,TRUE,,,,,,,,BKN,900,OVC,4900,,,,,IFR,,,,,,,,,,,,METAR,8.0
EGPE 060920Z VRB01KT 9000 4000S VCFG FEW006 SCT018 BKN035 10/09 Q1013,EGPE,2023-05-06T09:20:00Z,57.53,-4.05,10.0,9.0,0,1,,5.59,29.911417,,,,,,,,,,VCFG,FEW,600,SCT,1800,BKN,3500,,,VFR,,,,,,,,,,,,SPECI,7.0
EGPD 060920Z AUTO 12009KT 0300 R16/0325N FG VV/// 08/08 Q1015,EGPD,2023-05-06T09:20:00Z,57.2,-2.22,8.0,8.0,120,9,,0.19,29.970472,,,TRUE,,,,,,,FG,OVX,0,,,,,,,LIFR,,,,,,,,,,,,METAR,65.0
EGPC 060920Z AUTO 14012KT 9999 BKN006/// 10/08 Q1014,EGPC,2023-05-06T09:20:00Z,58.45,-3.08,10.0,8.0,140,12,,6.21,29.940945,,,TRUE,,,,,,,,BKN,600,,,,,,,IFR,,,,,,,,,,,,METAR,38.0
EGPB 060920Z 15020G30KT 6000 -DZ FEW004 OVC006 08/06 Q1017 TEMPO 4000 BR,EGPB,2023-05-06T09:20:00Z,59.87,-1.3,8.0,6.0,150,20,30,3.73,30.029528,,,,,,,,,,-DZ,FEW,400,OVC,600,,,,,IFR,,,,,,,,,,,,SPECI,2.0
EGPA 060920Z 15018KT 0900 R09/1400N FG FEW001 BKN002 09/08 Q1014,EGPA,2023-05-06T09:20:00Z,58.95,-2.9,9.0,8.0,150,18,,0.56,29.940945,,,,,,,,,,FG,FEW,100,BKN,200,,,,,LIFR,,,,,,,,,,,,METAR,15.0
EGNX 060920Z 17006KT 130V200 9999 SCT014 BKN044 14/10 Q1013,EGNX,2023-05-06T09:20:00Z,52.82,-1.32,14.0,10.0,170,6,,6.21,29.911417,,,,,,,,,,,SCT,1400,BKN,4400,,,,,VFR,,,,,,,,,,,,METAR,91.0
EGNV 060920Z VRB03KT 9000 SCT010 15/11 Q1013,EGNV,2023-05-06T09:20:00Z,54.52,-1.42,15.0,11.0,0,3,,5.59,29.911417,,,,,,,,,,,SCT,1000,,,,,,,VFR,,,,,,,,,,,,METAR,36.0
EGNT 060920Z 09005KT 030V180 6000 SCT006 14/12 Q1013,EGNT,2023-05-06T09:20:00Z,55.03,-1.7,14.0,12.0,90,5,,3.73,29.911417,,,,,,,,,,,SCT,600,,,,,,,MVFR,,,,,,,,,,,,METAR,77.0
EGNS 060920Z 07006KT 9999 FEW004 SCT025 BKN038 12/11 Q1011 NOSIG,EGNS,2023-05-06T09:20:00Z,54.08,-4.63,12.0,11.0,70,6,,6.21,29.852362,,,,,,TRUE,,,,,FEW,400,SCT,2500,BKN,3800,,,VFR,,,,,,,,,,,,METAR,18.0
EGNR 060920Z 15008KT 120V180 9999 SCT010 BKN023 14/11 Q1012,EGNR,2023-05-06T09:20:00Z,53.17,-2.98,14.0,11.0,150,8,,6.21,29.88189,,,,,,,,,,,SCT,1000,BKN,2300,,,,,MVFR,,,,,,,,,,,,METAR,11.0
EGNM 060920Z 13006KT 090V160 9999 SCT011 14/11 Q1013,EGNM,2023-05-06T09:20:00Z,53.87,-1.65,14.0,11.0,130,6,,6.21,29.911417,,,,,,,,,,,SCT,1100,,,,,,,VFR,,,,,,,,,,,,METAR,221.0
EGNJ 060920Z 20005KT 160V250 9999 FEW008 SCT020 16/13 Q1014,EGNJ,2023-05-06T09:20:00Z,53.57,-0.35,16.0,13.0,200,5,,6.21,29.940945,,,,,,,,,,,FEW,800,SCT,2000,,,,,VFR,,,,,,,,,,,,METAR,23.0
EGNH 060920Z 15008KT 9999 FEW011 BKN042 15/12 Q1012,EGNH,2023-05-06T09:20:00Z,53.77,-3.03,15.0,12.0,150,8,,6.21,29.88189,,,,,,,,,,,FEW,1100,BKN,4200,,,,,VFR,,,,,,,,,,,,METAR,10.0
EGMD 060920Z 20009KT 9999 -RA SCT008 BKN033 14/13 Q1016,EGMD,2023-05-06T09:20:00Z,50.95,0.93,14.0,13.0,200,9,,6.21,30.0,,,,,,,,,,-RA,SCT,800,BKN,3300,,,,,VFR,,,,,,,,,,,,METAR,4.0
EGMC 060920Z 15006KT 120V200 9999 FEW012 BKN026 16/13 Q1015,EGMC,2023-05-06T09:20:00Z,51.57,0.7,16.0,13.0,150,6,,6.21,29.970472,,,,,,,,,,,FEW,1200,BKN,2600,,,,,MVFR,,,,,,,,,,,,METAR,15.0
EGLL 060920Z AUTO 17006KT 7000 -RA SCT009/// BKN014/// //////CB 14/12 Q1014 TEMPO 4000 RA BKN009,EGLL,2023-05-06T09:20:00Z,51.48,-0.45,14.0,12.0,170,6,,4.35,29.940945,,,TRUE,,,,,,,-RA,SCT,900,BKN,1400,,,,,MVFR,,,,,,,,,,,,METAR,26.0
EGLF 060920Z 14006KT 7000 -RA FEW008 BKN022 13/12 Q1014,EGLF,2023-05-06T09:20:00Z,51.28,-0.77,13.0,12.0,140,6,,4.35,29.940945,,,,,,,,,,-RA,FEW,800,BKN,2200,,,,,MVFR,,,,,,,,,,,,METAR,65.0
EGLC 060920Z AUTO 20007KT 160V230 9999 -RA BKN016/// BKN021/// //////CB 15/12 Q1015,EGLC,2023-05-06T09:20:00Z,51.5,0.05,15.0,12.0,200,7,,6.21,29.970472,,,TRUE,,,,,,,-RA,BKN,1600,BKN,2100,,,,,MVFR,,,,,,,,,,,,SPECI,10.0
EGKK 060920Z 18006KT 150V240 9999 -RA FEW008 BKN012 BKN030 14/12 Q1014,EGKK,2023-05-06T09:20:00Z,51.13,-0.18,14.0,12.0,180,6,,6.21,29.940945,,,,,,,,,,-RA,FEW,800,BKN,1200,BKN,3000,,,MVFR,,,,,,,,,,,,METAR,58.0
EGKB 060920Z 18010KT 9999 -RA BKN010 13/11 Q1015,EGKB,2023-05-06T09:20:00Z,51.32,0.02,13.0,11.0,180,10,,6.21,29.970472,,,,,,,,,,-RA,BKN,1000,,,,,,,MVFR,,,,,,,,,,,,METAR,183.0
EGKA 060920Z 14008KT 4000 -RA BKN008 12/12 Q1014,EGKA,2023-05-06T09:20:00Z,50.83,-0.3,12.0,12.0,140,8,,2.49,29.940945,,,,,,,,,,-RA,BKN,800,,,,,,,IFR,,,,,,,,,,,,METAR,2.0
EGJJ 060920Z 17016KT 9000 -RA SCT005 BKN017 13/13 Q1013 RERA,EGJJ,2023-05-06T09:20:00Z,49.22,-2.2,13.0,13.0,170,16,,5.59,29.911417,,,,,,,,,,-RA,SCT,500,BKN,1700,,,,,MVFR,,,,,,,,,,,,METAR,84.0
EGJB 060920Z 17013KT 9999 -RA FEW003 BKN015 13/12 Q1012,EGJB,2023-05-06T09:20:00Z,49.42,-2.6,13.0,12.0,170,13,,6.21,29.88189,,,,,,,,,,-RA,FEW,300,BKN,1500,,,,,MVFR,,,,,,,,,,,,METAR,102.0
EGJA 060920Z 18014KT 9999 -RA BKN019 12/12 Q1012,EGJA,2023-05-06T09:20:00Z,49.72,-2.2,12.0,12.0,180,14,,6.21,29.88189,,,,,,,,,,-RA,BKN,1900,,,,,,,MVFR,,,,,,,,,,,,METAR,83.0
EGHQ 060920Z 33003KT 260V010 9999 FEW007 SCT013 14/12 Q1009,EGHQ,2023-05-06T09:20:00Z,50.43,-5.0,14.0,12.0,330,3,,6.21,29.793306,,,,,,,,,,,FEW,700,SCT,1300,,,,,VFR,,,,,,,,,,,,METAR,101.0
EGHI 060920Z 14004KT 110V190 6000 -RA BKN006 13/12 Q1013,EGHI,2023-05-06T09:20:00Z,50.95,-1.35,13.0,12.0,140,4,,3.73,29.911417,,,,,,,,,,-RA,BKN,600,,,,,,,IFR,,,,,,,,,,,,METAR,13.0
EGHH 060920Z 16008KT 3000 RA BR OVC003 12/12 Q1012,EGHH,2023-05-06T09:20:00Z,50.78,-1.83,12.0,12.0,160,8,,1.86,29.88189,,,,,,,,,,RA BR,OVC,300,,,,,,,LIFR,,,,,,,,,,,,METAR,9.0
EGHE 060920Z 36005KT 5000 BR SCT001 BKN003 13/12 Q1010,EGHE,2023-05-06T09:20:00Z,49.92,-6.28,13.0,12.0,360,5,,3.11,29.822834,,,,,,,,,,BR,SCT,100,BKN,300,,,,,LIFR,,,,,,,,,,,,METAR,31.0
EGHC 060920Z 34008KT 9000 4000N VCFG FEW000 SCT004 BKN007 12/12 Q1009,EGHC,2023-05-06T09:20:00Z,50.1,-5.67,12.0,12.0,340,8,,5.59,29.793306,,,,,,,,,,VCFG,FEW,0,SCT,400,BKN,700,,,IFR,,,,,,,,,,,,METAR,117.0
EGGW 060920Z AUTO 14007KT 9999 -RA OVC008 13/12 Q1014,EGGW,2023-05-06T09:20:00Z,51.87,-0.37,13.0,12.0,140,7,,6.21,29.940945,,,TRUE,,,,,,,-RA,OVC,800,,,,,,,IFR,,,,,,,,,,,,METAR,159.0
EGGP 060920Z 14006KT 090V190 9999 SCT012 BKN022TCU 15/12 Q1012,EGGP,2023-05-06T09:20:00Z,53.33,-2.85,15.0,12.0,140,6,,6.21,29.88189,,,,,,,,,,,SCT,1200,BKN,2200,,,,,MVFR,,,,,,,,,,,,METAR,23.0
EGGD 060920Z AUTO 11009KT 090V160 6000 -RA OVC003/// //////TCU 12/12 Q1011 RERA,EGGD,2023-05-06T09:20:00Z,51.37,-2.72,12.0,12.0,110,9,,3.73,29.852362,,,TRUE,,,,,,,-RA,OVC,300,,,,,,,LIFR,,,,,,,,,,,,SPECI,182.0
EGFF 060920Z AUTO 11010KT 9999 OVC002 12/12 Q1010,EGFF,2023-05-06T09:20:00Z,51.38,-3.35,12.0,12.0,110,10,,6.21,29.822834,,,TRUE,,,,,,,,OVC,200,,,,,,,LIFR,,,,,,,,,,,,METAR,65.0
EGEO 060920Z 14009KT 100V170 9999 FEW022 14/08 Q1011,EGEO,2023-05-06T09:20:00Z,56.47,-5.4,14.0,8.0,140,9,,6.21,29.852362,,,,,,,,,,,FEW,2200,,,,,,,VFR,,,,,,,,,,,,METAR,5.0
EGDY 060920Z 15010KT 4000 -DZ SCT009 OVC016 13/13 Q1010 NOSIG RMK GRN GRN,EGDY,2023-05-06T09:20:00Z,51.0,-2.63,13.0,13.0,150,10,,2.49,29.822834,,,,,,TRUE,,,,-DZ,SCT,900,OVC,1600,,,,,IFR,,,,,,,,,,,,METAR,21.0
EGCK 060920Z 03004KT 9999 SCT017 BKN030 14/13 Q1011,EGCK,2023-05-06T09:20:00Z,53.1,-4.33,14.0,13.0,30,4,,6.21,29.852362,,,,,,,,,,,SCT,1700,BKN,3000,,,,,MVFR,,,,,,,,,,,,METAR,6.0
EGCC 060920Z AUTO 15004KT 100V200 9999 SCT021 BKN028 BKN036 15/11 Q1012,EGCC,2023-05-06T09:20:00Z,53.35,-2.27,15.0,11.0,150,4,,6.21,29.88189,,,TRUE,,,,,,,,SCT,2100,BKN,2800,BKN,3600,,,MVFR,,,,,,,,,,,,METAR,78.0
EGBJ 060920Z 10004KT 060V170 9000 RA FEW017 BKN019 OVC025 14/12 Q1013,EGBJ,2023-05-06T09:20:00Z,51.9,-2.17,14.0,12.0,100,4,,5.59,29.911417,,,,,,,,,,RA,FEW,1700,BKN,1900,OVC,2500,,,MVFR,,,,,,,,,,,,METAR,27.0
EGBB 060920Z 15006KT 3500 RADZ BKN005 BKN009 12/12 Q1013 REDZ,EGBB,2023-05-06T09:20:00Z,52.47,-1.75,12.0,12.0,150,6,,2.17,29.911417,,,,,,,,,,RA DZ,BKN,500,BKN,900,,,,,IFR,,,,,,,,,,,,SPECI,91.0
EGAE 060920Z 15005KT 110V200 9999 FEW008 SCT013 BKN035 15/13 Q1010,EGAE,2023-05-06T09:20:00Z,55.03,-7.15,15.0,13.0,150,5,,6.21,29.822834,,,,,,,,,,,FEW,800,SCT,1300,BKN,3500,,,VFR,,,,,,,,,,,,METAR,9.0
EGAC 060920Z AUTO 17008KT 140V200 9999 -RADZ FEW016 BKN023 OVC036 13/10 Q1011,EGAC,2023-05-06T09:20:00Z,54.62,-5.87,13.0,10.0,170,8,,6.21,29.852362,,,TRUE,,,,,,,-RA -DZ,FEW,1600,BKN,2300,OVC,3600,,,MVFR,,,,,,,,,,,,METAR,2.0
EGAA 060920Z AUTO 15005KT 110V190 9999 BKN012 BKN040 12/10 Q1010,EGAA,2023-05-06T09:20:00Z,54.65,-6.22,12.0,10.0,150,5,,6.21,29.822834,,,TRUE,,,,,,,,BKN,1200,BKN,4000,,,,,MVFR,,,,,,,,,,,,METAR,65.0
EFVA 060920Z AUTO 24009KT 200V280 CAVOK 08/M06 Q1030,EFVA,2023-05-06T09:20:00Z,63.05,21.77,8.0,-6.0,240,9,,6.21,30.413385,,,TRUE,,,,,,,,CAVOK,,,,,,,,VFR,,,,,,,,,,,,METAR,4.0
EFUT 060920Z AUTO 35007KT 250V030 CAVOK 06/M07 Q1030,EFUT,2023-05-06T09:20:00Z,60.88,26.93,6.0,-7.0,350,7,,6.21,30.413385,,,TRUE,,,,,,,,CAVOK,,,,,,,,VFR,,,,,,,,,,,,METAR,104.0
EFTU 060920Z AUTO VRB04KT CAVOK 08/M07 Q1032,EFTU,2023-05-06T09:20:00Z,60.52,22.27,8.0,-7.0,0,4,,6.21,30.47244,,,TRUE,,,,,,,,CAVOK,,,,,,,,VFR,,,,,,,,,,,,METAR,47.0
EFTP 060920Z AUTO 28005KT 240V340 CAVOK 06/M08 Q1031,EFTP,2023-05-06T09:20:00Z,61.42,23.62,6.0,-8.0,280,5,,6.21,30.442913,,,TRUE,,,,,,,,CAVOK,,,,,,,,VFR,,,,,,,,,,,,METAR,111.0
EFSI 060920Z AUTO 24004KT 130V290 CAVOK 07/M10 Q1030,EFSI,2023-05-06T09:20:00Z,62.7,22.83,7.0,-10.0,240,4,,6.21,30.413385,,,TRUE,,,,,,,,CAVOK,,,,,,,,VFR,,,,,,,,,,,,METAR,90.0
EFSA 060920Z AUTO 31008KT 280V350 9999 SCT043 06/M04 Q1028,EFSA,2023-05-06T09:20:00Z,61.95,28.93,6.0,-4.0,310,8,,6.21,30.35433,,,TRUE,,,,,,,,SCT,4300,,,,,,,VFR,,,,,,,,,,,,METAR,90.0
EFRO 060920Z AUTO 23007KT 190V270 CAVOK 05/M05 Q1027,EFRO,2023-05-06T09:20:00Z,66.57,25.82,5.0,-5.0,230,7,,6.21,30.324802,,,TRUE,,,,,,,,CAVOK,,,,,,,,VFR,,,,,,,,,,,,METAR,201.0
EFPO 060920Z AUTO VRB07KT 9999 VCSH //////CB 08/M06 Q1032,EFPO,2023-05-06T09:20:00Z,61.47,21.8,8.0,-6.0,0,7,,6.21,30.47244,,,TRUE,,,,,,,VCSH,,,,,,,,,,,,,,,,,,,,,SPECI,10.0
EFOU 060920Z AUTO 32007KT 280V360 CAVOK 08/M05 Q1028,EFOU,2023-05-06T09:20:00Z,64.92,25.37,8.0,-5.0,320,7,,6.21,30.35433,,,TRUE,,,,,,,,CAVOK,,,,,,,,VFR,,,,,,,,,,,,METAR,15.0
EFMI 060920Z AUTO 35005KT 280V060 CAVOK 06/M07 Q1030,EFMI,2023-05-06T09:20:00Z,61.68,27.2,6.0,-7.0,350,5,,6.21,30.413385,,,TRUE,,,,,,,,CAVOK,,,,,,,,VFR,,,,,,,,,,,,METAR,99.0
EFMA 060920Z AUTO 21009KT 180V250 CAVOK 06/M04 Q1032,EFMA,2023-05-06T09:20:00Z,60.12,19.9,6.0,-4.0,210,9,,6.21,30.47244,,,TRUE,,,,,,,,CAVOK,,,,,,,,VFR,,,,,,,,,,,,METAR,6.0
EFLP 060920Z AUTO 36007KT 320V040 9999 FEW047 05/M05 Q1030,EFLP,2023-05-06T09:20:00Z,61.03,28.15,5.0,-5.0,360,7,,6.21,30.413385,,,TRUE,,,,,,,,FEW,4700,,,,,,,VFR,,,,,,,,,,,,METAR,102.0
EFKU 060920Z AUTO 33007KT 290V010 CAVOK 07/M08 Q1029,EFKU,2023-05-06T09:20:00Z,63.02,27.8,7.0,-8.0,330,7,,6.21,30.383858,,,TRUE,,,,,,,,CAVOK,,,,,,,,VFR,,,,,,,,,,,,METAR,92.0
EFKT 060920Z AUTO VRB02KT CAVOK 05/M06 Q1026,EFKT,2023-05-06T09:20:00Z,67.7,24.85,5.0,-6.0,0,2,,6.21,30.295275,,,TRUE,,,,,,,,CAVOK,,,,,,,,VFR,,,,,,,,,,,,METAR,190.0
EFKS 060920Z AUTO 32007KT CAVOK 04/M06 Q1026,EFKS,2023-05-06T09:20:00Z,66.0,29.23,4.0,-6.0,320,7,,6.21,30.295275,,,TRUE,,,,,,,,CAVOK,,,,,,,,VFR,,,,,,,,,,,,METAR,270.0
EFKK 060920Z AUTO 25008KT 200V290 CAVOK 08/M10 Q1029,EFKK,2023-05-06T09:20:00Z,63.72,23.13,8.0,-10.0,250,8,,6.21,30.383858,,,TRUE,,,,,,,,CAVOK,,,,,,,,VFR,,,,,,,,,,,,METAR,25.0
EFKI 060920Z AUTO 27008KT CAVOK 06/M05 Q1028,EFKI,2023-05-06T09:20:00Z,64.27,27.67,6.0,-5.0,270,8,,6.21,30.35433,,,TRUE,,,,,,,,CAVOK,,,,,,,,VFR,,,,,,,,,,,,METAR,132.0
EFKE 060920Z AUTO 23007KT 180V260 CAVOK 07/M03 Q1028,EFKE,2023-05-06T09:20:00Z,65.78,24.57,7.0,-3.0,230,7,,6.21,30.35433,,,TRUE,,,,,,,,CAVOK,,,,,,,,VFR,,,,,,,,,,,,METAR,15.0
EFJY 060920Z AUTO VRB05KT CAVOK 06/M08 Q1030,EFJY,2023-05-06T09:20:00Z,62.4,25.68,6.0,-8.0,0,5,,6.21,30.413385,,,TRUE,,,,,,,,CAVOK,,,,,,,,VFR,,,,,,,,,,,,METAR,139.0
EFJO 060920Z 29008KT 9999 FEW040 05/M04 Q1028,EFJO,2023-05-06T09:20:00Z,62.67,29.62,5.0,-4.0,290,8,,6.21,30.35433,,,,,,,,,,,FEW,4000,,,,,,,VFR,,,,,,,,,,,,METAR,118.0
EFIV 060920Z AUTO VRB05KT 9999 OVC031 05/M02 Q1026,EFIV,2023-05-06T09:20:00Z,68.62,27.42,5.0,-2.0,0,5,,6.21,30.295275,,,TRUE,,,,,,,,OVC,3100,,,,,,,VFR,,,,,,,,,,,,METAR,145.0
EFHK 060920Z VRB04G14KT CAVOK 07/M09 Q1031 BECMG 21010KT,EFHK,2023-05-06T09:20:00Z,60.32,24.97,7.0,-9.0,0,4,14,6.21,30.442913,,,,,,,,,,,CAVOK,,,,,,,,VFR,,,-1.0,,,,,,,,,METAR,56.0
EFHA 060920Z AUTO VRB03KT CAVOK 06/M10 Q1030,EFHA,2023-05-06T09:20:00Z,61.85,24.8,6.0,-10.0,0,3,,6.21,30.413385,,,TRUE,,,,,,,,CAVOK,,,,,,,,VFR,,,,,,,,,,,,METAR,144.0
EFET 060920Z AUTO 17003KT 060V210 CAVOK 04/M07 Q1026,EFET,2023-05-06T09:20:00Z,68.37,23.43,4.0,-7.0,170,3,,6.21,30.295275,,,TRUE,,,,,,,,CAVOK,,,,,,,,VFR,,,,,,,,,,,,METAR,300.0
EETU 060920Z AUTO 36007KT 330V030 9999 OVC066/// 06/M08 Q1030,EETU,2023-05-06T09:20:00Z,58.32,26.68,6.0,-8.0,360,7,,6.21,30.413385,,,TRUE,,,,,,,,OVC,6600,,,,,,,VFR,,,,,,,,,,,,METAR,67.0
EETN 060920Z 30007KT 9999 SCT044 07/M04 Q1032 NOSIG,EETN,2023-05-06T09:20:00Z,59.4,24.82,7.0,-4.0,300,7,,6.21,30.47244,,,,,,TRUE,,,,,SCT,4400,,,,,,,VFR,,,,,,,,,,,,METAR,41.0
EEPU 060920Z AUTO 02005KT 290V070 9999 OVC061/// 07/M07 Q1032,EEPU,2023-05-06T09:20:00Z,58.42,24.47,7.0,-7.0,20,5,,6.21,30.47244,,,TRUE,,,,,,,,OVC,6100,,,,,,,VFR,,,,,,,,,,,,METAR,13.0
EEKE 060920Z 18009KT 9999 FEW048 07/M04 Q1033,EEKE,2023-05-06T09:20:00Z,58.23,22.52,7.0,-4.0,180,9,,6.21,30.501968,,,,,,,,,,,FEW,4800,,,,,,,VFR,,,,,,,,,,,,METAR,4.0
EDXW 060920Z 11014KT 9999 BKN007 08/07 Q1020,EDXW,2023-05-06T09:20:00Z,54.92,8.33,8.0,7.0,110,14,,6.21,30.11811,,,,,,,,,,,BKN,700,,,,,,,IFR,,,,,,,,,,,,METAR,8.0
EDWE 060920Z 08005KT 040V100 9999 BKN007 14/12 Q1018,EDWE,2023-05-06T09:20:00Z,53.38,7.23,14.0,12.0,80,5,,6.21,30.059055,,,,,,,,,,,BKN,700,,,,,,,IFR,,,,,,,,,,,,METAR,0.0
EDVK 060920Z VRB02KT 9999 SCT020 14/10 Q1018,EDVK,2023-05-06T09:20:00Z,51.4,9.37,14.0,10.0,0,2,,6.21,30.059055,,,,,,,,,,,SCT,2000,,,,,,,VFR,,,,,,,,,,,,METAR,277.0
EDVE 060920Z 33006KT 290V360 9999 SCT015 BKN028 BKN032 14/10 Q1018,EDVE,2023-05-06T09:20:00Z,52.32,10.55,14.0,10.0,330,6,,6.21,30.059055,,,,,,,,,,,SCT,1500,BKN,2800,BKN,3200,,,MVFR,,,,,,,,,,,,METAR,83.0
EDTY 060920Z VRB03KT 9999 FEW021 17/11 Q1018,EDTY,2023-05-06T09:20:00Z,49.12,9.78,17.0,11.0,0,3,,6.21,30.059055,,,,,,,,,,,FEW,2100,,,,,,,VFR,,,,,,,,,,,,METAR,398.0
EDTL 060920Z 05003KT 320V130 9999 FEW026 18/12 Q1018,EDTL,2023-05-06T09:20:00Z,48.37,7.83,18.0,12.0,50,3,,6.21,30.059055,,,,,,,,,,,FEW,2600,,,,,,,VFR,,,,,,,,,,,,METAR,152.0
EDSB 060920Z VRB02KT 9999 FEW019 SCT025 17/13 Q1018,EDSB,2023-05-06T09:20:00Z,48.78,8.08,17.0,13.0,0,2,,6.21,30.059055,,,,,,,,,,,FEW,1900,SCT,2500,,,,,VFR,,,,,,,,,,,,METAR,122.0
EDQM 060920Z 34005KT 310V020 9999 FEW018 SCT027 BKN040 14/10 Q1018,EDQM,2023-05-06T09:20:00Z,50.3,11.85,14.0,10.0,340,5,,6.21,30.059055,,,,,,,,,,,FEW,1800,SCT,2700,BKN,4000,,,VFR,,,,,,,,,,,,METAR,578.0
EDNY 060920Z VRB02KT 9999 FEW018 BKN026 17/13 Q1018 RMK/G,EDNY,2023-05-06T09:20:00Z,47.67,9.52,17.0,13.0,0,2,,6.21,30.059055,,,,,,,,,,,FEW,1800,BKN,2600,,,,,MVFR,,,,,,,,,,,,METAR,411.0
EDMO 060920Z AUTO VRB01KT 9999 // FEW017/// OVC031/// 15/11 Q1019,EDMO,2023-05-06T09:20:00Z,48.07,11.27,15.0,11.0,0,1,,6.21,30.088583,,,TRUE,,,,,,,,FEW,1700,OVC,3100,,,,,VFR,,,,,,,,,,,,METAR,587.0
EDMA 060920Z 31003KT 250V010 9999 SCT017 SCT042 15/12 Q1019,EDMA,2023-05-06T09:20:00Z,48.42,10.92,15.0,12.0,310,3,,6.21,30.088583,,,,,,,,,,,SCT,1700,SCT,4200,,,,,VFR,,,,,,,,,,,,METAR,462.0
EDLW 060920Z VRB02KT CAVOK 17/11 Q1018,EDLW,2023-05-06T09:20:00Z,51.52,7.62,17.0,11.0,0,2,,6.21,30.059055,,,,,,,,,,,CAVOK,,,,,,,,VFR,,,,,,,,,,,,METAR,122.0
EDLV 060920Z VRB03KT CAVOK 18/12 Q1017,EDLV,2023-05-06T09:20:00Z,51.6,6.15,18.0,12.0,0,3,,6.21,30.029528,,,,,,,,,,,CAVOK,,,,,,,,VFR,,,,,,,,,,,,METAR,27.0
EDLP 060920Z VRB03KT 9999 FEW020 15/09 Q1018,EDLP,2023-05-06T09:20:00Z,51.62,8.62,15.0,9.0,0,3,,6.21,30.059055,,,,,,,,,,,FEW,2000,,,,,,,VFR,,,,,,,,,,,,METAR,211.0
EDLN 060920Z 13004KT 090V210 9999 FEW024 18/12 Q1017,EDLN,2023-05-06T09:20:00Z,51.23,6.5,18.0,12.0,130,4,,6.21,30.029528,,,,,,,,,,,FEW,2400,,,,,,,VFR,,,,,,,,,,,,METAR,38.0
EDJA 060920Z 36006KT 330V040 9999 SCT010 BKN025 15/12 Q1019,EDJA,2023-05-06T09:20:00Z,47.98,10.23,15.0,12.0,360,6,,6.21,30.088583,,,,,,,,,,,SCT,1000,BKN,2500,,,,,MVFR,,,,,,,,,,,,METAR,625.0
EDHL 060920Z 08006KT 060V120 9999 OVC007 07/06 Q1020,EDHL,2023-05-06T09:20:00Z,53.8,10.72,7.0,6.0,80,6,,6.21,30.11811,,,,,,,,,,,OVC,700,,,,,,,IFR,,,,,,,,,,,,METAR,13.0
EDHK 060920Z 10007KT 9999 OVC006 07/05 Q1020,EDHK,2023-05-06T09:20:00Z,54.38,10.15,7.0,5.0,100,7,,6.21,30.11811,,,,,,,,,,,OVC,600,,,,,,,IFR,,,,,,,,,,,,METAR,24.0
EDHI 060920Z AUTO 07005KT 030V100 9999 // OVC007/// 10/08 Q1019,EDHI,2023-05-06T09:20:00Z,53.53,9.83,10.0,8.0,70,5,,6.21,30.088583,,,TRUE,,,,,,,,OVC,700,,,,,,,IFR,,,,,,,,,,,,METAR,5.0
EDGS 060920Z 28004KT 230V010 9999 BKN029 BKN045 14/08 Q1018,EDGS,2023-05-06T09:20:00Z,50.7,8.08,14.0,8.0,280,4,,6.21,30.059055,,,,,,,,,,,BKN,2900,BKN,4500,,,,,MVFR,,,,,,,,,,,,METAR,595.0
EDFM 060920Z 23004KT 170V300 CAVOK 19/12 Q1018,EDFM,2023-05-06T09:20:00Z,49.47,8.52,19.0,12.0,230,4,,6.21,30.059055,,,,,,,,,,,CAVOK,,,,,,,,VFR,,,,,,,,,,,,METAR,94.0
EDFH 060920Z 33003KT 290V060 9999 SCT023 16/09 Q1018,EDFH,2023-05-06T09:20:00Z,49.95,7.27,16.0,9.0,330,3,,6.21,30.059055,,,,,,,,,,,SCT,2300,,,,,,,VFR,,,,,,,,,,,,METAR,494.0
EDDW 060920Z AUTO VRB02KT 9000 FEW007 OVC012 13/10 Q1018 TEMPO SCT010,EDDW,2023-05-06T09:20:00Z,53.03,8.8,13.0,10.0,0,2,,5.59,30.059055,,,TRUE,,,,,,,,FEW,700,OVC,1200,,,,,MVFR,,,,,,,,,,,,SPECI,5.0
EDDV 060920Z AUTO 32007KT 270V350 9999 OVC016 14/11 Q1018 NOSIG,EDDV,2023-05-06T09:20:00Z,52.47,9.68,14.0,11.0,320,7,,6.21,30.059055,,,TRUE,,,TRUE,,,,,OVC,1600,,,,,,,MVFR,,,,,,,,,,,,METAR,53.0
EDDS 060920Z AUTO VRB03KT 9999 FEW025 SCT034 BKN041 16/11 Q1019 NOSIG,EDDS,2023-05-06T09:20:00Z,48.68,9.22,16.0,11.0,0,3,,6.21,30.088583,,,TRUE,,,TRUE,,,,,FEW,2500,SCT,3400,BKN,4100,,,VFR,,,,,,,,,,,,METAR,374.0
EDDR 060920Z AUTO VRB03KT 9999 SCT013 17/13 Q1018 NOSIG,EDDR,2023-05-06T09:20:00Z,49.22,7.1,17.0,13.0,0,3,,6.21,30.059055,,,TRUE,,,TRUE,,,,,SCT,1300,,,,,,,VFR,,,,,,,,,,,,METAR,317.0
EDDP 060920Z AUTO 31009KT 9999 SCT016 SCT024 OVC030 14/10 Q1018 NOSIG,EDDP,2023-05-06T09:20:00Z,51.43,12.23,14.0,10.0,310,9,,6.21,30.059055,,,TRUE,,,TRUE,,,,,SCT,1600,SCT,2400,OVC,3000,,,MVFR,,,,,,,,,,,,METAR,129.0
EDDN 060920Z AUTO 31004KT 210V020 9999 FEW021 17/12 Q1018 NOSIG,EDDN,2023-05-06T09:20:00Z,49.5,11.05,17.0,12.0,310,4,,6.21,30.059055,,,TRUE,,,TRUE,,,,,FEW,2100,,,,,,,VFR,,,,,,,,,,,,METAR,312.0
EDDM 060920Z AUTO 26005KT 220V310 9999 BKN017 BKN032 OVC049 15/12 Q1019 NOSIG,EDDM,2023-05-06T09:20:00Z,48.35,11.82,15.0,12.0,260,5,,6.21,30.088583,,,TRUE,,,TRUE,,,,,BKN,1700,BKN,3200,OVC,4900,,,MVFR,,,,,,,,,,,,METAR,445.0
EDDL 060920Z AUTO VRB02KT CAVOK 18/11 Q1017 NOSIG,EDDL,2023-05-06T09:20:00Z,51.3,6.77,18.0,11.0,0,2,,6.21,30.029528,,,TRUE,,,TRUE,,,,,CAVOK,,,,,,,,VFR,,,,,,,,,,,,METAR,37.0
EDDK 060920Z AUTO 16004KT 070V220 CAVOK 18/11 Q1018 NOSIG,EDDK,2023-05-06T09:20:00Z,50.87,7.15,18.0,11.0,160,4,,6.21,30.059055,,,TRUE,,,TRUE,,,,,CAVOK,,,,,,,,VFR,,,,,,,,,,,,METAR,92.0
EDDH 060920Z AUTO 07006KT 050V110 9999 OVC006 09/08 Q1019 NOSIG,EDDH,2023-05-06T09:20:00Z,53.63,10.0,9.0,8.0,70,6,,6.21,30.088583,,,TRUE,,,TRUE,,,,,OVC,600,,,,,,,IFR,,,,,,,,,,,,METAR,8.0
EDDG 060920Z AUTO 13004KT 060V190 9999 BKN006 13/11 Q1018 BECMG SCT020,EDDG,2023-05-06T09:20:00Z,52.13,7.7,13.0,11.0,130,4,,6.21,30.059055,,,TRUE,,,,,,,,BKN,600,,,,,,,IFR,,,,,,,,,,,,METAR,46.0
EDDF 060920Z AUTO VRB03KT 9999 FEW035 SCT043 18/10 Q1018 NOSIG,EDDF,2023-05-06T09:20:00Z,50.05,8.6,18.0,10.0,0,3,,6.21,30.059055,,,TRUE,,,TRUE,,,,,FEW,3500,SCT,4300,,,,,VFR,,,,,,,,,,,,METAR,113.0
EDDE 060920Z AUTO 34005KT 300V030 9999 FEW019 15/10 Q1018 NOSIG,EDDE,2023-05-06T09:20:00Z,50.98,10.97,15.0,10.0,340,5,,6.21,30.059055,,,TRUE,,,TRUE,,,,,FEW,1900,,,,,,,VFR,,,,,,,,,,,,METAR,314.0
EDDC 060920Z AUTO 31009KT 280V340 9999 BKN011 12/11 Q1017 NOSIG,EDDC,2023-05-06T09:20:00Z,51.13,13.75,12.0,11.0,310,9,,6.21,30.029528,,,TRUE,,,TRUE,,,,,BKN,1100,,,,,,,MVFR,,,,,,,,,,,,METAR,227.0
EDDB 060920Z AUTO 05008KT 9999 OVC007 08/07 Q1018 BECMG BKN011,EDDB,2023-05-06T09:20:00Z,52.38,13.53,8.0,7.0,50,8,,6.21,30.059055,,,TRUE,,,,,,,,OVC,700,,,,,,,IFR,,,,,,,,,,,,METAR,48.0
EDBC 060920Z AUTO 27010KT 9999 // FEW016/// BKN027/// 14/10 Q1018,EDBC,2023-05-06T09:20:00Z,51.85,11.42,14.0,10.0,270,10,,6.21,30.059055,,,TRUE,,,,,,,,FEW,1600,BKN,2700,,,,,MVFR,,,,,,,,,,,,METAR,178.0
EDAH 060920Z 09009KT 9999 -RA NSC 08/05 Q1021,EDAH,2023-05-06T09:20:00Z,53.87,14.15,8.0,5.0,90,9,,6.21,30.147638,,,,,,,,,,-RA,CLR,,,,,,,,VFR,,,,,,,,,,,,METAR,22.0
EDAC 060920Z 33007KT 290V010 9999 SCT012 BKN032 BKN037 14/11 Q1018,EDAC,2023-05-06T09:20:00Z,50.98,12.5,14.0,11.0,330,7,,6.21,30.059055,,,,,,,,,,,SCT,1200,BKN,3200,BKN,3700,,,VFR,,,,,,,,,,,,METAR,193.0
EBOS 060920Z 15006KT 130V190 9999 FEW018 SCT046 16/11 Q1016 NOSIG,EBOS,2023-05-06T09:20:00Z,51.2,2.87,16.0,11.0,150,6,,6.21,30.0,,,,,,TRUE,,,,,FEW,1800,SCT,4600,,,,,VFR,,,,,,,,,,,,METAR,5.0
EBLG 060920Z VRB05KT 9999 SCT026 18/11 Q1017 NOSIG,EBLG,2023-05-06T09:20:00Z,50.63,5.45,18.0,11.0,0,5,,6.21,30.029528,,,,,,TRUE,,,,,SCT,2600,,,,,,,VFR,,,,,,,,,,,,METAR,187.0
EBCI 060920Z 23006KT 200V260 9999 FEW022 17/11 Q1017 NOSIG,EBCI,2023-05-06T09:20:00Z,50.47,4.45,17.0,11.0,230,6,,6.21,30.029528,,,,,,TRUE,,,,,FEW,2200,,,,,,,VFR,,,,,,,,,,,,METAR,176.0
EBBR 060920Z 19004KT 160V250 9999 SCT030 17/12 Q1017 NOSIG,EBBR,2023-05-06T09:20:00Z,50.9,4.52,17.0,12.0,190,4,,6.21,30.029528,,,,,,TRUE,,,,,SCT,3000,,,,,,,VFR,,,,,,,,,,,,METAR,49.0
EBAW 060920Z 15005KT 120V220 9999 FEW021 17/12 Q1017 NOSIG,EBAW,2023-05-06T09:20:00Z,51.2,4.47,17.0,12.0,150,5,,6.21,30.029528,,,,,,TRUE,,,,,FEW,2100,,,,,,,VFR,,,,,,,,,,,,METAR,7.0
BGSF 060920Z 01003KT 3100 -SN BKN012 01/00 Q1004,BGSF,2023-05-06T09:20:00Z,67.0,-50.72,1.0,0.0,10,3,,1.93,29.64567,,,,,,,,,,-SN,BKN,1200,,,,,,,IFR,,,,,,,,,,,,METAR,75.0
KSTS 060919Z 15005KT 8SM -RA FEW012 SCT026 OVC055 11/10 A3005 RMK AO2 P0001 T01110100,KSTS,2023-05-06T09:19:00Z,38.5,-122.82,11.1,10.0,150,5,,8.0,30.050198,,,,TRUE,,,,,,-RA,FEW,1200,SCT,2600,OVC,5500,,,VFR,,,,,,0.01,,,,,,SPECI,35.0
KMRT 060919Z AUTO 00000KT 10SM CLR 10/04 A3022 RMK AO1,KMRT,2023-05-06T09:19:00Z,40.22,-83.35,10.0,4.0,0,0,,10.0,30.221457,,,TRUE,TRUE,,,,,,,CLR,,,,,,,,VFR,,,,,,,,,,,,SPECI,302.0
KCID 060919Z AUTO 12010KT 10SM SCT029 OVC055 13/12 A2993 RMK AO2 T01330117,KCID,2023-05-06T09:19:00Z,41.88,-91.72,13.3,11.7,120,10,,10.0,29.929134,,,TRUE,TRUE,,,,,,,SCT,2900,OVC,5500,,,,,VFR,,,,,,,,,,,,METAR,257.0
K2V6 060919Z AUTO 33007KT 10SM CLR 07/02 A2983 RMK AO2,K2V6,2023-05-06T09:19:00Z,40.1,-102.72,7.0,2.0,330,7,,10.0,29.828741,,,TRUE,TRUE,,,,,,,CLR,,,,,,,,VFR,,,,,,,,,,,,METAR,1257.0
YSNF 060918Z AUTO 09007KT 9999 // BKN016 20/19 Q1016 RF00/0/000/0,YSNF,2023-05-06T09:18:00Z,-29.03,167.93,20.0,19.0,90,7,,6.21,30.0,,,TRUE,,,,,,,,BKN,1600,,,,,,,MVFR,,,,,,,,,,,,METAR,113.0
KWVI 060918Z AUTO 00000KT 10SM FEW017 SCT023 OVC033 12/10 A3009 RMK AO2 T01170100,KWVI,2023-05-06T09:18:00Z,36.93,-121.78,11.7,10.0,0,0,,10.0,30.088583,,,TRUE,TRUE,,,,,,,FEW,1700,SCT,2300,OVC,3300,,,VFR,,,,,,,,,,,,SPECI,47.0
KSAW 060918Z AUTO 12004KT 10SM BKN085 08/06 A3013 RMK AO2 T00790060,KSAW,2023-05-06T09:18:00Z,46.35,-87.4,7.9,6.0,120,4,,10.0,30.129921,,,TRUE,TRUE,,,,,,,BKN,8500,,,,,,,VFR,,,,,,,,,,,,METAR,359.0
KPAE 060918Z AUTO VRB03KT 2 1/2SM BR OVC005 08/07 A2996 RMK AO2 RAE0856 P0000 T00830072,KPAE,2023-05-06T09:18:00Z,47.92,-122.28,8.3,7.2,0,3,,2.5,29.958662,,,TRUE,TRUE,,,,,,BR,OVC,500,,,,,,,IFR,,,,,,0.005,,,,,,SPECI,166.0
KACY 060918Z AUTO 00000KT 3/4SM BR VV002 04/03 A3027 RMK AO2 T00390033,KACY,2023-05-06T09:18:00Z,39.45,-74.57,3.9,3.3,0,0,,0.75,30.268702,,,TRUE,TRUE,,,,,,BR,OVX,0,,,,,,,LIFR,,,,,,,,,,,200,SPECI,18.0
KAAT 060918Z AUTO 14003KT 10SM BKN029 OVC060 04/02 A2997 RMK AO2 T00390017,KAAT,2023-05-06T09:18:00Z,41.48,-120.57,3.9,1.7,140,3,,10.0,29.970472,,,TRUE,TRUE,,,,,,,BKN,2900,OVC,6000,,,,,MVFR,,,,,,,,,,,,METAR,1336.0
EBCV 060918Z AUTO 18005KT 9999 FEW020/// SCT110/// BKN150/// 17/12 Q1016 BLU,EBCV,2023-05-06T09:18:00Z,50.57,3.82,17.0,12.0,180,5,,6.21,30.0,,,TRUE,,,,,,,,FEW,2000,SCT,11000,BKN,15000,,,VFR,,,,,,,,,,,,SPECI,56.0
RJOI 060917Z 17013KT 1 1/2SM RA BR SCT006 BKN015 OVC040 21/20 A2968 RMK AO2 SLP048 P0007 T02060194,RJOI,2023-05-06T09:17:00Z,34.13,132.23,20.6,19.4,170,13,,1.5,29.681103,1004.8,,,TRUE,,,,,,RA BR,SCT,600,BKN,1500,OVC,4000,,,IFR,,,,,,0.07,,,,,,SPECI,2.0
KSDB 060917Z AUTO 10SM SCT008 05/03 A3006 RMK AO2 T00500033,KSDB,2023-05-06T09:17:00Z,34.75,-118.72,5.0,3.3,,,,10.0,30.059055,,,TRUE,TRUE,,,,,,,SCT,800,,,,,,,VFR,,,,,,,,,,,,SPECI,1377.0
KNGP 060917Z AUTO 11011KT 6SM BR BKN006 BKN019 27/25 A2989 RMK AO2 T02670250 $,KNGP,2023-05-06T09:17:00Z,27.68,-97.28,26.7,25.0,110,11,,6.0,29.890747,,,TRUE,TRUE,TRUE,,,,,BR,BKN,600,BKN,1900,,,,,IFR,,,,,,,,,,,,SPECI,5.0
KMUO 060917Z AUTO 02005KT 10SM -DZ BKN043 08/06 A2989 RMK AO2 DZB17 SLP118,KMUO,2023-05-06T09:17:00Z,43.03,-115.87,8.0,6.0,20,5,,10.0,29.890747,1011.8,,TRUE,TRUE,,,,,,-DZ,BKN,4300,,,,,,,VFR,,,,,,,,,,,,SPECI,915.0
KLNK 060917Z AUTO 01009KT 7SM -RA OVC019 17/14 A2982 RMK AO2 RAB15 P0000 T01670139,KLNK,2023-05-06T09:17:00Z,40.85,-96.77,16.7,13.9,10,9,,7.0,29.819881,,,TRUE,TRUE,,,,,,-RA,OVC,1900,,,,,,,MVFR,,,,,,0.005,,,,,,SPECI,357.0
KLBT 060917Z AUTO 00000KT 4SM BR CLR 11/10 A3022 RMK AO2 T01060100,KLBT,2023-05-06T09:17:00Z,34.6,-79.07,10.6,10.0,0,0,,4.0,30.221457,,,TRUE,TRUE,,,,,,BR,CLR,,,,,,,,MVFR,,,,,,,,,,,,SPECI,37.0
KEAU 060917Z AUTO 12007KT 3SM BR SCT004 BKN014 OVC021 13/12 A2997 RMK AO2 T01280122,KEAU,2023-05-06T09:17:00Z,44.87,-91.48,12.8,12.2,120,7,,3.0,29.970472,,,TRUE,TRUE,,,,,,BR,SCT,400,BKN,1400,OVC,2100,,,MVFR,,,,,,,,,,,,SPECI,271.0
KAPS 060917Z AUTO 14005KT 10SM SCT011 OVC022 24/23 A3000 RMK AO2,KAPS,2023-05-06T09:17:00Z,30.08,-90.58,24.0,23.0,140,5,,10.0,30.0,,,TRUE,TRUE,,,,,,,SCT,1100,OVC,2200,,,,,MVFR,,,,,,,,,,,,SPECI,1.0
KAJO 060917Z AUTO 00000KT 10SM SCT028 11/08 A3009 RMK AO2,KAJO,2023-05-06T09:17:00Z,33.9,-117.6,11.0,8.0,0,0,,10.0,30.088583,,,TRUE,TRUE,,,,,,,SCT,2800,,,,,,,VFR,,,,,,,,,,,,SPECI,161.0
KADC 060917Z AUTO 07007KT 10SM OVC022 09/06 A2996 RMK AO2 TSNO,KADC,2023-05-06T09:17:00Z,46.45,-95.22,9.0,6.0,70,7,,10.0,29.958662,,,TRUE,TRUE,,,TRUE,,,,OVC,2200,,,,,,,MVFR,,,,,,,,,,,,METAR,416.0
CYZE 060917Z AUTO 09004KT 9SM -RA OVC060 08/06 A3031 RMK SLP271,CYZE,2023-05-06T09:17:00Z,45.88,-82.57,8.0,6.0,90,4,,9.0,30.31004,1027.1,,TRUE,,,,,,,-RA,OVC,6000,,,,,,,VFR,,,,,,,,,,,,SPECI,189.0
KSUX 060916Z AUTO 15010KT 7SM -RA OVC090 14/13 A2981 RMK AO2 LTG DSNT NE-SE TSE0856 P0009 T01390128,KSUX,2023-05-06T09:16:00Z,42.38,-96.38,13.9,12.8,150,10,,7.0,29.811024,,,TRUE,TRUE,,,,,,-RA,OVC,9000,,,,,,,VFR,,,,,,0.09,,,,,,SPECI,332.0
KPOE 060916Z AUTO 21006KT 7SM VCTS -RA BKN005 OVC032 23/23 A2997 RMK AO2 RAE0856RAB16 CIG 005V007 SLP148,KPOE,2023-05-06T09:16:00Z,31.05,-93.2,23.0,23.0,210,6,,7.0,29.970472,1014.8,,TRUE,TRUE,,,,,,VCTS -RA,BKN,500,OVC,3200,,,,,IFR,,,,,,,,,,,,SPECI,98.0
KJYG 060916Z AUTO 10006KT 10SM 14/13 A2988 RMK AO2,KJYG,2023-05-06T09:16:00Z,43.98,-94.55,14.0,13.0,100,6,,10.0,29.878937,,,TRUE,TRUE,,,,,,,,,,,,,,,,,,,,,,,,,,,METAR,323.0
KGPI 060916Z AUTO 15011KT 10SM SCT006 OVC011 09/08 A2977 RMK AO2 RAB0856E07 P0000 T00890083,KGPI,2023-05-06T09:16:00Z,48.32,-114.25,8.9,8.3,150,11,,10.0,29.769686,,,TRUE,TRUE,,,,,,,SCT,600,OVC,1100,,,,,MVFR,,,,,,0.005,,,,,,SPECI,903.0
KCKC 060916Z AUTO 03008KT 1/2SM FG OVC001 04/04 A3009 RMK AO2,KCKC,2023-05-06T09:16:00Z,47.83,-90.38,4.0,4.0,30,8,,0.5,30.088583,,,TRUE,TRUE,,,,,,FG,OVC,100,,,,,,,LIFR,,,,,,,,,,,,METAR,544.0
KAWO 060916Z AUTO 00000KT 10SM -RA SCT009 OVC017 09/08 A2997 RMK AO2 P0000,KAWO,2023-05-06T09:16:00Z,48.17,-122.17,9.0,8.0,0,0,,10.0,29.970472,,,TRUE,TRUE,,,,,,-RA,SCT,900,OVC,1700,,,,,MVFR,,,,,,0.005,,,,,,METAR,38.0
KAUM 060916Z AUTO 14007KT 10SM OVC016 15/13 A2991 RMK AO2,KAUM,2023-05-06T09:16:00Z,43.67,-92.92,15.0,13.0,140,7,,10.0,29.911417,,,TRUE,TRUE,,,,,,,OVC,1600,,,,,,,MVFR,,,,,,,,,,,,METAR,376.0
K40B 060916Z AUTO 00000KT 01/01 A3007 RMK AO1 SLP194 T00100012 54000,K40B,2023-05-06T09:16:00Z,46.62,-69.52,1.0,1.2,0,0,,,30.070866,1019.4,,TRUE,TRUE,,,,,,,,,,,,,,,,,,,,,,,,,,,METAR,344.0
CYSB 060916Z 04007KT 15SM SCT075 05/04 A3033 RMK AC4 SLP281,CYSB,2023-05-06T09:16:00Z,46.63,-80.8,5.0,4.0,40,7,,15.0,30.33071,1028.1,,,,,,,,,,SCT,7500,,,,,,,VFR,,,,,,,,,,,,SPECI,349.0
TJPS 060915Z AUTO 00000KT 10SM CLR 24/20 A2999 RMK AO2 TSNO,TJPS,2023-05-06T09:15:00Z,18.02,-66.57,24.0,20.0,0,0,,10.0,29.991142,,,TRUE,TRUE,,,TRUE,,,,CLR,,,,,,,,VFR,,,,,,,,,,,,METAR,12.0
SCBA 060915Z AUTO 28026KT 9999 FEW051/// 11/06 Q1007,SCBA,2023-05-06T09:15:00Z,-45.92,-71.68,11.0,6.0,280,26,,6.21,29.734253,,,TRUE,,,,,,,,FEW,5100,,,,,,,VFR,,,,,,,,,,,,METAR,516.0
PAAD 060915Z AUTO 10005KT 1/4SM OVC003 M07/M08 A3004 RMK AO2 T10731080 PWINO,PAAD,2023-05-06T09:15:00Z,70.13,-146.28,-7.3,-8.0,100,5,,0.25,30.041338,,,TRUE,TRUE,,,,,TRUE,,OVC,300,,,,,,,LIFR,,,,,,,,,,,,METAR,8.0
LMML 060915Z 22005KT 180V290 CAVOK 23/11 Q1018 NOSIG,LMML,2023-05-06T09:15:00Z,35.85,14.47,23.0,11.0,220,5,,6.21,30.059055,,,,,,TRUE,,,,,CAVOK,,,,,,,,VFR,,,,,,,,,,,,METAR,78.0
LIRP 060915Z VRB03KT CAVOK 19/14 Q1018 NOSIG,LIRP,2023-05-06T09:15:00Z,43.68,10.38,19.0,14.0,0,3,,6.21,30.059055,,,,,,TRUE,,,,,CAVOK,,,,,,,,VFR,,,,,,,,,,,,METAR,1.0
LHSN 060915Z VRB02KT 9999 SCT047 SCT200 22/11 Q1018 NOSIG RMK BLU,LHSN,2023-05-06T09:15:00Z,47.12,20.23,22.0,11.0,0,2,,6.21,30.059055,,,,,,TRUE,,,,,SCT,4700,SCT,20000,,,,,VFR,,,,,,,,,,,,METAR,89.0
LHKE 060915Z VRB04KT 9999 BKN040 21/12 Q1018 NOSIG RMK BLU,LHKE,2023-05-06T09:15:00Z,46.92,19.75,21.0,12.0,0,4,,6.21,30.059055,,,,,,TRUE,,,,,BKN,4000,,,,,,,VFR,,,,,,,,,,,,METAR,113.0
KZPH 060915Z AUTO 10003KT 10SM SCT080 20/16 A3009 RMK A02 T01980159,KZPH,2023-05-06T09:15:00Z,28.23,-82.15,19.8,15.9,100,3,,10.0,30.088583,,,TRUE,TRUE,,,,,,,SCT,8000,,,,,,,VFR,,,,,,,,,,,,METAR,26.0
KZER 060915Z AUTO 36003KT 10SM CLR 06/02 A3029 RMK AO2,KZER,2023-05-06T09:15:00Z,40.7,-76.37,6.0,2.0,360,3,,10.0,30.28937,,,TRUE,TRUE,,,,,,,CLR,,,,,,,,VFR,,,,,,,,,,,,SPECI,518.0
KY70 060915Z AUTO 12005KT 10SM CLR 10/02 A3021 RMK AO2 T00950023,KY70,2023-05-06T09:15:00Z,42.93,-85.07,9.5,2.3,120,5,,10.0,30.209646,,,TRUE,TRUE,,,,,,,CLR,,,,,,,,VFR,,,,,,,,,,,,SPECI,247.0
KY63 060915Z AUTO 10013G19KT 10SM OVC013 10/06 A2992 RMK AO2 T01030062,KY63,2023-05-06T09:15:00Z,45.98,-96.0,10.3,6.2,100,13,19,10.0,29.920275,,,TRUE,TRUE,,,,,,,OVC,1300,,,,,,,MVFR,,,,,,,,,,,,METAR,367.0
KY49 060915Z AUTO 07008KT 10SM OVC016 07/05 A3001 RMK AO2 T00700050,KY49,2023-05-06T09:15:00Z,47.15,-94.65,7.0,5.0,70,8,,10.0,30.008858,,,TRUE,TRUE,,,,,,,OVC,1600,,,,,,,MVFR,,,,,,,,,,,,METAR,413.0
KY31 060915Z AUTO 28004KT 10SM SCT110 05/04 A3025 RMK AO2 T00520040,KY31,2023-05-06T09:15:00Z,44.25,-84.18,5.2,4.0,280,4,,10.0,30.250984,,,TRUE,TRUE,,,,,,,SCT,11000,,,,,,,VFR,,,,,,,,,,,,SPECI,264.0
KY23 060915Z AUTO 00000KT 10SM RA OVC008 13/13 A2999 RMK AO2 T01270127,KY23,2023-05-06T09:15:00Z,45.3,-91.63,12.7,12.7,0,0,,10.0,29.991142,,,TRUE,TRUE,,,,,,RA,OVC,800,,,,,,,IFR,,,,,,,,,,,,METAR,322.0
KY19 060915Z AUTO 07011KT 10SM BKN037 BKN044 08/06 A2988 RMK AO2,KY19,2023-05-06T09:15:00Z,46.77,-100.9,8.0,6.0,70,11,,10.0,29.878937,,,TRUE,TRUE,,,,,,,BKN,3700,BKN,4400,,,,,VFR,,,,,,,,,,,,METAR,591.0
KXSA 060915Z AUTO 00000KT 10SM OVC100 09/09 A3028 RMK AO2 T00920092,KXSA,2023-05-06T09:15:00Z,37.87,-76.9,9.2,9.2,0,0,,10.0,30.280512,,,TRUE,TRUE,,,,,,,OVC,10000,,,,,,,VFR,,,,,,,,,,,,SPECI,41.0
KXNX 060915Z AUTO 00000KT 10SM SCT060 OVC080 14/14 A3017 RMK A01,KXNX,2023-05-06T09:15:00Z,36.38,-86.42,14.0,14.0,0,0,,10.0,30.171259,,,TRUE,TRUE,,,,,,,SCT,6000,OVC,8000,,,,,VFR,,,,,,,,,,,,METAR,178.0
KXLL 060915Z AUTO 00000KT 10SM CLR 06/05 A3030 RMK AO2,KXLL,2023-05-06T09:15:00Z,40.57,-75.48,6.0,5.0,0,0,,10.0,30.301182,,,TRUE,TRUE,,,,,,,CLR,,,,,,,,VFR,,,,,,,,,,,,METAR,118.0
KX60 060915Z AUTO OVC047 19/16 RMK AO2 PWINO TSNO,KX60,2023-05-06T09:15:00Z,29.35,-82.47,19.0,16.0,,,,,,,,TRUE,TRUE,,,TRUE,,TRUE,,OVC,4700,,,,,,,,,,,,,,,,,,,SPECI,21.0
KX07 060915Z AUTO 08004KT 10SM OVC040 21/18 A3008 RMK A01,KX07,2023-05-06T09:15:00Z,27.9,-81.62,21.0,18.0,80,4,,10.0,30.079725,,,TRUE,TRUE,,,,,,,OVC,4000,,,,,,,VFR,,,,,,,,,,,,METAR,36.0
KWYS 060915Z AUTO 19003KT 10SM FEW047 SCT050 OVC065 01/01 A2989 RMK AO2,KWYS,2023-05-06T09:15:00Z,44.68,-111.12,1.0,1.0,190,3,,10.0,29.890747,,,TRUE,TRUE,,,,,,,FEW,4700,SCT,5000,OVC,6500,,,VFR,,,,,,,,,,,,METAR,2025.0
KWWR 060915Z AUTO 19009KT 10SM CLR 16/10 A2978 RMK AO2,KWWR,2023-05-06T09:15:00Z,36.45,-99.52,16.0,10.0,190,9,,10.0,29.778543,,,TRUE,TRUE,,,,,,,CLR,,,,,,,,VFR,,,,,,,,,,,,METAR,664.0
KWDR 060915Z AUTO 00000KT 5SM BR SCT060 OVC110 13/12 A3022 RMK AO2,KWDR,2023-05-06T09:15:00Z,33.98,-83.67,13.0,12.0,0,0,,5.0,30.221457,,,TRUE,TRUE,,,,,,BR,SCT,6000,OVC,11000,,,,,MVFR,,,,,,,,,,,,METAR,280.0
KWDG 060915Z AUTO 17009KT 10SM CLR 21/18 A2975 RMK AO2,KWDG,2023-05-06T09:15:00Z,36.37,-97.78,21.0,18.0,170,9,,10.0,29.749016,,,TRUE,TRUE,,,,,,,CLR,,,,,,,,VFR,,,,,,,,,,,,METAR,352.0
KWBF 060915Z AUTO 12008KT 5SM BR BKN012 OVC016 25/25 A3000 RMK A01,KWBF,2023-05-06T09:15:00Z,26.93,-90.5,25.0,25.0,120,8,,5.0,30.0,,,TRUE,TRUE,,,,,,BR,BKN,1200,OVC,1600,,,,,MVFR,,,,,,,,,,,,METAR,40.0
KW96 060915Z AUTO 00000KT 10SM OVC080 11/10 A3026 RMK AO1 T01100100,KW96,2023-05-06T09:15:00Z,37.5,-77.12,11.0,10.0,0,0,,10.0,30.259842,,,TRUE,TRUE,,,,,,,OVC,8000,,,,,,,VFR,,,,,,,,,,,,SPECI,35.0
KW81 060915Z AUTO 00000KT 10SM CLR 07/06 A3026 RMK AO1 T00720060,KW81,2023-05-06T09:15:00Z,37.18,-78.1,7.2,6.0,0,0,,10.0,30.259842,,,TRUE,TRUE,,,,,,,CLR,,,,,,,,VFR,,,,,,,,,,,,METAR,121.0
KW78 060915Z AUTO 00000KT 10SM SCT060 SCT085 09/07 A3025 RMK AO1 T00860070,KW78,2023-05-06T09:15:00Z,36.7,-78.85,8.6,7.0,0,0,,10.0,30.250984,,,TRUE,TRUE,,,,,,,SCT,6000,SCT,8500,,,,,VFR,,,,,,,,,,,,METAR,120.0
KW75 060915Z AUTO 00000KT 10SM OVC110 10/09 A3026 RMK AO1 T01030092,KW75,2023-05-06T09:15:00Z,37.6,-76.45,10.3,9.2,0,0,,10.0,30.259842,,,TRUE,TRUE,,,,,,,OVC,11000,,,,,,,VFR,,,,,,,,,,,,SPECI,8.0
KW43 060915Z AUTO 00000KT 10SM OVC110 08/05 A2982 RMK AO2,KW43,2023-05-06T09:15:00Z,44.67,-104.57,8.0,5.0,0,0,,10.0,29.819881,,,TRUE,TRUE,,,,,,,OVC,11000,,,,,,,VFR,,,,,,,,,,,,METAR,1292.0
KW31 060915Z AUTO 10SM SCT070 BKN095 09/08 A3025 RMK AO1 T00850075,KW31,2023-05-06T09:15:00Z,36.95,-78.18,8.5,7.5,,,,10.0,30.250984,,,TRUE,TRUE,,,,,,,SCT,7000,BKN,9500,,,,,VFR,,,,,,,,,,,,METAR,159.0
KW22 060915Z AUTO 00000KT 10SM CLR 06/02 A3022 RMK AO2,KW22,2023-05-06T09:15:00Z,39.0,-80.27,6.0,2.0,0,0,,10.0,30.221457,,,TRUE,TRUE,,,,,,,CLR,,,,,,,,VFR,,,,,,,,,,,,METAR,497.0
KW13 060915Z AUTO 00000KT 10SM OVC060 10/06 A3028 RMK AO1 T01020056,KW13,2023-05-06T09:15:00Z,38.08,-78.95,10.2,5.6,0,0,,10.0,30.280512,,,TRUE,TRUE,,,,,,,OVC,6000,,,,,,,VFR,,,,,,,,,,,,METAR,440.0
KVYS 060915Z AUTO 13007KT 10SM BKN046 OVC060 15/10 A3004 RMK AO2 T01540103,KVYS,2023-05-06T09:15:00Z,41.35,-89.15,15.4,10.3,130,7,,10.0,30.041338,,,TRUE,TRUE,,,,,,,BKN,4600,OVC,6000,,,,,VFR,,,,,,,,,,,,METAR,198.0
KVWU 060915Z AUTO 09009KT 10SM OVC019 09/06 A3006 RMK AO2,KVWU,2023-05-06T09:15:00Z,48.15,-94.52,9.0,6.0,90,9,,10.0,30.059055,,,TRUE,TRUE,,,,,,,OVC,1900,,,,,,,MVFR,,,,,,,,,,,,METAR,359.0
KVVV 060915Z AUTO 08013G17KT 10SM OVC013 12/08 A2986 RMK AO2,KVVV,2023-05-06T09:15:00Z,45.3,-96.42,12.0,8.0,80,13,17,10.0,29.861221,,,TRUE,TRUE,,,,,,,OVC,1300,,,,,,,MVFR,,,,,,,,,,,,SPECI,334.0
KVTP 060915Z AUTO 24008G18KT 10SM CLR 01/M19 A3006 RMK AO2,KVTP,2023-05-06T09:15:00Z,37.5,-105.17,1.0,-19.0,240,8,18,10.0,30.059055,,,TRUE,TRUE,,,,,,,CLR,,,,,,,,VFR,,,,,,,,,,,,METAR,3086.0
KVTI 060915Z AUTO 12011KT 10SM BKN032 OVC048 15/12 A2993 RMK AO2 T01460116,KVTI,2023-05-06T09:15:00Z,42.22,-92.02,14.6,11.6,120,11,,10.0,29.929134,,,TRUE,TRUE,,,,,,,BKN,3200,OVC,4800,,,,,VFR,,,,,,,,,,,,METAR,256.0
KVQQ 060915Z AUTO 00000KT 10SM BKN055 BKN070 OVC095 20/19 A3011 RMK AO2,KVQQ,2023-05-06T09:15:00Z,30.22,-81.88,20.0,19.0,0,0,,10.0,30.109253,,,TRUE,TRUE,,,,,,,BKN,5500,BKN,7000,OVC,9500,,,VFR,,,,,,,,,,,,METAR,21.0
KVPC 060915Z AUTO 00000KT 10SM OVC060 14/13 A3019 RMK AO2,KVPC,2023-05-06T09:15:00Z,34.1,-84.85,14.0,13.0,0,0,,10.0,30.188976,,,TRUE,TRUE,,,,,,,OVC,6000,,,,,,,VFR,,,,,,,,,,,,METAR,234.0
KVOA 060915Z AUTO 15010KT 6SM BR BKN065 24/22 A3004 RMK A01,KVOA,2023-05-06T09:15:00Z,29.23,-87.78,24.0,22.0,150,10,,6.0,30.041338,,,TRUE,TRUE,,,,,,BR,BKN,6500,,,,,,,VFR,,,,,,,,,,,,METAR,53.0
KVNW 060915Z AUTO 11004KT 10SM CLR 10/05 A3020 RMK AO2,KVNW,2023-05-06T09:15:00Z,40.87,-84.62,10.0,5.0,110,4,,10.0,30.200787,,,TRUE,TRUE,,,,,,,CLR,,,,,,,,VFR,,,,,,,,,,,,METAR,238.0
KVNC 060915Z AUTO 11007KT 10SM CLR 22/20 A3004 RMK AO2,KVNC,2023-05-06T09:15:00Z,27.07,-82.43,22.0,20.0,110,7,,10.0,30.041338,,,TRUE,TRUE,,,,,,,CLR,,,,,,,,VFR,,,,,,,,,,,,METAR,4.0
KVLL 060915Z AUTO 00000KT 10SM CLR 09/06 A3029 RMK AO2 T00920055,KVLL,2023-05-06T09:15:00Z,42.55,-83.18,9.2,5.5,0,0,,10.0,30.28937,,,TRUE,TRUE,,,,,,,CLR,,,,,,,,VFR,,,,,,,,,,,,METAR,214.0
KVKY 060915Z AUTO 00000KT 7SM CLR A3004 RMK A01,KVKY,2023-05-06T09:15:00Z,29.25,-88.43,,,0,0,,7.0,30.041338,,,TRUE,TRUE,,,,,,,CLR,,,,,,,,VFR,,,,,,,,,,,,METAR,32.0
KVKS 060915Z AUTO 14005KT 10SM OVC007 22/M38 A2999 RMK A01,KVKS,2023-05-06T09:15:00Z,32.23,-90.93,22.0,-38.0,140,5,,10.0,29.991142,,,TRUE,TRUE,,,,,,,OVC,700,,,,,,,IFR,,,,,,,,,,,,METAR,31.0
KVJI 060915Z AUTO 00000KT 10SM CLR 08/06 A3024 RMK AO2 T00780060,KVJI,2023-05-06T09:15:00Z,36.68,-82.03,7.8,6.0,0,0,,10.0,30.239174,,,TRUE,TRUE,,,,,,,CLR,,,,,,,,VFR,,,,,,,,,,,,METAR,636.0
KVHN 060915Z AUTO 24007KT 10SM CLR 16/M14 A3004 RMK AO2 T01631137,KVHN,2023-05-06T09:15:00Z,31.07,-104.78,16.3,-13.7,240,7,,10.0,30.041338,,,TRUE,TRUE,,,,,,,CLR,,,,,,,,VFR,,,,,,,,,,,,METAR,1200.0
KVGC 060915Z AUTO 00000KT 1/2SM FG OVC001 01/ A3030 RMK AO2,KVGC,2023-05-06T09:15:00Z,42.85,-75.57,1.0,,0,0,,0.5,30.301182,,,TRUE,TRUE,,,,,,FG,OVC,100,,,,,,,LIFR,,,,,,,,,,,,METAR,346.0
KVER 060915Z AUTO 14007KT 10SM OVC014 17/15 A2992 RMK AO2 T01710148,KVER,2023-05-06T09:15:00Z,38.95,-92.68,17.1,14.8,140,7,,10.0,29.920275,,,TRUE,TRUE,,,,,,,OVC,1400,,,,,,,MVFR,,,,,,,,,,,,METAR,209.0
KVDI 060915Z AUTO 00000KT 10SM SCT031 OVC070 17/13 A3018 RMK AO2,KVDI,2023-05-06T09:15:00Z,32.2,-82.37,17.0,13.0,0,0,,10.0,30.180119,,,TRUE,TRUE,,,,,,,SCT,3100,OVC,7000,,,,,VFR,,,,,,,,,,,,METAR,81.0
KVDF 060915Z AUTO 08003KT 10SM BKN040 21/17 A3007 RMK AO2,KVDF,2023-05-06T09:15:00Z,28.02,-82.33,21.0,17.0,80,3,,10.0,30.070866,,,TRUE,TRUE,,,,,,,BKN,4000,,,,,,,VFR,,,,,,,,,,,,METAR,5.0
KVCV 060915Z AUTO 18007KT 10SM FEW045 FEW050 07/03 A3005 RMK AO2,KVCV,2023-05-06T09:15:00Z,34.58,-117.38,7.0,3.0,180,7,,10.0,30.050198,,,TRUE,TRUE,,,,,,,FEW,4500,FEW,5000,,,,,VFR,,,,,,,,,,,,METAR,871.0
KVBW 060915Z AUTO 31003KT 10SM OVC060 08/08 A3027 RMK AO1 T00840081,KVBW,2023-05-06T09:15:00Z,38.37,-78.97,8.4,8.1,310,3,,10.0,30.268702,,,TRUE,TRUE,,,,,,,OVC,6000,,,,,,,VFR,,,,,,,,,,,,METAR,362.0
KVAF 060915Z AUTO 10011KT 2 1/2SM BR OVC029 25/24 A2994 RMK A01,KVAF,2023-05-06T09:15:00Z,27.35,-94.63,25.0,24.0,100,11,,2.5,29.940945,,,TRUE,TRUE,,,,,,BR,OVC,2900,,,,,,,IFR,,,,,,,,,,,,SPECI,38.0
KUYF 060915Z AUTO 09004KT 10SM CLR 07/02 A3021 RMK AO2,KUYF,2023-05-06T09:15:00Z,39.93,-83.47,7.0,2.0,90,4,,10.0,30.209646,,,TRUE,TRUE,,,,,,,CLR,,,,,,,,VFR,,,,,,,,,,,,METAR,326.0
KUXL 060915Z AUTO 22003KT 7SM -RA OVC018 25/24 A2999 RMK AO2 T02480240,KUXL,2023-05-06T09:15:00Z,30.13,-93.38,24.8,24.0,220,3,,7.0,29.991142,,,TRUE,TRUE,,,,,,-RA,OVC,1800,,,,,,,MVFR,,,,,,,,,,,,SPECI,2.0
KUVA 060915Z AUTO 10012G16KT 7SM OVC014 25/25 A2992 RMK AO2 T02500250,KUVA,2023-05-06T09:15:00Z,29.22,-99.75,25.0,25.0,100,12,16,7.0,29.920275,,,TRUE,TRUE,,,,,,,OVC,1400,,,,,,,MVFR,,,,,,,,,,,,METAR,285.0
KUUV 060915Z AUTO 19009G14KT 10SM SCT037 OVC043 16/13 A3000 RMK AO2,KUUV,2023-05-06T09:15:00Z,38.23,-91.17,16.0,13.0,190,9,14,10.0,30.0,,,TRUE,TRUE,,,,,,,SCT,3700,OVC,4300,,,,,VFR,,,,,,,,,,,,METAR,284.0
KUTA 060915Z AUTO 13006KT 4SM -RA BR SCT041 SCT050 18/17 A3002 RMK AO2 P0000 T01770166 $,KUTA,2023-05-06T09:15:00Z,34.68,-90.35,17.7,16.6,130,6,,4.0,30.02067,,,TRUE,TRUE,TRUE,,,,,-RA BR,SCT,4100,SCT,5000,,,,,MVFR,,,,,,0.005,,,,,,METAR,58.0
KUSE 060915Z AUTO 10006KT 10SM CLR 09/04 A3022 RMK AO2,KUSE,2023-05-06T09:15:00Z,41.62,-84.13,9.0,4.0,100,6,,10.0,30.221457,,,TRUE,TRUE,,,,,,,CLR,,,,,,,,VFR,,,,,,,,,,,,SPECI,237.0
KUOX 060915Z AUTO 14007KT 10SM OVC010 16/14 A3007 RMK AO2,KUOX,2023-05-06T09:15:00Z,34.38,-89.53,16.0,14.0,140,7,,10.0,30.070866,,,TRUE,TRUE,,,,,,,OVC,1000,,,,,,,MVFR,,,,,,,,,,,,METAR,123.0
KUNV 060915Z AUTO 00000KT 3SM BR SCT080 BKN090 03/03 A3031 RMK AO2 T00300030,KUNV,2023-05-06T09:15:00Z,40.85,-77.83,3.0,3.0,0,0,,3.0,30.31004,,,TRUE,TRUE,,,,,,BR,SCT,8000,BKN,9000,,,,,MVFR,,,,,,,,,,,,METAR,365.0
KUNU 060915Z AUTO 13006KT 10SM -DZ OVC080 14/08 A3007 RMK AO2 T01400080,KUNU,2023-05-06T09:15:00Z,43.42,-88.7,14.0,8.0,130,6,,10.0,30.070866,,,TRUE,TRUE,,,,,,-DZ,OVC,8000,,,,,,,VFR,,,,,,,,,,,,SPECI,281.0
KUNI 060915Z AUTO 00000KT 5SM -SN CLR 04/03 A3021 RMK AO2 T00400031,KUNI,2023-05-06T09:15:00Z,39.22,-82.23,4.0,3.1,0,0,,5.0,30.209646,,,TRUE,TRUE,,,,,,-SN,CLR,,,,,,,,MVFR,,,,,,,,,,,,SPECI,232.0
KUMP 060915Z AUTO 13005KT 10SM CLR 13/08 A3015 RMK AO2 T01310084,KUMP,2023-05-06T09:15:00Z,39.93,-86.05,13.1,8.4,130,5,,10.0,30.15059,,,TRUE,TRUE,,,,,,,CLR,,,,,,,,VFR,,,,,,,,,,,,METAR,247.0
KULM 060915Z AUTO 11007KT 10SM OVC021 14/13 A2988 RMK AO2,KULM,2023-05-06T09:15:00Z,44.32,-94.5,14.0,13.0,110,7,,10.0,29.878937,,,TRUE,TRUE,,,,,,,OVC,2100,,,,,,,MVFR,,,,,,,,,,,,SPECI,305.0
KUKT 060915Z AUTO 00000KT 10SM CLR 03/03 A3028 RMK A01,KUKT,2023-05-06T09:15:00Z,40.43,-75.38,3.0,3.0,0,0,,10.0,30.280512,,,TRUE,TRUE,,,,,,,CLR,,,,,,,,VFR,,,,,,,,,,,,METAR,156.0
KUKL 060915Z AUTO 15011G16KT 3SM BR OVC003 18/17 A2981 RMK AO2 T01750165,KUKL,2023-05-06T09:15:00Z,38.3,-95.73,17.5,16.5,150,11,16,3.0,29.811024,,,TRUE,TRUE,,,,,,BR,OVC,300,,,,,,,LIFR,,,,,,,,,,,,METAR,357.0
KUES 060915Z AUTO 12006KT 10SM SCT055 OVC075 13/06 A3009 RMK AO2,KUES,2023-05-06T09:15:00Z,43.05,-88.25,13.0,6.0,120,6,,10.0,30.088583,,,TRUE,TRUE,,,,,,,SCT,5500,OVC,7500,,,,,VFR,,,,,,,,,,,,METAR,273.0
KUCY 060915Z AUTO 14006KT 10SM BKN044 OVC050 15/15 A3005 RMK A01,KUCY,2023-05-06T09:15:00Z,36.38,-88.98,15.0,15.0,140,6,,10.0,30.050198,,,TRUE,TRUE,,,,,,,BKN,4400,OVC,5000,,,,,VFR,,,,,,,,,,,,METAR,97.0
KUBE 060915Z AUTO 08003KT 10SM OVC010 12/12 A3000 RMK AO2,KUBE,2023-05-06T09:15:00Z,45.5,-91.98,12.0,12.0,80,3,,10.0,30.0,,,TRUE,TRUE,,,,,,,OVC,1000,,,,,,,MVFR,,,,,,,,,,,,METAR,376.0
KU69 060915Z AUTO 27007KT 10SM CLR 02/M01 A2999 RMK A01,KU69,2023-05-06T09:15:00Z,40.2,-110.38,2.0,-1.0,270,7,,10.0,29.991142,,,TRUE,TRUE,,,,,,,CLR,,,,,,,,VFR,,,,,,,,,,,,METAR,1776.0
KU68 060915Z AUTO 00000KT 10SM BKN100 07/05 A2982 RMK AO2,KU68,2023-05-06T09:15:00Z,44.92,-108.45,7.0,5.0,0,0,,10.0,29.819881,,,TRUE,TRUE,,,,,,,BKN,10000,,,,,,,VFR,,,,,,,,,,,,METAR,1244.0
KU64 060915Z AUTO 31007KT 10SM BKN085 BKN150 05/M05 A3005 RMK AO2 T00511046 $,KU64,2023-05-06T09:15:00Z,,,5.1,-4.6,310,7,,10.0,30.050198,,,TRUE,TRUE,TRUE,,,,,,BKN,8500,BKN,15000,,,,,VFR,,,,,,,,,,,,METAR,
KU55 060915Z AUTO 13005KT 10SM FEW033 SCT043 SCT050 M03/M05 A3007 RMK A01,KU55,2023-05-06T09:15:00Z,37.85,-112.38,-3.0,-5.0,130,5,,10.0,30.070866,,,TRUE,TRUE,,,,,,,FEW,3300,SCT,4300,SCT,5000,,,VFR,,,,,,,,,,,,METAR,2060.0
KU42 060915Z AUTO 16005KT 10SM OVC080 07/01 A2998 RMK AO1 T00730013,KU42,2023-05-06T09:15:00Z,40.62,-111.98,7.3,1.3,160,5,,10.0,29.97933,,,TRUE,TRUE,,,,,,,OVC,8000,,,,,,,VFR,,,,,,,,,,,,METAR,1399.0
KTZR 060915Z AUTO 10004KT 10SM CLR 10/04 A3022 RMK AO2 T01020041,KTZR,2023-05-06T09:15:00Z,39.9,-83.13,10.2,4.1,100,4,,10.0,30.221457,,,TRUE,TRUE,,,,,,,CLR,,,,,,,,VFR,,,,,,,,,,,,SPECI,275.0
KTYQ 060915Z AUTO 12006KT 10SM CLR 13/06 A3015 RMK AO2 T01300061,KTYQ,2023-05-06T09:15:00Z,40.03,-86.25,13.0,6.1,120,6,,10.0,30.15059,,,TRUE,TRUE,,,,,,,CLR,,,,,,,,VFR,,,,,,,,,,,,METAR,279.0
KTYL 060915Z AUTO 29004KT 10SM CLR 02/M05 A3010 RMK AO2,KTYL,2023-05-06T09:15:00Z,34.45,-110.12,2.0,-5.0,290,4,,10.0,30.100393,,,TRUE,TRUE,,,,,,,CLR,,,,,,,,VFR,,,,,,,,,,,,METAR,1748.0
KTXW 060915Z AUTO 16010KT 7SM BR BKN012 25/24 A2985 RMK AO2 T02540239,KTXW,2023-05-06T09:15:00Z,26.18,-97.97,25.4,23.9,160,10,,7.0,29.84941,,,TRUE,TRUE,,,,,,BR,BKN,1200,,,,,,,MVFR,,,,,,,,,,,,METAR,21.0
KTWT 060915Z AUTO 12004KT 10SM SCT040 SCT075 14/11 A3009 RMK AO2,KTWT,2023-05-06T09:15:00Z,37.55,-87.95,14.0,11.0,120,4,,10.0,30.088583,,,TRUE,TRUE,,,,,,,SCT,4000,SCT,7500,,,,,VFR,,,,,,,,,,,,METAR,113.0
KTWM 060915Z AUTO 05009G17KT 10SM OVC004 06/06 A3006 RMK AO2,KTWM,2023-05-06T09:15:00Z,47.05,-91.75,6.0,6.0,50,9,17,10.0,30.059055,,,TRUE,TRUE,,,,,,,OVC,400,,,,,,,LIFR,,,,,,,,,,,,METAR,331.0
KTVY 060915Z AUTO 17006KT 10SM SCT060 BKN080 OVC095 10/M02 A2995 RMK AO2,KTVY,2023-05-06T09:15:00Z,40.62,-112.35,10.0,-2.0,170,6,,10.0,29.949802,,,TRUE,TRUE,,,,,,,SCT,6000,BKN,8000,OVC,9500,,,VFR,,,,,,,,,,,,METAR,1310.0
KTVK 060915Z AUTO 15008KT 10SM SCT011 SCT038 BKN055 15/15 A2992 RMK AO2,KTVK,2023-05-06T09:15:00Z,40.68,-92.9,15.0,15.0,150,8,,10.0,29.920275,,,TRUE,TRUE,,,,,,,SCT,1100,SCT,3800,BKN,5500,,,VFR,,,,,,,,,,,,SPECI,311.0
KTTF 060915Z AUTO 09004KT 10SM CLR 09/05 A3024 RMK AO2 T00910050,KTTF,2023-05-06T09:15:00Z,41.93,-83.42,9.1,5.0,90,4,,10.0,30.239174,,,TRUE,TRUE,,,,,,,CLR,,,,,,,,VFR,,,,,,,,,,,,SPECI,186.0
KTSP 060915Z AUTO 30011KT 9SM FEW038 05/06 A3006 RMK AO2,KTSP,2023-05-06T09:15:00Z,35.13,-118.43,5.0,6.0,300,11,,9.0,30.059055,,,TRUE,TRUE,,,,,,,FEW,3800,,,,,,,VFR,,,,,,,,,,,,METAR,1209.0
KTQV 060915Z AUTO 00000KT 10SM SCT070 12/09 A3023 RMK A01,KTQV,2023-05-06T09:15:00Z,36.0,-78.93,12.0,9.0,0,0,,10.0,30.230314,,,TRUE,TRUE,,,,,,,SCT,7000,,,,,,,VFR,,,,,,,,,,,,METAR,230.0
KTQK 060915Z AUTO 34012KT 10SM CLR 12/10 A2976 RMK AO2 T01190096,KTQK,2023-05-06T09:15:00Z,38.47,-100.88,11.9,9.6,340,12,,10.0,29.760826,,,TRUE,TRUE,,,,,,,CLR,,,,,,,,VFR,,,,,,,,,,,,METAR,906.0
KTQH 060915Z AUTO 00000KT 5SM BR SCT018 18/16 A2986 RMK AO2,KTQH,2023-05-06T09:15:00Z,35.93,-95.0,18.0,16.0,0,0,,5.0,29.861221,,,TRUE,TRUE,,,,,,BR,SCT,1800,,,,,,,MVFR,,,,,,,,,,,,METAR,265.0
KTOC 060915Z AUTO 00000KT 10SM OVC110 13/11 A3021 RMK AO2 T01300109,KTOC,2023-05-06T09:15:00Z,34.6,-83.3,13.0,10.9,0,0,,10.0,30.209646,,,TRUE,TRUE,,,,,,,OVC,11000,,,,,,,VFR,,,,,,,,,,,,METAR,292.0
KTOB 060915Z AUTO 12006KT 7SM OVC012 13/13 A2993 RMK AO2,KTOB,2023-05-06T09:15:00Z,44.02,-92.82,13.0,13.0,120,6,,7.0,29.929134,,,TRUE,TRUE,,,,,,,OVC,1200,,,,,,,MVFR,,,,,,,,,,,,METAR,394.0
KTNU 060915Z AUTO 14011KT 10SM CLR 13/13 A2988 RMK A01,KTNU,2023-05-06T09:15:00Z,41.67,-93.02,13.0,13.0,140,11,,10.0,29.878937,,,TRUE,TRUE,,,,,,,CLR,,,,,,,,VFR,,,,,,,,,,,,METAR,287.0
KTNB 060915Z AUTO 00000KT 10SM CLR 04/04 A3027 RMK AO2 T00400040 TSNO,KTNB,2023-05-06T09:15:00Z,36.2,-81.65,4.0,4.0,0,0,,10.0,30.268702,,,TRUE,TRUE,,,TRUE,,,,CLR,,,,,,,,VFR,,,,,,,,,,,,METAR,958.0
KTMT 060915Z AUTO 14004KT 10SM SCT100 M02/M03 A2997 RMK AO2 T10221029,KTMT,2023-05-06T09:15:00Z,39.47,-117.2,-2.2,-2.9,140,4,,10.0,29.970472,,,TRUE,TRUE,,,,,,,SCT,10000,,,,,,,VFR,,,,,,,,,,,,METAR,1748.0
KTMK 060915Z AUTO 00000KT 4SM UP BR SCT014 BKN024 OVC038 10/10 A2999 RMK AO2,KTMK,2023-05-06T09:15:00Z,45.42,-123.82,10.0,10.0,0,0,,4.0,29.991142,,,TRUE,TRUE,,,,,,BR UP,SCT,1400,BKN,2400,OVC,3800,,,MVFR,,,,,,,,,,,,METAR,8.0
KTME 060915Z AUTO 15007KT 10SM 20/19 A2994 RMK AO2,KTME,2023-05-06T09:15:00Z,29.8,-95.9,20.0,19.0,150,7,,10.0,29.940945,,,TRUE,TRUE,,,,,,,,,,,,,,,,,,,,,,,,,,,METAR,49.0
KTKX 060915Z AUTO 13005KT 7SM FEW026 OVC060 15/15 A3003 RMK AO2,KTKX,2023-05-06T09:15:00Z,36.22,-90.03,15.0,15.0,130,5,,7.0,30.029528,,,TRUE,TRUE,,,,,,,FEW,2600,OVC,6000,,,,,VFR,,,,,,,,,,,,SPECI,73.0
KTKV 060915Z AUTO 00000KT 5SM SCT004 BKN055 OVC065 09/08 A3005 RMK AO2 T00910080 PWINO,KTKV,2023-05-06T09:15:00Z,45.47,-89.82,9.1,8.0,0,0,,5.0,30.050198,,,TRUE,TRUE,,,,,TRUE,,SCT,400,BKN,5500,OVC,6500,,,MVFR,,,,,,,,,,,,METAR,449.0
KTKC 060915Z AUTO 11005KT 4SM BR SCT003 BKN009 OVC013 13/13 A2986 RMK AO2,KTKC,2023-05-06T09:15:00Z,44.25,-95.62,13.0,13.0,110,5,,4.0,29.861221,,,TRUE,TRUE,,,,,,BR,SCT,300,BKN,900,OVC,1300,,,IFR,,,,,,,,,,,,SPECI,408.0
KTIP 060915Z AUTO 15006KT 10SM OVC080 15/09 A3008 RMK AO2 T01510091,KTIP,2023-05-06T09:15:00Z,40.28,-88.15,15.1,9.1,150,6,,10.0,30.079725,,,TRUE,TRUE,,,,,,,OVC,8000,,,,,,,VFR,,,,,,,,,,,,SPECI,224.0
KTIF 060915Z AUTO 28006KT 10SM CLR 10/09 A2978 RMK AO2 T00950092,KTIF,2023-05-06T09:15:00Z,41.97,-100.57,9.5,9.2,280,6,,10.0,29.778543,,,TRUE,TRUE,,,,,,,CLR,,,,,,,,VFR,,,,,,,,,,,,SPECI,888.0
KTHA 060915Z AUTO 13007KT 10SM SCT034 BKN042 OVC075 14/10 A3014 RMK A01,KTHA,2023-05-06T09:15:00Z,35.38,-86.25,14.0,10.0,130,7,,10.0,30.138779,,,TRUE,TRUE,,,,,,,SCT,3400,BKN,4200,OVC,7500,,,VFR,,,,,,,,,,,,METAR,333.0
KTEX 060915Z AUTO 00000KT 10SM SCT025 BKN065 OVC085 02/M03 A3012 RMK AO2,KTEX,2023-05-06T09:15:00Z,37.95,-107.9,2.0,-3.0,0,0,,10.0,30.121063,,,TRUE,TRUE,,,,,,,SCT,2500,BKN,6500,OVC,8500,,,VFR,,,,,,,,,,,,SPECI,2760.0
KTEW 060915Z AUTO 14006KT 10SM CLR 11/04 A3023 RMK AO2 T01050036,KTEW,2023-05-06T09:15:00Z,42.57,-84.42,10.5,3.6,140,6,,10.0,30.230314,,,TRUE,TRUE,,,,,,,CLR,,,,,,,,VFR,,,,,,,,,,,,METAR,281.0
KTCY 060915Z AUTO 00000KT 10SM OVC060 11/11 A3007 RMK A01,KTCY,2023-05-06T09:15:00Z,37.68,-121.43,11.0,11.0,0,0,,10.0,30.070866,,,TRUE,TRUE,,,,,,,OVC,6000,,,,,,,VFR,,,,,,,,,,,,METAR,51.0
KTBX 060915Z AUTO 10SM CLR 05/M01 A2998 RMK AO2,KTBX,2023-05-06T09:15:00Z,43.47,-108.23,5.0,-1.0,,,,10.0,29.97933,,,TRUE,TRUE,,,,,,,CLR,,,,,,,,VFR,,,,,,,,,,,,METAR,2230.0
KTBR 060915Z AUTO 00000KT 10SM BKN090 16/13 A3019 RMK AO2 T01600130 PWINO,KTBR,2023-05-06T09:15:00Z,32.48,-81.73,16.0,13.0,0,0,,10.0,30.188976,,,TRUE,TRUE,,,,,TRUE,,BKN,9000,,,,,,,VFR,,,,,,,,,,,,METAR,54.0
KTAZ 060915Z AUTO 15009KT 10SM OVC031 15/11 A3005 RMK AO2 T01480105 PWINO,KTAZ,2023-05-06T09:15:00Z,39.53,-89.33,14.8,10.5,150,9,,10.0,30.050198,,,TRUE,TRUE,,,,,TRUE,,OVC,3100,,,,,,,VFR,,,,,,,,,,,,SPECI,188.0
KT89 060915Z AUTO 32006KT 10SM CLR 19/M06 A2987 RMK A01,KT89,2023-05-06T09:15:00Z,29.27,-103.68,19.0,-6.0,320,6,,10.0,29.870079,,,TRUE,TRUE,,,,,,,CLR,,,,,,,,VFR,,,,,,,,,,,,METAR,801.0
KT82 060915Z AUTO 15007KT 10SM OVC013 21/18 A2995 RMK AO2 T02130177,KT82,2023-05-06T09:15:00Z,30.25,-98.92,21.3,17.7,150,7,,10.0,29.949802,,,TRUE,TRUE,,,,,,,OVC,1300,,,,,,,MVFR,,,,,,,,,,,,METAR,509.0
KT78 060915Z AUTO 14005KT 10SM FEW006 SCT039 BKN070 19/19 A2993 RMK AO2 LTG DSNT NE-SE,KT78,2023-05-06T09:15:00Z,30.08,-94.7,19.0,19.0,140,5,,10.0,29.929134,,,TRUE,TRUE,,,,,,,FEW,600,SCT,3900,BKN,7000,,,VFR,,,,,,,,,,,,METAR,21.0
KT74 060915Z AUTO 20007KT 10SM CLR 18/17 A2990 RMK AO2 T01840166,KT74,2023-05-06T09:15:00Z,30.57,-97.45,18.4,16.6,200,7,,10.0,29.899607,,,TRUE,TRUE,,,,,,,CLR,,,,,,,,VFR,,,,,,,,,,,,METAR,169.0
KT69 060915Z AUTO 10007KT 5SM BR BKN009 BKN021 BKN026 25/25 A2991 RMK A01,KT69,2023-05-06T09:15:00Z,28.03,-97.55,25.0,25.0,100,7,,5.0,29.911417,,,TRUE,TRUE,,,,,,BR,BKN,900,BKN,2100,BKN,2600,,,IFR,,,,,,,,,,,,METAR,15.0
KT41 060915Z AUTO 11006KT 10SM CLR 20/19 A2996 RMK AO2 LTG DSNT NE AND E T02010187,KT41,2023-05-06T09:15:00Z,29.67,-95.07,20.1,18.7,110,6,,10.0,29.958662,,,TRUE,TRUE,,,,,,,CLR,,,,,,,,VFR,,,,,,,,,,,,METAR,8.0
KT35 060915Z AUTO 20012KT 10SM CLR 19/17 A2986 RMK AO2 T01910167,KT35,2023-05-06T09:15:00Z,30.88,-96.97,19.1,16.7,200,12,,10.0,29.861221,,,TRUE,TRUE,,,,,,,CLR,,,,,,,,VFR,,,,,,,,,,,,METAR,122.0
KT20 060915Z AUTO 09005KT 10SM OVC013 23/18 A2992 RMK AO2 T02290182,KT20,2023-05-06T09:15:00Z,29.52,-97.47,22.9,18.2,90,5,,10.0,29.920275,,,TRUE,TRUE,,,,,,,OVC,1300,,,,,,,MVFR,,,,,,,,,,,,METAR,107.0
KSZY 060915Z AUTO 14005KT 10SM OVC016 15/13 A3008 RMK A01,KSZY,2023-05-06T09:15:00Z,35.2,-88.5,15.0,13.0,140,5,,10.0,30.079725,,,TRUE,TRUE,,,,,,,OVC,1600,,,,,,,MVFR,,,,,,,,,,,,METAR,184.0
KSZT 060915Z AUTO 22006KT 10SM OVC019 08/07 A2987 RMK AO2,KSZT,2023-05-06T09:15:00Z,48.3,-116.57,8.0,7.0,220,6,,10.0,29.870079,,,TRUE,TRUE,,,,,,,OVC,1900,,,,,,,MVFR,,,,,,,,,,,,SPECI,649.0
KSYN 060915Z AUTO 10005KT 7SM SCT039 OVC045 14/13 A2993 RMK AO2 T01350125,KSYN,2023-05-06T09:15:00Z,44.47,-93.02,13.5,12.5,100,5,,7.0,29.929134,,,TRUE,TRUE,,,,,,,SCT,3900,OVC,4500,,,,,VFR,,,,,,,,,,,,METAR,280.0
KSYM 060915Z AUTO 00000KT 10SM CLR 11/03 A3020 RMK AO2,KSYM,2023-05-06T09:15:00Z,38.22,-83.58,11.0,3.0,0,0,,10.0,30.200787,,,TRUE,TRUE,,,,,,,CLR,,,,,,,,VFR,,,,,,,,,,,,SPECI,307.0
KSYI 060915Z AUTO 14007KT 10SM OVC044 14/10 A3013 RMK A01,KSYI,2023-05-06T09:15:00Z,35.57,-86.45,14.0,10.0,140,7,,10.0,30.129921,,,TRUE,TRUE,,,,,,,OVC,4400,,,,,,,VFR,,,,,,,,,,,,METAR,244.0
KSYF 060915Z AUTO 35005KT 10SM CLR 08/06 A2982 RMK AO2 T00760063 PWINO,KSYF,2023-05-06T09:15:00Z,39.77,-101.8,7.6,6.3,350,5,,10.0,29.819881,,,TRUE,TRUE,,,,,TRUE,,CLR,,,,,,,,VFR,,,,,,,,,,,,METAR,1041.0
KSXU 060915Z AUTO 25008KT 10SM CLR 13/M10 A2996 RMK AO2 T01251104,KSXU,2023-05-06T09:15:00Z,34.93,-104.65,12.5,-10.4,250,8,,10.0,29.958662,,,TRUE,TRUE,,,,,,,CLR,,,,,,,,VFR,,,,,,,,,,,,SPECI,1465.0
KSXK 060915Z AUTO 13009KT 3SM BR OVC006 14/14 A2983 RMK AO2,KSXK,2023-05-06T09:15:00Z,42.98,-96.17,14.0,14.0,130,9,,3.0,29.828741,,,TRUE,TRUE,,,,,,BR,OVC,600,,,,,,,IFR,,,,,,,,,,,,METAR,430.0
KSWW 060915Z AUTO 17015KT 10SM CLR 21/16 A2991 RMK AO2 T02090164,KSWW,2023-05-06T09:15:00Z,32.47,-100.47,20.9,16.4,170,15,,10.0,29.911417,,,TRUE,TRUE,,,,,,,CLR,,,,,,,,VFR,,,,,,,,,,,,SPECI,718.0
KSWO 060915Z 16009KT 5SM BR BKN009 24/22 A2977 RMK AO2 T02390222,KSWO,2023-05-06T09:15:00Z,36.17,-97.08,23.9,22.2,160,9,,5.0,29.769686,,,,TRUE,,,,,,BR,BKN,900,,,,,,,IFR,,,,,,,,,,,,METAR,293.0
KSVE 060915Z AUTO 33005KT 10SM OVC040 06/01 A2997 RMK AO2,KSVE,2023-05-06T09:15:00Z,40.37,-120.57,6.0,1.0,330,5,,10.0,29.970472,,,TRUE,TRUE,,,,,,,OVC,4000,,,,,,,VFR,,,,,,,,,,,,SPECI,1263.0
KSVC 060915Z AUTO 32009KT 10SM CLR 10/M05 A3009 RMK AO2 T00981049,KSVC,2023-05-06T09:15:00Z,32.63,-108.15,9.8,-4.9,320,9,,10.0,30.088583,,,TRUE,TRUE,,,,,,,CLR,,,,,,,,VFR,,,,,,,,,,,,METAR,1638.0
KSUZ 060915Z AUTO VRB04KT 10SM OVC007 20/20 A2995 RMK A01,KSUZ,2023-05-06T09:15:00Z,34.58,-92.48,20.0,20.0,0,4,,10.0,29.949802,,,TRUE,TRUE,,,,,,,OVC,700,,,,,,,IFR,,,,,,,,,,,,METAR,114.0
KSUW 060915Z AUTO 05009G17KT 3/4SM BR OVC002 03/03 A3008 RMK AO2 T00320031,KSUW,2023-05-06T09:15:00Z,46.68,-92.1,3.2,3.1,50,9,17,0.75,30.079725,,,TRUE,TRUE,,,,,,BR,OVC,200,,,,,,,LIFR,,,,,,,,,,,,METAR,205.0
KSUN 060915Z AUTO 31003KT 5SM -RA BKN013 OVC029 03/03 A2993 RMK AO2,KSUN,2023-05-06T09:15:00Z,43.5,-114.28,3.0,3.0,310,3,,5.0,29.929134,,,TRUE,TRUE,,,,,,-RA,BKN,1300,OVC,2900,,,,,MVFR,,,,,,,,,,,,METAR,1619.0
KSUA 060915Z AUTO 00000KT 10SM SCT055 24/17 A3008 RMK AO2 T02360174,KSUA,2023-05-06T09:15:00Z,27.18,-80.22,23.6,17.4,0,0,,10.0,30.079725,,,TRUE,TRUE,,,,,,,SCT,5500,,,,,,,VFR,,,,,,,,,,,,SPECI,4.0
KSTK 060915Z AUTO 33006KT 10SM CLR 05/05 A2982 RMK AO2,KSTK,2023-05-06T09:15:00Z,40.62,-103.27,5.0,5.0,330,6,,10.0,29.819881,,,TRUE,TRUE,,,,,,,CLR,,,,,,,,VFR,,,,,,,,,,,,METAR,1228.0
KSTF 060915Z AUTO 12004KT 10SM BKN010 BKN035 OVC043 17/16 A3006 RMK AO2,KSTF,2023-05-06T09:15:00Z,33.43,-88.85,17.0,16.0,120,4,,10.0,30.059055,,,TRUE,TRUE,,,,,,,BKN,1000,BKN,3500,OVC,4300,,,MVFR,,,,,,,,,,,,METAR,99.0
KSTE 060915Z AUTO 05004KT 10SM SCT049 OVC080 10/08 A3005 RMK AO2 T01010083,KSTE,2023-05-06T09:15:00Z,44.55,-89.53,10.1,8.3,50,4,,10.0,30.050198,,,TRUE,TRUE,,,,,,,SCT,4900,OVC,8000,,,,,VFR,,,,,,,,,,,,METAR,335.0
KSRR 060915Z AUTO 24009G17KT 10SM CLR 13/M13 A3010 RMK AO2,KSRR,2023-05-06T09:15:00Z,33.47,-105.52,13.0,-13.0,240,9,17,10.0,30.100393,,,TRUE,TRUE,,,,,,,CLR,,,,,,,,VFR,,,,,,,,,,,,METAR,2063.0
KSRE 060915Z AUTO 15004KT 4SM BR BKN007 BKN011 BKN110 22/21 A2982 RMK AO2,KSRE,2023-05-06T09:15:00Z,35.27,-96.68,22.0,21.0,150,4,,4.0,29.819881,,,TRUE,TRUE,,,,,,BR,BKN,700,BKN,1100,BKN,11000,,,IFR,,,,,,,,,,,,METAR,306.0
KSRB 060915Z AUTO 00000KT 10SM OVC080 13/11 A3016 RMK AO2,KSRB,2023-05-06T09:15:00Z,36.05,-85.53,13.0,11.0,0,0,,10.0,30.159449,,,TRUE,TRUE,,,,,,,OVC,8000,,,,,,,VFR,,,,,,,,,,,,METAR,303.0
KSQL 060915Z AUTO 00000KT 8SM BKN049 OVC065 12/09 A3008 RMK AO2,KSQL,2023-05-06T09:15:00Z,37.52,-122.25,12.0,9.0,0,0,,8.0,30.079725,,,TRUE,TRUE,,,,,,,BKN,4900,OVC,6500,,,,,VFR,,,,,,,,,,,,METAR,1.0
KSPK 060915Z AUTO 13005KT 10SM OVC055 06/02 A3000 RMK AO2,KSPK,2023-05-06T09:15:00Z,40.15,-111.67,6.0,2.0,130,5,,10.0,30.0,,,TRUE,TRUE,,,,,,,OVC,5500,,,,,,,VFR,,,,,,,,,,,,METAR,1381.0
KSPF 060915Z AUTO 13010KT 8SM -RA FEW042 FEW050 OVC070 10/08 A2982 RMK AO2,KSPF,2023-05-06T09:15:00Z,44.47,-103.78,10.0,8.0,130,10,,8.0,29.819881,,,TRUE,TRUE,,,,,,-RA,FEW,4200,FEW,5000,OVC,7000,,,VFR,,,,,,,,,,,,METAR,1191.0
KSPA 060915Z AUTO 00000KT 10SM CLR 12/11 A3022 RMK AO2,KSPA,2023-05-06T09:15:00Z,34.92,-81.95,12.0,11.0,0,0,,10.0,30.221457,,,TRUE,TRUE,,,,,,,CLR,,,,,,,,VFR,,,,,,,,,,,,SPECI,242.0
KSOW 060915Z AUTO 00000KT 10SM CLR 06/M04 A3011 RMK AO2,KSOW,2023-05-06T09:15:00Z,34.27,-110.0,6.0,-4.0,0,0,,10.0,30.109253,,,TRUE,TRUE,,,,,,,CLR,,,,,,,,VFR,,,,,,,,,,,,METAR,1954.0
KSOA 060915Z AUTO 00000G13KT 7SM 24/21 A2994 RMK AO2,KSOA,2023-05-06T09:15:00Z,30.58,-100.65,24.0,21.0,0,0,13,7.0,29.940945,,,TRUE,TRUE,,,,,,,,,,,,,,,,,,,,,,,,,,,METAR,654.0
KSNK 060915Z AUTO 00000KT 10SM CLR 18/13 A2990 RMK AO2 T01800130,KSNK,2023-05-06T09:15:00Z,32.7,-100.95,18.0,13.0,0,0,,10.0,29.899607,,,TRUE,TRUE,,,,,,,CLR,,,,,,,,VFR,,,,,,,,,,,,METAR,738.0
KSNC 060915Z AUTO VRB04KT 10SM CLR 08/07 A3021 RMK AO2,KSNC,2023-05-06T09:15:00Z,41.38,-72.5,8.0,7.0,0,4,,10.0,30.209646,,,TRUE,TRUE,,,,,,,CLR,,,,,,,,VFR,,,,,,,,,,,,SPECI,114.0
KSMS 060915Z AUTO 00000KT 10SM BKN040 11/11 A3022 RMK AO2,KSMS,2023-05-06T09:15:00Z,34.0,-80.37,11.0,11.0,0,0,,10.0,30.221457,,,TRUE,TRUE,,,,,,,BKN,4000,,,,,,,VFR,,,,,,,,,,,,SPECI,53.0
KSME 060915Z AUTO 00000KT 10SM FEW080 OVC095 13/11 A3017 RMK AO2,KSME,2023-05-06T09:15:00Z,37.05,-84.62,13.0,11.0,0,0,,10.0,30.171259,,,TRUE,TRUE,,,,,,,FEW,8000,OVC,9500,,,,,VFR,,,,,,,,,,,,METAR,279.0
KSMD 060915Z AUTO 07003KT 10SM CLR 09/06 A3020 RMK A01,KSMD,2023-05-06T09:15:00Z,41.15,-85.15,9.0,6.0,70,3,,10.0,30.200787,,,TRUE,TRUE,,,,,,,CLR,,,,,,,,VFR,,,,,,,,,,,,METAR,252.0
KSLR 060915Z AUTO 19003KT 7SM CLR 22/21 A2989 RMK AO2 T02180205,KSLR,2023-05-06T09:15:00Z,33.17,-95.62,21.8,20.5,190,3,,7.0,29.890747,,,TRUE,TRUE,,,,,,,CLR,,,,,,,,VFR,,,,,,,,,,,,METAR,144.0
KSLO 060915Z AUTO 16005KT 10SM OVC042 16/11 A3005 RMK AO2 T01550112,KSLO,2023-05-06T09:15:00Z,38.65,-88.97,15.5,11.2,160,5,,10.0,30.050198,,,TRUE,TRUE,,,,,,,OVC,4200,,,,,,,VFR,,,,,,,,,,,,METAR,173.0
KSLH 060915Z AUTO 07005KT 7SM -RA OVC065 05/05 A3024 RMK AO2,KSLH,2023-05-06T09:15:00Z,45.65,-84.52,5.0,5.0,70,5,,7.0,30.239174,,,TRUE,TRUE,,,,,,-RA,OVC,6500,,,,,,,VFR,,,,,,,,,,,,SPECI,193.0
KSLB 060915Z AUTO 12011KT 7SM BKN005 OVC020 14/14 A2985 RMK AO2,KSLB,2023-05-06T09:15:00Z,42.6,-95.23,14.0,14.0,120,11,,7.0,29.84941,,,TRUE,TRUE,,,,,,,BKN,500,OVC,2000,,,,,IFR,,,,,,,,,,,,SPECI,450.0
KSKF 060915Z AUTO 06007KT 6SM BR FEW012 SCT019 BKN032 22/20 A2988 RMK AO2 SLP110 $,KSKF,2023-05-06T09:15:00Z,29.38,-98.57,22.0,20.0,60,7,,6.0,29.878937,1011.0,,TRUE,TRUE,TRUE,,,,,BR,FEW,1200,SCT,1900,BKN,3200,,,VFR,,,,,,,,,,,,SPECI,214.0
KSJX 060915Z AUTO 09006KT 10SM -RA OVC085 07/07 A3020 RMK AO2 T00730065,KSJX,2023-05-06T09:15:00Z,45.7,-85.57,7.3,6.5,90,6,,10.0,30.200787,,,TRUE,TRUE,,,,,,-RA,OVC,8500,,,,,,,VFR,,,,,,,,,,,,METAR,202.0
KSJS 060915Z AUTO 00000KT 10SM CLR 09/06 A3020 RMK AO2 T00910055,KSJS,2023-05-06T09:15:00Z,37.75,-82.63,9.1,5.5,0,0,,10.0,30.200787,,,TRUE,TRUE,,,,,,,CLR,,,,,,,,VFR,,,,,,,,,,,,METAR,359.0
KSIK 060915Z AUTO 00000KT 10SM BKN042 OVC047 16/13 A3005 RMK AO2,KSIK,2023-05-06T09:15:00Z,36.9,-89.57,16.0,13.0,0,0,,10.0,30.050198,,,TRUE,TRUE,,,,,,,BKN,4200,OVC,4700,,,,,VFR,,,,,,,,,,,,METAR,95.0
KSHL 060915Z AUTO 12008KT 6SM BR OVC006 15/15 A2982 RMK AO2,KSHL,2023-05-06T09:15:00Z,43.22,-95.83,15.0,15.0,120,8,,6.0,29.819881,,,TRUE,TRUE,,,,,,BR,OVC,600,,,,,,,IFR,,,,,,,,,,,,METAR,430.0
KSHD 060915Z AUTO 00000KT 10SM OVC060 10/06 A3029 RMK AO2 T00960060,KSHD,2023-05-06T09:15:00Z,38.27,-78.9,9.6,6.0,0,0,,10.0,30.28937,,,TRUE,TRUE,,,,,,,OVC,6000,,,,,,,VFR,,,,,,,,,,,,METAR,360.0
KSGS 060915Z AUTO 09004KT 10SM OVC008 13/12 A2994 RMK AO2 T01310118,KSGS,2023-05-06T09:15:00Z,44.87,-93.03,13.1,11.8,90,4,,10.0,29.940945,,,TRUE,TRUE,,,,,,,OVC,800,,,,,,,IFR,,,,,,,,,,,,METAR,250.0
KSFQ 060915Z AUTO 00000KT 10SM OVC080 11/10 A3027 RMK AO2 T01070098,KSFQ,2023-05-06T09:15:00Z,36.68,-76.6,10.7,9.8,0,0,,10.0,30.268702,,,TRUE,TRUE,,,,,,,OVC,8000,,,,,,,VFR,,,,,,,,,,,,METAR,19.0
KSEZ 060915Z AUTO 15004KT 10SM CLR 10/M01 A3005 RMK AO2,KSEZ,2023-05-06T09:15:00Z,34.85,-111.78,10.0,-1.0,150,4,,10.0,30.050198,,,TRUE,TRUE,,,,,,,CLR,,,,,,,,VFR,,,,,,,,,,,,METAR,1455.0
KSEM 060915Z AUTO 09005KT 10SM FEW026 OVC045 16/15 A3010 RMK AO2,KSEM,2023-05-06T09:15:00Z,32.35,-86.98,16.0,15.0,90,5,,10.0,30.100393,,,TRUE,TRUE,,,,,,,FEW,2600,OVC,4500,,,,,VFR,,,,,,,,,,,,METAR,48.0
KSEF 060915Z AUTO 00000KT 10SM SCT046 18/18 A3008 RMK AO2 T01840177,KSEF,2023-05-06T09:15:00Z,27.45,-81.35,18.4,17.7,0,0,,10.0,30.079725,,,TRUE,TRUE,,,,,,,SCT,4600,,,,,,,VFR,,,,,,,,,,,,METAR,17.0
KSEE 060915Z AUTO 00000KT 10SM CLR 11/09 A3006 RMK AO2,KSEE,2023-05-06T09:15:00Z,32.82,-116.97,11.0,9.0,0,0,,10.0,30.059055,,,TRUE,TRUE,,,,,,,CLR,,,,,,,,VFR,,,,,,,,,,,,METAR,113.0
KSDC 060915Z AUTO 00000KT 10SM CLR 03/02 A3033 RMK AO2,KSDC,2023-05-06T09:15:00Z,43.23,-77.12,3.0,2.0,0,0,,10.0,30.33071,,,TRUE,TRUE,,,,,,,CLR,,,,,,,,VFR,,,,,,,,,,,,METAR,127.0
KSDA 060915Z AUTO 00000KT 10SM BKN015 OVC025 16/16 A2984 RMK AO2,KSDA,2023-05-06T09:15:00Z,40.75,-95.42,16.0,16.0,0,0,,10.0,29.840551,,,TRUE,TRUE,,,,,,,BKN,1500,OVC,2500,,,,,MVFR,,,,,,,,,,,,METAR,293.0
KSCX 060915Z AUTO 00000KT 10SM OVC075 13/10 A3018 RMK A01,KSCX,2023-05-06T09:15:00Z,36.45,-84.58,13.0,10.0,0,0,,10.0,30.180119,,,TRUE,TRUE,,,,,,,OVC,7500,,,,,,,VFR,,,,,,,,,,,,METAR,462.0
KSCD 060915Z AUTO 00000KT 10SM SCT048 BKN070 OVC110 16/13 A3014 RMK AO2 T01610128,KSCD,2023-05-06T09:15:00Z,33.17,-86.3,16.1,12.8,0,0,,10.0,30.138779,,,TRUE,TRUE,,,,,,,SCT,4800,BKN,7000,OVC,11000,,,VFR,,,,,,,,,,,,METAR,164.0
KSBS 060915Z AUTO 09003KT 10SM SCT070 BKN095 04/M03 A2996 RMK AO1 T00361031,KSBS,2023-05-06T09:15:00Z,40.52,-106.87,3.6,-3.1,90,3,,10.0,29.958662,,,TRUE,TRUE,,,,,,,SCT,7000,BKN,9500,,,,,VFR,,,,,,,,,,,,SPECI,2097.0
KSBO 060915Z AUTO 08003KT 10SM OVC065 16/16 A3020 RMK AO2,KSBO,2023-05-06T09:15:00Z,32.62,-82.37,16.0,16.0,80,3,,10.0,30.200787,,,TRUE,TRUE,,,,,,,OVC,6500,,,,,,,VFR,,,,,,,,,,,,METAR,98.0
KSAZ 060915Z AUTO 07009G14KT 10SM OVC020 09/06 A2997 RMK AO2,KSAZ,2023-05-06T09:15:00Z,46.37,-94.8,9.0,6.0,70,9,14,10.0,29.970472,,,TRUE,TRUE,,,,,,,OVC,2000,,,,,,,MVFR,,,,,,,,,,,,METAR,391.0
KSAR 060915Z AUTO 14007KT 10SM OVC036 16/12 A3003 RMK AO2 T01570122,KSAR,2023-05-06T09:15:00Z,38.15,-89.7,15.7,12.2,140,7,,10.0,30.029528,,,TRUE,TRUE,,,,,,,OVC,3600,,,,,,,VFR,,,,,,,,,,,,METAR,162.0
KSAA 060915Z AUTO 13007KT 10SM SCT100 SCT120 01/M03 A2994 RMK AO2,KSAA,2023-05-06T09:15:00Z,41.45,-106.8,1.0,-3.0,130,7,,10.0,29.940945,,,TRUE,TRUE,,,,,,,SCT,10000,SCT,12000,,,,,VFR,,,,,,,,,,,,METAR,2093.0
KS52 060915Z AUTO 00000KT 10SM -RA BKN030 BKN060 OVC080 09/08 A2983 RMK AO2 T00920081,KS52,2023-05-06T09:15:00Z,48.42,-120.15,9.2,8.1,0,0,,10.0,29.828741,,,TRUE,TRUE,,,,,,-RA,BKN,3000,BKN,6000,OVC,8000,,,MVFR,,,,,,,,,,,,METAR,517.0
KS39 060915Z AUTO 00000KT 10SM SCT038 OVC045 05/03 A2994 RMK AO2,KS39,2023-05-06T09:15:00Z,44.28,-120.9,5.0,3.0,0,0,,10.0,29.940945,,,TRUE,TRUE,,,,,,,SCT,3800,OVC,4500,,,,,VFR,,,,,,,,,,,,METAR,987.0
KS33 060915Z AUTO 00000KT 10SM OVC044 A2996 RMK AO2,KS33,2023-05-06T09:15:00Z,44.67,-121.15,,,0,0,,10.0,29.958662,,,TRUE,TRUE,,,,,,,OVC,4400,,,,,,,VFR,,,,,,,,,,,,SPECI,739.0
KS32 060915Z AUTO 08014KT 10SM OVC085 08/08 A2996 RMK AO2 TSNO,KS32,2023-05-06T09:15:00Z,47.42,-98.1,8.0,8.0,80,14,,10.0,29.958662,,,TRUE,TRUE,,,TRUE,,,,OVC,8500,,,,,,,VFR,,,,,,,,,,,,METAR,435.0
KS25 060915Z AUTO 09007KT 10SM FEW047 FEW060 BKN095 08/04 A2992 RMK AO2,KS25,2023-05-06T09:15:00Z,47.8,-103.25,8.0,4.0,90,7,,10.0,29.920275,,,TRUE,TRUE,,,,,,,FEW,4700,FEW,6000,BKN,9500,,,VFR,,,,,,,,,,,,METAR,632.0
KS24 060915Z AUTO 07003KT 10SM CLR 09/04 A3024 RMK AO2,KS24,2023-05-06T09:15:00Z,41.3,-83.03,9.0,4.0,70,3,,10.0,30.239174,,,TRUE,TRUE,,,,,,,CLR,,,,,,,,VFR,,,,,,,,,,,,METAR,203.0
KS21 060915Z AUTO 20004KT 10SM BKN049 OVC055 03/01 A2997 RMK AO2,KS21,2023-05-06T09:15:00Z,43.88,-121.45,3.0,1.0,200,4,,10.0,29.970472,,,TRUE,TRUE,,,,,,,BKN,4900,OVC,5500,,,,,VFR,,,,,,,,,,,,METAR,1269.0
KS12 060915Z AUTO 00000KT 10SM BKN046 BKN055 OVC110 10/10 A2998 RMK AO2,KS12,2023-05-06T09:15:00Z,,,10.0,10.0,0,0,,10.0,29.97933,,,TRUE,TRUE,,,,,,,BKN,4600,BKN,5500,OVC,11000,,,VFR,,,,,,,,,,,,METAR,
KRZT 060915Z AUTO 00000KT 10SM CLR 06/05 A3023 RMK AO2 PWINO,KRZT,2023-05-06T09:15:00Z,39.43,-83.02,6.0,5.0,0,0,,10.0,30.230314,,,TRUE,TRUE,,,,,TRUE,,CLR,,,,,,,,VFR,,,,,,,,,,,,METAR,217.0
KRZR 060915Z AUTO 00000KT 3SM BR BKN003 BKN044 OVC085 13/13 A3017 RMK A01,KRZR,2023-05-06T09:15:00Z,35.22,-84.8,13.0,13.0,0,0,,3.0,30.171259,,,TRUE,TRUE,,,,,,BR,BKN,300,BKN,4400,OVC,8500,,,LIFR,,,,,,,,,,,,METAR,259.0
KRZN 060915Z AUTO 00000KT 10SM BKN017 BKN027 OVC044 08/04 A3000 RMK AO2 T00750041,KRZN,2023-05-06T09:15:00Z,45.82,-92.37,7.5,4.1,0,0,,10.0,30.0,,,TRUE,TRUE,,,,,,,BKN,1700,BKN,2700,OVC,4400,,,MVFR,,,,,,,,,,,,METAR,301.0
KRZL 060915Z AUTO 12006KT 10SM OVC110 14/07 A3011 RMK AO2,KRZL,2023-05-06T09:15:00Z,40.95,-87.18,14.0,7.0,120,6,,10.0,30.109253,,,TRUE,TRUE,,,,,,,OVC,11000,,,,,,,VFR,,,,,,,,,,,,SPECI,210.0
KRYW 060915Z AUTO 16006KT 10SM CLR 18/17 A2993 RMK AO2 T01750165,KRYW,2023-05-06T09:15:00Z,30.5,-97.97,17.5,16.5,160,6,,10.0,29.929134,,,TRUE,TRUE,,,,,,,CLR,,,,,,,,VFR,,,,,,,,,,,,METAR,370.0
KRYN 060915Z AUTO 11003KT 10SM FEW034 SCT041 SCT048 11/M01 A2999 RMK AO2,KRYN,2023-05-06T09:15:00Z,32.15,-111.17,11.0,-1.0,110,3,,10.0,29.991142,,,TRUE,TRUE,,,,,,,FEW,3400,SCT,4100,SCT,4800,,,VFR,,,,,,,,,,,,METAR,731.0
KRWV 060915Z AUTO 22007KT 10SM CLR 18/16 A2989 RMK AO2 T01810165,KRWV,2023-05-06T09:15:00Z,30.52,-96.7,18.1,16.5,220,7,,10.0,29.890747,,,TRUE,TRUE,,,,,,,CLR,,,,,,,,VFR,,,,,,,,,,,,METAR,116.0
KRVL 060915Z AUTO 00000KT M1/4SM FG OVC001 03/03 A3031 RMK AO2,KRVL,2023-05-06T09:15:00Z,40.68,-77.63,3.0,3.0,0,0,,0.25,30.31004,,,TRUE,TRUE,,,,,,FG,OVC,100,,,,,,,LIFR,,,,,,,,,,,,METAR,250.0
KRVJ 060915Z AUTO 00000KT 10SM OVC080 17/14 A3017 RMK AO2 T01700138,KRVJ,2023-05-06T09:15:00Z,32.07,-82.15,17.0,13.8,0,0,,10.0,30.171259,,,TRUE,TRUE,,,,,,,OVC,8000,,,,,,,VFR,,,,,,,,,,,,METAR,60.0
KRVF 060915Z AUTO 18009KT 10SM SCT085 BKN110 06/M01 A2983 RMK AO2,KRVF,2023-05-06T09:15:00Z,45.53,-112.3,6.0,-1.0,180,9,,10.0,29.828741,,,TRUE,TRUE,,,,,,,SCT,8500,BKN,11000,,,,,VFR,,,,,,,,,,,,METAR,1445.0
KRUG 060915Z AUTO 08015KT 10SM BKN065 BKN075 BKN085 08/05 A2998 RMK AO2,KRUG,2023-05-06T09:15:00Z,48.38,-100.02,8.0,5.0,80,15,,10.0,29.97933,,,TRUE,TRUE,,,,,,,BKN,6500,BKN,7500,BKN,8500,,,VFR,,,,,,,,,,,,METAR,469.0
KRTS 060915Z AUTO 28009KT 10SM OVC044 04/M02 A2998 RMK AO2,KRTS,2023-05-06T09:15:00Z,39.67,-119.88,4.0,-2.0,280,9,,10.0,29.97933,,,TRUE,TRUE,,,,,,,OVC,4400,,,,,,,VFR,,,,,,,,,,,,METAR,1537.0
KRSN 060915Z AUTO 20004KT 6SM BR FEW006 SCT019 SCT026 OVC031 23/23 A2996 RMK AO2 FEW V SCT T02290229 $,KRSN,2023-05-06T09:15:00Z,32.52,-92.58,22.9,22.9,200,4,,6.0,29.958662,,,TRUE,TRUE,TRUE,,,,,BR,FEW,600,SCT,1900,SCT,2600,OVC,3100,VFR,,,,,,,,,,,,METAR,86.0
KRRT 060915Z AUTO 05013KT 10SM OVC026 04/02 A3008 RMK AO2,KRRT,2023-05-06T09:15:00Z,48.93,-95.33,4.0,2.0,50,13,,10.0,30.079725,,,TRUE,TRUE,,,,,,,OVC,2600,,,,,,,MVFR,,,,,,,,,,,,SPECI,327.0
KRQO 060915Z AUTO 19009KT 7SM HZ CLR 17/14 A2981 RMK AO2 T01700143,KRQO,2023-05-06T09:15:00Z,35.47,-98.0,17.0,14.3,190,9,,7.0,29.811024,,,TRUE,TRUE,,,,,,HZ,CLR,,,,,,,,VFR,,,,,,,,,,,,METAR,431.0
KRQB 060915Z AUTO 14005KT 10SM CLR 09/03 A3019 RMK AO2 T00900031,KRQB,2023-05-06T09:15:00Z,43.72,-85.5,9.0,3.1,140,5,,10.0,30.188976,,,TRUE,TRUE,,,,,,,CLR,,,,,,,,VFR,,,,,,,,,,,,SPECI,282.0
KRPJ 060915Z AUTO 12005KT 10SM -RA SCT080 OVC090 13/12 A3005 RMK AO2 T01320116 TSNO,KRPJ,2023-05-06T09:15:00Z,41.88,-89.08,13.2,11.6,120,5,,10.0,30.050198,,,TRUE,TRUE,,,TRUE,,,-RA,SCT,8000,OVC,9000,,,,,VFR,,,,,,,,,,,,SPECI,234.0
KRPH 060915Z AUTO 19008KT 150V210 10SM CLR 24/14 A2982 RMK AO2 T02350137 $,KRPH,2023-05-06T09:15:00Z,33.12,-98.55,23.5,13.7,190,8,,10.0,29.819881,,,TRUE,TRUE,TRUE,,,,,,CLR,,,,,,,,VFR,,,,,,,,,,,,METAR,341.0
KROX 060915Z AUTO 06008KT 10SM CLR 05/03 A3006 RMK AO2,KROX,2023-05-06T09:15:00Z,48.85,-95.7,5.0,3.0,60,8,,10.0,30.059055,,,TRUE,TRUE,,,,,,,CLR,,,,,,,,VFR,,,,,,,,,,,,METAR,320.0
KROS 060915Z AUTO 05007KT 10SM OVC017 10/07 A2999 RMK AO2 T01020065,KROS,2023-05-06T09:15:00Z,45.7,-92.95,10.2,6.5,50,7,,10.0,29.991142,,,TRUE,TRUE,,,,,,,OVC,1700,,,,,,,MVFR,,,,,,,,,,,,SPECI,282.0
KRNP 060915Z AUTO 11005KT 10SM CLR 09/03 A3025 RMK AO2 T00930031,KRNP,2023-05-06T09:15:00Z,43.0,-84.13,9.3,3.1,110,5,,10.0,30.250984,,,TRUE,TRUE,,,,,,,CLR,,,,,,,,VFR,,,,,,,,,,,,METAR,224.0
KRNH 060915Z AUTO 09003KT 10SM SCT006 SCT011 OVC026 12/12 A2997 RMK AO2 T01200120,KRNH,2023-05-06T09:15:00Z,45.15,-92.53,12.0,12.0,90,3,,10.0,29.970472,,,TRUE,TRUE,,,,,,,SCT,600,SCT,1100,OVC,2600,,,MVFR,,,,,,,,,,,,METAR,302.0
KRND 060915Z AUTO 07005KT 10SM BKN011 OVC029 21/20 A2990 RMK AO2 CIG 011V029 BKN V SCT SLP116 $,KRND,2023-05-06T09:15:00Z,29.53,-98.27,21.0,20.0,70,5,,10.0,29.899607,1011.6,,TRUE,TRUE,TRUE,,,,,,BKN,1100,OVC,2900,,,,,MVFR,,,,,,,,,,,,SPECI,224.0
KRNC 060915Z AUTO 00000KT 10SM OVC065 15/10 A3014 RMK A01,KRNC,2023-05-06T09:15:00Z,35.7,-85.85,15.0,10.0,0,0,,10.0,30.138779,,,TRUE,TRUE,,,,,,,OVC,6500,,,,,,,VFR,,,,,,,,,,,,METAR,310.0
KRMY 060915Z AUTO 11006KT 10SM CLR 10/03 A3021 RMK AO2 T01020032,KRMY,2023-05-06T09:15:00Z,42.25,-84.95,10.2,3.2,110,6,,10.0,30.209646,,,TRUE,TRUE,,,,,,,CLR,,,,,,,,VFR,,,,,,,,,,,,METAR,285.0
KRMN 060915Z AUTO 00000KT 10SM SCT100 13/12 A3028 RMK AO2 T01300118,KRMN,2023-05-06T09:15:00Z,38.4,-77.45,13.0,11.8,0,0,,10.0,30.280512,,,TRUE,TRUE,,,,,,,SCT,10000,,,,,,,VFR,,,,,,,,,,,,METAR,50.0
KRLD 060915Z AUTO 18006KT 10SM OVC055 12/09 A2989 RMK AO2 T01150093,KRLD,2023-05-06T09:15:00Z,46.3,-119.3,11.5,9.3,180,6,,10.0,29.890747,,,TRUE,TRUE,,,,,,,OVC,5500,,,,,,,VFR,,,,,,,,,,,,METAR,118.0
KRKW 060915Z AUTO 00000KT 10SM OVC065 12/11 A3019 RMK A01,KRKW,2023-05-06T09:15:00Z,35.92,-84.68,12.0,11.0,0,0,,10.0,30.188976,,,TRUE,TRUE,,,,,,,OVC,6500,,,,,,,VFR,,,,,,,,,,,,METAR,505.0
KRKR 060915Z AUTO 00000KT 5SM BR SCT025 17/16 A2986 RMK AO2,KRKR,2023-05-06T09:15:00Z,35.02,-94.62,17.0,16.0,0,0,,5.0,29.861221,,,TRUE,TRUE,,,,,,BR,SCT,2500,,,,,,,MVFR,,,,,,,,,,,,METAR,136.0
KRGK 060915Z AUTO 11004KT 7SM SCT010 BKN018 OVC026 13/12 A2994 RMK AO2,KRGK,2023-05-06T09:15:00Z,44.58,-92.48,13.0,12.0,110,4,,7.0,29.940945,,,TRUE,TRUE,,,,,,,SCT,1000,BKN,1800,OVC,2600,,,MVFR,,,,,,,,,,,,METAR,238.0
KRGA 060915Z AUTO 14005KT 10SM CLR 10/08 A3019 RMK AO2,KRGA,2023-05-06T09:15:00Z,37.63,-84.33,10.0,8.0,140,5,,10.0,30.188976,,,TRUE,TRUE,,,,,,,CLR,,,,,,,,VFR,,,,,,,,,,,,METAR,301.0
KRFI 060915Z AUTO 11003KT 10SM CLR 24/12 A2985 RMK AO2 T02420121,KRFI,2023-05-06T09:15:00Z,32.15,-94.85,24.2,12.1,110,3,,10.0,29.84941,,,TRUE,TRUE,,,,,,,CLR,,,,,,,,VFR,,,,,,,,,,,,METAR,133.0
KREG 060915Z AUTO 16004KT 10SM SCT009 OVC017 25/24 A2998 RMK AO2 T02520241,KREG,2023-05-06T09:15:00Z,30.17,-90.93,25.2,24.1,160,4,,10.0,29.97933,,,TRUE,TRUE,,,,,,,SCT,900,OVC,1700,,,,,MVFR,,,,,,,,,,,,METAR,3.0
KRDK 060915Z AUTO 16005KT 10SM SCT016 SCT027 BKN033 16/15 A2985 RMK AO2,KRDK,2023-05-06T09:15:00Z,41.02,-95.27,16.0,15.0,160,5,,10.0,29.84941,,,TRUE,TRUE,,,,,,,SCT,1600,SCT,2700,BKN,3300,,,VFR,,,,,,,,,,,,SPECI,317.0
KRCX 060915Z AUTO 10006KT 10SM OVC009 12/12 A3002 RMK AO2 T01210120,KRCX,2023-05-06T09:15:00Z,45.5,-91.0,12.1,12.0,100,6,,10.0,30.02067,,,TRUE,TRUE,,,,,,,OVC,900,,,,,,,IFR,,,,,,,,,,,,METAR,373.0
KRCV 060915Z AUTO 26007KT 10SM CLR 04/M10 A3005 RMK AO2 T00421097,KRCV,2023-05-06T09:15:00Z,37.72,-106.35,4.2,-9.7,260,7,,10.0,30.050198,,,TRUE,TRUE,,,,,,,CLR,,,,,,,,VFR,,,,,,,,,,,,METAR,2418.0
KRCR 060915Z AUTO 12008KT 10SM CLR 13/08 A3015 RMK AO2,KRCR,2023-05-06T09:15:00Z,41.07,-86.18,13.0,8.0,120,8,,10.0,30.15059,,,TRUE,TRUE,,,,,,,CLR,,,,,,,,VFR,,,,,,,,,,,,SPECI,240.0
KRCM 060915Z AUTO 13009KT 10SM BKN012 OVC018 16/14 A2987 RMK AO2,KRCM,2023-05-06T09:15:00Z,38.78,-93.8,16.0,14.0,130,9,,10.0,29.870079,,,TRUE,TRUE,,,,,,,BKN,1200,OVC,1800,,,,,MVFR,,,,,,,,,,,,METAR,242.0
KRCE 060915Z AUTO 19012KT 10SM CLR 20/16 A2979 RMK AO2,KRCE,2023-05-06T09:15:00Z,35.48,-97.82,20.0,16.0,190,12,,10.0,29.790354,,,TRUE,TRUE,,,,,,,CLR,,,,,,,,VFR,,,,,,,,,,,,METAR,412.0
KRBW 060915Z AUTO 04003KT 10SM OVC085 16/13 A3021 RMK AO2,KRBW,2023-05-06T09:15:00Z,32.92,-80.63,16.0,13.0,40,3,,10.0,30.209646,,,TRUE,TRUE,,,,,,,OVC,8500,,,,,,,VFR,,,,,,,,,,,,SPECI,30.0
KRBO 060915Z AUTO 09008KT 5SM BR BKN005 25/24 A2990 RMK AO2 T02450244,KRBO,2023-05-06T09:15:00Z,27.78,-97.68,24.5,24.4,90,8,,5.0,29.899607,,,TRUE,TRUE,,,,,,BR,BKN,500,,,,,,,IFR,,,,,,,,,,,,SPECI,24.0
KRAW 060915Z AUTO 17009KT 10SM OVC012 16/14 A2991 RMK AO2,KRAW,2023-05-06T09:15:00Z,38.35,-93.35,16.0,14.0,170,9,,10.0,29.911417,,,TRUE,TRUE,,,,,,,OVC,1200,,,,,,,MVFR,,,,,,,,,,,,METAR,285.0
KRAS 060915Z AUTO 06010KT 5SM BR OVC005 25/24 A2994 RMK AO2 T02490243,KRAS,2023-05-06T09:15:00Z,27.82,-97.08,24.9,24.3,60,10,,5.0,29.940945,,,TRUE,TRUE,,,,,,BR,OVC,500,,,,,,,IFR,,,,,,,,,,,,SPECI,3.0
KPZZ 060915Z AUTO 16016KT 7SM CLR A2999 RMK A01,KPZZ,2023-05-06T09:15:00Z,28.43,-91.03,,,160,16,,7.0,29.991142,,,TRUE,TRUE,,,,,,,CLR,,,,,,,,VFR,,,,,,,,,,,,METAR,25.0
KPZQ 060915Z AUTO 00000KT 10SM OVC075 06/06 A3027 RMK AO2 T00550055,KPZQ,2023-05-06T09:15:00Z,45.4,-83.82,5.5,5.5,0,0,,10.0,30.268702,,,TRUE,TRUE,,,,,,,OVC,7500,,,,,,,VFR,,,,,,,,,,,,SPECI,199.0
KPYX 060915Z AUTO 24012KT 10SM CLR 14/M04 A2977 RMK AO2 T01391042,KPYX,2023-05-06T09:15:00Z,36.42,-100.75,13.9,-4.2,240,12,,10.0,29.769686,,,TRUE,TRUE,,,,,,,CLR,,,,,,,,VFR,,,,,,,,,,,,METAR,890.0
KPXE 060915Z AUTO 00000KT 10SM OVC070 16/15 A3017 RMK AO2 T01570148,KPXE,2023-05-06T09:15:00Z,32.52,-83.77,15.7,14.8,0,0,,10.0,30.171259,,,TRUE,TRUE,,,,,,,OVC,7000,,,,,,,VFR,,,,,,,,,,,,METAR,126.0
KPWD 060915Z AUTO 08012KT 10SM SCT060 OVC070 08/03 A2995 RMK AO2,KPWD,2023-05-06T09:15:00Z,48.78,-104.52,8.0,3.0,80,12,,10.0,29.949802,,,TRUE,TRUE,,,,,,,SCT,6000,OVC,7000,,,,,VFR,,,,,,,,,,,,METAR,690.0
KPWC 060915Z AUTO 08008KT 10SM SCT017 OVC027 09/06 A3002 RMK AO2,KPWC,2023-05-06T09:15:00Z,46.72,-94.38,9.0,6.0,80,8,,10.0,30.02067,,,TRUE,TRUE,,,,,,,SCT,1700,OVC,2700,,,,,MVFR,,,,,,,,,,,,METAR,394.0
KPVW 060915Z AUTO 25008KT 10SM CLR 12/00 A2990 RMK AO2 T01180004,KPVW,2023-05-06T09:15:00Z,34.17,-101.72,11.8,0.4,250,8,,10.0,29.899607,,,TRUE,TRUE,,,,,,,CLR,,,,,,,,VFR,,,,,,,,,,,,METAR,1029.0
KPVJ 060915Z AUTO 15004KT 5SM BR CLR 22/22 A2981 RMK AO2 T02150215,KPVJ,2023-05-06T09:15:00Z,34.72,-97.22,21.5,21.5,150,4,,5.0,29.811024,,,TRUE,TRUE,,,,,,BR,CLR,,,,,,,,MVFR,,,,,,,,,,,,METAR,287.0
KPVF 060915Z AUTO 18005KT 1/4SM OVC002 06/06 A3007 RMK AO1,KPVF,2023-05-06T09:15:00Z,38.72,-120.75,6.0,6.0,180,5,,0.25,30.070866,,,TRUE,TRUE,,,,,,,OVC,200,,,,,,,LIFR,,,,,,,,,,,,SPECI,788.0
KPVE 060915Z AUTO VRB03KT 10SM BKN020 BKN055 OVC075 15/13 A3009 RMK A01,KPVE,2023-05-06T09:15:00Z,35.65,-88.2,15.0,13.0,0,3,,10.0,30.088583,,,TRUE,TRUE,,,,,,,BKN,2000,BKN,5500,OVC,7500,,,MVFR,,,,,,,,,,,,METAR,146.0
KPVB 060915Z AUTO 12006KT 10SM SCT031 BKN070 OVC100 13/11 A3001 RMK AO1 T01300112,KPVB,2023-05-06T09:15:00Z,42.68,-90.43,13.0,11.2,120,6,,10.0,30.008858,,,TRUE,TRUE,,,,,,,SCT,3100,BKN,7000,OVC,10000,,,VFR,,,,,,,,,,,,SPECI,311.0
KPUJ 060915Z AUTO 00000KT 7SM OVC050 13/13 A3018 RMK AO2,KPUJ,2023-05-06T09:15:00Z,33.92,-84.93,13.0,13.0,0,0,,7.0,30.180119,,,TRUE,TRUE,,,,,,,OVC,5000,,,,,,,VFR,,,,,,,,,,,,METAR,385.0
KPTT 060915Z AUTO 20008KT 10SM CLR 16/16 A2972 RMK AO2 T01600156,KPTT,2023-05-06T09:15:00Z,37.7,-98.75,16.0,15.6,200,8,,10.0,29.719488,,,TRUE,TRUE,,,,,,,CLR,,,,,,,,VFR,,,,,,,,,,,,SPECI,594.0
KPTS 060915Z AUTO 14006KT 10SM OVC014 19/19 A2984 RMK AO2 T01920186 PWINO,KPTS,2023-05-06T09:15:00Z,37.45,-94.73,19.2,18.6,140,6,,10.0,29.840551,,,TRUE,TRUE,,,,,TRUE,,OVC,1400,,,,,,,MVFR,,,,,,,,,,,,METAR,286.0
KPTD 060915Z AUTO 21004KT 10SM CLR 05/04 A3027 RMK AO2,KPTD,2023-05-06T09:15:00Z,44.68,-74.95,5.0,4.0,210,4,,10.0,30.268702,,,TRUE,TRUE,,,,,,,CLR,,,,,,,,VFR,,,,,,,,,,,,METAR,144.0
KPTB 060915Z AUTO 00000KT 10SM SCT075 OVC100 09/09 A3027 RMK AO2 T00900085,KPTB,2023-05-06T09:15:00Z,37.17,-77.52,9.0,8.5,0,0,,10.0,30.268702,,,TRUE,TRUE,,,,,,,SCT,7500,OVC,10000,,,,,VFR,,,,,,,,,,,,METAR,56.0
KPSO 060915Z AUTO 00000KT 10SM CLR 02/M07 A3009 RMK AO2 T00191073,KPSO,2023-05-06T09:15:00Z,37.28,-107.05,1.9,-7.3,0,0,,10.0,30.088583,,,TRUE,TRUE,,,,,,,CLR,,,,,,,,VFR,,,,,,,,,,,,SPECI,2332.0
KPSK 060915Z AUTO 00000KT 10SM CLR 06/06 A3025 RMK AO2 T00580057,KPSK,2023-05-06T09:15:00Z,37.13,-80.67,5.8,5.7,0,0,,10.0,30.250984,,,TRUE,TRUE,,,,,,,CLR,,,,,,,,VFR,,,,,,,,,,,,SPECI,629.0
KPRS 060915Z AUTO 00000KT 10SM CLR 19/00 A2994 RMK AO2 T01921001,KPRS,2023-05-06T09:15:00Z,29.63,-104.35,19.2,-0.1,0,0,,10.0,29.940945,,,TRUE,TRUE,,,,,,,CLR,,,,,,,,VFR,,,,,,,,,,,,METAR,890.0
KPRO 060915Z AUTO 11007KT 10SM SCT039 BKN050 BKN060 15/13 A2986 RMK AO2 T01460133,KPRO,2023-05-06T09:15:00Z,41.83,-94.17,14.6,13.3,110,7,,10.0,29.861221,,,TRUE,TRUE,,,,,,,SCT,3900,BKN,5000,BKN,6000,,,VFR,,,,,,,,,,,,SPECI,308.0
KPRG 060915Z AUTO 14007KT 10SM OVC080 15/11 A3011 RMK AO2 T01530107,KPRG,2023-05-06T09:15:00Z,39.7,-87.67,15.3,10.7,140,7,,10.0,30.109253,,,TRUE,TRUE,,,,,,,OVC,8000,,,,,,,VFR,,,,,,,,,,,,SPECI,197.0
KPPQ 060915Z AUTO 15005KT 10SM OVC020 16/14 A3000 RMK AO2 T01550144,KPPQ,2023-05-06T09:15:00Z,39.63,-90.78,15.5,14.4,150,5,,10.0,30.0,,,TRUE,TRUE,,,,,,,OVC,2000,,,,,,,MVFR,,,,,,,,,,,,SPECI,215.0
KPPO 060915Z AUTO 11007KT 10SM CLR 12/09 A3014 RMK AO2 T01180087,KPPO,2023-05-06T09:15:00Z,41.57,-86.73,11.8,8.7,110,7,,10.0,30.138779,,,TRUE,TRUE,,,,,,,CLR,,,,,,,,VFR,,,,,,,,,,,,SPECI,242.0
KPPA 060915Z AUTO 24013KT 10SM 19/M02 A2984 RMK AO2 T01941025,KPPA,2023-05-06T09:15:00Z,35.62,-101.0,19.4,-2.5,240,13,,10.0,29.840551,,,TRUE,TRUE,,,,,,,,,,,,,,,,,,,,,,,,,,,SPECI,989.0
KPOY 060915Z AUTO 26003KT 10SM CLR 06/M01 A2982 RMK AO2,KPOY,2023-05-06T09:15:00Z,44.87,-108.8,6.0,-1.0,260,3,,10.0,29.819881,,,TRUE,TRUE,,,,,,,CLR,,,,,,,,VFR,,,,,,,,,,,,SPECI,1547.0
KPOV 060915Z AUTO 09005KT 10SM CLR 05/02 A3025 RMK AO2 T00500020 PWINO,KPOV,2023-05-06T09:15:00Z,41.22,-81.25,5.0,2.0,90,5,,10.0,30.250984,,,TRUE,TRUE,,,,,TRUE,,CLR,,,,,,,,VFR,,,,,,,,,,,,SPECI,363.0
KPNM 060915Z AUTO 05006KT 10SM OVC016 09/06 A2998 RMK AO2,KPNM,2023-05-06T09:15:00Z,45.53,-93.6,9.0,6.0,50,6,,10.0,29.97933,,,TRUE,TRUE,,,,,,,OVC,1600,,,,,,,MVFR,,,,,,,,,,,,METAR,298.0
KPNA 060915Z AUTO 00000KT 10SM BKN070 M02/M03 A2994 RMK AO2,KPNA,2023-05-06T09:15:00Z,42.8,-109.8,-2.0,-3.0,0,0,,10.0,29.940945,,,TRUE,TRUE,,,,,,,BKN,7000,,,,,,,VFR,,,,,,,,,,,,SPECI,2158.0
KPMV 060915Z AUTO 14005KT 10SM OVC013 17/15 A2984 RMK AO2 LTG DSNT N T01700150,KPMV,2023-05-06T09:15:00Z,40.95,-95.92,17.0,15.0,140,5,,10.0,29.840551,,,TRUE,TRUE,,,,,,,OVC,1300,,,,,,,MVFR,,,,,,,,,,,,SPECI,365.0
KPMU 060915Z AUTO 00000KT 10SM OVC028 18/15 A3004 RMK AO2,KPMU,2023-05-06T09:15:00Z,34.37,-89.9,18.0,15.0,0,0,,10.0,30.041338,,,TRUE,TRUE,,,,,,,OVC,2800,,,,,,,MVFR,,,,,,,,,,,,SPECI,67.0
KPLU 060915Z AUTO 00000KT 9SM BKN011 BKN032 OVC060 09/09 A2996 RMK AO2,KPLU,2023-05-06T09:15:00Z,47.1,-122.28,9.0,9.0,0,0,,9.0,29.958662,,,TRUE,TRUE,,,,,,,BKN,1100,BKN,3200,OVC,6000,,,MVFR,,,,,,,,,,,,METAR,164.0
KPLR 060915Z AUTO 00000KT 10SM BKN039 OVC048 15/14 A3015 RMK A01,KPLR,2023-05-06T09:15:00Z,33.57,-86.25,15.0,14.0,0,0,,10.0,30.15059,,,TRUE,TRUE,,,,,,,BKN,3900,OVC,4800,,,,,VFR,,,,,,,,,,,,METAR,145.0
KPKV 060915Z AUTO 09005KT 5SM BR BKN009 OVC013 26/24 A2994 RMK AO2 T02580242,KPKV,2023-05-06T09:15:00Z,28.65,-96.68,25.8,24.2,90,5,,5.0,29.940945,,,TRUE,TRUE,,,,,,BR,BKN,900,OVC,1300,,,,,IFR,,,,,,,,,,,,SPECI,8.0
KPJC 060915Z AUTO 00000KT 1SM BR VV007 02/02 A3027 RMK AO2,KPJC,2023-05-06T09:15:00Z,40.8,-80.17,2.0,2.0,0,0,,1.0,30.268702,,,TRUE,TRUE,,,,,,BR,OVX,0,,,,,,,LIFR,,,,,,,,,,,700,METAR,273.0
KPIM 060915Z AUTO 11004KT 10SM OVC060 15/13 A3016 RMK AO2 T01520125,KPIM,2023-05-06T09:15:00Z,32.83,-84.88,15.2,12.5,110,4,,10.0,30.159449,,,TRUE,TRUE,,,,,,,OVC,6000,,,,,,,VFR,,,,,,,,,,,,SPECI,274.0
KPHT 060915Z AUTO 13007KT 10SM SCT024 OVC070 14/13 A3007 RMK A01,KPHT,2023-05-06T09:15:00Z,36.33,-88.38,14.0,13.0,130,7,,10.0,30.070866,,,TRUE,TRUE,,,,,,,SCT,2400,OVC,7000,,,,,VFR,,,,,,,,,,,,METAR,172.0
KPHN 060915Z AUTO 11006KT 10SM CLR 09/04 A3028 RMK AO2,KPHN,2023-05-06T09:15:00Z,42.92,-82.52,9.0,4.0,110,6,,10.0,30.280512,,,TRUE,TRUE,,,,,,,CLR,,,,,,,,VFR,,,,,,,,,,,,METAR,195.0
KPEZ 060915Z AUTO 10009KT 7SM SCT011 BKN017 OVC025 25/23 A2992 RMK AO2 T02510227,KPEZ,2023-05-06T09:15:00Z,28.95,-98.52,25.1,22.7,100,9,,7.0,29.920275,,,TRUE,TRUE,,,,,,,SCT,1100,BKN,1700,OVC,2500,,,MVFR,,,,,,,,,,,,METAR,126.0
KPEX 060915Z AUTO 06009KT 10SM OVC012 10/06 A2993 RMK AO2,KPEX,2023-05-06T09:15:00Z,45.37,-94.73,10.0,6.0,60,9,,10.0,29.929134,,,TRUE,TRUE,,,,,,,OVC,1200,,,,,,,MVFR,,,,,,,,,,,,METAR,359.0
KPEQ 060915Z AUTO 00000KT 10SM CLR 16/M02 A2991 RMK AO2 T01571023,KPEQ,2023-05-06T09:15:00Z,31.38,-103.52,15.7,-2.3,0,0,,10.0,29.911417,,,TRUE,TRUE,,,,,,,CLR,,,,,,,,VFR,,,,,,,,,,,,SPECI,794.0
KPEA 060915Z AUTO 15006KT 10SM OVC014 14/12 A2989 RMK AO2 T01420119,KPEA,2023-05-06T09:15:00Z,41.4,-92.95,14.2,11.9,150,6,,10.0,29.890747,,,TRUE,TRUE,,,,,,,OVC,1400,,,,,,,MVFR,,,,,,,,,,,,SPECI,264.0
KPCZ 060915Z AUTO 36003KT 10SM OVC090 11/09 A3006 RMK AO2 T01100085,KPCZ,2023-05-06T09:15:00Z,44.33,-89.02,11.0,8.5,360,3,,10.0,30.059055,,,TRUE,TRUE,,,,,,,OVC,9000,,,,,,,VFR,,,,,,,,,,,,METAR,248.0
KPCW 060915Z AUTO 10004KT 10SM CLR 08/08 A3024 RMK AO2,KPCW,2023-05-06T09:15:00Z,41.52,-82.87,8.0,8.0,100,4,,10.0,30.239174,,,TRUE,TRUE,,,,,,,CLR,,,,,,,,VFR,,,,,,,,,,,,SPECI,179.0
KPCM 060915Z AUTO 09004KT 10SM BKN040 24/17 A3009 RMK AO2,KPCM,2023-05-06T09:15:00Z,28.0,-82.17,24.0,17.0,90,4,,10.0,30.088583,,,TRUE,TRUE,,,,,,,BKN,4000,,,,,,,VFR,,,,,,,,,,,,METAR,43.0
KPBX 060915Z AUTO 16003KT 10SM CLR 10/05 A3020 RMK AO2 T01040054,KPBX,2023-05-06T09:15:00Z,37.57,-82.57,10.4,5.4,160,3,,10.0,30.200787,,,TRUE,TRUE,,,,,,,CLR,,,,,,,,VFR,,,,,,,,,,,,SPECI,447.0
KPBH 060915Z AUTO 08004KT 10SM BKN019 OVC028 09/09 A3002 RMK AO2 T00930088,KPBH,2023-05-06T09:15:00Z,45.7,-90.4,9.3,8.8,80,4,,10.0,30.02067,,,TRUE,TRUE,,,,,,,BKN,1900,OVC,2800,,,,,MVFR,,,,,,,,,,,,METAR,445.0
KPAN 060915Z AUTO 00000KT 10SM CLR 07/M03 A3008 RMK AO2 PWINO TSNO,KPAN,2023-05-06T09:15:00Z,34.25,-111.33,7.0,-3.0,0,0,,10.0,30.079725,,,TRUE,TRUE,,,TRUE,,TRUE,,CLR,,,,,,,,VFR,,,,,,,,,,,,METAR,1575.0
KP52 060915Z AUTO 00000KT 10SM CLR 06/M02 A3002 RMK AO2,KP52,2023-05-06T09:15:00Z,34.73,-112.03,6.0,-2.0,0,0,,10.0,30.02067,,,TRUE,TRUE,,,,,,,CLR,,,,,,,,VFR,,,,,,,,,,,,METAR,1085.0
KP08 060915Z AUTO 12007KT 10SM CLR 12/00 A2996 RMK AO2,KP08,2023-05-06T09:15:00Z,32.93,-111.43,12.0,0.0,120,7,,10.0,29.958662,,,TRUE,TRUE,,,,,,,CLR,,,,,,,,VFR,,,,,,,,,,,,METAR,477.0
KOZW 060915Z AUTO 11008KT 10SM CLR 10/04 A3025 RMK AO2 T00950043,KOZW,2023-05-06T09:15:00Z,42.62,-83.98,9.5,4.3,110,8,,10.0,30.250984,,,TRUE,TRUE,,,,,,,CLR,,,,,,,,VFR,,,,,,,,,,,,METAR,288.0
KOZS 060915Z AUTO 16011KT 10SM OVC008 16/14 A2994 RMK AO2,KOZS,2023-05-06T09:15:00Z,37.97,-92.68,16.0,14.0,160,11,,10.0,29.940945,,,TRUE,TRUE,,,,,,,OVC,800,,,,,,,IFR,,,,,,,,,,,,METAR,321.0
KOZA 060915Z AUTO 17012G16KT 10SM CLR 24/19 A2992 RMK AO2,KOZA,2023-05-06T09:15:00Z,30.73,-101.2,24.0,19.0,170,12,16,10.0,29.920275,,,TRUE,TRUE,,,,,,,CLR,,,,,,,,VFR,,,,,,,,,,,,METAR,721.0
KOYM 060915Z AUTO 00000KT 7SM OVC100 03/02 A3032 RMK AO2 PWINO,KOYM,2023-05-06T09:15:00Z,41.42,-78.5,3.0,2.0,0,0,,7.0,30.318897,,,TRUE,TRUE,,,,,TRUE,,OVC,10000,,,,,,,VFR,,,,,,,,,,,,METAR,582.0
KOXV 060915Z AUTO 15006KT 10SM OVC013 14/12 A2988 RMK AO2,KOXV,2023-05-06T09:15:00Z,41.28,-93.12,14.0,12.0,150,6,,10.0,29.878937,,,TRUE,TRUE,,,,,,,OVC,1300,,,,,,,MVFR,,,,,,,,,,,,METAR,280.0
KOXI 060915Z AUTO 14009KT 10SM CLR 14/05 A3013 RMK AO1,KOXI,2023-05-06T09:15:00Z,41.33,-86.67,14.0,5.0,140,9,,10.0,30.129921,,,TRUE,TRUE,,,,,,,CLR,,,,,,,,VFR,,,,,,,,,,,,SPECI,208.0
KOXD 060915Z AUTO 00000KT 10SM CLR 13/05 A3019 RMK AO2 T01310049,KOXD,2023-05-06T09:15:00Z,39.5,-84.78,13.1,4.9,0,0,,10.0,30.188976,,,TRUE,TRUE,,,,,,,CLR,,,,,,,,VFR,,,,,,,,,,,,SPECI,317.0
KOWX 060915Z AUTO 12005KT 10SM CLR 08/03 A3023 RMK AO1,KOWX,2023-05-06T09:15:00Z,41.03,-83.98,8.0,3.0,120,5,,10.0,30.230314,,,TRUE,TRUE,,,,,,,CLR,,,,,,,,VFR,,,,,,,,,,,,METAR,232.0
KOWI 060915Z AUTO 15011KT 1 1/2SM BR OVC005 18/17 A2981 RMK AO2 PWINO,KOWI,2023-05-06T09:15:00Z,38.53,-95.25,18.0,17.0,150,11,,1.5,29.811024,,,TRUE,TRUE,,,,,TRUE,BR,OVC,500,,,,,,,IFR,,,,,,,,,,,,METAR,292.0
KOVL 060915Z AUTO 09007KT 050V130 10SM OVC006 13/11 A2988 RMK AO2,KOVL,2023-05-06T09:15:00Z,44.78,-95.03,13.0,11.0,90,7,,10.0,29.878937,,,TRUE,TRUE,,,,,,,OVC,600,,,,,,,IFR,,,,,,,,,,,,METAR,329.0
KOUN 060915Z AUTO 16011KT 5SM BR CLR 22/21 A2979 RMK AO2 T02180207,KOUN,2023-05-06T09:15:00Z,35.25,-97.47,21.8,20.7,160,11,,5.0,29.790354,,,TRUE,TRUE,,,,,,BR,CLR,,,,,,,,MVFR,,,,,,,,,,,,METAR,359.0
KOSC 060915Z AUTO 13003KT 10SM SCT110 10/06 A3027 RMK AO2 T00960056,KOSC,2023-05-06T09:15:00Z,44.45,-83.4,9.6,5.6,130,3,,10.0,30.268702,,,TRUE,TRUE,,,,,,,SCT,11000,,,,,,,VFR,,,,,,,,,,,,METAR,191.0
KOSA 060915Z AUTO 12003KT 4SM BR CLR 23/23 A2986 RMK AO2 T0233////,KOSA,2023-05-06T09:15:00Z,33.1,-94.97,23.3,23.0,120,3,,4.0,29.861221,,,TRUE,TRUE,,,,,,BR,CLR,,,,,,,,MVFR,,,,,,,,,,,,SPECI,108.0
KORS 060915Z AUTO 17005KT 10SM BKN031 OVC045 10/09 A2994 RMK AO2,KORS,2023-05-06T09:15:00Z,48.7,-122.92,10.0,9.0,170,5,,10.0,29.940945,,,TRUE,TRUE,,,,,,,BKN,3100,OVC,4500,,,,,VFR,,,,,,,,,,,,METAR,7.0
KORK 060915Z AUTO 10006KT 10SM OVC009 18/18 A2996 RMK AO2,KORK,2023-05-06T09:15:00Z,34.83,-92.25,18.0,18.0,100,6,,10.0,29.958662,,,TRUE,TRUE,,,,,,,OVC,900,,,,,,,IFR,,,,,,,,,,,,METAR,166.0
KORG 060915Z AUTO 34012G24KT 4SM +TSRA BKN010 OVC017 24/21 A3002 RMK AO2 LTG DSNT ALQS P0009 T02380210,KORG,2023-05-06T09:15:00Z,30.07,-93.8,23.8,21.0,340,12,24,4.0,30.02067,,,TRUE,TRUE,,,,,,+TSRA,BKN,1000,OVC,1700,,,,,MVFR,,,,,,0.09,,,,,,SPECI,2.0
KOQN 060915Z AUTO 35003KT 7SM CLR 08/08 A3028 RMK AO2,KOQN,2023-05-06T09:15:00Z,39.98,-75.58,8.0,8.0,350,3,,7.0,30.280512,,,TRUE,TRUE,,,,,,,CLR,,,,,,,,VFR,,,,,,,,,,,,SPECI,141.0
KOPN 060915Z AUTO 00000KT 10SM OVC060 15/11 A3018 RMK AO2,KOPN,2023-05-06T09:15:00Z,32.95,-84.27,15.0,11.0,0,0,,10.0,30.180119,,,TRUE,TRUE,,,,,,,OVC,6000,,,,,,,VFR,,,,,,,,,,,,SPECI,241.0
KOPL 060915Z AUTO 00000KT 10SM BKN013 BKN017 OVC024 24/22 A2998 RMK AO2 T02350223,KOPL,2023-05-06T09:15:00Z,30.55,-92.1,23.5,22.3,0,0,,10.0,29.97933,,,TRUE,TRUE,,,,,,,BKN,1300,BKN,1700,OVC,2400,,,MVFR,,,,,,,,,,,,SPECI,22.0
KOOA 060915Z AUTO 17009KT 10SM SCT014 16/13 A2991 RMK AO2 T01570126,KOOA,2023-05-06T09:15:00Z,41.23,-92.5,15.7,12.6,170,9,,10.0,29.911417,,,TRUE,TRUE,,,,,,,SCT,1400,,,,,,,VFR,,,,,,,,,,,,SPECI,256.0
KONZ 060915Z AUTO 00000KT 10SM CLR 09/06 A3026 RMK AO2 T00930059,KONZ,2023-05-06T09:15:00Z,42.1,-83.15,9.3,5.9,0,0,,10.0,30.259842,,,TRUE,TRUE,,,,,,,CLR,,,,,,,,VFR,,,,,,,,,,,,METAR,179.0
KONP 060915Z AUTO 13003KT 10SM OVC034 08/08 A2999 RMK AO2,KONP,2023-05-06T09:15:00Z,44.57,-124.05,8.0,8.0,130,3,,10.0,29.991142,,,TRUE,TRUE,,,,,,,OVC,3400,,,,,,,VFR,,,,,,,,,,,,METAR,43.0
KONM 060915Z AUTO 32004KT 10SM CLR 12/M09 A3004 RMK AO2 T01151094,KONM,2023-05-06T09:15:00Z,34.02,-106.9,11.5,-9.4,320,4,,10.0,30.041338,,,TRUE,TRUE,,,,,,,CLR,,,,,,,,VFR,,,,,,,,,,,,METAR,1467.0
KONL 060915Z AUTO 07008KT 10SM BKN005 13/12 A2973 RMK AO2 T01260117,KONL,2023-05-06T09:15:00Z,42.47,-98.68,12.6,11.7,70,8,,10.0,29.731298,,,TRUE,TRUE,,,,,,,BKN,500,,,,,,,IFR,,,,,,,,,,,,SPECI,619.0
KOMH 060915Z AUTO 00000KT 10SM OVC080 08/08 RMK AO2,KOMH,2023-05-06T09:15:00Z,38.25,-78.05,8.0,8.0,0,0,,10.0,,,,TRUE,TRUE,,,,,,,OVC,8000,,,,,,,VFR,,,,,,,,,,,,METAR,136.0
KOLZ 060915Z AUTO 13011G16KT 4SM BR BKN007 BKN028 OVC075 13/13 A2994 RMK A01,KOLZ,2023-05-06T09:15:00Z,42.67,-91.97,13.0,13.0,130,11,16,4.0,29.940945,,,TRUE,TRUE,,,,,,BR,BKN,700,BKN,2800,OVC,7500,,,IFR,,,,,,,,,,,,SPECI,328.0
KOLV 060915Z AUTO 15005KT 10SM SCT012 BKN047 OVC060 17/14 A3004 RMK A01,KOLV,2023-05-06T09:15:00Z,34.98,-89.78,17.0,14.0,150,5,,10.0,30.041338,,,TRUE,TRUE,,,,,,,SCT,1200,BKN,4700,OVC,6000,,,VFR,,,,,,,,,,,,METAR,124.0
KOLG 060915Z AUTO 02005KT 10SM OVC004 04/03 A3003 RMK AO1,KOLG,2023-05-06T09:15:00Z,46.3,-91.82,4.0,3.0,20,5,,10.0,30.029528,,,TRUE,TRUE,,,,,,,OVC,400,,,,,,,LIFR,,,,,,,,,,,,METAR,334.0
KOKZ 060915Z AUTO 10005KT 10SM -RA OVC060 15/14 A3019 RMK AO2,KOKZ,2023-05-06T09:15:00Z,32.97,-82.83,15.0,14.0,100,5,,10.0,30.188976,,,TRUE,TRUE,,,,,,-RA,OVC,6000,,,,,,,VFR,,,,,,,,,,,,SPECI,128.0
KOKV 060915Z AUTO 00000KT 10SM CLR 03/03 A3028 RMK AO2,KOKV,2023-05-06T09:15:00Z,39.13,-78.15,3.0,3.0,0,0,,10.0,30.280512,,,TRUE,TRUE,,,,,,,CLR,,,,,,,,VFR,,,,,,,,,,,,SPECI,213.0
KOKM 060915Z AUTO 11005KT 4SM BR SCT004 OVC010 19/19 A2982 RMK AO2 T01870187,KOKM,2023-05-06T09:15:00Z,35.67,-95.95,18.7,18.7,110,5,,4.0,29.819881,,,TRUE,TRUE,,,,,,BR,SCT,400,OVC,1000,,,,,MVFR,,,,,,,,,,,,SPECI,215.0
KOIN 060915Z AUTO 04007KT 10SM SCT028 13/10 A2981 RMK AO1 T01250103,KOIN,2023-05-06T09:15:00Z,39.83,-100.53,12.5,10.3,40,7,,10.0,29.811024,,,TRUE,TRUE,,,,,,,SCT,2800,,,,,,,VFR,,,,,,,,,,,,SPECI,810.0
KOIC 060915Z AUTO 00000KT 1/4SM FG OVC001 04/04 A3033 RMK AO2 T00390039,KOIC,2023-05-06T09:15:00Z,42.57,-75.52,3.9,3.9,0,0,,0.25,30.33071,,,TRUE,TRUE,,,,,,FG,OVC,100,,,,,,,LIFR,,,,,,,,,,,,METAR,311.0
KOGS 060915Z AUTO 00000KT 9SM CLR 06/06 A3026 RMK AO2,KOGS,2023-05-06T09:15:00Z,44.67,-75.47,6.0,6.0,0,0,,9.0,30.259842,,,TRUE,TRUE,,,,,,,CLR,,,,,,,,VFR,,,,,,,,,,,,SPECI,88.0
KOGA 060915Z AUTO 30005KT 10SM CLR 08/08 A2983 RMK AO2 T00830083,KOGA,2023-05-06T09:15:00Z,41.12,-101.77,8.3,8.3,300,5,,10.0,29.828741,,,TRUE,TRUE,,,,,,,CLR,,,,,,,,VFR,,,,,,,,,,,,SPECI,991.0
KOEO 060915Z AUTO 06003KT 10SM OVC011 13/13 A3000 RMK AO2 T01300130 PWINO,KOEO,2023-05-06T09:15:00Z,45.32,-92.7,13.0,13.0,60,3,,10.0,30.0,,,TRUE,TRUE,,,,,TRUE,,OVC,1100,,,,,,,MVFR,,,,,,,,,,,,METAR,269.0
KOEL 060915Z AUTO 03011KT 10SM SCT013 13/11 A2975 RMK AO1 T01250105,KOEL,2023-05-06T09:15:00Z,39.12,-100.82,12.5,10.5,30,11,,10.0,29.749016,,,TRUE,TRUE,,,,,,,SCT,1300,,,,,,,VFR,,,,,,,,,,,,METAR,924.0
KOEB 060915Z AUTO 12007KT 10SM CLR 11/03 A3021 RMK AO2 T01100028,KOEB,2023-05-06T09:15:00Z,41.92,-85.05,11.0,2.8,120,7,,10.0,30.209646,,,TRUE,TRUE,,,,,,,CLR,,,,,,,,VFR,,,,,,,,,,,,SPECI,291.0
KOCQ 060915Z AUTO 12003KT 10SM CLR 09/09 A3009 RMK AO1 T00860085,KOCQ,2023-05-06T09:15:00Z,44.87,-87.92,8.6,8.5,120,3,,10.0,30.088583,,,TRUE,TRUE,,,,,,,CLR,,,,,,,,VFR,,,,,,,,,,,,METAR,181.0
KOBE 060915Z AUTO 00000KT 10SM CLR 19/19 A3005 RMK AO2,KOBE,2023-05-06T09:15:00Z,27.27,-80.85,19.0,19.0,0,0,,10.0,30.050198,,,TRUE,TRUE,,,,,,,CLR,,,,,,,,VFR,,,,,,,,,,,,SPECI,11.0
KOAR 060915Z AUTO 00000KT 10SM SCT018 SCT024 BKN075 05/03 A3009 RMK AO2 PWINO,KOAR,2023-05-06T09:15:00Z,36.67,-121.77,5.0,3.0,0,0,,10.0,30.088583,,,TRUE,TRUE,,,,,TRUE,,SCT,1800,SCT,2400,BKN,7500,,,VFR,,,,,,,,,,,,METAR,41.0
KO86 060915Z AUTO 00000KT 8SM 06/06 A2999 RMK A01,KO86,2023-05-06T09:15:00Z,40.98,-122.7,6.0,6.0,0,0,,8.0,29.991142,,,TRUE,TRUE,,,,,,,,,,,,,,,,,,,,,,,,,,,METAR,729.0
KO69 060915Z AUTO 00000KT 10SM BKN032 OVC055 09/09 A3007 RMK A01,KO69,2023-05-06T09:15:00Z,38.25,-122.6,9.0,9.0,0,0,,10.0,30.070866,,,TRUE,TRUE,,,,,,,BKN,3200,OVC,5500,,,,,VFR,,,,,,,,,,,,METAR,26.0
KO32 060915Z AUTO 33003KT 10SM SCT100 BKN130 12/12 A3004 RMK AO2 T01190119 $,KO32,2023-05-06T09:15:00Z,36.67,-119.45,11.9,11.9,330,3,,10.0,30.041338,,,TRUE,TRUE,TRUE,,,,,,SCT,10000,BKN,13000,,,,,VFR,,,,,,,,,,,,METAR,117.0
KO22 060915Z AUTO 00000KT 10SM OVC042 08/08 A3006 RMK A01,KO22,2023-05-06T09:15:00Z,38.03,-120.42,8.0,8.0,0,0,,10.0,30.059055,,,TRUE,TRUE,,,,,,,OVC,4200,,,,,,,VFR,,,,,,,,,,,,METAR,637.0
KNUQ 060915Z AUTO 13005KT 10SM BKN032 BKN050 OVC060 12/11 A3007 RMK AO2,KNUQ,2023-05-06T09:15:00Z,37.4,-122.05,12.0,11.0,130,5,,10.0,30.070866,,,TRUE,TRUE,,,,,,,BKN,3200,BKN,5000,OVC,6000,,,VFR,,,,,,,,,,,,METAR,9.0
KNRN 060915Z AUTO 08009KT 10SM CLR 13/10 A2977 RMK AO2,KNRN,2023-05-06T09:15:00Z,39.85,-99.9,13.0,10.0,80,9,,10.0,29.769686,,,TRUE,TRUE,,,,,,,CLR,,,,,,,,VFR,,,,,,,,,,,,SPECI,726.0
KN79 060915Z AUTO 00000KT 10SM CLR 03/03 A3029 RMK AO2 T00330033,KN79,2023-05-06T09:15:00Z,,,3.3,3.3,0,0,,10.0,30.28937,,,TRUE,TRUE,,,,,,,CLR,,,,,,,,VFR,,,,,,,,,,,,METAR,
KN38 060915Z AUTO 00000KT 1/2SM FG VV005 01/01 A3029 RMK AO2,KN38,2023-05-06T09:15:00Z,41.73,-77.4,1.0,1.0,0,0,,0.5,30.28937,,,TRUE,TRUE,,,,,,FG,OVX,0,,,,,,,LIFR,,,,,,,,,,,500,METAR,576.0
KN03 060915Z AUTO 00000KT 10SM CLR 00/00 A3032 RMK AO2,KN03,2023-05-06T09:15:00Z,42.6,-76.22,0.0,0.0,0,0,,10.0,30.318897,,,TRUE,TRUE,,,,,,,CLR,,,,,,,,VFR,,,,,,,,,,,,METAR,361.0
KMZZ 060915Z AUTO 13004KT 10SM CLR 10/06 A3017 RMK AO2 T01010060,KMZZ,2023-05-06T09:15:00Z,40.48,-85.68,10.1,6.0,130,4,,10.0,30.171259,,,TRUE,TRUE,,,,,,,CLR,,,,,,,,VFR,,,,,,,,,,,,SPECI,260.0
KMZH 060915Z AUTO 06005KT 5SM BR OVC003 04/03 A3005 RMK AO2,KMZH,2023-05-06T09:15:00Z,46.42,-92.8,4.0,3.0,60,5,,5.0,30.050198,,,TRUE,TRUE,,,,,,BR,OVC,300,,,,,,,LIFR,,,,,,,,,,,,SPECI,331.0
KMYZ 060915Z AUTO 15005KT 10SM BKN011 OVC023 17/17 A2973 RMK AO2,KMYZ,2023-05-06T09:15:00Z,39.85,-96.63,17.0,17.0,150,5,,10.0,29.731298,,,TRUE,TRUE,,,,,,,BKN,1100,OVC,2300,,,,,MVFR,,,,,,,,,,,,SPECI,388.0
KMYJ 060915Z AUTO 17008KT 10SM OVC016 15/12 A2995 RMK AO2,KMYJ,2023-05-06T09:15:00Z,39.15,-91.82,15.0,12.0,170,8,,10.0,29.949802,,,TRUE,TRUE,,,,,,,OVC,1600,,,,,,,MVFR,,,,,,,,,,,,METAR,249.0
KMWO 060915Z AUTO 04003KT 10SM CLR 07/06 A3020 RMK AO2 T0071////,KMWO,2023-05-06T09:15:00Z,39.53,-84.4,7.1,6.0,40,3,,10.0,30.200787,,,TRUE,TRUE,,,,,,,CLR,,,,,,,,VFR,,,,,,,,,,,,METAR,197.0
KMWM 060915Z AUTO 11007KT 10SM OVC007 14/13 A2985 RMK AO2,KMWM,2023-05-06T09:15:00Z,43.9,-95.1,14.0,13.0,110,7,,10.0,29.84941,,,TRUE,TRUE,,,,,,,OVC,700,,,,,,,IFR,,,,,,,,,,,,METAR,427.0
KMWA 060915Z AUTO 15005KT 10SM CLR 15/13 A3007 RMK AO2 T01450125,KMWA,2023-05-06T09:15:00Z,37.77,-89.02,14.5,12.5,150,5,,10.0,30.070866,,,TRUE,TRUE,,,,,,,CLR,,,,,,,,VFR,,,,,,,,,,,,METAR,142.0
KMVE 060915Z AUTO 09011KT 10SM OVC011 14/12 A2987 RMK AO2,KMVE,2023-05-06T09:15:00Z,44.97,-95.72,14.0,12.0,90,11,,10.0,29.870079,,,TRUE,TRUE,,,,,,,OVC,1100,,,,,,,MVFR,,,,,,,,,,,,METAR,319.0
KMUT 060915Z AUTO 15008KT 10SM OVC022 16/13 A2996 RMK AO2,KMUT,2023-05-06T09:15:00Z,41.37,-91.15,16.0,13.0,150,8,,10.0,29.958662,,,TRUE,TRUE,,,,,,,OVC,2200,,,,,,,MVFR,,,,,,,,,,,,SPECI,166.0
KMTV 060915Z AUTO 00000KT 10SM CLR 05/04 A3027 RMK AO2 T00510040,KMTV,2023-05-06T09:15:00Z,36.63,-80.02,5.1,4.0,0,0,,10.0,30.268702,,,TRUE,TRUE,,,,,,,CLR,,,,,,,,VFR,,,,,,,,,,,,SPECI,276.0
KMTK 060915Z AUTO 15012KT 10SM CLR 25/23 A3000 RMK A01,KMTK,2023-05-06T09:15:00Z,,,25.0,23.0,150,12,,10.0,30.0,,,TRUE,TRUE,,,,,,,CLR,,,,,,,,VFR,,,,,,,,,,,,METAR,
KMRJ 060915Z AUTO 13006KT 10SM BKN035 OVC070 12/10 A3003 RMK AO2 PWINO,KMRJ,2023-05-06T09:15:00Z,42.88,-90.23,12.0,10.0,130,6,,10.0,30.029528,,,TRUE,TRUE,,,,,TRUE,,BKN,3500,OVC,7000,,,,,VFR,,,,,,,,,,,,METAR,350.0
KMQW 060915Z AUTO 04003KT 10SM OVC070 16/15 A3017 RMK AO2 T01620145,KMQW,2023-05-06T09:15:00Z,32.1,-82.88,16.2,14.5,40,3,,10.0,30.171259,,,TRUE,TRUE,,,,,,,OVC,7000,,,,,,,VFR,,,,,,,,,,,,SPECI,62.0
KMQS 060915Z AUTO 00000KT 1SM BR CLR 05/05 A3028 RMK AO2,KMQS,2023-05-06T09:15:00Z,39.98,-75.87,5.0,5.0,0,0,,1.0,30.280512,,,TRUE,TRUE,,,,,,BR,CLR,,,,,,,,IFR,,,,,,,,,,,,METAR,200.0
KMQJ 060915Z AUTO 15004KT 10SM CLR 12/06 A3016 RMK AO1,KMQJ,2023-05-06T09:15:00Z,39.85,-85.9,12.0,6.0,150,4,,10.0,30.159449,,,TRUE,TRUE,,,,,,,CLR,,,,,,,,VFR,,,,,,,,,,,,METAR,262.0
KMQB 060915Z AUTO 14010KT 10SM OVC019 15/11 A3001 RMK AO2 T01520110,KMQB,2023-05-06T09:15:00Z,40.52,-90.65,15.2,11.0,140,10,,10.0,30.008858,,,TRUE,TRUE,,,,,,,OVC,1900,,,,,,,MVFR,,,,,,,,,,,,METAR,205.0
KMPZ 060915Z AUTO 17010KT 10SM OVC021 15/11 A2995 RMK AO2,KMPZ,2023-05-06T09:15:00Z,40.95,-91.52,15.0,11.0,170,10,,10.0,29.949802,,,TRUE,TRUE,,,,,,,OVC,2100,,,,,,,MVFR,,,,,,,,,,,,SPECI,222.0
KMPR 060915Z AUTO 16015G20KT 10SM SCT018 22/21 A2969 RMK AO2 T02240206,KMPR,2023-05-06T09:15:00Z,38.35,-97.68,22.4,20.6,160,15,20,10.0,29.68996,,,TRUE,TRUE,,,,,,,SCT,1800,,,,,,,VFR,,,,,,,,,,,,SPECI,455.0
KMOX 060915Z AUTO 09016G20KT 10SM 11/04 A2989 RMK AO2,KMOX,2023-05-06T09:15:00Z,45.57,-95.97,11.0,4.0,90,16,20,10.0,29.890747,,,TRUE,TRUE,,,,,,,,,,,,,,,,,,,,,,,,,,,METAR,346.0
KMOP 060915Z AUTO 11003KT 10SM CLR 10/03 A3022 RMK AO2 T01010033,KMOP,2023-05-06T09:15:00Z,43.62,-84.73,10.1,3.3,110,3,,10.0,30.221457,,,TRUE,TRUE,,,,,,,CLR,,,,,,,,VFR,,,,,,,,,,,,METAR,229.0
KMNV 060915Z AUTO 00000KT 10SM 13/ A3019 RMK A01,KMNV,2023-05-06T09:15:00Z,35.55,-84.38,13.0,,0,0,,10.0,30.188976,,,TRUE,TRUE,,,,,,,,,,,,,,,,,,,,,,,,,,,METAR,306.0
KMNI 060915Z AUTO 00000KT 10SM CLR 10/10 A3022 RMK AO2,KMNI,2023-05-06T09:15:00Z,33.58,-80.22,10.0,10.0,0,0,,10.0,30.221457,,,TRUE,TRUE,,,,,,,CLR,,,,,,,,VFR,,,,,,,,,,,,SPECI,29.0
KMNH 060915Z AUTO 19006KT 10SM CLR 00/M03 A2996 RMK AO2,KMNH,2023-05-06T09:15:00Z,39.22,-104.65,0.0,-3.0,190,6,,10.0,29.958662,,,TRUE,TRUE,,,,,,,CLR,,,,,,,,VFR,,,,,,,,,,,,SPECI,2152.0
KMMU 060915Z AUTO 00000KT 1 3/4SM BR OVC001 04/04 A3026 RMK AO2 VIS 3/4V5,KMMU,2023-05-06T09:15:00Z,40.78,-74.42,4.0,4.0,0,0,,1.75,30.259842,,,TRUE,TRUE,,,,,,BR,OVC,100,,,,,,,LIFR,,,,,,,,,,,,METAR,55.0
KMMI 060915Z AUTO 00000KT 10SM BKN080 OVC090 13/13 A3020 RMK A01,KMMI,2023-05-06T09:15:00Z,35.4,-84.57,13.0,13.0,0,0,,10.0,30.200787,,,TRUE,TRUE,,,,,,,BKN,8000,OVC,9000,,,,,VFR,,,,,,,,,,,,METAR,252.0
KMMH 060915Z AUTO 30006KT 10SM OVC050 01/M03 A2999 RMK AO2 T00101030,KMMH,2023-05-06T09:15:00Z,37.62,-118.83,1.0,-3.0,300,6,,10.0,29.991142,,,TRUE,TRUE,,,,,,,OVC,5000,,,,,,,VFR,,,,,,,,,,,,METAR,2167.0
KMLJ 060915Z AUTO 00000KT 10SM OVC065 17/15 A3017 RMK AO2,KMLJ,2023-05-06T09:15:00Z,33.15,-83.25,17.0,15.0,0,0,,10.0,30.171259,,,TRUE,TRUE,,,,,,,OVC,6500,,,,,,,VFR,,,,,,,,,,,,SPECI,115.0
KMLE 060915Z AUTO 00000KT 10SM BKN031 BKN040 OVC045 16/15 A2983 RMK AO2 LTG DSNT N AND NE T01600148,KMLE,2023-05-06T09:15:00Z,41.2,-96.12,16.0,14.8,0,0,,10.0,29.828741,,,TRUE,TRUE,,,,,,,BKN,3100,BKN,4000,OVC,4500,,,VFR,,,,,,,,,,,,METAR,318.0
KMKS 060915Z AUTO 00000KT 10SM CLR 13/12 A3020 RMK AO2,KMKS,2023-05-06T09:15:00Z,33.18,-80.03,13.0,12.0,0,0,,10.0,30.200787,,,TRUE,TRUE,,,,,,,CLR,,,,,,,,VFR,,,,,,,,,,,,SPECI,22.0
KMKN 060915Z AUTO 18011G17KT 10SM 21/16 A2989 RMK AO2 T02080156,KMKN,2023-05-06T09:15:00Z,31.92,-98.6,20.8,15.6,180,11,17,10.0,29.890747,,,TRUE,TRUE,,,,,,,,,,,,,,,,,,,,,,,,,,,METAR,428.0
KMKJ 060915Z AUTO 00000KT 10SM CLR 05/04 A3028 RMK AO2 T00460036,KMKJ,2023-05-06T09:15:00Z,36.88,-81.33,4.6,3.6,0,0,,10.0,30.280512,,,TRUE,TRUE,,,,,,,CLR,,,,,,,,VFR,,,,,,,,,,,,METAR,777.0
KMJD 060915Z AUTO 00000KT 3SM BR BKN003 OVC013 21/21 A3001 RMK AO2,KMJD,2023-05-06T09:15:00Z,30.48,-89.65,21.0,21.0,0,0,,3.0,30.008858,,,TRUE,TRUE,,,,,,BR,BKN,300,OVC,1300,,,,,LIFR,,,,,,,,,,,,SPECI,17.0
KMIV 060915Z AUTO 00000KT 1/4SM FG VV001 04/04 A3027 RMK AO2 T00440044,KMIV,2023-05-06T09:15:00Z,39.37,-75.08,4.4,4.4,0,0,,0.25,30.268702,,,TRUE,TRUE,,,,,,FG,OVX,0,,,,,,,LIFR,,,,,,,,,,,100,SPECI,18.0
KMIO 060915Z AUTO 14008KT 6SM BR SCT015 SCT020 OVC029 20/20 A2984 RMK AO2,KMIO,2023-05-06T09:15:00Z,36.92,-94.88,20.0,20.0,140,8,,6.0,29.840551,,,TRUE,TRUE,,,,,,BR,SCT,1500,SCT,2000,OVC,2900,,,MVFR,,,,,,,,,,,,METAR,245.0
KMHR 060915Z AUTO 13004KT 5SM BR FEW027 FEW036 OVC050 11/11 A3006 RMK A01,KMHR,2023-05-06T09:15:00Z,38.55,-121.28,11.0,11.0,130,4,,5.0,30.059055,,,TRUE,TRUE,,,,,,BR,FEW,2700,FEW,3600,OVC,5000,,,MVFR,,,,,,,,,,,,METAR,30.0
KMHP 060915Z AUTO 05004KT 10SM SCT060 OVC080 17/15 A3018 RMK AO2 T01670152,KMHP,2023-05-06T09:15:00Z,32.37,-82.08,16.7,15.2,50,4,,10.0,30.180119,,,TRUE,TRUE,,,,,,,SCT,6000,OVC,8000,,,,,VFR,,,,,,,,,,,,SPECI,60.0
KMHL 060915Z AUTO 13009KT 10SM OVC015 16/13 A2991 RMK AO2,KMHL,2023-05-06T09:15:00Z,39.1,-93.2,16.0,13.0,130,9,,10.0,29.911417,,,TRUE,TRUE,,,,,,,OVC,1500,,,,,,,MVFR,,,,,,,,,,,,METAR,236.0
KMGR 060915Z AUTO 00000KT 10SM OVC070 18/16 A3013 RMK AO2 T01850161,KMGR,2023-05-06T09:15:00Z,31.08,-83.8,18.5,16.1,0,0,,10.0,30.129921,,,TRUE,TRUE,,,,,,,OVC,7000,,,,,,,VFR,,,,,,,,,,,,METAR,86.0
KMGN 060915Z AUTO 06008KT 10SM OVC080 08/06 A3020 RMK AO2 T00900058,KMGN,2023-05-06T09:15:00Z,45.43,-84.92,9.0,5.8,60,8,,10.0,30.200787,,,TRUE,TRUE,,,,,,,OVC,8000,,,,,,,VFR,,,,,,,,,,,,METAR,205.0
KMGG 060915Z AUTO 06009KT 10SM OVC011 12/06 A2995 RMK AO2 T01150063,KMGG,2023-05-06T09:15:00Z,45.23,-93.98,11.5,6.3,60,9,,10.0,29.949802,,,TRUE,TRUE,,,,,,,OVC,1100,,,,,,,MVFR,,,,,,,,,,,,METAR,310.0
KMGC 060915Z AUTO 12005KT 10SM CLR 13/06 A3013 RMK AO2,KMGC,2023-05-06T09:15:00Z,41.7,-86.82,13.0,6.0,120,5,,10.0,30.129921,,,TRUE,TRUE,,,,,,,CLR,,,,,,,,VFR,,,,,,,,,,,,SPECI,199.0
KMFV 060915Z AUTO 00000KT 10SM CLR 05/04 A3026 RMK AO2 T00510044,KMFV,2023-05-06T09:15:00Z,37.63,-75.77,5.1,4.4,0,0,,10.0,30.259842,,,TRUE,TRUE,,,,,,,CLR,,,,,,,,VFR,,,,,,,,,,,,METAR,13.0
KMEZ 060915Z AUTO 00000KT 7SM OVC008 23/23 A2992 RMK AO2 T02270225,KMEZ,2023-05-06T09:15:00Z,34.55,-94.2,22.7,22.5,0,0,,7.0,29.920275,,,TRUE,TRUE,,,,,,,OVC,800,,,,,,,IFR,,,,,,,,,,,,METAR,320.0
KMEV 060915Z AUTO 00000KT 10SM OVC070 06/M02 A2997 RMK AO2,KMEV,2023-05-06T09:15:00Z,38.98,-119.75,6.0,-2.0,0,0,,10.0,29.970472,,,TRUE,TRUE,,,,,,,OVC,7000,,,,,,,VFR,,,,,,,,,,,,METAR,1437.0
KMDZ 060915Z AUTO 11005KT 5SM OVC050 10/10 A3002 RMK AO2 T00960096 PWINO,KMDZ,2023-05-06T09:15:00Z,45.1,-90.3,9.6,9.6,110,5,,5.0,30.02067,,,TRUE,TRUE,,,,,TRUE,,OVC,5000,,,,,,,MVFR,,,,,,,,,,,,METAR,446.0
KMDS 060915Z AUTO 14006KT 10SM BKN012 OVC016 14/14 A2984 RMK AO2,KMDS,2023-05-06T09:15:00Z,44.02,-97.08,14.0,14.0,140,6,,10.0,29.840551,,,TRUE,TRUE,,,,,,,BKN,1200,OVC,1600,,,,,MVFR,,,,,,,,,,,,SPECI,524.0
KMDQ 060915Z AUTO 10SM BKN041 OVC048 15/11 A3014 RMK A02 T01540109,KMDQ,2023-05-06T09:15:00Z,34.87,-86.55,15.4,10.9,,,,10.0,30.138779,,,TRUE,TRUE,,,,,,,BKN,4100,OVC,4800,,,,,VFR,,,,,,,,,,,,SPECI,221.0
KMDD 060915Z AUTO 18008G14KT 10SM CLR 19/M04 A2991 RMK AO2 T01911042,KMDD,2023-05-06T09:15:00Z,32.03,-102.1,19.1,-4.2,180,8,14,10.0,29.911417,,,TRUE,TRUE,,,,,,,CLR,,,,,,,,VFR,,,,,,,,,,,,SPECI,853.0
KMCJ 060915Z AUTO 11010KT 10SM FEW047 BKN055 OVC065 21/18 A2993 RMK A01 LTG DSNT N AND NE,KMCJ,2023-05-06T09:15:00Z,29.72,-95.4,21.0,18.0,110,10,,10.0,29.929134,,,TRUE,TRUE,,,,,,,FEW,4700,BKN,5500,OVC,6500,,,VFR,,,,,,,,,,,,METAR,70.0
KMCD 060915Z AUTO 09015G21KT 10SM -RA OVC065 03/03 A3024 RMK AO2 T00310031 P0001,KMCD,2023-05-06T09:15:00Z,45.85,-84.63,3.1,3.1,90,15,21,10.0,30.239174,,,TRUE,TRUE,,,,,,-RA,OVC,6500,,,,,,,VFR,,,,,,0.01,,,,,,METAR,228.0
KMCC 060915Z AUTO 16005KT 9SM OVC046 11/11 A3007 RMK AO2,KMCC,2023-05-06T09:15:00Z,38.67,-121.4,11.0,11.0,160,5,,9.0,30.070866,,,TRUE,TRUE,,,,,,,OVC,4600,,,,,,,VFR,,,,,,,,,,,,METAR,21.0
KMBY 060915Z AUTO 14005KT 10SM OVC014 16/12 A2994 RMK AO2,KMBY,2023-05-06T09:15:00Z,39.47,-92.43,16.0,12.0,140,5,,10.0,29.940945,,,TRUE,TRUE,,,,,,,OVC,1400,,,,,,,MVFR,,,,,,,,,,,,METAR,263.0
KMBT 060915Z AUTO 16003KT 10SM OVC060 14/12 A3012 RMK A01,KMBT,2023-05-06T09:15:00Z,35.88,-86.38,14.0,12.0,160,3,,10.0,30.121063,,,TRUE,TRUE,,,,,,,OVC,6000,,,,,,,VFR,,,,,,,,,,,,METAR,187.0
KMBO 060915Z AUTO VRB03KT 10SM OVC012 20/20 A3003 RMK AO2,KMBO,2023-05-06T09:15:00Z,32.43,-90.1,20.0,20.0,0,3,,10.0,30.029528,,,TRUE,TRUE,,,,,,,OVC,1200,,,,,,,MVFR,,,,,,,,,,,,METAR,98.0
KMAW 060915Z AUTO 13005KT 10SM SCT065 15/13 A3005 RMK AO1,KMAW,2023-05-06T09:15:00Z,36.6,-90.0,15.0,13.0,130,5,,10.0,30.050198,,,TRUE,TRUE,,,,,,,SCT,6500,,,,,,,VFR,,,,,,,,,,,,METAR,88.0
KMAO 060915Z AUTO 00000KT 10SM CLR 11/09 A3023 RMK AO2,KMAO,2023-05-06T09:15:00Z,34.18,-79.33,11.0,9.0,0,0,,10.0,30.230314,,,TRUE,TRUE,,,,,,,CLR,,,,,,,,VFR,,,,,,,,,,,,METAR,27.0
KMAN 060915Z AUTO 24006G12KT 7SM BKN023 OVC032 08/07 A2993 RMK A01,KMAN,2023-05-06T09:15:00Z,43.58,-116.52,8.0,7.0,240,6,12,7.0,29.929134,,,TRUE,TRUE,,,,,,,BKN,2300,OVC,3200,,,,,MVFR,,,,,,,,,,,,METAR,773.0
KM75 060915Z AUTO 09016G23KT 10SM FEW050 OVC065 13/02 A2981 RMK A01,KM75,2023-05-06T09:15:00Z,48.37,-107.92,13.0,2.0,90,16,23,10.0,29.811024,,,TRUE,TRUE,,,,,,,FEW,5000,OVC,6500,,,,,VFR,,,,,,,,,,,,METAR,687.0
KM40 060915Z AUTO 13004KT 10SM OVC015 18/15 A3010 RMK AO2,KM40,2023-05-06T09:15:00Z,33.87,-88.48,18.0,15.0,130,4,,10.0,30.100393,,,TRUE,TRUE,,,,,,,OVC,1500,,,,,,,MVFR,,,,,,,,,,,,METAR,68.0
KM30 060915Z AUTO 13003KT 10SM SCT065 14/11 A3007 RMK AO2 T01420107,KM30,2023-05-06T09:15:00Z,37.18,-88.75,14.2,10.7,130,3,,10.0,30.070866,,,TRUE,TRUE,,,,,,,SCT,6500,,,,,,,VFR,,,,,,,,,,,,SPECI,116.0
KM25 060915Z AUTO 16006KT 10SM BKN034 OVC070 15/11 A3008 RMK AO2 PWINO,KM25,2023-05-06T09:15:00Z,36.77,-88.58,15.0,11.0,160,6,,10.0,30.079725,,,TRUE,TRUE,,,,,TRUE,,BKN,3400,OVC,7000,,,,,VFR,,,,,,,,,,,,METAR,157.0
KM21 060915Z AUTO 00000KT 10SM OVC060 14/12 A3012 RMK AO2 T01410118,KM21,2023-05-06T09:15:00Z,37.22,-87.15,14.1,11.8,0,0,,10.0,30.121063,,,TRUE,TRUE,,,,,,,OVC,6000,,,,,,,VFR,,,,,,,,,,,,SPECI,127.0
KM08 060915Z AUTO 11005KT 10SM OVC014 15/14 A3006 RMK A01,KM08,2023-05-06T09:15:00Z,35.22,-89.05,15.0,14.0,110,5,,10.0,30.059055,,,TRUE,TRUE,,,,,,,OVC,1400,,,,,,,MVFR,,,,,,,,,,,,METAR,149.0
KM02 060915Z AUTO 15004KT 10SM SCT031 SCT037 OVC070 12/11 A3010 RMK A01,KM02,2023-05-06T09:15:00Z,36.13,-87.43,12.0,11.0,150,4,,10.0,30.100393,,,TRUE,TRUE,,,,,,,SCT,3100,SCT,3700,OVC,7000,,,VFR,,,,,,,,,,,,METAR,268.0
KM01 060915Z AUTO 14007KT 10SM FEW021 18/15 A3001 RMK AO2 T01780148 $,KM01,2023-05-06T09:15:00Z,35.2,-90.05,17.8,14.8,140,7,,10.0,30.008858,,,TRUE,TRUE,TRUE,,,,,,FEW,2100,,,,,,,VFR,,,,,,,,,,,,METAR,68.0
KLZZ 060915Z AUTO 20005KT 10SM CLR 18/16 A2988 RMK AO2 T01830155,KLZZ,2023-05-06T09:15:00Z,31.1,-98.2,18.3,15.5,200,5,,10.0,29.878937,,,TRUE,TRUE,,,,,,,CLR,,,,,,,,VFR,,,,,,,,,,,,SPECI,356.0
KLYV 060915Z AUTO 14007KT 10SM OVC018 14/12 A2985 RMK AO2,KLYV,2023-05-06T09:15:00Z,43.62,-96.22,14.0,12.0,140,7,,10.0,29.84941,,,TRUE,TRUE,,,,,,,OVC,1800,,,,,,,MVFR,,,,,,,,,,,,SPECI,435.0
KLYO 060915Z AUTO 17008KT 10SM CLR 18/16 A2970 RMK AO2 T01800162,KLYO,2023-05-06T09:15:00Z,38.35,-98.23,18.0,16.2,170,8,,10.0,29.698818,,,TRUE,TRUE,,,,,,,CLR,,,,,,,,VFR,,,,,,,,,,,,SPECI,515.0
KLXY 060915Z AUTO 00000KT 10SM CLR 22/14 A2983 RMK AO2 T02240139,KLXY,2023-05-06T09:15:00Z,31.63,-96.52,22.4,13.9,0,0,,10.0,29.828741,,,TRUE,TRUE,,,,,,,CLR,,,,,,,,VFR,,,,,,,,,,,,METAR,164.0
KLXN 060915Z AUTO 12008KT 10SM CLR 13/12 A2975 RMK AO2 T01300121,KLXN,2023-05-06T09:15:00Z,40.78,-99.77,13.0,12.1,120,8,,10.0,29.749016,,,TRUE,TRUE,,,,,,,CLR,,,,,,,,VFR,,,,,,,,,,,,METAR,734.0
KLXL 060915Z AUTO 06005KT 10SM OVC012 07/05 A2997 RMK AO2,KLXL,2023-05-06T09:15:00Z,45.95,-94.33,7.0,5.0,60,5,,10.0,29.970472,,,TRUE,TRUE,,,,,,,OVC,1200,,,,,,,MVFR,,,,,,,,,,,,METAR,335.0
KLWB 060915Z AUTO 00000KT 10SM CLR 05/03 A3026 RMK AO2 T00520034,KLWB,2023-05-06T09:15:00Z,37.87,-80.4,5.2,3.4,0,0,,10.0,30.259842,,,TRUE,TRUE,,,,,,,CLR,,,,,,,,VFR,,,,,,,,,,,,METAR,702.0
KLWA 060915Z AUTO 13008KT 10SM CLR 12/06 A3015 RMK AO2 T01240056,KLWA,2023-05-06T09:15:00Z,42.35,-86.25,12.4,5.6,130,8,,10.0,30.15059,,,TRUE,TRUE,,,,,,,CLR,,,,,,,,VFR,,,,,,,,,,,,METAR,199.0
KLVN 060915Z AUTO 08005KT 4SM BR SCT007 BKN022 OVC047 12/12 A2993 RMK AO2,KLVN,2023-05-06T09:15:00Z,44.63,-93.23,12.0,12.0,80,5,,4.0,29.929134,,,TRUE,TRUE,,,,,,BR,SCT,700,BKN,2200,OVC,4700,,,MVFR,,,,,,,,,,,,METAR,292.0
KLUX 060915Z AUTO 00000KT 10SM SCT120 13/13 A3021 RMK AO2,KLUX,2023-05-06T09:15:00Z,34.5,-81.95,13.0,13.0,0,0,,10.0,30.209646,,,TRUE,TRUE,,,,,,,SCT,12000,,,,,,,VFR,,,,,,,,,,,,METAR,213.0
KLUV 060915Z AUTO 15004KT 10SM CLR 12/M07 A2993 RMK AO2,KLUV,2023-05-06T09:15:00Z,32.75,-101.92,12.0,-7.0,150,4,,10.0,29.929134,,,TRUE,TRUE,,,,,,,CLR,,,,,,,,VFR,,,,,,,,,,,,METAR,910.0
KLUM 060915Z 00000KT 5SM OVC006 13/12 A2998 RMK AO2 T01280122 PWINO,KLUM,2023-05-06T09:15:00Z,44.9,-91.87,12.8,12.2,0,0,,5.0,29.97933,,,,TRUE,,,,,TRUE,,OVC,600,,,,,,,IFR,,,,,,,,,,,,SPECI,271.0
KLUL 060915Z AUTO 13005KT 7SM HZ OVC004 20/ A3005 RMK A02 T0197////,KLUL,2023-05-06T09:15:00Z,31.67,-89.17,19.7,,130,5,,7.0,30.050198,,,TRUE,TRUE,,,,,,HZ,OVC,400,,,,,,,LIFR,,,,,,,,,,,,METAR,74.0
KLUG 060915Z AUTO 12003KT 10SM OVC048 13/11 A3012 RMK A01,KLUG,2023-05-06T09:15:00Z,35.52,-86.8,13.0,11.0,120,3,,10.0,30.121063,,,TRUE,TRUE,,,,,,,OVC,4800,,,,,,,VFR,,,,,,,,,,,,METAR,218.0
KLUA 060915Z AUTO 00000KT 10SM BKN080 05/04 A3028 RMK AO2,KLUA,2023-05-06T09:15:00Z,38.67,-78.5,5.0,4.0,0,0,,10.0,30.280512,,,TRUE,TRUE,,,,,,,BKN,8000,,,,,,,VFR,,,,,,,,,,,,METAR,273.0
KLRY 060915Z AUTO 15009KT 10SM -RA SCT009 OVC016 17/16 A2987 RMK AO2,KLRY,2023-05-06T09:15:00Z,38.62,-94.35,17.0,16.0,150,9,,10.0,29.870079,,,TRUE,TRUE,,,,,,-RA,SCT,900,OVC,1600,,,,,MVFR,,,,,,,,,,,,METAR,272.0
KLRU 060915Z AUTO 30005KT 10SM CLR 13/M08 A3004 RMK AO2 T01291085,KLRU,2023-05-06T09:15:00Z,32.28,-106.92,12.9,-8.5,300,5,,10.0,30.041338,,,TRUE,TRUE,,,,,,,CLR,,,,,,,,VFR,,,,,,,,,,,,METAR,1355.0
KLRO 060915Z AUTO 00000KT 10SM OVC090 17/17 A3019 RMK AO2,KLRO,2023-05-06T09:15:00Z,32.9,-79.78,17.0,17.0,0,0,,10.0,30.188976,,,TRUE,TRUE,,,,,,,OVC,9000,,,,,,,VFR,,,,,,,,,,,,METAR,3.0
KLRJ 060915Z AUTO 13010G15KT 5SM BR SCT005 BKN065 OVC100 15/15 A2981 RMK AO2,KLRJ,2023-05-06T09:15:00Z,42.77,-96.2,15.0,15.0,130,10,15,5.0,29.811024,,,TRUE,TRUE,,,,,,BR,SCT,500,BKN,6500,OVC,10000,,,MVFR,,,,,,,,,,,,METAR,363.0
KLQK 060915Z AUTO 00000KT 10SM OVC120 12/12 A3021 RMK AO2 T01240119,KLQK,2023-05-06T09:15:00Z,34.82,-82.7,12.4,11.9,0,0,,10.0,30.209646,,,TRUE,TRUE,,,,,,,OVC,12000,,,,,,,VFR,,,,,,,,,,,,METAR,291.0
KLOT 060915Z AUTO 12007KT 10SM FEW041 FEW048 BKN075 15/10 A3009 RMK AO2,KLOT,2023-05-06T09:15:00Z,41.6,-88.1,15.0,10.0,120,7,,10.0,30.088583,,,TRUE,TRUE,,,,,,,FEW,4100,FEW,4800,BKN,7500,,,VFR,,,,,,,,,,,,METAR,205.0
KLOM 060915Z AUTO 26003KT 7SM HZ CLR 05/ A3028 RMK AO2 T0050////,KLOM,2023-05-06T09:15:00Z,40.13,-75.27,5.0,,260,3,,7.0,30.280512,,,TRUE,TRUE,,,,,,HZ,CLR,,,,,,,,VFR,,,,,,,,,,,,METAR,87.0
KLNQ 060915Z AUTO 00000KT 4SM SCT003 25/23 A3002 RMK AO2 T02450230,KLNQ,2023-05-06T09:15:00Z,29.35,-89.43,24.5,23.0,0,0,,4.0,30.02067,,,TRUE,TRUE,,,,,,,SCT,300,,,,,,,MVFR,,,,,,,,,,,,METAR,1.0
KLNP 060915Z AUTO 21004KT 10SM CLR 05/04 A3024 RMK AO2,KLNP,2023-05-06T09:15:00Z,36.98,-82.52,5.0,4.0,210,4,,10.0,30.239174,,,TRUE,TRUE,,,,,,,CLR,,,,,,,,VFR,,,,,,,,,,,,METAR,817.0
KLNN 060915Z AUTO 00000KT 10SM CLR 05/04 A3025 RMK AO1 T00490038,KLNN,2023-05-06T09:15:00Z,41.68,-81.38,4.9,3.8,0,0,,10.0,30.250984,,,TRUE,TRUE,,,,,,,CLR,,,,,,,,VFR,,,,,,,,,,,,METAR,190.0
KLNL 060915Z AUTO 12008KT 10SM -RA BKN070 OVC090 09/07 A3009 RMK AO2 T00850072,KLNL,2023-05-06T09:15:00Z,46.15,-89.22,8.5,7.2,120,8,,10.0,30.088583,,,TRUE,TRUE,,,,,,-RA,BKN,7000,OVC,9000,,,,,VFR,,,,,,,,,,,,METAR,517.0
KLNC 060915Z AUTO 00000KT 10SM CLR 22/13 A2984 RMK AO2 T02160125,KLNC,2023-05-06T09:15:00Z,32.58,-96.72,21.6,12.5,0,0,,10.0,29.840551,,,TRUE,TRUE,,,,,,,CLR,,,,,,,,VFR,,,,,,,,,,,,METAR,152.0
KLNA 060915Z AUTO 03003KT 10SM CLR 24/19 A3006 RMK AO2 T02430190,KLNA,2023-05-06T09:15:00Z,26.6,-80.08,24.3,19.0,30,3,,10.0,30.059055,,,TRUE,TRUE,,,,,,,CLR,,,,,,,,VFR,,,,,,,,,,,,METAR,3.0
KLMS 060915Z AUTO VRB04KT 10SM OVC005 17/17 A3010 RMK AO2,KLMS,2023-05-06T09:15:00Z,,,17.0,17.0,0,4,,10.0,30.100393,,,TRUE,TRUE,,,,,,,OVC,500,,,,,,,IFR,,,,,,,,,,,,METAR,
KLMO 060915Z AUTO 27007KT 10SM CLR 07/M02 A2989 RMK AO2 T00671017,KLMO,2023-05-06T09:15:00Z,40.17,-105.17,6.7,-1.7,270,7,,10.0,29.890747,,,TRUE,TRUE,,,,,,,CLR,,,,,,,,VFR,,,,,,,,,,,,METAR,1535.0
KLLN 060915Z AUTO 25009KT 10SM SCT048 BKN055 BKN065 12/M01 A2993 RMK AO2,KLLN,2023-05-06T09:15:00Z,33.55,-102.37,12.0,-1.0,250,9,,10.0,29.929134,,,TRUE,TRUE,,,,,,,SCT,4800,BKN,5500,BKN,6500,,,VFR,,,,,,,,,,,,METAR,1071.0
KLKU 060915Z AUTO 00000KT 10SM SCT070 OVC095 08/08 A3027 RMK AO2 T00830075,KLKU,2023-05-06T09:15:00Z,38.02,-77.97,8.3,7.5,0,0,,10.0,30.268702,,,TRUE,TRUE,,,,,,,SCT,7000,OVC,9500,,,,,VFR,,,,,,,,,,,,METAR,146.0
KLKR 060915Z AUTO 00000KT 6SM BR BKN033 BKN039 BKN044 11/11 A3022 RMK AO2,KLKR,2023-05-06T09:15:00Z,34.72,-80.85,11.0,11.0,0,0,,6.0,30.221457,,,TRUE,TRUE,,,,,,BR,BKN,3300,BKN,3900,BKN,4400,,,VFR,,,,,,,,,,,,METAR,166.0
KLJF 060915Z AUTO 07006KT 10SM OVC010 11/08 A2991 RMK AO2,KLJF,2023-05-06T09:15:00Z,45.1,-94.52,11.0,8.0,70,6,,10.0,29.911417,,,TRUE,TRUE,,,,,,,OVC,1000,,,,,,,MVFR,,,,,,,,,,,,METAR,347.0
KLHM 060915Z AUTO 15006KT 10SM OVC045 10/10 A3006 RMK AO1,KLHM,2023-05-06T09:15:00Z,38.92,-121.35,10.0,10.0,150,6,,10.0,30.059055,,,TRUE,TRUE,,,,,,,OVC,4500,,,,,,,VFR,,,,,,,,,,,,METAR,36.0
KLHB 060915Z AUTO 20007KT 10SM CLR 20/17 A2986 RMK AO2 T01970167,KLHB,2023-05-06T09:15:00Z,30.87,-96.62,19.7,16.7,200,7,,10.0,29.861221,,,TRUE,TRUE,,,,,,,CLR,,,,,,,,VFR,,,,,,,,,,,,METAR,83.0
KLGC 060915Z AUTO 00000KT 10SM SCT085 14/13 A3016 RMK AO2 T01430127,KLGC,2023-05-06T09:15:00Z,33.0,-85.07,14.3,12.7,0,0,,10.0,30.159449,,,TRUE,TRUE,,,,,,,SCT,8500,,,,,,,VFR,,,,,,,,,,,,METAR,209.0
KLDM 060915Z AUTO 13007KT 10SM CLR 14/04 A3013 RMK AO2 T01390037,KLDM,2023-05-06T09:15:00Z,43.97,-86.4,13.9,3.7,130,7,,10.0,30.129921,,,TRUE,TRUE,,,,,,,CLR,,,,,,,,VFR,,,,,,,,,,,,METAR,194.0
KLCQ 060915Z AUTO 00000KT 10SM OVC050 19/16 A3011 RMK AO2,KLCQ,2023-05-06T09:15:00Z,30.18,-82.58,19.0,16.0,0,0,,10.0,30.109253,,,TRUE,TRUE,,,,,,,OVC,5000,,,,,,,VFR,,,,,,,,,,,,METAR,59.0
KLCG 060915Z AUTO 32014G26KT 10SM RA SCT017 SCT055 OVC095 15/13 A2978 RMK AO2 LTG DSNT E AND SE P0002 T01500133,KLCG,2023-05-06T09:15:00Z,42.25,-96.98,15.0,13.3,320,14,26,10.0,29.778543,,,TRUE,TRUE,,,,,,RA,SCT,1700,SCT,5500,OVC,9500,,,VFR,,,,,,0.02,,,,,,METAR,434.0
KLBO 060915Z AUTO 15010KT 5SM BR OVC004 15/15 A2996 RMK AO2,KLBO,2023-05-06T09:15:00Z,37.65,-92.65,15.0,15.0,150,10,,5.0,29.958662,,,TRUE,TRUE,,,,,,BR,OVC,400,,,,,,,LIFR,,,,,,,,,,,,METAR,399.0
KLBE 060915Z AUTO 34004KT 10SM CLR 06/04 A3027 RMK AO2,KLBE,2023-05-06T09:15:00Z,40.27,-79.4,6.0,4.0,340,4,,10.0,30.268702,,,TRUE,TRUE,,,,,,,CLR,,,,,,,,VFR,,,,,,,,,,,,METAR,345.0
KLAM 060915Z AUTO 26010G20KT 10SM CLR 10/M10 A3008 RMK AO2 T00991098 $,KLAM,2023-05-06T09:15:00Z,35.87,-106.27,9.9,-9.8,260,10,20,10.0,30.079725,,,TRUE,TRUE,TRUE,,,,,,CLR,,,,,,,,VFR,,,,,,,,,,,,METAR,2166.0
KLAL 060915Z AUTO 09005KT 10SM OVC043 23/17 A3008 RMK AO2 T02250165,KLAL,2023-05-06T09:15:00Z,27.98,-82.02,22.5,16.5,90,5,,10.0,30.079725,,,TRUE,TRUE,,,,,,,OVC,4300,,,,,,,VFR,,,,,,,,,,,,METAR,39.0
KL35 060915Z AUTO 28008KT 10SM CLR 00/M02 A3006 RMK AO2,KL35,2023-05-06T09:15:00Z,34.27,-116.85,0.0,-2.0,280,8,,10.0,30.059055,,,TRUE,TRUE,,,,,,,CLR,,,,,,,,VFR,,,,,,,,,,,,METAR,2062.0
KL08 060915Z AUTO 31004KT 10SM CLR 12/03 A2995 RMK AO2,KL08,2023-05-06T09:15:00Z,33.27,-116.32,12.0,3.0,310,4,,10.0,29.949802,,,TRUE,TRUE,,,,,,,CLR,,,,,,,,VFR,,,,,,,,,,,,METAR,156.0
KKY8 060915Z AUTO 15006G13KT 10SM BKN060 OVC075 16/12 A3013 RMK A01,KKY8,2023-05-06T09:15:00Z,37.95,-86.87,16.0,12.0,150,6,13,10.0,30.129921,,,TRUE,TRUE,,,,,,,BKN,6000,OVC,7500,,,,,VFR,,,,,,,,,,,,METAR,124.0
KKNB 060915Z AUTO 00000KT 10SM CLR 01/M04 A3006 RMK A01,KKNB,2023-05-06T09:15:00Z,37.02,-112.53,1.0,-4.0,0,0,,10.0,30.059055,,,TRUE,TRUE,,,,,,,CLR,,,,,,,,VFR,,,,,,,,,,,,METAR,1476.0
KK88 060915Z AUTO 14009KT 4SM OVC006 18/18 A2983 RMK AO1 T01820180,KK88,2023-05-06T09:15:00Z,37.87,-95.38,18.2,18.0,140,9,,4.0,29.828741,,,TRUE,TRUE,,,,,,,OVC,600,,,,,,,IFR,,,,,,,,,,,,METAR,308.0
KK82 060915Z AUTO 06012G17KT 10SM SCT016 SCT036 BKN046 16/14 A2973 RMK AO2 T01640141,KK82,2023-05-06T09:15:00Z,39.77,-98.8,16.4,14.1,60,12,17,10.0,29.731298,,,TRUE,TRUE,,,,,,,SCT,1600,SCT,3600,BKN,4600,,,VFR,,,,,,,,,,,,SPECI,548.0
KK62 060915Z AUTO 18006KT 10SM CLR 11/03 A3018 RMK AO2,KK62,2023-05-06T09:15:00Z,38.7,-84.4,11.0,3.0,180,6,,10.0,30.180119,,,TRUE,TRUE,,,,,,,CLR,,,,,,,,VFR,,,,,,,,,,,,METAR,274.0
KJZP 060915Z AUTO 13006KT 10SM BKN046 BKN055 OVC110 14/10 A3021 RMK AO2 T01360105,KJZP,2023-05-06T09:15:00Z,34.45,-84.47,13.6,10.5,130,6,,10.0,30.209646,,,TRUE,TRUE,,,,,,,BKN,4600,BKN,5500,OVC,11000,,,VFR,,,,,,,,,,,,METAR,462.0
KJZI 060915Z AUTO 00000KT 10SM FEW055 FEW065 OVC085 18/17 A3019 RMK AO2,KJZI,2023-05-06T09:15:00Z,32.7,-80.0,18.0,17.0,0,0,,10.0,30.188976,,,TRUE,TRUE,,,,,,,FEW,5500,FEW,6500,OVC,8500,,,VFR,,,,,,,,,,,,METAR,5.0
KJYR 060915Z AUTO 06009KT 10SM OVC035 14/11 A2980 RMK AO2,KJYR,2023-05-06T09:15:00Z,40.9,-97.62,14.0,11.0,60,9,,10.0,29.799213,,,TRUE,TRUE,,,,,,,OVC,3500,,,,,,,VFR,,,,,,,,,,,,METAR,508.0
KJYO 060915Z AUTO 00000KT 10SM CLR 07/06 A3030 RMK AO2,KJYO,2023-05-06T09:15:00Z,39.07,-77.57,7.0,6.0,0,0,,10.0,30.301182,,,TRUE,TRUE,,,,,,,CLR,,,,,,,,VFR,,,,,,,,,,,,METAR,112.0
KJYM 060915Z AUTO 10008KT 10SM CLR 10/04 A3022 RMK AO2 T00960041,KJYM,2023-05-06T09:15:00Z,41.92,-84.58,9.6,4.1,100,8,,10.0,30.221457,,,TRUE,TRUE,,,,,,,CLR,,,,,,,,VFR,,,,,,,,,,,,METAR,357.0
KJYL 060915Z AUTO 09003KT 10SM OVC090 17/14 A3019 RMK AO2 T01680143,KJYL,2023-05-06T09:15:00Z,32.65,-81.6,16.8,14.3,90,3,,10.0,30.188976,,,TRUE,TRUE,,,,,,,OVC,9000,,,,,,,VFR,,,,,,,,,,,,METAR,54.0
KJWY 060915Z AUTO 18003KT 10SM CLR 21/14 A2987 RMK AO2 T02130135,KJWY,2023-05-06T09:15:00Z,32.45,-96.92,21.3,13.5,180,3,,10.0,29.870079,,,TRUE,TRUE,,,,,,,CLR,,,,,,,,VFR,,,,,,,,,,,,METAR,211.0
KJWN 060915Z AUTO 08005KT 10SM SCT034 BKN055 OVC075 15/11 A3011 RMK AO2,KJWN,2023-05-06T09:15:00Z,36.18,-86.88,15.0,11.0,80,5,,10.0,30.109253,,,TRUE,TRUE,,,,,,,SCT,3400,BKN,5500,OVC,7500,,,VFR,,,,,,,,,,,,METAR,149.0
KJWG 060915Z AUTO 19012G19KT 10SM CLR 21/13 A2979 RMK AO2 T02100130,KJWG,2023-05-06T09:15:00Z,35.87,-98.42,21.0,13.0,190,12,19,10.0,29.790354,,,TRUE,TRUE,,,,,,,CLR,,,,,,,,VFR,,,,,,,,,,,,METAR,469.0
KJVY 060915Z AUTO 00000KT 10SM CLR 12/12 A3011 RMK AO2 PWINO,KJVY,2023-05-06T09:15:00Z,38.37,-85.73,12.0,12.0,0,0,,10.0,30.109253,,,TRUE,TRUE,,,,,TRUE,,CLR,,,,,,,,VFR,,,,,,,,,,,,METAR,141.0
KJVW 060915Z AUTO 12005KT 10SM OVC009 21/21 A3002 RMK AO2,KJVW,2023-05-06T09:15:00Z,32.3,-90.42,21.0,21.0,120,5,,10.0,30.02067,,,TRUE,TRUE,,,,,,,OVC,900,,,,,,,IFR,,,,,,,,,,,,METAR,73.0
KJVL 060915Z AUTO 12004KT 10SM RA SCT050 SCT075 OVC085 14/11 A3005 RMK AO2 P0001,KJVL,2023-05-06T09:15:00Z,42.62,-89.05,14.0,11.0,120,4,,10.0,30.050198,,,TRUE,TRUE,,,,,,RA,SCT,5000,SCT,7500,OVC,8500,,,VFR,,,,,,0.01,,,,,,METAR,244.0
KJTC 060915Z AUTO 00000KT 10SM CLR 04/M06 A3012 RMK AO2,KJTC,2023-05-06T09:15:00Z,34.13,-109.32,4.0,-6.0,0,0,,10.0,30.121063,,,TRUE,TRUE,,,,,,,CLR,,,,,,,,VFR,,,,,,,,,,,,METAR,2148.0
KJSV 060915Z AUTO 11008KT 8SM BKN021 20/20 A2986 RMK AO2,KJSV,2023-05-06T09:15:00Z,35.43,-94.8,20.0,20.0,110,8,,8.0,29.861221,,,TRUE,TRUE,,,,,,,BKN,2100,,,,,,,MVFR,,,,,,,,,,,,METAR,158.0
KJSO 060915Z AUTO 17006KT 10SM CLR 23/14 A2986 RMK AO2 T02320141 TSNO,KJSO,2023-05-06T09:15:00Z,31.87,-95.22,23.2,14.1,170,6,,10.0,29.861221,,,TRUE,TRUE,,,TRUE,,,,CLR,,,,,,,,VFR,,,,,,,,,,,,METAR,204.0
KJRO 060915Z AUTO 00000KT 10SM CLR 05/04 A3022 RMK AO2,KJRO,2023-05-06T09:15:00Z,38.98,-82.58,5.0,4.0,0,0,,10.0,30.221457,,,TRUE,TRUE,,,,,,,CLR,,,,,,,,VFR,,,,,,,,,,,,METAR,224.0
KJPX 060915Z AUTO 31003KT 10SM CLR 07/07 A3021 RMK AO2 T00650065,KJPX,2023-05-06T09:15:00Z,40.95,-72.25,6.5,6.5,310,3,,10.0,30.209646,,,TRUE,TRUE,,,,,,,CLR,,,,,,,,VFR,,,,,,,,,,,,METAR,10.0
KJOT 060915Z AUTO 12005KT 10SM -DZ OVC080 16/09 A3008 RMK AO2 T01550090,KJOT,2023-05-06T09:15:00Z,41.52,-88.18,15.5,9.0,120,5,,10.0,30.079725,,,TRUE,TRUE,,,,,,-DZ,OVC,8000,,,,,,,VFR,,,,,,,,,,,,METAR,175.0
KJMR 060915Z AUTO 05003KT 10SM OVC018 07/04 A3003 RMK AO2,KJMR,2023-05-06T09:15:00Z,45.88,-93.27,7.0,4.0,50,3,,10.0,30.029528,,,TRUE,TRUE,,,,,,,OVC,1800,,,,,,,MVFR,,,,,,,,,,,,METAR,301.0
KJKJ 060915Z AUTO 08007KT 10SM OVC090 09/07 A2994 RMK AO2 TSNO,KJKJ,2023-05-06T09:15:00Z,46.83,-96.67,9.0,7.0,80,7,,10.0,29.940945,,,TRUE,TRUE,,,TRUE,,,,OVC,9000,,,,,,,VFR,,,,,,,,,,,,METAR,280.0
KJKA 060915Z AUTO 09004KT 9SM BKN018 BKN031 06/06 A3005 RMK AO2,KJKA,2023-05-06T09:15:00Z,30.28,-87.67,6.0,6.0,90,4,,9.0,30.050198,,,TRUE,TRUE,,,,,,,BKN,1800,BKN,3100,,,,,MVFR,,,,,,,,,,,,METAR,5.0
KJFZ 060915Z AUTO 00000KT 10SM CLR 11/07 A3024 RMK AO2 T01130072,KJFZ,2023-05-06T09:15:00Z,37.07,-81.8,11.3,7.2,0,0,,10.0,30.239174,,,TRUE,TRUE,,,,,,,CLR,,,,,,,,VFR,,,,,,,,,,,,METAR,809.0
KJFX 060915Z AUTO 00000KT 10SM OVC028 15/15 A3012 RMK AO2,KJFX,2023-05-06T09:15:00Z,33.9,-87.32,15.0,15.0,0,0,,10.0,30.121063,,,TRUE,TRUE,,,,,,,OVC,2800,,,,,,,MVFR,,,,,,,,,,,,SPECI,144.0
KJES 060915Z AUTO 00000KT 10SM SCT045 OVC080 18/17 A3018 RMK AO2,KJES,2023-05-06T09:15:00Z,31.55,-81.88,18.0,17.0,0,0,,10.0,30.180119,,,TRUE,TRUE,,,,,,,SCT,4500,OVC,8000,,,,,VFR,,,,,,,,,,,,SPECI,26.0
KJDD 060915Z AUTO 00000KT 10SM CLR 22/19 A2986 RMK AO2,KJDD,2023-05-06T09:15:00Z,32.75,-95.5,22.0,19.0,0,0,,10.0,29.861221,,,TRUE,TRUE,,,,,,,CLR,,,,,,,,VFR,,,,,,,,,,,,METAR,127.0
KJCA 060915Z AUTO 06005KT 10SM -RA OVC110 13/ A3021 RMK AO2 T0133////,KJCA,2023-05-06T09:15:00Z,34.18,-83.57,13.3,,60,5,,10.0,30.209646,,,TRUE,TRUE,,,,,,-RA,OVC,11000,,,,,,,VFR,,,,,,,,,,,,SPECI,287.0
KJAS 060915Z AUTO 14007KT 5SM VCTS RA BR FEW003 SCT035 BKN043 20/20 A2992 RMK AO2 LTG DSNT ALQDS,KJAS,2023-05-06T09:15:00Z,30.88,-94.03,20.0,20.0,140,7,,5.0,29.920275,,,TRUE,TRUE,,,,,,VCTS RA BR,FEW,300,SCT,3500,BKN,4300,,,MVFR,,,,,,,,,,,,METAR,60.0
KJAQ 060915Z AUTO 00000KT 1/2SM OVC003 09/09 A3006 RMK AO1 T00850085,KJAQ,2023-05-06T09:15:00Z,38.37,-120.8,8.5,8.5,0,0,,0.5,30.059055,,,TRUE,TRUE,,,,,,,OVC,300,,,,,,,LIFR,,,,,,,,,,,,METAR,518.0
KIZA 060915Z AUTO 00000KT 1/4SM FG OVC002 08/08 A3010 RMK AO2,KIZA,2023-05-06T09:15:00Z,34.6,-120.07,8.0,8.0,0,0,,0.25,30.100393,,,TRUE,TRUE,,,,,,FG,OVC,200,,,,,,,LIFR,,,,,,,,,,,,SPECI,200.0
KIYA 060915Z AUTO 15008KT 10SM OVC008 25/22 A2998 RMK AO2 T02500223,KIYA,2023-05-06T09:15:00Z,29.98,-92.08,25.0,22.3,150,8,,10.0,29.97933,,,TRUE,TRUE,,,,,,,OVC,800,,,,,,,IFR,,,,,,,,,,,,METAR,4.0
KIWA 060915Z AUTO 00000KT 10SM CLR 16/01 A2996 RMK AO2 T01640006,KIWA,2023-05-06T09:15:00Z,33.3,-111.65,16.4,0.6,0,0,,10.0,29.958662,,,TRUE,TRUE,,,,,,,CLR,,,,,,,,VFR,,,,,,,,,,,,METAR,420.0
KISQ 060915Z AUTO 07005KT 10SM OVC070 08/06 A3017 RMK AO2 T00810062,KISQ,2023-05-06T09:15:00Z,45.97,-86.17,8.1,6.2,70,5,,10.0,30.171259,,,TRUE,TRUE,,,,,,,OVC,7000,,,,,,,VFR,,,,,,,,,,,,METAR,206.0
KIRS 060915Z AUTO 13008KT 10SM CLR 11/00 A3018 RMK AO2 T01060004,KIRS,2023-05-06T09:15:00Z,41.8,-85.43,10.6,0.4,130,8,,10.0,30.180119,,,TRUE,TRUE,,,,,,,CLR,,,,,,,,VFR,,,,,,,,,,,,SPECI,282.0
KIPT 060915Z AUTO 32003KT 10SM OVC004 04/03 A3031 RMK AO2 T00390028,KIPT,2023-05-06T09:15:00Z,41.25,-76.92,3.9,2.8,320,3,,10.0,30.31004,,,TRUE,TRUE,,,,,,,OVC,400,,,,,,,LIFR,,,,,,,,,,,,SPECI,160.0
KIOB 060915Z AUTO 00000KT 10SM CLR 08/05 A3020 RMK AO2 PWINO,KIOB,2023-05-06T09:15:00Z,38.05,-83.98,8.0,5.0,0,0,,10.0,30.200787,,,TRUE,TRUE,,,,,TRUE,,CLR,,,,,,,,VFR,,,,,,,,,,,,METAR,301.0
KINJ 060915Z AUTO 00000KT 10SM CLR 19/13 A2986 RMK AO2 T01850126,KINJ,2023-05-06T09:15:00Z,32.08,-97.1,18.5,12.6,0,0,,10.0,29.861221,,,TRUE,TRUE,,,,,,,CLR,,,,,,,,VFR,,,,,,,,,,,,METAR,208.0
KINF 060915Z AUTO 06003KT 7SM OVC043 20/17 A3010 RMK AO2,KINF,2023-05-06T09:15:00Z,28.8,-82.32,20.0,17.0,60,3,,7.0,30.100393,,,TRUE,TRUE,,,,,,,OVC,4300,,,,,,,VFR,,,,,,,,,,,,METAR,14.0
KIMS 060915Z AUTO 00000KT 10SM OVC095 12/08 A3017 RMK AO2,KIMS,2023-05-06T09:15:00Z,38.75,-85.47,12.0,8.0,0,0,,10.0,30.171259,,,TRUE,TRUE,,,,,,,OVC,9500,,,,,,,VFR,,,,,,,,,,,,SPECI,244.0
KIMM 060915Z AUTO 36003KT 10SM SCT042 BKN047 BKN060 A3005 RMK AO2,KIMM,2023-05-06T09:15:00Z,26.43,-81.4,,,360,3,,10.0,30.050198,,,TRUE,TRUE,,,,,,,SCT,4200,BKN,4700,BKN,6000,,,VFR,,,,,,,,,,,,METAR,11.0
KIKW 060915Z AUTO 12004KT 10SM CLR 10/05 A3023 RMK AO2 T00980045,KIKW,2023-05-06T09:15:00Z,43.67,-84.27,9.8,4.5,120,4,,10.0,30.230314,,,TRUE,TRUE,,,,,,,CLR,,,,,,,,VFR,,,,,,,,,,,,METAR,190.0
KIKV 060915Z AUTO 13004KT 10SM BKN050 14/13 A2988 RMK AO2,KIKV,2023-05-06T09:15:00Z,41.68,-93.57,14.0,13.0,130,4,,10.0,29.878937,,,TRUE,TRUE,,,,,,,BKN,5000,,,,,,,VFR,,,,,,,,,,,,METAR,270.0
KIKK 060915Z AUTO 13005KT 10SM OVC080 14/08 A3009 RMK AO2 T01420075 PWINO,KIKK,2023-05-06T09:15:00Z,41.07,-87.85,14.2,7.5,130,5,,10.0,30.088583,,,TRUE,TRUE,,,,,TRUE,,OVC,8000,,,,,,,VFR,,,,,,,,,,,,METAR,188.0
KIKG 060915Z AUTO 09007KT 5SM BR OVC016 25/24 A2988 RMK AO2 T02450235,KIKG,2023-05-06T09:15:00Z,27.55,-98.03,24.5,23.5,90,7,,5.0,29.878937,,,TRUE,TRUE,,,,,,BR,OVC,1600,,,,,,,MVFR,,,,,,,,,,,,METAR,37.0
KIJX 060915Z AUTO 15007KT 10SM OVC024 16/11 A3001 RMK AO2 T01550111,KIJX,2023-05-06T09:15:00Z,39.77,-90.25,15.5,11.1,150,7,,10.0,30.008858,,,TRUE,TRUE,,,,,,,OVC,2400,,,,,,,MVFR,,,,,,,,,,,,METAR,187.0
KIIY 060915Z AUTO 00000KT 10SM OVC080 14/14 A3021 RMK AO2 T01400137,KIIY,2023-05-06T09:15:00Z,33.78,-82.82,14.0,13.7,0,0,,10.0,30.209646,,,TRUE,TRUE,,,,,,,OVC,8000,,,,,,,VFR,,,,,,,,,,,,METAR,192.0
KIIB 060915Z AUTO 12013KT 10SM SCT031 OVC048 13/12 A2995 RMK AO2 T01290121,KIIB,2023-05-06T09:15:00Z,42.45,-91.95,12.9,12.1,120,13,,10.0,29.949802,,,TRUE,TRUE,,,,,,,SCT,3100,OVC,4800,,,,,VFR,,,,,,,,,,,,METAR,294.0
KIGQ 060915Z AUTO 14006KT 10SM OVC110 16/06 A3010 RMK AO2 T01550063,KIGQ,2023-05-06T09:15:00Z,41.53,-87.53,15.5,6.3,140,6,,10.0,30.100393,,,TRUE,TRUE,,,,,,,OVC,11000,,,,,,,VFR,,,,,,,,,,,,METAR,187.0
KIFP 060915Z AUTO 16010KT 10SM CLR 20/00 A2989 RMK AO2,KIFP,2023-05-06T09:15:00Z,35.15,-114.57,20.0,0.0,160,10,,10.0,29.890747,,,TRUE,TRUE,,,,,,,CLR,,,,,,,,VFR,,,,,,,,,,,,SPECI,210.0
KIFA 060915Z AUTO 10007KT 10SM SCT060 SCT100 14/13 A2991 RMK AO2 T01350131,KIFA,2023-05-06T09:15:00Z,42.47,-93.27,13.5,13.1,100,7,,10.0,29.911417,,,TRUE,TRUE,,,,,,,SCT,6000,SCT,10000,,,,,VFR,,,,,,,,,,,,SPECI,344.0
KIER 060915Z AUTO 15006KT 7SM SCT019 BKN038 OVC044 24/23 A2995 RMK AO2 LTG DSNT S AND SW T02350231,KIER,2023-05-06T09:15:00Z,31.73,-93.1,23.5,23.1,150,6,,7.0,29.949802,,,TRUE,TRUE,,,,,,,SCT,1900,BKN,3800,OVC,4400,,,VFR,,,,,,,,,,,,METAR,35.0
KIDP 060915Z AUTO 17014G20KT 5SM BR OVC008 20/19 A2981 RMK AO2 T02030191,KIDP,2023-05-06T09:15:00Z,37.17,-95.78,20.3,19.1,170,14,20,5.0,29.811024,,,TRUE,TRUE,,,,,,BR,OVC,800,,,,,,,IFR,,,,,,,,,,,,METAR,252.0
KIBM 060915Z AUTO 00000KT 10SM CLR 02/02 A2988 RMK AO2 T00200016,KIBM,2023-05-06T09:15:00Z,41.18,-103.68,2.0,1.6,0,0,,10.0,29.878937,,,TRUE,TRUE,,,,,,,CLR,,,,,,,,VFR,,,,,,,,,,,,METAR,1494.0
KI95 060915Z AUTO 14003KT 10SM FEW047 09/06 A3020 RMK A01,KI95,2023-05-06T09:15:00Z,,,9.0,6.0,140,3,,10.0,30.200787,,,TRUE,TRUE,,,,,,,FEW,4700,,,,,,,VFR,,,,,,,,,,,,METAR,
KI75 060915Z AUTO 17011G15KT 10SM OVC012 16/14 A2987 RMK AO2 T01610141,KI75,2023-05-06T09:15:00Z,41.05,-93.68,16.1,14.1,170,11,15,10.0,29.870079,,,TRUE,TRUE,,,,,,,OVC,1200,,,,,,,MVFR,,,,,,,,,,,,METAR,336.0
KI74 060915Z AUTO 10003KT 10SM CLR 10/05 A3021 RMK AO2,KI74,2023-05-06T09:15:00Z,40.12,-83.75,10.0,5.0,100,3,,10.0,30.209646,,,TRUE,TRUE,,,,,,,CLR,,,,,,,,VFR,,,,,,,,,,,,METAR,322.0
KI69 060915Z AUTO 00000KT 10SM CLR 09/05 A3020 RMK AO2 T00860054,KI69,2023-05-06T09:15:00Z,39.08,-84.22,8.6,5.4,0,0,,10.0,30.200787,,,TRUE,TRUE,,,,,,,CLR,,,,,,,,VFR,,,,,,,,,,,,METAR,238.0
KI68 060915Z AUTO 10003KT 10SM 12/05 A3020 RMK AO1 T01170047,KI68,2023-05-06T09:15:00Z,39.47,-84.25,11.7,4.7,100,3,,10.0,30.200787,,,TRUE,TRUE,,,,,,,,,,,,,,,,,,,,,,,,,,,METAR,274.0
KI67 060915Z AUTO 00000KT 10SM CLR 06/05 A3019 RMK AO1,KI67,2023-05-06T09:15:00Z,39.25,-84.78,6.0,5.0,0,0,,10.0,30.188976,,,TRUE,TRUE,,,,,,,CLR,,,,,,,,VFR,,,,,,,,,,,,METAR,177.0
KI63 060915Z AUTO 15005KT 10SM OVC019 15/11 A2999 RMK AO2 T01510114,KI63,2023-05-06T09:15:00Z,39.98,-90.8,15.1,11.4,150,5,,10.0,29.991142,,,TRUE,TRUE,,,,,,,OVC,1900,,,,,,,MVFR,,,,,,,,,,,,METAR,221.0
KI23 060915Z AUTO 07004KT 10SM CLR 09/04 A3021 RMK AO1,KI23,2023-05-06T09:15:00Z,39.57,-83.42,9.0,4.0,70,4,,10.0,30.209646,,,TRUE,TRUE,,,,,,,CLR,,,,,,,,VFR,,,,,,,,,,,,METAR,298.0
KI19 060915Z AUTO VRB04KT 10SM CLR 11/05 A3019 RMK AO2,KI19,2023-05-06T09:15:00Z,39.7,-83.98,11.0,5.0,0,4,,10.0,30.188976,,,TRUE,TRUE,,,,,,,CLR,,,,,,,,VFR,,,,,,,,,,,,METAR,285.0
KHZX 060915Z AUTO 08007KT 10SM OVC006 06/05 A3003 RMK AO2,KHZX,2023-05-06T09:15:00Z,46.62,-93.32,6.0,5.0,80,7,,10.0,30.029528,,,TRUE,TRUE,,,,,,,OVC,600,,,,,,,IFR,,,,,,,,,,,,METAR,374.0
KHZR 060915Z AUTO 12003KT 7SM OVC015 23/23 A2998 RMK AO2 T02330227,KHZR,2023-05-06T09:15:00Z,30.72,-91.48,23.3,22.7,120,3,,7.0,29.97933,,,TRUE,TRUE,,,,,,,OVC,1500,,,,,,,MVFR,,,,,,,,,,,,SPECI,11.0
KHZL 060915Z AUTO 00000KT 02/01 A3031 RMK AO2 PWINO,KHZL,2023-05-06T09:15:00Z,40.98,-76.0,2.0,1.0,0,0,,,30.31004,,,TRUE,TRUE,,,,,TRUE,,,,,,,,,,,,,,,,,,,,,,METAR,481.0
KHZE 060915Z AUTO 06005KT 10SM CLR 06/05 A2992 RMK AO2,KHZE,2023-05-06T09:15:00Z,47.28,-101.58,6.0,5.0,60,5,,10.0,29.920275,,,TRUE,TRUE,,,,,,,CLR,,,,,,,,VFR,,,,,,,,,,,,METAR,542.0
KHZD 060915Z AUTO 14004KT 10SM OVC070 14/13 A3007 RMK A01,KHZD,2023-05-06T09:15:00Z,36.08,-88.47,14.0,13.0,140,4,,10.0,30.070866,,,TRUE,TRUE,,,,,,,OVC,7000,,,,,,,VFR,,,,,,,,,,,,METAR,147.0
KHYX 060915Z AUTO 14007KT 10SM CLR 09/07 A3025 RMK AO2 T00940065,KHYX,2023-05-06T09:15:00Z,43.43,-83.87,9.4,6.5,140,7,,10.0,30.250984,,,TRUE,TRUE,,,,,,,CLR,,,,,,,,VFR,,,,,,,,,,,,METAR,181.0
KHYW 060915Z AUTO 00000KT 10SM CLR 11/10 A3022 RMK AO2,KHYW,2023-05-06T09:15:00Z,33.83,-79.12,11.0,10.0,0,0,,10.0,30.221457,,,TRUE,TRUE,,,,,,,CLR,,,,,,,,VFR,,,,,,,,,,,,METAR,10.0
KHXD 060915Z AUTO 00000KT 10SM SCT060 BKN100 18/17 A3019 RMK AO2,KHXD,2023-05-06T09:15:00Z,32.22,-80.7,18.0,17.0,0,0,,10.0,30.188976,,,TRUE,TRUE,,,,,,,SCT,6000,BKN,10000,,,,,VFR,,,,,,,,,,,,METAR,5.0
KHWY 060915Z AUTO 00000KT 3/4SM BR VV005 06/05 A3028 RMK AO2 T00630050,KHWY,2023-05-06T09:15:00Z,38.58,-77.72,6.3,5.0,0,0,,0.75,30.280512,,,TRUE,TRUE,,,,,,BR,OVX,0,,,,,,,LIFR,,,,,,,,,,,500,METAR,93.0
KHVS 060915Z AUTO 00000KT 10SM FEW050 OVC060 12/11 A3022 RMK AO2,KHVS,2023-05-06T09:15:00Z,34.4,-80.12,12.0,11.0,0,0,,10.0,30.221457,,,TRUE,TRUE,,,,,,,FEW,5000,OVC,6000,,,,,VFR,,,,,,,,,,,,METAR,110.0
KHVE 060915Z AUTO 00000KT 10SM CLR 08/M05 A3000 RMK AO2,KHVE,2023-05-06T09:15:00Z,38.42,-110.7,8.0,-5.0,0,0,,10.0,30.0,,,TRUE,TRUE,,,,,,,CLR,,,,,,,,VFR,,,,,,,,,,,,METAR,1351.0
KHVC 060915Z AUTO 00000KT 10SM OVC044 15/12 A3011 RMK AO2,KHVC,2023-05-06T09:15:00Z,,,15.0,12.0,0,0,,10.0,30.109253,,,TRUE,TRUE,,,,,,,OVC,4400,,,,,,,VFR,,,,,,,,,,,,SPECI,
KHUM 060915Z AUTO 15004KT 4SM BR BKN008 25/24 A3000 RMK AO2 T02470236,KHUM,2023-05-06T09:15:00Z,29.57,-90.67,24.7,23.6,150,4,,4.0,30.0,,,TRUE,TRUE,,,,,,BR,BKN,800,,,,,,,IFR,,,,,,,,,,,,METAR,1.0
KHTH 060915Z AUTO 02010KT 10SM BKN031 OVC037 06/03 A2999 RMK A01,KHTH,2023-05-06T09:15:00Z,38.55,-118.63,6.0,3.0,20,10,,10.0,29.991142,,,TRUE,TRUE,,,,,,,BKN,3100,OVC,3700,,,,,VFR,,,,,,,,,,,,METAR,1281.0
KHSP 060915Z AUTO 11006KT 10SM CLR 08/02 A3028 RMK AO2 T00760022,KHSP,2023-05-06T09:15:00Z,37.95,-79.82,7.6,2.2,110,6,,10.0,30.280512,,,TRUE,TRUE,,,,,,,CLR,,,,,,,,VFR,,,,,,,,,,,,SPECI,1148.0
KHSG 060915Z AUTO 00000KT 10SM CLR 01/00 A2985 RMK AO2 T00110004,KHSG,2023-05-06T09:15:00Z,43.72,-108.38,1.1,0.4,0,0,,10.0,29.84941,,,TRUE,TRUE,,,,,,,CLR,,,,,,,,VFR,,,,,,,,,,,,METAR,1497.0
KHSD 060915Z AUTO 18014G20KT 10SM CLR 23/18 A2977 RMK A01,KHSD,2023-05-06T09:15:00Z,35.6,-97.72,23.0,18.0,180,14,20,10.0,29.769686,,,TRUE,TRUE,,,,,,,CLR,,,,,,,,VFR,,,,,,,,,,,,METAR,358.0
KHSB 060915Z AUTO 00000KT 10SM CLR 13/13 A3008 RMK AO2 T01280128,KHSB,2023-05-06T09:15:00Z,37.82,-88.55,12.8,12.8,0,0,,10.0,30.079725,,,TRUE,TRUE,,,,,,,CLR,,,,,,,,VFR,,,,,,,,,,,,METAR,118.0
KHRX 060915Z AUTO 27010KT 10SM CLR 11/M04 A2991 RMK AO2 T01051038,KHRX,2023-05-06T09:15:00Z,34.87,-102.33,10.5,-3.8,270,10,,10.0,29.911417,,,TRUE,TRUE,,,,,,,CLR,,,,,,,,VFR,,,,,,,,,,,,METAR,1153.0
KHQZ 060915Z AUTO 00000KT 10SM CLR 21/12 A2983 RMK AO1 T02070123,KHQZ,2023-05-06T09:15:00Z,32.75,-96.53,20.7,12.3,0,0,,10.0,29.828741,,,TRUE,TRUE,,,,,,,CLR,,,,,,,,VFR,,,,,,,,,,,,METAR,136.0
KHQU 060915Z AUTO 31003KT 10SM OVC085 15/14 A3021 RMK AO2 T01500143,KHQU,2023-05-06T09:15:00Z,33.53,-82.52,15.0,14.3,310,3,,10.0,30.209646,,,TRUE,TRUE,,,,,,,OVC,8500,,,,,,,VFR,,,,,,,,,,,,METAR,141.0
KHQG 060915Z AUTO 30010KT 10SM CLR 13/00 A2980 RMK AO2 T01280002,KHQG,2023-05-06T09:15:00Z,37.17,-101.37,12.8,0.2,300,10,,10.0,29.799213,,,TRUE,TRUE,,,,,,,CLR,,,,,,,,VFR,,,,,,,,,,,,METAR,956.0
KHQG 060915Z AUTO 30010KT 10SM CLR 13/00 A2980 RMK AO2 T01280002,KHQG,2023-05-06T09:15:00Z,37.17,-101.37,12.8,0.2,300,10,,10.0,29.799213,,,TRUE,TRUE,,,,,,,CLR,,,,,,,,VFR,,,,,,,,,,,,METAR,956.0
KHPT 060915Z AUTO 13011KT 10SM SCT049 BKN070 BKN100 13/12 A2989 RMK AO2,KHPT,2023-05-06T09:15:00Z,42.72,-93.23,13.0,12.0,130,11,,10.0,29.890747,,,TRUE,TRUE,,,,,,,SCT,4900,BKN,7000,BKN,10000,,,VFR,,,,,,,,,,,,METAR,354.0
KHOE 060915Z AUTO 07003KT 10SM SCT060 OVC100 19/17 A3013 RMK AO2 T01920171,KHOE,2023-05-06T09:15:00Z,31.05,-82.78,19.2,17.1,70,3,,10.0,30.129921,,,TRUE,TRUE,,,,,,,SCT,6000,OVC,10000,,,,,VFR,,,,,,,,,,,,METAR,56.0
KHOB 060915Z AUTO 23004KT 10SM CLR 15/M04 A2994 RMK AO2,KHOB,2023-05-06T09:15:00Z,32.67,-103.22,15.0,-4.0,230,4,,10.0,29.940945,,,TRUE,TRUE,,,,,,,CLR,,,,,,,,VFR,,,,,,,,,,,,METAR,1112.0
KHNR 060915Z AUTO 00000KT 10SM BKN023 OVC031 15/15 A2984 RMK A01,KHNR,2023-05-06T09:15:00Z,41.58,-95.33,15.0,15.0,0,0,,10.0,29.840551,,,TRUE,TRUE,,,,,,,BKN,2300,OVC,3100,,,,,MVFR,,,,,,,,,,,,METAR,364.0
KHMZ 060915Z AUTO 00000KT 7SM CLR 02/02 A3030 RMK AO2 T00210017,KHMZ,2023-05-06T09:15:00Z,40.08,-78.52,2.1,1.7,0,0,,7.0,30.301182,,,TRUE,TRUE,,,,,,,CLR,,,,,,,,VFR,,,,,,,,,,,,METAR,351.0
KHMT 060915Z AUTO 28004KT 10SM BKN025 09/ A3007 RMK AO2 T0089////,KHMT,2023-05-06T09:15:00Z,33.73,-117.02,8.9,,280,4,,10.0,30.070866,,,TRUE,TRUE,,,,,,,BKN,2500,,,,,,,MVFR,,,,,,,,,,,,METAR,462.0
KHMP 060915Z AUTO 11006KT 10SM OVC060 15/13 A3021 RMK AO2 T01460132,KHMP,2023-05-06T09:15:00Z,33.38,-84.33,14.6,13.2,110,6,,10.0,30.209646,,,TRUE,TRUE,,,,,,,OVC,6000,,,,,,,VFR,,,,,,,,,,,,METAR,263.0
KHLX 060915Z AUTO 00000KT 10SM CLR 09/06 A3024 RMK AO2 T00850058,KHLX,2023-05-06T09:15:00Z,36.77,-80.82,8.5,5.8,0,0,,10.0,30.239174,,,TRUE,TRUE,,,,,,,CLR,,,,,,,,VFR,,,,,,,,,,,,METAR,819.0
KHLB 060915Z AUTO 00000KT 10SM CLR 11/06 A3016 RMK A01,KHLB,2023-05-06T09:15:00Z,39.35,-85.27,11.0,6.0,0,0,,10.0,30.159449,,,TRUE,TRUE,,,,,,,CLR,,,,,,,,VFR,,,,,,,,,,,,SPECI,297.0
KHJH 060915Z AUTO 04009KT 7SM -RA OVC008 18/17 A2981 RMK AO2 T01790169,KHJH,2023-05-06T09:15:00Z,40.15,-97.58,17.9,16.9,40,9,,7.0,29.811024,,,TRUE,TRUE,,,,,,-RA,OVC,800,,,,,,,IFR,,,,,,,,,,,,METAR,449.0
KHHW 060915Z AUTO 12006KT 1/2SM FG OVC003 22/21 A2986 RMK AO2,KHHW,2023-05-06T09:15:00Z,34.03,-95.55,22.0,21.0,120,6,,0.5,29.861221,,,TRUE,TRUE,,,,,,FG,OVC,300,,,,,,,LIFR,,,,,,,,,,,,METAR,178.0
KHHG 060915Z AUTO 09003KT 10SM CLR 09/06 A3018 RMK AO2 T00860064,KHHG,2023-05-06T09:15:00Z,40.85,-85.45,8.6,6.4,90,3,,10.0,30.180119,,,TRUE,TRUE,,,,,,,CLR,,,,,,,,VFR,,,,,,,,,,,,METAR,247.0
KHHF 060915Z AUTO 00000KT 10SM CLR 16/00 A2978 RMK AO2 T01620000,KHHF,2023-05-06T09:15:00Z,35.9,-100.4,16.2,0.0,0,0,,10.0,29.778543,,,TRUE,TRUE,,,,,,,CLR,,,,,,,,VFR,,,,,,,,,,,,METAR,729.0
KHFY 060915Z AUTO 13004KT 10SM SCT080 15/08 A3015 RMK AO2 T01490075,KHFY,2023-05-06T09:15:00Z,39.63,-86.08,14.9,7.5,130,4,,10.0,30.15059,,,TRUE,TRUE,,,,,,,SCT,8000,,,,,,,VFR,,,,,,,,,,,,METAR,250.0
KHFJ 060915Z AUTO 12009KT 7SM OVC012 17/17 A2989 RMK AO2,KHFJ,2023-05-06T09:15:00Z,36.9,-94.02,17.0,17.0,120,9,,7.0,29.890747,,,TRUE,TRUE,,,,,,,OVC,1200,,,,,,,MVFR,,,,,,,,,,,,METAR,398.0
KHEQ 060915Z AUTO 33008KT 10SM CLR 08/07 A2984 RMK AO2,KHEQ,2023-05-06T09:15:00Z,40.57,-102.28,8.0,7.0,330,8,,10.0,29.840551,,,TRUE,TRUE,,,,,,,CLR,,,,,,,,VFR,,,,,,,,,,,,METAR,1136.0
KHEG 060915Z AUTO 00000KT 10SM SCT060 BKN080 OVC120 20/18 A3013 RMK AO2,KHEG,2023-05-06T09:15:00Z,30.28,-81.8,20.0,18.0,0,0,,10.0,30.129921,,,TRUE,TRUE,,,,,,,SCT,6000,BKN,8000,OVC,12000,,,VFR,,,,,,,,,,,,METAR,25.0
KHDL 060915Z AUTO 00000KT 10SM FEW044 FEW050 SCT070 16/15 A3011 RMK AO2,KHDL,2023-05-06T09:15:00Z,31.37,-85.32,16.0,15.0,0,0,,10.0,30.109253,,,TRUE,TRUE,,,,,,,FEW,4400,FEW,5000,SCT,7000,,,VFR,,,,,,,,,,,,METAR,109.0
KHDE 060915Z AUTO 09012KT 10SM SCT043 SCT055 SCT070 13/10 A2975 RMK AO2 T01310100,KHDE,2023-05-06T09:15:00Z,40.45,-99.33,13.1,10.0,90,12,,10.0,29.749016,,,TRUE,TRUE,,,,,,,SCT,4300,SCT,5500,SCT,7000,,,VFR,,,,,,,,,,,,METAR,703.0
KHDC 060915Z AUTO 12003KT 7SM BKN004 BKN009 OVC013 23/23 A3000 RMK AO2 T02260225,KHDC,2023-05-06T09:15:00Z,30.52,-90.42,22.6,22.5,120,3,,7.0,30.0,,,TRUE,TRUE,,,,,,,BKN,400,BKN,900,OVC,1300,,,LIFR,,,,,,,,,,,,METAR,12.0
KHCR 060915Z AUTO 7SM UP SCT014 SCT021 BKN034 03/00 A2998 RMK AO2,KHCR,2023-05-06T09:15:00Z,40.48,-111.43,3.0,0.0,,,,7.0,29.97933,,,TRUE,TRUE,,,,,,UP,SCT,1400,SCT,2100,BKN,3400,,,VFR,,,,,,,,,,,,METAR,1708.0
KHCO 060915Z AUTO 07007KT 10SM 07/04 A3005 RMK AO2,KHCO,2023-05-06T09:15:00Z,48.75,-96.93,7.0,4.0,70,7,,10.0,30.050198,,,TRUE,TRUE,,,,,,,,,,,,,,,,,,,,,,,,,,,METAR,250.0
KHCD 060915Z AUTO 06007KT 4SM DZ OVC007 13/13 A2992 RMK AO2 T01330127,KHCD,2023-05-06T09:15:00Z,44.87,-94.38,13.3,12.7,60,7,,4.0,29.920275,,,TRUE,TRUE,,,,,,DZ,OVC,700,,,,,,,IFR,,,,,,,,,,,,METAR,320.0
KHBV 060915Z AUTO 11008KT 3SM BR BKN004 OVC009 24/23 A2987 RMK AO2 T02370230,KHBV,2023-05-06T09:15:00Z,27.35,-98.73,23.7,23.0,110,8,,3.0,29.870079,,,TRUE,TRUE,,,,,,BR,BKN,400,OVC,900,,,,,LIFR,,,,,,,,,,,,METAR,200.0
KHAI 060915Z AUTO 11005KT 10SM CLR 11/03 A3019 RMK AO2 T01140033,KHAI,2023-05-06T09:15:00Z,41.97,-85.6,11.4,3.3,110,5,,10.0,30.188976,,,TRUE,TRUE,,,,,,,CLR,,,,,,,,VFR,,,,,,,,,,,,METAR,250.0
KHAF 060915Z AUTO 17007KT 9SM OVC009 12/10 A3007 RMK AO2,KHAF,2023-05-06T09:15:00Z,37.52,-122.5,12.0,10.0,170,7,,9.0,30.070866,,,TRUE,TRUE,,,,,,,OVC,900,,,,,,,IFR,,,,,,,,,,,,METAR,11.0
KHAE 060915Z AUTO 14005KT 10SM OVC019 16/12 A2997 RMK AO2,KHAE,2023-05-06T09:15:00Z,39.73,-91.45,16.0,12.0,140,5,,10.0,29.970472,,,TRUE,TRUE,,,,,,,OVC,1900,,,,,,,MVFR,,,,,,,,,,,,METAR,230.0
KGZS 060915Z AUTO 00000KT 13/13 RMK A01,KGZS,2023-05-06T09:15:00Z,35.15,-87.05,13.0,13.0,0,0,,,,,,TRUE,TRUE,,,,,,,,,,,,,,,,,,,,,,,,,,,SPECI,198.0
KGZL 060915Z AUTO 10009KT 3SM BR CLR 19/18 A2984 RMK AO2,KGZL,2023-05-06T09:15:00Z,35.28,-95.1,19.0,18.0,100,9,,3.0,29.840551,,,TRUE,TRUE,,,,,,BR,CLR,,,,,,,,MVFR,,,,,,,,,,,,METAR,176.0
KGYY 060915Z AUTO 13006KT 10SM BKN110 A3011 RMK AO2,KGYY,2023-05-06T09:15:00Z,41.62,-87.42,,,130,6,,10.0,30.109253,,,TRUE,TRUE,,,,,,,BKN,11000,,,,,,,VFR,,,,,,,,,,,,METAR,179.0
KGYL 060915Z AUTO 08008KT 5SM -RA BKN006 OVC018 13/12 A2991 RMK AO2 T01270122,KGYL,2023-05-06T09:15:00Z,44.77,-94.08,12.7,12.2,80,8,,5.0,29.911417,,,TRUE,TRUE,,,,,,-RA,BKN,600,OVC,1800,,,,,IFR,,,,,,,,,,,,METAR,304.0
KGYI 060915Z AUTO 17008KT 10SM CLR 22/14 A2984 RMK AO2 T02150137 TSNO,KGYI,2023-05-06T09:15:00Z,33.72,-96.67,21.5,13.7,170,8,,10.0,29.840551,,,TRUE,TRUE,,,TRUE,,,,CLR,,,,,,,,VFR,,,,,,,,,,,,SPECI,227.0
KGYH 060915Z AUTO 00000KT 10SM CLR 15/12 A3022 RMK A02 T01470116,KGYH,2023-05-06T09:15:00Z,34.75,-82.38,14.7,11.6,0,0,,10.0,30.221457,,,TRUE,TRUE,,,,,,,CLR,,,,,,,,VFR,,,,,,,,,,,,METAR,283.0
KGYF 060915Z AUTO 17015KT 5SM OVC015 A2990 RMK AO2 PWINO,KGYF,2023-05-06T09:15:00Z,26.13,-94.9,,,170,15,,5.0,29.899607,,,TRUE,TRUE,,,,,TRUE,,OVC,1500,,,,,,,MVFR,,,,,,,,,,,,METAR,65.0
KGYB 060915Z AUTO 19006KT 10SM CLR 19/17 A2990 RMK AO2 T01860173,KGYB,2023-05-06T09:15:00Z,30.17,-96.98,18.6,17.3,190,6,,10.0,29.899607,,,TRUE,TRUE,,,,,,,CLR,,,,,,,,VFR,,,,,,,,,,,,METAR,140.0
KGWR 060915Z AUTO 08010G18KT 10SM OVC019 11/08 A2989 RMK A01,KGWR,2023-05-06T09:15:00Z,46.22,-97.65,11.0,8.0,80,10,18,10.0,29.890747,,,TRUE,TRUE,,,,,,,OVC,1900,,,,,,,MVFR,,,,,,,,,,,,METAR,381.0
KGWB 060915Z AUTO 09005KT 10SM CLR 08/05 A3021 RMK AO2,KGWB,2023-05-06T09:15:00Z,41.3,-85.07,8.0,5.0,90,5,,10.0,30.209646,,,TRUE,TRUE,,,,,,,CLR,,,,,,,,VFR,,,,,,,,,,,,METAR,268.0
KGVT 060915Z AUTO 11006KT 10SM CLR 20/17 A2985 RMK AO2 TSNO T02000166,KGVT,2023-05-06T09:15:00Z,33.07,-96.07,20.0,16.6,110,6,,10.0,29.84941,,,TRUE,TRUE,,,TRUE,,,,CLR,,,,,,,,VFR,,,,,,,,,,,,METAR,165.0
KGVE 060915Z AUTO 00000KT 10SM BKN070 OVC085 10/08 A3027 RMK AO1 T00950082,KGVE,2023-05-06T09:15:00Z,38.15,-78.17,9.5,8.2,0,0,,10.0,30.268702,,,TRUE,TRUE,,,,,,,BKN,7000,OVC,8500,,,,,VFR,,,,,,,,,,,,METAR,138.0
KGRY 060915Z AUTO 14009G18KT 10SM FEW017 BKN045 OVC095 24/23 A3001 RMK A01,KGRY,2023-05-06T09:15:00Z,27.63,-90.45,24.0,23.0,140,9,18,10.0,30.008858,,,TRUE,TRUE,,,,,,,FEW,1700,BKN,4500,OVC,9500,,,VFR,,,,,,,,,,,,SPECI,58.0
KGRN 060915Z AUTO 29006KT 10SM CLR 08/08 A2983 RMK AO2 T00810075,KGRN,2023-05-06T09:15:00Z,42.8,-102.17,8.1,7.5,290,6,,10.0,29.828741,,,TRUE,TRUE,,,,,,,CLR,,,,,,,,VFR,,,,,,,,,,,,METAR,1080.0
KGRF 060915Z 00000KT 10SM BKN021 BKN050 OVC085 08/07 A2994 RMK AO2A CIG 019V050 SLP143 $,KGRF,2023-05-06T09:15:00Z,47.07,-122.57,8.0,7.0,0,0,,10.0,29.940945,1014.3,,,TRUE,TRUE,,,,,,BKN,2100,BKN,5000,OVC,8500,,,MVFR,,,,,,,,,,,,SPECI,91.0
KGPM 060915Z AUTO 21005KT 10SM CLR 23/12 A2984 RMK AO2 T02280123,KGPM,2023-05-06T09:15:00Z,32.7,-97.05,22.8,12.3,210,5,,10.0,29.840551,,,TRUE,TRUE,,,,,,,CLR,,,,,,,,VFR,,,,,,,,,,,,METAR,178.0
KGPH 060915Z AUTO 14005KT 10SM OVC013 17/13 A2986 RMK AO2,KGPH,2023-05-06T09:15:00Z,39.33,-94.32,17.0,13.0,140,5,,10.0,29.861221,,,TRUE,TRUE,,,,,,,OVC,1300,,,,,,,MVFR,,,,,,,,,,,,METAR,233.0
KGPC 060915Z AUTO 12004KT 10SM OVC080 14/09 A3013 RMK AO2 T01390090,KGPC,2023-05-06T09:15:00Z,39.63,-86.82,13.9,9.0,120,4,,10.0,30.129921,,,TRUE,TRUE,,,,,,,OVC,8000,,,,,,,VFR,,,,,,,,,,,,METAR,254.0
KGOO 060915Z AUTO 00000KT 1/4SM FG OVC002 05/05 A3003 RMK A01,KGOO,2023-05-06T09:15:00Z,39.22,-121.0,5.0,5.0,0,0,,0.25,30.029528,,,TRUE,TRUE,,,,,,FG,OVC,200,,,,,,,LIFR,,,,,,,,,,,,SPECI,950.0
KGNT 060915Z AUTO 00000KT 10SM CLR 03/M09 A3012 RMK AO2 T00261086,KGNT,2023-05-06T09:15:00Z,35.17,-107.9,2.6,-8.6,0,0,,10.0,30.121063,,,TRUE,TRUE,,,,,,,CLR,,,,,,,,VFR,,,,,,,,,,,,SPECI,1988.0
KGNB 060915Z AUTO 12004KT 10SM CLR M01/M06 A3002 RMK AO2 T10141060,KGNB,2023-05-06T09:15:00Z,40.08,-105.92,-1.4,-6.0,120,4,,10.0,30.02067,,,TRUE,TRUE,,,,,,,CLR,,,,,,,,VFR,,,,,,,,,,,,METAR,2500.0
KGMJ 060915Z AUTO 15006KT 5SM BR BKN013 21/20 A2985 RMK AO2,KGMJ,2023-05-06T09:15:00Z,36.6,-94.73,21.0,20.0,150,6,,5.0,29.84941,,,TRUE,TRUE,,,,,,BR,BKN,1300,,,,,,,MVFR,,,,,,,,,,,,METAR,251.0
KGLY 060915Z AUTO 14008KT 9SM BKN012 OVC021 18/16 A2988 RMK AO2,KGLY,2023-05-06T09:15:00Z,38.35,-93.68,18.0,16.0,140,8,,9.0,29.878937,,,TRUE,TRUE,,,,,,,BKN,1200,OVC,2100,,,,,MVFR,,,,,,,,,,,,METAR,247.0
KGLW 060915Z AUTO 00000KT 10SM OVC070 15/11 A3015 RMK AO2 T01470111,KGLW,2023-05-06T09:15:00Z,37.03,-85.95,14.7,11.1,0,0,,10.0,30.15059,,,TRUE,TRUE,,,,,,,OVC,7000,,,,,,,VFR,,,,,,,,,,,,METAR,216.0
KGLE 060915Z AUTO 18005KT 10SM CLR 19/12 A2984 RMK AO2 T01850121 PWINO,KGLE,2023-05-06T09:15:00Z,33.65,-97.2,18.5,12.1,180,5,,10.0,29.840551,,,TRUE,TRUE,,,,,TRUE,,CLR,,,,,,,,VFR,,,,,,,,,,,,SPECI,250.0
KGKT 060915Z AUTO 00000KT 10SM OVC110 13/12 A3020 RMK A01,KGKT,2023-05-06T09:15:00Z,35.85,-83.53,13.0,12.0,0,0,,10.0,30.200787,,,TRUE,TRUE,,,,,,,OVC,11000,,,,,,,VFR,,,,,,,,,,,,METAR,305.0
KGIC 060915Z AUTO 35003KT 5SM BKN006 BKN011 OVC018 06/06 A2988 RMK AO1,KGIC,2023-05-06T09:15:00Z,45.95,-116.12,6.0,6.0,350,3,,5.0,29.878937,,,TRUE,TRUE,,,,,,,BKN,600,BKN,1100,OVC,1800,,,IFR,,,,,,,,,,,,SPECI,1002.0
KGHW 060915Z AUTO 07012KT 10SM OVC011 09/06 A2993 RMK AO2,KGHW,2023-05-06T09:15:00Z,45.63,-95.32,9.0,6.0,70,12,,10.0,29.929134,,,TRUE,TRUE,,,,,,,OVC,1100,,,,,,,MVFR,,,,,,,,,,,,METAR,423.0
KGHG 060915Z AUTO 23004KT 10SM CLR 07/05 A3015 RMK AO2,KGHG,2023-05-06T09:15:00Z,42.1,-70.67,7.0,5.0,230,4,,10.0,30.15059,,,TRUE,TRUE,,,,,,,CLR,,,,,,,,VFR,,,,,,,,,,,,METAR,3.0
KGGP 060915Z AUTO 12009KT 10SM CLR 12/06 A3014 RMK AO2,KGGP,2023-05-06T09:15:00Z,40.72,-86.37,12.0,6.0,120,9,,10.0,30.138779,,,TRUE,TRUE,,,,,,,CLR,,,,,,,,VFR,,,,,,,,,,,,METAR,224.0
KGGI 060915Z AUTO 12008KT 10SM CLR 14/12 A2991 RMK AO2 T01430122,KGGI,2023-05-06T09:15:00Z,41.72,-92.73,14.3,12.2,120,8,,10.0,29.911417,,,TRUE,TRUE,,,,,,,CLR,,,,,,,,VFR,,,,,,,,,,,,METAR,305.0
KGGF 060915Z AUTO 31006KT 10SM CLR 08/08 A2982 RMK AO2,KGGF,2023-05-06T09:15:00Z,40.87,-101.73,8.0,8.0,310,6,,10.0,29.819881,,,TRUE,TRUE,,,,,,,CLR,,,,,,,,VFR,,,,,,,,,,,,METAR,1044.0
KGGE 060915Z AUTO 00000KT 10SM CLR 12/12 A3021 RMK AO2,KGGE,2023-05-06T09:15:00Z,33.32,-79.32,12.0,12.0,0,0,,10.0,30.209646,,,TRUE,TRUE,,,,,,,CLR,,,,,,,,VFR,,,,,,,,,,,,METAR,9.0
KGFL 060915Z AUTO 00000KT 3SM BR SCT002 03/01 A3026 RMK AO2 I1000 T00280011,KGFL,2023-05-06T09:15:00Z,43.33,-73.62,2.8,1.1,0,0,,3.0,30.259842,,,TRUE,TRUE,,,,,,BR,SCT,200,,,,,,,MVFR,,,,,,,,,,,,SPECI,99.0
KGDJ 060915Z AUTO 18004KT 10SM CLR 23/13 A2985 RMK AO2 T02260131,KGDJ,2023-05-06T09:15:00Z,32.45,-97.82,22.6,13.1,180,4,,10.0,29.84941,,,TRUE,TRUE,,,,,,,CLR,,,,,,,,VFR,,,,,,,,,,,,METAR,235.0
KGDB 060915Z AUTO 07008KT 10SM OVC026 15/13 A2988 RMK AO2 T01450125,KGDB,2023-05-06T09:15:00Z,44.75,-95.55,14.5,12.5,70,8,,10.0,29.878937,,,TRUE,TRUE,,,,,,,OVC,2600,,,,,,,MVFR,,,,,,,,,,,,METAR,316.0
KGDA 060915Z AUTO 15003KT 10SM SCT037 13/10 A3009 RMK AO2 T01300101 PWINO,KGDA,2023-05-06T09:15:00Z,37.33,-88.1,13.0,10.1,150,3,,10.0,30.088583,,,TRUE,TRUE,,,,,TRUE,,SCT,3700,,,,,,,VFR,,,,,,,,,,,,METAR,199.0
KGCY 060915Z AUTO 10005KT 10SM SCT070 13/09 A3021 RMK A01,KGCY,2023-05-06T09:15:00Z,36.2,-82.82,13.0,9.0,100,5,,10.0,30.209646,,,TRUE,TRUE,,,,,,,SCT,7000,,,,,,,VFR,,,,,,,,,,,,METAR,488.0
KGCM 060915Z AUTO 17004KT 3SM BR OVC015 19/19 A2983 RMK AO2,KGCM,2023-05-06T09:15:00Z,36.3,-95.48,19.0,19.0,170,4,,3.0,29.828741,,,TRUE,TRUE,,,,,,BR,OVC,1500,,,,,,,MVFR,,,,,,,,,,,,METAR,215.0
KGCD 060915Z AUTO 00000KT 10SM OVC024 04/04 A2995 RMK AO2 T00380035,KGCD,2023-05-06T09:15:00Z,44.4,-118.97,3.8,3.5,0,0,,10.0,29.949802,,,TRUE,TRUE,,,,,,,OVC,2400,,,,,,,MVFR,,,,,,,,,,,,METAR,1122.0
KGBG 060915Z AUTO 16008KT 10SM OVC021 16/12 A3000 RMK AO2 T01550118 TSNO,KGBG,2023-05-06T09:15:00Z,40.93,-90.43,15.5,11.8,160,8,,10.0,30.0,,,TRUE,TRUE,,,TRUE,,,,OVC,2100,,,,,,,MVFR,,,,,,,,,,,,METAR,230.0
KGAO 060915Z AUTO 14003KT 10SM CLR 25/24 A3000 RMK AO2 T02510235,KGAO,2023-05-06T09:15:00Z,29.45,-90.27,25.1,23.5,140,3,,10.0,30.0,,,TRUE,TRUE,,,,,,,CLR,,,,,,,,VFR,,,,,,,,,,,,METAR,0.0
KGAF 060915Z AUTO 06008KT 10SM CLR 08/04 A3004 RMK AO2,KGAF,2023-05-06T09:15:00Z,48.4,-97.37,8.0,4.0,60,8,,10.0,30.041338,,,TRUE,TRUE,,,,,,,CLR,,,,,,,,VFR,,,,,,,,,,,,METAR,250.0
KFZG 060915Z AUTO 00000KT 10SM SCT070 OVC080 18/15 A3016 RMK AO2 T01750151,KFZG,2023-05-06T09:15:00Z,31.68,-83.27,17.5,15.1,0,0,,10.0,30.159449,,,TRUE,TRUE,,,,,,,SCT,7000,OVC,8000,,,,,VFR,,,,,,,,,,,,METAR,105.0
KFYM 060915Z AUTO 14004KT 10SM BKN034 BKN045 OVC055 14/12 A3015 RMK A01,KFYM,2023-05-06T09:15:00Z,35.07,-86.57,14.0,12.0,140,4,,10.0,30.15059,,,TRUE,TRUE,,,,,,,BKN,3400,BKN,4500,OVC,5500,,,VFR,,,,,,,,,,,,METAR,297.0
KFYJ 060915Z AUTO 00000KT 10SM OVC080 10/09 A3027 RMK AO1 T00960091,KFYJ,2023-05-06T09:15:00Z,37.52,-76.77,9.6,9.1,0,0,,10.0,30.268702,,,TRUE,TRUE,,,,,,,OVC,8000,,,,,,,VFR,,,,,,,,,,,,METAR,3.0
KFYG 060915Z AUTO 13006KT 10SM SCT019 SCT060 SCT090 16/15 A2997 RMK AO2,KFYG,2023-05-06T09:15:00Z,38.58,-91.0,16.0,15.0,130,6,,10.0,29.970472,,,TRUE,TRUE,,,,,,,SCT,1900,SCT,6000,SCT,9000,,,VFR,,,,,,,,,,,,METAR,147.0
KFYE 060915Z AUTO VRB04KT 10SM FEW035 SCT048 OVC065 16/14 A3004 RMK A01,KFYE,2023-05-06T09:15:00Z,35.2,-89.38,16.0,14.0,0,4,,10.0,30.041338,,,TRUE,TRUE,,,,,,,FEW,3500,SCT,4800,OVC,6500,,,VFR,,,,,,,,,,,,METAR,133.0
KFXY 060915Z AUTO 13008KT 10SM OVC008 13/12 A2989 RMK AO2,KFXY,2023-05-06T09:15:00Z,43.23,-93.62,13.0,12.0,130,8,,10.0,29.890747,,,TRUE,TRUE,,,,,,,OVC,800,,,,,,,IFR,,,,,,,,,,,,METAR,366.0
KFWS 060915Z AUTO 19003KT 10SM CLR 20/13 A2985 RMK AO2 T02000130,KFWS,2023-05-06T09:15:00Z,32.57,-97.3,20.0,13.0,190,3,,10.0,29.84941,,,TRUE,TRUE,,,,,,,CLR,,,,,,,,VFR,,,,,,,,,,,,METAR,211.0
KFWC 060915Z AUTO 15006KT 10SM BKN033 16/11 A3007 RMK AO1 T01570106,KFWC,2023-05-06T09:15:00Z,38.38,-88.42,15.7,10.6,150,6,,10.0,30.070866,,,TRUE,TRUE,,,,,,,BKN,3300,,,,,,,VFR,,,,,,,,,,,,METAR,131.0
KFWB 060915Z AUTO 11007KT 060V160 3SM BR OVC003 16/16 A2993 RMK AO2,KFWB,2023-05-06T09:15:00Z,36.7,-93.4,16.0,16.0,110,7,,3.0,29.929134,,,TRUE,TRUE,,,,,,BR,OVC,300,,,,,,,LIFR,,,,,,,,,,,,METAR,392.0
KFVX 060915Z AUTO 35004KT 10SM SCT070 BKN080 09/07 A3026 RMK AO2 T00910074,KFVX,2023-05-06T09:15:00Z,37.35,-78.43,9.1,7.4,350,4,,10.0,30.259842,,,TRUE,TRUE,,,,,,,SCT,7000,BKN,8000,,,,,VFR,,,,,,,,,,,,SPECI,129.0
KFTN 060915Z AUTO 09010KT 5SM HZ OVC015 25/23 A2985 RMK A01,KFTN,2023-05-06T09:15:00Z,28.22,-100.02,25.0,23.0,90,10,,5.0,29.84941,,,TRUE,TRUE,,,,,,HZ,OVC,1500,,,,,,,MVFR,,,,,,,,,,,,SPECI,236.0
KFSW 060915Z AUTO 14006KT 10SM 16/12 A2996 RMK AO2,KFSW,2023-05-06T09:15:00Z,40.67,-91.32,16.0,12.0,140,6,,10.0,29.958662,,,TRUE,TRUE,,,,,,,,,,,,,,,,,,,,,,,,,,,METAR,219.0
KFRH 060915Z AUTO 00000KT 10SM OVC080 15/08 A3013 RMK AO1,KFRH,2023-05-06T09:15:00Z,38.5,-86.63,15.0,8.0,0,0,,10.0,30.129921,,,TRUE,TRUE,,,,,,,OVC,8000,,,,,,,VFR,,,,,,,,,,,,METAR,241.0
KFPY 060915Z AUTO 00000KT 10SM -DZ CLR 19/16 A3010 RMK AO2 T01900155,KFPY,2023-05-06T09:15:00Z,30.07,-83.57,19.0,15.5,0,0,,10.0,30.100393,,,TRUE,TRUE,,,,,,-DZ,CLR,,,,,,,,VFR,,,,,,,,,,,,METAR,12.0
KFPK 060915Z AUTO 12004KT 10SM CLR 10/03 A3021 RMK AO2 T01000030,KFPK,2023-05-06T09:15:00Z,42.57,-84.82,10.0,3.0,120,4,,10.0,30.209646,,,TRUE,TRUE,,,,,,,CLR,,,,,,,,VFR,,,,,,,,,,,,METAR,269.0
KFOA 060915Z AUTO 14009KT 10SM BKN033 15/12 A3007 RMK AO2,KFOA,2023-05-06T09:15:00Z,38.67,-88.45,15.0,12.0,140,9,,10.0,30.070866,,,TRUE,TRUE,,,,,,,BKN,3300,,,,,,,VFR,,,,,,,,,,,,METAR,141.0
KFMM 060915Z AUTO 00000KT 10SM CLR 06/06 A2987 RMK AO2,KFMM,2023-05-06T09:15:00Z,40.33,-103.8,6.0,6.0,0,0,,10.0,29.870079,,,TRUE,TRUE,,,,,,,CLR,,,,,,,,VFR,,,,,,,,,,,,METAR,1376.0
KFLY 060915Z AUTO 35004G14KT 10SM CLR 05/M06 A2996 RMK AO2 T00541058,KFLY,2023-05-06T09:15:00Z,38.95,-104.57,5.4,-5.8,350,4,14,10.0,29.958662,,,TRUE,TRUE,,,,,,,CLR,,,,,,,,VFR,,,,,,,,,,,,METAR,2096.0
KFKS 060915Z AUTO 15014G19KT 10SM BKN100 OVC110 15/07 A3013 RMK AO2 T01480067,KFKS,2023-05-06T09:15:00Z,44.63,-86.2,14.8,6.7,150,14,19,10.0,30.129921,,,TRUE,TRUE,,,,,,,BKN,10000,OVC,11000,,,,,VFR,,,,,,,,,,,,METAR,189.0
KFKR 060915Z AUTO 12009KT 10SM SCT033 BKN038 OVC120 14/07 A3012 RMK AO2,KFKR,2023-05-06T09:15:00Z,40.27,-86.57,14.0,7.0,120,9,,10.0,30.121063,,,TRUE,TRUE,,,,,,,SCT,3300,BKN,3800,OVC,12000,,,VFR,,,,,,,,,,,,METAR,260.0
KFKN 060915Z AUTO 00000KT 10SM OVC120 08/08 A3027 RMK AO2 T00800076,KFKN,2023-05-06T09:15:00Z,36.7,-76.9,8.0,7.6,0,0,,10.0,30.268702,,,TRUE,TRUE,,,,,,,OVC,12000,,,,,,,VFR,,,,,,,,,,,,METAR,9.0
KFIN 060915Z AUTO 00000KT 10SM SCT065 SCT100 SCT120 20/18 A3010 RMK AO2 T01950180,KFIN,2023-05-06T09:15:00Z,29.47,-81.2,19.5,18.0,0,0,,10.0,30.100393,,,TRUE,TRUE,,,,,,,SCT,6500,SCT,10000,SCT,12000,,,VFR,,,,,,,,,,,,METAR,10.0
KFHB 060915Z AUTO 09015KT 5SM -RA BKN008 BKN013 OVC028 19/ A3013 RMK AO2 P0002,KFHB,2023-05-06T09:15:00Z,30.62,-81.47,19.0,,90,15,,5.0,30.129921,,,TRUE,TRUE,,,,,,-RA,BKN,800,BKN,1300,OVC,2800,,,IFR,,,,,,0.02,,,,,,METAR,4.0
KFGX 060915Z AUTO 11003KT 10SM CLR 10/04 A3021 RMK AO2 T00970038,KFGX,2023-05-06T09:15:00Z,38.55,-83.75,9.7,3.8,110,3,,10.0,30.209646,,,TRUE,TRUE,,,,,,,CLR,,,,,,,,VFR,,,,,,,,,,,,METAR,279.0
KFGN 060915Z AUTO 10008G15KT 10SM BKN026 07/02 A3012 RMK AO2,KFGN,2023-05-06T09:15:00Z,49.32,-94.9,7.0,2.0,100,8,15,10.0,30.121063,,,TRUE,TRUE,,,,,,,BKN,2600,,,,,,,MVFR,,,,,,,,,,,,METAR,327.0
KFFX 060915Z AUTO 13007KT 10SM BKN100 13/05 A3017 RMK AO2 T01250048,KFFX,2023-05-06T09:15:00Z,43.43,-86.0,12.5,4.8,130,7,,10.0,30.171259,,,TRUE,TRUE,,,,,,,BKN,10000,,,,,,,VFR,,,,,,,,,,,,METAR,234.0
KFFM 060915Z AUTO 09012G18KT 10SM OVC016 10/06 A2991 RMK AO2,KFFM,2023-05-06T09:15:00Z,46.28,-96.15,10.0,6.0,90,12,18,10.0,29.911417,,,TRUE,TRUE,,,,,,,OVC,1600,,,,,,,MVFR,,,,,,,,,,,,METAR,362.0
KFFL 060915Z AUTO 17014KT 10SM OVC017 15/12 A2992 RMK A01,KFFL,2023-05-06T09:15:00Z,41.05,-91.97,15.0,12.0,170,14,,10.0,29.920275,,,TRUE,TRUE,,,,,,,OVC,1700,,,,,,,MVFR,,,,,,,,,,,,METAR,240.0
KFET 060915Z AUTO 00000KT 10SM -VCTSRA SCT039 OVC047 14/13 A2986 RMK AO2 LTG DSNT N AND NE T01400130,KFET,2023-05-06T09:15:00Z,41.45,-96.52,14.0,13.0,0,0,,10.0,29.861221,,,TRUE,TRUE,,,,,,VCTS -RA,SCT,3900,OVC,4700,,,,,VFR,,,,,,,,,,,,METAR,366.0
KFEP 060915Z AUTO 12003KT 7SM -RA BKN033 OVC060 13/13 A3005 RMK AO2 P0001 T01320131,KFEP,2023-05-06T09:15:00Z,42.25,-89.58,13.2,13.1,120,3,,7.0,30.050198,,,TRUE,TRUE,,,,,,-RA,BKN,3300,OVC,6000,,,,,VFR,,,,,,0.01,,,,,,METAR,255.0
KFDW 060915Z AUTO 00000KT 10SM CLR 13/13 A3021 RMK AO1,KFDW,2023-05-06T09:15:00Z,34.32,-81.12,13.0,13.0,0,0,,10.0,30.209646,,,TRUE,TRUE,,,,,,,CLR,,,,,,,,VFR,,,,,,,,,,,,METAR,174.0
KFBL 060915Z AUTO 10006KT 10SM OVC018 14/13 A2992 RMK AO2,KFBL,2023-05-06T09:15:00Z,44.33,-93.32,14.0,13.0,100,6,,10.0,29.920275,,,TRUE,TRUE,,,,,,,OVC,1800,,,,,,,MVFR,,,,,,,,,,,,METAR,318.0
KF70 060915Z AUTO 00000KT 10SM CLR 10/09 A3007 RMK AO2,KF70,2023-05-06T09:15:00Z,33.57,-117.13,10.0,9.0,0,0,,10.0,30.070866,,,TRUE,TRUE,,,,,,,CLR,,,,,,,,VFR,,,,,,,,,,,,METAR,406.0
KF46 060915Z AUTO 18004KT 10SM CLR 23/13 A2984 RMK AO2 T02270128,KF46,2023-05-06T09:15:00Z,32.93,-96.43,22.7,12.8,180,4,,10.0,29.840551,,,TRUE,TRUE,,,,,,,CLR,,,,,,,,VFR,,,,,,,,,,,,METAR,175.0
KF44 060915Z AUTO 00000KT 10SM CLR 23/13 A2984 RMK AO2,KF44,2023-05-06T09:15:00Z,32.17,-95.83,23.0,13.0,0,0,,10.0,29.840551,,,TRUE,TRUE,,,,,,,CLR,,,,,,,,VFR,,,,,,,,,,,,SPECI,137.0
KF05 060915Z AUTO 21007KT 10SM CLR 19/14 A2981 RMK AO2 T01920140,KF05,2023-05-06T09:15:00Z,34.23,-99.28,19.2,14.0,210,7,,10.0,29.811024,,,TRUE,TRUE,,,,,,,CLR,,,,,,,,VFR,,,,,,,,,,,,METAR,384.0
KF00 060915Z AUTO 16007KT 10SM CLR 22/14 A2984 RMK AO2 T02200140,KF00,2023-05-06T09:15:00Z,33.62,-96.18,22.0,14.0,160,7,,10.0,29.840551,,,TRUE,TRUE,,,,,,,CLR,,,,,,,,VFR,,,,,,,,,,,,METAR,189.0
KEZZ 060915Z AUTO 14011KT 10SM OVC012 16/15 A2986 RMK AO2 T01650147,KEZZ,2023-05-06T09:15:00Z,39.72,-94.28,16.5,14.7,140,11,,10.0,29.861221,,,TRUE,TRUE,,,,,,,OVC,1200,,,,,,,MVFR,,,,,,,,,,,,METAR,317.0
KEZS 060915Z AUTO 08004KT 10SM SCT080 OVC120 10/10 A3007 RMK AO2 T01020102,KEZS,2023-05-06T09:15:00Z,44.78,-88.57,10.2,10.2,80,4,,10.0,30.070866,,,TRUE,TRUE,,,,,,,SCT,8000,OVC,12000,,,,,VFR,,,,,,,,,,,,METAR,247.0
KEZM 060915Z AUTO 07004KT 10SM OVC070 16/14 A3018 RMK AO2,KEZM,2023-05-06T09:15:00Z,32.22,-83.13,16.0,14.0,70,4,,10.0,30.180119,,,TRUE,TRUE,,,,,,,OVC,7000,,,,,,,VFR,,,,,,,,,,,,METAR,86.0
KEZF 060915Z AUTO 00000KT 10SM BKN100 11/11 A3027 RMK AO2 T01050105,KEZF,2023-05-06T09:15:00Z,38.27,-77.45,10.5,10.5,0,0,,10.0,30.268702,,,TRUE,TRUE,,,,,,,BKN,10000,,,,,,,VFR,,,,,,,,,,,,METAR,26.0
KEVU 060915Z AUTO 15008KT 7SM OVC009 17/16 A2982 RMK AO2 T01750160,KEVU,2023-05-06T09:15:00Z,40.35,-94.92,17.5,16.0,150,8,,7.0,29.819881,,,TRUE,TRUE,,,,,,,OVC,900,,,,,,,IFR,,,,,,,,,,,,METAR,351.0
KEVM 060915Z AUTO 07006KT 10SM OVC010 08/06 A3006 RMK AO2 T00750056,KEVM,2023-05-06T09:15:00Z,47.42,-92.5,7.5,5.6,70,6,,10.0,30.059055,,,TRUE,TRUE,,,,,,,OVC,1000,,,,,,,MVFR,,,,,,,,,,,,METAR,419.0
KETB 060915Z AUTO 16006KT 10SM -RA SCT075 OVC090 15/05 A3008 RMK AO2,KETB,2023-05-06T09:15:00Z,43.42,-88.13,15.0,5.0,160,6,,10.0,30.079725,,,TRUE,TRUE,,,,,,-RA,SCT,7500,OVC,9000,,,,,VFR,,,,,,,,,,,,METAR,269.0
KERY 060915Z AUTO 12007KT 10SM -RA OVC065 08/06 A3022 RMK AO2 T00810063 P0003,KERY,2023-05-06T09:15:00Z,46.3,-85.45,8.1,6.3,120,7,,10.0,30.221457,,,TRUE,TRUE,,,,,,-RA,OVC,6500,,,,,,,VFR,,,,,,0.03,,,,,,METAR,261.0
KERV 060915Z AUTO 11007KT 10SM SCT017 OVC022 21/17 A2995 RMK AO2 T02080174,KERV,2023-05-06T09:15:00Z,29.98,-99.08,20.8,17.4,110,7,,10.0,29.949802,,,TRUE,TRUE,,,,,,,SCT,1700,OVC,2200,,,,,MVFR,,,,,,,,,,,,METAR,483.0
KEQA 060915Z AUTO 16011KT 5SM BR BKN007 22/21 A2975 RMK AO2,KEQA,2023-05-06T09:15:00Z,37.78,-96.82,22.0,21.0,160,11,,5.0,29.749016,,,TRUE,TRUE,,,,,,BR,BKN,700,,,,,,,IFR,,,,,,,,,,,,METAR,422.0
KEOK 060915Z AUTO 15005KT 10SM OVC019 16/13 A2996 RMK A01,KEOK,2023-05-06T09:15:00Z,40.47,-91.42,16.0,13.0,150,5,,10.0,29.958662,,,TRUE,TRUE,,,,,,,OVC,1900,,,,,,,MVFR,,,,,,,,,,,,METAR,206.0
KENL 060915Z AUTO 14003KT 10SM OVC041 15/13 A3004 RMK AO2 T01530125,KENL,2023-05-06T09:15:00Z,38.52,-89.1,15.3,12.5,140,3,,10.0,30.041338,,,TRUE,TRUE,,,,,,,OVC,4100,,,,,,,VFR,,,,,,,,,,,,METAR,161.0
KEMV 060915Z AUTO 00000KT 10SM OVC080 10/09 A3028 RMK AO2 T00950091,KEMV,2023-05-06T09:15:00Z,36.68,-77.48,9.5,9.1,0,0,,10.0,30.280512,,,TRUE,TRUE,,,,,,,OVC,8000,,,,,,,VFR,,,,,,,,,,,,SPECI,35.0
KEMM 060915Z AUTO 15004KT 10SM SCT035 01/00 A2996 RMK AO2 TSNO,KEMM,2023-05-06T09:15:00Z,41.82,-110.55,1.0,0.0,150,4,,10.0,29.958662,,,TRUE,TRUE,,,TRUE,,,,SCT,3500,,,,,,,VFR,,,,,,,,,,,,METAR,2219.0
KELO 060915Z AUTO 07005KT 10SM OVC008 06/04 A3010 RMK AO2,KELO,2023-05-06T09:15:00Z,47.82,-91.83,6.0,4.0,70,5,,10.0,30.100393,,,TRUE,TRUE,,,,,,,OVC,800,,,,,,,IFR,,,,,,,,,,,,METAR,438.0
KELK 060915Z AUTO 20010KT 10SM CLR 19/14 A2979 RMK AO2 SLP378 T01880144 $,KELK,2023-05-06T09:15:00Z,35.43,-99.4,18.8,14.4,200,10,,10.0,29.790354,1037.8,,TRUE,TRUE,TRUE,,,,,,CLR,,,,,,,,VFR,,,,,,,,,,,,METAR,603.0
KELA 060915Z AUTO 14004KT 10SM CLR 20/18 A2993 RMK AO2 T02010177,KELA,2023-05-06T09:15:00Z,29.6,-96.32,20.1,17.7,140,4,,10.0,29.929134,,,TRUE,TRUE,,,,,,,CLR,,,,,,,,VFR,,,,,,,,,,,,METAR,56.0
KEKX 060915Z AUTO 16004KT 10SM OVC090 14/10 A3015 RMK AO2 T01400100,KEKX,2023-05-06T09:15:00Z,37.68,-85.92,14.0,10.0,160,4,,10.0,30.15059,,,TRUE,TRUE,,,,,,,OVC,9000,,,,,,,VFR,,,,,,,,,,,,SPECI,234.0
KEKS 060915Z AUTO 17010KT 10SM OVC075 05/M02 A2986 RMK AO2,KEKS,2023-05-06T09:15:00Z,45.27,-111.65,5.0,-2.0,170,10,,10.0,29.861221,,,TRUE,TRUE,,,,,,,OVC,7500,,,,,,,VFR,,,,,,,,,,,,SPECI,1636.0
KEKE 060915Z AUTO 12017KT 4SM BR FEW027 25/24 A2990 RMK A01,KEKE,2023-05-06T09:15:00Z,28.5,-91.58,25.0,24.0,120,17,,4.0,29.899607,,,TRUE,TRUE,,,,,,BR,FEW,2700,,,,,,,MVFR,,,,,,,,,,,,METAR,31.0
KEIK 060915Z AUTO 00000KT 10SM CLR 03/00 A2987 RMK AO2 T00300002,KEIK,2023-05-06T09:15:00Z,40.02,-105.05,3.0,0.2,0,0,,10.0,29.870079,,,TRUE,TRUE,,,,,,,CLR,,,,,,,,VFR,,,,,,,,,,,,METAR,1551.0
KEHA 060915Z AUTO 30008KT 10SM CLR 16/M05 A2983 RMK AO2 T01571051,KEHA,2023-05-06T09:15:00Z,37.0,-101.87,15.7,-5.1,300,8,,10.0,29.828741,,,TRUE,TRUE,,,,,,,CLR,,,,,,,,VFR,,,,,,,,,,,,SPECI,1103.0
KEGV 060915Z AUTO 13005KT 10SM -DZ BKN005 OVC020 08/08 A3007 RMK AO2 T00780078,KEGV,2023-05-06T09:15:00Z,45.93,-89.27,7.8,7.8,130,5,,10.0,30.070866,,,TRUE,TRUE,,,,,,-DZ,BKN,500,OVC,2000,,,,,IFR,,,,,,,,,,,,METAR,499.0
KEGT 060915Z AUTO 17012KT 7SM BR CLR 22/21 A2973 RMK AO2 T02220210,KEGT,2023-05-06T09:15:00Z,37.32,-97.38,22.2,21.0,170,12,,7.0,29.731298,,,TRUE,TRUE,,,,,,BR,CLR,,,,,,,,VFR,,,,,,,,,,,,METAR,387.0
KEFT 060915Z AUTO 14008KT 10SM OVC060 13/11 A3002 RMK AO2 P0001 T01270111,KEFT,2023-05-06T09:15:00Z,42.62,-89.6,12.7,11.1,140,8,,10.0,30.02067,,,TRUE,TRUE,,,,,,,OVC,6000,,,,,,,VFR,,,,,,0.01,,,,,,METAR,332.0
KEFK 060915Z AUTO 00000KT 10SM BKN070 04/02 A3022 RMK AO2 T00350018,KEFK,2023-05-06T09:15:00Z,44.88,-72.23,3.5,1.8,0,0,,10.0,30.221457,,,TRUE,TRUE,,,,,,,BKN,7000,,,,,,,VFR,,,,,,,,,,,,METAR,282.0
KEDU 060915Z AUTO 19006KT 10SM FEW090 SCT120 11/10 A3007 RMK AO1,KEDU,2023-05-06T09:15:00Z,38.53,-121.78,11.0,10.0,190,6,,10.0,30.070866,,,TRUE,TRUE,,,,,,,FEW,9000,SCT,12000,,,,,VFR,,,,,,,,,,,,METAR,20.0
KEDN 060915Z AUTO 08003KT 10SM SCT060 16/14 A3010 RMK AO2 T01610137 PWINO,KEDN,2023-05-06T09:15:00Z,31.3,-85.9,16.1,13.7,80,3,,10.0,30.100393,,,TRUE,TRUE,,,,,TRUE,,SCT,6000,,,,,,,VFR,,,,,,,,,,,,METAR,103.0
KEDJ 060915Z AUTO 14007KT 10SM FEW041 SCT049 BKN055 13/04 A3021 RMK A01,KEDJ,2023-05-06T09:15:00Z,40.37,-83.82,13.0,4.0,140,7,,10.0,30.209646,,,TRUE,TRUE,,,,,,,FEW,4100,SCT,4900,BKN,5500,,,VFR,,,,,,,,,,,,METAR,341.0
KECU 060915Z AUTO 14014G19KT 6SM HZ OVC016 23/21 A2997 RMK AO2,KECU,2023-05-06T09:15:00Z,29.95,-100.17,23.0,21.0,140,14,19,6.0,29.970472,,,TRUE,TRUE,,,,,,HZ,OVC,1600,,,,,,,MVFR,,,,,,,,,,,,METAR,725.0
KECS 060915Z AUTO 13007KT 10SM CLR 07/06 A2985 RMK AO2,KECS,2023-05-06T09:15:00Z,43.88,-104.32,7.0,6.0,130,7,,10.0,29.84941,,,TRUE,TRUE,,,,,,,CLR,,,,,,,,VFR,,,,,,,,,,,,SPECI,1273.0
KEBS 060915Z AUTO 12010KT 10SM BKN039 BKN044 OVC075 14/14 A2986 RMK AO2,KEBS,2023-05-06T09:15:00Z,42.43,-93.87,14.0,14.0,120,10,,10.0,29.861221,,,TRUE,TRUE,,,,,,,BKN,3900,BKN,4400,OVC,7500,,,VFR,,,,,,,,,,,,METAR,340.0
KEBG 060915Z AUTO 17009KT 3SM BR OVC009 25/24 A2984 RMK AO2 T02520242,KEBG,2023-05-06T09:15:00Z,26.45,-98.13,25.2,24.2,170,9,,3.0,29.840551,,,TRUE,TRUE,,,,,,BR,OVC,900,,,,,,,IFR,,,,,,,,,,,,METAR,21.0
KEBA 060915Z AUTO 00000KT 10SM BKN075 OVC100 14/14 A3020 RMK AO2 T01390135,KEBA,2023-05-06T09:15:00Z,34.1,-82.82,13.9,13.5,0,0,,10.0,30.200787,,,TRUE,TRUE,,,,,,,BKN,7500,OVC,10000,,,,,VFR,,,,,,,,,,,,METAR,180.0
KE42 060915Z AUTO 21013KT 10SM CLR 14/00 A2980 RMK AO2 T01420002,KE42,2023-05-06T09:15:00Z,36.22,-101.2,14.2,0.2,210,13,,10.0,29.799213,,,TRUE,TRUE,,,,,,,CLR,,,,,,,,VFR,,,,,,,,,,,,METAR,942.0
KE41 060915Z AUTO 17006KT 10SM CLR 22/13 A2990 RMK AO2 T02180131,KE41,2023-05-06T09:15:00Z,31.2,-101.47,21.8,13.1,170,6,,10.0,29.899607,,,TRUE,TRUE,,,,,,,CLR,,,,,,,,VFR,,,,,,,,,,,,METAR,825.0
KE38 060915Z AUTO 24008KT 10SM CLR 18/M07 A3006 RMK AO2 T01801067,KE38,2023-05-06T09:15:00Z,30.38,-103.68,18.0,-6.7,240,8,,10.0,30.059055,,,TRUE,TRUE,,,,,,,CLR,,,,,,,,VFR,,,,,,,,,,,,METAR,1372.0
KE16 060915Z AUTO 13004KT 10SM SCT022 BKN037 OVC080 11/09 A3011 RMK AO2,KE16,2023-05-06T09:15:00Z,37.08,-121.6,11.0,9.0,130,4,,10.0,30.109253,,,TRUE,TRUE,,,,,,,SCT,2200,BKN,3700,OVC,8000,,,VFR,,,,,,,,,,,,METAR,84.0
KE11 060915Z AUTO 24005KT 10SM CLR 16/00 A2993 RMK AO2 T01640000,KE11,2023-05-06T09:15:00Z,32.33,-102.53,16.4,0.0,240,5,,10.0,29.929134,,,TRUE,TRUE,,,,,,,CLR,,,,,,,,VFR,,,,,,,,,,,,METAR,966.0
KDZJ 060915Z AUTO 00000KT 10SM BKN080 OVC120 11/11 A3022 RMK AO2 T01090106,KDZJ,2023-05-06T09:15:00Z,34.85,-84.0,10.9,10.6,0,0,,10.0,30.221457,,,TRUE,TRUE,,,,,,,BKN,8000,OVC,12000,,,,,VFR,,,,,,,,,,,,METAR,578.0
KDZB 060915Z AUTO 16003KT 10SM BKN016 19/16 A2992 RMK AO2 T01920156,KDZB,2023-05-06T09:15:00Z,30.53,-98.37,19.2,15.6,160,3,,10.0,29.920275,,,TRUE,TRUE,,,,,,,BKN,1600,,,,,,,MVFR,,,,,,,,,,,,METAR,329.0
KDYT 060915Z AUTO 05018KT 1/4SM -RA FG OVC002 03/03 A3007 RMK AO2,KDYT,2023-05-06T09:15:00Z,46.72,-92.03,3.0,3.0,50,18,,0.25,30.070866,,,TRUE,TRUE,,,,,,-RA FG,OVC,200,,,,,,,LIFR,,,,,,,,,,,,METAR,185.0
KDYB 060915Z AUTO 00000KT 9SM OVC100 15/15 A3019 RMK AO2,KDYB,2023-05-06T09:15:00Z,33.07,-80.28,15.0,15.0,0,0,,9.0,30.188976,,,TRUE,TRUE,,,,,,,OVC,10000,,,,,,,VFR,,,,,,,,,,,,METAR,15.0
KDYA 060915Z AUTO 07003KT 10SM BKN044 OVC050 17/15 A3008 RMK AO2 T01680148,KDYA,2023-05-06T09:15:00Z,32.47,-87.95,16.8,14.8,70,3,,10.0,30.079725,,,TRUE,TRUE,,,,,,,BKN,4400,OVC,5000,,,,,VFR,,,,,,,,,,,,METAR,33.0
KDXX 060915Z AUTO 10011KT 10SM SCT012 BKN023 16/12 A2987 RMK AO2,KDXX,2023-05-06T09:15:00Z,44.98,-96.18,16.0,12.0,100,11,,10.0,29.870079,,,TRUE,TRUE,,,,,,,SCT,1200,BKN,2300,,,,,MVFR,,,,,,,,,,,,METAR,327.0
KDWX 060915Z AUTO 00000KT 10SM BKN085 05/00 A2998 RMK AO2 T00451001,KDWX,2023-05-06T09:15:00Z,41.03,-107.5,4.5,-0.1,0,0,,10.0,29.97933,,,TRUE,TRUE,,,,,,,BKN,8500,,,,,,,VFR,,,,,,,,,,,,SPECI,1974.0
KDWA 060915Z AUTO 17005KT 10SM FEW070 OVC080 11/11 A3007 RMK AO2,KDWA,2023-05-06T09:15:00Z,38.58,-121.85,11.0,11.0,170,5,,10.0,30.070866,,,TRUE,TRUE,,,,,,,FEW,7000,OVC,8000,,,,,VFR,,,,,,,,,,,,METAR,28.0
KDVO 060915Z AUTO 00000KT 10SM SCT025 SCT029 OVC037 11/11 A3006 RMK AO2,KDVO,2023-05-06T09:15:00Z,38.15,-122.55,11.0,11.0,0,0,,10.0,30.059055,,,TRUE,TRUE,,,,,,,SCT,2500,SCT,2900,OVC,3700,,,VFR,,,,,,,,,,,,METAR,1.0
KDUX 060915Z AUTO 22014KT 10SM CLR 16/M05 A2984 RMK AO2 T01551047,KDUX,2023-05-06T09:15:00Z,35.85,-102.02,15.5,-4.7,220,14,,10.0,29.840551,,,TRUE,TRUE,,,,,,,CLR,,,,,,,,VFR,,,,,,,,,,,,METAR,1129.0
KDUH 060915Z AUTO 00000KT 10SM CLR 08/06 A3024 RMK AO2 T00760062,KDUH,2023-05-06T09:15:00Z,41.73,-83.65,7.6,6.2,0,0,,10.0,30.239174,,,TRUE,TRUE,,,,,,,CLR,,,,,,,,VFR,,,,,,,,,,,,METAR,203.0
KDUC 060915Z AUTO 00000KT 10SM CLR 18/14 A2984 RMK AO2 T01830139,KDUC,2023-05-06T09:15:00Z,34.47,-97.97,18.3,13.9,0,0,,10.0,29.840551,,,TRUE,TRUE,,,,,,,CLR,,,,,,,,VFR,,,,,,,,,,,,METAR,339.0
KDUA 060915Z AUTO 16006KT 10SM CLR 20/15 A2985 RMK AO2,KDUA,2023-05-06T09:15:00Z,33.95,-96.4,20.0,15.0,160,6,,10.0,29.84941,,,TRUE,TRUE,,,,,,,CLR,,,,,,,,VFR,,,,,,,,,,,,METAR,209.0
KDTL 060915Z AUTO 11012G19KT 10SM OVC020 10/05 A2995 RMK AO2,KDTL,2023-05-06T09:15:00Z,46.82,-95.88,10.0,5.0,110,12,19,10.0,29.949802,,,TRUE,TRUE,,,,,,,OVC,2000,,,,,,,MVFR,,,,,,,,,,,,METAR,425.0
KDTA 060915Z AUTO 14011KT 10SM SCT110 02/M01 A2998 RMK AO1,KDTA,2023-05-06T09:15:00Z,39.38,-112.5,2.0,-1.0,140,11,,10.0,29.97933,,,TRUE,TRUE,,,,,,,SCT,11000,,,,,,,VFR,,,,,,,,,,,,METAR,1452.0
KDRM 060915Z AUTO 11005KT 10SM -RA BKN070 OVC080 08/08 A3028 RMK AO2 T00770075 P0001,KDRM,2023-05-06T09:15:00Z,46.0,-83.75,7.7,7.5,110,5,,10.0,30.280512,,,TRUE,TRUE,,,,,,-RA,BKN,7000,OVC,8000,,,,,VFR,,,,,,0.01,,,,,,METAR,201.0
KDRI 060915Z AUTO 19003KT 7SM -RA VCTS BKN007 BKN012 OVC016 24/24 A2999 RMK AO2 P0000 T02360236 $,KDRI,2023-05-06T09:15:00Z,30.83,-93.33,23.6,23.6,190,3,,7.0,29.991142,,,TRUE,TRUE,TRUE,,,,,-RA VCTS,BKN,700,BKN,1200,OVC,1600,,,IFR,,,,,,0.005,,,,,,METAR,59.0
KDQH 060915Z AUTO 08006KT 10SM OVC070 18/15 A3016 RMK AO2 T01780153,KDQH,2023-05-06T09:15:00Z,31.48,-82.87,17.8,15.3,80,6,,10.0,30.159449,,,TRUE,TRUE,,,,,,,OVC,7000,,,,,,,VFR,,,,,,,,,,,,METAR,76.0
KDNV 060915Z AUTO 13006KT 10SM OVC080 16/09 A3010 RMK AO2 T01580088,KDNV,2023-05-06T09:15:00Z,40.2,-87.6,15.8,8.8,130,6,,10.0,30.100393,,,TRUE,TRUE,,,,,,,OVC,8000,,,,,,,VFR,,,,,,,,,,,,METAR,208.0
KDNN 060915Z AUTO 00000KT 2 1/2SM BR BKN048 OVC080 12/12 A3019 RMK AO2 T01210121,KDNN,2023-05-06T09:15:00Z,34.72,-84.87,12.1,12.1,0,0,,2.5,30.188976,,,TRUE,TRUE,,,,,,BR,BKN,4800,OVC,8000,,,,,IFR,,,,,,,,,,,,METAR,216.0
KDNA 060915Z AUTO 29006KT 10SM CLR 16/M12 A3002 RMK AO2,KDNA,2023-05-06T09:15:00Z,31.88,-106.7,16.0,-12.0,290,6,,10.0,30.02067,,,TRUE,TRUE,,,,,,,CLR,,,,,,,,VFR,,,,,,,,,,,,METAR,1254.0
KDLZ 060915Z AUTO 10005KT 10SM SCT110 08/03 A3022 RMK AO2,KDLZ,2023-05-06T09:15:00Z,40.28,-83.12,8.0,3.0,100,5,,10.0,30.221457,,,TRUE,TRUE,,,,,,,SCT,11000,,,,,,,VFR,,,,,,,,,,,,SPECI,287.0
KDLP 060915Z AUTO 16007KT 10SM CLR 24/24 A2991 RMK A01,KDLP,2023-05-06T09:15:00Z,29.12,-89.55,24.0,24.0,160,7,,10.0,29.911417,,,TRUE,TRUE,,,,,,,CLR,,,,,,,,VFR,,,,,,,,,,,,SPECI,31.0
KDLO 060915Z AUTO 32004KT 10SM BKN060 OVC080 11/07 A3006 RMK AO2 T01140065,KDLO,2023-05-06T09:15:00Z,35.75,-119.23,11.4,6.5,320,4,,10.0,30.059055,,,TRUE,TRUE,,,,,,,BKN,6000,OVC,8000,,,,,VFR,,,,,,,,,,,,METAR,97.0
KDLL 060915Z AUTO 16009KT 10SM -DZ BKN050 OVC075 15/12 A3003 RMK AO2 T01450117,KDLL,2023-05-06T09:15:00Z,43.52,-89.77,14.5,11.7,160,9,,10.0,30.029528,,,TRUE,TRUE,,,,,,-DZ,BKN,5000,OVC,7500,,,,,VFR,,,,,,,,,,,,METAR,297.0
KDKX 060915Z AUTO 00000KT 10SM OVC110 14/12 A3019 RMK A01,KDKX,2023-05-06T09:15:00Z,35.97,-83.87,14.0,12.0,0,0,,10.0,30.188976,,,TRUE,TRUE,,,,,,,OVC,11000,,,,,,,VFR,,,,,,,,,,,,SPECI,253.0
KDKR 060915Z AUTO 00000KT 10SM FEW190 OVC210 21/18 A2983 RMK AO2,KDKR,2023-05-06T09:15:00Z,31.3,-95.4,21.0,18.0,0,0,,10.0,29.828741,,,TRUE,TRUE,,,,,,,FEW,19000,OVC,21000,,,,,VFR,,,,,,,,,,,,METAR,105.0
KDKB 060915Z AUTO 12010KT 10SM SCT075 SCT095 OVC110 14/10 A3007 RMK AO2 T01350100,KDKB,2023-05-06T09:15:00Z,41.93,-88.7,13.5,10.0,120,10,,10.0,30.070866,,,TRUE,TRUE,,,,,,,SCT,7500,SCT,9500,OVC,11000,,,VFR,,,,,,,,,,,,METAR,277.0
KDEH 060915Z AUTO 14008G14KT 10SM FEW028 BKN037 OVC060 13/13 A2994 RMK AO2,KDEH,2023-05-06T09:15:00Z,43.27,-91.73,13.0,13.0,140,8,14,10.0,29.940945,,,TRUE,TRUE,,,,,,,FEW,2800,BKN,3700,OVC,6000,,,VFR,,,,,,,,,,,,METAR,348.0
KDCY 060915Z AUTO 14005KT 10SM OVC085 15/11 A3012 RMK AO2 T01500106,KDCY,2023-05-06T09:15:00Z,38.7,-87.13,15.0,10.6,140,5,,10.0,30.121063,,,TRUE,TRUE,,,,,,,OVC,8500,,,,,,,VFR,,,,,,,,,,,,METAR,143.0
KDBN 060915Z AUTO 00000KT 10SM OVC060 16/15 A3020 RMK AO2,KDBN,2023-05-06T09:15:00Z,32.57,-82.98,16.0,15.0,0,0,,10.0,30.200787,,,TRUE,TRUE,,,,,,,OVC,6000,,,,,,,VFR,,,,,,,,,,,,SPECI,90.0
KD95 060915Z AUTO 00000KT 10SM CLR 08/04 A3027 RMK AO2 T00760041,KD95,2023-05-06T09:15:00Z,43.07,-83.27,7.6,4.1,0,0,,10.0,30.268702,,,TRUE,TRUE,,,,,,,CLR,,,,,,,,VFR,,,,,,,,,,,,METAR,253.0
KD73 060915Z AUTO 08003KT 10SM OVC060 14/ A3020 RMK AO2 T0140////,KD73,2023-05-06T09:15:00Z,33.78,-83.7,14.0,,80,3,,10.0,30.200787,,,TRUE,TRUE,,,,,,,OVC,6000,,,,,,,VFR,,,,,,,,,,,,SPECI,254.0
KD60 060915Z AUTO 08010KT 10SM CLR 06/06 A2996 RMK AO2,KD60,2023-05-06T09:15:00Z,48.38,-102.9,6.0,6.0,80,10,,10.0,29.958662,,,TRUE,TRUE,,,,,,,CLR,,,,,,,,VFR,,,,,,,,,,,,METAR,682.0
KD57 060915Z AUTO 07007KT 10SM CLR 05/01 A2986 RMK AO2,KD57,2023-05-06T09:15:00Z,46.82,-101.87,5.0,1.0,70,7,,10.0,29.861221,,,TRUE,TRUE,,,,,,,CLR,,,,,,,,VFR,,,,,,,,,,,,METAR,636.0
KD55 060915Z AUTO 07011KT 10SM BKN070 OVC075 07/07 A3004 RMK AO2,KD55,2023-05-06T09:15:00Z,48.75,-98.4,7.0,7.0,70,11,,10.0,30.041338,,,TRUE,TRUE,,,,,,,BKN,7000,OVC,7500,,,,,VFR,,,,,,,,,,,,METAR,488.0
KD50 060915Z AUTO 09007KT 10SM CLR 05/04 A2999 RMK AO2,KD50,2023-05-06T09:15:00Z,48.93,-103.3,5.0,4.0,90,7,,10.0,29.991142,,,TRUE,TRUE,,,,,,,CLR,,,,,,,,VFR,,,,,,,,,,,,METAR,591.0
KD39 060915Z AUTO 06010KT 10SM OVC013 08/05 A2994 RMK AO2 T00840052,KD39,2023-05-06T09:15:00Z,45.7,-94.93,8.4,5.2,60,10,,10.0,29.940945,,,TRUE,TRUE,,,,,,,OVC,1300,,,,,,,MVFR,,,,,,,,,,,,METAR,378.0
KD25 060915Z AUTO 10004KT 10SM SCT023 BKN028 OVC075 09/09 A3005 RMK AO2 T00850085,KD25,2023-05-06T09:15:00Z,46.12,-89.88,8.5,8.5,100,4,,10.0,30.050198,,,TRUE,TRUE,,,,,,,SCT,2300,BKN,2800,OVC,7500,,,MVFR,,,,,,,,,,,,METAR,490.0
KCZT 060915Z AUTO 10006KT 5SM BR OVC012 25/25 A2985 RMK AO2,KCZT,2023-05-06T09:15:00Z,28.52,-99.82,25.0,25.0,100,6,,5.0,29.84941,,,TRUE,TRUE,,,,,,BR,OVC,1200,,,,,,,MVFR,,,,,,,,,,,,METAR,176.0
KCZL 060915Z AUTO 00000KT 10SM OVC049 13/13 A3021 RMK AO2,KCZL,2023-05-06T09:15:00Z,34.47,-84.93,13.0,13.0,0,0,,10.0,30.209646,,,TRUE,TRUE,,,,,,,OVC,4900,,,,,,,VFR,,,,,,,,,,,,SPECI,197.0
KCXW 060915Z AUTO VRB04KT 10SM OVC010 19/M21 A2994 RMK A01,KCXW,2023-05-06T09:15:00Z,35.02,-92.55,19.0,-21.0,0,4,,10.0,29.940945,,,TRUE,TRUE,,,,,,,OVC,1000,,,,,,,MVFR,,,,,,,,,,,,SPECI,84.0
KCXU 060915Z AUTO 10004KT 10SM BKN070 19/15 A3012 RMK AO1 T01900151,KCXU,2023-05-06T09:15:00Z,31.22,-84.23,19.0,15.1,100,4,,10.0,30.121063,,,TRUE,TRUE,,,,,,,BKN,7000,,,,,,,VFR,,,,,,,,,,,,METAR,48.0
KCXP 060915Z AUTO 00000KT 10SM SCT038 BKN044 OVC060 07/M02 A2999 RMK AO2,KCXP,2023-05-06T09:15:00Z,39.18,-119.73,7.0,-2.0,0,0,,10.0,29.991142,,,TRUE,TRUE,,,,,,,SCT,3800,BKN,4400,OVC,6000,,,VFR,,,,,,,,,,,,METAR,1431.0
KCXE 060915Z AUTO 00000KT 10SM SCT070 BKN090 11/10 A3025 RMK AO1 T01050099,KCXE,2023-05-06T09:15:00Z,36.78,-78.5,10.5,9.9,0,0,,10.0,30.250984,,,TRUE,TRUE,,,,,,,SCT,7000,BKN,9000,,,,,VFR,,,,,,,,,,,,METAR,154.0
KCWV 060915Z AUTO 00000KT 5SM BR SCT075 OVC090 17/16 A3018 RMK AO2 T01660157,KCWV,2023-05-06T09:15:00Z,32.2,-81.87,16.6,15.7,0,0,,5.0,30.180119,,,TRUE,TRUE,,,,,,BR,SCT,7500,OVC,9000,,,,,MVFR,,,,,,,,,,,,METAR,32.0
KCWF 060915Z AUTO 22006KT 7SM -VCTSRA SCT008 BKN020 OVC028 25/23 A2999 RMK AO2 LTG DSNT SW THRU NE T02480233,KCWF,2023-05-06T09:15:00Z,30.22,-93.15,24.8,23.3,220,6,,7.0,29.991142,,,TRUE,TRUE,,,,,,VCTS -RA,SCT,800,BKN,2000,OVC,2800,,,MVFR,,,,,,,,,,,,METAR,4.0
KCWC 060915Z AUTO 00000KT 10SM CLR 21/13 A2982 RMK AO2 T02090132,KCWC,2023-05-06T09:15:00Z,33.85,-98.48,20.9,13.2,0,0,,10.0,29.819881,,,TRUE,TRUE,,,,,,,CLR,,,,,,,,VFR,,,,,,,,,,,,METAR,304.0
KCWA 060915Z AUTO 10008KT 10SM OVC070 08/07 A3005 RMK AO2,KCWA,2023-05-06T09:15:00Z,44.78,-89.67,8.0,7.0,100,8,,10.0,30.050198,,,TRUE,TRUE,,,,,,,OVC,7000,,,,,,,VFR,,,,,,,,,,,,METAR,387.0
KCVX 060915Z AUTO 13007KT 10SM -DZ OVC095 13/05 A3018 RMK AO2 T01250051,KCVX,2023-05-06T09:15:00Z,45.3,-85.27,12.5,5.1,130,7,,10.0,30.180119,,,TRUE,TRUE,,,,,,-DZ,OVC,9500,,,,,,,VFR,,,,,,,,,,,,METAR,196.0
KCVH 060915Z AUTO 00000KT 10SM FEW019 BKN033 BKN120 11/09 A3010 RMK A01,KCVH,2023-05-06T09:15:00Z,36.9,-121.42,11.0,9.0,0,0,,10.0,30.100393,,,TRUE,TRUE,,,,,,,FEW,1900,BKN,3300,BKN,12000,,,VFR,,,,,,,,,,,,METAR,68.0
KCVC 060915Z AUTO 00000KT 10SM SCT055 BKN080 OVC120 13/13 A3018 RMK AO2,KCVC,2023-05-06T09:15:00Z,33.63,-83.85,13.0,13.0,0,0,,10.0,30.180119,,,TRUE,TRUE,,,,,,,SCT,5500,BKN,8000,OVC,12000,,,VFR,,,,,,,,,,,,SPECI,240.0
KCUH 060915Z AUTO 16010KT 5SM BR OVC011 23/22 A2977 RMK AO2 T02270222,KCUH,2023-05-06T09:15:00Z,35.95,-96.77,22.7,22.2,160,10,,5.0,29.769686,,,TRUE,TRUE,,,,,,BR,OVC,1100,,,,,,,MVFR,,,,,,,,,,,,METAR,274.0
KCTY 060915Z AUTO 00000KT 10SM SCT043 OVC090 19/16 A3010 RMK AO2,KCTY,2023-05-06T09:15:00Z,29.63,-83.1,19.0,16.0,0,0,,10.0,30.100393,,,TRUE,TRUE,,,,,,,SCT,4300,OVC,9000,,,,,VFR,,,,,,,,,,,,METAR,12.0
KCTJ 060915Z AUTO 00000KT 10SM OVC047 13/12 A3021 RMK AO2 T01340124,KCTJ,2023-05-06T09:15:00Z,33.63,-85.15,13.4,12.4,0,0,,10.0,30.209646,,,TRUE,TRUE,,,,,,,OVC,4700,,,,,,,VFR,,,,,,,,,,,,SPECI,351.0
KCSQ 060915Z AUTO 16011KT 10SM OVC008 15/15 A2985 RMK AO2,KCSQ,2023-05-06T09:15:00Z,41.02,-94.37,15.0,15.0,160,11,,10.0,29.84941,,,TRUE,TRUE,,,,,,,OVC,800,,,,,,,IFR,,,,,,,,,,,,METAR,394.0
KCRX 060915Z AUTO 13003KT 10SM OVC016 15/14 A3008 RMK AO2,KCRX,2023-05-06T09:15:00Z,34.92,-88.6,15.0,14.0,130,3,,10.0,30.079725,,,TRUE,TRUE,,,,,,,OVC,1600,,,,,,,MVFR,,,,,,,,,,,,SPECI,128.0
KCQW 060915Z AUTO 00000KT 9SM CLR 11/11 A3022 RMK AO2,KCQW,2023-05-06T09:15:00Z,34.72,-79.95,11.0,11.0,0,0,,9.0,30.221457,,,TRUE,TRUE,,,,,,,CLR,,,,,,,,VFR,,,,,,,,,,,,METAR,67.0
KCQM 060915Z AUTO 07003KT 10SM SCT070 07/04 A3008 RMK AO2,KCQM,2023-05-06T09:15:00Z,47.82,-92.68,7.0,4.0,70,3,,10.0,30.079725,,,TRUE,TRUE,,,,,,,SCT,7000,,,,,,,VFR,,,,,,,,,,,,METAR,406.0
KCQF 060915Z AUTO 00000KT 7SM SCT003 SCT007 18/18 A3005 RMK AO2,KCQF,2023-05-06T09:15:00Z,30.47,-87.88,18.0,18.0,0,0,,7.0,30.050198,,,TRUE,TRUE,,,,,,,SCT,300,SCT,700,,,,,VFR,,,,,,,,,,,,METAR,21.0
KCQB 060915Z AUTO 15010KT 4SM BR OVC009 22/22 A2980 RMK AO2 T02250217,KCQB,2023-05-06T09:15:00Z,35.72,-96.82,22.5,21.7,150,10,,4.0,29.799213,,,TRUE,TRUE,,,,,,BR,OVC,900,,,,,,,IFR,,,,,,,,,,,,METAR,298.0
KCPW 060915Z AUTO 22017G22KT 10SM OVC026 M05/M09 A3020 RMK AO2,KCPW,2023-05-06T09:15:00Z,37.45,-106.8,-5.0,-9.0,220,17,22,10.0,30.200787,,,TRUE,TRUE,,,,,,,OVC,2600,,,,,,,MVFR,,,,,,,,,,,,METAR,3570.0
KCPT 060915Z AUTO 18007KT 10SM CLR 21/14 A2986 RMK A01,KCPT,2023-05-06T09:15:00Z,32.35,-97.43,21.0,14.0,180,7,,10.0,29.861221,,,TRUE,TRUE,,,,,,,CLR,,,,,,,,VFR,,,,,,,,,,,,METAR,260.0
KCPF 060915Z AUTO 00000KT 10SM CLR 08/06 A3021 RMK AO2,KCPF,2023-05-06T09:15:00Z,37.38,-83.27,8.0,6.0,0,0,,10.0,30.209646,,,TRUE,TRUE,,,,,,,CLR,,,,,,,,VFR,,,,,,,,,,,,SPECI,382.0
KCOQ 060915Z AUTO 08012G16KT 1SM BR OVC001 04/03 A3003 RMK AO2 TSNO,KCOQ,2023-05-06T09:15:00Z,46.7,-92.5,4.0,3.0,80,12,16,1.0,30.029528,,,TRUE,TRUE,,,TRUE,,,BR,OVC,100,,,,,,,LIFR,,,,,,,,,,,,METAR,390.0
KCOM 060915Z AUTO 16005KT 10SM CLR 20/16 A2990 RMK AO2 T02010155,KCOM,2023-05-06T09:15:00Z,31.83,-99.4,20.1,15.5,160,5,,10.0,29.899607,,,TRUE,TRUE,,,,,,,CLR,,,,,,,,VFR,,,,,,,,,,,,METAR,516.0
KCNI 060915Z AUTO 00000KT 10SM BKN046 BKN050 OVC120 12/11 A3021 RMK AO2 T01240110,KCNI,2023-05-06T09:15:00Z,34.32,-84.42,12.4,11.0,0,0,,10.0,30.209646,,,TRUE,TRUE,,,,,,,BKN,4600,BKN,5000,OVC,12000,,,VFR,,,,,,,,,,,,METAR,371.0
KCNC 060915Z AUTO 16012KT 10SM OVC011 16/16 A2987 RMK AO2,KCNC,2023-05-06T09:15:00Z,41.02,-93.37,16.0,16.0,160,12,,10.0,29.870079,,,TRUE,TRUE,,,,,,,OVC,1100,,,,,,,MVFR,,,,,,,,,,,,METAR,319.0
KCNB 060915Z AUTO 07009KT 030V120 10SM OVC009 14/12 A2986 RMK AO2 T01410118,KCNB,2023-05-06T09:15:00Z,44.73,-96.27,14.1,11.8,70,9,,10.0,29.861221,,,TRUE,TRUE,,,,,,,OVC,900,,,,,,,IFR,,,,,,,,,,,,METAR,363.0
KCMR 060915Z AUTO 14005KT 10SM CLR 01/M04 A3007 RMK AO2,KCMR,2023-05-06T09:15:00Z,35.3,-112.2,1.0,-4.0,140,5,,10.0,30.070866,,,TRUE,TRUE,,,,,,,CLR,,,,,,,,VFR,,,,,,,,,,,,METAR,2039.0
KCMD 060915Z AUTO 13007KT 10SM FEW029 FEW036 OVC050 15/13 A3014 RMK AO2,KCMD,2023-05-06T09:15:00Z,34.27,-86.85,15.0,13.0,130,7,,10.0,30.138779,,,TRUE,TRUE,,,,,,,FEW,2900,FEW,3600,OVC,5000,,,VFR,,,,,,,,,,,,METAR,294.0
KCLW 060915Z AUTO 11006KT 10SM CLR 22/17 A3006 RMK AO2,KCLW,2023-05-06T09:15:00Z,27.98,-82.75,22.0,17.0,110,6,,10.0,30.059055,,,TRUE,TRUE,,,,,,,CLR,,,,,,,,VFR,,,,,,,,,,,,METAR,21.0
KCLS 060915Z AUTO 00000KT 10SM OVC006 09/09 A2997 RMK AO2,KCLS,2023-05-06T09:15:00Z,46.68,-122.98,9.0,9.0,0,0,,10.0,29.970472,,,TRUE,TRUE,,,,,,,OVC,600,,,,,,,IFR,,,,,,,,,,,,METAR,52.0
KCLK 060915Z AUTO 13007KT 10SM CLR 17/12 A2980 RMK AO2,KCLK,2023-05-06T09:15:00Z,35.53,-98.93,17.0,12.0,130,7,,10.0,29.799213,,,TRUE,TRUE,,,,,,,CLR,,,,,,,,VFR,,,,,,,,,,,,METAR,489.0
KCLI 060915Z AUTO 32003KT 10SM OVC085 10/08 A3007 RMK AO2 T01020083,KCLI,2023-05-06T09:15:00Z,44.62,-88.73,10.2,8.3,320,3,,10.0,30.070866,,,TRUE,TRUE,,,,,,,OVC,8500,,,,,,,VFR,,,,,,,,,,,,SPECI,248.0
KCKZ 060915Z AUTO 00000KT 5SM BR CLR 05/05 A3028 RMK AO2,KCKZ,2023-05-06T09:15:00Z,40.38,-75.28,5.0,5.0,0,0,,5.0,30.280512,,,TRUE,TRUE,,,,,,BR,CLR,,,,,,,,MVFR,,,,,,,,,,,,METAR,160.0
KCKP 060915Z AUTO 14004KT 7SM RA OVC006 15/15 A2986 RMK AO2 LTG DSNT ALQS T01470147,KCKP,2023-05-06T09:15:00Z,42.73,-95.55,14.7,14.7,140,4,,7.0,29.861221,,,TRUE,TRUE,,,,,,RA,OVC,600,,,,,,,IFR,,,,,,,,,,,,SPECI,369.0
KCKN 060915Z AUTO 08010KT 10SM CLR 08/04 A2999 RMK AO2,KCKN,2023-05-06T09:15:00Z,47.85,-96.62,8.0,4.0,80,10,,10.0,29.991142,,,TRUE,TRUE,,,,,,,CLR,,,,,,,,VFR,,,,,,,,,,,,METAR,272.0
KCKM 060915Z AUTO 12007KT 10SM 18/18 A3002 RMK A01,KCKM,2023-05-06T09:15:00Z,34.3,-90.52,18.0,18.0,120,7,,10.0,30.02067,,,TRUE,TRUE,,,,,,,,,,,,,,,,,,,,,,,,,,,METAR,52.0
KCKI 060915Z AUTO 00000KT 10SM CLR 10/07 A3022 RMK AO2,KCKI,2023-05-06T09:15:00Z,33.72,-79.85,10.0,7.0,0,0,,10.0,30.221457,,,TRUE,TRUE,,,,,,,CLR,,,,,,,,VFR,,,,,,,,,,,,METAR,19.0
KCKF 060915Z AUTO 08005KT 10SM OVC070 17/14 A3017 RMK AO2 T01670140,KCKF,2023-05-06T09:15:00Z,31.98,-83.77,16.7,14.0,80,5,,10.0,30.171259,,,TRUE,TRUE,,,,,,,OVC,7000,,,,,,,VFR,,,,,,,,,,,,METAR,92.0
KCJR 060915Z AUTO 00000KT 10SM BKN090 09/08 A3029 RMK AO2 T00900081,KCJR,2023-05-06T09:15:00Z,38.53,-77.87,9.0,8.1,0,0,,10.0,30.28937,,,TRUE,TRUE,,,,,,,BKN,9000,,,,,,,VFR,,,,,,,,,,,,SPECI,90.0
KCIN 060915Z AUTO 13007KT 10SM OVC026 15/15 A2984 RMK AO2,KCIN,2023-05-06T09:15:00Z,42.03,-94.78,15.0,15.0,130,7,,10.0,29.840551,,,TRUE,TRUE,,,,,,,OVC,2600,,,,,,,MVFR,,,,,,,,,,,,METAR,365.0
KCIC 060915Z AUTO 13013KT 10SM BKN012 BKN037 OVC043 10/09 A3005 RMK AO1,KCIC,2023-05-06T09:15:00Z,39.78,-121.85,10.0,9.0,130,13,,10.0,30.050198,,,TRUE,TRUE,,,,,,,BKN,1200,BKN,3700,OVC,4300,,,MVFR,,,,,,,,,,,,SPECI,72.0
KCHK 060915Z AUTO 15005KT 10SM CLR 20/13 A2977 RMK AO2,KCHK,2023-05-06T09:15:00Z,35.1,-97.97,20.0,13.0,150,5,,10.0,29.769686,,,TRUE,TRUE,,,,,,,CLR,,,,,,,,VFR,,,,,,,,,,,,METAR,346.0
KCGF 060915Z AUTO 14005KT 10SM CLR 09/04 A3027 RMK AO2 T00950038,KCGF,2023-05-06T09:15:00Z,41.57,-81.47,9.5,3.8,140,5,,10.0,30.268702,,,TRUE,TRUE,,,,,,,CLR,,,,,,,,VFR,,,,,,,,,,,,SPECI,265.0
KCGC 060915Z AUTO 00000KT 10SM BKN042 20/16 A3009 RMK AO2,KCGC,2023-05-06T09:15:00Z,28.87,-82.57,20.0,16.0,0,0,,10.0,30.088583,,,TRUE,TRUE,,,,,,,BKN,4200,,,,,,,VFR,,,,,,,,,,,,METAR,3.0
KCFS 060915Z AUTO 13005KT 10SM CLR 10/05 A3026 RMK AO2 T00990045,KCFS,2023-05-06T09:15:00Z,43.47,-83.45,9.9,4.5,130,5,,10.0,30.259842,,,TRUE,TRUE,,,,,,,CLR,,,,,,,,VFR,,,,,,,,,,,,METAR,214.0
KCFO 060915Z AUTO 18009KT 10SM CLR 07/02 A2989 RMK AO2 T00730019,KCFO,2023-05-06T09:15:00Z,39.78,-104.55,7.3,1.9,180,9,,10.0,29.890747,,,TRUE,TRUE,,,,,,,CLR,,,,,,,,VFR,,,,,,,,,,,,METAR,1672.0
KCFJ 060915Z AUTO 12006KT 10SM BKN090 OVC110 13/04 A3012 RMK AO2 T01310042,KCFJ,2023-05-06T09:15:00Z,39.98,-86.92,13.1,4.2,120,6,,10.0,30.121063,,,TRUE,TRUE,,,,,,,BKN,9000,OVC,11000,,,,,VFR,,,,,,,,,,,,METAR,243.0
KCFE 060915Z AUTO 06006KT 10SM OVC012 11/09 A2993 RMK AO2,KCFE,2023-05-06T09:15:00Z,45.17,-93.85,11.0,9.0,60,6,,10.0,29.929134,,,TRUE,TRUE,,,,,,,OVC,1200,,,,,,,MVFR,,,,,,,,,,,,METAR,292.0
KCFD 060915Z AUTO 19010G17KT 10SM CLR 20/17 A2985 RMK AO2 T01980165,KCFD,2023-05-06T09:15:00Z,30.72,-96.33,19.8,16.5,190,10,17,10.0,29.84941,,,TRUE,TRUE,,,,,,,CLR,,,,,,,,VFR,,,,,,,,,,,,METAR,106.0
KCEY 060915Z AUTO 00000KT 10SM OVC070 14/13 A3008 RMK A01,KCEY,2023-05-06T09:15:00Z,36.67,-88.37,14.0,13.0,0,0,,10.0,30.079725,,,TRUE,TRUE,,,,,,,OVC,7000,,,,,,,VFR,,,,,,,,,,,,METAR,172.0
KCDN 060915Z AUTO 00000KT 10SM CLR 12/11 A3022 RMK AO2,KCDN,2023-05-06T09:15:00Z,34.28,-80.57,12.0,11.0,0,0,,10.0,30.221457,,,TRUE,TRUE,,,,,,,CLR,,,,,,,,VFR,,,,,,,,,,,,METAR,90.0
KCDI 060915Z AUTO 00000KT 10SM CLR 04/04 A3025 RMK AO2 T00380037,KCDI,2023-05-06T09:15:00Z,39.97,-81.58,3.8,3.7,0,0,,10.0,30.250984,,,TRUE,TRUE,,,,,,,CLR,,,,,,,,VFR,,,,,,,,,,,,METAR,241.0
KCDH 060915Z AUTO 14008KT 8SM SCT009 BKN015 OVC028 22/22 A2994 RMK AO2,KCDH,2023-05-06T09:15:00Z,33.62,-92.77,22.0,22.0,140,8,,8.0,29.940945,,,TRUE,TRUE,,,,,,,SCT,900,BKN,1500,OVC,2800,,,MVFR,,,,,,,,,,,,METAR,38.0
KCDA 060915Z AUTO 00000KT 10SM 04/01 A3021 RMK AO2 T00360008,KCDA,2023-05-06T09:15:00Z,44.57,-72.02,3.6,0.8,0,0,,10.0,30.209646,,,TRUE,TRUE,,,,,,,,,,,,,,,,,,,,,,,,,,,METAR,357.0
KCCY 060915Z AUTO 14010KT 10SM OVC009 14/14 A2992 RMK AO2,KCCY,2023-05-06T09:15:00Z,43.07,-92.62,14.0,14.0,140,10,,10.0,29.920275,,,TRUE,TRUE,,,,,,,OVC,900,,,,,,,IFR,,,,,,,,,,,,SPECI,340.0
KCCU 060915Z AUTO 19005KT 10SM SCT050 M01/M10 A3012 RMK AO2,KCCU,2023-05-06T09:15:00Z,39.48,-106.15,-1.0,-10.0,190,5,,10.0,30.121063,,,TRUE,TRUE,,,,,,,SCT,5000,,,,,,,VFR,,,,,,,,,,,,METAR,3672.0
KCCO 060915Z AUTO 11004KT 10SM OVC050 14/14 A3018 RMK AO2 T01430137,KCCO,2023-05-06T09:15:00Z,33.32,-84.77,14.3,13.7,110,4,,10.0,30.180119,,,TRUE,TRUE,,,,,,,OVC,5000,,,,,,,VFR,,,,,,,,,,,,METAR,290.0
KCCB 060915Z AUTO 00000KT 10SM FEW037 OVC050 09/07 A3007 RMK AO2,KCCB,2023-05-06T09:15:00Z,34.12,-117.68,9.0,7.0,0,0,,10.0,30.070866,,,TRUE,TRUE,,,,,,,FEW,3700,OVC,5000,,,,,VFR,,,,,,,,,,,,METAR,440.0
KCCA 060915Z AUTO 00000KT 7SM OVC010 18/18 A2997 RMK AO2,KCCA,2023-05-06T09:15:00Z,35.6,-92.45,18.0,18.0,0,0,,7.0,29.970472,,,TRUE,TRUE,,,,,,,OVC,1000,,,,,,,MVFR,,,,,,,,,,,,METAR,152.0
KCBK 060915Z AUTO 03010KT 10SM SCT015 12/10 A2978 RMK AO2 T01220104,KCBK,2023-05-06T09:15:00Z,39.43,-101.05,12.2,10.4,30,10,,10.0,29.778543,,,TRUE,TRUE,,,,,,,SCT,1500,,,,,,,VFR,,,,,,,,,,,,SPECI,970.0
KCBG 060915Z AUTO 03006KT 10SM OVC016 10/02 A2998 RMK AO2,KCBG,2023-05-06T09:15:00Z,45.57,-93.27,10.0,2.0,30,6,,10.0,29.97933,,,TRUE,TRUE,,,,,,,OVC,1600,,,,,,,MVFR,,,,,,,,,,,,METAR,285.0
KCBF 060915Z AUTO 12005KT 10SM OVC030 16/16 A2982 RMK AO2,KCBF,2023-05-06T09:15:00Z,41.27,-95.77,16.0,16.0,120,5,,10.0,29.819881,,,TRUE,TRUE,,,,,,,OVC,3000,,,,,,,MVFR,,,,,,,,,,,,METAR,379.0
KCAV 060915Z AUTO 13012KT 10SM BKN041 BKN060 OVC090 14/13 A2987 RMK A01,KCAV,2023-05-06T09:15:00Z,42.75,-93.77,14.0,13.0,130,12,,10.0,29.870079,,,TRUE,TRUE,,,,,,,BKN,4100,BKN,6000,OVC,9000,,,VFR,,,,,,,,,,,,SPECI,352.0
KCAD 060915Z AUTO 13006KT 10SM CLR 10/04 A3019 RMK AO2 T00980041,KCAD,2023-05-06T09:15:00Z,44.27,-85.42,9.8,4.1,130,6,,10.0,30.188976,,,TRUE,TRUE,,,,,,,CLR,,,,,,,,VFR,,,,,,,,,,,,METAR,397.0
KC99 060915Z AUTO 31010G15KT 280V360 10SM CLR M02/M11 A3006 RMK AO2,KC99,2023-05-06T09:15:00Z,39.87,-105.55,-2.0,-11.0,310,10,15,10.0,30.059055,,,TRUE,TRUE,,,,,,,CLR,,,,,,,,VFR,,,,,,,,,,,,METAR,3334.0
KC83 060915Z AUTO 00000KT 10SM OVC060 12/10 A3007 RMK AO2,KC83,2023-05-06T09:15:00Z,37.83,-121.62,12.0,10.0,0,0,,10.0,30.070866,,,TRUE,TRUE,,,,,,,OVC,6000,,,,,,,VFR,,,,,,,,,,,,SPECI,16.0
KC75 060915Z AUTO 13006KT 10SM BKN037 OVC042 16/12 A3003 RMK AO2 T01590115 PWINO,KC75,2023-05-06T09:15:00Z,41.02,-89.38,15.9,11.5,130,6,,10.0,30.029528,,,TRUE,TRUE,,,,,TRUE,,BKN,3700,OVC,4200,,,,,VFR,,,,,,,,,,,,METAR,166.0
KC65 060915Z AUTO 12006KT 10SM FEW120 13/06 A3015 RMK A01,KC65,2023-05-06T09:15:00Z,41.37,-86.3,13.0,6.0,120,6,,10.0,30.15059,,,TRUE,TRUE,,,,,,,FEW,12000,,,,,,,VFR,,,,,,,,,,,,SPECI,241.0
KC62 060915Z AUTO 11006KT 10SM CLR 09/05 A3020 RMK AO2 T00930052,KC62,2023-05-06T09:15:00Z,41.47,-85.25,9.3,5.2,110,6,,10.0,30.200787,,,TRUE,TRUE,,,,,,,CLR,,,,,,,,VFR,,,,,,,,,,,,METAR,304.0
KC35 060915Z AUTO 14006KT 10SM BKN050 BKN070 OVC080 14/11 A3002 RMK AO2 T01360109 PWINO,KC35,2023-05-06T09:15:00Z,43.53,-89.98,13.6,10.9,140,6,,10.0,30.02067,,,TRUE,TRUE,,,,,TRUE,,BKN,5000,BKN,7000,OVC,8000,,,VFR,,,,,,,,,,,,METAR,272.0
KC29 060915Z AUTO 14007KT 10SM OVC060 14/12 A3004 RMK AO1 P0001 T01410122,KC29,2023-05-06T09:15:00Z,43.12,-89.53,14.1,12.2,140,7,,10.0,30.041338,,,TRUE,TRUE,,,,,,,OVC,6000,,,,,,,VFR,,,,,,0.01,,,,,,METAR,282.0
KC09 060915Z AUTO 13005KT 10SM -RA OVC075 15/09 A3006 RMK AO2 T01500093,KC09,2023-05-06T09:15:00Z,41.43,-88.42,15.0,9.3,130,5,,10.0,30.059055,,,TRUE,TRUE,,,,,,-RA,OVC,7500,,,,,,,VFR,,,,,,,,,,,,METAR,179.0
KC07 060915Z AUTO 18004KT 10SM SCT022 BKN036 OVC050 M01/M05 A3006 RMK AO2,KC07,2023-05-06T09:15:00Z,40.35,-106.7,-1.0,-5.0,180,4,,10.0,30.059055,,,TRUE,TRUE,,,,,,,SCT,2200,BKN,3600,OVC,5000,,,VFR,,,,,,,,,,,,SPECI,3224.0
KBYY 060915Z AUTO 05005KT 5SM BR SCT008 BKN015 OVC020 23/22 A2996 RMK AO2 T02380232,KBYY,2023-05-06T09:15:00Z,28.97,-95.87,23.8,22.0,50,5,,5.0,29.958662,,,TRUE,TRUE,,,,,,BR,SCT,800,BKN,1500,OVC,2000,,,MVFR,,,,,,,,,,,,SPECI,12.0
KBYL 060915Z AUTO 00000KT 10SM OVC100 11/09 A3019 RMK AO1,KBYL,2023-05-06T09:15:00Z,36.8,-84.2,11.0,9.0,0,0,,10.0,30.188976,,,TRUE,TRUE,,,,,,,OVC,10000,,,,,,,VFR,,,,,,,,,,,,METAR,355.0
KBXK 060915Z AUTO 35003KT 10SM CLR 14/M04 A2995 RMK A01,KBXK,2023-05-06T09:15:00Z,33.42,-112.68,14.0,-4.0,350,3,,10.0,29.949802,,,TRUE,TRUE,,,,,,,CLR,,,,,,,,VFR,,,,,,,,,,,,METAR,303.0
KBXA 060915Z AUTO 00000KT 4SM OVC003 21/20 A3003 RMK AO2 T02120200,KBXA,2023-05-06T09:15:00Z,30.82,-89.87,21.2,20.0,0,0,,4.0,30.029528,,,TRUE,TRUE,,,,,,,OVC,300,,,,,,,LIFR,,,,,,,,,,,,METAR,35.0
KBWW 060915Z AUTO 12007KT 10SM -RA SCT037 BKN050 OVC060 09/06 A2987 RMK AO2,KBWW,2023-05-06T09:15:00Z,46.17,-103.3,9.0,6.0,120,7,,10.0,29.870079,,,TRUE,TRUE,,,,,,-RA,SCT,3700,BKN,5000,OVC,6000,,,VFR,,,,,,,,,,,,METAR,911.0
KBWP 060915Z AUTO 08012KT 10SM OVC020 11/06 A2990 RMK AO2,KBWP,2023-05-06T09:15:00Z,46.25,-96.62,11.0,6.0,80,12,,10.0,29.899607,,,TRUE,TRUE,,,,,,,OVC,2000,,,,,,,MVFR,,,,,,,,,,,,METAR,294.0
KBWD 060915Z AUTO 14006KT 10SM OVC028 19/15 A2990 RMK AO1,KBWD,2023-05-06T09:15:00Z,31.8,-98.95,19.0,15.0,140,6,,10.0,29.899607,,,TRUE,TRUE,,,,,,,OVC,2800,,,,,,,MVFR,,,,,,,,,,,,METAR,420.0
KBVU 060915Z AUTO 10SM CLR 14/M01 A2993 RMK AO2,KBVU,2023-05-06T09:15:00Z,35.95,-114.87,14.0,-1.0,,,,10.0,29.929134,,,TRUE,TRUE,,,,,,,CLR,,,,,,,,VFR,,,,,,,,,,,,METAR,654.0
KBVS 060915Z AUTO 00000KT 10SM BKN005 BKN023 OVC046 09/09 A2996 RMK A01,KBVS,2023-05-06T09:15:00Z,48.47,-122.42,9.0,9.0,0,0,,10.0,29.958662,,,TRUE,TRUE,,,,,,,BKN,500,BKN,2300,OVC,4600,,,IFR,,,,,,,,,,,,METAR,31.0
KBVN 060915Z AUTO 00000KT 10SM BKN090 14/12 A2972 RMK AO2 T01410119,KBVN,2023-05-06T09:15:00Z,41.73,-98.05,14.1,11.9,0,0,,10.0,29.719488,,,TRUE,TRUE,,,,,,,BKN,9000,,,,,,,VFR,,,,,,,,,,,,SPECI,547.0
KBVI 060915Z AUTO 10003KT 10SM CLR 09/04 A3026 RMK AO2 T00920036,KBVI,2023-05-06T09:15:00Z,40.77,-80.37,9.2,3.6,100,3,,10.0,30.259842,,,TRUE,TRUE,,,,,,,CLR,,,,,,,,VFR,,,,,,,,,,,,METAR,387.0
KBUU 060915Z AUTO 14005KT 10SM SCT080 OVC100 15/07 A3008 RMK AO2 T01470069 PWINO,KBUU,2023-05-06T09:15:00Z,42.68,-88.3,14.7,6.9,140,5,,10.0,30.079725,,,TRUE,TRUE,,,,,TRUE,,SCT,8000,OVC,10000,,,,,VFR,,,,,,,,,,,,METAR,238.0
KBTN 060915Z AUTO 04009KT 10SM OVC014 11/08 A2985 RMK AO2,KBTN,2023-05-06T09:15:00Z,45.82,-97.75,11.0,8.0,40,9,,10.0,29.84941,,,TRUE,TRUE,,,,,,,OVC,1400,,,,,,,MVFR,,,,,,,,,,,,METAR,400.0
KBTA 060915Z AUTO 31009G15KT 230V330 4SM -VCTSRA SCT007 BKN012 OVC026 15/15 A2986 RMK AO2 LTG DSNT NW THRU NE T01470145,KBTA,2023-05-06T09:15:00Z,41.42,-96.12,14.7,14.5,310,9,15,4.0,29.861221,,,TRUE,TRUE,,,,,,VCTS -RA,SCT,700,BKN,1200,OVC,2600,,,MVFR,,,,,,,,,,,,SPECI,400.0
KBRY 060915Z AUTO 12003KT 10SM OVC090 14/12 A3013 RMK AO2 T01410120,KBRY,2023-05-06T09:15:00Z,37.82,-85.5,14.1,12.0,120,3,,10.0,30.129921,,,TRUE,TRUE,,,,,,,OVC,9000,,,,,,,VFR,,,,,,,,,,,,METAR,192.0
KBRG 060915Z AUTO 27009KT 10SM CLR 09/M10 A3007 RMK AO2 T00941097,KBRG,2023-05-06T09:15:00Z,34.65,-106.83,9.4,-9.7,270,9,,10.0,30.070866,,,TRUE,TRUE,,,,,,,CLR,,,,,,,,VFR,,,,,,,,,,,,METAR,1585.0
KBQX 060915Z AUTO 05005KT 2SM BR FEW004 24/23 A2998 RMK A01,KBQX,2023-05-06T09:15:00Z,28.5,-95.72,24.0,23.0,50,5,,2.0,29.97933,,,TRUE,TRUE,,,,,,BR,FEW,400,,,,,,,IFR,,,,,,,,,,,,SPECI,34.0
KBQP 060915Z AUTO 00000KT 10SM BKN009 OVC014 22/22 A2999 RMK AO2 T02200216,KBQP,2023-05-06T09:15:00Z,32.75,-91.88,22.0,21.6,0,0,,10.0,29.991142,,,TRUE,TRUE,,,,,,,BKN,900,OVC,1400,,,,,IFR,,,,,,,,,,,,METAR,50.0
KBQK 060915Z AUTO 09008KT 10SM BKN031 OVC040 19/18 A3015 RMK AO2 T01930177,KBQK,2023-05-06T09:15:00Z,31.25,-81.47,19.3,17.7,90,8,,10.0,30.15059,,,TRUE,TRUE,,,,,,,BKN,3100,OVC,4000,,,,,VFR,,,,,,,,,,,,METAR,7.0
KBPG 060915Z AUTO 00000KT 10SM CLR 15/00 A2990 RMK AO2 T01500000,KBPG,2023-05-06T09:15:00Z,32.22,-101.52,15.0,0.0,0,0,,10.0,29.899607,,,TRUE,TRUE,,,,,,,CLR,,,,,,,,VFR,,,,,,,,,,,,METAR,782.0
KBPC 060915Z AUTO 23009KT 10SM CLR 15/M01 A2980 RMK AO2,KBPC,2023-05-06T09:15:00Z,35.88,-101.03,15.0,-1.0,230,9,,10.0,29.799213,,,TRUE,TRUE,,,,,,,CLR,,,,,,,,VFR,,,,,,,,,,,,SPECI,844.0
KBOW 060915Z AUTO 05004KT 10SM OVC045 22/17 A3008 RMK AO2,KBOW,2023-05-06T09:15:00Z,27.93,-81.77,22.0,17.0,50,4,,10.0,30.079725,,,TRUE,TRUE,,,,,,,OVC,4500,,,,,,,VFR,,,,,,,,,,,,METAR,38.0
KBNW 060915Z AUTO 13009KT 10SM OVC036 14/14 A2986 RMK AO2,KBNW,2023-05-06T09:15:00Z,42.03,-93.83,14.0,14.0,130,9,,10.0,29.861221,,,TRUE,TRUE,,,,,,,OVC,3600,,,,,,,VFR,,,,,,,,,,,,SPECI,350.0
KBNL 060915Z AUTO 00000KT 10SM OVC080 16/14 A3020 RMK AO2,KBNL,2023-05-06T09:15:00Z,33.25,-81.38,16.0,14.0,0,0,,10.0,30.200787,,,TRUE,TRUE,,,,,,,OVC,8000,,,,,,,VFR,,,,,,,,,,,,METAR,76.0
KBMT 060915Z AUTO 12008KT 4SM -TSRA BKN010 BKN028 OVC075 20/19 A2998 RMK AO2 LTG DSNT ALQDS T01950190,KBMT,2023-05-06T09:15:00Z,30.07,-94.22,19.5,19.0,120,8,,4.0,29.97933,,,TRUE,TRUE,,,,,,-TSRA,BKN,1000,BKN,2800,OVC,7500,,,MVFR,,,,,,,,,,,,SPECI,8.0
KBKT 060915Z AUTO 04003KT 10SM OVC070 10/09 A3027 RMK AO1 T00970090,KBKT,2023-05-06T09:15:00Z,37.07,-77.95,9.7,9.0,40,3,,10.0,30.268702,,,TRUE,TRUE,,,,,,,OVC,7000,,,,,,,VFR,,,,,,,,,,,,METAR,134.0
KBKS 060915Z AUTO 09006KT 6SM BR BKN008 BKN013 25/25 A2985 RMK AO2 BKN013 V OVC SLP070 T02500250 $,KBKS,2023-05-06T09:15:00Z,27.2,-98.12,25.0,25.0,90,6,,6.0,29.84941,1007.0,,TRUE,TRUE,TRUE,,,,,BR,BKN,800,BKN,1300,,,,,IFR,,,,,,,,,,,,METAR,34.0
KBKN 060915Z AUTO 16012KT 23/23 A2973 RMK AO2,KBKN,2023-05-06T09:15:00Z,36.75,-97.35,23.0,23.0,160,12,,,29.731298,,,TRUE,TRUE,,,,,,,,,,,,,,,,,,,,,,,,,,,METAR,208.0
KBKD 060915Z AUTO 19013G19KT 10SM CLR 23/15 A2986 RMK AO2 T02340147,KBKD,2023-05-06T09:15:00Z,32.72,-98.88,23.4,14.7,190,13,19,10.0,29.861221,,,TRUE,TRUE,,,,,,,CLR,,,,,,,,VFR,,,,,,,,,,,,SPECI,383.0
KBJI 060915Z AUTO 09008KT 10SM OVC045 07/04 A3001 RMK AO2 T00720044,KBJI,2023-05-06T09:15:00Z,47.5,-94.92,7.2,4.4,90,8,,10.0,30.008858,,,TRUE,TRUE,,,,,,,OVC,4500,,,,,,,VFR,,,,,,,,,,,,METAR,422.0
KBJC 060915Z AUTO 29004KT 10SM CLR 09/M01 A2988 RMK AO2,KBJC,2023-05-06T09:15:00Z,39.9,-105.1,9.0,-1.0,290,4,,10.0,29.878937,,,TRUE,TRUE,,,,,,,CLR,,,,,,,,VFR,,,,,,,,,,,,METAR,1694.0
KBIJ 060915Z AUTO 00000KT 10SM OVC080 16/13 A3012 RMK AO2,KBIJ,2023-05-06T09:15:00Z,31.4,-84.9,16.0,13.0,0,0,,10.0,30.121063,,,TRUE,TRUE,,,,,,,OVC,8000,,,,,,,VFR,,,,,,,,,,,,SPECI,63.0
KBIE 060915Z AUTO 06005KT 7SM OVC009 18/17 A2980 RMK AO2 T01770166,KBIE,2023-05-06T09:15:00Z,40.28,-96.75,17.7,16.6,60,5,,7.0,29.799213,,,TRUE,TRUE,,,,,,,OVC,900,,,,,,,IFR,,,,,,,,,,,,METAR,398.0
KBHC 060915Z AUTO 04003KT 10SM OVC075 16/15 A3016 RMK AO2,KBHC,2023-05-06T09:15:00Z,31.72,-82.4,16.0,15.0,40,3,,10.0,30.159449,,,TRUE,TRUE,,,,,,,OVC,7500,,,,,,,VFR,,,,,,,,,,,,METAR,61.0
KBGF 060915Z AUTO 12009KT 10SM BKN043 OVC050 14/11 A3015 RMK A01,KBGF,2023-05-06T09:15:00Z,35.18,-86.07,14.0,11.0,120,9,,10.0,30.15059,,,TRUE,TRUE,,,,,,,BKN,4300,OVC,5000,,,,,VFR,,,,,,,,,,,,SPECI,295.0
KBGE 060915Z AUTO 06003KT 10SM SCT085 17/15 A3011 RMK AO2 T01690145,KBGE,2023-05-06T09:15:00Z,30.97,-84.63,16.9,14.5,60,3,,10.0,30.109253,,,TRUE,TRUE,,,,,,,SCT,8500,,,,,,,VFR,,,,,,,,,,,,METAR,40.0
KBFR 060915Z AUTO 13004KT 10SM OVC085 15/08 A3013 RMK AO2,KBFR,2023-05-06T09:15:00Z,38.83,-86.45,15.0,8.0,130,4,,10.0,30.129921,,,TRUE,TRUE,,,,,,,OVC,8500,,,,,,,VFR,,,,,,,,,,,,METAR,223.0
KBEC 060915Z AUTO 16011KT 7SM BKN016 BKN023 23/23 A2973 RMK AO2 T02260225,KBEC,2023-05-06T09:15:00Z,37.7,-97.22,22.6,22.5,160,11,,7.0,29.731298,,,TRUE,TRUE,,,,,,,BKN,1600,BKN,2300,,,,,MVFR,,,,,,,,,,,,METAR,421.0
KBDU 060915Z AUTO 20003KT 10SM CLR 07/M03 A2986 RMK AO2,KBDU,2023-05-06T09:15:00Z,40.03,-105.23,7.0,-3.0,200,3,,10.0,29.861221,,,TRUE,TRUE,,,,,,,CLR,,,,,,,,VFR,,,,,,,,,,,,SPECI,1614.0
KBDN 060915Z AUTO 00000KT 10SM FEW027 SCT033 BKN065 03/02 A2993 RMK AO2,KBDN,2023-05-06T09:15:00Z,44.1,-121.2,3.0,2.0,0,0,,10.0,29.929134,,,TRUE,TRUE,,,,,,,FEW,2700,SCT,3300,BKN,6500,,,VFR,,,,,,,,,,,,SPECI,1044.0
KBDH 060915Z AUTO 07013KT 10SM OVC009 12/08 A2993 RMK AO2,KBDH,2023-05-06T09:15:00Z,45.12,-95.13,12.0,8.0,70,13,,10.0,29.929134,,,TRUE,TRUE,,,,,,,OVC,900,,,,,,,IFR,,,,,,,,,,,,METAR,341.0
KBDG 060915Z AUTO 29008KT 10SM 09/M05 A3010 RMK AO1 T00921054,KBDG,2023-05-06T09:15:00Z,37.58,-109.47,9.2,-5.4,290,8,,10.0,30.100393,,,TRUE,TRUE,,,,,,,,,,,,,,,,,,,,,,,,,,,METAR,1778.0
KBCK 060915Z AUTO 09003KT 10SM SCT045 OVC060 13/13 A2999 RMK AO2 P0001 T01330131,KBCK,2023-05-06T09:15:00Z,44.25,-90.85,13.3,13.1,90,3,,10.0,29.991142,,,TRUE,TRUE,,,,,,,SCT,4500,OVC,6000,,,,,VFR,,,,,,0.01,,,,,,METAR,256.0
KBCB 060915Z AUTO 00000KT 10SM CLR 08/07 A3029 RMK AO2 T00810072,KBCB,2023-05-06T09:15:00Z,37.22,-80.42,8.1,7.2,0,0,,10.0,30.28937,,,TRUE,TRUE,,,,,,,CLR,,,,,,,,VFR,,,,,,,,,,,,METAR,642.0
KBBP 060915Z AUTO 00000KT 10SM CLR 11/11 A3022 RMK AO2,KBBP,2023-05-06T09:15:00Z,34.62,-79.73,11.0,11.0,0,0,,10.0,30.221457,,,TRUE,TRUE,,,,,,,CLR,,,,,,,,VFR,,,,,,,,,,,,METAR,44.0
KBBG 060915Z AUTO 12011KT 3SM BR OVC003 15/15 A2994 RMK AO2,KBBG,2023-05-06T09:15:00Z,36.53,-93.2,15.0,15.0,120,11,,3.0,29.940945,,,TRUE,TRUE,,,,,,BR,OVC,300,,,,,,,LIFR,,,,,,,,,,,,METAR,403.0
KBBD 060915Z AUTO 16011G16KT 10SM CLR 21/17 A2991 RMK AO2,KBBD,2023-05-06T09:15:00Z,31.18,-99.32,21.0,17.0,160,11,16,10.0,29.911417,,,TRUE,TRUE,,,,,,,CLR,,,,,,,,VFR,,,,,,,,,,,,SPECI,554.0
KBBB 060915Z AUTO 11011G14KT 10SM OVC012 11/07 A2989 RMK AO2,KBBB,2023-05-06T09:15:00Z,45.32,-95.65,11.0,7.0,110,11,14,10.0,29.890747,,,TRUE,TRUE,,,,,,,OVC,1200,,,,,,,MVFR,,,,,,,,,,,,METAR,315.0
KBAX 060915Z AUTO 14007KT 110V170 10SM CLR 10/08 A3027 RMK AO2 T00950075,KBAX,2023-05-06T09:15:00Z,43.78,-82.98,9.5,7.5,140,7,,10.0,30.268702,,,TRUE,TRUE,,,,,,,CLR,,,,,,,,VFR,,,,,,,,,,,,METAR,229.0
KBAM 060915Z AUTO 14004KT 10SM BKN049 OVC085 01/00 A2997 RMK AO1,KBAM,2023-05-06T09:15:00Z,40.6,-116.87,1.0,0.0,140,4,,10.0,29.970472,,,TRUE,TRUE,,,,,,,BKN,4900,OVC,8500,,,,,VFR,,,,,,,,,,,,SPECI,1381.0
KBAF 060915Z AUTO 00000KT 8SM CLR 03/03 A3022 RMK AO2 T00330028,KBAF,2023-05-06T09:15:00Z,42.17,-72.72,3.3,2.8,0,0,,8.0,30.221457,,,TRUE,TRUE,,,,,,,CLR,,,,,,,,VFR,,,,,,,,,,,,SPECI,80.0
KBAD 060915Z AUTO 18011KT 10SM BKN015 23/22 A2989 RMK AO2 CIG 015V020 SLP124,KBAD,2023-05-06T09:15:00Z,32.5,-93.67,23.0,22.0,180,11,,10.0,29.890747,1012.4,,TRUE,TRUE,,,,,,,BKN,1500,,,,,,,MVFR,,,,,,,,,,,,SPECI,49.0
KBAC 060915Z AUTO 05004G11KT 10SM OVC026 08/07 A2994 RMK AO2,KBAC,2023-05-06T09:15:00Z,46.93,-98.02,8.0,7.0,50,4,11,10.0,29.940945,,,TRUE,TRUE,,,,,,,OVC,2600,,,,,,,MVFR,,,,,,,,,,,,METAR,423.0
KAZE 060915Z AUTO 06003KT 10SM OVC070 17/15 A3015 RMK AO2 T01700147,KAZE,2023-05-06T09:15:00Z,31.88,-82.65,17.0,14.7,60,3,,10.0,30.15059,,,TRUE,TRUE,,,,,,,OVC,7000,,,,,,,VFR,,,,,,,,,,,,SPECI,78.0
KAZC 060915Z AUTO 16004KT 10SM CLR 01/M03 A3004 RMK AO2,KAZC,2023-05-06T09:15:00Z,36.97,-113.02,1.0,-3.0,160,4,,10.0,30.041338,,,TRUE,TRUE,,,,,,,CLR,,,,,,,,VFR,,,,,,,,,,,,SPECI,1476.0
KAYS 060915Z AUTO 08004KT 10SM BKN075 BKN080 OVC095 19/18 A3014 RMK AO2 T01900182,KAYS,2023-05-06T09:15:00Z,31.25,-82.4,19.0,18.2,80,4,,10.0,30.138779,,,TRUE,TRUE,,,,,,,BKN,7500,BKN,8000,OVC,9500,,,VFR,,,,,,,,,,,,METAR,42.0
KAXX 060915Z AUTO 25016G19KT 10SM CLR 05/M10 A3009 RMK AO2 T00531104,KAXX,2023-05-06T09:15:00Z,36.42,-105.28,5.3,-10.4,250,16,19,10.0,30.088583,,,TRUE,TRUE,,,,,,,CLR,,,,,,,,VFR,,,,,,,,,,,,METAR,2543.0
KAXV 060915Z AUTO 11005KT 10SM CLR 10/05 A3020 RMK AO2,KAXV,2023-05-06T09:15:00Z,40.5,-84.3,10.0,5.0,110,5,,10.0,30.200787,,,TRUE,TRUE,,,,,,,CLR,,,,,,,,VFR,,,,,,,,,,,,METAR,278.0
KAXS 060915Z AUTO 20007KT 10SM CLR 20/13 A2981 RMK AO2 T01970130,KAXS,2023-05-06T09:15:00Z,34.7,-99.33,19.7,13.0,200,7,,10.0,29.811024,,,TRUE,TRUE,,,,,,,CLR,,,,,,,,VFR,,,,,,,,,,,,SPECI,433.0
KAXH 060915Z AUTO 00000KT 10SM CLR 21/19 A2995 RMK AO2 T02100192,KAXH,2023-05-06T09:15:00Z,29.52,-95.48,21.0,19.2,0,0,,10.0,29.949802,,,TRUE,TRUE,,,,,,,CLR,,,,,,,,VFR,,,,,,,,,,,,SPECI,18.0
KAXA 060915Z AUTO 13011G16KT 10SM FEW026 BKN048 OVC060 15/15 A2986 RMK A01,KAXA,2023-05-06T09:15:00Z,43.07,-94.27,15.0,15.0,130,11,16,10.0,29.861221,,,TRUE,TRUE,,,,,,,FEW,2600,BKN,4800,OVC,6000,,,VFR,,,,,,,,,,,,SPECI,371.0
KAWG 060915Z AUTO 14008KT 10SM OVC018 15/15 A2993 RMK AO2,KAWG,2023-05-06T09:15:00Z,41.27,-91.67,15.0,15.0,140,8,,10.0,29.929134,,,TRUE,TRUE,,,,,,,OVC,1800,,,,,,,MVFR,,,,,,,,,,,,SPECI,229.0
KAVQ 060915Z AUTO 00000KT 10SM 17/M01 A2997 RMK AO2 T01651007,KAVQ,2023-05-06T09:15:00Z,32.4,-111.22,16.5,-0.7,0,0,,10.0,29.970472,,,TRUE,TRUE,,,,,,,,,,,,,,,,,,,,,,,,,,,SPECI,618.0
KAVC 060915Z AUTO 00000KT 10SM BKN075 OVC090 11/11 A3031 RMK AO2 T01110109,KAVC,2023-05-06T09:15:00Z,36.68,-78.05,11.1,10.9,0,0,,10.0,30.31004,,,TRUE,TRUE,,,,,,,BKN,7500,OVC,9000,,,,,VFR,,,,,,,,,,,,METAR,119.0
KAUN 060915Z AUTO 17005KT 8SM SCT005 BKN027 OVC033 08/08 A3006 RMK A01,KAUN,2023-05-06T09:15:00Z,38.95,-121.08,8.0,8.0,170,5,,8.0,30.059055,,,TRUE,TRUE,,,,,,,SCT,500,BKN,2700,OVC,3300,,,MVFR,,,,,,,,,,,,METAR,453.0
KAUH 060915Z AUTO 09010KT 10SM OVC045 13/12 A2977 RMK AO2 T01280115,KAUH,2023-05-06T09:15:00Z,40.88,-98.0,12.8,11.5,90,10,,10.0,29.769686,,,TRUE,TRUE,,,,,,,OVC,4500,,,,,,,VFR,,,,,,,,,,,,SPECI,549.0
KATW 060915Z AUTO 16012KT 10SM OVC090 13/07 A3006 RMK AO2,KATW,2023-05-06T09:15:00Z,44.27,-88.52,13.0,7.0,160,12,,10.0,30.059055,,,TRUE,TRUE,,,,,,,OVC,9000,,,,,,,VFR,,,,,,,,,,,,METAR,266.0
KATS 060915Z AUTO 22011KT 10SM CLR 15/M11 A2994 RMK AO2,KATS,2023-05-06T09:15:00Z,32.85,-104.47,15.0,-11.0,220,11,,10.0,29.940945,,,TRUE,TRUE,,,,,,,CLR,,,,,,,,VFR,,,,,,,,,,,,METAR,1073.0
KATA 060915Z AUTO 13004KT 6SM BR SCT008 BKN014 24/23 A2987 RMK AO2 SLP015 T02370232 $,KATA,2023-05-06T09:15:00Z,33.1,-94.2,23.7,23.2,130,4,,6.0,29.870079,1001.5,,TRUE,TRUE,TRUE,,,,,BR,SCT,800,BKN,1400,,,,,MVFR,,,,,,,,,,,,METAR,85.0
KASW 060915Z AUTO 12005KT 10SM CLR 10/05 A3017 RMK AO2 T01010056,KASW,2023-05-06T09:15:00Z,41.27,-85.83,10.1,5.6,120,5,,10.0,30.171259,,,TRUE,TRUE,,,,,,,CLR,,,,,,,,VFR,,,,,,,,,,,,SPECI,253.0
KASN 060915Z AUTO 00000KT 10SM OVC042 15/14 A3015 RMK AO2 T01450136,KASN,2023-05-06T09:15:00Z,33.57,-86.05,14.5,13.6,0,0,,10.0,30.15059,,,TRUE,TRUE,,,,,,,OVC,4200,,,,,,,VFR,,,,,,,,,,,,SPECI,159.0
KASL 060915Z AUTO 16006KT 10SM CLR 23/22 A2986 RMK AO2 T02330225 $,KASL,2023-05-06T09:15:00Z,32.52,-94.3,23.3,22.5,160,6,,10.0,29.861221,,,TRUE,TRUE,TRUE,,,,,,CLR,,,,,,,,VFR,,,,,,,,,,,,METAR,104.0
KARW 060915Z AUTO 04004KT 10SM SCT060 OVC100 17/15 A3018 RMK AO2,KARW,2023-05-06T09:15:00Z,32.42,-80.63,17.0,15.0,40,4,,10.0,30.180119,,,TRUE,TRUE,,,,,,,SCT,6000,OVC,10000,,,,,VFR,,,,,,,,,,,,METAR,2.0
KARV 060915Z AUTO 10004KT 10SM SCT006 OVC100 09/08 A3005 RMK AO2 T00860075,KARV,2023-05-06T09:15:00Z,45.92,-89.72,8.6,7.5,100,4,,10.0,30.050198,,,TRUE,TRUE,,,,,,,SCT,600,OVC,10000,,,,,VFR,,,,,,,,,,,,METAR,494.0
KARM 060915Z AUTO 11005KT 10SM CLR 21/19 A2995 RMK AO2 T02050193 TSNO,KARM,2023-05-06T09:15:00Z,29.25,-96.15,20.5,19.3,110,5,,10.0,29.949802,,,TRUE,TRUE,,,TRUE,,,,CLR,,,,,,,,VFR,,,,,,,,,,,,SPECI,29.0
KAQX 060915Z AUTO 00000KT 10SM OVC090 16/14 A3019 RMK AO2,KAQX,2023-05-06T09:15:00Z,32.98,-81.27,16.0,14.0,0,0,,10.0,30.188976,,,TRUE,TRUE,,,,,,,OVC,9000,,,,,,,VFR,,,,,,,,,,,,METAR,48.0
KAQO 060915Z AUTO 00000KT 10SM BKN025 BKN031 19/16 A2992 RMK AO2,KAQO,2023-05-06T09:15:00Z,30.78,-98.67,19.0,16.0,0,0,,10.0,29.920275,,,TRUE,TRUE,,,,,,,BKN,2500,BKN,3100,,,,,MVFR,,,,,,,,,,,,SPECI,334.0
KAPY 060915Z AUTO 13006KT 5SM BR CLR 25/23 A2982 RMK AO2 T02500228 TSNO,KAPY,2023-05-06T09:15:00Z,26.97,-99.25,25.0,22.8,130,6,,5.0,29.819881,,,TRUE,TRUE,,,TRUE,,,BR,CLR,,,,,,,,MVFR,,,,,,,,,,,,METAR,129.0
KANW 060915Z AUTO 26007KT 10SM CLR 11/10 A2977 RMK AO2 T01110103,KANW,2023-05-06T09:15:00Z,42.57,-100.0,11.1,10.3,260,7,,10.0,29.769686,,,TRUE,TRUE,,,,,,,CLR,,,,,,,,VFR,,,,,,,,,,,,SPECI,788.0
KANQ 060915Z AUTO 11010KT 10SM FEW042 FEW048 BKN060 10/04 A3020 RMK AO2,KANQ,2023-05-06T09:15:00Z,41.63,-85.08,10.0,4.0,110,10,,10.0,30.200787,,,TRUE,TRUE,,,,,,,FEW,4200,FEW,4800,BKN,6000,,,VFR,,,,,,,,,,,,METAR,299.0
KANE 060915Z AUTO 06006KT 10SM OVC013 14/12 A2995 RMK AO2,KANE,2023-05-06T09:15:00Z,45.15,-93.22,14.0,12.0,60,6,,10.0,29.949802,,,TRUE,TRUE,,,,,,,OVC,1300,,,,,,,MVFR,,,,,,,,,,,,METAR,276.0
KAMN 060915Z AUTO 12006KT 10SM CLR 11/04 A3022 RMK AO2 T01070036,KAMN,2023-05-06T09:15:00Z,43.32,-84.68,10.7,3.6,120,6,,10.0,30.221457,,,TRUE,TRUE,,,,,,,CLR,,,,,,,,VFR,,,,,,,,,,,,METAR,228.0
KALN 060915Z AUTO 15005KT 10SM BKN034 OVC040 17/11 A3002 RMK AO2 T01650113,KALN,2023-05-06T09:15:00Z,38.88,-90.03,16.5,11.3,150,5,,10.0,30.02067,,,TRUE,TRUE,,,,,,,BKN,3400,OVC,4000,,,,,VFR,,,,,,,,,,,,METAR,159.0
KALM 060915Z AUTO 15004KT 10SM FEW037 SCT044 BKN050 14/M12 A3003 RMK AO2,KALM,2023-05-06T09:15:00Z,32.83,-105.98,14.0,-12.0,150,4,,10.0,30.029528,,,TRUE,TRUE,,,,,,,FEW,3700,SCT,4400,BKN,5000,,,VFR,,,,,,,,,,,,METAR,1267.0
KAJZ 060915Z AUTO 28011G16KT 10SM SCT033 BKN060 OVC085 11/03 A3002 RMK AO2 T01060026 PWINO,KAJZ,2023-05-06T09:15:00Z,38.78,-108.07,10.6,2.6,280,11,16,10.0,30.02067,,,TRUE,TRUE,,,,,TRUE,,SCT,3300,BKN,6000,OVC,8500,,,VFR,,,,,,,,,,,,METAR,1583.0
KAJR 060915Z AUTO 06003KT 7SM SCT060 BKN090 OVC110 14/13 A3020 RMK AO2 T01350129,KAJR,2023-05-06T09:15:00Z,34.5,-83.55,13.5,12.9,60,3,,7.0,30.200787,,,TRUE,TRUE,,,,,,,SCT,6000,BKN,9000,OVC,11000,,,VFR,,,,,,,,,,,,METAR,441.0
KAJG 060915Z AUTO 12005KT 10SM SCT038 OVC045 16/12 A3010 RMK AO2 T01600115,KAJG,2023-05-06T09:15:00Z,38.62,-87.73,16.0,11.5,120,5,,10.0,30.100393,,,TRUE,TRUE,,,,,,,SCT,3800,OVC,4500,,,,,VFR,,,,,,,,,,,,METAR,130.0
KAIO 060915Z AUTO 18003KT 10SM FEW022 SCT029 OVC055 15/15 A2985 RMK AO2,KAIO,2023-05-06T09:15:00Z,41.4,-95.03,15.0,15.0,180,3,,10.0,29.84941,,,TRUE,TRUE,,,,,,,FEW,2200,SCT,2900,OVC,5500,,,VFR,,,,,,,,,,,,SPECI,349.0
KAIK 060915Z AUTO 07006KT 10SM OVC070 15/13 A3021 RMK AO2 T01510134,KAIK,2023-05-06T09:15:00Z,33.65,-81.68,15.1,13.4,70,6,,10.0,30.209646,,,TRUE,TRUE,,,,,,,OVC,7000,,,,,,,VFR,,,,,,,,,,,,METAR,155.0
KAIG 060915Z AUTO 09006KT 10SM OVC100 08/08 A3007 RMK AO2 T00810075,KAIG,2023-05-06T09:15:00Z,45.15,-89.12,8.1,7.5,90,6,,10.0,30.070866,,,TRUE,TRUE,,,,,,,OVC,10000,,,,,,,VFR,,,,,,,,,,,,METAR,462.0
KAID 060915Z AUTO 14007KT 10SM CLR 13/04 A3017 RMK AO2 T01330037,KAID,2023-05-06T09:15:00Z,40.12,-85.62,13.3,3.7,140,7,,10.0,30.171259,,,TRUE,TRUE,,,,,,,CLR,,,,,,,,VFR,,,,,,,,,,,,METAR,277.0
KAHQ 060915Z AUTO 35008KT 7SM -DZ SCT018 OVC028 15/14 A2984 RMK AO2 T01470136,KAHQ,2023-05-06T09:15:00Z,41.23,-96.6,14.7,13.6,350,8,,7.0,29.840551,,,TRUE,TRUE,,,,,,-DZ,SCT,1800,OVC,2800,,,,,MVFR,,,,,,,,,,,,SPECI,372.0
KAGO 060915Z AUTO 14005KT 2SM BR BKN004 OVC020 22/22 A2991 RMK A01,KAGO,2023-05-06T09:15:00Z,33.23,-93.22,22.0,22.0,140,5,,2.0,29.911417,,,TRUE,TRUE,,,,,,BR,BKN,400,OVC,2000,,,,,LIFR,,,,,,,,,,,,METAR,91.0
KAGI 060915Z AUTO 12016KT 7SM CLR 25/24 A2996 RMK AO2 T02490235,KAGI,2023-05-06T09:15:00Z,27.55,-92.45,24.9,23.5,120,16,,7.0,29.958662,,,TRUE,TRUE,,,,,,,CLR,,,,,,,,VFR,,,,,,,,,,,,SPECI,41.0
KAFK 060915Z AUTO 15004KT 10SM OVC011 17/15 A2984 RMK AO2 T01710152,KAFK,2023-05-06T09:15:00Z,40.6,-95.85,17.1,15.2,150,4,,10.0,29.840551,,,TRUE,TRUE,,,,,,,OVC,1100,,,,,,,MVFR,,,,,,,,,,,,SPECI,353.0
KAEL 060915Z AUTO 15010KT 10SM OVC011 15/13 A2990 RMK AO2,KAEL,2023-05-06T09:15:00Z,43.68,-93.37,15.0,13.0,150,10,,10.0,29.899607,,,TRUE,TRUE,,,,,,,OVC,1100,,,,,,,MVFR,,,,,,,,,,,,METAR,382.0
KAEJ 060915Z AUTO 00000KT 10SM SCT090 M01/M07 A3002 RMK AO2 T10141066,KAEJ,2023-05-06T09:15:00Z,38.82,-106.12,-1.4,-6.6,0,0,,10.0,30.02067,,,TRUE,TRUE,,,,,,,SCT,9000,,,,,,,VFR,,,,,,,,,,,,SPECI,2420.0
KAEG 060915Z AUTO 26009KT 10SM CLR 04/M11 A3008 RMK AO2 T00431111,KAEG,2023-05-06T09:15:00Z,35.13,-106.8,4.3,-11.1,260,9,,10.0,30.079725,,,TRUE,TRUE,,,,,,,CLR,,,,,,,,VFR,,,,,,,,,,,,METAR,1771.0
KADU 060915Z AUTO 00000KT 7SM SCT033 SCT043 OVC070 14/13 A2985 RMK AO2 PWINO,KADU,2023-05-06T09:15:00Z,41.7,-94.92,14.0,13.0,0,0,,7.0,29.84941,,,TRUE,TRUE,,,,,TRUE,,SCT,3300,SCT,4300,OVC,7000,,,VFR,,,,,,,,,,,,METAR,391.0
KADT 060915Z AUTO 02005KT 10SM CLR 12/09 A2983 RMK AO2 T01150090,KADT,2023-05-06T09:15:00Z,39.83,-101.05,11.5,9.0,20,5,,10.0,29.828741,,,TRUE,TRUE,,,,,,,CLR,,,,,,,,VFR,,,,,,,,,,,,SPECI,899.0
KADS 060915Z AUTO 17004KT 10SM CLR 25/11 A2985 RMK AO2 T02450112,KADS,2023-05-06T09:15:00Z,32.97,-96.83,24.5,11.2,170,4,,10.0,29.84941,,,TRUE,TRUE,,,,,,,CLR,,,,,,,,VFR,,,,,,,,,,,,METAR,198.0
KADH 060915Z AUTO 16008KT 2SM BR OVC003 22/22 A2985 RMK AO2,KADH,2023-05-06T09:15:00Z,34.8,-96.67,22.0,22.0,160,8,,2.0,29.84941,,,TRUE,TRUE,,,,,,BR,OVC,300,,,,,,,LIFR,,,,,,,,,,,,METAR,301.0
KACQ 060915Z AUTO 10SM OVC013 13/13 A2992 RMK AO2,KACQ,2023-05-06T09:15:00Z,44.07,-93.55,13.0,13.0,,,,10.0,29.920275,,,TRUE,TRUE,,,,,,,OVC,1300,,,,,,,MVFR,,,,,,,,,,,,METAR,339.0
KACP 060915Z AUTO 21003KT 7SM OVC009 25/22 A2999 RMK AO2 LTG DSNT W AND NW,KACP,2023-05-06T09:15:00Z,30.75,-92.68,25.0,22.0,210,3,,7.0,29.991142,,,TRUE,TRUE,,,,,,,OVC,900,,,,,,,IFR,,,,,,,,,,,,METAR,31.0
KACJ 060915Z AUTO 06005KT 10SM FEW060 OVC100 16/15 A3015 RMK AO2 T01620150,KACJ,2023-05-06T09:15:00Z,32.12,-84.18,16.2,15.0,60,5,,10.0,30.15059,,,TRUE,TRUE,,,,,,,FEW,6000,OVC,10000,,,,,VFR,,,,,,,,,,,,METAR,140.0
KACB 060915Z AUTO 08007KT 10SM OVC075 13/05 A3019 RMK AO2 T01290048,KACB,2023-05-06T09:15:00Z,44.98,-85.2,12.9,4.8,80,7,,10.0,30.188976,,,TRUE,TRUE,,,,,,,OVC,7500,,,,,,,VFR,,,,,,,,,,,,METAR,189.0
KAAS 060915Z AUTO 11004KT 10SM OVC090 13/10 A3021 RMK AO1,KAAS,2023-05-06T09:15:00Z,37.35,-85.32,13.0,10.0,110,4,,10.0,30.209646,,,TRUE,TRUE,,,,,,,OVC,9000,,,,,,,VFR,,,,,,,,,,,,METAR,270.0
KAAA 060915Z AUTO 15006KT 10SM BKN033 BKN039 OVC048 16/11 A3005 RMK AO2 T01560107,KAAA,2023-05-06T09:15:00Z,40.17,-89.33,15.6,10.7,150,6,,10.0,30.050198,,,TRUE,TRUE,,,,,,,BKN,3300,BKN,3900,OVC,4800,,,VFR,,,,,,,,,,,,METAR,179.0
KA39 060915Z AUTO 13004KT 10SM CLR 13/M02 A2998 RMK AO2,KA39,2023-05-06T09:15:00Z,32.98,-111.92,13.0,-2.0,130,4,,10.0,29.97933,,,TRUE,TRUE,,,,,,,CLR,,,,,,,,VFR,,,,,,,,,,,,SPECI,391.0
K9V9 060915Z AUTO 00000KT 10SM CLR 13/13 A2971 RMK AO2 T01330133,K9V9,2023-05-06T09:15:00Z,43.77,-99.32,13.3,13.3,0,0,,10.0,29.71063,,,TRUE,TRUE,,,,,,,CLR,,,,,,,,VFR,,,,,,,,,,,,SPECI,511.0
K9S9 060915Z AUTO 20007KT 10SM OVC050 09/08 A2995 RMK AO2 PWINO,K9S9,2023-05-06T09:15:00Z,45.45,-119.68,9.0,8.0,200,7,,10.0,29.949802,,,TRUE,TRUE,,,,,TRUE,,OVC,5000,,,,,,,VFR,,,,,,,,,,,,METAR,498.0
K9MN 060915Z AUTO 10006KT 10SM OVC011 14/14 A2994 RMK AO1 T01400140,K9MN,2023-05-06T09:15:00Z,44.02,-92.48,14.0,14.0,100,6,,10.0,29.940945,,,TRUE,TRUE,,,,,,,OVC,1100,,,,,,,MVFR,,,,,,,,,,,,SPECI,308.0
K9D7 060915Z AUTO 07013KT 10SM BKN110 08/08 A3002 RMK AO2 TSNO,K9D7,2023-05-06T09:15:00Z,48.48,-99.23,8.0,8.0,70,13,,10.0,30.02067,,,TRUE,TRUE,,,TRUE,,,,BKN,11000,,,,,,,VFR,,,,,,,,,,,,METAR,451.0
K9A5 060915Z AUTO 00000KT 7SM OVC050 12/12 A3020 RMK AO2 T01210121,K9A5,2023-05-06T09:15:00Z,34.68,-85.28,12.1,12.1,0,0,,7.0,30.200787,,,TRUE,TRUE,,,,,,,OVC,5000,,,,,,,VFR,,,,,,,,,,,,METAR,234.0
K96D 060915Z AUTO 00000KT 10SM SCT100 07/05 A3006 RMK AO2,K96D,2023-05-06T09:15:00Z,48.93,-97.9,7.0,5.0,0,0,,10.0,30.059055,,,TRUE,TRUE,,,,,,,SCT,10000,,,,,,,VFR,,,,,,,,,,,,METAR,290.0
K8T6 060915Z AUTO 09007G13KT 050V120 6SM BR FEW011 BKN016 OVC027 25/25 A2990 RMK AO2,K8T6,2023-05-06T09:15:00Z,28.37,-98.12,25.0,25.0,90,7,13,6.0,29.899607,,,TRUE,TRUE,,,,,,BR,FEW,1100,BKN,1600,OVC,2700,,,MVFR,,,,,,,,,,,,METAR,39.0
K8B0 060915Z AUTO 00000KT 10SM CLR 05/03 A3014 RMK AO2,K8B0,2023-05-06T09:15:00Z,44.98,-70.65,5.0,3.0,0,0,,10.0,30.138779,,,TRUE,TRUE,,,,,,,CLR,,,,,,,,VFR,,,,,,,,,,,,METAR,552.0
K8A3 060915Z AUTO 00000KT 10SM OVC065 15/10 A3016 RMK A01,K8A3,2023-05-06T09:15:00Z,36.42,-85.32,15.0,10.0,0,0,,10.0,30.159449,,,TRUE,TRUE,,,,,,,OVC,6500,,,,,,,VFR,,,,,,,,,,,,METAR,413.0
K8A0 060915Z AUTO 13003KT 10SM BKN040 BKN065 13/11 A3015 RMK AO2,K8A0,2023-05-06T09:15:00Z,34.23,-86.25,13.0,11.0,130,3,,10.0,30.15059,,,TRUE,TRUE,,,,,,,BKN,4000,BKN,6500,,,,,VFR,,,,,,,,,,,,METAR,313.0
K82C 060915Z AUTO 00000KT 10SM BKN075 BKN085 13/13 A3001 RMK AO2 T01310131,K82C,2023-05-06T09:15:00Z,43.83,-90.13,13.1,13.1,0,0,,10.0,30.008858,,,TRUE,TRUE,,,,,,,BKN,7500,BKN,8500,,,,,VFR,,,,,,,,,,,,METAR,273.0
K81R 060915Z AUTO 18006KT 10SM CLR 20/15 A2991 RMK AO2 T02010154,K81R,2023-05-06T09:15:00Z,31.23,-98.72,20.1,15.4,180,6,,10.0,29.911417,,,TRUE,TRUE,,,,,,,CLR,,,,,,,,VFR,,,,,,,,,,,,METAR,381.0
K7W4 060915Z AUTO 10SM BKN075 OVC095 10/09 A3027 RMK AO1 T00950085,K7W4,2023-05-06T09:15:00Z,37.97,-77.75,9.5,8.5,,,,10.0,30.268702,,,TRUE,TRUE,,,,,,,BKN,7500,OVC,9500,,,,,VFR,,,,,,,,,,,,METAR,115.0
K7L2 060915Z AUTO 07009G15KT 10SM 10/06 A2985 RMK AO2,K7L2,2023-05-06T09:15:00Z,46.22,-100.25,10.0,6.0,70,9,15,10.0,29.84941,,,TRUE,TRUE,,,,,,,,,,,,,,,,,,,,,,,,,,,METAR,541.0
K7BM 060915Z AUTO 00000KT 10SM SCT065 BKN075 03/M10 A3006 RMK AO2,K7BM,2023-05-06T09:15:00Z,38.78,-106.22,3.0,-10.0,0,0,,10.0,30.059055,,,TRUE,TRUE,,,,,,,SCT,6500,BKN,7500,,,,,VFR,,,,,,,,,,,,METAR,2996.0
K77S 060915Z AUTO 00000KT 3SM BR SCT004 BKN021 OVC028 10/10 A2997 RMK A01,K77S,2023-05-06T09:15:00Z,43.93,-123.0,10.0,10.0,0,0,,3.0,29.970472,,,TRUE,TRUE,,,,,,BR,SCT,400,BKN,2100,OVC,2800,,,MVFR,,,,,,,,,,,,SPECI,161.0
K6S2 060915Z AUTO 00000KT 10SM SCT035 BKN075 OVC090 09/09 A2997 RMK AO2,K6S2,2023-05-06T09:15:00Z,43.98,-124.12,9.0,9.0,0,0,,10.0,29.970472,,,TRUE,TRUE,,,,,,,SCT,3500,BKN,7500,OVC,9000,,,VFR,,,,,,,,,,,,METAR,16.0
K6S0 060915Z AUTO 00000KT 1/4SM FG OVC002 05/05 A2981 RMK A01,K6S0,2023-05-06T09:15:00Z,45.8,-109.97,5.0,5.0,0,0,,0.25,29.811024,,,TRUE,TRUE,,,,,,FG,OVC,200,,,,,,,LIFR,,,,,,,,,,,,METAR,1364.0
K6R3 060915Z AUTO 18006KT 10SM CLR 20/19 A2991 RMK AO2 LTG DSNT NE AND E T01970185,K6R3,2023-05-06T09:15:00Z,30.35,-95.0,19.7,18.5,180,6,,10.0,29.911417,,,TRUE,TRUE,,,,,,,CLR,,,,,,,,VFR,,,,,,,,,,,,METAR,44.0
K6P9 060915Z AUTO 20008KT 10SM CLR 20/14 A2988 RMK AO2 T01980139,K6P9,2023-05-06T09:15:00Z,32.43,-98.6,19.8,13.9,200,8,,10.0,29.878937,,,TRUE,TRUE,,,,,,,CLR,,,,,,,,VFR,,,,,,,,,,,,METAR,451.0
K6I2 060915Z AUTO 12006KT 10SM SCT100 14/09 A3017 RMK AO2,K6I2,2023-05-06T09:15:00Z,37.63,-85.25,14.0,9.0,120,6,,10.0,30.171259,,,TRUE,TRUE,,,,,,,SCT,10000,,,,,,,VFR,,,,,,,,,,,,METAR,258.0
K6B9 060915Z AUTO 00000KT 9SM CLR 03/03 A3031 RMK AO2,K6B9,2023-05-06T09:15:00Z,42.92,-76.43,3.0,3.0,0,0,,9.0,30.31004,,,TRUE,TRUE,,,,,,,CLR,,,,,,,,VFR,,,,,,,,,,,,METAR,306.0
K6B0 060915Z AUTO 00000KT 10SM CLR 02/02 A3025 RMK AO2 T00180018,K6B0,2023-05-06T09:15:00Z,43.98,-73.1,1.8,1.8,0,0,,10.0,30.250984,,,TRUE,TRUE,,,,,,,CLR,,,,,,,,VFR,,,,,,,,,,,,METAR,149.0
K6A2 060915Z AUTO 00000KT 10SM OVC060 14/13 A3018 RMK AO2,K6A2,2023-05-06T09:15:00Z,33.23,-84.27,14.0,13.0,0,0,,10.0,30.180119,,,TRUE,TRUE,,,,,,,OVC,6000,,,,,,,VFR,,,,,,,,,,,,METAR,290.0
K6A1 060915Z AUTO 07003KT 10SM OVC065 15/14 A3017 RMK AO2 T01530138,K6A1,2023-05-06T09:15:00Z,32.57,-84.25,15.3,13.8,70,3,,10.0,30.171259,,,TRUE,TRUE,,,,,,,OVC,6500,,,,,,,VFR,,,,,,,,,,,,METAR,198.0
K66R 060915Z AUTO 00000KT 10SM CLR 19/17 A2994 RMK AO2 T01920169,K66R,2023-05-06T09:15:00Z,29.65,-96.52,19.2,16.9,0,0,,10.0,29.940945,,,TRUE,TRUE,,,,,,,CLR,,,,,,,,VFR,,,,,,,,,,,,METAR,70.0
K65S 060915Z AUTO 20005KT 4SM -RA BR FEW007 BKN027 OVC034 08/08 A2982 RMK AO2,K65S,2023-05-06T09:15:00Z,48.73,-116.3,8.0,8.0,200,5,,4.0,29.819881,,,TRUE,TRUE,,,,,,-RA BR,FEW,700,BKN,2700,OVC,3400,,,MVFR,,,,,,,,,,,,METAR,708.0
K63S 060915Z AUTO 00000KT 10SM BKN018 OVC024 09/07 A2985 RMK A01,K63S,2023-05-06T09:15:00Z,48.53,-117.88,9.0,7.0,0,0,,10.0,29.84941,,,TRUE,TRUE,,,,,,,BKN,1800,OVC,2400,,,,,MVFR,,,,,,,,,,,,METAR,571.0
K5SM 060915Z AUTO 24010G17KT 200V280 2SM -SN OVC002 M02/M03 A3011 RMK AO2,K5SM,2023-05-06T09:15:00Z,39.43,-107.38,-2.0,-3.0,240,10,17,2.0,30.109253,,,TRUE,TRUE,,,,,,-SN,OVC,200,,,,,,,LIFR,,,,,,,,,,,,METAR,3229.0
K5R8 060915Z AUTO 30012G28KT 5SM RA SCT008 BKN015 OVC030 22/21 A3002 RMK AO2 P0008 T02190205,K5R8,2023-05-06T09:15:00Z,30.43,-93.47,21.9,20.5,300,12,28,5.0,30.02067,,,TRUE,TRUE,,,,,,RA,SCT,800,BKN,1500,OVC,3000,,,MVFR,,,,,,0.08,,,,,,METAR,26.0
K5H4 060915Z AUTO 09010KT 10SM CLR 08/M04 A2996 RMK AO2,K5H4,2023-05-06T09:15:00Z,47.78,-99.93,8.0,-4.0,90,10,,10.0,29.958662,,,TRUE,TRUE,,,,,,,CLR,,,,,,,,VFR,,,,,,,,,,,,METAR,490.0
K5C1 060915Z AUTO 12004KT 10SM OVC009 20/17 A2995 RMK AO1,K5C1,2023-05-06T09:15:00Z,29.72,-98.7,20.0,17.0,120,4,,10.0,29.949802,,,TRUE,TRUE,,,,,,,OVC,900,,,,,,,IFR,,,,,,,,,,,,METAR,422.0
K5A6 060915Z AUTO 00000KT 10SM 17/16 A3004 RMK AO2 T01720160,K5A6,2023-05-06T09:15:00Z,33.47,-89.73,17.2,16.0,0,0,,10.0,30.041338,,,TRUE,TRUE,,,,,,,,,,,,,,,,,,,,,,,,,,,METAR,109.0
K57C 060915Z AUTO 11004KT 10SM SCT080 OVC090 15/07 A3007 RMK AO2 T01450066,K57C,2023-05-06T09:15:00Z,42.8,-88.37,14.5,6.6,110,4,,10.0,30.070866,,,TRUE,TRUE,,,,,,,SCT,8000,OVC,9000,,,,,VFR,,,,,,,,,,,,METAR,454.0
K54J 060915Z AUTO 07004KT 10SM CLR 17/16 A3010 RMK AO2 T01740157,K54J,2023-05-06T09:15:00Z,30.73,-86.15,17.4,15.7,70,4,,10.0,30.100393,,,TRUE,TRUE,,,,,,,CLR,,,,,,,,VFR,,,,,,,,,,,,METAR,87.0
K4V1 060915Z AUTO 21012KT 10SM CLR 10/M08 A2993 RMK AO2 T00981080,K4V1,2023-05-06T09:15:00Z,37.7,-104.78,9.8,-8.0,210,12,,10.0,29.929134,,,TRUE,TRUE,,,,,,,CLR,,,,,,,,VFR,,,,,,,,,,,,METAR,1847.0
K4V0 060915Z AUTO 12007KT 10SM SCT043 BKN070 OVC090 06/01 A2998 RMK AO2 T00640014,K4V0,2023-05-06T09:15:00Z,40.1,-108.77,6.4,1.4,120,7,,10.0,29.97933,,,TRUE,TRUE,,,,,,,SCT,4300,BKN,7000,OVC,9000,,,VFR,,,,,,,,,,,,METAR,1602.0
K4S2 060915Z AUTO 00000KT 10SM SCT038 BKN044 OVC070 10/08 A2994 RMK AO2,K4S2,2023-05-06T09:15:00Z,45.68,-121.55,10.0,8.0,0,0,,10.0,29.940945,,,TRUE,TRUE,,,,,,,SCT,3800,BKN,4400,OVC,7000,,,VFR,,,,,,,,,,,,METAR,183.0
K4S1 060915Z AUTO 18012G16KT 7SM CLR 10/09 A2999 RMK AO2,K4S1,2023-05-06T09:15:00Z,42.42,-124.42,10.0,9.0,180,12,16,7.0,29.991142,,,TRUE,TRUE,,,,,,,CLR,,,,,,,,VFR,,,,,,,,,,,,METAR,7.0
K4R5 060915Z AUTO 02004KT 5SM BR OVC002 03/03 A3006 RMK AO2 T00300030,K4R5,2023-05-06T09:15:00Z,46.78,-90.77,3.0,3.0,20,4,,5.0,30.059055,,,TRUE,TRUE,,,,,,BR,OVC,200,,,,,,,LIFR,,,,,,,,,,,,SPECI,195.0
K4O4 060915Z AUTO 07006KT 4SM BR BKN013 OVC018 22/22 A2989 RMK AO2,K4O4,2023-05-06T09:15:00Z,33.92,-94.87,22.0,22.0,70,6,,4.0,29.890747,,,TRUE,TRUE,,,,,,BR,BKN,1300,OVC,1800,,,,,MVFR,,,,,,,,,,,,METAR,148.0
K4M9 060915Z AUTO 12005KT 10SM BKN020 BKN034 OVC055 16/16 A3003 RMK AO2 PWINO,K4M9,2023-05-06T09:15:00Z,36.4,-90.65,16.0,16.0,120,5,,10.0,30.029528,,,TRUE,TRUE,,,,,TRUE,,BKN,2000,BKN,3400,OVC,5500,,,MVFR,,,,,,,,,,,,METAR,86.0
K4I3 060915Z AUTO 05005KT 10SM CLR 09/04 A3024 RMK AO2,K4I3,2023-05-06T09:15:00Z,40.33,-82.53,9.0,4.0,50,5,,10.0,30.239174,,,TRUE,TRUE,,,,,,,CLR,,,,,,,,VFR,,,,,,,,,,,,METAR,361.0
K4F2 060915Z AUTO 10010KT 10SM CLR 22/19 A2987 RMK AO2 T02210186,K4F2,2023-05-06T09:15:00Z,32.18,-94.3,22.1,18.6,100,10,,10.0,29.870079,,,TRUE,TRUE,,,,,,,CLR,,,,,,,,VFR,,,,,,,,,,,,METAR,76.0
K4BM 060915Z AUTO 17013G21KT 10SM SCT110 00/M11 A3010 RMK AO2,K4BM,2023-05-06T09:15:00Z,39.05,-105.52,0.0,-11.0,170,13,21,10.0,30.100393,,,TRUE,TRUE,,,,,,,SCT,11000,,,,,,,VFR,,,,,,,,,,,,METAR,3432.0
K4A9 060915Z AUTO 01003KT 10SM SCT046 OVC060 15/11 A3016 RMK AO2 T01530111,K4A9,2023-05-06T09:15:00Z,34.47,-85.72,15.3,11.1,10,3,,10.0,30.159449,,,TRUE,TRUE,,,,,,,SCT,4600,OVC,6000,,,,,VFR,,,,,,,,,,,,METAR,273.0
K4A6 060915Z AUTO 00000KT 10SM SCT047 OVC060 13/13 A3017 RMK AO2,K4A6,2023-05-06T09:15:00Z,34.68,-86.0,13.0,13.0,0,0,,10.0,30.171259,,,TRUE,TRUE,,,,,,,SCT,4700,OVC,6000,,,,,VFR,,,,,,,,,,,,METAR,191.0
K49A 060915Z AUTO VRB03KT 10SM FEW050 OVC075 12/12 A3019 RMK AO2,K49A,2023-05-06T09:15:00Z,34.63,-84.53,12.0,12.0,0,3,,10.0,30.188976,,,TRUE,TRUE,,,,,,,FEW,5000,OVC,7500,,,,,VFR,,,,,,,,,,,,METAR,449.0
K48A 060915Z AUTO 10005KT 10SM SCT023 OVC070 16/14 A3017 RMK AO2 T01640139,K48A,2023-05-06T09:15:00Z,32.4,-83.27,16.4,13.9,100,5,,10.0,30.171259,,,TRUE,TRUE,,,,,,,SCT,2300,OVC,7000,,,,,VFR,,,,,,,,,,,,METAR,115.0
K46U 060915Z AUTO 00000KT 10SM FEW047 BKN065 01/M01 A2996 RMK A01,K46U,2023-05-06T09:15:00Z,43.18,-111.05,1.0,-1.0,0,0,,10.0,29.958662,,,TRUE,TRUE,,,,,,,FEW,4700,BKN,6500,,,,,VFR,,,,,,,,,,,,METAR,1718.0
K46D 060915Z AUTO 09010KT 10SM CLR 09/05 A2996 RMK AO2,K46D,2023-05-06T09:15:00Z,47.45,-99.15,9.0,5.0,90,10,,10.0,29.958662,,,TRUE,TRUE,,,,,,,CLR,,,,,,,,VFR,,,,,,,,,,,,METAR,488.0
K42J 060915Z AUTO 04004KT 10SM OVC050 20/18 A3010 RMK A01,K42J,2023-05-06T09:15:00Z,29.85,-82.05,20.0,18.0,40,4,,10.0,30.100393,,,TRUE,TRUE,,,,,,,OVC,5000,,,,,,,VFR,,,,,,,,,,,,METAR,57.0
K41U 060915Z AUTO 00000KT 5SM BR SCT001 00/00 A3002 RMK AO1 T00040004,K41U,2023-05-06T09:15:00Z,39.33,-111.6,0.4,0.4,0,0,,5.0,30.02067,,,TRUE,TRUE,,,,,,BR,SCT,100,,,,,,,MVFR,,,,,,,,,,,,METAR,1676.0
K40U 060915Z AUTO 00000KT 10SM SCT014 BKN035 OVC046 04/01 A2998 RMK AO2 T00370015,K40U,2023-05-06T09:15:00Z,40.98,-109.68,3.7,1.5,0,0,,10.0,29.97933,,,TRUE,TRUE,,,,,,,SCT,1400,BKN,3500,OVC,4600,,,VFR,,,,,,,,,,,,SPECI,1882.0
K3T5 060915Z AUTO 17007KT 8SM -RA CLR 20/19 A2991 RMK AO2 P0000 T01970189 $,K3T5,2023-05-06T09:15:00Z,29.9,-96.95,19.7,18.9,170,7,,8.0,29.911417,,,TRUE,TRUE,TRUE,,,,,-RA,CLR,,,,,,,,VFR,,,,,,0.005,,,,,,METAR,96.0
K3S8 060915Z AUTO 00000KT 10SM OVC034 09/06 A3001 RMK AO2,K3S8,2023-05-06T09:15:00Z,42.5,-123.4,9.0,6.0,0,0,,10.0,30.008858,,,TRUE,TRUE,,,,,,,OVC,3400,,,,,,,VFR,,,,,,,,,,,,METAR,339.0
K3R7 060915Z AUTO 19003KT 10SM BKN011 BKN022 OVC034 25/25 A2999 RMK AO2 LTG DSNT W AND NW T02460246,K3R7,2023-05-06T09:15:00Z,30.25,-92.67,24.6,24.6,190,3,,10.0,29.991142,,,TRUE,TRUE,,,,,,,BKN,1100,BKN,2200,OVC,3400,,,MVFR,,,,,,,,,,,,SPECI,5.0
K3N8 060915Z AUTO 07006KT 10SM CLR 07/05 A2997 RMK AO2 T00690045,K3N8,2023-05-06T09:15:00Z,47.25,-95.92,6.9,4.5,70,6,,10.0,29.970472,,,TRUE,TRUE,,,,,,,CLR,,,,,,,,VFR,,,,,,,,,,,,METAR,379.0
K3L4 060915Z AUTO 19007KT 4SM BR BKN006 OVC009 25/25 A2998 RMK A01,K3L4,2023-05-06T09:15:00Z,29.8,-92.8,25.0,25.0,190,7,,4.0,29.97933,,,TRUE,TRUE,,,,,,BR,BKN,600,OVC,900,,,,,IFR,,,,,,,,,,,,METAR,1.0
K3K3 060915Z AUTO 29007KT 10SM 11/07 A2981 RMK AO2,K3K3,2023-05-06T09:15:00Z,38.0,-101.75,11.0,7.0,290,7,,10.0,29.811024,,,TRUE,TRUE,,,,,,,,,,,,,,,,,,,,,,,,,,,METAR,1010.0
K3F3 060915Z AUTO 15008KT 10SM CLR 24/23 A2993 RMK AO2 T02380225,K3F3,2023-05-06T09:15:00Z,32.07,-93.77,23.8,22.5,150,8,,10.0,29.929134,,,TRUE,TRUE,,,,,,,CLR,,,,,,,,VFR,,,,,,,,,,,,METAR,96.0
K3D2 060915Z AUTO 16006KT 10SM SCT085 OVC100 11/06 A3012 RMK AO2 T01080061,K3D2,2023-05-06T09:15:00Z,45.13,-87.18,10.8,6.1,160,6,,10.0,30.121063,,,TRUE,TRUE,,,,,,,SCT,8500,OVC,10000,,,,,VFR,,,,,,,,,,,,METAR,233.0
K3AU 060915Z AUTO 14008KT 7SM SCT018 SCT025 21/20 A2975 RMK AO2,K3AU,2023-05-06T09:15:00Z,37.67,-97.08,21.0,20.0,140,8,,7.0,29.749016,,,TRUE,TRUE,,,,,,,SCT,1800,SCT,2500,,,,,VFR,,,,,,,,,,,,METAR,403.0
K35A 060915Z AUTO 00000KT 10SM SCT075 13/12 A3025 RMK A02 T01320123,K35A,2023-05-06T09:15:00Z,34.68,-81.63,13.2,12.3,0,0,,10.0,30.250984,,,TRUE,TRUE,,,,,,,SCT,7500,,,,,,,VFR,,,,,,,,,,,,METAR,186.0
K33V 060915Z AUTO 00000KT 10SM CLR 00/M05 A3001 RMK AO1,K33V,2023-05-06T09:15:00Z,40.75,-106.28,0.0,-5.0,0,0,,10.0,30.008858,,,TRUE,TRUE,,,,,,,CLR,,,,,,,,VFR,,,,,,,,,,,,METAR,2486.0
K33N 060915Z AUTO 00000KT M1/4SM FG 08/08 A3027 RMK A01,K33N,2023-05-06T09:15:00Z,39.22,-75.6,8.0,8.0,0,0,,0.25,30.268702,,,TRUE,TRUE,,,,,,FG,,,,,,,,,,,,,,,,,,,,,SPECI,17.0
K2V5 060915Z AUTO 33008KT 10SM CLR 07/07 A2983 RMK AO2,K2V5,2023-05-06T09:15:00Z,40.1,-102.25,7.0,7.0,330,8,,10.0,29.828741,,,TRUE,TRUE,,,,,,,CLR,,,,,,,,VFR,,,,,,,,,,,,METAR,1117.0
K2R9 060915Z AUTO 10007KT 5SM BR OVC008 25/23 A2992 RMK AO2 T02480232,K2R9,2023-05-06T09:15:00Z,28.82,-97.87,24.8,23.2,100,7,,5.0,29.920275,,,TRUE,TRUE,,,,,,BR,OVC,800,,,,,,,IFR,,,,,,,,,,,,METAR,88.0
K2P2 060915Z AUTO 00000KT 10SM OVC085 07/07 A3015 RMK AO2 T00710071,K2P2,2023-05-06T09:15:00Z,45.38,-86.92,7.1,7.1,0,0,,10.0,30.15059,,,TRUE,TRUE,,,,,,,OVC,8500,,,,,,,VFR,,,,,,,,,,,,SPECI,182.0
K2M2 060915Z AUTO 14006KT 10SM BKN025 OVC046 13/11 A3011 RMK A01,K2M2,2023-05-06T09:15:00Z,35.23,-87.25,13.0,11.0,140,6,,10.0,30.109253,,,TRUE,TRUE,,,,,,,BKN,2500,OVC,4600,,,,,MVFR,,,,,,,,,,,,METAR,286.0
K2J9 060915Z AUTO 05004KT 10SM CLR 16/15 A3011 RMK AO2,K2J9,2023-05-06T09:15:00Z,30.6,-84.55,16.0,15.0,50,4,,10.0,30.109253,,,TRUE,TRUE,,,,,,,CLR,,,,,,,,VFR,,,,,,,,,,,,METAR,62.0
K2J5 060915Z AUTO 00000KT 10SM BKN080 OVC090 16/14 A3020 RMK AO2 T01610139,K2J5,2023-05-06T09:15:00Z,32.9,-81.97,16.1,13.9,0,0,,10.0,30.200787,,,TRUE,TRUE,,,,,,,BKN,8000,OVC,9000,,,,,VFR,,,,,,,,,,,,SPECI,72.0
K2IS 060915Z AUTO 02003KT 10SM CLR 20/19 A3007 RMK AO2 T01990188,K2IS,2023-05-06T09:15:00Z,26.73,-81.05,19.9,18.8,20,3,,10.0,30.070866,,,TRUE,TRUE,,,,,,,CLR,,,,,,,,VFR,,,,,,,,,,,,METAR,5.0
K2I0 060915Z AUTO 17004KT 10SM OVC047 17/12 A3012 RMK AO2 T01700117,K2I0,2023-05-06T09:15:00Z,37.35,-87.4,17.0,11.7,170,4,,10.0,30.121063,,,TRUE,TRUE,,,,,,,OVC,4700,,,,,,,VFR,,,,,,,,,,,,METAR,127.0
K2G9 060915Z AUTO 33003KT 10SM CLR 01/00 A3028 RMK AO2,K2G9,2023-05-06T09:15:00Z,40.03,-79.02,1.0,0.0,330,3,,10.0,30.280512,,,TRUE,TRUE,,,,,,,CLR,,,,,,,,VFR,,,,,,,,,,,,METAR,677.0
K2G4 060915Z AUTO 12010KT 10SM CLR 07/03 A3027 RMK AO2,K2G4,2023-05-06T09:15:00Z,39.58,-79.33,7.0,3.0,120,10,,10.0,30.268702,,,TRUE,TRUE,,,,,,,CLR,,,,,,,,VFR,,,,,,,,,,,,METAR,908.0
K2G2 060915Z AUTO 09004KT 10SM CLR 08/04 A3024 RMK A01,K2G2,2023-05-06T09:15:00Z,40.37,-80.7,8.0,4.0,90,4,,10.0,30.239174,,,TRUE,TRUE,,,,,,,CLR,,,,,,,,VFR,,,,,,,,,,,,METAR,365.0
K2D5 060915Z AUTO 08013KT 10SM OVC016 11/07 A2989 RMK AO2,K2D5,2023-05-06T09:15:00Z,46.17,-98.08,11.0,7.0,80,13,,10.0,29.890747,,,TRUE,TRUE,,,,,,,OVC,1600,,,,,,,MVFR,,,,,,,,,,,,METAR,407.0
K2A0 060915Z AUTO 00000KT 9SM OVC085 13/13 A3018 RMK A01,K2A0,2023-05-06T09:15:00Z,35.48,-84.93,13.0,13.0,0,0,,9.0,30.180119,,,TRUE,TRUE,,,,,,,OVC,8500,,,,,,,VFR,,,,,,,,,,,,SPECI,219.0
K28J 060915Z AUTO 00000KT 10SM OVC055 17/16 A3010 RMK AO2,K28J,2023-05-06T09:15:00Z,29.65,-81.68,17.0,16.0,0,0,,10.0,30.100393,,,TRUE,TRUE,,,,,,,OVC,5500,,,,,,,VFR,,,,,,,,,,,,METAR,9.0
K24J 060915Z AUTO 00000KT 10SM OVC048 20/18 A3010 RMK A01,K24J,2023-05-06T09:15:00Z,30.3,-83.03,20.0,18.0,0,0,,10.0,30.100393,,,TRUE,TRUE,,,,,,,OVC,4800,,,,,,,VFR,,,,,,,,,,,,METAR,30.0
K22N 060915Z AUTO 00000KT 10SM CLR 00/00 A3031 RMK AO2,K22N,2023-05-06T09:15:00Z,40.8,-75.77,0.0,0.0,0,0,,10.0,30.31004,,,TRUE,TRUE,,,,,,,CLR,,,,,,,,VFR,,,,,,,,,,,,METAR,159.0
K21D 060915Z AUTO 07005KT 10SM OVC010 12/11 A2997 RMK AO2,K21D,2023-05-06T09:15:00Z,45.0,-92.85,12.0,11.0,70,5,,10.0,29.970472,,,TRUE,TRUE,,,,,,,OVC,1000,,,,,,,MVFR,,,,,,,,,,,,METAR,281.0
K20V 060915Z AUTO 00000KT 10SM SCT060 BKN070 OVC100 03/M01 A3003 RMK AO2,K20V,2023-05-06T09:15:00Z,40.05,-106.37,3.0,-1.0,0,0,,10.0,30.029528,,,TRUE,TRUE,,,,,,,SCT,6000,BKN,7000,OVC,10000,,,VFR,,,,,,,,,,,,METAR,2259.0
K20U 060915Z AUTO 13011KT 10SM BKN070 OVC100 10/01 A2989 RMK AO2,K20U,2023-05-06T09:15:00Z,46.93,-103.98,10.0,1.0,130,11,,10.0,29.890747,,,TRUE,TRUE,,,,,,,BKN,7000,OVC,10000,,,,,VFR,,,,,,,,,,,,METAR,839.0
K1V6 060915Z AUTO 32007G14KT 10SM CLR 08/M05 A2989 RMK AO2,K1V6,2023-05-06T09:15:00Z,38.43,-105.1,8.0,-5.0,320,7,14,10.0,29.890747,,,TRUE,TRUE,,,,,,,CLR,,,,,,,,VFR,,,,,,,,,,,,METAR,1658.0
K1U7 060915Z AUTO 27014G23KT 10SM BKN036 OVC055 05/01 A2994 RMK A01,K1U7,2023-05-06T09:15:00Z,42.25,-111.33,5.0,1.0,270,14,23,10.0,29.940945,,,TRUE,TRUE,,,,,,,BKN,3600,OVC,5500,,,,,VFR,,,,,,,,,,,,METAR,1808.0
K1R8 060915Z AUTO 13005KT 10SM SCT013 OVC022 19/19 A3005 RMK AO2,K1R8,2023-05-06T09:15:00Z,30.87,-87.82,19.0,19.0,130,5,,10.0,30.050198,,,TRUE,TRUE,,,,,,,SCT,1300,OVC,2200,,,,,MVFR,,,,,,,,,,,,METAR,76.0
K1R7 060915Z AUTO 00000KT 1 3/4SM BR OVC003 19/19 A3004 RMK AO2 PWINO,K1R7,2023-05-06T09:15:00Z,31.6,-90.42,19.0,19.0,0,0,,1.75,30.041338,,,TRUE,TRUE,,,,,TRUE,BR,OVC,300,,,,,,,LIFR,,,,,,,,,,,,METAR,142.0
K1M5 060915Z AUTO 16004KT 10SM OVC055 14/13 A3013 RMK A01,K1M5,2023-05-06T09:15:00Z,36.6,-86.48,14.0,13.0,160,4,,10.0,30.129921,,,TRUE,TRUE,,,,,,,OVC,5500,,,,,,,VFR,,,,,,,,,,,,SPECI,239.0
K1H2 060915Z AUTO 11005KT 10SM BKN032 OVC041 15/11 A3009 RMK AO2 T01520110,K1H2,2023-05-06T09:15:00Z,39.07,-88.53,15.2,11.0,110,5,,10.0,30.088583,,,TRUE,TRUE,,,,,,,BKN,3200,OVC,4100,,,,,VFR,,,,,,,,,,,,METAR,174.0
K1F0 060915Z AUTO 00000KT 3/4SM BR BKN002 20/20 A2982 RMK AO2 T02010198,K1F0,2023-05-06T09:15:00Z,34.15,-97.12,20.1,19.8,0,0,,0.75,29.819881,,,TRUE,TRUE,,,,,,BR,BKN,200,,,,,,,LIFR,,,,,,,,,,,,SPECI,256.0
K1A9 060915Z AUTO 00000KT 10SM SCT070 15/12 A3012 RMK AO2 T01470123,K1A9,2023-05-06T09:15:00Z,32.43,-86.52,14.7,12.3,0,0,,10.0,30.121063,,,TRUE,TRUE,,,,,,,SCT,7000,,,,,,,VFR,,,,,,,,,,,,SPECI,65.0
K1A6 060915Z AUTO 00000KT 10SM BKN120 09/09 A3022 RMK AO2 T00860085,K1A6,2023-05-06T09:15:00Z,36.62,-83.73,8.6,8.5,0,0,,10.0,30.221457,,,TRUE,TRUE,,,,,,,BKN,12000,,,,,,,VFR,,,,,,,,,,,,METAR,348.0
K19S 060915Z AUTO 28009KT 10SM CLR 12/01 A2979 RMK AO2 T01250011,K19S,2023-05-06T09:15:00Z,37.48,-100.83,12.5,1.1,280,9,,10.0,29.790354,,,TRUE,TRUE,,,,,,,CLR,,,,,,,,VFR,,,,,,,,,,,,SPECI,886.0
K18H 060915Z AUTO 14018G23KT 3SM BR BKN011 25/24 A2994 RMK A01,K18H,2023-05-06T09:15:00Z,26.13,-92.03,25.0,24.0,140,18,23,3.0,29.940945,,,TRUE,TRUE,,,,,,BR,BKN,1100,,,,,,,MVFR,,,,,,,,,,,,METAR,30.0
K18A 060915Z AUTO 00000KT 10SM -RA SCT070 OVC100 13/12 A3028 RMK AO2 T01330124,K18A,2023-05-06T09:15:00Z,34.35,-83.13,13.3,12.4,0,0,,10.0,30.280512,,,TRUE,TRUE,,,,,,-RA,SCT,7000,OVC,10000,,,,,VFR,,,,,,,,,,,,SPECI,260.0
K17J 060915Z AUTO 06003KT 10SM CLR 17/12 A3011 RMK AO2 T01690124,K17J,2023-05-06T09:15:00Z,31.0,-84.87,16.9,12.4,60,3,,10.0,30.109253,,,TRUE,TRUE,,,,,,,CLR,,,,,,,,VFR,,,,,,,,,,,,METAR,42.0
K15M 060915Z AUTO 00000KT 9SM OVC017 15/14 A3011 RMK AO2 T01470138 $,K15M,2023-05-06T09:15:00Z,34.77,-88.17,14.7,13.8,0,0,,9.0,30.109253,,,TRUE,TRUE,TRUE,,,,,,OVC,1700,,,,,,,MVFR,,,,,,,,,,,,METAR,192.0
K14Y 060915Z AUTO 08008KT 10SM OVC013 07/05 A2996 RMK AO2,K14Y,2023-05-06T09:15:00Z,45.9,-94.87,7.0,5.0,80,8,,10.0,29.958662,,,TRUE,TRUE,,,,,,,OVC,1300,,,,,,,MVFR,,,,,,,,,,,,METAR,404.0
K13K 060915Z AUTO 14010KT 2SM BR OVC002 19/19 A2979 RMK AO2 T01940193,K13K,2023-05-06T09:15:00Z,37.85,-96.3,19.4,19.3,140,10,,2.0,29.790354,,,TRUE,TRUE,,,,,,BR,OVC,200,,,,,,,LIFR,,,,,,,,,,,,METAR,367.0
K10G 060915Z AUTO 05004KT 7SM CLR 09/02 A3025 RMK AO2,K10G,2023-05-06T09:15:00Z,40.53,-81.95,9.0,2.0,50,4,,7.0,30.250984,,,TRUE,TRUE,,,,,,,CLR,,,,,,,,VFR,,,,,,,,,,,,METAR,371.0
K0VG 060915Z AUTO 00000KT 10SM CLR 08/08 A3023 RMK AO2,K0VG,2023-05-06T09:15:00Z,36.65,-83.22,8.0,8.0,0,0,,10.0,30.230314,,,TRUE,TRUE,,,,,,,CLR,,,,,,,,VFR,,,,,,,,,,,,METAR,426.0
K0V4 060915Z AUTO 09008KT 10SM SCT080 07/07 A3026 RMK AO1,K0V4,2023-05-06T09:15:00Z,37.15,-79.02,7.0,7.0,90,8,,10.0,30.259842,,,TRUE,TRUE,,,,,,,SCT,8000,,,,,,,VFR,,,,,,,,,,,,SPECI,186.0
K0S9 060915Z AUTO 00000KT 10SM OVC017 09/08 A2995 RMK AO2,K0S9,2023-05-06T09:15:00Z,48.05,-122.82,9.0,8.0,0,0,,10.0,29.949802,,,TRUE,TRUE,,,,,,,OVC,1700,,,,,,,MVFR,,,,,,,,,,,,METAR,33.0
K0R0 060915Z AUTO 00000KT 4SM BR OVC003 21/20 A3005 RMK AO2,K0R0,2023-05-06T09:15:00Z,31.3,-89.82,21.0,20.0,0,0,,4.0,30.050198,,,TRUE,TRUE,,,,,,BR,OVC,300,,,,,,,LIFR,,,,,,,,,,,,SPECI,76.0
K0F2 060915Z AUTO 10SM CLR 20/12 A2983 RMK AO2 T01950121,K0F2,2023-05-06T09:15:00Z,33.6,-97.78,19.5,12.1,,,,10.0,29.828741,,,TRUE,TRUE,,,,,,,CLR,,,,,,,,VFR,,,,,,,,,,,,METAR,330.0
K0E0 060915Z AUTO 22008KT 10SM CLR 07/M11 A3008 RMK AO2 T00711115,K0E0,2023-05-06T09:15:00Z,34.98,-106.0,7.1,-11.5,220,8,,10.0,30.079725,,,TRUE,TRUE,,,,,,,CLR,,,,,,,,VFR,,,,,,,,,,,,METAR,1887.0
K0A9 060915Z AUTO 00000KT 10SM CLR 10/08 A3023 RMK AO2,K0A9,2023-05-06T09:15:00Z,36.37,-82.17,10.0,8.0,0,0,,10.0,30.230314,,,TRUE,TRUE,,,,,,,CLR,,,,,,,,VFR,,,,,,,,,,,,SPECI,479.0
K0A0 060915Z AUTO 12005KT 10SM CLR 09/M12 A3003 RMK AO2,K0A0,2023-05-06T09:15:00Z,32.98,-106.97,9.0,-12.0,120,5,,10.0,30.029528,,,TRUE,TRUE,,,,,,,CLR,,,,,,,,VFR,,,,,,,,,,,,SPECI,1401.0
K08D 060915Z AUTO 06009KT 10SM FEW045 06/05 A2996 RMK AO2,K08D,2023-05-06T09:15:00Z,48.3,-102.4,6.0,5.0,60,9,,10.0,29.958662,,,TRUE,TRUE,,,,,,,FEW,4500,,,,,,,VFR,,,,,,,,,,,,METAR,683.0
K06D 060915Z AUTO 08010KT 10SM BKN055 BKN065 OVC095 07/05 A3003 RMK AO2,K06D,2023-05-06T09:15:00Z,48.88,-99.62,7.0,5.0,80,10,,10.0,30.029528,,,TRUE,TRUE,,,,,,,BKN,5500,BKN,6500,OVC,9500,,,VFR,,,,,,,,,,,,METAR,554.0
K06C 060915Z AUTO 13006KT 10SM OVC095 17/10 A3008 RMK AO2 T01650095,K06C,2023-05-06T09:15:00Z,41.98,-88.1,16.5,9.5,130,6,,10.0,30.079725,,,TRUE,TRUE,,,,,,,OVC,9500,,,,,,,VFR,,,,,,,,,,,,METAR,243.0
K04V 060915Z AUTO 28009KT 10SM CLR 01/M10 A3005 RMK AO2,K04V,2023-05-06T09:15:00Z,38.1,-106.17,1.0,-10.0,280,9,,10.0,30.050198,,,TRUE,TRUE,,,,,,,CLR,,,,,,,,VFR,,,,,,,,,,,,METAR,2389.0
CWPF 060915Z AUTO 21003KT 10/07 RMK AO1 SLP140 T00950071 52001,CWPF,2023-05-06T09:15:00Z,48.43,-123.43,9.5,7.1,210,3,,,,1014.0,,TRUE,TRUE,,,,,,,,,,,,,,,,0.1,,,,,,,,,,,METAR,5.0
SBCY 060914Z 17003KT 1000 R35/P2000 BR OVC002 23/23 Q1015,SBCY,2023-05-06T09:14:00Z,-15.65,-56.12,23.0,23.0,170,3,,0.62,29.970472,,,,,,,,,,BR,OVC,200,,,,,,,LIFR,,,,,,,,,,,,SPECI,182.0
SARI 060914Z 04005KT 0400 R31/0500N FG VV001 22/22 Q1016,SARI,2023-05-06T09:14:00Z,-25.73,-54.47,22.0,22.0,40,5,,0.25,30.0,,,,,,,,,,FG,OVX,0,,,,,,,LIFR,,,,,,,,,,,100,SPECI,268.0
PGUA 060914Z AUTO 07009KT 10SM -RA BKN011 OVC018 26/23 A2980 RMK AO2 RAB14 CIG 010 RWY24L SLP082 $,PGUA,2023-05-06T09:14:00Z,13.57,144.92,26.0,23.0,70,9,,10.0,29.799213,1008.2,,TRUE,TRUE,TRUE,,,,,-RA,BKN,1100,OVC,1800,,,,,MVFR,,,,,,,,,,,,METAR,159.0
PAJZ 060914Z AUTO 00000KT 9SM SCT020 OVC060 02/01 A2994 RMK AO2 FZRANO $,PAJZ,2023-05-06T09:14:00Z,59.73,-157.27,2.0,1.0,0,0,,9.0,29.940945,,,TRUE,TRUE,TRUE,,,TRUE,,,SCT,2000,OVC,6000,,,,,VFR,,,,,,,,,,,,METAR,80.0
KTOR 060914Z AUTO 24005KT 1/2SM FG VV001 04/04 A2985 RMK AO2 T00440044,KTOR,2023-05-06T09:14:00Z,42.07,-104.15,4.4,4.4,240,5,,0.5,29.84941,,,TRUE,TRUE,,,,,,FG,OVX,0,,,,,,,LIFR,,,,,,,,,,,100,METAR,1285.0
KHBG 060914Z AUTO 08003KT 2SM BR OVC003 21/20 A3005 RMK AO2 T02060200,KHBG,2023-05-06T09:14:00Z,31.27,-89.25,20.6,20.0,80,3,,2.0,30.050198,,,TRUE,TRUE,,,,,,BR,OVC,300,,,,,,,LIFR,,,,,,,,,,,,SPECI,45.0
KGTF 060914Z 22007KT 10SM BKN007 BKN060 OVC080 08/08 A2974 RMK AO2 RAE0856 P0000 T00830078,KGTF,2023-05-06T09:14:00Z,47.47,-111.38,8.3,7.8,220,7,,10.0,29.740158,,,,TRUE,,,,,,,BKN,700,BKN,6000,OVC,8000,,,IFR,,,,,,0.005,,,,,,SPECI,1117.0
KDUB 060914Z AUTO 31007KT 10SM CLR 01/M06 A2989 RMK AO2,KDUB,2023-05-06T09:14:00Z,43.55,-109.68,1.0,-6.0,310,7,,10.0,29.890747,,,TRUE,TRUE,,,,,,,CLR,,,,,,,,VFR,,,,,,,,,,,,METAR,2205.0
KXVG 060913Z AUTO 08009G14KT 10SM OVC014 08/06 A3001 RMK AO2,KXVG,2023-05-06T09:13:00Z,46.98,-94.2,8.0,6.0,80,9,14,10.0,30.008858,,,TRUE,TRUE,,,,,,,OVC,1400,,,,,,,MVFR,,,,,,,,,,,,METAR,407.0
KOWA 060913Z AUTO 12006KT 10SM OVC016 14/13 A2992 RMK AO2,KOWA,2023-05-06T09:13:00Z,44.12,-93.25,14.0,13.0,120,6,,10.0,29.920275,,,TRUE,TRUE,,,,,,,OVC,1600,,,,,,,MVFR,,,,,,,,,,,,METAR,345.0
KORB 060913Z AUTO 11004KT 10SM OVC012 07/04 A3007 RMK AO2,KORB,2023-05-06T09:13:00Z,48.02,-92.87,7.0,4.0,110,4,,10.0,30.070866,,,TRUE,TRUE,,,,,,,OVC,1200,,,,,,,MVFR,,,,,,,,,,,,METAR,407.0
KLKV 060913Z AUTO 19007KT 10SM SCT022 OVC043 03/02 A2997 RMK AO2 RAE13 P0000,KLKV,2023-05-06T09:13:00Z,42.17,-120.4,3.0,2.0,190,7,,10.0,29.970472,,,TRUE,TRUE,,,,,,,SCT,2200,OVC,4300,,,,,VFR,,,,,,0.005,,,,,,METAR,1440.0
KHOU 060913Z 12006KT 10SM FEW030 FEW250 22/19 A2994 RMK AO2 TSE12 TS MOVD NE T02170189 $,KHOU,2023-05-06T09:13:00Z,29.63,-95.28,21.7,18.9,120,6,,10.0,29.940945,,,,TRUE,TRUE,,,,,,FEW,3000,FEW,25000,,,,,VFR,,,,,,,,,,,,METAR,13.0
KFOZ 060913Z AUTO 08007KT 10SM OVC014 09/06 A3011 RMK AO2,KFOZ,2023-05-06T09:13:00Z,47.77,-93.65,9.0,6.0,80,7,,10.0,30.109253,,,TRUE,TRUE,,,,,,,OVC,1400,,,,,,,MVFR,,,,,,,,,,,,METAR,412.0
KEUG 060913Z AUTO 00000KT 10SM FEW008 BKN033 OVC060 11/09 A2998 RMK AO2 T01060094,KEUG,2023-05-06T09:13:00Z,44.13,-123.22,10.6,9.4,0,0,,10.0,29.97933,,,TRUE,TRUE,,,,,,,FEW,800,BKN,3300,OVC,6000,,,VFR,,,,,,,,,,,,METAR,109.0
KETH 060913Z AUTO 08009KT 10SM OVC015 10/06 A2991 RMK AO2,KETH,2023-05-06T09:13:00Z,45.78,-96.55,10.0,6.0,80,9,,10.0,29.911417,,,TRUE,TRUE,,,,,,,OVC,1500,,,,,,,MVFR,,,,,,,,,,,,METAR,309.0
KDVP 060913Z AUTO 11006KT 10SM BKN008 OVC017 14/12 A2985 RMK AO2 T01410115,KDVP,2023-05-06T09:13:00Z,43.98,-95.78,14.1,11.5,110,6,,10.0,29.84941,,,TRUE,TRUE,,,,,,,BKN,800,OVC,1700,,,,,IFR,,,,,,,,,,,,METAR,493.0
KCDD 060913Z AUTO 07003KT 10SM OVC014 06/04 A3013 RMK AO2 PWINO,KCDD,2023-05-06T09:13:00Z,48.27,-92.48,6.0,4.0,70,3,,10.0,30.129921,,,TRUE,TRUE,,,,,TRUE,,OVC,1400,,,,,,,MVFR,,,,,,,,,,,,METAR,344.0
KAQP 060913Z AUTO 12012G15KT 10SM 13/07 A2987 RMK AO2,KAQP,2023-05-06T09:13:00Z,45.22,-96.0,13.0,7.0,120,12,15,10.0,29.870079,,,TRUE,TRUE,,,,,,,,,,,,,,,,,,,,,,,,,,,METAR,312.0
CYQX 060913Z 35014G19KT 2 1/2SM -SN BR OVC004 M00/M01 A2972 RMK FG2NS6 SLP073,CYQX,2023-05-06T09:13:00Z,48.95,-54.58,0.0,-1.0,350,14,19,2.5,29.719488,1007.3,,,,,,,,,-SN BR,OVC,400,,,,,,,LIFR,,,,,,,,,,,,SPECI,144.0
KSUS 060912Z AUTO VRB03KT 10SM BKN019 OVC060 16/12 A2998 RMK AO2 T01610117,KSUS,2023-05-06T09:12:00Z,38.65,-90.65,16.1,11.7,0,3,,10.0,29.97933,,,TRUE,TRUE,,,,,,,BKN,1900,OVC,6000,,,,,MVFR,,,,,,,,,,,,SPECI,140.0
KROG 060912Z 12005KT 7SM SCT015 19/18 A2990 RMK AO2,KROG,2023-05-06T09:12:00Z,36.37,-94.1,19.0,18.0,120,5,,7.0,29.899607,,,,TRUE,,,,,,,SCT,1500,,,,,,,VFR,,,,,,,,,,,,SPECI,407.0
KRKS 060912Z AUTO 22007KT 9SM BKN002 BKN120 01/01 A2996 RMK AO2 T00060006,KRKS,2023-05-06T09:12:00Z,41.6,-109.07,0.6,0.6,220,7,,9.0,29.958662,,,TRUE,TRUE,,,,,,,BKN,200,BKN,12000,,,,,LIFR,,,,,,,,,,,,METAR,2062.0
KPSX 060912Z AUTO 07005KT 6SM BR SCT013 OVC032 24/24 A2994 RMK AO2 T02440239,KPSX,2023-05-06T09:12:00Z,28.72,-96.25,24.4,23.9,70,5,,6.0,29.940945,,,TRUE,TRUE,,,,,,BR,SCT,1300,OVC,3200,,,,,VFR,,,,,,,,,,,,METAR,4.0
KNRB 060912Z AUTO 07020KT 4SM RA BR FEW006 BKN018 OVC027 22/20 A3011 RMK AO2 PK WND 07026/0908 RAB03 P0002 T02170200,KNRB,2023-05-06T09:12:00Z,30.38,-81.42,21.7,20.0,70,20,,4.0,30.109253,,,TRUE,TRUE,,,,,,RA BR,FEW,600,BKN,1800,OVC,2700,,,MVFR,,,,,,0.02,,,,,,SPECI,4.0
KNPA 060912Z AUTO 11008KT 10SM FEW023 OVC032 22/19 A3005 RMK AO2 T02170189 $,KNPA,2023-05-06T09:12:00Z,30.35,-87.32,21.7,18.9,110,8,,10.0,30.050198,,,TRUE,TRUE,TRUE,,,,,,FEW,2300,OVC,3200,,,,,VFR,,,,,,,,,,,,SPECI,6.0
KMYL 060912Z AUTO 20005KT 10SM BKN013 OVC025 04/02 A2986 RMK AO2 T00390022,KMYL,2023-05-06T09:12:00Z,44.9,-116.1,3.9,2.2,200,5,,10.0,29.861221,,,TRUE,TRUE,,,,,,,BKN,1300,OVC,2500,,,,,MVFR,,,,,,,,,,,,SPECI,1532.0
KCRG 060912Z AUTO 05007KT 10SM BKN024 OVC075 22/20 A3011 RMK AO2 T02220200,KCRG,2023-05-06T09:12:00Z,30.33,-81.52,22.2,20.0,50,7,,10.0,30.109253,,,TRUE,TRUE,,,,,,,BKN,2400,OVC,7500,,,,,MVFR,,,,,,,,,,,,METAR,12.0
RODN 060911Z 16007KT 10SM FEW020 BKN100 26/22 A2973 RMK AO2A SLP073 FZRANO $,RODN,2023-05-06T09:11:00Z,26.35,127.77,26.0,22.0,160,7,,10.0,29.731298,1007.3,,,TRUE,TRUE,,,TRUE,,,FEW,2000,BKN,10000,,,,,VFR,,,,,,,,,,,,SPECI,38.0
PAOU 060911Z AUTO 32015KT 10SM OVC028 M01/M04 A3010 RMK AO2 FZRANO PNO $,PAOU,2023-05-06T09:11:00Z,56.0,-161.17,-1.0,-4.0,320,15,,10.0,30.100393,,,TRUE,TRUE,TRUE,,,TRUE,,,OVC,2800,,,,,,,MVFR,,,,,,,,,,,,SPECI,3.0
KHQM 060911Z AUTO 00000KT 10SM BKN022 BKN039 OVC060 08/07 A2997 RMK AO2 T00830072,KHQM,2023-05-06T09:11:00Z,46.97,-123.93,8.3,7.2,0,0,,10.0,29.970472,,,TRUE,TRUE,,,,,,,BKN,2200,BKN,3900,OVC,6000,,,MVFR,,,,,,,,,,,,SPECI,4.0
KESN 060911Z AUTO 02003KT 10SM CLR A3031 RMK AO2,KESN,2023-05-06T09:11:00Z,38.8,-76.07,,,20,3,,10.0,30.31004,,,TRUE,TRUE,,,,,,,CLR,,,,,,,,VFR,,,,,,,,,,,,SPECI,14.0
KEEO 060911Z AUTO 27010KT 10SM -RA BKN027 OVC034 04/01 A3002 RMK AO2 RAB02 P0000 T00440006,KEEO,2023-05-06T09:11:00Z,40.05,-107.88,4.4,0.6,270,10,,10.0,30.02067,,,TRUE,TRUE,,,,,,-RA,BKN,2700,OVC,3400,,,,,MVFR,,,,,,0.005,,,,,,SPECI,1957.0
FAPE 060911Z 24018G28KT CAVOK 22/16 Q1012 NOSIG,FAPE,2023-05-06T09:11:00Z,-33.98,25.6,22.0,16.0,240,18,28,6.21,29.88189,,,,,,TRUE,,,,,CAVOK,,,,,,,,VFR,,,,,,,,,,,,SPECI,58.0
VCRI 060910Z 24010KT 9999 SCT018 BKN060 31/27 Q1006 NOSIG,VCRI,2023-05-06T09:10:00Z,6.28,81.13,31.0,27.0,240,10,,6.21,29.704725,,,,,,TRUE,,,,,SCT,1800,BKN,6000,,,,,VFR,,,,,,,,,,,,METAR,50.0
VCBI 060910Z 24008KT 210V280 9999 FEW012 SCT016 FEW018CB 31/26 Q1007 NOSIG RMK CB E/SE/S,VCBI,2023-05-06T09:10:00Z,7.17,79.88,31.0,26.0,240,8,,6.21,29.734253,,,,,,TRUE,,,,,FEW,1200,SCT,1600,FEW,1800,,,VFR,,,,,,,,,,,,METAR,10.0
RJNY 060910Z 24015KT 9999 FEW015 BKN025 BKN050 22/18 Q1010 RMK 1CU015 5CU025 6SC050 A2983,RJNY,2023-05-06T09:10:00Z,34.82,138.3,22.0,18.0,240,15,,6.21,29.822834,,,,,,,,,,,FEW,1500,BKN,2500,BKN,5000,,,MVFR,,,,,,,,,,,,SPECI,7.0
KXBP 060910Z AUTO 23003KT 10SM CLR 24/11 A2983 RMK AO2 T02360111,KXBP,2023-05-06T09:10:00Z,33.18,-97.83,23.6,11.1,230,3,,10.0,29.828741,,,TRUE,TRUE,,,,,,,CLR,,,,,,,,VFR,,,,,,,,,,,,SPECI,256.0
KX26 060910Z AUTO 00000KT 10SM SCT031 SCT065 20/18 A3007 RMK AO2 TSNO T02010178,KX26,2023-05-06T09:10:00Z,27.82,-80.5,20.1,17.8,0,0,,10.0,30.070866,,,TRUE,TRUE,,,TRUE,,,,SCT,3100,SCT,6500,,,,,VFR,,,,,,,,,,,,METAR,5.0
KWLD 060910Z AUTO 17017G25KT 7SM BKN011 23/22 A2975 RMK AO2 T02330217,KWLD,2023-05-06T09:10:00Z,37.17,-97.03,23.3,21.7,170,17,25,7.0,29.749016,,,TRUE,TRUE,,,,,,,BKN,1100,,,,,,,MVFR,,,,,,,,,,,,SPECI,351.0
KVVS 060910Z AUTO 07005KT 10SM CLR 10/04 A3026 RMK AO2 T00980038,KVVS,2023-05-06T09:10:00Z,39.95,-79.65,9.8,3.8,70,5,,10.0,30.259842,,,TRUE,TRUE,,,,,,,CLR,,,,,,,,VFR,,,,,,,,,,,,METAR,386.0
KVES 060910Z AUTO 14005KT 10SM CLR 09/03 A3020 RMK AO2,KVES,2023-05-06T09:10:00Z,40.2,-84.53,9.0,3.0,140,5,,10.0,30.200787,,,TRUE,TRUE,,,,,,,CLR,,,,,,,,VFR,,,,,,,,,,,,METAR,308.0
KULS 060910Z AUTO 30008KT 10SM CLR 11/01 A2978 RMK AO2,KULS,2023-05-06T09:10:00Z,37.6,-101.37,11.0,1.0,300,8,,10.0,29.778543,,,TRUE,TRUE,,,,,,,CLR,,,,,,,,VFR,,,,,,,,,,,,METAR,934.0
KSZL 060910Z AUTO 16008KT 10SM BKN012 BKN036 17/14 A2987 RMK AO2 CIG 012V035 BKN012 V SCT SLP112 $,KSZL,2023-05-06T09:10:00Z,38.73,-93.53,17.0,14.0,160,8,,10.0,29.870079,1011.2,,TRUE,TRUE,TRUE,,,,,,BKN,1200,BKN,3600,,,,,MVFR,,,,,,,,,,,,SPECI,259.0
KSUT 060910Z AUTO 00000KT 10SM CLR 12/10 A3023 RMK AO2 T01220102,KSUT,2023-05-06T09:10:00Z,33.93,-78.08,12.2,10.2,0,0,,10.0,30.230314,,,TRUE,TRUE,,,,,,,CLR,,,,,,,,VFR,,,,,,,,,,,,METAR,6.0
KSNH 060910Z AUTO 17005KT 10SM OVC018 16/14 A3008 RMK A01,KSNH,2023-05-06T09:10:00Z,35.17,-88.22,16.0,14.0,170,5,,10.0,30.079725,,,TRUE,TRUE,,,,,,,OVC,1800,,,,,,,MVFR,,,,,,,,,,,,METAR,142.0
KRHP 060910Z AUTO 00000KT 10SM -RA OVC090 11/10 A3021 RMK AO2 T01100095,KRHP,2023-05-06T09:10:00Z,35.18,-83.85,11.0,9.5,0,0,,10.0,30.209646,,,TRUE,TRUE,,,,,,-RA,OVC,9000,,,,,,,VFR,,,,,,,,,,,,METAR,515.0
KPNS 060910Z AUTO 11005KT 10SM FEW021 OVC030 22/19 A3006 RMK AO2 T02220194,KPNS,2023-05-06T09:10:00Z,30.48,-87.18,22.2,19.4,110,5,,10.0,30.059055,,,TRUE,TRUE,,,,,,,FEW,2100,OVC,3000,,,,,MVFR,,,,,,,,,,,,SPECI,34.0
KOLY 060910Z AUTO 14007KT 10SM OVC032 16/10 A3009 RMK AO2 T01580101 PWINO,KOLY,2023-05-06T09:10:00Z,38.72,-88.18,15.8,10.1,140,7,,10.0,30.088583,,,TRUE,TRUE,,,,,TRUE,,OVC,3200,,,,,,,VFR,,,,,,,,,,,,METAR,144.0
KO05 060910Z AUTO 19005KT 5SM BR BKN014 BKN023 OVC044 03/02 A2998 RMK A01,KO05,2023-05-06T09:10:00Z,40.28,-121.23,3.0,2.0,190,5,,5.0,29.97933,,,TRUE,TRUE,,,,,,BR,BKN,1400,BKN,2300,OVC,4400,,,MVFR,,,,,,,,,,,,METAR,1380.0
KNOW 060910Z AUTO 26006KT 10SM OVC020 09/08 A2997 RMK AO2 T00860080,KNOW,2023-05-06T09:10:00Z,48.13,-123.4,8.6,8.0,260,6,,10.0,29.970472,,,TRUE,TRUE,,,,,,,OVC,2000,,,,,,,MVFR,,,,,,,,,,,,METAR,3.0
KMRC 060910Z AUTO 14003KT 10SM OVC047 14/14 A3010 RMK A01,KMRC,2023-05-06T09:10:00Z,35.55,-87.18,14.0,14.0,140,3,,10.0,30.100393,,,TRUE,TRUE,,,,,,,OVC,4700,,,,,,,VFR,,,,,,,,,,,,METAR,205.0
KMQI 060910Z AUTO 00000KT 10SM CLR 09/08 A3026 RMK AO2 T00920082,KMQI,2023-05-06T09:10:00Z,35.92,-75.7,9.2,8.2,0,0,,10.0,30.259842,,,TRUE,TRUE,,,,,,,CLR,,,,,,,,VFR,,,,,,,,,,,,METAR,3.0
KM91 060910Z AUTO VRB03KT 10SM OVC050 14/12 A3011 RMK A01,KM91,2023-05-06T09:10:00Z,36.53,-86.92,14.0,12.0,0,3,,10.0,30.109253,,,TRUE,TRUE,,,,,,,OVC,5000,,,,,,,VFR,,,,,,,,,,,,METAR,214.0
KM54 060910Z AUTO 00000KT 10SM OVC085 14/13 A3012 RMK A01,KM54,2023-05-06T09:10:00Z,36.18,-86.32,14.0,13.0,0,0,,10.0,30.121063,,,TRUE,TRUE,,,,,,,OVC,8500,,,,,,,VFR,,,,,,,,,,,,METAR,168.0
KLMT 060910Z AUTO 10SM BKN024 BKN036 OVC050 04/02 A2994 RMK AO2 T00440022,KLMT,2023-05-06T09:10:00Z,42.15,-121.72,4.4,2.2,,,,10.0,29.940945,,,TRUE,TRUE,,,,,,,BKN,2400,BKN,3600,OVC,5000,,,MVFR,,,,,,,,,,,,SPECI,1246.0
KKLS 060910Z AUTO 00000KT FEW009 OVC017 10/09 A2998 RMK AO2 PWINO $,KKLS,2023-05-06T09:10:00Z,46.12,-122.9,10.0,9.0,0,0,,,29.97933,,,TRUE,TRUE,TRUE,,,,TRUE,,FEW,900,OVC,1700,,,,,,,,,,,,,,,,,METAR,4.0
KK70 060910Z AUTO 06003KT 10SM OVC050 25/19 A3002 RMK AO2,KK70,2023-05-06T09:10:00Z,25.32,-80.28,25.0,19.0,60,3,,10.0,30.02067,,,TRUE,TRUE,,,,,,,OVC,5000,,,,,,,VFR,,,,,,,,,,,,METAR,20.0
KJAU 060910Z AUTO 00000KT 10SM OVC100 12/10 A3024 RMK A01,KJAU,2023-05-06T09:10:00Z,36.33,-84.17,12.0,10.0,0,0,,10.0,30.239174,,,TRUE,TRUE,,,,,,,OVC,10000,,,,,,,VFR,,,,,,,,,,,,METAR,350.0
KISO 060910Z AUTO 00000KT 10SM SCT080 OVC100 12/11 A3025 RMK AO2 T01210114,KISO,2023-05-06T09:10:00Z,35.32,-77.62,12.1,11.4,0,0,,10.0,30.250984,,,TRUE,TRUE,,,,,,,SCT,8000,OVC,10000,,,,,VFR,,,,,,,,,,,,METAR,27.0
KGWW 060910Z AUTO 00000KT 10SM SCT085 11/11 A3024 RMK AO2 T01080108,KGWW,2023-05-06T09:10:00Z,35.47,-77.97,10.8,10.8,0,0,,10.0,30.239174,,,TRUE,TRUE,,,,,,,SCT,8500,,,,,,,VFR,,,,,,,,,,,,METAR,40.0
KGNC 060910Z AUTO 28004KT 10SM CLR 14/03 A2996 RMK AO2 T01410025,KGNC,2023-05-06T09:10:00Z,32.68,-102.65,14.1,2.5,280,4,,10.0,29.958662,,,TRUE,TRUE,,,,,,,CLR,,,,,,,,VFR,,,,,,,,,,,,SPECI,1002.0
KFSK 060910Z AUTO 14007KT 10SM OVC013 18/17 A2985 RMK AO2 T01830169,KFSK,2023-05-06T09:10:00Z,37.8,-94.77,18.3,16.9,140,7,,10.0,29.84941,,,TRUE,TRUE,,,,,,,OVC,1300,,,,,,,MVFR,,,,,,,,,,,,METAR,276.0
KFFA 060910Z AUTO 00000KT 10SM SCT120 12/11 A3024 RMK AO2 T01160109,KFFA,2023-05-06T09:10:00Z,36.02,-75.67,11.6,10.9,0,0,,10.0,30.239174,,,TRUE,TRUE,,,,,,,SCT,12000,,,,,,,VFR,,,,,,,,,,,,METAR,2.0
KFDK 060910Z AUTO 00000KT M1/4SM VV000 05/05 A3030 RMK AO2,KFDK,2023-05-06T09:10:00Z,39.42,-77.37,5.0,5.0,0,0,,0.25,30.301182,,,TRUE,TRUE,,,,,,,OVX,0,,,,,,,LIFR,,,,,,,,,,,0,SPECI,82.0
KEYF 060910Z AUTO 00000KT 10SM CLR 11/10 A3023 RMK AO2 T01070099,KEYF,2023-05-06T09:10:00Z,34.6,-78.58,10.7,9.9,0,0,,10.0,30.230314,,,TRUE,TRUE,,,,,,,CLR,,,,,,,,VFR,,,,,,,,,,,,METAR,39.0
KEXX 060910Z AUTO 00000KT 10SM CLR 08/08 A3023 RMK AO2 T00840084,KEXX,2023-05-06T09:10:00Z,35.78,-80.3,8.4,8.4,0,0,,10.0,30.230314,,,TRUE,TRUE,,,,,,,CLR,,,,,,,,VFR,,,,,,,,,,,,METAR,221.0
KETN 060910Z AUTO 16005KT 10SM CLR 19/14 A2989 RMK AO2 T01870140,KETN,2023-05-06T09:10:00Z,32.42,-98.82,18.7,14.0,160,5,,10.0,29.890747,,,TRUE,TRUE,,,,,,,CLR,,,,,,,,VFR,,,,,,,,,,,,SPECI,445.0
KEDE 060910Z AUTO 00000KT 10SM CLR 10/10 A3026 RMK AO2 T00970097,KEDE,2023-05-06T09:10:00Z,36.03,-76.57,9.7,9.7,0,0,,10.0,30.259842,,,TRUE,TRUE,,,,,,,CLR,,,,,,,,VFR,,,,,,,,,,,,METAR,4.0
KEAN 060910Z AUTO 23003KT 10SM CLR 05/04 A2987 RMK AO2 T00490039,KEAN,2023-05-06T09:10:00Z,42.05,-104.93,4.9,3.9,230,3,,10.0,29.870079,,,TRUE,TRUE,,,,,,,CLR,,,,,,,,VFR,,,,,,,,,,,,SPECI,1452.0
KDVK 060910Z AUTO 00000KT 10SM SCT090 11/08 A3020 RMK AO2,KDVK,2023-05-06T09:10:00Z,37.58,-84.77,11.0,8.0,0,0,,10.0,30.200787,,,TRUE,TRUE,,,,,,,SCT,9000,,,,,,,VFR,,,,,,,,,,,,METAR,309.0
KDED 060910Z AUTO 00000KT 10SM SCT055 BKN070 OVC100 20/17 A3009 RMK AO2 T01970171,KDED,2023-05-06T09:10:00Z,29.07,-81.28,19.7,17.1,0,0,,10.0,30.088583,,,TRUE,TRUE,,,,,,,SCT,5500,BKN,7000,OVC,10000,,,VFR,,,,,,,,,,,,METAR,21.0
KCGS 060910Z AUTO 00000KT 10SM CLR 07/07 A3029 RMK AO2 T00690066,KCGS,2023-05-06T09:10:00Z,38.98,-76.92,6.9,6.6,0,0,,10.0,30.28937,,,TRUE,TRUE,,,,,,,CLR,,,,,,,,VFR,,,,,,,,,,,,SPECI,15.0
KBMC 060910Z AUTO 18012KT 10SM BKN046 OVC060 09/03 A2996 RMK AO1 T00880030,KBMC,2023-05-06T09:10:00Z,41.55,-112.07,8.8,3.0,180,12,,10.0,29.958662,,,TRUE,TRUE,,,,,,,BKN,4600,OVC,6000,,,,,VFR,,,,,,,,,,,,METAR,1289.0
KANK 060910Z AUTO 27003KT 10SM SCT100 03/M06 A3007 RMK AO1 T00271063,KANK,2023-05-06T09:10:00Z,38.53,-106.05,2.7,-6.3,270,3,,10.0,30.070866,,,TRUE,TRUE,,,,,,,SCT,10000,,,,,,,VFR,,,,,,,,,,,,METAR,2293.0
KAFO 060910Z AUTO 20003KT 10SM SCT055 SCT110 00/M02 A2995 RMK AO2,KAFO,2023-05-06T09:10:00Z,42.72,-110.95,0.0,-2.0,200,3,,10.0,29.949802,,,TRUE,TRUE,,,,,,,SCT,5500,SCT,11000,,,,,VFR,,,,,,,,,,,,SPECI,1881.0
K82V 060910Z AUTO 19004KT 10SM 01/01 A2989 RMK AO2,K82V,2023-05-06T09:10:00Z,41.15,-104.13,1.0,1.0,190,4,,10.0,29.890747,,,TRUE,TRUE,,,,,,,,,,,,,,,,,,,,,,,,,,,METAR,1563.0
K1A5 060910Z AUTO 00000KT 10SM SCT090 OVC120 10/09 A3027 RMK AO2 T01030094,K1A5,2023-05-06T09:10:00Z,35.22,-83.42,10.3,9.4,0,0,,10.0,30.268702,,,TRUE,TRUE,,,,,,,SCT,9000,OVC,12000,,,,,VFR,,,,,,,,,,,,METAR,611.0
K05U 060910Z AUTO 00000KT 9SM M02/M02 A2999 RMK A01,K05U,2023-05-06T09:10:00Z,39.6,-116.0,-2.0,-2.0,0,0,,9.0,29.991142,,,TRUE,TRUE,,,,,,,,,,,,,,,,,,,,,,,,,,,SPECI,1813.0
ETIK 060910Z AUTO 30006KT 9999 SCT025 SCT210 17/12 A3006 RMK AO2 SLP181 FZRANO $,ETIK,2023-05-06T09:10:00Z,49.47,10.38,17.0,12.0,300,6,,6.21,30.059055,1018.1,,TRUE,TRUE,TRUE,,,TRUE,,,SCT,2500,SCT,21000,,,,,VFR,,,,,,,,,,,,SPECI,326.0
ETIH 060910Z AUTO 25005KT 1800 HZ FEW022 SCT030 17/10 A3006 RMK AO2 SLP180 $,ETIH,2023-05-06T09:10:00Z,49.22,11.83,17.0,10.0,250,5,,1.12,30.059055,1018.0,,TRUE,TRUE,TRUE,,,,,HZ,FEW,2200,SCT,3000,,,,,IFR,,,,,,,,,,,,SPECI,436.0
KTCM 060909Z AUTO 00000KT 10SM FEW006 BKN018 OVC090 08/08 A2996 RMK AO2 DZE09 CIG 016V085 SLP150 $,KTCM,2023-05-06T09:09:00Z,47.13,-122.47,8.0,8.0,0,0,,10.0,29.958662,1015.0,,TRUE,TRUE,TRUE,,,,,,FEW,600,BKN,1800,OVC,9000,,,MVFR,,,,,,,,,,,,SPECI,87.0
KSPI 060909Z AUTO 15014G21KT 10SM OVC029 16/11 A3003 RMK AO2 T01560111,KSPI,2023-05-06T09:09:00Z,39.85,-89.68,15.6,11.1,150,14,21,10.0,30.029528,,,TRUE,TRUE,,,,,,,OVC,2900,,,,,,,MVFR,,,,,,,,,,,,SPECI,179.0
KMTN 060909Z AUTO 00000KT 10SM OVC003 08/08 A3030 RMK AO2,KMTN,2023-05-06T09:09:00Z,39.32,-76.42,8.0,8.0,0,0,,10.0,30.301182,,,TRUE,TRUE,,,,,,,OVC,300,,,,,,,LIFR,,,,,,,,,,,,SPECI,2.0
KFME 060909Z AUTO 00000KT 7SM CLR 04/04 A3031 RMK AO1,KFME,2023-05-06T09:09:00Z,39.08,-76.77,4.0,4.0,0,0,,7.0,30.31004,,,TRUE,TRUE,,,,,,,CLR,,,,,,,,VFR,,,,,,,,,,,,SPECI,43.0
KAFP 060909Z AUTO 00000KT 10SM CLR 09/09 A3023 RMK AO2 T00930087,KAFP,2023-05-06T09:09:00Z,35.02,-80.08,9.3,8.7,0,0,,10.0,30.230314,,,TRUE,TRUE,,,,,,,CLR,,,,,,,,VFR,,,,,,,,,,,,METAR,91.0
K2W6 060909Z AUTO 00000KT 1/4SM OVC001 06/06 A3029 RMK AO1,K2W6,2023-05-06T09:09:00Z,38.32,-76.55,6.0,6.0,0,0,,0.25,30.28937,,,TRUE,TRUE,,,,,,,OVC,100,,,,,,,LIFR,,,,,,,,,,,,SPECI,40.0
PAMY 060908Z AUTO 26006KT 10SM OVC013 M03/M04 A2959 RMK AO2 FZRANO,PAMY,2023-05-06T09:08:00Z,60.37,-166.27,-3.0,-4.0,260,6,,10.0,29.589567,,,TRUE,TRUE,,,,TRUE,,,OVC,1300,,,,,,,MVFR,,,,,,,,,,,,SPECI,14.0
KLFT 060908Z AUTO 18006KT 10SM BKN012 OVC019 26/24 A2997 RMK AO2 T02560239,KLFT,2023-05-06T09:08:00Z,30.2,-91.97,25.6,23.9,180,6,,10.0,29.970472,,,TRUE,TRUE,,,,,,,BKN,1200,OVC,1900,,,,,MVFR,,,,,,,,,,,,SPECI,9.0
KIMT 060908Z AUTO 08003KT 10SM BKN009 BKN065 OVC110 08/07 A3011 RMK AO2 T00830072,KIMT,2023-05-06T09:08:00Z,45.82,-88.12,8.3,7.2,80,3,,10.0,30.109253,,,TRUE,TRUE,,,,,,,BKN,900,BKN,6500,OVC,11000,,,IFR,,,,,,,,,,,,METAR,343.0
KHRL 060908Z AUTO 16009KT 7SM SCT013 26/25 A2984 RMK AO2 T02560250,KHRL,2023-05-06T09:08:00Z,26.23,-97.65,25.6,25.0,160,9,,7.0,29.840551,,,TRUE,TRUE,,,,,,,SCT,1300,,,,,,,VFR,,,,,,,,,,,,SPECI,9.0
KELM 060908Z AUTO 23004KT 10SM FEW002 02/01 A3032 RMK AO2 T00170011,KELM,2023-05-06T09:08:00Z,42.15,-76.9,1.7,1.1,230,4,,10.0,30.318897,,,TRUE,TRUE,,,,,,,FEW,200,,,,,,,VFR,,,,,,,,,,,,SPECI,287.0
KCDW 060908Z AUTO 00000KT 3SM BR FEW002 06/04 A3026 RMK AO2 T00560039,KCDW,2023-05-06T09:08:00Z,40.88,-74.28,5.6,3.9,0,0,,3.0,30.259842,,,TRUE,TRUE,,,,,,BR,FEW,200,,,,,,,MVFR,,,,,,,,,,,,METAR,52.0
KBOI 060908Z 28009KT 10SM SCT018 OVC028 08/04 A2992 RMK AO2 T00830039,KBOI,2023-05-06T09:08:00Z,43.57,-116.23,8.3,3.9,280,9,,10.0,29.920275,,,,TRUE,,,,,,,SCT,1800,OVC,2800,,,,,MVFR,,,,,,,,,,,,SPECI,860.0
CYKF 060908Z AUTO 01003KT 310V020 6SM BR SCT120 02/02 A3031 RMK SLP276,CYKF,2023-05-06T09:08:00Z,43.47,-80.38,2.0,2.0,10,3,,6.0,30.31004,1027.6,,TRUE,,,,,,,BR,SCT,12000,,,,,,,VFR,,,,,,,,,,,,SPECI,312.0
PAKN 060907Z 24006KT 10SM -RA FEW005 BKN020 OVC028 03/02 A2988 RMK AO2 P0000 T00280017,PAKN,2023-05-06T09:07:00Z,58.68,-156.65,2.8,1.7,240,6,,10.0,29.878937,,,,TRUE,,,,,,-RA,FEW,500,BKN,2000,OVC,2800,,,MVFR,,,,,,0.005,,,,,,SPECI,20.0
KIRK 060907Z AUTO 15008KT 10SM OVC015 15/13 A2993 RMK AO2 T01500128,KIRK,2023-05-06T09:07:00Z,40.1,-92.55,15.0,12.8,150,8,,10.0,29.929134,,,TRUE,TRUE,,,,,,,OVC,1500,,,,,,,MVFR,,,,,,,,,,,,SPECI,292.0
KTQE 060906Z AUTO 24006KT 10SM VCTS -RA FEW035 SCT070 BKN095 14/13 A2986 RMK AO2 LTG DSNT ALQDS TSE00 P0000 T01390128,KTQE,2023-05-06T09:06:00Z,41.77,-96.18,13.9,12.8,240,6,,10.0,29.861221,,,TRUE,TRUE,,,,,,VCTS -RA,FEW,3500,SCT,7000,BKN,9500,,,VFR,,,,,,0.005,,,,,,SPECI,312.0
KSMQ 060906Z AUTO 00000KT 9SM FEW003 03/03 A3025 RMK AO2 T00330028,KSMQ,2023-05-06T09:06:00Z,40.62,-74.67,3.3,2.8,0,0,,9.0,30.250984,,,TRUE,TRUE,,,,,,,FEW,300,,,,,,,VFR,,,,,,,,,,,,SPECI,30.0
KMCK 060906Z AUTO 06004KT 10SM BKN020 BKN025 13/11 A2978 RMK AO2 T01280111,KMCK,2023-05-06T09:06:00Z,40.2,-100.58,12.8,11.1,60,4,,10.0,29.778543,,,TRUE,TRUE,,,,,,,BKN,2000,BKN,2500,,,,,MVFR,,,,,,,,,,,,SPECI,780.0
KICT 060906Z 17012KT 5SM BR SCT011 23/21 A2972 RMK AO2 T02280211,KICT,2023-05-06T09:06:00Z,37.65,-97.43,22.8,21.1,170,12,,5.0,29.719488,,,,TRUE,,,,,,BR,SCT,1100,,,,,,,MVFR,,,,,,,,,,,,SPECI,428.0
KDEW 060906Z AUTO 20006KT 5SM BR FEW007 BKN011 OVC018 08/07 A2988 RMK AO2 T00830067,KDEW,2023-05-06T09:06:00Z,47.97,-117.43,8.3,6.7,200,6,,5.0,29.878937,,,TRUE,TRUE,,,,,,BR,FEW,700,BKN,1100,OVC,1800,,,MVFR,,,,,,,,,,,,SPECI,672.0
PHSF 060905Z AUTO 00000KT 10SM SCT015 10/08 A3035 RMK AO2 SLP173 $,PHSF,2023-05-06T09:05:00Z,19.77,-155.55,10.0,8.0,0,0,,10.0,30.351377,1017.3,,TRUE,TRUE,TRUE,,,,,,SCT,1500,,,,,,,VFR,,,,,,,,,,,,METAR,1863.0
KW40 060905Z AUTO 00000KT 10SM OVC080 11/10 A3024 RMK AO2 T01100096,KW40,2023-05-06T09:05:00Z,35.22,-78.03,11.0,9.6,0,0,,10.0,30.239174,,,TRUE,TRUE,,,,,,,OVC,8000,,,,,,,VFR,,,,,,,,,,,,METAR,50.0
KW29 060905Z AUTO 00000KT 10SM CLR 09/ A3027 RMK AO2 T0087////,KW29,2023-05-06T09:05:00Z,38.98,-76.33,8.7,,0,0,,10.0,30.268702,,,TRUE,TRUE,,,,,,,CLR,,,,,,,,VFR,,,,,,,,,,,,SPECI,1.0
KVUJ 060905Z AUTO 00000KT 10SM CLR 08/08 A3027 RMK AO2 T00820079,KVUJ,2023-05-06T09:05:00Z,35.42,-80.15,8.2,7.9,0,0,,10.0,30.268702,,,TRUE,TRUE,,,,,,,CLR,,,,,,,,VFR,,,,,,,,,,,,METAR,174.0
KUKF 060905Z AUTO 00000KT 10SM CLR 06/06 A3029 RMK AO2,KUKF,2023-05-06T09:05:00Z,36.22,-81.1,6.0,6.0,0,0,,10.0,30.28937,,,TRUE,TRUE,,,,,,,CLR,,,,,,,,VFR,,,,,,,,,,,,METAR,383.0
KTTS 060905Z AUTO 00000KT 10SM SCT029 BKN036 20/19 A3006 RMK AO2 SLP184 $,KTTS,2023-05-06T09:05:00Z,28.58,-80.67,20.0,19.0,0,0,,10.0,30.059055,1018.4,,TRUE,TRUE,TRUE,,,,,,SCT,2900,BKN,3600,,,,,VFR,,,,,,,,,,,,SPECI,1.0
KTTA 060905Z AUTO 00000KT 7SM CLR 07/07 A3023 RMK AO2 T00690069,KTTA,2023-05-06T09:05:00Z,35.58,-79.1,6.9,6.9,0,0,,7.0,30.230314,,,TRUE,TRUE,,,,,,,CLR,,,,,,,,VFR,,,,,,,,,,,,METAR,71.0
KTDF 060905Z AUTO 00000KT 10SM BKN070 07/06 A3026 RMK AO2,KTDF,2023-05-06T09:05:00Z,36.28,-78.98,7.0,6.0,0,0,,10.0,30.259842,,,TRUE,TRUE,,,,,,,BKN,7000,,,,,,,VFR,,,,,,,,,,,,METAR,180.0
KSVH 060905Z AUTO 00000KT 10SM CLR 09/07 A3022 RMK AO2 T00850071,KSVH,2023-05-06T09:05:00Z,35.75,-80.95,8.5,7.1,0,0,,10.0,30.221457,,,TRUE,TRUE,,,,,,,CLR,,,,,,,,VFR,,,,,,,,,,,,METAR,286.0
KSPB 060905Z AUTO 00000KT 10SM FEW012 BKN033 OVC045 11/09 A2996 RMK AO2 T01060089,KSPB,2023-05-06T09:05:00Z,45.77,-122.87,10.6,8.9,0,0,,10.0,29.958662,,,TRUE,TRUE,,,,,,,FEW,1200,BKN,3300,OVC,4500,,,VFR,,,,,,,,,,,,SPECI,15.0
KSIF 060905Z AUTO 00000KT 10SM CLR 07/06 A3024 RMK AO2 T00680063,KSIF,2023-05-06T09:05:00Z,36.43,-79.85,6.8,6.3,0,0,,10.0,30.239174,,,TRUE,TRUE,,,,,,,CLR,,,,,,,,VFR,,,,,,,,,,,,METAR,206.0
KSCR 060905Z AUTO 00000KT 10SM CLR 07/07 A3023 RMK AO2 T00720072,KSCR,2023-05-06T09:05:00Z,35.7,-79.5,7.2,7.2,0,0,,10.0,30.230314,,,TRUE,TRUE,,,,,,,CLR,,,,,,,,VFR,,,,,,,,,,,,METAR,182.0
KRUQ 060905Z AUTO 00000KT 10SM CLR 08/07 A3023 RMK AO2 T00800073,KRUQ,2023-05-06T09:05:00Z,35.65,-80.52,8.0,7.3,0,0,,10.0,30.230314,,,TRUE,TRUE,,,,,,,CLR,,,,,,,,VFR,,,,,,,,,,,,METAR,231.0
KRCZ 060905Z AUTO 00000KT 10SM CLR 12/10 A3023 RMK AO2 T01240103,KRCZ,2023-05-06T09:05:00Z,34.88,-79.77,12.4,10.3,0,0,,10.0,30.230314,,,TRUE,TRUE,,,,,,,CLR,,,,,,,,VFR,,,,,,,,,,,,METAR,110.0
KQD3 060905Z AUTO 08006G15KT 9999 CLR 37/24 A2975 RMK AO2 SLP059 WND DATA ESTMD,KQD3,2023-05-06T09:05:00Z,,,37.0,24.0,80,6,15,6.21,29.749016,1005.9,,TRUE,TRUE,,,,,,,CLR,,,,,,,,VFR,,,,,,,,,,,,SPECI,
KPGV 060905Z AUTO 00000KT 10SM OVC100 12/12 A3023 RMK AO2,KPGV,2023-05-06T09:05:00Z,35.63,-77.4,12.0,12.0,0,0,,10.0,30.230314,,,TRUE,TRUE,,,,,,,OVC,10000,,,,,,,VFR,,,,,,,,,,,,METAR,6.0
KONX 060905Z AUTO 00000KT 10SM BKN110 10/10 A3025 RMK AO2 T01030102,KONX,2023-05-06T09:05:00Z,36.4,-76.02,10.3,10.2,0,0,,10.0,30.250984,,,TRUE,TRUE,,,,,,,BKN,11000,,,,,,,VFR,,,,,,,,,,,,METAR,4.0
KOLU 060905Z AUTO 10009KT 10SM -RA BKN070 13/13 A2980 RMK AO2 LTG DSNT E TSE0859 P0001,KOLU,2023-05-06T09:05:00Z,41.45,-97.33,13.0,13.0,100,9,,10.0,29.799213,,,TRUE,TRUE,,,,,,-RA,BKN,7000,,,,,,,VFR,,,,,,0.01,,,,,,SPECI,438.0
KOCW 060905Z AUTO 00000KT 10SM OVC095 11/10 A3024 RMK AO2 T01120095,KOCW,2023-05-06T09:05:00Z,35.57,-77.05,11.2,9.5,0,0,,10.0,30.239174,,,TRUE,TRUE,,,,,,,OVC,9500,,,,,,,VFR,,,,,,,,,,,,METAR,10.0
KMWK 060905Z AUTO 00000KT 10SM CLR 08/07 A3025 RMK AO2 T00760067,KMWK,2023-05-06T09:05:00Z,36.47,-80.55,7.6,6.7,0,0,,10.0,30.250984,,,TRUE,TRUE,,,,,,,CLR,,,,,,,,VFR,,,,,,,,,,,,METAR,374.0
KMRN 060905Z AUTO 00000KT 10SM CLR 08/07 A3023 RMK AO2 T00790073,KMRN,2023-05-06T09:05:00Z,35.82,-81.62,7.9,7.3,0,0,,10.0,30.230314,,,TRUE,TRUE,,,,,,,CLR,,,,,,,,VFR,,,,,,,,,,,,METAR,375.0
KMCZ 060905Z AUTO 07003KT 10SM OVC100 12/10 A3024 RMK AO2 T01180099,KMCZ,2023-05-06T09:05:00Z,,,11.8,9.9,70,3,,10.0,30.239174,,,TRUE,TRUE,,,,,,,OVC,10000,,,,,,,VFR,,,,,,,,,,,,METAR,
KLHZ 060905Z AUTO 00000KT 7SM BKN085 07/07 A3025 RMK AO2,KLHZ,2023-05-06T09:05:00Z,36.02,-78.33,7.0,7.0,0,0,,7.0,30.250984,,,TRUE,TRUE,,,,,,,BKN,8500,,,,,,,VFR,,,,,,,,,,,,METAR,104.0
KJNX 060905Z AUTO 00000KT 10SM SCT080 10/09 A3023 RMK AO2,KJNX,2023-05-06T09:05:00Z,35.53,-78.38,10.0,9.0,0,0,,10.0,30.230314,,,TRUE,TRUE,,,,,,,SCT,8000,,,,,,,VFR,,,,,,,,,,,,METAR,41.0
KIXA 060905Z AUTO 00000KT 10SM BKN095 08/08 A3024 RMK AO2,KIXA,2023-05-06T09:05:00Z,36.33,-77.63,8.0,8.0,0,0,,10.0,30.239174,,,TRUE,TRUE,,,,,,,BKN,9500,,,,,,,VFR,,,,,,,,,,,,METAR,43.0
KIPJ 060905Z AUTO 00000KT 10SM CLR 09/08 A3022 RMK AO2 T00870082,KIPJ,2023-05-06T09:05:00Z,35.48,-81.17,8.7,8.2,0,0,,10.0,30.221457,,,TRUE,TRUE,,,,,,,CLR,,,,,,,,VFR,,,,,,,,,,,,METAR,266.0
KHRJ 060905Z AUTO 05003KT 10SM CLR 10/09 A3024 RMK AO2 T00970093,KHRJ,2023-05-06T09:05:00Z,35.38,-78.73,9.7,9.3,50,3,,10.0,30.239174,,,TRUE,TRUE,,,,,,,CLR,,,,,,,,VFR,,,,,,,,,,,,METAR,55.0
KHNZ 060905Z AUTO 00000KT 10SM SCT070 SCT080 09/09 A3024 RMK AO2 T00910090,KHNZ,2023-05-06T09:05:00Z,36.37,-78.53,9.1,9.0,0,0,,10.0,30.239174,,,TRUE,TRUE,,,,,,,SCT,7000,SCT,8000,,,,,VFR,,,,,,,,,,,,METAR,158.0
KHBI 060905Z AUTO 00000KT 10SM CLR 10/09 A3025 RMK AO2 T00950085,KHBI,2023-05-06T09:05:00Z,35.65,-79.9,9.5,8.5,0,0,,10.0,30.250984,,,TRUE,TRUE,,,,,,,CLR,,,,,,,,VFR,,,,,,,,,,,,METAR,199.0
KGEV 060905Z AUTO 00000KT 10SM CLR 08/05 A3026 RMK AO2 T00780052,KGEV,2023-05-06T09:05:00Z,36.43,-81.42,7.8,5.2,0,0,,10.0,30.259842,,,TRUE,TRUE,,,,,,,CLR,,,,,,,,VFR,,,,,,,,,,,,METAR,961.0
KFQD 060905Z AUTO 00000KT 10SM CLR 10/10 A3024 RMK AO2,KFQD,2023-05-06T09:05:00Z,35.42,-81.93,10.0,10.0,0,0,,10.0,30.239174,,,TRUE,TRUE,,,,,,,CLR,,,,,,,,VFR,,,,,,,,,,,,METAR,325.0
KEHO 060905Z AUTO 00000KT 10SM CLR 10/10 A3023 RMK AO2 T01010097,KEHO,2023-05-06T09:05:00Z,35.25,-81.6,10.1,9.7,0,0,,10.0,30.230314,,,TRUE,TRUE,,,,,,,CLR,,,,,,,,VFR,,,,,,,,,,,,METAR,261.0
KDPL 060905Z AUTO 00000KT 7SM BR CLR 08/08 A3025 RMK AO2,KDPL,2023-05-06T09:05:00Z,35.0,-77.97,8.0,8.0,0,0,,7.0,30.250984,,,TRUE,TRUE,,,,,,BR,CLR,,,,,,,,VFR,,,,,,,,,,,,METAR,39.0
KDMW 060905Z AUTO 00000KT 5SM BR CLR 07/06 A3028 RMK AO2,KDMW,2023-05-06T09:05:00Z,39.6,-77.0,7.0,6.0,0,0,,5.0,30.280512,,,TRUE,TRUE,,,,,,BR,CLR,,,,,,,,MVFR,,,,,,,,,,,,SPECI,239.0
KCTZ 060905Z AUTO 00000KT 10SM CLR 11/11 A3024 RMK AO2 T01080108,KCTZ,2023-05-06T09:05:00Z,34.98,-78.37,10.8,10.8,0,0,,10.0,30.239174,,,TRUE,TRUE,,,,,,,CLR,,,,,,,,VFR,,,,,,,,,,,,METAR,43.0
KCPC 060905Z AUTO 00000KT 10SM CLR 11/10 A3023 RMK AO2 T01060097,KCPC,2023-05-06T09:05:00Z,34.28,-78.72,10.6,9.7,0,0,,10.0,30.230314,,,TRUE,TRUE,,,,,,,CLR,,,,,,,,VFR,,,,,,,,,,,,METAR,27.0
KCGE 060905Z AUTO 00000KT 10SM BKN002 07/07 A3027 RMK A01,KCGE,2023-05-06T09:05:00Z,38.53,-76.03,7.0,7.0,0,0,,10.0,30.268702,,,TRUE,TRUE,,,,,,,BKN,200,,,,,,,LIFR,,,,,,,,,,,,SPECI,5.0
KCBE 060905Z AUTO 06006KT 10SM CLR 06/05 A3034 RMK AO2 T00580047,KCBE,2023-05-06T09:05:00Z,39.62,-78.77,5.8,4.7,60,6,,10.0,30.339567,,,TRUE,TRUE,,,,,,,CLR,,,,,,,,VFR,,,,,,,,,,,,SPECI,226.0
KBKB 060905Z AUTO 00000KT 5SM -RA BR BKN012 BKN018 OVC028 23/22 A2996 RMK AO2 RAB0853 P0000 T02330222,KBKB,2023-05-06T09:05:00Z,31.02,-92.92,23.3,22.2,0,0,,5.0,29.958662,,,TRUE,TRUE,,,,,,-RA BR,BKN,1200,BKN,1800,OVC,2800,,,MVFR,,,,,,0.005,,,,,,SPECI,74.0
KASJ 060905Z AUTO 00000KT 10SM BKN095 10/10 A3025 RMK AO2 T00980096,KASJ,2023-05-06T09:05:00Z,36.28,-77.17,9.8,9.6,0,0,,10.0,30.250984,,,TRUE,TRUE,,,,,,,BKN,9500,,,,,,,VFR,,,,,,,,,,,,METAR,20.0
KACZ 060905Z AUTO 00000KT 10SM CLR 09/09 A3023 RMK AO2 T00940088,KACZ,2023-05-06T09:05:00Z,,,9.4,8.8,0,0,,10.0,30.230314,,,TRUE,TRUE,,,,,,,CLR,,,,,,,,VFR,,,,,,,,,,,,METAR,
K7W6 060905Z AUTO 00000KT 10SM CLR 09/08 A3025 RMK AO2 T00900080,K7W6,2023-05-06T09:05:00Z,35.55,-75.95,9.0,8.0,0,0,,10.0,30.250984,,,TRUE,TRUE,,,,,,,CLR,,,,,,,,VFR,,,,,,,,,,,,METAR,1.0
K24A 060905Z AUTO 15004KT 10SM OVC110 10/07 A3025 RMK AO2 T01000075,K24A,2023-05-06T09:05:00Z,35.32,-83.2,10.0,7.5,150,4,,10.0,30.250984,,,TRUE,TRUE,,,,,,,OVC,11000,,,,,,,VFR,,,,,,,,,,,,METAR,864.0
SBAR 060904Z 10014KT 5000 -RA BR BKN013 FEW019TCU BKN021 25/23 Q1014,SBAR,2023-05-06T09:04:00Z,-10.98,-37.07,25.0,23.0,100,14,,3.11,29.940945,,,,,,,,,,-RA BR,BKN,1300,FEW,1900,BKN,2100,,,MVFR,,,,,,,,,,,,METAR,4.0
PHTO 060904Z AUTO 23004KT 10SM -RA FEW028 SCT035 OVC060 21/19 A3010 RMK AO2 RAB0856 P0000 T02110194 TSNO,PHTO,2023-05-06T09:04:00Z,19.72,-155.05,21.1,19.4,230,4,,10.0,30.100393,,,TRUE,TRUE,,,TRUE,,,-RA,FEW,2800,SCT,3500,OVC,6000,,,VFR,,,,,,0.005,,,,,,METAR,9.0
YPEA 060903Z AUTO 07015G25KT 9999 // SCT076 BKN093 OVC110 17/10 Q1019,YPEA,2023-05-06T09:03:00Z,-31.67,116.02,17.0,10.0,70,15,25,6.21,30.088583,,,TRUE,,,,,,,,SCT,7600,BKN,9300,OVC,11000,,,VFR,,,,,,,,,,,,SPECI,38.0
SVVL 060903Z AUTO ///01KT NCD ///// Q////,SVVL,2023-05-06T09:03:00Z,9.33,-70.58,,,,,,,,,,TRUE,,,,,,,,CLR,,,,,,,,,,,,,,,,,,,,SPECI,575.0
SVVA 060903Z AUTO 05003KT NCD 26/20 Q1014,SVVA,2023-05-06T09:03:00Z,10.15,-67.92,26.0,20.0,50,3,,,29.940945,,,TRUE,,,,,,,,CLR,,,,,,,,,,,,,,,,,,,,METAR,428.0
SVSR 060903Z AUTO NIL,SVSR,2023-05-06T09:03:00Z,7.87,-67.43,,,,,,,,,,TRUE,,,,,,,,,,,,,,,,,,,,,,,,,,,,SPECI,49.0
SVSA 060903Z AUTO NIL,SVSA,2023-05-06T09:03:00Z,7.83,-72.45,,,,,,,,,,TRUE,,,,,,,,,,,,,,,,,,,,,,,,,,,,SPECI,383.0
SVPR 060903Z AUTO 06003KT NCD 24/20 Q1014,SVPR,2023-05-06T09:03:00Z,8.3,-62.77,24.0,20.0,60,3,,,29.940945,,,TRUE,,,,,,,,CLR,,,,,,,,,,,,,,,,,,,,METAR,140.0
SVPA 060903Z AUTO NIL,SVPA,2023-05-06T09:03:00Z,5.62,-67.6,,,,,,,,,,TRUE,,,,,,,,,,,,,,,,,,,,,,,,,,,,METAR,77.0
SVMT 060903Z AUTO 02003KT NCD 24/22 Q1013,SVMT,2023-05-06T09:03:00Z,9.75,-63.17,24.0,22.0,20,3,,,29.911417,,,TRUE,,,,,,,,CLR,,,,,,,,,,,,,,,,,,,,METAR,67.0
SVMI 060903Z AUTO 08007KT NCD 25/20 Q1013,SVMI,2023-05-06T09:03:00Z,10.6,-67.0,25.0,20.0,80,7,,,29.911417,,,TRUE,,,,,,,,CLR,,,,,,,,,,,,,,,,,,,,METAR,48.0
SVMG 060903Z AUTO 06009KT NCD 25/25 Q1014,SVMG,2023-05-06T09:03:00Z,10.92,-63.97,25.0,25.0,60,9,,,29.940945,,,TRUE,,,,,,,,CLR,,,,,,,,,,,,,,,,,,,,METAR,16.0
SVMC 060903Z AUTO 03005KT NCD 25/23 Q1009,SVMC,2023-05-06T09:03:00Z,10.57,-71.72,25.0,23.0,30,5,,,29.793306,,,TRUE,,,,,,,,CLR,,,,,,,,,,,,,,,,,,,,METAR,76.0
SVLO 060903Z AUTO NIL,SVLO,2023-05-06T09:03:00Z,11.8,-66.18,,,,,,,,,,TRUE,,,,,,,,,,,,,,,,,,,,,,,,,,,,METAR,3.0
SVJM 060903Z AUTO 05001KT NCD 21/18 Q1013,SVJM,2023-05-06T09:03:00Z,9.92,-67.38,21.0,18.0,50,1,,,29.911417,,,TRUE,,,,,,,,CLR,,,,,,,,,,,,,,,,,,,,METAR,448.0
SVGU 060903Z AUTO 31001KT NCD 29/19 Q1012,SVGU,2023-05-06T09:03:00Z,9.03,-69.75,29.0,19.0,310,1,,,29.88189,,,TRUE,,,,,,,,CLR,,,,,,,,,,,,,,,,,,,,METAR,165.0
SVGD 060903Z AUTO 30002KT NCD 23/22 Q1012,SVGD,2023-05-06T09:03:00Z,7.22,-70.75,23.0,22.0,300,2,,,29.88189,,,TRUE,,,,,,,,CLR,,,,,,,,,,,,,,,,,,,,METAR,129.0
SVFM 060903Z AUTO NIL,SVFM,2023-05-06T09:03:00Z,10.48,-66.83,,,,,,,,,,TRUE,,,,,,,,,,,,,,,,,,,,,,,,,,,,METAR,852.0
SVCS 060903Z AUTO 06001KT NCD 21/18 Q1017,SVCS,2023-05-06T09:03:00Z,10.3,-66.82,21.0,18.0,60,1,,,30.029528,,,TRUE,,,,,,,,CLR,,,,,,,,,,,,,,,,,,,,METAR,656.0
SVCB 060903Z AUTO 09005KT NCD 26/21 Q1012,SVCB,2023-05-06T09:03:00Z,8.12,-63.53,26.0,21.0,90,5,,,29.88189,,,TRUE,,,,,,,,CLR,,,,,,,,,,,,,,,,,,,,METAR,47.0
SVBS 060903Z AUTO 05001KT NCD 22/17 Q1015,SVBS,2023-05-06T09:03:00Z,10.25,-67.65,22.0,17.0,50,1,,,29.970472,,,TRUE,,,,,,,,CLR,,,,,,,,,,,,,,,,,,,,METAR,435.0
SVBM 060903Z AUTO 06002KT NCD 21/19 Q1015,SVBM,2023-05-06T09:03:00Z,10.05,-69.37,21.0,19.0,60,2,,,29.970472,,,TRUE,,,,,,,,CLR,,,,,,,,,,,,,,,,,,,,METAR,624.0
SVBI 060903Z AUTO /////KT NCD 24/15 Q1015,SVBI,2023-05-06T09:03:00Z,8.62,-70.22,24.0,15.0,,,,,29.970472,,,TRUE,,,,,,,,CLR,,,,,,,,,,,,,,,,,,,,METAR,185.0
SVBC 060903Z AUTO 14001KT NCD 24/23 Q1013,SVBC,2023-05-06T09:03:00Z,10.12,-64.68,24.0,23.0,140,1,,,29.911417,,,TRUE,,,,,,,,CLR,,,,,,,,,,,,,,,,,,,,METAR,7.0
PAPO 060903Z AUTO 11004KT 1/2SM FZFG CLR M12/M13 A3007 RMK AO2 FZRANO,PAPO,2023-05-06T09:03:00Z,68.35,-166.8,-12.0,-13.0,110,4,,0.5,30.070866,,,TRUE,TRUE,,,,TRUE,,FZFG,CLR,,,,,,,,LIFR,,,,,,,,,,,,SPECI,4.0
PANA 060903Z AUTO 32013G21KT 9SM -SN SCT011 BKN045 OVC060 M02/M03 A3000 RMK AO2 P0000 FZRANO TSNO $,PANA,2023-05-06T09:03:00Z,60.68,-161.98,-2.0,-3.0,320,13,21,9.0,30.0,,,TRUE,TRUE,TRUE,,TRUE,TRUE,,-SN,SCT,1100,BKN,4500,OVC,6000,,,VFR,,,,,,0.005,,,,,,SPECI,7.0
KTOP 060903Z AUTO 14010KT 8SM OVC009 18/17 A2979 RMK AO2 T01830167,KTOP,2023-05-06T09:03:00Z,39.07,-95.63,18.3,16.7,140,10,,8.0,29.790354,,,TRUE,TRUE,,,,,,,OVC,900,,,,,,,IFR,,,,,,,,,,,,SPECI,268.0
KMOB 060903Z AUTO 08003KT 4SM BR BKN003 OVC012 19/18 A3006 RMK AO2 T01940183 $,KMOB,2023-05-06T09:03:00Z,30.68,-88.25,19.4,18.3,80,3,,4.0,30.059055,,,TRUE,TRUE,TRUE,,,,,BR,BKN,300,OVC,1200,,,,,LIFR,,,,,,,,,,,,SPECI,67.0
CYHK 060903Z AUTO 23006KT 1/2SM FZFG VV003 M06/M07 A3048 RMK ICE SLP328,CYHK,2023-05-06T09:03:00Z,68.62,-95.85,-6.0,-7.0,230,6,,0.5,30.481298,1032.8,,TRUE,,,,,,,FZFG,OVX,0,,,,,,,LIFR,,,,,,,,,,,300,SPECI,36.0
KSIY 060902Z AUTO 00000KT 10SM -RA SCT024 OVC034 08/06 A2997 RMK AO2 P0000 T00780061,KSIY,2023-05-06T09:02:00Z,41.77,-122.47,7.8,6.1,0,0,,10.0,29.970472,,,TRUE,TRUE,,,,,,-RA,SCT,2400,OVC,3400,,,,,VFR,,,,,,0.005,,,,,,SPECI,807.0
KRPX 060902Z AUTO 10SM 07/04 A2973 RMK Roundup ,KRPX,2023-05-06T09:02:00Z,46.47,-108.55,7.0,4.0,,,,10.0,29.731298,,,TRUE,,,,,,,,,,,,,,,,,,,,,,,,,,,,METAR,1062.0
KGCN 060902Z AUTO 00000KT 7SM CLR M04/M09 A3007 RMK AO2 T10391094,KGCN,2023-05-06T09:02:00Z,35.95,-112.15,-3.9,-9.4,0,0,,7.0,30.070866,,,TRUE,TRUE,,,,,,,CLR,,,,,,,,VFR,,,,,,,,,,,,SPECI,1993.0
KCMA 060902Z AUTO 06004KT 10SM SCT017 12/09 A3007 RMK AO2 T01170089,KCMA,2023-05-06T09:02:00Z,34.22,-119.1,11.7,8.9,60,4,,10.0,30.070866,,,TRUE,TRUE,,,,,,,SCT,1700,,,,,,,VFR,,,,,,,,,,,,SPECI,20.0
KBAZ 060902Z AUTO 11007KT 10SM BKN014 OVC038 22/18 A2992 RMK AO2 T02170178 TSNO,KBAZ,2023-05-06T09:02:00Z,29.72,-98.05,21.7,17.8,110,7,,10.0,29.920275,,,TRUE,TRUE,,,TRUE,,,,BKN,1400,OVC,3800,,,,,MVFR,,,,,,,,,,,,SPECI,199.0
PAFS 060901Z AUTO 30004KT 10SM OVC080 03/M02 A2983 RMK AO2 SLP110 T00331022 400330033 51002,PAFS,2023-05-06T09:01:00Z,63.02,-154.35,3.3,-2.2,300,4,,10.0,29.828741,1011.0,,TRUE,TRUE,,,,,,,OVC,8000,,,,,,,VFR,0.2,,,3.3,3.3,,,,,,,METAR,131.0
KVCB 060901Z AUTO VRB05KT 10SM FEW015 BKN041 OVC050 12/09 A3007 RMK AO2 T01170089,KVCB,2023-05-06T09:01:00Z,38.38,-121.95,11.7,8.9,0,5,,10.0,30.070866,,,TRUE,TRUE,,,,,,,FEW,1500,BKN,4100,OVC,5000,,,VFR,,,,,,,,,,,,SPECI,30.0
KJAN 060901Z AUTO 13004KT 10SM BKN014 OVC020 21/19 A3003 RMK AO2 T02060189,KJAN,2023-05-06T09:01:00Z,32.32,-90.08,20.6,18.9,130,4,,10.0,30.029528,,,TRUE,TRUE,,,,,,,BKN,1400,OVC,2000,,,,,MVFR,,,,,,,,,,,,SPECI,92.0
ZYTX 060900Z 02006MPS CAVOK 22/M04 Q1013 NOSIG,ZYTX,2023-05-06T09:00:00Z,41.63,123.48,22.0,-4.0,20,12,,6.21,29.911417,,,,,,TRUE,,,,,CAVOK,,,,,,,,VFR,,,,,,,,,,,,METAR,56.0
ZYTL 060900Z 09003MPS 060V120 CAVOK 20/07 Q1011 NOSIG,ZYTL,2023-05-06T09:00:00Z,38.97,121.55,20.0,7.0,90,6,,6.21,29.852362,,,,,,TRUE,,,,,CAVOK,,,,,,,,VFR,,,,,,,,,,,,METAR,33.0
ZYHB 060900Z 29004MPS 240V330 CAVOK 20/M05 Q1013 NOSIG,ZYHB,2023-05-06T09:00:00Z,45.62,126.25,20.0,-5.0,290,8,,6.21,29.911417,,,,,,TRUE,,,,,CAVOK,,,,,,,,VFR,,,,,,,,,,,,METAR,134.0
ZYCC 060900Z 36002MPS 300V040 CAVOK 20/M09 Q1014 NOSIG,ZYCC,2023-05-06T09:00:00Z,43.98,125.68,20.0,-9.0,360,4,,6.21,29.940945,,,,,,TRUE,,,,,CAVOK,,,,,,,,VFR,,,,,,,,,,,,METAR,211.0
ZWWW 060900Z 01005MPS 330V040 9999 FEW040 13/M07 Q1022 NOSIG,ZWWW,2023-05-06T09:00:00Z,43.9,87.47,13.0,-7.0,10,10,,6.21,30.177166,,,,,,TRUE,,,,,FEW,4000,,,,,,,VFR,,,,,,,,,,,,METAR,654.0
ZWSH 060900Z VRB03MPS 9999 SCT040 15/M02 Q1015 NOSIG,ZWSH,2023-05-06T09:00:00Z,39.55,76.02,15.0,-2.0,0,6,,6.21,29.970472,,,,,,TRUE,,,,,SCT,4000,,,,,,,VFR,,,,,,,,,,,,METAR,1374.0
ZUUU 060900Z 22004MPS 190V250 9999 FEW033 27/14 Q1005 NOSIG,ZUUU,2023-05-06T09:00:00Z,30.58,103.95,27.0,14.0,220,8,,6.21,29.675198,,,,,,TRUE,,,,,FEW,3300,,,,,,,VFR,,,,,,,,,,,,METAR,494.0
ZUTF 060900Z 31004MPS 270V350 9999 SCT030 28/14 Q1004 NOSIG,ZUTF,2023-05-06T09:00:00Z,30.3,104.43,28.0,14.0,310,8,,6.21,29.64567,,,,,,TRUE,,,,,SCT,3000,,,,,,,VFR,,,,,,,,,,,,METAR,443.0
ZUGY 060900Z 04005MPS 9999 SCT026 24/16 Q1007 NOSIG,ZUGY,2023-05-06T09:00:00Z,26.53,106.8,24.0,16.0,40,10,,6.21,29.734253,,,,,,TRUE,,,,,SCT,2600,,,,,,,VFR,,,,,,,,,,,,METAR,1130.0
ZUCK 060900Z VRB02MPS 9999 FEW026 SCT050 23/17 Q1006 NOSIG,ZUCK,2023-05-06T09:00:00Z,29.72,106.63,23.0,17.0,0,4,,6.21,29.704725,,,,,,TRUE,,,,,FEW,2600,SCT,5000,,,,,VFR,,,,,,,,,,,,METAR,416.0
ZSSS 060900Z 04005MPS 9999 SCT020 20/15 Q1006 NOSIG,ZSSS,2023-05-06T09:00:00Z,31.2,121.33,20.0,15.0,40,10,,6.21,29.704725,,,,,,TRUE,,,,,SCT,2000,,,,,,,VFR,,,,,,,,,,,,METAR,2.0
ZSQD 060900Z 03007G12MPS 9999 BKN043 19/09 Q1010 BECMG TL1050 02002MPS,ZSQD,2023-05-06T09:00:00Z,36.27,120.38,19.0,9.0,30,14,23,6.21,29.822834,,,,,,,,,,,BKN,4300,,,,,,,VFR,,,,,,,,,,,,METAR,8.0
ZSPD 060900Z 03007MPS 9999 FEW020 18/15 Q1006 NOSIG,ZSPD,2023-05-06T09:00:00Z,31.15,121.8,18.0,15.0,30,14,,6.21,29.704725,,,,,,TRUE,,,,,FEW,2000,,,,,,,VFR,,,,,,,,,,,,METAR,4.0
ZSOF 060900Z 36003MPS 9999 OVC033 19/15 Q1008 NOSIG,ZSOF,2023-05-06T09:00:00Z,31.98,116.97,19.0,15.0,360,6,,6.21,29.763779,,,,,,TRUE,,,,,OVC,3300,,,,,,,VFR,,,,,,,,,,,,METAR,23.0
ZSNJ 060900Z 05003MPS 010V070 9999 BKN020 OVC046 20/15 Q1007 NOSIG,ZSNJ,2023-05-06T09:00:00Z,31.75,118.87,20.0,15.0,50,6,,6.21,29.734253,,,,,,TRUE,,,,,BKN,2000,OVC,4600,,,,,MVFR,,,,,,,,,,,,METAR,27.0
ZSNB 060900Z 03003MPS 340V080 3500 -SHRA BR FEW007 BKN020 OVC050 18/17 Q1006 NOSIG,ZSNB,2023-05-06T09:00:00Z,29.83,121.47,18.0,17.0,30,6,,2.17,29.704725,,,,,,TRUE,,,,-SHRA BR,FEW,700,BKN,2000,OVC,5000,,,IFR,,,,,,,,,,,,METAR,5.0
ZSHC 060900Z 04006MPS 3000 -RA BR SCT010 BKN017 OVC040 19/19 Q1005 BECMG TL0930 2000 BKN007 BKN017,ZSHC,2023-05-06T09:00:00Z,30.22,120.43,19.0,19.0,40,12,,1.86,29.675198,,,,,,,,,,-RA BR,SCT,1000,BKN,1700,OVC,4000,,,IFR,,,,,,,,,,,,METAR,8.0
ZSFZ 060900Z 20007MPS 9999 -SHRA FEW020 SCT050 25/23 Q1002 BECMG TL1030 TSRA FEW026CB,ZSFZ,2023-05-06T09:00:00Z,25.93,119.67,25.0,23.0,200,14,,6.21,29.586615,,,,,,,,,,-SHRA,FEW,2000,SCT,5000,,,,,VFR,,,,,,,,,,,,METAR,14.0
ZSAM 060900Z 21004MPS 9000 -TSRA FEW030CB OVC050 26/23 Q1003 RESHRA BECMG TL0930 TSRA,ZSAM,2023-05-06T09:00:00Z,24.53,118.13,26.0,23.0,210,8,,5.59,29.616142,,,,,,,,,,-TSRA,FEW,3000,OVC,5000,,,,,VFR,,,,,,,,,,,,METAR,13.0
ZPPP 060900Z 25010G15MPS 220V280 9999 SCT030 29/06 Q1012 NOSIG,ZPPP,2023-05-06T09:00:00Z,25.0,102.65,29.0,6.0,250,19,29,6.21,29.88189,,,,,,TRUE,,,,,SCT,3000,,,,,,,VFR,,,,,,,,,,,,METAR,1885.0
ZMUB 060900Z 34004MPS 9999 BKN250 13/M14 Q1024 NOSIG RMK QFE660.1 14 MOP,ZMUB,2023-05-06T09:00:00Z,47.83,106.75,13.0,-14.0,340,8,,6.21,30.236221,,,,,,TRUE,,,,,BKN,25000,,,,,,,VFR,,,,,,,,,,,,METAR,1300.0
ZLXY 060900Z 05006MPS 8000 SCT011 OVC040 13/13 Q1014 NOSIG,ZLXY,2023-05-06T09:00:00Z,34.43,108.75,13.0,13.0,50,12,,4.97,29.940945,,,,,,TRUE,,,,,SCT,1100,OVC,4000,,,,,MVFR,,,,,,,,,,,,METAR,478.0
ZLLL 060900Z 10006MPS 9999 SCT023 15/02 Q1016 NOSIG,ZLLL,2023-05-06T09:00:00Z,36.52,103.62,15.0,2.0,100,12,,6.21,30.0,,,,,,TRUE,,,,,SCT,2300,,,,,,,VFR,,,,,,,,,,,,METAR,1939.0
ZJSY 060900Z 16003MPS 110V210 9999 BKN020 31/26 Q1001 NOSIG,ZJSY,2023-05-06T09:00:00Z,18.3,109.42,31.0,26.0,160,6,,6.21,29.557087,,,,,,TRUE,,,,,BKN,2000,,,,,,,MVFR,,,,,,,,,,,,METAR,27.0
ZJHK 060900Z 15005MPS 110V190 CAVOK 34/26 Q0998 NOSIG,ZJHK,2023-05-06T09:00:00Z,19.93,110.43,34.0,26.0,150,10,,6.21,29.468504,,,,,,TRUE,,,,,CAVOK,,,,,,,,VFR,,,,,,,,,,,,METAR,21.0
ZHHH 060900Z 01003MPS 320V040 7000 -RA SCT033 17/15 Q1008 NOSIG,ZHHH,2023-05-06T09:00:00Z,30.78,114.22,17.0,15.0,10,6,,4.35,29.763779,,,,,,TRUE,,,,-RA,SCT,3300,,,,,,,MVFR,,,,,,,,,,,,METAR,33.0
ZHCC 060900Z 01007MPS 9999 -RA NSC 18/07 Q1014 NOSIG,ZHCC,2023-05-06T09:00:00Z,34.52,113.83,18.0,7.0,10,14,,6.21,29.940945,,,,,,TRUE,,,,-RA,CLR,,,,,,,,VFR,,,,,,,,,,,,METAR,149.0
ZGSZ 060900Z 17008MPS 9999 FEW020 BKN050 28/26 Q1001 NOSIG,ZGSZ,2023-05-06T09:00:00Z,22.63,113.8,28.0,26.0,170,16,,6.21,29.557087,,,,,,TRUE,,,,,FEW,2000,BKN,5000,,,,,VFR,,,,,,,,,,,,METAR,18.0
ZGOW 060900Z 21006MPS 9999 BKN040 30/23 Q1002 NOSIG,ZGOW,2023-05-06T09:00:00Z,23.55,116.5,30.0,23.0,210,12,,6.21,29.586615,,,,,,TRUE,,,,,BKN,4000,,,,,,,VFR,,,,,,,,,,,,METAR,4.0
ZGNN 060900Z 10006MPS CAVOK 35/26 Q0997 NOSIG,ZGNN,2023-05-06T09:00:00Z,22.62,108.17,35.0,26.0,100,12,,6.21,29.438976,,,,,,TRUE,,,,,CAVOK,,,,,,,,VFR,,,,,,,,,,,,METAR,128.0
ZGKL 060900Z 04004MPS 9999 SCT026 OVC046 26/21 Q1001 NOSIG,ZGKL,2023-05-06T09:00:00Z,25.22,110.03,26.0,21.0,40,8,,6.21,29.557087,,,,,,TRUE,,,,,SCT,2600,OVC,4600,,,,,VFR,,,,,,,,,,,,METAR,151.0
ZGHA 060900Z 34007MPS 4800 -RA BR SCT012 19/19 Q1005 NOSIG,ZGHA,2023-05-06T09:00:00Z,28.18,113.22,19.0,19.0,340,14,,2.98,29.675198,,,,,,TRUE,,,,-RA BR,SCT,1200,,,,,,,IFR,,,,,,,,,,,,METAR,61.0
ZGGG 060900Z 08003MPS 9999 OVC033 29/26 Q1001 NOSIG,ZGGG,2023-05-06T09:00:00Z,23.4,113.3,29.0,26.0,80,6,,6.21,29.557087,,,,,,TRUE,,,,,OVC,3300,,,,,,,VFR,,,,,,,,,,,,METAR,11.0
ZBYN 060900Z 12002MPS 9999 -RA SCT020 10/06 Q1019 NOSIG,ZBYN,2023-05-06T09:00:00Z,37.73,112.63,10.0,6.0,120,4,,6.21,30.088583,,,,,,TRUE,,,,-RA,SCT,2000,,,,,,,VFR,,,,,,,,,,,,METAR,778.0
ZBTJ 060900Z 34005MPS CAVOK 23/03 Q1014 BECMG TL1050 14003MPS,ZBTJ,2023-05-06T09:00:00Z,39.12,117.35,23.0,3.0,340,10,,6.21,29.940945,,,,,,,,,,,CAVOK,,,,,,,,VFR,,,,,,,,,,,,METAR,4.0
ZBSJ 060900Z 28004MPS CAVOK 17/11 Q1016 NOSIG,ZBSJ,2023-05-06T09:00:00Z,38.28,114.7,17.0,11.0,280,8,,6.21,30.0,,,,,,TRUE,,,,,CAVOK,,,,,,,,VFR,,,,,,,,,,,,METAR,70.0
ZBHH 060900Z 06006MPS 9999 FEW040 17/M03 Q1019 NOSIG,ZBHH,2023-05-06T09:00:00Z,40.85,111.82,17.0,-3.0,60,12,,6.21,30.088583,,,,,,TRUE,,,,,FEW,4000,,,,,,,VFR,,,,,,,,,,,,METAR,1081.0
ZBAD 060900Z 02002MPS 340V060 CAVOK 24/M03 Q1015 NOSIG,ZBAD,2023-05-06T09:00:00Z,39.5,116.42,24.0,-3.0,20,4,,6.21,29.970472,,,,,,TRUE,,,,,CAVOK,,,,,,,,VFR,,,,,,,,,,,,METAR,25.0
ZBAA 060900Z 27004MPS 220V300 CAVOK 24/M03 Q1014 NOSIG,ZBAA,2023-05-06T09:00:00Z,40.07,116.6,24.0,-3.0,270,8,,6.21,29.940945,,,,,,TRUE,,,,,CAVOK,,,,,,,,VFR,,,,,,,,,,,,METAR,31.0
YWLM 060900Z AUTO 00000KT 9999 // NCD 13/09 Q1016 RF00.0/000.0,YWLM,2023-05-06T09:00:00Z,-32.8,151.83,13.0,9.0,0,0,,6.21,30.0,,,TRUE,,,,,,,,CLR,,,,,,,,VFR,,,,,,,,,,,,METAR,7.0
YSTW 060900Z AUTO 10005KT //// // NCD 12/03 Q1018 RF00.0/000.0,YSTW,2023-05-06T09:00:00Z,-31.08,150.85,12.0,3.0,100,5,,,30.059055,,,TRUE,,,,,,,,CLR,,,,,,,,,,,,,,,,,,,,METAR,404.0
YSSY 060900Z AUTO 14005KT 9999 // NCD 17/10 Q1017 RF00.0/000.0,YSSY,2023-05-06T09:00:00Z,-33.95,151.17,17.0,10.0,140,5,,6.21,30.029528,,,TRUE,,,,,,,,CLR,,,,,,,,VFR,,,,,,,,,,,,SPECI,3.0
YSRI 060900Z AUTO 00000KT 9999 // NCD 12/10 Q1017 RF00.0/000.0,YSRI,2023-05-06T09:00:00Z,-33.6,150.77,12.0,10.0,0,0,,6.21,30.029528,,,TRUE,,,,,,,,CLR,,,,,,,,VFR,,,,,,,,,,,,SPECI,19.0
YSDU 060900Z AUTO 19005KT 9999 // NCD 14/04 Q1018 RF00.0/000.0,YSDU,2023-05-06T09:00:00Z,-32.22,148.57,14.0,4.0,190,5,,6.21,30.059055,,,TRUE,,,,,,,,CLR,,,,,,,,VFR,,,,,,,,,,,,SPECI,285.0
YSCB 060900Z AUTO 28004KT 9999 // OVC056 11/06 Q1018 RF00.0/000.0,YSCB,2023-05-06T09:00:00Z,-35.3,149.18,11.0,6.0,280,4,,6.21,30.059055,,,TRUE,,,,,,,,OVC,5600,,,,,,,VFR,,,,,,,,,,,,SPECI,577.0
YPXM 060900Z AUTO 08007KT 9999 // SCT013 28/24 Q1008 RF00.0/000.2,YPXM,2023-05-06T09:00:00Z,-10.45,105.68,28.0,24.0,80,7,,6.21,29.763779,,,TRUE,,,,,,,,SCT,1300,,,,,,,VFR,,,,,,,,,,,,SPECI,262.0
YPWR 060900Z AUTO 15015KT 9999 // SCT064 14/05 Q1025 RF00.0/000.0,YPWR,2023-05-06T09:00:00Z,-31.15,136.82,14.0,5.0,150,15,,6.21,30.265747,,,TRUE,,,,,,,,SCT,6400,,,,,,,VFR,,,,,,,,,,,,METAR,169.0
YPTN 060900Z AUTO 11006KT 9999 // NCD 30/17 Q1009 RF00.0/000.0,YPTN,2023-05-06T09:00:00Z,-14.52,132.38,30.0,17.0,110,6,,6.21,29.793306,,,TRUE,,,,,,,,CLR,,,,,,,,VFR,,,,,,,,,,,,SPECI,135.0
YPPH 060900Z 06015KT CAVOK 17/10 Q1019 BKN160,YPPH,2023-05-06T09:00:00Z,-31.93,115.98,17.0,10.0,60,15,,6.21,30.088583,,,,,,,,,,,BKN,16000,,,,,,,VFR,,,,,,,,,,,,METAR,16.0
YPPD 060900Z AUTO 11010KT 9999 // NCD 30/06 Q1011 RF00.0/000.0,YPPD,2023-05-06T09:00:00Z,-20.37,118.62,30.0,6.0,110,10,,6.21,29.852362,,,TRUE,,,,,,,,CLR,,,,,,,,VFR,,,,,,,,,,,,SPECI,6.0
YPLM 060900Z AUTO 03010KT 9999 // NCD 28/16 Q1012 RF00.0/000.0,YPLM,2023-05-06T09:00:00Z,-22.23,114.08,28.0,16.0,30,10,,6.21,29.88189,,,TRUE,,,,,,,,CLR,,,,,,,,VFR,,,,,,,,,,,,SPECI,5.0
YPKU 060900Z AUTO 11006KT 9999 // ////// 31/17 Q1009 RF00.0/000.0,YPKU,2023-05-06T09:00:00Z,-15.77,128.7,31.0,17.0,110,6,,6.21,29.793306,,,TRUE,,,,,,,,,,,,,,,,,,,,,,,,,,,,METAR,42.0
YPKG 060900Z AUTO 07008KT 9999 // NCD 18/06 Q1024 RF00.0/000.0,YPKG,2023-05-06T09:00:00Z,-30.78,121.45,18.0,6.0,70,8,,6.21,30.236221,,,TRUE,,,,,,,,CLR,,,,,,,,VFR,,,,,,,,,,,,METAR,372.0
YPJT 060900Z AUTO 07010KT 9999 // SCT105 SCT125 16/11 Q1020,YPJT,2023-05-06T09:00:00Z,-32.1,115.88,16.0,11.0,70,10,,6.21,30.11811,,,TRUE,,,,,,,,SCT,10500,SCT,12500,,,,,VFR,,,,,,,,,,,,METAR,29.0
YPGV 060900Z AUTO 11007KT 9999 // SCT019 SCT023 27/25 Q1009,YPGV,2023-05-06T09:00:00Z,-12.27,136.82,27.0,25.0,110,7,,6.21,29.793306,,,TRUE,,,,,,,,SCT,1900,SCT,2300,,,,,VFR,,,,,,,,,,,,METAR,53.0
YPDN 060900Z 02005KT 9999 FEW030 SCT091 30/24 Q1008 RF00.0/000.0,YPDN,2023-05-06T09:00:00Z,-12.42,130.9,30.0,24.0,20,5,,6.21,29.763779,,,,,,,,,,,FEW,3000,SCT,9100,,,,,VFR,,,,,,,,,,,,SPECI,32.0
YPCC 060900Z AUTO 19011KT 9999 // SCT014 29/26 Q1006 RF00.0/000.0,YPCC,2023-05-06T09:00:00Z,-12.18,96.83,29.0,26.0,190,11,,6.21,29.704725,,,TRUE,,,,,,,,SCT,1400,,,,,,,VFR,,,,,,,,,,,,SPECI,3.0
YMML 060900Z AUTO 23009KT 9999 // SCT029 BKN035 BKN044 08/06 Q1022,YMML,2023-05-06T09:00:00Z,-37.67,144.82,8.0,6.0,230,9,,6.21,30.177166,,,TRUE,,,,,,,,SCT,2900,BKN,3500,BKN,4400,,,VFR,,,,,,,,,,,,SPECI,115.0
YMLT 060900Z AUTO 16007KT 9999 // BKN115 06/M00 Q1020 RF00.0/000.0,YMLT,2023-05-06T09:00:00Z,-41.53,147.2,6.0,0.0,160,7,,6.21,30.11811,,,TRUE,,,,,,,,BKN,11500,,,,,,,VFR,,,,,,,,,,,,METAR,167.0
YMHB 060900Z 20007KT 9999 FEW040 06/02 Q1021,YMHB,2023-05-06T09:00:00Z,-42.83,147.52,6.0,2.0,200,7,,6.21,30.147638,,,,,,,,,,,FEW,4000,,,,,,,VFR,,,,,,,,,,,,METAR,2.0
YMAV 060900Z AUTO 27005KT 9999 // SCT088 07/05 Q1022 RF00.0/000.8,YMAV,2023-05-06T09:00:00Z,-38.03,144.48,7.0,5.0,270,5,,6.21,30.177166,,,TRUE,,,,,,,,SCT,8800,,,,,,,VFR,,,,,,,,,,,,METAR,11.0
YLHI 060900Z AUTO 08012KT 9999 // SCT046 20/10 Q1019 RF00.0////./,YLHI,2023-05-06T09:00:00Z,-31.53,159.07,20.0,10.0,80,12,,6.21,30.088583,,,TRUE,,,,,,,,SCT,4600,,,,,,,VFR,,,,,,,,,,,,METAR,2.0
YGLA 060900Z AUTO 11005KT 9999 // NCD 23/13 Q1017 RF00.0/000.0,YGLA,2023-05-06T09:00:00Z,-23.87,151.22,23.0,13.0,110,5,,6.21,30.029528,,,TRUE,,,,,,,,CLR,,,,,,,,VFR,,,,,,,,,,,,METAR,17.0
YGEL 060900Z AUTO 15009KT 9999 // OVC096 19/17 Q1016 RF00.0/002.4,YGEL,2023-05-06T09:00:00Z,-28.8,114.7,19.0,17.0,150,9,,6.21,30.0,,,TRUE,,,,,,,,OVC,9600,,,,,,,VFR,,,,,,,,,,,,METAR,32.0
YFRT 060900Z AUTO 12013KT 9999 // SCT051 16/07 Q1026 RF00.0/000.0,YFRT,2023-05-06T09:00:00Z,-30.83,128.12,16.0,7.0,120,13,,6.21,30.295275,,,TRUE,,,,,,,,SCT,5100,,,,,,,VFR,,,,,,,,,,,,METAR,159.0
YCIN 060900Z AUTO 16006KT 9999 // NCD 31/14 Q1009 RF00.0/000.0,YCIN,2023-05-06T09:00:00Z,-17.58,123.83,31.0,14.0,160,6,,6.21,29.793306,,,TRUE,,,,,,,,CLR,,,,,,,,VFR,,,,,,,,,,,,METAR,83.0
YCFS 060900Z AUTO 36005KT 9999 // NCD 17/14 Q1017 RF00.0/000.0,YCFS,2023-05-06T09:00:00Z,-30.32,153.12,17.0,14.0,360,5,,6.21,30.029528,,,TRUE,,,,,,,,CLR,,,,,,,,VFR,,,,,,,,,,,,METAR,2.0
YBWW 060900Z AUTO 05004KT 9999 // NCD 18/11 Q1017 RF00.0/000.0,YBWW,2023-05-06T09:00:00Z,-27.55,151.8,18.0,11.0,50,4,,6.21,30.029528,,,TRUE,,,,,,,,CLR,,,,,,,,VFR,,,,,,,,,,,,METAR,460.0
YBTL 060900Z AUTO 11012KT 9999 // SCT045 SCT072 25/19 Q1014,YBTL,2023-05-06T09:00:00Z,-19.25,146.75,25.0,19.0,110,12,,6.21,29.940945,,,TRUE,,,,,,,,SCT,4500,SCT,7200,,,,,VFR,,,,,,,,,,,,SPECI,4.0
YBSU 060900Z AUTO 30005KT 9999 // NCD 16/14 Q1018 RF00.0/000.0,YBSU,2023-05-06T09:00:00Z,-26.6,153.08,16.0,14.0,300,5,,6.21,30.059055,,,TRUE,,,,,,,,CLR,,,,,,,,VFR,,,,,,,,,,,,METAR,4.0
YBRM 060900Z AUTO 14005KT 9999 // NCD 29/19 Q1009 RF00.0/000.0,YBRM,2023-05-06T09:00:00Z,-17.93,122.23,29.0,19.0,140,5,,6.21,29.793306,,,TRUE,,,,,,,,CLR,,,,,,,,VFR,,,,,,,,,,,,SPECI,11.0
YBRK 060900Z AUTO 12005KT 9999 // NCD 22/16 Q1016 RF00.0/000.0,YBRK,2023-05-06T09:00:00Z,-23.37,150.47,22.0,16.0,120,5,,6.21,30.0,,,TRUE,,,,,,,,CLR,,,,,,,,VFR,,,,,,,,,,,,SPECI,10.0
YBMA 060900Z AUTO 17010KT 9999 // NCD 26/05 Q1015 RF00.0/000.0,YBMA,2023-05-06T09:00:00Z,-20.67,139.48,26.0,5.0,170,10,,6.21,29.970472,,,TRUE,,,,,,,,CLR,,,,,,,,VFR,,,,,,,,,,,,SPECI,346.0
YBLN 060900Z AUTO 09011KT 9999 // SCT110 18/07 Q1021 RF00.0/000.0,YBLN,2023-05-06T09:00:00Z,-33.68,115.4,18.0,7.0,90,11,,6.21,30.147638,,,TRUE,,,,,,,,SCT,11000,,,,,,,VFR,,,,,,,,,,,,METAR,17.0
YBHM 060900Z AUTO 12017KT 9999 // NCD 25/18 Q1015 RF00.0/000.0,YBHM,2023-05-06T09:00:00Z,-20.35,148.95,25.0,18.0,120,17,,6.21,29.970472,,,TRUE,,,,,,,,CLR,,,,,,,,VFR,,,,,,,,,,,,METAR,4.0
YBCS 060900Z AUTO 17006KT 9999 // OVC048 25/21 Q1012 RF00.0/000.0,YBCS,2023-05-06T09:00:00Z,-16.87,145.75,25.0,21.0,170,6,,6.21,29.88189,,,TRUE,,,,,,,,OVC,4800,,,,,,,VFR,,,,,,,,,,,,SPECI,2.0
YBCG 060900Z AUTO 36004KT 9999 // SCT064 17/15 Q1018 RF00.0/000.0,YBCG,2023-05-06T09:00:00Z,-28.17,153.5,17.0,15.0,360,4,,6.21,30.059055,,,TRUE,,,,,,,,SCT,6400,,,,,,,VFR,,,,,,,,,,,,SPECI,5.0
YBBN 060900Z 02005KT CAVOK 18/15 Q1018,YBBN,2023-05-06T09:00:00Z,-27.38,153.13,18.0,15.0,20,5,,6.21,30.059055,,,,,,,,,,,CAVOK,,,,,,,,VFR,,,,,,,,,,,,METAR,3.0
YBAS 060900Z AUTO 14010KT 9999 // NCD 19/03 Q1021 RF00.0/000.0,YBAS,2023-05-06T09:00:00Z,-23.8,133.9,19.0,3.0,140,10,,6.21,30.147638,,,TRUE,,,,,,,,CLR,,,,,,,,VFR,,,,,,,,,,,,SPECI,549.0
YAMB 060900Z AUTO 07006KT 9999 // NCD 20/15 Q1017 RF00.0/000.0,YAMB,2023-05-06T09:00:00Z,-27.63,152.72,20.0,15.0,70,6,,6.21,30.029528,,,TRUE,,,,,,,,CLR,,,,,,,,VFR,,,,,,,,,,,,METAR,26.0
WSSS 060900Z 19008KT 170V240 9999 FEW018 FEW020CB FEW022TCU SCT280 32/25 Q1004 NOSIG,WSSS,2023-05-06T09:00:00Z,1.37,103.97,32.0,25.0,190,8,,6.21,29.64567,,,,,,TRUE,,,,,FEW,1800,FEW,2000,FEW,2200,SCT,28000,VFR,,,,,,,,,,,,METAR,17.0
WSSL 060900Z 24006KT 190V300 9999 FEW020 BKN280 32/24 Q1004,WSSL,2023-05-06T09:00:00Z,1.42,103.87,32.0,24.0,240,6,,6.21,29.64567,,,,,,,,,,,FEW,2000,BKN,28000,,,,,VFR,,,,,,,,,,,,METAR,11.0
WSAP 060900Z 22008KT 9999 FEW020TCU BKN280 33/23 Q1004,WSAP,2023-05-06T09:00:00Z,1.37,103.92,33.0,23.0,220,8,,6.21,29.64567,,,,,,,,,,,FEW,2000,BKN,28000,,,,,VFR,,,,,,,,,,,,METAR,20.0
WMSA 060900Z 34007KT 280V030 9999 FEW017CB 30/26 Q1004,WMSA,2023-05-06T09:00:00Z,3.13,101.55,30.0,26.0,340,7,,6.21,29.64567,,,,,,,,,,,FEW,1700,,,,,,,VFR,,,,,,,,,,,,METAR,19.0
WMKP 060900Z VRB02KT 9999 FEW017CB 31/26 Q1004 NOSIG,WMKP,2023-05-06T09:00:00Z,5.28,100.27,31.0,26.0,0,2,,6.21,29.64567,,,,,,TRUE,,,,,FEW,1700,,,,,,,VFR,,,,,,,,,,,,METAR,4.0
WMKN 060900Z 05005KT 340V120 9999 FEW018 33/26 Q1003,WMKN,2023-05-06T09:00:00Z,5.37,103.1,33.0,26.0,50,5,,6.21,29.616142,,,,,,,,,,,FEW,1800,,,,,,,VFR,,,,,,,,,,,,METAR,12.0
WMKM 060900Z VRB05KT 9999 FEW020 32/25 Q1005,WMKM,2023-05-06T09:00:00Z,2.27,102.25,32.0,25.0,0,5,,6.21,29.675198,,,,,,,,,,,FEW,2000,,,,,,,VFR,,,,,,,,,,,,METAR,9.0
WMKL 060900Z VRB03KT 9999 FEW017CB 31/26 Q1004,WMKL,2023-05-06T09:00:00Z,6.32,99.72,31.0,26.0,0,3,,6.21,29.64567,,,,,,,,,,,FEW,1700,,,,,,,VFR,,,,,,,,,,,,METAR,4.0
WMKK 060900Z 25006KT 170V260 9000 VCSH FEW017CB 32/26 Q1004 NOSIG,WMKK,2023-05-06T09:00:00Z,2.75,101.72,32.0,26.0,250,6,,5.59,29.64567,,,,,,TRUE,,,,VCSH,FEW,1700,,,,,,,VFR,,,,,,,,,,,,METAR,21.0
WMKJ 060900Z VRB05KT 9999 FEW017CB 32/26 Q1004,WMKJ,2023-05-06T09:00:00Z,1.63,103.67,32.0,26.0,0,5,,6.21,29.64567,,,,,,,,,,,FEW,1700,,,,,,,VFR,,,,,,,,,,,,METAR,38.0
WMKI 060900Z VRB05KT 9999 FEW017CB 30/26 Q1004,WMKI,2023-05-06T09:00:00Z,4.57,101.08,30.0,26.0,0,5,,6.21,29.64567,,,,,,,,,,,FEW,1700,,,,,,,VFR,,,,,,,,,,,,METAR,37.0
WMKE 060900Z VRB01KT 9999 FEW014CB SCT017 30/26 Q1004,WMKE,2023-05-06T09:00:00Z,4.53,103.43,30.0,26.0,0,1,,6.21,29.64567,,,,,,,,,,,FEW,1400,SCT,1700,,,,,VFR,,,,,,,,,,,,METAR,5.0
WMKD 060900Z VRB03KT 9999 TS FEW017CB SCT019 34/25 Q1003 NOSIG,WMKD,2023-05-06T09:00:00Z,3.77,103.22,34.0,25.0,0,3,,6.21,29.616142,,,,,,TRUE,,,,TS,FEW,1700,SCT,1900,,,,,VFR,,,,,,,,,,,,METAR,18.0
WMKC 060900Z 04010KT 350V070 9999 FEW018 32/26 Q1003,WMKC,2023-05-06T09:00:00Z,6.17,102.28,32.0,26.0,40,10,,6.21,29.616142,,,,,,,,,,,FEW,1800,,,,,,,VFR,,,,,,,,,,,,METAR,7.0
WMKB 060900Z 30008KT 240V360 9999 FEW020 31/25 Q1004 NOSIG,WMKB,2023-05-06T09:00:00Z,5.47,100.38,31.0,25.0,300,8,,6.21,29.64567,,,,,,TRUE,,,,,FEW,2000,,,,,,,VFR,,,,,,,,,,,,METAR,4.0
WMKA 060900Z 24007KT 150V320 9999 SCT020 31/27 Q1003,WMKA,2023-05-06T09:00:00Z,6.2,100.4,31.0,27.0,240,7,,6.21,29.616142,,,,,,,,,,,SCT,2000,,,,,,,VFR,,,,,,,,,,,,METAR,5.0
WMBA 060900Z VRB04KT 9999 SCT020 33/26 Q1004,WMBA,2023-05-06T09:00:00Z,4.22,100.7,33.0,26.0,0,4,,6.21,29.64567,,,,,,,,,,,SCT,2000,,,,,,,VFR,,,,,,,,,,,,METAR,9.0
WMAU 060900Z VRB04KT 5000 TSRA FEW025CB SCT025 26/25 Q1004,WMAU,2023-05-06T09:00:00Z,2.38,103.88,26.0,25.0,0,4,,3.11,29.64567,,,,,,,,,,TSRA,FEW,2500,SCT,2500,,,,,MVFR,,,,,,,,,,,,METAR,5.0
WIPP 060900Z 11006KT 9999 BKN010 31/25 Q1004 NOSIG,WIPP,2023-05-06T09:00:00Z,-2.88,104.7,31.0,25.0,110,6,,6.21,29.64567,,,,,,TRUE,,,,,BKN,1000,,,,,,,MVFR,,,,,,,,,,,,METAR,7.0
WIOO 060900Z 28003KT 9999 SCT012 29/26 Q1004 NOSIG,WIOO,2023-05-06T09:00:00Z,-0.15,109.4,29.0,26.0,280,3,,6.21,29.64567,,,,,,TRUE,,,,,SCT,1200,,,,,,,VFR,,,,,,,,,,,,METAR,4.0
"WIMM 060900Z 33007KT 8000 FEW016CB SCT017 30/26 Q1004 NOSIG RMK CB TO S, W",WIMM,2023-05-06T09:00:00Z,3.57,98.67,30.0,26.0,330,7,,4.97,29.64567,,,,,,TRUE,,,,,FEW,1600,SCT,1700,,,,,MVFR,,,,,,,,,,,,METAR,27.0
WILL 060900Z 21005KT 9999 SCT015 31/23 Q1005 NOSIG,WILL,2023-05-06T09:00:00Z,-5.25,105.18,31.0,23.0,210,5,,6.21,29.675198,,,,,,TRUE,,,,,SCT,1500,,,,,,,VFR,,,,,,,,,,,,METAR,83.0
WIII 060900Z 02006KT 9999 FEW020 30/24 Q1005 NOSIG,WIII,2023-05-06T09:00:00Z,-6.13,106.67,30.0,24.0,20,6,,6.21,29.675198,,,,,,TRUE,,,,,FEW,2000,,,,,,,VFR,,,,,,,,,,,,METAR,9.0
WIHH 060900Z 36005KT 5000 HZ SCT018 32/25 Q1004 NOSIG ,WIHH,2023-05-06T09:00:00Z,-6.27,106.88,32.0,25.0,360,5,,3.11,29.64567,,,,,,TRUE,,,,HZ,SCT,1800,,,,,,,MVFR,,,,,,,,,,,,METAR,26.0
WIEE 060900Z 35007KT 9999 SCT018 27/24 Q1006 RERA NOSIG,WIEE,2023-05-06T09:00:00Z,-0.78,100.28,27.0,24.0,350,7,,6.21,29.704725,,,,,,TRUE,,,,,SCT,1800,,,,,,,VFR,,,,,,,,,,,,METAR,5.0
WIDN 060900Z 20009KT 9999 FEW017 31/26 Q1005 NOSIG,WIDN,2023-05-06T09:00:00Z,0.92,104.53,31.0,26.0,200,9,,6.21,29.675198,,,,,,TRUE,,,,,FEW,1700,,,,,,,VFR,,,,,,,,,,,,METAR,18.0
WIDD 060900Z 11004KT 9999 TS FEW013CB SCT014 30/26 Q1006 NOSIG RMK CB TO SE,WIDD,2023-05-06T09:00:00Z,1.12,104.12,30.0,26.0,110,4,,6.21,29.704725,,,,,,TRUE,,,,TS,FEW,1300,SCT,1400,,,,,VFR,,,,,,,,,,,,METAR,26.0
WIBB 060900Z 30009KT 130V350 9999 SCT013 FEW015CB 33/26 Q1002 NOSIG RMK CB TO SW-S,WIBB,2023-05-06T09:00:00Z,0.47,101.45,33.0,26.0,300,9,,6.21,29.586615,,,,,,TRUE,,,,,SCT,1300,FEW,1500,,,,,VFR,,,,,,,,,,,,METAR,41.0
WBSB 060900Z 22004KT 9999 FEW014 FEW015CB SCT140 BKN270 28/26 Q1005 RETS NOSIG,WBSB,2023-05-06T09:00:00Z,4.93,114.92,28.0,26.0,220,4,,6.21,29.675198,,,,,,TRUE,,,,,FEW,1400,FEW,1500,SCT,14000,BKN,27000,VFR,,,,,,,,,,,,METAR,15.0
WBKW 060900Z VRB02KT 9999 FEW016 29/26 Q1004,WBKW,2023-05-06T09:00:00Z,4.32,118.12,29.0,26.0,0,2,,6.21,29.64567,,,,,,,,,,,FEW,1600,,,,,,,VFR,,,,,,,,,,,,METAR,17.0
WBKT 060900Z 24003KT 190V300 9999 FEW014 28/25 Q1005,WBKT,2023-05-06T09:00:00Z,6.92,116.83,28.0,25.0,240,3,,6.21,29.675198,,,,,,,,,,,FEW,1400,,,,,,,VFR,,,,,,,,,,,,METAR,11.0
WBKS 060900Z VRB02KT 9999 FEW015 FEW016CB SCT045 28/26 Q1004,WBKS,2023-05-06T09:00:00Z,5.9,118.07,28.0,26.0,0,2,,6.21,29.64567,,,,,,,,,,,FEW,1500,FEW,1600,SCT,4500,,,VFR,,,,,,,,,,,,METAR,13.0
WBKL 060900Z VRB02KT 9999 FEW014 FEW017CB 30/26 Q1005,WBKL,2023-05-06T09:00:00Z,5.3,115.25,30.0,26.0,0,2,,6.21,29.675198,,,,,,,,,,,FEW,1400,FEW,1700,,,,,VFR,,,,,,,,,,,,METAR,29.0
WBKK 060900Z VRB02KT 9999 FEW014 31/26 Q1005 NOSIG,WBKK,2023-05-06T09:00:00Z,5.93,116.05,31.0,26.0,0,2,,6.21,29.675198,,,,,,TRUE,,,,,FEW,1400,,,,,,,VFR,,,,,,,,,,,,METAR,9.0
WBGY 060900Z 10005KT 050V160 9999 TS FEW015CB SCT020 26/25 Q1005,WBGY,2023-05-06T09:00:00Z,1.22,111.45,26.0,25.0,100,5,,6.21,29.675198,,,,,,,,,,TS,FEW,1500,SCT,2000,,,,,VFR,,,,,,,,,,,,METAR,13.0
WBGS 060900Z VRB02KT 9999 FEW015CB SCT017 28/26 Q1005,WBGS,2023-05-06T09:00:00Z,2.27,111.98,28.0,26.0,0,2,,6.21,29.675198,,,,,,,,,,,FEW,1500,SCT,1700,,,,,VFR,,,,,,,,,,,,METAR,26.0
WBGR 060900Z 28004KT 200V360 9999 FEW016 31/26 Q1004,WBGR,2023-05-06T09:00:00Z,4.32,113.98,31.0,26.0,280,4,,6.21,29.64567,,,,,,,,,,,FEW,1600,,,,,,,VFR,,,,,,,,,,,,METAR,18.0
WBGG 060900Z 32006KT 280V350 8000 -TSRA FEW015CB SCT020 27/24 Q1004 NOSIG,WBGG,2023-05-06T09:00:00Z,1.48,110.35,27.0,24.0,320,6,,4.97,29.64567,,,,,,TRUE,,,,-TSRA,FEW,1500,SCT,2000,,,,,MVFR,,,,,,,,,,,,METAR,26.0
WBGB 060900Z 22006KT 170V260 9999 SCT016 28/25 Q1006 RETS,WBGB,2023-05-06T09:00:00Z,3.12,113.02,28.0,25.0,220,6,,6.21,29.704725,,,,,,,,,,,SCT,1600,,,,,,,VFR,,,,,,,,,,,,METAR,34.0
WATT 060900Z 11010KT 9999 FEW018 30/23 Q1007 NOSIG,WATT,2023-05-06T09:00:00Z,-10.17,123.67,30.0,23.0,110,10,,6.21,29.734253,,,,,,TRUE,,,,,FEW,1800,,,,,,,VFR,,,,,,,,,,,,METAR,104.0
WARR 060900Z 06006KT 9999 FEW020 31/26 Q1005 NOSIG,WARR,2023-05-06T09:00:00Z,-7.37,112.78,31.0,26.0,60,6,,6.21,29.675198,,,,,,TRUE,,,,,FEW,2000,,,,,,,VFR,,,,,,,,,,,,METAR,3.0
WAQQ 060900Z 08004KT 9999 OVC015 30/26 Q1004,WAQQ,2023-05-06T09:00:00Z,3.33,117.57,30.0,26.0,80,4,,6.21,29.64567,,,,,,,,,,,OVC,1500,,,,,,,MVFR,,,,,,,,,,,,METAR,6.0
WAPP 060900Z 26004KT 210V290 9999 FEW015CB SCT016 28/25 Q1005 RETS NOSIG RMK CB TO NE AND E,WAPP,2023-05-06T09:00:00Z,-3.7,128.08,28.0,25.0,260,4,,6.21,29.675198,,,,,,TRUE,,,,,FEW,1500,SCT,1600,,,,,VFR,,,,,,,,,,,,METAR,20.0
WAOO 060900Z 16004KT 120V200 9999 FEW020 28/25 Q1004 NOSIG,WAOO,2023-05-06T09:00:00Z,-3.45,114.77,28.0,25.0,160,4,,6.21,29.64567,,,,,,TRUE,,,,,FEW,2000,,,,,,,VFR,,,,,,,,,,,,METAR,23.0
WAMM 060900Z 11004KT 9000 FEW019CB SCT020 29/26 Q1005 NOSIG RMK CB IN CLIMB METAR ,WAMM,2023-05-06T09:00:00Z,1.55,124.92,29.0,26.0,110,4,,5.59,29.675198,,,,,,TRUE,,,,,FEW,1900,SCT,2000,,,,,VFR,,,,,,,,,,,,METAR,86.0
WALL 060900Z 22004KT 9999 FEW020 29/26 Q1004 NOSIG,WALL,2023-05-06T09:00:00Z,-1.27,116.9,29.0,26.0,220,4,,6.21,29.64567,,,,,,TRUE,,,,,FEW,2000,,,,,,,VFR,,,,,,,,,,,,METAR,3.0
WAJJ 060900Z 27003KT 9999 FEW013 28/24 Q1005 NOSIG,WAJJ,2023-05-06T09:00:00Z,-2.58,140.52,28.0,24.0,270,3,,6.21,29.675198,,,,,,TRUE,,,,,FEW,1300,,,,,,,VFR,,,,,,,,,,,,METAR,93.0
WAHS 060900Z 31008KT 7000 FEW013CB FEW014 32/25 Q1005 NOSIG RMK CB TO E AND S,WAHS,2023-05-06T09:00:00Z,-6.98,110.38,32.0,25.0,310,8,,4.35,29.675198,,,,,,TRUE,,,,,FEW,1300,FEW,1400,,,,,MVFR,,,,,,,,,,,,METAR,3.0
WADL 060900Z 13009KT 8000 BKN016 30/24 Q1007 NOSIG,WADL,2023-05-06T09:00:00Z,-8.75,116.28,30.0,24.0,130,9,,4.97,29.734253,,,,,,TRUE,,,,,BKN,1600,,,,,,,MVFR,,,,,,,,,,,,METAR,97.0
WADD 060900Z 14015KT 9999 FEW017 29/25 Q1006 NOSIG,WADD,2023-05-06T09:00:00Z,-8.73,115.17,29.0,25.0,140,15,,6.21,29.704725,,,,,,TRUE,,,,,FEW,1700,,,,,,,VFR,,,,,,,,,,,,METAR,3.0
WABB 060900Z VRB02KT 9999 SCT018 BKN100 29/25 Q1005 NOSIG,WABB,2023-05-06T09:00:00Z,-1.18,136.12,29.0,25.0,0,2,,6.21,29.675198,,,,,,TRUE,,,,,SCT,1800,BKN,10000,,,,,VFR,,,,,,,,,,,,METAR,12.0
WAAA 060900Z 31005KT 280V340 9999 FEW018 SCT019 31/23 Q1004 NOSIG RMK CB IN APCH,WAAA,2023-05-06T09:00:00Z,-5.07,119.55,31.0,23.0,310,5,,6.21,29.64567,,,,,,TRUE,,,,,FEW,1800,SCT,1900,,,,,VFR,,,,,,,,,,,,METAR,13.0
VYYY 060900Z 31007KT 8000 FEW025 40/25 Q1001 NOSIG,VYYY,2023-05-06T09:00:00Z,16.9,96.13,40.0,25.0,310,7,,4.97,29.557087,,,,,,TRUE,,,,,FEW,2500,,,,,,,MVFR,,,,,,,,,,,,METAR,31.0
VYNT 060900Z 21008KT 7000 SCT020 FEW025TCU SCT120 40/21 Q1002 NOSIG,VYNT,2023-05-06T09:00:00Z,19.62,96.2,40.0,21.0,210,8,,4.35,29.586615,,,,,,TRUE,,,,,SCT,2000,FEW,2500,SCT,12000,,,MVFR,,,,,,,,,,,,METAR,610.0
VVVD 060900Z 18011KT CAVOK 32/26 Q0998 NOSIG,VVVD,2023-05-06T09:00:00Z,21.12,107.42,32.0,26.0,180,11,,6.21,29.468504,,,,,,TRUE,,,,,CAVOK,,,,,,,,VFR,,,,,,,,,,,,METAR,8.0
VVTS 060900Z 25006KT 190V340 9999 FEW023 38/22 Q1001 NOSIG,VVTS,2023-05-06T09:00:00Z,10.82,106.67,38.0,22.0,250,6,,6.21,29.557087,,,,,,TRUE,,,,,FEW,2300,,,,,,,VFR,,,,,,,,,,,,METAR,10.0
VVPQ 060900Z 25008KT 9999 FEW017 33/26 Q1003 NOSIG,VVPQ,2023-05-06T09:00:00Z,10.23,103.97,33.0,26.0,250,8,,6.21,29.616142,,,,,,TRUE,,,,,FEW,1700,,,,,,,VFR,,,,,,,,,,,,METAR,8.0
VVPB 060900Z 07007KT CAVOK 36/26 Q0999 NOSIG,VVPB,2023-05-06T09:00:00Z,16.38,107.7,36.0,26.0,70,7,,6.21,29.498032,,,,,,TRUE,,,,,CAVOK,,,,,,,,VFR,,,,,,,,,,,,METAR,15.0
VVNB 060900Z 11007KT 080V160 CAVOK 38/27 Q0996 NOSIG,VVNB,2023-05-06T09:00:00Z,21.22,105.8,38.0,27.0,110,7,,6.21,29.409449,,,,,,TRUE,,,,,CAVOK,,,,,,,,VFR,,,,,,,,,,,,METAR,6.0
VVDN 060900Z 10006KT 9999 FEW015 32/26 Q1000 NOSIG,VVDN,2023-05-06T09:00:00Z,16.03,108.2,32.0,26.0,100,6,,6.21,29.52756,,,,,,TRUE,,,,,FEW,1500,,,,,,,VFR,,,,,,,,,,,,METAR,7.0
VVCT 060900Z 26007KT 220V320 9999 FEW020 33/25 Q1002 NOSIG,VVCT,2023-05-06T09:00:00Z,10.08,105.72,33.0,25.0,260,7,,6.21,29.586615,,,,,,TRUE,,,,,FEW,2000,,,,,,,VFR,,,,,,,,,,,,METAR,6.0
VVCR 060900Z 23010KT CAVOK 36/24 Q1002 NOSIG,VVCR,2023-05-06T09:00:00Z,12.0,109.22,36.0,24.0,230,10,,6.21,29.586615,,,,,,TRUE,,,,,CAVOK,,,,,,,,VFR,,,,,,,,,,,,METAR,12.0
VVCI 060900Z 14010KT CAVOK 31/27 Q0997 NOSIG,VVCI,2023-05-06T09:00:00Z,20.82,106.73,31.0,27.0,140,10,,6.21,29.438976,,,,,,TRUE,,,,,CAVOK,,,,,,,,VFR,,,,,,,,,,,,METAR,6.0
VTUW 060900Z 23005KT 190V310 7000 FEW040 41/19 Q0999 NOSIG,VTUW,2023-05-06T09:00:00Z,17.38,104.63,41.0,19.0,230,5,,4.35,29.498032,,,,,,TRUE,,,,,FEW,4000,,,,,,,MVFR,,,,,,,,,,,,METAR,167.0
VTUV 060900Z 22007KT 160V260 9000 FEW040 40/21 Q0999 NOSIG,VTUV,2023-05-06T09:00:00Z,16.12,103.78,40.0,21.0,220,7,,5.59,29.498032,,,,,,TRUE,,,,,FEW,4000,,,,,,,VFR,,,,,,,,,,,,METAR,136.0
VTUU 060900Z 22006KT 190V250 9999 FEW045 39/24 Q1000 NOSIG,VTUU,2023-05-06T09:00:00Z,15.25,104.87,39.0,24.0,220,6,,6.21,29.52756,,,,,,TRUE,,,,,FEW,4500,,,,,,,VFR,,,,,,,,,,,,METAR,119.0
VTUQ 060900Z 21004KT 150V280 9000 SCT030 39/21 Q1001 NOSIG,VTUQ,2023-05-06T09:00:00Z,14.95,102.32,39.0,21.0,210,4,,5.59,29.557087,,,,,,TRUE,,,,,SCT,3000,,,,,,,VFR,,,,,,,,,,,,METAR,225.0
VTUO 060900Z 24005KT 200V300 9999 SCT035 39/18 Q1000 NOSIG,VTUO,2023-05-06T09:00:00Z,15.23,103.25,39.0,18.0,240,5,,6.21,29.52756,,,,,,TRUE,,,,,SCT,3500,,,,,,,VFR,,,,,,,,,,,,METAR,182.0
VTUL 060900Z 24005KT 180V310 9999 BKN040 41/22 Q0999 NOSIG,VTUL,2023-05-06T09:00:00Z,17.43,101.72,41.0,22.0,240,5,,6.21,29.498032,,,,,,TRUE,,,,,BKN,4000,,,,,,,VFR,,,,,,,,,,,,METAR,257.0
VTUK 060900Z 19007KT 150V220 9999 SCT030 39/22 Q1000 NOSIG,VTUK,2023-05-06T09:00:00Z,16.47,102.78,39.0,22.0,190,7,,6.21,29.52756,,,,,,TRUE,,,,,SCT,3000,,,,,,,VFR,,,,,,,,,,,,METAR,190.0
VTUI 060900Z VRB02KT 9999 -RA BKN030 37/26 Q0999 NOSIG,VTUI,2023-05-06T09:00:00Z,17.2,104.12,37.0,26.0,0,2,,6.21,29.498032,,,,,,TRUE,,,,-RA,BKN,3000,,,,,,,MVFR,,,,,,,,,,,,METAR,162.0
VTUD 060900Z VRB05KT 9999 FEW030 42/19 Q0998 NOSIG,VTUD,2023-05-06T09:00:00Z,17.37,102.78,42.0,19.0,0,5,,6.21,29.468504,,,,,,TRUE,,,,,FEW,3000,,,,,,,VFR,,,,,,,,,,,,METAR,177.0
VTSY 060900Z 22008KT 190V250 9999 FEW030 29/25 Q1005 NOSIG,VTSY,2023-05-06T09:00:00Z,5.78,101.15,29.0,25.0,220,8,,6.21,29.675198,,,,,,TRUE,,,,,FEW,3000,,,,,,,VFR,,,,,,,,,,,,METAR,225.0
VTST 060900Z 24007KT 9999 SCT030 34/24 Q1003 NOSIG,VTST,2023-05-06T09:00:00Z,7.52,99.62,34.0,24.0,240,7,,6.21,29.616142,,,,,,TRUE,,,,,SCT,3000,,,,,,,VFR,,,,,,,,,,,,METAR,17.0
VTSS 060900Z 23012KT 9999 SCT020 BKN100 33/26 Q1003 NOSIG,VTSS,2023-05-06T09:00:00Z,6.92,100.38,33.0,26.0,230,12,,6.21,29.616142,,,,,,TRUE,,,,,SCT,2000,BKN,10000,,,,,VFR,,,,,,,,,,,,METAR,28.0
VTSR 060900Z 29008KT 250V340 9999 FEW020 34/24 Q1003 NOSIG,VTSR,2023-05-06T09:00:00Z,9.78,98.58,34.0,24.0,290,8,,6.21,29.616142,,,,,,TRUE,,,,,FEW,2000,,,,,,,VFR,,,,,,,,,,,,METAR,23.0
VTSP 060900Z 28011KT 9999 FEW020 32/26 Q1003 NOSIG,VTSP,2023-05-06T09:00:00Z,8.12,98.32,32.0,26.0,280,11,,6.21,29.616142,,,,,,TRUE,,,,,FEW,2000,,,,,,,VFR,,,,,,,,,,,,METAR,12.0
VTSM 060900Z 32005KT 9999 FEW020 36/27 Q1003 NOSIG,VTSM,2023-05-06T09:00:00Z,9.55,100.07,36.0,27.0,320,5,,6.21,29.616142,,,,,,TRUE,,,,,FEW,2000,,,,,,,VFR,,,,,,,,,,,,METAR,12.0
VTSG 060900Z 19011KT 9999 FEW020 34/27 Q1003 NOSIG,VTSG,2023-05-06T09:00:00Z,8.1,98.98,34.0,27.0,190,11,,6.21,29.616142,,,,,,TRUE,,,,,FEW,2000,,,,,,,VFR,,,,,,,,,,,,METAR,32.0
VTSF 060900Z 05009KT 340V070 9999 FEW018 36/28 Q1002 NOSIG,VTSF,2023-05-06T09:00:00Z,8.53,99.95,36.0,28.0,50,9,,6.21,29.586615,,,,,,TRUE,,,,,FEW,1800,,,,,,,VFR,,,,,,,,,,,,METAR,6.0
VTSE 060900Z 13006KT 9999 -RA FEW018TCU SCT020 33/27 Q1002 NOSIG,VTSE,2023-05-06T09:00:00Z,10.72,99.37,33.0,27.0,130,6,,6.21,29.586615,,,,,,TRUE,,,,-RA,FEW,1800,SCT,2000,,,,,VFR,,,,,,,,,,,,METAR,8.0
VTSC 060900Z 01009KT 9999 FEW022 33/26 Q1003 NOSIG,VTSC,2023-05-06T09:00:00Z,6.52,101.75,33.0,26.0,10,9,,6.21,29.616142,,,,,,TRUE,,,,,FEW,2200,,,,,,,VFR,,,,,,,,,,,,METAR,5.0
VTSB 060900Z 13003KT 080V220 9999 -TSRA FEW018CB 35/23 Q1002 NOSIG,VTSB,2023-05-06T09:00:00Z,9.12,99.15,35.0,23.0,130,3,,6.21,29.586615,,,,,,TRUE,,,,-TSRA,FEW,1800,,,,,,,VFR,,,,,,,,,,,,METAR,10.0
VTPT 060900Z /////KT 9999 FEW026 40/23 Q1000 NOSIG,VTPT,2023-05-06T09:00:00Z,16.88,99.25,40.0,23.0,,,,6.21,29.52756,,,,,,TRUE,,,,,FEW,2600,,,,,,,VFR,,,,,,,,,,,,METAR,148.0
VTPP 060900Z VRB02KT CAVOK 40/21 Q0999 NOSIG,VTPP,2023-05-06T09:00:00Z,16.78,100.28,40.0,21.0,0,2,,6.21,29.498032,,,,,,TRUE,,,,,CAVOK,,,,,,,,VFR,,,,,,,,,,,,METAR,45.0
VTPO 060900Z 31003KT 9999 FEW025 42/19 Q0999 NOSIG,VTPO,2023-05-06T09:00:00Z,17.23,99.82,42.0,19.0,310,3,,6.21,29.498032,,,,,,TRUE,,,,,FEW,2500,,,,,,,VFR,,,,,,,,,,,,METAR,58.0
VTPM 060900Z 25009KT 220V290 9999 FEW040 37/19 Q1002 NOSIG,VTPM,2023-05-06T09:00:00Z,16.7,98.53,37.0,19.0,250,9,,6.21,29.586615,,,,,,TRUE,,,,,FEW,4000,,,,,,,VFR,,,,,,,,,,,,METAR,211.0
VTPH 060900Z 14008KT 9999 FEW030 34/25 Q1001 NOSIG,VTPH,2023-05-06T09:00:00Z,12.63,99.95,34.0,25.0,140,8,,6.21,29.557087,,,,,,TRUE,,,,,FEW,3000,,,,,,,VFR,,,,,,,,,,,,METAR,12.0
VTPB 060900Z VRB03KT 9000 FEW030 41/21 Q0999 NOSIG,VTPB,2023-05-06T09:00:00Z,16.67,101.2,41.0,21.0,0,3,,5.59,29.498032,,,,,,TRUE,,,,,FEW,3000,,,,,,,VFR,,,,,,,,,,,,METAR,134.0
VTCT 060900Z VRB02KT 9999 FEW030 38/21 Q1001 NOSIG,VTCT,2023-05-06T09:00:00Z,19.95,99.88,38.0,21.0,0,2,,6.21,29.557087,,,,,,TRUE,,,,,FEW,3000,,,,,,,VFR,,,,,,,,,,,,METAR,389.0
VTCP 060900Z 21010KT 180V250 9999 FEW030 42/19 Q0999 NOSIG,VTCP,2023-05-06T09:00:00Z,18.13,100.17,42.0,19.0,210,10,,6.21,29.498032,,,,,,TRUE,,,,,FEW,3000,,,,,,,VFR,,,,,,,,,,,,METAR,166.0
VTCN 060900Z 18006KT 9999 FEW030 40/22 Q0999 NOSIG,VTCN,2023-05-06T09:00:00Z,18.82,100.78,40.0,22.0,180,6,,6.21,29.498032,,,,,,TRUE,,,,,FEW,3000,,,,,,,VFR,,,,,,,,,,,,METAR,211.0
VTCL 060900Z 22004KT 190V260 9999 FEW025 42/18 Q1000 NOSIG,VTCL,2023-05-06T09:00:00Z,18.27,99.52,42.0,18.0,220,4,,6.21,29.52756,,,,,,TRUE,,,,,FEW,2500,,,,,,,VFR,,,,,,,,,,,,METAR,240.0
VTCH 060900Z 23004KT 130V300 9999 BKN025 41/18 Q1000 NOSIG,VTCH,2023-05-06T09:00:00Z,19.3,97.98,41.0,18.0,230,4,,6.21,29.52756,,,,,,TRUE,,,,,BKN,2500,,,,,,,MVFR,,,,,,,,,,,,METAR,266.0
VTCC 060900Z VRB05KT 9999 FEW035 39/19 Q1001 NOSIG,VTCC,2023-05-06T09:00:00Z,18.77,98.97,39.0,19.0,0,5,,6.21,29.557087,,,,,,TRUE,,,,,FEW,3500,,,,,,,VFR,,,,,,,,,,,,METAR,308.0
VTBU 060900Z 21012KT 9999 FEW020 38/22 Q1001 NOSIG,VTBU,2023-05-06T09:00:00Z,12.68,101.0,38.0,22.0,210,12,,6.21,29.557087,,,,,,TRUE,,,,,FEW,2000,,,,,,,VFR,,,,,,,,,,,,METAR,12.0
VTBS 060900Z 19012KT 9999 FEW020 36/24 Q1000 NOSIG,VTBS,2023-05-06T09:00:00Z,13.68,100.75,36.0,24.0,190,12,,6.21,29.52756,,,,,,TRUE,,,,,FEW,2000,,,,,,,VFR,,,,,,,,,,,,METAR,1.0
VTBO 060900Z 21010KT 8000 FEW018 34/26 Q1003,VTBO,2023-05-06T09:00:00Z,12.28,102.32,34.0,26.0,210,10,,4.97,29.616142,,,,,,,,,,,FEW,1800,,,,,,,MVFR,,,,,,,,,,,,METAR,25.0
VTBD 060900Z VRB06KT 9999 FEW030 40/21 Q1000 NOSIG,VTBD,2023-05-06T09:00:00Z,13.92,100.6,40.0,21.0,0,6,,6.21,29.52756,,,,,,TRUE,,,,,FEW,3000,,,,,,,VFR,,,,,,,,,,,,METAR,6.0
"VRMM 060900Z 25011KT 9999 SCT016 FEW017CB BKN260 30/25 Q1008 CB N,E,W,OVERHEAD TEMPO 5000 SHRA",VRMM,2023-05-06T09:00:00Z,4.2,73.52,30.0,25.0,250,11,,6.21,29.763779,,,,,,,,,,,SCT,1600,FEW,1700,BKN,26000,,,VFR,,,,,,,,,,,,METAR,2.0
VRMH 060900Z 29006KT 9999 FEW018 BKN260 32/26 Q1008,VRMH,2023-05-06T09:00:00Z,6.75,73.17,32.0,26.0,290,6,,6.21,29.763779,,,,,,,,,,,FEW,1800,BKN,26000,,,,,VFR,,,,,,,,,,,,METAR,1.0
VQPR 060900Z VRB09G19KT 9999 FEW060 25/03 Q1013,VQPR,2023-05-06T09:00:00Z,27.4,89.43,25.0,3.0,0,9,19,6.21,29.911417,,,,,,,,,,,FEW,6000,,,,,,,VFR,,,,,,,,,,,,METAR,2227.0
VOVZ 060900Z 23009KT 6000 SCT018 FEW025CB 34/24 Q1004 NOSIG,VOVZ,2023-05-06T09:00:00Z,17.72,83.22,34.0,24.0,230,9,,3.73,29.64567,,,,,,TRUE,,,,,SCT,1800,FEW,2500,,,,,MVFR,,,,,,,,,,,,METAR,4.0
VOTV 060900Z 27007KT 6000 FEW015 FEW025TCU BKN080 33/25 Q1007 NOSIG,VOTV,2023-05-06T09:00:00Z,8.48,76.92,33.0,25.0,270,7,,3.73,29.734253,,,,,,TRUE,,,,,FEW,1500,FEW,2500,BKN,8000,,,MVFR,,,,,,,,,,,,METAR,9.0
VOTK 060900Z 12010KT 6000 FEW020 SCT100 35/22 Q1005 NOSIG,VOTK,2023-05-06T09:00:00Z,8.72,78.02,35.0,22.0,120,10,,3.73,29.675198,,,,,,TRUE,,,,,FEW,2000,SCT,10000,,,,,MVFR,,,,,,,,,,,,METAR,25.0
VOSM 060900Z 00000KT 8000 SCT020 FEW025TCU SCT100 33/21 Q1005 NOSIG,VOSM,2023-05-06T09:00:00Z,11.78,78.07,33.0,21.0,0,0,,4.97,29.675198,,,,,,TRUE,,,,,SCT,2000,FEW,2500,SCT,10000,,,MVFR,,,,,,,,,,,,METAR,301.0
VORY 060900Z 20006KT 6000 FEW020 SCT025 FEW030CB 37/25 Q1003 NOSIG,VORY,2023-05-06T09:00:00Z,17.1,81.82,37.0,25.0,200,6,,3.73,29.616142,,,,,,TRUE,,,,,FEW,2000,SCT,2500,FEW,3000,,,MVFR,,,,,,,,,,,,METAR,47.0
VOPC 060900Z 14002KT 6000 SCT020 OVC100 33/24 Q1006 NOSIG,VOPC,2023-05-06T09:00:00Z,11.97,79.82,33.0,24.0,140,2,,3.73,29.704725,,,,,,TRUE,,,,,SCT,2000,OVC,10000,,,,,MVFR,,,,,,,,,,,,METAR,43.0
VOMM 060900Z 11012KT 5000 HZ SCT020 FEW025CB BKN100 32/27 Q1005 NOSIG,VOMM,2023-05-06T09:00:00Z,13.0,80.17,32.0,27.0,110,12,,3.11,29.675198,,,,,,TRUE,,,,HZ,SCT,2000,FEW,2500,BKN,10000,,,MVFR,,,,,,,,,,,,METAR,7.0
VOML 060900Z 27012KT 9999 FEW015 34/21 Q1006 NOSIG,VOML,2023-05-06T09:00:00Z,12.97,74.88,34.0,21.0,270,12,,6.21,29.704725,,,,,,TRUE,,,,,FEW,1500,,,,,,,VFR,,,,,,,,,,,,METAR,100.0
VOKU 060900Z 30004KT 6000 SCT018 36/17 Q1005,VOKU,2023-05-06T09:00:00Z,15.72,78.17,36.0,17.0,300,4,,3.73,29.675198,,,,,,,,,,,SCT,1800,,,,,,,MVFR,,,,,,,,,,,,METAR,280.0
VOKN 060900Z 31012KT 8000 SCT012 FEW025TCU 35/23 Q1006 NOSIG,VOKN,2023-05-06T09:00:00Z,11.92,75.55,35.0,23.0,310,12,,4.97,29.704725,,,,,,TRUE,,,,,SCT,1200,FEW,2500,,,,,MVFR,,,,,,,,,,,,METAR,105.0
VOJV 060900Z 28008KT 7000 SCT015 34/16 Q1008,VOJV,2023-05-06T09:00:00Z,15.17,76.63,34.0,16.0,280,8,,4.35,29.763779,,,,,,,,,,,SCT,1500,,,,,,,MVFR,,,,,,,,,,,,METAR,508.0
VOHS 060900Z VRB04KT 5000 HZ SCT015 FEW030CB BKN100 31/22 Q1009 TEMPO 3000 TSRA,VOHS,2023-05-06T09:00:00Z,17.23,78.43,31.0,22.0,0,4,,3.11,29.793306,,,,,,,,,,HZ,SCT,1500,FEW,3000,BKN,10000,,,MVFR,,,,,,,,,,,,METAR,607.0
VOHB 060900Z 16003KT 9999 FEW015 34/18 Q1009,VOHB,2023-05-06T09:00:00Z,15.37,75.08,34.0,18.0,160,3,,6.21,29.793306,,,,,,,,,,,FEW,1500,,,,,,,VFR,,,,,,,,,,,,METAR,661.0
VOGA 060900Z 27016KT 6000 FEW020 33/19 Q1006 NOSIG,VOGA,2023-05-06T09:00:00Z,,,33.0,19.0,270,16,,3.73,29.704725,,,,,,TRUE,,,,,FEW,2000,,,,,,,MVFR,,,,,,,,,,,,METAR,
VOCP 060900Z 32006KT 6000 FEW020 SCT025 FEW030CB 35/18 Q1004 NOSIG,VOCP,2023-05-06T09:00:00Z,14.5,78.77,35.0,18.0,320,6,,3.73,29.64567,,,,,,TRUE,,,,,FEW,2000,SCT,2500,FEW,3000,,,MVFR,,,,,,,,,,,,METAR,134.0
VOCI 060900Z 27009KT 6000 FEW015 SCT020 BKN080 33/25 Q1006 NOSIG,VOCI,2023-05-06T09:00:00Z,10.15,76.4,33.0,25.0,270,9,,3.73,29.704725,,,,,,TRUE,,,,,FEW,1500,SCT,2000,BKN,8000,,,MVFR,,,,,,,,,,,,METAR,8.0
VOCB 060900Z 20009KT 6000 FEW012 FEW020CB BKN080 33/22 Q1007 NOSIG,VOCB,2023-05-06T09:00:00Z,11.02,77.03,33.0,22.0,200,9,,3.73,29.734253,,,,,,TRUE,,,,,FEW,1200,FEW,2000,BKN,8000,,,MVFR,,,,,,,,,,,,METAR,394.0
VOBZ 060900Z 14006KT 6000 FEW020 SCT025 FEW030CB 36/24 Q1003 NOSIG,VOBZ,2023-05-06T09:00:00Z,16.52,80.78,36.0,24.0,140,6,,3.73,29.616142,,,,,,TRUE,,,,,FEW,2000,SCT,2500,FEW,3000,,,MVFR,,,,,,,,,,,,METAR,26.0
VOBM 060900Z 02005KT 9999 SCT012 SCT018 35/16 Q1011,VOBM,2023-05-06T09:00:00Z,15.85,74.62,35.0,16.0,20,5,,6.21,29.852362,,,,,,,,,,,SCT,1200,SCT,1800,,,,,VFR,,,,,,,,,,,,METAR,758.0
VOBL 060900Z 21010KT 4000 VCSH SCT015 SCT020 FEW025CB OVC080 23/23 Q1011 NOSIG,VOBL,2023-05-06T09:00:00Z,13.2,77.7,23.0,23.0,210,10,,2.49,29.852362,,,,,,TRUE,,,,VCSH,SCT,1500,SCT,2000,FEW,2500,OVC,8000,IFR,,,,,,,,,,,,METAR,908.0
VMMC 060900Z 17007KT 9999 FEW006 SCT015 27/26 Q1001 NOSIG,VMMC,2023-05-06T09:00:00Z,22.15,113.58,27.0,26.0,170,7,,6.21,29.557087,,,,,,TRUE,,,,,FEW,600,SCT,1500,,,,,VFR,,,,,,,,,,,,METAR,1.0
VLVT 060900Z 32006KT 8000 SCT020 42/25 Q0998 NOSIG,VLVT,2023-05-06T09:00:00Z,17.98,102.57,42.0,25.0,320,6,,4.97,29.468504,,,,,,TRUE,,,,,SCT,2000,,,,,,,MVFR,,,,,,,,,,,,METAR,171.0
VLPS 060900Z 18006KT 9999 SCT020 40/23 Q1002 NOSIG,VLPS,2023-05-06T09:00:00Z,15.13,105.78,40.0,23.0,180,6,,6.21,29.586615,,,,,,TRUE,,,,,SCT,2000,,,,,,,VFR,,,,,,,,,,,,METAR,102.0
VLLN 060900Z 22006KT 9999 FEW020 37/19 Q1003 NOSIG,VLLN,2023-05-06T09:00:00Z,20.97,101.4,37.0,19.0,220,6,,6.21,29.616142,,,,,,TRUE,,,,,FEW,2000,,,,,,,VFR,,,,,,,,,,,,METAR,548.0
VLLB 060900Z 24008KT 9999 SCT020 FEW060 42/19 Q0998 NOSIG,VLLB,2023-05-06T09:00:00Z,19.9,102.17,42.0,19.0,240,8,,6.21,29.468504,,,,,,TRUE,,,,,SCT,2000,FEW,6000,,,,,VFR,,,,,,,,,,,,METAR,297.0
VIPT 060900Z 27007G17KT 5000 HZ FEW030 32/16 Q1006,VIPT,2023-05-06T09:00:00Z,29.03,79.47,32.0,16.0,270,7,17,3.11,29.704725,,,,,,,,,,HZ,FEW,3000,,,,,,,MVFR,,,,,,,,,,,,METAR,236.0
VILK 060900Z 31012KT 5000 HZ FEW020 36/19 Q1004 NOSIG,VILK,2023-05-06T09:00:00Z,26.75,80.88,36.0,19.0,310,12,,3.11,29.64567,,,,,,TRUE,,,,HZ,FEW,2000,,,,,,,MVFR,,,,,,,,,,,,METAR,121.0
VIJP 060900Z 32006KT 6000 SCT030 SCT100 37/14 Q1007 NOSIG,VIJP,2023-05-06T09:00:00Z,26.82,75.8,37.0,14.0,320,6,,3.73,29.734253,,,,,,TRUE,,,,,SCT,3000,SCT,10000,,,,,MVFR,,,,,,,,,,,,METAR,383.0
VIDP 060900Z 30005KT 4500 HZ SCT035 SCT100 31/12 Q1007 BECMG 5000 HZ,VIDP,2023-05-06T09:00:00Z,28.57,77.12,31.0,12.0,300,5,,2.8,29.734253,,,,,,,,,,HZ,SCT,3500,SCT,10000,,,,,IFR,,,,,,,,,,,,SPECI,236.0
VIDN 060900Z 25012KT 6000 SCT030 30/14 Q1008,VIDN,2023-05-06T09:00:00Z,30.2,78.18,30.0,14.0,250,12,,3.73,29.763779,,,,,,,,,,,SCT,3000,,,,,,,MVFR,,,,,,,,,,,,METAR,550.0
VIAR 060900Z 26008KT 6000 FEW035 35/14 Q1006 NOSIG,VIAR,2023-05-06T09:00:00Z,31.7,74.8,35.0,14.0,260,8,,3.73,29.704725,,,,,,TRUE,,,,,FEW,3500,,,,,,,MVFR,,,,,,,,,,,,METAR,226.0
VHHH 060900Z 20012KT 9999 FEW008 SCT028 30/24 Q1002 NOSIG,VHHH,2023-05-06T09:00:00Z,22.32,113.92,30.0,24.0,200,12,,6.21,29.586615,,,,,,TRUE,,,,,FEW,800,SCT,2800,,,,,VFR,,,,,,,,,,,,METAR,9.0
VGHS 060900Z 27010KT 3500 TSRA BKN010 FEW025CB BKN100 32/24 Q1004 TEMPO TSRA,VGHS,2023-05-06T09:00:00Z,23.85,90.4,32.0,24.0,270,10,,2.17,29.64567,,,,,,,,,,TSRA,BKN,1000,FEW,2500,BKN,10000,,,IFR,,,,,,,,,,,,METAR,11.0
VGEG 060900Z 25008KT 5000 SCT018 BKN100 32/25 Q1004 NOSIG,VGEG,2023-05-06T09:00:00Z,22.23,91.82,32.0,25.0,250,8,,3.11,29.64567,,,,,,TRUE,,,,,SCT,1800,BKN,10000,,,,,MVFR,,,,,,,,,,,,METAR,7.0
VERU 060900Z 24008KT 5000 HZ FEW025 32/14 Q1002 NOSIG,VERU,2023-05-06T09:00:00Z,26.13,89.92,32.0,14.0,240,8,,3.11,29.586615,,,,,,TRUE,,,,HZ,FEW,2500,,,,,,,MVFR,,,,,,,,,,,,METAR,45.0
VERP 060900Z 32002KT 6000 BKN025 36/18 Q1005 NOSIG,VERP,2023-05-06T09:00:00Z,21.18,81.73,36.0,18.0,320,2,,3.73,29.675198,,,,,,TRUE,,,,,BKN,2500,,,,,,,MVFR,,,,,,,,,,,,METAR,318.0
VERC 060900Z 27005KT 6000 FEW020 35/12 Q1008 NOSIG,VERC,2023-05-06T09:00:00Z,23.32,85.32,35.0,12.0,270,5,,3.73,29.763779,,,,,,TRUE,,,,,FEW,2000,,,,,,,MVFR,,,,,,,,,,,,METAR,646.0
VEPT 060900Z 28009KT 6000 FEW018 37/17 Q1002 NOSIG,VEPT,2023-05-06T09:00:00Z,25.6,85.08,37.0,17.0,280,9,,3.73,29.586615,,,,,,TRUE,,,,,FEW,1800,,,,,,,MVFR,,,,,,,,,,,,METAR,53.0
VEMR 060900Z 22004KT 6000 SCT020 36/16 Q1003 NOSIG,VEMR,2023-05-06T09:00:00Z,25.88,93.77,36.0,16.0,220,4,,3.73,29.616142,,,,,,TRUE,,,,,SCT,2000,,,,,,,MVFR,,,,,,,,,,,,METAR,147.0
VEMN 060900Z 11010KT 4000 BR SCT018 FEW025CB BKN100 23/20 Q1006 NOSIG,VEMN,2023-05-06T09:00:00Z,27.47,95.02,23.0,20.0,110,10,,2.49,29.704725,,,,,,TRUE,,,,BR,SCT,1800,FEW,2500,BKN,10000,,,IFR,,,,,,,,,,,,METAR,111.0
VELR 060900Z 05012KT 3000 -DZ SCT008 BKN016 FEW025CB OVC080 24/20 Q1006,VELR,2023-05-06T09:00:00Z,27.3,94.1,24.0,20.0,50,12,,1.86,29.704725,,,,,,,,,,-DZ,SCT,800,BKN,1600,FEW,2500,OVC,8000,IFR,,,,,,,,,,,,METAR,101.0
VELP 060900Z 35004KT 4000 HZ SCT018 34/18 Q1006 NOSIG,VELP,2023-05-06T09:00:00Z,23.83,92.62,34.0,18.0,350,4,,2.49,29.704725,,,,,,TRUE,,,,HZ,SCT,1800,,,,,,,IFR,,,,,,,,,,,,METAR,429.0
VEKO 060900Z 32003KT 6000 SCT020 SCT025 37/17 Q1005,VEKO,2023-05-06T09:00:00Z,24.82,79.92,37.0,17.0,320,3,,3.73,29.675198,,,,,,,,,,,SCT,2000,SCT,2500,,,,,MVFR,,,,,,,,,,,,METAR,222.0
VEKI 060900Z 30010KT 5000 HZ NSC 36/14 Q1002 NOSIG,VEKI,2023-05-06T09:00:00Z,26.78,83.88,36.0,14.0,300,10,,3.11,29.586615,,,,,,TRUE,,,,HZ,CLR,,,,,,,,MVFR,,,,,,,,,,,,METAR,81.0
VEJS 060900Z 31002KT 5000 HZ FEW025 37/16 Q1004,VEJS,2023-05-06T09:00:00Z,22.82,86.17,37.0,16.0,310,2,,3.11,29.64567,,,,,,,,,,HZ,FEW,2500,,,,,,,MVFR,,,,,,,,,,,,METAR,151.0
VEJR 060900Z 14004KT 6000 FEW025 SCT030 33/19 Q1008,VEJR,2023-05-06T09:00:00Z,19.07,82.03,33.0,19.0,140,4,,3.73,29.763779,,,,,,,,,,,FEW,2500,SCT,3000,,,,,MVFR,,,,,,,,,,,,METAR,555.0
VEJH 060900Z 34005KT 4000 HZ BKN020 BKN100 38/16 Q1004,VEJH,2023-05-06T09:00:00Z,21.92,84.03,38.0,16.0,340,5,,2.49,29.64567,,,,,,,,,,HZ,BKN,2000,BKN,10000,,,,,IFR,,,,,,,,,,,,METAR,231.0
VEIM 060900Z 27007KT 7000 FEW018 32/17 Q1008 NOSIG,VEIM,2023-05-06T09:00:00Z,24.77,93.9,32.0,17.0,270,7,,4.35,29.763779,,,,,,TRUE,,,,,FEW,1800,,,,,,,MVFR,,,,,,,,,,,,METAR,777.0
VEHO 060900Z 04005KT 5000 SCT020 BKN090 25/21 Q1005 NOSIG,VEHO,2023-05-06T09:00:00Z,,,25.0,21.0,40,5,,3.11,29.675198,,,,,,TRUE,,,,,SCT,2000,BKN,9000,,,,,MVFR,,,,,,,,,,,,METAR,
VEGY 060900Z 25015G25KT 7000 NSC 38/14 Q1004 NOSIG,VEGY,2023-05-06T09:00:00Z,24.75,84.95,38.0,14.0,250,15,25,4.35,29.64567,,,,,,TRUE,,,,,CLR,,,,,,,,MVFR,,,,,,,,,,,,METAR,115.0
VEGT 060900Z 24008KT 5000 HZ FEW018 SCT100 39/24 Q1002 NOSIG,VEGT,2023-05-06T09:00:00Z,26.1,91.58,39.0,24.0,240,8,,3.11,29.586615,,,,,,TRUE,,,,HZ,FEW,1800,SCT,10000,,,,,MVFR,,,,,,,,,,,,METAR,50.0
VEDO 060900Z 27011KT 7000 NSC 36/07 Q1005 NOSIG,VEDO,2023-05-06T09:00:00Z,24.45,86.7,36.0,7.0,270,11,,4.35,29.675198,,,,,,TRUE,,,,,CLR,,,,,,,,MVFR,,,,,,,,,,,,METAR,244.0
VEDG 060900Z 43008KT 6000 FEW020 SCT100 37/12 Q1003 NOSIG,VEDG,2023-05-06T09:00:00Z,23.62,87.25,37.0,12.0,,,,3.73,29.616142,,,,,,TRUE,,,,,FEW,2000,SCT,10000,,,,,MVFR,,,,,,,,,,,,METAR,88.0
VECO 060900Z 25005KT 4500 HZ SCT025 34/20 Q1002 NOSIG,VECO,2023-05-06T09:00:00Z,26.33,89.47,34.0,20.0,250,5,,2.8,29.586615,,,,,,TRUE,,,,HZ,SCT,2500,,,,,,,IFR,,,,,,,,,,,,METAR,48.0
VECC 060900Z 05004KT 3800 HZ SCT020 SCT100 35/25 Q1003 NOSIG,VECC,2023-05-06T09:00:00Z,22.65,88.43,35.0,25.0,50,4,,2.36,29.616142,,,,,,TRUE,,,,HZ,SCT,2000,SCT,10000,,,,,IFR,,,,,,,,,,,,METAR,11.0
VEBS 060900Z 16002KT 5000 HZ SCT020 SCT100 35/30 Q1005 NOSIG,VEBS,2023-05-06T09:00:00Z,20.25,85.82,35.0,30.0,160,2,,3.11,29.675198,,,,,,TRUE,,,,HZ,SCT,2000,SCT,10000,,,,,MVFR,,,,,,,,,,,,METAR,42.0
VEBN 060900Z 27012KT 5000 HZ NSC 37/17 Q1004 NOSIG,VEBN,2023-05-06T09:00:00Z,25.45,82.85,37.0,17.0,270,12,,3.11,29.64567,,,,,,TRUE,,,,HZ,CLR,,,,,,,,MVFR,,,,,,,,,,,,METAR,81.0
VEBI 060900Z 34008KT 6000 SCT020 29/12 Q1008 NOSIG,VEBI,2023-05-06T09:00:00Z,25.7,91.98,29.0,12.0,340,8,,3.73,29.763779,,,,,,TRUE,,,,,SCT,2000,,,,,,,MVFR,,,,,,,,,,,,METAR,892.0
VEAT 060900Z 19009KT 6000 SCT020 36/23 Q1003 NOSIG,VEAT,2023-05-06T09:00:00Z,23.88,91.25,36.0,23.0,190,9,,3.73,29.616142,,,,,,TRUE,,,,,SCT,2000,,,,,,,MVFR,,,,,,,,,,,,METAR,20.0
VDSV 060900Z 27011KT 9999 SCT015 32/27 Q1002,VDSV,2023-05-06T09:00:00Z,10.58,103.63,32.0,27.0,270,11,,6.21,29.586615,,,,,,,,,,,SCT,1500,,,,,,,VFR,,,,,,,,,,,,METAR,1.0
VDSR 060900Z 19006KT 140V230 9999 SCT017 39/22 Q1000,VDSR,2023-05-06T09:00:00Z,13.42,103.8,39.0,22.0,190,6,,6.21,29.52756,,,,,,,,,,,SCT,1700,,,,,,,VFR,,,,,,,,,,,,METAR,16.0
VDPP 060900Z VRB03KT 9999 SCT017 39/20 Q1000,VDPP,2023-05-06T09:00:00Z,11.55,104.83,39.0,20.0,0,3,,6.21,29.52756,,,,,,,,,,,SCT,1700,,,,,,,VFR,,,,,,,,,,,,METAR,10.0
VAUD 060900Z 21008KT 4000 DZ SCT025 BKN030 FEW035CB 33/19 Q1008 TEMPO 3000 TSRA,VAUD,2023-05-06T09:00:00Z,24.62,73.9,33.0,19.0,210,8,,2.49,29.763779,,,,,,,,,,DZ,SCT,2500,BKN,3000,FEW,3500,,,IFR,,,,,,,,,,,,METAR,506.0
VARK 060900Z 09003KT 6000 SCT020 38/19 Q1007 NOSIG,VARK,2023-05-06T09:00:00Z,22.3,70.77,38.0,19.0,90,3,,3.73,29.734253,,,,,,TRUE,,,,,SCT,2000,,,,,,,MVFR,,,,,,,,,,,,METAR,125.0
VAOZ 060900Z 01010KT 6000 SCT030 BKN090 33/17 Q1010 NOSIG,VAOZ,2023-05-06T09:00:00Z,20.12,73.92,33.0,17.0,10,10,,3.73,29.822834,,,,,,TRUE,,,,,SCT,3000,BKN,9000,,,,,MVFR,,,,,,,,,,,,METAR,598.0
VANP 060900Z 34005KT 5000 HZ FEW020 SCT025 37/21 Q1007 NOSIG,VANP,2023-05-06T09:00:00Z,21.08,79.05,37.0,21.0,340,5,,3.11,29.734253,,,,,,TRUE,,,,HZ,FEW,2000,SCT,2500,,,,,MVFR,,,,,,,,,,,,METAR,309.0
VAKP 060900Z 02005KT 9000 FEW020 34/12 Q1009,VAKP,2023-05-06T09:00:00Z,16.65,74.28,34.0,12.0,20,5,,5.59,29.793306,,,,,,,,,,,FEW,2000,,,,,,,VFR,,,,,,,,,,,,METAR,612.0
VAJL 060900Z 22002KT 7000 FEW025 37/19 Q1006 NOSIG,VAJL,2023-05-06T09:00:00Z,20.97,75.63,37.0,19.0,220,2,,4.35,29.704725,,,,,,TRUE,,,,,FEW,2500,,,,,,,MVFR,,,,,,,,,,,,METAR,257.0
VAJJ 060900Z 28009KT 5000 FU FEW020 31/24 Q1007 NOSIG,VAJJ,2023-05-06T09:00:00Z,19.08,72.83,31.0,24.0,280,9,,3.11,29.734253,,,,,,TRUE,,,,FU,FEW,2000,,,,,,,MVFR,,,,,,,,,,,,METAR,1.0
VAID 060900Z 00000KT 6000 FEW020 SCT025 34/18 Q1009 NOSIG,VAID,2023-05-06T09:00:00Z,22.72,75.8,34.0,18.0,0,0,,3.73,29.793306,,,,,,TRUE,,,,,FEW,2000,SCT,2500,,,,,MVFR,,,,,,,,,,,,METAR,564.0
VABV 060900Z 09006KT 6000 FEW025 36/21 Q1006,VABV,2023-05-06T09:00:00Z,21.75,72.2,36.0,21.0,90,6,,3.73,29.704725,,,,,,,,,,,FEW,2500,,,,,,,MVFR,,,,,,,,,,,,METAR,8.0
VABP 060900Z 32005KT 6000 SCT030 35/12 Q1008 NOSIG,VABP,2023-05-06T09:00:00Z,23.28,77.33,35.0,12.0,320,5,,3.73,29.763779,,,,,,TRUE,,,,,SCT,3000,,,,,,,MVFR,,,,,,,,,,,,METAR,520.0
VABO 060900Z 27006KT 6000 FEW020 SCT080 37/20 Q1006 NOSIG,VABO,2023-05-06T09:00:00Z,22.33,73.22,37.0,20.0,270,6,,3.73,29.704725,,,,,,TRUE,,,,,FEW,2000,SCT,8000,,,,,MVFR,,,,,,,,,,,,METAR,36.0
VABB 060900Z 29011KT 6000 FEW020 32/24 Q1007 NOSIG,VABB,2023-05-06T09:00:00Z,19.1,72.87,32.0,24.0,290,11,,3.73,29.734253,,,,,,TRUE,,,,,FEW,2000,,,,,,,MVFR,,,,,,,,,,,,METAR,14.0
VAAH 060900Z 28005KT 5000 FU BKN080 37/17 Q1006 NOSIG,VAAH,2023-05-06T09:00:00Z,23.07,72.63,37.0,17.0,280,5,,3.11,29.704725,,,,,,TRUE,,,,FU,BKN,8000,,,,,,,MVFR,,,,,,,,,,,,METAR,52.0
UWWW 060900Z 26006MPS 210V320 9999 BKN026 20/03 Q1012 R15/CLRD60 TEMPO 30017MPS 1000 TSRA BKN010CB RMK QFE747/0997,UWWW,2023-05-06T09:00:00Z,53.5,50.17,20.0,3.0,260,12,,6.21,29.88189,,,,,,,,,,,BKN,2600,,,,,,,MVFR,,,,,,,,,,,,METAR,124.0
UWUU 060900Z 17010MPS 140V210 CAVOK 22/M04 Q1016 R14R/0///60 NOSIG,UWUU,2023-05-06T09:00:00Z,54.57,55.87,22.0,-4.0,170,19,,6.21,30.0,,,,,,TRUE,,,,,CAVOK,,,,,,,,VFR,,,,,,,,,,,,METAR,137.0
UWSG 060900Z 32008MPS 9999 SCT020 14/08 Q1016 R26/CLRD70 NOSIG RMK QFE759/1012,UWSG,2023-05-06T09:00:00Z,51.72,46.17,14.0,8.0,320,16,,6.21,30.0,,,,,,TRUE,,,,,SCT,2000,,,,,,,VFR,,,,,,,,,,,,METAR,31.0
UWPS 060900Z 34005MPS 9999 BKN037 08/01 Q1018 R02/190060 NOSIG RMK QFE744,UWPS,2023-05-06T09:00:00Z,54.12,45.2,8.0,1.0,340,10,,6.21,30.059055,,,,,,TRUE,,,,,BKN,3700,,,,,,,VFR,,,,,,,,,,,,METAR,206.0
UWOR 060900Z 14010G16MPS CAVOK 22/M03 Q1018 R07/CLRD65 NOSIG RMK QFE739/0986,UWOR,2023-05-06T09:00:00Z,51.07,58.6,22.0,-3.0,140,19,31,6.21,30.059055,,,,,,TRUE,,,,,CAVOK,,,,,,,,VFR,,,,,,,,,,,,METAR,270.0
UWOO 060900Z 18007MPS 150V210 9999 SCT049 23/M04 Q1017 R08/CLRD60 NOSIG RMK QFE752/1003,UWOO,2023-05-06T09:00:00Z,51.8,55.47,23.0,-4.0,180,14,,6.21,30.029528,,,,,,TRUE,,,,,SCT,4900,,,,,,,VFR,,,,,,,,,,,,METAR,90.0
UWLW 060900Z 34005MPS 9000 -SHRA BKN010 OVC020CB 07/06 Q1015 R02/290150 NOSIG RMK QFE755/1006,UWLW,2023-05-06T09:00:00Z,54.4,48.8,7.0,6.0,340,10,,5.59,29.970472,,,,,,TRUE,,,,-SHRA,BKN,1000,OVC,2000,,,,,MVFR,,,,,,,,,,,,METAR,67.0
UWLL 060900Z 34006MPS 9999 -SHRA BKN011 BKN020CB 07/05 Q1016 R02/150150 NOSIG RMK QFE750/1000,UWLL,2023-05-06T09:00:00Z,54.27,48.23,7.0,5.0,340,12,,6.21,30.0,,,,,,TRUE,,,,-SHRA,BKN,1100,BKN,2000,,,,,MVFR,,,,,,,,,,,,METAR,119.0
UWKS 060900Z 32004MPS 280V360 9999 -SHRA OVC010CB 05/04 Q1015 R06/290250 NOSIG RMK QFE746,UWKS,2023-05-06T09:00:00Z,56.08,47.35,5.0,4.0,320,8,,6.21,29.970472,,,,,,TRUE,,,,-SHRA,OVC,1000,,,,,,,MVFR,,,,,,,,,,,,METAR,165.0
UWKE 060900Z 21008MPS CAVOK 19/02 Q1010 R21/090070 NOSIG RMK QFE741/0988,UWKE,2023-05-06T09:00:00Z,55.57,52.08,19.0,2.0,210,16,,6.21,29.822834,,,,,,TRUE,,,,,CAVOK,,,,,,,,VFR,,,,,,,,,,,,METAR,193.0
UWKD 060900Z 36004MPS 9000 -SHRA BKN041CB 06/03 Q1015 R29/290050 NOSIG RMK QFE750/1000,UWKD,2023-05-06T09:00:00Z,55.62,49.28,6.0,3.0,360,8,,5.59,29.970472,,,,,,TRUE,,,,-SHRA,BKN,4100,,,,,,,VFR,,,,,,,,,,,,METAR,114.0
UWGG 060900Z 30006G11MPS CAVOK 08/M07 Q1018 R36R/090070 NOSIG,UWGG,2023-05-06T09:00:00Z,56.23,43.78,8.0,-7.0,300,12,21,6.21,30.059055,,,,,,TRUE,,,,,CAVOK,,,,,,,,VFR,,,,,,,,,,,,METAR,73.0
UUYY 060900Z 04004MPS 9999 BKN007 OVC016CB 06/06 Q1011 R36/29//51 NOSIG RMK QFE749/0999,UUYY,2023-05-06T09:00:00Z,61.65,50.83,6.0,6.0,40,8,,6.21,29.852362,,,,,,TRUE,,,,,BKN,700,OVC,1600,,,,,IFR,,,,,,,,,,,,METAR,107.0
UUWW 060900Z 34006MPS 300V010 9999 BKN045 05/M07 Q1024 R24/000070 NOSIG,UUWW,2023-05-06T09:00:00Z,55.6,37.27,5.0,-7.0,340,12,,6.21,30.236221,,,,,,TRUE,,,,,BKN,4500,,,,,,,VFR,,,,,,,,,,,,METAR,195.0
UUOO 060900Z 35005MPS 9999 BKN040 06/M02 Q1022 R30/010070 NOSIG RMK QFE753,UUOO,2023-05-06T09:00:00Z,51.82,39.23,6.0,-2.0,350,10,,6.21,30.177166,,,,,,TRUE,,,,,BKN,4000,,,,,,,VFR,,,,,,,,,,,,METAR,154.0
UUOL 060900Z 02004MPS CAVOK 06/M04 Q1022 R33/////// NOSIG,UUOL,2023-05-06T09:00:00Z,52.7,39.53,6.0,-4.0,20,8,,6.21,30.177166,,,,,,TRUE,,,,,CAVOK,,,,,,,,VFR,,,,,,,,,,,,METAR,176.0
UUOK 060900Z 02006MPS 340V060 9999 BKN037 07/M01 Q1024 R12/090060 NOSIG RMK QFE750/1000,UUOK,2023-05-06T09:00:00Z,51.75,36.28,7.0,-1.0,20,12,,6.21,30.236221,,,,,,TRUE,,,,,BKN,3700,,,,,,,VFR,,,,,,,,,,,,METAR,203.0
UUOB 060900Z 06006G11MPS CAVOK 09/02 Q1021 R29/010070 NOSIG,UUOB,2023-05-06T09:00:00Z,50.65,36.58,9.0,2.0,60,12,21,6.21,30.147638,,,,,,TRUE,,,,,CAVOK,,,,,,,,VFR,,,,,,,,,,,,METAR,218.0
UUMO 060900Z 34006MPS 300V020 9999 BKN043 05/M05 Q1024 R25/CLRD60 NOSIG RMK QFE753/1004,UUMO,2023-05-06T09:00:00Z,55.52,37.5,5.0,-5.0,340,12,,6.21,30.236221,,,,,,TRUE,,,,,BKN,4300,,,,,,,VFR,,,,,,,,,,,,METAR,167.0
UUEE 060900Z 32006MPS 280V360 CAVOK 04/M08 Q1024 R24L/CLRD62 R24C/CLRD62 NOSIG,UUEE,2023-05-06T09:00:00Z,55.97,37.42,4.0,-8.0,320,12,,6.21,30.236221,,,,,,TRUE,,,,,CAVOK,,,,,,,,VFR,,,,,,,,,,,,METAR,186.0
UUDL 060900Z 31006MPS 9999 BKN030CB 05/M05 Q1021 R23/010060 NOSIG RMK QFE757,UUDL,2023-05-06T09:00:00Z,57.57,40.17,5.0,-5.0,310,12,,6.21,30.147638,,,,,,TRUE,,,,,BKN,3000,,,,,,,MVFR,,,,,,,,,,,,METAR,88.0
UUDD 060900Z 34007MPS 310V010 9999 BKN039 05/M06 Q1024 RMK WS R32L R88/CLRD60 NOSIG,UUDD,2023-05-06T09:00:00Z,55.4,37.9,5.0,-6.0,340,14,,6.21,30.236221,,,,,,,,,,,BKN,3900,,,,,,,VFR,,,,,,,,,,,,METAR,165.0
UUBW 060900Z 32006MPS 270V360 9999 BKN043 06/M05 Q1024 R30/010060 NOSIG,UUBW,2023-05-06T09:00:00Z,55.55,38.15,6.0,-5.0,320,12,,6.21,30.236221,,,,,,TRUE,,,,,BKN,4300,,,,,,,VFR,,,,,,,,,,,,METAR,111.0
UUBP 060900Z 34005MPS 300V010 CAVOK 08/M05 Q1025 R34/////// NOSIG RMK QFE751/1002,UUBP,2023-05-06T09:00:00Z,53.22,34.18,8.0,-5.0,340,10,,6.21,30.265747,,,,,,TRUE,,,,,CAVOK,,,,,,,,VFR,,,,,,,,,,,,METAR,197.0
UUBC 060900Z 31006MPS 270V360 CAVOK 07/M07 Q1024 R31/CLRD60 NOSIG RMK QFE751/1002,UUBC,2023-05-06T09:00:00Z,54.55,36.37,7.0,-7.0,310,12,,6.21,30.236221,,,,,,TRUE,,,,,CAVOK,,,,,,,,VFR,,,,,,,,,,,,METAR,198.0
UTTT 060900Z 28006KT 9999 SCT060CB 20/06 Q1018 R26R/CLRD70 NOSIG,UTTT,2023-05-06T09:00:00Z,41.27,69.27,20.0,6.0,280,6,,6.21,30.059055,,,,,,TRUE,,,,,SCT,6000,,,,,,,VFR,,,,,,,,,,,,METAR,429.0
UTST 060900Z 34004KT 9999 SCT046TCU 23/07 Q1017 R25/CLRD70 NOSIG,UTST,2023-05-06T09:00:00Z,37.28,67.32,23.0,7.0,340,4,,6.21,30.029528,,,,,,TRUE,,,,,SCT,4600,,,,,,,VFR,,,,,,,,,,,,METAR,311.0
UTSS 060900Z VRB02KT 9999 BKN066CB 15/08 Q1018 R27/CLRD70 NOSIG,UTSS,2023-05-06T09:00:00Z,39.7,66.98,15.0,8.0,0,2,,6.21,30.059055,,,,,,TRUE,,,,,BKN,6600,,,,,,,VFR,,,,,,,,,,,,METAR,665.0
UTSK 060900Z 20006KT 160V290 9999 OVC033CB 17/07 Q1018 R16/CLRD70,UTSK,2023-05-06T09:00:00Z,38.8,65.77,17.0,7.0,200,6,,6.21,30.059055,,,,,,,,,,,OVC,3300,,,,,,,VFR,,,,,,,,,,,,METAR,399.0
UTSB 060900Z 22010KT 170V260 9999 BKN045 19/09 Q1017 R19/CLRD70 NOSIG,UTSB,2023-05-06T09:00:00Z,39.77,64.48,19.0,9.0,220,10,,6.21,30.029528,,,,,,TRUE,,,,,BKN,4500,,,,,,,VFR,,,,,,,,,,,,METAR,225.0
UTSA 060900Z 19008KT 150V210 9999 BKN046 16/09 Q1018 R25/CLRD70 NOSIG,UTSA,2023-05-06T09:00:00Z,40.12,65.17,16.0,9.0,190,8,,6.21,30.059055,,,,,,TRUE,,,,,BKN,4600,,,,,,,VFR,,,,,,,,,,,,METAR,346.0
UTNU 060900Z 22010KT 9999 -SHRA OVC029CB 16/11 Q1014 R31/CLRD70 NOSIG,UTNU,2023-05-06T09:00:00Z,41.58,60.63,16.0,11.0,220,10,,6.21,29.940945,,,,,,TRUE,,,,-SHRA,OVC,2900,,,,,,,MVFR,,,,,,,,,,,,METAR,97.0
UTNN 060900Z 19004KT CAVOK 19/05 Q1013 R33/CLRD60 NOSIG,UTNN,2023-05-06T09:00:00Z,42.48,59.63,19.0,5.0,190,4,,6.21,29.911417,,,,,,TRUE,,,,,CAVOK,,,,,,,,VFR,,,,,,,,,,,,METAR,76.0
UTFN 060900Z 23018KT 9000 NSC 20/03 Q1011 R28/CLRD70 NOSIG,UTFN,2023-05-06T09:00:00Z,40.98,71.57,20.0,3.0,230,18,,5.59,29.852362,,,,,,TRUE,,,,,CLR,,,,,,,,VFR,,,,,,,,,,,,METAR,477.0
UTFF 060900Z 28018KT 9999 NSC 22/M02 Q1012 R18/CLRD70,UTFF,2023-05-06T09:00:00Z,40.37,71.73,22.0,-2.0,280,18,,6.21,29.88189,,,,,,,,,,,CLR,,,,,,,,VFR,,,,,,,,,,,,METAR,612.0
UTDT 060900Z 33003MPS 280V020 9000 FEW023 SCT070CB BKN110 18/12 Q1018 R35/290350 RMK QFE724/0966,UTDT,2023-05-06T09:00:00Z,37.87,68.87,18.0,12.0,330,6,,5.59,30.059055,,,,,,,,,,,FEW,2300,SCT,7000,BKN,11000,,,VFR,,,,,,,,,,,,METAR,443.0
UTDL 060900Z 25008MPS 9999 -SHRA SCT057CB OVC086 15/07 Q1017 R26/CLRD70 NOSIG RMK QFE725/0967,UTDL,2023-05-06T09:00:00Z,40.22,69.7,15.0,7.0,250,16,,6.21,30.029528,,,,,,TRUE,,,,-SHRA,SCT,5700,OVC,8600,,,,,VFR,,,,,,,,,,,,METAR,436.0
UTDK 060900Z VRB02MPS 8000 FEW030 SCT043CB OVC051 17/10 Q1020 R01/09//70 RMK QFE707/0943,UTDK,2023-05-06T09:00:00Z,37.98,69.8,17.0,10.0,0,4,,4.97,30.11811,,,,,,,,,,,FEW,3000,SCT,4300,OVC,5100,,,MVFR,,,,,,,,,,,,METAR,675.0
UTDD 060900Z VRB01MPS 3900 -SHRA HZ SCT033 SCT033CB 14/08 Q1020 R09/19//60 NOSIG RMK QFE696/0929,UTDD,2023-05-06T09:00:00Z,38.53,68.82,14.0,8.0,0,2,,2.42,30.11811,,,,,,TRUE,,,,-SHRA HZ,SCT,3300,SCT,3300,,,,,IFR,,,,,,,,,,,,METAR,785.0
UTAV 060900Z 3300KT 9999 -SHRA SCT033CB BKN033 17/10 Q1017 R13/CLRD/70 NOSIG,UTAV,2023-05-06T09:00:00Z,39.08,63.62,17.0,10.0,,,,6.21,30.029528,,,,,,TRUE,,,,-SHRA,SCT,3300,BKN,3300,,,,,VFR,,,,,,,,,,,,METAR,187.0
UTAT 060900Z 28014KT 9999 OVC048 17/12 Q1014 R26/19//60 NOSIG,UTAT,2023-05-06T09:00:00Z,41.77,59.83,17.0,12.0,280,14,,6.21,29.940945,,,,,,TRUE,,,,,OVC,4800,,,,,,,VFR,,,,,,,,,,,,METAR,84.0
UTAM 060900Z 21006KT 9999 BKN040 23/05 Q1016 R88/CLRD70 NOSIG,UTAM,2023-05-06T09:00:00Z,37.62,61.9,23.0,5.0,210,6,,6.21,30.0,,,,,,TRUE,,,,,BKN,4000,,,,,,,VFR,,,,,,,,,,,,METAR,218.0
UTAK 060900Z 28012KT 9999 FEW033 21/09 Q1016 R16R/CLRD70 NOSIG,UTAK,2023-05-06T09:00:00Z,40.05,53.0,21.0,9.0,280,12,,6.21,30.0,,,,,,TRUE,,,,,FEW,3300,,,,,,,VFR,,,,,,,,,,,,METAR,83.0
UTAA 060900Z 12008KT 060V200 9999 SCT050 BKN100 23/07 Q1014 R88/70D NOSIG,UTAA,2023-05-06T09:00:00Z,37.98,58.37,23.0,7.0,120,8,,6.21,29.940945,,,,,,TRUE,,,,,SCT,5000,BKN,10000,,,,,VFR,,,,,,,,,,,,METAR,207.0
USTR 060900Z 21007MPS 170V240 CAVOK 25/M05 Q1018 R21/090065 R30/090065 TEMPO 3100 FU,USTR,2023-05-06T09:00:00Z,57.18,65.32,25.0,-5.0,210,14,,6.21,30.059055,,,,,,,,,,,CAVOK,,,,,,,,VFR,,,,,,,,,,,,METAR,93.0
USSS 060900Z 19006MPS 160V220 CAVOK 24/M04 Q1017 WS R26R R26R/010060 TEMPO 18009G17MPS RMK QFE742/0989,USSS,2023-05-06T09:00:00Z,56.75,60.78,24.0,-4.0,190,12,,6.21,30.029528,,,,,,,,,,,CAVOK,,,,,,,,VFR,,,,,,,,,,,,METAR,222.0
USRR 060900Z 13004MPS 100V170 CAVOK 13/06 Q1018 R07/CLRD60 NOSIG RMK QFE758,USRR,2023-05-06T09:00:00Z,61.33,73.42,13.0,6.0,130,8,,6.21,30.059055,,,,,,TRUE,,,,,CAVOK,,,,,,,,VFR,,,,,,,,,,,,METAR,52.0
USPP 060900Z 21008G14MPS CAVOK 21/M01 Q1012 R21/090060 TEMPO 22008G25MPS RMK QFE748,USPP,2023-05-06T09:00:00Z,57.92,56.02,21.0,-1.0,210,16,27,6.21,29.88189,,,,,,,,,,,CAVOK,,,,,,,,VFR,,,,,,,,,,,,METAR,120.0
USNN 060900Z 13005MPS 9999 FEW030CB 14/05 Q1020 R21/0///65 NOSIG RMK QFE760,USNN,2023-05-06T09:00:00Z,60.95,76.48,14.0,5.0,130,10,,6.21,30.11811,,,,,,TRUE,,,,,FEW,3000,,,,,,,VFR,,,,,,,,,,,,METAR,52.0
USHH 060900Z 24004MPS 190V290 CAVOK 21/07 Q1015 R06/010060 NOSIG,USHH,2023-05-06T09:00:00Z,61.03,69.08,21.0,7.0,240,8,,6.21,29.970472,,,,,,TRUE,,,,,CAVOK,,,,,,,,VFR,,,,,,,,,,,,METAR,46.0
USDA 060900Z 33005MPS CAVOK M08/M11 Q1023 R04/CLRD60 NOSIG RMK QFE766/1021,USDA,2023-05-06T09:00:00Z,71.2,72.05,-8.0,-11.0,330,10,,6.21,30.206694,,,,,,TRUE,,,,,CAVOK,,,,,,,,VFR,,,,,,,,,,,,METAR,5.0
USCM 060900Z 17009G14MPS 9999 NSC 22/M04 Q1019 R18/090060 TEMPO 17015MPS RMK QFE727,USCM,2023-05-06T09:00:00Z,53.4,58.75,22.0,-4.0,170,17,27,6.21,30.088583,,,,,,,,,,,CLR,,,,,,,,VFR,,,,,,,,,,,,METAR,425.0
USCC 060900Z 19007MPS CAVOK 24/M04 Q1020 R27/000060 NOSIG RMK QFE744,USCC,2023-05-06T09:00:00Z,55.3,61.5,24.0,-4.0,190,14,,6.21,30.11811,,,,,,TRUE,,,,,CAVOK,,,,,,,,VFR,,,,,,,,,,,,METAR,227.0
URWW 060900Z 23004MPS 9999 BKN048CB 23/09 Q1014 R23/010070 TEMPO 1500 TSRAGR BKN005 BKN030CB,URWW,2023-05-06T09:00:00Z,48.78,44.33,23.0,9.0,230,8,,6.21,29.940945,,,,,,,,,,,BKN,4800,,,,,,,VFR,,,,,,,,,,,,METAR,131.0
URWI 060900Z 14004MPS 090V210 9999 FEW/// 23/07 Q1015 NOSIG,URWI,2023-05-06T09:00:00Z,46.37,44.33,23.0,7.0,140,8,,6.21,29.970472,,,,,,TRUE,,,,,,,,,,,,,,,,,,,,,,,,,METAR,145.0
URWA 060900Z 05003MPS 360V140 9999 SCT043 22/10 Q1016 R27/010070 NOSIG RMK QFE764/1019,URWA,2023-05-06T09:00:00Z,46.28,47.98,22.0,10.0,50,6,,6.21,30.0,,,,,,TRUE,,,,,SCT,4300,,,,,,,VFR,,,,,,,,,,,,METAR,-19.0
URSS 060900Z 27002MPS 240V320 9999 FEW010 18/12 Q1014 R02/010070 R06/010070 NOSIG RMK R06/30003G06MPS MT OBSC QFE759,URSS,2023-05-06T09:00:00Z,43.45,39.92,18.0,12.0,270,4,,6.21,29.940945,,,,,,TRUE,,,,,FEW,1000,,,,,,,VFR,,,,,,,,,,,,METAR,4.0
URRP 060900Z 02002MPS CAVOK 23/11 Q1015 R23/CLRD70 NOSIG RMK QFE753/1004,URRP,2023-05-06T09:00:00Z,47.5,39.92,23.0,11.0,20,4,,6.21,29.970472,,,,,,TRUE,,,,,CAVOK,,,,,,,,VFR,,,,,,,,,,,,METAR,73.0
URMT 060900Z 13005MPS CAVOK 22/10 Q1014 R07/010070 NOSIG RMK QFE721,URMT,2023-05-06T09:00:00Z,45.12,42.12,22.0,10.0,130,10,,6.21,29.940945,,,,,,TRUE,,,,,CAVOK,,,,,,,,VFR,,,,,,,,,,,,METAR,448.0
URMO 060900Z 06007MPS 9999 NSC 21/10 Q1014 R09/010070 NOSIG RMK QFE717/0956,URMO,2023-05-06T09:00:00Z,43.2,44.6,21.0,10.0,60,14,,6.21,29.940945,,,,,,TRUE,,,,,CLR,,,,,,,,VFR,,,,,,,,,,,,METAR,505.0
URMN 060900Z 10004MPS 9999 NSC 21/12 Q1013 R24/010070 NOSIG RMK QFE723,URMN,2023-05-06T09:00:00Z,43.52,43.63,21.0,12.0,100,8,,6.21,29.911417,,,,,,TRUE,,,,,CLR,,,,,,,,VFR,,,,,,,,,,,,METAR,424.0
URMM 060900Z 09006MPS 9999 FEW/// 22/12 Q1014 R12/090070 NOSIG RMK QFE732/0976,URMM,2023-05-06T09:00:00Z,44.22,43.07,22.0,12.0,90,12,,6.21,29.940945,,,,,,TRUE,,,,,,,,,,,,,,,,,,,,,,,,,METAR,318.0
URML 060900Z 14005MPS 9999 FEW/// 16/13 Q1016 R14/010070 NOSIG RMK QFE762/1016,URML,2023-05-06T09:00:00Z,42.82,47.65,16.0,13.0,140,10,,6.21,30.0,,,,,,TRUE,,,,,,,,,,,,,,,,,,,,,,,,,METAR,4.0
URMG 060900Z 11005MPS 060V130 CAVOK 21/11 Q1014 R08/090070 NOSIG RMK QFE746/0995,URMG,2023-05-06T09:00:00Z,43.38,45.7,21.0,11.0,110,10,,6.21,29.940945,,,,,,TRUE,,,,,CAVOK,,,,,,,,VFR,,,,,,,,,,,,METAR,160.0
URKK 060900Z 20002MPS 170V240 9999 FEW/// 23/14 Q1013 R05R/CLRD70 NOSIG RMK QFE757,URKK,2023-05-06T09:00:00Z,45.03,39.15,23.0,14.0,200,4,,6.21,29.911417,,,,,,TRUE,,,,,,,,,,,,,,,,,,,,,,,,,METAR,29.0
URKA 060900Z 24006MPS CAVOK 17/14 Q1014 R22/010070 TEMPO 0500 FG BKN002 RMK QFE755/1007,URKA,2023-05-06T09:00:00Z,45.0,37.35,17.0,14.0,240,12,,6.21,29.940945,,,,,,,,,,,CAVOK,,,,,,,,VFR,,,,,,,,,,,,METAR,41.0
UOOO 060900Z 34004MPS CAVOK M11/M13 Q1017 R01/810260 NOSIG RMK QFE748/0997,UOOO,2023-05-06T09:00:00Z,69.32,87.33,-11.0,-13.0,340,8,,6.21,30.029528,,,,,,TRUE,,,,,CAVOK,,,,,,,,VFR,,,,,,,,,,,,METAR,177.0
UNWW 060900Z VRB01MPS CAVOK 23/M01 Q1023 R01/09//55 NOSIG RMK QFE740,UNWW,2023-05-06T09:00:00Z,53.82,86.88,23.0,-1.0,0,2,,6.21,30.206694,,,,,,TRUE,,,,,CAVOK,,,,,,,,VFR,,,,,,,,,,,,METAR,307.0
UNTT 060900Z 31003MPS 270V350 CAVOK 23/02 Q1022 R03/090060 NOSIG RMK QFE750,UNTT,2023-05-06T09:00:00Z,56.38,85.22,23.0,2.0,310,6,,6.21,30.177166,,,,,,TRUE,,,,,CAVOK,,,,,,,,VFR,,,,,,,,,,,,METAR,179.0
UNOO 060900Z 23004MPS 180V290 CAVOK 26/M11 Q1023 R25/CLRD60 NOSIG RMK QFE759,UNOO,2023-05-06T09:00:00Z,54.97,73.32,26.0,-11.0,230,8,,6.21,30.206694,,,,,,TRUE,,,,,CAVOK,,,,,,,,VFR,,,,,,,,,,,,METAR,85.0
UNNT 060900Z VRB01MPS 8000 BKN027 26/00 Q1021 R25/090070 R34/090070 NOSIG RMK QFE756/1008,UNNT,2023-05-06T09:00:00Z,55.02,82.65,26.0,0.0,0,2,,4.97,30.147638,,,,,,TRUE,,,,,BKN,2700,,,,,,,MVFR,,,,,,,,,,,,METAR,106.0
UNKL 060900Z 26005MPS 220V290 CAVOK 20/02 Q1021 R29/CLRD65 NOSIG RMK QFE740,UNKL,2023-05-06T09:00:00Z,56.17,92.48,20.0,2.0,260,10,,6.21,30.147638,,,,,,TRUE,,,,,CAVOK,,,,,,,,VFR,,,,,,,,,,,,METAR,278.0
UNEE 060900Z 16001MPS CAVOK 24/M03 Q1022 R23/CLRD60 NOSIG RMK QFE743,UNEE,2023-05-06T09:00:00Z,55.27,86.1,24.0,-3.0,160,2,,6.21,30.177166,,,,,,TRUE,,,,,CAVOK,,,,,,,,VFR,,,,,,,,,,,,METAR,261.0
UNBB 060900Z 17002MPS 110V210 CAVOK 24/M09 Q1022 R24/CLRD66 NOSIG RMK QFE744,UNBB,2023-05-06T09:00:00Z,53.37,83.53,24.0,-9.0,170,4,,6.21,30.177166,,,,,,TRUE,,,,,CAVOK,,,,,,,,VFR,,,,,,,,,,,,METAR,249.0
UNAA 060900Z 20003MPS CAVOK 23/M01 Q1023 R20/CLRD64 NOSIG RMK QFE744,UNAA,2023-05-06T09:00:00Z,53.75,91.4,23.0,-1.0,200,6,,6.21,30.206694,,,,,,TRUE,,,,,CAVOK,,,,,,,,VFR,,,,,,,,,,,,METAR,249.0
UMOO 060900Z 35005MPS CAVOK 06/M07 Q1030 NOSIG,UMOO,2023-05-06T09:00:00Z,53.95,30.1,6.0,-7.0,350,10,,6.21,30.413385,,,,,,TRUE,,,,,CAVOK,,,,,,,,VFR,,,,,,,,,,,,METAR,188.0
UMMS 060900Z 03004MPS 340V080 CAVOK 07/M05 Q1028 NOSIG,UMMS,2023-05-06T09:00:00Z,53.88,28.03,7.0,-5.0,30,8,,6.21,30.35433,,,,,,TRUE,,,,,CAVOK,,,,,,,,VFR,,,,,,,,,,,,METAR,196.0
UMMG 060900Z 09003G06MPS 9999 BKN040 10/M01 Q1027 NOSIG,UMMG,2023-05-06T09:00:00Z,53.6,24.05,10.0,-1.0,90,6,12,6.21,30.324802,,,,,,TRUE,,,,,BKN,4000,,,,,,,VFR,,,,,,,,,,,,METAR,125.0
UMKK 060900Z 06006MPS 040V100 CAVOK 10/M00 Q1027 R06/CLRD95 NOSIG RMK QFE769/1026,UMKK,2023-05-06T09:00:00Z,54.88,20.57,10.0,0.0,60,12,,6.21,30.324802,,,,,,TRUE,,,,,CAVOK,,,,,,,,VFR,,,,,,,,,,,,METAR,6.0
UMIO 060900Z 01005G08MPS 330V050 CAVOK 05/M08 Q1029 NOSIG RMK QFE754/1005,UMIO,2023-05-06T09:00:00Z,54.43,30.3,5.0,-8.0,10,10,16,6.21,30.383858,,,,,,TRUE,,,,,CAVOK,,,,,,,,VFR,,,,,,,,,,,,METAR,189.0
UMII 060900Z 01004G07MPS 9999 BKN043 05/M07 Q1028 NOSIG,UMII,2023-05-06T09:00:00Z,55.13,30.35,5.0,-7.0,10,8,14,6.21,30.35433,,,,,,TRUE,,,,,BKN,4300,,,,,,,VFR,,,,,,,,,,,,METAR,208.0
UMGG 060900Z 02005G08MPS CAVOK 09/M09 Q1027 NOSIG,UMGG,2023-05-06T09:00:00Z,52.53,31.02,9.0,-9.0,20,10,16,6.21,30.324802,,,,,,TRUE,,,,,CAVOK,,,,,,,,VFR,,,,,,,,,,,,METAR,135.0
UMBB 060900Z 11007G11MPS CAVOK 11/M04 Q1025 NOSIG,UMBB,2023-05-06T09:00:00Z,52.12,23.9,11.0,-4.0,110,14,21,6.21,30.265747,,,,,,TRUE,,,,,CAVOK,,,,,,,,VFR,,,,,,,,,,,,METAR,138.0
ULWC 060900Z 33004G09MPS 9999 BKN021CB 04/M04 Q1022 R21/010060 NOSIG RMK QFE756/1008,ULWC,2023-05-06T09:00:00Z,59.28,38.02,4.0,-4.0,330,8,17,6.21,30.177166,,,,,,TRUE,,,,,BKN,2100,,,,,,,MVFR,,,,,,,,,,,,METAR,113.0
ULPB 060900Z 35005MPS 310V060 9999 FEW015 SCT051CB 04/M06 Q1027 R01/09//60 NOSIG RMK QFE766/1021,ULPB,2023-05-06T09:00:00Z,61.88,34.15,4.0,-6.0,350,10,,6.21,30.324802,,,,,,TRUE,,,,,FEW,1500,SCT,5100,,,,,VFR,,,,,,,,,,,,METAR,41.0
ULOO 060900Z 30003MPS 230V020 9999 SCT046 05/M06 Q1030 R01/090060 NOSIG RMK QFE768,ULOO,2023-05-06T09:00:00Z,57.78,28.4,5.0,-6.0,300,6,,6.21,30.413385,,,,,,TRUE,,,,,SCT,4600,,,,,,,VFR,,,,,,,,,,,,METAR,46.0
ULMM 060900Z 30002MPS 200V360 9999 BKN026CB 04/M02 Q1026 R31/290052 NOSIG RMK QFE762,ULMM,2023-05-06T09:00:00Z,68.78,32.75,4.0,-2.0,300,4,,6.21,30.295275,,,,,,TRUE,,,,,BKN,2600,,,,,,,MVFR,,,,,,,,,,,,METAR,79.0
ULLI 060900Z 32006MPS 270V360 9999 BKN049 05/M09 Q1029 R88/090060 NOSIG,ULLI,2023-05-06T09:00:00Z,59.8,30.27,5.0,-9.0,320,12,,6.21,30.383858,,,,,,TRUE,,,,,BKN,4900,,,,,,,VFR,,,,,,,,,,,,METAR,25.0
UIUU 060900Z 32005MPS 270V360 9999 NSC 17/M08 Q1021 R26/CLRD60 NOSIG RMK QFE722/0962,UIUU,2023-05-06T09:00:00Z,51.8,107.45,17.0,-8.0,320,10,,6.21,30.147638,,,,,,TRUE,,,,,CLR,,,,,,,,VFR,,,,,,,,,,,,METAR,508.0
UIII 060900Z 35003MPS 280V040 CAVOK 19/M05 Q1022 R12/CLRD60 NOSIG RMK QFE723/0965,UIII,2023-05-06T09:00:00Z,52.27,104.37,19.0,-5.0,350,6,,6.21,30.177166,,,,,,TRUE,,,,,CAVOK,,,,,,,,VFR,,,,,,,,,,,,METAR,480.0
UIBB 060900Z 25006MPS 200V300 9999 SCT046 16/03 Q1017 WS R30 R30/290160 NOSIG RMK QFE720/0960,UIBB,2023-05-06T09:00:00Z,56.37,101.7,16.0,3.0,250,12,,6.21,30.029528,,,,,,TRUE,,,,,SCT,4600,,,,,,,VFR,,,,,,,,,,,,METAR,485.0
UIAA 060900Z 27008G13MPS 9999 NSC 15/M11 Q1018 R29/CLRD70 NOSIG RMK QFE705/0940,UIAA,2023-05-06T09:00:00Z,52.02,113.32,15.0,-11.0,270,16,25,6.21,30.059055,,,,,,TRUE,,,,,CLR,,,,,,,,VFR,,,,,,,,,,,,METAR,650.0
UHWW 060900Z 02003MPS 9999 NSC 18/M07 Q1012 R07R/0///70 NOSIG RMK QFE758,UHWW,2023-05-06T09:00:00Z,43.4,132.15,18.0,-7.0,20,6,,6.21,29.88189,,,,,,TRUE,,,,,CLR,,,,,,,,VFR,,,,,,,,,,,,METAR,11.0
UHSS 060900Z 20004MPS 9999 NSC 06/M01 Q1010 R19/70D NOSIG RMK QFE756/1008,UHSS,2023-05-06T09:00:00Z,46.88,142.72,6.0,-1.0,200,8,,6.21,29.822834,,,,,,TRUE,,,,,CLR,,,,,,,,VFR,,,,,,,,,,,,METAR,14.0
UHPP 060900Z 10003MPS 9999 BKN033CB BKN096 03/01 Q0999 R16R/290155 NOSIG RMK MT OBSC QFE746/0995,UHPP,2023-05-06T09:00:00Z,53.17,158.45,3.0,1.0,100,6,,6.21,29.498032,,,,,,TRUE,,,,,BKN,3300,BKN,9600,,,,,VFR,,,,,,,,,,,,METAR,33.0
UHMM 060900Z 24002MPS 220V290 9999 NSC 03/M03 Q1005 R10/70D NOSIG RMK QFE739 R28/27003MPS,UHMM,2023-05-06T09:00:00Z,59.92,150.72,3.0,-3.0,240,4,,6.21,29.675198,,,,,,TRUE,,,,,CLR,,,,,,,,VFR,,,,,,,,,,,,METAR,175.0
UHMA 060900Z 10002MPS 060V160 9999 VCFG FEW003 M04/M06 Q1014 R01/////// TEMPO 1000 BR VV002 RMK MID 10005MPS END R01/10008G11MPS MT OBSC QFE757/1009,UHMA,2023-05-06T09:00:00Z,64.73,177.73,-4.0,-6.0,100,4,,6.21,29.940945,,,,,,,,,,VCFG,FEW,300,,,,,,,VFR,,0.5,,,,,,,,,,METAR,53.0
UHHH 060900Z 27004MPS 240V300 9999 FEW040CB 13/M05 Q1011 R88/090060 NOSIG RMK QFE752/1003,UHHH,2023-05-06T09:00:00Z,48.52,135.18,13.0,-5.0,270,8,,6.21,29.852362,,,,,,TRUE,,,,,FEW,4000,,,,,,,VFR,,,,,,,,,,,,METAR,74.0
UHBB 060900Z 36004MPS 9999 SCT033 18/M10 Q1012 R36/090060 NOSIG RMK QFE741/0989,UHBB,2023-05-06T09:00:00Z,50.43,127.42,18.0,-10.0,360,8,,6.21,29.88189,,,,,,TRUE,,,,,SCT,3300,,,,,,,VFR,,,,,,,,,,,,METAR,185.0
UGTB 060900Z VRB06KT CAVOK 22/10 Q1016 NOSIG,UGTB,2023-05-06T09:00:00Z,41.67,44.95,22.0,10.0,0,6,,6.21,30.0,,,,,,TRUE,,,,,CAVOK,,,,,,,,VFR,,,,,,,,,,,,METAR,468.0
UGSB 060900Z 23011KT 9999 SCT010 17/14 Q1016 NOSIG,UGSB,2023-05-06T09:00:00Z,41.62,41.6,17.0,14.0,230,11,,6.21,30.0,,,,,,TRUE,,,,,SCT,1000,,,,,,,VFR,,,,,,,,,,,,METAR,32.0
UGMS 060900Z VRB02KT 9999 SCT100 20/M09 Q1017,UGMS,2023-05-06T09:00:00Z,43.05,42.75,20.0,-9.0,0,2,,6.21,30.029528,,,,,,,,,,,SCT,10000,,,,,,,VFR,,,,,,,,,,,,METAR,1442.0
UGKO 060900Z 26018KT CAVOK 19/13 Q1012 NOSIG,UGKO,2023-05-06T09:00:00Z,42.18,42.48,19.0,13.0,260,18,,6.21,29.88189,,,,,,TRUE,,,,,CAVOK,,,,,,,,VFR,,,,,,,,,,,,METAR,44.0
UGAM 060900Z AUTO 29008KT //// ////// 24/07 Q1012,UGAM,2023-05-06T09:00:00Z,42.53,43.13,24.0,7.0,290,8,,,29.88189,,,TRUE,,,,,,,,,,,,,,,,,,,,,,,,,,,,METAR,544.0
UERR 060900Z 25008MPS 9999 SCT023CB 05/01 Q1000 R25/290350 NOSIG RMK QFE719/0959,UERR,2023-05-06T09:00:00Z,62.53,114.05,5.0,1.0,250,16,,6.21,29.52756,,,,,,TRUE,,,,,SCT,2300,,,,,,,VFR,,,,,,,,,,,,METAR,352.0
UERP 060900Z 02003MPS 7000 -SHRASN BKN010CB OVC100 01/00 Q0994 NOSIG RMK QFE701,UERP,2023-05-06T09:00:00Z,66.4,112.03,1.0,0.0,20,6,,4.35,29.350393,,,,,,TRUE,,,,-SHRA -SHSN,BKN,1000,OVC,10000,,,,,MVFR,,,,,,,,,,,,METAR,514.0
UEEE 060900Z 26002MPS 9999 SCT050CB 13/M05 Q1004 R05/09//60 NOSIG RMK QFE745,UEEE,2023-05-06T09:00:00Z,62.08,129.77,13.0,-5.0,260,4,,6.21,29.64567,,,,,,TRUE,,,,,SCT,5000,,,,,,,VFR,,,,,,,,,,,,METAR,106.0
UDYZ 060900Z VRB01KT 9999 NSC 24/M00 Q1014 NOSIG,UDYZ,2023-05-06T09:00:00Z,40.15,44.4,24.0,0.0,0,1,,6.21,29.940945,,,,,,TRUE,,,,,CLR,,,,,,,,VFR,,,,,,,,,,,,METAR,851.0
UDSG 060900Z 30003KT 250V330 9999 FEW049 18/04 Q1018 NOSIG,UDSG,2023-05-06T09:00:00Z,40.75,43.87,18.0,4.0,300,3,,6.21,30.059055,,,,,,TRUE,,,,,FEW,4900,,,,,,,VFR,,,,,,,,,,,,METAR,1515.0
UCFO 060900Z 28008MPS 9000 FEW036CB 19/01 Q1013 TEMPO 27009G14MPS,UCFO,2023-05-06T09:00:00Z,40.6,72.8,19.0,1.0,280,16,,5.59,29.911417,,,,,,,,,,,FEW,3600,,,,,,,VFR,,,,,,,,,,,,METAR,881.0
UCFM 060900Z 05015MPS 9999 VCDS FEW008 23/M07 Q1011 NOSIG,UCFM,2023-05-06T09:00:00Z,43.07,74.48,23.0,-7.0,50,29,,6.21,29.852362,,,,,,TRUE,,,,VCDS,FEW,800,,,,,,,VFR,,,,,,,,,,,,METAR,632.0
UCFL 060900Z 13004MPS 100V160 9999 NSC 09/M05 Q1016,UCFL,2023-05-06T09:00:00Z,42.58,76.7,9.0,-5.0,130,8,,6.21,30.0,,,,,,,,,,,CLR,,,,,,,,VFR,,,,,,,,,,,,METAR,1654.0
UBEE 060900Z 14004KT CAVOK 24/07 Q1015 NOSIG,UBEE,2023-05-06T09:00:00Z,40.63,47.13,24.0,7.0,140,4,,6.21,29.970472,,,,,,TRUE,,,,,CAVOK,,,,,,,,VFR,,,,,,,,,,,,METAR,14.0
UBBZ 060900Z 04010KT 360V080 9999 FEW100 23/10 Q1015 NOSIG RMK MT OP,UBBZ,2023-05-06T09:00:00Z,39.1,46.73,23.0,10.0,40,10,,6.21,29.970472,,,,,,TRUE,,,,,FEW,10000,,,,,,,VFR,,,,,,,,,,,,METAR,489.0
UBBY 060900Z 35004KT 9999 FEW050 21/11 Q1018 NOSIG RMK MT OP,UBBY,2023-05-06T09:00:00Z,41.57,46.67,21.0,11.0,350,4,,6.21,30.059055,,,,,,TRUE,,,,,FEW,5000,,,,,,,VFR,,,,,,,,,,,,METAR,383.0
UBBQ 060900Z 26005KT 9999 NSC 23/07 Q1015 NOSIG RMK MT OP,UBBQ,2023-05-06T09:00:00Z,40.82,47.72,23.0,7.0,260,5,,6.21,29.970472,,,,,,TRUE,,,,,CLR,,,,,,,,VFR,,,,,,,,,,,,METAR,339.0
UBBL 060900Z 10005KT 9999 FEW050 21/14 Q1016 NOSIG RMK MT OP,UBBL,2023-05-06T09:00:00Z,38.75,48.82,21.0,14.0,100,5,,6.21,30.0,,,,,,TRUE,,,,,FEW,5000,,,,,,,VFR,,,,,,,,,,,,METAR,-11.0
UBBG 060900Z 10006KT 9999 SCT100 22/11 Q1015 NOSIG,UBBG,2023-05-06T09:00:00Z,40.73,46.32,22.0,11.0,100,6,,6.21,29.970472,,,,,,TRUE,,,,,SCT,10000,,,,,,,VFR,,,,,,,,,,,,METAR,333.0
UBBF 060900Z 05010KT 9999 NSC 22/08 Q1015 NOSIG RMK MT OP,UBBF,2023-05-06T09:00:00Z,39.6,47.2,22.0,8.0,50,10,,6.21,29.970472,,,,,,TRUE,,,,,CLR,,,,,,,,VFR,,,,,,,,,,,,METAR,370.0
UBBB 060900Z 06008KT 9999 SCT025 19/13 Q1016 NOSIG,UBBB,2023-05-06T09:00:00Z,40.47,50.07,19.0,13.0,60,8,,6.21,30.0,,,,,,TRUE,,,,,SCT,2500,,,,,,,VFR,,,,,,,,,,,,METAR,94.0
UAUU 060900Z 21006MPS CAVOK 26/M05 Q1022 NOSIG RMK QFE750/1000,UAUU,2023-05-06T09:00:00Z,53.2,63.55,26.0,-5.0,210,12,,6.21,30.177166,,,,,,TRUE,,,,,CAVOK,,,,,,,,VFR,,,,,,,,,,,,SPECI,177.0
UATT 060900Z 12007MPS CAVOK 23/M03 Q1017 NOSIG RMK QFE743/0991,UATT,2023-05-06T09:00:00Z,50.25,57.2,23.0,-3.0,120,14,,6.21,30.029528,,,,,,TRUE,,,,,CAVOK,,,,,,,,VFR,,,,,,,,,,,,METAR,217.0
UATG 060900Z 08002MPS CAVOK 24/M07 Q1015 NOSIG RMK QFE763/1017,UATG,2023-05-06T09:00:00Z,47.12,51.83,24.0,-7.0,80,4,,6.21,29.970472,,,,,,TRUE,,,,,CAVOK,,,,,,,,VFR,,,,,,,,,,,,METAR,-23.0
UATE 060900Z 29006MPS 260V320 9999 SCT011 15/12 Q1016 NOSIG RMK QFE760/1014,UATE,2023-05-06T09:00:00Z,43.87,51.1,15.0,12.0,290,12,,6.21,30.0,,,,,,TRUE,,,,,SCT,1100,,,,,,,VFR,,,,,,,,,,,,METAR,21.0
UASS 060900Z 33002MPS CAVOK 25/M01 Q1021 NOSIG RMK QFE745/0993,UASS,2023-05-06T09:00:00Z,50.35,80.23,25.0,-1.0,330,4,,6.21,30.147638,,,,,,TRUE,,,,,CAVOK,,,,,,,,VFR,,,,,,,,,,,,SPECI,215.0
UASP 060900Z 01003G08MPS CAVOK 26/M06 Q1023 NOSIG RMK QFE757/1009,UASP,2023-05-06T09:00:00Z,52.2,77.07,26.0,-6.0,10,6,16,6.21,30.206694,,,,,,TRUE,,,,,CAVOK,,,,,,,,VFR,,,,,,,,,,,,SPECI,122.0
UASK 060900Z 23004MPS 190V280 9999 NSC 22/M02 Q1021 NOSIG RMK QFE740/0987,UASK,2023-05-06T09:00:00Z,50.03,82.5,22.0,-2.0,230,8,,6.21,30.147638,,,,,,TRUE,,,,,CLR,,,,,,,,VFR,,,,,,,,,,,,METAR,285.0
UARR 060900Z 20006G11MPS 160V240 CAVOK 24/05 Q1015 NOSIG RMK QFE758/1011,UARR,2023-05-06T09:00:00Z,51.15,51.53,24.0,5.0,200,12,21,6.21,29.970472,,,,,,TRUE,,,,,CAVOK,,,,,,,,VFR,,,,,,,,,,,,METAR,33.0
UAOO 060900Z 13005MPS 100V160 CAVOK 25/M10 Q1013 NOSIG RMK QFE748/0998,UAOO,2023-05-06T09:00:00Z,44.7,65.6,25.0,-10.0,130,10,,6.21,29.911417,,,,,,TRUE,,,,,CAVOK,,,,,,,,VFR,,,,,,,,,,,,METAR,130.0
UAKK 060900Z 04006MPS 010V070 CAVOK 24/M03 Q1024 NOSIG RMK QFE720/0960,UAKK,2023-05-06T09:00:00Z,49.68,73.35,24.0,-3.0,40,12,,6.21,30.236221,,,,,,TRUE,,,,,CAVOK,,,,,,,,VFR,,,,,,,,,,,,SPECI,532.0
UAKD 060900Z 12011G16MPS CAVOK 24/M01 Q1020 NOSIG RMK QFE731/0975,UAKD,2023-05-06T09:00:00Z,47.7,67.73,24.0,-1.0,120,21,31,6.21,30.11811,,,,,,TRUE,,,,,CAVOK,,,,,,,,VFR,,,,,,,,,,,,SPECI,379.0
UAIT 060900Z 01003MPS 300V080 9999 SCT046 22/M01 Q1014 NOSIG RMK QFE736/0981,UAIT,2023-05-06T09:00:00Z,43.32,68.55,22.0,-1.0,10,6,,6.21,29.940945,,,,,,TRUE,,,,,SCT,4600,,,,,,,VFR,,,,,,,,,,,,METAR,301.0
UAII 060900Z 29005MPS 9999 BKN050CB 20/06 Q1017 NOSIG RMK QFE725/0967,UAII,2023-05-06T09:00:00Z,42.37,69.48,20.0,6.0,290,10,,6.21,30.029528,,,,,,TRUE,,,,,BKN,5000,,,,,,,VFR,,,,,,,,,,,,SPECI,410.0
UADD 060900Z 29005MPS 240V340 9999 NSC 21/M04 Q1015 NOSIG RMK QFE703/0938,UADD,2023-05-06T09:00:00Z,42.85,71.3,21.0,-4.0,290,10,,6.21,29.970472,,,,,,TRUE,,,,,CLR,,,,,,,,VFR,,,,,,,,,,,,SPECI,663.0
UACP 060900Z 24004MPS 190V280 CAVOK 25/M06 Q1023 NOSIG RMK QFE755/1006,UACP,2023-05-06T09:00:00Z,54.78,69.18,25.0,-6.0,240,8,,6.21,30.206694,,,,,,TRUE,,,,,CAVOK,,,,,,,,VFR,,,,,,,,,,,,SPECI,134.0
UACK 060900Z 26003MPS 160V330 CAVOK 25/M07 Q1024 NOSIG RMK QFE744/0992,UACK,2023-05-06T09:00:00Z,53.32,69.58,25.0,-7.0,260,6,,6.21,30.236221,,,,,,TRUE,,,,,CAVOK,,,,,,,,VFR,,,,,,,,,,,,METAR,261.0
UACC 060900Z 07002MPS CAVOK 24/M01 Q1024 WS R04 NOSIG RMK QFE736/0982,UACC,2023-05-06T09:00:00Z,51.02,71.47,24.0,-1.0,70,4,,6.21,30.236221,,,,,,TRUE,,,,,CAVOK,,,,,,,,VFR,,,,,,,,,,,,METAR,354.0
UAAT 060900Z 02008MPS 9999 NSC 19/M04 Q1018 NOSIG RMK QFE712/0949,UAAT,2023-05-06T09:00:00Z,45.12,78.45,19.0,-4.0,20,16,,6.21,30.059055,,,,,,TRUE,,,,,CLR,,,,,,,,VFR,,,,,,,,,,,,METAR,588.0
UAAH 060900Z 10010MPS CAVOK 24/M01 Q1020 NOSIG RMK QFE728/0970,UAAH,2023-05-06T09:00:00Z,46.9,75.0,24.0,-1.0,100,19,,6.21,30.11811,,,,,,TRUE,,,,,CAVOK,,,,,,,,VFR,,,,,,,,,,,,SPECI,427.0
UAAA 060900Z 02007MPS 340V080 9999 NSC 18/M06 Q1017 NOSIG,UAAA,2023-05-06T09:00:00Z,43.35,77.03,18.0,-6.0,20,14,,6.21,30.029528,,,,,,TRUE,,,,,CLR,,,,,,,,VFR,,,,,,,,,,,,METAR,673.0
TTPP 060900Z 70000KT 9999 FEW016 26/22 Q1014 NOSIG,TTPP,2023-05-06T09:00:00Z,10.58,-61.35,26.0,22.0,,,,6.21,29.940945,,,,,,TRUE,,,,,FEW,1600,,,,,,,VFR,,,,,,,,,0.005,,,SPECI,11.0
TTCP 060900Z 07005KT 9999 FEW016 26/22 Q1014 NOSIG,TTCP,2023-05-06T09:00:00Z,11.15,-60.85,26.0,22.0,70,5,,6.21,29.940945,,,,,,TRUE,,,,,FEW,1600,,,,,,,VFR,,,,,,,,,,,,METAR,13.0
TNCM 060900Z 08005KT 050V120 9999 FEW017 26/22 Q1017 ,TNCM,2023-05-06T09:00:00Z,18.05,-63.12,26.0,22.0,80,5,,6.21,30.029528,,,,,,,,,,,FEW,1700,,,,,,,VFR,,,,,,,,,,,,METAR,9.0
TNCC 060900Z 11014KT 9999 FEW020 27/23 Q1013 NOSIG,TNCC,2023-05-06T09:00:00Z,12.2,-68.97,27.0,23.0,110,14,,6.21,29.911417,,,,,,TRUE,,,,,FEW,2000,,,,,,,VFR,,,,,,,,,,,,METAR,10.0
TNCA 060900Z 11013KT 9999 FEW018 27/23 Q1011 NOSIG,TNCA,2023-05-06T09:00:00Z,12.5,-70.0,27.0,23.0,110,13,,6.21,29.852362,,,,,,TRUE,,,,,FEW,1800,,,,,,,VFR,,,,,,,,,,,,METAR,7.0
TLPL 060900Z 10017KT 9999 FEW026 26/21 Q1015 NOSIG,TLPL,2023-05-06T09:00:00Z,13.75,-60.95,26.0,21.0,100,17,,6.21,29.970472,,,,,,TRUE,,,,,FEW,2600,,,,,,,VFR,,,,,,,,,,,,METAR,13.0
TGPY 060900Z 06010KT 9999 FEW018 27/23 Q1014 NOSIG,TGPY,2023-05-06T09:00:00Z,12.0,-61.78,27.0,23.0,60,10,,6.21,29.940945,,,,,,TRUE,,,,,FEW,1800,,,,,,,VFR,,,,,,,,,,,,METAR,12.0
TFFR 060900Z AUTO 31003KT CAVOK 22/21 Q1016 NOSIG,TFFR,2023-05-06T09:00:00Z,16.27,-61.53,22.0,21.0,310,3,,6.21,30.0,,,TRUE,,,TRUE,,,,,CAVOK,,,,,,,,VFR,,,,,,,,,,,,METAR,6.0
TFFF 060900Z AUTO 07003KT CAVOK 24/21 Q1015 TEMPO SCT020TCU,TFFF,2023-05-06T09:00:00Z,14.6,-61.0,24.0,21.0,70,3,,6.21,29.970472,,,TRUE,,,,,,,,CAVOK,,,,,,,,VFR,,,,,,,,,,,,METAR,3.0
TBPB 060900Z 09009KT 9999 FEW018 26/22 Q1014 NOSIG,TBPB,2023-05-06T09:00:00Z,13.07,-59.48,26.0,22.0,90,9,,6.21,29.940945,,,,,,TRUE,,,,,FEW,1800,,,,,,,VFR,,,,,,,,,,,,METAR,55.0
TAPA 060900Z 12005KT 070V170 9999 FEW020 25/21 Q1016 NOSIG,TAPA,2023-05-06T09:00:00Z,17.13,-61.78,25.0,21.0,120,5,,6.21,30.0,,,,,,TRUE,,,,,FEW,2000,,,,,,,VFR,,,,,,,,,,,,METAR,15.0
SYCJ 060900Z 04004KT 9999 FEW014 BKN034 25/24 Q1012 NOSIG,SYCJ,2023-05-06T09:00:00Z,6.5,-58.25,25.0,24.0,40,4,,6.21,29.88189,,,,,,TRUE,,,,,FEW,1400,BKN,3400,,,,,VFR,,,,,,,,,,,,METAR,30.0
SUMU 060900Z 10014KT 9999 BKN011 OVC070 18/17 Q1016 TEMPO RA BR,SUMU,2023-05-06T09:00:00Z,-34.83,-56.02,18.0,17.0,100,14,,6.21,30.0,,,,,,,,,,,BKN,1100,OVC,7000,,,,,MVFR,,,,,,,,,,,,METAR,32.0
SULS 060900Z 09011KT 4000 RA BR SCT008 OVC015 18/17 Q1017,SULS,2023-05-06T09:00:00Z,-34.87,-55.1,18.0,17.0,90,11,,2.49,30.029528,,,,,,,,,,RA BR,SCT,800,OVC,1500,,,,,IFR,,,,,,,,,,,,METAR,22.0
SPUR 060900Z VRB02KT CAVOK 24/21 Q1009 RMK PP000,SPUR,2023-05-06T09:00:00Z,-5.17,-80.58,24.0,21.0,0,2,,6.21,29.793306,,,,,,,,,,,CAVOK,,,,,,,,VFR,,,,,,,,,,,,SPECI,55.0
SPSO 060900Z 00000KT 5000 BR NSC 18/16 Q1010 RMK PP000,SPSO,2023-05-06T09:00:00Z,-13.73,-76.22,18.0,16.0,0,0,,3.11,29.822834,,,,,,,,,,BR,CLR,,,,,,,,MVFR,,,,,,,,,,,,METAR,8.0
SPRU 060900Z 08004KT 8000 VCFG NSC 22/20 Q1010 RMK PP000,SPRU,2023-05-06T09:00:00Z,-8.08,-79.12,22.0,20.0,80,4,,4.97,29.822834,,,,,,,,,,VCFG,CLR,,,,,,,,MVFR,,,,,,,,,,,,SPECI,23.0
SPQT 060900Z 15007KT 110V190 8000 -RA FEW005 SCT012 OVC100 24/23 Q1011 TEMPO 4000 RA RMK PP034,SPQT,2023-05-06T09:00:00Z,-3.78,-73.32,24.0,23.0,150,7,,4.97,29.852362,,,,,,,,,,-RA,FEW,500,SCT,1200,OVC,10000,,,MVFR,,,,,,,,,,,,METAR,92.0
SPJC 060900Z 14006KT 9999 OVC019 21/17 Q1010 NOSIG RMK PP000,SPJC,2023-05-06T09:00:00Z,-12.02,-77.12,21.0,17.0,140,6,,6.21,29.822834,,,,,,TRUE,,,,,OVC,1900,,,,,,,MVFR,,,,,,,,,,,,METAR,26.0
SPHI 060900Z 17006KT CAVOK 23/19 Q1009 RMK BIRD HAZARD RWY 19/01 PP000,SPHI,2023-05-06T09:00:00Z,-6.78,-79.82,23.0,19.0,170,6,,6.21,29.793306,,,,,,,,,,,CAVOK,,,,,,,,VFR,,,,,,,,,,,,SPECI,33.0
SOCA 060900Z AUTO VRB01KT 9999 BKN019/// BKN024/// BKN030/// ///TCU 25/24 Q1012 TEMPO 2000 SHRA,SOCA,2023-05-06T09:00:00Z,4.82,-52.37,25.0,24.0,0,1,,6.21,29.88189,,,TRUE,,,,,,,,BKN,1900,BKN,2400,BKN,3000,,,MVFR,,,,,,,,,,,,METAR,7.0
SMZO 060900Z 04003KT 9999 FEW010 SCT020 24/23 Q1012 NOSIG,SMZO,2023-05-06T09:00:00Z,5.82,-55.18,24.0,23.0,40,3,,6.21,29.88189,,,,,,TRUE,,,,,FEW,1000,SCT,2000,,,,,VFR,,,,,,,,,,,,METAR,7.0
SMJP 060900Z 09001KT 9999 FEW008 24/24 Q1012 NOSIG,SMJP,2023-05-06T09:00:00Z,5.45,-55.18,24.0,24.0,90,1,,6.21,29.88189,,,,,,TRUE,,,,,FEW,800,,,,,,,VFR,,,,,,,,,,,,METAR,14.0
SLVR 060900Z 17009KT 9000 -RA FEW007 BKN027 16/14 Q1017,SLVR,2023-05-06T09:00:00Z,-17.63,-63.13,16.0,14.0,170,9,,5.59,30.029528,,,,,,,,,,-RA,FEW,700,BKN,2700,,,,,MVFR,,,,,,,,,,,,METAR,377.0
SLLP 060900Z VRB02KT 4000E VCFG FEW002 SCT010 BKN070 03/03 Q1037,SLLP,2023-05-06T09:00:00Z,-16.52,-68.17,3.0,3.0,0,2,,2.49,30.620079,,,,,,,,,,VCFG,FEW,200,SCT,1000,BKN,7000,,,IFR,,,,,,,,,,,,METAR,4061.0
SLCB 060900Z 00000KT 9000 -RA SCT010 SCT025 OVC070 11/11 Q1027,SLCB,2023-05-06T09:00:00Z,-17.42,-66.18,11.0,11.0,0,0,,5.59,30.324802,,,,,,,,,,-RA,SCT,1000,SCT,2500,OVC,7000,,,VFR,,,,,,,,,,,,METAR,2560.0
SKSP 060900Z 05011KT 9999 FEW017 28/23 Q1012 RMK A2988,SKSP,2023-05-06T09:00:00Z,12.58,-81.72,28.0,23.0,50,11,,6.21,29.88189,,,,,,,,,,,FEW,1700,,,,,,,VFR,,,,,,,,,,,,METAR,6.0
SKRG 060900Z VRB02KT 8000 VCFG BKN008 SCT080 15/15 Q1023 NOSIG RMK VCSH/S A3023,SKRG,2023-05-06T09:00:00Z,6.17,-75.42,15.0,15.0,0,2,,4.97,30.206694,,,,,,TRUE,,,,VCFG,BKN,800,SCT,8000,,,,,IFR,,,,,,,,,,,,METAR,2132.0
SKLT 060900Z 00000KT 9999 FEW010 SCT080 24/24 Q1011 RMK A2987,SKLT,2023-05-06T09:00:00Z,-4.2,-69.93,24.0,24.0,0,0,,6.21,29.852362,,,,,,,,,,,FEW,1000,SCT,8000,,,,,VFR,,,,,,,,,,,,METAR,78.0
SKCL 060900Z 11004KT 9999 SCT030 BKN200 20/19 Q1013 NOSIG RMK A2993,SKCL,2023-05-06T09:00:00Z,3.53,-76.37,20.0,19.0,110,4,,6.21,29.911417,,,,,,TRUE,,,,,SCT,3000,BKN,20000,,,,,VFR,,,,,,,,,,,,METAR,967.0
SKCG 060900Z 08004KT 340V050 9999 FEW017 27/25 Q1006 RMK A2973,SKCG,2023-05-06T09:00:00Z,10.43,-75.52,27.0,25.0,80,4,,6.21,29.704725,,,,,,,,,,,FEW,1700,,,,,,,VFR,,,,,,,,,,,,METAR,6.0
SKBQ 060900Z 04009KT 7000 VCFG FEW012 27/24 Q1007 NOSIG RMK A2975,SKBQ,2023-05-06T09:00:00Z,10.87,-74.77,27.0,24.0,40,9,,4.35,29.734253,,,,,,TRUE,,,,VCFG,FEW,1200,,,,,,,MVFR,,,,,,,,,,,,METAR,23.0
SKBO 060900Z VRB02KT 9999 FEW020 SCT070 10/08 Q1026 NOSIG RMK A3031,SKBO,2023-05-06T09:00:00Z,4.7,-74.15,10.0,8.0,0,2,,6.21,30.295275,,,,,,TRUE,,,,,FEW,2000,SCT,7000,,,,,VFR,,,,,,,,,,,,METAR,2547.0
SGES 060900Z 06004KT 0500 FG OVC002 22/22Q1016,SGES,2023-05-06T09:00:00Z,-25.45,-54.85,,,60,4,,0.31,30.0,,,,,,,,,,FG,OVC,200,,,,,,,LIFR,,,,,,,,,,,,SPECI,256.0
SGEN 060900Z 00000KT 9000 SCT020 BKN050 22/19 Q1015,SGEN,2023-05-06T09:00:00Z,-27.23,-55.83,22.0,19.0,0,0,,5.59,29.970472,,,,,,,,,,,SCT,2000,BKN,5000,,,,,VFR,,,,,,,,,,,,METAR,202.0
SGCO 060900Z 18002KT 9999 OVC007 18/18Q1016,SGCO,2023-05-06T09:00:00Z,-23.43,-57.42,,,180,2,,6.21,30.0,,,,,,,,,,,OVC,700,,,,,,,IFR,,,,,,,,,,,,METAR,74.0
SGAS 060900Z 00000KT 9999 OVC006 18/18 Q1016,SGAS,2023-05-06T09:00:00Z,-25.25,-57.52,18.0,18.0,0,0,,6.21,30.0,,,,,,,,,,,OVC,600,,,,,,,IFR,,,,,,,,,,,,METAR,83.0
SEQM 060900Z 00000KT 9999 FEW030 BKN100 11/09 Q1025 NOSIG RMK A3028,SEQM,2023-05-06T09:00:00Z,-0.12,-78.35,11.0,9.0,0,0,,6.21,30.265747,,,,,,TRUE,,,,,FEW,3000,BKN,10000,,,,,VFR,,,,,,,,,,,,METAR,2386.0
SEGU 060900Z 02004KT 9999 FEW026 BKN100 27/25 Q1008 NOSIG RMK A2977,SEGU,2023-05-06T09:00:00Z,-2.15,-79.88,27.0,25.0,20,4,,6.21,29.763779,,,,,,TRUE,,,,,FEW,2600,BKN,10000,,,,,VFR,,,,,,,,,,,,METAR,6.0
SCVM 060900Z 01004KT 300V060 8000 BKN016 09/08 Q1014,SCVM,2023-05-06T09:00:00Z,-32.95,-71.48,9.0,8.0,10,4,,4.97,29.940945,,,,,,,,,,,BKN,1600,,,,,,,MVFR,,,,,,,,,,,,METAR,136.0
SCVD 060900Z AUTO VRB01KT 8000 R35///// FEW007 OVC011 10/10 Q1015,SCVD,2023-05-06T09:00:00Z,-39.65,-73.08,10.0,10.0,0,1,,4.97,29.970472,,,TRUE,,,,,,,,FEW,700,OVC,1100,,,,,MVFR,,,,,,,,,,,,METAR,19.0
SCTN 060900Z AUTO 14003KT 100V170 5000 BKN004 OVC011 10/10 Q1017,SCTN,2023-05-06T09:00:00Z,-42.92,-72.7,10.0,10.0,140,3,,3.11,30.029528,,,TRUE,,,,,,,,BKN,400,OVC,1100,,,,,LIFR,,,,,,,,,,,,METAR,8.0
SCTE 060900Z 19007KT 5000 BR SCT002 BKN004 OVC007 09/09 Q1017 NOSIG,SCTE,2023-05-06T09:00:00Z,-41.43,-73.08,9.0,9.0,190,7,,3.11,30.029528,,,,,,TRUE,,,,BR,SCT,200,BKN,400,OVC,700,,,LIFR,,,,,,,,,,,,METAR,85.0
SCSN 060900Z AUTO 36003KT 330V030 //// R/////// // OVC002 09/09 Q1013,SCSN,2023-05-06T09:00:00Z,-33.65,-71.62,9.0,9.0,360,3,,,29.911417,,,TRUE,,,,,,,,OVC,200,,,,,,,,,,,,,,,,,,,METAR,73.0
SCSE 060900Z AUTO 16003KT CAVOK 09/07 Q1014,SCSE,2023-05-06T09:00:00Z,-29.92,-71.2,9.0,7.0,160,3,,6.21,29.940945,,,TRUE,,,,,,,,CAVOK,,,,,,,,VFR,,,,,,,,,,,,METAR,141.0
SCRM 060900Z 10037KT 0100 BLSN VV002 M08/M10 Q0967 NOSIG,SCRM,2023-05-06T09:00:00Z,-62.18,-58.98,-8.0,-10.0,100,37,,0.06,28.55315,,,,,,TRUE,,,,BLSN,OVX,0,,,,,,,LIFR,,,,,,,,,,,200,METAR,45.0
SCQP 060900Z 00000KT 0400 R01/0550N FG VV001 04/04 Q1013,SCQP,2023-05-06T09:00:00Z,-38.92,-72.65,4.0,4.0,0,0,,0.25,29.911417,,,,,,,,,,FG,OVX,0,,,,,,,LIFR,,,,,,,,,,,100,METAR,97.0
SCPQ 060900Z AUTO 00000KT 0600 R35/0700U -SHRA FG VV001 08/08 Q1017,SCPQ,2023-05-06T09:00:00Z,-42.33,-73.72,8.0,8.0,0,0,,0.37,30.029528,,,TRUE,,,,,,,-SHRA FG,OVX,0,,,,,,,LIFR,,,,,,,,,,,100,METAR,166.0
SCPD 060900Z AUTO 32004KT 270V010 //// ///////// 05/M03 Q1012,SCPD,2023-05-06T09:00:00Z,,,5.0,-3.0,320,4,,,29.88189,,,TRUE,,,,,,,,,,,,,,,,,,,,,,,,,,,,METAR,
SCON 060900Z AUTO VRB01KT 5000 BR SCT040/// 06/06 Q1017,SCON,2023-05-06T09:00:00Z,-43.13,-73.62,6.0,6.0,0,1,,3.11,30.029528,,,TRUE,,,,,,,BR,SCT,4000,,,,,,,MVFR,,,,,,,,,,,,METAR,11.0
SCMK 060900Z AUTO VRB02KT //// // BKN002/// OVC004/// 09/09 Q1016,SCMK,2023-05-06T09:00:00Z,-43.9,-73.73,9.0,9.0,0,2,,,30.0,,,TRUE,,,,,,,,BKN,200,OVC,400,,,,,,,,,,,,,,,,,METAR,22.0
SCIP 060900Z 08003KT 040V110 CAVOK 21/18 Q1019 NOSIG,SCIP,2023-05-06T09:00:00Z,-27.17,-109.43,21.0,18.0,80,3,,6.21,30.088583,,,,,,TRUE,,,,,CAVOK,,,,,,,,VFR,,,,,,,,,,,,METAR,48.0
SCIE 060900Z 22003KT 7000 OVC007 12/11 Q1013,SCIE,2023-05-06T09:00:00Z,-36.77,-73.07,12.0,11.0,220,3,,4.35,29.911417,,,,,,,,,,,OVC,700,,,,,,,IFR,,,,,,,,,,,,METAR,8.0
SCIC 060900Z AUTO 00000KT //// R/////// // VV001 06/06 Q1011,SCIC,2023-05-06T09:00:00Z,-34.97,-71.22,6.0,6.0,0,0,,,29.852362,,,TRUE,,,,,,,,OVX,0,,,,,,,LIFR,,,,,,,,,,,100,METAR,230.0
SCHR 060900Z AUTO VRB04KT CAVOK 15/06 Q1002,SCHR,2023-05-06T09:00:00Z,-47.23,-72.58,15.0,6.0,0,4,,6.21,29.586615,,,TRUE,,,,,,,,CAVOK,,,,,,,,VFR,,,,,,,,,,,,METAR,203.0
SCFA 060900Z 12003KT CAVOK 11/07 Q1013 NOSIG,SCFA,2023-05-06T09:00:00Z,-23.43,-70.43,11.0,7.0,120,3,,6.21,29.911417,,,,,,TRUE,,,,,CAVOK,,,,,,,,VFR,,,,,,,,,,,,METAR,113.0
SCEL 060900Z 00000KT 1500 R17L/0800V1500N R17R/0800V1500N BR SCT005 03/03 Q1011 NOSIG,SCEL,2023-05-06T09:00:00Z,-33.38,-70.78,3.0,3.0,0,0,,0.93,29.852362,,,,,,TRUE,,,,BR,SCT,500,,,,,,,LIFR,,,,,,,,,,,,METAR,478.0
SCDA 060900Z 10002KT 9999 OVC034 17/10 Q1012,SCDA,2023-05-06T09:00:00Z,-20.53,-70.17,17.0,10.0,100,2,,6.21,29.88189,,,,,,,,,,,OVC,3400,,,,,,,VFR,,,,,,,,,,,,METAR,41.0
SCCY 060900Z AUTO 07008KT 030V120 9999 OVC044 13/06 Q1010,SCCY,2023-05-06T09:00:00Z,-45.58,-72.1,13.0,6.0,70,8,,6.21,29.822834,,,TRUE,,,,,,,,OVC,4400,,,,,,,VFR,,,,,,,,,,,,METAR,301.0
SCCI 060900Z 29010KT 9999 FEW013 04/03 Q0996 NOSIG,SCCI,2023-05-06T09:00:00Z,-53.0,-70.85,4.0,3.0,290,10,,6.21,29.409449,,,,,,TRUE,,,,,FEW,1300,,,,,,,VFR,,,,,,,,,,,,METAR,37.0
SCAT 060900Z AUTO 08007KT 9999 OVC021/// 12/09 Q1014,SCAT,2023-05-06T09:00:00Z,-27.27,-70.77,12.0,9.0,80,7,,6.21,29.940945,,,TRUE,,,,,,,,OVC,2100,,,,,,,MVFR,,,,,,,,,,,,METAR,209.0
SCAR 060900Z 18005KT 9999 OVC028 18/15 Q1012,SCAR,2023-05-06T09:00:00Z,-18.35,-70.33,18.0,15.0,180,5,,6.21,29.88189,,,,,,,,,,,OVC,2800,,,,,,,MVFR,,,,,,,,,,,,METAR,57.0
SCAP 060900Z AUTO VRB02KT 9999 ////// 08/07 Q1018,SCAP,2023-05-06T09:00:00Z,-43.62,-71.8,8.0,7.0,0,2,,6.21,30.059055,,,TRUE,,,,,,,,,,,,,,,,,,,,,,,,,,,,METAR,252.0
SBYS 060900Z 21002KT CAVOK 14/14 Q1020,SBYS,2023-05-06T09:00:00Z,-21.97,-47.33,14.0,14.0,210,2,,6.21,30.11811,,,,,,,,,,,CAVOK,,,,,,,,VFR,,,,,,,,,,,,METAR,600.0
SBVT 060900Z 29003KT 9999 SCT020 BKN040 21/20 Q1018,SBVT,2023-05-06T09:00:00Z,-20.25,-40.28,21.0,20.0,290,3,,6.21,30.059055,,,,,,,,,,,SCT,2000,BKN,4000,,,,,VFR,,,,,,,,,,,,METAR,4.0
SBUR 060900Z 05005KT CAVOK 20/14 Q1020,SBUR,2023-05-06T09:00:00Z,-19.77,-47.97,20.0,14.0,50,5,,6.21,30.11811,,,,,,,,,,,CAVOK,,,,,,,,VFR,,,,,,,,,,,,METAR,807.0
SBUL 060900Z 10007KT CAVOK 18/13 Q1021,SBUL,2023-05-06T09:00:00Z,-18.87,-48.22,18.0,13.0,100,7,,6.21,30.147638,,,,,,,,,,,CAVOK,,,,,,,,VFR,,,,,,,,,,,,METAR,945.0
SBTU 060900Z AUTO 23004KT 9999 // FEW030/// 23/23 Q1013,SBTU,2023-05-06T09:00:00Z,-3.78,-49.72,23.0,23.0,230,4,,6.21,29.911417,,,TRUE,,,,,,,,FEW,3000,,,,,,,VFR,,,,,,,,,,,,SPECI,250.0
SBTE 060900Z 00000KT CAVOK 24/23 Q1011,SBTE,2023-05-06T09:00:00Z,-5.05,-42.82,24.0,23.0,0,0,,6.21,29.852362,,,,,,,,,,,CAVOK,,,,,,,,VFR,,,,,,,,,,,,METAR,60.0
SBTA 060900Z VRB03KT 4000 BR BKN010 OVC018 20/18 Q1021,SBTA,2023-05-06T09:00:00Z,-23.03,-45.5,20.0,18.0,0,3,,2.49,30.147638,,,,,,,,,,BR,BKN,1000,OVC,1800,,,,,IFR,,,,,,,,,,,,METAR,578.0
SBSV 060900Z 28003KT 9999 SCT020 24/23 Q1015,SBSV,2023-05-06T09:00:00Z,-12.9,-38.32,24.0,23.0,280,3,,6.21,29.970472,,,,,,,,,,,SCT,2000,,,,,,,VFR,,,,,,,,,,,,METAR,9.0
SBSR 060900Z 00000KT CAVOK 21/15 Q1018,SBSR,2023-05-06T09:00:00Z,-20.8,-49.4,21.0,15.0,0,0,,6.21,30.059055,,,,,,,,,,,CAVOK,,,,,,,,VFR,,,,,,,,,,,,METAR,537.0
SBSP 060900Z 13005KT 9000 OVC013 19/17 Q1022,SBSP,2023-05-06T09:00:00Z,-23.62,-46.65,19.0,17.0,130,5,,5.59,30.177166,,,,,,,,,,,OVC,1300,,,,,,,MVFR,,,,,,,,,,,,METAR,802.0
SBSN 060900Z 17003KT 9999 FEW015 SCT100 24/24 Q1011,SBSN,2023-05-06T09:00:00Z,-2.42,-54.78,24.0,24.0,170,3,,6.21,29.852362,,,,,,,,,,,FEW,1500,SCT,10000,,,,,VFR,,,,,,,,,,,,METAR,57.0
SBSM 060900Z 10007KT 070V130 3000 BR OVC002 20/20 Q1016,SBSM,2023-05-06T09:00:00Z,-29.72,-53.7,20.0,20.0,100,7,,1.86,30.0,,,,,,,,,,BR,OVC,200,,,,,,,LIFR,,,,,,,,,,,,METAR,86.0
SBSL 060900Z 10003KT CAVOK 27/26 Q1011,SBSL,2023-05-06T09:00:00Z,-2.58,-44.23,27.0,26.0,100,3,,6.21,29.852362,,,,,,,,,,,CAVOK,,,,,,,,VFR,,,,,,,,,,,,METAR,53.0
SBSJ 060900Z 09002KT 9999 BKN017 20/18 Q1021,SBSJ,2023-05-06T09:00:00Z,-23.22,-45.87,20.0,18.0,90,2,,6.21,30.147638,,,,,,,,,,,BKN,1700,,,,,,,MVFR,,,,,,,,,,,,METAR,640.0
SBSG 060900Z 18004KT 140V220 9000 VCSH SCT010 BKN018 FEW020TCU 24/23 Q1012,SBSG,2023-05-06T09:00:00Z,-5.77,-35.37,24.0,23.0,180,4,,5.59,29.88189,,,,,,,,,,VCSH,SCT,1000,BKN,1800,FEW,2000,,,MVFR,,,,,,,,,,,,METAR,83.0
SBSC 060900Z 03002KT 4000 BR SCT010 21/21 Q1019,SBSC,2023-05-06T09:00:00Z,-22.92,-43.72,21.0,21.0,30,2,,2.49,30.088583,,,,,,,,,,BR,SCT,1000,,,,,,,IFR,,,,,,,,,,,,METAR,6.0
SBRP 060900Z 11006KT CAVOK 17/15 Q1018,SBRP,2023-05-06T09:00:00Z,-21.13,-47.77,17.0,15.0,110,6,,6.21,30.059055,,,,,,,,,,,CAVOK,,,,,,,,VFR,,,,,,,,,,,,METAR,550.0
SBRJ 060900Z 18006KT 9999 FEW010 SCT020 22/21 Q1018,SBRJ,2023-05-06T09:00:00Z,-22.9,-43.17,22.0,21.0,180,6,,6.21,30.059055,,,,,,,,,,,FEW,1000,SCT,2000,,,,,VFR,,,,,,,,,,,,METAR,6.0
SBRF 060900Z 12007KT 9999 SCT023 28/22 Q1013,SBRF,2023-05-06T09:00:00Z,-8.13,-34.92,28.0,22.0,120,7,,6.21,29.911417,,,,,,,,,,,SCT,2300,,,,,,,VFR,,,,,,,,,,,,METAR,10.0
SBRB 060900Z 10002KT 8000 SCT001 22/22 Q1013,SBRB,2023-05-06T09:00:00Z,-9.87,-67.88,22.0,22.0,100,2,,4.97,29.911417,,,,,,,,,,,SCT,100,,,,,,,MVFR,,,,,,,,,,,,METAR,190.0
SBPV 060900Z 00000KT 9999 FEW010 24/23 Q1012,SBPV,2023-05-06T09:00:00Z,-8.72,-63.9,24.0,23.0,0,0,,6.21,29.88189,,,,,,,,,,,FEW,1000,,,,,,,VFR,,,,,,,,,,,,METAR,89.0
SBPS 060900Z 24005KT 9999 SCT020 22/21 Q1016,SBPS,2023-05-06T09:00:00Z,-16.43,-39.07,22.0,21.0,240,5,,6.21,30.0,,,,,,,,,,,SCT,2000,,,,,,,VFR,,,,,,,,,,,,METAR,44.0
SBPL 060900Z 17005KT 9999 BKN020 25/21 Q1016,SBPL,2023-05-06T09:00:00Z,-9.37,-40.57,25.0,21.0,170,5,,6.21,30.0,,,,,,,,,,,BKN,2000,,,,,,,MVFR,,,,,,,,,,,,METAR,386.0
SBPK 060900Z 05008KT 5000 -RA BKN005 SCT020 19/19 Q1015 RETSRA,SBPK,2023-05-06T09:00:00Z,-31.72,-52.33,19.0,19.0,50,8,,3.11,29.970472,,,,,,,,,,-RA,BKN,500,SCT,2000,,,,,IFR,,,,,,,,,,,,METAR,17.0
SBPJ 060900Z 00000KT 9999 FEW010 24/23 Q1014,SBPJ,2023-05-06T09:00:00Z,-10.28,-48.37,24.0,23.0,0,0,,6.21,29.940945,,,,,,,,,,,FEW,1000,,,,,,,VFR,,,,,,,,,,,,METAR,226.0
SBPA 060900Z 18007KT 130V240 9999 SCT009 BKN043 21/20 Q1017,SBPA,2023-05-06T09:00:00Z,-30.0,-51.17,21.0,20.0,180,7,,6.21,30.029528,,,,,,,,,,,SCT,900,BKN,4300,,,,,VFR,,,,,,,,,,,,METAR,3.0
SBNT 060900Z 18004KT 9999 SCT021 FEW030TCU BKN050 24/24 Q1012 RERA,SBNT,2023-05-06T09:00:00Z,-5.92,-35.25,24.0,24.0,180,4,,6.21,29.88189,,,,,,,,,,,SCT,2100,FEW,3000,BKN,5000,,,VFR,,,,,,,,,,,,METAR,51.0
SBNF 060900Z 05007KT 9999 SCT010 BKN045 24/23 Q1018,SBNF,2023-05-06T09:00:00Z,-26.88,-48.65,24.0,23.0,50,7,,6.21,30.059055,,,,,,,,,,,SCT,1000,BKN,4500,,,,,VFR,,,,,,,,,,,,METAR,5.0
SBMT 060900Z 09005KT 9999 OVC014 19/19 Q1021,SBMT,2023-05-06T09:00:00Z,-23.52,-46.63,19.0,19.0,90,5,,6.21,30.147638,,,,,,,,,,,OVC,1400,,,,,,,MVFR,,,,,,,,,,,,METAR,722.0
SBMQ 060900Z 34002KT 9999 FEW003 25/25 Q1011,SBMQ,2023-05-06T09:00:00Z,0.05,-51.07,25.0,25.0,340,2,,6.21,29.852362,,,,,,,,,,,FEW,300,,,,,,,VFR,,,,,,,,,,,,METAR,15.0
SBMO 060900Z 33002KT 9999 SCT020 BKN040 23/23 Q1014,SBMO,2023-05-06T09:00:00Z,-9.52,-35.78,23.0,23.0,330,2,,6.21,29.940945,,,,,,,,,,,SCT,2000,BKN,4000,,,,,VFR,,,,,,,,,,,,METAR,116.0
SBMN 060900Z 00000KT 9999 BKN008 SCT018 26/24 Q1012,SBMN,2023-05-06T09:00:00Z,-3.13,-59.98,26.0,24.0,0,0,,6.21,29.88189,,,,,,,,,,,BKN,800,SCT,1800,,,,,IFR,,,,,,,,,,,,METAR,71.0
SBMK 060900Z 00000KT CAVOK 16/15 Q1020,SBMK,2023-05-06T09:00:00Z,-16.7,-43.82,16.0,15.0,0,0,,6.21,30.11811,,,,,,,,,,,CAVOK,,,,,,,,VFR,,,,,,,,,,,,METAR,665.0
SBMG 060900Z 07008KT CAVOK 21/17 Q1017,SBMG,2023-05-06T09:00:00Z,-23.48,-52.02,21.0,17.0,70,8,,6.21,30.029528,,,,,,,,,,,CAVOK,,,,,,,,VFR,,,,,,,,,,,,METAR,543.0
SBME 060900Z 30002KT CAVOK 21/21 Q1018,SBME,2023-05-06T09:00:00Z,-22.35,-41.77,21.0,21.0,300,2,,6.21,30.059055,,,,,,,,,,,CAVOK,,,,,,,,VFR,,,,,,,,,,,,METAR,2.0
SBMA 060900Z 00000KT CAVOK 23/23 Q1012,SBMA,2023-05-06T09:00:00Z,-5.37,-49.13,23.0,23.0,0,0,,6.21,29.88189,,,,,,,,,,,CAVOK,,,,,,,,VFR,,,,,,,,,,,,METAR,110.0
SBLS 060900Z 17007KT CAVOK 17/14 Q1021,SBLS,2023-05-06T09:00:00Z,-19.67,-43.88,17.0,14.0,170,7,,6.21,30.147638,,,,,,,,,,,CAVOK,,,,,,,,VFR,,,,,,,,,,,,METAR,850.0
SBLO 060900Z 15002KT CAVOK 20/19 Q1019,SBLO,2023-05-06T09:00:00Z,-23.33,-51.12,20.0,19.0,150,2,,6.21,30.088583,,,,,,,,,,,CAVOK,,,,,,,,VFR,,,,,,,,,,,,METAR,563.0
SBLE 060900Z AUTO VRB02KT 9999 BKN026 21/20 Q1018,SBLE,2023-05-06T09:00:00Z,-12.48,-41.28,21.0,20.0,0,2,,6.21,30.059055,,,TRUE,,,,,,,,BKN,2600,,,,,,,MVFR,,,,,,,,,,,,METAR,495.0
SBLB 060900Z AUTO 12005KT 9999 NCD 25/20 Q1018 W///S4,SBLB,2023-05-06T09:00:00Z,-22.1,-39.92,25.0,20.0,120,5,,6.21,30.059055,,,TRUE,,,,,,,,CLR,,,,,,,,VFR,,,,,,,,,,,,SPECI,10.0
SBKP 060900Z 12010KT 7000 NSC 19/17 Q1020,SBKP,2023-05-06T09:00:00Z,-23.0,-47.13,19.0,17.0,120,10,,4.35,30.11811,,,,,,,,,,,CLR,,,,,,,,MVFR,,,,,,,,,,,,METAR,659.0
SBKG 060900Z 15003KT 4000 BR FEW010 SCT015 22/21 Q1016,SBKG,2023-05-06T09:00:00Z,-7.27,-35.88,22.0,21.0,150,3,,2.49,30.0,,,,,,,,,,BR,FEW,1000,SCT,1500,,,,,IFR,,,,,,,,,,,,METAR,499.0
SBJV 060900Z 02002KT 9999 SCT025 BKN050 24/23 Q1018,SBJV,2023-05-06T09:00:00Z,-26.22,-48.8,24.0,23.0,20,2,,6.21,30.059055,,,,,,,,,,,SCT,2500,BKN,5000,,,,,VFR,,,,,,,,,,,,METAR,3.0
SBJU 060900Z 00000KT 9999 FEW020 23/22 Q1017,SBJU,2023-05-06T09:00:00Z,-7.22,-39.27,23.0,22.0,0,0,,6.21,30.029528,,,,,,,,,,,FEW,2000,,,,,,,VFR,,,,,,,,,,,,METAR,407.0
SBJP 060900Z 18003KT 9999 FEW021 24/24 Q1013,SBJP,2023-05-06T09:00:00Z,-7.15,-34.95,24.0,24.0,180,3,,6.21,29.911417,,,,,,,,,,,FEW,2100,,,,,,,VFR,,,,,,,,,,,,METAR,66.0
SBIZ 060900Z 00000KT 9999 FEW010 23/22 Q1012,SBIZ,2023-05-06T09:00:00Z,-5.52,-47.45,23.0,22.0,0,0,,6.21,29.88189,,,,,,,,,,,FEW,1000,,,,,,,VFR,,,,,,,,,,,,METAR,131.0
SBIP 060900Z AUTO VRB01KT 9999 BKN023 20/18 Q1019,SBIP,2023-05-06T09:00:00Z,-19.47,-42.48,20.0,18.0,0,1,,6.21,30.088583,,,TRUE,,,,,,,,BKN,2300,,,,,,,MVFR,,,,,,,,,,,,METAR,240.0
SBGW 060900Z 03003KT 4000 BR FEW007 BKN018 20/19 Q1021,SBGW,2023-05-06T09:00:00Z,-22.78,-45.2,20.0,19.0,30,3,,2.49,30.147638,,,,,,,,,,BR,FEW,700,BKN,1800,,,,,IFR,,,,,,,,,,,,METAR,539.0
SBGR 060900Z 11004KT 9999 OVC011 20/18 Q1022,SBGR,2023-05-06T09:00:00Z,-23.42,-46.47,20.0,18.0,110,4,,6.21,30.177166,,,,,,,,,,,OVC,1100,,,,,,,MVFR,,,,,,,,,,,,METAR,745.0
SBGO 060900Z 00000KT CAVOK 18/17 Q1019,SBGO,2023-05-06T09:00:00Z,-16.62,-49.22,18.0,17.0,0,0,,6.21,30.088583,,,,,,,,,,,CAVOK,,,,,,,,VFR,,,,,,,,,,,,METAR,740.0
SBGL 060900Z 10002KT 8000 FEW022 BKN030 22/21 Q1019,SBGL,2023-05-06T09:00:00Z,-22.82,-43.25,22.0,21.0,100,2,,4.97,30.088583,,,,,,,,,,,FEW,2200,BKN,3000,,,,,MVFR,,,,,,,,,,,,METAR,3.0
SBFZ 060900Z 17006KT 9999 FEW025 25/23 Q1012,SBFZ,2023-05-06T09:00:00Z,-3.77,-38.52,25.0,23.0,170,6,,6.21,29.88189,,,,,,,,,,,FEW,2500,,,,,,,VFR,,,,,,,,,,,,METAR,32.0
SBFL 060900Z 25003KT 6000 FEW005 BKN020 BKN080 23/23 Q1018,SBFL,2023-05-06T09:00:00Z,-27.67,-48.53,23.0,23.0,250,3,,3.73,30.059055,,,,,,,,,,,FEW,500,BKN,2000,BKN,8000,,,MVFR,,,,,,,,,,,,METAR,5.0
SBFI 060900Z 07003KT 0600 R15/0700 R33/0900 FG VV002 22/22 Q1016,SBFI,2023-05-06T09:00:00Z,-25.6,-54.48,22.0,22.0,70,3,,0.37,30.0,,,,,,,,,,FG,OVX,0,,,,,,,LIFR,,,,,,,,,,,200,METAR,233.0
SBES 060900Z 00000KT 0800 FG FEW007 17/17 Q1019,SBES,2023-05-06T09:00:00Z,-22.82,-42.1,17.0,17.0,0,0,,0.5,30.088583,,,,,,,,,,FG,FEW,700,,,,,,,LIFR,,,,,,,,,,,,METAR,16.0
SBEG 060900Z 00000KT 9999 BKN012 SCT100 25/24 Q1011,SBEG,2023-05-06T09:00:00Z,-3.03,-60.03,25.0,24.0,0,0,,6.21,29.852362,,,,,,,,,,,BKN,1200,SCT,10000,,,,,MVFR,,,,,,,,,,,,METAR,69.0
SBDN 060900Z 10006KT CAVOK 20/17 Q1017,SBDN,2023-05-06T09:00:00Z,-22.18,-51.43,20.0,17.0,100,6,,6.21,30.029528,,,,,,,,,,,CAVOK,,,,,,,,VFR,,,,,,,,,,,,METAR,438.0
SBCT 060900Z 12004KT 6000 BKN004 OVC012 19/18 Q1022,SBCT,2023-05-06T09:00:00Z,-25.52,-49.17,19.0,18.0,120,4,,3.73,30.177166,,,,,,,,,,,BKN,400,OVC,1200,,,,,LIFR,,,,,,,,,,,,METAR,914.0
SBCO 060900Z VRB02KT 9999 FEW006 BKN009 OVC040 20/20 Q1017,SBCO,2023-05-06T09:00:00Z,-29.95,-51.15,20.0,20.0,0,2,,6.21,30.029528,,,,,,,,,,,FEW,600,BKN,900,OVC,4000,,,IFR,,,,,,,,,,,,METAR,8.0
SBCG 060900Z VRB03KT CAVOK 21/17 Q1017,SBCG,2023-05-06T09:00:00Z,-20.47,-54.67,21.0,17.0,0,3,,6.21,30.029528,,,,,,,,,,,CAVOK,,,,,,,,VFR,,,,,,,,,,,,METAR,556.0
SBCF 060900Z 13003KT 9999 FEW040 17/15 Q1021,SBCF,2023-05-06T09:00:00Z,-19.63,-43.97,17.0,15.0,130,3,,6.21,30.147638,,,,,,,,,,,FEW,4000,,,,,,,VFR,,,,,,,,,,,,METAR,825.0
SBCB 060900Z 13001KT 9999 FEW015 21/20 Q1019,SBCB,2023-05-06T09:00:00Z,-22.92,-42.08,21.0,20.0,130,1,,6.21,30.088583,,,,,,,,,,,FEW,1500,,,,,,,VFR,,,,,,,,,,,,METAR,3.0
SBBV 060900Z 08007KT CAVOK 25/21 Q1012,SBBV,2023-05-06T09:00:00Z,2.85,-60.7,25.0,21.0,80,7,,6.21,29.88189,,,,,,,,,,,CAVOK,,,,,,,,VFR,,,,,,,,,,,,METAR,80.0
SBBU 060900Z 14009KT 4000 BR NSC 20/19 Q1019,SBBU,2023-05-06T09:00:00Z,-22.33,-49.07,20.0,19.0,140,9,,2.49,30.088583,,,,,,,,,,BR,CLR,,,,,,,,IFR,,,,,,,,,,,,METAR,616.0
SBBR 060900Z VRB02KT CAVOK 16/13 Q1021,SBBR,2023-05-06T09:00:00Z,-15.87,-47.92,16.0,13.0,0,2,,6.21,30.147638,,,,,,,,,,,CAVOK,,,,,,,,VFR,,,,,,,,,,,,METAR,1051.0
SBBH 060900Z 00000KT 9999 FEW020 16/12 Q1021,SBBH,2023-05-06T09:00:00Z,-19.85,-43.95,16.0,12.0,0,0,,6.21,30.147638,,,,,,,,,,,FEW,2000,,,,,,,VFR,,,,,,,,,,,,METAR,799.0
SBBE 060900Z 08003KT 9999 FEW017 25/24 Q1011,SBBE,2023-05-06T09:00:00Z,-1.37,-48.47,25.0,24.0,80,3,,6.21,29.852362,,,,,,,,,,,FEW,1700,,,,,,,VFR,,,,,,,,,,,,METAR,16.0
SBAN 060900Z 11007KT CAVOK 18/15 Q1021,SBAN,2023-05-06T09:00:00Z,-16.22,-48.97,18.0,15.0,110,7,,6.21,30.147638,,,,,,,,,,,CAVOK,,,,,,,,VFR,,,,,,,,,,,,METAR,1131.0
SAZS 060900Z 25004KT 2000 BCFG SCT022 00/M01 Q1016 RMK PP///,SAZS,2023-05-06T09:00:00Z,-41.15,-71.17,0.0,-1.0,250,4,,1.24,30.0,,,,,,,,,,BCFG,SCT,2200,,,,,,,IFR,,,,,,,,,,,,METAR,843.0
SAZN 060900Z 00000KT CAVOK 04/03 Q1015,SAZN,2023-05-06T09:00:00Z,-38.95,-68.15,4.0,3.0,0,0,,6.21,29.970472,,,,,,,,,,,CAVOK,,,,,,,,VFR,,,,,,,,,,,,METAR,273.0
SAZM 060900Z 00000KT 0100 R13/0275 FG BKN001 SCT100 05/05 Q1020 RMK PP///,SAZM,2023-05-06T09:00:00Z,-37.92,-57.57,5.0,5.0,0,0,,0.06,30.11811,,,,,,,,,,FG,BKN,100,SCT,10000,,,,,LIFR,,,,,,,,,,,,METAR,17.0
SAWH 060900Z 23012KT 9999 SCT025 BKN045 06/03 Q0988 RMK PP000,SAWH,2023-05-06T09:00:00Z,-54.85,-68.3,6.0,3.0,230,12,,6.21,29.17323,,,,,,,,,,,SCT,2500,BKN,4500,,,,,VFR,,,,,,,,,,,,METAR,22.0
SAWG 060900Z 30006KT 250V330 9999 FEW015 SCT200 08/06 Q0997,SAWG,2023-05-06T09:00:00Z,-51.62,-69.27,8.0,6.0,300,6,,6.21,29.438976,,,,,,,,,,,FEW,1500,SCT,20000,,,,,VFR,,,,,,,,,,,,METAR,15.0
SAWE 060900Z 29015KT CAVOK 03/02 Q0991 RMK PP000,SAWE,2023-05-06T09:00:00Z,-53.78,-67.75,3.0,2.0,290,15,,6.21,29.26181,,,,,,,,,,,CAVOK,,,,,,,,VFR,,,,,,,,,,,,METAR,22.0
SAVC 060900Z 29017G27KT CAVOK 16/04 Q1007 RMK PP000,SAVC,2023-05-06T09:00:00Z,-45.78,-67.47,16.0,4.0,290,17,27,6.21,29.734253,,,,,,,,,,,CAVOK,,,,,,,,VFR,,,,,,,,,,,,METAR,58.0
SASJ 060900Z 33003KT 9999 OVC050 14/11 Q1020 RMK PP000,SASJ,2023-05-06T09:00:00Z,-24.38,-65.1,14.0,11.0,330,3,,6.21,30.11811,,,,,,,,,,,OVC,5000,,,,,,,VFR,,,,,,,,,,,,METAR,913.0
SASA 060900Z 16004KT 9999 FEW020 OVC040 12/11 Q1021 RMK PP000,SASA,2023-05-06T09:00:00Z,-24.85,-65.48,12.0,11.0,160,4,,6.21,30.147638,,,,,,,,,,,FEW,2000,OVC,4000,,,,,VFR,,,,,,,,,,,,METAR,1235.0
SARP 060900Z 27004KT CAVOK 19/19 Q1016,SARP,2023-05-06T09:00:00Z,-27.38,-55.97,19.0,19.0,270,4,,6.21,30.0,,,,,,,,,,,CAVOK,,,,,,,,VFR,,,,,,,,,,,,METAR,123.0
SARL 060900Z 32006KT 8000 OVC008 17/17 Q1015,SARL,2023-05-06T09:00:00Z,-29.68,-57.15,17.0,17.0,320,6,,4.97,29.970472,,,,,,,,,,,OVC,800,,,,,,,IFR,,,,,,,,,,,,METAR,70.0
SARF 060900Z 00000KT 9000 -DZ OVC005 17/16 Q1016,SARF,2023-05-06T09:00:00Z,-26.22,-58.22,17.0,16.0,0,0,,5.59,30.0,,,,,,,,,,-DZ,OVC,500,,,,,,,IFR,,,,,,,,,,,,METAR,65.0
SARE 060900Z 36004KT 2500 -DZ BR OVC003 17/16 Q1015 RMK PP///,SARE,2023-05-06T09:00:00Z,-27.43,-59.05,17.0,16.0,360,4,,1.55,29.970472,,,,,,,,,,-DZ BR,OVC,300,,,,,,,LIFR,,,,,,,,,,,,METAR,52.0
SARC 060900Z 32005KT 6000 OVC004 17/17 Q1015,SARC,2023-05-06T09:00:00Z,-27.43,-58.77,17.0,17.0,320,5,,3.73,29.970472,,,,,,,,,,,OVC,400,,,,,,,LIFR,,,,,,,,,,,,METAR,60.0
SAOC 060900Z 23003KT 9999 FEW025 SCT100 12/10 Q1017,SAOC,2023-05-06T09:00:00Z,-33.08,-64.27,12.0,10.0,230,3,,6.21,30.029528,,,,,,,,,,,FEW,2500,SCT,10000,,,,,VFR,,,,,,,,,,,,METAR,422.0
SANT 060900Z 33004KT CAVOK 09/08 Q1018 RMK PP000,SANT,2023-05-06T09:00:00Z,-26.85,-65.1,9.0,8.0,330,4,,6.21,30.059055,,,,,,,,,,,CAVOK,,,,,,,,VFR,,,,,,,,,,,,METAR,446.0
SAME 060900Z VRB02KT CAVOK 10/04 Q1016,SAME,2023-05-06T09:00:00Z,-32.82,-68.78,10.0,4.0,0,2,,6.21,30.0,,,,,,,,,,,CAVOK,,,,,,,,VFR,,,,,,,,,,,,METAR,709.0
SAEZ 060900Z 11008KT 1000 R11/1700N RA BR OVC005 17/16 Q1013 NOSIG RMK PP001,SAEZ,2023-05-06T09:00:00Z,-34.82,-58.53,17.0,16.0,110,8,,0.62,29.911417,,,,,,TRUE,,,,RA BR,OVC,500,,,,,,,LIFR,,,,,,,,,,,,METAR,16.0
SADF 060900Z 09013KT 2000 +RA OVC004 17/17 Q1012 RMK PP002,SADF,2023-05-06T09:00:00Z,-34.45,-58.58,17.0,17.0,90,13,,1.24,29.88189,,,,,,,,,,+RA,OVC,400,,,,,,,LIFR,,,,,,,,,,,,METAR,4.0
SACO 060900Z 25006KT CAVOK 10/08 Q1017 NOSIG RMK PP000,SACO,2023-05-06T09:00:00Z,-31.32,-64.22,10.0,8.0,250,6,,6.21,30.029528,,,,,,TRUE,,,,,CAVOK,,,,,,,,VFR,,,,,,,,,,,,METAR,474.0
SAAR 060900Z 20008KT 3000 -DZ BR OVC003 16/15 Q1011 RMK PP999,SAAR,2023-05-06T09:00:00Z,-32.92,-60.77,16.0,15.0,200,8,,1.86,29.852362,,,,,,,,,,-DZ BR,OVC,300,,,,,,,LIFR,,,,,,,,,,,,METAR,24.0
RPVP 060900Z 21008KT 9999 FEW019 SCT080 BKN240 29/24 Q1005 RMK A2968,RPVP,2023-05-06T09:00:00Z,9.75,118.75,29.0,24.0,210,8,,6.21,29.675198,,,,,,,,,,,FEW,1900,SCT,8000,BKN,24000,,,VFR,,,,,,,,,,,,METAR,15.0
RPVM 060900Z 05005KT 9999 FEW018CB BKN100 31/25 Q1006 NOSIG RMK A2971 CB N,RPVM,2023-05-06T09:00:00Z,10.32,123.98,31.0,25.0,50,5,,6.21,29.704725,,,,,,TRUE,,,,,FEW,1800,BKN,10000,,,,,VFR,,,,,,,,,,,,METAR,9.0
RPVD 060900Z 07004KT 9999 VCSH FEW014CB BKN070 29/26 Q1005 RMK A2968 CB VCSH NW-N,RPVD,2023-05-06T09:00:00Z,9.33,123.3,29.0,26.0,70,4,,6.21,29.675198,,,,,,,,,,VCSH,FEW,1400,BKN,7000,,,,,VFR,,,,,,,,,,,,METAR,11.0
RPMZ 060900Z 28008KT 240V310 9999 FEW016CB SCT090 BKN300 31/24 Q1005 RMK A2968 CB N-NE SE-E,RPMZ,2023-05-06T09:00:00Z,6.92,122.07,31.0,24.0,280,8,,6.21,29.675198,,,,,,,,,,,FEW,1600,SCT,9000,BKN,30000,,,VFR,,,,,,,,,,,,SPECI,8.0
"RPMR 060900Z 17004KT 9999 SCT018CB OVC080 28/24 Q1006 RMK A2971 CB N NW,SW, W NE",RPMR,2023-05-06T09:00:00Z,6.05,125.1,28.0,24.0,170,4,,6.21,29.704725,,,,,,,,,,,SCT,1800,OVC,8000,,,,,VFR,,,,,,,,,,,,METAR,47.0
"RPMD 060900Z 15003KT 120V180 9999 -SHRA FEW015CB BKN080 BKN250 30/26 Q1005 RMK A2968 CB N NE,E",RPMD,2023-05-06T09:00:00Z,7.12,125.65,30.0,26.0,150,3,,6.21,29.675198,,,,,,,,,,-SHRA,FEW,1500,BKN,8000,BKN,25000,,,VFR,,,,,,,,,,,,METAR,19.0
RPLL 060900Z 12007KT 070V150 9999 FEW025 34/24 Q1004 NOSIG RMK A2965,RPLL,2023-05-06T09:00:00Z,14.52,121.0,34.0,24.0,120,7,,6.21,29.64567,,,,,,TRUE,,,,,FEW,2500,,,,,,,VFR,,,,,,,,,,,,METAR,15.0
RPLI 060900Z 28004KT 220V310 8000 VCSH FEW017CB BKN070 32/26 Q1005 NOSIG RMK A2968 CB SE VCSH E-SE,RPLI,2023-05-06T09:00:00Z,18.17,120.52,32.0,26.0,280,4,,4.97,29.675198,,,,,,TRUE,,,,VCSH,FEW,1700,BKN,7000,,,,,MVFR,,,,,,,,,,,,METAR,5.0
RPLC 060900Z 20008KT 9999 FEW020 SCT300 34/23 Q1005 NOSIG RMK A2968,RPLC,2023-05-06T09:00:00Z,15.18,120.55,34.0,23.0,200,8,,6.21,29.675198,,,,,,TRUE,,,,,FEW,2000,SCT,30000,,,,,VFR,,,,,,,,,,,,METAR,138.0
RPLB 060900Z 23010KT 9999 FEW020 31/25 Q1005 NOSIG RMK A2968,RPLB,2023-05-06T09:00:00Z,14.8,120.27,31.0,25.0,230,10,,6.21,29.675198,,,,,,TRUE,,,,,FEW,2000,,,,,,,VFR,,,,,,,,,,,,METAR,19.0
ROYN 060900Z AUTO 16013KT 9999 FEW010 28/25 Q1004,ROYN,2023-05-06T09:00:00Z,24.47,122.97,28.0,25.0,160,13,,6.21,29.64567,,,TRUE,,,,,,,,FEW,1000,,,,,,,VFR,,,,,,,,,,,,METAR,21.0
RORY 060900Z AUTO 15009KT 9000 FEW042 SCT050 BKN080 24/24 Q1008,RORY,2023-05-06T09:00:00Z,27.05,128.4,24.0,24.0,150,9,,5.59,29.763779,,,TRUE,,,,,,,,FEW,4200,SCT,5000,BKN,8000,,,VFR,,,,,,,,,,,,METAR,13.0
RORT 060900Z AUTO 16006KT 130V200 9999 NSC 26/25 Q1006,RORT,2023-05-06T09:00:00Z,24.63,124.7,26.0,25.0,160,6,,6.21,29.704725,,,TRUE,,,,,,,,CLR,,,,,,,,VFR,,,,,,,,,,,,METAR,9.0
RORS 060900Z 16009KT 9999 -RA FEW010 BKN150 BKN/// 26/25 Q1006,RORS,2023-05-06T09:00:00Z,24.82,125.15,26.0,25.0,160,9,,6.21,29.704725,,,,,,,,,,-RA,FEW,1000,BKN,15000,,,,,VFR,,,,,,,,,,,,METAR,13.0
RORK 060900Z AUTO 14010KT 9000 FEW011 25/22 Q1010,RORK,2023-05-06T09:00:00Z,25.93,131.32,25.0,22.0,140,10,,5.59,29.822834,,,TRUE,,,,,,,,FEW,1100,,,,,,,VFR,,,,,,,,,,,,METAR,11.0
ROMY 060900Z 16010KT 9999 FEW010 BKN150 27/24 Q1006,ROMY,2023-05-06T09:00:00Z,24.78,125.27,27.0,24.0,160,10,,6.21,29.704725,,,,,,,,,,,FEW,1000,BKN,15000,,,,,VFR,,,,,,,,,,,,METAR,38.0
ROMD 060900Z AUTO 15005KT 110V180 9999 FEW009 24/22 Q1010,ROMD,2023-05-06T09:00:00Z,25.83,131.25,24.0,22.0,150,5,,6.21,29.822834,,,TRUE,,,,,,,,FEW,900,,,,,,,VFR,,,,,,,,,,,,METAR,45.0
ROIG 060900Z 18008KT 9999 FEW008 BKN/// 27/25 Q1006,ROIG,2023-05-06T09:00:00Z,24.38,124.23,27.0,25.0,180,8,,6.21,29.704725,,,,,,,,,,,FEW,800,,,,,,,VFR,,,,,,,,,,,,METAR,37.0
ROAH 060900Z 17014KT 9999 FEW010 BKN200 26/24 Q1007,ROAH,2023-05-06T09:00:00Z,26.18,127.65,26.0,24.0,170,14,,6.21,29.734253,,,,,,,,,,,FEW,1000,BKN,20000,,,,,VFR,,,,,,,,,,,,METAR,6.0
RKTU 060900Z 06009KT 9000 -RA BKN020 OVC030 13/11 Q1009,RKTU,2023-05-06T09:00:00Z,36.7,127.5,13.0,11.0,60,9,,5.59,29.793306,,,,,,,,,,-RA,BKN,2000,OVC,3000,,,,,MVFR,,,,,,,,,,,,METAR,46.0
RKTN 060900Z 14008KT 9000 -RA SCT005 BKN010 OVC025 13/12 Q1010,RKTN,2023-05-06T09:00:00Z,35.88,128.65,13.0,12.0,140,8,,5.59,29.822834,,,,,,,,,,-RA,SCT,500,BKN,1000,OVC,2500,,,MVFR,,,,,,,,,,,,METAR,25.0
RKSS 060900Z 03008KT 9999 FEW025 BKN060 14/10 Q1011 NOSIG,RKSS,2023-05-06T09:00:00Z,37.55,126.78,14.0,10.0,30,8,,6.21,29.852362,,,,,,TRUE,,,,,FEW,2500,BKN,6000,,,,,VFR,,,,,,,,,,,,METAR,18.0
RKSM 060900Z 07007KT 9999 SCT030 BKN060 13/08 A2984,RKSM,2023-05-06T09:00:00Z,37.43,127.12,13.0,8.0,70,7,,6.21,29.840551,,,,,,,,,,,SCT,3000,BKN,6000,,,,,VFR,,,,,,,,,,,,METAR,18.0
RKSI 060900Z 05010KT 9999 FEW020 BKN055 BKN120 14/09 Q1010 NOSIG,RKSI,2023-05-06T09:00:00Z,37.47,126.45,14.0,9.0,50,10,,6.21,29.822834,,,,,,TRUE,,,,,FEW,2000,BKN,5500,BKN,12000,,,VFR,,,,,,,,,,,,METAR,7.0
RKPK 060900Z 03008G18KT 9999 SCT020 BKN040 14/10 Q1008,RKPK,2023-05-06T09:00:00Z,35.17,128.93,14.0,10.0,30,8,18,6.21,29.763779,,,,,,,,,,,SCT,2000,BKN,4000,,,,,VFR,,,,,,,,,,,,METAR,3.0
RKPC 060900Z 28006KT 250V340 9999 FEW008 BKN025 16/14 Q1006 NOSIG,RKPC,2023-05-06T09:00:00Z,33.5,126.48,16.0,14.0,280,6,,6.21,29.704725,,,,,,TRUE,,,,,FEW,800,BKN,2500,,,,,MVFR,,,,,,,,,,,,METAR,23.0
RKNY 060900Z 34006KT 9000 -RA SCT015 BKN030 OVC080 09/08 Q1014 NOSIG,RKNY,2023-05-06T09:00:00Z,38.07,128.67,9.0,8.0,340,6,,5.59,29.940945,,,,,,TRUE,,,,-RA,SCT,1500,BKN,3000,OVC,8000,,,MVFR,,,,,,,,,,,,METAR,76.0
RKJB 060900Z 22004KT 9000 SCT008 BKN009 BKN030 16/14 Q1005 NOSIG,RKJB,2023-05-06T09:00:00Z,34.98,126.38,16.0,14.0,220,4,,5.59,29.675198,,,,,,TRUE,,,,,SCT,800,BKN,900,BKN,3000,,,IFR,,,,,,,,,,,,METAR,16.0
RJTT 060900Z 22038KT 9999 FEW030 BKN/// 23/15 Q1004 TEMPO 22036G48KT,RJTT,2023-05-06T09:00:00Z,35.55,139.77,23.0,15.0,220,38,,6.21,29.64567,,,,,,,,,,,FEW,3000,,,,,,,VFR,,,,,,,,,,,,METAR,5.0
RJSY 060900Z 24010KT 3500 SHRA BR FEW003 SCT010 BKN015 16/15 Q1006,RJSY,2023-05-06T09:00:00Z,38.82,139.78,16.0,15.0,240,10,,2.17,29.704725,,,,,,,,,,SHRA BR,FEW,300,SCT,1000,BKN,1500,,,IFR,,,,,,,,,,,,METAR,17.0
RJSS 060900Z 09003KT 9999 -RA FEW030 SCT060 BKN090 17/15 Q1004,RJSS,2023-05-06T09:00:00Z,38.13,140.92,17.0,15.0,90,3,,6.21,29.64567,,,,,,,,,,-RA,FEW,3000,SCT,6000,BKN,9000,,,VFR,,,,,,,,,,,,METAR,5.0
RJSR 060900Z 30004KT 6000 -SHRA FEW002 SCT008 BKN013 14/13 Q1005,RJSR,2023-05-06T09:00:00Z,40.18,140.37,14.0,13.0,300,4,,3.73,29.675198,,,,,,,,,,-SHRA,FEW,200,SCT,800,BKN,1300,,,MVFR,,,,,,,,,,,,METAR,83.0
RJSN 060900Z 11003KT 4500 -SHRA BR FEW008 BKN015 BKN025 17/16 Q1006,RJSN,2023-05-06T09:00:00Z,37.95,139.12,17.0,16.0,110,3,,2.8,29.704725,,,,,,,,,,-SHRA BR,FEW,800,BKN,1500,BKN,2500,,,IFR,,,,,,,,,,,,METAR,4.0
RJSM 060900Z 07006KT 8000 -RA SCT003 BKN005 OVC008 08/07 Q1008,RJSM,2023-05-06T09:00:00Z,40.7,141.37,8.0,7.0,70,6,,4.97,29.763779,,,,,,,,,,-RA,SCT,300,BKN,500,OVC,800,,,IFR,,,,,,,,,,,,METAR,31.0
RJSK 060900Z 32003KT 280V360 4000 -SHRA BR FEW001 SCT003 BKN006 14/13 Q1005,RJSK,2023-05-06T09:00:00Z,39.62,140.22,14.0,13.0,320,3,,2.49,29.675198,,,,,,,,,,-SHRA BR,FEW,100,SCT,300,BKN,600,,,IFR,,,,,,,,,,,,METAR,95.0
RJSI 060900Z VRB02KT 9999 -SHRA FEW010 SCT080 BKN100 17/16 Q1004,RJSI,2023-05-06T09:00:00Z,39.42,141.13,17.0,16.0,0,2,,6.21,29.64567,,,,,,,,,,-SHRA,FEW,1000,SCT,8000,BKN,10000,,,VFR,,,,,,,,,,,,METAR,89.0
RJSF 060900Z 36011KT 9999 FEW030 BKN150 BKN/// 21/14 Q1005,RJSF,2023-05-06T09:00:00Z,37.22,140.42,21.0,14.0,360,11,,6.21,29.675198,,,,,,,,,,,FEW,3000,BKN,15000,,,,,VFR,,,,,,,,,,,,METAR,373.0
RJSC 060900Z VRB01KT 9999 -SHRA FEW005 SCT020 BKN050 19/18 Q1005,RJSC,2023-05-06T09:00:00Z,38.42,140.37,19.0,18.0,0,1,,6.21,29.675198,,,,,,,,,,-SHRA,FEW,500,SCT,2000,BKN,5000,,,VFR,,,,,,,,,,,,METAR,104.0
RJSA 060900Z 36006KT 320V030 0600 R24/0650VP2000U FG -RA BKN001 BKN002 09/09 Q1006,RJSA,2023-05-06T09:00:00Z,40.72,140.68,9.0,9.0,360,6,,0.37,29.704725,,,,,,,,,,-RA FG,BKN,100,BKN,200,,,,,LIFR,,,,,,,,,,,,METAR,196.0
RJOY 060900Z 21003KT 110V270 9999 VCSH FEW020 BKN035 BKN070 23/18 Q1008,RJOY,2023-05-06T09:00:00Z,34.6,135.6,23.0,18.0,210,3,,6.21,29.763779,,,,,,,,,,VCSH,FEW,2000,BKN,3500,BKN,7000,,,VFR,,,,,,,,,,,,METAR,10.0
RJOW 060900Z 31004KT 4000 -SHRA BR FEW001 BKN003 BKN006 17/16 Q1006,RJOW,2023-05-06T09:00:00Z,34.67,131.8,17.0,16.0,310,4,,2.49,29.704725,,,,,,,,,,-SHRA BR,FEW,100,BKN,300,BKN,600,,,LIFR,,,,,,,,,,,,METAR,54.0
RJOT 060900Z 08004KT 9999 -SHRA FEW004 SCT045 BKN080 20/19 Q1006,RJOT,2023-05-06T09:00:00Z,34.22,134.02,20.0,19.0,80,4,,6.21,29.704725,,,,,,,,,,-SHRA,FEW,400,SCT,4500,BKN,8000,,,VFR,,,,,,,,,,,,METAR,181.0
RJOS 060900Z 16024KT 9999 -SHRA SCT030 BKN100 20/18 Q1006,RJOS,2023-05-06T09:00:00Z,34.12,134.62,20.0,18.0,160,24,,6.21,29.704725,,,,,,,,,,-SHRA,SCT,3000,BKN,10000,,,,,VFR,,,,,,,,,,,,METAR,3.0
RJOR 060900Z 34005KT 290V030 9999 -SHRA FEW020 SCT030 BKN080 20/17 Q1004,RJOR,2023-05-06T09:00:00Z,35.52,134.17,20.0,17.0,340,5,,6.21,29.64567,,,,,,,,,,-SHRA,FEW,2000,SCT,3000,BKN,8000,,,VFR,,,,,,,,,,,,METAR,11.0
RJOO 060900Z 25004KT 180V300 9999 -SHRA FEW010 SCT020 BKN030 21/18 Q1008,RJOO,2023-05-06T09:00:00Z,34.78,135.43,21.0,18.0,250,4,,6.21,29.763779,,,,,,,,,,-SHRA,FEW,1000,SCT,2000,BKN,3000,,,MVFR,,,,,,,,,,,,METAR,11.0
RJOM 060900Z 20006KT 140V240 9999 FEW025 SCT070 BKN080 24/19 Q1004,RJOM,2023-05-06T09:00:00Z,33.82,132.68,24.0,19.0,200,6,,6.21,29.64567,,,,,,,,,,,FEW,2500,SCT,7000,BKN,8000,,,VFR,,,,,,,,,,,,METAR,3.0
RJOK 060900Z 11009KT 4000 -SHRA BR FEW003 SCT008 BKN010 20/20 Q1008,RJOK,2023-05-06T09:00:00Z,33.53,133.67,20.0,20.0,110,9,,2.49,29.763779,,,,,,,,,,-SHRA BR,FEW,300,SCT,800,BKN,1000,,,IFR,,,,,,,,,,,,METAR,7.0
RJOH 060900Z 25007KT 8000 -SHRA FEW010 SCT020 BKN035 20/20 Q1004,RJOH,2023-05-06T09:00:00Z,35.48,133.25,20.0,20.0,250,7,,4.97,29.64567,,,,,,,,,,-SHRA,FEW,1000,SCT,2000,BKN,3500,,,MVFR,,,,,,,,,,,,METAR,6.0
RJOC 060900Z 25010KT 9999 -SHRA FEW003 SCT006 BKN015 19/18 Q1004,RJOC,2023-05-06T09:00:00Z,35.42,132.88,19.0,18.0,250,10,,6.21,29.64567,,,,,,,,,,-SHRA,FEW,300,SCT,600,BKN,1500,,,MVFR,,,,,,,,,,,,METAR,2.0
RJOB 060900Z 08004KT 5000 -SHRA BR BCFG FEW000 SCT035 BKN045 19/18 Q1006,RJOB,2023-05-06T09:00:00Z,34.75,133.85,19.0,18.0,80,4,,3.11,29.704725,,,,,,,,,,-SHRA BR BCFG,FEW,0,SCT,3500,BKN,4500,,,MVFR,,,,,,,,,,,,METAR,242.0
RJOA 060900Z 14004KT 0600 R10/0400VP2000U -SHRA FG FEW000 SCT003 BKN008 18/18 Q1006,RJOA,2023-05-06T09:00:00Z,34.43,132.92,18.0,18.0,140,4,,0.37,29.704725,,,,,,,,,,-SHRA FG,FEW,0,SCT,300,BKN,800,,,LIFR,,,,,,,,,,,,METAR,318.0
RJNW 060900Z VRB01KT 2000 SHRA BR FEW000 SCT008 BKN010 17/17 Q1006,RJNW,2023-05-06T09:00:00Z,37.3,136.97,17.0,17.0,0,1,,1.24,29.704725,,,,,,,,,,SHRA BR,FEW,0,SCT,800,BKN,1000,,,IFR,,,,,,,,,,,,METAR,222.0
RJNT 060900Z 19008KT 140V240 9999 -SHRA FEW015 SCT030 BKN050 22/17 Q1005,RJNT,2023-05-06T09:00:00Z,36.63,137.18,22.0,17.0,190,8,,6.21,29.675198,,,,,,,,,,-SHRA,FEW,1500,SCT,3000,BKN,5000,,,VFR,,,,,,,,,,,,METAR,30.0
RJNS 060900Z 24011KT 200V270 9999 FEW013 SCT015 BKN025 21/17 Q1010,RJNS,2023-05-06T09:00:00Z,34.8,138.18,21.0,17.0,240,11,,6.21,29.822834,,,,,,,,,,,FEW,1300,SCT,1500,BKN,2500,,,MVFR,,,,,,,,,,,,METAR,133.0
RJNK 060900Z 20013KT 9999 -SHRA FEW020 SCT030 BKN050 21/17 Q1004,RJNK,2023-05-06T09:00:00Z,36.38,136.42,21.0,17.0,200,13,,6.21,29.64567,,,,,,,,,,-SHRA,FEW,2000,SCT,3000,BKN,5000,,,VFR,,,,,,,,,,,,METAR,7.0
RJKI 060900Z AUTO 19008KT 150V220 9999 BKN022 BKN160 24/22 Q1009,RJKI,2023-05-06T09:00:00Z,28.32,129.92,24.0,22.0,190,8,,6.21,29.793306,,,TRUE,,,,,,,,BKN,2200,BKN,16000,,,,,MVFR,,,,,,,,,,,,METAR,6.0
RJKA 060900Z 18012KT 9999 FEW012 BKN025 BKN/// 24/22 Q1008,RJKA,2023-05-06T09:00:00Z,28.42,129.72,24.0,22.0,180,12,,6.21,29.763779,,,,,,,,,,,FEW,1200,BKN,2500,,,,,MVFR,,,,,,,,,,,,METAR,7.0
RJGG 060900Z 17009KT 9999 FEW025 BKN050 21/18 Q1008 NOSIG,RJGG,2023-05-06T09:00:00Z,34.87,136.8,21.0,18.0,170,9,,6.21,29.763779,,,,,,TRUE,,,,,FEW,2500,BKN,5000,,,,,VFR,,,,,,,,,,,,METAR,5.0
RJFU 060900Z 23023KT 4000 -SHRA BR FEW005 SCT010 BKN015 22/20 Q1004,RJFU,2023-05-06T09:00:00Z,32.92,129.92,22.0,20.0,230,23,,2.49,29.64567,,,,,,,,,,-SHRA BR,FEW,500,SCT,1000,BKN,1500,,,IFR,,,,,,,,,,,,METAR,2.0
RJFT 060900Z 21008KT 170V240 6000 -SHRA FEW001 SCT008 BKN012 21/21 Q1006,RJFT,2023-05-06T09:00:00Z,32.83,130.85,21.0,21.0,210,8,,3.73,29.704725,,,,,,,,,,-SHRA,FEW,100,SCT,800,BKN,1200,,,MVFR,,,,,,,,,,,,METAR,188.0
RJFS 060900Z 32005KT 290V360 8000 -SHRA FEW003 SCT010 BKN015 20/20 Q1005,RJFS,2023-05-06T09:00:00Z,33.15,130.3,20.0,20.0,320,5,,4.97,29.675198,,,,,,,,,,-SHRA,FEW,300,SCT,1000,BKN,1500,,,MVFR,,,,,,,,,,,,METAR,2.0
RJFR 060900Z 32007KT 8000 -SHRA FEW005 SCT010 BKN020 18/17 Q1005,RJFR,2023-05-06T09:00:00Z,33.83,131.03,18.0,17.0,320,7,,4.97,29.675198,,,,,,,,,,-SHRA,FEW,500,SCT,1000,BKN,2000,,,MVFR,,,,,,,,,,,,METAR,9.0
RJFO 060900Z 16013KT 9000 -SHRA FEW002 SCT040 BKN060 19/18 Q1004,RJFO,2023-05-06T09:00:00Z,33.47,131.73,19.0,18.0,160,13,,5.59,29.64567,,,,,,,,,,-SHRA,FEW,200,SCT,4000,BKN,6000,,,VFR,,,,,,,,,,,,METAR,3.0
RJFM 060900Z 15015KT 9999 FEW010 SCT020 BKN030 22/20 Q1006,RJFM,2023-05-06T09:00:00Z,31.87,131.43,22.0,20.0,150,15,,6.21,29.704725,,,,,,,,,,,FEW,1000,SCT,2000,BKN,3000,,,MVFR,,,,,,,,,,,,METAR,10.0
RJFK 060900Z 19009KT 150V220 3000 -SHRA BCFG BR FEW001 BKN002 BKN003 21/20 Q1008,RJFK,2023-05-06T09:00:00Z,31.8,130.72,21.0,20.0,190,9,,1.86,29.763779,,,,,,,,,,-SHRA BCFG BR,FEW,100,BKN,200,BKN,300,,,LIFR,,,,,,,,,,,,METAR,271.0
RJFG 060900Z 18011KT 140V210 8000 FEW003 SCT005 BKN007 21/21 Q1008,RJFG,2023-05-06T09:00:00Z,30.62,130.98,21.0,21.0,180,11,,4.97,29.763779,,,,,,,,,,,FEW,300,SCT,500,BKN,700,,,IFR,,,,,,,,,,,,METAR,234.0
RJFF 060900Z 32008KT 4500 -SHRA BR FEW002 BKN007 BKN010 17/16 Q1006 TEMPO 3000 SHRA BR FEW003 BKN005 BKN010,RJFF,2023-05-06T09:00:00Z,33.58,130.45,17.0,16.0,320,8,,2.8,29.704725,,,,,,,,,,-SHRA BR,FEW,200,BKN,700,BKN,1000,,,IFR,,,,,,,,,,,,METAR,7.0
RJFE 060900Z 35007KT 5000 -SHRA BR FEW002 SCT003 BKN005 19/19 Q1005,RJFE,2023-05-06T09:00:00Z,32.67,128.82,19.0,19.0,350,7,,3.11,29.675198,,,,,,,,,,-SHRA BR,FEW,200,SCT,300,BKN,500,,,IFR,,,,,,,,,,,,METAR,80.0
RJEC 060900Z 01008KT 9999 FEW010 SCT020 BKN050 09/04 Q1008,RJEC,2023-05-06T09:00:00Z,43.67,142.43,9.0,4.0,10,8,,6.21,29.763779,,,,,,,,,,,FEW,1000,SCT,2000,BKN,5000,,,VFR,,,,,,,,,,,,METAR,209.0
RJDT 060900Z 03013KT 350V060 6000 -SHRA FEW007 BKN010 14/13 Q1007,RJDT,2023-05-06T09:00:00Z,34.28,129.32,14.0,13.0,30,13,,3.73,29.734253,,,,,,,,,,-SHRA,FEW,700,BKN,1000,,,,,MVFR,,,,,,,,,,,,METAR,61.0
RJDC 060900Z 34003KT 290V030 6000 -SHRA FEW004 SCT006 BKN010 19/19 Q1004,RJDC,2023-05-06T09:00:00Z,33.92,131.27,19.0,19.0,340,3,,3.73,29.64567,,,,,,,,,,-SHRA,FEW,400,SCT,600,BKN,1000,,,MVFR,,,,,,,,,,,,METAR,5.0
RJDB 060900Z AUTO 02014KT 3200 -RA BR BKN003 BKN005 OVC010 15/15 Q1006,RJDB,2023-05-06T09:00:00Z,33.75,129.78,15.0,15.0,20,14,,1.99,29.704725,,,TRUE,,,,,,,-RA BR,BKN,300,BKN,500,OVC,1000,,,LIFR,,,,,,,,,,,,METAR,13.0
RJCW 060900Z 02005KT CAVOK 06/01 Q1011,RJCW,2023-05-06T09:00:00Z,45.4,141.8,6.0,1.0,20,5,,6.21,29.852362,,,,,,,,,,,CAVOK,,,,,,,,VFR,,,,,,,,,,,,METAR,11.0
RJCN 060900Z 06009KT 9999 FEW010 BKN070 03/01 Q1010,RJCN,2023-05-06T09:00:00Z,43.57,144.97,3.0,1.0,60,9,,6.21,29.822834,,,,,,,,,,,FEW,1000,BKN,7000,,,,,VFR,,,,,,,,,,,,METAR,62.0
RJCM 060900Z 07006KT 9999 FEW008 BKN020 BKN040 04/01 Q1011,RJCM,2023-05-06T09:00:00Z,43.88,144.17,4.0,1.0,70,6,,6.21,29.852362,,,,,,,,,,,FEW,800,BKN,2000,BKN,4000,,,MVFR,,,,,,,,,,,,METAR,30.0
RJCK 060900Z 04009KT 9999 FEW010 BKN035 BKN045 06/02 Q1010,RJCK,2023-05-06T09:00:00Z,43.03,144.18,6.0,2.0,40,9,,6.21,29.822834,,,,,,,,,,,FEW,1000,BKN,3500,BKN,4500,,,VFR,,,,,,,,,,,,METAR,94.0
RJCH 060900Z 11009KT 9999 -DZ FEW006 BKN012 BKN020 09/07 Q1008,RJCH,2023-05-06T09:00:00Z,41.77,140.82,9.0,7.0,110,9,,6.21,29.763779,,,,,,,,,,-DZ,FEW,600,BKN,1200,BKN,2000,,,MVFR,,,,,,,,,,,,METAR,36.0
RJCC 060900Z 36010KT 9999 FEW030 BKN/// 11/04 Q1008,RJCC,2023-05-06T09:00:00Z,42.77,141.68,11.0,4.0,360,10,,6.21,29.763779,,,,,,,,,,,FEW,3000,,,,,,,VFR,,,,,,,,,,,,METAR,19.0
RJCB 060900Z 14005KT 4000 -SHRA BR FEW003 BKN005 BKN007 06/06 Q1009,RJCB,2023-05-06T09:00:00Z,42.72,143.22,6.0,6.0,140,5,,2.49,29.793306,,,,,,,,,,-SHRA BR,FEW,300,BKN,500,BKN,700,,,IFR,,,,,,,,,,,,METAR,149.0
RJBT 060900Z 18010KT 150V210 9999 -SHRA FEW000 SCT030 BKN110 19/18 Q1005,RJBT,2023-05-06T09:00:00Z,35.5,134.8,19.0,18.0,180,10,,6.21,29.675198,,,,,,,,,,-SHRA,FEW,0,SCT,3000,BKN,11000,,,VFR,,,,,,,,,,,,METAR,172.0
RJBE 060900Z 19011KT 9999 -SHRA FEW015 SCT030 BKN070 20/18 Q1008,RJBE,2023-05-06T09:00:00Z,34.63,135.23,20.0,18.0,190,11,,6.21,29.763779,,,,,,,,,,-SHRA,FEW,1500,SCT,3000,BKN,7000,,,VFR,,,,,,,,,,,,METAR,5.0
RJBD 060900Z 15010KT 9999 FEW015 SCT040 BKN050 20/18 Q1010,RJBD,2023-05-06T09:00:00Z,33.67,135.37,20.0,18.0,150,10,,6.21,29.822834,,,,,,,,,,,FEW,1500,SCT,4000,BKN,5000,,,VFR,,,,,,,,,,,,METAR,91.0
RJBB 060900Z 19023KT 9999 -SHRA FEW015 SCT030 BKN100 21/18 Q1007 TEMPO 20025G36KT,RJBB,2023-05-06T09:00:00Z,34.43,135.25,21.0,18.0,190,23,,6.21,29.734253,,,,,,,,,,-SHRA,FEW,1500,SCT,3000,BKN,10000,,,VFR,,,2.5,,,,,,,,,METAR,8.0
RJAW 060900Z 10009KT 9999 FEW050 24/22 Q1012 RMK 2SC050 A2991 WIND BY EQPT/25,RJAW,2023-05-06T09:00:00Z,24.78,141.32,24.0,22.0,100,9,,6.21,29.88189,,,,,,,,,,,FEW,5000,,,,,,,VFR,,,,,,,,,,,,METAR,116.0
RJAH 060900Z 22015KT 9999 FEW030 BKN170 BKN230 23/14 Q1004,RJAH,2023-05-06T09:00:00Z,36.17,140.42,23.0,14.0,220,15,,6.21,29.64567,,,,,,,,,,,FEW,3000,BKN,17000,BKN,23000,,,VFR,,,,,,,,,,,,METAR,31.0
RJAF 060900Z 15013KT 9999 VCSH FEW025 SCT050 BKN090 19/14 Q1008,RJAF,2023-05-06T09:00:00Z,36.17,137.92,19.0,14.0,150,13,,6.21,29.763779,,,,,,,,,,VCSH,FEW,2500,SCT,5000,BKN,9000,,,VFR,,,,,,,,,,,,METAR,652.0
RJAA 060900Z 21018G35KT 170V240 9999 FEW030 BKN/// 23/15 Q1004 NOSIG,RJAA,2023-05-06T09:00:00Z,35.77,140.38,23.0,15.0,210,18,35,6.21,29.64567,,,,,,TRUE,,,,,FEW,3000,,,,,,,VFR,,,,,,,,,,,,METAR,36.0
RCTP 060900Z 23009KT 190V260 9999 FEW020 SCT150 BKN200 30/23 Q1002 NOSIG RMK A2960,RCTP,2023-05-06T09:00:00Z,25.07,121.22,30.0,23.0,230,9,,6.21,29.586615,,,,,,TRUE,,,,,FEW,2000,SCT,15000,BKN,20000,,,VFR,,,,,,,,,,,,METAR,33.0
RCSS 060900Z 08010KT 9999 FEW025 SCT050 BKN150 31/22 Q1002 NOSIG RMK A2960,RCSS,2023-05-06T09:00:00Z,25.07,121.55,31.0,22.0,80,10,,6.21,29.586615,,,,,,TRUE,,,,,FEW,2500,SCT,5000,BKN,15000,,,VFR,,,,,,,,,,,,SPECI,8.0
RCNN 060900Z 22008KT 9999 FEW012 SCT100 BKN200 29/21 Q1004 NOSIG RMK A2965,RCNN,2023-05-06T09:00:00Z,22.93,120.2,29.0,21.0,220,8,,6.21,29.64567,,,,,,TRUE,,,,,FEW,1200,SCT,10000,BKN,20000,,,VFR,,,,,,,,,,,,SPECI,15.0
RCMQ 060900Z 20008KT 9999 FEW012 SCT050 BKN200 29/21 Q1003 NOSIG RMK A2964,RCMQ,2023-05-06T09:00:00Z,24.27,120.62,29.0,21.0,200,8,,6.21,29.616142,,,,,,TRUE,,,,,FEW,1200,SCT,5000,BKN,20000,,,VFR,,,,,,,,,,,,SPECI,202.0
RCKH 060900Z 21007KT 180V250 9999 FEW016 31/22 Q1003 NOSIG RMK A2963,RCKH,2023-05-06T09:00:00Z,22.57,120.33,31.0,22.0,210,7,,6.21,29.616142,,,,,,TRUE,,,,,FEW,1600,,,,,,,VFR,,,,,,,,,,,,SPECI,6.0
RCFN 060900Z 21009KT 140V250 9999 FEW025 BKN300 30/26 Q1003 NOSIG RMK 21010KT/R04 A2962,RCFN,2023-05-06T09:00:00Z,22.77,121.1,30.0,26.0,210,9,,6.21,29.616142,,,,,,TRUE,,,,,FEW,2500,BKN,30000,,,,,VFR,,,-1.0,,,,,,,,,SPECI,42.0
PASC 060900Z 09009KT 1/2SM R06/1800VP6000FT FZFG VV002 M07/M07 A3004 RMK AO2 T10671072,PASC,2023-05-06T09:00:00Z,70.2,-148.47,-6.7,-7.2,90,9,,0.5,30.041338,,,,TRUE,,,,,,FZFG,OVX,0,,,,,,,LIFR,,,,,,,,,,,200,SPECI,17.0
OTHH 060900Z 04009KT CAVOK 31/15 Q1009 NOSIG,OTHH,2023-05-06T09:00:00Z,25.27,51.6,31.0,15.0,40,9,,6.21,29.793306,,,,,,TRUE,,,,,CAVOK,,,,,,,,VFR,,,,,,,,,,,,METAR,3.0
OTBD 060900Z 02013KT CAVOK 33/07 Q1009 NOSIG,OTBD,2023-05-06T09:00:00Z,25.25,51.57,33.0,7.0,20,13,,6.21,29.793306,,,,,,TRUE,,,,,CAVOK,,,,,,,,VFR,,,,,,,,,,,,METAR,13.0
OSLK 060900Z 21010G20KT 9999 FEW026 23/15 Q1010,OSLK,2023-05-06T09:00:00Z,35.4,35.95,23.0,15.0,210,10,20,6.21,29.822834,,,,,,,,,,,FEW,2600,,,,,,,VFR,,,,,,,,,,,,METAR,47.0
OSKL 060900Z 06010KT 9999 FEW026 SCT100 29/02 Q1010,OSKL,2023-05-06T09:00:00Z,37.03,41.2,29.0,2.0,60,10,,6.21,29.822834,,,,,,,,,,,FEW,2600,SCT,10000,,,,,VFR,,,,,,,,,,,,METAR,443.0
OSDI 060900Z 24011KT CAVOK 25/01 Q1011,OSDI,2023-05-06T09:00:00Z,33.42,36.52,25.0,1.0,240,11,,6.21,29.852362,,,,,,,,,,,CAVOK,,,,,,,,VFR,,,,,,,,,,,,METAR,614.0
OSAP 060900Z 28008KT 9999 SCT030 BKN100 24/08 Q1010,OSAP,2023-05-06T09:00:00Z,36.17,37.22,24.0,8.0,280,8,,6.21,29.822834,,,,,,,,,,,SCT,3000,BKN,10000,,,,,VFR,,,,,,,,,,,,METAR,390.0
ORSU 060900Z 13010KT CAVOK 27/07 Q1015,ORSU,2023-05-06T09:00:00Z,35.57,45.32,27.0,7.0,130,10,,6.21,29.970472,,,,,,,,,,,CAVOK,,,,,,,,VFR,,,,,,,,,,,,METAR,760.0
ORNI 060900Z 00000KT 8000 NSC 33/M01 Q1010,ORNI,2023-05-06T09:00:00Z,31.98,44.4,33.0,-1.0,0,0,,4.97,29.822834,,,,,,,,,,,CLR,,,,,,,,MVFR,,,,,,,,,,,,METAR,33.0
ORMM 060900Z 25006KT CAVOK 35/M05 Q1010 NOSIG,ORMM,2023-05-06T09:00:00Z,30.53,47.67,35.0,-5.0,250,6,,6.21,29.822834,,,,,,TRUE,,,,,CAVOK,,,,,,,,VFR,,,,,,,,,,,,METAR,2.0
ORER 060900Z VRB03KT CAVOK 31/02 Q1013,ORER,2023-05-06T09:00:00Z,36.23,43.97,31.0,2.0,0,3,,6.21,29.911417,,,,,,,,,,,CAVOK,,,,,,,,VFR,,,,,,,,,,,,METAR,399.0
ORBI 060900Z 30005KT 250V010 CAVOK 34/02 Q1009 NOSIG,ORBI,2023-05-06T09:00:00Z,33.27,44.23,34.0,2.0,300,5,,6.21,29.793306,,,,,,TRUE,,,,,CAVOK,,,,,,,,VFR,,,,,,,,,,,,METAR,37.0
OPST 060900Z 00000KT 5000 HZ SCT040 33/14 Q1007 NOSIG 33%,OPST,2023-05-06T09:00:00Z,32.53,74.37,33.0,14.0,0,0,,3.11,29.734253,,,,,,TRUE,,,,HZ,SCT,4000,,,,,,,MVFR,,,,,,,,,,,,METAR,234.0
OPSK 060900Z 23008KT 5000 HZ NSC 38/18 Q1005 NOSIG,OPSK,2023-05-06T09:00:00Z,27.72,68.8,38.0,18.0,230,8,,3.11,29.675198,,,,,,TRUE,,,,HZ,CLR,,,,,,,,MVFR,,,,,,,,,,,,METAR,62.0
OPPS 060900Z 36010KT 9999 FEW030TCU SCT040 BKN080 25/12 Q1009,OPPS,2023-05-06T09:00:00Z,33.98,71.52,25.0,12.0,360,10,,6.21,29.793306,,,,,,,,,,,FEW,3000,SCT,4000,BKN,8000,,,VFR,,,,,,,,,,,,METAR,356.0
OPNH 060900Z 23004KT 6000 NSC 41/20 Q1005,OPNH,2023-05-06T09:00:00Z,26.22,68.38,41.0,20.0,230,4,,3.73,29.675198,,,,,,,,,,,CLR,,,,,,,,MVFR,,,,,,,,,,,,METAR,30.0
OPIS 060900Z 31016KT 7000 FEW040 31/17 Q1007 TEMPO 31015G25KT,OPIS,2023-05-06T09:00:00Z,33.55,72.83,31.0,17.0,310,16,,4.35,29.734253,,,,,,,,,,,FEW,4000,,,,,,,MVFR,,,,,,,,,,,,METAR,542.0
OMSJ 060900Z 32012KT CAVOK 33/21 Q1009 NOSIG,OMSJ,2023-05-06T09:00:00Z,25.32,55.52,33.0,21.0,320,12,,6.21,29.793306,,,,,,TRUE,,,,,CAVOK,,,,,,,,VFR,,,,,,,,,,,,METAR,33.0
OMRK 060900Z 32008KT 8000 NSC 34/22 Q1009 A2980,OMRK,2023-05-06T09:00:00Z,25.62,55.93,34.0,22.0,320,8,,4.97,29.793306,,,,,,,,,,,CLR,,,,,,,,MVFR,,,,,,,,,,,,METAR,18.0
OMFJ 060900Z 07009KT 030V110 7000 FEW030 31/22 Q1009 A2981,OMFJ,2023-05-06T09:00:00Z,25.1,56.32,31.0,22.0,70,9,,4.35,29.793306,,,,,,,,,,,FEW,3000,,,,,,,MVFR,,,,,,,,,,,,METAR,27.0
OMDW 060900Z 31009KT 270V350 CAVOK 34/20 Q1009 NOSIG,OMDW,2023-05-06T09:00:00Z,24.9,55.17,34.0,20.0,310,9,,6.21,29.793306,,,,,,TRUE,,,,,CAVOK,,,,,,,,VFR,,,,,,,,,,,,METAR,34.0
OMDB 060900Z 32011KT 290V350 CAVOK 32/22 Q1009 NOSIG,OMDB,2023-05-06T09:00:00Z,25.25,55.37,32.0,22.0,320,11,,6.21,29.793306,,,,,,TRUE,,,,,CAVOK,,,,,,,,VFR,,,,,,,,,,,,METAR,5.0
OMAL 060900Z 25006KT 190V340 CAVOK 36/12 Q1010 NOSIG,OMAL,2023-05-06T09:00:00Z,24.25,55.6,36.0,12.0,250,6,,6.21,29.822834,,,,,,TRUE,,,,,CAVOK,,,,,,,,VFR,,,,,,,,,,,,METAR,247.0
OMAD 060900Z 34008KT 300V020 CAVOK 31/19 Q1009 NOSIG,OMAD,2023-05-06T09:00:00Z,24.42,54.47,31.0,19.0,340,8,,6.21,29.793306,,,,,,TRUE,,,,,CAVOK,,,,,,,,VFR,,,,,,,,,,,,METAR,9.0
OMAA 060900Z 29007KT 260V330 CAVOK 33/16 Q1008 NOSIG,OMAA,2023-05-06T09:00:00Z,24.42,54.65,33.0,16.0,290,7,,6.21,29.763779,,,,,,TRUE,,,,,CAVOK,,,,,,,,VFR,,,,,,,,,,,,METAR,13.0
OLBA 060900Z 21013KT 8000 SCT026 22/16 Q1013 NOSIG,OLBA,2023-05-06T09:00:00Z,33.82,35.48,22.0,16.0,210,13,,4.97,29.911417,,,,,,TRUE,,,,,SCT,2600,,,,,,,MVFR,,,,,,,,,,,,METAR,29.0
OKKK 060900Z 35004KT CAVOK 36/M02 Q1010 NOSIG,OKKK,2023-05-06T09:00:00Z,,,36.0,-2.0,350,4,,6.21,29.822834,,,,,,TRUE,,,,,CAVOK,,,,,,,,VFR,,,,,,,,,,,,METAR,
OJAQ 060900Z 01004KT 5000 HZ NSC 29/11 Q1010 NOSIG,OJAQ,2023-05-06T09:00:00Z,29.62,35.02,29.0,11.0,10,4,,3.11,29.822834,,,,,,TRUE,,,,HZ,CLR,,,,,,,,MVFR,,,,,,,,,,,,METAR,45.0
OJAM 060900Z 28012KT 5000 HZ FEW035 21/05 Q1013 NOSIG,OJAM,2023-05-06T09:00:00Z,31.98,35.98,21.0,5.0,280,12,,3.11,29.911417,,,,,,TRUE,,,,HZ,FEW,3500,,,,,,,MVFR,,,,,,,,,,,,METAR,765.0
OJAI 060900Z 26018KT 4000 BLDU NSC 22/07 Q1013 NOSIG,OJAI,2023-05-06T09:00:00Z,31.72,36.0,22.0,7.0,260,18,,2.49,29.911417,,,,,,TRUE,,,,BLDU,CLR,,,,,,,,IFR,,,,,,,,,,,,METAR,723.0
OIZJ 060900Z 27006KT 8000 NSC 30/26 Q1008,OIZJ,2023-05-06T09:00:00Z,25.65,57.8,30.0,26.0,270,6,,4.97,29.763779,,,,,,,,,,,CLR,,,,,,,,MVFR,,,,,,,,,,,,METAR,6.0
OIZI 060900Z 28008KT CAVOK 36/03 Q1011,OIZI,2023-05-06T09:00:00Z,27.23,60.72,36.0,3.0,280,8,,6.21,29.852362,,,,,,,,,,,CAVOK,,,,,,,,VFR,,,,,,,,,,,,METAR,622.0
OIZH 060900Z 34006KT CAVOK 27/M01 Q1018 A3008 NOSIG,OIZH,2023-05-06T09:00:00Z,29.47,60.92,27.0,-1.0,340,6,,6.21,30.059055,,,,,,TRUE,,,,,CAVOK,,,,,,,,VFR,,,,,,,,,,,,METAR,1378.0
OIZC 060900Z 20010KT 6000 NSC 34/23 Q1008 A2977,OIZC,2023-05-06T09:00:00Z,25.45,60.38,34.0,23.0,200,10,,3.73,29.763779,,,,,,,,,,,CLR,,,,,,,,MVFR,,,,,,,,,,,,METAR,13.0
OIZB 060900Z 35010KT CAVOK 31/M00 Q1015,OIZB,2023-05-06T09:00:00Z,31.1,61.55,31.0,0.0,350,10,,6.21,29.970472,,,,,,,,,,,CAVOK,,,,,,,,VFR,,,,,,,,,,,,METAR,483.0
OIYY 060900Z 12002KT CAVOK 27/M11 Q1018 NOSIG,OIYY,2023-05-06T09:00:00Z,31.9,54.28,27.0,-11.0,120,2,,6.21,30.059055,,,,,,TRUE,,,,,CAVOK,,,,,,,,VFR,,,,,,,,,,,,METAR,1226.0
OITZ 060900Z 33004KT 9999 FEW035 23/M02 Q1018 A3006,OITZ,2023-05-06T09:00:00Z,36.77,48.37,23.0,-2.0,330,4,,6.21,30.059055,,,,,,,,,,,FEW,3500,,,,,,,VFR,,,,,,,,,,,,METAR,1630.0
OITT 060900Z 24006KT 9999 FEW027 BKN200 24/M02 Q1017 A3006,OITT,2023-05-06T09:00:00Z,38.13,46.23,24.0,-2.0,240,6,,6.21,30.029528,,,,,,,,,,,FEW,2700,BKN,20000,,,,,VFR,,,,,,,,,,,,METAR,1353.0
OITR 060900Z 14006KT 9999 FEW035 BKN160 23/04 Q1016 A3001,OITR,2023-05-06T09:00:00Z,37.67,45.07,23.0,4.0,140,6,,6.21,30.0,,,,,,,,,,,FEW,3500,BKN,16000,,,,,VFR,,,,,,,,,,,,METAR,1312.0
OITP 060900Z 09008KT 9999 SCT040 20/20 Q1013,OITP,2023-05-06T09:00:00Z,39.6,47.88,20.0,20.0,90,8,,6.21,29.911417,,,,,,,,,,,SCT,4000,,,,,,,VFR,,,,,,,,,,,,METAR,72.0
OITM 060900Z 20002KT 9999 FEW035 25/01 Q1017,OITM,2023-05-06T09:00:00Z,37.35,46.15,25.0,1.0,200,2,,6.21,30.029528,,,,,,,,,,,FEW,3500,,,,,,,VFR,,,,,,,,,,,,METAR,1340.0
OITL 060900Z VRB08KT 9999 FEW035 23/01 Q1016 NOSIG,OITL,2023-05-06T09:00:00Z,38.33,48.42,23.0,1.0,0,8,,6.21,30.0,,,,,,TRUE,,,,,FEW,3500,,,,,,,VFR,,,,,,,,,,,,METAR,1314.0
OISY 060900Z 32008KT CAVOK 26/M12 Q1022,OISY,2023-05-06T09:00:00Z,30.7,51.55,26.0,-12.0,320,8,,6.21,30.177166,,,,,,,,,,,CAVOK,,,,,,,,VFR,,,,,,,,,,,,METAR,1800.0
OISS 060900Z 14004KT CAVOK 29/M07 Q1017 A3005,OISS,2023-05-06T09:00:00Z,29.53,52.58,29.0,-7.0,140,4,,6.21,30.029528,,,,,,,,,,,CAVOK,,,,,,,,VFR,,,,,,,,,,,,METAR,1484.0
OISR 060900Z 14004KT CAVOK 35/09 Q1011 A2988 NOSIG,OISR,2023-05-06T09:00:00Z,27.37,53.2,35.0,9.0,140,4,,6.21,29.852362,,,,,,TRUE,,,,,CAVOK,,,,,,,,VFR,,,,,,,,,,,,METAR,402.0
OISL 060900Z 06010KT CAVOK 34/04 Q1011 A2988 NOSIG,OISL,2023-05-06T09:00:00Z,27.67,54.37,34.0,4.0,60,10,,6.21,29.852362,,,,,,TRUE,,,,,CAVOK,,,,,,,,VFR,,,,,,,,,,,,METAR,804.0
OISF 060900Z 13010KT CAVOK 30/M16 Q1017 A3004,OISF,2023-05-06T09:00:00Z,28.9,53.72,30.0,-16.0,130,10,,6.21,30.029528,,,,,,,,,,,CAVOK,,,,,,,,VFR,,,,,,,,,,,,METAR,1305.0
OINZ 060900Z 07006KT CAVOK 26/11 Q1014,OINZ,2023-05-06T09:00:00Z,36.63,53.2,26.0,11.0,70,6,,6.21,29.940945,,,,,,,,,,,CAVOK,,,,,,,,VFR,,,,,,,,,,,,METAR,8.0
OINR 060900Z 05006KT 9999 FEW025 19/16 Q1014,OINR,2023-05-06T09:00:00Z,36.9,50.67,19.0,16.0,50,6,,6.21,29.940945,,,,,,,,,,,FEW,2500,,,,,,,VFR,,,,,,,,,,,,METAR,-19.0
OINN 060900Z 35006KT 9999 FEW020 20/17 Q1014,OINN,2023-05-06T09:00:00Z,36.67,51.47,20.0,17.0,350,6,,6.21,29.940945,,,,,,,,,,,FEW,2000,,,,,,,VFR,,,,,,,,,,,,METAR,-25.0
OING 060900Z 09008KT CAVOK 27/08 Q1015 NOSIG,OING,2023-05-06T09:00:00Z,36.9,54.4,27.0,8.0,90,8,,6.21,29.970472,,,,,,TRUE,,,,,CAVOK,,,,,,,,VFR,,,,,,,,,,,,METAR,0.0
OINE 060900Z 21006KT 9999 FEW035 26/05 Q1013,OINE,2023-05-06T09:00:00Z,37.38,55.45,26.0,5.0,210,6,,6.21,29.911417,,,,,,,,,,,FEW,3500,,,,,,,VFR,,,,,,,,,,,,METAR,125.0
OIMT 060900Z AUTO 35002KT //// // ////// 29/M04 Q1015,OIMT,2023-05-06T09:00:00Z,33.67,56.88,29.0,-4.0,350,2,,,29.970472,,,TRUE,,,,,,,,,,,,,,,,,,,,,,,,,,,,METAR,693.0
OIMS 060900Z 24014KT 9999 FEW035 23/M04 Q1018,OIMS,2023-05-06T09:00:00Z,36.17,57.6,23.0,-4.0,240,14,,6.21,30.059055,,,,,,,,,,,FEW,3500,,,,,,,VFR,,,,,,,,,,,,METAR,920.0
OIMN 060900Z 28012KT 9999 FEW040 19/02 Q1017,OIMN,2023-05-06T09:00:00Z,37.48,57.3,19.0,2.0,280,12,,6.21,30.029528,,,,,,,,,,,FEW,4000,,,,,,,VFR,,,,,,,,,,,,METAR,1065.0
OIMM 060900Z 07008KT 8000 FEW030 19/09 Q1017 A3004,OIMM,2023-05-06T09:00:00Z,36.23,59.63,19.0,9.0,70,8,,4.97,30.029528,,,,,,,,,,,FEW,3000,,,,,,,MVFR,,,,,,,,,,,,METAR,995.0
OIMJ 060900Z 00000KT 9999 FEW035 22/M04 Q1017,OIMJ,2023-05-06T09:00:00Z,36.43,55.1,22.0,-4.0,0,0,,6.21,30.029528,,,,,,,,,,,FEW,3500,,,,,,,VFR,,,,,,,,,,,,METAR,1285.0
OIMB 060900Z 28008KT CAVOK 24/M12 Q1018 A3008,OIMB,2023-05-06T09:00:00Z,32.9,59.28,24.0,-12.0,280,8,,6.21,30.059055,,,,,,,,,,,CAVOK,,,,,,,,VFR,,,,,,,,,,,,METAR,1512.0
OIKQ 060900Z 20010KT 7000 NSC 33/26 Q1009 NOSIG,OIKQ,2023-05-06T09:00:00Z,26.75,55.9,33.0,26.0,200,10,,4.35,29.793306,,,,,,TRUE,,,,,CLR,,,,,,,,MVFR,,,,,,,,,,,,METAR,9.0
OIKK 060900Z 29008KT CAVOK 27/M06 Q1018 A3007,OIKK,2023-05-06T09:00:00Z,30.25,56.97,27.0,-6.0,290,8,,6.21,30.059055,,,,,,,,,,,CAVOK,,,,,,,,VFR,,,,,,,,,,,,METAR,1749.0
OIKB 060900Z 22008KT 7000 NSC 36/17 Q1008 A2978 NOSIG,OIKB,2023-05-06T09:00:00Z,27.22,56.37,36.0,17.0,220,8,,4.35,29.763779,,,,,,TRUE,,,,,CLR,,,,,,,,MVFR,,,,,,,,,,,,METAR,6.0
OIIP 060900Z 27006KT CAVOK 25/M04 Q1016 A3001,OIIP,2023-05-06T09:00:00Z,35.78,50.83,25.0,-4.0,270,6,,6.21,30.0,,,,,,,,,,,CAVOK,,,,,,,,VFR,,,,,,,,,,,,METAR,1270.0
OIIK 060900Z 20006KT CAVOK 24/01 Q1016,OIIK,2023-05-06T09:00:00Z,36.25,50.05,24.0,1.0,200,6,,6.21,30.0,,,,,,,,,,,CAVOK,,,,,,,,VFR,,,,,,,,,,,,METAR,1278.0
OIII 060900Z 19008KT 9999 FEW035 23/M07 Q1017 A3004 NOSIG,OIII,2023-05-06T09:00:00Z,35.68,51.3,23.0,-7.0,190,8,,6.21,30.029528,,,,,,TRUE,,,,,FEW,3500,,,,,,,VFR,,,,,,,,,,,,METAR,1182.0
OIIE 060900Z 20004KT CAVOK 26/M07 Q1016,OIIE,2023-05-06T09:00:00Z,35.42,51.15,26.0,-7.0,200,4,,6.21,30.0,,,,,,,,,,,CAVOK,,,,,,,,VFR,,,,,,,,,,,,METAR,993.0
OIHR 060900Z 34010KT CAVOK 23/M05 Q1019,OIHR,2023-05-06T09:00:00Z,34.13,49.85,23.0,-5.0,340,10,,6.21,30.088583,,,,,,,,,,,CAVOK,,,,,,,,VFR,,,,,,,,,,,,METAR,1658.0
OIHH 060900Z 04004KT CAVOK 23/M07 Q1019 A3010,OIHH,2023-05-06T09:00:00Z,34.87,48.55,23.0,-7.0,40,4,,6.21,30.088583,,,,,,,,,,,CAVOK,,,,,,,,VFR,,,,,,,,,,,,METAR,1742.0
OIGG 060900Z 35004KT 9999 SCT020 22/15 Q1015,OIGG,2023-05-06T09:00:00Z,37.33,49.6,22.0,15.0,350,4,,6.21,29.970472,,,,,,,,,,,SCT,2000,,,,,,,VFR,,,,,,,,,,,,METAR,-16.0
OIFS 060900Z 05004KT CAVOK 23/M11 Q1022,OIFS,2023-05-06T09:00:00Z,32.28,50.85,23.0,-11.0,50,4,,6.21,30.177166,,,,,,,,,,,CAVOK,,,,,,,,VFR,,,,,,,,,,,,METAR,2042.0
OIFM 060900Z 00000KT CAVOK 25/M11 Q1020 A3012,OIFM,2023-05-06T09:00:00Z,32.75,51.87,25.0,-11.0,0,0,,6.21,30.11811,,,,,,,,,,,CAVOK,,,,,,,,VFR,,,,,,,,,,,,METAR,1539.0
OICS 060900Z 18006KT CAVOK 24/M00 Q1017 A3005,OICS,2023-05-06T09:00:00Z,35.25,47.02,24.0,0.0,180,6,,6.21,30.029528,,,,,,,,,,,CAVOK,,,,,,,,VFR,,,,,,,,,,,,METAR,1369.0
OICK 060900Z 26006KT CAVOK 27/00 Q1016,OICK,2023-05-06T09:00:00Z,33.43,48.28,27.0,0.0,260,6,,6.21,30.0,,,,,,,,,,,CAVOK,,,,,,,,VFR,,,,,,,,,,,,METAR,1156.0
OICI 060900Z 16004KT CAVOK 28/M03 Q1018 A3008,OICI,2023-05-06T09:00:00Z,33.58,46.4,28.0,-3.0,160,4,,6.21,30.059055,,,,,,,,,,,CAVOK,,,,,,,,VFR,,,,,,,,,,,,METAR,1323.0
OICC 060900Z 14006KT CAVOK 25/M03 Q1017 A3005,OICC,2023-05-06T09:00:00Z,34.35,47.17,25.0,-3.0,140,6,,6.21,30.029528,,,,,,,,,,,CAVOK,,,,,,,,VFR,,,,,,,,,,,,METAR,1310.0
OIBV 060900Z 18012KT 8000 NSC 29/22 Q1009,OIBV,2023-05-06T09:00:00Z,26.82,53.35,29.0,22.0,180,12,,4.97,29.793306,,,,,,,,,,,CLR,,,,,,,,MVFR,,,,,,,,,,,,METAR,23.0
OIBS 060900Z 13004KT 4500 HZ NSC 29/22 Q1009,OIBS,2023-05-06T09:00:00Z,25.9,54.55,29.0,22.0,130,4,,2.8,29.793306,,,,,,,,,,HZ,CLR,,,,,,,,IFR,,,,,,,,,,,,METAR,4.0
OIBQ 060900Z 31008KT CAVOK 29/14 Q1009,OIBQ,2023-05-06T09:00:00Z,29.27,50.32,29.0,14.0,310,8,,6.21,29.793306,,,,,,,,,,,CAVOK,,,,,,,,VFR,,,,,,,,,,,,METAR,3.0
OIBP 060900Z 18008KT CAVOK 35/18 Q1008 A2979,OIBP,2023-05-06T09:00:00Z,27.38,52.73,35.0,18.0,180,8,,6.21,29.763779,,,,,,,,,,,CAVOK,,,,,,,,VFR,,,,,,,,,,,,METAR,13.0
OIBL 060900Z 18010KT 5000 HZ NSC 30/23 Q1009,OIBL,2023-05-06T09:00:00Z,26.53,54.82,30.0,23.0,180,10,,3.11,29.793306,,,,,,,,,,HZ,CLR,,,,,,,,MVFR,,,,,,,,,,,,METAR,25.0
OIBK 060900Z 16006KT 6000 NSC 30/17 Q1010 OSIG,OIBK,2023-05-06T09:00:00Z,26.53,53.98,30.0,17.0,160,6,,3.73,29.822834,,,,,,,,,,,CLR,,,,,,,,MVFR,,,,,,,,,,,,METAR,27.0
OIBJ 060900Z AUTO 21007KT //// // ////// 31/05 Q////,OIBJ,2023-05-06T09:00:00Z,27.82,52.35,31.0,5.0,210,7,,,,,,TRUE,,,,,,,,,,,,,,,,,,,,,,,,,,,,METAR,647.0
OIBH 060900Z 24010KT CAVOK 29/15 Q1009 A2981,OIBH,2023-05-06T09:00:00Z,27.2,54.32,29.0,15.0,240,10,,6.21,29.793306,,,,,,,,,,,CAVOK,,,,,,,,VFR,,,,,,,,,,,,METAR,412.0
OIBB 060900Z 28008KT CAVOK 27/17 Q1009 A2981 NOSIG,OIBB,2023-05-06T09:00:00Z,28.93,50.83,27.0,17.0,280,8,,6.21,29.793306,,,,,,TRUE,,,,,CAVOK,,,,,,,,VFR,,,,,,,,,,,,METAR,15.0
OIBA 060900Z 28006KT CAVOK 29/22 Q1008,OIBA,2023-05-06T09:00:00Z,25.88,55.03,29.0,22.0,280,6,,6.21,29.763779,,,,,,,,,,,CAVOK,,,,,,,,VFR,,,,,,,,,,,,METAR,7.0
OIAW 060900Z 23004KT CAVOK 38/M04 Q1008,OIAW,2023-05-06T09:00:00Z,31.33,48.77,38.0,-4.0,230,4,,6.21,29.763779,,,,,,,,,,,CAVOK,,,,,,,,VFR,,,,,,,,,,,,METAR,25.0
OIAM 060900Z 24010KT CAVOK 35/03 Q1008,OIAM,2023-05-06T09:00:00Z,30.55,49.15,35.0,3.0,240,10,,6.21,29.763779,,,,,,,,,,,CAVOK,,,,,,,,VFR,,,,,,,,,,,,METAR,7.0
OIAH 060900Z 26006KT CAVOK 34/M03 Q1013,OIAH,2023-05-06T09:00:00Z,30.33,50.83,34.0,-3.0,260,6,,6.21,29.911417,,,,,,,,,,,CAVOK,,,,,,,,VFR,,,,,,,,,,,,METAR,730.0
OIAG 060900Z 29012KT CAVOK 37/M02 Q1009,OIAG,2023-05-06T09:00:00Z,30.73,49.68,37.0,-2.0,290,12,,6.21,29.793306,,,,,,,,,,,CAVOK,,,,,,,,VFR,,,,,,,,,,,,METAR,17.0
OIAA 060900Z 28004KT CAVOK 35/M04 Q1010,OIAA,2023-05-06T09:00:00Z,30.35,48.22,35.0,-4.0,280,4,,6.21,29.822834,,,,,,,,,,,CAVOK,,,,,,,,VFR,,,,,,,,,,,,METAR,4.0
OEYN 060900Z 23012KT CAVOK 34/17 Q1007 NOSIG,OEYN,2023-05-06T09:00:00Z,24.13,38.07,34.0,17.0,230,12,,6.21,29.734253,,,,,,TRUE,,,,,CAVOK,,,,,,,,VFR,,,,,,,,,,,,METAR,20.0
OEWJ 060900Z 30017KT CAVOK 29/13 Q1010 NOSIG,OEWJ,2023-05-06T09:00:00Z,26.18,36.47,29.0,13.0,300,17,,6.21,29.822834,,,,,,TRUE,,,,,CAVOK,,,,,,,,VFR,,,,,,,,,,,,METAR,8.0
OEWD 060900Z 14014KT CAVOK 37/M05 Q1012,OEWD,2023-05-06T09:00:00Z,20.5,45.2,37.0,-5.0,140,14,,6.21,29.88189,,,,,,,,,,,CAVOK,,,,,,,,VFR,,,,,,,,,,,,METAR,629.0
OETR 060900Z 34012KT 7000 NSC 28/M04 Q1011 NOSIG,OETR,2023-05-06T09:00:00Z,31.7,38.73,28.0,-4.0,340,12,,4.35,29.852362,,,,,,TRUE,,,,,CLR,,,,,,,,MVFR,,,,,,,,,,,,METAR,854.0
OETF 060900Z 04004KT CAVOK 31/01 Q1020 NOSIG,OETF,2023-05-06T09:00:00Z,21.47,40.53,31.0,1.0,40,4,,6.21,30.11811,,,,,,TRUE,,,,,CAVOK,,,,,,,,VFR,,,,,,,,,,,,METAR,1460.0
OETB 060900Z 23018KT 8000 NSC 32/M08 Q1011 NOSIG,OETB,2023-05-06T09:00:00Z,28.37,36.62,32.0,-8.0,230,18,,4.97,29.852362,,,,,,TRUE,,,,,CLR,,,,,,,,MVFR,,,,,,,,,,,,METAR,770.0
OESK 060900Z 27018KT CAVOK 35/00 Q1013 NOSIG,OESK,2023-05-06T09:00:00Z,29.78,40.1,35.0,0.0,270,18,,6.21,29.911417,,,,,,TRUE,,,,,CAVOK,,,,,,,,VFR,,,,,,,,,,,,METAR,671.0
OESH 060900Z 10008KT CAVOK 38/06 Q1013 NOSIG,OESH,2023-05-06T09:00:00Z,17.47,47.12,38.0,6.0,100,8,,6.21,29.911417,,,,,,TRUE,,,,,CAVOK,,,,,,,,VFR,,,,,,,,,,,,METAR,720.0
OERR 060900Z 17020KT CAVOK 34/M07 Q1009 NOSIG,OERR,2023-05-06T09:00:00Z,30.9,41.13,34.0,-7.0,170,20,,6.21,29.793306,,,,,,TRUE,,,,,CAVOK,,,,,,,,VFR,,,,,,,,,,,,METAR,554.0
OERK 060900Z 17006KT CAVOK 35/03 Q1014 NOSIG,OERK,2023-05-06T09:00:00Z,24.95,46.72,35.0,3.0,170,6,,6.21,29.940945,,,,,,TRUE,,,,,CAVOK,,,,,,,,VFR,,,,,,,,,,,,METAR,618.0
OERF 060900Z 14009KT CAVOK 34/M10 Q1011 NOSIG,OERF,2023-05-06T09:00:00Z,29.62,43.48,34.0,-10.0,140,9,,6.21,29.852362,,,,,,TRUE,,,,,CAVOK,,,,,,,,VFR,,,,,,,,,,,,METAR,441.0
OEPA 060900Z 09004KT CAVOK 35/11 Q1011 NOSIG,OEPA,2023-05-06T09:00:00Z,28.33,46.12,35.0,11.0,90,4,,6.21,29.852362,,,,,,TRUE,,,,,CAVOK,,,,,,,,VFR,,,,,,,,,,,,METAR,361.0
OENG 060900Z 15006KT 9999 FEW030 34/05 Q1017 NOSIG,OENG,2023-05-06T09:00:00Z,17.62,44.42,34.0,5.0,150,6,,6.21,30.029528,,,,,,TRUE,,,,,FEW,3000,,,,,,,VFR,,,,,,,,,,,,METAR,1210.0
OEMN 060900Z 09002KT CAVOK 38/11 Q1011,OEMN,2023-05-06T09:00:00Z,,,38.0,11.0,90,2,,6.21,29.852362,,,,,,,,,,,CAVOK,,,,,,,,VFR,,,,,,,,,,,,METAR,
OEMA 060900Z 18004KT CAVOK 36/M02 Q1014 NOSIG,OEMA,2023-05-06T09:00:00Z,24.55,39.7,36.0,-2.0,180,4,,6.21,29.940945,,,,,,TRUE,,,,,CAVOK,,,,,,,,VFR,,,,,,,,,,,,METAR,639.0
OEKM 060900Z 23010KT CAVOK 28/05 Q1023 NOSIG,OEKM,2023-05-06T09:00:00Z,18.3,42.78,28.0,5.0,230,10,,6.21,30.206694,,,,,,TRUE,,,,,CAVOK,,,,,,,,VFR,,,,,,,,,,,,METAR,2038.0
OEKJ 060900Z 19005KT CAVOK 36/M01 Q1015,OEKJ,2023-05-06T09:00:00Z,24.07,47.58,36.0,-1.0,190,5,,6.21,29.970472,,,,,,,,,,,CAVOK,,,,,,,,VFR,,,,,,,,,,,,METAR,487.0
OEJN 060900Z 29007KT 9999 FEW040 39/01 Q1008 NOSIG,OEJN,2023-05-06T09:00:00Z,21.68,39.15,39.0,1.0,290,7,,6.21,29.763779,,,,,,TRUE,,,,,FEW,4000,,,,,,,VFR,,,,,,,,,,,,METAR,8.0
OEHL 060900Z 23006KT CAVOK 34/04 Q1014,OEHL,2023-05-06T09:00:00Z,27.43,41.68,34.0,4.0,230,6,,6.21,29.940945,,,,,,,,,,,CAVOK,,,,,,,,VFR,,,,,,,,,,,,METAR,1002.0
OEGT 060900Z 29012KT 9000 NSC 26/03 Q1011 NOSIG,OEGT,2023-05-06T09:00:00Z,31.42,37.27,26.0,3.0,290,12,,5.59,29.852362,,,,,,TRUE,,,,,CLR,,,,,,,,VFR,,,,,,,,,,,,METAR,512.0
OEGS 060900Z 19007KT CAVOK 35/12 Q1010,OEGS,2023-05-06T09:00:00Z,26.3,43.77,35.0,12.0,190,7,,6.21,29.822834,,,,,,,,,,,CAVOK,,,,,,,,VFR,,,,,,,,,,,,METAR,647.0
OEGN 060900Z 26010KT 9000 NSC 38/19 Q1007 NOSIG,OEGN,2023-05-06T09:00:00Z,16.9,42.58,38.0,19.0,260,10,,5.59,29.734253,,,,,,TRUE,,,,,CLR,,,,,,,,VFR,,,,,,,,,,,,METAR,5.0
OEDR 060900Z 01011KT CAVOK 35/M03 Q1009,OEDR,2023-05-06T09:00:00Z,26.27,50.17,35.0,-3.0,10,11,,6.21,29.793306,,,,,,,,,,,CAVOK,,,,,,,,VFR,,,,,,,,,,,,METAR,17.0
OEDM 060900Z 21018KT CAVOK 35/01 Q1013,OEDM,2023-05-06T09:00:00Z,24.45,44.12,35.0,1.0,210,18,,6.21,29.911417,,,,,,,,,,,CAVOK,,,,,,,,VFR,,,,,,,,,,,,METAR,922.0
OEDF 060900Z 02009KT 340V090 CAVOK 36/M07 Q1009 NOSIG,OEDF,2023-05-06T09:00:00Z,26.43,49.82,36.0,-7.0,20,9,,6.21,29.793306,,,,,,TRUE,,,,,CAVOK,,,,,,,,VFR,,,,,,,,,,,,METAR,15.0
OEBH 060900Z 18008KT CAVOK 35/15 Q1014 NOSIG,OEBH,2023-05-06T09:00:00Z,19.98,42.62,35.0,15.0,180,8,,6.21,29.940945,,,,,,TRUE,,,,,CAVOK,,,,,,,,VFR,,,,,,,,,,,,METAR,1167.0
OEBA 060900Z 13005KT 9999 FEW030 31/03 Q1019 NOSIG,OEBA,2023-05-06T09:00:00Z,20.3,41.63,31.0,3.0,130,5,,6.21,30.088583,,,,,,TRUE,,,,,FEW,3000,,,,,,,VFR,,,,,,,,,,,,METAR,1659.0
OEAO 060900Z 22008KT CAVOK 35/M08 Q1012 NOSIG,OEAO,2023-05-06T09:00:00Z,26.48,38.12,35.0,-8.0,220,8,,6.21,29.88189,,,,,,TRUE,,,,,CAVOK,,,,,,,,VFR,,,,,,,,,,,,METAR,615.0
OEAH 060900Z 33008KT CAVOK 37/M09 Q1010 NOSIG,OEAH,2023-05-06T09:00:00Z,25.28,49.48,37.0,-9.0,330,8,,6.21,29.822834,,,,,,TRUE,,,,,CAVOK,,,,,,,,VFR,,,,,,,,,,,,METAR,180.0
OEAB 060900Z 18012KT 9999 FEW020 27/08 Q1024 NOSIG,OEAB,2023-05-06T09:00:00Z,18.23,42.65,27.0,8.0,180,12,,6.21,30.236221,,,,,,TRUE,,,,,FEW,2000,,,,,,,VFR,,,,,,,,,,,,METAR,2092.0
OBBI 060900Z 01010KT CAVOK 32/08 Q1010 NOSIG,OBBI,2023-05-06T09:00:00Z,26.27,50.63,32.0,8.0,10,10,,6.21,29.822834,,,,,,TRUE,,,,,CAVOK,,,,,,,,VFR,,,,,,,,,,,,METAR,6.0
NZWN 060900Z AUTO 04008KT 9999 NCD 18/14 Q1026,NZWN,2023-05-06T09:00:00Z,-41.32,174.8,18.0,14.0,40,8,,6.21,30.295275,,,TRUE,,,,,,,,CLR,,,,,,,,VFR,,,,,,,,,,,,METAR,12.0
NZCH 060900Z AUTO 07003KT 9999 NCD 09/08 Q1022,NZCH,2023-05-06T09:00:00Z,-43.48,172.52,9.0,8.0,70,3,,6.21,30.177166,,,TRUE,,,,,,,,CLR,,,,,,,,VFR,,,,,,,,,,,,METAR,36.0
NZAA 060900Z AUTO 08007KT 060V130 9999 FEW055/// SCT075/// 18/16 Q1026,NZAA,2023-05-06T09:00:00Z,-37.02,174.8,18.0,16.0,80,7,,6.21,30.295275,,,TRUE,,,,,,,,FEW,5500,SCT,7500,,,,,VFR,,,,,,,,,,,,METAR,7.0
NWWW 060900Z AUTO 00000KT 9999 FEW025 22/20 Q1013 NOSIG,NWWW,2023-05-06T09:00:00Z,-22.02,166.22,22.0,20.0,0,0,,6.21,29.911417,,,TRUE,,,TRUE,,,,,FEW,2500,,,,,,,VFR,,,,,,,,,,,,METAR,16.0
NVVV 060900Z VRB02KT 9999 FEW020 24/23 Q1010,NVVV,2023-05-06T09:00:00Z,-17.68,168.3,24.0,23.0,0,2,,6.21,29.822834,,,,,,,,,,,FEW,2000,,,,,,,VFR,,,,,,,,,,,,METAR,23.0
NVSS 060900Z 28001KT 9999 FEW025 23/22 Q1009,NVSS,2023-05-06T09:00:00Z,-15.52,167.22,23.0,22.0,280,1,,6.21,29.793306,,,,,,,,,,,FEW,2500,,,,,,,VFR,,,,,,,,,,,,METAR,47.0
NTAA 060900Z AUTO 11004KT 9999 FEW052 27/23 Q1013 NOSIG,NTAA,2023-05-06T09:00:00Z,-17.55,-149.62,27.0,23.0,110,4,,6.21,29.911417,,,TRUE,,,TRUE,,,,,FEW,5200,,,,,,,VFR,,,,,,,,,,,,METAR,2.0
NSFA 060900Z 16003KT 9999 FEW029 SCT160 23/23 Q1011,NSFA,2023-05-06T09:00:00Z,-13.83,-172.0,23.0,23.0,160,3,,6.21,29.852362,,,,,,,,,,,FEW,2900,SCT,16000,,,,,VFR,,,,,,,,,,,,METAR,6.0
NLWW 060900Z AUTO 10004KT 9999 NCD 28/25 Q1010 TEMPO 4000 SHRA BKN012 FEW016CB,NLWW,2023-05-06T09:00:00Z,-13.23,-176.18,28.0,25.0,100,4,,6.21,29.822834,,,TRUE,,,,,,,,CLR,,,,,,,,VFR,,,,,,,,,,,,METAR,24.0
NIUE 060900Z AUTO 10005KT NCD 24/23 Q1012,NIUE,2023-05-06T09:00:00Z,-19.07,-169.92,24.0,23.0,100,5,,,29.88189,,,TRUE,,,,,,,,CLR,,,,,,,,,,,,,,,,,,,,METAR,22.0
NGTA 060900Z 09007KT 9999 FEW020 29/25 Q1008,NGTA,2023-05-06T09:00:00Z,1.37,173.13,29.0,25.0,90,7,,6.21,29.763779,,,,,,,,,,,FEW,2000,,,,,,,VFR,,,,,,,,,,,,METAR,8.0
NGFU 060900Z 11010KT 9999 SCT020 30/28 Q1008,NGFU,2023-05-06T09:00:00Z,-8.52,179.18,30.0,28.0,110,10,,6.21,29.763779,,,,,,,,,,,SCT,2000,,,,,,,VFR,,,,,,,,,,,,METAR,2.0
NFTF 060900Z 10010KT 9999 FEW015TCU 25/23 Q1013,NFTF,2023-05-06T09:00:00Z,-21.23,-175.15,25.0,23.0,100,10,,6.21,29.911417,,,,,,,,,,,FEW,1500,,,,,,,VFR,,,,,,,,,,,,METAR,38.0
NFNA 060900Z 00000KT 9999 -SHRA SCT018TCU BKN048 BKN110 26/25 Q1011,NFNA,2023-05-06T09:00:00Z,-18.05,178.57,26.0,25.0,0,0,,6.21,29.852362,,,,,,,,,,-SHRA,SCT,1800,BKN,4800,BKN,11000,,,VFR,,,,,,,,,,,,METAR,6.0
NFFN 060900Z 12003KT 9999 -SHRA SCT018TCU BKN045 OVC110 24/23 Q1013 TEMPO 5000 TSRA FEW018CB,NFFN,2023-05-06T09:00:00Z,-17.75,177.45,24.0,23.0,120,3,,6.21,29.911417,,,,,,,,,,-SHRA,SCT,1800,BKN,4500,OVC,11000,,,VFR,,,,,,,,,,,,METAR,14.0
NCSW 060900Z AUTO NIL,NCSW,2023-05-06T09:00:00Z,,,,,,,,,,,,TRUE,,,,,,,,,,,,,,,,,,,,,,,,,,,,METAR,
NCRK 060900Z AUTO NIL,NCRK,2023-05-06T09:00:00Z,-10.02,-161.1,,,,,,,,,,TRUE,,,,,,,,,,,,,,,,,,,,,,,,,,,,METAR,7.0
NCRG 060900Z AUTO 06009KT 9999 FEW010/// BKN015/// BKN026/// 26/25 Q1013,NCRG,2023-05-06T09:00:00Z,-21.2,-159.82,26.0,25.0,60,9,,6.21,29.911417,,,TRUE,,,,,,,,FEW,1000,BKN,1500,BKN,2600,,,MVFR,,,,,,,,,,,,METAR,7.0
NCPY 060900Z AUTO NIL,NCPY,2023-05-06T09:00:00Z,-9.02,-158.03,,,,,,,,,,TRUE,,,,,,,,,,,,,,,,,,,,,,,,,,,,METAR,2.0
NCPL 060900Z AUTO NIL,NCPL,2023-05-06T09:00:00Z,1.98,-157.48,,,,,,,,,,TRUE,,,,,,,,,,,,,,,,,,,,,,,,,,,,METAR,3.0
NCPK 060900Z AUTO NIL,NCPK,2023-05-06T09:00:00Z,-10.9,-165.83,,,,,,,,,,TRUE,,,,,,,,,,,,,,,,,,,,,,,,,,,,METAR,5.0
NCNS 060900Z AUTO NIL,NCNS,2023-05-06T09:00:00Z,,,,,,,,,,,,TRUE,,,,,,,,,,,,,,,,,,,,,,,,,,,,METAR,
NCMR 060900Z AUTO 05005KT //// ////// ///// Q1012,NCMR,2023-05-06T09:00:00Z,-19.85,-157.7,,,50,5,,,29.88189,,,TRUE,,,,,,,,,,,,,,,,,,,,,,,,,,,,METAR,8.0
NCMK 060900Z AUTO 08006KT //// ////// 26/24 Q1011,NCMK,2023-05-06T09:00:00Z,-20.15,-157.33,26.0,24.0,80,6,,,29.852362,,,TRUE,,,,,,,,,,,,,,,,,,,,,,,,,,,,METAR,13.0
NCMH 060900Z AUTO NIL,NCMH,2023-05-06T09:00:00Z,-10.38,-161.0,,,,,,,,,,TRUE,,,,,,,,,,,,,,,,,,,,,,,,,,,,METAR,1.0
NCMG 060900Z AUTO 06011KT //// ////// ///// Q////,NCMG,2023-05-06T09:00:00Z,-21.88,-157.9,,,60,11,,,,,,TRUE,,,,,,,,,,,,,,,,,,,,,,,,,,,,METAR,14.0
NCAT 060900Z AUTO NIL,NCAT,2023-05-06T09:00:00Z,-19.97,-158.12,,,,,,,,,,TRUE,,,,,,,,,,,,,,,,,,,,,,,,,,,,METAR,11.0
NCAI 060900Z AUTO 13005KT //// ////// 27/25 Q1012,NCAI,2023-05-06T09:00:00Z,-18.82,-159.77,27.0,25.0,130,5,,,29.88189,,,TRUE,,,,,,,,,,,,,,,,,,,,,,,,,,,,METAR,7.0
MYSM 060900Z AUTO 09005KT 9999 SCT050/// 25/22 A3002,MYSM,2023-05-06T09:00:00Z,24.05,-74.52,25.0,22.0,90,5,,6.21,30.02067,,,TRUE,,,,,,,,SCT,5000,,,,,,,VFR,,,,,,,,,,,,METAR,5.0
MYNN 060900Z 04003KT CAVOK 22/20 A3003,MYNN,2023-05-06T09:00:00Z,25.03,-77.47,22.0,20.0,40,3,,6.21,30.029528,,,,,,,,,,,CAVOK,,,,,,,,VFR,,,,,,,,,,,,METAR,5.0
MYCB 060900Z AUTO /////KT ///V/// //// R09///// // BKN046 ///// A////,MYCB,2023-05-06T09:00:00Z,24.32,-75.45,,,,,,,,,,TRUE,,,,,,,,BKN,4600,,,,,,,,,,,,,,,,,,,METAR,2.0
MROC 060900Z 11011KT CAVOK 22/15 A2994 NOSIG,MROC,2023-05-06T09:00:00Z,10.0,-84.22,22.0,15.0,110,11,,6.21,29.940945,,,,,,TRUE,,,,,CAVOK,,,,,,,,VFR,,,,,,,,,,,,METAR,900.0
MPTO 060900Z 33003KT 9999 FEW020 27/23 Q1009 NOSIG,MPTO,2023-05-06T09:00:00Z,9.05,-79.38,27.0,23.0,330,3,,6.21,29.793306,,,,,,TRUE,,,,,FEW,2000,,,,,,,VFR,,,,,,,,,,,,METAR,7.0
MPMG 060900Z AUTO 33006KT //// R01///// // BKN049/// BKN230/// 27/24 Q1008,MPMG,2023-05-06T09:00:00Z,8.98,-79.57,27.0,24.0,330,6,,,29.763779,,,TRUE,,,,,,,,BKN,4900,BKN,23000,,,,,,,,,,,,,,,,,METAR,6.0
MNMG 060900Z 06014KT 9999 FEW020 27/20 Q1010 A2984 NOSIG,MNMG,2023-05-06T09:00:00Z,12.15,-86.17,27.0,20.0,60,14,,6.21,29.822834,,,,,,TRUE,,,,,FEW,2000,,,,,,,VFR,,,,,,,,,,,,METAR,59.0
MKJS 060900Z 14008KT 9999 FEW022 26/23 Q1013,MKJS,2023-05-06T09:00:00Z,18.5,-77.92,26.0,23.0,140,8,,6.21,29.911417,,,,,,,,,,,FEW,2200,,,,,,,VFR,,,,,,,,,,,,METAR,3.0
MKJP 060900Z 02005KT 9999 FEW022 27/23 Q1013,MKJP,2023-05-06T09:00:00Z,17.93,-76.78,27.0,23.0,20,5,,6.21,29.911417,,,,,,,,,,,FEW,2200,,,,,,,VFR,,,,,,,,,,,,METAR,3.0
MHTG 060900Z 00000KT 9999 FEW034 20/15 Q1019 A3009 NOSIG,MHTG,2023-05-06T09:00:00Z,14.07,-87.22,20.0,15.0,0,0,,6.21,30.088583,,,,,,TRUE,,,,,FEW,3400,,,,,,,VFR,,,,,,,,,,,,METAR,1001.0
MHPR COR 060900Z 36012KT 7000 SCT048 23/21 Q1017 A3003 NOSIG,MHPR,2023-05-06T09:00:00Z,14.38,-87.62,23.0,21.0,360,12,,4.35,30.029528,,TRUE,,,,TRUE,,,,,SCT,4800,,,,,,,MVFR,,,,,,,,,,,,METAR,628.0
MHLM 060900Z VRB02KT 9999 BKN014 26/25 Q1012 A2989 NOSIG,MHLM,2023-05-06T09:00:00Z,15.45,-87.93,26.0,25.0,0,2,,6.21,29.88189,,,,,,TRUE,,,,,BKN,1400,,,,,,,MVFR,,,,,,,,,,,,METAR,32.0
MGPB 060900Z 09006KT 9999 SCT016 BKN080 28/26 Q1011 A2985,MGPB,2023-05-06T09:00:00Z,15.73,-88.58,28.0,26.0,90,6,,6.21,29.852362,,,,,,,,,,,SCT,1600,BKN,8000,,,,,VFR,,,,,,,,,,,,METAR,6.0
MGMM 060900Z 00000KT CAVOK 23/22 Q1014 A2994,MGMM,2023-05-06T09:00:00Z,16.9,-89.87,23.0,22.0,0,0,,6.21,29.940945,,,,,,,,,,,CAVOK,,,,,,,,VFR,,,,,,,,,,,,METAR,105.0
MGHT 060900Z 00000KT CAVOK 14/13 BKN200,MGHT,2023-05-06T09:00:00Z,15.32,-91.5,14.0,13.0,0,0,,6.21,,,,,,,,,,,,BKN,20000,,,,,,,VFR,,,,,,,,,,,,METAR,1875.0
MGGT 060900Z 01010KT 8000 OVC012 18/16 Q1021 A3015 BR,MGGT,2023-05-06T09:00:00Z,14.58,-90.53,18.0,16.0,10,10,,4.97,30.147638,,,,,,,,,,BR,OVC,1200,,,,,,,MVFR,,,,,,,,,,,,METAR,1497.0
MDST 060900Z 11006KT 9999 FEW018CB SCT018 SCT300 24/23 Q1014 CB/N DSIPTG,MDST,2023-05-06T09:00:00Z,19.4,-70.6,24.0,23.0,110,6,,6.21,29.940945,,,,,,,,,,DS,FEW,1800,SCT,1800,SCT,30000,,,VFR,,,,,,,,,,,,METAR,175.0
MDSD 060900Z 01005KT 9999 SCT016 23/22 Q1015,MDSD,2023-05-06T09:00:00Z,18.42,-69.67,23.0,22.0,10,5,,6.21,29.970472,,,,,,,,,,,SCT,1600,,,,,,,VFR,,,,,,,,,,,,METAR,18.0
MDPP 060900Z 00000KT 9999 SCT017 SCT300 24/24 Q1013,MDPP,2023-05-06T09:00:00Z,19.75,-70.57,24.0,24.0,0,0,,6.21,29.911417,,,,,,,,,,,SCT,1700,SCT,30000,,,,,VFR,,,,,,,,,,,,METAR,9.0
MDPC 060900Z 14008KT 9999 SCT016 27/22 Q1015,MDPC,2023-05-06T09:00:00Z,18.57,-68.37,27.0,22.0,140,8,,6.21,29.970472,,,,,,,,,,,SCT,1600,,,,,,,VFR,,,,,,,,,,,,METAR,10.0
LZZI 060900Z 26003KT 9999 BKN048 14/10 Q1017,LZZI,2023-05-06T09:00:00Z,49.23,18.62,14.0,10.0,260,3,,6.21,30.029528,,,,,,,,,,,BKN,4800,,,,,,,VFR,,,,,,,,,,,,METAR,311.0
LZTT 060900Z VRB05KT 9999 BKN050 18/07 Q1018 NOSIG,LZTT,2023-05-06T09:00:00Z,49.07,20.25,18.0,7.0,0,5,,6.21,30.059055,,,,,,TRUE,,,,,BKN,5000,,,,,,,VFR,,,,,,,,,,,,METAR,693.0
LZPP 060900Z 22004KT CAVOK 15/11 Q1017,LZPP,2023-05-06T09:00:00Z,48.62,17.83,15.0,11.0,220,4,,6.21,30.029528,,,,,,,,,,,CAVOK,,,,,,,,VFR,,,,,,,,,,,,METAR,160.0
LZKZ 060900Z 17006KT 140V220 CAVOK 19/11 Q1018 NOSIG,LZKZ,2023-05-06T09:00:00Z,48.67,21.23,19.0,11.0,170,6,,6.21,30.059055,,,,,,TRUE,,,,,CAVOK,,,,,,,,VFR,,,,,,,,,,,,METAR,227.0
LZIB 060900Z VRB02KT 9999 FEW030 15/12 Q1017 NOSIG,LZIB,2023-05-06T09:00:00Z,48.17,17.22,15.0,12.0,0,2,,6.21,30.029528,,,,,,TRUE,,,,,FEW,3000,,,,,,,VFR,,,,,,,,,,,,METAR,129.0
LYVR 060900Z AUTO 16008KT 130V200 CAVOK 22/11 Q1019,LYVR,2023-05-06T09:00:00Z,45.13,21.32,22.0,11.0,160,8,,6.21,30.088583,,,TRUE,,,,,,,,CAVOK,,,,,,,,VFR,,,,,,,,,,,,METAR,82.0
LYTV 060900Z 22004KT 150V290 9999 FEW060 23/10 Q1016 NOSIG,LYTV,2023-05-06T09:00:00Z,42.4,18.72,23.0,10.0,220,4,,6.21,30.0,,,,,,TRUE,,,,,FEW,6000,,,,,,,VFR,,,,,,,,,,,,METAR,3.0
LYPG 060900Z 14003KT 060V230 9999 FEW040 23/09 Q1015 NOSIG,LYPG,2023-05-06T09:00:00Z,42.37,19.25,23.0,9.0,140,3,,6.21,29.970472,,,,,,TRUE,,,,,FEW,4000,,,,,,,VFR,,,,,,,,,,,,METAR,32.0
LYNI 060900Z VRB02KT 9999 FEW045 21/09 Q1018 NOSIG,LYNI,2023-05-06T09:00:00Z,43.33,21.85,21.0,9.0,0,2,,6.21,30.059055,,,,,,TRUE,,,,,FEW,4500,,,,,,,VFR,,,,,,,,,,,,METAR,197.0
LYKV 060900Z 15005KT 070V200 9999 FEW045 20/10 Q1018 NOSIG,LYKV,2023-05-06T09:00:00Z,43.82,20.58,20.0,10.0,150,5,,6.21,30.059055,,,,,,TRUE,,,,,FEW,4500,,,,,,,VFR,,,,,,,,,,,,METAR,209.0
LYBT 060900Z 15005KT 110V210 CAVOK 22/12 Q1018 NOSIG,LYBT,2023-05-06T09:00:00Z,44.93,20.25,22.0,12.0,150,5,,6.21,30.059055,,,,,,TRUE,,,,,CAVOK,,,,,,,,VFR,,,,,,,,,,,,METAR,78.0
LYBE 060900Z 18007KT 130V220 CAVOK 22/11 Q1018 NOSIG,LYBE,2023-05-06T09:00:00Z,44.82,20.28,22.0,11.0,180,7,,6.21,30.059055,,,,,,TRUE,,,,,CAVOK,,,,,,,,VFR,,,,,,,,,,,,METAR,93.0
LRTR 060900Z 19008KT 150V220 CAVOK 20/12 Q1018,LRTR,2023-05-06T09:00:00Z,45.82,21.33,20.0,12.0,190,8,,6.21,30.059055,,,,,,,,,,,CAVOK,,,,,,,,VFR,,,,,,,,,,,,METAR,104.0
LRTM 060900Z 13005KT 080V170 9999 SCT027 21/11 Q1019,LRTM,2023-05-06T09:00:00Z,46.47,24.42,21.0,11.0,130,5,,6.21,30.088583,,,,,,,,,,,SCT,2700,,,,,,,VFR,,,,,,,,,,,,METAR,289.0
LRTC 060900Z 01017KT 9999 SCT045 20/06 Q1019,LRTC,2023-05-06T09:00:00Z,45.07,28.72,20.0,6.0,10,17,,6.21,30.088583,,,,,,,,,,,SCT,4500,,,,,,,VFR,,,,,,,,,,,,METAR,52.0
LRSV 060900Z 08007KT 060V130 9999 SCT040 16/06 Q1022,LRSV,2023-05-06T09:00:00Z,47.68,26.35,16.0,6.0,80,7,,6.21,30.177166,,,,,,,,,,,SCT,4000,,,,,,,VFR,,,,,,,,,,,,METAR,406.0
LRSM 060900Z 20006KT CAVOK 22/10 Q1018,LRSM,2023-05-06T09:00:00Z,47.7,22.88,22.0,10.0,200,6,,6.21,30.059055,,,,,,,,,,,CAVOK,,,,,,,,VFR,,,,,,,,,,,,METAR,123.0
LRSB 060900Z 11009KT 080V140 CAVOK 19/06 Q1019,LRSB,2023-05-06T09:00:00Z,45.78,24.08,19.0,6.0,110,9,,6.21,30.088583,,,,,,,,,,,CAVOK,,,,,,,,VFR,,,,,,,,,,,,METAR,442.0
LROP 060900Z 07013KT 030V100 9999 FEW045 20/08 Q1020 NOSIG,LROP,2023-05-06T09:00:00Z,44.57,26.1,20.0,8.0,70,13,,6.21,30.11811,,,,,,TRUE,,,,,FEW,4500,,,,,,,VFR,,,,,,,,,,,,METAR,92.0
LROD 060900Z 22007KT 170V250 CAVOK 22/11 Q1018,LROD,2023-05-06T09:00:00Z,47.03,21.88,22.0,11.0,220,7,,6.21,30.059055,,,,,,,,,,,CAVOK,,,,,,,,VFR,,,,,,,,,,,,METAR,132.0
LRIA 060900Z 08010KT 030V110 CAVOK 18/02 Q1022,LRIA,2023-05-06T09:00:00Z,47.17,27.62,18.0,2.0,80,10,,6.21,30.177166,,,,,,,,,,,CAVOK,,,,,,,,VFR,,,,,,,,,,,,METAR,71.0
LRCV 060900Z 17007KT 9999 SCT047 20/09 Q1019,LRCV,2023-05-06T09:00:00Z,44.32,23.88,20.0,9.0,170,7,,6.21,30.088583,,,,,,,,,,,SCT,4700,,,,,,,VFR,,,,,,,,,,,,METAR,192.0
LRCL 060900Z 17009KT 9999 FEW050 21/07 Q1019,LRCL,2023-05-06T09:00:00Z,46.78,23.68,21.0,7.0,170,9,,6.21,30.088583,,,,,,,,,,,FEW,5000,,,,,,,VFR,,,,,,,,,,,,METAR,313.0
LRCK 060900Z 03018KT 9999 FEW031 19/11 Q1018 NOSIG,LRCK,2023-05-06T09:00:00Z,44.37,28.48,19.0,11.0,30,18,,6.21,30.059055,,,,,,TRUE,,,,,FEW,3100,,,,,,,VFR,,,,,,,,,,,,METAR,108.0
LRBS 060900Z 05015KT 360V110 9999 FEW047 20/09 Q1020 NOSIG,LRBS,2023-05-06T09:00:00Z,44.5,26.08,20.0,9.0,50,15,,6.21,30.11811,,,,,,TRUE,,,,,FEW,4700,,,,,,,VFR,,,,,,,,,,,,METAR,91.0
LRBM 060900Z AUTO 16005KT 110V190 9999 NCD 21/10 Q1019,LRBM,2023-05-06T09:00:00Z,47.67,23.47,21.0,10.0,160,5,,6.21,30.088583,,,TRUE,,,,,,,,CLR,,,,,,,,VFR,,,,,,,,,,,,METAR,180.0
LRBC 060900Z 01007KT 340V080 9999 SCT045 19/04 Q1021,LRBC,2023-05-06T09:00:00Z,46.52,26.92,19.0,4.0,10,7,,6.21,30.147638,,,,,,,,,,,SCT,4500,,,,,,,VFR,,,,,,,,,,,,METAR,183.0
LRAR 060900Z 19006KT 160V220 CAVOK 21/12 Q1018,LRAR,2023-05-06T09:00:00Z,46.18,21.27,21.0,12.0,190,6,,6.21,30.059055,,,,,,,,,,,CAVOK,,,,,,,,VFR,,,,,,,,,,,,METAR,102.0
LQTZ 060900Z 09010KT 050V110 9999 FEW050 22/07 Q1017,LQTZ,2023-05-06T09:00:00Z,44.47,18.73,22.0,7.0,90,10,,6.21,30.029528,,,,,,,,,,,FEW,5000,,,,,,,VFR,,,,,,,,,,,,METAR,242.0
LQSA 060900Z VRB02KT CAVOK 19/08 Q1017 NOSIG,LQSA,2023-05-06T09:00:00Z,43.82,18.32,19.0,8.0,0,2,,6.21,30.029528,,,,,,TRUE,,,,,CAVOK,,,,,,,,VFR,,,,,,,,,,,,METAR,505.0
LQMO 060900Z VRB02KT 9999 FEW050 22/11 Q1014,LQMO,2023-05-06T09:00:00Z,43.28,17.83,22.0,11.0,0,2,,6.21,29.940945,,,,,,,,,,,FEW,5000,,,,,,,VFR,,,,,,,,,,,,METAR,49.0
LQBK 060900Z 01003KT 300V060 9999 FEW033 20/14 Q1017 NOSIG,LQBK,2023-05-06T09:00:00Z,44.93,17.3,20.0,14.0,10,3,,6.21,30.029528,,,,,,TRUE,,,,,FEW,3300,,,,,,,VFR,,,,,,,,,,,,METAR,114.0
LPPT 060900Z 29005KT 260V330 9999 -SHRA FEW012 BKN015 20/16 Q1017,LPPT,2023-05-06T09:00:00Z,38.77,-9.13,20.0,16.0,290,5,,6.21,30.029528,,,,,,,,,,-SHRA,FEW,1200,BKN,1500,,,,,MVFR,,,,,,,,,,,,METAR,98.0
LPPS 060900Z 36015KT 9999 FEW014 22/15 Q1023,LPPS,2023-05-06T09:00:00Z,33.07,-16.35,22.0,15.0,360,15,,6.21,30.206694,,,,,,,,,,,FEW,1400,,,,,,,VFR,,,,,,,,,,,,METAR,89.0
LPPR 060900Z 00000KT 9999 SCT009 SCT012 BKN035 17/16 Q1016,LPPR,2023-05-06T09:00:00Z,41.23,-8.68,17.0,16.0,0,0,,6.21,30.0,,,,,,,,,,,SCT,900,SCT,1200,BKN,3500,,,VFR,,,,,,,,,,,,METAR,64.0
LPPD 060900Z 24007KT 9999 FEW005 BKN025 17/17 Q1023,LPPD,2023-05-06T09:00:00Z,37.73,-25.68,17.0,17.0,240,7,,6.21,30.206694,,,,,,,,,,,FEW,500,BKN,2500,,,,,MVFR,,,,,,,,,,,,METAR,62.0
LPOV 060900Z 14005KT 9999 SCT016 SCT022 18/17 Q1017,LPOV,2023-05-06T09:00:00Z,40.92,-8.65,18.0,17.0,140,5,,6.21,30.029528,,,,,,,,,,,SCT,1600,SCT,2200,,,,,VFR,,,,,,,,,,,,METAR,16.0
LPMT 060900Z 26006KT 220V280 9999 FEW015 BKN035 20/16 Q1017,LPMT,2023-05-06T09:00:00Z,38.7,-9.05,20.0,16.0,260,6,,6.21,30.029528,,,,,,,,,,,FEW,1500,BKN,3500,,,,,VFR,,,,,,,,,,,,METAR,4.0
LPMR 060900Z 25006KT 210V310 6000 -SHRA SCT008 BKN013 BKN020 18/17 Q1017 RESHRA,LPMR,2023-05-06T09:00:00Z,39.82,-8.88,18.0,17.0,250,6,,3.73,30.029528,,,,,,,,,,-SHRA,SCT,800,BKN,1300,BKN,2000,,,MVFR,,,,,,,,,,,,METAR,50.0
LPMA 060900Z 01009KT 330V050 9999 FEW015 22/13 Q1023,LPMA,2023-05-06T09:00:00Z,32.7,-16.77,22.0,13.0,10,9,,6.21,30.206694,,,,,,,,,,,FEW,1500,,,,,,,VFR,,,,,,,,,,,,METAR,54.0
LPLA 060900Z /////KT 9999 SCT014 19/16 Q1020,LPLA,2023-05-06T09:00:00Z,38.77,-27.1,19.0,16.0,,,,6.21,30.11811,,,,,,,,,,,SCT,1400,,,,,,,VFR,,,,,,,,,,,,METAR,60.0
LPHR 060900Z 24011KT 9999 FEW005 SCT007 BKN010 18/16 Q1020,LPHR,2023-05-06T09:00:00Z,38.52,-28.72,18.0,16.0,240,11,,6.21,30.11811,,,,,,,,,,,FEW,500,SCT,700,BKN,1000,,,MVFR,,,,,,,,,,,,METAR,39.0
LPFR 060900Z 30010KT CAVOK 22/11 Q1017,LPFR,2023-05-06T09:00:00Z,37.02,-7.97,22.0,11.0,300,10,,6.21,30.029528,,,,,,,,,,,CAVOK,,,,,,,,VFR,,,,,,,,,,,,METAR,3.0
LPFL 060900Z 20017G27KT 9999 SCT009 19/15 Q1016,LPFL,2023-05-06T09:00:00Z,39.45,-31.12,19.0,15.0,200,17,27,6.21,30.0,,,,,,,,,,,SCT,900,,,,,,,VFR,,,,,,,,,,,,METAR,35.0
LPCS 060900Z 23005KT 170V270 9999 FEW007 SCT010 BKN024 19/16 Q1017,LPCS,2023-05-06T09:00:00Z,38.73,-9.35,19.0,16.0,230,5,,6.21,30.029528,,,,,,,,,,,FEW,700,SCT,1000,BKN,2400,,,MVFR,,,,,,,,,,,,METAR,99.0
LPBJ 060900Z 31006KT 9999 FEW012 18/13 Q1018,LPBJ,2023-05-06T09:00:00Z,38.08,-7.93,18.0,13.0,310,6,,6.21,30.059055,,,,,,,,,,,FEW,1200,,,,,,,VFR,,,,,,,,,,,,METAR,196.0
LPAZ 060900Z 25010KT 9999 FEW006 BKN023 19/16 Q1024,LPAZ,2023-05-06T09:00:00Z,36.97,-25.17,19.0,16.0,250,10,,6.21,30.236221,,,,,,,,,,,FEW,600,BKN,2300,,,,,MVFR,,,,,,,,,,,,METAR,96.0
LOAV 060900Z 17005KT 9999 BKN050 20/13,LOAV,2023-05-06T09:00:00Z,47.97,16.27,20.0,13.0,170,5,,6.21,,,,,,,,,,,,BKN,5000,,,,,,,VFR,,,,,,,,,,,,METAR,232.0
LOAN 060900Z VRB02KT 9999 SCT040,LOAN,2023-05-06T09:00:00Z,47.85,16.25,,,0,2,,6.21,,,,,,,,,,,,SCT,4000,,,,,,,VFR,,,,,,,,,,,,METAR,266.0
LKTB 060900Z VRB02KT 9999 SCT006 SCT036 13/11 Q1017 NOSIG,LKTB,2023-05-06T09:00:00Z,49.15,16.68,13.0,11.0,0,2,,6.21,30.029528,,,,,,TRUE,,,,,SCT,600,SCT,3600,,,,,VFR,,,,,,,,,,,,METAR,233.0
LKPR 060900Z 28007KT 240V320 9999 FEW025 BKN048 16/11 Q1016 NOSIG,LKPR,2023-05-06T09:00:00Z,50.1,14.27,16.0,11.0,280,7,,6.21,30.0,,,,,,TRUE,,,,,FEW,2500,BKN,4800,,,,,VFR,,,,,,,,,,,,METAR,364.0
LKPD 060900Z 26010KT 9999 SCT017 BKN050 16/12 Q1016 RMK BLACK,LKPD,2023-05-06T09:00:00Z,50.02,15.73,16.0,12.0,260,10,,6.21,30.0,,,,,,,,,,,SCT,1700,BKN,5000,,,,,VFR,,,,,,,,,,,,METAR,226.0
LKNA 060900Z 25007KT 220V280 9999 FEW015 BKN020 OVC090 15/12 Q1017 NOSIG RMK WHT WHT,LKNA,2023-05-06T09:00:00Z,49.17,16.12,15.0,12.0,250,7,,6.21,30.029528,,,,,,TRUE,,,,,FEW,1500,BKN,2000,OVC,9000,,,MVFR,,,,,,,,,,,,METAR,460.0
LKMT 060900Z VRB01KT 7000 -RA FEW022 BKN041 12/09 Q1016 BECMG 22012KT,LKMT,2023-05-06T09:00:00Z,49.68,18.12,12.0,9.0,0,1,,4.35,30.0,,,,,,,,,,-RA,FEW,2200,BKN,4100,,,,,MVFR,,,,,,,,,,,,METAR,251.0
LKLN 060900Z AUTO 24007KT 200V300 9999 FEW019 SCT076 17/12 Q1017,LKLN,2023-05-06T09:00:00Z,49.68,13.27,17.0,12.0,240,7,,6.21,30.029528,,,TRUE,,,,,,,,FEW,1900,SCT,7600,,,,,VFR,,,,,,,,,,,,METAR,353.0
LKKV 060900Z 25004KT 200V310 9999 SCT020 13/10 Q1017,LKKV,2023-05-06T09:00:00Z,50.2,12.92,13.0,10.0,250,4,,6.21,30.029528,,,,,,,,,,,SCT,2000,,,,,,,VFR,,,,,,,,,,,,METAR,600.0
LKKB 060900Z 30009KT 9999 SCT027 17/11 Q1016 NOSIG,LKKB,2023-05-06T09:00:00Z,50.12,14.53,17.0,11.0,300,9,,6.21,30.0,,,,,,TRUE,,,,,SCT,2700,,,,,,,VFR,,,,,,,,,,,,METAR,281.0
LKCV 060900Z 30012KT 9999 SCT020 17/12 Q1016 NOSIG RMK BLU BLU,LKCV,2023-05-06T09:00:00Z,49.93,15.38,17.0,12.0,300,12,,6.21,30.0,,,,,,TRUE,,,,,SCT,2000,,,,,,,VFR,,,,,,,,,,,,METAR,234.0
LJPZ 060900Z 28003KT CAVOK 19/13 Q1016,LJPZ,2023-05-06T09:00:00Z,45.47,13.62,19.0,13.0,280,3,,6.21,30.0,,,,,,,,,,,CAVOK,,,,,,,,VFR,,,,,,,,,,,,METAR,2.0
LJMB 060900Z 16004KT CAVOK 21/11 Q1017,LJMB,2023-05-06T09:00:00Z,46.47,15.67,21.0,11.0,160,4,,6.21,30.029528,,,,,,,,,,,CAVOK,,,,,,,,VFR,,,,,,,,,,,,METAR,263.0
LJLJ 060900Z VRB02KT CAVOK 19/11 Q1017 NOSIG,LJLJ,2023-05-06T09:00:00Z,46.22,14.47,19.0,11.0,0,2,,6.21,30.029528,,,,,,TRUE,,,,,CAVOK,,,,,,,,VFR,,,,,,,,,,,,METAR,363.0
LJCE 060900Z 09003KT 9999 FEW030 SCT190 20/12 Q1017 RMK BLU,LJCE,2023-05-06T09:00:00Z,45.9,15.52,20.0,12.0,90,3,,6.21,30.029528,,,,,,,,,,,FEW,3000,SCT,19000,,,,,VFR,,,,,,,,,,,,METAR,153.0
LHBP 060900Z 21006KT 150V260 9999 FEW040 SCT059 21/11 Q1018 NOSIG,LHBP,2023-05-06T09:00:00Z,47.43,19.27,21.0,11.0,210,6,,6.21,30.059055,,,,,,TRUE,,,,,FEW,4000,SCT,5900,,,,,VFR,,,,,,,,,,,,METAR,141.0
LFYR 060900Z AUTO 15007KT 100V200 CAVOK 20/13 Q1016,LFYR,2023-05-06T09:00:00Z,47.32,1.68,20.0,13.0,150,7,,6.21,30.0,,,TRUE,,,,,,,,CAVOK,,,,,,,,VFR,,,,,,,,,,,,METAR,83.0
LFVP 060900Z AUTO 02007KT CAVOK 02/M01 Q1008 TEMPO 3000 -SHRASN BKN015,LFVP,2023-05-06T09:00:00Z,46.77,-56.18,2.0,-1.0,20,7,,6.21,29.763779,,,TRUE,,,,,,,,CAVOK,,,,,,,,VFR,,,,,,,,,,,,METAR,5.0
LFTW 060900Z AUTO 10005KT 010V140 CAVOK 21/11 Q1017 BECMG 20010KT,LFTW,2023-05-06T09:00:00Z,43.75,4.42,21.0,11.0,100,5,,6.21,30.029528,,,TRUE,,,,,,,,CAVOK,,,,,,,,VFR,,,1.0,,,,,,,,,METAR,91.0
LFTH 060900Z AUTO 17004KT 110V240 9999 FEW015 20/15 Q1017 NOSIG,LFTH,2023-05-06T09:00:00Z,43.1,6.15,20.0,15.0,170,4,,6.21,30.029528,,,TRUE,,,TRUE,,,,,FEW,1500,,,,,,,VFR,,,,,,,,,,,,METAR,3.0
LFSX 060900Z AUTO VRB02KT CAVOK 18/12 Q1017,LFSX,2023-05-06T09:00:00Z,47.77,6.35,18.0,12.0,0,2,,6.21,30.029528,,,TRUE,,,,,,,,CAVOK,,,,,,,,VFR,,,,,,,,,,,,METAR,266.0
LFST 060900Z AUTO 07003KT 350V160 9999 SCT020 BKN028 19/12 Q1018 NOSIG,LFST,2023-05-06T09:00:00Z,48.53,7.63,19.0,12.0,70,3,,6.21,30.059055,,,TRUE,,,TRUE,,,,,SCT,2000,BKN,2800,,,,,MVFR,,,,,,,,,,,,METAR,149.0
LFSO 060900Z AUTO VRB03KT 9999 BKN020 OVC150 17/11 Q1018,LFSO,2023-05-06T09:00:00Z,48.57,5.97,17.0,11.0,0,3,,6.21,30.059055,,,TRUE,,,,,,,,BKN,2000,OVC,15000,,,,,MVFR,,,,,,,,,,,,METAR,328.0
LFSN 060900Z AUTO VRB02KT 9999 FEW012 16/13 Q1018,LFSN,2023-05-06T09:00:00Z,48.68,6.22,16.0,13.0,0,2,,6.21,30.059055,,,TRUE,,,,,,,,FEW,1200,,,,,,,VFR,,,,,,,,,,,,METAR,214.0
LFSM 060900Z AUTO 03006KT 350V060 9999 SCT013 17/13 Q1018,LFSM,2023-05-06T09:00:00Z,47.48,6.78,17.0,13.0,30,6,,6.21,30.059055,,,TRUE,,,,,,,,SCT,1300,,,,,,,VFR,,,,,,,,,,,,METAR,317.0
LFSL 060900Z AUTO 12006KT 080V160 CAVOK 21/12 Q1015 NOSIG,LFSL,2023-05-06T09:00:00Z,45.03,1.48,21.0,12.0,120,6,,6.21,29.970472,,,TRUE,,,TRUE,,,,,CAVOK,,,,,,,,VFR,,,,,,,,,,,,METAR,300.0
LFSI 060900Z AUTO VRB02KT CAVOK 18/12 Q1017,LFSI,2023-05-06T09:00:00Z,48.62,4.9,18.0,12.0,0,2,,6.21,30.029528,,,TRUE,,,,,,,,CAVOK,,,,,,,,VFR,,,,,,,,,,,,METAR,136.0
LFSG 060900Z AUTO VRB03KT CAVOK 16/11 Q1018,LFSG,2023-05-06T09:00:00Z,48.33,6.07,16.0,11.0,0,3,,6.21,30.059055,,,TRUE,,,,,,,,CAVOK,,,,,,,,VFR,,,,,,,,,,,,METAR,320.0
LFSD 060900Z AUTO VRB02KT CAVOK 18/14 Q1017,LFSD,2023-05-06T09:00:00Z,47.27,5.08,18.0,14.0,0,2,,6.21,30.029528,,,TRUE,,,,,,,,CAVOK,,,,,,,,VFR,,,,,,,,,,,,METAR,218.0
LFSB 060900Z AUTO 34004KT 280V040 9999 OVC018 17/14 Q1018 NOSIG,LFSB,2023-05-06T09:00:00Z,47.6,7.52,17.0,14.0,340,4,,6.21,30.059055,,,TRUE,,,TRUE,,,,,OVC,1800,,,,,,,MVFR,,,,,,,,,,,,METAR,262.0
LFRZ 060900Z AUTO 11004KT 080V150 9000 NSC 16/15 Q1014 TEMPO 4000 SHRA SCT045 BKN060CB,LFRZ,2023-05-06T09:00:00Z,47.32,-2.17,16.0,15.0,110,4,,5.59,29.940945,,,TRUE,,,,,,,,CLR,,,,,,,,VFR,,,,,,,,,,,,METAR,2.0
LFRV 060900Z AUTO 17008KT 9999 OVC007 15/13 Q1014,LFRV,2023-05-06T09:00:00Z,47.72,-2.72,15.0,13.0,170,8,,6.21,29.940945,,,TRUE,,,,,,,,OVC,700,,,,,,,IFR,,,,,,,,,,,,METAR,132.0
LFRU 060900Z AUTO 19008KT 160V230 9999 OVC010 15/13 Q1012,LFRU,2023-05-06T09:00:00Z,48.6,-3.82,15.0,13.0,190,8,,6.21,29.88189,,,TRUE,,,,,,,,OVC,1000,,,,,,,MVFR,,,,,,,,,,,,METAR,85.0
LFRT 060900Z AUTO 20011G23KT 170V240 9999 BKN017 BKN023 OVC038 15/12 Q1013,LFRT,2023-05-06T09:00:00Z,48.53,-2.85,15.0,12.0,200,11,23,6.21,29.911417,,,TRUE,,,,,,,,BKN,1700,BKN,2300,OVC,3800,,,MVFR,,,,,,,,,,,,METAR,134.0
LFRS 060900Z AUTO VRB03KT 9999 ///TCU 16/12 Q1015 TEMPO 4000 SHRA SCT045 BKN060CB,LFRS,2023-05-06T09:00:00Z,47.17,-1.6,16.0,12.0,0,3,,6.21,29.970472,,,TRUE,,,,,,,,,,,,,,,,,,,,,,,,,,,,METAR,26.0
LFRQ 060900Z AUTO 20014KT 9999 OVC007 14/14 Q1013 TEMPO 3000 RA BKN008 BKN020CB,LFRQ,2023-05-06T09:00:00Z,47.97,-4.17,14.0,14.0,200,14,,6.21,29.911417,,,TRUE,,,,,,,,OVC,700,,,,,,,IFR,,,,,,,,,,,,METAR,94.0
LFRO 060900Z AUTO 19014KT 170V230 9999 OVC015 16/13 Q1012,LFRO,2023-05-06T09:00:00Z,48.75,-3.47,16.0,13.0,190,14,,6.21,29.88189,,,TRUE,,,,,,,,OVC,1500,,,,,,,MVFR,,,,,,,,,,,,METAR,86.0
LFRN 060900Z AUTO 18009KT 9999 -RA ///TCU 15/13 Q1015 BECMG BKN020,LFRN,2023-05-06T09:00:00Z,48.07,-1.73,15.0,13.0,180,9,,6.21,29.970472,,,TRUE,,,,,,,-RA,,,,,,,,,,,,,,,,,,,,,METAR,35.0
LFRM 060900Z AUTO 17004KT 140V210 9999 FEW008 BKN068 OVC100 18/13 Q1015 TEMPO 4000 SHRA BKN070CB,LFRM,2023-05-06T09:00:00Z,47.95,0.2,18.0,13.0,170,4,,6.21,29.970472,,,TRUE,,,,,,,,FEW,800,BKN,6800,OVC,10000,,,VFR,,,,,,,,,,,,METAR,51.0
LFRL 060900Z AUTO 21015KT 9999 OVC005 14/14 Q1012,LFRL,2023-05-06T09:00:00Z,48.27,-4.43,14.0,14.0,210,15,,6.21,29.88189,,,TRUE,,,,,,,,OVC,500,,,,,,,IFR,,,,,,,,,,,,METAR,80.0
LFRK 060900Z AUTO 16006KT 9999 -RA //////TCU 15/13 Q1015 TEMPO 4000 SHRA BKN010 BKN020CB,LFRK,2023-05-06T09:00:00Z,49.17,-0.45,15.0,13.0,160,6,,6.21,29.970472,,,TRUE,,,,,,,-RA,,,,,,,,,,,,,,,,,,,,,METAR,66.0
LFRJ 060900Z AUTO 20015KT 9999 OVC006 14/14 Q1012,LFRJ,2023-05-06T09:00:00Z,48.52,-4.15,14.0,14.0,200,15,,6.21,29.88189,,,TRUE,,,,,,,,OVC,600,,,,,,,IFR,,,,,,,,,,,,METAR,109.0
LFRI 060900Z AUTO 19005KT 160V230 CAVOK 20/14 Q1015 TEMPO 4000 SHRA SCT045 BKN060CB,LFRI,2023-05-06T09:00:00Z,46.7,-1.37,20.0,14.0,190,5,,6.21,29.970472,,,TRUE,,,,,,,,CAVOK,,,,,,,,VFR,,,,,,,,,,,,METAR,89.0
LFRH 060900Z AUTO 16008KT 9999 SCT028/// BKN033/// OVC050/// //////TCU 14/13 Q1014 TEMPO 4500 RADZ BKN007CB BKN012 BECMG 22010KT,LFRH,2023-05-06T09:00:00Z,47.77,-3.45,14.0,13.0,160,8,,6.21,29.940945,,,TRUE,,,,,,,,SCT,2800,BKN,3300,OVC,5000,,,VFR,,,,,,,,,,,,METAR,46.0
LFRG 060900Z AUTO 17007KT CAVOK 15/13 Q1015 TEMPO 4000 SHRA BKN008 BKN020CB,LFRG,2023-05-06T09:00:00Z,49.37,0.15,15.0,13.0,170,7,,6.21,29.970472,,,TRUE,,,,,,,,CAVOK,,,,,,,,VFR,,,,,,,,,,,,METAR,146.0
LFRD 060900Z AUTO 19013KT 9999 -RA BKN036/// BKN088/// ///TCU 15/13 Q1014 BECMG BKN020,LFRD,2023-05-06T09:00:00Z,48.58,-2.07,15.0,13.0,190,13,,6.21,29.940945,,,TRUE,,,,,,,-RA,BKN,3600,BKN,8800,,,,,VFR,,,,,,,,,,,,METAR,56.0
LFRC 060900Z AUTO 19011KT 9999 BKN010 BKN027 BKN032 14/13 Q1013 TEMPO 20015G25KT 4000 RA,LFRC,2023-05-06T09:00:00Z,49.63,-1.47,14.0,13.0,190,11,,6.21,29.911417,,,TRUE,,,,,,,,BKN,1000,BKN,2700,BKN,3200,,,MVFR,,,1.5,,,,,,,,,METAR,137.0
LFRB 060900Z AUTO 21016KT 2300 -RA BR OVC004 14/14 Q1012 TEMPO RADZ BKN004 BKN020CB,LFRB,2023-05-06T09:00:00Z,48.45,-4.42,14.0,14.0,210,16,,1.43,29.88189,,,TRUE,,,,,,,-RA BR,OVC,400,,,,,,,LIFR,,,,,,,,,,,,METAR,91.0
LFQQ 060900Z AUTO 18005KT 150V210 9999 FEW013 SCT068 16/13 Q1016 NOSIG,LFQQ,2023-05-06T09:00:00Z,50.57,3.1,16.0,13.0,180,5,,6.21,30.0,,,TRUE,,,TRUE,,,,,FEW,1300,SCT,6800,,,,,VFR,,,,,,,,,,,,METAR,43.0
LFQG 060900Z AUTO 13006KT 090V170 CAVOK 19/14 Q1017,LFQG,2023-05-06T09:00:00Z,47.0,3.1,19.0,14.0,130,6,,6.21,30.029528,,,TRUE,,,,,,,,CAVOK,,,,,,,,VFR,,,,,,,,,,,,METAR,172.0
LFQB 060900Z AUTO 21005KT 170V250 CAVOK 19/13 Q1017,LFQB,2023-05-06T09:00:00Z,48.32,4.02,19.0,13.0,210,5,,6.21,30.029528,,,TRUE,,,,,,,,CAVOK,,,,,,,,VFR,,,,,,,,,,,,METAR,107.0
LFQA 060900Z AUTO 09004KT 050V110 CAVOK 18/13 Q1017,LFQA,2023-05-06T09:00:00Z,49.2,4.15,18.0,13.0,90,4,,6.21,30.029528,,,TRUE,,,,,,,,CAVOK,,,,,,,,VFR,,,,,,,,,,,,METAR,92.0
LFPV 060900Z AUTO 15006KT 110V190 9999 FEW013 OVC064 16/13 Q1017 NOSIG,LFPV,2023-05-06T09:00:00Z,48.77,2.2,16.0,13.0,150,6,,6.21,30.029528,,,TRUE,,,TRUE,,,,,FEW,1300,OVC,6400,,,,,VFR,,,,,,,,,,,,METAR,171.0
LFPT 060900Z AUTO VRB04KT 9999 FEW024 SCT030 BKN070 18/13 Q1016,LFPT,2023-05-06T09:00:00Z,49.1,2.03,18.0,13.0,0,4,,6.21,30.0,,,TRUE,,,,,,,,FEW,2400,SCT,3000,BKN,7000,,,VFR,,,,,,,,,,,,METAR,91.0
LFPO 060900Z AUTO 17006KT 9999 SCT012 SCT033 OVC068 16/13 Q1017 NOSIG,LFPO,2023-05-06T09:00:00Z,48.72,2.38,16.0,13.0,170,6,,6.21,30.029528,,,TRUE,,,TRUE,,,,,SCT,1200,SCT,3300,OVC,6800,,,VFR,,,,,,,,,,,,METAR,88.0
LFPN 060900Z AUTO 18006KT 140V210 9999 FEW012 OVC064 16/13 Q1017 NOSIG,LFPN,2023-05-06T09:00:00Z,48.75,2.12,16.0,13.0,180,6,,6.21,30.029528,,,TRUE,,,TRUE,,,,,FEW,1200,OVC,6400,,,,,VFR,,,,,,,,,,,,METAR,152.0
LFPM 060900Z AUTO 16003KT 130V210 9999 FEW016 BKN140 17/14 Q1017,LFPM,2023-05-06T09:00:00Z,48.62,2.67,17.0,14.0,160,3,,6.21,30.029528,,,TRUE,,,,,,,,FEW,1600,BKN,14000,,,,,VFR,,,,,,,,,,,,METAR,91.0
LFPG 060900Z 18006KT 120V210 9999 SCT018 BKN260 18/12 Q1017 NOSIG,LFPG,2023-05-06T09:00:00Z,49.02,2.53,18.0,12.0,180,6,,6.21,30.029528,,,,,,TRUE,,,,,SCT,1800,BKN,26000,,,,,VFR,,,,,,,,,,,,METAR,107.0
LFPB 060900Z AUTO 15005KT 110V180 9999 FEW025 BKN037 BKN074 18/13 Q1016 TEMPO SCT030TCU,LFPB,2023-05-06T09:00:00Z,48.97,2.42,18.0,13.0,150,5,,6.21,30.0,,,TRUE,,,,,,,,FEW,2500,BKN,3700,BKN,7400,,,VFR,,,,,,,,,,,,METAR,50.0
LFOZ 060900Z AUTO VRB03KT CAVOK 18/13 Q1017,LFOZ,2023-05-06T09:00:00Z,47.9,2.17,18.0,13.0,0,3,,6.21,30.029528,,,TRUE,,,,,,,,CAVOK,,,,,,,,VFR,,,,,,,,,,,,METAR,121.0
LFOV 060900Z AUTO 18005KT 140V210 9999 -RA FEW035/// BKN050/// BKN066/// ///TCU 15/13 Q1015,LFOV,2023-05-06T09:00:00Z,48.03,-0.75,15.0,13.0,180,5,,6.21,29.970472,,,TRUE,,,,,,,-RA,FEW,3500,BKN,5000,BKN,6600,,,VFR,,,,,,,,,,,,METAR,99.0
LFOT 060900Z AUTO 13006KT 090V150 CAVOK 18/14 Q1015 NOSIG,LFOT,2023-05-06T09:00:00Z,47.43,0.72,18.0,14.0,130,6,,6.21,29.970472,,,TRUE,,,TRUE,,,,,CAVOK,,,,,,,,VFR,,,,,,,,,,,,METAR,107.0
LFOP 060900Z AUTO 17006KT 130V200 9999 OVC042 15/12 Q1016 TEMPO 4000 SHRA BKN020TCU,LFOP,2023-05-06T09:00:00Z,49.37,1.17,15.0,12.0,170,6,,6.21,30.0,,,TRUE,,,,,,,,OVC,4200,,,,,,,VFR,,,,,,,,,,,,METAR,149.0
LFOK 060900Z AUTO 18004KT 140V210 CAVOK 17/13 Q1017 NOSIG,LFOK,2023-05-06T09:00:00Z,48.78,4.15,17.0,13.0,180,4,,6.21,30.029528,,,TRUE,,,TRUE,,,,,CAVOK,,,,,,,,VFR,,,,,,,,,,,,METAR,166.0
LFOJ 060900Z AUTO 16006KT CAVOK 18/13 Q1016 NOSIG,LFOJ,2023-05-06T09:00:00Z,47.98,1.75,18.0,13.0,160,6,,6.21,30.0,,,TRUE,,,TRUE,,,,,CAVOK,,,,,,,,VFR,,,,,,,,,,,,METAR,122.0
LFOH 060900Z AUTO 14006KT 9999 OVC046 14/12 Q1015 TEMPO 4000 SHRA BKN020TCU,LFOH,2023-05-06T09:00:00Z,49.52,0.08,14.0,12.0,140,6,,6.21,29.970472,,,TRUE,,,,,,,,OVC,4600,,,,,,,VFR,,,,,,,,,,,,METAR,87.0
LFOE 060900Z AUTO 18006KT 9999 FEW014 OVC042 16/12 Q1016 TEMPO 4500 -RA,LFOE,2023-05-06T09:00:00Z,49.02,1.22,16.0,12.0,180,6,,6.21,30.0,,,TRUE,,,,,,,,FEW,1400,OVC,4200,,,,,VFR,,,,,,,,,,,,METAR,132.0
LFOB 060900Z AUTO 21005KT 150V270 9999 FEW016 BKN024 BKN070 17/12 Q1016 TEMPO 4000 SHRA BKN020TCU,LFOB,2023-05-06T09:00:00Z,49.47,2.12,17.0,12.0,210,5,,6.21,30.0,,,TRUE,,,,,,,,FEW,1600,BKN,2400,BKN,7000,,,MVFR,,,,,,,,,,,,METAR,99.0
LFOA 060900Z AUTO 12005KT 080V170 CAVOK 19/14 Q1017,LFOA,2023-05-06T09:00:00Z,47.05,2.63,19.0,14.0,120,5,,6.21,30.029528,,,TRUE,,,,,,,,CAVOK,,,,,,,,VFR,,,,,,,,,,,,METAR,174.0
LFMY 060900Z AUTO 24004KT 150V290 CAVOK 22/09 Q1017,LFMY,2023-05-06T09:00:00Z,43.6,5.1,22.0,9.0,240,4,,6.21,30.029528,,,TRUE,,,,,,,,CAVOK,,,,,,,,VFR,,,,,,,,,,,,METAR,57.0
LFMV 060900Z AUTO 28003KT 200V340 CAVOK 21/10 Q1017 NOSIG,LFMV,2023-05-06T09:00:00Z,43.9,4.9,21.0,10.0,280,3,,6.21,30.029528,,,TRUE,,,TRUE,,,,,CAVOK,,,,,,,,VFR,,,,,,,,,,,,METAR,33.0
LFMU 060900Z AUTO 17006KT 100V200 9999 BKN025 20/13 Q1017 NOSIG,LFMU,2023-05-06T09:00:00Z,43.32,3.35,20.0,13.0,170,6,,6.21,30.029528,,,TRUE,,,TRUE,,,,,BKN,2500,,,,,,,MVFR,,,,,,,,,,,,METAR,14.0
LFMT 060900Z AUTO VRB03KT CAVOK 18/14 Q1017 NOSIG,LFMT,2023-05-06T09:00:00Z,43.57,3.97,18.0,14.0,0,3,,6.21,30.029528,,,TRUE,,,TRUE,,,,,CAVOK,,,,,,,,VFR,,,,,,,,,,,,METAR,1.0
LFMP 060900Z AUTO VRB02KT 9999 OVC015 18/14 Q1017 NOSIG,LFMP,2023-05-06T09:00:00Z,42.73,2.87,18.0,14.0,0,2,,6.21,30.029528,,,TRUE,,,TRUE,,,,,OVC,1500,,,,,,,MVFR,,,,,,,,,,,,METAR,41.0
LFMO 060900Z AUTO VRB02KT CAVOK 20/11 Q1017 NOSIG,LFMO,2023-05-06T09:00:00Z,44.13,4.87,20.0,11.0,0,2,,6.21,30.029528,,,TRUE,,,TRUE,,,,,CAVOK,,,,,,,,VFR,,,,,,,,,,,,METAR,56.0
LFMN 060900Z 10011KT 9999 FEW016 19/15 Q1017 NOSIG,LFMN,2023-05-06T09:00:00Z,43.65,7.2,19.0,15.0,100,11,,6.21,30.029528,,,,,,TRUE,,,,,FEW,1600,,,,,,,VFR,,,,,,,,,,,,METAR,4.0
LFML 060900Z AUTO 30005KT CAVOK 20/12 Q1017 NOSIG,LFML,2023-05-06T09:00:00Z,43.45,5.22,20.0,12.0,300,5,,6.21,30.029528,,,TRUE,,,TRUE,,,,,CAVOK,,,,,,,,VFR,,,,,,,,,,,,METAR,20.0
LFMK 060900Z AUTO 09013KT 060V130 CAVOK 19/13 Q1016 NOSIG,LFMK,2023-05-06T09:00:00Z,43.22,2.32,19.0,13.0,90,13,,6.21,30.0,,,TRUE,,,TRUE,,,,,CAVOK,,,,,,,,VFR,,,,,,,,,,,,METAR,124.0
LFMI 060900Z AUTO 24005KT 200V300 CAVOK 22/12 Q1017 NOSIG,LFMI,2023-05-06T09:00:00Z,43.52,4.93,22.0,12.0,240,5,,6.21,30.029528,,,TRUE,,,TRUE,,,,,CAVOK,,,,,,,,VFR,,,,,,,,,,,,METAR,20.0
LFMH 060900Z AUTO VRB03KT CAVOK 20/13 Q1017,LFMH,2023-05-06T09:00:00Z,45.52,4.28,20.0,13.0,0,3,,6.21,30.029528,,,TRUE,,,,,,,,CAVOK,,,,,,,,VFR,,,,,,,,,,,,METAR,400.0
LFMD 060900Z AUTO 14006KT 100V180 CAVOK 20/14 Q1017 NOSIG,LFMD,2023-05-06T09:00:00Z,43.53,6.95,20.0,14.0,140,6,,6.21,30.029528,,,TRUE,,,TRUE,,,,,CAVOK,,,,,,,,VFR,,,,,,,,,,,,METAR,2.0
LFMC 060900Z AUTO VRB03KT 9999 ////// 22/10 Q1017,LFMC,2023-05-06T09:00:00Z,43.37,6.38,22.0,10.0,0,3,,6.21,30.029528,,,TRUE,,,,,,,,,,,,,,,,,,,,,,,,,,,,METAR,79.0
LFLY 060900Z AUTO VRB02KT CAVOK 20/13 Q1017 NOSIG,LFLY,2023-05-06T09:00:00Z,45.72,4.95,20.0,13.0,0,2,,6.21,30.029528,,,TRUE,,,TRUE,,,,,CAVOK,,,,,,,,VFR,,,,,,,,,,,,METAR,197.0
LFLX 060900Z AUTO 12008KT 090V150 CAVOK 19/14 Q1016 NOSIG,LFLX,2023-05-06T09:00:00Z,46.87,1.73,19.0,14.0,120,8,,6.21,30.0,,,TRUE,,,TRUE,,,,,CAVOK,,,,,,,,VFR,,,,,,,,,,,,METAR,157.0
LFLW 060900Z AUTO 15005KT 110V220 CAVOK 20/12 Q1017 NOSIG,LFLW,2023-05-06T09:00:00Z,44.88,2.42,20.0,12.0,150,5,,6.21,30.029528,,,TRUE,,,TRUE,,,,,CAVOK,,,,,,,,VFR,,,,,,,,,,,,METAR,638.0
LFLV 060900Z AUTO VRB03KT CAVOK 18/13 Q1016,LFLV,2023-05-06T09:00:00Z,46.17,3.38,18.0,13.0,0,3,,6.21,30.0,,,TRUE,,,,,,,,CAVOK,,,,,,,,VFR,,,,,,,,,,,,METAR,248.0
LFLU 060900Z AUTO 01003KT 300V070 CAVOK 20/15 Q1017,LFLU,2023-05-06T09:00:00Z,44.92,4.98,20.0,15.0,10,3,,6.21,30.029528,,,TRUE,,,,,,,,CAVOK,,,,,,,,VFR,,,,,,,,,,,,METAR,162.0
LFLS 060900Z AUTO 28004KT 200V340 CAVOK 19/12 Q1017 NOSIG,LFLS,2023-05-06T09:00:00Z,45.37,5.32,19.0,12.0,280,4,,6.21,30.029528,,,TRUE,,,TRUE,,,,,CAVOK,,,,,,,,VFR,,,,,,,,,,,,METAR,386.0
LFLP 060900Z AUTO VRB03KT CAVOK 20/12 Q1017 NOSIG,LFLP,2023-05-06T09:00:00Z,45.92,6.1,20.0,12.0,0,3,,6.21,30.029528,,,TRUE,,,TRUE,,,,,CAVOK,,,,,,,,VFR,,,,,,,,,,,,METAR,460.0
LFLN 060900Z AUTO 08005KT 050V140 9999 FEW018 19/15 Q1016 NOSIG,LFLN,2023-05-06T09:00:00Z,46.42,4.02,19.0,15.0,80,5,,6.21,30.0,,,TRUE,,,TRUE,,,,,FEW,1800,,,,,,,VFR,,,,,,,,,,,,METAR,238.0
LFLL 060900Z 01003KT 310V050 9999 FEW012 BKN260 18/13 Q1017 NOSIG,LFLL,2023-05-06T09:00:00Z,45.72,5.07,18.0,13.0,10,3,,6.21,30.029528,,,,,,TRUE,,,,,FEW,1200,BKN,26000,,,,,VFR,,,,,,,,,,,,METAR,234.0
LFLH 060900Z AUTO 08004KT 350V150 CAVOK 20/13 Q1017,LFLH,2023-05-06T09:00:00Z,46.83,4.82,20.0,13.0,80,4,,6.21,30.029528,,,TRUE,,,,,,,,CAVOK,,,,,,,,VFR,,,,,,,,,,,,METAR,190.0
LFLC 060900Z AUTO 19006KT 150V220 CAVOK 19/13 Q1016 NOSIG,LFLC,2023-05-06T09:00:00Z,45.78,3.17,19.0,13.0,190,6,,6.21,30.0,,,TRUE,,,TRUE,,,,,CAVOK,,,,,,,,VFR,,,,,,,,,,,,METAR,325.0
LFLB 060900Z AUTO 35005KT CAVOK 18/13 Q1017 NOSIG,LFLB,2023-05-06T09:00:00Z,45.63,5.87,18.0,13.0,350,5,,6.21,30.029528,,,TRUE,,,TRUE,,,,,CAVOK,,,,,,,,VFR,,,,,,,,,,,,METAR,234.0
LFKS 060900Z AUTO 09005KT 050V140 CAVOK 21/14 Q1017,LFKS,2023-05-06T09:00:00Z,41.92,9.4,21.0,14.0,90,5,,6.21,30.029528,,,TRUE,,,,,,,,CAVOK,,,,,,,,VFR,,,,,,,,,,,,METAR,22.0
LFKJ 060900Z AUTO 23008KT CAVOK 21/13 Q1017 NOSIG,LFKJ,2023-05-06T09:00:00Z,41.92,8.8,21.0,13.0,230,8,,6.21,30.029528,,,TRUE,,,TRUE,,,,,CAVOK,,,,,,,,VFR,,,,,,,,,,,,METAR,9.0
LFKF 060900Z AUTO VRB03KT CAVOK 24/11 Q1017 NOSIG,LFKF,2023-05-06T09:00:00Z,41.5,9.08,24.0,11.0,0,3,,6.21,30.029528,,,TRUE,,,TRUE,,,,,CAVOK,,,,,,,,VFR,,,,,,,,,,,,METAR,15.0
LFKC 060900Z AUTO 02007KT 340V050 CAVOK 21/12 Q1017 NOSIG,LFKC,2023-05-06T09:00:00Z,42.52,8.8,21.0,12.0,20,7,,6.21,30.029528,,,TRUE,,,TRUE,,,,,CAVOK,,,,,,,,VFR,,,,,,,,,,,,METAR,38.0
LFKB 060900Z AUTO 09006KT 050V130 CAVOK 20/15 Q1017 NOSIG,LFKB,2023-05-06T09:00:00Z,42.55,9.48,20.0,15.0,90,6,,6.21,30.029528,,,TRUE,,,TRUE,,,,,CAVOK,,,,,,,,VFR,,,,,,,,,,,,METAR,7.0
LFJR 060900Z AUTO 15008KT CAVOK 17/12 Q1015,LFJR,2023-05-06T09:00:00Z,47.57,-0.32,17.0,12.0,150,8,,6.21,29.970472,,,TRUE,,,,,,,,CAVOK,,,,,,,,VFR,,,,,,,,,,,,METAR,50.0
LFJL 060900Z AUTO 16005KT 130V200 9999 NCD 17/12 Q1018 NOSIG,LFJL,2023-05-06T09:00:00Z,48.97,6.25,17.0,12.0,160,5,,6.21,30.059055,,,TRUE,,,TRUE,,,,,CLR,,,,,,,,VFR,,,,,,,,,,,,METAR,259.0
LFHP 060900Z AUTO VRB03KT CAVOK 17/12 Q1018,LFHP,2023-05-06T09:00:00Z,45.07,3.77,17.0,12.0,0,3,,6.21,30.059055,,,TRUE,,,,,,,,CAVOK,,,,,,,,VFR,,,,,,,,,,,,METAR,829.0
LFGJ 060900Z AUTO VRB03KT 9999 FEW015 SCT240 19/16 Q1017 NOSIG,LFGJ,2023-05-06T09:00:00Z,47.05,5.43,19.0,16.0,0,3,,6.21,30.029528,,,TRUE,,,TRUE,,,,,FEW,1500,SCT,24000,,,,,VFR,,,,,,,,,,,,METAR,191.0
LFGA 060900Z AUTO 07004KT 360V120 9999 SCT018 BKN024 17/12 Q1018,LFGA,2023-05-06T09:00:00Z,48.1,7.35,17.0,12.0,70,4,,6.21,30.059055,,,TRUE,,,,,,,,SCT,1800,BKN,2400,,,,,MVFR,,,,,,,,,,,,METAR,191.0
LFCR 060900Z AUTO 13005KT 090V170 CAVOK 21/13 Q1016 NOSIG,LFCR,2023-05-06T09:00:00Z,44.4,2.47,21.0,13.0,130,5,,6.21,30.0,,,TRUE,,,TRUE,,,,,CAVOK,,,,,,,,VFR,,,,,,,,,,,,METAR,576.0
LFCK 060900Z AUTO 12011KT 080V150 CAVOK 24/11 Q1015 NOSIG,LFCK,2023-05-06T09:00:00Z,43.55,2.28,24.0,11.0,120,11,,6.21,29.970472,,,TRUE,,,TRUE,,,,,CAVOK,,,,,,,,VFR,,,,,,,,,,,,METAR,223.0
LFBZ 060900Z AUTO 27011KT CAVOK 18/15 Q1014 NOSIG,LFBZ,2023-05-06T09:00:00Z,43.47,-1.53,18.0,15.0,270,11,,6.21,29.940945,,,TRUE,,,TRUE,,,,,CAVOK,,,,,,,,VFR,,,,,,,,,,,,METAR,70.0
LFBY 060900Z AUTO VRB01KT 9999 // ////// 21/15 Q1013,LFBY,2023-05-06T09:00:00Z,43.68,-1.07,21.0,15.0,0,1,,6.21,29.911417,,,TRUE,,,,,,,,,,,,,,,,,,,,,,,,,,,,METAR,32.0
LFBX 060900Z AUTO VRB02KT CAVOK 21/14 Q1015,LFBX,2023-05-06T09:00:00Z,45.2,0.82,21.0,14.0,0,2,,6.21,29.970472,,,TRUE,,,,,,,,CAVOK,,,,,,,,VFR,,,,,,,,,,,,METAR,97.0
LFBU 060900Z AUTO 10004KT 060V150 CAVOK 21/13 Q1015 NOSIG,LFBU,2023-05-06T09:00:00Z,45.72,0.22,21.0,13.0,100,4,,6.21,29.970472,,,TRUE,,,TRUE,,,,,CAVOK,,,,,,,,VFR,,,,,,,,,,,,METAR,124.0
LFBT 060900Z AUTO 02003KT 320V050 CAVOK 23/14 Q1013 NOSIG,LFBT,2023-05-06T09:00:00Z,43.18,0.0,23.0,14.0,20,3,,6.21,29.911417,,,TRUE,,,TRUE,,,,,CAVOK,,,,,,,,VFR,,,,,,,,,,,,METAR,359.0
LFBP 060900Z AUTO VRB03KT CAVOK 22/14 Q1013 NOSIG,LFBP,2023-05-06T09:00:00Z,43.38,-0.42,22.0,14.0,0,3,,6.21,29.911417,,,TRUE,,,TRUE,,,,,CAVOK,,,,,,,,VFR,,,,,,,,,,,,METAR,182.0
LFBO 060900Z AUTO 14010KT 9999 FEW008 21/14 Q1014 NOSIG,LFBO,2023-05-06T09:00:00Z,43.62,1.37,21.0,14.0,140,10,,6.21,29.940945,,,TRUE,,,TRUE,,,,,FEW,800,,,,,,,VFR,,,,,,,,,,,,METAR,150.0
LFBM 060900Z AUTO 11005KT 060V150 CAVOK 23/16 Q1013 NOSIG,LFBM,2023-05-06T09:00:00Z,43.92,-0.5,23.0,16.0,110,5,,6.21,29.911417,,,TRUE,,,TRUE,,,,,CAVOK,,,,,,,,VFR,,,,,,,,,,,,METAR,56.0
LFBL 060900Z AUTO 11005KT 070V130 CAVOK 19/11 Q1016 NOSIG,LFBL,2023-05-06T09:00:00Z,45.87,1.17,19.0,11.0,110,5,,6.21,30.0,,,TRUE,,,TRUE,,,,,CAVOK,,,,,,,,VFR,,,,,,,,,,,,METAR,402.0
LFBI 060900Z AUTO 09004KT 050V140 CAVOK 20/12 Q1015 NOSIG,LFBI,2023-05-06T09:00:00Z,46.58,0.32,20.0,12.0,90,4,,6.21,29.970472,,,TRUE,,,TRUE,,,,,CAVOK,,,,,,,,VFR,,,,,,,,,,,,METAR,117.0
LFBH 060900Z AUTO 13006KT 100V170 CAVOK 21/14 Q1014 NOSIG,LFBH,2023-05-06T09:00:00Z,46.18,-1.2,21.0,14.0,130,6,,6.21,29.940945,,,TRUE,,,TRUE,,,,,CAVOK,,,,,,,,VFR,,,,,,,,,,,,METAR,18.0
LFBG 060900Z AUTO 11003KT 050V150 CAVOK 21/14 Q1014,LFBG,2023-05-06T09:00:00Z,45.67,-0.32,21.0,14.0,110,3,,6.21,29.940945,,,TRUE,,,,,,,,CAVOK,,,,,,,,VFR,,,,,,,,,,,,METAR,28.0
LFBF 060900Z AUTO 13004KT 080V180 CAVOK 21/13 Q1014,LFBF,2023-05-06T09:00:00Z,43.53,1.37,21.0,13.0,130,4,,6.21,29.940945,,,TRUE,,,,,,,,CAVOK,,,,,,,,VFR,,,,,,,,,,,,METAR,159.0
LFBE 060900Z AUTO 06003KT 030V110 CAVOK 21/16 Q1014 NOSIG,LFBE,2023-05-06T09:00:00Z,44.82,0.52,21.0,16.0,60,3,,6.21,29.940945,,,TRUE,,,TRUE,,,,,CAVOK,,,,,,,,VFR,,,,,,,,,,,,METAR,49.0
LFBD 060900Z AUTO 12009KT CAVOK 22/14 Q1014 NOSIG,LFBD,2023-05-06T09:00:00Z,44.82,-0.7,22.0,14.0,120,9,,6.21,29.940945,,,TRUE,,,TRUE,,,,,CAVOK,,,,,,,,VFR,,,,,,,,,,,,METAR,48.0
LFBC 060900Z AUTO 13009KT 100V170 CAVOK 23/15 Q1013,LFBC,2023-05-06T09:00:00Z,44.52,-1.12,23.0,15.0,130,9,,6.21,29.911417,,,TRUE,,,,,,,,CAVOK,,,,,,,,VFR,,,,,,,,,,,,METAR,22.0
LFBA 060900Z AUTO 10009KT 070V130 CAVOK 20/16 Q1014 NOSIG,LFBA,2023-05-06T09:00:00Z,44.17,0.6,20.0,16.0,100,9,,6.21,29.940945,,,TRUE,,,TRUE,,,,,CAVOK,,,,,,,,VFR,,,,,,,,,,,,METAR,68.0
LFAT 060900Z AUTO 23007KT 200V270 9999 FEW021 BKN029 BKN140 16/12 Q1016 TEMPO 4000 SHRA BKN020TCU,LFAT,2023-05-06T09:00:00Z,50.52,1.62,16.0,12.0,230,7,,6.21,30.0,,,TRUE,,,,,,,,FEW,2100,BKN,2900,BKN,14000,,,MVFR,,,,,,,,,,,,METAR,2.0
LFAQ 060900Z AUTO 19005KT 150V220 9999 FEW008/// BKN072/// BKN082/// ///TCU 16/14 Q1016 TEMPO 4000 SHRA,LFAQ,2023-05-06T09:00:00Z,49.97,2.7,16.0,14.0,190,5,,6.21,30.0,,,TRUE,,,,,,,,FEW,800,BKN,7200,BKN,8200,,,VFR,,,,,,,,,,,,METAR,107.0
LFAC 060900Z AUTO 18004KT 140V220 9999 FEW014 17/13 Q1015,LFAC,2023-05-06T09:00:00Z,50.97,1.95,17.0,13.0,180,4,,6.21,29.970472,,,TRUE,,,,,,,,FEW,1400,,,,,,,VFR,,,,,,,,,,,,METAR,3.0
LEZL 060900Z 15001KT CAVOK 25/10 Q1016 NOSIG,LEZL,2023-05-06T09:00:00Z,37.42,-5.9,25.0,10.0,150,1,,6.21,30.0,,,,,,TRUE,,,,,CAVOK,,,,,,,,VFR,,,,,,,,,,,,METAR,26.0
LEZG 060900Z 09006KT 060V140 CAVOK 22/12 Q1015,LEZG,2023-05-06T09:00:00Z,41.67,-1.02,22.0,12.0,90,6,,6.21,29.970472,,,,,,,,,,,CAVOK,,,,,,,,VFR,,,,,,,,,,,,METAR,245.0
LEXJ 060900Z 29010KT 260V320 CAVOK 20/12 Q1015,LEXJ,2023-05-06T09:00:00Z,43.42,-3.82,20.0,12.0,290,10,,6.21,29.970472,,,,,,,,,,,CAVOK,,,,,,,,VFR,,,,,,,,,,,,METAR,1.0
LEVX 060900Z 19007KT 160V220 9000 BCFG SCT001 BKN015 15/14 Q1016 BECMG BKN025,LEVX,2023-05-06T09:00:00Z,42.23,-8.62,15.0,14.0,190,7,,5.59,30.0,,,,,,,,,,BCFG,SCT,100,BKN,1500,,,,,MVFR,,,,,,,,,,,,METAR,253.0
LEVT 060900Z 27001KT CAVOK 16/11 Q1015,LEVT,2023-05-06T09:00:00Z,42.87,-2.72,16.0,11.0,270,1,,6.21,29.970472,,,,,,,,,,,CAVOK,,,,,,,,VFR,,,,,,,,,,,,METAR,501.0
LEVS 060900Z VRB02KT CAVOK 20/04 Q1016,LEVS,2023-05-06T09:00:00Z,40.37,-3.78,20.0,4.0,0,2,,6.21,30.0,,,,,,,,,,,CAVOK,,,,,,,,VFR,,,,,,,,,,,,METAR,683.0
LEVD 060900Z 28006KT 250V310 CAVOK 17/07 Q1017,LEVD,2023-05-06T09:00:00Z,41.72,-4.85,17.0,7.0,280,6,,6.21,30.029528,,,,,,,,,,,CAVOK,,,,,,,,VFR,,,,,,,,,,,,METAR,844.0
LEVC 060900Z 22003KT 100V270 9999 FEW025 22/13 Q1015 NOSIG,LEVC,2023-05-06T09:00:00Z,39.5,-0.47,22.0,13.0,220,3,,6.21,29.970472,,,,,,TRUE,,,,,FEW,2500,,,,,,,VFR,,,,,,,,,,,,METAR,58.0
LETU 060900Z AUTO 08008KT 9999 NCD 20/10 Q1015,LETU,2023-05-06T09:00:00Z,,,20.0,10.0,80,8,,6.21,29.970472,,,TRUE,,,,,,,,CLR,,,,,,,,VFR,,,,,,,,,,,,METAR,
LETO 060900Z VRB03KT CAVOK 20/05 Q1016 NOSIG,LETO,2023-05-06T09:00:00Z,40.48,-3.47,20.0,5.0,0,3,,6.21,30.0,,,,,,TRUE,,,,,CAVOK,,,,,,,,VFR,,,,,,,,,,,,METAR,598.0
LETL 060900Z AUTO 14010KT 100V170 CAVOK 21/04 Q1017,LETL,2023-05-06T09:00:00Z,40.42,-1.22,21.0,4.0,140,10,,6.21,30.029528,,,TRUE,,,,,,,,CAVOK,,,,,,,,VFR,,,,,,,,,,,,METAR,1024.0
LESU 060900Z VRB01KT 9999 FEW050 19/06 Q1018,LESU,2023-05-06T09:00:00Z,42.33,1.4,19.0,6.0,0,1,,6.21,30.059055,,,,,,,,,,,FEW,5000,,,,,,,VFR,,,,,,,,,,,,METAR,802.0
LEST 060900Z 20007KT 170V230 9999 SCT005 SCT012 15/13 Q1016 TEMPO 3000 SHRA BKN010 SCT030TCU,LEST,2023-05-06T09:00:00Z,42.88,-8.42,15.0,13.0,200,7,,6.21,30.0,,,,,,,,,,,SCT,500,SCT,1200,,,,,VFR,,,,,,,,,,,,METAR,363.0
LESO 060900Z 01003KT 330V050 CAVOK 18/14 Q1014,LESO,2023-05-06T09:00:00Z,43.35,-1.8,18.0,14.0,10,3,,6.21,29.940945,,,,,,,,,,,CAVOK,,,,,,,,VFR,,,,,,,,,,,,METAR,3.0
LESB 060900Z AUTO 10008KT CAVOK 23/11 Q1016,LESB,2023-05-06T09:00:00Z,39.6,2.7,23.0,11.0,100,8,,6.21,30.0,,,TRUE,,,,,,,,CAVOK,,,,,,,,VFR,,,,,,,,,,,,METAR,48.0
LESA 060900Z 29007KT 260V330 CAVOK 16/10 Q1017,LESA,2023-05-06T09:00:00Z,40.95,-5.5,16.0,10.0,290,7,,6.21,30.029528,,,,,,,,,,,CAVOK,,,,,,,,VFR,,,,,,,,,,,,METAR,788.0
LERT 060900Z 25007KT 210V290 CAVOK 21/14 Q1016 NOSIG,LERT,2023-05-06T09:00:00Z,36.63,-6.33,21.0,14.0,250,7,,6.21,30.0,,,,,,TRUE,,,,,CAVOK,,,,,,,,VFR,,,,,,,,,,,,METAR,27.0
LERS 060900Z 13004KT 080V230 9999 FEW015 22/13 Q1016,LERS,2023-05-06T09:00:00Z,41.13,1.17,22.0,13.0,130,4,,6.21,30.0,,,,,,,,,,,FEW,1500,,,,,,,VFR,,,,,,,,,,,,METAR,68.0
LERI 060900Z VRB02KT CAVOK 22/07 Q1015 NOSIG,LERI,2023-05-06T09:00:00Z,37.95,-1.22,22.0,7.0,0,2,,6.21,29.970472,,,,,,TRUE,,,,,CAVOK,,,,,,,,VFR,,,,,,,,,,,,METAR,74.0
LEPP 060900Z 03003KT 320V080 CAVOK 19/11 Q1015,LEPP,2023-05-06T09:00:00Z,42.77,-1.65,19.0,11.0,30,3,,6.21,29.970472,,,,,,,,,,,CAVOK,,,,,,,,VFR,,,,,,,,,,,,METAR,448.0
LEPA 060900Z 08008KT 050V120 CAVOK 23/13 Q1015 NOSIG,LEPA,2023-05-06T09:00:00Z,39.55,2.73,23.0,13.0,80,8,,6.21,29.970472,,,,,,TRUE,,,,,CAVOK,,,,,,,,VFR,,,,,,,,,,,,METAR,8.0
LEMI 060900Z 07006KT 040V120 CAVOK 22/12 Q1016,LEMI,2023-05-06T09:00:00Z,37.8,-1.12,22.0,12.0,70,6,,6.21,30.0,,,,,,,,,,,CAVOK,,,,,,,,VFR,,,,,,,,,,,,METAR,193.0
LEMH 060900Z 11011KT 080V150 9999 FEW006 21/14 Q1016,LEMH,2023-05-06T09:00:00Z,39.87,4.22,21.0,14.0,110,11,,6.21,30.0,,,,,,,,,,,FEW,600,,,,,,,VFR,,,,,,,,,,,,METAR,82.0
LEMG 060900Z 11005KT 030V140 CAVOK 21/15 Q1015 NOSIG,LEMG,2023-05-06T09:00:00Z,36.67,-4.47,21.0,15.0,110,5,,6.21,29.970472,,,,,,TRUE,,,,,CAVOK,,,,,,,,VFR,,,,,,,,,,,,METAR,5.0
LEMD 060900Z 20002KT CAVOK 20/03 Q1016 NOSIG,LEMD,2023-05-06T09:00:00Z,40.45,-3.57,20.0,3.0,200,2,,6.21,30.0,,,,,,TRUE,,,,,CAVOK,,,,,,,,VFR,,,,,,,,,,,,METAR,589.0
LELO 060900Z VRB03KT CAVOK 20/10 Q1015,LELO,2023-05-06T09:00:00Z,42.45,-2.32,20.0,10.0,0,3,,6.21,29.970472,,,,,,,,,,,CAVOK,,,,,,,,VFR,,,,,,,,,,,,METAR,352.0
LELN 060900Z 26009KT 210V290 9999 FEW020 15/09 Q1017,LELN,2023-05-06T09:00:00Z,42.58,-5.65,15.0,9.0,260,9,,6.21,30.029528,,,,,,,,,,,FEW,2000,,,,,,,VFR,,,,,,,,,,,,METAR,911.0
LELL 060900Z 11003KT 020V160 CAVOK 23/08 Q1016,LELL,2023-05-06T09:00:00Z,41.52,2.1,23.0,8.0,110,3,,6.21,30.0,,,,,,,,,,,CAVOK,,,,,,,,VFR,,,,,,,,,,,,METAR,136.0
LELC 060900Z 06009KT 030V100 9999 FEW015 23/17 Q1015 NOSIG,LELC,2023-05-06T09:00:00Z,37.77,-0.8,23.0,17.0,60,9,,6.21,29.970472,,,,,,TRUE,,,,,FEW,1500,,,,,,,VFR,,,,,,,,,,,,METAR,3.0
LEIB 060900Z 07010KT 040V100 CAVOK 22/15 Q1015 NOSIG,LEIB,2023-05-06T09:00:00Z,38.87,1.38,22.0,15.0,70,10,,6.21,29.970472,,,,,,TRUE,,,,,CAVOK,,,,,,,,VFR,,,,,,,,,,,,METAR,4.0
LEHC 060900Z 13008KT 070V190 CAVOK 22/08 Q1016,LEHC,2023-05-06T09:00:00Z,42.08,-0.32,22.0,8.0,130,8,,6.21,30.0,,,,,,,,,,,CAVOK,,,,,,,,VFR,,,,,,,,,,,,METAR,540.0
LEGT 060900Z VRB01KT CAVOK 20/04 Q1016,LEGT,2023-05-06T09:00:00Z,40.28,-3.72,20.0,4.0,0,1,,6.21,30.0,,,,,,,,,,,CAVOK,,,,,,,,VFR,,,,,,,,,,,,METAR,619.0
LEGR 060900Z 00000KT CAVOK 21/07 Q1017,LEGR,2023-05-06T09:00:00Z,37.18,-3.78,21.0,7.0,0,0,,6.21,30.029528,,,,,,,,,,,CAVOK,,,,,,,,VFR,,,,,,,,,,,,METAR,560.0
LEGE 060900Z 07002KT 9999 FEW005 21/12 Q1016,LEGE,2023-05-06T09:00:00Z,41.9,2.77,21.0,12.0,70,2,,6.21,30.0,,,,,,,,,,,FEW,500,,,,,,,VFR,,,,,,,,,,,,METAR,140.0
LEDA 060900Z 08009KT 050V120 CAVOK 23/06 Q1015,LEDA,2023-05-06T09:00:00Z,41.73,0.53,23.0,6.0,80,9,,6.21,29.970472,,,,,,,,,,,CAVOK,,,,,,,,VFR,,,,,,,,,,,,METAR,352.0
LECV 060900Z VRB01KT CAVOK 19/02 Q1017,LECV,2023-05-06T09:00:00Z,40.68,-3.75,19.0,2.0,0,1,,6.21,30.029528,,,,,,,,,,,CAVOK,,,,,,,,VFR,,,,,,,,,,,,METAR,995.0
LECO 060900Z 19009KT 9999 FEW025 17/13 Q1015 TEMPO 3000 SHRA BKN010 SCT030TCU,LECO,2023-05-06T09:00:00Z,43.3,-8.37,17.0,13.0,190,9,,6.21,29.970472,,,,,,,,,,,FEW,2500,,,,,,,VFR,,,,,,,,,,,,METAR,80.0
LECH 060900Z AUTO 09005KT 050V140 CAVOK 21/13 Q1016,LECH,2023-05-06T09:00:00Z,40.2,0.07,21.0,13.0,90,5,,6.21,30.0,,,TRUE,,,,,,,,CAVOK,,,,,,,,VFR,,,,,,,,,,,,METAR,360.0
LEBZ 060900Z 27011KT 230V300 CAVOK 20/11 Q1017,LEBZ,2023-05-06T09:00:00Z,38.87,-6.82,20.0,11.0,270,11,,6.21,30.029528,,,,,,,,,,,CAVOK,,,,,,,,VFR,,,,,,,,,,,,METAR,183.0
LEBT 060900Z AUTO 16003KT 060V210 CAVOK 23/11 Q1015,LEBT,2023-05-06T09:00:00Z,39.58,-0.45,23.0,11.0,160,3,,6.21,29.970472,,,TRUE,,,,,,,,CAVOK,,,,,,,,VFR,,,,,,,,,,,,METAR,50.0
LEBR 060900Z AUTO 09008KT 050V150 9999 NCD 22/11 Q1015,LEBR,2023-05-06T09:00:00Z,42.2,-1.43,22.0,11.0,90,8,,6.21,29.970472,,,TRUE,,,,,,,,CLR,,,,,,,,VFR,,,,,,,,,,,,METAR,347.0
LEBL 060900Z 10007KT CAVOK 20/12 Q1016 NOSIG,LEBL,2023-05-06T09:00:00Z,41.28,2.07,20.0,12.0,100,7,,6.21,30.0,,,,,,TRUE,,,,,CAVOK,,,,,,,,VFR,,,,,,,,,,,,METAR,2.0
LEBG 060900Z VRB01KT CAVOK 16/07 Q1017,LEBG,2023-05-06T09:00:00Z,42.37,-3.62,16.0,7.0,0,1,,6.21,30.029528,,,,,,,,,,,CAVOK,,,,,,,,VFR,,,,,,,,,,,,METAR,892.0
LEBB 060900Z VRB01KT CAVOK 20/13 Q1014 NOSIG,LEBB,2023-05-06T09:00:00Z,43.28,-2.92,20.0,13.0,0,1,,6.21,29.940945,,,,,,TRUE,,,,,CAVOK,,,,,,,,VFR,,,,,,,,,,,,METAR,38.0
LEBA 060900Z 26004KT 190V300 CAVOK 22/08 Q1015,LEBA,2023-05-06T09:00:00Z,37.85,-4.83,22.0,8.0,260,4,,6.21,29.970472,,,,,,,,,,,CAVOK,,,,,,,,VFR,,,,,,,,,,,,METAR,88.0
LEAS 060900Z 25007KT 9000 -RA FEW085 15/13 Q1016 TEMPO 3000 SHRA BKN010 SCT030TCU,LEAS,2023-05-06T09:00:00Z,43.57,-6.03,15.0,13.0,250,7,,5.59,30.0,,,,,,,,,,-RA,FEW,8500,,,,,,,VFR,,,,,,,,,,,,METAR,120.0
LEAO 060900Z 23003KT CAVOK 22/02 Q1016,LEAO,2023-05-06T09:00:00Z,38.95,-3.73,22.0,2.0,230,3,,6.21,30.0,,,,,,,,,,,CAVOK,,,,,,,,VFR,,,,,,,,,,,,METAR,621.0
LEAM 060900Z 18005KT 140V210 CAVOK 21/17 Q1015,LEAM,2023-05-06T09:00:00Z,36.85,-2.37,21.0,17.0,180,5,,6.21,29.970472,,,,,,,,,,,CAVOK,,,,,,,,VFR,,,,,,,,,,,,METAR,16.0
LEAL 060900Z 11006KT 080V170 9999 FEW022 22/16 Q1015 NOSIG,LEAL,2023-05-06T09:00:00Z,38.27,-0.55,22.0,16.0,110,6,,6.21,29.970472,,,,,,TRUE,,,,,FEW,2200,,,,,,,VFR,,,,,,,,,,,,METAR,26.0
LEAG 060900Z AUTO VRB03KT CAVOK 22/14 Q1015,LEAG,2023-05-06T09:00:00Z,36.12,-5.45,22.0,14.0,0,3,,6.21,29.970472,,,TRUE,,,,,,,,CAVOK,,,,,,,,VFR,,,,,,,,,,,,METAR,4.0
LEAB 060900Z 20004KT 150V260 CAVOK 22/03 Q1016 NOSIG,LEAB,2023-05-06T09:00:00Z,38.95,-1.85,22.0,3.0,200,4,,6.21,30.0,,,,,,TRUE,,,,,CAVOK,,,,,,,,VFR,,,,,,,,,,,,METAR,704.0
LDZD 060900Z VRB04KT CAVOK 22/12 Q1016 BECMG 28008KT,LDZD,2023-05-06T09:00:00Z,44.1,15.33,22.0,12.0,0,4,,6.21,30.0,,,,,,,,,,,CAVOK,,,,,,,,VFR,,,,,,,,,,,,METAR,82.0
LDZA 060900Z VRB04KT CAVOK 21/12 Q1017 NOSIG,LDZA,2023-05-06T09:00:00Z,45.72,16.07,21.0,12.0,0,4,,6.21,30.029528,,,,,,TRUE,,,,,CAVOK,,,,,,,,VFR,,,,,,,,,,,,METAR,103.0
LDSP 060900Z 21004KT 100V250 CAVOK 22/11 Q1016 BECMG 23008KT,LDSP,2023-05-06T09:00:00Z,43.53,16.3,22.0,11.0,210,4,,6.21,30.0,,,,,,,,,,,CAVOK,,,,,,,,VFR,,,,,,,,,,,,METAR,16.0
LDSB 060900Z 22007KT 170V260 CAVOK 20/09 Q1017,LDSB,2023-05-06T09:00:00Z,43.28,16.68,20.0,9.0,220,7,,6.21,30.029528,,,,,,,,,,,CAVOK,,,,,,,,VFR,,,,,,,,,,,,METAR,525.0
LDRI 060900Z 26003KT 200V310 CAVOK 22/11 Q1016,LDRI,2023-05-06T09:00:00Z,45.22,14.57,22.0,11.0,260,3,,6.21,30.0,,,,,,,,,,,CAVOK,,,,,,,,VFR,,,,,,,,,,,,METAR,80.0
LDPL 060900Z 26007KT 220V280 CAVOK 22/14 Q1016 NOSIG,LDPL,2023-05-06T09:00:00Z,44.88,13.92,22.0,14.0,260,7,,6.21,30.0,,,,,,TRUE,,,,,CAVOK,,,,,,,,VFR,,,,,,,,,,,,METAR,63.0
LDOS 060900Z 13006KT 090V180 CAVOK 23/10 Q1017,LDOS,2023-05-06T09:00:00Z,45.47,18.82,23.0,10.0,130,6,,6.21,30.029528,,,,,,,,,,,CAVOK,,,,,,,,VFR,,,,,,,,,,,,METAR,82.0
LDLO 060900Z 00000KT CAVOK 20/13 Q1016,LDLO,2023-05-06T09:00:00Z,44.57,14.4,20.0,13.0,0,0,,6.21,30.0,,,,,,,,,,,CAVOK,,,,,,,,VFR,,,,,,,,,,,,METAR,46.0
LDDU 060900Z 19007KT 160V220 CAVOK 22/07 Q1016 TEMPO 18010KT,LDDU,2023-05-06T09:00:00Z,42.57,18.27,22.0,7.0,190,7,,6.21,30.0,,,,,,,,,,,CAVOK,,,,,,,,VFR,,,,,,,,,,,,METAR,156.0
LCPH 060900Z 25008KT 230V300 9999 FEW020 FEW025TCU SCT030 22/15 Q1010 NOSIG,LCPH,2023-05-06T09:00:00Z,34.72,32.47,22.0,15.0,250,8,,6.21,29.822834,,,,,,TRUE,,,,,FEW,2000,FEW,2500,SCT,3000,,,VFR,,,,,,,,,,,,METAR,8.0
LCLK 060900Z 19022KT 9999 FEW020 FEW030CB 24/16 Q1008 NOSIG,LCLK,2023-05-06T09:00:00Z,34.87,33.62,24.0,16.0,190,22,,6.21,29.763779,,,,,,TRUE,,,,,FEW,2000,FEW,3000,,,,,VFR,,,,,,,,,,,,METAR,2.0
LBPL 060900Z 26002KT 9999 SCT070 18/10 Q1019,LBPL,2023-05-06T09:00:00Z,43.45,24.5,18.0,10.0,260,2,,6.21,30.088583,,,,,,,,,,,SCT,7000,,,,,,,VFR,,,,,,,,,,,,METAR,93.0
LBPG 060900Z 12002KT 9999 BKN070 BKN100 20/08 Q1017,LBPG,2023-05-06T09:00:00Z,42.28,24.72,20.0,8.0,120,2,,6.21,30.029528,,,,,,,,,,,BKN,7000,BKN,10000,,,,,VFR,,,,,,,,,,,,METAR,198.0
LBIA 060900Z 03016KT 9999 SCT060 22/09 Q1016,LBIA,2023-05-06T09:00:00Z,42.45,26.35,22.0,9.0,30,16,,6.21,30.0,,,,,,,,,,,SCT,6000,,,,,,,VFR,,,,,,,,,,,,METAR,155.0
KMHV 060900Z AUTO 28019G27KT 10SM CLR 10/01 A2999 RMK AO2,KMHV,2023-05-06T09:00:00Z,35.07,-118.15,10.0,1.0,280,19,27,10.0,29.991142,,,TRUE,TRUE,,,,,,,CLR,,,,,,,,VFR,,,,,,,,,,,,METAR,841.0
KGZN 060900Z AUTO 18014G21KT 10SM SCT019 BKN026 OVC031 21/15 A2986 RMK AO2,KGZN,2023-05-06T09:00:00Z,32.37,-99.02,21.0,15.0,180,14,21,10.0,29.861221,,,TRUE,TRUE,,,,,,,SCT,1900,BKN,2600,OVC,3100,,,MVFR,,,,,,,,,,,,METAR,522.0
KGCC 060900Z AUTO 26008KT 10SM SCT006 07/06 A2981 RMK AO2 T00670056,KGCC,2023-05-06T09:00:00Z,44.33,-105.55,6.7,5.6,260,8,,10.0,29.811024,,,TRUE,TRUE,,,,,,,SCT,600,,,,,,,VFR,,,,,,,,,,,,SPECI,1328.0
KETC 060900Z AUTO 00000KT 7SM OVC090 11/11 A3023 RMK AO2 T01110106,KETC,2023-05-06T09:00:00Z,35.93,-77.55,11.1,10.6,0,0,,7.0,30.230314,,,TRUE,TRUE,,,,,,,OVC,9000,,,,,,,VFR,,,,,,,,,,,,METAR,15.0
KBLI 060900Z AUTO 19004KT 10SM BKN007 OVC040 10/10 A2994 RMK AO2 T01000100,KBLI,2023-05-06T09:00:00Z,48.8,-122.53,10.0,10.0,190,4,,10.0,29.940945,,,TRUE,TRUE,,,,,,,BKN,700,OVC,4000,,,,,IFR,,,,,,,,,,,,SPECI,46.0
HUEN 060900Z 18012KT 9999 FEW022 FEW024CB 26/20 Q1019 NOSIG,HUEN,2023-05-06T09:00:00Z,0.03,32.45,26.0,20.0,180,12,,6.21,30.088583,,,,,,TRUE,,,,,FEW,2200,FEW,2400,,,,,VFR,,,,,,,,,,,,METAR,1147.0
HTZA 060900Z 22011KT 9999 SCT012 BKN080 29/26 Q1015 NOSIG,HTZA,2023-05-06T09:00:00Z,-6.22,39.22,29.0,26.0,220,11,,6.21,29.970472,,,,,,TRUE,,,,,SCT,1200,BKN,8000,,,,,VFR,,,,,,,,,,,,METAR,19.0
HTMW 060900Z 10010KT 9999 FEW026 FEW027CB SCT100 28/18 Q1019 NOSIG,HTMW,2023-05-06T09:00:00Z,-2.43,32.92,28.0,18.0,100,10,,6.21,30.088583,,,,,,TRUE,,,,,FEW,2600,FEW,2700,SCT,10000,,,VFR,,,,,,,,,,,,METAR,1144.0
HTDA 060900Z 18008KT 9999 SCT024 BKN026 31/24 Q1016 NOSIG,HTDA,2023-05-06T09:00:00Z,-6.88,39.2,31.0,24.0,180,8,,6.21,30.0,,,,,,TRUE,,,,,SCT,2400,BKN,2600,,,,,MVFR,,,,,,,,,,,,METAR,53.0
HRZA 060900Z 24005KT 9999 SCT025 25/19 Q1023 NOSIG,HRZA,2023-05-06T09:00:00Z,-2.47,28.92,25.0,19.0,240,5,,6.21,30.206694,,,,,,TRUE,,,,,SCT,2500,,,,,,,VFR,,,,,,,,,,,,METAR,1591.0
HKNW 060900Z 15008KT 9999 BKN026 23/14 Q1025,HKNW,2023-05-06T09:00:00Z,-1.32,36.82,23.0,14.0,150,8,,6.21,30.265747,,,,,,,,,,,BKN,2600,,,,,,,MVFR,,,,,,,,,,,,METAR,1666.0
HKML 060900Z 18010KT 9999 BKN023 30/25 Q1014,HKML,2023-05-06T09:00:00Z,-3.22,40.1,30.0,25.0,180,10,,6.21,29.940945,,,,,,,,,,,BKN,2300,,,,,,,MVFR,,,,,,,,,,,,METAR,20.0
HKKI 060900Z 28003KT 9999 FEW026 27/17 Q1019,HKKI,2023-05-06T09:00:00Z,-0.1,34.75,27.0,17.0,280,3,,6.21,30.088583,,,,,,,,,,,FEW,2600,,,,,,,VFR,,,,,,,,,,,,METAR,1152.0
HKJK 060900Z 13004KT 9999 BKN024 22/14 Q1024 NOSIG,HKJK,2023-05-06T09:00:00Z,-1.32,36.92,22.0,14.0,130,4,,6.21,30.236221,,,,,,TRUE,,,,,BKN,2400,,,,,,,MVFR,,,,,,,,,,,,METAR,1615.0
HETR 060900Z 29017KT 3000 SA NSC 27/16 Q1011,HETR,2023-05-06T09:00:00Z,28.22,33.65,27.0,16.0,290,17,,1.86,29.852362,,,,,,,,,,SA,CLR,,,,,,,,IFR,,,,,,,,,,,,SPECI,35.0
HESX 060900Z 52015KT 9999 SCT020 27/07 Q1011 NOSIG,HESX,2023-05-06T09:00:00Z,,,27.0,7.0,,,,6.21,29.852362,,,,,,TRUE,,,,,SCT,2000,,,,,,,VFR,1.5,,,,,,,,,,,METAR,
HESW 060900Z 29014KT 9999 SACT025 22/10 Q1015,HESW,2023-05-06T09:00:00Z,29.35,25.5,22.0,10.0,290,14,,6.21,29.970472,,,,,,,,,,SA,,,,,,,,,,,,,,,,,,,,,METAR,101.0
HESN 060900Z 36011KT CAVOK 32/03 Q1013 NOSIG,HESN,2023-05-06T09:00:00Z,23.97,32.82,32.0,3.0,360,11,,6.21,29.911417,,,,,,TRUE,,,,,CAVOK,,,,,,,,VFR,,,,,,,,,,,,METAR,197.0
HESH 060900Z 09007KT 8000 NSC 31/07 Q1010 NOSIG,HESH,2023-05-06T09:00:00Z,27.97,34.38,31.0,7.0,90,7,,4.97,29.822834,,,,,,TRUE,,,,,CLR,,,,,,,,MVFR,,,,,,,,,,,,METAR,50.0
HESG 060900Z 28014KT CAVOK 29/04 Q1012 NOSIG,HESG,2023-05-06T09:00:00Z,26.33,31.75,29.0,4.0,280,14,,6.21,29.88189,,,,,,TRUE,,,,,CAVOK,,,,,,,,VFR,,,,,,,,,,,,METAR,70.0
HEPS 060900Z 27002KT 9999 FEW025 23/15 Q1012 NOSIG,HEPS,2023-05-06T09:00:00Z,31.28,32.25,23.0,15.0,270,2,,6.21,29.88189,,,,,,TRUE,,,,,FEW,2500,,,,,,,VFR,,,,,,,,,,,,METAR,2.0
HEMM 060900Z 28021KT 9999 SCT020 SCT022 21/14 Q1012 NOSIG,HEMM,2023-05-06T09:00:00Z,31.32,27.22,21.0,14.0,280,21,,6.21,29.88189,,,,,,TRUE,,,,,SCT,2000,SCT,2200,,,,,VFR,,,,,,,,,,,,METAR,26.0
HEMA 060900Z 36013KT CAVOK 29/12 Q1011 NOSIG,HEMA,2023-05-06T09:00:00Z,25.55,34.58,29.0,12.0,360,13,,6.21,29.852362,,,,,,TRUE,,,,,CAVOK,,,,,,,,VFR,,,,,,,,,,,,METAR,77.0
HELX 060900Z 28009KT 6000 NSC 31/04 Q1013 NOSIG,HELX,2023-05-06T09:00:00Z,25.67,32.7,31.0,4.0,280,9,,3.73,29.911417,,,,,,TRUE,,,,,CLR,,,,,,,,MVFR,,,,,,,,,,,,METAR,86.0
HEIS 060900Z 33005KT CAVOK 26/12 Q1012,HEIS,2023-05-06T09:00:00Z,30.58,32.25,26.0,12.0,330,5,,6.21,29.88189,,,,,,,,,,,CAVOK,,,,,,,,VFR,,,,,,,,,,,,SPECI,14.0
HEGN 060900Z 01013KT 6000 NSC 30/03 Q1010 NOSIG,HEGN,2023-05-06T09:00:00Z,27.18,33.8,30.0,3.0,10,13,,3.73,29.822834,,,,,,TRUE,,,,,CLR,,,,,,,,MVFR,,,,,,,,,,,,METAR,14.0
HECP 060900Z 25011KT 9999 SCT020 SCT025 16/07 Q1012 NOSIG,HECP,2023-05-06T09:00:00Z,30.07,31.83,16.0,7.0,250,11,,6.21,29.88189,,,,,,TRUE,,,,,SCT,2000,SCT,2500,,,,,VFR,,,,,,,,,,,,METAR,240.0
HECA 060900Z 25012KT 9999 SCT025 27/07 Q1011 NOSIG,HECA,2023-05-06T09:00:00Z,30.12,31.4,27.0,7.0,250,12,,6.21,29.852362,,,,,,TRUE,,,,,SCT,2500,,,,,,,VFR,,,,,,,,,,,,METAR,68.0
HEBL 060900Z 36012KT CAVOK 32/05 Q1013 NOSIG,HEBL,2023-05-06T09:00:00Z,22.38,31.62,32.0,5.0,360,12,,6.21,29.911417,,,,,,TRUE,,,,,CAVOK,,,,,,,,VFR,,,,,,,,,,,,METAR,184.0
HEBA 060900Z 28007KT 9999 SCT020 22/15 Q1011 NOSIG,HEBA,2023-05-06T09:00:00Z,30.92,29.7,22.0,15.0,280,7,,6.21,29.852362,,,,,,TRUE,,,,,SCT,2000,,,,,,,VFR,,,,,,,,,,,,METAR,41.0
HEAX 060900Z 27009KT 9999 SCT020 23/13 Q1012 NOSIG,HEAX,2023-05-06T09:00:00Z,31.18,29.93,23.0,13.0,270,9,,6.21,29.88189,,,,,,TRUE,,,,,SCT,2000,,,,,,,VFR,,,,,,,,,,,,METAR,-2.0
HEAT 060900Z 32013KT CAVOK 27/07 Q1015 NOSIG,HEAT,2023-05-06T09:00:00Z,27.05,31.02,27.0,7.0,320,13,,6.21,29.970472,,,,,,TRUE,,,,,CAVOK,,,,,,,,VFR,,,,,,,,,,,,METAR,229.0
HDAM 060900Z 070/14KT 9999 SCT023 35/22 Q1008,HDAM,2023-05-06T09:00:00Z,11.55,43.17,35.0,22.0,,,,6.21,29.763779,,,,,,,,,,,SCT,2300,,,,,,,VFR,,,,,,,,,,,,METAR,6.0
HCMF 060900Z 06020KT CAVOK 32/28 Q1007,HCMF,2023-05-06T09:00:00Z,11.27,49.13,32.0,28.0,60,20,,6.21,29.734253,,,,,,,,,,,CAVOK,,,,,,,,VFR,,,,,,,,,,,,METAR,8.0
HBBA 060900Z 20005KT 9999 SCT025TCU 30/23 Q1017,HBBA,2023-05-06T09:00:00Z,-3.32,29.32,30.0,23.0,200,5,,6.21,30.029528,,,,,,,,,,,SCT,2500,,,,,,,VFR,,,,,,,,,,,,METAR,777.0
HAAB 060900Z 19002KT 9999 SCT025 23/13 Q1027 NOSIG,HAAB,2023-05-06T09:00:00Z,8.97,38.78,23.0,13.0,190,2,,6.21,30.324802,,,,,,TRUE,,,,,SCT,2500,,,,,,,VFR,,,,,,,,,,,,METAR,2319.0
GVSV 060900Z 05029KT 9999 FEW020 24/16 Q1015 NOSIG,GVSV,2023-05-06T09:00:00Z,16.83,-25.07,24.0,16.0,50,29,,6.21,29.970472,,,,,,TRUE,,,,,FEW,2000,,,,,,,VFR,,,,,,,,,,,,METAR,16.0
GVNP 060900Z 02023KT 9999 SCT017 23/18 Q1015 NOSIG,GVNP,2023-05-06T09:00:00Z,14.95,-23.48,23.0,18.0,20,23,,6.21,29.970472,,,,,,TRUE,,,,,SCT,1700,,,,,,,VFR,,,,,,,,,,,,METAR,70.0
GVBA 060900Z 04019KT 9999 BKN014 24/18 Q1016 NOSIG,GVBA,2023-05-06T09:00:00Z,16.13,-22.88,24.0,18.0,40,19,,6.21,30.0,,,,,,TRUE,,,,,BKN,1400,,,,,,,MVFR,,,,,,,,,,,,METAR,23.0
GVAC 060900Z 04016KT 9999 SCT013 BKN015 23/18 Q1017 NOSIG,GVAC,2023-05-06T09:00:00Z,16.73,-22.93,23.0,18.0,40,16,,6.21,30.029528,,,,,,TRUE,,,,,SCT,1300,BKN,1500,,,,,MVFR,,,,,,,,,,,,METAR,54.0
GUCY 060900Z VRB02KT 9999 BKN015 FEW023TCU 29/25 Q1013 NOSIG,GUCY,2023-05-06T09:00:00Z,9.57,-13.62,29.0,25.0,0,2,,6.21,29.911417,,,,,,TRUE,,,,,BKN,1500,FEW,2300,,,,,MVFR,,,,,,,,,,,,METAR,10.0
GQPP 060900Z 02026KT 8000 NSC 21/13 Q1016 NOSIG,GQPP,2023-05-06T09:00:00Z,20.92,-17.02,21.0,13.0,20,26,,4.97,30.0,,,,,,TRUE,,,,,CLR,,,,,,,,MVFR,,,,,,,,,,,,METAR,5.0
GQNO 060900Z 01016KT 6000 NSC 25/12 Q1012 NOSIG,GQNO,2023-05-06T09:00:00Z,18.3,-15.97,25.0,12.0,10,16,,3.73,29.88189,,,,,,TRUE,,,,,CLR,,,,,,,,MVFR,,,,,,,,,,,,METAR,1.0
GOTK 060900Z 22008KT CAVOK 31/19 Q1012,GOTK,2023-05-06T09:00:00Z,12.57,-12.22,31.0,19.0,220,8,,6.21,29.88189,,,,,,,,,,,CAVOK,,,,,,,,VFR,,,,,,,,,,,,METAR,165.0
GOSS 060900Z 36008KT CAVOK 25/19 Q////,GOSS,2023-05-06T09:00:00Z,16.05,-16.45,25.0,19.0,360,8,,6.21,,,,,,,,,,,,CAVOK,,,,,,,,VFR,,,,,,,,,,,,METAR,3.0
GOSP 060900Z 04004KT CAVOK 30/12 Q1011,GOSP,2023-05-06T09:00:00Z,16.68,-14.97,30.0,12.0,40,4,,6.21,29.852362,,,,,,,,,,,CAVOK,,,,,,,,VFR,,,,,,,,,,,,METAR,10.0
GOSM 060900Z 32006KT CAVOK 34/10 Q1009,GOSM,2023-05-06T09:00:00Z,15.6,-13.33,34.0,10.0,320,6,,6.21,29.793306,,,,,,,,,,,CAVOK,,,,,,,,VFR,,,,,,,,,,,,METAR,28.0
GOOY 060900Z 36016KT CAVOK 25/20 Q1013,GOOY,2023-05-06T09:00:00Z,14.73,-17.5,25.0,20.0,360,16,,6.21,29.911417,,,,,,,,,,,CAVOK,,,,,,,,VFR,,,,,,,,,,,,METAR,21.0
GOOK 060900Z 32006KT CAVOK 27/17 Q1011,GOOK,2023-05-06T09:00:00Z,14.15,-16.07,27.0,17.0,320,6,,6.21,29.852362,,,,,,,,,,,CAVOK,,,,,,,,VFR,,,,,,,,,,,,METAR,8.0
GOOD 060900Z 34006KT CAVOK 26/19 Q1012,GOOD,2023-05-06T09:00:00Z,14.65,-16.22,26.0,19.0,340,6,,6.21,29.88189,,,,,,,,,,,CAVOK,,,,,,,,VFR,,,,,,,,,,,,METAR,9.0
GOGS 060900Z 32006KT CAVOK 27/21 Q1012,GOGS,2023-05-06T09:00:00Z,12.4,-16.75,27.0,21.0,320,6,,6.21,29.88189,,,,,,,,,,,CAVOK,,,,,,,,VFR,,,,,,,,,,,,METAR,13.0
GOGG 060900Z 32004KT CAVOK 27/24 Q1013,GOGG,2023-05-06T09:00:00Z,12.55,-16.27,27.0,24.0,320,4,,6.21,29.911417,,,,,,,,,,,CAVOK,,,,,,,,VFR,,,,,,,,,,,,METAR,24.0
GOBD 060900Z 35013KT 8000 NSC 25/20 Q1013 NOSIG,GOBD,2023-05-06T09:00:00Z,14.67,-17.07,25.0,20.0,350,13,,4.97,29.911417,,,,,,TRUE,,,,,CLR,,,,,,,,MVFR,,,,,,,,,,,,METAR,90.0
GMTT 060900Z 23009KT 8000 SCT016 21/18 Q1017 NOSIG,GMTT,2023-05-06T09:00:00Z,35.72,-5.9,21.0,18.0,230,9,,4.97,30.029528,,,,,,TRUE,,,,,SCT,1600,,,,,,,MVFR,,,,,,,,,,,,METAR,19.0
GMTN 060900Z 25017KT 210V270 CAVOK 25/15 Q1015 NOSIG,GMTN,2023-05-06T09:00:00Z,35.58,-5.32,25.0,15.0,250,17,,6.21,29.970472,,,,,,TRUE,,,,,CAVOK,,,,,,,,VFR,,,,,,,,,,,,METAR,10.0
GMTA 060900Z 35008KT 320V030 CAVOK 22/15 Q1015 NOSIG,GMTA,2023-05-06T09:00:00Z,35.17,-3.85,22.0,15.0,350,8,,6.21,29.970472,,,,,,TRUE,,,,,CAVOK,,,,,,,,VFR,,,,,,,,,,,,METAR,14.0
GMMZ 060900Z 24005KT 9999 FEW040 SCT100 24/05 Q1014 NOSIG,GMMZ,2023-05-06T09:00:00Z,30.93,-6.9,24.0,5.0,240,5,,6.21,29.940945,,,,,,TRUE,,,,,FEW,4000,SCT,10000,,,,,VFR,,,,,,,,,,,,METAR,1139.0
GMMX 060900Z VRB03KT 8000 SCT023 21/13 Q1018 NOSIG,GMMX,2023-05-06T09:00:00Z,31.62,-8.03,21.0,13.0,0,3,,4.97,30.059055,,,,,,TRUE,,,,,SCT,2300,,,,,,,MVFR,,,,,,,,,,,,METAR,465.0
GMMW 060900Z VRB03KT CAVOK 22/09 Q1015,GMMW,2023-05-06T09:00:00Z,34.98,-3.02,22.0,9.0,0,3,,6.21,29.970472,,,,,,,,,,,CAVOK,,,,,,,,VFR,,,,,,,,,,,,METAR,174.0
GMMN 060900Z 08005KT 040V150 9999 SCT020 20/13 Q1019 NOSIG,GMMN,2023-05-06T09:00:00Z,33.37,-7.58,20.0,13.0,80,5,,6.21,30.088583,,,,,,TRUE,,,,,SCT,2000,,,,,,,VFR,,,,,,,,,,,,METAR,196.0
GMML 060900Z 03020KT 7000 SCT030 22/13 Q1019 NOSIG,GMML,2023-05-06T09:00:00Z,27.13,-13.23,22.0,13.0,30,20,,4.35,30.088583,,,,,,TRUE,,,,,SCT,3000,,,,,,,MVFR,,,,,,,,,,,,METAR,63.0
GMMI 060900Z 07013KT 030V110 6000 FEW023 21/13 Q1018 NOSIG,GMMI,2023-05-06T09:00:00Z,31.4,-9.68,21.0,13.0,70,13,,3.73,30.059055,,,,,,TRUE,,,,,FEW,2300,,,,,,,MVFR,,,,,,,,,,,,METAR,102.0
GMMH 060900Z 02021KT 8000 FEW016 20/14 Q1019 NOSIG,GMMH,2023-05-06T09:00:00Z,23.72,-15.93,20.0,14.0,20,21,,4.97,30.088583,,,,,,TRUE,,,,,FEW,1600,,,,,,,MVFR,,,,,,,,,,,,METAR,11.0
GMME 060900Z 31004KT 240V040 5000 SCT016 21/13 Q1018 NOSIG,GMME,2023-05-06T09:00:00Z,34.05,-6.77,21.0,13.0,310,4,,3.11,30.059055,,,,,,TRUE,,,,,SCT,1600,,,,,,,MVFR,,,,,,,,,,,,METAR,84.0
GMMD 060900Z 24004KT CAVOK 20/11 Q1018 NOSIG,GMMD,2023-05-06T09:00:00Z,32.4,-6.32,20.0,11.0,240,4,,6.21,30.059055,,,,,,TRUE,,,,,CAVOK,,,,,,,,VFR,,,,,,,,,,,,METAR,515.0
GMMC 060900Z 36004KT 6000 BKN016 21/12 Q1018,GMMC,2023-05-06T09:00:00Z,33.57,-7.67,21.0,12.0,360,4,,3.73,30.059055,,,,,,,,,,,BKN,1600,,,,,,,MVFR,,,,,,,,,,,,METAR,62.0
GMMB 060900Z VRB03KT 6000 SCT020 20/12 Q1019 NOSIG,GMMB,2023-05-06T09:00:00Z,33.65,-7.22,20.0,12.0,0,3,,3.73,30.088583,,,,,,TRUE,,,,,SCT,2000,,,,,,,MVFR,,,,,,,,,,,,METAR,191.0
GMFO 060900Z VRB03KT 9999 FEW050 SCT200 23/03 Q1016 NOSIG,GMFO,2023-05-06T09:00:00Z,34.78,-1.92,23.0,3.0,0,3,,6.21,30.0,,,,,,TRUE,,,,,FEW,5000,SCT,20000,,,,,VFR,,,,,,,,,,,,METAR,452.0
GMFM 060900Z 31006KT 270V350 5000 FEW010 SCT016 18/11 Q1019 NOSIG,GMFM,2023-05-06T09:00:00Z,33.87,-5.52,18.0,11.0,310,6,,3.11,30.088583,,,,,,TRUE,,,,,FEW,1000,SCT,1600,,,,,MVFR,,,,,,,,,,,,METAR,569.0
GMFK 060900Z 36014KT CAVOK 27/03 Q1016 NOSIG,GMFK,2023-05-06T09:00:00Z,31.95,-4.4,27.0,3.0,360,14,,6.21,30.0,,,,,,TRUE,,,,,CAVOK,,,,,,,,VFR,,,,,,,,,,,,METAR,1033.0
GMFF 060900Z 33007KT 290V360 CAVOK 19/09 Q1019 NOSIG,GMFF,2023-05-06T09:00:00Z,33.92,-4.97,19.0,9.0,330,7,,6.21,30.088583,,,,,,TRUE,,,,,CAVOK,,,,,,,,VFR,,,,,,,,,,,,METAR,575.0
GMFB 060900Z 04016KT CAVOK 23/02 Q1018 NOSIG,GMFB,2023-05-06T09:00:00Z,32.52,-1.98,23.0,2.0,40,16,,6.21,30.059055,,,,,,TRUE,,,,,CAVOK,,,,,,,,VFR,,,,,,,,,,,,METAR,1106.0
GMAT 060900Z 02021KT 9999 BKN017 19/13 Q1017 NOSIG,GMAT,2023-05-06T09:00:00Z,28.43,-11.15,19.0,13.0,20,21,,6.21,30.029528,,,,,,TRUE,,,,,BKN,1700,,,,,,,MVFR,,,,,,,,,,,,METAR,192.0
GMAG 060900Z 31014KT 5000 BKN014 18/15 Q1015 NOSIG,GMAG,2023-05-06T09:00:00Z,29.03,-10.05,18.0,15.0,310,14,,3.11,29.970472,,,,,,TRUE,,,,,BKN,1400,,,,,,,MVFR,,,,,,,,,,,,METAR,333.0
GMAD 060900Z 20003KT 140V240 8000 OVC023 20/16 Q1015 NOSIG,GMAD,2023-05-06T09:00:00Z,30.32,-9.42,20.0,16.0,200,3,,4.97,29.970472,,,,,,TRUE,,,,,OVC,2300,,,,,,,MVFR,,,,,,,,,,,,METAR,66.0
GLRB 060900Z 30005KT 9999 FEW012 27/24 Q1012 NOSIG,GLRB,2023-05-06T09:00:00Z,6.25,-10.35,27.0,24.0,300,5,,6.21,29.88189,,,,,,TRUE,,,,,FEW,1200,,,,,,,VFR,,,,,,,,,,,,METAR,12.0
GGOV 060900Z 25004KT 160V300 8000 FEW010 28/23 Q1012 NOSIG,GGOV,2023-05-06T09:00:00Z,11.88,-15.65,28.0,23.0,250,4,,4.97,29.88189,,,,,,TRUE,,,,,FEW,1000,,,,,,,MVFR,,,,,,,,,,,,METAR,31.0
GFLL 060900Z VRB03KT 9999 SCT011 27/25 Q1012,GFLL,2023-05-06T09:00:00Z,8.62,-13.18,27.0,25.0,0,3,,6.21,29.88189,,,,,,,,,,,SCT,1100,,,,,,,VFR,,,,,,,,,,,,METAR,28.0
GEML 060900Z 31007KT 230V350 CAVOK 25/12 Q1015,GEML,2023-05-06T09:00:00Z,35.27,-2.95,25.0,12.0,310,7,,6.21,29.970472,,,,,,,,,,,CAVOK,,,,,,,,VFR,,,,,,,,,,,,METAR,48.0
GECE 060900Z AUTO VRB04KT CAVOK 22/14 Q1015,GECE,2023-05-06T09:00:00Z,35.88,-5.3,22.0,14.0,0,4,,6.21,29.970472,,,TRUE,,,,,,,,CAVOK,,,,,,,,VFR,,,,,,,,,,,,METAR,2.0
GCXO 060900Z 31016KT 280V340 9999 BKN008 17/15 Q1023 REDZ NOSIG,GCXO,2023-05-06T09:00:00Z,28.48,-16.35,17.0,15.0,310,16,,6.21,30.206694,,,,,,TRUE,,,,,BKN,800,,,,,,,IFR,,,,,,,,,,,,SPECI,623.0
GCTS 060900Z 29008KT 250V320 9999 SCT036 23/14 Q1021 NOSIG,GCTS,2023-05-06T09:00:00Z,28.05,-16.57,23.0,14.0,290,8,,6.21,30.147638,,,,,,TRUE,,,,,SCT,3600,,,,,,,VFR,,,,,,,,,,,,METAR,59.0
GCRR 060900Z 01020KT 9999 BKN030 23/14 Q1020,GCRR,2023-05-06T09:00:00Z,28.95,-13.58,23.0,14.0,10,20,,6.21,30.11811,,,,,,,,,,,BKN,3000,,,,,,,MVFR,,,,,,,,,,,,METAR,9.0
GCLP 060900Z 01026G36KT 9999 FEW030 SCT038 22/15 Q1021 NOSIG,GCLP,2023-05-06T09:00:00Z,27.92,-15.38,22.0,15.0,10,26,36,6.21,30.147638,,,,,,TRUE,,,,,FEW,3000,SCT,3800,,,,,VFR,,,,,,,,,,,,METAR,16.0
GCLA 060900Z 03013KT 9999 SCT025 BKN035 22/18 Q1023,GCLA,2023-05-06T09:00:00Z,28.62,-17.75,22.0,18.0,30,13,,6.21,30.206694,,,,,,,,,,,SCT,2500,BKN,3500,,,,,VFR,,,,,,,,,,,,METAR,20.0
GCHI 060900Z 36011KT 330V030 9999 FEW018 SCT030 BKN040 21/17 Q1022,GCHI,2023-05-06T09:00:00Z,27.82,-17.88,21.0,17.0,360,11,,6.21,30.177166,,,,,,,,,,,FEW,1800,SCT,3000,BKN,4000,,,VFR,,,,,,,,,,,,METAR,21.0
GCGM 060900Z 01007KT 290V080 9999 FEW025 21/13 Q1022 RMK R09/VRB06KT ARP/02007KT 300V100,GCGM,2023-05-06T09:00:00Z,28.03,-17.22,21.0,13.0,10,7,,6.21,30.177166,,,,,,,,,,,FEW,2500,,,,,,,VFR,,,,,,,,,,,,METAR,217.0
GCFV 060900Z 01020KT 9999 SCT030 22/14 Q1020,GCFV,2023-05-06T09:00:00Z,28.43,-13.87,22.0,14.0,10,20,,6.21,30.11811,,,,,,,,,,,SCT,3000,,,,,,,VFR,,,,,,,,,,,,METAR,11.0
GBYD 060900Z 36009KT CAVOK 26/20 Q1012,GBYD,2023-05-06T09:00:00Z,13.33,-16.65,26.0,20.0,360,9,,6.21,29.88189,,,,,,,,,,,CAVOK,,,,,,,,VFR,,,,,,,,,,,,METAR,29.0
GANR 060900Z 28008KT CAVOK 35/18 Q1012,GANR,2023-05-06T09:00:00Z,15.23,-9.58,35.0,18.0,280,8,,6.21,29.88189,,,,,,,,,,,CAVOK,,,,,,,,VFR,,,,,,,,,,,,METAR,237.0
GAMB 060900Z 22012KT CAVOK 35/19 Q1011,GAMB,2023-05-06T09:00:00Z,14.52,-4.08,35.0,19.0,220,12,,6.21,29.852362,,,,,,,,,,,CAVOK,,,,,,,,VFR,,,,,,,,,,,,METAR,271.0
GAKD 060900Z 32010KT CAVOK 33/17 Q1011,GAKD,2023-05-06T09:00:00Z,14.48,-11.4,33.0,17.0,320,10,,6.21,29.852362,,,,,,,,,,,CAVOK,,,,,,,,VFR,,,,,,,,,,,,METAR,53.0
GABS 060900Z 22008KT 180V250 CAVOK 32/20 Q1013 NOSIG,GABS,2023-05-06T09:00:00Z,12.53,-7.95,32.0,20.0,220,8,,6.21,29.911417,,,,,,TRUE,,,,,CAVOK,,,,,,,,VFR,,,,,,,,,,,,METAR,375.0
FZAA 060900Z 22004KT 8000 SCT018 28/22 Q1016 NOSIG,FZAA,2023-05-06T09:00:00Z,-4.38,15.45,28.0,22.0,220,4,,4.97,30.0,,,,,,TRUE,,,,,SCT,1800,,,,,,,MVFR,,,,,,,,,,,,SPECI,309.0
FYWW 060900Z 00000KT CAVOK 24/03 Q1024,FYWW,2023-05-06T09:00:00Z,-22.57,17.1,24.0,3.0,0,0,,6.21,30.236221,,,,,,,,,,,CAVOK,,,,,,,,VFR,,,,,,,,,,,,METAR,1672.0
FYWH 060900Z 00000KT CAVOK 25/05 Q1025 NOSIG,FYWH,2023-05-06T09:00:00Z,-22.47,17.47,25.0,5.0,0,0,,6.21,30.265747,,,,,,TRUE,,,,,CAVOK,,,,,,,,VFR,,,,,,,,,,,,METAR,1699.0
FYWB 060900Z 36003KT 9999 OVC012 14/12 Q1018,FYWB,2023-05-06T09:00:00Z,-22.98,14.65,14.0,12.0,360,3,,6.21,30.059055,,,,,,,,,,,OVC,1200,,,,,,,MVFR,,,,,,,,,,,,METAR,87.0
FYOA 060900Z AUTO 04002KT //// // ////// 29/08 Q1018,FYOA,2023-05-06T09:00:00Z,-17.88,15.97,29.0,8.0,40,2,,,30.059055,,,TRUE,,,,,,,,,,,,,,,,,,,,,,,,,,,,METAR,1099.0
FYLZ 060900Z AUTO 18008G24KT //// // ////// 19/12 Q1016,FYLZ,2023-05-06T09:00:00Z,-26.68,15.25,19.0,12.0,180,8,24,,30.0,,,TRUE,,,,,,,,,,,,,,,,,,,,,,,,,,,,METAR,129.0
FYKT 060900Z 27004KT CAVOK 26/M01 Q1019,FYKT,2023-05-06T09:00:00Z,-26.53,18.12,26.0,-1.0,270,4,,6.21,30.088583,,,,,,,,,,,CAVOK,,,,,,,,VFR,,,,,,,,,,,,METAR,1064.0
FYKM 060900Z AUTO 07009KT //// // ////// 31/10 Q1020,FYKM,2023-05-06T09:00:00Z,-17.63,24.18,31.0,10.0,70,9,,,30.11811,,,TRUE,,,,,,,,,,,,,,,,,,,,,,,,,,,,METAR,959.0
FYGF 060900Z AUTO 34009KT //// // ////// 27/08 Q1024,FYGF,2023-05-06T09:00:00Z,-19.6,18.12,27.0,8.0,340,9,,,30.236221,,,TRUE,,,,,,,,,,,,,,,,,,,,,,,,,,,,METAR,1407.0
FWKI 060900Z VRB02KT 9999 FEW025 24/10 Q1023 NOSIG,FWKI,2023-05-06T09:00:00Z,-13.78,33.78,24.0,10.0,0,2,,6.21,30.206694,,,,,,TRUE,,,,,FEW,2500,,,,,,,VFR,,,,,,,,,,,,METAR,1225.0
FWCL 060900Z 32006KT 9999 FEW025 25/15 Q1021 BECMG SCT025,FWCL,2023-05-06T09:00:00Z,-15.67,34.97,25.0,15.0,320,6,,6.21,30.147638,,,,,,,,,,,FEW,2500,,,,,,,VFR,,,,,,,,,,,,METAR,774.0
FVWN 060900Z 33005KT CAVOK 26/12 Q1023,FVWN,2023-05-06T09:00:00Z,-18.63,27.0,26.0,12.0,330,5,,6.21,30.206694,,,,,,,,,,,CAVOK,,,,,,,,VFR,,,,,,,,,,,,METAR,1087.0
FVRG 060900Z 15007KT 060V200 CAVOK 25/04 Q1026 NOSIG,FVRG,2023-05-06T09:00:00Z,-17.93,31.1,25.0,4.0,150,7,,6.21,30.295275,,,,,,TRUE,,,,,CAVOK,,,,,,,,VFR,,,,,,,,,,,,METAR,1490.0
FVKB 060900Z 00000KT CAVOK 30/16 Q1019 NOSIG,FVKB,2023-05-06T09:00:00Z,-16.52,28.88,30.0,16.0,0,0,,6.21,30.088583,,,,,,TRUE,,,,,CAVOK,,,,,,,,VFR,,,,,,,,,,,,METAR,515.0
FVJN 060900Z VRB02KT CAVOK 26/09 Q1025 NOSIG,FVJN,2023-05-06T09:00:00Z,-20.02,28.63,26.0,9.0,0,2,,6.21,30.265747,,,,,,TRUE,,,,,CAVOK,,,,,,,,VFR,,,,,,,,,,,,METAR,1331.0
FVFA 060900Z 08009KT 050V110 CAVOK 27/11 Q1022 NOSIG,FVFA,2023-05-06T09:00:00Z,-18.1,25.85,27.0,11.0,80,9,,6.21,30.177166,,,,,,TRUE,,,,,CAVOK,,,,,,,,VFR,,,,,,,,,,,,METAR,1069.0
FVCZ 060900Z 08005KT CAVOK 29/12 Q1024,FVCZ,2023-05-06T09:00:00Z,-21.02,31.57,29.0,12.0,80,5,,6.21,30.236221,,,,,,,,,,,CAVOK,,,,,,,,VFR,,,,,,,,,,,,METAR,436.0
FTTY 060900Z 04021KT 5000 BLSA SKC 34/09 Q1013,FTTY,2023-05-06T09:00:00Z,17.92,19.1,34.0,9.0,40,21,,3.11,29.911417,,,,,,,,,,BLSA,SKC,,,,,,,,MVFR,,,,,,,,,,,,METAR,234.0
FTTJ 060900Z 34006KT 8000 NSC 37/11 Q1010 NOSIG,FTTJ,2023-05-06T09:00:00Z,12.13,15.03,37.0,11.0,340,6,,4.97,29.822834,,,,,,TRUE,,,,,CLR,,,,,,,,MVFR,,,,,,,,,,,,METAR,295.0
FTTD 060900Z 22004KT CAVOK 34/19 Q1013,FTTD,2023-05-06T09:00:00Z,8.62,16.07,34.0,19.0,220,4,,6.21,29.911417,,,,,,,,,,,CAVOK,,,,,,,,VFR,,,,,,,,,,,,METAR,420.0
FTTA 060900Z 22006KT CAVOK 35/22 Q1012,FTTA,2023-05-06T09:00:00Z,9.15,18.37,35.0,22.0,220,6,,6.21,29.88189,,,,,,,,,,,CAVOK,,,,,,,,VFR,,,,,,,,,,,,METAR,361.0
FSIA 060900Z 11008KT 080V170 9999 SCT023 31/25 Q1010 NOSIG,FSIA,2023-05-06T09:00:00Z,-4.67,55.52,31.0,25.0,110,8,,6.21,29.822834,,,,,,TRUE,,,,,SCT,2300,,,,,,,VFR,,,,,,,,,,,,METAR,3.0
FQXA 060900Z 36009KT 320V040 CAVOK 27/18 Q1020,FQXA,2023-05-06T09:00:00Z,-25.05,33.62,27.0,18.0,360,9,,6.21,30.11811,,,,,,,,,,,CAVOK,,,,,,,,VFR,,,,,,,,,,,,METAR,3.0
FQVL 060900Z 12006KT 9999 SCT020 28/23 Q1019,FQVL,2023-05-06T09:00:00Z,-22.0,35.32,28.0,23.0,120,6,,6.21,30.088583,,,,,,,,,,,SCT,2000,,,,,,,VFR,,,,,,,,,,,,METAR,15.0
FQTT 060900Z 08004KT 9999 FEW020 30/17 Q1019,FQTT,2023-05-06T09:00:00Z,-16.1,33.63,30.0,17.0,80,4,,6.21,30.088583,,,,,,,,,,,FEW,2000,,,,,,,VFR,,,,,,,,,,,,METAR,146.0
FQQL 060900Z 27005KT 9999 BKN018 SCT090 27/21 Q1019,FQQL,2023-05-06T09:00:00Z,-17.87,36.87,27.0,21.0,270,5,,6.21,30.088583,,,,,,,,,,,BKN,1800,SCT,9000,,,,,MVFR,,,,,,,,,,,,METAR,5.0
FQPB 060900Z 16011KT 110V190 9999 SCT020 30/20 Q1017,FQPB,2023-05-06T09:00:00Z,-12.98,40.52,30.0,20.0,160,11,,6.21,30.029528,,,,,,,,,,,SCT,2000,,,,,,,VFR,,,,,,,,,,,,METAR,101.0
FQNP 060900Z 10003KT 9999 SCT020 26/16 Q1019,FQNP,2023-05-06T09:00:00Z,-15.1,39.27,26.0,16.0,100,3,,6.21,30.088583,,,,,,,,,,,SCT,2000,,,,,,,VFR,,,,,,,,,,,,METAR,434.0
FQMA 060900Z 02010KT 9999 FEW025 29/18 Q1017 NOSIG,FQMA,2023-05-06T09:00:00Z,-25.92,32.57,29.0,18.0,20,10,,6.21,30.029528,,,,,,TRUE,,,,,FEW,2500,,,,,,,VFR,,,,,,,,,,,,METAR,34.0
FQLC 060900Z 07007KT 9999 BKN016 22/11 Q1024,FQLC,2023-05-06T09:00:00Z,-13.27,35.25,22.0,11.0,70,7,,6.21,30.236221,,,,,,,,,,,BKN,1600,,,,,,,MVFR,,,,,,,,,,,,METAR,1362.0
FQIN 060900Z 07004KT 9999 SCT020 29/19 Q1019,FQIN,2023-05-06T09:00:00Z,-23.87,35.38,29.0,19.0,70,4,,6.21,30.088583,,,,,,,,,,,SCT,2000,,,,,,,VFR,,,,,,,,,,,,METAR,10.0
FQCH 060900Z /////KT 9999 BKN015 24/17 Q1023,FQCH,2023-05-06T09:00:00Z,-19.15,33.43,24.0,17.0,,,,6.21,30.206694,,,,,,,,,,,BKN,1500,,,,,,,MVFR,,,,,,,,,,,,METAR,695.0
FQBR 060900Z VRB02KT 9999 FEW018 27/18 Q1018,FQBR,2023-05-06T09:00:00Z,-19.8,34.9,27.0,18.0,0,2,,6.21,30.059055,,,,,,,,,,,FEW,1800,,,,,,,VFR,,,,,,,,,,,,METAR,14.0
FOOT 060900Z 18004KT 9999 SCT010 BKN073 28/25 Q////,FOOT,2023-05-06T09:00:00Z,-2.88,10.95,28.0,25.0,180,4,,6.21,,,,,,,,,,,,SCT,1000,BKN,7300,,,,,VFR,,,,,,,,,,,,METAR,75.0
FOON 060900Z /////KT 9999 SCT011 27/23 Q1015,FOON,2023-05-06T09:00:00Z,-1.65,13.43,27.0,23.0,,,,6.21,29.970472,,,,,,,,,,,SCT,1100,,,,,,,VFR,,,,,,,,,,,,METAR,440.0
FOOL 060900Z VRB02KT 9999 SCT011 29/25 Q1013 NOSIG,FOOL,2023-05-06T09:00:00Z,0.45,9.42,29.0,25.0,0,2,,6.21,29.911417,,,,,,TRUE,,,,,SCT,1100,,,,,,,VFR,,,,,,,,,,,,METAR,9.0
FOOG 060900Z 14004KT 100V180 9999 TS FEW010 FEW020CB 30/24 Q101 3,FOOG,2023-05-06T09:00:00Z,-0.7,8.75,30.0,24.0,140,4,,6.21,,,,,,,,,,,TS,FEW,1000,FEW,2000,,,,,VFR,,,,,,,,,,,,SPECI,4.0
FOGR 060900Z /////KT 9999 SCT010 28/24 Q////,FOGR,2023-05-06T09:00:00Z,-0.7,10.25,28.0,24.0,,,,6.21,,,,,,,,,,,,SCT,1000,,,,,,,VFR,,,,,,,,,,,,METAR,25.0
FOGM 060900Z 00000KT 9999 BKN015 28/24 Q////,FOGM,2023-05-06T09:00:00Z,-1.83,11.05,28.0,24.0,0,0,,6.21,,,,,,,,,,,,BKN,1500,,,,,,,MVFR,,,,,,,,,,,,METAR,90.0
FNLU 060900Z 11004KT 8000 FEW022 BKN080 28/// Q1013 NOSIG,FNLU,2023-05-06T09:00:00Z,-8.85,13.22,,,110,4,,4.97,29.911417,,,,,,TRUE,,,,,FEW,2200,BKN,8000,,,,,MVFR,,,,,,,,,,,,SPECI,75.0
FMSD 060900Z 10012KT 9999 SCT020 SCT033 28/20 Q1017,FMSD,2023-05-06T09:00:00Z,-25.03,46.95,28.0,20.0,100,12,,6.21,30.029528,,,,,,,,,,,SCT,2000,SCT,3300,,,,,VFR,,,,,,,,,,,,METAR,7.0
FMNN 060900Z 03004KT 9999 FEW020 31/// Q1014,FMNN,2023-05-06T09:00:00Z,-13.32,48.32,,,30,4,,6.21,29.940945,,,,,,,,,,,FEW,2000,,,,,,,VFR,,,,,,,,,,,,SPECI,10.0
FMNM 060900Z 22004KT 150V310 9999 FEW023 33/21 Q1015 NOSIG,FMNM,2023-05-06T09:00:00Z,-15.67,46.35,33.0,21.0,220,4,,6.21,29.970472,,,,,,TRUE,,,,,FEW,2300,,,,,,,VFR,,,,,,,,,,,,METAR,18.0
FMNA 060900Z 14012KT 9999 SCT020 32/19 Q1013,FMNA,2023-05-06T09:00:00Z,-12.33,49.28,32.0,19.0,140,12,,6.21,29.911417,,,,,,,,,,,SCT,2000,,,,,,,VFR,,,,,,,,,,,,METAR,108.0
FMMT 060900Z 17006KT 110V210 9999 SCT017TCU 30/22 Q1017 NOSIG,FMMT,2023-05-06T09:00:00Z,-18.12,49.38,30.0,22.0,170,6,,6.21,30.029528,,,,,,TRUE,,,,,SCT,1700,,,,,,,VFR,,,,,,,,,,,,METAR,13.0
FMEP 060900Z AUTO 13015KT CAVOK 28/23 Q1016 NOSIG,FMEP,2023-05-06T09:00:00Z,-21.32,55.42,28.0,23.0,130,15,,6.21,30.0,,,TRUE,,,TRUE,,,,,CAVOK,,,,,,,,VFR,,,,,,,,,,,,METAR,21.0
FMEE 060900Z AUTO 09010KT 9999 ///CB 29/23 Q1016 TEMPO VRB15G25KT 2500 SHRA,FMEE,2023-05-06T09:00:00Z,-20.88,55.52,29.0,23.0,90,10,,6.21,30.0,,,TRUE,,,,,,,,,,,,,,,,,,,,,,,,,,,,METAR,20.0
FMCZ 060900Z AUTO 18010KT 150V210 9999 FEW025 SCT033 31/25 Q1015 NOSIG,FMCZ,2023-05-06T09:00:00Z,-12.8,45.27,31.0,25.0,180,10,,6.21,29.970472,,,TRUE,,,TRUE,,,,,FEW,2500,SCT,3300,,,,,VFR,,,,,,,,,,,,METAR,7.0
FKYS 060900Z VRB02KT 9999 TS BKN010 FEW020CB 24/22 Q1019 NOSIG,FKYS,2023-05-06T09:00:00Z,3.82,11.52,24.0,22.0,0,2,,6.21,30.088583,,,,,,TRUE,,,,TS,BKN,1000,FEW,2000,,,,,MVFR,,,,,,,,,,,,METAR,694.0
FKKR 060900Z 26009KT 220V290 CAVOK 31/21 Q1012 NOSIG,FKKR,2023-05-06T09:00:00Z,9.33,13.37,31.0,21.0,260,9,,6.21,29.88189,,,,,,TRUE,,,,,CAVOK,,,,,,,,VFR,,,,,,,,,,,,METAR,223.0
FKKN 060900Z 20004KT 9999 FEW013 27/21 Q1020,FKKN,2023-05-06T09:00:00Z,7.35,13.57,27.0,21.0,200,4,,6.21,30.11811,,,,,,,,,,,FEW,1300,,,,,,,VFR,,,,,,,,,,,,METAR,1108.0
FKKL 060900Z /////KT CAVOK 36/13 Q1013,FKKL,2023-05-06T09:00:00Z,10.45,14.25,36.0,13.0,,,,6.21,29.911417,,,,,,,,,,,CAVOK,,,,,,,,VFR,,,,,,,,,,,,METAR,422.0
FKKD 060900Z 09004KT 060V130 9999 SCT014 FEW016CB 28/23 Q1014 NOSIG,FKKD,2023-05-06T09:00:00Z,4.0,9.72,28.0,23.0,90,4,,6.21,29.940945,,,,,,TRUE,,,,,SCT,1400,FEW,1600,,,,,VFR,,,,,,,,,,,,METAR,10.0
FIMP 060900Z 13007KT 9999 VCSH SCT015 28/23 Q1017,FIMP,2023-05-06T09:00:00Z,-20.43,57.68,28.0,23.0,130,7,,6.21,30.029528,,,,,,,,,,VCSH,SCT,1500,,,,,,,VFR,,,,,,,,,,,,METAR,57.0
FGSL 060900Z 26002KT 8000 SCT010 FEW020CB 27/26 Q1015 NOSIG,FGSL,2023-05-06T09:00:00Z,3.75,8.72,27.0,26.0,260,2,,4.97,29.970472,,,,,,TRUE,,,,,SCT,1000,FEW,2000,,,,,MVFR,,,,,,,,,,,,METAR,23.0
FEFF 060900Z 21010KT 9999 FEW020 33/24 Q1013 NOSIG,FEFF,2023-05-06T09:00:00Z,4.4,18.52,33.0,24.0,210,10,,6.21,29.911417,,,,,,TRUE,,,,,FEW,2000,,,,,,,VFR,,,,,,,,,,,,METAR,364.0
FDSK 060900Z 01011KT CAVOK 26/16 Q1020 NOSIG,FDSK,2023-05-06T09:00:00Z,-26.35,31.72,26.0,16.0,10,11,,6.21,30.11811,,,,,,TRUE,,,,,CAVOK,,,,,,,,VFR,,,,,,,,,,,,METAR,323.0
FCPP 060900Z 15005KT 130V190 9999 FEW015 FEW030CB 28/25 Q1013 NOSIG,FCPP,2023-05-06T09:00:00Z,-4.82,11.9,28.0,25.0,150,5,,6.21,29.911417,,,,,,TRUE,,,,,FEW,1500,FEW,3000,,,,,VFR,,,,,,,,,,,,METAR,18.0
FCOD 060900Z 26004KT 9999 FEW015 FEW030CB 28/25 Q1015,FCOD,2023-05-06T09:00:00Z,,,28.0,25.0,260,4,,6.21,29.970472,,,,,,,,,,,FEW,1500,FEW,3000,,,,,VFR,,,,,,,,,,,,METAR,
FCBB 060900Z 08006KT 020V120 9999 FEW016 FEW030CB 29/22 Q1016 NOSIG,FCBB,2023-05-06T09:00:00Z,-4.25,15.25,29.0,22.0,80,6,,6.21,30.0,,,,,,TRUE,,,,,FEW,1600,FEW,3000,,,,,VFR,,,,,,,,,,,,METAR,316.0
FBSK 060900Z 05007KT 020V100 CAVOK 25/11 Q1021 NOSIG,FBSK,2023-05-06T09:00:00Z,-24.55,25.92,25.0,11.0,50,7,,6.21,30.147638,,,,,,TRUE,,,,,CAVOK,,,,,,,,VFR,,,,,,,,,,,,METAR,1007.0
FBPM 060900Z 10009KT 050V140 CAVOK 30/06 Q1022,FBPM,2023-05-06T09:00:00Z,-21.17,27.48,30.0,6.0,100,9,,6.21,30.177166,,,,,,,,,,,CAVOK,,,,,,,,VFR,,,,,,,,,,,,METAR,1009.0
FBKE 060900Z 04008KT 010V090 CAVOK 28/10 Q1022,FBKE,2023-05-06T09:00:00Z,-17.82,25.17,28.0,10.0,40,8,,6.21,30.177166,,,,,,,,,,,CAVOK,,,,,,,,VFR,,,,,,,,,,,,METAR,999.0
FAWB 060900Z AUTO 03003KT //// // ////// 22/13 Q1024,FAWB,2023-05-06T09:00:00Z,-25.65,28.22,22.0,13.0,30,3,,,30.236221,,,TRUE,,,,,,,,,,,,,,,,,,,,,,,,,,,,METAR,1245.0
FAVV 060900Z AUTO 35009KT //// // ////// 23/11 Q1027,FAVV,2023-05-06T09:00:00Z,-26.57,27.97,23.0,11.0,350,9,,,30.324802,,,TRUE,,,,,,,,,,,,,,,,,,,,,,,,,,,,METAR,1480.0
FAUT 060900Z 35005KT CAVOK 26/11 Q1015,FAUT,2023-05-06T09:00:00Z,-31.53,28.67,26.0,11.0,350,5,,6.21,29.970472,,,,,,,,,,,CAVOK,,,,,,,,VFR,,,,,,,,,,,,METAR,735.0
FAUP 060900Z 33005KT CAVOK 26/10 Q1018 NOSIG,FAUP,2023-05-06T09:00:00Z,-28.38,21.27,26.0,10.0,330,5,,6.21,30.059055,,,,,,TRUE,,,,,CAVOK,,,,,,,,VFR,,,,,,,,,,,,METAR,845.0
FASI 060900Z AUTO 02005KT //// // ////// 22/11 Q1030,FASI,2023-05-06T09:00:00Z,-26.25,28.4,22.0,11.0,20,5,,,30.413385,,,TRUE,,,,,,,,,,,,,,,,,,,,,,,,,,,,SPECI,1627.0
FAPP 060900Z 04002KT CAVOK 25/12 Q1026 NOSIG,FAPP,2023-05-06T09:00:00Z,-23.83,29.45,25.0,12.0,40,2,,6.21,30.295275,,,,,,TRUE,,,,,CAVOK,,,,,,,,VFR,,,,,,,,,,,,METAR,1238.0
FAPN 060900Z AUTO 06002KT //// // ////// 22/14 Q1023,FAPN,2023-05-06T09:00:00Z,-25.33,27.17,22.0,14.0,60,2,,,30.206694,,,TRUE,,,,,,,,,,,,,,,,,,,,,,,,,,,,METAR,1045.0
FAOR 060900Z 33012KT CAVOK 20/10 Q1026 NOSIG,FAOR,2023-05-06T09:00:00Z,-26.13,28.23,20.0,10.0,330,12,,6.21,30.295275,,,,,,TRUE,,,,,CAVOK,,,,,,,,VFR,,,,,,,,,,,,METAR,1684.0
FAMM 060900Z 05005KT CAVOK 22/10 Q1024 NOSIG,FAMM,2023-05-06T09:00:00Z,-25.8,25.53,22.0,10.0,50,5,,6.21,30.236221,,,,,,TRUE,,,,,CAVOK,,,,,,,,VFR,,,,,,,,,,,,METAR,1280.0
FALW 060900Z AUTO 03005KT //// // ////// 17/13 Q1017,FALW,2023-05-06T09:00:00Z,-32.97,18.17,17.0,13.0,30,5,,,30.029528,,,TRUE,,,,,,,,,,,,,,,,,,,,,,,,,,,,METAR,31.0
FALE 060900Z 35005KT 310V030 CAVOK 27/19 Q1013 NOSIG,FALE,2023-05-06T09:00:00Z,-29.62,31.12,27.0,19.0,350,5,,6.21,29.911417,,,,,,TRUE,,,,,CAVOK,,,,,,,,VFR,,,,,,,,,,,,METAR,109.0
FALA 060900Z 35006KT 300V050 CAVOK 22/11 Q1026 NOSIG,FALA,2023-05-06T09:00:00Z,-25.93,27.92,22.0,11.0,350,6,,6.21,30.295275,,,,,,TRUE,,,,,CAVOK,,,,,,,,VFR,,,,,,,,,,,,METAR,1365.0
FAKN 060900Z 04003KT CAVOK 24/14 Q1023 NOSIG,FAKN,2023-05-06T09:00:00Z,-25.38,31.1,24.0,14.0,40,3,,6.21,30.206694,,,,,,TRUE,,,,,CAVOK,,,,,,,,VFR,,,,,,,,,,,,METAR,864.0
FAKM 060900Z 01010KT 9999 FEW060 FEW070CB SCT100 20/14 Q1021,FAKM,2023-05-06T09:00:00Z,-28.8,24.77,20.0,14.0,10,10,,6.21,30.147638,,,,,,,,,,,FEW,6000,FEW,7000,SCT,10000,,,VFR,,,,,,,,,,,,METAR,1203.0
FAJB 060900Z AUTO 33003KT //// // ////// 21/11 Q1026,FAJB,2023-05-06T09:00:00Z,-26.15,28.0,21.0,11.0,330,3,,,30.295275,,,TRUE,,,,,,,,,,,,,,,,,,,,,,,,,,,,METAR,1626.0
FAGG 060900Z 23008KT 190V290 9999 FEW030 18/14 Q1015,FAGG,2023-05-06T09:00:00Z,-34.0,22.37,18.0,14.0,230,8,,6.21,29.970472,,,,,,,,,,,FEW,3000,,,,,,,VFR,,,,,,,,,,,,METAR,196.0
FAEL 060900Z 24010KT 210V270 CAVOK 23/16 Q1012,FAEL,2023-05-06T09:00:00Z,-33.03,27.82,23.0,16.0,240,10,,6.21,29.88189,,,,,,,,,,,CAVOK,,,,,,,,VFR,,,,,,,,,,,,METAR,127.0
FACT 060900Z 34008KT 9999 FEW020 19/14 Q1017 NOSIG,FACT,2023-05-06T09:00:00Z,-33.97,18.6,19.0,14.0,340,8,,6.21,30.029528,,,,,,TRUE,,,,,FEW,2000,,,,,,,VFR,,,,,,,,,,,,SPECI,48.0
FABL 060900Z 05011KT 9000 -RA FEW015 OVC080 14/12 Q1023 NOSIG,FABL,2023-05-06T09:00:00Z,-29.1,26.3,14.0,12.0,50,11,,5.59,30.206694,,,,,,TRUE,,,,-RA,FEW,1500,OVC,8000,,,,,VFR,,,,,,,,,,,,METAR,1348.0
EPZG 060900Z 09009KT 050V120 5000 -RA BR OVC007 08/08 Q1018 RERA,EPZG,2023-05-06T09:00:00Z,52.13,15.77,8.0,8.0,90,9,,3.11,30.059055,,,,,,,,,,-RA BR,OVC,700,,,,,,,IFR,,,,,,,,,,,,METAR,59.0
EPWR 060900Z 07004KT 040V110 9000 RA FEW043 09/08 Q1017,EPWR,2023-05-06T09:00:00Z,51.1,16.88,9.0,8.0,70,4,,5.59,30.029528,,,,,,,,,,RA,FEW,4300,,,,,,,VFR,,,,,,,,,,,,METAR,118.0
EPWA 060900Z 10014KT 9999 -RA NSC 11/01 Q1022 NOSIG,EPWA,2023-05-06T09:00:00Z,52.17,20.97,11.0,1.0,100,14,,6.21,30.177166,,,,,,TRUE,,,,-RA,CLR,,,,,,,,VFR,,,,,,,,,,,,METAR,107.0
EPSY 060900Z 10007KT 040V160 CAVOK 10/00 Q1025,EPSY,2023-05-06T09:00:00Z,53.47,20.93,10.0,0.0,100,7,,6.21,30.265747,,,,,,,,,,,CAVOK,,,,,,,,VFR,,,,,,,,,,,,METAR,136.0
EPSC 060900Z 07009KT 050V110 9999 -RA FEW043 07/05 Q1021,EPSC,2023-05-06T09:00:00Z,53.58,14.9,7.0,5.0,70,9,,6.21,30.147638,,,,,,,,,,-RA,FEW,4300,,,,,,,VFR,,,,,,,,,,,,METAR,47.0
EPRZ 060900Z 09017KT CAVOK 15/07 Q1019,EPRZ,2023-05-06T09:00:00Z,50.1,22.02,15.0,7.0,90,17,,6.21,30.088583,,,,,,,,,,,CAVOK,,,,,,,,VFR,,,,,,,,,,,,METAR,206.0
EPRA 060900Z 10016KT CAVOK 12/04 Q1021,EPRA,2023-05-06T09:00:00Z,51.38,21.22,12.0,4.0,100,16,,6.21,30.147638,,,,,,,,,,,CAVOK,,,,,,,,VFR,,,,,,,,,,,,METAR,182.0
EPPO 060900Z 08011KT 9999 -RA OVC047 07/05 Q1019,EPPO,2023-05-06T09:00:00Z,52.42,16.83,7.0,5.0,80,11,,6.21,30.088583,,,,,,,,,,-RA,OVC,4700,,,,,,,VFR,,,,,,,,,,,,METAR,87.0
EPMO 060900Z 08015KT 9999 FEW048 11/01 Q1022,EPMO,2023-05-06T09:00:00Z,52.45,20.65,11.0,1.0,80,15,,6.21,30.177166,,,,,,,,,,,FEW,4800,,,,,,,VFR,,,,,,,,,,,,METAR,102.0
EPLL 060900Z 08016KT 9999 FEW040 10/03 Q1019,EPLL,2023-05-06T09:00:00Z,51.72,19.4,10.0,3.0,80,16,,6.21,30.088583,,,,,,,,,,,FEW,4000,,,,,,,VFR,,,,,,,,,,,,METAR,176.0
EPLB 060900Z 08016KT CAVOK 12/03 Q1023,EPLB,2023-05-06T09:00:00Z,51.23,22.72,12.0,3.0,80,16,,6.21,30.206694,,,,,,,,,,,CAVOK,,,,,,,,VFR,,,,,,,,,,,,METAR,206.0
EPKT 060900Z 10011KT CAVOK 14/06 Q1016,EPKT,2023-05-06T09:00:00Z,50.47,19.08,14.0,6.0,100,11,,6.21,30.0,,,,,,,,,,,CAVOK,,,,,,,,VFR,,,,,,,,,,,,METAR,296.0
EPKK 060900Z 06011KT CAVOK 13/08 Q1017,EPKK,2023-05-06T09:00:00Z,50.07,19.8,13.0,8.0,60,11,,6.21,30.029528,,,,,,,,,,,CAVOK,,,,,,,,VFR,,,,,,,,,,,,METAR,237.0
EPGD 060900Z 07010KT 040V100 CAVOK 07/M01 Q1025,EPGD,2023-05-06T09:00:00Z,54.37,18.47,7.0,-1.0,70,10,,6.21,30.265747,,,,,,,,,,,CAVOK,,,,,,,,VFR,,,,,,,,,,,,METAR,136.0
EPBY 060900Z 08014KT 9999 -RA SCT037 BKN049 06/03 Q1022,EPBY,2023-05-06T09:00:00Z,53.1,18.0,6.0,3.0,80,14,,6.21,30.177166,,,,,,,,,,-RA,SCT,3700,BKN,4900,,,,,VFR,,,,,,,,,,,,METAR,66.0
EIWF 060900Z 17006KT 9999 BKN005 12/12 Q1010,EIWF,2023-05-06T09:00:00Z,52.18,-7.08,12.0,12.0,170,6,,6.21,29.822834,,,,,,,,,,,BKN,500,,,,,,,IFR,,,,,,,,,,,,METAR,26.0
EISG 060900Z 18005KT 120V240 9999 FEW014 14/11 Q1009,EISG,2023-05-06T09:00:00Z,54.28,-8.6,14.0,11.0,180,5,,6.21,29.793306,,,,,,,,,,,FEW,1400,,,,,,,VFR,,,,,,,,,,,,METAR,1.0
EINN 060900Z 16008KT 9999 FEW013 BKN060 15/11 Q1009 NOSIG,EINN,2023-05-06T09:00:00Z,52.7,-8.92,15.0,11.0,160,8,,6.21,29.793306,,,,,,TRUE,,,,,FEW,1300,BKN,6000,,,,,VFR,,,,,,,,,,,,METAR,20.0
EIME 060900Z 18005KT 140V220 9999 FEW020 SCT031 BKN120 14/09 Q1010,EIME,2023-05-06T09:00:00Z,53.3,-6.45,14.0,9.0,180,5,,6.21,29.822834,,,,,,,,,,,FEW,2000,SCT,3100,BKN,12000,,,VFR,,,,,,,,,,,,METAR,90.0
EIKY 060900Z 17006KT 130V210 9999 SCT024 16/12 Q1009,EIKY,2023-05-06T09:00:00Z,52.18,-9.53,16.0,12.0,170,6,,6.21,29.793306,,,,,,,,,,,SCT,2400,,,,,,,VFR,,,,,,,,,,,,METAR,23.0
EIKN 060900Z 16006KT 120V200 9999 SCT004 BKN006 11/11 Q1009 BECMG SCT006 BKN020,EIKN,2023-05-06T09:00:00Z,53.92,-8.82,11.0,11.0,160,6,,6.21,29.793306,,,,,,,,,,,SCT,400,BKN,600,,,,,IFR,,,,,,,,,,,,METAR,201.0
EIDW 060900Z 14005KT 110V180 9999 FEW010 BKN032 13/10 Q1010 NOSIG,EIDW,2023-05-06T09:00:00Z,53.42,-6.28,13.0,10.0,140,5,,6.21,29.822834,,,,,,TRUE,,,,,FEW,1000,BKN,3200,,,,,VFR,,,,,,,,,,,,METAR,75.0
EIDL 060900Z 15010KT CAVOK 14/08 Q1009,EIDL,2023-05-06T09:00:00Z,55.05,-8.33,14.0,8.0,150,10,,6.21,29.793306,,,,,,,,,,,CAVOK,,,,,,,,VFR,,,,,,,,,,,,METAR,2.0
EICK 060900Z 16009KT 9999 FEW018CB BKN021 12/11 Q1009 NOSIG,EICK,2023-05-06T09:00:00Z,51.85,-8.47,12.0,11.0,160,9,,6.21,29.793306,,,,,,TRUE,,,,,FEW,1800,BKN,2100,,,,,MVFR,,,,,,,,,,,,METAR,158.0
DXXX 060900Z 21006KT 170V240 9999 FEW015 31/25 Q1013 NOSIG,DXXX,2023-05-06T09:00:00Z,6.17,1.25,31.0,25.0,210,6,,6.21,29.911417,,,,,,TRUE,,,,,FEW,1500,,,,,,,VFR,,,,,,,,,,,,METAR,22.0
DXSK 060900Z 22002KT CAVOK 29/24 Q////,DXSK,2023-05-06T09:00:00Z,9.0,1.15,29.0,24.0,220,2,,6.21,,,,,,,,,,,,CAVOK,,,,,,,,VFR,,,,,,,,,,,,METAR,381.0
DXNG 060900Z 20007KT 9999 FEW006 29/20 Q1017,DXNG,2023-05-06T09:00:00Z,9.77,1.1,29.0,20.0,200,7,,6.21,30.029528,,,,,,,,,,,FEW,600,,,,,,,VFR,,,,,,,,,,,,METAR,343.0
DTTZ 060900Z 11011KT CAVOK 26/08 Q1016,DTTZ,2023-05-06T09:00:00Z,33.93,8.1,26.0,8.0,110,11,,6.21,30.0,,,,,,,,,,,CAVOK,,,,,,,,VFR,,,,,,,,,,,,METAR,87.0
DTTX 060900Z 14006KT 100V170 9999 SCT033 23/15 Q1017,DTTX,2023-05-06T09:00:00Z,34.72,10.68,23.0,15.0,140,6,,6.21,30.029528,,,,,,,,,,,SCT,3300,,,,,,,VFR,,,,,,,,,,,,METAR,17.0
DTTR 060900Z 15015KT CAVOK 28/02 Q1018,DTTR,2023-05-06T09:00:00Z,31.7,9.27,28.0,2.0,150,15,,6.21,30.059055,,,,,,,,,,,CAVOK,,,,,,,,VFR,,,,,,,,,,,,METAR,253.0
DTTN 060900Z ///02KT 9999 FEW020 23/09 Q1016,DTTN,2023-05-06T09:00:00Z,36.47,8.8,23.0,9.0,,,,6.21,30.0,,,,,,,,,,,FEW,2000,,,,,,,VFR,,,,,,,,,,,,SPECI,145.0
DTTL 060900Z 16006KT 9999 FEW020 21/15 Q1018,DTTL,2023-05-06T09:00:00Z,36.85,11.07,21.0,15.0,160,6,,6.21,30.059055,,,,,,,,,,,FEW,2000,,,,,,,VFR,,,,,,,,,,,,METAR,18.0
DTTK 060900Z 20003KT 9999 FEW023 25/14 Q1017,DTTK,2023-05-06T09:00:00Z,35.67,10.08,25.0,14.0,200,3,,6.21,30.029528,,,,,,,,,,,FEW,2300,,,,,,,VFR,,,,,,,,,,,,METAR,65.0
DTTJ 060900Z 13007KT 090V160 CAVOK 25/12 Q1017 NOSIG,DTTJ,2023-05-06T09:00:00Z,33.87,10.77,25.0,12.0,130,7,,6.21,30.029528,,,,,,TRUE,,,,,CAVOK,,,,,,,,VFR,,,,,,,,,,,,METAR,3.0
DTTG 060900Z 32003KT 280V360 9999 FEW030 27/08 Q1017 NOSIG,DTTG,2023-05-06T09:00:00Z,33.73,9.92,27.0,8.0,320,3,,6.21,30.029528,,,,,,TRUE,,,,,FEW,3000,,,,,,,VFR,,,,,,,,,,,,METAR,120.0
DTTF 060900Z VRB02KT CAVOK 25/10 Q1018,DTTF,2023-05-06T09:00:00Z,34.42,8.82,25.0,10.0,0,2,,6.21,30.059055,,,,,,,,,,,CAVOK,,,,,,,,VFR,,,,,,,,,,,,METAR,314.0
DTTD 060900Z 12003KT CAVOK 27/06 Q1017,DTTD,2023-05-06T09:00:00Z,32.32,10.4,27.0,6.0,120,3,,6.21,30.029528,,,,,,,,,,,CAVOK,,,,,,,,VFR,,,,,,,,,,,,METAR,306.0
DTTB 060900Z 10011KT CAVOK 25/15 Q1016,DTTB,2023-05-06T09:00:00Z,37.25,9.8,25.0,15.0,100,11,,6.21,30.0,,,,,,,,,,,CAVOK,,,,,,,,VFR,,,,,,,,,,,,METAR,4.0
DTTA 060900Z 11008KT 060V150 9999 FEW026 25/14 Q1016,DTTA,2023-05-06T09:00:00Z,36.85,10.22,25.0,14.0,110,8,,6.21,30.0,,,,,,,,,,,FEW,2600,,,,,,,VFR,,,,,,,,,,,,METAR,4.0
DTNH 060900Z 10012KT CAVOK 22/17 Q1017,DTNH,2023-05-06T09:00:00Z,36.07,10.43,22.0,17.0,100,12,,6.21,30.029528,,,,,,,,,,,CAVOK,,,,,,,,VFR,,,,,,,,,,,,METAR,1.0
DTMB 060900Z 15007KT 120V190 9999 FEW023 24/16 Q1017 NOSIG,DTMB,2023-05-06T09:00:00Z,35.77,10.75,24.0,16.0,150,7,,6.21,30.029528,,,,,,TRUE,,,,,FEW,2300,,,,,,,VFR,,,,,,,,,,,,METAR,1.0
DTKA 060900Z 08007KT 040V120 9999 FEW020 27/13 Q1014 NOSIG,DTKA,2023-05-06T09:00:00Z,36.98,8.88,27.0,13.0,80,7,,6.21,29.940945,,,,,,TRUE,,,,,FEW,2000,,,,,,,VFR,,,,,,,,,,,,METAR,70.0
DRZR 060900Z 27010KT 220V290 CAVOK 36/16 Q1014,DRZR,2023-05-06T09:00:00Z,13.77,8.98,36.0,16.0,270,10,,6.21,29.940945,,,,,,,,,,,CAVOK,,,,,,,,VFR,,,,,,,,,,,,METAR,457.0
DRZF 060900Z 12007KT 040V170 8000 NSC 40/03 Q1011,DRZF,2023-05-06T09:00:00Z,13.42,12.77,40.0,3.0,120,7,,4.97,29.852362,,,,,,,,,,,CLR,,,,,,,,MVFR,,,,,,,,,,,,METAR,305.0
DRZA 060900Z 08024KT 4500 BLDU NSC 37/05 Q1013,DRZA,2023-05-06T09:00:00Z,16.97,8.0,37.0,5.0,80,24,,2.8,29.911417,,,,,,,,,,BLDU,CLR,,,,,,,,IFR,,,,,,,,,,,,METAR,506.0
DRRT 060900Z 24002KT CAVOK 33/18 Q1013,DRRT,2023-05-06T09:00:00Z,14.87,5.27,33.0,18.0,240,2,,6.21,29.911417,,,,,,,,,,,CAVOK,,,,,,,,VFR,,,,,,,,,,,,METAR,387.0
DRRN 060900Z 24009KT 9999 TS FEW030 FEW050CB 29/17 Q1011 TEMPO 4000 TSRA,DRRN,2023-05-06T09:00:00Z,13.47,2.17,29.0,17.0,240,9,,6.21,29.852362,,,,,,,,,,TS,FEW,3000,FEW,5000,,,,,VFR,,,,,,,,,,,,SPECI,223.0
DRRM 060900Z 26012KT 210V300 CAVOK 33/19 Q1014,DRRM,2023-05-06T09:00:00Z,13.5,7.12,33.0,19.0,260,12,,6.21,29.940945,,,,,,,,,,,CAVOK,,,,,,,,VFR,,,,,,,,,,,,METAR,374.0
DNYO 060900Z 30006KT 9999 BKN011 29/23 Q1013,DNYO,2023-05-06T09:00:00Z,9.27,12.42,29.0,23.0,300,6,,6.21,29.911417,,,,,,,,,,,BKN,1100,,,,,,,MVFR,,,,,,,,,,,,METAR,178.0
DNMN 060900Z 16011KT 9999 BKN012 30/23 Q1015,DNMN,2023-05-06T09:00:00Z,9.65,6.47,30.0,23.0,160,11,,6.21,29.970472,,,,,,,,,,,BKN,1200,,,,,,,MVFR,,,,,,,,,,,,METAR,268.0
DNMM 060900Z 20004KT 9999 SCT014 31/26 Q1015 NOSIG,DNMM,2023-05-06T09:00:00Z,6.57,3.32,31.0,26.0,200,4,,6.21,29.970472,,,,,,TRUE,,,,,SCT,1400,,,,,,,VFR,,,,,,,,,,,,METAR,27.0
DNKN 060900Z 26012KT CAVOK 34/18 Q1016 NOSIG,DNKN,2023-05-06T09:00:00Z,12.05,8.52,34.0,18.0,260,12,,6.21,30.0,,,,,,TRUE,,,,,CAVOK,,,,,,,,VFR,,,,,,,,,,,,METAR,471.0
DNJO 060900Z 27012KT 9999 BKN008 23/20 Q1021,DNJO,2023-05-06T09:00:00Z,9.87,8.9,23.0,20.0,270,12,,6.21,30.147638,,,,,,,,,,,BKN,800,,,,,,,IFR,,,,,,,,,,,,METAR,1284.0
DNIB 060900Z 15005KT 9999 SCT011 29/25 Q1015,DNIB,2023-05-06T09:00:00Z,7.37,3.98,29.0,25.0,150,5,,6.21,29.970472,,,,,,,,,,,SCT,1100,,,,,,,VFR,,,,,,,,,,,,METAR,220.0
DNAA 060900Z 20004KT 9999 FEW009 25/22 Q1016 NOSIG,DNAA,2023-05-06T09:00:00Z,9.0,7.27,25.0,22.0,200,4,,6.21,30.0,,,,,,TRUE,,,,,FEW,900,,,,,,,VFR,,,,,,,,,,,,METAR,338.0
DIYO 060900Z 24006KT 9999 SCT013 29/23 Q1013 NOSIG,DIYO,2023-05-06T09:00:00Z,6.9,-5.35,29.0,23.0,240,6,,6.21,29.911417,,,,,,TRUE,,,,,SCT,1300,,,,,,,VFR,,,,,,,,,,,,METAR,202.0
DIBK 060900Z 24006KT 9999 SCT013 27/23 Q1014 NOSIG,DIBK,2023-05-06T09:00:00Z,7.73,-5.07,27.0,23.0,240,6,,6.21,29.940945,,,,,,TRUE,,,,,SCT,1300,,,,,,,VFR,,,,,,,,,,,,METAR,363.0
DGAA 060900Z 27006KT 230V310 9999 SCT017 FEW029TCU 30/25 Q1013 NOSIG,DGAA,2023-05-06T09:00:00Z,5.58,-0.17,30.0,25.0,270,6,,6.21,29.911417,,,,,,TRUE,,,,,SCT,1700,FEW,2900,,,,,VFR,,,,,,,,,,,,METAR,68.0
DFOO 060900Z 23006KT 200V260 CAVOK 30/20 Q1014,DFOO,2023-05-06T09:00:00Z,11.17,-4.32,30.0,20.0,230,6,,6.21,29.940945,,,,,,,,,,,CAVOK,,,,,,,,VFR,,,,,,,,,,,,METAR,461.0
DFFD 060900Z 22008KT 170V260 CAVOK 33/20 Q1013 NOSIG,DFFD,2023-05-06T09:00:00Z,12.35,-1.52,33.0,20.0,220,8,,6.21,29.911417,,,,,,TRUE,,,,,CAVOK,,,,,,,,VFR,,,,,,,,,,,,METAR,309.0
DBBB 060900Z 21005KT 170V250 9999 FEW011 SCT013 31/25 Q1013 NOSIG,DBBB,2023-05-06T09:00:00Z,6.35,2.38,31.0,25.0,210,5,,6.21,29.911417,,,,,,TRUE,,,,,FEW,1100,SCT,1300,,,,,VFR,,,,,,,,,,,,METAR,4.0
DAUZ 060900Z 14009KT CAVOK 28/M04 Q1019,DAUZ,2023-05-06T09:00:00Z,28.05,9.63,28.0,-4.0,140,9,,6.21,30.088583,,,,,,,,,,,CAVOK,,,,,,,,VFR,,,,,,,,,,,,METAR,567.0
DAUU 060900Z 17010KT CAVOK 34/// Q1013,DAUU,2023-05-06T09:00:00Z,31.92,5.4,,,170,10,,6.21,29.911417,,,,,,,,,,,CAVOK,,,,,,,,VFR,,,,,,,,,,,,METAR,147.0
DAUT 060900Z 25004KT CAVOK 34/// Q1012,DAUT,2023-05-06T09:00:00Z,29.25,0.27,,,250,4,,6.21,29.88189,,,,,,,,,,,CAVOK,,,,,,,,VFR,,,,,,,,,,,,METAR,307.0
DAUO 060900Z 13005KT 100V180 CAVOK 28/06 Q1015,DAUO,2023-05-06T09:00:00Z,33.5,6.78,28.0,6.0,130,5,,6.21,29.970472,,,,,,,,,,,CAVOK,,,,,,,,VFR,,,,,,,,,,,,METAR,55.0
DAUK 060900Z 16005KT CAVOK 30/01 Q1015,DAUK,2023-05-06T09:00:00Z,33.08,6.08,30.0,1.0,160,5,,6.21,29.970472,,,,,,,,,,,CAVOK,,,,,,,,VFR,,,,,,,,,,,,METAR,83.0
DAUI 060900Z 10011KT CAVOK 35/// Q1012,DAUI,2023-05-06T09:00:00Z,27.25,2.52,,,100,11,,6.21,29.88189,,,,,,,,,,,CAVOK,,,,,,,,VFR,,,,,,,,,,,,METAR,271.0
DAUH 060900Z 16007KT CAVOK 34/// Q1014,DAUH,2023-05-06T09:00:00Z,31.67,6.15,,,160,7,,6.21,29.940945,,,,,,,,,,,CAVOK,,,,,,,,VFR,,,,,,,,,,,,SPECI,141.0
DAUG 060900Z 16009KT 140V200 9999 FEW040 SCT100 31/// Q1016,DAUG,2023-05-06T09:00:00Z,32.38,3.78,,,160,9,,6.21,30.0,,,,,,,,,,,FEW,4000,SCT,10000,,,,,VFR,,,,,,,,,,,,METAR,444.0
DAUE 060900Z 15010KT 8000 NSC 31/M03 Q1014,DAUE,2023-05-06T09:00:00Z,30.57,2.87,31.0,-3.0,150,10,,4.97,29.940945,,,,,,,,,,,CLR,,,,,,,,MVFR,,,,,,,,,,,,METAR,396.0
DAUB 060900Z 10011KT 9999 FEW040 SCT100 28/08 Q1016,DAUB,2023-05-06T09:00:00Z,34.78,5.73,28.0,8.0,100,11,,6.21,30.0,,,,,,,,,,,FEW,4000,SCT,10000,,,,,VFR,,,,,,,,,,,,METAR,75.0
DATM 060900Z 13014KT 6000 DRSA NSC 36/02 Q1011,DATM,2023-05-06T09:00:00Z,21.38,0.92,36.0,2.0,130,14,,3.73,29.852362,,,,,,,,,,DRSA,CLR,,,,,,,,MVFR,,,,,,,,,,,,METAR,398.0
DAOY 060900Z 17021KT 8000 NSC 24/M03 Q1016,DAOY,2023-05-06T09:00:00Z,33.72,1.08,24.0,-3.0,170,21,,4.97,30.0,,,,,,,,,,,CLR,,,,,,,,MVFR,,,,,,,,,,,,METAR,1340.0
DAOV 060900Z 25006KT 9999 SCT030 BKN233 19/08 Q1015,DAOV,2023-05-06T09:00:00Z,35.2,0.15,19.0,8.0,250,6,,6.21,29.970472,,,,,,,,,,,SCT,3000,BKN,23300,,,,,VFR,,,,,,,,,,,,METAR,506.0
DAOR 060900Z VRB02KT 6000 FEW033 BKN233 30/M05 Q1014,DAOR,2023-05-06T09:00:00Z,31.65,-2.27,30.0,-5.0,0,2,,3.73,29.940945,,,,,,,,,,,FEW,3300,BKN,23300,,,,,MVFR,,,,,,,,,,,,METAR,809.0
DAOO 060900Z 29007KT 230V340 9999 FEW020 BKN030 22/14 Q1014,DAOO,2023-05-06T09:00:00Z,35.62,-0.62,22.0,14.0,290,7,,6.21,29.940945,,,,,,,,,,,FEW,2000,BKN,3000,,,,,MVFR,,,,,,,,,,,,METAR,87.0
DAON 060900Z 35003KT 9999 FEW026 SCT233 21/08 Q1016,DAON,2023-05-06T09:00:00Z,35.02,-1.47,21.0,8.0,350,3,,6.21,30.0,,,,,,,,,,,FEW,2600,SCT,23300,,,,,VFR,,,,,,,,,,,,METAR,245.0
DAOL 060900Z 26012KT 9999 FEW026 SCT100 22/13 Q1015,DAOL,2023-05-06T09:00:00Z,35.53,-0.52,22.0,13.0,260,12,,6.21,29.970472,,,,,,,,,,,FEW,2600,SCT,10000,,,,,VFR,,,,,,,,,,,,METAR,103.0
DAOI 060900Z 25009KT 6000 FEW023 BKN233 22/14 Q1014,DAOI,2023-05-06T09:00:00Z,36.22,1.32,22.0,14.0,250,9,,3.73,29.940945,,,,,,,,,,,FEW,2300,BKN,23300,,,,,MVFR,,,,,,,,,,,,METAR,141.0
DAOF 060900Z 29018KT CAVOK 22/11 Q1011,DAOF,2023-05-06T09:00:00Z,27.7,-8.17,22.0,11.0,290,18,,6.21,29.852362,,,,,,,,,,,CAVOK,,,,,,,,VFR,,,,,,,,,,,,METAR,441.0
DAOB 060900Z 21004KT 140V270 6000 NSC 26/M04 Q1016,DAOB,2023-05-06T09:00:00Z,35.33,1.47,26.0,-4.0,210,4,,3.73,30.0,,,,,,,,,,,CLR,,,,,,,,MVFR,,,,,,,,,,,,METAR,976.0
DAFH 060900Z 15014KT 9999 FEW040 BKN200 30/M04 Q1017,DAFH,2023-05-06T09:00:00Z,32.93,3.32,30.0,-4.0,150,14,,6.21,30.029528,,,,,,,,,,,FEW,4000,BKN,20000,,,,,VFR,,,,,,,,,,,,METAR,774.0
DABT 060900Z 16008KT CAVOK 26/M01 Q1018,DABT,2023-05-06T09:00:00Z,35.75,6.32,26.0,-1.0,160,8,,6.21,30.059055,,,,,,,,,,,CAVOK,,,,,,,,VFR,,,,,,,,,,,,METAR,813.0
DABS 060900Z 32004KT CAVOK 27/M02 Q1018,DABS,2023-05-06T09:00:00Z,35.43,8.12,27.0,-2.0,320,4,,6.21,30.059055,,,,,,,,,,,CAVOK,,,,,,,,VFR,,,,,,,,,,,,METAR,806.0
DABC 060900Z 01003KT CAVOK 25/06 Q1017,DABC,2023-05-06T09:00:00Z,36.27,6.62,25.0,6.0,10,3,,6.21,30.029528,,,,,,,,,,,CAVOK,,,,,,,,VFR,,,,,,,,,,,,METAR,686.0
DABB 060900Z 03007KT CAVOK 21/17 Q1014,DABB,2023-05-06T09:00:00Z,36.82,7.82,21.0,17.0,30,7,,6.21,29.940945,,,,,,,,,,,CAVOK,,,,,,,,VFR,,,,,,,,,,,,METAR,3.0
DAAY 060900Z 23010KT 6000 NSC 25/M00 Q1018,DAAY,2023-05-06T09:00:00Z,33.53,-0.25,25.0,0.0,230,10,,3.73,30.059055,,,,,,,,,,,CLR,,,,,,,,MVFR,,,,,,,,,,,,METAR,1116.0
DAAV 060900Z 33003KT CAVOK 23/15 Q1013,DAAV,2023-05-06T09:00:00Z,36.8,5.88,23.0,15.0,330,3,,6.21,29.911417,,,,,,,,,,,CAVOK,,,,,,,,VFR,,,,,,,,,,,,METAR,11.0
DAAT 060900Z 08016KT CAVOK 30/// Q1022,DAAT,2023-05-06T09:00:00Z,22.82,5.47,,,80,16,,6.21,30.177166,,,,,,,,,,,CAVOK,,,,,,,,VFR,,,,,,,,,,,,SPECI,1376.0
DAAS 060900Z VRB02KT 8000 FEW026TCU SCT030 24/01 Q1019,DAAS,2023-05-06T09:00:00Z,36.18,5.33,24.0,1.0,0,2,,4.97,30.088583,,,,,,,,,,,FEW,2600,SCT,3000,,,,,MVFR,,,,,,,,,,,,METAR,1012.0
DAAP 060900Z 14009KT CAVOK 32/// Q1018,DAAP,2023-05-06T09:00:00Z,26.72,8.62,,,140,9,,6.21,30.059055,,,,,,,,,,,CAVOK,,,,,,,,VFR,,,,,,,,,,,,METAR,542.0
DAAJ 060900Z 24006KT CAVOK 28/M08 Q1022,DAAJ,2023-05-06T09:00:00Z,24.28,9.47,28.0,-8.0,240,6,,6.21,30.177166,,,,,,,,,,,CAVOK,,,,,,,,VFR,,,,,,,,,,,,METAR,962.0
DAAG 060900Z 31007KT 290V350 9999 FEW026 BKN200 24/17 Q1013,DAAG,2023-05-06T09:00:00Z,36.68,3.22,24.0,17.0,310,7,,6.21,29.911417,,,,,,,,,,,FEW,2600,BKN,20000,,,,,VFR,,,,,,,,,,,,METAR,18.0
DAAE 060900Z 08004KT 8000 NSC 23/17 Q1012,DAAE,2023-05-06T09:00:00Z,36.72,5.07,23.0,17.0,80,4,,4.97,29.88189,,,,,,,,,,,CLR,,,,,,,,MVFR,,,,,,,,,,,,METAR,1.0
DAAD 060900Z 09004KT 9999 SCT026 28/04 Q1017,DAAD,2023-05-06T09:00:00Z,35.32,4.2,28.0,4.0,90,4,,6.21,30.029528,,,,,,,,,,,SCT,2600,,,,,,,VFR,,,,,,,,,,,,METAR,461.0
CZZJ 060900Z AUTO 08009G16KT 11/M02 RMK AO1 SLP121 T01111019 52002,CZZJ,2023-05-06T09:00:00Z,53.58,-116.47,11.1,-1.9,80,9,16,,,1012.1,,TRUE,TRUE,,,,,,,,,,,,,,,,0.2,,,,,,,,,,,METAR,927.0
CZVL 060900Z AUTO 12009G17KT 9SM CLR 10/01 A2998 RMK SLP157,CZVL,2023-05-06T09:00:00Z,53.67,-113.85,10.0,1.0,120,9,17,9.0,29.97933,1015.7,,TRUE,,,,,,,,CLR,,,,,,,,VFR,,,,,,,,,,,,METAR,685.0
CZUM 060900Z AUTO 31007KT 9SM CLR M01/M04 A3000 RMK SLP179,CZUM,2023-05-06T09:00:00Z,53.55,-64.1,-1.0,-4.0,310,7,,9.0,30.0,1017.9,,TRUE,,,,,,,,CLR,,,,,,,,VFR,,,,,,,,,,,,METAR,431.0
CZTB 060900Z AUTO 09009KT 06/06 RMK AO1 SOG 01 5003 SLP233 T00600055,CZTB,2023-05-06T09:00:00Z,48.37,-89.32,6.0,5.5,90,9,,,,1023.3,,TRUE,TRUE,,,,,,,,,,,,,,,,,,,,,,,,,,,METAR,197.0
CZSP 060900Z AUTO 22007KT 03/M01 RMK AO1 SLP121 T00271008 56018,CZSP,2023-05-06T09:00:00Z,46.45,-62.58,2.7,-0.8,220,7,,,,1012.1,,TRUE,TRUE,,,,,,,,,,,,,,,,-1.8,,,,,,,,,,,METAR,31.0
CZSM 060900Z AUTO 15004KT 14/01 RMK AO1 SLP204 T01430011 53017,CZSM,2023-05-06T09:00:00Z,60.03,-111.93,14.3,1.1,150,4,,,,1020.4,,TRUE,TRUE,,,,,,,,,,,,,,,,1.7,,,,,,,,,,,METAR,203.0
CZSJ 060900Z AUTO 08006KT 9SM SCT076 05/00 A3031 RMK SLP276,CZSJ,2023-05-06T09:00:00Z,53.07,-93.35,5.0,0.0,80,6,,9.0,30.31004,1027.6,,TRUE,,,,,,,,SCT,7600,,,,,,,VFR,,,,,,,,,,,,METAR,286.0
CZOL 060900Z AUTO 13004KT 09/M00 RMK AO1 T00881003,CZOL,2023-05-06T09:00:00Z,53.65,-113.35,8.8,-0.3,130,4,,,,,,TRUE,TRUE,,,,,,,,,,,,,,,,,,,,,,,,,,,METAR,645.0
CZMJ 060900Z AUTO 12006KT 04/01 RMK AO1 SLP185 T00380005 50000,CZMJ,2023-05-06T09:00:00Z,50.33,-105.53,3.8,0.5,120,6,,,,1018.5,,TRUE,TRUE,,,,,,,,,,,,,,,,0.0,,,,,,,,,,,METAR,571.0
CZMD 060900Z AUTO 07004KT 9SM FEW086 02/M00 A3035 RMK SLP291,CZMD,2023-05-06T09:00:00Z,53.43,-91.77,2.0,0.0,70,4,,9.0,30.351377,1029.1,,TRUE,,,,,,,,FEW,8600,,,,,,,VFR,,,,,,,,,,,,METAR,276.0
CZKD 060900Z AUTO 06004KT 01/00 RMK AO1 SLP297 T00130000 54000,CZKD,2023-05-06T09:00:00Z,56.03,-96.52,1.3,0.0,60,4,,,,1029.7,,TRUE,TRUE,,,,,,,,,,,,,,,,,,,,,,,,,,,METAR,190.0
CZHY 060900Z AUTO 06001KT 02/01 RMK AO1 SLP149 T00230009 53006,CZHY,2023-05-06T09:00:00Z,60.83,-115.78,2.3,0.9,60,1,,,,1014.9,,TRUE,TRUE,,,,,,,,,,,,,,,,0.6,,,,,,,,,,,METAR,159.0
CZFS 060900Z AUTO 30002KT 05/03 RMK AO1 SLP135 T00480028 56007,CZFS,2023-05-06T09:00:00Z,61.77,-121.23,4.8,2.8,300,2,,,,1013.5,,TRUE,TRUE,,,,,,,,,,,,,,,,-0.7,,,,,,,,,,,METAR,174.0
CZEV 060900Z AUTO 07009KT 03/M01 RMK AO1 SOG 42 7017 SLP182 T00341012,CZEV,2023-05-06T09:00:00Z,68.32,-133.48,3.4,-1.2,70,9,,,,1018.2,,TRUE,TRUE,,,,,,,,,,,,,,,,,,,,,,,,,,,METAR,92.0
CZEL 060900Z AUTO 34004KT 02/02 RMK AO1 SLP276 T00230015 53007,CZEL,2023-05-06T09:00:00Z,43.65,-80.42,2.3,1.5,340,4,,,,1027.6,,TRUE,TRUE,,,,,,,,,,,,,,,,0.7,,,,,,,,,,,METAR,370.0
CZDB 060900Z AUTO 02001KT M03/M04 RMK AO1 SLP148 T10301035 58010,CZDB,2023-05-06T09:00:00Z,45.42,-63.47,-3.0,-3.5,20,1,,,,1014.8,,TRUE,TRUE,,,,,,,,,,,,,,,,-1.0,,,,,,,,,,,METAR,38.0
CZCR 060900Z AUTO 22004KT 06/01 RMK AO1 SLP145 T00610011 56006,CZCR,2023-05-06T09:00:00Z,47.98,-66.33,6.1,1.1,220,4,,,,1014.5,,TRUE,TRUE,,,,,,,,,,,,,,,,-0.6,,,,,,,,,,,METAR,39.0
CZCP 060900Z AUTO 05010KT ////SM ////// M02/M03 A3020,CZCP,2023-05-06T09:00:00Z,70.17,-124.68,-2.0,-3.0,50,10,,,30.200787,,,TRUE,,,,,,,,,,,,,,,,,,,,,,,,,,,,METAR,23.0
CZBF 060900Z AUTO 32006KT 300V360 9SM OVC096 10/01 A2994 RMK SLP143,CZBF,2023-05-06T09:00:00Z,47.62,-65.75,10.0,1.0,320,6,,9.0,29.940945,1014.3,,TRUE,,,,,,,,OVC,9600,,,,,,,VFR,,,,,,,,,,,,METAR,60.0
CYZY 060900Z AUTO 15004KT 9SM CLR 10/07 A2975 RMK SLP079 DENSITY ALT 2500FT,CYZY,2023-05-06T09:00:00Z,55.3,-123.13,10.0,7.0,150,4,,9.0,29.749016,1007.9,,TRUE,,,,,,,,CLR,,,,,,,,VFR,,,,,,,,,,,,METAR,694.0
CYZX 060900Z 00000KT 15SM FEW250 M01/M02 A3000 RMK CI2 DENSITY ALT -1869FT SLP161,CYZX,2023-05-06T09:00:00Z,44.98,-64.92,-1.0,-2.0,0,0,,15.0,30.0,1016.1,,,,,,,,,,FEW,25000,,,,,,,VFR,,,,,,,,,,,,METAR,28.0
CYZV 060900Z 33005KT 30SM BKN220 BKN250 06/M01 A3004 RMK CI7CI1 CI TR SLP176,CYZV,2023-05-06T09:00:00Z,50.22,-66.27,6.0,-1.0,330,5,,30.0,30.041338,1017.6,,,,,,,,,,BKN,22000,BKN,25000,,,,,VFR,,,,,,,,,,,,METAR,43.0
CYZT 060900Z 25003KT 15SM OVC027 08/07 A2997 RMK SC8 SLP152,CYZT,2023-05-06T09:00:00Z,50.68,-127.37,8.0,7.0,250,3,,15.0,29.970472,1015.2,,,,,,,,,,OVC,2700,,,,,,,MVFR,,,,,,,,,,,,METAR,13.0
CYZS 060900Z 35022G28KT 15SM FEW030 FEW080 M05/M06 A3027 RMK SC1AC1 SC TR SLP257,CYZS,2023-05-06T09:00:00Z,64.2,-83.35,-5.0,-6.0,350,22,28,15.0,30.268702,1025.7,,,,,,,,,,FEW,3000,FEW,8000,,,,,VFR,,,,,,,,,,,,METAR,60.0
CYZR 060900Z AUTO 13007KT 9SM CLR 07/05 A3027 RMK SLP256,CYZR,2023-05-06T09:00:00Z,43.0,-82.3,7.0,5.0,130,7,,9.0,30.268702,1025.6,,TRUE,,,,,,,,CLR,,,,,,,,VFR,,,,,,,,,,,,METAR,181.0
CYZP 060900Z AUTO 26008KT 9SM OVC011 07/05 A2995 RMK SLP144,CYZP,2023-05-06T09:00:00Z,53.25,-131.82,7.0,5.0,260,8,,9.0,29.949802,1014.4,,TRUE,,,,,,,,OVC,1100,,,,,,,MVFR,,,,,,,,,,,,METAR,7.0
CYZH 060900Z AUTO 10009KT 9SM CLR 12/M00 A2998 RMK SLP158,CYZH,2023-05-06T09:00:00Z,55.28,-114.77,12.0,0.0,100,9,,9.0,29.97933,1015.8,,TRUE,,,,,,,,CLR,,,,,,,,VFR,,,,,,,,,,,,METAR,583.0
CYZF 060900Z 09009KT 15SM FEW240 09/03 A3001 RMK CI2 SLP175,CYZF,2023-05-06T09:00:00Z,62.47,-114.45,9.0,3.0,90,9,,15.0,30.008858,1017.5,,,,,,,,,,FEW,24000,,,,,,,VFR,,,,,,,,,,,,METAR,202.0
CYYZ 060900Z 03004KT 15SM FEW260 06/04 A3031 RMK CI1 CI TR SLP270,CYYZ,2023-05-06T09:00:00Z,43.67,-79.62,6.0,4.0,30,4,,15.0,30.31004,1027.0,,,,,,,,,,FEW,26000,,,,,,,VFR,,,,,,,,,,,,METAR,171.0
CYYY 060900Z 23006KT 15SM BKN085 09/02 A3003 RMK AC5 SLP173,CYYY,2023-05-06T09:00:00Z,48.6,-68.22,9.0,2.0,230,6,,15.0,30.029528,1017.3,,,,,,,,,,BKN,8500,,,,,,,VFR,,,,,,,,,,,,METAR,43.0
CYYW 060900Z AUTO 35003KT 280V010 9SM OVC091 M01/M01 A3025 RMK SLP254,CYYW,2023-05-06T09:00:00Z,50.3,-88.9,-1.0,-1.0,350,3,,9.0,30.250984,1025.4,,TRUE,,,,,,,,OVC,9100,,,,,,,VFR,,,,,,,,,,,,METAR,320.0
CYYU 060900Z 00000KT 15SM FEW080 00/M01 A3033 RMK AC1 AC TR SLP281,CYYU,2023-05-06T09:00:00Z,49.42,-82.47,0.0,-1.0,0,0,,15.0,30.33071,1028.1,,,,,,,,,,FEW,8000,,,,,,,VFR,,,,,,,,,,,,METAR,228.0
CYYT 060900Z 35013G19KT 3SM -FZDZ BR OVC005 M01/M01 A2965 RMK ST8 SLP048,CYYT,2023-05-06T09:00:00Z,47.62,-52.73,-1.0,-1.0,350,13,19,3.0,29.648623,1004.8,,,,,,,,,-FZDZ BR,OVC,500,,,,,,,IFR,,,,,,,,,,,,METAR,128.0
CYYR 060900Z 29006KT 15SM FEW035 FEW260 M03/M05 A3000 RMK SC1CI1 DENSITY ALT -2048FT SLP163,CYYR,2023-05-06T09:00:00Z,53.32,-60.42,-3.0,-5.0,290,6,,15.0,30.0,1016.3,,,,,,,,,,FEW,3500,FEW,26000,,,,,VFR,,,,,,,,,,,,METAR,42.0
CYYQ 060900Z 21006KT 15SM FEW250 M01/M02 A3043 RMK CI1 SLP310,CYYQ,2023-05-06T09:00:00Z,58.75,-94.07,-1.0,-2.0,210,6,,15.0,30.431103,1031.0,,,,,,,,,,FEW,25000,,,,,,,VFR,,,,,,,,,,,,METAR,20.0
CYYN 060900Z AUTO 11015G20KT 9SM CLR 07/02 A2993 RMK ICE MISG SLP143,CYYN,2023-05-06T09:00:00Z,50.28,-107.68,7.0,2.0,110,15,20,9.0,29.929134,1014.3,,TRUE,,,,,,,,CLR,,,,,,,,VFR,,,,,,,,,,,,METAR,814.0
CYYL 060900Z AUTO 09003KT 9SM CLR 03/M00 A3034 RMK SLP290,CYYL,2023-05-06T09:00:00Z,56.87,-101.07,3.0,0.0,90,3,,9.0,30.339567,1029.0,,TRUE,,,,,,,,CLR,,,,,,,,VFR,,,,,,,,,,,,METAR,351.0
CYYJ 060900Z VRB02KT 20SM BKN059 OVC074 09/09 A2994 RMK SC6AC2 SLP139,CYYJ,2023-05-06T09:00:00Z,48.63,-123.42,9.0,9.0,0,2,,20.0,29.940945,1013.9,,,,,,,,,,BKN,5900,OVC,7400,,,,,VFR,,,,,,,,,,,,METAR,16.0
CYYH 060900Z 35007KT 15SM FEW008 FEW170 SCT200 M08/M08 A3043 RMK ST1AS1CI1 SLP309,CYYH,2023-05-06T09:00:00Z,69.53,-93.57,-8.0,-8.0,350,7,,15.0,30.431103,1030.9,,,,,,,,,,FEW,800,FEW,17000,SCT,20000,,,VFR,,,,,,,,,,,,METAR,19.0
CYYG 060900Z 23008KT 15SM BKN093 04/M02 A2988 RMK AC6 SLP122,CYYG,2023-05-06T09:00:00Z,46.28,-63.12,4.0,-2.0,230,8,,15.0,29.878937,1012.2,,,,,,,,,,BKN,9300,,,,,,,VFR,,,,,,,,,,,,METAR,48.0
CYYF 060900Z 18006KT 15SM -RA OVC044 12/11 A2980 RMK SC8 SLP094,CYYF,2023-05-06T09:00:00Z,49.47,-119.6,12.0,11.0,180,6,,15.0,29.799213,1009.4,,,,,,,,,-RA,OVC,4400,,,,,,,VFR,,,,,,,,,,,,METAR,342.0
CYYE 060900Z 31002KT 15SM BKN053 08/05 A2979 RMK FU7 SLP100,CYYE,2023-05-06T09:00:00Z,58.83,-122.58,8.0,5.0,310,2,,15.0,29.790354,1010.0,,,,,,,,,,BKN,5300,,,,,,,VFR,,,,,,,,,,,,METAR,379.0
CYYD 060900Z AUTO VRB02KT 9SM FEW009 BKN021 OVC045 09/07 A2978 RMK SLP089,CYYD,2023-05-06T09:00:00Z,54.82,-127.18,9.0,7.0,0,2,,9.0,29.778543,1008.9,,TRUE,,,,,,,,FEW,900,BKN,2100,OVC,4500,,,MVFR,,,,,,,,,,,,METAR,527.0
CYYC 060900Z 01006KT 15SM BKN069 07/M03 A2990 RMK AC6 SLP129,CYYC,2023-05-06T09:00:00Z,51.12,-114.02,7.0,-3.0,10,6,,15.0,29.899607,1012.9,,,,,,,,,,BKN,6900,,,,,,,VFR,,,,,,,,,,,,METAR,1085.0
CYYB 060900Z AUTO 03007KT 9SM CLR 09/03 A3032 RMK SLP275,CYYB,2023-05-06T09:00:00Z,46.35,-79.42,9.0,3.0,30,7,,9.0,30.318897,1027.5,,TRUE,,,,,,,,CLR,,,,,,,,VFR,,,,,,,,,,,,METAR,360.0
CYXY 060900Z 19010KT 15SM OVC100 04/00 A2977 RMK AS8 SLP111,CYXY,2023-05-06T09:00:00Z,60.72,-135.07,4.0,0.0,190,10,,15.0,29.769686,1011.1,,,,,,,,,,OVC,10000,,,,,,,VFR,,,,,,,,,,,,METAR,677.0
CYXX 060900Z 20005KT 8SM -RA FEW010 BKN027 OVC033 10/09 A2994 RMK SF1SC6SC2 SF TR -RA VRY LGT SLP142,CYXX,2023-05-06T09:00:00Z,49.03,-122.38,10.0,9.0,200,5,,8.0,29.940945,1014.2,,,,,,,,,-RA,FEW,1000,BKN,2700,OVC,3300,,,MVFR,,,,,,,,,,,,METAR,54.0
CYXU 060900Z 07005KT 15SM SKC 06/03 A3029 RMK SLP264,CYXU,2023-05-06T09:00:00Z,43.03,-81.15,6.0,3.0,70,5,,15.0,30.28937,1026.4,,,,,,,,,,SKC,,,,,,,,VFR,,,,,,,,,,,,METAR,278.0
CYXT 060900Z 18008KT 5SM -RA BR FEW005 BKN025 OVC050 07/07 A2989 RMK SF1SC5SC2 SLP130,CYXT,2023-05-06T09:00:00Z,54.47,-128.57,7.0,7.0,180,8,,5.0,29.890747,1013.0,,,,,,,,,-RA BR,FEW,500,BKN,2500,OVC,5000,,,MVFR,,,,,,,,,,,,METAR,213.0
CYXS 060900Z AUTO 18012KT 9SM BKN030 OVC038 14/09 A2977 RMK SLP081 DENSITY ALT 2900FT,CYXS,2023-05-06T09:00:00Z,53.88,-122.68,14.0,9.0,180,12,,9.0,29.769686,1008.1,,TRUE,,,,,,,,BKN,3000,OVC,3800,,,,,MVFR,,,,,,,,,,,,METAR,685.0
CYXR 060900Z AUTO VRB03KT 9SM CLR 03/01 A3032 RMK SLP279,CYXR,2023-05-06T09:00:00Z,47.7,-79.85,3.0,1.0,0,3,,9.0,30.318897,1027.9,,TRUE,,,,,,,,CLR,,,,,,,,VFR,,,,,,,,,,,,METAR,244.0
CYXL 060900Z 07005KT 15SM FEW060 04/01 A3021 RMK SC1 SLP245,CYXL,2023-05-06T09:00:00Z,50.12,-91.9,4.0,1.0,70,5,,15.0,30.209646,1024.5,,,,,,,,,,FEW,6000,,,,,,,VFR,,,,,,,,,,,,METAR,381.0
CYXJ 060900Z 09014KT 6SM FU OVC089 17/00 A2978 RMK FU5AC3 SLP082 DENSITY ALT 3200FT,CYXJ,2023-05-06T09:00:00Z,56.25,-120.73,17.0,0.0,90,14,,6.0,29.778543,1008.2,,,,,,,,,FU,OVC,8900,,,,,,,VFR,,,,,,,,,,,,METAR,700.0
CYXE 060900Z 07010G17KT 15SM FEW100 08/02 A3009 RMK AC2 SLP205,CYXE,2023-05-06T09:00:00Z,52.17,-106.7,8.0,2.0,70,10,17,15.0,30.088583,1020.5,,,,,,,,,,FEW,10000,,,,,,,VFR,,,,,,,,,,,,METAR,504.0
CYXC 060900Z 22006KT 25SM BKN120 11/08 A2977 RMK AC6 SLP074 DENSITY ALT 3500FT,CYXC,2023-05-06T09:00:00Z,49.6,-115.78,11.0,8.0,220,6,,25.0,29.769686,1007.4,,,,,,,,,,BKN,12000,,,,,,,VFR,,,,,,,,,,,,METAR,928.0
CYWL 060900Z 28006KT 15SM FEW080 09/06 A2980 RMK AC2 SLP094 DENSITY ALT 3300FT,CYWL,2023-05-06T09:00:00Z,52.18,-122.07,9.0,6.0,280,6,,15.0,29.799213,1009.4,,,,,,,,,,FEW,8000,,,,,,,VFR,,,,,,,,,,,,METAR,942.0
CYWK 060900Z AUTO 00000KT 9SM CLR M03/M05 A3006 RMK SLP201,CYWK,2023-05-06T09:00:00Z,52.92,-66.87,-3.0,-5.0,0,0,,9.0,30.059055,1020.1,,TRUE,,,,,,,,CLR,,,,,,,,VFR,,,,,,,,,,,,METAR,547.0
CYWG 060900Z 06006KT 15SM SKC 07/02 A3012 RMK SLP207,CYWG,2023-05-06T09:00:00Z,49.9,-97.23,7.0,2.0,60,6,,15.0,30.121063,1020.7,,,,,,,,,,SKC,,,,,,,,VFR,,,,,,,,,,,,METAR,238.0
CYWE 060900Z AUTO 08011KT 9SM BKN130 OVC150 02/00 A3008 RMK ICE MISG SLP209,CYWE,2023-05-06T09:00:00Z,64.18,-114.08,2.0,0.0,80,11,,9.0,30.079725,1020.9,,TRUE,,,,,,,,BKN,13000,OVC,15000,,,,,VFR,,,,,,,,,,,,METAR,374.0
CYVV 060900Z VRB03KT 15SM BKN032 OVC250 07/06 A3031 RMK SC7CI1 SLP271,CYVV,2023-05-06T09:00:00Z,44.75,-81.1,7.0,6.0,0,3,,15.0,30.31004,1027.1,,,,,,,,,,BKN,3200,OVC,25000,,,,,VFR,,,,,,,,,,,,METAR,221.0
CYVT 060900Z AUTO 11006KT 9SM CLR 07/01 A3020 RMK SLP241,CYVT,2023-05-06T09:00:00Z,55.83,-108.42,7.0,1.0,110,6,,9.0,30.200787,1024.1,,TRUE,,,,,,,,CLR,,,,,,,,VFR,,,,,,,,,,,,METAR,438.0
CYVR 060900Z 11007KT 12SM FEW008 FEW023 BKN058 BKN070 10/09 A2993 RMK SF1SC2SC3AC2 SF TR SLP139,CYVR,2023-05-06T09:00:00Z,49.17,-123.17,10.0,9.0,110,7,,12.0,29.929134,1013.9,,,,,,,,,,FEW,800,FEW,2300,BKN,5800,BKN,7000,VFR,,,,,,,,,,,,METAR,2.0
CYVQ 060900Z 10004KT 30SM BKN150 07/01 A2989 RMK AC5 SLP126,CYVQ,2023-05-06T09:00:00Z,65.27,-126.78,7.0,1.0,100,4,,30.0,29.890747,1012.6,,,,,,,,,,BKN,15000,,,,,,,VFR,,,,,,,,,,,,METAR,63.0
CYVP 060900Z VRB03KT 15SM SCT150 M00/M01 A3006 RMK AC3 SLP185,CYVP,2023-05-06T09:00:00Z,58.12,-68.42,0.0,-1.0,0,3,,15.0,30.059055,1018.5,,,,,,,,,,SCT,15000,,,,,,,VFR,,,,,,,,,,,,METAR,28.0
CYVO 060900Z AUTO VRB02KT 9SM CLR 05/03 A3029 RMK SLP271,CYVO,2023-05-06T09:00:00Z,48.07,-77.77,5.0,3.0,0,2,,9.0,30.28937,1027.1,,TRUE,,,,,,,,CLR,,,,,,,,VFR,,,,,,,,,,,,METAR,329.0
CYVM 060900Z AUTO 01009KT 9SM -SN BKN041 BKN055 OVC079 M02/M04 A2978 RMK SLP085,CYVM,2023-05-06T09:00:00Z,67.55,-64.02,-2.0,-4.0,10,9,,9.0,29.778543,1008.5,,TRUE,,,,,,,-SN,BKN,4100,BKN,5500,OVC,7900,,,VFR,,,,,,,,,,,,METAR,3.0
CYVL 060900Z AUTO 09009G15KT 9SM OVC081 05/00 A2996 RMK SLP161,CYVL,2023-05-06T09:00:00Z,67.02,-126.13,5.0,0.0,90,9,15,9.0,29.958662,1016.1,,TRUE,,,,,,,,OVC,8100,,,,,,,VFR,,,,,,,,,,,,METAR,261.0
CYVC 060900Z 04006KT 15SM SKC 02/M01 A3026 RMK SLP263,CYVC,2023-05-06T09:00:00Z,55.15,-105.27,2.0,-1.0,40,6,,15.0,30.259842,1026.3,,,,,,,,,,SKC,,,,,,,,VFR,,,,,,,,,,,,METAR,378.0
CYUY 060900Z 00000KT 15SM FEW090 01/01 A3031 RMK AC1 SLP275,CYUY,2023-05-06T09:00:00Z,48.2,-78.82,1.0,1.0,0,0,,15.0,30.31004,1027.5,,,,,,,,,,FEW,9000,,,,,,,VFR,,,,,,,,,,,,METAR,304.0
CYUX 060900Z AUTO 32017G23KT 9SM CLR M07/M07 A3016 RMK SLP215,CYUX,2023-05-06T09:00:00Z,68.77,-81.22,-7.0,-7.0,320,17,23,9.0,30.159449,1021.5,,TRUE,,,,,,,,CLR,,,,,,,,VFR,,,,,,,,,,,,METAR,8.0
CYUL 060900Z 21005KT 15SM SCT120 08/05 A3022 RMK CI1 SLP235,CYUL,2023-05-06T09:00:00Z,45.47,-73.73,8.0,5.0,210,5,,15.0,30.221457,1023.5,,,,,,,,,,SCT,12000,,,,,,,VFR,,,,,,,,,,,,METAR,31.0
CYUA 060900Z AUTO VRB02KT ////SM OVC002 ///// A////,CYUA,2023-05-06T09:00:00Z,68.92,-137.23,,,0,2,,,,,,TRUE,,,,,,,,OVC,200,,,,,,,,,,,,,,,,,,,METAR,25.0
CYTZ 060900Z AUTO 26005KT 9SM CLR 07/06 A3032 RMK SLP271,CYTZ,2023-05-06T09:00:00Z,43.63,-79.4,7.0,6.0,260,5,,9.0,30.318897,1027.1,,TRUE,,,,,,,,CLR,,,,,,,,VFR,,,,,,,,,,,,METAR,76.0
CYTS 060900Z 00000KT 15SM FEW160 M01/M02 A3034 RMK AC1 SLP287,CYTS,2023-05-06T09:00:00Z,48.57,-81.37,-1.0,-2.0,0,0,,15.0,30.339567,1028.7,,,,,,,,,,FEW,16000,,,,,,,VFR,,,,,,,,,,,,METAR,290.0
CYTR 060900Z 00000KT 15SM SKC 06/05 A3030 RMK DENSITY ALT -1060FT SLP264,CYTR,2023-05-06T09:00:00Z,44.12,-77.52,6.0,5.0,0,0,,15.0,30.301182,1026.4,,,,,,,,,,SKC,,,,,,,,VFR,,,,,,,,,,,,METAR,80.0
CYTL 060900Z AUTO 08003KT 040V110 9SM CLR 02/M00 A3039 RMK SLP304,CYTL,2023-05-06T09:00:00Z,53.82,-89.88,2.0,0.0,80,3,,9.0,30.389763,1030.4,,TRUE,,,,,,,,CLR,,,,,,,,VFR,,,,,,,,,,,,METAR,218.0
CYTH 060900Z 06004KT 15SM BKN058 03/00 A3034 RMK SC5 SLP286,CYTH,2023-05-06T09:00:00Z,55.8,-97.83,3.0,0.0,60,4,,15.0,30.339567,1028.6,,,,,,,,,,BKN,5800,,,,,,,VFR,,,,,,,,,,,,METAR,212.0
CYTE 060900Z AUTO 29015G22KT 9SM OVC016 M02/M04 A3009 RMK SLP197,CYTE,2023-05-06T09:00:00Z,64.22,-76.52,-2.0,-4.0,290,15,22,9.0,30.088583,1019.7,,TRUE,,,,,,,,OVC,1600,,,,,,,MVFR,,,,,,,,,,,,METAR,49.0
CYSM 060900Z 14006KT 15SM SKC 14/01 A3010 RMK SLP200,CYSM,2023-05-06T09:00:00Z,60.03,-111.92,14.0,1.0,140,6,,15.0,30.100393,1020.0,,,,,,,,,,SKC,,,,,,,,VFR,,,,,,,,,,,,METAR,203.0
CYSJ 060900Z 04002KT 15SM FEW220 M03/M03 A2999 RMK CI1 SLP161,CYSJ,2023-05-06T09:00:00Z,45.32,-65.88,-3.0,-3.0,40,2,,15.0,29.991142,1016.1,,,,,,,,,,FEW,22000,,,,,,,VFR,,,,,,,,,,,,METAR,89.0
CYSF 060900Z AUTO 10003KT 070V130 9SM CLR 02/M00 A3029 RMK SLP268,CYSF,2023-05-06T09:00:00Z,59.25,-105.83,2.0,0.0,100,3,,9.0,30.28937,1026.8,,TRUE,,,,,,,,CLR,,,,,,,,VFR,,,,,,,,,,,,METAR,238.0
CYSC 060900Z AUTO 19002KT 9SM CLR 03/02 A3017 RMK SLP223,CYSC,2023-05-06T09:00:00Z,45.43,-71.68,3.0,2.0,190,2,,9.0,30.171259,1022.3,,TRUE,,,,,,,,CLR,,,,,,,,VFR,,,,,,,,,,,,METAR,236.0
CYRV 060900Z AUTO 27002KT 9SM BKN046 OVC055 10/07 A2978 RMK SLP088,CYRV,2023-05-06T09:00:00Z,50.97,-118.17,10.0,7.0,270,2,,9.0,29.778543,1008.8,,TRUE,,,,,,,,BKN,4600,OVC,5500,,,,,VFR,,,,,,,,,,,,METAR,456.0
CYRT 060900Z 36007KT 15SM FEW002 FEW160 M08/M08 A3044 RMK ST1AC2 ST TR SLP315,CYRT,2023-05-06T09:00:00Z,62.82,-92.12,-8.0,-8.0,360,7,,15.0,30.43996,1031.5,,,,,,,,,,FEW,200,FEW,16000,,,,,VFR,,,,,,,,,,,,METAR,29.0
CYRQ 060900Z AUTO 33003KT 280V360 9SM CLR 10/02 A3016 RMK SLP218,CYRQ,2023-05-06T09:00:00Z,46.35,-72.68,10.0,2.0,330,3,,9.0,30.159449,1021.8,,TRUE,,,,,,,,CLR,,,,,,,,VFR,,,,,,,,,,,,METAR,58.0
CYRL 060900Z 08004KT 15SM FEW080 02/M01 A3021 RMK AC1 AC TR SLP247,CYRL,2023-05-06T09:00:00Z,51.07,-93.78,2.0,-1.0,80,4,,15.0,30.209646,1024.7,,,,,,,,,,FEW,8000,,,,,,,VFR,,,,,,,,,,,,METAR,370.0
CYRJ 060900Z 29009KT 25SM FEW090 10/01 A3013 RMK AC2 SLP208,CYRJ,2023-05-06T09:00:00Z,48.52,-72.27,10.0,1.0,290,9,,25.0,30.129921,1020.8,,,,,,,,,,FEW,9000,,,,,,,VFR,,,,,,,,,,,,METAR,173.0
CYRB 060900Z 00000KT 1/4SM R35/1100V1200FT/N FZFG VV001 M10/M11 A3025 RMK FG8 SLP252,CYRB,2023-05-06T09:00:00Z,74.72,-94.97,-10.0,-11.0,0,0,,0.25,30.250984,1025.2,,,,,,,,,FZFG,OVX,0,,,,,,,LIFR,,,,,,,,,,,100,METAR,59.0
CYQZ 060900Z AUTO 15008KT 9SM OVC032 13/10 A2978 RMK SLP087 DENSITY ALT 2200FT,CYQZ,2023-05-06T09:00:00Z,53.02,-122.52,13.0,10.0,150,8,,9.0,29.778543,1008.7,,TRUE,,,,,,,,OVC,3200,,,,,,,VFR,,,,,,,,,,,,METAR,548.0
CYQY 060900Z 24011KT 15SM BKN085 BKN150 02/M01 A2984 RMK AC5AC2 SLP108,CYQY,2023-05-06T09:00:00Z,46.17,-60.03,2.0,-1.0,240,11,,15.0,29.840551,1010.8,,,,,,,,,,BKN,8500,BKN,15000,,,,,VFR,,,,,,,,,,,,METAR,58.0
CYQW 060900Z AUTO 09018G24KT 9SM BKN100 09/02 A3010 RMK SLP204,CYQW,2023-05-06T09:00:00Z,52.77,-108.25,9.0,2.0,90,18,24,9.0,30.100393,1020.4,,TRUE,,,,,,,,BKN,10000,,,,,,,VFR,,,,,,,,,,,,METAR,545.0
CYQV 060900Z AUTO 03004KT 9SM FEW150 04/00 A3010 RMK SLP207,CYQV,2023-05-06T09:00:00Z,51.27,-102.47,4.0,0.0,30,4,,9.0,30.100393,1020.7,,TRUE,,,,,,,,FEW,15000,,,,,,,VFR,,,,,,,,,,,,METAR,493.0
CYQU 060900Z 12011KT 15SM BKN055 16/M01 A2978 RMK FU6 FU SLP082 DENSITY ALT 3100FT,CYQU,2023-05-06T09:00:00Z,55.18,-118.88,16.0,-1.0,120,11,,15.0,29.778543,1008.2,,,,,,,,,,BKN,5500,,,,,,,VFR,,,,,,,,,,,,METAR,668.0
CYQT 060900Z 08012KT 4SM BR OVC003 06/05 A3018 RMK ST8 CIG RAG SLP230,CYQT,2023-05-06T09:00:00Z,48.37,-89.32,6.0,5.0,80,12,,4.0,30.180119,1023.0,,,,,,,,,BR,OVC,300,,,,,,,LIFR,,,,,,,,,,,,METAR,197.0
CYQR 060900Z 08013KT 15SM FEW110 08/01 A3003 RMK AC1 AC TR SLP183,CYQR,2023-05-06T09:00:00Z,50.43,-104.67,8.0,1.0,80,13,,15.0,30.029528,1018.3,,,,,,,,,,FEW,11000,,,,,,,VFR,,,,,,,,,,,,METAR,576.0
CYQQ 060900Z 30002KT 20SM -RA OVC031 10/09 A2993 RMK SC8 DENSITY ALT -364FT PCPN VRY LGT SLP135,CYQQ,2023-05-06T09:00:00Z,49.72,-124.9,10.0,9.0,300,2,,20.0,29.929134,1013.5,,,,,,,,,-RA,OVC,3100,,,,,,,VFR,,,,,,,,,,,,METAR,24.0
CYQM 060900Z 23011KT 15SM BKN070 BKN220 02/M01 A2993 RMK AC7CI1 CI TR SLP141,CYQM,2023-05-06T09:00:00Z,46.12,-64.67,2.0,-1.0,230,11,,15.0,29.929134,1014.1,,,,,,,,,,BKN,7000,BKN,22000,,,,,VFR,,,,,,,,,,,,METAR,67.0
CYQL 060900Z AUTO 06010G15KT 9SM FEW091 10/02 A2976 RMK SLP075 DENSITY ALT 3400FT,CYQL,2023-05-06T09:00:00Z,49.63,-112.8,10.0,2.0,60,10,15,9.0,29.760826,1007.5,,TRUE,,,,,,,,FEW,9100,,,,,,,VFR,,,,,,,,,,,,METAR,923.0
CYQK 060900Z 07006KT 15SM SKC 05/03 A3015 RMK SLP221,CYQK,2023-05-06T09:00:00Z,49.78,-94.37,5.0,3.0,70,6,,15.0,30.15059,1022.1,,,,,,,,,,SKC,,,,,,,,VFR,,,,,,,,,,,,METAR,413.0
CYQI 060900Z 26004KT 15SM SCT250 04/02 A3002 RMK CS3 SLP168,CYQI,2023-05-06T09:00:00Z,43.83,-66.08,4.0,2.0,260,4,,15.0,30.02067,1016.8,,,,,,,,,,SCT,25000,,,,,,,VFR,,,,,,,,,,,,METAR,37.0
CYQH 060900Z 00000KT 20SM BKN120 12/04 A2969 RMK AC6 SLP063 DENSITY ALT 2800FT,CYQH,2023-05-06T09:00:00Z,60.12,-128.82,12.0,4.0,0,0,,20.0,29.68996,1006.3,,,,,,,,,,BKN,12000,,,,,,,VFR,,,,,,,,,,,,METAR,692.0
CYQG 060900Z AUTO 09006KT 9SM CLR 08/05 A3026 RMK SLP251,CYQG,2023-05-06T09:00:00Z,42.27,-82.97,8.0,5.0,90,6,,9.0,30.259842,1025.1,,TRUE,,,,,,,,CLR,,,,,,,,VFR,,,,,,,,,,,,METAR,189.0
CYQF 060900Z AUTO 10006KT 9SM CLR 07/M01 A2994 RMK SLP147,CYQF,2023-05-06T09:00:00Z,52.17,-113.9,7.0,-1.0,100,6,,9.0,29.940945,1014.7,,TRUE,,,,,,,,CLR,,,,,,,,VFR,,,,,,,,,,,,METAR,912.0
CYQD 060900Z AUTO 05005KT 9SM CLR 07/00 A3025 RMK SLP253,CYQD,2023-05-06T09:00:00Z,53.97,-101.08,7.0,0.0,50,5,,9.0,30.250984,1025.3,,TRUE,,,,,,,,CLR,,,,,,,,VFR,,,,,,,,,,,,METAR,268.0
CYQB 060900Z 00000KT 30SM FEW210 10/01 A3012 RMK CI2 SLP202,CYQB,2023-05-06T09:00:00Z,46.78,-71.38,10.0,1.0,0,0,,30.0,30.121063,1020.2,,,,,,,,,,FEW,21000,,,,,,,VFR,,,,,,,,,,,,METAR,73.0
CYQA 060900Z AUTO 00000KT 9SM CLR 00/M00 A3032 RMK SLP276,CYQA,2023-05-06T09:00:00Z,44.97,-79.3,0.0,0.0,0,0,,9.0,30.318897,1027.6,,TRUE,,,,,,,,CLR,,,,,,,,VFR,,,,,,,,,,,,METAR,277.0
CYPY 060900Z AUTO 14006KT 120V180 9SM CLR 13/01 A3015 RMK SLP218,CYPY,2023-05-06T09:00:00Z,58.77,-111.12,13.0,1.0,140,6,,9.0,30.15059,1021.8,,TRUE,,,,,,,,CLR,,,,,,,,VFR,,,,,,,,,,,,METAR,225.0
CYPX 060900Z AUTO 31014KT 9SM OVC007 M01/M02 A3025 RMK SLP248,CYPX,2023-05-06T09:00:00Z,60.03,-77.27,-1.0,-2.0,310,14,,9.0,30.250984,1024.8,,TRUE,,,,,,,,OVC,700,,,,,,,IFR,,,,,,,,,,,,METAR,10.0
CYPR 060900Z AUTO VRB02KT 9SM SCT013 OVC040 07/05 A2994 RMK SLP142,CYPR,2023-05-06T09:00:00Z,54.28,-130.45,7.0,5.0,0,2,,9.0,29.940945,1014.2,,TRUE,,,,,,,,SCT,1300,OVC,4000,,,,,VFR,,,,,,,,,,,,METAR,30.0
CYPO 060900Z AUTO 07002KT 9SM CLR M04/M05 A3045 RMK SLP317,CYPO,2023-05-06T09:00:00Z,54.98,-85.43,-4.0,-5.0,70,2,,9.0,30.448818,1031.7,,TRUE,,,,,,,,CLR,,,,,,,,VFR,,,,,,,,,,,,METAR,49.0
CYPL 060900Z AUTO 08007KT 9SM CLR 02/M01 A3028 RMK SLP270,CYPL,2023-05-06T09:00:00Z,51.43,-90.22,2.0,-1.0,80,7,,9.0,30.280512,1027.0,,TRUE,,,,,,,,CLR,,,,,,,,VFR,,,,,,,,,,,,METAR,390.0
CYPH 060900Z AUTO VRB03KT 9SM SCT120 M02/M03 A3031 RMK SLP267,CYPH,2023-05-06T09:00:00Z,58.47,-78.08,-2.0,-3.0,0,3,,9.0,30.31004,1026.7,,TRUE,,,,,,,,SCT,12000,,,,,,,VFR,,,,,,,,,,,,METAR,24.0
CYPE 060900Z 13012KT 15SM BKN028 15/M02 A2990 RMK SC8 SLP127 DENSITY ALT 2400FT,CYPE,2023-05-06T09:00:00Z,56.22,-117.45,15.0,-2.0,130,12,,15.0,29.899607,1012.7,,,,,,,,,,BKN,2800,,,,,,,MVFR,,,,,,,,,,,,METAR,572.0
CYPD 060900Z AUTO 32007KT 280V350 9SM SCT200 01/M00 A2987 RMK SLP123,CYPD,2023-05-06T09:00:00Z,45.67,-61.37,1.0,0.0,320,7,,9.0,29.870079,1012.3,,TRUE,,,,,,,,SCT,20000,,,,,,,VFR,,,,,,,,,,,,METAR,106.0
CYPA 060900Z 12010KT 15SM SKC 04/01 A3019 RMK SLP238,CYPA,2023-05-06T09:00:00Z,53.22,-105.67,4.0,1.0,120,10,,15.0,30.188976,1023.8,,,,,,,,,,SKC,,,,,,,,VFR,,,,,,,,,,,,METAR,428.0
CYOW 060900Z 30008KT 15SM FEW100 06/04 A3027 RMK AC1 AC TR SLP255,CYOW,2023-05-06T09:00:00Z,45.32,-75.67,6.0,4.0,300,8,,15.0,30.268702,1025.5,,,,,,,,,,FEW,10000,,,,,,,VFR,,,,,,,,,,,,METAR,111.0
CYOO 060900Z AUTO 01003KT 9SM CLR 02/02 A3031 RMK SLP269,CYOO,2023-05-06T09:00:00Z,43.92,-78.9,2.0,2.0,10,3,,9.0,30.31004,1026.9,,TRUE,,,,,,,,CLR,,,,,,,,VFR,,,,,,,,,,,,METAR,136.0
CYOJ 060900Z AUTO 12012KT 7SM CLR 18/03 A2992 RMK SLP137 DENSITY ALT 1700FT,CYOJ,2023-05-06T09:00:00Z,58.62,-117.17,18.0,3.0,120,12,,7.0,29.920275,1013.7,,TRUE,,,,,,,,CLR,,,,,,,,VFR,,,,,,,,,,,,METAR,339.0
CYOD 060900Z 09007KT 15SM BKN070 08/01 A3012 RMK AC5 DENSITY ALT 1214FT SLP209,CYOD,2023-05-06T09:00:00Z,54.4,-110.28,8.0,1.0,90,7,,15.0,30.121063,1020.9,,,,,,,,,,BKN,7000,,,,,,,VFR,,,,,,,,,,,,METAR,540.0
CYNM 060900Z AUTO 30005KT 9SM OVC091 08/02 A3028 RMK SLP263,CYNM,2023-05-06T09:00:00Z,49.77,-77.78,8.0,2.0,300,5,,9.0,30.280512,1026.3,,TRUE,,,,,,,,OVC,9100,,,,,,,VFR,,,,,,,,,,,,METAR,276.0
CYNE 060900Z AUTO 07006KT 9SM OVC071 09/02 A3028 RMK SLP263,CYNE,2023-05-06T09:00:00Z,53.97,-97.83,9.0,2.0,70,6,,9.0,30.280512,1026.3,,TRUE,,,,,,,,OVC,7100,,,,,,,VFR,,,,,,,,,,,,METAR,220.0
CYNA 060900Z AUTO 34004KT 9SM CLR M00/M05 A2997 RMK SLP150,CYNA,2023-05-06T09:00:00Z,50.18,-61.78,0.0,-5.0,340,4,,9.0,29.970472,1015.0,,TRUE,,,,,,,,CLR,,,,,,,,VFR,,,,,,,,,,,,METAR,9.0
CYMX 060900Z 00000KT 25SM FEW120 04/04 A3022 RMK AC1 SLP237,CYMX,2023-05-06T09:00:00Z,45.67,-74.03,4.0,4.0,0,0,,25.0,30.221457,1023.7,,,,,,,,,,FEW,12000,,,,,,,VFR,,,,,,,,,,,,METAR,78.0
CYMT 060900Z AUTO 32004KT 9SM CLR 05/00 A3020 RMK SLP238,CYMT,2023-05-06T09:00:00Z,49.77,-74.52,5.0,0.0,320,4,,9.0,30.200787,1023.8,,TRUE,,,,,,,,CLR,,,,,,,,VFR,,,,,,,,,,,,METAR,388.0
CYMO 060900Z AUTO 29003KT 9SM CLR 00/M01 A3035 RMK SLP280,CYMO,2023-05-06T09:00:00Z,51.28,-80.62,0.0,-1.0,290,3,,9.0,30.351377,1028.0,,TRUE,,,,,,,,CLR,,,,,,,,VFR,,,,,,,,,,,,METAR,8.0
CYMM 060900Z AUTO 12009KT 9SM CLR 08/M00 A3014 RMK SLP217,CYMM,2023-05-06T09:00:00Z,56.65,-111.22,8.0,0.0,120,9,,9.0,30.138779,1021.7,,TRUE,,,,,,,,CLR,,,,,,,,VFR,,,,,,,,,,,,METAR,371.0
CYMA 060900Z 01005KT 20SM OVC057 07/02 A2976 RMK SC8 SLP097,CYMA,2023-05-06T09:00:00Z,63.62,-135.87,7.0,2.0,10,5,,20.0,29.760826,1009.7,,,,,,,,,,OVC,5700,,,,,,,VFR,,,,,,,,,,,,METAR,519.0
CYLW 060900Z AUTO 19004KT 9SM -RA OVC021 13/12 A2979 RMK SLP091 DENSITY ALT 1700FT,CYLW,2023-05-06T09:00:00Z,49.95,-119.37,13.0,12.0,190,4,,9.0,29.790354,1009.1,,TRUE,,,,,,,-RA,OVC,2100,,,,,,,MVFR,,,,,,,,,,,,METAR,420.0
CYLL 060900Z AUTO 11014G21KT 9SM OVC091 10/02 A3007 RMK SLP194,CYLL,2023-05-06T09:00:00Z,53.32,-110.07,10.0,2.0,110,14,21,9.0,30.070866,1019.4,,TRUE,,,,,,,,OVC,9100,,,,,,,VFR,,,,,,,,,,,,METAR,664.0
CYLH 060900Z AUTO 03003KT 9SM OVC100 M01/M01 A3034 RMK SLP291,CYLH,2023-05-06T09:00:00Z,52.2,-87.93,-1.0,-1.0,30,3,,9.0,30.339567,1029.1,,TRUE,,,,,,,,OVC,10000,,,,,,,VFR,,,,,,,,,,,,METAR,245.0
CYKY 060900Z 09012G18KT 15SM FEW090 BKN240 07/01 A2998 RMK AC2CI4 SLP159,CYKY,2023-05-06T09:00:00Z,51.52,-109.17,7.0,1.0,90,12,18,15.0,29.97933,1015.9,,,,,,,,,,FEW,9000,BKN,24000,,,,,VFR,,,,,,,,,,,,METAR,692.0
CYKP 060900Z AUTO 06008KT 9SM OVC100 05/01 A3034 RMK SLP278,CYKP,2023-05-06T09:00:00Z,51.67,-85.9,5.0,1.0,60,8,,9.0,30.339567,1027.8,,TRUE,,,,,,,,OVC,10000,,,,,,,VFR,,,,,,,,,,,,METAR,181.0
CYKL 060900Z AUTO 00000KT 9SM CLR M03/M05 A3006 RMK SLP205,CYKL,2023-05-06T09:00:00Z,54.8,-66.8,-3.0,-5.0,0,0,,9.0,30.059055,1020.5,,TRUE,,,,,,,,CLR,,,,,,,,VFR,,,,,,,,,,,,METAR,507.0
CYKJ 060900Z AUTO 06003KT 9SM CLR M00/M02 A3029 RMK SLP277,CYKJ,2023-05-06T09:00:00Z,57.25,-105.62,0.0,-2.0,60,3,,9.0,30.28937,1027.7,,TRUE,,,,,,,,CLR,,,,,,,,VFR,,,,,,,,,,,,METAR,519.0
CYKA 060900Z 27006KT 30SM -SHRA SCT040 BKN100 OVC220 12/09 A2980 RMK SC4AC3CI1 CVCTV CLD EMBD SLP097,CYKA,2023-05-06T09:00:00Z,50.7,-120.45,12.0,9.0,270,6,,30.0,29.799213,1009.7,,,,,,,,,-SHRA,SCT,4000,BKN,10000,OVC,22000,,,VFR,,,,,,,,,,,,METAR,344.0
CYJT 060900Z 04004KT 15SM FEW030 FEW075 SCT180 BKN230 02/00 A2981 RMK SC1AC1AC2CI3 SLP096,CYJT,2023-05-06T09:00:00Z,48.55,-58.57,2.0,0.0,40,4,,15.0,29.811024,1009.6,,,,,,,,,,FEW,3000,FEW,7500,SCT,18000,BKN,23000,VFR,,,,,,,,,,,,METAR,7.0
CYIV 060900Z AUTO VRB02KT 9SM OVC081 07/01 A3032 RMK SLP280,CYIV,2023-05-06T09:00:00Z,53.85,-94.65,7.0,1.0,0,2,,9.0,30.318897,1028.0,,TRUE,,,,,,,,OVC,8100,,,,,,,VFR,,,,,,,,,,,,METAR,234.0
CYIO 060900Z AUTO 14004KT 080V160 9SM BKN036 M10/M12 A3006 RMK SLP189,CYIO,2023-05-06T09:00:00Z,72.68,-77.97,-10.0,-12.0,140,4,,9.0,30.059055,1018.9,,TRUE,,,,,,,,BKN,3600,,,,,,,VFR,,,,,,,,,,,,METAR,61.0
CYHZ 060900Z 29008KT 15SM FEW180 FEW250 02/M03 A2995 RMK AC1CI1 SLP148,CYHZ,2023-05-06T09:00:00Z,44.87,-63.5,2.0,-3.0,290,8,,15.0,29.949802,1014.8,,,,,,,,,,FEW,18000,FEW,25000,,,,,VFR,,,,,,,,,,,,METAR,136.0
CYHY 060900Z 07002KT 15SM SCT030 BKN150 01/00 A2995 RMK SC3AC3 SLP152,CYHY,2023-05-06T09:00:00Z,60.83,-115.77,1.0,0.0,70,2,,15.0,29.949802,1015.2,,,,,,,,,,SCT,3000,BKN,15000,,,,,VFR,,,,,,,,,,,,METAR,159.0
CYHU 060900Z AUTO 24004KT 9SM OVC086 07/05 A3021 RMK SLP233,CYHU,2023-05-06T09:00:00Z,45.52,-73.42,7.0,5.0,240,4,,9.0,30.209646,1023.3,,TRUE,,,,,,,,OVC,8600,,,,,,,VFR,,,,,,,,,,,,METAR,26.0
CYHM 060900Z 02007KT 15SM FEW100 FEW230 05/03 A3030 RMK AC1CI2 AC TR SLP268,CYHM,2023-05-06T09:00:00Z,43.17,-79.93,5.0,3.0,20,7,,15.0,30.301182,1026.8,,,,,,,,,,FEW,10000,FEW,23000,,,,,VFR,,,,,,,,,,,,METAR,237.0
CYHD 060900Z AUTO 06007KT 9SM CLR 02/01 A3017 RMK SLP235,CYHD,2023-05-06T09:00:00Z,49.82,-92.75,2.0,1.0,60,7,,9.0,30.171259,1023.5,,TRUE,,,,,,,,CLR,,,,,,,,VFR,,,,,,,,,,,,METAR,414.0
CYGX 060900Z 07003KT 040V110 15SM FEW033 01/M01 A3039 RMK SC1 SLP302,CYGX,2023-05-06T09:00:00Z,56.35,-94.7,1.0,-1.0,70,3,,15.0,30.389763,1030.2,,,,,,,,,,FEW,3300,,,,,,,VFR,,,,,,,,,,,,METAR,145.0
CYGW 060900Z AUTO 24006KT 9SM OVC005 M01/M01 A3035 RMK SLP281,CYGW,2023-05-06T09:00:00Z,55.27,-77.77,-1.0,-1.0,240,6,,9.0,30.351377,1028.1,,TRUE,,,,,,,,OVC,500,,,,,,,IFR,,,,,,,,,,,,METAR,13.0
CYGV 060900Z AUTO 03010G17KT 9SM BKN240 03/M04 A2999 RMK SLP161,CYGV,2023-05-06T09:00:00Z,50.28,-63.62,3.0,-4.0,30,10,17,9.0,29.991142,1016.1,,TRUE,,,,,,,,BKN,24000,,,,,,,VFR,,,,,,,,,,,,METAR,32.0
CYGR 060900Z 33012KT 20SM SCT090 04/02 A2985 RMK AC3 SLP109,CYGR,2023-05-06T09:00:00Z,47.42,-61.77,4.0,2.0,330,12,,20.0,29.84941,1010.9,,,,,,,,,,SCT,9000,,,,,,,VFR,,,,,,,,,,,,METAR,4.0
CYGP 060900Z 35003KT 330V040 15SM SCT070 04/01 A2997 RMK AC3 SLP153,CYGP,2023-05-06T09:00:00Z,48.77,-64.47,4.0,1.0,350,3,,15.0,29.970472,1015.3,,,,,,,,,,SCT,7000,,,,,,,VFR,,,,,,,,,,,,METAR,31.0
CYGL 060900Z 29003KT 15SM FEW220 01/M01 A3033 RMK CI1 SLP282,CYGL,2023-05-06T09:00:00Z,53.62,-77.7,1.0,-1.0,290,3,,15.0,30.33071,1028.2,,,,,,,,,,FEW,22000,,,,,,,VFR,,,,,,,,,,,,METAR,192.0
CYFT 060900Z 28006KT 5SM -SN BKN005 M04/M05 A2998 RMK ST7 SLP158,CYFT,2023-05-06T09:00:00Z,55.07,-59.18,-4.0,-5.0,280,6,,5.0,29.97933,1015.8,,,,,,,,,-SN,BKN,500,,,,,,,IFR,,,,,,,,,,,,METAR,65.0
CYFC 060900Z AUTO 21004KT 9SM CLR 01/M00 A2999 RMK SLP157,CYFC,2023-05-06T09:00:00Z,45.87,-66.53,1.0,0.0,210,4,,9.0,29.991142,1015.7,,TRUE,,,,,,,,CLR,,,,,,,,VFR,,,,,,,,,,,,METAR,16.0
CYFB 060900Z 32017G24KT 30SM OVC015 M01/M02 A2992 RMK SC8 SLP137,CYFB,2023-05-06T09:00:00Z,63.75,-68.55,-1.0,-2.0,320,17,24,30.0,29.920275,1013.7,,,,,,,,,,OVC,1500,,,,,,,MVFR,,,,,,,,,,,,METAR,23.0
CYEV 060900Z 06007KT 15SM BKN140 BKN240 03/M02 A3003 RMK AS7CI1 CI TR SLP177,CYEV,2023-05-06T09:00:00Z,68.32,-133.5,3.0,-2.0,60,7,,15.0,30.029528,1017.7,,,,,,,,,,BKN,14000,BKN,24000,,,,,VFR,,,,,,,,,,,,METAR,74.0
CYET 060900Z AUTO 07011G17KT 5SM HZ OVC032 11/M01 A2988 RMK SLP120 DENSITY ALT 3400FT,CYET,2023-05-06T09:00:00Z,53.57,-116.47,11.0,-1.0,70,11,17,5.0,29.878937,1012.0,,TRUE,,,,,,,HZ,OVC,3200,,,,,,,MVFR,,,,,,,,,,,,METAR,925.0
CYER 060900Z AUTO VRB02KT 9SM SCT250 M03/M03 A3047 RMK SLP320,CYER,2023-05-06T09:00:00Z,56.02,-87.68,-3.0,-3.0,0,2,,9.0,30.469488,1032.0,,TRUE,,,,,,,,SCT,25000,,,,,,,VFR,,,,,,,,,,,,METAR,11.0
CYEN 060900Z AUTO 07010G15KT 9SM CLR 06/03 A2999 RMK SLP167,CYEN,2023-05-06T09:00:00Z,49.22,-102.97,6.0,3.0,70,10,15,9.0,29.991142,1016.7,,TRUE,,,,,,,,CLR,,,,,,,,VFR,,,,,,,,,,,,METAR,580.0
CYEK 060900Z AUTO 00000KT 9SM BKN100 BKN140 M02/M02 A3043 RMK SLP306,CYEK,2023-05-06T09:00:00Z,61.1,-94.07,-2.0,-2.0,0,0,,9.0,30.431103,1030.6,,TRUE,,,,,,,,BKN,10000,BKN,14000,,,,,VFR,,,,,,,,,,,,METAR,7.0
CYEG 060900Z 11016G21KT 20SM SKC 09/01 A2998 RMK SLP156,CYEG,2023-05-06T09:00:00Z,53.3,-113.58,9.0,1.0,110,16,21,20.0,29.97933,1015.6,,,,,,,,,,SKC,,,,,,,,VFR,,,,,,,,,,,,METAR,710.0
CYDQ 060900Z AUTO 11003KT 090V180 9SM CLR 17/00 A2977 RMK SLP078 DENSITY ALT 3200FT,CYDQ,2023-05-06T09:00:00Z,55.75,-120.18,17.0,0.0,110,3,,9.0,29.769686,1007.8,,TRUE,,,,,,,,CLR,,,,,,,,VFR,,,,,,,,,,,,METAR,658.0
CYDP 060900Z 00000KT 15SM FEW150 SCT210 M03/M03 A2996 RMK AC1CI3 SLP147,CYDP,2023-05-06T09:00:00Z,56.53,-61.68,-3.0,-3.0,0,0,,15.0,29.958662,1014.7,,,,,,,,,,FEW,15000,SCT,21000,,,,,VFR,,,,,,,,,,,,METAR,14.0
CYDN 060900Z AUTO 04007KT 9SM CLR 03/M00 A3013 RMK SLP215,CYDN,2023-05-06T09:00:00Z,51.1,-100.05,3.0,0.0,40,7,,9.0,30.129921,1021.5,,TRUE,,,,,,,,CLR,,,,,,,,VFR,,,,,,,,,,,,METAR,302.0
CYDL 060900Z AUTO 22008KT 9SM -RA FEW024 BKN039 BKN071 OVC092 06/04 A2978 RMK SLP090,CYDL,2023-05-06T09:00:00Z,58.42,-130.02,6.0,4.0,220,8,,9.0,29.778543,1009.0,,TRUE,,,,,,,-RA,FEW,2400,BKN,3900,BKN,7100,OVC,9200,VFR,,,,,,,,,,,,METAR,804.0
CYDF 060900Z 00000KT 15SM FEW015 BKN052 02/M01 A2983 RMK SF1SC7 SF TR SLP104,CYDF,2023-05-06T09:00:00Z,49.22,-57.4,2.0,-1.0,0,0,,15.0,29.828741,1010.4,,,,,,,,,,FEW,1500,BKN,5200,,,,,VFR,,,,,,,,,,,,METAR,15.0
CYDB 060900Z AUTO VRB02KT 9SM CLR M02/M06 A2972 RMK SLP101,CYDB,2023-05-06T09:00:00Z,61.37,-139.02,-2.0,-6.0,0,2,,9.0,29.719488,1010.1,,TRUE,,,,,,,,CLR,,,,,,,,VFR,,,,,,,,,,,,METAR,807.0
CYCY 060900Z AUTO 32032G37KT 3/8SM SN OVC029 M06/M06 A2989 RMK SLP125,CYCY,2023-05-06T09:00:00Z,70.48,-68.52,-6.0,-6.0,320,32,37,0.38,29.890747,1012.5,,TRUE,,,,,,,SN,OVC,2900,,,,,,,LIFR,,,,,,,,,,,,METAR,73.0
CYCO 060900Z 21007KT 15SM SCT170 BKN210 02/M01 A3017 RMK AC4CI2 CC ASOCTD SLP221,CYCO,2023-05-06T09:00:00Z,67.82,-115.15,2.0,-1.0,210,7,,15.0,30.171259,1022.1,,,,,,,,,,SCT,17000,BKN,21000,,,,,VFR,,,,,,,,,,,,METAR,20.0
CYCK 060900Z AUTO 10007KT 9SM CLR 07/05 A3027 RMK SLP255,CYCK,2023-05-06T09:00:00Z,42.3,-82.08,7.0,5.0,100,7,,9.0,30.268702,1025.5,,TRUE,,,,,,,,CLR,,,,,,,,VFR,,,,,,,,,,,,METAR,196.0
CYCB 060900Z 17011KT 15SM BKN094 M02/M03 A3036 RMK AC6 SLP285,CYCB,2023-05-06T09:00:00Z,69.1,-105.12,-2.0,-3.0,170,11,,15.0,30.360237,1028.5,,,,,,,,,,BKN,9400,,,,,,,VFR,,,,,,,,,,,,METAR,19.0
CYBX 060900Z 01012G23KT 15SM FEW027 BKN056 BKN070 02/M03 A2984 RMK SC2SC3AC2 SLP110,CYBX,2023-05-06T09:00:00Z,51.45,-57.18,2.0,-3.0,10,12,23,15.0,29.840551,1011.0,,,,,,,,,,FEW,2700,BKN,5600,BKN,7000,,,VFR,,,,,,,,,,,,METAR,32.0
CYBW 060900Z AUTO 09006KT 9SM SCT060 SCT077 06/M03 A2990 RMK SLP128,CYBW,2023-05-06T09:00:00Z,51.1,-114.37,6.0,-3.0,90,6,,9.0,29.899607,1012.8,,TRUE,,,,,,,,SCT,6000,SCT,7700,,,,,VFR,,,,,,,,,,,,METAR,1197.0
CYBU 060900Z AUTO 03008KT 9SM CLR 05/01 A3019 RMK SLP239,CYBU,2023-05-06T09:00:00Z,53.32,-104.0,5.0,1.0,30,8,,9.0,30.188976,1023.9,,TRUE,,,,,,,,CLR,,,,,,,,VFR,,,,,,,,,,,,METAR,369.0
CYBR 060900Z 07015G20KT 15SM BKN120 07/02 A3007 RMK AC7 SLP195,CYBR,2023-05-06T09:00:00Z,49.92,-99.95,7.0,2.0,70,15,20,15.0,30.070866,1019.5,,,,,,,,,,BKN,12000,,,,,,,VFR,,,,,,,,,,,,METAR,405.0
CYBQ 060900Z AUTO 16005KT 9SM CLR 03/M01 A3038 RMK SLP304,CYBQ,2023-05-06T09:00:00Z,58.7,-98.5,3.0,-1.0,160,5,,9.0,30.380905,1030.4,,TRUE,,,,,,,,CLR,,,,,,,,VFR,,,,,,,,,,,,METAR,272.0
CYBG 060900Z 29003KT 25SM SKC 07/01 A3011 RMK DENSITY ALT -418FT SLP201,CYBG,2023-05-06T09:00:00Z,48.33,-70.98,7.0,1.0,290,3,,25.0,30.109253,1020.1,,,,,,,,,,SKC,,,,,,,,VFR,,,,,,,,,,,,METAR,151.0
CYBC 060900Z AUTO 32005KT 9SM CLR 09/01 A3002 RMK SLP168,CYBC,2023-05-06T09:00:00Z,49.13,-68.2,9.0,1.0,320,5,,9.0,30.02067,1016.8,,TRUE,,,,,,,,CLR,,,,,,,,VFR,,,,,,,,,,,,METAR,20.0
CYAY 060900Z AUTO 32011G19KT 9SM -RA FEW019 OVC033 01/M01 A2981 RMK SLP099,CYAY,2023-05-06T09:00:00Z,51.38,-56.07,1.0,-1.0,320,11,19,9.0,29.811024,1009.9,,TRUE,,,,,,,-RA,FEW,1900,OVC,3300,,,,,VFR,,,,,,,,,,,,METAR,23.0
CYAT 060900Z AUTO VRB02KT 9SM CLR M01/M01 A3041 RMK SLP301,CYAT,2023-05-06T09:00:00Z,52.93,-82.43,-1.0,-1.0,0,2,,9.0,30.410433,1030.1,,TRUE,,,,,,,,CLR,,,,,,,,VFR,,,,,,,,,,,,METAR,4.0
CYAM 060900Z 09007KT 10SM -SHRA OVC061 08/08 A3028 RMK SC8 CVCTV CLD EMBD SLP262,CYAM,2023-05-06T09:00:00Z,46.48,-84.52,8.0,8.0,90,7,,10.0,30.280512,1026.2,,,,,,,,,-SHRA,OVC,6100,,,,,,,VFR,,,,,,,,,,,,METAR,186.0
CYAH 060900Z AUTO 23004KT 9SM CLR 05/M02 A3022 RMK SLP245,CYAH,2023-05-06T09:00:00Z,53.75,-73.67,5.0,-2.0,230,4,,9.0,30.221457,1024.5,,TRUE,,,,,,,,CLR,,,,,,,,VFR,,,,,,,,,,,,METAR,298.0
CXZV 060900Z AUTO 33004KT 05/M00 RMK AO1 SLP172 T00481002 53018,CXZV,2023-05-06T09:00:00Z,50.22,-66.25,4.8,-0.2,330,4,,,,1017.2,,TRUE,TRUE,,,,,,,,,,,,,,,,1.8,,,,,,,,,,,METAR,43.0
CXZC 060900Z AUTO 28002KT M00/M02 RMK AO1 SOG 03 3007 SLP286 T10021017,CXZC,2023-05-06T09:00:00Z,51.3,-80.62,-0.2,-1.7,280,2,,,,1028.6,,TRUE,TRUE,,,,,,,,,,,,,,,,,,,,,,,,,,,METAR,8.0
CXYH 060900Z AUTO 02003KT 03/02 RMK AO1 SLP113 T00320023 58005,CXYH,2023-05-06T09:00:00Z,61.25,-123.75,3.2,2.3,20,3,,,,1011.3,,TRUE,TRUE,,,,,,,,,,,,,,,,-0.5,,,,,,,,,,,METAR,197.0
CXWN 060900Z AUTO 04003KT 09/02 RMK AO1 SLP207 T00900023 53005,CXWN,2023-05-06T09:00:00Z,49.88,-97.13,9.0,2.3,40,3,,,,1020.7,,TRUE,TRUE,,,,,,,,,,,,,,,,0.5,,,,,,,,,,,METAR,232.0
CXWM 060900Z AUTO 10012KT 11/01 RMK AO1 PK WND 09021/0812 T01060008,CXWM,2023-05-06T09:00:00Z,49.5,-112.12,10.6,0.8,100,12,,,,,,TRUE,TRUE,,,,,,,,,,,,,,,,,,,,,,,,,,,METAR,947.0
CXVW 060900Z AUTO 12016KT 13/M02 RMK AO1 PK WND 11024/0839 SLP106 T01341019 51006,CXVW,2023-05-06T09:00:00Z,55.1,-117.2,13.4,-1.9,120,16,,,,1010.6,,TRUE,TRUE,,,,,,,,,,,,,,,,0.6,,,,,,,,,,,METAR,696.0
CXVN 060900Z AUTO 21002KT 04/04 RMK AO1 SLP271 T00430035 53007,CXVN,2023-05-06T09:00:00Z,43.18,-79.4,4.3,3.5,210,2,,,,1027.1,,TRUE,TRUE,,,,,,,,,,,,,,,,0.7,,,,,,,,,,,METAR,86.0
CXVM 060900Z AUTO 11011KT 10/02 RMK AO1 PK WND 10018/0807 T00960015,CXVM,2023-05-06T09:00:00Z,53.35,-110.88,9.6,1.5,110,11,,,,,,TRUE,TRUE,,,,,,,,,,,,,,,,,,,,,,,,,,,METAR,622.0
CXTV 060900Z AUTO 35007KT M04/M05 RMK AO1 SOG 46 6012 SLP196 T10351052,CXTV,2023-05-06T09:00:00Z,68.75,-133.5,-3.5,-5.2,350,7,,,,1019.6,,TRUE,TRUE,,,,,,,,,,,,,,,,,,,,,,,,,,,METAR,91.0
CXTP 060900Z AUTO 33005KT M01/M01 RMK AO1 6009 SLP055 T10061010 50006,CXTP,2023-05-06T09:00:00Z,48.55,-53.97,-0.6,-1.0,330,5,,,,1005.5,,TRUE,TRUE,,,,,,,,,,,,,,,,0.6,,,,,,,,,,,METAR,104.0
CXTO 060900Z AUTO 08/04 RMK AO1 SLP269 T00770035 53007,CXTO,2023-05-06T09:00:00Z,43.67,-79.4,7.7,3.5,,,,,,1026.9,,TRUE,TRUE,,,,,,,,,,,,,,,,0.7,,,,,,,,,,,METAR,115.0
CXTN 060900Z AUTO 12012KT 02/M01 RMK AO1 SOG 38 7007 PK WND 13017/0859 SLP229 T00231014,CXTN,2023-05-06T09:00:00Z,69.2,-122.35,2.3,-1.4,120,12,,,,1022.9,,TRUE,TRUE,,,,,,,,,,,,,,,,,,,,,,,,,,,METAR,564.0
CXTH 060900Z AUTO 10014KT 10/01 RMK AO1 PK WND 09021/0810 T01000011,CXTH,2023-05-06T09:00:00Z,53.63,-111.68,10.0,1.1,100,14,,,,,,TRUE,TRUE,,,,,,,,,,,,,,,,,,,,,,,,,,,METAR,679.0
CXTD 060900Z AUTO 23009KT 02/M02 RMK AO1 SLP138 T00231018 58017,CXTD,2023-05-06T09:00:00Z,45.62,-61.68,2.3,-1.8,230,9,,,,1013.8,,TRUE,TRUE,,,,,,,,,,,,,,,,-1.7,,,,,,,,,,,METAR,58.0
CXSP 060900Z AUTO 09009KT 10/01 RMK AO1 T00960010,CXSP,2023-05-06T09:00:00Z,54.02,-111.27,9.6,1.0,90,9,,,,,,TRUE,TRUE,,,,,,,,,,,,,,,,,,,,,,,,,,,METAR,652.0
CXSL 060900Z AUTO 11006KT 08/M00 RMK AO1 T00831004,CXSL,2023-05-06T09:00:00Z,54.28,-112.5,8.3,-0.4,110,6,,,,,,TRUE,TRUE,,,,,,,,,,,,,,,,,,,,,,,,,,,METAR,680.0
CXSH 060900Z AUTO 32008KT 11/02 RMK AO1 SLP219 T01060015 55000,CXSH,2023-05-06T09:00:00Z,46.55,-72.73,10.6,1.5,320,8,,,,1021.9,,TRUE,TRUE,,,,,,,,,,,,,,,,0.0,,,,,,,,,,,METAR,106.0
CXSE 060900Z AUTO 23016KT M02/M05 RMK AO1 SOG 23 7006 PK WND 22019/0826 SLP223 T10211046,CXSE,2023-05-06T09:00:00Z,73.77,-105.28,-2.1,-4.6,230,16,,,,1022.3,,TRUE,TRUE,,,,,,,,,,,,,,,,,,,,,,,,,,,METAR,11.0
CXSC 060900Z AUTO 09019KT 10/01 RMK AO1 PK WND 09025/0844 T01010005,CXSC,2023-05-06T09:00:00Z,50.3,-110.08,10.1,0.5,90,19,,,,,,TRUE,TRUE,,,,,,,,,,,,,,,,,,,,,,,,,,,METAR,809.0
CXRL 060900Z AUTO 10006KT 09/00 RMK AO1 T00940000,CXRL,2023-05-06T09:00:00Z,54.5,-111.7,9.4,0.0,100,6,,,,,,TRUE,TRUE,,,,,,,,,,,,,,,,,,,,,,,,,,,METAR,585.0
CXRH 060900Z AUTO 04008KT 01/M03 RMK AO1 SLP106 T00081032 55001,CXRH,2023-05-06T09:00:00Z,49.57,-57.88,0.8,-3.2,40,8,,,,1010.6,,TRUE,TRUE,,,,,,,,,,,,,,,,-0.1,,,,,,,,,,,METAR,68.0
CXRB 060900Z AUTO 29001KT M09/M10 RMK AO1 2PAST HR 0001 SLP250 P0001 T10911104 50003,CXRB,2023-05-06T09:00:00Z,74.72,-94.98,-9.1,-10.4,290,1,,,,1025.0,,TRUE,TRUE,,,,,,,,,,,,,,,,0.3,,,,,0.01,,,,,,METAR,30.0
CXPL 060900Z AUTO 08015KT 08/00 RMK AO1 PK WND 08021/0842 T00820000,CXPL,2023-05-06T09:00:00Z,51.13,-111.7,8.2,0.0,80,15,,,,,,TRUE,TRUE,,,,,,,,,,,,,,,,,,,,,,,,,,,METAR,735.0
CXPC 060900Z AUTO 04/03 RMK AO1 SLP276 T00410033 51008,CXPC,2023-05-06T09:00:00Z,45.35,-80.05,4.1,3.3,,,,,,1027.6,,TRUE,TRUE,,,,,,,,,,,,,,,,0.8,,,,,,,,,,,METAR,176.0
CXPA 060900Z AUTO 11012KT 16/M02 RMK AO1 PK WND 11017/0822 T01581018,CXPA,2023-05-06T09:00:00Z,55.62,-118.3,15.8,-1.8,110,12,,,,,,TRUE,TRUE,,,,,,,,,,,,,,,,,,,,,,,,,,,METAR,628.0
CXOY 060900Z AUTO 09010KT 06/01 RMK AO1 PK WND 10017/0825 T00610005,CXOY,2023-05-06T09:00:00Z,51.35,-110.35,6.1,0.5,90,10,,,,,,TRUE,TRUE,,,,,,,,,,,,,,,,,,,,,,,,,,,METAR,784.0
CXOX 060900Z AUTO 04003KT 02/M01 RMK AO1 SLP255 T00221012 54000,CXOX,2023-05-06T09:00:00Z,55.15,-105.27,2.2,-1.2,40,3,,,,1025.5,,TRUE,TRUE,,,,,,,,,,,,,,,,,,,,,,,,,,,METAR,381.0
CXOL 060900Z AUTO 08007KT 03/M02 RMK AO1 T00341023,CXOL,2023-05-06T09:00:00Z,51.77,-114.08,3.4,-2.3,80,7,,,,,,TRUE,TRUE,,,,,,,,,,,,,,,,,,,,,,,,,,,METAR,1026.0
CXNM 060900Z AUTO 26011KT 02/M02 RMK AO1 SOG 53 PK WND 27021/0837 T00171023,CXNM,2023-05-06T09:00:00Z,46.82,-60.67,1.7,-2.3,260,11,,,,,,TRUE,TRUE,,,,,,,,,,,,,,,,,,,,,,,,,,,METAR,452.0
CXMY 060900Z AUTO M02/M03 RMK AO1 T10151028,CXMY,2023-05-06T09:00:00Z,44.98,-62.48,-1.5,-2.8,,,,,,,,TRUE,TRUE,,,,,,,,,,,,,,,,,,,,,,,,,,,METAR,37.0
CXMO 060900Z AUTO 09013KT 06/02 RMK AO1 PK WND 09019/0812 T00560015,CXMO,2023-05-06T09:00:00Z,51.67,-112.68,5.6,1.5,90,13,,,,,,TRUE,TRUE,,,,,,,,,,,,,,,,,,,,,,,,,,,METAR,837.0
CXMM 060900Z AUTO 12008KT 08/M00 RMK AO1 SLP214 T00821002 51010,CXMM,2023-05-06T09:00:00Z,56.65,-111.22,8.2,-0.2,120,8,,,,1021.4,,TRUE,TRUE,,,,,,,,,,,,,,,,1.0,,,,,,,,,,,METAR,372.0
CXMI 060900Z AUTO 29005KT 03/M01 RMK AO1 SLP149 T00331009 56006,CXMI,2023-05-06T09:00:00Z,44.6,-63.53,3.3,-0.9,290,5,,,,1014.9,,TRUE,TRUE,,,,,,,,,,,,,,,,-0.6,,,,,,,,,,,METAR,15.0
CXMG 060900Z AUTO 12006KT 12/01 RMK AO1 T01200006,CXMG,2023-05-06T09:00:00Z,56.97,-117.45,12.0,0.6,120,6,,,,,,TRUE,TRUE,,,,,,,,,,,,,,,,,,,,,,,,,,,METAR,467.0
CXMD 060900Z AUTO 05006KT 08/04 RMK AO1 SLP187 T00800040 50000,CXMD,2023-05-06T09:00:00Z,49.18,-98.08,8.0,4.0,50,6,,,,1018.7,,TRUE,TRUE,,,,,,,,,,,,,,,,0.0,,,,,,,,,,,METAR,297.0
CXLL 060900Z AUTO 02/01 RMK AO1 SLP133 T00220011 57004,CXLL,2023-05-06T09:00:00Z,61.12,-122.85,2.2,1.1,,,,,,1013.3,,TRUE,TRUE,,,,,,,,,,,,,,,,-0.4,,,,,,,,,,,METAR,180.0
CXLB 060900Z AUTO 26003KT 02/M01 RMK AO1 SLP154 T00231011 58010,CXLB,2023-05-06T09:00:00Z,44.37,-64.3,2.3,-1.1,260,3,,,,1015.4,,TRUE,TRUE,,,,,,,,,,,,,,,,-1.0,,,,,,,,,,,METAR,4.0
CXKT 060900Z AUTO 22003KT 03/M01 RMK AO1 SLP150 T00321011 56013,CXKT,2023-05-06T09:00:00Z,45.07,-64.48,3.2,-1.1,220,3,,,,1015.0,,TRUE,TRUE,,,,,,,,,,,,,,,,-1.3,,,,,,,,,,,METAR,48.0
CXKM 060900Z AUTO 09008KT 06/M00 RMK AO1 T00621004,CXKM,2023-05-06T09:00:00Z,52.83,-111.87,6.2,-0.4,90,8,,,,,,TRUE,TRUE,,,,,,,,,,,,,,,,,,,,,,,,,,,METAR,679.0
CXKI 060900Z AUTO 00000KT M02/M02 RMK AO1 SLP275 T10201015 53002,CXKI,2023-05-06T09:00:00Z,48.13,-80.0,-2.0,-1.5,0,0,,,,1027.5,,TRUE,TRUE,,,,,,,,,,,,,,,,0.2,,,,,,,,,,,METAR,328.0
CXKE 060900Z AUTO 28001KT 04/04 RMK AO1 SLP253 T00440040 53005,CXKE,2023-05-06T09:00:00Z,45.0,-75.63,4.4,4.0,280,1,,,,1025.3,,TRUE,TRUE,,,,,,,,,,,,,,,,0.5,,,,,,,,,,,METAR,99.0
CXKA 060900Z AUTO 00000KT 01/M00 RMK AO1 SLP283 T00071003 53006,CXKA,2023-05-06T09:00:00Z,49.4,-82.45,0.7,-0.3,0,0,,,,1028.3,,TRUE,TRUE,,,,,,,,,,,,,,,,0.6,,,,,,,,,,,METAR,221.0
CXIB 060900Z AUTO 25005KT 08/M04 RMK AO1 SLP083 T00841035 58022,CXIB,2023-05-06T09:00:00Z,46.67,-60.4,8.4,-3.5,250,5,,,,1008.3,,TRUE,TRUE,,,,,,,,,,,,,,,,-2.2,,,,,,,,,,,METAR,6.0
CXHR 060900Z AUTO 08011KT 06/M01 RMK AO1 PK WND 07017/0803 T00581009,CXHR,2023-05-06T09:00:00Z,51.18,-112.5,5.8,-0.9,80,11,,,,,,TRUE,TRUE,,,,,,,,,,,,,,,,,,,,,,,,,,,METAR,975.0
CXHP 060900Z AUTO 12006KT 14/M01 RMK AO1 T01361010,CXHP,2023-05-06T09:00:00Z,55.4,-116.48,13.6,-1.0,120,6,,,,,,TRUE,TRUE,,,,,,,,,,,,,,,,,,,,,,,,,,,METAR,601.0
CXHM 060900Z AUTO 00000KT 03/02 RMK AO1 SLP273 T00290018 51010,CXHM,2023-05-06T09:00:00Z,43.28,-79.9,2.9,1.8,0,0,,,,1027.3,,TRUE,TRUE,,,,,,,,,,,,,,,,1.0,,,,,,,,,,,METAR,105.0
CXHD 060900Z AUTO 09010KT 06/M00 RMK AO1 T00641003,CXHD,2023-05-06T09:00:00Z,53.18,-112.25,6.4,-0.3,90,10,,,,,,TRUE,TRUE,,,,,,,,,,,,,,,,,,,,,,,,,,,METAR,688.0
CXHA 060900Z AUTO 12003KT 09/05 RMK AO1 SLP249 T00880051 53004,CXHA,2023-05-06T09:00:00Z,42.03,-82.9,8.8,5.1,120,3,,,,1024.9,,TRUE,TRUE,,,,,,,,,,,,,,,,0.4,,,,,,,,,,,METAR,193.0
CXGH 060900Z AUTO 04005KT 02/01 RMK AO1 SLP226 T00240009 53005,CXGH,2023-05-06T09:00:00Z,50.63,-97.0,2.4,0.9,40,5,,,,1022.6,,TRUE,TRUE,,,,,,,,,,,,,,,,0.5,,,,,,,,,,,METAR,217.0
CXFM 060900Z AUTO 10018KT 11/01 RMK AO1 PK WND 10027/0802 T01050010,CXFM,2023-05-06T09:00:00Z,49.48,-111.48,10.5,1.0,100,18,,,,,,TRUE,TRUE,,,,,,,,,,,,,,,,,,,,,,,,,,,METAR,884.0
CXET 060900Z AUTO 09004KT 04/03 RMK AO1 SLP275 T00360030 51008,CXET,2023-05-06T09:00:00Z,44.23,-79.78,3.6,3.0,90,4,,,,1027.5,,TRUE,TRUE,,,,,,,,,,,,,,,,0.8,,,,,,,,,,,METAR,250.0
CXEC 060900Z AUTO 13014G20KT 10/M00 RMK AO1 PK WND 12020/0842 SLP156 T00951002 50001,CXEC,2023-05-06T09:00:00Z,53.57,-113.52,9.5,-0.2,130,14,20,,,1015.6,,TRUE,TRUE,,,,,,,,,,,,,,,,0.1,,,,,,,,,,,METAR,666.0
CXEA 060900Z AUTO 09003KT 02/ RMK AO1 SLP232 T0021 55000,CXEA,2023-05-06T09:00:00Z,50.63,-93.22,2.1,,90,3,,,,1023.2,,TRUE,TRUE,,,,,,,,,,,,,,,,0.0,,,,,,,,,,,METAR,351.0
CXDW 060900Z AUTO 06006KT 08/05 RMK AO1 SLP193 T00770046 58002,CXDW,2023-05-06T09:00:00Z,49.4,-98.32,7.7,4.6,60,6,,,,1019.3,,TRUE,TRUE,,,,,,,,,,,,,,,,-0.2,,,,,,,,,,,METAR,341.0
CXDK 060900Z AUTO 08/04 RMK AO1 SLP121 T00750036 56006,CXDK,2023-05-06T09:00:00Z,61.27,-124.47,7.5,3.6,,,,,,1012.1,,TRUE,TRUE,,,,,,,,,,,,,,,,-0.6,,,,,,,,,,,METAR,269.0
CXDI 060900Z AUTO 00000KT 04/03 RMK AO1 SLP263 T00410031 53004,CXDI,2023-05-06T09:00:00Z,42.87,-80.55,4.1,3.1,0,0,,,,1026.3,,TRUE,TRUE,,,,,,,,,,,,,,,,0.4,,,,,,,,,,,METAR,234.0
CXDE 060900Z AUTO 11006KT 08/01 RMK AO1 SLP145 T00820009 58013,CXDE,2023-05-06T09:00:00Z,65.22,-123.43,8.2,0.9,110,6,,,,1014.5,,TRUE,TRUE,,,,,,,,,,,,,,,,-1.3,,,,,,,,,,,METAR,208.0
CXDB 060900Z AUTO 29004KT 06/02 RMK AO1 T00640023,CXDB,2023-05-06T09:00:00Z,49.05,-112.82,6.4,2.3,290,4,,,,,,TRUE,TRUE,,,,,,,,,,,,,,,,,,,,,,,,,,,METAR,1311.0
CXCS 060900Z AUTO 10016KT 08/01 RMK AO1 PK WND 10023/0852 T00810012,CXCS,2023-05-06T09:00:00Z,51.93,-110.72,8.1,1.2,100,16,,,,,,TRUE,TRUE,,,,,,,,,,,,,,,,,,,,,,,,,,,METAR,771.0
CXCP 060900Z AUTO 05014KT 08/M01 RMK AO1 PK WND 05020/0840 T00831014,CXCP,2023-05-06T09:00:00Z,50.28,-113.35,8.3,-1.4,50,14,,,,,,TRUE,TRUE,,,,,,,,,,,,,,,,,,,,,,,,,,,METAR,999.0
CXCK 060900Z AUTO 01001KT 02/M01 RMK AO1 SLP097 T00171008 56005,CXCK,2023-05-06T09:00:00Z,62.12,-136.2,1.7,-0.8,10,1,,,,1009.7,,TRUE,TRUE,,,,,,,,,,,,,,,,-0.5,,,,,,,,,,,METAR,526.0
CXCD 060900Z AUTO 08006KT 17/M00 RMK AO1 T01651002,CXCD,2023-05-06T09:00:00Z,56.32,-119.75,16.5,-0.2,80,6,,,,,,TRUE,TRUE,,,,,,,,,,,,,,,,,,,,,,,,,,,METAR,628.0
CXCA 060900Z AUTO 35001KT 03/02 RMK AO1 SLP247 T00290022 56006,CXCA,2023-05-06T09:00:00Z,49.15,-88.35,2.9,2.2,350,1,,,,1024.7,,TRUE,TRUE,,,,,,,,,,,,,,,,-0.6,,,,,,,,,,,METAR,228.0
CXBW 060900Z AUTO 07012KT 09/02 RMK AO1 PK WND 06017/0822 T00860015,CXBW,2023-05-06T09:00:00Z,49.8,-112.3,8.6,1.5,70,12,,,,,,TRUE,TRUE,,,,,,,,,,,,,,,,,,,,,,,,,,,METAR,823.0
CXBR 060900Z AUTO 36014KT RMK AO1 PK WND 01022/0804,CXBR,2023-05-06T09:00:00Z,49.62,-113.82,,,360,14,,,,,,TRUE,TRUE,,,,,,,,,,,,,,,,,,,,,,,,,,,METAR,1137.0
CXBO 060900Z AUTO 18004KT 09/03 RMK AO1 T00940034,CXBO,2023-05-06T09:00:00Z,46.83,-71.2,9.4,3.4,180,4,,,,,,TRUE,TRUE,,,,,,,,,,,,,,,,,,,,,,,,,,,METAR,8.0
CXBK 060900Z AUTO 08010KT 05/02 RMK AO1 SLP179 T00500022 56003,CXBK,2023-05-06T09:00:00Z,50.2,-104.7,5.0,2.2,80,10,,,,1017.9,,TRUE,TRUE,,,,,,,,,,,,,,,,-0.3,,,,,,,,,,,METAR,585.0
CXBI 060900Z AUTO 28001KT 03/03 RMK AO1 SLP281 T00310026 53009,CXBI,2023-05-06T09:00:00Z,44.48,-79.55,3.1,2.6,280,1,,,,1028.1,,TRUE,TRUE,,,,,,,,,,,,,,,,0.9,,,,,,,,,,,METAR,287.0
CXBA 060900Z AUTO 10012KT 08/02 RMK AO1 PK WND 10018/0821 T00770017,CXBA,2023-05-06T09:00:00Z,52.12,-110.1,7.7,1.7,100,12,,,,,,TRUE,TRUE,,,,,,,,,,,,,,,,,,,,,,,,,,,METAR,696.0
CXAT 060900Z AUTO 32002KT M08/M10 RMK AO1 SOG 07 1015 SLP235 T10801102,CXAT,2023-05-06T09:00:00Z,73.0,-85.03,-8.0,-10.2,320,2,,,,1023.5,,TRUE,TRUE,,,,,,,,,,,,,,,,,,,,,,,,,,,METAR,10.0
CXAK 060900Z AUTO 07005KT 05/02 RMK AO1 T00450016,CXAK,2023-05-06T09:00:00Z,52.35,-112.6,4.5,1.6,70,5,,,,,,TRUE,TRUE,,,,,,,,,,,,,,,,,,,,,,,,,,,METAR,799.0
CXAJ 060900Z AUTO 11006KT 08/M00 RMK AO1 T00791004,CXAJ,2023-05-06T09:00:00Z,54.78,-112.82,7.9,-0.4,110,6,,,,,,TRUE,TRUE,,,,,,,,,,,,,,,,,,,,,,,,,,,METAR,586.0
CXAG 060900Z AUTO 10009KT 06/M00 RMK AO1 T00621003 50004,CXAG,2023-05-06T09:00:00Z,53.92,-112.28,6.2,-0.3,100,9,,,,,,TRUE,TRUE,,,,,,,,,,,,,,,,0.4,,,,,,,,,,,METAR,632.0
CXAF 060900Z AUTO 12007KT 07/M01 RMK AO1 T00721011,CXAF,2023-05-06T09:00:00Z,54.28,-112.97,7.2,-1.1,120,7,,,,,,TRUE,TRUE,,,,,,,,,,,,,,,,,,,,,,,,,,,METAR,667.0
CWZW 060900Z AUTO 28003KT 04/04 RMK AO1 2PAST HR 5002 SLP119 P0001 T00390037 50006,CWZW,2023-05-06T09:00:00Z,60.17,-132.73,3.9,3.7,280,3,,,,1011.9,,TRUE,TRUE,,,,,,,,,,,,,,,,0.6,,,,,0.01,,,,,,METAR,683.0
CWZQ 060900Z AUTO 16006KT 03/M00 RMK AO1 SLP125 T00261004 56017,CWZQ,2023-05-06T09:00:00Z,46.53,-61.05,2.6,-0.4,160,6,,,,1012.5,,TRUE,TRUE,,,,,,,,,,,,,,,,-1.7,,,,,,,,,,,METAR,13.0
CWZO 060900Z AUTO 17002KT RMK AO1,CWZO,2023-05-06T09:00:00Z,48.57,-123.25,,,170,2,,,,,,TRUE,TRUE,,,,,,,,,,,,,,,,,,,,,,,,,,,METAR,5.0
CWZN 060900Z AUTO 36010KT 02/M02 RMK AO1 SLP079 T00161016 58004,CWZN,2023-05-06T09:00:00Z,47.37,-55.8,1.6,-1.6,360,10,,,,1007.9,,TRUE,TRUE,,,,,,,,,,,,,,,,-0.4,,,,,,,,,,,METAR,63.0
CWZL 060900Z AUTO 04007KT 08/07 RMK AO1 SLP146 T00800066 53006,CWZL,2023-05-06T09:00:00Z,53.03,-131.6,8.0,6.6,40,7,,,,1014.6,,TRUE,TRUE,,,,,,,,,,,,,,,,0.6,,,,,,,,,,,METAR,17.0
CWZG 060900Z AUTO 05004KT 09/M01 RMK AO1 SLP100 T00871011 58002,CWZG,2023-05-06T09:00:00Z,51.2,-115.55,8.7,-1.1,50,4,,,,1010.0,,TRUE,TRUE,,,,,,,,,,,,,,,,-0.2,,,,,,,,,,,METAR,1402.0
CWZA 060900Z AUTO 13001KT 10/10 RMK AO1 SLP142 T01030098 55001,CWZA,2023-05-06T09:00:00Z,49.25,-121.77,10.3,9.8,130,1,,,,1014.2,,TRUE,TRUE,,,,,,,,,,,,,,,,-0.1,,,,,,,,,,,METAR,18.0
CWYY 060900Z AUTO 12004KT 12/10 RMK AO1 2PAST HR 3003 SLP099 P0001 T01210103 50016,CWYY,2023-05-06T09:00:00Z,49.03,-119.43,12.1,10.3,120,4,,,,1009.9,,TRUE,TRUE,,,,,,,,,,,,,,,,1.6,,,,,0.01,,,,,,METAR,284.0
CWYL 060900Z AUTO 06004KT 06/00 RMK AO1 SLP089 T00570000 57002,CWYL,2023-05-06T09:00:00Z,51.45,-116.33,5.7,0.0,60,4,,,,1008.9,,TRUE,TRUE,,,,,,,,,,,,,,,,-0.2,,,,,,,,,,,METAR,1602.0
CWYJ 060900Z AUTO 24002KT 09/07 RMK AO1 SLP141 T00850071 51001,CWYJ,2023-05-06T09:00:00Z,48.45,-123.3,8.5,7.1,240,2,,,,1014.1,,TRUE,TRUE,,,,,,,,,,,,,,,,0.1,,,,,,,,,,,METAR,59.0
CWXL 060900Z AUTO 10011KT 11/01 RMK AO1 SLP088 T01140006 53001,CWXL,2023-05-06T09:00:00Z,49.73,-111.45,11.4,0.6,100,11,,,,1008.8,,TRUE,TRUE,,,,,,,,,,,,,,,,0.1,,,,,,,,,,,METAR,815.0
CWXI 060900Z AUTO 35010KT 01/M01 RMK AO1 SLP100 T00101012 56004,CWXI,2023-05-06T09:00:00Z,51.02,-57.1,1.0,-1.2,350,10,,,,1010.0,,TRUE,TRUE,,,,,,,,,,,,,,,,-0.4,,,,,,,,,,,METAR,15.0
CWXC 060900Z AUTO 04001KT M02/M02 RMK AO1 SLP205 T10201015 56001,CWXC,2023-05-06T09:00:00Z,48.88,-71.03,-2.0,-1.5,40,1,,,,1020.5,,TRUE,TRUE,,,,,,,,,,,,,,,,-0.1,,,,,,,,,,,METAR,306.0
CWXA 060900Z AUTO 00003KT 09/M02 RMK AO1 SLP134 T00901024 57005,CWXA,2023-05-06T09:00:00Z,51.07,-115.07,9.0,-2.4,0,3,,,,1013.4,,TRUE,TRUE,,,,,,,,,,,,,,,,-0.5,,,,,,,,,,,METAR,1303.0
CWWZ 060900Z AUTO 31002KT 06/06 RMK AO1 SLP271 T00630059 53007,CWWZ,2023-05-06T09:00:00Z,43.25,-79.22,6.3,5.9,310,2,,,,1027.1,,TRUE,TRUE,,,,,,,,,,,,,,,,0.7,,,,,,,,,,,METAR,75.0
CWWS 060900Z AUTO 07013KT 03/01 RMK AO1 SLP246 T00320007 54000,CWWS,2023-05-06T09:00:00Z,52.82,-97.62,3.2,0.7,70,13,,,,1024.6,,TRUE,TRUE,,,,,,,,,,,,,,,,,,,,,,,,,,,METAR,220.0
CWWL 060900Z AUTO 03005KT 07/06 RMK AO1 SLP139 T00730060 53008,CWWL,2023-05-06T09:00:00Z,53.5,-130.63,7.3,6.0,30,5,,,,1013.9,,TRUE,TRUE,,,,,,,,,,,,,,,,0.8,,,,,,,,,,,METAR,8.0
CWWK 060900Z AUTO 00000KT 10/09 RMK AO1 SLP146 T01030090 58001,CWWK,2023-05-06T09:00:00Z,49.02,-122.78,10.3,9.0,0,0,,,,1014.6,,TRUE,TRUE,,,,,,,,,,,,,,,,-0.1,,,,,,,,,,,METAR,10.0
CWWF 060900Z AUTO 09010KT 05/02 RMK AO1 SLP171 T00490017 56003,CWWF,2023-05-06T09:00:00Z,49.7,-103.8,4.9,1.7,90,10,,,,1017.1,,TRUE,TRUE,,,,,,,,,,,,,,,,-0.3,,,,,,,,,,,METAR,583.0
CWWE 060900Z AUTO 00000KT M00/M02 RMK AO1 SLP160 T10031016 58011,CWWE,2023-05-06T09:00:00Z,43.98,-64.67,-0.3,-1.6,0,0,,,,1016.0,,TRUE,TRUE,,,,,,,,,,,,,,,,-1.1,,,,,,,,,,,METAR,4.0
CWWB 060900Z AUTO 25002KT 07/05 RMK AO1 SLP273 T00720046 51009,CWWB,2023-05-06T09:00:00Z,43.3,-79.78,7.2,4.6,250,2,,,,1027.3,,TRUE,TRUE,,,,,,,,,,,,,,,,0.9,,,,,,,,,,,METAR,77.0
CWWA 060900Z AUTO 09002KT 09/08 RMK AO1 SLP140 T00880084 58001,CWWA,2023-05-06T09:00:00Z,49.35,-123.18,8.8,8.4,90,2,,,,1014.0,,TRUE,TRUE,,,,,,,,,,,,,,,,-0.1,,,,,,,,,,,METAR,172.0
CWVU 060900Z AUTO 23005KT 06/04 RMK AO1 SLP160 T00600044 56013,CWVU,2023-05-06T09:00:00Z,44.28,-66.33,6.0,4.4,230,5,,,,1016.0,,TRUE,TRUE,,,,,,,,,,,,,,,,-1.3,,,,,,,,,,,METAR,4.0
CWVT 060900Z AUTO 13004KT 08/01 RMK AO1 SLP254 T00780009 51004,CWVT,2023-05-06T09:00:00Z,55.83,-108.42,7.8,0.9,130,4,,,,1025.4,,TRUE,TRUE,,,,,,,,,,,,,,,,0.4,,,,,,,,,,,METAR,431.0
CWVQ 060900Z AUTO 24004KT 08/05 RMK AO1 SLP236 T00790046 53002,CWVQ,2023-05-06T09:00:00Z,45.42,-73.92,7.9,4.6,240,4,,,,1023.6,,TRUE,TRUE,,,,,,,,,,,,,,,,0.2,,,,,,,,,,,METAR,38.0
CWVP 060900Z AUTO 11010G18KT 06/M00 RMK AO1 PK WND 09019/0804 SLP100 T00611004 56005,CWVP,2023-05-06T09:00:00Z,49.63,-109.52,6.1,-0.4,110,10,18,,,1010.0,,TRUE,TRUE,,,,,,,,,,,,,,,,-0.5,,,,,,,,,,,METAR,1269.0
CWVN 060900Z AUTO 08010G16KT 10/02 RMK AO1 SLP116 T00970020 53005,CWVN,2023-05-06T09:00:00Z,49.07,-107.58,9.7,2.0,80,10,16,,,1011.6,,TRUE,TRUE,,,,,,,,,,,,,,,,0.5,,,,,,,,,,,METAR,792.0
CWVI 060900Z AUTO 10012KT 09/01 RMK AO1 SLP167 T00940010 58004,CWVI,2023-05-06T09:00:00Z,53.52,-112.1,9.4,1.0,100,12,,,,1016.7,,TRUE,TRUE,,,,,,,,,,,,,,,,-0.4,,,,,,,,,,,METAR,640.0
CWVF 060900Z AUTO 13009KT 10/09 RMK AO1 T01010088,CWVF,2023-05-06T09:00:00Z,49.1,-123.3,10.1,8.8,130,9,,,,,,TRUE,TRUE,,,,,,,,,,,,,,,,,,,,,,,,,,,METAR,13.0
CWUX 060900Z AUTO 24002KT 04/M00 RMK AO1 SLP206 T00381004 53002,CWUX,2023-05-06T09:00:00Z,48.3,-70.93,3.8,-0.4,240,2,,,,1020.6,,TRUE,TRUE,,,,,,,,,,,,,,,,0.2,,,,,,,,,,,METAR,150.0
CWUW 060900Z AUTO 36012KT ////SM ////// M08/M09 A2978,CWUW,2023-05-06T09:00:00Z,68.62,-71.12,-8.0,-9.0,360,12,,,29.778543,,,TRUE,,,,,,,,,,,,,,,,,,,,,,,,,,,,METAR,173.0
CWUS 060900Z AUTO 28001KT 12/11 RMK AO1 1PAST HR 1004 SLP094 P0000 T01180110 50015,CWUS,2023-05-06T09:00:00Z,49.57,-119.65,11.8,11.0,280,1,,,,1009.4,,TRUE,TRUE,,,,,,,,,,,,,,,,1.5,,,,,0.005,,,,,,METAR,455.0
CWTY 060900Z AUTO 22003KT 09/03 RMK AO1 SLP219 T00920031 53001,CWTY,2023-05-06T09:00:00Z,46.35,-72.52,9.2,3.1,220,3,,,,1021.9,,TRUE,TRUE,,,,,,,,,,,,,,,,0.1,,,,,,,,,,,METAR,8.0
CWTT 060900Z AUTO 25009KT 10/03 RMK AO1 T00960034,CWTT,2023-05-06T09:00:00Z,45.27,-72.17,9.6,3.4,250,9,,,,,,TRUE,TRUE,,,,,,,,,,,,,,,,,,,,,,,,,,,METAR,210.0
CWTN 060900Z AUTO 35009G15KT 11/02 RMK AO1 SLP191 T01080016 55000,CWTN,2023-05-06T09:00:00Z,47.07,-70.78,10.8,1.6,350,9,15,,,1019.1,,TRUE,TRUE,,,,,,,,,,,,,,,,0.0,,,,,,,,,,,METAR,5.0
CWTG 060900Z AUTO 34005KT 09/M00 RMK AO1 SLP163 T00851002 53012,CWTG,2023-05-06T09:00:00Z,49.32,-67.37,8.5,-0.2,340,5,,,,1016.3,,TRUE,TRUE,,,,,,,,,,,,,,,,1.2,,,,,,,,,,,METAR,6.0
CWTA 060900Z AUTO 29002KT 12/02 RMK AO1 SLP231 T01220021 53002,CWTA,2023-05-06T09:00:00Z,45.5,-73.58,12.2,2.1,290,2,,,,1023.1,,TRUE,TRUE,,,,,,,,,,,,,,,,0.2,,,,,,,,,,,METAR,71.0
CWST 060900Z AUTO 13002KT 04/02 RMK AO1 SLP182 T00390017 56001,CWST,2023-05-06T09:00:00Z,47.35,-70.02,3.9,1.7,130,2,,,,1018.2,,TRUE,TRUE,,,,,,,,,,,,,,,,-0.1,,,,,,,,,,,METAR,31.0
CWSS 060900Z AUTO 26003KT M00/M01 RMK AO1 SLP168 T10031008 56006,CWSS,2023-05-06T09:00:00Z,45.2,-67.25,-0.3,-0.8,260,3,,,,1016.8,,TRUE,TRUE,,,,,,,,,,,,,,,,-0.6,,,,,,,,,,,METAR,27.0
CWSR 060900Z AUTO 10010KT 06/M00 RMK AO1 SLP219 T00591003 50001,CWSR,2023-05-06T09:00:00Z,53.37,-107.55,5.9,-0.3,100,10,,,,1021.9,,TRUE,TRUE,,,,,,,,,,,,,,,,0.1,,,,,,,,,,,METAR,589.0
CWSP 060900Z AUTO 29010KT 09/07 RMK AO1 SLP143 T00860069 58002,CWSP,2023-05-06T09:00:00Z,48.38,-123.92,8.6,6.9,290,10,,,,1014.3,,TRUE,TRUE,,,,,,,,,,,,,,,,-0.2,,,,,,,,,,,METAR,2.0
CWSL 060900Z AUTO 00000KT 13/11 RMK AO1 SLP089 T01280113 51009,CWSL,2023-05-06T09:00:00Z,50.7,-119.28,12.8,11.3,0,0,,,,1008.9,,TRUE,TRUE,,,,,,,,,,,,,,,,0.9,,,,,,,,,,,METAR,353.0
CWSK 060900Z AUTO 00000KT 10/09 RMK AO1 SLP135 T01010092 50001,CWSK,2023-05-06T09:00:00Z,49.78,-123.17,10.1,9.2,0,0,,,,1013.5,,TRUE,TRUE,,,,,,,,,,,,,,,,0.1,,,,,,,,,,,METAR,59.0
CWSG 060900Z AUTO 19005KT 04/01 RMK AO1 SLP166 T00390010 53011,CWSG,2023-05-06T09:00:00Z,49.12,-66.65,3.9,1.0,190,5,,,,1016.6,,TRUE,TRUE,,,,,,,,,,,,,,,,1.1,,,,,,,,,,,METAR,5.0
CWSF 060900Z AUTO 00000KT 07/02 RMK AO1 SLP161 T00690018 53020,CWSF,2023-05-06T09:00:00Z,49.25,-65.32,6.9,1.8,0,0,,,,1016.1,,TRUE,TRUE,,,,,,,,,,,,,,,,2.0,,,,,,,,,,,METAR,15.0
CWSD 060900Z AUTO 24009KT 04/01 RMK AO1 SLP126 T00430012 58022,CWSD,2023-05-06T09:00:00Z,46.43,-63.85,4.3,1.2,240,9,,,,1012.6,,TRUE,TRUE,,,,,,,,,,,,,,,,-2.2,,,,,,,,,,,METAR,12.0
CWSA 060900Z AUTO 30009KT 7SM 04/02 A2991 RMK CLD MISG SLP131,CWSA,2023-05-06T09:00:00Z,43.93,-60.0,4.0,2.0,300,9,,7.0,29.911417,1013.1,,TRUE,,,,,,,,,,,,,,,,,,,,,,,,,,,,METAR,4.0
CWRZ 060900Z AUTO 03017G23KT 07/02 RMK AO1 PK WND 02026/0800 SLP139 T00660019 53022,CWRZ,2023-05-06T09:00:00Z,48.42,-64.32,6.6,1.9,30,17,23,,,1013.9,,TRUE,TRUE,,,,,,,,,,,,,,,,2.2,,,,,,,,,,,METAR,16.0
CWRY 060900Z AUTO 08010KT 08/02 RMK AO1 SLP068 T00810015 50003,CWRY,2023-05-06T09:00:00Z,49.12,-112.05,8.1,1.5,80,10,,,,1006.8,,TRUE,TRUE,,,,,,,,,,,,,,,,0.3,,,,,,,,,,,METAR,1048.0
CWRU 060900Z AUTO 33010KT 07/ RMK AO1 SLP148 T0073 51002,CWRU,2023-05-06T09:00:00Z,50.12,-127.93,7.3,,330,10,,,,1014.8,,TRUE,TRUE,,,,,,,,,,,,,,,,0.2,,,,,,,,,,,METAR,76.0
CWRT 060900Z AUTO 02006KT 09/03 RMK AO1 2PAST HR 3001 SLP092 P0001 T00910032 50004,CWRT,2023-05-06T09:00:00Z,49.62,-114.47,9.1,3.2,20,6,,,,1009.2,,TRUE,TRUE,,,,,,,,,,,,,,,,0.4,,,,,0.01,,,,,,METAR,1311.0
CWRO 060900Z AUTO 29008KT 07/ RMK AO1 SLP142 T0071 53008,CWRO,2023-05-06T09:00:00Z,54.17,-131.67,7.1,,290,8,,,,1014.2,,TRUE,TRUE,,,,,,,,,,,,,,,,0.8,,,,,,,,,,,METAR,7.0
CWRN 060900Z AUTO 27010KT 02/01 RMK AO1 SLP127 T00150005 58009,CWRN,2023-05-06T09:00:00Z,45.35,-60.98,1.5,0.5,270,10,,,,1012.7,,TRUE,TRUE,,,,,,,,,,,,,,,,-0.9,,,,,,,,,,,METAR,8.0
CWRM 060900Z AUTO 11003KT 04/M01 RMK AO1 SLP116 T00421011 50001,CWRM,2023-05-06T09:00:00Z,52.42,-114.92,4.2,-1.1,110,3,,,,1011.6,,TRUE,TRUE,,,,,,,,,,,,,,,,0.1,,,,,,,,,,,METAR,986.0
CWRK 060900Z AUTO 00000KT M01/M01 RMK AO1 SLP274 T10081008 53005,CWRK,2023-05-06T09:00:00Z,45.07,-77.87,-0.8,-0.8,0,0,,,,1027.4,,TRUE,TRUE,,,,,,,,,,,,,,,,0.5,,,,,,,,,,,METAR,328.0
CWRJ 060900Z AUTO 10018KT 10/M00 RMK AO1 PK WND 09023/0845 SLP171 T00961002 50002,CWRJ,2023-05-06T09:00:00Z,51.57,-107.92,9.6,-0.2,100,18,,,,1017.1,,TRUE,TRUE,,,,,,,,,,,,,,,,0.2,,,,,,,,,,,METAR,586.0
CWRA 060900Z AUTO 01/M03 RMK AO1 SLP049 T00081027 58003,CWRA,2023-05-06T09:00:00Z,46.65,-53.07,0.8,-2.7,,,,,,1004.9,,TRUE,TRUE,,,,,,,,,,,,,,,,-0.3,,,,,,,,,,,METAR,4.0
CWQV 060900Z AUTO 28015KT 07/ RMK AO1 PK WND 28020/0835 T0073,CWQV,2023-05-06T09:00:00Z,48.27,-70.12,7.3,,280,15,,,,,,TRUE,TRUE,,,,,,,,,,,,,,,,,,,,,,,,,,,METAR,4.0
CWQS 060900Z AUTO 31012KT 07/03 RMK AO1 SLP141 T00690034 53004,CWQS,2023-05-06T09:00:00Z,53.32,-132.77,6.9,3.4,310,12,,,,1014.1,,TRUE,TRUE,,,,,,,,,,,,,,,,0.4,,,,,,,,,,,METAR,10.0
CWQR 060900Z AUTO 02010KT 05/M02 RMK AO1 PK WND 02019/0805 T00451016,CWQR,2023-05-06T09:00:00Z,50.22,-64.22,4.5,-1.6,20,10,,,,,,TRUE,TRUE,,,,,,,,,,,,,,,,,,,,,,,,,,,METAR,9.0
CWQP 060900Z AUTO 31008KT 07/05 RMK AO1 SLP264 T00740054 53004,CWQP,2023-05-06T09:00:00Z,43.83,-77.15,7.4,5.4,310,8,,,,1026.4,,TRUE,TRUE,,,,,,,,,,,,,,,,0.4,,,,,,,,,,,METAR,77.0
CWQO 060900Z AUTO 23011KT 07/04 RMK AO1 T00700035,CWQO,2023-05-06T09:00:00Z,48.42,-68.9,7.0,3.5,230,11,,,,,,TRUE,TRUE,,,,,,,,,,,,,,,,,,,,,,,,,,,METAR,7.0
CWQK 060900Z AUTO 27012KT 09/08 RMK AO1 SLP142 T00860075 52002,CWQK,2023-05-06T09:00:00Z,48.3,-123.53,8.6,7.5,270,12,,,,1014.2,,TRUE,TRUE,,,,,,,,,,,,,,,,0.2,,,,,,,,,,,METAR,5.0
CWQH 060900Z AUTO 00000KT 03/02 RMK AO1 SLP226 T00330024 53002,CWQH,2023-05-06T09:00:00Z,45.37,-71.82,3.3,2.4,0,0,,,,1022.6,,TRUE,TRUE,,,,,,,,,,,,,,,,0.2,,,,,,,,,,,METAR,181.0
CWPZ 060900Z AUTO 12004KT 09/08 RMK AO1 3026 SLP091 T00860077 50003,CWPZ,2023-05-06T09:00:00Z,54.38,-125.97,8.6,7.7,120,4,,,,1009.1,,TRUE,TRUE,,,,,,,,,,,,,,,,0.3,,,,,,,,,,,METAR,715.0
CWPR 060900Z AUTO 00000KT 08/07 RMK AO1 SLP114 T00770072 50004,CWPR,2023-05-06T09:00:00Z,49.47,-120.52,7.7,7.2,0,0,,,,1011.4,,TRUE,TRUE,,,,,,,,,,,,,,,,0.4,,,,,,,,,,,METAR,703.0
CWPO 060900Z AUTO 08011KT 08/05 RMK AO1 PK WND 08017/0842 SLP193 T00780047 50003,CWPO,2023-05-06T09:00:00Z,49.2,-98.9,7.8,4.7,80,11,,,,1019.3,,TRUE,TRUE,,,,,,,,,,,,,,,,0.3,,,,,,,,,,,METAR,471.0
CWPE 060900Z AUTO 30002KT M00/M00 RMK AO1 SLP159 T10031002 56010,CWPE,2023-05-06T09:00:00Z,45.07,-66.47,-0.3,-0.2,300,2,,,,1015.9,,TRUE,TRUE,,,,,,,,,,,,,,,,-1.0,,,,,,,,,,,METAR,9.0
CWPD 060900Z AUTO 12001KT M03/M03 RMK AO1 SLP208 T10321033 55000,CWPD,2023-05-06T09:00:00Z,47.57,-71.22,-3.2,-3.3,120,1,,,,1020.8,,TRUE,TRUE,,,,,,,,,,,,,,,,0.0,,,,,,,,,,,METAR,795.0
CWOY 060900Z AUTO 09007KT 05/M00 RMK AO1 SLP211 T00511004 58004,CWOY,2023-05-06T09:00:00Z,51.77,-104.2,5.1,-0.4,90,7,,,,1021.1,,TRUE,TRUE,,,,,,,,,,,,,,,,-0.4,,,,,,,,,,,METAR,557.0
CWOE 060900Z AUTO 04015KT 10/02 RMK AO1 PK WND 04022/0802 SLP086 T01000017 53006,CWOE,2023-05-06T09:00:00Z,49.12,-110.47,10.0,1.7,40,15,,,,1008.6,,TRUE,TRUE,,,,,,,,,,,,,,,,0.6,,,,,,,,,,,METAR,931.0
CWOD 060900Z AUTO 29008KT 08/02 RMK AO1 SLP212 T00790017 55000,CWOD,2023-05-06T09:00:00Z,48.85,-72.55,7.9,1.7,290,8,,,,1021.2,,TRUE,TRUE,,,,,,,,,,,,,,,,0.0,,,,,,,,,,,METAR,150.0
CWOC 060900Z AUTO 32006KT 07/M00 RMK AO1 SLP130 T00651004 55005,CWOC,2023-05-06T09:00:00Z,48.02,-65.32,6.5,-0.4,320,6,,,,1013.0,,TRUE,TRUE,,,,,,,,,,,,,,,,-0.5,,,,,,,,,,,METAR,42.0
CWOB 060900Z AUTO 36015G22KT ////SM ////// M04/M07 A2972,CWOB,2023-05-06T09:00:00Z,63.33,-64.15,-4.0,-7.0,360,15,22,,29.719488,,,TRUE,,,,,,,,,,,,,,,,,,,,,,,,,,,,METAR,369.0
CWNZ 060900Z AUTO 29001KT M01/M02 RMK AO1 SLP278 T10131020 51006,CWNZ,2023-05-06T09:00:00Z,49.75,-84.17,-1.3,-2.0,290,1,,,,1027.8,,TRUE,TRUE,,,,,,,,,,,,,,,,0.6,,,,,,,,,,,METAR,261.0
CWNQ 060900Z AUTO 25004KT 11/06 RMK AO1 SLP219 T01080055 55000,CWNQ,2023-05-06T09:00:00Z,46.22,-72.65,10.8,5.5,250,4,,,,1021.9,,TRUE,TRUE,,,,,,,,,,,,,,,,0.0,,,,,,,,,,,METAR,9.0
CWNP 060900Z AUTO 11004KT 11/10 RMK AO1 SLP089 T01130102 51003,CWNP,2023-05-06T09:00:00Z,50.27,-117.82,11.3,10.2,110,4,,,,1008.9,,TRUE,TRUE,,,,,,,,,,,,,,,,0.3,,,,,,,,,,,METAR,517.0
CWNM 060900Z AUTO 19002KT 11/11 RMK AO1 9PAST HR 0000 SLP099 P0004 T01060106 50011,CWNM,2023-05-06T09:00:00Z,49.5,-117.3,10.6,10.6,190,2,,,,1009.9,,TRUE,TRUE,,,,,,,,,,,,,,,,1.1,,,,,0.04,,,,,,METAR,533.0
CWNK 060900Z AUTO 08008KT 09/03 RMK AO1 0001 SLP197 T00900032 50003,CWNK,2023-05-06T09:00:00Z,49.5,-98.03,9.0,3.2,80,8,,,,1019.7,,TRUE,TRUE,,,,,,,,,,,,,,,,0.3,,,,,,,,,,,METAR,271.0
CWNH 060900Z AUTO 20005KT 07/02 RMK AO1 SLP182 T00720023 57004,CWNH,2023-05-06T09:00:00Z,47.8,-69.53,7.2,2.3,200,5,,,,1018.2,,TRUE,TRUE,,,,,,,,,,,,,,,,-0.4,,,,,,,,,,,METAR,147.0
CWNE 060900Z AUTO 23013KT 05/02 RMK AO1 PK WND 22017/0842 SLP124 T00470021 55013,CWNE,2023-05-06T09:00:00Z,47.07,-64.0,4.7,2.1,230,13,,,,1012.4,,TRUE,TRUE,,,,,,,,,,,,,,,,-1.3,,,,,,,,,,,METAR,5.0
CWND 060900Z AUTO 08015KT M08/M09 RMK AO1 PK WND 08019/0822 SLP174 T10771086 56016,CWND,2023-05-06T09:00:00Z,69.63,-135.43,-7.7,-8.6,80,15,,,,1017.4,,TRUE,TRUE,,,,,,,,,,,,,,,,-1.6,,,,,,,,,,,METAR,14.0
CWNC 060900Z AUTO 30003KT 05/03 RMK AO1 SLP265 T00510028 53006,CWNC,2023-05-06T09:00:00Z,43.95,-78.17,5.1,2.8,300,3,,,,1026.5,,TRUE,TRUE,,,,,,,,,,,,,,,,0.6,,,,,,,,,,,METAR,71.0
CWMT 060900Z AUTO 08006KT 07/02 RMK AO1 SLP162 T00690022 58010,CWMT,2023-05-06T09:00:00Z,63.13,-117.25,6.9,2.2,80,6,,,,1016.2,,TRUE,TRUE,,,,,,,,,,,,,,,,-1.0,,,,,,,,,,,METAR,274.0
CWMQ 060900Z AUTO 10008KT 09/02 RMK AO1 PK WND 09017/0824 SLP114 T00940024 51005,CWMQ,2023-05-06T09:00:00Z,49.9,-109.47,9.4,2.4,100,8,,,,1011.4,,TRUE,TRUE,,,,,,,,,,,,,,,,0.5,,,,,,,,,,,METAR,767.0
CWMM 060900Z AUTO 02002KT 10/09 RMK AO1 SLP144 T01040093 58001,CWMM,2023-05-06T09:00:00Z,49.22,-122.68,10.4,9.3,20,2,,,,1014.4,,TRUE,TRUE,,,,,,,,,,,,,,,,-0.1,,,,,,,,,,,METAR,2.0
CWMJ 060900Z AUTO 00000KT 02/02 RMK AO1 SLP259 T00160016 53005,CWMJ,2023-05-06T09:00:00Z,46.27,-76.0,1.6,1.6,0,0,,,,1025.9,,TRUE,TRUE,,,,,,,,,,,,,,,,0.5,,,,,,,,,,,METAR,198.0
CWME 060900Z AUTO 18005KT 08/07 RMK AO1 3007 SLP146 T00790072 50004,CWME,2023-05-06T09:00:00Z,52.18,-127.47,7.9,7.2,180,5,,,,1014.6,,TRUE,TRUE,,,,,,,,,,,,,,,,0.4,,,,,,,,,,,METAR,23.0
CWLY 060900Z AUTO 18010G18KT 9SM OVC046 11/06 A2985 RMK SLP112,CWLY,2023-05-06T09:00:00Z,50.22,-121.58,11.0,6.0,180,10,18,9.0,29.84941,1011.2,,TRUE,,,,,,,,OVC,4600,,,,,,,VFR,,,,,,,,,,,,METAR,228.0
CWLX 060900Z AUTO ///// ////SM ////// M06/M09 A2995,CWLX,2023-05-06T09:00:00Z,68.9,-75.15,-6.0,-9.0,,,,,29.949802,,,TRUE,,,,,,,,,,,,,,,,,,,,,,,,,,,,METAR,129.0
CWLS 060900Z AUTO 09003KT 06/03 RMK AO1 SLP270 T00600029 53004,CWLS,2023-05-06T09:00:00Z,43.97,-80.75,6.0,2.9,90,3,,,,1027.0,,TRUE,TRUE,,,,,,,,,,,,,,,,0.4,,,,,,,,,,,METAR,413.0
CWLP 060900Z AUTO 27008KT 08/06 RMK AO1 SLP154 T00750063 53006,CWLP,2023-05-06T09:00:00Z,50.93,-127.63,7.5,6.3,270,8,,,,1015.4,,TRUE,TRUE,,,,,,,,,,,,,,,,0.6,,,,,,,,,,,METAR,15.0
CWLM 060900Z AUTO 24008KT 09/07 RMK AO1 SLP140 T00870066 51001,CWLM,2023-05-06T09:00:00Z,48.42,-123.32,8.7,6.6,240,8,,,,1014.0,,TRUE,TRUE,,,,,,,,,,,,,,,,0.1,,,,,,,,,,,METAR,62.0
CWLE 060900Z AUTO 09012KT 06/01 RMK AO1 SLP176 T00550008 50001,CWLE,2023-05-06T09:00:00Z,50.95,-107.15,5.5,0.8,90,12,,,,1017.6,,TRUE,TRUE,,,,,,,,,,,,,,,,0.1,,,,,,,,,,,METAR,666.0
CWLC 060900Z AUTO 29007KT 07/06 RMK AO1 T00730056,CWLC,2023-05-06T09:00:00Z,54.3,-130.62,7.3,5.6,290,7,,,,,,TRUE,TRUE,,,,,,,,,,,,,,,,,,,,,,,,,,,METAR,27.0
CWLB 060900Z AUTO 12006KT 10/M00 RMK AO1 SLP195 T00971001 51009,CWLB,2023-05-06T09:00:00Z,54.77,-112.02,9.7,-0.1,120,6,,,,1019.5,,TRUE,TRUE,,,,,,,,,,,,,,,,0.9,,,,,,,,,,,METAR,561.0
CWKX 060900Z AUTO 21008KT 06/04 RMK AO1 1PAST HR 3019 SLP105 P0000 T00570039 50001,CWKX,2023-05-06T09:00:00Z,58.43,-130.02,5.7,3.9,210,8,,,,1010.5,,TRUE,TRUE,,,,,,,,,,,,,,,,0.1,,,,,0.005,,,,,,METAR,807.0
CWKO 060900Z AUTO 12012KT 08/02 RMK AO1 PK WND 10021/0808 SLP147 T00750023 58004,CWKO,2023-05-06T09:00:00Z,49.17,-105.97,7.5,2.3,120,12,,,,1014.7,,TRUE,TRUE,,,,,,,,,,,,,,,,-0.4,,,,,,,,,,,METAR,914.0
CWKM 060900Z AUTO 09025KT ////SM BKN002 BKN190 M07/M08 A3005,CWKM,2023-05-06T09:00:00Z,69.6,-140.17,-7.0,-8.0,90,25,,,30.050198,,,TRUE,,,,,,,,BKN,200,BKN,19000,,,,,,,,,,,,,,,,,METAR,8.0
CWKH 060900Z AUTO 07/04 RMK AO1 SLP129 T00700040 50001,CWKH,2023-05-06T09:00:00Z,48.57,-123.55,7.0,4.0,,,,,,1012.9,,TRUE,TRUE,,,,,,,,,,,,,,,,0.1,,,,,,,,,,,METAR,327.0
CWKG 060900Z AUTO 29001KT M01/M02 RMK AO1 SLP159 T10091022 58014,CWKG,2023-05-06T09:00:00Z,44.43,-65.2,-0.9,-2.2,290,1,,,,1015.9,,TRUE,TRUE,,,,,,,,,,,,,,,,-1.4,,,,,,,,,,,METAR,154.0
CWJX 060900Z AUTO 08013KT 07/M01 RMK AO1 SOG 01 0002 PK WND 08017/0817 SLP136 T00701010,CWJX,2023-05-06T09:00:00Z,50.88,-109.5,7.0,-1.0,80,13,,,,1013.6,,TRUE,TRUE,,,,,,,,,,,,,,,,,,,,,,,,,,,METAR,671.0
CWJW 060900Z AUTO 06004KT 10/M01 RMK AO1 SLP061 T01001012 51006,CWJW,2023-05-06T09:00:00Z,52.93,-118.03,10.0,-1.2,60,4,,,,1006.1,,TRUE,TRUE,,,,,,,,,,,,,,,,0.6,,,,,,,,,,,METAR,1022.0
CWJV 060900Z AUTO 32001KT 12/12 RMK AO1 6PAST HR 0005 SLP088 P0002 T01150119 50006,CWJV,2023-05-06T09:00:00Z,50.22,-119.18,11.5,11.9,320,1,,,,1008.8,,TRUE,TRUE,,,,,,,,,,,,,,,,0.6,,,,,0.02,,,,,,METAR,487.0
CWJU 060900Z AUTO 28008KT 06/04 RMK AO1 SLP146 T00640037 51005,CWJU,2023-05-06T09:00:00Z,54.25,-133.07,6.4,3.7,280,8,,,,1014.6,,TRUE,TRUE,,,,,,,,,,,,,,,,0.5,,,,,,,,,,,METAR,47.0
CWJT 060900Z AUTO 00000KT 01/M00 RMK AO1 SLP249 T00101002 53003,CWJT,2023-05-06T09:00:00Z,46.07,-74.57,1.0,-0.2,0,0,,,,1024.9,,TRUE,TRUE,,,,,,,,,,,,,,,,0.3,,,,,,,,,,,METAR,236.0
CWJR 060900Z AUTO 22003KT 09/09 RMK AO1 2PAST HR 8002 SLP102 P0001 T00930087 50020,CWJR,2023-05-06T09:00:00Z,49.03,-116.5,9.3,8.7,220,3,,,,1010.2,,TRUE,TRUE,,,,,,,,,,,,,,,,2.0,,,,,0.01,,,,,,METAR,642.0
CWJO 060900Z AUTO 00028KT 07/01 RMK AO1 SLP200 T00740012 53001,CWJO,2023-05-06T09:00:00Z,48.43,-71.15,7.4,1.2,0,28,,,,1020.0,,TRUE,TRUE,,,,,,,,,,,,,,,,0.1,,,,,,,,,,,METAR,113.0
CWJI 060900Z AUTO 09011KT 06/02 RMK AO1 SLP157 T00620019 56001,CWJI,2023-05-06T09:00:00Z,49.72,-105.93,6.2,1.9,90,11,,,,1015.7,,TRUE,TRUE,,,,,,,,,,,,,,,,-0.1,,,,,,,,,,,METAR,724.0
CWJH 060900Z AUTO 24001KT M01/M02 RMK AO1 SLP278 T10121023 53003,CWJH,2023-05-06T09:00:00Z,56.32,-103.27,-1.2,-2.3,240,1,,,,1027.8,,TRUE,TRUE,,,,,,,,,,,,,,,,0.3,,,,,,,,,,,METAR,345.0
CWJD 060900Z AUTO 07002KT 02/01 RMK AO1 SLP247 T00240005 58001,CWJD,2023-05-06T09:00:00Z,53.18,-99.27,2.4,0.5,70,2,,,,1024.7,,TRUE,TRUE,,,,,,,,,,,,,,,,-0.1,,,,,,,,,,,METAR,222.0
CWJC 060900Z AUTO 19007KT 05/M00 RMK AO1 SOG 01 0003 SLP288 T00511003,CWJC,2023-05-06T09:00:00Z,61.13,-100.9,5.1,-0.3,190,7,,,,1028.8,,TRUE,TRUE,,,,,,,,,,,,,,,,,,,,,,,,,,,METAR,340.0
CWJB 060900Z AUTO 10/02 RMK AO1 T00950019,CWJB,2023-05-06T09:00:00Z,46.78,-71.28,9.5,1.9,,,,,,,,TRUE,TRUE,,,,,,,,,,,,,,,,,,,,,,,,,,,METAR,90.0
CWIZ 060900Z AUTO 27004KT 08/05 RMK AO1 T00760049,CWIZ,2023-05-06T09:00:00Z,45.28,-73.33,7.6,4.9,270,4,,,,,,TRUE,TRUE,,,,,,,,,,,,,,,,,,,,,,,,,,,METAR,45.0
CWIW 060900Z AUTO 07011KT 05/02 RMK AO1 SLP202 T00500016 58004,CWIW,2023-05-06T09:00:00Z,51.67,-105.4,5.0,1.6,70,11,,,,1020.2,,TRUE,TRUE,,,,,,,,,,,,,,,,-0.4,,,,,,,,,,,METAR,524.0
CWIT 060900Z AUTO 36005KT 08/04 RMK AO1 SLP234 T00830042 53002,CWIT,2023-05-06T09:00:00Z,45.17,-73.67,8.3,4.2,360,5,,,,1023.4,,TRUE,TRUE,,,,,,,,,,,,,,,,0.2,,,,,,,,,,,METAR,53.0
CWIS 060900Z AUTO 36002KT 03/M01 RMK AO1 SOG 32 6004 SLP204 T00251006,CWIS,2023-05-06T09:00:00Z,47.28,-70.63,2.5,-0.6,360,2,,,,1020.4,,TRUE,TRUE,,,,,,,,,,,,,,,,,,,,,,,,,,,METAR,720.0
CWIP 060900Z AUTO 34003KT 09/M00 RMK AO1 T00871002,CWIP,2023-05-06T09:00:00Z,50.17,-66.43,8.7,-0.2,340,3,,,,,,TRUE,TRUE,,,,,,,,,,,,,,,,,,,,,,,,,,,METAR,27.0
CWIL 060900Z AUTO ///// ////SM OVC100 M03/M03 A3046,CWIL,2023-05-06T09:00:00Z,68.32,-100.07,-3.0,-3.0,,,,,30.46063,,,TRUE,,,,,,,,OVC,10000,,,,,,,,,,,,,,,,,,,METAR,28.0
CWIK 060900Z AUTO 08009KT 06/02 RMK AO1 SLP190 T00630016 55005,CWIK,2023-05-06T09:00:00Z,50.37,-102.58,6.3,1.6,80,9,,,,1019.0,,TRUE,TRUE,,,,,,,,,,,,,,,,-0.5,,,,,,,,,,,METAR,597.0
CWIJ 060900Z AUTO 10012KT M01/M02 RMK AO1 SOG 73 6013 PK WND 10017/0802 SLP263 T10141015,CWIJ,2023-05-06T09:00:00Z,65.77,-111.23,-1.4,-1.5,100,12,,,,1026.3,,TRUE,TRUE,,,,,,,,,,,,,,,,,,,,,,,,,,,METAR,490.0
CWII 060900Z AUTO 09008KT 08/03 RMK AO1 SLP224 T00760026 53005,CWII,2023-05-06T09:00:00Z,50.7,-96.57,7.6,2.6,90,8,,,,1022.4,,TRUE,TRUE,,,,,,,,,,,,,,,,0.5,,,,,,,,,,,METAR,216.0
CWIG 060900Z AUTO 19012KT RMK AO1,CWIG,2023-05-06T09:00:00Z,47.07,-70.53,,,190,12,,,,,,TRUE,TRUE,,,,,,,,,,,,,,,,,,,,,,,,,,,METAR,12.0
CWID 060900Z AUTO 00000KT 04/01 RMK AO1 SLP140 T00360011 57004,CWID,2023-05-06T09:00:00Z,61.32,-117.6,3.6,1.1,0,0,,,,1014.0,,TRUE,TRUE,,,,,,,,,,,,,,,,-0.4,,,,,,,,,,,METAR,160.0
CWHV 060900Z AUTO 00000KT 03/02 RMK AO1 SLP202 T00260018 55002,CWHV,2023-05-06T09:00:00Z,46.2,-70.78,2.6,1.8,0,0,,,,1020.2,,TRUE,TRUE,,,,,,,,,,,,,,,,-0.2,,,,,,,,,,,METAR,227.0
CWHT 060900Z AUTO 02001KT M01/M06 RMK AO1 SLP111 T10061064 56001,CWHT,2023-05-06T09:00:00Z,60.77,-137.58,-0.6,-6.4,20,1,,,,1011.1,,TRUE,TRUE,,,,,,,,,,,,,,,,-0.1,,,,,,,,,,,METAR,601.0
CWHQ 060900Z AUTO 31003KT 04/02 RMK AO1 T00360020,CWHQ,2023-05-06T09:00:00Z,46.68,-71.97,3.6,2.0,310,3,,,,,,TRUE,TRUE,,,,,,,,,,,,,,,,,,,,,,,,,,,METAR,56.0
CWHP 060900Z AUTO 03012KT 02/M01 RMK AO1 PK WND 04022/0803 SLP134 T00241008 51019,CWHP,2023-05-06T09:00:00Z,49.08,-61.7,2.4,-0.8,30,12,,,,1013.4,,TRUE,TRUE,,,,,,,,,,,,,,,,1.9,,,,,,,,,,,METAR,7.0
CWHO 060900Z AUTO 00028KT M03/M04 RMK AO1 SLP158 T10311040 57014,CWHO,2023-05-06T09:00:00Z,55.45,-60.22,-3.1,-4.0,0,28,,,,1015.8,,TRUE,TRUE,,,,,,,,,,,,,,,,-1.4,,,,,,,,,,,METAR,16.0
CWHL 060900Z AUTO 33005KT 07/06 RMK AO1 SLP134 T00650055 51008,CWHL,2023-05-06T09:00:00Z,54.17,-130.35,6.5,5.5,330,5,,,,1013.4,,TRUE,TRUE,,,,,,,,,,,,,,,,0.8,,,,,,,,,,,METAR,5.0
CWHI 060900Z AUTO 08013KT 07/M00 RMK AO1 PK WND 09017/0853 T00691002,CWHI,2023-05-06T09:00:00Z,51.7,-113.22,6.9,-0.2,80,13,,,,,,TRUE,TRUE,,,,,,,,,,,,,,,,,,,,,,,,,,,METAR,906.0
CWGY 060900Z AUTO 09012KT 07/01 RMK AO1 PK WND 08017/0819 SLP155 T00730011 50003,CWGY,2023-05-06T09:00:00Z,51.67,-110.2,7.3,1.1,90,12,,,,1015.5,,TRUE,TRUE,,,,,,,,,,,,,,,,0.3,,,,,,,,,,,METAR,709.0
CWGT 060900Z AUTO 08005KT 10/09 RMK AO1 SLP138 T00980088 51001,CWGT,2023-05-06T09:00:00Z,49.48,-124.43,9.8,8.8,80,5,,,,1013.8,,TRUE,TRUE,,,,,,,,,,,,,,,,0.1,,,,,,,,,,,METAR,5.0
CWGR 060900Z AUTO 31011G16KT 04/02 RMK AO1 PK WND 27018/0810 SLP109 T00440016 56008,CWGR,2023-05-06T09:00:00Z,47.42,-61.77,4.4,1.6,310,11,16,,,1010.9,,TRUE,TRUE,,,,,,,,,,,,,,,,-0.8,,,,,,,,,,,METAR,4.0
CWGM 060900Z AUTO 35005KT 09/02 RMK AO1 SLP084 T00890017 53008,CWGM,2023-05-06T09:00:00Z,49.13,-113.8,8.9,1.7,350,5,,,,1008.4,,TRUE,TRUE,,,,,,,,,,,,,,,,0.8,,,,,,,,,,,METAR,1292.0
CWGL 060900Z AUTO 07001KT 05/04 RMK AO1 SLP259 T00510035 53009,CWGL,2023-05-06T09:00:00Z,44.53,-79.22,5.1,3.5,70,1,,,,1025.9,,TRUE,TRUE,,,,,,,,,,,,,,,,0.9,,,,,,,,,,,METAR,220.0
CWGH 060900Z AUTO 22002KT 06/06 RMK AO1 SLP258 T00640057 53007,CWGH,2023-05-06T09:00:00Z,44.42,-75.85,6.4,5.7,220,2,,,,1025.8,,TRUE,TRUE,,,,,,,,,,,,,,,,0.7,,,,,,,,,,,METAR,76.0
CWGD 060900Z AUTO 12006KT 09/04 RMK AO1 SLP259 T00850036 55001,CWGD,2023-05-06T09:00:00Z,43.77,-81.72,8.5,3.6,120,6,,,,1025.9,,TRUE,TRUE,,,,,,,,,,,,,,,,-0.1,,,,,,,,,,,METAR,214.0
CWGB 060900Z AUTO 00000KT 10/ RMK AO1 1002 SLP132 T0101 50004,CWGB,2023-05-06T09:00:00Z,49.35,-124.13,10.1,,0,0,,,,1013.2,,TRUE,TRUE,,,,,,,,,,,,,,,,0.4,,,,,,,,,,,METAR,6.0
CWFQ 060900Z AUTO 19002KT 06/04 RMK AO1 SLP235 T00580043 53002,CWFQ,2023-05-06T09:00:00Z,45.03,-72.85,5.8,4.3,190,2,,,,1023.5,,TRUE,TRUE,,,,,,,,,,,,,,,,0.2,,,,,,,,,,,METAR,190.0
CWFJ 060900Z AUTO 29005KT 07/02 RMK AO1 T00670019,CWFJ,2023-05-06T09:00:00Z,49.2,-113.27,6.7,1.9,290,5,,,,,,TRUE,TRUE,,,,,,,,,,,,,,,,,,,,,,,,,,,METAR,1142.0
CWFF 060900Z AUTO 04004KT 02/M01 RMK AO1 SLP228 T00241013 58002,CWFF,2023-05-06T09:00:00Z,52.82,-104.6,2.4,-1.3,40,4,,,,1022.8,,TRUE,TRUE,,,,,,,,,,,,,,,,-0.2,,,,,,,,,,,METAR,482.0
CWEZ 060900Z AUTO 20007KT 09/08 RMK AO1 SLP136 T00890080 51001,CWEZ,2023-05-06T09:00:00Z,48.78,-123.05,8.9,8.0,200,7,,,,1013.6,,TRUE,TRUE,,,,,,,,,,,,,,,,0.1,,,,,,,,,,,METAR,23.0
CWEW 060900Z AUTO 22003KT 07/03 RMK AO1 SLP234 T00650033 53003,CWEW,2023-05-06T09:00:00Z,45.82,-73.43,6.5,3.3,220,3,,,,1023.4,,TRUE,TRUE,,,,,,,,,,,,,,,,0.3,,,,,,,,,,,METAR,17.0
CWEU 060900Z VRB03KT 15SM FEW200 M17/M19 A3008 RMK CC1 SLP201,CWEU,2023-05-06T09:00:00Z,80.0,-85.93,-17.0,-19.0,0,3,,15.0,30.079725,1020.1,,,,,,,,,,FEW,20000,,,,,,,VFR,,,,,,,,,,,,METAR,2.0
CWER 060900Z AUTO 24006KT RMK AO1,CWER,2023-05-06T09:00:00Z,47.0,-70.82,,,240,6,,,,,,TRUE,TRUE,,,,,,,,,,,,,,,,,,,,,,,,,,,METAR,4.0
CWEQ 060900Z AUTO 02007KT 04/00 RMK AO1 SLP223 T00400000 56006,CWEQ,2023-05-06T09:00:00Z,52.12,-101.22,4.0,0.0,20,7,,,,1022.3,,TRUE,TRUE,,,,,,,,,,,,,,,,-0.6,,,,,,,,,,,METAR,331.0
CWEP 060900Z AUTO 20008KT 02/M01 RMK AO1 SLP119 T00191006 58019,CWEP,2023-05-06T09:00:00Z,46.45,-61.98,1.9,-0.6,200,8,,,,1011.9,,TRUE,TRUE,,,,,,,,,,,,,,,,-1.9,,,,,,,,,,,METAR,9.0
CWEL 060900Z AUTO 13006KT 10/09 RMK AO1 SLP134 T00980089 50002,CWEL,2023-05-06T09:00:00Z,49.22,-123.8,9.8,8.9,130,6,,,,1013.4,,TRUE,TRUE,,,,,,,,,,,,,,,,0.2,,,,,,,,,,,METAR,0.0
CWEH 060900Z AUTO 08014KT 06/03 RMK AO1 2PAST HR 3004 PK WND 10024/0806 SLP109 P0001 T00630031 50002,CWEH,2023-05-06T09:00:00Z,49.43,-108.98,6.3,3.1,80,14,,,,1010.9,,TRUE,TRUE,,,,,,,,,,,,,,,,0.2,,,,,0.01,,,,,,METAR,1077.0
CWEF 060900Z AUTO 28024KT 03/01 RMK AO1 PK WND 26032/0809 SLP080 T00320009 55016,CWEF,2023-05-06T09:00:00Z,47.22,-60.13,3.2,0.9,280,24,,,,1008.0,,TRUE,TRUE,,,,,,,,,,,,,,,,-1.6,,,,,,,,,,,METAR,27.0
CWEB 060900Z AUTO 00035KT 07/07 RMK AO1 SLP154 T00730069 56001,CWEB,2023-05-06T09:00:00Z,49.38,-126.55,7.3,6.9,0,35,,,,1015.4,,TRUE,TRUE,,,,,,,,,,,,,,,,-0.1,,,,,,,,,,,METAR,1.0
CWDZ 060900Z AUTO 11011G18KT 10/01 RMK AO1 PK WND 11019/0846 SLP123 T00980009 51001,CWDZ,2023-05-06T09:00:00Z,51.43,-112.67,9.8,0.9,110,11,18,,,1012.3,,TRUE,TRUE,,,,,,,,,,,,,,,,0.1,,,,,,,,,,,METAR,689.0
CWDV 060900Z AUTO 08006KT 05/04 RMK AO1 SLP225 T00500035 56005,CWDV,2023-05-06T09:00:00Z,49.02,-90.47,5.0,3.5,80,6,,,,1022.5,,TRUE,TRUE,,,,,,,,,,,,,,,,-0.5,,,,,,,,,,,METAR,487.0
CWDQ 060900Z AUTO 09001KT 02/01 RMK AO1 SLP230 T00160006 53002,CWDQ,2023-05-06T09:00:00Z,47.42,-72.78,1.6,0.6,90,1,,,,1023.0,,TRUE,TRUE,,,,,,,,,,,,,,,,0.2,,,,,,,,,,,METAR,174.0
CWDO 060900Z AUTO 34014KT M00/M00 RMK AO1 PK WND 34022/0808 SLP061 T10041004 56008,CWDO,2023-05-06T09:00:00Z,49.68,-54.78,-0.4,-0.4,340,14,,,,1006.1,,TRUE,TRUE,,,,,,,,,,,,,,,,-0.8,,,,,,,,,,,METAR,89.0
CWDM 060900Z AUTO 36009KT 02/M05 RMK AO1 SLP128 T00151051 56009,CWDM,2023-05-06T09:00:00Z,50.47,-59.63,1.5,-5.1,360,9,,,,1012.8,,TRUE,TRUE,,,,,,,,,,,,,,,,-0.9,,,,,,,,,,,METAR,2.0
CWDK 060900Z AUTO 01006KT 08/01 RMK AO1 0002 SLP100 T00790012 50001,CWDK,2023-05-06T09:00:00Z,50.02,-113.62,7.9,1.2,10,6,,,,1010.0,,TRUE,TRUE,,,,,,,,,,,,,,,,0.1,,,,,,,,,,,METAR,1014.0
CWDJ 060900Z AUTO 09012KT 08/01 RMK AO1 PK WND 10019/0827 SLP181 T00810008 55002,CWDJ,2023-05-06T09:00:00Z,50.4,-104.58,8.1,0.8,90,12,,,,1018.1,,TRUE,TRUE,,,,,,,,,,,,,,,,-0.2,,,,,,,,,,,METAR,576.0
CWDC 060900Z AUTO 15004KT 12/M00 RMK AO1 SLP248 T01241002 53014,CWDC,2023-05-06T09:00:00Z,59.57,-108.48,12.4,-0.2,150,4,,,,1024.8,,TRUE,TRUE,,,,,,,,,,,,,,,,1.4,,,,,,,,,,,METAR,311.0
CWDA 060900Z AUTO 00033KT 01/ RMK AO1 T0008,CWDA,2023-05-06T09:00:00Z,50.72,-56.12,0.8,,0,33,,,,,,TRUE,TRUE,,,,,,,,,,,,,,,,,,,,,,,,,,,METAR,30.0
CWCT 060900Z AUTO 10013KT 07/01 RMK AO1 PK WND 10018/0807 SLP160 T00720013 58002,CWCT,2023-05-06T09:00:00Z,52.07,-111.43,7.2,1.3,100,13,,,,1016.0,,TRUE,TRUE,,,,,,,,,,,,,,,,-0.2,,,,,,,,,,,METAR,793.0
CWCO 060900Z AUTO 18002KT 05/04 RMK AO1 SLP270 T00510037 50006,CWCO,2023-05-06T09:00:00Z,44.5,-80.22,5.1,3.7,180,2,,,,1027.0,,TRUE,TRUE,,,,,,,,,,,,,,,,0.6,,,,,,,,,,,METAR,182.0
CWCJ 060900Z AUTO 06005KT 07/06 RMK AO1 1PAST HR 6002 SLP254 P0000 T00650059 50001,CWCJ,2023-05-06T09:00:00Z,48.6,-86.28,6.5,5.9,60,5,,,,1025.4,,TRUE,TRUE,,,,,,,,,,,,,,,,0.1,,,,,0.005,,,,,,METAR,207.0
CWCF 060900Z AUTO 09006KT 09/02 RMK AO1 SLP243 T00910015 51001,CWCF,2023-05-06T09:00:00Z,52.35,-97.03,9.1,1.5,90,6,,,,1024.3,,TRUE,TRUE,,,,,,,,,,,,,,,,0.1,,,,,,,,,,,METAR,219.0
CWBZ 060900Z AUTO 23005KT 06/04 RMK AO1 SLP241 T00610044 53003,CWBZ,2023-05-06T09:00:00Z,45.12,-74.28,6.1,4.4,230,5,,,,1024.1,,TRUE,TRUE,,,,,,,,,,,,,,,,0.3,,,,,,,,,,,METAR,49.0
CWBY 060900Z AUTO 03007KT 05/M04 RMK AO1 SLP160 T00531038 53017,CWBY,2023-05-06T09:00:00Z,49.83,-64.28,5.3,-3.8,30,7,,,,1016.0,,TRUE,TRUE,,,,,,,,,,,,,,,,1.7,,,,,,,,,,,METAR,56.0
CWBV 060900Z AUTO 32009KT 02/M01 RMK AO1 PK WND 33017/0800 SLP131 T00211006 55001,CWBV,2023-05-06T09:00:00Z,44.82,-62.33,2.1,-0.6,320,9,,,,1013.1,,TRUE,TRUE,,,,,,,,,,,,,,,,-0.1,,,,,,,,,,,METAR,16.0
CWBU 060900Z AUTO 05009KT 05/M00 RMK AO1 SLP233 T00531001 58004,CWBU,2023-05-06T09:00:00Z,53.33,-104.02,5.3,-0.1,50,9,,,,1023.3,,TRUE,TRUE,,,,,,,,,,,,,,,,-0.4,,,,,,,,,,,METAR,369.0
CWBT 060900Z AUTO 02002KT 04/M02 RMK AO1 SLP164 T00371022 51018,CWBT,2023-05-06T09:00:00Z,50.27,-64.23,3.7,-2.2,20,2,,,,1016.4,,TRUE,TRUE,,,,,,,,,,,,,,,,1.8,,,,,,,,,,,METAR,12.0
CWBS 060900Z AUTO 24003KT 11/03 RMK AO1 T01120031,CWBS,2023-05-06T09:00:00Z,46.18,-72.92,11.2,3.1,240,3,,,,,,TRUE,TRUE,,,,,,,,,,,,,,,,,,,,,,,,,,,METAR,3.0
CWBO 060900Z AUTO 10010G20KT 10/01 RMK AO1 PK WND 11020/0851 SLP104 T01000011 57002,CWBO,2023-05-06T09:00:00Z,50.53,-111.83,10.0,1.1,100,10,20,,,1010.4,,TRUE,TRUE,,,,,,,,,,,,,,,,-0.2,,,,,,,,,,,METAR,752.0
CWBK 060900Z AUTO 24005KT 03/M02 RMK AO1 SLP135 T00341024 57016,CWBK,2023-05-06T09:00:00Z,45.77,-62.67,3.4,-2.4,240,5,,,,1013.5,,TRUE,TRUE,,,,,,,,,,,,,,,,-1.6,,,,,,,,,,,METAR,2.0
CWBA 060900Z AUTO 17002KT 02/01 RMK AO1 T00160011,CWBA,2023-05-06T09:00:00Z,46.72,-79.1,1.6,1.1,170,2,,,,,,TRUE,TRUE,,,,,,,,,,,,,,,,,,,,,,,,,,,METAR,181.0
CWAV 060900Z AUTO 08006KT 08/M02 RMK AO1 SLP130 T00781019 58004,CWAV,2023-05-06T09:00:00Z,51.77,-114.67,7.8,-1.9,80,6,,,,1013.0,,TRUE,TRUE,,,,,,,,,,,,,,,,-0.4,,,,,,,,,,,METAR,1115.0
CWAR 060900Z AUTO 31013KT 01/M02 RMK AO1 PK WND 31020/0804 SLP066 T00121017 57005,CWAR,2023-05-06T09:00:00Z,47.28,-54.0,1.2,-1.7,310,13,,,,1006.6,,TRUE,TRUE,,,,,,,,,,,,,,,,-0.5,,,,,,,,,,,METAR,6.0
CWAQ 060900Z AUTO 10013G20KT 09/03 RMK AO1 PK WND 10020/0854 SLP148 T00930032 58003,CWAQ,2023-05-06T09:00:00Z,49.05,-105.48,9.3,3.2,100,13,20,,,1014.8,,TRUE,TRUE,,,,,,,,,,,,,,,,-0.3,,,,,,,,,,,METAR,761.0
CWAJ 060900Z AUTO 05010KT RMK AO1 53004,CWAJ,2023-05-06T09:00:00Z,42.25,-81.9,,,50,10,,,,,,TRUE,TRUE,,,,,,,,,,,,,,,,0.4,,,,,,,,,,,METAR,177.0
CWAF 060900Z AUTO 26013G20KT 09/04 RMK AO1 PK WND 29020/0850 T00920036,CWAF,2023-05-06T09:00:00Z,48.07,-69.55,9.2,3.6,260,13,20,,,,,TRUE,TRUE,,,,,,,,,,,,,,,,,,,,,,,,,,,METAR,6.0
CTRA 060900Z AUTO 09005KT 06/03 RMK AO1 SLP220 T00570028 56003,CTRA,2023-05-06T09:00:00Z,49.67,-93.73,5.7,2.8,90,5,,,,1022.0,,TRUE,TRUE,,,,,,,,,,,,,,,,-0.3,,,,,,,,,,,METAR,432.0
CTNK 060900Z AUTO 00000KT M02/M02 RMK AO1 SLP281 T10161020 53005,CTNK,2023-05-06T09:00:00Z,45.53,-78.27,-1.6,-2.0,0,0,,,,1028.1,,TRUE,TRUE,,,,,,,,,,,,,,,,0.5,,,,,,,,,,,METAR,405.0
CTCK 060900Z AUTO 00000KT 04/03 RMK AO1 SLP245 T00410032 53003,CTCK,2023-05-06T09:00:00Z,45.25,-74.97,4.1,3.2,0,0,,,,1024.5,,TRUE,TRUE,,,,,,,,,,,,,,,,0.3,,,,,,,,,,,METAR,84.0
CPSV 060900Z AUTO 07011KT 11/02 RMK AO1 PK WND 05018/0804 T01110017,CPSV,2023-05-06T09:00:00Z,49.92,-110.92,11.1,1.7,70,11,,,,,,TRUE,TRUE,,,,,,,,,,,,,,,,,,,,,,,,,,,METAR,766.0
CPST 060900Z AUTO 09009KT 06/M01 RMK AO1 T00621009,CPST,2023-05-06T09:00:00Z,51.03,-113.28,6.2,-0.9,90,9,,,,,,TRUE,TRUE,,,,,,,,,,,,,,,,,,,,,,,,,,,METAR,1005.0
CPRY 060900Z AUTO 10012KT 11/01 RMK AO1 PK WND 10023/0810 T01090009,CPRY,2023-05-06T09:00:00Z,49.48,-112.68,10.9,0.9,100,12,,,,,,TRUE,TRUE,,,,,,,,,,,,,,,,,,,,,,,,,,,METAR,947.0
CPRO 060900Z AUTO 05010KT 07/01 RMK AO1 T00730008,CPRO,2023-05-06T09:00:00Z,50.83,-112.05,7.3,0.8,50,10,,,,,,TRUE,TRUE,,,,,,,,,,,,,,,,,,,,,,,,,,,METAR,733.0
CPIR 060900Z AUTO 35008KT 05/01 RMK AO1 T00450011,CPIR,2023-05-06T09:00:00Z,49.9,-112.73,4.5,1.1,350,8,,,,,,TRUE,TRUE,,,,,,,,,,,,,,,,,,,,,,,,,,,METAR,895.0
CPIN 060900Z AUTO 15004KT ////SM ////// ///// A////,CPIN,2023-05-06T09:00:00Z,,,,,150,4,,,,,,TRUE,,,,,,,,,,,,,,,,,,,,,,,,,,,,METAR,
CPFI 060900Z AUTO 08010KT 10/01 RMK AO1 T01000011 50008,CPFI,2023-05-06T09:00:00Z,49.8,-112.03,10.0,1.1,80,10,,,,,,TRUE,TRUE,,,,,,,,,,,,,,,,0.8,,,,,,,,,,,METAR,804.0
CPEH 060900Z AUTO 06/M00 RMK AO1 T00611003,CPEH,2023-05-06T09:00:00Z,50.18,-112.43,6.1,-0.3,,,,,,,,TRUE,TRUE,,,,,,,,,,,,,,,,,,,,,,,,,,,METAR,814.0
CPBT 060900Z AUTO 07010KT 11/02 RMK AO1 PK WND 09019/0804 T01050015,CPBT,2023-05-06T09:00:00Z,49.53,-113.05,10.5,1.5,70,10,,,,,,TRUE,TRUE,,,,,,,,,,,,,,,,,,,,,,,,,,,METAR,998.0
CMGB 060900Z AUTO 19002KT 08/05 RMK AO1 SLP234 T00770053 53004,CMGB,2023-05-06T09:00:00Z,45.37,-72.77,7.7,5.3,190,2,,,,1023.4,,TRUE,TRUE,,,,,,,,,,,,,,,,0.4,,,,,,,,,,,METAR,87.0
CMFM 060900Z AUTO 31001KT M02/M03 RMK AO1 SLP216 T10151029 55002,CMFM,2023-05-06T09:00:00Z,47.32,-71.15,-1.5,-2.9,310,1,,,,1021.6,,TRUE,TRUE,,,,,,,,,,,,,,,,-0.2,,,,,,,,,,,METAR,663.0
CERM 060900Z AUTO 31002KT M01/M02 RMK AO1 SLP176 T10121016 58005,CERM,2023-05-06T09:00:00Z,47.42,-68.32,-1.2,-1.6,310,2,,,,1017.6,,TRUE,TRUE,,,,,,,,,,,,,,,,-0.5,,,,,,,,,,,METAR,151.0
CBBC 060900Z AUTO 00000KT 9SM OVC020 07/07 A2997 RMK SLP153,CBBC,2023-05-06T09:00:00Z,52.18,-128.15,7.0,7.0,0,0,,9.0,29.970472,1015.3,,TRUE,,,,,,,,OVC,2000,,,,,,,MVFR,,,,,,,,,,,,METAR,36.0
CAHR 060900Z AUTO 23008KT 05/M02 RMK AO1 SLP122 T00471021 58022,CAHR,2023-05-06T09:00:00Z,46.35,-63.17,4.7,-2.1,230,8,,,,1012.2,,TRUE,TRUE,,,,,,,,,,,,,,,,-2.2,,,,,,,,,,,METAR,52.0
BIVM 060900Z 12015G25KT 9000 FEW009 BKN036 08/06 Q1007,BIVM,2023-05-06T09:00:00Z,63.42,-20.28,8.0,6.0,120,15,25,5.59,29.734253,,,,,,,,,,,FEW,900,BKN,3600,,,,,VFR,,,,,,,,,,,,METAR,93.0
BIRK 060900Z 09008KT 9999 FEW035 SCT095 BKN110 09/03 Q1007,BIRK,2023-05-06T09:00:00Z,64.13,-21.93,9.0,3.0,90,8,,6.21,29.734253,,,,,,,,,,,FEW,3500,SCT,9500,BKN,11000,,,VFR,,,,,,,,,,,,METAR,12.0
BIKF 060900Z 07012KT 9999 SCT032 BKN100 07/04 Q1007,BIKF,2023-05-06T09:00:00Z,63.98,-22.6,7.0,4.0,70,12,,6.21,29.734253,,,,,,,,,,,SCT,3200,BKN,10000,,,,,VFR,,,,,,,,,,,,METAR,49.0
BIIS 060900Z 00000KT 9999 -RA FEW010 OVC015 06/05 Q1009,BIIS,2023-05-06T09:00:00Z,66.05,-23.13,6.0,5.0,0,0,,6.21,29.793306,,,,,,,,,,-RA,FEW,1000,OVC,1500,,,,,MVFR,,,,,,,,,,,,METAR,3.0
BIEG 060900Z 19013KT 9999 FEW021 BKN031 09/04 Q1009,BIEG,2023-05-06T09:00:00Z,65.27,-14.4,9.0,4.0,190,13,,6.21,29.793306,,,,,,,,,,,FEW,2100,BKN,3100,,,,,VFR,,,,,,,,,,,,METAR,20.0
BIAR 060900Z 10003KT CAVOK 08/04 Q1008,BIAR,2023-05-06T09:00:00Z,65.67,-18.07,8.0,4.0,100,3,,6.21,29.763779,,,,,,,,,,,CAVOK,,,,,,,,VFR,,,,,,,,,,,,METAR,1.0
ANYN 060900Z 09004KT 9999 FEW020 28/24 Q1009,ANYN,2023-05-06T09:00:00Z,-0.55,166.92,28.0,24.0,90,4,,6.21,29.793306,,,,,,,,,,,FEW,2000,,,,,,,VFR,,,,,,,,,,,,METAR,7.0
AGGH 060900Z 23003KT 9999 FEW016 FEW017CB SCT028 BKN100 27/26 Q1008,AGGH,2023-05-06T09:00:00Z,-9.42,160.05,27.0,26.0,230,3,,6.21,29.763779,,,,,,,,,,,FEW,1600,FEW,1700,SCT,2800,BKN,10000,VFR,,,,,,,,,,,,METAR,6.0
RODE 060859Z AUTO A2977 RMK AO2 SLPNO 56003 PWINO TSNO $,RODE,2023-05-06T08:59:00Z,26.72,127.77,,,,,,,29.769686,,,TRUE,TRUE,TRUE,,TRUE,,TRUE,,,,,,,,,,,-0.3,,,,,,,,,,,METAR,69.0
MUCF 060859Z AUTO 05006KT 24/23 Q1016,MUCF,2023-05-06T08:59:00Z,22.15,-80.4,24.0,23.0,50,6,,,30.0,,,TRUE,,,,,,,,,,,,,,,,,,,,,,,,,,,,METAR,35.0
MTPP 060859Z AUTO 11013KT 9000 ////// ///// Q//// A//// NOSIG,MTPP,2023-05-06T08:59:00Z,18.57,-72.3,,,110,13,,5.59,,,,TRUE,,,TRUE,,,,,,,,,,,,,,,,,,,,,,,,,METAR,36.0
KPPF 060859Z AUTO 17004KT 7SM OVC009 20/18 A2982 RMK AO2 T02000183,KPPF,2023-05-06T08:59:00Z,37.33,-95.5,20.0,18.3,170,4,,7.0,29.819881,,,TRUE,TRUE,,,,,,,OVC,900,,,,,,,IFR,,,,,,,,,,,,METAR,265.0
KPMH 060859Z AUTO 35003KT 10SM CLR 07/04 A3021 RMK AO2,KPMH,2023-05-06T08:59:00Z,38.83,-82.85,7.0,4.0,350,3,,10.0,30.209646,,,TRUE,TRUE,,,,,,,CLR,,,,,,,,VFR,,,,,,,,,,,,METAR,200.0
KP92 060859Z AUTO VRB04KT 24/24 A2996 RMK AO1 SLP145 T02390239 56009,KP92,2023-05-06T08:59:00Z,29.57,-91.53,23.9,23.9,0,4,,,29.958662,1014.5,,TRUE,TRUE,,,,,,,,,,,,,,,,-0.9,,,,,,,,,,,METAR,1.0
KNGU 060859Z 00000KT 10SM SCT100 BKN120 13/11 A3026 RMK AO2 SLP248 T01280111 53005 $,KNGU,2023-05-06T08:59:00Z,36.93,-76.27,12.8,11.1,0,0,,10.0,30.259842,1024.8,,,TRUE,TRUE,,,,,,SCT,10000,BKN,12000,,,,,VFR,0.5,,,,,,,,,,,SPECI,3.0
K04W 060859Z AUTO 03006KT 10SM OVC033 06/05 A3001 RMK AO2,K04W,2023-05-06T08:59:00Z,46.02,-92.9,6.0,5.0,30,6,,10.0,30.008858,,,TRUE,TRUE,,,,,,,OVC,3300,,,,,,,VFR,,,,,,,,,,,,SPECI,310.0
KPRN 060858Z AUTO 12003KT 10SM OVC049 15/13 A3010 RMK AO2 SLP139 T01500133 56003,KPRN,2023-05-06T08:58:00Z,31.85,-86.62,15.0,13.3,120,3,,10.0,30.100393,1013.9,,TRUE,TRUE,,,,,,,OVC,4900,,,,,,,VFR,-0.3,,,,,,,,,,,SPECI,137.0
KMRH 060858Z AUTO 00000KT 10SM SCT080 13/12 A3022 RMK AO2 SLP235 T01280122 53004,KMRH,2023-05-06T08:58:00Z,34.73,-76.65,12.8,12.2,0,0,,10.0,30.221457,1023.5,,TRUE,TRUE,,,,,,,SCT,8000,,,,,,,VFR,0.4,,,,,,,,,,,METAR,2.0
KMEI 060858Z AUTO 13004KT 8SM OVC006 20/19 A3006 RMK AO2 SLP177 T02000189 55000,KMEI,2023-05-06T08:58:00Z,32.33,-88.75,20.0,18.9,130,4,,8.0,30.059055,1017.7,,TRUE,TRUE,,,,,,,OVC,600,,,,,,,IFR,0.0,,,,,,,,,,,METAR,90.0
KEUF 060858Z AUTO 00000KT 10SM CLR 16/16 A3014 RMK AO2 SLP203 T01610156 55001,KEUF,2023-05-06T08:58:00Z,31.95,-85.13,16.1,15.6,0,0,,10.0,30.138779,1020.3,,TRUE,TRUE,,,,,,,CLR,,,,,,,,VFR,-0.1,,,,,,,,,,,SPECI,87.0
KBKF 060858Z 17009KT 10SM CLR 06/01 A2986 RMK AO2A SLP063 T00610012 58008,KBKF,2023-05-06T08:58:00Z,39.72,-104.75,6.1,1.2,170,9,,10.0,29.861221,1006.3,,,TRUE,,,,,,,CLR,,,,,,,,VFR,-0.8,,,,,,,,,,,SPECI,1703.0
KBCR 060858Z AUTO 05003KT 10SM CLR 16/15 A3011 RMK AO2 SLP152 T01610150 50001,KBCR,2023-05-06T08:58:00Z,30.85,-85.6,16.1,15.0,50,3,,10.0,30.109253,1015.2,,TRUE,TRUE,,,,,,,CLR,,,,,,,,VFR,0.1,,,,,,,,,,,SPECI,26.0
K0J4 060858Z AUTO 06004KT 10SM CLR 18/15 A3011 RMK AO2 SLP194 T01780150 55002,K0J4,2023-05-06T08:58:00Z,31.05,-86.32,17.8,15.0,60,4,,10.0,30.109253,1019.4,,TRUE,TRUE,,,,,,,CLR,,,,,,,,VFR,-0.2,,,,,,,,,,,METAR,96.0
PHNG 060857Z AUTO 08014G21KT BKN025 BKN070 26/20 A3007 RMK AO2 SLP179 T02560200 51004 $,PHNG,2023-05-06T08:57:00Z,21.43,-157.77,25.6,20.0,80,14,21,,30.070866,1017.9,,TRUE,TRUE,TRUE,,,,,,BKN,2500,BKN,7000,,,,,,0.4,,,,,,,,,,,METAR,1.0
PAJC 060857Z AUTO 24018KT 10SM CLR 02/M03 A3001 RMK AO2 SLP162 6//// T00171033 51012 FZRANO PNO $,PAJC,2023-05-06T08:57:00Z,56.32,-158.37,1.7,-3.3,240,18,,10.0,30.008858,1016.2,,TRUE,TRUE,TRUE,,,TRUE,,,CLR,,,,,,,,VFR,1.2,,,,,,,,,,,METAR,10.0
KNYL 060857Z AUTO 32006KT 10SM CLR 17/05 A2994 RMK AO2 SLP136 T01720050 58001,KNYL,2023-05-06T08:57:00Z,32.65,-114.62,17.2,5.0,320,6,,10.0,29.940945,1013.6,,TRUE,TRUE,,,,,,,CLR,,,,,,,,VFR,-0.1,,,,,,,,,,,SPECI,58.0
KNJW 060857Z AUTO 11005KT 10SM OVC004 18/16 A3009 RMK AO2 SLP105 T01780161 53002,KNJW,2023-05-06T08:57:00Z,32.78,-88.82,17.8,16.1,110,5,,10.0,30.088583,1010.5,,TRUE,TRUE,,,,,,,OVC,400,,,,,,,LIFR,0.2,,,,,,,,,,,METAR,165.0
KNJM 060857Z AUTO 04004KT 9SM A3024 RMK AO2 SLP245 53007 $,KNJM,2023-05-06T08:57:00Z,34.68,-77.02,,,40,4,,9.0,30.239174,1024.5,,TRUE,TRUE,TRUE,,,,,,,,,,,,,,,0.7,,,,,,,,,,,SPECI,5.0
KMNM 060857Z AUTO 14006KT 10SM BKN110 08/06 A3012 RMK AO2 SLP220 6//// T00830061 51006 PNO $,KMNM,2023-05-06T08:57:00Z,45.12,-87.63,8.3,6.1,140,6,,10.0,30.121063,1022.0,,TRUE,TRUE,TRUE,,,,,,BKN,11000,,,,,,,VFR,0.6,,,,,,,,,,,METAR,188.0
KFLG 060857Z AUTO 27004KT 10SM CLR 02/M04 A3008 RMK AO2 SLP134 T00221039 58004,KFLG,2023-05-06T08:57:00Z,35.13,-111.67,2.2,-3.9,270,4,,10.0,30.079725,1013.4,,TRUE,TRUE,,,,,,,CLR,,,,,,,,VFR,-0.4,,,,,,,,,,,SPECI,2134.0
TJSJ 060856Z 17003KT 10SM FEW022 25/22 A3000 RMK AO2 SLP157 T02500217 53003,TJSJ,2023-05-06T08:56:00Z,18.43,-66.02,25.0,21.7,170,3,,10.0,30.0,1015.7,,,TRUE,,,,,,,FEW,2200,,,,,,,VFR,0.3,,,,,,,,,,,METAR,3.0
PMDY 060856Z AUTO 9SM BKN013 OVC018 22/21 A3006 RMK AO2 SLP180 T02220211 53015 TSNO $,PMDY,2023-05-06T08:56:00Z,28.22,-177.37,22.2,21.1,,,,9.0,30.059055,1018.0,,TRUE,TRUE,TRUE,,TRUE,,,,BKN,1300,OVC,1800,,,,,MVFR,1.5,,,,,,,,,,,METAR,6.0
PHNY 060856Z AUTO 07006KT 10SM CLR 19/17 A3012 RMK AO2 SLPNO T01890172 50009,PHNY,2023-05-06T08:56:00Z,20.77,-156.95,18.9,17.2,70,6,,10.0,30.121063,,,TRUE,TRUE,,,,,,,CLR,,,,,,,,VFR,0.9,,,,,,,,,,,SPECI,395.0
PFYU 060856Z AUTO 04009KT 10SM CLR 04/M03 A2985 RMK AO2 SLP119 T00391033 401281044 57007,PFYU,2023-05-06T08:56:00Z,66.57,-145.23,3.9,-3.3,40,9,,10.0,29.84941,1011.9,,TRUE,TRUE,,,,,,,CLR,,,,,,,,VFR,-0.7,,,12.8,-4.4,,,,,,,METAR,130.0
PFWS 060856Z AUTO 24006KT 10SM UP BKN019 OVC034 02/01 A2993 RMK AO2 UPE01B17E23B53RAB01E53 SLP178 P0000 60000 T00170011 400670006 51004 FZRANO,PFWS,2023-05-06T08:56:00Z,58.7,-157.0,1.7,1.1,240,6,,10.0,29.929134,1017.8,,TRUE,TRUE,,,,TRUE,,UP,BKN,1900,OVC,3400,,,,,MVFR,0.4,,,6.7,0.6,0.005,0.005,,,,,METAR,40.0
PFSH 060856Z AUTO 01011KT 10SM BKN055 OVC085 00/M02 A2998 RMK AO2 SLP150 T00001017 400221022 51006 FZRANO,PFSH,2023-05-06T08:56:00Z,64.37,-161.22,0.0,-1.7,10,11,,10.0,29.97933,1015.0,,TRUE,TRUE,,,,TRUE,,,BKN,5500,OVC,8500,,,,,VFR,0.6,,,2.2,-2.2,,,,,,,METAR,6.0
PFNO 060856Z AUTO 26005KT 10SM FEW070 M03/M04 A3001 RMK AO2 SLP247 T10281044 400391028 51004 FZRANO $,PFNO,2023-05-06T08:56:00Z,66.82,-161.02,-2.8,-4.4,260,5,,10.0,30.008858,1024.7,,TRUE,TRUE,TRUE,,,TRUE,,,FEW,7000,,,,,,,VFR,0.4,,,3.9,-2.8,,,,,,,METAR,14.0
PFKW 060856Z AUTO 32014G20KT 9SM -SN OVC009 M01/M03 A2997 RMK AO2 SNB13 SLP150 P0000 60000 T10111028 400441011 53010 FZRANO,PFKW,2023-05-06T08:56:00Z,60.8,-161.43,-1.1,-2.8,320,14,20,9.0,29.970472,1015.0,,TRUE,TRUE,,,,TRUE,,-SN,OVC,900,,,,,,,IFR,1.0,,,4.4,-1.1,0.005,0.005,,,,,METAR,4.0
PFKT 060856Z AUTO VRB05KT 10SM M04/M07 A3006 RMK AO2 SLP181 T10441072 410171067 51005 FZRANO $,PFKT,2023-05-06T08:56:00Z,65.33,-166.47,-4.4,-7.2,0,5,,10.0,30.059055,1018.1,,TRUE,TRUE,TRUE,,,TRUE,,,,,,,,,,,,0.5,,,-1.7,-6.7,,,,,,,METAR,8.0
PFEL 060856Z AUTO 32004KT 10SM OVC085 01/M04 A2998 RMK AO2 SLP155 T00061044 400441028 51007 FZRANO,PFEL,2023-05-06T08:56:00Z,64.62,-162.27,0.6,-4.4,320,4,,10.0,29.97933,1015.5,,TRUE,TRUE,,,,TRUE,,,OVC,8500,,,,,,,VFR,0.7,,,4.4,-2.8,,,,,,,METAR,50.0
PFCL 060856Z AUTO 24006KT 10SM FEW049 02/01 A2992 RMK AO2 SLP125 T00170006 400560011 51005 FZRANO TSNO,PFCL,2023-05-06T08:56:00Z,58.83,-158.53,1.7,0.6,240,6,,10.0,29.920275,1012.5,,TRUE,TRUE,,,TRUE,TRUE,,,FEW,4900,,,,,,,VFR,0.5,,,5.6,1.1,,,,,,,METAR,23.0
PAZK 060856Z AUTO 24004KT 10SM CLR M02/M06 A2973 RMK AO2 SLP114 T10171061 400171050 58003 FZRANO,PAZK,2023-05-06T08:56:00Z,61.93,-147.17,-1.7,-6.1,240,4,,10.0,29.731298,1011.4,,TRUE,TRUE,,,,TRUE,,,CLR,,,,,,,,VFR,-0.3,,,1.7,-5.0,,,,,,,METAR,1002.0
PAWS 060856Z AUTO 00000KT 10SM OVC120 04/M01 A2984 RMK AO2 SLP108 T00441006 401220006 52000,PAWS,2023-05-06T08:56:00Z,61.57,-149.53,4.4,-0.6,0,0,,10.0,29.840551,1010.8,,TRUE,TRUE,,,,,,,OVC,12000,,,,,,,VFR,0.0,,,12.2,0.6,,,,,,,METAR,102.0
PAWN 060856Z AUTO 00000KT 10SM CLR M05/M06 RMK AO2 SLPNO T10501056 FZRANO $,PAWN,2023-05-06T08:56:00Z,67.57,-162.98,-5.0,-5.6,0,0,,10.0,,,,TRUE,TRUE,TRUE,,,TRUE,,,CLR,,,,,,,,VFR,,,,,,,,,,,,METAR,26.0
PAWM 060856Z AUTO 01005KT 9SM OVC075 M02/M04 A3000 RMK AO2 SLP164 T10171044 400331044 52009 FZRANO,PAWM,2023-05-06T08:56:00Z,64.68,-163.42,-1.7,-4.4,10,5,,9.0,30.0,1016.4,,TRUE,TRUE,,,,TRUE,,,OVC,7500,,,,,,,VFR,0.9,,,3.3,-4.4,,,,,,,METAR,80.0
PAVD 060856Z AUTO 08003KT CLR 03/00 A2994 RMK AO2 SLP133 T00280000 TSNO $,PAVD,2023-05-06T08:56:00Z,61.13,-146.25,2.8,0.0,80,3,,,29.940945,1013.3,,TRUE,TRUE,TRUE,,TRUE,,,,CLR,,,,,,,,,,,,,,,,,,,,METAR,21.0
PAUN 060856Z AUTO 22013KT 9SM -SN OVC006 M02/M03 A3000 RMK AO2 UPB19E42SNB07E19B27E36B42 SLP162 P0000 60000 T10171028 400281028 51008 FZRANO,PAUN,2023-05-06T08:56:00Z,63.88,-160.8,-1.7,-2.8,220,13,,9.0,30.0,1016.2,,TRUE,TRUE,,,,TRUE,,-SN,OVC,600,,,,,,,IFR,0.8,,,2.8,-2.8,0.005,0.005,,,,,METAR,4.0
PATQ 060856Z AUTO 11008KT 10SM OVC004 M06/M07 A3004 RMK AO2 SLP178 T10611072 410171078 53003 FZRANO TSNO,PATQ,2023-05-06T08:56:00Z,70.47,-157.43,-6.1,-7.2,110,8,,10.0,30.041338,1017.8,,TRUE,TRUE,,,TRUE,TRUE,,,OVC,400,,,,,,,LIFR,0.3,,,-1.7,-7.8,,,,,,,METAR,28.0
PATG 060856Z AUTO 31014KT 10SM OVC036 02/M01 A2994 RMK AO2 SLP137 60000 T00171006 400440000 51003 FZRANO,PATG,2023-05-06T08:56:00Z,59.05,-160.38,1.7,-0.6,310,14,,10.0,29.940945,1013.7,,TRUE,TRUE,,,,TRUE,,,OVC,3600,,,,,,,VFR,0.3,,,4.4,,,0.005,,,,,METAR,1.0
PATE 060856Z AUTO 34006KT 10SM OVC037 M06/M07 A3003 RMK AO2 SLP179 T10561072 410281072 51006 FZRANO,PATE,2023-05-06T08:56:00Z,65.23,-166.33,-5.6,-7.2,340,6,,10.0,30.029528,1017.9,,TRUE,TRUE,,,,TRUE,,,OVC,3700,,,,,,,VFR,0.6,,,-2.8,-7.2,,,,,,,METAR,93.0
PASX 060856Z AUTO 00000KT 10SM CLR 05/M01 A2987 RMK AO2 SLP122 T00501006 401061006 51004,PASX,2023-05-06T08:56:00Z,60.48,-151.05,5.0,-0.6,0,0,,10.0,29.870079,1012.2,,TRUE,TRUE,,,,,,,CLR,,,,,,,,VFR,0.4,,,10.6,-0.6,,,,,,,METAR,28.0
PASM 060856Z AUTO 35012KT 9SM -SN OVC012 M04/M06 A3004 RMK AO2 SLP184 P0000 60000 T10391056 51007 FZRANO,PASM,2023-05-06T08:56:00Z,62.07,-163.3,-3.9,-5.6,350,12,,9.0,30.041338,1018.4,,TRUE,TRUE,,,,TRUE,,-SN,OVC,1200,,,,,,,MVFR,0.7,,,,,0.005,0.005,,,,,METAR,108.0
PASL 060856Z AUTO 00000KT 10SM CLR M01/M01 A2992 RMK AO2 SLP124 T10061006 400781006 51003 FZRANO,PASL,2023-05-06T08:56:00Z,61.68,-157.15,-0.6,-0.6,0,0,,10.0,29.920275,1012.4,,TRUE,TRUE,,,,TRUE,,,CLR,,,,,,,,VFR,0.3,,,7.8,-0.6,,,,,,,METAR,64.0
PASK 060856Z AUTO 24004KT 10SM CLR M05/M07 A3001 RMK AO2 SLP160 T10501067 400221061 53003 FZRANO,PASK,2023-05-06T08:56:00Z,66.6,-160.0,-5.0,-6.7,240,4,,10.0,30.008858,1016.0,,TRUE,TRUE,,,,TRUE,,,CLR,,,,,,,,VFR,0.3,,,2.2,-6.1,,,,,,,METAR,3.0
PARY 060856Z AUTO 25003KT 10SM FEW100 03/M02 A2985 RMK AO2 SLP121 T00331017 56002,PARY,2023-05-06T08:56:00Z,64.73,-155.47,3.3,-1.7,250,3,,10.0,29.84941,1012.1,,TRUE,TRUE,,,,,,,FEW,10000,,,,,,,VFR,-0.2,,,,,,,,,,,METAR,185.0
PARC 060856Z AUTO 34007KT 10SM CLR M04/M09 A2993 RMK AO2 SLP184 T10391094 400221117 58009 FZRANO,PARC,2023-05-06T08:56:00Z,68.12,-145.58,-3.9,-9.4,340,7,,10.0,29.929134,1018.4,,TRUE,TRUE,,,,TRUE,,,CLR,,,,,,,,VFR,-0.9,,,2.2,-11.7,,,,,,,METAR,626.0
PAPN 060856Z AUTO 24010KT 8SM OVC008 02/00 A2996 RMK AO2 SLP146 T00170000 51007 FZRANO,PAPN,2023-05-06T08:56:00Z,57.58,-157.57,1.7,0.0,240,10,,8.0,29.958662,1014.6,,TRUE,TRUE,,,,TRUE,,,OVC,800,,,,,,,IFR,0.7,,,,,,,,,,,METAR,19.0
PAPM 060856Z AUTO 33019KT 10SM OVC012 M01/M02 A3001 RMK AO2 PK WND 33026/0830 SLP165 T10061022 400281006 51010 FZRANO,PAPM,2023-05-06T08:56:00Z,59.02,-161.82,-0.6,-2.2,330,19,,10.0,30.008858,1016.5,,TRUE,TRUE,,,,TRUE,,,OVC,1200,,,,,,,MVFR,1.0,,,2.8,-0.6,,,,,,,METAR,4.0
PAPH 060856Z AUTO 29013KT 10SM OVC010 01/M01 A3002 RMK AO2 SLP167 60000 T00061011 51014 FZRANO,PAPH,2023-05-06T08:56:00Z,56.95,-158.62,0.6,-1.1,290,13,,10.0,30.02067,1016.7,,TRUE,TRUE,,,,TRUE,,,OVC,1000,,,,,,,MVFR,1.4,,,,,,0.005,,,,,METAR,29.0
PAPG 060856Z AUTO 00000KT 10SM CLR 06/05 A2992 RMK AO2 SLP133 T00560050 400720028 53009,PAPG,2023-05-06T08:56:00Z,56.82,-132.93,5.6,5.0,0,0,,10.0,29.920275,1013.3,,TRUE,TRUE,,,,,,,CLR,,,,,,,,VFR,0.9,,,7.2,2.8,,,,,,,METAR,24.0
PAOO 060856Z AUTO OVC019 M03/M06 A3011 RMK AO2 SLP201 T10281056 410061028 51010 PWINO FZRANO TSNO $,PAOO,2023-05-06T08:56:00Z,60.53,-165.08,-2.8,-5.6,,,,,30.109253,1020.1,,TRUE,TRUE,TRUE,,TRUE,TRUE,TRUE,,OVC,1900,,,,,,,,1.0,,,-0.6,-2.8,,,,,,,METAR,15.0
PAOH 060856Z AUTO 00000KT 10SM CLR 02/01 A2989 RMK AO2 SLP122 T00220011 401061022 53010 FZRANO,PAOH,2023-05-06T08:56:00Z,58.1,-135.45,2.2,1.1,0,0,,10.0,29.890747,1012.2,,TRUE,TRUE,,,,TRUE,,,CLR,,,,,,,,VFR,1.0,,,10.6,-2.2,,,,,,,METAR,0.0
PANW 060856Z AUTO 00000KT 10SM OVC060 02/01 A2990 RMK AO2 SLP133 T00220006 400670011 51004 FZRANO,PANW,2023-05-06T08:56:00Z,59.45,-157.32,2.2,0.6,0,0,,10.0,29.899607,1013.3,,TRUE,TRUE,,,,TRUE,,,OVC,6000,,,,,,,VFR,0.4,,,6.7,1.1,,,,,,,METAR,100.0
PANV 060856Z AUTO 31006KT 10SM OVC075 01/M03 A2991 RMK AO2 RAB07E17 SLP220 P0000 60000 T00111028 51008 FZRANO TSNO,PANV,2023-05-06T08:56:00Z,62.65,-160.18,1.1,-2.8,310,6,,10.0,29.911417,1022.0,,TRUE,TRUE,,,TRUE,TRUE,,,OVC,7500,,,,,,,VFR,0.8,,,,,0.005,0.005,,,,,METAR,91.0
PANI 060856Z AUTO 34003KT 10SM SCT038 BKN046 02/M01 A2996 RMK AO2 SLP139 T00221006 51005 FZRANO $,PANI,2023-05-06T08:56:00Z,61.58,-159.53,2.2,-0.6,340,3,,10.0,29.958662,1013.9,,TRUE,TRUE,TRUE,,,TRUE,,,SCT,3800,BKN,4600,,,,,VFR,0.5,,,,,,,,,,,METAR,21.0
PAMO 060856Z AUTO 33014KT 10SM OVC013 M04/M06 A3004 RMK AO2 SLP179 T10391061 51005 FZRANO,PAMO,2023-05-06T08:56:00Z,62.1,-163.68,-3.9,-6.1,330,14,,10.0,30.041338,1017.9,,TRUE,TRUE,,,,TRUE,,,OVC,1300,,,,,,,MVFR,0.5,,,,,,,,,,,METAR,93.0
PAMM 060856Z AUTO 00000KT 10SM BKN016 08/06 A2994 RMK AO2 SLP232 T00780061 53013 $,PAMM,2023-05-06T08:56:00Z,55.13,-131.58,7.8,6.1,0,0,,10.0,29.940945,1023.2,,TRUE,TRUE,TRUE,,,,,,BKN,1600,,,,,,,MVFR,1.3,,,,,,,,,,,METAR,0.0
PAMK 060856Z AUTO 28010KT 10SM OVC007 M03/M04 A3003 RMK AO2 SLP171 T10331044 400171033 51007 FZRANO,PAMK,2023-05-06T08:56:00Z,63.48,-162.12,-3.3,-4.4,280,10,,10.0,30.029528,1017.1,,TRUE,TRUE,,,,TRUE,,,OVC,700,,,,,,,IFR,0.7,,,1.7,-3.3,,,,,,,METAR,31.0
PAMH 060856Z AUTO 00000KT 10SM CLR 04/M06 A2980 RMK AO2 SLP092 T00441061 58004,PAMH,2023-05-06T08:56:00Z,63.9,-152.28,4.4,-6.1,0,0,,10.0,29.799213,1009.2,,TRUE,TRUE,,,,,,,CLR,,,,,,,,VFR,-0.4,,,,,,,,,,,METAR,200.0
PAMB 060856Z AUTO 00000KT 10SM OVC046 01/00 A2992 RMK AO2 SLP134 T00060000 400560000 51005 FZRANO $,PAMB,2023-05-06T08:56:00Z,58.98,-159.05,0.6,0.0,0,0,,10.0,29.920275,1013.4,,TRUE,TRUE,TRUE,,,TRUE,,,OVC,4600,,,,,,,VFR,0.5,,,5.6,,,,,,,,METAR,28.0
PALG 060856Z AUTO 26003KT 10SM OVC075 02/M01 A2992 RMK AO2 SLP135 T00171011 51004 FZRANO,PALG,2023-05-06T08:56:00Z,61.53,-160.33,1.7,-1.1,260,3,,10.0,29.920275,1013.5,,TRUE,TRUE,,,,TRUE,,,OVC,7500,,,,,,,VFR,0.4,,,,,,,,,,,METAR,13.0
PAKP 060856Z AUTO 00000KT 10SM CLR M03/M08 A2991 RMK AO2 SLP174 T10331078 400331128 55000 FZRANO,PAKP,2023-05-06T08:56:00Z,68.13,-151.73,-3.3,-7.8,0,0,,10.0,29.911417,1017.4,,TRUE,TRUE,,,,TRUE,,,CLR,,,,,,,,VFR,0.0,,,3.3,-12.8,,,,,,,METAR,649.0
PAKI 060856Z AUTO 10SM OVC021 M02/M06 A3008 RMK AO2 SLP190 T10221056 400001022 51009 FZRANO $,PAKI,2023-05-06T08:56:00Z,59.93,-164.03,-2.2,-5.6,,,,10.0,30.079725,1019.0,,TRUE,TRUE,TRUE,,,TRUE,,,OVC,2100,,,,,,,MVFR,0.9,,,,-2.2,,,,,,,METAR,4.0
PAKH 060856Z AUTO 10SM -RA OVC006 04/04 A2988 RMK AO2 RAB35 CIG 004V008 SLP119 6//// T00440039 53009 TSNO PNO $,PAKH,2023-05-06T08:56:00Z,56.93,-154.18,4.4,3.9,,,,10.0,29.878937,1011.9,,TRUE,TRUE,TRUE,,TRUE,,,-RA,OVC,600,,,,,,,IFR,0.9,,,,,,,,,,,METAR,15.0
PAIW 060856Z AUTO 12004KT 10SM OVC023 M04/M06 A3007 RMK AO2 SLP185 T10391061 410281106 50005 FZRANO,PAIW,2023-05-06T08:56:00Z,65.62,-168.1,-3.9,-6.1,120,4,,10.0,30.070866,1018.5,,TRUE,TRUE,,,,TRUE,,,OVC,2300,,,,,,,MVFR,0.5,,,-2.8,-10.6,,,,,,,METAR,6.0
PAIN 060856Z AUTO 00000KT 10SM FEW100 01/M05 A2978 RMK AO2 SLP103 T00111050 58001 FZRANO,PAIN,2023-05-06T08:56:00Z,63.73,-148.92,1.1,-5.0,0,0,,10.0,29.778543,1010.3,,TRUE,TRUE,,,,TRUE,,,FEW,10000,,,,,,,VFR,-0.1,,,,,,,,,,,METAR,525.0
PAIK 060856Z AUTO 00000KT 10SM CLR M02/M04 A3003 RMK AO2 SLP170 T10171039 400441022 51007 FZRANO,PAIK,2023-05-06T08:56:00Z,66.98,-160.43,-1.7,-3.9,0,0,,10.0,30.029528,1017.0,,TRUE,TRUE,,,,TRUE,,,CLR,,,,,,,,VFR,0.7,,,4.4,-2.2,,,,,,,METAR,49.0
PAIG 060856Z AUTO 00000KT 10SM OVC080 01/M01 A2989 RMK AO2 SLP130 T00061006 51005 FZRANO $,PAIG,2023-05-06T08:56:00Z,59.32,-155.9,0.6,-0.6,0,0,,10.0,29.890747,1013.0,,TRUE,TRUE,TRUE,,,TRUE,,,OVC,8000,,,,,,,VFR,0.5,,,,,,,,,,,METAR,24.0
PAHY 060856Z AUTO 00000KT 10SM OVC022 07/05 A2994 RMK AO2 SLP135 T00670050 401220044 51012 $,PAHY,2023-05-06T08:56:00Z,55.2,-132.83,6.7,5.0,0,0,,10.0,29.940945,1013.5,,TRUE,TRUE,TRUE,,,,,,OVC,2200,,,,,,,MVFR,1.2,,,12.2,4.4,,,,,,,METAR,0.0
PAHL 060856Z AUTO 30003KT 10SM FEW090 SCT110 02/M01 A2990 RMK AO2 SLP130 T00221006 400781006 58002 FZRANO,PAHL,2023-05-06T08:56:00Z,65.7,-156.35,2.2,-0.6,300,3,,10.0,29.899607,1013.0,,TRUE,TRUE,,,,TRUE,,,FEW,9000,SCT,11000,,,,,VFR,-0.2,,,7.8,-0.6,,,,,,,METAR,49.0
PAHC 060856Z AUTO 33005KT 10SM OVC060 04/M02 A2992 RMK AO2 SLP136 T00391017 53007,PAHC,2023-05-06T08:56:00Z,62.18,-159.78,3.9,-1.7,330,5,,10.0,29.920275,1013.6,,TRUE,TRUE,,,,,,,OVC,6000,,,,,,,VFR,0.7,,,,,,,,,,,METAR,21.0
PAGS 060856Z AUTO 13004KT 10SM BKN055 04/03 A2991 RMK AO2 SLP126 T00440028 400891022 53010,PAGS,2023-05-06T08:56:00Z,58.42,-135.7,4.4,2.8,130,4,,10.0,29.911417,1012.6,,TRUE,TRUE,,,,,,,BKN,5500,,,,,,,VFR,1.0,,,8.9,-2.2,,,,,,,METAR,9.0
PAGN 060856Z AUTO 00000KT 10SM CLR 04/03 A2992 RMK AO2 SLP120 T00390033 400830011 53011,PAGN,2023-05-06T08:56:00Z,57.5,-134.58,3.9,3.3,0,0,,10.0,29.920275,1012.0,,TRUE,TRUE,,,,,,,CLR,,,,,,,,VFR,1.1,,,8.3,1.1,,,,,,,METAR,2.0
PAGL 060856Z AUTO 00000KT 10SM OVC075 M01/M03 A3001 RMK AO2 SLP159 T10111033 51008 FZRANO,PAGL,2023-05-06T08:56:00Z,64.55,-163.0,-1.1,-3.3,0,0,,10.0,30.008858,1015.9,,TRUE,TRUE,,,,TRUE,,,OVC,7500,,,,,,,VFR,0.8,,,,,,,,,,,METAR,20.0
PAFE 060856Z AUTO 07005KT 10SM BKN090 04/03 A2993 RMK AO2 SLP147 T00390028 401000028 53013 $,PAFE,2023-05-06T08:56:00Z,56.97,-133.92,3.9,2.8,70,5,,10.0,29.929134,1014.7,,TRUE,TRUE,TRUE,,,,,,BKN,9000,,,,,,,VFR,1.3,,,10.0,2.8,,,,,,,METAR,1.0
PADU 060856Z AUTO 32008KT 10SM OVC038 02/M06 A3021 RMK AO2 SLP235 60000 T00221056 51014 FZRANO,PADU,2023-05-06T08:56:00Z,53.9,-166.53,2.2,-5.6,320,8,,10.0,30.209646,1023.5,,TRUE,TRUE,,,,TRUE,,,OVC,3800,,,,,,,VFR,1.4,,,,,,0.005,,,,,METAR,4.0
PADM 060856Z AUTO 27011KT 9SM -SN FEW011 OVC022 M02/M04 A3004 RMK AO2 SLP178 P0000 60000 T10221039 51008 FZRANO,PADM,2023-05-06T08:56:00Z,61.87,-162.03,-2.2,-3.9,270,11,,9.0,30.041338,1017.8,,TRUE,TRUE,,,,TRUE,,-SN,FEW,1100,OVC,2200,,,,,MVFR,0.8,,,,,0.005,0.005,,,,,METAR,17.0
PADL 060856Z AUTO 00000KT 10SM FEW026 OVC048 01/01 A2991 RMK AO2 SLP133 T00110006 400560011 51004 FZRANO,PADL,2023-05-06T08:56:00Z,59.05,-158.5,1.1,0.6,0,0,,10.0,29.911417,1013.3,,TRUE,TRUE,,,,TRUE,,,FEW,2600,OVC,4800,,,,,VFR,0.4,,,5.6,1.1,,,,,,,METAR,20.0
PADK 060856Z AUTO 17013KT OVC017 04/02 A3011 RMK AO2 SLP196 T00390022 58008 PWINO $,PADK,2023-05-06T08:56:00Z,51.88,-176.65,3.9,2.2,170,13,,,30.109253,1019.6,,TRUE,TRUE,TRUE,,,,TRUE,,OVC,1700,,,,,,,,-0.8,,,,,,,,,,,METAR,3.0
PACM 060856Z AUTO 29009KT OVC019 M03/M06 A3011 RMK AO2 SLP192 T10281056 400111033 51007 PWINO FZRANO $,PACM,2023-05-06T08:56:00Z,61.85,-165.57,-2.8,-5.6,290,9,,,30.109253,1019.2,,TRUE,TRUE,TRUE,,,TRUE,TRUE,,OVC,1900,,,,,,,,0.7,,,1.1,-3.3,,,,,,,METAR,3.0
PABV 060856Z AUTO 13005KT 10SM OVC070 04/00 A2984 RMK AO2 SLP112 T00440000 401110000 51002,PABV,2023-05-06T08:56:00Z,61.42,-149.52,4.4,0.0,130,5,,10.0,29.840551,1011.2,,TRUE,TRUE,,,,,,,OVC,7000,,,,,,,VFR,0.2,,,11.1,,,,,,,,METAR,21.0
PABL 060856Z AUTO 31013KT 7SM -SN OVC006 M05/M06 A3003 RMK AO2 SNB28 CIG 004V008 SLP170 P0000 60000 T10501056 51006 FZRANO,PABL,2023-05-06T08:56:00Z,65.98,-161.15,-5.0,-5.6,310,13,,7.0,30.029528,1017.0,,TRUE,TRUE,,,,TRUE,,-SN,OVC,600,,,,,,,IFR,0.6,,,,,0.005,0.005,,,,,METAR,7.0
PAAK 060856Z AUTO 14010G16KT 10SM BKN025 OVC030 04/00 A3022 RMK AO2 SLP233 T00440000 50001,PAAK,2023-05-06T08:56:00Z,52.22,-174.2,4.4,0.0,140,10,16,10.0,30.221457,1023.3,,TRUE,TRUE,,,,,,,BKN,2500,OVC,3000,,,,,MVFR,0.1,,,,,,,,,,,METAR,11.0
KYKN 060856Z AUTO 23003KT 3SM RA BR OVC004 14/14 A2984 RMK AO2 RAB13 SLP113 P0005 60005 T01440144 53008,KYKN,2023-05-06T08:56:00Z,42.92,-97.37,14.4,14.4,230,3,,3.0,29.840551,1011.3,,TRUE,TRUE,,,,,,RA BR,OVC,400,,,,,,,LIFR,0.8,,,,,0.05,0.05,,,,,METAR,388.0
KY50 060856Z AUTO 08004KT 10SM -RA FEW055 OVC090 11/10 A3005 RMK AO2 RAB40 SLP173 P0000 6//// T01110100 51002 $,KY50,2023-05-06T08:56:00Z,44.03,-89.3,11.1,10.0,80,4,,10.0,30.050198,1017.3,,TRUE,TRUE,TRUE,,,,,-RA,FEW,5500,OVC,9000,,,,,VFR,0.2,,,,,0.005,,,,,,METAR,261.0
KWWD 060856Z AUTO 00000KT 10SM CLR 07/07 A3028 RMK AO2 SLP255 T00720067 53002 $,KWWD,2023-05-06T08:56:00Z,39.02,-74.92,7.2,6.7,0,0,,10.0,30.280512,1025.5,,TRUE,TRUE,TRUE,,,,,,CLR,,,,,,,,VFR,0.2,,,,,,,,,,,METAR,4.0
KWVL 060856Z AUTO 29004KT 10SM CLR 10/03 A3007 RMK AO2 SLP209 T01000028 56006,KWVL,2023-05-06T08:56:00Z,44.52,-69.67,10.0,2.8,290,4,,10.0,30.070866,1020.9,,TRUE,TRUE,,,,,,,CLR,,,,,,,,VFR,-0.6,,,,,,,,,,,METAR,87.0
KWMC 060856Z AUTO 19004KT 10SM FEW060 OVC075 04/02 A2996 RMK AO2 SLP139 T00390022 55000,KWMC,2023-05-06T08:56:00Z,40.9,-117.8,3.9,2.2,190,4,,10.0,29.958662,1013.9,,TRUE,TRUE,,,,,,,FEW,6000,OVC,7500,,,,,VFR,0.0,,,,,,,,,,,METAR,1311.0
KWJF 060856Z AUTO 24014KT 10SM CLR 10/05 A3004 RMK AO2 SLP168 T01000050 55001,KWJF,2023-05-06T08:56:00Z,34.73,-118.22,10.0,5.0,240,14,,10.0,30.041338,1016.8,,TRUE,TRUE,,,,,,,CLR,,,,,,,,VFR,-0.1,,,,,,,,,,,METAR,712.0
KVPZ 060856Z AUTO 12007KT 10SM CLR 14/06 A3012 RMK AO2 SLP196 T01390061 $,KVPZ,2023-05-06T08:56:00Z,41.45,-87.0,13.9,6.1,120,7,,10.0,30.121063,1019.6,,TRUE,TRUE,TRUE,,,,,,CLR,,,,,,,,VFR,,,,,,,,,,,,METAR,235.0
KVIS 060856Z AUTO 32007KT 10SM CLR 13/08 A3007 RMK AO2 SLP190 T01280083 50004,KVIS,2023-05-06T08:56:00Z,36.32,-119.4,12.8,8.3,320,7,,10.0,30.070866,1019.0,,TRUE,TRUE,,,,,,,CLR,,,,,,,,VFR,0.4,,,,,,,,,,,METAR,92.0
KVBT 060856Z AUTO 13006KT 8SM OVC014 19/18 A2990 RMK AO2 SLP117 T01940183 56007,KVBT,2023-05-06T08:56:00Z,36.35,-94.22,19.4,18.3,130,6,,8.0,29.899607,1011.7,,TRUE,TRUE,,,,,,,OVC,1400,,,,,,,MVFR,-0.7,,,,,,,,,,,METAR,390.0
KUKI 060856Z AUTO 00000KT 9SM -RA FEW040 OVC050 10/09 A3004 RMK AO2 SLP169 P0004 60005 T01000089 56004,KUKI,2023-05-06T08:56:00Z,39.12,-123.2,10.0,8.9,0,0,,9.0,30.041338,1016.9,,TRUE,TRUE,,,,,,-RA,FEW,4000,OVC,5000,,,,,VFR,-0.4,,,,,0.04,0.05,,,,,METAR,183.0
KUDG 060856Z AUTO 00000KT 10SM CLR 13/12 A3023 RMK AO2 SLP236 T01280117 53005,KUDG,2023-05-06T08:56:00Z,34.45,-79.88,12.8,11.7,0,0,,10.0,30.230314,1023.6,,TRUE,TRUE,,,,,,,CLR,,,,,,,,VFR,0.5,,,,,,,,,,,METAR,57.0
KUCP 060856Z AUTO 00000KT 10SM CLR 04/03 A3027 RMK AO2 SLP266 T00440033 53001,KUCP,2023-05-06T08:56:00Z,41.03,-80.42,4.4,3.3,0,0,,10.0,30.268702,1026.6,,TRUE,TRUE,,,,,,,CLR,,,,,,,,VFR,0.1,,,,,,,,,,,METAR,313.0
KTVF 060856Z AUTO 07014KT 10SM CLR 08/06 A3002 RMK AO2 SLP170 T00780061 58004,KTVF,2023-05-06T08:56:00Z,48.07,-96.17,7.8,6.1,70,14,,10.0,30.02067,1017.0,,TRUE,TRUE,,,,,,,CLR,,,,,,,,VFR,-0.4,,,,,,,,,,,METAR,339.0
KTPH 060856Z AUTO A2995 RMK AO2 SLPNO 50000 PWINO $,KTPH,2023-05-06T08:56:00Z,38.05,-117.08,,,,,,,29.949802,,,TRUE,TRUE,TRUE,,,,TRUE,,,,,,,,,,,0.0,,,,,,,,,,,METAR,1647.0
KSXT 060856Z AUTO 18008G17KT 1/4SM FG VV002 02/02 A2994 RMK AO2 SLP141 60002 T00220017 58000,KSXT,2023-05-06T08:56:00Z,42.6,-123.37,2.2,1.7,180,8,17,0.25,29.940945,1014.1,,TRUE,TRUE,,,,,,FG,OVX,0,,,,,,,LIFR,0.0,,,,,,0.02,,,,200,METAR,1151.0
KSUE 060856Z AUTO 18010KT 10SM OVC100 12/07 A3012 RMK AO2 SLP202 60000 T01220067 51011,KSUE,2023-05-06T08:56:00Z,44.85,-87.42,12.2,6.7,180,10,,10.0,30.121063,1020.2,,TRUE,TRUE,,,,,,,OVC,10000,,,,,,,VFR,1.1,,,,,,,,,,,SPECI,215.0
KSRC 060856Z AUTO 06003KT 10SM BKN024 OVC039 18/16 A3000 RMK AO2 SLP155 T01830161 50005,KSRC,2023-05-06T08:56:00Z,35.22,-91.73,18.3,16.1,60,3,,10.0,30.0,1015.5,,TRUE,TRUE,,,,,,,BKN,2400,OVC,3900,,,,,MVFR,0.5,,,,,,,,,,,METAR,80.0
KSQI 060856Z AUTO 11006KT 10SM SCT039 SCT075 BKN090 14/13 A3002 RMK AO2 RAE53 SLP030 P0003 60011 T01440128 56004,KSQI,2023-05-06T08:56:00Z,41.75,-89.67,14.4,12.8,110,6,,10.0,30.02067,1003.0,,TRUE,TRUE,,,,,,,SCT,3900,SCT,7500,BKN,9000,,,VFR,-0.4,,,,,0.03,0.11,,,,,METAR,196.0
KSPD 060856Z AUTO 31009KT 11/M05 A2984 RMK AO1 SLP049 T01111050 53006,KSPD,2023-05-06T08:56:00Z,37.28,-102.62,11.1,-5.0,310,9,,,29.840551,1004.9,,TRUE,TRUE,,,,,,,,,,,,,,,,0.6,,,,,,,,,,,METAR,1340.0
KSOP 060856Z AUTO 00000KT 10SM CLR 09/09 A3023 RMK AO2 SLP241 T00890089 53006,KSOP,2023-05-06T08:56:00Z,35.23,-79.4,8.9,8.9,0,0,,10.0,30.230314,1024.1,,TRUE,TRUE,,,,,,,CLR,,,,,,,,VFR,0.6,,,,,,,,,,,METAR,135.0
KSMP 060856Z AUTO 1/4SM FG VV002 02/02 A2989 RMK AO2 SLP137 T00220017 55002,KSMP,2023-05-06T08:56:00Z,47.28,-121.33,2.2,1.7,,,,0.25,29.890747,1013.7,,TRUE,TRUE,,,,,,FG,OVX,0,,,,,,,LIFR,-0.2,,,,,,,,,,200,METAR,1206.0
KSMN 060856Z AUTO 27006KT 10SM OVC095 10/00 A2982 RMK AO2 SLP798 T01000000 51004,KSMN,2023-05-06T08:56:00Z,45.12,-113.87,10.0,0.0,270,6,,10.0,29.819881,979.8,,TRUE,TRUE,,,,,,,OVC,9500,,,,,,,VFR,0.4,,,,,,,,,,,METAR,1228.0
KSLK 060856Z AUTO 00000KT 1/4SM FZFG VV001 M02/M02 A3026 RMK AO2 T10171022,KSLK,2023-05-06T08:56:00Z,44.4,-74.2,-1.7,-2.2,0,0,,0.25,30.259842,,,TRUE,TRUE,,,,,,FZFG,OVX,0,,,,,,,LIFR,,,,,,,,,,,100,METAR,502.0
KSLG 060856Z AUTO 12004KT 6SM BR OVC013 20/20 A2987 RMK AO2 SLP104 T02000200 58009,KSLG,2023-05-06T08:56:00Z,36.2,-94.48,20.0,20.0,120,4,,6.0,29.870079,1010.4,,TRUE,TRUE,,,,,,BR,OVC,1300,,,,,,,MVFR,-0.9,,,,,,,,,,,METAR,361.0
KSLE 060856Z AUTO 00000KT 10SM OVC060 10/08 A2997 RMK AO2 SLP148 T01000083 58002,KSLE,2023-05-06T08:56:00Z,44.9,-123.0,10.0,8.3,0,0,,10.0,29.970472,1014.8,,TRUE,TRUE,,,,,,,OVC,6000,,,,,,,VFR,-0.2,,,,,,,,,,,METAR,63.0
KSKX 060856Z AUTO 25012KT 10SM CLR 07/M11 A3009 RMK AO2 SLP138 T00721106 50004,KSKX,2023-05-06T08:56:00Z,36.45,-105.67,7.2,-10.6,250,12,,10.0,30.088583,1013.8,,TRUE,TRUE,,,,,,,CLR,,,,,,,,VFR,0.4,,,,,,,,,,,METAR,2163.0
KSHV 060856Z 19006KT 7SM BKN015 OVC022 24/22 A2990 RMK SLPNO,KSHV,2023-05-06T08:56:00Z,32.45,-93.83,24.0,22.0,190,6,,7.0,29.899607,,,,,,,,,,,BKN,1500,OVC,2200,,,,,MVFR,,,,,,,,,,,,METAR,70.0
KSGU 060856Z AUTO 12008KT 10SM FEW095 11/M02 A2996 RMK AO2 SLP130 T01111022 50004,KSGU,2023-05-06T08:56:00Z,37.03,-113.52,11.1,-2.2,120,8,,10.0,29.958662,1013.0,,TRUE,TRUE,,,,,,,FEW,9500,,,,,,,VFR,0.4,,,,,,,,,,,METAR,877.0
KSGT 060856Z AUTO 13007KT 10SM OVC026 19/17 A2999 RMK AO2 SLP154 T01890167 53000,KSGT,2023-05-06T08:56:00Z,34.6,-91.57,18.9,16.7,130,7,,10.0,29.991142,1015.4,,TRUE,TRUE,,,,,,,OVC,2600,,,,,,,MVFR,0.0,,,,,,,,,,,METAR,67.0
KSGJ 060856Z AUTO 31004KT 10SM 21/18 A3011 RMK AO2 SLP197 T02110183 56006 $,KSGJ,2023-05-06T08:56:00Z,29.97,-81.33,21.1,18.3,310,4,,10.0,30.109253,1019.7,,TRUE,TRUE,TRUE,,,,,,,,,,,,,,,-0.6,,,,,,,,,,,METAR,2.0
KSGH 060856Z AUTO 11007KT 10SM CLR 08/04 A3020 RMK AO2 SLP228 T00830044 53007,KSGH,2023-05-06T08:56:00Z,39.83,-83.83,8.3,4.4,110,7,,10.0,30.200787,1022.8,,TRUE,TRUE,,,,,,,CLR,,,,,,,,VFR,0.7,,,,,,,,,,,METAR,318.0
KSFZ 060856Z AUTO 31005KT 10SM CLR 08/05 A3018 RMK AO2 SLP222 6//// T00780050 53001,KSFZ,2023-05-06T08:56:00Z,41.92,-71.5,7.8,5.0,310,5,,10.0,30.180119,1022.2,,TRUE,TRUE,,,,,,,CLR,,,,,,,,VFR,0.1,,,,,,,,,,,METAR,129.0
KSFO 060856Z 00000KT 10SM FEW040 BKN060 OVC095 13/09 A3007 RMK AO2 SLP182 60000 T01280089 58007,KSFO,2023-05-06T08:56:00Z,37.62,-122.37,12.8,8.9,0,0,,10.0,30.070866,1018.2,,,TRUE,,,,,,,FEW,4000,BKN,6000,OVC,9500,,,VFR,-0.7,,,,,,,,,,,SPECI,2.0
KSFM 060856Z AUTO 33003KT 10SM CLR 08/03 A3014 RMK AO2 SLP211 T00830028 57002,KSFM,2023-05-06T08:56:00Z,43.38,-70.72,8.3,2.8,330,3,,10.0,30.138779,1021.1,,TRUE,TRUE,,,,,,,CLR,,,,,,,,VFR,-0.2,,,,,,,,,,,METAR,70.0
KSDY 060856Z AUTO 06008KT 10SM FEW120 11/02 A2990 RMK AO2 SLP125 T01060022 55004,KSDY,2023-05-06T08:56:00Z,47.7,-104.2,10.6,2.2,60,8,,10.0,29.899607,1012.5,,TRUE,TRUE,,,,,,,FEW,12000,,,,,,,VFR,-0.4,,,,,,,,,,,SPECI,600.0
KSDF 060856Z 11005KT 10SM OVC100 17/09 A3014 RMK AO2 SLP203 T01670094 53005,KSDF,2023-05-06T08:56:00Z,38.18,-85.73,16.7,9.4,110,5,,10.0,30.138779,1020.3,,,TRUE,,,,,,,OVC,10000,,,,,,,VFR,0.5,,,,,,,,,,,METAR,146.0
KSBP 060856Z 12003KT 10SM CLR 08/06 A3011 RMK AO2 SLP195 T00830061 50000,KSBP,2023-05-06T08:56:00Z,35.23,-120.63,8.3,6.1,120,3,,10.0,30.109253,1019.5,,,TRUE,,,,,,,CLR,,,,,,,,VFR,0.0,,,,,,,,,,,METAR,52.0
KRUT 060856Z AUTO 15005KT 10SM CLR 02/02 A3026 RMK AO2 SLP244 T00220022 53003 FZRANO $,KRUT,2023-05-06T08:56:00Z,43.53,-72.95,2.2,2.2,150,5,,10.0,30.259842,1024.4,,TRUE,TRUE,TRUE,,,TRUE,,,CLR,,,,,,,,VFR,0.3,,,,,,,,,,,SPECI,238.0
KRKD 060856Z AUTO 28007KT 10SM CLR 06/03 A3008 RMK AO2 SLP186 T00610028 58003,KRKD,2023-05-06T08:56:00Z,44.07,-69.1,6.1,2.8,280,7,,10.0,30.079725,1018.6,,TRUE,TRUE,,,,,,,CLR,,,,,,,,VFR,-0.3,,,,,,,,,,,METAR,15.0
KRDM 060856Z AUTO 00000KT 10SM OVC044 04/02 A2993 RMK AO2 SLP133 T00440017 58001,KRDM,2023-05-06T08:56:00Z,44.25,-121.15,4.4,1.7,0,0,,10.0,29.929134,1013.3,,TRUE,TRUE,,,,,,,OVC,4400,,,,,,,VFR,-0.1,,,,,,,,,,,SPECI,930.0
KPWT 060856Z AUTO 22003KT 8SM OVC004 08/08 A2996 RMK AO2 CIG 002V006 SLP150 60000 T00780078 58001,KPWT,2023-05-06T08:56:00Z,47.5,-122.77,7.8,7.8,220,3,,8.0,29.958662,1015.0,,TRUE,TRUE,,,,,,,OVC,400,,,,,,,LIFR,-0.1,,,,,,,,,,,SPECI,143.0
KPWG 060856Z AUTO 20006KT 10SM CLR 20/16 A2987 RMK AO2 SLP107 T02000161 53011,KPWG,2023-05-06T08:56:00Z,31.48,-97.32,20.0,16.1,200,6,,10.0,29.870079,1010.7,,TRUE,TRUE,,,,,,,CLR,,,,,,,,VFR,1.1,,,,,,,,,,,SPECI,178.0
KPVU 060856Z AUTO 08004KT 10SM SCT055 OVC085 07/03 A3000 RMK AO2 SLP143 T00670028 51001,KPVU,2023-05-06T08:56:00Z,40.22,-111.72,6.7,2.8,80,4,,10.0,30.0,1014.3,,TRUE,TRUE,,,,,,,SCT,5500,OVC,8500,,,,,VFR,0.1,,,,,,,,,,,SPECI,1370.0
KPVG 060856Z AUTO 10SM OVC085 09/09 A3026 RMK AO2 SLP248 T00890089 53003 $,KPVG,2023-05-06T08:56:00Z,36.78,-76.45,8.9,8.9,,,,10.0,30.259842,1024.8,,TRUE,TRUE,TRUE,,,,,,OVC,8500,,,,,,,VFR,0.3,,,,,,,,,,,METAR,7.0
KPVC 060856Z AUTO 29007KT 10SM FEW080 09/07 A3015 RMK AO2 SLP209 T00940072 55000,KPVC,2023-05-06T08:56:00Z,42.07,-70.22,9.4,7.2,290,7,,10.0,30.15059,1020.9,,TRUE,TRUE,,,,,,,FEW,8000,,,,,,,VFR,0.0,,,,,,,,,,,METAR,1.0
KPTV 060856Z AUTO 21003KT 10SM BKN060 11/08 A3007 RMK AO2 SLP184 T01060083 50006,KPTV,2023-05-06T08:56:00Z,36.02,-119.07,10.6,8.3,210,3,,10.0,30.070866,1018.4,,TRUE,TRUE,,,,,,,BKN,6000,,,,,,,VFR,0.6,,,,,,,,,,,SPECI,132.0
KPQI 060856Z AUTO 00000KT 10SM CLR M01/M01 A3003 RMK AO2 SLP196 T10061006 56005,KPQI,2023-05-06T08:56:00Z,46.68,-68.05,-0.6,-0.6,0,0,,10.0,30.029528,1019.6,,TRUE,TRUE,,,,,,,CLR,,,,,,,,VFR,-0.5,,,,,,,,,,,METAR,154.0
KP60 060856Z AUTO 00000KT M04/M05 A2994 RMK AO1 SLP133 T10391050 58001 $,KP60,2023-05-06T08:56:00Z,44.55,-110.42,-3.9,-5.0,0,0,,,29.940945,1013.3,,TRUE,TRUE,TRUE,,,,,,,,,,,,,,,-0.1,,,,,,,,,,,SPECI,2377.0
KP53 060856Z AUTO 33004KT 07/06 A3016 RMK AO1 SLP218 P0007 60014 T00670056 58001,KP53,2023-05-06T08:56:00Z,46.42,-86.65,6.7,5.6,330,4,,,30.159449,1021.8,,TRUE,TRUE,,,,,,,,,,,,,,,,-0.1,,,,,0.07,0.14,,,,,METAR,185.0
KP28 060856Z AUTO 15005KT 17/16 A2970 RMK AO1 SLP045 T01720156 58007 $,KP28,2023-05-06T08:56:00Z,37.28,-98.55,17.2,15.6,150,5,,,29.698818,1004.5,,TRUE,TRUE,TRUE,,,,,,,,,,,,,,,-0.7,,,,,,,,,,,METAR,469.0
KOWB 060856Z AUTO 16005KT 10SM OVC043 16/12 A3012 RMK AO2 SLP198 T01560117 53005,KOWB,2023-05-06T08:56:00Z,37.72,-87.17,15.6,11.7,160,5,,10.0,30.121063,1019.8,,TRUE,TRUE,,,,,,,OVC,4300,,,,,,,VFR,0.5,,,,,,,,,,,METAR,121.0
KOTG 060856Z AUTO 13006KT 7SM OVC005 14/14 A2985 RMK AO2 RAB20E33 SLP108 6//// T01440139 58007 PNO $,KOTG,2023-05-06T08:56:00Z,43.65,-95.57,14.4,13.9,130,6,,7.0,29.84941,1010.8,,TRUE,TRUE,TRUE,,,,,,OVC,500,,,,,,,IFR,-0.7,,,,,,,,,,,METAR,478.0
KOKK 060856Z AUTO 12004KT 10SM CLR 12/07 A3016 RMK AO2 SLP213 6//// T01170072 53010 PNO $,KOKK,2023-05-06T08:56:00Z,40.53,-86.07,11.7,7.2,120,4,,10.0,30.159449,1021.3,,TRUE,TRUE,TRUE,,,,,,CLR,,,,,,,,VFR,1.0,,,,,,,,,,,METAR,251.0
KOCH 060856Z AUTO 13006KT 10SM -RA FEW090 BKN110 A2992 RMK AO2 PK WND 23041/0802 TSB11E26 SLPNO P0009 60023 58014 FZRANO $,KOCH,2023-05-06T08:56:00Z,31.57,-94.72,,,130,6,,10.0,29.920275,,,TRUE,TRUE,TRUE,,,TRUE,,-RA,FEW,9000,BKN,11000,,,,,VFR,-1.4,,,,,0.09,,,,,,SPECI,105.0
KOAJ 060856Z AUTO 00000KT 10SM BKN085 09/09 A3024 RMK AO2 SLP243 T00940089 53005,KOAJ,2023-05-06T08:56:00Z,34.82,-77.62,9.4,8.9,0,0,,10.0,30.239174,1024.3,,TRUE,TRUE,,,,,,,BKN,8500,,,,,,,VFR,0.5,,,,,,,,,,,METAR,26.0
KNYG 060856Z AUTO 29006KT 9SM FEW090 11/ A3029 RMK AO2 SLP256 T0106 53006 $,KNYG,2023-05-06T08:56:00Z,38.5,-77.3,10.6,,290,6,,9.0,30.28937,1025.6,,TRUE,TRUE,TRUE,,,,,,FEW,9000,,,,,,,VFR,0.6,,,,,,,,,,,METAR,2.0
KNXP 060856Z AUTO 33006KT 10SM CLR 13/02 A3005 RMK AO2 SLP150 T01330022 50001,KNXP,2023-05-06T08:56:00Z,34.28,-116.13,13.3,2.2,330,6,,10.0,30.050198,1015.0,,TRUE,TRUE,,,,,,,CLR,,,,,,,,VFR,0.1,,,,,,,,,,,SPECI,610.0
KNXF 060856Z AUTO 03006KT 10SM 10/09 A3007 RMK AO2 SLP267 T01000089 58010 $,KNXF,2023-05-06T08:56:00Z,33.28,-117.45,10.0,8.9,30,6,,10.0,30.070866,1026.7,,TRUE,TRUE,TRUE,,,,,,,,,,,,,,,-1.0,,,,,,,,,,,METAR,28.0
KNUC 060856Z AUTO 32006KT FEW016 11/ A3010 RMK AO2 SLP191 T0111 58003 $,KNUC,2023-05-06T08:56:00Z,33.02,-118.57,11.1,,320,6,,,30.100393,1019.1,,TRUE,TRUE,TRUE,,,,,,FEW,1600,,,,,,,,-0.3,,,,,,,,,,,METAR,52.0
KNTU 060856Z 00000KT 10SM SCT100 OVC120 12/09 A3024 RMK AO2 SLP243 T01170094 53004,KNTU,2023-05-06T08:56:00Z,36.82,-76.02,11.7,9.4,0,0,,10.0,30.239174,1024.3,,,TRUE,,,,,,,SCT,10000,OVC,12000,,,,,VFR,0.4,,,,,,,,,,,SPECI,6.0
KNSE 060856Z AUTO VRB03KT 10SM FEW030 BKN036 OVC060 18/17 A3007 RMK AO2 SLP169 T01830172 55003 $,KNSE,2023-05-06T08:56:00Z,30.73,-87.02,18.3,17.2,0,3,,10.0,30.070866,1016.9,,TRUE,TRUE,TRUE,,,,,,FEW,3000,BKN,3600,OVC,6000,,,VFR,-0.3,,,,,,,,,,,SPECI,56.0
KNQI 060856Z AUTO 12008KT 10SM OVC024 26/24 A2987 RMK AO2 SLP111 T02560244 50002 $,KNQI,2023-05-06T08:56:00Z,27.5,-97.82,25.6,24.4,120,8,,10.0,29.870079,1011.1,,TRUE,TRUE,TRUE,,,,,,OVC,2400,,,,,,,MVFR,0.2,,,,,,,,,,,SPECI,15.0
KNOG 060856Z AUTO 09008KT 3SM BR OVC005 24/23 A2989 RMK AO2 SLP100 T02390233 50000 TSNO $,KNOG,2023-05-06T08:56:00Z,27.9,-98.05,23.9,23.3,90,8,,3.0,29.890747,1010.0,,TRUE,TRUE,TRUE,,TRUE,,,BR,OVC,500,,,,,,,IFR,0.0,,,,,,,,,,,SPECI,72.0
KNKT 060856Z 00000KT 10SM FEW080 11/11 A3024 RMK AO2 SLP236 T01110111 53004,KNKT,2023-05-06T08:56:00Z,34.9,-76.88,11.1,11.1,0,0,,10.0,30.239174,1023.6,,,TRUE,,,,,,,FEW,8000,,,,,,,VFR,0.4,,,,,,,,,,,SPECI,8.0
KNJK 060856Z AUTO 27010KT 10SM CLR 16/04 A2996 RMK AO2 SLP160 T01560044 58006 $,KNJK,2023-05-06T08:56:00Z,32.82,-115.67,15.6,4.4,270,10,,10.0,29.958662,1016.0,,TRUE,TRUE,TRUE,,,,,,CLR,,,,,,,,VFR,-0.6,,,,,,,,,,,METAR,-15.0
KNID 060856Z AUTO 00000KT 10SM CLR 12/M01 A2992 RMK AO2 SLP126 T01221006 58002 $,KNID,2023-05-06T08:56:00Z,35.68,-117.68,12.2,-0.6,0,0,,10.0,29.920275,1012.6,,TRUE,TRUE,TRUE,,,,,,CLR,,,,,,,,VFR,-0.2,,,,,,,,,,,METAR,682.0
KNFL 060856Z AUTO 32004KT 10SM BKN055 OVC070 09/00 A2997 RMK AO2 RAB23E33 SLP120 P0000 60000 T00890000 50002,KNFL,2023-05-06T08:56:00Z,39.42,-118.7,8.9,0.0,320,4,,10.0,29.970472,1012.0,,TRUE,TRUE,,,,,,,BKN,5500,OVC,7000,,,,,VFR,0.2,,,,,0.005,,,,,,SPECI,1199.0
KNFE 060856Z AUTO 00000KT 10SM BKN095 OVC120 12/09 A3025 RMK AO2 SLP245 T01170089 53004,KNFE,2023-05-06T08:56:00Z,36.7,-76.13,11.7,8.9,0,0,,10.0,30.250984,1024.5,,TRUE,TRUE,,,,,,,BKN,9500,OVC,12000,,,,,VFR,0.4,,,,,,,,,,,METAR,4.0
KNDZ 060856Z AUTO 07003KT 10SM BKN035 OVC060 19/18 A3007 RMK AO2 SLP169 60000 T01940178 55003 $,KNDZ,2023-05-06T08:56:00Z,30.7,-87.02,19.4,17.8,70,3,,10.0,30.070866,1016.9,,TRUE,TRUE,TRUE,,,,,,BKN,3500,OVC,6000,,,,,VFR,-0.3,,,,,,,,,,,SPECI,51.0
KNCA 060856Z AUTO 25003KT 8SM SCT085 11/10 A3022 RMK AO2 SLP237 T01060100 53005,KNCA,2023-05-06T08:56:00Z,34.72,-77.45,10.6,10.0,250,3,,8.0,30.221457,1023.7,,TRUE,TRUE,,,,,,,SCT,8500,,,,,,,VFR,0.5,,,,,,,,,,,SPECI,9.0
KNBC 060856Z AUTO 03003KT 10SM FEW060 OVC100 17/14 A3018 RMK AO2 SLP221 T01720144 55000 $,KNBC,2023-05-06T08:56:00Z,32.47,-80.72,17.2,14.4,30,3,,10.0,30.180119,1022.1,,TRUE,TRUE,TRUE,,,,,,FEW,6000,OVC,10000,,,,,VFR,0.0,,,,,,,,,,,SPECI,9.0
KMYR 060856Z AUTO 00000KT 10SM CLR 14/14 A3022 RMK AO2 SLP232 T01440139 53002,KMYR,2023-05-06T08:56:00Z,33.68,-78.92,14.4,13.9,0,0,,10.0,30.221457,1023.2,,TRUE,TRUE,,,,,,,CLR,,,,,,,,VFR,0.2,,,,,,,,,,,METAR,7.0
KMVN 060856Z AUTO 16007KT 10SM OVC050 16/12 A3006 RMK AO2 SLP181 T01560117 50000,KMVN,2023-05-06T08:56:00Z,38.32,-88.87,15.6,11.7,160,7,,10.0,30.059055,1018.1,,TRUE,TRUE,,,,,,,OVC,5000,,,,,,,VFR,0.0,,,,,,,,,,,METAR,145.0
KMTW 060856Z AUTO 19016KT 10SM -RA SCT110 12/07 A3011 RMK AO2 RAB49 SLP197 P0000 60000 T01220067 51011,KMTW,2023-05-06T08:56:00Z,44.12,-87.67,12.2,6.7,190,16,,10.0,30.109253,1019.7,,TRUE,TRUE,,,,,,-RA,SCT,11000,,,,,,,VFR,1.1,,,,,0.005,0.005,,,,,METAR,197.0
KMSV 060856Z AUTO 31005KT 9SM CLR 04/04 A3027 RMK AO2 SLP255 T00440044 53003,KMSV,2023-05-06T08:56:00Z,41.7,-74.78,4.4,4.4,310,5,,9.0,30.268702,1025.5,,TRUE,TRUE,,,,,,,CLR,,,,,,,,VFR,0.3,,,,,,,,,,,METAR,427.0
KMRF 060856Z AUTO 34004KT 10SM CLR 09/M09 A3006 RMK AO2 SLP119 T00941089 58002,KMRF,2023-05-06T08:56:00Z,30.37,-104.02,9.4,-8.9,340,4,,10.0,30.059055,1011.9,,TRUE,TRUE,,,,,,,CLR,,,,,,,,VFR,-0.2,,,,,,,,,,,METAR,1476.0
KMQY 060856Z AUTO 06003KT 10SM 14/13 A3015 RMK AO2 SLP215 T01440128 53004 $,KMQY,2023-05-06T08:56:00Z,36.02,-86.52,14.4,12.8,60,3,,10.0,30.15059,1021.5,,TRUE,TRUE,TRUE,,,,,,,,,,,,,,,0.4,,,,,,,,,,,METAR,156.0
KMML 060856Z AUTO 08008KT 7SM FEW002 OVC019 13/13 A2986 RMK AO2 SLP111 T01280128 58003,KMML,2023-05-06T08:56:00Z,44.45,-95.82,12.8,12.8,80,8,,7.0,29.861221,1011.1,,TRUE,TRUE,,,,,,,FEW,200,OVC,1900,,,,,MVFR,-0.3,,,,,,,,,,,METAR,358.0
KMKT 060856Z AUTO 10008KT 10SM OVC018 14/13 A2990 RMK AO2 SLP126 T01440133 50001,KMKT,2023-05-06T08:56:00Z,44.22,-93.92,14.4,13.3,100,8,,10.0,29.899607,1012.6,,TRUE,TRUE,,,,,,,OVC,1800,,,,,,,MVFR,0.1,,,,,,,,,,,METAR,309.0
KMHS 060856Z AUTO 00000KT 10SM -RA BKN048 OVC060 04/02 A2996 RMK AO2 SLP166 P0001 60004 T00390017 56005,KMHS,2023-05-06T08:56:00Z,41.32,-122.32,3.9,1.7,0,0,,10.0,29.958662,1016.6,,TRUE,TRUE,,,,,,-RA,BKN,4800,OVC,6000,,,,,VFR,-0.5,,,,,0.01,0.04,,,,,METAR,1080.0
KMDT 060856Z 35004KT 10SM CLR 07/05 A3028 RMK AO2 SLP255 T00670050 53004,KMDT,2023-05-06T08:56:00Z,40.2,-76.77,6.7,5.0,350,4,,10.0,30.280512,1025.5,,,TRUE,,,,,,,CLR,,,,,,,,VFR,0.4,,,,,,,,,,,METAR,91.0
KMBL 060856Z AUTO 13006KT 10SM OVC095 14/06 A3014 RMK AO2 SLP207 T01390061 53012,KMBL,2023-05-06T08:56:00Z,44.27,-86.25,13.9,6.1,130,6,,10.0,30.138779,1020.7,,TRUE,TRUE,,,,,,,OVC,9500,,,,,,,VFR,1.2,,,,,,,,,,,SPECI,187.0
KM19 060856Z AUTO 16006KT 10SM BKN017 OVC025 18/14 A3001 RMK AO2 SLP160 6//// T01780144 53004 PNO $,KM19,2023-05-06T08:56:00Z,35.65,-91.17,17.8,14.4,160,6,,10.0,30.008858,1016.0,,TRUE,TRUE,TRUE,,,,,,BKN,1700,OVC,2500,,,,,MVFR,0.4,,,,,,,,,,,METAR,72.0
KLZU 060856Z AUTO 00000KT 9SM FEW080 OVC110 13/13 A3019 RMK AO2 SLP231 T01330128 58002,KLZU,2023-05-06T08:56:00Z,33.98,-83.97,13.3,12.8,0,0,,9.0,30.188976,1023.1,,TRUE,TRUE,,,,,,,FEW,8000,OVC,11000,,,,,VFR,-0.2,,,,,,,,,,,METAR,316.0
KLWS 060856Z AUTO 10003KT 10SM BKN035 OVC046 11/06 A2989 RMK AO2 SLP124 T01110061 51002,KLWS,2023-05-06T08:56:00Z,46.37,-117.02,11.1,6.1,100,3,,10.0,29.890747,1012.4,,TRUE,TRUE,,,,,,,BKN,3500,OVC,4600,,,,,VFR,0.2,,,,,,,,,,,METAR,435.0
KLRD 060856Z AUTO 10008KT 5SM BR CLR 24/22 A2982 RMK AO2 SLP092 T02440222 55005,KLRD,2023-05-06T08:56:00Z,27.55,-99.47,24.4,22.2,100,8,,5.0,29.819881,1009.2,,TRUE,TRUE,,,,,,BR,CLR,,,,,,,,MVFR,-0.5,,,,,,,,,,,METAR,150.0
KLNR 060856Z AUTO 10007KT 10SM BKN060 OVC070 14/12 A3001 RMK AO2 RAE36 SLP156 P0001 60004 T01390117 50001,KLNR,2023-05-06T08:56:00Z,43.22,-90.18,13.9,11.7,100,7,,10.0,30.008858,1015.6,,TRUE,TRUE,,,,,,,BKN,6000,OVC,7000,,,,,VFR,0.1,,,,,0.01,0.04,,,,,METAR,218.0
KLGD 060856Z AUTO 35004KT 10SM OVC032 07/04 A2994 RMK AO2 SLP143 T00670039 53003,KLGD,2023-05-06T08:56:00Z,45.28,-118.0,6.7,3.9,350,4,,10.0,29.940945,1014.3,,TRUE,TRUE,,,,,,,OVC,3200,,,,,,,VFR,0.3,,,,,,,,,,,METAR,827.0
KLEW 060856Z AUTO 00000KT 10SM CLR 04/02 A3013 RMK AO2 SLP209 T00390022 56003,KLEW,2023-05-06T08:56:00Z,44.03,-70.28,3.9,2.2,0,0,,10.0,30.129921,1020.9,,TRUE,TRUE,,,,,,,CLR,,,,,,,,VFR,-0.3,,,,,,,,,,,METAR,81.0
KLCI 060856Z AUTO 24005KT 10SM CLR 06/06 A3018 RMK AO2 SLP223 T00560056 53001,KLCI,2023-05-06T08:56:00Z,43.57,-71.42,5.6,5.6,240,5,,10.0,30.180119,1022.3,,TRUE,TRUE,,,,,,,CLR,,,,,,,,VFR,0.1,,,,,,,,,,,SPECI,166.0
KLBL 060856Z AUTO 24010KT 10SM CLR 11/01 A2978 RMK AO2 SLP058 T01110011 51006,KLBL,2023-05-06T08:56:00Z,37.03,-100.97,11.1,1.1,240,10,,10.0,29.778543,1005.8,,TRUE,TRUE,,,,,,,CLR,,,,,,,,VFR,0.6,,,,,,,,,,,METAR,877.0
KLAS 060856Z 19007KT 10SM SCT250 16/01 A2993 RMK AO2 SLP120 T01610011 51005,KLAS,2023-05-06T08:56:00Z,36.07,-115.17,16.1,1.1,190,7,,10.0,29.929134,1012.0,,,TRUE,,,,,,,SCT,25000,,,,,,,VFR,0.5,,,,,,,,,,,METAR,662.0
KJXN 060856Z AUTO 11007KT 10SM CLR 09/03 A3023 RMK AO2 SLP237 T00890033 53000,KJXN,2023-05-06T08:56:00Z,42.27,-84.47,8.9,3.3,110,7,,10.0,30.230314,1023.7,,TRUE,TRUE,,,,,,,CLR,,,,,,,,VFR,0.0,,,,,,,,,,,METAR,303.0
KJRB 060856Z AUTO 00000KT 10SM CLR 11/08 A3026 RMK AO2 SLP247 T01060078 53002,KJRB,2023-05-06T08:56:00Z,40.7,-74.02,10.6,7.8,0,0,,10.0,30.259842,1024.7,,TRUE,TRUE,,,,,,,CLR,,,,,,,,VFR,0.2,,,,,,,,,,,SPECI,2.0
KJHW 060856Z AUTO 11003KT 10SM CLR 07/03 A3029 RMK AO2 SLP269 6//// T00670033 51004 PNO $,KJHW,2023-05-06T08:56:00Z,42.15,-79.27,6.7,3.3,110,3,,10.0,30.28937,1026.9,,TRUE,TRUE,TRUE,,,,,,CLR,,,,,,,,VFR,0.4,,,,,,,,,,,SPECI,520.0
KJAX 060856Z 06011KT 10SM FEW008 SCT026 OVC070 22/19 A3011 RMK AO2 SLP198 T02170194 53000,KJAX,2023-05-06T08:56:00Z,30.5,-81.68,21.7,19.4,60,11,,10.0,30.109253,1019.8,,,TRUE,,,,,,,FEW,800,SCT,2600,OVC,7000,,,VFR,0.0,,,,,,,,,,,METAR,8.0
KJAC 060856Z AUTO 02007KT 10SM CLR M03/M05 A2992 RMK AO2 SLP138 6//// T10331050 50000 FZRANO PNO $,KJAC,2023-05-06T08:56:00Z,43.62,-110.73,-3.3,-5.0,20,7,,10.0,29.920275,1013.8,,TRUE,TRUE,TRUE,,,TRUE,,,CLR,,,,,,,,VFR,0.0,,,,,,,,,,,METAR,1967.0
KIWD 060856Z AUTO 08007KT 10SM -RA FEW027 BKN046 OVC060 09/08 A3005 RMK AO2 SLP178 P0000 60000 T00940083 50001,KIWD,2023-05-06T08:56:00Z,46.52,-90.12,9.4,8.3,80,7,,10.0,30.050198,1017.8,,TRUE,TRUE,,,,,,-RA,FEW,2700,BKN,4600,OVC,6000,,,VFR,0.1,,,,,0.005,,,,,,SPECI,373.0
KITH 060856Z AUTO 00000KT 9SM CLR 02/02 A3031 RMK AO2 SLP270 T00220022 53008,KITH,2023-05-06T08:56:00Z,42.48,-76.45,2.2,2.2,0,0,,9.0,30.31004,1027.0,,TRUE,TRUE,,,,,,,CLR,,,,,,,,VFR,0.8,,,,,,,,,,,SPECI,338.0
KISP 060856Z AUTO 00000KT 10SM CLR 08/07 A3022 RMK AO2 SLP234 T00780072 57000,KISP,2023-05-06T08:56:00Z,40.8,-73.1,7.8,7.2,0,0,,10.0,30.221457,1023.4,,TRUE,TRUE,,,,,,,CLR,,,,,,,,VFR,0.0,,,,,,,,,,,METAR,25.0
KISM 060856Z AUTO 00000KT 10SM OVC050 21/18 A3010 RMK AO2 SLP193 6//// T02060178 55002 PNO $,KISM,2023-05-06T08:56:00Z,28.28,-81.43,20.6,17.8,0,0,,10.0,30.100393,1019.3,,TRUE,TRUE,TRUE,,,,,,OVC,5000,,,,,,,VFR,-0.2,,,,,,,,,,,METAR,25.0
KINW 060856Z AUTO 21005KT 10SM CLR 06/M06 A3006 RMK AO2 SLP137 T00561056 50001,KINW,2023-05-06T08:56:00Z,35.03,-110.72,5.6,-5.6,210,5,,10.0,30.059055,1013.7,,TRUE,TRUE,,,,,,,CLR,,,,,,,,VFR,0.1,,,,,,,,,,,METAR,1492.0
KILE 060856Z AUTO 19011KT 10SM CLR A2989 RMK AO2 SLPNO 50000 FZRANO $,KILE,2023-05-06T08:56:00Z,31.08,-97.68,,,190,11,,10.0,29.890747,,,TRUE,TRUE,TRUE,,,TRUE,,,CLR,,,,,,,,VFR,0.0,,,,,,,,,,,SPECI,256.0
KHYS 060856Z AUTO 27007KT 5SM BR CLR 16/16 A2969 RMK AO2 SLP040 T01610156 53004 $,KHYS,2023-05-06T08:56:00Z,38.85,-99.27,16.1,15.6,270,7,,5.0,29.68996,1004.0,,TRUE,TRUE,TRUE,,,,,BR,CLR,,,,,,,,MVFR,0.4,,,,,,,,,,,METAR,607.0
KHYA 060856Z AUTO 31004KT 10SM CLR 08/06 A3013 RMK AO2 SLP204 T00830061 55002,KHYA,2023-05-06T08:56:00Z,41.67,-70.27,8.3,6.1,310,4,,10.0,30.129921,1020.4,,TRUE,TRUE,,,,,,,CLR,,,,,,,,VFR,-0.2,,,,,,,,,,,METAR,11.0
KHWV 060856Z AUTO 27004KT 10SM CLR 08/06 A3023 RMK AO2 SLP236 T00780056 58001,KHWV,2023-05-06T08:56:00Z,40.82,-72.87,7.8,5.6,270,4,,10.0,30.230314,1023.6,,TRUE,TRUE,,,,,,,CLR,,,,,,,,VFR,-0.1,,,,,,,,,,,METAR,20.0
KHPN 060856Z 32008KT 10SM CLR 06/05 A3023 RMK AO2 SLP239 T00610050 53003,KHPN,2023-05-06T08:56:00Z,41.07,-73.7,6.1,5.0,320,8,,10.0,30.230314,1023.9,,,TRUE,,,,,,,CLR,,,,,,,,VFR,0.3,,,,,,,,,,,METAR,113.0
KHND 060856Z AUTO 19016KT 10SM CLR 14/01 A2995 RMK AO2 SLP145 T01390006 50002,KHND,2023-05-06T08:56:00Z,35.98,-115.13,13.9,0.6,190,16,,10.0,29.949802,1014.5,,TRUE,TRUE,,,,,,,CLR,,,,,,,,VFR,0.2,,,,,,,,,,,METAR,740.0
KHNB 060856Z AUTO 15004KT 10SM OVC075 15/11 A3013 RMK AO2 SLP199 T01500111 53006,KHNB,2023-05-06T08:56:00Z,38.25,-86.95,15.0,11.1,150,4,,10.0,30.129921,1019.9,,TRUE,TRUE,,,,,,,OVC,7500,,,,,,,VFR,0.6,,,,,,,,,,,SPECI,159.0
KHEZ 060856Z AUTO 16006KT 9SM OVC005 22/21 A3000 RMK AO2 SLP158 T02220211 53001,KHEZ,2023-05-06T08:56:00Z,31.62,-91.3,22.2,21.1,160,6,,9.0,30.0,1015.8,,TRUE,TRUE,,,,,,,OVC,500,,,,,,,IFR,0.1,,,,,,,,,,,METAR,82.0
KHEF 060856Z AUTO 00000KT 10SM FEW085 07/07 A3029 RMK AO2 SLP261 T00720072 53007,KHEF,2023-05-06T08:56:00Z,38.72,-77.52,7.2,7.2,0,0,,10.0,30.28937,1026.1,,TRUE,TRUE,,,,,,,FEW,8500,,,,,,,VFR,0.7,,,,,,,,,,,METAR,53.0
KHDN 060856Z AUTO VRB05KT 10SM SCT075 BKN110 05/M03 A2998 RMK AO2 SLP112 60000 T00501028 50006,KHDN,2023-05-06T08:56:00Z,40.48,-107.22,5.0,-2.8,0,5,,10.0,29.97933,1011.2,,TRUE,TRUE,,,,,,,SCT,7500,BKN,11000,,,,,VFR,0.6,,,,,,0.005,,,,,METAR,2012.0
KGXY 060856Z AUTO 01005KT 10SM CLR 06/02 A2987 RMK AO2 SLP100 T00560022 58003,KGXY,2023-05-06T08:56:00Z,40.43,-104.62,5.6,2.2,10,5,,10.0,29.870079,1010.0,,TRUE,TRUE,,,,,,,CLR,,,,,,,,VFR,-0.3,,,,,,,,,,,SPECI,1420.0
KGVQ 060856Z AUTO 00000KT 10SM CLR 04/03 A3031 RMK AO2 SLP266 T00390033 51006,KGVQ,2023-05-06T08:56:00Z,43.03,-78.17,3.9,3.3,0,0,,10.0,30.31004,1026.6,,TRUE,TRUE,,,,,,,CLR,,,,,,,,VFR,0.6,,,,,,,,,,,SPECI,279.0
KGUC 060856Z AUTO 35003KT 10SM BKN095 01/M05 A3005 RMK AO2 SLP139 T00111050 51007 FZRANO,KGUC,2023-05-06T08:56:00Z,38.52,-106.93,1.1,-5.0,350,3,,10.0,30.050198,1013.9,,TRUE,TRUE,,,,TRUE,,,BKN,9500,,,,,,,VFR,0.7,,,,,,,,,,,SPECI,2337.0
KGTU 060856Z AUTO 19008KT 10SM CLR 18/17 A2993 RMK AO2 SLP127 T01830167 56014,KGTU,2023-05-06T08:56:00Z,30.68,-97.68,18.3,16.7,190,8,,10.0,29.929134,1012.7,,TRUE,TRUE,,,,,,,CLR,,,,,,,,VFR,-1.4,,,,,,,,,,,METAR,232.0
KGTR 060856Z AUTO 12010KT 10SM OVC011 18/15 A3009 RMK AO2 CIG 009V014 SLP194 T01780150 53001,KGTR,2023-05-06T08:56:00Z,33.45,-88.58,17.8,15.0,120,10,,10.0,30.088583,1019.4,,TRUE,TRUE,,,,,,,OVC,1100,,,,,,,MVFR,0.1,,,,,,,,,,,METAR,80.0
KGRD 060856Z AUTO 00000KT 10SM SCT080 12/11 A3022 RMK AO2 SLP230 T01220111 53004,KGRD,2023-05-06T08:56:00Z,34.25,-82.15,12.2,11.1,0,0,,10.0,30.221457,1023.0,,TRUE,TRUE,,,,,,,SCT,8000,,,,,,,VFR,0.4,,,,,,,,,,,METAR,188.0
KGPZ 060856Z AUTO 09004KT 10SM OVC013 A3006 RMK AO2 SLPNO 55001 FZRANO,KGPZ,2023-05-06T08:56:00Z,47.22,-93.52,,,90,4,,10.0,30.059055,,,TRUE,TRUE,,,,TRUE,,,OVC,1300,,,,,,,MVFR,-0.1,,,,,,,,,,,METAR,410.0
KGNR 060856Z AUTO 33009KT 09/01 A3005 RMK AO1 SLP181 T00890011 56007,KGNR,2023-05-06T08:56:00Z,45.47,-69.55,8.9,1.1,330,9,,,30.050198,1018.1,,TRUE,TRUE,,,,,,,,,,,,,,,,-0.7,,,,,,,,,,,METAR,426.0
KGNA 060856Z AUTO 09010KT 06/04 A3012 RMK AO1 SLP202 T00610044 51005,KGNA,2023-05-06T08:56:00Z,47.75,-90.35,6.1,4.4,90,10,,,30.121063,1020.2,,TRUE,TRUE,,,,,,,,,,,,,,,,0.5,,,,,,,,,,,METAR,186.0
KGDV 060856Z AUTO 09013KT 10SM FEW060 BKN070 OVC090 12/02 A2987 RMK AO2 SLP108 T01170022 51006 TSNO,KGDV,2023-05-06T08:56:00Z,47.13,-104.8,11.7,2.2,90,13,,10.0,29.870079,1010.8,,TRUE,TRUE,,,TRUE,,,,FEW,6000,BKN,7000,OVC,9000,,,VFR,0.6,,,,,,,,,,,METAR,749.0
KGBD 060856Z AUTO 19013KT 10SM CLR 18/14 A2968 RMK AO2 SLP036 T01780144 56005,KGBD,2023-05-06T08:56:00Z,38.35,-98.87,17.8,14.4,190,13,,10.0,29.681103,1003.6,,TRUE,TRUE,,,,,,,CLR,,,,,,,,VFR,-0.5,,,,,,,,,,,METAR,573.0
KGAI 060856Z AUTO 00000KT 10SM CLR 07/06 A3029 RMK AO2 SLP270 T00670056 53006,KGAI,2023-05-06T08:56:00Z,39.17,-77.17,6.7,5.6,0,0,,10.0,30.28937,1027.0,,TRUE,TRUE,,,,,,,CLR,,,,,,,,VFR,0.6,,,,,,,,,,,SPECI,151.0
KGAD 060856Z AUTO 06004KT 10SM OVC045 14/14 A3017 RMK AO2 SLP218 6//// T01440139 55000 PNO $,KGAD,2023-05-06T08:56:00Z,33.97,-86.08,14.4,13.9,60,4,,10.0,30.171259,1021.8,,TRUE,TRUE,TRUE,,,,,,OVC,4500,,,,,,,VFR,0.0,,,,,,,,,,,METAR,169.0
KFSD 060856Z AUTO 16006KT 10SM OVC017 16/13 A2984 RMK AO2 SLP099 T01610128 55000,KFSD,2023-05-06T08:56:00Z,43.58,-96.75,16.1,12.8,160,6,,10.0,29.840551,1009.9,,TRUE,TRUE,,,,,,,OVC,1700,,,,,,,MVFR,0.0,,,,,,,,,,,METAR,433.0
KFRM 060856Z AUTO 12010KT 10SM OVC008 15/13 A2987 RMK AO2 SLP116 T01500133 58006,KFRM,2023-05-06T08:56:00Z,43.63,-94.42,15.0,13.3,120,10,,10.0,29.870079,1011.6,,TRUE,TRUE,,,,,,,OVC,800,,,,,,,IFR,-0.6,,,,,,,,,,,METAR,353.0
KFOD 060856Z AUTO 11008KT 10SM FEW050 BKN075 14/13 A2987 RMK AO2 SLP124 60001 T01390128 55002,KFOD,2023-05-06T08:56:00Z,42.53,-94.17,13.9,12.8,110,8,,10.0,29.870079,1012.4,,TRUE,TRUE,,,,,,,FEW,5000,BKN,7500,,,,,VFR,-0.2,,,,,,,,,,,SPECI,347.0
KFNL 060856Z 35003KT 10SM CLR 08/02 A2986 RMK AO2 SLP071 T00780022 58008,KFNL,2023-05-06T08:56:00Z,40.45,-105.02,7.8,2.2,350,3,,10.0,29.861221,1007.1,,,TRUE,,,,,,,CLR,,,,,,,,VFR,-0.8,,,,,,,,,,,METAR,1529.0
KFMH 060856Z 3005KT 10SM CLR 08/07 A3015,KFMH,2023-05-06T08:56:00Z,41.65,-70.52,8.0,7.0,,,,10.0,30.15059,,,,,,,,,,,CLR,,,,,,,,VFR,,,,,,,,,,,,METAR,35.0
KFKL 060856Z AUTO 09003KT 10SM CLR 04/04 A3028 RMK AO2 SLP260 T00390039 53002,KFKL,2023-05-06T08:56:00Z,41.37,-79.87,3.9,3.9,90,3,,10.0,30.280512,1026.0,,TRUE,TRUE,,,,,,,CLR,,,,,,,,VFR,0.2,,,,,,,,,,,METAR,468.0
KFCI 060856Z AUTO 00000KT 10SM BKN085 OVC100 09/09 A3027 RMK AO2 SLP261 T00940094 53008,KFCI,2023-05-06T08:56:00Z,37.4,-77.52,9.4,9.4,0,0,,10.0,30.268702,1026.1,,TRUE,TRUE,,,,,,,BKN,8500,OVC,10000,,,,,VFR,0.8,,,,,,,,,,,METAR,63.0
KFAM 060856Z AUTO 17008KT 10SM OVC018 15/12 A3002 RMK AO2 SLP174 T01500122 55003,KFAM,2023-05-06T08:56:00Z,37.77,-90.42,15.0,12.2,170,8,,10.0,30.02067,1017.4,,TRUE,TRUE,,,,,,,OVC,1800,,,,,,,MVFR,-0.3,,,,,,,,,,,METAR,276.0
KEUL 060856Z AUTO 18007KT 10SM -RA OVC020 07/06 A2993 RMK AO2 SLP135 P0003 60003 T00720061 51004,KEUL,2023-05-06T08:56:00Z,43.63,-116.62,7.2,6.1,180,7,,10.0,29.929134,1013.5,,TRUE,TRUE,,,,,,-RA,OVC,2000,,,,,,,MVFR,0.4,,,,,0.03,0.03,,,,,METAR,741.0
KESC 060856Z AUTO 08006KT 10SM OVC080 08/07 A3015 RMK AO2 SLP216 60000 T00830072 53002,KESC,2023-05-06T08:56:00Z,45.72,-87.08,8.3,7.2,80,6,,10.0,30.15059,1021.6,,TRUE,TRUE,,,,,,,OVC,8000,,,,,,,VFR,0.2,,,,,,0.005,,,,,METAR,180.0
KENV 060856Z AUTO 32006KT 10SM FEW100 09/00 A2996 RMK AO2 SLP135 T00940000 50004,KENV,2023-05-06T08:56:00Z,40.72,-114.02,9.4,0.0,320,6,,10.0,29.958662,1013.5,,TRUE,TRUE,,,,,,,FEW,10000,,,,,,,VFR,0.4,,,,,,,,,,,METAR,1291.0
KELZ 060856Z AUTO 11003KT 5SM BR CLR 02/01 A3031 RMK AO2 SLP275 T00220006 53004,KELZ,2023-05-06T08:56:00Z,42.1,-77.98,2.2,0.6,110,3,,5.0,30.31004,1027.5,,TRUE,TRUE,,,,,,BR,CLR,,,,,,,,MVFR,0.4,,,,,,,,,,,METAR,639.0
KEKY 060856Z AUTO 11006KT 10SM CLR A3013 RMK AO2 SLPNO 55003 FZRANO $,KEKY,2023-05-06T08:56:00Z,33.32,-86.93,,,110,6,,10.0,30.129921,,,TRUE,TRUE,TRUE,,,TRUE,,,CLR,,,,,,,,VFR,-0.3,,,,,,,,,,,METAR,213.0
KEKQ 060856Z AUTO 06003KT 10SM OVC095 13/11 A3020 RMK AO2 SLP217 T01280106 53004,KEKQ,2023-05-06T08:56:00Z,36.85,-84.85,12.8,10.6,60,3,,10.0,30.200787,1021.7,,TRUE,TRUE,,,,,,,OVC,9500,,,,,,,VFR,0.4,,,,,,,,,,,METAR,291.0
KEKO 060856Z AUTO 36003KT 10SM OVC055 04/02 A2996 RMK AO2 SLP141 T00390017 58003,KEKO,2023-05-06T08:56:00Z,40.82,-115.78,3.9,1.7,360,3,,10.0,29.958662,1014.1,,TRUE,TRUE,,,,,,,OVC,5500,,,,,,,VFR,-0.3,,,,,,,,,,,SPECI,1541.0
KEHR 060856Z AUTO 14003KT 10SM OVC041 15/11 A3011 RMK AO2 SLP194 T01500111 53006,KEHR,2023-05-06T08:56:00Z,37.82,-87.67,15.0,11.1,140,3,,10.0,30.109253,1019.4,,TRUE,TRUE,,,,,,,OVC,4100,,,,,,,VFR,0.6,,,,,,,,,,,METAR,117.0
KEGE 060856Z AUTO 28011KT 10SM -RA FEW030 BKN036 OVC050 06/02 A3004 RMK AO2 RAE10B27 SLP084 P0000 60000 T00560017 53014,KEGE,2023-05-06T08:56:00Z,39.63,-106.92,5.6,1.7,280,11,,10.0,30.041338,1008.4,,TRUE,TRUE,,,,,,-RA,FEW,3000,BKN,3600,OVC,5000,,,VFR,1.4,,,,,0.005,0.005,,,,,METAR,1993.0
KEEN 060856Z AUTO 00000KT 1/4SM FG OVC002 04/04 RMK AO2 SLPNO T00390039 $,KEEN,2023-05-06T08:56:00Z,42.88,-72.27,3.9,3.9,0,0,,0.25,,,,TRUE,TRUE,TRUE,,,,,FG,OVC,200,,,,,,,LIFR,,,,,,,,,,,,METAR,143.0
KEED 060856Z AUTO 21008KT 10SM CLR 18/01 A2992 RMK AO2 SLP109 T01830011 51004,KEED,2023-05-06T08:56:00Z,34.77,-114.62,18.3,1.1,210,8,,10.0,29.920275,1010.9,,TRUE,TRUE,,,,,,,CLR,,,,,,,,VFR,0.4,,,,,,,,,,,METAR,271.0
KEAR 060856Z AUTO 10010KT 10SM OVC044 13/12 A2978 RMK AO2 LTG DSNT NW SLP073 60000 T01280117 57009,KEAR,2023-05-06T08:56:00Z,40.72,-99.0,12.8,11.7,100,10,,10.0,29.778543,1007.3,,TRUE,TRUE,,,,,,,OVC,4400,,,,,,,VFR,-0.9,,,,,,0.005,,,,,METAR,649.0
KDYR 060856Z AUTO 13005KT 10SM CLR 14/ A3006 RMK AO2 SLP184 T0144 53000,KDYR,2023-05-06T08:56:00Z,36.0,-89.4,14.4,,130,5,,10.0,30.059055,1018.4,,TRUE,TRUE,,,,,,,CLR,,,,,,,,VFR,0.0,,,,,,,,,,,METAR,98.0
KDWU 060856Z AUTO 00000KT 10SM CLR 07/ A3020 RMK AO2 SLP225 T0067 53005,KDWU,2023-05-06T08:56:00Z,38.55,-82.73,6.7,,0,0,,10.0,30.200787,1022.5,,TRUE,TRUE,,,,,,,CLR,,,,,,,,VFR,0.5,,,,,,,,,,,METAR,165.0
KDVL 060856Z AUTO 08015G19KT 10SM FEW080 BKN100 09/04 A2999 RMK AO2 SLP174 T00890044 51003,KDVL,2023-05-06T08:56:00Z,48.12,-98.92,8.9,4.4,80,15,19,10.0,29.991142,1017.4,,TRUE,TRUE,,,,,,,FEW,8000,BKN,10000,,,,,VFR,0.3,,,,,,,,,,,METAR,439.0
KDUG 060856Z AUTO 01007KT 10SM CLR 08/M08 A3006 RMK AO2 SLP129 T00781083 58001 TSNO,KDUG,2023-05-06T08:56:00Z,31.47,-109.6,7.8,-8.3,10,7,,10.0,30.059055,1012.9,,TRUE,TRUE,,,TRUE,,,,CLR,,,,,,,,VFR,-0.1,,,,,,,,,,,METAR,1260.0
KDIK 060856Z AUTO 05007KT 10SM CLR 06/02 A2987 RMK AO2 SLP112 T00610017 55003,KDIK,2023-05-06T08:56:00Z,46.8,-102.8,6.1,1.7,50,7,,10.0,29.870079,1011.2,,TRUE,TRUE,,,,,,,CLR,,,,,,,,VFR,-0.3,,,,,,,,,,,METAR,788.0
KDIJ 060856Z AUTO 08003KT 10SM CLR M01/M03 A2995 RMK AO2 SLP136 T10061033 50005,KDIJ,2023-05-06T08:56:00Z,43.75,-111.1,-0.6,-3.3,80,3,,10.0,29.949802,1013.6,,TRUE,TRUE,,,,,,,CLR,,,,,,,,VFR,0.5,,,,,,,,,,,METAR,1896.0
KDAY 060856Z 11006KT 10SM FEW250 11/04 A3020 RMK AO2 SLP223 T01110044 53008,KDAY,2023-05-06T08:56:00Z,39.9,-84.22,11.1,4.4,110,6,,10.0,30.200787,1022.3,,,TRUE,,,,,,,FEW,25000,,,,,,,VFR,0.8,,,,,,,,,,,METAR,303.0
KD07 060856Z AUTO 05010KT 12/02 A2980 RMK AO1 SLP084 T01170022 58001,KD07,2023-05-06T08:56:00Z,45.03,-102.02,11.7,2.2,50,10,,,29.799213,1008.4,,TRUE,TRUE,,,,,,,,,,,,,,,,-0.1,,,,,,,,,,,METAR,786.0
KCXY 060856Z AUTO 25006KT 10SM CLR 06/04 A3029 RMK AO2 SLP258 T00610039 53005,KCXY,2023-05-06T08:56:00Z,40.22,-76.85,6.1,3.9,250,6,,10.0,30.28937,1025.8,,TRUE,TRUE,,,,,,,CLR,,,,,,,,VFR,0.5,,,,,,,,,,,METAR,102.0
KCWI 060856Z AUTO 14010KT 10SM OVC080 14/13 A3000 RMK AO2 RAE30 SLP161 P0000 60007 T01390128 55001,KCWI,2023-05-06T08:56:00Z,41.82,-90.32,13.9,12.8,140,10,,10.0,30.0,1016.1,,TRUE,TRUE,,,,,,,OVC,8000,,,,,,,VFR,-0.1,,,,,0.005,0.07,,,,,METAR,212.0
KCVO 060856Z AUTO 00000KT 10SM OVC055 09/08 A2999 RMK AO2 SLP156 T00940083 56003,KCVO,2023-05-06T08:56:00Z,44.5,-123.28,9.4,8.3,0,0,,10.0,29.991142,1015.6,,TRUE,TRUE,,,,,,,OVC,5500,,,,,,,VFR,-0.3,,,,,,,,,,,METAR,75.0
KCVN 060856Z AUTO 28015KT 10SM CLR 14/M11 A2994 RMK AO2 SLP098 T01441106 51002,KCVN,2023-05-06T08:56:00Z,34.42,-103.07,14.4,-10.6,280,15,,10.0,29.940945,1009.8,,TRUE,TRUE,,,,,,,CLR,,,,,,,,VFR,0.2,,,,,,,,,,,SPECI,1278.0
KCTB 060856Z AUTO 09003KT 10SM CLR 06/06 A2974 RMK AO2 SLP060 T00610056 58001,KCTB,2023-05-06T08:56:00Z,48.6,-112.37,6.1,5.6,90,3,,10.0,29.740158,1006.0,,TRUE,TRUE,,,,,,,CLR,,,,,,,,VFR,-0.1,,,,,,,,,,,METAR,1172.0
KCOD 060856Z AUTO 24007KT 10SM CLR 07/M02 A2985 RMK AO2 SLP087 T00721022 50000,KCOD,2023-05-06T08:56:00Z,44.52,-109.02,7.2,-2.2,240,7,,10.0,29.84941,1008.7,,TRUE,TRUE,,,,,,,CLR,,,,,,,,VFR,0.0,,,,,,,,,,,METAR,1550.0
KCIU 060856Z AUTO 10006KT 10SM -RA OVC060 07/06 A3028 RMK AO2 RAB20 SLP258 P0001 60001 T00720061 53006,KCIU,2023-05-06T08:56:00Z,46.25,-84.47,7.2,6.1,100,6,,10.0,30.280512,1025.8,,TRUE,TRUE,,,,,,-RA,OVC,6000,,,,,,,VFR,0.6,,,,,0.01,,,,,,SPECI,242.0
KCHS 060856Z 00000KT 10SM FEW055 BKN095 17/14 A3020 RMK AO2 RAE02 SLP224 P0000 60000 T01720144 53002,KCHS,2023-05-06T08:56:00Z,32.9,-80.03,17.2,14.4,0,0,,10.0,30.200787,1022.4,,,TRUE,,,,,,,FEW,5500,BKN,9500,,,,,VFR,0.2,,,,,0.005,0.005,,,,,METAR,12.0
KCGZ 060856Z AUTO 00000KT 10SM CLR 13/M01 A2996 RMK AO2 SLP140 6//// T01331011 50002 PNO $,KCGZ,2023-05-06T08:56:00Z,32.95,-111.77,13.3,-1.1,0,0,,10.0,29.958662,1014.0,,TRUE,TRUE,TRUE,,,,,,CLR,,,,,,,,VFR,0.2,,,,,,,,,,,METAR,444.0
KCEC 060856Z AUTO 16008KT 7SM -RA FEW014 BKN050 OVC075 10/09 A3003 RMK AO2 RAE38B54 SLP169 P0001 60004 T01000094 50002,KCEC,2023-05-06T08:56:00Z,41.78,-124.23,10.0,9.4,160,8,,7.0,30.029528,1016.9,,TRUE,TRUE,,,,,,-RA,FEW,1400,BKN,5000,OVC,7500,,,VFR,0.2,,,,,0.01,,,,,,SPECI,17.0
KCAE 060856Z 00000KT 10SM FEW065 BKN110 14/13 A3020 RMK AO2 SLP224 T01390128 53000,KCAE,2023-05-06T08:56:00Z,33.93,-81.12,13.9,12.8,0,0,,10.0,30.200787,1022.4,,,TRUE,,,,,,,FEW,6500,BKN,11000,,,,,VFR,0.0,,,,,,,,,,,METAR,69.0
KBZN 060856Z AUTO 15010KT 10SM FEW100 04/00 A2979 RMK AO2 SLP078 T00390000 58003,KBZN,2023-05-06T08:56:00Z,45.78,-111.17,3.9,0.0,150,10,,10.0,29.790354,1007.8,,TRUE,TRUE,,,,,,,FEW,10000,,,,,,,VFR,-0.3,,,,,,,,,,,METAR,1349.0
KBVX 060856Z AUTO 12005KT 10SM BKN015 18/16 A2999 RMK AO2 SLP153 T01780161 50001,KBVX,2023-05-06T08:56:00Z,35.73,-91.65,17.8,16.1,120,5,,10.0,29.991142,1015.3,,TRUE,TRUE,,,,,,,BKN,1500,,,,,,,MVFR,0.1,,,,,,,,,,,METAR,137.0
KBTP 060856Z AUTO 05004KT 10SM CLR 04/03 A3027 RMK AO2 SLP260 T00390033 53003 TSNO $,KBTP,2023-05-06T08:56:00Z,40.77,-79.95,3.9,3.3,50,4,,10.0,30.268702,1026.0,,TRUE,TRUE,TRUE,,TRUE,,,,CLR,,,,,,,,VFR,0.3,,,,,,,,,,,SPECI,375.0
KBMI 060856Z AUTO 16010KT 10SM OVC060 15/10 A3006 RMK AO2 SLP173 T01500100 53006,KBMI,2023-05-06T08:56:00Z,40.47,-88.92,15.0,10.0,160,10,,10.0,30.059055,1017.3,,TRUE,TRUE,,,,,,,OVC,6000,,,,,,,VFR,0.6,,,,,,,,,,,METAR,262.0
KBLM 060856Z AUTO 25004KT 6SM HZ CLR A3027 RMK AO2 SLPNO 53004 FZRANO $,KBLM,2023-05-06T08:56:00Z,40.17,-74.12,,,250,4,,6.0,30.268702,,,TRUE,TRUE,TRUE,,,TRUE,,HZ,CLR,,,,,,,,VFR,0.4,,,,,,,,,,,METAR,45.0
KBJJ 060856Z AUTO 09003KT 10SM CLR 07/03 A3026 RMK AO2 SLP247 T00720033 53005,KBJJ,2023-05-06T08:56:00Z,40.87,-81.88,7.2,3.3,90,3,,10.0,30.259842,1024.7,,TRUE,TRUE,,,,,,,CLR,,,,,,,,VFR,0.5,,,,,,,,,,,METAR,338.0
KBIH 060856Z AUTO 00000KT 10SM OVC100 09/M01 A2992 RMK AO2 SLP103 T00941011 53001,KBIH,2023-05-06T08:56:00Z,37.37,-118.35,9.4,-1.1,0,0,,10.0,29.920275,1010.3,,TRUE,TRUE,,,,,,,OVC,10000,,,,,,,VFR,0.1,,,,,,,,,,,SPECI,1252.0
KBID 060856Z AUTO 27010KT 10SM CLR 09/08 A3020 RMK AO2 SLP227 T00890078 56003,KBID,2023-05-06T08:56:00Z,41.17,-71.58,8.9,7.8,270,10,,10.0,30.200787,1022.7,,TRUE,TRUE,,,,,,,CLR,,,,,,,,VFR,-0.3,,,,,,,,,,,METAR,32.0
KBHB 060856Z AUTO 00000KT 10SM CLR 03/02 A3006 RMK AO2 SLP182 T00280022 58004,KBHB,2023-05-06T08:56:00Z,44.45,-68.37,2.8,2.2,0,0,,10.0,30.059055,1018.2,,TRUE,TRUE,,,,,,,CLR,,,,,,,,VFR,-0.4,,,,,,,,,,,METAR,21.0
KASH 060856Z AUTO 32004KT 10SM CLR 07/07 A3018 RMK AO2 SLP226 T00720067 53002,KASH,2023-05-06T08:56:00Z,42.78,-71.52,7.2,6.7,320,4,,10.0,30.180119,1022.6,,TRUE,TRUE,,,,,,,CLR,,,,,,,,VFR,0.2,,,,,,,,,,,METAR,56.0
KART 060856Z AUTO 00000KT 10SM CLR 01/01 A3030 RMK AO2 SLP262 T00110006 53009,KART,2023-05-06T08:56:00Z,43.98,-76.03,1.1,0.6,0,0,,10.0,30.301182,1026.2,,TRUE,TRUE,,,,,,,CLR,,,,,,,,VFR,0.9,,,,,,,,,,,METAR,100.0
KARG 060856Z AUTO 11003KT 10SM OVC019 17/16 A3001 RMK AO2 SLP163 T01720161 55001,KARG,2023-05-06T08:56:00Z,36.12,-90.92,17.2,16.1,110,3,,10.0,30.008858,1016.3,,TRUE,TRUE,,,,,,,OVC,1900,,,,,,,MVFR,-0.1,,,,,,,,,,,METAR,82.0
KAND 060856Z AUTO 00000KT 10SM CLR 14/12 A3021 RMK AO2 SLP223 T01390122 53005,KAND,2023-05-06T08:56:00Z,34.5,-82.72,13.9,12.2,0,0,,10.0,30.209646,1022.3,,TRUE,TRUE,,,,,,,CLR,,,,,,,,VFR,0.5,,,,,,,,,,,METAR,233.0
KALK 060856Z AUTO 24008KT 10SM CLR 09/M03 A3009 RMK AO2 SLP115 T00941028 58004,KALK,2023-05-06T08:56:00Z,31.6,-110.43,9.4,-2.8,240,8,,10.0,30.088583,1011.5,,TRUE,TRUE,,,,,,,CLR,,,,,,,,VFR,-0.4,,,,,,,,,,,SPECI,1451.0
KAIZ 060856Z AUTO 16005KT 10SM OVC010 17/14 RMK AO2 SLPNO T01670144 $,KAIZ,2023-05-06T08:56:00Z,38.1,-92.53,16.7,14.4,160,5,,10.0,,,,TRUE,TRUE,TRUE,,,,,,OVC,1000,,,,,,,MVFR,,,,,,,,,,,,METAR,263.0
KAFJ 060856Z AUTO 00000KT 10SM CLR 03/03 A3027 RMK AO2 SLP254 T00280028 53002,KAFJ,2023-05-06T08:56:00Z,40.13,-80.28,2.8,2.8,0,0,,10.0,30.268702,1025.4,,TRUE,TRUE,,,,,,,CLR,,,,,,,,VFR,0.2,,,,,,,,,,,SPECI,360.0
KADF 060856Z AUTO VRB03KT 9SM OVC005 21/21 A2994 RMK AO2 SLP135 T02110206 55007,KADF,2023-05-06T08:56:00Z,34.1,-93.07,21.1,20.6,0,3,,9.0,29.940945,1013.5,,TRUE,TRUE,,,,,,,OVC,500,,,,,,,IFR,-0.7,,,,,,,,,,,METAR,54.0
K8D3 060856Z AUTO 10006KT 12/06 A2988 RMK AO1 SLP106 T01220061 58001,K8D3,2023-05-06T08:56:00Z,45.67,-96.98,12.2,6.1,100,6,,,29.878937,1010.6,,TRUE,TRUE,,,,,,,,,,,,,,,,-0.1,,,,,,,,,,,SPECI,535.0
K79J 060856Z AUTO 09003KT 10SM CLR 18/15 A3009 RMK AO2 SLP187 T01780150 56001,K79J,2023-05-06T08:56:00Z,31.32,-86.4,17.8,15.0,90,3,,10.0,30.088583,1018.7,,TRUE,TRUE,,,,,,,CLR,,,,,,,,VFR,-0.1,,,,,,,,,,,METAR,93.0
K2WX 060856Z AUTO 12010G20KT 12/01 A2981 RMK AO1 SLP086 T01220011 53004,K2WX,2023-05-06T08:56:00Z,45.6,-103.55,12.2,1.1,120,10,20,,29.811024,1008.6,,TRUE,TRUE,,,,,,,,,,,,,,,,0.4,,,,,,,,,,,METAR,925.0
K1M4 060856Z AUTO 13004KT 10SM OVC018 14/14 A3013 RMK AO2 SLP193 T01440139 50001,K1M4,2023-05-06T08:56:00Z,34.28,-87.6,14.4,13.9,130,4,,10.0,30.129921,1019.3,,TRUE,TRUE,,,,,,,OVC,1800,,,,,,,MVFR,0.1,,,,,,,,,,,METAR,283.0
BGGH 060856Z 20020KT 5000 BCFG OVC002 M01/M01 Q1006,BGGH,2023-05-06T08:56:00Z,64.2,-51.68,-1.0,-1.0,200,20,,3.11,29.704725,,,,,,,,,,BCFG,OVC,200,,,,,,,LIFR,,,,,,,,,,,,METAR,76.0
TXKF 060855Z 32009KT 9999 FEW030 FEW082 17/11 Q1017 ,TXKF,2023-05-06T08:55:00Z,32.37,-64.68,17.0,11.0,320,9,,6.21,30.029528,,,,,,,,,,,FEW,3000,FEW,8200,,,,,VFR,,,,,,,,,,,,METAR,4.0
TNCE 060855Z AUTO 10006KT 070V140 //// // ///////// 25/22 Q1016 RE//,TNCE,2023-05-06T08:55:00Z,17.48,-62.97,25.0,22.0,100,6,,,30.0,,,TRUE,,,,,,,,,,,,,,,,,,,,,,,,,,,,METAR,38.0
TNCB 060855Z AUTO 09014KT 9999 FEW029/// SCT038/// 27/23 Q1012,TNCB,2023-05-06T08:55:00Z,12.13,-68.28,27.0,23.0,90,14,,6.21,29.88189,,,TRUE,,,,,,,,FEW,2900,SCT,3800,,,,,VFR,,,,,,,,,,,,METAR,6.0
RKSO 060855Z 08009KT 7SM SCT023 OVC055 13/13 A2982 RMK AO2A SLP102 60001 T01300128 50019 $,RKSO,2023-05-06T08:55:00Z,37.08,127.02,13.0,12.8,80,9,,7.0,29.819881,1010.2,,,TRUE,TRUE,,,,,,SCT,2300,OVC,5500,,,,,VFR,1.9,,,,,,0.01,,,,,METAR,10.0
RKSG 060855Z 09009G17KT 6SM BR SCT020 OVC050 13/10 A2982 RMK AO2A SLP097 WND DATA ALSTG/SLP ESTMD 60015 $,RKSG,2023-05-06T08:55:00Z,36.97,127.02,13.0,10.0,90,9,17,6.0,29.819881,1009.7,,,TRUE,TRUE,,,,,BR,SCT,2000,OVC,5000,,,,,VFR,,,,,,,0.15,,,,,METAR,12.0
RJTY 060855Z AUTO 20017G26KT 10SM FEW200 25/14 A2967 RMK AO2 PK WND 19026/38 SLP048 T02480140 53003,RJTY,2023-05-06T08:55:00Z,35.75,139.33,24.8,14.0,200,17,26,10.0,29.66929,1004.8,,TRUE,TRUE,,,,,,,FEW,20000,,,,,,,VFR,0.3,,,,,,,,,,,METAR,136.0
PWAK 060855Z AUTO 05015KT 10SM FEW270 25/22 A2993 RMK AO2 SLP141 T02540217 52020,PWAK,2023-05-06T08:55:00Z,19.28,166.62,25.4,21.7,50,15,,10.0,29.929134,1014.1,,TRUE,TRUE,,,,,,,FEW,27000,,,,,,,VFR,2.0,,,,,,,,,,,METAR,7.0
PATL 060855Z AUTO 00000KT 10SM OVC070 03/01 A2988 RMK AO2 SLP127 T00270006 400640012 54000 TSNO $,PATL,2023-05-06T08:55:00Z,62.9,-155.97,2.7,0.6,0,0,,10.0,29.878937,1012.7,,TRUE,TRUE,TRUE,,TRUE,,,,OVC,7000,,,,,,,VFR,,,,6.4,1.2,,,,,,,METAR,261.0
PATC 060855Z AUTO 36006KT 10SM BKN016 M04/M07 A3004 RMK AO2 SLP179 T10401068 410371104 52006,PATC,2023-05-06T08:55:00Z,65.57,-167.92,-4.0,-6.8,360,6,,10.0,30.041338,1017.9,,TRUE,TRUE,,,,,,,BKN,1600,,,,,,,MVFR,0.6,,,-3.7,-10.4,,,,,,,METAR,77.0
PASV 060855Z AUTO 00000KT 10SM -DZ OVC045 01/M01 A2984 RMK AO2 DZB0848 SLP121 P0000 60000 T00101006 400460007 52002,PASV,2023-05-06T08:55:00Z,61.1,-155.57,1.0,-0.6,0,0,,10.0,29.840551,1012.1,,TRUE,TRUE,,,,,,-DZ,OVC,4500,,,,,,,VFR,0.2,,,4.6,0.7,0.005,,,,,,SPECI,462.0
PALU 060855Z AUTO 11006KT 10SM CLR M07/M08 A3006 RMK AO2 SLP179 T10691085 52004,PALU,2023-05-06T08:55:00Z,68.88,-166.1,-6.9,-8.5,110,6,,10.0,30.059055,1017.9,,TRUE,TRUE,,,,,,,CLR,,,,,,,,VFR,0.4,,,,,,,,,,,METAR,8.0
PAIM 060855Z AUTO VRB03KT 10SM BKN070 05/M05 A2985 RMK AO2 SLP118 T00541054 400791011 57003,PAIM,2023-05-06T08:55:00Z,66.0,-153.7,5.4,-5.4,0,3,,10.0,29.84941,1011.8,,TRUE,TRUE,,,,,,,BKN,7000,,,,,,,VFR,-0.3,,,7.9,-1.1,,,,,,,METAR,309.0
PAFR 060855Z AUTO 00000KT 10SM OVC060 01/M02 A2983 RMK AO2 SLP109 T00101016 401031026 52004 $,PAFR,2023-05-06T08:55:00Z,61.27,-149.65,1.0,-1.6,0,0,,10.0,29.828741,1010.9,,TRUE,TRUE,TRUE,,,,,,OVC,6000,,,,,,,VFR,0.4,,,10.3,-2.6,,,,,,,SPECI,106.0
PAFB 060855Z AUTO 07006KT 10SM M 05/M02 A2974,PAFB,2023-05-06T08:55:00Z,64.83,-147.62,5.0,-2.0,70,6,,10.0,29.740158,,,TRUE,,,,,,,,,,,,,,,,,,,,,,,,,,,,METAR,137.0
PAEI 060855Z AUTO 13003KT 10SM BKN130 05/M04 A2972 RMK AO2 SLP070 T00451040 401261036 58002 $,PAEI,2023-05-06T08:55:00Z,64.67,-147.1,4.5,-4.0,130,3,,10.0,29.719488,1007.0,,TRUE,TRUE,TRUE,,,,,,BKN,13000,,,,,,,VFR,-0.2,,,12.6,-3.6,,,,,,,METAR,166.0
PAEH 060855Z AUTO 35023G30KT 300V080 10SM OVC011 M02/M02 A3002 RMK AO2 PK WND 31030/0851 SLP175 T10161019 410041019 52008,PAEH,2023-05-06T08:55:00Z,58.65,-162.07,-1.6,-1.9,350,23,30,10.0,30.02067,1017.5,,TRUE,TRUE,,,,,,,OVC,1100,,,,,,,MVFR,0.8,,,-0.4,-1.9,,,,,,,METAR,101.0
PAED 060855Z 00000KT 10SM SCT060 BKN100 05/M00 A2982 RMK AO2A SLP095 T00541002 401110004 53002,PAED,2023-05-06T08:55:00Z,61.25,-149.83,5.4,-0.2,0,0,,10.0,29.819881,1009.5,,,TRUE,,,,,,,SCT,6000,BKN,10000,,,,,VFR,0.2,,,11.1,0.4,,,,,,,METAR,54.0
PACZ 060855Z AUTO 30006KT 10SM OVC013 M05/M07 A3005 RMK AO2 SLP186 T10461070 410401054 52006,PACZ,2023-05-06T08:55:00Z,61.78,-166.03,-4.6,-7.0,300,6,,10.0,30.050198,1018.6,,TRUE,TRUE,,,,,,,OVC,1300,,,,,,,MVFR,0.6,,,-4.0,-5.4,,,,,,,METAR,129.0
PABA 060855Z AUTO 08008KT 10SM BKN006 M12/M13 A3006 RMK AO2 FZRANO PNO $,PABA,2023-05-06T08:55:00Z,70.13,-143.58,-12.0,-13.0,80,8,,10.0,30.059055,,,TRUE,TRUE,TRUE,,,TRUE,,,BKN,600,,,,,,,IFR,,,,,,,,,,,,SPECI,1.0
OTBH 060855Z 01014KT 9999 CLR 37/M05 A2979 Q1008 RMK AO2A SLP089 T03661048 FZRANO $,OTBH,2023-05-06T08:55:00Z,25.12,51.32,36.6,-4.8,10,14,,6.21,29.763779,1008.9,,,TRUE,TRUE,,,TRUE,,,CLR,,,,,,,,VFR,,,,,,,,,,,,SPECI,40.0
OKAS 060855Z 29004KT 9999 CLR 34/M07 A2984 RMK AO2A SLP100 T03411066 58007 FZRANO $,OKAS,2023-05-06T08:55:00Z,29.35,47.52,34.1,-6.6,290,4,,6.21,29.840551,1010.0,,,TRUE,TRUE,,,TRUE,,,CLR,,,,,,,,VFR,-0.7,,,,,,,,,,,METAR,144.0
OEPS 060855Z 17006KT 9999 CLR 35/01 A2997 RMK AO2A SLP129 WND DATA ESTMD T03520007 57009,OEPS,2023-05-06T08:55:00Z,24.07,47.58,35.2,0.7,170,6,,6.21,29.970472,1012.9,,,TRUE,,,,,,,CLR,,,,,,,,VFR,-0.9,,,,,,,,,,,SPECI,503.0
NZCM 060855Z AUTO 00000KT 9999 CLR M24/M29 A2931 RMK AO2 SLP931 T12361288 56005,NZCM,2023-05-06T08:55:00Z,-77.85,166.67,-23.6,-28.8,0,0,,6.21,29.309055,993.1,,TRUE,TRUE,,,,,,,CLR,,,,,,,,VFR,-0.5,,,,,,,,,,,SPECI,24.0
LIVT 060855Z AUTO VRB03KT //// 19/14 Q1016,LIVT,2023-05-06T08:55:00Z,45.68,13.75,19.0,14.0,0,3,,,30.0,,,TRUE,,,,,,,,,,,,,,,,,,,,,,,,,,,,METAR,20.0
LIVR 060855Z 14007KT 9999 SCT030 09/02 Q1021 RMK SCT MON CLD SCT VIS MIN 9999,LIVR,2023-05-06T08:55:00Z,46.28,11.78,9.0,2.0,140,7,,6.21,30.147638,,,,,,,,,,,SCT,3000,,,,,,,VFR,,,,,,,,,,,,SPECI,1997.0
LIVP 060855Z 02005KT 9999 3000S SCT/// 09/05 Q1021 RMK BKN MON CLD CIME VAL CLD SCT VIS MIN 3000S,LIVP,2023-05-06T08:55:00Z,46.15,11.03,9.0,5.0,20,5,,6.21,30.147638,,,,,,,,,,,,,,,,,,,,,,,,,,,,,,,METAR,2099.0
LIVM 060855Z AUTO /////KT //// ///// Q////,LIVM,2023-05-06T08:55:00Z,44.45,12.3,,,,,,,,,,TRUE,,,,,,,,,,,,,,,,,,,,,,,,,,,,METAR,6.0
LIVF 060855Z 00000KT CAVOK 18/07 Q1016,LIVF,2023-05-06T08:55:00Z,43.52,12.72,18.0,7.0,0,0,,6.21,30.0,,,,,,,,,,,CAVOK,,,,,,,,VFR,,,,,,,,,,,,METAR,549.0
LIVE 060855Z 03006KT 9999 FEW022 12/06 Q1018 RMK BKN BKN060 VIS MIN 9999,LIVE,2023-05-06T08:55:00Z,46.82,10.5,12.0,6.0,30,6,,6.21,30.059055,,,,,,,,,,,FEW,2200,,,,,,,VFR,,,,,,,,,,,,METAR,1684.0
LIVD 060855Z AUTO VRB02KT //// 15/09 Q1020,LIVD,2023-05-06T08:55:00Z,46.72,12.22,15.0,9.0,0,2,,,30.11811,,,TRUE,,,,,,,,,,,,,,,,,,,,,,,,,,,,METAR,1221.0
LIVC 060855Z AUTO /////KT //// ///// Q////,LIVC,2023-05-06T08:55:00Z,44.2,10.68,,,,,,,,,,TRUE,,,,,,,,,,,,,,,,,,,,,,,,,,,,METAR,2139.0
LIRX 060855Z 00000KT CAVOK 18/14 Q1016 RMK SCT SCT200 VIS MIN 9999 VIS MAR 20 KM,LIRX,2023-05-06T08:55:00Z,42.73,10.38,18.0,14.0,0,0,,6.21,30.0,,,,,,,,,,,CAVOK,,,,,,,,VFR,,,,,,,,,,,,METAR,397.0
LIRV 060855Z 28002KT CAVOK 21/11 Q1017 RMK SCT SCT200 MON E SE LIB NC VIS MIN 9999 WIND THR04/////KT BLU,LIRV,2023-05-06T08:55:00Z,42.42,12.07,21.0,11.0,280,2,,6.21,30.029528,,,,,,,,,,,CAVOK,,,,,,,,VFR,,,,,,,,,,,,METAR,294.0
LIRT 060855Z 00000KT 9999 FEW015 15/11 Q1019,LIRT,2023-05-06T08:55:00Z,41.03,15.22,15.0,11.0,0,0,,6.21,30.088583,,,,,,,,,,,FEW,1500,,,,,,,VFR,,,,,,,,,,,,METAR,1058.0
LIRS 060855Z 25002KT CAVOK 20/11 Q1017 RMK SCT SCT200 VIS MIN 9999 WIND THR03 27002KT WIND THR21 26002KT BLU,LIRS,2023-05-06T08:55:00Z,42.75,11.07,20.0,11.0,250,2,,6.21,30.029528,,,,,,,,,,,CAVOK,,,,,,,,VFR,,,,,,,,,,,,METAR,3.0
LIRM 060855Z 19003KT 7000 BKN030 20/13 Q1017 RMK BKN VIS MIN 7000 WIND THR06 18002KT WHT,LIRM,2023-05-06T08:55:00Z,41.05,14.07,20.0,13.0,190,3,,4.35,30.029528,,,,,,,,,,,BKN,3000,,,,,,,MVFR,,,,,,,,,,,,METAR,6.0
LIRK 060855Z AUTO /////KT //// 11/07 Q1020,LIRK,2023-05-06T08:55:00Z,42.47,12.97,11.0,7.0,,,,,30.11811,,,TRUE,,,,,,,,,,,,,,,,,,,,,,,,,,,,METAR,1721.0
LIRE 060855Z 20004KT 9999 FEW030 20/17 Q1017 RMK FEW VIS MIN 9999 WIND THR13 19004KT WIND THR31 /////KT BLU,LIRE,2023-05-06T08:55:00Z,41.65,12.43,20.0,17.0,200,4,,6.21,30.029528,,,,,,,,,,,FEW,3000,,,,,,,VFR,,,,,,,,,,,,METAR,16.0
LIQC 060855Z 00000KT CAVOK 18/14 Q1018 RMK SKC QUK 1 QUL 0 VIS MAR 20 KM VIS MIN 9999,LIQC,2023-05-06T08:55:00Z,40.55,14.2,18.0,14.0,0,0,,6.21,30.059055,,,,,,,,,,,CAVOK,,,,,,,,VFR,,,,,,,,,,,,METAR,154.0
LIPS 060855Z 00000KT 9000 NSC 21/16 Q1016 RMK SCT SCT200 VIS MIN 9000 WIND THR26 00000KT WIND THR08 00000KT BLU,LIPS,2023-05-06T08:55:00Z,45.68,12.1,21.0,16.0,0,0,,5.59,30.0,,,,,,,,,,,CLR,,,,,,,,VFR,,,,,,,,,,,,METAR,42.0
LIPL 060855Z 23003KT CAVOK 20/14 Q1016 RMK SKC VIS MIN 9999 WIND THR31 29001KT WIND THR13 26002KT BLU,LIPL,2023-05-06T08:55:00Z,45.42,10.27,20.0,14.0,230,3,,6.21,30.0,,,,,,,,,,,CAVOK,,,,,,,,VFR,,,,,,,,,,,,METAR,96.0
LIPI 060855Z 17002KT CAVOK 20/14 Q1016 RMK SCT SCT140 VIS MIN 9999 WIND THR06 28002KT WIND THR24 19002KT BLU,LIPI,2023-05-06T08:55:00Z,45.97,13.05,20.0,14.0,170,2,,6.21,30.0,,,,,,,,,,,CAVOK,,,,,,,,VFR,,,,,,,,,,,,METAR,49.0
LIPF 060855Z 00000KT CAVOK 23/15 Q1016 RMK SCT SCT200 VIS MIN 9999,LIPF,2023-05-06T08:55:00Z,44.82,11.62,23.0,15.0,0,0,,6.21,30.0,,,,,,,,,,,CAVOK,,,,,,,,VFR,,,,,,,,,,,,METAR,5.0
LIPC 060855Z 04004KT CAVOK 20/13 Q1016 RMK BKN BKN170 VIS MIN 9999 WIND THR11 36003KT WIND THR29 03003KT BLU,LIPC,2023-05-06T08:55:00Z,44.22,12.3,20.0,13.0,40,4,,6.21,30.0,,,,,,,,,,,CAVOK,,,,,,,,VFR,,,,,,,,,,,,METAR,10.0
LIPA 060855Z 20004KT 9999 FEW070 20/16 Q1016 RMK SCT SCT200 VIS MIN 9999 WIND THR05 21003KT WIND THR23 23002KT A3002 BLU,LIPA,2023-05-06T08:55:00Z,46.02,12.58,20.0,16.0,200,4,,6.21,30.0,,,,,,,,,,,FEW,7000,,,,,,,VFR,,,-0.3,,,,,,,,,METAR,113.0
LIMV 060855Z /////KT CAVOK 17/08 Q1018 RMK FEW FEW200 MON LIB VAL NIL VIS MIN 9999,LIMV,2023-05-06T08:55:00Z,44.55,8.93,17.0,8.0,,,,6.21,30.059055,,,,,,,,,,,CAVOK,,,,,,,,VFR,,,,,,,,,,,,METAR,474.0
LIMU 060855Z 02004KT 9999 BKN015 18/14 Q1019 RMK BKN QUK 1 QUL 1 SE VIS MAR 20 KM VIS MIN 9999,LIMU,2023-05-06T08:55:00Z,43.95,8.17,18.0,14.0,20,4,,6.21,30.088583,,,,,,,,,,,BKN,1500,,,,,,,MVFR,,,,,,,,,,,,METAR,215.0
LIMS 060855Z 32003KT CAVOK 20/16 Q1016 RMK SKC VIS MIN 9999 WIND THR30 34004KT BLU,LIMS,2023-05-06T08:55:00Z,44.92,9.72,20.0,16.0,320,3,,6.21,30.0,,,,,,,,,,,CAVOK,,,,,,,,VFR,,,,,,,,,,,,METAR,132.0
LIMK 060855Z 00000KT CAVOK 17/13 Q1016,LIMK,2023-05-06T08:55:00Z,45.02,7.72,17.0,13.0,0,0,,6.21,30.0,,,,,,,,,,,CAVOK,,,,,,,,VFR,,,,,,,,,,,,METAR,693.0
LIMH 060855Z AUTO VRB03KT //// 00/M06 Q1025,LIMH,2023-05-06T08:55:00Z,45.93,7.7,0.0,-6.0,0,3,,,30.265747,,,TRUE,,,,,,,,,,,,,,,,,,,,,,,,,,,,METAR,3473.0
LIED 060855Z 15005KT CAVOK 24/10 Q1017 RMK SCT SCT200 VIS MIN 9999 WIND THR35 /////KT WIND THR17 15005KT BLU,LIED,2023-05-06T08:55:00Z,39.35,8.97,24.0,10.0,150,5,,6.21,30.029528,,,,,,,,,,,CAVOK,,,,,,,,VFR,,,,,,,,,,,,METAR,26.0
LIEB 060855Z 08007KT CAVOK 22/20 Q1017 RMK BKN BKN200 QUK 1 QUL 0 VIS MAR 16 KM MON LIB VIS MIN 9999,LIEB,2023-05-06T08:55:00Z,39.93,9.72,22.0,20.0,80,7,,6.21,30.029528,,,,,,,,,,,CAVOK,,,,,,,,VFR,,,,,,,,,,,,SPECI,126.0
LICZ 060855Z 07002KT CAVOK 21/04 Q1016 RMK SKC VIS MIN 9999 WIND THR28 04003KT WIND THR10 02002KT A3003 BLU,LICZ,2023-05-06T08:55:00Z,37.4,14.92,21.0,4.0,70,2,,6.21,30.0,,,,,,,,,,,CAVOK,,,,,,,,VFR,,,,,,,,,,,,METAR,22.0
LICT 060855Z 30007KT CAVOK 22/14 Q1017 RMK SCT SCT200 VIS MIN 9999 WIND THR13 31006KT BLU,LICT,2023-05-06T08:55:00Z,37.92,12.5,22.0,14.0,300,7,,6.21,30.029528,,,,,,,,,,,CAVOK,,,,,,,,VFR,,,,,,,,,,,,SPECI,4.0
LICF 060855Z 06009KT 9999 FEW030 21/15 Q1017 RMK FEW QUK 2 QUL 1 NE VIS MAR 20 KM MON LIB NC VIS MIN 9999,LICF,2023-05-06T08:55:00Z,38.2,15.55,21.0,15.0,60,9,,6.21,30.029528,,,,,,,,,,,FEW,3000,,,,,,,VFR,,,,,,,,,,,,SPECI,66.0
LIBY 060855Z ///13KT CAVOK 20/14 Q1014 RMK SKC QUK 3 QUL 1 N VIS MAR 20 KM VIS MIN 9999,LIBY,2023-05-06T08:55:00Z,39.82,18.35,20.0,14.0,,,,6.21,29.940945,,,,,,,,,,,CAVOK,,,,,,,,VFR,,,,,,,,,,,,SPECI,105.0
LIBV 060855Z 01008KT CAVOK 18/07 Q1016 RMK FEW FEW200 VIS MIN 9999 WIND THR32 36008KT WIND THR14 35008KT BLU,LIBV,2023-05-06T08:55:00Z,40.77,16.93,18.0,7.0,10,8,,6.21,30.0,,,,,,,,,,,CAVOK,,,,,,,,VFR,,,,,,,,,,,,METAR,344.0
LIBQ 060855Z 04005KT 9999 SCT004 12/04 Q1021,LIBQ,2023-05-06T08:55:00Z,39.32,16.38,12.0,4.0,40,5,,6.21,30.147638,,,,,,,,,,,SCT,400,,,,,,,VFR,,,,,,,,,,,,METAR,1660.0
LIBN 060855Z 36009KT CAVOK 22/13 Q1015 RMK SKC VIS MIN 9999 WIND THR14 01010KT WIND THR32 36010KT BLU,LIBN,2023-05-06T08:55:00Z,40.23,18.13,22.0,13.0,360,9,,6.21,29.970472,,,,,,,,,,,CAVOK,,,,,,,,VFR,,,,,,,,,,,,SPECI,46.0
LIBA 060855Z 30006KT CAVOK 23/11 Q1016 RMK SKC VIS MIN 9999 WIND THR11 27005KT WIND THR29 /////KT BLU,LIBA,2023-05-06T08:55:00Z,41.53,15.72,23.0,11.0,300,6,,6.21,30.0,,,,,,,,,,,CAVOK,,,,,,,,VFR,,,,,,,,,,,,SPECI,55.0
KXMR 060855Z AUTO 12007KT 10SM BKN030 24/19 A3005 RMK AO2 SLP179 T02360193 57006 $,KXMR,2023-05-06T08:55:00Z,28.47,-80.57,23.6,19.3,120,7,,10.0,30.050198,1017.9,,TRUE,TRUE,TRUE,,,,,,BKN,3000,,,,,,,MVFR,-0.6,,,,,,,,,,,SPECI,5.0
KWRI 060855Z 00000KT 2SM BR CLR 06/06 A3026 RMK AO2A SLP247 T00620061 52004,KWRI,2023-05-06T08:55:00Z,40.02,-74.58,6.2,6.1,0,0,,2.0,30.259842,1024.7,,,TRUE,,,,,,BR,CLR,,,,,,,,IFR,0.4,,,,,,,,,,,SPECI,35.0
KWRB 060855Z AUTO 00000KT 10SM OVC065 16/15 A3017 RMK AO2 SLP218 T01590154 52006,KWRB,2023-05-06T08:55:00Z,32.63,-83.58,15.9,15.4,0,0,,10.0,30.171259,1021.8,,TRUE,TRUE,,,,,,,OVC,6500,,,,,,,VFR,0.6,,,,,,,,,,,SPECI,82.0
KVPS 060855Z AUTO 08004KT 10SM FEW042 17/16 A3007 RMK AO2 SLP189 T01730163 55003 $,KVPS,2023-05-06T08:55:00Z,30.47,-86.52,17.3,16.3,80,4,,10.0,30.070866,1018.9,,TRUE,TRUE,TRUE,,,,,,FEW,4200,,,,,,,VFR,-0.3,,,,,,,,,,,METAR,21.0
KVOK 060855Z AUTO 11006KT 10SM OVC090 13/13 A2999 RMK AO2 RAE12RAB18E39DZB39E43 SLP157 P0002 60004 T01310128 51003,KVOK,2023-05-06T08:55:00Z,43.93,-90.27,13.1,12.8,110,6,,10.0,29.991142,1015.7,,TRUE,TRUE,,,,,,,OVC,9000,,,,,,,VFR,0.3,,,,,0.02,0.04,,,,,METAR,278.0
KVBG 060855Z AUTO 00000KT 9SM CLR 07/07 A3012 RMK AO2 SLP203 T00690065 58002 TSNO $,KVBG,2023-05-06T08:55:00Z,34.73,-120.58,6.9,6.5,0,0,,9.0,30.121063,1020.3,,TRUE,TRUE,TRUE,,TRUE,,,,CLR,,,,,,,,VFR,-0.2,,,,,,,,,,,METAR,96.0
KVAD 060855Z AUTO 08003KT 10SM FEW070 OVC085 18/16 A3011 RMK AO2 SLP197 T01820156 57005 $,KVAD,2023-05-06T08:55:00Z,30.97,-83.2,18.2,15.6,80,3,,10.0,30.109253,1019.7,,TRUE,TRUE,TRUE,,,,,,FEW,7000,OVC,8500,,,,,VFR,-0.5,,,,,,,,,,,METAR,70.0
KTMA 060855Z AUTO 9SM 18/17 RMK AO2 T01830165 $,KTMA,2023-05-06T08:55:00Z,31.43,-83.48,18.3,16.5,,,,9.0,,,,TRUE,TRUE,TRUE,,,,,,,,,,,,,,,,,,,,,,,,,,METAR,105.0
KTIK 060855Z AUTO 17011KT 9SM CLR 22/22 A2977 RMK AO2 SLP074 T02180216 50001 $,KTIK,2023-05-06T08:55:00Z,35.4,-97.38,21.8,21.6,170,11,,9.0,29.769686,1007.4,,TRUE,TRUE,TRUE,,,,,,CLR,,,,,,,,VFR,0.1,,,,,,,,,,,METAR,387.0
KTDR 060855Z AUTO 02005KT 10SM CLR 18/17 A3004 RMK AO2 SLP176 T01830171 56003 $,KTDR,2023-05-06T08:55:00Z,30.05,-85.52,18.3,17.1,20,5,,10.0,30.041338,1017.6,,TRUE,TRUE,TRUE,,,,,,CLR,,,,,,,,VFR,-0.3,,,,,,,,,,,METAR,4.0
KTBN 060855Z AUTO 16008G14KT 10SM OVC009 M M RMK AO2 SLPNO RVRNO $,KTBN,2023-05-06T08:55:00Z,37.73,-92.13,,,160,8,14,10.0,,,,TRUE,TRUE,TRUE,,,,,,OVC,900,,,,,,,IFR,,,,,,,,,,,,SPECI,349.0
KSXS 060855Z AUTO 09003KT 10SM CLR 16/14 A3010 RMK AO2 SLP192 T01560140 50001,KSXS,2023-05-06T08:55:00Z,31.37,-85.85,15.6,14.0,90,3,,10.0,30.100393,1019.2,,TRUE,TRUE,,,,,,,CLR,,,,,,,,VFR,0.1,,,,,,,,,,,METAR,120.0
KSVN 060855Z AUTO 04005KT 10SM SCT041 BKN120 18/16 A3014 RMK AO2 SLP210 T01820163 55004 $,KSVN,2023-05-06T08:55:00Z,32.02,-81.12,18.2,16.3,40,5,,10.0,30.138779,1021.0,,TRUE,TRUE,TRUE,,,,,,SCT,4100,BKN,12000,,,,,VFR,-0.4,,,,,,,,,,,METAR,13.0
KSUU 060855Z AUTO 19005KT 10SM OVC090 11/09 A3005 RMK AO2 SLP182 60000 T01070093 56005,KSUU,2023-05-06T08:55:00Z,38.27,-121.93,10.7,9.3,190,5,,10.0,30.050198,1018.2,,TRUE,TRUE,,,,,,,OVC,9000,,,,,,,VFR,-0.5,,,,,,0.005,,,,,METAR,9.0
KSSC 060855Z AUTO 00000KT 10SM OVC170 13/11 A3019 RMK AO2 SLP224 T01290110 53001 $,KSSC,2023-05-06T08:55:00Z,33.97,-80.47,12.9,11.0,0,0,,10.0,30.188976,1022.4,,TRUE,TRUE,TRUE,,,,,,OVC,17000,,,,,,,VFR,0.1,,,,,,,,,,,METAR,71.0
KSLI 060855Z AUTO 00000KT 10SM CLR 11/09 A3005 RMK AO2 SLP179 T01120089 55006 $,KSLI,2023-05-06T08:55:00Z,33.78,-118.03,11.2,8.9,0,0,,10.0,30.050198,1017.9,,TRUE,TRUE,TRUE,,,,,,CLR,,,,,,,,VFR,-0.6,,,,,,,,,,,METAR,8.0
KSKA 060855Z 21007KT 10SM OVC007 07/05 A2986 RMK AO2A CIG 005 RWY05 SLP114 T00690052 50001,KSKA,2023-05-06T08:55:00Z,47.62,-117.67,6.9,5.2,210,7,,10.0,29.861221,1011.4,,,TRUE,,,,,,,OVC,700,,,,,,,IFR,0.1,,,,,,,,,,,METAR,754.0
KSHM 060855Z AUTO 36007KT 10SM CLR 09/M00 A2989 RMK AO2 SLP064 T00851003 58000 $,KSHM,2023-05-06T08:55:00Z,38.8,-104.52,8.5,-0.3,360,7,,10.0,29.890747,1006.4,,TRUE,TRUE,TRUE,,,,,,CLR,,,,,,,,VFR,0.0,,,,,,,,,,,METAR,1900.0
KSCK 060855Z AUTO 00000KT 10SM -RA FEW060 SCT070 OVC095 12/11 A3008 RMK AO2 SLP184 P0000 60004 T01170106 58004,KSCK,2023-05-06T08:55:00Z,37.88,-121.22,11.7,10.6,0,0,,10.0,30.079725,1018.4,,TRUE,TRUE,,,,,,-RA,FEW,6000,SCT,7000,OVC,9500,,,VFR,-0.4,,,,,0.005,0.04,,,,,METAR,8.0
KRYM 060855Z AUTO 06007KT 10SM OVC019 09/06 A2996 RMK AO2 SLP150 T00860055 56002 $,KRYM,2023-05-06T08:55:00Z,46.08,-94.37,8.6,5.5,60,7,,10.0,29.958662,1015.0,,TRUE,TRUE,TRUE,,,,,,OVC,1900,,,,,,,MVFR,-0.2,,,,,,,,,,,METAR,344.0
KRNO 060855Z VRB05KT 10SM SCT035 BKN050 OVC065 08/M01 A2998 RMK AO2 SLP130 T00781011 56001,KRNO,2023-05-06T08:55:00Z,39.5,-119.77,7.8,-1.1,0,5,,10.0,29.97933,1013.0,,,TRUE,,,,,,,SCT,3500,BKN,5000,OVC,6500,,,VFR,-0.1,,,,,,,,,,,METAR,1344.0
KRIV 060855Z AUTO 00000KT 10SM CLR 08/07 A3007 RMK AO2 SLP180 T00750074 58004,KRIV,2023-05-06T08:55:00Z,33.87,-117.23,7.5,7.4,0,0,,10.0,30.070866,1018.0,,TRUE,TRUE,,,,,,,CLR,,,,,,,,VFR,-0.4,,,,,,,,,,,METAR,454.0
KRDR 060855Z AUTO 06005KT 10SM CLR 07/04 A2998 RMK AO2 SLP159 T00730037 50003 $,KRDR,2023-05-06T08:55:00Z,47.93,-97.4,7.3,3.7,60,5,,10.0,29.97933,1015.9,,TRUE,TRUE,TRUE,,,,,,CLR,,,,,,,,VFR,0.3,,,,,,,,,,,SPECI,276.0
KRCA 060855Z AUTO 00000KT 10SM OVC085 12/07 A2980 RMK AO2 SLP079 T01150070 52012 $,KRCA,2023-05-06T08:55:00Z,44.15,-103.12,11.5,7.0,0,0,,10.0,29.799213,1007.9,,TRUE,TRUE,TRUE,,,,,,OVC,8500,,,,,,,VFR,1.2,,,,,,,,,,,METAR,993.0
KQVF 060855Z AUTO 16014G19KT 120V200 9999 FEW023 SCT055 BKN070 31/24 A2996 RMK AO2 SLP148 WND DATA ESTMD T03080244 58006,KQVF,2023-05-06T08:55:00Z,,,30.8,24.4,160,14,19,6.21,29.958662,1014.8,,TRUE,TRUE,,,,,,,FEW,2300,SCT,5500,BKN,7000,,,VFR,-0.6,,,,,,,,,,,METAR,
KQTZ 060855Z 26004KT 9999 SKC 34/01 A2980 RMK SLP093 58007,KQTZ,2023-05-06T08:55:00Z,,,34.0,1.0,260,4,,6.21,29.799213,1009.3,,,,,,,,,,SKC,,,,,,,,VFR,-0.7,,,,,,,,,,,METAR,
KQRH 060855Z AUTO 07011G16KT 050V130 9999 CLR 35/24 A2971 RMK AO2 SLP063 WND DATA ESTMD T03520243 57015,KQRH,2023-05-06T08:55:00Z,,,35.2,24.3,70,11,16,6.21,29.71063,1006.3,,TRUE,TRUE,,,,,,,CLR,,,,,,,,VFR,-1.5,,,,,,,,,,,METAR,
KQHY 060855Z AUTO 09003KT 10SM BKN034 OVC045 20/19 A3007 RMK AO2 SLP189 T02020187 57005,KQHY,2023-05-06T08:55:00Z,,,20.2,18.7,90,3,,10.0,30.070866,1018.9,,TRUE,TRUE,,,,,,,BKN,3400,OVC,4500,,,,,VFR,-0.5,,,,,,,,,,,METAR,
KQBL 060855Z AUTO 00000KT 10SM BKN031 BKN043 20/20 A3008 RMK AO2 SLP192 WND DATA ESTMD T01980199 56005,KQBL,2023-05-06T08:55:00Z,,,19.8,19.9,0,0,,10.0,30.079725,1019.2,,TRUE,TRUE,,,,,,,BKN,3100,BKN,4300,,,,,VFR,-0.5,,,,,,,,,,,METAR,
KQAZ 060855Z AUTO 08020G28KT 9999 CLR 37/M04 A2993 RMK AO2 PK WND 07028/14 SLP127 WND DATA ESTMD T03691040,KQAZ,2023-05-06T08:55:00Z,,,36.9,-4.0,80,20,28,6.21,29.929134,1012.7,,TRUE,TRUE,,,,,,,CLR,,,,,,,,VFR,,,,,,,,,,,,METAR,
KPSM 060855Z 27004KT 10SM SCT080 07/05 A3014 RMK AO2A SLP209 T00700047 50000,KPSM,2023-05-06T08:55:00Z,43.08,-70.82,7.0,4.7,270,4,,10.0,30.138779,1020.9,,,TRUE,,,,,,,SCT,8000,,,,,,,VFR,0.0,,,,,,,,,,,METAR,34.0
KPOB 060855Z AUTO 00000KT 10SM CLR 10/10 A3021 RMK AO2 SLP232 T01030097 51007 $,KPOB,2023-05-06T08:55:00Z,35.17,-79.02,10.3,9.7,0,0,,10.0,30.209646,1023.2,,TRUE,TRUE,TRUE,,,,,,CLR,,,,,,,,VFR,0.7,,,,,,,,,,,METAR,57.0
KPHP 060855Z AUTO 00000KT 10SM -RA OVC080 12/11 A2977 RMK AO2 SLP067 P0000 60000 T01170111 55012,KPHP,2023-05-06T08:55:00Z,44.05,-101.6,11.7,11.1,0,0,,10.0,29.769686,1006.7,,TRUE,TRUE,,,,,,-RA,OVC,8000,,,,,,,VFR,-1.2,,,,,0.005,0.005,,,,,METAR,673.0
KPAM 060855Z AUTO 02003KT 10SM CLR 18/16 A3007 RMK AO2 SLP186 T01830164 55003 $,KPAM,2023-05-06T08:55:00Z,30.07,-85.57,18.3,16.4,20,3,,10.0,30.070866,1018.6,,TRUE,TRUE,TRUE,,,,,,CLR,,,,,,,,VFR,-0.3,,,,,,,,,,,METAR,4.0
KP58 060855Z AUTO 16008KT 11/07 A3026 RMK AO1 SLP249 T01060067 53006,KP58,2023-05-06T08:55:00Z,44.02,-82.8,10.6,6.7,160,8,,,30.259842,1024.9,,TRUE,TRUE,,,,,,,,,,,,,,,,0.6,,,,,,,,,,,SPECI,180.0
KOZR 060855Z AUTO 04005KT 10SM CLR 15/13 A3010 RMK AO2 SLP194 T01540131 50001,KOZR,2023-05-06T08:55:00Z,31.28,-85.72,15.4,13.1,40,5,,10.0,30.100393,1019.4,,TRUE,TRUE,,,,,,,CLR,,,,,,,,VFR,0.1,,,,,,,,,,,METAR,90.0
KOFF 060855Z 00000KT 10SM SCT020 OVC030 16/15 A2986 RMK AO2A SLP113 T01620154 53012 PWINO PNO FZRANO TSNO CHINO RWY31 $,KOFF,2023-05-06T08:55:00Z,41.12,-95.92,16.2,15.4,0,0,,10.0,29.861221,1011.3,,,TRUE,TRUE,,TRUE,TRUE,TRUE,,SCT,2000,OVC,3000,,,,,MVFR,1.2,,,,,,,,,,,METAR,308.0
KNTD 060855Z AUTO 00000KT CLR 12/10 A3008 RMK AO2 SLP188 T01170100 58000 $,KNTD,2023-05-06T08:55:00Z,34.12,-119.12,11.7,10.0,0,0,,,30.079725,1018.8,,TRUE,TRUE,TRUE,,,,,,CLR,,,,,,,,,0.0,,,,,,,,,,,SPECI,1.0
KNKX 060855Z 00000KT 10SM CLR 08/08 A3006 RMK AO2 SLP177 T00830078 58011,KNKX,2023-05-06T08:55:00Z,32.87,-117.13,8.3,7.8,0,0,,10.0,30.059055,1017.7,,,TRUE,,,,,,,CLR,,,,,,,,VFR,-1.1,,,,,,,,,,,METAR,138.0
KMXF 060855Z AUTO 07004KT 10SM CLR 16/11 A3010 RMK AO2 SLP195 T01570109,KMXF,2023-05-06T08:55:00Z,32.38,-86.37,15.7,10.9,70,4,,10.0,30.100393,1019.5,,TRUE,TRUE,,,,,,,CLR,,,,,,,,VFR,,,,,,,,,,,,METAR,47.0
KMUI 060855Z AUTO 00000KT 10SM CLR 06/04 A3027 RMK AO2 SLP254 T00550037 53003 TSNO $,KMUI,2023-05-06T08:55:00Z,40.43,-76.57,5.5,3.7,0,0,,10.0,30.268702,1025.4,,TRUE,TRUE,TRUE,,TRUE,,,,CLR,,,,,,,,VFR,0.3,,,,,,,,,,,METAR,146.0
KMTC 060855Z AUTO 11004KT 10SM CLR 07/05 A3025 RMK AO2 SLP250 T00730051 53003 $,KMTC,2023-05-06T08:55:00Z,42.62,-82.83,7.3,5.1,110,4,,10.0,30.250984,1025.0,,TRUE,TRUE,TRUE,,,,,,CLR,,,,,,,,VFR,0.3,,,,,,,,,,,METAR,177.0
KMMT 060855Z AUTO 00000KT 10SM SCT160 BKN180 12/12 A3019 RMK AO2 SLP225 T01200115 53001 $,KMMT,2023-05-06T08:55:00Z,33.92,-80.8,12.0,11.5,0,0,,10.0,30.188976,1022.5,,TRUE,TRUE,TRUE,,,,,,SCT,16000,BKN,18000,,,,,VFR,0.1,,,,,,,,,,,METAR,76.0
KMKG 060855Z AUTO 13013G21KT 10SM CLR 14/03 A3015 RMK AO2 SLP209 T01390033 51009,KMKG,2023-05-06T08:55:00Z,43.17,-86.23,13.9,3.3,130,13,21,10.0,30.15059,1020.9,,TRUE,TRUE,,,,,,,CLR,,,,,,,,VFR,0.9,,,,,,,,,,,METAR,190.0
KMIB 060855Z AUTO 09007KT 10SM CLR 07/04 A2995 RMK AO2 SLP151 T00710035 55005 $,KMIB,2023-05-06T08:55:00Z,48.42,-101.35,7.1,3.5,90,7,,10.0,29.949802,1015.1,,TRUE,TRUE,TRUE,,,,,,CLR,,,,,,,,VFR,-0.5,,,,,,,,,,,METAR,505.0
KMGE 060855Z AUTO 00000KT 10SM CLR 14/11 A3017 RMK AO2 SLP215 T01350112 55003 $,KMGE,2023-05-06T08:55:00Z,33.92,-84.52,13.5,11.2,0,0,,10.0,30.171259,1021.5,,TRUE,TRUE,TRUE,,,,,,CLR,,,,,,,,VFR,-0.3,,,,,,,,,,,METAR,309.0
KMCF 060855Z AUTO 10008KT 10SM CLR 21/17 A3001 RMK AO2 SLP165 T02140170 57008 FZRANO $,KMCF,2023-05-06T08:55:00Z,27.85,-82.52,21.4,17.0,100,8,,10.0,30.008858,1016.5,,TRUE,TRUE,TRUE,,,TRUE,,,CLR,,,,,,,,VFR,-0.8,,,,,,,,,,,METAR,3.0
KLUF 060855Z AUTO 00000KT 10SM CLR 18/00 A2992 RMK AO2 SLP124 T01780004 50000 $,KLUF,2023-05-06T08:55:00Z,33.53,-112.37,17.8,0.4,0,0,,10.0,29.920275,1012.4,,TRUE,TRUE,TRUE,,,,,,CLR,,,,,,,,VFR,0.0,,,,,,,,,,,METAR,333.0
KLTS 060855Z AUTO 20012KT 10SM CLR 21/13 A2977 RMK AO2 SLP063 T02050134 50002,KLTS,2023-05-06T08:55:00Z,34.67,-99.27,20.5,13.4,200,12,,10.0,29.769686,1006.3,,TRUE,TRUE,,,,,,,CLR,,,,,,,,VFR,0.2,,,,,,,,,,,METAR,416.0
KLSV 060855Z AUTO 20013KT 10SM CLR 16/00 A2989 RMK AO2 SLP108 T01630000 52006 $,KLSV,2023-05-06T08:55:00Z,36.23,-115.05,16.3,0.0,200,13,,10.0,29.890747,1010.8,,TRUE,TRUE,TRUE,,,,,,CLR,,,,,,,,VFR,0.6,,,,,,,,,,,METAR,563.0
KLSF 060855Z AUTO 33003KT 10SM SCT065 15/13 A3012 RMK AO2 SLP204 T01520132 55002 $,KLSF,2023-05-06T08:55:00Z,32.32,-84.97,15.2,13.2,330,3,,10.0,30.121063,1020.4,,TRUE,TRUE,TRUE,,,,,,SCT,6500,,,,,,,VFR,-0.2,,,,,,,,,,,METAR,68.0
KLRF 060855Z 10004KT 10SM BKN015 OVC023 18/18 A2995 RMK AO2A CIG 016V023 CIG 022 RWY07 SLP143 T01840182 53001,KLRF,2023-05-06T08:55:00Z,34.92,-92.12,18.4,18.2,100,4,,10.0,29.949802,1014.3,,,TRUE,,,,,,,BKN,1500,OVC,2300,,,,,MVFR,0.1,,,,,,,,,,,SPECI,85.0
KLOR 060855Z AUTO 00000KT 10SM SCT075 15/14 A3011 RMK AO2 SLP179 T01510138 50002,KLOR,2023-05-06T08:55:00Z,31.35,-85.75,15.1,13.8,0,0,,10.0,30.109253,1017.9,,TRUE,TRUE,,,,,,,SCT,7500,,,,,,,VFR,0.2,,,,,,,,,,,METAR,92.0
KLLJ 060855Z AUTO 29003KT 10SM OVC080 04/M02 A2985 RMK AO2 SLP087 T00391017 50000,KLLJ,2023-05-06T08:55:00Z,44.52,-114.22,3.9,-1.7,290,3,,10.0,29.84941,1008.7,,TRUE,TRUE,,,,,,,OVC,8000,,,,,,,VFR,0.0,,,,,,,,,,,METAR,1535.0
KLIC 060855Z AUTO 30008KT 10SM CLR 06/02 A2987 RMK AO2 SLP059 T00610022 58009,KLIC,2023-05-06T08:55:00Z,39.27,-103.67,6.1,2.2,300,8,,10.0,29.870079,1005.9,,TRUE,TRUE,,,,,,,CLR,,,,,,,,VFR,-0.9,,,,,,,,,,,METAR,1635.0
KLHW 060855Z AUTO 09004KT 10SM OVC090 18/16 A3013 RMK AO2 SLP206 T01810157 55003 $,KLHW,2023-05-06T08:55:00Z,31.88,-81.57,18.1,15.7,90,4,,10.0,30.129921,1020.6,,TRUE,TRUE,TRUE,,,,,,OVC,9000,,,,,,,VFR,-0.3,,,,,,,,,,,METAR,14.0
KLGF 060855Z AUTO 31003KT M M CLR 18/04 A2993 RMK AO2 SLP134 T01770039 55001 RVRNO PWINO TSNO $,KLGF,2023-05-06T08:55:00Z,32.87,-114.4,17.7,3.9,310,3,,,29.929134,1013.4,,TRUE,TRUE,TRUE,,TRUE,,TRUE,,CLR,,,,,,,,,-0.1,,,,,,,,,,,METAR,118.0
KLFI 060855Z AUTO 00000KT 10SM OVC090 12/11 A3024 RMK AO2 SLP247 T01160114 53004 $,KLFI,2023-05-06T08:55:00Z,37.08,-76.33,11.6,11.4,0,0,,10.0,30.239174,1024.7,,TRUE,TRUE,TRUE,,,,,,OVC,9000,,,,,,,VFR,0.4,,,,,,,,,,,METAR,2.0
KLCK 060855Z AUTO 08006KT 10SM CLR 10/05 A3021 RMK AO2 T00990047,KLCK,2023-05-06T08:55:00Z,39.82,-82.92,9.9,4.7,80,6,,10.0,30.209646,,,TRUE,TRUE,,,,,,,CLR,,,,,,,,VFR,,,,,,,,,,,,METAR,225.0
KINS 060855Z AUTO 02005KT 10SM CLR 11/M05 A2992 RMK AO2 SLP105 T01121049 50002 $,KINS,2023-05-06T08:55:00Z,36.58,-115.68,11.2,-4.9,20,5,,10.0,29.920275,1010.5,,TRUE,TRUE,TRUE,,,,,,CLR,,,,,,,,VFR,0.2,,,,,,,,,,,SPECI,954.0
KIAB 060855Z AUTO 20016KT 10SM FEW017 23/21 A2971 RMK AO2 PK WND 18026/22 SLP053 T02310210 56007 $,KIAB,2023-05-06T08:55:00Z,37.62,-97.27,23.1,21.0,200,16,,10.0,29.71063,1005.3,,TRUE,TRUE,TRUE,,,,,,FEW,1700,,,,,,,VFR,-0.7,,,,,,,,,,,METAR,413.0
KI16 060855Z AUTO 10SM CLR A3027 RMK AO2 6////,KI16,2023-05-06T08:55:00Z,37.6,-81.57,,,,,,10.0,30.268702,,,TRUE,TRUE,,,,,,,CLR,,,,,,,,VFR,,,,,,,,,,,,METAR,528.0
KHUA 060855Z AUTO 17005KT 10SM OVC035 15/13 A3012 RMK AO2 SLP199 T01530128 55002,KHUA,2023-05-06T08:55:00Z,34.68,-86.68,15.3,12.8,170,5,,10.0,30.121063,1019.9,,TRUE,TRUE,,,,,,,OVC,3500,,,,,,,VFR,-0.2,,,,,,,,,,,METAR,200.0
KHST 060855Z AUTO 31003KT 10SM CLR 22/19 A3003 RMK AO2 SLP172 T02150187 55001,KHST,2023-05-06T08:55:00Z,25.48,-80.37,21.5,18.7,310,3,,10.0,30.029528,1017.2,,TRUE,TRUE,,,,,,,CLR,,,,,,,,VFR,-0.1,,,,,,,,,,,METAR,1.0
KHRT 060855Z AUTO 00000KT 10SM BKN033 19/18 A3006 RMK AO2 VIS 2 1/4 RWY36 SLP181 T01930176 57005 $,KHRT,2023-05-06T08:55:00Z,30.42,-86.68,19.3,17.6,0,0,,10.0,30.059055,1018.1,,TRUE,TRUE,TRUE,,,,,,BKN,3300,,,,,,,VFR,-0.5,,,,,,,,,,,SPECI,10.0
KHOP 060855Z AUTO 15009KT 10SM OVC046 16/13 A3009 RMK AO2 SLP189 T01590130 53003,KHOP,2023-05-06T08:55:00Z,36.67,-87.5,15.9,13.0,150,9,,10.0,30.088583,1018.9,,TRUE,TRUE,,,,,,,OVC,4600,,,,,,,VFR,0.3,,,,,,,,,,,METAR,170.0
KHON 060855Z AUTO 12009KT 6SM BR BKN019 OVC037 15/13 A2978 RMK AO2 SLP078 T01500133 58005,KHON,2023-05-06T08:55:00Z,44.38,-98.23,15.0,13.3,120,9,,6.0,29.778543,1007.8,,TRUE,TRUE,,,,,,BR,BKN,1900,OVC,3700,,,,,MVFR,-0.5,,,,,,,,,,,METAR,391.0
KHMN 060855Z AUTO 10003KT 10SM CLR 14/M10 A3004 RMK AO2 SLP112 T01441104 52007,KHMN,2023-05-06T08:55:00Z,32.85,-106.1,14.4,-10.4,100,3,,10.0,30.041338,1011.2,,TRUE,TRUE,,,,,,,CLR,,,,,,,,VFR,0.7,,,,,,,,,,,SPECI,1240.0
KHLR 060855Z AUTO 18011KT 7SM CLR 20/15 A2988 RMK AO2 SLP107 T01960150 55004,KHLR,2023-05-06T08:55:00Z,31.13,-97.72,19.6,15.0,180,11,,7.0,29.878937,1010.7,,TRUE,TRUE,,,,,,,CLR,,,,,,,,VFR,-0.4,,,,,,,,,,,SPECI,271.0
KHFF 060855Z AUTO 00000KT 10SM CLR 10/09 A3020 RMK AO2 SLP228 T00960094 52007 $,KHFF,2023-05-06T08:55:00Z,35.03,-79.5,9.6,9.4,0,0,,10.0,30.200787,1022.8,,TRUE,TRUE,TRUE,,,,,,CLR,,,,,,,,VFR,0.7,,,,,,,,,,,METAR,100.0
KHEY 060855Z AUTO 04003KT 10SM SCT075 17/14 A3009 RMK AO2 SLP190 T01680139 53001,KHEY,2023-05-06T08:55:00Z,31.35,-85.65,16.8,13.9,40,3,,10.0,30.088583,1019.0,,TRUE,TRUE,,,,,,,SCT,7500,,,,,,,VFR,0.1,,,,,,,,,,,METAR,95.0
KGXF 060855Z AUTO 13008KT 10SM CLR 15/M03 A2995 RMK AO2 SLP134 T01531026 50001 FZRANO $,KGXF,2023-05-06T08:55:00Z,32.88,-112.72,15.3,-2.6,130,8,,10.0,29.949802,1013.4,,TRUE,TRUE,TRUE,,,TRUE,,,CLR,,,,,,,,VFR,0.1,,,,,,,,,,,METAR,261.0
KGXA 060855Z AUTO 26008KT 10SM CLR 09/03 A3000 RMK AO2 SLP148 WND DATA ESTMD T00920031 55007,KGXA,2023-05-06T08:55:00Z,34.57,-117.67,9.2,3.1,260,8,,10.0,30.0,1014.8,,TRUE,TRUE,,,,,,,CLR,,,,,,,,VFR,-0.7,,,,,,,,,,,METAR,927.0
KGUS 060855Z AUTO 13006KT 10SM OVC150 12/06 A3014 RMK AO2 SLP207 T01180063 52010 TSNO $,KGUS,2023-05-06T08:55:00Z,40.63,-86.15,11.8,6.3,130,6,,10.0,30.138779,1020.7,,TRUE,TRUE,TRUE,,TRUE,,,,OVC,15000,,,,,,,VFR,1.0,,,,,,,,,,,SPECI,245.0
KGUR 060855Z AUTO 00000KT 6SM BR FEW100 05/05 A2986 RMK AO2 SLP117 T00500050 50003,KGUR,2023-05-06T08:55:00Z,42.25,-104.72,5.0,5.0,0,0,,6.0,29.861221,1011.7,,TRUE,TRUE,,,,,,BR,FEW,10000,,,,,,,VFR,0.3,,,,,,,,,,,METAR,1341.0
KGTB 060855Z AUTO 00000KT 10SM CLR 03/03 A3027 RMK AO2 SLP253 T00310030 53007 $,KGTB,2023-05-06T08:55:00Z,44.07,-75.72,3.1,3.0,0,0,,10.0,30.268702,1025.3,,TRUE,TRUE,TRUE,,,,,,CLR,,,,,,,,VFR,0.7,,,,,,,,,,,SPECI,206.0
KGSB 060855Z 10003KT 10SM SCT085 12/11 A3021 RMK AO2A SLP233 WND DATA ESTMD T01170112 53007 $,KGSB,2023-05-06T08:55:00Z,35.33,-77.93,11.7,11.2,100,3,,10.0,30.209646,1023.3,,,TRUE,TRUE,,,,,,SCT,8500,,,,,,,VFR,0.7,,,,,,,,,,,METAR,33.0
KGRK 060855Z AUTO 17010KT 10SM CLR 19/15 A2988 RMK AO2 SLP107 T01850154 55004,KGRK,2023-05-06T08:55:00Z,31.07,-97.83,18.5,15.4,170,10,,10.0,29.878937,1010.7,,TRUE,TRUE,,,,,,,CLR,,,,,,,,VFR,-0.4,,,,,,,,,,,METAR,311.0
KGOV 060855Z AUTO M M M M M M RMK AO2 SLPNO RVRNO PWINO PNO FZRANO CHINO RWY23 $,KGOV,2023-05-06T08:55:00Z,44.68,-84.73,,,,,,,,,,TRUE,TRUE,TRUE,,,TRUE,TRUE,,,,,,,,,,,,,,,,,,,,,,SPECI,350.0
KGFA 060855Z AUTO 21007KT 10SM FEW045 OVC060 09/08 A2974 RMK AO2 DZE28 SLP076 P0000 60006 T00870081 58009 $,KGFA,2023-05-06T08:55:00Z,47.5,-111.18,8.7,8.1,210,7,,10.0,29.740158,1007.6,,TRUE,TRUE,TRUE,,,,,,FEW,4500,OVC,6000,,,,,VFR,-0.9,,,,,0.005,0.06,,,,,METAR,1058.0
KFTK 060855Z AUTO 09003KT 10SM -RA OVC085 15/10 A3012 RMK AO2 RAE31RAB43 SLP198 P0000 60000 T01460102 53003,KFTK,2023-05-06T08:55:00Z,37.9,-85.97,14.6,10.2,90,3,,10.0,30.121063,1019.8,,TRUE,TRUE,,,,,,-RA,OVC,8500,,,,,,,VFR,0.3,,,,,0.005,0.005,,,,,METAR,225.0
KFSI 060855Z AUTO 16003KT 10SM CLR 18/14 A2978 RMK AO2 SLP075 T01810140 55000 FZRANO $,KFSI,2023-05-06T08:55:00Z,34.65,-98.4,18.1,14.0,160,3,,10.0,29.778543,1007.5,,TRUE,TRUE,TRUE,,,TRUE,,,CLR,,,,,,,,VFR,0.0,,,,,,,,,,,METAR,360.0
KFHU 060855Z AUTO 00000KT 10SM CLR 12/M03 A3008 RMK AO2 SLP139 T01171033 58000,KFHU,2023-05-06T08:55:00Z,31.58,-110.35,11.7,-3.3,0,0,,10.0,30.079725,1013.9,,TRUE,TRUE,,,,,,,CLR,,,,,,,,VFR,0.0,,,,,,,,,,,METAR,1424.0
KFFO 060855Z AUTO 00000KT 10SM SCT200 08/05 A3017 RMK AO2 SLP219 T00830047 53009,KFFO,2023-05-06T08:55:00Z,39.83,-84.03,8.3,4.7,0,0,,10.0,30.171259,1021.9,,TRUE,TRUE,,,,,,,SCT,20000,,,,,,,VFR,0.9,,,,,,,,,,,METAR,250.0
KFCS 060855Z AUTO 00000KT 10SM CLR 10/M08 A2988 RMK AO2 SLP076 T00951077 50005 $,KFCS,2023-05-06T08:55:00Z,38.67,-104.77,9.5,-7.7,0,0,,10.0,29.878937,1007.6,,TRUE,TRUE,TRUE,,,,,,CLR,,,,,,,,VFR,0.5,,,,,,,,,,,METAR,1789.0
KFBG 060855Z AUTO 00000KT 10SM CLR 12/12 A3020 RMK AO2 SLP229 T01170115 52005,KFBG,2023-05-06T08:55:00Z,35.12,-78.92,11.7,11.5,0,0,,10.0,30.200787,1022.9,,TRUE,TRUE,,,,,,,CLR,,,,,,,,VFR,0.5,,,,,,,,,,,METAR,69.0
KFAF 060855Z AUTO 00000KT 10SM BKN090 OVC110 13/11 A3023 RMK AO2 SLP240 T01280105 53004 $,KFAF,2023-05-06T08:55:00Z,37.13,-76.62,12.8,10.5,0,0,,10.0,30.230314,1024.0,,TRUE,TRUE,TRUE,,,,,,BKN,9000,OVC,11000,,,,,VFR,0.4,,,,,,,,,,,METAR,3.0
KEND 060855Z AUTO 18014KT 10SM CLR 22/18 A2972 RMK AO2 SLP052 T02150177 58002,KEND,2023-05-06T08:55:00Z,36.33,-97.92,21.5,17.7,180,14,,10.0,29.719488,1005.2,,TRUE,TRUE,,,,,,,CLR,,,,,,,,VFR,-0.2,,,,,,,,,,,METAR,392.0
KEGI 060855Z AUTO 00000KT 10SM CLR 17/15 A3007 RMK AO2 SLP182 T01670154 56003 TSNO $,KEGI,2023-05-06T08:55:00Z,30.65,-86.52,16.7,15.4,0,0,,10.0,30.070866,1018.2,,TRUE,TRUE,TRUE,,TRUE,,,,CLR,,,,,,,,VFR,-0.3,,,,,,,,,,,METAR,59.0
KEDW 060855Z AUTO 23012KT 10SM CLR 09/05 A2999 RMK AO2 SLP149 T00880048 56005,KEDW,2023-05-06T08:55:00Z,34.9,-117.87,8.8,4.8,230,12,,10.0,29.991142,1014.9,,TRUE,TRUE,,,,,,,CLR,,,,,,,,VFR,-0.5,,,,,,,,,,,METAR,698.0
KEDC 060855Z AUTO 20006KT 10SM OVC025 18/18 A2989 RMK AO2,KEDC,2023-05-06T08:55:00Z,30.4,-97.57,18.0,18.0,200,6,,10.0,29.890747,,,TRUE,TRUE,,,,,,,OVC,2500,,,,,,,MVFR,,,,,,,,,,,,METAR,184.0
KEAT 060855Z AUTO 31013KT 10SM BKN065 11/03 A2984 RMK AO2 SLP104 T01060028 53002,KEAT,2023-05-06T08:55:00Z,47.4,-120.2,10.6,2.8,310,13,,10.0,29.840551,1010.4,,TRUE,TRUE,,,,,,,BKN,6500,,,,,,,VFR,0.2,,,,,,,,,,,METAR,375.0
KDYS 060855Z AUTO 17022KT 10SM CLR 23/14 A2983 RMK AO2 PK WND 16029/21 SLP050 T02280141 58005,KDYS,2023-05-06T08:55:00Z,32.42,-99.83,22.8,14.1,170,22,,10.0,29.828741,1005.0,,TRUE,TRUE,,,,,,,CLR,,,,,,,,VFR,-0.5,,,,,,,,,,,METAR,544.0
KDOV 060855Z 00000KT 5SM BR CLR 07/07 A3026 RMK AO2A VIS 1 1/8V5 SLP251 T00690069 52007,KDOV,2023-05-06T08:55:00Z,39.12,-75.47,6.9,6.9,0,0,,5.0,30.259842,1025.1,,,TRUE,,,,,,BR,CLR,,,,,,,,MVFR,0.7,,,,,,,,,,,METAR,6.0
KDMA 060855Z 14005KT 10SM CLR 13/M01 A2999 RMK AO2A SLP125 T01261006 58001 RVRNO $,KDMA,2023-05-06T08:55:00Z,32.17,-110.88,12.6,-0.6,140,5,,10.0,29.991142,1012.5,,,TRUE,TRUE,,,,,,CLR,,,,,,,,VFR,-0.1,,,,,,,,,,,METAR,804.0
KDLF 060855Z AUTO 10015KT 10SM FEW013 FEW023 25/23 A2983 RMK AO2 SLP086 T02500228 50001 $,KDLF,2023-05-06T08:55:00Z,29.37,-100.78,25.0,22.8,100,15,,10.0,29.828741,1008.6,,TRUE,TRUE,TRUE,,,,,,FEW,1300,FEW,2300,,,,,VFR,0.1,,,,,,,,,,,METAR,328.0
KDAA 060855Z AUTO 00000KT 10SM CLR 08/07 A3026 RMK AO2 SLP250 T00750074 53006 $,KDAA,2023-05-06T08:55:00Z,38.72,-77.17,7.5,7.4,0,0,,10.0,30.259842,1025.0,,TRUE,TRUE,TRUE,,,,,,CLR,,,,,,,,VFR,0.6,,,,,,,,,,,METAR,17.0
KCWN 060855Z AUTO 22003KT 10SM CLR 11/M09 A2992 RMK AO2 SLP969 T01111087 55003 $,KCWN,2023-05-06T08:55:00Z,38.75,-104.85,11.1,-8.7,220,3,,10.0,29.920275,996.9,,TRUE,TRUE,TRUE,,,,,,CLR,,,,,,,,VFR,-0.3,,,,,,,,,,,METAR,2040.0
KCVS 060855Z AUTO 30014KT 10SM CLR 15/M13 A2992 RMK AO2 SLP074 T01471126 50002 $,KCVS,2023-05-06T08:55:00Z,34.37,-103.32,14.7,-12.6,300,14,,10.0,29.920275,1007.4,,TRUE,TRUE,TRUE,,,,,,CLR,,,,,,,,VFR,0.2,,,,,,,,,,,METAR,1305.0
KCMY 060855Z AUTO 00000KT 9SM OVC070 14/14 A2998 RMK AO2 SLP153 60005 T01370135 50002 FZRANO $,KCMY,2023-05-06T08:55:00Z,43.97,-90.73,13.7,13.5,0,0,,9.0,29.97933,1015.3,,TRUE,TRUE,TRUE,,,TRUE,,,OVC,7000,,,,,,,VFR,0.2,,,,,,0.05,,,,,METAR,253.0
KCEF 060855Z AUTO 00000KT 6SM BR CLR 03/03 A3020 RMK AO2 SLP234 T00270026 51003,KCEF,2023-05-06T08:55:00Z,42.2,-72.52,2.7,2.6,0,0,,6.0,30.200787,1023.4,,TRUE,TRUE,,,,,,BR,CLR,,,,,,,,VFR,0.3,,,,,,,,,,,SPECI,72.0
KCBM 060855Z AUTO 14005KT 10SM OVC014 17/13 A3005 RMK AO2 CIG 013 RWY31C SLP177 T01720131 53001 $,KCBM,2023-05-06T08:55:00Z,33.65,-88.45,17.2,13.1,140,5,,10.0,30.050198,1017.7,,TRUE,TRUE,TRUE,,,,,,OVC,1400,,,,,,,MVFR,0.1,,,,,,,,,,,METAR,59.0
KCAO 060855Z AUTO 26012KT 10SM CLR 13/M08 A2989 RMK AO2 SLP059 T01281078 53006,KCAO,2023-05-06T08:55:00Z,36.45,-103.15,12.8,-7.8,260,12,,10.0,29.890747,1005.9,,TRUE,TRUE,,,,,,,CLR,,,,,,,,VFR,0.6,,,,,,,,,,,METAR,1517.0
KBYS 060855Z AUTO 22008KT 10SM CLR 11/03 A2996 RMK AO2 SLP133 T01060032 58001 $,KBYS,2023-05-06T08:55:00Z,35.28,-116.63,10.6,3.2,220,8,,10.0,29.958662,1013.3,,TRUE,TRUE,TRUE,,,,,,CLR,,,,,,,,VFR,-0.1,,,,,,,,,,,METAR,717.0
KBLV 060855Z 15004KT 10SM OVC033 16/12 A3000 RMK AO2A SLP160 T01620116 55003 $,KBLV,2023-05-06T08:55:00Z,38.53,-89.83,16.2,11.6,150,4,,10.0,30.0,1016.0,,,TRUE,TRUE,,,,,,OVC,3300,,,,,,,VFR,-0.3,,,,,,,,,,,METAR,134.0
KBIX 060855Z AUTO 14007KT 10SM OVC007 23/22 A3000 RMK AO2 SLP162 T02320218 57005,KBIX,2023-05-06T08:55:00Z,30.42,-88.92,23.2,21.8,140,7,,10.0,30.0,1016.2,,TRUE,TRUE,,,,,,,OVC,700,,,,,,,IFR,-0.5,,,,,,,,,,,METAR,4.0
KBIF 060855Z 26007KT 7SM 21/M12 A3001 RMK ALTSG WND DATA ESTMD SLPNO,KBIF,2023-05-06T08:55:00Z,31.85,-106.38,21.0,-12.0,260,7,,7.0,30.008858,,,,,,,,,,,,,,,,,,,,,,,,,,,,,,,METAR,1201.0
KBAB 060855Z AUTO 12008KT 6SM -RA BR OVC055 10/09 A3006 RMK AO2 RAE31DZB31E32RAB32 SLP182 P0002 60009 T01020093 58002 $,KBAB,2023-05-06T08:55:00Z,39.13,-121.43,10.2,9.3,120,8,,6.0,30.059055,1018.2,,TRUE,TRUE,TRUE,,,,,-RA BR,OVC,5500,,,,,,,VFR,-0.2,,,,,0.02,0.09,,,,,METAR,31.0
KAST 060855Z AUTO 00000KT 10SM OVC021 09/08 A2996 RMK AO2 SLP145 T00940083 57002,KAST,2023-05-06T08:55:00Z,46.15,-123.88,9.4,8.3,0,0,,10.0,29.958662,1014.5,,TRUE,TRUE,,,,,,,OVC,2100,,,,,,,MVFR,-0.2,,,,,,,,,,,METAR,3.0
KANJ 060855Z AUTO 06004KT 10SM -RA OVC060 08/07 A3028 RMK AO2 RAB02E14B31 SLP256 P0001 60007 T00830072 53006,KANJ,2023-05-06T08:55:00Z,46.47,-84.37,8.3,7.2,60,4,,10.0,30.280512,1025.6,,TRUE,TRUE,,,,,,-RA,OVC,6000,,,,,,,VFR,0.6,,,,,0.01,0.07,,,,,METAR,220.0
KAFF 060855Z AUTO 03005KT 10SM CLR 05/M07 A2991 RMK AO2 SLP074 T00501069 57002,KAFF,2023-05-06T08:55:00Z,38.97,-104.82,5.0,-6.9,30,5,,10.0,29.911417,1007.4,,TRUE,TRUE,,,,,,,CLR,,,,,,,,VFR,-0.2,,,,,,,,,,,METAR,2003.0
KADW 060855Z AUTO 00000KT 10SM CLR 07/07 A3025 RMK AO2 SLP251 T00720071 52006 $,KADW,2023-05-06T08:55:00Z,38.82,-76.87,7.2,7.1,0,0,,10.0,30.250984,1025.1,,TRUE,TRUE,TRUE,,,,,,CLR,,,,,,,,VFR,0.6,,,,,,,,,,,SPECI,87.0
KABH 060855Z AUTO 06005KT 10SM CLR 07/01 A2991 RMK AO2 SLP076 T00650014 58002,KABH,2023-05-06T08:55:00Z,38.75,-104.3,6.5,1.4,60,5,,10.0,29.911417,1007.6,,TRUE,TRUE,,,,,,,CLR,,,,,,,,VFR,-0.2,,,,,,,,,,,METAR,1838.0
K9L2 060855Z AUTO 20014KT 9SM CLR 10/04 A3000 RMK AO2 SLP151 T00950041 57003,K9L2,2023-05-06T08:55:00Z,34.98,-117.87,9.5,4.1,200,14,,9.0,30.0,1015.1,,TRUE,TRUE,,,,,,,CLR,,,,,,,,VFR,-0.3,,,,,,,,,,,METAR,697.0
K4MR 060855Z AUTO 27009KT 10SM CLR 14/M12 A2992 RMK AO2 SLP053 T01381124 52008 $,K4MR,2023-05-06T08:55:00Z,34.3,-103.8,13.8,-12.4,270,9,,10.0,29.920275,1005.3,,TRUE,TRUE,TRUE,,,,,,CLR,,,,,,,,VFR,0.8,,,,,,,,,,,METAR,1339.0
K2DP 060855Z AUTO 00000KT 10SM CLR 07/07 A3022 RMK AO2 SLPNO T00700070 53007 $,K2DP,2023-05-06T08:55:00Z,35.68,-75.9,7.0,7.0,0,0,,10.0,30.221457,,,TRUE,TRUE,TRUE,,,,,,CLR,,,,,,,,VFR,0.7,,,,,,,,,,,METAR,1.0
K1OW 060855Z AUTO 00000KT 10SM CLR 04/02 A2999 RMK AO2 SLP118 T00420016 50002 $,K1OW,2023-05-06T08:55:00Z,40.88,-104.0,4.2,1.6,0,0,,10.0,29.991142,1011.8,,TRUE,TRUE,TRUE,,,,,,CLR,,,,,,,,VFR,0.2,,,,,,,,,,,METAR,1650.0
K1OM 060855Z AUTO 14008KT 10SM -RA BKN030 BKN038 OVC046 10/09 A2974 RMK AO2 RAB38 SLP068 P0001 60001 T00960087 55003 $,K1OM,2023-05-06T08:55:00Z,47.33,-108.93,9.6,8.7,140,8,,10.0,29.740158,1006.8,,TRUE,TRUE,TRUE,,,,,-RA,BKN,3000,BKN,3800,OVC,4600,,,MVFR,-0.3,,,,,0.01,0.01,,,,,METAR,1088.0
K1NW 060855Z AUTO 32004KT 10SM CLR 04/04 A2985 RMK AO2 SLP071 T00400040 50002 $,K1NW,2023-05-06T08:55:00Z,40.63,-103.83,4.0,4.0,320,4,,10.0,29.84941,1007.1,,TRUE,TRUE,TRUE,,,,,,CLR,,,,,,,,VFR,0.2,,,,,,,,,,,METAR,1461.0
K1MW 060855Z AUTO 30005KT 10SM CLR 04/04 A2985 RMK AO2 SLP076 T00430042 50002 $,K1MW,2023-05-06T08:55:00Z,40.7,-103.48,4.3,4.2,300,5,,10.0,29.84941,1007.6,,TRUE,TRUE,TRUE,,,,,,CLR,,,,,,,,VFR,0.2,,,,,,,,,,,METAR,1338.0
K1MN 060855Z AUTO 07009KT 10SM CLR 06/05 A2996 RMK AO2 SLP154 T00580048 55003 $,K1MN,2023-05-06T08:55:00Z,,,5.8,4.8,70,9,,10.0,29.958662,1015.4,,TRUE,TRUE,TRUE,,,,,,CLR,,,,,,,,VFR,-0.3,,,,,,,,,,,METAR,
K1MM 060855Z AUTO 14007KT 10SM OVC140 08/06 A2974 RMK AO2 SLP073 60001 T00780058 58009 $,K1MM,2023-05-06T08:55:00Z,47.02,-109.63,7.8,5.8,140,7,,10.0,29.740158,1007.3,,TRUE,TRUE,TRUE,,,,,,OVC,14000,,,,,,,VFR,-0.9,,,,,,0.01,,,,,METAR,1256.0
K1LW 060855Z AUTO 33004KT 10SM CLR 06/05 A2987 RMK AO2 SLP078 T00570045 50003 $,K1LW,2023-05-06T08:55:00Z,40.92,-103.7,5.7,4.5,330,4,,10.0,29.870079,1007.8,,TRUE,TRUE,TRUE,,,,,,CLR,,,,,,,,VFR,0.3,,,,,,,,,,,METAR,1514.0
K1LN 060855Z AUTO 10008KT 10SM CLR 05/05 A2998 RMK AO2 SLP160 T00510050 58001 $,K1LN,2023-05-06T08:55:00Z,,,5.1,5.0,100,8,,10.0,29.97933,1016.0,,TRUE,TRUE,TRUE,,,,,,CLR,,,,,,,,VFR,-0.1,,,,,,,,,,,METAR,
K1KN 060855Z AUTO 06007KT 10SM CLR 05/03 A2996 RMK AO2 SLP155 T00460033 57007 $,K1KN,2023-05-06T08:55:00Z,,,4.6,3.3,60,7,,10.0,29.958662,1015.5,,TRUE,TRUE,TRUE,,,,,,CLR,,,,,,,,VFR,-0.7,,,,,,,,,,,METAR,
K1KM 060855Z AUTO 20003KT 10SM FEW085 BKN220 07/05 A2977 RMK AO2 SLP083 T00670049 58006 $,K1KM,2023-05-06T08:55:00Z,46.45,-109.8,6.7,4.9,200,3,,10.0,29.769686,1008.3,,TRUE,TRUE,TRUE,,,,,,FEW,8500,BKN,22000,,,,,VFR,-0.6,,,,,,,,,,,METAR,1332.0
K1JW 060855Z AUTO 29005KT 10SM CLR 05/04 M RMK AO2 SLPNO T00520039 $,K1JW,2023-05-06T08:55:00Z,40.97,-103.2,5.2,3.9,290,5,,10.0,,,,TRUE,TRUE,TRUE,,,,,,CLR,,,,,,,,VFR,,,,,,,,,,,,METAR,1382.0
K1JN 060855Z AUTO 07006KT 10SM CLR 04/04 A2995 RMK AO2 SLP154 T00440041 57008 $,K1JN,2023-05-06T08:55:00Z,,,4.4,4.1,70,6,,10.0,29.949802,1015.4,,TRUE,TRUE,TRUE,,,,,,CLR,,,,,,,,VFR,-0.8,,,,,,,,,,,METAR,
K1JM 060855Z AUTO 01003KT 10SM -RA BKN023 BKN050 BKN070 OVC085 09/08 A2972 RMK AO2 CIG 023V080 SLP070 P0000 60004 T00870076 58003 $,K1JM,2023-05-06T08:55:00Z,47.75,-111.55,8.7,7.6,10,3,,10.0,29.719488,1007.0,,TRUE,TRUE,TRUE,,,,,-RA,BKN,2300,BKN,5000,BKN,7000,OVC,8500,MVFR,-0.3,,,,,0.005,0.04,,,,,METAR,1154.0
K1IW 060855Z AUTO 29007KT 4SM BR CLR 05/05 A2983 RMK AO2 DZB12E25 SLP072 P0000 60000 T00510047 50008 $,K1IW,2023-05-06T08:55:00Z,41.05,-102.87,5.1,4.7,290,7,,4.0,29.828741,1007.2,,TRUE,TRUE,TRUE,,,,,BR,CLR,,,,,,,,MVFR,0.8,,,,,0.005,0.005,,,,,METAR,1294.0
K1IN 060855Z AUTO 07011KT 10SM CLR 06/03 A2993 RMK AO2 SLP146 T00600033 57008 $,K1IN,2023-05-06T08:55:00Z,,,6.0,3.3,70,11,,10.0,29.929134,1014.6,,TRUE,TRUE,TRUE,,,,,,CLR,,,,,,,,VFR,-0.8,,,,,,,,,,,METAR,
K1IM 060855Z AUTO 20005KT 10SM -RA FEW014 OVC055 09/09 A2971 RMK AO2 SLP064 P0004 60008 T00910089 58009 $,K1IM,2023-05-06T08:55:00Z,47.32,-111.47,9.1,8.9,200,5,,10.0,29.71063,1006.4,,TRUE,TRUE,TRUE,,,,,-RA,FEW,1400,OVC,5500,,,,,VFR,-0.9,,,,,0.04,0.08,,,,,METAR,1110.0
K1HW 060855Z AUTO 28007KT 5SM BR CLR 06/05 A2983 RMK AO2 SLP074 60000 T00570054 50008 $,K1HW,2023-05-06T08:55:00Z,41.32,-102.83,5.7,5.4,280,7,,5.0,29.828741,1007.4,,TRUE,TRUE,TRUE,,,,,BR,CLR,,,,,,,,MVFR,0.8,,,,,,0.005,,,,,METAR,1265.0
K1HN 060855Z AUTO M 10SM CLR 08/04 A2990 RMK AO2 SLP135 T00810041 57014 $,K1HN,2023-05-06T08:55:00Z,,,8.1,4.1,,,,10.0,29.899607,1013.5,,TRUE,TRUE,TRUE,,,,,,CLR,,,,,,,,VFR,-1.4,,,,,,,,,,,METAR,
K1HM 060855Z AUTO 28003KT 10SM -RA FEW006 FEW042 OVC060 09/07 A2971 RMK AO2 SLP066 P0002 60008 T00870073 57009 $,K1HM,2023-05-06T08:55:00Z,47.7,-111.95,8.7,7.3,280,3,,10.0,29.71063,1006.6,,TRUE,TRUE,TRUE,,,,,-RA,FEW,600,FEW,4200,OVC,6000,,,VFR,-0.9,,,,,0.02,0.08,,,,,METAR,1181.0
K1GN 060855Z AUTO 08012KT 10SM CLR 07/05 A2990 RMK AO2 SLP142 T00650045 57008 $,K1GN,2023-05-06T08:55:00Z,,,6.5,4.5,80,12,,10.0,29.899607,1014.2,,TRUE,TRUE,TRUE,,,,,,CLR,,,,,,,,VFR,-0.8,,,,,,,,,,,METAR,
K1GM 060855Z AUTO 00000KT 7SM -RA FEW010 SCT016 SCT023 OVC035 07/07 M RMK AO2 SLPNO P0006 60018 T00700066 $,K1GM,2023-05-06T08:55:00Z,47.33,-112.1,7.0,6.6,0,0,,7.0,,,,TRUE,TRUE,TRUE,,,,,-RA,FEW,1000,SCT,1600,SCT,2300,OVC,3500,VFR,,,,,,0.06,0.18,,,,,METAR,1317.0
K1FW 060855Z AUTO 00000KT 7SM CLR 04/04 A2984 RMK AO2 SLP069 T00420041 50003 $,K1FW,2023-05-06T08:55:00Z,41.37,-103.48,4.2,4.1,0,0,,7.0,29.840551,1006.9,,TRUE,TRUE,TRUE,,,,,,CLR,,,,,,,,VFR,0.3,,,,,,,,,,,METAR,1451.0
K1EW 060855Z AUTO 00000KT 10SM CLR 04/03 A2986 RMK AO2 SLP075 T00380032 50001 $,K1EW,2023-05-06T08:55:00Z,41.12,-103.98,3.8,3.2,0,0,,10.0,29.861221,1007.5,,TRUE,TRUE,TRUE,,,,,,CLR,,,,,,,,VFR,0.1,,,,,,,,,,,METAR,1609.0
K1EN 060855Z AUTO 07012KT 10SM CLR 07/04 A2968 RMK AO2 SLP065 T00690035 56012 $,K1EN,2023-05-06T08:55:00Z,,,6.9,3.5,70,12,,10.0,29.681103,1006.5,,TRUE,TRUE,TRUE,,,,,,CLR,,,,,,,,VFR,-1.2,,,,,,,,,,,METAR,
K1EM 060855Z AUTO 21005KT 10SM OVC055 10/06 A2973 RMK AO2 SLP059 60000 T00990064 57010 $,K1EM,2023-05-06T08:55:00Z,47.45,-109.42,9.9,6.4,210,5,,10.0,29.731298,1005.9,,TRUE,TRUE,TRUE,,,,,,OVC,5500,,,,,,,VFR,-1.0,,,,,,0.005,,,,,METAR,1118.0
K1DN 060855Z AUTO 07012KT 10SM CLR 06/04 A2836 RMK AO2 SLP605 T00640042 56012 $,K1DN,2023-05-06T08:55:00Z,,,6.4,4.2,70,12,,10.0,28.361221,960.5,,TRUE,TRUE,TRUE,,,,,,CLR,,,,,,,,VFR,-1.2,,,,,,,,,,,METAR,
K1DM 060855Z AUTO 22009KT 10SM BKN060 BKN085 BKN180 09/07 A2974 RMK AO2 SLP068 60000 T00860069 57011 $,K1DM,2023-05-06T08:55:00Z,47.37,-109.8,8.6,6.9,220,9,,10.0,29.740158,1006.8,,TRUE,TRUE,TRUE,,,,,,BKN,6000,BKN,8500,BKN,18000,,,VFR,-1.1,,,,,,0.005,,,,,METAR,1093.0
K1CW 060855Z AUTO 00000KT 10SM CLR 08/07 A2985 RMK AO2 SLP081 T00840069 58001 $,K1CW,2023-05-06T08:55:00Z,41.58,-103.57,8.4,6.9,0,0,,10.0,29.84941,1008.1,,TRUE,TRUE,TRUE,,,,,,CLR,,,,,,,,VFR,-0.1,,,,,,,,,,,METAR,1370.0
K1CN 060855Z AUTO 06010KT 10SM CLR 06/04 A2991 RMK AO2 SLP136 T00610039 56010 $,K1CN,2023-05-06T08:55:00Z,,,6.1,3.9,60,10,,10.0,29.911417,1013.6,,TRUE,TRUE,TRUE,,,,,,CLR,,,,,,,,VFR,-1.0,,,,,,,,,,,METAR,
K1CM 060855Z AUTO 18004KT 10SM FEW095 BKN140 BKN160 07/06 A2975 RMK AO2 SLP074 60001 T00670055 58009 $,K1CM,2023-05-06T08:55:00Z,47.1,-110.17,6.7,5.5,180,4,,10.0,29.749016,1007.4,,TRUE,TRUE,TRUE,,,,,,FEW,9500,BKN,14000,BKN,16000,,,VFR,-0.9,,,,,,0.01,,,,,METAR,1338.0
K1BW 060855Z AUTO 15005KT 10SM FEW120 05/04 A2990 RMK AO2 SLP097 T00510041 58001 $,K1BW,2023-05-06T08:55:00Z,41.52,-104.0,5.1,4.1,150,5,,10.0,29.899607,1009.7,,TRUE,TRUE,TRUE,,,,,,FEW,12000,,,,,,,VFR,-0.1,,,,,,,,,,,METAR,1606.0
K1BN 060855Z AUTO 00000KT 10SM CLR 06/04 A2993 RMK AO2 SLP143 T00550038 56010 $,K1BN,2023-05-06T08:55:00Z,,,5.5,3.8,0,0,,10.0,29.929134,1014.3,,TRUE,TRUE,TRUE,,,,,,CLR,,,,,,,,VFR,-1.0,,,,,,,,,,,METAR,
K1BM 060855Z AUTO 23009KT 10SM BKN100 OVC150 08/07 A2974 RMK AO2 DZE0756RAB0756E05DZB05E08RAB08E28 SLP069 P0001 60001 T00780072 58007 $,K1BM,2023-05-06T08:55:00Z,47.28,-110.37,7.8,7.2,230,9,,10.0,29.740158,1006.9,,TRUE,TRUE,TRUE,,,,,,BKN,10000,OVC,15000,,,,,VFR,-0.7,,,,,0.01,0.01,,,,,METAR,1234.0
K1AM 060855Z AUTO 00000KT 10SM SCT065 OVC085 08/08 A2974 RMK AO2 RAE06RAB07E52 SLP070 P0001 60002 T00810080 57011 $,K1AM,2023-05-06T08:55:00Z,47.28,-110.8,8.1,8.0,0,0,,10.0,29.740158,1007.0,,TRUE,TRUE,TRUE,,,,,,SCT,6500,OVC,8500,,,,,VFR,-1.1,,,,,0.01,0.02,,,,,METAR,1228.0
FJDG 060855Z 15013G20KT 9999 FEW019 SCT080 BKN250 32/26 A2977 RMK SLP078 8/132 T03160256 57024,FJDG,2023-05-06T08:55:00Z,-7.32,72.42,31.6,25.6,150,13,20,6.21,29.769686,1007.8,,,,,,,,,,FEW,1900,SCT,8000,BKN,25000,,,VFR,-2.4,,,,,,,,,,,METAR,3.0
ETOU 060855Z AUTO 15003KT 9999 BKN085 18/18 A3007 RMK AO2 SLP185 60000 T01770175 52004,ETOU,2023-05-06T08:55:00Z,50.03,8.32,17.7,17.5,150,3,,6.21,30.070866,1018.5,,TRUE,TRUE,,,,,,,BKN,8500,,,,,,,VFR,0.4,,,,,,,,,,,SPECI,141.0
ETIC 060855Z AUTO 30008KT 9999 FEW025 SCT055 16/11 A3003 RMK AO2 SLP171 T01610108 52005 $,ETIC,2023-05-06T08:55:00Z,49.7,11.93,16.1,10.8,300,8,,6.21,30.029528,1017.1,,TRUE,TRUE,TRUE,,,,,,FEW,2500,SCT,5500,,,,,VFR,0.5,,,,,,,,,,,METAR,414.0
ETEB 060855Z AUTO 27005KT 9999 FEW020 16/11 A3006 RMK AO2 SLP193 T01600107 52008 $,ETEB,2023-05-06T08:55:00Z,49.32,10.63,16.0,10.7,270,5,,6.21,30.059055,1019.3,,TRUE,TRUE,TRUE,,,,,,FEW,2000,,,,,,,VFR,0.8,,,,,,,,,,,METAR,466.0
ETAR 060855Z AUTO 31003KT 9999 FEW200 16/12 A3006 RMK AO2 SLP184 T01560122 50002,ETAR,2023-05-06T08:55:00Z,49.43,7.58,15.6,12.2,310,3,,6.21,30.059055,1018.4,,TRUE,TRUE,,,,,,,FEW,20000,,,,,,,VFR,0.2,,,,,,,,,,,METAR,231.0
EHFS 060855Z AUTO 09004KT 060V130 9999 NSC 14/12 Q1016,EHFS,2023-05-06T08:55:00Z,51.45,3.6,14.0,12.0,90,4,,6.21,30.0,,,TRUE,,,,,,,,CLR,,,,,,,,VFR,,,,,,,,,,,,METAR,1.0
EGUL 060855Z AUTO 16005KT M M SCT032 15/15 A2995 RMK AO2 SLP146 T01500148 52005 RVRNO VISNO RWY06 $,EGUL,2023-05-06T08:55:00Z,52.42,0.57,15.0,14.8,160,5,,,29.949802,1014.6,,TRUE,TRUE,TRUE,,,,,,SCT,3200,,,,,,,,0.5,,,,,,,,,,,METAR,8.0
EBLB 060855Z AUTO 19005KT 9999 FEW022/// SCT035/// 15/08 Q1018 BLU,EBLB,2023-05-06T08:55:00Z,50.47,6.17,15.0,8.0,190,5,,6.21,30.059055,,,TRUE,,,,,,,,FEW,2200,SCT,3500,,,,,VFR,,,,,,,,,,,,METAR,563.0
EBFS 060855Z AUTO 18006KT 9999 FEW016/// SCT075/// 15/11 Q1017 BLU,EBFS,2023-05-06T08:55:00Z,50.23,4.65,15.0,11.0,180,6,,6.21,30.029528,,,TRUE,,,,,,,,FEW,1600,SCT,7500,,,,,VFR,,,,,,,,,,,,METAR,276.0
EBFN 060855Z AUTO 16005KT 9999 FEW040/// SCT085/// BKN150/// 16/12 Q1016 BLU,EBFN,2023-05-06T08:55:00Z,51.08,2.65,16.0,12.0,160,5,,6.21,30.0,,,TRUE,,,,,,,,FEW,4000,SCT,8500,BKN,15000,,,VFR,,,,,,,,,,,,METAR,9.0
EBDT 060855Z AUTO 15003KT 9999 BKN091/// 17/12 Q1017 BLU,EBDT,2023-05-06T08:55:00Z,51.02,5.07,17.0,12.0,150,3,,6.21,30.029528,,,TRUE,,,,,,,,BKN,9100,,,,,,,VFR,,,,,,,,,,,,METAR,25.0
EBBL 060855Z AUTO 18003KT 9999 NCD 18/12 Q1017 BLU,EBBL,2023-05-06T08:55:00Z,51.17,5.47,18.0,12.0,180,3,,6.21,30.029528,,,TRUE,,,,,,,,CLR,,,,,,,,VFR,,,,,,,,,,,,METAR,50.0
EBBE 060855Z AUTO 18005KT 9999 SCT070/// BKN085/// 17/12 Q1017 BLU,EBBE,2023-05-06T08:55:00Z,50.75,4.77,17.0,12.0,180,5,,6.21,30.029528,,,TRUE,,,,,,,,SCT,7000,BKN,8500,,,,,VFR,,,,,,,,,,,,METAR,127.0
BK12 060855Z VRB02KT 9999 CLR 18/05 A3012 RMK AO2A SLP188 WND DATA ESTMD,BK12,2023-05-06T08:55:00Z,,,18.0,5.0,0,2,,6.21,30.121063,1018.8,,,TRUE,,,,,,,CLR,,,,,,,,VFR,,,,,,,,,,,,METAR,
BGTL 060855Z AUTO 11005KT 9999 CLR M10/M15 A2975 RMK AO2 SLP061 T10971147 57009 TSNO $,BGTL,2023-05-06T08:55:00Z,76.53,-68.75,-9.7,-14.7,110,5,,6.21,29.749016,1006.1,,TRUE,TRUE,TRUE,,TRUE,,,,CLR,,,,,,,,VFR,-0.9,,,,,,,,,,,METAR,79.0
PHOG 060854Z 08012G19KT 10SM CLR 23/17 A3006 RMK AO2 SLP184 T02280172 51007,PHOG,2023-05-06T08:54:00Z,20.9,-156.43,22.8,17.2,80,12,19,10.0,30.059055,1018.4,,,TRUE,,,,,,,CLR,,,,,,,,VFR,0.7,,,,,,,,,,,SPECI,14.0
PHMK 060854Z AUTO 04012G19KT 10SM FEW043 SCT050 OVC065 A3008 RMK AO2 SLPNO 51010 TSNO,PHMK,2023-05-06T08:54:00Z,21.15,-157.1,,,40,12,19,10.0,30.079725,,,TRUE,TRUE,,,TRUE,,,,FEW,4300,SCT,5000,OVC,6500,,,VFR,1.0,,,,,,,,,,,METAR,135.0
PGSN 060854Z 08012KT 10SM FEW017 SCT027 BKN075 28/24 A2980 RMK AO2 SLP114 T02780239 53013 $,PGSN,2023-05-06T08:54:00Z,15.12,145.72,27.8,23.9,80,12,,10.0,29.799213,1011.4,,,TRUE,TRUE,,,,,,FEW,1700,SCT,2700,BKN,7500,,,VFR,1.3,,,,,,,,,,,METAR,65.0
PAHN 060854Z AUTO 12005KT BKN049 OVC060 07/03 A2986 RMK AO2 SLP113 T00720028 401280028 53008 TSNO,PAHN,2023-05-06T08:54:00Z,59.25,-135.52,7.2,2.8,120,5,,,29.861221,1011.3,,TRUE,TRUE,,,TRUE,,,,BKN,4900,OVC,6000,,,,,,0.8,,,12.8,2.8,,,,,,,METAR,15.0
KVTA 060854Z AUTO 04004KT 10SM CLR 08/04 A3022 RMK AO2 SLP233 T00830044 53004,KVTA,2023-05-06T08:54:00Z,40.02,-82.47,8.3,4.4,40,4,,10.0,30.221457,1023.3,,TRUE,TRUE,,,,,,,CLR,,,,,,,,VFR,0.4,,,,,,,,,,,METAR,268.0
KVSF 060854Z AUTO 00000KT 1/4SM FG VV002 03/02 A3023 RMK AO2 SLP240 T00280022 51002,KVSF,2023-05-06T08:54:00Z,43.35,-72.52,2.8,2.2,0,0,,0.25,30.230314,1024.0,,TRUE,TRUE,,,,,,FG,OVX,0,,,,,,,LIFR,0.2,,,,,,,,,,200,METAR,176.0
KVAY 060854Z AUTO 00000KT 10SM CLR 06/05 A3027 RMK AO2 SLP249 T00560050 53002,KVAY,2023-05-06T08:54:00Z,39.93,-74.83,5.6,5.0,0,0,,10.0,30.268702,1024.9,,TRUE,TRUE,,,,,,,CLR,,,,,,,,VFR,0.2,,,,,,,,,,,METAR,15.0
KUZA 060854Z AUTO 00000KT 7SM CLR 11/11 A3022 RMK AO2 SLP227 T01110106 53006,KUZA,2023-05-06T08:54:00Z,34.98,-81.05,11.1,10.6,0,0,,7.0,30.221457,1022.7,,TRUE,TRUE,,,,,,,CLR,,,,,,,,VFR,0.6,,,,,,,,,,,METAR,198.0
KUIN 060854Z AUTO 16007KT 8SM OVC019 16/12 A2997 RMK AO2 SLP146 T01560122 53008,KUIN,2023-05-06T08:54:00Z,39.95,-91.2,15.6,12.2,160,7,,8.0,29.970472,1014.6,,TRUE,TRUE,,,,,,,OVC,1900,,,,,,,MVFR,0.8,,,,,,,,,,,METAR,233.0
KTAD 060854Z AUTO 21007KT 10SM CLR 08/M07 A2993 RMK AO2 SLP066 T00781067 50005,KTAD,2023-05-06T08:54:00Z,37.27,-104.33,7.8,-6.7,210,7,,10.0,29.929134,1006.6,,TRUE,TRUE,,,,,,,CLR,,,,,,,,VFR,0.5,,,,,,,,,,,METAR,1751.0
KSYR 060854Z 25003KT 10SM CLR 05/03 A3032 RMK AO2 SLP264 T00500028 53008,KSYR,2023-05-06T08:54:00Z,43.12,-76.1,5.0,2.8,250,3,,10.0,30.318897,1026.4,,,TRUE,,,,,,,CLR,,,,,,,,VFR,0.8,,,,,,,,,,,METAR,125.0
KSLC 060854Z 15012KT 10SM FEW050 BKN065 10/02 A2996 RMK AO2 SLP116 60000 T01000017 52004,KSLC,2023-05-06T08:54:00Z,40.77,-111.97,10.0,1.7,150,12,,10.0,29.958662,1011.6,,,TRUE,,,,,,,FEW,5000,BKN,6500,,,,,VFR,0.4,,,,,,0.005,,,,,METAR,1286.0
KSBY 060854Z AUTO 00000KT 1/2SM FG VV002 07/06 A3027 RMK AO2 SLP251 T00670056 53007,KSBY,2023-05-06T08:54:00Z,38.33,-75.5,6.7,5.6,0,0,,0.5,30.268702,1025.1,,TRUE,TRUE,,,,,,FG,OVX,0,,,,,,,LIFR,0.7,,,,,,,,,,200,METAR,14.0
KSBN 060854Z AUTO 12010KT 10SM CLR 12/06 A3016 RMK AO2 SLP211 T01220056 53005,KSBN,2023-05-06T08:54:00Z,41.7,-86.32,12.2,5.6,120,10,,10.0,30.159449,1021.1,,TRUE,TRUE,,,,,,,CLR,,,,,,,,VFR,0.5,,,,,,,,,,,METAR,236.0
KRST 060854Z AUTO 13008KT 10SM OVC010 14/13 A2993 RMK AO2 SLP133 T01390133 55002,KRST,2023-05-06T08:54:00Z,43.9,-92.5,13.9,13.3,130,8,,10.0,29.929134,1013.3,,TRUE,TRUE,,,,,,,OVC,1000,,,,,,,MVFR,-0.2,,,,,,,,,,,METAR,398.0
KRSP 060854Z AUTO 05009KT 030V090 10SM CLR 08/03 A3027 RMK AO2 SLP256 T00830028 53005 $,KRSP,2023-05-06T08:54:00Z,39.65,-77.47,8.3,2.8,50,9,,10.0,30.268702,1025.6,,TRUE,TRUE,TRUE,,,,,,CLR,,,,,,,,VFR,0.5,,,,,,,,,,,METAR,555.0
KROC 060854Z 00000KT 10SM CLR 04/04 A3032 RMK AO2 SLP274 T00440039 53006,KROC,2023-05-06T08:54:00Z,43.12,-77.68,4.4,3.9,0,0,,10.0,30.318897,1027.4,,,TRUE,,,,,,,CLR,,,,,,,,VFR,0.6,,,,,,,,,,,METAR,166.0
KROA 060854Z 00000KT 10SM CLR 09/06 A3027 RMK AO2 SLP247 T00890061 51011,KROA,2023-05-06T08:54:00Z,37.32,-79.97,8.9,6.1,0,0,,10.0,30.268702,1024.7,,,TRUE,,,,,,,CLR,,,,,,,,VFR,1.1,,,,,,,,,,,METAR,349.0
KRIC 060854Z 00000KT 10SM FEW085 BKN110 12/09 A3026 RMK AO2 SLP251 T01220094 53006,KRIC,2023-05-06T08:54:00Z,37.52,-77.32,12.2,9.4,0,0,,10.0,30.259842,1025.1,,,TRUE,,,,,,,FEW,8500,BKN,11000,,,,,VFR,0.6,,,,,,,,,,,METAR,51.0
KRFD 060854Z 12004KT 10SM FEW065 OVC090 15/11 A3006 RMK AO2 RAE43 SLP174 P0000 60000 T01500106 55000,KRFD,2023-05-06T08:54:00Z,42.2,-89.1,15.0,10.6,120,4,,10.0,30.059055,1017.4,,,TRUE,,,,,,,FEW,6500,OVC,9000,,,,,VFR,0.0,,,,,0.005,0.005,,,,,METAR,222.0
KRDG 060854Z AUTO 00000KT 8SM CLR 06/04 A3028 RMK AO2 SLP259 T00610044 53006,KRDG,2023-05-06T08:54:00Z,40.37,-75.97,6.1,4.4,0,0,,8.0,30.280512,1025.9,,TRUE,TRUE,,,,,,,CLR,,,,,,,,VFR,0.6,,,,,,,,,,,METAR,101.0
KPTW 060854Z AUTO 00000KT 10SM CLR 04/04 A3030 RMK AO2 SLP257 T00440039 53006,KPTW,2023-05-06T08:54:00Z,40.23,-75.55,4.4,3.9,0,0,,10.0,30.301182,1025.7,,TRUE,TRUE,,,,,,,CLR,,,,,,,,VFR,0.6,,,,,,,,,,,METAR,88.0
KPNE 060854Z AUTO 31004KT 10SM CLR 09/08 A3028 RMK AO2 SLP253 T00890078 53003,KPNE,2023-05-06T08:54:00Z,40.08,-75.02,8.9,7.8,310,4,,10.0,30.280512,1025.3,,TRUE,TRUE,,,,,,,CLR,,,,,,,,VFR,0.3,,,,,,,,,,,METAR,32.0
KPLN 060854Z AUTO 11007KT 10SM -RA FEW065 OVC080 08/07 A3022 RMK AO2 RAB04 SLP239 P0002 60002 T00830067 53002,KPLN,2023-05-06T08:54:00Z,45.57,-84.8,8.3,6.7,110,7,,10.0,30.221457,1023.9,,TRUE,TRUE,,,,,,-RA,FEW,6500,OVC,8000,,,,,VFR,0.2,,,,,0.02,0.02,,,,,METAR,215.0
KPIA 060854Z 16010KT 10SM BKN028 BKN035 OVC050 17/11 A3002 RMK AO2 SLP163 T01670111 53002,KPIA,2023-05-06T08:54:00Z,40.67,-89.68,16.7,11.1,160,10,,10.0,30.02067,1016.3,,,TRUE,,,,,,,BKN,2800,BKN,3500,OVC,5000,,,MVFR,0.2,,,,,,,,,,,METAR,200.0
KPHL 060854Z 00000KT 10SM FEW100 08/07 A3028 RMK AO2 SLP252 T00780072 53004,KPHL,2023-05-06T08:54:00Z,39.87,-75.23,7.8,7.2,0,0,,10.0,30.280512,1025.2,,,TRUE,,,,,,,FEW,10000,,,,,,,VFR,0.4,,,,,,,,,,,METAR,2.0
KPHF 060854Z AUTO 00000KT 10SM OVC090 10/09 A3026 RMK AO2 SLP245 T01000094 53005,KPHF,2023-05-06T08:54:00Z,37.13,-76.5,10.0,9.4,0,0,,10.0,30.259842,1024.5,,TRUE,TRUE,,,,,,,OVC,9000,,,,,,,VFR,0.5,,,,,,,,,,,METAR,12.0
KORH 060854Z AUTO 32009KT 10SM CLR 09/04 A3018 RMK AO2 SLP223 T00890039 53001,KORH,2023-05-06T08:54:00Z,42.27,-71.87,8.9,3.9,320,9,,10.0,30.180119,1022.3,,TRUE,TRUE,,,,,,,CLR,,,,,,,,VFR,0.1,,,,,,,,,,,METAR,306.0
KOLS 060854Z AUTO 11003KT 10SM CLR 09/M02 A3004 RMK AO2 SLP123 T00941017 58005,KOLS,2023-05-06T08:54:00Z,31.42,-110.85,9.4,-1.7,110,3,,10.0,30.041338,1012.3,,TRUE,TRUE,,,,,,,CLR,,,,,,,,VFR,-0.5,,,,,,,,,,,METAR,1194.0
KOFP 060854Z AUTO 00000KT 10SM OVC090 12/10 A3028 RMK AO2 SLP252 T01170100 53006,KOFP,2023-05-06T08:54:00Z,37.7,-77.43,11.7,10.0,0,0,,10.0,30.280512,1025.2,,TRUE,TRUE,,,,,,,OVC,9000,,,,,,,VFR,0.6,,,,,,,,,,,METAR,63.0
KNAK 060854Z AUTO 36004KT 10SM CLR 11/10 A3027 RMK AO2 SLP253 T01110100 53006 $,KNAK,2023-05-06T08:54:00Z,38.98,-76.48,11.1,10.0,360,4,,10.0,30.268702,1025.3,,TRUE,TRUE,TRUE,,,,,,CLR,,,,,,,,VFR,0.6,,,,,,,,,,,METAR,2.0
KMVL 060854Z AUTO 00000KT 10SM CLR 01/M01 A3023 RMK AO2 SLP242 T00111006 55000,KMVL,2023-05-06T08:54:00Z,44.53,-72.62,1.1,-0.6,0,0,,10.0,30.230314,1024.2,,TRUE,TRUE,,,,,,,CLR,,,,,,,,VFR,0.0,,,,,,,,,,,METAR,226.0
KMTP 060854Z AUTO 27005KT 11/08 A3021 RMK AO1 SLP231 T01060083 55001,KMTP,2023-05-06T08:54:00Z,41.07,-71.92,10.6,8.3,270,5,,,30.209646,1023.1,,TRUE,TRUE,,,,,,,,,,,,,,,,-0.1,,,,,,,,,,,METAR,2.0
KMRY 060854Z AUTO 17003KT 10SM BKN120 11/07 A3010 RMK AO2 SLP204 T01060072 58006,KMRY,2023-05-06T08:54:00Z,36.58,-121.85,10.6,7.2,170,3,,10.0,30.100393,1020.4,,TRUE,TRUE,,,,,,,BKN,12000,,,,,,,VFR,-0.6,,,,,,,,,,,METAR,51.0
KMOT 060854Z AUTO 04004KT 10SM CLR 06/03 A2996 RMK AO2 SLP152 T00560028 55004,KMOT,2023-05-06T08:54:00Z,48.25,-101.27,5.6,2.8,40,4,,10.0,29.958662,1015.2,,TRUE,TRUE,,,,,,,CLR,,,,,,,,VFR,-0.4,,,,,,,,,,,METAR,507.0
KMKC 060854Z 15009KT 10SM OVC012 18/15 A2984 RMK AO2 SLP097 T01780150 58002,KMKC,2023-05-06T08:54:00Z,39.12,-94.6,17.8,15.0,150,9,,10.0,29.840551,1009.7,,,TRUE,,,,,,,OVC,1200,,,,,,,MVFR,-0.2,,,,,,,,,,,METAR,228.0
KMGJ 060854Z AUTO 00000KT 10SM CLR 03/03 A3025 RMK AO2 SLP245 60000 T00330028 53004,KMGJ,2023-05-06T08:54:00Z,41.52,-74.27,3.3,2.8,0,0,,10.0,30.250984,1024.5,,TRUE,TRUE,,,,,,,CLR,,,,,,,,VFR,0.4,,,,,,0.005,,,,,METAR,106.0
KMFI 060854Z AUTO 10005KT 4SM HZ OVC065 10/ A3001 RMK AO2 SLP168 60008 T0100 55003 $,KMFI,2023-05-06T08:54:00Z,44.63,-90.18,10.0,,100,5,,4.0,30.008858,1016.8,,TRUE,TRUE,TRUE,,,,,HZ,OVC,6500,,,,,,,MVFR,-0.3,,,,,,0.08,,,,,METAR,383.0
KMEM 060854Z 15008KT 10SM BKN050 BKN070 18/14 A3003 RMK AO2 SLP166 T01780139 55000,KMEM,2023-05-06T08:54:00Z,35.07,-89.98,17.8,13.9,150,8,,10.0,30.029528,1016.6,,,TRUE,,,,,,,BKN,5000,BKN,7000,,,,,VFR,0.0,,,,,,,,,,,METAR,78.0
KLYH 060854Z AUTO 00000KT 10SM BKN060 11/ A3026 RMK AO2 SLP241 T0111 51008 $,KLYH,2023-05-06T08:54:00Z,37.32,-79.2,11.1,,0,0,,10.0,30.259842,1024.1,,TRUE,TRUE,TRUE,,,,,,BKN,6000,,,,,,,VFR,0.8,,,,,,,,,,,METAR,282.0
KLWT 060854Z AUTO 13005KT 10SM FEW085 FEW120 07/06 A2977 RMK AO2 SLP073 60001 T00670056 58010,KLWT,2023-05-06T08:54:00Z,47.05,-109.47,6.7,5.6,130,5,,10.0,29.769686,1007.3,,TRUE,TRUE,,,,,,,FEW,8500,FEW,12000,,,,,VFR,-1.0,,,,,,0.01,,,,,METAR,1254.0
KLWM 060854Z AUTO 20004KT 10SM CLR 06/04 A3018 RMK AO2 SLP220 T00610039 52002,KLWM,2023-05-06T08:54:00Z,42.72,-71.13,6.1,3.9,200,4,,10.0,30.180119,1022.0,,TRUE,TRUE,,,,,,,CLR,,,,,,,,VFR,0.2,,,,,,,,,,,METAR,42.0
KLEX 060854Z 14005KT 10SM CLR 11/07 A3017 RMK AO2 SLP212 T01060067 51007,KLEX,2023-05-06T08:54:00Z,38.03,-84.6,10.6,6.7,140,5,,10.0,30.171259,1021.2,,,TRUE,,,,,,,CLR,,,,,,,,VFR,0.7,,,,,,,,,,,METAR,294.0
KLAF 060854Z AUTO 13005KT 10SM SCT110 14/07 A3011 RMK AO2 SLP191 T01440067 50006,KLAF,2023-05-06T08:54:00Z,40.42,-86.93,14.4,6.7,130,5,,10.0,30.109253,1019.1,,TRUE,TRUE,,,,,,,SCT,11000,,,,,,,VFR,0.6,,,,,,,,,,,METAR,182.0
KJST 060854Z AUTO 09003KT 10SM CLR 07/03 A3027 RMK AO2 SLP253 T00720028 53002,KJST,2023-05-06T08:54:00Z,40.32,-78.83,7.2,2.8,90,3,,10.0,30.268702,1025.3,,TRUE,TRUE,,,,,,,CLR,,,,,,,,VFR,0.2,,,,,,,,,,,METAR,695.0
KIZG 060854Z AUTO 00000KT 10SM CLR 03/02 A3015 RMK AO2 SLP212 T00280022 56003,KIZG,2023-05-06T08:54:00Z,43.98,-70.95,2.8,2.2,0,0,,10.0,30.15059,1021.2,,TRUE,TRUE,,,,,,,CLR,,,,,,,,VFR,-0.3,,,,,,,,,,,METAR,138.0
KISW 060854Z AUTO 10008KT 9SM SCT035 OVC080 11/09 A3004 RMK AO2 SLP175 60004 T01060089 55001,KISW,2023-05-06T08:54:00Z,44.37,-89.83,10.6,8.9,100,8,,9.0,30.041338,1017.5,,TRUE,TRUE,,,,,,,SCT,3500,OVC,8000,,,,,VFR,-0.1,,,,,,0.04,,,,,METAR,311.0
KINT 060854Z AUTO 00000KT 10SM CLR 10/08 A3024 RMK AO2 SLP234 T01000078 53009,KINT,2023-05-06T08:54:00Z,36.13,-80.22,10.0,7.8,0,0,,10.0,30.239174,1023.4,,TRUE,TRUE,,,,,,,CLR,,,,,,,,VFR,0.9,,,,,,,,,,,METAR,292.0
KINL 060854Z AUTO 09009KT 10SM OVC019 08/03 A3009 RMK AO2 SLP195 T00780033 56008 $,KINL,2023-05-06T08:54:00Z,48.57,-93.4,7.8,3.3,90,9,,10.0,30.088583,1019.5,,TRUE,TRUE,TRUE,,,,,,OVC,1900,,,,,,,MVFR,-0.8,,,,,,,,,,,METAR,353.0
KIND 060854Z 12007KT 10SM BKN150 OVC200 14/07 A3013 RMK AO2 SLP200 T01440067 51008,KIND,2023-05-06T08:54:00Z,39.72,-86.27,14.4,6.7,120,7,,10.0,30.129921,1020.0,,,TRUE,,,,,,,BKN,15000,OVC,20000,,,,,VFR,0.8,,,,,,,,,,,METAR,242.0
KILN 060854Z AUTO 11004KT 10SM CLR 10/04 A3020 RMK AO2 SLP226 T01000039 53009,KILN,2023-05-06T08:54:00Z,39.43,-83.8,10.0,3.9,110,4,,10.0,30.200787,1022.6,,TRUE,TRUE,,,,,,,CLR,,,,,,,,VFR,0.9,,,,,,,,,,,METAR,325.0
KHWD 060854Z AUTO 15006KT 10SM OVC046 12/11 A3007 RMK AO2 SLP192 60001 T01170106 58008,KHWD,2023-05-06T08:54:00Z,37.67,-122.12,11.7,10.6,150,6,,10.0,30.070866,1019.2,,TRUE,TRUE,,,,,,,OVC,4600,,,,,,,VFR,-0.8,,,,,,0.01,,,,,METAR,9.0
KGSO 060854Z 00000KT 10SM FEW060 FEW250 11/08 A3022 RMK AO2 SLP228 T01060078 53007,KGSO,2023-05-06T08:54:00Z,36.1,-79.95,10.6,7.8,0,0,,10.0,30.221457,1022.8,,,TRUE,,,,,,,FEW,6000,FEW,25000,,,,,VFR,0.7,,,,,,,,,,,METAR,275.0
KGCK 060854Z AUTO 32009KT 10SM CLR 13/08 A2974 RMK AO2 SLP044 T01280078 53011,KGCK,2023-05-06T08:54:00Z,37.92,-100.72,12.8,7.8,320,9,,10.0,29.740158,1004.4,,TRUE,TRUE,,,,,,,CLR,,,,,,,,VFR,1.1,,,,,,,,,,,METAR,877.0
KFZY 060854Z AUTO 00000KT 5SM BR CLR 03/02 A3031 RMK AO2 SLP265 T00330022 52006,KFZY,2023-05-06T08:54:00Z,43.35,-76.38,3.3,2.2,0,0,,5.0,30.31004,1026.5,,TRUE,TRUE,,,,,,BR,CLR,,,,,,,,MVFR,0.6,,,,,,,,,,,METAR,143.0
KFWA 060854Z 08007KT 10SM FEW140 BKN250 09/06 A3019 RMK AO2 SLP221 T00890056 53005,KFWA,2023-05-06T08:54:00Z,40.98,-85.2,8.9,5.6,80,7,,10.0,30.188976,1022.1,,,TRUE,,,,,,,FEW,14000,BKN,25000,,,,,VFR,0.5,,,,,,,,,,,METAR,243.0
KFIG 060854Z AUTO 35004KT 5SM BR CLR 02/01 A3030 RMK AO2 SLP267 T00170006 53006,KFIG,2023-05-06T08:54:00Z,41.05,-78.42,1.7,0.6,350,4,,5.0,30.301182,1026.7,,TRUE,TRUE,,,,,,BR,CLR,,,,,,,,MVFR,0.6,,,,,,,,,,,METAR,461.0
KFFZ 060854Z AUTO 04003KT 10SM CLR 18/00 A2994 RMK AO2 SLP119 T01830000 50001,KFFZ,2023-05-06T08:54:00Z,33.47,-111.72,18.3,0.0,40,3,,10.0,29.940945,1011.9,,TRUE,TRUE,,,,,,,CLR,,,,,,,,VFR,0.1,,,,,,,,,,,METAR,420.0
KEWN 060854Z AUTO 00000KT 10SM SCT095 13/12 A3024 RMK AO2 SLP240 T01280117 53005,KEWN,2023-05-06T08:54:00Z,35.07,-77.05,12.8,11.7,0,0,,10.0,30.239174,1024.0,,TRUE,TRUE,,,,,,,SCT,9500,,,,,,,VFR,0.5,,,,,,,,,,,METAR,3.0
KEVV 060854Z AUTO 00000KT 10SM OVC050 16/12 A3011 RMK AO2 SLP194 T01560117 53007 $,KEVV,2023-05-06T08:54:00Z,38.05,-87.52,15.6,11.7,0,0,,10.0,30.109253,1019.4,,TRUE,TRUE,TRUE,,,,,,OVC,5000,,,,,,,VFR,0.7,,,,,,,,,,,METAR,123.0
KECG 060854Z AUTO 00000KT 10SM CLR 10/09 A3025 RMK AO2 SLP242 T01000089 53005,KECG,2023-05-06T08:54:00Z,36.27,-76.18,10.0,8.9,0,0,,10.0,30.250984,1024.2,,TRUE,TRUE,,,,,,,CLR,,,,,,,,VFR,0.5,,,,,,,,,,,METAR,2.0
KDYL 060854Z AUTO 00000KT 9SM CLR 07/06 A3026 RMK AO2 SLP249 T00720056 53004,KDYL,2023-05-06T08:54:00Z,40.33,-75.12,7.2,5.6,0,0,,9.0,30.259842,1024.9,,TRUE,TRUE,,,,,,,CLR,,,,,,,,VFR,0.4,,,,,,,,,,,METAR,121.0
KDSV 060854Z AUTO 13004KT 10SM CLR 03/02 A3033 RMK AO2 SLP283 T00330017 53006,KDSV,2023-05-06T08:54:00Z,42.57,-77.72,3.3,1.7,130,4,,10.0,30.33071,1028.3,,TRUE,TRUE,,,,,,,CLR,,,,,,,,VFR,0.6,,,,,,,,,,,METAR,195.0
KDSM 060854Z 13010KT 10SM FEW040 SCT100 BKN200 14/12 A2986 RMK AO2 SLP110 T01440122 51003 $,KDSM,2023-05-06T08:54:00Z,41.53,-93.67,14.4,12.2,130,10,,10.0,29.861221,1011.0,,,TRUE,TRUE,,,,,,FEW,4000,SCT,10000,BKN,20000,,,VFR,0.3,,,,,,,,,,,METAR,286.0
KDMH 060854Z AUTO 11/06 A3028 RMK AO1 SLP254 T01060056 53007,KDMH,2023-05-06T08:54:00Z,39.28,-76.62,10.6,5.6,,,,,30.280512,1025.4,,TRUE,TRUE,,,,,,,,,,,,,,,,0.7,,,,,,,,,,,METAR,4.0
KDEC 060854Z AUTO 14007KT 10SM BKN038 OVC060 15/11 A3006 RMK AO2 SLP175 T01500111 53005,KDEC,2023-05-06T08:54:00Z,39.83,-88.87,15.0,11.1,140,7,,10.0,30.059055,1017.5,,TRUE,TRUE,,,,,,,BKN,3800,OVC,6000,,,,,VFR,0.5,,,,,,,,,,,METAR,205.0
KCRW 060854Z 00000KT 10SM FEW200 06/06 A3019 RMK AO2 SLP220 T00610056 53006,KCRW,2023-05-06T08:54:00Z,38.38,-81.58,6.1,5.6,0,0,,10.0,30.188976,1022.0,,,TRUE,,,,,,,FEW,20000,,,,,,,VFR,0.6,,,,,,,,,,,METAR,278.0
KCOU 060854Z AUTO 15009KT 10SM OVC013 17/13 A2994 RMK AO2 SLP134 T01670133 55001,KCOU,2023-05-06T08:54:00Z,38.82,-92.22,16.7,13.3,150,9,,10.0,29.940945,1013.4,,TRUE,TRUE,,,,,,,OVC,1300,,,,,,,MVFR,-0.1,,,,,,,,,,,METAR,272.0
KCOS 060854Z 35005KT 10SM CLR 06/M06 A2993 RMK AO2 SLP081 T00611056 53001,KCOS,2023-05-06T08:54:00Z,38.82,-104.68,6.1,-5.6,350,5,,10.0,29.929134,1008.1,,,TRUE,,,,,,,CLR,,,,,,,,VFR,0.1,,,,,,,,,,,METAR,1886.0
KCEU 060854Z AUTO 00000KT 10SM FEW100 FEW120 13/12 A3022 RMK AO2 SLP227 T01280117 53007,KCEU,2023-05-06T08:54:00Z,34.67,-82.88,12.8,11.7,0,0,,10.0,30.221457,1022.7,,TRUE,TRUE,,,,,,,FEW,10000,FEW,12000,,,,,VFR,0.7,,,,,,,,,,,METAR,270.0
KCAR 060854Z AUTO 25003KT 10SM CLR 03/M01 A3000 RMK AO2 SLP166 T00331006 56006,KCAR,2023-05-06T08:54:00Z,46.87,-68.02,3.3,-0.6,250,3,,10.0,30.0,1016.6,,TRUE,TRUE,,,,,,,CLR,,,,,,,,VFR,-0.6,,,,,,,,,,,METAR,189.0
KBWI 060854Z 00000KT 10SM FEW110 07/06 A3027 RMK AO2 SLP249 T00720061 53005,KBWI,2023-05-06T08:54:00Z,39.17,-76.68,7.2,6.1,0,0,,10.0,30.268702,1024.9,,,TRUE,,,,,,,FEW,11000,,,,,,,VFR,0.5,,,,,,,,,,,METAR,42.0
KBUY 060854Z AUTO 00000KT 10SM CLR 08/07 A3022 RMK AO2 SLP231 T00830072 53006,KBUY,2023-05-06T08:54:00Z,36.05,-79.47,8.3,7.2,0,0,,10.0,30.221457,1023.1,,TRUE,TRUE,,,,,,,CLR,,,,,,,,VFR,0.6,,,,,,,,,,,METAR,185.0
KBUF 060854Z 10005KT 10SM CLR 06/03 A3031 RMK AO2 SLP266 T00560033 53004,KBUF,2023-05-06T08:54:00Z,42.93,-78.73,5.6,3.3,100,5,,10.0,30.31004,1026.6,,,TRUE,,,,,,,CLR,,,,,,,,VFR,0.4,,,,,,,,,,,METAR,217.0
KBTV 060854Z AUTO 00000KT 10SM CLR 06/04 A3024 RMK AO2 SLP241 T00560039 53002,KBTV,2023-05-06T08:54:00Z,44.47,-73.15,5.6,3.9,0,0,,10.0,30.239174,1024.1,,TRUE,TRUE,,,,,,,CLR,,,,,,,,VFR,0.2,,,,,,,,,,,METAR,101.0
KBOS 060854Z 30009KT 10SM FEW060 FEW250 11/05 A3017 RMK AO2 SLP214 T01060050 53002,KBOS,2023-05-06T08:54:00Z,42.37,-71.02,10.6,5.0,300,9,,10.0,30.171259,1021.4,,,TRUE,,,,,,,FEW,6000,FEW,25000,,,,,VFR,0.2,,,,,,,,,,,METAR,4.0
KBFL 060854Z AUTO 36006KT 9SM BKN065 13/05 A3005 RMK AO2 SLP174 T01280050 50004,KBFL,2023-05-06T08:54:00Z,35.43,-119.05,12.8,5.0,360,6,,9.0,30.050198,1017.4,,TRUE,TRUE,,,,,,,BKN,6500,,,,,,,VFR,0.4,,,,,,,,,,,METAR,146.0
KAVP 060854Z 16003KT 10SM CLR 03/02 A3029 RMK AO2 SLP259 T00330022 53010,KAVP,2023-05-06T08:54:00Z,41.33,-75.72,3.3,2.2,160,3,,10.0,30.28937,1025.9,,,TRUE,,,,,,,CLR,,,,,,,,VFR,1.0,,,,,,,,,,,METAR,290.0
KAVL 060854Z AUTO 00000KT 10SM CLR 12/08 A3024 RMK AO2 SLP225 T01170083 53005,KAVL,2023-05-06T08:54:00Z,35.43,-82.53,11.7,8.3,0,0,,10.0,30.239174,1022.5,,TRUE,TRUE,,,,,,,CLR,,,,,,,,VFR,0.5,,,,,,,,,,,METAR,646.0
KAUW 060854Z AUTO 08009KT 8SM -RA BKN075 OVC095 10/08 A3003 RMK AO2 SLP174 P0004 60014 T01000078 58004,KAUW,2023-05-06T08:54:00Z,44.93,-89.62,10.0,7.8,80,9,,8.0,30.029528,1017.4,,TRUE,TRUE,,,,,,-RA,BKN,7500,OVC,9500,,,,,VFR,-0.4,,,,,0.04,0.14,,,,,METAR,367.0
KAPN 060854Z AUTO 12003KT 10SM OVC100 07/06 A3026 RMK AO2 SLP252 T00720056 51005,KAPN,2023-05-06T08:54:00Z,45.07,-83.57,7.2,5.6,120,3,,10.0,30.259842,1025.2,,TRUE,TRUE,,,,,,,OVC,10000,,,,,,,VFR,0.5,,,,,,,,,,,METAR,208.0
KAPC 060854Z 20008KT 10SM SCT014 BKN024 OVC046 13/09 A3006 RMK AO2 SLP172 T01280094 58007,KAPC,2023-05-06T08:54:00Z,38.2,-122.28,12.8,9.4,200,8,,10.0,30.059055,1017.2,,,TRUE,,,,,,,SCT,1400,BKN,2400,OVC,4600,,,MVFR,-0.7,,,,,,,,,,,METAR,5.0
KALO 060854Z AUTO 12013KT 10SM SCT030 BKN041 OVC055 15/12 A2991 RMK AO2 RAE45 SLP125 P0008 60016 T01500122 58005,KALO,2023-05-06T08:54:00Z,42.55,-92.4,15.0,12.2,120,13,,10.0,29.911417,1012.5,,TRUE,TRUE,,,,,,,SCT,3000,BKN,4100,OVC,5500,,,VFR,-0.5,,,,,0.08,0.16,,,,,METAR,264.0
KAKR 060854Z AUTO 00000KT 10SM CLR 08/01 A3025 RMK AO2 SLP240 T00780006 53001,KAKR,2023-05-06T08:54:00Z,41.03,-81.47,7.8,0.6,0,0,,10.0,30.250984,1024.0,,TRUE,TRUE,,,,,,,CLR,,,,,,,,VFR,0.1,,,,,,,,,,,METAR,319.0
KAKQ 060854Z AUTO 00000KT 10SM BKN080 OVC110 10/09 A3026 RMK AO2 SLP246 T01000089 53006,KAKQ,2023-05-06T08:54:00Z,36.98,-77.0,10.0,8.9,0,0,,10.0,30.259842,1024.6,,TRUE,TRUE,,,,,,,BKN,8000,OVC,11000,,,,,VFR,0.6,,,,,,,,,,,METAR,34.0
KAKH 060854Z AUTO 00000KT 10SM CLR 11/10 A3021 RMK AO2 SLP229 T01060100 53007,KAKH,2023-05-06T08:54:00Z,35.2,-81.15,10.6,10.0,0,0,,10.0,30.209646,1022.9,,TRUE,TRUE,,,,,,,CLR,,,,,,,,VFR,0.7,,,,,,,,,,,METAR,242.0
KAAO 060854Z AUTO 16012KT 7SM SCT020 23/21 A2973 RMK AO2 SLP055 T02330211 56007,KAAO,2023-05-06T08:54:00Z,37.75,-97.22,23.3,21.1,160,12,,7.0,29.731298,1005.5,,TRUE,TRUE,,,,,,,SCT,2000,,,,,,,VFR,-0.7,,,,,,,,,,,METAR,429.0
K1V4 060854Z AUTO 02/01 A3020 RMK AO1 SLP227 T00220006 53002,K1V4,2023-05-06T08:54:00Z,44.42,-72.02,2.2,0.6,,,,,30.200787,1022.7,,TRUE,TRUE,,,,,,,,,,,,,,,,0.2,,,,,,,,,,,METAR,213.0
K12N 060854Z AUTO 00000KT 06/04 A3027 RMK AO1 SLP251 T00560039 53004 $,K12N,2023-05-06T08:54:00Z,41.02,-74.73,5.6,3.9,0,0,,,30.268702,1025.1,,TRUE,TRUE,TRUE,,,,,,,,,,,,,,,0.4,,,,,,,,,,,METAR,178.0
TISX 060853Z AUTO 04003KT 10SM SCT026 24/21 A3000 RMK AO2 SLP157 T02390211 53002,TISX,2023-05-06T08:53:00Z,17.7,-64.8,23.9,21.1,40,3,,10.0,30.0,1015.7,,TRUE,TRUE,,,,,,,SCT,2600,,,,,,,VFR,0.2,,,,,,,,,,,METAR,16.0
TIST 060853Z AUTO 07003KT 10SM FEW022 26/22 A2999 RMK AO2 SLP157 T02560222 53001,TIST,2023-05-06T08:53:00Z,18.33,-64.98,25.6,22.2,70,3,,10.0,29.991142,1015.7,,TRUE,TRUE,,,,,,,FEW,2200,,,,,,,VFR,0.1,,,,,,,,,,,METAR,5.0
PTTP 060853Z 11005KT 15SM FEW018 SCT300 28/25 A2976 RMK SLP078 8/101 T02810247 52022,PTTP,2023-05-06T08:53:00Z,6.97,158.22,28.1,24.7,110,5,,15.0,29.760826,1007.8,,,,,,,,,,FEW,1800,SCT,30000,,,,,VFR,2.2,,,,,,,,,,,METAR,36.0
PHNL 060853Z 05015KT 10SM FEW025 SCT042 24/19 A3007 RMK AO2 SLP184 VCSH E T02390189 51009,PHNL,2023-05-06T08:53:00Z,21.33,-157.93,23.9,18.9,50,15,,10.0,30.070866,1018.4,,,TRUE,,,,,,,FEW,2500,SCT,4200,,,,,VFR,0.9,,,,,,,,,,,METAR,2.0
PHLI 060853Z AUTO 08017KT 10SM SCT019 BKN044 OVC070 24/21 A3011 RMK AO2 SLP192 T02390206 50002 TSNO,PHLI,2023-05-06T08:53:00Z,21.97,-159.33,23.9,20.6,80,17,,10.0,30.109253,1019.2,,TRUE,TRUE,,,TRUE,,,,SCT,1900,BKN,4400,OVC,7000,,,VFR,0.2,,,,,,,,,,,METAR,32.0
PHKO 060853Z AUTO 09003KT 10SM SCT045 24/18 A3004 RMK AO2 SLP171 T02440183 51014 TSNO $,PHKO,2023-05-06T08:53:00Z,19.73,-156.05,24.4,18.3,90,3,,10.0,30.041338,1017.1,,TRUE,TRUE,TRUE,,TRUE,,,,SCT,4500,,,,,,,VFR,1.4,,,,,,,,,,,METAR,11.0
PHJR 060853Z AUTO VRB05KT 10SM FEW040 23/17 A3009 RMK AO2 SLP195 T02330172 51012 TSNO,PHJR,2023-05-06T08:53:00Z,21.32,-158.07,23.3,17.2,0,5,,10.0,30.088583,1019.5,,TRUE,TRUE,,,TRUE,,,,FEW,4000,,,,,,,VFR,1.2,,,,,,,,,,,METAR,9.0
PAYA 060853Z AUTO 00000KT 10SM CLR 01/00 A2990 RMK AO2 SLP124 T00110000 401061022 53008 TSNO $,PAYA,2023-05-06T08:53:00Z,59.52,-139.67,1.1,0.0,0,0,,10.0,29.899607,1012.4,,TRUE,TRUE,TRUE,,TRUE,,,,CLR,,,,,,,,VFR,0.8,,,10.6,-2.2,,,,,,,METAR,9.0
PAWI 060853Z AUTO 08003KT 10SM OVC065 M06/M07 A3002 RMK AO2 SLP168 T10561072 410111083 51004 TSNO $,PAWI,2023-05-06T08:53:00Z,70.63,-160.02,-5.6,-7.2,80,3,,10.0,30.02067,1016.8,,TRUE,TRUE,TRUE,,TRUE,,,,OVC,6500,,,,,,,VFR,0.4,,,-1.1,-8.3,,,,,,,METAR,12.0
PAWD 060853Z AUTO 21005KT 10SM BKN039 OVC050 05/01 A2987 RMK AO2 SLP113 60000 T00500011 400830006 53006 TSNO,PAWD,2023-05-06T08:53:00Z,60.12,-149.42,5.0,1.1,210,5,,10.0,29.870079,1011.3,,TRUE,TRUE,,,TRUE,,,,BKN,3900,OVC,5000,,,,,VFR,0.6,,,8.3,0.6,,0.005,,,,,METAR,3.0
PAVL 060853Z AUTO 24006KT 10SM OVC042 M07/M08 A3004 RMK AO2 SLP173 T10671083 410391072 51005 TSNO $,PAVL,2023-05-06T08:53:00Z,67.73,-164.55,-6.7,-8.3,240,6,,10.0,30.041338,1017.3,,TRUE,TRUE,TRUE,,TRUE,,,,OVC,4200,,,,,,,VFR,0.5,,,-3.9,-7.2,,,,,,,METAR,6.0
PATO 060853Z AUTO 09006KT 10SM BKN120 03/M01 A2986 RMK AO2 SLP111 T00331006 400941011 53003 TSNO,PATO,2023-05-06T08:53:00Z,60.78,-148.85,3.3,-0.6,90,6,,10.0,29.861221,1011.1,,TRUE,TRUE,,,TRUE,,,,BKN,12000,,,,,,,VFR,0.3,,,9.4,-1.1,,,,,,,METAR,47.0
PATK 060853Z AUTO 14004KT 10SM OVC070 04/M02 A2982 RMK AO2 SLP102 T00441022 401171022 50004 TSNO,PATK,2023-05-06T08:53:00Z,62.32,-150.1,4.4,-2.2,140,4,,10.0,29.819881,1010.2,,TRUE,TRUE,,,TRUE,,,,OVC,7000,,,,,,,VFR,0.4,,,11.7,-2.2,,,,,,,METAR,107.0
PASO 060853Z AUTO 00000KT 10SM BKN070 BKN080 OVC120 02/01 A2987 RMK AO2 SLP116 T00170011 400890017 51005 TSNO,PASO,2023-05-06T08:53:00Z,59.45,-151.7,1.7,1.1,0,0,,10.0,29.870079,1011.6,,TRUE,TRUE,,,TRUE,,,,BKN,7000,BKN,8000,OVC,12000,,,VFR,0.5,,,8.9,1.7,,,,,,,METAR,20.0
PASN 060853Z AUTO 26003KT 10SM CLR M04/M08 A3020 RMK AO2 SLP227 T10441078 400221044 51005 TSNO,PASN,2023-05-06T08:53:00Z,57.15,-170.22,-4.4,-7.8,260,3,,10.0,30.200787,1022.7,,TRUE,TRUE,,,TRUE,,,,CLR,,,,,,,,VFR,0.5,,,2.2,-4.4,,,,,,,METAR,8.0
PASI 060853Z 00000KT 10SM SCT250 06/02 A2990 RMK AO2 SLP125 T00610022 401060033 53009,PASI,2023-05-06T08:53:00Z,57.03,-135.35,6.1,2.2,0,0,,10.0,29.899607,1012.5,,,TRUE,,,,,,,SCT,25000,,,,,,,VFR,0.9,,,10.6,3.3,,,,,,,METAR,2.0
PAPB 060853Z AUTO 08004KT 10SM CLR 00/M08 A3020 RMK AO2 SLP216 T00001078 400781011 51007 TSNO $,PAPB,2023-05-06T08:53:00Z,56.58,-169.67,0.0,-7.8,80,4,,10.0,30.200787,1021.6,,TRUE,TRUE,TRUE,,TRUE,,,,CLR,,,,,,,,VFR,0.7,,,7.8,-1.1,,,,,,,METAR,33.0
PAOT 060853Z AUTO 31006KT 10SM BKN075 M07/M08 A3001 RMK AO2 SLP163 T10721078 400061072 51007 TSNO,PAOT,2023-05-06T08:53:00Z,66.88,-162.6,-7.2,-7.8,310,6,,10.0,30.008858,1016.3,,TRUE,TRUE,,,TRUE,,,,BKN,7500,,,,,,,VFR,0.7,,,0.6,-7.2,,,,,,,METAR,3.0
PAOR 060853Z 23003KT 10SM FEW100 SCT180 M01/M06 A2973 RMK AO2 SLP087 T10111061 401061061 55002,PAOR,2023-05-06T08:53:00Z,62.97,-141.93,-1.1,-6.1,230,3,,10.0,29.731298,1008.7,,,TRUE,,,,,,,FEW,10000,SCT,18000,,,,,VFR,-0.2,,,10.6,-6.1,,,,,,,METAR,524.0
PAOM 060853Z AUTO 33007KT 10SM BKN018 M06/M07 A3001 RMK AO2 SLP162 T10611072 410221067 51003 TSNO,PAOM,2023-05-06T08:53:00Z,64.5,-165.43,-6.1,-7.2,330,7,,10.0,30.008858,1016.2,,TRUE,TRUE,,,TRUE,,,,BKN,1800,,,,,,,MVFR,0.3,,,-2.2,-6.7,,,,,,,METAR,6.0
PANC 060853Z 18003KT 10SM SCT046 OVC110 03/M01 A2983 RMK AO2 SLP103 T00331011 400941006 53001 $,PANC,2023-05-06T08:53:00Z,61.17,-150.02,3.3,-1.1,180,3,,10.0,29.828741,1010.3,,,TRUE,TRUE,,,,,,SCT,4600,OVC,11000,,,,,VFR,0.1,,,9.4,-0.6,,,,,,,METAR,39.0
PAMR 060853Z 00000KT 10SM FEW080 BKN120 05/M01 A2983 RMK AO2 SLP103 T00501011 401110000 53002,PAMR,2023-05-06T08:53:00Z,61.22,-149.85,5.0,-1.1,0,0,,10.0,29.828741,1010.3,,,TRUE,,,,,,,FEW,8000,BKN,12000,,,,,VFR,0.2,,,11.1,,,,,,,,METAR,43.0
PAMC 060853Z AUTO 00000KT 10SM BKN075 OVC090 03/00 A2986 RMK AO2 SLP118 T00330000 401000000 50002 TSNO,PAMC,2023-05-06T08:53:00Z,62.97,-155.62,3.3,0.0,0,0,,10.0,29.861221,1011.8,,TRUE,TRUE,,,TRUE,,,,BKN,7500,OVC,9000,,,,,VFR,0.2,,,10.0,,,,,,,,METAR,101.0
PALH 060853Z AUTO 00000KT 10SM BKN050 BKN110 05/M01 A2984 RMK AO2 SLP105 T00501011 400941006 53001 TSNO,PALH,2023-05-06T08:53:00Z,61.18,-149.97,5.0,-1.1,0,0,,10.0,29.840551,1010.5,,TRUE,TRUE,,,TRUE,,,,BKN,5000,BKN,11000,,,,,VFR,0.1,,,9.4,-0.6,,,,,,,METAR,26.0
PAKW 060853Z AUTO 00000KT 10SM BKN042 BKN050 OVC095 07/04 A2991 RMK AO2 SLP130 T00720039 401500028 52010 TSNO,PAKW,2023-05-06T08:53:00Z,55.58,-133.07,7.2,3.9,0,0,,10.0,29.911417,1013.0,,TRUE,TRUE,,,TRUE,,,,BKN,4200,BKN,5000,OVC,9500,,,VFR,1.0,,,15.0,2.8,,,,,,,METAR,7.0
PAKV 060853Z AUTO 24006KT 10SM BKN036 BKN065 OVC080 01/00 A2993 RMK AO2 SLP140 60000 T00110000 400671011 51003 TSNO,PAKV,2023-05-06T08:53:00Z,64.33,-158.72,1.1,0.0,240,6,,10.0,29.929134,1014.0,,TRUE,TRUE,,,TRUE,,,,BKN,3600,BKN,6500,OVC,8000,,,VFR,0.3,,,6.7,-1.1,,0.005,,,,,METAR,53.0
PAKT 060853Z AUTO 15004KT 10SM OVC019 08/06 A2993 RMK AO2 SLP134 T00830061 401060078 53007 TSNO,PAKT,2023-05-06T08:53:00Z,55.35,-131.72,8.3,6.1,150,4,,10.0,29.929134,1013.4,,TRUE,TRUE,,,TRUE,,,,OVC,1900,,,,,,,MVFR,0.7,,,10.6,7.8,,,,,,,METAR,27.0
PAJN 060853Z 08004KT 10SM OVC050 07/02 A2988 RMK AO2 SLP120 T00670022 401001006 53009,PAJN,2023-05-06T08:53:00Z,58.35,-134.55,6.7,2.2,80,4,,10.0,29.878937,1012.0,,,TRUE,,,,,,,OVC,5000,,,,,,,VFR,0.9,,,10.0,-0.6,,,,,,,METAR,6.0
PAIL 060853Z AUTO 31003KT 10SM BKN060 OVC100 02/01 A2989 RMK AO2 SLP124 T00220006 400610017 53001 TSNO,PAIL,2023-05-06T08:53:00Z,59.75,-154.92,2.2,0.6,310,3,,10.0,29.890747,1012.4,,TRUE,TRUE,,,TRUE,,,,BKN,6000,OVC,10000,,,,,VFR,0.1,,,6.1,1.7,,,,,,,METAR,44.0
PAGY 060853Z AUTO 00000KT 10SM OVC065 08/02 A2984 RMK AO2 SLP104 T00830017 401390000 51009 TSNO,PAGY,2023-05-06T08:53:00Z,59.47,-135.32,8.3,1.7,0,0,,10.0,29.840551,1010.4,,TRUE,TRUE,,,TRUE,,,,OVC,6500,,,,,,,VFR,0.9,,,13.9,,,,,,,,METAR,7.0
PAGK 060853Z AUTO 00000KT 10SM CLR M01/M04 A2979 RMK AO2 SLP109 T10061044 400891067 52004 TSNO,PAGK,2023-05-06T08:53:00Z,62.15,-145.45,-0.6,-4.4,0,0,,10.0,29.790354,1010.9,,TRUE,TRUE,,,TRUE,,,,CLR,,,,,,,,VFR,0.4,,,8.9,-6.7,,,,,,,METAR,481.0
PAFA 060853Z 00000KT 10SM SCT090 BKN140 08/M03 A2975 RMK AO2 SLP078 T00781028 401391017 58008,PAFA,2023-05-06T08:53:00Z,64.8,-147.87,7.8,-2.8,0,0,,10.0,29.749016,1007.8,,,TRUE,,,,,,,SCT,9000,BKN,14000,,,,,VFR,-0.8,,,13.9,-1.7,,,,,,,METAR,130.0
PAEN 060853Z AUTO 11004KT 10SM BKN065 OVC080 05/M01 A2985 RMK AO2 SLP110 T00501011 401000000 53002 TSNO,PAEN,2023-05-06T08:53:00Z,60.57,-151.25,5.0,-1.1,110,4,,10.0,29.84941,1011.0,,TRUE,TRUE,,,TRUE,,,,BKN,6500,OVC,8000,,,,,VFR,0.2,,,10.0,,,,,,,,METAR,30.0
PAEG 060853Z AUTO 00000KT 10SM CLR M01/M06 A2977 RMK AO2 SLP086 T10061061 401501050 55001 TSNO,PAEG,2023-05-06T08:53:00Z,64.78,-141.15,-0.6,-6.1,0,0,,10.0,29.769686,1008.6,,TRUE,TRUE,,,TRUE,,,,CLR,,,,,,,,VFR,-0.1,,,15.0,-5.0,,,,,,,METAR,273.0
PADQ 060853Z AUTO 26003KT 10SM BKN021 OVC055 04/03 A2987 RMK AO2 SLP116 T00390028 400610039 51004 TSNO,PADQ,2023-05-06T08:53:00Z,57.75,-152.5,3.9,2.8,260,3,,10.0,29.870079,1011.6,,TRUE,TRUE,,,TRUE,,,,BKN,2100,OVC,5500,,,,,MVFR,0.4,,,6.1,3.9,,,,,,,METAR,5.0
PACV 060853Z 00000KT 10SM CLR 02/01 A2988 RMK AO2 SLP117 T00170006 401061033 52006,PACV,2023-05-06T08:53:00Z,60.5,-145.47,1.7,0.6,0,0,,10.0,29.878937,1011.7,,,TRUE,,,,,,,CLR,,,,,,,,VFR,0.6,,,10.6,-3.3,,,,,,,METAR,15.0
PACD 060853Z 33011KT 10SM OVC029 00/M04 A3011 RMK AO2 SLP198 60001 T00001039 400171006 51009 $,PACD,2023-05-06T08:53:00Z,55.22,-162.72,0.0,-3.9,330,11,,10.0,30.109253,1019.8,,,TRUE,TRUE,,,,,,OVC,2900,,,,,,,MVFR,0.9,,,1.7,-0.6,,0.01,,,,,METAR,23.0
PABT 060853Z 02006KT 10SM FEW050 BKN080 03/M05 A2990 RMK SLP136 T00331050 400891028 58003,PABT,2023-05-06T08:53:00Z,66.92,-151.52,3.3,-5.0,20,6,,10.0,29.899607,1013.6,,,,,,,,,,FEW,5000,BKN,8000,,,,,VFR,-0.3,,,8.9,-2.8,,,,,,,METAR,195.0
PABR 060853Z AUTO 13009KT 10SM OVC004 M07/M08 A3007 RMK AO2 SLP183 T10671078 410171089 53004 TSNO,PABR,2023-05-06T08:53:00Z,71.28,-156.78,-6.7,-7.8,130,9,,10.0,30.070866,1018.3,,TRUE,TRUE,,,TRUE,,,,OVC,400,,,,,,,LIFR,0.4,,,-1.7,-8.9,,,,,,,METAR,6.0
PABI 060853Z AUTO 24009KT 10SM CLR 04/M05 A2976 RMK AO2 SLP092 T00391050 401171017 58005 TSNO,PABI,2023-05-06T08:53:00Z,64.0,-145.72,3.9,-5.0,240,9,,10.0,29.760826,1009.2,,TRUE,TRUE,,,TRUE,,,,CLR,,,,,,,,VFR,-0.5,,,11.7,-1.7,,,,,,,METAR,388.0
PABE 060853Z 32015G23KT 10SM FEW010 BKN037 OVC048 M02/M03 A3000 RMK AO2 PK WND 31027/0807 UPE26SNB09E17 SLP159 P0000 60000 T10171033 400221017 51009,PABE,2023-05-06T08:53:00Z,60.78,-161.83,-1.7,-3.3,320,15,23,10.0,30.0,1015.9,,,TRUE,,,,,,,FEW,1000,BKN,3700,OVC,4800,,,VFR,0.9,,,2.2,-1.7,0.005,0.005,,,,,METAR,28.0
PAAQ 060853Z AUTO 00000KT 10SM SCT080 SCT120 06/00 A2982 RMK AO2 SLP100 T00560000 401280022 51002 TSNO,PAAQ,2023-05-06T08:53:00Z,61.6,-149.08,5.6,0.0,0,0,,10.0,29.819881,1010.0,,TRUE,TRUE,,,TRUE,,,,SCT,8000,SCT,12000,,,,,VFR,0.2,,,12.8,2.2,,,,,,,METAR,68.0
KZZV 060853Z AUTO 00000KT 10SM CLR 08/04 A3023 RMK AO2 SLP236 T00830039 53006,KZZV,2023-05-06T08:53:00Z,39.95,-81.9,8.3,3.9,0,0,,10.0,30.230314,1023.6,,TRUE,TRUE,,,,,,,CLR,,,,,,,,VFR,0.6,,,,,,,,,,,METAR,268.0
KYKM 060853Z AUTO 00000KT 10SM BKN080 OVC120 10/06 A2987 RMK AO2 SLP116 T01000056 55000,KYKM,2023-05-06T08:53:00Z,46.57,-120.53,10.0,5.6,0,0,,10.0,29.870079,1011.6,,TRUE,TRUE,,,,,,,BKN,8000,OVC,12000,,,,,VFR,0.0,,,,,,,,,,,METAR,319.0
KYIP 060853Z 04005KT 10SM CLR 06/03 A3026 RMK AO2 SLP245 T00610028 53002,KYIP,2023-05-06T08:53:00Z,42.23,-83.53,6.1,2.8,40,5,,10.0,30.259842,1024.5,,,TRUE,,,,,,,CLR,,,,,,,,VFR,0.2,,,,,,,,,,,METAR,215.0
KXNA 060853Z AUTO 15006KT 8SM BKN014 19/18 A2988 RMK AO2 SLP106 T01890178 56008,KXNA,2023-05-06T08:53:00Z,36.28,-94.3,18.9,17.8,150,6,,8.0,29.878937,1010.6,,TRUE,TRUE,,,,,,,BKN,1400,,,,,,,MVFR,-0.8,,,,,,,,,,,METAR,390.0
KWST 060853Z AUTO 00000KT 10SM CLR 07/06 A3019 RMK AO2 SLP225 T00670056 56001,KWST,2023-05-06T08:53:00Z,41.35,-71.8,6.7,5.6,0,0,,10.0,30.188976,1022.5,,TRUE,TRUE,,,,,,,CLR,,,,,,,,VFR,-0.1,,,,,,,,,,,METAR,20.0
KWRL 060853Z AUTO 13007KT 10SM CLR 06/04 A2984 RMK AO2 SLP081 60000 T00560039 52004 $,KWRL,2023-05-06T08:53:00Z,43.97,-107.95,5.6,3.9,130,7,,10.0,29.840551,1008.1,,TRUE,TRUE,TRUE,,,,,,CLR,,,,,,,,VFR,0.4,,,,,,0.005,,,,,METAR,1281.0
KVRB 060853Z AUTO 00000KT 10SM CLR 20/17 A3007 RMK AO2 SLP181 T02000172 58004,KVRB,2023-05-06T08:53:00Z,27.65,-80.42,20.0,17.2,0,0,,10.0,30.070866,1018.1,,TRUE,TRUE,,,,,,,CLR,,,,,,,,VFR,-0.4,,,,,,,,,,,METAR,7.0
KVLD 060853Z AUTO 05003KT 10SM FEW046 SCT090 19/17 A3012 RMK AO1 SLP205 60000 T01890167 56003,KVLD,2023-05-06T08:53:00Z,30.78,-83.27,18.9,16.7,50,3,,10.0,30.121063,1020.5,,TRUE,TRUE,,,,,,,FEW,4600,SCT,9000,,,,,VFR,-0.3,,,,,,0.005,,,,,METAR,59.0
KVIH 060853Z AUTO 16009KT 10SM OVC011 15/13 A2997 RMK AO2 SLP143 T01500128 55002,KVIH,2023-05-06T08:53:00Z,38.13,-91.77,15.0,12.8,160,9,,10.0,29.970472,1014.3,,TRUE,TRUE,,,,,,,OVC,1100,,,,,,,MVFR,-0.2,,,,,,,,,,,METAR,342.0
KVGT 060853Z AUTO 18010KT 10SM CLR 17/M01 A2991 RMK AO2 SLP130 T01671011 50004,KVGT,2023-05-06T08:53:00Z,36.22,-115.2,16.7,-1.1,180,10,,10.0,29.911417,1013.0,,TRUE,TRUE,,,,,,,CLR,,,,,,,,VFR,0.4,,,,,,,,,,,METAR,664.0
KVEL 060853Z AUTO 00000KT 10SM CLR 05/02 A2997 RMK AO2 SLP119 60000 T00500017 53004,KVEL,2023-05-06T08:53:00Z,40.45,-109.52,5.0,1.7,0,0,,10.0,29.970472,1011.9,,TRUE,TRUE,,,,,,,CLR,,,,,,,,VFR,0.4,,,,,,0.005,,,,,METAR,1604.0
KUUU 060853Z AUTO 32005KT 10SM CLR 09/06 A3017 RMK AO2 SLP217 T00890056 55002,KUUU,2023-05-06T08:53:00Z,41.53,-71.28,8.9,5.6,320,5,,10.0,30.171259,1021.7,,TRUE,TRUE,,,,,,,CLR,,,,,,,,VFR,-0.2,,,,,,,,,,,METAR,45.0
KUTS 060853Z AUTO 18012G17KT 10SM CLR 23/17 A2978 RMK AO2 RAE15 PRESFR SLP077 P0000 60011 T02280172 58078,KUTS,2023-05-06T08:53:00Z,30.75,-95.58,22.8,17.2,180,12,17,10.0,29.778543,1007.7,,TRUE,TRUE,,,,,,,CLR,,,,,,,,VFR,-7.8,,,,,0.005,0.11,,,,,METAR,103.0
KUNO 060853Z AUTO VRB04KT 10SM OVC008 16/14 A3000 RMK AO2 SLP153 T01560139 55002,KUNO,2023-05-06T08:53:00Z,36.88,-91.9,15.6,13.9,0,4,,10.0,30.0,1015.3,,TRUE,TRUE,,,,,,,OVC,800,,,,,,,IFR,-0.2,,,,,,,,,,,METAR,376.0
KUAO 060853Z AUTO 19003KT 10SM SCT033 BKN060 OVC080 10/09 A2998 RMK AO2 SLP152 T01000089 58000,KUAO,2023-05-06T08:53:00Z,45.25,-122.77,10.0,8.9,190,3,,10.0,29.97933,1015.2,,TRUE,TRUE,,,,,,,SCT,3300,BKN,6000,OVC,8000,,,VFR,0.0,,,,,,,,,,,METAR,60.0
KTYS 060853Z 08004KT 10SM BKN095 OVC120 14/11 A3018 RMK AO2 SLP213 T01390106 53005,KTYS,2023-05-06T08:53:00Z,35.82,-83.98,13.9,10.6,80,4,,10.0,30.180119,1021.3,,,TRUE,,,,,,,BKN,9500,OVC,12000,,,,,VFR,0.5,,,,,,,,,,,METAR,300.0
KTYR 060853Z AUTO 22004KT 10SM CLR 23/16 A2986 RMK AO2 SLP102 T02280161 50010,KTYR,2023-05-06T08:53:00Z,32.37,-95.4,22.8,16.1,220,4,,10.0,29.861221,1010.2,,TRUE,TRUE,,,,,,,CLR,,,,,,,,VFR,1.0,,,,,,,,,,,METAR,161.0
KTXK 060853Z AUTO 17009KT 6SM BR OVC006 24/22 A2990 RMK AO2 SLP121 T02440222 55005,KTXK,2023-05-06T08:53:00Z,33.45,-93.98,24.4,22.2,170,9,,6.0,29.899607,1012.1,,TRUE,TRUE,,,,,,BR,OVC,600,,,,,,,IFR,-0.5,,,,,,,,,,,METAR,118.0
KTWF 060853Z AUTO 22009KT 10SM SCT075 06/03 A2994 RMK AO2 SLP110 T00560028 50001,KTWF,2023-05-06T08:53:00Z,42.48,-114.48,5.6,2.8,220,9,,10.0,29.940945,1011.0,,TRUE,TRUE,,,,,,,SCT,7500,,,,,,,VFR,0.1,,,,,,,,,,,METAR,1269.0
KTVR 060853Z AUTO 16006KT 10SM OVC007 22/20 A3000 RMK AO2 CIG 006V011 SLP164 T02170200 51005,KTVR,2023-05-06T08:53:00Z,32.35,-91.03,21.7,20.0,160,6,,10.0,30.0,1016.4,,TRUE,TRUE,,,,,,,OVC,700,,,,,,,IFR,0.5,,,,,,,,,,,METAR,25.0
KTVL 060853Z AUTO 18006KT 5SM -SN OVC036 01/M02 A2998 RMK AO2 SNB43 SLP140 P0000 60000 T00111017 58006,KTVL,2023-05-06T08:53:00Z,38.9,-120.0,1.1,-1.7,180,6,,5.0,29.97933,1014.0,,TRUE,TRUE,,,,,,-SN,OVC,3600,,,,,,,MVFR,-0.6,,,,,0.005,0.005,,,,,METAR,1907.0
KTVC 060853Z AUTO VRB04KT 10SM FEW060 OVC085 14/07 A3016 RMK AO2 SLP213 T01440067 53007,KTVC,2023-05-06T08:53:00Z,44.73,-85.58,14.4,6.7,0,4,,10.0,30.159449,1021.3,,TRUE,TRUE,,,,,,,FEW,6000,OVC,8500,,,,,VFR,0.7,,,,,,,,,,,METAR,188.0
KTUS 060853Z 20004KT 10SM CLR 14/M01 A3001 RMK AO2 SLP129 T01441011 58002 $,KTUS,2023-05-06T08:53:00Z,32.13,-110.95,14.4,-1.1,200,4,,10.0,30.008858,1012.9,,,TRUE,TRUE,,,,,,CLR,,,,,,,,VFR,-0.2,,,,,,,,,,,METAR,776.0
KTUL 060853Z 15008KT 7SM BKN006 OVC018 20/19 A2982 RMK AO2 SLP092 T02000194 52000,KTUL,2023-05-06T08:53:00Z,36.2,-95.88,20.0,19.4,150,8,,7.0,29.819881,1009.2,,,TRUE,,,,,,,BKN,600,OVC,1800,,,,,IFR,0.0,,,,,,,,,,,METAR,196.0
KTTN 060853Z AUTO 31004KT 10SM CLR 07/06 A3026 RMK AO2 SLP242 T00720061 53004,KTTN,2023-05-06T08:53:00Z,40.28,-74.82,7.2,6.1,310,4,,10.0,30.259842,1024.2,,TRUE,TRUE,,,,,,,CLR,,,,,,,,VFR,0.4,,,,,,,,,,,METAR,58.0
KTTD 060853Z AUTO 00000KT 10SM BKN040 OVC048 12/09 A2997 RMK AO2 SLP150 60000 T01170094 50000,KTTD,2023-05-06T08:53:00Z,45.55,-122.42,11.7,9.4,0,0,,10.0,29.970472,1015.0,,TRUE,TRUE,,,,,,,BKN,4000,OVC,4800,,,,,VFR,0.0,,,,,,0.005,,,,,METAR,8.0
KTRL 060853Z AUTO 09004KT 10SM CLR 22/12 A2984 RMK AO2 SLP096 T02220122 58001,KTRL,2023-05-06T08:53:00Z,32.72,-96.27,22.2,12.2,90,4,,10.0,29.840551,1009.6,,TRUE,TRUE,,,,,,,CLR,,,,,,,,VFR,-0.1,,,,,,,,,,,METAR,144.0
KTRI 060853Z 00000KT 10SM SCT180 09/07 A3023 RMK AO2 SLP220 T00890072 53011,KTRI,2023-05-06T08:53:00Z,36.48,-82.4,8.9,7.2,0,0,,10.0,30.230314,1022.0,,,TRUE,,,,,,,SCT,18000,,,,,,,VFR,1.1,,,,,,,,,,,METAR,456.0
KTPA 060853Z 09005KT 10SM FEW038 SCT110 BKN250 24/17 A3007 RMK AO2 SLP181 T02390172 56007,KTPA,2023-05-06T08:53:00Z,27.97,-82.53,23.9,17.2,90,5,,10.0,30.070866,1018.1,,,TRUE,,,,,,,FEW,3800,SCT,11000,BKN,25000,,,VFR,-0.7,,,,,,,,,,,METAR,2.0
KTOI 060853Z AUTO 04003KT 10SM CLR 16/13 A3013 RMK AO2 SLP197 T01560128 55002,KTOI,2023-05-06T08:53:00Z,31.85,-86.02,15.6,12.8,40,3,,10.0,30.129921,1019.7,,TRUE,TRUE,,,,,,,CLR,,,,,,,,VFR,-0.2,,,,,,,,,,,METAR,120.0
KTMB 060853Z AUTO 00000KT 10SM CLR 21/19 A3004 RMK AO2 SLP172 T02110189 55003,KTMB,2023-05-06T08:53:00Z,25.65,-80.43,21.1,18.9,0,0,,10.0,30.041338,1017.2,,TRUE,TRUE,,,,,,,CLR,,,,,,,,VFR,-0.3,,,,,,,,,,,METAR,2.0
KTLH 060853Z AUTO 07005KT 10SM CLR 19/15 A3009 RMK AO2 SLP189 T01940150 53001,KTLH,2023-05-06T08:53:00Z,30.4,-84.35,19.4,15.0,70,5,,10.0,30.088583,1018.9,,TRUE,TRUE,,,,,,,CLR,,,,,,,,VFR,0.1,,,,,,,,,,,METAR,17.0
KTKI 060853Z AUTO 17004KT 10SM CLR 21/14 A2983 RMK AO2 SLP094 T02110139 58002,KTKI,2023-05-06T08:53:00Z,33.18,-96.58,21.1,13.9,170,4,,10.0,29.828741,1009.4,,TRUE,TRUE,,,,,,,CLR,,,,,,,,VFR,-0.2,,,,,,,,,,,METAR,173.0
KTIW 060853Z AUTO 22003KT 10SM SCT019 OVC080 08/07 A2997 RMK AO2 SLP149 T00830067 55001 $,KTIW,2023-05-06T08:53:00Z,47.27,-122.58,8.3,6.7,220,3,,10.0,29.970472,1014.9,,TRUE,TRUE,TRUE,,,,,,SCT,1900,OVC,8000,,,,,VFR,-0.1,,,,,,,,,,,METAR,89.0
KTDZ 060853Z AUTO 09005KT 10SM CLR 09/04 A3024 RMK AO2 SLP240 T00890044 51004,KTDZ,2023-05-06T08:53:00Z,41.57,-83.48,8.9,4.4,90,5,,10.0,30.239174,1024.0,,TRUE,TRUE,,,,,,,CLR,,,,,,,,VFR,0.4,,,,,,,,,,,METAR,189.0
KTCS 060853Z AUTO 29010KT 10SM CLR 15/M08 A3002 RMK AO2 SLP089 T01501078 51001,KTCS,2023-05-06T08:53:00Z,33.23,-107.27,15.0,-7.8,290,10,,10.0,30.02067,1008.9,,TRUE,TRUE,,,,,,,CLR,,,,,,,,VFR,0.1,,,,,,,,,,,METAR,1471.0
KTCC 060853Z AUTO 24009KT 10SM CLR 16/M10 A2988 RMK AO2 SLP058 T01561100 53008,KTCC,2023-05-06T08:53:00Z,35.18,-103.6,15.6,-10.0,240,9,,10.0,29.878937,1005.8,,TRUE,TRUE,,,,,,,CLR,,,,,,,,VFR,0.8,,,,,,,,,,,METAR,1233.0
KSTP 060853Z AUTO 12003KT 10SM OVC011 13/12 A2995 RMK AO2 SLP141 T01330117 53006,KSTP,2023-05-06T08:53:00Z,44.93,-93.05,13.3,11.7,120,3,,10.0,29.949802,1014.1,,TRUE,TRUE,,,,,,,OVC,1100,,,,,,,MVFR,0.6,,,,,,,,,,,METAR,213.0
KSTJ 060853Z AUTO 14008KT 9SM OVC013 17/15 A2982 RMK AO2 SLP094 T01720150 50000,KSTJ,2023-05-06T08:53:00Z,39.77,-94.92,17.2,15.0,140,8,,9.0,29.819881,1009.4,,TRUE,TRUE,,,,,,,OVC,1300,,,,,,,MVFR,0.0,,,,,,,,,,,METAR,247.0
KSTC 060853Z AUTO 06007KT 10SM OVC014 09/06 A2995 RMK AO2 SLP151 T00940056 56001,KSTC,2023-05-06T08:53:00Z,45.55,-94.05,9.4,5.6,60,7,,10.0,29.949802,1015.1,,TRUE,TRUE,,,,,,,OVC,1400,,,,,,,MVFR,-0.1,,,,,,,,,,,METAR,302.0
KSSI 060853Z AUTO 09007G18KT 5SM -RA OVC029 22/18 A3014 RMK AO2 RAE20B38 SLP209 P0002 60012 T02170183 55001,KSSI,2023-05-06T08:53:00Z,31.15,-81.38,21.7,18.3,90,7,18,5.0,30.138779,1020.9,,TRUE,TRUE,,,,,,-RA,OVC,2900,,,,,,,MVFR,-0.1,,,,,0.02,0.12,,,,,METAR,6.0
KSRQ 060853Z AUTO 12008KT 10SM CLR 22/18 A3002 RMK AO2 SLP164 T02170178 58012,KSRQ,2023-05-06T08:53:00Z,27.4,-82.57,21.7,17.8,120,8,,10.0,30.02067,1016.4,,TRUE,TRUE,,,,,,,CLR,,,,,,,,VFR,-1.2,,,,,,,,,,,METAR,5.0
KSPW 060853Z AUTO 13010KT 10SM OVC008 16/13 A2986 RMK AO2 SLP107 T01610128 55000,KSPW,2023-05-06T08:53:00Z,43.17,-95.22,16.1,12.8,130,10,,10.0,29.861221,1010.7,,TRUE,TRUE,,,,,,,OVC,800,,,,,,,IFR,0.0,,,,,,,,,,,METAR,407.0
KSPG 060853Z AUTO 10010KT 10SM CLR 23/19 A3004 RMK AO2 SLP172 T02330194 58006,KSPG,2023-05-06T08:53:00Z,27.77,-82.63,23.3,19.4,100,10,,10.0,30.041338,1017.2,,TRUE,TRUE,,,,,,,CLR,,,,,,,,VFR,-0.6,,,,,,,,,,,METAR,1.0
KSNS 060853Z AUTO 00000KT 10SM CLR 11/08 A3010 RMK AO2 SLP200 60000 T01110083 58007,KSNS,2023-05-06T08:53:00Z,36.67,-121.6,11.1,8.3,0,0,,10.0,30.100393,1020.0,,TRUE,TRUE,,,,,,,CLR,,,,,,,,VFR,-0.7,,,,,,0.005,,,,,METAR,20.0
KSNA 060853Z AUTO 00000KT 10SM CLR 14/09 A3008 RMK AO2 SLP185 T01440089 58004,KSNA,2023-05-06T08:53:00Z,33.67,-117.87,14.4,8.9,0,0,,10.0,30.079725,1018.5,,TRUE,TRUE,,,,,,,CLR,,,,,,,,VFR,-0.4,,,,,,,,,,,METAR,14.0
KSMF 060853Z 17007KT 10SM BKN060 OVC070 12/10 A3006 RMK AO2 RAE11 SLP179 P0000 60004 T01220100 58004,KSMF,2023-05-06T08:53:00Z,38.7,-121.6,12.2,10.0,170,7,,10.0,30.059055,1017.9,,,TRUE,,,,,,,BKN,6000,OVC,7000,,,,,VFR,-0.4,,,,,0.005,0.04,,,,,METAR,7.0
KSLN 060853Z 15011KT 7SM FEW016 21/19 A2968 RMK AO2 SLP038 T02110194 58013,KSLN,2023-05-06T08:53:00Z,38.8,-97.65,21.1,19.4,150,11,,7.0,29.681103,1003.8,,,TRUE,,,,,,,FEW,1600,,,,,,,VFR,-1.3,,,,,,,,,,,METAR,377.0
KSJC 060853Z AUTO 14005KT 10SM FEW039 OVC065 12/11 A3008 RMK AO2 RAE11 SLP185 P0000 60002 T01170106 58008,KSJC,2023-05-06T08:53:00Z,37.37,-121.92,11.7,10.6,140,5,,10.0,30.079725,1018.5,,TRUE,TRUE,,,,,,,FEW,3900,OVC,6500,,,,,VFR,-0.8,,,,,0.005,0.02,,,,,METAR,13.0
KSHR 060853Z AUTO 13003KT 10SM SCT110 08/05 A2980 RMK AO2 SLP076 T00830050 50002,KSHR,2023-05-06T08:53:00Z,44.77,-106.97,8.3,5.0,130,3,,10.0,29.799213,1007.6,,TRUE,TRUE,,,,,,,SCT,11000,,,,,,,VFR,0.2,,,,,,,,,,,METAR,1212.0
KSHN 060853Z AUTO 24004KT 10SM BKN004 OVC055 08/07 A2995 RMK AO2 SLP143 60000 T00780072 51002,KSHN,2023-05-06T08:53:00Z,47.23,-123.13,7.8,7.2,240,4,,10.0,29.949802,1014.3,,TRUE,TRUE,,,,,,,BKN,400,OVC,5500,,,,,LIFR,0.2,,,,,,0.005,,,,,METAR,84.0
KSGR 060853Z AUTO 11003KT 10SM CLR 21/18 A2994 RMK AO2 RAE04 SLP138 P0000 60007 T02110183 58005,KSGR,2023-05-06T08:53:00Z,29.62,-95.65,21.1,18.3,110,3,,10.0,29.940945,1013.8,,TRUE,TRUE,,,,,,,CLR,,,,,,,,VFR,-0.5,,,,,0.005,0.07,,,,,METAR,22.0
KSFF 060853Z AUTO 18004KT 10SM BKN012 OVC017 09/07 A2989 RMK AO2 SLP120 T00890072 50001,KSFF,2023-05-06T08:53:00Z,47.68,-117.32,8.9,7.2,180,4,,10.0,29.890747,1012.0,,TRUE,TRUE,,,,,,,BKN,1200,OVC,1700,,,,,MVFR,0.1,,,,,,,,,,,METAR,593.0
KSFB 060853Z AUTO 00000KT 10SM OVC050 21/18 A3009 RMK AO2 SLP189 T02060183 55002,KSFB,2023-05-06T08:53:00Z,28.77,-81.23,20.6,18.3,0,0,,10.0,30.088583,1018.9,,TRUE,TRUE,,,,,,,OVC,5000,,,,,,,VFR,-0.2,,,,,,,,,,,METAR,16.0
KSEG 060853Z AUTO 32003KT 10SM CLR 03/03 A3031 RMK AO2 SLP263 T00330028 53005,KSEG,2023-05-06T08:53:00Z,40.82,-76.87,3.3,2.8,320,3,,10.0,30.31004,1026.3,,TRUE,TRUE,,,,,,,CLR,,,,,,,,VFR,0.5,,,,,,,,,,,METAR,136.0
KSEA 060853Z 21004KT 10SM BKN013 OVC021 09/07 A2996 RMK AO2 SLP153 60000 T00890067 58002,KSEA,2023-05-06T08:53:00Z,47.45,-122.32,8.9,6.7,210,4,,10.0,29.958662,1015.3,,,TRUE,,,,,,,BKN,1300,OVC,2100,,,,,MVFR,-0.2,,,,,,0.005,,,,,METAR,115.0
KSDM 060853Z AUTO 13003KT 10SM CLR 09/08 A3006 RMK AO2 SLP179 T00940078 58010 $,KSDM,2023-05-06T08:53:00Z,32.58,-117.0,9.4,7.8,130,3,,10.0,30.059055,1017.9,,TRUE,TRUE,TRUE,,,,,,CLR,,,,,,,,VFR,-1.0,,,,,,,,,,,METAR,161.0
KSDL 060853Z AUTO 00000KT 10SM CLR 17/03 A2995 RMK AO2 SLP125 T01720028 58001,KSDL,2023-05-06T08:53:00Z,33.62,-111.92,17.2,2.8,0,0,,10.0,29.949802,1012.5,,TRUE,TRUE,,,,,,,CLR,,,,,,,,VFR,-0.1,,,,,,,,,,,METAR,438.0
KSBM 060853Z AUTO 17008KT 10SM OVC080 13/07 A3010 RMK AO2 RAE06 SLP195 P0000 60000 T01280067 51013,KSBM,2023-05-06T08:53:00Z,43.78,-87.85,12.8,6.7,170,8,,10.0,30.100393,1019.5,,TRUE,TRUE,,,,,,,OVC,8000,,,,,,,VFR,1.3,,,,,0.005,0.005,,,,,METAR,225.0
KSBA 060853Z AUTO 00000KT 10SM CLR 09/07 A3007 RMK AO2 SLP181 T00940072 58002 $,KSBA,2023-05-06T08:53:00Z,34.43,-119.85,9.4,7.2,0,0,,10.0,30.070866,1018.1,,TRUE,TRUE,TRUE,,,,,,CLR,,,,,,,,VFR,-0.2,,,,,,,,,,,METAR,2.0
KSAV 060853Z AUTO 07006KT 10SM FEW041 BKN100 BKN120 18/15 A3017 RMK AO2 SLP216 T01830150 55003,KSAV,2023-05-06T08:53:00Z,32.12,-81.2,18.3,15.0,70,6,,10.0,30.171259,1021.6,,TRUE,TRUE,,,,,,,FEW,4100,BKN,10000,BKN,12000,,,VFR,-0.3,,,,,,,,,,,METAR,10.0
KSAF 060853Z AUTO 11003KT 10SM CLR 09/M10 A3006 RMK AO2 SLP101 T00891100 51004,KSAF,2023-05-06T08:53:00Z,35.62,-106.1,8.9,-10.0,110,3,,10.0,30.059055,1010.1,,TRUE,TRUE,,,,,,,CLR,,,,,,,,VFR,0.4,,,,,,,,,,,METAR,1918.0
KSAC 060853Z AUTO 13003KT 10SM OVC050 12/11 A3008 RMK AO2 RAE32 SLP184 P0001 60005 T01170106 58003,KSAC,2023-05-06T08:53:00Z,38.5,-121.5,11.7,10.6,130,3,,10.0,30.079725,1018.4,,TRUE,TRUE,,,,,,,OVC,5000,,,,,,,VFR,-0.3,,,,,0.01,0.05,,,,,METAR,5.0
KRXE 060853Z AUTO 19007KT 10SM CLR 06/01 A2992 RMK AO2 SLP116 60000 T00560006 53004,KRXE,2023-05-06T08:53:00Z,43.83,-111.8,5.6,0.6,190,7,,10.0,29.920275,1011.6,,TRUE,TRUE,,,,,,,CLR,,,,,,,,VFR,0.4,,,,,,0.005,,,,,METAR,1483.0
KRWL 060853Z AUTO 25004KT 10SM BKN090 03/M03 A2994 RMK AO2 SLP080 T00331028 58004,KRWL,2023-05-06T08:53:00Z,41.8,-107.2,3.3,-2.8,250,4,,10.0,29.940945,1008.0,,TRUE,TRUE,,,,,,,BKN,9000,,,,,,,VFR,-0.4,,,,,,,,,,,METAR,2066.0
KRWI 060853Z AUTO 00000KT 10SM BKN090 12/10 A3023 RMK AO2 SLP238 T01220100 53004,KRWI,2023-05-06T08:53:00Z,35.85,-77.9,12.2,10.0,0,0,,10.0,30.230314,1023.8,,TRUE,TRUE,,,,,,,BKN,9000,,,,,,,VFR,0.4,,,,,,,,,,,METAR,46.0
KRWF 060853Z AUTO 06007KT 9SM BKN007 OVC029 14/12 A2987 RMK AO2 SLP113 T01390122 58001,KRWF,2023-05-06T08:53:00Z,44.55,-95.08,13.9,12.2,60,7,,9.0,29.870079,1011.3,,TRUE,TRUE,,,,,,,BKN,700,OVC,2900,,,,,IFR,-0.1,,,,,,,,,,,METAR,312.0
KRUE 060853Z AUTO VRB04KT 10SM OVC010 20/18 A2992 RMK AO2 SLP127 T02000178 58005,KRUE,2023-05-06T08:53:00Z,35.25,-93.1,20.0,17.8,0,4,,10.0,29.920275,1012.7,,TRUE,TRUE,,,,,,,OVC,1000,,,,,,,MVFR,-0.5,,,,,,,,,,,METAR,119.0
KRTN 060853Z AUTO 03005KT 10SM CLR 06/M09 A2997 RMK AO2 SLP076 T00561089 51007,KRTN,2023-05-06T08:53:00Z,36.73,-104.5,5.6,-8.9,30,5,,10.0,29.970472,1007.6,,TRUE,TRUE,,,,,,,CLR,,,,,,,,VFR,0.7,,,,,,,,,,,METAR,1939.0
KRSW 060853Z 08003KT 10SM OVC045 22/19 A3005 RMK AO2 SLP174 T02220194 56003,KRSW,2023-05-06T08:53:00Z,26.53,-81.75,22.2,19.4,80,3,,10.0,30.050198,1017.4,,,TRUE,,,,,,,OVC,4500,,,,,,,VFR,-0.3,,,,,,,,,,,METAR,8.0
KRSL 060853Z AUTO 18011KT 6SM BR CLR 18/17 A2965 RMK AO2 SLP024 T01780167 56001,KRSL,2023-05-06T08:53:00Z,38.87,-98.82,17.8,16.7,180,11,,6.0,29.648623,1002.4,,TRUE,TRUE,,,,,,BR,CLR,,,,,,,,VFR,-0.1,,,,,,,,,,,METAR,569.0
KRQE 060853Z AUTO 00000KT 10SM CLR 05/M07 A3011 RMK AO2 SLP121 T00501067 51003,KRQE,2023-05-06T08:53:00Z,35.65,-109.07,5.0,-6.7,0,0,,10.0,30.109253,1012.1,,TRUE,TRUE,,,,,,,CLR,,,,,,,,VFR,0.3,,,,,,,,,,,METAR,2056.0
KRNT 060853Z AUTO 00000KT 10SM BKN017 OVC023 10/08 A2996 RMK AO2 SLP151 T01000083 58001 $,KRNT,2023-05-06T08:53:00Z,47.5,-122.22,10.0,8.3,0,0,,10.0,29.958662,1015.1,,TRUE,TRUE,TRUE,,,,,,BKN,1700,OVC,2300,,,,,MVFR,-0.1,,,,,,,,,,,METAR,7.0
KRMG 060853Z AUTO 00000KT 10SM OVC050 13/12 A3016 RMK AO2 SLP209 T01330122 55003,KRMG,2023-05-06T08:53:00Z,34.35,-85.17,13.3,12.2,0,0,,10.0,30.159449,1020.9,,TRUE,TRUE,,,,,,,OVC,5000,,,,,,,VFR,-0.3,,,,,,,,,,,METAR,196.0
KRIW 060853Z AUTO 33004KT 10SM CLR 04/M01 A2985 RMK AO2 SLP073 T00441006 58000 $,KRIW,2023-05-06T08:53:00Z,43.07,-108.43,4.4,-0.6,330,4,,10.0,29.84941,1007.3,,TRUE,TRUE,TRUE,,,,,,CLR,,,,,,,,VFR,0.0,,,,,,,,,,,METAR,1662.0
KRIL 060853Z AUTO 28015G22KT 10SM -RA BKN041 BKN070 OVC085 08/02 A3000 RMK AO2 PK WND 26030/0800 RAB02E12B44 SLP122 P0000 60000 T00830022 53022 $,KRIL,2023-05-06T08:53:00Z,39.53,-107.73,8.3,2.2,280,15,22,10.0,30.0,1012.2,,TRUE,TRUE,TRUE,,,,,-RA,BKN,4100,BKN,7000,OVC,8500,,,VFR,2.2,,,,,0.005,0.005,,,,,METAR,1683.0
KRHI 060853Z AUTO 09007KT 9SM -RA OVC100 08/07 A3006 RMK AO2 RAB0754 SLP186 P0000 60000 T00830067 56003,KRHI,2023-05-06T08:53:00Z,45.63,-89.48,8.3,6.7,90,7,,9.0,30.059055,1018.6,,TRUE,TRUE,,,,,,-RA,OVC,10000,,,,,,,VFR,-0.3,,,,,0.005,0.005,,,,,METAR,493.0
KRBG 060853Z AUTO 00000KT 10SM SCT065 OVC090 09/07 A2997 RMK AO2 SLP150 T00940067 57002,KRBG,2023-05-06T08:53:00Z,43.23,-123.35,9.4,6.7,0,0,,10.0,29.970472,1015.0,,TRUE,TRUE,,,,,,,SCT,6500,OVC,9000,,,,,VFR,-0.2,,,,,,,,,,,METAR,152.0
KRBD 060853Z AUTO 19007KT 10SM CLR 23/13 A2982 RMK AO2 SLP088 T02330128 50003,KRBD,2023-05-06T08:53:00Z,32.68,-96.87,23.3,12.8,190,7,,10.0,29.819881,1008.8,,TRUE,TRUE,,,,,,,CLR,,,,,,,,VFR,0.3,,,,,,,,,,,METAR,200.0
KRAL 060853Z AUTO 00000KT 10SM CLR 10/07 A3008 RMK AO2 SLP175 T01000072 58002,KRAL,2023-05-06T08:53:00Z,33.95,-117.45,10.0,7.2,0,0,,10.0,30.079725,1017.5,,TRUE,TRUE,,,,,,,CLR,,,,,,,,VFR,-0.2,,,,,,,,,,,METAR,254.0
KRAC 060853Z AUTO 16012KT 10SM FEW075 OVC090 13/06 A3011 RMK AO2 PK WND 16026/0802 SLP195 T01280061 51006,KRAC,2023-05-06T08:53:00Z,42.77,-87.82,12.8,6.1,160,12,,10.0,30.109253,1019.5,,TRUE,TRUE,,,,,,,FEW,7500,OVC,9000,,,,,VFR,0.6,,,,,,,,,,,METAR,203.0
KPWA 060853Z AUTO 17013KT 7SM CLR 22/20 A2978 RMK AO2 SLP066 T02220200 58001,KPWA,2023-05-06T08:53:00Z,35.53,-97.65,22.2,20.0,170,13,,7.0,29.778543,1006.6,,TRUE,TRUE,,,,,,,CLR,,,,,,,,VFR,-0.1,,,,,,,,,,,METAR,390.0
KPUW 060853Z AUTO 26006KT 10SM OVC017 07/04 A2990 RMK AO2 SLP133 T00670044 58002,KPUW,2023-05-06T08:53:00Z,46.75,-117.12,6.7,4.4,260,6,,10.0,29.899607,1013.3,,TRUE,TRUE,,,,,,,OVC,1700,,,,,,,MVFR,-0.2,,,,,,,,,,,METAR,774.0
KPUC 060853Z AUTO 00000KT 10SM FEW070 03/M03 A2999 RMK AO2 SLP146 T00331028 53006,KPUC,2023-05-06T08:53:00Z,39.62,-110.75,3.3,-2.8,0,0,,10.0,29.991142,1014.6,,TRUE,TRUE,,,,,,,FEW,7000,,,,,,,VFR,0.6,,,,,,,,,,,METAR,1777.0
KPUB 060853Z AUTO 14004KT 10SM CLR 10/M04 A2987 RMK AO2 SLP062 T01001039 53006,KPUB,2023-05-06T08:53:00Z,38.28,-104.5,10.0,-3.9,140,4,,10.0,29.870079,1006.2,,TRUE,TRUE,,,,,,,CLR,,,,,,,,VFR,0.6,,,,,,,,,,,METAR,1441.0
KPTK 060853Z AUTO 12005KT 10SM CLR 08/04 A3025 RMK AO2 SLP246 T00830044 53003,KPTK,2023-05-06T08:53:00Z,42.67,-83.42,8.3,4.4,120,5,,10.0,30.250984,1024.6,,TRUE,TRUE,,,,,,,CLR,,,,,,,,VFR,0.3,,,,,,,,,,,METAR,295.0
KPSP 060853Z AUTO 00000KT 10SM CLR 17/05 A2995 RMK AO2 SLP141 T01670050 58002,KPSP,2023-05-06T08:53:00Z,33.82,-116.5,16.7,5.0,0,0,,10.0,29.949802,1014.1,,TRUE,TRUE,,,,,,,CLR,,,,,,,,VFR,-0.2,,,,,,,,,,,METAR,123.0
KPSC 060853Z AUTO 20007KT 10SM BKN036 OVC048 11/08 A2990 RMK AO2 RAB36E48 SLP126 P0000 60000 T01110083 53004,KPSC,2023-05-06T08:53:00Z,46.27,-119.12,11.1,8.3,200,7,,10.0,29.899607,1012.6,,TRUE,TRUE,,,,,,,BKN,3600,OVC,4800,,,,,VFR,0.4,,,,,0.005,0.005,,,,,METAR,121.0
KPRC 060853Z 21006KT 10SM CLR 05/M02 A3005 RMK AO2 SLP134 T00501022 58001,KPRC,2023-05-06T08:53:00Z,34.65,-112.42,5.0,-2.2,210,6,,10.0,30.050198,1013.4,,,TRUE,,,,,,,CLR,,,,,,,,VFR,-0.1,,,,,,,,,,,METAR,1528.0
KPRB 060853Z AUTO 30005KT 10SM CLR 09/07 A3009 RMK AO2 SLP188 T00940067 50003,KPRB,2023-05-06T08:53:00Z,35.67,-120.63,9.4,6.7,300,5,,10.0,30.088583,1018.8,,TRUE,TRUE,,,,,,,CLR,,,,,,,,VFR,0.3,,,,,,,,,,,METAR,249.0
KPOU 060853Z AUTO 00000KT 10SM CLR 04/04 A3025 RMK AO2 SLP241 T00440039 53005,KPOU,2023-05-06T08:53:00Z,41.63,-73.88,4.4,3.9,0,0,,10.0,30.250984,1024.1,,TRUE,TRUE,,,,,,,CLR,,,,,,,,VFR,0.5,,,,,,,,,,,METAR,45.0
KPOF 060853Z AUTO 10SM BKN060 14/12 A3002 RMK AO2 SLP166 T01390122 55003,KPOF,2023-05-06T08:53:00Z,36.77,-90.32,13.9,12.2,,,,10.0,30.02067,1016.6,,TRUE,TRUE,,,,,,,BKN,6000,,,,,,,VFR,-0.3,,,,,,,,,,,METAR,99.0
KPMP 060853Z AUTO 05003KT 10SM CLR 24/19 A3004 RMK AO2 SLP174 T02440189 56005,KPMP,2023-05-06T08:53:00Z,26.25,-80.12,24.4,18.9,50,3,,10.0,30.041338,1017.4,,TRUE,TRUE,,,,,,,CLR,,,,,,,,VFR,-0.5,,,,,,,,,,,METAR,4.0
KPMD 060853Z AUTO 23014KT 10SM CLR 09/04 A3004 RMK AO2 SLP162 T00940039 56003,KPMD,2023-05-06T08:53:00Z,34.63,-118.08,9.4,3.9,230,14,,10.0,30.041338,1016.2,,TRUE,TRUE,,,,,,,CLR,,,,,,,,VFR,-0.3,,,,,,,,,,,METAR,764.0
KPKD 060853Z AUTO 10007KT 10SM BKN026 OVC031 09/05 A2999 RMK AO2 SLP158 T00890050 55001,KPKD,2023-05-06T08:53:00Z,46.9,-95.07,8.9,5.0,100,7,,10.0,29.991142,1015.8,,TRUE,TRUE,,,,,,,BKN,2600,OVC,3100,,,,,MVFR,-0.1,,,,,,,,,,,METAR,439.0
KPKB 060853Z AUTO 00000KT 10SM CLR 06/04 A3021 RMK AO2 SLP230 T00560039 53005,KPKB,2023-05-06T08:53:00Z,39.35,-81.43,5.6,3.9,0,0,,10.0,30.209646,1023.0,,TRUE,TRUE,,,,,,,CLR,,,,,,,,VFR,0.5,,,,,,,,,,,METAR,245.0
KPIL 060853Z AUTO 15006KT 5SM BR CLR 26/25 A2986 RMK AO2 SLP111 T02560250 58004,KPIL,2023-05-06T08:53:00Z,26.17,-97.33,25.6,25.0,150,6,,5.0,29.861221,1011.1,,TRUE,TRUE,,,,,,BR,CLR,,,,,,,,MVFR,-0.4,,,,,,,,,,,METAR,5.0
KPIH 060853Z AUTO 22008KT 10SM SCT027 OVC080 07/03 A2994 RMK AO2 SLP120 T00670028 50000,KPIH,2023-05-06T08:53:00Z,42.92,-112.57,6.7,2.8,220,8,,10.0,29.940945,1012.0,,TRUE,TRUE,,,,,,,SCT,2700,OVC,8000,,,,,VFR,0.0,,,,,,,,,,,METAR,1357.0
KPIE 060853Z AUTO 10006KT 10SM CLR 22/18 A3006 RMK AO2 SLP179 T02220183 55006,KPIE,2023-05-06T08:53:00Z,27.92,-82.68,22.2,18.3,100,6,,10.0,30.059055,1017.9,,TRUE,TRUE,,,,,,,CLR,,,,,,,,VFR,-0.6,,,,,,,,,,,METAR,1.0
KPHD 060853Z AUTO 00000KT 10SM CLR 06/03 A3025 RMK AO2 SLP245 T00610033 53005,KPHD,2023-05-06T08:53:00Z,40.47,-81.42,6.1,3.3,0,0,,10.0,30.250984,1024.5,,TRUE,TRUE,,,,,,,CLR,,,,,,,,VFR,0.5,,,,,,,,,,,METAR,272.0
KPGD 060853Z AUTO 11005KT 10SM FEW044 21/19 A3007 RMK AO2 SLP180 T02060194 58003,KPGD,2023-05-06T08:53:00Z,26.92,-82.0,20.6,19.4,110,5,,10.0,30.070866,1018.0,,TRUE,TRUE,,,,,,,FEW,4400,,,,,,,VFR,-0.3,,,,,,,,,,,METAR,7.0
KPGA 060853Z AUTO 25004KT 10SM CLR 13/M04 A3000 RMK AO2 SLP117 T01281039 51007,KPGA,2023-05-06T08:53:00Z,36.92,-111.45,12.8,-3.9,250,4,,10.0,30.0,1011.7,,TRUE,TRUE,,,,,,,CLR,,,,,,,,VFR,0.7,,,,,,,,,,,METAR,1310.0
KPEO 060853Z AUTO 21005KT 10SM CLR 04/04 A3032 RMK AO2 SLP271 T00440044 53007,KPEO,2023-05-06T08:53:00Z,42.65,-77.05,4.4,4.4,210,5,,10.0,30.318897,1027.1,,TRUE,TRUE,,,,,,,CLR,,,,,,,,VFR,0.7,,,,,,,,,,,METAR,268.0
KPDX 060853Z 14003KT 10SM FEW018 OVC043 12/09 A2997 RMK AO2 SLP149 T01170094 58001 $,KPDX,2023-05-06T08:53:00Z,45.6,-122.62,11.7,9.4,140,3,,10.0,29.970472,1014.9,,,TRUE,TRUE,,,,,,FEW,1800,OVC,4300,,,,,VFR,-0.1,,,,,,,,,,,METAR,7.0
KPDK 060853Z AUTO 00000KT 10SM SCT050 BKN120 14/12 A3018 RMK AO2 SLP217 T01390122 53000,KPDK,2023-05-06T08:53:00Z,33.88,-84.3,13.9,12.2,0,0,,10.0,30.180119,1021.7,,TRUE,TRUE,,,,,,,SCT,5000,BKN,12000,,,,,VFR,0.0,,,,,,,,,,,METAR,299.0
KPBI 060853Z 05004KT 10SM FEW029 SCT250 24/19 A3006 RMK AO2 SLP178 T02440189 55004,KPBI,2023-05-06T08:53:00Z,26.68,-80.1,24.4,18.9,50,4,,10.0,30.059055,1017.8,,,TRUE,,,,,,,FEW,2900,SCT,25000,,,,,VFR,-0.4,,,,,,,,,,,METAR,4.0
KPBG 060853Z AUTO 00000KT 10SM CLR 04/03 A3022 RMK AO2 SLP236 T00440033 53002,KPBG,2023-05-06T08:53:00Z,44.65,-73.47,4.4,3.3,0,0,,10.0,30.221457,1023.6,,TRUE,TRUE,,,,,,,CLR,,,,,,,,VFR,0.2,,,,,,,,,,,METAR,61.0
KPBF 060853Z AUTO 13009KT 10SM BKN025 BKN036 OVC045 20/18 A2997 RMK AO2 SLP145 T02000183 58003,KPBF,2023-05-06T08:53:00Z,34.18,-91.93,20.0,18.3,130,9,,10.0,29.970472,1014.5,,TRUE,TRUE,,,,,,,BKN,2500,BKN,3600,OVC,4500,,,MVFR,-0.3,,,,,,,,,,,METAR,63.0
KPAH 060853Z AUTO 15004KT 10SM BKN070 15/12 A3006 RMK AO2 SLP175 T01500117 58003,KPAH,2023-05-06T08:53:00Z,37.07,-88.77,15.0,11.7,150,4,,10.0,30.059055,1017.5,,TRUE,TRUE,,,,,,,BKN,7000,,,,,,,VFR,-0.3,,,,,,,,,,,METAR,125.0
KP68 060853Z AUTO 21003KT M01/M01 A2996 RMK AO1 SLP127 T10111011 58008,KP68,2023-05-06T08:53:00Z,39.6,-116.0,-1.1,-1.1,210,3,,,29.958662,1012.7,,TRUE,TRUE,,,,,,,,,,,,,,,,-0.8,,,,,,,,,,,METAR,1813.0
KOVS 060853Z AUTO VRB03KT 10SM FEW045 OVC070 15/12 A2999 RMK AO2 SLP154 60001 T01500122 58001,KOVS,2023-05-06T08:53:00Z,43.15,-90.68,15.0,12.2,0,3,,10.0,29.991142,1015.4,,TRUE,TRUE,,,,,,,FEW,4500,OVC,7000,,,,,VFR,-0.1,,,,,,0.01,,,,,METAR,205.0
KOTM 060853Z AUTO 17015G21KT 10SM OVC016 15/12 A2990 RMK AO2 SLP122 T01500117 50003,KOTM,2023-05-06T08:53:00Z,41.1,-92.45,15.0,11.7,170,15,21,10.0,29.899607,1012.2,,TRUE,TRUE,,,,,,,OVC,1600,,,,,,,MVFR,0.3,,,,,,,,,,,METAR,254.0
KOSU 060853Z AUTO 08006KT 10SM CLR 09/04 A3021 RMK AO2 SLP228 T00940039 53003,KOSU,2023-05-06T08:53:00Z,40.08,-83.08,9.4,3.9,80,6,,10.0,30.209646,1022.8,,TRUE,TRUE,,,,,,,CLR,,,,,,,,VFR,0.3,,,,,,,,,,,METAR,276.0
KOSH 060853Z AUTO 13006KT 10SM FEW055 BKN075 OVC095 14/08 A3006 RMK AO2 RAB17E48 SLP175 P0001 60004 T01390083 51005,KOSH,2023-05-06T08:53:00Z,43.98,-88.55,13.9,8.3,130,6,,10.0,30.059055,1017.5,,TRUE,TRUE,,,,,,,FEW,5500,BKN,7500,OVC,9500,,,VFR,0.5,,,,,0.01,0.04,,,,,METAR,239.0
KORL 060853Z AUTO 00000KT 10SM SCT060 22/17 A3009 RMK AO2 SLP191 T02220172 55005,KORL,2023-05-06T08:53:00Z,28.55,-81.33,22.2,17.2,0,0,,10.0,30.088583,1019.1,,TRUE,TRUE,,,,,,,SCT,6000,,,,,,,VFR,-0.5,,,,,,,,,,,METAR,32.0
KOQT 060853Z AUTO 00000KT 10SM OVC090 15/11 A3019 RMK AO2 SLP215 T01500106 53003,KOQT,2023-05-06T08:53:00Z,36.02,-84.23,15.0,10.6,0,0,,10.0,30.188976,1021.5,,TRUE,TRUE,,,,,,,OVC,9000,,,,,,,VFR,0.3,,,,,,,,,,,METAR,276.0
KOPF 060853Z AUTO 01004KT 10SM CLR 23/18 A3005 RMK AO2 SLP175 T02280183 55004,KOPF,2023-05-06T08:53:00Z,25.92,-80.28,22.8,18.3,10,4,,10.0,30.050198,1017.5,,TRUE,TRUE,,,,,,,CLR,,,,,,,,VFR,-0.4,,,,,,,,,,,METAR,1.0
KONT 060853Z 28003KT 10SM FEW050 FEW230 11/07 A3007 RMK AO2 SLP181 T01060072 58002,KONT,2023-05-06T08:53:00Z,34.05,-117.58,10.6,7.2,280,3,,10.0,30.070866,1018.1,,,TRUE,,,,,,,FEW,5000,FEW,23000,,,,,VFR,-0.2,,,,,,,,,,,METAR,279.0
KONO 060853Z AUTO 28010KT 7SM -RA BKN017 OVC028 09/06 A2993 RMK AO2 RAB43 SLP135 P0001 60001 T00940061 53007,KONO,2023-05-06T08:53:00Z,44.02,-117.02,9.4,6.1,280,10,,7.0,29.929134,1013.5,,TRUE,TRUE,,,,,,-RA,BKN,1700,OVC,2800,,,,,MVFR,0.7,,,,,0.01,0.01,,,,,METAR,668.0
KOMK 060853Z AUTO 18007KT 8SM OVC023 11/09 A2984 RMK AO2 RAB0756E06 SLP105 P0001 60004 T01110094 53004,KOMK,2023-05-06T08:53:00Z,48.47,-119.52,11.1,9.4,180,7,,8.0,29.840551,1010.5,,TRUE,TRUE,,,,,,,OVC,2300,,,,,,,MVFR,0.4,,,,,0.01,0.04,,,,,METAR,395.0
KOLF 060853Z AUTO 07013KT 10SM -RA OVC065 11/03 A2990 RMK AO2 RAB34 SLP122 P0000 60000 T01060033 53002,KOLF,2023-05-06T08:53:00Z,48.1,-105.58,10.6,3.3,70,13,,10.0,29.899607,1012.2,,TRUE,TRUE,,,,,,-RA,OVC,6500,,,,,,,VFR,0.2,,,,,0.005,0.005,,,,,METAR,605.0
KOJC 060853Z AUTO 16009KT 10SM OVC008 17/16 A2984 RMK AO2 SLP094 T01720156 58007,KOJC,2023-05-06T08:53:00Z,38.85,-94.73,17.2,15.6,160,9,,10.0,29.840551,1009.4,,TRUE,TRUE,,,,,,,OVC,800,,,,,,,IFR,-0.7,,,,,,,,,,,METAR,328.0
KOGD 060853Z AUTO 19005KT 10SM -RA OVC038 09/04 A2996 RMK AO2 RAB39 SLP116 P0000 60000 T00890039 52004,KOGD,2023-05-06T08:53:00Z,41.2,-112.02,8.9,3.9,190,5,,10.0,29.958662,1011.6,,TRUE,TRUE,,,,,,-RA,OVC,3800,,,,,,,VFR,0.4,,,,,0.005,0.005,,,,,METAR,1356.0
KOGB 060853Z AUTO 00000KT 10SM OVC110 16/13 A3021 RMK AO2 SLP227 T01560128 53001,KOGB,2023-05-06T08:53:00Z,33.47,-80.85,15.6,12.8,0,0,,10.0,30.209646,1022.7,,TRUE,TRUE,,,,,,,OVC,11000,,,,,,,VFR,0.1,,,,,,,,,,,METAR,59.0
KODX 060853Z AUTO VRB05KT 10SM -RA FEW040 SCT085 BKN110 14/12 A2968 RMK AO2 LTG DSNT S AND SW RAE14B50 PRESFR SLP045 P0001 60043 T01440122 55056,KODX,2023-05-06T08:53:00Z,41.62,-98.95,14.4,12.2,0,5,,10.0,29.681103,1004.5,,TRUE,TRUE,,,,,,-RA,FEW,4000,SCT,8500,BKN,11000,,,VFR,-5.6,,,,,0.01,0.43,,,,,METAR,628.0
KODO 060853Z AUTO 33007KT 10SM CLR 19/M04 A2990 RMK AO2 SLP075 T01941039 50002,KODO,2023-05-06T08:53:00Z,31.92,-102.4,19.4,-3.9,330,7,,10.0,29.899607,1007.5,,TRUE,TRUE,,,,,,,CLR,,,,,,,,VFR,0.2,,,,,,,,,,,METAR,912.0
KOAK 060853Z 18007KT 10SM FEW020 BKN025 OVC045 12/09 A3008 RMK AO2 SLP186 60000 T01220094 56006 $,KOAK,2023-05-06T08:53:00Z,37.72,-122.23,12.2,9.4,180,7,,10.0,30.079725,1018.6,,,TRUE,TRUE,,,,,,FEW,2000,BKN,2500,OVC,4500,,,MVFR,-0.6,,,,,,0.005,,,,,METAR,3.0
KNUW 060853Z 21006KT 10SM FEW018 BKN025 OVC050 09/08 A2996 RMK AO2 SLP150 T00940078 51001 VISNO,KNUW,2023-05-06T08:53:00Z,48.35,-122.65,9.4,7.8,210,6,,10.0,29.958662,1015.0,,,TRUE,,,,,,,FEW,1800,BKN,2500,OVC,5000,,,MVFR,0.1,,,,,,,,,,,METAR,14.0
KNUI 060853Z AUTO 00000KT 10SM FEW110 09/08 A3026 RMK AO2 SLP245 T00890083 53005,KNUI,2023-05-06T08:53:00Z,38.15,-76.43,8.9,8.3,0,0,,10.0,30.259842,1024.5,,TRUE,TRUE,,,,,,,FEW,11000,,,,,,,VFR,0.5,,,,,,,,,,,METAR,4.0
KNSI 060853Z AUTO 31006KT 10SM CLR 10/09 A3008 RMK AO2 SLP183 T01000094 57006 $,KNSI,2023-05-06T08:53:00Z,33.23,-119.45,10.0,9.4,310,6,,10.0,30.079725,1018.3,,TRUE,TRUE,TRUE,,,,,,CLR,,,,,,,,VFR,-0.6,,,,,,,,,,,METAR,161.0
KNRS 060853Z AUTO 13003KT 10SM CLR 11/09 A3008 RMK AO2 SLP185 T01110089 58009,KNRS,2023-05-06T08:53:00Z,32.57,-117.12,11.1,8.9,130,3,,10.0,30.079725,1018.5,,TRUE,TRUE,,,,,,,CLR,,,,,,,,VFR,-0.9,,,,,,,,,,,METAR,15.0
KNQX 060853Z AUTO 07004KT 10SM CLR A3003 RMK AO2 SLP169 56003 $,KNQX,2023-05-06T08:53:00Z,24.57,-81.67,,,70,4,,10.0,30.029528,1016.9,,TRUE,TRUE,TRUE,,,,,,CLR,,,,,,,,VFR,-0.3,,,,,,,,,,,METAR,2.0
KNIP 060853Z AUTO 04006KT 10SM OVC080 23/18 A3011 RMK AO2 SLP193 T02280183 56002,KNIP,2023-05-06T08:53:00Z,30.23,-81.67,22.8,18.3,40,6,,10.0,30.109253,1019.3,,TRUE,TRUE,,,,,,,OVC,8000,,,,,,,VFR,-0.2,,,,,,,,,,,METAR,3.0
KNEW 060853Z AUTO 16005KT 10SM FEW011 24/23 A3000 RMK AO2 SLP153 T02440228 56007,KNEW,2023-05-06T08:53:00Z,30.05,-90.03,24.4,22.8,160,5,,10.0,30.0,1015.3,,TRUE,TRUE,,,,,,,FEW,1100,,,,,,,VFR,-0.7,,,,,,,,,,,METAR,1.0
KMYV 060853Z AUTO 14008KT 10SM -RA OVC060 11/10 A3007 RMK AO2 SLP186 P0001 60009 T01110100 58002,KMYV,2023-05-06T08:53:00Z,39.1,-121.57,11.1,10.0,140,8,,10.0,30.070866,1018.6,,TRUE,TRUE,,,,,,-RA,OVC,6000,,,,,,,VFR,-0.2,,,,,0.01,0.09,,,,,METAR,18.0
KMYF 060853Z AUTO 00000KT 10SM CLR 11/09 A3007 RMK AO2 SLP181 T01060089 58011,KMYF,2023-05-06T08:53:00Z,32.82,-117.13,10.6,8.9,0,0,,10.0,30.070866,1018.1,,TRUE,TRUE,,,,,,,CLR,,,,,,,,VFR,-1.1,,,,,,,,,,,METAR,128.0
KMWN 060853Z 31040G46KT 80SM FEW003 SCT020 SCT200 M02/M03 RMK,KMWN,2023-05-06T08:53:00Z,44.27,-71.3,-2.0,-3.0,310,40,46,80.0,,,,,,,,,,,,FEW,300,SCT,2000,SCT,20000,,,VFR,,,,,,,,,,,,METAR,1911.0
KMWL 060853Z AUTO 16003KT 10SM CLR 20/12 A2983 RMK AO2 SLP085 T02000117 53001,KMWL,2023-05-06T08:53:00Z,32.78,-98.07,20.0,11.7,160,3,,10.0,29.828741,1008.5,,TRUE,TRUE,,,,,,,CLR,,,,,,,,VFR,0.1,,,,,,,,,,,METAR,288.0
KMVY 060853Z AUTO 29006KT 10SM CLR 09/07 A3015 RMK AO2 SLP210 T00940072 56007,KMVY,2023-05-06T08:53:00Z,41.4,-70.62,9.4,7.2,290,6,,10.0,30.15059,1021.0,,TRUE,TRUE,,,,,,,CLR,,,,,,,,VFR,-0.7,,,,,,,,,,,METAR,18.0
KMTO 060853Z AUTO 14007KT 10SM OVC035 14/10 A3006 RMK AO2 SLP177 T01440100 53003,KMTO,2023-05-06T08:53:00Z,39.47,-88.27,14.4,10.0,140,7,,10.0,30.059055,1017.7,,TRUE,TRUE,,,,,,,OVC,3500,,,,,,,VFR,0.3,,,,,,,,,,,METAR,216.0
KMTJ 060853Z AUTO 25009KT 10SM SCT070 OVC090 10/M01 A3004 RMK AO2 SLP119 T01001006 52014,KMTJ,2023-05-06T08:53:00Z,38.5,-107.9,10.0,-0.6,250,9,,10.0,30.041338,1011.9,,TRUE,TRUE,,,,,,,SCT,7000,OVC,9000,,,,,VFR,1.4,,,,,,,,,,,METAR,1755.0
KMTH 060853Z AUTO 07003KT 10SM CLR 26/19 A3002 RMK AO2 SLP164 T02560189 55006,KMTH,2023-05-06T08:53:00Z,24.73,-81.05,25.6,18.9,70,3,,10.0,30.02067,1016.4,,TRUE,TRUE,,,,,,,CLR,,,,,,,,VFR,-0.6,,,,,,,,,,,METAR,1.0
KMSY 060853Z 14003KT 9SM BKN010 BKN019 OVC026 24/24 A2999 RMK AO2 CIG 008V015 SLP160 T02440239 56006,KMSY,2023-05-06T08:53:00Z,30.0,-90.25,24.4,23.9,140,3,,9.0,29.991142,1016.0,,,TRUE,,,,,,,BKN,1000,BKN,1900,OVC,2600,,,MVFR,-0.6,,,,,,,,,,,METAR,0.0
KMSS 060853Z AUTO 23003KT 10SM CLR 06/04 A3028 RMK AO2 SLP254 T00560039 53004,KMSS,2023-05-06T08:53:00Z,44.93,-74.85,5.6,3.9,230,3,,10.0,30.280512,1025.4,,TRUE,TRUE,,,,,,,CLR,,,,,,,,VFR,0.4,,,,,,,,,,,METAR,60.0
KMSP 060853Z 10007KT 9SM SCT008 BKN026 OVC036 13/12 A2994 RMK AO2 SLP140 60001 T01330117 51006,KMSP,2023-05-06T08:53:00Z,44.88,-93.23,13.3,11.7,100,7,,9.0,29.940945,1014.0,,,TRUE,,,,,,,SCT,800,BKN,2600,OVC,3600,,,MVFR,0.6,,,,,,0.01,,,,,METAR,255.0
KMSO 060853Z AUTO 23003KT 8SM -RA OVC046 09/08 A2983 RMK AO2 SLP095 P0005 60006 T00890078 51002,KMSO,2023-05-06T08:53:00Z,46.92,-114.1,8.9,7.8,230,3,,8.0,29.828741,1009.5,,TRUE,TRUE,,,,,,-RA,OVC,4600,,,,,,,VFR,0.2,,,,,0.05,0.06,,,,,METAR,974.0
KMSN 060853Z AUTO 16009KT 10SM -RA OVC080 14/11 A3004 RMK AO2 RAB0759 SLP169 P0002 60002 T01440111 51007,KMSN,2023-05-06T08:53:00Z,43.13,-89.35,14.4,11.1,160,9,,10.0,30.041338,1016.9,,TRUE,TRUE,,,,,,-RA,OVC,8000,,,,,,,VFR,0.7,,,,,0.02,0.02,,,,,METAR,262.0
KMSL 060853Z AUTO 13004KT 10SM BKN046 15/13 A3010 RMK AO2 SLP190 T01500128 56004,KMSL,2023-05-06T08:53:00Z,34.75,-87.6,15.0,12.8,130,4,,10.0,30.100393,1019.0,,TRUE,TRUE,,,,,,,BKN,4600,,,,,,,VFR,-0.4,,,,,,,,,,,METAR,170.0
KMRB 060853Z AUTO 00000KT 10SM CLR 03/03 A3028 RMK AO2 SLP255 T00330033 53008,KMRB,2023-05-06T08:53:00Z,39.4,-77.98,3.3,3.3,0,0,,10.0,30.280512,1025.5,,TRUE,TRUE,,,,,,,CLR,,,,,,,,VFR,0.8,,,,,,,,,,,METAR,165.0
KMPO 060853Z AUTO 33006KT 10SM CLR 05/03 A3025 RMK AO2 SLP252 T00500028 53004,KMPO,2023-05-06T08:53:00Z,41.13,-75.38,5.0,2.8,330,6,,10.0,30.250984,1025.2,,TRUE,TRUE,,,,,,,CLR,,,,,,,,VFR,0.4,,,,,,,,,,,METAR,576.0
KMOD 060853Z AUTO 02004KT 10SM OVC100 11/10 A3008 RMK AO2 SLP184 60001 T01110100 58003,KMOD,2023-05-06T08:53:00Z,37.62,-120.95,11.1,10.0,20,4,,10.0,30.079725,1018.4,,TRUE,TRUE,,,,,,,OVC,10000,,,,,,,VFR,-0.3,,,,,,0.01,,,,,METAR,25.0
KMNN 060853Z AUTO 12007KT 10SM CLR 10/04 A3022 RMK AO2 SLP232 T01000039 55000,KMNN,2023-05-06T08:53:00Z,40.62,-83.07,10.0,3.9,120,7,,10.0,30.221457,1023.2,,TRUE,TRUE,,,,,,,CLR,,,,,,,,VFR,0.0,,,,,,,,,,,METAR,301.0
KMMV 060853Z AUTO 10SM BKN034 BKN070 10/09 A2997 RMK AO2 SLP148 T01000089 58001 $,KMMV,2023-05-06T08:53:00Z,45.2,-123.13,10.0,8.9,,,,10.0,29.970472,1014.8,,TRUE,TRUE,TRUE,,,,,,BKN,3400,BKN,7000,,,,,VFR,-0.1,,,,,,,,,,,METAR,48.0
KMLT 060853Z AUTO 26005KT 10SM CLR 07/03 A3005 RMK AO2 SLP181 T00720033 56009,KMLT,2023-05-06T08:53:00Z,45.65,-68.7,7.2,3.3,260,5,,10.0,30.050198,1018.1,,TRUE,TRUE,,,,,,,CLR,,,,,,,,VFR,-0.9,,,,,,,,,,,METAR,121.0
KMLS 060853Z AUTO 03012KT 10SM OVC070 11/07 A2979 RMK AO2 RAB13E23 SLP082 P0000 60000 T01060072 56003,KMLS,2023-05-06T08:53:00Z,46.43,-105.88,10.6,7.2,30,12,,10.0,29.790354,1008.2,,TRUE,TRUE,,,,,,,OVC,7000,,,,,,,VFR,-0.3,,,,,0.005,0.005,,,,,METAR,800.0
KMLP 060853Z AUTO 00000KT 1/2SM FG VV001 01/01 A2983 RMK AO2 SLP058 60000 T00110006 58005,KMLP,2023-05-06T08:53:00Z,47.45,-115.67,1.1,0.6,0,0,,0.5,29.828741,1005.8,,TRUE,TRUE,,,,,,FG,OVX,0,,,,,,,LIFR,-0.5,,,,,,0.005,,,,100,METAR,1837.0
KMLC 060853Z AUTO VRB03KT 10SM CLR 23/21 A2983 RMK AO2 SLP091 T02280211 57002,KMLC,2023-05-06T08:53:00Z,34.88,-95.78,22.8,21.1,0,3,,10.0,29.828741,1009.1,,TRUE,TRUE,,,,,,,CLR,,,,,,,,VFR,-0.2,,,,,,,,,,,METAR,231.0
KMLB 060853Z 00000KT 10SM CLR 22/18 A3006 RMK AO2 SLP178 T02220178 58003,KMLB,2023-05-06T08:53:00Z,28.1,-80.65,22.2,17.8,0,0,,10.0,30.059055,1017.8,,,TRUE,,,,,,,CLR,,,,,,,,VFR,-0.3,,,,,,,,,,,METAR,7.0
KMKO 060853Z AUTO 17005KT 5SM BR CLR 19/18 A2986 RMK AO2 SLP106 T01890183 55001,KMKO,2023-05-06T08:53:00Z,35.65,-95.37,18.9,18.3,170,5,,5.0,29.861221,1010.6,,TRUE,TRUE,,,,,,BR,CLR,,,,,,,,MVFR,-0.1,,,,,,,,,,,METAR,184.0
KMIW 060853Z AUTO 12011KT 10SM FEW028 FEW042 14/12 A2989 RMK AO2 SLP117 T01390117 50001,KMIW,2023-05-06T08:53:00Z,42.12,-92.92,13.9,11.7,120,11,,10.0,29.890747,1011.7,,TRUE,TRUE,,,,,,,FEW,2800,FEW,4200,,,,,VFR,0.1,,,,,,,,,,,METAR,296.0
KMIE 060853Z AUTO 15007KT 10SM CLR 15/04 A3016 RMK AO2 SLP206 T01500044 53007,KMIE,2023-05-06T08:53:00Z,40.23,-85.4,15.0,4.4,150,7,,10.0,30.159449,1020.6,,TRUE,TRUE,,,,,,,CLR,,,,,,,,VFR,0.7,,,,,,,,,,,METAR,286.0
KMIC 060853Z AUTO 09007KT 10SM OVC012 14/11 A2993 RMK AO2 SLP135 T01390111 53001,KMIC,2023-05-06T08:53:00Z,45.07,-93.35,13.9,11.1,90,7,,10.0,29.929134,1013.5,,TRUE,TRUE,,,,,,,OVC,1200,,,,,,,MVFR,0.1,,,,,,,,,,,METAR,263.0
KMIA 060853Z 02003KT 10SM CLR 25/19 A3004 RMK AO2 SLP174 T02500194 55003,KMIA,2023-05-06T08:53:00Z,25.8,-80.32,25.0,19.4,20,3,,10.0,30.041338,1017.4,,,TRUE,,,,,,,CLR,,,,,,,,VFR,-0.3,,,,,,,,,,,METAR,1.0
KMHT 060853Z 36004KT 10SM FEW250 09/04 A3016 RMK AO2 SLP228 T00890039 53001,KMHT,2023-05-06T08:53:00Z,42.93,-71.43,8.9,3.9,360,4,,10.0,30.159449,1022.8,,,TRUE,,,,,,,FEW,25000,,,,,,,VFR,0.1,,,,,,,,,,,METAR,68.0
KMHE 060853Z AUTO 14010KT 6SM BR BKN038 OVC050 15/13 A2980 RMK AO2 SLP084 T01500128 50001,KMHE,2023-05-06T08:53:00Z,43.77,-98.03,15.0,12.8,140,10,,6.0,29.799213,1008.4,,TRUE,TRUE,,,,,,BR,BKN,3800,OVC,5000,,,,,VFR,0.1,,,,,,,,,,,METAR,397.0
KMGY 060853Z AUTO 12005KT 10SM CLR 12/04 A3018 RMK AO2 SLP218 T01220039 53009,KMGY,2023-05-06T08:53:00Z,39.6,-84.23,12.2,3.9,120,5,,10.0,30.180119,1021.8,,TRUE,TRUE,,,,,,,CLR,,,,,,,,VFR,0.9,,,,,,,,,,,METAR,290.0
KMGW 060853Z AUTO 00000KT 10SM CLR 10/04 A3025 RMK AO2 SLP241 T01000039 53001,KMGW,2023-05-06T08:53:00Z,39.65,-79.92,10.0,3.9,0,0,,10.0,30.250984,1024.1,,TRUE,TRUE,,,,,,,CLR,,,,,,,,VFR,0.1,,,,,,,,,,,METAR,375.0
KMGM 060853Z AUTO 09005KT 10SM FEW070 15/13 A3012 RMK AO2 SLP198 T01500128 55003,KMGM,2023-05-06T08:53:00Z,32.3,-86.4,15.0,12.8,90,5,,10.0,30.121063,1019.8,,TRUE,TRUE,,,,,,,FEW,7000,,,,,,,VFR,-0.3,,,,,,,,,,,METAR,64.0
KMFR 060853Z AUTO 29003KT 10SM -RA SCT037 BKN060 OVC080 09/07 A2998 RMK AO2 SLP150 P0001 60003 T00890072 58003,KMFR,2023-05-06T08:53:00Z,42.38,-122.87,8.9,7.2,290,3,,10.0,29.97933,1015.0,,TRUE,TRUE,,,,,,-RA,SCT,3700,BKN,6000,OVC,8000,,,VFR,-0.3,,,,,0.01,0.03,,,,,METAR,397.0
KMFE 060853Z AUTO 15008KT 4SM BR OVC008 26/24 A2984 RMK AO2 SLP102 T02560244 58009,KMFE,2023-05-06T08:53:00Z,26.18,-98.25,25.6,24.4,150,8,,4.0,29.840551,1010.2,,TRUE,TRUE,,,,,,BR,OVC,800,,,,,,,IFR,-0.9,,,,,,,,,,,METAR,29.0
KMDW 060853Z 14010KT 10SM FEW090 BKN100 OVC150 17/06 A3009 RMK AO2 SLP181 T01720061 51008 $,KMDW,2023-05-06T08:53:00Z,41.78,-87.75,17.2,6.1,140,10,,10.0,30.088583,1018.1,,,TRUE,TRUE,,,,,,FEW,9000,BKN,10000,OVC,15000,,,VFR,0.8,,,,,,,,,,,METAR,186.0
KMCW 060853Z AUTO 12009KT 10SM OVC006 13/13 A2991 RMK AO2 RAB12E23 SLP118 P0000 60000 T01330128 58005,KMCW,2023-05-06T08:53:00Z,43.15,-93.33,13.3,12.8,120,9,,10.0,29.911417,1011.8,,TRUE,TRUE,,,,,,,OVC,600,,,,,,,IFR,-0.5,,,,,0.005,0.005,,,,,METAR,363.0
KMCO 060853Z 00000KT 10SM BKN055 BKN250 21/17 A3009 RMK AO2 SLP189 T02110172 55001,KMCO,2023-05-06T08:53:00Z,28.42,-81.33,21.1,17.2,0,0,,10.0,30.088583,1018.9,,,TRUE,,,,,,,BKN,5500,BKN,25000,,,,,VFR,-0.1,,,,,,,,,,,METAR,27.0
KMCN 060853Z AUTO 00000KT 10SM OVC060 16/15 A3018 RMK AO2 SLP216 T01610150 52005,KMCN,2023-05-06T08:53:00Z,32.68,-83.65,16.1,15.0,0,0,,10.0,30.180119,1021.6,,TRUE,TRUE,,,,,,,OVC,6000,,,,,,,VFR,0.5,,,,,,,,,,,METAR,104.0
KMCI 060853Z 16011KT 10SM OVC010 17/16 A2983 RMK AO2 SLP092 T01720156 58002 $,KMCI,2023-05-06T08:53:00Z,39.3,-94.73,17.2,15.6,160,11,,10.0,29.828741,1009.2,,,TRUE,TRUE,,,,,,OVC,1000,,,,,,,MVFR,-0.2,,,,,,,,,,,METAR,308.0
KMCE 060853Z AUTO 01006KT 10SM BKN065 OVC095 12/09 A3007 RMK AO2 SLP184 T01170094 58001,KMCE,2023-05-06T08:53:00Z,37.28,-120.5,11.7,9.4,10,6,,10.0,30.070866,1018.4,,TRUE,TRUE,,,,,,,BKN,6500,OVC,9500,,,,,VFR,-0.1,,,,,,,,,,,METAR,49.0
KMBS 060853Z AUTO 14007KT 10SM CLR 10/04 A3024 RMK AO2 SLP243 T01000044 51008,KMBS,2023-05-06T08:53:00Z,43.53,-84.08,10.0,4.4,140,7,,10.0,30.239174,1024.3,,TRUE,TRUE,,,,,,,CLR,,,,,,,,VFR,0.8,,,,,,,,,,,METAR,201.0
KMAI 060853Z AUTO 06003KT 10SM CLR 16/13 A3009 RMK AO2 SLP189 T01610133 53001,KMAI,2023-05-06T08:53:00Z,30.83,-85.18,16.1,13.3,60,3,,10.0,30.088583,1018.9,,TRUE,TRUE,,,,,,,CLR,,,,,,,,VFR,0.1,,,,,,,,,,,METAR,33.0
KMAF 060853Z AUTO 00000KT 9SM CLR 17/M04 A2989 RMK AO2 SLP075 T01721044 50003,KMAF,2023-05-06T08:53:00Z,31.95,-102.2,17.2,-4.4,0,0,,9.0,29.890747,1007.5,,TRUE,TRUE,,,,,,,CLR,,,,,,,,VFR,0.3,,,,,,,,,,,METAR,874.0
KLXT 060853Z AUTO 15009KT 10SM OVC009 17/15 A2985 RMK AO2 SLP102 T01670150 58006,KLXT,2023-05-06T08:53:00Z,38.97,-94.37,16.7,15.0,150,9,,10.0,29.84941,1010.2,,TRUE,TRUE,,,,,,,OVC,900,,,,,,,IFR,-0.6,,,,,,,,,,,METAR,306.0
KLWV 060853Z AUTO 14009KT 10SM FEW050 OVC070 16/12 A3010 RMK AO2 SLP190 T01560117 53003 $,KLWV,2023-05-06T08:53:00Z,38.77,-87.6,15.6,11.7,140,9,,10.0,30.100393,1019.0,,TRUE,TRUE,TRUE,,,,,,FEW,5000,OVC,7000,,,,,VFR,0.3,,,,,,,,,,,METAR,128.0
KLWD 060853Z AUTO 16009G18KT 10SM OVC011 16/13 A2986 RMK AO2 SLP108 T01610128 50003,KLWD,2023-05-06T08:53:00Z,40.63,-93.9,16.1,12.8,160,9,18,10.0,29.861221,1010.8,,TRUE,TRUE,,,,,,,OVC,1100,,,,,,,MVFR,0.3,,,,,,,,,,,METAR,345.0
KLVS 060853Z AUTO 25014KT 10SM CLR 11/M11 A3002 RMK AO2 PK WND 24027/0818 SLP066 T01111106 51002 $,KLVS,2023-05-06T08:53:00Z,35.65,-105.13,11.1,-10.6,250,14,,10.0,30.02067,1006.6,,TRUE,TRUE,TRUE,,,,,,CLR,,,,,,,,VFR,0.2,,,,,,,,,,,METAR,2095.0
KLVM 060853Z AUTO 12004KT 10SM FEW090 04/02 A2980 RMK AO2 SLP081 T00440022 58003,KLVM,2023-05-06T08:53:00Z,45.7,-110.43,4.4,2.2,120,4,,10.0,29.799213,1008.1,,TRUE,TRUE,,,,,,,FEW,9000,,,,,,,VFR,-0.3,,,,,,,,,,,METAR,1418.0
KLVK 060853Z AUTO 22004KT 10SM BKN055 OVC075 11/09 A3007 RMK AO2 SLP179 60001 T01110089 58006,KLVK,2023-05-06T08:53:00Z,37.7,-121.82,11.1,8.9,220,4,,10.0,30.070866,1017.9,,TRUE,TRUE,,,,,,,BKN,5500,OVC,7500,,,,,VFR,-0.6,,,,,,0.01,,,,,METAR,120.0
KLVJ 060853Z AUTO 07005KT 10SM FEW055 24/18 A2997 RMK AO2 RAB03E22 SLP147 P0000 60000 T02390178 50005,KLVJ,2023-05-06T08:53:00Z,29.52,-95.25,23.9,17.8,70,5,,10.0,29.970472,1014.7,,TRUE,TRUE,,,,,,,FEW,5500,,,,,,,VFR,0.5,,,,,0.005,0.005,,,,,METAR,11.0
KLUK 060853Z AUTO 00000KT 10SM CLR 07/07 A3019 RMK AO2 SLP223 T00720067 53010,KLUK,2023-05-06T08:53:00Z,39.1,-84.42,7.2,6.7,0,0,,10.0,30.188976,1022.3,,TRUE,TRUE,,,,,,,CLR,,,,,,,,VFR,1.0,,,,,,,,,,,METAR,144.0
KLSE 060853Z AUTO 14006KT 10SM OVC045 15/13 A2996 RMK AO2 SLP140 60007 T01500128 58001,KLSE,2023-05-06T08:53:00Z,43.88,-91.25,15.0,12.8,140,6,,10.0,29.958662,1014.0,,TRUE,TRUE,,,,,,,OVC,4500,,,,,,,VFR,-0.1,,,,,,0.07,,,,,METAR,198.0
KLPR 060853Z AUTO 00000KT 10SM CLR 07/03 A3026 RMK AO2 SLP247 T00720033 53002,KLPR,2023-05-06T08:53:00Z,41.35,-82.18,7.2,3.3,0,0,,10.0,30.259842,1024.7,,TRUE,TRUE,,,,,,,CLR,,,,,,,,VFR,0.2,,,,,,,,,,,METAR,241.0
KLOZ 060853Z AUTO 00000KT 10SM CLR 09/09 A3019 RMK AO2 SLP216 T00940089 53005,KLOZ,2023-05-06T08:53:00Z,37.08,-84.07,9.4,8.9,0,0,,10.0,30.188976,1021.6,,TRUE,TRUE,,,,,,,CLR,,,,,,,,VFR,0.5,,,,,,,,,,,METAR,361.0
KLOU 060853Z AUTO 12004KT 10SM SCT100 15/08 A3014 RMK AO2 SLP203 T01500083 53004 $,KLOU,2023-05-06T08:53:00Z,38.22,-85.67,15.0,8.3,120,4,,10.0,30.138779,1020.3,,TRUE,TRUE,TRUE,,,,,,SCT,10000,,,,,,,VFR,0.4,,,,,,,,,,,METAR,165.0
KLOL 060853Z AUTO 26004KT 10SM BKN060 BKN070 OVC120 04/03 A2996 RMK AO2 SLP144 T00390028 56001,KLOL,2023-05-06T08:53:00Z,40.07,-118.57,3.9,2.8,260,4,,10.0,29.958662,1014.4,,TRUE,TRUE,,,,,,,BKN,6000,BKN,7000,OVC,12000,,,VFR,-0.1,,,,,,,,,,,METAR,1191.0
KLNS 060853Z AUTO 00000KT 6SM BR CLR 06/06 A3027 RMK AO2 SLP251 T00610056 50002,KLNS,2023-05-06T08:53:00Z,40.12,-76.3,6.1,5.6,0,0,,6.0,30.268702,1025.1,,TRUE,TRUE,,,,,,BR,CLR,,,,,,,,VFR,0.2,,,,,,,,,,,METAR,122.0
KLND 060853Z AUTO 00000KT 10SM BKN120 08/M04 A2985 RMK AO2 SLP066 T00831039 58001,KLND,2023-05-06T08:53:00Z,42.82,-108.73,8.3,-3.9,0,0,,10.0,29.84941,1006.6,,TRUE,TRUE,,,,,,,BKN,12000,,,,,,,VFR,-0.1,,,,,,,,,,,METAR,1700.0
KLLQ 060853Z AUTO 11004KT 10SM OVC013 21/19 A2998 RMK AO2 SLP149 T02060194 53003,KLLQ,2023-05-06T08:53:00Z,33.63,-91.75,20.6,19.4,110,4,,10.0,29.97933,1014.9,,TRUE,TRUE,,,,,,,OVC,1300,,,,,,,MVFR,0.3,,,,,,,,,,,METAR,86.0
KLHX 060853Z AUTO 00000KT 10SM CLR 12/M01 A2986 RMK AO2 SLP061 T01221006 51015,KLHX,2023-05-06T08:53:00Z,38.05,-103.52,12.2,-0.6,0,0,,10.0,29.861221,1006.1,,TRUE,TRUE,,,,,,,CLR,,,,,,,,VFR,1.5,,,,,,,,,,,METAR,1289.0
KLHQ 060853Z AUTO 00000KT 10SM CLR 05/04 A3022 RMK AO2 SLP232 T00500044 53003,KLHQ,2023-05-06T08:53:00Z,39.75,-82.67,5.0,4.4,0,0,,10.0,30.221457,1023.2,,TRUE,TRUE,,,,,,,CLR,,,,,,,,VFR,0.3,,,,,,,,,,,METAR,259.0
KLGB 060853Z AUTO 00000KT 10SM CLR 13/09 A3008 RMK AO2 SLP184 T01330094 58005,KLGB,2023-05-06T08:53:00Z,33.82,-118.15,13.3,9.4,0,0,,10.0,30.079725,1018.4,,TRUE,TRUE,,,,,,,CLR,,,,,,,,VFR,-0.5,,,,,,,,,,,METAR,10.0
KLFK 060853Z AUTO 04006KT 10SM FEW110 21/18 A2988 RMK AO2 RAE45 SLP115 P0004 60029 T02060183 58023,KLFK,2023-05-06T08:53:00Z,31.23,-94.75,20.6,18.3,40,6,,10.0,29.878937,1011.5,,TRUE,TRUE,,,,,,,FEW,11000,,,,,,,VFR,-2.3,,,,,0.04,0.29,,,,,METAR,87.0
KLEE 060853Z AUTO 06004KT 10SM OVC049 21/17 A3009 RMK AO2 SLP189 T02060167 56009,KLEE,2023-05-06T08:53:00Z,28.82,-81.82,20.6,16.7,60,4,,10.0,30.088583,1018.9,,TRUE,TRUE,,,,,,,OVC,4900,,,,,,,VFR,-0.9,,,,,,,,,,,METAR,21.0
KLEB 060853Z AUTO 00000KT 10SM CLR 02/01 A3022 RMK AO2 SLP234 T00170006 53002,KLEB,2023-05-06T08:53:00Z,43.63,-72.3,1.7,0.6,0,0,,10.0,30.221457,1023.4,,TRUE,TRUE,,,,,,,CLR,,,,,,,,VFR,0.2,,,,,,,,,,,METAR,169.0
KLBX 060853Z AUTO 02003KT 6SM BR OVC015 24/23 A2996 RMK AO2 SLP145 T02440233 51001,KLBX,2023-05-06T08:53:00Z,29.12,-95.47,24.4,23.3,20,3,,6.0,29.958662,1014.5,,TRUE,TRUE,,,,,,BR,OVC,1500,,,,,,,MVFR,0.1,,,,,,,,,,,METAR,4.0
KLBF 060853Z AUTO 34006KT 10SM CLR 12/11 A2978 RMK AO2 SLP064 60000 T01170106 51008 $,KLBF,2023-05-06T08:53:00Z,41.12,-100.67,11.7,10.6,340,6,,10.0,29.778543,1006.4,,TRUE,TRUE,TRUE,,,,,,CLR,,,,,,,,VFR,0.8,,,,,,0.005,,,,,METAR,843.0
KLBB 060853Z 25007KT 10SM CLR 17/M02 A2989 RMK AO2 SLP069 T01721017 50002,KLBB,2023-05-06T08:53:00Z,33.67,-101.82,17.2,-1.7,250,7,,10.0,29.890747,1006.9,,,TRUE,,,,,,,CLR,,,,,,,,VFR,0.2,,,,,,,,,,,METAR,996.0
KLAX 060853Z 26005KT 10SM FEW020 FEW050 13/09 A3008 RMK AO2 SLP183 T01330094 58003,KLAX,2023-05-06T08:53:00Z,33.93,-118.38,13.3,9.4,260,5,,10.0,30.079725,1018.3,,,TRUE,,,,,,,FEW,2000,FEW,5000,,,,,VFR,-0.3,,,,,,,,,,,METAR,30.0
KLAW 060853Z AUTO 06003KT 10SM CLR 17/13 A2981 RMK AO2 SLP081 T01670133 53001,KLAW,2023-05-06T08:53:00Z,34.55,-98.42,16.7,13.3,60,3,,10.0,29.811024,1008.1,,TRUE,TRUE,,,,,,,CLR,,,,,,,,VFR,0.1,,,,,,,,,,,METAR,328.0
KLAR 060853Z AUTO 01003KT 10SM FEW085 01/M05 A2994 RMK AO2 SLP095 T00111050 51002,KLAR,2023-05-06T08:53:00Z,41.32,-105.67,1.1,-5.0,10,3,,10.0,29.940945,1009.5,,TRUE,TRUE,,,,,,,FEW,8500,,,,,,,VFR,0.2,,,,,,,,,,,METAR,2217.0
KLAN 060853Z 15010KT 10SM CLR 10/03 A3023 RMK AO2 SLP238 T01000028 53004 $,KLAN,2023-05-06T08:53:00Z,42.78,-84.58,10.0,2.8,150,10,,10.0,30.230314,1023.8,,,TRUE,TRUE,,,,,,CLR,,,,,,,,VFR,0.4,,,,,,,,,,,METAR,261.0
KLAA 060853Z AUTO 25005KT 10SM CLR 08/03 A2983 RMK AO2 SLP063 T00780033 51010,KLAA,2023-05-06T08:53:00Z,38.07,-102.68,7.8,3.3,250,5,,10.0,29.828741,1006.3,,TRUE,TRUE,,,,,,,CLR,,,,,,,,VFR,1.0,,,,,,,,,,,METAR,1129.0
KJLN 060853Z AUTO 14009KT 8SM BKN019 BKN026 19/17 A2985 RMK AO2 SLP100 60000 T01940167 55007,KJLN,2023-05-06T08:53:00Z,37.15,-94.5,19.4,16.7,140,9,,8.0,29.84941,1010.0,,TRUE,TRUE,,,,,,,BKN,1900,BKN,2600,,,,,MVFR,-0.7,,,,,,0.005,,,,,METAR,297.0
KJKL 060853Z AUTO 00000KT 10SM CLR 13/04 A3019 RMK AO2 SLP215 T01330039 53007,KJKL,2023-05-06T08:53:00Z,37.6,-83.32,13.3,3.9,0,0,,10.0,30.188976,1021.5,,TRUE,TRUE,,,,,,,CLR,,,,,,,,VFR,0.7,,,,,,,,,,,METAR,414.0
KJER 060853Z AUTO 23008KT 10SM FEW075 SCT090 06/03 A2993 RMK AO2 SLP127 60000 T00610028 50000,KJER,2023-05-06T08:53:00Z,42.72,-114.45,6.1,2.8,230,8,,10.0,29.929134,1012.7,,TRUE,TRUE,,,,,,,FEW,7500,SCT,9000,,,,,VFR,0.0,,,,,,0.005,,,,,METAR,1226.0
KJEF 060853Z AUTO 15007KT 10SM OVC016 18/13 A2994 RMK AO2 SLP127 T01780133 55002 $,KJEF,2023-05-06T08:53:00Z,38.6,-92.15,17.8,13.3,150,7,,10.0,29.940945,1012.7,,TRUE,TRUE,TRUE,,,,,,OVC,1600,,,,,,,MVFR,-0.2,,,,,,,,,,,METAR,167.0
KJBR 060853Z AUTO 14004KT 10SM BKN016 OVC028 18/13 A3003 RMK AO2 SLP166 T01830133 53000 $,KJBR,2023-05-06T08:53:00Z,35.83,-90.65,18.3,13.3,140,4,,10.0,30.029528,1016.6,,TRUE,TRUE,TRUE,,,,,,BKN,1600,OVC,2800,,,,,MVFR,0.0,,,,,,,,,,,METAR,79.0
KIXD 060853Z AUTO 14010G19KT 10SM BKN009 OVC039 17/16 A2983 RMK AO2 CIG 008V012 SLP093 T01720156 58008,KIXD,2023-05-06T08:53:00Z,38.82,-94.88,17.2,15.6,140,10,19,10.0,29.828741,1009.3,,TRUE,TRUE,,,,,,,BKN,900,OVC,3900,,,,,IFR,-0.8,,,,,,,,,,,METAR,322.0
KIWI 060853Z AUTO 00000KT 10SM CLR 03/02 A3011 RMK AO2 SLP197 T00330017 58002,KIWI,2023-05-06T08:53:00Z,43.97,-69.72,3.3,1.7,0,0,,10.0,30.109253,1019.7,,TRUE,TRUE,,,,,,,CLR,,,,,,,,VFR,-0.2,,,,,,,,,,,METAR,16.0
KITR 060853Z AUTO 31007KT 10SM CLR 07/05 A2982 RMK AO2 SLP058 T00720050 51000,KITR,2023-05-06T08:53:00Z,39.23,-102.28,7.2,5.0,310,7,,10.0,29.819881,1005.8,,TRUE,TRUE,,,,,,,CLR,,,,,,,,VFR,0.0,,,,,,,,,,,METAR,1285.0
KIPL 060853Z AUTO 27009KT 10SM CLR 14/05 A2994 RMK AO2 SLP138 T01390050 58004,KIPL,2023-05-06T08:53:00Z,32.83,-115.58,13.9,5.0,270,9,,10.0,29.940945,1013.8,,TRUE,TRUE,,,,,,,CLR,,,,,,,,VFR,-0.4,,,,,,,,,,,METAR,-16.0
KINK 060853Z AUTO 35007KT 10SM CLR 14/M10 A2988 RMK AO2 SLP076 T01391100 50004 $,KINK,2023-05-06T08:53:00Z,31.78,-103.2,13.9,-10.0,350,7,,10.0,29.878937,1007.6,,TRUE,TRUE,TRUE,,,,,,CLR,,,,,,,,VFR,0.4,,,,,,,,,,,METAR,857.0
KIML 060853Z AUTO 31005KT 10SM CLR 10/09 A2981 RMK AO2 SLP075 T01000089 51014,KIML,2023-05-06T08:53:00Z,40.52,-101.62,10.0,8.9,310,5,,10.0,29.811024,1007.5,,TRUE,TRUE,,,,,,,CLR,,,,,,,,VFR,1.4,,,,,,,,,,,METAR,997.0
KILM 060853Z AUTO 05003KT 10SM CLR 12/11 A3022 RMK AO2 SLP233 T01220106 53004 $,KILM,2023-05-06T08:53:00Z,34.27,-77.9,12.2,10.6,50,3,,10.0,30.221457,1023.3,,TRUE,TRUE,TRUE,,,,,,CLR,,,,,,,,VFR,0.4,,,,,,,,,,,METAR,9.0
KIDA 060853Z AUTO 20009KT 10SM CLR 06/02 A2993 RMK AO2 SLP125 T00560017 51004,KIDA,2023-05-06T08:53:00Z,43.52,-112.07,5.6,1.7,200,9,,10.0,29.929134,1012.5,,TRUE,TRUE,,,,,,,CLR,,,,,,,,VFR,0.4,,,,,,,,,,,METAR,1444.0
KICR 060853Z AUTO 15003KT 10SM CLR 13/12 A2970 RMK AO2 SLP047 60003 T01330122 55031,KICR,2023-05-06T08:53:00Z,43.38,-99.85,13.3,12.2,150,3,,10.0,29.698818,1004.7,,TRUE,TRUE,,,,,,,CLR,,,,,,,,VFR,-3.1,,,,,,0.03,,,,,METAR,618.0
KIAH 060853Z 15007KT 10SM FEW030 SCT040 19/19 A2993 RMK AO2 RAE12 TSE30 SLP136 TS MOVD E P0002 60004 T01940189 58012,KIAH,2023-05-06T08:53:00Z,30.0,-95.37,19.4,18.9,150,7,,10.0,29.929134,1013.6,,,TRUE,,,,,,,FEW,3000,SCT,4000,,,,,VFR,-1.2,,,,,0.02,0.04,,,,,METAR,27.0
KIAG 060853Z AUTO 08003KT 10SM CLR 04/03 A3031 RMK AO2 SLP269 T00440028 53004,KIAG,2023-05-06T08:53:00Z,43.12,-78.93,4.4,2.8,80,3,,10.0,30.31004,1026.9,,TRUE,TRUE,,,,,,,CLR,,,,,,,,VFR,0.4,,,,,,,,,,,METAR,179.0
KHZY 060853Z AUTO 12005KT 10SM CLR 06/03 A3027 RMK AO2 SLP252 T00610028 55000,KHZY,2023-05-06T08:53:00Z,41.78,-80.7,6.1,2.8,120,5,,10.0,30.268702,1025.2,,TRUE,TRUE,,,,,,,CLR,,,,,,,,VFR,0.0,,,,,,,,,,,METAR,279.0
KHYR 060853Z AUTO 02006KT 10SM OVC015 08/05 A3001 RMK AO2 SLP166 T00780050 56004,KHYR,2023-05-06T08:53:00Z,46.02,-91.45,7.8,5.0,20,6,,10.0,30.008858,1016.6,,TRUE,TRUE,,,,,,,OVC,1500,,,,,,,MVFR,-0.4,,,,,,,,,,,METAR,369.0
KHWO 060853Z AUTO 01003KT 10SM CLR 22/18 A3005 RMK AO2 SLP177 T02220183 56004 $,KHWO,2023-05-06T08:53:00Z,26.0,-80.23,22.2,18.3,10,3,,10.0,30.050198,1017.7,,TRUE,TRUE,TRUE,,,,,,CLR,,,,,,,,VFR,-0.4,,,,,,,,,,,METAR,2.0
KHVR 060853Z AUTO 09017G23KT 10SM BKN050 OVC080 13/02 A2977 RMK AO2 SLP070 T01280017 58001,KHVR,2023-05-06T08:53:00Z,48.55,-109.77,12.8,1.7,90,17,23,10.0,29.769686,1007.0,,TRUE,TRUE,,,,,,,BKN,5000,OVC,8000,,,,,VFR,-0.1,,,,,,,,,,,METAR,789.0
KHVN 060853Z AUTO 00000KT 10SM CLR 09/07 A3021 RMK AO2 SLP231 T00890067 55001,KHVN,2023-05-06T08:53:00Z,41.27,-72.88,8.9,6.7,0,0,,10.0,30.209646,1023.1,,TRUE,TRUE,,,,,,,CLR,,,,,,,,VFR,-0.1,,,,,,,,,,,METAR,4.0
KHUL 060853Z AUTO 00000KT 10SM CLR 01/M01 A3001 RMK AO2 SLP165 T00061011 56009,KHUL,2023-05-06T08:53:00Z,46.12,-67.8,0.6,-1.1,0,0,,10.0,30.008858,1016.5,,TRUE,TRUE,,,,,,,CLR,,,,,,,,VFR,-0.9,,,,,,,,,,,METAR,148.0
KHUF 060853Z 14005KT 10SM OVC080 16/11 A3010 RMK AO2 SLP190 T01560106 53003,KHUF,2023-05-06T08:53:00Z,39.45,-87.32,15.6,10.6,140,5,,10.0,30.100393,1019.0,,,TRUE,,,,,,,OVC,8000,,,,,,,VFR,0.3,,,,,,,,,,,METAR,174.0
KHSV 060853Z AUTO 11006KT 10SM OVC036 15/13 A3012 RMK AO2 SLP198 T01500128 55001,KHSV,2023-05-06T08:53:00Z,34.65,-86.78,15.0,12.8,110,6,,10.0,30.121063,1019.8,,TRUE,TRUE,,,,,,,OVC,3600,,,,,,,VFR,-0.1,,,,,,,,,,,METAR,190.0
KHSI 060853Z AUTO 07013KT 10SM OVC029 14/11 A2976 RMK AO2 SLP067 T01390111 56020,KHSI,2023-05-06T08:53:00Z,40.6,-98.43,13.9,11.1,70,13,,10.0,29.760826,1006.7,,TRUE,TRUE,,,,,,,OVC,2900,,,,,,,MVFR,-2.0,,,,,,,,,,,METAR,592.0
KHRO 060853Z AUTO 12007KT 7SM SCT004 OVC008 17/17 A2994 RMK AO2 SLP129 T01720167 58004,KHRO,2023-05-06T08:53:00Z,36.27,-93.15,17.2,16.7,120,7,,7.0,29.940945,1012.9,,TRUE,TRUE,,,,,,,SCT,400,OVC,800,,,,,IFR,-0.4,,,,,,,,,,,METAR,417.0
KHRI 060853Z AUTO 23009KT 10SM -RA OVC050 11/07 A2991 RMK AO2 RAB21 SLP129 P0000 60000 T01110072 53002,KHRI,2023-05-06T08:53:00Z,45.83,-119.27,11.1,7.2,230,9,,10.0,29.911417,1012.9,,TRUE,TRUE,,,,,,-RA,OVC,5000,,,,,,,VFR,0.2,,,,,0.005,0.005,,,,,METAR,194.0
KHOT 060853Z AUTO 08006KT 7SM OVC007 21/19 A2994 RMK AO2 SLP133 T02110194 58007,KHOT,2023-05-06T08:53:00Z,34.48,-93.1,21.1,19.4,80,6,,7.0,29.940945,1013.3,,TRUE,TRUE,,,,,,,OVC,700,,,,,,,IFR,-0.7,,,,,,,,,,,METAR,153.0
KHLN 060853Z AUTO 27006KT 10SM FEW049 BKN120 11/06 A2974 RMK AO2 SLP066 T01110061 58003,KHLN,2023-05-06T08:53:00Z,46.6,-111.98,11.1,6.1,270,6,,10.0,29.740158,1006.6,,TRUE,TRUE,,,,,,,FEW,4900,BKN,12000,,,,,VFR,-0.3,,,,,,,,,,,METAR,1178.0
KHLG 060853Z AUTO 08003KT 10SM CLR 08/02 A3024 RMK AO2 SLP243 T00830022 53006,KHLG,2023-05-06T08:53:00Z,40.17,-80.65,8.3,2.2,80,3,,10.0,30.239174,1024.3,,TRUE,TRUE,,,,,,,CLR,,,,,,,,VFR,0.6,,,,,,,,,,,METAR,365.0
KHLC 060853Z AUTO 05009KT 9SM FEW024 OVC030 18/14 A2972 RMK AO2 SLP040 T01780144 50023,KHLC,2023-05-06T08:53:00Z,39.37,-99.83,17.8,14.4,50,9,,9.0,29.719488,1004.0,,TRUE,TRUE,,,,,,,FEW,2400,OVC,3000,,,,,MVFR,2.3,,,,,,,,,,,SPECI,667.0
KHKY 060853Z 00000KT 10SM CLR 10/08 A3022 RMK AO2 SLP217 T01000083 53007,KHKY,2023-05-06T08:53:00Z,35.75,-81.38,10.0,8.3,0,0,,10.0,30.221457,1021.7,,,TRUE,,,,,,,CLR,,,,,,,,VFR,0.7,,,,,,,,,,,METAR,357.0
KHKS 060853Z AUTO 13005KT 10SM BKN012 OVC019 21/19 A3003 RMK AO2 SLP160 T02060189 53002,KHKS,2023-05-06T08:53:00Z,32.33,-90.22,20.6,18.9,130,5,,10.0,30.029528,1016.0,,TRUE,TRUE,,,,,,,BKN,1200,OVC,1900,,,,,MVFR,0.2,,,,,,,,,,,METAR,103.0
KHKA 060853Z AUTO 14006KT 10SM BKN065 16/13 A3003 RMK AO2 SLP167 T01560133 55004 $,KHKA,2023-05-06T08:53:00Z,35.93,-89.83,15.6,13.3,140,6,,10.0,30.029528,1016.7,,TRUE,TRUE,TRUE,,,,,,BKN,6500,,,,,,,VFR,-0.4,,,,,,,,,,,METAR,78.0
KHJO 060853Z AUTO 34008KT 10SM BKN065 13/08 A3007 RMK AO2 SLP183 T01330078 50004,KHJO,2023-05-06T08:53:00Z,36.32,-119.62,13.3,7.8,340,8,,10.0,30.070866,1018.3,,TRUE,TRUE,,,,,,,BKN,6500,,,,,,,VFR,0.4,,,,,,,,,,,METAR,73.0
KHIO 060853Z 19004KT 10SM OVC036 11/08 A2996 RMK AO2 SLP146 T01110083 56000,KHIO,2023-05-06T08:53:00Z,45.55,-122.95,11.1,8.3,190,4,,10.0,29.958662,1014.6,,,TRUE,,,,,,,OVC,3600,,,,,,,VFR,0.0,,,,,,,,,,,METAR,62.0
KHIB 060853Z AUTO 07007KT 10SM OVC011 07/05 A3005 RMK AO2 SLP184 T00670050 55007,KHIB,2023-05-06T08:53:00Z,47.38,-92.83,6.7,5.0,70,7,,10.0,30.050198,1018.4,,TRUE,TRUE,,,,,,,OVC,1100,,,,,,,MVFR,-0.7,,,,,,,,,,,METAR,409.0
KHHR 060853Z AUTO 00000KT 10SM CLR 15/09 A3008 RMK AO2 SLP185 T01500089 58003,KHHR,2023-05-06T08:53:00Z,33.92,-118.33,15.0,8.9,0,0,,10.0,30.079725,1018.5,,TRUE,TRUE,,,,,,,CLR,,,,,,,,VFR,-0.3,,,,,,,,,,,METAR,21.0
KHGR 060853Z AUTO 31004KT 10SM CLR 06/04 A3029 RMK AO2 SLP267 T00610039 53007 $,KHGR,2023-05-06T08:53:00Z,39.7,-77.73,6.1,3.9,310,4,,10.0,30.28937,1026.7,,TRUE,TRUE,TRUE,,,,,,CLR,,,,,,,,VFR,0.7,,,,,,,,,,,METAR,206.0
KHEI 060853Z AUTO 09014KT 10SM FEW100 10/04 A2986 RMK AO2 SLP106 60000 T01000039 56006,KHEI,2023-05-06T08:53:00Z,46.02,-102.65,10.0,3.9,90,14,,10.0,29.861221,1010.6,,TRUE,TRUE,,,,,,,FEW,10000,,,,,,,VFR,-0.6,,,,,,0.005,,,,,METAR,824.0
KHBR 060853Z AUTO 20009KT 10SM CLR 19/13 A2980 RMK AO2 SLP071 T01890133 53005,KHBR,2023-05-06T08:53:00Z,34.98,-99.05,18.9,13.3,200,9,,10.0,29.799213,1007.1,,TRUE,TRUE,,,,,,,CLR,,,,,,,,VFR,0.5,,,,,,,,,,,METAR,475.0
KHAO 060853Z AUTO 00000KT 10SM CLR 09/07 A3019 RMK AO2 SLP222 T00890067 53008,KHAO,2023-05-06T08:53:00Z,39.37,-84.52,8.9,6.7,0,0,,10.0,30.188976,1022.2,,TRUE,TRUE,,,,,,,CLR,,,,,,,,VFR,0.8,,,,,,,,,,,METAR,185.0
KGZH 060853Z AUTO 00000KT 8SM BKN043 OVC060 18/16 A3009 RMK AO2 SLP187 T01780161 55003,KGZH,2023-05-06T08:53:00Z,31.42,-87.05,17.8,16.1,0,0,,8.0,30.088583,1018.7,,TRUE,TRUE,,,,,,,BKN,4300,OVC,6000,,,,,VFR,-0.3,,,,,,,,,,,METAR,77.0
KGWO 060853Z AUTO 15007KT 10SM BKN032 BKN043 20/17 A3001 RMK AO2 SLP161 T02000167 56000,KGWO,2023-05-06T08:53:00Z,33.5,-90.08,20.0,16.7,150,7,,10.0,30.008858,1016.1,,TRUE,TRUE,,,,,,,BKN,3200,BKN,4300,,,,,VFR,0.0,,,,,,,,,,,METAR,42.0
KGVL 060853Z AUTO 08005KT 10SM OVC100 14/11 A3021 RMK AO2 SLP223 60000 T01390106 58000,KGVL,2023-05-06T08:53:00Z,34.27,-83.83,13.9,10.6,80,5,,10.0,30.209646,1022.3,,TRUE,TRUE,,,,,,,OVC,10000,,,,,,,VFR,0.0,,,,,,0.005,,,,,METAR,387.0
KGUY 060853Z AUTO 24005KT 10SM CLR 12/01 A2978 RMK AO2 SLP044 T01170011 51006,KGUY,2023-05-06T08:53:00Z,36.68,-101.5,11.7,1.1,240,5,,10.0,29.778543,1004.4,,TRUE,TRUE,,,,,,,CLR,,,,,,,,VFR,0.6,,,,,,,,,,,METAR,950.0
KGUP 060853Z AUTO 18006KT 10SM CLR 04/M07 A3011 RMK AO2 SLP113 T00391067 50005,KGUP,2023-05-06T08:53:00Z,35.52,-108.8,3.9,-6.7,180,6,,10.0,30.109253,1011.3,,TRUE,TRUE,,,,,,,CLR,,,,,,,,VFR,0.5,,,,,,,,,,,METAR,1972.0
KGSP 060853Z AUTO 00000KT 10SM CLR 13/11 A3022 RMK AO2 SLP226 T01330106 53005,KGSP,2023-05-06T08:53:00Z,34.9,-82.22,13.3,10.6,0,0,,10.0,30.221457,1022.6,,TRUE,TRUE,,,,,,,CLR,,,,,,,,VFR,0.5,,,,,,,,,,,METAR,285.0
KGRR 060853Z AUTO 12009KT 10SM CLR 11/03 A3019 RMK AO2 SLP223 T01060028 53004,KGRR,2023-05-06T08:53:00Z,42.88,-85.52,10.6,2.8,120,9,,10.0,30.188976,1022.3,,TRUE,TRUE,,,,,,,CLR,,,,,,,,VFR,0.4,,,,,,,,,,,METAR,239.0
KGRI 060853Z AUTO 11011KT 10SM BKN048 OVC055 13/11 A2977 RMK AO2 RAE04 SLP076 P0001 60021 T01330111 58024,KGRI,2023-05-06T08:53:00Z,40.97,-98.32,13.3,11.1,110,11,,10.0,29.769686,1007.6,,TRUE,TRUE,,,,,,,BKN,4800,OVC,5500,,,,,VFR,-2.4,,,,,0.01,0.21,,,,,METAR,562.0
KGRB 060853Z AUTO 14004KT 10SM OVC110 13/07 A3008 RMK AO2 SLP187 T01280067 53003,KGRB,2023-05-06T08:53:00Z,44.48,-88.13,12.8,6.7,140,4,,10.0,30.079725,1018.7,,TRUE,TRUE,,,,,,,OVC,11000,,,,,,,VFR,0.3,,,,,,,,,,,METAR,209.0
KGPT 060853Z AUTO 13007KT 10SM OVC006 24/23 A3001 RMK AO2 SLP161 T02390228 56006,KGPT,2023-05-06T08:53:00Z,30.42,-89.08,23.9,22.8,130,7,,10.0,30.008858,1016.1,,TRUE,TRUE,,,,,,,OVC,600,,,,,,,IFR,-0.6,,,,,,,,,,,METAR,5.0
KGOK 060853Z AUTO 18010KT 6SM BR CLR 23/21 A2975 RMK AO2 SLP064 T02280211 50000 $,KGOK,2023-05-06T08:53:00Z,35.85,-97.4,22.8,21.1,180,10,,6.0,29.749016,1006.4,,TRUE,TRUE,TRUE,,,,,BR,CLR,,,,,,,,VFR,0.0,,,,,,,,,,,METAR,326.0
KGNV 060853Z AUTO 00000KT 10SM FEW049 OVC085 19/17 A3012 RMK AO2 RAB11E21 SLP197 P0000 60000 T01940167 58001,KGNV,2023-05-06T08:53:00Z,29.7,-82.28,19.4,16.7,0,0,,10.0,30.121063,1019.7,,TRUE,TRUE,,,,,,,FEW,4900,OVC,8500,,,,,VFR,-0.1,,,,,0.005,0.005,,,,,METAR,41.0
KGMU 060853Z AUTO 00000KT 10SM CLR 16/11 A3022 RMK AO2 SLP227 T01610106 53006,KGMU,2023-05-06T08:53:00Z,34.85,-82.35,16.1,10.6,0,0,,10.0,30.221457,1022.7,,TRUE,TRUE,,,,,,,CLR,,,,,,,,VFR,0.6,,,,,,,,,,,METAR,309.0
KGLR 060853Z AUTO 15011KT 10SM OVC085 09/04 A3021 RMK AO2 SLP236 T00940044 53002,KGLR,2023-05-06T08:53:00Z,45.02,-84.68,9.4,4.4,150,11,,10.0,30.209646,1023.6,,TRUE,TRUE,,,,,,,OVC,8500,,,,,,,VFR,0.2,,,,,,,,,,,METAR,403.0
KGLH 060853Z AUTO 14010KT 10SM OVC016 21/19 A2998 RMK AO2 SLP159 T02060189 53002,KGLH,2023-05-06T08:53:00Z,33.47,-90.98,20.6,18.9,140,10,,10.0,29.97933,1015.9,,TRUE,TRUE,,,,,,,OVC,1600,,,,,,,MVFR,0.2,,,,,,,,,,,METAR,40.0
KGLD 060853Z AUTO 33010KT 10SM CLR 09/08 A2979 RMK AO2 SLP054 T00940078 51010,KGLD,2023-05-06T08:53:00Z,39.37,-101.7,9.4,7.8,330,10,,10.0,29.790354,1005.4,,TRUE,TRUE,,,,,,,CLR,,,,,,,,VFR,1.0,,,,,,,,,,,METAR,1111.0
KGKY 060853Z AUTO 21004KT 10SM CLR 20/14 A2982 RMK AO2 SLP089 T02000144 51001,KGKY,2023-05-06T08:53:00Z,32.67,-97.1,20.0,14.4,210,4,,10.0,29.819881,1008.9,,TRUE,TRUE,,,,,,,CLR,,,,,,,,VFR,0.1,,,,,,,,,,,METAR,189.0
KGKJ 060853Z AUTO 09003KT 10SM CLR 07/03 A3026 RMK AO2 SLP251 T00670033 53001,KGKJ,2023-05-06T08:53:00Z,41.63,-80.22,6.7,3.3,90,3,,10.0,30.259842,1025.1,,TRUE,TRUE,,,,,,,CLR,,,,,,,,VFR,0.1,,,,,,,,,,,METAR,428.0
KGJT 060853Z AUTO 25011G23KT 10SM BKN070 OVC100 12/M02 A2998 RMK AO2 SLP108 T01171022 51026,KGJT,2023-05-06T08:53:00Z,39.13,-108.53,11.7,-2.2,250,11,23,10.0,29.97933,1010.8,,TRUE,TRUE,,,,,,,BKN,7000,OVC,10000,,,,,VFR,2.6,,,,,,,,,,,METAR,1475.0
KGIF 060853Z AUTO 07004KT 10SM BKN049 21/17 A3009 RMK AO2 SLP186 T02110172 55004,KGIF,2023-05-06T08:53:00Z,28.07,-81.75,21.1,17.2,70,4,,10.0,30.088583,1018.6,,TRUE,TRUE,,,,,,,BKN,4900,,,,,,,VFR,-0.4,,,,,,,,,,,METAR,44.0
KGGW 060853Z AUTO 11024G34KT 10SM SCT080 OVC100 13/02 A2984 RMK AO2 PK WND 09035/0838 SLP098 T01280017 58002,KGGW,2023-05-06T08:53:00Z,48.22,-106.62,12.8,1.7,110,24,34,10.0,29.840551,1009.8,,TRUE,TRUE,,,,,,,SCT,8000,OVC,10000,,,,,VFR,-0.2,,,,,,,,,,,METAR,698.0
KGGG 060853Z AUTO 14005KT 10SM CLR 24/16 A2985 RMK AO2 SLP102 T02390156 56013,KGGG,2023-05-06T08:53:00Z,32.38,-94.72,23.9,15.6,140,5,,10.0,29.84941,1010.2,,TRUE,TRUE,,,,,,,CLR,,,,,,,,VFR,-1.3,,,,,,,,,,,METAR,107.0
KGFK 060853Z AUTO 08008KT 10SM CLR 08/03 A3000 RMK AO2 SLP160 T00830033 51004,KGFK,2023-05-06T08:53:00Z,47.95,-97.18,8.3,3.3,80,8,,10.0,30.0,1016.0,,TRUE,TRUE,,,,,,,CLR,,,,,,,,VFR,0.4,,,,,,,,,,,METAR,256.0
KGEZ 060853Z AUTO 13006KT 10SM CLR 14/06 A3015 RMK AO2 SLP205 T01390061 53009 $,KGEZ,2023-05-06T08:53:00Z,39.58,-85.8,13.9,6.1,130,6,,10.0,30.15059,1020.5,,TRUE,TRUE,TRUE,,,,,,CLR,,,,,,,,VFR,0.9,,,,,,,,,,,METAR,245.0
KGEY 060853Z AUTO 00000KT SCT065 SCT075 11/05 A2981 RMK AO2 RAB29E38 SLP068 P0000 60000 T01110050 50009,KGEY,2023-05-06T08:53:00Z,44.52,-108.08,11.1,5.0,0,0,,,29.811024,1006.8,,TRUE,TRUE,,,,,,,SCT,6500,SCT,7500,,,,,,0.9,,,,,0.005,0.005,,,,,METAR,1191.0
KGEG 060853Z 21011KT 10SM FEW005 BKN009 OVC015 08/06 A2988 RMK AO2 SLP119 T00780061 50001,KGEG,2023-05-06T08:53:00Z,47.62,-117.53,7.8,6.1,210,11,,10.0,29.878937,1011.9,,,TRUE,,,,,,,FEW,500,BKN,900,OVC,1500,,,IFR,0.1,,,,,,,,,,,METAR,718.0
KGAG 060853Z AUTO 20007KT 10SM CLR 17/10 A2976 RMK AO2 SLP048 T01670100 53003,KGAG,2023-05-06T08:53:00Z,36.3,-99.77,16.7,10.0,200,7,,10.0,29.760826,1004.8,,TRUE,TRUE,,,,,,,CLR,,,,,,,,VFR,0.3,,,,,,,,,,,METAR,670.0
KFYV 060853Z AUTO 16009KT 6SM HZ SCT014 22/19 A2987 RMK AO2 PK WND 18026/0830 SLP103 T02170189 56009,KFYV,2023-05-06T08:53:00Z,36.02,-94.17,21.7,18.9,160,9,,6.0,29.870079,1010.3,,TRUE,TRUE,,,,,,HZ,SCT,1400,,,,,,,VFR,-0.9,,,,,,,,,,,METAR,377.0
KFXE 060853Z 03003KT 10SM CLR 23/20 A3004 RMK AO2 SLP175 6//// T02330200 56005 PNO,KFXE,2023-05-06T08:53:00Z,26.2,-80.18,23.3,20.0,30,3,,10.0,30.041338,1017.5,,,TRUE,,,,,,,CLR,,,,,,,,VFR,-0.5,,,,,,,,,,,METAR,3.0
KFVE 060853Z AUTO 30007KT 10SM CLR 08/01 A3001 RMK AO2 SLP163 T00780011 58005,KFVE,2023-05-06T08:53:00Z,47.28,-68.3,7.8,1.1,300,7,,10.0,30.008858,1016.3,,TRUE,TRUE,,,,,,,CLR,,,,,,,,VFR,-0.5,,,,,,,,,,,METAR,299.0
KFUL 060853Z AUTO 08003KT 10SM CLR 12/10 A3007 RMK AO2 SLP183 T01220100 56004,KFUL,2023-05-06T08:53:00Z,33.87,-117.98,12.2,10.0,80,3,,10.0,30.070866,1018.3,,TRUE,TRUE,,,,,,,CLR,,,,,,,,VFR,-0.4,,,,,,,,,,,METAR,23.0
KFTY 060853Z 00000KT 10SM OVC055 14/13 A3018 RMK AO2 SLP215 T01440133 55002,KFTY,2023-05-06T08:53:00Z,33.78,-84.52,14.4,13.3,0,0,,10.0,30.180119,1021.5,,,TRUE,,,,,,,OVC,5500,,,,,,,VFR,-0.2,,,,,,,,,,,METAR,245.0
KFTW 060853Z 13007KT 10SM CLR 22/13 A2982 RMK AO2 SLP088 T02170128 53002,KFTW,2023-05-06T08:53:00Z,32.83,-97.37,21.7,12.8,130,7,,10.0,29.819881,1008.8,,,TRUE,,,,,,,CLR,,,,,,,,VFR,0.2,,,,,,,,,,,METAR,213.0
KFST 060853Z AUTO 24009KT 10SM CLR 21/M07 A2991 RMK AO2 WSHFT 0806 SLP076 T02111072 53004 $,KFST,2023-05-06T08:53:00Z,30.92,-102.92,21.1,-7.2,240,9,,10.0,29.911417,1007.6,,TRUE,TRUE,TRUE,,,,,,CLR,,,,,,,,VFR,0.4,,,,,,,,,,,METAR,917.0
KFSM 060853Z AUTO 07008KT 8SM BKN011 19/18 A2988 RMK AO2 SLP113 T01940178 58007 $,KFSM,2023-05-06T08:53:00Z,35.33,-94.37,19.4,17.8,70,8,,8.0,29.878937,1011.3,,TRUE,TRUE,TRUE,,,,,,BKN,1100,,,,,,,MVFR,-0.7,,,,,,,,,,,METAR,136.0
KFRG 060853Z AUTO 33003KT 10SM CLR 09/07 A3024 RMK AO2 SLP240 T00940072 53001,KFRG,2023-05-06T08:53:00Z,40.73,-73.42,9.4,7.2,330,3,,10.0,30.239174,1024.0,,TRUE,TRUE,,,,,,,CLR,,,,,,,,VFR,0.1,,,,,,,,,,,METAR,23.0
KFPR 060853Z AUTO 00000KT 10SM CLR 19/18 A3007 RMK AO2 SLP180 T01940183 56004,KFPR,2023-05-06T08:53:00Z,27.5,-80.38,19.4,18.3,0,0,,10.0,30.070866,1018.0,,TRUE,TRUE,,,,,,,CLR,,,,,,,,VFR,-0.4,,,,,,,,,,,METAR,7.0
KFOE 060853Z AUTO 5SM BR OVC007 18/17 A2979 RMK AO2 SLP080 T01780167 55007 $,KFOE,2023-05-06T08:53:00Z,38.93,-95.65,17.8,16.7,,,,5.0,29.790354,1008.0,,TRUE,TRUE,TRUE,,,,,BR,OVC,700,,,,,,,IFR,-0.7,,,,,,,,,,,METAR,315.0
KFNT 060853Z AUTO 14009KT 10SM CLR 10/04 A3025 RMK AO2 SLP244 T01000039 53006,KFNT,2023-05-06T08:53:00Z,42.97,-83.75,10.0,3.9,140,9,,10.0,30.250984,1024.4,,TRUE,TRUE,,,,,,,CLR,,,,,,,,VFR,0.6,,,,,,,,,,,METAR,235.0
KFNB 060853Z AUTO 15010KT 10SM OVC009 17/16 A2978 RMK AO2 SLP080 T01720161 58001,KFNB,2023-05-06T08:53:00Z,40.07,-95.58,17.2,16.1,150,10,,10.0,29.778543,1008.0,,TRUE,TRUE,,,,,,,OVC,900,,,,,,,IFR,-0.1,,,,,,,,,,,METAR,301.0
KFMY 060853Z AUTO 10005KT 10SM SCT039 23/19 A3005 RMK AO2 SLP177 T02280194 56004,KFMY,2023-05-06T08:53:00Z,26.58,-81.87,22.8,19.4,100,5,,10.0,30.050198,1017.7,,TRUE,TRUE,,,,,,,SCT,3900,,,,,,,VFR,-0.4,,,,,,,,,,,METAR,4.0
KFMN 060853Z AUTO 00000KT 10SM CLR 08/M06 A3003 RMK AO2 SLP134 T00831061 51010,KFMN,2023-05-06T08:53:00Z,36.75,-108.23,8.3,-6.1,0,0,,10.0,30.029528,1013.4,,TRUE,TRUE,,,,,,,CLR,,,,,,,,VFR,1.0,,,,,,,,,,,METAR,1677.0
KFLO 060853Z AUTO 00000KT 10SM CLR 12/10 A3022 RMK AO2 SLP232 T01170100 53004,KFLO,2023-05-06T08:53:00Z,34.18,-79.73,11.7,10.0,0,0,,10.0,30.221457,1023.2,,TRUE,TRUE,,,,,,,CLR,,,,,,,,VFR,0.4,,,,,,,,,,,METAR,43.0
KFLL 060853Z 04003KT 10SM CLR 23/19 A3003 RMK SLP169 T02330194 $,KFLL,2023-05-06T08:53:00Z,26.07,-80.15,23.3,19.4,40,3,,10.0,30.029528,1016.9,,,,TRUE,,,,,,CLR,,,,,,,,VFR,,,,,,,,,,,,SPECI,1.0
KFLD 060853Z AUTO 13007KT 10SM FEW055 OVC090 14/08 A3006 RMK AO2 RAE05 SLP178 P0000 60000 T01440083 51004,KFLD,2023-05-06T08:53:00Z,43.77,-88.48,14.4,8.3,130,7,,10.0,30.059055,1017.8,,TRUE,TRUE,,,,,,,FEW,5500,OVC,9000,,,,,VFR,0.4,,,,,0.005,0.005,,,,,METAR,242.0
KFHR 060853Z AUTO 00000KT 10SM BKN029 OVC048 A2995 RMK AO2 SLPNO 50000 $,KFHR,2023-05-06T08:53:00Z,48.52,-123.03,,,0,0,,10.0,29.949802,,,TRUE,TRUE,TRUE,,,,,,BKN,2900,OVC,4800,,,,,MVFR,0.0,,,,,,,,,,,METAR,34.0
KFFT 060853Z AUTO 00000KT 10SM CLR 11/07 A3016 RMK AO2 SLP208 T01060072 53005,KFFT,2023-05-06T08:53:00Z,38.18,-84.9,10.6,7.2,0,0,,10.0,30.159449,1020.8,,TRUE,TRUE,,,,,,,CLR,,,,,,,,VFR,0.5,,,,,,,,,,,SPECI,235.0
KFFC 060853Z AUTO 00000KT 9SM OVC055 14/13 A3018 RMK AO2 SLP219 T01390133 55001,KFFC,2023-05-06T08:53:00Z,33.35,-84.57,13.9,13.3,0,0,,9.0,30.180119,1021.9,,TRUE,TRUE,,,,,,,OVC,5500,,,,,,,VFR,-0.1,,,,,,,,,,,SPECI,242.0
KFDY 060853Z AUTO 09006KT 10SM CLR 09/05 A3020 RMK AO2 SLP224 T00940050 53003,KFDY,2023-05-06T08:53:00Z,41.02,-83.67,9.4,5.0,90,6,,10.0,30.200787,1022.4,,TRUE,TRUE,,,,,,,CLR,,,,,,,,VFR,0.3,,,,,,,,,,,METAR,247.0
KFDR 060853Z AUTO 20008KT 10SM CLR 19/14 A2977 RMK AO2 SLP059 T01890139 58001,KFDR,2023-05-06T08:53:00Z,34.35,-98.98,18.9,13.9,200,8,,10.0,29.769686,1005.9,,TRUE,TRUE,,,,,,,CLR,,,,,,,,VFR,-0.1,,,,,,,,,,,SPECI,378.0
KFCM 060853Z AUTO 07006KT 6SM BR SCT008 BKN022 OVC032 13/12 A2992 RMK AO2 SLP132 T01330117 56001,KFCM,2023-05-06T08:53:00Z,44.83,-93.47,13.3,11.7,70,6,,6.0,29.920275,1013.2,,TRUE,TRUE,,,,,,BR,SCT,800,BKN,2200,OVC,3200,,,MVFR,-0.1,,,,,,,,,,,METAR,276.0
KFAY 060853Z 00000KT 10SM CLR 12/11 A3022 RMK AO2 SLP226 T01220106 53005,KFAY,2023-05-06T08:53:00Z,34.98,-78.88,12.2,10.6,0,0,,10.0,30.221457,1022.6,,,TRUE,,,,,,,CLR,,,,,,,,VFR,0.5,,,,,,,,,,,METAR,57.0
KFAT 060853Z 33006KT 10SM -RA SCT070 BKN080 BKN100 13/09 A3007 RMK AO2 RAB38 SLP180 P0000 60000 T01330089 50003,KFAT,2023-05-06T08:53:00Z,36.78,-119.72,13.3,8.9,330,6,,10.0,30.070866,1018.0,,,TRUE,,,,,,-RA,SCT,7000,BKN,8000,BKN,10000,,,VFR,0.3,,,,,0.005,0.005,,,,,METAR,102.0
KFAR 060853Z 05009KT 10SM FEW085 10/05 A2993 RMK AO2 SLP137 T01000050 50001,KFAR,2023-05-06T08:53:00Z,46.9,-96.82,10.0,5.0,50,9,,10.0,29.929134,1013.7,,,TRUE,,,,,,,FEW,8500,,,,,,,VFR,0.1,,,,,,,,,,,METAR,276.0
KEYW 060853Z AUTO 07004KT 10SM SCT028 26/20 A3003 RMK AO2 SLP175 T02560200 55004,KEYW,2023-05-06T08:53:00Z,24.55,-81.75,25.6,20.0,70,4,,10.0,30.029528,1017.5,,TRUE,TRUE,,,,,,,SCT,2800,,,,,,,VFR,-0.4,,,,,,,,,,,METAR,1.0
KEYE 060853Z AUTO 12004KT 10SM CLR 14/07 A3013 RMK AO2 SLP199 T01440067 53007,KEYE,2023-05-06T08:53:00Z,39.83,-86.3,14.4,6.7,120,4,,10.0,30.129921,1019.9,,TRUE,TRUE,,,,,,,CLR,,,,,,,,VFR,0.7,,,,,,,,,,,METAR,248.0
KEWB 060853Z AUTO VRB04KT 10SM CLR 08/06 A3016 RMK AO2 SLP211 T00830061 56003,KEWB,2023-05-06T08:53:00Z,41.68,-70.95,8.3,6.1,0,4,,10.0,30.159449,1021.1,,TRUE,TRUE,,,,,,,CLR,,,,,,,,VFR,-0.3,,,,,,,,,,,METAR,22.0
KEQY 060853Z AUTO 00000KT 10SM CLR 11/09 A3022 RMK AO2 SLP238 T01060094 53008 $,KEQY,2023-05-06T08:53:00Z,35.02,-80.62,10.6,9.4,0,0,,10.0,30.221457,1023.8,,TRUE,TRUE,TRUE,,,,,,CLR,,,,,,,,VFR,0.8,,,,,,,,,,,SPECI,205.0
KEPH 060853Z AUTO 01004KT 10SM OVC049 11/09 A2983 RMK AO2 SLP103 T01060089 53002,KEPH,2023-05-06T08:53:00Z,47.3,-119.52,10.6,8.9,10,4,,10.0,29.828741,1010.3,,TRUE,TRUE,,,,,,,OVC,4900,,,,,,,VFR,0.2,,,,,,,,,,,METAR,382.0
KENW 060853Z AUTO 15012KT 10SM FEW060 OVC095 16/06 A3009 RMK AO2 SLP186 T01560061 51006,KENW,2023-05-06T08:53:00Z,42.6,-87.93,15.6,6.1,150,12,,10.0,30.088583,1018.6,,TRUE,TRUE,,,,,,,FEW,6000,OVC,9500,,,,,VFR,0.6,,,,,,,,,,,METAR,222.0
KEMP 060853Z AUTO 14010KT 2SM BR OVC003 18/17 A2977 RMK AO2 SLP075 T01830172 56009,KEMP,2023-05-06T08:53:00Z,38.33,-96.2,18.3,17.2,140,10,,2.0,29.769686,1007.5,,TRUE,TRUE,,,,,,BR,OVC,300,,,,,,,LIFR,-0.9,,,,,,,,,,,METAR,366.0
KELY 060853Z AUTO 11004KT 10SM FEW060 00/M01 A2999 RMK AO2 SLP130 60001 T00001011 58005,KELY,2023-05-06T08:53:00Z,39.3,-114.85,0.0,-1.1,110,4,,10.0,29.991142,1013.0,,TRUE,TRUE,,,,,,,FEW,6000,,,,,,,VFR,-0.5,,,,,,0.01,,,,,METAR,1906.0
KELN 060853Z AUTO 31012KT 10SM OVC095 09/03 A2987 RMK AO2 SLP114 T00940028 55001,KELN,2023-05-06T08:53:00Z,47.03,-120.53,9.4,2.8,310,12,,10.0,29.870079,1011.4,,TRUE,TRUE,,,,,,,OVC,9500,,,,,,,VFR,-0.1,,,,,,,,,,,METAR,532.0
KEET 060853Z AUTO 07003KT 10SM CLR 16/12 A3013 RMK AO2 SLP197 T01560122 55000,KEET,2023-05-06T08:53:00Z,33.18,-86.78,15.6,12.2,70,3,,10.0,30.129921,1019.7,,TRUE,TRUE,,,,,,,CLR,,,,,,,,VFR,0.0,,,,,,,,,,,METAR,172.0
KECP 060853Z AUTO 00000KT 10SM CLR 18/16 A3007 RMK AO1 SLP195 T01830161 56003,KECP,2023-05-06T08:53:00Z,30.35,-85.8,18.3,16.1,0,0,,10.0,30.070866,1019.5,,TRUE,TRUE,,,,,,,CLR,,,,,,,,VFR,-0.3,,,,,,,,,,,METAR,17.0
KDXR 060853Z AUTO 20003KT 10SM CLR 06/04 A3025 RMK AO2 SLP244 T00610044 53003,KDXR,2023-05-06T08:53:00Z,41.37,-73.48,6.1,4.4,200,3,,10.0,30.250984,1024.4,,TRUE,TRUE,,,,,,,CLR,,,,,,,,VFR,0.3,,,,,,,,,,,METAR,138.0
KDWH 060853Z AUTO 16003KT 10SM CLR 20/18 A2992 RMK AO2 SLP131 60008 T02000183 58020,KDWH,2023-05-06T08:53:00Z,30.07,-95.55,20.0,18.3,160,3,,10.0,29.920275,1013.1,,TRUE,TRUE,,,,,,,CLR,,,,,,,,VFR,-2.0,,,,,,0.08,,,,,METAR,46.0
KDVT 060853Z AUTO 00000KT 10SM CLR 16/M01 A2994 RMK AO2 SLP123 T01611006 58002,KDVT,2023-05-06T08:53:00Z,33.68,-112.07,16.1,-0.6,0,0,,10.0,29.940945,1012.3,,TRUE,TRUE,,,,,,,CLR,,,,,,,,VFR,-0.2,,,,,,,,,,,METAR,454.0
KDUJ 060853Z AUTO 10005KT 10SM CLR 04/02 A3028 RMK AO2 SLP257 T00440022 53005,KDUJ,2023-05-06T08:53:00Z,41.17,-78.9,4.4,2.2,100,5,,10.0,30.280512,1025.7,,TRUE,TRUE,,,,,,,CLR,,,,,,,,VFR,0.5,,,,,,,,,,,METAR,552.0
KDTW 060853Z 00000KT 10SM FEW160 BKN230 08/03 A3027 RMK AO2 SLP249 T00780033 53004,KDTW,2023-05-06T08:53:00Z,42.23,-83.33,7.8,3.3,0,0,,10.0,30.268702,1024.9,,,TRUE,,,,,,,FEW,16000,BKN,23000,,,,,VFR,0.4,,,,,,,,,,,METAR,192.0
KDTS 060853Z 08003KT 10SM CLR 19/18 A3007 RMK AO2 SLP182 T01940178 56004,KDTS,2023-05-06T08:53:00Z,30.4,-86.47,19.4,17.8,80,3,,10.0,30.070866,1018.2,,,TRUE,,,,,,,CLR,,,,,,,,VFR,-0.4,,,,,,,,,,,METAR,5.0
KDTO 060853Z AUTO 14003KT 10SM CLR 19/13 A2982 RMK AO2 SLP090 T01940133 53001,KDTO,2023-05-06T08:53:00Z,33.2,-97.2,19.4,13.3,140,3,,10.0,29.819881,1009.0,,TRUE,TRUE,,,,,,,CLR,,,,,,,,VFR,0.1,,,,,,,,,,,METAR,199.0
KDTN 060853Z AUTO 17008G17KT 8SM FEW017 24/22 A2990 RMK AO2 SLP123 T02440222 56014,KDTN,2023-05-06T08:53:00Z,32.55,-93.75,24.4,22.2,170,8,17,8.0,29.899607,1012.3,,TRUE,TRUE,,,,,,,FEW,1700,,,,,,,VFR,-1.4,,,,,,,,,,,SPECI,53.0
KDRT 060853Z AUTO 10010KT 9SM CLR 27/22 A2983 RMK AO2 SLP090 T02670222 51001,KDRT,2023-05-06T08:53:00Z,29.37,-100.92,26.7,22.2,100,10,,9.0,29.828741,1009.0,,TRUE,TRUE,,,,,,,CLR,,,,,,,,VFR,0.1,,,,,,,,,,,METAR,303.0
KDRO 060853Z AUTO 00000KT 10SM CLR 04/M05 A3006 RMK AO2 SLP138 T00441050 51010,KDRO,2023-05-06T08:53:00Z,37.15,-107.77,4.4,-5.0,0,0,,10.0,30.059055,1013.8,,TRUE,TRUE,,,,,,,CLR,,,,,,,,VFR,1.0,,,,,,,,,,,METAR,2021.0
KDRA 060853Z AUTO 25011KT 10SM CLR 13/M02 A2992 RMK AO2 SLP101 T01331017 58003,KDRA,2023-05-06T08:53:00Z,36.62,-116.03,13.3,-1.7,250,11,,10.0,29.920275,1010.1,,TRUE,TRUE,,,,,,,CLR,,,,,,,,VFR,-0.3,,,,,,,,,,,METAR,988.0
KDNL 060853Z AUTO 07003KT 10SM OVC080 17/13 A3020 RMK AO2 SLP222 T01670133 53001,KDNL,2023-05-06T08:53:00Z,33.47,-82.03,16.7,13.3,70,3,,10.0,30.200787,1022.2,,TRUE,TRUE,,,,,,,OVC,8000,,,,,,,VFR,0.1,,,,,,,,,,,METAR,126.0
KDMO 060853Z AUTO 15008KT 10SM OVC013 17/14 A2992 RMK AO2 SLP124 T01670139 53001,KDMO,2023-05-06T08:53:00Z,38.72,-93.17,16.7,13.9,150,8,,10.0,29.920275,1012.4,,TRUE,TRUE,,,,,,,OVC,1300,,,,,,,MVFR,0.1,,,,,,,,,,,METAR,271.0
KDMN 060853Z AUTO 33003KT 10SM CLR 09/M09 A3004 RMK AO2 SLP114 T00891094 50001,KDMN,2023-05-06T08:53:00Z,32.27,-107.72,8.9,-9.4,330,3,,10.0,30.041338,1011.4,,TRUE,TRUE,,,,,,,CLR,,,,,,,,VFR,0.1,,,,,,,,,,,METAR,1310.0
KDLS 060853Z AUTO 29004KT 10SM FEW055 BKN100 11/08 A2993 RMK AO2 SLP137 T01060078 55001,KDLS,2023-05-06T08:53:00Z,45.62,-121.17,10.6,7.8,290,4,,10.0,29.929134,1013.7,,TRUE,TRUE,,,,,,,FEW,5500,BKN,10000,,,,,VFR,-0.1,,,,,,,,,,,METAR,71.0
KDLN 060853Z AUTO 22007KT 10SM SCT085 BKN120 04/M02 A2981 RMK AO2 SLP069 T00441017 58000,KDLN,2023-05-06T08:53:00Z,45.25,-112.55,4.4,-1.7,220,7,,10.0,29.811024,1006.9,,TRUE,TRUE,,,,,,,SCT,8500,BKN,12000,,,,,VFR,0.0,,,,,,,,,,,METAR,1586.0
KDKK 060853Z AUTO 00000KT 10SM CLR 05/02 A3030 RMK AO2 SLP263 T00500017 53004,KDKK,2023-05-06T08:53:00Z,42.5,-79.28,5.0,1.7,0,0,,10.0,30.301182,1026.3,,TRUE,TRUE,,,,,,,CLR,,,,,,,,VFR,0.4,,,,,,,,,,,METAR,205.0
KDHT 060853Z AUTO 24010KT 10SM CLR 13/M05 A2985 RMK AO2 SLP055 T01281050 53004,KDHT,2023-05-06T08:53:00Z,36.02,-102.55,12.8,-5.0,240,10,,10.0,29.84941,1005.5,,TRUE,TRUE,,,,,,,CLR,,,,,,,,VFR,0.4,,,,,,,,,,,METAR,1217.0
KDHN 060853Z AUTO 05003KT 10SM CLR 16/13 A3015 RMK AO2 SLP204 T01610128 53000,KDHN,2023-05-06T08:53:00Z,31.32,-85.45,16.1,12.8,50,3,,10.0,30.15059,1020.4,,TRUE,TRUE,,,,,,,CLR,,,,,,,,VFR,0.0,,,,,,,,,,,METAR,113.0
KDGW 060853Z AUTO 11009KT 10SM FEW100 FEW120 03/01 A2987 RMK AO2 SLP082 T00330006 51004,KDGW,2023-05-06T08:53:00Z,42.8,-105.38,3.3,0.6,110,9,,10.0,29.870079,1008.2,,TRUE,TRUE,,,,,,,FEW,10000,FEW,12000,,,,,VFR,0.4,,,,,,,,,,,METAR,1503.0
KDFW 060853Z 21008KT 10SM BKN250 23/13 A2982 RMK AO2 SLP086 T02330128 56002,KDFW,2023-05-06T08:53:00Z,32.9,-97.02,23.3,12.8,210,8,,10.0,29.819881,1008.6,,,TRUE,,,,,,,BKN,25000,,,,,,,VFR,-0.2,,,,,,,,,,,METAR,168.0
KDFI 060853Z AUTO 08004KT 10SM CLR 09/04 A3022 RMK AO2 SLP231 T00940044 53005,KDFI,2023-05-06T08:53:00Z,41.33,-84.43,9.4,4.4,80,4,,10.0,30.221457,1023.1,,TRUE,TRUE,,,,,,,CLR,,,,,,,,VFR,0.5,,,,,,,,,,,METAR,215.0
KDET 060853Z 09004KT 10SM CLR 09/04 A3026 RMK AO2 SLP248 T00940044 53002,KDET,2023-05-06T08:53:00Z,42.4,-83.02,9.4,4.4,90,4,,10.0,30.259842,1024.8,,,TRUE,,,,,,,CLR,,,,,,,,VFR,0.2,,,,,,,,,,,METAR,190.0
KDEQ 060853Z AUTO 11004KT 6SM BR OVC006 22/22 A2988 RMK AO2 SLP114 T02220217 55004,KDEQ,2023-05-06T08:53:00Z,34.05,-94.4,22.2,21.7,110,4,,6.0,29.878937,1011.4,,TRUE,TRUE,,,,,,BR,OVC,600,,,,,,,IFR,-0.4,,,,,,,,,,,METAR,107.0
KDEN 060853Z 20009KT 10SM CLR 08/02 A2987 RMK AO2 SLP061 T00780022 58008,KDEN,2023-05-06T08:53:00Z,39.85,-104.65,7.8,2.2,200,9,,10.0,29.870079,1006.1,,,TRUE,,,,,,,CLR,,,,,,,,VFR,-0.8,,,,,,,,,,,METAR,1656.0
KDCU 060853Z AUTO 11004KT 10SM BKN035 OVC055 15/12 A3013 RMK AO2 SLP200 T01500122 55001,KDCU,2023-05-06T08:53:00Z,34.65,-86.95,15.0,12.2,110,4,,10.0,30.129921,1020.0,,TRUE,TRUE,,,,,,,BKN,3500,OVC,5500,,,,,VFR,-0.1,,,,,,,,,,,METAR,180.0
KDBQ 060853Z AUTO 15010KT 10SM -RA SCT031 BKN045 BKN100 13/11 A2999 RMK AO2 SLP152 P0000 60000 T01280111 55001,KDBQ,2023-05-06T08:53:00Z,42.4,-90.7,12.8,11.1,150,10,,10.0,29.991142,1015.2,,TRUE,TRUE,,,,,,-RA,SCT,3100,BKN,4500,BKN,10000,,,VFR,-0.1,,,,,0.005,0.005,,,,,METAR,317.0
KDAN 060853Z AUTO 00000KT 10SM CLR 08/06 A3024 RMK AO2 SLP232 T00780061 53008,KDAN,2023-05-06T08:53:00Z,36.57,-79.33,7.8,6.1,0,0,,10.0,30.239174,1023.2,,TRUE,TRUE,,,,,,,CLR,,,,,,,,VFR,0.8,,,,,,,,,,,METAR,170.0
KDAL 060853Z 17008KT 10SM OVC250 26/12 A2982 RMK AO2 SLP088 T02560117 58002,KDAL,2023-05-06T08:53:00Z,32.85,-96.85,25.6,11.7,170,8,,10.0,29.819881,1008.8,,,TRUE,,,,,,,OVC,25000,,,,,,,VFR,-0.2,,,,,,,,,,,METAR,148.0
KDAB 060853Z 00000KT 10SM SCT060 21/17 A3009 RMK AO2 SLP188 T02060167 55006,KDAB,2023-05-06T08:53:00Z,29.18,-81.07,20.6,16.7,0,0,,10.0,30.088583,1018.8,,,TRUE,,,,,,,SCT,6000,,,,,,,VFR,-0.6,,,,,,,,,,,METAR,8.0
KCYS 060853Z AUTO 28008KT 10SM CLR 05/M02 A2988 RMK AO2 SLP084 T00501022 58004 $,KCYS,2023-05-06T08:53:00Z,41.15,-104.8,5.0,-2.2,280,8,,10.0,29.878937,1008.4,,TRUE,TRUE,TRUE,,,,,,CLR,,,,,,,,VFR,-0.4,,,,,,,,,,,METAR,1868.0
KCXO 060853Z AUTO 16008KT 10SM CLR 19/18 A2990 RMK AO2 RAE0759 SLP120 P0000 60015 T01890178 56043,KCXO,2023-05-06T08:53:00Z,30.35,-95.42,18.9,17.8,160,8,,10.0,29.899607,1012.0,,TRUE,TRUE,,,,,,,CLR,,,,,,,,VFR,-4.3,,,,,0.005,0.15,,,,,METAR,69.0
KCUT 060853Z AUTO 00000KT 10SM BKN060 OVC080 07/04 A2987 RMK AO2 RAB0758E05 SLP075 P0000 60000 T00720044 50005,KCUT,2023-05-06T08:53:00Z,43.73,-103.62,7.2,4.4,0,0,,10.0,29.870079,1007.5,,TRUE,TRUE,,,,,,,BKN,6000,OVC,8000,,,,,VFR,0.5,,,,,0.005,0.005,,,,,METAR,1700.0
KCUB 060853Z AUTO 00000KT 10SM SCT100 14/13 A3022 RMK AO2 SLP229 T01390128 53003,KCUB,2023-05-06T08:53:00Z,33.97,-81.0,13.9,12.8,0,0,,10.0,30.221457,1022.9,,TRUE,TRUE,,,,,,,SCT,10000,,,,,,,VFR,0.3,,,,,,,,,,,METAR,55.0
KCSV 060853Z AUTO 19004KT 10SM FEW050 OVC070 13/10 A3019 RMK AO2 SLP211 T01280100 53001,KCSV,2023-05-06T08:53:00Z,35.95,-85.08,12.8,10.0,190,4,,10.0,30.188976,1021.1,,TRUE,TRUE,,,,,,,FEW,5000,OVC,7000,,,,,VFR,0.1,,,,,,,,,,,METAR,569.0
KCSM 060853Z AUTO 19009KT 10SM CLR 18/12 A2980 RMK AO2 SLP065 T01830122 53004,KCSM,2023-05-06T08:53:00Z,35.35,-99.2,18.3,12.2,190,9,,10.0,29.799213,1006.5,,TRUE,TRUE,,,,,,,CLR,,,,,,,,VFR,0.4,,,,,,,,,,,METAR,586.0
KCRS 060853Z AUTO 15008KT 10SM CLR 24/13 A2983 RMK AO2 SLP095 T02390133 56007,KCRS,2023-05-06T08:53:00Z,32.03,-96.4,23.9,13.3,150,8,,10.0,29.828741,1009.5,,TRUE,TRUE,,,,,,,CLR,,,,,,,,VFR,-0.7,,,,,,,,,,,METAR,136.0
KCRQ 060853Z AUTO 00000KT 10SM CLR 12/10 A3006 RMK AO2 SLP177 T01220100 56012,KCRQ,2023-05-06T08:53:00Z,33.13,-117.28,12.2,10.0,0,0,,10.0,30.059055,1017.7,,TRUE,TRUE,,,,,,,CLR,,,,,,,,VFR,-1.2,,,,,,,,,,,METAR,96.0
KCRE 060853Z AUTO 00000KT 10SM CLR 12/12 A3021 RMK AO1 SLP230 T01220122 53003,KCRE,2023-05-06T08:53:00Z,33.82,-78.72,12.2,12.2,0,0,,10.0,30.209646,1023.0,,TRUE,TRUE,,,,,,,CLR,,,,,,,,VFR,0.3,,,,,,,,,,,METAR,9.0
KCQC 060853Z AUTO 27014KT 10SM CLR 06/M11 A3007 RMK AO2 SLP110 T00561106 58002 $,KCQC,2023-05-06T08:53:00Z,35.0,-105.67,5.6,-10.6,270,14,,10.0,30.070866,1011.0,,TRUE,TRUE,TRUE,,,,,,CLR,,,,,,,,VFR,-0.2,,,,,,,,,,,METAR,2163.0
KCPS 060853Z AUTO 16008G18KT 10SM FEW042 OVC065 17/12 A2999 RMK AO2 SLP154 T01670117 55002,KCPS,2023-05-06T08:53:00Z,38.53,-90.15,16.7,11.7,160,8,18,10.0,29.991142,1015.4,,TRUE,TRUE,,,,,,,FEW,4200,OVC,6500,,,,,VFR,-0.2,,,,,,,,,,,METAR,125.0
KCPR 060853Z AUTO 24008KT 10SM CLR 03/M02 A2985 RMK AO2 SLP069 T00331022 50002,KCPR,2023-05-06T08:53:00Z,42.9,-106.47,3.3,-2.2,240,8,,10.0,29.84941,1006.9,,TRUE,TRUE,,,,,,,CLR,,,,,,,,VFR,0.2,,,,,,,,,,,METAR,1623.0
KCOT 060853Z AUTO 10011G19KT 5SM HZ OVC012 27/23 A2987 RMK AO2 SLP105 T02670233 51005,KCOT,2023-05-06T08:53:00Z,28.45,-99.22,26.7,23.3,100,11,19,5.0,29.870079,1010.5,,TRUE,TRUE,,,,,,HZ,OVC,1200,,,,,,,MVFR,0.5,,,,,,,,,,,METAR,144.0
KCNY 060853Z AUTO 27006KT 10SM OVC095 11/M01 A2996 RMK AO2 SLP111 60000 T01061006 51013,KCNY,2023-05-06T08:53:00Z,38.77,-109.75,10.6,-0.6,270,6,,10.0,29.958662,1011.1,,TRUE,TRUE,,,,,,,OVC,9500,,,,,,,VFR,1.3,,,,,,0.005,,,,,METAR,1392.0
KCNO 060853Z AUTO 00000KT 10SM CLR 10/07 A3009 RMK AO2 SLP187 T01000072 56003,KCNO,2023-05-06T08:53:00Z,33.98,-117.62,10.0,7.2,0,0,,10.0,30.088583,1018.7,,TRUE,TRUE,,,,,,,CLR,,,,,,,,VFR,-0.3,,,,,,,,,,,METAR,191.0
KCNM 060853Z AUTO 00000KT 10SM CLR 17/M11 A2991 RMK AO2 SLP074 T01721106 50003 $,KCNM,2023-05-06T08:53:00Z,32.33,-104.25,17.2,-10.6,0,0,,10.0,29.911417,1007.4,,TRUE,TRUE,TRUE,,,,,,CLR,,,,,,,,VFR,0.3,,,,,,,,,,,METAR,993.0
KCMI 060853Z AUTO 15009KT 10SM OVC060 16/M01 A3008 RMK AO2 SLP181 T01561006 53003,KCMI,2023-05-06T08:53:00Z,40.03,-88.27,15.6,-0.6,150,9,,10.0,30.079725,1018.1,,TRUE,TRUE,,,,,,,OVC,6000,,,,,,,VFR,0.3,,,,,,,,,,,METAR,227.0
KCLM 060853Z AUTO 24005KT 10SM OVC016 09/07 A2997 RMK AO2 SLP150 T00890067 55001,KCLM,2023-05-06T08:53:00Z,48.12,-123.5,8.9,6.7,240,5,,10.0,29.970472,1015.0,,TRUE,TRUE,,,,,,,OVC,1600,,,,,,,MVFR,-0.1,,,,,,,,,,,METAR,81.0
KCLL 060853Z AUTO 19011KT 10SM CLR 20/17 A2984 RMK AO2 SLP099 60002 T02000167 56054,KCLL,2023-05-06T08:53:00Z,30.58,-96.37,20.0,16.7,190,11,,10.0,29.840551,1009.9,,TRUE,TRUE,,,,,,,CLR,,,,,,,,VFR,-5.4,,,,,,0.02,,,,,METAR,96.0
KCKB 060853Z AUTO 00000KT 10SM CLR 06/03 A3023 RMK AO2 SLP231 T00610033 53005,KCKB,2023-05-06T08:53:00Z,39.3,-80.22,6.1,3.3,0,0,,10.0,30.230314,1023.1,,TRUE,TRUE,,,,,,,CLR,,,,,,,,VFR,0.5,,,,,,,,,,,METAR,368.0
KCHO 060853Z AUTO 02003KT 10SM SCT070 BKN080 12/06 A3027 RMK AO2 SLP245 T01170061 53007,KCHO,2023-05-06T08:53:00Z,38.13,-78.45,11.7,6.1,20,3,,10.0,30.268702,1024.5,,TRUE,TRUE,,,,,,,SCT,7000,BKN,8000,,,,,VFR,0.7,,,,,,,,,,,METAR,193.0
KCHA 060853Z 00000KT 7SM OVC080 14/13 A3018 RMK AO2 SLP217 T01390128 53001,KCHA,2023-05-06T08:53:00Z,35.03,-85.2,13.9,12.8,0,0,,7.0,30.180119,1021.7,,,TRUE,,,,,,,OVC,8000,,,,,,,VFR,0.1,,,,,,,,,,,METAR,203.0
KCGI 060853Z AUTO 15008KT 10SM OVC044 16/13 A3004 RMK AO2 SLP169 T01610128 56003,KCGI,2023-05-06T08:53:00Z,37.23,-89.58,16.1,12.8,150,8,,10.0,30.041338,1016.9,,TRUE,TRUE,,,,,,,OVC,4400,,,,,,,VFR,-0.3,,,,,,,,,,,METAR,103.0
KCEZ 060853Z AUTO 20011KT 10SM SCT095 09/M04 A3004 RMK AO2 SLP122 T00891039 51011 $,KCEZ,2023-05-06T08:53:00Z,37.3,-108.63,8.9,-3.9,200,11,,10.0,30.041338,1012.2,,TRUE,TRUE,TRUE,,,,,,SCT,9500,,,,,,,VFR,1.1,,,,,,,,,,,METAR,1801.0
KCEW 060853Z AUTO 00000KT 7SM OVC070 18/16 A3010 RMK AO2 SLP189 T01780161 55002,KCEW,2023-05-06T08:53:00Z,30.78,-86.52,17.8,16.1,0,0,,7.0,30.100393,1018.9,,TRUE,TRUE,,,,,,,OVC,7000,,,,,,,VFR,-0.2,,,,,,,,,,,METAR,47.0
KCDS 060853Z AUTO 19009KT 10SM CLR 17/12 A2982 RMK AO2 SLP070 T01720117 51006,KCDS,2023-05-06T08:53:00Z,34.43,-100.28,17.2,11.7,190,9,,10.0,29.819881,1007.0,,TRUE,TRUE,,,,,,,CLR,,,,,,,,VFR,0.6,,,,,,,,,,,METAR,595.0
KCDR 060853Z AUTO 00000KT 10SM CLR 09/07 A2983 RMK AO2 SLP093 T00890067 51013,KCDR,2023-05-06T08:53:00Z,42.83,-103.1,8.9,6.7,0,0,,10.0,29.828741,1009.3,,TRUE,TRUE,,,,,,,CLR,,,,,,,,VFR,1.3,,,,,,,,,,,METAR,1002.0
KCDC 060853Z AUTO 00000KT 10SM CLR M02/M03 A3001 RMK AO2 SLP145 T10171028 58002,KCDC,2023-05-06T08:53:00Z,37.7,-113.1,-1.7,-2.8,0,0,,10.0,30.008858,1014.5,,TRUE,TRUE,,,,,,,CLR,,,,,,,,VFR,-0.2,,,,,,,,,,,METAR,1703.0
KCCR 060853Z AUTO 18005KT 10SM BKN065 OVC120 12/09 A3007 RMK AO2 SLP168 T01220089 58006,KCCR,2023-05-06T08:53:00Z,38.0,-122.05,12.2,8.9,180,5,,10.0,30.070866,1016.8,,TRUE,TRUE,,,,,,,BKN,6500,OVC,12000,,,,,VFR,-0.6,,,,,,,,,,,METAR,6.0
KCAG 060853Z AUTO 25011KT 10SM OVC100 07/M02 A2997 RMK AO2 SLP110 60000 T00671022 51008,KCAG,2023-05-06T08:53:00Z,40.5,-107.52,6.7,-2.2,250,11,,10.0,29.970472,1011.0,,TRUE,TRUE,,,,,,,OVC,10000,,,,,,,VFR,0.8,,,,,,0.005,,,,,METAR,1888.0
KBYI 060853Z AUTO 23007KT 10SM OVC036 07/03 A2993 RMK AO2 SLP122 T00670033 51000,KBYI,2023-05-06T08:53:00Z,42.55,-113.77,6.7,3.3,230,7,,10.0,29.929134,1012.2,,TRUE,TRUE,,,,,,,OVC,3600,,,,,,,VFR,0.0,,,,,,,,,,,METAR,1263.0
KBYG 060853Z AUTO 23005KT 10SM CLR 06/03 A2981 RMK AO2 SLP055 T00610028 58001,KBYG,2023-05-06T08:53:00Z,44.38,-106.72,6.1,2.8,230,5,,10.0,29.811024,1005.5,,TRUE,TRUE,,,,,,,CLR,,,,,,,,VFR,-0.1,,,,,,,,,,,METAR,1503.0
KBWG 060853Z AUTO 00000KT 10SM OVC055 15/11 A3014 RMK AO2 SLP201 T01500111 52004,KBWG,2023-05-06T08:53:00Z,36.97,-86.42,15.0,11.1,0,0,,10.0,30.138779,1020.1,,TRUE,TRUE,,,,,,,OVC,5500,,,,,,,VFR,0.4,,,,,,,,,,,METAR,159.0
KBVY 060853Z AUTO 30006KT 10SM CLR 08/04 A3015 RMK AO2 SLP205 T00830044 51001,KBVY,2023-05-06T08:53:00Z,42.58,-70.92,8.3,4.4,300,6,,10.0,30.15059,1020.5,,TRUE,TRUE,,,,,,,CLR,,,,,,,,VFR,0.1,,,,,,,,,,,METAR,28.0
KBVO 060853Z AUTO 17008KT 6SM BR OVC008 21/19 A2982 RMK AO2 SLP089 T02060194 53000,KBVO,2023-05-06T08:53:00Z,36.77,-96.02,20.6,19.4,170,8,,6.0,29.819881,1008.9,,TRUE,TRUE,,,,,,BR,OVC,800,,,,,,,IFR,0.0,,,,,,,,,,,METAR,210.0
KBUR 060853Z 00000KT 10SM CLR 11/07 A3007 RMK AO2 SLP176 T01110067 58002,KBUR,2023-05-06T08:53:00Z,34.2,-118.37,11.1,6.7,0,0,,10.0,30.070866,1017.6,,,TRUE,,,,,,,CLR,,,,,,,,VFR,-0.2,,,,,,,,,,,METAR,221.0
KBTR 060853Z AUTO 00000KT 8SM OVC019 24/23 A2998 RMK AO2 SLP149 T02440228 56007,KBTR,2023-05-06T08:53:00Z,30.53,-91.15,24.4,22.8,0,0,,8.0,29.97933,1014.9,,TRUE,TRUE,,,,,,,OVC,1900,,,,,,,MVFR,-0.7,,,,,,,,,,,METAR,20.0
KBTM 060853Z AUTO 18007KT 10SM OVC065 08/M01 A2981 RMK AO2 SLP064 T00831011 58001,KBTM,2023-05-06T08:53:00Z,45.97,-112.5,8.3,-1.1,180,7,,10.0,29.811024,1006.4,,TRUE,TRUE,,,,,,,OVC,6500,,,,,,,VFR,-0.1,,,,,,,,,,,METAR,1680.0
KBTL 060853Z AUTO 12006KT 10SM CLR 11/03 A3020 RMK AO2 SLP227 T01110028 53005,KBTL,2023-05-06T08:53:00Z,42.32,-85.25,11.1,2.8,120,6,,10.0,30.200787,1022.7,,TRUE,TRUE,,,,,,,CLR,,,,,,,,VFR,0.5,,,,,,,,,,,METAR,282.0
KBRL 060853Z AUTO 16009KT 10SM OVC019 16/11 A2997 RMK AO2 SLP144 T01560111 53003,KBRL,2023-05-06T08:53:00Z,40.77,-91.13,15.6,11.1,160,9,,10.0,29.970472,1014.4,,TRUE,TRUE,,,,,,,OVC,1900,,,,,,,MVFR,0.3,,,,,,,,,,,METAR,208.0
KBRD 060853Z AUTO 06008KT 10SM OVC021 08/05 A2999 RMK AO2 SLP159 T00830050 55004,KBRD,2023-05-06T08:53:00Z,46.4,-94.13,8.3,5.0,60,8,,10.0,29.991142,1015.9,,TRUE,TRUE,,,,,,,OVC,2100,,,,,,,MVFR,-0.4,,,,,,,,,,,METAR,372.0
KBPK 060853Z AUTO 15007KT 10SM OVC008 17/16 A2996 RMK AO2 SLP139 T01720161 58001,KBPK,2023-05-06T08:53:00Z,36.37,-92.47,17.2,16.1,150,7,,10.0,29.958662,1013.9,,TRUE,TRUE,,,,,,,OVC,800,,,,,,,IFR,-0.1,,,,,,,,,,,METAR,279.0
KBPI 060853Z AUTO 00000KT 10SM BKN070 OVC090 01/M02 A2994 RMK AO2 SLP101 T00061022 58002,KBPI,2023-05-06T08:53:00Z,42.58,-110.1,0.6,-2.2,0,0,,10.0,29.940945,1010.1,,TRUE,TRUE,,,,,,,BKN,7000,OVC,9000,,,,,VFR,-0.2,,,,,,,,,,,METAR,2120.0
KBNO 060853Z AUTO 33005KT 10SM OVC070 03/02 A2995 RMK AO2 SLP151 T00330017 50000,KBNO,2023-05-06T08:53:00Z,43.6,-118.95,3.3,1.7,330,5,,10.0,29.949802,1015.1,,TRUE,TRUE,,,,,,,OVC,7000,,,,,,,VFR,0.0,,,,,,,,,,,METAR,1263.0
KBNA 060853Z 00000KT 10SM SCT060 BKN080 15/11 A3015 RMK AO2 SLP206 T01500111 53004,KBNA,2023-05-06T08:53:00Z,36.12,-86.68,15.0,11.1,0,0,,10.0,30.15059,1020.6,,,TRUE,,,,,,,SCT,6000,BKN,8000,,,,,VFR,0.4,,,,,,,,,,,METAR,168.0
KBMQ 060853Z AUTO 17005KT 10SM CLR 18/17 A2993 RMK AO2 SLP117 T01780167 58007 $,KBMQ,2023-05-06T08:53:00Z,30.73,-98.23,17.8,16.7,170,5,,10.0,29.929134,1011.7,,TRUE,TRUE,TRUE,,,,,,CLR,,,,,,,,VFR,-0.7,,,,,,,,,,,METAR,387.0
KBMG 060853Z AUTO 13005KT 10SM OVC080 16/09 A3012 RMK AO2 SLP194 T01560094 53003,KBMG,2023-05-06T08:53:00Z,39.15,-86.62,15.6,9.4,130,5,,10.0,30.121063,1019.4,,TRUE,TRUE,,,,,,,OVC,8000,,,,,,,VFR,0.3,,,,,,,,,,,METAR,254.0
KBKV 060853Z AUTO 06005KT 10SM BKN036 21/15 A3008 RMK AO2 SLP185 T02110150 56010,KBKV,2023-05-06T08:53:00Z,28.47,-82.45,21.1,15.0,60,5,,10.0,30.079725,1018.5,,TRUE,TRUE,,,,,,,BKN,3600,,,,,,,VFR,-1.0,,,,,,,,,,,METAR,21.0
KBKL 060853Z AUTO 00000KT 10SM CLR 10/03 A3025 RMK AO2 SLP245 T01000028 53002,KBKL,2023-05-06T08:53:00Z,41.53,-81.67,10.0,2.8,0,0,,10.0,30.250984,1024.5,,TRUE,TRUE,,,,,,,CLR,,,,,,,,VFR,0.2,,,,,,,,,,,METAR,177.0
KBKE 060853Z AUTO 00000KT 10SM OVC026 06/04 A2992 RMK AO2 SLP136 60000 T00560039 53001,KBKE,2023-05-06T08:53:00Z,44.85,-117.82,5.6,3.9,0,0,,10.0,29.920275,1013.6,,TRUE,TRUE,,,,,,,OVC,2600,,,,,,,MVFR,0.1,,,,,,0.005,,,,,METAR,1025.0
KBIV 060853Z AUTO 13010KT 10SM CLR 12/03 A3016 RMK AO2 SLP214 T01220033 53006,KBIV,2023-05-06T08:53:00Z,42.75,-86.1,12.2,3.3,130,10,,10.0,30.159449,1021.4,,TRUE,TRUE,,,,,,,CLR,,,,,,,,VFR,0.6,,,,,,,,,,,METAR,207.0
KBIL 060853Z 20005KT 10SM R10L/2600VP6000FT FEW010 SCT100 07/07 A2980 RMK AO2 SLP084 VIS LWR NE-E T00720067 56006 $,KBIL,2023-05-06T08:53:00Z,45.8,-108.55,7.2,6.7,200,5,,10.0,29.799213,1008.4,,,TRUE,TRUE,,,,,,FEW,1000,SCT,10000,,,,,VFR,-0.6,,,,,,,,,,,METAR,1089.0
KBHM 060853Z VRB04KT 10SM OVC039 17/12 A3014 RMK AO2 SLP202 T01670117 55002,KBHM,2023-05-06T08:53:00Z,33.57,-86.75,16.7,11.7,0,4,,10.0,30.138779,1020.2,,,TRUE,,,,,,,OVC,3900,,,,,,,VFR,-0.2,,,,,,,,,,,METAR,191.0
KBGR 060853Z 00000KT 10SM FEW150 FEW250 05/02 A3006 RMK AO2 SLP179 T00500017 57005,KBGR,2023-05-06T08:53:00Z,44.8,-68.82,5.0,1.7,0,0,,10.0,30.059055,1017.9,,,TRUE,,,,,,,FEW,15000,FEW,25000,,,,,VFR,-0.5,,,,,,,,,,,METAR,45.0
KBGM 060853Z AUTO 28005KT 10SM CLR 05/03 A3028 RMK AO2 SLP259 T00500033 53007,KBGM,2023-05-06T08:53:00Z,42.22,-75.98,5.0,3.3,280,5,,10.0,30.280512,1025.9,,TRUE,TRUE,,,,,,,CLR,,,,,,,,VFR,0.7,,,,,,,,,,,METAR,485.0
KBFI 060853Z AUTO 00000KT 10SM OVC018 09/08 A2997 RMK AO2 SLP147 T00890078 57002,KBFI,2023-05-06T08:53:00Z,47.55,-122.32,8.9,7.8,0,0,,10.0,29.970472,1014.7,,TRUE,TRUE,,,,,,,OVC,1800,,,,,,,MVFR,-0.2,,,,,,,,,,,METAR,7.0
KBFD 060853Z AUTO 00000KT 10SM CLR 02/M01 A3029 RMK AO2 SLP264 T00171006 53004,KBFD,2023-05-06T08:53:00Z,41.8,-78.63,1.7,-0.6,0,0,,10.0,30.28937,1026.4,,TRUE,TRUE,,,,,,,CLR,,,,,,,,VFR,0.4,,,,,,,,,,,METAR,642.0
KBEH 060853Z AUTO 12009KT 10SM CLR 12/05 A3014 RMK AO2 SLP205 T01220050 53006,KBEH,2023-05-06T08:53:00Z,42.13,-86.42,12.2,5.0,120,9,,10.0,30.138779,1020.5,,TRUE,TRUE,,,,,,,CLR,,,,,,,,VFR,0.6,,,,,,,,,,,METAR,196.0
KBDE 060853Z AUTO 08010KT 10SM OVC024 09/03 A3008 RMK AO2 SLP190 T00940033 56008,KBDE,2023-05-06T08:53:00Z,48.73,-94.62,9.4,3.3,80,10,,10.0,30.079725,1019.0,,TRUE,TRUE,,,,,,,OVC,2400,,,,,,,MVFR,-0.8,,,,,,,,,,,METAR,330.0
KBCE 060853Z AUTO 00000KT 10SM CLR M04/M06 A3007 RMK AO2 SLP139 T10391061 50000 $,KBCE,2023-05-06T08:53:00Z,37.7,-112.15,-3.9,-6.1,0,0,,10.0,30.070866,1013.9,,TRUE,TRUE,TRUE,,,,,,CLR,,,,,,,,VFR,0.0,,,,,,,,,,,METAR,2311.0
KBBW 060853Z AUTO 23005KT 10SM CLR 12/12 A2974 RMK AO2 LTG DSNT E-S SLP055 60009 T01170117 55029 $,KBBW,2023-05-06T08:53:00Z,41.43,-99.63,11.7,11.7,230,5,,10.0,29.740158,1005.5,,TRUE,TRUE,TRUE,,,,,,CLR,,,,,,,,VFR,-2.9,,,,,,0.09,,,,,METAR,771.0
KAZO 060853Z AUTO 12003KT 10SM CLR 12/03 A3020 RMK AO2 SLP225 T01170033 53006,KAZO,2023-05-06T08:53:00Z,42.23,-85.55,11.7,3.3,120,3,,10.0,30.200787,1022.5,,TRUE,TRUE,,,,,,,CLR,,,,,,,,VFR,0.6,,,,,,,,,,,METAR,264.0
KAXN 060853Z AUTO 08014G20KT 10SM OVC012 09/05 A2994 RMK AO2 SLP140 T00890050 56003,KAXN,2023-05-06T08:53:00Z,45.87,-95.4,8.9,5.0,80,14,20,10.0,29.940945,1014.0,,TRUE,TRUE,,,,,,,OVC,1200,,,,,,,MVFR,-0.3,,,,,,,,,,,METAR,433.0
KAUS 060853Z 16005KT 10SM SCT026 SCT120 19/17 A2991 RMK AO2 SLP120 T01940167 56022,KAUS,2023-05-06T08:53:00Z,30.18,-97.68,19.4,16.7,160,5,,10.0,29.911417,1012.0,,,TRUE,,,,,,,SCT,2600,SCT,12000,,,,,VFR,-2.2,,,,,,,,,,,METAR,148.0
KAUO 060853Z AUTO 09005KT 10SM SCT055 BKN080 16/13 A3016 RMK AO2 SLP206 T01560133 55001,KAUO,2023-05-06T08:53:00Z,32.62,-85.43,15.6,13.3,90,5,,10.0,30.159449,1020.6,,TRUE,TRUE,,,,,,,SCT,5500,BKN,8000,,,,,VFR,-0.1,,,,,,,,,,,METAR,231.0
KAUG 060853Z AUTO 29007KT 10SM CLR 09/03 A3010 RMK AO2 SLP193 T00940028 58004,KAUG,2023-05-06T08:53:00Z,44.32,-69.8,9.4,2.8,290,7,,10.0,30.100393,1019.3,,TRUE,TRUE,,,,,,,CLR,,,,,,,,VFR,-0.4,,,,,,,,,,,METAR,107.0
KATY 060853Z AUTO 07006KT 5SM BR OVC004 12/12 A2984 RMK AO2 SLP101 T01220117 56003,KATY,2023-05-06T08:53:00Z,44.9,-97.15,12.2,11.7,70,6,,5.0,29.840551,1010.1,,TRUE,TRUE,,,,,,BR,OVC,400,,,,,,,LIFR,-0.3,,,,,,,,,,,METAR,531.0
KASX 060853Z AUTO 02007KT 1/2SM FG VV002 04/03 A3006 RMK AO2 SLP187 T00390033 58004,KASX,2023-05-06T08:53:00Z,46.55,-90.92,3.9,3.3,20,7,,0.5,30.059055,1018.7,,TRUE,TRUE,,,,,,FG,OVX,0,,,,,,,LIFR,-0.4,,,,,,,,,,200,METAR,249.0
KASD 060853Z AUTO 00000KT 9SM OVC007 23/22 A3001 RMK AO2 CIG 005V010 SLP160 T02280217 55006,KASD,2023-05-06T08:53:00Z,30.35,-89.82,22.8,21.7,0,0,,9.0,30.008858,1016.0,,TRUE,TRUE,,,,,,,OVC,700,,,,,,,IFR,-0.6,,,,,,,,,,,METAR,8.0
KARB 060853Z AUTO 05003KT 10SM CLR 04/02 A3024 RMK AO2 SLP243 T00440022 53000,KARB,2023-05-06T08:53:00Z,42.22,-83.73,4.4,2.2,50,3,,10.0,30.239174,1024.3,,TRUE,TRUE,,,,,,,CLR,,,,,,,,VFR,0.0,,,,,,,,,,,METAR,251.0
KAPF 060853Z AUTO 07003KT 10SM CLR 22/19 A3005 RMK AO2 SLP174 T02220194 55003 PWINO,KAPF,2023-05-06T08:53:00Z,26.15,-81.77,22.2,19.4,70,3,,10.0,30.050198,1017.4,,TRUE,TRUE,,,,,TRUE,,CLR,,,,,,,,VFR,-0.3,,,,,,,,,,,METAR,2.0
KAPA 060853Z 11006KT 10SM CLR 04/M02 A2989 RMK AO2 SLP081 T00441017 58006,KAPA,2023-05-06T08:53:00Z,39.57,-104.85,4.4,-1.7,110,6,,10.0,29.890747,1008.1,,,TRUE,,,,,,,CLR,,,,,,,,VFR,-0.6,,,,,,,,,,,METAR,1791.0
KAOO 060853Z AUTO 00000KT 10SM CLR 06/04 A3029 RMK AO2 SLP261 T00560039 53004,KAOO,2023-05-06T08:53:00Z,40.3,-78.32,5.6,3.9,0,0,,10.0,30.28937,1026.1,,TRUE,TRUE,,,,,,,CLR,,,,,,,,VFR,0.4,,,,,,,,,,,METAR,450.0
KAOH 060853Z AUTO 11008KT 10SM CLR 09/06 A3020 RMK AO2 SLP224 T00940056 53003,KAOH,2023-05-06T08:53:00Z,40.7,-84.02,9.4,5.6,110,8,,10.0,30.200787,1022.4,,TRUE,TRUE,,,,,,,CLR,,,,,,,,VFR,0.3,,,,,,,,,,,METAR,294.0
KANB 060853Z AUTO 05007KT 10SM OVC046 16/13 A3015 RMK AO2 SLP209 60000 T01560128 55002,KANB,2023-05-06T08:53:00Z,33.58,-85.85,15.6,12.8,50,7,,10.0,30.15059,1020.9,,TRUE,TRUE,,,,,,,OVC,4600,,,,,,,VFR,-0.2,,,,,,0.005,,,,,METAR,187.0
KAMW 060853Z AUTO 13007KT 10SM OVC038 15/13 A2987 RMK AO2 SLP109 T01500128 51002,KAMW,2023-05-06T08:53:00Z,41.98,-93.62,15.0,12.8,130,7,,10.0,29.870079,1010.9,,TRUE,TRUE,,,,,,,OVC,3800,,,,,,,VFR,0.2,,,,,,,,,,,METAR,282.0
KAMG 060853Z AUTO VRB03KT 10SM OVC080 18/16 A3015 RMK AO2 SLP206 60000 T01780161 55002,KAMG,2023-05-06T08:53:00Z,31.53,-82.5,17.8,16.1,0,3,,10.0,30.15059,1020.6,,TRUE,TRUE,,,,,,,OVC,8000,,,,,,,VFR,-0.2,,,,,,0.005,,,,,METAR,61.0
KAMA 060853Z AUTO 25012KT 10SM CLR 17/M06 A2986 RMK AO2 SLP056 T01721061 51002,KAMA,2023-05-06T08:53:00Z,35.22,-101.72,17.2,-6.1,250,12,,10.0,29.861221,1005.6,,TRUE,TRUE,,,,,,,CLR,,,,,,,,VFR,0.2,,,,,,,,,,,METAR,1102.0
KALW 060853Z AUTO 19011KT 10SM OVC025 10/05 A2991 RMK AO2 SLP132 T01000050 50000,KALW,2023-05-06T08:53:00Z,46.1,-118.28,10.0,5.0,190,11,,10.0,29.911417,1013.2,,TRUE,TRUE,,,,,,,OVC,2500,,,,,,,MVFR,0.0,,,,,,,,,,,METAR,355.0
KALI 060853Z AUTO 12007KT 3SM BR BKN019 24/24 A2986 RMK AO2 SLP109 T02390239 58001,KALI,2023-05-06T08:53:00Z,27.73,-98.02,23.9,23.9,120,7,,3.0,29.861221,1010.9,,TRUE,TRUE,,,,,,BR,BKN,1900,,,,,,,MVFR,-0.1,,,,,,,,,,,METAR,52.0
KAKO 060853Z AUTO 28005KT 10SM CLR 04/03 A2986 RMK AO2 SLP081 T00440033 51002,KAKO,2023-05-06T08:53:00Z,40.17,-103.22,4.4,3.3,280,5,,10.0,29.861221,1008.1,,TRUE,TRUE,,,,,,,CLR,,,,,,,,VFR,0.2,,,,,,,,,,,METAR,1431.0
KAIA 060853Z AUTO 20006KT 5SM BR BKN004 08/07 A2983 RMK AO2 SLP075 T00780072 55003,KAIA,2023-05-06T08:53:00Z,42.05,-102.8,7.8,7.2,200,6,,5.0,29.828741,1007.5,,TRUE,TRUE,,,,,,BR,BKN,400,,,,,,,LIFR,-0.3,,,,,,,,,,,METAR,1198.0
KAGS 060853Z AUTO 00000KT 8SM OVC090 15/14 A3018 RMK AO2 SLP219 60000 T01500144 55000,KAGS,2023-05-06T08:53:00Z,33.37,-81.97,15.0,14.4,0,0,,8.0,30.180119,1021.9,,TRUE,TRUE,,,,,,,OVC,9000,,,,,,,VFR,0.0,,,,,,0.005,,,,,METAR,40.0
KAGC 060853Z 07005KT 10SM CLR 08/04 A3025 RMK AO2 SLP246 T00830039 53004,KAGC,2023-05-06T08:53:00Z,40.35,-79.92,8.3,3.9,70,5,,10.0,30.250984,1024.6,,,TRUE,,,,,,,CLR,,,,,,,,VFR,0.4,,,,,,,,,,,METAR,380.0
KAFW 060853Z 16008KT 10SM SCT250 22/13 A2982 RMK AO2 SLP080 T02170128 53000,KAFW,2023-05-06T08:53:00Z,32.97,-97.32,21.7,12.8,160,8,,10.0,29.819881,1008.0,,,TRUE,,,,,,,SCT,25000,,,,,,,VFR,0.0,,,,,,,,,,,METAR,208.0
KADG 060853Z AUTO 09006KT 10SM CLR 09/04 A3024 RMK AO2 SLP241 T00890044 53001,KADG,2023-05-06T08:53:00Z,41.87,-84.08,8.9,4.4,90,6,,10.0,30.239174,1024.1,,TRUE,TRUE,,,,,,,CLR,,,,,,,,VFR,0.1,,,,,,,,,,,METAR,244.0
KACV 060853Z AUTO 00000KT 10SM FEW005 BKN020 OVC026 09/09 A3002 RMK AO2 RAE05 SLP172 P0000 60019 T00940089 58002,KACV,2023-05-06T08:53:00Z,40.98,-124.1,9.4,8.9,0,0,,10.0,30.02067,1017.2,,TRUE,TRUE,,,,,,,FEW,500,BKN,2000,OVC,2600,,,MVFR,-0.2,,,,,0.005,0.19,,,,,METAR,63.0
KACK 060853Z AUTO 29008KT 10SM CLR 09/08 A3014 RMK AO2 SLP207 T00940078 56006,KACK,2023-05-06T08:53:00Z,41.25,-70.07,9.4,7.8,290,8,,10.0,30.138779,1020.7,,TRUE,TRUE,,,,,,,CLR,,,,,,,,VFR,-0.6,,,,,,,,,,,METAR,12.0
KABY 060853Z AUTO 07005KT 10SM OVC090 18/14 A3014 RMK AO2 SLP206 T01830144 55001,KABY,2023-05-06T08:53:00Z,31.53,-84.2,18.3,14.4,70,5,,10.0,30.138779,1020.6,,TRUE,TRUE,,,,,,,OVC,9000,,,,,,,VFR,-0.1,,,,,,,,,,,METAR,60.0
KABR 060853Z AUTO 09010KT 8SM OVC026 14/12 A2983 RMK AO2 SLP096 T01440117 58001,KABR,2023-05-06T08:53:00Z,45.45,-98.42,14.4,11.7,90,10,,8.0,29.828741,1009.6,,TRUE,TRUE,,,,,,,OVC,2600,,,,,,,MVFR,-0.1,,,,,,,,,,,METAR,397.0
KAAF 060853Z AUTO 00000KT 10SM CLR 18/17 A3007 RMK AO2 SLP183 T01780167 56002,KAAF,2023-05-06T08:53:00Z,29.73,-85.03,17.8,16.7,0,0,,10.0,30.070866,1018.3,,TRUE,TRUE,,,,,,,CLR,,,,,,,,VFR,-0.2,,,,,,,,,,,METAR,5.0
PTYA 060852Z VRB06KT 12SM SCT016CB BKN120 OVC300 26/25 A2969 RMK CB E-S SLP054 8/378 T02610250 53005,PTYA,2023-05-06T08:52:00Z,9.48,138.08,26.1,25.0,0,6,,12.0,29.68996,1005.4,,,,,,,,,,SCT,1600,BKN,12000,OVC,30000,,,VFR,0.5,,,,,,,,,,,METAR,4.0
PKMR 060852Z 07006KT 15SM FEW015 SCT050 BKN120 OVC300 28/25 A2978 RMK SLP088 8/878 T02790252 52027,PKMR,2023-05-06T08:52:00Z,7.08,171.38,27.9,25.2,70,6,,15.0,29.778543,1008.8,,,,,,,,,,FEW,1500,SCT,5000,BKN,12000,OVC,30000,VFR,2.7,,,,,,,,,,,METAR,7.0
PGWT 060852Z 08012KT 7SM FEW017 SCT030 SCT060 BKN080 BKN140 28/23 RMK LAST,PGWT,2023-05-06T08:52:00Z,14.98,145.62,28.0,23.0,80,12,,7.0,,,,,,,,,,,,FEW,1700,SCT,3000,SCT,6000,BKN,8000,VFR,,,,,,,,,,,,METAR,84.0
PATA 060852Z AUTO 32004KT 10SM BKN110 01/M03 A2981 RMK AO2 SLP100 T00111033 401171033 58005 TSNO,PATA,2023-05-06T08:52:00Z,65.17,-152.1,1.1,-3.3,320,4,,10.0,29.811024,1010.0,,TRUE,TRUE,,,TRUE,,,,BKN,11000,,,,,,,VFR,-0.5,,,11.7,-3.3,,,,,,,METAR,62.0
PAHO 060852Z AUTO 00000KT 10SM FEW009 BKN012 OVC070 04/02 A2987 RMK AO2 SLP117 T00440017 400890039 51007 TSNO,PAHO,2023-05-06T08:52:00Z,59.63,-151.48,4.4,1.7,0,0,,10.0,29.870079,1011.7,,TRUE,TRUE,,,TRUE,,,,FEW,900,BKN,1200,OVC,7000,,,MVFR,0.7,,,8.9,3.9,,,,,,,METAR,6.0
KVTN 060852Z AUTO 20006KT 10SM CLR 11/10 A2974 RMK AO2 SLP062 T01060100 51007,KVTN,2023-05-06T08:52:00Z,42.87,-100.55,10.6,10.0,200,6,,10.0,29.740158,1006.2,,TRUE,TRUE,,,,,,,CLR,,,,,,,,VFR,0.7,,,,,,,,,,,METAR,790.0
KTRM 060852Z AUTO 32014G19KT 9SM CLR 17/06 A2993 RMK AO2 SLP137 T01670061 50002 $,KTRM,2023-05-06T08:52:00Z,33.63,-116.17,16.7,6.1,320,14,19,9.0,29.929134,1013.7,,TRUE,TRUE,TRUE,,,,,,CLR,,,,,,,,VFR,0.2,,,,,,,,,,,METAR,-39.0
KTOL 060852Z 10007KT 10SM CLR 10/04 A3023 RMK AO2 SLP235 T01000039 53003,KTOL,2023-05-06T08:52:00Z,41.58,-83.8,10.0,3.9,100,7,,10.0,30.230314,1023.5,,,TRUE,,,,,,,CLR,,,,,,,,VFR,0.3,,,,,,,,,,,METAR,206.0
KTAN 060852Z AUTO 00000KT 10SM CLR 04/03 A3016 RMK AO2 SLP214 T00390028 57002,KTAN,2023-05-06T08:52:00Z,41.88,-71.02,3.9,2.8,0,0,,10.0,30.159449,1021.4,,TRUE,TRUE,,,,,,,CLR,,,,,,,,VFR,-0.2,,,,,,,,,,,SPECI,8.0
KSPS 060852Z AUTO 22010KT 10SM CLR 21/13 A2980 RMK AO2 SLP076 T02060133 53004 $,KSPS,2023-05-06T08:52:00Z,33.98,-98.5,20.6,13.3,220,10,,10.0,29.799213,1007.6,,TRUE,TRUE,TRUE,,,,,,CLR,,,,,,,,VFR,0.4,,,,,,,,,,,METAR,310.0
KREO 060852Z AUTO 19004KT 06/05 A2993 RMK AO1 SLP140 P0001 60001 T00560050 50000,KREO,2023-05-06T08:52:00Z,42.58,-117.87,5.6,5.0,190,4,,,29.929134,1014.0,,TRUE,TRUE,,,,,,,,,,,,,,,,0.0,,,,,0.01,,,,,,SPECI,1237.0
KRAP 060852Z AUTO 21003KT 10SM FEW065 BKN090 OVC110 12/08 A2982 RMK AO2 SLP085 60000 T01170078 53011,KRAP,2023-05-06T08:52:00Z,44.05,-103.05,11.7,7.8,210,3,,10.0,29.819881,1008.5,,TRUE,TRUE,,,,,,,FEW,6500,BKN,9000,OVC,11000,,,VFR,1.1,,,,,,0.005,,,,,METAR,965.0
KPYM 060852Z AUTO 28004KT 10SM CLR 07/05 A3015 RMK AO2 SLP212 T00670050 56002,KPYM,2023-05-06T08:52:00Z,41.92,-70.73,6.7,5.0,280,4,,10.0,30.15059,1021.2,,TRUE,TRUE,,,,,,,CLR,,,,,,,,VFR,-0.2,,,,,,,,,,,METAR,42.0
KPWK 060852Z AUTO 14006KT 10SM SCT095 18/06 A3009 RMK AO2 SLP185 T01780061 51006,KPWK,2023-05-06T08:52:00Z,42.12,-87.9,17.8,6.1,140,6,,10.0,30.088583,1018.5,,TRUE,TRUE,,,,,,,SCT,9500,,,,,,,VFR,0.6,,,,,,,,,,,SPECI,194.0
KP69 060852Z AUTO 00000KT 09/09 A2987 RMK AO1 SLP105 T00940089 55001,KP69,2023-05-06T08:52:00Z,46.15,-115.6,9.4,8.9,0,0,,,29.870079,1010.5,,TRUE,TRUE,,,,,,,,,,,,,,,,-0.1,,,,,,,,,,,SPECI,447.0
KORE 060852Z AUTO 00000KT 1/4SM FG VV002 02/01 A3023 RMK AO2 SLP238 T00220011 53004,KORE,2023-05-06T08:52:00Z,42.57,-72.28,2.2,1.1,0,0,,0.25,30.230314,1023.8,,TRUE,TRUE,,,,,,FG,OVX,0,,,,,,,LIFR,0.4,,,,,,,,,,200,METAR,165.0
KOMA 060852Z 00000KT 8SM BKN036 OVC055 15/14 A2983 RMK AO2 LTG DSNT N AND W SLP099 T01500144 53009,KOMA,2023-05-06T08:52:00Z,41.32,-95.9,15.0,14.4,0,0,,8.0,29.828741,1009.9,,,TRUE,,,,,,,BKN,3600,OVC,5500,,,,,VFR,0.9,,,,,,,,,,,METAR,299.0
KOKC 060852Z 18008KT 6SM BR CLR 21/20 A2979 RMK AO2 SLP073 T02060200 51001,KOKC,2023-05-06T08:52:00Z,35.38,-97.6,20.6,20.0,180,8,,6.0,29.790354,1007.3,,,TRUE,,,,,,BR,CLR,,,,,,,,VFR,0.1,,,,,,,,,,,METAR,391.0
KOKB 060852Z AUTO 00000KT 10SM CLR 09/08 A3007 RMK AO2 SLP180 T00940083 58009,KOKB,2023-05-06T08:52:00Z,33.22,-117.35,9.4,8.3,0,0,,10.0,30.070866,1018.0,,TRUE,TRUE,,,,,,,CLR,,,,,,,,VFR,-0.9,,,,,,,,,,,METAR,7.0
KNZY 060852Z AUTO 02003KT 10SM CLR 14/11 A3006 RMK AO2 SLP180 T01440106 58010,KNZY,2023-05-06T08:52:00Z,32.7,-117.22,14.4,10.6,20,3,,10.0,30.059055,1018.0,,TRUE,TRUE,,,,,,,CLR,,,,,,,,VFR,-1.0,,,,,,,,,,,METAR,4.0
KNHK 060852Z AUTO 25005KT 10SM CLR 10/08 A3026 RMK AO2 SLP247 T01000078 53005 $,KNHK,2023-05-06T08:52:00Z,38.28,-76.4,10.0,7.8,250,5,,10.0,30.259842,1024.7,,TRUE,TRUE,TRUE,,,,,,CLR,,,,,,,,VFR,0.5,,,,,,,,,,,METAR,5.0
KNFW 060852Z AUTO 13004KT CLR 22/12 A2983 RMK AO2 SLP085 T02220122 53002 TSNO CHINO S VISNO S $,KNFW,2023-05-06T08:52:00Z,32.78,-97.43,22.2,12.2,130,4,,,29.828741,1008.5,,TRUE,TRUE,TRUE,,TRUE,,,,CLR,,,,,,,,,0.2,,,,,,,,,,,METAR,188.0
KNFG 060852Z AUTO 12003KT 10SM CLR 11/08 A3008 RMK AO2 SLP184 T01060083 58008 $,KNFG,2023-05-06T08:52:00Z,33.3,-117.35,10.6,8.3,120,3,,10.0,30.079725,1018.4,,TRUE,TRUE,TRUE,,,,,,CLR,,,,,,,,VFR,-0.8,,,,,,,,,,,SPECI,21.0
KN60 060852Z AUTO 06008KT 08/04 A2992 RMK AO1 SLP134 T00780044 56011,KN60,2023-05-06T08:52:00Z,47.65,-101.43,7.8,4.4,60,8,,,29.920275,1013.4,,TRUE,TRUE,,,,,,,,,,,,,,,,-1.1,,,,,,,,,,,METAR,582.0
KMWH 060852Z AUTO 17004KT 10SM OVC049 11/06 A2985 RMK AO2 SLP107 T01110056 53002,KMWH,2023-05-06T08:52:00Z,47.2,-119.32,11.1,5.6,170,4,,10.0,29.84941,1010.7,,TRUE,TRUE,,,,,,,OVC,4900,,,,,,,VFR,0.2,,,,,,,,,,,METAR,355.0
KMLI 060852Z AUTO 14007KT 10SM OVC028 17/11 A2998 RMK AO2 SLP149 60001 T01670111 55002,KMLI,2023-05-06T08:52:00Z,41.45,-90.52,16.7,11.1,140,7,,10.0,29.97933,1014.9,,TRUE,TRUE,,,,,,,OVC,2800,,,,,,,MVFR,-0.2,,,,,,0.01,,,,,METAR,174.0
KMLF 060852Z AUTO 16005KT 10SM CLR 01/M02 A2998 RMK AO2 SLP136 T00061017 58003,KMLF,2023-05-06T08:52:00Z,38.42,-113.02,0.6,-1.7,160,5,,10.0,29.97933,1013.6,,TRUE,TRUE,,,,,,,CLR,,,,,,,,VFR,-0.3,,,,,,,,,,,SPECI,1537.0
KMKE 060852Z 15011KT 10SM OVC085 14/06 A3008 RMK AO2 SLP186 T01440061 51008,KMKE,2023-05-06T08:52:00Z,42.95,-87.9,14.4,6.1,150,11,,10.0,30.079725,1018.6,,,TRUE,,,,,,,OVC,8500,,,,,,,VFR,0.8,,,,,,,,,,,METAR,203.0
KMHK 060852Z AUTO 15010G16KT 9SM OVC011 20/17 A2974 RMK AO2 SLP061 T02000167 58008,KMHK,2023-05-06T08:52:00Z,39.13,-96.68,20.0,16.7,150,10,16,9.0,29.740158,1006.1,,TRUE,TRUE,,,,,,,OVC,1100,,,,,,,MVFR,-0.8,,,,,,,,,,,METAR,320.0
KMFD 060852Z 12007KT 10SM CLR 09/03 A3024 RMK AO2 SLP239 T00890033 53003,KMFD,2023-05-06T08:52:00Z,40.82,-82.52,8.9,3.3,120,7,,10.0,30.239174,1023.9,,,TRUE,,,,,,,CLR,,,,,,,,VFR,0.3,,,,,,,,,,,METAR,394.0
KMEB 060852Z AUTO 00000KT 10SM CLR 12/10 A3022 RMK AO2 SLP234 T01220100 53007,KMEB,2023-05-06T08:52:00Z,34.78,-79.37,12.2,10.0,0,0,,10.0,30.221457,1023.4,,TRUE,TRUE,,,,,,,CLR,,,,,,,,VFR,0.7,,,,,,,,,,,METAR,65.0
KMDH 060852Z AUTO 15006KT 10SM FEW065 15/12 A3004 RMK AO2 SLP170 T01500117 58001,KMDH,2023-05-06T08:52:00Z,37.78,-89.25,15.0,11.7,150,6,,10.0,30.041338,1017.0,,TRUE,TRUE,,,,,,,FEW,6500,,,,,,,VFR,-0.1,,,,,,,,,,,METAR,122.0
KMBG 060852Z AUTO 07018G26KT 10SM CLR 12/04 A2975 RMK AO2 PK WND 07027/0842 SLP068 T01220044 58021,KMBG,2023-05-06T08:52:00Z,45.55,-100.42,12.2,4.4,70,18,26,10.0,29.749016,1006.8,,TRUE,TRUE,,,,,,,CLR,,,,,,,,VFR,-2.1,,,,,,,,,,,METAR,515.0
KIOW 060852Z AUTO 13009KT 10SM OVC028 14/12 A2995 RMK AO2 SLP142 T01440117 50000,KIOW,2023-05-06T08:52:00Z,41.63,-91.55,14.4,11.7,130,9,,10.0,29.949802,1014.2,,TRUE,TRUE,,,,,,,OVC,2800,,,,,,,MVFR,0.0,,,,,,,,,,,METAR,199.0
KIJD 060852Z AUTO 00000KT 1/4SM FG VV001 04/03 A3022 RMK AO2 SLP232 T00390033 53003 $,KIJD,2023-05-06T08:52:00Z,41.75,-72.18,3.9,3.3,0,0,,0.25,30.221457,1023.2,,TRUE,TRUE,TRUE,,,,,FG,OVX,0,,,,,,,LIFR,0.3,,,,,,,,,,100,METAR,73.0
KIEN 060852Z AUTO 23005KT 10SM CLR 08/07 A2983 RMK AO2 SLP085 6//// T00830072 51013 PNO $,KIEN,2023-05-06T08:52:00Z,43.03,-102.52,8.3,7.2,230,5,,10.0,29.828741,1008.5,,TRUE,TRUE,TRUE,,,,,,CLR,,,,,,,,VFR,1.3,,,,,,,,,,,METAR,1002.0
KIAD 060852Z 00000KT 10SM FEW100 07/05 A3028 RMK AO2 SLP254 T00670050 53007,KIAD,2023-05-06T08:52:00Z,38.93,-77.45,6.7,5.0,0,0,,10.0,30.280512,1025.4,,,TRUE,,,,,,,FEW,10000,,,,,,,VFR,0.7,,,,,,,,,,,METAR,90.0
KHUT 060852Z AUTO 19013G23KT 6SM BR CLR 21/21 A2969 RMK AO2 SLP033 T02110206 56012,KHUT,2023-05-06T08:52:00Z,38.07,-97.87,21.1,20.6,190,13,23,6.0,29.68996,1003.3,,TRUE,TRUE,,,,,,BR,CLR,,,,,,,,VFR,-1.2,,,,,,,,,,,METAR,464.0
KHIE 060852Z AUTO 00000KT 10SM CLR M01/M02 A3020 RMK AO2 SLP233 T10061017 51001,KHIE,2023-05-06T08:52:00Z,44.37,-71.55,-0.6,-1.7,0,0,,10.0,30.200787,1023.3,,TRUE,TRUE,,,,,,,CLR,,,,,,,,VFR,0.1,,,,,,,,,,,METAR,321.0
KGLS 060852Z AUTO 34004KT 10SM FEW011 BKN034 OVC041 25/24 A2998 RMK AO2 SLP151 T02500239 58003,KGLS,2023-05-06T08:52:00Z,29.27,-94.87,25.0,23.9,340,4,,10.0,29.97933,1015.1,,TRUE,TRUE,,,,,,,FEW,1100,BKN,3400,OVC,4100,,,VFR,-0.3,,,,,,,,,,,METAR,2.0
KEST 060852Z AUTO 12011KT 7SM FEW006 OVC018 15/13 A2986 RMK AO2 SLP106 T01500133 55006,KEST,2023-05-06T08:52:00Z,43.4,-94.75,15.0,13.3,120,11,,7.0,29.861221,1010.6,,TRUE,TRUE,,,,,,,FEW,600,OVC,1800,,,,,MVFR,-0.6,,,,,,,,,,,METAR,401.0
KDVN 060852Z AUTO 12007KT 10SM OVC026 14/ A3000 RMK AO2 SLP153 60004 T0144 55001 $,KDVN,2023-05-06T08:52:00Z,41.62,-90.58,14.4,,120,7,,10.0,30.0,1015.3,,TRUE,TRUE,TRUE,,,,,,OVC,2600,,,,,,,MVFR,-0.1,,,,,,0.04,,,,,METAR,227.0
KDPA 060852Z 12007KT 10SM OVC085 17/07 A3006 RMK AO2 SLP177 T01670067 52005,KDPA,2023-05-06T08:52:00Z,41.88,-88.25,16.7,6.7,120,7,,10.0,30.059055,1017.7,,,TRUE,,,,,,,OVC,8500,,,,,,,VFR,0.5,,,,,,,,,,,METAR,228.0
KDDC 060852Z AUTO 21008KT 10SM CLR 12/07 A2973 RMK AO2 SLP043 T01220067 51005 $,KDDC,2023-05-06T08:52:00Z,37.77,-99.97,12.2,6.7,210,8,,10.0,29.731298,1004.3,,TRUE,TRUE,TRUE,,,,,,CLR,,,,,,,,VFR,0.5,,,,,,,,,,,METAR,786.0
KDCA 060852Z 00000KT 10SM FEW120 12/07 A3028 RMK AO2 SLP252 T01170072 51006 $,KDCA,2023-05-06T08:52:00Z,38.85,-77.03,11.7,7.2,0,0,,10.0,30.280512,1025.2,,,TRUE,TRUE,,,,,,FEW,12000,,,,,,,VFR,0.6,,,,,,,,,,,METAR,4.0
KCVG 060852Z 09006KT 10SM FEW190 12/06 A3017 RMK AO2 SLP211 T01170056 51007,KCVG,2023-05-06T08:52:00Z,39.05,-84.67,11.7,5.6,90,6,,10.0,30.171259,1021.1,,,TRUE,,,,,,,FEW,19000,,,,,,,VFR,0.7,,,,,,,,,,,METAR,264.0
KCQX 060852Z AUTO 30007KT 10SM CLR 11/07 A3014 RMK AO2 SLP206 T01060072 56004,KCQX,2023-05-06T08:52:00Z,41.68,-70.0,10.6,7.2,300,7,,10.0,30.138779,1020.6,,TRUE,TRUE,,,,,,,CLR,,,,,,,,VFR,-0.4,,,,,,,,,,,METAR,17.0
KCNU 060852Z AUTO 14009KT 5SM BR OVC007 20/19 A2981 RMK AO2 SLP086 T02000189 56005,KCNU,2023-05-06T08:52:00Z,37.67,-95.48,20.0,18.9,140,9,,5.0,29.811024,1008.6,,TRUE,TRUE,,,,,,BR,OVC,700,,,,,,,IFR,-0.5,,,,,,,,,,,METAR,301.0
KCLT 060852Z 00000KT 10SM FEW200 13/11 A3022 RMK AO2 SLP242 T01280106 53007,KCLT,2023-05-06T08:52:00Z,35.22,-80.95,12.8,10.6,0,0,,10.0,30.221457,1024.2,,,TRUE,,,,,,,FEW,20000,,,,,,,VFR,0.7,,,,,,,,,,,METAR,223.0
KCKV 060852Z AUTO 17009G16KT 10SM OVC046 17/10 A3011 RMK AO2 SLP193 T01670100 53004,KCKV,2023-05-06T08:52:00Z,36.62,-87.42,16.7,10.0,170,9,16,10.0,30.109253,1019.3,,TRUE,TRUE,,,,,,,OVC,4600,,,,,,,VFR,0.4,,,,,,,,,,,METAR,166.0
KBML 060852Z AUTO 00000KT 10SM CLR M01/M02 A3017 RMK AO2 SLP226 T10061017 52000,KBML,2023-05-06T08:52:00Z,44.58,-71.18,-0.6,-1.7,0,0,,10.0,30.171259,1022.6,,TRUE,TRUE,,,,,,,CLR,,,,,,,,VFR,0.0,,,,,,,,,,,METAR,344.0
KBLU 060852Z AUTO 17003KT 1/4SM -SN FG VV002 01/01 A3002 RMK AO2 SLP172 P0006 60015 T00060006 58006,KBLU,2023-05-06T08:52:00Z,39.28,-120.7,0.6,0.6,170,3,,0.25,30.02067,1017.2,,TRUE,TRUE,,,,,,-SN FG,OVX,0,,,,,,,LIFR,-0.6,,,,,0.06,,,,,200,SPECI,1605.0
KBLF 060852Z AUTO 00000KT 10SM CLR 11/05 A3024 RMK AO2 SLP220 T01060050 53010,KBLF,2023-05-06T08:52:00Z,37.3,-81.2,10.6,5.0,0,0,,10.0,30.239174,1022.0,,TRUE,TRUE,,,,,,,CLR,,,,,,,,VFR,1.0,,,,,,,,,,,METAR,871.0
KBIS 060852Z AUTO 06009KT 10SM CLR 09/04 A2988 RMK AO2 SLP120 T00890044 56007,KBIS,2023-05-06T08:52:00Z,46.77,-100.75,8.9,4.4,60,9,,10.0,29.878937,1012.0,,TRUE,TRUE,,,,,,,CLR,,,,,,,,VFR,-0.7,,,,,,,,,,,METAR,506.0
KBDR 060852Z AUTO 31005KT 10SM CLR 09/07 A3022 RMK AO2 SLP234 T00940067 53001,KBDR,2023-05-06T08:52:00Z,41.17,-73.13,9.4,6.7,310,5,,10.0,30.221457,1023.4,,TRUE,TRUE,,,,,,,CLR,,,,,,,,VFR,0.1,,,,,,,,,,,METAR,5.0
KBAN 060852Z AUTO 22008KT 10SM BKN070 OVC095 02/M05 A2995 RMK AO2 SLP118 T00221050 58004 $,KBAN,2023-05-06T08:52:00Z,38.35,-119.52,2.2,-5.0,220,8,,10.0,29.949802,1011.8,,TRUE,TRUE,TRUE,,,,,,BKN,7000,OVC,9500,,,,,VFR,-0.4,,,,,,,,,,,SPECI,2067.0
KATL 060852Z 12006KT 10SM BKN050 OVC065 16/12 A3018 RMK AO2 SLP217 T01560122 55000,KATL,2023-05-06T08:52:00Z,33.63,-84.45,15.6,12.2,120,6,,10.0,30.180119,1021.7,,,TRUE,,,,,,,BKN,5000,OVC,6500,,,,,VFR,0.0,,,,,,,,,,,METAR,309.0
KARR 060852Z AUTO 12008KT 10SM -RA BKN075 OVC090 15/08 A3006 RMK AO2 RAB14 SLP176 P0000 60000 T01500083 51006,KARR,2023-05-06T08:52:00Z,41.77,-88.48,15.0,8.3,120,8,,10.0,30.059055,1017.6,,TRUE,TRUE,,,,,,-RA,BKN,7500,OVC,9000,,,,,VFR,0.6,,,,,0.005,0.005,,,,,METAR,213.0
KAQW 060852Z AUTO 00000KT 1/4SM FG VV002 04/03 A3026 RMK AO2 SLP252 T00390033 53004,KAQW,2023-05-06T08:52:00Z,42.7,-73.17,3.9,3.3,0,0,,0.25,30.259842,1025.2,,TRUE,TRUE,,,,,,FG,OVX,0,,,,,,,LIFR,0.4,,,,,,,,,,200,METAR,196.0
KALS 060852Z AUTO 24012KT 10SM CLR 06/M09 A3001 RMK AO2 SLP092 T00561089 51000,KALS,2023-05-06T08:52:00Z,37.43,-105.87,5.6,-8.9,240,12,,10.0,30.008858,1009.2,,TRUE,TRUE,,,,,,,CLR,,,,,,,,VFR,0.0,,,,,,,,,,,METAR,2299.0
KAFN 060852Z AUTO 18004KT 10SM CLR 03/01 A3020 RMK AO2 SLP235 T00280011 53001,KAFN,2023-05-06T08:52:00Z,42.8,-72.0,2.8,1.1,180,4,,10.0,30.200787,1023.5,,TRUE,TRUE,,,,,,,CLR,,,,,,,,VFR,0.1,,,,,,,,,,,METAR,308.0
KABQ 060852Z 31004KT 10SM CLR 13/M09 A3006 RMK AO2 SLP114 T01281094 51008,KABQ,2023-05-06T08:52:00Z,35.05,-106.62,12.8,-9.4,310,4,,10.0,30.059055,1011.4,,,TRUE,,,,,,,CLR,,,,,,,,VFR,0.8,,,,,,,,,,,METAR,1620.0
KABI 060852Z 17016G23KT 10SM -RA CLR 23/15 A2988 RMK AO2 SLP088 P0000 60000 T02330150 58000,KABI,2023-05-06T08:52:00Z,32.42,-99.68,23.3,15.0,170,16,23,10.0,29.878937,1008.8,,,TRUE,,,,,,-RA,CLR,,,,,,,,VFR,0.0,,,,,0.005,0.005,,,,,METAR,543.0
FASB 060852Z 26003KT CAVOK 16/03 Q1018,FASB,2023-05-06T08:52:00Z,-29.68,17.93,16.0,3.0,260,3,,6.21,30.059055,,,,,,,,,,,CAVOK,,,,,,,,VFR,,,,,,,,,,,,SPECI,811.0
PTPN 060851Z 12005KT 15SM SCT018 BKN300 29/26 A2971 ,PTPN,2023-05-06T08:51:00Z,6.98,158.22,29.0,26.0,120,5,,15.0,29.71063,,,,,,,,,,,SCT,1800,BKN,30000,,,,,VFR,,,,,,,,,,,,METAR,3.0
PTKK 060851Z VRB03KT 15SM FEW014 SCT120 OVC280 28/26 A2972 RMK SLP066 8/171 T02820257 52019,PTKK,2023-05-06T08:51:00Z,7.47,151.85,28.2,25.7,0,3,,15.0,29.719488,1006.6,,,,,,,,,,FEW,1400,SCT,12000,OVC,28000,,,VFR,1.9,,,,,,,,,,,METAR,3.0
PAMD 060851Z AUTO 17004KT 10SM OVC065 04/01 A2989 RMK AO2 SLP109 T00440011 400780033 53004 $,PAMD,2023-05-06T08:51:00Z,59.43,-146.3,4.4,1.1,170,4,,10.0,29.890747,1010.9,,TRUE,TRUE,TRUE,,,,,,OVC,6500,,,,,,,VFR,0.4,,,7.8,3.3,,,,,,,SPECI,20.0
MUGM 060851Z 32004KT 10SM SCT250 26/23 A2995 RMK AO2 SLP143 T02560228 56006 $,MUGM,2023-05-06T08:51:00Z,19.9,-75.2,25.6,22.8,320,4,,10.0,29.949802,1014.3,,,TRUE,TRUE,,,,,,SCT,25000,,,,,,,VFR,-0.6,,,,,,,,,,,METAR,21.0
KYNG 060851Z 10006KT 10SM FEW250 06/03 A3026 RMK AO2 SLP249 T00560028 53001,KYNG,2023-05-06T08:51:00Z,41.25,-80.67,5.6,2.8,100,6,,10.0,30.259842,1024.9,,,TRUE,,,,,,,FEW,25000,,,,,,,VFR,0.1,,,,,,,,,,,SPECI,356.0
KXWA 060851Z AUTO 08010KT 10SM FEW055 SCT075 OVC090 10/03 A2994 RMK AO2 SLP144 60000 T01000033 56002,KXWA,2023-05-06T08:51:00Z,48.27,-103.75,10.0,3.3,80,10,,10.0,29.940945,1014.4,,TRUE,TRUE,,,,,,,FEW,5500,SCT,7500,OVC,9000,,,VFR,-0.2,,,,,,,,,,,SPECI,717.0
KVCT 060851Z AUTO 10006KT 3SM -RA FU HZ OVC005 24/24 A2994 RMK AO2 RAB29 SLP138 P0001 60001 T02440244 50012,KVCT,2023-05-06T08:51:00Z,28.87,-96.93,24.4,24.4,100,6,,3.0,29.940945,1013.8,,TRUE,TRUE,,,,,,-RA FU HZ,OVC,500,,,,,,,IFR,1.2,,,,,0.01,,,,,,SPECI,33.0
KUGN 060851Z AUTO 14009KT 10SM BKN100 OVC110 13/07 A3008 RMK AO2 RAB27E36 SLP183 P0000 60000 T01330067 51007,KUGN,2023-05-06T08:51:00Z,42.42,-87.87,13.3,6.7,140,9,,10.0,30.079725,1018.3,,TRUE,TRUE,,,,,,,BKN,10000,OVC,11000,,,,,VFR,0.7,,,,,0.005,0.005,,,,,METAR,217.0
KTPL 060851Z AUTO 18013G20KT CLR 19/16 A2987 RMK AO2 SLP103 T01890161 50005 PWINO RVRNO $,KTPL,2023-05-06T08:51:00Z,31.15,-97.4,18.9,16.1,180,13,20,,29.870079,1010.3,,TRUE,TRUE,TRUE,,,,TRUE,,CLR,,,,,,,,,0.5,,,,,,,,,,,METAR,206.0
KTEB 060851Z 00000KT 10SM MIFG CLR 07/06 A3025 RMK AO2 SLP242 T00670056 53004,KTEB,2023-05-06T08:51:00Z,40.87,-74.05,6.7,5.6,0,0,,10.0,30.250984,1024.2,,,TRUE,,,,,,MIFG,CLR,,,,,,,,VFR,0.4,,,,,,,,,,,SPECI,3.0
KSTL 060851Z 17009KT 10SM SCT031 BKN048 17/11 A3000 RMK AO2 SLP150 T01720111 53001 $,KSTL,2023-05-06T08:51:00Z,38.75,-90.37,17.2,11.1,170,9,,10.0,30.0,1015.0,,,TRUE,TRUE,,,,,,SCT,3100,BKN,4800,,,,,VFR,0.1,,,,,,,,,,,METAR,163.0
KSNT 060851Z AUTO 10004KT 02/M01 A2988 RMK AO1 SLP070 T00221006 58005,KSNT,2023-05-06T08:51:00Z,44.17,-114.93,2.2,-0.6,100,4,,,29.878937,1007.0,,TRUE,TRUE,,,,,,,,,,,,,,,,-0.5,,,,,,,,,,,SPECI,1980.0
KSMX 060851Z AUTO 15003KT 10SM CLR 08/07 A3011 RMK AO2 SLP199 T00780072 58001,KSMX,2023-05-06T08:51:00Z,34.9,-120.45,7.8,7.2,150,3,,10.0,30.109253,1019.9,,TRUE,TRUE,,,,,,,CLR,,,,,,,,VFR,-0.1,,,,,,,,,,,SPECI,73.0
KSMO 060851Z AUTO 31003KT 10SM CLR 12/07 A3008 RMK AO2 SLP185 T01170072 58001,KSMO,2023-05-06T08:51:00Z,34.02,-118.45,11.7,7.2,310,3,,10.0,30.079725,1018.5,,TRUE,TRUE,,,,,,,CLR,,,,,,,,VFR,-0.1,,,,,,,,,,,METAR,56.0
KSJT 060851Z AUTO 15006KT 9SM CLR 23/18 A2988 RMK AO2 SLP088 T02280183 50001,KSJT,2023-05-06T08:51:00Z,31.37,-100.5,22.8,18.3,150,6,,9.0,29.878937,1008.8,,TRUE,TRUE,,,,,,,CLR,,,,,,,,VFR,0.1,,,,,,,,,,,METAR,582.0
KSAT 060851Z 05004KT 10SM BKN013 OVC038 21/18 A2994 RMK AO2 SLP120 60001 T02110178 50002,KSAT,2023-05-06T08:51:00Z,29.53,-98.48,21.1,17.8,50,4,,10.0,29.940945,1012.0,,,TRUE,,,,,,,BKN,1300,OVC,3800,,,,,MVFR,0.2,,,,,,,,,,,SPECI,246.0
KSAN 060851Z 00000KT 10SM FEW028 13/09 A3009 RMK AO2 SLP187 T01330094 58010,KSAN,2023-05-06T08:51:00Z,32.73,-117.18,13.3,9.4,0,0,,10.0,30.088583,1018.7,,,TRUE,,,,,,,FEW,2800,,,,,,,VFR,-1.0,,,,,,,,,,,METAR,3.0
KSAD 060851Z AUTO 00000KT 10SM CLR 12/M04 A2999 RMK AO2 SLP119 T01171039 50003,KSAD,2023-05-06T08:51:00Z,32.85,-109.63,11.7,-3.9,0,0,,10.0,29.991142,1011.9,,TRUE,TRUE,,,,,,,CLR,,,,,,,,VFR,0.3,,,,,,,,,,,SPECI,937.0
KROW 060851Z AUTO 25006KT 10SM CLR 14/M07 A2990 RMK AO2 SLP064 T01391067 58002,KROW,2023-05-06T08:51:00Z,33.3,-104.5,13.9,-6.7,250,6,,10.0,29.899607,1006.4,,TRUE,TRUE,,,,,,,CLR,,,,,,,,VFR,-0.2,,,,,,,,,,,SPECI,1105.0
KRDU 060851Z 00000KT 10SM BKN070 11/08 A3023 RMK AO2 SLP234 T01110083 53007,KRDU,2023-05-06T08:51:00Z,35.9,-78.78,11.1,8.3,0,0,,10.0,30.230314,1023.4,,,TRUE,,,,,,,BKN,7000,,,,,,,VFR,0.7,,,,,,,,,,,METAR,121.0
KPWM 060851Z 29007KT 10SM FEW150 07/03 A3012 RMK AO2 SLP201 T00670033 58002,KPWM,2023-05-06T08:51:00Z,43.65,-70.3,6.7,3.3,290,7,,10.0,30.121063,1020.1,,,TRUE,,,,,,,FEW,15000,,,,,,,VFR,-0.2,,,,,,,,,,,SPECI,15.0
KPVD 060851Z 27005KT 10SM CLR 07/06 A3018 RMK AO2 SLP221 T00670056 55000,KPVD,2023-05-06T08:51:00Z,41.72,-71.43,6.7,5.6,270,5,,10.0,30.180119,1022.1,,,TRUE,,,,,,,CLR,,,,,,,,VFR,0.0,,,,,,,,,,,SPECI,15.0
KPIT 060851Z 08004KT 10SM FEW250 07/03 A3025 RMK AO2 SLP252 T00720033 53003,KPIT,2023-05-06T08:51:00Z,40.47,-80.2,7.2,3.3,80,4,,10.0,30.250984,1025.2,,,TRUE,,,,,,,FEW,25000,,,,,,,VFR,0.3,,,,,,,,,,,SPECI,339.0
KPHX 060851Z 00000KT 10SM FEW100 BKN250 19/04 A2992 RMK AO2 SLP117 T01940039 50000,KPHX,2023-05-06T08:51:00Z,33.43,-112.02,19.4,3.9,0,0,,10.0,29.920275,1011.7,,,TRUE,,,,,,,FEW,10000,BKN,25000,,,,,VFR,0.0,,,,,,,,,,,SPECI,338.0
KP59 060851Z AUTO 20008G20KT 150V250 07/05 A3013 RMK AO1 SLP209 T00670050 56010,KP59,2023-05-06T08:51:00Z,47.47,-87.88,6.7,5.0,200,8,20,,30.129921,1020.9,,TRUE,TRUE,,,,,,,,,,,,,,,,-1.0,,,,,,,,,,,METAR,185.0
KOXR 060851Z AUTO 08004KT 10SM BKN018 12/09 A3007 RMK AO2 SLP184 T01220094 50000,KOXR,2023-05-06T08:51:00Z,34.2,-119.2,12.2,9.4,80,4,,10.0,30.070866,1018.4,,TRUE,TRUE,,,,,,,BKN,1800,,,,,,,MVFR,0.0,,,,,,,,,,,SPECI,12.0
KOXC 060851Z AUTO 33004KT 10SM CLR 06/05 A3023 RMK AO2 SLP251 T00610050 53001,KOXC,2023-05-06T08:51:00Z,41.47,-73.13,6.1,5.0,330,4,,10.0,30.230314,1025.1,,TRUE,TRUE,,,,,,,CLR,,,,,,,,VFR,0.1,,,,,,,,,,,METAR,211.0
KORF 060851Z 00000KT 10SM SCT100 OVC120 13/11 A3025 RMK AO2 SLP242 T01330106 53004,KORF,2023-05-06T08:51:00Z,36.9,-76.2,13.3,10.6,0,0,,10.0,30.250984,1024.2,,,TRUE,,,,,,,SCT,10000,OVC,12000,,,,,VFR,0.4,,,,,,,,,,,METAR,5.0
KORD 060851Z 15010KT 10SM OVC095 18/06 A3007 RMK AO2 SLP181 T01780056 52008,KORD,2023-05-06T08:51:00Z,41.95,-87.93,17.8,5.6,150,10,,10.0,30.070866,1018.1,,,TRUE,,,,,,,OVC,9500,,,,,,,VFR,0.8,,,,,,,,,,,SPECI,202.0
KOCF 060851Z AUTO 00000KT 10SM FEW050 SCT120 21/16 A3010 RMK AO2 SLP192 T02060161 56006 $,KOCF,2023-05-06T08:51:00Z,29.17,-82.22,20.6,16.1,0,0,,10.0,30.100393,1019.2,,TRUE,TRUE,TRUE,,,,,,FEW,5000,SCT,12000,,,,,VFR,-0.6,,,,,,,,,,,SPECI,24.0
KNYC 060851Z AUTO 29003KT 10SM CLR 09/06 A3027 RMK AO2 SLP241 T00940061 53003 $,KNYC,2023-05-06T08:51:00Z,40.78,-73.97,9.4,6.1,290,3,,10.0,30.268702,1024.1,,TRUE,TRUE,TRUE,,,,,,CLR,,,,,,,,VFR,0.3,,,,,,,,,,,SPECI,33.0
KNBT 060851Z AUTO 00000KT 10SM OVC095 18/13 A3023 RMK AO2 SLP239 T01830133 53004,KNBT,2023-05-06T08:51:00Z,35.02,-76.47,18.3,13.3,0,0,,10.0,30.230314,1023.9,,TRUE,TRUE,,,,,,,OVC,9500,,,,,,,VFR,0.4,,,,,,,,,,,METAR,5.0
KMPV 060851Z AUTO 00000KT 10SM CLR 02/01 A3025 RMK AO2 SLP252 T00220006 53001,KMPV,2023-05-06T08:51:00Z,44.2,-72.57,2.2,0.6,0,0,,10.0,30.250984,1025.2,,TRUE,TRUE,,,,,,,CLR,,,,,,,,VFR,0.1,,,,,,,,,,,SPECI,336.0
KLGU 060851Z AUTO 17007KT 10SM -RA OVC042 08/03 A2994 RMK AO2 RAB04 SLP113 P0001 60001 T00830033 50007,KLGU,2023-05-06T08:51:00Z,41.78,-111.85,8.3,3.3,170,7,,10.0,29.940945,1011.3,,TRUE,TRUE,,,,,,-RA,OVC,4200,,,,,,,VFR,0.7,,,,,0.01,,,,,,SPECI,1359.0
KLGA 060851Z 31005KT 10SM CLR 11/07 A3024 RMK AO2 SLP240 T01110067 53002 $,KLGA,2023-05-06T08:51:00Z,40.78,-73.88,11.1,6.7,310,5,,10.0,30.239174,1024.0,,,TRUE,TRUE,,,,,,CLR,,,,,,,,VFR,0.2,,,,,,,,,,,SPECI,9.0
KJFK 060851Z 00000KT 10SM CLR 09/08 A3025 RMK AO2 SLP244 T00940078 53002,KJFK,2023-05-06T08:51:00Z,40.63,-73.77,9.4,7.8,0,0,,10.0,30.250984,1024.4,,,TRUE,,,,,,,CLR,,,,,,,,VFR,0.2,,,,,,,,,,,METAR,3.0
KJCT 060851Z AUTO 09006KT 9SM CLR 22/17 A2992 RMK AO2 SLP089 T02220172 58004 $,KJCT,2023-05-06T08:51:00Z,30.5,-99.77,22.2,17.2,90,6,,9.0,29.920275,1008.9,,TRUE,TRUE,TRUE,,,,,,CLR,,,,,,,,VFR,-0.4,,,,,,,,,,,SPECI,522.0
KILG 060851Z 29004KT 6SM BR CLR 09/07 A3028 RMK AO2 SLP252 T00890072 53004,KILG,2023-05-06T08:51:00Z,39.67,-75.6,8.9,7.2,290,4,,6.0,30.280512,1025.2,,,TRUE,,,,,,BR,CLR,,,,,,,,VFR,0.4,,,,,,,,,,,SPECI,22.0
KIGM 060851Z AUTO 18006KT 10SM CLR 08/M01 A2999 RMK AO2 SLP111 T00781011 50001,KIGM,2023-05-06T08:51:00Z,35.25,-113.93,7.8,-1.1,180,6,,10.0,29.991142,1011.1,,TRUE,TRUE,,,,,,,CLR,,,,,,,,VFR,0.1,,,,,,,,,,,SPECI,1045.0
KHTS 060851Z 00000KT 10SM CLR 09/05 A3018 RMK AO2 SLP216 T00890050 53004,KHTS,2023-05-06T08:51:00Z,38.37,-82.55,8.9,5.0,0,0,,10.0,30.180119,1021.6,,,TRUE,,,,,,,CLR,,,,,,,,VFR,0.4,,,,,,,,,,,SPECI,252.0
KHSE 060851Z AUTO 05005KT 10SM CLR 13/07 A3024 RMK AO2 SLP238 T01330072 53003,KHSE,2023-05-06T08:51:00Z,35.23,-75.62,13.3,7.2,50,5,,10.0,30.239174,1023.8,,TRUE,TRUE,,,,,,,CLR,,,,,,,,VFR,0.3,,,,,,,,,,,METAR,4.0
KHDO 060851Z AUTO 11011KT 10SM -RA BKN012 OVC024 26/23 A2991 RMK AO2 SLP112 P0000 60000 T02560228 50001,KHDO,2023-05-06T08:51:00Z,29.37,-99.17,25.6,22.8,110,11,,10.0,29.911417,1011.2,,TRUE,TRUE,,,,,,-RA,BKN,1200,OVC,2400,,,,,MVFR,0.1,,,,,0.005,0.005,,,,,METAR,280.0
KGDP 060851Z AUTO 23019G33KT 8SM CLR 17/M12 RMK AO2 PK WND 25033/0849 SLPNO T01721122 $,KGDP,2023-05-06T08:51:00Z,31.83,-104.82,17.2,-12.2,230,19,33,8.0,,,,TRUE,TRUE,TRUE,,,,,,CLR,,,,,,,,VFR,,,,,,,,,,,,SPECI,1664.0
KEWR 060851Z 25005KT 10SM CLR 09/07 A3025 RMK AO2 SLP243 T00940067 53003,KEWR,2023-05-06T08:51:00Z,40.68,-74.17,9.4,6.7,250,5,,10.0,30.250984,1024.3,,,TRUE,,,,,,,CLR,,,,,,,,VFR,0.3,,,,,,,,,,,SPECI,2.0
KERI 060851Z AUTO 00000KT 10SM CLR 07/03 A3028 RMK AO2 SLP255 T00670033 53002,KERI,2023-05-06T08:51:00Z,42.08,-80.18,6.7,3.3,0,0,,10.0,30.280512,1025.5,,TRUE,TRUE,,,,,,,CLR,,,,,,,,VFR,0.2,,,,,,,,,,,METAR,222.0
KELP 060851Z 33009KT 10SM BKN250 22/M12 A2998 RMK AO2 SLP077 T02221117 53005,KELP,2023-05-06T08:51:00Z,31.82,-106.35,22.2,-11.7,330,9,,10.0,29.97933,1007.7,,,TRUE,,,,,,,BKN,25000,,,,,,,VFR,0.5,,,,,,,,,,,SPECI,1205.0
KEKN 060851Z AUTO 00000KT 7SM CLR 02/01 A3026 RMK AO2 SLP256 T00170006 53006,KEKN,2023-05-06T08:51:00Z,38.88,-79.85,1.7,0.6,0,0,,7.0,30.259842,1025.6,,TRUE,TRUE,,,,,,,CLR,,,,,,,,VFR,0.6,,,,,,,,,,,SPECI,596.0
KDAW 060851Z AUTO 30009KT 10SM SCT075 11/03 A3014 RMK AO2 SLP204 T01060028 58001,KDAW,2023-05-06T08:51:00Z,43.28,-70.92,10.6,2.8,300,9,,10.0,30.138779,1020.4,,TRUE,TRUE,,,,,,,SCT,7500,,,,,,,VFR,-0.1,,,,,,,,,,,METAR,100.0
KCSG 060851Z AUTO 08005KT 10SM OVC060 16/13 A3014 RMK AO2 SLP205 T01610133 58002,KCSG,2023-05-06T08:51:00Z,32.52,-84.95,16.1,13.3,80,5,,10.0,30.138779,1020.5,,TRUE,TRUE,,,,,,,OVC,6000,,,,,,,VFR,-0.2,,,,,,,,,,,METAR,120.0
KCRP 060851Z 12009KT 10SM FEW008 SCT011 BKN017 BKN230 26/24 A2988 RMK AO2 SLP115 T02560244 58004,KCRP,2023-05-06T08:51:00Z,27.77,-97.5,25.6,24.4,120,9,,10.0,29.878937,1011.5,,,TRUE,,,,,,,FEW,800,SCT,1100,BKN,1700,BKN,23000,MVFR,-0.4,,,,,,,,,,,SPECI,11.0
KCON 060851Z AUTO 00000KT 4SM BR CLR 03/02 A3018 RMK AO2 SLP223 T00280022 53001,KCON,2023-05-06T08:51:00Z,43.2,-71.5,2.8,2.2,0,0,,4.0,30.180119,1022.3,,TRUE,TRUE,,,,,,BR,CLR,,,,,,,,MVFR,0.1,,,,,,,,,,,SPECI,102.0
KCMH 060851Z 09007KT 10SM CLR 11/05 A3021 RMK AO2 SLP226 T01110050 53000,KCMH,2023-05-06T08:51:00Z,40.0,-82.88,11.1,5.0,90,7,,10.0,30.209646,1022.6,,,TRUE,,,,,,,CLR,,,,,,,,VFR,0.0,,,,,,,,,,,METAR,257.0
KCLE 060851Z 00000KT 10SM FEW250 08/02 A3024 RMK AO2 SLP255 T00830017 53002 $,KCLE,2023-05-06T08:51:00Z,41.42,-81.85,8.3,1.7,0,0,,10.0,30.239174,1025.5,,,TRUE,TRUE,,,,,,FEW,25000,,,,,,,VFR,0.2,,,,,,,,,,,METAR,237.0
KCDJ 060851Z AUTO 14006KT 17/14 A2989 RMK AO1 SLP114 T01720139 50002,KCDJ,2023-05-06T08:51:00Z,39.82,-93.57,17.2,13.9,140,6,,,29.890747,1011.4,,TRUE,TRUE,,,,,,,,,,,,,,,,0.2,,,,,,,,,,,SPECI,234.0
KCAK 060851Z 07005KT 10SM SCT250 07/02 A3025 RMK AO2 SLP243 T00670022 53001,KCAK,2023-05-06T08:51:00Z,40.92,-81.45,6.7,2.2,70,5,,10.0,30.250984,1024.3,,,TRUE,,,,,,,SCT,25000,,,,,,,VFR,0.1,,,,,,,,,,,SPECI,369.0
KBKW 060851Z AUTO 13006KT 10SM CLR 11/05 A3023 RMK AO2 SLP219 T01110050 53009,KBKW,2023-05-06T08:51:00Z,37.8,-81.12,11.1,5.0,130,6,,10.0,30.230314,1021.9,,TRUE,TRUE,,,,,,,CLR,,,,,,,,VFR,0.9,,,,,,,,,,,SPECI,762.0
KBHK 060851Z AUTO 07013KT 10SM -RA SCT050 OVC080 08/ A2985 RMK AO2 SLP100 P0004 60004 T0083 50005 $,KBHK,2023-05-06T08:51:00Z,46.35,-104.25,8.3,,70,13,,10.0,29.84941,1010.0,,TRUE,TRUE,TRUE,,,,,-RA,SCT,5000,OVC,8000,,,,,VFR,0.5,,,,,0.04,0.04,,,,,METAR,904.0
KBGD 060851Z AUTO 19012KT 10SM CLR 21/M04 A2981 RMK AO2 SLP048 T02061044 50001,KBGD,2023-05-06T08:51:00Z,35.7,-101.4,20.6,-4.4,190,12,,10.0,29.811024,1004.8,,TRUE,TRUE,,,,,,,CLR,,,,,,,,VFR,0.1,,,,,,,,,,,METAR,928.0
KBED 060851Z AUTO 00000KT 10SM CLR 04/03 A3016 RMK AO2 SLP227 T00390033 53002,KBED,2023-05-06T08:51:00Z,42.47,-71.3,3.9,3.3,0,0,,10.0,30.159449,1022.7,,TRUE,TRUE,,,,,,,CLR,,,,,,,,VFR,0.2,,,,,,,,,,,METAR,39.0
KBDL 060851Z 00000KT 10SM CLR 06/04 A3022 RMK AO2 SLP234 T00560044 53003,KBDL,2023-05-06T08:51:00Z,41.93,-72.68,5.6,4.4,0,0,,10.0,30.221457,1023.4,,,TRUE,,,,,,,CLR,,,,,,,,VFR,0.3,,,,,,,,,,,SPECI,52.0
KAVX 060851Z AUTO 29007KT 10SM CLR 09/08 A3008 RMK AO2 SLP184 T00940078 58005,KAVX,2023-05-06T08:51:00Z,33.4,-118.42,9.4,7.8,290,7,,10.0,30.079725,1018.4,,TRUE,TRUE,,,,,,,CLR,,,,,,,,VFR,-0.5,,,,,,,,,,,METAR,482.0
KATT 060851Z AUTO VRB03KT 10SM CLR 20/17 A2993 RMK AO2 SLP120 T02000167 58022 $,KATT,2023-05-06T08:51:00Z,30.32,-97.77,20.0,16.7,0,3,,10.0,29.929134,1012.0,,TRUE,TRUE,TRUE,,,,,,CLR,,,,,,,,VFR,-2.2,,,,,,,,,,,METAR,203.0
KALB 060851Z 00000KT 10SM CLR 06/04 A3027 RMK AO2 SLP251 T00560044 53005,KALB,2023-05-06T08:51:00Z,42.75,-73.8,5.6,4.4,0,0,,10.0,30.268702,1025.1,,,TRUE,,,,,,,CLR,,,,,,,,VFR,0.5,,,,,,,,,,,SPECI,82.0
KAHN 060851Z AUTO 07004KT 10SM BKN080 BKN120 14/13 A3020 RMK AO2 SLP224 T01390128 53002,KAHN,2023-05-06T08:51:00Z,33.95,-83.33,13.9,12.8,70,4,,10.0,30.200787,1022.4,,TRUE,TRUE,,,,,,,BKN,8000,BKN,12000,,,,,VFR,0.2,,,,,,,,,,,METAR,241.0
KACT 060851Z AUTO 21008KT 10SM CLR 20/16 A2986 RMK AO2 SLP103 T02000156 53019,KACT,2023-05-06T08:51:00Z,31.62,-97.23,20.0,15.6,210,8,,10.0,29.861221,1010.3,,TRUE,TRUE,,,,,,,CLR,,,,,,,,VFR,1.9,,,,,,,,,,,METAR,150.0
KABE 060851Z 00000KT 10SM CLR 04/03 A3028 RMK AO2 SLP255 T00440033 53004 $,KABE,2023-05-06T08:51:00Z,40.65,-75.45,4.4,3.3,0,0,,10.0,30.280512,1025.5,,,TRUE,TRUE,,,,,,CLR,,,,,,,,VFR,0.4,,,,,,,,,,,SPECI,117.0
PTRO 060850Z 29004KT 8SM -SHRA BKN014CB BKN110 OVC290 26/25 A2968 RMK CB OHD AND ALQDS,PTRO,2023-05-06T08:50:00Z,7.37,134.55,26.0,25.0,290,4,,8.0,29.681103,,,,,,,,,,-SHRA,BKN,1400,BKN,11000,OVC,29000,,,MVFR,,,,,,,,,,,,METAR,30.0
OOSH 060850Z AUTO 04010KT //// ////// 33/20 Q1008 RMK 1005,OOSH,2023-05-06T08:50:00Z,24.38,56.62,33.0,20.0,40,10,,,29.763779,,,TRUE,,,,,,,,,,,,,,,,,,,,,,,,,,,,METAR,35.0
OOSA 060850Z 11015KT 9999 FEW025 31/26 Q1008 WS ALL RWY NOSIG,OOSA,2023-05-06T08:50:00Z,17.03,54.1,31.0,26.0,110,15,,6.21,29.763779,,,,,,TRUE,,,,,FEW,2500,,,,,,,VFR,,,,,,,,,,,,METAR,20.0
OOMS 060850Z 01008KT 340V050 9000 FEW020 30/25 Q1009 NOSIG,OOMS,2023-05-06T08:50:00Z,23.58,58.28,30.0,25.0,10,8,,5.59,29.793306,,,,,,TRUE,,,,,FEW,2000,,,,,,,VFR,,,,,,,,,,,,METAR,8.0
OOKB 060850Z 03011KT CAVOK 31/24 Q1009 NOSIG,OOKB,2023-05-06T08:50:00Z,26.17,56.23,31.0,24.0,30,11,,6.21,29.793306,,,,,,TRUE,,,,,CAVOK,,,,,,,,VFR,,,,,,,,,,,,METAR,30.0
OODQ 060850Z AUTO 10009KT 070V130 9999 FEW048 30/23 Q1010 NOSIG RMK RH68? 0,OODQ,2023-05-06T08:50:00Z,19.52,57.65,30.0,23.0,100,9,,6.21,29.822834,,,TRUE,,,TRUE,,,,,FEW,4800,,,,,,,VFR,,,,,,,,,,,,METAR,116.0
OOAD 060850Z AUTO 10008KT 070V150 9999 // NCD 35/08 Q1011 NOSIG,OOAD,2023-05-06T08:50:00Z,22.5,57.37,35.0,8.0,100,8,,6.21,29.852362,,,TRUE,,,TRUE,,,,,CLR,,,,,,,,VFR,,,,,,,,,,,,METAR,327.0
NSTU 060850Z VRB04KT 10SM FEW021 FEW040 26/25 A2986 RMK SLP112 8/800 T02570252 52017,NSTU,2023-05-06T08:50:00Z,-14.33,-170.72,25.7,25.2,0,4,,10.0,29.861221,1011.2,,,,,,,,,,FEW,2100,FEW,4000,,,,,VFR,1.7,,,,,,,,,,,METAR,8.0
MUVR 060850Z 15004KT 8000 FEW030 21/20 Q1016,MUVR,2023-05-06T08:50:00Z,23.03,-81.43,21.0,20.0,150,4,,4.97,30.0,,,,,,,,,,,FEW,3000,,,,,,,MVFR,,,,,,,,,,,,METAR,65.0
MUSC 060850Z 00000KT 9000 FEW040 23/22 Q1016,MUSC,2023-05-06T08:50:00Z,22.5,-79.92,23.0,22.0,0,0,,5.59,30.0,,,,,,,,,,,FEW,4000,,,,,,,VFR,,,,,,,,,,,,METAR,97.0
MUHG 060850Z 04005KT 8000 VCFG FEW024 24/24 Q1015,MUHG,2023-05-06T08:50:00Z,20.78,-76.32,24.0,24.0,40,5,,4.97,29.970472,,,,,,,,,,VCFG,FEW,2400,,,,,,,MVFR,,,,,,,,,,,,METAR,100.0
MUHA 060850Z 06002KT 9000 SKC 20/20 Q1016,MUHA,2023-05-06T08:50:00Z,22.98,-82.42,20.0,20.0,60,2,,5.59,30.0,,,,,,,,,,,SKC,,,,,,,,VFR,,,,,,,,,,,,METAR,61.0
MUCU 060850Z 34003KT 9000 FEW020 25/22 Q1014,MUCU,2023-05-06T08:50:00Z,19.97,-75.83,25.0,22.0,340,3,,5.59,29.940945,,,,,,,,,,,FEW,2000,,,,,,,VFR,,,,,,,,,,,,METAR,70.0
MUCM 060850Z 02005KT 8000 NSC 24/23 Q1015,MUCM,2023-05-06T08:50:00Z,21.42,-77.85,24.0,23.0,20,5,,4.97,29.970472,,,,,,,,,,,CLR,,,,,,,,MVFR,,,,,,,,,,,,METAR,125.0
MUCL 060850Z AUTO 09006KT 060V120 28/24 Q1015,MUCL,2023-05-06T08:50:00Z,21.63,-81.55,28.0,24.0,90,6,,,29.970472,,,TRUE,,,,,,,,,,,,,,,,,,,,,,,,,,,,METAR,5.0
MUCC 060850Z 14004KT 9000 SCT020 25/23 Q1015,MUCC,2023-05-06T08:50:00Z,22.47,-78.33,25.0,23.0,140,4,,5.59,29.970472,,,,,,,,,,,SCT,2000,,,,,,,VFR,,,,,,,,,,,,METAR,7.0
MSLP 060850Z 08004KT 7000 FEW040 25/20 Q1009 A2980 NOSIG RMK HZ,MSLP,2023-05-06T08:50:00Z,13.43,-89.05,25.0,20.0,80,4,,4.35,29.793306,,,,,,TRUE,,,,,FEW,4000,,,,,,,MVFR,,,,,,,,,,,,METAR,25.0
LTFO 060850Z 22012KT 9999 SCT012 BKN028 16/13 Q1016,LTFO,2023-05-06T08:50:00Z,41.18,40.85,16.0,13.0,220,12,,6.21,30.0,,,,,,,,,,,SCT,1200,BKN,2800,,,,,MVFR,,,,,,,,,,,,METAR,5.0
LTFH 060850Z 34006KT 300V030 9000 SCT008 BKN030 BKN100 16/12 Q1012 NOSIG,LTFH,2023-05-06T08:50:00Z,41.27,36.57,16.0,12.0,340,6,,5.59,29.88189,,,,,,TRUE,,,,,SCT,800,BKN,3000,BKN,10000,,,MVFR,,,,,,,,,,,,METAR,7.0
LTFG 060850Z 15004KT 090V200 9999 FEW015CB BKN020 18/16 Q1009,LTFG,2023-05-06T08:50:00Z,36.3,32.3,18.0,16.0,150,4,,6.21,29.793306,,,,,,,,,,,FEW,1500,BKN,2000,,,,,MVFR,,,,,,,,,,,,METAR,26.0
LTFD 060850Z 06022KT 030V090 9999 SCT035 SCT100 19/08 Q1011,LTFD,2023-05-06T08:50:00Z,39.55,27.02,19.0,8.0,60,22,,6.21,29.852362,,,,,,,,,,,SCT,3500,SCT,10000,,,,,VFR,,,,,,,,,,,,METAR,15.0
LTFB 060850Z 26009KT 9999 SCT035 20/14 Q1008,LTFB,2023-05-06T08:50:00Z,37.95,27.33,20.0,14.0,260,9,,6.21,29.763779,,,,,,,,,,,SCT,3500,,,,,,,VFR,,,,,,,,,,,,METAR,3.0
LTDA 060850Z 21020KT 9999 FEW035 SCT100 26/12 Q1008 NOSIG,LTDA,2023-05-06T08:50:00Z,36.37,36.28,26.0,12.0,210,20,,6.21,29.763779,,,,,,TRUE,,,,,FEW,3500,SCT,10000,,,,,VFR,,,,,,,,,,,,METAR,80.0
LTCW 060850Z 19004KT 120V280 9999 FEW040 19/02 Q1019,LTCW,2023-05-06T08:50:00Z,37.55,44.23,19.0,2.0,190,4,,6.21,30.088583,,,,,,,,,,,FEW,4000,,,,,,,VFR,,,,,,,,,,,,METAR,1852.0
LTCV 060850Z VRB03KT CAVOK 25/10 Q1012,LTCV,2023-05-06T08:50:00Z,37.37,42.07,25.0,10.0,0,3,,6.21,29.88189,,,,,,,,,,,CAVOK,,,,,,,,VFR,,,,,,,,,,,,METAR,620.0
LTCU 060850Z VRB02KT 9999 SCT035 BKN100 19/08 Q1015,LTCU,2023-05-06T08:50:00Z,38.87,40.58,19.0,8.0,0,2,,6.21,29.970472,,,,,,,,,,,SCT,3500,BKN,10000,,,,,VFR,,,,,,,,,,,,METAR,1061.0
LTCT 060850Z VRB03KT 9999 SCT080 BKN180 23/01 Q1015,LTCT,2023-05-06T08:50:00Z,39.98,43.87,23.0,1.0,0,3,,6.21,29.970472,,,,,,,,,,,SCT,8000,BKN,18000,,,,,VFR,,,,,,,,,,,,METAR,936.0
LTCR 060850Z 10015KT 9999 FEW040 SCT100 29/08 Q1010,LTCR,2023-05-06T08:50:00Z,37.22,40.63,29.0,8.0,100,15,,6.21,29.822834,,,,,,,,,,,FEW,4000,SCT,10000,,,,,VFR,,,,,,,,,,,,METAR,529.0
LTCP 060850Z 08012KT 9999 BKN030 BKN080 23/07 Q1011,LTCP,2023-05-06T08:50:00Z,37.73,38.47,23.0,7.0,80,12,,6.21,29.852362,,,,,,,,,,,BKN,3000,BKN,8000,,,,,MVFR,,,,,,,,,,,,METAR,672.0
LTCO 060850Z 22010KT 9999 SCT040 BKN070 15/02 Q1020,LTCO,2023-05-06T08:50:00Z,39.65,43.03,15.0,2.0,220,10,,6.21,30.11811,,,,,,,,,,,SCT,4000,BKN,7000,,,,,VFR,,,,,,,,,,,,METAR,1657.0
LTCN 060850Z 03004KT 350V070 9999 -SHRA FEW025CB SCT035 BKN090 17/11 Q1011 RETSRA,LTCN,2023-05-06T08:50:00Z,37.53,36.95,17.0,11.0,30,4,,6.21,29.852362,,,,,,,,,,-SHRA,FEW,2500,SCT,3500,BKN,9000,,,VFR,,,,,,,,,,,,METAR,505.0
LTCM 060850Z 06006KT 7000 SCT007 BKN033 13/12 Q1013 RESHRA,LTCM,2023-05-06T08:50:00Z,42.02,35.07,13.0,12.0,60,6,,4.35,29.911417,,,,,,,,,,,SCT,700,BKN,3300,,,,,MVFR,,,,,,,,,,,,METAR,7.0
LTCL 060850Z 23006KT 190V260 9999 FEW040 SCT100 22/11 Q1013,LTCL,2023-05-06T08:50:00Z,37.98,41.83,22.0,11.0,230,6,,6.21,29.911417,,,,,,,,,,,FEW,4000,SCT,10000,,,,,VFR,,,,,,,,,,,,METAR,602.0
LTCK 060850Z 11005KT 060V160 9999 FEW035 BKN180 16/04 Q1017,LTCK,2023-05-06T08:50:00Z,38.75,41.67,16.0,4.0,110,5,,6.21,30.029528,,,,,,,,,,,FEW,3500,BKN,18000,,,,,VFR,,,,,,,,,,,,METAR,1267.0
LTCI 060850Z 30003KT 260V340 9999 SCT030 BKN180 13/06 Q1023 NOSIG,LTCI,2023-05-06T08:50:00Z,38.47,43.33,13.0,6.0,300,3,,6.21,30.206694,,,,,,TRUE,,,,,SCT,3000,BKN,18000,,,,,VFR,,,,,,,,,,,,METAR,1654.0
LTCF 060850Z 25008KT 210V280 9999 FEW040 SCT080 18/M01 Q1019 NOSIG,LTCF,2023-05-06T08:50:00Z,40.57,43.12,18.0,-1.0,250,8,,6.21,30.088583,,,,,,TRUE,,,,,FEW,4000,SCT,8000,,,,,VFR,,,,,,,,,,,,METAR,1794.0
LTCD 060850Z VRB04KT 9999 SCT040 BKN100 17/09 Q1016 RESHRA TEMPO 12013KT -TSRA,LTCD,2023-05-06T08:50:00Z,39.72,39.52,17.0,9.0,0,4,,6.21,30.0,,,,,,,,,,,SCT,4000,BKN,10000,,,,,VFR,,,,,,,,,,,,METAR,1146.0
LTCB 060850Z 09008KT 9999 SCT030 BKN080 14/12 Q1012 NOSIG,LTCB,2023-05-06T08:50:00Z,40.97,38.07,14.0,12.0,90,8,,6.21,29.88189,,,,,,TRUE,,,,,SCT,3000,BKN,8000,,,,,VFR,,,,,,,,,,,,METAR,5.0
LTCA 060850Z 07010KT 050V110 9999 SCT035 BKN100 21/11 Q1013 NOSIG,LTCA,2023-05-06T08:50:00Z,38.6,39.28,21.0,11.0,70,10,,6.21,29.911417,,,,,,TRUE,,,,,SCT,3500,BKN,10000,,,,,VFR,,,,,,,,,,,,METAR,887.0
LTBY 060850Z 34014KT 9999 FEW013 SCT040 15/09 Q1009,LTBY,2023-05-06T08:50:00Z,39.82,30.52,15.0,9.0,340,14,,6.21,29.793306,,,,,,,,,,,FEW,1300,SCT,4000,,,,,VFR,,,,,,,,,,,,METAR,788.0
LTBQ 060850Z 02006KT 9999 BKN020 BKN080 14/10 Q1013 RESHRA NOSIG,LTBQ,2023-05-06T08:50:00Z,40.73,30.07,14.0,10.0,20,6,,6.21,29.911417,,,,,,TRUE,,,,,BKN,2000,BKN,8000,,,,,MVFR,,,,,,,,,,,,METAR,51.0
LTBO 060850Z 15006KT 120V180 9999 SCT035 17/09 Q1009,LTBO,2023-05-06T08:50:00Z,38.67,29.47,17.0,9.0,150,6,,6.21,29.793306,,,,,,,,,,,SCT,3500,,,,,,,VFR,,,,,,,,,,,,METAR,868.0
LTBH 060850Z 07016KT 9999 SCT030 BKN100 16/09 Q1014,LTBH,2023-05-06T08:50:00Z,40.13,26.42,16.0,9.0,70,16,,6.21,29.940945,,,,,,,,,,,SCT,3000,BKN,10000,,,,,VFR,,,,,,,,,,,,METAR,8.0
LTBF 060850Z 02016KT 9999 FEW020 SCT035 BKN100 16/10 Q1012 NOSIG,LTBF,2023-05-06T08:50:00Z,39.62,27.92,16.0,10.0,20,16,,6.21,29.88189,,,,,,TRUE,,,,,FEW,2000,SCT,3500,BKN,10000,,,VFR,,,,,,,,,,,,METAR,95.0
LTBD 060850Z VRB02KT 8000 FEW035 22/13 Q1006,LTBD,2023-05-06T08:50:00Z,37.82,27.88,22.0,13.0,0,2,,4.97,29.704725,,,,,,,,,,,FEW,3500,,,,,,,MVFR,,,,,,,,,,,,METAR,29.0
LTAY 060850Z 00000KT 9999 SCT030 BKN090 16/10 Q1009 NOSIG,LTAY,2023-05-06T08:50:00Z,37.78,29.7,16.0,10.0,0,0,,6.21,29.793306,,,,,,TRUE,,,,,SCT,3000,BKN,9000,,,,,VFR,,,,,,,,,,,,METAR,851.0
LTAW 060850Z 05010KT 9999 SCT040 BKN100 23/11 Q1009,LTAW,2023-05-06T08:50:00Z,40.3,36.37,23.0,11.0,50,10,,6.21,29.793306,,,,,,,,,,,SCT,4000,BKN,10000,,,,,VFR,,,,,,,,,,,,METAR,561.0
LTAS 060850Z 06004KT 360V130 8000 SCT010 BKN030 BKN080 13/12 Q1013 RESHRA,LTAS,2023-05-06T08:50:00Z,41.52,32.08,13.0,12.0,60,4,,4.97,29.911417,,,,,,,,,,,SCT,1000,BKN,3000,BKN,8000,,,MVFR,,,,,,,,,,,,METAR,13.0
LTAR 060850Z 14022KT 9999 FEW025CB SCT035 BKN070 14/04 Q1015,LTAR,2023-05-06T08:50:00Z,39.8,36.9,14.0,4.0,140,22,,6.21,29.970472,,,,,,,,,,,FEW,2500,SCT,3500,BKN,7000,,,VFR,,,,,,,,,,,,METAR,1601.0
LTAN 060850Z 17013KT 9999 SCT040 BKN100 19/05 Q1009 TEMPO FM1000 -TSRA,LTAN,2023-05-06T08:50:00Z,37.97,32.55,19.0,5.0,170,13,,6.21,29.793306,,,,,,,,,,,SCT,4000,BKN,10000,,,,,VFR,,,,,,,,,,,,METAR,1029.0
LTAL 060850Z VRB05KT 9999 -SHRA FEW022CB BKN028 BKN090 10/04 Q1012,LTAL,2023-05-06T08:50:00Z,41.32,33.8,10.0,4.0,0,5,,6.21,29.88189,,,,,,,,,,-SHRA,FEW,2200,BKN,2800,BKN,9000,,,MVFR,,,,,,,,,,,,METAR,1074.0
LTAG 060850Z 16008KT 9999 FEW035 SCT100 25/14 Q1008 NOSIG RMK 2CU035 3AC100,LTAG,2023-05-06T08:50:00Z,37.0,35.42,25.0,14.0,160,8,,6.21,29.763779,,,,,,TRUE,,,,,FEW,3500,SCT,10000,,,,,VFR,,,,,,,,,,,,METAR,62.0
LTAE 060850Z 15005KT 100V230 9999 SCT040 SCT100 21/04 Q1008 NOSIG RMK RWY21 21005KT 130V270,LTAE,2023-05-06T08:50:00Z,40.07,32.57,21.0,4.0,150,5,,6.21,29.763779,,,,,,TRUE,,,,,SCT,4000,SCT,10000,,,,,VFR,,,-0.5,,,,,,,,,METAR,836.0
LLIB 060850Z AUTO 24008KT 9999 FEW043 25/11 Q1011,LLIB,2023-05-06T08:50:00Z,32.98,35.57,25.0,11.0,240,8,,6.21,29.852362,,,TRUE,,,,,,,,FEW,4300,,,,,,,VFR,,,,,,,,,,,,METAR,268.0
LLHA 060850Z 25009KT 9999 SCT030 23/14 Q1011,LLHA,2023-05-06T08:50:00Z,32.8,35.03,23.0,14.0,250,9,,6.21,29.852362,,,,,,,,,,,SCT,3000,,,,,,,VFR,,,,,,,,,,,,METAR,3.0
LLER 060850Z 04004KT 9000 NSC 28/07 Q1011,LLER,2023-05-06T08:50:00Z,29.72,35.02,28.0,7.0,40,4,,5.59,29.852362,,,,,,,,,,,CLR,,,,,,,,VFR,,,,,,,,,,,,METAR,88.0
LIRU 060850Z VRB02KT CAVOK 22/15 Q1017,LIRU,2023-05-06T08:50:00Z,41.95,12.5,22.0,15.0,0,2,,6.21,30.029528,,,,,,,,,,,CAVOK,,,,,,,,VFR,,,,,,,,,,,,METAR,16.0
LIRI 060850Z 26005KT 210V320 9999 FEW030 19/15 Q1018,LIRI,2023-05-06T08:50:00Z,40.62,14.92,19.0,15.0,260,5,,6.21,30.059055,,,,,,,,,,,FEW,3000,,,,,,,VFR,,,,,,,,,,,,METAR,31.0
LIQN 060850Z VRB02KT CAVOK 19/14 Q1018,LIQN,2023-05-06T08:50:00Z,42.42,12.83,19.0,14.0,0,2,,6.21,30.059055,,,,,,,,,,,CAVOK,,,,,,,,VFR,,,,,,,,,,,,METAR,387.0
LIPU 060850Z VRB02KT 9000 NSC 22/13 Q1016,LIPU,2023-05-06T08:50:00Z,45.38,11.83,22.0,13.0,0,2,,5.59,30.0,,,,,,,,,,,CLR,,,,,,,,VFR,,,,,,,,,,,,METAR,6.0
LIPK 060850Z VRB01KT CAVOK 22/12 Q1016,LIPK,2023-05-06T08:50:00Z,44.2,12.07,22.0,12.0,0,1,,6.21,30.0,,,,,,,,,,,CAVOK,,,,,,,,VFR,,,,,,,,,,,,METAR,24.0
LIPB 060850Z 10004KT 040V160 9999 FEW040 21/13 Q1017,LIPB,2023-05-06T08:50:00Z,46.47,11.32,21.0,13.0,100,4,,6.21,30.029528,,,,,,,,,,,FEW,4000,,,,,,,VFR,,,,,,,,,,,,METAR,239.0
LIMP 060850Z 32004KT 270V010 CAVOK 21/13 Q1017,LIMP,2023-05-06T08:50:00Z,44.82,10.3,21.0,13.0,320,4,,6.21,30.029528,,,,,,,,,,,CAVOK,,,,,,,,VFR,,,,,,,,,,,,METAR,41.0
LIMG 060850Z VRB02KT 8000 BKN020 17/13 Q1018,LIMG,2023-05-06T08:50:00Z,44.03,8.12,17.0,13.0,0,2,,4.97,30.059055,,,,,,,,,,,BKN,2000,,,,,,,MVFR,,,,,,,,,,,,METAR,41.0
LIMA 060850Z 07004KT 360V120 CAVOK 20/10 Q1017,LIMA,2023-05-06T08:50:00Z,45.08,7.6,20.0,10.0,70,4,,6.21,30.029528,,,,,,,,,,,CAVOK,,,,,,,,VFR,,,,,,,,,,,,METAR,285.0
LICG 060850Z 05004KT CAVOK 20/11 Q1018,LICG,2023-05-06T08:50:00Z,36.82,11.97,20.0,11.0,50,4,,6.21,30.059055,,,,,,,,,,,CAVOK,,,,,,,,VFR,,,,,,,,,,,,METAR,192.0
LICB 060850Z AUTO /////KT 9999 NCD 24/04 Q1017,LICB,2023-05-06T08:50:00Z,37.0,14.62,24.0,4.0,,,,6.21,30.029528,,,TRUE,,,,,,,,CLR,,,,,,,,VFR,,,,,,,,,,,,METAR,212.0
LIBG 060850Z 03007KT 350V060 CAVOK 24/09 Q1016,LIBG,2023-05-06T08:50:00Z,40.52,17.4,24.0,9.0,30,7,,6.21,30.0,,,,,,,,,,,CAVOK,,,,,,,,VFR,,,,,,,,,,,,METAR,64.0
LIBF 060850Z 32005KT 300V360 CAVOK 23/08 Q1016,LIBF,2023-05-06T08:50:00Z,41.42,15.53,23.0,8.0,320,5,,6.21,30.0,,,,,,,,,,,CAVOK,,,,,,,,VFR,,,,,,,,,,,,METAR,81.0
LIBC 060850Z 03007KT 360V080 CAVOK 22/11 Q1016,LIBC,2023-05-06T08:50:00Z,39.0,17.07,22.0,11.0,30,7,,6.21,30.0,,,,,,,,,,,CAVOK,,,,,,,,VFR,,,,,,,,,,,,METAR,158.0
LGZA 060850Z 03007KT CAVOK 22/13 Q1014,LGZA,2023-05-06T08:50:00Z,37.75,20.88,22.0,13.0,30,7,,6.21,29.940945,,,,,,,,,,,CAVOK,,,,,,,,VFR,,,,,,,,,,,,METAR,3.0
LGSO 060850Z 01028G38KT 9999 SCT018 18/11 Q1010,LGSO,2023-05-06T08:50:00Z,37.42,24.95,18.0,11.0,10,28,38,6.21,29.822834,,,,,,,,,,,SCT,1800,,,,,,,VFR,,,,,,,,,,,,METAR,71.0
LGSM 060850Z 01012KT 340V050 9999 FEW025 19/13 Q1007,LGSM,2023-05-06T08:50:00Z,37.68,26.92,19.0,13.0,10,12,,6.21,29.734253,,,,,,,,,,,FEW,2500,,,,,,,VFR,,,,,,,,,,,,METAR,5.0
LGPA 060850Z 36026G36KT 9999 FEW025 18/10 Q1009,LGPA,2023-05-06T08:50:00Z,37.02,25.1,18.0,10.0,360,26,36,6.21,29.793306,,,,,,,,,,,FEW,2500,,,,,,,VFR,,,,,,,,,,,,METAR,42.0
LGNX 060850Z /////KT 9999 SCT020 17/10 Q1010,LGNX,2023-05-06T08:50:00Z,37.08,25.37,17.0,10.0,,,,6.21,29.822834,,,,,,,,,,,SCT,2000,,,,,,,VFR,,,,,,,,,,,,METAR,3.0
LGMT 060850Z 36015KT 9999 SCT025 19/13 Q1010,LGMT,2023-05-06T08:50:00Z,39.05,26.6,19.0,13.0,360,15,,6.21,29.822834,,,,,,,,,,,SCT,2500,,,,,,,VFR,,,,,,,,,,,,METAR,4.0
LGKZ 060850Z 05004KT 9999 FEW025 SCT070 18/05 Q1017,LGKZ,2023-05-06T08:50:00Z,40.28,21.83,18.0,5.0,50,4,,6.21,30.029528,,,,,,,,,,,FEW,2500,SCT,7000,,,,,VFR,,,,,,,,,,,,METAR,615.0
LGKF 060850Z 16004KT 140V240 9999 FEW040 19/14 Q1014,LGKF,2023-05-06T08:50:00Z,38.12,20.5,19.0,14.0,160,4,,6.21,29.940945,,,,,,,,,,,FEW,4000,,,,,,,VFR,,,,,,,,,,,,METAR,14.0
LGHI 060850Z 01015G25KT 9999 SCT025 19/14 Q1008,LGHI,2023-05-06T08:50:00Z,38.33,26.13,19.0,14.0,10,15,25,6.21,29.763779,,,,,,,,,,,SCT,2500,,,,,,,VFR,,,,,,,,,,,,METAR,6.0
KRYY 060850Z 00000KT 10SM FEW055 14/12 A3019 RMK AO2 SLP219 T01390122 55002 $,KRYY,2023-05-06T08:50:00Z,34.02,-84.6,13.9,12.2,0,0,,10.0,30.188976,1021.9,,,TRUE,TRUE,,,,,,FEW,5500,,,,,,,VFR,-0.2,,,,,,,,,,,SPECI,306.0
KQOA 060850Z AUTO 01003KT 9999 BKN026 23/23 A2996 RMK AO2 BKN V SCT SLP096 PNO FZRANO TSNO $,KQOA,2023-05-06T08:50:00Z,,,23.0,23.0,10,3,,6.21,29.958662,1009.6,,TRUE,TRUE,TRUE,,TRUE,TRUE,,,BKN,2600,,,,,,,MVFR,,,,,,,,,,,,SPECI,
KDAG 060850Z AUTO 24019G26KT 10SM CLR 13/03 A2998 RMK AO2 PK WND 24026/0850 SLP139 T01330028 56004,KDAG,2023-05-06T08:50:00Z,34.85,-116.78,13.3,2.8,240,19,26,10.0,29.97933,1013.9,,TRUE,TRUE,,,,,,,CLR,,,,,,,,VFR,-0.4,,,,,,,,,,,METAR,584.0
FHAW 060850Z 13015KT 9999 FEW022 27/21 Q1014 NOSIG RMK BLU BLU,FHAW,2023-05-06T08:50:00Z,-7.97,-14.4,27.0,21.0,130,15,,6.21,29.940945,,,,,,TRUE,,,,,FEW,2200,,,,,,,VFR,,,,,,,,,,,,METAR,79.0
ENSB 060850Z 13016KT 9999 -SN VV015 M01/M04 Q1010 RMK WIND 1400FT 13014KT,ENSB,2023-05-06T08:50:00Z,78.25,15.47,-1.0,-4.0,130,16,,6.21,29.822834,,,,,,,,,,-SN,OVX,0,,,,,,,LIFR,,,,,,,,,,,1500,METAR,30.0
ENNE 060850Z 08004KT CAVOK 06/M02 Q1025 W///S4,ENNE,2023-05-06T08:50:00Z,66.03,8.08,6.0,-2.0,80,4,,6.21,30.265747,,,,,,,,,,,CAVOK,,,,,,,,VFR,,,,,,,,,,,,METAR,10.0
ENLK 060850Z 15007KT 9999 FEW035 06/M02 Q1026,ENLK,2023-05-06T08:50:00Z,68.15,13.62,6.0,-2.0,150,7,,6.21,30.295275,,,,,,,,,,,FEW,3500,,,,,,,VFR,,,,,,,,,,,,METAR,26.0
ENHE 060850Z 10004KT CAVOK 06/M02 Q1025 W///S2,ENHE,2023-05-06T08:50:00Z,65.33,2.33,6.0,-2.0,100,4,,6.21,30.265747,,,,,,,,,,,CAVOK,,,,,,,,VFR,,,,,,,,,,,,METAR,10.0
EKVD 060850Z 08009KT 9999 -DZ BKN009 07/05 Q1022,EKVD,2023-05-06T08:50:00Z,55.43,9.32,7.0,5.0,80,9,,6.21,30.177166,,,,,,,,,,-DZ,BKN,900,,,,,,,IFR,,,,,,,,,,,,METAR,41.0
EKOD 060850Z 09011KT 060V130 9999 -RA SCT012 BKN017 07/06 Q1022,EKOD,2023-05-06T08:50:00Z,55.47,10.32,7.0,6.0,90,11,,6.21,30.177166,,,,,,,,,,-RA,SCT,1200,BKN,1700,,,,,MVFR,,,,,,,,,,,,METAR,13.0
EGYP 060850Z 29023KT CAVOK 12/06 Q0992,EGYP,2023-05-06T08:50:00Z,-51.82,-58.45,12.0,6.0,290,23,,6.21,29.291338,,,,,,,,,,,CAVOK,,,,,,,,VFR,,,,,,,,,,,,METAR,70.0
EGYM 060850Z AUTO 18007KT 9999 // BKN013/// 16/12 Q1014,EGYM,2023-05-06T08:50:00Z,52.63,0.57,16.0,12.0,180,7,,6.21,29.940945,,,TRUE,,,,,,,,BKN,1300,,,,,,,MVFR,,,,,,,,,,,,METAR,25.0
EGYH 060850Z AUTO 19006KT 9000 BR FEW009/// 14/12 Q1014,EGYH,2023-05-06T08:50:00Z,52.87,0.15,14.0,12.0,190,6,,5.59,29.940945,,,TRUE,,,,,,,BR,FEW,900,,,,,,,VFR,,,,,,,,,,,,METAR,5.0
EGYE 060850Z AUTO 16006KT //// ///////// ///// Q////,EGYE,2023-05-06T08:50:00Z,52.97,-0.57,,,160,6,,,,,,TRUE,,,,,,,,,,,,,,,,,,,,,,,,,,,,METAR,105.0
EGYD 060850Z AUTO 19006KT 9999 OVC009/// 13/11 Q1014,EGYD,2023-05-06T08:50:00Z,53.03,-0.5,13.0,11.0,190,6,,6.21,29.940945,,,TRUE,,,,,,,,OVC,900,,,,,,,IFR,,,,,,,,,,,,METAR,65.0
EGXZ 060850Z AUTO 15006KT 6000 BR OVC004/// 13/12 Q1013,EGXZ,2023-05-06T08:50:00Z,54.2,-1.38,13.0,12.0,150,6,,3.73,29.911417,,,TRUE,,,,,,,BR,OVC,400,,,,,,,LIFR,,,,,,,,,,,,METAR,24.0
EGXW 060850Z AUTO 15005KT 9999 OVC007/// 14/11 Q1013,EGXW,2023-05-06T08:50:00Z,53.18,-0.52,14.0,11.0,150,5,,6.21,29.911417,,,TRUE,,,,,,,,OVC,700,,,,,,,IFR,,,,,,,,,,,,METAR,70.0
EGXV 060850Z AUTO 18003KT 9999 BKN007/// 14/12 Q1013,EGXV,2023-05-06T08:50:00Z,53.87,-0.45,14.0,12.0,180,3,,6.21,29.911417,,,TRUE,,,,,,,,BKN,700,,,,,,,IFR,,,,,,,,,,,,METAR,6.0
EGXT 060850Z AUTO 19005KT 9999 FEW023/// BKN160/// 14/11 Q1013,EGXT,2023-05-06T08:50:00Z,52.62,-0.47,14.0,11.0,190,5,,6.21,29.911417,,,TRUE,,,,,,,,FEW,2300,BKN,16000,,,,,VFR,,,,,,,,,,,,METAR,74.0
EGXS 060850Z AUTO 16005KT 9999 BKN005/// 14/12 Q1013,EGXS,2023-05-06T08:50:00Z,53.48,0.15,14.0,12.0,160,5,,6.21,29.911417,,,TRUE,,,,,,,,BKN,500,,,,,,,IFR,,,,,,,,,,,,METAR,6.0
EGXE 060850Z AUTO 17005KT 5000 BR OVC004/// 12/11 Q1013,EGXE,2023-05-06T08:50:00Z,54.28,-1.52,12.0,11.0,170,5,,3.11,29.911417,,,TRUE,,,,,,,BR,OVC,400,,,,,,,LIFR,,,,,,,,,,,,METAR,30.0
EGXC 060850Z 19005KT 9999 SCT012 BKN250 15/12 Q1014 RMK GRN,EGXC,2023-05-06T08:50:00Z,53.1,-0.17,15.0,12.0,190,5,,6.21,29.940945,,,,,,,,,,,SCT,1200,BKN,25000,,,,,VFR,,,,,,,,,,,,METAR,9.0
EGWC 060850Z AUTO 16004KT //// ///////// ///// Q////,EGWC,2023-05-06T08:50:00Z,52.63,-2.3,,,160,4,,,,,,TRUE,,,,,,,,,,,,,,,,,,,,,,,,,,,,METAR,79.0
EGVO 060850Z AUTO 14008KT 9999 -RA SCT007/// OVC054/// 12/12 Q1013,EGVO,2023-05-06T08:50:00Z,51.23,-0.95,12.0,12.0,140,8,,6.21,29.911417,,,TRUE,,,,,,,-RA,SCT,700,OVC,5400,,,,,VFR,,,,,,,,,,,,METAR,118.0
EGUW 060850Z AUTO 13007KT 9999 -RA BKN025/// SCT035/// 13/12 Q1015,EGUW,2023-05-06T08:50:00Z,52.12,0.97,13.0,12.0,130,7,,6.21,29.970472,,,TRUE,,,,,,,-RA,BKN,2500,SCT,3500,,,,,MVFR,,,,,,,,,,,,METAR,86.0
EGQM 060850Z AUTO 10003KT 6000 BR OVC002/// 10/10 Q1013,EGQM,2023-05-06T08:50:00Z,55.42,-1.6,10.0,10.0,100,3,,3.73,29.911417,,,TRUE,,,,,,,BR,OVC,200,,,,,,,LIFR,,,,,,,,,,,,METAR,24.0
EGQL 060850Z 07009KT 0350 FG OVC002 09/09 Q1013 RMK RED,EGQL,2023-05-06T08:50:00Z,56.38,-2.87,9.0,9.0,70,9,,0.22,29.911417,,,,,,,,,,FG,OVC,200,,,,,,,LIFR,,,,,,,,,,,,METAR,11.0
EGQK 060850Z AUTO 35004KT 9999 BKN078/// SCT098/// 10/08 Q1013,EGQK,2023-05-06T08:50:00Z,57.65,-3.57,10.0,8.0,350,4,,6.21,29.911417,,,TRUE,,,,,,,,BKN,7800,SCT,9800,,,,,VFR,,,,,,,,,,,,METAR,5.0
EGQA 060850Z AUTO 07004KT 9999 BKN074/// SCT087/// 11/08 Q1013,EGQA,2023-05-06T08:50:00Z,57.83,-3.95,11.0,8.0,70,4,,6.21,29.911417,,,TRUE,,,,,,,,BKN,7400,SCT,8700,,,,,VFR,,,,,,,,,,,,METAR,4.0
EGOV 060850Z AUTO 09004KT 9999 -DZ SCT004/// OVC020/// 13/12 Q1011,EGOV,2023-05-06T08:50:00Z,53.25,-4.53,13.0,12.0,90,4,,6.21,29.852362,,,TRUE,,,,,,,-DZ,SCT,400,OVC,2000,,,,,MVFR,,,,,,,,,,,,METAR,11.0
EGOS 060850Z AUTO 14007KT 9999 OVC014/// 14/10 Q1012,EGOS,2023-05-06T08:50:00Z,52.8,-2.67,14.0,10.0,140,7,,6.21,29.88189,,,TRUE,,,,,,,,OVC,1400,,,,,,,MVFR,,,,,,,,,,,,METAR,76.0
EGOP 060850Z AUTO 09006KT 9999 OVC010/// 14/12 Q1010,EGOP,2023-05-06T08:50:00Z,51.72,-4.37,14.0,12.0,90,6,,6.21,29.822834,,,TRUE,,,,,,,,OVC,1000,,,,,,,MVFR,,,,,,,,,,,,METAR,8.0
EGOM 060850Z AUTO 10005KT 9999 BKN004/// SCT045/// BKN054/// 14/12 Q1012,EGOM,2023-05-06T08:50:00Z,55.05,-2.55,14.0,12.0,100,5,,6.21,29.88189,,,TRUE,,,,,,,,BKN,400,SCT,4500,BKN,5400,,,LIFR,,,,,,,,,,,,METAR,286.0
EGDR 060850Z AUTO 33006KT 9999 OVC004/// 13/13 Q1009,EGDR,2023-05-06T08:50:00Z,50.08,-5.25,13.0,13.0,330,6,,6.21,29.793306,,,TRUE,,,,,,,,OVC,400,,,,,,,LIFR,,,,,,,,,,,,METAR,74.0
EGDM 060850Z AUTO 14012KT 4500 -RA OVC003/// 12/12 Q1012,EGDM,2023-05-06T08:50:00Z,51.17,-1.75,12.0,12.0,140,12,,2.8,29.88189,,,TRUE,,,,,,,-RA,OVC,300,,,,,,,LIFR,,,,,,,,,,,,METAR,122.0
EEEI 060850Z 34007KT 300V040 9999 SCT046 07/M05 Q1032 NOSIG,EEEI,2023-05-06T08:50:00Z,59.27,24.2,7.0,-5.0,340,7,,6.21,30.47244,,,,,,TRUE,,,,,SCT,4600,,,,,,,VFR,,,,,,,,,,,,METAR,19.0
BGKK 060850Z AUTO VRB01KT 9999NDV NCD M02/M04 Q1011,BGKK,2023-05-06T08:50:00Z,65.57,-37.13,-2.0,-4.0,0,1,,,29.852362,,,TRUE,,,,,,,,CLR,,,,,,,,,,,,,,,,,,,,METAR,37.0
BGJN 060850Z 02001KT 5000 -SN FEW008 SCT012 BKN052 M02/M03 Q1005,BGJN,2023-05-06T08:50:00Z,69.25,-51.07,-2.0,-3.0,20,1,,3.11,29.675198,,,,,,,,,,-SN,FEW,800,SCT,1200,BKN,5200,,,MVFR,,,,,,,,,,,,METAR,22.0
BGBW 060850Z 00000KT 9999 FEW200 M01/M02 Q1008,BGBW,2023-05-06T08:50:00Z,61.17,-45.42,-1.0,-2.0,0,0,,6.21,29.763779,,,,,,,,,,,FEW,20000,,,,,,,VFR,,,,,,,,,,,,METAR,49.0
KJDN 060848Z AUTO 09008KT 12/09 A2981 RMK AO1 SLP088 P0002 60002 T01170089 55002,KJDN,2023-05-06T08:48:00Z,47.33,-106.95,11.7,8.9,90,8,,,29.811024,1008.8,,TRUE,TRUE,,,,,,,,,,,,,,,,-0.2,,,,,0.02,0.02,,,,,METAR,802.0
KCQT 060847Z AUTO 00000KT 10SM CLR 13/08 A3009 RMK AO2 SLP187 T01280083 56001 $,KCQT,2023-05-06T08:47:00Z,34.02,-118.28,12.8,8.3,0,0,,10.0,30.088583,1018.7,,TRUE,TRUE,TRUE,,,,,,CLR,,,,,,,,VFR,-0.1,,,,,,,,,,,METAR,51.0
MMMX 060845Z 23002KT 8SM SCT250 17/07 A3035 NOSIG RMK SLP078 57011 908 8/008 HZY,MMMX,2023-05-06T08:45:00Z,19.43,-99.08,17.0,7.0,230,2,,8.0,30.351377,1007.8,,,,,TRUE,,,,,SCT,25000,,,,,,,VFR,-1.1,,,,,,,,,,,METAR,2224.0
MMMM 060845Z 00000KT 7SM BKN300 13/07 A3024 RMK SLP087 57002 907 8/008 HZY,MMMM,2023-05-06T08:45:00Z,19.85,-101.03,13.0,7.0,0,0,,7.0,30.239174,1008.7,,,,,,,,,,BKN,30000,,,,,,,VFR,-0.2,,,,,,,,,,,METAR,1840.0
LHSM 060845Z AUTO VRB02KT CAVOK 21/13 Q1017 NOSIG,LHSM,2023-05-06T08:45:00Z,46.68,17.17,21.0,13.0,0,2,,6.21,30.029528,,,TRUE,,,TRUE,,,,,CAVOK,,,,,,,,VFR,,,,,,,,,,,,METAR,119.0
LHPR 060845Z AUTO 33006KT 280V010 CAVOK 19/13 Q1017 TEMPO SHRA,LHPR,2023-05-06T08:45:00Z,47.63,17.82,19.0,13.0,330,6,,6.21,30.029528,,,TRUE,,,,,,,,CAVOK,,,,,,,,VFR,,,,,,,,,,,,METAR,127.0
LHPP 060845Z AUTO 16007KT 110V190 CAVOK 21/11 Q1018,LHPP,2023-05-06T08:45:00Z,45.98,18.23,21.0,11.0,160,7,,6.21,30.059055,,,TRUE,,,,,,,,CAVOK,,,,,,,,VFR,,,,,,,,,,,,METAR,193.0
LHPA 060845Z 27004KT 9999 FEW033 SCT083 BKN200 21/12 Q1017 NOSIG RMK BLU,LHPA,2023-05-06T08:45:00Z,47.35,17.5,21.0,12.0,270,4,,6.21,30.029528,,,,,,TRUE,,,,,FEW,3300,SCT,8300,BKN,20000,,,VFR,,,,,,,,,,,,METAR,143.0
LHDC 060845Z AUTO VRB03KT CAVOK 21/10 Q1019 NOSIG,LHDC,2023-05-06T08:45:00Z,47.48,21.62,21.0,10.0,0,3,,6.21,30.088583,,,TRUE,,,TRUE,,,,,CAVOK,,,,,,,,VFR,,,,,,,,,,,,METAR,105.0
KSWF 060845Z 00000KT 10SM SKC 05/05 A3025,KSWF,2023-05-06T08:45:00Z,41.5,-74.08,5.0,5.0,0,0,,10.0,30.250984,,,,,,,,,,,SKC,,,,,,,,VFR,,,,,,,,,,,,METAR,139.0
FACV 060843Z 22006KT CAVOK 14/07 Q1018,FACV,2023-05-06T08:43:00Z,-31.47,19.75,14.0,7.0,220,6,,6.21,30.059055,,,,,,,,,,,CAVOK,,,,,,,,VFR,,,,,,,,,,,,SPECI,977.0
MMMY 060842Z 00000KT 5SM SCT080 23/23 A2984 RMK SLP/// 5//// 9// 8/070,MMMY,2023-05-06T08:42:00Z,25.77,-100.1,23.0,23.0,0,0,,5.0,29.840551,,,,,,,,,,,SCT,8000,,,,,,,MVFR,,,,,,,,,,,,METAR,382.0
MMHO 060842Z 19003KT 10SM FEW200 16/05 A2996 RMK SLP146 57001 910 8/004 HZY,MMHO,2023-05-06T08:42:00Z,29.08,-111.05,16.0,5.0,190,3,,10.0,29.958662,1014.6,,,,,,,,,,FEW,20000,,,,,,,VFR,-0.1,,,,,,,,,,,METAR,186.0
MMMZ 060841Z 00000KT 10SM SCT090 SCT240 20/16 A2986 RMK SLP112 57007 953 8/032,MMMZ,2023-05-06T08:41:00Z,23.17,-106.27,20.0,16.0,0,0,,10.0,29.861221,1011.2,,,,,,,,,,SCT,9000,SCT,24000,,,,,VFR,-0.7,,,,,,,,,,,METAR,7.0
MMMD 060841Z 14010KT 6SM SCT300 26/23 A2994 RMK SLP139 57006 911 8/008 HZY,MMMD,2023-05-06T08:41:00Z,20.95,-89.65,26.0,23.0,140,10,,6.0,29.940945,1013.9,,,,,,,,,,SCT,30000,,,,,,,VFR,-0.6,,,,,,,,,,,METAR,10.0
MMAS 060841Z 21004KT 10SM FEW150 16/M06 A3024 RMK SLP/// 5//// 9// 8/030,MMAS,2023-05-06T08:41:00Z,21.7,-102.32,16.0,-6.0,210,4,,10.0,30.239174,,,,,,,,,,,FEW,15000,,,,,,,VFR,,,,,,,,,,,,METAR,1866.0
MMZC 060840Z 00000KT 10SM SCT100 15/M03 A3030 RMK 8/030,MMZC,2023-05-06T08:40:00Z,22.9,-102.68,15.0,-3.0,0,0,,10.0,30.301182,,,,,,,,,,,SCT,10000,,,,,,,VFR,,,,,,,,,,,,METAR,2175.0
MMUN 060840Z 00000KT 7SM SCT015 25/23 A2997 RMK SLP149 57013 917 8/100,MMUN,2023-05-06T08:40:00Z,21.03,-86.85,25.0,23.0,0,0,,7.0,29.970472,1014.9,,,,,,,,,,SCT,1500,,,,,,,VFR,-1.3,,,,,,,,,,,METAR,13.0
MMTO 060840Z 00000KT 5SM SKC 09/08 A3042 RMK SLP121 57003 905 HZY,MMTO,2023-05-06T08:40:00Z,19.35,-99.57,9.0,8.0,0,0,,5.0,30.41929,1012.1,,,,,,,,,,SKC,,,,,,,,MVFR,-0.3,,,,,,,,,,,METAR,2582.0
MMTJ 060840Z 00000KT 6SM FEW020 13/11 A3010 RMK SLP211 54000 926 8/500 HZY,MMTJ,2023-05-06T08:40:00Z,32.53,-116.97,13.0,11.0,0,0,,6.0,30.100393,1021.1,,,,,,,,,,FEW,2000,,,,,,,VFR,,,,,,,,,,,,METAR,150.0
MMQT 060840Z 13003KT 5SM BKN020 BKN100 17/08 A3030 RMK 8/570,MMQT,2023-05-06T08:40:00Z,20.62,-100.18,17.0,8.0,130,3,,5.0,30.301182,,,,,,,,,,,BKN,2000,BKN,10000,,,,,MVFR,,,,,,,,,,,,METAR,1909.0
MMGL 060840Z 00000KT 8SM SKC 18/03 A3016 RMK SLP075 57011 952,MMGL,2023-05-06T08:40:00Z,20.52,-103.32,18.0,3.0,0,0,,8.0,30.159449,1007.5,,,,,,,,,,SKC,,,,,,,,VFR,-1.1,,,,,,,,,,,METAR,1531.0
MMAA 060840Z 31003KT 4SM SCT015 BKN100 OVC300 27/24 A2982 RMK SLP093 57015 903 8/177 HZY,MMAA,2023-05-06T08:40:00Z,16.75,-99.75,27.0,24.0,310,3,,4.0,29.819881,1009.3,,,,,,,,,,SCT,1500,BKN,10000,OVC,30000,,,MVFR,-1.5,,,,,,,,,,,METAR,5.0
KTFP 060835Z AUTO 13011KT 10SM OVC007 26/25 A2990 RMK AO2 T02600245,KTFP,2023-05-06T08:35:00Z,27.92,-97.22,26.0,24.5,130,11,,10.0,29.899607,,,TRUE,TRUE,,,,,,,OVC,700,,,,,,,IFR,,,,,,,,,,,,SPECI,5.0
KOLE 060835Z AUTO 00000KT 10SM CLR 03/03 A3030 RMK AO2,KOLE,2023-05-06T08:35:00Z,42.23,-78.37,3.0,3.0,0,0,,10.0,30.301182,,,TRUE,TRUE,,,,,,,CLR,,,,,,,,VFR,,,,,,,,,,,,METAR,651.0
KIDI 060835Z AUTO 00000KT 10SM CLR 04/04 A3031 RMK A01,KIDI,2023-05-06T08:35:00Z,40.63,-79.1,4.0,4.0,0,0,,10.0,30.31004,,,TRUE,TRUE,,,,,,,CLR,,,,,,,,VFR,,,,,,,,,,,,METAR,425.0
KF17 060835Z AUTO 20007G14KT 10SM CLR 23/17 A2992 RMK AO2,KF17,2023-05-06T08:35:00Z,31.83,-94.15,23.0,17.0,200,7,14,10.0,29.920275,,,TRUE,TRUE,,,,,,,CLR,,,,,,,,VFR,,,,,,,,,,,,METAR,93.0
KEOE 060835Z AUTO 00000KT 10SM SCT090 13/13 A3024 RMK AO2,KEOE,2023-05-06T08:35:00Z,34.32,-81.63,13.0,13.0,0,0,,10.0,30.239174,,,TRUE,TRUE,,,,,,,SCT,9000,,,,,,,VFR,,,,,,,,,,,,METAR,166.0
YPAD 060830Z 18009KT 9999 FEW042 SCT057 11/03 Q1026 RF00.0/000.6,YPAD,2023-05-06T08:30:00Z,-34.95,138.52,11.0,3.0,180,9,,6.21,30.295275,,,,,,,,,,,FEW,4200,SCT,5700,,,,,VFR,,,,,,,,,,,,SPECI,2.0
VYMD 060830Z 14005KT 7000 BKN020 FEW025CB SCT120 40/18 Q1001,VYMD,2023-05-06T08:30:00Z,21.7,95.98,40.0,18.0,140,5,,4.35,29.557087,,,,,,,,,,,BKN,2000,FEW,2500,SCT,12000,,,MVFR,,,,,,,,,,,,METAR,87.0
VOSR 060830Z 28016KT 5000 FU FEW030 SCT090 32/20 Q1007 NOSIG,VOSR,2023-05-06T08:30:00Z,16.0,73.53,32.0,20.0,280,16,,3.11,29.734253,,,,,,TRUE,,,,FU,FEW,3000,SCT,9000,,,,,MVFR,,,,,,,,,,,,METAR,62.0
VOCL 060830Z 27010KT 6000 FEW015 FEW025TCU 33/21 Q1007 NOSIG,VOCL,2023-05-06T08:30:00Z,11.13,75.95,33.0,21.0,270,10,,3.73,29.734253,,,,,,TRUE,,,,,FEW,1500,FEW,2500,,,,,MVFR,,,,,,,,,,,,METAR,104.0
VEBU 060830Z 05005KT 6000 FEW025 36/15 Q1006 NOSIG,VEBU,2023-05-06T08:30:00Z,21.98,82.12,36.0,15.0,50,5,,3.73,29.704725,,,,,,TRUE,,,,,FEW,2500,,,,,,,MVFR,,,,,,,,,,,,METAR,274.0
KM04 060830Z AUTO 14006KT 10SM SCT047 SCT055 OVC070 15/15 A3004 RMK A01,KM04,2023-05-06T08:30:00Z,35.58,-89.58,15.0,15.0,140,6,,10.0,30.041338,,,TRUE,TRUE,,,,,,,SCT,4700,SCT,5500,OVC,7000,,,VFR,,,,,,,,,,,,METAR,83.0
HKMO 060830Z 17011KT 9999 FEW025CB SCT080 30/23 Q1014 NOSIG,HKMO,2023-05-06T08:30:00Z,-4.02,39.62,30.0,23.0,170,11,,6.21,29.940945,,,,,,TRUE,,,,,FEW,2500,SCT,8000,,,,,VFR,,,,,,,,,,,,METAR,55.0
GOTT 060830Z 24010KT CAVOK 30/18 Q1011,GOTT,2023-05-06T08:30:00Z,13.73,-13.65,30.0,18.0,240,10,,6.21,29.852362,,,,,,,,,,,CAVOK,,,,,,,,VFR,,,,,,,,,,,,METAR,53.0
RJSH 060828Z 06008KT 4900 -SHRA BR FEW003 BKN005 OVC040 09/08 Q1007 RMK 2ST003 5ST005 8CU040 A2975,RJSH,2023-05-06T08:28:00Z,40.55,141.47,9.0,8.0,60,8,,3.04,29.734253,,,,,,,,,,-SHRA BR,FEW,300,BKN,500,OVC,4000,,,IFR,,,,,,,,,,,,METAR,46.0
RJSO 060820Z 04007KT 4900 -DZRA BR SCT005 BKN007 OVC010 08/07 Q1008 RMK 3ST005 5ST007 8ST010 A2979,RJSO,2023-05-06T08:20:00Z,41.22,141.12,8.0,7.0,40,7,,3.04,29.763779,,,,,,,,,,-DZ -RA BR,SCT,500,BKN,700,OVC,1000,,,IFR,,,,,,,,,,,,SPECI,7.0
LGSK 060820Z 34011KT 9999 FEW025 20/13 Q1015,LGSK,2023-05-06T08:20:00Z,39.18,23.5,20.0,13.0,340,11,,6.21,29.970472,,,,,,,,,,,FEW,2500,,,,,,,VFR,,,,,,,,,,,,METAR,13.0
