{"station_id": ["AGGH", "ANYN", "AYPY", "BGBW", "BGGH", "BGJN", "BGKK", "BGSF", "BGTL", "BIAR", "BIBD", "BIEG", "BIIS", "BIKF", "BIRK", "BIVM", "BKPR", "CAHR", "CBBC", "CERM", "CMFM", "CMGB", "CPBT", "CPEH", "CPFI", "CPIN", "CPIR", "CPRO", "CPRY", "CPST", "CPSV", "CTCK", "CTNK", "CTRA", "CWAF", "CWAJ", "CWAQ", "CWAR", "CWAV", "CWBA", "CWBK", "CWBO", "CWBS", "CWBT", "CWBU", "CWBV", "CWBY", "CWBZ", "CWCF", "CWCI", "CWCJ", "CWCO", "CWCT", "CWDA", "CWDC", "CWDJ", "CWDK", "CWDM", "CWDO", "CWDQ", "CWDV", "CWDZ", "CWEE", "CWEF", "CWEH", "CWEL", "CWEP", "CWEQ", "CWER", "CWEU", "CWEW", "CWEZ", "CWFF", "CWFJ", "CWFQ", "CWGB", "CWGD", "CWGH", "CWGM", "CWGR", "CWGT", "CWGY", "CWHI", "CWHL", "CWHO", "CWHP", "CWHQ", "CWHT", "CWHV", "CWID", "CWIG", "CWII", "CWIJ", "CWIK", "CWIL", "CWIP", "CWIS", "CWIT", "CWIW", "CWIZ", "CWJB", "CWJC", "CWJD", "CWJH", "CWJI", "CWJO", "CWJR", "CWJT", "CWJU", "CWJV", "CWJW", "CWJX", "CWKD", "CWKG", "CWKH", "CWKM", "CWKO", "CWKX", "CWLB", "CWLC", "CWLE", "CWLM", "CWLP", "CWLS", "CWLX", "CWLY", "CWME", "CWMJ", "CWMM", "CWMQ", "CWMT", "CWNC", "CWND", "CWNE", "CWNH", "CWNK", "CWNP", "CWNQ", "CWNZ", "CWOB", "CWOC", "CWOD", "CWOE", "CWOY", "CWPD", "CWPE", "CWPF", "CWPK", "CWPO", "CWPR", "CWPZ", "CWQH", "CWQK", "CWQO", "CWQP", "CWQR", "CWQS", "CWQV", "CWRA", "CWRJ", "CWRK", "CWRM", "CWRN", "CWRT", "CWRU", "CWRY", "CWRZ", "CWSA", "CWSD", "CWSF", "CWSG", "CWSK", "CWSL", "CWSP", "CWSR", "CWSS", "CWST", "CWTA", "CWTG", "CWTN", "CWTT", "CWTY", "CWUS", "CWUW", "CWUX", "CWVF", "CWVI", "CWVN", "CWVP", "CWVQ", "CWVT", "CWVU", "CWWA", "CWWB", "CWWE", "CWWF", "CWWK", "CWWL", "CWWS", "CWWZ", "CWXA", "CWXC", "CWXI", "CWXL", "CWYJ", "CWYL", "CWYY", "CWZA", "CWZG", "CWZL", "CWZN", "CWZO", "CWZQ", "CWZW", "CXAF", "CXAG", "CXAJ", "CXAK", "CXAT", "CXBA", "CXBI", "CXBK", "CXBO", "CXBR", "CXBW", "CXCA", "CXCD", "CXCK", "CXCP", "CXCS", "CXDB", "CXDE", "CXDI", "CXDK", "CXDW", "CXEA", "CXEC", "CXET", "CXFM", "CXFR", "CXGH", "CXHA", "CXHD", "CXHM", "CXHP", "CXHR", "CXIB", "CXKA", "CXKE", "CXKI", "CXKM", "CXKT", "CXLB", "CXLL", "CXMD", "CXMG", "CXMI", "CXMM", "CXMO", "CXMY", "CXNM", "CXNP", "CXOL", "CXOX", "CXOY", "CXPA", "CXPC", "CXPL", "CXRB", "CXRH", "CXRL", "CXSC", "CXSE", "CXSH", "CXSL", "CXSP", "CXTD", "CXTH", "CXTN", "CXTO", "CXTP", "CXTV", "CXVM", "CXVN", "CXVW", "CXWB", "CXWM", "CXWN", "CXYH", "CXZC", "CXZV", "CYAH", "CYAM", "CYAT", "CYAY", "CYBC", "CYBG", "CYBK", "CYBQ", "CYBR", "CYBU", "CYBW", "CYBX", "CYCA", "CYCB", "CYCK", "CYCO", "CYCY", "CYDB", "CYDF", "CYDL", "CYDN", "CYDP", "CYDQ", "CYEG", "CYEK", "CYEN", "CYER", "CYET", "CYEV", "CYFB", "CYFC", "CYFS", "CYFT", "CYGL", "CYGP", "CYGR", "CYGV", "CYGW", "CYGX", "CYHD", "CYHE", "CYHK", "CYHM", "CYHU", "CYHY", "CYHZ", "CYIN", "CYIO", "CYIV", "CYJT", "CYKA", "CYKF", "CYKJ", "CYKL", "CYKP", "CYKY", "CYLL", "CYLW", "CYMA", "CYMH", "CYMM", "CYMO", "CYMT", "CYMX", "CYNA", "CYNE", "CYNM", "CYOD", "CYOJ", "CYOO", "CYOW", "CYPA", "CYPD", "CYPE", "CYPH", "CYPL", "CYPO", "CYPQ", "CYPR", "CYPX", "CYPY", "CYQA", "CYQB", "CYQD", "CYQF", "CYQG", "CYQH", "CYQI", "CYQK", "CYQL", "CYQM", "CYQQ", "CYQR", "CYQT", "CYQU", "CYQV", "CYQW", "CYQX", "CYQY", "CYQZ", "CYRB", "CYRJ", "CYRL", "CYRQ", "CYRT", "CYRV", "CYSB", "CYSC", "CYSF", "CYSJ", "CYSM", "CYTE", "CYTH", "CYTL", "CYTR", "CYTS", "CYTZ", "CYUA", "CYUL", "CYUX", "CYUY", "CYVC", "CYVL", "CYVM", "CYVO", "CYVP", "CYVQ", "CYVR", "CYVT", "CYVV", "CYWE", "CYWG", "CYWK", "CYWL", "CYXC", "CYXE", "CYXH", "CYXJ", "CYXL", "CYXR", "CYXS", "CYXT", "CYXU", "CYXX", "CYXY", "CYYB", "CYYC", "CYYD", "CYYE", "CYYF", "CYYG", "CYYH", "CYYJ", "CYYL", "CYYN", "CYYQ", "CYYR", "CYYT", "CYYU", "CYYY", "CYYZ", "CYZE", "CYZF", "CYZH", "CYZP", "CYZR", "CYZS", "CYZT", "CYZV", "CYZX", "CYZY", "CZBF", "CZCP", "CZCR", "CZDB", "CZEL", "CZEV", "CZFS", "CZHY", "CZKD", "CZMD", "CZMJ", "CZOL", "CZPC", "CZPS", "CZSJ", "CZSM", "CZSP", "CZTB", "CZUM", "CZVL", "CZZJ", "DAAD", "DAAE", "DAAG", "DAAJ", "DAAP", "DAAS", "DAAT", "DAAV", "DAAY", "DABB", "DABC", "DABS", "DABT", "DAFH", "DAOB", "DAOF", "DAOI", "DAOL", "DAON", "DAOO", "DAOR", "DAOV", "DAOY", "DATM", "DAUA", "DAUB", "DAUE", "DAUG", "DAUH", "DAUI", "DAUK", "DAUL", "DAUO", "DAUT", "DAUU", "DAUZ", "DBBB", "DFFD", "DFOO", "DGAA", "DIAP", "DIBK", "DIYO", "DNAA", "DNEN", "DNGO", "DNIL", "DNIM", "DNKA", "DNKN", "DNMM", "DNMN", "DNYO", "DRRM", "DRRN", "DRRT", "DRZA", "DRZR", "DTKA", "DTMB", "DTNH", "DTTA", "DTTB", "DTTD", "DTTF", "DTTG", "DTTJ", "DTTK", "DTTL", "DTTN", "DTTR", "DTTX", "DTTZ", "DXNG", "DXSK", "DXXX", "EBAW", "EBBE", "EBBL", "EBBR", "EBCI", "EBCV", "EBDT", "EBFN", "EBFS", "EBLB", "EBLG", "EBOS", "EDAH", "EDBC", "EDDB", "EDDC", "EDDE", "EDDF", "EDDG", "EDDH", "EDDK", "EDDL", "EDDM", "EDDN", "EDDP", "EDDR", "EDDS", "EDDV", "EDDW", "EDFH", "EDFM", "EDGS", "EDHI", "EDHK", "EDHL", "EDJA", "EDLN", "EDLP", "EDLV", "EDLW", "EDMA", "EDMO", "EDNY", "EDQM", "EDSB", "EDTL", "EDTY", "EDVE", "EDVK", "EDWE", "EDXW", "EEEI", "EEKE", "EEPU", "EETN", "EETU", "EFET", "EFHA", "EFHK", "EFIV", "EFJO", "EFJY", "EFKE", "EFKI", "EFKK", "EFKS", "EFKT", "EFKU", "EFLP", "EFMA", "EFMI", "EFOU", "EFPO", "EFRO", "EFSA", "EFSI", "EFTP", "EFTU", "EFUT", "EFVA", "EGAA", "EGAC", "EGAE", "EGBB", "EGBJ", "EGCC", "EGCK", "EGDM", "EGDR", "EGDY", "EGEC", "EGEO", "EGFF", "EGGD", "EGGP", "EGGW", "EGHH", "EGHI", "EGHQ", "EGJA", "EGJB", "EGJJ", "EGKA", "EGKB", "EGKK", "EGLC", "EGLF", "EGLL", "EGMC", "EGMD", "EGNH", "EGNJ", "EGNM", "EGNR", "EGNS", "EGNT", "EGNV", "EGNX", "EGOM", "EGOP", "EGOS", "EGOV", "EGPA", "EGPB", "EGPC", "EGPD", "EGPE", "EGPF", "EGPH", "EGPI", "EGPK", "EGPL", "EGPN", "EGPO", "EGPU", "EGQA", "EGQK", "EGQL", "EGQM", "EGQS", "EGSH", "EGSS", "EGSY", "EGTC", "EGTE", "EGTK", "EGUB", "EGUL", "EGUN", "EGUW", "EGVA", "EGVN", "EGVO", "EGVP", "EGWC", "EGWU", "EGXC", "EGXE", "EGXS", "EGXT", "EGXV", "EGXW", "EGXZ", "EGYD", "EGYE", "EGYH", "EGYM", "EGYP", "EHAK", "EHAM", "EHBK", "EHDL", "EHDV", "EHEH", "EHFD", "EHFS", "EHGG", "EHGR", "EHHW", "EHJA", "EHJR", "EHKD", "EHKV", "EHLE", "EHLW", "EHMA", "EHMG", "EHPG", "EHRD", "EHSA", "EHSC", "EHVK", "EHVL", "EHWO", "EICK", "EIDL", "EIDW", "EIKN", "EIKY", "EIME", "EINN", "EISG", "EIWF", "EKAH", "EKBI", "EKCH", "EKEB", "EKKA", "EKOD", "EKRK", "EKRN", "EKRS", "EKSB", "EKSP", "EKVD", "EKVG", "EKYT", "ELLX", "ENAL", "ENAN", "ENAT", "ENBL", "ENBN", "ENBO", "ENBR", "ENBS", "ENBV", "ENCN", "ENDR", "ENDU", "ENEV", "ENFB", "ENFL", "ENGC", "ENGM", "ENHD", "ENHE", "ENHF", "ENHK", "ENHM", "ENHV", "ENJS", "ENKB", "ENKR", "ENLA", "ENLE", "ENLK", "ENMH", "ENML", "ENMS", "ENNA", "ENNE", "ENNM", "ENOA", "ENOL", "ENOV", "ENQA", "ENQC", "ENQR", "ENRA", "ENRM", "ENRO", "ENRS", "ENRY", "ENSB", "ENSD", "ENSE", "ENSF", "ENSG", "ENSH", "ENSK", "ENSL", "ENSO", "ENSR", "ENSS", "ENST", "ENTC", "ENTO", "ENUG", "ENUN", "ENVA", "ENVD", "ENWV", "ENZV", "EPBY", "EPGD", "EPKK", "EPKT", "EPLB", "EPLL", "EPMO", "EPPO", "EPRA", "EPRZ", "EPSC", "EPSY", "EPWA", "EPWR", "EPZG", "ESCF", "ESCM", "ESDF", "ESGG", "ESGJ", "ESGP", "ESGT", "ESIA", "ESIB", "ESKM", "ESKN", "ESKS", "ESMK", "ESMQ", "ESMS", "ESMT", "ESMX", "ESND", "ESNG", "ESNK", "ESNL", "ESNN", "ESNO", "ESNQ", "ESNS", "ESNU", "ESNV", "ESNX", "ESNZ", "ESOE", "ESOH", "ESOK", "ESOW", "ESPA", "ESPE", "ESSA", "ESSB", "ESSD", "ESSL", "ESSP", "ESST", "ESSV", "ESTA", "ESTL", "ESUP", "ESUT", "ETAD", "ETAR", "ETEB", "ETGG", "ETHA", "ETHB", "ETHC", "ETHF", "ETHL", "ETHN", "ETHS", "ETIC", "ETIH", "ETIK", "ETMN", "ETNH", "ETNL", "ETNN", "ETNS", "ETNT", "ETNW", "ETOU", "ETSB", "ETSH", "ETSI", "ETSL", "ETSN", "ETWM", "EVGA", "EVLA", "EVRA", "EVVA", "EYKA", "EYPA", "EYSA", "EYVI", "FABL", "FACT", "FACV", "FAEL", "FAGG", "FAHS", "FAJB", "FAKM", "FAKN", "FALA", "FALE", "FALW", "FAMM", "FAOR", "FAPE", "FAPN", "FAUP", "FAUT", "FAVV", "FBKE", "FBMN", "FBPM", "FBSK", "FCBB", "FCOD", "FCPP", "FDMS", "FDSK", "FEFF", "FGSL", "FHAW", "FIMP", "FJDG", "FKKD", "FKKL", "FKKN", "FKKR", "FKYS", "FMCZ", "FMEE", "FMEP", "FMMI", "FMMT", "FMNA", "FMNM", "FMNN", "FMSD", "FNLU", "FOOG", "FOOL", "FOON", "FQBR", "FQCH", "FQIN", "FQLC", "FQMA", "FQNC", "FQNP", "FQPB", "FQQL", "FQTT", "FQVL", "FQXA", "FSIA", "FTTA", "FTTD", "FTTJ", "FVCZ", "FVFA", "FVJN", "FVKB", "FVRG", "FVWN", "FWCL", "FWKI", "FYKM", "FYKT", "FYOA", "FYWB", "FYWE", "FYWH", "FYWW", "FZAA", "FZIC", "FZQA", "GABS", "GAKD", "GAMB", "GANR", "GBYD", "GCFV", "GCGM", "GCHI", "GCLA", "GCLP", "GCRR", "GCTS", "GCXO", "GECE", "GEML", "GFLL", "GLRB", "GMAD", "GMAG", "GMAT", "GMAZ", "GMFB", "GMFF", "GMFK", "GMFM", "GMFO", "GMMB", "GMMC", "GMMD", "GMME", "GMMH", "GMMI", "GMML", "GMMN", "GMMW", "GMMX", "GMMZ", "GMTA", "GMTN", "GMTT", "GOBD", "GOGG", "GOGK", "GOGS", "GOOD", "GOOG", "GOOK", "GOOY", "GOSM", "GOSP", "GOSS", "GOTK", "GOTT", "GQNO", "GQPA", "GQPP", "GUCY", "GVAC", "GVBA", "GVNP", "GVSV", "HADR", "HBBA", "HCMF", "HCMM", "HDAM", "HEAT", "HEAX", "HEBA", "HEBL", "HECA", "HECP", "HEGN", "HEIS", "HELX", "HEMA", "HEMM", "HEOC", "HEPS", "HESG", "HESH", "HESN", "HESW", "HESX", "HETR", "HKEL", "HKEM", "HKGA", "HKJK", "HKKI", "HKKT", "HKLO", "HKLU", "HKME", "HKML", "HKMO", "HKNI", "HKNK", "HKNW", "HKWJ", "HRYR", "HTAR", "HTBU", "HTDA", "HTDO", "HTIB", "HTIR", "HTKA", "HTKJ", "HTMG", "HTMP", "HTMT", "HTMU", "HTMW", "HTSO", "HTSU", "HTTB", "HTZA", "K04V", "K04W", "K05U", "K06C", "K06D", "K08D", "K0A0", "K0A9", "K0CO", "K0E0", "K0F2", "K0J4", "K0R0", "K0S9", "K0V4", "K0VG", "K10G", "K12N", "K13K", "K14Y", "K15M", "K17J", "K18A", "K18H", "K19S", "K1A5", "K1A6", "K1A9", "K1AM", "K1BM", "K1BN", "K1BW", "K1CM", "K1CN", "K1CW", "K1DM", "K1DN", "K1EM", "K1EN", "K1EW", "K1F0", "K1FW", "K1GM", "K1GN", "K1H2", "K1HM", "K1HN", "K1HW", "K1IM", "K1IN", "K1IW", "K1JM", "K1JN", "K1JW", "K1KM", "K1LN", "K1LW", "K1M4", "K1MM", "K1MW", "K1NW", "K1OM", "K1ON", "K1OW", "K1P1", "K1R7", "K1R8", "K1S5", "K1U7", "K1V4", "K1V6", "K1YT", "K20U", "K20V", "K21D", "K22N", "K24A", "K24J", "K28J", "K2A0", "K2C8", "K2D5", "K2DP", "K2G4", "K2G9", "K2I0", "K2IS", "K2J3", "K2J5", "K2J9", "K2M2", "K2P2", "K2R9", "K2V5", "K2V6", "K2W6", "K2WX", "K33N", "K33V", "K35A", "K38S", "K3AU", "K3D2", "K3F3", "K3K3", "K3L4", "K3N8", "K3R7", "K3S8", "K3T5", "K3U3", "K40B", "K40U", "K41U", "K42J", "K46D", "K46U", "K48A", "K49A", "K4A6", "K4A9", "K4BM", "K4F2", "K4I3", "K4M9", "K4MR", "K4O4", "K4R5", "K4S1", "K4S2", "K4U6", "K4V0", "K4V1", "K54A", "K54J", "K57C", "K5A6", "K5C1", "K5H4", "K5R8", "K5SM", "K5T9", "K63S", "K65S", "K66R", "K6A1", "K6A2", "K6B0", "K6B9", "K6I2", "K6L4", "K6P9", "K6R3", "K6R6", "K6S0", "K6S2", "K6S8", "K77S", "K79J", "K7BM", "K7L2", "K7W4", "K7W6", "K81R", "K82C", "K8A0", "K8A3", "K8B0", "K8D3", "K8T6", "K8W2", "K96D", "K9A5", "K9D7", "K9L2", "K9MN", "K9S9", "K9V9", "KA39", "KAAA", "KAAF", "KAAO", "KAAS", "KAAT", "KABE", "KABH", "KABI", "KABQ", "KABR", "KABY", "KACB", "KACJ", "KACK", "KACP", "KACQ", "KACT", "KACV", "KACY", "KACZ", "KADC", "KADF", "KADG", "KADH", "KADM", "KADS", "KADT", "KADU", "KADW", "KAEG", "KAEJ", "KAEL", "KAEX", "KAFF", "KAFJ", "KAFK", "KAFN", "KAFO", "KAFP", "KAFW", "KAGC", "KAGI", "KAGO", "KAGS", "KAHN", "KAHQ", "KAIA", "KAID", "KAIG", "KAIK", "KAIO", "KAIT", "KAIZ", "KAJG", "KAJO", "KAJR", "KAJZ", "KAKH", "KAKO", "KAKQ", "KAKR", "KALB", "KALI", "KALK", "KALM", "KALN", "KALO", "KALS", "KALW", "KAMA", "KAMG", "KAMN", "KAMW", "KANB", "KAND", "KANE", "KANJ", "KANK", "KANQ", "KANW", "KAOH", "KAOO", "KAPA", "KAPC", "KAPF", "KAPN", "KAPS", "KAPY", "KAQO", "KAQP", "KAQV", "KAQW", "KAQX", "KARA", "KARB", "KARG", "KARM", "KARR", "KART", "KARV", "KARW", "KASD", "KASE", "KASH", "KASJ", "KASL", "KASN", "KAST", "KASW", "KASX", "KATA", "KATL", "KATP", "KATS", "KATT", "KATW", "KATY", "KAUG", "KAUH", "KAUM", "KAUN", "KAUO", "KAUS", "KAUW", "KAVC", "KAVL", "KAVP", "KAVQ", "KAVX", "KAWG", "KAWM", "KAWO", "KAXA", "KAXH", "KAXN", "KAXS", "KAXV", "KAXX", "KAYS", "KAZC", "KAZE", "KAZO", "KBAC", "KBAD", "KBAF", "KBAM", "KBAN", "KBAX", "KBAZ", "KBBB", "KBBD", "KBBG", "KBBP", "KBBW", "KBCB", "KBCE", "KBCK", "KBDE", "KBDG", "KBDH", "KBDL", "KBDN", "KBDR", "KBDU", "KBEA", "KBEC", "KBED", "KBEH", "KBFD", "KBFF", "KBFI", "KBFL", "KBFM", "KBFR", "KBGD", "KBGE", "KBGF", "KBGM", "KBGR", "KBHB", "KBHC", "KBHK", "KBHM", "KBID", "KBIE", "KBIF", "KBIH", "KBIJ", "KBIL", "KBIS", "KBIV", "KBIX", "KBJC", "KBJI", "KBJJ", "KBKB", "KBKD", "KBKE", "KBKF", "KBKL", "KBKN", "KBKS", "KBKT", "KBKV", "KBKW", "KBKX", "KBLF", "KBLI", "KBLM", "KBLU", "KBLV", "KBMC", "KBMG", "KBMI", "KBML", "KBMQ", "KBMT", "KBNA", "KBNL", "KBNO", "KBNW", "KBOI", "KBOK", "KBOS", "KBOW", "KBPC", "KBPG", "KBPI", "KBPK", "KBPT", "KBQK", "KBQP", "KBQX", "KBRD", "KBRG", "KBRL", "KBRO", "KBRY", "KBTA", "KBTL", "KBTM", "KBTN", "KBTP", "KBTR", "KBTV", "KBUF", "KBUR", "KBUU", "KBUY", "KBVI", "KBVN", "KBVO", "KBVS", "KBVU", "KBVX", "KBVY", "KBWD", "KBWG", "KBWI", "KBWP", "KBWW", "KBXA", "KBXK", "KBYG", "KBYI", "KBYL", "KBYS", "KBYY", "KBZN", "KC09", "KC29", "KC35", "KC62", "KC65", "KC75", "KC83", "KC99", "KCAD", "KCAE", "KCAG", "KCAK", "KCAO", "KCAR", "KCAV", "KCBE", "KCBF", "KCBG", "KCBK", "KCBM", "KCCA", "KCCB", "KCCO", "KCCR", "KCCU", "KCCY", "KCDA", "KCDC", "KCDD", "KCDH", "KCDI", "KCDJ", "KCDN", "KCDR", "KCDS", "KCDW", "KCEC", "KCEF", "KCEU", "KCEW", "KCEY", "KCEZ", "KCFD", "KCFE", "KCFJ", "KCFO", "KCFS", "KCFV", "KCGC", "KCGE", "KCGF", "KCGI", "KCGS", "KCGZ", "KCHA", "KCHK", "KCHO", "KCHS", "KCIC", "KCID", "KCIN", "KCIR", "KCIU", "KCJR", "KCKB", "KCKC", "KCKF", "KCKI", "KCKM", "KCKN", "KCKP", "KCKV", "KCKZ", "KCLE", "KCLI", "KCLL", "KCLM", "KCLS", "KCLT", "KCLW", "KCMA", "KCMD", "KCMH", "KCMI", "KCMR", "KCMX", "KCMY", "KCNB", "KCNC", "KCNI", "KCNK", "KCNM", "KCNO", "KCNU", "KCNY", "KCOD", "KCOE", "KCOF", "KCOM", "KCON", "KCOQ", "KCOS", "KCOT", "KCOU", "KCPC", "KCPF", "KCPK", "KCPR", "KCPS", "KCPT", "KCPW", "KCQB", "KCQC", "KCQF", "KCQM", "KCQT", "KCQW", "KCQX", "KCRE", "KCRG", "KCRP", "KCRQ", "KCRS", "KCRW", "KCRX", "KCSG", "KCSM", "KCSQ", "KCSV", "KCTB", "KCTJ", "KCTZ", "KCUB", "KCUH", "KCUL", "KCUT", "KCVC", "KCVG", "KCVH", "KCVN", "KCVO", "KCVS", "KCVX", "KCWA", "KCWC", "KCWF", "KCWI", "KCWN", "KCWV", "KCXE", "KCXO", "KCXP", "KCXU", "KCXW", "KCXY", "KCYS", "KCZL", "KCZT", "KD07", "KD25", "KD39", "KD50", "KD55", "KD57", "KD60", "KD73", "KD95", "KDAA", "KDAB", "KDAG", "KDAL", "KDAN", "KDAW", "KDAY", "KDBN", "KDBQ", "KDCA", "KDCM", "KDCU", "KDCY", "KDDC", "KDDH", "KDEC", "KDED", "KDEH", "KDEN", "KDEQ", "KDET", "KDEW", "KDFI", "KDFW", "KDGW", "KDHN", "KDHT", "KDIJ", "KDIK", "KDKK", "KDKR", "KDKX", "KDLF", "KDLH", "KDLL", "KDLN", "KDLO", "KDLP", "KDLS", "KDLZ", "KDMA", "KDMH", "KDMN", "KDMO", "KDMW", "KDNA", "KDNL", "KDNN", "KDNV", "KDOV", "KDPA", "KDPL", "KDQH", "KDRA", "KDRI", "KDRM", "KDRO", "KDRT", "KDSF", "KDSM", "KDSV", "KDTA", "KDTL", "KDTO", "KDTS", "KDTW", "KDUA", "KDUB", "KDUC", "KDUG", "KDUH", "KDUJ", "KDUX", "KDVK", "KDVL", "KDVN", "KDVO", "KDVP", "KDVT", "KDWA", "KDWH", "KDWU", "KDWX", "KDXR", "KDXX", "KDYA", "KDYB", "KDYL", "KDYR", "KDYS", "KDYT", "KDZB", "KDZJ", "KE11", "KE16", "KE38", "KE41", "KEAN", "KEAR", "KEAT", "KEAU", "KEBA", "KEBG", "KEBS", "KECG", "KECP", "KECS", "KECU", "KEDC", "KEDE", "KEDJ", "KEDN", "KEDU", "KEDW", "KEED", "KEEN", "KEEO", "KEET", "KEFD", "KEFK", "KEFT", "KEGE", "KEGI", "KEGT", "KEGV", "KEHA", "KEHO", "KEHR", "KEIK", "KEKE", "KEKM", "KEKN", "KEKO", "KEKQ", "KEKS", "KEKX", "KEKY", "KELA", "KELD", "KELK", "KELM", "KELN", "KELO", "KELP", "KELY", "KELZ", "KEMM", "KEMP", "KEMV", "KEND", "KENL", "KENV", "KENW", "KEOE", "KEOK", "KEPH", "KEQA", "KEQY", "KERI", "KERV", "KERY", "KESC", "KESF", "KESN", "KEST", "KETB", "KETC", "KETH", "KETN", "KEUF", "KEUG", "KEUL", "KEVM", "KEVU", "KEVV", "KEVW", "KEWB", "KEWK", "KEWN", "KEWR", "KEXX", "KEYE", "KEYF", "KEYW", "KEZF", "KEZM", "KEZS", "KEZZ", "KF00", "KF05", "KF44", "KF46", "KF70", "KFAF", "KFAM", "KFAR", "KFAT", "KFAY", "KFBG", "KFBL", "KFCI", "KFCM", "KFCS", "KFDK", "KFDR", "KFDW", "KFDY", "KFEP", "KFET", "KFFA", "KFFC", "KFFL", "KFFM", "KFFO", "KFFT", "KFFX", "KFFZ", "KFGN", "KFGX", "KFHB", "KFHR", "KFHU", "KFIG", "KFIN", "KFKL", "KFKN", "KFKR", "KFKS", "KFLD", "KFLG", "KFLL", "KFLO", "KFLP", "KFLY", "KFME", "KFMH", "KFMM", "KFMN", "KFMY", "KFNB", "KFNL", "KFNT", "KFOA", "KFOD", "KFOE", "KFOK", "KFOZ", "KFPK", "KFPR", "KFPY", "KFQD", "KFRG", "KFRH", "KFRI", "KFRM", "KFSD", "KFSE", "KFSI", "KFSK", "KFSM", "KFST", "KFSW", "KFTK", "KFTN", "KFTW", "KFTY", "KFUL", "KFVE", "KFVX", "KFWA", "KFWB", "KFWC", "KFWN", "KFWS", "KFXE", "KFXY", "KFYE", "KFYG", "KFYJ", "KFYM", "KFYV", "KFZG", "KFZY", "KGAD", "KGAF", "KGAG", "KGAI", "KGAO", "KGBD", "KGBG", "KGCC", "KGCD", "KGCK", "KGCM", "KGCN", "KGCY", "KGDA", "KGDB", "KGDJ", "KGDP", "KGDV", "KGED", "KGEG", "KGEV", "KGEY", "KGEZ", "KGFA", "KGFK", "KGFL", "KGGE", "KGGF", "KGGG", "KGGI", "KGGP", "KGGW", "KGHG", "KGHW", "KGIC", "KGIF", "KGJT", "KGKJ", "KGKT", "KGKY", "KGLD", "KGLE", "KGLH", "KGLR", "KGLS", "KGLW", "KGLY", "KGMJ", "KGMU", "KGNA", "KGNB", "KGNC", "KGNG", "KGNR", "KGNT", "KGNV", "KGOK", "KGON", "KGOO", "KGOP", "KGOV", "KGPC", "KGPH", "KGPI", "KGPM", "KGPT", "KGPZ", "KGRB", "KGRD", "KGRF", "KGRI", "KGRK", "KGRN", "KGRR", "KGRY", "KGSB", "KGSH", "KGSO", "KGSP", "KGTB", "KGTF", "KGTR", "KGTU", "KGUC", "KGUL", "KGUP", "KGUR", "KGUS", "KGUY", "KGVE", "KGVL", "KGVQ", "KGVT", "KGVW", "KGWB", "KGWO", "KGWR", "KGWW", "KGXA", "KGXF", "KGXY", "KGYB", "KGYF", "KGYH", "KGYI", "KGYL", "KGYY", "KGZH", "KGZL", "KGZN", "KGZS", "KHAE", "KHAF", "KHAI", "KHAO", "KHBG", "KHBI", "KHBR", "KHBV", "KHCD", "KHCO", "KHCR", "KHDC", "KHDE", "KHDL", "KHDN", "KHDO", "KHEF", "KHEG", "KHEI", "KHEQ", "KHEY", "KHEZ", "KHFD", "KHFF", "KHFJ", "KHFY", "KHGR", "KHHF", "KHHG", "KHHR", "KHHW", "KHIB", "KHIE", "KHIF", "KHII", "KHIO", "KHJH", "KHJO", "KHKA", "KHKS", "KHKY", "KHLB", "KHLC", "KHLG", "KHLN", "KHLR", "KHLX", "KHMN", "KHMP", "KHMT", "KHMZ", "KHNB", "KHND", "KHNR", "KHNZ", "KHOB", "KHOE", "KHON", "KHOP", "KHOT", "KHOU", "KHPN", "KHPT", "KHQG", "KHQG", "KHQM", "KHQU", "KHQZ", "KHRF", "KHRI", "KHRJ", "KHRL", "KHRO", "KHRT", "KHRX", "KHSB", "KHSD", "KHSE", "KHSG", "KHSI", "KHSP", "KHST", "KHSV", "KHTH", "KHTS", "KHUA", "KHUF", "KHUL", "KHUM", "KHUT", "KHVC", "KHVE", "KHVN", "KHVR", "KHVS", "KHWD", "KHWO", "KHWV", "KHWY", "KHXD", "KHYA", "KHYI", "KHYR", "KHYS", "KHYW", "KHYX", "KHZD", "KHZE", "KHZL", "KHZR", "KHZX", "KHZY", "KI16", "KI19", "KI23", "KI35", "KI63", "KI67", "KI68", "KI69", "KI74", "KI75", "KI95", "KIAB", "KIAD", "KIAG", "KIAH", "KIBM", "KICR", "KICT", "KIDA", "KIDI", "KIDP", "KIEN", "KIER", "KIFA", "KIFP", "KIGM", "KIGQ", "KIIB", "KIIY", "KIJD", "KIJX", "KIKG", "KIKK", "KIKV", "KIKW", "KILE", "KILG", "KILM", "KILN", "KIML", "KIMM", "KIMS", "KIMT", "KIND", "KINF", "KINJ", "KINK", "KINL", "KINS", "KINT", "KINW", "KIOB", "KIOW", "KIPJ", "KIPL", "KIPT", "KIRK", "KIRS", "KISM", "KISO", "KISP", "KISQ", "KISW", "KITH", "KITR", "KIUA", "KIWA", "KIWD", "KIWI", "KIXA", "KIXD", "KIYA", "KIZA", "KIZG", "KJAC", "KJAN", "KJAQ", "KJAS", "KJAU", "KJAX", "KJBR", "KJCA", "KJCT", "KJDN", "KJEF", "KJER", "KJES", "KJFK", "KJFX", "KJFZ", "KJHW", "KJKA", "KJKJ", "KJKL", "KJLN", "KJMR", "KJMS", "KJNX", "KJOT", "KJPX", "KJQF", "KJRB", "KJRO", "KJSO", "KJST", "KJSV", "KJSY", "KJTC", "KJVL", "KJVW", "KJVY", "KJWG", "KJWN", "KJWY", "KJXN", "KJYG", "KJYL", "KJYM", "KJYO", "KJYR", "KJZI", "KJZP", "KK62", "KK70", "KK82", "KK88", "KKLS", "KKNB", "KKY8", "KL08", "KL18", "KL35", "KLAA", "KLAF", "KLAL", "KLAM", "KLAN", "KLAR", "KLAS", "KLAW", "KLAX", "KLBB", "KLBE", "KLBF", "KLBL", "KLBO", "KLBT", "KLCG", "KLCH", "KLCI", "KLCK", "KLCQ", "KLDM", "KLEB", "KLEE", "KLEW", "KLEX", "KLFI", "KLFK", "KLFT", "KLGA", "KLGB", "KLGC", "KLGD", "KLGF", "KLGU", "KLHB", "KLHM", "KLHQ", "KLHW", "KLHX", "KLHZ", "KLIC", "KLIT", "KLJF", "KLKR", "KLKU", "KLKV", "KLLJ", "KLLN", "KLLQ", "KLMO", "KLMS", "KLMT", "KLNA", "KLND", "KLNK", "KLNL", "KLNN", "KLNP", "KLNQ", "KLNR", "KLNS", "KLOL", "KLOM", "KLOR", "KLOT", "KLOU", "KLOZ", "KLPR", "KLQK", "KLRD", "KLRF", "KLRJ", "KLRO", "KLRU", "KLRY", "KLSE", "KLSF", "KLSV", "KLTS", "KLUA", "KLUD", "KLUF", "KLUG", "KLUK", "KLUL", "KLUM", "KLUV", "KLUX", "KLVJ", "KLVM", "KLVN", "KLVS", "KLWA", "KLWB", "KLWC", "KLWD", "KLWM", "KLWS", "KLWT", "KLWV", "KLXL", "KLXN", "KLXT", "KLXV", "KLXY", "KLYH", "KLYO", "KLYV", "KLZU", "KLZZ", "KM01", "KM02", "KM04", "KM08", "KM19", "KM21", "KM25", "KM30", "KM40", "KM54", "KM75", "KM91", "KMAF", "KMAN", "KMAO", "KMAW", "KMBG", "KMBL", "KMBO", "KMBS", "KMBT", "KMBY", "KMCB", "KMCC", "KMCD", "KMCE", "KMCF", "KMCI", "KMCJ", "KMCK", "KMCN", "KMCO", "KMCW", "KMCZ", "KMDD", "KMDH", "KMDQ", "KMDS", "KMDT", "KMDW", "KMDZ", "KMEB", "KMEH", "KMEI", "KMEM", "KMEV", "KMEZ", "KMFD", "KMFE", "KMFI", "KMFR", "KMGE", "KMGG", "KMGJ", "KMGM", "KMGN", "KMGR", "KMGW", "KMGY", "KMHE", "KMHK", "KMHL", "KMHP", "KMHR", "KMHS", "KMHT", "KMHV", "KMIA", "KMIB", "KMIC", "KMIE", "KMIO", "KMIV", "KMIW", "KMJD", "KMJQ", "KMKC", "KMKE", "KMKG", "KMKJ", "KMKL", "KMKN", "KMKO", "KMKS", "KMKT", "KMLB", "KMLC", "KMLE", "KMLF", "KMLI", "KMLJ", "KMLP", "KMLS", "KMLT", "KMLU", "KMMH", "KMMI", "KMMK", "KMML", "KMMT", "KMMU", "KMMV", "KMNE", "KMNH", "KMNI", "KMNM", "KMNN", "KMNV", "KMNZ", "KMOB", "KMOD", "KMOP", "KMOT", "KMOX", "KMPO", "KMPR", "KMPV", "KMPZ", "KMQB", "KMQI", "KMQJ", "KMQS", "KMQW", "KMQY", "KMRB", "KMRC", "KMRF", "KMRH", "KMRJ", "KMRN", "KMRT", "KMRY", "KMSL", "KMSN", "KMSO", "KMSP", "KMSS", "KMSV", "KMSY", "KMTC", "KMTH", "KMTJ", "KMTK", "KMTN", "KMTO", "KMTP", "KMTV", "KMTW", "KMUO", "KMUT", "KMVE", "KMVH", "KMVL", "KMVN", "KMVY", "KMWA", "KMWH", "KMWK", "KMWL", "KMWM", "KMWN", "KMWO", "KMWT", "KMXF", "KMYF", "KMYJ", "KMYL", "KMYP", "KMYR", "KMYV", "KMYZ", "KMZH", "KMZZ", "KN03", "KN38", "KN60", "KN79", "KNAK", "KNBC", "KNBG", "KNBT", "KNCA", "KNDZ", "KNEL", "KNEW", "KNFE", "KNFG", "KNFL", "KNFW", "KNGP", "KNGU", "KNHK", "KNID", "KNIP", "KNJK", "KNJM", "KNJW", "KNKT", "KNKX", "KNLC", "KNMM", "KNOG", "KNOW", "KNOZ", "KNPA", "KNQI", "KNQX", "KNRB", "KNRN", "KNRS", "KNSE", "KNSI", "KNTD", "KNTU", "KNUC", "KNUI", "KNUQ", "KNUW", "KNXF", "KNXP", "KNY0", "KNYC", "KNYG", "KNYL", "KNZY", "KO05", "KO22", "KO32", "KO69", "KO86", "KOAJ", "KOAK", "KOAR", "KOBE", "KOCF", "KOCH", "KOCQ", "KOCW", "KODO", "KODX", "KOEB", "KOEL", "KOEO", "KOFF", "KOFK", "KOFP", "KOGA", "KOGB", "KOGD", "KOGS", "KOIC", "KOIN", "KOJA", "KOJC", "KOKB", "KOKC", "KOKK", "KOKM", "KOKV", "KOKZ", "KOLE", "KOLF", "KOLG", "KOLM", "KOLS", "KOLU", "KOLV", "KOLY", "KOLZ", "KOMA", "KOMH", "KOMK", "KONL", "KONM", "KONO", "KONP", "KONT", "KONX", "KONZ", "KOOA", "KOPF", "KOPL", "KOPN", "KOQN", "KOQT", "KORB", "KORD", "KORE", "KORF", "KORG", "KORH", "KORK", "KORL", "KORS", "KOSA", "KOSC", "KOSH", "KOSU", "KOTG", "KOTH", "KOTM", "KOUN", "KOVL", "KOVS", "KOWA", "KOWB", "KOWD", "KOWI", "KOWP", "KOWX", "KOXB", "KOXC", "KOXD", "KOXI", "KOXR", "KOXV", "KOYM", "KOZA", "KOZR", "KOZS", "KOZW", "KP08", "KP28", "KP52", "KP53", "KP58", "KP59", "KP60", "KP68", "KP69", "KP92", "KPAE", "KPAH", "KPAM", "KPAN", "KPBF", "KPBG", "KPBH", "KPBI", "KPBX", "KPCD", "KPCM", "KPCW", "KPCZ", "KPDC", "KPDK", "KPDT", "KPDX", "KPEA", "KPEO", "KPEQ", "KPEX", "KPEZ", "KPGA", "KPGD", "KPGV", "KPHD", "KPHF", "KPHL", "KPHN", "KPHP", "KPHT", "KPHX", "KPIA", "KPIB", "KPIE", "KPIH", "KPIL", "KPIM", "KPIR", "KPIT", "KPJC", "KPKB", "KPKD", "KPLN", "KPLR", "KPLU", "KPMD", "KPMH", "KPMP", "KPMU", "KPMV", "KPNA", "KPNC", "KPNE", "KPNM", "KPNS", "KPNT", "KPO1", "KPOB", "KPOE", "KPOF", "KPOU", "KPOV", "KPOY", "KPPA", "KPPF", "KPPO", "KPPQ", "KPQI", "KPQL", "KPRB", "KPRC", "KPRG", "KPRN", "KPRO", "KPRS", "KPRX", "KPSC", "KPSF", "KPSK", "KPSM", "KPSN", "KPSO", "KPSP", "KPSX", "KPTB", "KPTD", "KPTK", "KPTN", "KPTS", "KPTT", "KPTV", "KPTW", "KPUB", "KPUC", "KPUJ", "KPUW", "KPVB", "KPVC", "KPVD", "KPVE", "KPVF", "KPVJ", "KPVU", "KPVW", "KPWA", "KPWC", "KPWD", "KPWG", "KPWK", "KPWM", "KPWT", "KPXE", "KPYM", "KPYX", "KPZQ", "KQAZ", "KQBL", "KQBR", "KQD3", "KQDG", "KQEI", "KQEJ", "KQEN", "KQEP", "KQEQ", "KQER", "KQES", "KQEV", "KQEW", "KQEX", "KQEY", "KQFB", "KQFT", "KQFU", "KQFV", "KQFW", "KQFX", "KQHY", "KQN3", "KQRH", "KQTZ", "KQVF", "KRAC", "KRAL", "KRAP", "KRAS", "KRAW", "KRBD", "KRBG", "KRBL", "KRBO", "KRBW", "KRCA", "KRCE", "KRCM", "KRCR", "KRCV", "KRCX", "KRCZ", "KRDD", "KRDG", "KRDK", "KRDM", "KRDR", "KRDU", "KREG", "KREO", "KRFD", "KRGA", "KRGK", "KRHI", "KRHP", "KRIC", "KRID", "KRIL", "KRIV", "KRIW", "KRKD", "KRKP", "KRKR", "KRKS", "KRLD", "KRME", "KRMG", "KRMN", "KRMY", "KRNC", "KRND", "KRNH", "KRNM", "KRNO", "KRNP", "KRNT", "KROA", "KROC", "KROG", "KROS", "KROW", "KROX", "KRPD", "KRPH", "KRPJ", "KRPX", "KRQB", "KRQE", "KRQO", "KRRT", "KRSL", "KRSP", "KRST", "KRSW", "KRTN", "KRTS", "KRUE", "KRUG", "KRUQ", "KRUT", "KRVF", "KRVJ", "KRVL", "KRVS", "KRWF", "KRWI", "KRWL", "KRWV", "KRXE", "KRYM", "KRYN", "KRYW", "KRYY", "KRZL", "KRZN", "KRZR", "KRZT", "KS21", "KS25", "KS32", "KS33", "KS34", "KS39", "KS52", "KS85", "KSAA", "KSAC", "KSAD", "KSAF", "KSAN", "KSAR", "KSAT", "KSAV", "KSAW", "KSAZ", "KSBA", "KSBD", "KSBM", "KSBN", "KSBO", "KSBP", "KSBS", "KSBY", "KSCD", "KSCK", "KSCR", "KSCX", "KSDA", "KSDB", "KSDC", "KSDF", "KSDL", "KSDM", "KSDY", "KSEA", "KSEE", "KSEF", "KSEG", "KSEM", "KSEP", "KSEQ", "KSET", "KSEZ", "KSFB", "KSFF", "KSFM", "KSFO", "KSFQ", "KSFZ", "KSGF", "KSGH", "KSGJ", "KSGR", "KSGS", "KSGT", "KSGU", "KSHD", "KSHL", "KSHM", "KSHR", "KSHV", "KSIF", "KSIK", "KSIY", "KSJC", "KSJS", "KSJT", "KSJX", "KSKA", "KSKF", "KSKX", "KSLB", "KSLC", "KSLE", "KSLG", "KSLH", "KSLI", "KSLK", "KSLN", "KSLO", "KSLR", "KSMD", "KSME", "KSMF", "KSMN", "KSMO", "KSMQ", "KSMS", "KSMX", "KSNA", "KSNC", "KSNH", "KSNK", "KSNS", "KSNT", "KSNY", "KSOA", "KSOP", "KSOW", "KSPA", "KSPB", "KSPD", "KSPF", "KSPG", "KSPI", "KSPK", "KSPS", "KSPW", "KSQI", "KSQL", "KSRB", "KSRC", "KSRE", "KSRQ", "KSRR", "KSSC", "KSSF", "KSSI", "KSTC", "KSTE", "KSTF", "KSTJ", "KSTK", "KSTL", "KSTP", "KSTS", "KSUA", "KSUE", "KSUN", "KSUS", "KSUT", "KSUU", "KSUW", "KSUX", "KSUZ", "KSVC", "KSVE", "KSVH", "KSVN", "KSWF", "KSWO", "KSWW", "KSXK", "KSXS", "KSXT", "KSXU", "KSYF", "KSYI", "KSYM", "KSYN", "KSYR", "KSZL", "KSZT", "KSZY", "KT20", "KT35", "KT41", "KT69", "KT70", "KT74", "KT78", "KT82", "KT89", "KTAD", "KTAN", "KTAZ", "KTBN", "KTBR", "KTBX", "KTCL", "KTCM", "KTCS", "KTCY", "KTDF", "KTDR", "KTDZ", "KTEB", "KTEW", "KTEX", "KTFP", "KTGI", "KTHA", "KTHM", "KTIF", "KTIK", "KTIP", "KTIW", "KTKC", "KTKI", "KTKV", "KTKX", "KTLH", "KTMA", "KTMB", "KTMK", "KTMT", "KTNB", "KTNU", "KTOB", "KTOC", "KTOI", "KTOL", "KTOP", "KTOR", "KTPA", "KTPF", "KTPH", "KTPL", "KTQE", "KTQH", "KTQK", "KTQV", "KTRI", "KTRK", "KTRL", "KTRM", "KTSP", "KTTA", "KTTD", "KTTF", "KTTN", "KTTS", "KTUL", "KTUP", "KTUS", "KTVC", "KTVF", "KTVI", "KTVK", "KTVL", "KTVR", "KTVY", "KTWF", "KTWM", "KTWT", "KTXK", "KTXW", "KTYL", "KTYQ", "KTYR", "KTYS", "KTZR", "KU42", "KU55", "KU64", "KU68", "KU69", "KUAO", "KUBE", "KUCP", "KUCY", "KUDG", "KUES", "KUGN", "KUIL", "KUIN", "KUKF", "KUKI", "KUKL", "KUKT", "KULM", "KULS", "KUMP", "KUNI", "KUNO", "KUNU", "KUNV", "KUOX", "KUSE", "KUTA", "KUTS", "KUUU", "KUUV", "KUVA", "KUXL", "KUYF", "KUZA", "KVAD", "KVAF", "KVAY", "KVBG", "KVBT", "KVBW", "KVCB", "KVCT", "KVCV", "KVDF", "KVDI", "KVEL", "KVER", "KVES", "KVGC", "KVGT", "KVHN", "KVIH", "KVIS", "KVJI", "KVKS", "KVKY", "KVLD", "KVLL", "KVNC", "KVNW", "KVNY", "KVOA", "KVOK", "KVPC", "KVPS", "KVPZ", "KVQQ", "KVRB", "KVSF", "KVTA", "KVTI", "KVTN", "KVTP", "KVUJ", "KVVS", "KVVV", "KVWU", "KVYS", "KW13", "KW22", "KW29", "KW31", "KW40", "KW43", "KW63", "KW75", "KW78", "KW81", "KW96", "KWAL", "KWBF", "KWDG", "KWDR", "KWJF", "KWLD", "KWMC", "KWRB", "KWRI", "KWRL", "KWST", "KWVI", "KWVL", "KWWD", "KWWR", "KX07", "KX26", "KX60", "KXBP", "KXLL", "KXMR", "KXNA", "KXNO", "KXNX", "KXSA", "KXVG", "KXWA", "KY19", "KY23", "KY31", "KY49", "KY50", "KY51", "KY63", "KY70", "KYIP", "KYKM", "KYKN", "KYNG", "KZER", "KZPH", "KZZV", "LATI", "LBBG", "LBGO", "LBIA", "LBPD", "LBPG", "LBPL", "LBSF", "LBWN", "LCEN", "LCLK", "LCPH", "LCRA", "LDDU", "LDLO", "LDOS", "LDPL", "LDRI", "LDSP", "LDZA", "LDZD", "LEAB", "LEAG", "LEAL", "LEAM", "LEAO", "LEAS", "LEBA", "LEBB", "LEBG", "LEBL", "LEBR", "LEBT", "LEBZ", "LECH", "LECO", "LECV", "LEDA", "LEGE", "LEGR", "LEGT", "LEHC", "LEIB", "LEJR", "LELC", "LELL", "LELN", "LELO", "LEMD", "LEMG", "LEMH", "LEMI", "LEMO", "LEPA", "LEPP", "LERI", "LERS", "LERT", "LESA", "LESB", "LESO", "LEST", "LESU", "LETL", "LETO", "LETU", "LEVC", "LEVD", "LEVS", "LEVT", "LEVX", "LEXJ", "LEZG", "LEZL", "LFAC", "LFAQ", "LFAT", "LFBA", "LFBC", "LFBD", "LFBE", "LFBF", "LFBG", "LFBH", "LFBI", "LFBL", "LFBM", "LFBO", "LFBP", "LFBT", "LFBU", "LFBX", "LFBY", "LFBZ", "LFCK", "LFCR", "LFGA", "LFGJ", "LFHP", "LFJL", "LFJR", "LFKB", "LFKC", "LFKF", "LFKJ", "LFKS", "LFLB", "LFLC", "LFLH", "LFLL", "LFLN", "LFLP", "LFLS", "LFLU", "LFLV", "LFLW", "LFLX", "LFLY", "LFMC", "LFMD", "LFMH", "LFMI", "LFMK", "LFML", "LFMN", "LFMO", "LFMP", "LFMT", "LFMU", "LFMV", "LFMY", "LFOA", "LFOB", "LFOE", "LFOH", "LFOJ", "LFOK", "LFOP", "LFOT", "LFOV", "LFOZ", "LFPB", "LFPG", "LFPM", "LFPN", "LFPO", "LFPT", "LFPV", "LFQA", "LFQB", "LFQG", "LFQQ", "LFRB", "LFRC", "LFRD", "LFRG", "LFRH", "LFRI", "LFRJ", "LFRK", "LFRL", "LFRM", "LFRN", "LFRO", "LFRQ", "LFRS", "LFRT", "LFRU", "LFRV", "LFRZ", "LFSB", "LFSD", "LFSG", "LFSI", "LFSL", "LFSM", "LFSN", "LFSO", "LFST", "LFTH", "LFTW", "LFVP", "LFYR", "LGAD", "LGAL", "LGAV", "LGBL", "LGEL", "LGHI", "LGIO", "LGIR", "LGKC", "LGKF", "LGKL", "LGKO", "LGKP", "LGKR", "LGKV", "LGKZ", "LGLM", "LGMK", "LGMT", "LGPA", "LGPZ", "LGRP", "LGRX", "LGSA", "LGSK", "LGSM", "LGSO", "LGSR", "LGTS", "LGZA", "LHBP", "LHDC", "LHKE", "LHPA", "LHPP", "LHPR", "LHSM", "LHSN", "LIBA", "LIBC", "LIBD", "LIBF", "LIBG", "LIBN", "LIBP", "LIBQ", "LIBR", "LIBV", "LIBY", "LICA", "LICB", "LICC", "LICD", "LICF", "LICG", "LICJ", "LICR", "LICT", "LICZ", "LIEA", "LIEB", "LIED", "LIEE", "LIEO", "LIMA", "LIMC", "LIME", "LIMF", "LIMG", "LIMH", "LIMJ", "LIMK", "LIML", "LIMP", "LIMS", "LIMU", "LIMZ", "LIPB", "LIPC", "LIPE", "LIPF", "LIPH", "LIPI", "LIPK", "LIPL", "LIPO", "LIPQ", "LIPR", "LIPS", "LIPU", "LIPX", "LIPY", "LIPZ", "LIQC", "LIQN", "LIRA", "LIRE", "LIRF", "LIRI", "LIRK", "LIRM", "LIRN", "LIRP", "LIRQ", "LIRS", "LIRU", "LIRV", "LIRX", "LIRZ", "LIVC", "LIVD", "LIVE", "LIVF", "LIVM", "LIVP", "LIVR", "LIVT", "LJCE", "LJLJ", "LJMB", "LJPZ", "LKCV", "LKKB", "LKKU", "LKKV", "LKLN", "LKMT", "LKNA", "LKPD", "LKPR", "LKTB", "LLBG", "LLER", "LLHA", "LLIB", "LMML", "LOAN", "LOAV", "LOWG", "LOWI", "LOWK", "LOWL", "LOWS", "LOWW", "LOXZ", "LPAZ", "LPBJ", "LPCS", "LPFL", "LPFR", "LPHR", "LPLA", "LPMA", "LPMR", "LPMT", "LPOV", "LPPD", "LPPR", "LPPS", "LPPT", "LQBK", "LQMO", "LQSA", "LQTZ", "LRAR", "LRBC", "LRBM", "LRBS", "LRCK", "LRCL", "LRCV", "LRIA", "LROD", "LROP", "LRSB", "LRSM", "LRSV", "LRTC", "LRTM", "LRTR", "LSGC", "LSGG", "LSGS", "LSMA", "LSMD", "LSMM", "LSMP", "LSZA", "LSZB", "LSZC", "LSZG", "LSZH", "LSZL", "LSZR", "LSZS", "LTAC", "LTAE", "LTAF", "LTAG", "LTAI", "LTAJ", "LTAN", "LTAP", "LTAR", "LTAS", "LTAT", "LTAU", "LTAY", "LTAZ", "LTBA", "LTBD", "LTBF", "LTBH", "LTBJ", "LTBQ", "LTBR", "LTBS", "LTBU", "LTBY", "LTCA", "LTCB", "LTCC", "LTCD", "LTCE", "LTCF", "LTCG", "LTCI", "LTCJ", "LTCK", "LTCL", "LTCN", "LTCO", "LTCP", "LTCR", "LTCS", "LTCT", "LTCU", "LTCV", "LTCW", "LTDA", "LTFB", "LTFC", "LTFD", "LTFE", "LTFG", "LTFH", "LTFJ", "LTFM", "LTFO", "LUKK", "LWOH", "LWSK", "LXGB", "LYBE", "LYBT", "LYKV", "LYNI", "LYPG", "LYTV", "LYVR", "LZIB", "LZKZ", "LZPP", "LZTT", "LZZI", "MBPV", "MDPC", "MDPP", "MDSD", "MDST", "MGGT", "MGHT", "MGMM", "MGPB", "MHLM", "MHPR", "MHTG", "MMAA", "MMAS", "MMGL", "MMHO", "MMMD", "MMMM", "MMMX", "MMMY", "MMMZ", "MMQT", "MMSP", "MMTJ", "MMTO", "MMTP", "MMUN", "MMZC", "MNMG", "MPMG", "MPTO", "MROC", "MSLP", "MTPP", "MUCC", "MUCF", "MUCM", "MUCU", "MUGM", "MUHA", "MUHG", "MUSC", "MUVR", "MYCB", "MYGF", "MYNN", "MYSM", "NCAI", "NCAT", "NCMG", "NCMH", "NCMK", "NCMR", "NCNS", "NCPK", "NCPL", "NCPY", "NCRG", "NCRK", "NCSW", "NFFN", "NFNA", "NFTF", "NGFU", "NGTA", "NIUE", "NLWW", "NSFA", "NSTU", "NTAA", "NVSC", "NVSG", "NVVV", "NWWW", "NZAA", "NZCH", "NZCM", "NZWN", "OBBI", "OEAB", "OEAH", "OEAO", "OEBA", "OEBH", "OEDF", "OEDM", "OEDR", "OEGN", "OEGS", "OEGT", "OEHL", "OEJB", "OEJN", "OEKJ", "OEKM", "OEMA", "OEMN", "OENG", "OEPA", "OEPS", "OERF", "OERK", "OERR", "OESH", "OESK", "OETB", "OETF", "OETR", "OEWD", "OEWJ", "OEYN", "OIAA", "OIAG", "OIAH", "OIAM", "OIAW", "OIBA", "OIBB", "OIBH", "OIBJ", "OIBK", "OIBL", "OIBP", "OIBQ", "OIBS", "OIBV", "OICC", "OICI", "OICK", "OICM", "OICS", "OIFM", "OIFS", "OIGG", "OIHH", "OIHM", "OIHR", "OIIE", "OIII", "OIIK", "OIIP", "OIKB", "OIKK", "OIKQ", "OIMB", "OIMD", "OIMJ", "OIMM", "OIMN", "OIMQ", "OIMS", "OIMT", "OINE", "OING", "OINN", "OINR", "OINZ", "OISF", "OISL", "OISR", "OISS", "OISY", "OITK", "OITL", "OITM", "OITP", "OITR", "OITT", "OITZ", "OIYY", "OIZB", "OIZC", "OIZH", "OIZI", "OIZJ", "OJAI", "OJAM", "OJAQ", "OKAS", "OKKK", "OLBA", "OMAA", "OMAD", "OMAL", "OMDB", "OMDW", "OMFJ", "OMRK", "OMSJ", "OOAD", "OODQ", "OOKB", "OOMS", "OOSA", "OOSH", "OPFA", "OPIS", "OPKC", "OPLA", "OPMT", "OPNH", "OPPS", "OPSK", "OPST", "ORBI", "ORER", "ORMM", "ORNI", "ORSU", "OSAP", "OSDI", "OSLK", "OTBD", "OTBH", "OTHH", "PAAD", "PAAQ", "PABA", "PABE", "PABI", "PABL", "PABR", "PABT", "PABV", "PACD", "PACM", "PACV", "PACZ", "PADE", "PADK", "PADL", "PADM", "PADQ", "PADU", "PAED", "PAEG", "PAEH", "PAEI", "PAEN", "PAFA", "PAFB", "PAFE", "PAFM", "PAFR", "PAFS", "PAGK", "PAGL", "PAGM", "PAGN", "PAGS", "PAGY", "PAHC", "PAHL", "PAHN", "PAHO", "PAHX", "PAHY", "PAIG", "PAIK", "PAIL", "PAIM", "PAIN", "PAIW", "PAJC", "PAJN", "PAJZ", "PAKH", "PAKI", "PAKN", "PAKP", "PAKT", "PAKV", "PAKW", "PAKX", "PALG", "PALH", "PALU", "PAMB", "PAMD", "PAMH", "PAMK", "PAMM", "PAMO", "PAMR", "PAMY", "PANA", "PANC", "PANI", "PANV", "PANW", "PAOH", "PAOM", "PAOO", "PAOR", "PAOT", "PAOU", "PAPB", "PAPG", "PAPH", "PAPM", "PAPN", "PAPO", "PAQT", "PARC", "PARY", "PASC", "PASD", "PASI", "PASK", "PASL", "PASM", "PASN", "PASO", "PASV", "PASX", "PASY", "PATA", "PATC", "PATE", "PATG", "PATK", "PATL", "PATO", "PATQ", "PAUN", "PAVC", "PAVD", "PAVL", "PAWD", "PAWI", "PAWM", "PAWN", "PAWS", "PAYA", "PAZK", "PFCL", "PFEL", "PFKT", "PFKW", "PFNO", "PFSH", "PFWS", "PFYU", "PGSN", "PGUA", "PGUM", "PHBK", "PHHI", "PHJR", "PHKO", "PHLI", "PHMK", "PHNG", "PHNL", "PHNY", "PHOG", "PHSF", "PHTO", "PKMR", "PKWA", "PLCH", "PMDY", "PPIZ", "PTKK", "PTTP", "PTYA", "PWAK", "RCFN", "RCKH", "RCMQ", "RCNN", "RCSS", "RCTP", "RJAA", "RJAF", "RJAH", "RJAW", "RJBB", "RJBD", "RJBE", "RJBT", "RJCB", "RJCC", "RJCH", "RJCK", "RJCM", "RJCN", "RJCO", "RJCW", "RJDB", "RJDC", "RJDT", "RJEC", "RJFE", "RJFF", "RJFG", "RJFK", "RJFM", "RJFO", "RJFR", "RJFS", "RJFT", "RJFU", "RJGG", "RJKA", "RJKI", "RJNK", "RJNS", "RJNT", "RJNW", "RJNY", "RJOA", "RJOB", "RJOC", "RJOH", "RJOI", "RJOK", "RJOM", "RJOO", "RJOR", "RJOS", "RJOT", "RJOW", "RJOY", "RJSA", "RJSC", "RJSF", "RJSH", "RJSI", "RJSK", "RJSM", "RJSN", "RJSR", "RJSS", "RJSY", "RJTT", "RJTY", "RKJB", "RKJK", "RKNN", "RKNW", "RKNY", "RKPC", "RKPK", "RKSG", "RKSI", "RKSM", "RKSO", "RKSS", "RKTN", "RKTU", "ROAH", "RODE", "RODN", "ROIG", "ROMD", "ROMY", "RORK", "RORS", "RORT", "RORY", "ROTM", "ROYN", "RPLB", "RPLC", "RPLI", "RPLL", "RPMD", "RPMR", "RPMZ", "RPVD", "RPVM", "RPVP", "SAAR", "SABE", "SACO", "SADF", "SAEZ", "SAME", "SANT", "SAOC", "SARC", "SARE", "SARF", "SARI", "SARL", "SARP", "SASA", "SASJ", "SAVC", "SAWE", "SAWG", "SAWH", "SAZM", "SAZN", "SAZR", "SAZS", "SBAN", "SBAR", "SBBE", "SBBG", "SBBH", "SBBR", "SBBU", "SBBV", "SBCB", "SBCF", "SBCG", "SBCO", "SBCP", "SBCT", "SBCY", "SBDN", "SBEG", "SBES", "SBFI", "SBFL", "SBFN", "SBFZ", "SBGL", "SBGO", "SBGR", "SBGW", "SBIP", "SBIZ", "SBJP", "SBJU", "SBJV", "SBKG", "SBKP", "SBLB", "SBLE", "SBLO", "SBLS", "SBMA", "SBME", "SBMG", "SBMK", "SBMN", "SBMO", "SBMQ", "SBMT", "SBNF", "SBNT", "SBOI", "SBPA", "SBPJ", "SBPL", "SBPS", "SBPV", "SBRB", "SBRF", "SBRJ", "SBRP", "SBSC", "SBSG", "SBSJ", "SBSL", "SBSM", "SBSN", "SBSP", "SBSR", "SBSV", "SBTA", "SBTE", "SBTU", "SBUL", "SBUR", "SBVT", "SBYS", "SCAP", "SCAR", "SCAT", "SCBA", "SCCF", "SCCH", "SCCI", "SCCY", "SCDA", "SCEL", "SCFA", "SCFT", "SCHR", "SCIE", "SCIP", "SCJO", "SCMK", "SCON", "SCPD", "SCPQ", "SCQP", "SCRM", "SCSE", "SCSN", "SCTE", "SCTN", "SCVD", "SCVM", "SEGU", "SELT", "SEMT", "SEQM", "SGAS", "SGCO", "SGEN", "SGES", "SKBO", "SKBQ", "SKCG", "SKCL", "SKLT", "SKPE", "SKRG", "SKSP", "SLCB", "SLET", "SLLP", "SLTR", "SLVR", "SMJP", "SMZO", "SOCA", "SPHI", "SPHO", "SPJC", "SPQT", "SPRU", "SPSO", "SPUR", "SUAA", "SUCA", "SULS", "SUMU", "SUSO", "SVBC", "SVBI", "SVBM", "SVBS", "SVCB", "SVCS", "SVFM", "SVGD", "SVGU", "SVJM", "SVLO", "SVMC", "SVMG", "SVMI", "SVMT", "SVPA", "SVPR", "SVSA", "SVSR", "SVVA", "SVVL", "SYCJ", "TAPA", "TBPB", "TDPD", "TFFF", "TFFR", "TGPY", "TIST", "TISX", "TJNR", "TJPS", "TJSJ", "TKPK", "TLPL", "TNCA", "TNCB", "TNCC", "TNCE", "TNCM", "TTCP", "TTPP", "TXKF", "UAAA", "UAAH", "UAAT", "UACC", "UACK", "UACP", "UADD", "UAII", "UAIT", "UAKD", "UAKK", "UAOO", "UARR", "UASK", "UASP", "UASS", "UATE", "UATG", "UATT", "UAUU", "UBBB", "UBBF", "UBBG", "UBBL", "UBBN", "UBBQ", "UBBY", "UBBZ", "UBEE", "UCFL", "UCFM", "UCFO", "UDSG", "UDYZ", "UEEE", "UERP", "UERR", "UGAM", "UGKO", "UGMS", "UGSB", "UGTB", "UHBB", "UHHH", "UHMA", "UHMM", "UHPP", "UHSS", "UHWW", "UIAA", "UIBB", "UIII", "UIUU", "ULAA", "ULLI", "ULMM", "ULOO", "ULPB", "ULWC", "UMBB", "UMGG", "UMII", "UMIO", "UMKK", "UMMG", "UMMS", "UMOO", "UNAA", "UNBB", "UNEE", "UNKL", "UNNT", "UNOO", "UNTT", "UNWW", "UOOO", "URKA", "URKK", "URMG", "URML", "URMM", "URMN", "URMO", "URMT", "URRP", "URSS", "URWA", "URWI", "URWW", "USCC", "USCM", "USDA", "USHH", "USNN", "USPP", "USRR", "USSS", "USTR", "UTAA", "UTAK", "UTAM", "UTAT", "UTAV", "UTDD", "UTDK", "UTDL", "UTDT", "UTFF", "UTFN", "UTNN", "UTNU", "UTO8", "UTSA", "UTSB", "UTSK", "UTSS", "UTST", "UTTT", "UUBC", "UUBP", "UUBW", "UUDD", "UUDL", "UUEE", "UUMO", "UUOB", "UUOK", "UUOL", "UUOO", "UUWW", "UUYY", "UWGG", "UWKD", "UWKE", "UWKS", "UWLL", "UWLW", "UWOO", "UWOR", "UWPS", "UWSG", "UWUU", "UWWW", "VAAH", "VABB", "VABO", "VABP", "VAID", "VAJB", "VAJJ", "VAJL", "VAKP", "VANP", "VARK", "VASD", "VASU", "VAUD", "VCBI", "VCRI", "VDPP", "VDSR", "VDSV", "VEAT", "VEBN", "VEBS", "VEBU", "VECC", "VECO", "VEDG", "VEDO", "VEGT", "VEGY", "VEHO", "VEIM", "VEJH", "VEJR", "VEJS", "VEKI", "VEKO", "VELP", "VELR", "VEMN", "VEPT", "VERC", "VERK", "VERP", "VERU", "VGHS", "VHHH", "VIDN", "VIGG", "VIJP", "VILK", "VIPT", "VLLB", "VLLN", "VLVT", "VMMC", "VNKT", "VOAT", "VOBL", "VOCI", "VOCL", "VOCP", "VOGA", "VOHB", "VOJV", "VOKN", "VOMM", "VOSM", "VRMG", "VRMH", "VRMM", "VTBD", "VTBO", "VTBS", "VTBU", "VTCC", "VTCH", "VTCL", "VTCN", "VTCP", "VTCT", "VTPB", "VTPH", "VTPM", "VTPO", "VTPP", "VTPT", "VTSB", "VTSC", "VTSE", "VTSF", "VTSG", "VTSM", "VTSP", "VTSR", "VTSS", "VTST", "VTSY", "VTUD", "VTUI", "VTUK", "VTUL", "VTUO", "VTUQ", "VTUU", "VTUV", "VTUW", "VVCI", "VVCR", "VVCT", "VVDN", "VVNB", "VVPB", "VVPQ", "VVTS", "VVVD", "VYMD", "VYNT", "VYYY", "WAAA", "WABB", "WADD", "WADL", "WAHS", "WAJJ", "WALL", "WAMM", "WAOO", "WAPP", "WAQQ", "WARR", "WATT", "WBGB", "WBGG", "WBGR", "WBGS", "WBGY", "WBKK", "WBKL", "WBKS", "WBKT", "WBKW", "WBSB", "WIBB", "WIDD", "WIDN", "WIEE", "WIHH", "WIII", "WILL", "WIMM", "WIOO", "WIPP", "WMAU", "WMBA", "WMKA", "WMKB", "WMKC", "WMKD", "WMKE", "WMKI", "WMKJ", "WMKK", "WMKL", "WMKM", "WMKN", "WMKP", "WMSA", "WSAP", "WSSL", "WSSS", "YAMB", "YBAS", "YBBN", "YBCG", "YBCS", "YBHM", "YBLN", "YBMA", "YBRK", "YBRM", "YBSU", "YBTL", "YBWW", "YCFS", "YCIN", "YFRT", "YGEL", "YGLA", "YHID", "YLHI", "YMAV", "YMHB", "YMLT", "YMML", "YPAD", "YPCC", "YPDN", "YPEA", "YPGV", "YPJT", "YPKG", "YPKU", "YPLM", "YPPD", "YPPH", "YPTN", "YPWR", "YSCB", "YSDU", "YSNF", "YSRI", "YSSY", "YSTW", "YWLM", "ZBAA", "ZBAD", "ZBHH", "ZBSJ", "ZBTJ", "ZBYN", "ZGGG", "ZGHA", "ZGKL", "ZGNN", "ZGOW", "ZGSZ", "ZHCC", "ZHHH", "ZJHK", "ZJSY", "ZLLL", "ZLXY", "ZMCK", "ZMUB", "ZPPP", "ZSAM", "ZSFZ", "ZSHC", "ZSNB", "ZSNJ", "ZSOF", "ZSPD", "ZSQD", "ZSSS", "ZUCK", "ZUGY", "ZUTF", "ZUUU", "ZWSH", "ZWWW", "ZYCC", "ZYHB", "ZYTL", "ZYTX"], "observation_time": ["2023-04-30T10:00:00Z", "2023-04-30T09:00:00Z", "2023-04-30T10:00:00Z", "2023-04-30T09:50:00Z", "2023-04-30T09:50:00Z", "2023-04-30T09:50:00Z", "2023-04-30T09:50:00Z", "2023-04-30T09:50:00Z", "2023-04-30T08:55:00Z", "2023-04-30T10:00:00Z", "2023-04-30T10:00:00Z", "2023-04-30T10:00:00Z", "2023-04-30T10:00:00Z", "2023-04-30T10:00:00Z", "2023-04-30T10:00:00Z", "2023-04-30T10:00:00Z", "2023-04-30T10:00:00Z", "2023-04-30T09:00:00Z", "2023-04-30T10:03:00Z", "2023-04-30T09:00:00Z", "2023-04-30T09:00:00Z", "2023-04-30T09:00:00Z", "2023-04-30T09:00:00Z", "2023-04-30T09:00:00Z", "2023-04-30T09:00:00Z", "2023-04-30T09:00:00Z", "2023-04-30T09:00:00Z", "2023-04-30T09:00:00Z", "2023-04-30T09:00:00Z", "2023-04-30T09:00:00Z", "2023-04-30T09:00:00Z", "2023-04-30T09:00:00Z", "2023-04-30T09:00:00Z", "2023-04-30T09:00:00Z", "2023-04-30T09:00:00Z", "2023-04-30T09:00:00Z", "2023-04-30T09:00:00Z", "2023-04-30T09:00:00Z", "2023-04-30T09:00:00Z", "2023-04-30T09:00:00Z", "2023-04-30T09:00:00Z", "2023-04-30T09:00:00Z", "2023-04-30T09:00:00Z", "2023-04-30T09:00:00Z", "2023-04-30T09:00:00Z", "2023-04-30T09:00:00Z", "2023-04-30T09:00:00Z", "2023-04-30T09:00:00Z", "2023-04-30T09:00:00Z", "2023-04-30T09:00:00Z", "2023-04-30T09:00:00Z", "2023-04-30T09:00:00Z", "2023-04-30T09:00:00Z", "2023-04-30T09:00:00Z", "2023-04-30T09:00:00Z", "2023-04-30T09:00:00Z", "2023-04-30T09:00:00Z", "2023-04-30T09:00:00Z", "2023-04-30T09:00:00Z", "2023-04-30T09:00:00Z", "2023-04-30T09:00:00Z", "2023-04-30T09:00:00Z", "2023-04-30T09:00:00Z", "2023-04-30T09:00:00Z", "2023-04-30T09:00:00Z", "2023-04-30T09:00:00Z", "2023-04-30T09:00:00Z", "2023-04-30T09:00:00Z", "2023-04-30T09:00:00Z", "2023-04-30T09:00:00Z", "2023-04-30T09:00:00Z", "2023-04-30T09:00:00Z", "2023-04-30T09:00:00Z", "2023-04-30T09:00:00Z", "2023-04-30T09:00:00Z", "2023-04-30T09:00:00Z", "2023-04-30T09:00:00Z", "2023-04-30T09:00:00Z", "2023-04-30T09:00:00Z", "2023-04-30T09:00:00Z", "2023-04-30T09:00:00Z", "2023-04-30T09:00:00Z", "2023-04-30T09:00:00Z", "2023-04-30T09:00:00Z", "2023-04-30T09:00:00Z", "2023-04-30T09:00:00Z", "2023-04-30T09:00:00Z", "2023-04-30T09:00:00Z", "2023-04-30T09:00:00Z", "2023-04-30T09:00:00Z", "2023-04-30T09:00:00Z", "2023-04-30T09:00:00Z", "2023-04-30T09:00:00Z", "2023-04-30T09:00:00Z", "2023-04-30T09:11:00Z", "2023-04-30T09:00:00Z", "2023-04-30T09:00:00Z", "2023-04-30T09:00:00Z", "2023-04-30T09:00:00Z", "2023-04-30T09:00:00Z", "2023-04-30T09:00:00Z", "2023-04-30T09:00:00Z", "2023-04-30T09:00:00Z", "2023-04-30T09:00:00Z", "2023-04-30T09:00:00Z", "2023-04-30T09:00:00Z", "2023-04-30T09:00:00Z", "2023-04-30T09:00:00Z", "2023-04-30T09:00:00Z", "2023-04-30T09:00:00Z", "2023-04-30T09:00:00Z", "2023-04-30T09:00:00Z", "2023-04-30T09:00:00Z", "2023-04-30T09:00:00Z", "2023-04-30T09:00:00Z", "2023-04-30T09:06:00Z", "2023-04-30T09:00:00Z", "2023-04-30T09:00:00Z", "2023-04-30T09:00:00Z", "2023-04-30T09:00:00Z", "2023-04-30T09:00:00Z", "2023-04-30T09:00:00Z", "2023-04-30T09:00:00Z", "2023-04-30T09:00:00Z", "2023-04-30T09:00:00Z", "2023-04-30T09:00:00Z", "2023-04-30T09:00:00Z", "2023-04-30T09:00:00Z", "2023-04-30T09:00:00Z", "2023-04-30T09:00:00Z", "2023-04-30T09:00:00Z", "2023-04-30T09:00:00Z", "2023-04-30T09:00:00Z", "2023-04-30T09:00:00Z", "2023-04-30T09:00:00Z", "2023-04-30T09:00:00Z", "2023-04-30T09:00:00Z", "2023-04-30T09:00:00Z", "2023-04-30T09:00:00Z", "2023-04-30T09:00:00Z", "2023-04-30T09:00:00Z", "2023-04-30T09:00:00Z", "2023-04-30T09:00:00Z", "2023-04-30T09:00:00Z", "2023-04-30T09:00:00Z", "2023-04-30T09:00:00Z", "2023-04-30T09:45:00Z", "2023-04-30T09:00:00Z", "2023-04-30T09:00:00Z", "2023-04-30T09:00:00Z", "2023-04-30T09:00:00Z", "2023-04-30T09:00:00Z", "2023-04-30T09:00:00Z", "2023-04-30T09:00:00Z", "2023-04-30T09:00:00Z", "2023-04-30T09:00:00Z", "2023-04-30T09:00:00Z", "2023-04-30T09:00:00Z", "2023-04-30T09:00:00Z", "2023-04-30T09:00:00Z", "2023-04-30T09:00:00Z", "2023-04-30T09:00:00Z", "2023-04-30T09:00:00Z", "2023-04-30T09:00:00Z", "2023-04-30T09:00:00Z", "2023-04-30T09:00:00Z", "2023-04-30T09:00:00Z", "2023-04-30T09:00:00Z", "2023-04-30T09:00:00Z", "2023-04-30T09:00:00Z", "2023-04-30T09:00:00Z", "2023-04-30T09:00:00Z", "2023-04-30T09:00:00Z", "2023-04-30T09:00:00Z", "2023-04-30T09:00:00Z", "2023-04-30T09:00:00Z", "2023-04-30T09:00:00Z", "2023-04-30T09:00:00Z", "2023-04-30T09:00:00Z", "2023-04-30T09:00:00Z", "2023-04-30T09:00:00Z", "2023-04-30T09:00:00Z", "2023-04-30T09:00:00Z", "2023-04-30T09:00:00Z", "2023-04-30T09:00:00Z", "2023-04-30T09:00:00Z", "2023-04-30T09:00:00Z", "2023-04-30T09:00:00Z", "2023-04-30T09:00:00Z", "2023-04-30T09:00:00Z", "2023-04-30T09:00:00Z", "2023-04-30T09:00:00Z", "2023-04-30T09:00:00Z", "2023-04-30T09:00:00Z", "2023-04-30T09:00:00Z", "2023-04-30T09:00:00Z", "2023-04-30T09:00:00Z", "2023-04-30T09:00:00Z", "2023-04-30T09:00:00Z", "2023-04-30T09:00:00Z", "2023-04-30T09:00:00Z", "2023-04-30T09:00:00Z", "2023-04-30T09:00:00Z", "2023-04-30T09:00:00Z", "2023-04-30T09:00:00Z", "2023-04-30T09:00:00Z", "2023-04-30T09:00:00Z", "2023-04-30T09:00:00Z", "2023-04-30T09:00:00Z", "2023-04-30T09:00:00Z", "2023-04-30T09:00:00Z", "2023-04-30T09:00:00Z", "2023-04-30T09:00:00Z", "2023-04-30T09:00:00Z", "2023-04-30T09:00:00Z", "2023-04-30T09:00:00Z", "2023-04-30T09:00:00Z", "2023-04-30T09:00:00Z", "2023-04-30T09:00:00Z", "2023-04-30T09:00:00Z", "2023-04-30T09:00:00Z", "2023-04-30T09:00:00Z", "2023-04-30T09:00:00Z", "2023-04-30T09:00:00Z", "2023-04-30T09:00:00Z", "2023-04-30T09:00:00Z", "2023-04-30T09:00:00Z", "2023-04-30T09:00:00Z", "2023-04-30T09:00:00Z", "2023-04-30T09:00:00Z", "2023-04-30T09:00:00Z", "2023-04-30T09:00:00Z", "2023-04-30T09:00:00Z", "2023-04-30T09:00:00Z", "2023-04-30T09:00:00Z", "2023-04-30T09:00:00Z", "2023-04-30T09:00:00Z", "2023-04-30T09:00:00Z", "2023-04-30T09:00:00Z", "2023-04-30T09:00:00Z", "2023-04-30T09:00:00Z", "2023-04-30T09:00:00Z", "2023-04-30T09:00:00Z", "2023-04-30T09:00:00Z", "2023-04-30T09:00:00Z", "2023-04-30T09:00:00Z", "2023-04-30T09:00:00Z", "2023-04-30T09:00:00Z", "2023-04-30T09:00:00Z", "2023-04-30T09:00:00Z", "2023-04-30T09:00:00Z", "2023-04-30T09:00:00Z", "2023-04-30T09:00:00Z", "2023-04-30T09:00:00Z", "2023-04-30T09:00:00Z", "2023-04-30T09:00:00Z", "2023-04-30T09:00:00Z", "2023-04-30T09:00:00Z", "2023-04-30T09:00:00Z", "2023-04-30T09:00:00Z", "2023-04-30T09:00:00Z", "2023-04-30T09:00:00Z", "2023-04-30T09:00:00Z", "2023-04-30T09:00:00Z", "2023-04-30T09:00:00Z", "2023-04-30T09:00:00Z", "2023-04-30T09:00:00Z", "2023-04-30T09:00:00Z", "2023-04-30T09:00:00Z", "2023-04-30T09:00:00Z", "2023-04-30T09:00:00Z", "2023-04-30T09:00:00Z", "2023-04-30T09:00:00Z", "2023-04-30T09:00:00Z", "2023-04-30T09:00:00Z", "2023-04-30T09:00:00Z", "2023-04-30T09:00:00Z", "2023-04-30T09:00:00Z", "2023-04-30T09:00:00Z", "2023-04-30T09:00:00Z", "2023-04-30T09:00:00Z", "2023-04-30T09:00:00Z", "2023-04-30T09:00:00Z", "2023-04-30T09:00:00Z", "2023-04-30T09:00:00Z", "2023-04-30T09:00:00Z", "2023-04-30T09:00:00Z", "2023-04-30T09:00:00Z", "2023-04-30T09:00:00Z", "2023-04-30T09:00:00Z", "2023-04-30T09:00:00Z", "2023-04-30T09:00:00Z", "2023-04-30T09:45:00Z", "2023-04-30T10:04:00Z", "2023-04-30T09:00:00Z", "2023-04-30T09:00:00Z", "2023-04-30T09:00:00Z", "2023-04-30T09:45:00Z", "2023-04-30T09:22:00Z", "2023-04-30T09:00:00Z", "2023-04-30T09:00:00Z", "2023-04-30T09:00:00Z", "2023-04-30T09:00:00Z", "2023-04-30T10:04:00Z", "2023-04-30T09:15:00Z", "2023-04-30T09:30:00Z", "2023-04-30T09:33:00Z", "2023-04-30T09:00:00Z", "2023-04-30T09:00:00Z", "2023-04-30T09:00:00Z", "2023-04-30T09:00:00Z", "2023-04-30T09:00:00Z", "2023-04-30T09:24:00Z", "2023-04-30T09:00:00Z", "2023-04-30T09:00:00Z", "2023-04-30T10:01:00Z", "2023-04-30T09:00:00Z", "2023-04-30T09:25:00Z", "2023-04-30T09:00:00Z", "2023-04-30T09:00:00Z", "2023-04-30T09:00:00Z", "2023-04-30T09:00:00Z", "2023-04-30T09:00:00Z", "2023-04-30T09:00:00Z", "2023-04-30T09:00:00Z", "2023-04-30T09:00:00Z", "2023-04-30T09:00:00Z", "2023-04-30T09:00:00Z", "2023-04-30T09:00:00Z", "2023-04-30T09:00:00Z", "2023-04-30T09:40:00Z", "2023-04-30T09:00:00Z", "2023-04-30T09:00:00Z", "2023-04-30T09:00:00Z", "2023-04-30T09:46:00Z", "2023-04-30T09:00:00Z", "2023-04-30T09:45:00Z", "2023-04-30T09:00:00Z", "2023-04-30T09:53:00Z", "2023-04-30T09:00:00Z", "2023-04-30T09:00:00Z", "2023-04-30T09:00:00Z", "2023-04-30T09:16:00Z", "2023-04-30T09:00:00Z", "2023-04-30T09:24:00Z", "2023-04-30T09:25:00Z", "2023-04-30T09:00:00Z", "2023-04-30T09:00:00Z", "2023-04-30T09:00:00Z", "2023-04-30T09:00:00Z", "2023-04-30T09:00:00Z", "2023-04-30T09:00:00Z", "2023-04-30T09:00:00Z", "2023-04-30T09:18:00Z", "2023-04-30T09:17:00Z", "2023-04-30T09:00:00Z", "2023-04-30T09:00:00Z", "2023-04-30T09:54:00Z", "2023-04-30T09:00:00Z", "2023-04-30T09:00:00Z", "2023-04-30T09:18:00Z", "2023-04-30T09:00:00Z", "2023-04-30T09:00:00Z", "2023-04-30T09:24:00Z", "2023-04-30T09:00:00Z", "2023-04-30T09:00:00Z", "2023-04-30T10:02:00Z", "2023-04-30T09:00:00Z", "2023-04-30T09:00:00Z", "2023-04-30T09:39:00Z", "2023-04-30T09:18:00Z", "2023-04-30T09:00:00Z", "2023-04-30T09:43:00Z", "2023-04-30T09:07:00Z", "2023-04-30T09:00:00Z", "2023-04-30T09:00:00Z", "2023-04-30T09:00:00Z", "2023-04-30T09:00:00Z", "2023-04-30T09:21:00Z", "2023-04-30T09:00:00Z", "2023-04-30T09:00:00Z", "2023-04-30T09:00:00Z", "2023-04-30T09:00:00Z", "2023-04-30T09:00:00Z", "2023-04-30T09:48:00Z", "2023-04-30T09:00:00Z", "2023-04-30T09:00:00Z", "2023-04-30T09:00:00Z", "2023-04-30T09:00:00Z", "2023-04-30T09:00:00Z", "2023-04-30T09:00:00Z", "2023-04-30T09:00:00Z", "2023-04-30T09:00:00Z", "2023-04-30T09:00:00Z", "2023-04-30T09:47:00Z", "2023-04-30T09:00:00Z", "2023-04-30T09:00:00Z", "2023-04-30T09:00:00Z", "2023-04-30T09:36:00Z", "2023-04-30T09:00:00Z", "2023-04-30T09:00:00Z", "2023-04-30T09:00:00Z", "2023-04-30T09:00:00Z", "2023-04-30T09:00:00Z", "2023-04-30T09:00:00Z", "2023-04-30T09:00:00Z", "2023-04-30T10:03:00Z", "2023-04-30T09:46:00Z", "2023-04-30T09:00:00Z", "2023-04-30T09:48:00Z", "2023-04-30T09:54:00Z", "2023-04-30T09:00:00Z", "2023-04-30T09:00:00Z", "2023-04-30T09:00:00Z", "2023-04-30T09:00:00Z", "2023-04-30T09:28:00Z", "2023-04-30T10:03:00Z", "2023-04-30T09:00:00Z", "2023-04-30T09:00:00Z", "2023-04-30T09:00:00Z", "2023-04-30T09:20:00Z", "2023-04-30T09:00:00Z", "2023-04-30T09:00:00Z", "2023-04-30T09:00:00Z", "2023-04-30T09:00:00Z", "2023-04-30T09:00:00Z", "2023-04-30T09:00:00Z", "2023-04-30T09:00:00Z", "2023-04-30T09:00:00Z", "2023-04-30T09:00:00Z", "2023-04-30T09:00:00Z", "2023-04-30T09:00:00Z", "2023-04-30T09:00:00Z", "2023-04-30T09:00:00Z", "2023-04-30T09:00:00Z", "2023-04-30T09:00:00Z", "2023-04-30T09:03:00Z", "2023-04-30T09:00:00Z", "2023-04-30T09:00:00Z", "2023-04-30T09:00:00Z", "2023-04-30T09:00:00Z", "2023-04-30T09:00:00Z", "2023-04-30T09:00:00Z", "2023-04-30T09:00:00Z", "2023-04-30T09:00:00Z", "2023-04-30T09:00:00Z", "2023-04-30T09:12:00Z", "2023-04-30T09:00:00Z", "2023-04-30T09:00:00Z", "2023-04-30T09:30:00Z", "2023-04-30T09:00:00Z", "2023-04-30T09:00:00Z", "2023-04-30T09:50:00Z", "2023-04-30T09:00:00Z", "2023-04-30T09:00:00Z", "2023-04-30T09:00:00Z", "2023-04-30T10:05:00Z", "2023-04-30T09:40:00Z", "2023-04-30T09:00:00Z", "2023-04-30T09:00:00Z", "2023-04-30T09:00:00Z", "2023-04-30T09:00:00Z", "2023-04-30T09:00:00Z", "2023-04-30T09:00:00Z", "2023-04-30T09:00:00Z", "2023-04-30T09:00:00Z", "2023-04-30T09:00:00Z", "2023-04-30T09:00:00Z", "2023-04-30T09:00:00Z", "2023-04-30T09:00:00Z", "2023-04-30T09:00:00Z", "2023-04-30T09:00:00Z", "2023-04-30T09:00:00Z", "2023-04-30T09:00:00Z", "2023-04-30T09:00:00Z", "2023-04-30T09:00:00Z", "2023-04-30T09:00:00Z", "2023-04-30T09:00:00Z", "2023-04-30T09:00:00Z", "2023-04-30T09:00:00Z", "2023-04-30T09:00:00Z", "2023-04-30T09:00:00Z", "2023-04-30T09:00:00Z", "2023-04-30T10:00:00Z", "2023-04-30T10:00:00Z", "2023-04-30T10:00:00Z", "2023-04-30T10:00:00Z", "2023-04-30T10:00:00Z", "2023-04-30T10:00:00Z", "2023-04-30T10:00:00Z", "2023-04-30T10:00:00Z", "2023-04-30T10:00:00Z", "2023-04-30T10:00:00Z", "2023-04-30T10:00:00Z", "2023-04-30T10:00:00Z", "2023-04-30T10:00:00Z", "2023-04-30T10:00:00Z", "2023-04-30T10:00:00Z", "2023-04-30T10:00:00Z", "2023-04-30T10:00:00Z", "2023-04-30T10:00:00Z", "2023-04-30T10:00:00Z", "2023-04-30T10:00:00Z", "2023-04-30T10:00:00Z", "2023-04-30T10:00:00Z", "2023-04-30T10:00:00Z", "2023-04-30T10:00:00Z", "2023-04-30T10:00:00Z", "2023-04-30T10:00:00Z", "2023-04-30T10:00:00Z", "2023-04-30T10:00:00Z", "2023-04-30T10:00:00Z", "2023-04-30T10:00:00Z", "2023-04-30T10:00:00Z", "2023-04-30T10:00:00Z", "2023-04-30T10:00:00Z", "2023-04-30T10:00:00Z", "2023-04-30T10:00:00Z", "2023-04-30T10:00:00Z", "2023-04-30T09:00:00Z", "2023-04-30T09:00:00Z", "2023-04-30T09:00:00Z", "2023-04-30T09:00:00Z", "2023-04-30T10:00:00Z", "2023-04-30T09:00:00Z", "2023-04-30T09:00:00Z", "2023-04-30T09:00:00Z", "2023-04-30T09:00:00Z", "2023-04-30T09:00:00Z", "2023-04-30T09:00:00Z", "2023-04-30T09:00:00Z", "2023-04-30T09:00:00Z", "2023-04-30T09:00:00Z", "2023-04-30T09:00:00Z", "2023-04-30T09:00:00Z", "2023-04-30T09:00:00Z", "2023-04-30T09:00:00Z", "2023-04-30T09:00:00Z", "2023-04-30T09:00:00Z", "2023-04-30T09:00:00Z", "2023-04-30T09:00:00Z", "2023-04-30T10:00:00Z", "2023-04-30T10:00:00Z", "2023-04-30T10:00:00Z", "2023-04-30T10:00:00Z", "2023-04-30T10:00:00Z", "2023-04-30T10:00:00Z", "2023-04-30T10:00:00Z", "2023-04-30T10:00:00Z", "2023-04-30T10:00:00Z", "2023-04-30T10:00:00Z", "2023-04-30T10:00:00Z", "2023-04-30T10:00:00Z", "2023-04-30T10:00:00Z", "2023-04-30T10:00:00Z", "2023-04-30T10:00:00Z", "2023-04-30T09:00:00Z", "2023-04-30T09:00:00Z", "2023-04-30T09:00:00Z", "2023-04-30T09:50:00Z", "2023-04-30T09:55:00Z", "2023-04-30T09:55:00Z", "2023-04-30T09:50:00Z", "2023-04-30T09:50:00Z", "2023-04-30T09:55:00Z", "2023-04-30T09:55:00Z", "2023-04-30T09:55:00Z", "2023-04-30T09:55:00Z", "2023-04-30T09:55:00Z", "2023-04-30T09:50:00Z", "2023-04-30T09:50:00Z", "2023-04-30T09:50:00Z", "2023-04-30T09:50:00Z", "2023-04-30T09:50:00Z", "2023-04-30T09:50:00Z", "2023-04-30T09:50:00Z", "2023-04-30T09:50:00Z", "2023-04-30T09:50:00Z", "2023-04-30T09:50:00Z", "2023-04-30T09:50:00Z", "2023-04-30T09:50:00Z", "2023-04-30T09:50:00Z", "2023-04-30T09:50:00Z", "2023-04-30T09:50:00Z", "2023-04-30T09:50:00Z", "2023-04-30T09:50:00Z", "2023-04-30T09:50:00Z", "2023-04-30T09:50:00Z", "2023-04-30T09:50:00Z", "2023-04-30T09:50:00Z", "2023-04-30T09:50:00Z", "2023-04-30T09:50:00Z", "2023-04-30T09:50:00Z", "2023-04-30T09:50:00Z", "2023-04-30T09:50:00Z", "2023-04-30T09:50:00Z", "2023-04-30T09:50:00Z", "2023-04-30T09:50:00Z", "2023-04-30T09:50:00Z", "2023-04-30T09:50:00Z", "2023-04-30T09:50:00Z", "2023-04-30T09:50:00Z", "2023-04-30T09:50:00Z", "2023-04-30T09:50:00Z", "2023-04-30T09:50:00Z", "2023-04-30T09:50:00Z", "2023-04-30T09:50:00Z", "2023-04-30T09:50:00Z", "2023-04-30T09:50:00Z", "2023-04-30T09:50:00Z", "2023-04-30T09:51:00Z", "2023-04-30T09:50:00Z", "2023-04-30T09:50:00Z", "2023-04-30T09:50:00Z", "2023-04-30T09:50:00Z", "2023-04-30T09:50:00Z", "2023-04-30T09:50:00Z", "2023-04-30T09:50:00Z", "2023-04-30T09:50:00Z", "2023-04-30T09:50:00Z", "2023-04-30T09:50:00Z", "2023-04-30T09:50:00Z", "2023-04-30T09:50:00Z", "2023-04-30T09:50:00Z", "2023-04-30T09:50:00Z", "2023-04-30T09:50:00Z", "2023-04-30T09:50:00Z", "2023-04-30T09:50:00Z", "2023-04-30T09:50:00Z", "2023-04-30T09:50:00Z", "2023-04-30T09:50:00Z", "2023-04-30T09:50:00Z", "2023-04-30T09:50:00Z", "2023-04-30T09:50:00Z", "2023-04-30T09:50:00Z", "2023-04-30T09:50:00Z", "2023-04-30T09:50:00Z", "2023-04-30T09:50:00Z", "2023-04-30T09:50:00Z", "2023-04-30T09:50:00Z", "2023-04-30T09:50:00Z", "2023-04-30T09:50:00Z", "2023-04-30T09:50:00Z", "2023-04-30T09:50:00Z", "2023-04-30T09:50:00Z", "2023-04-30T09:50:00Z", "2023-04-30T09:50:00Z", "2023-04-30T09:50:00Z", "2023-04-30T09:50:00Z", "2023-04-30T09:50:00Z", "2023-04-30T09:50:00Z", "2023-04-30T09:50:00Z", "2023-04-30T09:50:00Z", "2023-04-30T09:50:00Z", "2023-04-30T09:50:00Z", "2023-04-30T09:50:00Z", "2023-04-30T09:50:00Z", "2023-04-30T09:50:00Z", "2023-04-30T09:50:00Z", "2023-04-30T09:50:00Z", "2023-04-30T09:50:00Z", "2023-04-30T09:50:00Z", "2023-04-30T09:50:00Z", "2023-04-30T09:50:00Z", "2023-04-30T09:50:00Z", "2023-04-30T09:50:00Z", "2023-04-30T09:50:00Z", "2023-04-30T09:50:00Z", "2023-04-30T09:50:00Z", "2023-04-30T09:50:00Z", "2023-04-30T09:50:00Z", "2023-04-30T09:50:00Z", "2023-04-30T09:50:00Z", "2023-04-30T09:50:00Z", "2023-04-30T09:50:00Z", "2023-04-30T09:50:00Z", "2023-04-30T09:50:00Z", "2023-04-30T09:50:00Z", "2023-04-30T09:50:00Z", "2023-04-30T09:50:00Z", "2023-04-30T09:50:00Z", "2023-04-30T09:50:00Z", "2023-04-30T09:50:00Z", "2023-04-30T09:50:00Z", "2023-04-30T09:50:00Z", "2023-04-30T09:50:00Z", "2023-04-30T09:50:00Z", "2023-04-30T09:50:00Z", "2023-04-30T09:50:00Z", "2023-04-30T09:50:00Z", "2023-04-30T09:50:00Z", "2023-04-30T09:50:00Z", "2023-04-30T09:50:00Z", "2023-04-30T09:50:00Z", "2023-04-30T09:50:00Z", "2023-04-30T09:50:00Z", "2023-04-30T09:50:00Z", "2023-04-30T09:50:00Z", "2023-04-30T09:50:00Z", "2023-04-30T09:50:00Z", "2023-04-30T09:50:00Z", "2023-04-30T09:50:00Z", "2023-04-30T09:50:00Z", "2023-04-30T09:50:00Z", "2023-04-30T09:50:00Z", "2023-04-30T09:50:00Z", "2023-04-30T09:55:00Z", "2023-04-30T09:55:00Z", "2023-04-30T09:50:00Z", "2023-04-30T09:55:00Z", "2023-04-30T09:50:00Z", "2023-04-30T09:50:00Z", "2023-04-30T09:50:00Z", "2023-04-30T09:50:00Z", "2023-04-30T09:50:00Z", "2023-04-30T09:50:00Z", "2023-04-30T09:50:00Z", "2023-04-30T09:50:00Z", "2023-04-30T09:50:00Z", "2023-04-30T09:50:00Z", "2023-04-30T09:50:00Z", "2023-04-30T09:50:00Z", "2023-04-30T09:50:00Z", "2023-04-30T09:50:00Z", "2023-04-30T09:50:00Z", "2023-04-30T09:50:00Z", "2023-04-30T09:50:00Z", "2023-04-30T09:55:00Z", "2023-04-30T09:55:00Z", "2023-04-30T09:55:00Z", "2023-04-30T09:55:00Z", "2023-04-30T09:55:00Z", "2023-04-30T09:55:00Z", "2023-04-30T09:55:00Z", "2023-04-30T09:55:00Z", "2023-04-30T09:55:00Z", "2023-04-30T09:55:00Z", "2023-04-30T09:55:00Z", "2023-04-30T09:55:00Z", "2023-04-30T09:55:00Z", "2023-04-30T09:55:00Z", "2023-04-30T09:55:00Z", "2023-04-30T09:55:00Z", "2023-04-30T09:55:00Z", "2023-04-30T09:55:00Z", "2023-04-30T09:55:00Z", "2023-04-30T09:55:00Z", "2023-04-30T09:55:00Z", "2023-04-30T09:55:00Z", "2023-04-30T09:55:00Z", "2023-04-30T09:55:00Z", "2023-04-30T09:55:00Z", "2023-04-30T09:55:00Z", "2023-04-30T10:00:00Z", "2023-04-30T10:00:00Z", "2023-04-30T10:00:00Z", "2023-04-30T10:00:00Z", "2023-04-30T10:00:00Z", "2023-04-30T10:00:00Z", "2023-04-30T10:00:00Z", "2023-04-30T10:00:00Z", "2023-04-30T10:00:00Z", "2023-04-30T09:50:00Z", "2023-04-30T09:50:00Z", "2023-04-30T09:50:00Z", "2023-04-30T09:50:00Z", "2023-04-30T09:50:00Z", "2023-04-30T09:50:00Z", "2023-04-30T09:50:00Z", "2023-04-30T09:50:00Z", "2023-04-30T09:50:00Z", "2023-04-30T09:50:00Z", "2023-04-30T09:50:00Z", "2023-04-30T09:50:00Z", "2023-04-30T09:50:00Z", "2023-04-30T09:50:00Z", "2023-04-30T09:50:00Z", "2023-04-30T09:50:00Z", "2023-04-30T09:50:00Z", "2023-04-30T09:50:00Z", "2023-04-30T09:50:00Z", "2023-04-30T09:50:00Z", "2023-04-30T09:50:00Z", "2023-04-30T09:50:00Z", "2023-04-30T09:50:00Z", "2023-04-30T09:50:00Z", "2023-04-30T09:50:00Z", "2023-04-30T09:50:00Z", "2023-04-30T09:50:00Z", "2023-04-30T09:50:00Z", "2023-04-30T09:50:00Z", "2023-04-30T09:50:00Z", "2023-04-30T09:50:00Z", "2023-04-30T09:50:00Z", "2023-04-30T09:50:00Z", "2023-04-30T09:50:00Z", "2023-04-30T09:50:00Z", "2023-04-30T09:50:00Z", "2023-04-30T09:50:00Z", "2023-04-30T09:50:00Z", "2023-04-30T09:50:00Z", "2023-04-30T09:50:00Z", "2023-04-30T09:50:00Z", "2023-04-30T09:50:00Z", "2023-04-30T09:50:00Z", "2023-04-30T09:50:00Z", "2023-04-30T09:50:00Z", "2023-04-30T09:50:00Z", "2023-04-30T09:50:00Z", "2023-04-30T09:50:00Z", "2023-04-30T09:20:00Z", "2023-04-30T09:50:00Z", "2023-04-30T09:50:00Z", "2023-04-30T09:50:00Z", "2023-04-30T09:50:00Z", "2023-04-30T09:50:00Z", "2023-04-30T09:50:00Z", "2023-04-30T09:50:00Z", "2023-04-30T09:50:00Z", "2023-04-30T09:50:00Z", "2023-04-30T09:50:00Z", "2023-04-30T09:50:00Z", "2023-04-30T09:50:00Z", "2023-04-30T09:50:00Z", "2023-04-30T09:50:00Z", "2023-04-30T09:50:00Z", "2023-04-30T09:50:00Z", "2023-04-30T09:50:00Z", "2023-04-30T09:50:00Z", "2023-04-30T09:50:00Z", "2023-04-30T09:50:00Z", "2023-04-30T09:50:00Z", "2023-04-30T09:50:00Z", "2023-04-30T09:50:00Z", "2023-04-30T09:50:00Z", "2023-04-30T09:50:00Z", "2023-04-30T09:50:00Z", "2023-04-30T09:50:00Z", "2023-04-30T09:50:00Z", "2023-04-30T09:50:00Z", "2023-04-30T09:50:00Z", "2023-04-30T09:50:00Z", "2023-04-30T09:50:00Z", "2023-04-30T10:00:00Z", "2023-04-30T10:00:00Z", "2023-04-30T10:00:00Z", "2023-04-30T10:00:00Z", "2023-04-30T10:00:00Z", "2023-04-30T10:00:00Z", "2023-04-30T10:00:00Z", "2023-04-30T10:00:00Z", "2023-04-30T10:00:00Z", "2023-04-30T10:00:00Z", "2023-04-30T10:00:00Z", "2023-04-30T10:00:00Z", "2023-04-30T10:00:00Z", "2023-04-30T10:00:00Z", "2023-04-30T10:00:00Z", "2023-04-30T09:50:00Z", "2023-04-30T09:50:00Z", "2023-04-30T09:50:00Z", "2023-04-30T09:50:00Z", "2023-04-30T09:50:00Z", "2023-04-30T09:50:00Z", "2023-04-30T09:50:00Z", "2023-04-30T09:50:00Z", "2023-04-30T09:50:00Z", "2023-04-30T09:50:00Z", "2023-04-30T09:50:00Z", "2023-04-30T09:50:00Z", "2023-04-30T09:50:00Z", "2023-04-30T09:50:00Z", "2023-04-30T09:50:00Z", "2023-04-30T09:50:00Z", "2023-04-30T09:50:00Z", "2023-04-30T09:50:00Z", "2023-04-30T09:50:00Z", "2023-04-30T09:50:00Z", "2023-04-30T09:50:00Z", "2023-04-30T09:50:00Z", "2023-04-30T09:50:00Z", "2023-04-30T09:50:00Z", "2023-04-30T09:50:00Z", "2023-04-30T09:50:00Z", "2023-04-30T09:50:00Z", "2023-04-30T09:50:00Z", "2023-04-30T09:50:00Z", "2023-04-30T09:50:00Z", "2023-04-30T09:50:00Z", "2023-04-30T09:50:00Z", "2023-04-30T09:50:00Z", "2023-04-30T09:50:00Z", "2023-04-30T09:50:00Z", "2023-04-30T09:50:00Z", "2023-04-30T09:50:00Z", "2023-04-30T09:50:00Z", "2023-04-30T09:50:00Z", "2023-04-30T09:50:00Z", "2023-04-30T09:50:00Z", "2023-04-30T09:50:00Z", "2023-04-30T09:50:00Z", "2023-04-30T09:50:00Z", "2023-04-30T09:50:00Z", "2023-04-30T09:50:00Z", "2023-04-30T09:55:00Z", "2023-04-30T09:55:00Z", "2023-04-30T09:55:00Z", "2023-04-30T09:20:00Z", "2023-04-30T09:20:00Z", "2023-04-30T09:20:00Z", "2023-04-30T09:20:00Z", "2023-04-30T09:20:00Z", "2023-04-30T09:20:00Z", "2023-04-30T09:20:00Z", "2023-04-30T09:20:00Z", "2023-04-30T09:55:00Z", "2023-04-30T09:55:00Z", "2023-04-30T09:55:00Z", "2023-04-30T09:20:00Z", "2023-04-30T09:20:00Z", "2023-04-30T09:20:00Z", "2023-04-30T09:20:00Z", "2023-04-30T09:20:00Z", "2023-04-30T09:20:00Z", "2023-04-30T09:20:00Z", "2023-04-30T09:55:00Z", "2023-04-30T09:20:00Z", "2023-04-30T09:20:00Z", "2023-04-30T09:20:00Z", "2023-04-30T09:20:00Z", "2023-04-30T09:20:00Z", "2023-04-30T09:20:00Z", "2023-04-30T09:50:00Z", "2023-04-30T09:50:00Z", "2023-04-30T09:50:00Z", "2023-04-30T09:50:00Z", "2023-04-30T09:50:00Z", "2023-04-30T09:50:00Z", "2023-04-30T09:50:00Z", "2023-04-30T09:50:00Z", "2023-04-30T09:00:00Z", "2023-04-30T10:00:00Z", "2023-04-30T09:54:00Z", "2023-04-30T10:00:00Z", "2023-04-30T10:00:00Z", "2023-04-30T10:00:00Z", "2023-04-30T10:00:00Z", "2023-04-30T10:00:00Z", "2023-04-30T10:00:00Z", "2023-04-30T09:00:00Z", "2023-04-30T10:00:00Z", "2023-04-30T09:00:00Z", "2023-04-30T10:00:00Z", "2023-04-30T10:00:00Z", "2023-04-30T10:00:00Z", "2023-04-30T09:00:00Z", "2023-04-30T10:00:00Z", "2023-04-30T10:00:00Z", "2023-04-30T10:00:00Z", "2023-04-30T09:00:00Z", "2023-04-30T09:00:00Z", "2023-04-30T09:00:00Z", "2023-04-30T09:00:00Z", "2023-04-30T09:00:00Z", "2023-04-30T09:00:00Z", "2023-04-30T09:00:00Z", "2023-04-30T10:00:00Z", "2023-04-30T10:00:00Z", "2023-04-30T09:00:00Z", "2023-04-30T10:00:00Z", "2023-04-30T09:50:00Z", "2023-04-30T10:00:00Z", "2023-04-30T09:55:00Z", "2023-04-30T09:00:00Z", "2023-04-30T09:00:00Z", "2023-04-30T09:00:00Z", "2023-04-30T09:00:00Z", "2023-04-30T09:00:00Z", "2023-04-30T10:00:00Z", "2023-04-30T09:30:00Z", "2023-04-30T09:30:00Z", "2023-04-30T10:00:00Z", "2023-04-30T10:00:00Z", "2023-04-30T09:00:00Z", "2023-04-30T09:00:00Z", "2023-04-30T09:00:00Z", "2023-04-30T09:00:00Z", "2023-04-30T10:00:00Z", "2023-04-30T10:00:00Z", "2023-04-30T10:00:00Z", "2023-04-30T10:00:00Z", "2023-04-30T10:00:00Z", "2023-04-30T10:00:00Z", "2023-04-30T09:00:00Z", "2023-04-30T10:00:00Z", "2023-04-30T10:00:00Z", "2023-04-30T10:00:00Z", "2023-04-30T10:00:00Z", "2023-04-30T09:00:00Z", "2023-04-30T10:00:00Z", "2023-04-30T10:00:00Z", "2023-04-30T10:00:00Z", "2023-04-30T10:00:00Z", "2023-04-30T10:00:00Z", "2023-04-30T09:00:00Z", "2023-04-30T09:00:00Z", "2023-04-30T09:00:00Z", "2023-04-30T09:00:00Z", "2023-04-30T09:00:00Z", "2023-04-30T09:00:00Z", "2023-04-30T09:00:00Z", "2023-04-30T10:00:00Z", "2023-04-30T09:00:00Z", "2023-04-30T10:00:00Z", "2023-04-30T10:00:00Z", "2023-04-30T09:00:00Z", "2023-04-30T09:00:00Z", "2023-04-30T09:00:00Z", "2023-04-30T09:00:00Z", "2023-04-30T09:00:00Z", "2023-04-30T09:00:00Z", "2023-04-30T09:00:00Z", "2023-04-30T10:00:00Z", "2023-04-30T09:00:00Z", "2023-04-30T09:00:00Z", "2023-04-30T09:30:00Z", "2023-04-30T09:00:00Z", "2023-04-30T09:00:00Z", "2023-04-30T09:00:00Z", "2023-04-30T10:00:00Z", "2023-04-30T10:00:00Z", "2023-04-30T10:00:00Z", "2023-04-30T10:00:00Z", "2023-04-30T10:00:00Z", "2023-04-30T10:00:00Z", "2023-04-30T10:00:00Z", "2023-04-30T10:00:00Z", "2023-04-30T10:00:00Z", "2023-04-30T10:00:00Z", "2023-04-30T10:00:00Z", "2023-04-30T09:00:00Z", "2023-04-30T10:00:00Z", "2023-04-30T10:00:00Z", "2023-04-30T10:00:00Z", "2023-04-30T10:00:00Z", "2023-04-30T10:00:00Z", "2023-04-30T10:00:00Z", "2023-04-30T10:00:00Z", "2023-04-30T10:00:00Z", "2023-04-30T10:00:00Z", "2023-04-30T10:00:00Z", "2023-04-30T10:00:00Z", "2023-04-30T10:00:00Z", "2023-04-30T10:00:00Z", "2023-04-30T10:00:00Z", "2023-04-30T10:00:00Z", "2023-04-30T09:00:00Z", "2023-04-30T10:00:00Z", "2023-04-30T10:00:00Z", "2023-04-30T10:00:00Z", "2023-04-30T10:00:00Z", "2023-04-30T10:00:00Z", "2023-04-30T10:00:00Z", "2023-04-30T10:00:00Z", "2023-04-30T10:00:00Z", "2023-04-30T09:30:00Z", "2023-04-30T09:00:00Z", "2023-04-30T09:00:00Z", "2023-04-30T09:00:00Z", "2023-04-30T09:00:00Z", "2023-04-30T09:00:00Z", "2023-04-30T09:00:00Z", "2023-04-30T09:00:00Z", "2023-04-30T09:00:00Z", "2023-04-30T09:00:00Z", "2023-04-30T09:00:00Z", "2023-04-30T09:00:00Z", "2023-04-30T09:30:00Z", "2023-04-30T09:30:00Z", "2023-04-30T09:00:00Z", "2023-04-30T10:00:00Z", "2023-04-30T09:00:00Z", "2023-04-30T10:00:00Z", "2023-04-30T10:00:00Z", "2023-04-30T10:00:00Z", "2023-04-30T10:00:00Z", "2023-04-30T10:00:00Z", "2023-04-30T09:00:00Z", "2023-04-30T09:00:00Z", "2023-04-30T09:00:00Z", "2023-04-30T09:00:00Z", "2023-04-30T09:00:00Z", "2023-04-30T09:00:00Z", "2023-04-30T09:00:00Z", "2023-04-30T09:00:00Z", "2023-04-30T10:00:00Z", "2023-04-30T09:00:00Z", "2023-04-30T09:00:00Z", "2023-04-30T09:00:00Z", "2023-04-30T09:00:00Z", "2023-04-30T09:00:00Z", "2023-04-30T09:00:00Z", "2023-04-30T09:00:00Z", "2023-04-30T09:00:00Z", "2023-04-30T09:00:00Z", "2023-04-30T09:00:00Z", "2023-04-30T09:00:00Z", "2023-04-30T09:00:00Z", "2023-04-30T09:00:00Z", "2023-04-30T09:00:00Z", "2023-04-30T09:00:00Z", "2023-04-30T09:00:00Z", "2023-04-30T09:00:00Z", "2023-04-30T09:30:00Z", "2023-04-30T09:00:00Z", "2023-04-30T09:00:00Z", "2023-04-30T09:00:00Z", "2023-04-30T09:00:00Z", "2023-04-30T09:00:00Z", "2023-04-30T09:00:00Z", "2023-04-30T09:00:00Z", "2023-04-30T09:00:00Z", "2023-04-30T09:00:00Z", "2023-04-30T09:00:00Z", "2023-04-30T09:00:00Z", "2023-04-30T10:00:00Z", "2023-04-30T09:00:00Z", "2023-04-30T09:00:00Z", "2023-04-30T09:00:00Z", "2023-04-30T09:00:00Z", "2023-04-30T09:00:00Z", "2023-04-30T09:00:00Z", "2023-04-30T09:00:00Z", "2023-04-30T09:00:00Z", "2023-04-30T09:00:00Z", "2023-04-30T09:00:00Z", "2023-04-30T09:00:00Z", "2023-04-30T09:00:00Z", "2023-04-30T09:00:00Z", "2023-04-30T09:00:00Z", "2023-04-30T09:00:00Z", "2023-04-30T09:00:00Z", "2023-04-30T09:00:00Z", "2023-04-30T09:55:00Z", "2023-04-30T09:59:00Z", "2023-04-30T09:50:00Z", "2023-04-30T09:55:00Z", "2023-04-30T09:55:00Z", "2023-04-30T09:55:00Z", "2023-04-30T09:55:00Z", "2023-04-30T09:55:00Z", "2023-04-30T09:55:00Z", "2023-04-30T09:55:00Z", "2023-04-30T09:55:00Z", "2023-04-30T09:58:00Z", "2023-04-30T09:55:00Z", "2023-04-30T09:55:00Z", "2023-04-30T09:55:00Z", "2023-04-30T09:55:00Z", "2023-04-30T09:55:00Z", "2023-04-30T09:54:00Z", "2023-04-30T09:55:00Z", "2023-04-30T09:55:00Z", "2023-04-30T09:55:00Z", "2023-04-30T09:55:00Z", "2023-04-30T09:55:00Z", "2023-04-30T09:55:00Z", "2023-04-30T09:55:00Z", "2023-04-30T09:50:00Z", "2023-04-30T09:55:00Z", "2023-04-30T09:55:00Z", "2023-04-30T09:55:00Z", "2023-04-30T09:55:00Z", "2023-04-30T09:55:00Z", "2023-04-30T09:55:00Z", "2023-04-30T09:55:00Z", "2023-04-30T09:55:00Z", "2023-04-30T09:55:00Z", "2023-04-30T09:55:00Z", "2023-04-30T09:55:00Z", "2023-04-30T09:55:00Z", "2023-04-30T09:55:00Z", "2023-04-30T09:55:00Z", "2023-04-30T09:55:00Z", "2023-04-30T09:55:00Z", "2023-04-30T09:55:00Z", "2023-04-30T09:55:00Z", "2023-04-30T09:55:00Z", "2023-04-30T09:55:00Z", "2023-04-30T09:55:00Z", "2023-04-30T09:55:00Z", "2023-04-30T09:55:00Z", "2023-04-30T09:55:00Z", "2023-04-30T09:55:00Z", "2023-04-30T09:55:00Z", "2023-04-30T09:55:00Z", "2023-04-30T09:55:00Z", "2023-04-30T09:55:00Z", "2023-04-30T09:55:00Z", "2023-04-30T09:55:00Z", "2023-04-30T09:56:00Z", "2023-04-30T09:55:00Z", "2023-04-30T09:55:00Z", "2023-04-30T09:55:00Z", "2023-04-30T09:55:00Z", "2023-04-30T09:55:00Z", "2023-04-30T09:55:00Z", "2023-04-30T09:55:00Z", "2023-04-30T09:55:00Z", "2023-04-30T09:55:00Z", "2023-04-30T09:55:00Z", "2023-04-30T09:55:00Z", "2023-04-30T09:54:00Z", "2023-04-30T09:55:00Z", "2023-04-30T09:55:00Z", "2023-04-30T09:55:00Z", "2023-04-30T09:55:00Z", "2023-04-30T09:55:00Z", "2023-04-30T09:55:00Z", "2023-04-30T09:45:00Z", "2023-04-30T09:55:00Z", "2023-04-30T09:55:00Z", "2023-04-30T09:55:00Z", "2023-04-30T09:55:00Z", "2023-04-30T09:55:00Z", "2023-04-30T09:55:00Z", "2023-04-30T09:55:00Z", "2023-04-30T09:55:00Z", "2023-04-30T09:55:00Z", "2023-04-30T09:55:00Z", "2023-04-30T09:55:00Z", "2023-04-30T09:55:00Z", "2023-04-30T09:55:00Z", "2023-04-30T09:55:00Z", "2023-04-30T09:55:00Z", "2023-04-30T09:55:00Z", "2023-04-30T09:55:00Z", "2023-04-30T09:59:00Z", "2023-04-30T09:49:00Z", "2023-04-30T09:56:00Z", "2023-04-30T09:55:00Z", "2023-04-30T09:55:00Z", "2023-04-30T09:55:00Z", "2023-04-30T10:00:00Z", "2023-04-30T09:55:00Z", "2023-04-30T09:55:00Z", "2023-04-30T09:55:00Z", "2023-04-30T09:55:00Z", "2023-04-30T09:55:00Z", "2023-04-30T09:55:00Z", "2023-04-30T09:55:00Z", "2023-04-30T09:55:00Z", "2023-04-30T09:55:00Z", "2023-04-30T10:00:00Z", "2023-04-30T09:16:00Z", "2023-04-30T09:55:00Z", "2023-04-30T09:55:00Z", "2023-04-30T09:55:00Z", "2023-04-30T09:55:00Z", "2023-04-30T09:55:00Z", "2023-04-30T09:55:00Z", "2023-04-30T09:55:00Z", "2023-04-30T09:55:00Z", "2023-04-30T09:55:00Z", "2023-04-30T09:55:00Z", "2023-04-30T09:55:00Z", "2023-04-30T09:55:00Z", "2023-04-30T09:55:00Z", "2023-04-30T09:55:00Z", "2023-04-30T09:55:00Z", "2023-04-30T09:55:00Z", "2023-04-30T09:55:00Z", "2023-04-30T09:55:00Z", "2023-04-30T09:55:00Z", "2023-04-30T09:55:00Z", "2023-04-30T09:55:00Z", "2023-04-30T09:40:00Z", "2023-04-30T09:55:00Z", "2023-04-30T09:55:00Z", "2023-04-30T09:55:00Z", "2023-04-30T09:55:00Z", "2023-04-30T09:55:00Z", "2023-04-30T09:55:00Z", "2023-04-30T09:55:00Z", "2023-04-30T09:55:00Z", "2023-04-30T09:55:00Z", "2023-04-30T09:55:00Z", "2023-04-30T09:55:00Z", "2023-04-30T09:55:00Z", "2023-04-30T09:55:00Z", "2023-04-30T09:55:00Z", "2023-04-30T09:55:00Z", "2023-04-30T09:55:00Z", "2023-04-30T09:55:00Z", "2023-04-30T09:55:00Z", "2023-04-30T09:55:00Z", "2023-04-30T09:51:00Z", "2023-04-30T09:55:00Z", "2023-04-30T09:55:00Z", "2023-04-30T09:55:00Z", "2023-04-30T09:55:00Z", "2023-04-30T09:56:00Z", "2023-04-30T09:55:00Z", "2023-04-30T09:55:00Z", "2023-04-30T09:55:00Z", "2023-04-30T09:50:00Z", "2023-04-30T09:55:00Z", "2023-04-30T09:55:00Z", "2023-04-30T09:55:00Z", "2023-04-30T09:55:00Z", "2023-04-30T09:55:00Z", "2023-04-30T09:56:00Z", "2023-04-30T09:55:00Z", "2023-04-30T09:55:00Z", "2023-04-30T09:55:00Z", "2023-04-30T09:55:00Z", "2023-04-30T09:35:00Z", "2023-04-30T09:55:00Z", "2023-04-30T09:55:00Z", "2023-04-30T09:55:00Z", "2023-04-30T09:55:00Z", "2023-04-30T09:55:00Z", "2023-04-30T09:55:00Z", "2023-04-30T09:53:00Z", "2023-04-30T09:54:00Z", "2023-04-30T09:55:00Z", "2023-04-30T09:55:00Z", "2023-04-30T09:51:00Z", "2023-04-30T09:55:00Z", "2023-04-30T09:52:00Z", "2023-04-30T09:52:00Z", "2023-04-30T09:53:00Z", "2023-04-30T09:53:00Z", "2023-04-30T09:55:00Z", "2023-04-30T09:55:00Z", "2023-04-30T09:53:00Z", "2023-04-30T09:55:00Z", "2023-04-30T09:55:00Z", "2023-04-30T09:51:00Z", "2023-04-30T09:58:00Z", "2023-04-30T09:54:00Z", "2023-04-30T09:45:00Z", "2023-04-30T09:56:00Z", "2023-04-30T09:56:00Z", "2023-04-30T09:53:00Z", "2023-04-30T09:55:00Z", "2023-04-30T09:55:00Z", "2023-04-30T09:55:00Z", "2023-04-30T09:55:00Z", "2023-04-30T09:55:00Z", "2023-04-30T09:55:00Z", "2023-04-30T09:55:00Z", "2023-04-30T09:55:00Z", "2023-04-30T09:55:00Z", "2023-04-30T09:53:00Z", "2023-04-30T09:55:00Z", "2023-04-30T09:56:00Z", "2023-04-30T09:55:00Z", "2023-04-30T09:52:00Z", "2023-04-30T09:50:00Z", "2023-04-30T09:49:00Z", "2023-04-30T09:53:00Z", "2023-04-30T09:53:00Z", "2023-04-30T09:55:00Z", "2023-04-30T09:55:00Z", "2023-04-30T09:53:00Z", "2023-04-30T09:51:00Z", "2023-04-30T09:55:00Z", "2023-04-30T09:53:00Z", "2023-04-30T09:55:00Z", "2023-04-30T09:55:00Z", "2023-04-30T09:55:00Z", "2023-04-30T09:55:00Z", "2023-04-30T09:55:00Z", "2023-04-30T09:56:00Z", "2023-04-30T09:55:00Z", "2023-04-30T10:04:00Z", "2023-04-30T09:55:00Z", "2023-04-30T09:55:00Z", "2023-04-30T09:54:00Z", "2023-04-30T09:53:00Z", "2023-04-30T09:54:00Z", "2023-04-30T09:54:00Z", "2023-04-30T09:51:00Z", "2023-04-30T09:53:00Z", "2023-04-30T09:56:00Z", "2023-04-30T09:55:00Z", "2023-04-30T09:55:00Z", "2023-04-30T09:54:00Z", "2023-04-30T09:52:00Z", "2023-04-30T09:53:00Z", "2023-04-30T09:53:00Z", "2023-04-30T09:53:00Z", "2023-04-30T09:55:00Z", "2023-04-30T09:53:00Z", "2023-04-30T09:53:00Z", "2023-04-30T09:56:00Z", "2023-04-30T09:55:00Z", "2023-04-30T09:55:00Z", "2023-04-30T09:50:00Z", "2023-04-30T09:55:00Z", "2023-04-30T09:55:00Z", "2023-04-30T09:53:00Z", "2023-04-30T09:53:00Z", "2023-04-30T09:53:00Z", "2023-04-30T09:54:00Z", "2023-04-30T09:53:00Z", "2023-04-30T09:54:00Z", "2023-04-30T09:56:00Z", "2023-04-30T09:55:00Z", "2023-04-30T09:55:00Z", "2023-04-30T09:53:00Z", "2023-04-30T09:57:00Z", "2023-04-30T09:52:00Z", "2023-04-30T09:55:00Z", "2023-04-30T09:53:00Z", "2023-04-30T10:02:00Z", "2023-04-30T09:56:00Z", "2023-04-30T09:55:00Z", "2023-04-30T09:52:00Z", "2023-04-30T09:56:00Z", "2023-04-30T09:55:00Z", "2023-04-30T09:55:00Z", "2023-04-30T09:53:00Z", "2023-04-30T09:53:00Z", "2023-04-30T09:56:00Z", "2023-04-30T09:45:00Z", "2023-04-30T09:55:00Z", "2023-04-30T09:55:00Z", "2023-04-30T10:04:00Z", "2023-04-30T09:55:00Z", "2023-04-30T09:53:00Z", "2023-04-30T09:55:00Z", "2023-04-30T09:52:00Z", "2023-04-30T10:00:00Z", "2023-04-30T09:55:00Z", "2023-04-30T09:51:00Z", "2023-04-30T09:55:00Z", "2023-04-30T09:53:00Z", "2023-04-30T09:53:00Z", "2023-04-30T09:55:00Z", "2023-04-30T09:57:00Z", "2023-04-30T09:55:00Z", "2023-04-30T09:57:00Z", "2023-04-30T09:53:00Z", "2023-04-30T09:54:00Z", "2023-04-30T09:55:00Z", "2023-04-30T09:54:00Z", "2023-04-30T09:54:00Z", "2023-04-30T09:55:00Z", "2023-04-30T09:51:00Z", "2023-04-30T09:55:00Z", "2023-04-30T09:53:00Z", "2023-04-30T09:56:00Z", "2023-04-30T09:55:00Z", "2023-04-30T09:55:00Z", "2023-04-30T09:53:00Z", "2023-04-30T09:55:00Z", "2023-04-30T09:55:00Z", "2023-04-30T09:55:00Z", "2023-04-30T09:55:00Z", "2023-04-30T09:55:00Z", "2023-04-30T09:55:00Z", "2023-04-30T09:53:00Z", "2023-04-30T09:55:00Z", "2023-04-30T09:55:00Z", "2023-04-30T09:53:00Z", "2023-04-30T09:55:00Z", "2023-04-30T09:52:00Z", "2023-04-30T09:55:00Z", "2023-04-30T09:51:00Z", "2023-04-30T09:57:00Z", "2023-04-30T09:55:00Z", "2023-04-30T09:55:00Z", "2023-04-30T09:55:00Z", "2023-04-30T09:53:00Z", "2023-04-30T09:55:00Z", "2023-04-30T09:53:00Z", "2023-04-30T09:55:00Z", "2023-04-30T09:53:00Z", "2023-04-30T09:55:00Z", "2023-04-30T09:55:00Z", "2023-04-30T09:51:00Z", "2023-04-30T09:55:00Z", "2023-04-30T09:52:00Z", "2023-04-30T09:55:00Z", "2023-04-30T09:55:00Z", "2023-04-30T09:55:00Z", "2023-04-30T09:51:00Z", "2023-04-30T09:53:00Z", "2023-04-30T09:53:00Z", "2023-04-30T09:53:00Z", "2023-04-30T09:53:00Z", "2023-04-30T09:54:00Z", "2023-04-30T09:53:00Z", "2023-04-30T09:55:00Z", "2023-04-30T09:51:00Z", "2023-04-30T09:55:00Z", "2023-04-30T09:55:00Z", "2023-04-30T10:00:00Z", "2023-04-30T09:53:00Z", "2023-04-30T09:56:00Z", "2023-04-30T09:55:00Z", "2023-04-30T09:51:00Z", "2023-04-30T09:53:00Z", "2023-04-30T09:56:00Z", "2023-04-30T09:55:00Z", "2023-04-30T09:55:00Z", "2023-04-30T09:56:00Z", "2023-04-30T09:55:00Z", "2023-04-30T09:53:00Z", "2023-04-30T09:52:00Z", "2023-04-30T09:53:00Z", "2023-04-30T09:55:00Z", "2023-04-30T09:55:00Z", "2023-04-30T09:55:00Z", "2023-04-30T09:56:00Z", "2023-04-30T09:52:00Z", "2023-04-30T09:55:00Z", "2023-04-30T09:53:00Z", "2023-04-30T09:58:00Z", "2023-04-30T10:01:00Z", "2023-04-30T09:55:00Z", "2023-04-30T09:55:00Z", "2023-04-30T09:55:00Z", "2023-04-30T09:58:00Z", "2023-04-30T09:51:00Z", "2023-04-30T09:56:00Z", "2023-04-30T09:52:00Z", "2023-04-30T09:53:00Z", "2023-04-30T09:56:00Z", "2023-04-30T09:52:00Z", "2023-04-30T09:55:00Z", "2023-04-30T09:50:00Z", "2023-04-30T09:53:00Z", "2023-04-30T09:56:00Z", "2023-04-30T09:52:00Z", "2023-04-30T09:53:00Z", "2023-04-30T09:55:00Z", "2023-04-30T09:53:00Z", "2023-04-30T09:55:00Z", "2023-04-30T09:53:00Z", "2023-04-30T09:55:00Z", "2023-04-30T09:53:00Z", "2023-04-30T10:04:00Z", "2023-04-30T09:54:00Z", "2023-04-30T09:55:00Z", "2023-04-30T09:55:00Z", "2023-04-30T09:55:00Z", "2023-04-30T09:53:00Z", "2023-04-30T09:53:00Z", "2023-04-30T09:53:00Z", "2023-04-30T09:55:00Z", "2023-04-30T09:55:00Z", "2023-04-30T09:55:00Z", "2023-04-30T09:53:00Z", "2023-04-30T09:55:00Z", "2023-04-30T09:53:00Z", "2023-04-30T09:53:00Z", "2023-04-30T09:55:00Z", "2023-04-30T09:55:00Z", "2023-04-30T09:53:00Z", "2023-04-30T09:53:00Z", "2023-04-30T09:55:00Z", "2023-04-30T09:56:00Z", "2023-04-30T09:53:00Z", "2023-04-30T09:54:00Z", "2023-04-30T09:54:00Z", "2023-04-30T09:53:00Z", "2023-04-30T09:55:00Z", "2023-04-30T09:54:00Z", "2023-04-30T09:55:00Z", "2023-04-30T09:55:00Z", "2023-04-30T09:53:00Z", "2023-04-30T09:55:00Z", "2023-04-30T09:55:00Z", "2023-04-30T09:56:00Z", "2023-04-30T09:53:00Z", "2023-04-30T09:35:00Z", "2023-04-30T09:53:00Z", "2023-04-30T09:54:00Z", "2023-04-30T09:55:00Z", "2023-04-30T09:55:00Z", "2023-04-30T09:55:00Z", "2023-04-30T09:55:00Z", "2023-04-30T09:53:00Z", "2023-04-30T09:53:00Z", "2023-04-30T09:55:00Z", "2023-04-30T09:55:00Z", "2023-04-30T09:55:00Z", "2023-04-30T09:56:00Z", "2023-04-30T09:55:00Z", "2023-04-30T09:55:00Z", "2023-04-30T09:55:00Z", "2023-04-30T09:55:00Z", "2023-04-30T09:55:00Z", "2023-04-30T09:55:00Z", "2023-04-30T09:55:00Z", "2023-04-30T09:55:00Z", "2023-04-30T09:55:00Z", "2023-04-30T09:56:00Z", "2023-04-30T09:53:00Z", "2023-04-30T09:51:00Z", "2023-04-30T09:55:00Z", "2023-04-30T09:54:00Z", "2023-04-30T09:55:00Z", "2023-04-30T09:45:00Z", "2023-04-30T09:55:00Z", "2023-04-30T09:55:00Z", "2023-04-30T09:55:00Z", "2023-04-30T09:55:00Z", "2023-04-30T09:55:00Z", "2023-04-30T09:50:00Z", "2023-04-30T09:55:00Z", "2023-04-30T09:53:00Z", "2023-04-30T09:55:00Z", "2023-04-30T09:55:00Z", "2023-04-30T09:55:00Z", "2023-04-30T09:53:00Z", "2023-04-30T09:55:00Z", "2023-04-30T09:55:00Z", "2023-04-30T09:55:00Z", "2023-04-30T09:51:00Z", "2023-04-30T09:55:00Z", "2023-04-30T09:53:00Z", "2023-04-30T09:53:00Z", "2023-04-30T09:53:00Z", "2023-04-30T09:56:00Z", "2023-04-30T09:55:00Z", "2023-04-30T09:54:00Z", "2023-04-30T09:53:00Z", "2023-04-30T09:55:00Z", "2023-04-30T09:53:00Z", "2023-04-30T09:55:00Z", "2023-04-30T09:55:00Z", "2023-04-30T09:55:00Z", "2023-04-30T09:55:00Z", "2023-04-30T09:55:00Z", "2023-04-30T09:52:00Z", "2023-04-30T09:55:00Z", "2023-04-30T09:45:00Z", "2023-04-30T09:55:00Z", "2023-04-30T09:53:00Z", "2023-04-30T09:50:00Z", "2023-04-30T09:56:00Z", "2023-04-30T09:53:00Z", "2023-04-30T09:55:00Z", "2023-04-30T09:53:00Z", "2023-04-30T09:56:00Z", "2023-04-30T09:55:00Z", "2023-04-30T09:52:00Z", "2023-04-30T09:55:00Z", "2023-04-30T09:55:00Z", "2023-04-30T09:56:00Z", "2023-04-30T09:55:00Z", "2023-04-30T09:53:00Z", "2023-04-30T09:56:00Z", "2023-04-30T09:55:00Z", "2023-04-30T09:55:00Z", "2023-04-30T09:55:00Z", "2023-04-30T09:55:00Z", "2023-04-30T09:55:00Z", "2023-04-30T09:52:00Z", "2023-04-30T09:55:00Z", "2023-04-30T09:51:00Z", "2023-04-30T09:55:00Z", "2023-04-30T09:53:00Z", "2023-04-30T09:53:00Z", "2023-04-30T09:55:00Z", "2023-04-30T09:52:00Z", "2023-04-30T09:55:00Z", "2023-04-30T09:55:00Z", "2023-04-30T09:55:00Z", "2023-04-30T09:51:00Z", "2023-04-30T09:53:00Z", "2023-04-30T09:55:00Z", "2023-04-30T09:53:00Z", "2023-04-30T09:55:00Z", "2023-04-30T09:55:00Z", "2023-04-30T09:55:00Z", "2023-04-30T09:55:00Z", "2023-04-30T09:55:00Z", "2023-04-30T09:53:00Z", "2023-04-30T09:53:00Z", "2023-04-30T09:52:00Z", "2023-04-30T09:53:00Z", "2023-04-30T09:56:00Z", "2023-04-30T09:56:00Z", "2023-04-30T09:55:00Z", "2023-04-30T09:55:00Z", "2023-04-30T09:51:00Z", "2023-04-30T09:55:00Z", "2023-04-30T09:54:00Z", "2023-04-30T09:53:00Z", "2023-04-30T09:54:00Z", "2023-04-30T09:45:00Z", "2023-04-30T09:55:00Z", "2023-04-30T09:55:00Z", "2023-04-30T09:53:00Z", "2023-04-30T09:53:00Z", "2023-04-30T09:55:00Z", "2023-04-30T09:55:00Z", "2023-04-30T09:55:00Z", "2023-04-30T09:53:00Z", "2023-04-30T09:55:00Z", "2023-04-30T09:55:00Z", "2023-04-30T09:47:00Z", "2023-04-30T09:55:00Z", "2023-04-30T10:04:00Z", "2023-04-30T09:53:00Z", "2023-04-30T09:53:00Z", "2023-04-30T09:51:00Z", "2023-04-30T09:53:00Z", "2023-04-30T09:53:00Z", "2023-04-30T09:54:00Z", "2023-04-30T09:55:00Z", "2023-04-30T09:51:00Z", "2023-04-30T09:53:00Z", "2023-04-30T09:55:00Z", "2023-04-30T09:53:00Z", "2023-04-30T09:56:00Z", "2023-04-30T09:55:00Z", "2023-04-30T09:45:00Z", "2023-04-30T09:53:00Z", "2023-04-30T09:55:00Z", "2023-04-30T09:58:00Z", "2023-04-30T09:53:00Z", "2023-04-30T09:55:00Z", "2023-04-30T09:52:00Z", "2023-04-30T09:55:00Z", "2023-04-30T09:56:00Z", "2023-04-30T09:56:00Z", "2023-04-30T09:55:00Z", "2023-04-30T09:55:00Z", "2023-04-30T09:55:00Z", "2023-04-30T09:55:00Z", "2023-04-30T09:55:00Z", "2023-04-30T09:56:00Z", "2023-04-30T09:55:00Z", "2023-04-30T09:55:00Z", "2023-04-30T09:55:00Z", "2023-04-30T09:53:00Z", "2023-04-30T09:55:00Z", "2023-04-30T09:55:00Z", "2023-04-30T09:50:00Z", "2023-04-30T09:56:00Z", "2023-04-30T09:53:00Z", "2023-04-30T09:55:00Z", "2023-04-30T09:55:00Z", "2023-04-30T09:56:00Z", "2023-04-30T09:55:00Z", "2023-04-30T09:55:00Z", "2023-04-30T09:55:00Z", "2023-04-30T09:55:00Z", "2023-04-30T09:55:00Z", "2023-04-30T09:55:00Z", "2023-04-30T09:55:00Z", "2023-04-30T09:55:00Z", "2023-04-30T09:55:00Z", "2023-04-30T09:53:00Z", "2023-04-30T09:50:00Z", "2023-04-30T09:53:00Z", "2023-04-30T09:53:00Z", "2023-04-30T09:51:00Z", "2023-04-30T09:56:00Z", "2023-04-30T09:55:00Z", "2023-04-30T09:53:00Z", "2023-04-30T09:52:00Z", "2023-04-30T09:55:00Z", "2023-04-30T09:53:00Z", "2023-04-30T09:55:00Z", "2023-04-30T09:52:00Z", "2023-04-30T09:54:00Z", "2023-04-30T09:54:00Z", "2023-04-30T09:50:00Z", "2023-04-30T09:55:00Z", "2023-04-30T09:53:00Z", "2023-04-30T09:53:00Z", "2023-04-30T09:53:00Z", "2023-04-30T09:53:00Z", "2023-04-30T09:53:00Z", "2023-04-30T09:53:00Z", "2023-04-30T09:53:00Z", "2023-04-30T09:53:00Z", "2023-04-30T09:53:00Z", "2023-04-30T09:56:00Z", "2023-04-30T09:56:00Z", "2023-04-30T09:53:00Z", "2023-04-30T09:55:00Z", "2023-04-30T09:55:00Z", "2023-04-30T09:55:00Z", "2023-04-30T09:55:00Z", "2023-04-30T09:55:00Z", "2023-04-30T09:53:00Z", "2023-04-30T09:55:00Z", "2023-04-30T09:55:00Z", "2023-04-30T09:53:00Z", "2023-04-30T09:55:00Z", "2023-04-30T08:55:00Z", "2023-04-30T09:54:00Z", "2023-04-30T09:53:00Z", "2023-04-30T09:53:00Z", "2023-04-30T09:45:00Z", "2023-04-30T09:55:00Z", "2023-04-30T09:53:00Z", "2023-04-30T09:55:00Z", "2023-04-30T09:55:00Z", "2023-04-30T10:02:00Z", "2023-04-30T09:52:00Z", "2023-04-30T09:45:00Z", "2023-04-30T09:55:00Z", "2023-04-30T09:53:00Z", "2023-04-30T09:55:00Z", "2023-04-30T09:55:00Z", "2023-04-30T09:53:00Z", "2023-04-30T09:53:00Z", "2023-04-30T10:00:00Z", "2023-04-30T09:54:00Z", "2023-04-30T09:54:00Z", "2023-04-30T09:55:00Z", "2023-04-30T09:55:00Z", "2023-04-30T09:53:00Z", "2023-04-30T09:53:00Z", "2023-04-30T09:53:00Z", "2023-04-30T09:55:00Z", "2023-04-30T09:54:00Z", "2023-04-30T09:55:00Z", "2023-04-30T09:56:00Z", "2023-04-30T09:55:00Z", "2023-04-30T09:53:00Z", "2023-04-30T09:55:00Z", "2023-04-30T09:50:00Z", "2023-04-30T09:56:00Z", "2023-04-30T09:52:00Z", "2023-04-30T09:55:00Z", "2023-04-30T09:53:00Z", "2023-04-30T09:53:00Z", "2023-04-30T09:55:00Z", "2023-04-30T09:53:00Z", "2023-04-30T09:56:00Z", "2023-04-30T09:55:00Z", "2023-04-30T09:53:00Z", "2023-04-30T09:55:00Z", "2023-04-30T09:55:00Z", "2023-04-30T09:55:00Z", "2023-04-30T09:54:00Z", "2023-04-30T09:56:00Z", "2023-04-30T09:55:00Z", "2023-04-30T09:55:00Z", "2023-04-30T09:55:00Z", "2023-04-30T09:55:00Z", "2023-04-30T09:55:00Z", "2023-04-30T09:55:00Z", "2023-04-30T09:55:00Z", "2023-04-30T09:55:00Z", "2023-04-30T09:50:00Z", "2023-04-30T09:56:00Z", "2023-04-30T09:55:00Z", "2023-04-30T09:56:00Z", "2023-04-30T09:55:00Z", "2023-04-30T09:55:00Z", "2023-04-30T09:55:00Z", "2023-04-30T09:54:00Z", "2023-04-30T09:53:00Z", "2023-04-30T09:55:00Z", "2023-04-30T09:55:00Z", "2023-04-30T09:35:00Z", "2023-04-30T09:50:00Z", "2023-04-30T09:55:00Z", "2023-04-30T09:55:00Z", "2023-04-30T09:55:00Z", "2023-04-30T09:55:00Z", "2023-04-30T09:56:00Z", "2023-04-30T09:56:00Z", "2023-04-30T09:53:00Z", "2023-04-30T10:04:00Z", "2023-04-30T09:54:00Z", "2023-04-30T09:55:00Z", "2023-04-30T09:55:00Z", "2023-04-30T09:56:00Z", "2023-04-30T10:03:00Z", "2023-04-30T09:55:00Z", "2023-04-30T09:55:00Z", "2023-04-30T09:55:00Z", "2023-04-30T09:45:00Z", "2023-04-30T09:56:00Z", "2023-04-30T09:55:00Z", "2023-04-30T09:55:00Z", "2023-04-30T09:55:00Z", "2023-04-30T09:51:00Z", "2023-04-30T09:56:00Z", "2023-04-30T09:56:00Z", "2023-04-30T09:55:00Z", "2023-04-30T09:55:00Z", "2023-04-30T09:56:00Z", "2023-04-30T09:55:00Z", "2023-04-30T09:53:00Z", "2023-04-30T09:55:00Z", "2023-04-30T09:53:00Z", "2023-04-30T09:53:00Z", "2023-04-30T09:55:00Z", "2023-04-30T09:51:00Z", "2023-04-30T09:53:00Z", "2023-04-30T09:56:00Z", "2023-04-30T09:55:00Z", "2023-04-30T09:53:00Z", "2023-04-30T09:55:00Z", "2023-04-30T09:55:00Z", "2023-04-30T09:55:00Z", "2023-04-30T09:56:00Z", "2023-04-30T09:53:00Z", "2023-04-30T09:55:00Z", "2023-04-30T09:55:00Z", "2023-04-30T09:53:00Z", "2023-04-30T09:55:00Z", "2023-04-30T09:53:00Z", "2023-04-30T09:51:00Z", "2023-04-30T09:55:00Z", "2023-04-30T09:55:00Z", "2023-04-30T09:56:00Z", "2023-04-30T09:53:00Z", "2023-04-30T09:55:00Z", "2023-04-30T09:52:00Z", "2023-04-30T09:55:00Z", "2023-04-30T09:40:00Z", "2023-04-30T09:53:00Z", "2023-04-30T09:50:00Z", "2023-04-30T09:58:00Z", "2023-04-30T09:54:00Z", "2023-04-30T09:56:00Z", "2023-04-30T10:02:00Z", "2023-04-30T09:55:00Z", "2023-04-30T09:54:00Z", "2023-04-30T09:53:00Z", "2023-04-30T09:53:00Z", "2023-04-30T09:56:00Z", "2023-04-30T09:54:00Z", "2023-04-30T09:51:00Z", "2023-04-30T09:50:00Z", "2023-04-30T09:53:00Z", "2023-04-30T09:50:00Z", "2023-04-30T09:53:00Z", "2023-04-30T09:55:00Z", "2023-04-30T09:55:00Z", "2023-04-30T09:55:00Z", "2023-04-30T09:55:00Z", "2023-04-30T09:55:00Z", "2023-04-30T09:55:00Z", "2023-04-30T09:55:00Z", "2023-04-30T09:55:00Z", "2023-04-30T09:55:00Z", "2023-04-30T10:02:00Z", "2023-04-30T09:56:00Z", "2023-04-30T09:53:00Z", "2023-04-30T09:53:00Z", "2023-04-30T09:53:00Z", "2023-04-30T09:55:00Z", "2023-04-30T09:55:00Z", "2023-04-30T09:56:00Z", "2023-04-30T09:53:00Z", "2023-04-30T09:55:00Z", "2023-04-30T09:50:00Z", "2023-04-30T09:53:00Z", "2023-04-30T09:55:00Z", "2023-04-30T09:53:00Z", "2023-04-30T09:55:00Z", "2023-04-30T09:55:00Z", "2023-04-30T09:55:00Z", "2023-04-30T10:02:00Z", "2023-04-30T09:55:00Z", "2023-04-30T09:55:00Z", "2023-04-30T09:55:00Z", "2023-04-30T09:53:00Z", "2023-04-30T09:55:00Z", "2023-04-30T09:54:00Z", "2023-04-30T09:55:00Z", "2023-04-30T09:55:00Z", "2023-04-30T09:55:00Z", "2023-04-30T09:53:00Z", "2023-04-30T09:55:00Z", "2023-04-30T09:54:00Z", "2023-04-30T09:55:00Z", "2023-04-30T09:56:00Z", "2023-04-30T09:55:00Z", "2023-04-30T09:55:00Z", "2023-04-30T09:55:00Z", "2023-04-30T10:01:00Z", "2023-04-30T09:57:00Z", "2023-04-30T09:53:00Z", "2023-04-30T09:53:00Z", "2023-04-30T09:56:00Z", "2023-04-30T09:55:00Z", "2023-04-30T09:49:00Z", "2023-04-30T09:45:00Z", "2023-04-30T09:55:00Z", "2023-04-30T09:53:00Z", "2023-04-30T09:53:00Z", "2023-04-30T09:53:00Z", "2023-04-30T09:56:00Z", "2023-04-30T09:53:00Z", "2023-04-30T09:55:00Z", "2023-04-30T09:56:00Z", "2023-04-30T09:53:00Z", "2023-04-30T09:53:00Z", "2023-04-30T09:53:00Z", "2023-04-30T09:55:00Z", "2023-04-30T09:53:00Z", "2023-04-30T09:55:00Z", "2023-04-30T09:45:00Z", "2023-04-30T09:53:00Z", "2023-04-30T09:55:00Z", "2023-04-30T09:55:00Z", "2023-04-30T09:56:00Z", "2023-04-30T09:56:00Z", "2023-04-30T09:55:00Z", "2023-04-30T09:55:00Z", "2023-04-30T09:55:00Z", "2023-04-30T09:53:00Z", "2023-04-30T09:53:00Z", "2023-04-30T09:55:00Z", "2023-04-30T09:55:00Z", "2023-04-30T09:55:00Z", "2023-04-30T09:53:00Z", "2023-04-30T09:53:00Z", "2023-04-30T09:53:00Z", "2023-04-30T09:53:00Z", "2023-04-30T09:55:00Z", "2023-04-30T09:54:00Z", "2023-04-30T09:55:00Z", "2023-04-30T09:55:00Z", "2023-04-30T09:53:00Z", "2023-04-30T09:55:00Z", "2023-04-30T09:53:00Z", "2023-04-30T09:55:00Z", "2023-04-30T09:55:00Z", "2023-04-30T09:55:00Z", "2023-04-30T09:55:00Z", "2023-04-30T09:55:00Z", "2023-04-30T09:53:00Z", "2023-04-30T09:55:00Z", "2023-04-30T09:54:00Z", "2023-04-30T09:56:00Z", "2023-04-30T09:55:00Z", "2023-04-30T09:53:00Z", "2023-04-30T09:56:00Z", "2023-04-30T09:55:00Z", "2023-04-30T09:56:00Z", "2023-04-30T09:55:00Z", "2023-04-30T09:53:00Z", "2023-04-30T09:55:00Z", "2023-04-30T09:54:00Z", "2023-04-30T09:55:00Z", "2023-04-30T09:54:00Z", "2023-04-30T09:55:00Z", "2023-04-30T09:55:00Z", "2023-04-30T09:55:00Z", "2023-04-30T09:55:00Z", "2023-04-30T09:51:00Z", "2023-04-30T09:56:00Z", "2023-04-30T09:54:00Z", "2023-04-30T09:53:00Z", "2023-04-30T09:45:00Z", "2023-04-30T09:53:00Z", "2023-04-30T09:53:00Z", "2023-04-30T09:55:00Z", "2023-04-30T09:53:00Z", "2023-04-30T09:53:00Z", "2023-04-30T09:55:00Z", "2023-04-30T09:55:00Z", "2023-04-30T09:53:00Z", "2023-04-30T09:55:00Z", "2023-04-30T09:55:00Z", "2023-04-30T09:53:00Z", "2023-04-30T09:55:00Z", "2023-04-30T09:55:00Z", "2023-04-30T09:55:00Z", "2023-04-30T10:00:00Z", "2023-04-30T09:53:00Z", "2023-04-30T09:53:00Z", "2023-04-30T09:55:00Z", "2023-04-30T09:53:00Z", "2023-04-30T09:53:00Z", "2023-04-30T09:55:00Z", "2023-04-30T09:53:00Z", "2023-04-30T09:53:00Z", "2023-04-30T09:52:00Z", "2023-04-30T09:55:00Z", "2023-04-30T09:55:00Z", "2023-04-30T09:55:00Z", "2023-04-30T09:53:00Z", "2023-04-30T09:56:00Z", "2023-04-30T09:55:00Z", "2023-04-30T09:50:00Z", "2023-04-30T10:00:00Z", "2023-04-30T09:56:00Z", "2023-04-30T09:55:00Z", "2023-04-30T09:53:00Z", "2023-04-30T09:53:00Z", "2023-04-30T09:56:00Z", "2023-04-30T09:55:00Z", "2023-04-30T09:55:00Z", "2023-04-30T09:40:00Z", "2023-04-30T09:55:00Z", "2023-04-30T09:55:00Z", "2023-04-30T09:55:00Z", "2023-04-30T09:55:00Z", "2023-04-30T09:53:00Z", "2023-04-30T09:56:00Z", "2023-04-30T09:53:00Z", "2023-04-30T09:56:00Z", "2023-04-30T09:55:00Z", "2023-04-30T09:53:00Z", "2023-04-30T09:55:00Z", "2023-04-30T09:55:00Z", "2023-04-30T09:53:00Z", "2023-04-30T09:55:00Z", "2023-04-30T09:55:00Z", "2023-04-30T09:53:00Z", "2023-04-30T09:54:00Z", "2023-04-30T09:53:00Z", "2023-04-30T08:55:00Z", "2023-04-30T09:53:00Z", "2023-04-30T09:56:00Z", "2023-04-30T09:56:00Z", "2023-04-30T09:56:00Z", "2023-04-30T10:00:00Z", "2023-04-30T09:53:00Z", "2023-04-30T09:55:00Z", "2023-04-30T09:55:00Z", "2023-04-30T09:53:00Z", "2023-04-30T09:55:00Z", "2023-04-30T09:53:00Z", "2023-04-30T09:56:00Z", "2023-04-30T09:55:00Z", "2023-04-30T10:00:00Z", "2023-04-30T09:55:00Z", "2023-04-30T09:53:00Z", "2023-04-30T09:55:00Z", "2023-04-30T09:50:00Z", "2023-04-30T09:55:00Z", "2023-04-30T09:55:00Z", "2023-04-30T09:56:00Z", "2023-04-30T09:55:00Z", "2023-04-30T09:55:00Z", "2023-04-30T09:55:00Z", "2023-04-30T09:55:00Z", "2023-04-30T09:55:00Z", "2023-04-30T09:45:00Z", "2023-04-30T09:53:00Z", "2023-04-30T09:55:00Z", "2023-04-30T09:40:00Z", "2023-04-30T09:55:00Z", "2023-04-30T09:55:00Z", "2023-04-30T09:55:00Z", "2023-04-30T09:55:00Z", "2023-04-30T09:53:00Z", "2023-04-30T09:53:00Z", "2023-04-30T09:45:00Z", "2023-04-30T09:53:00Z", "2023-04-30T09:55:00Z", "2023-04-30T09:55:00Z", "2023-04-30T09:55:00Z", "2023-04-30T09:55:00Z", "2023-04-30T09:55:00Z", "2023-04-30T09:55:00Z", "2023-04-30T09:55:00Z", "2023-04-30T09:56:00Z", "2023-04-30T09:51:00Z", "2023-04-30T09:56:00Z", "2023-04-30T09:55:00Z", "2023-04-30T09:53:00Z", "2023-04-30T09:55:00Z", "2023-04-30T09:55:00Z", "2023-04-30T09:56:00Z", "2023-04-30T09:53:00Z", "2023-04-30T09:55:00Z", "2023-04-30T09:55:00Z", "2023-04-30T09:55:00Z", "2023-04-30T09:53:00Z", "2023-04-30T09:55:00Z", "2023-04-30T09:55:00Z", "2023-04-30T09:53:00Z", "2023-04-30T09:55:00Z", "2023-04-30T09:53:00Z", "2023-04-30T09:52:00Z", "2023-04-30T09:55:00Z", "2023-04-30T09:55:00Z", "2023-04-30T09:53:00Z", "2023-04-30T09:55:00Z", "2023-04-30T09:53:00Z", "2023-04-30T09:53:00Z", "2023-04-30T09:53:00Z", "2023-04-30T09:53:00Z", "2023-04-30T09:55:00Z", "2023-04-30T09:53:00Z", "2023-04-30T09:53:00Z", "2023-04-30T09:53:00Z", "2023-04-30T09:55:00Z", "2023-04-30T09:55:00Z", "2023-04-30T09:55:00Z", "2023-04-30T09:55:00Z", "2023-04-30T09:55:00Z", "2023-04-30T09:55:00Z", "2023-04-30T09:56:00Z", "2023-04-30T09:56:00Z", "2023-04-30T09:55:00Z", "2023-04-30T09:55:00Z", "2023-04-30T09:55:00Z", "2023-04-30T09:55:00Z", "2023-04-30T09:55:00Z", "2023-04-30T09:10:00Z", "2023-04-30T09:53:00Z", "2023-04-30T09:53:00Z", "2023-04-30T09:56:00Z", "2023-04-30T09:55:00Z", "2023-04-30T09:55:00Z", "2023-04-30T09:55:00Z", "2023-04-30T09:53:00Z", "2023-04-30T09:55:00Z", "2023-04-30T09:55:00Z", "2023-04-30T10:05:00Z", "2023-04-30T09:53:00Z", "2023-04-30T09:45:00Z", "2023-04-30T09:52:00Z", "2023-04-30T09:53:00Z", "2023-04-30T09:55:00Z", "2023-04-30T09:55:00Z", "2023-04-30T09:55:00Z", "2023-04-30T09:55:00Z", "2023-04-30T09:51:00Z", "2023-04-30T09:55:00Z", "2023-04-30T09:53:00Z", "2023-04-30T09:55:00Z", "2023-04-30T09:55:00Z", "2023-04-30T09:53:00Z", "2023-04-30T09:55:00Z", "2023-04-30T09:51:00Z", "2023-04-30T09:55:00Z", "2023-04-30T10:02:00Z", "2023-04-30T09:53:00Z", "2023-04-30T09:55:00Z", "2023-04-30T09:52:00Z", "2023-04-30T09:55:00Z", "2023-04-30T09:55:00Z", "2023-04-30T09:53:00Z", "2023-04-30T09:53:00Z", "2023-04-30T09:55:00Z", "2023-04-30T09:54:00Z", "2023-04-30T09:53:00Z", "2023-04-30T09:56:00Z", "2023-04-30T09:55:00Z", "2023-04-30T09:55:00Z", "2023-04-30T09:56:00Z", "2023-04-30T09:56:00Z", "2023-04-30T09:53:00Z", "2023-04-30T09:56:00Z", "2023-04-30T09:55:00Z", "2023-04-30T09:55:00Z", "2023-04-30T09:55:00Z", "2023-04-30T09:55:00Z", "2023-04-30T09:55:00Z", "2023-04-30T09:55:00Z", "2023-04-30T09:55:00Z", "2023-04-30T09:53:00Z", "2023-04-30T09:55:00Z", "2023-04-30T09:55:00Z", "2023-04-30T09:55:00Z", "2023-04-30T09:19:00Z", "2023-04-30T09:55:00Z", "2023-04-30T09:55:00Z", "2023-04-30T09:55:00Z", "2023-04-30T09:55:00Z", "2023-04-30T09:55:00Z", "2023-04-30T09:55:00Z", "2023-04-30T09:55:00Z", "2023-04-30T09:55:00Z", "2023-04-30T09:52:00Z", "2023-04-30T09:53:00Z", "2023-04-30T09:53:00Z", "2023-04-30T09:55:00Z", "2023-04-30T09:53:00Z", "2023-04-30T09:53:00Z", "2023-04-30T09:53:00Z", "2023-04-30T09:55:00Z", "2023-04-30T09:55:00Z", "2023-04-30T09:52:00Z", "2023-04-30T09:55:00Z", "2023-04-30T09:55:00Z", "2023-04-30T09:55:00Z", "2023-04-30T09:51:00Z", "2023-04-30T09:55:00Z", "2023-04-30T09:55:00Z", "2023-04-30T09:55:00Z", "2023-04-30T09:52:00Z", "2023-04-30T09:55:00Z", "2023-04-30T09:55:00Z", "2023-04-30T09:55:00Z", "2023-04-30T09:55:00Z", "2023-04-30T09:55:00Z", "2023-04-30T09:56:00Z", "2023-04-30T09:51:00Z", "2023-04-30T09:53:00Z", "2023-04-30T10:00:00Z", "2023-04-30T09:53:00Z", "2023-04-30T09:55:00Z", "2023-04-30T09:55:00Z", "2023-04-30T09:54:00Z", "2023-04-30T09:54:00Z", "2023-04-30T09:55:00Z", "2023-04-30T09:55:00Z", "2023-04-30T09:53:00Z", "2023-04-30T09:54:00Z", "2023-04-30T09:55:00Z", "2023-04-30T09:54:00Z", "2023-04-30T09:56:00Z", "2023-04-30T09:55:00Z", "2023-04-30T09:52:00Z", "2023-04-30T09:45:00Z", "2023-04-30T09:53:00Z", "2023-04-30T09:54:00Z", "2023-04-30T09:55:00Z", "2023-04-30T09:55:00Z", "2023-04-30T09:56:00Z", "2023-04-30T09:45:00Z", "2023-04-30T09:56:00Z", "2023-04-30T09:55:00Z", "2023-04-30T09:54:00Z", "2023-04-30T09:56:00Z", "2023-04-30T09:53:00Z", "2023-04-30T09:55:00Z", "2023-04-30T09:55:00Z", "2023-04-30T09:56:00Z", "2023-04-30T09:53:00Z", "2023-04-30T09:50:00Z", "2023-04-30T09:53:00Z", "2023-04-30T09:55:00Z", "2023-04-30T09:55:00Z", "2023-04-30T09:54:00Z", "2023-04-30T09:56:00Z", "2023-04-30T09:54:00Z", "2023-04-30T09:55:00Z", "2023-04-30T09:55:00Z", "2023-04-30T09:45:00Z", "2023-04-30T10:00:00Z", "2023-04-30T09:53:00Z", "2023-04-30T09:55:00Z", "2023-04-30T09:51:00Z", "2023-04-30T09:48:00Z", "2023-04-30T09:53:00Z", "2023-04-30T09:53:00Z", "2023-04-30T09:55:00Z", "2023-04-30T09:51:00Z", "2023-04-30T09:55:00Z", "2023-04-30T09:55:00Z", "2023-04-30T09:56:00Z", "2023-04-30T09:55:00Z", "2023-04-30T09:55:00Z", "2023-04-30T09:53:00Z", "2023-04-30T09:53:00Z", "2023-04-30T09:55:00Z", "2023-04-30T09:56:00Z", "2023-04-30T09:45:00Z", "2023-04-30T09:55:00Z", "2023-04-30T09:55:00Z", "2023-04-30T10:00:00Z", "2023-04-30T09:56:00Z", "2023-04-30T09:55:00Z", "2023-04-30T09:55:00Z", "2023-04-30T09:54:00Z", "2023-04-30T09:55:00Z", "2023-04-30T09:55:00Z", "2023-04-30T09:55:00Z", "2023-04-30T09:55:00Z", "2023-04-30T09:55:00Z", "2023-04-30T09:55:00Z", "2023-04-30T09:55:00Z", "2023-04-30T09:50:00Z", "2023-04-30T09:55:00Z", "2023-04-30T10:03:00Z", "2023-04-30T09:55:00Z", "2023-04-30T09:55:00Z", "2023-04-30T09:55:00Z", "2023-04-30T09:55:00Z", "2023-04-30T09:55:00Z", "2023-04-30T09:55:00Z", "2023-04-30T09:55:00Z", "2023-04-30T09:55:00Z", "2023-04-30T09:50:00Z", "2023-04-30T09:55:00Z", "2023-04-30T09:55:00Z", "2023-04-30T09:56:00Z", "2023-04-30T09:55:00Z", "2023-04-30T09:55:00Z", "2023-04-30T09:55:00Z", "2023-04-30T09:55:00Z", "2023-04-30T09:55:00Z", "2023-04-30T09:53:00Z", "2023-04-30T09:54:00Z", "2023-04-30T09:50:00Z", "2023-04-30T09:55:00Z", "2023-04-30T10:01:00Z", "2023-04-30T09:53:00Z", "2023-04-30T09:56:00Z", "2023-04-30T09:53:00Z", "2023-04-30T09:53:00Z", "2023-04-30T09:53:00Z", "2023-04-30T09:55:00Z", "2023-04-30T09:53:00Z", "2023-04-30T09:56:00Z", "2023-04-30T09:55:00Z", "2023-04-30T09:56:00Z", "2023-04-30T09:55:00Z", "2023-04-30T09:53:00Z", "2023-04-30T09:56:00Z", "2023-04-30T09:55:00Z", "2023-04-30T09:55:00Z", "2023-04-30T09:55:00Z", "2023-04-30T09:53:00Z", "2023-04-30T09:53:00Z", "2023-04-30T09:56:00Z", "2023-04-30T09:54:00Z", "2023-04-30T09:55:00Z", "2023-04-30T09:53:00Z", "2023-04-30T09:53:00Z", "2023-04-30T09:51:00Z", "2023-04-30T09:53:00Z", "2023-04-30T09:55:00Z", "2023-04-30T09:56:00Z", "2023-04-30T09:55:00Z", "2023-04-30T09:51:00Z", "2023-04-30T09:55:00Z", "2023-04-30T09:55:00Z", "2023-04-30T09:53:00Z", "2023-04-30T09:55:00Z", "2023-04-30T09:53:00Z", "2023-04-30T09:55:00Z", "2023-04-30T09:55:00Z", "2023-04-30T09:53:00Z", "2023-04-30T09:55:00Z", "2023-04-30T09:55:00Z", "2023-04-30T09:55:00Z", "2023-04-30T09:53:00Z", "2023-04-30T09:55:00Z", "2023-04-30T09:55:00Z", "2023-04-30T09:53:00Z", "2023-04-30T09:55:00Z", "2023-04-30T09:55:00Z", "2023-04-30T09:53:00Z", "2023-04-30T09:55:00Z", "2023-04-30T09:53:00Z", "2023-04-30T09:54:00Z", "2023-04-30T09:55:00Z", "2023-04-30T09:55:00Z", "2023-04-30T09:55:00Z", "2023-04-30T09:55:00Z", "2023-04-30T09:56:00Z", "2023-04-30T10:01:00Z", "2023-04-30T09:53:00Z", "2023-04-30T09:55:00Z", "2023-04-30T09:55:00Z", "2023-04-30T09:54:00Z", "2023-04-30T09:53:00Z", "2023-04-30T09:53:00Z", "2023-04-30T09:53:00Z", "2023-04-30T09:55:00Z", "2023-04-30T09:56:00Z", "2023-04-30T09:55:00Z", "2023-04-30T09:55:00Z", "2023-04-30T09:55:00Z", "2023-04-30T09:55:00Z", "2023-04-30T09:55:00Z", "2023-04-30T09:53:00Z", "2023-04-30T09:55:00Z", "2023-04-30T10:02:00Z", "2023-04-30T09:55:00Z", "2023-04-30T09:55:00Z", "2023-04-30T09:55:00Z", "2023-04-30T09:55:00Z", "2023-04-30T09:55:00Z", "2023-04-30T09:53:00Z", "2023-04-30T09:55:00Z", "2023-04-30T09:55:00Z", "2023-04-30T09:55:00Z", "2023-04-30T09:55:00Z", "2023-04-30T09:53:00Z", "2023-04-30T09:53:00Z", "2023-04-30T09:55:00Z", "2023-04-30T09:53:00Z", "2023-04-30T09:55:00Z", "2023-04-30T09:55:00Z", "2023-04-30T09:52:00Z", "2023-04-30T09:53:00Z", "2023-04-30T09:54:00Z", "2023-04-30T09:56:00Z", "2023-04-30T09:54:00Z", "2023-04-30T09:53:00Z", "2023-04-30T09:55:00Z", "2023-04-30T09:55:00Z", "2023-04-30T09:53:00Z", "2023-04-30T09:53:00Z", "2023-04-30T09:55:00Z", "2023-04-30T09:54:00Z", "2023-04-30T09:55:00Z", "2023-04-30T09:55:00Z", "2023-04-30T09:56:00Z", "2023-04-30T08:55:00Z", "2023-04-30T09:55:00Z", "2023-04-30T09:55:00Z", "2023-04-30T09:50:00Z", "2023-04-30T09:55:00Z", "2023-04-30T09:56:00Z", "2023-04-30T09:55:00Z", "2023-04-30T09:55:00Z", "2023-04-30T09:55:00Z", "2023-04-30T09:55:00Z", "2023-04-30T09:50:00Z", "2023-04-30T09:55:00Z", "2023-04-30T09:50:00Z", "2023-04-30T09:53:00Z", "2023-04-30T09:55:00Z", "2023-04-30T09:55:00Z", "2023-04-30T09:55:00Z", "2023-04-30T09:52:00Z", "2023-04-30T09:56:00Z", "2023-04-30T09:55:00Z", "2023-04-30T09:53:00Z", "2023-04-30T09:55:00Z", "2023-04-30T09:55:00Z", "2023-04-30T09:53:00Z", "2023-04-30T09:55:00Z", "2023-04-30T09:55:00Z", "2023-04-30T09:53:00Z", "2023-04-30T09:55:00Z", "2023-04-30T09:53:00Z", "2023-04-30T09:55:00Z", "2023-04-30T09:53:00Z", "2023-04-30T09:53:00Z", "2023-04-30T09:53:00Z", "2023-04-30T09:53:00Z", "2023-04-30T09:45:00Z", "2023-04-30T09:55:00Z", "2023-04-30T09:52:00Z", "2023-04-30T09:55:00Z", "2023-04-30T09:55:00Z", "2023-04-30T09:56:00Z", "2023-04-30T09:53:00Z", "2023-04-30T09:55:00Z", "2023-04-30T09:52:00Z", "2023-04-30T09:56:00Z", "2023-04-30T09:58:00Z", "2023-04-30T09:54:00Z", "2023-04-30T09:55:00Z", "2023-04-30T09:55:00Z", "2023-04-30T09:52:00Z", "2023-04-30T09:53:00Z", "2023-04-30T09:54:00Z", "2023-04-30T09:53:00Z", "2023-04-30T09:55:00Z", "2023-04-30T09:55:00Z", "2023-04-30T09:54:00Z", "2023-04-30T10:03:00Z", "2023-04-30T09:55:00Z", "2023-04-30T09:55:00Z", "2023-04-30T09:53:00Z", "2023-04-30T09:53:00Z", "2023-04-30T09:53:00Z", "2023-04-30T09:52:00Z", "2023-04-30T09:55:00Z", "2023-04-30T09:55:00Z", "2023-04-30T09:55:00Z", "2023-04-30T09:56:00Z", "2023-04-30T09:53:00Z", "2023-04-30T09:40:00Z", "2023-04-30T09:53:00Z", "2023-04-30T08:55:00Z", "2023-04-30T09:53:00Z", "2023-04-30T09:53:00Z", "2023-04-30T09:55:00Z", "2023-04-30T09:54:00Z", "2023-04-30T09:53:00Z", "2023-04-30T09:55:00Z", "2023-04-30T09:55:00Z", "2023-04-30T09:54:00Z", "2023-04-30T09:52:00Z", "2023-04-30T09:55:00Z", "2023-04-30T09:55:00Z", "2023-04-30T09:53:00Z", "2023-04-30T09:55:00Z", "2023-04-30T09:53:00Z", "2023-04-30T09:55:00Z", "2023-04-30T09:56:00Z", "2023-04-30T09:53:00Z", "2023-04-30T09:53:00Z", "2023-04-30T09:55:00Z", "2023-04-30T09:52:00Z", "2023-04-30T09:52:00Z", "2023-04-30T09:55:00Z", "2023-04-30T09:53:00Z", "2023-04-30T09:53:00Z", "2023-04-30T09:53:00Z", "2023-04-30T09:53:00Z", "2023-04-30T09:55:00Z", "2023-04-30T09:55:00Z", "2023-04-30T09:53:00Z", "2023-04-30T09:56:00Z", "2023-04-30T09:55:00Z", "2023-04-30T09:55:00Z", "2023-04-30T09:53:00Z", "2023-04-30T09:56:00Z", "2023-04-30T09:55:00Z", "2023-04-30T09:55:00Z", "2023-04-30T09:57:00Z", "2023-04-30T10:00:00Z", "2023-04-30T09:55:00Z", "2023-04-30T09:55:00Z", "2023-04-30T09:56:00Z", "2023-04-30T09:53:00Z", "2023-04-30T09:55:00Z", "2023-04-30T09:54:00Z", "2023-04-30T09:55:00Z", "2023-04-30T09:53:00Z", "2023-04-30T09:55:00Z", "2023-04-30T09:51:00Z", "2023-04-30T09:55:00Z", "2023-04-30T09:55:00Z", "2023-04-30T09:50:00Z", "2023-04-30T09:55:00Z", "2023-04-30T09:55:00Z", "2023-04-30T09:55:00Z", "2023-04-30T09:56:00Z", "2023-04-30T09:53:00Z", "2023-04-30T09:50:00Z", "2023-04-30T09:56:00Z", "2023-04-30T09:58:00Z", "2023-04-30T09:55:00Z", "2023-04-30T09:45:00Z", "2023-04-30T09:59:00Z", "2023-04-30T09:54:00Z", "2023-04-30T09:53:00Z", "2023-04-30T09:53:00Z", "2023-04-30T09:53:00Z", "2023-04-30T09:53:00Z", "2023-04-30T09:53:00Z", "2023-04-30T09:56:00Z", "2023-04-30T09:53:00Z", "2023-04-30T08:55:00Z", "2023-04-30T09:53:00Z", "2023-04-30T09:53:00Z", "2023-04-30T09:55:00Z", "2023-04-30T09:55:00Z", "2023-04-30T09:53:00Z", "2023-04-30T09:54:00Z", "2023-04-30T09:55:00Z", "2023-04-30T09:56:00Z", "2023-04-30T09:55:00Z", "2023-04-30T09:55:00Z", "2023-04-30T09:55:00Z", "2023-04-30T10:00:00Z", "2023-04-30T09:54:00Z", "2023-04-30T09:56:00Z", "2023-04-30T09:53:00Z", "2023-04-30T09:55:00Z", "2023-04-30T09:52:00Z", "2023-04-30T09:45:00Z", "2023-04-30T09:53:00Z", "2023-04-30T09:55:00Z", "2023-04-30T09:55:00Z", "2023-04-30T09:55:00Z", "2023-04-30T08:53:00Z", "2023-04-30T09:55:00Z", "2023-04-30T09:53:00Z", "2023-04-30T09:55:00Z", "2023-04-30T09:51:00Z", "2023-04-30T09:55:00Z", "2023-04-30T09:58:00Z", "2023-04-30T09:53:00Z", "2023-04-30T09:55:00Z", "2023-04-30T09:55:00Z", "2023-04-30T09:55:00Z", "2023-04-30T09:55:00Z", "2023-04-30T09:55:00Z", "2023-04-30T09:52:00Z", "2023-04-30T09:55:00Z", "2023-04-30T09:54:00Z", "2023-04-30T09:56:00Z", "2023-04-30T09:55:00Z", "2023-04-30T09:51:00Z", "2023-04-30T09:56:00Z", "2023-04-30T09:22:00Z", "2023-04-30T10:00:00Z", "2023-04-30T09:53:00Z", "2023-04-30T09:56:00Z", "2023-04-30T09:52:00Z", "2023-04-30T09:56:00Z", "2023-04-30T09:52:00Z", "2023-04-30T09:56:00Z", "2023-04-30T09:59:00Z", "2023-04-30T10:00:00Z", "2023-04-30T09:56:00Z", "2023-04-30T09:53:00Z", "2023-04-30T09:56:00Z", "2023-04-30T09:57:00Z", "2023-04-30T09:51:00Z", "2023-04-30T10:04:00Z", "2023-04-30T09:55:00Z", "2023-04-30T09:56:00Z", "2023-04-30T09:56:00Z", "2023-04-30T09:56:00Z", "2023-04-30T09:50:00Z", "2023-04-30T08:59:00Z", "2023-04-30T09:56:00Z", "2023-04-30T09:56:00Z", "2023-04-30T09:53:00Z", "2023-04-30T09:52:00Z", "2023-04-30T09:55:00Z", "2023-04-30T09:53:00Z", "2023-04-30T10:03:00Z", "2023-04-30T09:53:00Z", "2023-04-30T09:55:00Z", "2023-04-30T10:03:00Z", "2023-04-30T09:56:00Z", "2023-04-30T09:53:00Z", "2023-04-30T09:55:00Z", "2023-04-30T09:53:00Z", "2023-04-30T09:56:00Z", "2023-04-30T09:56:00Z", "2023-04-30T09:54:00Z", "2023-04-30T09:51:00Z", "2023-04-30T09:56:00Z", "2023-04-30T09:57:00Z", "2023-04-30T09:52:00Z", "2023-04-30T09:55:00Z", "2023-04-30T09:55:00Z", "2023-04-30T09:55:00Z", "2023-04-30T09:55:00Z", "2023-04-30T09:55:00Z", "2023-04-30T09:56:00Z", "2023-04-30T09:53:00Z", "2023-04-30T09:55:00Z", "2023-04-30T09:55:00Z", "2023-04-30T10:02:00Z", "2023-04-30T09:56:00Z", "2023-04-30T09:55:00Z", "2023-04-30T09:45:00Z", "2023-04-30T09:53:00Z", "2023-04-30T09:53:00Z", "2023-04-30T09:55:00Z", "2023-04-30T09:55:00Z", "2023-04-30T09:55:00Z", "2023-04-30T08:55:00Z", "2023-04-30T09:56:00Z", "2023-04-30T10:01:00Z", "2023-04-30T09:55:00Z", "2023-04-30T09:53:00Z", "2023-04-30T09:53:00Z", "2023-04-30T09:55:00Z", "2023-04-30T09:55:00Z", "2023-04-30T09:55:00Z", "2023-04-30T09:55:00Z", "2023-04-30T09:53:00Z", "2023-04-30T09:52:00Z", "2023-04-30T09:52:00Z", "2023-04-30T09:56:00Z", "2023-04-30T09:55:00Z", "2023-04-30T09:55:00Z", "2023-04-30T09:55:00Z", "2023-04-30T09:55:00Z", "2023-04-30T09:53:00Z", "2023-04-30T09:55:00Z", "2023-04-30T09:54:00Z", "2023-04-30T09:54:00Z", "2023-04-30T09:56:00Z", "2023-04-30T09:55:00Z", "2023-04-30T09:50:00Z", "2023-04-30T09:55:00Z", "2023-04-30T09:52:00Z", "2023-04-30T09:55:00Z", "2023-04-30T09:53:00Z", "2023-04-30T09:55:00Z", "2023-04-30T09:55:00Z", "2023-04-30T09:53:00Z", "2023-04-30T09:55:00Z", "2023-04-30T09:53:00Z", "2023-04-30T09:45:00Z", "2023-04-30T09:55:00Z", "2023-04-30T09:55:00Z", "2023-04-30T09:53:00Z", "2023-04-30T09:55:00Z", "2023-04-30T09:55:00Z", "2023-04-30T09:55:00Z", "2023-04-30T09:53:00Z", "2023-04-30T09:53:00Z", "2023-04-30T09:51:00Z", "2023-04-30T09:52:00Z", "2023-04-30T09:59:00Z", "2023-04-30T09:55:00Z", "2023-04-30T09:54:00Z", "2023-04-30T09:55:00Z", "2023-04-30T09:53:00Z", "2023-04-30T09:55:00Z", "2023-04-30T09:55:00Z", "2023-04-30T09:55:00Z", "2023-04-30T09:53:00Z", "2023-04-30T09:53:00Z", "2023-04-30T09:56:00Z", "2023-04-30T09:56:00Z", "2023-04-30T09:53:00Z", "2023-04-30T09:55:00Z", "2023-04-30T09:55:00Z", "2023-04-30T09:53:00Z", "2023-04-30T09:53:00Z", "2023-04-30T09:56:00Z", "2023-04-30T09:53:00Z", "2023-04-30T09:55:00Z", "2023-04-30T09:55:00Z", "2023-04-30T09:55:00Z", "2023-04-30T09:53:00Z", "2023-04-30T10:00:00Z", "2023-04-30T09:55:00Z", "2023-04-30T09:55:00Z", "2023-04-30T09:51:00Z", "2023-04-30T09:55:00Z", "2023-04-30T09:55:00Z", "2023-04-30T09:55:00Z", "2023-04-30T09:55:00Z", "2023-04-30T09:55:00Z", "2023-04-30T09:55:00Z", "2023-04-30T09:55:00Z", "2023-04-30T09:56:00Z", "2023-04-30T09:55:00Z", "2023-04-30T09:56:00Z", "2023-04-30T09:55:00Z", "2023-04-30T09:51:00Z", "2023-04-30T09:56:00Z", "2023-04-30T09:53:00Z", "2023-04-30T09:52:00Z", "2023-04-30T09:59:00Z", "2023-04-30T09:53:00Z", "2023-04-30T09:53:00Z", "2023-04-30T09:55:00Z", "2023-04-30T09:55:00Z", "2023-04-30T09:53:00Z", "2023-04-30T09:53:00Z", "2023-04-30T09:55:00Z", "2023-04-30T09:53:00Z", "2023-04-30T09:55:00Z", "2023-04-30T09:55:00Z", "2023-04-30T09:55:00Z", "2023-04-30T09:55:00Z", "2023-04-30T09:55:00Z", "2023-04-30T09:55:00Z", "2023-04-30T09:53:00Z", "2023-04-30T09:53:00Z", "2023-04-30T09:53:00Z", "2023-04-30T09:55:00Z", "2023-04-30T09:53:00Z", "2023-04-30T09:55:00Z", "2023-04-30T09:55:00Z", "2023-04-30T09:55:00Z", "2023-04-30T09:53:00Z", "2023-04-30T09:53:00Z", "2023-04-30T09:45:00Z", "2023-04-30T09:53:00Z", "2023-04-30T09:54:00Z", "2023-04-30T10:04:00Z", "2023-04-30T09:55:00Z", "2023-04-30T09:55:00Z", "2023-04-30T09:55:00Z", "2023-04-30T09:51:00Z", "2023-04-30T09:54:00Z", "2023-04-30T09:56:00Z", "2023-04-30T10:03:00Z", "2023-04-30T09:53:00Z", "2023-04-30T09:53:00Z", "2023-04-30T09:55:00Z", "2023-04-30T09:53:00Z", "2023-04-30T09:51:00Z", "2023-04-30T09:55:00Z", "2023-04-30T09:53:00Z", "2023-04-30T09:53:00Z", "2023-04-30T09:54:00Z", "2023-04-30T09:55:00Z", "2023-04-30T09:55:00Z", "2023-04-30T09:53:00Z", "2023-04-30T09:55:00Z", "2023-04-30T09:53:00Z", "2023-04-30T09:55:00Z", "2023-04-30T09:55:00Z", "2023-04-30T09:55:00Z", "2023-04-30T09:53:00Z", "2023-04-30T09:54:00Z", "2023-04-30T09:55:00Z", "2023-04-30T09:53:00Z", "2023-04-30T09:55:00Z", "2023-04-30T10:00:00Z", "2023-04-30T09:55:00Z", "2023-04-30T09:55:00Z", "2023-04-30T09:53:00Z", "2023-04-30T09:53:00Z", "2023-04-30T09:55:00Z", "2023-04-30T09:55:00Z", "2023-04-30T09:55:00Z", "2023-04-30T09:52:00Z", "2023-04-30T09:55:00Z", "2023-04-30T09:55:00Z", "2023-04-30T09:56:00Z", "2023-04-30T09:53:00Z", "2023-04-30T09:53:00Z", "2023-04-30T09:53:00Z", "2023-04-30T09:55:00Z", "2023-04-30T09:58:00Z", "2023-04-30T09:55:00Z", "2023-04-30T09:55:00Z", "2023-04-30T09:56:00Z", "2023-04-30T09:53:00Z", "2023-04-30T09:54:00Z", "2023-04-30T09:55:00Z", "2023-04-30T09:28:00Z", "2023-04-30T09:55:00Z", "2023-04-30T09:55:00Z", "2023-04-30T09:53:00Z", "2023-04-30T09:53:00Z", "2023-04-30T09:55:00Z", "2023-04-30T09:55:00Z", "2023-04-30T09:53:00Z", "2023-04-30T09:56:00Z", "2023-04-30T09:55:00Z", "2023-04-30T09:55:00Z", "2023-04-30T09:56:00Z", "2023-04-30T09:54:00Z", "2023-04-30T09:53:00Z", "2023-04-30T09:53:00Z", "2023-04-30T09:55:00Z", "2023-04-30T09:53:00Z", "2023-04-30T09:55:00Z", "2023-04-30T09:56:00Z", "2023-04-30T10:01:00Z", "2023-04-30T09:55:00Z", "2023-04-30T09:55:00Z", "2023-04-30T09:55:00Z", "2023-04-30T09:56:00Z", "2023-04-30T09:55:00Z", "2023-04-30T09:53:00Z", "2023-04-30T09:55:00Z", "2023-04-30T09:55:00Z", "2023-04-30T09:56:00Z", "2023-04-30T09:52:00Z", "2023-04-30T09:51:00Z", "2023-04-30T09:56:00Z", "2023-04-30T09:55:00Z", "2023-04-30T09:52:00Z", "2023-04-30T09:55:00Z", "2023-04-30T09:55:00Z", "2023-04-30T09:55:00Z", "2023-04-30T09:55:00Z", "2023-04-30T08:55:00Z", "2023-04-30T09:55:00Z", "2023-04-30T09:55:00Z", "2023-04-30T10:00:00Z", "2023-04-30T10:00:00Z", "2023-04-30T10:00:00Z", "2023-04-30T10:00:00Z", "2023-04-30T10:00:00Z", "2023-04-30T09:50:00Z", "2023-04-30T09:50:00Z", "2023-04-30T10:00:00Z", "2023-04-30T10:00:00Z", "2023-04-30T09:50:00Z", "2023-04-30T10:00:00Z", "2023-04-30T10:00:00Z", "2023-04-30T10:00:00Z", "2023-04-30T10:00:00Z", "2023-04-30T10:00:00Z", "2023-04-30T10:00:00Z", "2023-04-30T10:00:00Z", "2023-04-30T09:55:00Z", "2023-04-30T09:55:00Z", "2023-04-30T09:55:00Z", "2023-04-30T08:55:00Z", "2023-04-30T09:00:00Z", "2023-04-30T09:53:00Z", "2023-04-30T09:53:00Z", "2023-04-30T09:52:00Z", "2023-04-30T09:55:00Z", "2023-04-30T09:55:00Z", "2023-04-30T09:53:00Z", "2023-04-30T09:53:00Z", "2023-04-30T09:54:00Z", "2023-04-30T09:55:00Z", "2023-04-30T09:55:00Z", "2023-04-30T08:55:00Z", "2023-04-30T09:55:00Z", "2023-04-30T09:55:00Z", "2023-04-30T09:55:00Z", "2023-04-30T09:55:00Z", "2023-04-30T09:55:00Z", "2023-04-30T09:55:00Z", "2023-04-30T09:53:00Z", "2023-04-30T09:54:00Z", "2023-04-30T09:55:00Z", "2023-04-30T09:56:00Z", "2023-04-30T08:55:00Z", "2023-04-30T10:01:00Z", "2023-04-30T09:55:00Z", "2023-04-30T09:52:00Z", "2023-04-30T09:54:00Z", "2023-04-30T09:55:00Z", "2023-04-30T09:55:00Z", "2023-04-30T09:53:00Z", "2023-04-30T09:50:00Z", "2023-04-30T09:54:00Z", "2023-04-30T09:55:00Z", "2023-04-30T09:53:00Z", "2023-04-30T09:55:00Z", "2023-04-30T09:53:00Z", "2023-04-30T09:56:00Z", "2023-04-30T09:53:00Z", "2023-04-30T09:55:00Z", "2023-04-30T09:54:00Z", "2023-04-30T09:55:00Z", "2023-04-30T09:53:00Z", "2023-04-30T09:53:00Z", "2023-04-30T09:55:00Z", "2023-04-30T09:55:00Z", "2023-04-30T09:55:00Z", "2023-04-30T09:55:00Z", "2023-04-30T09:55:00Z", "2023-04-30T10:04:00Z", "2023-04-30T09:55:00Z", "2023-04-30T09:55:00Z", "2023-04-30T09:53:00Z", "2023-04-30T09:54:00Z", "2023-04-30T09:54:00Z", "2023-04-30T09:58:00Z", "2023-04-30T09:55:00Z", "2023-04-30T09:51:00Z", "2023-04-30T09:55:00Z", "2023-04-30T09:55:00Z", "2023-04-30T09:55:00Z", "2023-04-30T09:55:00Z", "2023-04-30T10:01:00Z", "2023-04-30T09:55:00Z", "2023-04-30T09:53:00Z", "2023-04-30T09:55:00Z", "2023-04-30T09:55:00Z", "2023-04-30T09:53:00Z", "2023-04-30T09:54:00Z", "2023-04-30T09:54:00Z", "2023-04-30T09:53:00Z", "2023-04-30T09:53:00Z", "2023-04-30T09:50:00Z", "2023-04-30T09:53:00Z", "2023-04-30T09:55:00Z", "2023-04-30T09:45:00Z", "2023-04-30T09:56:00Z", "2023-04-30T09:55:00Z", "2023-04-30T09:55:00Z", "2023-04-30T09:55:00Z", "2023-04-30T09:53:00Z", "2023-04-30T09:53:00Z", "2023-04-30T09:53:00Z", "2023-04-30T09:53:00Z", "2023-04-30T09:55:00Z", "2023-04-30T09:53:00Z", "2023-04-30T08:55:00Z", "2023-04-30T09:55:00Z", "2023-04-30T09:55:00Z", "2023-04-30T09:50:00Z", "2023-04-30T09:55:00Z", "2023-04-30T09:55:00Z", "2023-04-30T09:55:00Z", "2023-04-30T09:55:00Z", "2023-04-30T09:55:00Z", "2023-04-30T09:55:00Z", "2023-04-30T09:55:00Z", "2023-04-30T09:55:00Z", "2023-04-30T09:55:00Z", "2023-04-30T09:55:00Z", "2023-04-30T09:55:00Z", "2023-04-30T09:55:00Z", "2023-04-30T09:55:00Z", "2023-04-30T09:53:00Z", "2023-04-30T09:51:00Z", "2023-04-30T09:53:00Z", "2023-04-30T09:51:00Z", "2023-04-30T09:55:00Z", "2023-04-30T09:51:00Z", "2023-04-30T09:53:00Z", "2023-04-30T09:58:00Z", "2023-04-30T09:55:00Z", "2023-04-30T09:53:00Z", "2023-04-30T10:00:00Z", "2023-04-30T09:53:00Z", "2023-04-30T09:54:00Z", "2023-04-30T09:55:00Z", "2023-04-30T09:56:00Z", "2023-04-30T09:55:00Z", "2023-04-30T09:54:00Z", "2023-04-30T09:55:00Z", "2023-04-30T09:55:00Z", "2023-04-30T09:45:00Z", "2023-04-30T09:55:00Z", "2023-04-30T09:55:00Z", "2023-04-30T09:51:00Z", "2023-04-30T09:55:00Z", "2023-04-30T09:56:00Z", "2023-04-30T09:53:00Z", "2023-04-30T09:53:00Z", "2023-04-30T09:56:00Z", "2023-04-30T09:53:00Z", "2023-04-30T09:55:00Z", "2023-04-30T09:55:00Z", "2023-04-30T09:53:00Z", "2023-04-30T09:55:00Z", "2023-04-30T09:55:00Z", "2023-04-30T09:55:00Z", "2023-04-30T09:54:00Z", "2023-04-30T09:55:00Z", "2023-04-30T09:53:00Z", "2023-04-30T09:53:00Z", "2023-04-30T09:56:00Z", "2023-04-30T09:56:00Z", "2023-04-30T09:55:00Z", "2023-04-30T09:56:00Z", "2023-04-30T09:52:00Z", "2023-04-30T10:03:00Z", "2023-04-30T09:56:00Z", "2023-04-30T09:53:00Z", "2023-04-30T09:55:00Z", "2023-04-30T09:56:00Z", "2023-04-30T09:56:00Z", "2023-04-30T09:55:00Z", "2023-04-30T09:55:00Z", "2023-04-30T09:55:00Z", "2023-04-30T09:53:00Z", "2023-04-30T09:56:00Z", "2023-04-30T09:45:00Z", "2023-04-30T09:55:00Z", "2023-04-30T09:53:00Z", "2023-04-30T09:53:00Z", "2023-04-30T09:55:00Z", "2023-04-30T09:51:00Z", "2023-04-30T09:55:00Z", "2023-04-30T09:55:00Z", "2023-04-30T09:55:00Z", "2023-04-30T09:56:00Z", "2023-04-30T09:55:00Z", "2023-04-30T09:54:00Z", "2023-04-30T09:56:00Z", "2023-04-30T09:56:00Z", "2023-04-30T09:55:00Z", "2023-04-30T09:55:00Z", "2023-04-30T09:51:00Z", "2023-04-30T09:53:00Z", "2023-04-30T09:55:00Z", "2023-04-30T09:55:00Z", "2023-04-30T09:55:00Z", "2023-04-30T09:55:00Z", "2023-04-30T09:53:00Z", "2023-04-30T09:56:00Z", "2023-04-30T09:51:00Z", "2023-04-30T09:53:00Z", "2023-04-30T09:55:00Z", "2023-04-30T10:02:00Z", "2023-04-30T09:53:00Z", "2023-04-30T09:55:00Z", "2023-04-30T09:50:00Z", "2023-04-30T09:55:00Z", "2023-04-30T09:53:00Z", "2023-04-30T09:51:00Z", "2023-04-30T09:53:00Z", "2023-04-30T09:55:00Z", "2023-04-30T09:56:00Z", "2023-04-30T09:55:00Z", "2023-04-30T09:55:00Z", "2023-04-30T09:53:00Z", "2023-04-30T09:56:00Z", "2023-04-30T09:55:00Z", "2023-04-30T09:53:00Z", "2023-04-30T09:52:00Z", "2023-04-30T09:55:00Z", "2023-04-30T09:52:00Z", "2023-04-30T09:53:00Z", "2023-04-30T09:56:00Z", "2023-04-30T09:55:00Z", "2023-04-30T09:55:00Z", "2023-04-30T09:56:00Z", "2023-04-30T09:55:00Z", "2023-04-30T09:53:00Z", "2023-04-30T09:55:00Z", "2023-04-30T09:55:00Z", "2023-04-30T09:53:00Z", "2023-04-30T10:04:00Z", "2023-04-30T09:53:00Z", "2023-04-30T09:55:00Z", "2023-04-30T09:55:00Z", "2023-04-30T09:53:00Z", "2023-04-30T09:55:00Z", "2023-04-30T09:51:00Z", "2023-04-30T09:53:00Z", "2023-04-30T09:53:00Z", "2023-04-30T09:55:00Z", "2023-04-30T09:56:00Z", "2023-04-30T09:55:00Z", "2023-04-30T09:54:00Z", "2023-04-30T09:50:00Z", "2023-04-30T09:55:00Z", "2023-04-30T09:55:00Z", "2023-04-30T09:52:00Z", "2023-04-30T09:55:00Z", "2023-04-30T09:55:00Z", "2023-04-30T09:55:00Z", "2023-04-30T09:45:00Z", "2023-04-30T09:55:00Z", "2023-04-30T09:45:00Z", "2023-04-30T09:53:00Z", "2023-04-30T09:55:00Z", "2023-04-30T09:55:00Z", "2023-04-30T09:56:00Z", "2023-04-30T09:56:00Z", "2023-04-30T09:55:00Z", "2023-04-30T09:55:00Z", "2023-04-30T09:55:00Z", "2023-04-30T09:55:00Z", "2023-04-30T09:55:00Z", "2023-04-30T09:54:00Z", "2023-04-30T09:55:00Z", "2023-04-30T09:55:00Z", "2023-04-30T09:55:00Z", "2023-04-30T09:55:00Z", "2023-04-30T09:55:00Z", "2023-04-30T09:55:00Z", "2023-04-30T09:55:00Z", "2023-04-30T09:55:00Z", "2023-04-30T09:55:00Z", "2023-04-30T09:55:00Z", "2023-04-30T09:55:00Z", "2023-04-30T09:55:00Z", "2023-04-30T09:54:00Z", "2023-04-30T09:52:00Z", "2023-04-30T09:55:00Z", "2023-04-30T09:55:00Z", "2023-04-30T09:55:00Z", "2023-04-30T09:55:00Z", "2023-04-30T09:53:00Z", "2023-04-30T09:55:00Z", "2023-04-30T09:53:00Z", "2023-04-30T09:55:00Z", "2023-04-30T09:45:00Z", "2023-04-30T10:01:00Z", "2023-04-30T09:59:00Z", "2023-04-30T09:53:00Z", "2023-04-30T09:55:00Z", "2023-04-30T09:55:00Z", "2023-04-30T09:15:00Z", "2023-04-30T09:55:00Z", "2023-04-30T09:55:00Z", "2023-04-30T09:55:00Z", "2023-04-30T09:55:00Z", "2023-04-30T09:55:00Z", "2023-04-30T09:55:00Z", "2023-04-30T09:53:00Z", "2023-04-30T09:55:00Z", "2023-04-30T09:53:00Z", "2023-04-30T09:55:00Z", "2023-04-30T09:55:00Z", "2023-04-30T09:53:00Z", "2023-04-30T09:55:00Z", "2023-04-30T09:53:00Z", "2023-04-30T09:55:00Z", "2023-04-30T09:55:00Z", "2023-04-30T09:55:00Z", "2023-04-30T09:55:00Z", "2023-04-30T09:55:00Z", "2023-04-30T09:55:00Z", "2023-04-30T09:53:00Z", "2023-04-30T10:00:00Z", "2023-04-30T09:53:00Z", "2023-04-30T09:53:00Z", "2023-04-30T09:53:00Z", "2023-04-30T09:55:00Z", "2023-04-30T09:56:00Z", "2023-04-30T09:51:00Z", "2023-04-30T09:54:00Z", "2023-04-30T09:55:00Z", "2023-04-30T09:55:00Z", "2023-04-30T09:55:00Z", "2023-04-30T09:53:00Z", "2023-04-30T10:00:00Z", "2023-04-30T09:53:00Z", "2023-04-30T09:52:00Z", "2023-04-30T09:55:00Z", "2023-04-30T09:45:00Z", "2023-04-30T09:53:00Z", "2023-04-30T09:55:00Z", "2023-04-30T09:53:00Z", "2023-04-30T09:55:00Z", "2023-04-30T09:53:00Z", "2023-04-30T09:53:00Z", "2023-04-30T09:53:00Z", "2023-04-30T09:53:00Z", "2023-04-30T09:56:00Z", "2023-04-30T09:55:00Z", "2023-04-30T09:55:00Z", "2023-04-30T09:53:00Z", "2023-04-30T09:53:00Z", "2023-04-30T09:55:00Z", "2023-04-30T09:53:00Z", "2023-04-30T09:55:00Z", "2023-04-30T09:55:00Z", "2023-04-30T09:53:00Z", "2023-04-30T09:55:00Z", "2023-04-30T09:55:00Z", "2023-04-30T09:55:00Z", "2023-04-30T09:53:00Z", "2023-04-30T09:53:00Z", "2023-04-30T09:55:00Z", "2023-04-30T09:55:00Z", "2023-04-30T09:55:00Z", "2023-04-30T09:55:00Z", "2023-04-30T09:55:00Z", "2023-04-30T09:55:00Z", "2023-04-30T09:53:00Z", "2023-04-30T09:55:00Z", "2023-04-30T09:56:00Z", "2023-04-30T09:55:00Z", "2023-04-30T09:56:00Z", "2023-04-30T09:55:00Z", "2023-04-30T09:51:00Z", "2023-04-30T09:53:00Z", "2023-04-30T09:54:00Z", "2023-04-30T09:45:00Z", "2023-04-30T09:56:00Z", "2023-04-30T09:55:00Z", "2023-04-30T09:55:00Z", "2023-04-30T09:55:00Z", "2023-04-30T09:50:00Z", "2023-04-30T09:55:00Z", "2023-04-30T09:55:00Z", "2023-04-30T09:53:00Z", "2023-04-30T09:55:00Z", "2023-04-30T09:53:00Z", "2023-04-30T09:55:00Z", "2023-04-30T09:55:00Z", "2023-04-30T09:55:00Z", "2023-04-30T09:53:00Z", "2023-04-30T09:53:00Z", "2023-04-30T09:55:00Z", "2023-04-30T09:55:00Z", "2023-04-30T09:55:00Z", "2023-04-30T09:55:00Z", "2023-04-30T10:03:00Z", "2023-04-30T10:01:00Z", "2023-04-30T09:55:00Z", "2023-04-30T10:04:00Z", "2023-04-30T09:55:00Z", "2023-04-30T09:56:00Z", "2023-04-30T09:55:00Z", "2023-04-30T09:53:00Z", "2023-04-30T09:51:00Z", "2023-04-30T09:55:00Z", "2023-04-30T09:55:00Z", "2023-04-30T09:55:00Z", "2023-04-30T09:53:00Z", "2023-04-30T09:55:00Z", "2023-04-30T09:50:00Z", "2023-04-30T09:55:00Z", "2023-04-30T09:53:00Z", "2023-04-30T09:55:00Z", "2023-04-30T09:53:00Z", "2023-04-30T09:56:00Z", "2023-04-30T09:55:00Z", "2023-04-30T09:55:00Z", "2023-04-30T09:55:00Z", "2023-04-30T09:53:00Z", "2023-04-30T09:55:00Z", "2023-04-30T09:55:00Z", "2023-04-30T09:55:00Z", "2023-04-30T09:51:00Z", "2023-04-30T09:55:00Z", "2023-04-30T09:55:00Z", "2023-04-30T09:55:00Z", "2023-04-30T09:55:00Z", "2023-04-30T09:56:00Z", "2023-04-30T09:55:00Z", "2023-04-30T09:53:00Z", "2023-04-30T09:54:00Z", "2023-04-30T10:03:00Z", "2023-04-30T09:55:00Z", "2023-04-30T09:52:00Z", "2023-04-30T09:55:00Z", "2023-04-30T09:45:00Z", "2023-04-30T09:50:00Z", "2023-04-30T09:55:00Z", "2023-04-30T09:55:00Z", "2023-04-30T09:55:00Z", "2023-04-30T09:55:00Z", "2023-04-30T09:55:00Z", "2023-04-30T09:45:00Z", "2023-04-30T09:55:00Z", "2023-04-30T09:45:00Z", "2023-04-30T09:55:00Z", "2023-04-30T09:55:00Z", "2023-04-30T09:55:00Z", "2023-04-30T09:55:00Z", "2023-04-30T09:55:00Z", "2023-04-30T09:55:00Z", "2023-04-30T09:54:00Z", "2023-04-30T09:55:00Z", "2023-04-30T09:55:00Z", "2023-04-30T09:55:00Z", "2023-04-30T09:56:00Z", "2023-04-30T09:54:00Z", "2023-04-30T09:56:00Z", "2023-04-30T09:55:00Z", "2023-04-30T09:27:00Z", "2023-04-30T09:53:00Z", "2023-04-30T09:53:00Z", "2023-04-30T09:53:00Z", "2023-04-30T09:56:00Z", "2023-04-30T09:56:00Z", "2023-04-30T09:55:00Z", "2023-04-30T09:55:00Z", "2023-04-30T09:50:00Z", "2023-04-30T09:55:00Z", "2023-04-30T09:50:00Z", "2023-04-30T09:55:00Z", "2023-04-30T09:55:00Z", "2023-04-30T09:53:00Z", "2023-04-30T09:55:00Z", "2023-04-30T09:55:00Z", "2023-04-30T09:55:00Z", "2023-04-30T09:53:00Z", "2023-04-30T09:51:00Z", "2023-04-30T09:55:00Z", "2023-04-30T09:55:00Z", "2023-04-30T09:55:00Z", "2023-04-30T09:55:00Z", "2023-04-30T09:56:00Z", "2023-04-30T09:55:00Z", "2023-04-30T09:55:00Z", "2023-04-30T09:55:00Z", "2023-04-30T09:53:00Z", "2023-04-30T09:53:00Z", "2023-04-30T09:56:00Z", "2023-04-30T09:51:00Z", "2023-04-30T09:55:00Z", "2023-04-30T09:55:00Z", "2023-04-30T09:53:00Z", "2023-04-30T09:50:00Z", "2023-04-30T10:00:00Z", "2023-04-30T10:00:00Z", "2023-04-30T10:00:00Z", "2023-04-30T10:00:00Z", "2023-04-30T10:00:00Z", "2023-04-30T10:00:00Z", "2023-04-30T10:00:00Z", "2023-04-30T10:00:00Z", "2023-04-30T09:50:00Z", "2023-04-30T10:00:00Z", "2023-04-30T10:00:00Z", "2023-04-30T09:50:00Z", "2023-04-30T10:00:00Z", "2023-04-30T10:00:00Z", "2023-04-30T10:00:00Z", "2023-04-30T10:00:00Z", "2023-04-30T10:00:00Z", "2023-04-30T10:00:00Z", "2023-04-30T10:00:00Z", "2023-04-30T10:00:00Z", "2023-04-30T10:00:00Z", "2023-04-30T10:00:00Z", "2023-04-30T10:00:00Z", "2023-04-30T10:00:00Z", "2023-04-30T10:00:00Z", "2023-04-30T10:00:00Z", "2023-04-30T10:00:00Z", "2023-04-30T10:00:00Z", "2023-04-30T10:00:00Z", "2023-04-30T10:00:00Z", "2023-04-30T10:00:00Z", "2023-04-30T10:00:00Z", "2023-04-30T10:00:00Z", "2023-04-30T10:00:00Z", "2023-04-30T10:00:00Z", "2023-04-30T10:00:00Z", "2023-04-30T10:00:00Z", "2023-04-30T10:00:00Z", "2023-04-30T10:00:00Z", "2023-04-30T10:00:00Z", "2023-04-30T10:00:00Z", "2023-04-30T10:00:00Z", "2023-04-30T10:00:00Z", "2023-04-30T10:00:00Z", "2023-04-30T10:00:00Z", "2023-04-30T10:00:00Z", "2023-04-30T10:00:00Z", "2023-04-30T10:00:00Z", "2023-04-30T10:00:00Z", "2023-04-30T10:00:00Z", "2023-04-30T10:00:00Z", "2023-04-30T10:00:00Z", "2023-04-30T10:00:00Z", "2023-04-30T10:00:00Z", "2023-04-30T10:00:00Z", "2023-04-30T10:00:00Z", "2023-04-30T10:00:00Z", "2023-04-30T10:00:00Z", "2023-04-30T10:00:00Z", "2023-04-30T10:00:00Z", "2023-04-30T10:00:00Z", "2023-04-30T10:00:00Z", "2023-04-30T10:00:00Z", "2023-04-30T10:00:00Z", "2023-04-30T10:00:00Z", "2023-04-30T10:00:00Z", "2023-04-30T10:00:00Z", "2023-04-30T10:00:00Z", "2023-04-30T10:00:00Z", "2023-04-30T10:00:00Z", "2023-04-30T10:00:00Z", "2023-04-30T10:00:00Z", "2023-04-30T10:00:00Z", "2023-04-30T10:00:00Z", "2023-04-30T10:00:00Z", "2023-04-30T10:00:00Z", "2023-04-30T10:00:00Z", "2023-04-30T10:00:00Z", "2023-04-30T10:00:00Z", "2023-04-30T10:00:00Z", "2023-04-30T10:00:00Z", "2023-04-30T10:00:00Z", "2023-04-30T10:00:00Z", "2023-04-30T10:00:00Z", "2023-04-30T10:00:00Z", "2023-04-30T10:00:00Z", "2023-04-30T10:00:00Z", "2023-04-30T10:00:00Z", "2023-04-30T10:00:00Z", "2023-04-30T10:00:00Z", "2023-04-30T10:00:00Z", "2023-04-30T10:00:00Z", "2023-04-30T10:00:00Z", "2023-04-30T10:00:00Z", "2023-04-30T10:00:00Z", "2023-04-30T10:00:00Z", "2023-04-30T10:00:00Z", "2023-04-30T10:00:00Z", "2023-04-30T10:00:00Z", "2023-04-30T10:00:00Z", "2023-04-30T10:00:00Z", "2023-04-30T10:00:00Z", "2023-04-30T10:00:00Z", "2023-04-30T10:00:00Z", "2023-04-30T10:00:00Z", "2023-04-30T10:00:00Z", "2023-04-30T10:00:00Z", "2023-04-30T10:00:00Z", "2023-04-30T10:00:00Z", "2023-04-30T10:00:00Z", "2023-04-30T10:00:00Z", "2023-04-30T10:00:00Z", "2023-04-30T10:00:00Z", "2023-04-30T10:00:00Z", "2023-04-30T10:00:00Z", "2023-04-30T10:00:00Z", "2023-04-30T10:00:00Z", "2023-04-30T10:00:00Z", "2023-04-30T10:00:00Z", "2023-04-30T10:00:00Z", "2023-04-30T10:00:00Z", "2023-04-30T10:00:00Z", "2023-04-30T10:00:00Z", "2023-04-30T10:00:00Z", "2023-04-30T10:00:00Z", "2023-04-30T10:00:00Z", "2023-04-30T10:00:00Z", "2023-04-30T10:00:00Z", "2023-04-30T10:00:00Z", "2023-04-30T10:00:00Z", "2023-04-30T10:00:00Z", "2023-04-30T10:00:00Z", "2023-04-30T10:00:00Z", "2023-04-30T10:00:00Z", "2023-04-30T10:00:00Z", "2023-04-30T10:00:00Z", "2023-04-30T10:00:00Z", "2023-04-30T10:00:00Z", "2023-04-30T10:00:00Z", "2023-04-30T10:00:00Z", "2023-04-30T10:00:00Z", "2023-04-30T10:00:00Z", "2023-04-30T10:00:00Z", "2023-04-30T10:00:00Z", "2023-04-30T10:00:00Z", "2023-04-30T10:00:00Z", "2023-04-30T10:00:00Z", "2023-04-30T10:00:00Z", "2023-04-30T10:00:00Z", "2023-04-30T10:00:00Z", "2023-04-30T10:00:00Z", "2023-04-30T10:00:00Z", "2023-04-30T10:00:00Z", "2023-04-30T10:00:00Z", "2023-04-30T10:00:00Z", "2023-04-30T10:00:00Z", "2023-04-30T10:00:00Z", "2023-04-30T10:00:00Z", "2023-04-30T10:00:00Z", "2023-04-30T10:00:00Z", "2023-04-30T10:00:00Z", "2023-04-30T10:00:00Z", "2023-04-30T10:00:00Z", "2023-04-30T10:00:00Z", "2023-04-30T10:00:00Z", "2023-04-30T10:00:00Z", "2023-04-30T10:00:00Z", "2023-04-30T10:00:00Z", "2023-04-30T10:00:00Z", "2023-04-30T10:00:00Z", "2023-04-30T10:00:00Z", "2023-04-30T10:00:00Z", "2023-04-30T10:00:00Z", "2023-04-30T10:00:00Z", "2023-04-30T10:00:00Z", "2023-04-30T10:00:00Z", "2023-04-30T10:00:00Z", "2023-04-30T10:00:00Z", "2023-04-30T10:00:00Z", "2023-04-30T10:00:00Z", "2023-04-30T10:00:00Z", "2023-04-30T10:00:00Z", "2023-04-30T09:50:00Z", "2023-04-30T09:50:00Z", "2023-04-30T09:50:00Z", "2023-04-30T09:50:00Z", "2023-04-30T09:50:00Z", "2023-04-30T09:50:00Z", "2023-04-30T09:50:00Z", "2023-04-30T09:50:00Z", "2023-04-30T09:50:00Z", "2023-04-30T09:50:00Z", "2023-04-30T09:50:00Z", "2023-04-30T09:50:00Z", "2023-04-30T09:50:00Z", "2023-04-30T09:50:00Z", "2023-04-30T09:50:00Z", "2023-04-30T09:50:00Z", "2023-04-30T09:50:00Z", "2023-04-30T09:50:00Z", "2023-04-30T09:50:00Z", "2023-04-30T09:50:00Z", "2023-04-30T09:50:00Z", "2023-04-30T09:50:00Z", "2023-04-30T09:50:00Z", "2023-04-30T09:50:00Z", "2023-04-30T09:50:00Z", "2023-04-30T09:50:00Z", "2023-04-30T09:50:00Z", "2023-04-30T09:50:00Z", "2023-04-30T09:50:00Z", "2023-04-30T09:50:00Z", "2023-04-30T10:00:00Z", "2023-04-30T09:45:00Z", "2023-04-30T09:45:00Z", "2023-04-30T09:45:00Z", "2023-04-30T09:45:00Z", "2023-04-30T09:45:00Z", "2023-04-30T09:45:00Z", "2023-04-30T09:45:00Z", "2023-04-30T09:55:00Z", "2023-04-30T09:50:00Z", "2023-04-30T09:50:00Z", "2023-04-30T09:50:00Z", "2023-04-30T09:50:00Z", "2023-04-30T09:55:00Z", "2023-04-30T09:50:00Z", "2023-04-30T09:55:00Z", "2023-04-30T09:50:00Z", "2023-04-30T09:55:00Z", "2023-04-30T08:55:00Z", "2023-04-30T09:50:00Z", "2023-04-30T09:50:00Z", "2023-04-30T09:50:00Z", "2023-04-30T09:50:00Z", "2023-04-30T08:55:00Z", "2023-04-30T09:50:00Z", "2023-04-30T09:50:00Z", "2023-04-30T09:50:00Z", "2023-04-30T09:55:00Z", "2023-04-30T09:55:00Z", "2023-04-30T09:50:00Z", "2023-04-30T08:55:00Z", "2023-04-30T09:55:00Z", "2023-04-30T09:50:00Z", "2023-04-30T09:50:00Z", "2023-04-30T09:50:00Z", "2023-04-30T09:50:00Z", "2023-04-30T09:50:00Z", "2023-04-30T09:50:00Z", "2023-04-30T09:50:00Z", "2023-04-30T09:55:00Z", "2023-04-30T09:50:00Z", "2023-04-30T09:55:00Z", "2023-04-30T09:50:00Z", "2023-04-30T09:50:00Z", "2023-04-30T09:55:00Z", "2023-04-30T09:55:00Z", "2023-04-30T09:50:00Z", "2023-04-30T09:50:00Z", "2023-04-30T09:55:00Z", "2023-04-30T09:50:00Z", "2023-04-30T09:55:00Z", "2023-04-30T09:50:00Z", "2023-04-30T09:55:00Z", "2023-04-30T09:50:00Z", "2023-04-30T09:55:00Z", "2023-04-30T09:50:00Z", "2023-04-30T09:50:00Z", "2023-04-30T09:50:00Z", "2023-04-30T09:55:00Z", "2023-04-30T09:50:00Z", "2023-04-30T09:50:00Z", "2023-04-30T09:50:00Z", "2023-04-30T09:50:00Z", "2023-04-30T08:55:00Z", "2023-04-30T09:50:00Z", "2023-04-30T09:50:00Z", "2023-04-30T09:55:00Z", "2023-04-30T09:50:00Z", "2023-04-30T09:50:00Z", "2023-04-30T09:55:00Z", "2023-04-30T09:55:00Z", "2023-04-30T09:50:00Z", "2023-04-30T09:45:00Z", "2023-04-30T09:50:00Z", "2023-04-30T09:55:00Z", "2023-04-30T09:50:00Z", "2023-04-30T09:55:00Z", "2023-04-30T09:55:00Z", "2023-04-30T09:50:00Z", "2023-04-30T09:55:00Z", "2023-04-30T09:55:00Z", "2023-04-30T08:55:00Z", "2023-04-30T09:55:00Z", "2023-04-30T09:55:00Z", "2023-04-30T09:55:00Z", "2023-04-30T09:55:00Z", "2023-04-30T09:55:00Z", "2023-04-30T10:00:00Z", "2023-04-30T10:00:00Z", "2023-04-30T10:00:00Z", "2023-04-30T10:00:00Z", "2023-04-30T10:00:00Z", "2023-04-30T10:00:00Z", "2023-04-30T09:00:00Z", "2023-04-30T10:00:00Z", "2023-04-30T10:00:00Z", "2023-04-30T10:00:00Z", "2023-04-30T10:00:00Z", "2023-04-30T10:00:00Z", "2023-04-30T10:00:00Z", "2023-04-30T10:00:00Z", "2023-04-30T09:50:00Z", "2023-04-30T09:50:00Z", "2023-04-30T09:50:00Z", "2023-04-30T09:50:00Z", "2023-04-30T09:45:00Z", "2023-04-30T09:00:00Z", "2023-04-30T09:00:00Z", "2023-04-30T09:50:00Z", "2023-04-30T09:50:00Z", "2023-04-30T09:50:00Z", "2023-04-30T09:50:00Z", "2023-04-30T09:50:00Z", "2023-04-30T09:50:00Z", "2023-04-30T09:50:00Z", "2023-04-30T10:00:00Z", "2023-04-30T10:00:00Z", "2023-04-30T10:00:00Z", "2023-04-30T10:00:00Z", "2023-04-30T10:00:00Z", "2023-04-30T10:00:00Z", "2023-04-30T10:00:00Z", "2023-04-30T10:00:00Z", "2023-04-30T10:00:00Z", "2023-04-30T10:00:00Z", "2023-04-30T10:00:00Z", "2023-04-30T10:00:00Z", "2023-04-30T10:00:00Z", "2023-04-30T10:00:00Z", "2023-04-30T10:00:00Z", "2023-04-30T10:00:00Z", "2023-04-30T10:00:00Z", "2023-04-30T10:00:00Z", "2023-04-30T10:00:00Z", "2023-04-30T10:00:00Z", "2023-04-30T10:00:00Z", "2023-04-30T10:00:00Z", "2023-04-30T10:00:00Z", "2023-04-30T10:00:00Z", "2023-04-30T10:00:00Z", "2023-04-30T10:00:00Z", "2023-04-30T10:00:00Z", "2023-04-30T10:00:00Z", "2023-04-30T10:00:00Z", "2023-04-30T10:00:00Z", "2023-04-30T10:00:00Z", "2023-04-30T10:00:00Z", "2023-04-30T10:00:00Z", "2023-04-30T10:00:00Z", "2023-04-30T10:00:00Z", "2023-04-30T09:50:00Z", "2023-04-30T09:50:00Z", "2023-04-30T09:50:00Z", "2023-04-30T09:50:00Z", "2023-04-30T09:50:00Z", "2023-04-30T09:50:00Z", "2023-04-30T09:50:00Z", "2023-04-30T09:50:00Z", "2023-04-30T09:50:00Z", "2023-04-30T09:50:00Z", "2023-04-30T09:50:00Z", "2023-04-30T09:50:00Z", "2023-04-30T09:50:00Z", "2023-04-30T09:50:00Z", "2023-04-30T09:50:00Z", "2023-04-30T09:50:00Z", "2023-04-30T09:50:00Z", "2023-04-30T09:50:00Z", "2023-04-30T09:50:00Z", "2023-04-30T09:50:00Z", "2023-04-30T09:50:00Z", "2023-04-30T09:50:00Z", "2023-04-30T09:50:00Z", "2023-04-30T10:02:00Z", "2023-04-30T09:50:00Z", "2023-04-30T09:50:00Z", "2023-04-30T09:50:00Z", "2023-04-30T09:50:00Z", "2023-04-30T09:50:00Z", "2023-04-30T09:50:00Z", "2023-04-30T09:50:00Z", "2023-04-30T09:50:00Z", "2023-04-30T09:50:00Z", "2023-04-30T09:50:00Z", "2023-04-30T09:50:00Z", "2023-04-30T09:50:00Z", "2023-04-30T09:50:00Z", "2023-04-30T09:50:00Z", "2023-04-30T09:50:00Z", "2023-04-30T09:50:00Z", "2023-04-30T09:50:00Z", "2023-04-30T09:50:00Z", "2023-04-30T09:50:00Z", "2023-04-30T09:50:00Z", "2023-04-30T09:50:00Z", "2023-04-30T09:50:00Z", "2023-04-30T09:50:00Z", "2023-04-30T09:50:00Z", "2023-04-30T09:50:00Z", "2023-04-30T09:50:00Z", "2023-04-30T09:50:00Z", "2023-04-30T09:50:00Z", "2023-04-30T09:50:00Z", "2023-04-30T09:50:00Z", "2023-04-30T09:50:00Z", "2023-04-30T09:50:00Z", "2023-04-30T09:50:00Z", "2023-04-30T09:50:00Z", "2023-04-30T09:50:00Z", "2023-04-30T09:50:00Z", "2023-04-30T09:50:00Z", "2023-04-30T09:50:00Z", "2023-04-30T09:50:00Z", "2023-04-30T09:50:00Z", "2023-04-30T09:50:00Z", "2023-04-30T09:50:00Z", "2023-04-30T09:50:00Z", "2023-04-30T09:50:00Z", "2023-04-30T09:50:00Z", "2023-04-30T10:00:00Z", "2023-04-30T10:00:00Z", "2023-04-30T10:00:00Z", "2023-04-30T09:50:00Z", "2023-04-30T10:00:00Z", "2023-04-30T10:00:00Z", "2023-04-30T10:00:00Z", "2023-04-30T10:00:00Z", "2023-04-30T10:00:00Z", "2023-04-30T10:00:00Z", "2023-04-30T10:00:00Z", "2023-04-30T10:00:00Z", "2023-04-30T10:00:00Z", "2023-04-30T10:00:00Z", "2023-04-30T10:00:00Z", "2023-04-30T10:00:00Z", "2023-04-30T10:00:00Z", "2023-04-30T10:00:00Z", "2023-04-30T09:00:00Z", "2023-04-30T10:00:00Z", "2023-04-30T10:00:00Z", "2023-04-30T10:00:00Z", "2023-04-30T10:00:00Z", "2023-04-30T10:00:00Z", "2023-04-30T10:00:00Z", "2023-04-30T10:00:00Z", "2023-04-30T10:00:00Z", "2023-04-30T10:00:00Z", "2023-04-30T09:40:00Z", "2023-04-30T09:50:00Z", "2023-04-30T09:40:00Z", "2023-04-30T09:40:00Z", "2023-04-30T09:40:00Z", "2023-04-30T09:41:00Z", "2023-04-30T09:46:00Z", "2023-04-30T09:41:00Z", "2023-04-30T09:40:00Z", "2023-04-30T09:40:00Z", "2023-04-30T09:40:00Z", "2023-04-30T09:40:00Z", "2023-04-30T09:41:00Z", "2023-04-30T09:40:00Z", "2023-04-30T09:40:00Z", "2023-04-30T09:40:00Z", "2023-04-30T09:00:00Z", "2023-04-30T10:00:00Z", "2023-04-30T10:00:00Z", "2023-04-30T10:00:00Z", "2023-04-30T09:50:00Z", "2023-04-30T09:59:00Z", "2023-04-30T09:50:00Z", "2023-04-30T09:59:00Z", "2023-04-30T09:50:00Z", "2023-04-30T09:50:00Z", "2023-04-30T09:51:00Z", "2023-04-30T09:50:00Z", "2023-04-30T09:50:00Z", "2023-04-30T09:50:00Z", "2023-04-30T09:50:00Z", "2023-04-30T10:00:00Z", "2023-04-30T10:00:00Z", "2023-04-30T10:00:00Z", "2023-04-30T10:00:00Z", "2023-04-30T10:00:00Z", "2023-04-30T10:00:00Z", "2023-04-30T10:00:00Z", "2023-04-30T10:00:00Z", "2023-04-30T10:00:00Z", "2023-04-30T10:00:00Z", "2023-04-30T10:00:00Z", "2023-04-30T10:00:00Z", "2023-04-30T10:00:00Z", "2023-04-30T10:00:00Z", "2023-04-30T10:00:00Z", "2023-04-30T10:00:00Z", "2023-04-30T10:00:00Z", "2023-04-30T10:00:00Z", "2023-04-30T10:00:00Z", "2023-04-30T10:00:00Z", "2023-04-30T10:00:00Z", "2023-04-30T10:00:00Z", "2023-04-30T10:00:00Z", "2023-04-30T10:00:00Z", "2023-04-30T10:00:00Z", "2023-04-30T09:55:00Z", "2023-04-30T10:00:00Z", "2023-04-30T09:00:00Z", "2023-04-30T09:00:00Z", "2023-04-30T10:00:00Z", "2023-04-30T10:00:00Z", "2023-04-30T10:00:00Z", "2023-04-30T10:00:00Z", "2023-04-30T09:55:00Z", "2023-04-30T10:00:00Z", "2023-04-30T10:00:00Z", "2023-04-30T10:00:00Z", "2023-04-30T09:00:00Z", "2023-04-30T09:00:00Z", "2023-04-30T09:00:00Z", "2023-04-30T09:00:00Z", "2023-04-30T10:00:00Z", "2023-04-30T09:00:00Z", "2023-04-30T10:00:00Z", "2023-04-30T09:00:00Z", "2023-04-30T09:00:00Z", "2023-04-30T09:00:00Z", "2023-04-30T09:00:00Z", "2023-04-30T09:00:00Z", "2023-04-30T10:00:00Z", "2023-04-30T09:00:00Z", "2023-04-30T09:00:00Z", "2023-04-30T10:00:00Z", "2023-04-30T09:00:00Z", "2023-04-30T09:00:00Z", "2023-04-30T09:00:00Z", "2023-04-30T09:55:00Z", "2023-04-30T09:00:00Z", "2023-04-30T10:00:00Z", "2023-04-30T09:00:00Z", "2023-04-30T09:00:00Z", "2023-04-30T09:00:00Z", "2023-04-30T09:00:00Z", "2023-04-30T09:00:00Z", "2023-04-30T09:00:00Z", "2023-04-30T09:00:00Z", "2023-04-30T09:00:00Z", "2023-04-30T09:00:00Z", "2023-04-30T10:00:00Z", "2023-04-30T10:00:00Z", "2023-04-30T10:00:00Z", "2023-04-30T10:00:00Z", "2023-04-30T10:00:00Z", "2023-04-30T10:00:00Z", "2023-04-30T10:00:00Z", "2023-04-30T10:00:00Z", "2023-04-30T10:00:00Z", "2023-04-30T10:00:00Z", "2023-04-30T10:00:00Z", "2023-04-30T10:00:00Z", "2023-04-30T10:00:00Z", "2023-04-30T10:00:00Z", "2023-04-30T10:00:00Z", "2023-04-30T09:30:00Z", "2023-04-30T10:00:00Z", "2023-04-30T10:00:00Z", "2023-04-30T10:00:00Z", "2023-04-30T10:00:00Z", "2023-04-30T10:00:00Z", "2023-04-30T10:00:00Z", "2023-04-30T10:00:00Z", "2023-04-30T10:00:00Z", "2023-04-30T09:00:00Z", "2023-04-30T10:00:00Z", "2023-04-30T10:00:00Z", "2023-04-30T10:00:00Z", "2023-04-30T10:00:00Z", "2023-04-30T10:00:00Z", "2023-04-30T10:00:00Z", "2023-04-30T10:00:00Z", "2023-04-30T10:00:00Z", "2023-04-30T10:00:00Z", "2023-04-30T10:00:00Z", "2023-04-30T10:00:00Z", "2023-04-30T10:00:00Z", "2023-04-30T10:00:00Z", "2023-04-30T10:00:00Z", "2023-04-30T10:00:00Z", "2023-04-30T09:00:00Z", "2023-04-30T10:00:00Z", "2023-04-30T10:00:00Z", "2023-04-30T10:00:00Z", "2023-04-30T10:00:00Z", "2023-04-30T10:00:00Z", "2023-04-30T10:00:00Z", "2023-04-30T10:00:00Z", "2023-04-30T10:00:00Z", "2023-04-30T09:30:00Z", "2023-04-30T10:00:00Z", "2023-04-30T10:00:00Z", "2023-04-30T10:00:00Z", "2023-04-30T10:00:00Z", "2023-04-30T10:00:00Z", "2023-04-30T10:00:00Z", "2023-04-30T10:00:00Z", "2023-04-30T10:00:00Z", "2023-04-30T10:00:00Z", "2023-04-30T10:00:00Z", "2023-04-30T10:00:00Z", "2023-04-30T10:00:00Z", "2023-04-30T10:00:00Z", "2023-04-30T10:00:00Z", "2023-04-30T10:00:00Z", "2023-04-30T10:00:00Z", "2023-04-30T10:00:00Z", "2023-04-30T09:55:00Z", "2023-04-30T10:00:00Z", "2023-04-30T10:00:00Z", "2023-04-30T10:00:00Z", "2023-04-30T10:00:00Z", "2023-04-30T10:00:00Z", "2023-04-30T10:00:00Z", "2023-04-30T10:00:00Z", "2023-04-30T10:00:00Z", "2023-04-30T10:00:00Z", "2023-04-30T10:00:00Z", "2023-04-30T09:50:00Z", "2023-04-30T09:50:00Z", "2023-04-30T09:50:00Z", "2023-04-30T09:50:00Z", "2023-04-30T09:50:00Z", "2023-04-30T09:50:00Z", "2023-04-30T09:55:00Z", "2023-04-30T10:00:00Z", "2023-04-30T09:55:00Z", "2023-04-30T09:55:00Z", "2023-04-30T10:00:00Z", "2023-04-30T10:00:00Z", "2023-04-30T10:00:00Z", "2023-04-30T10:00:00Z", "2023-04-30T10:00:00Z", "2023-04-30T10:00:00Z", "2023-04-30T10:00:00Z", "2023-04-30T10:00:00Z", "2023-04-30T10:00:00Z", "2023-04-30T10:00:00Z", "2023-04-30T09:00:00Z", "2023-04-30T10:00:00Z", "2023-04-30T09:00:00Z", "2023-04-30T10:00:00Z", "2023-04-30T08:55:00Z", "2023-04-30T10:00:00Z", "2023-04-30T09:55:00Z", "2023-04-30T09:53:00Z", "2023-04-30T09:52:00Z", "2023-04-30T09:53:00Z", "2023-04-30T09:53:00Z", "2023-04-30T09:56:00Z", "2023-04-30T10:03:00Z", "2023-04-30T09:53:00Z", "2023-04-30T09:56:00Z", "2023-04-30T09:39:00Z", "2023-04-30T09:56:00Z", "2023-04-30T09:53:00Z", "2023-04-30T09:55:00Z", "2023-04-30T09:53:00Z", "2023-04-30T09:56:00Z", "2023-04-30T09:56:00Z", "2023-04-30T09:56:00Z", "2023-04-30T09:53:00Z", "2023-04-30T09:56:00Z", "2023-04-30T08:55:00Z", "2023-04-30T09:53:00Z", "2023-04-30T09:55:00Z", "2023-04-30T09:55:00Z", "2023-04-30T09:53:00Z", "2023-04-30T09:53:00Z", "2023-04-30T08:55:00Z", "2023-04-30T09:56:00Z", "2023-04-30T09:56:00Z", "2023-04-30T08:55:00Z", "2023-04-30T10:01:00Z", "2023-04-30T09:53:00Z", "2023-04-30T09:56:00Z", "2023-04-30T08:56:00Z", "2023-04-30T09:56:00Z", "2023-04-30T09:56:00Z", "2023-04-30T09:53:00Z", "2023-04-30T09:56:00Z", "2023-04-30T09:56:00Z", "2023-04-30T09:54:00Z", "2023-04-30T09:53:00Z", "2023-04-30T09:02:00Z", "2023-04-30T09:56:00Z", "2023-04-30T09:56:00Z", "2023-04-30T09:56:00Z", "2023-04-30T09:53:00Z", "2023-04-30T09:55:00Z", "2023-04-30T09:56:00Z", "2023-04-30T09:56:00Z", "2023-04-30T10:03:00Z", "2023-04-30T09:53:00Z", "2023-04-30T09:56:00Z", "2023-04-30T09:56:00Z", "2023-04-30T09:56:00Z", "2023-04-30T09:54:00Z", "2023-04-30T09:56:00Z", "2023-04-30T09:53:00Z", "2023-04-30T09:53:00Z", "2023-04-30T09:53:00Z", "2023-04-30T09:55:00Z", "2023-04-30T09:56:00Z", "2023-04-30T09:53:00Z", "2023-04-30T09:55:00Z", "2023-04-30T09:56:00Z", "2023-04-30T09:51:00Z", "2023-04-30T09:56:00Z", "2023-04-30T09:56:00Z", "2023-04-30T09:56:00Z", "2023-04-30T09:56:00Z", "2023-04-30T09:53:00Z", "2023-04-30T09:56:00Z", "2023-04-30T09:56:00Z", "2023-04-30T09:53:00Z", "2023-04-30T09:56:00Z", "2023-04-30T09:56:00Z", "2023-04-30T09:56:00Z", "2023-04-30T09:56:00Z", "2023-04-30T09:53:00Z", "2023-04-30T09:56:00Z", "2023-04-30T09:53:00Z", "2023-04-30T09:53:00Z", "2023-04-30T09:56:00Z", "2023-04-30T09:53:00Z", "2023-04-30T09:56:00Z", "2023-04-30T09:56:00Z", "2023-04-30T09:56:00Z", "2023-04-30T09:56:00Z", "2023-04-30T09:56:00Z", "2023-04-30T09:58:00Z", "2023-04-30T09:56:00Z", "2023-04-30T09:56:00Z", "2023-04-30T09:53:00Z", "2023-04-30T09:56:00Z", "2023-04-30T09:53:00Z", "2023-04-30T09:56:00Z", "2023-04-30T09:56:00Z", "2023-04-30T09:56:00Z", "2023-04-30T09:53:00Z", "2023-04-30T09:53:00Z", "2023-04-30T09:55:00Z", "2023-04-30T09:56:00Z", "2023-04-30T08:55:00Z", "2023-04-30T09:52:00Z", "2023-04-30T09:55:00Z", "2023-04-30T09:56:00Z", "2023-04-30T09:56:00Z", "2023-04-30T09:53:00Z", "2023-04-30T09:55:00Z", "2023-04-30T09:53:00Z", "2023-04-30T09:56:00Z", "2023-04-30T09:56:00Z", "2023-04-30T09:56:00Z", "2023-04-30T09:56:00Z", "2023-04-30T09:53:00Z", "2023-04-30T09:53:00Z", "2023-04-30T09:53:00Z", "2023-04-30T09:56:00Z", "2023-04-30T09:56:00Z", "2023-04-30T09:56:00Z", "2023-04-30T09:58:00Z", "2023-04-30T09:56:00Z", "2023-04-30T09:56:00Z", "2023-04-30T09:56:00Z", "2023-04-30T09:56:00Z", "2023-04-30T09:56:00Z", "2023-04-30T09:56:00Z", "2023-04-30T09:56:00Z", "2023-04-30T09:56:00Z", "2023-04-30T09:56:00Z", "2023-04-30T09:54:00Z", "2023-04-30T09:55:00Z", "2023-04-30T09:54:00Z", "2023-04-30T09:51:00Z", "2023-04-30T09:55:00Z", "2023-04-30T09:53:00Z", "2023-04-30T09:53:00Z", "2023-04-30T10:01:00Z", "2023-04-30T09:54:00Z", "2023-04-30T09:57:00Z", "2023-04-30T09:53:00Z", "2023-04-30T09:56:00Z", "2023-04-30T09:54:00Z", "2023-04-30T09:55:00Z", "2023-04-30T09:53:00Z", "2023-04-30T09:50:00Z", "2023-04-30T10:00:00Z", "2023-04-30T10:00:00Z", "2023-04-30T09:56:00Z", "2023-04-30T09:56:00Z", "2023-04-30T09:50:00Z", "2023-04-30T09:53:00Z", "2023-04-30T09:55:00Z", "2023-04-30T09:55:00Z", "2023-04-30T10:00:00Z", "2023-04-30T10:00:00Z", "2023-04-30T10:00:00Z", "2023-04-30T10:00:00Z", "2023-04-30T10:00:00Z", "2023-04-30T10:00:00Z", "2023-04-30T10:00:00Z", "2023-04-30T09:00:00Z", "2023-04-30T10:00:00Z", "2023-04-30T09:00:00Z", "2023-04-30T10:00:00Z", "2023-04-30T10:00:00Z", "2023-04-30T10:00:00Z", "2023-04-30T09:00:00Z", "2023-04-30T10:00:00Z", "2023-04-30T10:00:00Z", "2023-04-30T10:00:00Z", "2023-04-30T10:00:00Z", "2023-04-30T10:00:00Z", "2023-04-30T09:00:00Z", "2023-04-30T10:00:00Z", "2023-04-30T09:00:00Z", "2023-04-30T10:00:00Z", "2023-04-30T10:00:00Z", "2023-04-30T10:00:00Z", "2023-04-30T10:00:00Z", "2023-04-30T10:00:00Z", "2023-04-30T10:00:00Z", "2023-04-30T09:00:00Z", "2023-04-30T10:00:00Z", "2023-04-30T10:00:00Z", "2023-04-30T10:00:00Z", "2023-04-30T10:00:00Z", "2023-04-30T10:00:00Z", "2023-04-30T10:00:00Z", "2023-04-30T10:00:00Z", "2023-04-30T10:00:00Z", "2023-04-30T10:00:00Z", "2023-04-30T10:00:00Z", "2023-04-30T10:00:00Z", "2023-04-30T10:00:00Z", "2023-04-30T10:00:00Z", "2023-04-30T10:00:00Z", "2023-04-30T09:40:00Z", "2023-04-30T10:00:00Z", "2023-04-30T10:00:00Z", "2023-04-30T10:00:00Z", "2023-04-30T10:00:00Z", "2023-04-30T09:56:00Z", "2023-04-30T10:00:00Z", "2023-04-30T10:00:00Z", "2023-04-30T10:00:00Z", "2023-04-30T10:00:00Z", "2023-04-30T10:00:00Z", "2023-04-30T10:00:00Z", "2023-04-30T10:00:00Z", "2023-04-30T10:00:00Z", "2023-04-30T10:00:00Z", "2023-04-30T10:00:00Z", "2023-04-30T10:00:00Z", "2023-04-30T09:01:00Z", "2023-04-30T10:00:00Z", "2023-04-30T10:00:00Z", "2023-04-30T10:00:00Z", "2023-04-30T10:00:00Z", "2023-04-30T10:00:00Z", "2023-04-30T10:00:00Z", "2023-04-30T10:00:00Z", "2023-04-30T10:00:00Z", "2023-04-30T09:55:00Z", "2023-04-30T10:00:00Z", "2023-04-30T09:55:00Z", "2023-04-30T09:10:00Z", "2023-04-30T09:15:00Z", "2023-04-30T10:00:00Z", "2023-04-30T10:00:00Z", "2023-04-30T10:00:00Z", "2023-04-30T08:55:00Z", "2023-04-30T10:00:00Z", "2023-04-30T09:00:00Z", "2023-04-30T08:55:00Z", "2023-04-30T10:00:00Z", "2023-04-30T10:00:00Z", "2023-04-30T10:00:00Z", "2023-04-30T10:00:00Z", "2023-04-30T09:59:00Z", "2023-04-30T09:55:00Z", "2023-04-30T10:00:00Z", "2023-04-30T10:00:00Z", "2023-04-30T10:00:00Z", "2023-04-30T10:00:00Z", "2023-04-30T10:00:00Z", "2023-04-30T10:00:00Z", "2023-04-30T10:00:00Z", "2023-04-30T08:56:00Z", "2023-04-30T10:00:00Z", "2023-04-30T10:00:00Z", "2023-04-30T10:00:00Z", "2023-04-30T10:00:00Z", "2023-04-30T10:00:00Z", "2023-04-30T10:00:00Z", "2023-04-30T09:00:00Z", "2023-04-30T10:00:00Z", "2023-04-30T09:00:00Z", "2023-04-30T10:00:00Z", "2023-04-30T10:00:00Z", "2023-04-30T10:00:00Z", "2023-04-30T10:00:00Z", "2023-04-30T10:00:00Z", "2023-04-30T10:00:00Z", "2023-04-30T10:00:00Z", "2023-04-30T10:00:00Z", "2023-04-30T10:00:00Z", "2023-04-30T10:00:00Z", "2023-04-30T10:00:00Z", "2023-04-30T10:00:00Z", "2023-04-30T10:00:00Z", "2023-04-30T10:00:00Z", "2023-04-30T10:00:00Z", "2023-04-30T10:00:00Z", "2023-04-30T10:00:00Z", "2023-04-30T10:00:00Z", "2023-04-30T10:00:00Z", "2023-04-30T10:00:00Z", "2023-04-30T10:00:00Z", "2023-04-30T09:00:00Z", "2023-04-30T10:00:00Z", "2023-04-30T10:00:00Z", "2023-04-30T09:45:00Z", "2023-04-30T10:00:00Z", "2023-04-30T09:00:00Z", "2023-04-30T10:00:00Z", "2023-04-30T10:00:00Z", "2023-04-30T10:00:00Z", "2023-04-30T09:00:00Z", "2023-04-30T10:00:00Z", "2023-04-30T09:00:00Z", "2023-04-30T10:00:00Z", "2023-04-30T10:00:00Z", "2023-04-30T10:00:00Z", "2023-04-30T10:00:00Z", "2023-04-30T09:00:00Z", "2023-04-30T10:00:00Z", "2023-04-30T10:00:00Z", "2023-04-30T10:00:00Z", "2023-04-30T09:00:00Z", "2023-04-30T10:00:00Z", "2023-04-30T09:00:00Z", "2023-04-30T10:00:00Z", "2023-04-30T10:00:00Z", "2023-04-30T10:00:00Z", "2023-04-30T10:00:00Z", "2023-04-30T10:00:00Z", "2023-04-30T10:00:00Z", "2023-04-30T10:00:00Z", "2023-04-30T09:00:00Z", "2023-04-30T09:00:00Z", "2023-04-30T09:00:00Z", "2023-04-30T10:00:00Z", "2023-04-30T09:00:00Z", "2023-04-30T09:00:00Z", "2023-04-30T09:00:00Z", "2023-04-30T10:00:00Z", "2023-04-30T09:08:00Z", "2023-04-30T09:00:00Z", "2023-04-30T10:00:00Z", "2023-04-30T09:00:00Z", "2023-04-30T10:00:00Z", "2023-04-30T09:00:00Z", "2023-04-30T09:00:00Z", "2023-04-30T09:00:00Z", "2023-04-30T10:00:00Z", "2023-04-30T10:00:00Z", "2023-04-30T10:00:00Z", "2023-04-30T09:00:00Z", "2023-04-30T10:00:00Z", "2023-04-30T10:00:00Z", "2023-04-30T10:00:00Z", "2023-04-30T10:00:00Z", "2023-04-30T10:00:00Z", "2023-04-30T10:00:00Z", "2023-04-30T10:00:00Z", "2023-04-30T10:00:00Z", "2023-04-30T10:00:00Z", "2023-04-30T10:00:00Z", "2023-04-30T10:00:00Z", "2023-04-30T10:00:00Z", "2023-04-30T09:00:00Z", "2023-04-30T10:00:00Z", "2023-04-30T10:00:00Z", "2023-04-30T10:00:00Z", "2023-04-30T09:00:00Z", "2023-04-30T10:00:00Z", "2023-04-30T10:00:00Z", "2023-04-30T09:00:00Z", "2023-04-30T10:00:00Z", "2023-04-30T09:00:00Z", "2023-04-30T10:00:00Z", "2023-04-30T09:00:00Z", "2023-04-30T09:00:00Z", "2023-04-30T09:00:00Z", "2023-04-30T10:00:00Z", "2023-04-30T09:00:00Z", "2023-04-30T10:00:00Z", "2023-04-30T10:00:00Z", "2023-04-30T10:01:00Z", "2023-04-30T10:00:00Z", "2023-04-30T10:00:00Z", "2023-04-30T10:00:00Z", "2023-04-30T10:00:00Z", "2023-04-30T10:00:00Z", "2023-04-30T10:00:00Z", "2023-04-30T10:00:00Z", "2023-04-30T10:00:00Z", "2023-04-30T10:00:00Z", "2023-04-30T10:00:00Z", "2023-04-30T10:00:00Z", "2023-04-30T10:00:00Z", "2023-04-30T10:06:00Z", "2023-04-30T10:00:00Z", "2023-04-30T10:00:00Z", "2023-04-30T10:00:00Z", "2023-04-30T10:00:00Z", "2023-04-30T10:00:00Z", "2023-04-30T09:00:00Z", "2023-04-30T10:00:00Z", "2023-04-30T10:00:00Z", "2023-04-30T10:00:00Z", "2023-04-30T10:00:00Z", "2023-04-30T10:00:00Z", "2023-04-30T10:00:00Z", "2023-04-30T10:00:00Z", "2023-04-30T10:00:00Z", "2023-04-30T09:00:00Z", "2023-04-30T10:00:00Z", "2023-04-30T10:00:00Z", "2023-04-30T09:00:00Z", "2023-04-30T10:00:00Z", "2023-04-30T10:00:00Z", "2023-04-30T10:00:00Z", "2023-04-30T10:00:00Z", "2023-04-30T10:00:00Z", "2023-04-30T10:00:00Z", "2023-04-30T10:00:00Z", "2023-04-30T10:00:00Z", "2023-04-30T10:00:00Z", "2023-04-30T10:00:00Z", "2023-04-30T10:00:00Z", "2023-04-30T10:00:00Z", "2023-04-30T10:00:00Z", "2023-04-30T10:00:00Z", "2023-04-30T10:00:00Z", "2023-04-30T10:00:00Z", "2023-04-30T10:00:00Z", "2023-04-30T10:00:00Z", "2023-04-30T10:00:00Z", "2023-04-30T10:00:00Z", "2023-04-30T10:00:00Z", "2023-04-30T10:00:00Z", "2023-04-30T10:00:00Z", "2023-04-30T10:00:00Z", "2023-04-30T10:00:00Z", "2023-04-30T10:00:00Z", "2023-04-30T10:00:00Z", "2023-04-30T10:00:00Z", "2023-04-30T09:00:00Z", "2023-04-30T10:00:00Z", "2023-04-30T10:03:00Z", "2023-04-30T10:03:00Z", "2023-04-30T10:03:00Z", "2023-04-30T10:03:00Z", "2023-04-30T10:03:00Z", "2023-04-30T10:03:00Z", "2023-04-30T10:03:00Z", "2023-04-30T10:03:00Z", "2023-04-30T10:03:00Z", "2023-04-30T10:03:00Z", "2023-04-30T10:03:00Z", "2023-04-30T10:03:00Z", "2023-04-30T10:03:00Z", "2023-04-30T10:03:00Z", "2023-04-30T10:03:00Z", "2023-04-30T10:03:00Z", "2023-04-30T10:03:00Z", "2023-04-30T10:03:00Z", "2023-04-30T10:03:00Z", "2023-04-30T10:03:00Z", "2023-04-30T10:03:00Z", "2023-04-30T10:00:00Z", "2023-04-30T10:00:00Z", "2023-04-30T10:00:00Z", "2023-04-30T10:00:00Z", "2023-04-30T10:00:00Z", "2023-04-30T10:00:00Z", "2023-04-30T10:00:00Z", "2023-04-30T09:53:00Z", "2023-04-30T09:53:00Z", "2023-04-30T09:53:00Z", "2023-04-30T09:55:00Z", "2023-04-30T09:56:00Z", "2023-04-30T10:00:00Z", "2023-04-30T10:00:00Z", "2023-04-30T10:00:00Z", "2023-04-30T09:55:00Z", "2023-04-30T10:00:00Z", "2023-04-30T09:55:00Z", "2023-04-30T10:00:00Z", "2023-04-30T10:00:00Z", "2023-04-30T10:00:00Z", "2023-04-30T09:55:00Z", "2023-04-30T10:00:00Z", "2023-04-30T10:00:00Z", "2023-04-30T10:00:00Z", "2023-04-30T10:00:00Z", "2023-04-30T10:00:00Z", "2023-04-30T10:00:00Z", "2023-04-30T10:00:00Z", "2023-04-30T10:00:00Z", "2023-04-30T10:00:00Z", "2023-04-30T10:00:00Z", "2023-04-30T10:00:00Z", "2023-04-30T10:00:00Z", "2023-04-30T10:00:00Z", "2023-04-30T10:00:00Z", "2023-04-30T10:00:00Z", "2023-04-30T10:00:00Z", "2023-04-30T10:00:00Z", "2023-04-30T10:00:00Z", "2023-04-30T10:00:00Z", "2023-04-30T10:00:00Z", "2023-04-30T10:00:00Z", "2023-04-30T10:00:00Z", "2023-04-30T10:00:00Z", "2023-04-30T10:00:00Z", "2023-04-30T10:00:00Z", "2023-04-30T10:00:00Z", "2023-04-30T10:00:00Z", "2023-04-30T10:00:00Z", "2023-04-30T10:00:00Z", "2023-04-30T10:00:00Z", "2023-04-30T10:00:00Z", "2023-04-30T10:00:00Z", "2023-04-30T10:00:00Z", "2023-04-30T10:00:00Z", "2023-04-30T10:00:00Z", "2023-04-30T10:00:00Z", "2023-04-30T10:00:00Z", "2023-04-30T10:00:00Z", "2023-04-30T10:00:00Z", "2023-04-30T10:00:00Z", "2023-04-30T10:00:00Z", "2023-04-30T10:00:00Z", "2023-04-30T10:00:00Z", "2023-04-30T10:00:00Z", "2023-04-30T10:00:00Z", "2023-04-30T10:00:00Z", "2023-04-30T10:00:00Z", "2023-04-30T10:00:00Z", "2023-04-30T10:00:00Z", "2023-04-30T10:00:00Z", "2023-04-30T10:00:00Z", "2023-04-30T10:00:00Z", "2023-04-30T10:00:00Z", "2023-04-30T10:00:00Z", "2023-04-30T10:00:00Z", "2023-04-30T10:00:00Z", "2023-04-30T10:00:00Z", "2023-04-30T10:00:00Z", "2023-04-30T10:00:00Z", "2023-04-30T10:00:00Z", "2023-04-30T10:00:00Z", "2023-04-30T10:00:00Z", "2023-04-30T10:00:00Z", "2023-04-30T10:00:00Z", "2023-04-30T10:00:00Z", "2023-04-30T10:00:00Z", "2023-04-30T10:00:00Z", "2023-04-30T10:00:00Z", "2023-04-30T10:00:00Z", "2023-04-30T10:00:00Z", "2023-04-30T10:00:00Z", "2023-04-30T10:00:00Z", "2023-04-30T10:00:00Z", "2023-04-30T10:00:00Z", "2023-04-30T10:00:00Z", "2023-04-30T10:00:00Z", "2023-04-30T10:00:00Z", "2023-04-30T10:00:00Z", "2023-04-30T10:00:00Z", "2023-04-30T10:00:00Z", "2023-04-30T10:00:00Z", "2023-04-30T10:00:00Z", "2023-04-30T10:00:00Z", "2023-04-30T10:00:00Z", "2023-04-30T10:00:00Z", "2023-04-30T10:00:00Z", "2023-04-30T10:00:00Z", "2023-04-30T10:00:00Z", "2023-04-30T10:00:00Z", "2023-04-30T10:00:00Z", "2023-04-30T10:00:00Z", "2023-04-30T10:00:00Z", "2023-04-30T10:00:00Z", "2023-04-30T10:00:00Z", "2023-04-30T10:00:00Z", "2023-04-30T10:00:00Z", "2023-04-30T10:00:00Z", "2023-04-30T10:00:00Z", "2023-04-30T10:00:00Z", "2023-04-30T10:00:00Z", "2023-04-30T10:00:00Z", "2023-04-30T10:00:00Z", "2023-04-30T10:00:00Z", "2023-04-30T10:00:00Z", "2023-04-30T10:00:00Z", "2023-04-30T10:00:00Z", "2023-04-30T10:00:00Z", "2023-04-30T10:00:00Z", "2023-04-30T10:00:00Z", "2023-04-30T10:00:00Z", "2023-04-30T10:00:00Z", "2023-04-30T10:06:00Z", "2023-04-30T10:00:00Z", "2023-04-30T10:00:00Z", "2023-04-30T10:00:00Z", "2023-04-30T10:00:00Z", "2023-04-30T10:00:00Z", "2023-04-30T10:00:00Z", "2023-04-30T10:00:00Z", "2023-04-30T10:00:00Z", "2023-04-30T10:00:00Z", "2023-04-30T10:00:00Z", "2023-04-30T10:00:00Z", "2023-04-30T10:00:00Z", "2023-04-30T10:00:00Z", "2023-04-30T10:00:00Z", "2023-04-30T10:00:00Z", "2023-04-30T10:00:00Z", "2023-04-30T10:00:00Z", "2023-04-30T10:00:00Z", "2023-04-30T10:00:00Z", "2023-04-30T10:00:00Z", "2023-04-30T10:00:00Z", "2023-04-30T10:00:00Z", "2023-04-30T10:00:00Z", "2023-04-30T10:00:00Z", "2023-04-30T10:00:00Z", "2023-04-30T10:00:00Z", "2023-04-30T10:00:00Z", "2023-04-30T10:00:00Z", "2023-04-30T10:00:00Z", "2023-04-30T10:00:00Z", "2023-04-30T10:00:00Z", "2023-04-30T10:00:00Z", "2023-04-30T10:00:00Z", "2023-04-30T10:00:00Z", "2023-04-30T09:30:00Z", "2023-04-30T10:00:00Z", "2023-04-30T10:00:00Z", "2023-04-30T10:00:00Z", "2023-04-30T09:00:00Z", "2023-04-30T10:00:00Z", "2023-04-30T10:00:00Z", "2023-04-30T09:00:00Z", "2023-04-30T10:00:00Z", "2023-04-30T09:30:00Z", "2023-04-30T09:30:00Z", "2023-04-30T09:10:00Z", "2023-04-30T09:10:00Z", "2023-04-30T10:00:00Z", "2023-04-30T10:00:00Z", "2023-04-30T10:00:00Z", "2023-04-30T10:00:00Z", "2023-04-30T10:00:00Z", "2023-04-30T10:00:00Z", "2023-04-30T09:00:00Z", "2023-04-30T10:00:00Z", "2023-04-30T10:00:00Z", "2023-04-30T10:00:00Z", "2023-04-30T09:00:00Z", "2023-04-30T10:00:00Z", "2023-04-30T10:00:00Z", "2023-04-30T09:01:00Z", "2023-04-30T10:00:00Z", "2023-04-30T10:00:00Z", "2023-04-30T10:00:00Z", "2023-04-30T10:00:00Z", "2023-04-30T09:00:00Z", "2023-04-30T09:00:00Z", "2023-04-30T09:00:00Z", "2023-04-30T09:00:00Z", "2023-04-30T10:00:00Z", "2023-04-30T10:00:00Z", "2023-04-30T10:00:00Z", "2023-04-30T10:00:00Z", "2023-04-30T10:00:00Z", "2023-04-30T10:00:00Z", "2023-04-30T10:00:00Z", "2023-04-30T10:00:00Z", "2023-04-30T10:00:00Z", "2023-04-30T09:00:00Z", "2023-04-30T09:30:00Z", "2023-04-30T09:30:00Z", "2023-04-30T10:00:00Z", "2023-04-30T10:00:00Z", "2023-04-30T10:00:00Z", "2023-04-30T10:00:00Z", "2023-04-30T10:00:00Z", "2023-04-30T10:00:00Z", "2023-04-30T09:30:00Z", "2023-04-30T10:00:00Z", "2023-04-30T10:00:00Z", "2023-04-30T10:00:00Z", "2023-04-30T10:00:00Z", "2023-04-30T10:00:00Z", "2023-04-30T10:00:00Z", "2023-04-30T10:00:00Z", "2023-04-30T09:30:00Z", "2023-04-30T10:00:00Z", "2023-04-30T09:00:00Z", "2023-04-30T10:00:00Z", "2023-04-30T10:00:00Z", "2023-04-30T10:00:00Z", "2023-04-30T10:00:00Z", "2023-04-30T10:00:00Z", "2023-04-30T10:00:00Z", "2023-04-30T10:00:00Z", "2023-04-30T10:00:00Z", "2023-04-30T10:00:00Z", "2023-04-30T10:00:00Z", "2023-04-30T10:00:00Z", "2023-04-30T09:00:00Z", "2023-04-30T10:00:00Z", "2023-04-30T10:00:00Z", "2023-04-30T10:00:00Z", "2023-04-30T10:00:00Z", "2023-04-30T10:00:00Z", "2023-04-30T10:00:00Z", "2023-04-30T10:00:00Z", "2023-04-30T10:00:00Z", "2023-04-30T09:00:00Z", "2023-04-30T10:00:00Z", "2023-04-30T10:00:00Z", "2023-04-30T10:00:00Z", "2023-04-30T10:00:00Z", "2023-04-30T10:00:00Z", "2023-04-30T10:00:00Z", "2023-04-30T10:00:00Z", "2023-04-30T10:00:00Z", "2023-04-30T10:00:00Z", "2023-04-30T09:00:00Z", "2023-04-30T10:00:00Z", "2023-04-30T10:00:00Z", "2023-04-30T10:00:00Z", "2023-04-30T10:00:00Z", "2023-04-30T10:00:00Z", "2023-04-30T10:00:00Z", "2023-04-30T10:00:00Z", "2023-04-30T10:00:00Z", "2023-04-30T10:00:00Z", "2023-04-30T10:00:00Z", "2023-04-30T10:00:00Z", "2023-04-30T10:00:00Z", "2023-04-30T10:00:00Z", "2023-04-30T10:00:00Z", "2023-04-30T09:30:00Z", "2023-04-30T10:00:00Z", "2023-04-30T10:00:00Z", "2023-04-30T09:30:00Z", "2023-04-30T10:00:00Z", "2023-04-30T09:30:00Z", "2023-04-30T09:30:00Z", "2023-04-30T09:30:00Z", "2023-04-30T09:30:00Z", "2023-04-30T10:00:00Z", "2023-04-30T09:30:00Z", "2023-04-30T10:00:00Z", "2023-04-30T09:30:00Z", "2023-04-30T10:00:00Z", "2023-04-30T09:30:00Z", "2023-04-30T09:30:00Z", "2023-04-30T09:30:00Z", "2023-04-30T09:30:00Z", "2023-04-30T09:30:00Z", "2023-04-30T09:00:00Z", "2023-04-30T09:30:00Z", "2023-04-30T09:00:00Z", "2023-04-30T09:00:00Z", "2023-04-30T09:00:00Z", "2023-04-30T09:35:00Z", "2023-04-30T09:00:00Z", "2023-04-30T09:00:00Z", "2023-04-30T09:00:00Z", "2023-04-30T09:00:00Z", "2023-04-30T09:30:00Z", "2023-04-30T09:30:00Z", "2023-04-30T09:30:00Z", "2023-04-30T09:30:00Z", "2023-04-30T09:30:00Z", "2023-04-30T09:30:00Z", "2023-04-30T10:00:00Z", "2023-04-30T09:30:00Z", "2023-04-30T09:30:00Z", "2023-04-30T09:30:00Z", "2023-04-30T09:30:00Z", "2023-04-30T09:00:00Z", "2023-04-30T09:00:00Z", "2023-04-30T09:00:00Z", "2023-04-30T09:00:00Z", "2023-04-30T09:00:00Z", "2023-04-30T09:00:00Z", "2023-04-30T09:00:00Z", "2023-04-30T09:00:00Z", "2023-04-30T09:10:00Z", "2023-04-30T09:30:00Z", "2023-04-30T09:00:00Z", "2023-04-30T09:00:00Z", "2023-04-30T09:00:00Z", "2023-04-30T09:45:00Z", "2023-04-30T09:20:00Z", "2023-04-30T10:00:00Z", "2023-04-30T10:00:00Z", "2023-04-30T10:00:00Z", "2023-04-30T10:00:00Z", "2023-04-30T10:00:00Z", "2023-04-30T10:00:00Z", "2023-04-30T10:00:00Z", "2023-04-30T10:00:00Z", "2023-04-30T10:00:00Z", "2023-04-30T10:00:00Z", "2023-04-30T10:00:00Z", "2023-04-30T10:00:00Z", "2023-04-30T10:00:00Z", "2023-04-30T10:00:00Z", "2023-04-30T10:00:00Z", "2023-04-30T10:00:00Z", "2023-04-30T10:00:00Z", "2023-04-30T10:00:00Z", "2023-04-30T10:00:00Z", "2023-04-30T10:00:00Z", "2023-04-30T10:00:00Z", "2023-04-30T10:00:00Z", "2023-04-30T10:00:00Z", "2023-04-30T10:00:00Z", "2023-04-30T10:00:00Z", "2023-04-30T10:00:00Z", "2023-04-30T10:00:00Z", "2023-04-30T10:00:00Z", "2023-04-30T10:00:00Z", "2023-04-30T10:00:00Z", "2023-04-30T10:00:00Z", "2023-04-30T10:00:00Z", "2023-04-30T10:00:00Z", "2023-04-30T10:00:00Z", "2023-04-30T10:00:00Z", "2023-04-30T10:00:00Z", "2023-04-30T10:00:00Z", "2023-04-30T10:00:00Z", "2023-04-30T10:00:00Z", "2023-04-30T10:00:00Z", "2023-04-30T10:00:00Z", "2023-04-30T10:00:00Z", "2023-04-30T10:00:00Z", "2023-04-30T10:00:00Z", "2023-04-30T10:00:00Z", "2023-04-30T10:00:00Z", "2023-04-30T10:00:00Z", "2023-04-30T10:00:00Z", "2023-04-30T10:00:00Z", "2023-04-30T10:00:00Z", "2023-04-30T10:00:00Z", "2023-04-30T10:00:00Z", "2023-04-30T10:00:00Z", "2023-04-30T10:00:00Z", "2023-04-30T10:00:00Z", "2023-04-30T10:00:00Z", "2023-04-30T10:00:00Z", "2023-04-30T10:00:00Z", "2023-04-30T10:00:00Z", "2023-04-30T10:00:00Z", "2023-04-30T10:00:00Z", "2023-04-30T10:00:00Z", "2023-04-30T10:00:00Z", "2023-04-30T10:00:00Z", "2023-04-30T10:00:00Z", "2023-04-30T10:00:00Z", "2023-04-30T10:00:00Z", "2023-04-30T10:00:00Z", "2023-04-30T10:00:00Z", "2023-04-30T10:00:00Z", "2023-04-30T10:00:00Z", "2023-04-30T10:00:00Z", "2023-04-30T10:00:00Z", "2023-04-30T10:00:00Z", "2023-04-30T10:00:00Z", "2023-04-30T10:00:00Z", "2023-04-30T10:00:00Z", "2023-04-30T10:00:00Z", "2023-04-30T10:00:00Z", "2023-04-30T10:00:00Z", "2023-04-30T10:00:00Z", "2023-04-30T10:00:00Z", "2023-04-30T10:00:00Z", "2023-04-30T10:00:00Z", "2023-04-30T10:00:00Z", "2023-04-30T10:00:00Z", "2023-04-30T10:00:00Z"], "raw_text": ["AGGH 301000Z 18003KT 9999 FEW015 FEW016CB SCT300 26/26 Q1010", "ANYN 300900Z 05005KT 9999 FEW020 27/25 Q1009", "AYPY 301000Z 13006KT 9999 SCT070 27/25 Q1007", "BGBW 300950Z AUTO 06016KT 9999NDV NCD 04/M12 Q1023", "BGGH 300950Z AUTO 22009KT 9999 OVC001/// M02/M02 Q1020 RESN", "BGJN 300950Z AUTO VRB08G18KT 9999NDV NCD M00/M13 Q1022", "BGKK 300950Z AUTO 08011KT 9999NDV NCD M01/M13 Q1031", "BGSF 300950Z AUTO 06009KT 9999NDV NCD M00/M11 Q1020", "BGTL 300855Z AUTO 12009KT 9999 CLR M11/M15 A3032 RMK AO2 SLP255 T11071151 57006 TSNO $", "BIAR 301000Z 15004KT 120V200 CAVOK M01/M11 Q1026", "BIBD 301000Z 05005KT 010V090 CAVOK 03/M12 Q1026", "BIEG 301000Z 30013KT 9999 FEW050 01/M10 Q1023", "BIIS 301000Z 08005KT CAVOK 01/M08 Q1027", "BIKF 301000Z 05008KT 020V090 9999 SCT043 BKN180 04/M03 Q1022", "BIRK 301000Z 09010KT CAVOK 05/M05 Q1023", "BIVM 301000Z 10018KT 9999 BKN060 04/M02 Q1022", "BKPR 301000Z 02012KT 9999 FEW035TCU BKN050 16/09 Q1016 NOSIG", "CAHR 300900Z AUTO 00000KT 01/M01 RMK AO1 SLP225 T00051010 55006", "CBBC 301003Z AUTO 30003KT 250V330 9SM BKN096 OVC180 10/08 A2983 RMK SLP103", "CERM 300900Z AUTO 13004KT 09/03 RMK AO1 SLP184 T00870031 56001", "CMFM 300900Z AUTO 13004KT 04/01 RMK AO1 SOG 03 6013 SLP143 T00360011", "CMGB 300900Z AUTO 12003KT 09/04 RMK AO1 SLP096 T00930040 56014", "CPBT 300900Z AUTO 05001KT 07/M02 RMK AO1 T00671018", "CPEH 300900Z AUTO 00000KT 04/M02 RMK AO1 T00431015", "CPFI 300900Z AUTO 15008KT 07/M01 RMK AO1 T00741007", "CPIN 300900Z AUTO 21007KT ////SM ////// ///// A////", "CPIR 300900Z AUTO 08005KT 04/M01 RMK AO1 T00401014", "CPRO 300900Z AUTO 10008KT 06/M03 RMK AO1 T00601029", "CPRY 300900Z AUTO 14011KT 11/M02 RMK AO1 PK WND 15018/0821 T01131021", "CPST 300900Z AUTO 13015KT 06/M03 RMK AO1 PK WND 14020/0816 T00621033", "CPSV 300900Z AUTO 08002KT 10/M04 RMK AO1 T00981039", "CTCK 300900Z AUTO 08011KT 08/06 RMK AO1 SLP061 T00750059 56014", "CTNK 300900Z AUTO 13004KT 08/08 RMK AO1 SLP020 T00810075 56010", "CTRA 300900Z AUTO 02008KT 01/M04 RMK AO1 PK WND 35017/0842 SLP121 T00131041 56008", "CWAF 300900Z AUTO 05012KT 05/04 RMK AO1 PK WND 07020/0845 T00520040", "CWAJ 300900Z AUTO 16006KT RMK AO1 56018", "CWAQ 300900Z AUTO 26003KT M04/M06 RMK AO1 SLP238 T10351055 53002", "CWAR 300900Z AUTO 30007KT 01/M02 RMK AO1 SLP200 T00141023 53010", "CWAV 300900Z AUTO 09002KT 02/M03 RMK AO1 SLP153 T00181030 57010", "CWBA 300900Z AUTO 17006KT 08/07 RMK AO1 T00760071 50007", "CWBK 300900Z AUTO 21003KT 02/M00 RMK AO1 SLP230 T00181003 55007", "CWBO 300900Z AUTO 13009KT 07/M03 RMK AO1 SLP171 T00701030 56008", "CWBS 300900Z AUTO 06018KT 08/07 RMK AO1 PK WND 07022/0859 T00790071", "CWBT 300900Z AUTO 03002KT M02/M02 RMK AO1 SLP223 T10191024 56004", "CWBU 300900Z AUTO 30002KT M02/M05 RMK AO1 SLP250 T10211051 55000", "CWBV 300900Z AUTO 16002KT 03/02 RMK AO1 SLP216 T00270023 56006", "CWBY 300900Z AUTO 08009KT 02/M00 RMK AO1 SLP212 T00201003 57006", "CWBZ 300900Z AUTO 06007KT 08/06 RMK AO1 SLP062 T00840062 57015", "CWCF 300900Z AUTO 02004KT 01/M03 RMK AO1 SLP198 T00071028 55000", "CWCI 300900Z AUTO 04011KT 05/05 RMK AO1 SLP940 T00470046 56022", "CWCJ 300900Z AUTO 04006KT 03/02 RMK AO1 SLP975 T00270017 56017", "CWCO 300900Z AUTO 15006KT 10/08 RMK AO1 SLP976 T00950084 58023", "CWCT 300900Z AUTO 14012KT 03/M08 RMK AO1 PK WND 13017/0824 SLP205 T00251077 58002", "CWDA 300900Z AUTO 00032KT M01/ RMK AO1 T1013", "CWDC 300900Z AUTO 07004KT M01/M06 RMK AO1 SLP246 T10081058 55004", "CWDJ 300900Z AUTO 09005KT 01/M06 RMK AO1 SLP236 T00051058 53001", "CWDK 300900Z AUTO 36004KT 03/M02 RMK AO1 SLP152 T00321016 56012", "CWDM 300900Z AUTO 33005KT M02/M03 RMK AO1 SLP221 T10211030 51010", "CWDO 300900Z AUTO 34017KT M00/M02 RMK AO1 PK WND 33024/0816 SLP201 T10031016 53006", "CWDQ 300900Z AUTO 15005KT 07/05 RMK AO1 3PAST HR 6011 SLP123 P0001 T00680049 50003", "CWDV 300900Z AUTO M00/M01 RMK AO1 1PAST HR SOG 03 6014 SLP043 P0000 T10011008 50006", "CWDZ 300900Z AUTO 12011KT 08/M03 RMK AO1 PK WND 12017/0801 SLP165 T00781030 58005", "CWEE 300900Z AUTO 05/04 RMK AO1 SLP104 T00500040 56003", "CWEF 300900Z AUTO 36006KT 02/01 RMK AO1 SLP221 T00170010 58006", "CWEH 300900Z AUTO 10010KT 03/M06 RMK AO1 SLP205 T00261057 58004", "CWEL 300900Z AUTO 13012KT 11/10 RMK AO1 SLP100 T01140099 56003", "CWEP 300900Z AUTO 08005KT 02/01 RMK AO1 SLP227 T00240011 55014", "CWEQ 300900Z AUTO 28003KT M00/M02 RMK AO1 SLP231 T10031024 58002", "CWER 300900Z AUTO 08007KT RMK AO1", "CWEU 300900Z 06003KT 1/8SM FZFG VV300 M21/M24 A3039 RMK FG8 RIME SLP306", "CWEW 300900Z AUTO 07006KT 07/06 RMK AO1 0PAST HR 7014 SLP105 P0008 T00710064 50040", "CWEZ 300900Z AUTO 25010KT 11/08 RMK AO1 SLP102 T01120076 58004", "CWFF 300900Z AUTO 13004KT M00/M05 RMK AO1 SLP248 T10041046 51002", "CWFJ 300900Z AUTO 20005KT 09/M00 RMK AO1 T00851002", "CWFQ 300900Z AUTO 01011G23KT 08/04 RMK AO1 8014 PK WND 01023/0850 SLP086 T00840043 50002", "CWGB 300900Z AUTO 18001KT 11/ RMK AO1 SLP096 T0112 57005", "CWGD 300900Z AUTO 15003KT 08/07 RMK AO1 8012 SLP970 T00800070 50006", "CWGH 300900Z AUTO 18008KT 11/07 RMK AO1 SLP039 T01070069 56017", "CWGM 300900Z AUTO 26004KT 05/00 RMK AO1 SLP142 T00510000 58004", "CWGR 300900Z AUTO 09004KT 01/M02 RMK AO1 SLP228 T00051016 58010", "CWGT 300900Z AUTO 18002KT 15/06 RMK AO1 SLP105 T01470059 56004", "CWGY 300900Z AUTO 14010KT 02/M09 RMK AO1 SLP209 T00151090 56005", "CWHI 300900Z AUTO 12009KT 04/M05 RMK AO1 T00421054", "CWHL 300900Z AUTO 18001KT 08/07 RMK AO1 SLP085 T00840067 55008", "CWHO 300900Z AUTO 00002KT M04/M05 RMK AO1 SLP245 T10411048 53008", "CWHP 300900Z AUTO 25006KT 01/M01 RMK AO1 SLP223 T00071010 58005", "CWHQ 300900Z AUTO 07006KT 07/06 RMK AO1 8PAST HR M P0011 T00670057 50056", "CWHT 300900Z AUTO 06001KT 02/M01 RMK AO1 SOG 19 8003 SLP085 T00161013", "CWHV 300900Z AUTO 14007KT 05/04 RMK AO1 4PAST HR 6013 SLP143 P0005 T00540043 50019", "CWID 300900Z AUTO 12004KT 06/M03 RMK AO1 SLP129 T00571028 56008", "CWIG 300900Z AUTO 13007KT RMK AO1", "CWII 300900Z AUTO 35009KT M00/M01 RMK AO1 SLP184 T10031012 55000", "CWIJ 300900Z AUTO 09007KT M02/M02 RMK AO1 2PAST HR SOG 82 6009 SLP217 P0005 T10201015 50027", "CWIK 300900Z AUTO 31001KT M02/M03 RMK AO1 SLP238 T10221034 53001", "CWIL 300911Z AUTO ///// ////SM OVC005 M11/M12 A3014", "CWIP 300900Z AUTO 07002KT 02/M01 RMK AO1 T00201013", "CWIS 300900Z AUTO 15004KT 03/01 RMK AO1 SOG 56 6009 SLP157 T00280006 50003", "CWIT 300900Z AUTO 14011KT 08/05 RMK AO1 8015 SLP078 T00840053 50001", "CWIW 300900Z AUTO 36002KT M02/M04 RMK AO1 SLP247 T10221040 54000", "CWIZ 300900Z AUTO 09002KT 08/06 RMK AO1 2PAST HR M P0001 T00760055 50007", "CWJB 300900Z AUTO 07/05 RMK AO1 T00730051", "CWJC 300900Z AUTO 35011KT M02/M04 RMK AO1 SOG 01 3001 PK WND 34017/0828 SLP255 T10241039", "CWJD 300900Z AUTO 36004KT 00/M01 RMK AO1 SLP221 T00001010 53001", "CWJH 300900Z AUTO 23002KT M04/M05 RMK AO1 SOG 02 5004 SLP258 T10401049", "CWJI 300900Z AUTO 14003KT 01/M06 RMK AO1 SLP230 T00051057 58001", "CWJO 300900Z AUTO 00000KT 08/02 RMK AO1 SLP142 T00800019 55002", "CWJR 300900Z AUTO 08001KT 12/02 RMK AO1 SLP134 T01200018 50001", "CWJT 300900Z AUTO 12004KT 07/06 RMK AO1 8013 SLP074 T00710062 50020", "CWJU 300900Z AUTO 12003KT 07/07 RMK AO1 SLP090 T00730066 57007", "CWJV 300900Z AUTO 10009KT 13/03 RMK AO1 SLP107 T01310030 52004", "CWJW 300900Z AUTO 15003KT 01/M03 RMK AO1 SLP144 T00051034 53002", "CWJX 300900Z AUTO 10008KT 01/M08 RMK AO1 SOG 01 8004 SLP209 T00051077", "CWKD 300900Z AUTO 04/M00 RMK AO1 SLP159 T00431003 55005", "CWKG 300900Z AUTO 09004KT 03/02 RMK AO1 SLP211 T00290017 55008", "CWKH 300900Z AUTO 13/04 RMK AO1 SLP098 T01290035 58005", "CWKM 300906Z AUTO 10025G30KT ////SM FEW002 M13/M15 A3016", "CWKO 300900Z AUTO 19003KT 01/M06 RMK AO1 SLP233 T00101055 51001", "CWKX 300900Z AUTO 02002KT 05/M00 RMK AO1 SLP120 T00491001 56002", "CWLB 300900Z AUTO 15009G17KT 08/M10 RMK AO1 PK WND 17017/0859 SLP201 T00821103 56001", "CWLC 300900Z AUTO 34009KT 09/07 RMK AO1 T00860072", "CWLE 300900Z AUTO 12007KT 01/M06 RMK AO1 SLP233 T00071058 58004", "CWLM 300900Z AUTO 24011KT 10/06 RMK AO1 SLP107 T01020055 58005", "CWLP 300900Z AUTO 31011KT 10/08 RMK AO1 SLP095 T00970081 58003", "CWLS 300900Z AUTO 17007KT 08/07 RMK AO1 SLP978 T00830074 55018", "CWLX 300900Z AUTO ///// ////SM ////// M04/M04 A3011", "CWLY 300900Z AUTO 16005KT 080V190 9SM CLR 16/03 A2984 RMK SLP105 DENSITY ALT 1100FT", "CWME 300900Z AUTO 21008KT 12/08 RMK AO1 SLP098 T01160075 55000", "CWMJ 300900Z AUTO 12007KT 07/06 RMK AO1 1PAST HR 6012 SLP058 P0000 T00710064 50007", "CWMM 300900Z AUTO 07001KT 12/09 RMK AO1 SLP114 T01190092 57003", "CWMQ 300900Z AUTO 15008G17KT 08/M07 RMK AO1 PK WND 16017/0858 SLP192 T00781073 58008", "CWMT 300900Z AUTO 08005KT 02/M03 RMK AO1 SLP148 T00161034 57011", "CWNC 300900Z AUTO 10006KT 09/08 RMK AO1 SLP012 T00880083 58019", "CWND 300900Z AUTO 07008KT M11/M12 RMK AO1 SLP210 T11051120 55001", "CWNE 300900Z AUTO 12010KT 04/01 RMK AO1 SLP219 T00390011 55008", "CWNH 300900Z AUTO 15001KT 07/03 RMK AO1 SLP169 T00680027 58003", "CWNK 300900Z AUTO 34008KT 02/00 RMK AO1 SLP189 T00200000 53003", "CWNP 300900Z AUTO 05001KT 06/04 RMK AO1 SLP142 T00600035 53004", "CWNQ 300900Z AUTO 18007KT 07/06 RMK AO1 7PAST HR 6013 SLP119 P0003 T00700061 50012", "CWNZ 300900Z AUTO 01004KT 03/03 RMK AO1 1PAST HR 6015 SLP999 P0000 T00280027 50003", "CWOB 300900Z AUTO 03004KT ////SM ////// M05/M05 A3008", "CWOC 300900Z AUTO 07005KT 03/01 RMK AO1 SLP217 T00260005 56009", "CWOD 300900Z AUTO 12007KT 07/04 RMK AO1 SLP127 T00660041 55003", "CWOE 300900Z AUTO 04014KT 05/M02 RMK AO1 PK WND 03017/0800 SLP184 T00531018 58004", "CWOY 300900Z AUTO 16004KT M04/M06 RMK AO1 SLP251 T10371062 51003", "CWPD 300900Z AUTO 03004KT 03/01 RMK AO1 SLP115 T00300005 56010", "CWPE 300900Z AUTO 12008KT 06/02 RMK AO1 SLP205 T00640023 56007", "CWPF 300945Z AUTO 23003KT 12/06 RMK AO1 SLP105 T01230061 58003", "CWPK 300900Z AUTO 13005KT 05/03 RMK AO1 2PAST HR 6012 SLP088 P0001 T00450032 50002", "CWPO 300900Z AUTO 34006KT M00/M00 RMK AO1 SOG 06 5001 SLP205 T10041004", "CWPR 300900Z AUTO 34002KT 07/M01 RMK AO1 SLP121 T00671007 51003", "CWPZ 300900Z AUTO 32002KT 02/M01 RMK AO1 SLP097 T00221011 58006", "CWQH 300900Z AUTO 14012G19KT 07/04 RMK AO1 1PAST HR 5012 PK WND 15019/0856 SLP121 P0000 T00650035 50010", "CWQK 300900Z AUTO 27028KT 09/07 RMK AO1 PK WND 27032/0855 SLP109 T00890070 58001", "CWQO 300900Z AUTO 09003KT 06/05 RMK AO1 T00570053", "CWQP 300900Z AUTO 13017KT 07/06 RMK AO1 PK WND 14019/0801 SLP027 T00740055 57015", "CWQR 300900Z AUTO 04009KT 01/M01 RMK AO1 T00121010", "CWQS 300900Z AUTO 30003KT 08/06 RMK AO1 SLP081 T00770062 54000", "CWQV 300900Z AUTO 07008KT 06/ RMK AO1 T0062", "CWRA 300900Z AUTO 01/M04 RMK AO1 SLP168 T00121036 53011", "CWRJ 300900Z AUTO 10005KT M04/M10 RMK AO1 SLP231 T10371097 56003", "CWRK 300900Z AUTO 12003KT 08/08 RMK AO1 SLP022 T00800080 58011", "CWRM 300900Z AUTO 13007KT 07/M02 RMK AO1 SLP119 T00741018 56009", "CWRN 300900Z AUTO 17004KT 02/01 RMK AO1 SLP228 T00160011 56016", "CWRT 300900Z AUTO 24001KT M01/M02 RMK AO1 SLP168 T10081022 58003", "CWRU 300900Z AUTO 11028G36KT 08/ RMK AO1 PK WND 12036/0858 SLP088 T0084 58010", "CWRY 300900Z AUTO 16011KT 08/M02 RMK AO1 SOG 08 8006 PK WND 16019/0831 SLP157 T00751016", "CWRZ 300900Z AUTO 27004KT 03/M01 RMK AO1 SLP221 T00271012 56011", "CWSA 300900Z AUTO 05005KT 9SM 03/M00 A3022 RMK PRESRR CLD MISG SLP234", "CWSD 300900Z AUTO 10001KT M00/M01 RMK AO1 SLP223 T10031010 55004", "CWSF 300900Z AUTO 13002KT 06/02 RMK AO1 PK WND 16019/0826 SLP195 T00640016 56008", "CWSG 300900Z AUTO 19003KT 02/02 RMK AO1 SLP199 T00150021 56008", "CWSK 300900Z AUTO 02002KT 11/07 RMK AO1 SLP113 T01050073 57004", "CWSL 300900Z AUTO 20001KT 09/05 RMK AO1 SLP117 T00860050 51008", "CWSP 300900Z AUTO 29025G31KT 09/07 RMK AO1 PK WND 30032/0848 SLP117 T00930067 55003", "CWSR 300900Z AUTO 16003KT M02/M05 RMK AO1 SLP240 T10191053 55002", "CWSS 300900Z AUTO 11004KT 06/02 RMK AO1 SLP201 T00550017 57006", "CWST 300900Z AUTO 03005KT 06/05 RMK AO1 SLP159 T00630049 58004", "CWTA 300900Z AUTO 05002KT 07/06 RMK AO1 5PAST HR 8014 SLP091 P0006 T00730061 50042", "CWTG 300900Z AUTO 03010G15KT 04/M00 RMK AO1 PK WND 03021/0844 SLP200 T00421001 55003", "CWTN 300900Z AUTO 07003KT 09/04 RMK AO1 SLP159 T00900036 56013", "CWTT 300900Z AUTO 10003KT 06/05 RMK AO1 T00550049", "CWTY 300900Z AUTO 06009KT 07/06 RMK AO1 SLP128 T00730064 56012", "CWUS 300900Z AUTO 26007KT 16/M00 RMK AO1 SLP100 T01601001 50001", "CWUW 300900Z AUTO 13012KT ////SM ////// M06/M07 A3005", "CWUX 300900Z AUTO 08007KT 08/02 RMK AO1 SLP150 T00780019 55003", "CWVF 300900Z AUTO 12014KT 12/10 RMK AO1 T01240095", "CWVI 300900Z AUTO 15006KT 05/M07 RMK AO1 SLP192 T00471070 56003", "CWVN 300900Z AUTO 05002KT 02/M05 RMK AO1 SLP221 T00151052 53002", "CWVP 300900Z AUTO 13008KT 03/M08 RMK AO1 SLP194 T00281078 58007", "CWVQ 300900Z AUTO 07007KT 07/06 RMK AO1 8015 SLP085 T00650060 50020", "CWVT 300900Z AUTO 18002KT M01/M07 RMK AO1 SLP250 T10141071 56005", "CWVU 300900Z AUTO 09015KT 05/02 RMK AO1 PK WND 08018/0856 SLP192 T00470018 56014", "CWWA 300900Z AUTO 04001KT 14/08 RMK AO1 SLP107 T01370075 57005", "CWWB 300900Z AUTO 02005KT 08/08 RMK AO1 SLP989 T00770077 58020", "CWWE 300900Z AUTO 09008KT 04/03 RMK AO1 SLP216 T00400030 56007", "CWWF 300900Z AUTO 12002KT M01/M03 RMK AO1 SOG 01 3005 SLP234 T10091032", "CWWK 300900Z AUTO 12001KT 12/09 RMK AO1 SLP117 T01220087 56002", "CWWL 300900Z AUTO 13013KT 09/07 RMK AO1 PK WND 13020/0815 SLP090 T00880070 58005", "CWWS 300900Z AUTO 01012KT M01/M03 RMK AO1 SOG 20 3003 SLP205 T10071028", "CWWZ 300900Z AUTO 15010KT 11/09 RMK AO1 SLP989 T01120086 58022", "CWXA 300900Z AUTO 00026KT 08/M02 RMK AO1 SLP157 T00841017 58008", "CWXC 300900Z AUTO 17005KT 08/01 RMK AO1 SLP141 T00820011 55001", "CWXI 300900Z AUTO 19008KT 02/01 RMK AO1 SLP217 T00170005 53009", "CWXL 300900Z AUTO 14018KT 09/M02 RMK AO1 PK WND 15024/0824 SLP167 T00871024 56008", "CWYJ 300900Z AUTO 24004KT 11/06 RMK AO1 SLP107 T01100055 58006", "CWYL 300900Z AUTO 08003KT M01/M03 RMK AO1 SOG 41 7003 SLP173 T10081026", "CWYY 300900Z AUTO 36001KT 11/07 RMK AO1 SLP096 T01100067 50000", "CWZA 300900Z AUTO 04015G22KT 16/06 RMK AO1 PK WND 04023/0849 SLP108 T01620055 58006", "CWZG 300900Z AUTO 19001KT 02/M03 RMK AO1 SLP156 T00191027 56002", "CWZL 300900Z AUTO 16009KT 08/08 RMK AO1 SLP096 T00810076 57004", "CWZN 300900Z AUTO 32013KT 02/M02 RMK AO1 PK WND 32018/0812 SLP217 T00201021 53011", "CWZO 300900Z AUTO 16011KT RMK AO1", "CWZQ 300900Z AUTO 14004KT 01/M03 RMK AO1 SLP228 T00091029 56016", "CWZW 300900Z AUTO 23002KT 06/01 RMK AO1 SOG 04 2005 SLP104 T00590005", "CXAF 300900Z AUTO 13009KT 05/M07 RMK AO1 T00451073", "CXAG 300900Z AUTO 12009KT 05/M06 RMK AO1 T00491055", "CXAJ 300900Z AUTO 11006KT 06/M08 RMK AO1 T00571084", "CXAK 300900Z AUTO 14015KT 07/M09 RMK AO1 PK WND 15021/0859 T00661088", "CXAT 300900Z AUTO 00000KT M06/M07 RMK AO1 2PAST HR SOG 11 3001 SLP213 P0001 T10611073 50003", "CXBA 300900Z AUTO 16008KT 03/M10 RMK AO1 T00341095", "CXBI 300900Z AUTO 13005KT 08/08 RMK AO1 SLP000 T00820080 56019", "CXBK 300900Z AUTO 07004KT M00/M03 RMK AO1 SOG 01 3001 SLP236 T10011029", "CXBO 300900Z AUTO 07009KT 08/05 RMK AO1 T00840052", "CXBR 300900Z AUTO 32007KT RMK AO1", "CXBW 300900Z AUTO 10008KT 05/M00 RMK AO1 T00491003", "CXCA 300900Z AUTO 36014G19KT 01/M00 RMK AO1 5PAST HR 6017 PK WND 00021/0835 SLP014 P0002 T00091001 50005", "CXCD 300900Z AUTO 02004KT 11/M02 RMK AO1 T01101020", "CXCK 300900Z AUTO 29002KT 01/M01 RMK AO1 SOG 30 5004 SLP080 T00091012", "CXCP 300900Z AUTO 10006KT 04/M02 RMK AO1 T00411019", "CXCS 300900Z AUTO 10006KT 01/M09 RMK AO1 T00111086", "CXDB 300900Z AUTO 17010KT 07/M02 RMK AO1 T00651021", "CXDE 300900Z AUTO 24003KT M03/M04 RMK AO1 SOG 17 5000 SLP182 T10291036", "CXDI 300900Z AUTO 20003KT 10/09 RMK AO1 1PAST HR 6018 SLP983 P0000 T00990086 50001", "CXDK 300900Z AUTO M01/M03 RMK AO1 SLP124 T10121026 53005", "CXDW 300900Z AUTO 33016KT 02/M00 RMK AO1 SOG 01 3001 PK WND 33019/0820 SLP191 T00201002", "CXEA 300900Z AUTO 36004KT 01/M05 RMK AO1 SLP128 T00081047 56006", "CXEC 300900Z AUTO 16013G19KT 10/M08 RMK AO1 PK WND 16022/0815 SLP165 T01001075 58004", "CXET 300900Z AUTO 13011KT 09/08 RMK AO1 SLP989 T00930084 58023", "CXFM 300900Z AUTO 11017KT 07/M01 RMK AO1 PK WND 12025/0808 T00721014", "CXFR 300900Z AUTO 09012KT 12/M02 RMK AO1 T01211024", "CXGH 300900Z AUTO 33009KT 02/M00 RMK AO1 SLP184 T00191002 55000", "CXHA 300900Z AUTO 16001KT 05/04 RMK AO1 SLP973 T00500035 58024", "CXHD 300900Z AUTO 13009KT 03/M06 RMK AO1 T00251055", "CXHM 300900Z AUTO 07001KT 07/06 RMK AO1 SLP989 T00720064 58021", "CXHP 300900Z AUTO 08008KT 06/M02 RMK AO1 T00561020", "CXHR 300900Z AUTO 12017KT 04/M04 RMK AO1 PK WND 12021/0835 T00441042", "CXIB 300900Z AUTO 24002KT M03/M04 RMK AO1 SLP226 T10321041 56010", "CXKA 300900Z AUTO 08005KT 05/05 RMK AO1 4PAST HR 6017 SLP993 P0002 T00450052 50015", "CXKE 300900Z AUTO 08002KT 08/07 RMK AO1 SLP050 T00820069 57016", "CXKI 300900Z AUTO 13006KT 07/06 RMK AO1 3PAST HR 8012 SLP986 P0001 T00700064 50024", "CXKM 300900Z AUTO 13009KT 03/M07 RMK AO1 T00291067", "CXKT 300900Z AUTO 13001KT 02/01 RMK AO1 SLP218 T00180005 52001", "CXLB 300900Z AUTO 12009KT 05/03 RMK AO1 SLP218 T00530034 55003", "CXLL 300900Z AUTO M00/M03 RMK AO1 SOG 09 3002 SLP124 T10031031", "CXMD 300900Z AUTO 34009KT 02/M00 RMK AO1 SOG 01 3002 SLP184 T00211002", "CXMG 300900Z AUTO 08005KT 06/M03 RMK AO1 T00641029", "CXMI 300900Z AUTO 09004KT 04/02 RMK AO1 SLP218 T00360023 56007", "CXMM 300900Z AUTO 09006KT 03/M08 RMK AO1 SLP211 T00321080 56001", "CXMO 300900Z AUTO 15014KT 08/M05 RMK AO1 PK WND 14020/0835 T00801048", "CXMY 300900Z AUTO M02/M02 RMK AO1 T10161017", "CXNM 300900Z AUTO 09003KT M01/M06 RMK AO1 SOG 69 T10121059", "CXNP 300900Z AUTO 18006KT 02/01 RMK AO1 SLP214 T00240006 56002", "CXOL 300900Z AUTO 13009KT 04/M04 RMK AO1 T00441037", "CXOX 300900Z AUTO 18003KT M02/M05 RMK AO1 SLP252 T10201050 57004", "CXOY 300900Z AUTO 14013KT 05/M09 RMK AO1 PK WND 14017/0840 T00461087", "CXPA 300900Z AUTO 08008KT 10/M01 RMK AO1 T01031012", "CXPC 300900Z AUTO 10/08 RMK AO1 SLP985 T00960081 57014", "CXPL 300900Z AUTO 10012KT 05/M06 RMK AO1 T00521059", "CXRB 300900Z AUTO 10013KT M07/M09 RMK AO1 SOG 01 8005 SLP227 T10661089", "CXRH 300900Z AUTO 18001KT M01/M04 RMK AO1 SLP235 T10091038 52007", "CXRL 300900Z AUTO 12007KT 03/M07 RMK AO1 T00261074", "CXSC 300900Z AUTO 10011KT 04/M04 RMK AO1 T00391040", "CXSE 300900Z AUTO 02002KT M10/M12 RMK AO1 SOG 22 4000 SLP223 T10951119", "CXSH 300900Z AUTO 08009KT 06/06 RMK AO1 6PAST HR 6012 SLP126 P0002 T00620055 50022", "CXSL 300900Z AUTO 13010KT 07/M08 RMK AO1 T00681084", "CXSP 300900Z AUTO 12008KT 05/M09 RMK AO1 T00531088", "CXTD 300900Z AUTO 20004KT 01/M02 RMK AO1 SLP240 T00051021 55007", "CXTH 300900Z AUTO 14015KT 06/M08 RMK AO1 PK WND 14017/0853 T00571084", "CXTN 300900Z AUTO 21009KT M04/M08 RMK AO1 SOG 43 8002 SLP216 T10411079", "CXTO 300900Z AUTO 09/08 RMK AO1 SLP992 T00850077 58020", "CXTP 300900Z AUTO 33005KT M00/M02 RMK AO1 SLP188 T10021015 53010", "CXTV 300900Z AUTO 36006KT M17/M19 RMK AO1 SOG 46 6002 SLP227 T11681187", "CXVM 300900Z AUTO 15007KT 05/M08 RMK AO1 T00461082", "CXVN 300900Z AUTO 16005KT 11/09 RMK AO1 SLP987 T01090086 58022", "CXVW 300900Z AUTO 14015KT 12/M04 RMK AO1 PK WND 14018/0844 SLP102 T01201035 56011", "CXWB 300900Z AUTO 06003KT M06/M08 RMK AO1 SOG 16 3002 SLP222 T10591076", "CXWM 300900Z AUTO 16009KT 06/M02 RMK AO1 T00641015", "CXWN 300900Z AUTO 33005KT 02/M01 RMK AO1 SLP180 T00221008 53002", "CXYH 300900Z AUTO 33002KT 04/M02 RMK AO1 SLP111 T00381017 53006", "CXZC 300900Z AUTO 06004KT 03/03 RMK AO1 6PAST HR SOG 07 6020 SLP038 P0002 T00320028 50011", "CXZV 300900Z AUTO 30002KT M02/M03 RMK AO1 SLP209 T10181030 56007", "CYAH 300900Z AUTO 03005KT 9SM FEW120 SCT160 SCT210 04/M02 A2988 RMK SLP133", "CYAM 300945Z 14007KT 3SM -DZ BR FEW003 BKN006 OVC014 06/06 A2933 RMK ST2CU5CU1 VIS VRB 2-4 CIG VRB 4-8 OCNL -SHRA SLP938", "CYAT 301004Z AUTO 03012G17KT 8SM -RA -UP FEW023 SCT028 OVC045 01/01 A2973 RMK SLP069", "CYAY 300900Z AUTO 28004KT 9SM CLR M03/M04 A3020 RMK SLP231", "CYBC 300900Z AUTO 08010KT 9SM CLR 05/02 A3009 RMK SLP192", "CYBG 300900Z 09014KT 25SM OVC080 07/03 A2995 RMK AS8 DENSITY ALT -323FT SLP146", "CYBK 300945Z 32007KT 300V020 1 1/4SM BR OVC003 M08/M09 A3024 RMK ST8 SLP243", "CYBQ 300922Z AUTO 30003KT 9SM OVC024 00/00 A3019 RMK SLP246", "CYBR 300900Z 35010KT 15SM SKC 01/M01 A3011 RMK SLP214", "CYBU 300900Z AUTO 28002KT 9SM CLR M02/M04 A3023 RMK SLP255", "CYBW 300900Z AUTO 14004KT 9SM CLR 06/M03 A2997 RMK SLP158", "CYBX 300900Z 05006KT 15SM SKC M03/M04 A3020 RMK SLP232", "CYCA 301004Z AUTO 03003KT 010V090 1/2SM SN VV003 M04/M05 A3026 RMK SLP250", "CYCB 300915Z 33005KT 12SM -SN FEW005 OVC016 M10/M11 A3015 RMK SF1SC7 SLP215", "CYCK 300930Z AUTO 16004KT 5/8SM BR BKN002 05/05 A2944 RMK SLP976", "CYCO 300933Z 32002KT 3SM BR OVC003 M13/M15 A3023 RMK ST8 SLP243", "CYCY 300900Z AUTO 34004KT 9SM BKN060 OVC085 M08/M09 A3021 RMK SLP235", "CYDB 300900Z AUTO 00000KT 9SM CLR M01/M04 A2967 RMK SLP087", "CYDF 300900Z 22008KT 15SM FEW057 00/00 A3022 RMK SC1 SLP237", "CYDL 300900Z AUTO 00000KT 9SM SCT100 BKN120 04/01 A2982 RMK SLP106", "CYDN 300900Z AUTO 25008KT 9SM CLR M00/M02 A3015 RMK SLP226", "CYDP 300924Z 06003KT 3/4SM -SHSN BR VV004 M04/M05 A3024 RMK FG8 SLP244", "CYDQ 300900Z AUTO 00000KT 9SM CLR 06/00 A2980 RMK SLP102", "CYEG 300900Z 13014G19KT 20SM FEW230 07/M05 A2999 RMK CI2 SLP167", "CYEK 301001Z AUTO 18006KT 9SM SCT014 OVC033 M05/M06 A3023 RMK SLP241", "CYEN 300900Z AUTO 01003KT 9SM CLR M00/M01 A3016 RMK SLP236", "CYER 300925Z AUTO 36006KT 9SM BKN005 M04/M04 A3013 RMK SLP205", "CYET 300900Z AUTO 03006KT 9SM CLR 09/M02 A2989 RMK SLP126", "CYEV 300900Z 22002KT 15SM SKC M14/M15 A3014 RMK SLP214", "CYFB 300900Z VRB02KT 30SM BKN052 M04/M05 A3022 RMK SC7 SLP238", "CYFC 300900Z AUTO 00000KT 9SM BKN120 OVC140 06/03 A3013 RMK SLP206", "CYFS 300900Z 35004KT 15SM FEW170 FEW250 04/M03 A2987 RMK AC1CI1 AC TR SLP125", "CYFT 300900Z 04002KT 1/2SM -SN FZFG VV003 M05/M05 A3023 RMK FG8 SLP244", "CYGL 300900Z 07009KT 15SM BKN150 OVC200 05/M00 A2978 RMK AC7CI1 SLP095", "CYGP 300900Z VRB02KT 15SM BKN250 M02/M02 A3017 RMK CS7 CC ASOCTD SLP219", "CYGR 300900Z 10005KT 20SM SCT270 01/M01 A3020 RMK CI3 SLP229", "CYGV 300900Z AUTO 04002KT 9SM CLR M02/M04 A3018 RMK SLP224", "CYGW 300900Z AUTO VRB03KT 9SM OVC081 06/01 A2987 RMK SLP117", "CYGX 300900Z 06004KT 15SM SCT040 M02/M04 A3015 RMK SC3 SLP223", "CYHD 300940Z AUTO 02008G17KT 340V050 9SM OVC091 01/M03 A2981 RMK SLP117", "CYHE 300900Z AUTO 08006KT 9SM CLR 13/07 A2988 RMK SLP121", "CYHK 300900Z AUTO 21005KT 9SM OVC004 M10/M11 A3015 RMK SLP217", "CYHM 300900Z 14008KT 15SM FEW032 FEW110 09/08 A2948 RMK SC1AC1 SC TR AC TR SLP986", "CYHU 300946Z AUTO 05009KT 6SM -RA BR SCT033 OVC047 07/06 A2979 RMK PCPN 0.8MM PAST HR SLP092", "CYHY 300900Z 16011KT 15SM SCT230 08/M05 A2995 RMK CI3 SLP150", "CYHZ 300945Z 13005KT 1/4SM R23/1000V1600FT/U R14/2600VP6000FT/N FG BKN250 00/00 A3018 RMK FG2CI5 SLP226", "CYIN 300900Z AUTO VRB03KT 9SM CLR 03/M02 A2985 RMK SLP105", "CYIO 300953Z AUTO 20004KT 6SM -SN OVC035 M07/M07 A3018 RMK SLP229", "CYIV 300900Z AUTO 35008KT 9SM CLR M00/M02 A3008 RMK SLP204", "CYJT 300900Z 35004KT 15SM FEW003 FEW019 M02/M04 A3023 RMK ST1SC1 ST TR SC TR SLP240", "CYKA 300900Z 09004KT 050V210 40SM SKC 12/02 A2983 RMK SLP104", "CYKF 300916Z AUTO 18004KT 9SM -RA FEW005 BKN018 BKN049 OVC086 09/08 A2947 RMK SLP986", "CYKJ 300900Z AUTO 00000KT 9SM CLR M04/M05 A3019 RMK SLP252", "CYKL 300924Z AUTO 13002KT 9SM CLR M02/M02 A3007 RMK SLP216", "CYKP 300925Z AUTO 01012G19KT 350V060 6SM -RA BR OVC005 01/01 A2967 RMK PCPN 0.5MM PAST HR SLP059", "CYKY 300900Z 15011G16KT 15SM FEW220 04/M08 A3012 RMK CI1 CI TR SLP216", "CYLL 300900Z AUTO 14011KT 9SM CLR 04/M09 A3012 RMK SLP221", "CYLW 300900Z AUTO 00000KT 9SM CLR 09/04 A2985 RMK SLP108", "CYMA 300900Z 36009KT 15SM BKN072 OVC120 05/01 A2973 RMK AC6AS2 SLP091", "CYMH 300900Z AUTO 25003KT 9SM CLR M04/M05 A3021 RMK SLP233", "CYMM 300900Z AUTO 08007KT 9SM CLR 03/M08 A3011 RMK SLP213", "CYMO 300900Z AUTO 07011KT 9SM -RA BKN027 BKN033 OVC042 04/03 A2962 RMK PCPN 0.5MM PAST HR SLP033", "CYMT 300918Z AUTO 14009G16KT 9SM -RA OVC030 07/02 A2978 RMK SLP098", "CYMX 300917Z 07006KT 050V110 10SM -RA BKN006 BKN016 OVC024 06/06 A2979 RMK SF6SC1SC1 SLP091", "CYNA 300900Z AUTO 00000KT 9SM CLR M01/M02 A3019 RMK SLP227", "CYNE 300900Z AUTO 33004KT 9SM CLR M02/M04 A3014 RMK SLP221", "CYNM 300954Z AUTO 12008KT 9SM -RA FEW007 SCT010 BKN019 OVC032 06/05 A2963 RMK SLP047", "CYOD 300900Z 12008KT 15SM BKN090 05/M08 A3015 RMK AC6 DENSITY ALT 731FT SLP224", "CYOJ 300900Z AUTO 11005KT 9SM CLR 10/M04 A2992 RMK SLP144", "CYOO 300918Z AUTO 10007KT 9SM BKN033 09/09 A2951 RMK SLP997", "CYOW 300900Z 08015KT 15SM FEW006 OVC027 07/06 A2969 RMK SF1SC7 SLP057", "CYPA 300900Z 13008KT 15SM SKC M02/M04 A3024 RMK SLP260", "CYPD 300924Z AUTO VRB02KT 9SM SCT002 M03/M04 A3018 RMK SLP230", "CYPE 300900Z 10008KT 15SM BKN230 10/M03 A2987 RMK CI5 SLP124", "CYPH 300900Z AUTO 06014KT 9SM OVC014 01/M00 A3013 RMK SLP207", "CYPL 301002Z AUTO 01009G22KT 340V050 5SM -SN OVC014 M01/M01 A2980 RMK SLP113", "CYPO 300900Z AUTO 02011KT 9SM FEW008 OVC120 M02/M03 A2999 RMK SLP162", "CYPQ 300900Z AUTO 13004KT 080V180 9SM OVC004 09/09 A2955 RMK SLP012", "CYPR 300939Z AUTO 33006KT 260V350 9SM -RA OVC086 09/06 A2981 RMK SLP097", "CYPX 300918Z AUTO 01009KT 9SM SCT016 BKN230 M03/M05 A3021 RMK SLP235", "CYPY 300900Z AUTO 11009KT 9SM OVC210 03/M06 A3012 RMK SLP212", "CYQA 300943Z AUTO 12007G15KT 9SM OVC004 10/09 A2948 RMK SLP990", "CYQB 300907Z 07010KT 6SM RA BR BKN023 OVC050 07/05 A2997 RMK SC6SC2 SLP152", "CYQD 300900Z AUTO 32005KT 9SM CLR 00/M01 A3020 RMK SLP242", "CYQF 300900Z AUTO 13008KT 9SM CLR 06/M04 A2999 RMK SLP169", "CYQG 300900Z AUTO 12002KT 5SM BR BKN081 BKN180 05/05 A2944 RMK SLP971", "CYQH 300900Z 13003KT 080V180 20SM SCT140 07/M00 A2978 RMK AC4 SLP102", "CYQI 300921Z 12008KT 15SM FEW008 BKN130 04/02 A3012 RMK SF1AC7 SF TR SLP202", "CYQK 300900Z 36011G17KT 20SM SCT140 BKN230 01/M05 A2988 RMK AC3CI3 SLP136", "CYQL 300900Z AUTO 12007KT 9SM CLR 06/M01 A2997 RMK SLP153", "CYQM 300900Z VRB02KT 15SM FEW035 SCT180 SCT220 00/M01 A3015 RMK SC1AC3CI1 SC TR SLP212", "CYQQ 300900Z 00000KT 20SM BKN100 BKN200 12/08 A2981 RMK AC5CI2 DENSITY ALT 11FT SLP096", "CYQR 300900Z 08004KT 15SM SKC 03/M05 A3017 RMK SLP238", "CYQT 300948Z 36005KT 290V040 15SM FEW037 OVC049 02/M01 A2951 RMK SC2SC6 SLP004", "CYQU 300900Z 06006KT 25SM SCT250 08/M00 A2980 RMK CI4 SLP100", "CYQV 300900Z AUTO 28006KT 9SM FEW140 M02/M03 A3018 RMK SLP241", "CYQW 300900Z AUTO 12009KT 9SM CLR 02/M06 A3018 RMK SLP240", "CYQX 300900Z 34012KT 20SM SCT096 M01/M03 A3013 RMK AC3 SLP211", "CYQY 300900Z 00000KT 15SM SCT220 M03/M04 A3020 RMK CI3 SLP230", "CYQZ 300900Z AUTO VRB02KT 9SM CLR 07/03 A2977 RMK SLP088", "CYRB 300900Z 09012KT 9SM -SN SCT044 OVC078 M07/M09 A3018 RMK SC4AC4 SLP231", "CYRJ 300900Z 14005KT 25SM -SHRA BKN037 08/04 A2989 RMK SC7 CVCTV CLD EMBD SLP127", "CYRL 300900Z 36007KT 15SM FEW240 00/M05 A2993 RMK CI1 CI TR SLP155", "CYRQ 300947Z AUTO 07009G17KT 9SM -RA BKN008 BKN020 OVC025 07/06 A2988 RMK PCPN 1.0MM PAST HR SLP121", "CYRT 300900Z 00000KT 5SM BR FEW003 BKN100 M07/M08 A3024 RMK SF2AC5 SLP245", "CYRV 300900Z AUTO VRB02KT 9SM OVC160 05/02 A2995 RMK SLP149", "CYSB 300900Z 14008KT 3/4SM R22/4500VP6000FT/D -RA BR VV001 08/08 A2945 RMK FG8 CIG RAG SLP984", "CYSC 300936Z AUTO 15005KT 9SM SCT032 OVC066 06/04 A2987 RMK SLP123", "CYSF 300900Z AUTO 00000KT 9SM CLR M05/M06 A3023 RMK SLP254", "CYSJ 300900Z VRB02KT 15SM SCT120 BKN220 03/03 A3014 RMK AC4CI3 SLP211", "CYSM 300900Z 14007KT 15SM SCT130 BKN220 05/M06 A3010 RMK AC3CI3 SLP206", "CYTE 300900Z AUTO 27012KT 9SM CLR M07/M07 A3022 RMK SLP242", "CYTH 300900Z 35003KT 15SM BKN065 01/M01 A3017 RMK SC5 SLP230", "CYTL 300900Z AUTO 01006KT 340V050 9SM SCT140 M01/M04 A2999 RMK SLP170", "CYTR 300900Z 05004KT 15SM OVC010 10/09 A2959 RMK ST8 DENSITY ALT 238FT SLP021", "CYTS 301003Z 11006KT 2 1/2SM -DZ BR OVC003 06/06 A2946 RMK ST8 SLP989", "CYTZ 300946Z AUTO 08009G19KT 050V120 5SM BR BKN004 08/08 A2949 RMK SLP991", "CYUA 300900Z AUTO 31003KT 290V360 ////SM OVC003 ///// A////", "CYUL 300948Z 05011KT 15SM OVC050 07/06 A2978 RMK SC8 SLP087", "CYUX 300954Z AUTO 28005KT 9SM BKN003 OVC026 M05/ A3014 RMK DP MISG SLP209", "CYUY 300900Z 13011KT 3SM -RA BR OVC007 06/06 A2955 RMK ST8 SLP018", "CYVC 300900Z 00000KT 15SM SKC M02/M04 A3024 RMK SLP261", "CYVL 300900Z AUTO 34004KT 9SM CLR M07/M09 A3004 RMK SLP196", "CYVM 300900Z AUTO 00000KT 9SM OVC008 M08/M09 A3020 RMK SLP229", "CYVO 300928Z AUTO 14011G19KT 9SM OVC011 06/05 A2959 RMK SLP036", "CYVP 301003Z 04004KT 360V070 8SM -RA BKN005 OVC016 00/00 A3021 RMK ST6SC2 SLP235", "CYVQ 300900Z 05004KT 30SM BKN080 BKN140 00/M05 A3002 RMK AC6AC1 SLP174", "CYVR 300900Z 10005KT 15SM SCT230 11/09 A2984 RMK CI3 SLP108", "CYVT 300900Z AUTO 19003KT 9SM CLR 00/M06 A3016 RMK SLP236", "CYVV 300920Z 00000KT 4SM BR OVC014 07/07 A2942 RMK ST8 SLP970", "CYWE 300900Z AUTO 14008KT 9SM OVC066 04/M03 A3001 RMK ICE MISG SLP184", "CYWG 300900Z 34008KT 15SM SKC 00/M01 A3003 RMK SLP182", "CYWK 300900Z AUTO 15003KT 9SM CLR M02/M03 A3006 RMK SLP202", "CYWL 300900Z 08005KT 15SM SKC 12/00 A2983 RMK SLP099 DENSITY ALT 3600FT", "CYXC 300900Z 25005KT 15SM FEW015 09/M00 A2996 RMK FU1 FU TR FU VIS SE 3 SLP143", "CYXE 300900Z 10004KT 15SM SKC 01/M04 A3018 RMK SLP241", "CYXH 300900Z AUTO 06007KT 9SM CLR 08/M03 A3003 RMK SLP175", "CYXJ 300900Z 08008KT 15SM SCT160 12/M01 A2981 RMK AC3 SLP103 DENSITY ALT 2600FT", "CYXL 300900Z 36012G18KT 340V050 15SM -SN SCT010 BKN040 OVC080 00/M01 A2979 RMK SF3SC2AC3 SLP109", "CYXR 300900Z AUTO 13010G15KT 9SM OVC005 07/07 A2950 RMK SLP997", "CYXS 300900Z AUTO 00000KT 9SM CLR 08/02 A2975 RMK SLP083", "CYXT 300900Z VRB02KT 15SM OVC110 09/04 A2981 RMK AC8 SLP099", "CYXU 300900Z 16005KT 2 1/2SM -RA BR OVC002 09/09 A2945 RMK FG4SF4 SLP977", "CYXX 300900Z VRB02KT 15SM FEW220 11/09 A2985 RMK CI1 SLP111", "CYXY 300900Z 17014KT 15SM BKN110 BKN220 08/02 A2970 RMK AC5CI2 SLP079", "CYYB 300903Z AUTO 13008KT 9SM BKN005 OVC009 08/08 A2950 RMK SLP000", "CYYC 300900Z 13009KT 15SM SKC 08/M04 A2997 RMK SLP159", "CYYD 300900Z AUTO 00000KT 9SM CLR 07/01 A2979 RMK SLP095", "CYYE 300900Z 11004KT 090V160 15SM FEW250 12/00 A2978 RMK CI2 SLP093", "CYYF 300900Z VRB02KT 15SM SKC 10/04 A2984 RMK SLP104", "CYYG 300900Z 12002KT 15SM SCT200 M00/M01 A3018 RMK CI4 SLP223", "CYYH 300900Z 22009KT 12SM -SN FEW006 OVC015 M09/M10 A3016 RMK ST2SC6 SLP217", "CYYJ 300900Z 23005KT 30SM BKN250 11/07 A2984 RMK CI5 SLP106", "CYYL 300900Z AUTO 28004KT 9SM BKN060 M03/M04 A3021 RMK SLP254", "CYYN 300900Z AUTO 14010KT 9SM CLR 01/M05 A3013 RMK ICE MISG SLP222", "CYYQ 300912Z 06003KT 10SM SCT002 BKN038 OVC075 M05/M06 A3023 RMK SC4SC3AC1 SLP241", "CYYR 300900Z 28003KT 15SM FEW150 FEW240 M02/M04 A3022 RMK AC1CI2 DENSITY ALT -2168FT FROIN SLP234", "CYYT 300900Z 34017G26KT 15SM SCT019 BKN064 00/M02 A3000 RMK SC3SC4 SLP169", "CYYU 300930Z 08006KT 2 1/2SM -RA BR OVC004 05/05 A2947 RMK RA4SC4 SLP990", "CYYY 300900Z 15013G19KT 15SM SCT160 BKN220 08/02 A3006 RMK AC3CI3 SLP182", "CYYZ 300900Z 10007KT 12SM FEW003 FEW035 BKN110 09/09 A2949 RMK SF1SC1AC5 SF TR SLP989", "CYZE 300950Z AUTO 16009KT 6SM BR OVC001 07/06 A2938 RMK SLP956", "CYZF 300900Z 14018G24KT 15SM FEW095 OVC110 07/M05 A2999 RMK AC1AC8 AC TR SLP167", "CYZH 300900Z AUTO 10013KT 9SM CLR 08/M06 A2997 RMK SLP160", "CYZP 300900Z AUTO 15004KT OVC048 08/07 A2978 RMK WX MISG VIS MISG SLP085", "CYZR 301005Z AUTO 11002KT 1/2SM FG FEW012 BKN110 OVC150 05/05 A2942 RMK SLP969", "CYZS 300940Z 34009KT 15SM BKN050 BKN210 M15/M16 A3027 RMK SC7CI1 CI TR SLP259", "CYZT 300900Z 00000KT 15SM OVC096 11/09 A2980 RMK AC8 SLP094", "CYZV 300900Z 00000KT 30SM FEW085 BKN240 M03/M03 A3014 RMK AC1CI6 SLP212", "CYZX 300900Z 06004KT 15SM SCT150 BKN250 04/M00 A3018 RMK AC4CI3 DENSITY ALT -1496FT SLP219", "CYZY 300900Z AUTO VRB02KT 9SM CLR 02/M00 A2981 RMK SLP113", "CZBF 300900Z AUTO 00000KT 9SM FEW180 M00/M01 A3018 RMK SLP223", "CZCP 300900Z AUTO 04003KT 340V100 ////SM ////// M12/M13 A3019", "CZCR 300900Z AUTO 11004KT 02/02 RMK AO1 SLP214 T00180015 57005", "CZDB 300900Z AUTO 01001KT M02/M04 RMK AO1 SLP228 T10211039 56004", "CZEL 300900Z AUTO 15008KT 08/08 RMK AO1 SLP989 T00830076 55015", "CZEV 300900Z AUTO 04004KT M12/M14 RMK AO1 SOG 51 8006 SLP217 T11221140", "CZFS 300900Z AUTO 33004KT 04/M02 RMK AO1 SLP124 T00421023 56003", "CZHY 300900Z AUTO 16009KT 08/M04 RMK AO1 SLP146 T00831043 57006", "CZKD 300900Z AUTO 01001KT M03/M05 RMK AO1 SOG 09 5001 SLP230 T10311046", "CZMD 300900Z AUTO 01005KT 9SM CLR M01/M04 A3001 RMK SLP179", "CZMJ 300900Z AUTO 32001KT M02/M05 RMK AO1 SLP245 T10171049 50001", "CZOL 300900Z AUTO 16008KT 10/M10 RMK AO1 T00981099", "CZPC 300900Z AUTO 26010KT 9SM CLR 04/M00 A2997 RMK SLP151", "CZPS 300900Z AUTO 14010KT 05/M05 RMK AO1 T00511051", "CZSJ 300900Z AUTO 03002KT 9SM CLR M03/M05 A3002 RMK SLP184", "CZSM 300900Z AUTO 13005KT 05/M06 RMK AO1 SLP208 T00541063 56009", "CZSP 300900Z AUTO 14002KT M01/M02 RMK AO1 SLP225 T10101019 55012", "CZTB 300900Z AUTO 00003KT 03/M00 RMK AO1 SOG 01 6014 SLP010 T00261001 50001", "CZUM 300900Z AUTO 08004KT 9SM OVC096 04/M01 A3010 RMK SLP210", "CZVL 300900Z AUTO 15012G21KT 9SM CLR 09/M06 A2998 RMK SLP162", "CZZJ 300900Z AUTO 04005KT 08/M02 RMK AO1 SLP127 T00841023 56004", "DAAD 301000Z 32018KT 9000 FEW030 28/07 Q1016", "DAAE 301000Z 35007KT 8000 FEW013 SCT033 23/17 Q1015", "DAAG 301000Z 32005KT 250V010 9999 FEW023 23/17 Q1017", "DAAJ 301000Z 14011KT CAVOK 33/// Q1017", "DAAP 301000Z 10004KT CAVOK 36/M02 Q1014", "DAAS 301000Z 30010KT 9999 SCT026 22/05 Q1017", "DAAT 301000Z 25005KT 210V270 9999 FEW046 SCT233 33/// Q1020", "DAAV 301000Z 29008KT 9999 FEW023TCU BKN033 21/15 Q1016", "DAAY 301000Z 03008KT 9999 SCT030 22/04 Q1023", "DABB 301000Z 22011KT 9999 FEW026 26/17 Q1012", "DABC 301000Z 36013KT 9999 FEW030 23/11 Q1016", "DABS 301000Z 29005KT 9999 SCT040 26/06 Q1015", "DABT 301000Z 30005KT 260V010 9999 FEW026 27/07 Q1016", "DAFH 301000Z 31014KT 8000 SCT040 29/01 Q1017", "DAOB 301000Z 34006KT CAVOK 22/06 Q1020", "DAOF 301000Z 13003KT CAVOK 35/04 Q1014", "DAOI 301000Z 24004KT CAVOK 26/13 Q1017", "DAOL 301000Z 29010KT 9999 FEW026 SCT200 28/13 Q1016", "DAON 301000Z 01003KT CAVOK 28/10 Q1016", "DAOO 301000Z 21006KT 9999 FEW033 BKN233 29/11 Q1016", "DAOR 301000Z 12010KT 4000 DU NSC 30/03 Q1017", "DAOV 301000Z 36003KT CAVOK 27/08 Q1017", "DAOY 301000Z 32011KT CAVOK 20/04 Q1020", "DATM 301000Z VRB03KT CAVOK 40/// Q1011", "DAUA 301000Z 11018KT CAVOK 39/// Q1011", "DAUB 301000Z 31024G35KT 3000 DRSA NSC 31/05 Q1010", "DAUE 301000Z 06004KT 1500 HZ NSC 33/04 Q1015", "DAUG 301000Z 33010KT CAVOK 32/02 Q1015", "DAUH 301000Z 32013KT 4500 SA NSC 36/05 Q1011", "DAUI 301000Z 10016KT CAVOK 38/// Q1011", "DAUK 301000Z 34012KT 6000 NSC 34/09 Q1011", "DAUL 301000Z 33012KT 9999 FEW033 SCT200 26/06 Q1017", "DAUO 301000Z 35016KT 3000 SA NSC 34/07 Q1010", "DAUT 301000Z 02005KT CAVOK 35/// Q1013", "DAUU 301000Z 36010KT 6000 NSC 34/05 Q1012", "DAUZ 301000Z 14004KT 110V220 CAVOK 33/M02 Q1015", "DBBB 300900Z 36004KT 9999 FEW010 27/23 Q1011 NOSIG", "DFFD 300900Z 24009KT CAVOK 27/20 Q1013 NOSIG", "DFOO 300900Z 18011KT 9999 FEW020 24/20 Q1015", "DGAA 300900Z 26009KT CAVOK 26/22 Q1013 NOSIG", "DIAP 301000Z VRB02KT 9999 FEW012 BKN025 28/28 Q1013 NOSIG", "DIBK 300900Z 06006KT 8000 TS OVC011 FEW020CB 25/24 Q1017 NOSIG", "DIYO 300900Z 24004KT 9999 BKN011 28/24 Q1015 TEMPO RA", "DNAA 300900Z 04004KT CAVOK 28/23 Q1015 NOSIG", "DNEN 300900Z 26008KT 9999 BKN012 29/24 Q1013 NOSIG", "DNGO 300900Z 21013KT CAVOK 32/21 Q1012", "DNIL 300900Z 00000KT 9999 FEW010 26/23 Q1014", "DNIM 300900Z 23009KT 9999 BKN011 29/26 Q1014", "DNKA 300900Z 27009KT CAVOK 29/21 Q1017 NOSIG", "DNKN 300900Z 23012KT CAVOK 29/18 Q1016 NOSIG", "DNMM 300900Z 30004KT 6000 FEW010 27/24 Q1014 NOSIG", "DNMN 300900Z 23004KT CAVOK 28/23 Q1014", "DNYO 300900Z 27015KT 9999 SCT014 36/22 Q1013", "DRRM 300900Z 28012KT CAVOK 31/19 Q1015", "DRRN 300900Z 24006KT CAVOK 35/14 Q1011 NOSIG", "DRRT 300900Z 26004KT CAVOK 33/19 Q1013", "DRZA 300900Z 18006KT CAVOK 36/06 Q1013", "DRZR 300900Z VRB02KT CAVOK 36/14 Q1014", "DTKA 301000Z 25006KT 190V290 9999 FEW020 23/14 Q1012 NOSIG", "DTMB 301000Z 16002KT 8000 FEW002 SCT040 26/14 Q1012", "DTNH 301000Z 12004KT 060V170 CAVOK 25/15 Q1013", "DTTA 301000Z 26009KT 220V290 9999 SCT030 25/16 Q1012", "DTTB 301000Z 25005KT 220V290 9999 SCT020 BKN030 21/17 Q1011", "DTTD 301000Z VRB08KT 9999 FEW026 35/00 Q1011", "DTTF 301000Z 07011KT 050V110 8000 SCT026 31/09 Q1012", "DTTG 301000Z VRB04KT 9999 FEW030 32/08 Q1011 NOSIG", "DTTJ 301000Z 05010KT 9999 FEW023 25/16 Q1010 NOSIG", "DTTK 301000Z 36004KT 9999 BKN023 27/13 Q1012", "DTTL 301000Z VRB01KT 9999 SCT020 BKN040 25/16 Q1012", "DTTN 301000Z /////KT 9999 SCT020 SCT030 24/13 Q1012", "DTTR 301000Z 18014KT CAVOK 36/01 Q1012", "DTTX 301000Z 07009KT 040V100 9999 FEW020 SCT033 28/13 Q1010", "DTTZ 301000Z 06013KT 030V090 9999 SCT033 34/08 Q1009 NOSIG", "DXNG 300900Z 24008KT 210V280 CAVOK 26/17 Q1016", "DXSK 300900Z 28004KT CAVOK 26/21 Q////", "DXXX 300900Z 35006KT 8000 FEW011 25/23 Q1014 NOSIG", "EBAW 300950Z 10005KT 030V140 CAVOK 15/05 Q1023 NOSIG", "EBBE 300955Z AUTO 05009KT 9999 NCD 14/06 Q1022 BLU", "EBBL 300955Z AUTO 08006KT 9999 NCD 15/05 Q1023 BLU", "EBBR 300950Z 07005KT 030V110 9999 FEW031 15/07 Q1023 NOSIG", "EBCI 300950Z 05013KT 9999 FEW030 14/07 Q1022 NOSIG", "EBCV 300955Z AUTO 09009KT 9999 FEW047/// BKN100/// BKN110/// 16/08 Q1022 BLU", "EBDT 300955Z AUTO 09007KT 9999 NCD 16/06 Q1022 BLU", "EBFN 300955Z AUTO 10004KT 9999 NCD 15/09 Q1022 BLU", "EBFS 300955Z AUTO 05005KT 9999 FEW029/// SCT042/// 14/07 Q1021 BLU", "EBLB 300955Z AUTO 10009KT 9999 FEW034/// 13/02 Q1022 BLU", "EBLG 300950Z 07011KT 040V100 9999 FEW033 15/05 Q1022 NOSIG", "EBOS 300950Z VRB03KT CAVOK 15/07 Q1023 NOSIG", "EDAH 300950Z 32007KT 260V020 9999 FEW035 10/01 Q1023", "EDBC 300950Z AUTO 34005KT 270V080 9999 // FEW029/// 09/02 Q1024", "EDDB 300950Z AUTO 29007KT 250V330 CAVOK 11/M00 Q1024 NOSIG", "EDDC 300950Z AUTO 32007KT 240V360 9999 SCT026 BKN031 10/04 Q1023 NOSIG", "EDDE 300950Z AUTO 06003KT 330V100 CAVOK 11/06 Q1023 NOSIG", "EDDF 300950Z AUTO 03008KT 360V070 CAVOK 17/06 Q1021", "EDDG 300950Z AUTO VRB03KT CAVOK 13/04 Q1024 NOSIG", "EDDH 300950Z AUTO VRB04KT 9999 FEW038 10/01 Q1025 NOSIG", "EDDK 300950Z AUTO 04006KT 010V110 9999 FEW048 17/05 Q1022 NOSIG", "EDDL 300950Z AUTO 05007KT 350V110 CAVOK 16/08 Q1023 NOSIG", "EDDM 300950Z AUTO 08010KT 040V100 9999 FEW028 15/09 Q1020 NOSIG", "EDDN 300950Z AUTO VRB06KT CAVOK 16/05 Q1021 BECMG 06008KT", "EDDP 300950Z AUTO 30008KT 260V330 CAVOK 10/02 Q1024 NOSIG", "EDDR 300950Z AUTO 06009KT 020V090 9999 FEW036 OVC046 14/06 Q1020", "EDDS 300950Z AUTO 08008KT 040V110 9999 OVC046 14/06 Q1019", "EDDV 300950Z AUTO VRB04KT CAVOK 11/02 Q1025 NOSIG", "EDDW 300950Z AUTO VRB02KT 9999 FEW032 12/02 Q1025 NOSIG", "EDFH 300950Z 07009G19KT 010V120 9999 SCT040 13/04 Q1021", "EDFM 300950Z 07008KT 010V100 CAVOK 16/05 Q1021", "EDGS 300950Z 07007KT 040V110 9999 FEW026 11/04 Q1022", "EDHI 300950Z AUTO 26006KT 220V300 9999 // NCD 10/00 Q1025", "EDHK 300950Z 28007KT 250V320 9999 SCT041 09/M00 Q1025", "EDHL 300950Z VRB06KT 9999 FEW041 10/01 Q1025", "EDJA 300950Z 05015KT 9999 FEW023 BKN026 13/08 Q1018", "EDLN 300950Z 04005KT 320V120 CAVOK 15/08 Q1023", "EDLP 300950Z 08005KT 020V170 CAVOK 11/04 Q1024", "EDLV 300950Z VRB04KT CAVOK 14/08 Q1023", "EDLW 300950Z 07007KT 030V110 CAVOK 13/05 Q1023", "EDMA 300950Z 08009KT 9999 SCT028 BKN038 OVC049 13/08 Q1020", "EDMO 300950Z AUTO 06009KT 030V090 9999 // BKN027/// BKN032/// OVC038/// 13/07 Q1019", "EDNY 300950Z 05010KT 320V080 9999 BKN033 15/08 Q1018 RMK/J", "EDQM 300950Z 02008KT 330V060 CAVOK 09/02 Q1022", "EDSB 300950Z 04012KT 9999 FEW044 BKN049 16/08 Q1019", "EDTL 300950Z 05007KT 010V080 CAVOK 17/07 Q1018", "EDTY 300950Z 07011KT 9999 SCT047 13/05 Q1020", "EDVE 300950Z VRB05KT CAVOK 10/M01 Q1025", "EDVK 300950Z VRB03KT 9999 FEW026 11/05 Q1023", "EDWE 300950Z VRB04KT 9999 FEW030 11/03 Q1025", "EDXW 300950Z 30007KT 240V360 9999 FEW035 08/M01 Q1025", "EEEI 300951Z 27014KT 9999 BKN018 OVC021 05/02 Q1010 NOSIG", "EEKE 300950Z AUTO 27010KT 180V310 9999NDV BKN025 06/01 Q1012", "EEPU 300950Z AUTO 24011KT 9999 OVC026/// 06/01 Q1012", "EETN 300950Z 25016KT 9999 -SHRA SCT017 SCT024CB BKN036 06/02 Q1009 NOSIG", "EETU 300950Z 25018KT 9999 SCT043 10/M00 Q1011", "EFET 300950Z AUTO 19010KT 160V220 9999 BKN013 00/M03 Q1004", "EFHA 300950Z AUTO 21009KT 180V250 9999 BKN007 BKN048 05/02 Q1003", "EFHK 300950Z 21013KT 9999 -SHRA BKN012 FEW020TCU 05/03 Q1006 TEMPO BKN015", "EFIV 300950Z AUTO 19012KT 150V230 9999 OVC017 03/M01 Q1007", "EFJO 300950Z AUTO 16013KT 9999 RA OVC005 03/02 Q1006", "EFJY 300950Z AUTO 19007KT 160V230 9999 -SHRA OVC011 //////CB 04/02 Q1003", "EFKE 300950Z AUTO 09006KT 9999 -RA BKN009 04/02 Q1007", "EFKI 300950Z AUTO 10012KT 070V130 9999 -SN OVC007 02/00 Q1004", "EFKK 300950Z AUTO 34007KT 310V010 9999 -RA OVC004 02/02 Q1003", "EFKS 300950Z AUTO 11008KT 070V140 9999 OVC016 03/M00 Q1008", "EFKT 300950Z AUTO 18009KT 160V220 9999 OVC008 02/00 Q1006", "EFKU 300950Z AUTO 15010KT 9999 OVC004 03/03 Q1004", "EFLP 300950Z AUTO 20013KT 160V240 9999 BKN019 07/03 Q1007", "EFMA 300950Z AUTO 31012KT 250V330 9999 -RA FEW014 OVC043 04/01 Q1010", "EFMI 300950Z AUTO 23010KT 9999 +SHRA OVC026 //////CB 05/02 Q1004", "EFOU 300950Z AUTO 09010KT 7000 -RA OVC012 03/02 Q1005", "EFPO 300950Z AUTO 30010KT 9999 -RA OVC006 04/03 Q1005", "EFRO 300950Z AUTO 13008KT 9999 OVC006 02/01 Q1007", "EFSA 300950Z AUTO 17009KT 140V200 9999 OVC007 06/04 Q1006", "EFSI 300950Z AUTO 30005KT 4300 -SN OVC003 01/01 Q1003", "EFTP 300950Z AUTO 22009KT 180V250 9999 FEW043 06/03 Q1003", "EFTU 300950Z AUTO 28012KT 9999 OVC010 04/01 Q1006", "EFUT 300950Z AUTO 22014KT 190V250 9999 BKN030 07/M00 Q1006", "EFVA 300950Z AUTO 34014KT 9999 -RA OVC005 03/02 Q1005", "EGAA 300950Z AUTO 24011KT 9999 FEW007 SCT020 13/12 Q1015", "EGAC 300950Z AUTO 23009KT 9999 FEW011 SCT017 BKN021 14/12 Q1015", "EGAE 300950Z 21009KT 9999 VCSH FEW015TCU SCT022 16/13 Q1014", "EGBB 300950Z 17005KT 9000 FEW020 12/09 Q1021", "EGBJ 300950Z 15009KT 9000 VCSH FEW025 12/09 Q1021", "EGCC 300950Z AUTO 19009KT 160V240 9999 NCD 13/08 Q1019 TEMPO SHRA", "EGCK 300950Z 20011KT 9000 4500S OVC005 12/11 Q1018", "EGDM 300950Z AUTO 16009KT 9999 BR SCT011/// SCT087/// 12/09 Q1021", "EGDR 300950Z AUTO 22006KT 3300 // OVC001/// 12/12 Q1021", "EGDY 300950Z AUTO 13008KT 6000 // OVC009/// 11/10 Q1021", "EGEC 300950Z AUTO 16012KT 9999 -RA OVC003/// 11/11 Q1015", "EGEO 300950Z 11007KT 9999 -RA SCT005 BKN019 10/08 Q1015", "EGFF 300950Z AUTO 13007KT 0200 R12/P1500N -RA FG BKN001 OVC004 10/10 Q1021", "EGGD 300950Z AUTO 16007KT 7000 BKN024 OVC034 10/09 Q1021", "EGGP 300950Z 17010KT 8000 -RA BKN035 11/09 Q1019", "EGGW 300950Z AUTO 19007KT 150V220 9999 FEW023 14/08 Q1022", "EGHH 300950Z 15006KT 7000 -RA FEW012 11/09 Q1021", "EGHI 300950Z 16004KT 130V220 9999 SCT027 14/07 Q1022", "EGHQ 300950Z 22005KT 9999 BKN007 13/12 Q1021", "EGJA 300950Z 12003KT 4000 BR FEW000 SCT002 BKN042 10/10 Q1021", "EGJB 300950Z VRB02KT 7000 VCSH VCFG FEW000 SCT005 BKN013 12/11 Q1021", "EGJJ 300950Z 01003KT 300V110 8000 VCFG FEW000 13/13 Q1021", "EGKA 300950Z 12007KT 6000 NSC 13/10 Q1022", "EGKB 300950Z 14009KT 110V180 9999 FEW025 13/07 Q1022", "EGKK 300950Z 16007KT 130V190 9000 FEW028 15/08 Q1022", "EGLC 300950Z AUTO 15006KT 110V250 9999 NCD 17/08 Q1022", "EGLF 300950Z 14011KT 110V180 9999 FEW027 15/08 Q1021", "EGLL 300950Z AUTO 16009KT 120V200 9999 SCT027 15/08 Q1022", "EGMC 300950Z 12006KT 070V230 CAVOK 15/08 Q1022", "EGMD 300950Z 09008KT 9000 NSC 14/10 Q1023", "EGNH 300950Z 17013KT 7000 VCSH SCT005 BKN030 12/11 Q1018", "EGNJ 300950Z 20014KT 8000 NSC 15/11 Q1020", "EGNM 300950Z 21010KT 170V230 9999 -SHRA NSC 13/07 Q1019", "EGNR 300950Z 16011KT 9000 -RA FEW008 BKN034 12/09 Q1019", "EGNS 300950Z 19008KT 0400 -DZ FG BKN000 OVC001 11/11 Q1017 TEMPO 2000 BR BKN002", "EGNT 300950Z 16003KT 120V190 3000 -RA BR FEW005 BKN020 10/10 Q1018", "EGNV 300950Z 18011KT 3000 BR SCT006 12/10 Q1019", "EGNX 300950Z 20011KT CAVOK 13/08 Q1020", "EGOM 300950Z AUTO 15004KT 2400 RA OVC001/// 10/10 Q1017", "EGOP 300950Z AUTO 20011KT 0200 OVC001/// 12/11 Q1020", "EGOS 300950Z AUTO 15008KT 9999 // OVC031/// 11/09 Q1019", "EGOV 300950Z AUTO 20014KT 9999 // SCT002/// BKN007/// 12/12 Q1018", "EGPA 300950Z 14011KT 9999 -RA BKN005 OVC010 08/06 Q1016", "EGPB 300950Z 15007KT 9999 FEW030 BKN036 07/M00 Q1019", "EGPC 300950Z AUTO 14011KT 9999 BKN025/// OVC030/// 09/07 Q1016", "EGPD 300950Z 17011KT 5000 -RADZ BR OVC004 08/07 Q1017", "EGPE 300950Z 00000KT 9999 VCSH FEW012 SCT036 09/07 Q1015", "EGPF 300950Z AUTO 07005KT 040V100 4300 -DZ OVC004 09/08 Q1016 RERA REDZ", "EGPH 300950Z 05005KT 7000 VCSH BKN003 10/09 Q1016", "EGPI 300950Z AUTO 16008KT 3000 BR OVC001/// 10/10 Q1015", "EGPK 300950Z 15009KT 9999 FEW011 BKN016 12/10 Q1016", "EGPL 300950Z AUTO 17011KT 9999 -RA OVC001/// 11/10 Q1013", "EGPN 300950Z 00000KT 8000 -DZ BKN009 09/07 Q1017", "EGPO 300950Z AUTO 13003KT 9999 OVC010/// 10/08 Q1014", "EGPU 300950Z AUTO 14014KT 3500 RA OVC002/// 09/09 Q////", "EGQA 300950Z AUTO 09004KT 9999 OVC088/// 11/06 Q1015", "EGQK 300950Z AUTO 09003KT 9999 BKN052/// BKN083/// 12/08 Q1015", "EGQL 300950Z 05003KT 9999 -SHRA BKN008 BKN017 ////// 10/09 Q1017 RMK GRN", "EGQM 300950Z AUTO 17010KT 3000 -RA SCT003/// OVC042/// 10/09 Q1018", "EGQS 300950Z 13007KT 9999 FEW022 SCT055 BKN085 12/08 Q1015 NOSIG RMK BLU BLU", "EGSH 300950Z 19007KT 130V260 9999 FEW025 16/09 Q1022", "EGSS 300950Z AUTO 17010KT 9999 NCD 15/09 Q1022", "EGSY 300950Z 12006KT 090V150 1200 -SHRA BR OVC002 10/10 Q1021", "EGTC 300950Z 18008KT 140V220 9999 FEW025 14/08 Q1021", "EGTE 300950Z 16006KT 6000 BKN010 12/10 Q1021", "EGTK 300950Z 17012KT 9000 FEW040 13/07 Q1021", "EGUB 300950Z AUTO 18010KT 9999 NCD 13/09 Q1021", "EGUL 300955Z AUTO 17009KT 9999 FEW027 16/14 A3016 RMK AO2 SLP217 T01560140 $", "EGUN 300955Z AUTO 19007KT 9999 FEW026 FEW170 15/13 A3017 RMK AO2 SLP220 T01490126 $", "EGUW 300950Z AUTO 19009KT 9999 NCD 14/08 Q1022", "EGVA 300955Z AUTO 17007KT 9999 FEW160 FEW180 FEW200 13/10 A3013 RMK AO2 SLP207 T01280100 FZRANO $", "EGVN 300950Z 19007KT 9999 FEW022 BKN080 13/07 Q1021 NOSIG RMK BLU BLU", "EGVO 300950Z AUTO 16009KT 9999 BKN020/// 14/09 Q1021", "EGVP 300950Z AUTO 16012KT 9999 SCT015/// SCT100/// 13/08 Q1021", "EGWC 300950Z AUTO 17009KT //// ///////// ///// Q////", "EGWU 300950Z 20009KT 9999 FEW028 BKN170 16/08 Q1021 NOSIG RMK BLU BLU", "EGXC 300950Z 19011KT CAVOK 14/10 Q1021 NOSIG RMK BLU BLU", "EGXE 300950Z AUTO 16010KT 4800 BR FEW006/// SCT068/// 12/10 Q1019", "EGXS 300950Z AUTO 18008KT 7000 BR OVC098/// 13/11 Q1020", "EGXT 300950Z AUTO 18010KT 9999 FEW025/// 14/09 Q1021", "EGXV 300950Z AUTO 19008KT 9999 BR FEW064/// BKN093/// 13/09 Q1019", "EGXW 300950Z AUTO 20013KT 9999 FEW100/// 15/09 Q1020", "EGXZ 300950Z AUTO 17007KT 7000 BR FEW008/// SCT071/// 13/11 Q1019", "EGYD 300950Z AUTO 19013KT 9999 FEW100/// 14/10 Q1020", "EGYE 300950Z AUTO 19009KT //// ///////// ///// Q////", "EGYH 300950Z AUTO 21012KT 9999 FEW022/// BKN097/// 14/09 Q1021", "EGYM 300950Z AUTO 19009KT 9999 FEW019/// 15/09 Q1022", "EGYP 300950Z 22013KT 9999 FEW010 SCT060 02/00 Q0996", "EHAK 300955Z AUTO 17018KT 9999 FEW014/// SCT017/// BKN023/// 07/05 Q1023", "EHAM 300955Z 10004KT 040V170 9999 FEW023 14/08 Q1024 NOSIG", "EHBK 300955Z AUTO 06008KT 030V110 9999 NSC 15/08 Q1022 NOSIG", "EHDL 300955Z AUTO VRB06KT 9999 OVC290 14/05 Q1024 BLU", "EHDV 300955Z AUTO 16019KT 9999 FEW031/// 09/// Q1023", "EHEH 300955Z AUTO 04006KT 350V100 9999 OVC300 15/07 Q1023 BLU NOSIG", "EHFD 300955Z AUTO 15014KT 9999 SCT018/// OVC021/// 08/04 Q1024", "EHFS 300955Z AUTO 10004KT 070V140 9999 NSC 14/09 Q1023", "EHGG 300955Z AUTO VRB03KT 9999 OVC032 11/05 Q1025 NOSIG", "EHGR 300955Z AUTO 03007KT 330V140 9999 OVC310 15/07 Q1023 BLU", "EHHW 300955Z AUTO 15005KT 120V240 9999 BKN027/// 08/03 Q1025", "EHJA 300955Z AUTO 15014KT 9999 FEW007/// 09/08 Q1023", "EHJR 300955Z AUTO 15010KT //// // ///////// 10/07 Q1024 RE// W10/H9", "EHKD 300955Z AUTO 12006KT 070V150 9999 BKN015 BKN250 12/09 Q1024 WHT", "EHKV 300955Z AUTO 16010KT 9999 FEW010 SCT012 10/07 Q1024", "EHLE 300955Z AUTO 12005KT 040V170 9999 NSC 13/07 Q1024 NOSIG", "EHLW 300955Z AUTO VRB06KT 9999 OVC038 12/06 Q1024 BLU", "EHMA 300955Z AUTO 14010KT 9999 NSC 09/05 Q1024", "EHMG 300955Z AUTO 18007KT 9999 FEW023 09/06 Q1025", "EHPG 300955Z AUTO 13009KT 070V160 9999 NSC 10/07 Q1023", "EHRD 300955Z AUTO VRB05KT 9999 NSC 15/09 Q1023 NOSIG", "EHSA 300955Z AUTO 10006KT 9999 ///////// 10/07 Q1023 W09/H6", "EHSC 300955Z AUTO 10006KT 9999 ///////// 10/08 Q1024 W11/H4", "EHVK 300955Z AUTO 06006KT 360V090 9999 BKN290 14/08 Q1023 BLU", "EHVL 300955Z AUTO 15008KT 9999 OVC031 11/06 Q1024 BLU", "EHWO 300955Z AUTO VRB06KT 9999 OVC290 15/06 Q1023 BLU", "EICK 301000Z 23010KT 9999 BKN020 15/10 Q1018 NOSIG", "EIDL 301000Z 23013KT 9999 FEW009 SCT025 BKN031 13/11 Q1015", "EIDW 301000Z 25009KT 200V280 9999 SCT013 BKN016 BKN018 14/11 Q1017 NOSIG", "EIKN 301000Z 27008KT 240V320 9999 FEW013 FEW018CB SCT020 12/10 Q1015 NOSIG", "EIKY 301000Z 26011KT 230V300 9999 SCT017 SCT024 BKN037 14/10 Q1018", "EIME 301000Z 23012KT 9999 FEW014 SCT024 BKN060 14/11 Q1017", "EINN 301000Z 24014KT 9999 FEW020 15/10 Q1017 NOSIG", "EISG 301000Z 25008KT 9999 FEW027 SCT032 SCT040 13/11 Q1015", "EIWF 301000Z 22007KT 190V260 8000 BKN002 13/13 Q1018", "EKAH 300950Z AUTO 28017KT 250V310 9999 BKN043/// 10/M02 Q1023", "EKBI 300950Z AUTO 31009KT 290V350 9999 BKN039/// 08/M01 Q1024", "EKCH 300950Z AUTO 30014KT 270V330 9999 SCT040/// 09/M00 Q1022 NOSIG", "EKEB 300950Z AUTO 30005KT 240V330 9999 SCT041/// 09/00 Q1024", "EKKA 300950Z AUTO 31013KT 9999 BKN039/// 09/M01 Q1023", "EKOD 300950Z 26010KT 230V290 9999 SCT039 BKN044 08/M01 Q1024", "EKRK 300950Z 31013KT 9999 BKN035 07/M00 Q1023", "EKRN 300950Z AUTO 27013KT 9999 NCD 08/03 Q1022", "EKRS 300950Z AUTO 31010KT 250V050 9999 BKN038/// 08/00 Q1023", "EKSB 300950Z AUTO 32008KT 9999 BKN041/// 09/M00 Q1024", "EKSP 300950Z 28007KT 250V340 9999 BKN032 08/00 Q1024", "EKVD 300950Z 30010KT 260V330 9999 BKN042 10/M01 Q1024", "EKVG 300950Z AUTO 05005KT 9999 OVC100/// 02/M05 Q1020 RMK FEW140/// WIND SKEID 03006KT 360V070", "EKYT 300950Z AUTO 30013KT 260V330 9999 BKN039/// 07/M01 Q1022", "ELLX 300950Z 06010KT 020V110 9999 BKN039 13/06 Q1021 NOSIG", "ENAL 300950Z 26017KT 9999 -RA SCT019 BKN053 04/01 Q1016", "ENAN 300950Z 22013KT 4500 RASN SCT005 BKN011 01/M00 Q1000", "ENAT 300950Z 16015KT 9999 BKN033 03/M04 Q1003 RMK WIND 700FT 18022KT", "ENBL 300950Z 24004KT 200V270 7000 3500E -SHSN FEW004 SCT012 BKN025 01/M01 Q1017", "ENBN 300950Z AUTO 22009KT 190V260 9999NDV FEW012/// OVC027/// 04/01 Q1006", "ENBO 300950Z 24013KT 9999 FEW024 SCT035 06/M00 Q1005 NOSIG", "ENBR 300950Z 30006KT 190V320 9999 SCT031 BKN039 06/M00 Q1020 NOSIG RMK WIND 1200FT 29012KT", "ENBS 300950Z AUTO 15022KT 9999 NCD 02/M02 Q1008", "ENBV 300950Z AUTO 16017KT 9999 NCD 05/M02 Q1008", "ENCN 300950Z 33009KT 280V360 9999 BKN049 09/M05 Q1020", "ENDR 300950Z AUTO 27030KT 250V360 9999NDV -SHRA BKN015/// 04/01 Q1009 W///S5", "ENDU 300950Z 20009KT 170V240 9999 VCSH FEW030 SCT045 BKN100 04/M00 Q1001 TEMPO 21015G25KT RMK WIND 1100FT 20021KT WIND 2200FT 21024KT", "ENEV 300950Z 20012KT 170V240 9999 BKN027 05/00 Q1003 RMK WIND 1400FT 21021KT", "ENFB 300950Z AUTO 28013KT 9999NDV BKN049/// 05/M04 Q1020 W///S5", "ENFL 300950Z 29015KT 9999 -SHRA FEW020CB SCT030TCU BKN050 04/00 Q1019", "ENGC 300950Z 29016KT 9999 SCT035 BKN045 04/M04 Q1019 W04/S5", "ENGM 300950Z 31007KT 240V360 9999 FEW030 08/M08 Q1015 NOSIG", "ENHD 300950Z 27006KT 9999 FEW035 BKN060 07/M02 Q1021", "ENHE 300950Z 28020KT 9999 SCT020TCU 05/01 Q1006 W///S4", "ENHF 300950Z 16010KT 120V210 9999 FEW027 02/M04 Q1003 RMK WIND 1254FT 16028KT", "ENHK 300950Z AUTO 13014KT 9999 NCD 04/M03 Q1002", "ENHM 300950Z AUTO 23005KT //// FEW047/// 05/M03 Q1021 W08/S/", "ENHV 300950Z AUTO 14018KT 110V170 9999 SCT026/// 04/M02 Q1006", "ENJS 300950Z 19006KT 9999 FEW030 BKN100 07/M01 Q1022 W07/S/", "ENKB 300950Z 26024KT 8000 SHSN FEW010CB SCT015 BKN032 03/01 Q1014 RMK WIND 745FT 27028G41KT", "ENKR 300950Z 17015KT 9999 FEW029 05/M02 Q1008 RMK WIND 731FT 17022KT", "ENLA 300950Z AUTO 15015KT 9999NDV OVC034/// 07/02 Q1021 W///S4", "ENLE 300950Z 14016KT 9999 SCT020 BKN035 06/02 Q1022 W08/S4", "ENLK 300950Z 28005KT 240V300 9999 VCSH SCT035TCU SCT050 05/M01 Q1002", "ENMH 300950Z AUTO 16018KT 9999 FEW025/// 04/M02 Q1007", "ENML 300950Z 23018KT 7000 SHRASN SCT009 BKN018 03/02 Q1015", "ENMS 300950Z AUTO 16007KT 110V210 9999 ///////// 06/M04 Q1005 RMK WIND 412FT VRB05KT", "ENNA 300950Z 19020KT 9999 SCT031 SCT043 04/M04 Q1005 RMK WIND 1800FT 19025KT", "ENNE 300920Z 26018KT 9999 VCSH SCT020CB 05/M01 Q1004 W///S4", "ENNM 300950Z 23010KT 200V260 9999 SCT015 BKN023 05/02 Q1007", "ENOA 300950Z 28011KT 9999 FEW030 BKN035 05/M02 Q1020 W///S5", "ENOL 300950Z 28022KT 9999 VCSH FEW010 BKN020CB 04/02 Q1010 RESHRAGS TEMPO 25028G38KT 1200 SHSNRAGS VV008", "ENOV 300950Z 23009KT 9999 SHRASN FEW010 SCT019 BKN026 02/M00 Q1017 RMK WIND RWY24 22009KT WIND 2090FT 22013KT", "ENQA 300950Z AUTO 28013KT 9999NDV OVC050/// 05/M03 Q1020 W10/S5", "ENQC 300950Z AUTO 25011KT 9999NDV OVC038/// 05/M02 Q1019 W///S5", "ENQR 300950Z AUTO 26014KT 9999NDV OVC039/// 04/M04 Q1018 W08/S5", "ENRA 300950Z 36005KT 9999 VCSH FEW030 BKN040 05/M03 Q1005", "ENRM 300950Z AUTO 31009KT 270V350 9999 BKN022/// 06/01 Q1007", "ENRO 300950Z AUTO 26010KT 190V320 9999 FEW038/// 02/M07 Q1009", "ENRS 300950Z AUTO 22015KT 9999 SCT025/// BKN045/// 07/00 Q1003", "ENRY 300950Z AUTO 28011KT 250V330 9999 NCD 09/M08 Q1017", "ENSB 300950Z 03021G37KT 350V060 7000 DRSN FEW010 BKN020 M03/M07 Q1021 RMK WIND 1400FT 08013KT WIND THR28 12014KT", "ENSD 300950Z 34007KT 290V020 9999 -RA FEW021 SCT028 BKN040 04/M00 Q1018 RMK WIND RWY26 VRB02KT WIND 1140FT VRB05KT", "ENSE 300950Z AUTO 28014KT //// OVC039/// 04/M04 Q1019 W///S5", "ENSF 300950Z AUTO 28016KT 9999NDV BKN043/// ///// Q//// W///S5", "ENSG 300950Z AUTO 23005KT 100V270 9999 -SN BKN019/// OVC053/// 01/M03 Q1016 RMK WIND 3806FT 26023KT", "ENSH 300950Z 21018KT 9999 FEW017 SCT026 05/00 Q1002 RMK WIND 0150FT 20023KT", "ENSK 300950Z 21012KT 180V230 9999 SCT030 BKN045 05/M01 Q1001", "ENSL 300950Z AUTO 16013KT 9999NDV OVC026/// 06/01 Q1021 W05/S4", "ENSO 300950Z 30010KT 260V330 9999 FEW022 SCT040 BKN055 06/M01 Q1021", "ENSR 300950Z AUTO 13013KT 9999 BKN062/// OVC076/// 04/M02 Q1001 RMK WIND RWY32 12014KT WIND 1118FT 24010KT", "ENSS 300950Z AUTO 15016KT 9999 NCD 04/M00 Q1010 RMK WIND 0500FT 15015KT", "ENST 300950Z 21007KT 9999 VCSH FEW025 BKN035 05/M02 Q1006 RMK WIND 300FT 20007KT", "ENTC 300950Z 18017KT 9000 -SHRASN BKN023 02/M00 Q1000 TEMPO 2000 SHRASN VV008 RMK WIND 2600FT 18035KT", "ENTO 300950Z 30008KT 230V020 CAVOK 09/M08 Q1017 NOSIG", "ENUG 300950Z AUTO 15017G32KT 120V220 9999NDV BKN023/// 04/M02 Q1001 W///S4", "ENUN 300950Z AUTO 29018KT 9999NDV FEW026/// SCT030/// 04/M01 Q1003 W07/S4", "ENVA 300950Z 24019KT 8000 -RASN FEW006 BKN017 03/01 Q1011 TEMPO 2000 SHSNRAGS VV010 RMK WIND 670FT 25020G34KT", "ENVD 300950Z AUTO 16009KT 9999 BKN029/// OVC037/// 05/M01 Q1009", "ENWV 300950Z AUTO 16017KT 9999NDV OVC023/// 07/03 Q1022 W///S4", "ENZV 300950Z 30008KT 9999 FEW029 SCT059 08/M00 Q1022", "EPBY 301000Z 32010KT 280V340 9999 FEW046 11/M01 Q1021", "EPGD 301000Z 30015KT 270V330 9999 FEW044 09/M01 Q1019", "EPKK 301000Z 31009KT 9999 FEW036 14/05 Q1019", "EPKT 301000Z 33010KT 270V010 9999 SCT041 12/01 Q1020", "EPLB 301000Z 33006KT 6000 -SHRA BKN007 SCT015CB 10/10 Q1017", "EPLL 301000Z 29012KT 250V350 CAVOK 11/M01 Q1020", "EPMO 301000Z 31011KT 240V350 9999 FEW046 12/00 Q1019", "EPPO 301000Z 32009KT 260V340 9999 FEW041 11/01 Q1022", "EPRA 301000Z 34011KT 290V010 9999 SCT035 13/05 Q1018", "EPRZ 301000Z 33013KT 9999 BKN008 SCT011TCU 12/10 Q1016", "EPSC 301000Z 30011KT 260V330 9999 SCT034 09/M01 Q1023", "EPSY 301000Z 33010KT 280V010 CAVOK 11/M01 Q1018", "EPWA 301000Z 32013KT CAVOK 13/M01 Q1018 NOSIG", "EPWR 301000Z 33010KT 290V360 9999 FEW037 13/04 Q1022", "EPZG 301000Z 32007KT 270V010 9999 FEW040 12/02 Q1023", "ESCF 300950Z AUTO 26016KT 9999 NCD 08/M04 Q1016", "ESCM 300950Z AUTO 32013KT 280V350 9999 FEW050/// SCT074/// 08/M01 Q1011", "ESDF 300950Z 29009KT 250V330 CAVOK 11/00 Q1018", "ESGG 300950Z 28013KT 9999 SCT046 07/M04 Q1018", "ESGJ 300950Z AUTO 30012KT 260V330 9999 NCD 08/M05 Q1017", "ESGP 300950Z 28015KT 9999 FEW045 09/M03 Q1019", "ESGT 300950Z AUTO 27011KT 240V300 9999 R15///// R33///// BKN055/// 09/M04 Q1018", "ESIA 300950Z 29009KT 260V320 CAVOK 08/M07 Q1016", "ESIB 300950Z AUTO 26010KT 9999 FEW058/// 08/M05 Q1017", "ESKM 300950Z AUTO 27009KT 250V340 9999 NCD 08/M08 Q1012", "ESKN 300950Z 28019KT CAVOK 09/M05 Q1013", "ESKS 300950Z AUTO 28011KT 9999 FEW059/// 04/M09 Q1011", "ESMK 300950Z 28015KT 9999 SCT046 10/M02 Q1020", "ESMQ 300950Z AUTO 28013KT 9999 NCD 11/M06 Q1017", "ESMS 300950Z 30016KT 9999 SCT035 09/M00 Q1021", "ESMT 300950Z AUTO 31016KT 9999 BKN036/// 08/M01 Q1021", "ESMX 300950Z AUTO 29011KT 250V330 9999 FEW051/// 09/M04 Q1017", "ESND 300950Z AUTO 28014KT 9999 FEW072/// BKN100/// 03/M06 Q1010", "ESNG 300950Z AUTO 11007KT 9999 OVC015/// ///// Q1004", "ESNK 300950Z AUTO 33011KT 9999 FEW055/// ///// Q1007", "ESNL 300950Z AUTO VRB05KT 9999 FEW054/// 07/M08 Q1005", "ESNN 300950Z VRB08KT CAVOK 09/M04 Q1008", "ESNO 300950Z AUTO VRB05KT 9999 SCT098/// 07/M07 Q1006", "ESNQ 300950Z AUTO 22013KT 9999 SCT086/// 03/M04 Q1002", "ESNS 300950Z 08007KT 050V110 CAVOK 06/M03 Q1005", "ESNU 300950Z 35008KT 300V040 CAVOK 08/M04 Q1005", "ESNV 300950Z AUTO 27009KT 9999 FEW180/// 05/M07 Q1005", "ESNX 300950Z AUTO 33004KT 300V360 9999 NCD 04/M08 Q1004", "ESNZ 300950Z 27009KT 9999 OVC036 03/M03 Q1007", "ESOE 300950Z AUTO 29014KT 250V320 9999 NCD 08/M06 Q1014", "ESOH 300950Z AUTO 31008KT 270V360 9999 NCD 08/M06 Q1014", "ESOK 300950Z AUTO 25008KT 9999 NCD 08/M05 Q1015", "ESOW 300950Z AUTO 31012KT 260V350 9999 SCT057/// 09/M05 Q1013", "ESPA 300950Z 10006KT 060V130 CAVOK 05/01 Q1006", "ESPE 300950Z AUTO 31004KT 200V360 9999 NCD 06/M05 Q1004", "ESSA 300950Z 27012KT 9999 BKN045 07/M03 Q1011 TEMPO SCT030TCU", "ESSB 300950Z 27017KT CAVOK 08/M01 Q1012", "ESSD 300950Z AUTO 30014KT 9999 SCT051/// 08/M05 Q1012", "ESSL 300950Z AUTO 27019KT 9999 NCD 08/M06 Q1015", "ESSP 300950Z 27019KT CAVOK 10/M04 Q1014", "ESST 300950Z AUTO 30010KT 260V010 9999 NCD 08/M06 Q1014", "ESSV 300950Z 24015KT CAVOK 06/01 Q1015", "ESTA 300950Z 30017KT 9999 SCT033 08/M00 Q1021", "ESTL 300950Z AUTO 29017KT 9999 SCT037/// 09/M00 Q1021", "ESUP 300950Z AUTO 20006KT 160V220 9999 OVC010/// ///// Q1006", "ESUT 300950Z VRB02KT 9999 SCT034 01/M06 Q1004", "ETAD 300955Z AUTO 09014KT 9999 SCT041 SCT190 14/05 A3014 RMK AO2 SLP201 T01380054", "ETAR 300955Z AUTO 06015G19KT 9999 BKN050 14/06 A3013 RMK AO2 SLP208 T01420055 $", "ETEB 300955Z AUTO 05009KT 9999 BKN048 BKN130 13/05 A3013 RMK AO2 SLP220 T01310048 $", "ETGG 300920Z AUTO 29009KT 9999 // ////// 09/M00 Q1024 ///", "ETHA 300920Z AUTO 08011KT 9999 // ////// 11/06 Q1019 ///", "ETHB 300920Z AUTO 05004KT 9999 // ////// 10/03 Q1024 ///", "ETHC 300920Z 10004KT 9999 FEW036 10/M00 Q1025 BLU+", "ETHF 300920Z 06005G16KT 9999 FEW030 12/04 Q1023 BLU+", "ETHL 300920Z 08014KT 9999 BKN037 SCT300 13/05 Q1019 BLU", "ETHN 300920Z 07010KT 9999 SCT030 13/05 Q1021 BLU+", "ETHS 300920Z AUTO 17003KT 4400 // ////// 10/M01 Q1025 ///", "ETIC 300955Z AUTO 02006KT 9999 CLR 15/02 A3013 RMK AO2 SLP208 T01450021 $", "ETIH 300955Z AUTO 05007KT 9999 SCT038 BKN050 13/04 A3015 RMK AO2 SLP214 T01300042 $", "ETIK 300955Z AUTO 05011KT 9999 SCT045 15/07 A3015 RMK AO2 SLP213 T01450071 FZRANO $", "ETMN 300920Z 01004KT 9999 FEW030 09/M01 Q1025 BLU+", "ETNH 300920Z AUTO 30004KT 9000 // ////// 09/M01 Q1024 ///", "ETNL 300920Z 30012KT 9999 SCT038 09/M00 Q1024 BLU+", "ETNN 300920Z 31002KT 9999 FEW028 14/07 Q1022 BLU+", "ETNS 300920Z AUTO 27007KT 9999 // ////// 09/M01 Q1025 ///", "ETNT 300920Z AUTO VRB03KT //// // ////// 09/03 Q1025 ///", "ETNW 300920Z 14004KT 9999 FEW031 11/02 Q1025 BLU+", "ETOU 300955Z AUTO 04008KT 9999 CLR 16/M04 A3017 RMK AO2 SLP220 T01571043 $", "ETSB 300920Z AUTO 08011KT //// // ////// 11/04 Q1022 ///", "ETSH 300920Z 28005KT 9999 SCT033 11/02 Q1023 BLU+", "ETSI 300920Z AUTO 06009KT 8000 // ////// 13/05 Q1020 ///", "ETSL 300920Z 04012KT 9999 SCT020 12/07 Q1019 BLU+", "ETSN 300920Z 08007KT 9999 FEW032 BKN055 15/06 Q1020 BLU", "ETWM 300920Z AUTO 08004KT //// // ////// 11/03 Q1025 ///", "EVGA 300950Z 29011KT 260V330 CAVOK 10/M02 Q1013 TEMPO 27012KT", "EVLA 300950Z AUTO 28011KT 250V320 CAVOK 09/M02 Q1016", "EVRA 300950Z VRB09G19KT 9999 SCT045 12/M03 Q1014 NOSIG", "EVVA 300950Z AUTO 26013KT CAVOK 09/02 Q1015", "EYKA 300950Z 29009KT 250V350 CAVOK 12/M00 Q1016", "EYPA 300950Z VRB06KT CAVOK 09/04 Q1017", "EYSA 300950Z 31015KT 280V340 CAVOK 11/M04 Q1015 NOSIG", "EYVI 300950Z 18003KT 130V220 9999 BKN020 07/04 Q1016 NOSIG", "FABL 300900Z 02005KT 320V090 CAVOK 20/10 Q1024 NOSIG", "FACT 301000Z 27005KT 210V310 CAVOK 20/08 Q1018 NOSIG", "FACV 300954Z 09006KT CAVOK 21/M00 Q1020", "FAEL 301000Z VRB01KT 8000 SCT004 BKN016 OVC027 16/15 Q1024", "FAGG 301000Z 11010KT 080V140 CAVOK 19/09 Q1020", "FAHS 301000Z AUTO 15009KT //// // ////// 26/19 Q1020", "FAJB 301000Z AUTO 04004KT //// // ////// 24/11 Q1024", "FAKM 301000Z 20002KT CAVOK 24/00 Q1022", "FAKN 301000Z 11007KT 9999 BKN020 23/16 Q1024 NOSIG", "FALA 300900Z VRB04KT 9999 FEW045 23/13 Q1025 NOSIG", "FALE 301000Z 16010KT 9999 FEW035 BKN048 22/13 Q1022 NOSIG", "FALW 300900Z AUTO 10002KT //// // ////// 21/10 Q1017", "FAMM 301000Z 34007KT 9999 FEW035 30/09 Q1022 NOSIG", "FAOR 301000Z 02006KT 340V070 CAVOK 22/11 Q1025 NOSIG", "FAPE 301000Z 08008KT 7000 -RA SCT005 BKN015 OVC020 16/15 Q1023 BECMG SCT010 BKN020", "FAPN 300900Z AUTO 06002KT //// // ////// 24/14 Q1022", "FAUP 301000Z 07002KT CAVOK 27/M10 Q1020 NOSIG", "FAUT 301000Z 18002KT 9999 BKN025 17/08 Q1024", "FAVV 301000Z AUTO 03004KT //// // ////// 24/11 Q1026", "FBKE 300900Z 09007KT 060V120 CAVOK 28/10 Q1021", "FBMN 300900Z 36004KT 300V050 CAVOK 30/14 Q1020", "FBPM 300900Z 09009KT 040V130 CAVOK 30/09 Q1021", "FBSK 300900Z 02006KT 340V110 CAVOK 27/12 Q1021 NOSIG", "FCBB 300900Z VRB02KT 9000 SCT013 26/22 Q1016 NOSIG", "FCOD 300900Z 28002KT 9999 BKN013 26/23 Q1015", "FCPP 300900Z 11005KT 9999 FEW012 FEW030CB 29/25 Q1013 NOSIG", "FDMS 301000Z VRB02KT 9999 BKN035 22/18 Q1022", "FDSK 301000Z 18010KT 150V220 9999 SCT030 25/17 Q1022 NOSIG", "FEFF 300900Z 22005KT 9999 SCT010 27/23 Q1015 BECMG BKN010", "FGSL 301000Z VRB05KT 9999 FEW013 FEW020CB 31/26 Q1013 NOSIG", "FHAW 300950Z 16012KT 9999 FEW020 27/21 Q1015 NOSIG RMK BLU BLU", "FIMP 301000Z 12006KT 9999 SCT018 29/22 Q1011", "FJDG 300955Z 11006KT 9999 FEW020 SCT220 31/26 A2972 RMK SLP061 T031240256", "FKKD 300900Z VRB02KT 9999 BKN016 FEW020CB 30/24 Q1013 NOSIG", "FKKL 300900Z 17012KT 140V200 CAVOK 32/19 Q1015", "FKKN 300900Z 24004KT 9999 BKN018 25/19 Q1020", "FKKR 300900Z 33004KT 270V060 9999 BKN016 34/21 Q1013 NOSIG", "FKYS 300900Z 19004KT 6000 BKN011 25/23 Q1018 NOSIG", "FMCZ 301000Z AUTO 17013KT CAVOK 31/24 Q1010 NOSIG", "FMEE 300930Z AUTO 09012KT 9999 FEW030 SCT035 BKN049 29/22 Q1010 TEMPO 4500 SHRA SCT015TCU", "FMEP 300930Z AUTO 14014KT CAVOK 28/22 Q1010 NOSIG", "FMMI 301000Z VRB04KT 9999 FEW024 25/11 Q1017 NOSIG", "FMMT 301000Z 17006KT 110V210 9999 SCT017TCU 29/21 Q1012 NOSIG", "FMNA 300900Z 00000KT 9999 FEW020 33/18 Q1010", "FMNM 300900Z VRB03KT 9999 FEW020 35/18 Q1011 NOSIG", "FMNN 300900Z 03006KT 9999 FEW020 31/// Q1010", "FMSD 300900Z 08014KT 9999 FEW023 28/21 Q1012", "FNLU 301000Z 33007KT 270V350 9999 FEW017 BKN020 30/25 Q1012 NOSIG", "FOOG 301000Z VRB04KT 9999 SCT011 FEW020CB SCT040 30/24 Q1013", "FOOL 301000Z VRB03KT 9999 SCT012 30/24 Q1013 NOSIG", "FOON 301000Z /////KT 9999 SCT013 28/23 Q1015", "FQBR 301000Z /////KT 9999 FEW020 28/20 Q1015", "FQCH 301000Z /////KT 9999 FEW020 27/13 Q1021", "FQIN 300900Z 26004KT 9999 FEW020 28/21 Q1017", "FQLC 301000Z 14005KT 9999 BKN018 23/15 Q1021", "FQMA 301000Z 19015KT 9999 FEW015 SCT020 28/19 Q1018 NOSIG", "FQNC 301000Z /////KT 9999 FEW020 30/// Q1013", "FQNP 301000Z 20010KT 170V230 9999 FEW020 27/17 Q1015", "FQPB 300900Z 17010KT 9999 FEW020 30/21 Q1013", "FQQL 301000Z 22006KT 190V250 9999 BKN018 28/19 Q1015", "FQTT 301000Z 20007KT 150V260 9999 FEW020 32/13 Q1016", "FQVL 301000Z 15007KT 9999 FEW020 29/19 Q1015", "FQXA 301000Z 21011KT 9999 FEW015 BKN020 26/22 Q1019", "FSIA 301000Z 10007KT 070V140 9999 FEW018CB SCT021 30/25 Q1008 NOSIG", "FTTA 300900Z 18008KT 9999 SCT040 31/21 Q1014", "FTTD 300900Z 22004KT 9999 FEW030 23/22 Q1010", "FTTJ 300900Z 27010KT 6000 NSC 33/20 Q1012 NOSIG", "FVCZ 300900Z 00000KT CAVOK 28/14 Q1023", "FVFA 300900Z 08010KT 060V120 CAVOK 29/05 Q1020 NOSIG", "FVJN 300900Z 15010KT CAVOK 26/10 Q1023 NOSIG", "FVKB 300900Z 25006KT CAVOK 29/16 Q1017 NOSIG", "FVRG 301000Z 14007KT 080V210 CAVOK 26/02 Q1024 NOSIG", "FVWN 300900Z 09008KT CAVOK 27/04 Q1021", "FWCL 301000Z 26011KT 9999 FEW028 26/10 Q1018 NOSIG", "FWKI 301000Z 24005KT 9999 SCT030 25/13 Q1019 NOSIG", "FYKM 300900Z 08004KT CAVOK 29/10 Q1019", "FYKT 300900Z 05009KT CAVOK 26/M12 Q1022", "FYOA 300900Z 00000KT CAVOK 30/09 Q1018", "FYWB 300900Z 02004KT CAVOK 17/13 Q1015", "FYWE 300900Z 05011KT CAVOK 25/08 Q1027", "FYWH 300900Z 14003KT CAVOK 25/11 Q1026 BECMG FEW050", "FYWW 300900Z 09009KT CAVOK 25/10 Q1026", "FZAA 301000Z 20004KT 9000 SCT020 28/22 Q1015 NOSIG", "FZIC 300900Z 25006KT 7000 SCT016 BKN100 26/23 Q1016 NOSIG", "FZQA 300900Z 12008KT CAVOK 23/15 Q1021 NOSIG", "GABS 300930Z 21011KT 170V250 CAVOK 32/20 Q1013 NOSIG", "GAKD 300900Z 32014KT CAVOK 33/19 Q1012", "GAMB 300900Z 18014KT CAVOK 33/20 Q1013", "GANR 300900Z 28006KT CAVOK 35/06 Q1012", "GBYD 301000Z 27005KT 9999 SCT011 27/22 Q1013", "GCFV 301000Z 03011KT CAVOK 23/17 Q1018", "GCGM 301000Z 21004KT 160V270 CAVOK 24/16 Q1018 RMK R09/VRB04KT ARP/23004KT 160V280", "GCHI 301000Z 36011KT 330V030 9999 SCT015 22/18 Q1019", "GCLA 301000Z 03007KT 360V060 CAVOK 24/15 Q1019", "GCLP 301000Z 02017KT CAVOK 26/16 Q1018 NOSIG", "GCRR 301000Z 01015KT CAVOK 26/16 Q1017", "GCTS 301000Z 08018KT CAVOK 29/08 Q1018 NOSIG", "GCXO 301000Z 11005KT 030V200 CAVOK 24/07 Q1021 NOSIG", "GECE 301000Z AUTO 30009KT 260V320 CAVOK 20/16 Q1015", "GEML 301000Z 09004KT 030V150 9999 FEW020 26/13 Q1016", "GFLL 300900Z 27008KT 9999 SCT012 28/24 Q1013", "GLRB 301000Z 05003KT 9999 BKN016 FEW025CB 29/25 Q1014 NOSIG RMK CB/SE-S", "GMAD 301000Z 27009KT 230V310 CAVOK 24/18 Q1014 NOSIG", "GMAG 301000Z 24006KT 200V300 6000 NSC 22/16 Q1015 NOSIG", "GMAT 301000Z 02008KT 9999 FEW010 22/17 Q1015 NOSIG", "GMAZ 301000Z VRB02KT 9999 FEW040 34/M01 Q1016 NOSIG", "GMFB 301000Z 10014KT 9999 SCT030 26/02 Q1021 NOSIG", "GMFF 301000Z VRB03KT 9999 FEW033 BKN200 22/10 Q1018 NOSIG", "GMFK 301000Z 09009KT 050V130 9999 SCT030 27/02 Q1020 NOSIG", "GMFM 301000Z 22003KT 160V300 9999 FEW020 BKN100 22/12 Q1018 NOSIG", "GMFO 301000Z VRB02KT 9999 FEW026 BKN230 28/06 Q1017 NOSIG", "GMMB 301000Z 33005KT 280V090 8000 SCT016 BKN200 22/18 Q1018 NOSIG", "GMMC 301000Z 04006KT 8000 FEW016 BKN100 21/16 Q1017", "GMMD 301000Z 18008KT FEW030 SCT230 25/08 Q1017 NOSIG", "GMME 301000Z 01003KT 330V060 5000 SCT016 SCT100 22/17 Q1016 NOSIG", "GMMH 301000Z 02019KT 8000 NSC 22/17 Q1015 NOSIG", "GMMI 300900Z 06013KT 8000 NSC 26/13 Q1016 NOSIG", "GMML 301000Z 03015KT CAVOK 25/21 Q1016 NOSIG", "GMMN 301000Z 02007KT 360V060 9999 BKN016 SCT200 23/17 Q1017 NOSIG", "GMMW 301000Z 01004KT 330V080 CAVOK 27/08 Q1016 NOSIG", "GMMX 301000Z 32003KT 240V050 CAVOK 26/13 Q1018 NOSIG", "GMMZ 301000Z VRB02KT 9999 FEW040 25/02 Q1018 NOSIG", "GMTA 301000Z 01008KT CAVOK 26/13 Q1015 NOSIG", "GMTN 301000Z 20005KT CAVOK 26/16 Q1015 NOSIG", "GMTT 301000Z 25006KT 6000 SCT006 BKN013 21/20 Q1016 NOSIG", "GOBD 300930Z 25009KT 9999 FEW015 24/20 Q1013 NOSIG", "GOGG 300900Z 32006KT 9999 BKN015 24/22 Q1014", "GOGK 300900Z 22006KT 9999 SCT010 26/22 Q1010", "GOGS 300900Z 30006KT 9999 BKN010 24/21 Q1013", "GOOD 300900Z 28006KT CAVOK 25/22 Q1012", "GOOG 300900Z 26004KT CAVOK 26/19 Q1009", "GOOK 300900Z 28008KT CAVOK 25/20 Q1013", "GOOY 300900Z 22006KT 9999 FEW010 24/21 Q1013", "GOSM 300900Z 28010KT CAVOK 30/19 Q1010", "GOSP 300900Z 04002KT CAVOK 31/15 Q1009", "GOSS 300900Z 24004KT CAVOK 23/20 Q1012", "GOTK 300900Z 26004KT CAVOK 31/20 Q1011", "GOTT 300930Z 22010KT CAVOK 30/20 Q1012", "GQNO 300930Z 02011KT 8000 NSC 30/15 Q1011 NOSIG", "GQPA 300900Z 02006KT 8000 NSC 32/06 Q1015", "GQPP 301000Z 01011KT 8000 NSC 25/17 Q1013 NOSIG", "GUCY 300900Z 32008KT 9999 SCT015 29/24 Q1013 NOSIG", "GVAC 301000Z 01016KT 9999 FEW013 24/20 Q1015 NOSIG", "GVBA 301000Z 36015KT 9999 BKN014 24/20 Q1015 NOSIG", "GVNP 301000Z 01011KT CAVOK 31/04 Q1014 NOSIG", "GVSV 301000Z 05012KT 9999 FEW020 26/18 Q1015 NOSIG", "HADR 301000Z 19008KT 9999 SCT028 BKN029 SCT060 25/21 Q1018 NOSIG", "HBBA 300900Z VRB02KT 9999 FEW025TCU SCT06028/19 Q1016 NOSIG", "HCMF 300900Z 03015KT CAVOK 31/26 Q1006", "HCMM 300900Z 21011KT 9999 FEW023TCU SCT024 31/27 Q1010", "HDAM 300900Z 34005KT 9999 SCT023 32/25 Q1009", "HEAT 300900Z 35009KT CAVOK 22/05 Q1017 NOSIG", "HEAX 300900Z 31010KT 9999 SCT020 21/09 Q1016 NOSIG", "HEBA 300900Z 31005KT 9999 SCT020 20/10 Q1016 NOSIG", "HEBL 300900Z 08013KT CAVOK 26/06 Q1014 NOSIG", "HECA 301000Z 28008KT 9999 SCT025 21/06 Q1016 NOSIG", "HECP 300900Z 31013KT 9999 SCT025 19/06 Q1018 NOSIG", "HEGN 300900Z 01013KT CAVOK 24/06 Q1013 NOSIG", "HEIS 300900Z 31010KT 9999 SCT025 21/11 Q1015", "HELX 300900Z 32009KT CAVOK 26/02 Q1014 NOSIG", "HEMA 300900Z 35015KT CAVOK 24/10 Q1013 NOSIG", "HEMM 300900Z 32010KT 9999 FEW020 SCT022 21/11 Q1017 NOSIG", "HEOC 300900Z 32008KT CAVOK 19/06 Q1017 NOSIG", "HEPS 300900Z 27011KT 9999 SCT020 19/09 Q1015 NOSIG", "HESG 300900Z 35013KT CAVOK 24/03 Q1014 NOSIG", "HESH 300900Z 05011KT CAVOK 25/11 Q1013 NOSIG", "HESN 300900Z 01009KT CAVOK 26/01 Q1014 NOSIG", "HESW 300900Z 00000KT CAVOK 22/05 Q1017", "HESX 300900Z 30009KT CAVOK 20/06 Q1016 NOSIG", "HETR 300900Z 29028KT 6000 NSC 22/11 Q1013", "HKEL 300900Z 35006KT 9999 FEW019CB BKN020 BKN090 19/14 Q1025", "HKEM 300900Z 18003KT 9999 FEW022CB BKN023 BKN220 24/18", "HKGA 300900Z 16008KT 9999 BKN025 30/22 Q1012", "HKJK 300930Z 17005KT 9999 BKN025 23/15 Q1021 NOSIG", "HKKI 300900Z 24004KT 9999 FEW022CB SCT023 BKN080 24/19 Q1018", "HKKT 300900Z 00000KT 9999 BKN019 20/16 RERA", "HKLO 300900Z 00000KT 9999 FEW026CB SCT028 BKN090 28/21 Q1012", "HKLU 300900Z 18008KT 9999 FEW021CB BKN022 27/24 RESH Q1013", "HKME 300900Z 09003KT 9999 SCT020 FEW021CB BKN220 22/18", "HKML 300900Z 19010KT 9999 -RA SCT016 OVC080 24/23 Q1012", "HKMO 300900Z 21004KT 8000 -RA FEW019CB SCT020 OVC080 25/23 Q1013 NOSIG", "HKNI 300900Z 07006KT 9999 SCT024 SCT260 23/15", "HKNK 300900Z 00000KT 9999 BKN022 BKN080 20/14", "HKNW 300900Z 15007KT 9999 BKN025 BKN080 23/15 Q1023", "HKWJ 300900Z 20008KT 9999 BKN032 30/23 Q1011", "HRYR 301000Z VRB05KT 9999 FEW022CB SCT025 25/16 Q1020 NOSIG", "HTAR 300900Z 09005KT 9999 FEW008 BKN020 20/19 Q1022 RERA NOSIG", "HTBU 300900Z 00000KT 2000 TSRA BKN010 FEW012CB OVC080 19/18 Q1019 NOSIG", "HTDA 300900Z 08009KT 9999 FEW016 BKN018 FEW020CB 29/23 Q1013 NOSIG", "HTDO 300900Z 10004KT 9999 SCT027 26/16 Q1018 NOSIG", "HTIB 300900Z 16010KT 9999 BKN022 FEW023CB 25/18 Q1017", "HTIR 300900Z 16008KT 9999 BKN024 22/17 Q1021", "HTKA 300900Z 00000KT 9999 -RA FEW018 FEW019CB BKN070 20/20 Q1018 NOSIG", "HTKJ 300900Z 14005KT 9999 FEW009 BKN026 24/19 Q1019 NOSIG", "HTMG 300900Z 00000KT 9999 SCT021 BKN060 24/22 Q1016", "HTMP 300900Z 09005KT 9999 SCT022 FEW024CB BKN100 26/20 Q1020", "HTMT 300900Z 17015KT 9999 SCT022 FEW023CB 29/23 Q1013 NOSIG", "HTMU 300900Z 34010KT 9999 SCT018 FEW020CB BKN090 22/19 Q1020", "HTMW 300900Z 15011KT 9999 BKN023 FEW024CB 24/18 Q1018 NOSIG", "HTSO 300900Z 09003KT 9999 BKN021 FEW022CB SCT090 25/18 Q1020", "HTSU 300900Z 18004KT 9999 SCT022 FEW023CB 23/13 Q1024", "HTTB 300900Z 16010KT 9999 BKN022 26/19 Q1020 NOSIG", "HTZA 300900Z 16014KT 9999 FEW018 FEW020CB BKN080 29/24 Q1013 NOSIG", "K04V 300955Z AUTO 30011KT 10SM CLR 03/M05 A3019 RMK AO2", "K04W 300959Z AUTO 33012G16KT 5SM -RA OVC013 02/01 A2962 RMK AO2", "K05U 300950Z AUTO VRB08KT 10SM 09/M02 A3009 RMK A01", "K06C 300955Z AUTO 26005KT 10SM SCT060 BKN075 05/05 A2947 RMK AO2 T00510045", "K06D 300955Z AUTO 33011KT 10SM CLR M00/M01 A3008 RMK AO2", "K08D 300955Z AUTO 36004KT 10SM CLR M02/M02 A3015 RMK AO2", "K0A0 300955Z AUTO 33004KT 10SM CLR 09/M10 A3007 RMK AO2", "K0A9 300955Z AUTO 00000KT 7SM FEW045 SCT065 OVC080 14/14 A2951 RMK AO2", "K0CO 300955Z AUTO 33022KT CLR M04/M10 A3029 RMK AO2 PWINO", "K0E0 300955Z AUTO 00000KT 10SM CLR 03/M06 A3011 RMK AO2 T00291065", "K0F2 300955Z AUTO 10SM CLR 13/05 A2988 RMK AO2 T01310054", "K0J4 300958Z AUTO VRB04KT 10SM FEW009 BKN016 OVC080 16/13 A2965 RMK AO2 SLP038 T01560128", "K0R0 300955Z AUTO 31005KT 10SM FEW009 SCT013 BKN019 15/14 A2978 RMK AO2", "K0S9 300955Z AUTO 00000KT 8SM FEW037 BKN050 BKN060 07/06 A2988 RMK AO2", "K0V4 300955Z AUTO 30003KT 7SM SCT007 SCT060 OVC080 16/15 A2952 RMK AO1", "K0VG 300955Z AUTO 00000KT 3/4SM BR BKN050 BKN075 10/11 A2951 RMK AO2", "K10G 300955Z AUTO 16003KT 7SM RA SCT036 BKN065 OVC080 10/08 A2946 RMK AO2 P0001", "K12N 300954Z AUTO VRB05KT 11/08 A2973 RMK AO1 SLP068 T01060083", "K13K 300955Z AUTO 29010KT 10SM CLR 05/03 A2987 RMK AO2 T00540032", "K14Y 300955Z AUTO 34015G21KT 10SM CLR 02/M02 A2975 RMK AO2", "K15M 300955Z AUTO 00000KT 5SM BR CLR 11/11 A2963 RMK AO2 T01150115 $", "K17J 300955Z AUTO 29008G14KT 10SM SCT014 BKN065 15/13 A2959 RMK AO2 T01520134", "K18A 300955Z AUTO 00000KT 1 1/4SM RA BR BKN010 BKN033 OVC065 15/15 A2956 RMK AO2 LTG DSNT SW P0003 T01510149", "K18H 300955Z AUTO 32019G24KT 10SM BKN039 BKN049 22/13 A2991 RMK A01", "K19S 300955Z AUTO 35007KT 10SM CLR 08/05 A2999 RMK AO2 T00770049", "K1A5 300950Z AUTO 00000KT 10SM SCT004 BKN080 OVC120 12/12 A2957 RMK AO2 T01200115", "K1A6 300955Z AUTO 00000KT 10SM SCT003 SCT038 OVC070 11/11 A2953 RMK AO2 T01050105", "K1A9 300955Z AUTO 28009G17KT 7SM +RA SCT008 BKN012 OVC050 15/15 A2957 RMK AO2 P0001 T01500150", "K1AM 300955Z AUTO 10007KT 10SM CLR 07/01 A3000 RMK AO2 SLP157 T00710014 $", "K1BM 300955Z AUTO 25005KT 10SM CLR 05/01 A3002 RMK AO2 SLP167 T00480006 $", "K1BN 300955Z AUTO 33006KT 10SM CLR M01/M02 A3009 RMK AO2 SLP208 T10061019 $", "K1BW 300955Z AUTO 01004KT 10SM BKN110 04/M05 A3013 RMK AO2 SLP177 T00371055 $", "K1CM 300955Z AUTO 00000KT 10SM CLR 05/01 A3002 RMK AO2 SLP164 T00520013 $", "K1CN 300955Z AUTO 02012KT 10SM CLR M00/M02 A3008 RMK AO2 SLP204 T10011017 $", "K1CW 300955Z AUTO 00000KT 10SM CLR 03/M06 A3010 RMK AO2 SLP171 T00321060 $", "K1DM 300955Z AUTO 17006KT 10SM CLR 06/M02 A3003 RMK AO2 SLP172 T00561018 $", "K1DN 300955Z AUTO 01008KT 10SM CLR M02/M03 A2848 RMK AO2 SLP657 T10181029 $", "K1EM 300955Z AUTO 14007KT 10SM CLR 03/M02 A3002 RMK AO2 SLP176 T00341019 $", "K1EN 300955Z AUTO 35005KT 10SM CLR M03/M04 A2988 RMK AO2 SLP144 T10281038 $", "K1EW 300955Z AUTO 19007KT 10SM CLR 02/M03 A3007 RMK AO2 SLP156 T00161029 $", "K1F0 300955Z AUTO 27005KT 10SM CLR 12/06 A2984 RMK AO2 T01190064", "K1FW 300955Z AUTO 01007KT 10SM FEW110 04/M05 A3007 RMK AO2 SLP156 T00371050 $", "K1GM 300955Z AUTO 25005KT 10SM CLR 05/01 M RMK AO2 SLPNO T00470014 $", "K1GN 300955Z AUTO 01006KT 10SM CLR M02/M02 A3010 RMK AO2 SLP221 T10241025 $", "K1H2 300955Z AUTO 24006KT 10SM OVC005 05/05 A2962 RMK AO2 T00520048", "K1HM 300955Z AUTO 00000KT 10SM CLR 04/M01 A2996 RMK AO2 SLP149 T00381008 $", "K1HN 300955Z AUTO 02004KT 10SM CLR M04/M05 A3013 RMK AO2 SLP226 T10371050 $", "K1HW 300955Z AUTO 33007KT 10SM CLR 01/M04 A3006 RMK AO2 SLP166 T00121039 $", "K1IM 300955Z AUTO 00000KT 10SM CLR 06/03 A2996 RMK AO2 SLP148 T00630026 $", "K1IN 300955Z AUTO 01008KT 10SM CLR M01/M02 A3012 RMK AO2 SLP223 T10081018 $", "K1IW 300955Z AUTO 35005KT 10SM BKN120 BKN240 02/M04 A3005 RMK AO2 SLP161 T00221039 $", "K1JM 300955Z AUTO 12006KT 10SM CLR 06/01 A2997 RMK AO2 SLP153 T00550007 $", "K1JN 300955Z AUTO 32007KT 10SM CLR M01/M01 A3011 RMK AO2 SLP218 T10091010 $", "K1JW 300955Z AUTO 34008KT 10SM SCT130 04/M04 M RMK AO2 SLPNO T00401042 $", "K1KM 300955Z AUTO 00000KT 10SM CLR 04/M03 A3008 RMK AO2 SLP183 T00371029 $", "K1LN 300955Z AUTO 31004KT 10SM CLR M00/M00 A3015 RMK AO2 SLP226 T10021003 $", "K1LW 300955Z AUTO 01011KT 10SM FEW110 04/M03 A3007 RMK AO2 SLP159 T00371033 $", "K1M4 300956Z AUTO 32006KT 10SM CLR 13/13 A2963 RMK AO2 SLP025 T01280128", "K1MM 300955Z AUTO 11006KT 10SM SCT140 04/M01 A3003 RMK AO2 SLP170 T00441014 $", "K1MW 300955Z AUTO 01006KT 10SM SCT120 03/M03 A3007 RMK AO2 SLP162 T00261027 $", "K1NW 300955Z AUTO 06006KT 10SM FEW130 03/M01 A3008 RMK AO2 SLP159 T00311013 $", "K1OM 300955Z AUTO 16015KT 10SM CLR 08/M04 A3003 RMK AO2 SLP171 T00791042 $", "K1ON 300955Z AUTO 34007KT 10SM CLR M02/M03 M RMK AO2 SLPNO T10191032 $", "K1OW 300955Z AUTO 03009KT 10SM BKN120 04/M03 A3020 RMK AO2 SLP196 T00431032 $", "K1P1 300955Z AUTO 09007KT 3SM DZ OVC016 06/05 A2992 RMK AO2 P0001 T00620052", "K1R7 300955Z AUTO 28003KT 10SM CLR 12/13 A2979 RMK AO2 PWINO", "K1R8 300955Z AUTO 30007KT 10SM OVC010 15/15 A2968 RMK AO2", "K1S5 300955Z AUTO 00000KT 10SM CLR 12/08 A2978 RMK AO2 T01190084", "K1U7 300955Z AUTO 00000KT 10SM CLR M03/M03 A3012 RMK A01", "K1V4 300954Z AUTO 07/05 A2983 RMK AO1 SLP105 T00670050", "K1V6 300955Z AUTO 31007KT 10SM CLR 08/01 A3004 RMK AO2", "K1YT 300955Z AUTO 08007KT 10SM BKN130 14/06 A2977 RMK AO2 SLP077 T01360062 $", "K20U 300955Z AUTO 00000KT 10SM CLR M03/M06 A3016 RMK AO2", "K20V 300955Z AUTO 00000KT 10SM CLR 00/M02 A3017 RMK AO2", "K21D 300955Z AUTO 34012G19KT 10SM -DZ SCT019 BKN029 OVC035 02/00 A2961 RMK AO2", "K22N 300955Z AUTO 00000KT 10SM SCT008 OVC022 10/08 A2968 RMK AO2", "K24A 300945Z AUTO 16006KT 1 1/4SM RA BR SCT001 BKN075 OVC090 10/10 A2955 RMK AO2 P0001 T01010099", "K24J 300955Z AUTO 22008KT 10SM FEW013 SCT036 SCT060 19/19 A2955 RMK A01 P0003", "K28J 300955Z AUTO 22009G14KT 2SM -RA BR SCT004 BKN014 OVC021 19/18 A2956 RMK AO2 LTG DSNT NE AND E VIS 3/4V5", "K2A0 300955Z AUTO 35005KT 10SM SCT039 BKN055 OVC090 14/14 A2950 RMK A01", "K2C8 300955Z AUTO 33013G18KT 10SM CLR 02/02 A3002 RMK AO2", "K2D5 300955Z AUTO 34017KT 10SM FEW042 SCT055 02/02 A2997 RMK AO2", "K2DP 300955Z AUTO 18009KT 10SM -RA BKN080 OVC095 19/19 A2956 RMK AO2 RAE07DZB07E18RAB18E31RAB51 SLPNO P0002 T01920192 $", "K2G4 300955Z AUTO 19007KT 10SM OVC075 11/10 A2953 RMK AO2", "K2G9 300955Z AUTO 00000KT 10SM BKN008 BKN014 OVC065 10/10 A2953 RMK AO2 P0001", "K2I0 300955Z AUTO 30006KT 10SM CLR 09/06 A2962 RMK AO2 T00900055", "K2IS 300955Z AUTO 20013KT 10SM CLR 25/22 A2969 RMK AO2 LTG DSNT W AND NW T02490224", "K2J3 300955Z AUTO 00000KT 10SM SCT002 OVC012 17/17 A2946 RMK AO2 LTG DSNT W T01730169", "K2J5 300955Z AUTO 14006KT 10SM BKN011 OVC030 19/18 A2947 RMK AO2 LTG DSNT W T01900183", "K2J9 300955Z AUTO 29010KT 10SM SCT013 BKN021 BKN048 17/17 A2960 RMK AO2", "K2M2 300955Z AUTO 00000KT 7SM FEW060 11/10 A2958 RMK A01", "K2P2 300955Z AUTO 19006KT 1 1/2SM BR OVC003 03/03 A2928 RMK AO2 T00270027", "K2R9 300955Z AUTO 00000KT 10SM CLR 10/09 A2998 RMK AO2 T01020088", "K2V5 300955Z AUTO 35007KT 10SM CLR 02/M02 A3006 RMK AO2", "K2V6 300959Z AUTO 35008KT 10SM CLR 04/M08 A3006 RMK AO2", "K2W6 300949Z AUTO 11006KT 7SM OVC004 15/15 A2957 RMK AO1", "K2WX 300956Z AUTO 23003KT 01/M06 A3011 RMK AO1 SLP203 T00111061", "K33N 300955Z AUTO 12010G15KT 10SM OVC004 14/14 A2960 RMK A01", "K33V 300955Z AUTO 12006KT 10SM CLR 00/M04 A3017 RMK AO1", "K35A 300955Z AUTO 00000KT 7SM -RA SCT018 SCT065 BKN100 15/15 A2951 RMK A02 P0004 T01530150", "K38S 301000Z AUTO 00000KT 10SM 02/M02 A3009 ", "K3AU 300955Z AUTO 32004KT 10SM CLR 07/00 A2989 RMK AO2", "K3D2 300955Z AUTO 23003KT 2 1/2SM BR OVC002 02/02 A2928 RMK AO2 T00180018", "K3F3 300955Z AUTO 17004KT 10SM CLR 11/09 A2988 RMK AO2 T01050092", "K3K3 300955Z AUTO 00000KT 10SM OVC110 05/02 A3001 RMK AO2", "K3L4 300955Z AUTO 28009KT 10SM CLR 15/14 A2987 RMK A01", "K3N8 300955Z AUTO 34013KT 10SM CLR 01/M02 A2987 RMK AO2 T00071025", "K3R7 300955Z AUTO 28007KT 10SM CLR 12/12 A2987 RMK AO2 T01220121", "K3S8 300955Z AUTO 13003KT 10SM OVC095 11/01 A2999 RMK AO2", "K3T5 300955Z AUTO 24006KT 10SM CLR 12/11 A2992 RMK AO2 T01160107 $", "K3U3 301000Z AUTO 00000KT 10SM 06/M04 A3006 ", "K40B 300916Z AUTO 17007G16KT 120V200 07/01 A3002 RMK AO1 SLP170 T00680012 55008", "K40U 300955Z AUTO 26005KT 10SM CLR 00/M03 A3014 RMK AO2 T10021029", "K41U 300955Z AUTO 00000KT 10SM CLR 04/M03 A3011 RMK AO1 T00371030", "K42J 300955Z AUTO 26016G28KT 6SM BR FEW004 BKN019 OVC035 20/20 A2955 RMK A01", "K46D 300955Z AUTO 34008KT 10SM CLR 01/01 A3007 RMK AO2", "K46U 300955Z AUTO 00000KT 10SM CLR 00/M01 A3014 RMK A01", "K48A 300955Z AUTO 23008G19KT 10SM VCTS OVC009 19/18 A2947 RMK AO2 LTG DSNT N T01870180", "K49A 300955Z AUTO 09003KT 3SM -RA BR FEW030 FEW060 OVC070 14/14 A2950 RMK AO2 P0006", "K4A6 300955Z AUTO 31006KT 10SM SCT038 BKN070 OVC080 15/15 A2956 RMK AO2", "K4A9 300955Z AUTO 29003KT 7SM SCT038 BKN048 OVC070 15/15 A2953 RMK AO2 P0001 T01490145", "K4BM 300955Z AUTO 29007G16KT 10SM CLR 01/M09 A3031 RMK AO2", "K4F2 300955Z AUTO 00000KT 10SM CLR 09/08 A2985 RMK AO2 T00910078", "K4I3 300955Z AUTO 13003KT 10SM BKN065 09/08 A2946 RMK AO2", "K4M9 300955Z AUTO 31008KT 10SM CLR 10/06 A2973 RMK AO2 PWINO", "K4MR 300955Z AUTO 23007KT 10SM CLR 10/M05 A2996 RMK AO2 SLP081 T00951052 $", "K4O4 300955Z AUTO 00000KT 9SM FEW060 SCT070 SCT085 09/08 A2982 RMK AO2", "K4R5 300955Z AUTO 35009G15KT 310V010 7SM -RA SCT009 BKN018 OVC032 01/01 A2951 RMK AO2 P0003 T00100008", "K4S1 300955Z AUTO 00000KT 2 1/2SM -RA SCT003 BKN011 09/09 A3002 RMK AO2 P0001", "K4S2 300955Z AUTO 30014G21KT 10SM CLR 16/02 A2988 RMK AO2", "K4U6 300955Z AUTO 00000KT 10SM M01/M04 A3013 RMK A01 Circle ", "K4V0 300955Z AUTO 00000KT 10SM CLR 03/00 A3010 RMK AO2 T00280001", "K4V1 300955Z AUTO 24008KT 10SM CLR 06/02 A3005 RMK AO2 T00580015", "K54A 300940Z AUTO 23010G18KT 4SM -TSRA BKN020 OVC029 25/24 A2970 RMK AO2", "K54J 300955Z AUTO 29005KT 10SM BKN009 OVC013 15/14 A2965 RMK AO2 T01450136", "K57C 300955Z AUTO 26008KT 10SM SCT021 OVC027 04/02 A2942 RMK AO2 T00400020", "K5A6 300955Z AUTO 00000KT 10SM 12/12 A2970 RMK AO2 T01240118", "K5C1 300955Z AUTO 00000KT 10SM CLR 07/04 A2999 RMK AO1", "K5H4 300955Z AUTO 32008KT 10SM CLR M01/M12 A3010 RMK AO2", "K5R8 300955Z AUTO 00000KT 10SM CLR 10/09 A2988 RMK AO2 T01000093", "K5SM 300955Z AUTO 30008KT 10SM CLR 01/M07 A3033 RMK AO2", "K5T9 300955Z AUTO 00000KT 10SM CLR 10/07 A2996 RMK A01", "K63S 300955Z AUTO 00000KT 10SM FEW055 FEW065 BKN110 08/05 A2988 RMK A01", "K65S 300955Z AUTO 00000KT 9SM CLR 08/03 A2993 RMK AO2", "K66R 300955Z AUTO 00000KT 10SM CLR 11/09 A2994 RMK AO2 T01100089", "K6A1 300955Z AUTO 30009KT 10SM OVC009 15/15 A2946 RMK AO2 LTG DSNT NE AND E T01520151", "K6A2 300955Z AUTO 06003KT 4SM OVC004 15/15 A2945 RMK AO2 LTG DSNT SE AND W", "K6B0 300955Z AUTO 12013G26KT 10SM OVC040 09/05 A2977 RMK AO2 T00870047", "K6B9 300955Z AUTO 14003KT 10SM SCT070 OVC085 10/10 A2961 RMK AO2", "K6I2 300955Z AUTO 31009G15KT 10SM FEW006 BKN013 OVC025 11/11 A2953 RMK AO2", "K6L4 300955Z AUTO 28003KT M1/4SM FG BKN001 OVC018 11/11 A2952 RMK AO2 VIS M1/4V5", "K6P9 300955Z AUTO 25008KT 10SM CLR 14/04 A2991 RMK AO2 T01360035", "K6R3 300955Z AUTO 00000KT 10SM CLR 10/10 A2990 RMK AO2 T01030096 TSNO", "K6R6 300951Z AUTO 29008KT 14/M04 A3000 RMK AO1 SLP130 T01391039", "K6S0 300955Z AUTO 05005KT 10SM CLR 05/M01 A3010 RMK A01", "K6S2 300955Z AUTO VRB03KT 9SM OVC006 10/10 A3000 RMK AO2", "K6S8 300955Z AUTO 02009KT 10SM 05/M04 A3008 RMK A01 LAUREL", "K77S 300955Z AUTO 00000KT 10SM BKN021 BKN100 08/07 A2999 RMK A01", "K79J 300956Z AUTO 28010KT 10SM FEW010 OVC080 16/13 A2962 RMK AO2 RAB27E29 SLP028 P0000 T01610128 $", "K7BM 300955Z AUTO 28004KT 10SM CLR 07/M06 A3024 RMK AO2", "K7L2 300955Z AUTO 00000KT 10SM CLR M01/M00 A3009 RMK AO2", "K7W4 300955Z AUTO 1/2SM OVC002 16/16 A2951 RMK AO1 T01560156", "K7W6 300950Z AUTO 18006KT 10SM BKN075 OVC090 19/17 A2958 RMK AO2 T01890168", "K81R 300955Z AUTO 00000KT 10SM CLR 09/06 A2996 RMK AO2 T00860057", "K82C 300955Z AUTO 29010KT 5SM DZ OVC012 02/02 A2943 RMK AO2 P0001 T00230020", "K8A0 300955Z AUTO 36007KT 10SM BKN031 BKN085 15/12 A2956 RMK AO2", "K8A3 300955Z AUTO 00000KT 10SM CLR 12/10 A2953 RMK A01", "K8B0 300955Z AUTO 12009KT 100V160 10SM OVC028 03/02 A2995 RMK AO2", "K8D3 300956Z AUTO 32014KT 03/01 A2990 RMK AO1 SLP132 T00330006", "K8T6 300955Z AUTO 00000KT 4SM BR CLR 10/10 A2997 RMK AO2", "K8W2 300955Z AUTO 00000KT 10SM OVC085 A2954 RMK AO1 P0002", "K96D 300955Z AUTO 33014KT 10SM CLR 02/02 A3004 RMK AO2", "K9A5 300955Z AUTO 00000KT 3SM SCT038 BKN060 OVC100 15/15 A2952 RMK AO2 T01460146", "K9D7 300935Z AUTO 34009KT 10SM CLR 00/01 A3009 RMK AO2 TSNO", "K9L2 300955Z AUTO 18005KT 10SM CLR 15/05 A2992 RMK AO2 SLP110 T01480045 $", "K9MN 300955Z AUTO 30013G24KT 270V340 10SM BKN034 BKN040 OVC048 04/M02 A2956 RMK AO1 T00411023", "K9S9 300955Z AUTO 12009KT 10SM CLR 15/02 A2986 RMK AO2 PWINO", "K9V9 300955Z AUTO 34012G17KT 10SM CLR 03/00 A3001 RMK AO2 T00280002", "KA39 300955Z AUTO 13008KT 10SM CLR 17/M05 A2987 RMK AO2", "KAAA 300955Z AUTO 27005KT 10SM CLR 06/06 A2958 RMK AO2 T00600056", "KAAF 300953Z AUTO 28008KT 10SM CLR 19/16 A2961 RMK AO2 SLP027 T01890161 $", "KAAO 300954Z AUTO 30009KT 10SM CLR 08/01 A2989 RMK AO2 SLP116 T00830006", "KAAS 300955Z AUTO 28005KT 7SM BKN005 OVC020 11/11 A2958 RMK AO1", "KAAT 300955Z AUTO 00000KT 10SM CLR 03/00 A3000 RMK AO2 SLP129 T00330000", "KABE 300951Z 08009KT 9SM OVC007 10/09 A2968 RMK AO2 CIG 005V011 SLP052 T01000089 $", "KABH 300955Z AUTO 06009KT 10SM CLR 06/M01 A3009 RMK AO2 SLP150 T00551006", "KABI 300952Z 20008KT 10SM CLR 14/02 A2993 RMK AO2 SLP115 T01440022", "KABQ 300952Z 14004KT 10SM CLR 11/M06 A3008 RMK AO2 SLP126 T01111056", "KABR 300953Z AUTO 34014KT 10SM CLR 03/01 A2999 RMK AO2 SLP160 T00280011 $", "KABY 300953Z AUTO 26007KT 10SM CLR 15/13 A2954 RMK AO2 SLP003 T01500133", "KACB 300955Z AUTO 00000KT 10SM BKN018 OVC040 05/03 A2936 RMK AO2 T00450032", "KACJ 300955Z AUTO 23008KT 10SM FEW140 15/15 A2950 RMK AO2 T01480148", "KACK 300953Z AUTO 11022G28KT 7SM SCT007 OVC018 11/09 A2978 RMK AO2 PK WND 11029/0936 SLP085 T01060094", "KACP 300955Z AUTO 24003KT 10SM CLR 11/10 A2985 RMK AO2", "KACQ 300955Z AUTO 31016G21KT 10SM SCT075 02/00 A2965 RMK AO2 P0001", "KACT 300951Z AUTO 20005KT 10SM CLR 08/08 A2988 RMK AO2 SLP114 T00830078", "KACV 300958Z AUTO 00000KT 10SM SCT005 OVC018 09/08 A3003 RMK AO2 T00940083", "KACY 300954Z AUTO 09007KT 1/2SM FG VV002 11/11 A2966 RMK AO2 SLP044 T01110111", "KACZ 300945Z AUTO 13004KT 5SM BR SCT005 SCT070 BKN095 18/18 A2951 RMK AO2 T01840177", "KADC 300956Z AUTO 34014G19KT 10SM CLR 03/M03 A2978 RMK AO2 TSNO", "KADF 300956Z AUTO 11003KT 10SM CLR 09/09 A2982 RMK AO2 SLP096 T00890089", "KADG 300953Z AUTO 22004KT 8SM -RA FEW027 BKN032 OVC048 07/05 A2946 RMK AO2 SLP976 P0008 T00670050", "KADH 300955Z AUTO 00000KT 10SM CLR 10/07 A2985 RMK AO2", "KADM 300955Z AUTO 00000KT 10SM FEW035 FEW042 FEW050 06/04 A2984 RMK AO2", "KADS 300955Z AUTO 00000KT 10SM CLR 13/04 A2985 RMK AO2 T01300040", "KADT 300955Z AUTO 36008KT 10SM OVC100 09/M04 A3008 RMK AO2 T00861042", "KADU 300955Z AUTO 31007KT 10SM SCT060 SCT070 BKN085 03/01 A2976 RMK AO2", "KADW 300955Z 05005KT 10SM OVC007 15/15 A2952 RMK AO2A SLP002 T01470145", "KAEG 300955Z AUTO 00000KT 10SM CLR 04/M08 A3010 RMK AO2 T00351085", "KAEJ 300955Z AUTO 00000KT 10SM CLR 01/M03 A3017 RMK AO2 T00141035", "KAEL 300955Z AUTO 31012G21KT 10SM CLR 03/00 A2962 RMK AO2", "KAEX 300953Z 29003KT 10SM CLR 10/09 A2983 RMK AO2 SLP105 T01000094", "KAFF 300955Z AUTO 01006KT 10SM CLR 04/M01 A3010 RMK AO2 SLP141 T00441010", "KAFJ 300956Z AUTO 00000KT 10SM -RA OVC060 11/11 A2951 RMK AO2 RAB02 SLP991 P0001 T01110106", "KAFK 300955Z AUTO 31012KT 10SM CLR 05/01 A2984 RMK AO2 T00540005", "KAFN 300952Z AUTO 00000KT 4SM BR OVC006 08/06 A2984 RMK AO2 CIG 005V010 SLP115 T00780061", "KAFO 300950Z AUTO 00000KT 10SM CLR 00/M02 A3013 RMK AO2", "KAFP 300949Z AUTO 00000KT 7SM DZ SCT003 SCT007 BKN075 16/15 A2949 RMK AO2 P0032 T01590152", "KAFW 300953Z 26004KT 10SM CLR 11/06 A2984 RMK AO2 SLP098 T01110061", "KAGC 300953Z 17004KT 10SM OVC055 12/10 A2949 RMK AO2 RAE17 SLP987 P0000 T01170100", "KAGI 300955Z AUTO 35009G20KT 10SM CLR 20/11 A2990 RMK AO2 T01990111", "KAGO 300955Z AUTO 00000KT 10SM FEW048 SCT055 SCT070 09/09 A2979 RMK A01", "KAGS 300953Z 00000KT 10SM SCT005 OVC013 17/17 A2943 RMK AO2 RAE26B43E53 SLP963 P0000 T01720172", "KAHN 300951Z AUTO 03006KT 4SM RA BR FEW055 BKN070 OVC085 15/14 A2945 RMK AO2 PRESFR SLP968 P0019 T01500144", "KAHQ 300955Z AUTO 32016G21KT 10SM CLR 06/01 A2988 RMK AO2 T00620007", "KAIA 300953Z AUTO 02008KT 10SM CLR M01/M06 A3009 RMK AO2 SLP182 T10111061", "KAID 300955Z AUTO 26004KT 10SM BKN060 05/03 A2952 RMK AO2 P0001 T00500029", "KAIG 300955Z AUTO 31007KT 5SM BR OVC009 00/00 A2932 RMK AO2 T00001002", "KAIK 300955Z AUTO 02005KT 5SM -RA BR SCT003 OVC010 16/15 A2945 RMK AO2 LTG DSNT SW P0003 T01560152", "KAIO 300955Z AUTO 32015G20KT 10SM FEW049 05/05 A2978 RMK AO2", "KAIT 300955Z AUTO 33015G20KT 10SM DZ SCT024 OVC032 02/M01 A2969 RMK AO2", "KAIZ 300956Z AUTO 28004KT 10SM CLR 06/03 RMK AO2 SLPNO T00610028 $", "KAJG 300955Z AUTO 26007KT 10SM CLR 07/06 A2961 RMK AO2 T00650055", "KAJO 301004Z AUTO 00000KT 3SM BR BKN007 12/12 A2995 RMK AO2", "KAJR 300955Z AUTO 02005KT 5SM RA OVC070 15/15 A2949 RMK AO2 LTG DSNT E T01540154", "KAJZ 300955Z AUTO 06006KT 10SM CLR 07/M02 A3010 RMK AO2 T00741019 PWINO", "KAKH 300954Z AUTO 21003KT 3SM BR FEW002 BKN028 OVC043 16/16 A2950 RMK AO2 SLP984 T01560156", "KAKO 300953Z AUTO 05007KT 10SM OVC120 06/M03 A3007 RMK AO2 SLP154 T00561033 TSNO $", "KAKQ 300954Z AUTO 00000KT 4SM -RA BR OVC004 18/18 A2952 RMK AO2 LTG DSNT N RAB0856E27B46 CIG 002V006 SLP995 P0004 T01830183", "KAKR 300954Z AUTO 20003KT 10SM OVC040 12/08 A2944 RMK AO2 SLP968 T01170078", "KALB 300951Z 34003KT 10SM -RA OVC023 09/08 A2978 RMK AO2 DZB41E47RAB47 SLP083 P0000 T00940078", "KALI 300953Z AUTO 00000KT 10SM CLR 16/07 A2996 RMK AO2 SLP143 T01560072", "KALK 300956Z AUTO 23005KT 10SM CLR 18/M08 A3008 RMK AO2 SLP089 T01781078", "KALM 300955Z AUTO 29004KT 10SM FEW038 SCT044 BKN050 11/M08 A3005 RMK AO2", "KALN 300955Z AUTO 00000KT 10SM CLR 05/05 A2964 RMK AO2 T00500048", "KALO 300954Z AUTO 30012KT 10SM OVC070 05/01 A2959 RMK AO2 SLP023 T00500011", "KALS 300952Z AUTO 15004KT 10SM CLR M01/M06 A3014 RMK AO2 SLP149 T10061061", "KALW 300953Z AUTO 23006KT 10SM CLR 16/07 A2980 RMK AO2 SLP084 T01560072", "KAMA 300953Z AUTO 28005KT 10SM CLR 12/01 A2995 RMK AO2 SLP104 T01170006", "KAMG 300953Z AUTO 23007KT 7SM -RA SCT004 SCT016 OVC090 19/18 A2947 RMK AO2 RAB09 SLP978 P0013 T01940183 $", "KAMN 300955Z AUTO 19006KT 10SM SCT019 SCT024 OVC032 06/05 A2941 RMK AO2 T00620053", "KAMW 300953Z AUTO 31014G21KT 10SM FEW065 05/02 A2968 RMK AO2 SLP052 T00500017", "KANB 300953Z AUTO 23005KT 7SM RA BKN006 BKN060 OVC075 15/14 A2954 RMK AO2 SLP997 P0012 T01500144", "KAND 300956Z AUTO 14004KT 8SM -RA FEW008 SCT055 OVC100 16/16 A2948 RMK AO2 SLP977 P0009 T01560156", "KANE 300955Z AUTO 33021G28KT 10SM SCT028 BKN034 OVC060 05/M01 A2962 RMK AO2", "KANJ 300955Z AUTO 17008KT 10SM OVC004 06/06 A2933 RMK AO2 RAE06 CIG 003V007 SLP933 P0001 T00560056", "KANK 300950Z AUTO 28003KT 10SM CLR 04/M03 A3023 RMK AO1 T00401031", "KANQ 300955Z AUTO VRB06KT 10SM FEW033 SCT050 OVC075 06/04 A2945 RMK AO2", "KANW 300955Z AUTO 29007KT 10SM CLR 01/M04 A3002 RMK AO2 T00071040", "KAOH 300953Z AUTO 26010KT 3SM RA BR BKN032 OVC041 07/06 A2948 RMK AO2 RAE03B16 SLP983 P0010 T00670056", "KAOO 300953Z AUTO 09003KT 7SM -RA FEW002 SCT075 OVC090 11/11 A2955 RMK AO2 SLP006 P0004 T01110106", "KAPA 300953Z 00000KT 10SM FEW220 06/M01 A3010 RMK AO2 SLP157 T00561006", "KAPC 300954Z AUTO 32004KT 10SM CLR 08/06 A2996 RMK AO2 SLP135 T00780061", "KAPF 300953Z 21021G32KT 10SM SCT019 BKN027 BKN035 28/23 A2969 RMK AO2 PK WND 21032/0946 SLP052 T02830233", "KAPN 300954Z AUTO 21006KT 10SM CLR 05/04 A2938 RMK AO2 SLP951 T00500039 $", "KAPS 300956Z AUTO 29009KT 10SM CLR 14/12 A2983 RMK AO2", "KAPY 300955Z AUTO 00000KT 10SM CLR 10/07 A2999 RMK AO2 T00990065 TSNO", "KAQO 300955Z AUTO 00000KT 10SM FEW037 SCT045 BKN055 07/03 A2995 RMK AO2", "KAQP 300953Z AUTO 01014G19KT 10SM 03/01 A2983 RMK AO2", "KAQV 300957Z AUTO 00000KT 10SM CLR 09/08 A2982 RMK AO2 SLP099 T00940083", "KAQW 300952Z AUTO 11016KT 10SM BKN021 BKN027 OVC039 09/06 A2978 RMK AO2 SLP087 T00940061", "KAQX 300955Z AUTO VRB04KT 10SM FEW010 SCT015 BKN028 20/19 A2944 RMK AO2", "KARA 300953Z 28006KT 10SM CLR 13/11 A2985 RMK AO2 SLP109 T01330111", "KARB 301002Z AUTO 23007KT 4SM -RA BR FEW008 BKN028 OVC032 06/05 A2944 RMK AO2 P0001 T00610050", "KARG 300956Z AUTO 30009KT 10SM CLR 09/05 A2974 RMK AO2 SLP071 T00940050", "KARM 300955Z AUTO 00000KT 10SM CLR 12/12 A2994 RMK AO2 T01220120 TSNO", "KARR 300952Z AUTO 25007KT 10SM CLR 02/01 A2949 RMK AO2 SLP987 T00220011", "KART 300956Z AUTO 14007G15KT 10SM BKN065 11/07 A2961 RMK AO2 SLP027 T01110072", "KARV 300955Z AUTO 35016KT 1SM SN OVC005 00/M01 A2937 RMK AO2 P0001 T10021010", "KARW 300955Z AUTO 22008KT 10SM BKN014 BKN019 21/20 A2947 RMK AO2", "KASD 300953Z AUTO 00000KT 10SM OVC043 17/13 A2977 RMK AO2 SLP082 T01670133", "KASE 300953Z AUTO 20006KT 10SM CLR 01/M05 A3017 RMK AO2 SLP137 T00061050 $", "KASH 300956Z AUTO 07009G16KT 8SM -RA OVC008 08/08 A2987 RMK AO2 SLP121 P0001 T00780078", "KASJ 300945Z AUTO 19007KT 10SM OVC070 19/19 A2953 RMK AO2 T01850185", "KASL 300955Z AUTO 00000KT 8SM CLR 08/08 A2983 RMK AO2 T00750075 $", "KASN 300955Z AUTO 20003KT 7SM -RA BKN027 BKN040 OVC055 15/15 A2954 RMK AO2 LTG DSNT SE T01520151", "KAST 301004Z AUTO 10003KT 10SM SCT019 BKN026 OVC032 10/08 A2995 RMK AO2 T01000078", "KASW 300955Z AUTO 26005KT 10SM SCT038 BKN046 BKN055 05/03 A2948 RMK AO2 T00510032", "KASX 300953Z AUTO 34010G17KT 1 3/4SM -SN BR OVC010 01/00 A2952 RMK AO2 SLP006 P0006 T00110000", "KATA 300955Z AUTO 00000KT 10SM CLR 07/07 A2982 RMK AO2 SLP997 T00670067 $", "KATL 300952Z COR 01007KT 4SM RA BR BKN006TCU OVC050 15/14 A2949 RMK AO2 LTG DSNT SW AND W SLP981 TCU OHD-ALQDS CB DSNT SW W P0022 T01500139 $", "KATP 301000Z AUTO 30020G32KT 9SM SCT034 SCT043 OVC055 21/14 A2985 RMK A01", "KATS 300955Z AUTO 20006KT 10SM CLR 12/M06 A3000 RMK AO2", "KATT 300951Z AUTO VRB03KT 10SM CLR 12/07 A2994 RMK AO2 SLP134 T01220067 $", "KATW 300955Z AUTO 28010KT 10SM OVC010 02/00 A2933 RMK AO2", "KATY 300953Z AUTO 35023G31KT 10SM OVC012 03/01 A2988 RMK AO2 PK WND 35031/0946 SLP128 T00280011", "KAUG 300953Z AUTO 10004KT 7SM -RA OVC010 06/04 A3003 RMK AO2 CIG 008V015 SLP172 P0005 T00610044", "KAUH 300955Z AUTO 31010KT 10SM CLR 02/M03 A2995 RMK AO2 T00201027", "KAUM 300957Z AUTO 32017G23KT 10SM SCT050 BKN075 04/00 A2959 RMK AO2", "KAUN 300955Z AUTO 10005KT 10SM CLR 17/08 A2991 RMK A01", "KAUO 300957Z AUTO 26006KT 10SM BKN007 BKN010 OVC025 14/14 A2953 RMK AO2 CIG 004V009 PNO $", "KAUS 300953Z 25006KT 10SM CLR 11/07 A2993 RMK AO2 SLP132 T01110067 $", "KAUW 300954Z AUTO 30011KT 7SM SCT009 OVC015 02/00 A2935 RMK AO2 UPB18E46SNB46E47 SLP950 P0000 T00170000", "KAVC 300955Z AUTO 00000KT 10SM SCT018 SCT031 OVC070 17/17 A2957 RMK AO2 T01720171", "KAVL 300954Z AUTO 33008KT 10SM -RA OVC075 12/11 A2952 RMK AO2 RAB34 SLP979 P0000 T01220106", "KAVP 300954Z AUTO 06005KT 3SM +RA BR BKN060 OVC080 10/09 A2965 RMK AO2 SLP039 P0012 T01000089", "KAVQ 300955Z AUTO 00000KT 10SM 19/M05 A2988 RMK AO2 T01851052", "KAVX 300951Z AUTO 18004KT M1/4SM FG VV001 10/09 A2994 RMK AO2 SLP129 T01000094 $", "KAWG 300955Z AUTO 29012KT 10SM BKN060 BKN080 05/05 A2959 RMK AO2", "KAWM 300953Z AUTO 35008KT 10SM CLR 13/07 A2969 RMK AO2 SLP050 T01280072", "KAWO 300956Z AUTO 00000KT 8SM CLR 07/07 A2990 RMK AO2 SLP129 T00720067", "KAXA 300955Z AUTO 32014G20KT 10SM CLR 04/02 A2969 RMK A01", "KAXH 300955Z AUTO 00000KT 10SM CLR 11/10 A2993 RMK AO2 T01070100", "KAXN 300953Z AUTO 33015G23KT 10SM CLR 02/M03 A2979 RMK AO2 SLP098 T00221028", "KAXS 300955Z AUTO 36006KT 10SM CLR 10/06 A2990 RMK AO2 T00970064", "KAXV 300955Z AUTO 27008KT 5SM -RA SCT007 SCT015 OVC035 06/05 A2949 RMK AO2", "KAXX 300955Z AUTO 00000KT 10SM CLR M02/M04 A3020 RMK AO2 T10211038", "KAYS 300955Z AUTO 21010KT 3SM RA BKN006 BKN019 OVC049 20/19 A2951 RMK AO2 T01980191", "KAZC 300955Z AUTO 15011KT 10SM CLR 06/M03 A3010 RMK AO2", "KAZE 300955Z AUTO 21005KT 10SM RA BKN005 BKN031 OVC095 19/19 A2946 RMK AO2 LTG DSNT N T01900185", "KAZO 300953Z 25009KT 10SM FEW017 BKN028 OVC033 06/03 A2945 RMK AO2 SLP975 T00610028", "KBAC 300955Z AUTO 34014G20KT 10SM CLR 01/01 A2999 RMK AO2", "KBAD 300955Z AUTO 00000KT 10SM CLR 10/07 A2982 RMK AO2 SLP102 T00980067 $", "KBAF 300953Z AUTO 01008KT 3SM -RA BR BKN006 OVC009 08/08 A2978 RMK AO2 RAE32B53 SLP087 P0001 T00830078", "KBAM 300955Z AUTO 22006KT 10SM CLR 10/M01 A3001 RMK AO1", "KBAN 300952Z AUTO 00000KT 10SM CLR 03/M03 A3012 RMK AO2 SLP128 T00281028 $", "KBAX 300955Z AUTO 21003KT 10SM CLR 05/05 A2941 RMK AO2 T00450045", "KBAZ 300951Z AUTO 28005KT 10SM CLR 11/07 A2994 RMK AO2 SLP134 T01060072 $", "KBBB 300957Z AUTO 35016G20KT 10SM CLR 02/00 A2981 RMK AO2", "KBBD 300955Z AUTO 26004KT 10SM CLR 10/M00 A2996 RMK AO2", "KBBG 300955Z AUTO 00000KT 10SM CLR 07/03 A2977 RMK AO2", "KBBP 300955Z AUTO 00000KT 10SM BKN004 OVC009 17/17 A2947 RMK AO2 P0001", "KBBW 300953Z AUTO 30013KT 10SM CLR 03/M04 A3000 RMK AO2 SLP159 T00281044", "KBCB 300955Z AUTO 00000KT 7SM -RA BKN070 OVC090 14/14 A2958 RMK AO2 P0001 T01400140", "KBCE 300953Z AUTO 27011KT 10SM CLR 03/M04 A3022 RMK AO2 SLP135 T00331044", "KBCK 300955Z AUTO 31010G14KT 5SM -RA OVC013 02/01 A2948 RMK AO2 T00220011", "KBDE 300953Z AUTO 34013KT 10SM CLR 02/M03 A2986 RMK AO2 SLP120 T00221033 $", "KBDG 300955Z AUTO 30003KT 10SM 10/M07 A3016 RMK AO1 T00961074", "KBDH 300955Z AUTO 32012KT 10SM CLR 02/M01 A2979 RMK AO2", "KBDL 300951Z 01011KT 2SM -DZ BR OVC006 09/08 A2976 RMK AO2 SFC VIS 2 1/2 SLP079 P0000 T00940083 $", "KBDN 300955Z AUTO 24007KT 10SM CLR 13/05 A2990 RMK AO2", "KBDR 300952Z AUTO 03010KT 10SM OVC006 11/10 A2971 RMK AO2 SLP062 T01060100", "KBDU 300955Z AUTO 00000KT 10SM CLR 08/00 A3009 RMK AO2", "KBEA 300955Z AUTO 00000KT 10SM CLR 14/07 A2996 RMK AO2 T01420065 PWINO", "KBEC 300955Z AUTO 30007KT 10SM CLR 09/01 A2989 RMK AO2 T00890007", "KBED 300951Z AUTO 07012KT 5SM -RA BR OVC006 09/08 A2984 RMK AO2 SLP117 P0001 T00890083", "KBEH 300953Z AUTO 28010KT 10SM OVC075 06/02 A2946 RMK AO2 SLP979 T00560017", "KBFD 300953Z AUTO 14008KT 10SM OVC007 11/09 A2953 RMK AO2 SLP998 T01110089", "KBFF 300953Z AUTO 33004KT 10SM FEW110 02/M04 A3010 RMK AO2 SLP175 T00221044", "KBFI 300953Z 20004KT 10SM CLR 12/07 A2991 RMK AO2 SLP127 T01170067", "KBFL 300954Z 00000KT 8SM CLR 21/13 A2987 RMK AO2 SLP107 T02110128", "KBFM 300953Z AUTO 30008KT 10SM BKN015 16/13 A2971 RMK AO2 SLP060 T01610133", "KBFR 300955Z AUTO 29004KT 10SM BKN013 OVC018 06/05 A2957 RMK AO2", "KBGD 300951Z AUTO 21006KT 10SM CLR 11/06 A2996 RMK AO2 SLP117 T01110056", "KBGE 300955Z AUTO 26008KT 10SM SCT060 15/14 A2958 RMK AO2 T01540143", "KBGF 300955Z AUTO 33004KT 10SM FEW045 FEW080 OVC095 14/12 A2955 RMK A01", "KBGM 301000Z 13008KT 10SM OVC005 09/08 A2963 RMK AO2 CIG 003V008 T00890078", "KBGR 300953Z 06006KT 10SM -RA FEW080 OVC090 06/03 A3007 RMK AO2 SLP184 P0002 T00560033", "KBHB 300956Z AUTO 11009G15KT 10SM OVC014 06/03 A3009 RMK AO2 SLP192 T00610033", "KBHC 300955Z AUTO 00000KT 7SM -RA SCT008 BKN060 OVC095 18/18 A2947 RMK AO2 LTG DSNT NW", "KBHK 300951Z AUTO 13004KT 10SM CLR M03/M08 A3014 RMK AO2 SLP219 T10331078", "KBHM 300953Z 30006KT 6SM BR OVC006 16/14 A2960 RMK AO2 RAE00 CIG 005V009 SLP017 P0001 T01560139", "KBID 300956Z AUTO 08004KT 1/4SM -RA FG OVC003 10/10 A2975 RMK AO2 RAE13B30 SLP074 P0000 T01000100", "KBIE 300955Z AUTO 32010KT 10SM CLR 04/00 A2990 RMK AO2 T00400000", "KBIF 300955Z 300955Z 23002KT 7SM SKC 17/M08 A3006 RMK SLPNO WND DATA ESTMD ALSTG DATA ESTMD", "KBIH 300956Z AUTO 00000KT 10SM CLR 11/04 A2999 RMK AO2 SLP110 T01060039", "KBIJ 300955Z AUTO 27007KT 10SM BKN013 BKN080 14/12 A2958 RMK AO2 LTG DSNT NE", "KBIL 300953Z 36005KT 10SM FEW200 06/M04 A3007 RMK AO2 SLP176 T00561039 $", "KBIS 300952Z AUTO 32007KT 10SM CLR 01/M02 A3010 RMK AO2 SLP204 T00111022 $", "KBIV 300953Z AUTO 26009KT 10SM SCT026 OVC038 06/02 A2943 RMK AO2 SLP970 T00560022", "KBIX 300955Z AUTO 32010G16KT 10SM BKN015 BKN028 OVC033 16/14 A2971 RMK AO2 CIG 015V027 CIG 014 RWY22 SLP064 T01600138", "KBJC 300955Z AUTO 29004KT 10SM CLR 08/00 A3011 RMK AO2", "KBJI 300955Z AUTO 34014G21KT 10SM CLR 02/M03 A2981 RMK AO2 T00151035", "KBJJ 300956Z AUTO 17004KT 10SM FEW010 BKN015 OVC027 10/09 A2946 RMK AO2 RAB01E12 SLP973 P0000 T01000094", "KBKB 300952Z AUTO 00000KT 6SM BR CLR 10/09 A2983 RMK AO2 SLP129 T01000094", "KBKD 300955Z AUTO 22003KT 7SM CLR 13/04 A2990 RMK AO2 T01290042", "KBKE 300953Z AUTO 00000KT 10SM CLR 05/03 A2991 RMK AO2 SLP112 T00500033", "KBKF 300958Z 26003KT 10SM FEW220 05/M01 A3009 RMK AO2A SLP144 T00531012", "KBKL 301001Z AUTO 15004KT 10SM SCT024 BKN065 OVC085 12/09 A2944 RMK AO2 T01170094", "KBKN 300955Z AUTO 32007KT 06/05 A2989 RMK AO2", "KBKS 300955Z AUTO 00000KT 1/4SM FG CLR 10/09 A2997 RMK AO2 SLP108 T01030087 $", "KBKT 300955Z AUTO 00000KT 10SM SCT075 OVC090 16/16 A2951 RMK AO1 T01560156", "KBKV 300958Z AUTO 26018G31KT 9SM -RA SCT015 BKN024 OVC042 22/20 A2964 RMK AO2 PK WND 25029/0954 WSHFT 0940 LTG DSNT NE AND E P0000 T02170200", "KBKW 300951Z AUTO 19007KT 10SM -RA BKN060 OVC075 12/11 A2952 RMK AO2 SLP979 P0002 T01170106", "KBKX 300956Z AUTO 35018G22KT 10SM OVC016 03/01 A2986 RMK AO2 PK WND 34026/0859 SLP134 T00330011", "KBLF 300952Z AUTO 28004KT 10SM -RA BKN060 OVC100 12/11 A2955 RMK AO2 SLP980 P0001 T01170106", "KBLI 300953Z AUTO 19008KT 10SM CLR 12/10 A2986 RMK AO2 SLP117 T01170100 $", "KBLM 300956Z AUTO 06006KT 1/2SM -RA OVC002 A2971 RMK AO2 RAB15 SLPNO P0001 FZRANO RVRNO $", "KBLU 300952Z AUTO 15004KT 10SM CLR 13/04 A3008 RMK AO2 SLP107 T01330044", "KBLV 300955Z 26004KT 10SM CLR 06/04 A2963 RMK AO2A SLP036 T00550041 $", "KBMC 300950Z AUTO 00000KT 10SM CLR 12/04 A3001 RMK AO1 T01160036", "KBMG 300953Z AUTO 26006KT 10SM SCT006 BKN017 06/05 A2956 RMK AO2 SLP007 T00610050", "KBMI 300956Z AUTO 25009KT 10SM CLR 04/03 A2956 RMK AO2 SLP008 T00390033", "KBML 300952Z AUTO 14009G17KT 10SM OVC019 06/03 A2991 RMK AO2 SLP136 T00560028", "KBMQ 300953Z AUTO 00000KT 10SM CLR 10/06 A2996 RMK AO2 SLP135 T01000061 $", "KBMT 300955Z AUTO 26006KT 10SM CLR 13/11 A2989 RMK AO2 T01250105", "KBNA 300953Z 28005KT 10SM SCT100 12/11 A2958 RMK AO2 SLP013 T01220106", "KBNL 300955Z AUTO 26005KT 10SM BKN006 BKN009 OVC020 19/19 A2945 RMK AO2", "KBNO 300953Z AUTO 03003KT 10SM CLR 07/02 A2996 RMK AO2 SLP117 T00670022", "KBNW 300955Z AUTO 31014KT 10SM BKN065 04/03 A2968 RMK AO2", "KBOI 300953Z 13008KT 10SM CLR 16/02 A2987 RMK AO2 SLP089 T01610022", "KBOK 301004Z AUTO 00000KT 2 1/2SM -RA BR FEW003 BKN008 OVC019 08/08 A3004 RMK AO2 P0000", "KBOS 300954Z 06016KT 2 1/2SM -RA BR BKN006 OVC011 09/08 A2986 RMK AO2 SLP112 P0004 T00940083 $", "KBOW 300955Z AUTO 23013KT 1 3/4SM VCTS RA SCT002 OVC013 22/21 A2964 RMK AO2", "KBPC 300955Z AUTO 00000KT 10SM CLR 08/04 A2994 RMK AO2", "KBPG 300955Z AUTO 18009KT 10SM CLR 13/M05 A2998 RMK AO2 T01261048", "KBPI 300953Z AUTO 00000KT 10SM FEW095 01/M02 A3015 RMK AO2 SLP148 T00111022", "KBPK 300953Z AUTO 00000KT 10SM CLR 06/01 A2975 RMK AO2 SLP072 T00610011", "KBPT 300953Z 27008KT 10SM CLR 12/11 A2988 RMK AO2 SLP118 T01170106", "KBQK 300955Z AUTO 23007KT 3 1/2SM +RA BR SCT010 BKN015 OVC037 20/19 A2949 RMK AO2 P0019 T01990188", "KBQP 300955Z AUTO 27005KT 10SM CLR 11/11 A2979 RMK AO2 T01100107", "KBQX 300955Z AUTO 28006KT 10SM FEW037 FEW045 BKN060 21/09 A2995 RMK A01", "KBRD 300953Z AUTO 34017G32KT 10SM OVC032 03/M03 A2971 RMK AO2 PK WND 35037/0858 SLP071 T00331028", "KBRG 300955Z AUTO 00000KT 10SM CLR 08/M07 A3007 RMK AO2 T00841072", "KBRL 300953Z AUTO 29007KT 10SM SCT085 06/03 A2959 RMK AO2 SLP022 T00560033", "KBRO 300953Z AUTO 20003KT 10SM CLR 15/13 A2998 RMK AO2 SLP151 T01500133", "KBRY 300955Z AUTO 32007KT 10SM SCT034 11/09 A2952 RMK AO2 T01080086", "KBTA 300955Z AUTO 30009KT 10SM CLR 04/01 A2984 RMK AO2 T00400005", "KBTL 300953Z AUTO 24006KT 10SM FEW030 BKN035 BKN120 06/03 A2943 RMK AO2 SLP969 T00560033", "KBTM 300953Z AUTO 13005KT 10SM CLR 01/M02 A3009 RMK AO2 SLP159 T00061022", "KBTN 300955Z AUTO 34012G18KT 10SM CLR 02/02 A2994 RMK AO2", "KBTP 300956Z AUTO 14004KT 9SM -RA SCT050 OVC065 11/10 A2951 RMK AO2 RAB06 SLP999 P0001 T01060100 TSNO $", "KBTR 300953Z AUTO 27007KT 10SM CLR 14/12 A2982 RMK AO2 SLP098 T01390117 $", "KBTV 300954Z 00000KT 10SM OVC040 08/05 A2979 RMK AO2 SLP088 T00830050", "KBUF 300954Z 14007KT 10SM FEW030 SCT110 SCT150 SCT280 10/08 A2951 RMK AO2 SLP995 T01000083", "KBUR 300953Z 16005KT 5SM BR OVC005 13/11 A2994 RMK AO2 SLP127 T01280111 $", "KBUU 300955Z AUTO 25007G14KT 10SM SCT029 OVC075 05/02 A2943 RMK AO2 T00460022 PWINO", "KBUY 300954Z AUTO 27003KT 7SM FEW025 OVC080 16/16 A2949 RMK AO2 RAE15 SLP982 P0001 T01610161", "KBVI 300955Z AUTO 14004KT 10SM RA BKN060 OVC085 12/09 A2948 RMK AO2 T01180093", "KBVN 300955Z AUTO 33005KT 10SM CLR 01/M02 A2994 RMK AO2 T00051021", "KBVO 300953Z AUTO 00000KT 10SM CLR 05/04 A2987 RMK AO2 SLP108 T00500039", "KBVS 300955Z AUTO 21004KT 10SM SCT050 08/08 A2990 RMK A01", "KBVU 300955Z AUTO 34006KT 10SM CLR 20/M06 A2986 RMK AO2", "KBVX 300956Z AUTO 32003KT 10SM CLR 09/03 A2977 RMK AO2 SLP079 T00940028", "KBVY 300953Z AUTO 06007KT 4SM -RA BR BKN005 OVC010 08/08 A2988 RMK AO2 SLP114 P0008 T00830078", "KBWD 300935Z AUTO 00000KT 10SM CLR 06/04 A2994 RMK AO1", "KBWG 300953Z AUTO VRB06KT 10SM FEW012 SCT017 BKN024 11/07 A2957 RMK AO2 SLP010 T01110072", "KBWI 300954Z 10008KT 6SM BR OVC005 16/14 A2957 RMK AO2 SLP011 T01560144 $", "KBWP 300955Z AUTO 33017G22KT 10SM CLR 02/02 A2989 RMK AO2", "KBWW 300955Z AUTO 30004KT 10SM CLR M00/M05 A3013 RMK AO2", "KBXA 300955Z AUTO 29005KT 10SM SCT046 16/14 A2978 RMK AO2 T01550135", "KBXK 300955Z AUTO 02003KT 10SM CLR 17/M10 A2982 RMK A01", "KBYG 300953Z AUTO 20003KT 10SM CLR 05/M02 A3009 RMK AO2 SLP163 T00501022", "KBYI 300953Z AUTO 00000KT 10SM CLR 07/03 A2996 RMK AO2 SLP113 T00720028", "KBYL 300955Z AUTO 00000KT 5SM FEW035 BKN041 OVC049 11/11 A2953 RMK AO1", "KBYS 300955Z AUTO 01004KT 10SM CLR 21/02 A2987 RMK AO2 SLP087 T02130015 $", "KBYY 300955Z AUTO 00000KT 10SM CLR 10/10 A2994 RMK AO2 T01040095", "KBZN 300956Z AUTO 18003KT 10SM CLR 04/01 A3005 RMK AO2 SLP157 T00440011", "KC09 300955Z AUTO 26006KT 10SM CLR 02/02 A2950 RMK AO2 T00200015", "KC29 300955Z AUTO 27007KT 10SM SCT039 BKN050 OVC060 05/03 A2944 RMK AO1 T00470025", "KC35 300955Z AUTO 29006KT 10SM BKN011 BKN027 OVC034 02/02 A2945 RMK AO2 P0003 T00180018 PWINO", "KC62 300955Z AUTO 27008KT 10SM SCT060 SCT080 OVC100 06/03 A2946 RMK AO2 T00580040", "KC65 300955Z AUTO 24006KT 10SM OVC060 06/02 A2947 RMK A01", "KC75 300955Z AUTO 26005KT 10SM SCT070 OVC090 06/04 A2953 RMK AO2 T00560035", "KC83 300955Z AUTO 24025G32KT 10SM CLR 12/07 A2989 RMK AO2", "KC99 300955Z AUTO 30011G18KT 270V340 10SM CLR 00/M09 A3025 RMK AO2", "KCAD 300955Z AUTO 19008KT 10SM OVC009 03/02 A2934 RMK AO2 T00310020", "KCAE 300956Z 36003KT 10SM OVC004 17/16 A2944 RMK AO2 RAB11E22 SLP967 P0000 T01670161 $", "KCAG 300953Z AUTO 13004KT 10SM CLR 01/M02 A3011 RMK AO2 SLP163 T00061022", "KCAK 300951Z 22003KT 10SM -RA OVC035 11/08 A2946 RMK AO2 RAB22 SLP973 P0000 T01060083", "KCAO 300955Z AUTO 34004KT 10SM CLR 08/M01 A3000 RMK AO2 SLP115 T00781006", "KCAR 300954Z AUTO 14007KT 10SM OVC100 09/03 A3007 RMK AO2 SLP188 T00890028", "KCAV 300955Z AUTO 32017KT 10SM CLR 03/00 A2967 RMK A01", "KCBE 300945Z AUTO 00000KT 5SM -RA BR SCT005 BKN049 OVC090 13/12 A2957 RMK AO2 P0003 T01290125", "KCBF 300955Z AUTO 32015G21KT 10SM CLR 06/M00 A2980 RMK AO2", "KCBG 300955Z AUTO 33011G24KT 7SM RA SCT021 BKN025 OVC033 03/M04 A2965 RMK AO2", "KCBK 300955Z AUTO 35007KT 10SM OVC100 09/M02 A3004 RMK AO2 T00881019", "KCBM 300955Z AUTO 27007KT 10SM CLR M A2962 RMK AO2 SLPNO ALSTG ESTMD $", "KCCA 300955Z AUTO 00000KT 10SM CLR 06/06 A2978 RMK AO2", "KCCB 300950Z AUTO 28004KT 4SM BR CLR 12/12 A2994 RMK AO2", "KCCO 300955Z AUTO 29009G15KT 5SM VCTSRA SCT006 BKN031 OVC060 14/14 A2952 RMK AO2 LTG DSNT ALQS T01410136", "KCCR 300953Z AUTO 19011KT 10SM CLR 12/08 A2994 RMK AO2 SLP125 T01170078", "KCCU 300955Z AUTO 27010KT 10SM CLR 01/M07 A3033 RMK AO2", "KCCY 300955Z AUTO 31015KT 10SM OVC095 04/03 A2958 RMK AO2", "KCDA 300955Z AUTO 10008KT 10SM 08/03 A2986 RMK AO2 T00790030", "KCDC 300953Z AUTO 14008KT 10SM CLR 12/M04 A3009 RMK AO2 SLP124 T01171044", "KCDD 300955Z AUTO 35007G16KT 2 1/2SM BKN011 BKN017 M01/M01 A2973 RMK AO2 P", "KCDH 300955Z AUTO 00000KT 10SM CLR 10/10 A2980 RMK AO2", "KCDI 300955Z AUTO 00000KT 10SM -DZ BKN050 OVC080 10/09 A2948 RMK AO2 T00970093", "KCDJ 300951Z AUTO 30009G17KT 08/02 A2974 RMK AO1 SLP069 T00830017", "KCDN 300955Z AUTO 00000KT 9SM SCT003 BKN013 OVC018 17/17 A2946 RMK AO2", "KCDR 300953Z AUTO 00000KT 10SM CLR 03/M06 A3012 RMK AO2 SLP202 T00331061 $", "KCDS 300953Z AUTO 35005KT 10SM CLR 11/06 A2991 RMK AO2 SLP113 T01060056", "KCDW 300953Z AUTO 06005KT 1 1/2SM BR OVC003 10/09 A2972 RMK AO2 SLP067 T01000094", "KCEC 300956Z AUTO 16005KT 2 1/2SM BR OVC004 10/09 A3004 RMK AO2 SLP172 T01000089", "KCEF 300955Z AUTO 03007KT 8SM OVC006 09/09 A2976 RMK AO2 DZB33E42 SLP084 P0000 T00880086", "KCEU 300954Z AUTO 00000KT 5SM -RA BR BKN075 OVC095 15/15 A2948 RMK AO2 SLP977 P0009 T01500150", "KCEW 300953Z AUTO 29007KT 10SM CLR 16/13 A2966 RMK AO2 SLP040 T01560133", "KCEY 300955Z AUTO 30011KT 10SM BKN050 08/07 A2965 RMK A01", "KCEZ 300953Z AUTO 05005KT 10SM CLR 02/M05 A3013 RMK AO2 SLP152 T00171050", "KCFD 300955Z AUTO 23005KT 10SM CLR 11/08 A2992 RMK AO2 T01120081", "KCFE 300955Z AUTO 33018KT 10SM BKN037 BKN048 OVC060 04/M02 A2966 RMK AO2", "KCFJ 300955Z AUTO 24008KT 10SM BKN009 OVC060 04/02 A2954 RMK AO2 T00440020", "KCFO 300955Z AUTO 00000KT 10SM CLR 06/M01 A3010 RMK AO2 T00631010", "KCFS 300955Z AUTO 00000KT 3/4SM BR BKN004 BKN007 04/03 A2942 RMK AO2 T00370026", "KCFV 300952Z AUTO 31005KT 10SM CLR 07/04 A2983 RMK AO2 SLP100 T00720044", "KCGC 300955Z AUTO 27021G27KT 10SM -RA SCT008 BKN018 OVC042 21/19 A2962 RMK AO2 LTG DSNT SE", "KCGE 300945Z AUTO 13006KT 10SM OVC006 15/15 A2957 RMK A01", "KCGF 300955Z AUTO 17004KT 10SM SCT030 OVC055 10/09 A2947 RMK AO2 P0001 T01020091", "KCGI 300953Z AUTO 31007KT 10SM CLR 08/05 A2968 RMK AO2 SLP048 T00780050 $", "KCGS 300950Z AUTO 08003KT 10SM OVC014 16/14 A2957 RMK AO2 T01570145", "KCGZ 300956Z AUTO 05005KT 10SM CLR 17/M04 A2985 RMK AO2 SLP095 T01671044 PNO $", "KCHA 300953Z COR 33004KT 6SM RA BR SCT038 BKN065 OVC100 16/13 A2952 RMK AO2 LTG DSNT S CB DSNT S RAB39 SLP989 P0002 T01610133 $", "KCHK 300955Z AUTO 30005KT 10SM CLR 08/06 A2985 RMK AO2 T00800056", "KCHO 300953Z 00000KT 10SM -RA FEW013 OVC090 17/14 A2952 RMK AO2 RAB16E30B53 SLP988 P0000 T01670144", "KCHS 300956Z 20008KT 10SM FEW009 FEW027 22/19 A2945 RMK AO2 SLP971 T02170194", "KCIC 300955Z AUTO 15006KT 10SM CLR 18/09 A2985 RMK AO1", "KCID 300952Z 31014KT 10SM BKN075 04/02 A2957 RMK AO2 SLP016 T00440017 $", "KCIN 300955Z AUTO 32016G23KT 10SM CLR 04/04 A2975 RMK AO2", "KCIR 300955Z AUTO 36005KT 10SM CLR 09/06 A2967 RMK AO2 T00860056", "KCIU 300956Z AUTO 19004KT 10SM -RA OVC005 04/04 A2934 RMK AO2 CIG 003V008 SLP939 P0000 T00440039", "KCJR 300955Z AUTO 00000KT 7SM OVC005 16/15 A2955 RMK AO2 T01600151", "KCKB 300953Z AUTO 09003KT 10SM FEW080 FEW110 11/11 A2948 RMK AO2 RAE28 SLP974 P0001 T01110106", "KCKC 300956Z AUTO 33017G24KT 3SM -SN BKN014 BKN023 BKN080 M01/M02 A2946 RMK AO2", "KCKF 300955Z AUTO 26013KT 10SM SCT012 BKN090 BKN120 17/16 A2949 RMK AO2 LTG DSNT NE T01740155", "KCKI 300955Z AUTO 14003KT 7SM SCT005 BKN012 18/18 A2946 RMK AO2", "KCKM 300955Z AUTO 30014KT 10SM SCT031 BKN037 OVC070 14/11 A2971 RMK A01", "KCKN 300955Z AUTO 34016G20KT 10SM CLR 01/M48 A2995 RMK AO2", "KCKP 300955Z AUTO 32012G18KT 10SM CLR 03/02 A2980 RMK AO2 T00320020", "KCKV 300952Z AUTO 32008KT 10SM CLR 09/06 A2961 RMK AO2 SLP023 T00940056", "KCKZ 300955Z AUTO 06009KT 1 1/4SM BR OVC002 09/09 A2968 RMK AO2", "KCLE 300951Z 16004KT 10SM BKN080 BKN120 10/08 A2943 RMK AO2 SLP981 T01000078 $", "KCLI 300955Z AUTO 29008KT 10SM OVC011 02/01 A2935 RMK AO2 T00180009", "KCLL 300953Z AUTO 00000KT 10SM CLR 11/08 A2990 RMK AO2 SLP123 T01060083", "KCLM 300953Z AUTO 29008KT 10SM OVC011 09/07 A2990 RMK AO2 SLP126 T00940072", "KCLS 300955Z AUTO 00000KT 10SM FEW065 08/08 A2996 RMK AO2", "KCLT 300952Z 27004KT 5SM BR FEW006 BKN009 OVC024 17/16 A2949 RMK AO2 RAE00 SLP995 P0000 T01670156", "KCLW 300955Z AUTO 27009G22KT 5SM RA SCT012 BKN027 OVC050 21/19 A2965 RMK AO2 P0003", "KCMA 300955Z AUTO 20003KT 5SM BR OVC003 12/11 A2994 RMK AO2 SLP146 T01220111", "KCMD 300955Z AUTO 33008G14KT 300V360 10SM BKN090 14/14 A2958 RMK AO2", "KCMH 300951Z 14003KT 10SM OVC070 11/11 A2944 RMK AO2 SLP968 T01110106", "KCMI 300953Z AUTO 26007KT 7SM CLR 05/04 A2956 RMK AO2 SLP009 T00500044", "KCMR 300955Z AUTO 16008KT 10SM CLR 04/M05 A3019 RMK AO2", "KCMX 300953Z AUTO 01017G27KT 8SM -RA SCT007 BKN015 OVC022 02/00 A2937 RMK AO2 PK WND 01032/0920 RAB0857UPB10E11SNB17E28 SLP956 P0000 T00220000", "KCMY 300955Z AUTO 30010G15KT 6SM -RA BR SCT012 OVC021 02/02 A2946 RMK AO2 SLP985 P0001 T00240021 FZRANO $", "KCNB 300955Z AUTO 28014G18KT 10SM CLR 03/02 A2986 RMK AO2 T00300015", "KCNC 300955Z AUTO 31016G21KT 10SM OVC017 05/05 A2968 RMK AO2", "KCNI 300955Z AUTO 18004KT 3 1/2SM VCTSRA BR SCT004 SCT023 OVC070 13/13 A2952 RMK AO2 LTG DSNT SE P0010 T01350133", "KCNK 300955Z AUTO 32008KT 10SM CLR 06/M02 A2994 RMK AO2 SLP133 T00611017", "KCNM 300953Z AUTO VRB03KT 10SM CLR 09/M07 A2997 RMK AO2 SLP110 T00941072", "KCNO 300953Z AUTO 27004KT 4SM BR CLR 11/09 A2996 RMK AO2 SLP139 T01110094", "KCNU 300952Z AUTO 29005KT 10SM CLR 07/02 A2984 RMK AO2 SLP100 T00720022", "KCNY 300953Z AUTO 00000KT 10SM CLR 06/M07 A3002 RMK AO2 SLP131 T00561072", "KCOD 300956Z AUTO 20004KT 10SM CLR 05/M01 A3008 RMK AO2 SLP158 T00501011", "KCOE 300956Z AUTO 08008KT 10SM CLR 11/05 A2988 RMK AO2 SLP123 T01060050 PNO $", "KCOF 300955Z AUTO 19010KT 10SM CLR 24/21 A2962 RMK AO2 SLP035 T02370212 $", "KCOM 300955Z AUTO 26007KT 10SM CLR 14/02 A2995 RMK AO2 T01350017", "KCON 300951Z AUTO 08008KT 10SM OVC012 07/06 A2990 RMK AO2 RAB0859E17 SLP125 P0001 T00720061", "KCOQ 300955Z AUTO 33018G22KT 1 3/4SM -SN SCT007 BKN014 OVC020 01/M01 A2958 RMK AO2 TSNO", "KCOS 300954Z 32006KT 10SM CLR 07/M02 A3010 RMK AO2 SLP137 T00671022", "KCOT 300953Z AUTO 27004KT 10SM CLR 13/08 A2997 RMK AO2 SLP144 T01280078", "KCOU 300954Z AUTO 26010KT 10SM CLR 06/03 A2969 RMK AO2 SLP051 T00610033", "KCPC 300945Z AUTO 14003KT 10SM SCT006 SCT024 BKN080 19/18 A2950 RMK AO2 T01870177", "KCPF 300955Z AUTO 00000KT 7SM OVC038 11/10 A2953 RMK AO2", "KCPK 300955Z AUTO 12003KT 7SM SCT008 BKN013 OVC110 18/18 A2954 RMK AO2 LTG DSNT NE T01830175", "KCPR 300953Z AUTO 00000KT 10SM CLR 02/M02 A3009 RMK AO2 SLP163 T00171022", "KCPS 300953Z AUTO 22003KT 10SM CLR 06/04 A2964 RMK AO2 SLP036 T00610044", "KCPT 300955Z AUTO 22003KT 10SM CLR 12/06 A2988 RMK A01", "KCPW 300955Z AUTO 30010G14KT 10SM CLR 01/M11 A3039 RMK AO2", "KCQB 300955Z AUTO 27006KT 10SM CLR 08/06 A2988 RMK AO2 T00770061", "KCQC 300953Z AUTO 26010KT 10SM CLR 06/M06 A3013 RMK AO2 SLP133 T00611056 $", "KCQF 300955Z AUTO 30003KT 280V340 10SM OVC012 16/13 A2969 RMK AO2", "KCQM 300955Z AUTO 34009G14KT 3SM -SN BKN014 BKN020 BKN070 01/M01 A2968 RMK AO", "KCQT 300947Z AUTO 00000KT 4SM BR OVC009 14/12 A2995 RMK AO2 SLP141 T01440122 $", "KCQW 300955Z AUTO 35003KT 9SM -RA 17/17 A2947 RMK AO2", "KCQX 301004Z AUTO 11014G24KT 9SM OVC009 11/09 A2981 RMK AO2 RAE0958 CIG 007V012 P0000 T01060094", "KCRE 300953Z AUTO 17007KT 10SM SCT019 BKN027 OVC037 21/19 A2948 RMK AO1 RAE19 SLP982 P0000 T02110194", "KCRG 300953Z AUTO 16008KT 10SM FEW065 BKN080 OVC100 21/19 A2952 RMK AO2 LTG DSNT E AND SE SLP994 T02110194", "KCRP 300951Z 00000KT 10SM CLR 14/13 A2996 RMK AO2 SLP143 T01440128", "KCRQ 300953Z AUTO 25003KT 10SM OVC007 14/12 A2994 RMK AO2 SLP138 T01440122", "KCRS 300953Z AUTO 22006KT 10SM CLR 10/07 A2987 RMK AO2 SLP112 T01000067", "KCRW 300954Z 00000KT 10SM OVC050 12/11 A2950 RMK AO2 SLP982 VLY FG T01220111", "KCRX 300955Z AUTO 30006KT 10SM CLR 14/09 A2963 RMK AO2", "KCSG 300951Z AUTO 30012G17KT 10SM FEW017 BKN045 OVC070 16/14 A2949 RMK AO2 SLP982 T01560139", "KCSM 300953Z AUTO 01007KT 10SM CLR 08/03 A2990 RMK AO2 SLP114 T00830033", "KCSQ 300955Z AUTO 32017KT 10SM CLR 04/04 A2974 RMK AO2", "KCSV 300953Z AUTO 30005KT 10SM SCT029 BKN040 12/11 A2955 RMK AO2 RAB0854E10 SLP995 P0001 T01170106", "KCTB 300956Z AUTO 09008KT 10SM CLR 04/M01 A3000 RMK AO2 SLP151 T00441011", "KCTJ 300955Z AUTO 00000KT 5SM +RA OVC041 13/13 A2956 RMK AO2 LTG DSNT SE AND SW T01310130", "KCTZ 300945Z AUTO 13003KT 10SM SCT007 BKN044 OVC050 18/18 A2951 RMK AO2 T01830183", "KCUB 300953Z AUTO 00000KT 10SM OVC009 17/16 A2946 RMK AO2 CIG 006V012 SLP972 P0003 T01670161", "KCUH 300955Z AUTO 32003KT 10SM CLR 08/06 A2986 RMK AO2 T00800058", "KCUL 300958Z AUTO 27005KT 10SM CLR 07/05 A2963 RMK AO2", "KCUT 300953Z AUTO 01007KT 10SM FEW100 00/M09 A3009 RMK AO2 SLP176 T00001089 $", "KCVC 300955Z AUTO 31005KT 4SM +RA BKN004 BKN008 OVC041 15/14 A2947 RMK AO2 LTG DSNT S AND W", "KCVG 300952Z 31015KT 10SM FEW040 OVC060 08/06 A2951 RMK AO2 PK WND 30030/0905 WSHFT 0839 RAE0856 SLP989 P0000 T00830061 $", "KCVH 300955Z AUTO 00000KT 1/4SM FG OVC001 09/08 A2999 RMK A01", "KCVN 300956Z AUTO 00000KT 10SM CLR 06/M06 A3001 RMK AO2 SLP140 T00561061", "KCVO 300956Z AUTO 00000KT 10SM OVC034 09/07 A2999 RMK AO2 SLP156 T00890072", "KCVS 300955Z AUTO 27006KT 10SM CLR 10/M06 A2999 RMK AO2 SLP112 T01021058 $", "KCVX 300955Z AUTO 17003KT 10SM OVC034 06/03 A2934 RMK AO2 T00550032", "KCWA 300955Z AUTO 30011KT 7SM -SN BKN007 OVC011 00/00 A2937 RMK AO2", "KCWC 300955Z AUTO 30003KT 10SM CLR 13/06 A2989 RMK AO2 T01320061", "KCWF 300955Z AUTO 28008KT 10SM CLR 14/10 A2988 RMK AO2 T01440103", "KCWI 300956Z AUTO 29011KT 10SM BKN100 04/02 A2953 RMK AO2 SLP005 T00390022", "KCWN 300955Z AUTO 00000KT 10SM CLR 08/M02 A3006 RMK AO2 SLP030 T00821022 $", "KCWV 300955Z AUTO 00000KT 7SM -RA SCT008 BKN080 OVC100 20/19 A2948 RMK AO2 LTG DSNT NW T02030193", "KCXE 300955Z AUTO 5SM SCT085 OVC100 17/17 A2951 RMK AO1 T01650165", "KCXO 300953Z AUTO 00000KT 10SM CLR 07/07 A2991 RMK AO2 SLP126 T00720067", "KCXP 300955Z AUTO 00000KT 10SM CLR 12/01 A3004 RMK AO2", "KCXU 300955Z AUTO 26005KT 10SM CLR 14/13 A2955 RMK AO1 T01400125", "KCXW 300950Z AUTO 29005KT 10SM FEW023 SCT050 OVC060 11/ A2978 RMK A01", "KCXY 300956Z AUTO VRB03KT 2 1/2SM BR OVC004 13/12 A2962 RMK AO2 SLP030 T01280117", "KCYS 300953Z AUTO 31006KT 10SM SCT100 04/M01 A3010 RMK AO2 SLP145 T00391011", "KCZL 300955Z AUTO 00000KT 10SM RA CLR 16/15 A2952 RMK AO2", "KCZT 300955Z AUTO 10SM CLR 15/02 A2997 RMK AO2", "KD07 300956Z AUTO 33006KT M01/M04 A3010 RMK AO1 SLP207 T10061044", "KD25 300955Z AUTO 34011G17KT 2SM -SN OVC013 00/00 A2939 RMK AO2 T10051005", "KD39 300955Z AUTO 32015G21KT 10SM CLR 02/M02 A2975 RMK AO2 T00211022", "KD50 300955Z AUTO 30003KT 10SM CLR M03/M04 A3016 RMK AO2", "KD55 300955Z AUTO 35013KT 10SM CLR 01/01 A3004 RMK AO2", "KD57 300955Z AUTO 26004KT 10SM CLR M04/M07 A3012 RMK AO2", "KD60 300955Z AUTO 32003KT 10SM CLR M04/M04 A3017 RMK AO2", "KD73 300955Z AUTO 07007KT 5SM +RA SCT006 BKN042 OVC070 15/ A2947 RMK AO2 LTG DSNT S P0013 T0151////", "KD95 300955Z AUTO 00000KT 2 1/2SM BR SCT005 SCT075 BKN120 03/03 A2942 RMK AO2 T00300030", "KDAA 300955Z AUTO 00000KT 10SM OVC010 16/15 A2952 RMK AO2 DZB34E47 SLP999 P0000 T01550150 $", "KDAB 300953Z 18008KT 10SM FEW026 FEW042 22/19 A2958 RMK AO2 SLP015 T02220194 $", "KDAG 300950Z AUTO 27010KT 10SM CLR 21/M01 A2989 RMK AO2 SLP094 T02061006", "KDAL 300953Z 00000KT 10SM CLR 12/08 A2983 RMK AO2 SLP098 T01220078 $", "KDAN 300953Z AUTO 00000KT 10SM FEW016 SCT055 OVC075 16/14 A2951 RMK AO2 RAB17E53 SLP982 P0002 T01560144", "KDAW 300951Z AUTO 07007KT 4SM -RA BR OVC007 07/07 A2994 RMK AO2 SLP136 P0009 T00720067", "KDAY 300956Z 31013KT 10SM -RA SCT010 BKN030 OVC050 07/04 A2949 RMK AO2 PK WND 29032/0910 WSHFT 0855 SLP984 P0018 T00720044 VISNO RWY 6L $", "KDBN 300955Z AUTO 22006KT 7SM -RA BKN009 OVC019 20/18 A2949 RMK AO2 LTG DSNT NW", "KDBQ 300953Z AUTO 30010KT 10SM OVC075 04/01 A2951 RMK AO2 SLP997 T00440011", "KDCA 300952Z 05006KT 10SM OVC010 16/14 A2955 RMK AO2 PRESFR SLP006 T01610144 $", "KDCM 300955Z AUTO 36005KT 7SM -RA SCT001 SCT011 BKN080 15/15 A2948 RMK AO2 LTG DSNT SE P0007", "KDCU 300953Z AUTO 32007KT 10SM SCT100 15/12 A2958 RMK AO2 SLP012 T01500122", "KDCY 300955Z AUTO 28007KT 10SM SCT010 06/06 A2960 RMK AO2 T00620060", "KDDC 300952Z AUTO 02010KT 10SM SCT080 BKN100 BKN120 08/02 A2995 RMK AO2 RAB12E21 SLP126 P0000 T00830017", "KDDH 300954Z AUTO 11010G19KT 10SM OVC028 10/05 A2977 RMK AO2 SLP082 T01000050 PNO $", "KDEC 300954Z AUTO 27007KT 10SM FEW009 06/06 A2958 RMK AO2 SLP015 T00560056", "KDED 300950Z AUTO 18012KT 10SM SCT021 OVC029 23/20 A2959 RMK AO2 T02320199", "KDEH 300955Z AUTO 32009G22KT 10SM FEW035 OVC048 04/M00 A2952 RMK AO2", "KDEN 300953Z 25006KT 10SM CLR 06/00 A3010 RMK AO2 SLP143 T00610000", "KDEQ 300953Z AUTO 10SM CLR 07/06 A2981 RMK AO2 SLP091 T00720061 $", "KDET 300953Z 18004KT 4SM HZ OVC060 08/05 A2944 RMK AO2 SLP969 T00780050", "KDEW 300953Z AUTO 33003KT 10SM CLR 11/06 A2986 RMK AO2 SLP101 T01060056", "KDFI 300953Z AUTO 27005KT 6SM -RA BR FEW014 SCT022 OVC029 07/05 A2947 RMK AO2 SLP979 P0003 T00670050", "KDFW 300953Z 18003KT 10SM CLR 12/07 A2982 RMK AO2 SLP094 T01220072", "KDGW 300953Z AUTO 20006KT 10SM BKN110 04/M01 A3010 RMK AO2 SLP168 T00391011 $", "KDHN 300953Z AUTO 26011KT 10SM FEW012 BKN075 OVC095 14/13 A2961 RMK AO2 RAB42E51 SLP024 P0000 T01440128", "KDHT 300953Z AUTO 32004KT 10SM CLR 08/03 A2998 RMK AO2 SLP114 T00780033", "KDIJ 300956Z AUTO 27003KT 10SM CLR 04/M04 A3012 RMK AO2 SLP166 T00441039", "KDIK 300956Z AUTO 29007KT 10SM CLR M03/M04 A3011 RMK AO2 SLP212 T10281044", "KDKK 300953Z AUTO 17009KT 10SM CLR 14/08 A2950 RMK AO2 SLP989 T01390083", "KDKR 300955Z AUTO 00000KT 10SM CLR 07/08 A2988 RMK AO2", "KDKX 300955Z AUTO 00000KT 6SM BR FEW050 FEW055 14/13 A2949 RMK A01", "KDLF 300955Z AUTO 02009KT 10SM CLR 10/03 A2995 RMK AO2 SLP135 T01010034 $", "KDLH 300955Z 35014G25KT 2SM -SN BR OVC014 01/M01 A2956 RMK AO2 PK WND 33031/0902 TWR VIS 3 SLP024 P0000 T00111011 $", "KDLL 300955Z AUTO 31008KT 7SM -RA BKN009 OVC020 02/02 A2944 RMK AO2 T00220016", "KDLN 300953Z AUTO 20010KT 10SM CLR 05/M02 A3005 RMK AO2 SLP141 T00501017", "KDLO 300955Z AUTO 00000KT 10SM CLR 15/12 A2987 RMK AO2 T01460122", "KDLP 300955Z AUTO 29007G20KT 200V330 10SM SCT019 BKN025 OVC038 18/14 A2970 RMK A01", "KDLS 300953Z AUTO 31015G20KT 10SM CLR 18/03 A2983 RMK AO2 SLP099 T01780033", "KDLZ 300955Z AUTO 15007KT 5SM BR BKN005 BKN008 08/08 A2943 RMK AO2", "KDMA 300855Z AUTO 14006KT 10SM CLR 18/M06 A2992 RMK AO2 SLP132 T01751057 58005 RVRNO VISNO RWY30 $", "KDMH 300954Z AUTO 16/14 A2957 RMK AO1 SLP014 T01560139", "KDMN 300953Z AUTO 32006KT 10SM CLR 09/M08 A3005 RMK AO2 SLP119 T00941083", "KDMO 300953Z AUTO 28008KT 10SM SCT070 08/02 A2975 RMK AO2 SLP072 T00780022", "KDMW 300945Z AUTO 11003KT 1SM BR OVC002 15/15 A2957 RMK AO2 LTG DSNT SE AND SW P0001", "KDNA 300955Z AUTO 16005KT 10SM CLR 15/M07 A3005 RMK AO2", "KDNL 300953Z AUTO 36004KT 10SM -RA OVC003 17/16 A2945 RMK AO2 RAB0859 SLP966 P0000 T01670161 $", "KDNN 300955Z AUTO 00000KT 10SM FEW026 BKN095 16/15 A2950 RMK AO2 T01560154", "KDNV 300955Z AUTO 26007KT 10SM CLR 05/04 A2955 RMK AO2 T00490041", "KDOV 301002Z AUTO 12010G15KT 10SM -DZ OVC004 13/13 A2959 RMK AO2 DZB01 SLP024", "KDPA 300952Z 25006KT 10SM FEW085 04/01 A2947 RMK AO2 SLP983 T00440011", "KDPL 300945Z AUTO 13003KT 7SM BR SCT004 BKN020 OVC055 18/18 A2951 RMK AO2", "KDQH 300955Z AUTO 24007KT 10SM SCT031 SCT039 BKN110 19/18 A2951 RMK AO2 LTG DSNT N T01860180", "KDRA 300953Z AUTO 10005KT 10SM CLR 15/M08 A2992 RMK AO2 SLP088 T01501078 $", "KDRI 300955Z AUTO 27003KT 10SM CLR 10/10 A2988 RMK AO2 T01010101 $", "KDRM 300955Z AUTO 17004KT 3SM DZ BKN003 OVC007 06/05 A2936 RMK AO2 T00550053", "KDRO 300953Z AUTO 00000KT 10SM CLR 03/M06 A3012 RMK AO2 SLP143 T00281056", "KDRT 300953Z AUTO 00000KT 10SM CLR 12/04 A2997 RMK AO2 SLP142 T01220039", "KDSF 301000Z AUTO 31007G21KT 220V030 10SM SCT026 SCT032 BKN041 20/14 A2975 RMK A01", "KDSM 300954Z 31012G22KT 10SM SCT015 04/02 A2971 RMK AO2 SLP064 T00440022", "KDSV 300954Z AUTO 16009KT 10SM CLR 12/09 A2956 RMK AO2 SLP017 T01220094", "KDTA 300955Z AUTO 00000KT 10SM CLR 11/M05 A3004 RMK AO1", "KDTL 300955Z AUTO 33014KT 10SM CLR 01/M02 A2985 RMK AO2", "KDTO 300953Z AUTO 29003KT 10SM CLR 09/06 A2984 RMK AO2 SLP101 T00890061", "KDTS 300953Z AUTO VRB05KT 10SM SCT013 17/14 A2965 RMK AO2 SLP040 T01670139", "KDTW 300953Z 23008KT 5SM -RA BR OVC045 07/06 A2945 RMK AO2 RAB03 SLP973 P0001 T00720056 $", "KDUA 300955Z AUTO 00000KT 10SM CLR 12/05 A2985 RMK AO2", "KDUB 300954Z AUTO 28008KT 10SM CLR 02/M07 A3014 RMK AO2", "KDUC 300955Z AUTO 30005KT 10SM CLR 10/07 A2988 RMK AO2 T01010067", "KDUG 300956Z AUTO 35003KT 10SM CLR 09/M10 A3003 RMK AO2 SLP111 T00941100 TSNO", "KDUH 300955Z AUTO 24005KT 5SM RA SCT006 SCT010 OVC035 08/08 A2946 RMK AO2 T00750075", "KDUJ 300953Z AUTO 13007KT 9SM OVC005 11/09 A2952 RMK AO2 CIG 003V009 SLP995 T01110094", "KDUX 300955Z AUTO 27005KT 10SM CLR 09/02 A2997 RMK AO2 T00860015", "KDVK 300950Z AUTO 00000KT 10SM SCT016 SCT022 11/10 A2953 RMK AO2", "KDVL 300956Z AUTO 34013KT 10SM CLR 01/M01 A3004 RMK AO2 SLP199 T00111006 FZRANO", "KDVN 300952Z AUTO 29013KT 10SM FEW070 BKN100 07/02 A2956 RMK AO2 SLP007 T00670017", "KDVO 300955Z AUTO 00000KT 10SM CLR 08/08 A2996 RMK AO2", "KDVP 300953Z AUTO 32016G25KT 10SM SCT060 03/M01 A2980 RMK AO2 T00251015", "KDVT 300953Z AUTO VRB04KT 10SM CLR 22/M05 A2984 RMK AO2 SLP079 T02221050", "KDWA 300955Z AUTO 00000KT 10SM CLR 10/08 A2988 RMK AO2", "KDWH 300953Z AUTO 00000KT 10SM CLR 12/09 A2991 RMK AO2 SLP127 T01170089", "KDWU 300956Z AUTO 14003KT 10SM OVC029 12/ A2950 RMK AO2 RAE05 SLP987 P0000 T0122", "KDWX 300955Z AUTO 08004KT 10SM CLR 01/M03 A3014 RMK AO2 T00111027", "KDXR 300953Z AUTO 05007KT 2SM BR OVC003 09/08 A2973 RMK AO2 SLP066 T00940083", "KDXX 300955Z AUTO 33015G22KT 10SM CLR 04/02 A2986 RMK AO2", "KDYA 300955Z AUTO 29006KT 10SM SCT007 SCT013 BKN050 A2965 RMK AO2", "KDYB 300955Z AUTO VRB03KT 7SM CLR 21/21 A2944 RMK AO2", "KDYL 300954Z AUTO 05006KT 1 1/4SM BR OVC002 11/09 A2968 RMK AO2 SLP052 T01060094", "KDYR 300956Z AUTO 34008KT 10SM CLR 10/08 A2969 RMK AO2 SLP059 T01000078", "KDYS 300955Z AUTO 20008KT 10SM CLR 14/00 A2990 RMK AO2 SLP096 T01430002", "KDYT 300955Z AUTO 36013G20KT 10SM UP BKN021 BKN026 OVC030 03/01 A2958 RMK AO2", "KDZB 300955Z AUTO 00000KT 10SM CLR 09/07 A2996 RMK AO2 T00860065", "KDZJ 300955Z AUTO 08003KT 2 1/2SM -RA BR OVC055 13/13 A2953 RMK AO2 VIS 3/4V5 P0002 T01290129", "KE11 300955Z AUTO 26009KT 10SM CLR 14/M04 A3000 RMK AO2 T01401042", "KE16 300955Z AUTO 33004KT 10SM CLR 11/09 A3000 RMK AO2 PWINO PNO", "KE38 300955Z AUTO 23009KT 10SM CLR 13/M06 A3015 RMK AO2 T01281060", "KE41 300955Z AUTO 17006KT 10SM CLR 12/M04 A3000 RMK AO2 T01191044", "KEAN 300950Z AUTO 13004KT 10SM CLR 03/M01 A3010 RMK AO2 T00301015", "KEAR 300956Z AUTO 30008KT 10SM CLR 02/M04 A3000 RMK AO2 SLP159 T00171039 FZRANO", "KEAT 300955Z AUTO 30007KT 10SM FEW120 16/04 A2981 RMK AO2 SLP088 T01560044 $", "KEAU 300956Z AUTO 31011KT 9SM -RA BKN014 OVC021 02/00 A2950 RMK AO2 SLP996 P0002 T00220000", "KEBA 300955Z AUTO 35004KT 10SM -RA BKN005 BKN013 OVC090 15/15 A2946 RMK AO2 P0008 T01530149", "KEBG 300955Z AUTO 00000KT 10SM CLR 12/10 A2998 RMK AO2 T01150096", "KEBS 300955Z AUTO 31018KT 10SM CLR 03/03 A2967 RMK AO2", "KECG 300954Z AUTO 16007KT 10SM -RA OVC085 19/16 A2955 RMK AO2 RAB54 SLP007 P0000 T01940161", "KECP 300953Z AUTO 28012KT 10SM CLR 17/15 A2962 RMK AO1 SLP042 T01670150", "KECS 300955Z AUTO 00000KT 10SM OVC110 00/M07 A3012 RMK AO2", "KECU 300955Z AUTO 17006KT 10SM SCT049 16/M03 A3006 RMK AO2", "KEDC 300935Z AUTO 27004KT 10SM CLR 12/07 A2992 RMK AO2", "KEDE 300950Z AUTO 20011KT 10SM BKN060 OVC070 21/18 A2956 RMK AO2 T02060181", "KEDJ 300955Z AUTO 30006KT 4SM BR 06/06 A2950 RMK A01 P0004", "KEDN 300955Z AUTO 27005KT 10SM SCT011 BKN075 OVC100 14/14 A2960 RMK AO2 T01360136 PWINO", "KEDU 300955Z AUTO 00000KT 10SM CLR 10/08 A2987 RMK AO1", "KEDW 300955Z AUTO 21005KT 10SM CLR 16/07 A2990 RMK AO2 SLP102 T01560066", "KEED 300956Z AUTO 31004KT 10SM CLR 22/M07 A2980 RMK AO2 SLP061 T02171067", "KEEN 300956Z AUTO VRB05KT 10SM OVC015 08/06 RMK AO2 RAB34E49 SLPNO P0000 T00830061 $", "KEEO 300953Z AUTO 28005KT 10SM CLR 02/M03 A3014 RMK AO2 SLP154 T00171028", "KEET 301004Z AUTO 31008KT 10SM BKN007 OVC011 15/14 A2959 RMK AO2 CIG 005V010 T01500144", "KEFD 300954Z 25006KT 10SM CLR 13/09 A2990", "KEFK 300955Z AUTO 12006KT 10SM OVC065 07/04 A2984 RMK AO2 T00710042", "KEFT 300955Z AUTO 26010KT 10SM OVC070 04/01 A2945 RMK AO2 T00360011", "KEGE 300956Z AUTO 15003KT 10SM CLR 02/M03 A3017 RMK AO2 SLP122 T00221028 FZRANO", "KEGI 301003Z AUTO 27007KT 10SM SCT006 BKN012 BKN210 15/14 A2964 RMK AO2 CIG 012V210 BKN012 V SCT SLP037 TSNO $", "KEGT 300955Z AUTO 30006KT 10SM CLR 05/03 A2991 RMK AO2 T00500026", "KEGV 300955Z AUTO 35008KT 3SM UP BKN009 OVC024 00/00 A2934 RMK AO2 T00010001", "KEHA 300955Z AUTO 33007KT 10SM CLR 10/03 A3001 RMK AO2 T00960029", "KEHO 300945Z AUTO 00000KT 10SM OVC060 15/15 A2951 RMK AO2 T01450145", "KEHR 300956Z AUTO 31009KT 10SM CLR 08/05 A2962 RMK AO2 SLP031 T00780050", "KEIK 300955Z AUTO 20004KT 10SM CLR 04/01 A3009 RMK AO2 T00440010", "KEKE 300955Z AUTO 30022G27KT 10SM FEW034 20/11 A2980 RMK A01", "KEKM 300955Z 28007KT 10SM FEW029 BKN055 05/05 A2947 RMK AO2 T00530049 $", "KEKN 300951Z AUTO 14003KT 10SM -RA BKN075 OVC095 11/09 A2952 RMK AO2 RAE26B48 SLP995 P0000 T01110094", "KEKO 300956Z AUTO 03007KT 10SM CLR 08/00 A3003 RMK AO2 SLP125 T00780000 $", "KEKQ 300956Z AUTO 00000KT 10SM CLR 11/11 A2955 RMK AO2 SLP000 T01110106", "KEKS 300955Z AUTO 00000KT 10SM CLR 02/M02 A3011 RMK AO2", "KEKX 300955Z AUTO 33005KT 10SM SCT035 09/05 A2956 RMK AO2 T00850048", "KEKY 300956Z AUTO 30007KT 10SM OVC007 A2961 RMK AO2 RAE09 CIG 004V009 SLPNO P0000 FZRANO $", "KELA 300955Z AUTO 25004KT 10SM CLR 13/10 A2994 RMK AO2 T01300102", "KELD 300953Z AUTO 27003KT 10SM CLR 10/09 A2979 RMK AO2 SLP088 T01000089 $", "KELK 300955Z AUTO 27005KT 10SM SCT140 08/06 A2991 RMK AO2 SLP416 T00810059 $", "KELM 300953Z 00000KT 8SM -RA OVC009 11/09 A2961 RMK AO2 RAB0859 SLP026 P0001 T01110094", "KELN 300953Z AUTO 05004KT 10SM FEW110 12/07 A2983 RMK AO2 SLP091 T01170067 $", "KELO 300955Z AUTO 34009G20KT 3SM -SN BKN014 OVC020 00/00 A2963 RMK AO2", "KELP 300951Z 00000KT 10SM CLR 17/M06 A3003 RMK AO2 SLP107 T01671061", "KELY 300953Z AUTO 15006KT 10SM CLR 06/M03 A3010 RMK AO2 SLP111 T00561028 $", "KELZ 300956Z AUTO 15009G17KT 10SM OVC006 11/08 A2956 RMK AO2 SLP013 T01060083", "KEMM 300955Z AUTO 35012KT 10SM CLR 01/M03 A3016 RMK AO2 TSNO", "KEMP 300953Z AUTO 30009KT 10SM CLR 07/02 A2987 RMK AO2 SLP112 T00670017", "KEMV 300955Z AUTO 14004KT 7SM -RA OVC006 19/19 A2953 RMK AO2 T01880187", "KEND 300955Z AUTO 30007KT 10SM CLR 06/03 A2987 RMK AO2 SLP113 T00600032 $", "KENL 300955Z AUTO 00000KT 10SM CLR 06/06 A2964 RMK AO2 T00600060", "KENV 300956Z AUTO 00000KT 10SM CLR 11/M02 A3000 RMK AO2 SLP135 T01061022", "KENW 300953Z AUTO 24009KT 10SM BKN050 06/02 A2943 RMK AO2 SLP967 T00560022", "KEOE 300955Z AUTO 07005KT 7SM -RA SCT003 SCT008 BKN050 15/14 A2949 RMK AO2 P0004", "KEOK 300955Z AUTO 27009KT 10SM FEW040 FEW047 FEW060 05/05 A2962 RMK A01", "KEPH 300953Z AUTO 04007KT 10SM CLR 13/08 A2979 RMK AO2 SLP082 T01280078", "KEQA 300955Z AUTO 32005KT 10SM CLR 07/01 A2987 RMK AO2", "KEQY 300953Z AUTO 00000KT 6SM -RA BR BKN002 OVC095 16/15 A2947 RMK AO2 RAE06B29 SLP980 P0001 T01560150 $", "KERI 300951Z 15009KT 10SM FEW090 FEW120 11/08 A2946 RMK AO2 SLP978 T01060078", "KERV 300955Z AUTO 30003KT 10SM CLR 07/04 A2999 RMK AO2 T00720035", "KERY 300955Z AUTO 20008KT 10SM OVC005 05/04 A2931 RMK AO2 T00470037 P0002", "KESC 300956Z AUTO 07006KT 10SM OVC003 04/04 A2930 RMK AO2 SLP929 T00390039", "KESF 300953Z AUTO 27005KT 10SM CLR 11/11 A2982 RMK AO2 SLP098 T01060106", "KESN 300955Z 10008KT 10SM 0VC008 15/14 A2961", "KEST 300952Z AUTO 32018KT 10SM CLR 03/01 A2972 RMK AO2 SLP070 T00330006", "KETB 300955Z AUTO 28011G16KT 10SM SCT019 OVC026 03/01 A2938 RMK AO2", "KETC 300940Z AUTO 16003KT 7SM BR BKN037 BKN046 OVC060 18/17 A2952 RMK AO2 T01810167", "KETH 300953Z AUTO 31016G20KT 10SM CLR 02/01 A2990 RMK AO2", "KETN 300950Z AUTO 00000KT 10SM CLR 06/04 A2991 RMK AO2 T00570045", "KEUF 300958Z AUTO 26007KT 10SM BKN011 OVC019 15/15 A2954 RMK AO2 SLP000 T01500150", "KEUG 300954Z AUTO 00000KT 10SM OVC023 12/08 A2999 RMK AO2 SLP155 T01170083", "KEUL 300956Z AUTO 11004KT 10SM CLR 11/06 A2987 RMK AO2 SLP101 T01060056", "KEVM 301002Z AUTO 35009G19KT 320V020 5SM -SN OVC013 01/M00 A2964 RMK AO2", "KEVU 300955Z AUTO 30010KT 10SM CLR 06/02 A2979 RMK AO2 T00610020", "KEVV 300954Z AUTO 30007KT 10SM CLR 07/05 A2962 RMK AO2 SLP028 T00720050 $", "KEVW 300953Z AUTO 16007KT 10SM CLR 07/M04 A3015 RMK AO2 SLP150 T00721039", "KEWB 300953Z AUTO 09005KT 6SM HZ OVC005 11/ A2978 RMK AO2 RAE52 SLP085 P0001 T0106 $", "KEWK 300956Z AUTO 32008KT 10SM CLR 07/01 A2990 RMK AO2 SLP118 T00670011", "KEWN 300954Z 14005KT 10SM SCT070 BKN095 19/19 A2954 RMK AO2 RAE02B06E28 SLP004 P0008 T01940189", "KEWR 300951Z 03009KT 2SM -DZ BR OVC002 11/11 A2971 RMK AO2 SLP059 P0000 T01110106 $", "KEXX 300950Z AUTO 00000KT 10SM -RA BKN095 OVC120 15/15 A2949 RMK AO2 P0009 T01450145", "KEYE 300953Z AUTO 25005KT 10SM SCT026 06/04 A2953 RMK AO2 SLP999 T00560044 $", "KEYF 300950Z AUTO 14004KT 10SM SCT006 SCT014 BKN049 18/17 A2950 RMK AO2 T01800172", "KEYW 300953Z AUTO 21015G27KT 10SM BKN025 BKN032 28/24 A2978 RMK AO2 PK WND 20032/0920 SLP091 T02780244", "KEZF 300955Z AUTO 03003KT 10SM OVC005 16/16 A2950 RMK AO2 T01610161", "KEZM 300955Z AUTO 26006KT 10SM VCTS BKN006 BKN012 OVC034 18/18 A2946 RMK AO2 LTG DSNT NW", "KEZS 300955Z AUTO 28004KT 7SM -DZ SCT009 BKN013 OVC021 03/03 A2933 RMK AO2 T00250025", "KEZZ 300955Z AUTO 32013G18KT 10SM CLR 08/00 A2978 RMK AO2 T00750004", "KF00 300955Z AUTO 00000KT 10SM CLR 10/07 A2983 RMK AO2 T00990070", "KF05 300955Z AUTO 28008KT 10SM CLR 11/07 A2989 RMK AO2 T01140070", "KF44 300955Z AUTO 00000KT 10SM CLR 07/07 A2985 RMK AO2", "KF46 300955Z AUTO 00000KT 10SM CLR 14/08 A2984 RMK AO2 T01420075", "KF70 300955Z AUTO 17003KT 1/4SM FG OVC002 11/11 A2995 RMK AO2", "KFAF 301002Z AUTO 13005KT 10SM BKN007 OVC012 19/18 A2950 RMK AO2 RAE02 SLP993 $", "KFAM 300956Z AUTO 26004KT 10SM CLR 06/03 A2968 RMK AO2 SLP059 T00560033", "KFAR 300953Z 33015KT 10SM CLR 03/00 A2993 RMK AO2 SLP143 T00280000", "KFAT 300953Z 31009KT 10SM BKN200 21/08 A2986 RMK AO2 SLP107 T02060083", "KFAY 300953Z 14008KT 9SM SCT006 BKN010 OVC029 18/18 A2947 RMK AO2 SLP973 T01830183", "KFBG 300955Z AUTO 00000KT 10SM OVC006 17/17 A2946 RMK AO2 RAE00DZB00E04RAB04E21 SLP977 P0001 T01700168 $", "KFBL 300955Z AUTO 32009G21KT 10SM BKN040 OVC047 04/M01 A2962 RMK AO2", "KFCI 300956Z AUTO 16003KT 10SM SCT080 OVC100 16/16 RMK AO2 LTG DSNT E AND NW RAB05E52 SLPNO P0016 T01610161 $", "KFCM 300953Z AUTO 34016G29KT 10SM BKN036 OVC046 04/M02 A2962 RMK AO2 PK WND 34030/0936 SLP035 T00441017", "KFCS 300955Z AUTO 34009KT 10SM CLR 07/M01 A3006 RMK AO2 SLP144 T00681009 $", "KFDK 300950Z AUTO 02003KT 5SM VCTS OVC008 14/14 A2957 RMK AO2 LTG DSNT NE AND E P0001", "KFDR 300953Z AUTO 36008KT 10SM CLR 12/07 A2984 RMK AO2 SLP095 T01170072", "KFDW 300955Z AUTO 01003KT 7SM -DZ BKN003 BKN009 OVC026 15/15 A2946 RMK AO1 P0006", "KFDY 300953Z AUTO 29013KT 6SM -RA BR OVC033 07/06 A2945 RMK AO2 PK WND 27029/0919 RAB0858 SLP967 P0005 T00720056", "KFEP 300955Z AUTO 26006KT 10SM SCT070 05/02 A2950 RMK AO2 T00450019", "KFET 300955Z AUTO 29012KT 10SM CLR 05/01 A2987 RMK AO2 T00500011", "KFFA 300955Z AUTO 00000KT 7SM -DZ OVC070 18/16 A2957 RMK AO2 T01760164", "KFFC 301002Z AUTO 33014G22KT 3/4SM +RA BR SCT006 SCT011 OVC017 14/13 A2949 RMK AO2 LTG DSNT SW-N P0036 T01390133", "KFFL 300955Z AUTO 30012KT 10SM BKN075 BKN085 05/04 A2962 RMK A01", "KFFM 300955Z AUTO 34014G19KT 10SM CLR 01/00 A2985 RMK AO2", "KFFO 300955Z 30012G18KT 9SM -SHRA OVC028 06/05 A2946 RMK AO2A PK WND 30028/27 SLP979 P0013 T00630048", "KFFT 300953Z AUTO 32011G20KT 10SM FEW023 SCT028 OVC034 11/06 A2952 RMK AO2 PK WND 31029/0925 SLP992 T01060061", "KFFX 300955Z AUTO 24008KT 3SM RA SCT006 BKN009 OVC024 04/04 A2939 RMK AO2 T00400040", "KFFZ 300954Z 00000KT 10SM CLR 22/M01 A2983 RMK AO2 SLP077 T02171011", "KFGN 300955Z AUTO 36016G21KT 10SM CLR 03/M04 A2991 RMK AO2", "KFGX 300955Z AUTO 23005KT 5SM BR SCT050 11/11 A2949 RMK AO2 T01110105", "KFHB 300955Z AUTO 18010KT 10SM SCT049 BKN060 OVC110 21/ A2950 RMK AO2", "KFHR 300953Z AUTO 00000KT 8SM CLR 07/06 A2987 RMK AO2 SLP116 T00720061", "KFHU 300955Z AUTO 21003KT 9SM CLR 15/M08 A3007 RMK AO2 SLP124 T01531076", "KFIG 300954Z AUTO 01004KT 1SM -RA BR OVC008 10/10 A2956 RMK AO2 VIS 1/2V4 RAB0858 SLP010 P0002 T01000100 $", "KFIN 300955Z AUTO 20013G19KT 10SM SCT036 SCT048 22/20 A2955 RMK AO2 LTG DSNT N T02200200", "KFKL 300956Z AUTO 15007KT 10SM SCT049 BKN075 OVC110 09/09 A2951 RMK AO2 SLP993 T00940094", "KFKN 300955Z AUTO 17007KT 10SM SCT055 OVC100 20/18 A2953 RMK AO2 LTG DSNT NE T01950176", "KFKR 300955Z AUTO 23010KT 10SM FEW013 BKN049 OVC075 06/05 A2951 RMK AO2", "KFKS 300955Z AUTO 22004KT 2 1/2SM -RA BKN005 OVC009 03/03 A2934 RMK AO2 T00320025", "KFLD 301001Z AUTO 27010G16KT 10SM BKN016 OVC030 03/01 A2937 RMK AO2 T00280006", "KFLG 300957Z AUTO 00000KT 10SM CLR 02/M07 A3020 RMK AO2 SLP147 T00171072", "KFLL 300953Z 21015G25KT 10SM BKN250 27/23 A2975", "KFLO 300953Z AUTO 16008KT 10SM FEW007 BKN013 OVC017 20/19 A2946 RMK AO2 SLP973 T02000189", "KFLP 300956Z AUTO 26003KT 10SM CLR 06/03 A2977 RMK AO2 SLP079 T00610028", "KFLY 300955Z AUTO 34006KT 10SM CLR 05/M02 A3013 RMK AO2 T00501016", "KFME 300949Z AUTO 10006KT 7SM OVC005 15/14 A2960 RMK AO1", "KFMH 300945Z 11015G25KT 3SM -DZ OVC005 10/10 A2981", "KFMM 300955Z AUTO 04009KT 10SM BKN100 06/M01 A3008 RMK AO2", "KFMN 300953Z AUTO 06004KT 10SM CLR 05/M08 A3008 RMK AO2 SLP147 T00501083", "KFMY 300953Z AUTO 20015G27KT 10SM BKN025 27/23 A2966 RMK AO2 PK WND 20029/0938 LTG DSNT W-N SLP046 T02720233", "KFNB 300953Z AUTO 30012KT 10SM CLR 07/01 A2983 RMK AO2 SLP101 T00670011", "KFNL 300956Z 00000KT 10SM CLR 07/02 A3010 RMK AO2 SLP150 T00720022", "KFNT 300953Z 00000KT 6SM BR BKN070 05/04 A2942 RMK AO2 SLP963 T00500044", "KFOA 300955Z AUTO 27009KT 10SM CLR 06/05 A2963 RMK AO2", "KFOD 300956Z AUTO 31007KT 10SM CLR 03/02 A2971 RMK AO2 SLP081 T00280017", "KFOE 300953Z AUTO 33010KT 10SM CLR 08/02 A2985 RMK AO2 SLP102 T00780022 $", "KFOK 300953Z AUTO 03004KT 1/2SM FG VV002 12/12 A2972 RMK AO2 SLP064 T01220122", "KFOZ 300953Z AUTO 35013G21KT 313V013 10SM OVC025 03/M01 A2980 RMK AO2", "KFPK 300955Z AUTO 24007KT 10SM SCT016 OVC110 06/04 A2941 RMK AO2 T00610035", "KFPR 300953Z AUTO 21010KT 10SM CLR 24/21 A2968 RMK AO2 SLP050 T02440206", "KFPY 300955Z AUTO 24006KT 10SM SCT018 SCT024 20/18 A2958 RMK AO2 T01980181", "KFQD 300945Z AUTO 00000KT 4SM BR SCT002 BKN017 OVC024 15/15 A2951 RMK AO2", "KFRG 300953Z AUTO 05007KT 3/4SM BR VV003 11/11 A2970 RMK AO2 SLP057 T01060106", "KFRH 300955Z AUTO 29005KT 10SM SCT011 OVC018 06/04 A2958 RMK AO1", "KFRI 300955Z AUTO 32005KT 10SM CLR 08/00 A2991 RMK AO2 SLP124 T00770002", "KFRM 300956Z AUTO 32020G26KT 10SM CLR 03/00 A2970 RMK AO2 PK WND 33027/0915 SLP068 T00330000", "KFSD 300956Z 34023G32KT 10SM OVC020 06/01 A2986 RMK AO2 PK WND 33032/0948 SLP116 T00560006", "KFSE 300955Z AUTO 34012KT 10SM CLR 00/M04 A2988 RMK AO2", "KFSI 300955Z AUTO 35006KT 10SM CLR 14/05 A2985 RMK AO2 SLP103 T01360047 FZRANO $", "KFSK 300955Z AUTO 25007KT 10SM CLR 06/02 A2982 RMK AO2 T00570018", "KFSM 300953Z AUTO 26007KT 10SM CLR 08/06 A2981 RMK AO2 SLP091 T00830061", "KFST 300953Z AUTO 20008KT 10SM CLR 14/M06 A3001 RMK AO2 SLP126 T01441056 $", "KFSW 300955Z AUTO 29008KT 10SM 06/04 A2960 RMK AO2", "KFTK 300955Z AUTO 32005KT 10SM BKN041 08/05 A2954 RMK AO2 SLP004 T00840051", "KFTN 300955Z AUTO 00000KT 10SM CLR 11/09 A3000 RMK A01", "KFTW 300953Z 24003KT 10SM CLR 12/07 A2984 RMK AO2 SLP099 T01220067", "KFTY 300953Z VRB03KT 6SM VCTS -RA BR SCT065 OVC080 14/13 A2950 RMK AO2 LTG DSNT S AND SW SLP983 P0023 T01390133", "KFUL 300953Z AUTO VRB03KT 9SM OVC008 14/13 A2994 RMK AO2 SLP138 T01390128", "KFVE 300953Z AUTO 12009KT 10SM OVC085 08/02 A3006 RMK AO2 SLP179 T00780022 $", "KFVX 300955Z AUTO 00000KT 10SM -DZ SCT026 BKN065 OVC085 16/16 A2950 RMK AO2 LTG DSNT E P0071 T01610157", "KFWA 300954Z 24005KT 10SM FEW049 BKN060 OVC090 07/04 A2948 RMK AO2 RAE19 SLP982 P0001 T00670044 $", "KFWB 300955Z AUTO 00000KT 10SM CLR 06/04 A2977 RMK AO2", "KFWC 300955Z AUTO 00000KT 10SM CLR 06/05 A2963 RMK AO1 T00600050", "KFWN 300953Z AUTO 29005KT 4SM BR OVC003 09/09 A2976 RMK AO2 PRESRR SLP077 T00940089", "KFWS 300955Z AUTO 19003KT 10SM CLR 11/07 A2987 RMK AO2 T01150070", "KFXE 300953Z AUTO 19011KT 10SM CLR 27/24 A2973 RMK AO2 SLP068 T02670239 PNO", "KFXY 300955Z AUTO 31013G18KT 10SM CLR 02/00 A2965 RMK AO2", "KFYE 300955Z AUTO 32005KT 10SM CLR 12/10 A2965 RMK A01", "KFYG 300955Z AUTO 00000KT 10SM 06/06 A2966 RMK AO2", "KFYJ 300955Z AUTO 00000KT 10SM BKN015 BKN046 OVC110 17/16 A2952 RMK AO1 P0001 T01650157", "KFYM 300955Z AUTO 32004KT 10SM SCT090 14/12 A2958 RMK A01", "KFYV 300953Z AUTO 19003KT 9SM CLR 05/04 A2980 RMK AO2 SLP088 T00500039", "KFZG 300955Z AUTO 23005KT 10SM SCT008 BKN015 BKN021 19/18 A2949 RMK AO2 LTG DSNT N T01900180", "KFZY 300954Z AUTO VRB04KT 10SM CLR 09/07 A2962 RMK AO2 SLP032 T00940072", "KGAD 300956Z AUTO 30004KT 10SM SCT022 BKN046 OVC065 16/16 A2955 RMK AO2 RAE51 SLP007 T01610161 PNO $", "KGAF 300955Z AUTO 34016KT 10SM CLR 02/01 A3001 RMK AO2", "KGAG 300953Z AUTO 29003KT 10SM CLR 07/04 A2994 RMK AO2 SLP124 T00720044", "KGAI 300956Z AUTO 00000KT 10SM OVC006 15/14 A2956 RMK AO2 LTG DSNT N SLP022 T01500144", "KGAO 300955Z AUTO 29009G16KT 10SM CLR 17/12 A2983 RMK AO2 T01650121", "KGBD 300956Z AUTO 33007KT 10SM BKN110 08/01 A2997 RMK AO2 SLP141 T00830011", "KGBG 300955Z AUTO 28008KT 10SM SCT065 OVC090 05/04 A2957 RMK AO2 T00530038 TSNO", "KGCC 300953Z AUTO 00000KT 10SM CLR M03/M06 A3010 RMK AO2 SLP192 T10281061", "KGCD 300955Z AUTO 09006KT 10SM CLR 10/04 A2991 RMK AO2 T00990040", "KGCK 300954Z AUTO 03008KT 10SM BKN100 09/02 A2999 RMK AO2 SLP135 T00890022", "KGCM 300955Z AUTO 00000KT 10SM CLR 06/06 A2983 RMK AO2", "KGCN 300954Z AUTO 00000KT 10SM CLR M01/M07 A3018 RMK AO2 SLP155 T10061072", "KGCY 300955Z AUTO VRB04KT 8SM SCT027 BKN039 OVC055 13/13 A2949 RMK A01", "KGDA 300955Z AUTO 31007KT 10SM CLR 07/04 A2963 RMK AO2 T00680040 PWINO", "KGDB 300955Z AUTO 30015G19KT 10SM CLR 04/01 A2982 RMK AO2 T00350010", "KGDJ 300955Z AUTO 03003KT 10SM CLR 09/07 A2989 RMK AO2 T00860066", "KGDP 300951Z AUTO 25012KT 8SM CLR 14/M07 A3012 RMK AO2 SLP132 T01441067 $", "KGDV 300956Z AUTO 34006KT 10SM CLR M01/M05 A3015 RMK AO2 SLP222 T10061050 FZRANO TSNO", "KGED 300954Z AUTO 09007KT 10SM BKN009 14/13 A2959 RMK AO2 CIG 007V012 SLP020 T01440128 PNO $", "KGEG 300953Z 08008KT 10SM FEW120 FEW250 16/06 A2985 RMK AO2 SLP093 T01560056", "KGEV 300945Z AUTO 13003KT 10SM RA SCT095 OVC110 10/09 A2957 RMK AO2 T00980089", "KGEY 300953Z AUTO 11004KT 10SM CLR 07/M01 A3002 RMK AO2 SLP147 T00671011", "KGEZ 300953Z AUTO 28007KT 10SM CLR 07/05 A2953 RMK AO2 SLP000 T00720050 $", "KGFA 300955Z AUTO 18007KT 10SM CLR 06/03 A2999 RMK AO2 SLP160 T00550027 $", "KGFK 300953Z 34015KT 10SM CLR 02/M01 A2998 RMK AO2 SLP160 T00171011 $", "KGFL 300953Z AUTO 33004KT 10SM OVC028 08/07 A2977 RMK AO2 SLP085 T00780067", "KGGE 300955Z AUTO 19007KT 10SM SCT008 BKN014 BKN020 20/20 A2948 RMK AO2", "KGGF 300955Z AUTO 36008KT 10SM CLR 02/M06 A3006 RMK AO2", "KGGG 300953Z AUTO 00000KT 10SM CLR 09/07 A2984 RMK AO2 SLP103 T00890072", "KGGI 300955Z AUTO 30014G19KT 10SM SCT070 05/03 A2965 RMK AO2 T00460032", "KGGP 300955Z AUTO 24009KT 10SM BKN048 05/04 A2951 RMK AO2", "KGGW 300953Z AUTO 11009KT 10SM CLR 02/M04 A3014 RMK AO2 SLP218 T00171044", "KGHG 300955Z AUTO 10006KT 3SM BR OVC006 10/09 A2984 RMK AO2 P0006", "KGHW 300955Z AUTO 32014KT 10SM CLR 02/M02 A2977 RMK AO2", "KGIC 300955Z AUTO 07006KT 10SM CLR 10/03 A2990 RMK AO1", "KGIF 301000Z AUTO 23014G24KT 2 1/2SM VCTS +RA BR FEW012 BKN030 OVC070 22/21 A2963 RMK AO2 VIS 1 1/2V5 LTG DSNT ALQDS P0009 T02220211", "KGJT 300953Z AUTO 09005KT 10SM CLR 06/M01 A3006 RMK AO2 SLP136 T00561011", "KGKJ 300953Z AUTO VRB03KT 10SM SCT047 OVC055 10/07 A2948 RMK AO2 SLP981 T01000072", "KGKT 300955Z AUTO 00000KT 9SM BKN043 BKN050 OVC120 15/15 A2949 RMK A01", "KGKY 300953Z AUTO 17003KT 10SM CLR 10/07 A2984 RMK AO2 SLP101 T01000072", "KGLD 300953Z AUTO 30004KT 10SM OVC085 05/M02 A3004 RMK AO2 SLP151 T00501017", "KGLE 300955Z AUTO 34007KT 10SM CLR 12/06 A2988 RMK AO2 T01200055", "KGLH 300953Z AUTO 28006KT 10SM CLR 12/10 A2973 RMK AO2 SLP075 T01220100", "KGLR 300953Z AUTO 15005KT 10SM FEW021 03/01 A2934 RMK AO2 SLP941 T00330006", "KGLS 300952Z AUTO 25005KT 10SM CLR 17/12 A2992 RMK AO2 SLP130 T01670117 $", "KGLW 300955Z AUTO 30005KT 10SM BKN007 OVC015 12/12 A2954 RMK AO2 T01210118", "KGLY 300955Z AUTO 31004KT 9SM CLR 05/04 A2976 RMK AO2", "KGMJ 300955Z AUTO 00000KT 10SM CLR 06/06 A2981 RMK AO2", "KGMU 300953Z AUTO 35004KT 5SM RA BR SCT015 OVC055 16/14 A2950 RMK AO2 RAB04E16B32 SLP982 P0002 T01610144", "KGNA 300956Z AUTO 01016G38KT 03/M01 A2945 RMK AO1 PK WND 36038/0952 SLP981 T00331006", "KGNB 300955Z AUTO 00000KT 10SM CLR M01/M04 A3018 RMK AO2 T10071039", "KGNC 300950Z AUTO 24006KT 10SM CLR 10/M03 A3004 RMK AO2 T00991033", "KGNG 301000Z AUTO 08013KT 10SM FEW046 14/00 A2996 RMK AO2", "KGNR 300956Z AUTO 12014G19KT 04/03 A2999 RMK AO1 SLP165 P0006 T00390028", "KGNT 300955Z AUTO 35004KT 10SM CLR 00/M12 A3018 RMK AO2 T10031120", "KGNV 300953Z AUTO 27016G27KT 10SM -RA FEW010 BKN016 OVC024 21/19 A2958 RMK AO2 PK WND 25033/0934 RAB21 SLP014 P0010 T02060189", "KGOK 300953Z AUTO 00000KT 10SM CLR 08/05 A2987 RMK AO2 SLP115 T00780050 $", "KGON 300956Z AUTO 06008KT 2 1/2SM BR OVC005 13/11 A2973 RMK AO2 SLP067 T01330111", "KGOO 300955Z AUTO VRB05KT 10SM CLR 17/05 A2997 RMK A01", "KGOP 300955Z AUTO 23007KT 10SM CLR 12/06 A2990 RMK AO2", "KGOV 300940Z AUTO 19008KT 10SM BKN006 OVC012 03/03 A2936 RMK AO2 CIG 006V011 BKN V SCT SLP953 $", "KGPC 300955Z AUTO 25007KT 10SM BKN005 BKN029 05/05 A2955 RMK AO2 T00520048", "KGPH 300955Z AUTO 30007KT 10SM CLR 08/01 A2977 RMK AO2", "KGPI 300955Z AUTO 29003KT 10SM CLR 04/01 A2994 RMK AO2 SLP136 T00440011", "KGPM 300955Z AUTO 21005KT 10SM CLR 12/07 A2986 RMK AO2 T01160068", "KGPT 300953Z AUTO 29010G19KT 10SM SCT015 BKN042 16/14 A2973 RMK AO2 SLP067 T01610144", "KGPZ 300956Z AUTO 35019G24KT 9SM -SN OVC014 01/M01 A2971 RMK AO2 RAB16E31 SLP074 P0000 T00111006 FZRANO", "KGRB 300953Z AUTO 27010KT 10SM FEW010 BKN017 OVC023 03/01 A2933 RMK AO2 SLP938 T00280011 $", "KGRD 300956Z AUTO 29005KT 9SM BKN060 BKN080 OVC090 14/14 A2948 RMK AO2 RAE18 SLP979 P0001 T01440139", "KGRF 300955Z AUTO 26003KT 10SM CLR 09/06 A2991 RMK AO2 SLP131 T00880064 $", "KGRI 300953Z AUTO 30009KT 10SM CLR 03/M03 A2997 RMK AO2 SLP152 T00331033", "KGRK 300955Z AUTO 29003KT 8SM CLR 17/02 A2990 RMK AO2 SLP118 T01700022", "KGRN 300955Z AUTO 30006KT 10SM CLR 01/M06 A3009 RMK AO2 T00061063", "KGRR 300953Z 24008KT 9SM -RA SCT013 BKN018 OVC027 05/03 A2942 RMK AO2 RAB43 SLP967 P0000 T00500028 $", "KGRY 300955Z AUTO 32011G24KT 10SM BKN036 OVC046 19/11 A2986 RMK A01", "KGSB 300955Z 15005KT 10SM OVC005 18/18 A2948 RMK AO2A SLP986 WND DATA ESTMD T01820180 $", "KGSH 300953Z AUTO 26007KT 10SM OVC055 07/03 A2947 RMK AO2 SLP979 T00670033", "KGSO 300954Z 29004KT 6SM -RA BR SCT037 OVC085 16/14 A2950 RMK AO2 RAE16B32 SLP982 P0004 T01560144", "KGSP 300953Z AUTO 30003KT 10SM -RA BKN013 BKN024 OVC050 15/14 A2950 RMK AO2 RAB28 SLP980 P0000 T01500139", "KGTB 300855Z AUTO 16017G25KT 10SM BKN043 OVC060 10/07 A2962 RMK AO2 PK WND 13026/03 SLP032 T00970073 57016 $", "KGTF 300953Z 21004KT 10SM CLR 06/03 A3000 RMK AO2 SLP152 T00610028", "KGTR 300956Z AUTO 28004KT 10SM CLR 13/13 A2967 RMK AO2 SLP053 T01330128", "KGTU 300956Z AUTO 00000KT 10SM CLR 11/06 A2995 RMK AO2 SLP139 T01060061", "KGUC 300956Z AUTO 00000KT 10SM CLR M02/M03 A3021 RMK AO2 SLP189 T10171028 FZRANO", "KGUL 301000Z AUTO 00000KT 10SM CLR 21/11 A2992 RMK A01", "KGUP 300953Z AUTO 00000KT 10SM CLR 01/M08 A3017 RMK AO2 SLP121 T00061083", "KGUR 300955Z AUTO 15003KT 10SM CLR 03/M03 A3009 RMK AO2 SLP192 T00311035", "KGUS 300955Z AUTO 25010KT 10SM FEW060 05/04 A2949 RMK AO2 SLP991 T00500044 TSNO $", "KGUY 300953Z AUTO 33004KT 10SM CLR 08/05 A2995 RMK AO2 SLP113 T00830050", "KGVE 300955Z AUTO 00000KT 10SM OVC009 16/15 A2952 RMK AO1 T01580152", "KGVL 300953Z AUTO 35004KT 7SM -RA FEW005 OVC070 14/14 A2951 RMK AO2 SLP979 P0009 T01440139", "KGVQ 300956Z AUTO 12005KT 10SM CLR 09/08 A2954 RMK AO2 SLP002 T00890078", "KGVT 300955Z AUTO 23003KT 10SM CLR 12/08 A2984 RMK AO2 TSNO T01190076", "KGVW 301000Z AUTO 27009KT 220V280 10SM CLR 20/10 A2991 RMK A01", "KGWB 300955Z AUTO 27003KT 10SM OVC080 06/04 A2947 RMK AO2", "KGWO 300953Z AUTO 00000KT 10SM CLR 13/11 A2971 RMK AO2 SLP059 T01330111 $", "KGWR 300955Z AUTO 34014KT 10SM CLR 02/02 A2995 RMK A01", "KGWW 300950Z AUTO 14004KT 7SM BKN006 BKN010 OVC015 18/18 A2952 RMK AO2 T01760176", "KGXA 300955Z AUTO 24006KT 10SM CLR 15/M03 A2994 RMK AO2 SLP107 WND DATA ESTMD T01491028", "KGXF 300955Z AUTO 15008KT 10SM CLR 21/M12 A2980 RMK AO2 SLP079 T02101118 FZRANO $", "KGXY 300956Z AUTO 35006KT 10SM CLR 04/01 A3010 RMK AO2 SLP178 T00440011", "KGYB 300955Z AUTO 00000KT 10SM CLR 10/08 A2994 RMK AO2 T01010084", "KGYF 300955Z AUTO 35006KT 10SM CLR A2994 RMK AO2", "KGYH 300955Z AUTO 34004KT 5SM +RA BR BKN011 OVC039 15/15 A2950 RMK A02 P0006 T01530147", "KGYI 300955Z AUTO 30005KT 10SM CLR 10/06 A2987 RMK AO2 T00960064 TSNO", "KGYL 300955Z AUTO 32015G20KT 10SM CLR 03/M01 A2968 RMK AO2 T00331014", "KGYY 300945Z 26007KT 10SM SCT065 A2950", "KGZH 300953Z AUTO 00000KT 8SM -RA SCT011 BKN030 OVC075 14/13 A2965 RMK AO2 SLP037 P0002 T01440133 $", "KGZL 300955Z AUTO 00000KT 10SM CLR 08/07 A2981 RMK AO2", "KGZN 300940Z AUTO 23011KT 10SM CLR 15/03 A2990 RMK AO2", "KGZS 300955Z AUTO 00000KT 9SM CLR 12/12 A2958 RMK A01", "KHAE 300955Z AUTO 28008KT 10SM SCT065 SCT120 06/03 A2965 RMK AO2", "KHAF 300955Z AUTO 32008KT 6SM BR OVC006 10/09 A3000 RMK AO2", "KHAI 300955Z AUTO 26009G14KT 10SM SCT020 BKN026 OVC110 06/02 A2946 RMK AO2 T00600023", "KHAO 300953Z AUTO 30008KT 10SM -RA OVC038 08/06 A2952 RMK AO2 PK WND 30026/0911 WSHFT 0851 RAE03B35 SLP996 P0000 T00830056", "KHBG 300953Z AUTO 30009KT 10SM BKN016 OVC022 16/14 A2974 RMK AO2 SLP069 T01560144", "KHBI 300945Z AUTO 00000KT 7SM -RA SCT018 OVC065 16/15 RMK AO2 P0002 T01560153", "KHBR 300953Z AUTO 07004KT 10SM CLR 09/05 A2988 RMK AO2 SLP110 T00940050", "KHBV 300955Z AUTO 28008KT 10SM CLR 14/05 A2999 RMK AO2 T01400045", "KHCD 300955Z AUTO 31017G23KT 10SM CLR 03/M01 A2972 RMK AO2 T00331010", "KHCO 300955Z AUTO 33011KT 10SM CLR 01/00 A2999 RMK AO2", "KHCR 300955Z AUTO 00000KT 10SM CLR 01/M03 A3012 RMK AO2", "KHDC 300955Z AUTO 28005KT 10SM CLR 14/12 A2981 RMK AO2 T01410121", "KHDE 300955Z AUTO 33009KT 10SM CLR 04/M04 A3000 RMK AO2 T00431042", "KHDL 300955Z AUTO 26010G15KT 9SM -RA FEW010 SCT017 OVC022 14/14 A2957 RMK AO2", "KHDN 300956Z AUTO 11007KT 10SM CLR 03/M03 A3013 RMK AO2 SLP162 T00281028", "KHDO 300951Z AUTO 36006KT 10SM CLR 09/06 A2998 RMK AO2 SLP142 T00940056", "KHEF 300956Z AUTO 00000KT 10SM OVC006 16/15 A2955 RMK AO2 SLP010 T01560150", "KHEG 300955Z AUTO 27009G21KT 2SM RA FEW002 BKN019 OVC100 20/19 A2956 RMK AO2 LTG DSNT E AND SE", "KHEI 300953Z AUTO 31005KT 10SM CLR M06/M07 A3013 RMK AO2 SLP218 T10561072", "KHEQ 300955Z AUTO 33006KT 10SM CLR 05/M02 A3007 RMK AO2", "KHEY 300955Z AUTO 29007KT 10SM OVC085 14/14 A2956 RMK AO2 SLP011 T01410139", "KHEZ 300956Z AUTO 27003KT 10SM CLR 11/11 A2981 RMK AO2 SLP095 T01110106", "KHFD 300953Z 35006KT 3SM BR OVC005 10/09 A2976 RMK AO2 CIG 003V007 SLP077 T01000089", "KHFF 300955Z AUTO 17006KT 10SM -RA BKN004 OVC008 17/16 A2945 RMK AO2 LTG DSNT E CIG 004V006 BKN V OVC SLP972 P0007 T01660164 $", "KHFJ 300955Z AUTO 00000KT 10SM CLR 05/04 A2979 RMK AO2", "KHFY 300955Z AUTO 27003KT 10SM BKN004 06/06 A2955 RMK AO2 T00640061", "KHGR 300953Z AUTO 00000KT 5SM -RA BR OVC007 14/13 A2956 RMK AO2 LTG DSNT E AND SE RAB0854 SLP019 P0005 T01440133 $", "KHHF 300955Z AUTO 00000KT 10SM CLR 07/05 A2993 RMK AO2 T00710053", "KHHG 300955Z AUTO 25005KT 10SM SCT075 BKN090 05/05 A2949 RMK AO2 T00540054", "KHHR 300953Z AUTO 23004KT 6SM HZ OVC007 16/12 A2995 RMK AO2 SLP140 T01560117", "KHHW 300955Z AUTO 00000KT 10SM 08/05 A2982 RMK AO2", "KHIB 300953Z AUTO 35017G25KT 3SM -SN BR BKN013 OVC021 00/M01 A2965 RMK AO2 PK WND 33032/0908 SLP056 P0000 T00001011", "KHIE 300952Z AUTO 19008G18KT 160V220 10SM BKN033 BKN042 OVC070 07/02 A2986 RMK AO2 PK WND 14026/0854 SLP118 T00720022", "KHIF 300955Z AUTO 06011KT 10SM CLR 12/M02 A3000 RMK AO2 SLP115 T01171025", "KHII 300955Z AUTO 15003KT 10SM 23/M07 A2979 RMK AO2", "KHIO 300953Z AUTO 31004KT 10SM BKN110 10/08 A2995 RMK AO2 SLP138 T01000083", "KHJH 300955Z AUTO 31008KT 10SM CLR 04/M02 A2994 RMK AO2 T00361017", "KHJO 300953Z AUTO 32007KT 10SM CLR 19/11 A2986 RMK AO2 SLP111 T01940111", "KHKA 300953Z AUTO 36009KT 10SM CLR 10/07 A2969 RMK AO2 SLP053 T01000072 $", "KHKS 300953Z AUTO 29007KT 10SM CLR 13/12 A2975 RMK AO2 SLP068 T01280117 $", "KHKY 300953Z AUTO 08003KT 10SM BKN065 OVC075 14/13 A2950 RMK AO2 RAE36 SLP971 P0002 T01390128", "KHLB 300955Z AUTO 30005KT 10SM SCT008 BKN042 OVC048 06/06 A2952 RMK A01 P0001", "KHLC 300953Z AUTO 34007KT 10SM OVC110 09/M02 A3001 RMK AO2 SLP150 T00891022", "KHLG 300953Z AUTO 14003KT 9SM -RA OVC065 11/09 A2948 RMK AO2 SLP983 P0003 T01110094", "KHLN 300953Z AUTO 00000KT 10SM CLR 08/01 A3002 RMK AO2 SLP158 T00830011", "KHLR 300955Z AUTO 26004KT 10SM CLR 13/05 A2991 RMK AO2 SLP123 T01280052", "KHLX 300955Z AUTO 21003KT 10SM DZ SCT070 BKN075 OVC095 11/10 A2954 RMK AO2 P0001 T01120095", "KHMN 300955Z AUTO 00000KT 10SM CLR 09/M09 A3007 RMK AO2 SLP133 T00881087 $", "KHMP 300955Z AUTO 06010G15KT 5SM RA BR SCT007 BKN034 OVC043 14/13 A2949 RMK AO2 LTG DSNT SE P0030 T01410132", "KHMT 300955Z AUTO 00000KT 1 3/4SM BR CLR 11/ A2995 RMK AO2 VIS 1V5 T0109////", "KHMZ 300955Z AUTO 00000KT 2SM RA OVC016 11/10 A2954 RMK AO2 LTG DSNT SE T01070104", "KHNB 300956Z AUTO 31008KT 10SM BKN020 07/05 A2960 RMK AO2 SLP022 T00720050", "KHND 300956Z AUTO 26007KT 10SM CLR 22/M09 A2990 RMK AO2 SLP113 T02221089", "KHNR 300955Z AUTO 31013KT 10SM BKN022 BKN046 BKN055 04/03 A2980 RMK A01", "KHNZ 300955Z AUTO 19003KT 10SM BKN022 BKN030 BKN060 16/16 A2952 RMK AO2 T01570156", "KHOB 300955Z AUTO 23006KT 10SM CLR 11/M06 A3000 RMK AO2", "KHOE 300955Z AUTO 20005KT 10SM SCT008 SCT025 BKN070 19/18 A2953 RMK AO2 T01950185", "KHON 300955Z AUTO 33012KT 10SM CLR 03/01 A2996 RMK AO2 SLP149 T00280011", "KHOP 300910Z AUTO 34008KT 10SM SCT020 SCT026 09/09 A2960 RMK AO2 SLP024", "KHOT 300953Z AUTO 00000KT 10SM CLR 08/07 A2981 RMK AO2 SLP091 T00780067", "KHOU 300953Z 25008KT 10SM CLR 13/09 A2991 RMK AO2 SLP132 T01330089 $", "KHPN 300956Z 07004KT 1/2SM R16/3000V4000FT -DZ FG OVC001 10/10 A2970 RMK AO2 SLP059 P0000 T01000100", "KHPT 300955Z AUTO 31017G21KT 10SM CLR 03/01 A2963 RMK AO2", "KHQG 300955Z AUTO 34003KT 10SM CLR 06/04 A2998 RMK AO2 T00560040", "KHQG 300955Z AUTO 34003KT 10SM CLR 06/04 A2998 RMK AO2 T00560040", "KHQM 300953Z AUTO 17006KT 6SM BR OVC008 11/08 A2995 RMK AO2 CIG 006V011 SLP146 T01060083", "KHQU 300955Z AUTO 00000KT 7SM -RA BR BKN004 SCT009 OVC014 16/15 A2946 RMK AO2 LTG DSNT SW P0002 T01600152", "KHQZ 300955Z AUTO 17003KT 10SM CLR 09/07 A2984 RMK AO1 T00910072", "KHRF 301005Z AUTO 19010KT 10SM CLR 10/M01 A2999 RMK AO2 Hamilton ", "KHRI 300953Z AUTO 12003KT 10SM CLR 12/06 A2979 RMK AO2 SLP082 T01220061 $", "KHRJ 300945Z AUTO 00000KT 4SM -RA BR OVC008 17/17 A2950 RMK AO2 P0003 T01720169", "KHRL 300952Z AUTO 18006KT 10SM CLR 13/11 A2997 RMK AO2 SLP149 T01280111", "KHRO 300953Z AUTO 26003KT 10SM CLR 07/03 A2977 RMK AO2 SLP075 T00720028", "KHRT 300955Z AUTO 31008KT 10SM CLR 15/13 A2965 RMK AO2 SLP042 T01520129 $", "KHRX 300955Z AUTO 16003KT 10SM CLR 06/01 A2999 RMK AO2 T00630008", "KHSB 300955Z AUTO 00000KT 10SM CLR 07/07 A2965 RMK AO2 T00680068", "KHSD 300955Z AUTO 30004KT 10SM CLR 09/06 A2988 RMK A01", "KHSE 300951Z AUTO 17010KT 6SM -RA BKN075 OVC090 19/ A2960 RMK AO2 RAE19B42 SLP022 P0000 T0194 $", "KHSG 300955Z AUTO 00000KT 10SM CLR 05/00 A3006 RMK AO2 T00501004", "KHSI 300953Z AUTO 30009KT 10SM CLR 02/M04 A2997 RMK AO2 SLP149 T00221039 $", "KHSP 300955Z AUTO 15008KT 4SM -RA BKN003 BKN012 OVC055 12/12 A2958 RMK AO2 P0002 T01200117", "KHST 300955Z AUTO 19012G19KT 10SM CLR 26/23 A2976 RMK AO2 SLP081 T02640230", "KHSV 300953Z AUTO 32008KT 10SM BKN100 15/13 A2957 RMK AO2 SLP009 T01500128", "KHTH 300955Z AUTO 21006KT 10SM CLR 15/M01 A3001 RMK A01", "KHTS 300951Z 13004KT 4SM -RA BR FEW026 BKN055 OVC075 12/11 A2950 RMK AO2 RAB06 SLP983 P0006 T01220111", "KHUA 300955Z AUTO 33005KT 10SM OVC090 15/14 A2957 RMK AO2 SLP010 T01450135", "KHUF 301002Z 27007KT 10SM OVC009 07/06 A2957 RMK AO2 T00670056", "KHUL 300953Z AUTO 15007KT 10SM SCT110 07/M01 A3009 RMK AO2 SLP190 T00721006", "KHUM 300955Z AUTO 26005KT 7SM CLR 15/12 A2984 RMK AO2 T01500117", "KHUT 300952Z AUTO 31006KT 10SM CLR 06/02 A2992 RMK AO2 SLP117 T00610022", "KHVC 300955Z AUTO 30005KT 10SM CLR 08/07 A2961 RMK AO2", "KHVE 300955Z AUTO 00000KT 10SM CLR 05/M10 A3005 RMK AO2", "KHVN 300953Z 01006KT 7SM OVC006 11/11 A2972 RMK AO2 SLP062 T01110106", "KHVR 300953Z AUTO 07009KT 10SM CLR 06/M01 A3002 RMK AO2 SLP168 T00561011", "KHVS 300955Z AUTO 00000KT 6SM BR BKN004 BKN007 OVC026 18/18 A2946 RMK AO2 LTG DSNT E", "KHWD 300954Z AUTO 27004KT 10SM OVC012 12/09 A2998 RMK AO2 SLP162 T01170094", "KHWO 300953Z AUTO 19012KT 10SM CLR 26/23 A2975 RMK AO2 SLP075 T02610228 $", "KHWV 300956Z AUTO 00000KT 1/2SM FG VV002 11/11 A2970 RMK AO2 SLP058 T01110106", "KHWY 300955Z AUTO 07003KT 7SM OVC003 16/14 A2954 RMK AO2 LTG DSNT NE T01570142", "KHXD 300955Z AUTO 21011G16KT 10SM SCT110 22/20 A2950 RMK AO2", "KHYA 300956Z 13007G18KT 5SM BR OVC006 09/09 A2979 RMK AO2 RAE46 SLP088 P0009 T00940094", "KHYI 300956Z AUTO 30005KT 10SM CLR 10/07 A2996 RMK AO2 SLP138 T01000072", "KHYR 300953Z AUTO VRB06G15KT 2 1/2SM -SN BR OVC013 01/M01 A2952 RMK AO2 SLP007 P0001 T00111006", "KHYS 300956Z AUTO 33008KT 10SM BKN110 09/M02 A2998 RMK AO2 SLP146 T00941022 $", "KHYW 300955Z AUTO 00000KT 10SM SCT005 SCT029 BKN036 20/19 A2947 RMK AO2 LTG DSNT E", "KHYX 300955Z AUTO 17003KT 10SM BKN050 OVC070 06/06 A2941 RMK AO2 T00550055", "KHZD 300955Z AUTO VRB04KT 10SM FEW055 SCT070 10/08 A2963 RMK A01", "KHZE 300955Z AUTO VRB04KT 10SM CLR M01/M02 A3015 RMK AO2", "KHZL 300955Z AUTO 11005KT 10/09 A2966 RMK AO2 PWINO P0008", "KHZR 300955Z AUTO 27004KT 10SM CLR 12/11 A2984 RMK AO2 T01220112", "KHZX 300955Z AUTO 34016G24KT 7SM SCT010 BKN014 OVC019 01/00 A2966 RMK AO2", "KHZY 300953Z AUTO 14005KT 10SM FEW040 BKN085 11/07 A2946 RMK AO2 SLP975 T01110072", "KI16 300955Z AUTO 3SM -RA SCT001 SCT060 OVC070 14/13 A2956 RMK AO2 T01350128", "KI19 300955Z AUTO 34008G20KT 310V010 1 3/4SM -RA BR BKN006 BKN019 OVC024 06/06 A2948 RMK AO2 P0014", "KI23 300955Z AUTO 16005KT 10SM CLR 08/08 A2943 RMK AO1", "KI35 300919Z AUTO 00000KT 1/4SM OVC001 12/12 A2953 RMK AO2", "KI63 300955Z AUTO 28006KT 10SM BKN046 BKN075 06/04 A2961 RMK AO2 T00560042", "KI67 300955Z AUTO 30007KT 7SM SCT042 BKN049 OVC065 07/05 A2952 RMK AO1 P0001", "KI68 300955Z AUTO 31009G15KT 10SM -RA 08/06 A2950 RMK AO1 T00750060", "KI69 300955Z AUTO 31018G24KT 10SM -RA SCT009 BKN023 OVC036 09/06 A2952 RMK AO2 T00870060 P0004", "KI74 300955Z AUTO 30009G20KT 2 1/2SM RA SCT009 BKN018 OVC049 06/05 A2949 RMK AO2 P0006", "KI75 300955Z AUTO 30012KT 10SM OVC018 06/03 A2970 RMK AO2 T00600031", "KI95 300955Z AUTO 28017KT 9SM BKN017 OVC027 07/07 A2946 RMK A01", "KIAB 300955Z AUTO 30008KT 10SM SCT140 08/02 A2987 RMK AO2 SLP113 T00830017 $", "KIAD 300952Z 09003KT 10SM OVC006 16/14 A2955 RMK AO2 SLP004 T01560144", "KIAG 300953Z AUTO 8SM CLR 09/08 A2950 RMK AO2 SLP994 T00890078 $", "KIAH 300953Z 25006KT 10SM CLR 13/09 A2991 RMK AO2 SLP127 T01280089", "KIBM 300955Z AUTO 30004KT 10SM BKN120 00/M04 A3010 RMK AO2 T10021038", "KICR 300953Z AUTO 32007KT 10SM CLR M01/M03 A3003 RMK AO2 SLP177 T10111033 PWINO FZRANO $", "KICT 300953Z 30008KT 10SM SCT120 SCT150 07/01 A2990 RMK AO2 SLP117 T00720011", "KIDA 300953Z AUTO 34005KT 10SM CLR 06/01 A3004 RMK AO2 SLP147 T00560006", "KIDI 300955Z AUTO 13006KT 8SM BKN050 OVC065 12/12 A2955 RMK A01", "KIDP 300955Z AUTO 30009KT 10SM CLR 06/03 A2986 RMK AO2 T00620030", "KIEN 300952Z AUTO 34003KT 10SM CLR 02/M06 A3011 RMK AO2 SLP196 T00171061", "KIER 300955Z AUTO 00000KT 10SM CLR 09/09 A2983 RMK AO2 T00920092", "KIFA 300955Z AUTO 31018G23KT 10SM CLR 04/02 A2965 RMK AO2 T00370022", "KIFP 300955Z AUTO 00000KT 10SM CLR 23/M07 A2979 RMK AO2", "KIGM 300951Z AUTO 19003KT 10SM CLR 09/M02 A2997 RMK AO2 SLP085 T00941017", "KIGQ 300955Z AUTO 26004KT 10SM SCT065 04/02 A2950 RMK AO2 T00400016", "KIIB 300955Z AUTO 31016KT 10SM OVC080 05/01 A2959 RMK AO2 T00480006", "KIIY 300955Z AUTO 08003KT 7SM -RA BKN003 BKN031 OVC055 15/15 A2946 RMK AO2 P0002 T01490147", "KIJD 300952Z AUTO 03004KT 8SM OVC007 10/09 A2976 RMK AO2 SLP078 T01000094", "KIJX 300955Z AUTO 26006KT 10SM BKN060 OVC090 06/06 A2961 RMK AO2 T00560056", "KIKG 300955Z AUTO 00000KT 10SM CLR 10/09 A2997 RMK AO2 T00970087", "KIKK 300955Z AUTO 26006KT 10SM CLR 02/00 A2953 RMK AO2 T00230000 PWINO", "KIKV 300955Z AUTO 31015G20KT 10SM FEW065 FEW075 04/03 A2970 RMK AO2", "KIKW 300955Z AUTO 00000KT 10SM OVC065 05/05 A2940 RMK AO2 T00520050", "KILE 300956Z AUTO 25006KT 10SM CLR 13/05 A2991 RMK AO2 SLP123 T01280050", "KILG 300951Z AUTO 05010KT 3/4SM R01/2800V3500FT BR VV002 13/12 A2963 RMK AO2 SLP033 T01280122 $", "KILM 300953Z AUTO 13007KT 10SM CLR 21/19 A2951 RMK AO2 RAB03E23 SLP992 P0009 T02060194 $", "KILN 301000Z AUTO 23003KT 1 1/2SM BR BKN017 BKN090 09/08 A2945 RMK AO2 T00940083", "KIML 300953Z AUTO 34007KT 10SM CLR 04/M04 A3006 RMK AO2 SLP169 T00441044", "KIMM 300955Z AUTO 21007G12KT 170V260 10SM SCT028 BKN032 BKN042 A2968 RMK AO2 LTG DSNT W AND NW", "KIMS 300955Z AUTO 30003KT 10SM BKN050 OVC075 07/07 A2956 RMK AO2", "KIMT 300954Z AUTO 32007KT 4SM -RA BR FEW004 OVC008 02/02 A2928 RMK AO2 RAE18B27UPB23E27 SLP926 P0000 T00170017", "KIND 300954Z 26006KT 10SM SCT048 05/04 A2954 RMK AO2 SLP003 T00500039", "KINF 300955Z AUTO 24006G19KT 7SM -RA SCT014 OVC021 21/21 A2961 RMK AO2 LTG DSNT E AND SE P0005", "KINJ 300955Z AUTO 00000KT 10SM CLR 09/09 A2987 RMK AO2 T00900090", "KINK 300953Z AUTO 00000KT 10SM CLR 11/M08 A2998 RMK AO2 SLP120 T01111078 $", "KINL 300954Z AUTO 35014G23KT 10SM SCT026 OVC075 02/M03 A2977 RMK AO2 SLP093 T00221028", "KINS 300955Z AUTO 00000KT 10SM CLR 16/M12 A2993 RMK AO2 SLP092 T01551119 $", "KINT 300954Z AUTO 02006KT 6SM -RA BR SCT004 OVC017 15/14 A2952 RMK AO2 CIG 015V030 SLP987 P0006 T01500144", "KINW 300956Z AUTO 11004KT 10SM CLR 08/M10 A3008 RMK AO2 SLP134 T00781100", "KIOB 300955Z AUTO 23003KT 7SM SCT006 BKN044 OVC060 12/11 A2951 RMK AO2 PWINO", "KIOW 300952Z AUTO 30013G22KT 10SM SCT060 OVC090 07/02 A2960 RMK AO2 SLP024 T00670022 $", "KIPJ 300945Z AUTO 00000KT 10SM BKN018 OVC026 14/14 A2950 RMK AO2 T01420137", "KIPL 300953Z AUTO 27010KT 10SM CLR 23/02 A2974 RMK AO2 SLP070 T02280017 $", "KIPT 300954Z AUTO 09009KT 8SM -RA BKN012 OVC060 11/10 A2960 RMK AO2 SLP024 P0011 T01110100", "KIRK 300955Z AUTO 30011G18KT 10SM SCT035 SCT044 BKN060 06/02 A2967 RMK AO2 SLP054 T00560022", "KIRS 300955Z AUTO 26005KT 10SM OVC024 06/03 A2945 RMK AO2 T00550025", "KISM 300956Z AUTO 20009KT 8SM +RA BKN021 BKN027 OVC037 23/21 A2962 RMK AO2 LTG DSNT S AND SW RAE27B54 SLP031 T02280211 PNO $", "KISO 300945Z AUTO 15004KT 10SM OVC005 19/19 A2953 RMK AO2 T01910187", "KISP 300956Z 03008KT 1/8SM R06/5500VP6000FT BR VV002 11/11 A2969 RMK AO2 SFC VIS 3/4 SLP055 T01060106", "KISQ 300955Z AUTO 15004KT 5SM RA BKN003 OVC009 04/03 A2932 RMK AO2 T00400031 P0002", "KISW 300954Z AUTO 30011G20KT 10SM BKN015 OVC022 02/01 A2940 RMK AO2 RAE45 SLP965 P0000 T00220006", "KITH 300956Z 15012KT 10SM SCT070 09/08 A2962 RMK AO2 RAE05 SLP031 P0000 T00940083", "KITR 300953Z AUTO 01009KT 10SM OVC110 08/M02 A3005 RMK AO2 SLP142 T00831017", "KIUA 300955Z AUTO 13007KT 7SM -DZ BKN080 10/09 A2957 RMK AO2 T01010090", "KIWA 300955Z AUTO 10007KT 10SM CLR 19/M02 A2985 RMK AO2 T01911017", "KIWD 300956Z AUTO 32007KT 1 1/4SM -SN OVC008 A2947 RMK AO2 SLPNO P0001 FZRANO", "KIWI 300953Z AUTO 07005KT 8SM -RA BKN011 BKN038 OVC048 07/04 A3003 RMK AO2 SLP170 P0004 T00670044", "KIXA 300950Z AUTO 19004KT 10SM SCT029 BKN055 OVC070 17/17 A2952 RMK AO2 P0001", "KIXD 300953Z AUTO 30008KT 10SM CLR 07/03 A2982 RMK AO2 SLP093 T00670028", "KIYA 300955Z AUTO 25004KT 10SM CLR 13/10 A2987 RMK AO2 T01250095", "KIZA 300955Z AUTO 25005KT 1/4SM -RA FG OVC001 10/10 A2996 RMK AO2", "KIZG 300954Z AUTO 04005KT 5SM -RA BR OVC014 06/05 A2997 RMK AO2 SLP153 P0005 T00610050", "KJAC 300956Z AUTO 03004KT 10SM CLR M01/M04 A3015 RMK AO2 SLP191 T10111044 FZRANO", "KJAN 300954Z AUTO 27004KT 10SM CLR 14/12 A2975 RMK AO2 SLP073 T01390122", "KJAQ 300955Z AUTO 00000KT 10SM CLR 13/04 A2993 RMK AO1 T01320041", "KJAS 300955Z AUTO 00000KT 2 1/2SM BR SCT049 BKN055 08/08 A2987 RMK AO2 VIS 1V5", "KJAU 300945Z AUTO 00000KT 9SM FEW040 OVC070 12/12 A2955 RMK A01", "KJAX 301000Z 27014G25KT 3SM R08/2600VP6000FT -RA BR SCT026 BKN045 OVC100 20/19 A2952 RMK AO2 LTG DSNT N P0017 T02000189 $", "KJBR 300953Z AUTO 32010KT 10SM CLR 11/04 A2973 RMK AO2 SLP065 T01110044 $", "KJCA 300955Z AUTO 07003KT 10SM -RA SCT014 BKN070 OVC100 15/ A2949 RMK AO2 LTG DSNT S P0003 T0148////", "KJCT 300951Z AUTO 29003KT 10SM CLR 07/01 A3000 RMK AO2 SLP135 T00720011 $", "KJDN 300948Z AUTO 00000KT 00/M04 A3012 RMK AO1 SLP215 T00001039", "KJEF 300953Z AUTO 31005KT 10SM CLR 07/03 A2970 RMK AO2 SLP047 T00670033 $", "KJER 300953Z AUTO 07013KT 10SM CLR 13/M01 A2996 RMK AO2 SLP109 T01281006", "KJES 300955Z AUTO 00000KT 7SM DZ SCT055 BKN065 OVC100 20/18 A2951 RMK AO2", "KJFK 300951Z 05007KT 1/4SM BR OVC002 10/10 A2971 RMK SFC VIS 2 SLP059 T01000100", "KJFX 300955Z AUTO 30006KT 10SM BKN095 14/14 A2960 RMK AO2", "KJFZ 300955Z AUTO 18003KT 1SM RA SCT022 OVC065 12/12 A2954 RMK AO2 VIS 1/2V5 P0004 T01200120", "KJHW 300956Z AUTO 17008KT 10SM OVC010 09/09 A2951 RMK AO2 SLP000 T00940089 PNO $", "KJKA 300955Z AUTO 29009KT 10SM FEW016 16/14 A2969 RMK AO2", "KJKJ 300955Z AUTO 33014KT 10SM CLR 01/M01 A2993 RMK AO2 TSNO", "KJKL 300953Z AUTO 00000KT 6SM BR FEW036 OVC055 12/11 A2952 RMK AO2 SLP987 T01220111", "KJLN 300953Z AUTO 24003KT 10SM CLR 05/03 A2981 RMK AO2 SLP092 T00500028", "KJMR 300955Z AUTO 33016G22KT 10SM UP SCT012 BKN022 OVC028 02/00 A2968 RMK AO2", "KJMS 300956Z AUTO 34013KT 10SM CLR 01/00 A3001 RMK AO2 SLP173 T00110000", "KJNX 300945Z AUTO 15003KT 7SM RA SCT008 BKN021 OVC033 18/18 A2950 RMK AO2 LTG DSNT SE P0001", "KJOT 300955Z AUTO 24003KT 10SM CLR 05/02 A2951 RMK AO2 T00450020", "KJPX 300955Z AUTO 08006KT 1/2SM FG OVC003 11/11 A2971 RMK AO2 T01110111", "KJQF 301000Z AUTO 33003KT 10SM SCT005 BKN012 BKN110 15/15 A2952 RMK AO2", "KJRB 300956Z AUTO 03005KT 7SM OVC003 A2972 RMK AO2 SLPNO FZRANO PNO $", "KJRO 300955Z AUTO 00000KT 7SM SCT090 SCT110 11/11 A2949 RMK AO2", "KJSO 300955Z AUTO 22005KT 10SM CLR 11/08 A2988 RMK AO2 T01050077 TSNO", "KJST 300954Z AUTO 09005KT 7SM -RA BKN006 OVC010 10/10 A2952 RMK AO2 SLP995 P0003 T01000100", "KJSV 300955Z AUTO 00000KT 9SM CLR 07/07 A2981 RMK AO2", "KJSY 300955Z AUTO 17004KT RMK AO2 PWINO PNO TSNO", "KJTC 300955Z AUTO 19004KT 10SM CLR 04/M13 A3021 RMK AO2", "KJVL 300955Z AUTO 25008KT 10SM SCT060 BKN085 04/01 A2945 RMK AO2", "KJVW 300955Z AUTO 29004KT 10SM CLR 12/12 A2976 RMK AO2", "KJVY 300955Z AUTO 34006KT 10SM SCT050 BKN060 BKN070 09/06 A2952 RMK AO2 PWINO", "KJWG 300955Z AUTO 36005KT 10SM CLR 08/04 A2993 RMK AO2 T00750040", "KJWN 300950Z AUTO 28005KT 10SM BKN023 BKN028 BKN035 12/11 A2955 RMK AO2", "KJWY 300955Z AUTO 26005KT 10SM CLR 12/07 A2989 RMK AO2 T01210070", "KJXN 301003Z AUTO 22007KT 8SM SCT012 BKN020 OVC060 07/06 A2943 RMK AO2 T00670056", "KJYG 300955Z AUTO 31016KT 10SM 03/00 A2971 RMK AO2", "KJYL 300955Z AUTO 23004KT 7SM BKN017 BKN024 20/19 A2948 RMK AO2 T02000193", "KJYM 300955Z AUTO 24007KT 10SM BKN010 BKN018 OVC070 06/05 A2944 RMK AO2 T00550046 P0004", "KJYO 300955Z AUTO 04003KT 4SM BR OVC005 15/15 A2957 RMK AO2 LTG DSNT N AND NE", "KJYR 300955Z AUTO 31013KT 10SM CLR 03/M01 A2993 RMK AO2", "KJZI 300955Z AUTO 22009KT 8SM FEW018 FEW024 22/21 A2946 RMK AO2", "KJZP 300955Z AUTO 00000KT 7SM RA BR SCT038 SCT044 OVC070 13/13 A2952 RMK AO2 LTG DSNT S P0005 T01340129", "KK62 300955Z AUTO 31011G18KT 10SM BKN014 OVC026 08/07 A2950 RMK AO2 P0005", "KK70 300950Z AUTO 20010G25KT 160V240 10SM SCT018 BKN023 27/25 A2974 RMK AO2", "KK82 300955Z AUTO 34006KT 10SM CLR 06/M04 A2999 RMK AO2 T00601036", "KK88 300955Z AUTO 28006KT 10SM CLR 06/02 A2985 RMK AO1 T00610021", "KKLS 300956Z AUTO 31005KT OVC013 10/07 A2998 RMK AO2 SLP157 T01000072 PWINO $", "KKNB 300955Z AUTO 08006KT 10SM CLR 05/M04 A3012 RMK A01", "KKY8 300955Z AUTO VRB06KT 10SM OVC022 09/07 A2959 RMK A01", "KL08 300955Z AUTO 24003KT 10SM CLR 19/M04 A2979 RMK AO2", "KL18 300955Z AUTO 00000KT 2 1/2SM BR OVC002 12/12 A2996 RMK AO2 VIS 1 1/2V4", "KL35 300955Z AUTO 00000KT 10SM CLR 03/M05 A3020 RMK AO2", "KLAA 300953Z AUTO 23003KT 10SM CLR 03/01 A3000 RMK AO2 SLP134 T00330011", "KLAF 300954Z AUTO 26006KT 10SM SCT012 SCT048 BKN060 06/05 A2952 RMK AO2 SLP997 T00610050 PNO $", "KLAL 300950Z 19013KT 10SM -RA BKN024 23/22 A2964", "KLAM 300955Z AUTO 00000KT 10SM CLR 13/M08 A3013 RMK AO2 T01331079 $", "KLAN 301001Z 26012KT 10SM SCT011 BKN021 OVC100 07/03 A2942 RMK AO2 T00670033 $", "KLAR 300953Z AUTO 34003KT 10SM CLR 01/M03 A3011 RMK AO2 SLP128 T00111028", "KLAS 300956Z 19003KT 10SM CLR 23/M09 A2986 RMK AO2 SLP086 T02281089 $", "KLAW 300953Z AUTO 35008KT 10SM CLR 11/05 A2987 RMK AO2 SLP108 T01060050", "KLAX 300953Z 28003KT 3/4SM R25L/P6000FT BR OVC004 13/12 A2995 RMK AO2 SLP140 VIS SW-W 1/2 T01330122", "KLBB 300953Z 28004KT 10SM CLR 11/M03 A2997 RMK AO2 SLP112 T01061033", "KLBE 300955Z AUTO VRB05KT 10SM BKN048 BKN060 13/11 A2950 RMK AO2", "KLBF 300953Z AUTO 33007KT 10SM CLR 03/M05 A3005 RMK AO2 SLP169 T00331050", "KLBL 300956Z AUTO 35005KT 10SM CLR 06/04 A2998 RMK AO2 SLP137 T00610039", "KLBO 300955Z AUTO 26006KT 10SM CLR 05/01 A2974 RMK AO2", "KLBT 300956Z AUTO 13006KT 10SM OVC006 18/18 A2947 RMK AO2 SLP978 T01830183", "KLCG 300955Z AUTO 33011KT 10SM CLR 05/01 A2988 RMK AO2 T00450011", "KLCH 300953Z AUTO 29006KT 10SM CLR 12/10 A2987 RMK AO2 SLP124 T01170100", "KLCI 300956Z AUTO 05010G14KT 4SM -RA BR OVC005 06/06 A2993 RMK AO2 SLP139 P0002 T00610061", "KLCK 300955Z AUTO 14006KT 10SM OVC070 11/10 A2945 RMK AO2 T01060101", "KLCQ 300955Z AUTO 26013G19KT 7SM RA SCT011 BKN033 OVC070 18/18 A2956 RMK AO2 P0009", "KLDM 300955Z AUTO 24010KT 10SM OVC009 04/02 A2936 RMK AO2 T00400022", "KLEB 300953Z AUTO VRB04KT 10SM OVC014 08/05 A2986 RMK AO2 RAE0857 SLP114 P0000 T00830050", "KLEE 300953Z AUTO 20011G20KT 10SM FEW036 BKN055 23/21 A2959 RMK AO2 LTG DSNT SW AND W SLP018 T02280211", "KLEW 300956Z AUTO 06007KT 7SM -RA OVC010 06/06 A3000 RMK AO2 CIG 005V014 SLP165 P0003 T00610056", "KLEX 300954Z 28011G17KT 6SM BR OVC008 13/11 A2950 RMK AO2 CIG 006V011 SLP985 T01280111", "KLFI 300955Z AUTO 11004KT 7SM OVC005 18/17 A2953 RMK AO2 CIG 004 RWY26 SLP006 T01760174 $", "KLFK 300953Z AUTO 00000KT 10SM CLR 11/09 A2988 RMK AO2 SLP115 T01060089", "KLFT 300953Z AUTO 26005KT 10SM CLR 14/12 A2985 RMK AO2 SLP107 T01390117", "KLGA 300951Z 04011KT 1/2SM R04/P6000FT -DZ BR OVC002 11/11 A2970 RMK AO2 SFC VIS 1 SLP058 P0000 T01060106 $", "KLGB 300953Z 13003KT 6SM BR OVC006 13/12 A2995 RMK AO2 SLP141 T01330117", "KLGC 300955Z AUTO 36007KT 330V030 10SM VCTS SCT011 BKN110 15/13 A2948 RMK AO2 LTG DSNT NE AND E T01450130", "KLGD 300956Z AUTO 00000KT 10SM CLR 07/05 A2990 RMK AO2 SLP111 T00720050", "KLGF 300955Z AUTO 08006KT M M CLR 25/M01 A2976 RMK AO2 SLP074 T02481011 RVRNO PWINO TSNO $", "KLGU 300951Z AUTO 00000KT 10SM CLR 08/03 A3003 RMK AO2 SLP135 T00830028", "KLHB 300955Z AUTO 00000KT 10SM CLR 09/09 A2992 RMK AO2 T00940085", "KLHM 300955Z AUTO 15010KT 10SM CLR 15/07 A2987 RMK AO1", "KLHQ 300953Z AUTO 00000KT 10SM BKN031 BKN041 OVC048 11/10 A2946 RMK AO2 SLP975 T01110100", "KLHW 300955Z AUTO 21004KT 10SM RA BKN032 20/19 A2945 RMK AO2 RAB13 SLP975 P0005 T01980190 $", "KLHX 300953Z AUTO 36007KT 10SM CLR 06/02 A3001 RMK AO2 SLP125 T00560022 $", "KLHZ 300955Z AUTO 15004KT 5SM RA SCT015 BKN024 OVC031 15/15 A2953 RMK AO2 P0004", "KLIC 300955Z AUTO 36005KT 10SM CLR 01/M02 A3007 RMK AO2 SLP148 T00061022 $", "KLIT 300953Z 32006KT 10SM CLR 12/07 A2978 RMK AO2 SLP086 T01220067 $", "KLJF 300955Z AUTO 32015G22KT 10SM CLR 02/M02 A2971 RMK AO2", "KLKR 300955Z AUTO 00000KT 1 1/2SM -RA BKN003 OVC016 16/16 A2948 RMK AO2", "KLKU 300955Z AUTO 05004KT 3 1/2SM RA BR OVC003 16/16 A2952 RMK AO2 LTG DSNT SE AND S P0002 T01580156", "KLKV 300953Z AUTO 17007KT 10SM CLR 09/03 A3000 RMK AO2 SLP125 T00940033", "KLLJ 300955Z AUTO 00000KT 10SM CLR 07/M02 A3006 RMK AO2 SLP131 T00721022", "KLLN 300955Z AUTO 25006KT 10SM FEW043 FEW049 08/M06 A2999 RMK AO2", "KLLQ 300953Z AUTO 28004KT 10SM CLR 11/09 A2976 RMK AO2 SLP077 T01060089", "KLMO 300955Z AUTO 27005KT 10SM CLR 06/00 A3011 RMK AO2 T00610000", "KLMS 300955Z AUTO VRB06G11KT 9SM FEW006 SCT010 SCT038 13/13 A2971 RMK AO2", "KLMT 300953Z AUTO 10SM CLR 06/00 A2996 RMK AO2 SLP113 T00560000 $", "KLNA 300955Z AUTO 19010G15KT 10SM CLR 27/24 A2972 RMK AO2 T02670238", "KLND 300953Z AUTO 27006KT 10SM CLR 07/M01 A3007 RMK AO2 SLP141 T00721011 $", "KLNK 300954Z AUTO 29013G19KT 10SM CLR 07/00 A2990 RMK AO2 SLP124 T00670000", "KLNL 300955Z AUTO 35010G15KT 3/4SM -SN OVC006 00/00 A2937 RMK AO2 T00030000", "KLNN 300955Z AUTO 00000KT 10SM OVC029 10/09 A2945 RMK AO1 P0001 T00980086", "KLNP 300955Z AUTO 17005KT 10SM SCT033 SCT039 SCT120 12/08 A2953 RMK AO2", "KLNQ 300955Z AUTO 29008G16KT 10SM OVC042 19/14 A2980 RMK AO2 T01870143", "KLNR 300956Z AUTO 30009KT 10SM FEW031 BKN050 OVC060 05/01 A2946 RMK AO2 SLP974 T00500011", "KLNS 301001Z 08009KT 3SM BR OVC003 12/11 A2961 RMK AO2 T01170111", "KLOL 300953Z AUTO 07003KT 10SM CLR 09/M02 A2998 RMK AO2 SLP122 T00891022", "KLOM 300955Z AUTO 06008KT 3/4SM BR OVC002 10/ A2968 RMK AO2 T0102////", "KLOR 300955Z AUTO 27006KT 10SM FEW012 SCT024 OVC070 14/13 A2959 RMK AO2 RAB36E46 SLP003 P0000 T01440131", "KLOT 300954Z AUTO 24008KT 10SM CLR 04/03 A2950 RMK AO2", "KLOU 300953Z AUTO 31007KT 10SM FEW028 BKN049 OVC110 09/04 A2955 RMK AO2 SLP003 T00940039", "KLOZ 300953Z AUTO 00000KT 10SM SCT031 OVC065 13/12 A2952 RMK AO2 SLP990 T01280117", "KLPR 300953Z AUTO 16006KT 7SM FEW070 SCT090 SCT120 08/08 A2944 RMK AO2 SLP970 T00830078", "KLQK 300955Z AUTO 00000KT 5SM RA BKN070 OVC095 15/15 A2948 RMK AO2 P0004 T01500150", "KLRD 300956Z AUTO 01003KT 10SM CLR 14/09 A2998 RMK AO2 SLP148 T01390089", "KLRF 300955Z AUTO 00000KT 10SM CLR 09/07 A2975 RMK AO2 SLP076 T00930066", "KLRJ 300955Z AUTO 32012KT 10SM CLR 04/02 A2982 RMK AO2", "KLRO 300955Z AUTO 19007KT 6SM BR SCT019 SCT043 22/21 A2946 RMK AO2", "KLRU 300955Z AUTO 23004KT 10SM CLR 14/M08 A3007 RMK AO2 T01361084", "KLRY 300955Z AUTO 32004KT 10SM CLR 06/02 A2982 RMK AO2", "KLSE 300953Z AUTO 32012G19KT 10SM -RA BKN019 BKN024 OVC030 04/02 A2950 RMK AO2 SLP993 P0001 T00390017", "KLSF 300955Z AUTO 24007KT 10SM FEW018 SCT035 OVC047 15/14 A2949 RMK AO2 SLP990 T01490136 $", "KLSV 301002Z AUTO 08003KT 2 3/4SM HZ CLR 18/M09 A2982 RMK AO2 SLP076 $", "KLTS 300955Z AUTO 04004KT 10SM CLR 10/05 A2986 RMK AO2 SLP104 T01020050", "KLUA 300955Z AUTO 04003KT 10SM BKN090 13/12 A2953 RMK AO2", "KLUD 300955Z AUTO 25008KT 10SM CLR 14/05 A2986 RMK AO2 T01430047", "KLUF 300955Z AUTO 34008KT 10SM CLR 22/M05 A2980 RMK AO2 SLP076 T02151054 $", "KLUG 300955Z AUTO 00000KT 10SM CLR 12/12 A2957 RMK A01", "KLUK 300953Z AUTO 31006KT 10SM SCT025 BKN030 OVC070 09/06 A2952 RMK AO2 RAB07E24 SLP994 P0005 T00940061", "KLUL 300955Z AUTO 30007KT 10SM OVC012 15/ A2972 RMK A02 T0147////", "KLUM 300955Z 30011G17KT 10SM OVC012 03/02 A2953 RMK AO2 T00290020 PWINO", "KLUV 300955Z AUTO 26005KT 10SM CLR 12/M04 A2999 RMK AO2", "KLUX 300955Z AUTO 00000KT 7SM SCT021 BKN060 OVC110 15/15 A2947 RMK AO2 LTG DSNT SW P0002", "KLVJ 300953Z AUTO 26004KT 10SM CLR 13/09 A2993 RMK AO2 SLP133 T01280094", "KLVM 300953Z AUTO 19003KT 10SM CLR 03/M01 A3008 RMK AO2 SLP167 T00281011", "KLVN 300955Z AUTO 32020G25KT 10SM BKN035 BKN043 OVC080 04/M02 A2961 RMK AO2", "KLVS 300953Z AUTO 00000KT 10SM CLR 07/M04 A3008 RMK AO2 SLP101 T00721044 $", "KLWA 300955Z AUTO 27007KT 10SM SCT028 SCT075 05/03 A2945 RMK AO2 T00540027", "KLWB 300955Z AUTO 00000KT 10SM SCT025 SCT042 BKN110 11/10 A2955 RMK AO2 T01080103", "KLWC 300952Z AUTO 33010KT 9SM CLR 08/02 A2983 RMK AO1 SLP099 T00780022", "KLWD 300953Z AUTO 31013G21KT 10SM CLR 05/01 A2972 RMK AO2 SLP068 T00500011", "KLWM 300954Z AUTO 06011G17KT 5SM BR OVC006 08/07 A2989 RMK AO2 RAE51 SLP123 P0002 T00830067", "KLWS 300956Z AUTO 06005KT 10SM CLR 16/07 A2981 RMK AO2 SLP086 T01610067 $", "KLWT 300954Z AUTO 09009KT 10SM CLR 06/M04 A3006 RMK AO2 SLP163 T00561044", "KLWV 300953Z AUTO 28006KT 10SM CLR 06/05 A2960 RMK AO2 SLP023 T00610050", "KLXL 300955Z AUTO 34014G22KT 303V003 10SM BKN037 BKN050 BKN120 03/M02 A2971 RMK AO2", "KLXN 300955Z AUTO 32010KT 10SM CLR 02/M04 A3003 RMK AO2 T00231037", "KLXT 300953Z AUTO 28006KT 10SM CLR 07/02 A2979 RMK AO2 SLP085 T00670017", "KLXV 300953Z AUTO 04003KT 10SM CLR M02/M07 A3024 RMK AO2 SLP128 T10221072", "KLXY 300955Z AUTO 22004KT 10SM CLR 09/08 A2987 RMK AO2 T00920076", "KLYH 300954Z AUTO 24004KT 5SM -RA BR SCT024 BKN029 OVC070 15/14 A2954 RMK AO2 SLP995 P0011 T01500139", "KLYO 300955Z AUTO 35009KT 10SM CLR 09/M01 A2993 RMK AO2 T00851009", "KLYV 300955Z AUTO 33012G18KT 10SM SCT018 03/00 A2983 RMK AO2", "KLZU 300956Z AUTO 00000KT 6SM RA BR FEW005 BKN011 OVC028 14/14 A2950 RMK AO2 SLP992 T01440144 PNO $", "KLZZ 300855Z AUTO 26005KT 10SM CLR 12/05 A2992 RMK AO2 T01230046", "KM01 300955Z AUTO 34012KT 7SM CLR 13/09 A2966 RMK AO2 T01270093 $", "KM02 300955Z AUTO 34015G21KT 10SM BKN012 OVC017 11/11 A2957 RMK A01", "KM04 300950Z AUTO 36017G22KT 10SM SCT050 BKN060 12/07 A2967 RMK A01", "KM08 300955Z AUTO 28005KT 10SM CLR 12/10 A2964 RMK A01", "KM19 300956Z AUTO 32009KT 10SM CLR 10/03 A2975 RMK AO2 SLP073 T01000033 PNO $", "KM21 300955Z AUTO 00000KT 10SM CLR 07/05 A2961 RMK AO2 T00700050", "KM25 300955Z AUTO 34008KT 10SM CLR 08/05 A2966 RMK AO2 PWINO", "KM30 300955Z AUTO 31006KT 10SM CLR 08/05 A2966 RMK AO2 T00760045", "KM40 300955Z AUTO 00000KT 7SM CLR 13/13 A2966 RMK AO2", "KM54 300950Z AUTO 00000KT 10SM SCT023 BKN031 OVC070 11/11 A2954 RMK A01", "KM75 300955Z AUTO 06007KT 10SM CLR 05/M02 A3011 RMK A01", "KM91 300950Z AUTO 33007G15KT 10SM BKN009 OVC013 10/10 A2957 RMK A01", "KMAF 300953Z AUTO 00000KT 9SM CLR 11/M04 A2999 RMK AO2 SLP121 T01061039", "KMAN 300955Z AUTO 14004KT 10SM CLR 10/06 A2988 RMK A01", "KMAO 300955Z AUTO 23004KT 10SM OVC005 18/16 A2947 RMK AO2", "KMAW 300955Z AUTO 32009KT 10SM CLR 10/05 A2971 RMK AO1", "KMBG 300952Z AUTO 35008KT 10SM CLR 02/M01 A3004 RMK AO2 SLP179 T00221011", "KMBL 300956Z AUTO 24006KT 5SM -RA BR OVC009 03/03 A2935 RMK AO2 RAB32 CIG 005V013 SLP945 P0000 T00330028", "KMBO 300955Z AUTO 28006KT 10SM CLR 13/13 A2974 RMK AO2", "KMBS 300953Z 17005KT 10SM OVC070 06/04 A2941 RMK AO2 SLP960 T00560044", "KMBT 300955Z AUTO 25003KT 10SM SCT027 BKN034 OVC046 13/11 A2955 RMK A01", "KMBY 300955Z AUTO 27006KT 10SM SCT049 05/01 A2969 RMK AO2", "KMCB 300953Z AUTO 29006KT 10SM CLR 12/11 A2978 RMK AO2 SLP081 T01220111", "KMCC 300955Z AUTO 14007KT 10SM CLR 13/08 A2989 RMK AO2", "KMCD 300955Z AUTO 23003KT 10SM BKN029 OVC036 03/03 A2934 RMK AO2 T00270027", "KMCE 300953Z AUTO 32007KT 10SM CLR 16/06 A2987 RMK AO2 SLP113 T01610061", "KMCF 300955Z AUTO 24023G31KT 10SM CLR 25/21 A2959 RMK AO2 PK WND 22035/29 RAB19E20DZB20E28RAB28E29 SLP023 P0000 T02480207 FZRANO $", "KMCI 300953Z 27006KT 10SM CLR 06/02 A2978 RMK AO2 SLP081 T00560017", "KMCJ 300955Z AUTO 29008KT 10SM FEW032 SCT043 BKN050 16/07 A2989 RMK A01", "KMCK 300953Z AUTO 35009KT 10SM CLR 07/M04 A3003 RMK AO2 SLP160 T00671044", "KMCN 300953Z AUTO 20007KT 10SM FEW005 SCT021 BKN070 17/16 A2944 RMK AO2 LTG DSNT N AND NE RAB17E50 TSB32E50 SLP964 P0021 T01720156 $", "KMCO 300953Z 20012KT 10SM BKN032 BKN060 OVC200 23/21 A2962 RMK AO2 RAB0854E37 SLP027 P0003 T02280206", "KMCW 300953Z AUTO 31018G25KT 10SM CLR 02/00 A2964 RMK AO2 PK WND 32027/0941 SLP037 T00220000", "KMCZ 300945Z AUTO 16003KT 10SM OVC046 18/17 A2954 RMK AO2 T01820173", "KMDD 300955Z AUTO 26004KT 10SM 13/M03 A3000 RMK AO2 T01301032", "KMDH 300952Z AUTO 29006KT 10SM CLR 07/05 A2966 RMK AO2 SLP042 T00720050", "KMDQ 300955Z AUTO 10SM OVC095 14/12 A2958 RMK A02 T01430118", "KMDS 300955Z AUTO 34022G30KT 10SM OVC016 03/03 A2987 RMK AO2", "KMDT 300956Z 09005KT 3SM -DZ BR OVC004 12/12 A2960 RMK AO2 RAB36E46DZB55 SLP023 P0000 T01220117", "KMDW 300953Z 23007KT 10SM SCT060 06/02 A2948 RMK AO2 SLP984 T00560017 $", "KMDZ 300955Z AUTO 31011KT 1/2SM OVC007 00/00 A2939 RMK AO2 T00000000 PWINO", "KMEB 300952Z AUTO 14005KT 7SM OVC005 19/17 A2947 RMK AO2 RAE0854 SLP978 P0000 T01890172", "KMEH 300956Z AUTO 00000KT 10SM CLR 03/02 A2991 RMK AO2 SLP116 T00280017", "KMEI 300958Z AUTO 30007KT 10SM SCT013 15/13 A2970 RMK AO2 SLP053 T01500133 $", "KMEM 300954Z 31009KT 10SM CLR 12/08 A2968 RMK AO2 SLP048 T01220078 $", "KMEV 300955Z AUTO 15004KT 10SM SCT043 BKN050 BKN055 06/M01 A3003 RMK AO2", "KMEZ 300955Z AUTO 00000KT 10SM CLR 12/05 A2983 RMK AO2 T01220055", "KMFD 300952Z 15007KT 10SM BKN070 OVC090 08/07 A2944 RMK AO2 SLP968 T00830072", "KMFE 300953Z AUTO 00000KT 10SM CLR 13/09 A2999 RMK AO2 SLP153 T01330094 $", "KMFI 300954Z AUTO 31016G24KT 6SM -SN BR SCT011 SCT017 OVC022 01/M01 A2939 RMK AO2 SLP963 P0000 T00111006", "KMFR 300953Z AUTO 28006KT 10SM CLR 14/M02 A2993 RMK AO2 SLP125 T01441017", "KMGE 300955Z AUTO 33003KT 6SM +RA BR OVC032 14/13 A2949 RMK AO2 LTG DSNT SW SLP981 P0029 T01380128 $", "KMGG 300955Z AUTO 32016G21KT 10SM OVC035 04/M02 A2969 RMK AO2 T00431022", "KMGJ 300954Z AUTO 03008KT 6SM BR OVC003 08/08 A2972 RMK AO2 SLP065 T00830078", "KMGM 301003Z AUTO 28012G25KT 8SM RA SCT009 BKN019 OVC055 16/14 A2957 RMK AO2 P0005 T01560139", "KMGN 300955Z AUTO 00000KT 10SM BKN032 03/03 A2934 RMK AO2 T00380030", "KMGR 300955Z AUTO 30016KT 10SM FEW015 SCT027 BKN050 18/15 A2955 RMK AO2 FEW V SCT T01760154", "KMGW 300953Z AUTO 12003KT 7SM -RA SCT033 BKN060 OVC075 13/11 A2950 RMK AO2 RAB0857 SLP986 P0005 T01280111 $", "KMGY 300953Z AUTO 32011G19KT 10SM -RA FEW018 OVC028 07/04 A2948 RMK AO2 PK WND 33031/0927 WSHFT 0920 RAB06 SLP983 P0009 T00720044 $", "KMHE 300953Z AUTO 33014KT 10SM CLR 03/01 A2995 RMK AO2 SLP147 T00280006", "KMHK 300952Z AUTO 35004KT 10SM CLR 08/00 A2990 RMK AO2 SLP122 T00780000", "KMHL 300955Z AUTO 27007KT 10SM CLR 07/01 A2973 RMK AO2", "KMHP 300955Z AUTO 21006KT 5SM -RA BKN006 OVC014 19/ A2947 RMK AO2 LTG DSNT NW T0190////", "KMHR 300955Z AUTO 15006KT 10SM CLR 11/07 A2989 RMK A01", "KMHS 300956Z AUTO 00000KT 10SM CLR 08/02 A2994 RMK AO2 SLP133 T00780022", "KMHT 300953Z 08009G14KT 7SM OVC009 08/06 A2987 RMK AO2 RAE0858B24E48 SLP129 P0000 T00830061", "KMHV 300940Z AUTO 18003KT 10SM CLR 19/08 A2994 RMK AO2", "KMIA 300953Z 20007KT 10SM FEW030 27/23 A2975 RMK AO2 SLP075 T02670233 $", "KMIB 300855Z 01007KT 10SM CLR 00/M01 A3010 RMK AO2A SLP210 T00031015 58001 $", "KMIC 300953Z AUTO 34016G34KT 10SM BKN036 OVC044 05/M02 A2962 RMK AO2 PK WND 34034/0944 SLP035 T00501017 $", "KMIE 300953Z 25006KT 10SM BKN060 BKN075 07/04 A2950 RMK AO2 RAE0854 SLP987 P0000 T00670039 $", "KMIO 300955Z AUTO 00000KT 10SM FEW050 FEW055 05/05 A2982 RMK AO2", "KMIV 300954Z AUTO 11008KT 3SM BR OVC002 13/13 A2963 RMK AO2 SLP033 T01280128 $", "KMIW 300953Z AUTO 31013KT 10SM CLR 04/01 A2964 RMK AO2 SLP040 T00390011", "KMJD 300955Z AUTO 29005G10KT 10SM OVC039 16/15 A2976 RMK AO2", "KMJQ 300955Z AUTO 32018G25KT 10SM CLR 02/00 A2974 RMK AO2", "KMKC 300954Z 27006KT 10SM CLR 08/02 A2979 RMK AO2 SLP084 T00780017", "KMKE 300952Z 26010KT 10SM BKN021 BKN043 06/01 A2940 RMK AO2 SLP957 T00560011 $", "KMKG 300955Z 27008G19KT 9SM -RA FEW013 BKN019 OVC030 05/02 A2941 RMK AO2 RAB39 SLP964 P0000 T00500017", "KMKJ 300955Z AUTO 00000KT 10SM OVC065 12/11 A2957 RMK AO2 T01170109", "KMKL 300953Z AUTO 35009KT 10SM CLR 12/08 A2965 RMK AO2 SLP040 T01170083", "KMKN 300955Z AUTO 24012KT 10SM 16/03 A2991 RMK AO2 T01570030", "KMKO 300953Z AUTO 29003KT 10SM CLR 08/06 A2984 RMK AO2 SLP103 T00830061", "KMKS 300955Z AUTO 21005KT 10SM CLR 20/19 A2945 RMK AO2", "KMKT 300956Z AUTO 32020G26KT 10SM CLR 03/M02 A2967 RMK AO2 PK WND 33026/0954 SLP057 T00331017", "KMLB 300953Z 19009KT 10SM CLR 24/22 A2965 RMK AO2 SLP038 T02390217", "KMLC 300953Z AUTO 00000KT 10SM FEW070 FEW085 07/06 A2983 RMK AO2 SLP096 T00720056", "KMLE 300955Z AUTO 32011G20KT 10SM CLR 06/00 A2985 RMK AO2 T00640003", "KMLF 300952Z AUTO 19007KT 10SM CLR 09/M03 A3004 RMK AO2 SLP120 T00891028", "KMLI 300952Z 29010KT 10SM BKN070 OVC100 08/02 A2954 RMK AO2 SLP003 T00830022", "KMLJ 300955Z AUTO 10005KT 5SM VCTS RA BR FEW006 BKN018 OVC024 16/16 A2945 RMK AO2 LTG DSNT SW", "KMLP 300953Z AUTO 16006KT 10SM CLR 13/M02 A3004 RMK AO2 SLP078 T01331022", "KMLS 300953Z AUTO 02004KT 10SM CLR 03/M04 A3013 RMK AO2 SLP206 T00331039", "KMLT 300953Z AUTO 11003KT 8SM -RA OVC055 06/04 A3010 RMK AO2 RAE23B46 SLP200 P0000 T00610044", "KMLU 300953Z AUTO 28004KT 10SM CLR 12/11 A2979 RMK AO2 SLP087 T01220106", "KMMH 300955Z AUTO 00000KT 10SM CLR 05/M01 A3018 RMK AO2 T00541010", "KMMI 300955Z AUTO 00000KT 9SM SCT050 BKN070 OVC110 15/15 A2952 RMK A01", "KMMK 300953Z AUTO VRB05KT 4SM BR OVC004 09/08 A2974 RMK AO2 SLP071 T00940078", "KMML 300956Z AUTO 32017KT 10SM CLR 03/02 A2981 RMK AO2 SLP103 T00280017", "KMMT 300955Z AUTO 00000KT 10SM OVC003 M A2943 RMK AO2 DZB15E23RAB26E36 OVC V BKN SLPNO ALSTG ESTMD P0000 $", "KMMU 300955Z AUTO 02005KT 4SM BR OVC003 10/10 A2972 RMK AO2", "KMMV 300953Z AUTO 20007KT 10SM BKN043 09/07 A2995 RMK AO2 SLP141 T00940072", "KMNE 300956Z AUTO 00000KT 10SM CLR 08/08 A2983 RMK AO2", "KMNH 300955Z AUTO 25006KT 10SM CLR 01/00 A3014 RMK AO2", "KMNI 300955Z AUTO 21007KT 10SM OVC008 20/19 A2945 RMK AO2", "KMNM 300957Z AUTO 28004KT 2SM UP BR OVC005 02/02 A2931 RMK AO2 SLP944 T00220022 FZRANO PNO $", "KMNN 301000Z AUTO 20004KT 3SM BR BKN075 08/07 A2943 RMK AO2 T00780072", "KMNV 300955Z AUTO 00000KT 10SM 15/ A2949 RMK A01", "KMNZ 300955Z AUTO 22005KT 10SM CLR 10/06 A2991 RMK AO2 T01000058", "KMOB 300956Z AUTO 30008KT 10SM BKN012 OVC020 16/14 A2971 RMK AO2 SLP058 T01610139", "KMOD 300953Z AUTO 35010KT 10SM CLR 16/07 A2988 RMK AO2 SLP118 T01610067", "KMOP 300955Z AUTO 17005KT 10SM +RA BKN027 OVC035 06/04 A2939 RMK AO2 T00560041", "KMOT 300954Z AUTO 30009KT 10SM CLR M01/M02 A3012 RMK AO2 SLP214 T10061022", "KMOX 300955Z AUTO 33015G20KT 10SM CLR 01/00 A2983 RMK AO2", "KMPO 300953Z AUTO 06006KT 10SM OVC024 07/07 A2966 RMK AO2 RAE38 SLP051 P0004 T00720072", "KMPR 300955Z AUTO 33009KT 10SM CLR 05/01 A2992 RMK AO2 T00460005", "KMPV 300951Z AUTO 17007KT 10SM OVC016 07/04 A2987 RMK AO2 SLP123 T00670044", "KMPZ 300955Z AUTO 29008G15KT 10SM SCT070 05/03 A2961 RMK AO2", "KMQB 300955Z AUTO 25006KT 10SM SCT080 BKN090 04/04 A2961 RMK AO2 T00440035", "KMQI 300950Z AUTO 18005KT 10SM OVC075 18/16 A2959 RMK AO2 P0001 T01770163", "KMQJ 300955Z AUTO 25006KT 10SM CLR 03/03 A2953 RMK AO1", "KMQS 300955Z AUTO 07006G12KT 1/4SM FG OVC001 11/11 A2964 RMK AO2", "KMQW 300955Z AUTO 00000KT 10SM -RA BKN008 BKN015 OVC110 19/18 A2946 RMK AO2 LTG DSNT N P0003 T01860183", "KMQY 300956Z AUTO 27004KT 10SM CLR 11/10 A2958 RMK AO2 SLP022 T01060100", "KMRB 300953Z AUTO 00000KT 6SM BR BKN090 OVC110 13/13 A2953 RMK AO2 RAE42 SLP998 P0003 T01280128", "KMRC 300950Z AUTO 22004KT 3SM BR CLR 11/11 A2957 RMK A01", "KMRF 300956Z AUTO 36008KT 10SM CLR 04/M09 A3014 RMK AO2 SLP165 T00391094", "KMRH 300958Z AUTO 15005KT 10SM FEW021 BKN041 OVC048 20/19 A2956 RMK AO2 LTG DSNT SE-SW SLP009 T02000194", "KMRJ 300955Z AUTO 28010KT 10SM SCT044 03/M06 A2948 RMK AO2 PWINO", "KMRN 300945Z AUTO 00000KT 5SM -RA BKN014 BKN027 OVC095 15/15 A2951 RMK AO2 T01530149", "KMRT 300959Z AUTO 00000KT 3/4SM OVC001 08/07 A2945 RMK AO1", "KMRY 300954Z AUTO 24006KT 10SM OVC008 10/08 A3000 RMK AO2 SLP170 T01000083", "KMSL 300953Z AUTO 30006KT 10SM CLR 13/11 A2960 RMK AO2 SLP020 T01280111", "KMSN 300953Z AUTO 29006G17KT 10SM FEW026 BKN036 OVC070 04/01 A2942 RMK AO2 SLP968 T00440006 PWINO $", "KMSO 300953Z AUTO 34003KT 10SM CLR 08/01 A2999 RMK AO2 SLP143 T00780011", "KMSP 300953Z 34019G26KT 10SM OVC042 05/M02 A2962 RMK AO2 PK WND 34036/0909 SLP034 T00501017", "KMSS 300953Z AUTO 06005KT 10SM OVC038 08/06 A2971 RMK AO2 SLP063 T00830061", "KMSV 300956Z AUTO 00000KT 5SM RA BR OVC003 07/07 A2974 RMK AO2 SLP077 P0003 T00720072", "KMSY 300953Z 27011KT 10SM BKN046 16/13 A2982 RMK AO2 SLP099 T01560128 $", "KMTC 300855Z AUTO 00000KT 10SM CLR 05/04 A2942 RMK AO2 SLP968 T00470041 58017 $", "KMTH 300953Z AUTO 20013G27KT 10SM FEW020 28/24 A2975 RMK AO2 PK WND 17030/0937 SLP074 T02780239", "KMTJ 300953Z AUTO 15006KT 10SM CLR 07/M02 A3012 RMK AO2 SLP146 T00721017", "KMTK 300955Z AUTO 32027G32KT 10SM FEW028 BKN037 OVC042 19/13 A2979 RMK A01", "KMTN 300955Z 06004KT 10SM OVC018 15/14 A2960 RMK FIRST", "KMTO 300953Z AUTO 26007KT 10SM SCT007 06/04 A2957 RMK AO2 SLP012 T00560044", "KMTP 300954Z AUTO 00000KT 12/12 A2974 RMK AO1 SLP070 T01170117", "KMTV 300955Z AUTO 00000KT 5SM RA SCT048 BKN060 OVC065 15/13 A2954 RMK AO2 P0014 T01470134", "KMTW 300956Z AUTO 26007KT 10SM -RA OVC014 03/01 A2935 RMK AO2 RAB09E18B55UPB18E55 SLP945 P0000 T00280011", "KMUO 300955Z AUTO 07005KT 10SM CLR 10/03 A2987 RMK AO2 SLP096 T01040030", "KMUT 300955Z AUTO 29013KT 10SM FEW060 BKN075 OVC090 07/04 A2959 RMK AO2", "KMVE 300955Z AUTO 33014G19KT 10SM CLR 02/01 A2982 RMK AO2", "KMVH 301000Z AUTO 32003KT 10SM CLR 03/M05 A3011 RMK AO2 PWINO", "KMVL 300954Z AUTO 00000KT 9SM -RA OVC017 07/06 A2984 RMK AO2 RAE0855B11E23B54 SLP109 P0000 T00720056", "KMVN 300956Z AUTO 26005KT 10SM CLR 06/06 A2965 RMK AO2 SLP043 T00610056", "KMVY 300953Z AUTO 13015G23KT 5SM -RA BR OVC005 11/11 A2977 RMK AO2 RAE02B46 SLP080 P0000 T01110106", "KMWA 300955Z AUTO 25003KT 10SM CLR 06/06 A2967 RMK AO2 T00630063", "KMWH 300952Z AUTO 01005KT 10SM CLR 11/08 A2979 RMK AO2 SLP084 T01060078", "KMWK 300945Z AUTO 00000KT 5SM -RA SCT002 SCT012 OVC080 15/14 A2954 RMK AO2 P0004 T01450143", "KMWL 300953Z AUTO 29004KT 10SM CLR 10/06 A2986 RMK AO2 SLP104 T01000061", "KMWM 300955Z AUTO 31020G24KT 10SM CLR 03/01 A2974 RMK AO2", "KMWN 300955Z 12050G57KT 1/16SM -PLFZRA FZFG VV000 M03/M03 RMK SNE20 VRY LGT GICG", "KMWO 300955Z AUTO 31004KT 10SM +RA OVC031 08/06 A2951 RMK AO2 P0005 T00760056", "KMWT 300853Z AUTO 27003KT 10SM CLR 08/07 A2978 RMK AO2 SLP084 T00830067 55001 $", "KMXF 300955Z AUTO 30009KT 7SM -RA BKN006 OVC010 15/13 A2954 RMK AO2 DZB10E15RAB15 BKN V OVC SLP005 P0011 T01520125", "KMYF 300953Z AUTO 00000KT 7SM OVC007 14/12 A2995 RMK AO2 SLP140 T01390117", "KMYJ 300955Z AUTO 28009KT 10SM CLR 05/03 A2967 RMK AO2", "KMYL 300951Z AUTO 00000KT 10SM CLR 02/M01 A3000 RMK AO2 SLP145 T00171011", "KMYP 300955Z AUTO 29026KT 10SM CLR 00/M08 A3041 RMK AO2", "KMYR 300958Z 27010KT 10SM FEW006 BKN019 OVC025 21/21 A2949 RMK AO2", "KMYV 300953Z AUTO 15007KT 10SM CLR 14/08 A2986 RMK AO2 SLP116 T01440083 $", "KMYZ 300955Z AUTO 32005KT 10SM CLR 05/00 A2989 RMK AO2", "KMZH 300955Z AUTO 34009G20KT 3SM UP SCT010 BKN015 OVC020 01/00 A2962 RMK AO2 P0002", "KMZZ 300955Z AUTO 25007KT 10SM SCT085 05/04 A2951 RMK AO2 T00500042", "KN03 300955Z AUTO 34003KT 10SM BKN010 OVC080 09/07 A2962 RMK AO2", "KN38 300955Z AUTO 16005KT 5SM -RA OVC005 09/09 A2958 RMK AO2", "KN60 300952Z AUTO 33008KT M03/M04 A3012 RMK AO1 SLP213 T10281039", "KN79 300955Z AUTO 00000KT 10SM SCT015 OVC025 12/11 A2960 RMK AO2 CIG 021V028 T01200114", "KNAK 300954Z AUTO 05003KT 10SM OVC018 16/14 A2956 RMK AO2 SLP012 T01560144 $", "KNBC 300956Z AUTO 22010KT 10SM SCT015 22/20 A2947 RMK AO2 SLP980 T02170200 $", "KNBG 300955Z AUTO 29007KT 10SM OVC046 17/13 A2980 RMK AO2 SLP091 T01670133 $", "KNBT 300951Z AUTO 14007KT 10SM BKN050 OVC060 23/ A2956 RMK AO2 SLP015 T0228 $", "KNCA 300956Z AUTO 16004KT 10SM -RA FEW025 BKN060 OVC080 19/18 A2952 RMK AO2 RAB44 TSB33E48 SLP000 P0000 T01890178 $", "KNDZ 300922Z AUTO 30004KT 10SM BKN010 15/14 A2965 RMK AO2 T01500139 $", "KNEL 301000Z AUTO 07007KT OVC002 11/11 A2967 RMK AO2 SLP047 T01110111 PNO $", "KNEW 300953Z AUTO 30020G28KT 10SM OVC045 18/14 A2980 RMK AO2 PK WND 31033/0856 SLP084 T01830139", "KNFE 300956Z AUTO 14005KT 10SM -RA BKN037 OVC110 20/18 A2954 RMK AO2 RAB55 SLP005 P0000 T02000178", "KNFG 300952Z AUTO 00000KT 10SM OVC008 15/12 A2996 RMK AO2 SLP143 T01500122 $", "KNFL 300956Z AUTO 30004KT 10SM CLR 14/03 A2998 RMK AO2 SLP123 T01440028", "KNFW 300952Z AUTO 26006KT CLR 12/06 A2985 RMK AO2 SLP092 T01170061 TSNO CHINO S VISNO S $", "KNGP 300956Z AUTO 24006KT 10SM CLR 17/13 A2995 RMK AO2 SLP142 T01720133 $", "KNGU 300959Z 16006KT 7SM -RA BKN007 OVC013 19/19 A2955 RMK AO2 RAB54 SLP007 T2 SET P0000 T01940194 $", "KNHK 301000Z AUTO 12008KT 6SM BR OVC004 17/15 A2954 RMK AO2 T01720150 $", "KNID 300956Z AUTO 19009KT 10SM CLR 21/02 A2988 RMK AO2 SLP095 T02110022 $", "KNIP 300953Z AUTO 18011KT 10SM FEW033 SCT041 BKN080 23/21 A2952 RMK AO2 SLP990 T02280206 $", "KNJK 300956Z AUTO 28009KT 10SM CLR 24/M01 A2976 RMK AO2 SLP092 T02441011 $", "KNJM 300957Z AUTO 17009KT 8SM -RA BKN036 OVC044 23/19 A2955 RMK AO2 RAB56 SLP009 P0000 T02280189", "KNJW 300951Z AUTO 28009KT 10SM SCT007 BKN011 14/12 A2971 RMK AO2 T01390122", "KNKT 301004Z 14007KT 10SM SCT004 BKN046 BKN080 19/19 A2954 RMK AO2 PRESFR T01940194 $", "KNKX 300955Z 00000KT 8SM OVC007 13/12 A2995 RMK AO2 SLP137 T01280122", "KNLC 300956Z AUTO 32008KT 10SM CLR 19/09 A2986 RMK AO2 SLP111 T01890094", "KNMM 300956Z AUTO 30009KT 10SM FEW012 BKN110 15/13 A2969 RMK AO2 SLP061 T01500133 $", "KNOG 300956Z AUTO 27004KT 10SM CLR 14/07 A2997 RMK AO2 SLP128 T01440067 TSNO $ ", "KNOW 300950Z AUTO 28013G21KT 10SM CLR 09/08 A2990 RMK AO2 T00900082", "KNOZ 300859Z AUTO 10005KT 10SM CLR 24/00 A2978 RMK AO2 SLP035 T02390000 58012 $", "KNPA 300956Z AUTO 28004KT 10SM CLR 15/13 A2967 RMK AO2 SLP049 T01500128 $", "KNQI 300956Z AUTO 10SM CLR 15/08 A2996 RMK AO2 SLP142 T01500078 $", "KNQX 300953Z AUTO 21023G30KT 10SM FEW018 SCT025 SCT030 A2978 RMK AO2 PK WND 19032/0856 SLP085 $", "KNRB 300952Z AUTO 17008KT 10SM FEW065 BKN080 OVC100 22/20 A2952 RMK AO2 SLP994 T02220200", "KNRN 300955Z AUTO 33005KT 10SM CLR 05/M03 A3004 RMK AO2", "KNRS 300953Z AUTO 29003KT 8SM OVC007 14/12 A2996 RMK AO2 SLP145 T01440122", "KNSE 301003Z AUTO 27007KT 10SM BKN011 OVC017 14/13 A2966 RMK AO2 CIG 008V012 T01440133", "KNSI 300953Z AUTO 28011KT 1/2SM FG VV002 11/11 A2995 RMK AO2 SLP139 T01060106 $", "KNTD 300955Z AUTO 17006KT OVC003 12/12 A2995 RMK AO2 SLP142 T01220117 $", "KNTU 301003Z 15007KT 6SM BR OVC003 17/17 A2954 RMK AO2 T2 SET T01720172 $", "KNUC 300956Z AUTO 27007KT OVC004 11/ A2997 RMK AO2 SLP146 T0111 $", "KNUI 300953Z AUTO VRB04KT 8SM -RA OVC005 17/16 A2954 RMK AO2 RAB52 SLP001 P0000 T01670156 $", "KNUQ 300955Z AUTO 00000KT 10SM CLR 11/09 A2999 RMK AO2", "KNUW 300953Z 22008KT 10SM FEW010 FEW100 09/07 A2990 RMK AO2 SLP129 T00940072 VISNO $", "KNXF 300956Z AUTO 00000KT 9SM 14/12 A2995 RMK AO2 SLP227 T01390122 $", "KNXP 300956Z AUTO 32006KT 10SM CLR A2995 RMK AO2 SLPNO $", "KNY0 300954Z AUTO 11004KT 10SM OVC004 07/06 A2975 RMK AO2", "KNYC 300951Z AUTO VRB04KT 2 1/2SM BR OVC002 11/10 A2973 RMK AO2 SLP058 T01060100 $", "KNYG 300956Z AUTO 05006KT 8SM RA BR OVC007 17/ A2953 RMK AO2 SLP001 P0000 T0172 $", "KNYL 300957Z AUTO 16004KT 10SM CLR 22/04 A2976 RMK AO2 SLP075 T02220044", "KNZY 300952Z AUTO 31003KT 10SM OVC007 14/13 A2995 RMK AO2 SLP141 T01390128 $", "KO05 300955Z AUTO 30003KT 10SM SCT029 BKN037 BKN045 04/M01 A3004 RMK A01", "KO22 300955Z AUTO 00000KT 10SM CLR 13/11 A2994 RMK A01", "KO32 300955Z AUTO 00000KT 8SM CLR 18/18 A2985 RMK AO2 T01820180 $", "KO69 300955Z AUTO VRB03KT 10SM OVC006 08/08 A2998 RMK A01", "KO86 300955Z AUTO 26003KT 10SM 08/04 A2995 RMK A01", "KOAJ 300956Z AUTO 14005KT 10SM FEW004 SCT060 OVC090 18/18 A2952 RMK AO2 PRESFR SLP996 T01830178", "KOAK 300953Z 27006KT 10SM FEW006 OVC010 11/08 A2999 RMK AO2 SLP156 T01060083", "KOAR 300955Z AUTO 00000KT 10SM OVC005 09/08 A2999 RMK AO2 PWINO", "KOBE 300955Z AUTO 20010G15KT 10SM CLR 24/23 A2967 RMK AO2 LTG DSNT W", "KOCF 301002Z AUTO 26013G22KT 10SM BKN013 OVC019 21/20 A2960 RMK AO2 LTG DSNT S RAE0959 P0000 $", "KOCH 300956Z AUTO 00000KT 8SM CLR 08/08 A2988 RMK AO2 SLP121 T00780078 PWINO", "KOCQ 300955Z AUTO 28005KT 7SM OVC007 02/02 A2931 RMK AO1 T00160016", "KOCW 300945Z AUTO 14005KT 10SM -RA BKN005 OVC050 19/18 A2955 RMK AO2 T01920181", "KODO 300953Z AUTO 24004KT 10SM CLR 13/M05 A3000 RMK AO2 SLP122 T01331050", "KODX 300953Z AUTO 30008KT 10SM CLR 03/M03 A2998 RMK AO2 SLP154 T00331033", "KOEB 300955Z AUTO 26007KT 10SM SCT080 OVC100 05/04 A2944 RMK AO2 T00520035", "KOEL 300955Z AUTO 01009KT 10SM BKN100 09/M04 A3002 RMK AO1 T00881040", "KOEO 300955Z AUTO 32011G20KT 10SM -RA OVC016 03/03 A2963 RMK AO2 T00280028", "KOFF 300855Z 31014G19KT 10SM CLR 08/M00 A2984 RMK AO2A SLP109 T00751002 57007 PWINO PNO FZRANO TSNO $", "KOFK 300956Z AUTO 31012G20KT 10SM CLR 05/00 A2990 RMK AO2 SLP128 T00500000", "KOFP 301001Z AUTO VRB05KT 8SM VCTS -RA SCT002 BKN010 OVC100 17/17 A2952 RMK AO2 LTG DSNT E AND W AND NW P0000 T01720167", "KOGA 300955Z AUTO 34005KT 10SM CLR 04/M04 A3007 RMK AO2 T00391042", "KOGB 300953Z AUTO 20007KT 10SM BKN007 19/19 A2945 RMK AO2 CIG 004V011 SLP969 T01940189", "KOGD 300953Z AUTO 16008KT 10SM CLR 13/M02 A3001 RMK AO2 SLP115 T01281022", "KOGS 300955Z AUTO 00000KT 10SM OVC037 11/07 A2964 RMK AO2", "KOIC 300955Z AUTO 00000KT 10SM RA OVC014 09/08 A2969 RMK AO2 T00860080", "KOIN 300955Z AUTO 01007KT 10SM OVC110 08/M04 A3006 RMK AO1 T00811036", "KOJA 300955Z AUTO 36004KT 10SM CLR 09/03 A2991 RMK AO2 T00910032", "KOJC 300953Z AUTO 32007KT 10SM CLR 08/01 A2980 RMK AO2 SLP087 T00780011", "KOKB 300952Z AUTO 25003KT 10SM OVC009 14/12 A2995 RMK AO2 SLP141 T01440122", "KOKC 300952Z 34003KT 10SM FEW250 11/05 A2987 RMK AO2 SLP109 T01110050", "KOKK 300956Z AUTO 25009KT 10SM FEW016 05/05 A2952 RMK AO2 SLP996 T00500050 PNO $", "KOKM 300955Z AUTO 29007KT 10SM CLR 07/07 A2984 RMK AO2 T00690069", "KOKV 300955Z AUTO 02003KT 7SM -RA SCT004 BKN060 OVC120 13/13 A2952 RMK AO2 LTG DSNT NE", "KOKZ 300955Z AUTO 00000KT 7SM VCTSBR OVC003 16/16 A2946 RMK AO2 LTG DSNT W P0001 T01650161", "KOLE 300955Z AUTO 14005KT 10SM OVC009 08/08 A2954 RMK AO2", "KOLF 300953Z AUTO 00000KT 10SM CLR M01/M04 A3017 RMK AO2 SLP228 T10111044", "KOLG 300955Z AUTO 34009KT 7SM OVC010 00/00 A2955 RMK AO1", "KOLM 300954Z AUTO 21006KT 10SM CLR 08/06 A2994 RMK AO2 SLP138 T00780061", "KOLS 300954Z AUTO 06005KT 10SM CLR 13/M06 A3001 RMK AO2 SLP099 T01281056", "KOLU 300956Z AUTO 31014KT 10SM CLR 05/00 A2992 RMK AO2 SLP136 T00500000", "KOLV 300955Z AUTO 32012KT 10SM CLR 12/09 A2966 RMK A01", "KOLY 300950Z AUTO 27005KT 10SM SCT008 06/06 A2962 RMK AO2 T00610056 PWINO", "KOLZ 300955Z AUTO 31015G20KT 10SM FEW075 FEW095 SCT120 04/01 A2957 RMK A01", "KOMA 300952Z 31014G23KT 10SM CLR 06/01 A2983 RMK AO2 SLP102 T00560006", "KOMH 300955Z AUTO 00000KT 10SM BKN005 OVC008 15/15 RMK AO2", "KOMK 300953Z AUTO 00000KT 10SM CLR 11/06 A2983 RMK AO2 SLP095 T01110056", "KONL 300955Z AUTO 31014KT 10SM CLR 03/M03 A2997 RMK AO2 T00271028", "KONM 300955Z AUTO 20004KT 10SM CLR 08/M08 A3006 RMK AO2 T00831076", "KONO 300953Z AUTO 24005KT 10SM CLR 10/05 A2987 RMK AO2 SLP107 T01000050", "KONP 300955Z AUTO 19009KT 10SM OVC007 09/08 A3001 RMK AO2", "KONT 300953Z 26003KT 5SM BR CLR 12/11 A2994 RMK AO2 SLP127 T01220111 $", "KONX 300945Z AUTO 17004KT 10SM OVC090 19/18 A2956 RMK AO2 T01940184", "KONZ 300955Z AUTO 28004KT 7SM UP BKN060 OVC065 07/07 A2943 RMK AO2 T00710067", "KOOA 300955Z AUTO 30014G20KT 10SM SCT070 06/04 A2965 RMK AO2 T00580041", "KOPF 300953Z AUTO 20009KT 10SM CLR 26/23 A2975 RMK AO2 SLP075 T02610228", "KOPL 300955Z AUTO 28004KT 10SM CLR 13/11 A2985 RMK AO2 T01250108", "KOPN 300955Z AUTO 23007KT 10SM -VCTSRA OVC004 16/14 A2944 RMK AO2 LTG DSNT E", "KOQN 300955Z AUTO 06006KT 3/4SM BR OVC001 11/10 A2966 RMK AO2 P0001 LTG DSNT S", "KOQT 300953Z AUTO VRB03KT 10SM SCT070 OVC100 13/12 A2952 RMK AO2 SLP987 T01330122", "KORB 300953Z AUTO 32007G14KT 300V360 3SM -SN OVC014 00/M01 A2969 RMK AO2", "KORD 300951Z 24007G16KT 10SM FEW034 BKN065 06/02 A2947 RMK AO2 SLP979 T00610022", "KORE 300952Z AUTO 05004KT 10SM OVC010 09/07 A2983 RMK AO2 SLP103 T00890067", "KORF 300959Z 18007KT 8SM SCT010 BKN021 OVC034 19/18 A2954 RMK AO2 LTG DSNT NE T01890183", "KORG 300955Z AUTO 27003KT 10SM CLR 14/11 A2990 RMK AO2 T01350113", "KORH 300954Z 05009G14KT 1/4SM R11/4500V6000FT FG VV002 08/07 A2980 RMK AO2 RAE16 SLP096 P0001 T00780072", "KORK 300955Z AUTO 31007KT 10SM BKN047 OVC055 11/08 A2977 RMK AO2", "KORL 300953Z AUTO 19010G20KT 10SM FEW029 FEW047 23/20 A2961 RMK AO2 SLP029 T02330200", "KORS 300955Z AUTO 16009G14KT 9SM CLR 11/08 A2985 RMK AO2", "KOSA 300955Z AUTO 00000KT 10SM CLR 07/ A2984 RMK AO2 T0075////", "KOSC 300955Z AUTO 22006KT 10SM CLR 03/03 A2940 RMK AO2 T00330033", "KOSH 300953Z AUTO 28006KT 10SM FEW013 BKN031 OVC055 03/00 A2936 RMK AO2 SLP947 T00280000", "KOSU 300953Z AUTO 00000KT 1/2SM FG CLR 09/08 A2944 RMK AO2 SLP967 T00940078", "KOTG 300956Z AUTO 32020KT 10SM FEW070 03/01 A2979 RMK AO2 PK WND 33026/0915 SLP098 T00280011 PNO $", "KOTH 300956Z AUTO 17004KT 10SM OVC007 09/09 A3002 RMK AO2 RAB0859E26 CIG 003V010 SLP166 P0001 T00940094", "KOTM 300953Z AUTO 30013G21KT 10SM CLR 04/03 A2964 RMK AO2 SLP042 T00440028", "KOUN 300955Z AUTO 36006KT 10SM CLR 10/05 A2984 RMK AO2 T00960053", "KOVL 300955Z AUTO 32015KT 10SM CLR 02/00 A2975 RMK AO2", "KOVS 300953Z AUTO 31010G16KT 10SM BKN038 OVC055 07/M01 A2950 RMK AO2 SLP992 T00671006", "KOWA 300953Z AUTO 31019G24KT 10SM BKN045 OVC080 04/M01 A2962 RMK AO2", "KOWB 300956Z AUTO 32012KT 10SM FEW019 08/05 A2960 RMK AO2 SLP024 T00830050", "KOWD 300953Z AUTO 05005KT 7SM OVC011 11/09 A2983 RMK AO2 RAE46 SLP101 P0002 T01060089", "KOWI 300955Z AUTO 31010KT 10SM CLR 08/03 A2982 RMK AO2", "KOWP 300955Z AUTO 00000KT 10SM CLR 09/08 A2987 RMK AO2 T00870077", "KOWX 300955Z AUTO 26008KT 7SM BKN034 OVC048 07/05 A2949 RMK AO1", "KOXB 300953Z AUTO 09005KT 10SM OVC005 14/13 A2960 RMK AO2 LTG DSNT SE SLP022 T01390128", "KOXC 301000Z 05010KT 1 3/4SM BR OVC004 09/09 A2973 RMK AO2", "KOXD 300955Z AUTO 00000KT 10SM -RA SCT040 BKN048 OVC055 09/07 A2950 RMK AO2 T00900069", "KOXI 300955Z AUTO 25004KT 10SM SCT034 SCT046 BKN060 04/02 A2949 RMK AO1", "KOXR 300951Z AUTO 18004KT 6SM BR OVC003 11/11 A2994 RMK AO2 SLP139 T01110111", "KOXV 300955Z AUTO 31011KT 10SM OVC017 05/03 A2967 RMK AO2", "KOYM 300955Z AUTO 13008KT 10SM BKN007 OVC032 11/10 A2957 RMK AO2 P0001 PWINO", "KOZA 300955Z AUTO 10SM CLR 06/M07 A3002 RMK AO2", "KOZR 300955Z AUTO 26008KT 10SM -DZ FEW070 SCT090 14/13 A2959 RMK AO2 DZB54 SLP021 T01400125", "KOZS 300955Z AUTO 27008KT 10SM CLR 06/01 A2974 RMK AO2", "KOZW 300955Z AUTO 17005KT 4SM RA SCT014 BKN021 OVC032 06/06 A2942 RMK AO2 T00600060 P0001", "KP08 300955Z AUTO 11008KT 10SM CLR 17/M03 A2985 RMK AO2", "KP28 300956Z AUTO 32004KT 07/04 A2994 RMK AO1 SLP131 T00670039 $", "KP52 300955Z AUTO 00000KT 10SM CLR 13/M04 A3001 RMK AO2", "KP53 300956Z AUTO 00000KT 03/03 A2931 RMK AO1 SLP929 P0013 T00330028", "KP58 300955Z AUTO 24006KT 06/04 A2939 RMK AO1 SLP956 T00610044", "KP59 300951Z AUTO 05020KT 03/02 A2938 RMK AO1 PK WND 06027/0907 SLP957 P0002 T00280017", "KP60 300956Z AUTO 00000KT M04/M06 A3019 RMK AO1 SLP203 T10391056", "KP68 300953Z AUTO 20009KT 09/M02 A3006 RMK AO1 SLP105 T00941017", "KP69 300952Z AUTO 36005KT 08/04 A2995 RMK AO1 SLP125 T00780044 $", "KP92 300959Z AUTO 31007KT 270V340 17/12 A2985 RMK AO1 SLP106 T01670122", "KPAE 300953Z AUTO 20003KT 10SM CLR 11/06 A2990 RMK AO2 SLP122 T01110056", "KPAH 300953Z AUTO 32006KT 10SM CLR 08/05 A2965 RMK AO2 SLP039 T00830050", "KPAM 300955Z AUTO 31013KT 10SM FEW026 FEW036 SCT045 18/15 A2961 RMK AO2 SLP030 T01790146 $", "KPAN 300955Z AUTO 00000KT 10SM CLR 13/M06 A3010 RMK AO2 PWINO TSNO", "KPBF 300953Z AUTO 32010KT 10SM CLR 13/08 A2978 RMK AO2 SLP082 T01280078", "KPBG 300953Z AUTO 12003KT 10SM OVC040 07/05 A2978 RMK AO2 SLP085 T00720050", "KPBH 300955Z AUTO 34009G15KT 1 1/2SM -SN OVC009 00/00 A2941 RMK AO2 P0003 T10011001", "KPBI 300953Z 19013KT 10SM SCT150 BKN230 26/23 A2971 RMK AO2 SLP061 T02610233", "KPBX 300955Z AUTO 00000KT 10SM OVC042 12/12 A2952 RMK AO2 T01210120", "KPCD 300955Z AUTO 26006KT 10SM CLR 05/05 A2968 RMK AO2 T00500045", "KPCM 300955Z AUTO 23021G30KT 7SM -RA BKN021 BKN028 OVC045 26/22 A2965 RMK AO2", "KPCW 300955Z AUTO 00000KT 4SM BR FEW008 BKN015 OVC065 09/09 A2942 RMK AO2", "KPCZ 300955Z AUTO 28008G14KT 10SM -DZ SCT012 BKN042 OVC065 03/01 A2937 RMK AO2 T00300011", "KPDC 300955Z AUTO 29010G15KT 10SM SCT038 SCT045 OVC050 06/M01 A2951 RMK AO2 T00561010", "KPDK 300953Z AUTO 01006KT 4SM RA BR SCT065 OVC080 14/13 A2949 RMK AO2 LTG DSNT SW SLP978 P0024 T01390133", "KPDT 300953Z AUTO 14009KT 10SM CLR 15/08 A2982 RMK AO2 SLP084 T01500083", "KPDX 300953Z 30003KT 10SM SCT100 12/07 A2995 RMK AO2 SLP141 T01220072", "KPEA 300955Z AUTO 30014G17KT 10SM SCT016 SCT060 BKN095 04/03 A2967 RMK AO2 T00440026", "KPEO 300953Z AUTO 15005KT 10SM FEW012 SCT095 11/09 A2959 RMK AO2 SLP021 T01060094", "KPEQ 300955Z AUTO 00000KT 10SM CLR 10/M07 A2999 RMK AO2 T01021075", "KPEX 300955Z AUTO 32011G17KT 10SM CLR 02/M02 A2974 RMK AO2", "KPEZ 300955Z AUTO 00000KT 10SM CLR 11/07 A2998 RMK AO2 T01070071", "KPGA 300953Z AUTO 00000KT 10SM CLR 17/M07 A3002 RMK AO2 SLP106 T01721072", "KPGD 300953Z 21011G20KT 9SM -TSRA SCT024 BKN060 OVC110 26/23 A2968 RMK AO2 PK WND 20030/0908 LTG DSNT ALQDS RAB52 TSB47 SLP049 P0001 T02610233", "KPGV 300945Z AUTO 00000KT 10SM SCT011 BKN022 OVC060 18/18 A2953 RMK AO2", "KPHD 300953Z AUTO 00000KT 10SM FEW048 OVC090 10/07 A2947 RMK AO2 SLP979 T01000072", "KPHF 300954Z 13005KT 9SM OVC007 17/16 A2954 RMK AO2 LTG DSNT E CIG 006V011 SLP001 T01720161", "KPHL 301004Z 06008KT 3/4SM R09R/P6000FT BR OVC002 11/11 A2966 RMK AO2 T01110111 $", "KPHN 300955Z AUTO 00000KT 1/2SM FG OVC003 05/04 A2942 RMK AO2", "KPHP 300955Z AUTO 31007KT 10SM CLR M01/M05 A3011 RMK AO2 SLP198 T10111050", "KPHT 300955Z AUTO 33007G13KT 10SM FEW055 SCT065 09/07 A2963 RMK A01", "KPHX 300951Z 12004KT 10SM CLR 24/M02 A2980 RMK AO2 SLP072 T02391017 $", "KPIA 300954Z 27007KT 10SM SCT070 OVC090 06/03 A2956 RMK AO2 SLP011 T00610033", "KPIB 300956Z AUTO VRB03KT 10SM BKN013 BKN017 15/15 A2974 RMK AO2 SLP071 T01500150 PNO $", "KPIE 301003Z 28018G46KT 6SM RA BR FEW018 SCT026 BKN036 22/20 A2966 RMK AO2 PK WND 27046/0955 WSHFT 0949 RAB00 P0001 T02170200 $", "KPIH 300953Z AUTO 29005KT 10SM CLR 11/M01 A3001 RMK AO2 SLP125 T01061006", "KPIL 300953Z AUTO 21006KT 10SM CLR 14/12 A2998 RMK AO2 SLP150 T01440122", "KPIM 300955Z AUTO 35005KT 10SM SCT011 OVC085 15/13 A2948 RMK AO2 LTG DSNT N AND E T01450127", "KPIR 300953Z AUTO 33010KT 10SM CLR 01/M03 A3005 RMK AO2 SLP182 T00061028", "KPIT 300951Z 13004KT 10SM -RA SCT039 OVC065 11/09 A2948 RMK AO2 RAB0856 SLP990 P0001 T01110089", "KPJC 300955Z AUTO 12004KT 5SM RA SCT049 OVC065 09/09 A2949 RMK AO2 P0004", "KPKB 300953Z AUTO 12/11 A2948 RMK AO2 RAE0856 SLP980 P0000 T01170111 $", "KPKD 300953Z AUTO 35016G30KT 10SM CLR 03/M04 A2978 RMK AO2 PK WND 36032/0938 SLP095 T00281039", "KPLN 300954Z AUTO 17004KT 10SM FEW016 04/03 A2935 RMK AO2 SLP944 T00390028", "KPLR 300955Z AUTO 00000KT 9SM SCT017 BKN022 OVC055 16/16 A2956 RMK A01 P0006", "KPLU 300955Z AUTO 00000KT 10SM FEW041 FEW055 10/08 A2993 RMK AO2", "KPMD 300953Z AUTO 24008KT 10SM CLR 18/07 A2994 RMK AO2 SLP108 T01830067", "KPMH 300955Z AUTO 17003KT 4SM BR OVC002 13/11 A2949 RMK AO2 T01280110", "KPMP 300953Z AUTO 19011G19KT 10SM CLR 27/23 A2972 RMK AO2 WSHFT 0937 SLP064 T02670233 $", "KPMU 300955Z AUTO 30007G12KT 10SM CLR 13/10 A2968 RMK AO2", "KPMV 300955Z AUTO 31014G17KT 10SM CLR 06/00 A2984 RMK AO2 T00620003", "KPNA 300955Z AUTO 29008KT 10SM CLR M01/M03 A3016 RMK AO2", "KPNC 300953Z AUTO 00000KT 10SM CLR 07/04 A2988 RMK AO2 SLP112 T00720039", "KPNE 300954Z AUTO 05009KT 1/2SM FG VV002 12/11 A2969 RMK AO2 SLP054 T01170106 RVRNO", "KPNM 300955Z AUTO 33015G23KT 10SM -DZ SCT028 OVC035 04/M01 A2967 RMK AO2", "KPNS 300953Z AUTO 29009KT 10SM BKN048 16/13 A2967 RMK AO2 SLP048 T01610133", "KPNT 300955Z AUTO 26007KT 10SM CLR 03/01 A2954 RMK AO2 T00300005", "KPO1 301000Z AUTO 03005KT 10SM BKN090 M01/M04 A3017 RMK AO2", "KPOB 300955Z AUTO 10003KT 10SM OVC007 17/17 A2946 RMK AO2 RAE03DZB03E24RAB24E34DZB34E40 SLP977 P0001 T01700168 $", "KPOE 300955Z AUTO 00000KT 10SM CLR 11/10 A2984 RMK AO2 SLP107 T01050103", "KPOF 300953Z AUTO 29006KT 10SM CLR 08/04 A2971 RMK AO2 SLP059 T00830044", "KPOU 300953Z AUTO 36004KT 10SM OVC006 09/09 A2972 RMK AO2 CIG 004V009 SLP061 T00940089", "KPOV 300955Z AUTO 00000KT 10SM OVC042 10/07 A2945 RMK AO2 T00960067 PWINO", "KPOY 300955Z AUTO 33008KT 10SM CLR 04/M02 A3005 RMK AO2", "KPPA 300955Z AUTO 15007KT 10SM 09/04 A2995 RMK AO2 T00910040", "KPPF 300952Z AUTO 00000KT 10SM CLR 04/01 A2985 RMK AO2 SLP106 T00390006", "KPPO 300955Z AUTO 30003KT 10SM OVC065 06/03 A2948 RMK AO2 T00550033", "KPPQ 300955Z AUTO 28004KT 10SM BKN050 BKN060 06/06 A2963 RMK AO2 T00560056", "KPQI 300956Z AUTO 14007KT 10SM BKN100 08/03 A3009 RMK AO2 SLP216 T00780033", "KPQL 300953Z AUTO 31005KT 10SM OVC014 16/14 A2971 RMK AO2 SLP062 T01610144", "KPRB 300953Z AUTO 32004KT 10SM CLR 11/08 A2993 RMK AO2 SLP130 T01060078", "KPRC 300953Z AUTO 20007KT 10SM CLR 12/M07 A3008 RMK AO2 SLP114 T01171067 $", "KPRG 300955Z AUTO 26008KT 10SM OVC009 06/06 A2957 RMK AO2 T00550055", "KPRN 300958Z AUTO 27009G16KT 10SM -RA BKN005 BKN014 OVC021 13/13 A2960 RMK AO2 RAB04 CIG 003V009 SLP970 P0001 T01280128", "KPRO 300955Z AUTO 31012G18KT 10SM BKN060 05/02 A2973 RMK AO2 T00490022", "KPRS 300955Z AUTO 36008KT 10SM CLR 16/M01 A3006 RMK AO2 T01631015", "KPRX 300956Z AUTO 00000KT 10SM -RA CLR 09/08 A2983 RMK AO2 SLP100 P0000 T00940083", "KPSC 300953Z AUTO 10003KT 10SM CLR 12/09 A2977 RMK AO2 SLP078 T01170089", "KPSF 300954Z AUTO 04008KT 10SM OVC011 08/06 A2976 RMK AO2 SLP070 T00780056", "KPSK 300955Z AUTO 12003KT 10SM -RA SCT065 BKN080 OVC090 13/13 A2954 RMK AO2 T01310131", "KPSM 300928Z 06009KT 2SM RA BR OVC010 07/06 A2993 RMK AO2A SLP138", "KPSN 300955Z AUTO 00000KT 10SM FEW046 SCT055 BKN075 07/07 A2985 RMK AO2", "KPSO 300955Z AUTO 00000KT 10SM CLR 03/M04 A3017 RMK AO2 T00301037", "KPSP 300953Z AUTO VRB03KT 10SM CLR 24/09 A2980 RMK AO2 SLP086 T02440094", "KPSX 300953Z AUTO 24005KT 10SM CLR 16/12 A2994 RMK AO2 SLP137 T01560117 $", "KPTB 300955Z AUTO 00000KT 10SM BKN012 BKN017 OVC060 17/17 A2952 RMK AO2 P0006 T01720165", "KPTD 300955Z AUTO 16005G14KT 10SM OVC043 11/06 A2968 RMK AO2", "KPTK 300953Z 00000KT 3SM BR BKN070 OVC090 06/04 A2941 RMK AO2 SLP959 T00560044", "KPTN 300956Z AUTO 30004KT 10SM CLR 13/12 A2986 RMK AO2 SLP112 T01330117 $", "KPTS 300955Z AUTO 00000KT 10SM CLR 05/04 A2980 RMK AO2 T00520043 PWINO", "KPTT 300955Z AUTO 34006KT 10SM SCT110 09/02 A2995 RMK AO2 T00850015", "KPTV 300956Z AUTO 18006KT 10SM CLR 17/15 A2988 RMK AO2 SLP113 T01720150", "KPTW 300954Z AUTO VRB06KT 2SM BR OVC003 09/09 A2967 RMK AO2 SLP046 T00940094", "KPUB 300953Z AUTO 00000KT 10SM CLR 09/02 A3003 RMK AO2 SLP123 T00890022", "KPUC 300953Z AUTO 00000KT 10SM CLR 08/M07 A3009 RMK AO2 SLP138 T00831067", "KPUJ 300955Z AUTO 00000KT 7SM RA SCT055 OVC065 13/13 A2952 RMK AO2 LTG DSNT SE", "KPUW 300953Z AUTO 09012KT 10SM CLR 17/03 A2984 RMK AO2 SLP087 T01670033", "KPVB 300955Z AUTO 28010KT 10SM OVC080 05/00 A2949 RMK AO1 T00450001", "KPVC 300956Z AUTO 12015G25KT 3SM RA BR OVC007 09/09 A2983 RMK AO2 PK WND 12029/0907 TSB02E17 SLP102 P0020 T00940094", "KPVD 301001Z 04007KT 2SM -RA BR OVC004 10/10 A2979 RMK AO2 P0000 T01000100", "KPVE 300955Z AUTO 32008KT 10SM CLR 12/10 A2961 RMK A01", "KPVF 300955Z AUTO 12006KT 10SM SCT045 16/07 A2997 RMK AO1", "KPVJ 300955Z AUTO 33004KT 10SM CLR 10/07 A2984 RMK AO2 T00970066", "KPVU 300956Z AUTO 00000KT 10SM CLR 08/02 A3005 RMK AO2 SLP139 T00830022", "KPVW 300955Z AUTO 28003KT 10SM CLR 07/M02 A2997 RMK AO2 T00711023", "KPWA 300953Z AUTO 01005KT 10SM CLR 12/04 A2987 RMK AO2 SLP108 T01170044", "KPWC 300955Z AUTO 35018G24KT 10SM OVC037 03/M02 A2977 RMK AO2", "KPWD 300955Z AUTO 00000KT 10SM OVC044 M00/M05 A3017 RMK AO2", "KPWG 300956Z AUTO 22006KT 10SM CLR 10/07 A2989 RMK AO2 SLP120 T01000072", "KPWK 300952Z AUTO 25006KT 10SM OVC075 06/02 A2947 RMK AO2 SLP982 T00610022", "KPWM 300951Z 08017G22KT 2SM RA BR OVC009 07/06 A2997 RMK AO2 SLP150 P0022 T00670061", "KPWT 300956Z AUTO 21004KT 10SM BKN008 06/06 A2992 RMK AO2 SLP134 T00610061", "KPXE 300955Z AUTO 21008KT 10SM SCT015 SCT065 BKN100 17/17 A2945 RMK AO2 LTG DSNT NE P0009 T01750172", "KPYM 300952Z AUTO 00000KT 9SM OVC005 11/10 A2981 RMK AO2 RAE52 SLP096 P0003 T01110100", "KPYX 300955Z AUTO 00000KT 10SM CLR 07/04 A2994 RMK AO2 T00710035", "KPZQ 300955Z AUTO 22007KT 10SM OVC018 04/04 A2937 RMK AO2 T00400040", "KQAZ 300955Z AUTO VRB05KT 9999 CLR 38/M03 A2994 RMK AO2 SLP128 WND DATA ESTMD T03801026", "KQBL 300955Z AUTO 00000KT 10SM CLR 15/15 A2967 RMK AO2 SLP053 WND DATA ESTMD T01540149", "KQBR 300855Z AUTO 11002KT 10SM CLR 14/M02 A3003 RMK AO2 SLP085 WND DATA ESTMD T01411017 58007", "KQD3 300955Z AUTO 28011G19KT 9999 FEW055 36/21 A2976 RMK AO2 SLP062 WND DATA ESTMD T03580210", "KQDG 300955Z AUTO 27006KT 9999 OVC065 15/05 A2960 RMK AO2 SLP025 T01490054 $", "KQEI 301000Z AUTO 13003KT 9999 FEW0100 BKN140 14/05 A2977 RMK A02 TSNO", "KQEJ 301000Z AUTO 10001KT 9999 FEW090 FEW150 14/03 A2975 RMK A02 TSNO", "KQEN 301000Z AUTO 24012G26KT 9999 CLR 11/M00 A2974 RMK A02 TSNO", "KQEP 301000Z AUTO 19003KT 9999 SCT120 16/07 A2982 RMK A02 TSNO", "KQEQ 301000Z AUTO 22006KT 9999 BKN150 13/09 A2984 RMK A02 TSNO", "KQER 300950Z AUTO 16001KT 9999 FEW085 14/04 A2973 RMK A02 TSNO", "KQES 300950Z AUTO 23002KT 9999 SCT090 16/08 A2988 RMK A02 TSNO", "KQEV 301000Z AUTO 22004KT 9999 CLR 16/06 A2981 RMK A02 TSNO", "KQEW 301000Z AUTO 26005G14KT 9999 CLR 17/01 A2982 RMK A02 TSNO", "KQEX 300950Z AUTO 28003KT 9999 CLR 20/M02 A2975 RMK A02 TSNO", "KQEY 301000Z AUTO 19004KT 9999 CLR 16/02 A2957 RMK A02 TSNO", "KQFB 301000Z AUTO 27003KT 9999 CLR 20/00 A2988 RMK A02 TSNO", "KQFT 301000Z AUTO 22002KT 9999 BKN095 16/07 A2978 RMK A02 TSNO", "KQFU 301000Z AUTO 21004KT 9999 SCT140 14/07 A2983 RMK A02 TSNO", "KQFV 301000Z AUTO 29004KT 9999 FEW110 13/05 A2979 RMK A02 TSNO", "KQFW 301000Z AUTO 20002KT 9999 FEW065 BKN085 BKN140 14/06 A2961 RMK A02 TSNO", "KQFX 301000Z AUTO 22005KT 9999 CLR 17/03 A2979 RMK A02 TSNO", "KQHY 300955Z AUTO 32004KT 10SM CLR 16/14 A2966 RMK AO2 SLP050 T01590141", "KQN3 300955Z 21010KT 9999 CLR 38/15 A2988 RMK SLP100 WND DATA ESTMD T03780149", "KQRH 300955Z AUTO 33009G17KT 300V020 9999 CLR 36/20 A2970 RMK AO2 LTG DSNT N SLP060 WND DATA ESTMD T03640197", "KQTZ 300855Z 29007KT 9999 FEW120 27/07 A2983 RMK SLP103 58002", "KQVF 300900Z AUTO 20010G19KT 9999 FEW011 SCT014 BKN018 BKN130 26/24 A2991 RMK AO2 CIG 018V032 SLP131 WND DATA ESTMD", "KRAC 300953Z AUTO 25009KT 10SM FEW036 05/01 A2943 RMK AO2 SLP967 T00500011", "KRAL 300953Z AUTO 28003KT 5SM BR CLR 12/11 A2995 RMK AO2 SLP126 T01170106", "KRAP 300952Z AUTO 34010KT 10SM CLR 00/M07 A3012 RMK AO2 SLP205 T00001067 $", "KRAS 300955Z AUTO 23004KT 10SM CLR 19/17 A2997 RMK AO2 T01870165", "KRAW 300955Z AUTO 32004KT 10SM SCT065 05/03 A2976 RMK AO2", "KRBD 300953Z AUTO 25010KT 10SM CLR 17/05 A2983 RMK AO2 SLP096 T01720050", "KRBG 300953Z AUTO 00000KT 10SM CLR 11/04 A2998 RMK AO2 SLP150 T01060044", "KRBL 300954Z AUTO 00000KT 10SM CLR 18/11 A2985 RMK AO2 SLP103 T01780111", "KRBO 300955Z AUTO 00000KT 10SM CLR 13/12 A2997 RMK AO2 T01330115", "KRBW 300955Z AUTO 22006KT 10SM BKN011 BKN017 20/20 A2946 RMK AO2", "KRCA 300855Z 30006KT 10SM CLR 01/M07 A3009 RMK AO2A SLP198 T00061072 50003 $", "KRCE 300955Z AUTO 35006KT 10SM CLR 08/05 A2987 RMK AO2", "KRCM 300955Z AUTO 28004KT 10SM CLR 05/02 A2977 RMK AO2", "KRCR 300955Z AUTO 26006KT 10SM OVC060 07/05 A2949 RMK AO2", "KRCV 300955Z AUTO 24007KT 10SM CLR 05/M06 A3017 RMK AO2 T00511060", "KRCX 300955Z AUTO 32011G16KT 2 1/2SM -SN SCT007 OVC013 01/01 A2948 RMK AO2 T00090009", "KRCZ 300955Z AUTO 29006KT 7SM OVC006 16/16 A2949 RMK AO2 P0003 T01610158", "KRDD 300953Z AUTO 00000KT 10SM CLR 16/10 A2984 RMK AO2 SLP099 T01560100", "KRDG 300954Z AUTO 04006KT 2 1/2SM BR OVC005 11/10 A2964 RMK AO2 CIG 004V008 SLP042 T01110100", "KRDK 300955Z AUTO 32010G17KT 10SM SCT031 SCT037 06/01 A2981 RMK AO2", "KRDM 300956Z AUTO 21005KT 10SM CLR 11/04 A2989 RMK AO2 SLP096 T01110039 $", "KRDR 300855Z AUTO 34013KT 10SM CLR 02/M00 A2996 RMK AO2 SLP159 T00161003 53002 $", "KRDU 301001Z 17004KT 2SM +RA BR SCT007 BKN013 OVC020 18/16 A2950 RMK AO2 P0003 T01780161", "KREG 300955Z AUTO 29004KT 10SM CLR 15/12 A2982 RMK AO2 T01470122", "KREO 300952Z AUTO 20007KT 12/M03 A2994 RMK AO1 SLP102 T01171028", "KRFD 300954Z 25010KT 10SM OVC075 05/01 A2949 RMK AO2 SLP988 T00500011 $", "KRGA 300955Z AUTO 20005KT 10SM BKN070 12/11 A2952 RMK AO2", "KRGK 300955Z AUTO 32006KT 10SM DZ SCT055 BKN070 OVC090 03/00 A2957 RMK AO2", "KRHI 300953Z AUTO 34007KT 1SM -SN BR VV010 00/M02 A2934 RMK AO2 SLP952 P0007 T00001017", "KRHP 300950Z AUTO 05003KT 10SM -RA SCT065 OVC090 13/12 A2952 RMK AO2 P0001 T01300123", "KRIC 300954Z 18004KT 5SM BR BKN004 BKN065 OVC100 17/16 A2951 RMK AO2 SLP996 RAB18 TSB29E49 LTG DSNT NW-N CB DSNT N P0007 T01720161", "KRID 300955Z AUTO 30007KT 10SM -RA BKN009 BKN036 OVC060 05/05 A2950 RMK AO2 P0004", "KRIL 300953Z AUTO 00000KT 10SM CLR 05/M01 A3011 RMK AO2 SLP156 T00501006", "KRIV 300955Z AUTO 00000KT 10SM CLR 12/11 A2994 RMK AO2 SLP127 T01150106", "KRIW 300953Z AUTO 04004KT 10SM CLR 05/M01 A3007 RMK AO2 SLP147 T00501006", "KRKD 300956Z AUTO 09014KT 10SM OVC011 06/05 A3005 RMK AO2 RAB04E30 SLP175 P0000 T00610050", "KRKP 300953Z AUTO A2996 RMK AO2 SLP148 PWINO $", "KRKR 300955Z AUTO 19004KT 10SM CLR 08/06 A2983 RMK AO2", "KRKS 300954Z AUTO 30004KT 10SM CLR 07/M06 A3013 RMK AO2 SLP140 T00671056", "KRLD 300955Z AUTO 00000KT 10SM CLR 13/09 A2977 RMK AO2 T01280086", "KRME 300953Z AUTO 11010KT 10SM FEW014 BKN060 BKN080 09/07 A2969 RMK AO2 SLP053 T00890067", "KRMG 300953Z AUTO 23004KT 8SM FEW006 BKN018 OVC029 16/15 A2950 RMK AO2 LTG DSNT N RAE46 SLP983 P0003 T01610150", "KRMN 300955Z AUTO 02006KT 7SM -RA OVC006 19/18 A2952 RMK AO2 LTG DSNT E AND SE T01890178", "KRMY 300955Z AUTO 26005KT 10SM SCT013 BKN020 OVC100 05/04 A2943 RMK AO2 T00530040", "KRNC 300955Z AUTO 00000KT 10SM SCT039 SCT047 BKN090 12/10 A2955 RMK A01", "KRND 300955Z AUTO 33004KT 10SM CLR 10/07 A2993 RMK AO2 SLP131 T00980072", "KRNH 300955Z AUTO 32016G22KT 10SM DZ SCT013 BKN019 OVC027 02/02 A2958 RMK AO2 T00200020", "KRNM 301004Z AUTO 00000KT 1 3/4SM BR OVC002 11/10 A2994 RMK AO2 VIS 1V4 T01060100 $", "KRNO 300955Z 16004KT 10SM CLR 12/03 A3001 RMK AO2 SLP112 T01170028", "KRNP 300955Z AUTO 15004KT 5SM BR SCT045 BKN050 OVC085 06/04 A2941 RMK AO2 T00610041", "KRNT 300953Z AUTO 17006KT 10SM CLR 13/07 A2991 RMK AO2 SLP132 T01280067 $", "KROA 300954Z 15007KT 1SM -RA BR BKN005 BKN009 OVC060 17/16 A2954 RMK AO2 SFC VIS 2 SLP993 P0001 T01670156", "KROC 300954Z 12009KT 10SM SCT085 BKN100 BKN250 11/09 A2955 RMK AO2 SLP009 T01060089", "KROG 300958Z 24003KT 10SM CLR 06/04 A2981 RMK AO2 SLP091 T00610039", "KROS 300955Z AUTO 33012G20KT 10SM DZ SCT014 OVC020 05/02 A2963 RMK AO2 T00470020", "KROW 300951Z AUTO 21006KT 10SM CLR 09/M07 A2997 RMK AO2 SLP101 T00891067", "KROX 300955Z AUTO 35011KT 10SM CLR 03/M02 A2993 RMK AO2", "KRPD 300955Z AUTO 32009G16KT 270V340 4SM -SN OVC011 01/01 A2953 RMK AO2 P0001 T00100010", "KRPH 300955Z AUTO 00000KT 10SM CLR 08/06 A2987 RMK AO2 T00820061 $", "KRPJ 300955Z AUTO 28018G24KT 10SM SCT055 BKN065 OVC085 04/04 A2951 RMK AO2 T00360035 TSNO", "KRPX 301001Z AUTO 10SM 04/M06 A2999 RMK Roundup ", "KRQB 300955Z AUTO 22003KT 10SM SCT011 OVC024 04/03 A2937 RMK AO2 T00400025", "KRQE 300953Z AUTO 00000KT 10SM CLR 00/M08 A3018 RMK AO2 SLP138 T00001083", "KRQO 300955Z AUTO 34008KT 07/05 A2990 RMK AO2 PWINO T00700048", "KRRT 300955Z AUTO 33007KT 10SM CLR 02/M02 A2992 RMK AO2", "KRSL 300953Z AUTO 34010KT 10SM SCT110 09/M02 A2995 RMK AO2 SLP133 T00891022 $", "KRSP 300954Z AUTO 15005KT 1/2SM -RA FG VV002 14/12 A2958 RMK AO2 SLP016 P0008 T01390117 $", "KRST 300954Z 33018G26KT 10SM OVC039 04/M02 A2955 RMK AO2 PK WND 31032/0915 SLP013 T00391017", "KRSW 300953Z 21023G33KT 10SM FEW023 27/23 A2966 RMK AO2 PK WND 19033/0948 LTG DSNT NW SLP040 T02670233", "KRTN 300953Z AUTO 05007KT 10SM CLR 02/M04 A3006 RMK AO2 SLP120 T00221039", "KRTS 300950Z AUTO 12006G16KT 10SM CLR 16/M02 A3004 RMK AO2", "KRUE 300953Z AUTO 00000KT 8SM CLR 07/06 A2978 RMK AO2 SLP078 T00720061", "KRUG 300955Z AUTO 30007KT 10SM CLR M02/M02 A3009 RMK AO2", "KRUQ 300945Z AUTO 00000KT 5SM -RA OVC002 15/15 A2949 RMK AO2 P0001 T01470145", "KRUT 300956Z AUTO 15014G22KT 10SM FEW040 SCT049 SCT100 07/06 A2980 RMK AO2 SLP087 T00720061 $", "KRVF 300955Z AUTO 15007KT 10SM CLR 04/M01 A3007 RMK AO2", "KRVJ 300955Z AUTO 21007KT 5SM +RA SCT008 BKN029 OVC080 19/ A2949 RMK AO2 LTG DSNT NW P0002 T0191////", "KRVL 300955Z AUTO 00000KT 5SM BR FEW001 BKN009 OVC013 12/11 A2958 RMK AO2 P0006", "KRVS 300953Z AUTO 00000KT 10SM CLR 08/06 A2985 RMK AO2 SLP114 T00780056", "KRWF 300953Z AUTO 32014G23KT 10SM CLR 03/M01 A2975 RMK AO2 PK WND 32026/0941 SLP080 T00331006", "KRWI 300953Z AUTO 00000KT 8SM -RA FEW029 OVC041 18/16 A2952 RMK AO2 RAB06 SLP994 P0002 T01780161 $", "KRWL 300953Z AUTO 03007KT 10SM CLR 04/M01 A3011 RMK AO2 SLP133 T00441011", "KRWV 300955Z AUTO 26005KT 10SM CLR 10/08 A2993 RMK AO2 T01020077", "KRXE 300953Z AUTO 02004KT 10SM CLR 04/M01 A3005 RMK AO2 SLP154 T00391011", "KRYM 300855Z AUTO 35020G25KT 10SM OVC034 04/M02 A2970 RMK AO2 PK WND 35028/13 SLP067 T00411023 57008", "KRYN 300955Z AUTO 00000KT 10SM CLR 16/M08 A2991 RMK AO2", "KRYW 300955Z AUTO 27007KT 10SM CLR 12/06 A2995 RMK AO2 T01200061", "KRYY 300950Z AUTO 00000KT 4SM -RA BR BKN065 OVC075 14/13 A2950 RMK AO2 SLP982 P0021 T01390128 $", "KRZL 300955Z AUTO 26005KT 10SM CLR 04/02 A2952 RMK AO2", "KRZN 300955Z AUTO 34011G17KT 3SM -SN SCT010 OVC016 01/00 A2959 RMK AO2 P0004 T00100001", "KRZR 300955Z AUTO 00000KT 8SM OVC055 15/15 A2949 RMK A01", "KRZT 300955Z AUTO 13003KT 10SM SCT027 SCT037 OVC060 11/10 A2947 RMK AO2 PWINO", "KS21 300955Z AUTO 20009KT 10SM CLR 05/03 A2999 RMK AO2", "KS25 300955Z AUTO 00000KT 10SM CLR M03/M03 A3016 RMK AO2", "KS32 300955Z AUTO 33014KT 10SM CLR 01/01 A3000 RMK AO2 TSNO", "KS33 300955Z AUTO 00000KT 10SM CLR A2990 RMK AO2", "KS34 300955Z AUTO 00000KT 10SM 05/M22 A2995 RMK Plains ", "KS39 300955Z AUTO 16004KT 10SM FEW045 FEW050 12/03 A2990 RMK AO2", "KS52 300955Z AUTO 28003KT 10SM BKN095 OVC120 06/02 A2988 RMK AO2 T00590024", "KS85 300955Z AUTO 00000KT 10SM M05/M07 A3016 RMK A01 Culbertson ", "KSAA 300955Z AUTO 13005KT 10SM CLR 01/M02 A3012 RMK AO2", "KSAC 300953Z AUTO 16006KT 10SM CLR 12/08 A2989 RMK AO2 SLP121 T01170083", "KSAD 300951Z AUTO 04004KT 10SM CLR 13/M08 A2995 RMK AO2 SLP100 T01331083", "KSAF 300953Z AUTO 00000KT 10SM CLR 07/M04 A3009 RMK AO2 SLP118 T00721044 $", "KSAN 300951Z 30003KT 10SM BKN008 15/12 A2997 RMK AO2 SLP148 T01500122 $", "KSAR 300955Z AUTO 25004KT 10SM CLR 06/05 A2967 RMK AO2 T00600050", "KSAT 300951Z 27004KT 10SM CLR 11/06 A2997 RMK AO2 SLP136 T01110061", "KSAV 300953Z 20007KT 7SM -RA FEW007 SCT013 SCT021 OVC130 21/19 A2949 RMK AO2 RAB35 SLP985 SCT021 V BKN P0000 T02060189 $", "KSAW 300958Z AUTO 35005KT 4SM -SN SCT003 SCT012 OVC022 03/02 A2930 RMK AO2 T00280020 P0015", "KSAZ 300955Z AUTO 35019G23KT 10SM OVC035 04/M03 A2975 RMK AO2", "KSBA 300953Z 00000KT 5SM BR OVC004 12/11 A2995 RMK AO2 SLP140 T01220111 $", "KSBD 301000Z AUTO 25004KT 7SM CLR 13/09 A2994 RMK AO2 T01330092", "KSBM 300953Z AUTO 27010KT 10SM FEW014 OVC046 03/01 A2936 RMK AO2 RAB31E48 SLP946 P0000 T00330011", "KSBN 300954Z AUTO 29009KT 10SM BKN050 OVC065 06/02 A2948 RMK AO2 SLP984 T00610022", "KSBO 300955Z AUTO 23005KT 10SM -RA BKN008 OVC015 A2948 RMK AO2 LTG DSNT SE", "KSBP 300956Z AUTO 31005KT 4SM BR OVC004 11/10 A2996 RMK AO2 SLP144 T01110100", "KSBS 300955Z AUTO 00000KT 10SM CLR 02/M02 A3012 RMK AO1 T00231025", "KSBY 300954Z 08006KT 10SM -RA OVC007 15/14 A2957 RMK AO2 RAB43 SLP015 P0000 T01500139", "KSCD 300955Z AUTO 00000KT 7SM -RA SCT015 BKN026 OVC095 15/15 A2956 RMK AO2 P0030 T01520150", "KSCK 300955Z AUTO 28006KT 10SM CLR 13/07 A2990 RMK AO2 SLP124 T01330067", "KSCR 300945Z AUTO 25003KT 10SM -RA SCT010 OVC015 16/16 A2951 RMK AO2 T01590159", "KSCX 300955Z AUTO 00000KT 10SM SCT038 OVC048 12/12 A2953 RMK A01", "KSDA 300955Z AUTO 30007KT 10SM FEW035 07/01 A2981 RMK AO2", "KSDB 300951Z AUTO 33011KT 10SM CLR 17/07 A3005 RMK AO2 SLP119 T01670072", "KSDC 300955Z AUTO 14007KT 10SM SCT090 10/08 A2959 RMK AO2", "KSDF 300956Z 33006KT 10SM BKN048 OVC110 10/04 A2955 RMK AO2 PK WND 31027/0912 SLP004 T01000044", "KSDL 300953Z 00000KT 10SM CLR 21/01 A2984 RMK AO2 SLP080 T02060011", "KSDM 300953Z AUTO 00000KT 5SM BR OVC004 14/12 A2995 RMK AO2 SLP138 T01390117 $", "KSDY 300956Z AUTO 31004KT 10SM CLR M01/M05 A3017 RMK AO2 SLP232 T10061050 FZRANO", "KSEA 300953Z 21008KT 10SM FEW200 10/06 A2991 RMK AO2 SLP135 T01000056", "KSEE 300955Z AUTO 00000KT 9SM OVC009 14/12 A2994 RMK AO2", "KSEF 300955Z AUTO 18008KT 10SM BKN019 BKN035 BKN080 24/23 A2965 RMK AO2 LTG DSNT SW THRU N T02360226", "KSEG 300953Z AUTO 00000KT 3SM RA BR SCT014 BKN019 OVC024 11/11 A2964 RMK AO2 SLP038 P0045 T01110106", "KSEM 300955Z AUTO 28005KT 5SM RA OVC006 15/15 A2961 RMK AO2", "KSEP 300955Z AUTO 00000KT 10SM CLR 11/06 A2992 RMK AO2 T01050059", "KSEQ 300955Z AUTO 25005KT 10SM CLR 10/09 A2994 RMK AO2 SLP137 T01030091", "KSET 300954Z AUTO 27008KT 10SM FEW060 07/04 A2963 RMK AO2 SLP033 T00670044", "KSEZ 300955Z AUTO 03013KT 10SM CLR 17/M06 A3007 RMK AO2", "KSFB 300953Z AUTO 20011G18KT 10SM CLR 23/21 A2959 RMK AO2 SLP020 T02280206", "KSFF 300953Z AUTO 00000KT 10SM CLR 11/07 A2986 RMK AO2 SLP099 T01060067", "KSFM 300956Z AUTO 08008KT 2SM -RA BR 06/06 A2996 RMK AO2 SLP150 P0018 T00610056", "KSFO 300956Z 27012G20KT 10SM FEW005 BKN008 11/09 A2998 RMK AO2 SLP153 T01110089", "KSFQ 300955Z AUTO 16004KT 5SM BR SCT006 SCT015 OVC100 19/19 A2955 RMK AO2 LTG DSNT NE T01900190", "KSFZ 300956Z AUTO 06006KT 5SM -RA BR OVC004 09/09 A2980 RMK AO2 SLP091 P0001 T00940094", "KSGF 300952Z 00000KT 10SM CLR 05/02 A2975 RMK AO2 SLP070 T00500022", "KSGH 301003Z AUTO 30020G27KT 5SM -RA BR BKN006 OVC043 06/06 A2949 RMK AO2 PK WND 31026/0959 WSHFT 0943 CIG 004V009 P0004", "KSGJ 300956Z AUTO 29011KT 5SM TSRA BR 21/20 A2956 RMK AO2 LTG DSNT NE TSB20RAB14 SLP008 P0066 T02060200 $", "KSGR 300953Z AUTO 00000KT 10SM CLR 11/09 A2991 RMK AO2 SLP130 T01110089", "KSGS 300955Z AUTO 34012G25KT 10SM SCT028 BKN034 OVC046 05/M01 A2961 RMK AO2 T00451008", "KSGT 300956Z AUTO 33012KT 10SM CLR 12/07 A2977 RMK AO2 SLP080 T01220072", "KSGU 300956Z AUTO 13003KT 10SM CLR 16/M04 A2996 RMK AO2 SLP115 T01611039", "KSHD 300955Z AUTO 00000KT 10SM -RA OVC080 14/13 A2955 RMK AO2 P0002 T01430134", "KSHL 300955Z AUTO 32013G19KT 10SM OVC018 03/03 A2978 RMK AO2", "KSHM 300955Z AUTO 02008KT 10SM CLR 07/M01 A3006 RMK AO2 SLP135 T00691015 $", "KSHR 300953Z AUTO 07004KT 10SM CLR 04/M02 A3009 RMK AO2 SLP178 T00441022", "KSHV 300956Z 26006KT 10SM CLR 11/08 A2983 RMK SLPNO", "KSIF 300945Z AUTO 00000KT 3SM +RA SCT003 BKN016 OVC023 16/15 A2951 RMK AO2 P0009 T01570151", "KSIK 300955Z AUTO 00000KT 10SM CLR 08/06 A2969 RMK AO2", "KSIY 300953Z AUTO 01009KT 10SM CLR 11/01 A2992 RMK AO2 SLP120 T01110011 $", "KSJC 300953Z AUTO 00000KT 10SM CLR 11/08 A2999 RMK AO2 SLP154 T01110083", "KSJS 300955Z AUTO 00000KT 10SM SCT034 OVC045 13/11 A2952 RMK AO2 T01270110", "KSJT 300951Z AUTO 24007KT 10SM CLR 08/M01 A2997 RMK AO2 SLP136 T00831011", "KSJX 300955Z AUTO 15003KT 10SM SCT010 OVC035 04/04 A2933 RMK AO2 T00400040", "KSKA 300955Z AUTO 07008KT 10SM CLR 13/06 A2984 RMK AO2 SLP091 T01270056 $", "KSKF 300955Z AUTO 00000KT 10SM CLR 10/07 A2995 RMK AO2 SLP138 T00990070 $", "KSKX 300956Z AUTO 08004KT 10SM CLR 04/M04 A3015 RMK AO2 SLP166 T00391044", "KSLB 300955Z AUTO 32015KT 10SM SCT055 02/02 A2977 RMK AO2", "KSLC 300954Z 14007KT 10SM CLR 14/M01 A3000 RMK AO2 SLP113 T01391006", "KSLE 300956Z AUTO 18006KT 10SM BKN046 11/06 A2996 RMK AO2 SLP143 T01060061", "KSLG 300956Z AUTO 00000KT 10SM CLR 06/06 A2981 RMK AO2 SLP092 T00560056", "KSLH 300955Z AUTO 17003KT 10SM SCT031 BKN065 04/04 A2934 RMK AO2", "KSLI 300955Z AUTO 21004KT 10SM OVC004 13/12 A2993 RMK AO2 SLP138 T01290121 $", "KSLK 300951Z AUTO 16009KT 10SM FEW045 08/04 A2970 RMK AO2 SLP062 T00780039", "KSLN 300953Z AUTO 30008KT 10SM CLR 06/M01 A2994 RMK AO2 SLP132 T00611006", "KSLO 300955Z AUTO 26005KT 10SM CLR 06/06 A2963 RMK AO2 T00630060", "KSLR 300955Z AUTO 00000KT 10SM CLR 11/07 A2985 RMK AO2 T01070072", "KSMD 300955Z AUTO 00000KT 10SM OVC070 06/06 A2948 RMK A01", "KSME 300955Z AUTO 00000KT 3/4SM BR SCT020 SCT034 BKN100 12/12 A2951 RMK AO2 VIS 1/4V3", "KSMF 300953Z 15009KT 10SM FEW250 13/08 A2987 RMK AO2 SLP114 T01280078", "KSMN 300956Z AUTO 17003KT 10SM CLR 04/M01 A3004 RMK AO2 SLP866 T00441006", "KSMO 300951Z AUTO 00000KT 5SM BR OVC004 12/11 A2995 RMK AO2 SLP142 T01220111", "KSMQ 300953Z AUTO 00000KT 6SM BR OVC006 11/11 A2971 RMK AO2 SLP060 T01110106", "KSMS 300955Z AUTO 00000KT 3SM BR FEW029 BKN036 OVC048 18/18 A2945 RMK AO2", "KSMX 301002Z AUTO 29006KT 2 1/2SM BR OVC002 10/10 A2996 RMK AO2 T01000100", "KSNA 300953Z AUTO 13003KT 10SM OVC007 15/12 A2995 RMK AO2 SLP142 T01500122", "KSNC 300955Z AUTO 03004KT 1SM -RA OVC001 A2973 RMK AO2", "KSNH 300950Z AUTO 00000KT 10SM CLR 12/12 A2960 RMK A01", "KSNK 300955Z AUTO 20006KT 10SM CLR 12/M01 A2997 RMK AO2 T01241007", "KSNS 300953Z AUTO 27008KT 10SM OVC008 11/08 A2998 RMK AO2 SLP162 T01110083", "KSNT 300951Z AUTO 00000KT M02/M03 A3014 RMK AO1 SLP146 T10171033", "KSNY 300953Z AUTO 36008KT 10SM FEW120 02/M04 A3007 RMK AO2 SLP165 T00171039", "KSOA 300955Z AUTO 00000KT 10SM 06/M06 A3004 RMK AO2", "KSOP 300956Z AUTO 10005KT 6SM -RA BR BKN002 OVC009 16/16 A2948 RMK AO2 SLP985 P0007 T01610161", "KSOW 300955Z AUTO 19005KT 10SM CLR 09/M06 A3018 RMK AO2", "KSPA 300955Z AUTO 04004KT 7SM -RA OVC003 15/15 A2947 RMK AO2 LTG DSNT SW P0002", "KSPB 300953Z AUTO 00000KT 10SM CLR 09/07 A2995 RMK AO2 SLP143 T00940067", "KSPD 300956Z AUTO 27005KT 06/02 A2998 RMK AO1 SLP111 T00560017", "KSPF 300955Z AUTO 19006KT 10SM CLR M01/M06 A3013 RMK AO2", "KSPG 300953Z AUTO 24018G34KT 10SM FEW033 FEW065 26/21 A2961 RMK AO2 PK WND 22036/0920 LTG DSNT E-S SLP028 T02560211", "KSPI 300952Z AUTO 27009KT 10SM FEW065 SCT100 06/04 A2959 RMK AO2 SLP020 T00560039", "KSPK 300955Z AUTO 13011G18KT 10SM CLR 12/M03 A3004 RMK AO2", "KSPS 300952Z AUTO 27007KT 10SM CLR 13/07 A2986 RMK AO2 SLP103 T01330067 $", "KSPW 300953Z AUTO 32015G24KT 10SM BKN070 04/01 A2976 RMK AO2 SLP081 T00440006 $", "KSQI 300956Z AUTO 26006KT 10SM CLR 02/02 A2952 RMK AO2 SLP866 T00220017 FZRANO", "KSQL 300955Z AUTO 00000KT 8SM CLR 12/08 A3000 RMK AO2", "KSRB 300955Z AUTO 00000KT 8SM FEW046 SCT055 SCT085 11/11 A2955 RMK AO2", "KSRC 300956Z AUTO 34004KT 10SM CLR 11/03 A2977 RMK AO2 SLP079 T01110028", "KSRE 300955Z AUTO 03005KT 10SM CLR 09/05 A2985 RMK AO2", "KSRQ 300953Z 22020G32KT 10SM VCTS FEW017 SCT060 OVC100 24/22 A2964 RMK AO2 PK WND 25040/0905 LTG DSNT NE-S RAE25 TSB0858E13 SLP037 P0021 T02440217", "KSRR 300955Z AUTO 00000KT 10SM CLR 10/M08 A3016 RMK AO2", "KSSC 300955Z AUTO 00000KT 10SM FEW006 BKN010 BKN025 BKN032 19/18 A2943 RMK AO2 CIG 010V026 BKN010 V SCT CIG 006 RWY04 SLP965 T01880180 $", "KSSF 300953Z AUTO 30003KT 10SM 12/09 A2995 RMK AO2 SLP138 T01170089 $", "KSSI 301004Z AUTO 22010G15KT 2SM VCTS +RA SCT020 BKN034 OVC110 22/19 A2949 RMK AO2 P0007 T02220194", "KSTC 300953Z AUTO 34014G29KT 10SM BKN036 OVC055 04/M02 A2967 RMK AO2 PK WND 35033/0916 SLP061 T00441022", "KSTE 300955Z AUTO 28007KT 260V320 10SM RA BKN010 OVC015 02/01 A2937 RMK AO2 T00220005", "KSTF 300955Z AUTO 00000KT 10SM CLR 13/13 A2966 RMK AO2 LTG DSNT SE", "KSTJ 300953Z AUTO 31018G25KT 10SM CLR 08/01 A2980 RMK AO2 PK WND 31026/0942 SLP087 T00830006", "KSTK 300955Z AUTO 33004KT 10SM CLR 03/M01 A3007 RMK AO2", "KSTL 300951Z 26006KT 10SM CLR 07/04 A2964 RMK AO2 SLP034 T00670039 $", "KSTP 300953Z AUTO 35017G29KT 10SM FEW029 BKN042 OVC050 04/M01 A2962 RMK AO2 PK WND 34032/0933 RAB30E46 SLP032 P0000 T00441006", "KSTS 300953Z AUTO 14003KT 1/2SM FG VV002 09/08 A2997 RMK AO2 SLP141 T00890078", "KSUA 300955Z AUTO 20011G15KT 10SM SCT050 BKN065 OVC085 25/22 A2971 RMK AO2 T02500215", "KSUE 300956Z AUTO 28005KT 2 1/2SM UP BR OVC005 02/02 A2931 RMK AO2 UPB05 SLP930 P0003 T00220022 FZRANO", "KSUN 300955Z AUTO 33014G18KT 10SM CLR 07/00 A3008 RMK AO2", "KSUS 300954Z AUTO 25009KT 10SM CLR 05/04 A2964 RMK AO2 SLP037 T00500039", "KSUT 300950Z AUTO 16004KT 10SM BKN009 BKN015 OVC095 20/19 A2952 RMK AO2 P0001 T01970186", "KSUU 300955Z AUTO 22020KT 10SM CLR 10/07 A2988 RMK AO2 SLP124 T01020074", "KSUW 300955Z AUTO 01008G16KT 320V050 10SM -RA OVC020 02/00 A2959 RMK AO2 T00210001", "KSUX 300952Z AUTO 32014KT 10SM SCT021 04/01 A2985 RMK AO2 SLP110 T00440011", "KSUZ 300955Z AUTO 31006KT 10SM FEW047 BKN055 11/09 A2979 RMK A01", "KSVC 300955Z AUTO 35009KT 10SM CLR 10/M06 A3011 RMK AO2 T00951064", "KSVE 300955Z AUTO 28004KT 10SM CLR 08/01 A3001 RMK AO2", "KSVH 300945Z AUTO 00000KT 10SM SCT047 BKN070 BKN080 14/13 A2949 RMK AO2 T01350126", "KSVN 300955Z AUTO 20005KT 10SM R28/4500FT -RA BKN018 BKN023 OVC100 21/19 A2946 RMK AO2 RAB30E41DZB41E45RAB45 CIG 018V023 CIG 014 RWY10 SLP979 P0000 T02050193 $", "KSWF 300945Z 06005KT 2SM BR OVC004 09/09 A2971", "KSWO 300953Z 31005KT 10SM CLR 08/05 A2987 RMK AO2 SLP109 T00830050", "KSWW 300955Z AUTO 22009KT 10SM CLR 16/M01 A2998 RMK AO2 T01611009", "KSXK 300955Z AUTO 32018G24KT 10SM FEW041 03/02 A2981 RMK AO2", "KSXS 300956Z AUTO 30009KT 10SM -DZ SCT075 14/14 A2958 RMK AO2 DZB56 SLP017", "KSXT 300956Z AUTO 00000KT 10SM SCT070 08/M01 A2998 RMK AO2 SLP113 T00781011", "KSXU 300955Z AUTO 00000KT 10SM CLR 08/M05 A3000 RMK AO2 T00791047", "KSYF 300955Z AUTO 36007KT 10SM OVC100 08/M03 A3005 RMK AO2 T00771030 PWINO", "KSYI 300955Z AUTO 00000KT 10SM CLR 11/10 A2956 RMK A01", "KSYM 300955Z AUTO 19005KT 10SM FEW055 OVC070 12/11 A2950 RMK AO2", "KSYN 300955Z AUTO 34019G25KT 10SM SCT037 BKN048 OVC070 05/M01 A2960 RMK AO2 T00481015", "KSYR 300954Z 08009KT 10SM BKN090 BKN220 09/07 A2963 RMK AO2 SLP032 T00940072", "KSZL 300955Z 29005KT 10SM SKC 06/03 A2974 RMK AO2A SLP073 T00620026 $", "KSZT 300955Z AUTO 00000KT 10SM CLR 06/04 A2990 RMK AO2", "KSZY 300955Z AUTO VRB05KT 10SM CLR 12/09 A2961 RMK A01", "KT20 300955Z AUTO 00000KT 10SM CLR 12/10 A2995 RMK AO2 T01170097", "KT35 300955Z AUTO 23005KT 10SM CLR 11/08 A2991 RMK AO2 T01140082", "KT41 300955Z AUTO 24006KT 10SM CLR 11/09 A2991 RMK AO2 T01140091", "KT69 300955Z AUTO VRB03KT 10SM CLR 11/11 A2996 RMK A01", "KT70 300955Z AUTO 09003KT 1 1/8SM HZ CLR 10/04 A2997 RMK AO2 DZB04E28 SLP140 P0000 T00980037 $", "KT74 300955Z AUTO 00000KT 10SM CLR 10/07 A2993 RMK AO2 T00990074", "KT78 300955Z AUTO 00000KT 10SM SCT050 SCT055 11/10 A2989 RMK AO2", "KT82 300955Z AUTO 00000KT 10SM CLR 08/03 A2999 RMK AO2 T00770030", "KT89 300955Z AUTO 28004KT 10SM FEW043 SCT050 15/M06 A3003 RMK A01", "KTAD 300954Z AUTO 27007KT 10SM CLR 05/00 A3003 RMK AO2 SLP116 T00500000", "KTAN 300952Z AUTO 00000KT 5SM -RA BR OVC008 11/10 A2981 RMK AO2 SLP093 P0005 T01110100", "KTAZ 300955Z AUTO 25007KT 10SM CLR 05/04 A2960 RMK AO2 T00500042", "KTBN 300955Z AUTO 00000KT 10SM CLR M M RMK AO2 SLPNO RVRNO TSNO $", "KTBR 300955Z AUTO 21006KT 5SM BKN008 OVC013 19/18 A2948 RMK AO2 LTG DSNT NW T01910176 PWINO", "KTBX 300955Z AUTO 10SM CLR 06/M02 A3022 RMK AO2", "KTCL 300953Z AUTO 30007KT 8SM FEW010 OVC095 15/14 A2962 RMK AO2 RAB02E26 SLP028 P0000 T01500139", "KTCM 300955Z AUTO 27006KT 10SM CLR 09/09 A2992 RMK AO2 SLP135 T00930093 $", "KTCS 300953Z AUTO 29009KT 10SM CLR 12/M07 A3006 RMK AO2 SLP115 T01171072", "KTCY 300955Z AUTO 29004KT 10SM CLR 13/07 A2989 RMK A01", "KTDF 300945Z AUTO 00000KT 5SM BR SCT024 SCT028 OVC095 15/14 A2953 RMK AO2", "KTDR 301001Z AUTO 30009G15KT 10SM BKN025 BKN032 19/15 A2958 RMK AO2 CIG 024V032 BKN025 V SCT SLP020 $", "KTDZ 300959Z AUTO 26015G20KT 3SM RA BR FEW007 BKN021 OVC043 09/07 A2947 RMK AO2 P0002 T00890067", "KTEB 300953Z 0104KT 1SM R06 2600 BR PVC003 11/11 A2970", "KTEW 300955Z AUTO 00000KT 5SM BR BKN008 BKN014 OVC050 08/06 A2942 RMK AO2 T00750060", "KTEX 300955Z AUTO 14003KT 10SM CLR 03/M07 A3029 RMK AO2", "KTFP 300915Z AUTO 30004KT 10SM CLR 16/12 A2995 RMK AO2 T01560122", "KTGI 300955Z AUTO 10012KT 10SM BKN005 OVC014 16/16 A2956 RMK AO1 T01630158", "KTHA 300955Z AUTO 29003KT 10SM FEW023 FEW035 BKN090 12/11 A2956 RMK A01", "KTHM 300955Z AUTO 00000KT 10SM 05/03 A2999 RMK Thompson Falls ", "KTIF 300955Z AUTO 28007KT 10SM CLR 00/M05 A3005 RMK AO2 T10011048", "KTIK 300955Z AUTO 06007KT 10SM CLR 10/05 A2983 RMK AO2 SLP104 T00990051", "KTIP 300955Z AUTO 00000KT 10SM CLR 04/04 A2954 RMK AO2 T00420040", "KTIW 300953Z AUTO 24006KT 10SM CLR 09/06 A2992 RMK AO2 SLP132 T00890061", "KTKC 300955Z AUTO 32017G24KT 10SM SCT060 03/02 A2979 RMK AO2", "KTKI 300953Z AUTO 00000KT 10SM CLR 09/07 A2983 RMK AO2 SLP104 T00890072", "KTKV 300955Z AUTO 33007KT 300V360 3/4SM OVC007 00/00 A2937 RMK AO2 T00031005 PWINO", "KTKX 300955Z AUTO 32008KT 10SM CLR 11/08 A2969 RMK AO2", "KTLH 300953Z 26009KT 10SM FEW012 18/17 A2957 RMK AO2 SLP014 T01830172", "KTMA 300955Z AUTO 22007KT 10SM SCT008 BKN014 BKN019 BKN040 OVC050 19/19 A2952 RMK AO2 T01870187 $", "KTMB 300953Z AUTO 21006KT 10SM CLR 26/24 A2976 RMK AO2 SLP076 T02610239", "KTMK 300955Z AUTO 00000KT 8SM OVC010 09/09 A2999 RMK AO2", "KTMT 300955Z AUTO 15005KT 10SM CLR 03/M03 A3010 RMK AO2 T00301026", "KTNB 300955Z AUTO 00000KT 7SM -RA OVC070 10/10 A2954 RMK AO2 P0003 T01020102", "KTNU 300955Z AUTO 31013G23KT 10SM SCT065 04/04 A2965 RMK A01", "KTOB 300955Z AUTO 32018G26KT 10SM SCT039 BKN050 OVC065 04/M02 A2958 RMK AO2", "KTOC 300955Z AUTO 00000KT 4SM -RA BR SCT007 BKN070 OVC085 15/15 A2951 RMK AO2 P0006 T01520149", "KTOI 300953Z AUTO 25009G22KT 5SM -RA BR FEW009 BKN012 OVC020 16/13 A2958 RMK AO2 RAB15 SLP012 P0008 T01560133", "KTOL 301000Z 26003KT 5SM -RA BR BKN028 OVC035 08/06 A2945 RMK AO2 P0001 T00780061", "KTOP 300953Z AUTO 31008KT 10SM CLR 08/02 A2985 RMK AO2 SLP103 T00830017", "KTOR 300953Z AUTO 02005KT 10SM FEW120 04/M05 A3010 RMK AO2 SLP170 T00441050", "KTPA 300953Z 23021G34KT 9SM SCT021 BKN034 OVC046 24/22 A2963 RMK AO2 PK WND 22038/0925 RAB18E44 TSB22E49 SLP034 OCNL LTGIC DSNT NE CB DSNT NE P0009 T02440217", "KTPF 300955Z AUTO 25015G27KT 7SM SCT023 SCT041 OVC110 25/21 A2965 RMK AO2", "KTPH 300956Z AUTO A3006 RMK AO2 SLPNO PWINO $", "KTPL 300951Z AUTO 00000KT CLR 09/07 A2991 RMK AO2 SLP123 T00940067 PWINO RVRNO $", "KTQE 300954Z AUTO 32012KT 10SM CLR 04/01 A2985 RMK AO2 SLP104 T00440006", "KTQH 300955Z AUTO 00000KT 10SM CLR 05/03 A2983 RMK AO2", "KTQK 300955Z AUTO 02013KT 10SM OVC100 09/M01 A3001 RMK AO2 T00901005", "KTQV 300955Z AUTO 14005KT 9SM SCT021 OVC028 17/16 A2950 RMK A01", "KTRI 300953Z 00000KT 5SM -RA BR BKN048 BKN060 OVC075 14/13 A2951 RMK AO2 SLP971 P0006 T01390133", "KTRK 301000Z AUTO 00000KT 10SM CLR 02/00 A3011 RMK AO2 TSNO", "KTRL 300953Z AUTO 00000KT 10SM CLR 09/07 A2984 RMK AO2 SLP102 T00940072", "KTRM 300952Z AUTO 00000KT 9SM CLR 21/07 A2974 RMK AO2 SLP082 T02060072 $", "KTSP 300955Z AUTO 30003KT 10SM CLR 11/07 A3004 RMK AO2", "KTTA 300945Z AUTO 00000KT 2 1/2SM RA SCT015 SCT020 OVC039 16/16 A2949 RMK AO2 VIS 3/4V5 P0019 T01560156", "KTTD 300953Z AUTO 20009KT 10SM CLR 15/04 A2995 RMK AO2 SLP141 T01500044 $", "KTTF 300955Z AUTO 26006KT 5SM -RA SCT030 SCT035 OVC043 07/07 A2944 RMK AO2 T00730067 P0002", "KTTN 300953Z 05006KT 3/4SM BR VV002 10/10 A2969 RMK AO2 SLP047 T01000100", "KTTS 300955Z AUTO 21010KT 10SM SCT050 BKN075 M A2960 RMK AO2 SLPNO ALSTG ESTMD $", "KTUL 300953Z 00000KT 10SM CLR 08/07 A2984 RMK AO2 SLP102 T00830067", "KTUP 300953Z AUTO VRB04KT 10SM CLR 14/11 A2964 RMK AO2 SLP036 T01390111 $", "KTUS 300953Z 18005KT 10SM CLR 18/M06 A2995 RMK AO2 SLP097 T01781061", "KTVC 300953Z AUTO 19005KT 10SM OVC015 06/04 A2933 RMK AO2 RAB02E20 SLP933 P0001 T00610039", "KTVF 300956Z AUTO 35015KT 10SM CLR 02/M02 A2993 RMK AO2 SLP146 T00221017 FZRANO", "KTVI 300955Z AUTO 30010G14KT 10SM BKN013 BKN020 OVC027 17/16 A2957 RMK AO2 LTG DSNT N", "KTVK 300955Z AUTO 30014G20KT 10SM CLR 05/04 A2968 RMK AO2", "KTVL 300953Z AUTO 00000KT 10SM CLR 02/M01 A3010 RMK AO2 SLP153 T00171011", "KTVR 300953Z AUTO 00000KT 10SM CLR 11/10 A2978 RMK AO2 SLP090 T01110100 $", "KTVY 300955Z AUTO 21006KT 10SM CLR 12/M04 A3001 RMK AO2", "KTWF 300953Z 20012KT 10SM CLR 13/M03 A2994 RMK AO2 SLP086 T01281028", "KTWM 300955Z AUTO 34013G22KT 301V011 10SM SCT047 OVC060 02/00 A2953 RMK AO2", "KTWT 300955Z AUTO 30006KT 10SM CLR 08/05 A2963 RMK AO2", "KTXK 300953Z AUTO 22004KT 10SM CLR 11/08 A2982 RMK AO2 SLP093 T01060078", "KTXW 300955Z AUTO 23004KT 10SM CLR 15/09 A2999 RMK AO2 T01500094", "KTYL 300955Z AUTO 19005KT 10SM CLR 04/M07 A3014 RMK AO2", "KTYQ 300955Z AUTO 25005KT 10SM SCT023 04/04 A2953 RMK AO2 T00420036", "KTYR 300953Z AUTO 23004KT 10SM CLR 11/08 A2985 RMK AO2 SLP104 T01060078", "KTYS 300953Z 14003KT 9SM SCT045 BKN150 14/13 A2948 RMK AO2 SLP974 T01440133 $", "KTZR 300955Z AUTO 19003KT 5SM BR CLR 08/08 A2945 RMK AO2 T00810078", "KU42 300955Z AUTO 19007KT 10SM CLR 14/M03 A3003 RMK AO1 T01361035", "KU55 300955Z AUTO 15008KT 10SM FEW037 SCT044 SCT050 02/M05 A3021 RMK A01", "KU64 300955Z AUTO 25009KT 10SM CLR 08/M09 A3016 RMK AO2 T00791091 $", "KU68 300955Z AUTO 25004KT 10SM CLR 06/M01 A3003 RMK AO2", "KU69 300955Z AUTO 27012KT 10SM CLR 08/M04 A3011 RMK A01", "KUAO 300953Z AUTO 20005KT 10SM OVC120 11/06 A2997 RMK AO2 SLP147 T01110061", "KUBE 300955Z AUTO 33015G20KT 1 3/4SM -SN OVC008 01/01 A2953 RMK AO2", "KUCP 300956Z AUTO 14005KT 10SM FEW049 OVC060 11/10 A2949 RMK AO2 SLP999 T01110100", "KUCY 300955Z AUTO 33008KT 10SM BKN050 BKN060 09/07 A2965 RMK A01", "KUDG 300956Z AUTO 16004KT 7SM -RA BKN003 OVC007 A2947 RMK AO2 RAB01E19B40 CIG 003V006 SLPNO FZRANO PNO $", "KUES 300955Z AUTO 26013G18KT 10SM SCT015 BKN022 OVC027 03/01 A2941 RMK AO2", "KUGN 300951Z AUTO 25007KT 10SM FEW035 SCT050 04/02 A2944 RMK AO2 SLP971 T00440022", "KUIL 300953Z AUTO 15006KT 10SM OVC009 09/08 A2992 RMK AO2 CIG 008V011 SLP131 T00940078", "KUIN 300954Z AUTO 25007KT 10SM BKN039 OVC050 06/04 A2963 RMK AO2 SLP032 T00560044", "KUKF 300945Z AUTO 00000KT 10SM -RA SCT070 OVC090 12/12 A2958 RMK AO2 P0003", "KUKI 300956Z AUTO 00000KT 10SM CLR 10/04 A2996 RMK AO2 SLP140 T01000044", "KUKL 300955Z AUTO 30008KT 10SM CLR 05/01 A2986 RMK AO2 T00510012", "KUKT 300955Z AUTO 06006KT 2SM BR OVC003 10/10 A2968 RMK A01", "KULM 300955Z AUTO 32018G24KT 10SM CLR 03/M01 A2971 RMK AO2", "KULS 300950Z AUTO 36006KT 10SM CLR 07/03 A2997 RMK AO2", "KUMP 300955Z AUTO 26003KT 10SM CLR 06/06 A2954 RMK AO2 T00550055", "KUNI 300955Z AUTO 16005KT 10SM BKN070 OVC085 12/10 A2948 RMK AO2 T01150102", "KUNO 300953Z AUTO 27004KT 10SM CLR 05/02 A2974 RMK AO2 SLP066 T00500017", "KUNU 300955Z AUTO 29009KT 5SM DZ OVC013 03/02 A2941 RMK AO2 T00250016", "KUNV 300953Z 02004KT 7SM RA SCT014 BKN050 OVC080 11/11 A2958", "KUOX 300955Z AUTO 30006KT 10SM CLR 12/10 A2969 RMK AO2", "KUSE 300955Z AUTO 26008G15KT 7SM -RA FEW015 BKN027 OVC032 07/07 A2945 RMK AO2", "KUTA 300955Z AUTO 30008KT 10SM CLR 12/10 A2970 RMK AO2 T01240103 $", "KUTS 300953Z AUTO 00000KT 10SM CLR 11/08 A2989 RMK AO2 SLP120 T01110083", "KUUU 300953Z AUTO 10009KT 5SM -RA BR OVC004 11/11 A2976 RMK AO2 SLP078 P0002 T01110106", "KUUV 300955Z AUTO 25005KT 10SM CLR 04/03 A2970 RMK AO2", "KUVA 300955Z AUTO 00000KT 10SM CLR 11/03 A3001 RMK AO2 T01070027", "KUXL 300955Z AUTO 27003KT 10SM CLR 12/11 A2989 RMK AO2 T01150106", "KUYF 300955Z AUTO 20004KT 1 1/4SM BR OVC002 08/07 A2944 RMK AO2", "KUZA 301003Z AUTO 00000KT 4SM -RA BR FEW004 BKN027 OVC034 16/16 A2948 RMK AO2 P0000 T01560156", "KVAD 301001Z AUTO 25009KT 10SM SCT006 BKN010 BKN017 19/18 A2951 RMK AO2 CIG 006V010 BKN010 V OVC CIG 006 RWY36 SLP994 $", "KVAF 300955Z AUTO 00000KT 10SM CLR 22/09 A2995 RMK A01", "KVAY 301004Z AUTO 06003KT 1SM BR VV003 12/11 A2967 RMK AO2 T01170111 $", "KVBG 300955Z AUTO 33008KT 1/2SM R30/2600V3500FT FG VV000 10/10 A2998 RMK AO2 SLP155 T00950095 TSNO $", "KVBT 300956Z AUTO 00000KT 10SM CLR 06/04 A2982 RMK AO2 SLP098 T00610044", "KVBW 300955Z AUTO 00000KT 10SM OVC070 14/14 A2952 RMK AO1 P0003 T01360136", "KVCB 300953Z AUTO 19003KT 10SM CLR 13/05 A2987 RMK AO2 SLP114 T01280050", "KVCT 300951Z AUTO 24006KT 10SM CLR 13/10 A2994 RMK AO2 SLP138 T01330100", "KVCV 300955Z AUTO 16005KT 10SM CLR 16/02 A2999 RMK AO2", "KVDF 300955Z AUTO 23015G27KT 7SM SCT017 BKN027 OVC032 26/23 A2963 RMK AO2", "KVDI 300955Z AUTO 21006KT 10SM -RA BKN006 BKN034 OVC100 20/18 A2948 RMK AO2 LTG DSNT NW", "KVEL 300953Z AUTO 00000KT 10SM CLR 07/M02 A3008 RMK AO2 SLP146 T00671017", "KVER 300955Z AUTO 27006KT 10SM CLR 08/04 A2971 RMK AO2 T00770041", "KVES 300950Z AUTO 30006G15KT 7SM RA SCT007 BKN018 OVC037 05/05 A2949 RMK AO2", "KVGC 300955Z AUTO 15008KT 10SM DZ SCT065 SCT075 08/07 A2966 RMK AO2", "KVGT 300953Z AUTO 01005KT 10SM CLR 22/M04 A2985 RMK AO2 SLP101 T02221044", "KVHN 300955Z AUTO 24009KT 10SM CLR 12/M07 A3011 RMK AO2 T01211075", "KVIH 300953Z AUTO 23008KT 10SM CLR 03/02 A2969 RMK AO2 SLP053 T00330017", "KVIS 300956Z AUTO 30005KT 10SM CLR 19/13 A2987 RMK AO2 SLP117 T01890128", "KVJI 300955Z AUTO 00000KT 7SM DZ OVC070 13/12 A2953 RMK AO2 P0002 T01250124", "KVKS 300955Z AUTO 00000KT 10SM CLR 12/12 A2977 RMK A01", "KVKY 300955Z AUTO 31028KT 10SM FEW024 BKN033 BKN041 A2974 RMK A01", "KVLD 300953Z AUTO VRB04KT 10SM BKN020 BKN028 BKN035 19/18 A2953 RMK AO1 SLP006 T01940183", "KVLL 300955Z AUTO 00000KT 10SM BKN070 OVC080 07/05 A2944 RMK AO2 T00660051", "KVNC 300955Z AUTO 17011G21KT 6SM TS FEW035 BKN065 OVC075 22/21 A2970 RMK AO2 LTG DSNT ALQDS P0011", "KVNW 300955Z AUTO 25006KT 10SM -RA OVC026 06/05 A2950 RMK AO2 P0001", "KVNY 300951Z AUTO 13004KT 3SM BR OVC004 13/11 A2993 RMK AO2 SLP128 T01330111", "KVOA 300955Z AUTO 30033KT 10SM SCT023 BKN032 BKN065 20/15 A2970 RMK A01", "KVOK 300955Z AUTO 28014KT 10SM -RA OVC009 02/01 A2942 RMK AO2 SLP972 P0002 T00200010", "KVPC 300955Z AUTO 00000KT 4SM -RA BR FEW045 SCT055 OVC070 15/14 A2951 RMK AO2", "KVPS 300955Z AUTO 28008KT 10SM SCT011 15/14 A2965 RMK AO2 SLP047 T01520142 $", "KVPZ 300956Z AUTO 26005KT 10SM FEW039 OVC070 05/02 A2949 RMK AO2 SLP987 T00500017", "KVQQ 300955Z AUTO 26011G23KT 1 3/4SM +RA SCT004 BKN020 OVC032 20/20 A2954 RMK AO2 LTG DSNT E AND SE VIS 1V4", "KVRB 300953Z AUTO 20007KT 10SM FEW030 FEW036 24/21 A2968 RMK AO2 SLP050 T02440206", "KVSF 300954Z AUTO 03003KT 3SM -RA BR OVC015 08/06 A2986 RMK AO2 SLP115 P0002 T00780061", "KVTA 301003Z AUTO 18004KT 10SM BKN027 OVC037 11/09 A2945 RMK AO2 T01110094", "KVTI 300955Z AUTO 29008G15KT 10SM OVC085 06/02 A2958 RMK AO2 T00550023", "KVTN 300952Z AUTO 31007KT 10SM CLR 01/M05 A3005 RMK AO2 SLP182 T00111050", "KVTP 300955Z AUTO 27008KT 10SM CLR 03/M09 A3023 RMK AO2", "KVUJ 300945Z AUTO 00000KT 5SM -RA SCT050 BKN070 BKN090 16/16 A2953 RMK AO2 P0015 T01600158", "KVVS 300950Z AUTO 11004KT 10SM SCT036 OVC046 13/11 A2950 RMK AO2 T01280113", "KVVV 300955Z AUTO 33016G21KT 10SM CLR 02/01 A2987 RMK AO2", "KVWU 300955Z AUTO 35009G15KT 10SM CLR 03/M02 A2983 RMK AO2", "KVYS 300955Z AUTO 26008KT 10SM SCT085 05/02 A2952 RMK AO2 T00510019", "KW13 300955Z AUTO 00000KT 10SM SCT012 OVC070 15/15 A2954 RMK AO1 P0001 T01480147", "KW22 300955Z AUTO 20004KT 10SM FEW060 BKN075 OVC100 11/11 A2949 RMK AO2", "KW29 300945Z AUTO 00000KT 10SM OVC014 15/ A2957 RMK AO2 LTG DSNT SE T0150////", "KW31 300955Z AUTO 00000KT 7SM BKN070 OVC080 15/15 A2951 RMK AO1 T01530153", "KW40 300945Z AUTO 14005KT 7SM OVC005 18/18 A2951 RMK AO2 T01800175", "KW43 300955Z AUTO 00000KT 10SM CLR 03/M07 A3013 RMK AO2", "KW63 300955Z AUTO 00000KT 7SM OVC100 17/17 A2951 RMK AO1", "KW75 300955Z AUTO 12005KT 10SM OVC004 16/16 A2954 RMK AO1 T01610155", "KW78 300955Z AUTO 00000KT 7SM BKN021 BKN030 OVC120 16/16 A2952 RMK AO1 T01620155", "KW81 300955Z AUTO 00000KT 10SM OVC095 16/15 A2951 RMK AO1 T01600146", "KW96 300955Z AUTO 12005KT 4SM OVC003 16/16 A2952 RMK AO1 P0010 T01630163", "KWAL 300954Z AUTO 11008KT 9SM OVC003 16/15 A2958 RMK AO2 RAE0859 SLP014 P0000 T01610150", "KWBF 300955Z AUTO VRB03KT 9SM FEW028 SCT035 OVC050 21/14 A2987 RMK A01", "KWDG 300955Z AUTO 31003KT 10SM CLR 06/04 A2988 RMK AO2", "KWDR 300955Z AUTO 00000KT 7SM -VCTSRA BKN003 OVC011 15/14 A2948 RMK AO2 LTG DSNT SE", "KWJF 300956Z AUTO 00000KT 10SM CLR 14/04 A2993 RMK AO2 SLP117 T01390039", "KWLD 300954Z AUTO 30003KT 10SM CLR 06/02 A2989 RMK AO2 SLP117 T00610022 $", "KWMC 300956Z AUTO 16007KT 10SM CLR 07/M01 A2999 RMK AO2 SLP119 T00721011", "KWRB 300955Z 15004KT 10SM FEW005 FEW014 BKN095 17/17 A2944 RMK AO2A LTG DSNT N DZB12E16RAB16E40 SLP970 P0012 T01740174", "KWRI 300927Z 10006KT 2SM BR OVC002 11/11 A2968 RMK AO2A SLP050", "KWRL 300953Z AUTO 19005KT 10SM CLR 05/00 A3003 RMK AO2 SLP151 T00500000", "KWST 300953Z AUTO 06008KT 4SM BR OVC004 12/11 A2975 RMK AO2 SLP073 T01170111", "KWVI 300953Z AUTO 14004KT 3/4SM BR VV002 09/09 A2999 RMK AO2 SLP155 T00940094", "KWVL 300956Z AUTO VRB03KT 8SM -RA FEW042 OVC060 06/04 A3001 RMK AO2 RAB05 SLP191 P0003 T00560039", "KWWD 300956Z AUTO 08006KT 10SM SCT003 BKN055 OVC090 13/13 A2964 RMK AO2 SLP037 T01280128 $", "KWWR 300955Z AUTO 00000KT 10SM CLR 07/03 A2997 RMK AO2", "KX07 300955Z AUTO 27005KT 1 1/2SM BR SCT004 OVC022 21/21 A2964 RMK A01 P0002", "KX26 300950Z AUTO 19010KT 10SM SCT037 24/21 A2967 RMK AO2 TSNO T02430213", "KX60 300955Z AUTO 5SM BR SCT009 OVC012 20/19 RMK AO2 P0002 PWINO TSNO T02040192", "KXBP 300950Z AUTO 27005KT 10SM CLR 12/05 A2988 RMK AO2 T01190054", "KXLL 300955Z AUTO 05009KT 1 3/4SM RA OVC003 10/10 A2970 RMK AO2 P0001", "KXMR 300955Z AUTO 20010KT 10SM FEW080 23/20 A2961 RMK AO2 SLP030 T02320203 $", "KXNA 300953Z AUTO 25004KT 10SM CLR 06/03 A2980 RMK AO2 SLP086 T00610033", "KXNO 300955Z AUTO 21003KT 10SM -DZ OVC006 19/19 A2945 RMK AO2 SLP973 P0000 T01870187 $", "KXNX 300955Z AUTO 00000KT 7SM BKN013 BKN027 11/11 A2959 RMK A01", "KXSA 300955Z AUTO 13003KT 5SM RA SCT004 BKN021 OVC025 16/16 A2954 RMK AO2 LTG DSNT NE THRU S P0003 T01620162", "KXVG 300953Z AUTO 33008G21KT 10SM OVC033 02/M03 A2974 RMK AO2", "KXWA 300951Z AUTO 00000KT 10SM CLR 02/M04 A3015 RMK AO2 SLP233 T00171039", "KY19 300955Z AUTO 36011KT 10SM CLR M00/M00 A3009 RMK AO2", "KY23 300955Z AUTO 32004KT 4SM RA OVC006 02/02 A2952 RMK AO2 P0004 T00190019", "KY31 300955Z AUTO 00000KT 10SM OVC004 04/03 A2938 RMK AO2 T00360032", "KY49 300955Z AUTO 35014G18KT 10SM SCT028 01/M03 A2978 RMK AO2 T00141033", "KY50 300956Z AUTO 28013KT 10SM BKN012 OVC050 02/01 A2939 RMK AO2 UPB0858E09B37E46RAB09E47 SLP955 P0000 T00220011 FZRANO $", "KY51 300955Z AUTO 31013KT 10SM BKN015 OVC025 03/02 A2947 RMK AO1 T00250023", "KY63 300955Z AUTO 33014KT 10SM CLR 01/01 A2984 RMK AO2 T00110011", "KY70 300955Z AUTO 23007KT 10SM OVC039 05/05 A2942 RMK AO2 T00530046 P0002", "KYIP 300953Z 24007KT 4SM -RA BR BKN036 OVC060 07/05 A2945 RMK AO2 RAB25 SLP969 P0002 T00670050", "KYKM 300953Z AUTO 24006KT 10SM BKN110 16/03 A2980 RMK AO2 SLP083 T01560028 $", "KYKN 300956Z AUTO 31013KT 10SM CLR 03/02 A2990 RMK AO2 SLP143 T00330017", "KYNG 300951Z 14006KT 10SM BKN042 OVC120 11/08 A2947 RMK AO2 SLP977 T01060078", "KZER 300955Z AUTO 12015G20KT 1 1/4SM -RA OVC004 08/08 A2961 RMK AO2", "KZPH 300955Z AUTO 21024G35KT 3 1/2SM +RA BR SCT008 BKN017 OVC022 23/22 A2963 RMK A02 LTG DSNT S P0002 T02320216", "KZZV 300953Z AUTO 00000KT 10SM SCT040 SCT095 BKN120 11/09 A2946 RMK AO2 SLP974 T01110089", "LATI 300950Z 02004KT 310V080 CAVOK 21/10 Q1014 NOSIG", "LBBG 301000Z 24009KT 200V280 9999 FEW039 20/05 Q1012 NOSIG", "LBGO 301000Z AUTO VRB07KT 9999 BKN099/// 18/07 Q1013 NOSIG", "LBIA 301000Z 23006KT 9999 FEW050 SCT100 18/06 Q1013", "LBPD 301000Z AUTO 35008KT 310V030 9999 FEW066/// BKN130/// 21/06 Q1013 NOSIG", "LBPG 301000Z 24004KT 9999 SCT050 BKN100 19/08 Q1013", "LBPL 301000Z 28004KT 9999 FEW050 SCT100 19/08 Q1014", "LBSF 301000Z 33005KT 260V010 9999 FEW033CB SCT052 BKN066 16/06 Q1014 TEMPO 5000 SHRA SCT030CB", "LBWN 301000Z 30014KT 270V350 9999 FEW045 19/03 Q1012 NOSIG", "LCEN 300950Z 16005KT 9999 FEW020 SCT025 21/06 Q1011 NOSIG RMK RWY11 14005KT", "LCLK 301000Z 19018KT 9999 FEW020 SCT050 20/10 Q1012 NOSIG", "LCPH 301000Z 25007KT 230V310 9999 FEW025 21/10 Q1013 NOSIG", "LCRA 300950Z 22014KT 9999 FEW030 19/09 Q1012 NOSIG", "LDDU 301000Z 22006KT 170V270 9999 FEW060 18/04 Q1015 NOSIG", "LDLO 301000Z VRB04KT 9999 SCT060 17/12 Q1016", "LDOS 301000Z 35010KT 310V010 9999 SCT033 19/09 Q1016", "LDPL 301000Z 09016KT CAVOK 20/10 Q1016 NOSIG", "LDRI 301000Z 06008KT 020V100 9999 FEW050 22/07 Q1016", "LDSP 301000Z VRB04KT 9999 FEW035 20/11 Q1015 BECMG 23008KT", "LDZA 301000Z 06009KT 320V110 9999 FEW035 17/08 Q1019 NOSIG", "LDZD 301000Z 05008KT 010V090 9999 FEW040 22/11 Q1015 NOSIG", "LEAB 301000Z 32003KT 230V030 CAVOK 21/08 Q1019 NOSIG", "LEAG 301000Z AUTO VRB03KT CAVOK 23/15 Q1015", "LEAL 301000Z 17004KT 100V260 CAVOK 24/14 Q1017 NOSIG", "LEAM 301000Z 21004KT 180V260 CAVOK 22/17 Q1016", "LEAO 301000Z 06007KT 360V110 CAVOK 22/07 Q1019", "LEAS 301000Z 33004KT 270V050 9999 SCT005 BKN015 15/14 Q1023 TEMPO 3000 RA BR BKN005", "LEBA 301000Z 11003KT 050V180 CAVOK 24/12 Q1016", "LEBB 301000Z 27004KT 210V310 9999 SCT010 BKN022 16/15 Q1023 NOSIG", "LEBG 301000Z 05010KT 010V080 9999 BKN025 BKN042 14/08 Q1022", "LEBL 301000Z 10009KT 9999 FEW040 BKN060 21/15 Q1015 NOSIG", "LEBR 301000Z AUTO 33018G29KT 300V360 9999 NCD 19/08 Q1020", "LEBT 301000Z AUTO VRB05KT CAVOK 27/09 Q1016", "LEBZ 301000Z VRB03KT CAVOK 21/14 Q1018", "LECH 301000Z AUTO 34009G20KT 290V030 CAVOK 24/06 Q1016", "LECO 301000Z VRB02KT 9999 FEW017 BKN020 16/13 Q1023 NOSIG", "LECV 301000Z VRB02KT CAVOK 18/08 Q1021", "LEDA 301000Z 21008KT 180V250 9999 FEW050 20/11 Q1016", "LEGE 301000Z 18001KT 9999 FEW045 22/13 Q1015", "LEGR 301000Z VRB01KT CAVOK 25/10 Q1017", "LEGT 301000Z 03005KT 300V110 CAVOK 20/09 Q1020", "LEHC 301000Z 25007KT 160V320 CAVOK 22/08 Q1017", "LEIB 301000Z 10007KT 060V150 9999 SCT035 24/14 Q1016 NOSIG", "LEJR 301000Z VRB02KT CAVOK 22/14 Q1016", "LELC 301000Z 06006KT 020V110 CAVOK 25/16 Q1017 NOSIG", "LELL 301000Z 12003KT 9999 SCT035 23/13 Q1015", "LELN 301000Z 11004KT 9999 SCT035 16/07 Q1022", "LELO 301000Z AUTO 33007KT 250V060 9999 FEW059 19/08 Q1022", "LEMD 301000Z 06005KT 350V130 CAVOK 21/08 Q1020 NOSIG", "LEMG 301000Z 17004KT 130V240 CAVOK 26/12 Q1015 NOSIG", "LEMH 301000Z 36015KT 310V030 9999 BKN018 20/14 Q1015", "LEMI 301000Z 13004KT 060V160 CAVOK 24/13 Q1017", "LEMO 301000Z 05004KT 340V120 CAVOK 23/13 Q1016 NOSIG", "LEPA 301000Z 05007KT 010V080 9999 SCT024 23/15 Q1016 NOSIG", "LEPP 301000Z 34010KT 290V020 9999 FEW024 BKN032 15/09 Q1021", "LERI 301000Z 04004KT 350V100 CAVOK 25/14 Q1017 NOSIG", "LERS 301000Z 23005KT 140V290 9999 FEW030 24/13 Q1015", "LERT 301000Z VRB04KT CAVOK 22/15 Q1016 NOSIG", "LESA 301000Z 07009KT 030V100 9999 FEW047 17/08 Q1022", "LESB 301000Z AUTO VRB03KT 9999 FEW042/// BKN047/// BKN052/// 23/13 Q1016", "LESO 301000Z 28006KT 220V340 9999 SCT014 BKN020 16/13 Q1023", "LEST 301000Z 36006KT 320V060 9999 BKN014 14/13 Q1023 NOSIG", "LESU 301000Z VRB04KT 9999 SCT055 20/08 Q1017", "LETL 301000Z AUTO 35012KT CAVOK 16/08 Q1020", "LETO 301000Z 06008KT 030V110 CAVOK 20/07 Q1019 NOSIG", "LETU 301000Z AUTO 32013KT 290V350 9999 FEW040 20/09 Q1020", "LEVC 301000Z VRB04KT 9999 FEW055 26/09 Q1016 NOSIG", "LEVD 301000Z 08007KT 030V120 9999 SCT026 SCT035 17/09 Q1022", "LEVS 301000Z 13002KT CAVOK 19/09 Q1020", "LEVT 301000Z 01009KT 340V040 9000 SCT023 SCT028 BKN040 15/09 Q1022", "LEVX 301000Z 04003KT 340V100 9999 FEW015 18/13 Q1022 NOSIG", "LEXJ 301000Z VRB01KT 9999 SCT008 BKN015 15/15 Q1023", "LEZG 301000Z 30021KT 260V320 9999 FEW025 21/10 Q1019", "LEZL 301000Z 05003KT 320V130 CAVOK 25/15 Q1016 NOSIG", "LFAC 301000Z AUTO 11006KT 070V150 CAVOK 15/09 Q1022", "LFAQ 301000Z AUTO 07007KT 040V110 9999 SCT030 16/10 Q1021 NOSIG", "LFAT 301000Z AUTO 11006KT 060V150 CAVOK 16/10 Q1022 NOSIG", "LFBA 301000Z AUTO 28010KT 9999 OVC010 16/14 Q1019 BECMG SCT020 BKN045", "LFBC 301000Z AUTO 30010KT 270V330 9999 BKN013 OVC045 17/14 Q1021", "LFBD 301000Z AUTO 34007KT 310V030 9999 FEW034 20/11 Q1020 TEMPO SCT020TCU BKN025", "LFBE 301000Z AUTO 30006KT CAVOK 20/13 Q1019 TEMPO SCT020TCU BKN030", "LFBF 301000Z AUTO 29009KT 9999 OVC010 15/13 Q1020", "LFBG 301000Z AUTO 35007KT 300V030 9999 FEW030 18/11 Q1020", "LFBH 301000Z AUTO 30005KT 9999 FEW047 18/13 Q1020 TEMPO 27015G25KT 3000 SHRA BKN020CB", "LFBI 301000Z AUTO 02007KT 330V040 CAVOK 16/09 Q1020 NOSIG", "LFBL 301000Z AUTO 35009KT 300V030 CAVOK 15/09 Q1019 NOSIG", "LFBM 301000Z AUTO 28009KT 220V310 9999 SCT018 BKN030 OVC036 18/14 Q1021 TEMPO 2500 SHRA SCT020TCU", "LFBO 301000Z AUTO 28015KT 8000 OVC007 15/13 Q1019 TEMPO SCT025TCU", "LFBP 301000Z AUTO 27009KT 9999 FEW009 BKN014 OVC028 15/13 Q1021 BECMG BKN020", "LFBT 301000Z AUTO 27010KT 240V300 9999 BKN010 BKN016 BKN023 14/12 Q1021 TEMPO SCT020TCU", "LFBU 301000Z AUTO 35009KT 300V010 9999 FEW025 SCT140 17/10 Q1020 NOSIG", "LFBX 301000Z AUTO 29008KT 260V330 CAVOK 20/11 Q1018", "LFBY 301000Z AUTO 29007KT 240V320 9999 // ////// 17/12 Q1021", "LFBZ 301000Z AUTO 29013KT 9999 SCT013 BKN020 OVC026 16/12 Q1022 NOSIG", "LFCK 301000Z AUTO 27006G20KT 9999 BKN008/// OVC015/// ///TCU 14/13 Q1019 TEMPO 4000 -DZ BECMG BKN030", "LFCR 301000Z AUTO 30012KT 9999 FEW021 BKN088 16/11 Q1018 TEMPO SCT025TCU", "LFGA 301000Z AUTO 02010KT 350V050 9999 FEW031 SCT038 16/09 Q1018", "LFGJ 301000Z AUTO 02003KT 350V070 9999 BKN025 15/11 Q1017 NOSIG", "LFHP 301000Z AUTO 26007KT 230V310 9999 BKN019 OVC110 12/08 Q1017", "LFJL 301000Z AUTO 09013KT 9999 SCT041/// BKN048/// 15/06 Q1020 NOSIG", "LFJR 301000Z AUTO 06003KT 350V140 CAVOK 16/10 Q1021", "LFKB 301000Z AUTO 08004KT 050V120 9999 FEW016 BKN030 OVC038 18/14 Q1012 TEMPO 3500 BR BKN005 SCT030CB", "LFKC 301000Z AUTO 33012KT 300V360 9999 BKN078 19/14 Q1011 TEMPO 3000 SHRA BKN008 SCT025CB", "LFKF 301000Z AUTO 06015KT 9999 BKN020 BKN033 BKN042 20/14 Q1011 TEMPO 4000 SHRA BKN010 FEW030CB", "LFKJ 301000Z AUTO 23004KT 190V260 9999 -RA OVC027 18/15 Q1011 TEMPO 36010KT 4000 SHRA BKN010 SCT030CB", "LFKS 301000Z AUTO 03005KT 9999 OVC033 18/14 Q1012", "LFLB 301000Z AUTO 36012KT 9999 OVC037 14/11 Q1016 NOSIG", "LFLC 301000Z AUTO 06007KT 030V090 9999 SCT021 BKN029 BKN130 15/10 Q1018 NOSIG", "LFLH 301000Z AUTO 01009KT 330V030 9999 BKN029 BKN160 16/10 Q1017", "LFLL 301000Z 02007KT 350V060 9999 BKN019 13/09 Q1017 NOSIG", "LFLN 301000Z AUTO 27008KT 9999 FEW027 BKN033 15/09 Q1018 NOSIG", "LFLP 301000Z AUTO 33005KT 300V360 9999 OVC031 14/10 Q1017 NOSIG", "LFLS 301000Z AUTO 34007KT 9999 BKN023 BKN037 12/09 Q1017 NOSIG", "LFLU 301000Z AUTO 01014KT CAVOK 16/10 Q1016", "LFLV 301000Z AUTO 32005KT 260V040 9999 BKN024 OVC029 14/10 Q1018", "LFLW 301000Z AUTO 28009KT 250V310 CAVOK 16/08 Q1017 TEMPO OVC009", "LFLX 301000Z AUTO 02007KT 340V060 9999 SCT027 15/09 Q1020 NOSIG", "LFLY 301000Z AUTO 36008KT 330V030 9999 OVC023 14/10 Q1017 NOSIG", "LFMC 301000Z AUTO VRB03KT 9999 ////// 18/14 Q1013", "LFMD 301000Z AUTO VRB01KT 9999 -RA BKN021/// BKN026/// OVC040/// ///TCU 19/14 Q1013 TEMPO RA", "LFMH 301000Z AUTO 33007KT 290V020 9999 BKN022 BKN028 OVC160 14/09 Q1018", "LFMI 301000Z AUTO 36012KT 9999 FEW022/// BKN170/// BKN190/// ///TCU 19/10 Q1014 BECMG SCT030 BKN100", "LFMK 301000Z AUTO 29010KT 9999 BKN014 OVC021 16/14 Q1018 TEMPO 4000 -DZ BECMG SCT035", "LFML 301000Z AUTO 04005KT 9999 ///TCU 18/14 Q1014 TEMPO 4500 SHRA", "LFMN 301000Z VRB03KT 9999 -RA FEW031 FEW036TCU BKN060 17/15 Q1013 NOSIG", "LFMO 301000Z AUTO 35015KT 320V020 CAVOK 18/10 Q1014 BECMG 34010G25KT", "LFMP 301000Z AUTO 31023G33KT 9999 FEW028 SCT110 BKN140 20/12 Q1016 NOSIG", "LFMT 301000Z AUTO 09007KT CAVOK 22/15 Q1014 BECMG 16010KT", "LFMU 301000Z AUTO 27013KT 240V300 CAVOK 22/16 Q1015 BECMG 28018G28KT", "LFMV 301000Z AUTO 35013KT CAVOK 18/10 Q1014 TEMPO 35015G25KT", "LFMY 301000Z AUTO 32006KT 280V020 9999 FEW026/// ///CB 19/11 Q1014 BECMG NSC", "LFOA 301000Z AUTO 02010KT CAVOK 15/08 Q1019", "LFOB 301000Z AUTO 08008KT 040V120 CAVOK 16/10 Q1021 NOSIG", "LFOE 301000Z AUTO 11005KT 060V170 9999 FEW032 15/08 Q1021 NOSIG", "LFOH 301000Z AUTO 13007KT 070V180 9999 SCT027 BKN230 15/07 Q1021 NOSIG", "LFOJ 301000Z AUTO 03005KT 360V080 9999 BKN026 BKN210 15/09 Q1020 NOSIG", "LFOK 301000Z AUTO 06013KT 040V100 8000 FEW029 15/08 Q1020 NOSIG", "LFOP 301000Z AUTO 06006KT 030V100 9999 FEW037 SCT230 14/06 Q1021 NOSIG", "LFOT 301000Z AUTO 05003KT 330V110 9999 SCT027 BKN160 15/10 Q1020 NOSIG", "LFOV 301000Z AUTO 14003KT 070V240 9999 BKN023 15/11 Q1021", "LFOZ 301000Z AUTO 09008KT 060V130 9999 FEW033 15/08 Q1020", "LFPB 301000Z AUTO 06006KT 020V100 CAVOK 16/09 Q1021 NOSIG", "LFPG 301000Z 07007KT 030V100 9999 FEW025 BKN260 15/09 Q1021 NOSIG", "LFPM 301000Z AUTO 05005KT 360V130 9999 FEW023 16/10 Q1020", "LFPN 301000Z AUTO 02006KT 300V100 9999 FEW032 15/09 Q1020 NOSIG", "LFPO 301000Z AUTO 04005KT 300V090 9999 FEW029 16/09 Q1020 NOSIG", "LFPT 301000Z AUTO 08007KT 040V110 CAVOK 16/09 Q1021", "LFPV 301000Z AUTO 02004KT 330V090 9999 FEW029 15/08 Q1020 NOSIG", "LFQA 301000Z AUTO 08010KT CAVOK 16/09 Q1020", "LFQB 301000Z AUTO 06008KT 020V100 9999 BKN024 15/09 Q1019", "LFQG 301000Z AUTO 32006KT 280V020 9999 FEW024 SCT030 15/10 Q1019", "LFQQ 301000Z AUTO 08008KT 040V110 9999 FEW033 16/07 Q1022 NOSIG", "LFRB 301000Z AUTO 31005KT 270V340 9999 OVC005 13/12 Q1022 TEMPO 3000 SHRA BKN008 BKN015CB", "LFRC 301000Z AUTO 12006KT 090V160 9999 ///TCU 13/10 Q1021 TEMPO 4000 SHRA BKN008 BKN015CB", "LFRD 301000Z AUTO 31005KT 8000 OVC005/// ///TCU 12/12 Q1021 TEMPO 3000 SHRA BKN008 BKN015CB", "LFRG 301000Z AUTO 14007KT 9999 SCT027 14/08 Q1021 NOSIG", "LFRH 301000Z AUTO 32006KT 280V350 9999 BKN016 BKN048 BKN150 16/13 Q1021 TEMPO 4000 SHRA SCT012CB BKN020", "LFRI 301000Z AUTO VRB03KT CAVOK 18/10 Q1020 TEMPO 29015G25KT 3000 SHRA BKN020CB", "LFRJ 301000Z AUTO 29005KT 250V330 9999 BKN004 OVC008 12/12 Q1022", "LFRK 301000Z AUTO 13005KT 9999 OVC027 14/09 Q1021 NOSIG", "LFRL 301000Z AUTO 28005KT 7000 OVC003 12/12 Q1022", "LFRM 301000Z AUTO 36004KT 270V050 CAVOK 15/08 Q1021 NOSIG", "LFRN 301000Z AUTO 31004KT 290V350 9999 SCT012/// OVC094/// ///TCU 15/12 Q1021 TEMPO VRB15G25KT 1200 TSRAGS BKN008 BKN015CB", "LFRO 301000Z AUTO 28007KT 9999 OVC007 13/12 Q1021", "LFRQ 301000Z AUTO 31008KT 9999 OVC009 14/12 Q1022 TEMPO 3000 SHRA BKN008 BKN015CB", "LFRS 301000Z AUTO VRB02KT 9999 -RA FEW028/// SCT056/// OVC084/// ///TCU 17/11 Q1020 TEMPO 4000 -SHRA SCT020CB", "LFRT 301000Z AUTO 30005KT 260V330 9999 BKN009 OVC014 13/11 Q1021", "LFRU 301000Z AUTO 30005KT 9999 OVC004 13/12 Q1021", "LFRV 301000Z AUTO 35005KT 320V020 9999 FEW007 BKN039 OVC120 16/14 Q1020", "LFRZ 301000Z AUTO 30004KT 250V020 9999 BKN011 BKN034 16/16 Q1021 BECMG SCT030TCU BKN110", "LFSB 301000Z AUTO 01005KT 260V050 9999 FEW024 BKN049 BKN200 16/09 Q1017 NOSIG", "LFSD 301000Z AUTO 03010KT 350V050 9999 OVC025 15/09 Q1017", "LFSG 301000Z AUTO 05009KT 010V070 9999 BKN028 OVC033 14/08 Q1018", "LFSI 301000Z AUTO 06014KT 9999 BKN038 16/07 Q1019", "LFSL 301000Z AUTO 33010KT CAVOK 19/08 Q1018 NOSIG", "LFSM 301000Z AUTO 06009KT 030V090 9999 BKN027 BKN190 BKN210 15/09 Q1017", "LFSN 301000Z AUTO 07016KT 040V100 CAVOK 16/08 Q1019", "LFSO 301000Z AUTO 06013KT 020V090 9999 FEW037 SCT230 16/07 Q1019", "LFST 301000Z AUTO 04013KT 9999 FEW041 18/09 Q1019 NOSIG", "LFTH 301000Z AUTO VRB01KT 9999 -DZ SCT036 BKN043 BKN050 18/16 Q1013 TEMPO 4500 SHRA SCT030TCU", "LFTW 301000Z AUTO 01009KT 330V050 CAVOK 21/11 Q1014 NOSIG", "LFVP 301000Z AUTO 33012KT CAVOK 05/M03 Q1022 NOSIG", "LFYR 301000Z AUTO 06007KT 350V100 9999 FEW029 15/08 Q1020", "LGAD 300950Z VRB03KT 9999 FEW025 BKN080 20/12 Q1015", "LGAL 300950Z 22010KT 9999 FEW025 18/13 Q1014", "LGAV 300950Z 10007KT 050V120 9999 FEW020 SCT030 BKN070 18/12 Q1015", "LGBL 300950Z 09008KT 9999 FEW030 20/11 Q1014", "LGEL 300950Z 17005KT 9999 FEW015 SCT025 BKN070 20/11 Q1014", "LGHI 300950Z VRB02KT CAVOK 18/05 Q1014", "LGIO 300950Z 05003KT 9999 FEW035 SCT080 18/10 Q1015", "LGIR 300950Z 05004KT 9999 FEW020 BKN080 20/12 Q1016 NOSIG", "LGKC 300950Z 14006KT 9999 FEW020 17/13 Q1016", "LGKF 300950Z 16005KT 9999 DZ FEW016 SCT025 BKN070 17/14 Q1015", "LGKL 300950Z 16004KT 9999 FEW030 BKN080 18/12 Q1015", "LGKO 300950Z 35012KT CAVOK 17/06 Q1014", "LGKP 300950Z 30016KT CAVOK 20/09 Q1014", "LGKR 300950Z 05004KT 9999 SCT015 SCT030 BKN080 19/13 Q1014 NOSIG", "LGKV 300950Z 15006KT 9999 FEW025TCU SCT080 18/11 Q1014", "LGKZ 300950Z AUTO 16005KT 100V240 //// // ////// 19/07 Q1015 RE//", "LGLM 300950Z 16008KT 9999 FEW030 18/09 Q1015", "LGMK 300950Z VRB03KT CAVOK 17/07 Q1015", "LGMT 300950Z 12007KT 9999 FEW025 18/08 Q1015", "LGPA 300950Z VRB02KT 9999 FEW030 17/08 Q1015", "LGPZ 300950Z 24006KT 9999 SCT030 BKN080 19/13 Q1015", "LGRP 300950Z 25011KT CAVOK 19/08 Q1013 NOSIG", "LGRX 300950Z VRB03KT 9999 FEW025 BKN080 20/13 Q1015 RMK SCT180 BLU", "LGSA 300950Z VRB03KT 9999 FEW020 BKN080 18/14 Q1015", "LGSK 300950Z 17004KT 9999 FEW025 18/13 Q1014", "LGSM 300950Z 01007KT 9999 FEW025 19/12 Q1014", "LGSO 300950Z 10007KT 9999 FEW018 17/09 Q1015", "LGSR 300950Z VRB05KT 9999 FEW020 18/10 Q1015", "LGTS 300950Z 30008KT 270V340 9999 FEW030 18/13 Q1014 NOSIG", "LGZA 300950Z 15005KT 9999 FEW018 BKN080 18/14 Q1015", "LHBP 301000Z 33009KT 300V010 9999 SCT047 19/08 Q1016 NOSIG", "LHDC 300945Z AUTO 36008KT 310V060 9999 BKN045 18/08 Q1015 NOSIG", "LHKE 300945Z VRB06KT 9999 FEW033TCU BKN040 18/09 Q1016 NOSIG RMK BLU", "LHPA 300945Z 34014KT 300V040 9999 SCT040TCU 16/08 Q1019 NOSIG RMK BLU", "LHPP 300945Z AUTO 33014KT 310V010 CAVOK 18/09 Q1017", "LHPR 300945Z AUTO 33016KT 310V010 9999 FEW039 16/07 Q1018 NOSIG", "LHSM 300945Z AUTO 35013KT 320V020 9999 SCT036 17/09 Q1019 NOSIG", "LHSN 300945Z 01006KT 310V060 9999 FEW035 18/10 Q1015 NOSIG RMK BLU", "LIBA 300955Z 08005KT 7000 SCT010 BKN030 BKN060 16/14 Q1015", "LIBC 300950Z 03008KT 330V070 9999 FEW025 17/14 Q1015", "LIBD 300950Z 08003KT 020V130 9999 SCT008 BKN035 16/14 Q1015", "LIBF 300950Z VRB01KT 7000 SCT005 BKN015 15/13 Q1015", "LIBG 300950Z 11004KT 9999 FEW030 16/11 Q1015", "LIBN 300955Z 00002KT 9999 SCT035 16/14 Q1015", "LIBP 300950Z AUTO 07006KT 050V110 9999 OVC010/// 17/15 Q1016", "LIBQ 300955Z AUTO VRB03KT //// 14/06 Q1017", "LIBR 300950Z 34005KT 310V010 9999 SCT045 16/13 Q1015", "LIBV 300955Z VRB01KT 6000 SCT007 SCT020 14/13 Q1014", "LIBY 300855Z ///06KT 9999 -RA BKN013 14/12 Q1013 RMK OVC OVC070 QUK 3 QUL 1 SE VIS MAR 10 KM VIS MIN 9999", "LICA 300950Z AUTO 07021KT 9999 NCD 21/09 Q1013", "LICB 300950Z VRB02KT 9999 FEW075/// 22/09 Q1014", "LICC 300950Z 06013KT 9999 SCT110 20/15 Q1013", "LICD 300950Z AUTO 09007KT 9999 FEW028/// 20/18 Q1012", "LICF 300855Z 23009KT 9999 SCT040 21/13 Q1013 RMK BKN BKN080 QUK 3 QUL 1 SW VIS MAR 20 KM MON LIB NC VIS MIN 9999", "LICG 300950Z 09008KT CAVOK 21/15 Q1013", "LICJ 300950Z 18007KT 9999 -RA SCT050 21/14 Q1012", "LICR 300950Z AUTO 24007KT 9999 BKN110/// 19/14 Q1014", "LICT 300955Z 13009KT 9999 -RA SCT025 19/17 Q1012", "LICZ 300955Z /////KT 9999 SCT040 BKN090 20/10 Q1012", "LIEA 300950Z 04006KT 340V080 9999 FEW025 22/17 Q1010", "LIEB 300855Z 04016KT 1200 -RA BR SCT004 BKN025 15/13 Q1010 RMK OVC QUK / QUL / VIS MAR 1200 M MON INVIS VIS MIN 1200", "LIED 300955Z 14007KT 6000 FEW020 SCT040 23/21 Q1009", "LIEE 300950Z 15008KT 9999 SCT015 19/17 Q1010", "LIEO 300950Z 11004KT 5000 -SHRA BKN004 17/16 Q1012", "LIMA 300950Z 35004KT 290V060 5000 BR BKN017 15/12 Q1016", "LIMC 300950Z 09005KT 040V150 9000 SCT035 BKN070 19/12 Q1016 NOSIG", "LIME 300950Z AUTO 14007KT 100V170 9999 FEW030/// 18/12 Q1016", "LIMF 300950Z 34008KT 6000 SCT025 OVC040 15/12 Q1016", "LIMG 300950Z 04005KT 9999 BKN040 19/14 Q1013", "LIMH 300955Z AUTO VRB02KT //// M02/M03 Q1020", "LIMJ 300950Z 25003KT 9999 SCT032 18/15 Q1013", "LIMK 300955Z 01011KT 0100 FG VV/// 12/12 Q1015", "LIML 300950Z 10012KT 9999 FEW030 SCT070 19/11 Q1015 NOSIG", "LIMP 300950Z 09010KT 070V130 7000 SCT030 18/13 Q1015", "LIMS 300955Z 11012KT 7000 SCT025 19/17 Q1014", "LIMU 300955Z 01007KT 9999 BKN025 17/13 Q1024", "LIMZ 300950Z AUTO 33008KT 6000 -RA BKN007/// 15/14 Q1016", "LIPB 300950Z 16003KT 100V210 9999 SCT080 BKN120 19/08 Q1016", "LIPC 300955Z 08006KT 9999 SCT030 18/13 Q1016", "LIPE 300950Z 10008KT 050V130 9999 BKN025 19/13 Q1015", "LIPF 300955Z 15004KT 9999 SCT030 SCT040 21/15 Q1015", "LIPH 300950Z 05006KT 020V080 CAVOK 20/12 Q1016", "LIPI 300955Z 03005KT 9999 FEW040 BKN080 18/12 Q1016", "LIPK 300950Z 05006KT 9999 SCT020 19/13 Q1015", "LIPL 300955Z 12012KT 9999 FEW030 SCT070 19/13 Q1015", "LIPO 300950Z AUTO 09012KT 060V120 9999 FEW047/// SCT084/// 20/12 Q1015", "LIPQ 300950Z AUTO 07008KT 040V110 9999 OVC100/// 21/11 Q1016", "LIPR 300950Z 05008KT 020V090 9999 FEW030 17/14 Q1015", "LIPS 300955Z 09006KT CAVOK 20/12 Q1016", "LIPU 300950Z 01006KT 340V040 8000 BKN045 17/13 Q1016", "LIPX 300950Z 09009KT 9999 SCT080 19/11 Q1016", "LIPY 300950Z AUTO 13005KT 060V210 9999 NCD 20/13 Q1015", "LIPZ 300950Z 01003KT 330V050 9999 FEW050 SCT070 19/14 Q1016 NOSIG", "LIQC 300855Z 05004KT CAVOK 19/14 Q1012 RMK BKN BKN070 QUK 2 QUL 1 NE VIS MAR 15 KM VIS MIN 9999", "LIQN 300950Z 33004KT CAVOK 18/13 Q1013", "LIRA 300950Z 22005KT 180V260 9999 FEW050 21/11 Q1012", "LIRE 300955Z 21006KT CAVOK 20/16 Q1012", "LIRF 300950Z AUTO 14005KT 040V190 9999 BKN100/// BKN180/// 21/13 Q1012", "LIRI 300950Z 07004KT 360V150 CAVOK 22/14 Q1012", "LIRK 300955Z AUTO /////KT //// 06/05 Q1019", "LIRM 300955Z 02010KT 9999 SCT060 21/11 Q1012", "LIRN 300950Z VRB01KT CAVOK 24/13 Q1012 NOSIG", "LIRP 300945Z 10013KT 9999 SCT040 21/11 Q1012 NOSIG", "LIRQ 300950Z 04013KT 9999 FEW040 22/12 Q1012", "LIRS 300955Z VRB02KT 9999 FEW026 20/16 Q1012", "LIRU 300950Z VRB01KT CAVOK 22/13 Q1012", "LIRV 300955Z 01003KT 9999 SCT024 19/14 Q1012", "LIRX 300955Z 00000KT 9999 FEW006 16/14 Q1010", "LIRZ 300950Z AUTO 07010KT 9999 FEW076/// 21/13 Q1012", "LIVC 300955Z AUTO /////KT //// ///// Q////", "LIVD 300955Z AUTO 09009KT //// 15/08 Q1019", "LIVE 300855Z 01003KT 9999 SCT020 09/04 Q1017 RMK BKN SCT080 VIS MIN 9999", "LIVF 300955Z 06004KT 9999 BKN027 15/11 Q1014", "LIVM 300955Z AUTO /////KT //// ///// Q////", "LIVP 300955Z 14011KT 0900 FG VV/// 04/03 Q1019", "LIVR 300955Z 14009KT 9999 OVC010 05/03 Q1019", "LIVT 300955Z AUTO 07009KT 360V120 //// 21/09 Q1015", "LJCE 301000Z 09005KT 010V140 9999 FEW028 BKN092 18/09 Q1019 RMK BLU", "LJLJ 301000Z 14005KT 110V210 9999 SCT026 BKN040 16/09 Q1018 NOSIG", "LJMB 301000Z 03006KT 350V070 9999 BKN027 BKN089 16/08 Q1019", "LJPZ 301000Z 13002KT 9999 FEW065 BKN100 23/11 Q1015", "LKCV 301000Z 31011KT 9999 SCT040 14/06 Q1021 NOSIG RMK BLU BLU", "LKKB 301000Z 32007KT 290V360 9999 BKN029 12/03 Q1022 NOSIG", "LKKU 300900Z 02012KT 9999 FEW033 12/04 Q1020", "LKKV 301000Z VRB04KT 9999 FEW040 12/01 Q1021", "LKLN 301000Z AUTO VRB05KT 9999 FEW044 15/03 Q1022", "LKMT 301000Z 36010KT 9999 BKN039 12/05 Q1020 NOSIG", "LKNA 301000Z 31010KT 9999 FEW028 BKN048 11/05 Q1020 NOSIG RMK BLU BLU", "LKPD 301000Z 30007KT 260V350 9999 SCT048 14/03 Q1021 RMK BLACK", "LKPR 301000Z 34008KT 9999 SCT033 12/04 Q1022 NOSIG", "LKTB 301000Z 34009KT 300V010 9999 FEW048 14/04 Q1020 NOSIG", "LLBG 300950Z 26013KT 9999 SCT045 21/08 Q1014 NOSIG", "LLER 300950Z 36008KT 300V050 CAVOK 24/03 Q1014", "LLHA 300950Z 24013KT 200V280 9999 FEW042 21/09 Q1014", "LLIB 300950Z AUTO 02005KT 310V100 9999 BKN047 18/08 Q1013", "LMML 300945Z 20010KT CAVOK 21/16 Q1013 NOSIG", "LOAN 300900Z 35014KT 9999 FEW020 BKN040", "LOAV 300900Z 35010KT 9999 BKN035 13/08", "LOWG 300950Z 18005KT 120V240 9999 SCT022 BKN080 15/10 Q1019 NOSIG", "LOWI 300950Z 05005KT 330V090 9999 SCT025 BKN065 15/10 Q1018 NOSIG", "LOWK 300950Z 11006KT 060V180 9999 FEW040 SCT050 18/10 Q1017 NOSIG", "LOWL 300950Z AUTO 12005KT 070V230 9999 FEW034 SCT040 BKN070 14/06 Q1021 NOSIG", "LOWS 300950Z 03005KT 350V080 9999 FEW032 BKN065 15/09 Q1020 NOSIG", "LOWW 300950Z 36010KT 9999 FEW034 14/06 Q1020 NOSIG", "LOXZ 300950Z VRB02KT 9999 -SHRA SCT045 SCT070 14/08 Q1019 NOSIG", "LPAZ 301000Z 19026KT 2000 RA BR FEW004 BKN007 18/17 Q1012", "LPBJ 301000Z 34008KT 300V010 CAVOK 21/13 Q1018", "LPCS 301000Z 01019KT 9999 FEW018 20/14 Q1019", "LPFL 301000Z 24011G23KT 170V310 9999 SCT020 16/10 Q1003", "LPFR 301000Z 25008KT 220V290 9999 FEW048 23/15 Q1017", "LPHR 301000Z 24020KT 9999 SCT017 17/14 Q1007", "LPLA 301000Z /////KT 9999 FEW017 SCT020 18/15 Q1008", "LPMA 301000Z 04007KT 9999 FEW013 22/17 Q1021", "LPMR 301000Z 36010KT 9999 SCT010 BKN015 19/15 Q1020", "LPMT 301000Z 36013KT 9999 FEW018 21/15 Q1019", "LPOV 301000Z 32010KT 290V350 CAVOK 19/17 Q1021", "LPPD 301000Z 26007KT 8000 FEW006 SCT011 BKN030 16/15 Q1010 RERA", "LPPR 301000Z 02004KT 350V060 9999 FEW015 19/16 Q1021", "LPPS 301000Z 11008KT 060V140 9999 FEW013 22/17 Q1020", "LPPT 301000Z 34011KT 310V030 9999 FEW020 20/14 Q1019", "LQBK 301000Z 34008KT 9999 FEW030 17/14 Q1018 NOSIG", "LQMO 301000Z VRB02KT 9999 FEW045 22/10 Q1012", "LQSA 301000Z 32003KT 290V360 8000 -RA FEW030 BKN060 14/11 Q1017 NOSIG", "LQTZ 301000Z 29007KT 9999 FEW030 BKN045 17/12 Q1017", "LRAR 301000Z 31008KT 9999 SCT045 19/10 Q1015", "LRBC 301000Z 35011KT 320V020 CAVOK 16/M01 Q1013", "LRBM 301000Z 27015KT CAVOK 17/07 Q1014", "LRBS 301000Z 25007KT 200V290 CAVOK 19/06 Q1013 NOSIG", "LRCK 301000Z 32018KT CAVOK 17/01 Q1012 NOSIG", "LRCL 301000Z 31008KT 9999 SCT048 18/07 Q1014", "LRCV 301000Z 30007KT 270V330 CAVOK 20/07 Q1013", "LRIA 301000Z 33011KT CAVOK 16/01 Q1013", "LROD 301000Z 34005KT 290V060 9999 SCT044 18/08 Q1015", "LROP 301000Z 24004KT 190V300 CAVOK 19/05 Q1013 NOSIG", "LRSB 301000Z 01009KT 9999 SCT045 SCT085 16/05 Q1014 NOSIG", "LRSM 301000Z AUTO 33008KT 9999 NCD 19/05 Q1014", "LRSV 301000Z 05007KT 360V070 CAVOK 15/M00 Q1013", "LRTC 301000Z AUTO 33014KT 9999 NCD 17/M02 Q1011", "LRTM 301000Z 29007KT 260V320 9999 FEW028 FEW030TCU 18/08 Q1013", "LRTR 301000Z 28005KT 250V360 9999 FEW040 19/11 Q1015", "LSGC 300950Z 10006KT 060V170 9999 BKN024 12/08 Q1016", "LSGG 300950Z 04004KT 360V090 9999 FEW018 BKN025 14/09 Q1017 NOSIG", "LSGS 300950Z 26008KT 9999 FEW030 SCT060 15/11 Q1015", "LSMA 300950Z AUTO 08004KT 050V140 9999NDV SCT018 BKN021 OVC042 13/09 Q1017 RMK", "LSMD 300950Z AUTO 10008KT 050V140 9999NDV BKN021 BKN026 13/08 Q1018 RMK", "LSMM 300950Z AUTO 04016G26KT 010V080 9999NDV FEW037 SCT180 13/09 Q1016 RMK", "LSMP 300950Z AUTO 05007KT 010V100 9999NDV FEW020 SCT026 14/10 Q1017 RMK", "LSZA 300950Z VRB03KT 6000 VCSH FEW015 BKN070 17/14 Q1016", "LSZB 300950Z 01005KT 240V060 9999 SCT024 BKN033 14/09 Q1016", "LSZC 300950Z AUTO 21004KT 170V240 9999 BKN020 BKN028 13/10 Q1017", "LSZG 300950Z 08011KT 9999 FEW028 15/10 Q1017", "LSZH 300950Z 06007KT 010V110 9999 FEW025 SCT027 14/08 Q1018 NOSIG", "LSZL 300950Z AUTO VRB02KT 9999NDV SCT072 16/11 Q1016 RMK", "LSZR 300950Z 29005KT 250V330 9999 SCT028 15/10 Q1017 RMK C", "LSZS 300950Z VRB02KT 9999 FEW038 SCT050 10/01 Q1017 RMK I TL170", "LTAC 300950Z 28008KT 230V330 9999 SCT035 BKN100 09/01 Q1013 NOSIG RMK RWY21L 27010KT 230V300 RWY03L 27007KT 230V310 RWY21R 27008KT 230V310", "LTAE 300950Z VRB04KT 9999 SCT035 BKN100 09/01 Q1013 NOSIG RMK RWY21 VRB03KT", "LTAF 300950Z 17005KT 100V220 9999 BKN035 21/10 Q1011 TEMPO TSRA RMK RWY23 VRB05KT 5CU035", "LTAG 300950Z 17008KT 9999 FEW020CB SCT030 19/09 Q1010 TEMPO -TSRA", "LTAI 300950Z VRB03KT 9999 FEW030 22/02 Q1011 NOSIG RMK RWY18C VRB04KT RWY36R VRB04KT RWY18L VRB05KT", "LTAJ 300950Z 26008KT 8000 -SHRA FEW025CB BKN040 11/06 Q1011 RETSRA NOSIG RMK RWY10 VRB06KT 2CB025 5CU040", "LTAN 300950Z 04005KT 310V090 9999 SCT040 BKN100 10/01 Q1014 NOSIG", "LTAP 300950Z 28009KT 9999 SCT040 BKN080 12/04 Q1010 NOSIG RMK RWY23 27010KT", "LTAR 301002Z 26010KT 9999 -SHRA FEW020CB BKN030 05/01 Q1012", "LTAS 300950Z 19012KT 150V220 9999 SCT040 BKN100 14/07 Q1013", "LTAT 300950Z VRB03KT 9999 FEW030TCU BKN035 14/03 Q1012 TEMPO 16015G25KT -TSRA RMK RWY03 11004KT 050V150", "LTAU 300950Z 30005KT 240V350 9999 BKN035 11/02 Q1012 NOSIG RMK RWY07 27006KT 220V330", "LTAY 300950Z VRB02KT CAVOK 13/01 Q1014 NOSIG", "LTAZ 300950Z 27007KT 180V310 9999 BKN035 11/02 Q1013 RMK RWY29 26012KT", "LTBA 300950Z 21011KT 9999 FEW035 15/09 Q1015 RMK RWY23 23012KT", "LTBD 300950Z 22003KT 140V310 CAVOK 19/04 Q1014", "LTBF 300950Z 08003KT 010V150 9999 FEW035 SCT100 18/05 Q1015 NOSIG", "LTBH 300950Z 25008KT 9999 FEW035 SCT100 19/05 Q1015", "LTBJ 300950Z 36012KT 9999 FEW035 SCT100 18/04 Q1014 NOSIG RMK RWY16 02006KT 330V120", "LTBQ 300950Z 28009KT 240V300 9999 SCT045 18/03 Q1015 NOSIG", "LTBR 300950Z 34003KT 290V040 9999 SCT035 16/04 Q1014 NOSIG RMK RWY07 VRB04KT", "LTBS 300950Z 24016KT 9999 FEW030 20/07 Q1012 NOSIG RMK RWY19 22014KT 1CU030", "LTBU 300950Z 22009KT 170V250 9999 SCT035 19/09 Q1014 RMK RWY22 19008KT 120V220", "LTBY 300950Z 31008KT 280V040 9999 SCT040 12/M00 Q1014", "LTCA 300950Z 07011KT 9999 SCT035 BKN090 11/06 Q1012 NOSIG", "LTCB 300950Z 08009KT 9999 -SHRA SCT015 BKN035 13/09 Q1013 NOSIG", "LTCC 300950Z 08006KT 040V110 9999 SCT035TCU BKN100 15/08 Q1010 NOSIG RMK RWY16 VRB04KT 4TCU035 6AC100", "LTCD 300950Z 19003KT 140V230 9999 FEW030CB BKN035 BKN070 10/05 Q1011 RESHRA BECMG 27013KT", "LTCE 300950Z 05010KT 020V080 9999 FEW025CB BKN035 07/01 Q1012 NOSIG RMK RWY08R 08006KT 030V140 RWY26R 06010KT 020V080 RWY08L 08008KT 050V140 1CB025 5CU035", "LTCF 300950Z 23029KT 9999 -SHRA FEW025CB SCT035 BKN070 07/03 Q1011 NOSIG", "LTCG 300950Z 30008KT 270V330 9999 SCT013 BKN035 12/10 Q1013 TEMPO 4000 BR BKN006 FEW020CB BKN025 RMK RWY29 31009KT", "LTCI 300950Z 27011KT 9999 SCT030 BKN080 09/04 Q1015 TEMPO FM1100 -TSRA", "LTCJ 300950Z 03012KT 9999 SCT040 BKN100 15/09 Q1011 NOSIG RMK RWY20 35011KT 3CU040 5AC100", "LTCK 300950Z 17005KT 140V210 9999 SCT035 BKN080 08/03 Q1013", "LTCL 300950Z 27005KT 230V330 9999 FEW040 SCT100 17/08 Q1011", "LTCN 300950Z VRB03KT 9999 SCT035 BKN090 18/06 Q1010", "LTCO 300950Z 24015KT 210V270 9999 FEW025CB SCT035 BKN070 07/03 Q1014 RETSRA", "LTCP 300950Z 34009KT 9999 FEW020CB SCT028 15/06 Q1011", "LTCR 300950Z 20005KT 150V270 9999 BKN040 18/08 Q1011", "LTCS 300950Z 17006KT 140V220 9999 FEW027CB SCT035 BKN080 14/04 Q1011 RMK RWY22 15006KT 110V200 2CB027 4CU035 5AC080", "LTCT 300950Z 27028KT 9999 FEW045 BKN080 BKN180 19/02 Q1008", "LTCU 300950Z 18005KT 130V270 9999 -SHRA BKN033 BKN090 10/05 Q1012", "LTCV 300950Z 15008KT 110V180 9999 SCT030 BKN080 20/08 Q1011", "LTCW 300950Z 21013G23KT 170V250 9999 FEW035 SCT070 12/M04 Q1014", "LTDA 300950Z 24009KT 170V270 9999 FEW025CB SCT030 19/07 Q1011 NOSIG", "LTFB 300950Z VRB04KT 9999 FEW035 20/03 Q1014", "LTFC 300950Z 31009KT 280V360 CAVOK 14/M01 Q1013 RMK RWY23 30011KT 270V340", "LTFD 300950Z 26007KT 220V300 9999 SCT035 18/07 Q1015", "LTFE 300950Z 24006KT 180V290 CAVOK 20/03 Q1013 NOSIG RMK RWY10 26010KT", "LTFG 300950Z 22009KT 180V250 9999 SCT030 20/12 Q1012", "LTFH 300950Z 35008KT 9999 FEW030CB SCT033 BKN090 15/09 Q1012 NOSIG", "LTFJ 300950Z 24010KT 9999 FEW040 16/05 Q1015 NOSIG RMK RWY24 25010KT", "LTFM 300950Z 20005KT 150V250 9999 FEW040 SCT100 17/02 Q1014 NOSIG RMK RWY17L 03008KT 340V060 RWY34L 29004KT 230V350 RWY16R 02009KT RWY36 VRB04KT RWY18 34008KT", "LTFO 300950Z 24010KT 9999 SCT009 BKN028 12/10 Q1012", "LUKK 301000Z 01017KT 340V050 CAVOK 15/00 Q1012 NOSIG", "LWOH 301000Z 16006KT 9999 FEW040 13/09 Q1015", "LWSK 301000Z 00000KT 9999 FEW050TCU 19/09 Q1015 NOSIG", "LXGB 300950Z 21008KT CAVOK 22/16 Q1015 NOSIG RMK BLU BLU", "LYBE 301000Z 26008KT 240V300 9999 FEW030TCU SCT040 18/10 Q1016 BECMG SCT040", "LYBT 301000Z 33005KT 260V040 9999 SCT040 21/12 Q1016 NOSIG", "LYKV 301000Z 06005KT 360V130 9999 SCT043 19/10 Q1015 NOSIG", "LYNI 301000Z 23003KT 120V280 9999 SCT047 18/09 Q1015 BECMG 32012KT", "LYPG 301000Z VRB02KT 9999 FEW050 21/09 Q1014 NOSIG", "LYTV 301000Z 26005KT 210V340 9999 FEW060 20/08 Q1015 NOSIG", "LYVR 301000Z AUTO VRB02KT CAVOK 18/09 Q1016", "LZIB 301000Z 34013KT 9999 SCT044 16/04 Q1019 NOSIG", "LZKZ 301000Z 01013KT 9999 FEW040 15/08 Q1016 NOSIG", "LZPP 301000Z 02013KT 350V050 9999 FEW040 15/06 Q1019", "LZTT 301000Z 24012KT 9999 SCT030 SCT046 12/05 Q1017 NOSIG", "LZZI 301000Z 05009KT 020V080 9999 BKN033 11/04 Q1020", "MBPV 301000Z 15006KT 9999 SCT015 26/21 Q1013", "MDPC 301000Z 00000KT 9999 FEW016 24/23 Q1015", "MDPP 300900Z 00000KT 9999 FEW016 24/21 Q1012", "MDSD 301000Z 07004KT 9999 FEW016 23/22 Q1015", "MDST 301000Z 11006KT 9999 SCT016 24/24 Q1014", "MGGT 301000Z 03012KT 9999 SCT014 BKN080 18/15 Q1021 A3015", "MGHT 301000Z 00000KT 9999 BKN024 15/13", "MGMM 301000Z 30006KT 9999 SCT016 SCT090 25/22 Q1015 A2997", "MGPB 301000Z 00000KT CAVOK 23/22 Q1012 A2988 SCT200", "MHLM 301000Z 21005KT 9999 FEW025 SCT080 23/22 Q1013 A2991 NOSIG", "MHPR 301000Z 03012KT 8000 BKN046 FEW048CB 21/19 Q1017 A3004 RERA NOSIG", "MHTG 301000Z 30003KT 8000 -RA BKN036 21/19 Q1018 A3006 NOSIG", "MMAA 300940Z 02003KT 5SM FEW300 24/21 A2987 RMK 8/001 HZY ISOL AC", "MMAS 300950Z 02010KT 10SM SKC 12/02 A3022", "MMGL 300940Z 00000KT 10SM SKC 15/02 A3013", "MMHO 300940Z 00000KT 10SM SCT200 23/02 A2984 RMK 8/008 HZY", "MMMD 300940Z 36010KT 6SM OVC015 24/17 A2994 RMK 8/5// HZY", "MMMM 300941Z 00000KT 7SM SKC 10/01 A3018 RMK HZY", "MMMX 300946Z 08005KT 10SM SKC 13/01 A3030 NOSIG RMK ISOL CI", "MMMY 300941Z 28008KT 15SM SKC 14/03 A3001", "MMMZ 300940Z 05003KT 8SM SCT240 19/16 A2988 RMK 8/002", "MMQT 300940Z 17004KT 8SM FEW020 10/05 A3029 RMK 8/500", "MMSP 300940Z 31005KT 8SM SKC 09/03 A3024", "MMTJ 300940Z 35004KT 3SM BR FEW005 OVC010 14/13 A2998 RMK 8/6//", "MMTO 300941Z 08004KT 8SM FEW200 06/01 A3036 RMK 8/001", "MMTP 300940Z 00000KT 8SM SKC 24/24 A2984 RMK HZY", "MMUN 300940Z 29006KT 7SM BKN250 23/22 A2987 RMK 8/008 HZY SC", "MMZC 300940Z E34005KT 10SM SKC 10/M09 A3026", "MNMG 300900Z 00000KT 9000 FEW021 SCT300 25/23 Q1010 A2983 HZ NOSIG", "MPMG 301000Z AUTO 01002KT //// R01///// // FEW072/// OVC100/// 26/25 Q1011", "MPTO 301000Z AUTO 27002KT 9999 FEW000/// 26/24 Q1010", "MROC 301000Z 07004KT 9999 SCT045 BKN150 21/19 A3001 NOSIG", "MSLP 300950Z 04002KT 8000 FEW023 24/23 Q1010 A2985 NOSIG RMK HZ", "MTPP 300959Z AUTO 14007KT 9000 ////// 25/22 Q1013 A2992 NOSIG", "MUCC 300950Z 18004KT 9000 FEW020 25/24 Q1011", "MUCF 300959Z AUTO 20009KT 150V220 28/23 Q1011", "MUCM 300950Z 13003KT 7000 VCFG NSC 23/22 Q1013", "MUCU 300950Z 26008KT 200V290 9000 SCT020 27/23 Q1014", "MUGM 300951Z 31005KT 10SM FEW020 24/23 A2995 RMK AO2 SLP141 T02390233 $", "MUHA 300950Z 21013KT 9000 SCT030 26/23 Q1009", "MUHG 300950Z VRB01KT 8000 VCFG FEW020 22/21 Q1014", "MUSC 300950Z VRB02KT 9000 FEW030 21/20 Q1011", "MUVR 300950Z 18008KT 150V210 8000 NSC 26/23 Q1009", "MYCB 301000Z AUTO /////KT ///V/// //// R09///// // NSC ///// A////", "MYGF 301000Z AUTO 18015KT //// R24///// // FEW210/// 26/23 A2973", "MYNN 301000Z 19011KT 9999 FEW025 BKN040 26/24 A2985", "MYSM 301000Z AUTO 15005KT 9999 SCT020/// BKN024/// BKN036/// 25/23 A2995", "NCAI 301000Z AUTO 17006KT //// ////// 26/21 Q1014", "NCAT 301000Z AUTO NIL", "NCMG 301000Z AUTO 12005KT //// ////// ///// Q////", "NCMH 301000Z AUTO NIL", "NCMK 301000Z AUTO 14006KT //// ////// ///// Q1013", "NCMR 301000Z AUTO 09004KT //// ////// ///// Q1014", "NCNS 301000Z AUTO NIL", "NCPK 301000Z AUTO NIL", "NCPL 301000Z AUTO NIL", "NCPY 301000Z AUTO NIL", "NCRG 301000Z AUTO 13006KT 080V180 9999 FEW055/// 24/18 Q1016", "NCRK 301000Z AUTO NIL", "NCSW 301000Z AUTO NIL", "NFFN 301000Z 00000KT 9999 FEW026 26/24 Q1015 NOSIG", "NFNA 301000Z VRB02KT 9999 FEW020 25/24 Q1015", "NFTF 301000Z 09012KT 9999 FEW016 BKN280 23/20 Q1016", "NGFU 301000Z 09010KT 9999 FEW018TCU BKN100 29/28 Q1009", "NGTA 301000Z 06007KT 9999 FEW018TCU SCT040 27/25 Q1009 RMK RR 0 .2MM", "NIUE 301000Z AUTO 12010KT NCD 25/22 Q1016", "NLWW 301000Z AUTO 12008KT 080V160 9999 FEW021/// 29/24 Q1011 TEMPO 3000 SHRA BKN012 FEW015CB SCT020TCU", "NSFA 301000Z 16003KT 9999 FEW022 SCT280 24/23 Q1012", "NSTU 300955Z 12011KT 10SM SCT021 29/26 A2990 RMK SLP124 T02850262", "NTAA 301000Z AUTO VRB02KT CAVOK 26/22 Q1012 NOSIG", "NVSC 300900Z 07007KT 9999 BKN020 29/26 Q1011", "NVSG 300900Z 09003KT 9999 SCT020 29/26 Q1012", "NVVV 301000Z 08003KT 9999 SCT020 26/24 Q1014", "NWWW 301000Z AUTO VRB02KT CAVOK 21/20 Q1015 NOSIG", "NZAA 301000Z AUTO 07017KT 5000 BR BKN011/// 19/18 Q1017 REDZ", "NZCH 301000Z AUTO 20003KT 4600 BR OVC006/// 10/10 Q1026", "NZCM 300955Z AUTO 00000KT 9999 CLR M21/M25 A2902 RMK AO2 SLP835 T12131252", "NZWN 301000Z AUTO 36002KT 9999 NCD 14/12 Q1024", "OBBI 301000Z 18006KT 150V210 8000 NSC 38/12 Q1004 NOSIG", "OEAB 301000Z 22010KT 9999 TS SCT020 FEW025CB SCT070 22/11 Q1022 NOSIG", "OEAH 300900Z 20005KT 8000 NSC 39/00 Q1006 NOSIG", "OEAO 300900Z 02004KT CAVOK 26/M07 Q1014 NOSIG", "OEBA 300900Z 13005KT 9999 SCT030 25/11 Q1018 NOSIG", "OEBH 300900Z 03003KT 9999 FEW030 29/18 Q1014 NOSIG", "OEDF 301000Z 24008KT 210V280 CAVOK 40/00 Q1004 NOSIG", "OEDM 300900Z 24018KT CAVOK 31/M01 Q1012", "OEDR 301000Z 19011KT 4000 DU NSC 39/10 Q1003", "OEGN 300900Z 24008KT 9999 SCT030 FEW035CB BKN100 33/27 Q1009 NOSIG", "OEGS 300900Z 24007KT CAVOK 31/07 Q1009", "OEGT 300900Z 30012KT CAVOK 20/00 Q1014 NOSIG", "OEHL 300900Z 03004KT CAVOK 26/05 Q1014", "OEJB 300900Z AUTO 16010KT CAVOK 38/05 Q1005 NOSIG", "OEJN 301000Z 32015KT CAVOK 34/09 Q1009 NOSIG", "OEKJ 300900Z VRB03KT CAVOK 36/03 Q1012", "OEKM 300900Z 20013KT 9999 SCT022 FEW025CB 25/07 Q1022 NOSIG", "OEMA 301000Z 32003KT CAVOK 31/M08 Q1013 NOSIG", "OEMN 300900Z 34010KT CAVOK 34/01 Q1011", "OENG 300900Z VRB06KT 8000 FEW030 32/10 Q1015 NOSIG", "OEPA 300900Z 09010KT CAVOK 35/12 Q1008 NOSIG", "OEPS 300955Z 16005G13KT 9999 CLR 36/07 A2984 RMK AO2A LTG DSNT SE SLP084 WND DATA ESTMD T03600066", "OERF 300900Z 35008KT CAVOK 28/M03 Q1011 NOSIG", "OERK 301000Z 21006KT CAVOK 36/05 Q1010 NOSIG", "OERR 300900Z 34008KT CAVOK 22/M05 Q1013 NOSIG", "OESH 300900Z 25005KT CAVOK 37/12 Q1009 NOSIG", "OESK 300900Z 31008KT CAVOK 22/M01 Q1016 NOSIG", "OETB 300900Z 02006KT CAVOK 21/M02 Q1014 NOSIG", "OETF 300900Z 01006KT 9999 SCT030 27/05 Q1018 NOSIG", "OETR 300900Z 26012KT CAVOK 16/00 Q1014 NOSIG", "OEWD 300900Z 35002KT CAVOK 35/07 Q1010", "OEWJ 300900Z 29015KT CAVOK 28/15 Q1011 NOSIG", "OEYN 300900Z 28015KT CAVOK 32/07 Q1008 NOSIG", "OIAA 301000Z 07008KT CAVOK 35/16 Q1006", "OIAG 301000Z 28010KT 8000 FEW035TCU 39/09 Q1006", "OIAH 301000Z 23004KT 9999 FEW040 33/02 Q1010", "OIAM 301000Z 12006KT CAVOK 35/13 Q1006", "OIAW 301000Z 16002KT CAVOK 38/10 Q1005", "OIBA 301000Z 30006KT 7000 NSC 31/23 Q1005", "OIBB 301000Z 24008KT CAVOK 34/12 Q1005 A2968 NOSIG", "OIBH 301000Z 27012KT CAVOK 32/13 Q1005 A2969", "OIBJ 301000Z AUTO 23007KT //// // ////// 33/07 Q1011", "OIBK 301000Z 25010KT 8000 NSC 32/17 Q1006 NOSIG", "OIBL 301000Z 24012KT 8000 NSC 32/18 Q1005", "OIBP 301000Z 32008KT 8000 NSC 37/12 Q1005 A2968", "OIBQ 301000Z 32010KT CAVOK 31/15 Q1005", "OIBS 301000Z 12006KT 4500 HZ NSC 30/18 Q1006", "OIBV 301000Z 23010KT 8000 NSC 31/18 Q1005", "OICC 300930Z 24010KT 9999 SCT045TCU BKN200 22/M01 Q1014 A2997", "OICI 301000Z 28008KT 9999 FEW050 23/03 Q1016 A3002", "OICK 301000Z 19012KT 9999 SCT040TCU 27/02 Q1013", "OICM 301000Z 28004KT CAVOK 34/07 Q1006", "OICS 301000Z 18014KT 9999 FEW040TCU SCT040 BKN200 22/M01 Q1013 A2992", "OIFM 301000Z 26010KT 9999 FEW040 27/M06 Q1014 A2996", "OIFS 301000Z 28014KT 9999 FEW040 22/M06 Q1018", "OIGG 301000Z 32008KT 8000 SCT025 27/19 Q1004", "OIHH 301000Z 21014KT 9999 FEW040TCU SCT045 22/M06 Q1014 A2996", "OIHM 300900Z AUTO 17009KT //// // ////// 22/M03 Q1015", "OIHR 301000Z 21018G29KT 9999 FEW030 25/M02 Q1014", "OIIE 301000Z 34008KT 9999 FEW035CB 30/M01 Q1008", "OIII 301000Z 16004KT 9999 FEW030CB FEW035TCU 28/M02 Q1010 A2983 TEMPO 20016KT", "OIIK 301000Z 24008KT 9999 SCT040CB BKN090 27/03 Q1010", "OIIP 301000Z 15006KT 9999 FEW030CB BKN035 27/01 Q1009 A2980", "OIKB 301000Z 21010KT 5000 HZ NSC 32/19 Q1004 A2967 NOSIG", "OIKK 301000Z 29023G45KT 9999 SCT030CB BKN040 19/04 Q1015 A3000", "OIKQ 301000Z 25014KT 7000 NSC 32/18 Q1005 NOSIG", "OIMB 301000Z 13014KT 8000 TS FEW030CB SCT035 OVC090 24/03 Q1012 A2989", "OIMD 301000Z 12010KT 9999 FEW030CB SCT035 29/07 Q1007", "OIMJ 301000Z 32021KT 9999 FEW030CB 26/02 Q1011", "OIMM 301000Z 10008KT 9999 FEW040 BKN090 BKN200 28/08 Q1011 A2988", "OIMN 301000Z 32006KT 9999 FEW025CB SCT030 29/05 Q1010", "OIMQ 301000Z 35006KT 9999 FEW035 29/03 Q1010", "OIMS 301000Z 10006KT 9999 FEW030CB SCT035 31/04 Q1011", "OIMT 300900Z AUTO 35002KT //// // ////// 33/06 Q1007", "OINE 301000Z 19006KT 9999 FEW035CB SCT170 32/15 Q1004", "OING 301000Z 26004KT 8000 FEW035CB SCT190 28/17 Q1006 NOSIG", "OINN 301000Z 04010KT 9999 SCT030CB 22/19 Q1003", "OINR 301000Z 11008KT 9999 FEW030CB SCT035 21/18 Q1004", "OINZ 301000Z 05008KT 9999 FEW035 SCT190 30/17 Q1004", "OISF 301000Z 21004KT 9999 FEW035 28/M03 Q1013 A2994", "OISL 301000Z 24008KT CAVOK 33/02 Q1008 A2978 NOSIG", "OISR 301000Z 28012KT CAVOK 37/09 Q1008 A2977 NOSIG", "OISS 300930Z 25004KT CAVOK 27/M01 Q1015 A2998", "OISY 301000Z 24006KT 9999 FEW040 25/M12 Q1019", "OITK 301000Z 20017G27KT 9999 FEW035 22/M03 Q1008 A2979", "OITL 301000Z 23023KT 9999 TSRA FEW040 SCT045TCU BKN050CB 22/02 Q1009 TEMPO SHRA", "OITM 301000Z 24010KT 9999 FEW035TCU BKN180 20/M03 Q1011", "OITP 301000Z 00000KT 9999 TS SCT035CB BKN040 BKN080 25/15 Q1004", "OITR 301000Z 22012KT 9999 FEW040 SCT180 18/M05 Q1010 A2984 NOSIG", "OITT 301000Z 22025KT 9999 SCT030TCU FEW032CB BKN180 21/M04 Q1011 A2987", "OITZ 301000Z 21019KT 9999 SHRA SCT035CB SCT040 19/04 Q1012 A2991", "OIYY 301000Z 26006KT 9999 SCT035TCU 30/03 Q1011 NOSIG", "OIZB 301000Z 01006KT 4000 DU NSC 38/07 Q1004", "OIZC 301000Z 22018KT 9999 FEW035 33/18 Q1003", "OIZH 301000Z 11021KT 9999 VCTS SCT035CB SCT040TCU 22/09 Q1012 A2991 RESH", "OIZI 301000Z 26008KT 9999 SCT040TCU FEW100 34/11 Q1006", "OIZJ 301000Z 22008KT 6000 NSC 29/25 Q1004", "OJAI 301000Z 27012KT 5000 HZ SCT030 SCT035 16/03 Q1016 NOSIG", "OJAM 301000Z 25010KT 7000 FEW030 BKN060 15/04 Q1016 NOSIG", "OJAQ 301000Z 02008KT CAVOK 24/03 Q1014 NOSIG", "OKAS 300955Z 08010KT 8000 DU CLR 37/08 A2971 RMK AO2A SLP055 T03650075 FZRANO $", "OKKK 301000Z 07013KT 7000 NSC 35/15 Q1005 NOSIG", "OLBA 301000Z 21014KT 180V240 6000 TSRA FEW020CB BKN026 17/12 Q1016 RERA NOSIG", "OMAA 301000Z 32012KT CAVOK 36/05 Q1005 NOSIG", "OMAD 301000Z 35009KT CAVOK 35/11 Q1005 NOSIG", "OMAL 301000Z 27006KT 200V300 CAVOK 38/M00 Q1006 NOSIG", "OMDB 301000Z 33010KT CAVOK 33/14 Q1005 NOSIG", "OMDW 301000Z 33012KT 290V360 CAVOK 35/12 Q1006 NOSIG", "OMFJ 301000Z 07008KT 030V110 8000 NSC 28/23 Q1005 A2969", "OMRK 301000Z 33012KT 290V350 CAVOK 35/07 Q1006 A2970", "OMSJ 301000Z 31011KT CAVOK 34/05 Q1006 NOSIG", "OOAD 300950Z AUTO VRB04KT //// R31///// // NCD 37/M01 Q1006 NOSIG", "OODQ 300950Z AUTO 30011KT 240V340 CAVOK 39/02 Q1005 NOSIG", "OOKB 300950Z 03016KT 9999 FEW025 31/14 Q1005 NOSIG", "OOMS 300950Z 03008KT 9999 FEW025 32/17 Q1004 NOSIG", "OOSA 300950Z 17012KT 9999 FEW025 32/26 Q1007 NOSIG", "OOSH 300950Z AUTO 06013KT //// ////// 35/14 Q1003", "OPFA 300955Z 18006KT 4000 HZ FEW040 SCT100 32/15 Q1006 NOSIG", "OPIS 301000Z 31005KT 6000 FEW040 SCT100 32/14 Q1005 NOSIG", "OPKC 300955Z 24010KT 6000 SCT030 31/17 Q1005 TEMPO 1000 TSRA FEW025CB", "OPLA 300955Z 24011KT 5000 HZ SCT100 32/16 Q1006 TEMPO 21020G40KT RMK QFE980 A29.72", "OPMT 301000Z 23010KT 9999 SCT040 SCT100 33/15 Q1005 NOSIG", "OPNH 301000Z 13006KT 7000 SCT035 32/19 Q1004", "OPPS 301000Z 05008KT 5000 HZ SCT040 SCT100 33/13 Q1005", "OPSK 301000Z 09006KT 4000 HZ SCT030 SCT100 30/17 Q1004 NOSIG", "OPST 301000Z 00000KT 5000 HZ FEW100 35/13 Q1006 NOSIG 26%", "ORBI 301000Z 30007KT 250V340 9999 FEW030 29/07 Q1010", "ORER 301000Z 22010G22KT 170V220 9000 SCT030 26/02 Q1012", "ORMM 301000Z VRB10KT CAVOK 37/04 Q1007 NOSIG", "ORNI 301000Z 00000KT CAVOK 29/04 Q1009", "ORSU 301000Z 17011KT 8000 SCT040 SCT180 23/10 Q1013", "OSAP 300900Z 30010KT 9999 BKN026 18/06 Q1011", "OSDI 301000Z 22010KT 9999 SCT026 BKN030 BKN100 14/07 Q1014", "OSLK 300900Z 25005G15KT 9999 SCT026 TCU BKN030 20/12 Q1012", "OTBD 301000Z AUTO 14014KT CAVOK 39/09 Q1005 NOSIG", "OTBH 300855Z 20010KT 9000 HZ CLR 39/05 A2969 Q1005 RMK AO2A SLP055 T03870053 57015 $", "OTHH 301000Z 14014KT CAVOK 37/08 Q1005 NOSIG", "PAAD 300955Z AUTO 09018KT 7SM OVC004 M14/M16 A3010 RMK AO2 T11411156 PWINO", "PAAQ 300953Z AUTO 06004KT 10SM OVC085 05/M01 A2975 RMK AO2 SLP078 T00501006 TSNO", "PABA 300952Z AUTO 09019KT 4SM -SN BR OVC008 M11/M12 A3016 RMK AO2 SLP220 T11061122 FZRANO PNO $", "PABE 300953Z 06004KT 10SM CLR M01/M03 A2970 RMK AO2 SLP058 T10111033", "PABI 300953Z AUTO 24007KT 10SM OVC023 02/M01 A2973 RMK AO2 SLP084 T00171011 TSNO", "PABL 300956Z AUTO 00000KT 10SM CLR M03/M04 A2988 RMK AO2 SLP121 T10331039 FZRANO", "PABR 301003Z AUTO 09015G19KT 2SM R08/6000VP6000FT -SN BR OVC007 M12/M13 A3011 RMK AO2 P0000 T11171133 TSNO $", "PABT 300953Z 02006KT 10SM SCT065 01/M06 A2987 RMK SLP126 T00111056", "PABV 300956Z AUTO 00000KT 10SM OVC080 04/M01 A2978 RMK AO2 SLP089 T00441011", "PACD 300939Z 13032G46KT 8SM -RA OVC027 04/03 A2923 RMK AO2 PK WND 14046/0932 P0000 T00440028 $", "PACM 300956Z AUTO 07006KT SCT075 01/M01 A2975 RMK AO2 SLP069 T00061006 PWINO FZRANO $", "PACV 300953Z 00000KT 10SM OVC031 04/03 A2978 RMK AO2 RAE06 SLP083 P0000 T00390033", "PACZ 300955Z AUTO 10014G23KT 10SM -SHRA OVC075 02/M02 A2967 RMK AO2 SHRAB0855E0857B0941SHRASNB0857E0900 SLP054 P0000 T00231022", "PADE 300953Z AUTO 25003KT 10SM OVC060 M03/M04 A2985 RMK AO2 SLP109 T10281039 TSNO $", "PADK 300956Z AUTO 32018G32KT FEW011 BKN020 OVC041 01/M03 A2932 RMK AO2 PK WND 34033/0938 SLP929 T00111028 PWINO FZRANO $", "PADL 300956Z AUTO 08007KT 10SM CLR 02/M01 A2972 RMK AO2 SLP066 T00171011 FZRANO", "PADM 300956Z AUTO 36010KT 10SM CLR M01/M03 A2978 RMK AO2 SLP091 T10061028 FZRANO", "PADQ 300953Z AUTO 19007KT 10SM CLR 03/M02 A2982 RMK AO2 SLP099 T00281022 TSNO", "PADU 300956Z AUTO 16014G20KT 10SM -RA SCT024 BKN031 OVC035 06/02 A2901 RMK AO2 RAB28 SLP829 P0002 T00610022", "PAED 300855Z 21006KT 10SM BKN085 05/M03 A2974 RMK AO2A SLP068 T00541032 401051008 58001", "PAEG 300953Z AUTO 00000KT 10SM BKN080 OVC110 02/M04 A2975 RMK AO2 SLP080 T00171044 TSNO", "PAEH 300955Z AUTO 05022G31KT 010V120 10SM BKN017 03/00 A2953 RMK AO2 PK WND 05036/0917 SLP006 T00331002", "PAEI 300955Z 34001KT 10SM BKN036 BKN055 OVC080 04/00 A2974 RMK SLPNO AO2A WND DATA ESTMD ALSTG/SLP ESTMD", "PAEN 300953Z AUTO 18006KT 10SM CLR 01/M02 A2979 RMK AO2 SLP089 T00111022 TSNO", "PAFA 300953Z 04008KT 10SM -RASN FEW046 BKN075 OVC090 04/M01 A2975 RMK AO2 SLP079 P0000 T00441011 $", "PAFB 300855Z AUTO 04003KT 10SM M 06/M01 A2975", "PAFE 300956Z AUTO 00000KT 10SM -RA BKN070 OVC085 08/06 A2983 RMK AO2 RAB43 SLP113 P0000 T00780061 $", "PAFM 300956Z AUTO 02007KT 10SM CLR 00/M04 A2993 RMK AO2 SLP141 T00001039 FZRANO", "PAFR 300855Z AUTO 00000KT 10SM BKN065 OVC085 04/M03 A2975 RMK AO2 SLP082 T00351035 400851038 58002 $", "PAFS 301001Z AUTO 00000KT 10SM CLR M02/M06 A2976 RMK AO2 SLP084 T10221061 FZRANO", "PAGK 300953Z AUTO 19003KT 3SM -SN BR FEW017 OVC034 00/M01 A2973 RMK AO2 SLP093 P0002 T00001006 TSNO", "PAGL 300956Z AUTO 33004KT 10SM BKN070 01/M02 A2984 RMK AO2 SLP102 T00061017 FZRANO", "PAGM 300856Z AUTO 04014KT 6SM UP BR OVC007 M03/M04 A2979 RMK AO2 UPE33B52SNB43E52 SLP094 P0000 60000 T10331044 410331067 51005 FZRANO", "PAGN 300956Z AUTO 00000KT 10SM -RA OVC060 07/07 A2982 RMK AO2 SLP088 P0001 T00720072", "PAGS 300956Z AUTO 00000KT 10SM -RA BKN060 OVC070 07/07 A2982 RMK AO2 SLP099 P0000 T00720067", "PAGY 300953Z AUTO VRB03KT 10SM -RA OVC065 08/07 A2983 RMK AO2 RAB0854 SLP100 P0001 T00830067 TSNO", "PAHC 300956Z AUTO VRB04KT 10SM CLR 02/M03 A2976 RMK AO2 SLP084 T00221028 FZRANO", "PAHL 300956Z AUTO 03005KT 10SM CLR 02/M05 A2985 RMK AO2 SLP111 T00221050 FZRANO", "PAHN 300954Z AUTO 00000KT OVC070 09/07 A2980 RMK AO2 RAE10 SLP093 P0000 T00890067 TSNO $", "PAHO 300953Z AUTO 00000KT 10SM CLR M01/M04 A2982 RMK AO2 SLP098 T10061039 TSNO", "PAHX 300902Z AUTO 00000KT 10SM CLR 02/M03 A2980 RMK AO2 SLP091 T00221028 56004 FZRANO", "PAHY 300956Z AUTO 00000KT 10SM BKN004 OVC095 08/07 A2981 RMK AO2 SLP091 T00780072 $", "PAIG 300956Z AUTO 36004KT 10SM CLR M04/M04 A2976 RMK AO2 SLP085 T10391044 FZRANO $", "PAIK 300956Z AUTO 00000KT 10SM CLR 02/M03 A2993 RMK AO2 SLP137 T00171028 FZRANO", "PAIL 300953Z AUTO 00000KT 10SM CLR M02/M04 A2979 RMK AO2 SLP089 T10171044 TSNO", "PAIM 300955Z AUTO 22001G10KT 10SM CLR 02/M04 A2982 RMK AO2 SLP110 T00221043", "PAIN 300956Z AUTO 00000KT 10SM OVC014 M01/M02 A2972 RMK AO2 UPE03 SLP085 P0000 T10061022 FZRANO", "PAIW 300956Z AUTO 03010KT 3SM -SN BR BKN007 OVC015 M05/M06 A2989 RMK AO2 SLP124 P0000 T10501056 FZRANO", "PAJC 301003Z AUTO 13016G22KT 5SM -RA BR FEW009 BKN012 OVC110 04/02 A2960 RMK AO2 PNO $", "PAJN 300953Z 10011KT 10SM OVC065 09/06 A2981 RMK AO2 SLP093 T00890061 $", "PAJZ 300956Z AUTO 05005KT 10SM CLR M01/M03 A2980 RMK AO2 SLP097 T10111028 FZRANO $", "PAKH 300956Z AUTO 10SM OVC015 04/03 A2981 RMK AO2 RAB20E31 SLP093 P0000 T00390028 TSNO $", "PAKI 300956Z AUTO 10SM SCT032 OVC055 02/M01 A2960 RMK AO2 SLP027 T00171006 FZRANO $", "PAKN 300954Z 13008KT 10SM CLR 02/M02 A2970 RMK AO2 SLP057 T00221022", "PAKP 300956Z AUTO 00000KT 10SM CLR M11/M12 A2988 RMK AO2 SLP171 T11061122 FZRANO", "PAKT 300953Z AUTO 00000KT 10SM FEW080 OVC100 08/05 A2982 RMK AO2 SLP098 T00780050 TSNO", "PAKV 300953Z AUTO 22004KT 10SM OVC100 M01/M05 A2985 RMK AO2 SLP109 T10061050 TSNO $", "PAKW 300953Z AUTO 00000KT 10SM OVC100 10/05 A2978 RMK AO2 SLP083 T01000050 TSNO", "PAKX 300955Z AUTO 00000KT 10SM CLR M01/M04 A2977 RMK AO2", "PALG 300956Z AUTO 10003KT 10SM CLR 01/M04 A2974 RMK AO2 SLP075 T00111039 FZRANO", "PALH 300953Z AUTO 20007KT 10SM BKN065 OVC085 04/M03 A2977 RMK AO2 SLP082 T00441033 TSNO", "PALU 300955Z AUTO 12005KT 10SM BKN047 M04/M05 A2997 RMK AO2 SLP149 T10361051", "PAMB 300956Z AUTO 08011KT 8SM BKN050 01/M01 A2970 RMK AO2 SLP059 T00111006 FZRANO $", "PAMD 300951Z AUTO 27014G20KT 10SM OVC011 04/02 A2980 RMK AO2 SLP079 T00440022 $", "PAMH 300956Z AUTO 00000KT FEW045 BKN075 OVC095 04/M05 A2973 RMK AO2 SLP069 T00441050 PWINO $", "PAMK 300956Z AUTO 05004KT 10SM CLR M03/M04 A2981 RMK AO2 SLP096 T10281039 FZRANO", "PAMM 300956Z AUTO 00000KT 10SM BKN090 BKN100 08/05 A2982 RMK AO2 SLP191 T00830050 $", "PAMO 300956Z AUTO 05010KT 10SM CLR 01/M03 A2974 RMK AO2 SLP075 T00061028 FZRANO", "PAMR 300953Z 18006KT 10SM SCT060 BKN085 05/M04 A2976 RMK AO2 SLP079 T00501039", "PAMY 300956Z AUTO 07011KT 10SM OVC029 01/M01 A2938 RMK AO2 SLP950 T00061006 FZRANO", "PANA 300956Z AUTO 07007KT 10SM CLR 00/M03 A2969 RMK AO2 SLP053 T00001028 FZRANO TSNO $", "PANC 300953Z 18008KT 10SM SCT065 BKN085 04/M03 A2976 RMK AO2 SLP078 T00441028", "PANI 300956Z AUTO 00000KT 10SM CLR M01/M04 A2981 RMK AO2 SLP087 T10061039 FZRANO $", "PANV 300956Z AUTO 05005KT 10SM CLR 02/M03 A2976 RMK AO2 SLP161 T00171033 FZRANO TSNO", "PANW 300956Z AUTO 09004KT 10SM CLR M01/M03 A2975 RMK AO2 SLP081 T10061028 FZRANO", "PAOH 300956Z AUTO 00000KT 10SM FEW005 OVC060 07/06 A2981 RMK AO2 RAE11 SLP095 P0000 T00670061", "PAOM 300953Z AUTO 05008KT 10SM CLR M01/M02 A2982 RMK AO2 SLP098 T10061017 TSNO", "PAOO 300956Z AUTO CLR 01/M01 A2965 RMK AO2 SLP046 T00111006 PWINO FZRANO TSNO $", "PAOR 300953Z VRB03KT 10SM OVC050 02/M01 A2968 RMK AO2 SLP067 T00221006 PNO", "PAOT 300953Z AUTO 06006KT 10SM OVC085 M01/M02 A2989 RMK AO2 SLP120 T10061022 TSNO", "PAOU 300956Z AUTO 14024KT 10SM FEW022 SCT032 OVC046 03/01 A2940 RMK AO2 PK WND 13032/0901 RAE36 SLP955 T00330011 PNO $", "PAPB 300953Z AUTO 06020G26KT 6SM -RA BR OVC004 04/02 A2916 RMK AO2 PK WND 05026/0931 SLP862 P0003 T00390017 TSNO $", "PAPG 300956Z AUTO 26003KT 10SM OVC110 07/06 A2981 RMK AO2 SLP099 T00720061", "PAPH 300956Z AUTO 14022G34KT 10SM SCT016 BKN100 04/02 A2952 RMK AO2 PK WND 15042/0919 SLP999 T00440017", "PAPM 300956Z AUTO 09024G30KT 10SM OVC018 03/00 A2957 RMK AO2 PK WND 10033/0942 SLP017 T00280000", "PAPN 300956Z AUTO 10010KT 9SM CLR 03/01 A2962 RMK AO2 SLP030 T00280006", "PAPO 300956Z AUTO 06006KT 10SM FEW060 M05/M06 A2994 RMK AO2 SLP139 T10501061 FZRANO", "PAQT 300958Z AUTO 06010KT 3SM UP BR BKN004 OVC009 M15/M17 A3011 RMK AO2 UPB55SNE55 T11501167 TSNO PNO $", "PARC 300956Z AUTO 36007KT 10SM BKN070 M08/M13 A2991 RMK AO2 SLP183 T10831128 FZRANO", "PARY 300956Z AUTO 00000KT 10SM CLR 04/M06 A2979 RMK AO2 SLP100 T00391061", "PASC 300953Z 08020KT 4SM BR BKN002 BKN007 M13/M14 A3009 RMK AO2 SLP191 T11281144", "PASD 300956Z AUTO VRB04KT 4SM -RA BR OVC013 04/02 A2943 RMK AO2 SLP967 T00390022 PNO $", "PASI 300953Z 33004KT 10SM SCT047 OVC110 09/08 A2976 RMK AO2 SLP079 T00940078", "PASK 300956Z AUTO 05006KT 10SM CLR M02/M04 A2990 RMK AO2 SLP123 T10221039 FZRANO", "PASL 300956Z AUTO 00000KT 10SM CLR M04/M06 A2981 RMK AO2 SLP088 T10441056 FZRANO", "PASM 300956Z AUTO 08009KT 10SM BKN048 02/M02 A2974 RMK AO2 SLP080 T00171022 FZRANO", "PASN 300953Z AUTO 05014KT 6SM -RA BR OVC003 02/01 A2925 RMK AO2 UPE05RAB05 SLP905 P0002 T00170011 TSNO", "PASO 300953Z AUTO 00000KT 10SM CLR M01/M02 A2982 RMK AO2 SLP097 T10061017 TSNO", "PASV 300955Z AUTO 00000KT 10SM CLR 01/M07 A2973 RMK AO2 SLP084 T00091075", "PASX 300956Z AUTO 19007KT 10SM CLR 03/M02 A2981 RMK AO2 SLP101 T00281022", "PASY 300855Z AUTO 33022G31KT M M M 00/M05 A2991", "PATA 300952Z AUTO 00000KT 10SM CLR 01/M05 A2979 RMK AO2 SLP091 T00061050 TSNO", "PATC 300955Z AUTO 04015KT 2 1/2SM -SN BR FEW014 OVC031 M05/M06 A2984 RMK AO2 SNB0855 SLP112 P0000 T10481057", "PATE 300956Z AUTO 01003KT 1/4SM UP FZFG BKN041 OVC055 M01/M01 A2983 RMK AO2 UPB38SNE38 SLP109 P0001 T10061011 FZRANO", "PATG 300956Z AUTO 07016KT 10SM OVC021 02/00 A2966 RMK AO2 SLP044 T00220000 FZRANO", "PATK 300953Z AUTO 00000KT 10SM FEW075 M01/M04 A2974 RMK AO2 SLP076 T10111039 TSNO", "PATL 300955Z AUTO 00000KT 10SM FEW190 04/M06 A2978 RMK AO2 SLP093 T00401057 TSNO $", "PATO 300953Z AUTO 00000KT 10SM OVC070 00/M01 A2978 RMK AO2 SLP085 T00001006 TSNO", "PATQ 300956Z AUTO 07012KT 9SM -SN CLR M18/M19 A3005 RMK AO2 SNB18E30B50 SLP181 P0000 T11781194 FZRANO TSNO", "PAUN 300956Z AUTO 05009KT 10SM CLR 02/M03 A2983 RMK AO2 SLP104 T00171033 FZRANO", "PAVC 300956Z AUTO 13015KT 2SM -RA BR OVC005 04/04 A2933 RMK AO2 PK WND 12026/0906 SLP934 P0000 T00390039", "PAVD 300956Z AUTO 00000KT -RA BKN006 OVC014 02/02 A2986 RMK AO2 CIG 003V008 SLP107 P0000 T00220022 FZRANO TSNO $", "PAVL 300953Z AUTO 08009KT 10SM OVC075 M01/M03 A2990 RMK AO2 SLP126 T10111033 TSNO $", "PAWD 300953Z AUTO 33003KT 10SM CLR 01/M04 A2978 RMK AO2 SLP086 T00061039 TSNO", "PAWI 300953Z AUTO 05009KT 10SM UP CLR M16/M18 A3004 RMK AO2 UPB02 SLP173 T11611183 TSNO $", "PAWM 300956Z AUTO 04006KT 10SM BKN060 02/M02 A2983 RMK AO2 SLP106 T00171022 FZRANO", "PAWN 300956Z AUTO 01007KT 10SM CLR M01/M03 RMK AO2 SLPNO T10111033 FZRANO $", "PAWS 300956Z AUTO 04004KT 10SM FEW070 OVC090 03/M02 A2977 RMK AO2 SLP088 T00331022", "PAYA 300958Z AUTO 14003KT 5SM -RA BR BKN002 OVC008 07/07 A2980 RMK AO2 P0001 T00670067 TSNO $", "PAZK 300956Z AUTO 22005KT 10SM OVC022 M04/M05 A2965 RMK AO2 SLP089 T10441050 FZRANO", "PFCL 300956Z AUTO 11014KT 10SM OVC050 01/M01 A2969 RMK AO2 SLP048 T00111006 FZRANO TSNO", "PFEL 300956Z AUTO 33006KT 10SM CLR 02/M03 A2984 RMK AO2 SLP105 T00221028 FZRANO", "PFKT 300956Z AUTO 35004KT 4SM UP BR OVC036 00/M01 A2986 RMK AO2 UPE28B55SNB28E55 SLPNO P0000 T00001011 FZRANO", "PFKW 300956Z AUTO 07008KT 10SM CLR M01/M03 A2970 RMK AO2 SLP055 T10061028 FZRANO", "PFNO 300956Z AUTO 06011KT 10SM OVC070 01/M02 A2990 RMK AO2 SLP209 T00111017 FZRANO $", "PFSH 300956Z AUTO 06006KT 10SM CLR 00/M03 A2984 RMK AO2 SLP105 T00001033 FZRANO", "PFWS 300956Z AUTO 11010KT 10SM BKN055 01/M02 A2973 RMK AO2 SLP112 T00061017 FZRANO", "PFYU 300956Z AUTO 05009KT 10SM FEW100 02/M04 A2985 RMK AO2 SLP120 T00221044 FZRANO", "PGSN 300954Z 09012KT 10SM SCT023 27/23 A2989 RMK AO2 SLP143 T02720233 $", "PGUA 300955Z AUTO 08013KT 10SM BKN012 BKN023 26/23 A2988 RMK AO2 CIG 012V024 BKN012 V SCT CIG 011 RWY24L SLP109 T02590231 $", "PGUM 300954Z 09007KT 10SM SCT019 SCT028 28/24 A2988 RMK AO2 SLP109 T02780239", "PHBK 300951Z AUTO 10005KT 10SM CLR A3009 RMK AO2 SLP193 $", "PHHI 300955Z AUTO 00000KT 10SM CLR 21/16 A3014 RMK AO2 SLP197 T02120164 402620176 $", "PHJR 300953Z AUTO 01005KT 10SM CLR 23/17 A3011 RMK AO2 SLP203 T02280172 402940200 TSNO PNO", "PHKO 300953Z AUTO 09004KT 10SM FEW030 23/18 A3004 RMK AO2 SLP172 T02280178 402830222 TSNO $", "PHLI 301001Z AUTO 08014KT 10SM FEW019 BKN031 OVC050 24/20 A3013 RMK AO2 T02390200 TSNO $", "PHMK 300954Z AUTO 05010G17KT 10SM CLR 22/19 A3011 RMK AO2 SLP197 T02220189 402830200 TSNO", "PHNG 300957Z AUTO 08008KT OVC065 26/19 A3010 RMK AO2 SLP187 T02610194 402830239 $", "PHNL 300953Z 07013KT 10SM FEW024 FEW038 24/19 A3010 RMK AO2 SLP193 T02390183 403170222", "PHNY 300956Z AUTO 05010KT 10SM FEW020 19/18 A3014 RMK AO2 SLP187 T01940178 402500183", "PHOG 300954Z AUTO 04010KT 10SM FEW065 23/18 A3010 RMK AO2 SLP198 T02280183 402940200 TSNO $", "PHSF 300955Z AUTO 11008KT 10SM CLR 08/08 A3038 RMK AO2 SLP179 T00840075 402110079 $", "PHTO 300953Z AUTO 23003KT 6SM -RA BR SCT042 BKN060 21/18 A3010 RMK AO2 RAB45 SLP191 P0001 T02060183 402670189 TSNO", "PKMR 300950Z 06007KT 15SM FEW015 SCT300 28/25 A2982 RMK SLP098 T02840250", "PKWA 301000Z AUTO 06017KT 10SM CLR 28/24 A2985 RMK AO2 T02770241 TSNO", "PLCH 301000Z 05004KT 9999 FEW018TCU 27/25 Q1009", "PMDY 300956Z AUTO 10SM CLR 21/17 A3014 RMK AO2 SLP206 T02060172 TSNO $", "PPIZ 300956Z AUTO 03012KT 10SM CLR M16/M18 A2999 RMK AO2 SLP160 T11561178 FZRANO", "PTKK 300950Z 05008KT 15SM FEW014 SCT120 OVC280 27/26 A2980 RMK SLP093 T02730257", "PTTP 300953Z 10006KT 15SM SCT018 OVC300 29/25 A2983 RMK SLP100 T02860248", "PTYA 300955Z 10007KT 12SM FEW016 BKN130 OVC300 27/25 A2976 RMK SLP078 T02740253", "PWAK 300955Z AUTO 05019KT 10SM FEW020 SCT055 25/21 A3003 RMK AO2 RAB0859E09RAB33E43 SLP175 P0000 T02510214", "RCFN 301000Z 01004KT 310V070 9000 3000SW -RA FEW004 BKN015 OVC030 22/22 Q1012 NOSIG RMK A2991", "RCKH 301000Z 32008KT 290V360 9999 FEW015 BKN060 29/20 Q1009 NOSIG RMK A2981", "RCMQ 301000Z 01011KT 9999 FEW008 SCT050 BKN100 20/17 Q1012 NOSIG RMK A2989", "RCNN 301000Z 01011KT 9999 FEW012 SCT080 26/18 Q1010 RMK A2984", "RCSS 301000Z 09012KT 9999 FEW013 BKN022 BKN032 19/15 Q1014 NOSIG RMK A2995", "RCTP 301000Z 04016KT 9999 FEW015 BKN020 BKN030 20/17 Q1014 NOSIG RMK A2995", "RJAA 301000Z VRB01KT 9999 FEW020 BKN/// 19/18 Q1005 BECMG 02005KT", "RJAF 300900Z 34008KT 310V010 9999 FEW020 SCT170 BKN/// 15/11 Q1007", "RJAH 301000Z 06009KT 8000 -SHRA FEW008 BKN015 15/15 Q1006", "RJAW 300900Z 11007KT 9999 FEW012 24/22 Q1015 RMK 1CU012 A2998 WIND BY EQPT/25", "RJBB 301000Z 16004KT 9999 FEW020 BKN/// 17/12 Q1010 BECMG 12005KT", "RJBD 301000Z 33006KT 290V350 9999 FEW030 SCT180 BKN/// 16/12 Q1009", "RJBE 301000Z 24007KT 9999 FEW030 SCT050 BKN/// 16/13 Q1010", "RJBT 300900Z 36005KT 9999 FEW030 BKN/// 16/00 Q1010", "RJCB 301000Z 31008KT 9999 FEW030 BKN/// 13/03 Q0998", "RJCC 301000Z 17012KT 9999 FEW020 BKN045 11/06 Q1001", "RJCH 301000Z 26013KT 9999 FEW020 SCT040 12/08 Q1002", "RJCK 301000Z 21008KT 1400 R17/P2000N BCFG BR SCT001 BKN/// 07/07 Q0997", "RJCM 301000Z 02010KT 9999 FEW020 BKN/// 12/09 Q0996", "RJCN 300900Z 24004KT 220V310 9999 FEW035 BKN/// 13/11 Q0994", "RJCO 301000Z 18009KT 9999 FEW030 BKN050 14/06 Q1000", "RJCW 300900Z 21023G36KT 9999 FEW010 SCT014 BKN018 08/05 Q0994", "RJDB 301000Z AUTO 26005KT 230V300 9999 NCD 16/09 Q1012", "RJDC 301000Z 30007KT 270V350 CAVOK 17/08 Q1011", "RJDT 301000Z VRB02KT CAVOK 15/07 Q1011", "RJEC 301000Z 21010G21KT 9999 -SHRA FEW012 SCT020 BKN040 12/06 Q0998", "RJFE 301000Z 34005KT CAVOK 14/06 Q1013", "RJFF 301000Z 31010KT 9999 FEW030 SCT/// 17/09 Q1012 NOSIG", "RJFG 300900Z 28013KT 9999 FEW020 SCT070 BKN/// 16/13 Q1011", "RJFK 301000Z 29005KT 9999 FEW025 SCT140 BKN/// 15/12 Q1011", "RJFM 301000Z 14009KT 9999 FEW030 SCT170 BKN/// 18/13 Q1011", "RJFO 301000Z 28005KT CAVOK 17/07 Q1011", "RJFR 301000Z 31012KT CAVOK 17/10 Q1011", "RJFS 301000Z 28011KT 9999 FEW035 SCT/// 17/11 Q1011", "RJFT 301000Z 21004KT 9999 FEW030 16/11 Q1012", "RJFU 301000Z 31014KT CAVOK 17/09 Q1012", "RJGG 301000Z 33012KT 9999 FEW020 BKN/// 16/11 Q1010 NOSIG", "RJKA 301000Z 36005KT 320V030 8000 -SHRA FEW011 FEW015CB SCT020 BKN030 18/16 Q1013", "RJKI 301000Z AUTO 33011KT 9999 FEW015 BKN017 OVC020 //////TCU 19/16 Q1013", "RJNK 301000Z 21007KT 9999 FEW100 BKN/// 15/09 Q1011", "RJNS 301000Z 25017KT 9999 FEW015 SCT140 BKN/// 17/09 Q1006", "RJNT 301000Z 26004KT 230V310 9999 FEW050 SCT/// 15/05 Q1011", "RJNW 301000Z 26011KT 240V300 9999 FEW015 12/10 Q1010", "RJNY 300940Z 26018KT 9999 FEW025 BKN150 BKN240 19/09 Q1005 RMK 1CU025 5AC150 A2970", "RJOA 301000Z VRB02KT CAVOK 14/10 Q1011", "RJOB 301000Z 25004KT 9999 FEW030 SCT/// 15/10 Q1010", "RJOC 301000Z 27007KT CAVOK 15/09 Q1010", "RJOH 301000Z 27010KT 9999 FEW030 16/09 Q1010", "RJOI 300956Z 17008KT 10SM FEW100 SCT270 17/11 A2984 RMK AO2 SLP105 T01720111", "RJOK 301000Z 14003KT 9999 FEW020 SCT170 BKN180 17/13 Q1010", "RJOM 301000Z 18005KT 9999 FEW030 SCT/// 16/10 Q1011", "RJOO 301000Z VRB02KT 9999 FEW030 BKN/// 18/12 Q1010", "RJOR 301000Z 30007KT 9999 FEW050 SCT/// 15/10 Q1011", "RJOS 301000Z VRB01KT 9999 FEW030 SCT180 BKN/// 18/10 Q1010", "RJOT 301000Z 22005KT 9999 FEW030 BKN/// 15/10 Q1010", "RJOW 301000Z 28007KT 9999 FEW025 SCT/// 14/08 Q1011", "RJOY 301000Z VRB01KT 9999 FEW025 BKN/// 18/12 Q1010", "RJSA 301000Z 24015KT 9999 FEW030 BKN050 BKN/// 13/07 Q1003", "RJSC 301000Z 27004KT 9999 FEW030 BKN/// 15/07 Q1007", "RJSF 301000Z 36008KT 9999 FEW020 BKN170 BKN/// 13/09 Q1008", "RJSH 300901Z 25022G32KT 9999 FEW030 SCT050 BKN/// 15/06 Q1002 RMK 2CU030 4SC050 A2960", "RJSI 301000Z 24004KT 190V350 9999 FEW040 BKN050 BKN/// 14/06 Q1006", "RJSK 301000Z 24004KT 200V280 9999 FEW010 SCT015 BKN035 13/10 Q1007", "RJSM 301000Z 25015KT 9999 FEW030 BKN040 BKN/// 15/04 Q1003", "RJSN 301000Z 24011KT 9999 FEW020 SCT040 BKN/// 15/10 Q1010", "RJSR 301000Z 23011KT 9999 FEW020 BKN030 13/09 Q1006", "RJSS 301000Z 28005KT 240V340 9999 FEW040 BKN170 BKN/// 17/06 Q1005", "RJSY 301000Z 24016KT 9999 FEW020 SCT050 BKN/// 14/11 Q1008", "RJTT 301000Z 19009KT 9999 FEW015 BKN160 BKN/// 21/16 Q1005 BECMG TL1130 32006KT", "RJTY 300955Z AUTO 03005KT 10SM OVC029 20/17 A2971 RMK AO2 OVC V BKN SLP063 T01970173", "RKJB 301000Z 20009KT CAVOK 15/09 Q1013 NOSIG", "RKJK 300955Z AUTO 22016KT 6SM HZ CLR 15/08 A2984 RMK AO2 SLP109 T01460076 $", "RKNN 300910Z 26007G017KT 9999 FEW080 SCT170 20/00 A2974", "RKNW 300915Z 26005KT 9999 FEW030 BKN130 18/02 A2978 RMK CIG130", "RKNY 301000Z 27010G21KT 190V340 9999 FEW070 17/02 Q1006 WS ALL RWY NOSIG", "RKPC 301000Z 25006KT CAVOK 15/06 Q1014 NOSIG", "RKPK 301000Z 18004KT 9999 FEW050 FEW200 17/05 Q1011", "RKSG 300855Z 26007G15KT 210V280 10SM CLR 17/06 A2982 RMK SLP096 WND DATA ESTMD T01670064 55001 $", "RKSI 301000Z 23008KT CAVOK 12/09 Q1010 NOSIG", "RKSM 300900Z 24007KT 9999 BKN130 16/07 A2979", "RKSO 300855Z 24010KT 8SM HZ BKN120 17/09 A2982 RMK AO2A SLP102 T01700087 55007 $", "RKSS 301000Z 23006KT 160V260 9999 -RA NSC 13/09 Q1009 NOSIG", "RKTN 301000Z 30010KT CAVOK 21/M03 Q1009", "RKTU 301000Z 23015KT CAVOK 17/04 Q1009", "ROAH 301000Z 01014KT 9999 FEW015 BKN020 23/19 Q1012", "RODE 300959Z AUTO A2993 RMK AO2 SLPNO PWINO TSNO $", "RODN 300955Z 36008KT 10SM OVC018 22/18 A2987 RMK AO2A SLP121 T02180184 $", "ROIG 301000Z 02012KT 6000 -SHRA SCT004 BKN009 21/21 Q1011", "ROMD 301000Z AUTO 20006KT 9999 FEW003 SCT007 BKN029 25/25 Q1011", "ROMY 301000Z 04011KT 9000 -SHRA SCT006 BKN011 BKN060 22/22 Q1011", "RORK 301000Z AUTO 19005KT 9999 FEW001 SCT010 BKN015 25/24 Q1011", "RORS 301000Z 03013KT 8000 VCSH SCT010 BKN015 23/21 Q1011", "RORT 301000Z AUTO 03010KT 6000 -RA OVC010 22/21 Q1011", "RORY 301000Z AUTO 36011KT 9999 OVC017 21/18 Q1013", "ROTM 300856Z 06004KT 9999 OVC016 23/19 A2989 RMK SLP106 T02280194 53005", "ROYN 301000Z AUTO 02021KT 9999 OVC017 22/19 Q1012", "RPLB 301000Z 34007KT 260V030 9999 SCT018TCU BKN300 30/26 Q1008 RMK A2977 TCU ALQDS", "RPLC 301000Z 16012KT 7000 TS FEW015CB SCT020 BKN300 32/23 Q1007 NOSIG RMK A2974 CB N", "RPLI 301000Z 34008KT 8000 VCSH FEW017CB SCT290 30/26 Q1008 NOSIG RMK A2977 CB SE-S VCSH SE", "RPLL 301000Z 14008KT 100V270 9999 FEW022CB SCT025 32/25 Q1008 NOSIG RMK A2977 CB N", "RPMD 301000Z 36006KT 9999 VCSH SCT015CB 30/25 Q1006 RMK A2971 CB/VCSH N,SW,W", "RPMR 300900Z 15012KT 9999 FEW017CB BKN080 28/25 Q1006 RMK A2971 CB NW,S", "RPMZ 301000Z 27003KT 9999 FEW016CB SCT080 BKN300 29/25 Q1007 RMK A2974 CB N-SE", "RPVD 300900Z 07012G18KT 9999 VCSH FEW014CB BKN070 30/26 Q1006 RMK A2971 CB/VCSH NE-E,W,NW", "RPVM 301000Z 02013KT 9999 FEW020 OVC100 29/25 Q1008 NOSIG RMK A2977", "RPVP 301000Z 06004KT 9999 FEW019 SCT080 30/23 Q1007 RMK A2974", "SAAR 301000Z 02010KT 9999 FEW046 24/20 Q1004 RMK PP000", "SABE 301000Z 34010KT CAVOK 21/17 Q1006 NOSIG RMK PP000", "SACO 301000Z 35007KT 310V020 CAVOK 18/16 Q1003 NOSIG RMK PP000", "SADF 301000Z 01008KT CAVOK 20/16 Q1006 RMK PP000", "SAEZ 301000Z 01011KT CAVOK 22/16 Q1005 NOSIG RMK PP000", "SAME 301000Z 14010KT CAVOK 17/05 Q1007", "SANT 301000Z 33003KT 280V030 CAVOK 18/17 Q1004 RMK PP000", "SAOC 301000Z 27004KT CAVOK 15/15 Q1003", "SARC 301000Z 05010KT CAVOK 22/19 Q1009", "SARE 301000Z 03011KT CAVOK 22/19 Q1009 RMK PP///", "SARF 301000Z 05012KT CAVOK 23/20 Q1010", "SARI 301000Z 08006KT CAVOK 16/15 Q1016 RMK PP000", "SARL 301000Z 05003KT CAVOK 19/16 Q1011", "SARP 301000Z 05003KT CAVOK 20/17 Q1013", "SASA 301000Z VRB02KT 9999 FEW015 BKN023 14/13 Q1011 RMK PP000", "SASJ 301000Z 30006KT CAVOK 18/15 Q1009 RMK PP000", "SAVC 301000Z 25008KT 9999 FEW018 05/03 Q1009 RMK PP000", "SAWE 301000Z 25005KT CAVOK M03/M05 Q1003 RMK PP000", "SAWG 301000Z 25007KT CAVOK 01/M02 Q1007", "SAWH 300900Z 01005KT 330V040 9999 SCT035 BKN080 01/M04 Q1001 RMK PP000", "SAZM 301000Z 34010KT CAVOK 18/15 Q1004 RMK PP///", "SAZN 301000Z 25003KT CAVOK 09/05 Q1012", "SAZR 300945Z 18026G40KT 9999 BKN040 16/05 Q1007 RMK PP000", "SAZS 301000Z 33004KT 9999 BKN015 BKN021 03/01 Q1010 RMK PP///", "SBAN 300900Z 11007KT CAVOK 19/16 Q1020", "SBAR 301000Z 11008KT 9999 VCSH SCT017 BKN040 27/24 Q1014", "SBBE 301000Z 10004KT 9999 FEW012 26/24 Q1012", "SBBG 301000Z AUTO 05006KT CAVOK 15/13 Q1014", "SBBH 300900Z 12004KT CAVOK 17/13 Q1019", "SBBR 301000Z VRB02KT 9999 FEW040 18/15 Q1021", "SBBU 300900Z 17005KT CAVOK 17/16 Q1017", "SBBV 301000Z 09006KT 9999 SCT040 BKN070 25/23 Q1013", "SBCB 301000Z 01003KT 9999 BKN020 23/21 Q1018", "SBCF 301000Z 16002KT CAVOK 17/15 Q1020", "SBCG 301000Z 07013KT CAVOK 21/17 Q1015", "SBCO 300900Z 10001KT 8000 NSC 12/11 Q1015", "SBCP 301000Z 18012KT 4000 -RA BKN006 OVC080 22/21 Q1018", "SBCT 301000Z 08003KT 9000 BKN007 BKN020 15/15 Q1021", "SBCY 301000Z 26004KT CAVOK 24/23 Q1013", "SBDN 300900Z 11007KT CAVOK 17/16 Q1017", "SBEG 301000Z 00000KT CAVOK 24/23 Q1012", "SBES 300900Z 01004KT 330V030 9000 BCFG FEW004 SCT030 21/20 Q1017", "SBFI 301000Z 10006KT CAVOK 17/16 Q1016", "SBFL 301000Z 33005KT CAVOK 20/20 Q1018", "SBFN 301000Z AUTO 12010KT 090V150 9999 SCT019 29/25 Q1013", "SBFZ 301000Z 18003KT 140V240 6000 -SHRA SCT021 FEW030TCU 26/24 Q1013", "SBGL 301000Z 08003KT 9999 FEW013 SCT015 BKN020 21/20 Q1017", "SBGO 301000Z 12004KT CAVOK 19/18 Q1018", "SBGR 301000Z 10004KT 9999 SCT017 BKN023 18/17 Q1020", "SBGW 300900Z VRB02KT 9999 BKN025 19/18 Q1019", "SBIP 300900Z AUTO VRB01KT 9999 OVC002 21/17 Q1017", "SBIZ 300900Z 00000KT 9999 SCT012 24/23 Q1013", "SBJP 301000Z 25004KT 220V280 9999 BKN018 FEW025TCU 26/25 Q1014", "SBJU 300900Z 00000KT 9999 BKN020 24/24 Q1017", "SBJV 300900Z 00000KT 4000 BR BKN009 BKN030 19/19 Q1018", "SBKG 300900Z 21003KT 9999 SCT015 22/21 Q1016", "SBKP 301000Z 12008KT 9999 SCT045 17/16 Q1019", "SBLB 300908Z AUTO 03027KT 2000 RA BKN020 22/21 Q1017 W///S4", "SBLE 300900Z AUTO 20003KT 170V230 9999 FEW018 OVC041 21/20 Q1018", "SBLO 301000Z 18002KT CAVOK 16/16 Q1019", "SBLS 300900Z 16007KT CAVOK 17/15 Q1019", "SBMA 301000Z 00000KT 9999 FEW010 SCT100 24/24 Q1013", "SBME 300900Z 11003KT 9999 SCT035 SCT080 23/23 Q1017", "SBMG 300900Z 09013KT CAVOK 17/15 Q1016", "SBMK 300900Z 06004KT 9999 FEW020 19/19 Q1018", "SBMN 301000Z 07002KT 9999 FEW010 25/24 Q1012", "SBMO 301000Z 03006KT 5000 -RA SCT008 BKN020 23/23 Q1015", "SBMQ 301000Z 30002KT CAVOK 25/25 Q1012", "SBMT 300900Z 10005KT 6000 SCT013 BKN018 18/18 Q1019", "SBNF 301000Z 25007KT 0800 FG BKN002 OVC004 18/18 Q1018", "SBNT 301000Z 19004KT 170V230 9999 FEW011 SCT020 FEW025TCU 25/24 Q1013 RERA", "SBOI 301000Z 00000KT 7000 FEW002 BKN030 24/23 Q1013", "SBPA 301000Z 07002KT 6000 2000E BCFG NSC 15/14 Q1015", "SBPJ 301000Z 12003KT 9999 FEW025 FEW030TCU 25/23 Q1014", "SBPL 301000Z 17008KT 9999 FEW020 BKN070 26/22 Q1016", "SBPS 301000Z 16003KT 100V200 9000 VCSH BKN020 BKN090 23/22 Q1016", "SBPV 301000Z 22001KT 9999 SCT030 24/23 Q1011", "SBRB 301000Z 34004KT CAVOK 24/24 Q1012", "SBRF 301000Z 11005KT 060V140 9999 VCSH FEW010 SCT023 FEW025TCU BKN045 27/24 Q1013", "SBRJ 301000Z 08005KT 9999 SCT020 23/21 Q1017", "SBRP 301000Z 12005KT CAVOK 16/15 Q1017", "SBSC 300900Z 33006KT 5000 BR FEW005 SCT015 BKN040 21/19 Q1018", "SBSG 301000Z 23004KT 9999 BKN020 25/24 Q1014", "SBSJ 301000Z 00000KT 9999 BKN021 18/18 Q1020", "SBSL 301000Z 07004KT CAVOK 27/26 Q1012", "SBSM 300900Z 02006KT CAVOK 19/15 Q1014", "SBSN 301000Z 09004KT 9999 FEW020 SCT100 25/25 Q1012", "SBSP 301000Z 10002KT 9000 BKN010 18/16 Q1021", "SBSR 300900Z 00000KT CAVOK 18/15 Q1016", "SBSV 301000Z 11007KT 9999 SCT020 28/25 Q1015", "SBTA 300900Z VRB02KT 9999 FEW019 OVC023 18/17 Q1019", "SBTE 301000Z 21003KT 9999 SCT006 BKN008 25/24 Q1013", "SBTU 300900Z AUTO 18004KT 9999 // FEW033/// 23/23 Q1014", "SBUL 300900Z 09007KT CAVOK 19/15 Q1019", "SBUR 300900Z 05005KT CAVOK 19/16 Q1018", "SBVT 301000Z 32001KT 9999 SCT040 BKN070 23/22 Q1017", "SBYS 300900Z VRB01KT 0600 R02/2000D R20/P2000 FG VV002 15/15 Q1018", "SCAP 301000Z AUTO VRB01KT 9999 ////// 04/02 Q1015", "SCAR 301000Z 33003KT 9999 OVC030 21/15 Q1016", "SCAT 301001Z AUTO 13005KT 1400 R17/P2000N BR OVC001/// 13/13 Q1017", "SCBA 301000Z AUTO 30014KT 9999 NCD 02/00 Q1007", "SCCF 301000Z 10020KT CAVOK 03/M11 Q1028", "SCCH 301000Z AUTO 36005KT 9999 -RA ///////// 10/09 Q1019 RESHRA", "SCCI 301000Z 29004KT 9999 BKN045 02/M03 Q1004 NOSIG", "SCCY 301000Z AUTO VRB02KT 9999 FEW042 04/03 Q1009", "SCDA 301000Z 00000KT 9999 OVC030 19/15 Q1016", "SCEL 301000Z 27004KT 9999 BKN025 BKN035 12/11 Q1020 NOSIG", "SCFA 301000Z 07004KT CAVOK 13/11 Q1016 NOSIG", "SCFT 301000Z AUTO 28004KT 260V320 9999 SCT011/// BKN026/// BKN057/// 03/03 Q1012", "SCHR 301000Z AUTO VRB02KT 9999 OVC037 05/03 Q1006", "SCIE 301000Z VRB02KT 9999 FEW035 SCT059 09/09 Q1019", "SCIP 301000Z 10011KT CAVOK 20/14 Q1027 NOSIG", "SCJO 301006Z AUTO 35004KT 1100 BR SCT001/// SCT003/// BKN046/// 06/06 Q1015", "SCMK 301000Z AUTO 21009KT //// // OVC070/// 08/05 Q1013", "SCON 301000Z AUTO 29003KT 9999 FEW038/// 05/04 Q1014", "SCPD 301000Z AUTO 36009KT //// ///////// 14/08 Q1020", "SCPQ 301000Z AUTO 22003KT 9999 FEW040 04/03 Q1013", "SCQP 301000Z 31006KT 9999 FEW020 SCT032 09/07 Q1017", "SCRM 300900Z 35005KT 8000 BKN015 M05/M08 Q0988 NOSIG", "SCSE 301000Z AUTO 31001KT 9999 OVC032/// 16/16 Q1019", "SCSN 301000Z AUTO VRB02KT //// R/////// // NCD 13/13 Q1021", "SCTE 301000Z 35002KT 9999 SCT004 BKN040 05/05 Q1014 NOSIG", "SCTN 301000Z AUTO 30004KT 260V330 9999 SCT015 BKN030 OVC038 08/07 Q1014", "SCVD 301000Z AUTO VRB02KT //// R35///// FEW020 SCT025 OVC033 08/07 Q1016", "SCVM 301000Z 18006KT 9999 BKN016 13/12 Q1021", "SEGU 301000Z METAR 12002KT 9999 BKN020 BKN100 25/24 Q1010 NOSIG RMK A2985", "SELT 301000Z 19002KT 9999FEW010 BKN033 09/09 Q1031", "SEMT 300900Z 00000KT 9999 SCT020 25/23 Q1011", "SEQM 301000Z 05003KT 9999 SCT005 BKN020 13/12 Q1027 NOSIG RMK A3034", "SGAS 301000Z 07009KT CAVOK 22/19 Q1011", "SGCO 300900Z 07008KT CAVOK 23/20 Q1010", "SGEN 301000Z 07010KT CAVOK 20/16 Q1014", "SGES 301000Z 09004KT CAVOK 17/17 Q1015", "SKBO 301000Z 00000KT 9999 FEW015 BKN070 12/11 Q1027 NOSIG RMK A3034", "SKBQ 301000Z 04004KT 7000 VCFG BKN008 27/26 Q1010 NOSIG RMK A2984", "SKCG 301000Z 00000KT 9999 FEW017 SCT200 27/25 Q1010 RMK A2983", "SKCL 301000Z 06004KT 9000 SCT015 SCT080 21/20 Q1016 NOSIG RMK HZ A3003", "SKLT 301000Z VRB02KT 8000 RA OVC010 23/23 Q1013 RMK A2992", "SKPE 301000Z 13004KT 9999 SCT017 SCT080 20/17 Q1018 RMK A3008", "SKRG 301000Z 01006KT 7000 DZ BKN008 OVC080 15/15 Q1026 NOSIG RMK A3031", "SKSP 301000Z 10005KT 060V150 9999 FEW016 28/24 Q1012 RMK A2989", "SLCB 301000Z 28003KT 9999 NSC 09/05 Q1023", "SLET 301000Z 32013G24KT 9999 BKN010 BKN017 25/24 Q1010", "SLLP 301000Z VRB02KT 9999 NSC 03/M03 Q1039", "SLTR 301000Z 00000KT 9999 FEW080 24/24 Q1011", "SLVR 301000Z 35014KT 9999 FEW010 SCT017 24/23 Q1010", "SMJP 301000Z 00000KT 0800 FG SCT000 23/23 Q1013 BECMG FM 0730 2000 BR", "SMZO 301000Z 00000KT 9999 SCT010 SCT020 24/23 Q1013 NOSIG", "SOCA 301000Z AUTO 00000KT 9999 FEW024 SCT046 BKN064 23/23 Q1013 TEMPO 4500 -SHRA SCT015TCU BKN025", "SPHI 301000Z 17004KT CAVOK 24/21 Q1012 RMK BIRD HAZARD RWY 19/01 PP000", "SPHO 301000Z 00000KT 9999 FEW035 11/03 Q1029 RMK PP000", "SPJC 301000Z 17007KT 9999 OVC017 23/19 Q1013 NOSIG RMK PP000", "SPQT 301000Z 31003KT 280V340 9999 SCT005 BKN012 BKN100 25/24 Q1012 NOSIG RMK PP000", "SPRU 301000Z 14007KT 7000 BCFG BKN060 23/20 Q1012 RMK PP000", "SPSO 301000Z 19001KT 9000 4000NE NSC 19/17 Q1013 RMK FU PP000", "SPUR 301000Z 07002KT 9999 SCT030 BKN100 24/22 Q1012 RMK PP000", "SUAA 301000Z 02014KT CAVOK 18/15 Q1009", "SUCA 301000Z 02013KT CAVOK 20/15 Q1007", "SULS 301000Z 04006KT CAVOK 18/15 Q1010", "SUMU 300900Z 02007KT CAVOK 17/15 Q1009 NOSIG", "SUSO 301000Z 05005KT CAVOK SCT023 BKN200 19/17 Q1009", "SVBC 301003Z AUTO 16004KT NCD 26/24 Q1013", "SVBI 301003Z AUTO /////KT NCD 25/24 Q1016", "SVBM 301003Z AUTO 04001KT NCD 20/19 Q1015", "SVBS 301003Z AUTO 02001KT NCD 23/21 Q1015", "SVCB 301003Z AUTO 11004KT NCD 24/22 Q1013", "SVCS 301003Z AUTO 26001KT NCD 22/20 Q1017", "SVFM 301003Z AUTO NIL", "SVGD 301003Z AUTO 24001KT NCD 24/24 Q1013", "SVGU 301003Z AUTO 29001KT NCD 24/22 Q1013", "SVJM 301003Z AUTO 10002KT NCD 23/23 Q1013", "SVLO 301003Z AUTO NIL", "SVMC 301003Z AUTO 35004KT NCD 27/25 Q1010", "SVMG 301003Z AUTO 10010KT NCD 26/25 Q1013", "SVMI 301003Z AUTO 25004KT NCD 26/23 Q1013", "SVMT 301003Z AUTO 03003KT NCD 24/24 Q1014", "SVPA 301003Z AUTO NIL", "SVPR 301003Z AUTO 10003KT NCD 23/21 Q1015", "SVSA 301003Z AUTO NIL", "SVSR 301003Z AUTO NIL", "SVVA 301003Z AUTO 15001KT NCD 26/25 Q1014", "SVVL 301003Z AUTO ///01KT NCD ///// Q////", "SYCJ 301000Z 10006KT 9999 FEW020 24/24 Q1014 NOSIG", "TAPA 301000Z VRB01KT 9999 FEW020 25/23 Q1016 NOSIG", "TBPB 301000Z 09006KT 9999 BKN020 26/24 Q1015 NOSIG", "TDPD 301000Z 29003KT 9999 BKN021 24/24 Q1016", "TFFF 301000Z AUTO 13003KT 9999 ////// 24/22 Q1015", "TFFR 301000Z AUTO 10003KT 9999 FEW019 24/23 Q1015 NOSIG", "TGPY 301000Z 09017KT 9999 FEW017 27/24 Q1014 NOSIG", "TIST 300953Z 08006KT 10SM CLR 26/23 A2999 RMK AO2 SLP154 T02560233", "TISX 300953Z AUTO 01004KT 10SM CLR 24/23 A3000 RMK AO2 SLP156 T02390228", "TJNR 300953Z AUTO 14005KT 10SM SCT019 SCT042 26/23 A3000 RMK AO2 SLP160 T02560233", "TJPS 300955Z AUTO 00000KT 10SM FEW021 25/21 A2998 RMK AO2 TSNO", "TJSJ 300956Z 11003KT 10SM SCT027 SCT075 BKN090 25/23 A2999 RMK AO2 RAB27E50 SLP154 VCSH N-E SE S P0000 T02500228", "TKPK 301000Z 05005KT 9999 FEW016 25/23 Q1016", "TLPL 301000Z 11014KT 9999 FEW024 27/21 Q1015 NOSIG", "TNCA 301000Z 10019KT 9999 FEW017 27/24 Q1011 NOSIG", "TNCB 300955Z AUTO 10010KT 070V140 9999 +DZRA SCT011/// BKN016/// BKN019/// 27/25 Q1012", "TNCC 301000Z 11009KT 9999 FEW015 26/24 Q1012 NOSIG", "TNCE 300955Z AUTO 07005KT 020V110 //// // ///////// 26/23 Q1015 RE//", "TNCM 301000Z 02006KT 9999 VCSH FEW015TCU SCT016 26/24 Q1017 TEMPO SHRA RMK TCU+VCSH NNE", "TTCP 301000Z 10008KT 9999 VCSH FEW016 26/23 Q1014 NOSIG RMK VCSH NE", "TTPP 301000Z 11003KT 9999 FEW018 25/23 Q1014 NOSIG", "TXKF 300955Z 21007KT 9999 BKN015 BKN300 21/20 Q1015 ", "UAAA 301000Z 17008MPS 9999 SCT050CB BKN100 20/06 Q1011 TEMPO 16010G15MPS", "UAAH 301000Z 07008MPS CAVOK 24/M00 Q1011 NOSIG RMK QFE721/0961", "UAAT 301000Z 31004MPS 260V340 9999 BKN050CB BKN100 26/04 Q1008 NOSIG RMK QFE705/0940", "UACC 301000Z 01006MPS 330V050 CAVOK 14/M09 Q1020 NOSIG RMK QFE733/0978", "UACK 301000Z 35008MPS 320V020 CAVOK 16/M08 Q1020 NOSIG RMK QFE741/0988", "UACP 301000Z 33007MPS CAVOK 10/M09 Q1022 NOSIG RMK QFE754/1005", "UADD 301000Z 02008MPS 9999 BKN050CB OVC100 28/03 Q1009 NOSIG RMK QFE699/0933", "UAII 301000Z 27003MPS 240V300 CAVOK 31/01 Q1008 NOSIG RMK QFE721/0961", "UAIT 301000Z 14003MPS CAVOK 31/00 Q1007 NOSIG RMK QFE731/0974", "UAKD 301000Z 05009G14MPS CAVOK 23/M01 Q1016 NOSIG RMK QFE728/0971", "UAKK 301000Z 02006G11MPS 360V060 CAVOK 15/M10 Q1017 NOSIG RMK QFE716/0954", "UAOO 301000Z 07007MPS CAVOK 32/M00 Q1010 NOSIG RMK QFE746/0994", "UARR 301000Z 12007MPS CAVOK 29/10 Q1013 NOSIG RMK QFE756/1009", "UASK 301000Z 31010MPS 270V330 9999 NSC 15/M10 Q1010 NOSIG RMK QFE732/0977", "UASP 301000Z 32010MPS CAVOK 13/M08 Q1016 NOSIG RMK QFE751/1002", "UASS 301000Z 29009G17MPS 260V340 CAVOK 14/M09 Q1013 NOSIG RMK QFE742/0989", "UATE 301000Z 17009MPS CAVOK 30/08 Q1007 NOSIG RMK QFE753/1005", "UATG 301000Z 15010MPS CAVOK 34/01 Q1009 NOSIG RMK QFE759/1012", "UATT 301000Z 14005MPS 090V160 CAVOK 25/06 Q1018 NOSIG RMK QFE744/0992", "UAUU 301000Z 16003MPS 120V250 CAVOK 20/M08 Q1021 NOSIG RMK QFE749/0999", "UBBB 301000Z 32010KT CAVOK 22/14 Q1007 NOSIG", "UBBF 301000Z 11012KT 9999 VCTS SCT040CB BKN070 24/15 Q1006 RETS NOSIG RMK MT OP", "UBBG 301000Z 26006KT 230V290 9999 FEW050CB BKN083 19/15 Q1006 NOSIG", "UBBL 301000Z 13011KT 9999 SCT060TCU BKN100 20/16 Q1006 NOSIG RMK MT OP", "UBBN 301000Z 18016G26KT 9999 FEW046CB BKN100 24/M05 Q1006 NOSIG RMK MT OP QFE680", "UBBQ 301000Z 12012KT 9999 BKN150 29/11 Q1006 NOSIG RMK MT PT OBSC", "UBBY 301000Z 23004KT 9999 FEW035CB SCT040 BKN100 23/13 Q1009 NOSIG RMK MT OP", "UBBZ 301000Z 04016KT 9999 FEW050CB BKN100 25/14 Q1006 NOSIG RMK MT OP", "UBEE 301000Z 13009KT 9999 FEW043 SCT073CB OVC100 26/14 Q1004 NOSIG", "UCFL 301000Z 26012MPS 9999 SCT030CB 19/M02 Q1014", "UCFM 301000Z 17005MPS 9999 SCT066CB 26/04 Q1009 NOSIG", "UCFO 301000Z VRB01MPS 9999 SCT050CB 27/04 Q1010 NOSIG", "UDSG 301000Z 17016KT 9999 SCT046CB 15/02 Q1010 NOSIG", "UDYZ 301000Z 16007KT 9999 FEW040CB 22/02 Q1006 NOSIG", "UEEE 301000Z 08002MPS CAVOK 10/M05 Q1003 R05/09//60 NOSIG RMK QFE743", "UERP 301000Z 10007G14MPS 9999 SCT040CB OVC100 04/M05 Q0996 NOSIG RMK QFE703", "UERR 301000Z 21001MPS 4000 -SHSN BKN004 OVC021CB 01/01 Q0993 R25/690540 NOSIG RMK QBB130 QFE714/0951", "UGAM 301000Z 08008KT 050V130 9999 BKN050 16/09 Q1009", "UGKO 301000Z 27007KT 230V300 9999 SCT017CB OVC037 14/10 Q1010 NOSIG", "UGMS 301000Z 36007KT 290V050 9999 SCT050CB BKN100 14/M00 Q1011", "UGSB 301000Z 23007KT 9999 SCT023 BKN041 13/11 Q1013 NOSIG", "UGTB 301000Z 33014KT 300V360 9999 -TSRA SCT035CB BKN058 13/11 Q1007 NOSIG", "UHBB 301000Z 36004MPS 9999 FEW033 14/M06 Q1002 R36/090060 NOSIG RMK QFE734/0979", "UHHH 301000Z 06006MPS 9999 -SHRA SCT010 OVC026CB 02/01 Q0999 R05L/290045 R05R/690735 NOSIG RMK QFE743/0991", "UHMA 301000Z 34004MPS CAVOK M14/M16 Q1015 R01/////// NOSIG RMK MID 35005MPS END R01/34005MPS QFE758/1010", "UHMM 301000Z 22003MPS 9999 BKN032 M01/M05 Q1015 RMK MT OBSC QFE746 R28/30002MPS", "UHPP 301000Z 12002MPS 110V170 CAVOK 02/M05 Q1017 R34L/CLRD65 NOSIG RMK QFE759/1012", "UHSS 301000Z 36009MPS 9999 SCT008 OVC029CB 01/M00 Q0996 R01/250160 NOSIG RMK MT OBSC QFE746/0995", "UHWW 301000Z 35005MPS 9999 NSC 09/03 Q1001 R25L/0///70 NOSIG RMK QFE750", "UIAA 301000Z 19002MPS 150V230 9999 NSC 17/M02 Q0999 R29/CLRD70 NOSIG RMK QFE691/0922", "UIBB 301000Z 29008MPS 240V310 9999 NSC 05/M08 Q0999 R30/CLRD60 NOSIG RMK QFE707/0942", "UIII 301000Z 29006MPS 9999 FEW050CB 17/07 Q0993 R30/CLRD60 NOSIG RMK QFE701/0935", "UIUU 301000Z 22005MPS 200V260 9999 FEW050 23/M00 Q0994 R26/CLRD60 NOSIG RMK QFE702/0936", "ULAA 301000Z 20003MPS 170V250 9999 BKN028 10/01 Q1019 R08/CLRD70 NOSIG RMK QFE763/1018", "ULLI 301000Z 21005MPS 9999 -SHRA SCT026CB BKN040 08/07 Q1011 R88/290050 NOSIG", "ULMM 301000Z 17005MPS CAVOK 06/M02 Q1011 R13/090070 NOSIG RMK QFE752", "ULOO 301000Z 18004MPS 9999 SCT017 OVC049 07/06 Q1013 R19/290050 NOSIG RMK QFE755", "ULPB 301000Z 18005MPS CAVOK 14/M02 Q1012 R19///99// NOSIG RMK QFE755/1007", "ULWC 301000Z 19003G08MPS CAVOK 12/M06 Q1018 R21/010060 NOSIG RMK QFE753/1005", "UMBB 301000Z 31005G08MPS 6000 -SHRA BKN032CB SCT100 10/08 Q1015 NOSIG", "UMGG 301000Z 04005MPS CAVOK 16/03 Q1015 NOSIG", "UMII 301000Z 21005G08MPS CAVOK 14/M04 Q1014 NOSIG", "UMIO 301000Z 23004G07MPS 190V280 CAVOK 14/M01 Q1014 NOSIG RMK QFE743/0991", "UMKK 301000Z 31007MPS 9999 SCT032 10/05 Q1018 R24/CLRD95 NOSIG RMK QFE763/1017", "UMMG 301000Z 33003MPS 9000 SCT013 BKN066 09/07 Q1016 NOSIG", "UMMS 301000Z 18004G09MPS 130V280 CAVOK 16/M01 Q1014 NOSIG", "UMOO 301000Z 18004MPS CAVOK 15/M07 Q1016 NOSIG", "UNAA 301000Z 03004MPS CAVOK 12/M03 Q1003 R02/CLRD64 NOSIG RMK QFE730", "UNBB 301000Z 31006MPS CAVOK 09/M12 Q1011 R24/CLRD66 NOSIG RMK QFE736", "UNEE 301000Z 31006MPS CAVOK 05/M07 Q1009 R23/CLRD60 NOSIG RMK QFE734", "UNKL 301000Z 30008MPS CAVOK 05/M07 Q1005 R29/CLRD65 NOSIG RMK QFE729", "UNNT 301000Z 33005MPS CAVOK 06/M07 Q1012 R25/090070 R16/090070 NOSIG RMK QFE749/0999", "UNOO 301000Z 33008MPS 9999 SCT040 09/M11 Q1019 R25/CLRD60 NOSIG RMK QFE756", "UNTT 301000Z 29006MPS 9999 BKN038 03/M08 Q1011 R21/090060 NOSIG RMK QFE743", "UNWW 301000Z 01005MPS 9999 SCT033CB 09/M08 Q1007 R01/09//55 NOSIG RMK QFE729", "UOOO 301000Z 01014MPS 3000 1400NE BLSN SCT010 M06/M06 Q1014 R01/520560 NOSIG RMK QFE746/0994", "URKA 301000Z 21011MPS 9000 BKN010 BKN018CB 11/10 Q1009 R22/290160 TEMPO 20015G20MPS 1000 SHRA SCT004 BKN016CB RMK QFE752/1003", "URKK 301000Z 21006MPS 180V240 9999 SCT045 15/07 Q1011 R23L/19//65 TEMPO 3000 -TSRA SCT011 BKN020CB RMK QFE755", "URMG 301000Z 30005MPS 9999 -SHRA FEW014 SCT029CB 15/12 Q1009 R26/290250 NOSIG RMK QFE742/0990", "URML 301000Z 34009MPS 9999 SCT029 19/14 Q1007 R32/01//70 NOSIG RMK QFE755/1007", "URMM 301000Z 30006MPS 9999 BKN024 14/10 Q1009 R30/190049 NOSIG RMK QFE729/0972", "URMN 301000Z 05002MPS 9999 OVC022CB 14/10 Q1008 R24/210155 NOSIG RMK QFE719", "URMO 301000Z 09004MPS 060V150 9999 -SHRA SCT///CB BKN066 11/10 Q1008 R27/290150 NOSIG RMK QFE712/0949", "URMT 301000Z 31006MPS 9999 SCT045 12/07 Q1010 R25/150060 NOSIG RMK QFE719", "URRP 301000Z 24007MPS 9999 SCT030CB 14/10 Q1009 R23/CLRD70 NOSIG RMK QFE749/0999", "URSS 301000Z 28003MPS 9999 FEW016 OVC063 13/10 Q1012 R02/290060 R06/290060 NOSIG RMK R06/29004MPS MT OBSC QFE757", "URWA 301000Z VRB01MPS CAVOK 26/13 Q1007 R27/010070 NOSIG RMK QFE757/1009", "URWI 301000Z 31008MPS 9999 SCT/// 17/09 Q1009 R27/190055 NOSIG", "URWW 301000Z 25007MPS 9999 BKN015 18/14 Q1007 R23/010070 TEMPO 1000 TSRAGR BKN002 BKN020CB", "USCC 301000Z 23003MPS 9999 FEW040 21/02 Q1018 R27/000060 NOSIG RMK QFE743", "USCM 301000Z 19007MPS 9999 NSC 23/03 Q1019 R36/090060 TEMPO 17013MPS RMK QFE726", "USDA 301000Z 30005MPS CAVOK M06/M08 Q1030 R04/CLRD60 NOSIG RMK QFE771/1029", "USHH 301000Z 03005MPS 330V050 CAVOK 04/M06 Q1024 R06/010060 NOSIG", "USNN 301000Z 31006MPS 9999 FEW031 01/M06 Q1017 R03/0///65 NOSIG RMK QFE759", "USPP 301000Z 09004MPS 060V120 9999 FEW043CB 15/03 Q1017 R03/190055 TEMPO 13005G14MPS RMK QFE752", "USRR 301000Z 35007MPS CAVOK 00/M05 Q1021 R25/CLRD60 NOSIG RMK QFE760", "USSS 301000Z 07007MPS CAVOK 11/M05 Q1022 R08L/010060 NOSIG RMK QFE746/0995", "USTR 301000Z 36002MPS 290V100 9999 SCT038CB 06/M07 Q1025 R03/090065 R30/////99 NOSIG", "UTAA 301000Z 09012KT 9999 FEW050CB SCT050 36/M01 Q1004 R88/CLRD70 NOSIG", "UTAK 301000Z 26012KT CAVOK 32/05 Q1006 R16R/CLRD70 NOSIG", "UTAM 301000Z 04010KT CAVOK 34/02 Q1006 R88/CLRD70 NOSIG", "UTAT 301000Z 09012KT 050V140 CAVOK 34/M02 Q1008 R08/CLRD70 NOSIG", "UTAV 301000Z 32008KT CAVOK 33/M02 Q1006 R31/CLRD70 NOSIG", "UTDD 301000Z VRB01MPS 9999 FEW066 28/05 Q1009 R09/CLRD// NOSIG RMK QFE689/0919", "UTDK 301000Z VRB02MPS 9999 NSC 31/03 Q1008 R01/09//70 RMK QFE699/0932", "UTDL 301000Z 11002MPS 070V140 9999 FEW053 31/04 Q1008 R08/CLRD70 NOSIG RMK QFE717/0956", "UTDT 301000Z 30002MPS 270V330 9999 FEW130 32/01 Q1006 R35/CLRD70 RMK QFE715/0954", "UTFF 301000Z 34006KT 270V360 9999 NSC 29/M00 Q1008 R18/CLRD70", "UTFN 301000Z 14006KT 9999 FEW050CB 30/00 Q1008 R28/CLRD70 NOSIG", "UTNN 301000Z 06008KT CAVOK 33/M04 Q1009 R33/CLRD60 NOSIG", "UTNU 301000Z 08008KT CAVOK 33/M05 Q1008 R13/CLRD70 NOSIG", "UTO8 M M M 279/-12/-13/1602/M/M SOG 06 1006 84MM", "UTSA 301000Z 30010KT 270V330 9999 NSC 32/M05 Q1007 R07/CLRD70 NOSIG", "UTSB 301000Z 01008KT 330V050 CAVOK 33/M03 Q1007 R01/CLRD70 NOSIG", "UTSK 301000Z 33008KT 300V360 CAVOK 33/M02 Q1007 R16/CLRD70", "UTSS 301000Z 34006KT 300V030 9999 NSC 28/05 Q1008 R09/CLRD70 NOSIG", "UTST 301000Z 24002KT CAVOK 35/00 Q1005 R25/CLRD70 NOSIG", "UTTT 301000Z 05004KT CAVOK 31/M02 Q1008 R08R/CLRD70 NOSIG", "UUBC 301000Z 04005MPS 350V080 CAVOK 09/M01 Q1014 R31/CLRD60 NOSIG RMK QFE744/0992", "UUBP 301000Z 02006G11MPS CAVOK 09/M02 Q1013 R34/////// NOSIG RMK QFE742/0990", "UUBW 301000Z 05005MPS CAVOK 12/01 Q1015 R30/010060 NOSIG", "UUDD 301000Z 05006MPS 020V090 CAVOK 10/M01 Q1015 R88/CLRD60 NOSIG", "UUDL 301000Z 09004MPS 050V140 CAVOK 13/M01 Q1019 R23/010060 NOSIG RMK QFE756", "UUEE 301000Z 04006MPS CAVOK 11/M01 Q1016 R06R/CLRD62 R06C/CLRD62 NOSIG", "UUMO 301000Z 09005MPS CAVOK 10/01 Q1015 R07/CLRD60 NOSIG RMK QFE747/0996", "UUOB 301000Z 03004MPS 5000 BR OVC003 07/06 Q1007 R11/290060 NOSIG RMK QBB100", "UUOK 301000Z 03004MPS 350V080 9999 OVC007 05/04 Q1009 R30/290050 NOSIG RMK QBB230 QFE738/0984", "UUOL 301000Z 03007MPS 9999 OVC012 09/08 Q1007 R33/090060 NOSIG", "UUOO 301000Z 03004MPS 9999 OVC013 12/09 Q1006 R12/010070 NOSIG RMK QFE740", "UUWW 301000Z 07005MPS CAVOK 10/01 Q1015 R06/000070 NOSIG", "UUYY 301000Z 32003MPS 9999 SCT011 OVC018CB 04/02 Q1020 R36/29//51 NOSIG RMK QFE755/1007", "UWGG 301000Z 07006MPS CAVOK 11/01 Q1018 R36R/090070 NOSIG", "UWKD 301000Z 03005MPS 9999 SCT050CB 18/09 Q1017 R29/CLRD70 NOSIG RMK QFE751/1002", "UWKE 301000Z 27003MPS 240V330 CAVOK 25/04 Q1015 R21/090070 NOSIG RMK QFE745/0993", "UWKS 301000Z 03002MPS 9999 SCT008 07/07 Q1019 R06/290155 NOSIG RMK QFE749", "UWLL 301000Z 04006MPS 9999 FEW050CB 22/05 Q1014 R02/090065 NOSIG RMK QFE748/0998", "UWLW 301000Z 35006MPS CAVOK 22/06 Q1014 R02/CLRD60 NOSIG RMK QFE754/1005", "UWOO 301000Z 16007MPS 130V190 CAVOK 27/06 Q1018 R08/CLRD60 NOSIG RMK QFE752/1003", "UWOR 301000Z 17003MPS 100V200 CAVOK 23/02 Q1020 R07/CLRD65 NOSIG RMK QFE740/0987", "UWPS 301000Z 04008MPS 9999 BKN018 16/11 Q1012 R02/190060 TEMPO 05010G16MPS RMK QFE740", "UWSG 301000Z 13006MPS 100V160 CAVOK 29/11 Q1006 R08/CLRD70 NOSIG RMK QFE752/1003", "UWUU 301000Z 21007MPS 160V240 CAVOK 26/07 Q1016 R14R/0///60 NOSIG", "UWWW 301000Z 14004MPS 090V190 CAVOK 26/06 Q1014 R15/CLRD60 NOSIG RMK QFE749/0999", "VAAH 301000Z 34003KT 6000 SCT025 33/15 Q1003 NOSIG", "VABB 301000Z 26011KT 5000 FU FEW020 SCT025 31/22 Q1005 NOSIG", "VABO 301000Z 26005KT 6000 SCT020 35/18 Q1004 NOSIG", "VABP 300930Z 14008KT 3000 -TSRA SCT025 FEW030CB BKN100 20/20 Q1009 NOSIG", "VAID 301000Z 30003KT 5000 HZ FEW020 SCT025 26/19 Q1008 NOSIG", "VAJB 301000Z 18010G20KT 6000 FEW012 SCT020 SCT100 26/18 Q1008 NOSIG", "VAJJ 301000Z 27010KT 5000 FU FEW020 SCT025 31/23 Q1005 NOSIG", "VAJL 300900Z 28002KT 7000 SCT025 32/19 Q1005 NOSIG", "VAKP 301000Z 25011KT 9000 FEW020 FEW025 33/14 Q1008", "VANP 301000Z 09005KT 4000 HZ SCT020 BKN090 25/22 Q1009 NOSIG", "VARK 300900Z 32005KT 6000 SCT020 FEW025TCU 33/17 Q1005 NOSIG", "VASD 301000Z 26018KT 6000 SCT025 33/11 Q1006 NOSIG", "VASU 300930Z 21008KT 6000 SCT030 33/21 Q1005 NOSIG", "VAUD 300930Z 18010KT 5000 HZ SCT030 SCT035 28/17 Q1006 NOSIG", "VCBI 300910Z 27006KT 210V350 9999 SCT016 FEW018CB 32/26 Q1005 NOSIG RMK CB E/SE", "VCRI 300910Z 17006KT 100V210 9999 FEW018 31/27 Q1006 NOSIG", "VDPP 301000Z 05005KT 020V120 9999 SCT015 FEW017CB 34/23 Q1005 RMK CB:W", "VDSR 301000Z 20007KT 9999 SCT015 FEW017CB 30/25 Q1006 RMK CB:N", "VDSV 301000Z 02007KT 350V050 9999 TS SCT015 FEW017CB SCT040 28/21 Q1006 RMK CB:NW", "VEAT 301000Z 32005KT 6000 NSC 35/20 Q1005 NOSIG", "VEBN 301000Z 32006KT 4000 HZ SCT020 FEW030CB BKN100 25/19 Q1008 NOSIG", "VEBS 301000Z 16008KT 5000 HZ SCT020 FEW030CB SCT100 36/24 Q1005 NOSIG", "VEBU 300900Z 36006KT 5000 RA SCT018 OVC080 22/21 Q1011 TEMPO 4000 RA", "VECC 301000Z 02015G25KT 2500 -TSRA SCT015 FEW025CB BKN090 25/21 Q1004 TEMPO TL1100 19015G30KT 1500 TSRA", "VECO 301000Z 06003KT 5000 HZ SCT020 29/23 Q1005 NOSIG", "VEDG 301000Z 30002KT 5000 HZ SCT018 FEW030CB SCT100 35/18 Q1004 NOSIG", "VEDO 300900Z 30007KT 6000 FEW020 SCT025 BKN100 34/15 Q1006 NOSIG", "VEGT 301000Z 04003KT 5000 HZ SCT018 SCT100 33/28 Q1005 NOSIG", "VEGY 301000Z 28008KT 4500 HZ SCT018 BKN090 29/18 Q1007 BECMG 5000 HZ", "VEHO 300901Z 06005KT 6000 NSW SCT020 BKN100 28/20 Q1007 NOSIG", "VEIM 301000Z 29008KT 8000 FEW018 32/18 Q1009 NOSIG", "VEJH 301000Z 30010KT 5000 HZ BKN018 BKN080 33/17 Q1008", "VEJR 301000Z 05008KT 6000 SCT025 BKN030 29/20 Q1009", "VEJS 301000Z 30006KT 3000 TSRA SCT018 FEW030CB BKN100 24/22 Q1007", "VEKI 300900Z VRB03KT 3000 -TSRA SCT020 FEW030CB OVC090 22/20 Q1008 NOSIG", "VEKO 300900Z 07012KT 1500 TSRA BKN025 FEW030CB OVC080 30/15 Q1007", "VELP 300900Z 29008KT 4000 HZ FEW020 SCT100 35/17 Q1007 NOSIG", "VELR 300900Z 09004KT 4000 HZ FEW020 SCT090 27/19 Q1008", "VEMN 301000Z 09008KT 4000 HZ SCT020 FEW025CB BKN100 26/19 Q1007 NOSIG", "VEPT 301000Z 23008KT 2500 BR SCT018 FEW030CB BKN090 26/22 Q1007 TEMPO 1500 -TSRA", "VERC 301000Z 31008KT 5000 HZ SCT020 BKN100 27/16 Q1011 NOSIG", "VERK 301000Z 30012KT 6000 HZ FEW020 32/15 Q1007", "VERP 301000Z 33005KT 5000 BR FEW020 BKN090 24/19 Q1009 NOSIG", "VERU 301000Z 02002KT 5000 HZ SCT020 BKN100 28/20 Q1005 NOSIG", "VGHS 301000Z 00000KT 4000 HZ FEW100 36/20 Q1005 NOSIG", "VHHH 301000Z 25004KT 220V280 9999 FEW030 SCT040 26/18 Q1011 BECMG 10010KT", "VIDN 301000Z 18006KT 2500 HZ SCT030 BKN060 27/13 Q1007", "VIGG 300900Z 34005KT 6000 -TS SCT030 FEW035CB 27/13 Q1010", "VIJP 300930Z 12008KT 2000 TSRA SCT030 FEW035CB BKN100 22/18 Q1008 NOSIG", "VILK 300930Z 11004KT 2500 -RA BKN020 FEW030CB OVC090 23/22 Q1007 NOSIG", "VIPT 301000Z 09008KT 5000 HZ FEW020 FEW030CB SCT100 30/16 Q1006", "VLLB 301000Z 00000KT 9999 SCT020 SCT060 29/21 Q1009 NOSIG", "VLLN 301000Z 32004KT 8000 FEW020 OVC100 24/22 Q1011 NOSIG", "VLVT 301000Z 34004KT 8000 SCT016 BKN050 32/23 Q1007 NOSIG", "VMMC 301000Z 11007KT 9999 FEW030 25/20 Q1011 NOSIG", "VNKT 301000Z VRB02KT 3000 BR FEW010 FEW025CB SCT030 BKN100 17/15 Q1015 NOSIG CB TO E SE S AND SW", "VOAT 300930Z 05005KT 6000 SCT015 FEW025TCU 33/25 Q1006 NOSIG", "VOBL 301000Z 14006KT 6000 SCT012 SCT018 31/16 Q1010 NOSIG", "VOCI 301000Z 25007KT 6000 SCT015 34/26 Q1004 NOSIG", "VOCL 301000Z 28006KT 6000 FEW015 FEW025CB 33/21 Q1004 NOSIG", "VOCP 301000Z 10020KT 6000 FEW020 SCT025 FEW030CB 35/19 Q1003 NOSIG", "VOGA 301000Z 27013KT 8000 FEW020 31/20 Q1006 NOSIG", "VOHB 301000Z 25010KT 9999 SCT012 34/19 Q1007", "VOJV 301000Z 05010KT 5000 FU SCT015 FEW025CB SCT080 29/22 Q1007", "VOKN 300930Z 26010KT 6000 SCT012 FEW025CB 34/25 Q1005 TEMPO TS", "VOMM 301000Z 14013KT 6000 SCT020 34/25 Q1005 NOSIG", "VOSM 300900Z 14004KT 8000 SCT020 35/19 Q1007 NOSIG", "VRMG 301000Z 21005KT 9999 FEW017TCU BKN110 30/25 Q1006 TEMPO FEW018CB", "VRMH 301000Z 07007KT 9999 FEW018TCU BKN260 32/27 Q1005", "VRMM 301000Z VRB02KT 9999 -SHRA SCT017 FEW018CB BKN260 30/26 Q1005 CB NE,OVERHEAD NOSIG", "VTBD 301000Z 12005KT 090V150 9999 FEW020 30/23 Q1006 NOSIG", "VTBO 301000Z 06002KT 7000 FEW018CB BKN100 30/25 Q1006", "VTBS 301000Z 12006KT 080V170 9999 FEW020 30/21 Q1006 NOSIG", "VTBU 301000Z 03004KT 8000 FEW020 SCT100 26/25 Q1006 NOSIG", "VTCC 301000Z 18005KT 150V210 8000 BKN035 33/21 Q1006 NOSIG", "VTCH 301000Z 21006KT 120V280 9999 FEW020CB SCT025 40/17 Q1002 NOSIG", "VTCL 301000Z 14008KT 100V200 9999 SCT025 32/21 Q1007 NOSIG", "VTCN 301000Z 22006KT 200V260 CAVOK 30/23 Q1007 NOSIG", "VTCP 300900Z 01006KT 310V050 CAVOK 32/23 Q1006 NOSIG", "VTCT 301000Z 17007KT 130V200 9999 FEW040 32/21 Q1007 NOSIG", "VTPB 301000Z 32005KT 9999 FEW030 31/23 Q1006 RETS NOSIG", "VTPH 301000Z 25005KT 200V300 9999 FEW015 BKN030 29/24 Q1006 NOSIG", "VTPM 301000Z 35007KT 330V040 9999 VCSH FEW025CB BKN060 27/23 Q1007 RETS NOSIG", "VTPO 301000Z 11008KT 9999 VCTS FEW025CB SCT035 29/21 Q1006 TEMPO 4000 TSRA", "VTPP 301000Z VRB02KT 9999 VCTS VCSH FEW020CB SCT030 26/22 Q1006 RETS TEMPO 27015G25KT 2000 +TSRA", "VTPT 301000Z /////KT 9999 VCTS FEW020CB SCT026 34/24 Q1006 TEMPO 3000 TSRA", "VTSB 301000Z 15003KT 120V180 9999 TS VCSH FEW018CB 30/24 Q1005 TEMPO TL1100 4000 TSRA", "VTSC 300900Z 09006KT 060V120 9999 FEW018 30/25 Q1005 NOSIG", "VTSE 301000Z 10006KT 9999 FEW020 SCT100 31/26 Q1005 NOSIG", "VTSF 301000Z 07008KT 030V100 9999 FEW018 34/26 Q1005 NOSIG", "VTSG 301000Z 33005KT 310V030 8000 -RA FEW018 BKN067 24/24 Q1005 RETS NOSIG", "VTSM 301000Z 09006KT 9999 FEW020 32/25 Q1006 NOSIG", "VTSP 301000Z 28008KT 9999 FEW020CB 33/25 Q1004 NOSIG", "VTSR 301000Z VRB02KT 9999 SCT020 BKN100 26/24 Q1005 RETS NOSIG", "VTSS 301000Z 08013KT 050V120 9999 SCT020 33/24 Q1005 NOSIG", "VTST 301000Z 26003KT 220V290 9999 SCT030 29/25 Q1004 NOSIG", "VTSY 301000Z 05003KT 010V080 9999 SCT030 27/24 Q1007 NOSIG", "VTUD 300900Z VRB04KT 9999 SCT035 33/21 Q1008 NOSIG", "VTUI 301000Z 11004KT 070V140 9999 BKN030 32/19 Q1007 NOSIG", "VTUK 301000Z 09003KT 030V170 9999 SCT030 SCT100 31/21 Q1008 NOSIG", "VTUL 301000Z 31006KT 280V350 9999 BKN030 30/23 Q1008 NOSIG", "VTUO 301000Z 07006KT 9000 FEW030 SCT100 28/25 Q1008 NOSIG", "VTUQ 301000Z 00000KT 9000 SCT030 28/24 Q1008 NOSIG", "VTUU 301000Z VRB05KT 9000 NSC 29/24 Q1007 NOSIG", "VTUV 301000Z VRB05KT 9999 FEW030 31/22 Q1007 NOSIG", "VTUW 301000Z 12005KT 080V170 9999 FEW035 32/21 Q1008 NOSIG", "VVCI 301000Z 32003KT 280V010 CAVOK 26/17 Q1010 NOSIG", "VVCR 301000Z 06014KT 9999 FEW015 29/25 Q1009 NOSIG", "VVCT 301000Z 22007KT 7000 FEW015TCU BKN050 27/25 Q1006 NOSIG", "VVDN 301000Z 33004KT 9999 SCT013 BKN050 26/23 Q1010 NOSIG", "VVNB 301000Z 12005KT 090V170 9999 OVC048 25/16 Q1011 NOSIG", "VVPB 301000Z 20004KT 4500 -RA BR FEW006 SCT013 BKN040 24/24 Q1012 TEMPO 4000 RA BR", "VVPQ 300930Z 09007KT 9999 FEW015 31/23 Q1006 NOSIG", "VVTS 301000Z VRB02KT 9999 BKN017 31/25 Q1006 NOSIG", "VVVD 301000Z 33003KT 280V020 CAVOK 26/18 Q1011 NOSIG", "VYMD 300930Z 18003KT 6000 HZ FEW020 42/23 Q1001", "VYNT 301000Z 18006KT 7000 SCT020 FEW025TCU 39/20 Q1002 NOSIG", "VYYY 300930Z 21008KT 8000 FEW025 39/23 Q1002 NOSIG", "WAAA 300930Z 09005KT 9999 SCT019 26/22 Q1005 NOSIG", "WABB 300930Z VRB02KT 9999 SCT018 SCT100 27/25 Q1006 NOSIG", "WADD 300930Z 13010KT 9999 FEW017 29/26 Q1006 NOSIG", "WADL 301000Z 15006KT 7000 TS FEW015CB SCT016 28/24 Q1007 TEMPO TL1030 TS RMK CB TO W", "WAHS 300930Z 32009KT 8000 FEW014 31/25 Q1005 NOSIG", "WAJJ 301000Z 00000KT 9999 FEW012 28/22 Q1006 NOSIG", "WALL 300930Z 11002KT 9999FEW020 27/25 Q1005 NOSIG", "WAMM 301000Z VRB01KT 9999 SCT020 28/25 Q1007 NOSIG", "WAOO 300930Z 13002KT 9999 FEW020 27/26 Q1006 NOSIG", "WAPP 300930Z 17003KT 130V220 9999 SCT020 29/24 Q1006 NOSIG", "WAQQ 300930Z 20005KT 9000 FEW015 30/26 Q1006", "WARR 300930Z 04009KT 9999 FEW020CB 30/26 Q1005 NOSIG", "WATT 300930Z 12009KT 9999 FEW018 28/24 Q1008 NOSIG", "WBGB 300900Z VRB04KT 9999 SCT016 30/25 Q1007", "WBGG 300930Z VRB03KT 9999 TS FEW015CB SCT020 31/23 Q1005 NOSIG", "WBGR 300900Z 32006KT 260V350 9999 SCT016 30/25 Q1006", "WBGS 300900Z 04005KT 010V070 9999 SCT017 28/25 Q1007", "WBGY 300900Z VRB01KT 9999 TS FEW015CB SCT022 29/25 Q1006", "WBKK 300935Z 12005KT 100V160 9999 TS FEW010 FEW016CB SCT040 27/25 Q1006 RERA NOSIG", "WBKL 300900Z VRB01KT 9999 TS FEW014 FEW016CB 27/24 Q1007", "WBKS 300900Z 02004KT 340V050 9999 FEW016 FEW017CB 30/25 Q1006", "WBKT 300900Z VRB02KT 9999 FEW014 29/25 Q1006", "WBKW 300900Z 17003KT 130V240 9999 FEW017 30/26 Q1005", "WBSB 300930Z 15002KT 9999 -RA FEW010 FEW015CB BKN150 26/26 Q1007 RETS NOSIG", "WIBB 300930Z 03007KT 9999 SCT013 32/26 Q1003 NOSIG", "WIDD 300930Z 06008KT 9999 FEW014 31/25 Q1007 NOSIG", "WIDN 300930Z 16002KT 9999 SCT017 28/26 Q1006 RETS", "WIEE 300930Z 33005KT 290V020 9999 VCTS FEW016 SCT018 29/26 Q1004 NOSIG", "WIHH 300930Z 01005KT 6000 SCT020 32/24 Q1004 NOSIG ", "WIII 301000Z 35005KT 5000 FEW021 30/26 Q1005 NOSIG", "WILL 300930Z 32002KT 9999 FEW015 34/21 Q1004 NOSIG", "WIMM 300930Z 29003KT 250V320 8000 SCT017 29/25 Q1004 NOSIG", "WIOO 300930Z 22006KT 9999 FEW011CB SCT012 31/26 Q1005 NOSIG", "WIPP 300930Z 04004KT 9999 SCT010 31/24 Q1004 NOSIG", "WMAU 300900Z VRB03KT 9999 SCT020 28/26 Q1005", "WMBA 300900Z 28003KT 210V330 9999 FEW017CB 31/26 Q1005", "WMKA 300900Z 09008KT 030V140 5000 -TSRA FEW012 FEW017CB SCT018 25/24 Q1005", "WMKB 300900Z 30010KT 260V350 9000 TS FEW017CB 32/26 Q1003 NOSIG", "WMKC 300900Z 10007G19KT 050V170 9999 TS FEW012 FEW017CB 31/26 Q1006", "WMKD 300900Z 06007KT 010V120 9999 FEW017CB 31/25 Q1005 NOSIG", "WMKE 300900Z VRB02KT 9999 TS FEW014CB SCT017 28/26 Q1005 RETSRA", "WMKI 300900Z 21005KT 130V250 9000 -TSRA FEW017CB SCT024 25/24 Q1006", "WMKJ 300910Z VRB02KT 9999 -TSRA FEW017CB 28/26 Q1005", "WMKK 300930Z VRB02KT 8000 VCSH FEW008 FEW017CB SCT030 26/24 Q1005 NOSIG", "WMKL 300900Z 27004KT 200V340 9000 -SHRA FEW017CB 31/27 Q1004", "WMKM 300900Z 25006KT 190V350 8000 TS VCSH FEW017CB SCT020 31/26 Q1005", "WMKN 300900Z VRB03KT 9999 FEW020 27/26 Q1006 RETS", "WMKP 300945Z 25006KT 210V310 9999 TS FEW017CB 32/26 Q1005 NOSIG", "WMSA 300920Z VRB01KT 9999 FEW010 25/24 Q1006 RETS", "WSAP 301000Z 29002KT 9000 -TSRA FEW014 FEW016CB SCT017TCU 28/25 Q1006", "WSSL 301000Z 20003KT 8000 VCTS FEW014 FEW016CB FEW017TCU SCT050 26/26 Q1005 RESHRA", "WSSS 301000Z 33005KT 300V020 9999 TS FEW017CB FEW018TCU SCT050 29/24 Q1005 BECMG FM1015 TL1030 NSW", "YAMB 301000Z AUTO 29002KT 9999 // NCD 15/10 Q1013 RF00.0/000.0", "YBAS 301000Z AUTO 14006KT 9999 // NCD 14/04 Q1017 RF00.0/000.0", "YBBN 301000Z 26006KT CAVOK 18/11 Q1013", "YBCG 301000Z AUTO 19005KT 9999 // SCT078 18/16 Q1012 RF00.0/000.0", "YBCS 301000Z AUTO 17004KT 9999 // SCT037 SCT049 25/22 Q1011", "YBHM 301000Z AUTO 12008KT 9999 // SCT026 BKN100 24/20 Q1013", "YBLN 301000Z AUTO 23006KT 9999 // NCD 16/09 Q1018 RF00.0/000.0", "YBMA 301000Z AUTO 16006KT 9999 // NCD 16/03 Q1015 RF00.0/000.0", "YBRK 301000Z AUTO 21007KT 9999 // OVC076 23/13 Q1013 RF00.0/000.0", "YBRM 301000Z AUTO 25005KT 9999 // NCD 27/19 Q1009 RF00.0/000.0", "YBSU 301000Z AUTO 26006KT 9999 // OVC055 20/13 Q1013 RF00.0/000.0", "YBTL 301000Z AUTO 07005KT 9999 // NCD 24/20 Q1012 RF00.0/000.0", "YBWW 301000Z AUTO 18005KT 9999 // NCD 12/09 Q1015 RF00.0/000.0", "YCFS 301000Z AUTO 05004KT 9999 // NCD 16/14 Q1013 RF00.0/000.0", "YCIN 301000Z AUTO 19005KT 9999 // NCD 26/15 Q1008 RF00.0/000.0", "YFRT 301000Z AUTO 09007KT 9999 // NCD 17/08 Q1018 RF00.0/000.0", "YGEL 301000Z AUTO 16008KT 9999 // NCD 20/11 Q1015 RF00.0/000.0", "YGLA 301000Z AUTO 28003KT 0100 DU OVC065 22/16 Q1013 RF00.0/000.0", "YHID 301000Z AUTO 14009KT 9999 // NCD 28/24 Q1008 RF00.0/000.2", "YLHI 301000Z AUTO 07012KT 9999 // NCD 21/16 Q1015 RF00.0/000.0", "YMAV 301000Z AUTO 02003KT 9999 // NCD 09/06 Q1016 RF00.0/000.0", "YMHB 301000Z 32006KT CAVOK 13/08 Q1015", "YMLT 301000Z AUTO 01005KT 9999 // NCD 09/06 Q1016 RF00.0/000.0", "YMML 301000Z AUTO 25004KT 9999 // NCD 11/06 Q1016 RF00.0/000.2", "YPAD 301000Z 08005KT 9999 FEW018 SCT025 BKN033 15/14 Q1017 RF00.0/001.0", "YPCC 301000Z AUTO 36002KT 9999 // BKN015 BKN022 28/25 Q1007", "YPDN 301000Z 34003KT 9999 FEW022 BKN410 29/24 Q1008 RF00.0/000.0", "YPEA 301000Z AUTO 21008KT 9999 // NCD 18/09 Q1017 RF00.0/000.0", "YPGV 301000Z AUTO 13009KT 9999 // SCT040 27/22 Q1009 RF00.0/000.0", "YPJT 301000Z AUTO 21009KT 9999 // NCD 18/09 Q1017 RF00.0/000.0", "YPKG 301000Z AUTO 12004KT 9999 // NCD 18/04 Q1017 RF00.0/000.0", "YPKU 301000Z AUTO 13004KT 9999 // ////// 27/19 Q1009 RF00.0/000.0", "YPLM 301000Z AUTO 01004KT 9999 -SHRA OVC125 25/17 Q1013 RF00.0/000.0", "YPPD 301000Z AUTO 15006KT 9999 // NCD 28/01 Q1011 RF00.0/000.0", "YPPH 301000Z 21009KT CAVOK 18/10 Q1017", "YPTN 301000Z AUTO 13005KT 9999 // NCD 25/18 Q1010 RF00.0/000.0", "YPWR 301000Z AUTO 21007KT 9999 // NCD 15/07 Q1019 RF00.0/000.0", "YSCB 301000Z AUTO 19006KT 9999 // OVC035 OVC048 10/08 Q1013", "YSDU 301000Z AUTO 19004KT 9999 // NCD 11/08 Q1016 RF00.0/000.0", "YSNF 301000Z AUTO 26010KT 9999 // SCT023 SCT050 20/16 Q1016", "YSRI 301000Z AUTO 23001KT 9999 // NCD 14/12 Q1013 RF00.0/000.0", "YSSY 301000Z 27009G20KT 250V310 9999 FEW040 16/10 Q1013 RF00.0/000.0", "YSTW 301000Z AUTO 02005KT 9999 // NCD 11/08 Q1015 RF00.0/000.0", "YWLM 301000Z AUTO 29011KT 9999 // NCD 16/10 Q1013 RF00.0/000.0", "ZBAA 301000Z 19006MPS 160V220 CAVOK 23/03 Q1007 NOSIG", "ZBAD 301000Z 20006MPS CAVOK 22/04 Q1007 NOSIG", "ZBHH 301000Z 22004MPS 9999 FEW040 20/M04 Q1009 NOSIG", "ZBSJ 301000Z 17005MPS CAVOK 22/07 Q1008 NOSIG", "ZBTJ 301000Z 15006MPS CAVOK 20/04 Q1008 NOSIG", "ZBYN 301000Z 24004MPS 200V270 CAVOK 22/M04 Q1010 NOSIG", "ZGGG 301000Z 04003MPS 9999 SCT050 27/19 Q1011 NOSIG", "ZGHA 301000Z VRB01MPS CAVOK 26/03 Q1013 NOSIG", "ZGKL 301000Z 21001MPS CAVOK 23/12 Q1013 NOSIG", "ZGNN 301000Z 34003MPS CAVOK 26/14 Q1011 NOSIG", "ZGOW 301000Z 10003MPS 5000 BR OVC030 23/19 Q1012 NOSIG", "ZGSZ 301000Z 24002MPS 200V260 9999 BKN050 27/19 Q1011 NOSIG", "ZHCC 301000Z 10007MPS CAVOK 25/07 Q1010 NOSIG", "ZHHH 301000Z 21002MPS CAVOK 24/10 Q1013 NOSIG", "ZJHK 301000Z 03004MPS 360V060 9999 SCT023 26/21 Q1010 NOSIG", "ZJSY 301000Z 17003MPS 130V220 9999 FEW023 SCT033 28/22 Q1010 NOSIG", "ZLLL 301000Z 10003MPS 040V140 CAVOK 22/M11 Q1009 NOSIG", "ZLXY 301000Z 05006MPS CAVOK 25/07 Q1009 NOSIG", "ZMCK 301000Z 27006MPS 9999 SCT100 20/M11 Q1000 NOSIG RMK QFE636.6 11 MOP", "ZMUB 301000Z 21003MPS 180V260 9999 SCT100 21/M12 Q0999 NOSIG RMK QFE644.1 10 MOP", "ZPPP 301000Z 22002MPS 200V260 9999 -SHRA FEW026TCU SCT026 17/11 Q1018 NOSIG", "ZSAM 301000Z 12004MPS 080V140 9999 OVC030 21/16 Q1013 NOSIG", "ZSFZ 301000Z 02003MPS 9999 FEW043 17/08 Q1015 NOSIG", "ZSHC 301000Z 00000MPS CAVOK 24/06 Q1013 NOSIG", "ZSNB 301000Z 11004MPS CAVOK 20/09 Q1014 NOSIG", "ZSNJ 301000Z 23003MPS CAVOK 23/08 Q1012 NOSIG", "ZSOF 301000Z 26002MPS 220V360 CAVOK 26/06 Q1012 NOSIG", "ZSPD 301000Z 19004MPS CAVOK 19/08 Q1014 NOSIG", "ZSQD 301000Z 33007MPS CAVOK 20/M01 Q1012 NOSIG", "ZSSS 301000Z 26002MPS 220V310 CAVOK 23/02 Q1013 NOSIG", "ZUCK 301000Z VRB01MPS 9999 FEW040 27/09 Q1011 NOSIG", "ZUGY 301000Z 14003MPS 9999 FEW046 20/09 Q1015 NOSIG", "ZUTF 301000Z 15002MPS 100V190 CAVOK 27/04 Q1010 NOSIG", "ZUUU 301000Z 16004MPS 130V200 CAVOK 27/08 Q1011 NOSIG", "ZWSH 301000Z 23004MPS 180V280 9999 FEW033 27/M05 Q1007 NOSIG", "ZWWW 301000Z 34005G11MPS 290V030 9999 FEW033TCU FEW040 27/M02 Q1004 NOSIG", "ZYCC 301000Z 36003MPS 330V040 9999 SCT030 11/03 Q1006 NOSIG", "ZYHB 301000Z 30004MPS 260V330 CAVOK 08/06 Q1005 NOSIG", "ZYTL 301000Z 27004MPS CAVOK 16/M05 Q1010 NOSIG", "ZYTX 301000Z 32004MPS 280V340 CAVOK 16/M04 Q1008 NOSIG"]}