{"station_id": ["AGGH", "AYPY", "BGBW", "BGGH", "BGJN", "BGKK", "BGSF", "BGTL", "BIAR", "BIEG", "BIIS", "BIKF", "BIRK", "BITN", "BIVM", "BK12", "CAHR", "CBAR", "CBBC", "CERM", "CMFM", "CMGB", "CPIN", "CTCK", "CTNK", "CTRA", "CWAF", "CWAJ", "CWAQ", "CWAR", "CWAV", "CWBA", "CWBO", "CWBS", "CWBT", "CWBU", "CWBV", "CWBY", "CWBZ", "CWCF", "CWCI", "CWCJ", "CWCO", "CWCT", "CWDA", "CWDC", "CWDJ", "CWDK", "CWDM", "CWDO", "CWDQ", "CWDV", "CWDZ", "CWEB", "CWEE", "CWEF", "CWEH", "CWEL", "CWEP", "CWEQ", "CWER", "CWEU", "CWEW", "CWEZ", "CWFD", "CWFF", "CWFJ", "CWFQ", "CWGB", "CWGD", "CWGH", "CWGL", "CWGM", "CWGR", "CWGT", "CWGW", "CWGY", "CWHO", "CWHP", "CWHQ", "CWHT", "CWHV", "CWID", "CWIG", "CWII", "CWIJ", "CWIK", "CWIL", "CWIP", "CWIS", "CWIT", "CWIW", "CWIZ", "CWJB", "CWJC", "CWJD", "CWJH", "CWJI", "CWJO", "CWJR", "CWJT", "CWJU", "CWJV", "CWJW", "CWJX", "CWKD", "CWKG", "CWKH", "CWKM", "CWKO", "CWKX", "CWLB", "CWLC", "CWLE", "CWLM", "CWLP", "CWLS", "CWLX", "CWLY", "CWME", "CWMJ", "CWMM", "CWMQ", "CWMT", "CWNC", "CWND", "CWNE", "CWNH", "CWNK", "CWNM", "CWNQ", "CWNZ", "CWOB", "CWOC", "CWOD", "CWOE", "CWOY", "CWPD", "CWPE", "CWPF", "CWPK", "CWPO", "CWPR", "CWPZ", "CWQH", "CWQK", "CWQO", "CWQP", "CWQR", "CWQS", "CWQV", "CWRA", "CWRJ", "CWRK", "CWRM", "CWRN", "CWRO", "CWRT", "CWRU", "CWRY", "CWRZ", "CWSA", "CWSD", "CWSF", "CWSG", "CWSK", "CWSL", "CWSP", "CWSR", "CWSS", "CWST", "CWTA", "CWTG", "CWTN", "CWTT", "CWTY", "CWUS", "CWUW", "CWUX", "CWVF", "CWVI", "CWVN", "CWVP", "CWVQ", "CWVT", "CWVU", "CWWA", "CWWB", "CWWE", "CWWF", "CWWK", "CWWL", "CWWS", "CWWZ", "CWXA", "CWXC", "CWXI", "CWXL", "CWYJ", "CWYY", "CWZA", "CWZG", "CWZL", "CWZN", "CWZO", "CWZQ", "CWZW", "CWZZ", "CXAT", "CXBI", "CXBK", "CXBO", "CXCA", "CXCK", "CXDE", "CXDI", "CXDK", "CXDW", "CXEA", "CXEC", "CXEG", "CXET", "CXGH", "CXHA", "CXHM", "CXIB", "CXKA", "CXKE", "CXKI", "CXKT", "CXLB", "CXLL", "CXMD", "CXMI", "CXMM", "CXMY", "CXNM", "CXNP", "CXOX", "CXPC", "CXRB", "CXRH", "CXSE", "CXSH", "CXTD", "CXTN", "CXTO", "CXTP", "CXTV", "CXVN", "CXWN", "CXYH", "CXZC", "CXZV", "CYAH", "CYAM", "CYAT", "CYAW", "CYAY", "CYBC", "CYBG", "CYBK", "CYBQ", "CYBR", "CYBU", "CYBW", "CYBX", "CYCA", "CYCB", "CYCK", "CYCO", "CYCX", "CYCY", "CYDB", "CYDF", "CYDL", "CYDN", "CYDP", "CYDQ", "CYEG", "CYEK", "CYEN", "CYER", "CYET", "CYEV", "CYFB", "CYFC", "CYFO", "CYFS", "CYFT", "CYGK", "CYGL", "CYGP", "CYGR", "CYGT", "CYGV", "CYGW", "CYGX", "CYHD", "CYHE", "CYHK", "CYHM", "CYHU", "CYHY", "CYHZ", "CYIN", "CYIO", "CYIV", "CYJT", "CYKA", "CYKF", "CYKJ", "CYKL", "CYKP", "CYKY", "CYLC", "CYLD", "CYLH", "CYLL", "CYLW", "CYMA", "CYMH", "CYMJ", "CYMM", "CYMO", "CYMT", "CYMX", "CYNA", "CYND", "CYNE", "CYNM", "CYOD", "CYOJ", "CYOO", "CYOW", "CYPA", "CYPD", "CYPE", "CYPG", "CYPH", "CYPL", "CYPO", "CYPQ", "CYPR", "CYPX", "CYPY", "CYQA", "CYQB", "CYQD", "CYQF", "CYQG", "CYQH", "CYQI", "CYQK", "CYQL", "CYQM", "CYQQ", "CYQR", "CYQT", "CYQU", "CYQV", "CYQW", "CYQX", "CYQY", "CYQZ", "CYRB", "CYRJ", "CYRL", "CYRQ", "CYRT", "CYRV", "CYSB", "CYSC", "CYSF", "CYSJ", "CYSM", "CYSN", "CYTE", "CYTH", "CYTL", "CYTR", "CYTS", "CYTZ", "CYUA", "CYUL", "CYUS", "CYUX", "CYUY", "CYVC", "CYVL", "CYVM", "CYVO", "CYVP", "CYVQ", "CYVR", "CYVT", "CYVV", "CYWA", "CYWE", "CYWG", "CYWK", "CYWL", "CYXC", "CYXE", "CYXH", "CYXJ", "CYXL", "CYXP", "CYXR", "CYXS", "CYXT", "CYXU", "CYXX", "CYXY", "CYXZ", "CYYB", "CYYC", "CYYD", "CYYE", "CYYF", "CYYG", "CYYJ", "CYYL", "CYYN", "CYYQ", "CYYR", "CYYT", "CYYU", "CYYW", "CYYY", "CYYZ", "CYZE", "CYZF", "CYZH", "CYZP", "CYZR", "CYZS", "CYZT", "CYZV", "CYZX", "CYZY", "CZBF", "CZCR", "CZDB", "CZEL", "CZEV", "CZFS", "CZHY", "CZMD", "CZMJ", "CZPC", "CZPS", "CZSJ", "CZSM", "CZSP", "CZUM", "CZVL", "CZZJ", "DAAG", "DAAS", "DAAT", "DABB", "DABC", "DABS", "DAOB", "DAOI", "DAON", "DAOO", "DAUA", "DAUB", "DAUG", "DAUH", "DBBB", "DFFD", "DFOO", "DGAA", "DIAP", "DIBK", "DIYO", "DNAA", "DNJO", "DNKA", "DNKN", "DNMM", "DNMN", "DNYO", "DRRM", "DRRN", "DRZA", "DRZF", "DRZR", "DTKA", "DTMB", "DTNH", "DTTA", "DTTB", "DTTD", "DTTF", "DTTG", "DTTJ", "DTTK", "DTTL", "DTTN", "DTTR", "DTTX", "DTTZ", "DXNG", "DXXX", "EBAW", "EBBE", "EBBR", "EBCI", "EBCV", "EBDT", "EBFN", "EBFS", "EBLB", "EBLG", "EBOS", "EDAC", "EDAH", "EDBC", "EDDB", "EDDC", "EDDE", "EDDF", "EDDG", "EDDH", "EDDK", "EDDL", "EDDM", "EDDN", "EDDP", "EDDR", "EDDS", "EDDV", "EDDW", "EDFH", "EDFM", "EDGS", "EDHI", "EDHK", "EDHL", "EDJA", "EDLN", "EDLP", "EDLV", "EDLW", "EDMA", "EDMO", "EDNY", "EDQM", "EDSB", "EDTL", "EDTY", "EDVE", "EDVK", "EDXW", "EEEI", "EEKA", "EEKE", "EEPU", "EETN", "EETU", "EFET", "EFHA", "EFHK", "EFIV", "EFJO", "EFJY", "EFKE", "EFKI", "EFKK", "EFKS", "EFKT", "EFKU", "EFLP", "EFMA", "EFMI", "EFOU", "EFPO", "EFRO", "EFSA", "EFSI", "EFTP", "EFTU", "EFUT", "EFVA", "EGAA", "EGAC", "EGAE", "EGBB", "EGBJ", "EGCC", "EGCK", "EGDM", "EGDR", "EGDY", "EGEC", "EGEO", "EGFF", "EGGD", "EGGP", "EGGW", "EGHC", "EGHE", "EGHH", "EGHI", "EGHQ", "EGJA", "EGJB", "EGJJ", "EGKA", "EGKB", "EGKK", "EGLC", "EGLF", "EGLL", "EGMC", "EGMD", "EGNH", "EGNJ", "EGNM", "EGNO", "EGNR", "EGNS", "EGNT", "EGNV", "EGNX", "EGOM", "EGOP", "EGOS", "EGOV", "EGOW", "EGPA", "EGPB", "EGPC", "EGPD", "EGPE", "EGPF", "EGPH", "EGPI", "EGPK", "EGPL", "EGPN", "EGPO", "EGPU", "EGQA", "EGQK", "EGQL", "EGQM", "EGQS", "EGSC", "EGSH", "EGSS", "EGSY", "EGTC", "EGTE", "EGTK", "EGUB", "EGUL", "EGUN", "EGUW", "EGVA", "EGVN", "EGVO", "EGVP", "EGWC", "EGWU", "EGXC", "EGXE", "EGXS", "EGXT", "EGXV", "EGXW", "EGXZ", "EGYD", "EGYE", "EGYH", "EGYM", "EGYP", "EHAK", "EHAM", "EHBK", "EHDL", "EHDV", "EHEH", "EHFD", "EHFS", "EHGG", "EHGR", "EHHW", "EHJA", "EHJR", "EHKD", "EHKV", "EHLE", "EHLW", "EHMG", "EHPG", "EHRD", "EHSA", "EHSC", "EHVK", "EHVL", "EHWO", "EICK", "EIDL", "EIDW", "EIKN", "EIKY", "EIME", "EINN", "EISG", "EIWF", "EKAH", "EKBI", "EKCH", "EKEB", "EKKA", "EKOD", "EKRK", "EKRN", "EKRS", "EKSB", "EKSP", "EKVD", "EKVG", "EKVJ", "EKYT", "ELLX", "ENAL", "ENAN", "ENAT", "ENBL", "ENBN", "ENBO", "ENBR", "ENBS", "ENBV", "ENCN", "ENDR", "ENDU", "ENEV", "ENFB", "ENFL", "ENGC", "ENGM", "ENHD", "ENHE", "ENHF", "ENHK", "ENHM", "ENHV", "ENJS", "ENKB", "ENKR", "ENLA", "ENLE", "ENLK", "ENMH", "ENML", "ENMS", "ENNA", "ENNE", "ENNM", "ENNO", "ENOA", "ENOL", "ENOV", "ENQA", "ENQC", "ENQR", "ENRA", "ENRM", "ENRO", "ENRS", "ENRY", "ENSB", "ENSD", "ENSE", "ENSF", "ENSG", "ENSH", "ENSK", "ENSL", "ENSO", "ENSR", "ENSS", "ENST", "ENTC", "ENTO", "ENUG", "ENUN", "ENVA", "ENVD", "ENWV", "ENZV", "EPBY", "EPGD", "EPKK", "EPKT", "EPLB", "EPLL", "EPMO", "EPPO", "EPRA", "EPRZ", "EPSC", "EPSY", "EPWA", "EPWR", "EPZG", "ESCF", "ESCM", "ESDF", "ESGG", "ESGJ", "ESGP", "ESGT", "ESIA", "ESIB", "ESKM", "ESKN", "ESKS", "ESMK", "ESMQ", "ESMS", "ESMT", "ESMX", "ESND", "ESNG", "ESNK", "ESNL", "ESNN", "ESNO", "ESNQ", "ESNS", "ESNU", "ESNV", "ESNX", "ESNZ", "ESOE", "ESOH", "ESOK", "ESOW", "ESPA", "ESPE", "ESSA", "ESSB", "ESSD", "ESSL", "ESSP", "ESSV", "ESTA", "ESTL", "ESUP", "ESUT", "ETAD", "ETAR", "ETEB", "ETGG", "ETHA", "ETHB", "ETHC", "ETHF", "ETHL", "ETHN", "ETHS", "ETIC", "ETIK", "ETMN", "ETND", "ETNG", "ETNH", "ETNL", "ETNN", "ETNS", "ETNT", "ETNW", "ETOU", "ETSB", "ETSH", "ETSI", "ETSL", "ETSN", "ETWM", "EVGA", "EVLA", "EVRA", "EVVA", "EYKA", "EYPA", "EYSA", "EYVI", "FABL", "FACT", "FAEL", "FAGG", "FAHS", "FAJB", "FAKM", "FAKN", "FALA", "FALE", "FALW", "FAMM", "FAOR", "FAPE", "FAPN", "FAPP", "FAUP", "FAUT", "FAVV", "FAWB", "FBSK", "FDBB", "FDMY", "FDPP", "FDSK", "FDST", "FHAW", "FJDG", "FMCZ", "FMEE", "FMEP", "FMMI", "FMMT", "FMNA", "FMNM", "FMNN", "FMSD", "FNCA", "FNCT", "FNGI", "FNHU", "FNLU", "FNUB", "FNUE", "FOOG", "FQBR", "FQLC", "FQMA", "FQNC", "FQNP", "FQPB", "FQTT", "FQVL", "FQXA", "FSIA", "FTTA", "FVFA", "FVJN", "FVKB", "FVRG", "FWCL", "FWKI", "FYGF", "FYKM", "FYLZ", "FYRU", "FYWB", "FYWE", "FYWH", "FYWW", "FZAA", "GABS", "GAKD", "GCFV", "GCGM", "GCHI", "GCLA", "GCLP", "GCRR", "GCTS", "GCXO", "GECE", "GEML", "GFLL", "GGOV", "GLRB", "GMAD", "GMAG", "GMAT", "GMFB", "GMFF", "GMFK", "GMFM", "GMFO", "GMMB", "GMMC", "GMMD", "GMME", "GMMH", "GMMI", "GMML", "GMMN", "GMMW", "GMMX", "GMMZ", "GMTA", "GMTN", "GMTT", "GOBD", "GOGK", "GQNO", "GQPP", "GUCY", "GVBA", "GVNP", "GVSV", "HAAB", "HABD", "HCMF", "HCMM", "HDAM", "HEAT", "HEAX", "HEBA", "HECA", "HECP", "HEGN", "HEIS", "HELX", "HEMA", "HEMM", "HEPS", "HESG", "HESH", "HESN", "HESW", "HESX", "HETR", "HKEL", "HKEM", "HKGA", "HKJK", "HKKI", "HKKT", "HKLO", "HKLU", "HKME", "HKML", "HKNI", "HKNK", "HKNW", "HKWJ", "HRYR", "HRZA", "HSDN", "HSFS", "HSGN", "HSOB", "HSPN", "HSSK", "HTAR", "HTBU", "HTDA", "HTDO", "HTIB", "HTIR", "HTKA", "HTKJ", "HTMG", "HTMP", "HTMT", "HTMU", "HTMW", "HTSO", "HTSU", "HTTB", "HTZA", "K04V", "K04W", "K05U", "K06C", "K06D", "K08D", "K0A0", "K0CO", "K0E0", "K0F2", "K0J4", "K0R0", "K0R4", "K0S9", "K0V4", "K0VG", "K10G", "K12N", "K13K", "K14Y", "K15M", "K17J", "K18A", "K18H", "K19S", "K1A5", "K1A6", "K1A9", "K1AM", "K1AW", "K1BM", "K1BW", "K1CM", "K1CN", "K1CW", "K1D1", "K1DM", "K1DN", "K1DW", "K1EM", "K1EN", "K1EW", "K1F0", "K1FW", "K1GM", "K1H2", "K1HM", "K1HN", "K1HW", "K1IM", "K1IN", "K1IW", "K1JM", "K1JN", "K1JW", "K1KM", "K1KN", "K1LN", "K1LW", "K1M5", "K1MN", "K1MW", "K1NN", "K1NW", "K1OM", "K1ON", "K1OW", "K1P1", "K1R7", "K1R8", "K1S3", "K1S5", "K1U7", "K1V4", "K1V6", "K1YT", "K20U", "K20V", "K21D", "K22N", "K24A", "K24J", "K27K", "K28J", "K2C8", "K2D5", "K2DP", "K2G2", "K2G4", "K2G9", "K2I0", "K2IS", "K2J3", "K2J5", "K2J9", "K2M2", "K2P2", "K2R9", "K2V5", "K2V6", "K2W6", "K2WX", "K33N", "K33V", "K35A", "K36K", "K38S", "K3AU", "K3D2", "K3F3", "K3J7", "K3K3", "K3N8", "K3R7", "K3S8", "K3T5", "K3U3", "K40B", "K40U", "K41U", "K42J", "K46D", "K46U", "K48A", "K49A", "K4A6", "K4A9", "K4BM", "K4F2", "K4M9", "K4MR", "K4O4", "K4R5", "K4S1", "K4S2", "K4U6", "K4V0", "K4V1", "K54A", "K54J", "K57C", "K5A6", "K5C1", "K5H4", "K5R8", "K5SM", "K5T9", "K63S", "K65S", "K66R", "K6A1", "K6A2", "K6B0", "K6B9", "K6I2", "K6L4", "K6P9", "K6R6", "K6S2", "K6S8", "K74V", "K77S", "K79J", "K7BM", "K7L2", "K7W4", "K7W6", "K81R", "K82C", "K82V", "K8A0", "K8A3", "K8B0", "K8D3", "K8T6", "K8W2", "K96D", "K9A5", "K9D7", "K9L2", "K9MN", "K9V9", "KA39", "KAAA", "KAAF", "KAAO", "KAAS", "KAAT", "KABE", "KABH", "KABI", "KABQ", "KABR", "KABY", "KACB", "KACJ", "KACK", "KACP", "KACQ", "KACT", "KACV", "KACY", "KACZ", "KADC", "KADF", "KADG", "KADH", "KADM", "KADS", "KADT", "KADU", "KADW", "KAEG", "KAEJ", "KAEL", "KAEX", "KAFF", "KAFJ", "KAFK", "KAFN", "KAFO", "KAFP", "KAFW", "KAGC", "KAGI", "KAGO", "KAGS", "KAHN", "KAHQ", "KAIA", "KAID", "KAIG", "KAIK", "KAIO", "KAIT", "KAIZ", "KAJG", "KAJR", "KAJZ", "KAKH", "KAKO", "KAKQ", "KAKR", "KALB", "KALI", "KALK", "KALM", "KALN", "KALO", "KALS", "KALW", "KAMA", "KAMG", "KAMN", "KAMW", "KANB", "KAND", "KANE", "KANJ", "KANK", "KANQ", "KANW", "KAOH", "KAOO", "KAPA", "KAPC", "KAPF", "KAPG", "KAPN", "KAPS", "KAPY", "KAQO", "KAQP", "KAQV", "KAQW", "KAQX", "KARA", "KARB", "KARG", "KARM", "KARR", "KART", "KARV", "KARW", "KASD", "KASE", "KASG", "KASH", "KASJ", "KASL", "KASN", "KAST", "KASW", "KASX", "KATA", "KATL", "KATP", "KATS", "KATT", "KATW", "KATY", "KAUG", "KAUH", "KAUM", "KAUN", "KAUO", "KAUS", "KAUW", "KAVC", "KAVK", "KAVL", "KAVP", "KAVQ", "KAVX", "KAWG", "KAWM", "KAWO", "KAXA", "KAXH", "KAXN", "KAXS", "KAXV", "KAXX", "KAYS", "KAZC", "KAZE", "KAZO", "KBAB", "KBAC", "KBAD", "KBAF", "KBAK", "KBAM", "KBAN", "KBAX", "KBAZ", "KBBB", "KBBD", "KBBG", "KBBP", "KBBW", "KBCB", "KBCE", "KBCK", "KBCR", "KBCT", "KBDE", "KBDG", "KBDH", "KBDL", "KBDN", "KBDR", "KBDU", "KBEA", "KBEC", "KBED", "KBEH", "KBFD", "KBFF", "KBFI", "KBFL", "KBFM", "KBFR", "KBGD", "KBGE", "KBGF", "KBGM", "KBGR", "KBHB", "KBHC", "KBHK", "KBHM", "KBID", "KBIE", "KBIF", "KBIH", "KBIL", "KBIS", "KBIV", "KBIX", "KBJC", "KBJI", "KBKB", "KBKD", "KBKE", "KBKF", "KBKL", "KBKN", "KBKS", "KBKT", "KBKV", "KBKW", "KBKX", "KBLF", "KBLI", "KBLM", "KBLU", "KBLV", "KBMC", "KBMG", "KBMI", "KBML", "KBMQ", "KBMT", "KBNA", "KBNL", "KBNO", "KBNW", "KBOI", "KBOK", "KBOS", "KBOW", "KBPC", "KBPG", "KBPI", "KBPK", "KBPT", "KBQK", "KBQP", "KBQX", "KBRD", "KBRG", "KBRL", "KBRO", "KBRY", "KBTA", "KBTL", "KBTM", "KBTN", "KBTP", "KBTR", "KBTV", "KBUF", "KBUR", "KBUU", "KBUY", "KBVI", "KBVN", "KBVO", "KBVS", "KBVU", "KBVX", "KBVY", "KBWD", "KBWG", "KBWI", "KBWP", "KBWW", "KBXA", "KBXK", "KBYG", "KBYI", "KBYL", "KBYS", "KBYY", "KBZN", "KC09", "KC29", "KC35", "KC62", "KC65", "KC75", "KC83", "KC99", "KCAD", "KCAE", "KCAG", "KCAK", "KCAO", "KCAR", "KCAV", "KCBE", "KCBF", "KCBK", "KCBM", "KCCA", "KCCB", "KCCO", "KCCR", "KCCU", "KCCY", "KCDA", "KCDC", "KCDD", "KCDH", "KCDI", "KCDJ", "KCDN", "KCDR", "KCDS", "KCDW", "KCEC", "KCEF", "KCEU", "KCEW", "KCEY", "KCEZ", "KCFD", "KCFE", "KCFJ", "KCFO", "KCFS", "KCFV", "KCGC", "KCGE", "KCGF", "KCGI", "KCGS", "KCGZ", "KCHA", "KCHK", "KCHO", "KCHS", "KCIC", "KCID", "KCIN", "KCIR", "KCIU", "KCJR", "KCKB", "KCKC", "KCKF", "KCKI", "KCKM", "KCKN", "KCKP", "KCKV", "KCKZ", "KCLE", "KCLI", "KCLK", "KCLL", "KCLM", "KCLS", "KCLT", "KCLW", "KCMA", "KCMD", "KCMH", "KCMI", "KCMR", "KCMX", "KCMY", "KCNB", "KCNC", "KCNI", "KCNK", "KCNM", "KCNO", "KCNU", "KCNW", "KCNY", "KCOD", "KCOE", "KCOF", "KCOM", "KCON", "KCOQ", "KCOS", "KCOT", "KCOU", "KCPC", "KCPF", "KCPK", "KCPR", "KCPS", "KCPT", "KCPW", "KCQB", "KCQC", "KCQF", "KCQM", "KCQT", "KCQW", "KCQX", "KCRE", "KCRG", "KCRP", "KCRQ", "KCRS", "KCRW", "KCRX", "KCSG", "KCSM", "KCSQ", "KCSV", "KCTB", "KCTJ", "KCTY", "KCTZ", "KCUB", "KCUH", "KCUL", "KCUT", "KCVC", "KCVG", "KCVH", "KCVN", "KCVO", "KCVS", "KCVX", "KCWA", "KCWC", "KCWF", "KCWI", "KCWN", "KCWV", "KCXE", "KCXO", "KCXP", "KCXU", "KCXW", "KCXY", "KCYD", "KCYS", "KCZT", "KD07", "KD25", "KD39", "KD50", "KD55", "KD57", "KD60", "KD73", "KD95", "KDAA", "KDAB", "KDAG", "KDAL", "KDAN", "KDAW", "KDAY", "KDBN", "KDBQ", "KDCA", "KDCM", "KDCU", "KDCY", "KDDC", "KDDH", "KDEC", "KDED", "KDEH", "KDEN", "KDEQ", "KDET", "KDEW", "KDFI", "KDFW", "KDGW", "KDHN", "KDHT", "KDIJ", "KDIK", "KDKK", "KDKR", "KDKX", "KDLF", "KDLH", "KDLL", "KDLN", "KDLO", "KDLP", "KDLS", "KDLZ", "KDMA", "KDMH", "KDMN", "KDMO", "KDMW", "KDNA", "KDNL", "KDNN", "KDNV", "KDOV", "KDPA", "KDPL", "KDQH", "KDRA", "KDRI", "KDRM", "KDRO", "KDRT", "KDSF", "KDSM", "KDSV", "KDTA", "KDTL", "KDTN", "KDTO", "KDTS", "KDTW", "KDUA", "KDUB", "KDUC", "KDUG", "KDUH", "KDUJ", "KDUX", "KDVK", "KDVL", "KDVN", "KDVO", "KDVP", "KDVT", "KDWA", "KDWH", "KDWX", "KDXR", "KDXX", "KDYL", "KDYR", "KDYS", "KDYT", "KDZB", "KDZJ", "KE11", "KE16", "KE38", "KE41", "KE42", "KEAN", "KEAR", "KEAT", "KEAU", "KEBA", "KEBG", "KEBS", "KECG", "KECP", "KECS", "KECU", "KEDC", "KEDE", "KEDJ", "KEDN", "KEDU", "KEDW", "KEED", "KEEN", "KEEO", "KEFD", "KEFK", "KEFT", "KEGE", "KEGI", "KEGT", "KEGV", "KEHA", "KEHO", "KEHR", "KEIK", "KEKE", "KEKM", "KEKN", "KEKO", "KEKQ", "KEKS", "KEKX", "KELA", "KELD", "KELK", "KELM", "KELN", "KELO", "KELP", "KELY", "KELZ", "KEMM", "KEMP", "KEMV", "KEND", "KENL", "KENV", "KENW", "KEOE", "KEOK", "KEPH", "KEQA", "KEQY", "KERI", "KERV", "KERY", "KESC", "KESF", "KESN", "KEST", "KETB", "KETC", "KETN", "KEUF", "KEUG", "KEUL", "KEVB", "KEVM", "KEVU", "KEVV", "KEVW", "KEWB", "KEWK", "KEWN", "KEWR", "KEXX", "KEYE", "KEYF", "KEYW", "KEZF", "KEZM", "KEZP", "KEZZ", "KF00", "KF05", "KF17", "KF44", "KF46", "KF70", "KFAF", "KFAM", "KFAR", "KFAT", "KFAY", "KFBG", "KFBL", "KFCI", "KFCM", "KFCS", "KFDK", "KFDR", "KFDW", "KFDY", "KFEP", "KFET", "KFEW", "KFFA", "KFFC", "KFFL", "KFFM", "KFFO", "KFFT", "KFFX", "KFFZ", "KFGN", "KFGX", "KFHB", "KFHR", "KFHU", "KFIN", "KFIT", "KFKA", "KFKN", "KFKR", "KFKS", "KFLD", "KFLG", "KFLL", "KFLO", "KFLP", "KFLY", "KFME", "KFMH", "KFMM", "KFMN", "KFMY", "KFNB", "KFNL", "KFNT", "KFOA", "KFOD", "KFOE", "KFOK", "KFOZ", "KFPK", "KFPR", "KFPY", "KFQD", "KFRG", "KFRH", "KFRI", "KFRM", "KFRR", "KFSD", "KFSE", "KFSI", "KFSK", "KFSM", "KFSO", "KFST", "KFSW", "KFTK", "KFTN", "KFTW", "KFTY", "KFUL", "KFVE", "KFVX", "KFWA", "KFWB", "KFWC", "KFWN", "KFWS", "KFXE", "KFXY", "KFYE", "KFYG", "KFYJ", "KFYM", "KFYV", "KFZG", "KFZY", "KGAF", "KGAG", "KGAI", "KGAO", "KGBD", "KGBG", "KGCC", "KGCD", "KGCK", "KGCM", "KGCN", "KGCY", "KGDA", "KGDB", "KGDJ", "KGDV", "KGED", "KGEG", "KGEV", "KGEY", "KGEZ", "KGFA", "KGFK", "KGFL", "KGGE", "KGGF", "KGGG", "KGGI", "KGGP", "KGGW", "KGHG", "KGHW", "KGIC", "KGIF", "KGJT", "KGKJ", "KGKT", "KGKY", "KGLD", "KGLE", "KGLH", "KGLR", "KGLS", "KGLW", "KGLY", "KGMU", "KGNA", "KGNB", "KGNC", "KGNG", "KGNR", "KGNT", "KGOK", "KGON", "KGOO", "KGOP", "KGOV", "KGPC", "KGPH", "KGPI", "KGPM", "KGPT", "KGPZ", "KGRB", "KGRD", "KGRF", "KGRI", "KGRK", "KGRN", "KGRR", "KGRY", "KGSB", "KGSH", "KGSO", "KGSP", "KGTB", "KGTF", "KGTR", "KGTU", "KGUC", "KGUL", "KGUP", "KGUR", "KGUS", "KGUY", "KGVE", "KGVL", "KGVQ", "KGVT", "KGVW", "KGWB", "KGWO", "KGWR", "KGWW", "KGXA", "KGXF", "KGXY", "KGYB", "KGYF", "KGYH", "KGYI", "KGYL", "KGYY", "KGZH", "KGZL", "KGZN", "KGZS", "KH71", "KHAE", "KHAF", "KHAI", "KHAO", "KHBG", "KHBI", "KHBR", "KHBV", "KHCD", "KHCO", "KHCR", "KHDC", "KHDE", "KHDL", "KHDN", "KHDO", "KHEF", "KHEG", "KHEI", "KHEQ", "KHEY", "KHEZ", "KHFD", "KHFF", "KHFJ", "KHFY", "KHGR", "KHHF", "KHHG", "KHHR", "KHHW", "KHIB", "KHIE", "KHIF", "KHII", "KHIO", "KHJH", "KHJO", "KHKA", "KHKS", "KHKY", "KHLB", "KHLC", "KHLG", "KHLN", "KHLR", "KHLX", "KHMN", "KHMP", "KHMT", "KHMZ", "KHNB", "KHND", "KHNR", "KHNZ", "KHOB", "KHOE", "KHON", "KHOP", "KHOT", "KHOU", "KHPN", "KHPT", "KHQG", "KHQG", "KHQM", "KHQU", "KHQZ", "KHRF", "KHRI", "KHRJ", "KHRL", "KHRO", "KHRT", "KHRX", "KHSB", "KHSD", "KHSE", "KHSG", "KHSI", "KHSP", "KHST", "KHSV", "KHTH", "KHTL", "KHTS", "KHUA", "KHUF", "KHUL", "KHUM", "KHUT", "KHVE", "KHVN", "KHVR", "KHVS", "KHWD", "KHWO", "KHWV", "KHWY", "KHXD", "KHYA", "KHYI", "KHYR", "KHYS", "KHYW", "KHYX", "KHZD", "KHZE", "KHZL", "KHZR", "KHZX", "KHZY", "KI16", "KI19", "KI23", "KI35", "KI63", "KI67", "KI68", "KI69", "KI74", "KI75", "KIAB", "KIAD", "KIAG", "KIAH", "KIBM", "KICR", "KICT", "KIDA", "KIDI", "KIDP", "KIEN", "KIER", "KIFA", "KIFP", "KIGM", "KIGQ", "KIIB", "KIIY", "KIJD", "KIJX", "KIKG", "KIKK", "KIKT", "KIKV", "KIKW", "KILE", "KILG", "KILM", "KILN", "KIML", "KIMM", "KIMS", "KIMT", "KIND", "KINF", "KINJ", "KINK", "KINL", "KINS", "KINT", "KINW", "KIOB", "KIOW", "KIPJ", "KIPL", "KIPT", "KIRK", "KIRS", "KISM", "KISO", "KISP", "KISQ", "KISW", "KITH", "KITR", "KIUA", "KIWA", "KIWD", "KIWI", "KIXA", "KIXD", "KIYA", "KIZA", "KIZG", "KJAC", "KJAN", "KJAQ", "KJAS", "KJAU", "KJAX", "KJBR", "KJCA", "KJCT", "KJDD", "KJDN", "KJEF", "KJER", "KJES", "KJFK", "KJFX", "KJFZ", "KJHN", "KJHW", "KJKA", "KJKJ", "KJKL", "KJLN", "KJMR", "KJMS", "KJNX", "KJPX", "KJQF", "KJRB", "KJRO", "KJSO", "KJST", "KJSV", "KJVL", "KJVY", "KJWG", "KJWN", "KJWY", "KJXI", "KJXN", "KJYG", "KJYL", "KJYM", "KJYO", "KJYR", "KJZI", "KJZP", "KK62", "KK70", "KK82", "KK88", "KKLS", "KKNB", "KKY8", "KL08", "KL18", "KL35", "KL52", "KLAA", "KLAF", "KLAL", "KLAM", "KLAN", "KLAR", "KLAS", "KLAW", "KLAX", "KLBB", "KLBE", "KLBF", "KLBL", "KLBO", "KLBT", "KLBX", "KLCG", "KLCH", "KLCI", "KLCK", "KLCQ", "KLDJ", "KLDM", "KLEB", "KLEE", "KLEW", "KLEX", "KLFI", "KLFK", "KLFT", "KLGA", "KLGB", "KLGC", "KLGD", "KLGF", "KLGU", "KLHB", "KLHM", "KLHQ", "KLHW", "KLHX", "KLHZ", "KLIC", "KLIT", "KLJF", "KLKR", "KLKU", "KLKV", "KLLJ", "KLLN", "KLLQ", "KLMO", "KLMS", "KLMT", "KLNA", "KLNC", "KLND", "KLNK", "KLNL", "KLNN", "KLNP", "KLNQ", "KLNR", "KLNS", "KLOL", "KLOM", "KLOR", "KLOT", "KLOU", "KLOZ", "KLPR", "KLQK", "KLRD", "KLRF", "KLRJ", "KLRU", "KLRY", "KLSE", "KLSF", "KLSV", "KLTS", "KLUA", "KLUD", "KLUF", "KLUG", "KLUK", "KLUL", "KLUM", "KLUV", "KLUX", "KLVJ", "KLVK", "KLVL", "KLVM", "KLVN", "KLVS", "KLWA", "KLWB", "KLWC", "KLWD", "KLWM", "KLWS", "KLWT", "KLWV", "KLXL", "KLXN", "KLXT", "KLXV", "KLXY", "KLYH", "KLYO", "KLYV", "KLZU", "KLZZ", "KM01", "KM02", "KM08", "KM19", "KM21", "KM30", "KM40", "KM54", "KM75", "KM91", "KMAE", "KMAF", "KMAI", "KMAN", "KMAO", "KMAW", "KMBG", "KMBL", "KMBO", "KMBS", "KMBT", "KMBY", "KMCB", "KMCC", "KMCD", "KMCE", "KMCF", "KMCI", "KMCJ", "KMCK", "KMCN", "KMCO", "KMCW", "KMCX", "KMCZ", "KMDD", "KMDH", "KMDQ", "KMDS", "KMDT", "KMDW", "KMDZ", "KMEB", "KMEH", "KMEI", "KMEM", "KMER", "KMEV", "KMEZ", "KMFD", "KMFE", "KMFI", "KMFR", "KMFV", "KMGC", "KMGE", "KMGG", "KMGJ", "KMGM", "KMGN", "KMGW", "KMGY", "KMHE", "KMHK", "KMHL", "KMHP", "KMHS", "KMHT", "KMHV", "KMIA", "KMIB", "KMIC", "KMIE", "KMIO", "KMIV", "KMIW", "KMJD", "KMJQ", "KMKC", "KMKE", "KMKG", "KMKJ", "KMKL", "KMKN", "KMKO", "KMKS", "KMKT", "KMKY", "KMLB", "KMLC", "KMLE", "KMLF", "KMLI", "KMLJ", "KMLP", "KMLS", "KMLT", "KMLU", "KMMH", "KMMI", "KMMK", "KMML", "KMMT", "KMMU", "KMMV", "KMNE", "KMNH", "KMNI", "KMNM", "KMNN", "KMNV", "KMNZ", "KMOB", "KMOD", "KMOP", "KMOR", "KMOT", "KMOX", "KMPO", "KMPR", "KMPV", "KMPZ", "KMQB", "KMQI", "KMQJ", "KMQS", "KMQW", "KMQY", "KMRB", "KMRC", "KMRF", "KMRH", "KMRJ", "KMRN", "KMRT", "KMRY", "KMSL", "KMSN", "KMSO", "KMSP", "KMSS", "KMSV", "KMSY", "KMTC", "KMTH", "KMTJ", "KMTK", "KMTO", "KMTP", "KMTV", "KMTW", "KMUI", "KMUO", "KMUT", "KMVE", "KMVH", "KMVL", "KMVN", "KMVY", "KMWA", "KMWC", "KMWH", "KMWK", "KMWL", "KMWM", "KMWN", "KMWO", "KMWT", "KMXF", "KMYF", "KMYJ", "KMYL", "KMYP", "KMYR", "KMYV", "KMYZ", "KMZH", "KMZZ", "KN03", "KN38", "KN60", "KN79", "KNAK", "KNBC", "KNBG", "KNBT", "KNCA", "KNDZ", "KNEL", "KNEW", "KNFE", "KNFG", "KNFL", "KNFW", "KNGP", "KNGU", "KNHK", "KNID", "KNIP", "KNJK", "KNJW", "KNKT", "KNKX", "KNLC", "KNMM", "KNOG", "KNOW", "KNOZ", "KNPA", "KNQI", "KNQX", "KNRB", "KNRN", "KNRS", "KNSE", "KNSI", "KNTD", "KNTU", "KNUC", "KNUI", "KNUW", "KNXF", "KNXP", "KNY0", "KNYC", "KNYG", "KNYL", "KNZY", "KO05", "KO22", "KO32", "KO86", "KOAJ", "KOAK", "KOAR", "KOBE", "KOCF", "KOCH", "KOCQ", "KOCW", "KODO", "KODX", "KOEB", "KOEL", "KOEO", "KOFF", "KOFK", "KOFP", "KOGA", "KOGB", "KOGD", "KOGS", "KOIC", "KOIN", "KOJA", "KOJC", "KOKB", "KOKC", "KOKK", "KOKM", "KOKV", "KOKZ", "KOLE", "KOLF", "KOLG", "KOLM", "KOLS", "KOLU", "KOLV", "KOLY", "KOLZ", "KOMA", "KOMH", "KOMK", "KOMN", "KONA", "KONL", "KONM", "KONO", "KONP", "KONT", "KONX", "KONZ", "KOOA", "KOPF", "KOPL", "KOPN", "KOQN", "KOQT", "KORB", "KORD", "KORE", "KORF", "KORG", "KORH", "KORK", "KORL", "KORS", "KOSA", "KOSC", "KOSH", "KOSU", "KOTG", "KOTH", "KOTM", "KOUN", "KOVE", "KOVL", "KOVS", "KOWA", "KOWB", "KOWD", "KOWI", "KOWP", "KOWX", "KOXC", "KOXD", "KOXI", "KOXR", "KOXV", "KOYM", "KOZA", "KOZR", "KOZS", "KOZW", "KP08", "KP28", "KP52", "KP53", "KP58", "KP59", "KP60", "KP68", "KP69", "KP92", "KPAE", "KPAH", "KPAM", "KPAN", "KPBF", "KPBG", "KPBH", "KPBI", "KPBX", "KPCD", "KPCM", "KPCW", "KPCZ", "KPDC", "KPDK", "KPDT", "KPDX", "KPEA", "KPEO", "KPEQ", "KPEX", "KPEZ", "KPGA", "KPGD", "KPGV", "KPHD", "KPHF", "KPHL", "KPHN", "KPHP", "KPHT", "KPHX", "KPIA", "KPIB", "KPIE", "KPIH", "KPIL", "KPIM", "KPIR", "KPIT", "KPJC", "KPKB", "KPKD", "KPKV", "KPLN", "KPLR", "KPLU", "KPMD", "KPMH", "KPMP", "KPMU", "KPMV", "KPNA", "KPNC", "KPNE", "KPNM", "KPNS", "KPNT", "KPO1", "KPOB", "KPOE", "KPOF", "KPOU", "KPOV", "KPOY", "KPPA", "KPPF", "KPPO", "KPPQ", "KPQI", "KPQL", "KPRB", "KPRC", "KPRG", "KPRN", "KPRO", "KPRS", "KPRX", "KPSC", "KPSF", "KPSK", "KPSM", "KPSN", "KPSO", "KPSP", "KPSX", "KPTB", "KPTD", "KPTK", "KPTN", "KPTS", "KPTT", "KPTV", "KPUB", "KPUC", "KPUJ", "KPUW", "KPVB", "KPVC", "KPVD", "KPVF", "KPVG", "KPVJ", "KPVU", "KPVW", "KPWA", "KPWC", "KPWD", "KPWG", "KPWK", "KPWM", "KPWT", "KPXE", "KPYM", "KPZQ", "KQAZ", "KQBL", "KQD3", "KQDG", "KQEI", "KQEJ", "KQEN", "KQEP", "KQEQ", "KQER", "KQES", "KQEV", "KQEW", "KQEX", "KQEY", "KQFB", "KQFT", "KQFU", "KQFV", "KQFW", "KQFX", "KQHY", "KQN3", "KQRH", "KQTZ", "KQVF", "KRAC", "KRAL", "KRAP", "KRAS", "KRAW", "KRBD", "KRBG", "KRBL", "KRBO", "KRBW", "KRCA", "KRCE", "KRCM", "KRCR", "KRCV", "KRCX", "KRCZ", "KRDD", "KRDG", "KRDK", "KRDM", "KRDR", "KRDU", "KREG", "KREO", "KRFD", "KRFI", "KRGA", "KRGK", "KRHI", "KRIC", "KRID", "KRIL", "KRIV", "KRIW", "KRKD", "KRKP", "KRKR", "KRKS", "KRKW", "KRLD", "KRME", "KRMG", "KRMN", "KRMY", "KRNC", "KRND", "KRNH", "KRNM", "KRNO", "KRNP", "KRNT", "KROA", "KROC", "KROG", "KROS", "KROW", "KROX", "KRPD", "KRPH", "KRPJ", "KRPX", "KRQB", "KRQE", "KRQO", "KRRL", "KRRT", "KRSL", "KRSN", "KRSP", "KRST", "KRSW", "KRTN", "KRTS", "KRUE", "KRUG", "KRUQ", "KRUT", "KRVF", "KRVJ", "KRVL", "KRVS", "KRWF", "KRWI", "KRWL", "KRWV", "KRXE", "KRYM", "KRYV", "KRYW", "KRYY", "KRZL", "KRZN", "KRZR", "KRZT", "KS21", "KS24", "KS25", "KS32", "KS33", "KS34", "KS39", "KS52", "KS71", "KS85", "KSAA", "KSAD", "KSAF", "KSAN", "KSAR", "KSAT", "KSAV", "KSAW", "KSAZ", "KSBA", "KSBD", "KSBM", "KSBN", "KSBO", "KSBP", "KSBS", "KSBY", "KSCD", "KSCK", "KSCR", "KSCX", "KSDA", "KSDC", "KSDF", "KSDL", "KSDM", "KSDY", "KSEA", "KSEE", "KSEF", "KSEG", "KSEM", "KSEP", "KSEQ", "KSET", "KSEZ", "KSFB", "KSFF", "KSFM", "KSFO", "KSFQ", "KSFZ", "KSGF", "KSGH", "KSGJ", "KSGR", "KSGS", "KSGT", "KSGU", "KSHD", "KSHL", "KSHM", "KSHN", "KSHR", "KSHV", "KSIF", "KSIK", "KSIY", "KSJC", "KSJS", "KSJT", "KSJX", "KSKA", "KSKF", "KSKX", "KSLB", "KSLC", "KSLE", "KSLG", "KSLH", "KSLI", "KSLK", "KSLN", "KSLO", "KSLR", "KSMD", "KSME", "KSMF", "KSMN", "KSMO", "KSMP", "KSMQ", "KSMS", "KSMX", "KSNA", "KSNC", "KSNH", "KSNK", "KSNL", "KSNS", "KSNT", "KSNY", "KSOA", "KSOP", "KSOW", "KSPA", "KSPB", "KSPD", "KSPF", "KSPG", "KSPI", "KSPS", "KSPW", "KSQI", "KSQL", "KSRB", "KSRC", "KSRE", "KSRQ", "KSRR", "KSSC", "KSSF", "KSSI", "KSTC", "KSTE", "KSTF", "KSTJ", "KSTK", "KSTL", "KSTP", "KSTS", "KSUA", "KSUE", "KSUN", "KSUS", "KSUT", "KSUU", "KSUW", "KSUX", "KSUZ", "KSVC", "KSVE", "KSVH", "KSVN", "KSWF", "KSWO", "KSWW", "KSXK", "KSXS", "KSXT", "KSXU", "KSYF", "KSYI", "KSYM", "KSYN", "KSYR", "KSZL", "KSZT", "KSZY", "KT20", "KT35", "KT41", "KT69", "KT70", "KT74", "KT78", "KT82", "KT89", "KTAD", "KTAN", "KTAZ", "KTBN", "KTBR", "KTCC", "KTCM", "KTCS", "KTCY", "KTDF", "KTDR", "KTDZ", "KTEB", "KTEW", "KTEX", "KTFP", "KTGI", "KTHA", "KTHV", "KTIF", "KTIK", "KTIP", "KTIW", "KTIX", "KTKC", "KTKI", "KTKV", "KTKX", "KTLH", "KTMB", "KTMK", "KTMT", "KTNB", "KTNU", "KTOB", "KTOC", "KTOI", "KTOL", "KTOP", "KTOR", "KTPA", "KTPF", "KTPH", "KTPL", "KTQE", "KTQH", "KTQK", "KTQV", "KTRI", "KTRK", "KTRL", "KTRM", "KTSP", "KTTA", "KTTD", "KTTF", "KTTN", "KTTS", "KTUL", "KTUP", "KTUS", "KTVC", "KTVF", "KTVI", "KTVK", "KTVL", "KTVR", "KTVY", "KTWF", "KTWM", "KTWT", "KTXK", "KTXW", "KTYL", "KTYQ", "KTYR", "KTYS", "KTZR", "KU42", "KU55", "KU64", "KU68", "KU69", "KUAO", "KUBE", "KUCY", "KUDG", "KUES", "KUGN", "KUIL", "KUIN", "KUKF", "KUKI", "KUKL", "KUKT", "KULM", "KULS", "KUNI", "KUNO", "KUNU", "KUNV", "KUOX", "KUSE", "KUTA", "KUTS", "KUUU", "KUUV", "KUVA", "KUXL", "KUYF", "KUZA", "KVAD", "KVAF", "KVAY", "KVBG", "KVBT", "KVBW", "KVCB", "KVCT", "KVCV", "KVDF", "KVDI", "KVEL", "KVER", "KVES", "KVGC", "KVGT", "KVHN", "KVIH", "KVIS", "KVJI", "KVKS", "KVKY", "KVLD", "KVLL", "KVNC", "KVNW", "KVNY", "KVOA", "KVOK", "KVPC", "KVPS", "KVPZ", "KVQQ", "KVRB", "KVSF", "KVTA", "KVTI", "KVTN", "KVTP", "KVUJ", "KVUO", "KVVS", "KVVV", "KVWU", "KVYS", "KW13", "KW22", "KW29", "KW31", "KW40", "KW43", "KW63", "KW75", "KW78", "KW81", "KW96", "KW99", "KWAL", "KWBF", "KWDG", "KWDR", "KWJF", "KWLD", "KWMC", "KWRB", "KWRI", "KWRL", "KWST", "KWVI", "KWVL", "KWWD", "KWWR", "KX07", "KX26", "KX60", "KXER", "KXLL", "KXMR", "KXNA", "KXNO", "KXNX", "KXSA", "KXVG", "KXWA", "KY19", "KY23", "KY31", "KY49", "KY50", "KY51", "KY63", "KY70", "KYIP", "KYKM", "KYKN", "KYNG", "KZER", "KZPH", "KZZV", "LATI", "LBBG", "LBGO", "LBIA", "LBPD", "LBPG", "LBPL", "LBSF", "LBWB", "LBWN", "LCEN", "LCLK", "LCPH", "LCRA", "LDDU", "LDOS", "LDPL", "LDRI", "LDSP", "LDZA", "LDZD", "LEAB", "LEAG", "LEAL", "LEAM", "LEAO", "LEAS", "LEBA", "LEBB", "LEBG", "LEBL", "LEBR", "LEBT", "LEBZ", "LECH", "LECO", "LECV", "LEDA", "LEEC", "LEGA", "LEGE", "LEGR", "LEGT", "LEHC", "LEIB", "LEJR", "LELC", "LELL", "LELN", "LELO", "LEMD", "LEMG", "LEMH", "LEMI", "LEMO", "LEPA", "LEPP", "LERI", "LERS", "LERT", "LESA", "LESB", "LESO", "LEST", "LESU", "LETL", "LETO", "LETU", "LEVC", "LEVD", "LEVS", "LEVT", "LEVX", "LEXJ", "LEZG", "LEZL", "LFAC", "LFAQ", "LFAT", "LFBA", "LFBC", "LFBD", "LFBE", "LFBF", "LFBG", "LFBH", "LFBI", "LFBL", "LFBM", "LFBO", "LFBP", "LFBT", "LFBU", "LFBX", "LFBY", "LFBZ", "LFCK", "LFCR", "LFGA", "LFGJ", "LFHP", "LFJL", "LFJR", "LFKB", "LFKC", "LFKF", "LFKJ", "LFKS", "LFLB", "LFLC", "LFLH", "LFLL", "LFLN", "LFLP", "LFLS", "LFLU", "LFLV", "LFLW", "LFLX", "LFLY", "LFMC", "LFMD", "LFMH", "LFMI", "LFMK", "LFML", "LFMN", "LFMO", "LFMP", "LFMT", "LFMU", "LFMV", "LFMY", "LFOA", "LFOB", "LFOE", "LFOH", "LFOJ", "LFOK", "LFOP", "LFOT", "LFOV", "LFOZ", "LFPB", "LFPG", "LFPM", "LFPN", "LFPO", "LFPT", "LFPV", "LFQA", "LFQB", "LFQG", "LFQQ", "LFRB", "LFRC", "LFRD", "LFRG", "LFRH", "LFRI", "LFRJ", "LFRK", "LFRL", "LFRM", "LFRN", "LFRO", "LFRQ", "LFRS", "LFRT", "LFRU", "LFRV", "LFRZ", "LFSB", "LFSD", "LFSG", "LFSI", "LFSL", "LFSM", "LFSN", "LFSO", "LFST", "LFSX", "LFTH", "LFTW", "LFVP", "LFYR", "LGAD", "LGAL", "LGAV", "LGBL", "LGEL", "LGIO", "LGIR", "LGKC", "LGKF", "LGKL", "LGKO", "LGKP", "LGKR", "LGKV", "LGKZ", "LGLM", "LGMK", "LGMT", "LGPZ", "LGRP", "LGRX", "LGSA", "LGSK", "LGSM", "LGSO", "LGSR", "LGTS", "LGZA", "LHBP", "LHDC", "LHKE", "LHPA", "LHPP", "LHPR", "LHSM", "LHSN", "LIBA", "LIBC", "LIBD", "LIBF", "LIBG", "LIBN", "LIBP", "LIBQ", "LIBR", "LIBV", "LIBY", "LICA", "LICB", "LICC", "LICD", "LICF", "LICG", "LICJ", "LICR", "LICT", "LICZ", "LIEA", "LIEB", "LIED", "LIEE", "LIEO", "LIMA", "LIMC", "LIME", "LIMF", "LIMG", "LIMH", "LIMJ", "LIMK", "LIML", "LIMN", "LIMP", "LIMS", "LIMU", "LIMV", "LIMW", "LIMY", "LIMZ", "LIPA", "LIPB", "LIPC", "LIPE", "LIPF", "LIPH", "LIPI", "LIPK", "LIPL", "LIPO", "LIPQ", "LIPR", "LIPS", "LIPX", "LIPY", "LIPZ", "LIQC", "LIQN", "LIQW", "LIRA", "LIRE", "LIRF", "LIRG", "LIRH", "LIRI", "LIRK", "LIRL", "LIRM", "LIRN", "LIRP", "LIRQ", "LIRS", "LIRT", "LIRU", "LIRV", "LIRX", "LIRZ", "LIVC", "LIVD", "LIVE", "LIVF", "LIVM", "LIVO", "LIVP", "LIVR", "LIVT", "LJCE", "LJLJ", "LJMB", "LJPZ", "LKCV", "LKKB", "LKKU", "LKKV", "LKLN", "LKMT", "LKNA", "LKPD", "LKPR", "LKTB", "LKVO", "LLBG", "LLER", "LLHA", "LLIB", "LMML", "LOAN", "LOAV", "LOWG", "LOWI", "LOWK", "LOWL", "LOWS", "LOWW", "LOXZ", "LPAR", "LPAZ", "LPBJ", "LPCS", "LPFL", "LPFR", "LPHR", "LPLA", "LPMA", "LPMR", "LPMT", "LPOV", "LPPD", "LPPR", "LPPS", "LPPT", "LPST", "LQBK", "LQMO", "LQSA", "LQTZ", "LRAR", "LRBC", "LRBM", "LRBS", "LRCK", "LRCL", "LRCV", "LRIA", "LROD", "LROP", "LRSB", "LRSM", "LRSV", "LRTC", "LRTM", "LRTR", "LSGC", "LSGG", "LSGS", "LSMA", "LSMD", "LSME", "LSMM", "LSMP", "LSZA", "LSZB", "LSZC", "LSZG", "LSZH", "LSZL", "LSZR", "LSZS", "LTAC", "LTAE", "LTAF", "LTAG", "LTAI", "LTAJ", "LTAL", "LTAN", "LTAP", "LTAR", "LTAS", "LTAT", "LTAU", "LTAW", "LTAY", "LTAZ", "LTBA", "LTBD", "LTBF", "LTBH", "LTBJ", "LTBL", "LTBO", "LTBQ", "LTBR", "LTBS", "LTBU", "LTBY", "LTCA", "LTCB", "LTCC", "LTCD", "LTCE", "LTCF", "LTCG", "LTCI", "LTCJ", "LTCK", "LTCL", "LTCN", "LTCO", "LTCP", "LTCR", "LTCS", "LTCT", "LTCU", "LTCV", "LTCW", "LTDA", "LTFB", "LTFC", "LTFD", "LTFE", "LTFG", "LTFH", "LTFJ", "LTFK", "LTFM", "LTFO", "LUKK", "LWOH", "LWSK", "LXGB", "LYBE", "LYBT", "LYKV", "LYNI", "LYPG", "LYTV", "LYVR", "LZIB", "LZKZ", "LZPP", "LZTT", "LZZI", "MBGT", "MDCY", "MDJB", "MDLR", "MDPC", "MDPP", "MDSD", "MDST", "MGHT", "MHPR", "MKJP", "MKJS", "MMAA", "MMAS", "MMCM", "MMCP", "MMCS", "MMCU", "MMCZ", "MMDO", "MMLO", "MMMD", "MMMM", "MMMT", "MMMX", "MMMY", "MMOX", "MMPG", "MMQT", "MMSD", "MMSP", "MMTG", "MMTJ", "MMTM", "MMTO", "MMUN", "MNMG", "MPDA", "MPPA", "MPTO", "MROC", "MSLP", "MTPP", "MUCC", "MUCF", "MUCL", "MUCM", "MUCU", "MUGM", "MUHA", "MUHG", "MUSC", "MUVR", "MYCB", "MYEM", "MYGF", "MYNN", "MYSM", "MZBZ", "NCAI", "NCAT", "NCMG", "NCMH", "NCMK", "NCMR", "NCNS", "NCPK", "NCPL", "NCPY", "NCRG", "NCRK", "NCSW", "NFFN", "NFNA", "NFTF", "NGTA", "NIUE", "NLWW", "NSFA", "NSTU", "NTAA", "NVVV", "NWWW", "NZAA", "NZCH", "NZCM", "NZWN", "OBBI", "OEAB", "OEAH", "OEAO", "OEBA", "OEBH", "OEDF", "OEDM", "OEDR", "OEGN", "OEGS", "OEGT", "OEHL", "OEJB", "OEJN", "OEKJ", "OEKM", "OEMA", "OEMN", "OENG", "OEPA", "OEPS", "OERF", "OERK", "OERR", "OESH", "OESK", "OETB", "OETF", "OETR", "OEWD", "OEWJ", "OEYN", "OIAA", "OIAG", "OIAH", "OIAI", "OIAM", "OIAW", "OIBA", "OIBB", "OIBH", "OIBK", "OIBL", "OIBP", "OIBQ", "OIBS", "OIBV", "OICC", "OICI", "OICJ", "OICK", "OICM", "OICS", "OIFK", "OIFM", "OIFS", "OIGG", "OIGK", "OIHH", "OIHM", "OIHR", "OIIE", "OIII", "OIIK", "OIIP", "OIKB", "OIKK", "OIKO", "OIKQ", "OIMB", "OIMC", "OIMD", "OIMJ", "OIMM", "OIMN", "OIMQ", "OIMS", "OINB", "OINE", "OING", "OINK", "OINN", "OINR", "OINZ", "OISA", "OISF", "OISL", "OISR", "OISS", "OISY", "OITK", "OITL", "OITM", "OITP", "OITR", "OITT", "OITZ", "OIYY", "OIZB", "OIZC", "OIZH", "OIZI", "OIZJ", "OKAS", "OKKK", "OLBA", "OMAA", "OMAD", "OMAL", "OMDB", "OMDW", "OMFJ", "OMRK", "OMSJ", "OOAD", "OODQ", "OOKB", "OOMS", "OOSA", "OOSH", "OPIS", "OPKC", "OPLA", "OPMT", "OPNH", "OPPS", "OPSK", "OPST", "ORBI", "OTBD", "OTBH", "OTHH", "PAAD", "PAAQ", "PABA", "PABE", "PABI", "PABL", "PABR", "PABT", "PABV", "PACD", "PACM", "PACV", "PADK", "PADL", "PADM", "PADQ", "PADU", "PAED", "PAEG", "PAEH", "PAEI", "PAEN", "PAFA", "PAFB", "PAFE", "PAFM", "PAFR", "PAFS", "PAGK", "PAGL", "PAGN", "PAGS", "PAGY", "PAHL", "PAHN", "PAHO", "PAHX", "PAHY", "PAIG", "PAIK", "PAIM", "PAIN", "PAJN", "PAJZ", "PAKF", "PAKH", "PAKI", "PAKN", "PAKP", "PAKT", "PAKU", "PAKV", "PAKW", "PAKX", "PALG", "PALH", "PALP", "PALU", "PAMB", "PAMC", "PAMH", "PAMK", "PAMM", "PAMO", "PAMR", "PAMY", "PANA", "PANC", "PANI", "PANV", "PANW", "PAOH", "PAOM", "PAOR", "PAOT", "PAOU", "PAPB", "PAPG", "PAPH", "PAPN", "PAPO", "PAQT", "PARY", "PASC", "PASI", "PASK", "PASL", "PASM", "PASN", "PASO", "PASV", "PASX", "PASY", "PATA", "PATC", "PATG", "PATK", "PATL", "PATO", "PATQ", "PAUN", "PAVC", "PAVD", "PAVL", "PAWD", "PAWM", "PAWN", "PAWS", "PAYA", "PAZK", "PFCL", "PFEL", "PFKT", "PFSH", "PFWS", "PFYU", "PGSN", "PGUA", "PGUM", "PHBK", "PHHI", "PHJR", "PHKO", "PHLI", "PHMK", "PHNG", "PHNL", "PHNY", "PHOG", "PHSF", "PHTO", "PKMR", "PKWA", "PLCH", "PMDY", "PPIZ", "PTKK", "PTRO", "PTTP", "PTYA", "PWAK", "RCFN", "RCKH", "RCMQ", "RCNN", "RCSS", "RCTP", "RJAA", "RJAH", "RJBB", "RJBE", "RJCB", "RJCC", "RJCH", "RJCK", "RJCM", "RJCO", "RJDB", "RJDC", "RJDT", "RJEC", "RJFF", "RJFK", "RJFM", "RJFO", "RJFR", "RJFS", "RJFT", "RJFU", "RJGG", "RJKA", "RJKI", "RJNK", "RJNS", "RJNT", "RJOA", "RJOB", "RJOC", "RJOH", "RJOI", "RJOK", "RJOM", "RJOO", "RJOR", "RJOS", "RJOT", "RJSA", "RJSF", "RJSK", "RJSM", "RJSN", "RJSS", "RJSY", "RJTT", "RJTY", "RKJB", "RKJK", "RKNY", "RKPC", "RKPK", "RKSG", "RKSI", "RKSM", "RKSO", "RKSS", "RKTN", "RKTU", "ROAH", "RODE", "RODN", "ROIG", "ROMD", "ROMY", "RORK", "RORS", "RORT", "RORY", "ROTM", "ROYN", "RPLB", "RPLC", "RPLI", "RPLL", "RPMD", "RPVM", "RPVP", "SAAR", "SABE", "SACO", "SADF", "SAEZ", "SAME", "SANT", "SAOC", "SARC", "SARE", "SARF", "SARI", "SARL", "SARP", "SASA", "SASJ", "SAVC", "SAWE", "SAWG", "SAWH", "SAZM", "SAZN", "SAZS", "SBAF", "SBAN", "SBAX", "SBBG", "SBBH", "SBBI", "SBBR", "SBBU", "SBBV", "SBCA", "SBCC", "SBCF", "SBCG", "SBCH", "SBCJ", "SBCO", "SBCP", "SBCR", "SBCT", "SBCX", "SBDN", "SBES", "SBFI", "SBFL", "SBFN", "SBFS", "SBGL", "SBGO", "SBGR", "SBGW", "SBHT", "SBIH", "SBIL", "SBIP", "SBIZ", "SBJP", "SBJR", "SBJU", "SBJV", "SBKG", "SBKP", "SBLB", "SBLO", "SBLS", "SBMA", "SBME", "SBMG", "SBMK", "SBMN", "SBMQ", "SBMT", "SBNF", "SBNT", "SBOI", "SBPA", "SBPB", "SBPF", "SBPJ", "SBPK", "SBPL", "SBPP", "SBRJ", "SBRP", "SBSC", "SBSJ", "SBSL", "SBSM", "SBSN", "SBSP", "SBSR", "SBST", "SBSV", "SBTA", "SBTE", "SBTF", "SBTU", "SBUL", "SBUR", "SBUY", "SBVH", "SBVT", "SBYS", "SCAR", "SCAT", "SCBA", "SCCF", "SCCH", "SCCI", "SCCY", "SCDA", "SCFA", "SCFM", "SCFT", "SCHR", "SCIC", "SCIE", "SCIP", "SCMK", "SCON", "SCPD", "SCPQ", "SCQP", "SCSE", "SCSN", "SCTE", "SCTN", "SCVD", "SECA", "SECU", "SEGU", "SELT", "SEMT", "SEQM", "SESA", "SESM", "SFAL", "SGES", "SKAR", "SKBG", "SKBO", "SKBQ", "SKCC", "SKCG", "SKCL", "SKEJ", "SKIB", "SKIP", "SKLC", "SKLT", "SKMD", "SKMR", "SKMZ", "SKNV", "SKPC", "SKPE", "SKPS", "SKPV", "SKRG", "SKRH", "SKSM", "SKSP", "SKUI", "SKVP", "SKVV", "SLAL", "SLCA", "SLCB", "SLCP", "SLET", "SLLP", "SLRI", "SLRQ", "SLSA", "SLSV", "SLTJ", "SLTR", "SLVM", "SLVR", "SLYA", "SMJP", "SMZO", "SOCA", "SPHI", "SPHO", "SPJC", "SPJJ", "SPJR", "SPLO", "SPQT", "SPQU", "SPRU", "SPSO", "SPST", "SPTN", "SPTU", "SPUR", "SPZO", "SUAA", "SUCA", "SUDU", "SULS", "SUMU", "SVBM", "SVMC", "SVMG", "SVSA", "SVVA", "SVVG", "SYCJ", "SYEC", "TAPA", "TBPB", "TDPD", "TFFF", "TFFR", "TGPY", "TIST", "TISX", "TJBQ", "TJIG", "TJNR", "TJPS", "TJSJ", "TKPK", "TLPL", "TNCA", "TNCB", "TNCC", "TNCE", "TNCM", "TQPF", "TRPG", "TTCP", "TTPP", "TVSA", "TXKF", "UAAA", "UAAH", "UAAT", "UACC", "UACK", "UACP", "UADD", "UAII", "UAIT", "UAKD", "UAKK", "UAOO", "UARR", "UASK", "UASP", "UASS", "UATE", "UATG", "UATT", "UAUU", "UBBB", "UBBF", "UBBG", "UBBL", "UBBN", "UBBQ", "UBBY", "UBBZ", "UBEE", "UCFL", "UCFM", "UCFO", "UDSG", "UDYZ", "UEEE", "UERP", "UERR", "UGAM", "UGKO", "UGMS", "UGSB", "UGTB", "UHBB", "UHHH", "UHMA", "UHMM", "UHPP", "UHSS", "UHWW", "UIAA", "UIBB", "UIII", "UIUU", "ULAA", "ULLI", "ULMM", "ULOO", "ULPB", "ULWC", "UMBB", "UMGG", "UMII", "UMIO", "UMKK", "UMMG", "UMMS", "UMOO", "UNAA", "UNBB", "UNEE", "UNKL", "UNNT", "UNOO", "UNTT", "UNWW", "UOOO", "URKA", "URKK", "URMG", "URML", "URMM", "URMN", "URMO", "URMT", "URRP", "URSS", "URWA", "URWI", "URWW", "USCC", "USCM", "USDA", "USHH", "USNN", "USPP", "USRR", "USSS", "USTR", "UTAA", "UTAK", "UTAM", "UTAT", "UTAV", "UTDD", "UTDK", "UTDL", "UTDT", "UTFF", "UTFN", "UTNN", "UTNU", "UTO8", "UTSA", "UTSB", "UTSK", "UTSS", "UTST", "UTTT", "UUBC", "UUBP", "UUBW", "UUDD", "UUDL", "UUEE", "UUMO", "UUOB", "UUOK", "UUOL", "UUOO", "UUWW", "UUYY", "UWGG", "UWKD", "UWKE", "UWKS", "UWLL", "UWLW", "UWOO", "UWOR", "UWPS", "UWSG", "UWUU", "UWWW", "VAAH", "VAAU", "VABB", "VABO", "VABP", "VADU", "VAID", "VAJB", "VAJJ", "VAJL", "VAKE", "VAKP", "VANP", "VAOZ", "VAPR", "VASD", "VASU", "VAUD", "VCRI", "VDPP", "VDSR", "VDSV", "VEAT", "VEBN", "VEBS", "VEBU", "VECC", "VECO", "VEDG", "VEDO", "VEGT", "VEGY", "VEIM", "VEJH", "VEJS", "VEKI", "VELP", "VELR", "VEPT", "VERC", "VERP", "VGHS", "VHHH", "VIAR", "VIDN", "VIDP", "VIJP", "VILK", "VIPT", "VISM", "VLLN", "VLPS", "VLVT", "VMMC", "VNKT", "VOBG", "VOBL", "VOBM", "VOBZ", "VOCB", "VOCI", "VOCL", "VOCP", "VOGA", "VOGB", "VOHB", "VOHS", "VOHY", "VOJV", "VOKN", "VOMD", "VOML", "VOMM", "VOMY", "VOPB", "VOPC", "VORY", "VOTK", "VOTP", "VOTR", "VOTV", "VOVZ", "VRMG", "VRMM", "VTBD", "VTBS", "VTBU", "VTCC", "VTCH", "VTCL", "VTCN", "VTCP", "VTCT", "VTPB", "VTPH", "VTPM", "VTPO", "VTPP", "VTPT", "VTSB", "VTSC", "VTSE", "VTSF", "VTSG", "VTSM", "VTSP", "VTSR", "VTSS", "VTST", "VTUD", "VTUI", "VTUK", "VTUL", "VTUO", "VTUQ", "VTUU", "VTUV", "VTUW", "VVCI", "VVCR", "VVCT", "VVDN", "VVNB", "VVPB", "VVPQ", "VVTS", "VVVD", "VYMD", "VYNT", "VYYY", "WAAA", "WABB", "WADD", "WADL", "WAHS", "WAJJ", "WALL", "WAMM", "WAOO", "WAPP", "WAQQ", "WARR", "WATT", "WBGB", "WBGG", "WBGR", "WBGS", "WBGY", "WBKK", "WBKL", "WBKS", "WBKT", "WBKW", "WBSB", "WIBB", "WIDD", "WIDN", "WIEE", "WIHH", "WIII", "WILL", "WIMM", "WIOO", "WIPP", "WMAU", "WMBA", "WMKA", "WMKB", "WMKC", "WMKD", "WMKE", "WMKI", "WMKJ", "WMKK", "WMKL", "WMKM", "WMKN", "WMKP", "WMSA", "WSAP", "WSSL", "WSSS", "YAMB", "YBAS", "YBBN", "YBCG", "YBCS", "YBHM", "YBLN", "YBMA", "YBRK", "YBRM", "YBSU", "YBTL", "YBWW", "YCFS", "YCIN", "YFRT", "YGEL", "YGLA", "YHID", "YLHI", "YMAV", "YMHB", "YMLT", "YMML", "YPAD", "YPCC", "YPDN", "YPEA", "YPGV", "YPJT", "YPKG", "YPKU", "YPLM", "YPPD", "YPPH", "YPTN", "YPWR", "YPXM", "YSCB", "YSDU", "YSNF", "YSRI", "YSSY", "YSTW", "YWLM", "ZBAA", "ZBAD", "ZBHH", "ZBSJ", "ZBTJ", "ZBYN", "ZGGG", "ZGHA", "ZGKL", "ZGNN", "ZGOW", "ZGSZ", "ZHCC", "ZHHH", "ZJHK", "ZJSY", "ZLLL", "ZLXY", "ZMCK", "ZPPP", "ZSAM", "ZSFZ", "ZSHC", "ZSNB", "ZSNJ", "ZSOF", "ZSPD", "ZSQD", "ZSSS", "ZUCK", "ZUGY", "ZUTF", "ZUUU", "ZWSH", "ZWWW", "ZYCC", "ZYHB", "ZYTL", "ZYTX"], "observation_time": ["2023-04-03T11:00:00Z", "2023-04-03T11:00:00Z", "2023-04-03T11:50:00Z", "2023-04-03T11:50:00Z", "2023-04-03T11:50:00Z", "2023-04-03T10:50:00Z", "2023-04-03T11:50:00Z", "2023-04-03T11:45:00Z", "2023-04-03T11:00:00Z", "2023-04-03T11:00:00Z", "2023-04-03T11:00:00Z", "2023-04-03T11:30:00Z", "2023-04-03T11:00:00Z", "2023-04-03T11:00:00Z", "2023-04-03T11:00:00Z", "2023-04-03T10:55:00Z", "2023-04-03T11:00:00Z", "2023-04-03T11:40:00Z", "2023-04-03T11:50:00Z", "2023-04-03T11:00:00Z", "2023-04-03T11:00:00Z", "2023-04-03T11:00:00Z", "2023-04-03T11:00:00Z", "2023-04-03T11:00:00Z", "2023-04-03T11:00:00Z", "2023-04-03T11:00:00Z", "2023-04-03T11:00:00Z", "2023-04-03T11:00:00Z", "2023-04-03T11:00:00Z", "2023-04-03T11:00:00Z", "2023-04-03T11:00:00Z", "2023-04-03T11:00:00Z", "2023-04-03T11:00:00Z", "2023-04-03T11:00:00Z", "2023-04-03T11:00:00Z", "2023-04-03T11:00:00Z", "2023-04-03T11:00:00Z", "2023-04-03T11:00:00Z", "2023-04-03T11:00:00Z", "2023-04-03T11:00:00Z", "2023-04-03T11:00:00Z", "2023-04-03T11:00:00Z", "2023-04-03T11:00:00Z", "2023-04-03T11:00:00Z", "2023-04-03T11:00:00Z", "2023-04-03T11:00:00Z", "2023-04-03T11:00:00Z", "2023-04-03T11:00:00Z", "2023-04-03T11:00:00Z", "2023-04-03T11:00:00Z", "2023-04-03T11:00:00Z", "2023-04-03T11:00:00Z", "2023-04-03T11:00:00Z", "2023-04-03T11:00:00Z", "2023-04-03T11:00:00Z", "2023-04-03T11:00:00Z", "2023-04-03T11:00:00Z", "2023-04-03T11:00:00Z", "2023-04-03T11:00:00Z", "2023-04-03T11:00:00Z", "2023-04-03T11:00:00Z", "2023-04-03T11:00:00Z", "2023-04-03T11:00:00Z", "2023-04-03T11:00:00Z", "2023-04-03T11:00:00Z", "2023-04-03T11:00:00Z", "2023-04-03T11:00:00Z", "2023-04-03T11:00:00Z", "2023-04-03T11:00:00Z", "2023-04-03T11:00:00Z", "2023-04-03T11:00:00Z", "2023-04-03T11:00:00Z", "2023-04-03T11:00:00Z", "2023-04-03T11:00:00Z", "2023-04-03T11:00:00Z", "2023-04-03T11:00:00Z", "2023-04-03T11:00:00Z", "2023-04-03T11:00:00Z", "2023-04-03T11:00:00Z", "2023-04-03T11:00:00Z", "2023-04-03T11:00:00Z", "2023-04-03T11:00:00Z", "2023-04-03T11:00:00Z", "2023-04-03T11:00:00Z", "2023-04-03T11:00:00Z", "2023-04-03T11:00:00Z", "2023-04-03T11:00:00Z", "2023-04-03T11:00:00Z", "2023-04-03T11:00:00Z", "2023-04-03T11:00:00Z", "2023-04-03T11:00:00Z", "2023-04-03T11:00:00Z", "2023-04-03T11:00:00Z", "2023-04-03T11:00:00Z", "2023-04-03T11:00:00Z", "2023-04-03T11:00:00Z", "2023-04-03T11:00:00Z", "2023-04-03T11:00:00Z", "2023-04-03T11:00:00Z", "2023-04-03T11:00:00Z", "2023-04-03T11:00:00Z", "2023-04-03T11:00:00Z", "2023-04-03T11:00:00Z", "2023-04-03T11:00:00Z", "2023-04-03T11:00:00Z", "2023-04-03T11:00:00Z", "2023-04-03T11:00:00Z", "2023-04-03T11:00:00Z", "2023-04-03T11:35:00Z", "2023-04-03T11:00:00Z", "2023-04-03T11:00:00Z", "2023-04-03T11:00:00Z", "2023-04-03T11:00:00Z", "2023-04-03T11:00:00Z", "2023-04-03T11:00:00Z", "2023-04-03T11:00:00Z", "2023-04-03T11:00:00Z", "2023-04-03T11:00:00Z", "2023-04-03T11:00:00Z", "2023-04-03T11:00:00Z", "2023-04-03T11:00:00Z", "2023-04-03T11:00:00Z", "2023-04-03T11:00:00Z", "2023-04-03T11:00:00Z", "2023-04-03T11:00:00Z", "2023-04-03T11:44:00Z", "2023-04-03T11:00:00Z", "2023-04-03T11:00:00Z", "2023-04-03T11:00:00Z", "2023-04-03T11:00:00Z", "2023-04-03T11:00:00Z", "2023-04-03T11:00:00Z", "2023-04-03T11:00:00Z", "2023-04-03T11:00:00Z", "2023-04-03T11:00:00Z", "2023-04-03T11:00:00Z", "2023-04-03T11:00:00Z", "2023-04-03T11:00:00Z", "2023-04-03T11:00:00Z", "2023-04-03T11:45:00Z", "2023-04-03T11:00:00Z", "2023-04-03T11:00:00Z", "2023-04-03T11:00:00Z", "2023-04-03T11:00:00Z", "2023-04-03T11:00:00Z", "2023-04-03T11:00:00Z", "2023-04-03T11:00:00Z", "2023-04-03T11:00:00Z", "2023-04-03T11:00:00Z", "2023-04-03T11:00:00Z", "2023-04-03T11:00:00Z", "2023-04-03T11:00:00Z", "2023-04-03T11:00:00Z", "2023-04-03T11:00:00Z", "2023-04-03T11:00:00Z", "2023-04-03T11:00:00Z", "2023-04-03T11:00:00Z", "2023-04-03T11:00:00Z", "2023-04-03T11:00:00Z", "2023-04-03T11:00:00Z", "2023-04-03T11:00:00Z", "2023-04-03T11:00:00Z", "2023-04-03T11:00:00Z", "2023-04-03T11:00:00Z", "2023-04-03T11:00:00Z", "2023-04-03T11:00:00Z", "2023-04-03T11:00:00Z", "2023-04-03T11:00:00Z", "2023-04-03T11:00:00Z", "2023-04-03T11:00:00Z", "2023-04-03T11:00:00Z", "2023-04-03T11:00:00Z", "2023-04-03T11:00:00Z", "2023-04-03T11:00:00Z", "2023-04-03T11:00:00Z", "2023-04-03T11:00:00Z", "2023-04-03T11:00:00Z", "2023-04-03T11:00:00Z", "2023-04-03T11:00:00Z", "2023-04-03T11:00:00Z", "2023-04-03T11:00:00Z", "2023-04-03T11:00:00Z", "2023-04-03T11:00:00Z", "2023-04-03T11:00:00Z", "2023-04-03T11:00:00Z", "2023-04-03T11:00:00Z", "2023-04-03T11:00:00Z", "2023-04-03T11:00:00Z", "2023-04-03T11:00:00Z", "2023-04-03T11:00:00Z", "2023-04-03T11:00:00Z", "2023-04-03T11:00:00Z", "2023-04-03T11:00:00Z", "2023-04-03T11:00:00Z", "2023-04-03T11:00:00Z", "2023-04-03T11:00:00Z", "2023-04-03T11:00:00Z", "2023-04-03T11:00:00Z", "2023-04-03T11:00:00Z", "2023-04-03T11:00:00Z", "2023-04-03T11:00:00Z", "2023-04-03T11:00:00Z", "2023-04-03T11:00:00Z", "2023-04-03T11:00:00Z", "2023-04-03T11:00:00Z", "2023-04-03T11:00:00Z", "2023-04-03T11:00:00Z", "2023-04-03T11:41:00Z", "2023-04-03T11:00:00Z", "2023-04-03T11:00:00Z", "2023-04-03T11:00:00Z", "2023-04-03T11:00:00Z", "2023-04-03T11:00:00Z", "2023-04-03T11:00:00Z", "2023-04-03T11:00:00Z", "2023-04-03T11:00:00Z", "2023-04-03T11:00:00Z", "2023-04-03T11:00:00Z", "2023-04-03T11:00:00Z", "2023-04-03T11:00:00Z", "2023-04-03T11:00:00Z", "2023-04-03T11:00:00Z", "2023-04-03T11:00:00Z", "2023-04-03T11:00:00Z", "2023-04-03T11:00:00Z", "2023-04-03T11:00:00Z", "2023-04-03T11:00:00Z", "2023-04-03T11:00:00Z", "2023-04-03T11:00:00Z", "2023-04-03T11:00:00Z", "2023-04-03T11:00:00Z", "2023-04-03T11:00:00Z", "2023-04-03T11:00:00Z", "2023-04-03T11:00:00Z", "2023-04-03T11:00:00Z", "2023-04-03T11:00:00Z", "2023-04-03T11:00:00Z", "2023-04-03T11:00:00Z", "2023-04-03T11:00:00Z", "2023-04-03T11:00:00Z", "2023-04-03T11:00:00Z", "2023-04-03T11:00:00Z", "2023-04-03T11:00:00Z", "2023-04-03T11:00:00Z", "2023-04-03T11:00:00Z", "2023-04-03T11:00:00Z", "2023-04-03T11:00:00Z", "2023-04-03T11:00:00Z", "2023-04-03T11:00:00Z", "2023-04-03T11:00:00Z", "2023-04-03T11:00:00Z", "2023-04-03T11:00:00Z", "2023-04-03T11:00:00Z", "2023-04-03T11:00:00Z", "2023-04-03T11:42:00Z", "2023-04-03T11:00:00Z", "2023-04-03T11:00:00Z", "2023-04-03T11:00:00Z", "2023-04-03T11:10:00Z", "2023-04-03T11:00:00Z", "2023-04-03T11:00:00Z", "2023-04-03T11:00:00Z", "2023-04-03T11:49:00Z", "2023-04-03T11:00:00Z", "2023-04-03T11:00:00Z", "2023-04-03T11:00:00Z", "2023-04-03T11:00:00Z", "2023-04-03T11:50:00Z", "2023-04-03T11:00:00Z", "2023-04-03T11:00:00Z", "2023-04-03T11:00:00Z", "2023-04-03T11:00:00Z", "2023-04-03T11:00:00Z", "2023-04-03T11:00:00Z", "2023-04-03T11:00:00Z", "2023-04-03T11:00:00Z", "2023-04-03T11:00:00Z", "2023-04-03T11:00:00Z", "2023-04-03T11:00:00Z", "2023-04-03T11:00:00Z", "2023-04-03T11:27:00Z", "2023-04-03T11:43:00Z", "2023-04-03T11:00:00Z", "2023-04-03T11:00:00Z", "2023-04-03T11:00:00Z", "2023-04-03T11:00:00Z", "2023-04-03T11:00:00Z", "2023-04-03T11:00:00Z", "2023-04-03T11:30:00Z", "2023-04-03T11:00:00Z", "2023-04-03T11:00:00Z", "2023-04-03T11:00:00Z", "2023-04-03T11:00:00Z", "2023-04-03T11:00:00Z", "2023-04-03T11:45:00Z", "2023-04-03T11:00:00Z", "2023-04-03T11:00:00Z", "2023-04-03T11:00:00Z", "2023-04-03T11:41:00Z", "2023-04-03T11:52:00Z", "2023-04-03T11:00:00Z", "2023-04-03T11:00:00Z", "2023-04-03T11:00:00Z", "2023-04-03T11:00:00Z", "2023-04-03T11:00:00Z", "2023-04-03T11:00:00Z", "2023-04-03T11:00:00Z", "2023-04-03T11:00:00Z", "2023-04-03T11:00:00Z", "2023-04-03T11:00:00Z", "2023-04-03T11:00:00Z", "2023-04-03T11:00:00Z", "2023-04-03T11:43:00Z", "2023-04-03T11:00:00Z", "2023-04-03T11:00:00Z", "2023-04-03T11:00:00Z", "2023-04-03T11:00:00Z", "2023-04-03T11:00:00Z", "2023-04-03T11:52:00Z", "2023-04-03T11:00:00Z", "2023-04-03T11:00:00Z", "2023-04-03T11:45:00Z", "2023-04-03T11:00:00Z", "2023-04-03T11:32:00Z", "2023-04-03T11:33:00Z", "2023-04-03T11:48:00Z", "2023-04-03T11:00:00Z", "2023-04-03T11:00:00Z", "2023-04-03T11:38:00Z", "2023-04-03T11:00:00Z", "2023-04-03T11:52:00Z", "2023-04-03T11:00:00Z", "2023-04-03T11:00:00Z", "2023-04-03T11:00:00Z", "2023-04-03T11:00:00Z", "2023-04-03T11:00:00Z", "2023-04-03T11:00:00Z", "2023-04-03T11:00:00Z", "2023-04-03T11:00:00Z", "2023-04-03T11:00:00Z", "2023-04-03T11:00:00Z", "2023-04-03T11:51:00Z", "2023-04-03T11:00:00Z", "2023-04-03T11:00:00Z", "2023-04-03T11:45:00Z", "2023-04-03T11:40:00Z", "2023-04-03T11:34:00Z", "2023-04-03T11:00:00Z", "2023-04-03T11:00:00Z", "2023-04-03T11:53:00Z", "2023-04-03T11:00:00Z", "2023-04-03T11:00:00Z", "2023-04-03T11:00:00Z", "2023-04-03T11:00:00Z", "2023-04-03T11:40:00Z", "2023-04-03T11:00:00Z", "2023-04-03T11:00:00Z", "2023-04-03T11:00:00Z", "2023-04-03T11:00:00Z", "2023-04-03T11:00:00Z", "2023-04-03T11:00:00Z", "2023-04-03T11:00:00Z", "2023-04-03T11:00:00Z", "2023-04-03T11:28:00Z", "2023-04-03T11:00:00Z", "2023-04-03T11:00:00Z", "2023-04-03T11:00:00Z", "2023-04-03T11:00:00Z", "2023-04-03T11:00:00Z", "2023-04-03T11:00:00Z", "2023-04-03T11:00:00Z", "2023-04-03T11:00:00Z", "2023-04-03T11:00:00Z", "2023-04-03T11:00:00Z", "2023-04-03T11:00:00Z", "2023-04-03T11:00:00Z", "2023-04-03T11:00:00Z", "2023-04-03T11:00:00Z", "2023-04-03T11:52:00Z", "2023-04-03T11:00:00Z", "2023-04-03T11:00:00Z", "2023-04-03T11:04:00Z", "2023-04-03T11:00:00Z", "2023-04-03T11:36:00Z", "2023-04-03T11:00:00Z", "2023-04-03T11:00:00Z", "2023-04-03T11:00:00Z", "2023-04-03T11:50:00Z", "2023-04-03T11:00:00Z", "2023-04-03T11:00:00Z", "2023-04-03T11:00:00Z", "2023-04-03T11:46:00Z", "2023-04-03T11:00:00Z", "2023-04-03T11:32:00Z", "2023-04-03T11:04:00Z", "2023-04-03T11:00:00Z", "2023-04-03T11:00:00Z", "2023-04-03T11:00:00Z", "2023-04-03T11:51:00Z", "2023-04-03T11:00:00Z", "2023-04-03T11:00:00Z", "2023-04-03T11:00:00Z", "2023-04-03T11:00:00Z", "2023-04-03T11:00:00Z", "2023-04-03T11:37:00Z", "2023-04-03T11:00:00Z", "2023-04-03T11:00:00Z", "2023-04-03T11:00:00Z", "2023-04-03T11:53:00Z", "2023-04-03T11:00:00Z", "2023-04-03T11:00:00Z", "2023-04-03T11:00:00Z", "2023-04-03T11:00:00Z", "2023-04-03T11:00:00Z", "2023-04-03T11:24:00Z", "2023-04-03T11:49:00Z", "2023-04-03T11:00:00Z", "2023-04-03T11:00:00Z", "2023-04-03T11:00:00Z", "2023-04-03T11:00:00Z", "2023-04-03T11:00:00Z", "2023-04-03T11:00:00Z", "2023-04-03T11:00:00Z", "2023-04-03T11:48:00Z", "2023-04-03T11:00:00Z", "2023-04-03T11:00:00Z", "2023-04-03T11:00:00Z", "2023-04-03T11:00:00Z", "2023-04-03T11:47:00Z", "2023-04-03T11:00:00Z", "2023-04-03T11:00:00Z", "2023-04-03T11:00:00Z", "2023-04-03T11:00:00Z", "2023-04-03T11:28:00Z", "2023-04-03T11:00:00Z", "2023-04-03T11:00:00Z", "2023-04-03T11:00:00Z", "2023-04-03T11:00:00Z", "2023-04-03T11:00:00Z", "2023-04-03T11:00:00Z", "2023-04-03T11:00:00Z", "2023-04-03T11:00:00Z", "2023-04-03T11:00:00Z", "2023-04-03T11:00:00Z", "2023-04-03T11:00:00Z", "2023-04-03T11:00:00Z", "2023-04-03T11:00:00Z", "2023-04-03T11:00:00Z", "2023-04-03T11:00:00Z", "2023-04-03T11:00:00Z", "2023-04-03T11:26:00Z", "2023-04-03T11:00:00Z", "2023-04-03T11:00:00Z", "2023-04-03T11:00:00Z", "2023-04-03T11:00:00Z", "2023-04-03T11:00:00Z", "2023-04-03T11:47:00Z", "2023-04-03T11:00:00Z", "2023-04-03T11:30:00Z", "2023-04-03T11:00:00Z", "2023-04-03T11:30:00Z", "2023-04-03T11:30:00Z", "2023-04-03T11:30:00Z", "2023-04-03T11:00:00Z", "2023-04-03T11:00:00Z", "2023-04-03T11:00:00Z", "2023-04-03T11:30:00Z", "2023-04-03T11:30:00Z", "2023-04-03T11:00:00Z", "2023-04-03T11:00:00Z", "2023-04-03T11:00:00Z", "2023-04-03T11:00:00Z", "2023-04-03T11:00:00Z", "2023-04-03T11:00:00Z", "2023-04-03T11:00:00Z", "2023-04-03T11:00:00Z", "2023-04-03T11:30:00Z", "2023-04-03T11:00:00Z", "2023-04-03T11:00:00Z", "2023-04-03T11:00:00Z", "2023-04-03T11:00:00Z", "2023-04-03T11:00:00Z", "2023-04-03T11:00:00Z", "2023-04-03T11:00:00Z", "2023-04-03T11:00:00Z", "2023-04-03T11:00:00Z", "2023-04-03T11:00:00Z", "2023-04-03T11:00:00Z", "2023-04-03T11:00:00Z", "2023-04-03T11:00:00Z", "2023-04-03T11:00:00Z", "2023-04-03T11:00:00Z", "2023-04-03T11:30:00Z", "2023-04-03T11:30:00Z", "2023-04-03T11:30:00Z", "2023-04-03T11:00:00Z", "2023-04-03T11:00:00Z", "2023-04-03T11:00:00Z", "2023-04-03T11:00:00Z", "2023-04-03T11:30:00Z", "2023-04-03T11:00:00Z", "2023-04-03T11:00:00Z", "2023-04-03T11:00:00Z", "2023-04-03T11:00:00Z", "2023-04-03T11:00:00Z", "2023-04-03T11:00:00Z", "2023-04-03T11:00:00Z", "2023-04-03T11:00:00Z", "2023-04-03T11:20:00Z", "2023-04-03T11:25:00Z", "2023-04-03T11:20:00Z", "2023-04-03T11:20:00Z", "2023-04-03T11:25:00Z", "2023-04-03T11:47:00Z", "2023-04-03T11:25:00Z", "2023-04-03T11:25:00Z", "2023-04-03T11:25:00Z", "2023-04-03T11:20:00Z", "2023-04-03T11:20:00Z", "2023-04-03T11:20:00Z", "2023-04-03T11:20:00Z", "2023-04-03T11:20:00Z", "2023-04-03T11:50:00Z", "2023-04-03T11:50:00Z", "2023-04-03T11:50:00Z", "2023-04-03T11:50:00Z", "2023-04-03T11:50:00Z", "2023-04-03T11:50:00Z", "2023-04-03T11:50:00Z", "2023-04-03T11:50:00Z", "2023-04-03T11:50:00Z", "2023-04-03T11:50:00Z", "2023-04-03T11:50:00Z", "2023-04-03T11:50:00Z", "2023-04-03T11:50:00Z", "2023-04-03T11:50:00Z", "2023-04-03T11:50:00Z", "2023-04-03T11:20:00Z", "2023-04-03T11:20:00Z", "2023-04-03T11:20:00Z", "2023-04-03T11:20:00Z", "2023-04-03T11:20:00Z", "2023-04-03T11:20:00Z", "2023-04-03T11:20:00Z", "2023-04-03T11:20:00Z", "2023-04-03T11:20:00Z", "2023-04-03T11:20:00Z", "2023-04-03T11:20:00Z", "2023-04-03T11:20:00Z", "2023-04-03T11:20:00Z", "2023-04-03T11:20:00Z", "2023-04-03T11:20:00Z", "2023-04-03T11:20:00Z", "2023-04-03T11:20:00Z", "2023-04-03T11:20:00Z", "2023-04-03T11:20:00Z", "2023-04-03T11:20:00Z", "2023-04-03T11:20:00Z", "2023-04-03T11:50:00Z", "2023-04-03T11:50:00Z", "2023-04-03T11:50:00Z", "2023-04-03T11:50:00Z", "2023-04-03T11:50:00Z", "2023-04-03T11:50:00Z", "2023-04-03T11:50:00Z", "2023-04-03T11:50:00Z", "2023-04-03T11:50:00Z", "2023-04-03T11:50:00Z", "2023-04-03T11:50:00Z", "2023-04-03T11:50:00Z", "2023-04-03T11:50:00Z", "2023-04-03T11:50:00Z", "2023-04-03T11:50:00Z", "2023-04-03T11:50:00Z", "2023-04-03T11:50:00Z", "2023-04-03T11:50:00Z", "2023-04-03T11:50:00Z", "2023-04-03T11:50:00Z", "2023-04-03T11:50:00Z", "2023-04-03T11:50:00Z", "2023-04-03T11:50:00Z", "2023-04-03T11:50:00Z", "2023-04-03T11:50:00Z", "2023-04-03T11:50:00Z", "2023-04-03T11:50:00Z", "2023-04-03T11:50:00Z", "2023-04-03T11:50:00Z", "2023-04-03T11:50:00Z", "2023-04-03T11:50:00Z", "2023-04-03T11:50:00Z", "2023-04-03T11:50:00Z", "2023-04-03T11:50:00Z", "2023-04-03T11:50:00Z", "2023-04-03T11:50:00Z", "2023-04-03T11:50:00Z", "2023-04-03T11:20:00Z", "2023-04-03T11:20:00Z", "2023-04-03T11:20:00Z", "2023-04-03T11:50:00Z", "2023-04-03T11:50:00Z", "2023-04-03T11:50:00Z", "2023-04-03T11:50:00Z", "2023-04-03T11:50:00Z", "2023-04-03T11:50:00Z", "2023-04-03T11:50:00Z", "2023-04-03T11:50:00Z", "2023-04-03T11:50:00Z", "2023-04-03T11:50:00Z", "2023-04-03T11:50:00Z", "2023-04-03T11:50:00Z", "2023-04-03T11:50:00Z", "2023-04-03T11:50:00Z", "2023-04-03T11:50:00Z", "2023-04-03T11:50:00Z", "2023-04-03T11:50:00Z", "2023-04-03T11:50:00Z", "2023-04-03T11:50:00Z", "2023-04-03T11:50:00Z", "2023-04-03T11:50:00Z", "2023-04-03T11:50:00Z", "2023-04-03T11:50:00Z", "2023-04-03T11:50:00Z", "2023-04-03T11:50:00Z", "2023-04-03T11:50:00Z", "2023-04-03T11:50:00Z", "2023-04-03T11:50:00Z", "2023-04-03T11:50:00Z", "2023-04-03T11:50:00Z", "2023-04-03T11:50:00Z", "2023-04-03T11:20:00Z", "2023-04-03T11:20:00Z", "2023-04-03T10:50:00Z", "2023-04-03T11:20:00Z", "2023-04-03T11:20:00Z", "2023-04-03T11:50:00Z", "2023-04-03T11:50:00Z", "2023-04-03T11:50:00Z", "2023-04-03T11:50:00Z", "2023-04-03T11:50:00Z", "2023-04-03T11:50:00Z", "2023-04-03T11:50:00Z", "2023-04-03T11:50:00Z", "2023-04-03T11:50:00Z", "2023-04-03T11:50:00Z", "2023-04-03T11:50:00Z", "2023-04-03T11:50:00Z", "2023-04-03T11:20:00Z", "2023-04-03T10:50:00Z", "2023-04-03T11:20:00Z", "2023-04-03T10:50:00Z", "2023-04-03T11:20:00Z", "2023-04-03T11:20:00Z", "2023-04-03T11:50:00Z", "2023-04-03T11:50:00Z", "2023-04-03T11:50:00Z", "2023-04-03T11:50:00Z", "2023-04-03T11:20:00Z", "2023-04-03T11:50:00Z", "2023-04-03T11:50:00Z", "2023-04-03T11:20:00Z", "2023-04-03T10:55:00Z", "2023-04-03T10:55:00Z", "2023-04-03T11:20:00Z", "2023-04-03T11:30:00Z", "2023-04-03T11:20:00Z", "2023-04-03T11:20:00Z", "2023-04-03T11:20:00Z", "2023-04-03T10:50:00Z", "2023-04-03T11:20:00Z", "2023-04-03T11:20:00Z", "2023-04-03T11:20:00Z", "2023-04-03T11:20:00Z", "2023-04-03T11:20:00Z", "2023-04-03T11:20:00Z", "2023-04-03T11:20:00Z", "2023-04-03T11:20:00Z", "2023-04-03T11:20:00Z", "2023-04-03T10:50:00Z", "2023-04-03T11:20:00Z", "2023-04-03T11:20:00Z", "2023-04-03T11:20:00Z", "2023-04-03T11:25:00Z", "2023-04-03T11:25:00Z", "2023-04-03T11:25:00Z", "2023-04-03T11:25:00Z", "2023-04-03T11:25:00Z", "2023-04-03T11:25:00Z", "2023-04-03T11:25:00Z", "2023-04-03T11:25:00Z", "2023-04-03T11:25:00Z", "2023-04-03T11:25:00Z", "2023-04-03T11:25:00Z", "2023-04-03T11:25:00Z", "2023-04-03T11:25:00Z", "2023-04-03T11:25:00Z", "2023-04-03T11:25:00Z", "2023-04-03T11:25:00Z", "2023-04-03T11:25:00Z", "2023-04-03T11:25:00Z", "2023-04-03T11:25:00Z", "2023-04-03T11:25:00Z", "2023-04-03T11:25:00Z", "2023-04-03T11:25:00Z", "2023-04-03T11:25:00Z", "2023-04-03T11:25:00Z", "2023-04-03T11:25:00Z", "2023-04-03T11:30:00Z", "2023-04-03T11:30:00Z", "2023-04-03T11:30:00Z", "2023-04-03T11:30:00Z", "2023-04-03T11:00:00Z", "2023-04-03T11:30:00Z", "2023-04-03T11:30:00Z", "2023-04-03T11:30:00Z", "2023-04-03T11:30:00Z", "2023-04-03T11:50:00Z", "2023-04-03T11:50:00Z", "2023-04-03T11:50:00Z", "2023-04-03T11:50:00Z", "2023-04-03T11:50:00Z", "2023-04-03T11:50:00Z", "2023-04-03T11:50:00Z", "2023-04-03T11:50:00Z", "2023-04-03T11:50:00Z", "2023-04-03T11:54:00Z", "2023-04-03T11:50:00Z", "2023-04-03T11:50:00Z", "2023-04-03T11:50:00Z", "2023-04-03T11:50:00Z", "2023-04-03T11:50:00Z", "2023-04-03T11:20:00Z", "2023-04-03T11:50:00Z", "2023-04-03T11:50:00Z", "2023-04-03T11:20:00Z", "2023-04-03T11:20:00Z", "2023-04-03T11:20:00Z", "2023-04-03T11:50:00Z", "2023-04-03T11:50:00Z", "2023-04-03T11:20:00Z", "2023-04-03T11:20:00Z", "2023-04-03T11:50:00Z", "2023-04-03T11:20:00Z", "2023-04-03T11:50:00Z", "2023-04-03T11:20:00Z", "2023-04-03T11:20:00Z", "2023-04-03T11:20:00Z", "2023-04-03T11:20:00Z", "2023-04-03T11:50:00Z", "2023-04-03T11:50:00Z", "2023-04-03T11:20:00Z", "2023-04-03T11:20:00Z", "2023-04-03T11:20:00Z", "2023-04-03T11:20:00Z", "2023-04-03T11:20:00Z", "2023-04-03T11:20:00Z", "2023-04-03T11:20:00Z", "2023-04-03T11:20:00Z", "2023-04-03T11:20:00Z", "2023-04-03T11:20:00Z", "2023-04-03T11:20:00Z", "2023-04-03T11:20:00Z", "2023-04-03T11:20:00Z", "2023-04-03T11:20:00Z", "2023-04-03T11:20:00Z", "2023-04-03T11:20:00Z", "2023-04-03T11:20:00Z", "2023-04-03T11:20:00Z", "2023-04-03T11:20:00Z", "2023-04-03T11:50:00Z", "2023-04-03T11:20:00Z", "2023-04-03T11:20:00Z", "2023-04-03T11:20:00Z", "2023-04-03T11:20:00Z", "2023-04-03T11:20:00Z", "2023-04-03T11:20:00Z", "2023-04-03T11:50:00Z", "2023-04-03T11:20:00Z", "2023-04-03T11:50:00Z", "2023-04-03T11:50:00Z", "2023-04-03T11:20:00Z", "2023-04-03T11:20:00Z", "2023-04-03T11:20:00Z", "2023-04-03T11:20:00Z", "2023-04-03T11:20:00Z", "2023-04-03T11:20:00Z", "2023-04-03T11:20:00Z", "2023-04-03T11:20:00Z", "2023-04-03T11:20:00Z", "2023-04-03T11:20:00Z", "2023-04-03T11:20:00Z", "2023-04-03T11:50:00Z", "2023-04-03T11:50:00Z", "2023-04-03T11:20:00Z", "2023-04-03T11:20:00Z", "2023-04-03T11:50:00Z", "2023-04-03T11:20:00Z", "2023-04-03T11:20:00Z", "2023-04-03T11:50:00Z", "2023-04-03T11:30:00Z", "2023-04-03T11:30:00Z", "2023-04-03T11:30:00Z", "2023-04-03T11:30:00Z", "2023-04-03T11:30:00Z", "2023-04-03T11:30:00Z", "2023-04-03T11:30:00Z", "2023-04-03T11:30:00Z", "2023-04-03T11:30:00Z", "2023-04-03T11:30:00Z", "2023-04-03T11:30:00Z", "2023-04-03T11:30:00Z", "2023-04-03T11:30:00Z", "2023-04-03T11:30:00Z", "2023-04-03T11:30:00Z", "2023-04-03T11:50:00Z", "2023-04-03T11:50:00Z", "2023-04-03T11:50:00Z", "2023-04-03T11:50:00Z", "2023-04-03T11:50:00Z", "2023-04-03T11:50:00Z", "2023-04-03T11:50:00Z", "2023-04-03T11:50:00Z", "2023-04-03T11:50:00Z", "2023-04-03T11:20:00Z", "2023-04-03T11:50:00Z", "2023-04-03T11:50:00Z", "2023-04-03T11:50:00Z", "2023-04-03T11:50:00Z", "2023-04-03T11:50:00Z", "2023-04-03T11:50:00Z", "2023-04-03T11:50:00Z", "2023-04-03T11:20:00Z", "2023-04-03T11:50:00Z", "2023-04-03T11:50:00Z", "2023-04-03T11:20:00Z", "2023-04-03T11:50:00Z", "2023-04-03T11:50:00Z", "2023-04-03T11:50:00Z", "2023-04-03T11:50:00Z", "2023-04-03T11:50:00Z", "2023-04-03T11:20:00Z", "2023-04-03T11:20:00Z", "2023-04-03T11:50:00Z", "2023-04-03T11:50:00Z", "2023-04-03T11:50:00Z", "2023-04-03T11:50:00Z", "2023-04-03T11:50:00Z", "2023-04-03T11:50:00Z", "2023-04-03T11:50:00Z", "2023-04-03T11:50:00Z", "2023-04-03T11:50:00Z", "2023-04-03T11:50:00Z", "2023-04-03T11:50:00Z", "2023-04-03T11:50:00Z", "2023-04-03T11:50:00Z", "2023-04-03T11:50:00Z", "2023-04-03T11:50:00Z", "2023-04-03T11:20:00Z", "2023-04-03T11:50:00Z", "2023-04-03T11:25:00Z", "2023-04-03T11:05:00Z", "2023-04-03T10:55:00Z", "2023-04-03T11:20:00Z", "2023-04-03T11:20:00Z", "2023-04-03T11:20:00Z", "2023-04-03T11:20:00Z", "2023-04-03T11:20:00Z", "2023-04-03T11:20:00Z", "2023-04-03T11:20:00Z", "2023-04-03T11:20:00Z", "2023-04-03T10:55:00Z", "2023-04-03T10:55:00Z", "2023-04-03T11:20:00Z", "2023-04-03T11:20:00Z", "2023-04-03T11:50:00Z", "2023-04-03T11:20:00Z", "2023-04-03T11:20:00Z", "2023-04-03T11:20:00Z", "2023-04-03T11:20:00Z", "2023-04-03T11:20:00Z", "2023-04-03T11:20:00Z", "2023-04-03T10:55:00Z", "2023-04-03T11:20:00Z", "2023-04-03T11:20:00Z", "2023-04-03T11:20:00Z", "2023-04-03T11:20:00Z", "2023-04-03T11:20:00Z", "2023-04-03T11:20:00Z", "2023-04-03T11:50:00Z", "2023-04-03T11:50:00Z", "2023-04-03T11:50:00Z", "2023-04-03T11:50:00Z", "2023-04-03T11:50:00Z", "2023-04-03T11:50:00Z", "2023-04-03T11:50:00Z", "2023-04-03T11:50:00Z", "2023-04-03T11:00:00Z", "2023-04-03T11:00:00Z", "2023-04-03T11:00:00Z", "2023-04-03T11:00:00Z", "2023-04-03T11:00:00Z", "2023-04-03T11:00:00Z", "2023-04-03T11:00:00Z", "2023-04-03T11:00:00Z", "2023-04-03T11:00:00Z", "2023-04-03T11:00:00Z", "2023-04-03T11:00:00Z", "2023-04-03T11:00:00Z", "2023-04-03T11:30:00Z", "2023-04-03T11:00:00Z", "2023-04-03T11:00:00Z", "2023-04-03T11:00:00Z", "2023-04-03T11:00:00Z", "2023-04-03T11:40:00Z", "2023-04-03T11:00:00Z", "2023-04-03T11:00:00Z", "2023-04-03T11:00:00Z", "2023-04-03T11:00:00Z", "2023-04-03T11:00:00Z", "2023-04-03T11:00:00Z", "2023-04-03T11:00:00Z", "2023-04-03T11:00:00Z", "2023-04-03T10:50:00Z", "2023-04-03T11:55:00Z", "2023-04-03T11:30:00Z", "2023-04-03T11:30:00Z", "2023-04-03T11:30:00Z", "2023-04-03T11:30:00Z", "2023-04-03T11:00:00Z", "2023-04-03T11:00:00Z", "2023-04-03T11:00:00Z", "2023-04-03T11:00:00Z", "2023-04-03T11:00:00Z", "2023-04-03T11:00:00Z", "2023-04-03T11:00:00Z", "2023-04-03T11:00:00Z", "2023-04-03T11:00:00Z", "2023-04-03T11:00:00Z", "2023-04-03T11:00:00Z", "2023-04-03T11:00:00Z", "2023-04-03T11:30:00Z", "2023-04-03T11:00:00Z", "2023-04-03T11:00:00Z", "2023-04-03T11:00:00Z", "2023-04-03T11:00:00Z", "2023-04-03T11:00:00Z", "2023-04-03T11:00:00Z", "2023-04-03T11:00:00Z", "2023-04-03T11:00:00Z", "2023-04-03T11:00:00Z", "2023-04-03T11:00:00Z", "2023-04-03T11:00:00Z", "2023-04-03T11:00:00Z", "2023-04-03T11:00:00Z", "2023-04-03T11:00:00Z", "2023-04-03T11:00:00Z", "2023-04-03T11:00:00Z", "2023-04-03T11:00:00Z", "2023-04-03T11:00:00Z", "2023-04-03T11:00:00Z", "2023-04-03T11:00:00Z", "2023-04-03T11:00:00Z", "2023-04-03T11:00:00Z", "2023-04-03T11:00:00Z", "2023-04-03T11:00:00Z", "2023-04-03T11:00:00Z", "2023-04-03T11:00:00Z", "2023-04-03T11:30:00Z", "2023-04-03T11:00:00Z", "2023-04-03T11:30:00Z", "2023-04-03T11:30:00Z", "2023-04-03T11:30:00Z", "2023-04-03T11:30:00Z", "2023-04-03T11:30:00Z", "2023-04-03T11:30:00Z", "2023-04-03T11:30:00Z", "2023-04-03T11:30:00Z", "2023-04-03T11:30:00Z", "2023-04-03T11:30:00Z", "2023-04-03T11:00:00Z", "2023-04-03T11:00:00Z", "2023-04-03T11:30:00Z", "2023-04-03T11:30:00Z", "2023-04-03T11:00:00Z", "2023-04-03T11:00:00Z", "2023-04-03T11:00:00Z", "2023-04-03T11:30:00Z", "2023-04-03T11:00:00Z", "2023-04-03T11:00:00Z", "2023-04-03T11:30:00Z", "2023-04-03T11:00:00Z", "2023-04-03T11:00:00Z", "2023-04-03T11:00:00Z", "2023-04-03T11:30:00Z", "2023-04-03T11:00:00Z", "2023-04-03T11:00:00Z", "2023-04-03T11:00:00Z", "2023-04-03T11:30:00Z", "2023-04-03T11:00:00Z", "2023-04-03T11:30:00Z", "2023-04-03T11:00:00Z", "2023-04-03T11:00:00Z", "2023-04-03T11:00:00Z", "2023-04-03T11:30:00Z", "2023-04-03T11:30:00Z", "2023-04-03T11:00:00Z", "2023-04-03T11:30:00Z", "2023-04-03T11:00:00Z", "2023-04-03T11:00:00Z", "2023-04-03T11:00:00Z", "2023-04-03T11:00:00Z", "2023-04-03T11:00:00Z", "2023-04-03T11:00:00Z", "2023-04-03T11:00:00Z", "2023-04-03T11:00:00Z", "2023-04-03T11:00:00Z", "2023-04-03T11:00:00Z", "2023-04-03T11:00:00Z", "2023-04-03T11:00:00Z", "2023-04-03T11:00:00Z", "2023-04-03T11:30:00Z", "2023-04-03T11:00:00Z", "2023-04-03T11:00:00Z", "2023-04-03T11:00:00Z", "2023-04-03T11:00:00Z", "2023-04-03T11:00:00Z", "2023-04-03T11:00:00Z", "2023-04-03T11:00:00Z", "2023-04-03T11:00:00Z", "2023-04-03T11:00:00Z", "2023-04-03T11:00:00Z", "2023-04-03T11:00:00Z", "2023-04-03T11:00:00Z", "2023-04-03T11:00:00Z", "2023-04-03T11:00:00Z", "2023-04-03T11:00:00Z", "2023-04-03T11:00:00Z", "2023-04-03T11:00:00Z", "2023-04-03T11:00:00Z", "2023-04-03T11:00:00Z", "2023-04-03T11:00:00Z", "2023-04-03T11:00:00Z", "2023-04-03T11:00:00Z", "2023-04-03T11:00:00Z", "2023-04-03T11:00:00Z", "2023-04-03T11:00:00Z", "2023-04-03T11:00:00Z", "2023-04-03T11:00:00Z", "2023-04-03T11:30:00Z", "2023-04-03T11:00:00Z", "2023-04-03T11:00:00Z", "2023-04-03T11:00:00Z", "2023-04-03T11:00:00Z", "2023-04-03T11:00:00Z", "2023-04-03T11:00:00Z", "2023-04-03T11:30:00Z", "2023-04-03T11:00:00Z", "2023-04-03T11:00:00Z", "2023-04-03T11:00:00Z", "2023-04-03T11:00:00Z", "2023-04-03T11:00:00Z", "2023-04-03T11:00:00Z", "2023-04-03T11:00:00Z", "2023-04-03T11:00:00Z", "2023-04-03T11:00:00Z", "2023-04-03T11:00:00Z", "2023-04-03T11:00:00Z", "2023-04-03T11:00:00Z", "2023-04-03T11:00:00Z", "2023-04-03T11:00:00Z", "2023-04-03T11:00:00Z", "2023-04-03T11:00:00Z", "2023-04-03T11:00:00Z", "2023-04-03T11:29:00Z", "2023-04-03T11:35:00Z", "2023-04-03T11:35:00Z", "2023-04-03T11:35:00Z", "2023-04-03T11:35:00Z", "2023-04-03T11:35:00Z", "2023-04-03T11:35:00Z", "2023-04-03T11:35:00Z", "2023-04-03T11:35:00Z", "2023-04-03T11:35:00Z", "2023-04-03T11:13:00Z", "2023-04-03T11:35:00Z", "2023-04-03T11:35:00Z", "2023-04-03T11:35:00Z", "2023-04-03T11:55:00Z", "2023-04-03T11:35:00Z", "2023-04-03T11:35:00Z", "2023-04-03T10:54:00Z", "2023-04-03T11:35:00Z", "2023-04-03T11:35:00Z", "2023-04-03T11:35:00Z", "2023-04-03T11:35:00Z", "2023-04-03T11:35:00Z", "2023-04-03T11:35:00Z", "2023-04-03T11:35:00Z", "2023-04-03T11:55:00Z", "2023-04-03T11:35:00Z", "2023-04-03T11:35:00Z", "2023-04-03T10:55:00Z", "2023-04-03T10:55:00Z", "2023-04-03T10:55:00Z", "2023-04-03T10:55:00Z", "2023-04-03T10:55:00Z", "2023-04-03T11:15:00Z", "2023-04-03T10:55:00Z", "2023-04-03T11:35:00Z", "2023-04-03T10:55:00Z", "2023-04-03T11:22:00Z", "2023-04-03T10:55:00Z", "2023-04-03T10:55:00Z", "2023-04-03T11:47:00Z", "2023-04-03T10:55:00Z", "2023-04-03T11:35:00Z", "2023-04-03T10:55:00Z", "2023-04-03T10:55:00Z", "2023-04-03T11:35:00Z", "2023-04-03T10:55:00Z", "2023-04-03T11:46:00Z", "2023-04-03T10:55:00Z", "2023-04-03T10:55:00Z", "2023-04-03T10:55:00Z", "2023-04-03T10:55:00Z", "2023-04-03T10:55:00Z", "2023-04-03T11:20:00Z", "2023-04-03T10:55:00Z", "2023-04-03T10:55:00Z", "2023-04-03T10:55:00Z", "2023-04-03T10:55:00Z", "2023-04-03T10:55:00Z", "2023-04-03T11:35:00Z", "2023-04-03T10:55:00Z", "2023-04-03T10:55:00Z", "2023-04-03T10:55:00Z", "2023-04-03T10:55:00Z", "2023-04-03T10:55:00Z", "2023-04-03T11:39:00Z", "2023-04-03T10:55:00Z", "2023-04-03T11:55:00Z", "2023-04-03T11:35:00Z", "2023-04-03T11:35:00Z", "2023-04-03T11:45:00Z", "2023-04-03T11:55:00Z", "2023-04-03T11:35:00Z", "2023-04-03T10:54:00Z", "2023-04-03T11:35:00Z", "2023-04-03T11:40:00Z", "2023-04-03T11:35:00Z", "2023-04-03T11:35:00Z", "2023-04-03T11:35:00Z", "2023-04-03T11:35:00Z", "2023-04-03T11:45:00Z", "2023-04-03T11:35:00Z", "2023-04-03T11:55:00Z", "2023-04-03T11:35:00Z", "2023-04-03T11:55:00Z", "2023-04-03T11:35:00Z", "2023-04-03T10:55:00Z", "2023-04-03T11:35:00Z", "2023-04-03T11:45:00Z", "2023-04-03T11:35:00Z", "2023-04-03T11:35:00Z", "2023-04-03T11:35:00Z", "2023-04-03T11:35:00Z", "2023-04-03T11:35:00Z", "2023-04-03T11:55:00Z", "2023-04-03T11:35:00Z", "2023-04-03T11:35:00Z", "2023-04-03T11:35:00Z", "2023-04-03T11:35:00Z", "2023-04-03T11:39:00Z", "2023-04-03T11:49:00Z", "2023-04-03T10:56:00Z", "2023-04-03T11:35:00Z", "2023-04-03T11:35:00Z", "2023-04-03T11:35:00Z", "2023-04-03T11:35:00Z", "2023-04-03T11:45:00Z", "2023-04-03T11:35:00Z", "2023-04-03T11:35:00Z", "2023-04-03T11:35:00Z", "2023-04-03T11:35:00Z", "2023-04-03T11:35:00Z", "2023-04-03T11:35:00Z", "2023-04-03T11:55:00Z", "2023-04-03T11:35:00Z", "2023-04-03T11:35:00Z", "2023-04-03T11:45:00Z", "2023-04-03T11:16:00Z", "2023-04-03T11:35:00Z", "2023-04-03T11:35:00Z", "2023-04-03T11:35:00Z", "2023-04-03T11:35:00Z", "2023-04-03T11:35:00Z", "2023-04-03T11:35:00Z", "2023-04-03T11:35:00Z", "2023-04-03T11:35:00Z", "2023-04-03T11:35:00Z", "2023-04-03T11:35:00Z", "2023-04-03T11:35:00Z", "2023-04-03T11:35:00Z", "2023-04-03T10:55:00Z", "2023-04-03T11:35:00Z", "2023-04-03T11:35:00Z", "2023-04-03T11:35:00Z", "2023-04-03T11:35:00Z", "2023-04-03T11:40:00Z", "2023-04-03T11:35:00Z", "2023-04-03T11:35:00Z", "2023-04-03T11:35:00Z", "2023-04-03T11:35:00Z", "2023-04-03T11:35:00Z", "2023-04-03T11:35:00Z", "2023-04-03T11:35:00Z", "2023-04-03T11:35:00Z", "2023-04-03T11:35:00Z", "2023-04-03T11:35:00Z", "2023-04-03T11:35:00Z", "2023-04-03T11:35:00Z", "2023-04-03T11:35:00Z", "2023-04-03T11:35:00Z", "2023-04-03T11:35:00Z", "2023-04-03T11:35:00Z", "2023-04-03T11:35:00Z", "2023-04-03T11:35:00Z", "2023-04-03T11:35:00Z", "2023-04-03T11:55:00Z", "2023-04-03T11:35:00Z", "2023-04-03T11:51:00Z", "2023-04-03T11:35:00Z", "2023-04-03T11:40:00Z", "2023-04-03T11:35:00Z", "2023-04-03T11:55:00Z", "2023-04-03T11:21:00Z", "2023-04-03T11:35:00Z", "2023-04-03T11:15:00Z", "2023-04-03T11:35:00Z", "2023-04-03T11:50:00Z", "2023-04-03T11:35:00Z", "2023-04-03T11:35:00Z", "2023-04-03T11:40:00Z", "2023-04-03T11:35:00Z", "2023-04-03T11:35:00Z", "2023-04-03T11:35:00Z", "2023-04-03T10:56:00Z", "2023-04-03T11:35:00Z", "2023-04-03T11:55:00Z", "2023-04-03T11:35:00Z", "2023-04-03T11:35:00Z", "2023-04-03T11:35:00Z", "2023-04-03T11:10:00Z", "2023-04-03T11:35:00Z", "2023-04-03T11:35:00Z", "2023-04-03T11:35:00Z", "2023-04-03T11:35:00Z", "2023-04-03T10:53:00Z", "2023-04-03T10:54:00Z", "2023-04-03T11:35:00Z", "2023-04-03T10:55:00Z", "2023-04-03T11:51:00Z", "2023-04-03T10:55:00Z", "2023-04-03T10:52:00Z", "2023-04-03T10:52:00Z", "2023-04-03T10:53:00Z", "2023-04-03T10:53:00Z", "2023-04-03T11:35:00Z", "2023-04-03T11:35:00Z", "2023-04-03T10:53:00Z", "2023-04-03T11:35:00Z", "2023-04-03T11:35:00Z", "2023-04-03T11:51:00Z", "2023-04-03T11:37:00Z", "2023-04-03T10:54:00Z", "2023-04-03T11:45:00Z", "2023-04-03T11:37:00Z", "2023-04-03T10:56:00Z", "2023-04-03T10:53:00Z", "2023-04-03T11:30:00Z", "2023-04-03T11:50:00Z", "2023-04-03T11:47:00Z", "2023-04-03T11:35:00Z", "2023-04-03T11:35:00Z", "2023-04-03T10:55:00Z", "2023-04-03T11:35:00Z", "2023-04-03T11:35:00Z", "2023-04-03T11:35:00Z", "2023-04-03T10:53:00Z", "2023-04-03T10:55:00Z", "2023-04-03T10:56:00Z", "2023-04-03T11:35:00Z", "2023-04-03T10:52:00Z", "2023-04-03T11:30:00Z", "2023-04-03T11:49:00Z", "2023-04-03T10:53:00Z", "2023-04-03T10:53:00Z", "2023-04-03T11:35:00Z", "2023-04-03T11:35:00Z", "2023-04-03T10:53:00Z", "2023-04-03T11:51:00Z", "2023-04-03T11:35:00Z", "2023-04-03T10:53:00Z", "2023-04-03T11:35:00Z", "2023-04-03T11:35:00Z", "2023-04-03T11:35:00Z", "2023-04-03T11:35:00Z", "2023-04-03T11:35:00Z", "2023-04-03T10:56:00Z", "2023-04-03T11:35:00Z", "2023-04-03T11:35:00Z", "2023-04-03T11:35:00Z", "2023-04-03T10:54:00Z", "2023-04-03T10:53:00Z", "2023-04-03T10:54:00Z", "2023-04-03T10:54:00Z", "2023-04-03T11:51:00Z", "2023-04-03T11:37:00Z", "2023-04-03T10:56:00Z", "2023-04-03T11:35:00Z", "2023-04-03T11:50:00Z", "2023-04-03T10:54:00Z", "2023-04-03T10:52:00Z", "2023-04-03T11:29:00Z", "2023-04-03T10:53:00Z", "2023-04-03T10:53:00Z", "2023-04-03T11:35:00Z", "2023-04-03T10:53:00Z", "2023-04-03T10:53:00Z", "2023-04-03T10:56:00Z", "2023-04-03T11:35:00Z", "2023-04-03T10:55:00Z", "2023-04-03T11:30:00Z", "2023-04-03T11:35:00Z", "2023-04-03T11:35:00Z", "2023-04-03T10:53:00Z", "2023-04-03T10:53:00Z", "2023-04-03T10:53:00Z", "2023-04-03T10:54:00Z", "2023-04-03T10:53:00Z", "2023-04-03T10:55:00Z", "2023-04-03T10:54:00Z", "2023-04-03T11:38:00Z", "2023-04-03T11:35:00Z", "2023-04-03T11:35:00Z", "2023-04-03T11:33:00Z", "2023-04-03T11:14:00Z", "2023-04-03T11:52:00Z", "2023-04-03T11:35:00Z", "2023-04-03T11:03:00Z", "2023-04-03T10:53:00Z", "2023-04-03T11:08:00Z", "2023-04-03T11:35:00Z", "2023-04-03T10:52:00Z", "2023-04-03T10:56:00Z", "2023-04-03T11:35:00Z", "2023-04-03T11:35:00Z", "2023-04-03T11:40:00Z", "2023-04-03T10:53:00Z", "2023-04-03T11:48:00Z", "2023-04-03T10:56:00Z", "2023-04-03T11:45:00Z", "2023-04-03T11:35:00Z", "2023-04-03T11:35:00Z", "2023-04-03T11:33:00Z", "2023-04-03T11:35:00Z", "2023-04-03T10:53:00Z", "2023-04-03T11:35:00Z", "2023-04-03T10:52:00Z", "2023-04-03T11:35:00Z", "2023-04-03T11:35:00Z", "2023-04-03T11:25:00Z", "2023-04-03T11:45:00Z", "2023-04-03T10:53:00Z", "2023-04-03T10:53:00Z", "2023-04-03T11:35:00Z", "2023-04-03T11:37:00Z", "2023-04-03T11:35:00Z", "2023-04-03T10:53:00Z", "2023-04-03T10:53:00Z", "2023-04-03T10:54:00Z", "2023-04-03T11:35:00Z", "2023-04-03T11:40:00Z", "2023-04-03T10:54:00Z", "2023-04-03T10:54:00Z", "2023-04-03T11:35:00Z", "2023-04-03T11:51:00Z", "2023-04-03T11:35:00Z", "2023-04-03T10:53:00Z", "2023-04-03T10:56:00Z", "2023-04-03T11:35:00Z", "2023-04-03T11:35:00Z", "2023-04-03T11:49:00Z", "2023-04-03T11:35:00Z", "2023-04-03T11:35:00Z", "2023-04-03T11:35:00Z", "2023-04-03T11:35:00Z", "2023-04-03T11:35:00Z", "2023-04-03T11:35:00Z", "2023-04-03T10:53:00Z", "2023-04-03T10:55:00Z", "2023-04-03T11:35:00Z", "2023-04-03T11:37:00Z", "2023-04-03T10:53:00Z", "2023-04-03T11:50:00Z", "2023-04-03T11:35:00Z", "2023-04-03T11:52:00Z", "2023-04-03T11:35:00Z", "2023-04-03T11:51:00Z", "2023-04-03T11:35:00Z", "2023-04-03T11:35:00Z", "2023-04-03T11:48:00Z", "2023-04-03T11:35:00Z", "2023-04-03T10:53:00Z", "2023-04-03T11:35:00Z", "2023-04-03T10:53:00Z", "2023-04-03T11:35:00Z", "2023-04-03T11:24:00Z", "2023-04-03T10:53:00Z", "2023-04-03T11:45:00Z", "2023-04-03T11:35:00Z", "2023-04-03T11:35:00Z", "2023-04-03T11:51:00Z", "2023-04-03T11:35:00Z", "2023-04-03T10:52:00Z", "2023-04-03T11:35:00Z", "2023-04-03T11:55:00Z", "2023-04-03T11:35:00Z", "2023-04-03T11:51:00Z", "2023-04-03T10:53:00Z", "2023-04-03T10:53:00Z", "2023-04-03T10:53:00Z", "2023-04-03T10:53:00Z", "2023-04-03T10:54:00Z", "2023-04-03T11:26:00Z", "2023-04-03T11:35:00Z", "2023-04-03T11:51:00Z", "2023-04-03T11:35:00Z", "2023-04-03T11:35:00Z", "2023-04-03T10:53:00Z", "2023-04-03T10:53:00Z", "2023-04-03T10:56:00Z", "2023-04-03T11:35:00Z", "2023-04-03T11:51:00Z", "2023-04-03T10:53:00Z", "2023-04-03T10:56:00Z", "2023-04-03T11:35:00Z", "2023-04-03T10:55:00Z", "2023-04-03T10:56:00Z", "2023-04-03T10:53:00Z", "2023-04-03T10:52:00Z", "2023-04-03T10:53:00Z", "2023-04-03T10:55:00Z", "2023-04-03T11:45:00Z", "2023-04-03T11:35:00Z", "2023-04-03T11:48:00Z", "2023-04-03T11:35:00Z", "2023-04-03T10:53:00Z", "2023-04-03T10:58:00Z", "2023-04-03T10:53:00Z", "2023-04-03T11:35:00Z", "2023-04-03T11:35:00Z", "2023-04-03T11:35:00Z", "2023-04-03T11:24:00Z", "2023-04-03T11:51:00Z", "2023-04-03T10:56:00Z", "2023-04-03T10:52:00Z", "2023-04-03T10:53:00Z", "2023-04-03T10:56:00Z", "2023-04-03T11:26:00Z", "2023-04-03T11:47:00Z", "2023-04-03T11:35:00Z", "2023-04-03T10:53:00Z", "2023-04-03T10:56:00Z", "2023-04-03T10:52:00Z", "2023-04-03T10:53:00Z", "2023-04-03T11:35:00Z", "2023-04-03T10:53:00Z", "2023-04-03T11:35:00Z", "2023-04-03T10:53:00Z", "2023-04-03T11:35:00Z", "2023-04-03T10:53:00Z", "2023-04-03T11:28:00Z", "2023-04-03T10:54:00Z", "2023-04-03T11:35:00Z", "2023-04-03T11:35:00Z", "2023-04-03T11:35:00Z", "2023-04-03T11:49:00Z", "2023-04-03T11:10:00Z", "2023-04-03T10:53:00Z", "2023-04-03T11:35:00Z", "2023-04-03T11:35:00Z", "2023-04-03T11:35:00Z", "2023-04-03T11:21:00Z", "2023-04-03T11:35:00Z", "2023-04-03T10:53:00Z", "2023-04-03T10:53:00Z", "2023-04-03T11:35:00Z", "2023-04-03T11:35:00Z", "2023-04-03T10:53:00Z", "2023-04-03T10:53:00Z", "2023-04-03T11:35:00Z", "2023-04-03T10:56:00Z", "2023-04-03T10:53:00Z", "2023-04-03T10:54:00Z", "2023-04-03T10:54:00Z", "2023-04-03T11:15:00Z", "2023-04-03T11:35:00Z", "2023-04-03T10:54:00Z", "2023-04-03T11:47:00Z", "2023-04-03T11:35:00Z", "2023-04-03T10:53:00Z", "2023-04-03T11:35:00Z", "2023-04-03T11:35:00Z", "2023-04-03T10:56:00Z", "2023-04-03T10:53:00Z", "2023-04-03T11:35:00Z", "2023-04-03T10:53:00Z", "2023-04-03T10:54:00Z", "2023-04-03T11:35:00Z", "2023-04-03T11:35:00Z", "2023-04-03T11:35:00Z", "2023-04-03T11:35:00Z", "2023-04-03T10:53:00Z", "2023-04-03T11:43:00Z", "2023-04-03T11:35:00Z", "2023-04-03T10:55:00Z", "2023-04-03T11:35:00Z", "2023-04-03T10:56:00Z", "2023-04-03T11:35:00Z", "2023-04-03T11:35:00Z", "2023-04-03T11:35:00Z", "2023-04-03T11:35:00Z", "2023-04-03T11:35:00Z", "2023-04-03T11:35:00Z", "2023-04-03T11:35:00Z", "2023-04-03T11:35:00Z", "2023-04-03T11:35:00Z", "2023-04-03T10:56:00Z", "2023-04-03T10:53:00Z", "2023-04-03T11:51:00Z", "2023-04-03T10:55:00Z", "2023-04-03T10:54:00Z", "2023-04-03T11:35:00Z", "2023-04-03T11:45:00Z", "2023-04-03T11:35:00Z", "2023-04-03T11:35:00Z", "2023-04-03T11:13:00Z", "2023-04-03T11:35:00Z", "2023-04-03T11:35:00Z", "2023-04-03T11:35:00Z", "2023-04-03T10:53:00Z", "2023-04-03T11:35:00Z", "2023-04-03T11:35:00Z", "2023-04-03T11:35:00Z", "2023-04-03T10:53:00Z", "2023-04-03T11:35:00Z", "2023-04-03T11:55:00Z", "2023-04-03T11:35:00Z", "2023-04-03T11:51:00Z", "2023-04-03T11:35:00Z", "2023-04-03T11:44:00Z", "2023-04-03T10:53:00Z", "2023-04-03T10:53:00Z", "2023-04-03T11:39:00Z", "2023-04-03T10:55:00Z", "2023-04-03T10:54:00Z", "2023-04-03T11:28:00Z", "2023-04-03T11:35:00Z", "2023-04-03T10:53:00Z", "2023-04-03T11:35:00Z", "2023-04-03T11:35:00Z", "2023-04-03T11:35:00Z", "2023-04-03T11:35:00Z", "2023-04-03T11:35:00Z", "2023-04-03T11:26:00Z", "2023-04-03T11:35:00Z", "2023-04-03T11:45:00Z", "2023-04-03T10:45:00Z", "2023-04-03T10:53:00Z", "2023-04-03T11:50:00Z", "2023-04-03T10:56:00Z", "2023-04-03T10:53:00Z", "2023-04-03T11:35:00Z", "2023-04-03T10:53:00Z", "2023-04-03T10:56:00Z", "2023-04-03T11:35:00Z", "2023-04-03T10:52:00Z", "2023-04-03T11:35:00Z", "2023-04-03T11:35:00Z", "2023-04-03T10:56:00Z", "2023-04-03T11:35:00Z", "2023-04-03T10:53:00Z", "2023-04-03T11:37:00Z", "2023-04-03T11:35:00Z", "2023-04-03T11:35:00Z", "2023-04-03T11:35:00Z", "2023-04-03T11:35:00Z", "2023-04-03T11:35:00Z", "2023-04-03T10:52:00Z", "2023-04-03T11:35:00Z", "2023-04-03T11:51:00Z", "2023-04-03T11:35:00Z", "2023-04-03T11:55:00Z", "2023-04-03T10:53:00Z", "2023-04-03T10:53:00Z", "2023-04-03T11:35:00Z", "2023-04-03T10:52:00Z", "2023-04-03T11:35:00Z", "2023-04-03T10:55:00Z", "2023-04-03T11:35:00Z", "2023-04-03T11:51:00Z", "2023-04-03T10:53:00Z", "2023-04-03T11:35:00Z", "2023-04-03T10:53:00Z", "2023-04-03T10:55:00Z", "2023-04-03T11:35:00Z", "2023-04-03T11:35:00Z", "2023-04-03T11:35:00Z", "2023-04-03T11:34:00Z", "2023-04-03T10:53:00Z", "2023-04-03T11:00:00Z", "2023-04-03T10:52:00Z", "2023-04-03T11:55:00Z", "2023-04-03T10:53:00Z", "2023-04-03T10:56:00Z", "2023-04-03T10:56:00Z", "2023-04-03T10:55:00Z", "2023-04-03T11:35:00Z", "2023-04-03T11:51:00Z", "2023-04-03T11:35:00Z", "2023-04-03T10:54:00Z", "2023-04-03T10:53:00Z", "2023-04-03T10:54:00Z", "2023-04-03T11:50:00Z", "2023-04-03T11:55:00Z", "2023-04-03T11:55:00Z", "2023-04-03T11:48:00Z", "2023-04-03T11:25:00Z", "2023-04-03T11:35:00Z", "2023-04-03T11:35:00Z", "2023-04-03T11:35:00Z", "2023-04-03T10:53:00Z", "2023-04-03T11:35:00Z", "2023-04-03T11:36:00Z", "2023-04-03T11:47:00Z", "2023-04-03T11:55:00Z", "2023-04-03T11:52:00Z", "2023-04-03T10:53:00Z", "2023-04-03T10:53:00Z", "2023-04-03T11:51:00Z", "2023-04-03T10:53:00Z", "2023-04-03T10:53:00Z", "2023-04-03T10:54:00Z", "2023-04-03T11:35:00Z", "2023-04-03T11:51:00Z", "2023-04-03T11:28:00Z", "2023-04-03T11:35:00Z", "2023-04-03T10:53:00Z", "2023-04-03T10:56:00Z", "2023-04-03T11:35:00Z", "2023-04-03T11:35:00Z", "2023-04-03T11:45:00Z", "2023-04-03T10:53:00Z", "2023-04-03T11:35:00Z", "2023-04-03T11:44:00Z", "2023-04-03T10:53:00Z", "2023-04-03T11:35:00Z", "2023-04-03T10:52:00Z", "2023-04-03T11:35:00Z", "2023-04-03T10:56:00Z", "2023-04-03T10:56:00Z", "2023-04-03T10:55:00Z", "2023-04-03T11:35:00Z", "2023-04-03T11:50:00Z", "2023-04-03T11:35:00Z", "2023-04-03T11:45:00Z", "2023-04-03T10:56:00Z", "2023-04-03T10:55:00Z", "2023-04-03T11:35:00Z", "2023-04-03T11:35:00Z", "2023-04-03T10:53:00Z", "2023-04-03T11:35:00Z", "2023-04-03T11:35:00Z", "2023-04-03T11:35:00Z", "2023-04-03T10:56:00Z", "2023-04-03T11:36:00Z", "2023-04-03T10:53:00Z", "2023-04-03T11:35:00Z", "2023-04-03T10:56:00Z", "2023-04-03T11:35:00Z", "2023-04-03T11:35:00Z", "2023-04-03T11:55:00Z", "2023-04-03T11:35:00Z", "2023-04-03T11:35:00Z", "2023-04-03T11:35:00Z", "2023-04-03T11:35:00Z", "2023-04-03T11:35:00Z", "2023-04-03T10:55:00Z", "2023-04-03T10:53:00Z", "2023-04-03T11:50:00Z", "2023-04-03T10:53:00Z", "2023-04-03T10:53:00Z", "2023-04-03T11:51:00Z", "2023-04-03T10:56:00Z", "2023-04-03T11:10:00Z", "2023-04-03T10:53:00Z", "2023-04-03T10:52:00Z", "2023-04-03T11:35:00Z", "2023-04-03T10:53:00Z", "2023-04-03T11:35:00Z", "2023-04-03T10:52:00Z", "2023-04-03T10:54:00Z", "2023-04-03T10:54:00Z", "2023-04-03T11:30:00Z", "2023-04-03T11:35:00Z", "2023-04-03T10:53:00Z", "2023-04-03T10:53:00Z", "2023-04-03T10:53:00Z", "2023-04-03T10:53:00Z", "2023-04-03T10:53:00Z", "2023-04-03T10:53:00Z", "2023-04-03T11:44:00Z", "2023-04-03T11:45:00Z", "2023-04-03T10:53:00Z", "2023-04-03T10:56:00Z", "2023-04-03T11:05:00Z", "2023-04-03T10:53:00Z", "2023-04-03T11:35:00Z", "2023-04-03T11:35:00Z", "2023-04-03T10:55:00Z", "2023-04-03T10:55:00Z", "2023-04-03T11:35:00Z", "2023-04-03T10:53:00Z", "2023-04-03T11:35:00Z", "2023-04-03T11:35:00Z", "2023-04-03T10:53:00Z", "2023-04-03T11:35:00Z", "2023-04-03T10:55:00Z", "2023-04-03T10:54:00Z", "2023-04-03T10:53:00Z", "2023-04-03T10:53:00Z", "2023-04-03T11:45:00Z", "2023-04-03T11:35:00Z", "2023-04-03T10:53:00Z", "2023-04-03T11:35:00Z", "2023-04-03T11:35:00Z", "2023-04-03T10:55:00Z", "2023-04-03T10:52:00Z", "2023-04-03T11:45:00Z", "2023-04-03T11:35:00Z", "2023-04-03T10:53:00Z", "2023-04-03T11:35:00Z", "2023-04-03T11:35:00Z", "2023-04-03T10:53:00Z", "2023-04-03T10:53:00Z", "2023-04-03T11:40:00Z", "2023-04-03T10:54:00Z", "2023-04-03T10:54:00Z", "2023-04-03T11:35:00Z", "2023-04-03T11:35:00Z", "2023-04-03T11:13:00Z", "2023-04-03T11:41:00Z", "2023-04-03T10:53:00Z", "2023-04-03T10:53:00Z", "2023-04-03T11:35:00Z", "2023-04-03T11:42:00Z", "2023-04-03T11:30:00Z", "2023-04-03T10:56:00Z", "2023-04-03T11:35:00Z", "2023-04-03T10:53:00Z", "2023-04-03T11:35:00Z", "2023-04-03T11:30:00Z", "2023-04-03T10:56:00Z", "2023-04-03T10:52:00Z", "2023-04-03T11:35:00Z", "2023-04-03T11:53:00Z", "2023-04-03T10:53:00Z", "2023-04-03T11:35:00Z", "2023-04-03T10:53:00Z", "2023-04-03T11:35:00Z", "2023-04-03T10:53:00Z", "2023-04-03T11:35:00Z", "2023-04-03T10:54:00Z", "2023-04-03T10:56:00Z", "2023-04-03T10:55:00Z", "2023-04-03T11:35:00Z", "2023-04-03T11:35:00Z", "2023-04-03T11:35:00Z", "2023-04-03T11:35:00Z", "2023-04-03T11:35:00Z", "2023-04-03T11:35:00Z", "2023-04-03T11:35:00Z", "2023-04-03T11:35:00Z", "2023-04-03T11:30:00Z", "2023-04-03T10:56:00Z", "2023-04-03T10:55:00Z", "2023-04-03T10:56:00Z", "2023-04-03T11:35:00Z", "2023-04-03T11:35:00Z", "2023-04-03T11:35:00Z", "2023-04-03T10:54:00Z", "2023-04-03T10:53:00Z", "2023-04-03T11:35:00Z", "2023-04-03T11:35:00Z", "2023-04-03T11:35:00Z", "2023-04-03T11:50:00Z", "2023-04-03T11:35:00Z", "2023-04-03T11:35:00Z", "2023-04-03T11:35:00Z", "2023-04-03T10:55:00Z", "2023-04-03T10:56:00Z", "2023-04-03T10:56:00Z", "2023-04-03T10:53:00Z", "2023-04-03T11:54:00Z", "2023-04-03T11:35:00Z", "2023-04-03T11:35:00Z", "2023-04-03T10:56:00Z", "2023-04-03T11:49:00Z", "2023-04-03T11:35:00Z", "2023-04-03T11:35:00Z", "2023-04-03T11:35:00Z", "2023-04-03T11:55:00Z", "2023-04-03T11:06:00Z", "2023-04-03T11:35:00Z", "2023-04-03T11:35:00Z", "2023-04-03T11:35:00Z", "2023-04-03T11:51:00Z", "2023-04-03T11:45:00Z", "2023-04-03T10:56:00Z", "2023-04-03T11:35:00Z", "2023-04-03T11:35:00Z", "2023-04-03T11:35:00Z", "2023-04-03T11:42:00Z", "2023-04-03T11:35:00Z", "2023-04-03T10:53:00Z", "2023-04-03T10:53:00Z", "2023-04-03T11:35:00Z", "2023-04-03T11:51:00Z", "2023-04-03T11:49:00Z", "2023-04-03T10:56:00Z", "2023-04-03T11:35:00Z", "2023-04-03T10:53:00Z", "2023-04-03T11:35:00Z", "2023-04-03T11:25:00Z", "2023-04-03T11:35:00Z", "2023-04-03T10:56:00Z", "2023-04-03T10:53:00Z", "2023-04-03T11:15:00Z", "2023-04-03T11:35:00Z", "2023-04-03T10:53:00Z", "2023-04-03T11:35:00Z", "2023-04-03T11:44:00Z", "2023-04-03T11:51:00Z", "2023-04-03T11:35:00Z", "2023-04-03T11:35:00Z", "2023-04-03T10:56:00Z", "2023-04-03T11:49:00Z", "2023-04-03T11:50:00Z", "2023-04-03T11:52:00Z", "2023-04-03T11:35:00Z", "2023-04-03T11:40:00Z", "2023-04-03T11:30:00Z", "2023-04-03T10:58:00Z", "2023-04-03T11:42:00Z", "2023-04-03T10:56:00Z", "2023-04-03T10:47:00Z", "2023-04-03T11:43:00Z", "2023-04-03T11:35:00Z", "2023-04-03T10:54:00Z", "2023-04-03T11:44:00Z", "2023-04-03T10:53:00Z", "2023-04-03T10:56:00Z", "2023-04-03T10:54:00Z", "2023-04-03T11:51:00Z", "2023-04-03T11:50:00Z", "2023-04-03T10:53:00Z", "2023-04-03T11:50:00Z", "2023-04-03T10:53:00Z", "2023-04-03T11:35:00Z", "2023-04-03T11:35:00Z", "2023-04-03T11:45:00Z", "2023-04-03T11:35:00Z", "2023-04-03T11:35:00Z", "2023-04-03T11:40:00Z", "2023-04-03T11:35:00Z", "2023-04-03T11:35:00Z", "2023-04-03T11:35:00Z", "2023-04-03T11:35:00Z", "2023-04-03T10:55:00Z", "2023-04-03T10:56:00Z", "2023-04-03T10:53:00Z", "2023-04-03T10:53:00Z", "2023-04-03T10:53:00Z", "2023-04-03T11:18:00Z", "2023-04-03T11:35:00Z", "2023-04-03T10:56:00Z", "2023-04-03T10:53:00Z", "2023-04-03T10:55:00Z", "2023-04-03T11:47:00Z", "2023-04-03T11:30:00Z", "2023-04-03T11:35:00Z", "2023-04-03T10:53:00Z", "2023-04-03T11:35:00Z", "2023-04-03T11:35:00Z", "2023-04-03T10:56:00Z", "2023-04-03T11:50:00Z", "2023-04-03T10:53:00Z", "2023-04-03T11:35:00Z", "2023-04-03T11:35:00Z", "2023-04-03T10:55:00Z", "2023-04-03T10:53:00Z", "2023-04-03T11:35:00Z", "2023-04-03T10:54:00Z", "2023-04-03T11:35:00Z", "2023-04-03T11:35:00Z", "2023-04-03T11:35:00Z", "2023-04-03T11:28:00Z", "2023-04-03T10:55:00Z", "2023-04-03T11:50:00Z", "2023-04-03T10:52:00Z", "2023-04-03T11:35:00Z", "2023-04-03T11:35:00Z", "2023-04-03T11:35:00Z", "2023-04-03T11:35:00Z", "2023-04-03T10:53:00Z", "2023-04-03T10:57:00Z", "2023-04-03T10:53:00Z", "2023-04-03T10:53:00Z", "2023-04-03T10:56:00Z", "2023-04-03T11:35:00Z", "2023-04-03T11:49:00Z", "2023-04-03T11:45:00Z", "2023-04-03T11:35:00Z", "2023-04-03T10:53:00Z", "2023-04-03T10:53:00Z", "2023-04-03T10:53:00Z", "2023-04-03T10:56:00Z", "2023-04-03T10:53:00Z", "2023-04-03T11:35:00Z", "2023-04-03T10:56:00Z", "2023-04-03T11:20:00Z", "2023-04-03T10:53:00Z", "2023-04-03T11:53:00Z", "2023-04-03T11:35:00Z", "2023-04-03T11:36:00Z", "2023-04-03T11:35:00Z", "2023-04-03T11:50:00Z", "2023-04-03T10:53:00Z", "2023-04-03T11:35:00Z", "2023-04-03T10:55:00Z", "2023-04-03T10:56:00Z", "2023-04-03T11:55:00Z", "2023-04-03T10:56:00Z", "2023-04-03T11:35:00Z", "2023-04-03T11:47:00Z", "2023-04-03T11:35:00Z", "2023-04-03T10:53:00Z", "2023-04-03T11:35:00Z", "2023-04-03T10:53:00Z", "2023-04-03T11:35:00Z", "2023-04-03T11:14:00Z", "2023-04-03T11:35:00Z", "2023-04-03T10:53:00Z", "2023-04-03T10:53:00Z", "2023-04-03T11:36:00Z", "2023-04-03T10:53:00Z", "2023-04-03T11:35:00Z", "2023-04-03T10:54:00Z", "2023-04-03T11:35:00Z", "2023-04-03T11:35:00Z", "2023-04-03T10:53:00Z", "2023-04-03T11:49:00Z", "2023-04-03T10:53:00Z", "2023-04-03T11:35:00Z", "2023-04-03T11:30:00Z", "2023-04-03T11:35:00Z", "2023-04-03T11:35:00Z", "2023-04-03T11:35:00Z", "2023-04-03T10:53:00Z", "2023-04-03T11:35:00Z", "2023-04-03T10:54:00Z", "2023-04-03T11:55:00Z", "2023-04-03T10:53:00Z", "2023-04-03T10:56:00Z", "2023-04-03T11:35:00Z", "2023-04-03T10:56:00Z", "2023-04-03T11:35:00Z", "2023-04-03T10:53:00Z", "2023-04-03T11:35:00Z", "2023-04-03T10:54:00Z", "2023-04-03T11:35:00Z", "2023-04-03T10:54:00Z", "2023-04-03T11:35:00Z", "2023-04-03T11:35:00Z", "2023-04-03T11:35:00Z", "2023-04-03T11:35:00Z", "2023-04-03T10:56:00Z", "2023-04-03T10:54:00Z", "2023-04-03T11:28:00Z", "2023-04-03T11:50:00Z", "2023-04-03T10:53:00Z", "2023-04-03T10:53:00Z", "2023-04-03T10:55:00Z", "2023-04-03T10:53:00Z", "2023-04-03T10:53:00Z", "2023-04-03T11:35:00Z", "2023-04-03T11:35:00Z", "2023-04-03T10:53:00Z", "2023-04-03T11:35:00Z", "2023-04-03T11:35:00Z", "2023-04-03T10:53:00Z", "2023-04-03T11:35:00Z", "2023-04-03T11:35:00Z", "2023-04-03T11:35:00Z", "2023-04-03T10:53:00Z", "2023-04-03T10:53:00Z", "2023-04-03T10:53:00Z", "2023-04-03T11:35:00Z", "2023-04-03T10:53:00Z", "2023-04-03T10:53:00Z", "2023-04-03T11:15:00Z", "2023-04-03T11:02:00Z", "2023-04-03T10:53:00Z", "2023-04-03T11:07:00Z", "2023-04-03T11:35:00Z", "2023-04-03T11:35:00Z", "2023-04-03T10:53:00Z", "2023-04-03T10:56:00Z", "2023-04-03T11:35:00Z", "2023-04-03T11:30:00Z", "2023-04-03T11:40:00Z", "2023-04-03T10:56:00Z", "2023-04-03T11:35:00Z", "2023-04-03T10:53:00Z", "2023-04-03T10:56:00Z", "2023-04-03T11:35:00Z", "2023-04-03T11:35:00Z", "2023-04-03T10:55:00Z", "2023-04-03T11:35:00Z", "2023-04-03T11:35:00Z", "2023-04-03T10:55:00Z", "2023-04-03T11:50:00Z", "2023-04-03T10:53:00Z", "2023-04-03T11:47:00Z", "2023-04-03T10:53:00Z", "2023-04-03T10:56:00Z", "2023-04-03T11:35:00Z", "2023-04-03T10:53:00Z", "2023-04-03T10:55:00Z", "2023-04-03T11:35:00Z", "2023-04-03T10:53:00Z", "2023-04-03T11:35:00Z", "2023-04-03T10:55:00Z", "2023-04-03T10:53:00Z", "2023-04-03T10:54:00Z", "2023-04-03T10:53:00Z", "2023-04-03T10:55:00Z", "2023-04-03T10:53:00Z", "2023-04-03T10:56:00Z", "2023-04-03T10:56:00Z", "2023-04-03T10:56:00Z", "2023-04-03T11:40:00Z", "2023-04-03T10:53:00Z", "2023-04-03T11:50:00Z", "2023-04-03T10:55:00Z", "2023-04-03T10:53:00Z", "2023-04-03T11:35:00Z", "2023-04-03T10:53:00Z", "2023-04-03T10:56:00Z", "2023-04-03T11:35:00Z", "2023-04-03T11:35:00Z", "2023-04-03T11:35:00Z", "2023-04-03T10:53:00Z", "2023-04-03T11:35:00Z", "2023-04-03T11:55:00Z", "2023-04-03T10:55:00Z", "2023-04-03T10:55:00Z", "2023-04-03T10:56:00Z", "2023-04-03T11:35:00Z", "2023-04-03T11:35:00Z", "2023-04-03T11:47:00Z", "2023-04-03T11:15:00Z", "2023-04-03T11:35:00Z", "2023-04-03T11:45:00Z", "2023-04-03T10:59:00Z", "2023-04-03T11:35:00Z", "2023-04-03T11:20:00Z", "2023-04-03T11:35:00Z", "2023-04-03T11:35:00Z", "2023-04-03T11:55:00Z", "2023-04-03T11:35:00Z", "2023-04-03T11:35:00Z", "2023-04-03T10:53:00Z", "2023-04-03T11:04:00Z", "2023-04-03T11:45:00Z", "2023-04-03T11:40:00Z", "2023-04-03T11:35:00Z", "2023-04-03T11:35:00Z", "2023-04-03T11:35:00Z", "2023-04-03T11:35:00Z", "2023-04-03T11:35:00Z", "2023-04-03T11:35:00Z", "2023-04-03T11:35:00Z", "2023-04-03T10:56:00Z", "2023-04-03T11:51:00Z", "2023-04-03T10:56:00Z", "2023-04-03T11:35:00Z", "2023-04-03T10:53:00Z", "2023-04-03T11:35:00Z", "2023-04-03T11:31:00Z", "2023-04-03T10:56:00Z", "2023-04-03T10:53:00Z", "2023-04-03T11:32:00Z", "2023-04-03T11:35:00Z", "2023-04-03T11:55:00Z", "2023-04-03T10:53:00Z", "2023-04-03T11:35:00Z", "2023-04-03T11:35:00Z", "2023-04-03T10:53:00Z", "2023-04-03T11:17:00Z", "2023-04-03T10:53:00Z", "2023-04-03T10:52:00Z", "2023-04-03T11:22:00Z", "2023-04-03T11:35:00Z", "2023-04-03T10:53:00Z", "2023-04-03T11:35:00Z", "2023-04-03T10:53:00Z", "2023-04-03T11:21:00Z", "2023-04-03T10:53:00Z", "2023-04-03T10:53:00Z", "2023-04-03T11:35:00Z", "2023-04-03T10:53:00Z", "2023-04-03T10:53:00Z", "2023-04-03T10:53:00Z", "2023-04-03T11:14:00Z", "2023-04-03T11:35:00Z", "2023-04-03T10:55:00Z", "2023-04-03T11:35:00Z", "2023-04-03T11:35:00Z", "2023-04-03T11:35:00Z", "2023-04-03T11:11:00Z", "2023-04-03T10:56:00Z", "2023-04-03T11:35:00Z", "2023-04-03T11:55:00Z", "2023-04-03T11:50:00Z", "2023-04-03T11:35:00Z", "2023-04-03T10:55:00Z", "2023-04-03T11:04:00Z", "2023-04-03T11:17:00Z", "2023-04-03T10:53:00Z", "2023-04-03T10:56:00Z", "2023-04-03T11:35:00Z", "2023-04-03T11:35:00Z", "2023-04-03T11:35:00Z", "2023-04-03T10:53:00Z", "2023-04-03T11:35:00Z", "2023-04-03T11:35:00Z", "2023-04-03T11:45:00Z", "2023-04-03T10:53:00Z", "2023-04-03T11:45:00Z", "2023-04-03T11:45:00Z", "2023-04-03T10:53:00Z", "2023-04-03T11:02:00Z", "2023-04-03T11:35:00Z", "2023-04-03T11:35:00Z", "2023-04-03T11:35:00Z", "2023-04-03T11:51:00Z", "2023-04-03T11:30:00Z", "2023-04-03T10:53:00Z", "2023-04-03T11:35:00Z", "2023-04-03T10:55:00Z", "2023-04-03T10:53:00Z", "2023-04-03T11:35:00Z", "2023-04-03T10:53:00Z", "2023-04-03T11:51:00Z", "2023-04-03T11:34:00Z", "2023-04-03T10:53:00Z", "2023-04-03T10:53:00Z", "2023-04-03T11:47:00Z", "2023-04-03T11:25:00Z", "2023-04-03T11:35:00Z", "2023-04-03T10:53:00Z", "2023-04-03T10:53:00Z", "2023-04-03T11:35:00Z", "2023-04-03T10:54:00Z", "2023-04-03T10:53:00Z", "2023-04-03T10:56:00Z", "2023-04-03T11:35:00Z", "2023-04-03T11:50:00Z", "2023-04-03T10:56:00Z", "2023-04-03T11:42:00Z", "2023-04-03T10:53:00Z", "2023-04-03T10:56:00Z", "2023-04-03T11:35:00Z", "2023-04-03T11:35:00Z", "2023-04-03T11:35:00Z", "2023-04-03T11:35:00Z", "2023-04-03T11:35:00Z", "2023-04-03T11:35:00Z", "2023-04-03T11:35:00Z", "2023-04-03T10:53:00Z", "2023-04-03T11:35:00Z", "2023-04-03T11:35:00Z", "2023-04-03T11:35:00Z", "2023-04-03T11:40:00Z", "2023-04-03T11:35:00Z", "2023-04-03T11:35:00Z", "2023-04-03T11:35:00Z", "2023-04-03T11:35:00Z", "2023-04-03T11:35:00Z", "2023-04-03T11:35:00Z", "2023-04-03T11:35:00Z", "2023-04-03T10:52:00Z", "2023-04-03T10:53:00Z", "2023-04-03T10:53:00Z", "2023-04-03T11:35:00Z", "2023-04-03T10:53:00Z", "2023-04-03T11:00:00Z", "2023-04-03T10:53:00Z", "2023-04-03T11:35:00Z", "2023-04-03T11:35:00Z", "2023-04-03T11:47:00Z", "2023-04-03T11:35:00Z", "2023-04-03T11:35:00Z", "2023-04-03T11:35:00Z", "2023-04-03T11:51:00Z", "2023-04-03T11:35:00Z", "2023-04-03T11:35:00Z", "2023-04-03T11:35:00Z", "2023-04-03T10:52:00Z", "2023-04-03T11:35:00Z", "2023-04-03T11:35:00Z", "2023-04-03T11:35:00Z", "2023-04-03T11:40:00Z", "2023-04-03T11:35:00Z", "2023-04-03T11:35:00Z", "2023-04-03T10:56:00Z", "2023-04-03T11:51:00Z", "2023-04-03T10:53:00Z", "2023-04-03T10:54:00Z", "2023-04-03T10:53:00Z", "2023-04-03T11:35:00Z", "2023-04-03T11:35:00Z", "2023-04-03T10:54:00Z", "2023-04-03T10:54:00Z", "2023-04-03T11:35:00Z", "2023-04-03T11:35:00Z", "2023-04-03T10:53:00Z", "2023-04-03T11:32:00Z", "2023-04-03T11:27:00Z", "2023-04-03T10:54:00Z", "2023-04-03T10:56:00Z", "2023-04-03T11:35:00Z", "2023-04-03T10:52:00Z", "2023-04-03T11:50:00Z", "2023-04-03T10:53:00Z", "2023-04-03T10:54:00Z", "2023-04-03T10:55:00Z", "2023-04-03T11:35:00Z", "2023-04-03T11:27:00Z", "2023-04-03T10:56:00Z", "2023-04-03T10:56:00Z", "2023-04-03T11:35:00Z", "2023-04-03T10:54:00Z", "2023-04-03T10:56:00Z", "2023-04-03T10:53:00Z", "2023-04-03T11:55:00Z", "2023-04-03T11:35:00Z", "2023-04-03T10:56:00Z", "2023-04-03T10:53:00Z", "2023-04-03T11:50:00Z", "2023-04-03T10:53:00Z", "2023-04-03T11:35:00Z", "2023-04-03T11:35:00Z", "2023-04-03T10:54:00Z", "2023-04-03T10:56:00Z", "2023-04-03T10:54:00Z", "2023-04-03T11:35:00Z", "2023-04-03T11:35:00Z", "2023-04-03T11:30:00Z", "2023-04-03T10:56:00Z", "2023-04-03T10:53:00Z", "2023-04-03T11:35:00Z", "2023-04-03T11:51:00Z", "2023-04-03T11:35:00Z", "2023-04-03T11:48:00Z", "2023-04-03T10:53:00Z", "2023-04-03T11:42:00Z", "2023-04-03T11:35:00Z", "2023-04-03T11:51:00Z", "2023-04-03T11:35:00Z", "2023-04-03T11:35:00Z", "2023-04-03T11:35:00Z", "2023-04-03T10:56:00Z", "2023-04-03T11:35:00Z", "2023-04-03T11:35:00Z", "2023-04-03T10:53:00Z", "2023-04-03T10:53:00Z", "2023-04-03T11:35:00Z", "2023-04-03T11:42:00Z", "2023-04-03T11:50:00Z", "2023-04-03T11:35:00Z", "2023-04-03T11:50:00Z", "2023-04-03T10:56:00Z", "2023-04-03T11:35:00Z", "2023-04-03T11:55:00Z", "2023-04-03T10:54:00Z", "2023-04-03T11:35:00Z", "2023-04-03T11:45:00Z", "2023-04-03T11:35:00Z", "2023-04-03T11:35:00Z", "2023-04-03T11:50:00Z", "2023-04-03T11:35:00Z", "2023-04-03T11:55:00Z", "2023-04-03T10:56:00Z", "2023-04-03T11:36:00Z", "2023-04-03T11:35:00Z", "2023-04-03T11:35:00Z", "2023-04-03T11:55:00Z", "2023-04-03T11:35:00Z", "2023-04-03T11:35:00Z", "2023-04-03T11:35:00Z", "2023-04-03T11:35:00Z", "2023-04-03T11:35:00Z", "2023-04-03T11:35:00Z", "2023-04-03T11:35:00Z", "2023-04-03T11:30:00Z", "2023-04-03T11:35:00Z", "2023-04-03T11:35:00Z", "2023-04-03T11:35:00Z", "2023-04-03T11:55:00Z", "2023-04-03T11:35:00Z", "2023-04-03T11:35:00Z", "2023-04-03T10:53:00Z", "2023-04-03T10:54:00Z", "2023-04-03T11:50:00Z", "2023-04-03T11:35:00Z", "2023-04-03T10:53:00Z", "2023-04-03T10:53:00Z", "2023-04-03T10:56:00Z", "2023-04-03T11:49:00Z", "2023-04-03T10:53:00Z", "2023-04-03T10:53:00Z", "2023-04-03T11:47:00Z", "2023-04-03T10:53:00Z", "2023-04-03T10:56:00Z", "2023-04-03T11:35:00Z", "2023-04-03T10:56:00Z", "2023-04-03T11:19:00Z", "2023-04-03T11:35:00Z", "2023-04-03T10:53:00Z", "2023-04-03T10:56:00Z", "2023-04-03T10:55:00Z", "2023-04-03T11:35:00Z", "2023-04-03T11:55:00Z", "2023-04-03T11:35:00Z", "2023-04-03T10:53:00Z", "2023-04-03T10:53:00Z", "2023-04-03T10:56:00Z", "2023-04-03T10:54:00Z", "2023-04-03T10:55:00Z", "2023-04-03T11:40:00Z", "2023-04-03T10:53:00Z", "2023-04-03T11:51:00Z", "2023-04-03T11:41:00Z", "2023-04-03T11:35:00Z", "2023-04-03T10:56:00Z", "2023-04-03T10:55:00Z", "2023-04-03T11:51:00Z", "2023-04-03T11:35:00Z", "2023-04-03T11:35:00Z", "2023-04-03T10:53:00Z", "2023-04-03T10:55:00Z", "2023-04-03T10:53:00Z", "2023-04-03T11:55:00Z", "2023-04-03T10:55:00Z", "2023-04-03T10:53:00Z", "2023-04-03T11:35:00Z", "2023-04-03T11:35:00Z", "2023-04-03T11:35:00Z", "2023-04-03T10:53:00Z", "2023-04-03T10:55:00Z", "2023-04-03T11:35:00Z", "2023-04-03T11:30:00Z", "2023-04-03T11:35:00Z", "2023-04-03T11:35:00Z", "2023-04-03T10:53:00Z", "2023-04-03T11:35:00Z", "2023-04-03T11:35:00Z", "2023-04-03T11:41:00Z", "2023-04-03T10:54:00Z", "2023-04-03T11:35:00Z", "2023-04-03T11:35:00Z", "2023-04-03T11:35:00Z", "2023-04-03T11:35:00Z", "2023-04-03T10:56:00Z", "2023-04-03T10:53:00Z", "2023-04-03T10:53:00Z", "2023-04-03T11:35:00Z", "2023-04-03T11:30:00Z", "2023-04-03T11:45:00Z", "2023-04-03T10:53:00Z", "2023-04-03T10:53:00Z", "2023-04-03T10:53:00Z", "2023-04-03T11:35:00Z", "2023-04-03T10:56:00Z", "2023-04-03T11:30:00Z", "2023-04-03T11:35:00Z", "2023-04-03T11:35:00Z", "2023-04-03T11:35:00Z", "2023-04-03T10:53:00Z", "2023-04-03T11:13:00Z", "2023-04-03T10:55:00Z", "2023-04-03T11:50:00Z", "2023-04-03T11:35:00Z", "2023-04-03T11:35:00Z", "2023-04-03T10:55:00Z", "2023-04-03T11:35:00Z", "2023-04-03T10:53:00Z", "2023-04-03T11:35:00Z", "2023-04-03T11:35:00Z", "2023-04-03T11:35:00Z", "2023-04-03T11:35:00Z", "2023-04-03T10:53:00Z", "2023-04-03T10:53:00Z", "2023-04-03T11:35:00Z", "2023-04-03T10:53:00Z", "2023-04-03T11:35:00Z", "2023-04-03T10:53:00Z", "2023-04-03T11:35:00Z", "2023-04-03T11:35:00Z", "2023-04-03T10:52:00Z", "2023-04-03T10:53:00Z", "2023-04-03T10:54:00Z", "2023-04-03T11:46:00Z", "2023-04-03T10:54:00Z", "2023-04-03T10:53:00Z", "2023-04-03T11:35:00Z", "2023-04-03T11:35:00Z", "2023-04-03T10:53:00Z", "2023-04-03T10:53:00Z", "2023-04-03T11:35:00Z", "2023-04-03T10:54:00Z", "2023-04-03T11:35:00Z", "2023-04-03T11:35:00Z", "2023-04-03T10:56:00Z", "2023-04-03T11:35:00Z", "2023-04-03T11:35:00Z", "2023-04-03T11:35:00Z", "2023-04-03T11:35:00Z", "2023-04-03T11:03:00Z", "2023-04-03T11:35:00Z", "2023-04-03T11:35:00Z", "2023-04-03T11:35:00Z", "2023-04-03T11:30:00Z", "2023-04-03T11:35:00Z", "2023-04-03T11:30:00Z", "2023-04-03T10:53:00Z", "2023-04-03T10:53:00Z", "2023-04-03T11:53:00Z", "2023-04-03T11:35:00Z", "2023-04-03T11:35:00Z", "2023-04-03T11:55:00Z", "2023-04-03T10:52:00Z", "2023-04-03T10:56:00Z", "2023-04-03T11:35:00Z", "2023-04-03T10:53:00Z", "2023-04-03T11:35:00Z", "2023-04-03T11:35:00Z", "2023-04-03T10:53:00Z", "2023-04-03T11:35:00Z", "2023-04-03T11:35:00Z", "2023-04-03T10:53:00Z", "2023-04-03T11:40:00Z", "2023-04-03T10:53:00Z", "2023-04-03T11:35:00Z", "2023-04-03T10:53:00Z", "2023-04-03T10:53:00Z", "2023-04-03T11:28:00Z", "2023-04-03T10:53:00Z", "2023-04-03T11:55:00Z", "2023-04-03T11:45:00Z", "2023-04-03T11:35:00Z", "2023-04-03T10:52:00Z", "2023-04-03T11:35:00Z", "2023-04-03T11:35:00Z", "2023-04-03T10:56:00Z", "2023-04-03T11:05:00Z", "2023-04-03T11:35:00Z", "2023-04-03T10:52:00Z", "2023-04-03T11:50:00Z", "2023-04-03T11:05:00Z", "2023-04-03T11:28:00Z", "2023-04-03T11:35:00Z", "2023-04-03T11:35:00Z", "2023-04-03T11:35:00Z", "2023-04-03T10:52:00Z", "2023-04-03T10:57:00Z", "2023-04-03T10:54:00Z", "2023-04-03T10:53:00Z", "2023-04-03T11:55:00Z", "2023-04-03T11:35:00Z", "2023-04-03T10:55:00Z", "2023-04-03T11:35:00Z", "2023-04-03T10:54:00Z", "2023-04-03T11:31:00Z", "2023-04-03T11:35:00Z", "2023-04-03T10:53:00Z", "2023-04-03T10:53:00Z", "2023-04-03T10:53:00Z", "2023-04-03T10:52:00Z", "2023-04-03T11:55:00Z", "2023-04-03T11:30:00Z", "2023-04-03T10:56:00Z", "2023-04-03T10:53:00Z", "2023-04-03T11:40:00Z", "2023-04-03T10:53:00Z", "2023-04-03T10:55:00Z", "2023-04-03T10:53:00Z", "2023-04-03T10:53:00Z", "2023-04-03T11:35:00Z", "2023-04-03T10:54:00Z", "2023-04-03T10:53:00Z", "2023-04-03T11:35:00Z", "2023-04-03T11:35:00Z", "2023-04-03T10:54:00Z", "2023-04-03T10:52:00Z", "2023-04-03T10:55:00Z", "2023-04-03T11:35:00Z", "2023-04-03T10:53:00Z", "2023-04-03T11:35:00Z", "2023-04-03T10:53:00Z", "2023-04-03T11:35:00Z", "2023-04-03T10:56:00Z", "2023-04-03T11:34:00Z", "2023-04-03T10:53:00Z", "2023-04-03T11:46:00Z", "2023-04-03T11:35:00Z", "2023-04-03T10:52:00Z", "2023-04-03T10:52:00Z", "2023-04-03T11:35:00Z", "2023-04-03T10:53:00Z", "2023-04-03T10:53:00Z", "2023-04-03T10:53:00Z", "2023-04-03T11:01:00Z", "2023-04-03T11:35:00Z", "2023-04-03T11:35:00Z", "2023-04-03T10:53:00Z", "2023-04-03T10:56:00Z", "2023-04-03T11:45:00Z", "2023-04-03T11:45:00Z", "2023-04-03T10:53:00Z", "2023-04-03T11:38:00Z", "2023-04-03T11:35:00Z", "2023-04-03T11:35:00Z", "2023-04-03T10:57:00Z", "2023-04-03T10:53:00Z", "2023-04-03T11:35:00Z", "2023-04-03T11:35:00Z", "2023-04-03T10:56:00Z", "2023-04-03T10:53:00Z", "2023-04-03T11:35:00Z", "2023-04-03T11:35:00Z", "2023-04-03T10:54:00Z", "2023-04-03T11:35:00Z", "2023-04-03T10:53:00Z", "2023-04-03T11:35:00Z", "2023-04-03T11:51:00Z", "2023-04-03T11:35:00Z", "2023-04-03T11:35:00Z", "2023-04-03T11:50:00Z", "2023-04-03T11:35:00Z", "2023-04-03T11:35:00Z", "2023-04-03T11:35:00Z", "2023-04-03T10:56:00Z", "2023-04-03T10:53:00Z", "2023-04-03T11:30:00Z", "2023-04-03T10:56:00Z", "2023-04-03T10:58:00Z", "2023-04-03T11:35:00Z", "2023-04-03T11:45:00Z", "2023-04-03T11:19:00Z", "2023-04-03T10:54:00Z", "2023-04-03T10:53:00Z", "2023-04-03T10:53:00Z", "2023-04-03T10:53:00Z", "2023-04-03T10:53:00Z", "2023-04-03T10:53:00Z", "2023-04-03T10:56:00Z", "2023-04-03T10:53:00Z", "2023-04-03T10:56:00Z", "2023-04-03T10:53:00Z", "2023-04-03T10:53:00Z", "2023-04-03T11:35:00Z", "2023-04-03T10:53:00Z", "2023-04-03T10:54:00Z", "2023-04-03T11:35:00Z", "2023-04-03T10:56:00Z", "2023-04-03T10:55:00Z", "2023-04-03T10:55:00Z", "2023-04-03T11:35:00Z", "2023-04-03T11:35:00Z", "2023-04-03T11:40:00Z", "2023-04-03T10:54:00Z", "2023-04-03T10:56:00Z", "2023-04-03T10:53:00Z", "2023-04-03T11:47:00Z", "2023-04-03T11:35:00Z", "2023-04-03T10:52:00Z", "2023-04-03T11:45:00Z", "2023-04-03T11:46:00Z", "2023-04-03T11:35:00Z", "2023-04-03T10:56:00Z", "2023-04-03T11:35:00Z", "2023-04-03T10:53:00Z", "2023-04-03T11:49:00Z", "2023-04-03T10:53:00Z", "2023-04-03T11:55:00Z", "2023-04-03T11:51:00Z", "2023-04-03T11:35:00Z", "2023-04-03T10:56:00Z", "2023-04-03T10:53:00Z", "2023-04-03T11:35:00Z", "2023-04-03T11:35:00Z", "2023-04-03T11:35:00Z", "2023-04-03T11:35:00Z", "2023-04-03T11:35:00Z", "2023-04-03T11:52:00Z", "2023-04-03T11:35:00Z", "2023-04-03T10:54:00Z", "2023-04-03T10:56:00Z", "2023-04-03T10:55:00Z", "2023-04-03T11:00:00Z", "2023-04-03T10:56:00Z", "2023-04-03T11:16:00Z", "2023-04-03T11:00:00Z", "2023-04-03T10:53:00Z", "2023-04-03T10:56:00Z", "2023-04-03T11:52:00Z", "2023-04-03T11:43:00Z", "2023-04-03T11:52:00Z", "2023-04-03T10:56:00Z", "2023-04-03T10:59:00Z", "2023-04-03T11:52:00Z", "2023-04-03T10:56:00Z", "2023-04-03T11:53:00Z", "2023-04-03T10:56:00Z", "2023-04-03T11:33:00Z", "2023-04-03T10:56:00Z", "2023-04-03T10:55:00Z", "2023-04-03T10:56:00Z", "2023-04-03T11:43:00Z", "2023-04-03T10:56:00Z", "2023-04-03T11:35:00Z", "2023-04-03T10:59:00Z", "2023-04-03T11:31:00Z", "2023-04-03T11:46:00Z", "2023-04-03T10:53:00Z", "2023-04-03T11:52:00Z", "2023-04-03T11:35:00Z", "2023-04-03T11:53:00Z", "2023-04-03T11:03:00Z", "2023-04-03T10:53:00Z", "2023-04-03T11:43:00Z", "2023-04-03T10:56:00Z", "2023-04-03T10:56:00Z", "2023-04-03T11:53:00Z", "2023-04-03T11:53:00Z", "2023-04-03T10:56:00Z", "2023-04-03T10:56:00Z", "2023-04-03T11:38:00Z", "2023-04-03T10:51:00Z", "2023-04-03T10:56:00Z", "2023-04-03T10:57:00Z", "2023-04-03T11:52:00Z", "2023-04-03T11:30:00Z", "2023-04-03T11:35:00Z", "2023-04-03T11:35:00Z", "2023-04-03T11:35:00Z", "2023-04-03T10:56:00Z", "2023-04-03T10:53:00Z", "2023-04-03T11:35:00Z", "2023-04-03T11:35:00Z", "2023-04-03T11:51:00Z", "2023-04-03T11:31:00Z", "2023-04-03T11:35:00Z", "2023-04-03T11:45:00Z", "2023-04-03T10:53:00Z", "2023-04-03T10:53:00Z", "2023-04-03T11:35:00Z", "2023-04-03T11:35:00Z", "2023-04-03T11:35:00Z", "2023-04-03T10:55:00Z", "2023-04-03T10:56:00Z", "2023-04-03T10:54:00Z", "2023-04-03T11:35:00Z", "2023-04-03T11:43:00Z", "2023-04-03T11:45:00Z", "2023-04-03T11:35:00Z", "2023-04-03T11:35:00Z", "2023-04-03T11:35:00Z", "2023-04-03T11:35:00Z", "2023-04-03T10:53:00Z", "2023-04-03T11:47:00Z", "2023-04-03T10:52:00Z", "2023-04-03T10:56:00Z", "2023-04-03T11:35:00Z", "2023-04-03T11:35:00Z", "2023-04-03T11:35:00Z", "2023-04-03T11:35:00Z", "2023-04-03T10:53:00Z", "2023-04-03T11:35:00Z", "2023-04-03T11:48:00Z", "2023-04-03T10:54:00Z", "2023-04-03T10:56:00Z", "2023-04-03T11:35:00Z", "2023-04-03T11:35:00Z", "2023-04-03T11:35:00Z", "2023-04-03T10:52:00Z", "2023-04-03T11:35:00Z", "2023-04-03T10:53:00Z", "2023-04-03T11:53:00Z", "2023-04-03T11:35:00Z", "2023-04-03T11:35:00Z", "2023-04-03T11:35:00Z", "2023-04-03T10:53:00Z", "2023-04-03T11:35:00Z", "2023-04-03T10:53:00Z", "2023-04-03T11:45:00Z", "2023-04-03T11:35:00Z", "2023-04-03T11:35:00Z", "2023-04-03T10:53:00Z", "2023-04-03T11:35:00Z", "2023-04-03T11:35:00Z", "2023-04-03T11:35:00Z", "2023-04-03T10:53:00Z", "2023-04-03T11:53:00Z", "2023-04-03T11:51:00Z", "2023-04-03T10:52:00Z", "2023-04-03T11:51:00Z", "2023-04-03T11:35:00Z", "2023-04-03T10:54:00Z", "2023-04-03T11:35:00Z", "2023-04-03T11:49:00Z", "2023-04-03T11:35:00Z", "2023-04-03T11:35:00Z", "2023-04-03T11:35:00Z", "2023-04-03T10:53:00Z", "2023-04-03T10:53:00Z", "2023-04-03T10:56:00Z", "2023-04-03T10:56:00Z", "2023-04-03T10:53:00Z", "2023-04-03T11:35:00Z", "2023-04-03T10:53:00Z", "2023-04-03T11:35:00Z", "2023-04-03T10:53:00Z", "2023-04-03T11:53:00Z", "2023-04-03T10:56:00Z", "2023-04-03T10:53:00Z", "2023-04-03T11:30:00Z", "2023-04-03T11:35:00Z", "2023-04-03T11:35:00Z", "2023-04-03T11:51:00Z", "2023-04-03T11:35:00Z", "2023-04-03T11:35:00Z", "2023-04-03T11:51:00Z", "2023-04-03T11:35:00Z", "2023-04-03T11:35:00Z", "2023-04-03T11:35:00Z", "2023-04-03T11:24:00Z", "2023-04-03T11:35:00Z", "2023-04-03T11:35:00Z", "2023-04-03T11:35:00Z", "2023-04-03T10:56:00Z", "2023-04-03T11:35:00Z", "2023-04-03T10:56:00Z", "2023-04-03T10:55:00Z", "2023-04-03T11:51:00Z", "2023-04-03T10:56:00Z", "2023-04-03T11:53:00Z", "2023-04-03T11:52:00Z", "2023-04-03T10:59:00Z", "2023-04-03T11:44:00Z", "2023-04-03T10:53:00Z", "2023-04-03T11:05:00Z", "2023-04-03T11:35:00Z", "2023-04-03T11:31:00Z", "2023-04-03T10:53:00Z", "2023-04-03T11:35:00Z", "2023-04-03T10:53:00Z", "2023-04-03T11:35:00Z", "2023-04-03T11:35:00Z", "2023-04-03T11:15:00Z", "2023-04-03T11:35:00Z", "2023-04-03T11:35:00Z", "2023-04-03T11:55:00Z", "2023-04-03T10:53:00Z", "2023-04-03T10:53:00Z", "2023-04-03T11:40:00Z", "2023-04-03T11:35:00Z", "2023-04-03T10:53:00Z", "2023-04-03T11:35:00Z", "2023-04-03T11:35:00Z", "2023-04-03T11:35:00Z", "2023-04-03T10:53:00Z", "2023-04-03T11:02:00Z", "2023-04-03T11:45:00Z", "2023-04-03T10:53:00Z", "2023-04-03T10:54:00Z", "2023-04-03T10:54:00Z", "2023-04-03T11:35:00Z", "2023-04-03T10:55:00Z", "2023-04-03T11:35:00Z", "2023-04-03T11:51:00Z", "2023-04-03T10:54:00Z", "2023-04-03T11:35:00Z", "2023-04-03T11:27:00Z", "2023-04-03T11:20:00Z", "2023-04-03T10:53:00Z", "2023-04-03T11:35:00Z", "2023-04-03T10:53:00Z", "2023-04-03T11:51:00Z", "2023-04-03T11:35:00Z", "2023-04-03T10:53:00Z", "2023-04-03T11:04:00Z", "2023-04-03T11:35:00Z", "2023-04-03T10:54:00Z", "2023-04-03T11:35:00Z", "2023-04-03T11:35:00Z", "2023-04-03T11:27:00Z", "2023-04-03T11:35:00Z", "2023-04-03T10:53:00Z", "2023-04-03T11:35:00Z", "2023-04-03T11:35:00Z", "2023-04-03T11:35:00Z", "2023-04-03T11:40:00Z", "2023-04-03T10:54:00Z", "2023-04-03T11:35:00Z", "2023-04-03T11:33:00Z", "2023-04-03T11:35:00Z", "2023-04-03T11:40:00Z", "2023-04-03T11:49:00Z", "2023-04-03T10:55:00Z", "2023-04-03T11:30:00Z", "2023-04-03T10:53:00Z", "2023-04-03T11:35:00Z", "2023-04-03T11:35:00Z", "2023-04-03T11:35:00Z", "2023-04-03T11:26:00Z", "2023-04-03T11:35:00Z", "2023-04-03T11:35:00Z", "2023-04-03T10:56:00Z", "2023-04-03T10:53:00Z", "2023-04-03T10:53:00Z", "2023-04-03T10:53:00Z", "2023-04-03T11:35:00Z", "2023-04-03T11:32:00Z", "2023-04-03T11:35:00Z", "2023-04-03T11:35:00Z", "2023-04-03T11:11:00Z", "2023-04-03T11:15:00Z", "2023-04-03T10:54:00Z", "2023-04-03T11:35:00Z", "2023-04-03T10:55:00Z", "2023-04-03T11:35:00Z", "2023-04-03T11:35:00Z", "2023-04-03T10:53:00Z", "2023-04-03T11:34:00Z", "2023-04-03T11:35:00Z", "2023-04-03T11:35:00Z", "2023-04-03T10:53:00Z", "2023-04-03T10:56:00Z", "2023-04-03T11:35:00Z", "2023-04-03T11:35:00Z", "2023-04-03T10:56:00Z", "2023-04-03T10:53:00Z", "2023-04-03T10:53:00Z", "2023-04-03T11:35:00Z", "2023-04-03T11:44:00Z", "2023-04-03T11:15:00Z", "2023-04-03T10:56:00Z", "2023-04-03T11:51:00Z", "2023-04-03T11:35:00Z", "2023-04-03T10:56:00Z", "2023-04-03T11:35:00Z", "2023-04-03T11:31:00Z", "2023-04-03T11:35:00Z", "2023-04-03T10:53:00Z", "2023-04-03T11:35:00Z", "2023-04-03T11:35:00Z", "2023-04-03T10:56:00Z", "2023-04-03T10:52:00Z", "2023-04-03T11:51:00Z", "2023-04-03T11:39:00Z", "2023-04-03T11:35:00Z", "2023-04-03T10:52:00Z", "2023-04-03T11:35:00Z", "2023-04-03T10:55:00Z", "2023-04-03T11:10:00Z", "2023-04-03T11:34:00Z", "2023-04-03T10:55:00Z", "2023-04-03T11:50:00Z", "2023-04-03T11:50:00Z", "2023-04-03T11:50:00Z", "2023-04-03T11:50:00Z", "2023-04-03T11:50:00Z", "2023-04-03T11:40:00Z", "2023-04-03T11:40:00Z", "2023-04-03T11:50:00Z", "2023-04-03T11:50:00Z", "2023-04-03T11:50:00Z", "2023-04-03T11:50:00Z", "2023-04-03T11:50:00Z", "2023-04-03T11:50:00Z", "2023-04-03T11:50:00Z", "2023-04-03T11:50:00Z", "2023-04-03T11:50:00Z", "2023-04-03T11:50:00Z", "2023-04-03T11:37:00Z", "2023-04-03T10:55:00Z", "2023-04-03T10:55:00Z", "2023-04-03T10:55:00Z", "2023-04-03T11:05:00Z", "2023-04-03T10:53:00Z", "2023-04-03T10:53:00Z", "2023-04-03T10:52:00Z", "2023-04-03T11:35:00Z", "2023-04-03T11:35:00Z", "2023-04-03T10:53:00Z", "2023-04-03T11:45:00Z", "2023-04-03T10:54:00Z", "2023-04-03T11:35:00Z", "2023-04-03T11:35:00Z", "2023-04-03T10:55:00Z", "2023-04-03T11:35:00Z", "2023-04-03T11:55:00Z", "2023-04-03T11:35:00Z", "2023-04-03T11:35:00Z", "2023-04-03T11:35:00Z", "2023-04-03T11:55:00Z", "2023-04-03T10:53:00Z", "2023-04-03T10:54:00Z", "2023-04-03T11:35:00Z", "2023-04-03T10:56:00Z", "2023-04-03T11:35:00Z", "2023-04-03T11:51:00Z", "2023-04-03T11:35:00Z", "2023-04-03T11:52:00Z", "2023-04-03T10:54:00Z", "2023-04-03T11:35:00Z", "2023-04-03T11:35:00Z", "2023-04-03T11:35:00Z", "2023-04-03T10:53:00Z", "2023-04-03T10:54:00Z", "2023-04-03T11:55:00Z", "2023-04-03T10:53:00Z", "2023-04-03T10:55:00Z", "2023-04-03T11:29:00Z", "2023-04-03T10:56:00Z", "2023-04-03T10:53:00Z", "2023-04-03T11:35:00Z", "2023-04-03T11:36:00Z", "2023-04-03T11:35:00Z", "2023-04-03T11:35:00Z", "2023-04-03T10:53:00Z", "2023-04-03T10:53:00Z", "2023-04-03T11:35:00Z", "2023-04-03T11:35:00Z", "2023-04-03T11:35:00Z", "2023-04-03T11:50:00Z", "2023-04-03T11:35:00Z", "2023-04-03T11:48:00Z", "2023-04-03T11:49:00Z", "2023-04-03T11:35:00Z", "2023-04-03T11:48:00Z", "2023-04-03T10:54:00Z", "2023-04-03T10:54:00Z", "2023-04-03T10:58:00Z", "2023-04-03T11:35:00Z", "2023-04-03T11:51:00Z", "2023-04-03T11:35:00Z", "2023-04-03T11:55:00Z", "2023-04-03T11:35:00Z", "2023-04-03T11:35:00Z", "2023-04-03T10:55:00Z", "2023-04-03T11:35:00Z", "2023-04-03T10:53:00Z", "2023-04-03T11:35:00Z", "2023-04-03T11:55:00Z", "2023-04-03T11:35:00Z", "2023-04-03T11:17:00Z", "2023-04-03T11:35:00Z", "2023-04-03T10:54:00Z", "2023-04-03T10:54:00Z", "2023-04-03T11:42:00Z", "2023-04-03T10:53:00Z", "2023-04-03T11:35:00Z", "2023-04-03T10:53:00Z", "2023-04-03T11:35:00Z", "2023-04-03T11:45:00Z", "2023-04-03T10:56:00Z", "2023-04-03T11:35:00Z", "2023-04-03T11:35:00Z", "2023-04-03T11:35:00Z", "2023-04-03T11:24:00Z", "2023-04-03T10:53:00Z", "2023-04-03T10:53:00Z", "2023-04-03T11:34:00Z", "2023-04-03T11:35:00Z", "2023-04-03T10:53:00Z", "2023-04-03T10:55:00Z", "2023-04-03T11:35:00Z", "2023-04-03T11:35:00Z", "2023-04-03T11:50:00Z", "2023-04-03T11:35:00Z", "2023-04-03T11:35:00Z", "2023-04-03T11:35:00Z", "2023-04-03T11:35:00Z", "2023-04-03T11:35:00Z", "2023-04-03T11:35:00Z", "2023-04-03T11:35:00Z", "2023-04-03T11:35:00Z", "2023-04-03T11:35:00Z", "2023-04-03T10:55:00Z", "2023-04-03T11:35:00Z", "2023-04-03T11:35:00Z", "2023-04-03T11:45:00Z", "2023-04-03T11:40:00Z", "2023-04-03T11:35:00Z", "2023-04-03T11:51:00Z", "2023-04-03T10:53:00Z", "2023-04-03T11:51:00Z", "2023-04-03T11:35:00Z", "2023-04-03T11:51:00Z", "2023-04-03T10:53:00Z", "2023-04-03T11:47:00Z", "2023-04-03T11:35:00Z", "2023-04-03T10:53:00Z", "2023-04-03T11:40:00Z", "2023-04-03T10:53:00Z", "2023-04-03T10:54:00Z", "2023-04-03T11:35:00Z", "2023-04-03T10:56:00Z", "2023-04-03T11:35:00Z", "2023-04-03T10:54:00Z", "2023-04-03T11:35:00Z", "2023-04-03T10:55:00Z", "2023-04-03T11:45:00Z", "2023-04-03T11:35:00Z", "2023-04-03T11:35:00Z", "2023-04-03T11:35:00Z", "2023-04-03T10:56:00Z", "2023-04-03T10:53:00Z", "2023-04-03T11:36:00Z", "2023-04-03T10:56:00Z", "2023-04-03T11:51:00Z", "2023-04-03T11:35:00Z", "2023-04-03T11:35:00Z", "2023-04-03T10:53:00Z", "2023-04-03T11:35:00Z", "2023-04-03T11:35:00Z", "2023-04-03T10:55:00Z", "2023-04-03T10:54:00Z", "2023-04-03T11:35:00Z", "2023-04-03T11:48:00Z", "2023-04-03T10:53:00Z", "2023-04-03T10:56:00Z", "2023-04-03T10:56:00Z", "2023-04-03T11:35:00Z", "2023-04-03T10:56:00Z", "2023-04-03T10:52:00Z", "2023-04-03T10:56:00Z", "2023-04-03T10:56:00Z", "2023-04-03T10:53:00Z", "2023-04-03T11:35:00Z", "2023-04-03T10:56:00Z", "2023-04-03T10:56:00Z", "2023-04-03T11:35:00Z", "2023-04-03T11:35:00Z", "2023-04-03T10:55:00Z", "2023-04-03T11:46:00Z", "2023-04-03T10:53:00Z", "2023-04-03T11:04:00Z", "2023-04-03T11:45:00Z", "2023-04-03T11:35:00Z", "2023-04-03T10:53:00Z", "2023-04-03T10:53:00Z", "2023-04-03T11:35:00Z", "2023-04-03T11:51:00Z", "2023-04-03T11:35:00Z", "2023-04-03T11:36:00Z", "2023-04-03T10:55:00Z", "2023-04-03T10:56:00Z", "2023-04-03T11:35:00Z", "2023-04-03T11:07:00Z", "2023-04-03T11:35:00Z", "2023-04-03T11:12:00Z", "2023-04-03T11:35:00Z", "2023-04-03T10:55:00Z", "2023-04-03T11:51:00Z", "2023-04-03T10:53:00Z", "2023-04-03T11:35:00Z", "2023-04-03T11:35:00Z", "2023-04-03T11:35:00Z", "2023-04-03T11:35:00Z", "2023-04-03T10:53:00Z", "2023-04-03T10:56:00Z", "2023-04-03T11:51:00Z", "2023-04-03T11:47:00Z", "2023-04-03T10:53:00Z", "2023-04-03T11:35:00Z", "2023-04-03T11:51:00Z", "2023-04-03T10:53:00Z", "2023-04-03T11:35:00Z", "2023-04-03T11:30:00Z", "2023-04-03T11:55:00Z", "2023-04-03T11:35:00Z", "2023-04-03T10:53:00Z", "2023-04-03T11:51:00Z", "2023-04-03T10:53:00Z", "2023-04-03T11:35:00Z", "2023-04-03T10:56:00Z", "2023-04-03T11:35:00Z", "2023-04-03T11:35:00Z", "2023-04-03T10:53:00Z", "2023-04-03T10:56:00Z", "2023-04-03T11:35:00Z", "2023-04-03T11:31:00Z", "2023-04-03T10:52:00Z", "2023-04-03T10:52:00Z", "2023-04-03T10:53:00Z", "2023-04-03T10:56:00Z", "2023-04-03T11:35:00Z", "2023-04-03T11:35:00Z", "2023-04-03T10:56:00Z", "2023-04-03T11:35:00Z", "2023-04-03T10:53:00Z", "2023-04-03T11:35:00Z", "2023-04-03T11:27:00Z", "2023-04-03T11:24:00Z", "2023-04-03T10:53:00Z", "2023-04-03T10:53:00Z", "2023-04-03T11:35:00Z", "2023-04-03T11:35:00Z", "2023-04-03T10:53:00Z", "2023-04-03T11:35:00Z", "2023-04-03T11:51:00Z", "2023-04-03T10:53:00Z", "2023-04-03T10:53:00Z", "2023-04-03T11:47:00Z", "2023-04-03T10:56:00Z", "2023-04-03T11:35:00Z", "2023-04-03T10:54:00Z", "2023-04-03T11:50:00Z", "2023-04-03T10:55:00Z", "2023-04-03T11:35:00Z", "2023-04-03T10:52:00Z", "2023-04-03T11:35:00Z", "2023-04-03T11:35:00Z", "2023-04-03T11:55:00Z", "2023-04-03T11:45:00Z", "2023-04-03T10:55:00Z", "2023-04-03T11:45:00Z", "2023-04-03T10:53:00Z", "2023-04-03T11:35:00Z", "2023-04-03T11:35:00Z", "2023-04-03T11:50:00Z", "2023-04-03T11:48:00Z", "2023-04-03T11:35:00Z", "2023-04-03T11:35:00Z", "2023-04-03T11:35:00Z", "2023-04-03T11:35:00Z", "2023-04-03T11:35:00Z", "2023-04-03T10:54:00Z", "2023-04-03T10:55:00Z", "2023-04-03T11:35:00Z", "2023-04-03T11:35:00Z", "2023-04-03T11:35:00Z", "2023-04-03T11:35:00Z", "2023-04-03T11:35:00Z", "2023-04-03T11:35:00Z", "2023-04-03T10:55:00Z", "2023-04-03T11:35:00Z", "2023-04-03T11:35:00Z", "2023-04-03T11:35:00Z", "2023-04-03T11:35:00Z", "2023-04-03T10:54:00Z", "2023-04-03T10:52:00Z", "2023-04-03T11:35:00Z", "2023-04-03T10:55:00Z", "2023-04-03T11:35:00Z", "2023-04-03T10:53:00Z", "2023-04-03T10:55:00Z", "2023-04-03T11:53:00Z", "2023-04-03T11:35:00Z", "2023-04-03T11:45:00Z", "2023-04-03T10:55:00Z", "2023-04-03T10:53:00Z", "2023-04-03T11:51:00Z", "2023-04-03T11:35:00Z", "2023-04-03T11:35:00Z", "2023-04-03T10:55:00Z", "2023-04-03T11:55:00Z", "2023-04-03T11:35:00Z", "2023-04-03T10:53:00Z", "2023-04-03T11:35:00Z", "2023-04-03T11:48:00Z", "2023-04-03T11:35:00Z", "2023-04-03T11:40:00Z", "2023-04-03T11:47:00Z", "2023-04-03T11:35:00Z", "2023-04-03T11:37:00Z", "2023-04-03T11:35:00Z", "2023-04-03T11:35:00Z", "2023-04-03T11:16:00Z", "2023-04-03T10:53:00Z", "2023-04-03T11:30:00Z", "2023-04-03T11:35:00Z", "2023-04-03T11:35:00Z", "2023-04-03T11:35:00Z", "2023-04-03T11:35:00Z", "2023-04-03T11:35:00Z", "2023-04-03T11:40:00Z", "2023-04-03T10:52:00Z", "2023-04-03T11:01:00Z", "2023-04-03T11:43:00Z", "2023-04-03T11:29:00Z", "2023-04-03T11:35:00Z", "2023-04-03T10:56:00Z", "2023-04-03T11:51:00Z", "2023-04-03T10:54:00Z", "2023-04-03T11:35:00Z", "2023-04-03T11:35:00Z", "2023-04-03T11:35:00Z", "2023-04-03T10:53:00Z", "2023-04-03T11:42:00Z", "2023-04-03T11:49:00Z", "2023-04-03T10:52:00Z", "2023-04-03T11:35:00Z", "2023-04-03T11:45:00Z", "2023-04-03T11:32:00Z", "2023-04-03T11:35:00Z", "2023-04-03T10:53:00Z", "2023-04-03T10:55:00Z", "2023-04-03T10:53:00Z", "2023-04-03T11:10:00Z", "2023-04-03T10:53:00Z", "2023-04-03T10:53:00Z", "2023-04-03T11:20:00Z", "2023-04-03T11:35:00Z", "2023-04-03T11:35:00Z", "2023-04-03T11:34:00Z", "2023-04-03T10:53:00Z", "2023-04-03T11:35:00Z", "2023-04-03T11:38:00Z", "2023-04-03T11:35:00Z", "2023-04-03T11:35:00Z", "2023-04-03T10:53:00Z", "2023-04-03T11:35:00Z", "2023-04-03T11:35:00Z", "2023-04-03T11:35:00Z", "2023-04-03T10:53:00Z", "2023-04-03T10:53:00Z", "2023-04-03T11:45:00Z", "2023-04-03T11:35:00Z", "2023-04-03T11:35:00Z", "2023-04-03T11:35:00Z", "2023-04-03T11:35:00Z", "2023-04-03T11:35:00Z", "2023-04-03T10:53:00Z", "2023-04-03T11:35:00Z", "2023-04-03T11:35:00Z", "2023-04-03T10:56:00Z", "2023-04-03T11:45:00Z", "2023-04-03T11:51:00Z", "2023-04-03T10:53:00Z", "2023-04-03T10:54:00Z", "2023-04-03T11:45:00Z", "2023-04-03T10:56:00Z", "2023-04-03T11:35:00Z", "2023-04-03T11:35:00Z", "2023-04-03T11:35:00Z", "2023-04-03T11:30:00Z", "2023-04-03T11:35:00Z", "2023-04-03T11:39:00Z", "2023-04-03T11:55:00Z", "2023-04-03T11:53:00Z", "2023-04-03T11:35:00Z", "2023-04-03T11:35:00Z", "2023-04-03T11:35:00Z", "2023-04-03T10:53:00Z", "2023-04-03T10:53:00Z", "2023-04-03T11:55:00Z", "2023-04-03T11:35:00Z", "2023-04-03T11:35:00Z", "2023-04-03T11:35:00Z", "2023-04-03T10:54:00Z", "2023-04-03T10:55:00Z", "2023-04-03T11:35:00Z", "2023-04-03T10:54:00Z", "2023-04-03T10:55:00Z", "2023-04-03T11:27:00Z", "2023-04-03T11:35:00Z", "2023-04-03T10:53:00Z", "2023-04-03T11:51:00Z", "2023-04-03T11:35:00Z", "2023-04-03T11:35:00Z", "2023-04-03T11:35:00Z", "2023-04-03T10:53:00Z", "2023-04-03T11:55:00Z", "2023-04-03T11:30:00Z", "2023-04-03T11:35:00Z", "2023-04-03T10:53:00Z", "2023-04-03T11:35:00Z", "2023-04-03T10:53:00Z", "2023-04-03T10:56:00Z", "2023-04-03T11:35:00Z", "2023-04-03T11:35:00Z", "2023-04-03T11:35:00Z", "2023-04-03T10:53:00Z", "2023-04-03T11:35:00Z", "2023-04-03T11:35:00Z", "2023-04-03T11:35:00Z", "2023-04-03T11:51:00Z", "2023-04-03T11:45:00Z", "2023-04-03T10:55:00Z", "2023-04-03T11:35:00Z", "2023-04-03T10:55:00Z", "2023-04-03T10:56:00Z", "2023-04-03T11:50:00Z", "2023-04-03T10:53:00Z", "2023-04-03T10:54:00Z", "2023-04-03T10:54:00Z", "2023-04-03T11:30:00Z", "2023-04-03T10:52:00Z", "2023-04-03T11:35:00Z", "2023-04-03T11:45:00Z", "2023-04-03T10:53:00Z", "2023-04-03T11:35:00Z", "2023-04-03T11:35:00Z", "2023-04-03T11:35:00Z", "2023-04-03T11:35:00Z", "2023-04-03T11:55:00Z", "2023-04-03T11:35:00Z", "2023-04-03T11:45:00Z", "2023-04-03T11:55:00Z", "2023-04-03T11:45:00Z", "2023-04-03T11:35:00Z", "2023-04-03T11:55:00Z", "2023-04-03T11:35:00Z", "2023-04-03T11:35:00Z", "2023-04-03T11:35:00Z", "2023-04-03T11:55:00Z", "2023-04-03T11:08:00Z", "2023-04-03T10:54:00Z", "2023-04-03T11:35:00Z", "2023-04-03T11:25:00Z", "2023-04-03T11:35:00Z", "2023-04-03T11:11:00Z", "2023-04-03T10:54:00Z", "2023-04-03T11:47:00Z", "2023-04-03T10:55:00Z", "2023-04-03T10:55:00Z", "2023-04-03T10:53:00Z", "2023-04-03T10:53:00Z", "2023-04-03T10:53:00Z", "2023-04-03T10:56:00Z", "2023-04-03T10:56:00Z", "2023-04-03T11:35:00Z", "2023-04-03T11:35:00Z", "2023-04-03T11:35:00Z", "2023-04-03T11:35:00Z", "2023-04-03T11:30:00Z", "2023-04-03T11:35:00Z", "2023-04-03T10:55:00Z", "2023-04-03T11:17:00Z", "2023-04-03T10:55:00Z", "2023-04-03T11:35:00Z", "2023-04-03T11:35:00Z", "2023-04-03T11:53:00Z", "2023-04-03T11:51:00Z", "2023-04-03T11:35:00Z", "2023-04-03T11:35:00Z", "2023-04-03T11:35:00Z", "2023-04-03T11:35:00Z", "2023-04-03T10:56:00Z", "2023-04-03T11:55:00Z", "2023-04-03T11:35:00Z", "2023-04-03T11:35:00Z", "2023-04-03T10:53:00Z", "2023-04-03T10:53:00Z", "2023-04-03T10:56:00Z", "2023-04-03T10:51:00Z", "2023-04-03T11:35:00Z", "2023-04-03T11:35:00Z", "2023-04-03T10:53:00Z", "2023-04-03T11:50:00Z", "2023-04-03T11:30:00Z", "2023-04-03T11:30:00Z", "2023-04-03T11:00:00Z", "2023-04-03T11:30:00Z", "2023-04-03T11:00:00Z", "2023-04-03T11:00:00Z", "2023-04-03T11:30:00Z", "2023-04-03T11:00:00Z", "2023-04-03T11:30:00Z", "2023-04-03T11:20:00Z", "2023-04-03T11:30:00Z", "2023-04-03T11:30:00Z", "2023-04-03T11:20:00Z", "2023-04-03T11:30:00Z", "2023-04-03T11:30:00Z", "2023-04-03T11:30:00Z", "2023-04-03T11:30:00Z", "2023-04-03T11:30:00Z", "2023-04-03T11:30:00Z", "2023-04-03T11:30:00Z", "2023-04-03T11:30:00Z", "2023-04-03T11:30:00Z", "2023-04-03T11:30:00Z", "2023-04-03T11:30:00Z", "2023-04-03T11:30:00Z", "2023-04-03T11:30:00Z", "2023-04-03T11:30:00Z", "2023-04-03T11:30:00Z", "2023-04-03T11:30:00Z", "2023-04-03T11:30:00Z", "2023-04-03T11:30:00Z", "2023-04-03T11:30:00Z", "2023-04-03T11:30:00Z", "2023-04-03T11:30:00Z", "2023-04-03T11:30:00Z", "2023-04-03T11:30:00Z", "2023-04-03T11:30:00Z", "2023-04-03T11:30:00Z", "2023-04-03T11:30:00Z", "2023-04-03T11:30:00Z", "2023-04-03T11:30:00Z", "2023-04-03T11:30:00Z", "2023-04-03T11:30:00Z", "2023-04-03T11:30:00Z", "2023-04-03T11:30:00Z", "2023-04-03T11:30:00Z", "2023-04-03T11:30:00Z", "2023-04-03T11:30:00Z", "2023-04-03T11:30:00Z", "2023-04-03T11:30:00Z", "2023-04-03T11:30:00Z", "2023-04-03T11:30:00Z", "2023-04-03T11:30:00Z", "2023-04-03T11:30:00Z", "2023-04-03T11:30:00Z", "2023-04-03T11:30:00Z", "2023-04-03T11:30:00Z", "2023-04-03T11:30:00Z", "2023-04-03T11:30:00Z", "2023-04-03T11:30:00Z", "2023-04-03T11:00:00Z", "2023-04-03T11:30:00Z", "2023-04-03T11:30:00Z", "2023-04-03T11:30:00Z", "2023-04-03T11:30:00Z", "2023-04-03T11:30:00Z", "2023-04-03T11:30:00Z", "2023-04-03T11:30:00Z", "2023-04-03T11:30:00Z", "2023-04-03T11:30:00Z", "2023-04-03T11:30:00Z", "2023-04-03T11:30:00Z", "2023-04-03T11:30:00Z", "2023-04-03T11:30:00Z", "2023-04-03T11:30:00Z", "2023-04-03T11:30:00Z", "2023-04-03T11:30:00Z", "2023-04-03T11:30:00Z", "2023-04-03T11:30:00Z", "2023-04-03T11:30:00Z", "2023-04-03T11:30:00Z", "2023-04-03T11:30:00Z", "2023-04-03T11:30:00Z", "2023-04-03T11:30:00Z", "2023-04-03T11:30:00Z", "2023-04-03T11:30:00Z", "2023-04-03T11:30:00Z", "2023-04-03T11:30:00Z", "2023-04-03T11:30:00Z", "2023-04-03T11:30:00Z", "2023-04-03T11:30:00Z", "2023-04-03T11:30:00Z", "2023-04-03T11:30:00Z", "2023-04-03T11:30:00Z", "2023-04-03T11:30:00Z", "2023-04-03T11:30:00Z", "2023-04-03T11:30:00Z", "2023-04-03T11:30:00Z", "2023-04-03T11:30:00Z", "2023-04-03T11:30:00Z", "2023-04-03T11:30:00Z", "2023-04-03T11:30:00Z", "2023-04-03T11:30:00Z", "2023-04-03T11:30:00Z", "2023-04-03T11:30:00Z", "2023-04-03T11:30:00Z", "2023-04-03T11:30:00Z", "2023-04-03T11:30:00Z", "2023-04-03T11:30:00Z", "2023-04-03T11:30:00Z", "2023-04-03T11:30:00Z", "2023-04-03T11:30:00Z", "2023-04-03T11:30:00Z", "2023-04-03T11:30:00Z", "2023-04-03T11:30:00Z", "2023-04-03T11:30:00Z", "2023-04-03T11:30:00Z", "2023-04-03T11:30:00Z", "2023-04-03T11:30:00Z", "2023-04-03T11:30:00Z", "2023-04-03T11:30:00Z", "2023-04-03T11:30:00Z", "2023-04-03T11:30:00Z", "2023-04-03T11:30:00Z", "2023-04-03T11:30:00Z", "2023-04-03T11:30:00Z", "2023-04-03T11:30:00Z", "2023-04-03T11:30:00Z", "2023-04-03T11:30:00Z", "2023-04-03T11:30:00Z", "2023-04-03T11:30:00Z", "2023-04-03T11:30:00Z", "2023-04-03T11:30:00Z", "2023-04-03T11:30:00Z", "2023-04-03T11:30:00Z", "2023-04-03T11:30:00Z", "2023-04-03T11:30:00Z", "2023-04-03T11:30:00Z", "2023-04-03T11:30:00Z", "2023-04-03T11:30:00Z", "2023-04-03T11:30:00Z", "2023-04-03T11:30:00Z", "2023-04-03T11:30:00Z", "2023-04-03T11:30:00Z", "2023-04-03T11:30:00Z", "2023-04-03T11:30:00Z", "2023-04-03T11:30:00Z", "2023-04-03T11:30:00Z", "2023-04-03T11:30:00Z", "2023-04-03T11:30:00Z", "2023-04-03T11:30:00Z", "2023-04-03T11:30:00Z", "2023-04-03T11:30:00Z", "2023-04-03T11:30:00Z", "2023-04-03T11:30:00Z", "2023-04-03T11:30:00Z", "2023-04-03T11:30:00Z", "2023-04-03T11:30:00Z", "2023-04-03T11:30:00Z", "2023-04-03T11:30:00Z", "2023-04-03T11:30:00Z", "2023-04-03T11:30:00Z", "2023-04-03T11:30:00Z", "2023-04-03T11:30:00Z", "2023-04-03T11:30:00Z", "2023-04-03T11:30:00Z", "2023-04-03T11:30:00Z", "2023-04-03T11:30:00Z", "2023-04-03T11:30:00Z", "2023-04-03T11:30:00Z", "2023-04-03T11:30:00Z", "2023-04-03T11:30:00Z", "2023-04-03T11:30:00Z", "2023-04-03T11:30:00Z", "2023-04-03T11:30:00Z", "2023-04-03T11:30:00Z", "2023-04-03T11:30:00Z", "2023-04-03T11:30:00Z", "2023-04-03T11:30:00Z", "2023-04-03T11:30:00Z", "2023-04-03T11:30:00Z", "2023-04-03T11:30:00Z", "2023-04-03T11:30:00Z", "2023-04-03T11:30:00Z", "2023-04-03T11:30:00Z", "2023-04-03T11:20:00Z", "2023-04-03T11:20:00Z", "2023-04-03T11:50:00Z", "2023-04-03T11:20:00Z", "2023-04-03T11:20:00Z", "2023-04-03T11:20:00Z", "2023-04-03T11:50:00Z", "2023-04-03T10:50:00Z", "2023-04-03T10:50:00Z", "2023-04-03T11:20:00Z", "2023-04-03T11:20:00Z", "2023-04-03T11:20:00Z", "2023-04-03T11:50:00Z", "2023-04-03T11:20:00Z", "2023-04-03T10:50:00Z", "2023-04-03T11:20:00Z", "2023-04-03T11:20:00Z", "2023-04-03T11:20:00Z", "2023-04-03T11:20:00Z", "2023-04-03T11:50:00Z", "2023-04-03T11:20:00Z", "2023-04-03T11:20:00Z", "2023-04-03T11:20:00Z", "2023-04-03T10:50:00Z", "2023-04-03T10:50:00Z", "2023-04-03T11:20:00Z", "2023-04-03T11:20:00Z", "2023-04-03T10:50:00Z", "2023-04-03T11:30:00Z", "2023-04-03T11:15:00Z", "2023-04-03T11:15:00Z", "2023-04-03T11:15:00Z", "2023-04-03T11:15:00Z", "2023-04-03T11:15:00Z", "2023-04-03T11:15:00Z", "2023-04-03T11:15:00Z", "2023-04-03T10:55:00Z", "2023-04-03T10:56:00Z", "2023-04-03T11:20:00Z", "2023-04-03T11:16:00Z", "2023-04-03T10:50:00Z", "2023-04-03T10:55:00Z", "2023-04-03T11:20:00Z", "2023-04-03T10:55:00Z", "2023-04-03T11:20:00Z", "2023-04-03T10:55:00Z", "2023-04-03T10:55:00Z", "2023-04-03T11:20:00Z", "2023-04-03T11:20:00Z", "2023-04-03T11:20:00Z", "2023-04-03T11:20:00Z", "2023-04-03T10:55:00Z", "2023-04-03T10:50:00Z", "2023-04-03T11:20:00Z", "2023-04-03T11:20:00Z", "2023-04-03T10:55:00Z", "2023-04-03T10:55:00Z", "2023-04-03T11:20:00Z", "2023-04-03T10:55:00Z", "2023-04-03T10:55:00Z", "2023-04-03T11:20:00Z", "2023-04-03T11:20:00Z", "2023-04-03T10:50:00Z", "2023-04-03T11:20:00Z", "2023-04-03T11:20:00Z", "2023-04-03T11:20:00Z", "2023-04-03T10:50:00Z", "2023-04-03T10:55:00Z", "2023-04-03T11:20:00Z", "2023-04-03T10:55:00Z", "2023-04-03T11:20:00Z", "2023-04-03T10:55:00Z", "2023-04-03T10:50:00Z", "2023-04-03T10:55:00Z", "2023-04-03T10:55:00Z", "2023-04-03T10:55:00Z", "2023-04-03T11:20:00Z", "2023-04-03T10:55:00Z", "2023-04-03T11:20:00Z", "2023-04-03T10:55:00Z", "2023-04-03T10:50:00Z", "2023-04-03T10:55:00Z", "2023-04-03T11:20:00Z", "2023-04-03T10:55:00Z", "2023-04-03T11:20:00Z", "2023-04-03T10:55:00Z", "2023-04-03T10:50:00Z", "2023-04-03T10:55:00Z", "2023-04-03T11:20:00Z", "2023-04-03T11:20:00Z", "2023-04-03T11:20:00Z", "2023-04-03T10:55:00Z", "2023-04-03T11:20:00Z", "2023-04-03T11:20:00Z", "2023-04-03T11:20:00Z", "2023-04-03T10:55:00Z", "2023-04-03T10:50:00Z", "2023-04-03T10:55:00Z", "2023-04-03T11:20:00Z", "2023-04-03T10:55:00Z", "2023-04-03T11:20:00Z", "2023-04-03T10:55:00Z", "2023-04-03T10:55:00Z", "2023-04-03T10:50:00Z", "2023-04-03T10:55:00Z", "2023-04-03T10:55:00Z", "2023-04-03T10:55:00Z", "2023-04-03T11:20:00Z", "2023-04-03T11:15:00Z", "2023-04-03T11:20:00Z", "2023-04-03T10:55:00Z", "2023-04-03T10:55:00Z", "2023-04-03T10:50:00Z", "2023-04-03T10:55:00Z", "2023-04-03T10:55:00Z", "2023-04-03T11:20:00Z", "2023-04-03T10:55:00Z", "2023-04-03T10:55:00Z", "2023-04-03T10:55:00Z", "2023-04-03T10:55:00Z", "2023-04-03T10:55:00Z", "2023-04-03T10:55:00Z", "2023-04-03T10:55:00Z", "2023-04-03T10:55:00Z", "2023-04-03T10:55:00Z", "2023-04-03T11:30:00Z", "2023-04-03T11:30:00Z", "2023-04-03T11:30:00Z", "2023-04-03T11:30:00Z", "2023-04-03T11:30:00Z", "2023-04-03T11:00:00Z", "2023-04-03T11:00:00Z", "2023-04-03T11:30:00Z", "2023-04-03T11:00:00Z", "2023-04-03T11:30:00Z", "2023-04-03T11:30:00Z", "2023-04-03T11:30:00Z", "2023-04-03T11:30:00Z", "2023-04-03T11:30:00Z", "2023-04-03T11:00:00Z", "2023-04-03T11:50:00Z", "2023-04-03T11:50:00Z", "2023-04-03T11:50:00Z", "2023-04-03T11:50:00Z", "2023-04-03T11:45:00Z", "2023-04-03T11:00:00Z", "2023-04-03T11:00:00Z", "2023-04-03T11:20:00Z", "2023-04-03T11:20:00Z", "2023-04-03T11:20:00Z", "2023-04-03T11:20:00Z", "2023-04-03T11:20:00Z", "2023-04-03T11:20:00Z", "2023-04-03T11:20:00Z", "2023-04-03T11:00:00Z", "2023-04-03T11:30:00Z", "2023-04-03T11:00:00Z", "2023-04-03T11:30:00Z", "2023-04-03T11:30:00Z", "2023-04-03T11:30:00Z", "2023-04-03T11:30:00Z", "2023-04-03T11:00:00Z", "2023-04-03T11:30:00Z", "2023-04-03T11:00:00Z", "2023-04-03T11:00:00Z", "2023-04-03T11:00:00Z", "2023-04-03T11:30:00Z", "2023-04-03T11:30:00Z", "2023-04-03T11:30:00Z", "2023-04-03T11:30:00Z", "2023-04-03T11:00:00Z", "2023-04-03T11:30:00Z", "2023-04-03T11:30:00Z", "2023-04-03T11:30:00Z", "2023-04-03T11:30:00Z", "2023-04-03T11:30:00Z", "2023-04-03T11:30:00Z", "2023-04-03T11:30:00Z", "2023-04-03T11:30:00Z", "2023-04-03T11:30:00Z", "2023-04-03T11:30:00Z", "2023-04-03T11:30:00Z", "2023-04-03T11:30:00Z", "2023-04-03T11:30:00Z", "2023-04-03T11:30:00Z", "2023-04-03T11:30:00Z", "2023-04-03T11:30:00Z", "2023-04-03T11:30:00Z", "2023-04-03T11:30:00Z", "2023-04-03T11:30:00Z", "2023-04-03T11:30:00Z", "2023-04-03T11:50:00Z", "2023-04-03T11:50:00Z", "2023-04-03T11:50:00Z", "2023-04-03T11:50:00Z", "2023-04-03T11:50:00Z", "2023-04-03T11:50:00Z", "2023-04-03T11:50:00Z", "2023-04-03T11:50:00Z", "2023-04-03T11:50:00Z", "2023-04-03T11:50:00Z", "2023-04-03T11:50:00Z", "2023-04-03T11:50:00Z", "2023-04-03T11:50:00Z", "2023-04-03T11:50:00Z", "2023-04-03T11:50:00Z", "2023-04-03T11:50:00Z", "2023-04-03T11:20:00Z", "2023-04-03T10:50:00Z", "2023-04-03T11:20:00Z", "2023-04-03T11:20:00Z", "2023-04-03T11:20:00Z", "2023-04-03T11:20:00Z", "2023-04-03T10:50:00Z", "2023-04-03T10:50:00Z", "2023-04-03T11:20:00Z", "2023-04-03T10:50:00Z", "2023-04-03T10:50:00Z", "2023-04-03T11:20:00Z", "2023-04-03T11:20:00Z", "2023-04-03T10:50:00Z", "2023-04-03T10:50:00Z", "2023-04-03T11:20:00Z", "2023-04-03T11:20:00Z", "2023-04-03T10:50:00Z", "2023-04-03T10:50:00Z", "2023-04-03T10:50:00Z", "2023-04-03T11:20:00Z", "2023-04-03T11:23:00Z", "2023-04-03T10:50:00Z", "2023-04-03T10:50:00Z", "2023-04-03T11:20:00Z", "2023-04-03T11:20:00Z", "2023-04-03T11:20:00Z", "2023-04-03T10:50:00Z", "2023-04-03T10:50:00Z", "2023-04-03T10:50:00Z", "2023-04-03T11:20:00Z", "2023-04-03T10:50:00Z", "2023-04-03T11:20:00Z", "2023-04-03T10:50:00Z", "2023-04-03T11:20:00Z", "2023-04-03T10:50:00Z", "2023-04-03T11:20:00Z", "2023-04-03T10:50:00Z", "2023-04-03T10:50:00Z", "2023-04-03T10:50:00Z", "2023-04-03T10:50:00Z", "2023-04-03T10:50:00Z", "2023-04-03T10:50:00Z", "2023-04-03T11:20:00Z", "2023-04-03T10:50:00Z", "2023-04-03T10:50:00Z", "2023-04-03T10:50:00Z", "2023-04-03T10:50:00Z", "2023-04-03T10:50:00Z", "2023-04-03T10:50:00Z", "2023-04-03T11:20:00Z", "2023-04-03T10:50:00Z", "2023-04-03T11:20:00Z", "2023-04-03T10:50:00Z", "2023-04-03T10:50:00Z", "2023-04-03T11:20:00Z", "2023-04-03T10:50:00Z", "2023-04-03T11:20:00Z", "2023-04-03T10:50:00Z", "2023-04-03T11:30:00Z", "2023-04-03T11:30:00Z", "2023-04-03T11:30:00Z", "2023-04-03T11:50:00Z", "2023-04-03T11:30:00Z", "2023-04-03T11:30:00Z", "2023-04-03T11:30:00Z", "2023-04-03T11:30:00Z", "2023-04-03T11:30:00Z", "2023-04-03T11:30:00Z", "2023-04-03T11:30:00Z", "2023-04-03T11:30:00Z", "2023-04-03T11:30:00Z", "2023-04-03T11:30:00Z", "2023-04-03T11:30:00Z", "2023-04-03T11:30:00Z", "2023-04-03T11:00:00Z", "2023-04-03T11:00:00Z", "2023-04-03T11:00:00Z", "2023-04-03T11:00:00Z", "2023-04-03T11:00:00Z", "2023-04-03T11:00:00Z", "2023-04-03T11:00:00Z", "2023-04-03T11:00:00Z", "2023-04-03T11:00:00Z", "2023-04-03T11:00:00Z", "2023-04-03T11:00:00Z", "2023-04-03T11:00:00Z", "2023-04-03T10:49:00Z", "2023-04-03T10:43:00Z", "2023-04-03T11:49:00Z", "2023-04-03T11:11:00Z", "2023-04-03T11:41:00Z", "2023-04-03T11:40:00Z", "2023-04-03T11:50:00Z", "2023-04-03T11:00:00Z", "2023-04-03T10:45:00Z", "2023-04-03T10:41:00Z", "2023-04-03T10:43:00Z", "2023-04-03T11:40:00Z", "2023-04-03T10:45:00Z", "2023-04-03T10:41:00Z", "2023-04-03T11:12:00Z", "2023-04-03T11:28:00Z", "2023-04-03T10:41:00Z", "2023-04-03T11:53:00Z", "2023-04-03T10:43:00Z", "2023-04-03T10:56:00Z", "2023-04-03T11:53:00Z", "2023-04-03T11:10:00Z", "2023-04-03T10:56:00Z", "2023-04-03T10:46:00Z", "2023-04-03T11:00:00Z", "2023-04-03T11:00:00Z", "2023-04-03T11:00:00Z", "2023-04-03T11:00:00Z", "2023-04-03T11:00:00Z", "2023-04-03T11:50:00Z", "2023-04-03T10:55:00Z", "2023-04-03T10:50:00Z", "2023-04-03T10:59:00Z", "2023-04-03T10:50:00Z", "2023-04-03T10:50:00Z", "2023-04-03T10:50:00Z", "2023-04-03T11:51:00Z", "2023-04-03T10:50:00Z", "2023-04-03T10:50:00Z", "2023-04-03T10:50:00Z", "2023-04-03T10:50:00Z", "2023-04-03T11:00:00Z", "2023-04-03T11:00:00Z", "2023-04-03T11:00:00Z", "2023-04-03T11:00:00Z", "2023-04-03T11:00:00Z", "2023-04-03T11:00:00Z", "2023-04-03T11:00:00Z", "2023-04-03T11:00:00Z", "2023-04-03T11:00:00Z", "2023-04-03T11:00:00Z", "2023-04-03T11:00:00Z", "2023-04-03T11:00:00Z", "2023-04-03T11:00:00Z", "2023-04-03T11:00:00Z", "2023-04-03T11:00:00Z", "2023-04-03T11:00:00Z", "2023-04-03T11:30:00Z", "2023-04-03T11:00:00Z", "2023-04-03T11:00:00Z", "2023-04-03T11:00:00Z", "2023-04-03T11:00:00Z", "2023-04-03T11:00:00Z", "2023-04-03T11:00:00Z", "2023-04-03T11:00:00Z", "2023-04-03T11:30:00Z", "2023-04-03T11:00:00Z", "2023-04-03T11:50:00Z", "2023-04-03T11:30:00Z", "2023-04-03T11:00:00Z", "2023-04-03T11:30:00Z", "2023-04-03T11:30:00Z", "2023-04-03T11:30:00Z", "2023-04-03T10:55:00Z", "2023-04-03T11:30:00Z", "2023-04-03T11:30:00Z", "2023-04-03T11:00:00Z", "2023-04-03T11:00:00Z", "2023-04-03T11:00:00Z", "2023-04-03T11:00:00Z", "2023-04-03T11:00:00Z", "2023-04-03T11:00:00Z", "2023-04-03T11:00:00Z", "2023-04-03T11:00:00Z", "2023-04-03T11:00:00Z", "2023-04-03T11:00:00Z", "2023-04-03T11:00:00Z", "2023-04-03T11:00:00Z", "2023-04-03T11:00:00Z", "2023-04-03T11:00:00Z", "2023-04-03T11:00:00Z", "2023-04-03T11:00:00Z", "2023-04-03T11:00:00Z", "2023-04-03T11:00:00Z", "2023-04-03T11:00:00Z", "2023-04-03T11:00:00Z", "2023-04-03T10:55:00Z", "2023-04-03T11:00:00Z", "2023-04-03T11:00:00Z", "2023-04-03T11:00:00Z", "2023-04-03T11:00:00Z", "2023-04-03T11:00:00Z", "2023-04-03T11:00:00Z", "2023-04-03T11:00:00Z", "2023-04-03T11:00:00Z", "2023-04-03T11:00:00Z", "2023-04-03T11:00:00Z", "2023-04-03T11:00:00Z", "2023-04-03T11:00:00Z", "2023-04-03T11:00:00Z", "2023-04-03T11:00:00Z", "2023-04-03T10:51:00Z", "2023-04-03T11:00:00Z", "2023-04-03T11:30:00Z", "2023-04-03T11:00:00Z", "2023-04-03T11:00:00Z", "2023-04-03T11:00:00Z", "2023-04-03T11:30:00Z", "2023-04-03T11:00:00Z", "2023-04-03T11:30:00Z", "2023-04-03T11:00:00Z", "2023-04-03T11:00:00Z", "2023-04-03T11:00:00Z", "2023-04-03T11:30:00Z", "2023-04-03T11:30:00Z", "2023-04-03T11:00:00Z", "2023-04-03T11:00:00Z", "2023-04-03T11:00:00Z", "2023-04-03T11:00:00Z", "2023-04-03T11:00:00Z", "2023-04-03T11:30:00Z", "2023-04-03T11:00:00Z", "2023-04-03T11:30:00Z", "2023-04-03T10:50:00Z", "2023-04-03T11:00:00Z", "2023-04-03T11:00:00Z", "2023-04-03T11:00:00Z", "2023-04-03T11:00:00Z", "2023-04-03T11:30:00Z", "2023-04-03T11:00:00Z", "2023-04-03T11:30:00Z", "2023-04-03T11:30:00Z", "2023-04-03T11:00:00Z", "2023-04-03T11:00:00Z", "2023-04-03T11:00:00Z", "2023-04-03T11:00:00Z", "2023-04-03T10:51:00Z", "2023-04-03T11:00:00Z", "2023-04-03T11:00:00Z", "2023-04-03T11:30:00Z", "2023-04-03T11:00:00Z", "2023-04-03T11:00:00Z", "2023-04-03T11:00:00Z", "2023-04-03T11:00:00Z", "2023-04-03T11:00:00Z", "2023-04-03T11:00:00Z", "2023-04-03T11:00:00Z", "2023-04-03T11:00:00Z", "2023-04-03T11:00:00Z", "2023-04-03T11:30:00Z", "2023-04-03T11:00:00Z", "2023-04-03T11:00:00Z", "2023-04-03T11:00:00Z", "2023-04-03T11:30:00Z", "2023-04-03T11:30:00Z", "2023-04-03T11:00:00Z", "2023-04-03T11:00:00Z", "2023-04-03T11:00:00Z", "2023-04-03T11:00:00Z", "2023-04-03T11:00:00Z", "2023-04-03T11:30:00Z", "2023-04-03T11:30:00Z", "2023-04-03T11:00:00Z", "2023-04-03T11:30:00Z", "2023-04-03T11:00:00Z", "2023-04-03T11:00:00Z", "2023-04-03T11:30:00Z", "2023-04-03T11:00:00Z", "2023-04-03T11:00:00Z", "2023-04-03T10:55:00Z", "2023-04-03T11:00:00Z", "2023-04-03T11:00:00Z", "2023-04-03T11:00:00Z", "2023-04-03T11:00:00Z", "2023-04-03T11:00:00Z", "2023-04-03T11:00:00Z", "2023-04-03T11:00:00Z", "2023-04-03T11:00:00Z", "2023-04-03T11:00:00Z", "2023-04-03T11:00:00Z", "2023-04-03T10:50:00Z", "2023-04-03T10:50:00Z", "2023-04-03T10:50:00Z", "2023-04-03T10:50:00Z", "2023-04-03T10:50:00Z", "2023-04-03T10:50:00Z", "2023-04-03T11:30:00Z", "2023-04-03T11:30:00Z", "2023-04-03T11:25:00Z", "2023-04-03T11:30:00Z", "2023-04-03T11:00:00Z", "2023-04-03T11:30:00Z", "2023-04-03T11:00:00Z", "2023-04-03T11:00:00Z", "2023-04-03T11:00:00Z", "2023-04-03T11:30:00Z", "2023-04-03T10:55:00Z", "2023-04-03T11:00:00Z", "2023-04-03T11:35:00Z", "2023-04-03T10:53:00Z", "2023-04-03T11:52:00Z", "2023-04-03T10:53:00Z", "2023-04-03T11:08:00Z", "2023-04-03T10:56:00Z", "2023-04-03T10:53:00Z", "2023-04-03T10:53:00Z", "2023-04-03T10:56:00Z", "2023-04-03T10:53:00Z", "2023-04-03T10:56:00Z", "2023-04-03T10:53:00Z", "2023-04-03T10:56:00Z", "2023-04-03T10:56:00Z", "2023-04-03T10:56:00Z", "2023-04-03T10:53:00Z", "2023-04-03T11:44:00Z", "2023-04-03T10:55:00Z", "2023-04-03T10:53:00Z", "2023-04-03T11:36:00Z", "2023-04-03T10:55:00Z", "2023-04-03T10:53:00Z", "2023-04-03T10:53:00Z", "2023-04-03T10:55:00Z", "2023-04-03T10:56:00Z", "2023-04-03T10:56:00Z", "2023-04-03T10:55:00Z", "2023-04-03T11:01:00Z", "2023-04-03T10:53:00Z", "2023-04-03T10:56:00Z", "2023-04-03T10:56:00Z", "2023-04-03T11:38:00Z", "2023-04-03T10:53:00Z", "2023-04-03T10:56:00Z", "2023-04-03T11:23:00Z", "2023-04-03T10:53:00Z", "2023-04-03T11:02:00Z", "2023-04-03T11:32:00Z", "2023-04-03T10:56:00Z", "2023-04-03T10:56:00Z", "2023-04-03T10:55:00Z", "2023-04-03T10:56:00Z", "2023-04-03T10:53:00Z", "2023-04-03T10:56:00Z", "2023-04-03T10:56:00Z", "2023-04-03T10:56:00Z", "2023-04-03T10:56:00Z", "2023-04-03T10:54:00Z", "2023-04-03T10:56:00Z", "2023-04-03T11:43:00Z", "2023-04-03T11:45:00Z", "2023-04-03T10:53:00Z", "2023-04-03T10:53:00Z", "2023-04-03T11:35:00Z", "2023-04-03T10:56:00Z", "2023-04-03T10:53:00Z", "2023-04-03T11:45:00Z", "2023-04-03T11:27:00Z", "2023-04-03T11:52:00Z", "2023-04-03T10:53:00Z", "2023-04-03T10:56:00Z", "2023-04-03T10:56:00Z", "2023-04-03T11:53:00Z", "2023-04-03T10:56:00Z", "2023-04-03T10:53:00Z", "2023-04-03T11:13:00Z", "2023-04-03T10:56:00Z", "2023-04-03T10:53:00Z", "2023-04-03T10:56:00Z", "2023-04-03T10:56:00Z", "2023-04-03T10:56:00Z", "2023-04-03T10:56:00Z", "2023-04-03T10:53:00Z", "2023-04-03T10:53:00Z", "2023-04-03T10:53:00Z", "2023-04-03T11:05:00Z", "2023-04-03T10:53:00Z", "2023-04-03T11:03:00Z", "2023-04-03T10:56:00Z", "2023-04-03T10:56:00Z", "2023-04-03T10:56:00Z", "2023-04-03T11:53:00Z", "2023-04-03T10:56:00Z", "2023-04-03T11:13:00Z", "2023-04-03T10:53:00Z", "2023-04-03T10:56:00Z", "2023-04-03T10:56:00Z", "2023-04-03T10:56:00Z", "2023-04-03T11:30:00Z", "2023-04-03T10:53:00Z", "2023-04-03T10:55:00Z", "2023-04-03T10:56:00Z", "2023-04-03T11:45:00Z", "2023-04-03T11:52:00Z", "2023-04-03T11:40:00Z", "2023-04-03T11:39:00Z", "2023-04-03T10:53:00Z", "2023-04-03T10:55:00Z", "2023-04-03T10:53:00Z", "2023-04-03T11:35:00Z", "2023-04-03T11:31:00Z", "2023-04-03T10:56:00Z", "2023-04-03T10:56:00Z", "2023-04-03T10:53:00Z", "2023-04-03T10:53:00Z", "2023-04-03T10:56:00Z", "2023-04-03T11:40:00Z", "2023-04-03T10:56:00Z", "2023-04-03T10:53:00Z", "2023-04-03T10:56:00Z", "2023-04-03T11:52:00Z", "2023-04-03T11:38:00Z", "2023-04-03T10:56:00Z", "2023-04-03T10:56:00Z", "2023-04-03T11:43:00Z", "2023-04-03T10:56:00Z", "2023-04-03T11:25:00Z", "2023-04-03T11:03:00Z", "2023-04-03T10:54:00Z", "2023-04-03T11:51:00Z", "2023-04-03T10:55:00Z", "2023-04-03T11:37:00Z", "2023-04-03T10:53:00Z", "2023-04-03T11:13:00Z", "2023-04-03T10:54:00Z", "2023-04-03T10:57:00Z", "2023-04-03T10:53:00Z", "2023-04-03T10:56:00Z", "2023-04-03T10:54:00Z", "2023-04-03T10:55:00Z", "2023-04-03T11:20:00Z", "2023-04-03T10:53:00Z", "2023-04-03T11:40:00Z", "2023-04-03T11:00:00Z", "2023-04-03T10:56:00Z", "2023-04-03T11:36:00Z", "2023-04-03T10:52:00Z", "2023-04-03T11:50:00Z", "2023-04-03T10:53:00Z", "2023-04-03T10:50:00Z", "2023-04-03T10:55:00Z", "2023-04-03T11:30:00Z", "2023-04-03T11:30:00Z", "2023-04-03T11:30:00Z", "2023-04-03T11:30:00Z", "2023-04-03T11:30:00Z", "2023-04-03T11:30:00Z", "2023-04-03T11:30:00Z", "2023-04-03T11:00:00Z", "2023-04-03T11:30:00Z", "2023-04-03T11:00:00Z", "2023-04-03T11:00:00Z", "2023-04-03T11:30:00Z", "2023-04-03T11:00:00Z", "2023-04-03T11:00:00Z", "2023-04-03T11:00:00Z", "2023-04-03T11:00:00Z", "2023-04-03T11:00:00Z", "2023-04-03T11:00:00Z", "2023-04-03T11:00:00Z", "2023-04-03T11:00:00Z", "2023-04-03T11:30:00Z", "2023-04-03T11:00:00Z", "2023-04-03T11:00:00Z", "2023-04-03T11:00:00Z", "2023-04-03T11:00:00Z", "2023-04-03T11:00:00Z", "2023-04-03T11:00:00Z", "2023-04-03T11:00:00Z", "2023-04-03T11:30:00Z", "2023-04-03T11:00:00Z", "2023-04-03T11:00:00Z", "2023-04-03T11:00:00Z", "2023-04-03T11:00:00Z", "2023-04-03T11:00:00Z", "2023-04-03T11:00:00Z", "2023-04-03T11:00:00Z", "2023-04-03T11:00:00Z", "2023-04-03T11:00:00Z", "2023-04-03T10:56:00Z", "2023-04-03T11:00:00Z", "2023-04-03T11:00:00Z", "2023-04-03T11:00:00Z", "2023-04-03T11:00:00Z", "2023-04-03T11:00:00Z", "2023-04-03T11:00:00Z", "2023-04-03T11:00:00Z", "2023-04-03T11:00:00Z", "2023-04-03T11:00:00Z", "2023-04-03T11:00:00Z", "2023-04-03T11:00:00Z", "2023-04-03T11:00:00Z", "2023-04-03T11:00:00Z", "2023-04-03T11:30:00Z", "2023-04-03T10:55:00Z", "2023-04-03T11:00:00Z", "2023-04-03T10:55:00Z", "2023-04-03T11:00:00Z", "2023-04-03T11:00:00Z", "2023-04-03T11:00:00Z", "2023-04-03T10:55:00Z", "2023-04-03T11:30:00Z", "2023-04-03T11:00:00Z", "2023-04-03T10:55:00Z", "2023-04-03T11:00:00Z", "2023-04-03T11:00:00Z", "2023-04-03T11:00:00Z", "2023-04-03T11:30:00Z", "2023-04-03T10:59:00Z", "2023-04-03T10:55:00Z", "2023-04-03T11:00:00Z", "2023-04-03T11:00:00Z", "2023-04-03T11:00:00Z", "2023-04-03T11:00:00Z", "2023-04-03T11:00:00Z", "2023-04-03T11:00:00Z", "2023-04-03T11:00:00Z", "2023-04-03T10:56:00Z", "2023-04-03T11:00:00Z", "2023-04-03T11:00:00Z", "2023-04-03T11:00:00Z", "2023-04-03T11:00:00Z", "2023-04-03T11:00:00Z", "2023-04-03T11:00:00Z", "2023-04-03T11:00:00Z", "2023-04-03T11:00:00Z", "2023-04-03T11:00:00Z", "2023-04-03T11:20:00Z", "2023-04-03T11:00:00Z", "2023-04-03T11:00:00Z", "2023-04-03T11:00:00Z", "2023-04-03T11:00:00Z", "2023-04-03T11:00:00Z", "2023-04-03T11:00:00Z", "2023-04-03T11:00:00Z", "2023-04-03T11:00:00Z", "2023-04-03T11:00:00Z", "2023-04-03T11:00:00Z", "2023-04-03T11:00:00Z", "2023-04-03T11:00:00Z", "2023-04-03T11:15:00Z", "2023-04-03T11:00:00Z", "2023-04-03T11:00:00Z", "2023-04-03T11:00:00Z", "2023-04-03T11:00:00Z", "2023-04-03T11:00:00Z", "2023-04-03T11:00:00Z", "2023-04-03T11:00:00Z", "2023-04-03T11:00:00Z", "2023-04-03T11:00:00Z", "2023-04-03T11:00:00Z", "2023-04-03T11:00:00Z", "2023-04-03T11:15:00Z", "2023-04-03T11:00:00Z", "2023-04-03T11:00:00Z", "2023-04-03T11:00:00Z", "2023-04-03T11:00:00Z", "2023-04-03T11:00:00Z", "2023-04-03T11:00:00Z", "2023-04-03T11:00:00Z", "2023-04-03T11:00:00Z", "2023-04-03T11:00:00Z", "2023-04-03T11:00:00Z", "2023-04-03T11:40:00Z", "2023-04-03T11:00:00Z", "2023-04-03T11:00:00Z", "2023-04-03T11:00:00Z", "2023-04-03T11:00:00Z", "2023-04-03T11:00:00Z", "2023-04-03T11:00:00Z", "2023-04-03T11:00:00Z", "2023-04-03T11:00:00Z", "2023-04-03T11:00:00Z", "2023-04-03T11:00:00Z", "2023-04-03T11:00:00Z", "2023-04-03T11:00:00Z", "2023-04-03T11:00:00Z", "2023-04-03T11:00:00Z", "2023-04-03T11:00:00Z", "2023-04-03T11:00:00Z", "2023-04-03T11:00:00Z", "2023-04-03T11:00:00Z", "2023-04-03T11:00:00Z", "2023-04-03T11:00:00Z", "2023-04-03T11:00:00Z", "2023-04-03T11:00:00Z", "2023-04-03T11:00:00Z", "2023-04-03T11:00:00Z", "2023-04-03T11:00:00Z", "2023-04-03T11:00:00Z", "2023-04-03T11:00:00Z", "2023-04-03T11:00:00Z", "2023-04-03T11:00:00Z", "2023-04-03T11:00:00Z", "2023-04-03T11:00:00Z", "2023-04-03T11:00:00Z", "2023-04-03T11:00:00Z", "2023-04-03T11:00:00Z", "2023-04-03T11:00:00Z", "2023-04-03T11:00:00Z", "2023-04-03T11:00:00Z", "2023-04-03T11:00:00Z", "2023-04-03T11:00:00Z", "2023-04-03T11:00:00Z", "2023-04-03T11:00:00Z", "2023-04-03T11:00:00Z", "2023-04-03T11:00:00Z", "2023-04-03T11:00:00Z", "2023-04-03T11:00:00Z", "2023-04-03T11:15:00Z", "2023-04-03T11:00:00Z", "2023-04-03T11:00:00Z", "2023-04-03T11:00:00Z", "2023-04-03T11:00:00Z", "2023-04-03T11:00:00Z", "2023-04-03T11:00:00Z", "2023-04-03T11:00:00Z", "2023-04-03T11:00:00Z", "2023-04-03T11:00:00Z", "2023-04-03T11:00:00Z", "2023-04-03T11:00:00Z", "2023-04-03T11:00:00Z", "2023-04-03T11:00:00Z", "2023-04-03T11:15:00Z", "2023-04-03T11:01:00Z", "2023-04-03T11:00:00Z", "2023-04-03T11:00:00Z", "2023-04-03T11:00:00Z", "2023-04-03T11:00:00Z", "2023-04-03T11:00:00Z", "2023-04-03T11:00:00Z", "2023-04-03T11:00:00Z", "2023-04-03T11:00:00Z", "2023-04-03T11:00:00Z", "2023-04-03T11:00:00Z", "2023-04-03T11:00:00Z", "2023-04-03T11:00:00Z", "2023-04-03T11:00:00Z", "2023-04-03T11:00:00Z", "2023-04-03T11:00:00Z", "2023-04-03T11:00:00Z", "2023-04-03T11:00:00Z", "2023-04-03T11:00:00Z", "2023-04-03T11:00:00Z", "2023-04-03T11:00:00Z", "2023-04-03T11:00:00Z", "2023-04-03T11:00:00Z", "2023-04-03T11:00:00Z", "2023-04-03T11:00:00Z", "2023-04-03T11:00:00Z", "2023-04-03T11:00:00Z", "2023-04-03T11:00:00Z", "2023-04-03T11:00:00Z", "2023-04-03T11:00:00Z", "2023-04-03T11:00:00Z", "2023-04-03T11:00:00Z", "2023-04-03T11:00:00Z", "2023-04-03T11:00:00Z", "2023-04-03T11:00:00Z", "2023-04-03T11:00:00Z", "2023-04-03T11:00:00Z", "2023-04-03T11:00:00Z", "2023-04-03T11:00:00Z", "2023-04-03T11:00:00Z", "2023-04-03T10:50:00Z", "2023-04-03T11:30:00Z", "2023-04-03T11:00:00Z", "2023-04-03T11:00:00Z", "2023-04-03T11:00:00Z", "2023-04-03T11:00:00Z", "2023-04-03T11:00:00Z", "2023-04-03T11:00:00Z", "2023-04-03T11:00:00Z", "2023-04-03T11:00:00Z", "2023-04-03T11:00:00Z", "2023-04-03T11:00:00Z", "2023-04-03T11:00:00Z", "2023-04-03T11:00:00Z", "2023-04-03T11:00:00Z", "2023-04-03T11:00:00Z", "2023-04-03T11:00:00Z", "2023-04-03T11:00:00Z", "2023-04-03T11:00:00Z", "2023-04-03T11:00:00Z", "2023-04-03T11:00:00Z", "2023-04-03T11:00:00Z", "2023-04-03T11:00:00Z", "2023-04-03T11:00:00Z", "2023-04-03T11:00:00Z", "2023-04-03T11:00:00Z", "2023-04-03T11:00:00Z", "2023-04-03T11:00:00Z", "2023-04-03T11:00:00Z", "2023-04-03T11:00:00Z", "2023-04-03T11:00:00Z", "2023-04-03T11:00:00Z", "2023-04-03T11:00:00Z", "2023-04-03T11:00:00Z", "2023-04-03T11:00:00Z", "2023-04-03T11:00:00Z", "2023-04-03T11:23:00Z", "2023-04-03T11:00:00Z", "2023-04-03T11:00:00Z", "2023-04-03T11:00:00Z", "2023-04-03T11:00:00Z", "2023-04-03T11:00:00Z", "2023-04-03T11:00:00Z", "2023-04-03T11:00:00Z", "2023-04-03T11:00:00Z", "2023-04-03T11:00:00Z", "2023-04-03T11:30:00Z", "2023-04-03T11:00:00Z", "2023-04-03T11:00:00Z", "2023-04-03T11:00:00Z", "2023-04-03T11:00:00Z", "2023-04-03T11:30:00Z", "2023-04-03T11:00:00Z", "2023-04-03T11:00:00Z", "2023-04-03T11:00:00Z", "2023-04-03T11:00:00Z", "2023-04-03T11:00:00Z", "2023-04-03T11:40:00Z", "2023-04-03T11:00:00Z", "2023-04-03T11:00:00Z", "2023-04-03T11:00:00Z", "2023-04-03T11:30:00Z", "2023-04-03T11:00:00Z", "2023-04-03T11:00:00Z", "2023-04-03T11:00:00Z", "2023-04-03T11:00:00Z", "2023-04-03T11:00:00Z", "2023-04-03T11:00:00Z", "2023-04-03T11:00:00Z", "2023-04-03T11:00:00Z", "2023-04-03T11:00:00Z", "2023-04-03T11:00:00Z", "2023-04-03T11:00:00Z", "2023-04-03T11:00:00Z", "2023-04-03T11:00:00Z", "2023-04-03T11:00:00Z", "2023-04-03T11:00:00Z", "2023-04-03T11:00:00Z", "2023-04-03T11:30:00Z", "2023-04-03T11:30:00Z", "2023-04-03T11:00:00Z", "2023-04-03T10:53:00Z", "2023-04-03T10:53:00Z", "2023-04-03T11:50:00Z", "2023-04-03T11:45:00Z", "2023-04-03T11:53:00Z", "2023-04-03T11:30:00Z", "2023-04-03T10:56:00Z", "2023-04-03T11:00:00Z", "2023-04-03T11:00:00Z", "2023-04-03T11:00:00Z", "2023-04-03T10:55:00Z", "2023-04-03T11:00:00Z", "2023-04-03T10:55:00Z", "2023-04-03T11:00:00Z", "2023-04-03T11:00:00Z", "2023-04-03T11:00:00Z", "2023-04-03T11:00:00Z", "2023-04-03T11:00:00Z", "2023-04-03T11:00:00Z", "2023-04-03T11:55:00Z", "2023-04-03T11:30:00Z", "2023-04-03T11:30:00Z", "2023-04-03T11:30:00Z", "2023-04-03T11:30:00Z", "2023-04-03T11:30:00Z", "2023-04-03T11:30:00Z", "2023-04-03T11:30:00Z", "2023-04-03T11:30:00Z", "2023-04-03T11:30:00Z", "2023-04-03T11:30:00Z", "2023-04-03T11:30:00Z", "2023-04-03T11:30:00Z", "2023-04-03T11:30:00Z", "2023-04-03T11:30:00Z", "2023-04-03T11:30:00Z", "2023-04-03T11:30:00Z", "2023-04-03T11:30:00Z", "2023-04-03T11:30:00Z", "2023-04-03T11:30:00Z", "2023-04-03T11:30:00Z", "2023-04-03T11:30:00Z", "2023-04-03T11:30:00Z", "2023-04-03T11:30:00Z", "2023-04-03T11:00:00Z", "2023-04-03T11:30:00Z", "2023-04-03T11:00:00Z", "2023-04-03T11:00:00Z", "2023-04-03T11:30:00Z", "2023-04-03T11:00:00Z", "2023-04-03T11:00:00Z", "2023-04-03T11:30:00Z", "2023-04-03T11:30:00Z", "2023-04-03T11:30:00Z", "2023-04-03T11:30:00Z", "2023-04-03T11:30:00Z", "2023-04-03T11:30:00Z", "2023-04-03T11:30:00Z", "2023-04-03T11:30:00Z", "2023-04-03T11:30:00Z", "2023-04-03T11:30:00Z", "2023-04-03T11:30:00Z", "2023-04-03T11:30:00Z", "2023-04-03T11:30:00Z", "2023-04-03T11:30:00Z", "2023-04-03T11:30:00Z", "2023-04-03T11:00:00Z", "2023-04-03T11:00:00Z", "2023-04-03T11:00:00Z", "2023-04-03T11:30:00Z", "2023-04-03T11:30:00Z", "2023-04-03T11:30:00Z", "2023-04-03T11:30:00Z", "2023-04-03T11:30:00Z", "2023-04-03T11:30:00Z", "2023-04-03T11:30:00Z", "2023-04-03T11:30:00Z", "2023-04-03T11:30:00Z", "2023-04-03T11:30:00Z", "2023-04-03T11:30:00Z", "2023-04-03T11:00:00Z", "2023-04-03T11:30:00Z", "2023-04-03T11:20:00Z", "2023-04-03T11:30:00Z", "2023-04-03T11:30:00Z", "2023-04-03T11:00:00Z", "2023-04-03T11:30:00Z", "2023-04-03T11:00:00Z", "2023-04-03T11:30:00Z", "2023-04-03T11:30:00Z", "2023-04-03T11:30:00Z", "2023-04-03T11:30:00Z", "2023-04-03T11:30:00Z", "2023-04-03T11:30:00Z", "2023-04-03T11:30:00Z", "2023-04-03T11:30:00Z", "2023-04-03T11:30:00Z", "2023-04-03T11:30:00Z", "2023-04-03T11:30:00Z", "2023-04-03T11:30:00Z", "2023-04-03T11:30:00Z", "2023-04-03T11:30:00Z", "2023-04-03T11:30:00Z", "2023-04-03T11:30:00Z", "2023-04-03T11:30:00Z", "2023-04-03T11:30:00Z", "2023-04-03T11:30:00Z", "2023-04-03T11:30:00Z", "2023-04-03T11:30:00Z", "2023-04-03T11:30:00Z", "2023-04-03T11:30:00Z", "2023-04-03T11:30:00Z", "2023-04-03T11:30:00Z", "2023-04-03T11:30:00Z", "2023-04-03T11:30:00Z", "2023-04-03T11:30:00Z", "2023-04-03T11:30:00Z", "2023-04-03T11:30:00Z", "2023-04-03T11:30:00Z", "2023-04-03T11:00:00Z", "2023-04-03T11:00:00Z", "2023-04-03T11:00:00Z", "2023-04-03T11:00:00Z", "2023-04-03T11:00:00Z", "2023-04-03T11:30:00Z", "2023-04-03T11:30:00Z", "2023-04-03T11:30:00Z", "2023-04-03T11:30:00Z", "2023-04-03T11:30:00Z", "2023-04-03T11:30:00Z", "2023-04-03T11:30:00Z", "2023-04-03T11:30:00Z", "2023-04-03T11:18:22Z", "2023-04-03T11:30:00Z", "2023-04-03T11:30:00Z", "2023-04-03T11:30:00Z", "2023-04-03T11:30:00Z", "2023-04-03T11:30:00Z", "2023-04-03T11:30:00Z", "2023-04-03T11:30:00Z", "2023-04-03T11:30:00Z", "2023-04-03T11:30:00Z", "2023-04-03T11:30:00Z", "2023-04-03T11:30:00Z", "2023-04-03T11:30:00Z", "2023-04-03T11:30:00Z", "2023-04-03T11:30:00Z", "2023-04-03T11:30:00Z", "2023-04-03T11:30:00Z", "2023-04-03T11:30:00Z", "2023-04-03T11:30:00Z", "2023-04-03T11:30:00Z", "2023-04-03T11:30:00Z", "2023-04-03T11:30:00Z", "2023-04-03T11:30:00Z", "2023-04-03T11:30:00Z", "2023-04-03T11:30:00Z", "2023-04-03T11:00:00Z", "2023-04-03T11:30:00Z", "2023-04-03T11:00:00Z", "2023-04-03T11:30:00Z", "2023-04-03T11:30:00Z", "2023-04-03T11:30:00Z", "2023-04-03T11:30:00Z", "2023-04-03T11:30:00Z", "2023-04-03T11:00:00Z", "2023-04-03T11:30:00Z", "2023-04-03T11:30:00Z", "2023-04-03T11:30:00Z", "2023-04-03T11:30:00Z", "2023-04-03T11:00:00Z", "2023-04-03T11:00:00Z", "2023-04-03T11:30:00Z", "2023-04-03T11:00:00Z", "2023-04-03T11:30:00Z", "2023-04-03T11:00:00Z", "2023-04-03T11:30:00Z", "2023-04-03T11:30:00Z", "2023-04-03T11:00:00Z", "2023-04-03T11:30:00Z", "2023-04-03T11:30:00Z", "2023-04-03T11:30:00Z", "2023-04-03T11:10:00Z", "2023-04-03T11:30:00Z", "2023-04-03T11:30:00Z", "2023-04-03T11:30:00Z", "2023-04-03T11:30:00Z", "2023-04-03T11:30:00Z", "2023-04-03T11:30:00Z", "2023-04-03T11:00:00Z", "2023-04-03T11:30:00Z", "2023-04-03T11:00:00Z", "2023-04-03T11:30:00Z", "2023-04-03T11:30:00Z", "2023-04-03T11:30:00Z", "2023-04-03T11:30:00Z", "2023-04-03T11:30:00Z", "2023-04-03T11:30:00Z", "2023-04-03T11:00:00Z", "2023-04-03T11:00:00Z", "2023-04-03T11:30:00Z", "2023-04-03T11:00:00Z", "2023-04-03T11:30:00Z", "2023-04-03T11:30:00Z", "2023-04-03T11:30:00Z", "2023-04-03T11:30:00Z", "2023-04-03T11:30:00Z", "2023-04-03T11:30:00Z", "2023-04-03T11:30:00Z", "2023-04-03T11:30:00Z", "2023-04-03T11:30:00Z", "2023-04-03T11:30:00Z", "2023-04-03T11:30:00Z", "2023-04-03T11:30:00Z", "2023-04-03T11:00:00Z", "2023-04-03T11:00:00Z", "2023-04-03T11:30:00Z", "2023-04-03T11:30:00Z", "2023-04-03T11:30:00Z", "2023-04-03T11:30:00Z", "2023-04-03T11:30:00Z", "2023-04-03T11:00:00Z", "2023-04-03T11:30:00Z", "2023-04-03T11:30:00Z", "2023-04-03T11:30:00Z", "2023-04-03T11:30:00Z", "2023-04-03T11:30:00Z", "2023-04-03T11:30:00Z", "2023-04-03T11:30:00Z", "2023-04-03T11:30:00Z", "2023-04-03T11:30:00Z", "2023-04-03T11:30:00Z", "2023-04-03T11:30:00Z", "2023-04-03T11:30:00Z", "2023-04-03T11:30:00Z", "2023-04-03T11:30:00Z", "2023-04-03T11:30:00Z", "2023-04-03T11:00:00Z", "2023-04-03T11:00:00Z", "2023-04-03T11:30:00Z", "2023-04-03T11:30:00Z", "2023-04-03T11:00:00Z", "2023-04-03T11:30:00Z", "2023-04-03T11:30:00Z", "2023-04-03T11:30:00Z", "2023-04-03T11:30:00Z", "2023-04-03T11:00:00Z", "2023-04-03T11:00:00Z", "2023-04-03T11:30:00Z", "2023-04-03T11:30:00Z", "2023-04-03T11:30:00Z", "2023-04-03T11:30:00Z", "2023-04-03T11:00:00Z", "2023-04-03T11:00:00Z", "2023-04-03T11:00:00Z", "2023-04-03T11:00:00Z", "2023-04-03T11:00:00Z", "2023-04-03T11:00:00Z", "2023-04-03T11:00:00Z", "2023-04-03T11:00:00Z", "2023-04-03T11:00:00Z", "2023-04-03T11:00:00Z", "2023-04-03T11:00:00Z", "2023-04-03T11:00:00Z", "2023-04-03T11:00:00Z", "2023-04-03T11:00:00Z", "2023-04-03T11:00:00Z", "2023-04-03T11:00:00Z", "2023-04-03T11:00:00Z", "2023-04-03T11:30:00Z", "2023-04-03T11:00:00Z", "2023-04-03T11:30:00Z", "2023-04-03T11:00:00Z", "2023-04-03T11:00:00Z", "2023-04-03T11:00:00Z", "2023-04-03T11:00:00Z", "2023-04-03T11:00:00Z", "2023-04-03T11:00:00Z", "2023-04-03T11:00:00Z", "2023-04-03T11:00:00Z", "2023-04-03T11:00:00Z", "2023-04-03T11:00:00Z", "2023-04-03T11:30:00Z", "2023-04-03T11:30:00Z", "2023-04-03T11:30:00Z", "2023-04-03T11:30:00Z", "2023-04-03T11:30:00Z", "2023-04-03T11:30:00Z", "2023-04-03T11:30:00Z", "2023-04-03T11:30:00Z", "2023-04-03T11:30:00Z", "2023-04-03T11:30:00Z", "2023-04-03T11:00:00Z", "2023-04-03T11:30:00Z", "2023-04-03T11:30:00Z", "2023-04-03T11:30:00Z", "2023-04-03T11:30:00Z", "2023-04-03T11:30:00Z", "2023-04-03T11:30:00Z", "2023-04-03T11:30:00Z", "2023-04-03T11:30:00Z", "2023-04-03T11:30:00Z", "2023-04-03T11:30:00Z", "2023-04-03T11:30:00Z", "2023-04-03T11:00:00Z", "2023-04-03T11:30:00Z", "2023-04-03T11:30:00Z", "2023-04-03T11:00:00Z", "2023-04-03T11:30:00Z", "2023-04-03T11:00:00Z", "2023-04-03T11:00:00Z", "2023-04-03T11:00:00Z", "2023-04-03T11:30:00Z", "2023-04-03T11:00:00Z", "2023-04-03T11:00:00Z", "2023-04-03T11:00:00Z", "2023-04-03T11:00:00Z", "2023-04-03T11:30:00Z", "2023-04-03T11:30:00Z", "2023-04-03T11:30:00Z", "2023-04-03T11:30:00Z", "2023-04-03T11:30:00Z", "2023-04-03T11:30:00Z", "2023-04-03T11:30:00Z", "2023-04-03T11:30:00Z", "2023-04-03T11:00:00Z", "2023-04-03T11:30:00Z", "2023-04-03T11:30:00Z", "2023-04-03T11:00:00Z", "2023-04-03T11:00:00Z", "2023-04-03T11:00:00Z", "2023-04-03T11:00:00Z", "2023-04-03T11:00:00Z", "2023-04-03T11:00:00Z", "2023-04-03T11:00:00Z", "2023-04-03T11:00:00Z", "2023-04-03T11:00:00Z", "2023-04-03T11:30:00Z", "2023-04-03T11:00:00Z", "2023-04-03T11:00:00Z", "2023-04-03T11:00:00Z", "2023-04-03T11:30:00Z", "2023-04-03T11:00:00Z", "2023-04-03T11:00:00Z", "2023-04-03T11:00:00Z", "2023-04-03T11:30:00Z", "2023-04-03T11:30:00Z", "2023-04-03T11:30:00Z", "2023-04-03T11:30:00Z", "2023-04-03T11:46:00Z", "2023-04-03T11:30:00Z", "2023-04-03T11:48:00Z", "2023-04-03T11:30:00Z", "2023-04-03T11:30:00Z", "2023-04-03T11:30:00Z", "2023-04-03T11:30:00Z", "2023-04-03T11:30:00Z", "2023-04-03T11:30:00Z", "2023-04-03T11:30:00Z", "2023-04-03T11:30:00Z", "2023-04-03T11:30:00Z", "2023-04-03T11:30:00Z", "2023-04-03T11:30:00Z", "2023-04-03T11:30:00Z", "2023-04-03T11:30:00Z", "2023-04-03T11:30:00Z", "2023-04-03T11:30:00Z", "2023-04-03T11:30:00Z", "2023-04-03T11:30:00Z", "2023-04-03T11:30:00Z", "2023-04-03T11:30:00Z", "2023-04-03T11:30:00Z", "2023-04-03T11:30:00Z", "2023-04-03T11:30:00Z", "2023-04-03T11:30:00Z", "2023-04-03T11:30:00Z", "2023-04-03T11:30:00Z", "2023-04-03T11:30:00Z", "2023-04-03T11:30:00Z", "2023-04-03T11:30:00Z", "2023-04-03T11:30:00Z", "2023-04-03T11:30:00Z", "2023-04-03T11:30:00Z", "2023-04-03T11:30:00Z", "2023-04-03T11:32:00Z", "2023-04-03T11:30:00Z", "2023-04-03T11:30:00Z", "2023-04-03T11:30:00Z", "2023-04-03T11:30:00Z", "2023-04-03T11:30:00Z", "2023-04-03T11:30:00Z", "2023-04-03T11:30:00Z", "2023-04-03T11:30:00Z", "2023-04-03T11:00:00Z", "2023-04-03T11:00:00Z", "2023-04-03T11:30:00Z", "2023-04-03T11:30:00Z", "2023-04-03T11:30:00Z", "2023-04-03T11:00:00Z", "2023-04-03T11:00:00Z", "2023-04-03T11:00:00Z", "2023-04-03T11:00:00Z", "2023-04-03T11:00:00Z", "2023-04-03T11:00:00Z", "2023-04-03T11:00:00Z", "2023-04-03T11:00:00Z", "2023-04-03T11:00:00Z", "2023-04-03T11:00:00Z", "2023-04-03T11:00:00Z", "2023-04-03T11:30:00Z", "2023-04-03T11:00:00Z", "2023-04-03T11:00:00Z", "2023-04-03T11:00:00Z", "2023-04-03T11:30:00Z", "2023-04-03T11:00:00Z", "2023-04-03T11:00:00Z", "2023-04-03T11:00:00Z", "2023-04-03T11:30:00Z", "2023-04-03T11:00:00Z", "2023-04-03T11:30:00Z", "2023-04-03T11:00:00Z", "2023-04-03T11:00:00Z", "2023-04-03T11:00:00Z", "2023-04-03T11:00:00Z", "2023-04-03T11:00:00Z", "2023-04-03T11:30:00Z", "2023-04-03T11:00:00Z", "2023-04-03T11:00:00Z", "2023-04-03T11:30:00Z", "2023-04-03T11:30:00Z"], "raw_text": ["AGGH 031100Z 16003KT 9999 FEW016 FEW017CB 25/25 Q1009 RMK CB TO N,S", "AYPY 031100Z VRB03KT 9999 SCT030 BKN060 26/25 Q1008", "BGBW 031150Z 06036G46KT 9999 FEW080 SCT130 BKN210 08/M09 Q0993", "BGGH 031150Z 04012KT 9999 FEW200 M03/M10 Q1000", "BGJN 031150Z 16003KT 9999 SKC M15/M18 Q1012", "BGKK 031050Z 06007KT 360V100 9999 FEW012 BKN100 M03/M07 Q1011", "BGSF 031150Z AUTO 21005KT 9999NDV NCD M14/M19 Q1010", "BGTL 031145Z 10006KT 9999 SCT009 M27/M31 A3012 RMK AO2A SLP193 TSNO $", "BIAR 031100Z VRB02KT CAVOK 04/M01 Q1011", "BIEG 031100Z 18011KT 9999 SCT027 BKN038 BKN082 07/03 Q1015", "BIIS 031100Z VRB03KT 9999 -RA OVC025 03/M01 Q1009", "BIKF 031130Z 10025G35KT 9999 -RA BKN012 OVC043 08/06 Q1001", "BIRK 031100Z 11017G27KT 9999 -DZ BKN028 OVC040 08/06 Q1002", "BITN 031100Z 12013KT 9999 FEW035 07/02 Q1014", "BIVM 031100Z 09030G44KT 0900 +RA FG OVC002 07/07 Q1003", "BK12 031055Z 02006G16KT 9999 SCT029 BKN033 OVC060 11/04 A2979 RMK AO2 SLP099 WND DATA ESTMD T01080038", "CAHR 031100Z AUTO 28010G18KT M06/M14 RMK AO1 SOG 23 3030 PK WND 30021/1036 SLP148 T10611137", "CBAR 031140Z AUTO 08010KT ////SM FEW004 SCT037 BKN055 M23/M25 A2994", "CBBC 031150Z AUTO 00000KT 1 1/4SM BR OVC003 M03/M03 A3008 RMK SLP189", "CERM 031100Z AUTO 29001KT M14/M16 RMK AO1 SOG 84 2015 SLP180 T11391155", "CMFM 031100Z AUTO 30001KT M18/M20 RMK AO1 SOG 117 3003 SLP167 T11801199", "CMGB 031100Z AUTO 17002KT M02/M11 RMK AO1 SLP177 T10191108 56003", "CPIN 031100Z AUTO 11020KT ////SM ////// ///// A////", "CTCK 031100Z AUTO 22001KT M03/M07 RMK AO1 SOG 29 5005 SLP164 T10251070", "CTNK 031100Z AUTO 16003KT M03/M04 RMK AO1 SOG 49 6035 SLP089 T10271035 50006", "CTRA 031100Z AUTO 00000KT M07/M09 RMK AO1 SOG 37 3034 SLP058 T10741089 50002", "CWAF 031100Z AUTO 00000KT M05/M10 RMK AO1 T10451103", "CWAJ 031100Z AUTO 17008KT RMK AO1 56013", "CWAQ 031100Z AUTO 33008KT M08/M10 RMK AO1 3010 SLP118 T10831101 50004", "CWAR 031100Z AUTO 22027KT M00/M05 RMK AO1 PK WND 22031/1057 SLP043 T10011052 51036", "CWAV 031100Z AUTO 23001KT M09/M10 RMK AO1 SOG 13 3007 SLP136 T10861098", "CWBA 031100Z AUTO 16009KT M02/M02 RMK AO1 4PAST HR SOG 59 M P0002 T10171022 50004", "CWBO 031100Z AUTO 03005KT M02/M03 RMK AO1 SLP125 T10221030 53005", "CWBS 031100Z AUTO 19013KT M01/M07 RMK AO1 PK WND 20017/1036 T10121071", "CWBT 031100Z AUTO 28004KT M09/M15 RMK AO1 SLP080 T10921148 53031", "CWBU 031100Z AUTO 05008KT M17/M22 RMK AO1 SOG 28 3015 SLP192 T11711218", "CWBV 031100Z AUTO 30019G27KT M03/M14 RMK AO1 PK WND 29027/1058 SLP152 T10291140 51035", "CWBY 031100Z AUTO 27012G19KT M08/M14 RMK AO1 SOG 29 2032 PK WND 27021/1047 SLP088 T10811136", "CWBZ 031100Z AUTO 06002KT M03/M06 RMK AO1 SLP158 T10271060 56008", "CWCF 031100Z AUTO 06007KT M16/M22 RMK AO1 SOG 08 3025 SLP161 T11551220", "CWCI 031100Z AUTO 28021KT 02/01 RMK AO1 3010 PK WND 27026/1012 SLP006 T00190008 50038", "CWCJ 031100Z AUTO 03005KT M01/M01 RMK AO1 4PAST HR SOG 73 3007 SLP005 P0002 T10071014 50037", "CWCO 031100Z AUTO 19010G17KT 05/00 RMK AO1 PK WND 20017/1059 SLP060 T00510000 58035", "CWCT 031100Z AUTO 08004KT M05/M05 RMK AO1 SOG 24 3007 SLP145 T10491051", "CWDA 031100Z AUTO 00027KT M01/ RMK AO1 T1011", "CWDC 031100Z AUTO 09002KT M11/M14 RMK AO1 1PAST HR SOG 68 3003 SLP171 P0000 T11131136 50001", "CWDJ 031100Z AUTO 08008KT M11/M14 RMK AO1 1PAST HR SOG 06 3013 SLP140 P0000 T11091137 50002", "CWDK 031100Z AUTO 34002KT M03/M05 RMK AO1 SOG 01 3003 SLP127 T10291052", "CWDM 031100Z AUTO 25012KT M05/M07 RMK AO1 SOG 03 3039 PK WND 26019/1024 SLP973 T10451074", "CWDO 031100Z AUTO 23019G28KT M02/M06 RMK AO1 PK WND 23029/1025 SLP950 T10191059 53025", "CWDQ 031100Z AUTO 12001KT M08/M11 RMK AO1 SOG 50 5000 SLP158 T10841114", "CWDV 031100Z AUTO 05005KT M07/M09 RMK AO1 SOG 67 3032 SLP037 T10721093 50009", "CWDZ 031100Z AUTO 00000KT M01/M03 RMK AO1 SLP124 T10081032 53003", "CWEB 031100Z AUTO 00035KT 03/01 RMK AO1 3008 SLP169 T00260012 50002", "CWEE 031100Z AUTO M12/M14 RMK AO1 SLP122 T11211140 58006", "CWEF 031100Z AUTO 28030G36KT M03/M07 RMK AO1 PK WND 27040/1004 SLP062 T10251070 53035", "CWEH 031100Z AUTO 33004KT M09/M10 RMK AO1 SOG 47 3008 SLP116 T10871102 50001", "CWEL 031100Z AUTO 28016KT 06/02 RMK AO1 PK WND 28019/1045 SLP153 T00570017 51009", "CWEP 031100Z AUTO 27015G22KT M04/M10 RMK AO1 SOG 12 1030 PK WND 27025/1002 SLP139 T10421102", "CWEQ 031100Z AUTO 04008KT M18/M21 RMK AO1 SOG 40 2017 SLP184 T11781211", "CWER 031100Z AUTO 23008KT RMK AO1", "CWEU 031100Z 11011KT 15SM IC SKC M32/M36 A3040 RMK SLP313", "CWEW 031100Z AUTO 16004KT M02/M07 RMK AO1 SLP175 T10171069 55004", "CWEZ 031100Z AUTO 27005KT 03/02 RMK AO1 8PAST HR 1006 SLP150 P0003 T00290023 50080", "CWFD 031100Z AUTO ///// ////SM ////// M22/M24 A////", "CWFF 031100Z AUTO 08005KT M18/M21 RMK AO1 SOG 23 3012 SLP188 T11781212", "CWFJ 031100Z AUTO 29003KT M04/M06 RMK AO1 T10401058", "CWFQ 031100Z AUTO 16005KT M03/M12 RMK AO1 SLP172 T10331117 56005", "CWGB 031100Z AUTO 29013G19KT 06/ RMK AO1 PK WND 25020/1011 SLP152 T0058 53010", "CWGD 031100Z AUTO 18019G27KT 05/01 RMK AO1 PK WND 18030/1040 SLP075 T00520005 56015", "CWGH 031100Z AUTO 10001KT M00/M08 RMK AO1 SLP152 T10011082 58005", "CWGL 031100Z AUTO 15012KT 01/M04 RMK AO1 SLP075 T00061044 56023", "CWGM 031100Z AUTO 20006KT M08/M12 RMK AO1 SOG 01 5000 SLP120 T10771118", "CWGR 031100Z AUTO 28020G26KT M05/M10 RMK AO1 PK WND 26030/1029 SLP098 T10461099 51025", "CWGT 031100Z AUTO 31018KT 05/01 RMK AO1 PK WND 32021/1038 SLP158 T00540011 52008", "CWGW 031100Z AUTO 11004KT M04/M06 RMK AO1 1PAST HR 1004 SLP122 P0000 T10421060 50001", "CWGY 031100Z AUTO 11007KT M10/M12 RMK AO1 SOG 26 3010 SLP152 T10971116", "CWHO 031100Z AUTO 00033KT M09/M11 RMK AO1 2013 SLP028 T10861106 50002", "CWHP 031100Z AUTO 28018G25KT M07/M12 RMK AO1 PK WND 28025/1056 SLP039 T10671118 52031", "CWHQ 031100Z AUTO 01001KT M10/M12 RMK AO1 T11031121", "CWHT 031100Z AUTO 09001KT M11/M15 RMK AO1 SOG 41 1017 SLP224 T11081151", "CWHV 031100Z AUTO 17003KT M09/M13 RMK AO1 SLP183 T10941127 53005", "CWID 031100Z AUTO 11003KT M16/M18 RMK AO1 SLP175 T11601180 53002", "CWIG 031100Z AUTO 21012KT RMK AO1 PK WND 23020/1025", "CWII 031100Z AUTO 02008KT M10/M15 RMK AO1 SLP113 T11011150 53035", "CWIJ 031100Z AUTO 12009KT M27/M30 RMK AO1 SOG 78 1006 SLP224 T12681299", "CWIK 031100Z AUTO 04005KT M11/M15 RMK AO1 SOG 11 3013 SLP137 T11141150 50002", "CWIL 031100Z AUTO ///// ////SM ////// M28/M31 A3037", "CWIP 031100Z AUTO 30012G18KT M12/M18 RMK AO1 PK WND 29020/1018 T11171184", "CWIS 031100Z AUTO 26004KT M09/M13 RMK AO1 SOG 151 3003 SLP153 T10881127", "CWIT 031100Z AUTO 14004KT M02/M10 RMK AO1 SLP165 T10241097 56009", "CWIW 031100Z AUTO 05009KT M12/M14 RMK AO1 SOG 18 3013 SLP165 T11201135", "CWIZ 031100Z AUTO 16008KT M02/M08 RMK AO1 T10171075", "CWJB 031100Z AUTO M08/M11 RMK AO1 SOG 74 T10841106", "CWJC 031100Z AUTO 18005KT M27/M30 RMK AO1 SOG 04 1001 SLP250 T12701299", "CWJD 031100Z AUTO 01006KT M20/M24 RMK AO1 SOG 54 2025 SLP202 T11951238", "CWJH 031100Z AUTO 24001KT M28/M31 RMK AO1 SOG 71 2012 SLP233 T12801306", "CWJI 031100Z AUTO 36007KT M09/M11 RMK AO1 SOG 16 3010 SLP123 T10921111 50004", "CWJO 031100Z AUTO 13004KT M11/M14 RMK AO1 SLP150 T11091135 55002", "CWJR 031100Z AUTO 07002KT M02/M08 RMK AO1 SLP127 T10231078 53003", "CWJT 031100Z AUTO 29001KT M05/M07 RMK AO1 SLP155 T10451071 55006", "CWJU 031100Z AUTO 27019G24KT 04/01 RMK AO1 PK WND 25026/1043 SLP190 T00410012 58009", "CWJV 031100Z AUTO 10006KT M02/M07 RMK AO1 SLP135 T10231070 53011", "CWJW 031100Z AUTO 13001KT M09/M10 RMK AO1 SLP146 T10881100 52009", "CWJX 031100Z AUTO 08005KT M11/M13 RMK AO1 SOG 34 1008 SLP145 T11121132 50004", "CWKD 031100Z AUTO M31/M35 RMK AO1 SLP163 T13081348 53006", "CWKG 031100Z AUTO 31003KT M04/M11 RMK AO1 SLP195 T10381114 52022", "CWKH 031100Z AUTO 00/M02 RMK AO1 SLP142 T00001016 52005", "CWKM 031135Z AUTO 27018KT ////SM FEW008 BKN015 OVC041 M13/M15 A3006", "CWKO 031100Z AUTO 36008KT M10/M12 RMK AO1 SOG 11 3010 SLP119 T11021122 50001", "CWKX 031100Z AUTO 26001KT M03/M06 RMK AO1 SOG 44 4000 SLP138 T10301059", "CWLB 031100Z AUTO 01003KT M02/M03 RMK AO1 3PAST HR SOG 19 3009 SLP136 P0001 T10191029 50003", "CWLC 031100Z AUTO 28013KT 05/M00 RMK AO1 T00501004", "CWLE 031100Z AUTO 04008KT M10/M12 RMK AO1 2PAST HR SOG 14 2009 SLP151 P0001 T11041118 50004", "CWLM 031100Z AUTO 26006KT 04/01 RMK AO1 SLP154 T00390014 51006", "CWLP 031100Z AUTO 32014KT 05/02 RMK AO1 PK WND 32017/1029 SLP183 T00540015 52009", "CWLS 031100Z AUTO 20011G17KT 02/M01 RMK AO1 PK WND 20020/1026 SLP081 T00211014 56018", "CWLX 031100Z AUTO ///// ////SM ////// M23/M28 A3012", "CWLY 031100Z AUTO 00000KT 9SM SCT071 OVC088 00/M03 A2995 RMK SLP152", "CWME 031100Z AUTO 18004KT 02/01 RMK AO1 SLP183 T00240006 53006", "CWMJ 031100Z AUTO 16007KT M03/M04 RMK AO1 3PAST HR SOG 34 8017 SLP128 P0001 T10341035 50003", "CWMM 031100Z AUTO 00000KT 02/02 RMK AO1 SLP160 T00190016 52009", "CWMQ 031100Z AUTO 07005KT M07/M08 RMK AO1 3PAST HR SOG 03 3009 SLP135 P0001 T10721075 50007", "CWMT 031100Z AUTO 09004KT M16/M18 RMK AO1 SOG 44 1006 SLP177 T11561176 50002", "CWNC 031100Z AUTO 09004KT 02/M01 RMK AO1 SLP124 T00241013 55007", "CWND M01/M01 RMK 3010 T10111012", "CWNE 031100Z AUTO 27035G41KT M05/M12 RMK AO1 PK WND 27041/1052 SLP131 T10481116 51025", "CWNH 031100Z AUTO 14003KT M11/M16 RMK AO1 SOG 59 1005 SLP166 T11101155", "CWNK 031100Z AUTO 35013G19KT M07/M10 RMK AO1 PK WND 33022/1029 SLP102 T10701095 52038", "CWNM 031100Z AUTO 16002KT M04/M06 RMK AO1 SLP134 T10381056 53004", "CWNQ 031100Z AUTO 15004KT M02/M09 RMK AO1 SLP173 T10151090 58001", "CWNZ 031100Z AUTO 02007KT M11/M13 RMK AO1 4PAST HR SOG 80 3007 SLP047 P0002 T11111132 50017", "CWOB 031100Z AUTO 04024KT ////SM ////// M19/M22 A////", "CWOC 031100Z AUTO 28013G22KT M09/M18 RMK AO1 SOG 58 3022 PK WND 28023/1015 SLP139 T10901176", "CWOD 031100Z AUTO 31002KT M13/M16 RMK AO1 SOG 46 6004 SLP148 T11331157 50002", "CWOE 031100Z AUTO 24002KT M06/M07 RMK AO1 SOG 24 1005 SLP119 T10621068 50002", "CWOY 031100Z AUTO 06006KT M12/M16 RMK AO1 3012 SLP163 T11211162 50002", "CWPD 031100Z AUTO 12003KT M13/M15 RMK AO1 SLP161 T11301147 53003", "CWPE 031100Z AUTO 30004KT M02/M11 RMK AO1 SLP200 T10211114 52016", "CWPF 031145Z AUTO 35003KT 04/01 RMK AO1 SLP157 T00360013 52006", "CWPK 031100Z AUTO 16004KT M06/M08 RMK AO1 3PAST HR SOG 91 8010 SLP119 P0001 T10601075 50003", "CWPO 031100Z AUTO 36012KT M09/M11 RMK AO1 SOG 46 1029 PK WND 00017/1045 SLP110 T10931109", "CWPR 031100Z AUTO 32001KT M03/M04 RMK AO1 3010 SLP136 T10311040 50001", "CWPZ 031100Z AUTO 31001KT M11/M13 RMK AO1 SOG 35 1004 SLP166 T11131126", "CWQH 031100Z AUTO 03003KT M07/M10 RMK AO1 SLP192 T10721095 53001", "CWQK 031100Z AUTO 25006KT 05/02 RMK AO1 SLP156 T00450018 51006", "CWQO 031100Z AUTO 33003KT M07/M16 RMK AO1 T10691161", "CWQP 031100Z AUTO 17021KT 03/M02 RMK AO1 PK WND 17025/1054 SLP136 T00261021 56016", "CWQR 031100Z AUTO 29019KT M08/M13 RMK AO1 PK WND 30026/1012 T10791133", "CWQS 031100Z AUTO 27017KT 05/01 RMK AO1 PK WND 26022/1012 SLP198 T00470013 58005", "CWQV 031100Z AUTO 07002KT M08/ RMK AO1 T1084", "CWRA 031100Z AUTO M00/M03 RMK AO1 SLP051 T10011029 52028", "CWRJ 031100Z AUTO 05008KT M12/M14 RMK AO1 SOG 04 3011 SLP156 T11201139 50002", "CWRK 031100Z AUTO 18002KT M03/M05 RMK AO1 SOG 27 6033 SLP109 T10311048 50007", "CWRM 031100Z AUTO 30003KT M07/M08 RMK AO1 SOG 25 2007 SLP116 T10661080", "CWRN 031100Z AUTO 28019G25KT M03/M10 RMK AO1 PK WND 29029/1001 SLP149 T10291103 51042", "CWRO 031100Z AUTO 26014KT 04/ RMK AO1 PK WND 25018/1053 SLP184 T0039 58006", "CWRT 031100Z AUTO 19001KT M04/M06 RMK AO1 SLP117 T10431059 53002", "CWRU 031100Z AUTO 36018KT 05/ RMK AO1 PK WND 35023/1037 SLP177 T0046 53006", "CWRY 031100Z AUTO 31003KT M03/M03 RMK AO1 2PAST HR SOG 07 1001 SLP111 P0001 T10261031 50004", "CWRZ 031100Z AUTO 28025G32KT M08/M18 RMK AO1 PK WND 29036/1047 SLP080 T10751181 52024", "CWSA 031100Z AUTO 30019G24KT 9SM CLR M00/M09 A3000 RMK SLP160", "CWSD 031100Z AUTO 29017G24KT M05/M14 RMK AO1 SOG 02 3025 PK WND 27025/1034 SLP157 T10531141", "CWSF 031100Z AUTO 27015G27KT M08/M16 RMK AO1 SOG 23 3030 PK WND 27031/1046 SLP118 T10821159", "CWSG 031100Z AUTO 28018KT M08/M14 RMK AO1 PK WND 25023/1036 SLP152 T10791140 51021", "CWSK 031100Z AUTO 04001KT M01/M02 RMK AO1 SLP160 T10101016 53010", "CWSL 031100Z AUTO 00000KT M04/M06 RMK AO1 SLP141 T10351057 52011", "CWSP 031100Z AUTO 00000KT 04/01 RMK AO1 SLP161 T00360014 51008", "CWSR 031100Z AUTO 10003KT M14/M18 RMK AO1 SOG 13 3011 SLP171 T11371178", "CWSS 031100Z AUTO 00000KT M06/M09 RMK AO1 2019 SLP205 T10631094 50002", "CWST 031100Z AUTO 22012G17KT M04/M10 RMK AO1 SOG 21 3004 PK WND 22019/1049 SLP162 T10361095", "CWTA 031100Z AUTO 18003KT M01/M08 RMK AO1 SOG 43 6006 SLP169 T10121079", "CWTG 031100Z AUTO 26010KT M12/M20 RMK AO1 PK WND 28019/1011 SLP151 T11161201 52026", "CWTN 031100Z AUTO 29004KT M05/M09 RMK AO1 SLP176 T10501094 52006", "CWTT 031100Z AUTO 36002KT M08/M10 RMK AO1 T10761099", "CWTY 031100Z AUTO 20011KT M01/M08 RMK AO1 SLP175 T10051083 51001", "CWUS 031100Z AUTO 28004KT M00/M08 RMK AO1 SLP130 T10021078 51010", "CWUW 031100Z AUTO 07013KT ////SM NCD M19/M26 A2996", "CWUX 031100Z AUTO 14003KT M13/M16 RMK AO1 SLP160 T11251160", "CWVF 031100Z AUTO 08008KT 04/03 RMK AO1 T00430027", "CWVI 031100Z AUTO 15005KT M03/M04 RMK AO1 SOG 21 3006 SLP141 T10301042", "CWVN 031100Z AUTO 31003KT M13/M14 RMK AO1 SOG 19 1010 SLP133 T11271144", "CWVP 031100Z AUTO 32002KT M08/M10 RMK AO1 1PAST HR SOG 42 3005 SLP103 P0000 T10821095 50004", "CWVQ 031100Z AUTO 13003KT M01/M08 RMK AO1 SOG 05 6008 SLP166 T10051077", "CWVT 031100Z AUTO 14005KT M09/M16 RMK AO1 SOG 43 2005 SLP177 T10891164", "CWVU 031100Z AUTO 33014KT M00/M08 RMK AO1 PK WND 31019/1009 SLP200 T10011081 51018", "CWWA 031100Z AUTO 02002KT 01/01 RMK AO1 SLP154 T00120005 51008", "CWWB 031100Z AUTO 19007KT 05/M00 RMK AO1 SLP110 T00531004 56019", "CWWE 031100Z AUTO 31005KT M02/M11 RMK AO1 SLP198 T10161109 51029", "CWWF 031100Z AUTO 06011KT M09/M11 RMK AO1 SOG 22 3017 SLP121 T10911110", "CWWK 031100Z AUTO 05001KT 03/02 RMK AO1 SLP159 T00310020 51007", "CWWL 031100Z AUTO 31015KT 05/02 RMK AO1 PK WND 30020/1020 SLP189 T00470019 50000", "CWWS 031100Z AUTO 02015KT M20/M23 RMK AO1 SOG 75 3021 PK WND 02017/1051 SLP174 T11991232", "CWWZ 031100Z AUTO 18008KT 05/M02 RMK AO1 SLP114 T00521018 56011", "CWXA 031100Z AUTO 00010KT M05/M06 RMK AO1 3006 SLP150 T10461057 50002", "CWXC 031100Z AUTO 00000KT M16/M18 RMK AO1 5001 SLP152 T11561177 50004", "CWXI 031100Z AUTO 29021KT M01/M03 RMK AO1 PK WND 28028/1014 SLP910 T10111030 53039", "CWXL 031100Z AUTO 19003KT M04/M04 RMK AO1 1004 SLP126 T10381035 50002", "CWYJ 031100Z AUTO 26001KT 02/02 RMK AO1 2006 SLP156 T00210015 50002", "CWYY 031100Z AUTO 36001KT M00/M03 RMK AO1 SLP127 T10041031 52007", "CWZA 031100Z AUTO 33001KT 03/02 RMK AO1 SLP157 T00310024 53007", "CWZG 031100Z AUTO 04001KT M07/M08 RMK AO1 SOG 24 3004 SLP125 T10711081 50001", "CWZL 031100Z AUTO 30008KT 04/M00 RMK AO1 SLP205 T00441001 58001", "CWZN 031100Z AUTO 29034KT M02/M07 RMK AO1 PK WND 28040/1031 SLP038 T10211072 53035", "CWZO 031100Z AUTO 36002KT RMK AO1", "CWZQ 031100Z AUTO 27027KT M04/M09 RMK AO1 PK WND 27034/1024 SLP125 T10361089 51029", "CWZW 031100Z AUTO 33002KT M10/M11 RMK AO1 SOG 59 2023 SLP175 T11031114", "CWZZ 031141Z AUTO 36028KT ////SM ////// ///// A////", "CXAT 031100Z AUTO 05005KT M27/M31 RMK AO1 SOG 08 7001 SLP286 T12731309", "CXBI 031100Z AUTO 18005KT 01/M05 RMK AO1 8024 SLP093 T00051048 50001", "CXBK 031100Z AUTO 06011KT M11/M12 RMK AO1 1PAST HR SOG 24 3014 SLP134 P0000 T11091115 50004", "CXBO 031100Z AUTO 31002KT M08/M12 RMK AO1 T10831118", "CXCA 031100Z AUTO 36012KT M06/M08 RMK AO1 SOG 47 3037 PK WND 00017/1023 SLP040 T10631084 50020", "CXCK 031100Z AUTO 13001KT M14/M17 RMK AO1 SOG 63 1016 SLP210 T11411167", "CXDE 031100Z AUTO 10003KT M17/M19 RMK AO1 SOG 26 2003 SLP170 T11721193", "CXDI 031100Z AUTO 20006KT 03/M01 RMK AO1 SLP108 T00281008 58008", "CXDK 031100Z AUTO M06/M10 RMK AO1 SOG 37 3032 SLP141 T10631097", "CXDW 031100Z AUTO 34017KT M09/M11 RMK AO1 SOG 27 1035 PK WND 34021/1046 SLP104 T10871113", "CXEA 031100Z AUTO 04007KT M11/M13 RMK AO1 SOG 49 3030 SLP082 T11061132 50004", "CXEC 031100Z AUTO 32004KT M01/M03 RMK AO1 SLP134 T10091030 53009", "CXEG 031100Z AUTO 30005KT M01/M03 RMK AO1 SLP132 T10141027 53008", "CXET 031100Z AUTO 17008KT 01/M06 RMK AO1 SLP090 T00091060 58020", "CXGH 031100Z AUTO 01016G21KT M12/M16 RMK AO1 PK WND 00023/1016 SLP117 T11151164 53037", "CXHA 031100Z AUTO 22006KT 05/01 RMK AO1 SLP103 T00460014 55006", "CXHM 031100Z AUTO 24004KT 04/M02 RMK AO1 SLP109 T00381017 56019", "CXIB 031100Z AUTO 24003KT M04/M10 RMK AO1 SOG 37 1029 SLP097 T10371102", "CXKA 031100Z AUTO 03006KT M04/M06 RMK AO1 8PAST HR SOG 85 5012 SLP027 P0003 T10441055 50033", "CXKE 031100Z AUTO 11002KT M02/M06 RMK AO1 SLP157 T10201060 58004", "CXKI 031100Z AUTO 14006KT M02/M03 RMK AO1 1PAST HR SOG 71 6032 SLP023 P0008 T10151033 50043", "CXKT 031100Z AUTO 27007KT M03/M14 RMK AO1 SLP189 T10291138 51026", "CXLB 031100Z AUTO 30012KT M01/M10 RMK AO1 SLP189 T10111097 51031", "CXLL 031100Z AUTO M08/M09 RMK AO1 SOG 64 3022 SLP155 T10771093", "CXMD 031100Z AUTO 36010G15KT M07/M09 RMK AO1 SOG 25 1036 SLP091 T10661092", "CXMI 031100Z AUTO 31013G18KT M02/M11 RMK AO1 PK WND 32023/1003 SLP179 T10171111 51035", "CXMM 031100Z AUTO 31008KT M07/M08 RMK AO1 4PAST HR SOG 34 3009 SLP152 P0002 T10711082 50006", "CXMY 031100Z AUTO M03/M15 RMK AO1 T10341146", "CXNM 031100Z AUTO 28025G35KT M08/M10 RMK AO1 SOG 146 PK WND 29038/1006 T10801103", "CXNP 031100Z AUTO 29012G17KT M04/M14 RMK AO1 PK WND 29021/1021 SLP175 T10441139 53027", "CXOX 031100Z AUTO 06002KT M20/M25 RMK AO1 SOG 43 3015 SLP203 T12021248", "CXPC 031100Z AUTO M00/M02 RMK AO1 8PAST HR 8032 SLP061 P0007 T10021015 50018", "CXRB 031100Z AUTO 33007KT M31/M34 RMK AO1 SLP299 T13141335 58004", "CXRH 031100Z AUTO 26014G22KT M03/M05 RMK AO1 SOG 11 3030 PK WND 26027/1029 SLP986 T10301053", "CXSE 031100Z AUTO 12001KT M33/M36 RMK AO1 SOG 26 1001 SLP325 T13281362", "CXSH 031100Z AUTO 21005KT M04/M09 RMK AO1 SLP168 T10411090 52003", "CXTD 031100Z AUTO 29014G22KT M04/M12 RMK AO1 SOG 02 1031 PK WND 29026/1012 SLP159 T10421118", "CXTN 031100Z AUTO 24005KT M21/M24 RMK AO1 SOG 40 0000 SLP150 T12071237", "CXTO 031100Z AUTO 04/M04 RMK AO1 SLP107 T00391042 58016", "CXTP 031100Z AUTO 25010KT M02/M08 RMK AO1 PK WND 23021/1035 SLP993 T10221075 52025", "CXTV 031100Z AUTO 29008KT M19/M21 RMK AO1 SOG 44 2010 SLP140 T11901212", "CXVN 031100Z AUTO 20014G19KT 05/M01 RMK AO1 PK WND 19019/1051 SLP110 T00481012 58014", "CXWN 031100Z AUTO 35007KT M07/M10 RMK AO1 PK WND 35018/1026 SLP097 T10711096 53041", "CXYH 031100Z AUTO 02003KT M07/M10 RMK AO1 SLP140 T10661098 51027", "CXZC 031100Z AUTO 02005KT M15/M18 RMK AO1 SOG 57 6012 SLP107 T11481177 50004", "CXZV 031100Z AUTO 30003KT M13/M19 RMK AO1 3PAST HR SOG 80 2024 SLP115 P0001 T11261194 50003", "CYAH 031142Z AUTO 00000KT 2 1/2SM -SN CLR M27/M30 A2990 RMK VIS VRB 1 3/4-3 SLP171", "CYAM 031100Z 18005KT 12SM FEW037 BKN060 BKN080 01/01 A2958 RMK SC2SC4AC1 SLP025", "CYAT 031100Z AUTO 01007KT 9SM CLR M23/M25 A2999 RMK SLP157", "CYAW 031100Z 29014G19KT 15SM FEW240 M03/M13 A3006 RMK CI1 DENSITY ALT -2137FT SLP182", "CYAY 031110Z AUTO 25018G24KT 9SM SCT020 M01/M03 A2922 RMK SLP900", "CYBC 031100Z AUTO 28003KT 260V320 9SM FEW140 M13/M21 A3001 RMK SLP166", "CYBG 031100Z 12005KT 15SM FEW060 SCT120 M11/M15 A2995 RMK SC1AC2 DENSITY ALT -3279FT SLP155", "CYBK 031100Z 31006KT 15SM OVC015 M26/M29 A3022 RMK SC8 SLP238", "CYBQ 031149Z AUTO 32002KT 1/4SM FZFG VV003 M28/M30 A3018 RMK SLP266", "CYBR 031100Z 02009KT 5SM -SN OVC053 M11/M15 A2982 RMK SC8 SLP129", "CYBU 031100Z AUTO 03008KT 9SM CLR M17/M21 A3001 RMK SLP198", "CYBW 031100Z AUTO 32007KT 9SM SCT130 SCT150 M07/M08 A2977 RMK SLP136", "CYBX 031100Z 34010G15KT 15SM FEW018 FEW062 SCT092 M01/M04 A2927 RMK SC1SC1AC2 PRESRR SLP916", "CYCA 031150Z AUTO 35020G33KT 2 1/2SM -SN BKN009 OVC017 M02/M03 A2934 RMK SLP938", "CYCB 031100Z 03010KT 9SM IC FEW050 FEW100 M33/M36 A3039 RMK SC1AC1 SLP298", "CYCK 031100Z AUTO 20009KT 9SM CLR 02/01 A2981 RMK SLP103", "CYCO 031100Z 20007KT 12SM -SN OVC054 M17/M21 A3008 RMK SC8 SLP190", "CYCX 031100Z 23006KT 15SM FEW200 M06/M12 A3009 RMK CI1 DENSITY ALT -2546FT SLP193", "CYCY 031100Z AUTO 25007KT 9SM CLR M28/M31 A3026 RMK SLP252", "CYDB 031100Z AUTO 29003KT 9SM CLR M21/M23 A3002 RMK SLP236", "CYDF 031100Z 23012G22KT 210V270 12SM -SN OVC022 M03/M06 A2952 RMK SC8 SLP000", "CYDL 031100Z AUTO 00000KT 9SM OVC071 M03/M06 A2981 RMK SLP123", "CYDN 031100Z AUTO 01010KT 9SM CLR M14/M19 A2995 RMK SLP168", "CYDP 031100Z 31019G28KT 15SM BKN025 OVC064 M08/M12 A2970 RMK SC5SC3 SLP059", "CYDQ 031100Z AUTO 00000KT 9SM CLR M08/M10 A2984 RMK SLP146", "CYEG 031100Z 30006KT 20SM BKN012 OVC050 M02/M02 A2984 RMK SC6SC2 SLP135", "CYEK 031127Z AUTO 31010KT 9SM -SN CLR M28/M31 A3023 RMK SLP240", "CYEN 031143Z AUTO 05009KT 5SM -SN BKN042 OVC071 M10/M12 A2980 RMK SLP135", "CYER 031100Z AUTO 32006KT 9SM -SN BKN066 BKN230 BKN250 M17/M19 A3010 RMK SLP197", "CYET 031100Z AUTO VRB02KT 9SM CLR M07/M07 A2982 RMK SLP140", "CYEV 031100Z 26004KT 15SM -SN FEW020 OVC054 M14/M17 A2993 RMK SC1SC8 SC TR SLP145", "CYFB 031100Z VRB02KT 30SM FEW030 FEW160 M15/M23 A3007 RMK SC1AC2 SC TR SLP187", "CYFC 031100Z AUTO 21004KT 9SM CLR M07/M13 A3009 RMK SLP194", "CYFO 031100Z 02003KT 15SM SKC M23/M26 A3010 RMK SNW CVR/MUCH LOOSE SLP224", "CYFS 031130Z 03004KT 010V070 3SM -SN VV030 M08/M12 A2996 RMK SN8 SLP162", "CYFT 031100Z 32020G28KT 4SM -SN OVC005 M08/M09 A2953 RMK ST8 SLP008", "CYGK 031100Z 15010KT 15SM VCSH BKN064 BKN100 OVC240 02/M04 A2995 RMK SC6AC1CI1 SLP148", "CYGL 031100Z 08008KT 15SM FEW220 M25/M27 A2994 RMK CI1 CI TR SLP163", "CYGP 031100Z 29013G18KT 15SM SKC M09/M19 A2982 RMK SLP104", "CYGR 031100Z 29022G29KT 20SM BKN027 M05/M10 A2982 RMK SC6 SLP099", "CYGT 031145Z 36013KT 15SM SCT130 M25/M28 A3025 RMK AS3 SLP256", "CYGV 031100Z AUTO 28014G20KT 9SM SCT066 OVC110 M10/M16 A2970 RMK SLP063", "CYGW 031100Z AUTO VRB02KT 9SM FEW081 M29/M32 A3007 RMK SLP187", "CYGX 031100Z 02005KT 340V050 6SM -SN OVC015 M19/M21 A3017 RMK ST8 SLP238", "CYHD 031141Z AUTO 04009G15KT 9SM -SN BKN015 BKN033 OVC050 M09/M11 A2969 RMK SLP086", "CYHE 031152Z AUTO VRB02KT 8SM FEW007 BKN012 OVC055 03/02 A2999 RMK SLP158", "CYHK 031100Z AUTO 04013KT 7SM CLR M29/M33 A3036 RMK SLP291", "CYHM 031100Z 19012KT 15SM FEW130 SCT200 03/M01 A2982 RMK AC2CI2 SLP107", "CYHU 031100Z AUTO 17004KT 9SM FEW100 SCT170 M02/M08 A3003 RMK SLP172", "CYHY 031100Z 08003KT 15SM FEW089 SCT100 M20/M23 A3002 RMK AC1AC2 SLP185", "CYHZ 031100Z 30015G22KT 15SM FEW200 M04/M15 A3001 RMK CI1 SLP171", "CYIN 031100Z AUTO 30004KT 9SM OVC071 M06/M08 A2982 RMK SLP141", "CYIO 031100Z AUTO 21007KT 9SM CLR M30/M33 A3029 RMK SLP271", "CYIV 031100Z AUTO 02005KT 350V060 9SM CLR M22/M25 A3005 RMK SLP203", "CYJT 031100Z 28021G28KT 12SM BKN019 M03/M07 A2962 RMK SC7 SLP035", "CYKA 031100Z 08002KT 40SM FEW050 M02/M06 A2992 RMK SC2 SLP149", "CYKF 031100Z AUTO 19010KT 9SM CLR 01/M03 A2979 RMK SLP100", "CYKJ 031100Z AUTO 15004KT 110V180 9SM OVC066 M15/M20 A2998 RMK SLP197", "CYKL 031143Z AUTO 33002KT 2SM -SN BKN015 M08/M09 A2967 RMK VIS VRB 1 1/4-3 SLP087", "CYKP 031100Z AUTO 04010G16KT 9SM -SN SCT036 M18/M21 A2986 RMK SLP137", "CYKY 031100Z 05007KT 12SM -SN OVC055 M11/M13 A2985 RMK SC8 SLP154", "CYLC 031100Z 02003KT 15SM SCT020 BKN050 BKN071 M14/M20 A3002 RMK SC3SC2AC2 SNW CVR/MUCH LOOSE SLP172", "CYLD 031100Z 23004KT 180V260 15SM OVC005 00/M00 A2945 RMK SC8 SLP997", "CYLH 031100Z AUTO 03007KT 9SM CLR M22/M24 A2990 RMK SLP154", "CYLL 031152Z AUTO 17004KT 9SM -SNRA OVC032 M08/M09 A2989 RMK SLP169", "CYLW 031100Z AUTO 01003KT 9SM CLR M05/M07 A2989 RMK SLP140", "CYMA 031100Z VRB02KT 15SM SCT110 M16/M18 A3000 RMK AS4 SLP208", "CYMH 031145Z AUTO 33014G23KT 1 1/2SM -SN FEW012 OVC022 M01/M02 A2921 RMK SLP895", "CYMJ 031100Z 05009KT 4SM -SN SCT012 OVC035 M10/M11 A2984 RMK SC3SC5 SLP138", "CYMM 031132Z AUTO 31009KT 6SM -SN OVC040 M07/M09 A2991 RMK SLP159", "CYMO 031133Z AUTO 01007KT 9SM OVC044 M15/M18 A2982 RMK SLP101", "CYMT 031148Z AUTO 09006KT 6SM -SN BKN023 BKN035 M11/M13 A2974 RMK SLP105", "CYMX 031100Z 10002KT 30SM SCT080 OVC250 M05/M08 A2999 RMK AS3CS5 SLP164", "CYNA 031100Z AUTO 29016G24KT 9SM BKN049 M08/M13 A2960 RMK SLP025", "CYND 031138Z 10008KT 1SM -SN VV016 M03/M04 A2995 RMK SN8 PRESFR SLP149", "CYNE 031100Z AUTO 03004KT 340V070 9SM CLR M22/M24 A3008 RMK SLP210", "CYNM 031152Z AUTO 14007KT 9SM -SNRA OVC030 M05/M07 A2965 RMK SLP062", "CYOD 031100Z 16003KT 15SM OVC016 M06/M07 A2990 RMK SC8 DENSITY ALT -458FT SLP156", "CYOJ 031100Z AUTO 32002KT 9SM CLR M18/M20 A2993 RMK SLP168", "CYOO 031100Z AUTO 12003KT 9SM FEW100 OVC220 01/M02 A2985 RMK SLP114", "CYOW 031100Z 10004KT 3SM -SN BKN013 OVC025 M03/M05 A2998 RMK SC5SC3 SLP160", "CYPA 031100Z 08005KT 15SM FEW150 BKN270 M15/M20 A3000 RMK AC2CS3 SLP196", "CYPD 031100Z AUTO 29017G27KT 9SM CLR M05/M11 A2990 RMK SLP133", "CYPE 031100Z 09003KT 15SM OVC040 M03/M07 A2988 RMK SC8 SLP153", "CYPG 031100Z 33015G20KT 15SM BKN023 OVC031 M10/M12 A2982 RMK SC5SC3 FST OBS SLP116", "CYPH 031100Z AUTO VRB02KT 9SM OVC007 M20/M22 A3010 RMK SLP197", "CYPL 031100Z AUTO 04009G18KT 9SM -SN CLR M18/M21 A2979 RMK SLP123", "CYPO 031151Z AUTO VRB02KT 3SM -SN BKN003 OVC048 M23/M25 A3008 RMK SLP199", "CYPQ 031100Z AUTO 15006KT 9SM BKN100 M01/M03 A2983 RMK PRESFR SLP110", "CYPR 031100Z AUTO VRB02KT 9SM BKN027 BKN170 00/M00 A3006 RMK SLP181", "CYPX 031145Z AUTO VRB02KT 9SM OVC016 M18/M21 A3011 RMK SLP202", "CYPY 031140Z AUTO 00000KT 9SM -SN OVC045 M18/M20 A2998 RMK SLP183", "CYQA 031134Z AUTO 15012G20KT 9SM -FZRA BKN048 OVC055 M00/M04 A2971 RMK ICE SLP074", "CYQB 031100Z 08002KT 30SM FEW100 SCT230 M10/M13 A3004 RMK AC1CI2 SLP179", "CYQD 031100Z AUTO 00000KT 9SM CLR M21/M24 A3008 RMK SLP216", "CYQF 031153Z AUTO 34006KT 9SM BKN035 M05/M05 A2983 RMK ICE PAST HR SLP152", "CYQG 031100Z AUTO 22009KT 9SM OVC160 04/02 A2982 RMK SLP104", "CYQH 031100Z 30007KT 20SM OVC087 M07/M13 A2983 RMK AC8 SLP143", "CYQI 031100Z 03005KT 15SM FEW250 M02/M10 A3012 RMK CI1 CI TR SLP205", "CYQK 031100Z 04012G18KT 15SM -SN DRSN BKN011 OVC028 M06/M08 A2966 RMK SC6SC2 SLP066", "CYQL 031140Z AUTO 31005KT 9SM -SN SCT027 BKN044 BKN055 OVC078 M02/M03 A2978 RMK SLP127", "CYQM 031100Z 26012G19KT 15SM FEW210 M06/M15 A3003 RMK CI1 SLP176", "CYQQ 031100Z 31004KT 20SM FEW020 FEW040 01/M03 A3000 RMK SC1SC1 SLP161", "CYQR 031100Z 06011KT 15SM -SN BKN068 M11/M14 A2983 RMK AC7 SLP142", "CYQT 031100Z 35009G16KT 4SM -SN FEW013 OVC022 M02/M05 A2957 RMK SC2SC6 SLP027", "CYQU 031100Z 00000KT 25SM FEW150 M06/M07 A2984 RMK AC2 SLP145", "CYQV 031100Z AUTO 02009KT 9SM FEW110 SCT190 M16/M19 A2989 RMK SLP166", "CYQW 031100Z AUTO 11006KT 9SM CLR M12/M14 A2995 RMK SLP181", "CYQX 031100Z 25022G31KT 20SM SCT028 M02/M08 A2947 RMK CU4 SLP987", "CYQY 031128Z 28021G28KT 15SM BKN029 M04/M10 A2987 RMK SC5 SLP120", "CYQZ 031100Z AUTO 00000KT 9SM CLR M07/M09 A2991 RMK SLP159", "CYRB 031100Z 33009KT 25SM FEW220 M32/M35 A3038 RMK CI1 SLP303", "CYRJ 031100Z 29003KT 25SM SCT052 OVC070 M12/M15 A2991 RMK SC4AS4 SLP143", "CYRL 031100Z 03007KT 010V090 15SM DRSN FEW014 FEW060 BKN100 M14/M18 A2978 RMK SC1SC2AC3 SC TR SLP113", "CYRQ 031100Z AUTO 21007KT 9SM BKN091 M03/M06 A3002 RMK SLP172", "CYRT 031100Z 34008KT 6SM -SN OVC018 M26/M29 A3018 RMK SC8 SLP226", "CYRV 031100Z AUTO 00000KT 9SM OVC086 M02/M03 A2988 RMK SLP137", "CYSB 031100Z 18015KT 4SM -SN OVC004 M02/M02 A2959 RMK SF8 SLP038", "CYSC 031100Z AUTO 09003KT 9SM FEW110 SCT250 M07/M12 A3004 RMK SLP190", "CYSF 031100Z AUTO 09006KT 6SM -SN BKN026 OVC043 M14/M17 A3004 RMK SLP197", "CYSJ 031100Z 29007KT 15SM FEW180 M04/M13 A3009 RMK CI1 SLP196", "CYSM 031100Z 31003KT 12SM -SN OVC036 M10/M12 A3000 RMK SC8 SLP178", "CYSN 031100Z 19014KT 15SM SCT120 04/M02 A2984 RMK AC3 SLP111", "CYTE 031100Z AUTO 01004KT 9SM CLR M16/M22 A3012 RMK SLP207", "CYTH 031152Z 06004KT 15SM BKN010 M30/M33 A3017 RMK SC5 SLP249", "CYTL 031100Z AUTO 04003KT 360V070 9SM CLR M26/M29 A3003 RMK SLP200", "CYTR 031100Z 12002KT 15SM FEW050 BKN120 01/M03 A2991 RMK SC1AC4 DENSITY ALT -1329FT SLP132", "CYTS 031104Z 10006KT 1/2SM R03/6000FT/D SN VV004 M02/M03 A2952 RMK SN8 SLP012", "CYTZ 031100Z AUTO 07007KT 9SM CLR 02/M02 A2984 RMK SLP111", "CYUA 031136Z AUTO 28012KT ////SM BKN005 OVC014 M16/M18 A2999", "CYUL 031100Z 12006KT 20SM BKN120 BKN200 M02/M09 A3002 RMK AC6CS1 SLP168", "CYUS 031100Z AUTO 06015KT ////SM //// OVC002 M27/M31 A3035", "CYUX 031100Z AUTO 36013KT 9SM FEW180 M26/M29 A3026 RMK SLP251", "CYUY 031150Z 16007KT 1 1/4SM -SN FEW009 VV011 M03/M04 A2961 RMK SC2SN6 SLP043", "CYVC 031100Z 04003KT 15SM SKC M22/M26 A3005 RMK SLP212", "CYVL 031100Z AUTO 23002KT 2SM -SN BKN039 OVC055 M17/M19 A2985 RMK SLP143", "CYVM 031100Z 00000KT 1/2SM IC FZFG VV004 M29/M32 A3027 RMK FG8 SLP254", "CYVO 031146Z 16011G17KT 10SM -SN SCT009 BKN027 M03/M04 A2966 RMK ST4SC4 SLP066", "CYVP 031100Z 36008KT 12SM -SN OVC013 M13/M16 A2995 RMK ST8 SLP148", "CYVQ 031132Z 09002KT 20SM -SN OVC055 M12/M16 A3000 RMK SC8 SLP169", "CYVR 031104Z 07003KT 20SM FEW024 02/02 A2998 RMK SC1 SLP156", "CYVT 031100Z AUTO 15006KT 9SM BKN071 OVC097 M09/M17 A2992 RMK SLP164", "CYVV 031100Z 18016G21KT 15SM OVC040 04/00 A2966 RMK SC8 SLP053", "CYWA 031100Z 13009KT 10SM OVC009 M02/M03 A2984 RMK SF8 DENSITY ALT -1449FT FST OBS SLP111", "CYWE 031151Z AUTO 04003KT 9SM -SN BKN055 OVC071 M26/M29 A2999 RMK ICE MISG SLP213", "CYWG 031100Z 02020G27KT 15SM OVC016 M08/M10 A2977 RMK SC8 SLP098", "CYWK 031100Z 28011KT 15SM SCT008 BKN021 M18/M22 A2968 RMK SF3SC2 SLP105", "CYWL 031100Z 00000KT 15SM FEW110 SCT210 M05/M07 A2985 RMK AC1CI2 SLP149", "CYXC 031100Z 28009KT 15SM BKN020 M04/M11 A2980 RMK SC6 SLP127", "CYXE 031100Z 04007KT 15SM SCT030 BKN076 M12/M13 A2992 RMK SC3AC4 SLP172", "CYXH 031137Z AUTO VRB02KT 1 1/4SM -SN BKN009 OVC013 M03/M03 A2980 RMK SLP125", "CYXJ 031100Z 04004KT 15SM SCT030 M06/M09 A2983 RMK SC4 SLP143", "CYXL 031100Z 04007KT 320V100 10SM -SN FEW016 OVC033 M10/M12 A2969 RMK SF1SC7 SLP080", "CYXP 031100Z VRB02KT 15SM FEW210 M14/M23 A3008 RMK CI2 SNW CVR/TRACE LOOSE SLP189", "CYXR 031153Z AUTO 14011KT 8SM SCT004 OVC011 M02/M03 A2957 RMK WX MISG SLP028", "CYXS 031100Z AUTO 25004KT 160V280 9SM CLR M07/M12 A2988 RMK SLP155", "CYXT 031100Z 16004KT 150V260 20SM FEW065 SCT200 M03/M05 A3003 RMK SC1CI3 SLP180", "CYXU 031100Z 18009G15KT 15SM FEW150 SCT260 03/M00 A2980 RMK AC1CI2 SLP104", "CYXX 031100Z CCA 00000KT 10SM R07/5000V6000FT/D SCT068 BKN086 01/00 A2998 RMK AC3AC3 SLP155", "CYXY 031100Z 36003KT 310V070 15SM FEW030 SCT055 BKN150 M07/M10 A2998 RMK SC1SC3AC3 SLP201", "CYXZ 031124Z 25004KT 190V290 3/4SM -SN OVC002 00/00 A2950 RMK ST8 SLP005", "CYYB 031149Z 16010KT 3/8SM R08/3500V4500FT/N SN DRSN OVC004 M02/M02 A2963 RMK SN6SC2 SLP053", "CYYC 031100Z 34008KT 10SM FEW035 FEW140 BKN260 M03/M06 A2978 RMK SC1AC1CI5 SC TR SLP129", "CYYD 031100Z AUTO 12004KT 9SM CLR M06/M08 A2994 RMK SLP160", "CYYE 031100Z 20005KT 15SM SCT060 BKN100 M05/M09 A2983 RMK SC4AC2 SLP128", "CYYF 031100Z 01007KT 15SM SCT190 M02/M06 A2989 RMK AC3 SLP135", "CYYG 031100Z 28014G20KT 15SM FEW210 M06/M14 A2996 RMK CI1 SLP149", "CYYJ 031100Z 25005KT 20SM BKN039 01/01 A2998 RMK SC6 SLP156", "CYYL 031100Z AUTO 06002KT 9SM CLR M26/M28 A3011 RMK SLP240", "CYYN 031148Z AUTO 01005KT 5SM -SN OVC030 M11/M12 A2979 RMK ICE MISG SLP142", "CYYQ 031100Z 29006KT 12SM -SN OVC005 M22/M25 A3023 RMK SC8 SLP242", "CYYR 031100Z 34014G19KT 15SM -SHSN DRSN FEW008 FEW043 BKN055 BKN080 M03/M06 A2953 RMK SF1SC2SC4AC1 SLP003", "CYYT 031100Z 27019G26KT 15SM FEW026 M01/M06 A2958 RMK SC2 SLP024", "CYYU 031100Z 02010KT 1SM -SN OVC012 M06/M07 A2956 RMK SN5SC3 SLP026", "CYYW 031147Z AUTO VRB05G16KT 2 1/2SM -SN OVC031 M12/M15 A2973 RMK VIS VRB 1 3/4-3 SLP105", "CYYY 031100Z 29005KT 30SM BKN047 M08/M16 A3002 RMK SC7 SLP172", "CYYZ 031100Z 14006KT 15SM FEW110 SCT210 01/M03 A2982 RMK AC1CI3 SLP107", "CYZE 031100Z AUTO 21013G19KT 9SM OVC029 03/01 A2957 RMK SLP022", "CYZF 031100Z 07003KT 15SM BKN100 M19/M21 A3003 RMK AC7 FROIN SLP194", "CYZH 031128Z AUTO 29006KT 9SM FEW027 OVC037 M03/M04 A2987 RMK SLP150", "CYZP 031100Z AUTO 24006KT FEW039 SCT071 BKN100 OVC120 02/00 A3011 RMK VIS MISG SLP198", "CYZR 031100Z AUTO 20010G15KT 9SM OVC140 03/01 A2978 RMK SLP093", "CYZS 031100Z 08012KT 15SM -SN SCT030 OVC050 M15/M16 A3014 RMK SC3SC5 SLP217", "CYZT 031100Z 26007KT 15SM FEW019 02/01 A3006 RMK SC2 SLP182", "CYZV 031100Z 30007KT 30SM FEW050 FEW100 M13/M20 A2986 RMK CU1AC1 CU TR SLP118", "CYZX 031100Z 30010KT 15SM FEW250 M02/M14 A3011 RMK CI1 DENSITY ALT -2244FT SLP197", "CYZY 031100Z AUTO 00000KT 9SM CLR M08/M09 A2985 RMK SLP146", "CZBF 031100Z AUTO 25006KT 9SM CLR M09/M17 A3001 RMK SLP168", "CZCR 031100Z AUTO 27008KT M09/M18 RMK AO1 SOG 54 3021 SLP158 T10871176", "CZDB 031100Z AUTO 27009KT M05/M17 RMK AO1 SLP175 T10451166 51028", "CZEL 031100Z AUTO 14005KT M01/M04 RMK AO1 SLP102 T10061042 58014", "CZEV 031100Z AUTO 28004KT M14/M16 RMK AO1 SOG 47 2015 SLP148 T11381164", "CZFS 031100Z AUTO 01004KT M08/M13 RMK AO1 SOG 47 3016 SLP159 T10771132", "CZHY 031100Z AUTO 08002KT M20/M22 RMK AO1 SOG 20 3003 SLP182 T11991224", "CZMD 031100Z AUTO 04006KT 9SM CLR M23/M26 A3000 RMK SLP190", "CZMJ 031100Z AUTO 05007KT M10/M11 RMK AO1 1PAST HR SOG 01 3013 SLP149 P0000 T10991111 50005", "CZPC 031126Z AUTO 30007KT 1 3/4SM -SN BKN024 OVC031 M04/M05 A2976 RMK SLP133", "CZPS 031100Z AUTO 33006KT M03/M04 RMK AO1 T10271035", "CZSJ 031100Z AUTO 04005KT 9SM CLR M20/M24 A2998 RMK SLP182", "CZSM 031100Z AUTO 29002KT M10/M12 RMK AO1 SOG 40 3007 SLP179 T11001117", "CZSP 031100Z AUTO 28015G23KT M05/M11 RMK AO1 SOG 05 3028 PK WND 29023/1050 SLP142 T10491113", "CZUM 031100Z AUTO 36005KT 9SM BKN044 OVC071 M06/M09 A2960 RMK SLP053", "CZVL 031147Z AUTO 31005KT 9SM FEW021 SCT026 BKN031 OVC040 M02/M02 A2985 RMK SLP138", "CZZJ 031100Z AUTO 27002KT M07/M09 RMK AO1 SOG 14 2002 SLP142 T10711089", "DAAG 031130Z 01008KT 330V070 9999 SCT026 FEW030CB SCT040 17/09 Q1017", "DAAS 031100Z 35014KT 8000 FEW010 FEW023CB SCT026 09/01 Q1016", "DAAT 031130Z 27006KT 230V300 CAVOK 28/// Q1018", "DABB 031130Z 29017KT 9999 FEW020 SCT033 17/12 Q1012", "DABC 031130Z 35018KT 9999 SCT023 BKN030 12/06 Q1014", "DABS 031100Z 29018G29KT 9000 FEW026 FEW030CB BKN033 10/03 Q1012", "DAOB 031100Z 27006KT CAVOK 16/M05 Q1017", "DAOI 031100Z 26004KT 9999 FEW026 19/M03 Q1018", "DAON 031130Z 36004KT CAVOK 22/00 Q1016", "DAOO 031130Z 34009KT 300V020 CAVOK 20/09 Q1016", "DAUA 031100Z 09015KT 060V130 5000 DRSA NSC 28/M04 Q1014", "DAUB 031100Z 30012KT 180V350 9999 FEW030 20/01 Q1014", "DAUG 031100Z 35010KT CAVOK 18/M09 Q1017", "DAUH 031100Z 34007KT 300V020 CAVOK 20/M01 Q1016", "DBBB 031100Z 23008KT 180V270 9999 SCT012 31/26 Q1009 NOSIG", "DFFD 031100Z 11006KT 030V190 4000 DU NSC 37/02 Q1010 NOSIG", "DFOO 031100Z 23009KT 190V250 CAVOK 33/19 Q1011", "DGAA 031100Z 22011KT 9999 FEW013 30/24 Q1010 NOSIG", "DIAP 031130Z 28005KT 8000 TS FEW012 FEW020CB 25/25 Q1011 TEMPO 4000 TSRA", "DIBK 031100Z 22010KT 9999 SCT013 29/21 Q1012 NOSIG", "DIYO 031100Z 22008KT 9999 BKN015 30/23 Q1011 NOSIG", "DNAA 031100Z 21003KT 7000 NSC 35/18 Q1010 NOSIG", "DNJO 031100Z 10008KT CAVOK 30/01 Q1017", "DNKA 031100Z 06008KT 8000 NSC 34/13 Q1013", "DNKN 031100Z 04009KT CAVOK 35/M03 Q1013 NOSIG", "DNMM 031100Z 25007KT 9999 BKN015 33/23 Q1010 NOSIG", "DNMN 031100Z 32006KT 5000 HZ NSC 36/16 Q1010", "DNYO 031100Z 12010KT CAVOK 39/06 Q1009", "DRRM 031100Z 06006KT 030V120 CAVOK 36/M06 Q1011", "DRRN 031100Z 09014KT 9000 NSC 38/M11 Q1009 NOSIG", "DRZA 031100Z 04004KT CAVOK 34/M05 Q1012", "DRZF 031100Z 06010KT CAVOK 36/M07 Q1010", "DRZR 031100Z 32004KT 280V060 CAVOK 36/M08 Q1012", "DTKA 031100Z 30020G32KT 9999 SCT020TCU SCT030 16/10 Q1010 NOSIG", "DTMB 031130Z 33016KT 8000 SCT023 BKN033 16/09 Q1007", "DTNH 031130Z 31022G34KT 9999 FEW028 SCT033 19/07 Q1007", "DTTA 031130Z 31018G33KT 280V340 9999 SCT026 BKN036 18/09 Q1007", "DTTB 031100Z 31019KT 8000 SCT016TCU SCT030 17/11 Q1008", "DTTD 031100Z 32012KT 280V010 8000 NSC 19/M01 Q1012", "DTTF 031100Z 33013KT 270V010 8000 SCT026TCU FEW030CB 17/03 Q1012", "DTTG 031100Z 30018KT 4000 SA SCT020 20/01 Q1011 NOSIG", "DTTJ 031130Z 29022KT 8000 FEW026 SCT033 20/06 Q1009 NOSIG", "DTTK 031100Z 34014G38KT 300V040 8000 SHRA SQ BKN023 17/09 Q1009", "DTTL 031100Z VRB12G25KT 9999 SCT020 SCT030 17/10 Q1006", "DTTN 031100Z 34010KT 9999 SCT020 SCT030 15/10 Q1011", "DTTR 031100Z 34015KT CAVOK 19/M02 Q1015", "DTTX 031100Z 30018G28KT 9999 SCT033 19/06 Q1008", "DTTZ 031100Z 31016KT 290V350 8000 FEW033 21/02 Q1012", "DXNG 031100Z 23004KT 190V280 8000 NSC 31/19 Q1013", "DXXX 031100Z 22011KT 190V250 9999 SCT015 32/25 Q1010 NOSIG", "EBAW 031120Z 07012KT 050V110 CAVOK 09/M03 Q1030 NOSIG", "EBBE 031125Z 06013KT 9999 FEW028 07/M02 Q1029 BLU BLU", "EBBR 031120Z 06010KT 030V110 CAVOK 08/M02 Q1029 NOSIG", "EBCI 031120Z 06013KT 9999 FEW030 07/M01 Q1028 NOSIG", "EBCV 031125Z AUTO 06012KT 9999 NCD 09/M01 Q1029 BLU", "EBDT 031147Z AUTO 07010KT 3900 NCD 08/M05 Q1029 GRN", "EBFN 031125Z 06013KT 9999 FEW032 09/00 Q1030 BLU BLU", "EBFS 031125Z 07013KT 9999 FEW032 07/M02 Q1027 BLU BLU", "EBLB 031125Z AUTO 07009KT 9999 FEW027/// 04/M03 Q1027 BLU", "EBLG 031120Z 04013G23KT 010V070 9999 FEW028 07/M01 Q1029 NOSIG", "EBOS 031120Z 08014KT 9999 FEW032 08/M01 Q1030 NOSIG", "EDAC 031120Z 02006KT 270V080 9999 FEW037 BKN042 03/M06 Q1030", "EDAH 031120Z 04011KT 340V070 9999 BKN021 04/M01 Q1033", "EDBC 031120Z 05011KT 9999 FEW034 BKN041 03/M04 Q1031", "EDDB 031150Z AUTO 03012KT 350V060 9999 BKN041 OVC048 04/M04 Q1031 NOSIG", "EDDC 031150Z AUTO 03010KT 350V060 9999 BKN041 BKN049 03/M05 Q1029 NOSIG", "EDDE 031150Z AUTO 04012KT 9999 BKN036 02/M06 Q1030 NOSIG", "EDDF 031150Z AUTO 04014KT 360V080 9999 BKN047 07/M03 Q1028 NOSIG", "EDDG 031150Z AUTO 07008G21KT 350V140 9999 FEW047 07/M04 Q1032 NOSIG", "EDDH 031150Z AUTO 06007KT 020V100 9999 BKN047 07/M03 Q1033 NOSIG", "EDDK 031150Z AUTO 08011KT 040V110 CAVOK 09/M05 Q1029 NOSIG", "EDDL 031150Z AUTO 06014G24KT CAVOK 08/M03 Q1030 NOSIG", "EDDM 031150Z AUTO 03011KT 360V060 9999 SCT040 06/M02 Q1024 NOSIG", "EDDN 031150Z AUTO 04008KT 350V160 9999 SCT047 06/M06 Q1026 NOSIG", "EDDP 031150Z AUTO 02012KT 9999 BKN043 05/M05 Q1031 NOSIG", "EDDR 031150Z AUTO 04011KT 360V060 9999 BKN040 06/M02 Q1026 NOSIG", "EDDS 031150Z AUTO 04009KT 360V070 9999 SCT039 OVC046 05/M03 Q1024 NOSIG", "EDDV 031150Z AUTO 09013KT CAVOK 07/M04 Q1032 NOSIG", "EDDW 031150Z AUTO 07009KT 030V090 CAVOK 08/M04 Q1033 NOSIG", "EDFH 031120Z 02012KT 9999 SCT032 04/M02 Q1027", "EDFM 031120Z 04011KT 010V070 CAVOK 08/M03 Q1028", "EDGS 031120Z 06012KT 030V090 9999 SCT031 02/M05 Q1027", "EDHI 031120Z 01008KT 340V070 CAVOK 07/M04 Q1034", "EDHK 031120Z 08009KT 9999 FEW036 06/M03 Q1035", "EDHL 031120Z 02008KT 340V050 9999 BKN040 07/M03 Q1034", "EDJA 031120Z 07011KT 9999 BKN028 OVC050 04/M01 Q1023", "EDLN 031120Z 07010KT CAVOK 08/M04 Q1030", "EDLP 031120Z 07013KT 360V110 9999 BKN049 05/M06 Q1031", "EDLV 031120Z 09011G22KT 040V140 CAVOK 08/M06 Q1031", "EDLW 031120Z 05015KT CAVOK 06/M04 Q1031", "EDMA 031120Z 05011KT 9999 FEW029 SCT042 04/M01 Q1024", "EDMO 031120Z 02010KT 9999 -SN BKN021 02/M01 Q1023", "EDNY 031120Z 05012KT 360V070 9999 FEW026 BKN030 OVC051 06/M01 Q1023", "EDQM 031120Z 03011KT 360V060 9999 BKN030 M00/M07 Q1027", "EDSB 031120Z 05013KT 9999 OVC044 08/M02 Q1025", "EDTL 031120Z 04009KT 010V080 9999 BKN048 08/M02 Q1025", "EDTY 031120Z 06011KT 9999 SCT031 BKN042 04/M02 Q1026", "EDVE 031120Z 07009KT 330V120 9999 SCT045 05/M05 Q1032", "EDVK 031120Z 05011G31KT 020V110 9999 BKN043 04/M05 Q1030", "EDXW 031120Z 05007KT 020V090 CAVOK 07/M05 Q1034", "EEEI 031150Z 01017KT 340V040 CAVOK 02/M10 Q1029 NOSIG", "EEKA 031150Z 36018KT CAVOK 02/M08 Q1031", "EEKE 031150Z 01018KT CAVOK 02/M09 Q1029", "EEPU 031150Z AUTO 01012KT 9999 SCT043/// BKN073/// 03/M06 Q1027", "EETN 031150Z 01013KT 340V050 CAVOK 01/M10 Q1029 NOSIG", "EETU 031150Z 01009KT 340V040 9999 -SN BKN012 OVC021 M02/M04 Q1025", "EFET 031150Z AUTO 21016KT 9999 -SHSN NSC M01/M11 Q1025", "EFHA 031150Z 01010KT CAVOK M00/M13 Q1031", "EFHK 031150Z 35013KT CAVOK 02/M12 Q1030 NOSIG", "EFIV 031150Z AUTO 21014KT 180V240 9999 -SN NCD M01/M12 Q1028 REFZRA", "EFJO 031150Z AUTO 02009KT 340V060 CAVOK M00/M11 Q1031", "EFJY 031150Z 02009KT 340V060 CAVOK M00/M12 Q1032", "EFKE 031150Z AUTO 22010KT CAVOK M02/M09 Q1035", "EFKI 031150Z AUTO 34009KT CAVOK M00/M11 Q1033", "EFKK 031150Z AUTO 35003KT CAVOK 01/M13 Q1034", "EFKS 031150Z AUTO 18004KT 140V220 CAVOK M01/M13 Q1032", "EFKT 031150Z AUTO 21013KT CAVOK M00/M12 Q1029 REFZRA", "EFKU 031150Z 07005KT 020V110 CAVOK M00/M13 Q1032", "EFLP 031150Z AUTO 02013KT CAVOK M00/M09 Q1028", "EFMA 031150Z AUTO 03009KT CAVOK 01/M08 Q1034", "EFMI 031150Z AUTO 03007KT 320V110 CAVOK 01/M12 Q1030", "EFOU 031150Z AUTO 16003KT 100V260 CAVOK 01/M14 Q1035", "EFPO 031150Z AUTO 01007KT 310V050 CAVOK 02/M10 Q1033", "EFRO 031150Z 22015KT CAVOK M01/M12 Q1032", "EFSA 031150Z AUTO 01014KT CAVOK 00/M10 Q1030", "EFSI 031150Z AUTO 04004KT 310V100 CAVOK 01/M12 Q1033", "EFTP 031150Z 02009KT 330V060 CAVOK 00/M11 Q1032", "EFTU 031150Z AUTO 01007KT 330V030 CAVOK 01/M11 Q1032", "EFUT 031150Z 02012KT 350V060 CAVOK 01/M11 Q1029", "EFVA 031150Z AUTO 17003KT 140V200 CAVOK 01/M12 Q1034", "EGAA 031150Z AUTO 16017KT 9999 FEW023 BKN028 09/05 Q1027", "EGAC 031150Z AUTO 15012KT 120V180 9999 BKN020 OVC025 09/04 Q1028", "EGAE 031150Z 17013KT 140V200 9999 FEW025 OVC028 11/06 Q1025", "EGBB 031150Z 15010KT 110V170 9999 SCT028 09/02 Q1031", "EGBJ 031150Z 11004KT 9999 SCT037 10/02 Q1030", "EGCC 031150Z AUTO 14005KT 050V210 9999 NCD 09/01 Q1031", "EGCK 031150Z 18008KT 160V240 CAVOK 12/00 Q1029", "EGDM 031120Z AUTO 11010KT 9999 BKN027/// 11/05 Q1029", "EGDR 031120Z 10016KT 9999 FEW025 SCT030 10/05 Q1027 TEMPO SCT022 RMK BLU TEMPO WHT", "EGDY 031120Z 11010KT 9999 SCT030 10/03 Q1029 NOSIG RMK BLU BLU", "EGEC 031150Z 13021KT 9999 FEW035 09/04 Q1027", "EGEO 031150Z 16013KT 9999 FEW028 11/03 Q1028", "EGFF 031150Z AUTO 11007KT 9999 BKN024 09/03 Q1029", "EGGD 031150Z AUTO 08009KT 060V150 9999 BKN024 09/03 Q1029", "EGGP 031150Z 15011KT 120V190 9999 FEW030 09/02 Q1030", "EGGW 031150Z AUTO 11008KT 9999 BKN031 09/02 Q1030", "EGHC 031150Z 13021KT 9999 FEW025 10/05 Q1026", "EGHE 031150Z 13019KT 9999 SCT017 11/06 Q1026", "EGHH 031150Z 10010KT 070V130 9999 SCT033 11/01 Q1029", "EGHI 031150Z 06006KT 360V140 9999 FEW035 11/02 Q1029", "EGHQ 031150Z 10014KT 080V140 9999 FEW024 10/04 Q1027", "EGJA 031150Z 08016KT 9999 FEW024 09/04 Q1027", "EGJB 031150Z 08010KT 040V100 9999 FEW024 10/04 Q1027", "EGJJ 031150Z 07013KT 030V100 9999 FEW025 09/04 Q1027", "EGKA 031150Z 05011KT 020V100 9999 FEW037 11/02 Q1029", "EGKB 031150Z 08008KT 030V140 9999 SCT030 08/01 Q1030", "EGKK 031150Z 08009KT 9999 SCT036 10/02 Q1030", "EGLC 031150Z AUTO 10013KT 9999 NCD 10/01 Q1031", "EGLF 031150Z AUTO 10009KT 060V130 9999 BKN034/// 11/02 Q1029", "EGLL 031150Z AUTO 08008KT 040V110 9999 BKN034 10/02 Q1030", "EGMC 031150Z 10010KT 070V130 9999 SCT029 10/01 Q1030", "EGMD 031150Z 07016KT CAVOK 11/03 Q1030", "EGNH 031150Z 17010KT 140V200 CAVOK 10/02 Q1031", "EGNJ 031150Z 11010KT 070V140 9999 SCT030 10/03 Q1032", "EGNM 031150Z 13007KT 100V160 9999 FEW020 08/01 Q1031", "EGNO 031150Z 16008KT 100V200 CAVOK 09/01 Q1030", "EGNR 031150Z 15009KT 120V180 9999 FEW023 09/02 Q1031", "EGNS 031150Z 11014KT 9999 FEW015 08/03 Q1029 NOSIG", "EGNT 031150Z 21010KT 160V240 9999 FEW040 09/00 Q1031", "EGNV 031150Z 16009KT 140V200 9999 FEW029 09/02 Q1031", "EGNX 031150Z 12008KT 9999 FEW030 09/02 Q1031", "EGOM 031120Z AUTO 19008KT 9999 NCD 08/M02 Q1029", "EGOP 031120Z AUTO 14011KT 9999 NCD 09/03 Q1029", "EGOS 031050Z 14008KT 9999 FEW027 08/01 Q1031 NOSIG RMK BLU BLU", "EGOV 031120Z 18011KT CAVOK 10/02 Q1029 NOSIG RMK BLU BLU", "EGOW 031120Z 16012KT 9999 FEW030 08/01 Q1031 RMK BLU", "EGPA 031150Z 16017KT CAVOK 08/03 Q1028", "EGPB 031150Z 18015KT 9999 BKN020 07/02 Q1030", "EGPC 031150Z 15014KT CAVOK 08/03 Q1027", "EGPD 031150Z 17018KT 9999 FEW024 07/02 Q1030 NOSIG", "EGPE 031150Z VRB01KT CAVOK 12/03 Q1027", "EGPF 031150Z AUTO 14009KT 100V180 9999 NCD 11/02 Q1029", "EGPH 031150Z 03007KT 9999 FEW028 09/03 Q1030", "EGPI 031150Z 16025KT 9999 FEW020 09/05 Q1027", "EGPK 031150Z 12013KT 9999 FEW030 10/02 Q1029", "EGPL 031150Z 17026G36KT 9999 FEW020 SCT044 09/06 Q1024", "EGPN 031150Z 11001KT 9999 FEW015 08/01 Q1030", "EGPO 031150Z 19023KT 9999 FEW022 11/05 Q1025", "EGPU 031120Z 15027KT 9999 SCT012 SCT027 08/06 Q1026", "EGQA 031050Z 16006KT 9999 SKC 11/03 Q1027 RMK BLU", "EGQK 031120Z AUTO 17006KT 4900 -RA NCD 14/01 Q1027", "EGQL 031050Z 04002KT 9999 SKC 08/01 Q1030 RMK BLU", "EGQM 031120Z AUTO 15016KT 9999 NCD 07/02 Q1031", "EGQS 031120Z 14006KT CAVOK 12/02 Q1027 NOSIG RMK BLU BLU", "EGSC 031150Z 12005KT 080V160 9999 SCT038 11/02 Q1031", "EGSH 031150Z 10009KT 060V150 9999 SCT029 09/02 Q1032", "EGSS 031150Z AUTO 10008KT 070V130 9999 BKN033 09/02 Q1031", "EGSY 031150Z 11011KT 080V140 9999 SCT024 08/02 Q1029", "EGTC 031120Z 09008KT 9999 SCT028 08/02 Q1030", "EGTE 031150Z 10011KT 9999 SCT020 09/04 Q1029", "EGTK 031150Z 10007KT 060V130 9999 SCT030 08/02 Q1030", "EGUB 031120Z 09010KT 9999 SCT032 09/02 Q1030 NOSIG RMK BLU BLU", "EGUL 031055Z 08008KT 9999 BKN035 10/03 A3044 RMK AO2A SLP312 T01030029 $", "EGUN 031055Z 08008KT 9999 BKN037 10/05 A3045 RMK AO2A SLP315 T01020050 $", "EGUW 031120Z 11008KT 9999 SCT035 09/01 Q1031 NOSIG RMK BLU BLU", "EGVA 031130Z AUTO 12007KT 9999 SCT029 09/03 A3039 RMK AO2 SLP297 FZRANO $", "EGVN 031120Z 11009KT 9999 FEW030 09/01 Q1030 NOSIG RMK BLU BLU", "EGVO 031120Z 09010KT 9999 SCT029 10/02 Q1029 NOSIG RMK BLU BLU", "EGVP 031120Z 11011KT 9999 FEW029 10/02 Q1029 NOSIG RMK BLU BLU", "EGWC 031050Z 15009KT 9999 FEW025 08/00 Q1031 RMK BLU", "EGWU 031120Z 09009KT 9999 BKN030 10/02 Q1030 NOSIG RMK BLU BLU", "EGXC 031120Z 11009KT 9999 SCT030 10/03 Q1032 NOSIG RMK BLU BLU", "EGXE 031120Z 15008KT 9999 FEW024 08/01 Q1031 NOSIG RMK BLU BLU", "EGXS 031120Z 11013KT 9999 BKN023 09/02 Q1032 RMK WHT", "EGXT 031120Z AUTO 11007KT 9999 BKN029/// 10/03 Q1030", "EGXV 031120Z AUTO 11008KT 9999 FEW029/// 09/02 Q1032", "EGXW 031120Z 10009KT 9999 FEW028 09/02 Q1031 NOSIG RMK BLU BLU", "EGXZ 031120Z AUTO 13011KT 9999 FEW029/// 09/02 Q1032", "EGYD 031120Z 12010KT 9999 FEW030 10/02 Q1031 NOSIG RMK BLU BLU", "EGYE 031050Z 11009KT 9999 FEW025 ///// Q1031 RMK BLU", "EGYH 031120Z AUTO 11010KT 9999 BKN032/// 11/02 Q1031", "EGYM 031120Z 11007KT 9999 SCT030 10/01 Q1031 NOSIG RMK BLU BLU", "EGYP 031120Z 01005KT 9999 FEW014 04/03 Q1014 NOSIG", "EHAK 031125Z AUTO 15012KT 100V190 9999 NCD 06/M01 Q1034", "EHAM 031125Z 10015G25KT 060V130 CAVOK 08/M06 Q1032 NOSIG", "EHBK 031125Z AUTO 06015KT 030V110 9999 NCD 08/M02 Q1029 NOSIG", "EHDL 031125Z AUTO VRB14G24KT 9999 NCD 08/M06 Q1032 BLU", "EHDV 031125Z AUTO 16018KT 9999 NCD 06/// Q1034", "EHEH 031125Z AUTO 07013G23KT 020V120 9999 NCD 08/M08 Q1031 BLU NOSIG", "EHFD 031125Z AUTO 13011KT 9999 NSC 05/M00 Q1035", "EHFS 031125Z AUTO 07012KT 030V110 9999 NCD 08/M02 Q1030", "EHGG 031125Z AUTO 07007KT 030V140 9999 NCD 08/M06 Q1034 NOSIG", "EHGR 031125Z AUTO 08016KT 030V120 9999 NCD 09/M07 Q1031 BLU NOSIG", "EHHW 031125Z AUTO 11007KT 070V150 //// // NCD 05/M03 Q1034 RE//", "EHJA 031125Z AUTO 13017KT 9999 NCD 06/01 Q1033", "EHJR 031125Z AUTO 12016KT //// // ///////// 06/M02 Q1033 RE// W08/H12", "EHKD 031125Z AUTO 11014KT 070V140 9999 NCD 08/M04 Q1033 BLU NOSIG", "EHKV 031125Z AUTO 13016KT 9999 NCD 06/M03 Q1033", "EHLE 031125Z AUTO 10013KT 060V150 9999 NCD 09/M04 Q1033 NOSIG", "EHLW 031125Z AUTO 09012KT 030V170 9999 NCD 08/M06 Q1034 BLU", "EHMG 031125Z AUTO 11011KT 9999 NCD 06/M02 Q1035", "EHPG 031125Z AUTO 09018KT 9999 NCD 06/M03 Q1032", "EHRD 031125Z AUTO 10015KT 070V140 9999 NCD 08/M05 Q1031 NOSIG", "EHSA 031125Z AUTO 07015KT 9999 ///////// 06/M03 Q1031 W07/H10", "EHSC 031125Z AUTO 08013KT 9999 ///////// 07/M04 Q1032 W09/H8", "EHVK 031125Z AUTO 09016KT 040V130 9999 NCD 08/M05 Q1031 BLU TEMPO 08015G25KT", "EHVL 031125Z AUTO 11012KT 9999 NCD 09/M03 Q1034 BLU", "EHWO 031125Z AUTO 07013KT 030V100 9999 NCD 09/M03 Q1030 BLU TEMPO 07010G20KT", "EICK 031130Z 15018KT 9999 FEW011 SCT017 BKN030 10/06 Q1025 NOSIG", "EIDL 031130Z 17026G36KT 9999 FEW024 10/05 Q1023", "EIDW 031130Z 14011KT 090V170 9999 FEW010 BKN026 09/05 Q1027 NOSIG", "EIKN 031130Z 16014KT 130V190 9999 SCT018 BKN026 09/05 Q1022 NOSIG", "EIKY 031100Z 14011KT 100V170 9999 BKN033 12/06 Q1023", "EIME 031130Z 15007KT 120V200 9999 SCT024 BKN028 10/05 Q1027", "EINN 031130Z 15017KT 9999 FEW025 BKN031 12/05 Q1024 NOSIG", "EISG 031130Z 15016KT 100V180 9999 BKN030 11/04 Q1023", "EIWF 031130Z 16013KT 140V200 9999 FEW009 BKN032 11/08 Q1027", "EKAH 031150Z AUTO 10005KT 050V150 9999 NCD 07/M06 Q1036", "EKBI 031150Z AUTO 10009KT 040V150 9999 NCD 07/M04 Q1035", "EKCH 031150Z AUTO 35004KT 300V070 9999 NCD 04/M06 Q1035 NOSIG", "EKEB 031150Z AUTO 06009KT 9999 FEW044/// 07/M03 Q1035", "EKKA 031150Z AUTO 07005KT 360V130 9999 FEW053/// 07/M06 Q1035 NOSIG", "EKOD 031150Z 05009KT 020V110 9999 FEW034 06/M06 Q1036", "EKRK 031150Z AUTO 08006KT 030V120 9999 NCD 05/M12 Q1035", "EKRN 031150Z AUTO 01009KT 340V040 9999 BKN031/// 03/M05 Q1034", "EKRS 031150Z AUTO VRB06KT 9999 NCD 06/M07 Q1034", "EKSB 031154Z 08006KT 050V110 9999 SCT035 06/M02 Q1035", "EKSP 031150Z 08007KT 020V120 9999 SCT032 06/M02 Q1035 NOSIG", "EKVD 031150Z 06011KT 030V100 9999 SCT033 06/M02 Q1035", "EKVG 031150Z AUTO 16015KT 9999 BKN016/// OVC039/// 09/06 Q1023 RMK SCT015/// OVC038/// WIND SKEID 14023G33KT 110V190", "EKVJ 031150Z VRB04KT 9999 FEW045 08/// Q1035", "EKYT 031150Z VRB01KT CAVOK 07/M04 Q1036", "ELLX 031120Z 05014KT 9999 FEW038 07/M01 Q1026 NOSIG", "ENAL 031150Z 23012KT CAVOK 08/01 Q1032", "ENAN 031150Z 20013KT 4500 -SHSNRA FEW006 SCT008 BKN016 02/M00 Q1021", "ENAT 031120Z 16009KT CAVOK M01/M12 Q1023 RMK WIND 700FT 18013KT", "ENBL 031120Z 25005KT 9999 FEW030 SCT035 BKN040 05/M03 Q1033", "ENBN 031120Z 20016KT 9999 VCSH FEW008 BKN010 04/02 Q1030", "ENBO 031150Z 11011KT 9999 FEW020 SCT025 BKN035 03/M02 Q1027 BECMG 23018KT", "ENBR 031150Z 20010KT 9999 VCSH FEW018TCU BKN025 07/01 Q1035 NOSIG RMK WIND 1200FT 21010KT", "ENBS 031120Z 22038KT 9999 BLSN SCT120 M05/M07 Q1020", "ENBV 031120Z 22034KT 9999 DRSN NSC M03/M07 Q1021", "ENCN 031150Z 21010KT 9999 FEW025 07/01 Q1035", "ENDR 031120Z AUTO 23031KT 9999NDV OVC014/// 05/03 Q1030 W///S4", "ENDU 031150Z 19011KT 160V220 9999 FEW040TCU SCT050 05/M06 Q1022 TEMPO 22015G25KT 4000 -SHRASN VV014 RMK WIND 1100FT 20018KT WIND 2200FT 21023KT", "ENEV 031120Z 20005KT 7000 -SHSN VV011 01/M01 Q1025 RMK WIND 1400FT 18008KT", "ENFB 031120Z AUTO 20019KT 9999NDV SCT025/// BKN055/// ///// Q//// W///S4", "ENFL 031120Z 20010KT 9999 FEW026 SCT032 BKN070 08/02 Q1034", "ENGC 031120Z 20016KT 9999 FEW025 BKN050 06/00 Q1032 W06/S4", "ENGM 031150Z 15008KT CAVOK 03/M04 Q1033 NOSIG", "ENHD 031150Z 20008KT 9999 FEW025 SCT200 07/01 Q1035", "ENHE 031120Z 24014KT 9999 FEW017 BKN100 06/03 Q1029 W///S3", "ENHF 031120Z VRB05KT CAVOK M01/M10 Q1020 RMK WIND 1254FT 20017KT", "ENHK 031120Z 09010KT 9999 VCSH BKN048 01/M08 Q1021", "ENHM 031120Z AUTO 20020KT //// SCT031/// BKN035/// 06/00 Q1033 W08/S/", "ENHV 031120Z 20021KT CAVOK M02/M08 Q1022", "ENJS 031120Z 19019KT 9999 BKN030 06/M01 Q1034 W07/S/", "ENKB 031120Z VRB04KT CAVOK 07/M05 Q1032 RMK WIND 745FT 17007KT", "ENKR 031120Z 21021KT CAVOK M01/M10 Q1027 RMK WIND 731FT 21030KT", "ENLA 031120Z AUTO 15012KT 9999NDV NCD 06/03 Q1034 W///S3", "ENLE 031120Z 14011KT CAVOK 06/00 Q1034 W07/S3", "ENLK 031120Z 20012KT 9999 VCSH FEW010 BKN035 05/02 Q1024", "ENMH 031120Z AUTO 11004KT 080V180 9999 FEW108/// M01/M07 Q1022", "ENML 031120Z 06003KT CAVOK 06/M04 Q1033", "ENMS 031120Z 00000KT 6000 -SHSN SCT018 BKN022 00/M02 Q1030 RMK WIND 412FT 00000KT", "ENNA 031120Z 19023KT CAVOK M02/M10 Q1023 RMK WIND 1800FT 19019KT", "ENNE 031120Z 23020KT 9999 FEW015 BKN050 07/03 Q1027 W///S4", "ENNM 031120Z 06008KT 9999 -SHRA SCT009 BKN015 01/M01 Q1032", "ENNO 031120Z 14004KT CAVOK 05/M08 Q1035", "ENOA 031120Z 20016KT 9999 BKN025 06/01 Q1033 W///S3", "ENOL 031150Z 25010KT 9999 FEW025 BKN070 06/M01 Q1033 NOSIG", "ENOV 031120Z VRB03KT CAVOK 08/M03 Q1033 RMK WIND RWY24 26004KT WIND 2090FT 23013KT", "ENQA 031120Z AUTO 20017KT 9999NDV BKN025/// BKN065/// 06/00 Q1034 W11/S3", "ENQC 031120Z AUTO 19015KT 9999NDV FEW026/// BKN068/// 06/01 Q1033 W///S3", "ENQR 031120Z AUTO 19021KT 9999NDV OVC055/// 07/02 Q1031 W08/S4", "ENRA 031120Z 36002KT 9999 -SN BKN028 M03/M06 Q1030", "ENRM 031120Z 23011KT 9999 VCSH FEW006 BKN167 05/04 Q1031", "ENRO 031150Z VRB02KT CAVOK 01/M11 Q1031", "ENRS 031120Z AUTO 23015KT 9999 FEW070/// 04/02 Q1025", "ENRY 031150Z 19013KT CAVOK 05/00 Q1035 NOSIG", "ENSB 031150Z 15009KT 110V190 9999 VCSH DRSN FEW010 SCT020 BKN030 M08/M12 Q1007 TEMPO 12025KT 4000 -SN VV012 RMK WIND 1400FT 13012KT", "ENSD 031120Z 00000KT 9999 FEW035 SCT055 08/M03 Q1033 RMK WIND RWY26 00000KT WIND 1140FT 19006KT", "ENSE 031120Z AUTO 20021KT 9999NDV FEW023/// OVC056/// 08/02 Q1032 W///S/", "ENSF 031120Z AUTO 20018KT 9999NDV FEW026/// BKN056/// ///// Q//// W///S4", "ENSG 031120Z 00000KT 9999 FEW025 BKN040 01/M09 Q1032 RMK WIND 3806FT 29011KT", "ENSH 031120Z 21017KT 9999 VCSH SCT007 BKN010 03/02 Q1024 RMK WIND 0150FT /////KT", "ENSK 031120Z 21011KT 9999 -RA BKN031 04/01 Q1023", "ENSL 031120Z AUTO 20020KT 9999NDV NCD 06/01 Q1033 W04/S3", "ENSO 031120Z 19009KT 140V250 9999 SCT028TCU 07/01 Q1035", "ENSR 031120Z 21006KT 160V240 9999 BKN051 01/M09 Q1022 RMK WIND RWY32 16005KT WIND 1118FT 11005KT", "ENSS 031120Z 22032KT 9999 DRSN NSC M03/M06 Q1025 RMK WIND 0500FT 23042KT", "ENST 031120Z 19014KT 9999 VCSH FEW008 SCT022 BKN035 04/02 Q1029 RMK WIND 300FT 19014KT", "ENTC 031150Z 18017KT 9999 BKN037 03/M06 Q1022 NOSIG RMK WIND 2600FT 18027KT", "ENTO 031150Z 21009KT CAVOK 06/M03 Q1035 NOSIG", "ENUG 031120Z AUTO 22030KT 9999NDV OVC044/// 02/M07 Q1017 W///S4", "ENUN 031120Z AUTO 27019KT 9999NDV FEW018/// 05/03 Q1024 W06/S4", "ENVA 031150Z VRB02KT 9999 FEW044 BKN070 08/M06 Q1033 NOSIG RMK WIND 670FT 29003KT", "ENVD 031120Z 22020KT 9999 DRSN NSC M01/M10 Q1026", "ENWV 031120Z AUTO 15013KT 9999NDV NCD 07/M01 Q1034 W///S3", "ENZV 031150Z 22006KT 190V250 9999 FEW030 07/00 Q1035", "EPBY 031130Z 03017KT 360V060 9999 BKN045 04/M08 Q1029", "EPGD 031130Z 02014KT 350V050 9999 BKN030 03/M05 Q1030", "EPKK 031130Z 02012KT 9999 SCT023 BKN036 01/M04 Q1023", "EPKT 031130Z 35014KT 9999 FEW046 03/M08 Q1023", "EPLB 031130Z 02010KT 340V050 9999 SCT045 03/M05 Q1021", "EPLL 031130Z 35011KT 310V030 9999 BKN043 03/M08 Q1025", "EPMO 031130Z 01015KT 340V050 CAVOK 05/M07 Q1025", "EPPO 031130Z 03012KT 9999 SCT046 05/M07 Q1029", "EPRA 031130Z 02016KT 350V050 CAVOK 03/M06 Q1023", "EPRZ 031130Z 35012KT 6000 -SN OVC020 00/M03 Q1021", "EPSC 031130Z 01011KT 340V040 9999 SCT023TCU BKN027 03/M03 Q1032", "EPSY 031130Z 01015G27KT 330V030 CAVOK 04/M08 Q1026", "EPWA 031130Z 02016KT CAVOK 05/M08 Q1024 NOSIG", "EPWR 031130Z 36014KT 9999 SCT046 04/M07 Q1027", "EPZG 031130Z 01009KT 340V040 9999 BKN049 04/M07 Q1030", "ESCF 031150Z 25005KT CAVOK 02/M07 Q1035", "ESCM 031150Z 35006KT CAVOK 03/M05 Q1035", "ESDF 031150Z 03007KT 330V070 CAVOK 05/M07 Q1034", "ESGG 031150Z 02008KT CAVOK 06/M08 Q1035", "ESGJ 031150Z 01010KT CAVOK 01/M07 Q1034", "ESGP 031150Z 27011KT CAVOK 06/M06 Q1036", "ESGT 031150Z 34004KT 290V030 CAVOK 05/M06 Q1036", "ESIA 031150Z 11003KT 090V150 CAVOK 01/M04 Q1035", "ESIB 031150Z VRB03KT CAVOK 04/M07 Q1036", "ESKM 031120Z AUTO 08005KT 9999 NCD 03/M07 Q1034", "ESKN 031150Z 31006KT 260V020 CAVOK 03/M08 Q1034", "ESKS 031150Z AUTO VRB03KT 9999 FEW210/// 02/M09 Q1032", "ESMK 031150Z 08006KT 9999 FEW042 05/M07 Q1034", "ESMQ 031150Z 05011KT 9999 FEW030 03/M03 Q1034", "ESMS 031150Z 35004KT 290V030 CAVOK 04/M09 Q1034", "ESMT 031150Z 06010KT 040V100 CAVOK 07/M12 Q1035", "ESMX 031150Z 33006KT 290V010 CAVOK 04/M11 Q1034", "ESND 031120Z AUTO 29004KT 240V330 9999 NCD 02/M09 Q1032", "ESNG 031150Z AUTO 19011KT 160V220 9999 BKN066/// M00/M11 Q1027", "ESNK 031150Z AUTO 17007KT 9999 NCD 02/M07 Q1034", "ESNL 031120Z AUTO 21005KT 150V260 9999 BKN050/// 02/M10 Q1032", "ESNN 031150Z AUTO 13010KT 9999 NCD 00/M05 Q1035", "ESNO 031150Z AUTO 18007KT 140V230 9999 NCD 00/M10 Q1033", "ESNQ 031150Z 21018KT CAVOK M03/M12 Q1024", "ESNS 031150Z 17008KT 140V220 CAVOK 02/M12 Q1033", "ESNU 031150Z 15008KT CAVOK M00/M08 Q1034", "ESNV 031120Z AUTO 20005KT 160V230 9999 FEW042/// OVC062/// M02/M09 Q1031", "ESNX 031120Z 18009KT CAVOK 00/M10 Q1029", "ESNZ 031150Z AUTO 26002KT 9999 OVC048/// M02/M08 Q1031", "ESOE 031150Z AUTO 14003KT 100V180 9999 NCD 05/M07 Q1035", "ESOH 031150Z AUTO 20004KT 130V300 9999 NCD 05/M07 Q1034", "ESOK 031150Z 18004KT 150V230 CAVOK 04/M05 Q1035", "ESOW 031150Z 36007KT 330V040 CAVOK 04/M10 Q1035", "ESPA 031150Z 18011KT CAVOK M01/M08 Q1033", "ESPE 031150Z 24007KT 200V300 9999 FEW043 03/M09 Q1030", "ESSA 031150Z 36008KT CAVOK 03/M07 Q1034 NOSIG", "ESSB 031150Z 33010KT 300V010 CAVOK 04/M07 Q1034", "ESSD 031150Z 12003KT CAVOK 04/M07 Q1034", "ESSL 031150Z VRB03KT CAVOK 03/M07 Q1035", "ESSP 031150Z 29004KT 230V340 CAVOK 04/M09 Q1035", "ESSV 031150Z 36015KT 9999 FEW032 02/M04 Q1033", "ESTA 031150Z 01007KT CAVOK 06/M11 Q1035", "ESTL 031150Z 05007KT 020V100 CAVOK 05/M12 Q1034", "ESUP 031120Z AUTO 19016KT 9999 NCD 00/M11 Q1029", "ESUT 031150Z 33004KT 3000 -SN VV019 M06/M10 Q1028", "ETAD 031125Z AUTO 06014KT 9999 BKN039 06/M03 A3031 RMK AO2 SLP265 $", "ETAR 031105Z AUTO 04016KT 9999 SCT044 06/M01 A3032 RMK AO2 WSHFT 1057 SLP277 $", "ETEB 031055Z AUTO 04009KT 9999 SCT041 BKN050 BKN200 03/M05 A3029 RMK AO2 SLP286 T00321052", "ETGG 031120Z AUTO 08006KT 9999 // ////// 07/M00 Q1034 ///", "ETHA 031120Z 06010KT 9999 -SNSG FEW015 BKN030 01/M02 Q1022 BLU BLU", "ETHB 031120Z 07011KT 9999 SCT048 05/M05 Q1032 BLU+BLU", "ETHC 031120Z 03011KT 9999 BKN050 06/M06 Q1033 BLU BLU", "ETHF 031120Z 07009KT 9999 FEW042 SCT044 05/M06 Q1031 BLU+BLU+", "ETHL 031120Z 05012KT 9999 SCT025 BKN050 04/M03 Q1023 BLU BLU", "ETHN 031120Z 08010KT 9999 BKN035 04/M03 Q1026 BLU BLU", "ETHS 031120Z 05012KT 9999 SCT045 05/M07 Q1033 BLACKBLU+BLU+ TEMPO BLU", "ETIC 031055Z AUTO 02005KT 9999 FEW050 05/M07 A3028 RMK AO2 SLP269 T00511071 $", "ETIK 031055Z 05014KT 9999 BKN047 05/M03 A3033 RMK AO2A SLP282 T00471026 FZRANO", "ETMN 031120Z 03008KT 9999 FEW040 07/M06 Q1034 BLU+BLU+", "ETND 031120Z 10009G20KT 9999 SCT040 07/M03 Q1033 BLU+", "ETNG 031150Z 06013KT CAVOK 09/M01 Q1029 NOSIG", "ETNH 031120Z 08006KT 9999 SCT037 07/M03 Q1034 BLU+BLU+", "ETNL 031120Z 06009KT 9999 FEW045 05/M06 Q1033 BLU+", "ETNN 031120Z 08010KT 9999 FEW035 07/M05 Q1029 BLU+", "ETNS 031120Z 07006KT 9999 SCT029 07/M01 Q1034 BLU+", "ETNT 031120Z 06007KT 9999 FEW045 07/M05 Q1034 BLACKBLU+", "ETNW 031120Z 06010KT 9999 BKN040 06/M05 Q1032 BLU BLU+ TEMPO BLU", "ETOU 031055Z AUTO 09010G19KT 9999 BKN041 06/M22 A3039 RMK AO2 SLP298 T00611222", "ETSB 031120Z 07012KT 9999 FEW028 05/M04 Q1027 BLU+", "ETSH 031120Z 05008KT 9999 BKN042 05/M05 Q1031 BLU BLU+ TEMPO BLU", "ETSI 031120Z 05012KT 9999 FEW040 BKN050 05/M06 Q1025 BLU BLU BECMG BLU+", "ETSL 031120Z 04011KT 9999 SCT025 BKN050 04/M02 Q1023 BLU BLU", "ETSN 031120Z 03006KT 9999 SCT035 BKN050 07/M02 Q1024 BLU", "ETWM 031120Z 08011KT 9999 FEW045 07/M06 Q1033 BLU+", "EVGA 031150Z 33009KT 290V010 9999 SCT038 BKN047 02/M06 Q1024 NOSIG", "EVLA 031150Z AUTO 36010KT 320V040 9999 SCT042/// 03/M06 Q1029", "EVRA 031150Z 34018KT 9999 SCT032 02/M06 Q1026 NOSIG", "EVVA 031150Z AUTO 36016KT CAVOK 03/M05 Q1030", "EYKA 031150Z 35011KT 310V020 9999 SCT046 BKN049 03/M06 Q1024", "EYPA 031150Z 34009G20KT 290V020 9999 BKN046 03/M03 Q1029", "EYSA 031150Z 36018KT 9999 FEW044 03/M09 Q1026 NOSIG", "EYVI 031150Z 01014KT 330V040 9999 BKN040 02/M08 Q1022 NOSIG", "FABL 031100Z 28009KT 9999 FEW020 24/10 Q1019 NOSIG", "FACT 031100Z 27005KT 190V330 9999 FEW020 BKN040 21/13 Q1018 NOSIG", "FAEL 031100Z 23014KT 9999 FEW033 23/20 Q1011", "FAGG 031100Z 23009KT 190V250 9999 -RA FEW010 SCT014 BKN036 19/16 Q1016", "FAHS 031100Z AUTO 32008KT //// // ////// 30/23 Q1014", "FAJB 031100Z AUTO 31003KT //// // ////// 23/13 Q1020", "FAKM 031100Z 25008KT CAVOK 27/12 Q1017", "FAKN 031100Z 06009KT 9999 FEW030 28/19 Q1016 NOSIG", "FALA 031100Z 32010KT 290V350 9999 SCT025 22/14 Q1021 NOSIG", "FALE 031100Z 13008KT 090V160 9999 FEW025 27/20 Q1007 NOSIG", "FALW 031100Z AUTO 24008KT //// // ////// 23/12 Q1017", "FAMM 031100Z 32010KT 9999 SCT030 FEW040TCU 27/13 Q1018", "FAOR 031130Z 31012KT 270V340 9999 FEW025 21/13 Q1021 NOSIG", "FAPE 031100Z 25026G38KT 9999 FEW034 24/15 Q1012 NOSIG", "FAPN 031100Z AUTO 29005KT //// // ////// 28/16 Q1018", "FAPP 031100Z 30005KT 9999 SCT030 27/13 Q1021 NOSIG", "FAUP 031100Z 21006KT CAVOK 25/05 Q1018 NOSIG", "FAUT 031140Z 20020G32KT 9999 FEW035 24/15 Q1011", "FAVV 031100Z AUTO 28007KT //// // ////// 25/12 Q1021", "FAWB 031100Z AUTO 29007KT //// // ////// 24/16 Q1018", "FBSK 031100Z 32006KT 270V040 9999 FEW030 29/15 Q1017 NOSIG", "FDBB 031100Z AUTO 04007KT //// // ////// 33/22 Q1008", "FDMY 031100Z AUTO 09006KT //// // ////// 30/20 Q1021", "FDPP 031100Z AUTO 02004KT //// // ////// 28/18 Q1019", "FDSK 031100Z 05014KT 9999 FEW035 29/18 Q1011 NOSIG", "FDST 031100Z AUTO 23009KT //// // ////// 27/20 Q1011", "FHAW 031050Z 12014KT 9999 -SHRA FEW015 BKN039 25/23 Q1011 RMK BLU", "FJDG 031155Z 35006KT 9999 FEW021 SCT050 OVC090 28/24 A2978 RMK SLP081 60002 70028 8/89/ T02780244 10300 20278 55003", "FMCZ 031130Z AUTO 04005KT 330V100 9999 ///TCU 30/24 Q1008 TEMPO TSRA FEW018CB", "FMEE 031130Z AUTO 09007KT 9999 ///CB 29/23 Q1011 BECMG FEW020 SCT050", "FMEP 031130Z AUTO 12006KT 090V150 9999 FEW011/// OVC042/// ///CB 27/23 Q1011 TEMPO 2000 SHRA BECMG 24010KT", "FMMI 031130Z 16004KT 040V210 9999 SCT020TCU 27/17 Q1015 NOSIG", "FMMT 031100Z 13006KT 090V170 9999 SCT017TCU SCT033 29/23 Q1010 NOSIG", "FMNA 031100Z 14010KT 9999 SCT020 29/24 Q1008", "FMNM 031100Z 36009KT 320V030 9999 SCT017CB 31/24 Q1009 NOSIG", "FMNN 031100Z 03004KT 9999 FEW020 SCT250 32/// Q1008", "FMSD 031100Z 12016KT 9999 FEW020 SCT033 29/22 Q1011", "FNCA 031100Z 21008KT 180V270 9999 SCT028 32/25 Q1009", "FNCT 031100Z AUTO 31011KT //// ////// ///// Q////", "FNGI 031100Z 14007KT 9999 FEW018 28/16 Q1017", "FNHU 031100Z AUTO 11009KT 080V150 9999 // ////// 24/15 Q1019", "FNLU 031100Z 28012KT 9999 SCT023 FEW025CB BKN080 31/23 Q1008 NOSIG", "FNUB 031100Z AUTO 12008KT 070V170 9999 FEW028 24/15 Q1022", "FNUE 031100Z 14006KT 110V180 9999 SCT012 SCT030 21/18 Q1018", "FOOG 031130Z 19011KT 9999 SCT010 FEW020CB 30/25 Q1009", "FQBR 031100Z 20007KT 9999 FEW018 29/21 Q1012", "FQLC 031100Z 14003KT 9999 BKN016 FEW025CB BKN080 23/17 Q1019 RMK CB TO N/S/W/NW", "FQMA 031100Z 35010KT 9999 FEW025 32/19 Q1010 NOSIG", "FQNC 031100Z 13004KT 9999 SCT015 BKN020 SCT100 30/25 Q1010 RMK RERA", "FQNP 031100Z 19010KT 9999 BKN020 FEW030CB 27/21 Q1013 RMK CB TO E", "FQPB 031100Z 14012KT 110V170 9999 FEW020 FEW025CB BKN/// 31/23 Q1010 RMK CB TO NW", "FQTT 031100Z 12008KT 090V160 9999 BKN018 30/29 Q1013", "FQVL 031100Z /////KT 9999 FEW020 29/22 Q1013", "FQXA 031100Z 33006KT 310V010 9999 SCT020 29/20 Q1013", "FSIA 031100Z 35007KT 9999 SCT023 31/24 Q1007 NOSIG", "FTTA 031100Z 01005KT 9999 FEW040 39/14 Q1007", "FVFA 031100Z 12006KT 070V170 CAVOK 29/16 Q1016 NOSIG", "FVJN 031100Z 14004KT CAVOK 27/13 Q1019 NOSIG", "FVKB 031100Z 18005KT 9999 SCT045 30/20 Q1014 NOSIG", "FVRG 031100Z VRB03KT 9999 BKN040 26/12 Q1020 NOSIG", "FWCL 031100Z 24004KT 9999 FEW020 SCT025 25/20 Q1016 NOSIG", "FWKI 031100Z 09008KT 9999 FEW027CB BKN030 25/17 Q1017 NOSIG", "FYGF 031100Z AUTO 10004KT //// // ////// 27/16 Q1021", "FYKM 031100Z 09007G18KT 9999 FEW025 30/16 Q1015", "FYLZ 031100Z AUTO 20020KT //// // ////// 28/13 Q1013", "FYRU 031100Z 09004KT 9999 SCT040 ///// Q////", "FYWB 031100Z 26007KT CAVOK 26/14 Q1012", "FYWE 031100Z 02006KT 9999 SCT050 31/M02 Q1022", "FYWH 031100Z 04006KT 9999 SCT045 28/04 Q1022 BECMG FEW045TCU SCT050", "FYWW 031100Z 09003KT CAVOK 30/02 Q1021", "FZAA 031100Z 34006KT 8000 BKN022 31/24 Q1011 NOSIG", "GABS 031130Z 08009KT 030V140 8000 NSC 37/M05 Q1011 NOSIG", "GAKD 031100Z 32006KT 280V360 6000 NSC 37/17 Q1011", "GCFV 031130Z 04015KT 9999 FEW020 23/14 Q1018", "GCGM 031130Z 22006KT 160V270 9999 FEW020 21/15 Q1019 RMK R09/VRB04KT ARP/24005KT 150V320", "GCHI 031130Z 35020KT 9999 SCT020 21/16 Q1020", "GCLA 031130Z 03016KT 9999 FEW025 21/15 Q1021", "GCLP 031130Z 01025KT 9999 FEW020 23/14 Q1018 NOSIG", "GCRR 031130Z 36019KT 330V030 9999 FEW015 23/12 Q1018", "GCTS 031130Z 08019KT 9999 FEW020 23/15 Q1019 WS R07 NOSIG", "GCXO 031130Z 31016KT 290V350 9999 FEW003 SCT007 17/13 Q1021 NOSIG", "GECE 031130Z AUTO 12005KT 050V210 CAVOK 19/14 Q1016", "GEML 031130Z 09007KT 020V140 CAVOK 19/09 Q1016", "GFLL 031100Z 25008KT 9999 SCT012 FEW027CB 28/23 Q1010 RMK-CB-NE", "GGOV 031100Z 23004KT 190V290 8000 NSC 30/19 Q1010 NOSIG", "GLRB 031130Z 32003KT 9999 BKN020 31/25 Q1010 NOSIG", "GMAD 031130Z 22003KT 170V300 8000 BKN016 21/14 Q1013 NOSIG", "GMAG 031100Z 25007KT 5000 BKN013 18/15 Q1014 NOSIG", "GMAT 031100Z 35015KT 9999 FEW012 BKN017 17/14 Q1015 NOSIG", "GMFB 031100Z 16004KT 030V200 CAVOK 20/M05 Q1018 NOSIG", "GMFF 031130Z VRB03KT CAVOK 22/04 Q1015 NOSIG", "GMFK 031100Z 24006KT 210V290 CAVOK 20/02 Q1020 NOSIG", "GMFM 031100Z 04005KT 330V100 CAVOK 21/10 Q1015 NOSIG", "GMFO 031130Z VRB03KT CAVOK 23/M06 Q1016 NOSIG", "GMMB 031100Z 30007KT 260V340 9999 FEW013 21/15 Q1016 NOSIG", "GMMC 031100Z 34008KT 6000 NSC 20/15 Q1015", "GMMD 031100Z 18007KT CAVOK 22/09 Q1015 NOSIG", "GMME 031130Z 32005KT 240V360 6000 FEW013 20/15 Q1015 NOSIG", "GMMH 031100Z 01024KT 010V080 6000 NSC 20/15 Q1016 NOSIG", "GMMI 031100Z 06010KT 040V100 5000 NSC 26/11 Q1014 NOSIG", "GMML 031100Z 01016KT CAVOK 21/13 Q1017 NOSIG", "GMMN 031130Z 34010KT 300V010 CAVOK 23/14 Q1015 NOSIG", "GMMW 031100Z 05005KT 350V160 CAVOK 22/04 Q1016 NOSIG", "GMMX 031130Z 29006KT 260V030 CAVOK 24/12 Q1015 NOSIG", "GMMZ 031100Z 09005KT CAVOK 24/M08 Q1017 NOSIG", "GMTA 031100Z 35009KT 320V030 CAVOK 19/11 Q1015 NOSIG", "GMTN 031100Z 05006KT 360V100 9999 FEW016 20/13 Q1016 NOSIG", "GMTT 031130Z 04010KT CAVOK 22/15 Q1015 NOSIG", "GOBD 031130Z 23009KT 190V250 9999 FEW010 27/19 Q1010 NOSIG", "GOGK 031100Z 18004KT CAVOK 34/18 Q1008", "GQNO 031130Z 08011KT 6000 NSC 38/02 Q1009 NOSIG", "GQPP 031100Z 02018KT 7000 NSC 30/09 Q1013 NOSIG", "GUCY 031100Z 34008KT 9999 FEW015 31/23 Q1011 NOSIG", "GVBA 031100Z 02017KT 9000 FEW013 24/19 Q1012 NOSIG", "GVNP 031100Z 01007KT CAVOK 29/15 Q1011 NOSIG", "GVSV 031100Z 06019KT 8000 FEW023 25/18 Q1013 NOSIG", "HAAB 031100Z 36014KT 8000 TS FEW024 CB BKN025 16/12 Q1024", "HABD 031100Z 08004KT 9999 FEW027 30/M01 Q1019 NOSIG", "HCMF 031100Z 03011KT 9999 FEW035 31/26 Q1006", "HCMM 031100Z 13010KT 9999 FEW024TCU 31/26 Q1007", "HDAM 031100Z 06012KT 9999 FEW023 SCT133 34/21 Q1008", "HEAT 031100Z 16005KT CAVOK 29/M03 Q1013 NOSIG", "HEAX 031100Z 11009KT CAVOK 27/09 Q1013 NOSIG", "HEBA 031100Z 14006KT CAVOK 29/07 Q1011 NOSIG", "HECA 031130Z 10005KT CAVOK 30/M03 Q1010 NOSIG", "HECP 031100Z 06005KT CAVOK 29/M01 Q1012 NOSIG", "HEGN 031100Z 07004KT CAVOK 32/M02 Q1011 NOSIG", "HEIS 031100Z 06008KT CAVOK 26/04 Q1013", "HELX 031100Z 18004KT CAVOK 31/01 Q1011 NOSIG", "HEMA 031100Z 01012KT CAVOK 27/05 Q1011 NOSIG", "HEMM 031100Z 15022KT 5000 SA NSC 27/01 Q1009 TEMPO 3000", "HEPS 031100Z 08006KT CAVOK 21/14 Q1014 NOSIG", "HESG 031100Z 01006KT CAVOK 30/03 Q1010 NOSIG", "HESH 031100Z 03009KT CAVOK 30/12 Q1012 NOSIG", "HESN 031100Z 36005KT CAVOK 31/M01 Q1011 NOSIG", "HESW 031100Z 19023KT 4000 SA NSC 30/M05 Q1008", "HESX 031100Z 09008KT CAVOK 29/01 Q1011 NOSIG", "HETR 031100Z 27009KT CAVOK 25/12 Q1011", "HKEL 031100Z 12009KT 9999 FEW024CB BKN300 24/11 Q1021", "HKEM 031100Z 16003KT 9999 BKN024 25/16", "HKGA 031100Z 00000KT 9999 SCT029 36/21 Q1007", "HKJK 031100Z 06008KT 9999 BKN023 23/16 Q1018 NOSIG", "HKKI 031100Z 23010KT 9999 FEW025CB 27/18 Q1013", "HKKT 031100Z 05003KT 9999 FEW024CB BKN025 27/16", "HKLO 031100Z 27006KT 9999 -RA FEW024CB BKN090 23/21 Q1011", "HKLU 031100Z 16005KT 9999 FEW028CB 34/22 Q1008", "HKME 031100Z 13003KT 9999 FEW023CB SCT230 24/17", "HKML 031100Z 18018KT 9999 FEW022CB BKN023 33/23 Q1008", "HKNI 031100Z 13010KT 9999 TS FEW027CB BKN028 27/14", "HKNK 031100Z 30012KT 9999 TS BKN021 19/12", "HKNW 031100Z 10010KT 9999 FEW028CB BKN028TCU 24/15 Q1019", "HKWJ 031100Z VRB02KT 9999 BKN032TCU BKN290 32/22 Q1005", "HRYR 031130Z 10009KT 9999 FEW023CB BKN025 23/17 Q1017 NOSIG", "HRZA 031100Z 13008KT 9999 FEW023CB BKN025 24/17 Q1018 NOSIG", "HSDN 031100Z 36005KT CAVOK 31/02 Q1011", "HSFS 031100Z 36005KT CAVOK 33/02 Q1011", "HSGN 031100Z 18001KT CAVOK 38/01 Q1012", "HSOB 031100Z 01009KT CAVOK 34/M07 Q////", "HSPN 031100Z 05009KT CAVOK 29/14 Q1010", "HSSK 031130Z 33011KT CAVOK 36/M09 Q1008 NOSIG", "HTAR 031100Z 12005KT 9999 SCT026 SCT300 24/17 Q1018 NOSIG", "HTBU 031100Z 05010KT 9999 SCT012 FEW014CB BKN090 23/18 Q1015 NOSIG", "HTDA 031100Z 20009KT 9999 FEW018 FEW023CB SCT080 30/23 Q1010 NOSIG", "HTDO 031100Z 13006KT 9999 BKN028 FEW030CB 29/17 Q1014 NOSIG", "HTIB 031100Z 00000KT 9999 FEW017 FEW018CB BKN080 19/18 Q1015 RERA", "HTIR 031100Z 00000KT 9999 BKN023 21/18 Q1017 RERA", "HTKA 031100Z 11010KT 9999 BKN020 FEW021CB 25/20 Q1014 NOSIG", "HTKJ 031100Z 33008KT 9999 FEW027CB BKN028 27/20 Q1013 NOSIG", "HTMG 031100Z 03004KT 9999 FEW026 BKN028 FEW029CB 30/22 Q1010", "HTMP 031100Z 00000KT 9999 SCT020 FEW022CB BKN100 26/20 Q1016", "HTMT 031100Z 06010KT 9999 BKN023 FEW024CB 31/25 Q1010 NOSIG", "HTMU 031100Z 27010KT 9999 FEW020 FEW022CB 24/18 Q1016", "HTMW 031100Z 24005KT 9999 SCT018 FEW019CB BKN090 20/18 Q1018 NOSIG", "HTSO 031100Z 12006KT 9999 BKN022 FEW023CB 27/18 Q1017", "HTSU 031100Z 00000KT 9999 -SHRA BKN022 FEW023CB 19/15 Q1021", "HTTB 031100Z 14010KT 9999 SCT023 FEW024CB SCT080 27/18 Q1016 NOSIG", "HTZA 031100Z 16016KT 9999 SCT024 32/23 Q1009 NOSIG", "K04V 031129Z AUTO 00000KT 10SM CLR M03/M12 A2980 RMK AO2", "K04W 031135Z AUTO 23007KT 10SM CLR M01/M03 A2966 RMK AO2", "K05U 031135Z AUTO VRB04KT 2 1/2SM BR OVC011 A2967 RMK A01", "K06C 031135Z AUTO 15003KT 10SM BKN110 08/00 A2981 RMK AO2 T00800001", "K06D 031135Z AUTO 35017KT 10SM -SN BKN003 OVC050 M10/M11 A2976 RMK AO2", "K08D 031135Z AUTO 06009KT 9SM -SN OVC008 M08/M08 A2976 RMK AO2", "K0A0 031135Z AUTO 13005KT 10SM CLR 05/M15 A2987 RMK AO2", "K0CO 031135Z AUTO 26031G39KT BKN028 BKN034 OVC043 M06/M13 A2974 RMK AO2 PWINO", "K0E0 031135Z AUTO 12004KT 10SM CLR 07/M17 A2988 RMK AO2 T00741174", "K0F2 031135Z AUTO 1 3/4SM BR OVC003 15/15 A2967 RMK AO2 T01540152", "K0J4 031113Z AUTO 16005KT 8SM BKN005 OVC015 20/17 A2994 RMK AO2 T02000172 $", "K0R0 031135Z AUTO 20010KT 9SM FEW020 SCT027 SCT032 22/21 A2986 RMK AO2 LTG DSNT N AND NE", "K0R4 031135Z AUTO 20007KT 7SM 22/21 A2981 RMK AO2 LTG DSNT E T02160210", "K0S9 031135Z AUTO 00000KT 10SM FEW030 OVC050 02/02 A2999 RMK AO2", "K0V4 031155Z AUTO 11004KT 10SM CLR 01/01 A3011 RMK AO1", "K0VG 031135Z AUTO 03003KT 10SM CLR 03/02 A3003 RMK AO2", "K10G 031135Z AUTO 20007KT 10SM CLR 03/00 A2991 RMK AO2", "K12N 031054Z AUTO 00000KT M02/M07 A3016 RMK AO1 SLP223 T10171067", "K13K 031135Z AUTO 19014KT 10SM OVC008 14/13 A2956 RMK AO2 T01390126", "K14Y 031135Z AUTO 28009KT 10SM OVC019 00/M02 A2969 RMK AO2 PWINO", "K15M 031135Z AUTO 09003KT 8SM FEW005 BKN047 OVC060 12/12 A2983 RMK AO2 RAE1112 P0000 T01230121 $", "K17J 031135Z AUTO 00000KT 10SM OVC006 17/13 A2999 RMK AO2 T01660128", "K18A 031135Z AUTO 05003KT 10SM CLR 11/02 A3009 RMK AO2 T01080021", "K18H 031135Z AUTO 15022KT 5SM HZ SCT020 26/22 A2986 RMK A01", "K19S 031135Z AUTO 33012KT 10SM CLR 03/M04 A2960 RMK AO2 T00261041", "K1A5 031155Z AUTO 00000KT 10SM SCT120 04/02 A3009 RMK AO2 T00420017 10042 20025", "K1A6 031135Z AUTO 00000KT 10SM CLR 07/03 A3001 RMK AO2 T00700029", "K1A9 031135Z AUTO 01005KT 4SM RA OVC014 13/13 A2990 RMK AO2 P0023 T01260126", "K1AM 031055Z AUTO 00000KT 10SM CLR M08/M12 A2972 RMK AO2 SLP102 T10771119 $", "K1AW 031055Z AUTO 01009KT 10SM CLR M03/M06 A2971 RMK AO2 SLP058 T10331063 $", "K1BM 031055Z AUTO 23007KT 10SM CLR M06/M10 A2972 RMK AO2 SLP097 T10571105 $", "K1BW 031055Z AUTO 36008KT 10SM BKN060 M03/M06 A2974 RMK AO2 SLP083 T10281056 $", "K1CM 031055Z AUTO 29005KT 10SM CLR M01/M08 A2970 RMK AO2 SLP076 T10101078 $", "K1CN 031115Z AUTO 01009KT 8SM SCT006 OVC012 M05/M06 A2973 RMK AO2 CIG 005V012 SLP094 $", "K1CW 031055Z AUTO 07006KT 10SM BKN070 00/M06 A2972 RMK AO2 SLP056 T00021060 $", "K1D1 031135Z AUTO 29009KT 10SM CLR 00/M01 A2975 RMK AO2", "K1DM 031055Z AUTO 14004KT 10SM CLR M07/M08 A2974 RMK AO2 SLP110 T10691084 $", "K1DN 031122Z AUTO 05010KT 6SM BR OVC000 M06/M07 A2812 RMK AO2 FZDZE08SNB08E18FZDZB18E22 SLP544 $", "K1DW 031055Z AUTO 35010KT 10SM FEW060 M02/M06 A2971 RMK AO2 SLP064 T10231058 $", "K1EM 031055Z AUTO 27006KT 10SM CLR M05/M06 A2972 RMK AO2 SLP096 T10461063 $", "K1EN 031147Z AUTO 06008KT 3SM -FZDZ BR OVC002 M05/M05 A2951 RMK AO2 SNB33E47FZDZB47 SLP029 $", "K1EW 031055Z AUTO 19010KT 10SM FEW060 M02/M05 A2969 RMK AO2 SLP059 T10201048 $", "K1F0 031135Z AUTO 17006KT 5SM BR OVC004 17/17 A2965 RMK AO2 T01700166", "K1FW 031055Z AUTO 03006KT 10SM CLR 00/M05 A2969 RMK AO2 SLP046 T00041050 $", "K1GM 031055Z AUTO 32005KT 10SM CLR M06/M12 M RMK AO2 SLPNO T10631116 $", "K1H2 031135Z AUTO 16008KT 10SM BKN110 12/10 A2982 RMK AO2 T01190095", "K1HM 031055Z AUTO 00000KT 10SM CLR M08/M10 A2971 RMK AO2 SLP095 T10771100 $", "K1HN 031146Z AUTO 05008KT 5SM -SN BR OVC008 M05/M06 A2976 RMK AO2 SNB22E32FZDZB32E46SNB46 SLP107 $", "K1HW 031055Z AUTO 04009KT 10SM FEW110 01/M03 A2968 RMK AO2 SLP048 T00131030 $", "K1IM 031055Z AUTO 14006KT 10SM CLR M06/M11 A2971 RMK AO2 SLP090 T10631113 $", "K1IN 031055Z AUTO 06013KT 9SM -SN OVC011 M08/M09 A2971 RMK AO2 SNB0956 SLP098 P0000 T10781089 $", "K1IW 031055Z AUTO 34010KT 10SM CLR 00/M03 A2967 RMK AO2 SLP042 T00021034 $", "K1JM 031055Z AUTO 00000KT 10SM CLR M05/M06 A2972 RMK AO2 SLP098 T10551065 $", "K1JN 031120Z AUTO 04011KT 7SM -SN BKN007 OVC020 M09/M09 A2973 RMK AO2 CIG 007V020 BKN V SCT SLP103 $", "K1JW 031055Z AUTO 34011KT 10SM CLR 01/M04 M RMK AO2 SLPNO T00051042 $", "K1KM 031055Z AUTO 27011KT 10SM CLR M06/M11 A2970 RMK AO2 SLP093 T10611114 $", "K1KN 031055Z AUTO 05011KT 6SM -SN BR M M08/M08 A2973 RMK AO2 SLP103 P0000 T10801083 $", "K1LN 031055Z AUTO 07010KT 9SM -SN SCT008 BKN032 BKN090 OVC110 M09/M09 A2976 RMK AO2 SNB0956E02SNB12E40SNB40 SLP108 P0000 T10921095 $", "K1LW 031055Z AUTO 36012KT 10SM CLR 01/M04 A2968 RMK AO2 SLP045 T00101039 $", "K1M5 031135Z AUTO 00000KT 10SM OVC110 14/04 A2991 RMK A01", "K1MN 031055Z AUTO 05013KT 10SM BKN037 OVC095 M09/M10 A2975 RMK AO2 SLP106 T10941099 $", "K1MW 031055Z AUTO 33005KT 10SM CLR M01/M05 A2968 RMK AO2 SLP044 T10141049 $", "K1NN 031055Z AUTO 04013KT 9SM -SN BKN036 M A2979 RMK AO2 SLPNO ALSTG ESTMD P0000 $", "K1NW 031055Z AUTO 36003KT 10SM CLR M00/M04 A2969 RMK AO2 SLP037 T10051044 $", "K1OM 031055Z AUTO 25011KT 10SM CLR M06/M08 A2971 RMK AO2 SLP094 T10581078 $", "K1ON 031139Z AUTO 03014KT 7SM BKN037 OVC080 M11/M13 M RMK AO2 SLPNO $", "K1OW 031055Z AUTO 02009KT 10SM CLR M01/M05 A2981 RMK AO2 SLP094 T10131046 $", "K1P1 031155Z AUTO 00000KT 10SM CLR M05/M08 A3017 RMK AO2 7//// T10511083 11034 21076", "K1R7 031135Z AUTO 20007KT 10SM BKN017 OVC022 23/23 A2984 RMK AO2 LTG DSNT NE PWINO", "K1R8 031135Z AUTO 19009G15KT 9SM FEW008 BKN012 OVC032 22/22 A2987 RMK AO2 LTG DSNT W-NE", "K1S3 031145Z AUTO 00000KT 10SM M05/M05 A2978 ", "K1S5 031155Z AUTO 26005KT 10SM OVC050 03/M02 A2989 RMK AO2 T00291021 10048 20029", "K1U7 031135Z AUTO 18005KT 6SM BR FEW003 BKN047 OVC055 M05/M06 A2962 RMK A01", "K1V4 031054Z AUTO M07/M11 A3010 RMK AO1 SLP209 T10721106", "K1V6 031135Z AUTO 02005KT 10SM CLR 01/M06 A2971 RMK AO2", "K1YT 031140Z AUTO 01008G19KT 3SM -SN OVC024 02/M04 A2983 RMK AO2 RAB08E10PLB10E18SNB18E35PLB35E40SNB40 CIG 024V029 SLP113 $", "K20U 031135Z AUTO 30008KT 10SM BKN017 BKN027 OVC033 M04/M05 A2976 RMK AO2", "K20V 031135Z AUTO 23021G30KT 10SM BKN110 05/M07 A2963 RMK AO2", "K21D 031135Z AUTO 25008KT 10SM CLR 01/M02 A2973 RMK AO2", "K22N 031135Z AUTO 00000KT 10SM CLR M04/M07 A3017 RMK AO2", "K24A 031145Z AUTO 00000KT 10SM CLR 06/M02 A3007 RMK AO2 T00651022 10079 20059", "K24J 031135Z AUTO 00000KT 10SM CLR 14/12 A3000 RMK A01", "K27K 031155Z AUTO 17008KT 10SM SCT085 08/01 A2993 RMK AO1", "K28J 031135Z AUTO 00000KT 9SM CLR 14/13 A3004 RMK AO2", "K2C8 031155Z AUTO 34017G27KT 3SM BR OVC008 M07/M07 A2975 RMK AO2", "K2D5 031135Z AUTO 33007KT 10SM SCT013 OVC030 M02/M02 A2976 RMK AO2", "K2DP 031055Z AUTO 00000KT 8SM CLR M A3013 RMK AO2 SLPNO ALSTG ESTMD $", "K2G2 031135Z AUTO 00000KT 10SM CLR 03/M00 A2993 RMK A01", "K2G4 031145Z AUTO 21011KT 10SM CLR 06/M03 A2997 RMK AO2", "K2G9 031135Z AUTO 00000KT 10SM SCT100 02/M02 A2999 RMK AO2", "K2I0 031135Z AUTO 00000KT 10SM OVC095 12/08 A2989 RMK AO2 T01160075", "K2IS 031135Z AUTO 20005KT 1/4SM FG OVC001 19/19 A3005 RMK AO2 T01890188", "K2J3 031135Z AUTO 00000KT 10SM SCT120 10/09 A3003 RMK AO2 T00990089", "K2J5 031135Z AUTO 10SM CLR 10/09 A3005 RMK AO2 T00980088", "K2J9 031155Z AUTO 00000KT 10SM OVC005 16/14 A3000 RMK AO2", "K2M2 031135Z AUTO 10004KT 10SM FEW049 OVC075 12/11 A2987 RMK A01", "K2P2 031135Z AUTO 23008KT 10SM CLR 02/00 A2967 RMK AO2 T00150004", "K2R9 031135Z AUTO 16004KT 7SM OVC009 22/21 A2976 RMK AO2 T02240209", "K2V5 031135Z AUTO 00000KT 10SM CLR M01/M03 A2970 RMK AO2", "K2V6 031139Z AUTO 27007KT 10SM CLR M03/M06 A2969 RMK AO2", "K2W6 031149Z AUTO 00000KT 10SM CLR 05/03 A3016 RMK AO1", "K2WX 031056Z AUTO 25003KT M04/M06 A2973 RMK AO1 SLP088 T10391061", "K33N 031135Z AUTO 00000KT 10SM CLR 02/00 A3016 RMK A01", "K33V 031135Z AUTO 19008KT 10SM BKN070 BKN080 OVC090 00/M07 A2961 RMK AO1", "K35A 031135Z AUTO 00000KT 10SM CLR 08/07 A3009 RMK A02 T00830071", "K36K 031135Z AUTO 34011KT 10SM CLR 03/M03 A2966 RMK AO2", "K38S 031145Z AUTO 00000KT 10SM M09/M09 A2975 ", "K3AU 031135Z AUTO 19011G17KT 10SM OVC010 15/12 A2953 RMK AO2", "K3D2 031135Z AUTO 25005KT 10SM 02/M02 A2968 RMK AO2 T00171016", "K3F3 031135Z AUTO 17008G15KT 10SM OVC020 22/21 A2980 RMK AO2 T02150205", "K3J7 031135Z AUTO 00000KT 10SM CLR 11/03 A2999 RMK AO2", "K3K3 031135Z AUTO 02008KT 10SM BKN110 02/M03 A2964 RMK AO2", "K3N8 031135Z AUTO 30015KT 10SM SCT008 OVC012 M02/M02 A2964 RMK AO2 T10161023", "K3R7 031155Z AUTO 21007KT 7SM OVC008 23/23 A2984 RMK AO2 T02300230 10238 20230", "K3S8 031135Z AUTO 00000KT 6SM -UP FEW003 BKN007 OVC035 01/00 A3013 RMK AO2", "K3T5 031135Z AUTO 18005KT 9SM OVC014 23/22 A2976 RMK AO2 T02270224 $", "K3U3 031145Z AUTO 00000KT 10SM M09/M12 A2971 ", "K40B 031116Z AUTO VRB03KT M07/M12 A3000 RMK AO1 SLP193 T10731121 52007", "K40U 031135Z AUTO 29006KT 2SM -SN BR OVC011 M02/M04 A2960 RMK AO2 T10231038", "K41U 031135Z AUTO 17005KT 10SM OVC090 06/M03 A2952 RMK AO1 T00591035", "K42J 031135Z AUTO 21004KT 10SM CLR 15/15 A3003 RMK A01", "K46D 031135Z AUTO 32010KT 10SM OVC012 M04/M05 A2978 RMK AO2", "K46U 031135Z AUTO VRB04G11KT 10SM SCT035 OVC075 M04/M06 A2964 RMK A01", "K48A 031135Z AUTO 14004KT 10SM SCT120 13/10 A2997 RMK AO2 T01260098", "K49A 031135Z AUTO 35004KT 10SM FEW110 08/05 A3000 RMK AO2", "K4A6 031135Z AUTO 00000KT 8SM -RA FEW041 SCT049 BKN060 11/11 A2995 RMK AO2", "K4A9 031135Z AUTO 00000KT 10SM -RA SCT065 SCT070 OVC090 10/07 A2997 RMK AO2 T01020073", "K4BM 031135Z AUTO 15008G16KT 10SM CLR M03/M14 A2978 RMK AO2", "K4F2 031135Z AUTO 19005KT 7SM OVC016 21/20 A2975 RMK AO2 T02110198", "K4M9 031135Z AUTO 13007KT 10SM FEW022 13/13 A2980 RMK AO2 PWINO", "K4MR 031055Z AUTO 25019KT 10SM CLR 14/M14 A2969 RMK AO2 SLP978 T01371143 $", "K4O4 031135Z AUTO 11005KT 3/4SM BR OVC003 16/16 A2973 RMK AO2", "K4R5 031135Z AUTO 23005KT 10SM OVC090 01/M02 A2962 RMK AO2 T00051023", "K4S1 031135Z AUTO 05008KT 7SM CLR 02/01 A3016 RMK AO2", "K4S2 031135Z AUTO 31006KT 10SM SCT026 BKN031 OVC039 02/00 A2997 RMK AO2", "K4U6 031140Z AUTO 32006KT 10SM M04/M06 A2978 RMK A01 Circle ", "K4V0 031135Z AUTO 00000KT 10SM SCT100 SCT120 M01/M03 A2954 RMK AO2 T10091028", "K4V1 031135Z AUTO 19003KT 10SM CLR 00/M05 A2970 RMK AO2 T00001052", "K54A 031135Z AUTO 34004KT 1SM BR CLR 19/19 A3004 RMK AO2", "K54J 031135Z AUTO 15006KT 7SM OVC004 19/18 A2994 RMK AO2 T01870180", "K57C 031135Z AUTO 00000KT 10SM OVC120 03/00 A2977 RMK AO2 T00290001", "K5A6 031135Z AUTO 00000KT 10SM 14/14 A2982 RMK AO2 LTG DSNT S T01370136", "K5C1 031135Z AUTO 18007KT 7SM OVC005 20/20 A2979 RMK AO1", "K5H4 031135Z AUTO 33004KT 10SM BKN009 BKN014 OVC021 M07/M17 A2979 RMK AO2", "K5R8 031135Z AUTO 18005KT 10SM BKN012 OVC020 23/21 A2982 RMK AO2 T02300213", "K5SM 031135Z AUTO 21017G30KT 10SM BKN048 BKN120 M03/M09 A2973 RMK AO2", "K5T9 031135Z AUTO 08004KT 7SM CLR 19/18 A2971 RMK A01", "K63S 031135Z AUTO 00000KT 10SM FEW055 FEW070 BKN100 M05/M06 A2984 RMK A01", "K65S 031135Z AUTO 00000KT 10SM CLR M04/M06 A2982 RMK AO2", "K66R 031135Z AUTO 18003KT 7SM OVC016 23/21 A2978 RMK AO2 T02250208", "K6A1 031135Z AUTO 07003KT 10SM CLR 12/08 A3000 RMK AO2 T01210077", "K6A2 031135Z AUTO 00000KT 10SM CLR 11/07 A2999 RMK AO2", "K6B0 031135Z AUTO 21005KT 10SM BKN100 M02/M11 A3008 RMK AO2 T10201110", "K6B9 031135Z AUTO VRB06G16KT 10SM BKN070 BKN085 03/M11 A2996 RMK AO2", "K6I2 031135Z AUTO 16008KT 10SM CLR 10/00 A2993 RMK AO2", "K6L4 031155Z AUTO 00000KT 10SM CLR 10/M03 A3001 RMK AO2", "K6P9 031135Z AUTO 22007KT 10SM CLR 12/05 A2971 RMK AO2 T01200048", "K6R6 031151Z AUTO 16/M09 A2977 RMK AO1 SLP049 T01561094 10189 20139 55006 ", "K6S2 031135Z AUTO 00000KT 10SM FEW035 SCT055 BKN070 02/02 A3011 RMK AO2", "K6S8 031140Z AUTO 27007KT 10SM M06/M08 A2977 RMK A01 LAUREL", "K74V 031135Z AUTO 08003KT 10SM 03/00 A2952 RMK AO2", "K77S 031155Z AUTO 20006KT 10SM FEW011 SCT018 OVC038 02/02 A3009 RMK A01", "K79J 031121Z AUTO VRB05KT 9SM -RA OVC005 19/17 A2990 RMK AO2 P0000 T01940167 $", "K7BM 031135Z AUTO 25003KT 10SM SCT090 01/M12 A2974 RMK AO2", "K7L2 031115Z AUTO 31012KT 10SM OVC022 M01/M01 A2977 RMK AO2", "K7W4 031135Z AUTO 10SM CLR 03/02 A3013 RMK AO1 T00260019", "K7W6 031150Z AUTO 07003KT 10SM CLR A3015 RMK AO2", "K81R 031135Z AUTO 00000KT 10SM CLR 19/17 A2976 RMK AO2 T01940172", "K82C 031135Z AUTO 00000KT 10SM CLR 05/M01 A2973 RMK AO2 T00511012", "K82V 031140Z AUTO 01004KT 10SM M03/M06 A2972 RMK AO2", "K8A0 031135Z AUTO 11004KT 10SM SCT008 SCT014 SCT019 11/10 A2993 RMK AO2", "K8A3 031135Z AUTO 00000KT 10SM FEW110 14/01 A2993 RMK A01", "K8B0 031135Z AUTO 00000KT 10SM OVC075 M08/M14 A3005 RMK AO2", "K8D3 031056Z AUTO 29018KT 02/M03 A2970 RMK AO1 SLP067 T00221028", "K8T6 031135Z AUTO 14009KT 6SM BR OVC008 22/22 A2973 RMK AO2", "K8W2 031155Z AUTO 00000KT 10SM CLR 00/00 A3009 RMK AO1 T00001003 10003 21016", "K96D 031135Z AUTO 19023G29KT 10SM OVC012 M07/M07 A2977 RMK AO2", "K9A5 031135Z AUTO 00000KT 10SM CLR 09/08 A2998 RMK AO2 T00900081", "K9D7 031135Z AUTO 36019KT 2 1/2SM -SN FEW015 BKN045 OVC075 M08/M08 A2977 RMK AO2 TSNO", "K9L2 031110Z AUTO 23014KT 10SM SCT050 07/03 A2982 RMK AO2 SLP090", "K9MN 031135Z AUTO 27003KT 10SM CLR 04/M02 A2974 RMK AO1 T00421020", "K9V9 031135Z AUTO 30004KT 10SM BKN080 OVC090 02/M02 A2981 RMK AO2 T00151022", "KA39 031135Z AUTO 12008KT 10SM BKN100 OVC120 11/M06 A2981 RMK AO2", "KAAA 031135Z AUTO 00000KT 10SM OVC095 07/05 A2979 RMK AO2 T00670050", "KAAF 031053Z AUTO 18006KT 5SM BR OVC004 22/22 A2997 RMK AO2 SLP148 T02220222", "KAAO 031054Z AUTO 18017G29KT 10SM OVC011 15/12 A2951 RMK AO2 PK WND 19029/1049 SLP982 T01500122", "KAAS 031135Z AUTO 13005KT 10SM CLR 08/01 A2999 RMK AO1", "KAAT 031055Z AUTO 31013G19KT 10SM FEW025 BKN065 OVC085 M04/M08 A2987 RMK AO2 SLP126 T10441083", "KABE 031151Z 00000KT 10SM CLR M01/M07 A3015 RMK AO2 SLP215 T10061067 10000 21039 $", "KABH 031055Z AUTO 15004KT 10SM CLR 02/M05 A2969 RMK AO2 SLP019 T00151048", "KABI 031052Z 18008KT 10SM CLR 13/M06 A2971 RMK AO2 SLP037 T01281056", "KABQ 031052Z 12007KT 10SM CLR 06/M12 A2985 RMK AO2 SLP057 T00611122", "KABR 031053Z AUTO 30007KT 10SM FEW033 M01/M04 A2976 RMK AO2 SLP088 T10061039", "KABY 031053Z AUTO 00000KT 10SM CLR 13/11 A2999 RMK AO2 SLP155 T01330106", "KACB 031135Z AUTO 19004KT 10SM CLR 05/01 A2971 RMK AO2 T00520010", "KACJ 031135Z AUTO 00000KT 10SM SCT180 BKN220 13/11 A2998 RMK AO2 T01270110 $", "KACK 031053Z 00000KT 10SM CLR M01/M06 A3018 RMK AO2 SLP221 T10061056 $", "KACP 031135Z AUTO 19003KT 7SM SCT012 OVC021 24/21 A2982 RMK AO2", "KACQ 031135Z AUTO 28005KT 10SM CLR 01/00 A2978 RMK AO2", "KACT 031151Z 19010KT 6SM BR CLR 19/19 A2973 RMK AO2 SLP060 70006 T01940194 10206 20194 53005", "KACV 031137Z AUTO 05004KT 9SM -RA BKN027 BKN095 02/01 A3018 RMK AO2 RAB27 P0001 T00220006", "KACY 031054Z 00000KT 10SM CLR M01/M05 A3016 RMK AO2 SLP214 T10111050 $", "KACZ 031145Z AUTO 00000KT 10SM CLR 07/07 A3013 RMK AO2 T00710067 10073 20053", "KADC 031137Z AUTO 28008G16KT 10SM OVC012 00/M03 A2968 RMK AO2 TSNO", "KADF 031056Z AUTO 00000KT 5SM BR OVC002 15/15 A2978 RMK AO2 SLP082 T01500150", "KADG 031053Z AUTO 22005KT 10SM CLR 03/01 A2982 RMK AO2 SLP105 T00280006", "KADH 031130Z AUTO 19013G16KT 10SM BKN006 BKN011 16/16 A2964 RMK AO2", "KADM 031150Z 17008KT 8SM OVC007 18/17 A2964", "KADS 031147Z 07004KT 07SM OVC007 19/18 A2968", "KADT 031135Z AUTO 36006KT 10SM CLR 03/M03 A2972 RMK AO2 T00261026", "KADU 031135Z AUTO 00000KT 10SM OVC090 06/M04 A2972 RMK AO2", "KADW 031055Z AUTO 00000KT 10SM FEW036 03/01 A3011 RMK AO2 SLP204 T00270009 $", "KAEG 031135Z AUTO 14004KT 10SM CLR 02/M12 A2986 RMK AO2 T00241119", "KAEJ 031135Z AUTO 00000KT 10SM CLR M02/M11 A2970 RMK AO2 T10221115", "KAEL 031135Z AUTO 00000KT 10SM CLR 03/M01 A2976 RMK AO2", "KAEX 031053Z 20006KT 7SM OVC013 23/21 A2979 RMK AO2 SLP090 T02280211", "KAFF 031055Z AUTO 14005KT 10SM CLR 00/M06 A2968 RMK AO2 SLP010 T00031059", "KAFJ 031056Z AUTO 19003KT 10SM BKN100 02/M01 A2997 RMK AO2 SLP156 T00221011 FZRANO", "KAFK 031135Z AUTO 10009KT 10SM OVC060 09/M06 A2970 RMK AO2 T00861058", "KAFN 031052Z AUTO 19003KT 10SM SCT110 M06/M09 A3012 RMK AO2 SLP217 T10561089", "KAFO 031130Z AUTO 36003KT 10SM SCT004 BKN007 OVC100 M06/M06 A2961 RMK AO2", "KAFP 031149Z AUTO 00000KT 10SM CLR 06/05 A3010 RMK AO2 T00600052", "KAFW 031053Z 19011KT 7SM CLR 19/18 A2966 RMK AO2 SLP033 T01890178 $", "KAGC 031053Z 17007KT 10SM SCT110 02/M02 A2994 RMK AO2 SLP149 T00221017", "KAGI 031135Z AUTO 10SM SCT012 BKN019 BKN027 24/22 A2987 RMK AO2 T02390217", "KAGO 031135Z AUTO 00000KT 9SM BKN004 OVC015 16/16 A2975 RMK A01", "KAGS 031053Z 00000KT 10SM CLR 08/07 A3002 RMK AO2 SLP165 T00780072", "KAHN 031151Z 00000KT 10SM CLR 10/06 A3001 RMK AO2 SLP163 T01000061 10111 20083 53006", "KAHQ 031135Z AUTO 00000KT 10SM 04/00 A2970 RMK AO2 T00391003", "KAIA 031053Z AUTO 03015KT 10SM OVC060 01/M03 A2975 RMK AO2 SLP070 T00111033", "KAID 031135Z AUTO 20006KT 10SM CLR 08/00 A2984 RMK AO2 T00820001", "KAIG 031135Z AUTO 23010KT 10SM CLR 00/M02 A2968 RMK AO2 T10051020", "KAIK 031135Z AUTO 05004KT 10SM CLR 09/08 A3004 RMK AO2 T00910085", "KAIO 031135Z AUTO 00000KT 10SM OVC075 07/M04 A2973 RMK AO2", "KAIT 031135Z AUTO 25007KT 10SM OVC028 02/M02 A2963 RMK AO2", "KAIZ 031056Z AUTO 12003KT 10SM CLR 13/06 RMK AO2 SLPNO T01330061 $", "KAJG 031135Z AUTO 18011KT 10SM CLR 13/11 A2983 RMK AO2 T01250111", "KAJR 031135Z AUTO 04003KT 7SM CLR 11/05 A3001 RMK AO2 T01060045", "KAJZ 031135Z AUTO 00000KT 10SM CLR 12/M07 A2964 RMK AO2 T01201072", "KAKH 031054Z AUTO 00000KT 10SM CLR 08/05 A3005 RMK AO2 SLP175 T00780050", "KAKO 031053Z AUTO 29007KT 10SM CLR M01/M05 A2968 RMK AO2 SLP034 T10111050 $", "KAKQ 031054Z AUTO 00000KT 10SM CLR 07/02 A3013 RMK AO2 SLP202 T00670022", "KAKR 031054Z AUTO 18005KT 10SM CLR 04/M02 A2989 RMK AO2 SLP124 T00441017", "KALB 031151Z 15007KT 10SM FEW100 SCT250 00/M10 A3015 RMK AO2 SLP212 T00001100 10000 21044 51018", "KALI 031137Z AUTO 13004KT 2 1/2SM BR OVC009 21/21 A2974 RMK AO2 T02110211 $", "KALK 031056Z AUTO 10SM CLR 11/M14 A2994 RMK AO2 SLP058 T01061139", "KALM 031135Z AUTO 00000KT 10SM FEW035 SCT048 BKN055 08/M17 A2987 RMK AO2", "KALN 031150Z 18007KT 10SM SCT090 13/08 A2977 RMK LTG DSNT S", "KALO 031054Z 14006KT 10SM FEW110 03/01 A2976 RMK AO2 SLP078 T00330006", "KALS 031052Z AUTO 16010KT 10SM CLR M01/M10 A2977 RMK AO2 SLP031 T10061100", "KALW 031129Z AUTO 19010KT 1SM R20/4500VP6000FT -SN BR BKN008 OVC012 00/M01 A2988 RMK AO2 P0002 T00001011", "KAMA 031053Z 25015KT 10SM CLR 14/M13 A2964 RMK AO2 SLP989 T01391128", "KAMG 031053Z AUTO 00000KT 10SM CLR 13/12 A3003 RMK AO2 SLP168 T01330117", "KAMN 031135Z AUTO 24004KT 10SM CLR 07/03 A2976 RMK AO2 T00650030", "KAMW 031053Z AUTO 13004KT 10SM OVC095 03/00 A2977 RMK AO2 SLP077 T00280000", "KANB 031053Z AUTO 06003KT 10SM BKN110 12/08 A2994 RMK AO2 RAB17E26 SLP135 P0000 T01220078", "KAND 031056Z AUTO 00000KT 10SM CLR 08/06 A3002 RMK AO2 SLP161 T00780056", "KANE 031135Z AUTO 26007KT 10SM CLR 03/M02 A2971 RMK AO2", "KANJ 031055Z AUTO 24009KT 10SM OVC055 02/01 A2956 RMK AO2 SLP015 T00220011", "KANK 031130Z AUTO 00000KT 10SM CLR 05/M12 A2977 RMK AO1 T00501123", "KANQ 031135Z AUTO 00000KT 10SM CLR 02/02 A2983 RMK AO2", "KANW 031135Z AUTO 03009KT 10SM BKN070 OVC080 04/M05 A2976 RMK AO2 T00371047", "KAOH 031053Z AUTO 18013KT 10SM CLR 06/01 A2984 RMK AO2 SLP107 T00610006", "KAOO 031053Z AUTO 00000KT 10SM CLR 02/M04 A3002 RMK AO2 SNB11E23 SLP173 P0000 T00171044 $", "KAPA 031053Z 20003KT 10SM FEW220 00/M04 A2969 RMK AO2 SLP026 T00001044", "KAPC 031054Z AUTO 29011KT 10SM CLR 06/01 A3007 RMK AO2 SLP175 T00610006", "KAPF 031053Z 08003KT 6SM BR CLR 22/21 A3000 RMK AO2 SLP158 T02220211", "KAPG 031055Z 36003KT 10SM CLR 04/M02 A3015 RMK AO2A SLP213 T10011025 $", "KAPN 031054Z AUTO 24014G23KT 10SM CLR 06/02 A2963 RMK AO2 SLP037 T00610017", "KAPS 031138Z AUTO 19007KT 10SM OVC012 23/21 A2988 RMK AO2", "KAPY 031135Z AUTO 10004KT 7SM CLR 22/21 A2973 RMK AO2 T02170208 TSNO", "KAQO 031135Z AUTO 00000KT 2 1/2SM BR BKN019 BKN024 BKN049 15/14 A2975 RMK AO2", "KAQP 031133Z AUTO 31007KT 10SM M03/M06 A2975 RMK AO2", "KAQV 031114Z AUTO 8SM FEW011 BKN026 22/20 A2978 RMK AO2 T02170200", "KAQW 031152Z AUTO 10SM FEW100 A3015 RMK AO2 SLPNO 53017 TSNO $", "KAQX 031135Z AUTO 00000KT 9SM CLR 10/10 A3005 RMK AO2", "KARA 031103Z 21010KT 7SM BKN009 BKN019 23/22 A2984 RMK AO2 T02330217", "KARB 031053Z AUTO 21003KT 10SM CLR 02/M01 A2980 RMK AO2 SLP097 T00221006", "KARG 031108Z AUTO 16007KT 10SM BKN022 13/13 A2978 RMK AO2", "KARM 031135Z AUTO 18007KT 5SM BR SCT013 OVC020 22/22 A2979 RMK AO2 T02220222 TSNO", "KARR 031052Z 20003KT 10SM CLR 04/01 A2979 RMK AO2 PRESRR SLP088 T00440011", "KART 031056Z AUTO 12003KT 10SM OVC065 02/M09 A2995 RMK AO2 SLP145 T00221089", "KARV 031135Z AUTO 24004KT 10SM CLR M02/M03 A2963 RMK AO2 T10211035", "KARW 031135Z AUTO 15003KT 10SM CLR 15/13 A3005 RMK AO2", "KASD 031140Z AUTO 20006KT 10SM FEW013 SCT019 OVC090 24/23 A2988 RMK AO2 T02390228", "KASE 031053Z AUTO VRB06G21KT 10SM CLR 06/M11 A2966 RMK AO2 SLP963 T00611106", "KASG 031148Z 12005KT 10SM FEW023 13/13 A2968", "KASH 031056Z 10SM CLR M04/M07 A3018 RMK AO2 SLP226 T10441067", "KASJ 031145Z AUTO 00000KT 10SM CLR 06/06 A3015 RMK AO2 T00610061", "KASL 031135Z AUTO 18003KT 7SM OVC014 18/18 A2974 RMK AO2 OVC V BKN T01830183 $", "KASN 031135Z AUTO 21005KT 10SM -RA SCT031 SCT037 BKN046 12/10 A2996 RMK AO2 T01230098", "KAST 031133Z AUTO 35007KT 5SM RA BR FEW012 BKN022 OVC041 03/02 A3004 RMK AO2 RAB04 P0003 T00280017", "KASW 031135Z AUTO 00000KT 10SM CLR 03/00 A2984 RMK AO2 T00340006", "KASX 031053Z AUTO 23013KT 10SM SCT080 02/M03 A2962 RMK AO2 SLP036 T00171028", "KATA 031135Z AUTO 00000KT 9SM BKN002 OVC013 17/17 A2974 RMK AO2 BKN V OVC SLP972 P0001 T01650165 $", "KATL 031052Z 07004KT 10SM FEW095 BKN110 13/08 A2996 RMK AO2 SLP141 T01330078", "KATP 031135Z AUTO VRB06KT 4SM HZ CLR 25/23 A2993 RMK A01", "KATS 031135Z AUTO 23012KT 10SM CLR 10/M15 A2979 RMK AO2", "KATT 031125Z AUTO VRB03KT 7SM OVC009 22/20 A2976 RMK AO2 T02170200", "KATW 031145Z 23005KT 10SM SCT120 03/M03 A2972", "KATY 031053Z AUTO 23005KT 10SM CLR M03/M05 A2973 RMK AO2 SLP086 T10331050", "KAUG 031053Z AUTO 00000KT 10SM CLR M03/M12 A3015 RMK AO2 SLP213 T10281122", "KAUH 031135Z AUTO 10008KT 10SM OVC080 06/M02 A2968 RMK AO2 T00561025", "KAUM 031137Z AUTO 00000KT 10SM CLR 02/00 A2975 RMK AO2", "KAUN 031135Z AUTO VRB03KT 10SM CLR 03/M04 A2999 RMK A01", "KAUO 031053Z AUTO 12004KT 10SM CLR 14/08 A2995 RMK AO2 SLP133 T01440078", "KAUS 031053Z 18008KT 6SM BR OVC008 21/21 A2974 RMK AO2 SLP063 T02110206 $", "KAUW 031054Z AUTO VRB03KT 10SM CLR 02/M02 A2968 RMK AO2 SLP063 T00171022", "KAVC 031135Z AUTO 00000KT 10SM CLR 05/05 A3018 RMK AO2 T00470046", "KAVK 031140Z AUTO 22015KT 10SM CLR 13/13 A2952 RMK AO2 PWINO", "KAVL 031054Z 00000KT 10SM CLR 06/02 A3005 RMK AO2 SLP164 T00560017", "KAVP 031054Z 00000KT 10SM CLR M01/M11 A3010 RMK AO2 SLP200 T10111106", "KAVQ 031135Z AUTO 13003KT 10SM 09/M08 A2982 RMK AO2 T00921077", "KAVX 031151Z AUTO 28009KT 7SM OVC003 08/07 A2991 RMK AO2 SLP128 T00830067 10083 20083 56014", "KAWG 031135Z AUTO 04006KT 10SM OVC085 06/03 A2975 RMK AO2", "KAWM 031053Z AUTO 00000KT 10SM BKN008 OVC100 14/13 A2980 RMK AO2 RAE22 SLP087 P0000 T01440133", "KAWO 031056Z AUTO 00000KT 10SM CLR 02/01 A3000 RMK AO2 SLP164 T00220011 FZRANO", "KAXA 031135Z AUTO 00000KT 10SM FEW065 OVC100 05/02 A2974 RMK A01", "KAXH 031135Z AUTO 19003KT 7SM BKN013 OVC023 23/22 A2980 RMK AO2 T02310223", "KAXN 031149Z AUTO 29014KT 10SM BKN011 BKN018 M01/M03 A2971 RMK AO2", "KAXS 031135Z AUTO 00000KT 4SM BR CLR 09/08 A2962 RMK AO2 T00910084", "KAXV 031135Z AUTO 18011KT 10SM CLR 05/01 A2986 RMK AO2", "KAXX 031135Z AUTO 26026G33KT 10SM CLR 04/M11 A2983 RMK AO2 T00411111", "KAYS 031135Z AUTO 09005KT 10SM SCT070 SCT090 SCT120 14/14 A2999 RMK AO2 T01430137", "KAZC 031135Z AUTO 10010KT 10SM CLR 06/M01 A2967 RMK AO2", "KAZE 031135Z AUTO 21004KT 10SM 14/11 A3001 RMK AO2 T01400111", "KAZO 031053Z 20007KT 10SM CLR 04/01 A2980 RMK AO2 SLP095 T00440011", "KBAB 031055Z AUTO 31008KT 10SM CLR 05/M01 A3002 RMK AO2 SLP169 T00521013 $", "KBAC 031135Z AUTO 30015KT 10SM OVC009 M03/M03 A2974 RMK AO2", "KBAD 031137Z AUTO 00000KT 10SM -RA OVC018 17/16 A2975 RMK AO2 RAB37 OVC V BKN SLP077", "KBAF 031053Z 27003KT 10SM CLR M06/M08 A3017 RMK AO2 PRESRR SLP223 T10561083", "KBAK 031150Z 17007KT 10SM SCT075 BKN090 OVC110 09/04 A2987", "KBAM 031135Z AUTO 29006KT 5SM SCT025 BKN036 OVC055 M01/M02 A2975 RMK AO1", "KBAN 031152Z AUTO 24012G17KT 10SM CLR M07/M16 A2971 RMK AO2 SLP068 60004 70037 T10721156 11011 21072 53004 $ ", "KBAX 031135Z AUTO 24012G18KT 10SM CLR 08/04 A2972 RMK AO2 T00760037", "KBAZ 031151Z 21007KT 6SM BR OVC010 22/21 A2976 RMK AO2 CIG 008V012 SLP067 T02170206 10217 20194 53005", "KBBB 031135Z AUTO 30008KT 10SM CLR M04/M06 A2974 RMK AO2", "KBBD 031135Z AUTO 00000KT 10SM CLR 16/03 A2976 RMK AO2", "KBBG 031148Z 14011G16KT 10SM SCT011 SCT032 13/13 A2971", "KBBP 031135Z AUTO 00000KT 10SM CLR 08/08 A3010 RMK AO2", "KBBW 031053Z AUTO 35011KT 10SM CLR 02/M03 A2969 RMK AO2 SLP052 T00171028", "KBCB 031135Z AUTO 00000KT 10SM CLR 03/01 A3010 RMK AO2 T00280014", "KBCE 031053Z AUTO 12012KT 10SM CLR 00/M07 A2967 RMK AO2 SLP993 T00001072", "KBCK 031135Z AUTO 00000KT 10SM CLR M01/M03 A2973 RMK AO2 T10131033", "KBCR 031124Z AUTO 00000KT 10SM BKN007 OVC011 17/16 A2996 RMK AO2 CIG 005V010 T01720156 $", "KBCT 031053Z VRB04KT 10SM CLR 00/00 A3000", "KBDE 031145Z AUTO 03009KT 3SM BR OVC002 01/M01 A2962 RMK AO2 T00111006 $", "KBDG 031135Z AUTO 00000KT 10SM 04/M07 A2978 RMK AO1 T00371072", "KBDH 031135Z AUTO 25011KT 10SM CLR 01/M03 A2976 RMK AO2", "KBDL 031151Z 00000KT 10SM CLR 00/M08 A3021 RMK AO2 SLP232 T00001078 10000 21050 53027", "KBDN 031135Z AUTO 00000KT 10SM CLR M04/M07 A2988 RMK AO2", "KBDR 031052Z 35003KT 10SM CLR M01/M07 A3018 RMK AO2 SLP221 T10061072", "KBDU 031135Z AUTO 19003KT 10SM BKN048 OVC120 04/M03 A2970 RMK AO2", "KBEA 031155Z AUTO 15004KT 3SM OVC011 21/20 A2975 RMK AO2 T02080200 10217 20205 PWINO", "KBEC 031135Z AUTO 19010G20KT 10SM OVC011 14/14 A2953 RMK AO2 T01400135", "KBED 031151Z 00000KT 10SM CLR M01/M07 A3020 RMK AO2 SLP241 T10111067 11011 21061 52026", "KBEH 031053Z AUTO 21003KT 10SM CLR 07/02 A2981 RMK AO2 SLP096 T00670022", "KBFD 031053Z AUTO 15006KT 10SM CLR 03/M05 A2993 RMK AO2 SLP145 T00281050 $", "KBFF 031053Z AUTO 03016G20KT 10SM OVC050 02/01 A2974 RMK AO2 SLP059 T00220011 $", "KBFI 031053Z 00000KT 3SM -RA BR BKN012 OVC020 02/01 A3000 RMK AO2 SLP160 P0002 T00170011", "KBFL 031054Z AUTO 33019G22KT 10SM OVC046 11/04 A2997 RMK AO2 SLP147 T01060044", "KBFM 031126Z AUTO 19008KT 10SM BKN010 OVC015 23/22 A2990 RMK AO2 CIG 008V012 T02330217", "KBFR 031135Z AUTO 18006KT 10SM RA SCT032 SCT044 BKN090 11/06 A2988 RMK AO2 P0001", "KBGD 031151Z AUTO 20008KT 10SM CLR 12/M12 A2963 RMK AO2 SLP997 T01171122 10183 20117 50001", "KBGE 031135Z AUTO 19005KT 10SM BKN009 BKN013 16/13 A3000 RMK AO2 T01580126", "KBGF 031135Z AUTO 00000KT 10SM FEW038 SCT050 BKN065 17/03 A2993 RMK A01", "KBGM 031053Z 15007KT 10SM CLR M01/M12 A3001 RMK AO2 SLP179 T10111122", "KBGR 031053Z 20003KT 10SM FEW200 M04/M11 A3013 RMK AO2 SLP206 T10441106", "KBHB 031056Z AUTO 00000KT 10SM CLR M03/M10 A3015 RMK AO2 SLP212 T10281100 FZRANO", "KBHC 031135Z AUTO 00000KT 10SM SCT110 12/10 A3002 RMK AO2", "KBHK 031151Z AUTO 24006KT 10SM FEW035 M06/M07 A2977 RMK AO2 SLP104 T10561072 11022 21056 53006", "KBHM 031053Z COR 07008KT 9SM -RA OVC090 13/11 A2991 RMK AO2 PRESFR SLP125 P0006 T01330106", "KBID 031056Z AUTO 08003KT 10SM CLR 02/M12 A3019 RMK AO2 SLP226 T00221122 FZRANO", "KBIE 031135Z AUTO 09011G18KT 10SM OVC060 09/M05 A2966 RMK AO2 T00911050", "KBIF 031055Z AUTO 14004KT 10SM CLR 10/M14 A2986 RMK AO2 SLP061 T01031137 $", "KBIH 031056Z AUTO 32016G20KT 10SM CLR 09/M08 A2960 RMK AO2 SLP987 T00941078", "KBIL 031053Z 21005KT 10SM BKN200 M03/M09 A2975 RMK AO2 SLP095 T10331089", "KBIS 031052Z 29009KT 10SM OVC021 00/M04 A2976 RMK AO2 SLP094 T00001044", "KBIV 031053Z AUTO 31006KT 10SM CLR 07/03 A2979 RMK AO2 SLP091 T00720028", "KBIX 031055Z AUTO 20012KT 9SM OVC004 22/21 A2985 RMK AO2 SLP111 T02210212", "KBJC 031145Z 11003KT 10SM SCT100 03/M04 A2970", "KBJI 031135Z AUTO 25004KT 10SM OVC004 M01/M01 A2960 RMK AO2 T10121012", "KBKB 031148Z AUTO 00000KT 5SM BR FEW015 SCT027 SCT032 21/21 A2979 RMK AO2 T02110206", "KBKD 031135Z AUTO 19004KT 10SM CLR 14/M02 A2968 RMK AO2 T01391016", "KBKE 031053Z AUTO 22004KT 10SM CLR M06/M07 A2980 RMK AO2 SLP112 T10561072", "KBKF 031058Z 17005KT 10SM SCT220 01/M05 A2968 RMK AO2A SLP011 T00051049", "KBKL 031053Z 15017G23KT 10SM CLR 06/M01 A2983 RMK AO2 SLP105 T00611006", "KBKN 031135Z AUTO 18007KT BKN010 12/12 A2955 RMK AO2", "KBKS 031135Z AUTO 10004KT 2 1/2SM BR CLR 20/20 A2973 RMK AO2 SLP028 T02030203 $", "KBKT 031135Z AUTO 15003KT 10SM CLR 05/05 A3012 RMK AO1 T00500050", "KBKV 031124Z 00000KT M1/4SM FG VV002 19/19 A3004 RMK AO2 T01890189", "KBKW 031151Z AUTO 16009KT 10SM CLR 07/00 A3004 RMK AO2 SLP179 T00720000 10072 20056 53022", "KBKX 031056Z AUTO 32007KT 10SM CLR 00/M03 A2975 RMK AO2 SLP102 T00001028 FZRANO", "KBLF 031052Z AUTO VRB03KT 10SM CLR 08/M01 A3002 RMK AO2 SLP156 T00831011", "KBLI 031053Z AUTO 17004KT 10SM FEW006 FEW009 SCT037 02/02 A2998 RMK AO2 SLP160 T00220022", "KBLM 031056Z AUTO 11003KT 10SM CLR 03/M02 A3018 RMK AO2 SLP221 T00331017", "KBLU 031126Z AUTO 00000KT 10SM FEW002 BKN005 OVC019 M06/M07 A2984 RMK AO2 T10561067", "KBLV 031147Z 15011KT 10SM FEW005 OVC070 13/10 A2977 RMK AO2A SLP083 $", "KBMC 031135Z AUTO 32005KT 10SM OVC055 00/M02 A2963 RMK AO1 T00041016", "KBMG 031053Z VRB06KT 10SM FEW043 FEW070 SCT095 14/05 A2983 RMK AO2 SLP098 T01390050", "KBMI 031056Z 10006KT 10SM CLR 06/03 A2978 RMK AO2 SLP086 T00560033", "KBML 031052Z AUTO 00000KT 10SM BKN100 M09/M12 A3009 RMK AO2 SLP209 T10941117", "KBMQ 031053Z AUTO 00000KT 5SM BR CLR 19/19 A2977 RMK AO2 SLP064 T01940189 $", "KBMT 031135Z AUTO 18007KT 7SM OVC012 23/23 A2980 RMK AO2 T02340226", "KBNA 031053Z 18005KT 10SM SCT110 OVC150 16/04 A2991 RMK AO2 SLP123 T01560044 $", "KBNL 031135Z AUTO 00000KT 10SM CLR 10/10 A3005 RMK AO2", "KBNO 031053Z AUTO 32006KT 10SM BKN100 OVC110 M06/M09 A2981 RMK AO2 SLP122 T10561094 $", "KBNW 031135Z AUTO 14007KT 10SM OVC090 04/01 A2978 RMK AO2", "KBOI 031053Z 30009KT 10SM OVC011 01/M02 A2976 RMK AO2 SLP086 T00061017", "KBOK 031128Z AUTO 00000KT 10SM CLR 01/01 A3016 RMK AO2 RAE03UPB1058E02 P0000", "KBOS 031054Z 00000KT 10SM CLR 01/M14 A3020 RMK AO2 SLP224 T00111139", "KBOW 031135Z AUTO 00000KT 7SM CLR 21/19 A3004 RMK AO2", "KBPC 031135Z AUTO 22011KT 10SM CLR 07/M13 A2961 RMK AO2", "KBPG 031135Z AUTO 19009KT 10SM CLR 09/M13 A2975 RMK AO2 T00941132", "KBPI 031149Z AUTO 29003KT 3SM -SN BR BKN032 OVC070 M07/M08 A2963 RMK AO2 P0000", "KBPK 031110Z AUTO 19006KT 10SM SCT016 14/12 A2973 RMK AO2 T01440122", "KBPT 031053Z 19010KT 6SM BR BKN006 OVC020 23/23 A2979 RMK AO2 SLP087 T02330228", "KBQK 031135Z AUTO 00000KT 10SM CLR 12/11 A3005 RMK AO2 T01230113", "KBQP 031135Z AUTO 00000KT 7SM -RA SCT002 OVC015 17/17 A2981 RMK AO2 T01710168", "KBQX 031135Z AUTO 18014KT 2 1/2SM BR FEW014 23/23 A2980 RMK A01", "KBRD 031121Z AUTO 28011G20KT 10SM SCT022 BKN032 02/M03 A2964 RMK AO2 T00171033", "KBRG 031135Z AUTO 26004KT 10SM CLR 05/M16 A2985 RMK AO2 T00481161", "KBRL 031053Z AUTO 06007KT 10SM -RA FEW080 08/M02 A2975 RMK AO2 SLP072 P0000 T00831022", "KBRO 031053Z 17013KT 9SM OVC012 24/23 A2974 RMK AO2 SLP070 T02390228 $", "KBRY 031135Z AUTO 00000KT 10SM CLR 09/04 A2990 RMK AO2 T00870039 $", "KBTA 031135Z AUTO 11008KT 10SM BKN075 OVC095 07/M05 A2971 RMK AO2 T00651048", "KBTL 031053Z 23006KT 10SM CLR 05/01 A2979 RMK AO2 SLP092 T00500011", "KBTM 031053Z AUTO 00000KT 10SM CLR M14/M17 A2968 RMK AO2 SLP104 T11441167", "KBTN 031135Z AUTO 24007KT 10SM OVC031 M01/M01 A2975 RMK AO2", "KBTP 031056Z AUTO 13005KT 10SM CLR 02/M02 A2995 RMK AO2 SLP157 T00171022 FZRANO TSNO $", "KBTR 031053Z AUTO 20011G19KT 10SM OVC012 24/22 A2983 RMK AO2 SLP102 T02390217", "KBTV 031054Z 18005KT 10SM BKN100 00/M12 A3006 RMK AO2 SLP181 T00001122", "KBUF 031054Z 20012KT 10SM SCT120 BKN180 05/M02 A2988 RMK AO2 SLP123 T00501022", "KBUR 031115Z 12007KT 10SM BKN014 OVC019 11/08 A2990 RMK AO2 T01110083 $", "KBUU 031135Z AUTO 00000KT 10SM OVC100 03/01 A2978 RMK AO2 T00270009 PWINO", "KBUY 031054Z AUTO 00000KT 10SM CLR 03/02 A3008 RMK AO2 SLP186 T00330022", "KBVI 031147Z AUTO 19006KT 10SM CLR 04/M01 A2993", "KBVN 031135Z AUTO 01005KT 10SM BKN100 03/M02 A2972 RMK AO2 T00261022", "KBVO 031053Z AUTO 17007KT 10SM OVC011 14/12 A2959 RMK AO2 SLP011 T01390122", "KBVS 031135Z AUTO 00000KT 10SM FEW014 SCT023 OVC042 02/02 A3000 RMK A01", "KBVU 031135Z AUTO 19009G14KT 10SM CLR 15/01 A2959 RMK AO2", "KBVX 031056Z AUTO 18006KT 10SM OVC013 16/14 A2978 RMK AO2 SLP083 T01560139", "KBVY 031053Z 00000KT 10SM CLR M04/M11 A3018 RMK AO2 SLP217 T10391106", "KBWD 031135Z AUTO 00000KT 10SM CLR 04/01 A2974 RMK AO1", "KBWG 031053Z AUTO 00000KT 10SM -RA FEW085 OVC110 11/06 A2990 RMK AO2 RAB42 SLP124 P0000 T01060056", "KBWI 031054Z 00000KT 10SM FEW100 SCT250 01/M02 A3013 RMK AO2 SLP202 T00111017 $", "KBWP 031135Z AUTO 30008KT 10SM OVC014 M03/M04 A2971 RMK AO2", "KBWW 031135Z AUTO 31006KT 10SM CLR M04/M04 A2976 RMK AO2", "KBXA 031135Z AUTO 21009KT 10SM BKN010 OVC015 24/22 A2987 RMK AO2 T02380215", "KBXK 031135Z AUTO 17004KT 8SM CLR 13/M04 A2977 RMK A01", "KBYG 031053Z AUTO 00000KT 10SM CLR M02/M09 A2971 RMK AO2 SLP078 T10221089", "KBYI 031143Z AUTO 19004KT 1 1/2SM -SN BR SCT005 OVC010 M01/M01 A2965 RMK AO2 P0002 T10061011", "KBYL 031135Z AUTO 14007KT 10SM CLR 10/00 A2996 RMK AO1", "KBYS 031055Z 24015G25KT 7SM FEW150 10/M05 A2971 RMK A02A SLPNO WND DATA ESTMD ALSTG DATA ESTMD $", "KBYY 031135Z AUTO 19008KT 7SM 23/22 A2979 RMK AO2 T02320222", "KBZN 031056Z AUTO 00000KT 10SM CLR M12/M16 A2972 RMK AO2 SLP109 T11171156 $", "KC09 031135Z AUTO 03003KT 10SM BKN100 04/03 A2980 RMK AO2 T00390034", "KC29 031135Z AUTO 17004KT 10SM BKN110 06/M03 A2974 RMK AO1 T00571028", "KC35 031135Z AUTO 22003KT 10SM BKN085 OVC110 06/M02 A2974 RMK AO2 T00551021 PWINO", "KC62 031135Z AUTO 26004KT 10SM CLR 04/01 A2984 RMK AO2 T00410017", "KC65 031135Z AUTO 00000KT 10SM CLR 05/02 A2982 RMK A01", "KC75 031135Z AUTO 05004KT 10SM BKN100 OVC120 06/04 A2980 RMK AO2 T00610044 PWINO", "KC83 031135Z AUTO 30016G21KT 10SM FEW065 07/M00 A3005 RMK AO2", "KC99 031135Z AUTO 26007KT 220V280 10SM SCT050 SCT055 M04/M11 A2972 RMK AO2", "KCAD 031135Z AUTO 24007KT 10SM CLR 05/M02 A2972 RMK AO2 T00451016", "KCAE 031056Z 00000KT 10SM SCT150 BKN180 10/08 A3004 RMK AO2 SLP173 T01000083", "KCAG 031053Z AUTO 00000KT 10SM CLR M04/M06 A2957 RMK AO2 SLP019 T10441061", "KCAK 031151Z 18008KT 10SM FEW250 03/M01 A2991 RMK AO2 SLP134 T00281006 10028 20017 53001", "KCAO 031055Z AUTO 26011KT 10SM CLR 11/M13 A2965 RMK AO2 SLP986 T01061128", "KCAR 031054Z AUTO 00000KT 10SM CLR M10/M15 A3001 RMK AO2 SLP178 T11001150", "KCAV 031135Z AUTO 00000KT 10SM SCT080 BKN095 OVC110 03/03 A2976 RMK A01", "KCBE 031145Z AUTO 00000KT 10SM CLR M01/M02 A3010 RMK AO2 T10131024 10012 21022", "KCBF 031135Z AUTO 12008KT 10SM OVC075 07/M08 A2970 RMK AO2", "KCBK 031135Z AUTO 05010KT 10SM CLR 03/M03 A2966 RMK AO2 T00341032", "KCBM 031113Z 15006KT 10SM BKN006 BKN017 BKN037 13/13 A2980 RMK AO2A CIG 005V017 CIG 006 RWY13C PRESRR SLP097 ALSTG/SLP ESTMD $", "KCCA 031135Z AUTO 00000KT 10SM OVC012 16/15 A2978 RMK AO2 TSNO", "KCCB 031135Z AUTO 23005KT 10SM BKN009 OVC014 10/09 A2989 RMK AO2", "KCCO 031135Z AUTO 12003KT 10SM BKN110 11/09 A2997 RMK AO2 LTG DSNT SW T01110087", "KCCR 031053Z AUTO 30014KT 10SM CLR 07/00 A3007 RMK AO2 PK WND 28029/1004 SLP169 T00720000", "KCCU 031135Z AUTO 18012G17KT 10SM SCT030 BKN042 OVC050 M01/M10 A2978 RMK AO2", "KCCY 031135Z AUTO 20004KT 10SM OVC095 03/03 A2976 RMK AO2", "KCDA 031135Z AUTO 00000KT 10SM M09/M12 A3010 RMK AO2 T10871118", "KCDC 031053Z AUTO 19031G42KT 10SM CLR 09/M06 A2954 RMK AO2 PK WND 19045/1030 SLP953 T00891056", "KCDD 031135Z AUTO 00000KT 10SM BKN011 OVC023 M01/M02 A2962 RMK AO2 TSNO", "KCDH 031155Z AUTO 00000KT 6SM BR OVC003 15/15 A2978 RMK AO2", "KCDI 031135Z AUTO 00000KT 10SM CLR M02/M02 A2995 RMK AO2 T10171017", "KCDJ 031151Z AUTO 07005KT 12/M03 A2973 RMK AO1 SLP061 T01171033 10150 20117 55002", "KCDN 031135Z AUTO 00000KT 9SM CLR 09/09 A3008 RMK AO2", "KCDR 031144Z AUTO 02006KT 1 1/4SM -SN BR FEW004 OVC017 M01/M02 A2983 RMK AO2 P0000 T10061022 $", "KCDS 031053Z AUTO 26010KT 10SM CLR 15/M11 A2962 RMK AO2 SLP007 T01501111", "KCDW 031053Z 00000KT 10SM CLR M02/M07 A3019 RMK AO2 SLP229 T10171067", "KCEC 031139Z AUTO 07006KT 4SM -RA BR BKN023 OVC036 03/01 A3018 RMK AO2 LTG DSNT SW RAB34 P0000 T00280011", "KCEF 031055Z AUTO 00000KT 10SM CLR M06/M08 A3015 RMK AO2 SLP219 T10561080", "KCEU 031054Z AUTO 05003KT 10SM CLR 08/06 A3002 RMK AO2 SLP162 T00830061", "KCEW 031128Z AUTO 18005KT 9SM OVC007 21/20 A2993 RMK AO2 CIG 006V011 T02110200 $", "KCEY 031135Z AUTO 10004KT 10SM OVC034 14/08 A2987 RMK A01", "KCEZ 031053Z AUTO 00000KT 10SM CLR 04/M06 A2975 RMK AO2 SLP030 T00391056 $", "KCFD 031135Z AUTO 19005KT 10SM OVC016 22/21 A2979 RMK AO2 T02230210", "KCFE 031135Z AUTO 25005KT 10SM FEW035 SCT043 01/M03 A2972 RMK AO2", "KCFJ 031135Z AUTO 19003KT 10SM CLR 07/00 A2982 RMK AO2 T00700000", "KCFO 031135Z AUTO 23004KT 10SM CLR 01/M04 A2970 RMK AO2 T00121042", "KCFS 031135Z AUTO 22009KT 10SM CLR 07/01 A2975 RMK AO2 T00710013", "KCFV 031126Z AUTO 16004KT 10SM OVC013 14/12 A2958 RMK AO2 T01390122", "KCGC 031135Z AUTO 00000KT 5SM HZ CLR A3004 RMK AO2", "KCGE 031145Z AUTO 13005KT 10SM CLR 04/04 A3016 RMK A01", "KCGF 031045Z 19006KT 10SM SCT160 06/M01 A2986", "KCGI 031053Z AUTO 16008KT 10SM CLR 13/10 A2982 RMK AO2 SLP096 T01330100", "KCGS 031150Z AUTO 00000KT 10SM CLR 02/00 A3015 RMK AO2 T00191003 10028 20005", "KCGZ 031056Z AUTO 05004KT 10SM CLR 08/M02 A2980 RMK AO2 SLP085 T00781017 PNO $", "KCHA 031053Z 11003KT 10SM FEW110 BKN150 OVC200 12/07 A2997 RMK AO2 RAE11 SLP144 VIRGA OHD-ALQDS P0000 T01170067", "KCHK 031135Z AUTO 16003KT M1/4SM FG OVC002 11/11 A2957 RMK AO2 T01100109", "KCHO 031053Z 00000KT 10SM CLR 03/M02 A3010 RMK AO2 SLP193 T00281017", "KCHS 031056Z 00000KT 7SM MIFG FEW120 FEW250 13/12 A3006 RMK AO2 SLP179 T01330122", "KCIC 031135Z AUTO 34008KT 10SM CLR 04/M03 A3004 RMK AO1", "KCID 031052Z 03003KT 10SM SCT080 OVC100 04/01 A2977 RMK AO2 SLP081 T00390006 $", "KCIN 031135Z AUTO 14004KT 10SM SCT048 BKN070 OVC090 03/M00 A2974 RMK AO2", "KCIR 031135Z AUTO 00000KT 10SM CLR 12/09 A2984 RMK AO2 T01240093", "KCIU 031056Z AUTO 25007KT 10SM FEW050 02/01 A2959 RMK AO2 SLP027 T00170006 FZRANO", "KCJR 031135Z AUTO 00000KT 10SM CLR 00/00 A3014 RMK AO2 T00031001", "KCKB 031053Z AUTO 00000KT 10SM CLR 01/M02 A2997 RMK AO2 SLP151 I1000 T00111017", "KCKC 031137Z AUTO 29004KT 10SM BKN021 M01/M02 A2953 RMK AO2", "KCKF 031135Z AUTO 00000KT 10SM CLR 12/11 A3001 RMK AO2 T01240105", "KCKI 031135Z AUTO 00000KT 10SM CLR 08/06 A3009 RMK AO2", "KCKM 031135Z AUTO 00000KT 10SM BKN005 OVC015 14/14 A2981 RMK A01", "KCKN 031135Z AUTO 33019KT 7SM OVC005 M02/M03 A2967 RMK AO2", "KCKP 031135Z AUTO 00000KT 10SM OVC110 04/00 A2976 RMK AO2 T00400000", "KCKV 031052Z AUTO 00000KT 10SM FEW041 14/04 A2988 RMK AO2 SLP116 T01440044 $", "KCKZ 031135Z AUTO 00000KT 10SM CLR M02/M06 A3018 RMK AO2", "KCLE 031151Z 19012KT 10SM FEW150 FEW250 07/M02 A2986 RMK AO2 SLP130 T00671017 10067 20044 55001", "KCLI 031135Z AUTO 23005KT 10SM CLR 02/M01 A2973 RMK AO2 T00241013", "KCLK 031155Z AUTO 21003KT 2SM BR OVC003 12/12 A2961 RMK AO2", "KCLL 031053Z AUTO 19006KT 10SM OVC016 23/21 A2976 RMK AO2 SLP072 T02280206", "KCLM 031053Z AUTO 22006KT 10SM OVC049 03/01 A3000 RMK AO2 SLP161 T00280006", "KCLS 031135Z AUTO 00000KT 10SM OVC025 M00/M00 A3002 RMK AO2", "KCLT 031052Z 00000KT 10SM BKN250 09/06 A3005 RMK AO2 SLP190 T00940061 $", "KCLW 031135Z AUTO 00000KT 2SM BR CLR 20/19 A3003 RMK AO2", "KCMA 031055Z AUTO 08004KT 10SM OVC017 12/09 A2991 RMK AO2 SLP136 T01220089", "KCMD 031135Z AUTO 13006KT 9SM -RA FEW055 OVC070 12/11 A2990 RMK AO2", "KCMH 031151Z 10003KT 10SM FEW070 FEW120 BKN250 04/00 A2991 RMK AO2 SLP132 T00390000 10039 20022 53004 $", "KCMI 031053Z 35004KT 10SM CLR 07/04 A2979 RMK AO2 SLP089 T00670039", "KCMR 031135Z AUTO 20020G27KT 10SM CLR 06/M06 A2980 RMK AO2", "KCMX 031053Z AUTO 26014KT 10SM OVC070 03/M01 A2954 RMK AO2 PK WND 26026/1004 SLP014 T00331011 $", "KCMY 031055Z AUTO 00000KT 10SM SCT150 00/M00 A2972 RMK AO2 SLP071 T00031004 FZRANO $", "KCNB 031135Z AUTO 29003KT 10SM CLR 01/M02 A2979 RMK AO2 T00111023", "KCNC 031135Z AUTO 10007KT 10SM OVC065 07/M01 A2974 RMK AO2", "KCNI 031135Z AUTO 05005KT 10SM CLR 08/04 A3000 RMK AO2 T00800040", "KCNK 031134Z AUTO 07012G21KT 10SM OVC028 11/M03 A2960 RMK AO2 T01061033", "KCNM 031053Z AUTO 14005KT 10SM CLR 14/M14 A2976 RMK AO2 SLP030 T01391139 $", "KCNO 031100Z AUTO 23004KT 10SM BKN014 BKN048 10/08 A2993 RMK AO2 T01000083", "KCNU 031052Z AUTO 15010KT 10SM OVC020 14/12 A2958 RMK AO2 SLP008 T01440117 PWINO $", "KCNW 031155Z 17008KT 5SM BR BKN012 20/20 A2974", "KCNY 031053Z AUTO 18011KT 10SM CLR 11/M06 A2954 RMK AO2 SLP965 T01061056", "KCOD 031056Z AUTO 00000KT 10SM CLR M04/M08 A2970 RMK AO2 SLP079 T10441078 FZRANO", "KCOE 031056Z AUTO 00000KT 10SM CLR M02/M03 A2979 RMK AO2 SLP126 T10171028 FZRANO PNO $", "KCOF 031055Z AUTO 15006KT 8SM CLR 24/22 A2999 RMK AO2 SLP160 T02390219", "KCOM 031135Z AUTO 27005KT 10SM CLR 14/M06 A2974 RMK AO2 T01421060", "KCON 031151Z AUTO 00000KT 10SM FEW095 M03/M07 A3018 RMK AO2 SLP224 T10281072 11028 21078 53021", "KCOQ 031135Z AUTO 24006KT 10SM SCT055 BKN080 00/M04 A2961 RMK AO2 TSNO", "KCOS 031054Z 16003KT 10SM FEW250 01/M06 A2970 RMK AO2 SLP019 T00111056", "KCOT 031053Z AUTO 14005KT 8SM CLR 22/19 A2971 RMK AO2 SLP052 T02170194 $", "KCOU 031054Z AUTO 19003KT 10SM CLR 14/05 A2970 RMK AO2 SLP053 T01390050", "KCPC 031150Z AUTO 00000KT 10SM CLR 08/08 A3013 RMK AO2 T00830075 10093 20075", "KCPF 031155Z AUTO 00000KT 10SM CLR 05/00 A3000 RMK AO2", "KCPK 031155Z AUTO 00000KT 10SM CLR 05/04 A3015 RMK AO2 T00470035 10047 20013", "KCPR 031148Z 09011KT 1SM R03/6000VP6000FT -SN BR VV010 M04/M06 A2970 RMK AO2 P0004", "KCPS 031125Z 16009KT 10SM OVC070 14/09 A2976 RMK AO2 LTG DSNT SE T01390094", "KCPT 031135Z AUTO 17007KT M1/4SM FG OVC002 18/18 A2971 RMK A01", "KCPW 031135Z AUTO 21026G36KT 10SM CLR M08/M11 A2988 RMK AO2", "KCQB 031135Z AUTO 18009KT 10SM OVC009 16/15 A2959 RMK AO2 T01600147", "KCQC 031053Z AUTO 26022G29KT 10SM CLR 06/M14 A2985 RMK AO2 PK WND 27031/1024 SLP041 T00611139", "KCQF 031135Z AUTO 12010G14KT 7SM OVC004 22/21 A2991 RMK AO2 PWINO", "KCQM 031136Z AUTO 00000KT 10SM OVC035 M01/M03 A2959 RMK AO2", "KCQT 031147Z AUTO 00000KT 10SM BKN020 OVC040 12/08 A2992 RMK AO2 SLP131 T01220083 10133 20122 56017", "KCQW 031155Z AUTO 00000KT 10SM CLR 07/07 A3010 RMK AO2", "KCQX 031152Z AUTO 00000KT 10SM CLR 06/M02 A3022 RMK AO2 SLP235 T00561022 10056 21011 53022 $", "KCRE 031053Z 12003KT 10SM CLR 16/13 A3009 RMK AO1 SLP188 T01560133", "KCRG 031053Z 17003KT 10SM CLR 17/16 A3002 RMK AO2 SLP167 T01670156", "KCRP 031151Z 14006KT 5SM BR BKN009 BKN013 OVC250 23/22 A2975 RMK AO2 SLP074 T02280222 10244 20228 53001", "KCRQ 031053Z AUTO 22008KT 10SM OVC024 12/08 A2995 RMK AO2 SLP140 T01170078", "KCRS 031053Z AUTO 20015G23KT 9SM OVC010 22/20 A2972 RMK AO2 SLP059 T02220200", "KCRW 031054Z 00000KT 10SM SCT200 01/01 A2997 RMK AO2 SLP150 VLY FG T00110006", "KCRX 031135Z AUTO 10006KT 2SM -RA FEW004 BKN032 OVC039 14/13 A2982 RMK AO2", "KCSG 031151Z AUTO 10004KT 10SM CLR 13/09 A2995 RMK AO2 SLP140 T01280089 10128 20111 58001", "KCSM 031128Z AUTO 21008KT 1/4SM FG VV002 11/11 A2959 RMK AO2 RAE08 P0000 T01060106", "KCSQ 031135Z AUTO 10007KT 10SM OVC065 07/M03 A2973 RMK AO2", "KCSV 031053Z AUTO 21003KT 10SM CLR 12/01 A2997 RMK AO2 SLP137 T01220006 $", "KCTB 031056Z AUTO 34008KT 10SM CLR M06/M07 A2974 RMK AO2 SLP104 T10611072", "KCTJ 031135Z AUTO 00000KT 10SM CLR 10/07 A3000 RMK AO2 T01000072", "KCTY 031135Z AUTO 00000KT 10SM CLR 14/13 A3002 RMK AO2", "KCTZ 031145Z AUTO 00000KT 10SM CLR 09/09 A3013 RMK AO2 T00940094", "KCUB 031053Z AUTO 00000KT 10SM CLR 10/09 A3006 RMK AO2 SLP176 T01000089", "KCUH 031135Z AUTO 19013G16KT 10SM OVC009 16/15 A2957 RMK AO2 T01550150", "KCUL 031144Z AUTO 14004KT 10SM BKN050 OVC065 12/11 A2985 RMK AO2 LTG DSNT E P0002", "KCUT 031053Z AUTO VRB05KT 10SM OVC047 M02/M13 A2973 RMK AO2 SLP076 T10171133", "KCVC 031135Z AUTO 00000KT 10SM SCT120 10/07 A2998 RMK AO2", "KCVG 031052Z 19008KT 10SM FEW075 BKN110 OVC130 08/05 A2987 RMK AO2 RAE33 SLP112 P0002 T00830050", "KCVH 031135Z AUTO 28009KT 10SM CLR 06/00 A3008 RMK A01", "KCVN 031056Z AUTO 27009KT 10SM CLR 08/M13 A2976 RMK AO2 SLP047 T00831133", "KCVO 031056Z AUTO 00000KT 10SM FEW023 BKN070 OVC100 01/01 A3009 RMK AO2 RAE23 SLP191 P0000 T00110006 FZRANO", "KCVS 031055Z AUTO 24009KT 10SM CLR 11/M14 A2974 RMK AO2 SLP022 T01131136 $", "KCVX 031135Z AUTO 24011KT 10SM CLR 05/00 A2969 RMK AO2 T00531004", "KCWA 031150Z 21005KT 10SM BKN150 M01/M02 A2972", "KCWC 031135Z AUTO 20011KT 10SM CLR 12/05 A2963 RMK AO2 T01180047", "KCWF 031145Z 20013G18KT 7SM OVC005 23/22 A2983", "KCWI 031056Z AUTO 01009KT 10SM BKN120 02/00 A2978 RMK AO2 SLP092 T00220000 FZRANO", "KCWN 031055Z AUTO 16012KT 10SM CLR 04/M07 A2968 RMK AO2 SLP914 T00381068 $", "KCWV 031135Z AUTO 00000KT 10SM CLR 11/10 A3005 RMK AO2 T01100103", "KCXE 031135Z AUTO 10SM CLR 05/05 A3011 RMK AO1 T00470047", "KCXO 031053Z 21007KT 10SM OVC020 23/21 A2978 RMK AO2 SLP080 T02330206", "KCXP 031135Z AUTO 00000KT 10SM FEW004 SCT033 SCT050 M02/M05 A2981 RMK AO2", "KCXU 031135Z AUTO 00000KT 10SM CLR 16/11 A2998 RMK AO1 T01560105", "KCXW 031135Z AUTO 16006KT 10SM OVC007 16/16 A2976 RMK A01", "KCXY 031056Z 11005KT 10SM CLR 01/M06 A3012 RMK AO2 SLP201 T00111061", "KCYD 031136Z AUTO 18011KT 5SM BR SCT017 24/23 A2994 RMK A02 T02370227", "KCYS 031053Z AUTO 04006KT 10SM FEW046 BKN120 M02/M08 A2969 RMK AO2 SLP030 T10221083", "KCZT 031135Z AUTO 10SM CLR 17/17 A2971 RMK AO2", "KD07 031056Z AUTO 32005KT M01/M04 A2976 RMK AO1 SLP098 T10111044 $", "KD25 031135Z AUTO 24006KT 10SM CLR M02/M03 A2963 RMK AO2 T10171029", "KD39 031135Z AUTO 25012KT 10SM SCT016 M01/M03 A2971 RMK AO2 T10101028", "KD50 031155Z AUTO 06009KT 4SM -SN FEW006 BKN028 OVC033 M08/M10 A2980 RMK AO2", "KD55 031135Z AUTO 01019G25KT 7SM OVC007 M07/M07 A2972 RMK AO2", "KD57 031135Z AUTO 31015KT 10SM OVC018 M02/M06 A2975 RMK AO2", "KD60 031135Z AUTO 07012KT 3SM BR OVC011 M08/M08 A2976 RMK AO2", "KD73 031135Z AUTO 00000KT 10SM CLR 09/08 A3000 RMK AO2 T00930082", "KD95 031135Z AUTO 23005KT 10SM CLR 07/01 A2978 RMK AO2 T00690009", "KDAA 031055Z AUTO 00000KT 10SM CLR 01/M01 A3011 RMK AO2 SLP199 T00091007", "KDAB 031053Z 00000KT 7SM FEW015 FEW038 OVC180 21/19 A3003 RMK AO2 SLP167 T02060194", "KDAG 031150Z AUTO 27026G39KT 10SM BKN026 BKN035 OVC047 11/05 A2975 RMK AO2 PK WND 27045/1132 SLP058 T01110050 10144 20111 56012", "KDAL 031053Z 14004KT 6SM BR BKN012 18/17 A2968 RMK AO2 SLP044 T01780172 $", "KDAN 031053Z AUTO 00000KT 10SM CLR 02/01 A3009 RMK AO2 SLP184 T00220006 $", "KDAW 031151Z AUTO 00000KT 10SM CLR 01/M08 A3018 RMK AO2 SLP220 T00061078 10006 21044 53022", "KDAY 031056Z 18008KT 10SM SCT100 SCT250 07/00 A2987 RMK AO2 SLP118 T00670000 VISNO RWY 6L $", "KDBN 031110Z AUTO 09004KT 10SM SCT120 12/10 A3003 RMK AO2", "KDBQ 031053Z 00000KT 10SM BKN110 04/00 A2978 RMK AO2 SLP085 T00390000", "KDCA 031052Z 18003KT 10SM FEW038 BKN200 07/02 A3014 RMK AO2 SLP204 T00670022 $", "KDCM 031135Z AUTO 00000KT 10SM CLR 07/07 A3007 RMK AO2", "KDCU 031053Z AUTO 12007KT 9SM -RA OVC085 14/10 A2988 RMK AO2 RAB0959 PRESFR SLP114 P0006 T01440100 $", "KDCY 031135Z AUTO 17009KT 7SM -RA SCT040 BKN070 OVC100 11/11 A2984 RMK AO2 P0012 T01130111", "KDDC 031052Z AUTO 33010KT 10SM CLR 04/M03 A2953 RMK AO2 SLP982 T00391028", "KDDH 031054Z AUTO 00000KT 10SM FEW090 M05/M12 A3011 RMK AO2 SLP204 T10501117 $", "KDEC 031054Z 21003KT 10SM CLR 10/06 A2978 RMK AO2 SLP083 T01000056 $", "KDED 031130Z AUTO 01003KT 7SM BKN030 20/19 A3004 RMK AO2 T02030189", "KDEH 031135Z AUTO 00000KT 10SM FEW075 OVC095 05/02 A2974 RMK AO2", "KDEN 031053Z 16007KT 10SM FEW060 SCT220 M01/M05 A2970 RMK AO2 SLP020 T10061050", "KDEQ 031053Z AUTO 10SM OVC004 16/14 A2972 RMK AO2 SLP061 T01610144 $", "KDET 031053Z 20008KT 10SM CLR 06/01 A2981 RMK AO2 SLP097 T00560011", "KDEW 031053Z AUTO 00000KT 10SM OVC055 M01/M03 A2980 RMK AO2 SLP110 T10111028", "KDFI 031053Z AUTO 21006KT 10SM CLR 05/01 A2982 RMK AO2 SLP102 T00500011", "KDFW 031053Z 20009KT 4SM BR FEW007 18/18 A2966 RMK AO2 SLP038 T01830178", "KDGW 031144Z AUTO 08006KT 1SM -SN BR VV008 M04/M05 A2978 RMK AO2 P0000 T10391050", "KDHN 031145Z 15006KT 10SM SCT005 BKN012 17/15 A2998 RMK AO2 T01720150", "KDHT 031053Z AUTO 29007KT 10SM CLR 09/M11 A2965 RMK AO2 SLP992 T00891106", "KDIJ 031056Z AUTO 08007KT 10SM CLR M10/M12 A2966 RMK AO2 SLP091 T11001117", "KDIK 031105Z AUTO 30014KT 10SM BKN015 M04/M06 A2972 RMK AO2 T10391061", "KDKK 031053Z AUTO 19011G24KT 10SM CLR 06/M02 A2990 RMK AO2 PK WND 19026/1012 SLP129 T00611022", "KDKR 031135Z AUTO 18005KT 9SM 22/22 A2976 RMK AO2", "KDKX 031135Z AUTO 00000KT 10SM CLR 07/05 A3001 RMK A01", "KDLF 031055Z AUTO 09006KT 10SM CLR 17/14 A2970 RMK AO2 SLP046 T01680143 $", "KDLH 031055Z 25008KT 10SM SCT019 BKN026 M01/M04 A2958 RMK AO2 SLP032 T10061039", "KDLL 031135Z AUTO 00000KT 10SM SCT080 BKN090 OVC110 07/M02 A2973 RMK AO2 T00651017", "KDLN 031053Z AUTO 16003KT 10SM CLR M08/M11 A2966 RMK AO2 SLP082 T10831111", "KDLO 031135Z AUTO 34012KT 10SM BKN031 BKN046 OVC050 09/03 A3000 RMK AO2 T00860027", "KDLP 031135Z AUTO 20010KT 10SM CLR 23/22 A2982 RMK A01", "KDLS 031053Z AUTO 27006KT 10SM OVC055 03/M02 A2996 RMK AO2 SLP149 T00331017", "KDLZ 031135Z AUTO 18006KT 10SM CLR 02/00 A2990 RMK AO2", "KDMA 031055Z AUTO 12005KT 10SM CLR 10/M08 A2984 RMK AO2 SLP075 T00961080 $", "KDMH 031054Z AUTO 06/00 A3014 RMK AO1 SLP205 T00610000", "KDMN 031053Z AUTO 22005KT 10SM CLR 04/M11 A2990 RMK AO2 SLP079 T00441106", "KDMO 031053Z AUTO 00000KT 10SM CLR 11/06 A2969 RMK AO2 SLP050 T01110061", "KDMW 031145Z AUTO 14005KT 10SM CLR 05/M01 A3010 RMK AO2", "KDNA 031135Z AUTO 00000KT 10SM CLR 08/M16 A2990 RMK AO2", "KDNL 031053Z AUTO 11004KT 10SM CLR 12/09 A3002 RMK AO2 SLP163 T01170094", "KDNN 031135Z AUTO 00000KT 10SM SCT140 10/06 A2999 RMK AO2 T00990064", "KDNV 031135Z AUTO 34006KT 10SM SCT110 07/03 A2982 RMK AO2 T00650031", "KDOV 031055Z AUTO 00000KT 10SM CLR 03/02 A3014 RMK AO2 SLP210 T00250019", "KDPA 031052Z 36005KT 10SM CLR 06/02 A2976 RMK AO2 SLP081 T00610017 $", "KDPL 031145Z AUTO 00000KT 7SM CLR 07/07 A3013 RMK AO2", "KDQH 031135Z AUTO 00000KT 10SM CLR 15/11 A3000 RMK AO2 T01480109", "KDRA 031053Z AUTO 20023G40KT 10SM CLR 12/M02 A2954 RMK AO2 PK WND 19040/1047 SLP969 T01221017", "KDRI 031135Z AUTO 18004KT 9SM BKN015 OVC026 23/23 A2983 RMK AO2 CIG 012V018 T02320227 $", "KDRM 031135Z AUTO 26006G14KT 210V290 10SM CLR 04/01 A2961 RMK AO2 T00420006", "KDRO 031053Z AUTO 07006KT 10SM CLR M02/M07 A2981 RMK AO2 SLP068 T10221072", "KDRT 031053Z AUTO 08006KT 10SM CLR 20/14 A2971 RMK AO2 SLP048 T02000139", "KDSF 031140Z AUTO 14009KT 4SM BR FEW019 24/23 A2994 RMK A01", "KDSM 031054Z 12006KT 10SM OVC085 07/M01 A2978 RMK AO2 SLP081 T00671011 $", "KDSV 031054Z AUTO 15005KT 10SM BKN120 01/M07 A2995 RMK AO2 SLP156 T00111067", "KDTA 031135Z AUTO 35012G17KT 10SM OVC090 01/00 A2959 RMK AO1", "KDTL 031135Z AUTO 27012G17KT 9SM OVC006 M02/M03 A2967 RMK AO2", "KDTN 031113Z AUTO 00000KT 9SM BKN019 17/16 A2976 RMK AO2 T01720161", "KDTO 031141Z 18008KT 3SM BR FEW007 17/17 A2967 RMK AO2 T01720172", "KDTS 031053Z 16008KT 6SM BR OVC004 22/21 A2993 RMK AO2 SLP133 T02220211", "KDTW 031053Z 23004KT 10SM FEW130 BKN170 03/00 A2982 RMK AO2 SLP103 T00280000 PNO", "KDUA 031135Z AUTO 15006KT 7SM OVC004 17/16 A2969 RMK AO2", "KDUB 031142Z AUTO 00000KT 3SM -SN OVC009 M08/M09 A2963 RMK AO2", "KDUC 031130Z AUTO 16007KT 3 1/2SM BR OVC001 14/ A2964 RMK AO2 T0140////", "KDUG 031056Z AUTO 10005KT 10SM CLR 05/M12 A2992 RMK AO2 SLP085 T00501122 TSNO", "KDUH 031135Z AUTO 00000KT 10SM CLR 04/01 A2984 RMK AO2 T00440010", "KDUJ 031053Z AUTO 14007KT 10SM CLR 03/M04 A2994 RMK AO2 SLP147 T00331039", "KDUX 031135Z AUTO 28008KT 10SM CLR 06/M12 A2965 RMK AO2 T00631117", "KDVK 031130Z AUTO 00000KT 10SM CLR 06/02 A2995 RMK AO2", "KDVL 031056Z AUTO 35017KT 9SM -SN OVC009 M06/M08 A2973 RMK AO2 SLP101 P0000 T10611078 FZRANO", "KDVN 031052Z AUTO 35006KT 10SM BKN120 04/00 A2979 RMK AO2 SLP086 T00390000", "KDVO 031135Z AUTO 29014G23KT 10SM CLR 07/M01 A3008 RMK AO2", "KDVP 031153Z AUTO 33003KT 10SM SCT120 01/M03 A2977 RMK AO2 T00091027 10031 20000", "KDVT 031053Z 11006KT 10SM CLR 12/M01 A2978 RMK AO2 SLP070 T01171011", "KDWA 031135Z AUTO 31006KT 10SM FEW044 FEW050 05/M01 A3005 RMK AO2", "KDWH 031053Z AUTO 21009KT 10SM SCT016 OVC021 24/21 A2978 RMK AO2 SLP081 T02390206", "KDWX 031135Z AUTO 00000KT 10SM CLR M06/M08 A2961 RMK AO2 T10651076", "KDXR 031053Z 24003KT 10SM CLR M04/M09 A3018 RMK AO2 SLP223 T10391089", "KDXX 031135Z AUTO 28009KT 10SM CLR 01/M03 A2978 RMK AO2", "KDYL 031054Z AUTO 00000KT 10SM CLR M01/M08 A3016 RMK AO2 SLP219 T10111078", "KDYR 031056Z AUTO 00000KT 10SM OVC022 15/15 A2984 RMK AO2 SLP109 T01500150", "KDYS 031055Z AUTO 19005KT 10SM CLR 06/M06 A2968 RMK AO2 SLP020 T00611059", "KDYT 031135Z AUTO 24009KT 10SM BKN065 BKN080 OVC100 01/M02 A2963 RMK AO2", "KDZB 031135Z AUTO 00000KT 5SM BR CLR 19/18 A2976 RMK AO2 T01900180", "KDZJ 031135Z AUTO 00000KT 10SM SCT110 06/03 A3002 RMK AO2 T00580029", "KE11 031135Z AUTO 26010KT 10SM CLR 12/M13 A2978 RMK AO2 T01231130", "KE16 031135Z AUTO 32011G19KT 10SM FEW023 SCT030 BKN036 07/00 A3008 RMK AO2", "KE38 031135Z AUTO 21009KT 10SM CLR 11/M14 A2995 RMK AO2 T01131137", "KE41 031135Z AUTO 21005KT 10SM CLR 13/M13 A2980 RMK AO2 T01341132", "KE42 031135Z AUTO 23006KT 10SM CLR 06/M10 A2963 RMK AO2 T00621104", "KEAN 031130Z AUTO 00000KT 1/2SM +SN OVC007 M02/M03 A2977 RMK AO2 P0003 T10221030", "KEAR 031056Z AUTO 07005KT 10SM BKN080 02/M01 A2966 RMK AO2 SLP042 T00221011 FZRANO", "KEAT 031055Z AUTO 32005KT 10SM BKN060 OVC070 01/M04 A2985 RMK AO2 SLP117 T00111044", "KEAU 031056Z 21004KT 10SM CLR 00/M02 A2969 RMK AO2 SLP059 T00001022", "KEBA 031135Z AUTO 00000KT 10SM CLR 09/06 A3003 RMK AO2 T00910060", "KEBG 031135Z AUTO 16006KT 4SM BR SCT008 23/22 A2973 RMK AO2 T02280220", "KEBS 031135Z AUTO 15007KT 10SM SCT090 BKN120 03/M01 A2974 RMK AO2", "KECG 031054Z 12007KT 10SM CLR 09/04 A3015 RMK AO2 SLP208 T00940039", "KECP 031053Z 14006KT 7SM OVC005 22/21 A2994 RMK AO1 SLP151 T02220211", "KECS 031135Z AUTO 00000KT 10SM BKN075 OVC090 M01/M07 A2978 RMK AO2", "KECU 031135Z AUTO 15008KT 10SM CLR 18/17 A2983 RMK AO2", "KEDC 031135Z AUTO 20008KT 7SM OVC008 21/21 A2975 RMK AO2", "KEDE 031150Z AUTO 06006KT 10SM CLR 12/09 A3016 RMK AO2 T01230090 10123 20103", "KEDJ 031135Z AUTO 17011KT 10SM 05/01 A2988 RMK A01", "KEDN 031135Z AUTO 15006KT 10SM BKN006 OVC012 17/16 A2992 RMK AO2 LTG DSNT NW T01670160 PWINO", "KEDU 031135Z AUTO 00000KT 10SM CLR 04/00 A3005 RMK AO1", "KEDW 031055Z AUTO 25017G24KT 10SM BKN046 08/05 A2982 RMK AO2 PK WND 26026/22 SLP089 T00790054", "KEED 031056Z AUTO 21008KT 10SM CLR 16/01 A2969 RMK AO2 SLP031 T01610006", "KEEN 031056Z AUTO 00000KT FEW120 M06/M08 RMK AO2 SLPNO T10561078 PWINO FZRANO $", "KEEO 031053Z AUTO 20010G16KT 10SM CLR 06/M07 A2955 RMK AO2 SLP957 T00611067", "KEFD 031154Z 17007KT 5SM BR BKN010 OVC015 23/22 A2977", "KEFK 031135Z AUTO 22003KT 10SM OVC100 M04/M12 A3007 RMK AO2 T10431125", "KEFT 031135Z AUTO 00000KT 10SM SCT110 04/M03 A2976 RMK AO2 T00421029", "KEGE 031056Z AUTO 25009G18KT 10SM OVC110 08/M07 A2964 RMK AO2 SLP971 T00831067 PNO $", "KEGI 031149Z AUTO 18011KT 9SM OVC006 22/21 A2991 RMK AO2 SLP128 TSNO $", "KEGT 031135Z AUTO 19013G18KT 10SM OVC007 14/13 A2953 RMK AO2 T01390126", "KEGV 031135Z AUTO 23006KT 10SM CLR M02/M02 A2963 RMK AO2 T10161019", "KEHA 031135Z AUTO 33012KT 10SM CLR 05/M06 A2965 RMK AO2 T00481063", "KEHO 031155Z AUTO 05004KT 10SM CLR 06/05 A3007 RMK AO2 T00600045 10074 20055", "KEHR 031106Z AUTO 34003KT 10SM OVC085 12/06 A2987 RMK AO2 LTG DSNT NE AND NW TSE00", "KEIK 031135Z AUTO 12004KT 10SM SCT110 01/M05 A2970 RMK AO2 T00111046", "KEKE 031135Z AUTO 15015KT 4SM BR FEW015 23/23 A2982 RMK A01", "KEKM 031135Z 00000KT 9SM CLR 04/04 A2985 RMK AO2 T00370035", "KEKN 031151Z AUTO 00000KT 9SM CLR M02/M03 A3003 RMK AO2 SLP191 70007 I6001 T10171033 11017 21033 51010", "KEKO 031145Z AUTO 26005KT 8SM -SN OVC030 M02/M05 A2967 RMK AO2 P0001 T10221050", "KEKQ 031056Z AUTO 19004KT 10SM CLR 12/02 A2996 RMK AO2 SLP139 T01220017", "KEKS 031135Z AUTO 14005KT 10SM OVC110 M09/M14 A2971 RMK AO2", "KEKX 031135Z AUTO 19004KT 10SM SCT100 OVC120 10/02 A2991 RMK AO2 T00970022", "KELA 031135Z AUTO 20006KT 10SM BKN015 OVC019 23/22 A2978 RMK AO2 T02320218", "KELD 031142Z AUTO 08003KT 10SM BKN003 OVC018 15/15 A2978 RMK AO2 T01500150", "KELK 031135Z AUTO 22006KT 1/2SM FG VV001 10/10 A2959 RMK AO2 SLP312 T01050105 $", "KELM 031053Z 06004KT 10SM SCT120 01/M09 A3002 RMK AO2 SLP175 T00061089 $", "KELN 031053Z AUTO 32014KT 10SM BKN080 OVC095 02/M04 A2984 RMK AO2 SLP114 T00171044", "KELO 031135Z AUTO 00000KT 10SM SCT028 BKN050 OVC080 M01/M01 A2958 RMK AO2", "KELP 031151Z 20006KT 10SM CLR 12/M13 A2987 RMK AO2 SLP057 T01171128 10200 20089 55004", "KELY 031149Z AUTO 00000KT 1 3/4SM -SN BR FEW010 OVC028 M01/M02 A2960 RMK AO2 P0001", "KELZ 031056Z AUTO 19007KT 10SM CLR 03/M08 A2994 RMK AO2 SLP154 T00331083", "KEMM 031135Z AUTO 01004KT 1 3/4SM -SN VV007 M06/M07 A2961 RMK AO2 TSNO", "KEMP 031053Z AUTO 00000KT 10SM OVC011 14/11 A2958 RMK AO2 PRESRR SLP008 T01440111", "KEMV 031135Z AUTO 00000KT 10SM CLR 03/03 A3015 RMK AO2 T00270027", "KEND 031125Z 20008KT 7SM FEW004 12/12 A2952 RMK AO2A SLP989", "KENL 031135Z AUTO 18011KT 10SM SCT075 BKN090 OVC120 13/11 A2982 RMK AO2 T01280110", "KENV 031056Z AUTO 00000KT 10SM FEW025 SCT037 OVC055 M01/M02 A2967 RMK AO2 UPB18E42SNE18 SLP056 T10061017 FZRANO PNO $", "KENW 031053Z AUTO 32005KT 10SM CLR 08/01 A2978 RMK AO2 SLP086 T00780006", "KEOE 031115Z AUTO 00000KT 10SM CLR 11/10 A3007 RMK AO2", "KEOK 031135Z AUTO 08008KT 10SM OVC060 09/M02 A2977 RMK A01", "KEPH 031053Z AUTO 35005KT 10SM FEW016 BKN034 02/00 A2984 RMK AO2 UPE00 SLP113 P0000 T00170000", "KEQA 031135Z AUTO 20012G23KT 10SM OVC010 16/13 A2953 RMK AO2", "KEQY 031144Z AUTO 00000KT 2SM BR OVC002 12/11 A3007 RMK AO2 T01170106", "KERI 031151Z 17016G21KT 10SM CLR 07/M01 A2987 RMK AO2 SLP120 T00671011 10067 20044 58004", "KERV 031135Z AUTO 16006KT 5SM BR OVC005 20/19 A2978 RMK AO2 T01960191", "KERY 031135Z AUTO 24011KT 10SM CLR 01/M01 A2960 RMK AO2 T00071009", "KESC 031056Z AUTO 23005KT 10SM CLR 00/M01 A2965 RMK AO2 SLP052 T00001011 FZRANO", "KESF 031149Z AUTO 22007KT 7SM FEW010 BKN031 23/22 A2980 RMK AO2", "KESN 031150Z 15004KT 10SM CLR 06/06 A3019", "KEST 031152Z AUTO 22004KT 10SM SCT110 03/M01 A2976 RMK AO2 SLP085 6//// 7//// T00331011 10050 20028 51017 PNO $", "KETB 031135Z AUTO 19003KT 10SM SCT075 OVC080 06/M04 A2975 RMK AO2", "KETC 031140Z AUTO 00000KT 5SM BR CLR 06/06 A3014 RMK AO2 T00600057", "KETN 031130Z AUTO 00000KT 10SM CLR 03/02 A2971 RMK AO2 T00340025", "KEUF 031058Z AUTO 00000KT 10SM CLR 13/12 A2996 RMK AO2 SLP141 T01330122", "KEUG 031142Z AUTO 24008KT 10SM UP OVC026 02/01 A3010 RMK AO2 RAB14E42UPB42 CIG 021 RNW 34 P0001 T00220006 $", "KEUL 031056Z AUTO 28007KT 10SM CLR M01/M03 A2980 RMK AO2 SLP103 T10061028 FZRANO", "KEVB 031047Z 00000KT 10SM BKN040 20/20 A3003 RMK FIRST", "KEVM 031143Z AUTO 26004KT 10SM OVC023 M00/M02 A2960 RMK AO2", "KEVU 031135Z AUTO 09008G15KT 10SM OVC050 10/M03 A2970 RMK AO2 T01081040", "KEVV 031054Z 00000KT 6SM RA BR FEW060 OVC080 10/09 A2988 RMK AO2 LTG DSNT ALQDS RAB00 TSB0957E37 SLP119 P0020 T01000094 $", "KEVW 031144Z AUTO 07009KT 3/4SM -SN BR VV010 M06/M07 A2959 RMK AO2 P0004 T10561067 $", "KEWB 031053Z 00000KT 10SM CLR M04/M04 A3018 RMK AO2 SLP222 T10441044 $", "KEWK 031056Z AUTO 19014KT 10SM OVC011 15/13 A2953 RMK AO2 SLP986 T01500133", "KEWN 031054Z 00000KT 10SM CLR 07/07 A3013 RMK AO2 SLP204 T00720067", "KEWR 031151Z VRB03KT 10SM FEW250 07/M06 A3020 RMK AO2 SLP227 T00671061 10067 20022 51029 $", "KEXX 031150Z AUTO 00000KT 10SM OVC010 06/06 A3010 RMK AO2 T00640064 10079 20044", "KEYE 031053Z AUTO 00000KT 10SM CLR 06/02 A2981 RMK AO2 SLP096 T00610017", "KEYF 031150Z AUTO 14003KT 10SM CLR 08/07 A3013 RMK AO2 T00840074 10098 20073", "KEYW 031053Z 12008KT 10SM FEW023 26/21 A3000 RMK AO2 SLP163 T02560211 $", "KEZF 031135Z AUTO 00000KT 10SM CLR 02/00 A3013 RMK AO2 T00200000", "KEZM 031135Z AUTO 09003KT 10SM SCT110 12/10 A2997 RMK AO2", "KEZP 031145Z AUTO 20015KT 10SM FEW100 24/22 A2986 RMK A01", "KEZZ 031135Z AUTO 08011KT 10SM OVC060 10/M03 A2971 RMK AO2 T01031032", "KF00 031135Z AUTO 18009KT 5SM BR OVC006 18/18 A2968 RMK AO2 T01830180", "KF05 031140Z AUTO 10SM CLR 09/03 A2962 RMK AO2 T00900025", "KF17 031135Z AUTO 18005KT 10SM SCT013 OVC019 23/20 A2978 RMK AO2", "KF44 031135Z AUTO 20006KT 7SM OVC011 21/19 A2972 RMK AO2", "KF46 031135Z AUTO 20011G14KT 7SM OVC006 20/20 A2970 RMK AO2 T02000200", "KF70 031135Z AUTO 22008KT 10SM BKN010 BKN017 OVC029 09/08 A2992 RMK AO2", "KFAF 031055Z 15008KT 10SM CLR 09/04 A3011 RMK AO2A SLP200 T00880040 $", "KFAM 031056Z AUTO 15006KT 10SM OVC075 14/09 A2978 RMK AO2 SLP091 T01390089", "KFAR 031053Z AUTO 27014KT 10SM OVC014 00/M03 A2969 RMK AO2 SLP063 T00001028", "KFAT 031053Z 33013G21KT 10SM FEW060 BKN110 08/03 A3000 RMK AO2 SLP157 T00830028", "KFAY 031053Z AUTO 00000KT 10SM CLR 07/06 A3008 RMK AO2 SLP180 T00720061 $", "KFBG 031118Z AUTO 00000KT 10SM CLR 08/07 A3009 RMK AO2 SLP192 $", "KFBL 031135Z AUTO 26006KT 10SM CLR 03/M01 A2975 RMK AO2", "KFCI 031056Z AUTO 17006KT 10SM CLR 04/04 A3012 RMK AO2 SLP213 T00440039 PNO $", "KFCM 031053Z 23007KT 10SM CLR M01/M03 A2971 RMK AO2 SLP068 T10061028", "KFCS 031055Z AUTO 22004KT 10SM CLR 02/M06 A2969 RMK AO2 SLP035 T00211062 $", "KFDK 031147Z 00000KT 10SM CLR 01/01 A3012", "KFDR 031130Z AUTO 08006KT 1/2SM FG 07/07 A2959 RMK AO2 T00720072 $", "KFDW 031135Z AUTO 13004KT 10SM CLR 11/11 A3005 RMK AO1", "KFDY 031053Z AUTO 16009KT 10SM CLR 04/01 A2983 RMK AO2 SLP102 T00390006", "KFEP 031135Z AUTO 00000KT 10SM SCT120 02/01 A2979 RMK AO2 T00200014", "KFET 031135Z AUTO 08004KT 10SM OVC085 06/M01 A2971 RMK AO2 T00551007", "KFEW 031056Z 02007KT 10SM BKN080 M02/M08 A2969 RMK SLPNO RVRNO PWINO $", "KFFA 031150Z AUTO 10005KT 10SM CLR 10/06 A3014 RMK AO2 T01010064", "KFFC 031053Z AUTO 00000KT 10SM SCT110 10/08 A2998 RMK AO2 SLP150 T01000083", "KFFL 031135Z AUTO 07004KT 10SM OVC075 06/M01 A2976 RMK A01", "KFFM 031135Z AUTO 29014KT 10SM OVC012 M02/M04 A2970 RMK AO2", "KFFO 031055Z AUTO 14004KT 10SM CLR 05/00 A2985 RMK AO2 SLP114 T00450001", "KFFT 031053Z AUTO 15004KT 10SM FEW085 08/01 A2990 RMK AO2 SLP125 T00780011", "KFFX 031135Z AUTO 24004KT 10SM OVC100 06/01 A2978 RMK AO2 T00580011", "KFFZ 031054Z AUTO 11003KT 10SM CLR 15/M03 A2978 RMK AO2 SLP067 T01501028", "KFGN 031135Z AUTO 04014KT 10SM SCT014 OVC021 M04/M07 A2968 RMK AO2", "KFGX 031135Z AUTO 20008KT 10SM CLR 08/01 A2995 RMK AO2 T00750006", "KFHB 031135Z AUTO 18006KT 10SM -RA SCT060 SCT070 BKN110 16/ A3005 RMK AO2", "KFHR 031128Z AUTO 35003KT 7SM -RA FEW008 OVC021 03/02 A3001 RMK AO2 RAB04 P0001 T00330017", "KFHU 031055Z AUTO 00000KT 9SM CLR 09/M12 A2993 RMK AO2 SLP090 T00891123", "KFIN 031150Z 00000KT 4SM BR CLR 18/18 A3004", "KFIT 031052Z AUTO 00000KT 10SM CLR M04/M09 A3016 RMK AO2 SLP218 T10391094", "KFKA 031135Z AUTO 22008KT 10SM CLR 03/00 A2975 RMK AO2 T00281005", "KFKN 031135Z AUTO 00000KT 10SM CLR 07/03 A3015 RMK AO2 T00650031", "KFKR 031135Z AUTO 00000KT 10SM 07/03 A2981 RMK AO2", "KFKS 031135Z AUTO 24005KT 10SM CLR 05/01 A2973 RMK AO2 T00470005", "KFLD 031053Z AUTO 20005KT 10SM OVC090 06/M01 A2974 RMK AO2 SLP077 T00561011", "KFLG 031057Z AUTO 23015KT 10SM CLR 04/M07 A2983 RMK AO2 SLP043 T00391072", "KFLL 031053Z 20003KT 10SM FEW023 23/21 A3001 RMK AO2 SLP160 T02330206", "KFLO 031053Z 00000KT 10SM CLR 09/07 A3008 RMK AO2 SLP185 T00890072", "KFLP 031056Z AUTO VRB06KT 10SM OVC016 16/13 A2975 RMK AO2 SLP066 T01560128", "KFLY 031135Z AUTO 27009KT 10SM CLR M04/M07 A2971 RMK AO2 T10371067", "KFME 031149Z AUTO 00000KT 10SM BKN036 00/00 A3017 RMK AO1", "KFMH 031145Z 00000KT 10SM CLR M01/M05 A3021", "KFMM 031135Z AUTO 33010KT 10SM FEW042 M00/M02 A2969 RMK AO2", "KFMN 031053Z AUTO 08009KT 10SM CLR 04/M09 A2976 RMK AO2 SLP046 T00391089", "KFMY 031053Z 35004KT 9SM CLR 22/21 A3000 RMK AO2 SLP162 T02220206", "KFNB 031053Z AUTO 07010KT 10SM OVC050 11/M07 A2968 RMK AO2 SLP044 T01061067", "KFNL 031056Z 14005KT 10SM OVC060 02/M03 A2972 RMK AO2 SLP035 T00171028 FZRANO", "KFNT 031053Z 22009G18KT 10SM CLR 06/01 A2976 RMK AO2 SLP081 T00610011", "KFOA 031135Z AUTO 18010KT 10SM SCT090 SCT110 11/10 A2982 RMK AO2", "KFOD 031056Z AUTO 00000KT 10SM FEW100 03/M02 A2976 RMK AO2 SLP095 T00331017", "KFOE 031120Z 08005KT 7SM -RA BKN022 OVC029 14/11 A2962 RMK AO2 RAB19 P0000 T01390106 $", "KFOK 031053Z 00000KT 10SM CLR M06/M08 A3019 RMK AO2 SLP225 T10561078", "KFOZ 031153Z AUTO 00000KT 4SM SCT002 OVC015 01/00 A2966 RMK AO2", "KFPK 031135Z AUTO 23003KT 10SM CLR 05/01 A2979 RMK AO2 T00510010", "KFPR 031136Z 16006KT 10SM FEW018 SCT075 25/22 A3003 RMK AO2 T02500217", "KFPY 031135Z AUTO 11004KT 10SM CLR 15/14 A3000 RMK AO2 T01450136", "KFQD 031150Z AUTO 00000KT 10SM CLR 07/03 A3008 RMK AO2", "KFRG 031053Z AUTO 06003KT 10SM CLR 01/M08 A3018 RMK AO2 SLP219 T00111083", "KFRH 031135Z AUTO 00000KT 10SM SCT080 OVC090 10/06 A2989 RMK AO1", "KFRI 031055Z 06010KT 7SM OVC024 12/03 A2958 RMK AO2A SLP009 T01200032 $", "KFRM 031056Z AUTO 00000KT 10SM CLR 03/M02 A2976 RMK AO2 SLP088 T00281017", "KFRR 031155Z AUTO 00000KT 10SM CLR 00/M01 A3007 RMK AO1", "KFSD 031056Z 34007KT 10SM BKN120 OVC150 04/M03 A2976 RMK AO2 SLP086 T00441028 $", "KFSE 031135Z AUTO 29007KT 3SM BR OVC002 M02/M02 A2962 RMK AO2", "KFSI 031147Z AUTO 18007KT 1 1/8SM R18/6000FT BR OVC001 13/13 A2959 RMK AO2 SLP015 FZRANO $", "KFSK 031135Z AUTO 11004KT 10SM OVC020 13/11 A2961 RMK AO2 T01320107", "KFSM 031053Z 06009KT 10SM OVC026 15/13 A2970 RMK AO2 SLP052 T01500128", "KFSO 031135Z AUTO 16004KT 10SM SCT100 M02/M07 A3004 RMK AO2 T10221072", "KFST 031053Z AUTO 21012KT 10SM CLR 16/M13 A2981 RMK AO2 SLP052 T01561133 $", "KFSW 031135Z AUTO 08006KT 10SM 09/M02 A2977 RMK AO2", "KFTK 031114Z AUTO 19004KT 10SM BKN100 11/02 A2989 RMK AO2 LTG DSNT NW PRESRR SLP123", "KFTN 031135Z AUTO 16004KT 10SM CLR 22/19 A2973 RMK A01", "KFTW 031053Z 18006KT 6SM BR CLR 18/18 A2966 RMK AO2 SLP037 T01830183", "KFTY 031053Z 00000KT 10SM CLR 10/08 A2997 RMK AO2 SLP144 T01000083", "KFUL 031136Z AUTO 00000KT 10SM BKN020 14/08 A2991 RMK AO2 T01390083", "KFVE 031053Z AUTO 00000KT 10SM SCT050 M10/M16 A2998 RMK AO2 SLP168 T11001161", "KFVX 031135Z AUTO 00000KT 10SM CLR 01/01 A3011 RMK AO2 T00090007", "KFWA 031054Z 00000KT 10SM FEW140 FEW200 04/01 A2982 RMK AO2 SLP103 T00390011", "KFWB 031135Z AUTO 12008KT 10SM BKN033 BKN038 13/11 A2970 RMK AO2", "KFWC 031135Z AUTO 19010KT 10SM RA SCT030 SCT045 BKN110 11/11 A2982 RMK AO1 P0009 T01120108", "KFWN 031053Z AUTO 00000KT 10SM CLR M04/M07 A3017 RMK AO2 SLP218 T10441067", "KFWS 031149Z 18008KT 4SM BR SCT010 19/18 A2970", "KFXE 031053Z 19003KT 10SM CLR 23/21 A3000 RMK AO2 SLP163 T02330211", "KFXY 031135Z AUTO 28003KT 10SM SCT070 OVC090 04/01 A2975 RMK AO2", "KFYE 031130Z AUTO 00000KT 10SM BKN011 BKN033 OVC095 14/14 A2981 RMK A01", "KFYG 031135Z AUTO 11008KT 10SM BKN070 BKN095 15/09 A2974 RMK AO2", "KFYJ 031135Z AUTO 00000KT 10SM CLR 06/03 A3015 RMK AO1 T00560033", "KFYM 031135Z AUTO 00000KT 5SM HZ FEW027 BKN035 OVC050 13/10 A2993 RMK A01", "KFYV 031053Z 17007KT 10SM FEW022 15/12 A2968 RMK AO2 SLP038 T01500117", "KFZG 031135Z AUTO 23005KT 10SM CLR 14/11 A3000 RMK AO2 T01430114", "KFZY 031054Z AUTO 14006KT OVC070 01/M07 A2997 RMK AO2 SLP154 T00061067 $", "KGAF 031155Z AUTO 10SM OVC007 M05/M05 A2972 RMK AO2", "KGAG 031053Z AUTO 28006KT 10SM CLR 07/M03 A2955 RMK AO2 SLP986 T00671033 $", "KGAI 031056Z AUTO 13004KT 10SM CLR 03/M02 A3012 RMK AO2 SLP216 T00281017", "KGAO 031135Z AUTO 18008KT 10SM SCT009 24/22 A2991 RMK AO2 T02420223", "KGBD 031056Z AUTO 04008KT 10SM OVC016 13/11 A2950 RMK AO2 SLP977 T01280111", "KGBG 031135Z AUTO 07007KT 10SM CLR 07/00 A2979 RMK AO2 T00700001 TSNO", "KGCC 031053Z AUTO 23004KT 10SM BKN120 M03/M07 A2974 RMK AO2 SLP085 T10281067", "KGCD 031135Z AUTO 28009KT 10SM SCT055 OVC070 M03/M06 A2983 RMK AO2 T10321060", "KGCK 031054Z AUTO 36011KT 10SM CLR 03/M02 A2957 RMK AO2 SLP997 T00331022", "KGCM 031135Z AUTO 16011G21KT 10SM OVC013 16/15 A2960 RMK AO2", "KGCN 031054Z AUTO 20012KT 10SM CLR 05/M05 A2979 RMK AO2 SLP024 T00501050", "KGCY 031135Z AUTO 00000KT 10SM CLR 08/01 A3002 RMK A01", "KGDA 031135Z AUTO 10003KT 10SM SCT070 OVC090 13/04 A2986 RMK AO2 T01250044 PWINO", "KGDB 031135Z AUTO 25009KT 5SM BR CLR 00/M02 A2978 RMK AO2 T00001023", "KGDJ 031135Z AUTO 21009G15KT 10SM CLR 19/18 A2969 RMK AO2 T01900177", "KGDV 031056Z AUTO 29010KT 10SM SCT016 OVC024 M02/M04 A2978 RMK AO2 SLP106 T10221044 FZRANO TSNO", "KGED 031054Z AUTO 00000KT 10SM CLR 02/M01 A3016 RMK AO2 SLP213 T00171006 PNO $", "KGEG 031128Z 31005KT 4SM -SN FEW007 BKN017 OVC037 M01/M01 A2979 RMK AO2 P0001 T10061011", "KGEV 031150Z AUTO 00000KT 10SM CLR 03/00 A3008 RMK AO2 T00301002 10075 20026", "KGEY 031053Z AUTO 00000KT 10SM CLR 02/M06 A2971 RMK AO2 SLP055 T00221061", "KGEZ 031053Z AUTO 18007KT 10SM FEW100 SCT120 09/02 A2983 RMK AO2 SLP100 T00940017", "KGFA 031055Z AUTO 00000KT 10SM CLR M06/M10 A2975 RMK AO2 SLP109 T10651104 $", "KGFK 031053Z 35023G32KT 10SM OVC007 M03/M04 A2965 RMK AO2 PK WND 35035/1042 SLP051 T10281044 $", "KGFL 031053Z AUTO 00000KT 10SM OVC095 M04/M07 A3013 RMK AO2 SLP210 T10441067", "KGGE 031135Z AUTO 00000KT 10SM CLR 09/08 A3010 RMK AO2", "KGGF 031135Z AUTO 34010KT 10SM CLR M01/M01 A2969 RMK AO2", "KGGG 031053Z 20011KT 10SM OVC013 21/19 A2972 RMK AO2 SLP059 T02110189 $", "KGGI 031135Z AUTO 00000KT 10SM BKN090 BKN110 05/02 A2977 RMK AO2 T00470021", "KGGP 031135Z AUTO 00000KT 10SM CLR 04/01 A2985 RMK AO2", "KGGW 031053Z AUTO 34010KT 10SM CLR M10/M13 A2980 RMK AO2 SLP126 T11001128", "KGHG 031135Z AUTO 00000KT 10SM CLR 00/M09 A3020 RMK AO2", "KGHW 031135Z AUTO 23010KT 10SM CLR M02/M03 A2971 RMK AO2", "KGIC 031135Z AUTO 00000KT 10SM SCT027 BKN034 OVC046 M01/M01 A2975 RMK AO1", "KGIF 031053Z AUTO 34003KT 9SM CLR 20/19 A3003 RMK AO2 SLP168 T02000189", "KGJT 031053Z AUTO 15005KT 10SM CLR 08/M06 A2957 RMK AO2 SLP967 T00831056", "KGKJ 031053Z AUTO VRB04KT 10SM CLR 03/M02 A2990 RMK AO2 SLP133 T00331017", "KGKT 031135Z AUTO 34003KT 10SM CLR 06/03 A3001 RMK A01", "KGKY 031053Z AUTO 17007KT 6SM BR OVC006 20/18 A2968 RMK AO2 SLP042 T02000183 $", "KGLD 031053Z AUTO 07005KT 10SM CLR 01/M03 A2966 RMK AO2 SLP022 T00111033 $", "KGLE 031115Z AUTO 19006KT M1/4SM OVC002 17/17 A2968 RMK AO2 T01670167 PWINO", "KGLH 031102Z AUTO 13004KT 10SM OVC009 14/13 A2979 RMK AO2 T01440133 $", "KGLR 031053Z AUTO 25010KT 10SM CLR 04/00 A2966 RMK AO2 SLP055 T00440000", "KGLS 031107Z 18013KT 5SM BR BKN004 OVC018 24/23 A2980 RMK AO2 T02390228", "KGLW 031135Z AUTO 00000KT 10SM -RA SCT080 OVC100 12/04 A2992 RMK AO2 T01190044", "KGLY 031135Z AUTO 06003KT 9SM SCT040 09/08 A2966 RMK AO2", "KGMU 031053Z 36003KT 10SM CLR 10/04 A3003 RMK AO2 SLP165 T01000044", "KGNA 031056Z AUTO 26007KT 01/M01 A2955 RMK AO1 SLP017 T00111006", "KGNB 031135Z AUTO 23003KT 10SM BKN120 01/M09 A2966 RMK AO2 T00111088", "KGNC 031130Z AUTO 27008KT 10SM CLR 08/M11 A2981 RMK AO2 T00821115", "KGNG 031140Z AUTO 28011KT 1/4SM FZFG OVC002 M01/M00 A2971 RMK AO2", "KGNR 031056Z AUTO 00000KT M06/M13 A3001 RMK AO1 SLP186 T10611133", "KGNT 031135Z AUTO 13010KT 10SM CLR 02/M13 A2986 RMK AO2 T00241135", "KGOK 031053Z AUTO 19010KT 8SM CLR 15/13 A2954 RMK AO2 SLP995 T01500133", "KGON 031056Z 35004KT 10SM CLR M02/M07 A3019 RMK AO2 SLP222 T10221072", "KGOO 031135Z AUTO 00000KT 10SM CLR M02/M03 A2991 RMK A01", "KGOP 031135Z AUTO 5SM HZ CLR A2975 RMK AO2", "KGOV 031055Z AUTO 26007KT 9SM CLR 04/02 A2968 RMK AO2 SLP066 T00350017 $", "KGPC 031135Z AUTO 21008KT 10SM CLR 11/05 A2982 RMK AO2 T01130050", "KGPH 031135Z AUTO 08005KT 10SM SCT060 11/01 A2969 RMK AO2", "KGPI 031055Z AUTO 30004KT 10SM CLR M06/M09 A2977 RMK AO2 SLP107 T10611089 $", "KGPM 031150Z 19010G18KT 10SM SKC 20/20 A2970", "KGPT 031053Z AUTO 19010G20KT 9SM OVC004 23/22 A2987 RMK AO2 SLP114 T02330222", "KGPZ 031147Z AUTO VRB06KT 8SM -SN OVC011 00/M01 A2962 RMK AO2 P0000 FZRANO", "KGRB 031053Z 22005KT 10SM CLR 04/M02 A2972 RMK AO2 SLP071 T00391017", "KGRD 031056Z AUTO 00000KT 10SM CLR 07/05 A3004 RMK AO2 SLP171 T00670050 PNO", "KGRF 031135Z 00000KT 3/4SM R15/3500V5000FT BR OVC002 01/M00 A2998 RMK AO2A VIS 3/4V1 3/8 SLP158 $", "KGRI 031053Z AUTO 07006KT 10SM SCT085 04/M02 A2967 RMK AO2 SLP050 T00391022", "KGRK 031055Z AUTO 17008KT 9SM CLR 19/19 A2973 RMK AO2 SLP058 T01940187", "KGRN 031135Z AUTO 00000KT 1SM -SN OVC012 00/M01 A2981 RMK AO2 T00001012", "KGRR 031053Z 27008KT 10SM BKN120 08/03 A2977 RMK AO2 SLP084 T00830028 $", "KGRY 031135Z AUTO 20015KT 10SM CLR 24/21 A2991 RMK A01", "KGSB 031055Z 00000KT 10SM BKN220 08/06 A3009 RMK AO2A VIS 1 3/8 RWY26 SLP193 T00790059 $", "KGSH 031053Z AUTO 22003KT 10SM CLR 04/01 A2982 RMK AO2 SLP100 T00390006", "KGSO 031054Z 10003KT 10SM BKN250 06/02 A3006 RMK AO2 SLP177 T00560022", "KGSP 031053Z 02004KT 10SM CLR 07/04 A3003 RMK AO2 SLP165 T00670044", "KGTB 031055Z AUTO 14009KT 10SM OVC050 00/M10 A2994 RMK AO2 SLP146 T00001100 $", "KGTF 031053Z 00000KT 10SM CLR M07/M09 A2975 RMK AO2 SLP111 T10671094", "KGTR 031056Z AUTO 15012KT 10SM BKN006 BKN029 12/12 A2982 RMK AO2 RAE14 SLP103 P0001 T01220122", "KGTU 031056Z AUTO 18010KT OVC012 22/20 A2976 RMK AO2 SLP069 T02170200 PWINO $", "KGUC 031056Z AUTO 00000KT 10SM CLR M03/M06 A2974 RMK AO2 SLP051 T10281056 FZRANO", "KGUL 031140Z AUTO 19008KT 4SM BR CLR 24/22 A2984 RMK A01", "KGUP 031053Z AUTO 22006KT 10SM CLR 02/M09 A2984 RMK AO2 SLP025 T00171089", "KGUR 031150Z AUTO 02005KT 1SM R32/5500VP6000FT -SN BR VV009 M03/M03 A2976 RMK AO2 SLP107", "KGUS 031055Z AUTO 00000KT 10SM FEW220 06/01 A2979 RMK AO2 SLP093 T00630010 $", "KGUY 031053Z AUTO 24008KT 10SM CLR 08/M08 A2962 RMK AO2 SLP993 T00781083", "KGVE 031135Z AUTO 00000KT 10SM CLR 01/00 A3012 RMK AO1 T00090000", "KGVL 031053Z AUTO 03004KT 10SM CLR 11/06 A3001 RMK AO2 SLP154 T01110061", "KGVQ 031056Z AUTO 20012G18KT 10SM CLR 05/M03 A2988 RMK AO2 SLP122 T00501033", "KGVT 031135Z AUTO 18009KT 5SM BR OVC007 19/19 A2970 RMK AO2 TSNO T01920189", "KGVW 031135Z AUTO 16008KT 130V190 3SM BR 23/22 A2981 RMK A01", "KGWB 031135Z AUTO 23004KT 10SM CLR 04/01 A2985 RMK AO2", "KGWO 031053Z AUTO 00000KT 10SM OVC009 16/14 A2980 RMK AO2 SLP089 T01560139", "KGWR 031135Z AUTO 32011KT 10SM FEW015 FEW035 SCT042 M03/M03 A2975 RMK A01", "KGWW 031155Z AUTO 00000KT 10SM CLR 06/06 A3013 RMK AO2 T00580058 10085 20053", "KGXA 031055Z AUTO 31019KT 10SM CLR 06/06 A2980 RMK AO2 SLP078 WND DATA ESTMD T00590059", "KGXF 031055Z AUTO 20003KT 10SM CLR 12/M06 A2978 RMK AO2 SLP076 T01161063 FZRANO $", "KGXY 031056Z 00000KT 10SM BKN120 01/M03 A2972 RMK AO2 SLP055 T00061033 FZRANO", "KGYB 031135Z AUTO 00000KT 7SM OVC011 22/20 A2977 RMK AO2 T02220202", "KGYF 031135Z AUTO 16022KT 10SM BKN012 24/22 A2980 RMK AO2", "KGYH 031147Z VRB04KT 10SM CLR 08/06 A3004", "KGYI 031115Z AUTO 19011KT 4SM BR BKN004 BKN010 18/18 A2967 RMK AO2 T01830176 TSNO", "KGYL 031135Z 26008KT CLR 01/M03 A2974 RMK AO2 T00111029 PWINO", "KGYY 031145Z 00000KT 10SM CLR 04/03 A2984", "KGZH 031059Z AUTO 15005KT 10SM VCTS OVC006 18/15 A2989 RMK AO2 LTG DSNT W AND NW T01780150", "KGZL 031135Z AUTO 10010KT 10SM OVC019 14/13 A2966 RMK AO2", "KGZN 031120Z AUTO 20009KT 10SM CLR 14/M04 A2969 RMK AO2", "KGZS 031135Z AUTO 00000KT 10SM SCT037 SCT047 OVC075 12/12 A2988 RMK A01", "KH71 031135Z AUTO 17015G22KT 10SM OVC017 18/14 A2960 RMK AO2", "KHAE 031155Z AUTO 06006KT 10SM CLR 10/03 A2975 RMK AO2", "KHAF 031135Z AUTO 35016G22KT 9SM BKN031 BKN039 BKN046 08/01 A3011 RMK AO2", "KHAI 031135Z AUTO 20004KT 10SM CLR 04/02 A2983 RMK AO2 T00430018", "KHAO 031053Z AUTO 10004KT 10SM BKN100 06/03 A2988 RMK AO2 SLP120 T00610028", "KHBG 031104Z AUTO 22010G19KT 10SM SCT019 BKN030 BKN110 23/21 A2986 RMK AO2 LTG DSNT N AND NE CIG 024V040 T02280206", "KHBI 031145Z AUTO 00000KT 10SM BKN014 08/05 A3014 RMK AO2 T00830054", "KHBR 031140Z AUTO 21013KT 1/2SM FG 10/10 A2960 RMK AO2 T01000100 $", "KHBV 031135Z AUTO 15003KT 1/4SM FG OVC002 21/21 A2975 RMK AO2 T02110206", "KHCD 031135Z AUTO 27012KT 10SM CLR 00/M03 A2974 RMK AO2 T00011030", "KHCO 031135Z AUTO 33016G22KT 10SM OVC009 M03/M04 A2969 RMK AO2", "KHCR 031135Z AUTO 07008G14KT 040V100 1SM SN OVC004 M01/M03 A2958 RMK AO2", "KHDC 031135Z AUTO 19007KT 10SM BKN010 OVC120 22/22 A2987 RMK AO2 LTG DSNT NE T02230215", "KHDE 031135Z AUTO 09006KT 10SM OVC070 04/M01 A2967 RMK AO2 T00421010", "KHDL 031135Z AUTO 13007KT 10SM OVC007 16/15 A2995 RMK AO2 LTG DSNT N", "KHDN 031056Z AUTO 07007KT 10SM CLR M01/M02 A2958 RMK AO2 SLP009 T10111022 FZRANO", "KHDO 031151Z AUTO 07004KT 8SM OVC002 20/19 A2976 RMK AO2 SLP062 T02000194 10233 20178 53003", "KHEF 031056Z 00000KT 10SM FEW031 00/M01 A3014 RMK AO2 SLP211 T00001011 FZRANO", "KHEG 031135Z AUTO 00000KT 5SM BR CLR 16/14 A3005 RMK AO2", "KHEI 031053Z AUTO 31009KT 10SM FEW017 M04/M05 A2975 RMK AO2 SLP095 T10391050", "KHEQ 031135Z AUTO 29003KT 10SM CLR 00/M01 A2970 RMK AO2", "KHEY 031131Z AUTO 17004KT 10SM SCT005 BKN012 BKN180 16/16 A2991 RMK AO2 LTG DSNT N CIG 006V012 SLP129", "KHEZ 031056Z AUTO 20008G16KT 10SM OVC010 22/21 A2981 RMK AO2 SLP092 T02220211", "KHFD 031053Z 00000KT 10SM CLR M01/M06 A3019 RMK AO2 SLP222 T10111056", "KHFF 031132Z AUTO 00000KT 10SM CLR 07/07 A3009 RMK AO2 SLP192 $", "KHFJ 031135Z AUTO 15009KT 10SM CLR 13/10 A2966 RMK AO2", "KHFY 031155Z AUTO 00000KT 10SM 08/03 A2983 RMK AO2 T00750033 10090 20069", "KHGR 031053Z 16007KT 10SM CLR 04/M03 A3007 RMK AO2 SLP197 T00391028 $", "KHHF 031135Z AUTO 23008KT 10SM CLR 09/M11 A2959 RMK AO2 T00861115", "KHHG 031135Z AUTO 00000KT 10SM CLR 06/01 A2984 RMK AO2 T00600011", "KHHR 031053Z AUTO 28005KT 10SM OVC021 14/08 A2993 RMK AO2 SLP136 T01390083", "KHHW 031117Z AUTO 13004KT 1 1/2SM BR OVC003 16/15 A2970 RMK AO2", "KHIB 031053Z AUTO 00000KT 5SM -SN BR BKN017 OVC036 M02/M03 A2957 RMK AO2 SNB08 SLP026 P0000 T10171028", "KHIE 031052Z AUTO 00000KT 10SM BKN100 M09/M11 A3008 RMK AO2 SLP207 I1000 T10941111", "KHIF 031122Z 07010KT 4SM -SN BR FEW005 M01/M01 A2959 RMK AO2A SNE18B22 SLP018", "KHII 031135Z AUTO 13011G17KT 10SM CLR 18/M01 A2969 RMK AO2", "KHIO 031053Z AUTO 00000KT 10SM CLR 01/00 A3003 RMK AO2 SLP172 T00060000", "KHJH 031135Z AUTO 08012KT 10SM OVC060 09/M05 A2965 RMK AO2 T00901051", "KHJO 031053Z AUTO 32018G22KT 10SM SCT042 OVC065 10/04 A3000 RMK AO2 SLP161 T01000039", "KHKA 031121Z AUTO 00000KT 10SM SCT026 12/11 A2982 RMK AO2 T01220106 $", "KHKS 031053Z AUTO 15003KT 10SM OVC023 17/17 A2982 RMK AO2 LTG DSNT SE RAB33E46 SLP091 P0001 T01720167", "KHKY 031053Z AUTO 00000KT 10SM CLR 06/04 A3005 RMK AO2 SLP164 T00610044 $", "KHLB 031135Z AUTO 19005KT 10SM SCT110 09/03 A2987 RMK A01", "KHLC 031053Z AUTO 06017G26KT 10SM OVC037 09/M03 A2963 RMK AO2 PK WND 06027/1014 SLP019 T00941028", "KHLG 031053Z AUTO 17006KT 10SM SCT100 06/M01 A2993 RMK AO2 SLP142 T00611011", "KHLN 031053Z AUTO 25003KT 10SM CLR M06/M11 A2973 RMK AO2 SLP111 T10561111", "KHLR 031114Z AUTO 15006KT 7SM BKN005 19/19 A2974 RMK AO2 BKN V FEW SLP062", "KHLX 031135Z AUTO 19004KT 10SM CLR 07/00 A3005 RMK AO2 T00661002", "KHMN 031055Z 12009KT 10SM CLR 13/M15 A2989 RMK AO2A SLP079 WND DATA ESTMD ALSTG/SLP ESTMD T01211146 $", "KHMP 031135Z AUTO 00000KT 10SM BKN110 10/09 A3003 RMK AO2 T01020089", "KHMT 031135Z AUTO 21006KT 10SM BKN011 OVC035 09/ A2991 RMK AO2 T0090////", "KHMZ 031135Z AUTO 00000KT 10SM CLR M03/M04 A3005 RMK AO2 T10341037", "KHNB 031111Z AUTO 00000KT 9SM RA FEW050 OVC075 09/09 A2990 RMK AO2 LTG DSNT N AND NE TSE05 P0001", "KHND 031056Z AUTO 21030G38KT 10SM CLR 13/02 A2955 RMK AO2 PK WND 22038/1055 SLP008 T01330017", "KHNR 031135Z AUTO 14003KT 10SM OVC080 06/M04 A2973 RMK A01", "KHNZ 031155Z AUTO 17005KT 10SM CLR 06/06 A3011 RMK AO2 T00620061 10067 20049", "KHOB 031150Z 24010KT 10SM SKC 12/M16 A2979", "KHOE 031135Z AUTO 00000KT 10SM CLR 15/10 A3000 RMK AO2 T01510099", "KHON 031055Z AUTO 34005KT 10SM CLR M01/M03 A2978 RMK AO2 SLP094 T10111033", "KHOP 031104Z AUTO 10003KT 10SM FEW100 14/06 A2987 RMK AO2 DZE04 SLP115 $", "KHOT 031117Z AUTO 10003KT 10SM OVC004 15/14 A2977 RMK AO2 T01500144 PNO", "KHOU 031053Z 19008KT 8SM BKN009 OVC022 23/22 A2977 RMK AO2 SLP085 T002330217", "KHPN 031056Z 00000KT 10SM CLR 00/M11 A3016 RMK AO2 SLP218 T00001106", "KHPT 031135Z AUTO 20004KT 10SM CLR 03/M01 A2975 RMK AO2", "KHQG 031135Z AUTO 32009KT 10SM CLR 05/M06 A2962 RMK AO2 T00451058", "KHQG 031135Z AUTO 32009KT 10SM CLR 05/M06 A2962 RMK AO2 T00451058", "KHQM 031053Z AUTO 08004KT 9SM FEW029 02/00 A3000 RMK AO2 SLP161 T00170000", "KHQU 031135Z AUTO 07003KT 10SM CLR 09/08 A3003 RMK AO2 T00940079", "KHQZ 031135Z AUTO 20010KT 7SM OVC008 20/20 A2970 RMK AO1 T02040201", "KHRF 031145Z AUTO 33005KT 3/4SM -SN OVC002 M03/M04 A2972 RMK AO2 Hamilton ", "KHRI 031053Z AUTO 24013G20KT 10SM OVC050 03/M02 A2990 RMK AO2 SLP125 T00281022", "KHRJ 031145Z AUTO 00000KT 10SM CLR 07/07 A3015 RMK AO2 T00710066 10089 20057", "KHRL 031145Z 17012KT 7SM SCT012 24/23 A2973 RMK AO2 T02390228", "KHRO 031053Z AUTO 15016KT 10SM BKN012 14/12 A2972 RMK AO2 SLP053 T01390122", "KHRT 031102Z 19008KT 2SM BR OVC003 21/21 A2991 RMK AO2A VIS 1 S SLP130 T02140205 10214 20205 55009 $", "KHRX 031135Z AUTO 27014KT 10SM CLR 13/M13 A2971 RMK AO2 T01271127", "KHSB 031135Z AUTO 00000KT 10SM SCT120 11/09 A2986 RMK AO2 T01060092", "KHSD 031135Z AUTO 18018G23KT 6SM BR CLR 15/14 A2955 RMK A01", "KHSE 031151Z AUTO 15005KT 10SM SCT043 15/09 A3015 RMK AO2 SLP209 T01500094 10150 20072 53015", "KHSG 031130Z AUTO 24005KT 10SM OVC080 M02/M06 A2970 RMK AO2 T10161056", "KHSI 031053Z AUTO 09010KT 10SM OVC075 06/M03 A2966 RMK AO2 SLP039 T00611033", "KHSP 031135Z AUTO 18007G15KT 10SM CLR 06/M01 A3006 RMK AO2 T00581013", "KHST 031055Z AUTO 00000KT 10SM CLR 20/20 A3002 RMK AO2 SLP169 T02030198", "KHSV 031053Z 15007KT 7SM -RA OVC085 13/11 A2990 RMK AO2 RAB12 PRESFR SLP121 P0005 T01280106", "KHTH 031135Z AUTO 36020G28KT 10SM SCT060 SCT070 03/M08 A2974 RMK A01", "KHTL 031053Z AUTO 25009KT 10SM CLR 04/01 A2970 RMK AO2 SLP067 T00390006 $", "KHTS 031151Z 00000KT 10SM BKN090 03/01 A2997 RMK AO2 SLP150 T00330011 10067 20022 53014", "KHUA 031134Z AUTO 10003KT 10SM OVC095 12/11 A2988 RMK AO2 LTG DSNT S-SW RAE34 SLP117", "KHUF 031053Z 20008KT 10SM CLR 12/06 A2980 RMK AO2 SLP091 T01220056", "KHUL 031053Z AUTO 20004KT 10SM CLR M08/M13 A3004 RMK AO2 SLP182 T10781133", "KHUM 031147Z 20007KT 7SM OVC007 23/23 A2990", "KHUT 031125Z 17006KT 10SM OVC009 13/12 A2951 RMK AO2 T01330117", "KHVE 031135Z AUTO 18014G19KT 10SM CLR 12/M07 A2956 RMK AO2", "KHVN 031053Z 10SM CLR M02/M07 A3018 RMK AO2 SLP220 T10221067 $", "KHVR 031053Z AUTO 09004KT 10SM SCT043 M04/M06 A2979 RMK AO2 SLP115 T10441061", "KHVS 031135Z AUTO 00000KT 10SM 10/09 A3009 RMK AO2", "KHWD 031054Z AUTO 32011KT 10SM CLR 07/00 A3008 RMK AO2 SLP196 T00720000", "KHWO 031053Z 19004KT 10SM CLR 22/20 A3003 RMK AO2 SLP167 T02220200", "KHWV 031056Z AUTO 00000KT 10SM CLR M02/M08 A3018 RMK AO2 SLP221 T10221078", "KHWY 031135Z AUTO 00000KT 10SM CLR 01/00 A3012 RMK AO2 T00110000", "KHXD 031150Z 17007KT 10SM CLR 18/15 A3006", "KHYA 031056Z 00000KT 10SM CLR M03/M07 A3018 RMK AO2 SLP220 T10331067", "KHYI 031142Z AUTO 20005KT 10SM OVC011 21/21 A2977 RMK AO2", "KHYR 031053Z AUTO 20006KT 10SM CLR M03/M06 A2964 RMK AO2 SLP051 T10281056", "KHYS 031056Z AUTO 05019KT 10SM OVC027 10/01 A2954 RMK AO2 SLP995 T01000011 $", "KHYW 031135Z AUTO 00000KT 10SM CLR 06/06 A3011 RMK AO2", "KHYX 031135Z AUTO 23007KT 10SM CLR 07/04 A2976 RMK AO2 T00650036", "KHZD 031135Z AUTO 00000KT 10SM BKN032 OVC095 14/10 A2985 RMK A01", "KHZE 031135Z AUTO 29010KT 10SM OVC022 M02/M04 A2978 RMK AO2", "KHZL 031135Z AUTO 13005KT 10SM CLR 00/M13 A3010 RMK AO2", "KHZR 031135Z AUTO 20007KT 7SM OVC010 23/22 A2985 RMK AO2 T02250216", "KHZX 031135Z AUTO 25005KT 10SM OVC033 02/M01 A2963 RMK AO2", "KHZY 031053Z AUTO 17008KT 10SM CLR 04/M02 A2989 RMK AO2 SLP128 T00391017", "KI16 031135Z AUTO 10SM CLR 02/01 A3009 RMK AO2 T00200007", "KI19 031135Z AUTO 18004KT 10SM BKN100 OVC120 08/01 A2986 RMK AO2", "KI23 031135Z AUTO 18005KT 10SM SCT110 06/01 A2989 RMK AO1", "KI35 031140Z AUTO 00000KT 10SM CLR 07/04 A3001 RMK AO2 T00660039", "KI63 031135Z AUTO 05006KT 10SM CLR 07/04 A2975 RMK AO2 T00730036", "KI67 031135Z AUTO 00000KT 10SM CLR 03/02 A2989 RMK AO1", "KI68 031135Z AUTO 15004KT 10SM 07/02 A2988 RMK AO1 T00710018", "KI69 031135Z AUTO 17004KT 10SM SCT100 SCT120 10/02 A2990 RMK AO2 T00960015", "KI74 031135Z AUTO 18003KT 10SM CLR 03/00 A2989 RMK AO2", "KI75 031135Z AUTO 08004KT 10SM OVC065 08/00 A2974 RMK AO2 T00750000", "KIAB 031135Z AUTO 21015KT 10SM OVC009 14/13 A2949 RMK AO2 SLP979 $", "KIAD 031052Z 00000KT 10SM FEW036 01/M02 A3011 RMK AO2 SLP197 T00061017", "KIAG 031053Z 20010KT 10SM CLR 04/M03 A2987 RMK AO2 SLP126 T00441028", "KIAH 031053Z 20009G14KT 7SM SCT015 BKN021 OVC250 24/22 A2978 RMK AO2 SLP082 T02390217", "KIBM 031135Z AUTO 36008KT 10SM CLR M02/M05 A2970 RMK AO2 T10171050", "KICR 031053Z AUTO 33004KT 10SM BKN060 OVC075 02/M03 A2980 RMK AO2 SLP098 T00221033", "KICT 031100Z 19017G23KT 10SM OVC009 14/12 A2951 RMK AO2 T01440122", "KIDA 031053Z AUTO 02004KT 10SM CLR M03/M06 A2966 RMK AO2 SLP064 T10331056", "KIDI 031135Z AUTO 16005KT 10SM CLR 05/M02 A3000 RMK A01", "KIDP 031135Z AUTO 18014G20KT 10SM OVC010 14/13 A2959 RMK AO2 T01430125", "KIEN 031147Z AUTO 36005KT 4SM -SN BR OVC024 M01/M02 A2983 RMK AO2 P0000", "KIER 031135Z AUTO 20003KT 10SM SCT014 22/21 A2978 RMK AO2 T02150210", "KIFA 031135Z AUTO 00000KT 10SM SCT100 SCT120 03/01 A2978 RMK AO2 T00290014", "KIFP 031135Z AUTO 00000KT 10SM CLR 16/01 A2966 RMK AO2", "KIGM 031151Z AUTO 16009KT 10SM CLR 10/M01 A2971 RMK AO2 SLP009 T01001006 10156 20100 56016", "KIGQ 031135Z AUTO 00000KT 10SM SCT120 04/04 A2983 RMK AO2 T00440038", "KIIB 031135Z AUTO 16003KT 10SM SCT110 00/00 A2979 RMK AO2 T00031005", "KIIY 031135Z AUTO 08005KT 10SM CLR 09/07 A3001 RMK AO2 T00930071", "KIJD 031052Z AUTO 00000KT 10SM CLR M04/M07 A3018 RMK AO2 SLP223 T10441067", "KIJX 031135Z AUTO 12007KT 10SM BKN090 06/05 A2975 RMK AO2 T00640048", "KIKG 031135Z AUTO 00000KT 1SM BR OVC003 21/20 A2975 RMK AO2 T02050201", "KIKK 031135Z AUTO 13003KT 10SM SCT120 04/03 A2981 RMK AO2 T00370027", "KIKT 031140Z AUTO 19014KT 5SM BR CLR 23/23 A2993 RMK A01", "KIKV 031135Z AUTO 10003KT 10SM BKN085 OVC100 04/00 A2976 RMK AO2", "KIKW 031135Z AUTO 25004KT 10SM CLR 07/02 A2975 RMK AO2 T00680023", "KILE 031056Z AUTO 16004KT 7SM CLR 19/19 A2974 RMK AO2 SLP061 T01940189", "KILG 031151Z 09005KT 10SM CLR 05/M06 A3017 RMK AO2 SLP217 T00501061 10056 20000 50017", "KILM 031053Z 05003KT 10SM CLR 08/07 A3009 RMK AO2 SLP189 T00830067", "KILN 031054Z AUTO 20008KT 10SM BKN100 08/01 A2989 RMK AO2 SLP133 T00830006 $", "KIML 031053Z AUTO 33004KT 10SM CLR 01/M02 A2967 RMK AO2 SLP046 T00061022", "KIMM 031135Z AUTO 00000KT 1SM BR OVC003 A3004 RMK AO2", "KIMS 031135Z AUTO 00000KT 10SM BKN095 08/03 A2991 RMK AO2", "KIMT 031054Z AUTO 25003KT 10SM CLR 01/M02 A2961 RMK AO2 SLP038 T00061022 $", "KIND 031054Z 16006KT 10SM SCT100 SCT250 07/02 A2982 RMK AO2 SLP098 T00720017 $", "KINF 031135Z AUTO 00000KT 1 1/2SM BR SCT005 17/17 A3004 RMK AO2", "KINJ 031135Z AUTO 18007KT 5SM BR BKN007 20/20 A2971 RMK AO2 T01970197", "KINK 031053Z AUTO 23008KT 10SM CLR 11/M16 A2976 RMK AO2 SLP042 T01111156 $", "KINL 031132Z AUTO 01005KT 6SM BR BKN007 OVC011 01/M01 A2960 RMK AO2 CIG 003V010 T00061006", "KINS 031127Z AUTO 23017G26KT 10SM CLR 11/M03 A2954 RMK AO2 WSHFT 17 SLP972 $", "KINT 031054Z AUTO 00000KT 10SM CLR 07/01 A3007 RMK AO2 SLP180 T00720011 $", "KINW 031056Z AUTO 15009KT 10SM CLR 07/M08 A2979 RMK AO2 SLP044 T00671078", "KIOB 031135Z AUTO 20007KT 10SM CLR 07/01 A2997 RMK AO2 PWINO", "KIOW 031052Z AUTO 00000KT 10SM BKN110 07/01 A2979 RMK AO2 SLP086 T00670006", "KIPJ 031150Z AUTO 00000KT 10SM CLR 06/04 A3008 RMK AO2 T00550043 10062 20045", "KIPL 031053Z AUTO 27015KT 10SM CLR 16/02 A2978 RMK AO2 PK WND 27027/1000 SLP083 T01560017", "KIPT 031054Z 06014KT 10SM CLR 01/M11 A3008 RMK AO2 SLP191 T00111106 $", "KIRK 031055Z AUTO 06008KT 10SM OVC055 09/M02 A2975 RMK AO2 SLP076 T00941017", "KIRS 031135Z AUTO 23003KT 10SM CLR 04/03 A2983 RMK AO2 T00350034", "KISM 031127Z 33004KT 8SM SCT016 21/19 A3005 RMK AO2 PNO $", "KISO 031056Z 00000KT 10SM CLR 07/06 A3012", "KISP 031056Z 00000KT 10SM FEW200 01/M07 A3017 RMK AO2 SLP216 T00061067", "KISQ 031135Z AUTO 22003KT 10SM CLR 00/00 A2965 RMK AO2 T00011002", "KISW 031054Z AUTO 21004KT 10SM CLR 02/M02 A2973 RMK AO2 SLP073 T00221017", "KITH 031056Z 14008KT 10SM OVC080 01/M11 A3002 RMK AO2 SLP177 T00061106", "KITR 031053Z AUTO 00000KT 10SM CLR M01/M04 A2967 RMK AO2 SLP022 T10061044", "KIUA 031155Z AUTO 16007KT 130V190 10SM CLR 02/M07 A2993 RMK AO2 T00201069 10020 21004", "KIWA 031135Z AUTO 11011KT 10SM CLR 11/M03 A2979 RMK AO2 T01131030", "KIWD 031056Z AUTO 22009KT 10SM CLR 00/M03 A2960 RMK AO2 SLP035 T00001033 FZRANO", "KIWI 031053Z AUTO 00000KT 10SM CLR M06/M09 A3018 RMK AO2 SLP221 T10561089", "KIXA 031150Z AUTO 00000KT 10SM CLR 04/04 A3014 RMK AO2", "KIXD 031053Z 06007KT 10SM OVC034 13/11 A2965 RMK AO2 SLP030 T01330106", "KIYA 031135Z AUTO 18010KT 5SM HZ BKN009 23/21 A2985 RMK AO2 T02310206", "KIZA 031135Z AUTO 31008KT 10SM OVC038 08/06 A2997 RMK AO2", "KIZG 031054Z AUTO 00000KT 10SM CLR M08/M11 A3015 RMK AO2 SLP217 T10831111", "KJAC 031056Z AUTO 03007KT 10SM OVC110 M09/M11 A2965 RMK AO2 SLP093 T10891106 FZRANO", "KJAN 031054Z 18003KT 10SM BKN024 OVC033 18/17 A2982 RMK AO2 LTG DSNT SE AND S SLP094 T01830172", "KJAQ 031135Z AUTO 35006KT 10SM SCT015 OVC047 03/01 A2998 RMK AO1 T00340006", "KJAS 031135Z AUTO 20008KT 6SM BR 23/23 A2979 RMK AO2", "KJAU 031130Z AUTO 23003KT 10SM CLR 05/04 A3004 RMK A01", "KJAX 031056Z 33003KT 10SM -RA FEW080 BKN110 BKN150 OVC250 15/12 A3001 RMK AO2 RAB38 SLP164 P0000 T01500117 $", "KJBR 031053Z AUTO 00000KT 10SM OVC025 14/13 A2981 RMK AO2 SLP092 T01440128 $", "KJCA 031135Z AUTO 03003KT 10SM CLR 09/06 A3002 RMK AO2 T00930056", "KJCT 031151Z AUTO 29004KT 10SM CLR 11/04 A2979 RMK AO2 SLP055 T01060044 10206 20106 53006", "KJDD 031135Z AUTO 20008KT 10SM OVC011 20/19 A2972 RMK AO2 P0001", "KJDN 031148Z AUTO 01011KT M02/M04 A2977 RMK AO1 SLP107 T10221044 11006 21022 51008", "KJEF 031053Z COR 12005KT 10SM CLR 11/06 A2970 RMK AO2 SLP044 T01060056 $", "KJER 031142Z AUTO 28014KT 2 1/2SM BR BKN002 BKN007 OVC013 M01/M02 A2968 RMK AO2 T10111017", "KJES 031135Z AUTO 00000KT 10SM CLR 13/11 A3007 RMK AO2", "KJFK 031151Z 00000KT 10SM FEW250 04/M06 A3022 RMK AO2 SLP233 T00391061 10039 20006 53029", "KJFX 031135Z AUTO 12004KT 5SM RA BR FEW030 BKN045 OVC070 12/12 A2986 RMK AO2 LTG DSNT SE", "KJFZ 031135Z AUTO 32003KT 10SM CLR A3004 RMK AO2", "KJHN 031135Z AUTO 31007KT 10SM CLR 03/M05 A2963 RMK AO2 T00271055", "KJHW 031056Z AUTO 18007KT 10SM CLR 01/M03 A2991 RMK AO2 SLP148 T00061028 FZRANO PNO $", "KJKA 031135Z AUTO 18008G20KT 150V210 4SM BR OVC003 22/22 A2991 RMK AO2", "KJKJ 031135Z AUTO 28017KT 10SM OVC013 M01/M03 A2972 RMK AO2 TSNO", "KJKL 031053Z AUTO 00000KT 10SM CLR 10/M02 A2998 RMK AO2 SLP147 T01001022", "KJLN 031053Z 17012KT 10SM BKN023 16/11 A2962 RMK AO2 SLP022 T01560106", "KJMR 031135Z AUTO 25003KT 10SM SCT019 00/M03 A2970 RMK AO2", "KJMS 031142Z AUTO 32011KT 10SM OVC009 M03/M06 A2976 RMK AO2 T10331056", "KJNX 031150Z AUTO 00000KT 10SM CLR 06/06 A3014 RMK AO2", "KJPX 031135Z AUTO 00000KT 10SM CLR M03/M08 A3019 RMK AO2 T10281084 FZRANO", "KJQF 031150Z 00000KT 10SM CLR 09/06 A3011", "KJRB 031056Z AUTO 03006KT 10SM CLR 04/M06 A3019 RMK AO2 SLP223 T00441061", "KJRO 031135Z AUTO 00000KT 10SM BKN085 01/01 A2997 RMK AO2", "KJSO 031155Z AUTO 20009KT 10SM OVC010 21/20 A2978 RMK AO2 T02050196 10205 20195 TSNO", "KJST 031054Z AUTO 20006KT 10SM CLR 02/M04 A2997 RMK AO2 SLP163 T00221039", "KJSV 031135Z AUTO 10011KT 10SM OVC020 15/15 A2967 RMK AO2", "KJVL 031145Z 00000KT 10SM BKN100 BKN120 03/03 A2977", "KJVY 031135Z AUTO 00000KT 10SM CLR 07/06 A2988 RMK AO2 PWINO", "KJWG 031135Z AUTO 19008KT 5SM BR CLR 12/12 A2960 RMK AO2 T01210115", "KJWN 031150Z 07006KT 6SM FEW030 14/06 A2988", "KJWY 031135Z AUTO 00000KT 5SM BR OVC007 19/19 A2973 RMK AO2 T01930188", "KJXI 031155Z AUTO 00000KT 7SM BKN014 17/16 A2975 RMK AO2 60014 70133 T01680161 10168 20155", "KJXN 031056Z 20007KT 10SM CLR 06/01 A2978 RMK AO2 SLP091 T00560011", "KJYG 031136Z AUTO 31008KT 10SM 02/M02 A2975 RMK AO2", "KJYL 031135Z AUTO 00000KT 10SM CLR 11/10 A3005 RMK AO2 T01060100", "KJYM 031135Z AUTO 22004KT 10SM CLR 03/02 A2981 RMK AO2 T00330020", "KJYO 031155Z AUTO 00000KT 10SM CLR 02/01 A3013 RMK AO2", "KJYR 031135Z AUTO 10009KT 10SM 06/M03 A2968 RMK AO2", "KJZI 031135Z AUTO 00000KT 10SM CLR 14/14 A3007 RMK AO2", "KJZP 031135Z AUTO 00000KT 10SM CLR 11/03 A3003 RMK AO2 T01090034", "KK62 031135Z AUTO 17009KT 10SM CLR 07/01 A2990 RMK AO2", "KK70 031135Z AUTO VRB04KT 10SM FEW023 SCT029 BKN035 24/24 A3001 RMK AO2", "KK82 031135Z AUTO 07024G31KT 10SM OVC049 10/M06 A2961 RMK AO2 T00981061", "KK88 031135Z AUTO 14007KT 10SM 13/11 A2959 RMK AO1 T01300110", "KKLS 031130Z AUTO 00000KT SCT014 OVC037 03/01 A3004 RMK AO2 PWINO $", "KKNB 031135Z AUTO 16005KT 10SM CLR 04/M03 A2968 RMK A01", "KKY8 031135Z AUTO 05004KT 8SM SCT042 BKN055 OVC090 11/10 A2990 RMK A01", "KL08 031135Z AUTO 31012KT 10SM CLR 14/03 A2981 RMK AO2", "KL18 031155Z AUTO 20004KT 10SM SCT012 BKN027 OVC033 09/08 A2994 RMK AO2", "KL35 031135Z AUTO 27016G24KT 10SM CLR 01/M05 A2982 RMK AO2", "KL52 031135Z AUTO 34005KT 10SM 10/08 A3002 RMK A01", "KLAA 031053Z AUTO 20009KT 10SM CLR 00/M07 A2965 RMK AO2 SLP014 T00001067 $", "KLAF 031054Z 00000KT 10SM CLR 07/01 A2979 RMK AO2 SLP090 T00720011", "KLAL 031150Z 00000KT 1/4SM FG OVC003 19/19 A3004", "KLAM 031135Z AUTO 21010G19KT 10SM CLR 07/M12 A2986 RMK AO2 T00751125 $", "KLAN 031053Z 23006KT 10SM CLR 06/01 A2978 RMK AO2 SLP089 T00610006 $", "KLAR 031053Z AUTO 17015KT 10SM OVC090 M02/M04 A2959 RMK AO2 SLP003 T10171044 $", "KLAS 031056Z 20012G27KT 10SM FEW200 14/02 A2957 RMK AO2 PK WND 20028/1015 SLP998 T01390017 $", "KLAW 031149Z AUTO 16003KT 1/2SM FG VV001 12/12 A2961 RMK AO2", "KLAX 031053Z 26012KT 10SM FEW014 OVC022 12/09 A2993 RMK AO2 SLP133 T01220089 $", "KLBB 031053Z 28008KT 10SM CLR 07/M12 A2972 RMK AO2 SLP024 T00721117", "KLBE 031147Z 00000KT 15SM CLR 01/M01 A2997", "KLBF 031053Z AUTO 00000KT 10SM CLR M01/M04 A2967 RMK AO2 SLP045 T10111044", "KLBL 031056Z AUTO 32014KT 10SM CLR 06/M07 A2959 RMK AO2 SLP999 T00561067", "KLBO 031135Z AUTO 16012G16KT 10SM CLR 13/10 A2971 RMK AO2", "KLBT 031056Z AUTO 00000KT 10SM CLR 08/08 A3010 RMK AO2 SLP190 T00830078", "KLBX 031119Z AUTO 19010KT 6SM BR SCT008 OVC025 23/22 A2979 RMK AO2 T02330222 PNO $", "KLCG 031135Z AUTO 36008KT 10SM OVC110 01/M02 A2975 RMK AO2 T00051021", "KLCH 031053Z 21010G18KT 3SM BR OVC003 22/22 A2981 RMK AO2 SLP102 T02220217", "KLCI 031056Z AUTO 00000KT 10SM CLR M06/M09 A3014 RMK AO2 SLP213 T10561094 FZRANO $", "KLCK 031055Z AUTO 00000KT 10SM CLR 01/00 A2990 RMK AO2 T00091005", "KLCQ 031135Z AUTO 00000KT 10SM CLR 14/11 A3002 RMK AO2", "KLDJ 031155Z AUTO 00000KT 10SM CLR 03/M07 A3021 RMK AO2 T00321067 10045 20023", "KLDM 031135Z AUTO 25005KT 10SM BKN120 06/M01 A2976 RMK AO2 T00551011", "KLEB 031053Z 00000KT 10SM CLR M06/M09 A3013 RMK AO2 SLP213 T10611094", "KLEE 031053Z 30003KT 10SM CLR 20/19 A3004 RMK AO2 SLP170 T02000194", "KLEW 031056Z AUTO 00000KT 10SM CLR M06/M09 A3016 RMK AO2 SLP222 T10611089 FZRANO", "KLEX 031054Z 14006KT 10SM SCT085 10/01 A2992 RMK AO2 SLP132 T01000006", "KLFI 031055Z 12003KT 10SM FEW180 09/04 A3014 RMK AO2A SLP213 T00870043 $", "KLFK 031140Z AUTO 21007KT 10SM OVC015 23/21 A2978 RMK AO2 T02330206", "KLFT 031053Z 20009G19KT 8SM BKN009 BKN015 24/22 A2983 RMK AO2 SLP101 T02440222", "KLGA 031151Z 07005KT 10SM FEW250 05/M10 A3021 RMK AO2 SLP229 T00501100 10050 20033 53030", "KLGB 031141Z AUTO 24006KT 10SM FEW028 BKN040 14/08 A2991 RMK AO2 T01440083", "KLGC 031135Z AUTO 00000KT 10SM CLR 11/09 A2995 RMK AO2 LTG DSNT W T01120085", "KLGD 031056Z AUTO 28010KT 10SM OVC036 M02/M03 A2983 RMK AO2 SLP121 T10171033 FZRANO", "KLGF 031055Z AUTO 36003KT M M CLR 12/M01 A2976 RMK AO2 SLP076 T01241015 RVRNO PWINO TSNO $", "KLGU 031151Z AUTO 17011KT 10SM OVC042 M01/M02 A2962 RMK AO2 SNE15 SLP041 P0000 60017 70039 T10061022 11006 21011 57014", "KLHB 031135Z AUTO 17005KT 10SM OVC013 23/21 A2976 RMK AO2 T02250205", "KLHM 031135Z AUTO 32005KT 10SM CLR 04/M01 A3002 RMK AO1", "KLHQ 031053Z AUTO 15005KT 10SM CLR 03/00 A2991 RMK AO2 SLP133 T00280000", "KLHW 031055Z AUTO 00000KT 10SM FEW180 12/11 A3002 RMK AO2 SLP169 T01170108 $", "KLHX 031053Z AUTO 33005KT 10SM CLR 02/M06 A2966 RMK AO2 SLP008 T00171056 $", "KLHZ 031155Z AUTO 00000KT 10SM CLR 05/05 A3014 RMK AO2", "KLIC 031055Z AUTO 00000KT 10SM CLR M02/M06 A2968 RMK AO2 SLP009 T10221061", "KLIT 031053Z 20008KT 10SM OVC006 16/14 A2978 RMK AO2 SLP084 T01560139", "KLJF 031135Z AUTO 28008KT 10SM CLR 01/M03 A2973 RMK AO2", "KLKR 031135Z AUTO 00000KT M1/4SM FG OVC003 11/11 A3007 RMK AO2", "KLKU 031135Z AUTO 00000KT 10SM CLR 02/01 A3013 RMK AO2 T00170010", "KLKV 031053Z AUTO 28008KT 10SM BKN034 BKN080 OVC110 M05/M09 A2984 RMK AO2 SLP139 T10501089 FZRANO", "KLLJ 031055Z AUTO 00000KT 10SM OVC046 M04/M11 A2965 RMK AO2 SLP055 T10391106", "KLLN 031135Z AUTO 26009KT 10SM CLR 06/M15 A2976 RMK AO2", "KLLQ 031130Z AUTO 15003KT 1 3/4SM BR OVC002 15/14 A2979 RMK AO2 T01500139", "KLMO 031135Z AUTO 09005KT 10SM SCT050 BKN100 04/M03 A2972 RMK AO2 T00361035", "KLMS 031135Z AUTO 00000KT 10SM OVC003 13/13 A2986 RMK AO2 LTG DSNT S", "KLMT 031053Z AUTO 00000KT 10SM FEW050 M07/M09 A2990 RMK AO2 SNE02 SLP146 P0000 T10671089", "KLNA 031135Z AUTO 00000KT 23/22 A3004 RMK AO2 T02270220 PWINO", "KLNC 031135Z AUTO 20009KT 7SM OVC007 20/19 A2971 RMK AO2 T02020191", "KLND 031141Z AUTO 28006KT 2SM -SN BR OVC031 M04/M05 A2969 RMK AO2 P0002 T10391050", "KLNK 031054Z 08004KT 10SM OVC085 08/M03 A2971 RMK AO2 SLP056 T00831033", "KLNL 031135Z AUTO 22003KT 10SM CLR M02/M02 A2964 RMK AO2 T10161025", "KLNN 031135Z AUTO 19011G19KT 10SM CLR 06/M02 A2986 RMK AO1 T00601020", "KLNP 031135Z AUTO 07/M02 A3004 RMK AO1 TSNO PWINO", "KLNQ 031135Z AUTO 20005KT 7SM CLR 24/23 A2992 RMK AO2 T02410226", "KLNR 031056Z AUTO 00000KT 10SM BKN110 05/M01 A2975 RMK AO2 SLP071 T00501006", "KLNS 031053Z 08005KT 10SM CLR 01/M07 A3014 RMK AO2 SLP208 T00061072", "KLOL 031053Z AUTO 30005KT 10SM OVC080 01/M05 A2979 RMK AO2 SLP085 T00061050", "KLOM 031135Z AUTO 08003KT 10SM CLR M01/M04 A3018 RMK AO2 T10061045", "KLOR 031130Z AUTO 00000KT 10SM SCT006 OVC013 16/14 A2993 RMK AO2 LTG DSNT NW-N CIG 006V013 OVC V BKN SLP118", "KLOT 031145Z 00000KT 10SM FEW100 SCT120 05/04 A2983", "KLOU 031053Z 12003KT 10SM CLR 09/02 A2989 RMK AO2 SLP119 T00940017", "KLOZ 031053Z AUTO 00000KT 10SM CLR 06/03 A2996 RMK AO2 SLP142 T00610033 $", "KLPR 031053Z AUTO 19010KT 10SM CLR 04/00 A2986 RMK AO2 SLP113 T00440000", "KLQK 031135Z AUTO 06005KT 10SM CLR 06/05 A3003 RMK AO2 T00570045", "KLRD 031056Z 13007KT 10SM CLR 22/20 RMK AO2 SLPNO T02220200 $", "KLRF 031130Z AUTO 16005KT 10SM OVC005 15/15 A2975 RMK AO2 SLP075", "KLRJ 031135Z AUTO 02003KT 10SM OVC110 04/02 A2976 RMK AO2", "KLRU 031135Z AUTO 27007KT 10SM CLR 09/M10 A2990 RMK AO2 T00891098", "KLRY 031135Z AUTO 09005KT 10SM SCT039 12/09 A2968 RMK AO2", "KLSE 031053Z 17004KT 10SM CLR 05/01 A2973 RMK AO2 SLP068 T00500011", "KLSF 031113Z 00000KT 10SM SCT030 11/10 A2993", "KLSV 031055Z AUTO 20022G32KT 10SM CLR 15/02 A2950 RMK AO2 PK WND 20032/45 SLP973 T01520017 $", "KLTS 031150Z 15004KT 3/8SM R18R/1600V2800FT FG CLR 05/05 A2959 RMK AO2A SLP014 $", "KLUA 031135Z AUTO 00000KT 10SM CLR M01/M01 A3009 RMK AO2", "KLUD 031135Z AUTO 20008KT 10SM CLR 18/16 A2967 RMK AO2 T01800162", "KLUF 031055Z AUTO 00000KT 10SM CLR 12/M00 A2975 RMK AO2 SLP068 T01171005 $", "KLUG 031135Z AUTO 15004KT 10SM FEW037 SCT046 OVC075 13/12 A2990 RMK A01", "KLUK 031053Z 16003KT 10SM FEW050 BKN090 BKN110 05/04 A2990 RMK AO2 RAB06E51 SLP124 P0001 T00500044", "KLUL 031135Z AUTO 00000KT 10SM BKN015 OVC022 19/19 A2986 RMK A02 T01900185", "KLUM 031135Z 22005KT 10SM CLR 02/M02 A2972 RMK AO2 T00151025 PWINO", "KLUV 031135Z AUTO 26010KT 10SM BKN110 12/M12 A2975 RMK AO2", "KLUX 031135Z AUTO 00000KT 10SM CLR 09/07 A3004 RMK AO2", "KLVJ 031053Z AUTO 6SM BR FEW012 OVC021 24/22 A2979 RMK AO2 SLP088 T02390222 $", "KLVK 031053Z AUTO 32004KT 10SM CLR 05/00 A3006 RMK AO2 SLP179 T00500000", "KLVL 031135Z AUTO 00000KT 10SM CLR 06/06 A3014 RMK AO1 T00630058", "KLVM 031053Z AUTO 32009KT 10SM CLR M12/M16 A2972 RMK AO2 SLP110 T11171156", "KLVN 031135Z AUTO 27009KT 10SM CLR 03/M03 A2974 RMK AO2", "KLVS 031053Z AUTO 28018G30KT 10SM CLR 10/M12 A2975 RMK AO2 PK WND 26034/1037 SLP983 T01001122", "KLWA 031135Z AUTO 00000KT 10SM SCT120 07/03 A2982 RMK AO2 T00670030", "KLWB 031135Z AUTO 04003KT 10SM CLR 00/M02 A3007 RMK AO2 T10041016", "KLWC 031052Z AUTO 05012KT 9SM BKN037 OVC043 13/06 A2964 RMK AO1 SLP029 T01280061 $", "KLWD 031053Z AUTO 08006KT 10SM OVC060 08/M03 A2973 RMK AO2 SLP066 T00831033", "KLWM 031054Z 00000KT 10SM CLR M03/M09 A3019 RMK AO2 SLP226 T10281094", "KLWS 031146Z AUTO 00000KT 10SM BKN025 OVC090 02/M01 A2982 RMK AO2 T00221011", "KLWT 031054Z AUTO 00000KT 10SM CLR M07/M09 A2973 RMK AO2 SLP096 T10721094", "KLWV 031053Z AUTO 20016KT 10SM -RA OVC085 12/11 A2982 RMK AO2 SLP095 P0013 T01220106", "KLXL 031135Z AUTO 25004KT 10SM OVC023 00/M02 A2968 RMK AO2", "KLXN 031135Z AUTO 00000KT 10SM OVC085 03/M01 A2968 RMK AO2 T00281013", "KLXT 031053Z AUTO 06007KT CLR 11/07 A2967 RMK AO2 SLP042 T01110067 $", "KLXV 031053Z AUTO 20011G19KT 10SM CLR M01/M11 A2972 RMK AO2 SLP972 T10061111", "KLXY 031135Z AUTO 19015G19KT 10SM OVC009 22/21 A2974 RMK AO2 T02200214", "KLYH 031054Z 01003KT 10SM CLR 05/01 A3009 RMK AO2 SLP189 T00500011", "KLYO 031135Z AUTO 11007KT 10SM OVC022 14/12 A2951 RMK AO2 T01400115", "KLYV 031135Z AUTO 00000KT 10SM OVC110 02/M02 A2976 RMK AO2", "KLZU 031056Z 00000KT 10SM CLR 09/07 A2999 RMK AO2 SLP164 T00940067", "KLZZ 031135Z AUTO 00000KT M1/4SM FG VV000 17/17 A2973 RMK AO2 T01650165", "KM01 031135Z AUTO 00000KT 10SM OVC010 15/15 A2980 RMK AO2 CIG 009V013 T01510147 $", "KM02 031135Z AUTO 01007KT 10SM SCT034 BKN090 OVC110 14/05 A2986 RMK A01", "KM08 031135Z AUTO 34003KT 10SM BKN007 BKN041 OVC110 14/13 A2982 RMK A01", "KM19 031103Z AUTO 17007KT 10SM OVC013 15/14 A2979 RMK AO2 PNO $", "KM21 031135Z AUTO 00000KT 10SM SCT050 SCT065 OVC090 11/08 A2990 RMK AO2 T01080082", "KM30 031135Z AUTO 00000KT 10SM CLR 11/06 A2985 RMK AO2 T01110056", "KM40 031135Z AUTO 00000KT 10SM OVC010 14/14 A2985 RMK AO2", "KM54 031130Z AUTO 00000KT 10SM FEW044 FEW050 SCT110 15/06 A2988 RMK A01", "KM75 031135Z AUTO 08005KT 10SM OVC021 M05/M05 A2980 RMK A01", "KM91 031130Z AUTO 12004KT 10SM BKN041 OVC110 14/05 A2990 RMK A01", "KMAE 031053Z AUTO 32011KT 10SM CLR 07/02 A3002 RMK AO2 SLP164 T00720022 TSNO", "KMAF 031053Z AUTO 27004KT 10SM CLR 11/M13 A2976 RMK AO2 SLP042 T01111128", "KMAI 031153Z AUTO 16005KT 5SM BR OVC004 17/17 A2996 RMK AO1 SLP142 70001 T01720167 10172 20156 53001", "KMAN 031135Z AUTO 31006KT 10SM FEW110 00/M02 A2980 RMK A01", "KMAO 031135Z AUTO 10003KT 10SM CLR 09/07 A3010 RMK AO2", "KMAW 031155Z AUTO 14005KT 10SM CLR 13/12 A2983 RMK AO1", "KMBG 031052Z AUTO VRB05KT 10SM CLR M02/M05 A2975 RMK AO2 SLP087 T10221050", "KMBL 031056Z AUTO 24009KT 10SM FEW120 06/M01 A2974 RMK AO2 SLP076 T00611011", "KMBO 031135Z AUTO 00000KT 9SM BKN019 BKN024 OVC034 17/17 A2982 RMK AO2", "KMBS 031053Z 23011KT 10SM FEW120 07/02 A2974 RMK AO2 SLP076 T00670017", "KMBT 031135Z AUTO 19009KT 10SM FEW049 BKN070 OVC090 16/04 A2989 RMK A01", "KMBY 031135Z AUTO 06003KT 10SM CLR 09/02 A2973 RMK AO2", "KMCB 031053Z AUTO 21007G17KT 7SM -RA BKN012 BKN019 OVC024 22/21 A2984 RMK AO2 SLP098 P0000 T02170206", "KMCC 031135Z AUTO 29004KT 10SM CLR 05/01 A3004 RMK AO2", "KMCD 031135Z AUTO 24013G21KT 10SM CLR 02/02 A2964 RMK AO2 T00180017", "KMCE 031053Z AUTO 33006KT 10SM CLR 06/02 A3003 RMK AO2 SLP168 T00610022", "KMCF 031140Z 04003KT 4SM R05/1200V1600FT BR CLR 19/19 A2998 RMK AO2A VIS 1/8V1 1/8 SLP155 FZRANO $", "KMCI 031053Z 06011KT 10SM FEW060 12/03 A2966 RMK AO2 SLP038 T01170033", "KMCJ 031135Z AUTO VRB06G16KT 4SM BR SCT010 BKN014 OVC024 23/22 A2978 RMK A01", "KMCK 031053Z AUTO 05004KT 10SM CLR 02/M03 A2966 RMK AO2 SLP040 T00221028", "KMCN 031053Z AUTO 00000KT 10SM FEW110 12/11 A2997 RMK AO2 SLP144 T01220111", "KMCO 031128Z 35003KT 7SM BKN016 OVC180 21/20 A3004 RMK AO2 T02110200", "KMCW 031053Z AUTO 20006KT 10SM OVC100 04/00 A2975 RMK AO2 SLP073 T00440000", "KMCX 031155Z AUTO 00000KT 10SM CLR 03/01 A2984 RMK AO2 T00270007 10085 20027", "KMCZ 031145Z AUTO 00000KT 10SM CLR 09/07 A3014 RMK AO2 T00920072 10093 20067", "KMDD 031135Z AUTO 25007KT 10SM CLR 14/M14 A2977 RMK AO2 T01441140", "KMDH 031052Z AUTO 13007KT 10SM BKN100 14/07 A2981 RMK AO2 LTG DSNT NW SLP094 T01390072", "KMDQ 031135Z AUTO 5SM RA OVC090 13/10 A2992 RMK A02 T01250100", "KMDS 031135Z AUTO 32006KT 10SM SCT110 00/00 A2976 RMK AO2", "KMDT 031056Z 12005KT 10SM CLR 01/M08 A3012 RMK AO2 SLP201 T00111078", "KMDW 031105Z 17006KT 10SM FEW120 BKN140 08/03 A2981 RMK AO2 T00780033 $", "KMDZ 031135Z AUTO 23006KT 10SM CLR 00/00 A2968 RMK AO2 T00001002 PWINO", "KMEB 031052Z AUTO 00000KT 9SM CLR 08/07 A3010 RMK AO2 PRESRR SLP192 T00830067", "KMEH 031150Z AUTO 00000KT 3SM -SN BR OVC001 M04/M06 A2979 RMK AO2 P0002", "KMEI 031105Z 00000KT 10SM SCT070 SCT090 BKN110 17/16 A2982 RMK AO2 LTG DSNT E-SW I1000 T01670156", "KMEM 031128Z 00000KT 10SM FEW006 BKN022 OVC095 14/14 A2981 RMK AO2 T01440139 $", "KMER 031135Z AUTO 05003KT 10SM SCT060 06/06 A3003 RMK AO1", "KMEV 031135Z AUTO 22009KT 10SM UP FEW037 BKN049 OVC075 M02/M08 A2980 RMK AO2", "KMEZ 031135Z AUTO 00000KT 3SM BR OVC002 14/14 A2974 RMK AO2 T01360136", "KMFD 031052Z 17010KT 10SM CLR 04/M01 A2987 RMK AO2 SLP121 T00441006", "KMFE 031057Z 15009KT 6SM BR CLR 23/22 A2973 RMK AO2 T02330217", "KMFI 031054Z AUTO 24004KT 10SM CLR 00/M02 A2970 RMK AO2 SLP068 T00001022", "KMFR 031053Z AUTO 28004KT 10SM BKN050 OVC070 01/M02 A3007 RMK AO2 SLP189 T00111017", "KMFV 031155Z AUTO 15007KT 10SM CLR 07/04 A3017 RMK AO2 T00660039 10066 20003", "KMGC 031135Z AUTO 00000KT 10SM CLR 03/01 A2985 RMK AO2", "KMGE 031055Z AUTO 00000KT 10SM CLR 11/06 A2995 RMK AO2 SLP140 T01090058 $", "KMGG 031135Z AUTO 26005KT 10SM CLR 01/M03 A2973 RMK AO2 T00061032", "KMGJ 031054Z AUTO 00000KT 10SM CLR M06/M08 A3016 RMK AO2 SLP217 T10561083 $", "KMGM 031131Z 09006KT 6SM VCTS +RA BR BKN012 OVC044 14/12 A2989 RMK AO2 LTG DSNT W-NE P0006 T01440122", "KMGN 031135Z AUTO 26006KT 10SM CLR 03/00 A2968 RMK AO2 T00330007", "KMGW 031053Z 20003KT 10SM SCT110 01/M01 A2997 RMK AO2 SLP156 T00111011", "KMGY 031053Z AUTO 18009KT 10SM BKN095 OVC120 08/00 A2987 RMK AO2 SLP116 T00830000", "KMHE 031053Z AUTO 36004KT 10SM FEW120 02/M03 A2978 RMK AO2 SLP090 T00171033", "KMHK 031052Z 08011KT 10SM OVC026 12/03 A2959 RMK AO2 SLP012 T01220033", "KMHL 031155Z AUTO 07009KT 10SM CLR 08/04 A2972 RMK AO2", "KMHP 031130Z AUTO 00000KT 10SM CLR 11/ A3004 RMK AO2 T0111////", "KMHS 031056Z AUTO VRB04KT 10SM OVC055 M02/M09 A2995 RMK AO2 SLP174 T10221094", "KMHT 031053Z 00000KT 10SM SCT130 SCT250 M04/M08 A3015 RMK AO2 SLP229 T10441083", "KMHV 031140Z AUTO 23022G28KT 10SM OVC017 05/02 A2983 RMK A01", "KMIA 031053Z 00000KT 10SM FEW023 23/21 A3002 RMK AO2 SLP166 T02280206 $", "KMIB 031055Z 05013KT 9SM BR BKN020 OVC037 M09/M11 A2974 RMK SLP100 T10881107 $", "KMIC 031053Z 24006KT 10SM CLR 02/M03 A2969 RMK AO2 SLP062 T00171028", "KMIE 031053Z 20009KT 10SM CLR 09/01 A2982 RMK AO2 SLP096 T00940006", "KMIO 031135Z AUTO 14012KT 10SM OVC018 16/13 A2960 RMK AO2", "KMIV 031054Z AUTO 00000KT M02/M06 A3017 RMK AO2 SLP216 T10221056 $", "KMIW 031053Z AUTO 13007KT 10SM BKN100 02/M01 A2977 RMK AO2 SLP080 T00221006 $", "KMJD 031135Z AUTO 21009G17KT 10SM SCT012 BKN080 OVC095 23/23 A2987 RMK AO2 LTG DSNT NE", "KMJQ 031135Z AUTO 34005KT 10SM SCT110 02/M02 A2975 RMK AO2", "KMKC 031054Z 07010KT 10SM BKN060 13/05 A2966 RMK AO2 SLP038 T01330050 $", "KMKE 031052Z 25003KT 10SM OVC130 08/M02 A2978 RMK AO2 SLP086 T00781017 $", "KMKG 031055Z 27006KT 10SM OVC100 08/01 A2979 RMK AO2 SLP090 T00830006", "KMKJ 031135Z AUTO 00000KT 10SM CLR 01/M01 A3009 RMK AO2 T00071006", "KMKL 031053Z AUTO 19007KT 10SM OVC095 15/13 A2982 RMK AO2 RAE12 SLP095 P0001 T01500133", "KMKN 031135Z AUTO 20010KT 10SM 16/12 A2973 RMK AO2 T01630120", "KMKO 031053Z AUTO 16012KT 10SM OVC018 14/13 A2965 RMK AO2 SLP036 T01440128", "KMKS 031135Z AUTO 00000KT 10SM CLR 10/09 A3008 RMK AO2", "KMKT 031056Z AUTO 28008KT 10SM CLR 03/M02 A2975 RMK AO2 SLP083 T00331022 PNO $", "KMKY 031134Z AUTO 04003KT 1/4SM FG OVC002 20/19 A3005 RMK AO2 TSNO PNO $", "KMLB 031053Z 15004KT 10SM CLR 24/21 A3001 RMK AO2 SLP160 T02440211", "KMLC 031146Z AUTO 19010G20KT 10SM OVC009 17/16 A2965 RMK AO2 T01720161", "KMLE 031135Z AUTO 00000KT 10SM BKN075 OVC095 07/M04 A2971 RMK AO2 T00711045", "KMLF 031052Z AUTO 18011KT 10SM CLR 06/M06 A2954 RMK AO2 SLP969 T00561056", "KMLI 031052Z 04003KT 10SM FEW120 07/01 A2976 RMK AO2 SLP077 T00670011 $", "KMLJ 031135Z AUTO 00000KT 10SM FEW120 12/11 A2997 RMK AO2", "KMLP 031053Z AUTO 14005KT 10SM FEW030 OVC110 M08/M10 A2963 RMK AO2 SLP082 T10781100 $", "KMLS 031053Z AUTO 26004KT 10SM CLR M04/M06 A2976 RMK AO2 SLP098 T10441061", "KMLT 031053Z AUTO 00000KT 10SM CLR M06/M10 A3009 RMK AO2 SLP202 T10611100", "KMLU 031101Z 00000KT 10SM BKN014 BKN019 OVC024 19/18 A2979 RMK AO2 T01890178 $", "KMMH 031135Z AUTO 30014G27KT 4SM -SN SCT021 BKN037 OVC042 M03/M06 A2969 RMK AO2 T10261065", "KMMI 031135Z AUTO 00000KT 10SM FEW075 BKN100 OVC120 08/06 A3001 RMK A01", "KMMK 031053Z AUTO 00000KT 10SM CLR M03/M07 A3018 RMK AO2 SLP223 T10331072", "KMML 031056Z AUTO 28009KT 10SM CLR 02/M02 A2976 RMK AO2 SLP091 T00171022 FZRANO", "KMMT 031145Z 12004KT 2 1/2SM BR SCT002 BKN250 11/11 A3004 RMK AO2A SLP175 $", "KMMU 031145Z 00000KT 10SM SKC M01/M03 A3021", "KMMV 031053Z AUTO 22007KT 10SM FEW055 SCT070 BKN120 02/01 A3004 RMK AO2 RAE08 SLP174 P0000 T00170006", "KMNE 031138Z AUTO 00000KT 10SM OVC011 14/14 A2978 RMK AO2", "KMNH 031135Z AUTO 16009KT 10SM CLR M01/M05 A2971 RMK AO2", "KMNI 031135Z AUTO 00000KT 10SM CLR 10/09 A3008 RMK AO2", "KMNM 031057Z AUTO 10SM CLR 03/M02 A2970 RMK AO2 SLP078 T00331017 PNO $", "KMNN 031053Z AUTO 18011KT 10SM CLR 03/M01 A2987 RMK AO2 SLP121 T00331006", "KMNV 031135Z AUTO 00000KT 10SM 09/05 A2997 RMK A01", "KMNZ 031135Z AUTO 19008KT 5SM BR 18/18 A2974 RMK AO2 T01840184", "KMOB 031056Z 20015KT 7SM BKN010 OVC019 23/21 A2989 RMK AO2 SLP120 T02330206", "KMOD 031053Z AUTO 30013KT 10SM SCT065 07/02 A3003 RMK AO2 SLP167 T00670022", "KMOP 031135Z AUTO 26010KT 10SM BKN120 08/02 A2976 RMK AO2 T00810018", "KMOR 031135Z AUTO 07004KT 10SM CLR 08/02 A2999 RMK A01", "KMOT 031054Z AUTO 35014KT 4SM -SN BR OVC034 M08/M10 A2976 RMK AO2 SNB42 SLP100 T10781100 PNO $", "KMOX 031135Z AUTO 26010KT 10SM CLR M02/M05 A2973 RMK AO2", "KMPO 031053Z AUTO 13006KT 10SM CLR M03/M12 A3009 RMK AO2 SLP209 T10331122", "KMPR 031135Z AUTO 14006KT 10SM BKN014 OVC018 14/11 A2953 RMK AO2 T01400114", "KMPV 031151Z AUTO 00000KT 10SM FEW090 M06/M09 A3010 RMK AO2 SLP212 T10611094 11061 21089 50006", "KMPZ 031135Z AUTO 09007KT 10SM SCT090 05/02 A2976 RMK AO2", "KMQB 031135Z AUTO 05005KT 10SM BKN070 06/01 A2980 RMK AO2 T00560012", "KMQI 031150Z AUTO 11008KT 10SM CLR 11/07 A3016 RMK AO2 T01100068 10110 20085", "KMQJ 031135Z AUTO 15004KT 10SM CLR 04/01 A2984 RMK AO1", "KMQS 031135Z AUTO 10SM CLR 02/M08 A3014 RMK AO2", "KMQW 031135Z AUTO 08004KT 10SM SCT120 13/11 A2998 RMK AO2 T01260109", "KMQY 031056Z AUTO 17005KT 10SM CLR 15/06 A2991 RMK AO2 SLP134 T01500061", "KMRB 031053Z 00000KT 10SM CLR M01/M03 A3007 RMK AO2 SLP185 T10111033", "KMRC 031130Z AUTO 17008KT 9SM SCT029 BKN034 OVC075 15/15 A2986 RMK A01", "KMRF 031056Z AUTO 12004KT 10SM CLR 05/M14 A2993 RMK AO2 SLP088 T00501139", "KMRH 031058Z AUTO 07005KT 10SM CLR 09/08 A3011 RMK AO2 SLP198 I1000 T00890078 $", "KMRJ 031135Z AUTO 17005KT 10SM BKN100 03/M01 A2977 RMK AO2 PWINO", "KMRN 031145Z AUTO 00000KT 10SM CLR 07/03 A3011 RMK AO2 T00730032", "KMRT 031119Z AUTO 19006KT 10SM CLR 02/M00 A2990 RMK AO1", "KMRY 031054Z AUTO 31014G25KT 10SM -RA FEW026 SCT035 BKN070 08/02 A3010 RMK AO2 PK WND 30029/1043 RAB50 SLP205 P0000 T00830022", "KMSL 031053Z AUTO 10006KT 10SM -RA FEW080 OVC100 13/11 A2985 RMK AO2 SLP104 P0005 T01280111", "KMSN 031053Z 18005KT 10SM BKN110 06/M04 A2976 RMK AO2 SLP080 T00611039", "KMSO 031053Z AUTO 00000KT 10SM BKN060 BKN085 OVC110 M03/M04 A2975 RMK AO2 SLP097 T10281044", "KMSP 031053Z 24007KT 10SM FEW160 02/M03 A2971 RMK AO2 SLP068 T00171028 $", "KMSS 031053Z AUTO 30003KT 10SM BKN080 OVC100 M02/M06 A3002 RMK AO2 SLP170 T10221056", "KMSV 031056Z AUTO 04004KT 10SM CLR M05/M11 A3012 RMK AO2 SLP215 T10501106 FZRANO", "KMSY 031053Z 19006KT 9SM FEW029 SCT100 SCT250 23/22 A2987 RMK AO2 SLP118 T02330222", "KMTC 031056Z 17003KT 10SM FEW095 BKN130 BKN200 02/00 A2978 RMK AO2A SLP094 T00220003 $", "KMTH 031053Z AUTO 12005KT 10SM FEW026 26/21 A3000 RMK AO2 SLP158 T02560206 $", "KMTJ 031053Z AUTO 09007KT 070V150 10SM CLR 09/M07 A2965 RMK AO2 SLP983 T00941067", "KMTK 031135Z AUTO 19012KT 10SM CLR 24/23 A2991 RMK A01", "KMTO 031053Z AUTO 17009KT 10SM CLR 11/04 A2978 RMK AO2 SLP083 T01110044", "KMTP 031054Z AUTO 10003KT 01/M08 A3019 RMK AO1 SLP223 T00111083", "KMTV 031135Z AUTO 00000KT 10SM CLR 01/00 A3011 RMK AO2 T00071002", "KMTW 031056Z AUTO 26008KT 10SM FEW120 06/M02 A2973 RMK AO2 SLP075 T00611022", "KMUI 031055Z 07004KT 10SM FEW200 00/M10 A3015 RMK SLPNO WND DATA ESTMD ALSTG ESTMD", "KMUO 031055Z 30010KT 10SM BKN100 00/M00 A2973 RMK AO2A SLP074 T00011003 $", "KMUT 031135Z AUTO 00000KT 10SM CLR 05/00 A2977 RMK AO2", "KMVE 031135Z AUTO 26006KT 10SM CLR 01/M02 A2976 RMK AO2", "KMVH 031140Z AUTO 28005KT 10SM CLR M06/M10 A2974 RMK AO2 PWINO", "KMVL 031054Z AUTO 00000KT 10SM OVC100 M07/M10 A3009 RMK AO2 SLP201 T10671100", "KMVN 031056Z AUTO 17010KT 8SM RA SCT030 BKN060 OVC110 12/11 A2982 RMK AO2 LTG DSNT SE TSE12B30E45 SLP101 P0010 T01220111", "KMVY 031053Z 00000KT 10SM CLR M06/M10 A3018 RMK AO2 SLP220 T10611100", "KMWA 031147Z 12005KT 10SM BKN110 13/09 A2984", "KMWC 031135Z AUTO 00000KT 10SM SCT120 05/M03 A2978 RMK AO2", "KMWH 031052Z AUTO 36006KT 10SM SCT033 BKN048 OVC075 02/01 A2985 RMK AO2 SLP115 T00170006", "KMWK 031145Z AUTO 00000KT 10SM CLR 04/02 A3010 RMK AO2 T00350020", "KMWL 031146Z AUTO 15006KT 3/4SM BR VV001 13/12 A2967 RMK AO2 T01280122", "KMWM 031135Z AUTO 30005KT 10SM CLR 02/M02 A2975 RMK AO2", "KMWN 031056Z 25032KT 100SM FEW045 SCT060 SCT180 M11/M17 RMK ACSL DSNT NE-E", "KMWO 031135Z AUTO 00000KT 10SM SCT110 03/02 A2989 RMK AO2 T0031////", "KMWT 031053Z AUTO 11004KT 10SM OVC004 16/14 A2973 RMK AO2 SLP060 T01560139", "KMXF 031149Z AUTO 03006KT 5SM -TSRA SCT005 OVC013 14/11 A2988 RMK AO2 TSB23E45TSB49 SLP120", "KMYF 031053Z AUTO 26009KT 7SM SCT010 BKN018 OVC025 11/09 A2997 RMK AO2 SLP146 T01060089", "KMYJ 031155Z AUTO 06004KT 10SM OVC060 09/07 A2973 RMK AO2", "KMYL 031151Z AUTO 00000KT 3SM BR FEW016 M15/M16 A2967 RMK AO2 SLP098 60001 70015 T11501161 11039 21150 53001 $", "KMYP 031135Z AUTO 22026G32KT 10SM SCT120 M05/M13 A2989 RMK AO2", "KMYR 031056Z 13007KT 10SM CLR 17/13 A3010 RMK AO2 SLP191 T01720133", "KMYV 031053Z AUTO 10SM CLR 06/M03 A3004 RMK AO2 SLP174 T00561028 $", "KMYZ 031135Z AUTO 08014G22KT 10SM OVC040 10/M05 A2961 RMK AO2", "KMZH 031135Z AUTO 26005KT 10SM BKN022 BKN029 BKN080 01/M02 A2964 RMK AO2", "KMZZ 031135Z AUTO 18004KT 10SM CLR 06/02 A2983 RMK AO2 T00580019", "KN03 031135Z AUTO 00000KT 10SM BKN080 00/M11 A3002 RMK AO2", "KN38 031135Z AUTO 18012KT 10SM CLR M00/M10 A2997 RMK AO2", "KN60 031152Z AUTO 04005KT M05/M07 A2977 RMK AO1 SLP105 70002 T10501067 10000 21050 53022 ", "KN79 031135Z AUTO 16010G15KT 120V210 10SM CLR 03/M14 A3007 RMK AO2 T00331136", "KNAK 031054Z AUTO 15003KT 10SM CLR 08/06 A3013 RMK AO2 SLP205 T00780056 $", "KNBC 031056Z 00000KT 10SM SCT180 13/12 A3004 RMK AO2 SLP172 T01280117", "KNBG 031055Z 20009KT 5SM BR BKN012 OVC020 24/23 A2988 RMK AO2 SLP117 T02440228 $", "KNBT 031100Z AUTO 12006KT 10SM CLR 17/09 A3012 RMK AO2 SLP204 T01720094", "KNCA 031056Z 00000KT 10SM CLR 09/08 A3011 RMK AO2 SLP197 T00890083", "KNDZ 031116Z COR 19007G16KT 6SM BR OVC004 22/21 A2990 RMK AO2 CIG 0043V009 T02220206 $", "KNEL 031100Z AUTO 00000KT CLR M03/M05 A3017 RMK AO2 SLP215 T10331050 $", "KNEW 031053Z AUTO 20010KT 10SM BKN013 24/22 A2988 RMK AO2 SLP110 T02390217", "KNFE 031056Z AUTO 13003KT 10SM CLR 07/03 A3015 RMK AO2 SLP212 T00720028", "KNFG 031152Z AUTO 21007KT 10SM OVC030 12/08 A2994 RMK AO2 SLP138 T01220078 10133 20122 56016 $ ", "KNFL 031143Z AUTO 35010KT 7SM -SN SCT018 SCT027 OVC038 M01/M04 A2979 RMK AO2 SNB20 P0000 T10061039", "KNFW 031152Z 16003KT 7SM FEW250 18/17 A2968 RMK AO2 SLP036 70005 T01780172 10200 20178 53005 VISNO S $ ", "KNGP 031056Z 16010KT 4SM BR OVC004 24/23 A2974 RMK AO2 SLP071 T02440228", "KNGU 031059Z 14005KT 10SM SCT300 08/04 A3016 RMK AO2 SLP212 T00830044", "KNHK 031152Z 15004KT 10SM FEW250 10/04 A3015 RMK AO2 SLP208 T01000039 10100 20050 53020 $ ", "KNID 031056Z AUTO 18008G19KT 10SM FEW080 13/02 A2967 RMK AO2 SLP035 T01330017 $", "KNIP 031153Z 06003KT 10SM SCT080 BKN120 BKN200 21/17 A3003 RMK AO2 SLP163 T02060172 10211 20183 51008 ", "KNJK 031056Z AUTO 27019G25KT 10SM CLR 17/02 A2980 RMK AO2 PK WND 27028/1009 RAE36 SLP108 P0000 T01670022 $", "KNJW 031133Z AUTO 13007KT 1 3/4SM BR OVC002 12/ A2985 RMK AO2 T0122 $", "KNKT 031056Z AUTO 00000KT 10SM CLR 07/06 A3013 RMK AO2 SLP199 T00720061", "KNKX 031055Z COR 24005KT 8SM -RA FEW007 BKN013 OVC027 10/10 A2996 RMK AO2 RAE0957B54 SLP142 P0000 T01000100", "KNLC 031056Z AUTO 32009KT 10SM FEW040 07/03 A3001 RMK AO2 SLP163 T00720028", "KNMM 031143Z 13003KT 5SM BR SCT003 BKN040 BKN110 13/12 A2984 RMK AO2 RAE43 FRQ LTGICCC OHD TS OHD MOV E T1 SET P0000 T01280122 $", "KNOG 031056Z AUTO 14006KT 5SM BR BKN008 22/21 A2975 RMK AO2 SLP053 T02170211 TSNO PNO $", "KNOW 031135Z AUTO 00000KT 10SM SCT044 OVC055 04/03 A3001 RMK AO2 T00380026", "KNOZ 031059Z AUTO 10005KT 10SM CLR 11/M06 A2979 RMK AO2 SLP037 T01111056 $", "KNPA 031131Z 19014KT 4SM BR SCT004 SCT080 BKN250 22/21 A2990 RMK AO2 T02220211 $", "KNQI 031146Z 11004KT 5SM HZ SCT013 SCT030 21/ A2975 RMK AO2 T0206 $", "KNQX 031053Z 14006KT 10SM SCT024 25/22 A3000 RMK AO2 SLP158 T02500217", "KNRB 031152Z 05004KT 10SM SCT070 SCT110 BKN180 21/18 A3004 RMK AO2 SLP171 T02110178 10211 20172 53012 ", "KNRN 031135Z AUTO 08007KT 10SM BKN050 06/M02 A2969 RMK AO2", "KNRS 031153Z AUTO 30008KT 10SM FEW017 BKN026 OVC032 12/09 A2997 RMK AO2 RAE24 SLP149 P0001 60001 70001 T01170089 10139 20117 56014 $ ", "KNSE 031103Z 19011KT 7SM OVC004 22/21 A2990 RMK AO2 CIG 004V009 T02170206 PNO $", "KNSI 031053Z AUTO 32025G43KT 10SM BKN019 10/07 A2996 RMK AO2 PK WND 31043/1048 SLP140 T01000067 PNO $", "KNTD 031143Z AUTO 32005KT OVC016 12/09 A2992 RMK AO2 T01170094 CHINO S $", "KNTU 031056Z 13005KT 10SM FEW040 FEW200 08/03 A3014 RMK AO2 SLP210 T00780033", "KNUC 031056Z AUTO 31016G26KT OVC023 11/ A2997 RMK AO2 PK WND 30028/1002 SLP147 T0106 $", "KNUI 031153Z AUTO 14005KT 10SM CLR 09/05 A3014 RMK AO2 SLP204 T00940050 10094 20028 51019 ", "KNUW 031153Z 00000KT 10SM FEW010 BKN018 OVC024 03/02 A3000 RMK AO2 SLP162 T00330022 10044 20022 51006 VISNO $ ", "KNXF 031056Z AUTO 24008KT 10SM OVC025 12/07 A2994 RMK AO2 SLP226 T01220072 PWINO $", "KNXP 031056Z AUTO 30008KT 10SM CLR 11/03 A2983 RMK AO2 SLP074 T01110033", "KNY0 031138Z AUTO 00000KT 10SM OVC100 M03/M08 A3010 RMK AO2", "KNYC 031051Z AUTO 11006KT 10SM CLR 04/M11 A3019 RMK AO2 SLP217 T00391106 $", "KNYG 031056Z AUTO 29005KT 9SM CLR 03/ A3015 RMK AO2 SLP209 T0033 $", "KNYL 031057Z AUTO 23003KT 10SM CLR 13/00 A2978 RMK AO2 SLP082 T01330000", "KNZY 031152Z AUTO 27003KT 10SM BKN024 OVC031 12/10 A2996 RMK AO2 SLP143 60000 T01220100 10139 20117 56015 $ ", "KO05 031130Z AUTO 33004KT 10SM SCT029 SCT033 BKN045 M10/M13 A2988 RMK A01", "KO22 031135Z AUTO 29004KT 10SM FEW013 BKN030 OVC070 03/01 A2996 RMK A01", "KO32 031135Z AUTO 31014KT 9SM SCT075 07/06 A2998 RMK AO2 T00730062 $", "KO86 031135Z AUTO 00000KT 10SM M03/M05 A3000 RMK A01", "KOAJ 031056Z 00000KT 10SM CLR 08/07 A3012 RMK AO2 SLP201 T00830072", "KOAK 031053Z 31017G34KT 10SM FEW025 08/00 A3009 RMK AO2 PK WND 31037/1038 SLP188 T00780000", "KOAR 031135Z AUTO 33013KT 10SM SCT030 07/02 A3009 RMK AO2 PWINO", "KOBE 031135Z AUTO 36004KT 2 1/2SM BR CLR 19/19 A3002 RMK AO2", "KOCF 031151Z 00000KT 10SM CLR 16/14 A3005 RMK AO2 SLP175 6//// 7//// T01610144 10189 20156 51016 PNO $", "KOCH 031131Z AUTO 20008KT 10SM OVC015 22/22 A2978 RMK AO2 PWINO $", "KOCQ 031135Z AUTO 22006KT 10SM CLR 03/M01 A2971 RMK AO1 T00251007", "KOCW 031145Z AUTO 00000KT 10SM CLR 09/08 A3014 RMK AO2 T00930078", "KODO 031053Z AUTO 27004KT 10SM CLR 13/M13 A2978 RMK AO2 SLP044 T01331133", "KODX 031053Z AUTO 34007KT 10SM CLR 01/M03 A2970 RMK AO2 SLP060 T00111028", "KOEB 031135Z AUTO 23004KT 10SM CLR 04/01 A2983 RMK AO2 T00380008", "KOEL 031135Z AUTO 06016G22KT 10SM CLR 05/M03 A2963 RMK AO1 T00471035", "KOEO 031135Z AUTO 24006KT 10SM CLR 01/M01 A2974 RMK AO2 T00061010 PWINO", "KOFF 031055Z 11005KT 10SM BKN090 OVC110 08/M06 A2974 RMK AO2A SLP073 T00791063 PWINO PNO FZRANO TSNO $", "KOFK 031056Z AUTO 35007KT 10SM BKN110 04/M02 A2972 RMK AO2 SLP064 T00391017", "KOFP 031054Z AUTO 00000KT 10SM CLR 04/03 A3013 RMK AO2 SLP203 T00390028", "KOGA 031135Z AUTO 01012KT 10SM CLR 03/M01 A2972 RMK AO2 T00271015", "KOGB 031143Z AUTO 00000KT 1 1/2SM BR OVC002 11/11 A3006 RMK AO2 T01110106", "KOGD 031145Z AUTO 00000KT 2SM -SN BR OVC004 01/M01 A2961 RMK AO2 P0003 T00061011 $", "KOGS 031135Z AUTO 00000KT 10SM -UP BKN032 OVC055 M00/M08 A2994 RMK AO2", "KOIC 031135Z AUTO 18005KT 10SM BKN085 M03/M07 A3009 RMK AO2 T10311067", "KOIN 031135Z AUTO 05005KT 10SM CLR 03/M02 A2969 RMK AO1 T00321021", "KOJA 031135Z AUTO 22005KT 1/2SM FG OVC002 11/11 A2960 RMK AO2 T01140111", "KOJC 031053Z AUTO 06009KT 10SM BKN038 13/08 A2964 RMK AO2 SLP030 T01330083", "KOKB 031147Z AUTO 21006KT 10SM OVC030 13/07 A2993 RMK AO2 RAE1055 P0000", "KOKC 031052Z 18013KT 7SM SCT006 14/14 A2959 RMK AO2 SLP007 T01440139", "KOKK 031056Z AUTO 18008KT 10SM CLR 06/02 A2981 RMK AO2 SLP098 T00610022 PNO $", "KOKM 031135Z AUTO 16005KT 10SM OVC008 16/16 A2963 RMK AO2 LTG DSNT E T01570157", "KOKV 031135Z AUTO 00000KT 10SM CLR 00/M02 A3006 RMK AO2", "KOKZ 031135Z AUTO 00000KT 10SM CLR 11/09 A2999 RMK AO2 T01120091", "KOLE 031135Z AUTO 19007KT 10SM CLR 00/M07 A2992 RMK AO2", "KOLF 031053Z AUTO 23004KT 10SM CLR M08/M11 A2981 RMK AO2 SLP125 T10831111", "KOLG 031135Z AUTO 00000KT 10SM CLR M02/M03 A2964 RMK AO1", "KOLM 031148Z AUTO 29003KT 1 1/2SM BR OVC002 M01/M01 A3001 RMK AO2 I1000", "KOLS 031054Z AUTO 00000KT 10SM CLR 06/M09 A2991 RMK AO2 SLP084 T00561089", "KOLU 031056Z AUTO 08005KT 10SM SCT085 OVC100 02/M01 A2970 RMK AO2 SLP061 T00171006 FZRANO", "KOLV 031135Z AUTO 16005KT 10SM BKN030 OVC035 14/14 A2980 RMK A01", "KOLY 031135Z AUTO 16006KT 10SM SCT120 12/11 A2984 RMK AO2 T01150108 PWINO", "KOLZ 031135Z AUTO 15006KT 10SM BKN100 BKN120 01/01 A2976 RMK A01", "KOMA 031052Z 13006KT 10SM OVC080 07/M04 A2972 RMK AO2 SLP062 T00721044", "KOMH 031135Z AUTO 00000KT 10SM CLR 01/00 A3014 RMK AO2", "KOMK 031053Z AUTO 33006KT 10SM BKN055 BKN070 01/M01 A2987 RMK AO2 SLP122 T00111006", "KOMN 031153Z 00000KT 3SM BR SCT036 19/19 A3003 RMK CORR VIS 3 BR", "KONA 031135Z AUTO 00000KT 10SM CLR 01/00 A2975 RMK AO2", "KONL 031135Z AUTO 02009KT 10SM CLR 02/M04 A2976 RMK AO2 T00221036", "KONM 031135Z AUTO 31004KT 10SM CLR 06/M15 A2985 RMK AO2 T00591151", "KONO 031053Z AUTO 24004KT 10SM FEW060 M01/M03 A2982 RMK AO2 SLP110 T10061033 $", "KONP 031135Z AUTO 10004KT 10SM -RA SCT019 BKN034 OVC044 01/00 A3012 RMK AO2", "KONT 031053Z 23004KT 10SM SCT012 BKN025 BKN046 11/09 A2991 RMK AO2 SLP124 T01060094", "KONX 031145Z AUTO 10003KT 10SM CLR 10/04 A3016 RMK AO2 T00970035", "KONZ 031135Z AUTO 21006KT 10SM CLR 05/03 A2982 RMK AO2 T00510032", "KOOA 031135Z AUTO 04005KT 10SM OVC080 07/01 A2977 RMK AO2 T00720012", "KOPF 031053Z 00000KT 10SM CLR 22/20 A3002 RMK AO2 SLP167 T02220200", "KOPL 031135Z AUTO 22006KT 7SM BKN012 OVC020 23/21 A2984 RMK AO2 T02300210", "KOPN 031135Z AUTO 00000KT 10SM CLR 11/07 A3001 RMK AO2", "KOQN 031135Z AUTO 07003KT 10SM CLR 01/M07 A3016 RMK AO2", "KOQT 031053Z AUTO 00000KT 10SM CLR 08/04 A2999 RMK AO2 SLP154 T00830039", "KORB 031153Z AUTO 00000KT 10SM SCT026 BKN080 M01/M02 A2958 RMK AO2", "KORD 031151Z 15004KT 10SM BKN110 BKN140 08/02 A2981 RMK AO2 SLP095 T00780017 10106 20072 53018 $", "KORE 031052Z AUTO 00000KT 10SM CLR M07/M09 A3016 RMK AO2 SLP221 I1000 T10721094", "KORF 031151Z 13006KT 10SM CLR 09/04 A3015 RMK AO2 SLP208 T00940044 10094 20061 51021", "KORG 031135Z AUTO 20012G16KT 5SM BR OVC005 24/23 A2983 RMK AO2 T02420227", "KORH 031054Z 14005KT 10SM CLR 00/M18 A3012 RMK AO2 SLP210 T00001178", "KORK 031135Z AUTO 16006KT 6SM BR OVC003 14/14 A2977 RMK AO2", "KORL 031149Z 36004KT 10SM OVC014 23/18 A3004 RMK AO2", "KORS 031135Z AUTO 17005KT 10SM FEW018 BKN027 OVC037 03/03 A2998 RMK AO2", "KOSA 031135Z AUTO 14005KT 4SM HZ OVC010 17/ A2973 RMK AO2 T0172////", "KOSC 031135Z AUTO 25015G18KT 10SM CLR 04/01 A2969 RMK AO2 T00370009", "KOSH 031053Z AUTO 21004KT 10SM BKN120 04/M02 A2973 RMK AO2 SLP074 T00441022", "KOSU 031053Z 17004KT 10SM CLR 03/M01 A2989 RMK AO2 SLP127 T00331006", "KOTG 031056Z AUTO 32004KT 10SM FEW110 02/M02 A2976 RMK AO2 SLP092 T00171017 FZRANO PNO $", "KOTH 031056Z AUTO 14008KT 10SM FEW017 SCT065 SCT090 02/01 A3016 RMK AO2 RAE04B21E48SNB04E21 SLP211 P0009 T00170011 FZRANO", "KOTM 031053Z AUTO 04008KT 10SM BKN080 OVC095 06/01 A2975 RMK AO2 SLP072 T00560006", "KOUN 031135Z AUTO 17011KT 10SM OVC006 15/14 A2959 RMK AO2 T01530142", "KOVE 031053Z AUTO 32007KT CLR 06/M02 A3004 RMK AO2 SLP173 T00611022 $", "KOVL 031135Z AUTO 29008KT 10SM CLR M01/M03 A2974 RMK AO2", "KOVS 031053Z AUTO 26003KT 10SM BKN110 06/00 A2975 RMK AO2 SLP075 T00560000", "KOWA 031153Z AUTO 00000KT 10SM CLR 02/M01 A2975 RMK AO2", "KOWB 031056Z 16004KT 10SM -RA OVC042 11/06 A2989 RMK AO2 LTG DSNT N AND NW RAB14 SLP119 P0000 T01110061", "KOWD 031053Z AUTO 00000KT 10SM CLR M04/M07 A3019 RMK AO2 SLP225 I1000 T10391067", "KOWI 031130Z AUTO 06007KT 10SM OVC027 14/12 A2960 RMK AO2", "KOWP 031135Z AUTO 19012G20KT 10SM OVC008 17/16 A2962 RMK AO2 T01700157", "KOWX 031135Z AUTO 20007KT 10SM CLR 06/00 A2986 RMK AO1", "KOXC 031151Z 17004KT 10SM CLR 01/M09 A3019 RMK AO2 SLP243 T00111094 10011 21033 53028", "KOXD 031135Z AUTO 00000KT 10SM BKN120 08/02 A2987 RMK AO2 T00840022", "KOXI 031135Z AUTO 00000KT 10SM CLR 02/01 A2982 RMK AO1", "KOXR 031151Z AUTO 00000KT 9SM OVC017 12/10 A2991 RMK AO2 SLP126 T01170100 10122 20106 58012", "KOXV 031135Z AUTO 08004KT 10SM OVC075 07/M00 A2976 RMK AO2", "KOYM 031135Z AUTO 14005KT 10SM CLR 03/M06 A2998 RMK AO2 PWINO", "KOZA 031135Z AUTO 17003KT 10SM CLR 08/M06 A2981 RMK AO2", "KOZR 031124Z AUTO 14007KT 10SM SCT004 BKN013 OVC160 16/14 A2992 RMK AO2 CIG 005V013 SLP133", "KOZS 031135Z AUTO 16008KT 10SM CLR 13/09 A2970 RMK AO2", "KOZW 031135Z AUTO 22003KT 10SM CLR 05/02 A2979 RMK AO2 T00460020", "KP08 031135Z AUTO 11008KT 10SM CLR 09/M04 A2979 RMK AO2", "KP28 031056Z AUTO 17009KT 12/12 A2948 RMK AO1 SLP971 T01220122 $", "KP52 031135Z AUTO 00000KT 10SM CLR 08/M05 A2980 RMK AO2", "KP53 031056Z AUTO VRB04KT 03/M02 A2960 RMK AO1 SLP029 T00281017 $", "KP58 031055Z AUTO 23012G23KT 08/02 A2967 RMK AO1 PK WND 22027/1041 SLP053 T00830017", "KP59 031151Z AUTO 31008G20KT 280V360 04/M01 A2955 RMK AO1 SLP015 70015 T00391006 10039 20011 51023 $ ", "KP60 031056Z AUTO 00000KT M22/M23 A2965 RMK AO1 SLP125 T12171228", "KP68 031153Z AUTO 31005KT M02/M03 A2965 RMK AO1 SLP013 P0001 60005 70005 T10221028 10028 21022 58007 ", "KP69 031152Z AUTO 00000KT 01/M01 A2982 RMK AO1 SLP110 P0003 60024 70024 T00061006 10028 20006 51003 $ ", "KP92 031059Z AUTO VRB03KT 22/22 A2986 RMK AO1 SLP111 T02220217", "KPAE 031144Z AUTO 27005KT 10SM BKN003 BKN010 OVC047 03/02 A2998 RMK AO2 CIG 002V007 T00280017", "KPAH 031053Z 00000KT 10SM FEW075 12/07 A2983 RMK AO2 SLP100 T01220067", "KPAM 031105Z 16006KT 10SM BKN006 21/20 A2995 RMK AO2A SLP145 $", "KPAN 031135Z AUTO 00000KT 10SM CLR 06/M07 A2987 RMK AO2 PWINO TSNO", "KPBF 031131Z AUTO 15006KT 10SM OVC004 16/14 A2980 RMK AO2 T01560144", "KPBG 031053Z AUTO 00000KT 10SM BKN100 M03/M08 A3004 RMK AO2 SLP177 T10331078", "KPBH 031135Z AUTO 23004KT 10SM CLR M01/M03 A2965 RMK AO2 T10151026", "KPBI 031053Z 00000KT 10SM SCT035 SCT060 23/21 A3002 RMK AO2 SLP166 T02330206 $", "KPBX 031135Z AUTO 14003KT 10SM CLR 08/00 A3000 RMK AO2 T00811003", "KPCD 031135Z AUTO 10007KT 10SM BKN070 OVC090 12/09 A2981 RMK AO2 T01190094", "KPCM 031115Z AUTO 00000KT 1/4SM FG OVC002 21/19 A3004 RMK AO2", "KPCW 031135Z AUTO 21010KT 10SM CLR 06/04 A2982 RMK AO2", "KPCZ 031135Z AUTO 00000KT 10SM CLR 04/M01 A2973 RMK AO2 T00371015", "KPDC 031155Z AUTO 00000KT 10SM SCT110 04/02 A2977 RMK AO2 T00410015 10067 20035", "KPDK 031053Z 00000KT 10SM CLR 10/07 A2997 RMK AO2 SLP145 T01000072", "KPDT 031053Z AUTO 26016KT BKN033 BKN043 OVC120 02/M03 A2986 RMK AO2 SLP114 T00171033", "KPDX 031140Z 20005KT 10SM SCT034 BKN045 03/01 A3004 RMK AO2 T00330011 $", "KPEA 031135Z AUTO 07003KT 10SM OVC080 06/00 A2976 RMK AO2 T00600004", "KPEO 031053Z AUTO 19005KT 10SM FEW080 02/M09 A2996 RMK AO2 SLP156 T00171094", "KPEQ 031135Z AUTO 00000KT 10SM CLR 08/M13 A2979 RMK AO2 T00821131", "KPEX 031135Z AUTO 28013KT 10SM CLR M01/M03 A2972 RMK AO2", "KPEZ 031135Z AUTO 15005KT 10SM OVC006 22/21 A2975 RMK AO2 T02240210", "KPGA 031053Z AUTO 16009KT 10SM CLR 12/M06 A2961 RMK AO2 SLP978 T01221061", "KPGD 031102Z 36003KT 6SM BR CLR 19/19 A3003 RMK AO2 T01890189", "KPGV 031145Z AUTO 00000KT 10SM CLR 08/08 A3013 RMK AO2", "KPHD 031053Z AUTO 14005KT 10SM CLR 01/M02 A2993 RMK AO2 SLP138 T00111017", "KPHF 031054Z 00000KT 10SM CLR 02/02 A3014 RMK AO2 SLP207 T00170017", "KPHL 031054Z 00000KT 10SM FEW280 02/M08 A3018 RMK AO2 SLP219 T00221083 $", "KPHN 031135Z AUTO 18009KT 10SM CLR 04/01 A2979 RMK A", "KPHP 031055Z AUTO 00000KT 10SM BKN080 OVC095 01/M03 A2980 RMK AO2 SLP098 T00061028 $", "KPHT 031135Z AUTO 10006KT 10SM BKN027 OVC036 15/07 A2986 RMK A01", "KPHX 031151Z 09006KT 10SM CLR 14/01 A2976 RMK AO2 SLP066 T01390006 10200 20133 55005", "KPIA 031054Z 08007KT 10SM BKN095 09/04 A2978 RMK AO2 SLP084 T00890039 $", "KPIB 031135Z AUTO VRB06KT 7SM FEW009 OVC014 22/22 A2986 RMK AO2 LTG DSNT NW-NE", "KPIE 031127Z 00000KT 6SM BR FEW009 21/21 A3002 RMK AO2 T02060206", "KPIH 031120Z 26004KT 10SM FEW003 BKN009 BKN016 M02/M03 A2966 RMK AO2 T10221033", "KPIL 031053Z AUTO 18013KT 9SM BKN012 24/23 A2974 RMK AO2 SLP069 T02440228", "KPIM 031135Z AUTO 12007KT 10SM CLR 13/07 A2996 RMK AO2 LTG DSNT W T01270071", "KPIR 031053Z AUTO 30007KT 10SM BKN100 BKN120 00/M04 A2979 RMK AO2 SLP097 T00001039", "KPIT 031151Z 15003KT 10SM FEW060 SCT100 SCT250 03/M02 A2994 RMK AO2 SLP151 T00281017 10033 20011 56001", "KPJC 031135Z AUTO 00000KT 10SM CLR M02/M02 A2995 RMK AO2", "KPKB 031053Z 00000KT 10SM SCT090 BKN100 01/M01 A2995 RMK AO2 SLP145 T00061011 $", "KPKD 031104Z AUTO 27013KT 10SM OVC009 M02/M03 A2961 RMK AO2 T10171028", "KPKV 031135Z AUTO 19009G15KT 7SM BKN011 OVC018 24/23 A2977 RMK AO2 T02430225", "KPLN 031054Z AUTO 25010G20KT 10SM CLR 05/01 A2965 RMK AO2 SLP048 T00500006", "KPLR 031135Z AUTO 00000KT 6SM BR SCT043 BKN055 OVC070 11/11 A2994 RMK A01", "KPLU 031135Z AUTO 00000KT 10SM OVC004 01/01 A2999 RMK AO2", "KPMD 031127Z AUTO 28018G29KT 7SM -RA OVC015 06/04 A2986 RMK AO2 PK WND 29034/1101 P0000 T00610039", "KPMH 031135Z AUTO 16004KT 10SM SCT090 02/01 A2998 RMK AO2 T00220005", "KPMP 031053Z 20004KT 10SM CLR 23/21 A3001 RMK AO2 SLP162 T02330206", "KPMU 031135Z AUTO 00000KT 10SM FEW006 OVC017 14/13 A2981 RMK AO2", "KPMV 031135Z AUTO 10013KT 10SM BKN070 OVC080 08/M06 A2971 RMK AO2 T00801056", "KPNA 031135Z AUTO 03004KT 4SM -SN BKN038 OVC045 M06/M08 A2961 RMK AO2", "KPNC 031140Z AUTO 18007KT 10SM OVC009 16/14 A2955 RMK AO2 T01560139 $", "KPNE 031054Z 36003KT 10SM CLR M01/M07 A3019 RMK AO2 SLP224 T10061067", "KPNM 031135Z AUTO 25008KT 10SM CLR 01/M03 A2971 RMK AO2 TSNO", "KPNS 031133Z 19013KT 8SM FEW006 BKN019 23/22 A2990 RMK AO2 T02280217", "KPNT 031135Z AUTO 00000KT 10SM SCT100 02/01 A2982 RMK AO2 T00210011", "KPO1 031140Z AUTO 26005KT 10SM CLR M09/M10 A2982 RMK AO2", "KPOB 031149Z AUTO 00000KT 10SM CLR 06/06 A3012 RMK AO2 SLP203 TSNO $", "KPOE 031055Z AUTO 20007KT 10SM FEW017 SCT028 23/22 A2979 RMK AO2 SLP087 T02250220", "KPOF 031130Z AUTO 12003KT 10SM SCT028 13/10 A2980 RMK AO2 T01330100", "KPOU 031053Z 00000KT 10SM CLR M04/M08 A3018 RMK AO2 SLP218 T10441078", "KPOV 031135Z AUTO 15003KT 10SM CLR 03/M01 A2988 RMK AO2 T00281015 PWINO", "KPOY 031135Z AUTO 28003KT 10SM CLR M04/M13 A2969 RMK AO2", "KPPA 031135Z AUTO 24006KT 10SM 09/M09 A2964 RMK AO2 T00871093", "KPPF 031126Z AUTO 17007KT 10SM OVC014 14/11 A2959 RMK AO2 T01390106", "KPPO 031135Z AUTO 00000KT 10SM SCT120 01/01 A2984 RMK AO2 T00130013", "KPPQ 031135Z AUTO 00000KT 10SM BKN085 10/05 A2977 RMK AO2 T00980053", "KPQI 031056Z AUTO 00000KT 10SM CLR M11/M13 A3004 RMK AO2 SLP212 T11111133", "KPQL 031053Z AUTO 18007KT 160V230 10SM OVC006 23/22 A2989 RMK AO2 SLP123 T02280217", "KPRB 031053Z AUTO 32009KT 10SM CLR 06/03 A3001 RMK AO2 SLP162 T00610033", "KPRC 031053Z AUTO 18014G21KT 10SM CLR 10/M05 A2983 RMK AO2 SLP044 T01001050", "KPRG 031135Z AUTO 20010KT 10SM CLR 10/06 A2981 RMK AO2 T00980062", "KPRN 031132Z AUTO VRB04KT 8SM TSRA OVC006 16/15 A2988 RMK AO2 TSB29 P0002 T01560150", "KPRO 031135Z AUTO 13004KT 10SM OVC090 04/M01 A2976 RMK AO2 T00421009", "KPRS 031135Z AUTO 36004KT 10SM CLR 12/M06 A2986 RMK AO2 T01151064", "KPRX 031111Z AUTO 14008KT 3SM BR OVC003 17/17 A2971 RMK AO2", "KPSC 031115Z AUTO 23012KT 8SM -RA BKN018 OVC028 03/01 A2989 RMK AO2 P0003 T00330006", "KPSF 031054Z AUTO 00000KT 10SM CLR M06/M09 A3011 RMK AO2 SLP207 T10561094", "KPSK 031135Z AUTO 00000KT 10SM CLR 02/01 A3007 RMK AO2 T00190005", "KPSM 031055Z 00000KT 10SM SCT250 M04/M10 A3017 RMK AO2A SLP220 T10381096", "KPSN 031135Z AUTO 20008KT 9SM OVC017 22/21 A2974 RMK AO2", "KPSO 031135Z AUTO 10SM CLR M02/M09 A2985 RMK AO2 T10221091", "KPSP 031053Z AUTO 34013G17KT 10SM CLR 17/02 A2976 RMK AO2 PK WND 33029/1036 SLP075 T01670022", "KPSX 031134Z AUTO 18007KT 6SM BR SCT010 OVC019 24/23 A2978 RMK AO2 T02390233 $", "KPTB 031135Z AUTO 00000KT 10SM CLR 04/03 A3014 RMK AO2 T00370031", "KPTD 031135Z AUTO 20004KT 10SM SCT030 BKN037 OVC050 01/M11 A2999 RMK AO2", "KPTK 031053Z 22007KT 10SM BKN130 BKN180 04/01 A2978 RMK AO2 SLP089 T00440006", "KPTN 031056Z AUTO 20009KT 10SM OVC008 23/22 A2988 RMK AO2 CIG 006V011 SLPNO T02330222 $", "KPTS 031135Z AUTO 16006KT 10SM OVC020 14/12 A2960 RMK AO2 T01420117 PWINO", "KPTT 031135Z AUTO 25010KT 10SM CLR 09/09 A2950 RMK AO2 T00920086", "KPTV 031056Z AUTO 33009KT 10SM -RA BKN033 OVC055 09/05 A3000 RMK AO2 RAB49 SLP158 P0000 T00940050 TSNO", "KPUB 031053Z AUTO 33005KT 10SM CLR 00/M07 A2970 RMK AO2 SLP023 T00001072 $", "KPUC 031053Z AUTO 06007KT 10SM SCT085 03/M07 A2952 RMK AO2 SLP978 T00331067", "KPUJ 031135Z AUTO 00000KT 10SM SCT070 OVC095 11/06 A2997 RMK AO2", "KPUW 031144Z AUTO 28010KT 1/2SM R05/4000VP6000FT SN FZFG BKN008 BKN017 OVC026 M02/M02 A2980 RMK AO2 SNB01 P0002 T10171022", "KPVB 031115Z AUTO 15005KT 10SM BKN110 02/M02 A2977 RMK AO1 T00171020", "KPVC 031056Z AUTO 00000KT 10SM CLR M02/M05 A3020 RMK AO2 SLP225 T10221050 FZRANO", "KPVD 031151Z 00000KT 10SM FEW250 01/M07 A3022 RMK AO2 SLP234 T00061072 10006 21028 53025", "KPVF 031135Z AUTO 00000KT 10SM FEW050 00/M01 A2996 RMK AO1", "KPVG 031056Z AUTO 7SM CLR 01/01 A3016 RMK AO2 SLP213 T00110011 FZRANO $", "KPVJ 031135Z AUTO 17007KT 7SM OVC006 16/15 A2962 RMK AO2 T01560152", "KPVU 031131Z AUTO 1 1/2SM -SN BR OVC006 01/M01 A2964 RMK AO2 UPE04SNB04 CIG 003V010 P0000 FZRANO $", "KPVW 031135Z AUTO 24008KT 10SM CLR 06/M11 A2971 RMK AO2 T00641109", "KPWA 031053Z AUTO 18012KT 7SM CLR 14/13 A2958 RMK AO2 SLP005 T01440133", "KPWC 031135Z AUTO 27006KT 10SM OVC020 01/M03 A2968 RMK AO2", "KPWD 031135Z AUTO 35010KT 4SM UP FEW016 OVC023 M07/M08 A2977 RMK AO2", "KPWG 031056Z AUTO 18009KT 9SM CLR 21/19 A2973 RMK AO2 SLP059 T02060194", "KPWK 031052Z 36007KT 10SM CLR 09/01 A2978 RMK AO2 SLP085 T00940006", "KPWM 031151Z 00000KT 10SM SCT250 M01/M08 A3019 RMK AO2 SLP225 T10111083 11011 21061 53019", "KPWT 031139Z AUTO 23005KT 1/2SM FG OVC002 01/01 A3000 RMK AO2 RAE20 P0000 FZRANO", "KPXE 031135Z AUTO 25004KT 10SM CLR 12/10 A3002 RMK AO2 T01190099", "KPYM 031052Z AUTO 00000KT 10SM CLR M04/M08 A3017 RMK AO2 SLP221 T10441078", "KPZQ 031135Z AUTO 26009G17KT 10SM CLR 06/01 A2965 RMK AO2 T00560012", "KQAZ 031055Z AUTO VRB03KT 9999 CLR 33/M14 A2990 RMK AO2 SLP122 WND DATA ESTMD T03341141", "KQBL 031110Z AUTO VRB03KT 3SM BR SCT002 22/22 A2993 RMK AO2 LTG DSNT N SLP141 WND DATA ESTMD", "KQD3 031134Z AUTO 08008G15KT 050V140 9999 SCT210 33/22 A2974 RMK AO2 SLP055 WND DATA ESTMD", "KQDG 031055Z AUTO 00000KT 9999 CLR 04/02 A3024 RMK AO2 SLP242 T00430022 $", "KQEI 031150Z AUTO 09001KT 9999 CLR 14/02 A3022 RMK A02 TSNO", "KQEJ 031150Z AUTO 00000KT 9999 CLR 13/00 A3020 RMK A02 TSNO", "KQEN 031150Z AUTO 03002KT 9999 CLR 09/M02 A3029 RMK A02 TSNO", "KQEP 031150Z AUTO 12006G12KT 9999 CLR 20/M02 A3020 RMK A02 TSNO", "KQEQ 031150Z AUTO 14003KT 9999 CLR 16/02 A3021 RMK A02 TSNO", "KQER 031140Z AUTO 07001KT 9999 CLR 16/01 A3016 RMK A02 TSNO", "KQES 031140Z AUTO 08001KT 9999 CLR 18/M00 A3025 RMK A02 TSNO", "KQEV 031150Z AUTO 12004KT 9999 CLR 19/M01 A3014 RMK A02 TSNO", "KQEW 031150Z AUTO 07004KT 9999 CLR 16/M04 A3024 RMK A02 TSNO", "KQEX 031150Z AUTO 04002KT 9999 CLR 15/M04 A3017 RMK A02 TSNO", "KQEY 031150Z AUTO 21001KT 9999 CLR 16/M02 A2991 RMK A02 TSNO", "KQFB 031150Z AUTO 01003KT 9999 CLR 14/04 A3031 RMK A02 TSNO", "KQFT 031150Z AUTO 18002KT 9999 CLR 17/00 A3018 RMK A02 TSNO", "KQFU 031150Z AUTO 18001KT 9999 CLR 17/M01 A3022 RMK A02 TSNO", "KQFV 031150Z AUTO 30001KT 9999 CLR 13/01 A3024 RMK A02 TSNO", "KQFW 031150Z AUTO 10001KT 9999 CLR 13/01 A3005 RMK A02 TSNO", "KQFX 031150Z AUTO 16003KT 9999 CLR 19/M03 A3018 RMK A02 TSNO", "KQHY 031137Z AUTO 18004KT 5SM BR BKN004 22/22 A2992 RMK AO2 BKN V SCT SLP138", "KQN3 031055Z 09005G12KT 9000 HZ CLR 37/M10 A2984 RMK AO2A SLP093 WND DATA ESTMD T03701096", "KQRH 031055Z AUTO 08010G15KT 050V120 9999 CLR 32/24 A2970 RMK AO2 SLP060 WND DATA ESTMD T03170240", "KQTZ 031055Z VRB07KT 9999 FEW060 24/08 A3002 RMK SLP167", "KQVF 031105Z AUTO 15010G16KT 9999 CLR 32/23 A2977 RMK AO2 WSHFT 1055 SLP083 WND DATA ESTMD", "KRAC 031053Z AUTO 29005KT 10SM CLR 08/00 A2980 RMK AO2 SLP093 T00780000", "KRAL 031053Z AUTO 00000KT 10SM OVC011 11/09 A2992 RMK AO2 SLP120 T01060089", "KRAP 031052Z AUTO 00000KT 10SM OVC090 M01/M06 A2977 RMK AO2 SLP092 T10061061 $", "KRAS 031135Z AUTO 16009KT 4SM BR SCT006 OVC013 23/22 A2978 RMK AO2 T02280221", "KRAW 031135Z AUTO 13004KT 10SM CLR 08/06 A2969 RMK AO2", "KRBD 031053Z AUTO 20011KT 7SM CLR 20/19 A2967 RMK AO2 SLP041 T02000194", "KRBG 031145Z AUTO 00000KT 3SM -SN BR SCT007 OVC013 01/M01 A3012 RMK AO2 RAB18E28SNB28 P0003 T00061006", "KRBL 031054Z AUTO 30008KT 10SM CLR 06/M04 A3004 RMK AO2 SLP171 T00611044 $", "KRBO 031135Z AUTO 13005KT 5SM BR OVC010 22/22 A2976 RMK AO2 T02230218", "KRBW 031135Z AUTO 00000KT 10SM CLR 11/11 A3007 RMK AO2", "KRCA 031055Z 00000KT 10SM BKN100 01/M10 A2974 RMK SLP085 T00081098 $", "KRCE 031135Z AUTO 19013G21KT 2SM BR 15/14 A2957 RMK AO2", "KRCM 031155Z AUTO 04003KT 10SM CLR 09/06 A2968 RMK AO2", "KRCR 031135Z AUTO 00000KT 10SM CLR 04/03 A2984 RMK AO2", "KRCV 031135Z AUTO 24019G23KT 10SM CLR 04/M10 A2976 RMK AO2 T00401102", "KRCX 031135Z AUTO 00000KT 10SM CLR M04/M04 A2971 RMK AO2 T10381038", "KRCZ 031155Z AUTO 00000KT 10SM CLR 09/08 A3011 RMK AO2 T00930084 10103 20089", "KRDD 031053Z AUTO 30008KT 10SM CLR 06/M04 A3001 RMK AO2 SLP163 T00611039", "KRDG 031054Z 00000KT 10SM CLR M01/M07 A3016 RMK AO2 SLP220 T10061072", "KRDK 031135Z AUTO 10009G14KT 10SM OVC070 09/M05 A2972 RMK AO2", "KRDM 031056Z AUTO 28010KT 10SM FEW080 BKN100 M02/M07 A2989 RMK AO2 SLP135 T10171072", "KRDR 031135Z 34012KT 10SM OVC007 M04/M05 A2968 RMK AO2A SLP066 $", "KRDU 031151Z 00000KT 10SM FEW150 BKN250 09/07 A3012 RMK T00890072", "KREG 031135Z AUTO 21006KT 10SM OVC013 24/22 A2985 RMK AO2 T02370224", "KREO 031152Z AUTO 28003KT M02/M07 A2977 RMK AO1 SLP090 70002 T10221067 11006 21028 $", "KRFD 031054Z 00000KT 10SM OVC100 03/01 A2979 RMK AO2 SLP092 T00280011 $", "KRFI 031135Z AUTO 17006KT 10SM OVC010 23/18 A2976 RMK AO2 T02250178", "KRGA 031135Z AUTO 15005KT 10SM CLR 08/02 A2996 RMK AO2", "KRGK 031135Z AUTO 28003KT 10SM CLR 02/M02 A2972 RMK AO2", "KRHI 031053Z AUTO 23006KT 10SM CLR M01/M03 A2964 RMK AO2 SLP052 T10111033", "KRIC 031054Z 15005KT 10SM BKN300 06/02 A3012 RMK AO2 SLP204 T00560022", "KRID 031155Z AUTO 16007KT 10SM BKN120 03/01 A2986 RMK AO2", "KRIL 031053Z AUTO 08003KT 10SM CLR 03/M05 A2959 RMK AO2 SLP983 T00331050", "KRIV 031055Z 17005KT 10SM SCT020 OVC025 09/09 A2991 RMK AO2A SLP124 T00930091 VISNO RWY14 $", "KRIW 031129Z AUTO 11009KT 1 1/4SM -SN BR BKN003 OVC011 M04/M05 A2969 RMK AO2 P0002 T10441050", "KRKD 031056Z AUTO 26003KT 10SM CLR M05/M08 A3017 RMK AO2 SLP217 T10501078 FZRANO", "KRKP 031053Z AUTO 18008G16KT 4SM BR OVC006 23/22 A2975 RMK AO2 SLP076 T02330222", "KRKR 031135Z AUTO 00000KT 10SM OVC022 13/12 A2968 RMK AO2", "KRKS 031136Z AUTO 06013KT 2SM -SN BR OVC027 M06/M06 A2960 RMK AO2 P0001 T10561061", "KRKW 031135Z AUTO 00000KT 10SM CLR 11/01 A2998 RMK A01", "KRLD 031135Z AUTO 24009KT 10SM -SN OVC035 03/01 A2989 RMK AO2 T00320012", "KRME 031053Z 11007KT 10SM OVC090 M01/M09 A3006 RMK AO2 SLP181 T10111089", "KRMG 031053Z AUTO 02003KT 10SM CLR 11/06 A2996 RMK AO2 SLP140 T01060061", "KRMN 031135Z AUTO 00000KT 10SM CLR 04/03 A3014 RMK AO2 T00440025", "KRMY 031135Z AUTO 22005KT 10SM CLR 06/02 A2981 RMK AO2 T00600015", "KRNC 031135Z AUTO 00000KT 10SM FEW060 FEW075 OVC100 14/04 A2992 RMK A01", "KRND 031150Z AUTO 17004KT 10SM OVC008 21/21 A2973 RMK AO2 CIG 007 RWY15R SLP059", "KRNH 031135Z AUTO 23004KT 10SM CLR M01/M01 A2971 RMK AO2 T10151015", "KRNM 031148Z AUTO 26008KT 9SM -RA FEW009 BKN014 OVC025 09/08 A2993 RMK AO2 RAB14 P0000 $", "KRNO 031149Z 34004KT 5SM -SN BKN038 OVC065 M02/M06 A2982 RMK AO2 SNB18 P0000", "KRNP 031135Z AUTO 22007KT 10SM CLR 07/01 A2978 RMK AO2 T00710012", "KRNT 031148Z AUTO 00000KT 8SM -RA SCT007 OVC015 02/01 A3001 RMK AO2 UPE1057B28E48RAB37 P0000", "KROA 031054Z 00000KT 10SM CLR 03/M01 A3010 RMK AO2 SLP195 T00281006", "KROC 031054Z 19008KT 10SM FEW110 03/M07 A2991 RMK AO2 SLP136 T00331072", "KROG 031058Z 14011KT 10SM CLR 13/11 A2968 RMK AO2 SLP039 T01330111", "KROS 031135Z AUTO 26004KT 10SM CLR 03/M02 A2968 RMK AO2 T00251017", "KROW 031151Z AUTO 23008KT 10SM CLR 11/M14 A2974 RMK AO2 SLP016 T01061144 10183 20083 56007", "KROX 031135Z AUTO 02016KT 10SM OVC005 01/00 A2964 RMK AO2", "KRPD 031155Z AUTO 23007KT 10SM CLR 00/M01 A2970 RMK AO2 T00001015 10012 21036", "KRPH 031135Z AUTO 00000KT 10SM CLR 09/07 A2966 RMK AO2 T00870074 $", "KRPJ 031135Z AUTO 07003KT 10SM SCT100 04/02 A2978 RMK AO2 T00390019 TSNO", "KRPX 031055Z AUTO 21007KT 10SM M05/M11 A2970 RMK Roundup ", "KRQB 031135Z AUTO 26008KT 10SM OVC110 06/00 A2977 RMK AO2 T00621001", "KRQE 031053Z AUTO 17004KT 10SM CLR 03/M09 A2984 RMK AO2 SLP033 T00281089", "KRQO 031135Z AUTO 18011KT 12/ A2959 RMK AO2 PWINO T0124////", "KRRL 031155Z AUTO 21004KT 10SM CLR 00/M01 A2968 RMK AO2 T00011015 10025 21015 TSNO", "KRRT 031135Z AUTO 02013G18KT 10SM OVC008 M02/M04 A2966 RMK AO2", "KRSL 031117Z AUTO 04014G21KT 10SM BKN018 OVC031 11/02 A2953 RMK AO2 T01060017", "KRSN 031135Z AUTO 00000KT 10SM BKN017 OVC023 18/18 A2978 RMK AO2 CIG 015V020 P0004 T01780178 $", "KRSP 031054Z AUTO 16012G23KT 10SM CLR A3004 RMK AO2 SLPNO $", "KRST 031054Z 24007KT 10SM CLR 02/M01 A2973 RMK AO2 SLP074 T00221006 $", "KRSW 031142Z 00000KT 1 1/2SM BR FEW002 21/21 A3004 RMK AO2 T02060206", "KRTN 031053Z AUTO 28009KT 10SM CLR 08/M11 A2969 RMK AO2 SLP986 T00781111", "KRTS 031135Z AUTO 29008G19KT 1 3/4SM -SN OVC003 M04/M06 A2981 RMK AO2", "KRUE 031053Z AUTO 15003KT 10SM OVC011 16/14 A2975 RMK AO2 SLP067 T01610139", "KRUG 031135Z AUTO 01008KT 10SM BKN048 OVC060 M08/M09 A2976 RMK AO2", "KRUQ 031145Z AUTO 00000KT 10SM CLR 05/04 A3009 RMK AO2 T00500035", "KRUT 031056Z AUTO 14006KT 10SM BKN095 M04/M12 A3011 RMK AO2 SLP200 T10391117 FZRANO $", "KRVF 031135Z AUTO 00000KT 10SM CLR M07/M10 A2972 RMK AO2", "KRVJ 031135Z AUTO 00000KT 10SM CLR 12/11 A3004 RMK AO2 T01170106", "KRVL 031135Z AUTO 00000KT 9SM CLR M01/M05 A3006 RMK AO2", "KRVS 031124Z AUTO 18009KT 10SM OVC009 16/13 A2960 RMK AO2 T01560133", "KRWF 031053Z AUTO 24006KT 10SM CLR 01/M04 A2976 RMK AO2 SLP087 T00061039", "KRWI 031053Z AUTO 00000KT 10SM CLR 05/03 A3011 RMK AO2 SLP195 T00500033", "KRWL 031134Z AUTO 07003KT 7SM OVC009 M04/M06 A2961 RMK AO2 SNE14 P0000 T10391061", "KRWV 031135Z AUTO 19008KT 10SM OVC013 22/20 A2977 RMK AO2 T02230200", "KRXE 031053Z AUTO 04005KT 10SM CLR M06/M09 A2966 RMK AO2 SLP069 T10611089", "KRYM 031055Z AUTO 27014KT 10SM OVC024 02/M02 A2963 RMK AO2 SLP047 T00151021 $", "KRYV 031135Z AUTO 00000KT 10SM BKN120 04/M03 A2975 RMK AO2 T00411026", "KRYW 031135Z AUTO 18003KT 7SM OVC009 21/20 A2978 RMK AO2 T02050197", "KRYY 031150Z 00000KT 10SM FEW055 SCT080 BKN110 11/07 A3000 RMK AO2 SLP152 T01110067 10117 20094 53000 $", "KRZL 031135Z AUTO 15003KT 10SM CLR 03/02 A2983 RMK AO2", "KRZN 031135Z AUTO 26007KT 10SM CLR 01/M03 A2968 RMK AO2 T00051035", "KRZR 031135Z AUTO 00000KT 10SM FEW095 SCT120 10/07 A2996 RMK A01", "KRZT 031135Z AUTO 17005KT 10SM SCT120 03/00 A2993 RMK AO2 PWINO", "KS21 031135Z AUTO 21004KT 10SM FEW016 SCT023 BKN030 M06/M07 A2991 RMK AO2", "KS24 031135Z AUTO 20015KT 10SM CLR 07/00 A2984 RMK AO2", "KS25 031135Z AUTO 28013KT 10SM OVC016 M04/M04 A2977 RMK AO2", "KS32 031135Z AUTO 32015KT 10SM OVC009 M04/M03 A2972 RMK AO2 TSNO", "KS33 031135Z AUTO 15004KT 10SM BKN090 A2994 RMK AO2", "KS34 031055Z AUTO 00000KT 10SM M04/M19 A2981 RMK Plains ", "KS39 031135Z AUTO 27004KT 10SM BKN033 BKN042 OVC048 M03/M07 A2989 RMK AO2", "KS52 031135Z AUTO 01003KT 10SM SCT055 SCT070 OVC110 M05/M06 A2989 RMK AO2 T10491064", "KS71 031145Z AUTO 00000KT 10SM M06/M06 A2983 ", "KS85 031140Z AUTO 27006KT 10SM OVC014 M05/M06 A2979 RMK A01 Culbertson ", "KSAA 031135Z AUTO 25004KT 10SM OVC004 M03/M03 A2960 RMK AO2", "KSAD 031151Z AUTO 11003KT 10SM CLR 06/M09 A2983 RMK AO2 SLP073 T00561089 10111 20044 56010 $", "KSAF 031053Z AUTO 00000KT 10SM CLR 05/M11 A2986 RMK AO2 SLP044 T00501106 $", "KSAN 031151Z 25004KT 10SM SCT022 OVC032 13/08 A2998 RMK AO2 SLP150 T01330078 10150 20128 56014", "KSAR 031135Z AUTO 13007KT 10SM -RA OVC065 13/10 A2982 RMK AO2 LTG DSNT SW AND NW T01270098", "KSAT 031151Z 20004KT 10SM OVC010 22/20 A2977 RMK AO2 SLP061 T02220200 10228 20206 53004", "KSAV 031053Z 00000KT 10SM SCT180 SCT250 13/11 A3005 RMK AO2 SLP174 T01330111", "KSAW 031147Z 24007KT 10SM CLR M01/M02 A2960", "KSAZ 031135Z AUTO 28012KT 10SM SCT022 OVC030 01/M03 A2967 RMK AO2", "KSBA 031053Z 01006KT 10SM CLR 11/06 A2992 RMK AO2 SLP132 T01060056 $", "KSBD 031140Z AUTO 14004KT 10SM OVC033 11/06 A2990 RMK AO2 T01130060", "KSBM 031053Z AUTO 22007KT 10SM OVC100 06/M01 A2975 RMK AO2 SLP079 T00611011", "KSBN 031054Z 00000KT 10SM CLR 05/01 A2982 RMK AO2 SLP101 T00500006", "KSBO 031135Z AUTO 00000KT 10SM SCT120 12/12 A3004 RMK AO2", "KSBP 031056Z AUTO 33003KT 10SM OVC038 09/07 A3002 RMK AO2 SLP165 T00940072", "KSBS 031135Z AUTO 10005KT 10SM BKN090 BKN110 01/M05 A2955 RMK AO1 T00121046", "KSBY 031054Z 11005KT 10SM CLR 01/M01 A3015 RMK AO2 SLP213 T00061006 $", "KSCD 031135Z AUTO 00000KT 3SM +VCTSRA SCT040 BKN050 OVC070 12/11 A2996 RMK AO2 LTG DSNT E THRU SW P0019 T01170109", "KSCK 031055Z AUTO 28012KT 10SM SCT060 BKN080 OVC090 07/01 A3003 RMK AO2 SLP170 T00720011", "KSCR 031145Z AUTO 00000KT 10SM CLR 06/06 A3012 RMK AO2 T00620062", "KSCX 031135Z AUTO 19005KT 10SM CLR 12/01 A2996 RMK A01", "KSDA 031135Z AUTO 08008G14KT 10SM OVC065 10/M05 A2971 RMK AO2", "KSDC 031135Z AUTO 16008G14KT 10SM CLR 02/M08 A2995 RMK AO2", "KSDF 031056Z 13005KT 10SM FEW085 BKN190 OVC250 10/02 A2988 RMK AO2 SLP119 T01000022", "KSDL 031053Z AUTO 00000KT 10SM CLR 13/01 A2979 RMK AO2 SLP072 T01280006", "KSDM 031136Z AUTO 26008KT 6SM BR SCT005 BKN009 OVC025 11/09 A2996 RMK AO2 T01060089", "KSDY 031056Z AUTO 29008KT 10SM OVC019 M04/M07 A2980 RMK AO2 SLP118 T10441067 FZRANO", "KSEA 031151Z 02004KT 6SM -RASN FEW005 BKN008 OVC015 02/01 A2999 RMK AO2 SNB51 P0001", "KSEE 031135Z AUTO 26006KT 9SM FEW013 SCT022 BKN030 11/09 A2995 RMK AO2", "KSEF 031135Z AUTO 05003KT 4SM HZ CLR 19/ A3004 RMK AO2 T0193////", "KSEG 031053Z AUTO 33004KT 10SM CLR M03/M05 A3011 RMK AO2 SLP199 T10281050", "KSEM 031135Z AUTO 05007KT 5SM VCTS RA OVC015 13/13 A2987 RMK AO2 LTG DSNT ALQDS", "KSEP 031135Z AUTO 19004KT 1/4SM OVC001 15/15 A2974 RMK AO2 T01530147", "KSEQ 031055Z AUTO 19006KT 10SM OVC009 21/21 A2973 RMK AO2 SLP063 T02090207", "KSET 031054Z AUTO 09006KT 10SM BKN075 09/07 A2974 RMK AO2 SLP068 T00940067", "KSEZ 031135Z AUTO 19009KT 10SM CLR 10/M05 A2983 RMK AO2", "KSFB 031148Z 00000KT 10SM FEW022 SCT027 BKN035 22/20 A3004 RMK AO2 $", "KSFF 031053Z AUTO 23004KT 8SM -SN BKN044 OVC060 01/M01 A2981 RMK AO2 SLP105 P0000 T00061006", "KSFM 031056Z AUTO 00000KT 10SM CLR M07/M08 A3017 RMK AO2 SLP222 T10721083 FZRANO", "KSFO 031056Z 30013G23KT 10SM FEW028 08/00 A3010 RMK AO2 SLP192 T00830000", "KSFQ 031135Z AUTO 13004KT 10SM CLR 08/05 A3016 RMK AO2 T00810047", "KSFZ 031056Z AUTO 00000KT 10SM CLR M03/M11 A3017 RMK AO2 SLP220 T10281111 FZRANO", "KSGF 031052Z 15015KT 10SM CLR 13/10 A2966 RMK AO2 SLP036 T01330100", "KSGH 031056Z AUTO 18007KT 10SM CLR 06/00 A2988 RMK AO2 SLP124 T00610000", "KSGJ 031056Z 33003KT 10SM CLR 18/17 A3004 RMK AO2 SLP173 T01780167 $", "KSGR 031053Z 19007KT 10SM FEW016 OVC021 23/22 A2977 RMK AO2 SLP082 T02330217 $", "KSGS 031135Z AUTO 26009G14KT 10SM CLR 03/M02 A2973 RMK AO2 T00331022", "KSGT 031056Z AUTO 16007KT 10SM OVC007 15/14 A2980 RMK AO2 SLP088 T01500144", "KSGU 031056Z AUTO 20010G15KT 10SM CLR 15/M03 A2956 RMK AO2 SLP987 T01501028", "KSHD 031135Z AUTO 00000KT 10SM CLR M01/M01 A3011 RMK AO2 T10101015", "KSHL 031135Z AUTO 00000KT 10SM BKN080 BKN095 OVC110 02/00 A2974 RMK AO2", "KSHM 031055Z AUTO 34005KT 10SM CLR 01/M06 A2967 RMK AO2 SLP014 T00111056 $", "KSHN 031146Z AUTO 31003KT 1SM BR VV003 01/01 A2999 RMK AO2 T00060006", "KSHR 031053Z AUTO 23003KT 10SM CLR M03/M10 A2974 RMK AO2 SLP098 T10331100", "KSHV 031104Z 00000KT 4SM BR FEW012 OVC019 17/16 A2975", "KSIF 031145Z AUTO 00000KT 10SM CLR 03/03 A3011 RMK AO2 T00320026", "KSIK 031135Z AUTO 00000KT 10SM CLR 15/12 A2983 RMK AO2", "KSIY 031053Z AUTO 00000KT 10SM BKN060 M02/M06 A3001 RMK AO2 SLP182 T10171061", "KSJC 031053Z AUTO 30015G23KT 10SM CLR 08/00 A3008 RMK AO2 SLP185 T00780000 $", "KSJS 031135Z AUTO 00000KT 10SM CLR 08/00 A3000 RMK AO2 T00830002", "KSJT 031151Z 27004KT 10SM CLR 10/M05 A2975 RMK AO2 SLP059 T01001050 10150 20089 53004", "KSJX 031135Z AUTO 23010KT 10SM CLR 03/01 A2967 RMK AO2 T00250005", "KSKA 031136Z 32005KT 9SM -SN BKN013 BKN018 OVC031 M01/M03 A2977 RMK AO2A SNE1056B07 CIG 013V031 BKN013 V SCT SLP102", "KSKF 031055Z 15006KT 7SM OVC008 22/20 A2973 RMK AO2A SLP060 T02150201", "KSKX 031056Z AUTO VRB03KT 10SM CLR 04/M11 A2987 RMK AO2 SLP076 T00441111", "KSLB 031135Z AUTO 14006KT 10SM OVC100 05/M03 A2975 RMK AO2", "KSLC 031107Z 29007KT 1/2SM R16L/P6000FT -SN BR OVC005 01/00 A2964 RMK AO2 SFC VIS 1 1/4 P0001 T00060000 $", "KSLE 031135Z AUTO 17004KT 10SM SCT031 SCT070 BKN095 01/00 A3006 RMK AO2 RAE00UPB00E04 P0000 T00110000", "KSLG 031112Z AUTO 14007KT 10SM BKN021 14/13 A2966 RMK AO2", "KSLH 031135Z AUTO 24011G14KT 10SM CLR 04/01 A2965 RMK AO2", "KSLI 031055Z AUTO 00000KT 10SM FEW024 OVC035 11/09 A2990 RMK AO2 SLP128 T01120088", "KSLK 031151Z AUTO 00000KT 10SM BKN048 OVC065 M03/M09 A2996 RMK AO2 SLP167 T10331094 11033 21106 53002", "KSLN 031053Z AUTO 07008KT 10SM FEW025 OVC031 13/03 A2954 RMK AO2 SLP993 T01330033", "KSLO 031135Z AUTO 16009KT 10SM BKN070 BKN110 14/10 A2980 RMK AO2 T01400098", "KSLR 031135Z AUTO 19009KT 7SM OVC012 19/19 A2973 RMK AO2 T01920191", "KSMD 031135Z AUTO 00000KT 10SM CLR 04/02 A2985 RMK A01", "KSME 031135Z AUTO 00000KT 10SM CLR 10/02 A2993 RMK AO2", "KSMF 031053Z 31005KT 10SM CLR 05/00 A3003 RMK AO2 SLP170 T00500000", "KSMN 031056Z AUTO 36003KT 10SM OVC085 M03/M08 A2970 RMK AO2 SLP763 T10331083 FZRANO", "KSMO 031151Z AUTO 25005KT 10SM BKN026 BKN034 11/08 A2991 RMK AO2 SLP128 T01110078 10128 20111 58010", "KSMP 031147Z AUTO 3/4SM BR VV003 M04/M06 A2981 RMK AO2 SNE09 P0000 T10441056", "KSMQ 031053Z AUTO 30003KT 10SM CLR M03/M06 A3017 RMK AO2 PRESRR SLP219 T10331056", "KSMS 031135Z AUTO 00000KT 9SM CLR 09/09 A3008 RMK AO2", "KSMX 031151Z AUTO 32008KT 9SM FEW027 BKN047 09/07 A3002 RMK AO2 SLP168 T00890072 10100 20089 55004", "KSNA 031053Z AUTO 20004KT 10SM OVC036 13/08 A2993 RMK AO2 SLP134 T01280078", "KSNC 031135Z AUTO 00000KT 10SM CLR 01/M11 A3019 RMK AO2", "KSNH 031130Z AUTO 15004KT 10SM OVC055 14/14 A2983 RMK A01", "KSNK 031155Z AUTO 24004KT 10SM CLR 10/M13 A2974 RMK AO2 T01011129", "KSNL 031135Z AUTO 19012KT 10SM OVC008 16/15 A2960 RMK AO2 T01570146", "KSNS 031053Z AUTO 30009KT 10SM FEW075 09/03 A3008 RMK AO2 SLP195 T00890028", "KSNT 031151Z AUTO 00000KT M09/M12 A2962 RMK AO1 SLP036 P0001 60001 70005 T10941117 11078 21150 56004", "KSNY 031053Z AUTO 35010KT 10SM CLR 02/M04 A2968 RMK AO2 SLP044 T00171039", "KSOA 031135Z AUTO 10SM 07/M03 A2983 RMK AO2", "KSOP 031056Z AUTO 00000KT 10SM CLR 06/06 A3010 RMK AO2 SLP197 T00610056 TSNO PNO $", "KSOW 031135Z AUTO 18013G18KT 10SM CLR 06/M11 A2989 RMK AO2", "KSPA 031135Z AUTO 00000KT 10SM CLR 07/05 A3005 RMK AO2", "KSPB 031053Z AUTO 00000KT 10SM OVC037 02/00 A3003 RMK AO2 UPB06E16RAB16E17 SLP170 P0000 T00170000", "KSPD 031056Z AUTO 31008KT 01/M08 A2964 RMK AO1 SLP998 T00061078 $", "KSPF 031135Z AUTO 21005KT 10SM SCT120 M02/M09 A2977 RMK AO2", "KSPG 031131Z 00000KT 7SM FEW009 23/22 A3000 RMK AO2 T02280217", "KSPI 031052Z 08004KT 10SM SCT090 08/05 A2977 RMK AO2 SLP079 T00780050 $", "KSPS 031052Z 19010KT 10SM CLR 09/07 A2961 RMK AO2 SLP019 T00940072 $", "KSPW 031053Z AUTO 35006KT 10SM OVC110 04/M01 A2975 RMK AO2 SLP079 T00441006", "KSQI 031056Z AUTO 03005KT 10SM FEW120 07/M01 A2979 RMK AO2 SLP955 T00671006", "KSQL 031135Z AUTO 30013KT 8SM CLR 08/M01 A3010 RMK AO2", "KSRB 031135Z AUTO 00000KT 10SM FEW046 SCT075 BKN100 13/04 A2992 RMK AO2", "KSRC 031056Z AUTO 16004KT 10SM OVC009 16/14 A2979 RMK AO2 SLP085 T01560144", "KSRE 031135Z AUTO 18008G18KT 130V200 10SM OVC007 17/15 A2961 RMK AO2", "KSRQ 031053Z 00000KT 7SM CLR 20/19 A3000 RMK AO2 SLP159 T02000194", "KSRR 031135Z AUTO 25018G24KT 10SM 11/M17 A2988 RMK AO2", "KSSC 031127Z 04003KT 10SM FEW150 BKN200 09/08 A3005 RMK AO2A", "KSSF 031124Z AUTO 15005KT 9SM OVC010 22/ A2973 RMK AO2 CIG 008V013 T0222 $", "KSSI 031053Z AUTO 01003KT 10SM CLR 17/13 A3003 RMK AO2 SLP170 T01720133", "KSTC 031053Z AUTO 27010KT 10SM CLR 01/M03 A2968 RMK AO2 SLP067 T00061033", "KSTE 031135Z AUTO 22003KT 10SM CLR 03/M02 A2972 RMK AO2 T00251023", "KSTF 031135Z AUTO 16005KT 10SM OVC005 19/19 A2982 RMK AO2", "KSTJ 031053Z AUTO 08008KT 10SM OVC047 12/M05 A2969 RMK AO2 SLP049 T01171050", "KSTK 031135Z AUTO 00000KT 10SM CLR M01/M03 A2969 RMK AO2", "KSTL 031151Z 17009KT 10SM BKN070 16/08 A2977 RMK AO2 SLP073 T01560083 10172 20122 52013 $", "KSTP 031053Z 27005KT 10SM CLR 02/M03 A2972 RMK AO2 SLP068 T00221028", "KSTS 031053Z AUTO 00000KT 10SM CLR 05/00 A3011 RMK AO2 SLP189 T00500000", "KSUA 031147Z 18004KT 10SM SCT070 24/21 A3005", "KSUE 031056Z AUTO 26008KT 10SM CLR 04/M02 A2971 RMK AO2 SLP063 T00441017", "KSUN 031135Z AUTO 32006KT 7SM BKN031 OVC037 M03/M03 A2964 RMK AO2", "KSUS 031054Z 15005KT 10SM BKN070 14/07 A2974 RMK AO2 LTG DSNT SE SLP066 T01440067", "KSUT 031150Z AUTO 00000KT 10SM CLR 10/09 A3014 RMK AO2 T00970086 10097 20077", "KSUU 031055Z AUTO 26007KT 10SM CLR 05/M01 A3003 RMK AO2 SLP176 T00461010 $", "KSUW 031135Z AUTO 24008KT 10SM SCT050 OVC070 01/M03 A2964 RMK AO2 T00051030", "KSUX 031052Z 11003KT 10SM OVC100 05/00 A2973 RMK AO2 SLP069 T00500000", "KSUZ 031135Z AUTO 18007KT 10SM OVC003 15/15 A2977 RMK A01", "KSVC 031135Z AUTO 33009KT 10SM CLR 04/M12 A2992 RMK AO2 T00351125", "KSVE 031155Z AUTO 31007G14KT 10SM SCT038 BKN070 M02/M08 A2987 RMK AO2", "KSVH 031145Z AUTO 03003KT 10SM CLR 06/03 A3008 RMK AO2 T00610028", "KSVN 031055Z COR 00000KT 10SM FEW200 13/12 A3002 RMK AO2A SLP169 T01310120 $ COR 1130", "KSWF 031145Z 00000KT 10SM SKC M01/M06 A3017", "KSWO 031053Z AUTO 19013KT 10SM SCT010 17/15 A2955 RMK AO2 SLP996 T01670150", "KSWW 031135Z AUTO 23012KT 10SM CLR 14/M12 A2975 RMK AO2 T01391125", "KSXK 031135Z AUTO 03006KT 10SM SCT075 BKN085 OVC110 05/00 A2975 RMK AO2", "KSXS 031150Z AUTO 17005KT 9SM SCT006 BKN011 18/16 A2991 RMK AO2 LTG DSNT W-NW CIG 006V011 SLP128", "KSXT 031148Z AUTO 10SM BKN002 OVC008 M04/M06 A2997 RMK AO2 SNE19 P0000 T10441056", "KSXU 031135Z AUTO 17005KT 10SM CLR 08/M13 A2976 RMK AO2 T00771131", "KSYF 031135Z AUTO 00000KT 10SM CLR 00/M02 A2969 RMK AO2 T00031024 PWINO", "KSYI 031135Z AUTO 22009KT 7SM FEW034 SCT050 BKN065 14/08 A2993 RMK A01", "KSYM 031135Z AUTO 16006KT 10SM CLR 07/M00 A2997 RMK AO2", "KSYN 031135Z AUTO 27008KT 10SM CLR 02/M01 A2974 RMK AO2 T00231015", "KSYR 031054Z 09009KT 10SM BKN075 BKN140 01/M08 A2999 RMK AO2 SLP158 T00111083 $", "KSZL 031055Z 07005KT 10SM CLR 11/08 A2966 RMK AO2A SLP042 T01080084 $", "KSZT 031135Z AUTO 00000KT 10SM CLR M02/M03 A2981 RMK AO2", "KSZY 031135Z AUTO 15007KT 10SM 14/13 A2982 RMK A01", "KT20 031135Z AUTO 18006KT 10SM OVC010 23/21 A2976 RMK AO2 T02300211", "KT35 031135Z AUTO 20007KT 10SM OVC011 22/20 A2975 RMK AO2 T02160203", "KT41 031135Z AUTO 19009KT 7SM SCT014 OVC022 24/22 A2979 RMK AO2 T02360222", "KT69 031135Z AUTO 18003KT 4SM BR CLR 22/22 A2976 RMK A01", "KT70 031055Z AUTO 09004KT 10SM CLR 19/17 A2971 RMK AO2 SLP047 T01880173 $", "KT74 031135Z AUTO 19008KT 7SM OVC009 22/20 A2976 RMK AO2 T02160198", "KT78 031135Z AUTO 20005G11KT 5SM BR SCT010 BKN013 OVC022 23/23 A2979 RMK AO2", "KT82 031135Z AUTO 00000KT 7SM OVC008 18/17 A2978 RMK AO2 T01800174", "KT89 031135Z AUTO 33004KT 10SM FEW039 FEW047 SCT055 11/M04 A2980 RMK A01", "KTAD 031054Z AUTO 28005KT 10SM CLR M01/M11 A2969 RMK AO2 SLP010 T10111106", "KTAN 031052Z AUTO A3018 RMK AO2 SLPNO PWINO FZRANO TSNO PNO $", "KTAZ 031135Z AUTO 17007KT 10SM OVC085 11/07 A2977 RMK AO2 T01100068", "KTBN 031055Z AUTO 16006KT 10SM CLR 14/08 A2970 RMK AO2 SLP053 T01390081 $", "KTBR 031135Z AUTO 00000KT 10SM CLR 10/09 A3005 RMK AO2 T00990090", "KTCC 031053Z AUTO 24017KT 10SM CLR 11/M12 A2967 RMK AO2 SLP999 T01061117 $", "KTCM 031055Z 15003KT 10SM OVC008 01/01 A2999 RMK AO2A SLP162 T00090009 $", "KTCS 031153Z AUTO 30003KT 10SM CLR 07/M15 A2985 RMK AO2 SLP047 T00721150 10150 20061 56007 ", "KTCY 031135Z AUTO 28012KT 10SM SCT050 BKN065 BKN075 07/M00 A3004 RMK A01", "KTDF 031145Z AUTO 00000KT 10SM CLR 03/02 A3014 RMK AO2", "KTDR 031055Z AUTO 16007KT 6SM BR OVC005 20/20 A2992 RMK AO2 SLP135 T02030196 $", "KTDZ 031053Z AUTO 20007KT 10SM CLR 05/01 A2983 RMK AO2 SLP102 T00500006 $", "KTEB 031151Z 00000KT 10SM CLR 03/M06 A3020 RMK AO2 SLP226 T00281061 10033 21006 51030", "KTEW 031135Z AUTO 00000KT 10SM CLR 05/01 A2980 RMK AO2 T00450007", "KTEX 031135Z AUTO 14017G23KT 10SM SCT120 02/M11 A2978 RMK AO2", "KTFP 031055Z AUTO 19006KT 7SM OVC005 24/22 A2975 RMK AO2 T02370223", "KTGI 031155Z AUTO 16007KT 10SM CLR 10/06 A3017 RMK AO1 T00960056 10191 21056", "KTHA 031135Z AUTO 20007G12KT 10SM FEW031 SCT050 BKN060 15/06 A2993 RMK A01", "KTHV 031053Z AUTO 13004KT 10SM CLR M01/M04 A3010 RMK AO2 SLP200 T10061044", "KTIF 031135Z AUTO 00000KT 10SM CLR 00/M05 A2976 RMK AO2 T00041046", "KTIK 031148Z AUTO 19014KT 10SM SCT006 15/15 A2956 RMK AO2 SLP009 $", "KTIP 031135Z AUTO 00000KT 10SM BKN110 05/04 A2980 RMK AO2 T00510035", "KTIW 031140Z AUTO 31003KT 10SM SCT007 BKN020 OVC060 02/01 A3000 RMK AO2 T00220011 $", "KTIX 031147Z 15005KT 7SM BKN030 22/21 A3005", "KTKC 031135Z AUTO 27007KT 10SM CLR 01/M02 A2977 RMK AO2", "KTKI 031137Z 19010KT 3SM BR OVC002 19/19 A2968 RMK AO2 T01890189", "KTKV 031135Z AUTO 00000KT 10SM CLR M01/M03 A2967 RMK AO2 T10101030 PWINO", "KTKX 031135Z AUTO 15005KT 7SM BKN024 BKN029 13/13 A2981 RMK AO2", "KTLH 031116Z 00000KT 10SM OVC012 17/13 A2999 RMK AO2 T01670133", "KTMB 031053Z AUTO 00000KT 10SM SCT027 21/19 A3002 RMK AO2 SLP165 T02110194", "KTMK 031130Z AUTO 15003KT 10SM UP SCT013 BKN021 OVC065 01/00 A3009 RMK AO2 P0004", "KTMT 031135Z AUTO 36004KT 10SM -SN BKN029 OVC035 M04/M05 A2973 RMK AO2 T10371054", "KTNB 031135Z AUTO 00000KT 10SM CLR 00/00 A3009 RMK AO2 T00040000", "KTNU 031135Z AUTO 00000KT 10SM FEW048 FEW060 OVC085 04/02 A2976 RMK A01", "KTOB 031135Z AUTO 27008KT 10SM 03/M02 A2974 RMK AO2", "KTOC 031135Z AUTO 01003KT 10SM SCT110 08/03 A3002 RMK AO2 T00810031", "KTOI 031140Z AUTO 18005KT 10SM BKN011 OVC110 19/14 A2992 RMK AO2 LTG DSNT W T01890139", "KTOL 031052Z 00000KT 10SM CLR 04/01 A2981 RMK AO2 SLP099 T00440006", "KTOP 031101Z AUTO 06008KT 10SM BKN028 OVC033 13/07 A2963 RMK AO2 T01330067", "KTOR 031143Z AUTO 04012KT 1 1/4SM -SN BR OVC022 M01/M03 A2976 RMK AO2 SNE02B19 P0000 T10061028 $", "KTPA 031129Z 00000KT 4SM R19R/4000VP6000FT BR SCT002 SCT035 21/21 A3003 RMK AO2 T02110206", "KTPF 031135Z AUTO 00000KT 3/4SM BR OVC002 21/21 A3004 RMK AO2", "KTPH 031056Z AUTO 34016G23KT 10SM CLR 03/M06 A2963 RMK AO2 PK WND 34027/1003 SLP997 T00281056", "KTPL 031151Z AUTO 17009KT OVC010 21/21 A2975 RMK AO2 SLP063 70047 T02110211 10211 20206 53003 PWINO RVRNO $", "KTQE 031054Z AUTO 00000KT 10SM BKN090 OVC120 04/M02 A2973 RMK AO2 SLP064 T00391022", "KTQH 031135Z AUTO 15005KT 10SM OVC017 16/12 A2966 RMK AO2", "KTQK 031135Z AUTO 36011KT 10SM CLR 02/M02 A2963 RMK AO2 T00241023", "KTQV 031135Z AUTO 00000KT 10SM CLR 09/06 A3011 RMK A01", "KTRI 031053Z 00000KT 10SM OVC240 04/01 A3002 RMK AO2 SLP154 T00440011", "KTRK 031142Z AUTO 25003KT 1 3/4SM -SN BKN013 OVC020 M06/M08 A2980 RMK AO2 TSNO", "KTRL 031149Z AUTO 19007KT 6SM BR OVC010 20/19 A2971 RMK AO2", "KTRM 031052Z AUTO 33016G22KT 3SM HZ CLR 16/04 A2975 RMK AO2 PK WND 33026/0955 SLP077 T01560044 $", "KTSP 031135Z AUTO 31030G39KT 4SM -RA BR BKN005 OVC010 02/02 A2984 RMK AO2", "KTTA 031145Z AUTO 00000KT 10SM CLR 04/04 A3013 RMK AO2 T00420042", "KTTD 031132Z AUTO 00000KT 10SM BKN031 OVC043 04/01 A3004 RMK AO2 T00390011", "KTTF 031135Z AUTO 00000KT 10SM CLR 03/01 A2982 RMK AO2 T00310006", "KTTN 031053Z VRB03KT 10SM CLR M01/M08 A3017 RMK AO2 PRESRR SLP203 T10061083 $", "KTTS 031055Z AUTO 00000KT 8SM CLR 19/19 A2999 RMK AO2 VIS 1 1/8 RWY15 SLP160 T01900190 $", "KTUL 031053Z 16013KT 10SM OVC012 16/13 A2958 RMK AO2 SLP011 T01560133", "KTUP 031110Z 12005KT 4SM RA BR SCT006 OVC024 14/13 A2982 RMK AO2 P0005 T01440128", "KTUS 031053Z 00000KT 10SM CLR 09/M08 A2986 RMK AO2 SLP083 T00891078", "KTVC 031053Z 22007KT 10SM BKN160 07/01 A2969 RMK AO2 SLP057 T00670011", "KTVF 031120Z AUTO 33008KT 10SM FEW008 OVC015 M02/M02 A2964 RMK AO2 FZRANO", "KTVI 031135Z AUTO 18003KT 10SM CLR 15/11 A3001 RMK AO2", "KTVK 031135Z AUTO 10004KT 10SM BKN060 08/M04 A2978 RMK AO2", "KTVL 031134Z AUTO VRB03KT 7SM -SN FEW015 BKN038 BKN046 M08/M09 A2977 RMK AO2 SNB1056 P0001 T10781094", "KTVR 031053Z AUTO 00000KT 10SM FEW017 SCT021 BKN048 17/17 A2980 RMK AO2 RAB09E40 SLP098 P0002 T01720167", "KTVY 031135Z AUTO 00000KT 1 1/2SM SN OVC004 02/00 A2965 RMK AO2 P0001", "KTWF 031138Z AUTO 29010KT 1SM -SN BR SCT006 BKN009 OVC018 M01/M02 A2968 RMK AO2 P0001 T10111017", "KTWM 031135Z AUTO 26004KT 10SM SCT040 M01/M02 A2959 RMK AO2", "KTWT 031135Z AUTO 00000KT 10SM SCT060 BKN080 10/07 A2986 RMK AO2", "KTXK 031053Z 140/05KT 1/2FGSM VV002 17/16 A2975", "KTXW 031135Z AUTO 16008KT 7SM CLR 23/22 A2974 RMK AO2 T02340220", "KTYL 031135Z AUTO 19007KT 10SM CLR 04/M10 A2986 RMK AO2", "KTYQ 031135Z AUTO 18005KT 10SM CLR 06/02 A2983 RMK AO2 T00570017", "KTYR 031053Z AUTO 19007KT 9SM OVC012 21/19 A2972 RMK AO2 SLP058 T02110194 $", "KTYS 031053Z 04003KT 10SM SCT150 OVC250 07/03 A2997 RMK AO2 SLP145 T00720028", "KTZR 031145Z 18003KT 10SM CLR 03/00 A2991", "KU42 031135Z AUTO 00000KT 4SM BKN005 OVC018 02/01 A2966 RMK AO1 T00170010", "KU55 031135Z AUTO 18014G21KT 10SM SCT035 SCT041 03/M06 A2962 RMK A01", "KU64 031135Z AUTO 14025G29KT 10SM CLR 02/M07 A2970 RMK AO2 PK WND 13040/1111 T00211069 $", "KU68 031135Z AUTO 00000KT 10SM CLR M03/M08 A2973 RMK AO2", "KU69 031135Z AUTO 09005KT 10SM BKN070 OVC080 02/M03 A2950 RMK A01", "KUAO 031053Z AUTO 24005KT 10SM SCT047 BKN060 BKN100 02/01 A3006 RMK AO2 SLP178 T00220006", "KUBE 031135Z AUTO 23009KT 10SM CLR 00/00 A2969 RMK AO2", "KUCY 031135Z AUTO 17003KT 10SM SCT025 BKN030 13/11 A2983 RMK A01", "KUDG 031056Z AUTO 00000KT 10SM CLR 07/07 A3009 RMK AO2 SLP191 T00720072", "KUES 031145Z 21004KT 10SM BKN120 03/M01 A2977", "KUGN 031151Z 00000KT 10SM SCT110 07/M01 A2977 RMK AO2 SLP085 T00721006 10100 20050 51006", "KUIL 031053Z AUTO 00000KT 10SM CLR M01/M03 A2999 RMK AO2 SLP158 I1001 T10111028", "KUIN 031054Z AUTO 05009KT 10SM CLR 08/03 A2973 RMK AO2 SLP067 T00780028 $", "KUKF 031145Z AUTO 00000KT 10SM CLR 03/02 A3014 RMK AO2", "KUKI 031056Z AUTO 32006KT 10SM CLR 03/M01 A3012 RMK AO2 SLP198 T00331011", "KUKL 031135Z AUTO 00000KT 10SM OVC013 14/10 A2962 RMK AO2 T01360104", "KUKT 031135Z AUTO 00000KT 10SM CLR M02/M04 A3017 RMK A01", "KULM 031135Z AUTO 29008KT 10SM CLR 01/M03 A2976 RMK AO2", "KULS 031130Z AUTO 32008KT 10SM CLR 02/M05 A2961 RMK AO2", "KUNI 031135Z AUTO 00000KT 10SM SCT090 00/00 A2996 RMK AO2 T00031005", "KUNO 031139Z AUTO 19008G16KT 10SM OVC014 14/12 A2977 RMK AO2 T01440117", "KUNU 031155Z AUTO 00000KT 10SM OVC090 05/M02 A2975 RMK AO2 T00471022 10073 20042", "KUNV 031153Z 00000KT 10SM CLR M01/M06 A3004", "KUOX 031135Z AUTO 00000KT 9SM OVC005 13/13 A2983 RMK AO2", "KUSE 031135Z AUTO 20004KT 10SM CLR 02/02 A2983 RMK AO2", "KUTA 031135Z AUTO 16005KT 10SM OVC006 14/14 A2980 RMK AO2 T01430143 $", "KUTS 031053Z AUTO 22008KT 180V240 10SM OVC016 23/21 A2977 RMK AO2 SLP075 T02280206", "KUUU 031053Z AUTO 00000KT 10SM CLR M02/M08 A3018 RMK AO2 SLP221 T10221078 $", "KUUV 031155Z AUTO 14004KT 10SM SCT075 SCT085 12/07 A2977 RMK AO2", "KUVA 031135Z AUTO 00000KT 7SM CLR 18/18 A2977 RMK AO2 T01800180", "KUXL 031135Z AUTO 20011KT 7SM OVC005 A2983 RMK AO2", "KUYF 031135Z AUTO 23005KT 10SM CLR 01/00 A2989 RMK AO2", "KUZA 031054Z AUTO 00000KT 10SM CLR 08/07 A3005 RMK AO2 SLP173 T00780067", "KVAD 031055Z AUTO 05006KT 10SM FEW170 SCT190 15/11 A2997 RMK AO2 SLP150 T01460112 $", "KVAF 031135Z AUTO 17016KT 5SM HZ BKN012 24/22 A2984 RMK A01", "KVAY 031054Z AUTO 00000KT 10SM CLR M02/M04 A3017 RMK AO2 SLP218 T10171044", "KVBG 031055Z AUTO 33016G22KT 8SM SCT019 OVC040 09/06 A3003 RMK AO2 PK WND 33029/19 SLP173 T00900064 TSNO $", "KVBT 031127Z AUTO 15008KT 10SM BKN020 13/12 A2969 RMK AO2", "KVBW 031135Z AUTO 00000KT 10SM CLR 00/00 A3009 RMK AO1 T10041004", "KVCB 031053Z AUTO 30013G22KT 10SM CLR 07/M03 A3005 RMK AO2 SLP174 T00721028", "KVCT 031151Z 18008KT 6SM BR OVC015 23/22 A2977 RMK AO2 SLP078 T02330222 10233 20228 53003", "KVCV 031135Z AUTO 24013KT 9SM OVC012 07/04 A2987 RMK AO2", "KVDF 031135Z AUTO 00000KT 1SM BR BKN004 19/18 A3004 RMK AO2", "KVDI 031135Z AUTO 00000KT 10SM CLR 13/11 A3003 RMK AO2", "KVEL 031053Z AUTO 27003KT 10SM OVC090 02/00 A2952 RMK AO2 SLP977 T00220000", "KVER 031155Z AUTO 04005KT 10SM CLR 10/08 A2972 RMK AO2 T01040079 10260 21205", "KVES 031130Z AUTO 00000KT 10SM CLR 03/00 A2985 RMK AO2 PNO", "KVGC 031135Z AUTO 17010G17KT 10SM SCT070 00/M12 A3003 RMK AO2", "KVGT 031053Z AUTO 19021G31KT 10SM CLR 15/02 A2951 RMK AO2 PK WND 16041/1026 RAE03B25E37 SLP993 P0000 T01500017", "KVHN 031135Z AUTO 20009KT 10SM CLR 08/M16 A2991 RMK AO2 T00771159", "KVIH 031053Z AUTO 17009KT 10SM FEW070 13/07 A2972 RMK AO2 SLP056 T01330067", "KVIS 031056Z AUTO 32019G23KT 10SM OVC060 09/03 A3000 RMK AO2 SLP165 T00940028", "KVJI 031135Z AUTO 07003KT 10SM CLR 06/00 A3005 RMK AO2 T00580001", "KVKS 031135Z AUTO 00000KT 10SM SCT017 BKN022 OVC040 18/18 A2982 RMK A01", "KVKY 031135Z AUTO 19009G16KT 5SM HZ CLR A2994 RMK A01", "KVLD 031053Z 15004KT 10SM CLR 16/12 A2999 RMK AO1 SLP161 T01610117", "KVLL 031135Z AUTO 21008KT 10SM CLR 05/01 A2982 RMK AO2 T00450010", "KVNC 031135Z AUTO 05004KT 6SM BR FEW002 20/20 A3004 RMK AO2", "KVNW 031135Z AUTO 20005KT 10SM CLR 05/01 A2984 RMK AO2", "KVNY 031151Z AUTO 14004KT 10SM BKN019 OVC042 12/08 A2989 RMK AO2 SLP116 T01170078 10128 20117 56010", "KVOA 031145Z AUTO 18017KT 4SM BR FEW004 24/24 A2994 RMK A01", "KVOK 031055Z AUTO 25003KT 10SM BKN150 03/M03 A2970 RMK AO2 SLP064 T00341032 $", "KVPC 031135Z AUTO 00000KT 10SM SCT110 11/08 A2999 RMK AO2", "KVPS 031055Z AUTO 18009KT 10SM OVC005 22/21 A2990 RMK AO2 CIG 004 RWY12 SLP131 T02180211 $", "KVPZ 031056Z AUTO 19003KT 10SM CLR 03/01 A2982 RMK AO2 SLP101 T00330011", "KVQQ 031150Z 18004KT 10SM CLR 14/14 A3003", "KVRB 031053Z AUTO 14007KT 10SM BKN025 24/21 A3001 RMK AO2 SLP162 T02440211", "KVSF 031054Z AUTO 00000KT 10SM BKN095 M06/M08 A3014 RMK AO2 SLP216 T10611083", "KVTA 031054Z AUTO 00000KT 7SM CLR M01/M02 A2990 RMK AO2 SLP132 T10111017", "KVTI 031130Z AUTO 17005KT 10SM SCT110 03/03 A2978 RMK AO2 T00330033", "KVTN 031052Z AUTO 05006KT 10SM OVC085 04/M06 A2978 RMK AO2 SLP089 T00391061", "KVTP 031135Z AUTO 24014G24KT 10SM M01/M19 A2978 RMK AO2", "KVUJ 031145Z AUTO 00000KT 10SM OVC012 08/07 A3014 RMK AO2 T00750065", "KVUO 031053Z AUTO 00000KT 10SM BKN032 BKN040 OVC049 04/01 A3005 RMK AO2 RAE06 SLP177 P0000 T00390011", "KVVS 031135Z AUTO 05003KT 10SM SCT110 05/M01 A2997 RMK AO2 T00461010", "KVVV 031135Z AUTO 29008KT 10SM SCT030 00/M03 A2975 RMK AO2", "KVWU 031135Z AUTO 24004KT 10SM OVC009 01/M01 A2962 RMK AO2", "KVYS 031135Z AUTO 09007KT 10SM BKN090 OVC120 07/02 A2980 RMK AO2 T00730021", "KW13 031155Z AUTO 00000KT 10SM CLR 04/00 A3009 RMK AO1 T00381001 10060 20027", "KW22 031135Z AUTO 00000KT 10SM CLR 03/M02 A2998 RMK AO2", "KW29 031145Z AUTO 14006KT 10SM SCT040 08/ A3015 RMK AO2 T0075//// 10076 20059 70001", "KW31 031155Z AUTO 00000KT 10SM CLR 04/04 A3012 RMK AO1 T00430043 10055 20039", "KW40 031145Z AUTO 15003KT 10SM CLR 09/07 A3013 RMK AO2 T00890070 10090 20063", "KW43 031135Z AUTO 21004KT 10SM SCT120 M02/M08 A2975 RMK AO2", "KW63 031155Z AUTO 00000KT 10SM CLR 07/07 A3011 RMK AO1", "KW75 031135Z AUTO 16005KT 10SM CLR 08/05 A3015 RMK AO1 T00800046", "KW78 031135Z AUTO 00000KT 10SM CLR 02/01 A3011 RMK AO1 T00200013", "KW81 031135Z AUTO 00000KT 10SM CLR 03/01 A3012 RMK AO1 T00270014", "KW96 031155Z AUTO 00000KT 10SM CLR 07/03 A3014 RMK AO1 T00660034 10070 20049", "KW99 031108Z AUTO 00000KT 10SM CLR M01/M01 A3007 RMK AO2", "KWAL 031054Z AUTO 16007KT 10SM CLR 08/04 A3016 RMK AO2 SLP211 T00780044", "KWBF 031135Z AUTO 16013KT 6SM BR SCT020 BKN025 OVC060 24/24 A2993 RMK A01", "KWDG 031125Z 19011KT 10SM BKN007 14/14 A2954 RMK FIRST", "KWDR 031135Z AUTO 00000KT 10SM CLR 09/05 A3002 RMK AO2", "KWJF 031111Z AUTO 27019G30KT 10SM OVC032 08/03 A2987 RMK AO2 PK WND 28030/1102 T00780028", "KWLD 031054Z AUTO 18014G22KT 10SM OVC008 15/13 A2955 RMK AO2 SLP996 T01500133", "KWMC 031147Z AUTO 31013KT 3/4SM -SN BR FEW007 FEW012 OVC023 M02/M04 A2975 RMK AO2 SNB20 P0000 T10221039", "KWRB 031055Z AUTO 14005KT 10SM SCT160 13/11 A2996 RMK AO2 SLP147 T01320114", "KWRI 031055Z AUTO 00000KT 10SM CLR M01/M06 A3017 RMK AO2 SLP217 T10101062 $", "KWRL 031053Z AUTO 15004KT 10SM FEW110 M03/M05 A2971 RMK AO2 SLP078 T10281050", "KWST 031053Z AUTO 00000KT 10SM CLR M03/M06 A3019 RMK AO2 SLP223 T10281056", "KWVI 031053Z AUTO 31007KT 10SM CLR 07/00 A3009 RMK AO2 SLP189 T00720000", "KWVL 031056Z AUTO 19003KT 10SM CLR M05/M10 A3012 RMK AO2 SLP231 T10501100 FZRANO", "KWWD 031056Z AUTO 00000KT 10SM CLR 02/01 A3018 RMK AO2 SLP221 T00220006 FZRANO $", "KWWR 031135Z AUTO 22011KT 10SM CLR 08/02 A2959 RMK AO2", "KX07 031135Z AUTO 00000KT M1/4SM FG OVC001 17/17 A3004 RMK A01", "KX26 031135Z AUTO 10SM 23/21 A3004 RMK AO2 TSNO", "KX60 031135Z AUTO 00000KT 10SM CLR 14/13 A3004 RMK AO2 T01420132", "KXER 031130Z AUTO 18017KT 5SM BR CLR 24/23 A2991 RMK A01", "KXLL 031135Z AUTO 04003KT 10SM CLR 00/M05 A3018 RMK AO2", "KXMR 031055Z AUTO 16004KT 10SM CLR 22/22 A2998 RMK AO2 SLP155 T02230218 $", "KXNA 031117Z 16010KT 10SM BKN021 14/12 A2967 RMK AO2 T01390117", "KXNO 031055Z AUTO 00000KT 10SM CLR 11/11 A3005 RMK AO2 SLP177 T01130113 $", "KXNX 031135Z AUTO 03005KT 10SM BKN041 SCT100 13/06 A2994 RMK A01", "KXSA 031135Z AUTO 00000KT 10SM CLR 05/05 A3015 RMK AO2 T00510051", "KXVG 031153Z AUTO 24007KT 10SM UP OVC021 00/M03 A2963 RMK AO2", "KXWA 031151Z AUTO 35008KT 10SM OVC007 M06/M07 A2976 RMK AO2 SLP116 60000 T10611072 11039 21061 53017", "KY19 031135Z AUTO 30008KT 10SM OVC020 M02/M02 A2977 RMK AO2", "KY23 031135Z AUTO 22004KT 10SM CLR M03/M03 A2970 RMK AO2 T10261026", "KY31 031135Z AUTO 23005KT 10SM CLR 02/01 A2971 RMK AO2 T00210005", "KY49 031135Z AUTO 26006KT 10SM OVC012 M01/M03 A2962 RMK AO2 T10111026", "KY50 031056Z AUTO 00000KT 10SM CLR 03/M01 A2973 RMK AO2 SLP071 T00281011 $", "KY51 031155Z AUTO 00000KT 10SM OVC100 04/02 A2974 RMK AO1 T00370021 10048 20035", "KY63 031135Z AUTO 32013KT 10SM SCT013 M02/M03 A2972 RMK AO2 T10201030", "KY70 031135Z AUTO 22009KT 10SM BKN120 06/02 A2978 RMK AO2 T00610017", "KYIP 031053Z 22006KT 10SM CLR 03/00 A2981 RMK AO2 SLP097 T00330000", "KYKM 031053Z AUTO 26005KT 10SM CLR M03/M07 A2988 RMK AO2 SLP127 T10331072", "KYKN 031056Z AUTO 00000KT 10SM OVC110 06/M01 A2976 RMK AO2 SLP094 T00561011", "KYNG 031051Z 15006KT 10SM SCT150 BKN250 03/M02 A2990 RMK AO2 SLP133 T00331017 $", "KZER 031135Z AUTO 13013KT 10SM CLR 00/M12 A3006 RMK AO2", "KZPH 031135Z AUTO 00000KT M1/4SM FG OVC001 19/19 A3004 RMK A02 T01910188", "KZZV 031053Z AUTO 00000KT 10SM CLR 01/M02 A2992 RMK AO2 SLP136 T00111017", "LATI 031150Z 07011KT 030V110 9999 SCT040 BKN066 18/04 Q0999 NOSIG", "LBBG 031130Z 13013KT 9999 FEW033 13/08 Q1011 NOSIG", "LBGO 031130Z AUTO 12004KT 070V150 9999 4500SW OVC150/// 16/06 Q1009 NOSIG", "LBIA 031100Z 12012KT 9999 SCT050 OVC100 17/06 Q1010", "LBPD 031130Z AUTO 11008KT 080V140 9999 -SHRA BKN054/// BKN065/// OVC076/// 13/07 Q1009 NOSIG", "LBPG 031100Z 15006KT 8000 -RA FEW006 OVC050 13/05 Q1009", "LBPL 031100Z 25006KT 9999 FEW100 BKN200 16/08 Q1010", "LBSF 031130Z 14008KT 8000 -RA OVC045 10/05 Q1009 TEMPO 5000 RA", "LBWB 031100Z 09010KT 9999 SCT030 OVC100 14/09 Q1011", "LBWN 031130Z 14014KT 9999 FEW033 14/08 Q1011 NOSIG", "LCEN 031120Z 10009KT 030V140 9999 FEW025 SCT200 23/11 Q1014 NOSIG RMK RWY11 09009KT 020V150", "LCLK 031130Z 10007KT 9999 FEW025 21/15 Q1014 NOSIG", "LCPH 031130Z 16012KT 9999 FEW025 19/14 Q1014 NOSIG", "LCRA 031120Z 09011KT 9999 FEW040 BKN300 20/13 Q1014 NOSIG", "LDDU 031130Z 04028G38KT 350V080 CAVOK 17/01 Q1001 WS R11 NOSIG", "LDOS 031130Z 34014KT 9999 SCT023 BKN033 07/02 Q1016", "LDPL 031130Z 06019KT CAVOK 12/M00 Q1012 NOSIG", "LDRI 031130Z VRB11G26KT 9999 FEW040 11/M02 Q1013", "LDSP 031130Z 03027G38KT CAVOK 15/00 Q1006 NOSIG", "LDZA 031130Z 04019G29KT 010V080 9999 BKN043 09/M01 Q1018 NOSIG", "LDZD 031130Z 03022KT 350V060 CAVOK 13/M01 Q1009 TEMPO 05020G30KT", "LEAB 031130Z 33006KT 260V040 CAVOK 14/M03 Q1017 NOSIG", "LEAG 031130Z AUTO 12007KT CAVOK 17/12 Q1017", "LEAL 031130Z 16008KT 100V230 CAVOK 19/05 Q1016 NOSIG", "LEAM 031130Z 16009KT CAVOK 19/07 Q1016", "LEAO 031130Z 36003KT CAVOK 16/M03 Q1018", "LEAS 031130Z 08010KT 030V110 CAVOK 14/07 Q1020 NOSIG", "LEBA 031130Z 08008KT 030V140 CAVOK 21/M01 Q1017", "LEBB 031130Z 06006KT 350V130 9999 SCT039 BKN046 14/05 Q1022 NOSIG", "LEBG 031130Z 06011KT 020V080 CAVOK 10/00 Q1019", "LEBL 031130Z 15007KT 130V210 CAVOK 15/06 Q1016 NOSIG", "LEBR 031130Z AUTO 30018KT 9999 NCD 14/04 Q1019", "LEBT 031130Z AUTO 18004KT 090V240 CAVOK 19/M03 Q1016", "LEBZ 031130Z VRB02KT CAVOK 21/M02 Q1018", "LECH 031130Z AUTO 04004G14KT CAVOK 18/M01 Q1016", "LECO 031130Z VRB02KT CAVOK 15/08 Q1018 NOSIG", "LECV 031130Z VRB02KT CAVOK 12/M04 Q1018", "LEDA 031130Z 26009KT 230V290 CAVOK 16/03 Q1016", "LEEC 031130Z 06009KT 020V090 CAVOK 23/M00 Q1017", "LEGA 031130Z VRB04KT CAVOK 19/M10 Q1017", "LEGE 031130Z 18003KT 9999 SCT060 17/03 Q1015", "LEGR 031130Z VRB01KT CAVOK 20/M08 Q1017", "LEGT 031130Z VRB03KT CAVOK 15/M02 Q1018", "LEHC 031130Z 24007KT 160V320 CAVOK 15/01 Q1016", "LEIB 031130Z VRB08KT 9999 SCT039 17/07 Q1016 NOSIG", "LEJR 031130Z 02006KT 340V080 CAVOK 24/M02 Q1016", "LELC 031130Z 08008KT 050V120 9999 FEW030 20/09 Q1017 NOSIG", "LELL 031130Z 12009KT 070V160 9999 FEW060 18/04 Q1015", "LELN 031130Z 21004KT CAVOK 08/02 Q1020", "LELO 031130Z 28008KT 240V320 9999 BKN040 12/02 Q1020", "LEMD 031130Z 02001KT CAVOK 15/M04 Q1018 NOSIG", "LEMG 031130Z 13007KT 100V170 CAVOK 22/02 Q1016 NOSIG", "LEMH 031130Z 36017KT 9999 FEW030 15/07 Q1015", "LEMI 031130Z 09005KT 9999 FEW025 19/M03 Q1017", "LEMO 031130Z 05008KT 350V080 CAVOK 23/M02 Q1016 NOSIG", "LEPA 031130Z 24011KT 200V280 9999 VCSH FEW030CB SCT040 18/10 Q1016 TEMPO TSRA", "LEPP 031130Z 33010KT 300V010 9999 BKN030 11/03 Q1019", "LERI 031130Z VRB04KT CAVOK 20/M05 Q1017 NOSIG", "LERS 031130Z 22007KT 180V250 9999 FEW050 19/03 Q1015", "LERT 031130Z 03006KT 340V080 CAVOK 24/01 Q1016 NOSIG", "LESA 031130Z VRB02KT CAVOK 14/M02 Q1019", "LESB 031100Z AUTO 21012KT CAVOK 17/09 Q1016", "LESO 031130Z 03005KT 350V070 9999 SCT030 BKN055 14/09 Q1022", "LEST 031130Z 23003KT 150V290 CAVOK 15/03 Q1018 NOSIG", "LESU 031130Z 03007KT 330V080 9999 BKN065 14/M04 Q1016", "LETL 031130Z AUTO 33008KT 260V020 CAVOK 10/M02 Q1018", "LETO 031130Z 36002KT CAVOK 15/M05 Q1018 NOSIG", "LETU 031130Z AUTO 32014KT 290V350 9999 FEW041 14/03 Q1019", "LEVC 031130Z 12004KT CAVOK 19/M02 Q1016 NOSIG", "LEVD 031130Z 05004KT CAVOK 12/M02 Q1020", "LEVS 031130Z VRB02KT CAVOK 14/M01 Q1018", "LEVT 031130Z 05005KT 010V090 9999 BKN032 10/05 Q1021", "LEVX 031130Z 21006KT 160V230 CAVOK 14/05 Q1019 NOSIG", "LEXJ 031130Z 05007KT 350V110 9999 FEW042 15/07 Q1021", "LEZG 031130Z 30018G28KT 270V330 9999 FEW035 15/04 Q1018", "LEZL 031130Z 06011KT 020V090 CAVOK 24/M04 Q1017 NOSIG", "LFAC 031130Z AUTO 05017KT 9999 SCT035 10/02 Q1030", "LFAQ 031130Z AUTO 06015KT 9999 FEW033 09/02 Q1028 NOSIG", "LFAT 031130Z AUTO 08010KT 050V110 9999 // ////// 10/01 Q1029", "LFBA 031130Z AUTO 32008KT 9999 FEW032 BKN041 13/06 Q1021 NOSIG", "LFBC 031130Z AUTO 03005KT 320V120 9999 FEW042 BKN049 14/04 Q1022 NOSIG", "LFBD 031130Z AUTO 05007KT 010V120 9999 BKN031 13/05 Q1022 NOSIG", "LFBE 031130Z AUTO 02009KT 350V060 9999 BKN030 13/06 Q1022 NOSIG", "LFBF 031130Z AUTO 30010KT 260V320 9999 BKN028 OVC052 12/06 Q1021", "LFBG 031130Z AUTO 03007KT 9999 BKN018 OVC023 10/06 Q1023 NOSIG", "LFBH 031130Z AUTO 05013KT 9999 BKN019 OVC024 09/05 Q1024 NOSIG", "LFBI 031130Z AUTO 04009KT 010V070 9999 BKN016 OVC026 09/05 Q1024 NOSIG", "LFBL 031130Z AUTO 03010KT 350V050 9999 OVC012 07/05 Q1022 BECMG BKN030", "LFBM 031130Z AUTO VRB02KT 9999 FEW039 SCT046 OVC062 15/06 Q1022 NOSIG", "LFBO 031130Z AUTO 29011KT 9999 FEW030 BKN041 OVC050 12/06 Q1021 NOSIG", "LFBP 031130Z AUTO 02005KT 330V070 9999 FEW027 BKN060 13/07 Q1021 NOSIG", "LFBT 031130Z AUTO 08004KT 360V130 9999 BKN020 BKN027 OVC034 10/07 Q1021 NOSIG", "LFBU 031130Z AUTO 02008KT 350V060 9999 BKN018 OVC024 09/06 Q1023 BECMG OVC012", "LFBX 031130Z AUTO 01004KT 320V060 9999 BKN028 OVC033 12/06 Q1022", "LFBY 031130Z AUTO 06004KT 020V110 9999 // ////// 14/07 Q1021", "LFBZ 031130Z AUTO 35006KT 310V040 9999 FEW024 SCT030 BKN036 13/07 Q1021 NOSIG", "LFCK 031130Z AUTO 31014KT 9999 BKN024 BKN033 OVC042 11/05 Q1021 NOSIG", "LFCR 031130Z AUTO 32008KT 290V030 9999 BKN031 OVC042 10/04 Q1019 NOSIG", "LFGA 031130Z AUTO 04013KT 9999 SCT048 07/M02 Q1025", "LFGJ 031130Z AUTO 01015KT 9999 BKN017 08/05 Q1021 TEMPO 04015G25KT", "LFHP 031130Z AUTO 34013KT 9999 BKN016 BKN022 BKN029 06/04 Q1018", "LFJL 031130Z AUTO 09015KT 9999 BKN041 08/M01 Q1026 NOSIG", "LFJR 031130Z AUTO 03007KT 360V070 9999 OVC022 08/04 Q1025", "LFKB 031130Z AUTO 34010KT 310V020 CAVOK 18/06 Q1010 NOSIG", "LFKC 031130Z AUTO 34014KT CAVOK 18/10 Q1009 TEMPO 02015G25KT", "LFKF 031130Z AUTO VRB05KT CAVOK 17/08 Q1009 TEMPO 05015G25KT", "LFKJ 031130Z AUTO 20008KT 9999 OVC092 16/10 Q1009 BECMG 04010KT", "LFKS 031130Z AUTO 04015KT CAVOK 19/08 Q1009", "LFLB 031130Z AUTO 01010KT 9999 OVC037 11/05 Q1018 BECMG 36015G25KT", "LFLC 031130Z AUTO 36010KT 9999 OVC006 06/06 Q1021 TEMPO 4000 -DZ", "LFLH 031130Z AUTO 02012KT 360V070 9999 SCT016 OVC030 08/04 Q1022", "LFLL 031130Z 35016KT 9999 BKN013 08/05 Q1019 NOSIG", "LFLN 031130Z AUTO 36008KT 9999 OVC012 07/05 Q1021 BECMG BKN030", "LFLP 031130Z AUTO 01010KT 9999 SCT027 OVC033 10/05 Q1018 NOSIG", "LFLS 031130Z AUTO 33010KT 9999 OVC008 07/06 Q1018 BECMG BKN018", "LFLU 031130Z AUTO 36018KT 9999 OVC019 10/07 Q1018", "LFLV 031130Z AUTO 35006KT 310V020 9999 OVC012 08/05 Q1021", "LFLW 031130Z AUTO 01006KT 330V060 9999 FEW036 OVC043 11/03 Q1019 NOSIG", "LFLX 031130Z AUTO 02012KT 9999 OVC016 08/05 Q1024 NOSIG", "LFLY 031130Z AUTO 34015KT 9999 OVC014 08/05 Q1019 TEMPO 35015G25KT BECMG BKN016", "LFMC 031130Z AUTO 23007KT 160V270 9999 ////// 22/01 Q1010", "LFMD 031130Z AUTO 18011KT 150V210 CAVOK 22/02 Q1010 TEMPO VRB15G25KT TSRA BKN050CB", "LFMH 031130Z AUTO 34011KT 9999 OVC010 08/06 Q1019", "LFMI 031130Z AUTO 35017KT CAVOK 18/06 Q1013 BECMG 36014G25KT", "LFMK 031130Z AUTO 28016KT 240V310 9999 FEW027 OVC054 12/06 Q1020 TEMPO 30020G30KT", "LFML 031130Z AUTO 27007KT CAVOK 18/07 Q1012 BECMG 33015KT", "LFMN 031130Z 20009KT 9999 FEW066TCU 17/10 Q1010 NOSIG", "LFMO 031130Z AUTO 36025G36KT CAVOK 15/06 Q1014 NOSIG", "LFMP 031130Z AUTO 30022G34KT 280V340 9999 BKN046 15/04 Q1017 NOSIG", "LFMT 031130Z AUTO 34012KT 310V030 CAVOK 17/03 Q1015 TEMPO 02015G25KT", "LFMU 031130Z AUTO 32017KT CAVOK 17/04 Q1016 TEMPO 33020G30KT", "LFMV 031130Z AUTO 34024KT CAVOK 16/07 Q1013 BECMG 35020G30KT", "LFMY 031130Z AUTO 34016KT 290V360 CAVOK 18/07 Q1012 BECMG 33010G20KT", "LFOA 031130Z AUTO 04011KT 9999 OVC018 07/04 Q1023 NOSIG", "LFOB 031130Z AUTO 06012KT 9999 SCT033 10/03 Q1027 NOSIG", "LFOE 031130Z AUTO 07009KT 030V110 9999 SCT030 09/02 Q1026 NOSIG", "LFOH 031130Z AUTO 07008KT 040V110 CAVOK 09/03 Q1027 NOSIG", "LFOJ 031130Z AUTO 05013KT 9999 OVC026 08/03 Q1025 NOSIG", "LFOK 031130Z AUTO 06017KT 9999 BKN035 08/01 Q1025 NOSIG", "LFOP 031130Z AUTO 07009KT 040V100 9999 SCT026 08/01 Q1027 NOSIG", "LFOT 031130Z AUTO 05008KT 360V070 9999 FEW018 OVC030 08/04 Q1025 NOSIG", "LFOV 031130Z AUTO 05009KT 010V090 9999 OVC020 07/03 Q1026", "LFOZ 031130Z AUTO 03009KT 350V060 9999 OVC027 08/03 Q1025", "LFPB 031130Z AUTO 04015KT 010V070 CAVOK 10/M00 Q1026 NOSIG", "LFPG 031130Z 06014KT 9999 FEW041 10/M01 Q1026 NOSIG", "LFPM 031130Z AUTO 06007KT 350V100 CAVOK 10/02 Q1026", "LFPN 031130Z AUTO 06009KT 010V120 CAVOK 10/01 Q1025 NOSIG", "LFPO 031130Z 05011KT 010V090 9999 FEW036 10/M00 Q1026 NOSIG", "LFPT 031130Z AUTO 08011KT 050V110 CAVOK 10/01 Q1026", "LFPV 031130Z AUTO 06011KT 020V100 CAVOK 08/M00 Q1025 NOSIG", "LFQA 031130Z AUTO 06012KT 010V100 9999 FEW041 10/01 Q1026", "LFQB 031130Z AUTO 05010KT 010V080 9999 BKN034 09/01 Q1025", "LFQG 031130Z AUTO 03010KT 360V060 9999 OVC019 07/04 Q1023", "LFQQ 031130Z AUTO 05011KT CAVOK 09/M01 Q1029 NOSIG", "LFRB 031130Z AUTO 07009KT 040V100 CAVOK 12/06 Q1025 NOSIG", "LFRC 031130Z AUTO 08012KT 9999 BKN025 08/02 Q1028 TEMPO 08015G25KT", "LFRD 031130Z AUTO 09009KT 030V140 9999 FEW024 09/03 Q1026 NOSIG", "LFRG 031130Z AUTO 07006KT 030V110 CAVOK 09/02 Q1027 NOSIG", "LFRH 031130Z AUTO 07010KT 020V110 CAVOK 09/03 Q1025 NOSIG", "LFRI 031130Z AUTO 07010KT 9999 OVC016 08/04 Q1024 NOSIG", "LFRJ 031130Z AUTO 07009KT 030V110 CAVOK 11/05 Q1025 NOSIG", "LFRK 031130Z AUTO 02008KT 330V060 CAVOK 09/02 Q1027 NOSIG", "LFRL 031130Z AUTO 07003KT 320V130 CAVOK 11/04 Q1025 NOSIG", "LFRM 031130Z AUTO 04008KT 350V080 9999 FEW021 OVC028 09/03 Q1026 NOSIG", "LFRN 031130Z AUTO 06007KT 010V110 9999 OVC022 07/02 Q1026 NOSIG", "LFRO 031130Z AUTO 08010KT 020V120 CAVOK 09/03 Q1026", "LFRQ 031130Z AUTO 14007KT 100V180 CAVOK 11/03 Q1025 NOSIG", "LFRS 031130Z AUTO 06010KT 020V080 9999 OVC019 08/04 Q1025 NOSIG", "LFRT 031130Z AUTO 05008KT 030V120 9999 FEW021 07/02 Q1026", "LFRU 031130Z AUTO 06011KT 030V100 CAVOK 10/04 Q1025", "LFRV 031130Z AUTO 07010KT 040V110 9999 FEW022 08/02 Q1025", "LFRZ 031130Z AUTO 06010KT 9999 OVC018 08/05 Q1025 NOSIG", "LFSB 031130Z AUTO 33004KT 300V010 9999 FEW030 BKN037 OVC047 06/02 Q1023 TEMPO 10010KT", "LFSD 031130Z AUTO 02011KT 340V040 9999 OVC019 07/03 Q1022", "LFSG 031130Z AUTO 06014KT CAVOK 06/M01 Q1024", "LFSI 031130Z AUTO 06015KT 9999 FEW041 09/M02 Q1025", "LFSL 031130Z AUTO 33008KT 300V010 9999 SCT027 SCT037 BKN043 12/05 Q1020 NOSIG", "LFSM 031130Z AUTO 08010KT 9999 FEW021 BKN032 OVC038 06/02 Q1023", "LFSN 031130Z AUTO 06015KT 9999 BKN044 08/00 Q1026", "LFSO 031130Z AUTO 08015KT 040V120 CAVOK 06/M02 Q1024 TEMPO 07015G25KT", "LFST 031130Z AUTO 07014KT 9999 OVC048 08/M01 Q1026 TEMPO 04018G28KT", "LFSX 031130Z AUTO VRB03KT 9999 OVC040 07/04 Q1022", "LFTH 031130Z AUTO 22009KT CAVOK 19/06 Q1011 NOSIG", "LFTW 031130Z AUTO 01019G29KT 340V040 9999 FEW011 16/05 Q1014 NOSIG", "LFVP 031130Z AUTO 28027KT 9999 OVC031 M01/M07 Q1007 BECMG 28025G35KT", "LFYR 031130Z AUTO 04005KT 330V080 9999 OVC021 08/04 Q1024 NOSIG", "LGAD 031120Z 20010KT 9999 FEW018TCU SCT025 17/12 Q0999", "LGAL 031120Z 05016KT 9999 FEW020 SCT040 16/12 Q1008", "LGAV 031150Z 18015KT 9999 SCT020 BKN030 20/09 Q1000 NOSIG", "LGBL 031120Z 07016G26KT 3000 RA SCT015 FEW018TCU OVC020 14/14 Q1000", "LGEL 031120Z 16012G22KT 9999 FEW025 SCT030 BKN070 18/12 Q1000", "LGIO 031120Z 07015G26KT 030V110 9999 BKN030 OVC070 13/05 Q0997", "LGIR 031150Z 16023G33KT 9999 FEW020 SCT080 24/14 Q1003 NOSIG", "LGKC 031050Z 26012G22KT 9000 -RA FEW012 16/14 Q1002", "LGKF 031050Z 00000KT 9999 TS FEW014 FEW018CB SCT020 BKN070 13/13 Q0998", "LGKL 031120Z 20004KT 9999 FEW018TCU BKN030 BKN080 17/13 Q1001", "LGKO 031120Z 14025KT 9999 FEW016 19/13 Q1008", "LGKP 031120Z 14020KT CAVOK 20/15 Q1008", "LGKR 031150Z 25004KT 4000 RA SCT008 SCT016TCU BKN025 14/13 Q0997 NOSIG", "LGKV 031120Z 08014KT 9999 FEW012 SCT035 BKN070 15/13 Q1007", "LGKZ 031050Z 00000KT 6000 RA SCT015 BKN025 OVC070 08/06 Q1004", "LGLM 031120Z 05017G28KT 9999 FEW008 SCT025 16/13 Q1005", "LGMK 031120Z /////KT 9999 FEW020 18/13 Q1002", "LGMT 031120Z 00000KT 9999 SCT025 20/13 Q1007", "LGPZ 031120Z 25013G23KT 9999 FEW011 FEW025TCU BKN030 OVC080 14/12 Q0997", "LGRP 031150Z 09012G22KT 040V140 9999 FEW010 SCT018 19/14 Q1010 WS ALL RWY NOSIG", "LGRX 031120Z 22009KT 9999 FEW018 SCT030 17/13 Q0998", "LGSA 031120Z 14011KT 9999 FEW020 BKN100 20/11 Q1002", "LGSK 031120Z 03006KT 8000 SCT010 BKN025 16/12 Q1000", "LGSM 031050Z 14014KT 9999 SCT020 16/12 Q1008", "LGSO 031050Z 13026G36KT 9999 SCT018 20/12 Q1001", "LGSR 031120Z 14015KT 9999 SCT025 19/14 Q1003", "LGTS 031120Z 10005KT 9999 -RA FEW010 FEW020CB BKN025 14/12 Q1002 NOSIG", "LGZA 031050Z 21010KT 9999 FEW015 FEW018TCU SCT020 16/13 Q0998 RERA", "LHBP 031130Z 02005KT 330V070 9999 FEW048 BKN060 09/M00 Q1017 NOSIG", "LHDC 031115Z AUTO 02018KT 330V050 9999 SCT039 08/M01 Q1016 NOSIG", "LHKE 031115Z 34006G16KT 9999 SCT035 BKN058 BKN083 09/01 Q1016 NOSIG RMK BLU", "LHPA 031115Z 35019KT 320V030 9999 SCT047 07/M04 Q1020 NOSIG RMK BLU", "LHPP 031115Z AUTO 02014KT 9999 OVC039 08/00 Q1017", "LHPR 031115Z AUTO 34024G36KT 310V010 9999 SCT046 08/M04 Q1019 NOSIG", "LHSM 031115Z AUTO 36019KT 330V030 9999 BKN048 08/M02 Q1019 NOSIG", "LHSN 031115Z 02012KT 350V050 9999 SCT040 10/01 Q1016 NOSIG RMK BLU", "LIBA 031055Z 36017KT 9999 SCT035 15/08 Q1004 RMK OVC SCT070 BKN100 VIS MIN 9999 WIND THR11 01017KT WIND THR29 /////KT BLU", "LIBC 031056Z 02019G31KT 9999 BKN020 13/11 Q0992", "LIBD 031120Z 02009KT 350V050 9999 FEW045 16/10 Q1001", "LIBF 031116Z 33015G25KT 9999 FEW015 SCT040 14/08 Q1004", "LIBG 031050Z 04016KT 010V070 6000 RA SCT015CB BKN030 11/09 Q0999", "LIBN 031055Z 05014KT 6000 -RA FEW008 SCT020 13/12 Q0998 RMK OVC BKN060 VIS MIN 6000 WIND THR14 04017KT WIND THR32 05016KT WHT", "LIBP 031120Z AUTO 02013KT 340V050 9999 BKN035/// BKN082/// 13/04 Q1010", "LIBQ 031055Z /////KT 0000 -SN FG VV/// 00/M00 Q0994", "LIBR 031120Z 04021KT 5000 RA BKN030 OVC040 13/10 Q0999 RERA", "LIBV 031055Z 03020KT 6000 -RA SCT007 FEW018CB BKN020 12/09 Q0999 RMK OVC BKN060 VIS MIN 5000NE WIND THR32 06018KT WIND THR14 04015KT WHT", "LIBY 031055Z ///07KT 9999 SCT020 SCT030 14/11 Q0996 RMK OVC QUK 3 QUL 1 SE VIS MAR 10 KM VIS MIN 9999", "LICA 031120Z AUTO 23005KT 9999 FEW009/// BKN054/// 12/12 Q0995", "LICB 031120Z AUTO 27006KT 200V320 9999 FEW025/// BKN041/// 15/08 Q0998", "LICC 031120Z 19005KT 9999 FEW030 BKN070 14/10 Q0998", "LICD 031120Z AUTO 32022G33KT 9999 BKN023/// 15/10 Q1003", "LICF 031055Z 33004KT 4000 RA BKN015 11/09 Q0997 RMK OVC OVC060 QUK 2 QUL 0 VIS MAR 4 KM MON INVIS NC VIS MIN 4000", "LICG 031050Z 32017KT 9999 SCT015 12/11 Q1005", "LICJ 031120Z 34022KT 9999 FEW025 SCT065 16/11 Q1002", "LICR 031120Z AUTO 01005KT 330V070 5000 RA BR OVC032/// 11/10 Q0997", "LICT 031055Z 35022KT 9999 FEW018TCU SCT022 16/13 Q1003 RMK BKN BKN070 VIS MIN 9999 WIND THR13 36023KT BLU", "LICZ 031055Z /////KT 9999 SCT030 BKN060 13/10 Q0997", "LIEA 031120Z 01005KT 330V040 9999 FEW030 18/08 Q1009", "LIEB 031055Z 03030KT 9999 SCT040 15/11 Q1006 RMK SCT QUK 4 QUL 3 NE VIS MAR 30 KM MON LIB VIS MIN 9999", "LIED 031055Z 31013KT 9999 SCT030 19/10 Q1008 RMK SCT VIS MIN 9999 WIND THR35 /////KT WIND THR17 31012KT BLU", "LIEE 031120Z 33012KT 9999 FEW030 19/08 Q1007", "LIEO 031120Z 36018KT 9999 SCT030 18/06 Q1009", "LIMA 031050Z 19003KT 130V290 CAVOK 19/M03 Q1012", "LIMC 031120Z 14009KT 110V190 CAVOK 17/06 Q1012 NOSIG", "LIME 031120Z 14008KT 080V180 9999 SCT045 16/05 Q1012 NOSIG", "LIMF 031120Z 12004KT 030V200 CAVOK 19/M04 Q1011", "LIMG 031050Z 34010KT 300V030 9999 FEW050 22/M02 Q1010", "LIMH 031055Z AUTO 06007KT //// M09/M13 Q1012", "LIMJ 031120Z 34013KT 280V020 9999 FEW040TCU 22/01 Q1010", "LIMK 031055Z 00000KT CAVOK 16/M04 Q1012 RMK SKC VAL NIL VIS MIN 9999", "LIML 031120Z 12009KT 080V160 9999 FEW035 17/07 Q1012 NOSIG", "LIMN 031055Z 10008KT 060V150 9999 FEW025 18/05 Q1012 RMK FEW VIS MIN 9999 BLU", "LIMP 031050Z 11009KT 070V140 9999 SCT020 15/08 Q1013", "LIMS 031055Z 11012KT 9999 SCT040 15/10 Q1011 RMK SCT VIS MIN 9999 WIND THR30 09013KT BLU", "LIMU 031055Z 03014KT 9999 SCT025 21/05 Q1010 RMK SCT QUK 2 QUL 1 E VIS MAR 40 KM VIS MIN 9999", "LIMV 031055Z /////KT 9999 FEW013 14/M01 Q1011", "LIMW 031120Z AUTO 27007KT 230V300 9999 NCD 17/M02 Q1012", "LIMY 031055Z 34006KT CAVOK 16/03 Q1012", "LIMZ 031120Z AUTO 06008KT 340V080 9999 NCD 18/M02 Q1011", "LIPA 031055Z 15001KT 9999 FEW050 14/05 Q1013 RMK FEW VIS MIN 9999 WIND THR05 /////KT WIND THR23 /////KT A2994 BLU", "LIPB 031050Z 03011KT 350V070 CAVOK 18/M13 Q1012", "LIPC 031055Z 07010KT CAVOK 13/05 Q1013 RMK SKC VIS MIN 9999 WIND THR11 08011KT WIND THR29 08012KT BLU", "LIPE 031120Z 10009KT 070V130 9999 BKN045 14/07 Q1013", "LIPF 031055Z 30004KT 9999 SCT025 15/07 Q1014 RMK SCT VIS MIN 9999", "LIPH 031120Z 06005KT 020V090 9999 FEW030 14/03 Q1014", "LIPI 031055Z 09013KT CAVOK 14/02 Q1013 RMK SKC VIS MIN 9999 WIND THR06 13015KT WIND THR24 08013KT BLU", "LIPK 031050Z 05009KT 9999 FEW040 13/01 Q1014", "LIPL 031055Z 13011KT 9999 SCT035 15/08 Q1012 RMK SCT VIS MIN 9999 WIND THR31 12012KT WIND THR13 12012KT BLU", "LIPO 031120Z AUTO 11011KT 090V150 9999 SCT042/// 16/06 Q1013", "LIPQ 031120Z AUTO 10015KT 9999 NCD 15/M01 Q1013", "LIPR 031120Z 07015KT 9999 FEW035 12/02 Q1013", "LIPS 031055Z /////KT 9999 BKN030 14/05 Q1014", "LIPX 031120Z 11010KT 080V160 9999 SCT035 15/05 Q1013", "LIPY 031120Z AUTO 04011KT 020V080 9999 OVC035/// 13/05 Q1011", "LIPZ 031120Z 09016KT CAVOK 14/02 Q1014 NOSIG", "LIQC 031055Z 15010KT CAVOK 15/07 Q1001 RMK SCT SCT080 QUK 3 QUL 2 SE VIS MAR 20 KM VIS MIN 9999", "LIQN 031050Z 34011G23KT 320V050 9999 SCT040 15/03 Q1006", "LIQW 031055Z 03009G19KT 9999 FEW040 20/01 Q1010 RMK FEW VIS MIN 9999 WIND THR14 /////KT BLU", "LIRA 031120Z 03012KT 9999 FEW035 19/04 Q1004", "LIRE 031055Z 36011KT 9999 FEW020 21/06 Q1004 RMK SCT SCT200 VIS MIN 9999 WIND THR13 04012KT WIND THR31 /////KT BLU", "LIRF 031120Z 01016KT CAVOK 19/06 Q1004 NOSIG", "LIRG 031055Z 35008KT 9999 SCT030 19/02 Q1005 RMK BKN SCT200 MON NE LIB NC VIS MIN 9999 BLU", "LIRH 031055Z 02018KT 9999 SCT035 17/02 Q1003 RMK BKN MON LIB NC VIS MIN 9999 WIND THR16 05017KT BLU", "LIRI 031050Z 05013G32KT 030V120 9999 BKN045 16/06 Q1001", "LIRK 031055Z AUTO /////KT //// ///// Q////", "LIRL 031055Z 27007KT 9999 FEW025 21/04 Q1003 RMK BKN SCT200 MON LIB NC VIS MIN 9999 WIND THR12 /////KT WIND THR30 24004KT BLU", "LIRM 031055Z 33020KT 9999 FEW040 SCT080 17/03 Q1003 RMK BKN VIS MIN 9999 WIND THR06 36018KT BLU", "LIRN 031120Z 05017KT 030V090 9999 BKN055 18/05 Q1002 NOSIG", "LIRP 031115Z 09016KT 9999 SCT060 17/03 Q1009 TEMPO 07015G25KT", "LIRQ 031120Z 07015G27KT 9999 FEW050 16/01 Q1010", "LIRS 031055Z 02022G32KT 9999 SCT020 17/00 Q1008 RMK SCT VIS MIN 9999 WIND THR03 03022G32KT WIND THR21 03020G31KT BLU", "LIRT 031055Z 02014KT 0000 FG VV/// 05/03 Q1003 RMK MON INVIS VAL INVIS VIS MIN 0000", "LIRU 031050Z 01016KT CAVOK 19/04 Q1004", "LIRV 031055Z 03023KT 9999 FEW026 14/03 Q1006 RMK FEW MON E SE LIB NC VIS MIN 9999 WIND THR04/////KT BLU", "LIRX 031055Z 02013KT 9999 FEW015 15/06 Q1008 RMK FEW VIS MIN 9999 VIS MAR 30 KM", "LIRZ 031120Z AUTO 05019KT 9999 NCD 13/03 Q1009", "LIVC 031055Z AUTO /////KT //// M02/M03 Q1009", "LIVD 031055Z 29005KT CAVOK 10/M09 Q1014 RMK SKC VIS MIN 9999", "LIVE 031055Z 01010G24KT CAVOK 07/M07 Q1014 RMK FEW FEW190 VIS MIN 9999", "LIVF 031055Z 08006KT 9999 SCT015 SCT025 08/03 Q1010 RMK BKN MON S W CIME INC NC VAL NIL VIS MIN 9999", "LIVM 031055Z AUTO /////KT //// ///// Q////", "LIVO 031055Z 08003KT 9999 FEW030 09/M01 Q1014 RMK FEW VIS MIN 9999", "LIVP 031055Z 06010KT 030V110 9999 FEW035 M02/M11 Q1011 RMK FEW MON LIB VAL NIL VIS MIN 9999", "LIVR 031055Z 36007KT CAVOK 02/M17 Q1011 RMK SCT SCT200 MON LIB VIS MIN 9999", "LIVT 031055Z 05011G21KT 340V090 CAVOK 14/M02 Q1014 RMK SKC QUK 2 QUL 0 VIS MAR 20 KM VIS MIN 9999", "LJCE 031130Z 06012KT 020V090 9999 SCT047 09/M02 Q1018 RMK BLU", "LJLJ 031130Z 29005KT 230V350 9999 SCT060 10/M04 Q1016 NOSIG", "LJMB 031130Z 04014KT 010V080 9999 FEW050 BKN060 07/M03 Q1019", "LJPZ 031130Z 06017KT 030V110 CAVOK 13/M03 Q1013", "LKCV 031130Z 03011KT 340V050 CAVOK 04/M08 Q1026 NOSIG RMK BLU BLU", "LKKB 031100Z 36009KT 310V040 9999 BKN037 03/M06 Q1027 NOSIG", "LKKU 031100Z 02020KT 9999 SCT038 BKN049 05/M05 Q1023", "LKKV 031130Z 03007G18KT 330V100 9999 SCT040 02/M08 Q1026", "LKLN 031100Z AUTO 03007KT 320V110 9999 FEW045 04/M07 Q1027", "LKMT 031130Z 01018KT 9999 BKN046 03/M06 Q1023 NOSIG", "LKNA 031130Z 35014KT 330V030 9999 BKN040 02/M07 Q1023 NOSIG RMK BLU BLU", "LKPD 031130Z 02010KT 340V060 9999 BKN040 04/M08 Q1026 RMK BLACK", "LKPR 031130Z 02013KT 9999 BKN045 02/M06 Q1027 NOSIG", "LKTB 031130Z 01015KT 9999 BKN046 04/M07 Q1024 NOSIG", "LKVO 031100Z 36011KT 330V040 9999 SCT036 SCT047 04/M05 Q1028", "LLBG 031150Z 29010KT CAVOK 28/08 Q1011 NOSIG", "LLER 031150Z 14005KT 060V210 CAVOK 33/M04 Q1010", "LLHA 031150Z 34010KT CAVOK 22/14 Q1012", "LLIB 031150Z AUTO 14005KT 090V200 CAVOK 27/04 Q1013", "LMML 031145Z 29020KT 9999 SCT020 SCT040 15/10 Q0999 NOSIG", "LOAN 031100Z 36015G25KT 9999 SCT030 BKN040", "LOAV 031100Z 03016KT 9999 BKN030 05/M03", "LOWG 031120Z 35017KT 9999 BKN057 07/M06 Q1019 NOSIG", "LOWI 031120Z 08011KT 9999 FEW025 BKN050 06/M01 Q1021 NOSIG", "LOWK 031120Z 03012KT 360V090 9999 FEW070 09/M06 Q1018 NOSIG", "LOWL 031120Z AUTO 06007KT 030V090 9999 FEW038 SCT040 BKN050 05/M03 Q1024 NOSIG", "LOWS 031120Z 02009KT 350V060 9999 FEW015 SCT042 BKN060 03/00 Q1024 NOSIG", "LOWW 031120Z 36016KT 9999 FEW044 05/M06 Q1023 NOSIG", "LOXZ 031120Z 03010KT 360V060 9999 FEW040 SCT055 07/M05 Q1019 NOSIG", "LPAR 031100Z 08004KT CAVOK 19/05 Q1019", "LPAZ 031130Z 35010KT 9999 FEW030 BKN044 16/08 Q1031", "LPBJ 031100Z VRB05KT CAVOK 21/M01 Q1019", "LPCS 031130Z 22007KT CAVOK 19/10 Q1019", "LPFL 031130Z 07003KT 350V160 9999 FEW026 16/09 Q1030", "LPFR 031130Z 11012KT CAVOK 22/02 Q1017", "LPHR 031130Z 26008KT 9999 FEW030 16/09 Q1031", "LPLA 031100Z /////KT 9999 FEW030 15/10 Q1031", "LPMA 031130Z 02013G24KT 310V070 9999 FEW015 22/13 Q1022", "LPMR 031100Z VRB02KT CAVOK 20/08 Q1019", "LPMT 031100Z 34006KT 300V030 CAVOK 18/08 Q1019", "LPOV 031100Z 28003KT CAVOK 18/09 Q1019", "LPPD 031130Z 01008KT 320V040 9999 FEW022 BKN040 16/09 Q1031", "LPPR 031130Z 23007KT 200V260 CAVOK 17/10 Q1019", "LPPS 031130Z 34014KT 320V020 9999 SCT015 20/14 Q1023", "LPPT 031130Z VRB04KT CAVOK 19/04 Q1018", "LPST 031100Z 27009KT CAVOK 19/09 Q1019", "LQBK 031130Z 36006KT 9999 -RA FEW020 SCT027 BKN037 07/04 Q1017 NOSIG", "LQMO 031130Z VRB14G31KT 9999 FEW060 14/00 Q1003", "LQSA 031130Z 01007KT 310V030 9999 OVC035 05/M00 Q1013 NOSIG", "LQTZ 031130Z 28006KT 6000 -RA BKN007 OVC013 04/04 Q1015", "LRAR 031130Z 35016KT 9999 SCT032 11/04 Q1014", "LRBC 031130Z 36016KT 330V030 9999 SCT035 12/02 Q1013", "LRBM 031130Z 11005KT 080V160 9999 SCT034 BKN050 10/06 Q1014", "LRBS 031130Z 08012KT 050V110 9999 BKN030 14/08 Q1011 NOSIG", "LRCK 031130Z 12009KT 9999 SCT043 13/09 Q1012 NOSIG", "LRCL 031130Z 30006KT 260V340 9999 BKN021 OVC036 08/03 Q1013", "LRCV 031130Z 08013KT 9999 BKN032 FEW045CB 15/07 Q1009", "LRIA 031130Z 32016KT 9999 FEW023 OVC027 08/04 Q1014", "LROD 031130Z 02012KT 350V050 9999 BKN033 10/03 Q1015", "LROP 031130Z 10012KT 9999 FEW026 15/09 Q1011 NOSIG", "LRSB 031130Z 36009KT 9999 FEW022 FEW033TCU 11/06 Q1011", "LRSM 031130Z 33010KT 300V360 9999 BKN045 11/05 Q1014", "LRSV 031130Z 34017KT 9999 BKN018 06/02 Q1014", "LRTC 031130Z 34011KT 9999 BKN026 13/06 Q1012", "LRTM 031130Z 35005KT 290V020 9999 SCT015 SCT023 11/06 Q1012", "LRTR 031130Z 36016KT 9999 FEW024 10/04 Q1013", "LSGC 031150Z AUTO 04012KT 9999 BKN012 02/M01 Q1019", "LSGG 031150Z 04017KT 9999 SCT030 09/02 Q1019 NOSIG", "LSGS 031150Z 25014KT 9999 SCT060 13/05 Q1015", "LSMA 031150Z 07011KT 040V100 9999 BKN025 OVC032 05/00 Q1022 RMK BLU", "LSMD 031150Z 09007KT 050V130 9999 FEW027 OVC039 05/M01 Q1023 RM K BLU", "LSME 031150Z 03004KT 9999 BKN026 OVC030 05/M00 Q1022 RMK BLU", "LSMM 031150Z 03014G28KT 350V080 9999 BKN025 04/M00 Q1020 RMK BL U", "LSMP 031150Z 06015KT 020V080 9999 FEW030 07/M00 Q1021 RMK BLU+", "LSZA 031150Z 01016KT 9999 FEW060 19/M03 Q1011", "LSZB 031150Z 03010KT 350V070 9999 BKN026 05/M00 Q1021", "LSZC 031150Z VRB02KT 9999 OVC018 04/M00 Q1022", "LSZG 031150Z 09020KT 9999 SCT036 07/M01 Q1021", "LSZH 031150Z 04009KT 010V080 9999 FEW029 BKN037 05/M02 Q1023 NOSIG", "LSZL 031150Z 10014KT 060V140 CAVOK 19/M06 Q1011 RMK BLU", "LSZR 031150Z 04009KT 010V070 9999 SCT025 SCT032 BKN045 06/01 Q1023 RMK H", "LSZS 031150Z VRB07G18KT 9999 FEW075 06/M11 Q1013 RMK M TL170", "LTAC 031120Z 21009KT 180V250 9999 FEW040 SCT100 19/02 Q1013 NOSIG RMK RWY21L VRB06KT RWY03L 24006G22KT 190V330 RWY21R 20007KT 150V250", "LTAE 031050Z 19007KT 130V250 9999 FEW040 SCT180 18/04 Q1013 NOSIG RMK RWY21 21006KT 170V240", "LTAF 031120Z VRB02KT 9999 SCT035 23/12 Q1014 NOSIG RMK RWY23 VRB04KT 4CU035", "LTAG 031120Z 00000KT 9999 SCT030 22/12 Q1014 NOSIG RMK 4CU030", "LTAI 031120Z 18008KT 130V210 9999 SCT030 SCT200 19/13 Q1015 NOSIG RMK RWY18C 14007KT 100V170 RWY36R 14007KT 100V190 RWY18L 17007KT 110V210", "LTAJ 031120Z 12006KT 090V180 9999 FEW035 18/08 Q1016 NOSIG RMK RWY10 21004KT 2CU035", "LTAL 031050Z 26014G28KT 230V310 9999 SCT033 BKN090 15/06 Q1013", "LTAN 031050Z 20008KT 170V240 9999 FEW040 BKN100 18/M01 Q1014 NOSIG", "LTAP 031120Z 27008KT 230V290 9999 SCT040 BKN100 19/08 Q1012 NOSIG RMK RWY23 26010KT 220V280", "LTAR 031050Z 27006KT 230V290 9999 SCT035 BKN080 11/03 Q1017", "LTAS 031050Z 36009KT 9999 SCT035 BKN100 20/12 Q1012", "LTAT 031120Z 07003KT 050V120 9999 SCT040 19/08 Q1016 NOSIG RMK RWY03 05005KT 360V100", "LTAU 031120Z 25010KT 210V280 9999 SCT040 SCT100 18/01 Q1015 NOSIG RMK RWY07 18007KT 140V280", "LTAW 031050Z VRB02KT 9999 SCT040 BKN100 20/07 Q1014", "LTAY 031050Z 15014KT 9999 FEW040 BKN200 19/05 Q1012 NOSIG", "LTAZ 031120Z 22008KT 170V260 9999 FEW040 SCT180 21/M00 Q1014 RMK RWY29 VRB06G16KT", "LTBA 031120Z 10008KT 9999 FEW035 BKN100 19/11 Q1009 RMK RWY23 12006KT", "LTBD 031050Z 11011G21KT 080V140 CAVOK 23/05 Q1008", "LTBF 031050Z VRB01KT 9999 FEW035 BKN200 21/10 Q1008 NOSIG", "LTBH 031050Z 07013KT 9999 SCT035 BKN100 17/13 Q1007", "LTBJ 031120Z 17018KT CAVOK 21/07 Q1006 NOSIG RMK RWY16 19021KT", "LTBL 031123Z 13015G25KT 9999 FEW040 SCT100 BKN200 22/06 Q1006 NOSIG RMK RWY17 14018KT", "LTBO 031050Z 22006KT 190V250 9999 SCT040 BKN200 18/00 Q1012", "LTBQ 031050Z VRB03KT 9999 SCT035 BKN180 21/10 Q1010 NOSIG", "LTBR 031120Z 07011KT 9999 FEW035 BKN180 21/10 Q1008 NOSIG RMK RWY07 05010KT 020V080", "LTBS 031120Z 15016G27KT 9999 FEW030 SCT180 23/05 Q1011 NOSIG RMK RWY19 14020G30KT 1CU030 4CI180", "LTBU 031120Z 05011KT 9999 SCT026 BKN100 18/11 Q1009 RMK RWY22 05011KT 020V080", "LTBY 031050Z VRB04KT 9999 FEW040 BKN200 20/00 Q1011", "LTCA 031050Z 05008KT 9999 SCT035 BKN100 17/05 Q1016 NOSIG", "LTCB 031050Z 31004KT 260V340 9999 SCT033 BKN090 12/10 Q1014 NOSIG", "LTCC 031120Z 08004KT 020V170 9999 SCT040 18/11 Q1017 NOSIG RMK RWY16 17006KT 100V190 4CU040", "LTCD 031050Z VRB01KT 9999 SCT045 BKN080 14/05 Q1017 NOSIG", "LTCE 031120Z 27017KT 9999 BKN035 BKN070 10/01 Q1017 NOSIG RMK RWY08R 26015G27KT RWY26R 27016KT RWY08L 27016KT 240V300 5CU035 7AC070", "LTCF 031050Z 30012KT 9999 BKN035 BKN080 12/M01 Q1015 NOSIG", "LTCG 031120Z VRB01KT 9999 -SHRA SCT033 BKN080 14/10 Q1016 NOSIG RMK RWY29 34002KT", "LTCI 031050Z 31006KT 280V350 9999 SCT030 BKN070 10/02 Q1021 NOSIG", "LTCJ 031120Z 33004KT 230V010 9999 SCT040 19/10 Q1017 NOSIG RMK RWY20 16004KT 090V240 3CU040", "LTCK 031050Z 02003KT 9999 SCT030 BKN070 15/03 Q1017", "LTCL 031050Z VRB02KT 9999 FEW040 18/07 Q1018", "LTCN 031050Z VRB03KT 9999 SCT035 SCT180 20/09 Q1016", "LTCO 031050Z 21008KT 170V240 9999 SCT035 BKN070 11/02 Q1017", "LTCP 031050Z VRB05KT 9999 SCT025 18/11 Q1018", "LTCR 031050Z 28004KT 240V010 9999 SCT030 18/10 Q1017", "LTCS 031120Z VRB03KT 9999 BKN025 17/10 Q1017 RMK RWY22 15006KT 120V200 5CU025", "LTCT 031050Z 04010KT 9999 SCT040 BKN070 17/03 Q1014 RESHRA", "LTCU 031050Z 19006KT 120V250 9999 SCT035 BKN100 15/06 Q1018", "LTCV 031050Z VRB04KT 9999 FEW040 SCT100 18/09 Q1017", "LTCW 031050Z 31012KT 270V330 9999 SCT030 BKN070 13/M01 Q1017", "LTDA 031050Z 24004KT 160V310 CAVOK 23/09 Q1015 NOSIG", "LTFB 031050Z 16012KT CAVOK 23/06 Q1007", "LTFC 031120Z 15010KT 100V180 9999 FEW035 SCT100 BKN200 18/05 Q1014 RMK RWY23 13014KT", "LTFD 031050Z 07008KT 030V090 9999 FEW035 BKN100 21/12 Q1007", "LTFE 031120Z 11024G35KT 9999 FEW035 SCT100 BKN200 22/09 Q1008 NOSIG RMK RWY10 13020G31KT", "LTFG 031050Z 25007KT 210V280 9999 FEW030 SCT200 19/14 Q1016", "LTFH 031050Z 07006KT 030V110 9999 SCT030 BKN100 17/12 Q1014 NOSIG", "LTFJ 031120Z 05006KT 010V080 9999 FEW035 BKN100 20/12 Q1009 NOSIG RMK RWY24 04003KT 320V130", "LTFK 031050Z 04006KT 9999 FEW015 SCT025 BKN080 17/14 Q1008", "LTFM 031120Z 03011KT 9999 SCT032 BKN090 14/10 Q1011 NOSIG RMK RWY17L 02010KT RWY34L 02011KT RWY16R 01011KT RWY36 03012KT RWY18 05008KT", "LTFO 031050Z 24012KT 9999 BKN080 15/08 Q1015", "LUKK 031130Z 34013KT 9999 OVC014 09/05 Q1012 NOSIG", "LWOH 031130Z 34013KT 330V030 9999 BKN035 09/03 Q1003", "LWSK 031130Z 00000KT 9999 -RA BKN036 OVC070 12/09 Q1007 NOSIG", "LXGB 031150Z 09006KT 9999 FEW014 FEW250 17/13 Q1016 NOSIG RMK BLU BLU", "LYBE 031130Z 36012KT 9999 SCT030 11/04 Q1014 NOSIG", "LYBT 031130Z 35014KT 320V030 9999 BKN030 11/06 Q1014 NOSIG", "LYKV 031130Z 31009KT 280V340 9999 FEW013 BKN027 06/05 Q1014 NOSIG", "LYNI 031130Z 32023KT 9999 BKN007 BKN027 08/05 Q1010 NOSIG", "LYPG 031130Z 01018G29KT 9999 FEW050 17/02 Q1002 NOSIG", "LYTV 031130Z 03015G29KT CAVOK 19/01 Q1001 WS ALL RWY TEMPO 02019G39KT", "LYVR 031130Z 35014KT 9999 BKN020 09/06 Q1014 NOSIG", "LZIB 031130Z 35022KT 9999 SCT049 07/M06 Q1021 NOSIG", "LZKZ 031130Z 01024KT 9999 FEW033 SCT035 05/M02 Q1018 NOSIG", "LZPP 031130Z 36021KT 9999 SCT038 SCT047 05/M06 Q1021", "LZTT 031130Z 03024KT 9999 FEW043 SCT050 01/M05 Q1016 NOSIG", "LZZI 031130Z 04016G27KT 010V070 9999 SCT042 03/M08 Q1022", "MBGT 031100Z 09005KT 9999 SCT015 25/19 Q1018", "MDCY 031100Z 00000KT 8000 VCSH FEW016 SCT070 22/21 Q1015", "MDJB 031100Z 00000KT 9999 BKN016 20/19 Q1016", "MDLR 031100Z 00000KT 9999 FEW016 21/21 Q1015", "MDPC 031100Z 08007KT 9999 FEW018 24/21 Q1016", "MDPP 031100Z 00000KT 9999 FEW016 21/21 Q1016", "MDSD 031100Z 04004KT 9999 SCT016 22/20 Q1016", "MDST 031100Z 13004KT 080V180 9999 FEW016 21/21 Q1016", "MGHT 031100Z 00000KT CAVOK 09/07", "MHPR COR 031100Z 14006KT 9000 FEW050 19/17 Q1016 A3002 NOSIG", "MKJP 031100Z 36006KT 9999 FEW022 26/21 Q1014", "MKJS 031100Z 12004KT 9999 FEW022 24/20 Q1014", "MMAA 031049Z 36003KT 5SM SCT300 24/20 A2980 RMK 8/002 HZY", "MMAS 031043Z 09003KT 9SM SKC 12/M05 A3015 RMK HZY", "MMCM 031149Z 12012KT 7SM SCT020 26/22 A2992 RMK SLP133 5//// 981 8/500 RTS", "MMCP 031111Z RTD 14010KT 7SM SKC 22/21 A2988 RMK HZY RTS", "MMCS 031141Z 00000KT 10SM FEW250 10/M13 A2989 RMK SLP049 5//// 984 8/001 RTS", "MMCU 031140Z 01003KT 10SM FEW200 08/M06 A2997 RMK SLP074 5//// 981 8/001 RTS", "MMCZ 031150Z 00000KT 8SM SKC 21/20 A2994 RMK SLP143 5//// 957 SC RTS", "MMDO 031100Z RTD 16004KT 7SM SCT200 14/04 A3015 RMK 8/001 HZY RTS", "MMLO 031045Z 00000KT 8SM SCT220 14/04 A3020 RMK 8/002", "MMMD 031041Z 13009KT 5SM SKC 22/21 A2989 RMK HZY", "MMMM 031043Z 24003KT 6SM SKC 13/03 A3016 RMK HZY CI", "MMMT 031140Z 20007KT 5SM BKN035 21/20 A2978 RMK SLP085 8/100 HZY RTS", "MMMX 031045Z 05003KT 10SM SKC 14/07 A3024 NOSIG RMK HZY", "MMMY 031041Z 26003KT 8SM SKC 21/18 A2973 RMK HZY", "MMOX 031112Z RTD 36004KT 7SM SCT040 BKN210 14/06 A3014 RMK 8/502 RTS", "MMPG 031128Z RTD 12004KT 8SM SKC 20/11 A2973 RMK RTS", "MMQT 031041Z 29004KT 7SM SKC 13/06 A3020", "MMSD 031153Z 29003KT 10SM SKC 17/04 A2987 RMK SLP101 5//// 972 RTS", "MMSP 031043Z 00000KT 5SM SKC 14/13 A3012 RMK HZY", "MMTG 031056Z 00000KT 7SM SKC 21/16 A2989 RMK RTS", "MMTJ 031153Z 27005KT 5SM -RA OVC025 10/09 A2999 RMK 8/6// HZY-RAB48", "MMTM 031110Z 00000KT 6SM FEW010 24/22 A2977 RMK 8/100 HZY", "MMTO 031056Z 00000KT 7SM SKC 09/07 A3032 RMK HZY", "MMUN 031046Z 13006KT 7SM SCT015 24/22 A2992 RMK 8/100", "MNMG 031100Z 13006KT 9999 FEW023 22/20 Q1010 A2983 NOSIG", "MPDA 031100Z 08003KT 9999 FEW020 23/22 Q1007", "MPPA 031100Z 34003KT 9999 FEW016 25/23 Q1008", "MPTO 031100Z 34006KT 9999 FEW020 27/23 Q1007 NOSIG", "MROC 031100Z 12012KT 080V140 9999 FEW030 21/16 A2993 NOSIG", "MSLP 031150Z 09002KT CAVOK 20/17 Q1010 A2983 NOSIG", "MTPP 031200Z 12008KT 9000 FEW022 25/21 Q1015 A2997", "MUCC 031050Z 11004KT 9000 FEW020 23/21 Q1016", "MUCF 031059Z AUTO 02003KT 20/19 Q1016", "MUCL 031050Z 11011KT 9000 FEW020 26/21 Q1015", "MUCM 031050Z 07005KT 7000 VCFG FEW012 19/19 Q1016", "MUCU 031050Z 36005KT 9000 FEW020 23/20 Q1015", "MUGM 031151Z 33006KT 9SM FEW030 24/21 A3002 RMK AO2 SLP165 T02390211 10250 20228 53016 $", "MUHA 031050Z 09004KT 9000 NSC 20/19 Q1015", "MUHG 031050Z 08004KT 7000 VCFG FEW020 21/21 Q1016", "MUSC 031050Z 12004KT 8000 NSC 20/19 Q1016", "MUVR 031050Z VRB03KT 9999 NSC 20/20 Q1016", "MYCB 031100Z AUTO 09003KT //// R09///// // NCD 19/19 A3004", "MYEM 031100Z AUTO 13005KT //// R33///// // NCD 23/21 Q1017 A3003", "MYGF 031100Z 10002KT 9999 FEW018 20/19 A3003", "MYNN 031100Z 07003KT 9999 FEW020 22/21 A3005", "MYSM 031100Z AUTO 10003KT CAVOK 22/21 A3006", "MZBZ 031100Z 12005KT 9999 FEW019 26/22 A2989 Q1012 NOSIG", "NCAI 031100Z AUTO 02004KT //// ////// 25/24 Q1009", "NCAT 031100Z AUTO 11002KT //// ////// ///// Q////", "NCMG 031100Z AUTO 11004KT //// ////// ///// Q////", "NCMH 031100Z AUTO 08002KT //// ////// ///// Q1011", "NCMK 031100Z AUTO NIL", "NCMR 031100Z AUTO 07004KT //// ////// ///// Q1009", "NCNS 031100Z AUTO 36001KT //// ////// 26/25 Q1011", "NCPK 031100Z AUTO NIL", "NCPL 031100Z AUTO 09004KT //// ////// 28/24 Q1011", "NCPY 031100Z AUTO 05004KT //// ////// 29/25 Q1011", "NCRG 031130Z AUTO 13005KT 080V180 9999 SCT080/// 25/20 Q1011", "NCRK 031100Z AUTO 09002KT //// ////// 27/23 Q1011", "NCSW 031100Z AUTO 27001KT //// ////// 28/25 Q1011", "NFFN 031100Z 12006KT 9999 FEW030 25/23 Q1013 NOSIG", "NFNA 031100Z 33003KT 9999 SCT018TCU 25/25 Q1013", "NFTF 031100Z VRB01KT 9999 SCT016 22/21 Q1015", "NGTA 031100Z 06004KT 9999 VCSH SCT017TCU BKN040 27/25 Q1009", "NIUE 031100Z 11010KT 9999 -DZ BKN018 25/24 Q1012", "NLWW 031130Z AUTO VRB03KT 9999 NCD 26/24 Q1010 NOSIG", "NSFA 031100Z 11003KT 9999 FEW022 BKN130 25/24 Q1011", "NSTU 031150Z VRB04KT 10SM SCT021 BKN120 26/25 A2983 RMK SLP102 70128 8/170 T02550252 10270 20253 56007", "NTAA 031130Z 08003KT 9999 FEW023 26/22 Q1011 NOSIG", "NVVV 031100Z 07003KT 9999 FEW020 SCT300 25/24 Q1013", "NWWW 031130Z AUTO 03002KT 9999 BKN036 BKN044 25/23 Q1014 NOSIG", "NZAA 031130Z AUTO 21015KT 9999 FEW019/// SCT026/// 17/14 Q1018", "NZCH 031130Z AUTO 00000KT 9999 NCD 05/04 Q1020", "NZCM 031055Z AUTO 00000KT 9999 CLR M20/M24 A2998 RMK AO2 SLP159 T12011235", "NZWN 031130Z AUTO 17009KT 9999 NCD 14/09 Q1020", "OBBI 031130Z 33021KT CAVOK 23/11 Q1014 NOSIG", "OEAB 031100Z 22012KT 9999 FEW020 22/06 Q1021 NOSIG", "OEAH 031100Z 34015KT CAVOK 27/M07 Q1014 NOSIG", "OEAO 031100Z 15010KT CAVOK 30/M06 Q1014 NOSIG", "OEBA 031100Z 21007KT 9999 SCT030 26/03 Q1017 NOSIG", "OEBH 031100Z 33003KT 8000 NSC 29/08 Q1013 NOSIG", "OEDF 031100Z 33022KT CAVOK 27/00 Q1014 NOSIG", "OEDM 031100Z 04008KT CAVOK 26/M06 Q1016", "OEDR 031100Z 32022KT CAVOK 27/M02 Q1013", "OEGN 031100Z 23014KT 9000 NSC 34/24 Q1008 NOSIG", "OEGS 031100Z 08004KT CAVOK 26/M05 Q1017", "OEGT 031100Z 14012KT CAVOK 27/M06 Q1015 NOSIG", "OEHL 031100Z 30008KT CAVOK 25/04 Q1018", "OEJB 031100Z AUTO 01016KT CAVOK 25/06 Q1015 NOSIG", "OEJN 031100Z 27010KT CAVOK 28/17 Q1009 NOSIG", "OEKJ 031100Z 03008KT CAVOK 26/M09 Q1019", "OEKM 031100Z 24015KT CAVOK 23/04 Q1021 NOSIG", "OEMA 031100Z 10010KT 8000 NSC 29/M05 Q1015 NOSIG", "OEMN 031100Z 24008KT CAVOK 33/01 Q1011", "OENG 031100Z 09010KT 7000 NSC 28/M01 Q1016 NOSIG", "OEPA 031100Z 35008KT CAVOK 26/00 Q1016 NOSIG", "OEPS 031055Z 36008G15KT 9999 CLR 25/M08 A3008 RMK AO2A SLP175 WND DATA ESTMD T02491076", "OERF 031100Z 26003KT CAVOK 26/M07 Q1016 NOSIG", "OERK 031100Z 36007KT CAVOK 25/M04 Q1017 NOSIG", "OERR 031100Z 24003KT CAVOK 27/M05 Q1016 NOSIG", "OESH 031100Z 06010KT 6000 NSC 29/06 Q1014 NOSIG", "OESK 031100Z 15006KT CAVOK 27/M06 Q1019 NOSIG", "OETB 031100Z 11004KT CAVOK 28/M08 Q1013 NOSIG", "OETF 031100Z 29013KT 9999 FEW030 27/M08 Q1017 NOSIG", "OETR 031100Z 20005KT CAVOK 23/M06 Q1017 NOSIG", "OEWD 031100Z 12012KT CAVOK 28/M11 Q1014", "OEWJ 031100Z 29014KT CAVOK 27/17 Q1010 NOSIG", "OEYN 031100Z 20013KT CAVOK 32/12 Q1007 NOSIG", "OIAA 031100Z 31023KT CAVOK 26/06 Q1014", "OIAG 031100Z 32012KT CAVOK 25/04 Q1014", "OIAH 031100Z 30008KT CAVOK 21/M01 Q1015", "OIAI 031051Z 26002KT CAVOK 22/05 Q1013", "OIAM 031100Z 32012KT CAVOK 24/07 Q1013", "OIAW 031130Z 29008KT CAVOK 25/05 Q1013", "OIBA 031100Z 29020KT CAVOK 24/13 Q1009", "OIBB 031100Z 30014KT CAVOK 22/09 Q1013 A2993 NOSIG", "OIBH 031100Z 27012KT CAVOK 22/10 Q1013 A2993", "OIBK 031130Z 29024G34KT CAVOK 24/10 Q1009 NOSIG", "OIBL 031100Z 26016KT CAVOK 27/09 Q1008", "OIBP 031130Z 29017KT CAVOK 24/13 Q1009 A2981", "OIBQ 031100Z 31016KT CAVOK 22/11 Q1014", "OIBS 031100Z 30019KT CAVOK 24/12 Q1010", "OIBV 031100Z 30029KT CAVOK 24/11 Q1009", "OICC 031130Z 33010KT 9999 SCT045 15/M01 Q1016 A3001", "OICI 031130Z 26008KT 9999 FEW040 16/04 Q1017 A3006", "OICJ 031100Z 19004KT 9999 FEW040 15/M01 Q1016", "OICK 031100Z 28010KT CAVOK 16/00 Q1016 A3000", "OICM 031100Z 30014G25KT CAVOK 23/06 Q1012", "OICS 031100Z 20004KT 9999 SCT040 16/M02 Q1015 A2998", "OIFK 031100Z 16004KT CAVOK 21/M08 Q1011 A2988", "OIFM 031130Z 27004KT CAVOK 18/M09 Q1014 A2995", "OIFS 031100Z 19008KT 9999 FEW040 16/M10 Q1014", "OIGG 031130Z 36008KT 9999 FEW030 18/11 Q1014", "OIGK 031050Z 23006KT 9999 SCT035CB FEW040TCU 11/M04 Q1016", "OIHH 031100Z 28008KT 9999 FEW035 SCT040 15/M03 Q1015 A2998", "OIHM 031100Z 29012KT 9999 FEW040 13/M04 Q1015", "OIHR 031100Z 29016KT 9999 FEW030 16/M07 Q1014", "OIIE 031100Z 31020KT 9999 FEW040 20/M09 Q1011", "OIII 031130Z 24016KT 9999 FEW040 18/M06 Q1011 A2987", "OIIK 031100Z 31004KT 9999 SCT030 18/00 Q1012", "OIIP 031130Z 30016KT 9999 FEW040 17/M04 Q1011 A2985", "OIKB 031130Z 21019KT CAVOK 26/07 Q1008 A2977", "OIKK 031100Z 28010KT CAVOK 20/M17 Q1013 A2993", "OIKO 031100Z 20008KT CAVOK 27/10 Q1009", "OIKQ 031100Z 23016KT 8000 NSC 25/15 Q1008 NOSIG", "OIMB 031100Z 27010KT 9999 FEW035 19/M20 Q1012 A2989", "OIMC 031051Z 00000KT CAVOK 21/08 Q1010", "OIMD 031100Z 33008KT CAVOK 19/M08 Q1008", "OIMJ 031100Z 22014KT 9999 FEW035TCU SCT035 15/M05 Q1011", "OIMM 031130Z 04004KT 9999 FEW035 18/04 Q1010 A2984", "OIMN 031100Z 29006KT 9999 -SHRA FEW003 SCT035CB OVC060 07/03 Q1013", "OIMQ 031100Z 27018KT CAVOK 17/M06 Q1011", "OIMS 031100Z 27016KT 9999 SCT035 17/M04 Q1013", "OINB 031100Z 06008KT 9999 FEW020 BKN100 16/10 Q1014", "OINE 031100Z 31006KT 9999 SCT025 OVC090 12/07 Q1014", "OING 031100Z 28006KT 9999 SCT030 BKN100 16/10 Q1017 NOSIG", "OINK 031100Z 32006KT 9999 SCT020 BKN090 13/07 Q1013 A2993", "OINN 031100Z 03004KT 9999 FEW025 15/09 Q1014", "OINR 031100Z 06006KT 9999 FEW030 15/10 Q1014", "OINZ 031130Z 34008KT 9999 FEW030 17/10 Q1015", "OISA 031100Z 17002KT CAVOK 18/M16 Q1014 A2995", "OISF 031100Z 22006KT CAVOK 23/M08 Q1013 A2993", "OISL 031100Z 29008KT CAVOK 27/M05 Q1009 A2981 NOSIG", "OISR 031130Z 28014KT CAVOK 28/04 Q1010 A2985", "OISS 031130Z 16006KT CAVOK 22/M05 Q1013 A2991", "OISY 031100Z 16012KT CAVOK 17/M03 Q1018", "OITK 031100Z 03010KT 9000 -SHRA FEW033CB FEW035TCU BKN040 16/02 Q1014 A2996", "OITL 031100Z 06017KT 9999 SCT030TCU FEW040CB 11/04 Q1013 NOSIG", "OITM 031100Z 01004KT 9999 SCT035TCU 16/M01 Q1014", "OITP 031100Z 08006KT CAVOK 18/08 Q1012", "OITR 031130Z 31004KT 9999 SCT030CB SCT035 16/01 Q1014 A2996", "OITT 031130Z 29012KT 9999 BKN030TCU 16/M02 Q1015 A2998", "OITZ 031100Z 28012KT 9999 BKN035 14/M03 Q1013 A2993", "OIYY 031130Z 35004KT CAVOK 20/M08 Q1013", "OIZB 031100Z 01008KT CAVOK 29/M10 Q1008", "OIZC 031100Z 24026KT 3000 SA NSC 29/12 Q1005 A2969", "OIZH 031130Z 05014KT 8000 FEW040 23/M04 Q1011 A2986", "OIZI 031100Z 24010KT CAVOK 28/M03 Q1009", "OIZJ 031100Z 28017KT CAVOK 26/17 Q1007", "OKAS 031055Z 33012G18KT 9999 CLR 26/00 A2998 RMK AO2A SLP150 T02620000 FZRANO $", "OKKK 031100Z 36016KT CAVOK 27/02 Q1015 NOSIG", "OLBA 031100Z 36009KT 340V050 CAVOK 22/11 Q1016 NOSIG", "OMAA 031100Z 29017KT 9999 FEW040 25/12 Q1012 NOSIG", "OMAD 031100Z 30014KT 9999 FEW040 25/13 Q1012 NOSIG", "OMAL 031100Z 29015KT 260V330 CAVOK 26/07 Q1012 NOSIG", "OMDB 031100Z 28015KT 250V310 9999 FEW033 25/13 Q1011 NOSIG", "OMDW 031100Z 28018KT 250V310 9999 4000E BLDU FEW034 25/12 Q1013 TEMPO 3000", "OMFJ 031100Z 28020KT 240V300 5000 BLDU NSC 28/05 Q1009 A2980", "OMRK 031100Z 26012KT 220V300 CAVOK 26/11 Q1011 A2987", "OMSJ 031100Z 26016KT 9999 FEW035 25/12 Q1012 NOSIG", "OOAD 031050Z AUTO 32021KT 9999 // NCD 34/M03 Q1009 NOSIG", "OODQ 031050Z AUTO 32010KT 290V350 CAVOK 34/06 Q1009 NOSIG RMK RH17? 0", "OOKB 031050Z 26009KT 210V320 CAVOK 28/04 Q1009 NOSIG", "OOMS 031050Z 33013KT CAVOK 27/16 Q1009 NOSIG", "OOSA 031050Z 19011KT 9999 FEW035 31/23 Q1009 NOSIG", "OOSH 031050Z AUTO 28013KT //// ////// 33/02 Q1007 RMK 1004", "OPIS 031130Z 31010KT 5000 FU FEW040 SCT100 22/14 Q1008 TEMPO 31 015G25KT 3000 TSRA FEW030CB", "OPKC 031130Z 22015KT 6000 SCT030 29/17 Q1007 TEMPO 22015G25KT", "OPLA 031125Z 04008KT 4000 FU FEW040 SCT100 23/16 Q1008 NOSIG RMK QFE982 A29.77", "OPMT 031130Z 00000KT 5000 FU SCT040 SCT100 26/16 Q1006 TEMPO 31025KT 2000 TSRA FEW030CB", "OPNH 031100Z 22514KT 7000 NSC 39/16 Q1004", "OPPS 031130Z 31010KT 8000 HZ FEW030TCU BKN040 BKN080 19/14 Q100 9", "OPSK 031100Z 05010KT 4000 HZ NSC 32/16 Q1003 NOSIG", "OPST 031100Z 13004KT 4000 FU SCT040 SCT100 24/16 Q1008 NOSIG 63%", "ORBI 031100Z 34007KT 300V010 9999 FEW030 24/08 Q1016 NOSIG", "OTBD 031130Z 34016KT CAVOK 26/09 Q1013 NOSIG", "OTBH 031055Z 33026G33KT 9999 CLR 26/04 A2990 Q1012 RMK AO2A PK WND 33036/10 SLP127 T02620040 FZRANO $", "OTHH 031100Z 34022KT CAVOK 26/09 Q1013 NOSIG", "PAAD 031135Z AUTO 25017KT 7SM SCT070 SCT085 BKN110 M18/M20 A3005 RMK AO2 T11761197 PWINO", "PAAQ 031053Z AUTO 34008KT 10SM CLR M03/M11 A3011 RMK AO2 SLP199 T10331106 TSNO $", "PABA 031152Z AUTO 27022KT 5SM -SN BR BKN019 BKN028 OVC060 M16/M17 A3005 RMK AO2 PK WND 28028/1101 SLP184 6//// 7//// T11561172 11128 21156 51017 FZRANO PNO $", "PABE 031053Z 02004KT 10SM CLR M07/M08 A2996 RMK AO2 SLP147 T10721083", "PABI 031108Z AUTO 23006KT 9SM -SN BKN024 OVC036 M11/M12 A3010 RMK AO2 SNB04 P0000 T11061117 TSNO $", "PABL 031056Z AUTO 00000KT 10SM OVC018 M16/M18 A3015 RMK AO2 SNE14B37E47 SLP211 P0000 T11611178 FZRANO", "PABR 031053Z AUTO 23014KT 4SM -SN OVC015 M14/M17 A2993 RMK AO2 SNE19B36 SLP138 P0000 T11441172 TSNO $", "PABT 031053Z 14005KT 10SM CLR M16/M18 A3005 RMK AO2 SLP196 T11611178 PNO", "PABV 031056Z AUTO 04005KT 10SM CLR M04/M10 A3012 RMK AO2 SLP206 T10441100 FZRANO", "PACD 031053Z AUTO 18008KT 10SM OVC021 04/03 A2978 RMK AO2 SLP084 T00390028 TSNO", "PACM 031056Z AUTO 08006KT CLR M12/M13 A3004 RMK AO2 SLP167 T11221133 PWINO FZRANO $", "PACV 031053Z 00000KT 10SM CLR M07/M09 A3008 RMK AO2 SLP186 T10671094", "PADK 031056Z AUTO 21017G22KT BKN023 OVC028 04/02 A2969 RMK AO2 SLP055 P0002 T00390022 PWINO $", "PADL 031056Z AUTO 05008KT 10SM OVC070 M02/M03 A2997 RMK AO2 SLP151 T10221033 FZRANO", "PADM 031056Z AUTO 02012KT 10SM CLR M09/M12 A3004 RMK AO2 SLP179 T10891117 FZRANO", "PADQ 031053Z AUTO 00000KT 10SM OVC055 02/M04 A3004 RMK AO2 SLP175 T00171044 TSNO", "PADU 031144Z AUTO 21014KT 10SM BKN025 04/02 A2983 RMK AO2", "PAED 031055Z 00000KT 10SM FEW220 M04/M11 A3008 RMK AO2A SLP184 T10421108", "PAEG 031053Z AUTO 00000KT 10SM CLR M16/M18 A3005 RMK AO2 SLP195 T11611183 TSNO $", "PAEH 031136Z AUTO 03025G35KT 010V160 1 1/2SM -SN OVC011 M01/M02 A2980 RMK AO2 SLP100", "PAEI 031055Z 11003KT 10SM FEW060 M17/M20 A3009 RMK AO2A SLP204 AURBO T11731197", "PAEN 031053Z AUTO 01003KT 10SM CLR M09/M11 A3009 RMK AO2 SLP192 T10891111 TSNO", "PAFA 031053Z 00000KT 10SM FEW045 SCT100 M14/M17 A3011 RMK AO2 SLP208 T11441172 $", "PAFB 031055Z AUTO 00000KT 10SM CLR M16/M18 A3011 RMK AO2 SLP211 T11651183", "PAFE 031056Z AUTO 08003KT 10SM BKN110 01/M01 A3000 RMK AO2 SLP171 T00061006 FZRANO", "PAFM 031056Z AUTO 08003KT 10SM OVC009 M19/M21 A3017 RMK AO2 SNE36 SLP227 P0000 T11891206 FZRANO", "PAFR 031055Z AUTO 00000KT 10SM CLR M10/M13 A3009 RMK AO2 SLP200 T10991132 $", "PAFS 031101Z AUTO 05003KT 10SM CLR M16/M18 A3008 RMK AO2 SLP199 T11561183 FZRANO", "PAGK 031053Z AUTO 31005KT 10SM CLR M18/M19 A3010 RMK AO2 SLP239 T11781194 TSNO $", "PAGL 031056Z AUTO 02005KT 10SM CLR M18/M19 A3011 RMK AO2 SNE17 SLP190 P0000 T11781194 FZRANO", "PAGN 031056Z AUTO 00000KT 7SM -RA OVC007 02/01 A3000 RMK AO2 RAB11 SLP149 P0001 T00170011 FZRANO", "PAGS 031138Z AUTO 32003KT 4SM -SN BR SCT009 BKN017 OVC023 01/00 A3002 RMK AO2 UPB1057E22SNB22 P0000 FZRANO", "PAGY 031053Z AUTO 03012KT 10SM SCT085 01/M06 A3003 RMK AO2 SLP169 T00111056 TSNO", "PAHL 031056Z AUTO 00000KT 10SM CLR M19/M21 A3012 RMK AO2 SLP207 T11941211 FZRANO", "PAHN 031123Z AUTO 31005KT 10SM SCT030 OVC055 01/M02 A3003 RMK AO2 SNE12 P0000 T00061022 TSNO", "PAHO 031053Z AUTO 04004KT 10SM CLR M02/M06 A3007 RMK AO2 SLP185 T10221056 TSNO", "PAHX 031102Z AUTO 02007KT 10SM CLR M13/M15 A3006 RMK AO2 SLP181 T11281150 FZRANO", "PAHY 031132Z AUTO 17003KT 10SM SCT010 BKN014 OVC039 02/01 A3004 RMK AO2 RAE31UPB12E21 P0003 FZRANO $", "PAIG 031056Z AUTO 05006KT 10SM CLR M06/M06 A2997 RMK AO2 SLP159 T10561061 FZRANO $", "PAIK 031056Z AUTO 00000KT 10SM BKN095 BKN110 M19/M21 A3016 RMK AO2 SLPNO T11891206 FZRANO", "PAIM 031055Z AUTO 00000KT 10SM CLR M16/M18 A3001 RMK AO2 SHSNB0958E1015 SLP201 T11631177", "PAIN 031056Z AUTO 24003KT 9SM -SN OVC020 M13/M14 A3006 RMK AO2 SNB15 SLP218 P0000 T11281144 FZRANO", "PAJN 031053Z 09004KT 10SM SCT003 BKN049 BKN060 01/00 A2998 RMK AO2 RAE0959PLE0959SNE36 SLP152 P0003 T00060000 $", "PAJZ 031056Z AUTO 05008KT 9SM CLR M06/M08 A3003 RMK AO2 SLP175 T10561078 FZRANO $", "PAKF 031056Z AUTO 21003KT 10SM OVC010 03/03 A2980 RMK AO2 SLP090 T00330028", "PAKH 031056Z AUTO 10SM -RA OVC016 A3000 RMK AO2 RAB03UPB11E15SNE03 SLPNO P0000 FZRANO TSNO $", "PAKI 031056Z AUTO 10SM OVC065 A2991 RMK AO2 SLPNO FZRANO $", "PAKN 031054Z 08004KT 10SM OVC041 00/M04 A2992 RMK AO2 SLP133 T00001039 $", "PAKP 031056Z AUTO 00000KT 5SM -SN BR OVC035 M16/M18 A2985 RMK AO2 SLP174 P0000 T11561178 FZRANO", "PAKT 031143Z AUTO 19003KT 5SM -RA BR BKN024 OVC043 02/00 A3004 RMK AO2 RAB12 P0001 T00170000 TSNO", "PAKU 031145Z 25010KT 10SM R24/P6000FT BKN011 M18/M22 A3005", "PAKV 031053Z AUTO 24003KT 10SM CLR M21/M23 A3013 RMK AO2 SLP208 I1000 T12111228 TSNO", "PAKW 031053Z AUTO 16005KT 10SM FEW011 BKN036 OVC060 02/00 A3002 RMK AO2 RAB25E38UPB26E27B47E52SNB38E47 SLP166 P0000 T00170000 TSNO", "PAKX 031135Z AUTO 00000KT 10SM CLR M04/M08 A2999 RMK AO2", "PALG 031056Z AUTO 07006KT 10SM CLR M04/M08 A2998 RMK AO2 SLP154 T10441083 FZRANO", "PALH 031053Z AUTO 00000KT 10SM CLR M06/M09 A3011 RMK AO2 SLP195 T10611094 TSNO", "PALP 031145Z 22008KT 10SM -SN OVC010 M18/M21 A3005", "PALU 031127Z AUTO 27008KT 220V300 1 3/4SM -SN BR OVC009 M16/M19 A3008 RMK AO2 SLP184", "PAMB 031152Z AUTO 06012KT 1SM -SN BR BKN012 OVC019 M02/M03 A2993 RMK AO2 SLP140 P0000 60000 T10221028 11017 21022 56021 FZRANO $", "PAMC 031053Z AUTO 31003KT 10SM CLR M19/M21 A3009 RMK AO2 SLP199 T11891206 TSNO $", "PAMH 031056Z AUTO 00000KT CLR M17/M19 A3009 RMK AO2 SLP197 T11721189 PWINO FZRANO $", "PAMK 031056Z AUTO 32004KT 10SM CLR M14/M17 A3007 RMK AO2 SLP184 T11441167 FZRANO", "PAMM 031153Z AUTO 23013KT 10SM -RA FEW014 BKN026 OVC045 03/01 A3004 RMK AO2 RAB27 P0000 $", "PAMO 031056Z AUTO 06010KT 10SM CLR M12/M14 A3001 RMK AO2 SLP170 T11171139 FZRANO", "PAMR 031053Z 04004KT 10SM CLR M04/M12 A3010 RMK AO2 SLP194 T10391117", "PAMY 031113Z AUTO 07011KT 2 1/2SM -SN BR OVC006 M04/M04 A2981 RMK AO2 CIG 004V009 P0000 FZRANO", "PANA 031056Z AUTO 05004KT 10SM CLR M06/M08 A2996 RMK AO2 SLP143 T10611083 FZRANO TSNO $", "PANC 031053Z 10003KT 10SM SCT240 M04/M10 A3009 RMK AO2 SLP192 T10441100", "PANI 031056Z AUTO 00000KT 10SM CLR M11/M12 A3004 RMK AO2 SLP167 T11061122 FZRANO $", "PANV 031056Z AUTO 03012KT 10SM CLR M11/M15 A3002 RMK AO2 SLP288 T11111150 FZRANO TSNO", "PANW 031056Z AUTO 03007KT 10SM OVC100 M06/M07 A2997 RMK AO2 SLP158 T10561072 FZRANO", "PAOH 031056Z AUTO 00000KT 10SM OVC049 M01/M02 A2999 RMK AO2 SLP155 T10111017 FZRANO", "PAOM 031053Z AUTO 00000KT 10SM SCT100 M22/M23 A3007 RMK AO2 SLP184 T12171233 TSNO", "PAOR 031053Z 10003KT 10SM CLR M21/M23 A3005 RMK AO2 SLP231 T12061228 PNO", "PAOT 031053Z AUTO 11007KT 10SM OVC014 M17/M18 A3012 RMK AO2 SLP200 T11671183 TSNO $", "PAOU 031105Z AUTO 15004KT 5SM -RA BR SCT028 OVC042 02/01 A2979 RMK AO2 FZRANO PNO $", "PAPB 031053Z AUTO 21011KT 1/2SM FG VV002 03/02 A2966 RMK AO2 SLP031 T00280022 TSNO $", "PAPG 031103Z AUTO VRB03KT 10SM UP FEW026 OVC035 01/01 A2999 RMK AO2 P0000 FZRANO", "PAPH 031056Z AUTO 14022G28KT 10SM -RA BKN050 03/01 A2981 RMK AO2 PK WND 14028/1054 UPB32E37RAB37 SLP094 P0000 T00280006", "PAPN 031056Z AUTO 10013KT 9SM OVC060 01/00 A2985 RMK AO2 UPB05E44RAB44E48SNE05 SLP109 P0000 T00060000 FZRANO", "PAPO 031056Z AUTO 26004KT 9SM -SN CLR M22/M24 A3010 RMK AO2 SLP194 P0000 T12171239 FZRANO", "PAQT 031153Z AUTO 22011KT 10SM OVC011 M18/M21 A3007 RMK AO2 SLP182 T11831206 11172 21206 51007 TSNO PNO $", "PARY 031056Z AUTO 08003KT 10SM CLR M14/M16 A3006 RMK AO2 SLP199 T11391156 FZRANO", "PASC 031113Z 24013KT 10SM BKN013 M20/M23 A3005 RMK AO2 T12001228", "PASI 031053Z 00000KT 10SM FEW013 SCT027 BKN070 02/00 A2999 RMK AO2 RAB03E22SNE44 SLP155 P0001 T00220000", "PASK 031056Z AUTO 17004KT 10SM FEW020 M21/M23 A3017 RMK AO2 SLP214 T12111228 FZRANO", "PASL 031056Z AUTO 00000KT 10SM CLR M12/M14 A3007 RMK AO2 SLP176 T11171139 FZRANO", "PASM 031056Z AUTO 04004KT 10SM CLR M13/M15 A3001 RMK AO2 SLP175 T11281150 FZRANO", "PASN 031130Z AUTO 16007KT 3/4SM BR VV009 01/01 A2963 RMK AO2 T00110011 TSNO $", "PASO 031053Z AUTO 00000KT 10SM CLR M03/M04 A3008 RMK AO2 SLP184 T10281044 TSNO", "PASV 031055Z AUTO 05008KT 10SM BKN190 M05/M10 A2993 RMK AO2 SLP165 T10491100", "PASX 031056Z AUTO 00000KT 10SM CLR M07/M09 A3011 RMK AO2 SLP204 T10721094 FZRANO", "PASY 031145Z 35013G21KT 6SM BR BKN010 BKN016 OVC026 02/01 A2970 RMK AO2A RAB1059 SLP061 RVRNO PNO FZRANO $", "PATA 031152Z AUTO 00000KT 10SM CLR M23/M26 A3012 RMK AO2 SLP208 I6000 T12331256 11078 21233 55001 TSNO $", "PATC 031140Z AUTO 03006KT 10SM -SN OVC050 M15/M18 A3006 RMK AO2 SLP190", "PATG 031139Z AUTO 07012KT 2SM -SN BR BKN017 OVC026 M01/M03 A2993 RMK AO2 UPB06E26SNB26 P0000 FZRANO", "PATK 031053Z AUTO 00000KT 10SM CLR M10/M13 A3011 RMK AO2 SLP205 T11001128 TSNO", "PATL 031055Z AUTO 00000KT 10SM FEW250 M10/M12 A3006 RMK AO2 SLP205 T10971118 TSNO $", "PATO 031053Z AUTO 00000KT 10SM CLR M08/M09 A3012 RMK AO2 SLP199 T10831094 TSNO", "PATQ 031135Z AUTO 23016KT 10SM OVC016 M19/M21 A2999 RMK AO2 SNE18 P0000 FZRANO TSNO", "PAUN 031131Z AUTO 07011KT 10SM FEW002 M15/M18 A3009 RMK AO2 FZRANO", "PAVC 031056Z AUTO 15008KT 8SM UP OVC028 02/02 A2982 RMK AO2 RAE14UPB14 SLP098 P0000 T00170017 FZRANO", "PAVD 031056Z AUTO VRB06KT CLR M01/M11 A3018 RMK AO2 SLP217 T10061106 FZRANO TSNO $", "PAVL 031053Z AUTO 17004KT 10SM OVC049 M19/M21 A3011 RMK AO2 SNE01 SLP196 P0000 T11891211 TSNO $", "PAWD 031053Z AUTO 35008KT 10SM CLR M02/M11 A3009 RMK AO2 SLP190 T10221106 TSNO", "PAWM 031056Z AUTO 00000KT 9SM CLR M17/M18 A3008 RMK AO2 SLP193 T11671183 FZRANO", "PAWN 031140Z AUTO 00000KT 9SM -SN SCT015 M19/M22 A3013 RMK AO2 P0000 FZRANO", "PAWS 031056Z AUTO 06007KT 10SM CLR M03/M11 A3012 RMK AO2 SLP206 T10281106 FZRANO", "PAYA 031053Z AUTO 00000KT 10SM CLR M04/M05 A3005 RMK AO2 SLP175 I1000 T10391050 TSNO $", "PAZK 031056Z AUTO 24006KT 10SM CLR M13/M16 A2994 RMK AO2 SLP215 T11331161 FZRANO", "PFCL 031152Z AUTO 07010KT 2 1/2SM -SN BR BKN019 OVC025 M02/M02 A2993 RMK AO2 P0000 FZRANO TSNO", "PFEL 031138Z AUTO 33006KT 10SM BKN013 M16/M18 A3008 RMK AO2 FZRANO", "PFKT 031056Z AUTO 11007KT 10SM BKN090 BKN110 A3010 RMK AO2 SLPNO FZRANO $", "PFSH 031056Z AUTO 06005KT 10SM CLR M19/M21 A3011 RMK AO2 SLP195 T11891211 FZRANO", "PFWS 031143Z AUTO 06006KT 1 3/4SM -SN BR OVC015 M02/M03 A2994 RMK AO2 P0000 FZRANO", "PFYU 031056Z AUTO 24006KT 10SM CLR M08/M12 A3002 RMK AO2 SLP180 T10831122 FZRANO", "PGSN 031125Z 35003KT 10SM FEW003 BKN026 OVC032 25/24 A2978 RMK AO2 T02500244", "PGUA 031103Z AUTO 20004KT 8SM FEW013 FEW024 BKN180 26/24 A2978 RMK AO2 RAE03 SLP075", "PGUM 031054Z 17003KT 10SM CLR 27/24 A2978 RMK AO2 SLP077 T02720244", "PHBK 031151Z AUTO 09004KT 10SM CLR 20/17 A3005 RMK AO2 SLP176 T02000172 10228 20194 58007 $", "PHHI 031055Z AUTO 16003KT 10SM BKN007 BKN160 19/17 A3005 RMK AO2 DZE01RAB01E14DZB14E22 CIG 007V160 SLP168 P0000 T01860171 $", "PHJR 031137Z AUTO 06011G19KT 10SM BKN014 22/20 A3003 RMK AO2 T02220200 TSNO", "PHKO 031053Z AUTO 00000KT 10SM SCT095 BKN110 22/19 A3005 RMK AO2 SLP174 P0001 T02220194 TSNO $", "PHLI 031113Z AUTO 05007KT 6SM RA BR SCT029 BKN037 OVC050 22/20 A3009 RMK AO2 RAB10 P0000 T02220200 TSNO", "PHMK 031054Z AUTO 03006KT 10SM FEW024 BKN055 OVC100 21/20 A3010 RMK AO2 SLP196 P0008 T02110200 TSNO $", "PHNG 031057Z AUTO 17009G17KT 10SM UP FEW090 BKN110 A3000 RMK AO2 RAE57UPB57 SLP155 P0005", "PHNL 031053Z 13015KT 10SM -RA FEW020 BKN110 22/20 A3001 RMK AO2 PRESFR SLP162 P0005 T02170200", "PHNY 031056Z AUTO 04005KT 10SM 19/18 A3012 RMK AO2 SLP179 T01940178 $", "PHOG 031054Z AUTO 06008KT 10SM FEW046 BKN120 21/19 A3005 RMK AO2 SLP182 T02110194 TSNO", "PHSF 031055Z AUTO 11007KT 5SM -RA BR OVC060 09/08 A3036 RMK AO2 SLP177 P0005 T00910077 $", "PHTO 031120Z AUTO 26009KT 3SM +RA BR SCT033 BKN040 OVC075 19/18 A3008 RMK AO2 P0009 T01940183 TSNO $", "PKMR 031053Z 09007KT 15SM FEW015 SCT300 28/24 A2982 RMK SLP102 T02780239", "PKWA 031140Z AUTO 08015KT 10SM SCT019 27/24 A2984 RMK AO2 T02740240 TSNO", "PLCH 031100Z VRB02KT 9999 FEW020 25/24 Q1009", "PMDY 031056Z AUTO 10SM OVC038 21/19 A3013 RMK AO2 SLP204 T02110189 402280189 TSNO $", "PPIZ 031136Z AUTO 22012KT 9SM -SN FEW014 SCT110 M18/M21 A3003 RMK AO2 P0000 FZRANO", "PTKK 031052Z 00000KT 15SM FEW014 SCT120 OVC280 26/25 A2978 RMK SLP086 T02610253", "PTRO 031150Z 00000KT 14SM FEW015 SCT110 BKN290 24/23 A2979 ", "PTTP 031053Z 12004KT 15SM FEW018 SCT300 27/24 A2982 RMK SLP098 T02700244", "PTYA 031050Z VRB04KT 12SM FEW016 BKN300 27/25 A2976 RMK SLP079 T02730252", "PWAK 031055Z AUTO 09005KT 10SM SCT023 25/20 A2994 RMK AO2 SLP145 T02460198", "RCFN 031130Z 33004KT 270V030 9999 FEW015 BKN035 BKN050 21/20 Q1015 NOSIG RMK A3000", "RCKH 031130Z 34003KT 320V020 9999 FEW010 SCT020 BKN037 25/19 Q1011 NOSIG RMK A2987", "RCMQ 031130Z 30003KT 9000 FEW010 SCT050 20/19 Q1012 NOSIG RMK A2990", "RCNN 031130Z 30004KT 9999 FEW012 SCT025 BKN050 24/17 Q1012 RMK A2989", "RCSS 031130Z 09010KT 9999 FEW025 22/15 Q1012 NOSIG RMK A2991", "RCTP 031130Z 11012KT 9999 FEW020 23/18 Q1012 NOSIG RMK A2989", "RJAA 031130Z 04005KT 360V080 9999 FEW030 10/04 Q1024 NOSIG RMK 1CU030 A3025", "RJAH 031100Z 05007KT 9999 FEW030 09/02 Q1024", "RJBB 031130Z 04005KT 350V080 9999 FEW020 14/08 Q1023 NOSIG", "RJBE 031100Z 06006KT CAVOK 15/07 Q1022", "RJCB 031100Z 15006KT CAVOK 02/M02 Q1024", "RJCC 031130Z VRB02KT 9999 FEW010 03/02 Q1025 RMK 1ST010 A3027", "RJCH 031100Z 01005KT CAVOK 03/00 Q1024", "RJCK 031100Z 23003KT 9999 FEW030 01/M01 Q1024", "RJCM 031100Z VRB02KT CAVOK 00/M04 Q1024", "RJCO 031100Z 31004KT 9999 FEW050 06/03 Q1026", "RJDB 031100Z AUTO 03016KT 9999 NCD 14/11 Q1022", "RJDC 031100Z 01004KT 330V050 CAVOK 15/07 Q1021", "RJDT 031100Z 05008KT 360V080 9999 FEW015 13/09 Q1022", "RJEC 031100Z 18005KT CAVOK 04/M03 Q1023", "RJFF 031130Z VRB06KT CAVOK 16/11 Q1022 BECMG 15004KT", "RJFK 031100Z 09009KT 060V130 9999 FEW040 15/10 Q1021 RMK 1CU040 A3017", "RJFM 031100Z 06009KT 9999 FEW015 SCT020 BKN030 18/13 Q1021", "RJFO 031100Z 32003KT 270V360 CAVOK 11/01 Q1022", "RJFR 031100Z 36011KT CAVOK 15/10 Q1022", "RJFS 031100Z 29007KT CAVOK 15/11 Q1020", "RJFT 031100Z 09007KT 010V120 CAVOK 16/08 Q1020", "RJFU 031100Z 34012KT CAVOK 16/11 Q1020", "RJGG 031130Z 16009KT 9999 FEW030 BKN090 14/10 Q1022 NOSIG", "RJKA 031100Z AUTO 07019KT 9999 FEW035 SCT042 BKN044 20/14 Q1018", "RJKI 031100Z AUTO 07014KT 9999 BKN038 20/12 Q1018", "RJNK 031100Z 15003KT 120V190 9999 FEW030 11/09 Q1024", "RJNS 031100Z 30004KT 9999 FEW030 BKN050 13/06 Q1022", "RJNT 031100Z 01004KT 340V060 9999 FEW015 BKN020 12/08 Q1025", "RJOA 031100Z 00000KT CAVOK 14/M01 Q1022", "RJOB 031100Z 03003KT CAVOK 13/03 Q1022", "RJOC 031100Z 09011KT 9999 FEW020 11/08 Q1024", "RJOH 031100Z 07015KT 9999 FEW030 11/08 Q1024", "RJOI 031056Z 29004KT 10SM FEW030 16/00 A3019 RMK AO2 SLP221 T01610000", "RJOK 031100Z 29005KT 9999 FEW025 SCT050 16/11 Q1022", "RJOM 031100Z 30005KT CAVOK 13/09 Q1021", "RJOO 031100Z 34015KT 9999 FEW025 13/05 Q1023 RMK 1CU025 A3021", "RJOR 031100Z 09006KT 9999 FEW030 10/06 Q1025", "RJOS 031100Z 28005KT 9999 FEW030 15/06 Q1022", "RJOT 031100Z 16005KT CAVOK 12/03 Q1022", "RJSA 031100Z 20005KT CAVOK 04/01 Q1024", "RJSF 031100Z 17006KT 9999 FEW040 06/M03 Q1024", "RJSK 031100Z 30008KT CAVOK 08/05 Q1024", "RJSM 031100Z 21002KT 9999 FEW030 06/02 Q1025", "RJSN 031100Z 01004KT 9999 FEW015 10/07 Q1025", "RJSS 031100Z VRB02KT CAVOK 09/01 Q1024", "RJSY 031100Z 22003KT 190V250 CAVOK 07/06 Q1025", "RJTT 031130Z 06012KT CAVOK 12/06 Q1024 BECMG 04010KT RMK A3026", "RJTY 031055Z AUTO 07006KT 10SM CLR 10/02 A3027 RMK AO2 SLP256 T01040017 TSNO $", "RKJB 031100Z 09002KT CAVOK 13/05 Q1021 NOSIG", "RKJK 031055Z 24006KT 7SM SCT200 13/05 A3013 RMK AO2A SLP207 T01260050 $", "RKNY 031100Z 17005KT CAVOK 11/08 Q1025 NOSIG", "RKPC 031100Z 10016KT CAVOK 15/09 Q1020 NOSIG", "RKPK 031100Z 09010KT CAVOK 15/04 Q1024", "RKSG 031055Z 12007KT 10SM CLR 20/04 A3014 RMK AO2A SLP209 T01970042 $", "RKSI 031130Z 01003KT CAVOK 15/02 Q1021 NOSIG", "RKSM 031100Z 19004KT 9999 SCT200 18/M01 A3016", "RKSO 031055Z 13007KT 7SM HZ FEW200 20/01 A3015 RMK AO2A SLP213 T01960006 $", "RKSS 031100Z 34002KT CAVOK 17/00 Q1021 NOSIG", "RKTN 031100Z 13007G17KT CAVOK 14/03 Q1024", "RKTU 031100Z 12005KT CAVOK 17/01 Q1022", "ROAH 031130Z 08016KT 9999 FEW030 21/14 Q1016 RMK 1CU030 A3002", "RODE 031059Z AUTO 08012KT BKN037 21/14 A3004 RMK AO2 SLP215 T02060139 $", "RODN 031055Z AUTO 05016KT 10SM CLR 20/13 A2998 RMK AO2 SLP159 T02040129 $", "ROIG 031100Z 08011KT 9999 FEW038 22/14 Q1014", "ROMD 031100Z AUTO 05022G32KT 9999 FEW035 SCT042 BKN045 20/13 Q1015", "ROMY 031100Z 08012KT 9999 SCT032 21/15 Q1014", "RORK 031100Z AUTO 06027G38KT 8000 FEW037 SCT040 BKN044 21/13 Q1015", "RORS 031100Z AUTO 10010KT 9999 SCT036 22/15 Q1014", "RORT 031100Z AUTO 08004KT 040V130 9999 NCD 21/15 Q1014", "RORY 031100Z AUTO 09011KT 9999 BKN035 21/14 Q1017", "ROTM 031056Z 07014G22KT 9999 SCT030 SCT200 22/14 A3002 RMK SLP151 T02190139", "ROYN 031100Z AUTO 14004KT 9999 SCT034 BKN036 BKN042 22/17 Q1014", "RPLB 031100Z 34006KT 310V050 9999 FEW020 29/25 Q1009 NOSIG RMK A2980", "RPLC 031100Z 12006KT 8000 FEW015CB BKN100 31/22 Q1009 NOSIG RMK A2980 CB SW", "RPLI 031100Z 18004KT 8000 FEW018 BKN290 29/22 Q1009 NOSIG RMK A2980", "RPLL 031100Z 13006KT 060V200 9999 SCT023 30/23 Q1008 NOSIG RMK A2977", "RPMD 031100Z VRB02KT 9999 FEW016 SCT090 29/24 Q1008 RMK A2977", "RPVM 031100Z 03008KT 9999 FEW020 SCT300 30/22 Q1009 NOSIG RMK A2980", "RPVP 031100Z 09004KT 9999 FEW019 29/24 Q1009 RMK A2980", "SAAR 031100Z 11009KT 9999 FEW050CB OVC100 18/15 Q1013 RMK PP000", "SABE 031120Z 36007KT 5000 -RA FEW015 BKN050 18/15 Q1015 NOSIG", "SACO 031100Z VRB03KT 5000 BR BKN045 17/16 Q1012 NOSIG RMK PP000", "SADF 031100Z 04007KT CAVOK 16/16 Q1014 RMK PP999", "SAEZ 031100Z 02003KT 8000 -RA BKN039 OVC070 16/15 Q1014 NOSIG RMK PP999", "SAME 031100Z 05003KT 9999 BKN040 18/13 Q1015", "SANT 031100Z 33003KT 290V360 9999 FEW043 BKN061 BKN080 19/18 Q1011 RMK PP000", "SAOC 031100Z 16003KT 2000 BR BKN030 SCT100 16/15 Q1012", "SARC 031100Z 09004KT CAVOK 19/15 Q1011", "SARE 031100Z 03004KT 7000 NSC 18/14 Q1011 RMK PP///", "SARF 031100Z 11002KT 2000 FU NSC 19/14 Q1011", "SARI 031100Z 06006KT CAVOK 18/15 Q1015 RMK PP000", "SARL 031100Z 09006KT CAVOK 16/14 Q1013", "SARP 031100Z 14005KT CAVOK 17/14 Q1013", "SASA 031115Z 27003KT 3500 -DZ SCT005 BKN030 19/19 Q1015", "SASJ 031100Z 00000KT 9999 SCT030 BKN070 21/20 Q1012", "SAVC 031100Z 30007KT CAVOK 09/02 Q1015 RMK PP000", "SAWE 031100Z 36015KT CAVOK 09/08 Q1002 RMK PP000", "SAWG 031100Z 34014KT CAVOK 08/02 Q1002", "SAWH 031100Z 01012KT 330V040 CAVOK 14/01 Q0997 RMK PP000", "SAZM 031100Z 30008KT CAVOK 12/12 Q1014 RMK PP///", "SAZN 031100Z 29002KT CAVOK 05/04 Q1016", "SAZS 031100Z 17005KT 9999 FEW016 M01/M06 Q1018 RMK PP///", "SBAF 031100Z 19002KT 9999 FEW020 24/21 Q1017", "SBAN 031100Z 08004KT CAVOK 19/16 Q1019", "SBAX 031100Z 12005KT 9999 BKN035 20/16 Q1019", "SBBG 031115Z 08006KT CAVOK 18/16 Q1015", "SBBH 031100Z 10008KT 9999 FEW030 22/17 Q1019", "SBBI 031100Z 34001KT 8000 FEW010 15/13 Q1020", "SBBR 031100Z 04003KT 360V070 9999 FEW030 OVC100 19/15 Q1019", "SBBU 031100Z 16010KT CAVOK 20/16 Q1017", "SBBV 031100Z 07009KT CAVOK 24/20 Q1012", "SBCA 031100Z 04014KT CAVOK 20/17 Q1017", "SBCC 031100Z 31005KT 9999 BKN003 BKN100 20/19 Q1015", "SBCF 031100Z 10003KT 9999 FEW030 22/16 Q1019", "SBCG 031100Z 05007KT CAVOK 24/19 Q1015", "SBCH 031100Z 10006KT CAVOK 18/14 Q1017", "SBCJ 031140Z 04003KT 7000 SCT003 BKN100 21/20 Q1018", "SBCO 031100Z 00000KT CAVOK 18/16 Q1015", "SBCP 031100Z 24010KT CAVOK 26/19 Q1016", "SBCR 031100Z 15001KT CAVOK 25/24 Q1011", "SBCT 031100Z 01002KT 9999 FEW010 15/14 Q1020", "SBCX 031100Z 03008KT CAVOK 14/10 Q1018", "SBDN 031100Z 11012KT CAVOK 20/16 Q1016", "SBES 031100Z VRB02KT 9999 FEW020 25/19 Q1016", "SBFI 031100Z 09005KT CAVOK 20/17 Q1015", "SBFL 031100Z 31004KT CAVOK 22/19 Q1016", "SBFN 031100Z AUTO 15004KT 060V190 CAVOK 29/24 Q1012", "SBFS 031100Z 23007KT CAVOK 25/19 Q1016", "SBGL 031100Z 01004KT 9999 SCT033 23/20 Q1017", "SBGO 031100Z 21005KT 9999 -RA SCT040 BKN090 19/17 Q1016", "SBGR 031100Z 08007KT CAVOK 17/15 Q1019", "SBGW 031100Z 05005KT 9999 FEW017 20/17 Q1019", "SBHT 031100Z 00000KT 5000 1000W BCFG FEW010 BKN080 24/24 Q1013", "SBIH 031100Z 00000KT 9999 SCT006 BKN100 24/23 Q1012", "SBIL 031100Z 21007KT 9999 SCT025 BKN060 26/24 Q1014", "SBIP 031100Z AUTO 01003KT 330V060 9999 OVC034 22/18 Q1017", "SBIZ 031100Z 30003KT 9999 -RA FEW010 BKN080 23/21 Q1013", "SBJP 031100Z 17004KT 100V220 9999 SCT018 29/24 Q1012", "SBJR 031100Z 01004KT 9999 FEW030 26/22 Q1017", "SBJU 031100Z 09002KT 9999 FEW010 BKN017 26/24 Q1016", "SBJV 031100Z 28003KT CAVOK 19/17 Q1017", "SBKG 031100Z 15005KT 9999 SCT015 BKN070 25/24 Q1014", "SBKP 031100Z 12010KT CAVOK 18/15 Q1018", "SBLB 031100Z AUTO 20012KT 9999 NCD 27/16 Q1016 W///S5", "SBLO 031100Z 14006KT CAVOK 20/16 Q1018", "SBLS 031100Z 17006KT CAVOK 21/16 Q1019", "SBMA 031100Z 00000KT 9999 -RA FEW005 OVC080 23/23 Q1013", "SBME 031100Z 32002KT CAVOK 24/21 Q1016", "SBMG 031100Z 11007KT 090V160 CAVOK 21/15 Q1016", "SBMK 031100Z 06008KT 9999 FEW026 23/16 Q1018", "SBMN 031100Z 07002KT 9999 FEW005 BKN007 BKN080 25/24 Q1012", "SBMQ 031100Z 01006KT CAVOK 25/24 Q1012", "SBMT 031100Z 11007KT CAVOK 17/16 Q1019", "SBNF 031100Z 25009KT 9999 FEW039 19/16 Q1017", "SBNT 031100Z 17007KT 130V210 9999 FEW021 28/23 Q1011", "SBOI 031100Z 00000KT 9999 FEW001 23/23 Q1013", "SBPA 031100Z VRB02KT CAVOK 18/16 Q1015", "SBPB 031100Z 28003KT 9999 SCT015 SCT080 ///// Q1011", "SBPF 031100Z 07006KT CAVOK 16/12 Q1017", "SBPJ 031100Z 10002KT 9999 SCT040 SCT080 25/23 Q1014", "SBPK 031100Z 23003KT 9999 SCT035 15/15 Q1016", "SBPL 031100Z 16008KT 9999 BKN025 25/21 Q1014", "SBPP 031115Z 01007KT CAVOK 23/19 Q1016", "SBRJ 031100Z 01004KT 9999 SCT010 SCT025 23/21 Q1016", "SBRP 031100Z 11005KT CAVOK 21/18 Q1016", "SBSC 031100Z 03003KT 340V060 9999 FEW020 23/22 Q1017", "SBSJ 031100Z 02001KT 9999 FEW017 19/16 Q1019", "SBSL 031100Z 29004KT 9999 SCT015 BKN100 26/25 Q1012", "SBSM 031100Z VRB01KT CAVOK 13/13 Q1015", "SBSN 031100Z 13004KT 9999 FEW016 BKN100 24/23 Q1012", "SBSP 031100Z 07005KT 030V120 CAVOK 18/14 Q1020", "SBSR 031100Z 12005KT CAVOK 21/16 Q1016", "SBST 031100Z 20003KT CAVOK 22/19 Q1016", "SBSV 031100Z 14007KT 9999 FEW023 29/23 Q1013", "SBTA 031100Z 00000KT 9999 FEW012 19/15 Q1018", "SBTE 031100Z 36005KT 9999 OVC012 25/23 Q1012", "SBTF 031115Z 00000KT 9999 FEW006 BKN090 24/24 Q1011", "SBTU 031101Z AUTO 29004KT //// // BKN003/// BKN013/// BKN140/// 24/23 Q1014", "SBUL 031100Z 08004KT CAVOK 19/16 Q1019", "SBUR 031100Z 02005KT 9999 SCT030 21/18 Q1018", "SBUY 031100Z 00000KT 9999 FEW003 BKN100 23/23 Q1010", "SBVH 031100Z 01007KT 6000 -DZ BKN003 OVC015 21/21 Q1015", "SBVT 031100Z 24007KT 200V270 CAVOK 26/19 Q1016", "SBYS 031100Z 18005KT 140V210 CAVOK 19/16 Q1018", "SCAR 031100Z 00000KT 9999 OVC048 23/16 Q1010", "SCAT 031100Z AUTO 04005KT 8000 OVC005/// 17/15 Q1011", "SCBA 031100Z AUTO 31014KT 9999 FEW046/// 07/04 Q1013", "SCCF 031100Z 08012KT CAVOK 09/06 Q1024", "SCCH 031100Z 23006KT CAVOK 09/08 Q1014", "SCCI 031100Z 35012KT 9999 SCT040 BKN090 08/02 Q0997 NOSIG", "SCCY 031100Z AUTO 02005KT 340V060 CAVOK 08/04 Q1015", "SCDA 031100Z 18002KT 9999 OVC045 23/16 Q1010", "SCFA 031100Z 07003KT 9999 FEW003 19/18 Q1011 NOSIG", "SCFM 031100Z 04016KT 9999 FEW030 BKN080 09/01 Q0998", "SCFT 031100Z AUTO 29004KT CAVOK 02/01 Q1019", "SCHR 031100Z AUTO VRB01KT CAVOK 04/02 Q1010", "SCIC 031100Z AUTO 16005KT //// R/////// // NCD 12/09 Q1013", "SCIE 031100Z 21005KT CAVOK 09/08 Q1015", "SCIP 031100Z 32009KT 9999 SCT013 SCT210 24/21 Q1013 NOSIG", "SCMK 031100Z AUTO 36012KT //// // FEW034/// SCT050/// BKN064/// 11/10 Q1017", "SCON 031100Z AUTO 00000KT CAVOK 04/04 Q1019", "SCPD 031100Z AUTO 12004KT 080V140 //// ///////// 13/06 Q1013", "SCPQ 031100Z AUTO 19003KT CAVOK 03/03 Q1018", "SCQP 031100Z VRB02KT 0300 R01/0375N FG VV001 04/04 Q1017", "SCSE 031100Z AUTO 11004KT 0500 FG VV002 13/13 Q1011", "SCSN 031100Z AUTO 00000KT 9999 NCD 08/08 Q1012", "SCTE 031100Z 00000KT CAVOK 01/01 Q1019 NOSIG", "SCTN 031100Z AUTO 08004KT 030V110 CAVOK 05/05 Q1019", "SCVD 031100Z AUTO 07002KT 1300 R35/1100VP2000U FG VV002 01/01 Q1018", "SECA 031100Z 21001KT 9999 SCT040 17/17 Q1016 RMK A3001", "SECU 031100Z 14003KT 9999 BKN026 12/12 Q1024", "SEGU 031100Z 31003KT 9999 FEW005 SCT026 25/24 Q1007 NOSIG RMK A2976", "SELT 031100Z 27001KT 9999 SCT013 BKN030 09/09 Q1029", "SEMT 031100Z 00000KT 9999 SCT023 25/23 Q1008 RMK A2975", "SEQM 031100Z VRB02KT 8000 BCFG OVC005 13/12 Q1024 BECMG TL1230 9999 RMK A3026", "SESA 031100Z 08004KT CAVOK 25/24 Q1007 RMK A2976", "SESM 031100Z 33002KT 9999 VCSH BKN026 OVC100 19/18 Q1015 RMK A2999", "SFAL 031050Z 09003KT 9999 FEW013 04/02 Q1011", "SGES 031130Z 06003KT 5000 BR NSC 21/17Q1014", "SKAR 031100Z 00000KT 7000 3000S BCFG SCT012 BKN080 18/18 Q1014 RMK A2997", "SKBG 031100Z 20005KT 9999 SCT017 SCT070 20/18 Q1014 RMK A2995", "SKBO 031100Z 06004KT 9999 FEW020 09/08 Q1026 NOSIG RMK A3031", "SKBQ 031100Z 04009KT 360V070 9999 FEW012 25/23 Q1008 NOSIG RMK A2979", "SKCC 031100Z VRB02KT 8000 VCFG SCT015 SCT080 22/22 Q1013 RMK VCFG/NW A2992", "SKCG 031100Z 04003KT 040V110 9999 FEW017 25/23 Q1007 RMK A2975", "SKCL 031100Z VRB02KT 7000 VCFG FEW020 BKN120 20/19 Q1013 NOSIG RMK A2994", "SKEJ 031100Z VRB02KT 9999 FEW020 SCT200 25/24 Q1008 RMK A2977", "SKIB 031100Z 27005KT 9999 BKN030 21/18 Q1017 RMK A3003", "SKIP 031100Z 00000KT 9999 SCT017 BKN080 09/08 Q1028 RMK A3036", "SKLC 031100Z 35006KT 9999 SCT017 SCT070 26/24 Q1007 RMK A2977", "SKLT 031100Z VRB02KT 9999 -RA SCT007 OVC080 23/23 Q1011 RMK A2987", "SKMD 031100Z 00000KT 9999 FEW020 BKN100 18/17 Q1019 RMK A3009", "SKMR 031100Z VRB02KT 6000 BKN022 25/24 Q1008 RMK HZ A2977", "SKMZ 031100Z 00000KT 8000 VCG SCT007 14/14 Q1024 RMK VCFG/W A3025", "SKNV 031100Z 23003KT 9999 FEW045 BKN110 24/21 Q1011 RMK A2988", "SKPC 031100Z 03008KT CAVOK 25/21 Q1009 RMK A2982", "SKPE 031100Z 10006KT 9999 SCT020 SCT080 18/16 Q1016 RMK A3000", "SKPS 031100Z 18006KT 9999 BKN028 17/13 Q1018 RMK A3007", "SKPV 031100Z 05010KT 9999 SCT017 26/21 Q1012 RMK A2988", "SKRG 031100Z VRB02KT 8000 VCFG SCT010 SCT200 14/14 Q1024 NOSIG RMK VCFG/S A3024", "SKRH 031100Z 10013KT 9999 FEW018 26/21 Q1010 RMK A2985", "SKSM 031100Z 04005KT 360V070 9999 FEW020 26/21 Q1009 RMK A2982", "SKSP 031100Z 06013KT 9999 FEW016 27/23 Q1011 RMK A2986", "SKUI 031100Z 00000KT 6000 -DZ BKN015 OVC080 25/24 Q1007 RMK A2976", "SKVP 031100Z 07009KT 9999 FEW020 25/20 Q1012 RMK A2987", "SKVV 031100Z 00000KT 9999 FEW020 BKN090 23/19 Q1012 RMK A2989", "SLAL 031100Z 34003KT 9999 SCT010 09/08 Q1028", "SLCA 031100Z 00000KT 0100 FG VV/// 18/18 Q1014", "SLCB 031100Z 00000KT 9999 NSC 11/09 Q1024", "SLCP 031100Z 00000KT 9999 FEW017 22/22 Q1015", "SLET 031100Z 31008KT 9999 NSC 24/21 Q1011 A2986 HR85 CI NOSIG", "SLLP 031100Z 10005KT 4000E VCFG FEW002 SCT010 BKN200 04/04 Q1036", "SLRI 031100Z 03004KT 9999 SCT080 BKN200 24/23 Q1012", "SLRQ 031123Z 14004KT 3000 BR FEW005 SCT025 24/23 Q1009", "SLSA 031100Z 00000KT 9999 SCT080 BKN200 25/24 Q1010", "SLSV 031100Z 00000KT 9999 FEW015 22/21 Q1011", "SLTJ 031100Z 00000KT 9999 SCT025 14/12 Q1017", "SLTR 031100Z 00000KT 9999 FEW020 BKN200 25/24 Q1010", "SLVM 031100Z 00000KT 9999 NSC 20/19 Q1009", "SLVR 031100Z 34005KT 9999 FEW017 SCT200 23/22 Q1011", "SLYA 031100Z 00000KT 9999 NSC 19/18 Q1009", "SMJP 031100Z 00000KT 8000 FEW008 22/21 Q1013 NOSIG", "SMZO 031100Z 00000KT 9999 FEW008 25/23 Q1013 NOSIG", "SOCA 031130Z AUTO 06006KT 020V100 9999 FEW024 26/23 Q1013 NOSIG", "SPHI 031100Z 29003KT 9000 SCT005 OVC070 25/24 Q1009 RMK BR BIRD HAZARD RWY 19/01 PP000", "SPHO 031100Z 00000KT 9999 FEW015 BKN070 12/11 Q1028 RMK PP000", "SPJC 031100Z 16008KT CAVOK 24/21 Q1008 NOSIG RMK PP000", "SPJJ 031100Z 34003KT 9999 FEW030 SCT040 07/// Q1032 RMK PP000", "SPJR 031130Z VRB02KT CAVOK 08/08 Q1026", "SPLO 031100Z 16007KT 7000 BKN050 23/19 Q1010 RMK PP000", "SPQT 031100Z VRB02KT 9999 BKN005 24/23 Q1011 NOSIG RMK PP002", "SPQU 031100Z 34004KT 9999 FEW120 13/10 Q1025 RMK PP000", "SPRU 031100Z 17003KT 6000 BCFG SCT050 25/23 Q1008 RMK PP000", "SPSO 031100Z 03004KT 7000 NSC 23/20 Q1009 RMK PP000", "SPST 031140Z 00000KT 2500 BR BKN008 OVC040 23/23 Q1011", "SPTN 031100Z VRB02KT 9999 OVC120 21/17 Q1012 RMK PP000", "SPTU 031100Z 00000KT 0500 FG NSC 22/21 Q1009 RMK PP000", "SPUR 031100Z VRB01KT 9999 BKN013 25/24 Q1009 RMK TS BIRD HAZARD RWY 19/01 PP000", "SPZO 031130Z VRB01KT 9999 SCT036 BKN080 09/07 Q1032 NOSIG RMK BIRD HAZARD RWY 28", "SUAA 031100Z 01009KT 9999 FEW010 BKN070 15/13 Q1016", "SUCA 031100Z 05005KT 010V090 9999 VCSH FEW013 BKN080 16/14 Q1014", "SUDU 031100Z 06012KT 5000 RA FEW020 OVC070 16/15 Q1016", "SULS 031100Z 17005KT 9999 BKN015 BKN080 16/15 Q1016", "SUMU 031100Z 35007KT 9999 FEW020 OVC070 15/12 Q1016 TEMPO RA", "SVBM 031100Z 11010KT 9999 -BR OVC013 Q1015", "SVMC 031100Z 00000KT 7000 HZ BKN030 XX/XX Q1009", "SVMG 031100Z 11015T 9999 BKN030 ///// Q1013", "SVSA 031100Z /////KT 6000 VCFG SCT012 //// Q////", "SVVA 031100Z /////KT 9999 BKN016 23/19 Q1014", "SVVG 031100Z 00000KT 8000 VCDZ BKN035 24/23 Q1011", "SYCJ 031100Z VRB02KT 9999 FEW014 SCT038 22/22 Q1013 NOSIG", "SYEC 031100Z 03006KT 9999 FEW017 BKN080 25/24 Q1013 NOSIG", "TAPA 031100Z 09010KT 050V140 9999 FEW020 25/19 Q1016 NOSIG", "TBPB 031100Z 10014KT 9999 FEW016 27/21 Q1014 NOSIG", "TDPD 031100Z 11012KT 9999 BKN016 26/22 Q1016", "TFFF 031130Z AUTO 11007KT 9999 SCT022 BKN047 BKN070 26/22 Q1016 TEMPO 3000 SHRA BKN018TCU", "TFFR 031130Z AUTO 09007KT CAVOK 26/21 Q1016", "TGPY 031100Z 09014KT 9999 FEW020 26/22 Q1013 NOSIG", "TIST 031053Z 10009KT 10SM CLR 25/19 A3003 RMK AO2 SLP169 T02500194", "TISX 031053Z COR 07010KT 10SM FEW023 24/19 A3003 RMK AO2 SLP168 T02440189 $", "TJBQ 031150Z 10007KT 10SM CLR 24/19 A3004", "TJIG 031145Z 12007KT 10SM SCT025 SCT040 25/21 A3004", "TJNR 031153Z AUTO 10011KT 10SM FEW028 BKN055 OVC070 27/21 A3006 RMK AO2 RAB20E30 SLP179 P0000 60004 70005 T02670211 10267 20233 52015 ", "TJPS 031130Z AUTO 08005KT 10SM CLR 26/19 A3002 RMK AO2 TSNO", "TJSJ 031056Z 00000KT 10SM FEW027 SCT034 SCT055 24/20 A3004 RMK AO2 RAB00E12 SLP171 VCSH SE NW P0000 T02390200", "TKPK 031100Z 07014KT 9999 SCT017 26/19 Q1017", "TLPL 031100Z 09018KT 9999 SCT025 26/20 Q1015 NOSIG", "TNCA 031100Z 09017KT 9999 SCT018 26/22 Q1012 NOSIG", "TNCB 031055Z 09012KT 9999 SCT015 SCT026 26/22 Q1012", "TNCC 031100Z 12009KT 9999 SCT020 25/22 Q1013 NOSIG", "TNCE 031055Z AUTO 07013KT 040V100 //// // ///////// 25/19 Q1017 RE//", "TNCM 031100Z 06009KT 040V110 9999 FEW016 25/17 Q1018 NOSIG ", "TQPF 031100Z 09012KT 9999 FEW019 25/16 Q1017", "TRPG 031100Z 08013KT 9999 -SHRA BKN016 24/22 Q1017", "TTCP 031100Z 06005KT 9999 FEW016 25/21 Q1014 NOSIG", "TTPP 031100Z 13004KT 9999 VCSH FEW016 25/20 Q1014 NOSIG RMK VCSH-E", "TVSA 031100Z 05011KT 9999 FEW016 26/22 Q1015 ", "TXKF 031155Z 01006KT 9999 SCT035 BKN250 19/13 Q1020 ", "UAAA 031130Z 36005MPS 9999 NSC 14/M03 Q1016 NOSIG", "UAAH 031130Z 10014MPS CAVOK 12/M16 Q1024 NOSIG RMK QFE730/0974", "UAAT 031130Z 04014MPS 9999 NSC 12/M11 Q1017 NOSIG RMK QFE711/0949", "UACC 031130Z 11007MPS CAVOK 14/M07 Q1029 NOSIG RMK QFE740/0987", "UACK 031130Z 21006MPS CAVOK 14/M08 Q1030 NOSIG RMK QFE748/0998", "UACP 031130Z 17004MPS 140V200 CAVOK 13/M03 Q1030 NOSIG RMK QFE759/1013", "UADD 031130Z 27007MPS 9999 NSC 13/M03 Q1009 NOSIG RMK QFE700/0933", "UAII 031130Z 31004MPS 280V360 CAVOK 20/06 Q1008 NOSIG RMK QFE719/0959", "UAIT 031130Z 08010MPS CAVOK 19/M10 Q1009 NOSIG RMK QFE732/0976", "UAKD 031130Z 10014MPS CAVOK 17/M18 Q1019 NOSIG RMK QFE730/0974", "UAKK 031130Z 09008MPS 070V130 CAVOK 14/M07 Q1027 NOSIG RMK QFE723/0964", "UAOO 031130Z 10009MPS CAVOK 18/M15 Q1010 NOSIG RMK QFE746/0995", "UARR 031130Z 16004MPS 120V190 CAVOK 17/M04 Q1016 NOSIG RMK QFE758/1011", "UASK 031130Z 36004MPS 9999 NSC 06/M12 Q1035 NOSIG RMK QFE750/1001", "UASP 031130Z 17003MPS 140V210 CAVOK 12/M15 Q1034 NOSIG RMK QFE764/1019", "UASS 031130Z 12004MPS CAVOK 08/M14 Q1035 NOSIG RMK QFE755/1007", "UATE 031130Z 25005MPS 220V290 9999 SCT046CB 12/05 Q1016 NOSIG RMK QFE760/1014", "UATG 031130Z 23003MPS 170V270 5000 FU BKN033CB 15/04 Q1016 NOSIG RMK QFE764/1019", "UATT 031130Z 11007MPS CAVOK 16/M07 Q1018 NOSIG RMK QFE743/0991", "UAUU 031130Z 13005MPS CAVOK 11/M03 Q1026 NOSIG RMK QFE753/1004", "UBBB 031130Z 02010KT 9999 FEW031 11/07 Q1015 NOSIG", "UBBF 031130Z 10006KT 9999 FEW100 17/06 Q1013 NOSIG RMK MT OP", "UBBG 031130Z 07008KT 040V110 9999 FEW100 16/06 Q1013 NOSIG", "UBBL 031100Z 14010KT 9999 SCT100 15/07 Q1015 NOSIG RMK MT OP", "UBBN 031130Z 28008KT 9999 FEW046 19/02 Q1012 NOSIG RMK MT OP QFE684", "UBBQ 031100Z 13007KT 9999 FEW120 15/06 Q1013 NOSIG RMK MT OP", "UBBY 031100Z 18008KT 9999 FEW045 15/07 Q1016 NOSIG RMK MT OP", "UBBZ 031130Z 03010KT 360V060 9999 SCT026 17/07 Q1014 NOSIG RMK MT OP", "UBEE 031100Z 09005KT CAVOK 16/07 Q1014 NOSIG", "UCFL 031100Z 14003MPS 110V170 9999 NSC 09/M06 Q1018", "UCFM 031130Z 05015G21MPS 9999 VCDS FEW002 17/M08 Q1008 RMK WS R08 TEMPO 05024G29MPS 3000 BLDU FEW001", "UCFO 031130Z 26007MPS 9999 FEW050 20/07 Q1004 TEMPO 27008MPS", "UDSG 031130Z VRB04KT 9999 BKN043CB 15/M01 Q1015 NOSIG", "UDYZ 031130Z 25009KT 200V290 9999 SCT033CB 20/M01 Q1012 NOSIG", "UEEE 031130Z 06005MPS 9999 SCT050CB M06/M17 Q1008 R23L/490150 NOSIG RMK QFE747", "UERP 031130Z 20003MPS 9999 BKN031CB BKN100 M03/M08 Q0999 R17/850350 NOSIG RMK QFE705", "UERR 031130Z 24007MPS 9999 -SHSN BKN030CB M05/M10 Q1006 R25/820545 NOSIG RMK QFE724/0965", "UGAM 031130Z 27011KT 9999 BKN050 16/06 Q1015", "UGKO 031130Z 28009KT 250V310 9999 -RA SCT052 BKN100 15/10 Q1015 NOSIG", "UGMS 031130Z 33004KT 270V040 9999 OVC100 12/M02 Q1016", "UGSB 031130Z 13014KT 9999 BKN081 16/11 Q1015 NOSIG", "UGTB 031130Z 31020KT 9999 SCT052CB 22/04 Q1011 NOSIG", "UHBB 031130Z 27008G13MPS 9999 SCT033CB 03/M12 Q1016 R36/090060 NOSIG RMK QFE745/0993", "UHHH 031130Z 20002MPS CAVOK 10/03 Q1016 R88/090060 NOSIG RMK QFE755/1007", "UHMA 031130Z 34005MPS 9999 FEW001 M22/M25 Q1018 R01/////// NOSIG RMK MID 33004MPS END R01/33004MPS QBB050 QFE759/1013", "UHMM 031100Z 06001MPS 9999 NSC M13/M19 Q1014 RMK QFE746 R28/07001MPS", "UHPP 031100Z 36002MPS CAVOK 04/M04 Q1011 R34L/CLRD65 NOSIG RMK QFE755/1007", "UHSS 031100Z 18002MPS 9999 BKN004 M01/M02 Q1024 R19/70D NOSIG RMK QBB120 MT OBSC QFE767/1022", "UHWW 031130Z 15003MPS 9999 OVC008 06/04 Q1024 R25L/0///70 NOSIG RMK MT OBSC QFE767", "UIAA 031130Z 27008MPS 9999 NSC M05/M23 Q1023 R29/CLRD70 NOSIG RMK QFE708/0944", "UIBB 031130Z 24004MPS 9999 NSC M02/M12 Q1022 R30/910355 NOSIG RMK QFE723/0965", "UIII 031130Z 12002MPS 030V160 9999 FEW033 M03/M17 Q1028 R30/60D NOSIG RMK QFE726/0968", "UIUU 031130Z 00000MPS 9999 NSC M04/M21 Q1028 R26/CLRD60 NOSIG RMK QFE727/0969", "ULAA 031130Z 09006MPS 060V120 CAVOK 01/M11 Q1033 R08/910560 NOSIG RMK QFE774/1032", "ULLI 031130Z 03007MPS 360V060 9999 -SN OVC017 M00/M04 Q1025 R88/510550 NOSIG", "ULMM 031130Z 22005G10MPS CAVOK 01/M11 Q1031 R13/150060 NOSIG RMK QFE766", "ULOO 031130Z 35004MPS 310V040 9000 -SHSN BKN019CB BKN045 01/M04 Q1023 R01/090050 NOSIG RMK QFE763", "ULPB 031130Z 05007MPS 020V080 9999 -SN OVC048 M00/M08 Q1028 R01/15//50 NOSIG RMK QFE766/1022", "ULWC 031130Z 03004MPS 8000 OVC004 03/03 Q1018 R21/290160 NOSIG RMK QBB120 QFE754/1005", "UMBB 031100Z 01008G12MPS 8000 SCT040 SCT100 04/M08 Q1020 NOSIG", "UMGG 031130Z 34005G08MPS 9999 -SHRA OVC005CB 03/03 Q1013 NOSIG RMK QBB170", "UMII 031120Z 36005G08MPS 1200 R23/1200 SHSN BKN003 OVC007CB M01/M02 Q1017 TEMPO 0900 +SHSN RMK QBB090", "UMIO 031130Z 36008MPS 8000 -SNRA BKN008 OVC015 00/M01 Q1017 RERASN NOSIG RMK QFE745/0994", "UMKK 031130Z 35008MPS 320V020 9999 SCT031 04/M03 Q1029 R06/CLRD95 NOSIG RMK QFE770/1027", "UMMG 031100Z 36009G12MPS 9999 BKN043 03/M08 Q1023 NOSIG", "UMMS 031130Z 01008G11MPS 9999 BKN021 M00/M04 Q1019 NOSIG", "UMOO 031100Z 35005G09MPS 2200 -SHSNRA BR BKN009 OVC016CB 00/M00 Q1018 NOSIG", "UNAA 031130Z 19004MPS CAVOK 06/M14 Q1031 R20/CLRD67 NOSIG RMK QFE750", "UNBB 031130Z 24005MPS CAVOK 03/M14 Q1035 R24/CLRD60 NOSIG RMK QFE753", "UNEE 031130Z 23005MPS CAVOK 02/M10 Q1031 R23/CLRD60 NOSIG RMK QFE750", "UNKL 031130Z 26007G12MPS CAVOK 01/M13 Q1027 R29/CLRD65 NOSIG RMK QFE744", "UNNT 031130Z 23004MPS CAVOK 04/M08 Q1033 R25/120060 R34/////// NOSIG RMK QFE764/1019", "UNOO 031130Z 20004MPS CAVOK 09/M05 Q1032 R25/CLRD60 NOSIG RMK QFE765", "UNTT 031130Z 23006MPS CAVOK 04/M07 Q1029 R21/////// NOSIG RMK QFE756", "UNWW 031130Z 22006MPS CAVOK 04/M13 Q1033 R19/09//50 NOSIG RMK QFE747", "UOOO 031130Z 33007MPS 9999 DRSN FEW003 M23/M25 Q1015 R01/420360 NOSIG RMK QFE747/0996", "URKA 031130Z 21009MPS CAVOK 15/08 Q1012 R22/010070 NOSIG RMK QFE754/1006", "URKK 031130Z 18004MPS 9999 SCT///CB 13/10 Q1013 R23L/290060 NOSIG RMK QFE757", "URMG 031130Z 11003MPS 060V150 CAVOK 19/02 Q1012 R08/090070 NOSIG RMK QFE745/0993", "URML 031130Z 15005MPS 9999 NSC 12/07 Q1014 R14/01//70 NOSIG RMK QFE761/1014", "URMM 031130Z 08004MPS 9999 NSC 19/01 Q1012 R12/090070 NOSIG RMK QFE731/0975", "URMN 031130Z 08005MPS 9999 NSC 19/02 Q1011 R24/010070 NOSIG RMK QFE721", "URMO 031130Z 07007MPS 9999 SCT140 20/02 Q1012 R09/010070 NOSIG RMK QFE715/0954", "URMT 031130Z 36005MPS 9999 BKN038 12/06 Q1014 R25/010070 NOSIG RMK QFE722", "URRP 031130Z 22005MPS 9999 SCT///CB 16/08 Q1011 R23/CLRD70 NOSIG RMK QFE750/1001", "URSS 031130Z 27004MPS 9999 BKN054CB 14/06 Q1014 R06/010070 R02/////// NOSIG RMK R02/20002MPS QFE759", "URWA 031130Z 18005MPS 150V220 CAVOK 15/07 Q1015 R09/010070 NOSIG RMK QFE763/1018", "URWI 031130Z 20004MPS 090V240 CAVOK 18/02 Q1013 R27/010065 NOSIG", "URWW 031130Z 17004MPS 130V230 CAVOK 17/01 Q1013 R06/010070 NOSIG", "USCC 031130Z 17007MPS CAVOK 15/M03 Q1025 R09/000060 NOSIG RMK QFE748", "USCM 031130Z 13005MPS 9999 NSC 12/M04 Q1023 R36/090060 TEMPO 15012MPS RMK QFE728", "USDA 031130Z 22006G12MPS CAVOK M21/M24 Q1026 R22/420255 NOSIG RMK QFE769/1025", "USHH 031130Z 05002MPS 010V080 CAVOK 05/M02 Q1027 R24/010060 NOSIG", "USNN 031130Z 29003MPS CAVOK 04/M02 Q1026 R21/0///65 NOSIG RMK QFE764", "USPP 031130Z 27005MPS 230V310 CAVOK 18/M05 Q1020 R21/090060 NOSIG RMK QFE754", "USRR 031130Z 32006MPS 9999 SCT033 03/M03 Q1027 R25/CLRD60 NOSIG RMK QFE765", "USSS 031130Z 17005MPS CAVOK 17/M08 Q1023 R08R/010060 NOSIG RMK QFE747/0996", "USTR 031130Z 21005MPS CAVOK 16/M04 Q1025 R21/090065 R12/////99 NOSIG", "UTAA 031100Z 30024KT 8000 -SHRA FEW057CB OVC057 11/09 Q1012 R88/70D TEMPO VRB30KT 2000 TSRA", "UTAK 031100Z 17008KT 9999 OVC020 10/07 Q1014 R34L/19//60 NOSIG", "UTAM 031100Z VRB04KT CAVOK 18/06 Q1012 R88/CLRD70 NOSIG", "UTAT 031100Z 02006KT 330V110 CAVOK 16/01 Q1012 R08/CLRD70 NOSIG", "UTAV 031100Z 26004KT CAVOK 17/11 Q1011 R13/CLRD70 NOSIG", "UTDD 031130Z VRB01MPS 9999 SCT066CB BKN099 14/09 Q1012 R09/29//50 TEMPO VRB07MPS TS RMK QFE691/0921", "UTDK 031130Z 36003MPS 320V050 9999 FEW100 16/12 Q1011 R01/09//70 RMK QFE701/0935", "UTDL 031130Z 25015G21MPS 9999 SCT050CB OVC086 13/10 Q1009 R26/CLRD70 NOSIG RMK QFE719/0959", "UTDT 031130Z 36004MPS 9999 SCT033CB BKN080 19/11 Q1010 R35/290450 RMK QFE718/0957", "UTFF 031130Z 29008KT 9999 NSC 22/06 Q1005 R18/CLRD70", "UTFN 031130Z 22012KT 9999 NSC 23/04 Q1003 R28/CLRD70 NOSIG", "UTNN 031130Z 33004KT CAVOK 16/M01 Q1012 R33/CLRD60 NOSIG", "UTNU 031130Z 36002KT CAVOK 16/01 Q1012 R31/CLRD70 NOSIG", "UTO8 M M M 258/-25/-29/1419/M/ PK WND 1521 1043Z SOG 05 0001 57MM", "UTSA 031130Z 31010KT 280V340 9999 BKN049CB 15/10 Q1011 R25/CLRD70 NOSIG", "UTSB 031130Z 31004KT 9999 SCT037 17/09 Q1011 R01/CLRD70 NOSIG", "UTSK 031130Z 27006KT 240V320 9999 FEW059CB 17/10 Q1011 R16/CLRD70", "UTSS 031130Z 08004KT 050V110 9999 BKN059CB 13/09 Q1011 R09/29//55 NOSIG", "UTST 031130Z 28004KT 9999 SCT060TCU 20/11 Q1010 R25/CLRD70 NOSIG", "UTTT 031130Z 27014KT 9999 BKN066CB 17/07 Q1009 R26R/CLRD70 NOSIG", "UUBC 031130Z 10005MPS CAVOK 13/02 Q1013 R13/CLRD60 NOSIG RMK QFE741/0989", "UUBP 031130Z 00000MPS CAVOK 12/02 Q1012 R34/////// NOSIG RMK QFE741/0988", "UUBW 031130Z 11002MPS CAVOK 13/04 Q1015 R30/010060 NOSIG", "UUDD 031130Z 11004MPS CAVOK 13/02 Q1014 R88/CLRD60 NOSIG", "UUDL 031130Z 01004MPS CAVOK 13/06 Q1016 R23/190054 NOSIG RMK QFE754", "UUEE 031130Z 06003MPS 9999 -SHRA SCT042CB 12/05 Q1015 R06R/290051 R06C/290051 NOSIG", "UUMO 031130Z 07005MPS 040V100 9999 BKN039 13/05 Q1014 R07/CLRD60 NOSIG RMK QFE746/0995", "UUOB 031130Z 10007MPS 9999 -SHRA BKN040CB 10/03 Q1009 R11/010070 NOSIG", "UUOK 031130Z 10006MPS CAVOK 13/03 Q1010 R12/090060 NOSIG RMK QFE739/0986", "UUOL 031130Z AUTO 08005MPS 9999 NCD 13/03 Q1012", "UUOO 031130Z 11005MPS CAVOK 14/01 Q1011 R12/010070 NOSIG RMK QFE744", "UUWW 031130Z 12004MPS CAVOK 13/05 Q1014 R06/000065 NOSIG", "UUYY 031130Z 05007MPS 9999 -SHRA BKN009 OVC016CB 01/00 Q1027 R36/29//51 NOSIG RMK QFE761/1015", "UWGG 031130Z 04005MPS CAVOK 13/01 Q1016 R36R/090070 NOSIG", "UWKD 031130Z 16005MPS 120V210 CAVOK 16/M07 Q1017 R11/CLRD70 NOSIG RMK QFE752/1003", "UWKE 031130Z 15004MPS 110V190 CAVOK 17/M07 Q1018 R21/090070 NOSIG RMK QFE747/0996", "UWKS 031130Z 13005MPS CAVOK 15/00 Q1016 R06/010060 NOSIG RMK QFE747", "UWLL 031130Z 11008MPS CAVOK 15/M03 Q1015 R02/090065 NOSIG RMK QFE749/0999", "UWLW 031100Z 14005MPS 110V170 CAVOK 17/M03 Q1015 R02/CLRD60 NOSIG RMK QFE755/1006", "UWOO 031130Z 13008MPS CAVOK 15/M06 Q1019 R08/CLRD60 NOSIG RMK QFE753/1005", "UWOR 031100Z 11008MPS CAVOK 15/M03 Q1020 R07/CLRD60 NOSIG RMK QFE740/0987", "UWPS 031130Z 14002MPS 080V220 9999 FEW033 16/01 Q1013 R20/CLRD60 NOSIG RMK QFE742", "UWSG 031130Z 11002MPS 050V180 CAVOK 16/01 Q1013 R08/CLRD70 NOSIG RMK QFE758/1010", "UWUU 031130Z 15006MPS 120V190 CAVOK 20/M10 Q1019 R14R/0///60 NOSIG", "UWWW 031130Z 14004MPS 050V220 CAVOK 16/M05 Q1016 R15/CLRD60 NOSIG RMK QFE750/1001", "VAAH 031130Z 25008KT 6000 FEW080 35/10 Q1006 NOSIG", "VAAU 031100Z 18004KT 6000 SCT020 34/08 Q1008 NOSIG", "VABB 031130Z 27007G17KT 5000 FU FEW020 29/21 Q1008 NOSIG", "VABO 031130Z 24004KT 6000 NSC 34/15 Q1007 NOSIG", "VABP 031130Z 23010KT 6000 SCT030 33/04 Q1008 NOSIG", "VADU 031130Z 24010KT 6000 NSC 29/23 Q1008 NOSIG", "VAID 031100Z 28011KT 6000 FEW020 SCT025 33/08 Q1010 NOSIG", "VAJB 031100Z 27007KT 6000 FEW025 34/10 Q1007 NOSIG", "VAJJ 031130Z 32010KT 5000 FU FEW020 28/21 Q1008 NOSIG", "VAJL 031100Z 27009KT 7000 FEW020 36/11 Q1007 NOSIG", "VAKE 031130Z 24011G21KT 5000 FU NSC 35/13 Q1007 NOSIG", "VAKP 031100Z 24011KT 9999 NSC 33/06 Q1010", "VANP 031130Z 14004KT 4000 HZ FEW020 SCT025 36/11 Q1007 NOSIG", "VAOZ 031130Z 32007KT 8000 SCT030 33/09 Q1011 NOSIG", "VAPR 031100Z 25010KT 6000 FEW020 28/22 Q1009 NOSIG", "VASD 031130Z 01006KT 6000 FEW020 33/07 Q1009 NOSIG", "VASU 031130Z 20010KT 6000 NSC 30/17 Q1008 NOSIG", "VAUD 031130Z 24012KT 6000 SCT030 BKN100 32/06 Q1009 NOSIG", "VCRI 031110Z 14007KT 070V210 9999 FEW018 FEW019CB SCT080 31/26 Q1006 NOSIG RMK W", "VDPP 031130Z 16008KT 9999 SCT015 SCT040 31/24 Q1006", "VDSR 031130Z 16003KT 9999 FEW040 33/23 Q1005", "VDSV 031130Z 25006KT 9999 SCT015 SCT040 29/23 Q1007", "VEAT 031130Z 00000KT 6000 FEW020 31/17 Q1006 NOSIG", "VEBN 031130Z 30005KT 5000 HZ FEW025 34/12 Q1005 NOSIG", "VEBS 031130Z 19008KT 5000 HZ SCT018 33/24 Q1007 NOSIG", "VEBU 031100Z 24008KT 6000 FEW020 35/10 Q1006 NOSIG", "VECC 031130Z 00000KT 4500 HZ FEW020 34/17 Q1005 NOSIG", "VECO 031100Z 05004KT 4500 HZ SCT025 26/19 Q1005 NOSIG", "VEDG 031130Z 23004KT 6000 FEW020 SCT090 33/13 Q1005 NOSIG", "VEDO 031130Z 29011KT 7000 SCT020 32/08 Q1006 NOSIG", "VEGT 031130Z 04004KT 5000 HZ FEW018 SCT100 27/24 Q1006 NOSIG", "VEGY 031130Z 32012KT 6000 FEW020 34/08 Q1005 NOSIG", "VEIM 031130Z 35001KT 5000 HZ FEW018 SCT100 23/18 Q1011 NOSIG", "VEJH 031130Z 19008KT 5000 HZ SCT020 SCT100 33/16 Q1007", "VEJS 031100Z 32003KT 5000 HZ SCT020 SCT025 34/13 Q1006", "VEKI 031100Z 28010G20KT 5000 HZ FEW025 33/08 Q1004 NOSIG", "VELP 031130Z 34004KT 2500 HZ SCT020 SCT100 24/18 Q1009 NOSIG", "VELR 031100Z 07003KT 5000 BR FEW010 SCT016 BKN080 20/16 Q1009", "VEPT 031130Z 29006KT 5000 HZ FEW018 SCT100 35/15 Q1004 NOSIG", "VERC 031130Z 31006KT 6000 FEW020 30/11 Q1010 NOSIG", "VERP 031130Z 22005KT 6000 FEW025 35/11 Q1007 NOSIG", "VGHS 031130Z 00000KT 4000 HZ NSC 31/20 Q1006 NOSIG", "VHHH 031130Z 10018KT 9999 FEW009 SCT018 22/20 Q1010 NOSIG", "VIAR 031130Z VRB02KT 3000 BR SCT030 BKN090 23/18 Q1008 NOSIG", "VIDN 031130Z 25009KT 6000 SCT030 27/11 Q1008", "VIDP 031130Z 16004KT 3500 HZ SCT030 FEW035CB BKN100 26/12 Q1007 TEMPO 25025G35KT 1500 TSRA", "VIJP 031130Z 26012KT 5000 HZ SCT040 33/09 Q1006 NOSIG", "VILK 031130Z 28004KT 5000 HZ NSC 34/17 Q1005 NOSIG", "VIPT 031130Z 27006KT 6000 FEW030 30/13 Q1006", "VISM 031130Z 00000KT 5000 SCT030 OVC080 13/11 Q1014", "VLLN 031100Z 18002KT 6000 SCT020 28/19 Q1006 NOSIG", "VLPS 031100Z 09002KT 4000 RERA FEW020 BKN050 30/19 Q1005 NOSIG", "VLVT 031130Z 00000KT 6000 BKN040 32/23 Q1003 NOSIG", "VMMC 031130Z 11019KT 6000 FEW008 SCT020 21/21 Q1009 NOSIG", "VNKT 031130Z 23010KT 190V260 9999 FEW015 FEW025TCU SCT030 20/10 Q1011 NOSIG", "VOBG 031130Z 11005KT 6000 SCT012 SCT018 31/16 Q1011 NOSIG", "VOBL 031130Z 13007KT 9999 FEW012 SCT018 32/13 Q1011 NOSIG", "VOBM 031100Z 28012KT CAVOK 33/14 Q1012", "VOBZ 031130Z 09006KT 6000 FEW020 SCT025 FEW030CB 34/24 Q1005 NOSIG", "VOCB 031130Z 22012KT 6000 SCT012 FEW020TCU 35/19 Q1007 NOSIG", "VOCI 031130Z 29012KT 5000 HZ FEW015 33/22 Q1006 NOSIG", "VOCL 031130Z 30010KT 6000 FEW015 29/20 Q1007 NOSIG", "VOCP 031130Z 02006KT 6000 FEW020 38/09 Q1004 NOSIG", "VOGA 031130Z 28014KT 9000 FU NSC 29/17 Q1008 NOSIG", "VOGB 031130Z 25008KT 9000 FEW015 36/14 Q1008 NOSIG", "VOHB 031130Z 27012KT 9999 FEW015 33/13 Q1009", "VOHS 031130Z 24005KT 6000 FEW015 SCT025 FEW030TCU 35/12 Q1009 NOSIG", "VOHY 031130Z 05009KT 6000 FEW020 SCT025 33/15 Q1009 NOSIG", "VOJV 031130Z 05008KT 8000 FEW020 35/10 Q1009", "VOKN 031130Z 31010KT 8000 FEW015 32/23 Q1007 NOSIG", "VOMD 031130Z 14010KT 8000 FEW020 FEW025TCU 35/21 Q1005 NOSIG", "VOML 031130Z 30011KT 9999 FEW015 31/20 Q1007 NOSIG", "VOMM 031130Z 16010KT 6000 SCT020 32/25 Q1006 NOSIG", "VOMY 031100Z 12006KT 8000 SCT015 34/14 Q1009", "VOPB 031100Z 09003KT 6000 SCT014 SCT220 29/23 Q1008 NOSIG", "VOPC 031130Z 11006KT 7000 FEW020 33/25 Q1007 NOSIG", "VORY 031130Z 23008G18KT 6000 FEW020 SCT025 FEW030CB 34/27 Q1006 NOSIG", "VOTK 031100Z 15007G17KT 6000 FEW020 35/22 Q1006 NOSIG", "VOTP 031130Z 22013KT 5000 -TSRA SCT020 FEW025CB SCT090 30/20 Q1006 TEMPO 3000 TSRA", "VOTR 031130Z 11012KT 5000 HZ SCT015 FEW025CB BKN100 31/23 Q1006 NOSIG", "VOTV 031130Z 29008KT 5000 TS SCT015 FEW025CB BKN080 31/25 Q1006 NOSIG", "VOVZ 031130Z 23008KT 6000 SCT018 SCT080 30/25 Q1007 NOSIG", "VRMG 031100Z 34006KT 9999 FEW019 BKN270 31/23 Q1008 NOSIG", "VRMM 031100Z 35006KT 9999 SCT018 32/25 Q1007 NOSIG", "VTBD 031130Z 16010KT 9999 FEW030 34/20 Q1005 NOSIG", "VTBS 031130Z 19008KT 9000 FEW020 33/17 Q1005 NOSIG", "VTBU 031130Z 15008KT 9000 FEW020 29/23 Q1007 NOSIG", "VTCC 031130Z 25004KT 220V310 7000 FEW035 34/13 Q1005 NOSIG", "VTCH 031100Z VRB06KT 9999 BKN025 35/12 Q1005 NOSIG", "VTCL 031100Z 23005KT 190V250 9999 FEW025 36/12 Q1004 NOSIG", "VTCN 031100Z 19007KT CAVOK 36/15 Q1003 NOSIG", "VTCP 031100Z 22008KT 180V250 9000 FEW045 37/13 Q1003 NOSIG", "VTCT 031100Z 21003KT 6000 FEW040 32/17 Q1004 NOSIG", "VTPB 031100Z 00000KT CAVOK 37/12 Q1004 NOSIG", "VTPH 031100Z 16009KT 140V200 9999 FEW030 30/23 Q1005 NOSIG", "VTPM 031100Z 26007KT 210V300 9999 FEW035 33/15 Q1006 NOSIG", "VTPO 031100Z 23008KT 9000 NSC 38/11 Q1003 NOSIG", "VTPP 031100Z 15004KT CAVOK 36/15 Q1003 NOSIG", "VTPT 031100Z /////KT 9999 FEW028 36/15 Q1004 NOSIG", "VTSB 031100Z 06003KT 9999 FEW018CB 31/24 Q1006 NOSIG", "VTSC 031100Z 03006KT 360V060 9999 FEW022 30/25 Q1007 NOSIG", "VTSE 031100Z 15004KT 100V190 9000 FEW020 31/25 Q1005 NOSIG", "VTSF 031100Z 00000KT 9999 FEW018 29/24 Q1007 NOSIG", "VTSG 031100Z 18005KT 150V210 9999 VCTS FEW018CB BKN080 30/25 Q1007 NOSIG", "VTSM 031100Z 14005KT CAVOK 31/23 Q1007 NOSIG", "VTSP 031130Z 30007KT 270V330 9999 FEW020 29/23 Q1007 NOSIG", "VTSR 031100Z 35005KT 320V020 9999 FEW025 31/21 Q1007 NOSIG", "VTSS 031130Z 22007KT 100V260 9999 -TSRA FEW018CB BKN100 27/22 Q1008 NOSIG", "VTST 031100Z 32003KT 260V060 9000 -RA FEW018CB SCT030 25/23 Q1007 RETS NOSIG", "VTUD 031100Z 17009KT 120V190 8000 NSC 34/21 Q1004 NOSIG", "VTUI 031100Z VRB02KT 9999 FEW040 34/21 Q1004 NOSIG", "VTUK 031100Z 13002KT 9999 FEW025 SCT080 31/25 Q1005 NOSIG", "VTUL 031100Z 27007KT CAVOK 36/13 Q1004 NOSIG", "VTUO 031100Z 21008KT 8000 FEW045 35/15 Q1005 NOSIG", "VTUQ 031100Z VRB02KT 7000 NSC 31/20 Q1005 NOSIG", "VTUU 031100Z VRB04KT 9000 NSC 34/22 Q1005 NOSIG", "VTUV 031100Z 20005KT 8000 FEW035 35/19 Q1004 NOSIG", "VTUW 031100Z 09001KT 9999 FEW035 28/25 Q1004 NOSIG", "VVCI 031130Z 11008KT 9999 BKN009 25/24 Q1004 NOSIG", "VVCR 031130Z 18006KT 9999 FEW017 28/23 Q1009 NOSIG", "VVCT 031130Z 15004KT 9999 FEW015 FEW017TCU SCT050 26/24 Q1008 NOSIG", "VVDN 031130Z VRB01KT 9999 FEW017 27/25 Q1007 NOSIG", "VVNB 031130Z 11010KT 9999 OVC032 27/23 Q1004 NOSIG", "VVPB 031130Z 17005KT 9999 FEW015 SCT050 28/22 Q1006 NOSIG", "VVPQ 031130Z 23004KT 9999 FEW017 29/23 Q1007 NOSIG", "VVTS 031130Z 24008KT 9999 SCT017 BKN050 26/23 Q1008 NOSIG", "VVVD 031130Z AUTO VRB01KT 9999 OVC014/// 26/24 Q1005 NOSIG", "VYMD 031130Z 36007KT 6000 BKN020 FEW025CB 32/14 Q1005", "VYNT 031100Z 14002KT 6000 BKN018 FEW022CB OVC100 34/16 Q1005 NOSIG", "VYYY 031130Z 28012KT 7000 NSC 34/21 Q1006 NOSIG", "WAAA 031130Z 22002KT 8000 FEW019 26/22 Q1009 NOSIG", "WABB 031130Z 31004KT 120V310 9999 FEW018 26/25 Q1009 NOSIG", "WADD 031130Z 27004KT 9999 SCT016 27/26 Q1008 NOSIG", "WADL 031130Z VRB02KT 9000 SCT016 26/25 Q1009 NOSIG", "WAHS 031130Z 22003KT 160V270 7000 SCT014 28/23 Q1008 NOSIG", "WAJJ 031130Z 31005KT 8000 -RA FEW013 26/24 Q1009 NOSIG", "WALL 031130Z 35003KT 9000 FEW020 26/24 Q1007 NOSIG", "WAMM 031130Z VRB02KT 9999 SCT019 26/24 Q1009 NOSIG METAR ", "WAOO 031130Z 05005KT 9999 SCT016 27/25 Q1007 NOSIG", "WAPP 031130Z 29003KT 250V320 7000 -RA SCT016CB 25/22 Q1009 TEMPO 3000RMK CB TO E", "WAQQ 031100Z 12003KT 9999 SCT014 29/25 Q1009", "WARR 031130Z 25004KT 8000 SCT020CB 26/23 Q1008 NOSIG", "WATT 031130Z 15004KT 8000 FEW018 25/24 Q1009 NOSIG", "WBGB 031100Z 00000KT 9999 FEW014 28/25 Q1008", "WBGG 031130Z 24004KT 170V290 9999 -RA SCT018 23/21 Q1009 NOSIG", "WBGR 031100Z 23004KT 190V290 9999 FEW016 28/24 Q1008", "WBGS 031100Z 14003KT 080V220 9999 TS FEW015CB SCT018 27/22 Q1008", "WBGY 031100Z AUTO 30004KT 230V350 //// // ////// 23/22 Q1009", "WBKK 031130Z 00000KT 9999 FEW014 29/25 Q1008 NOSIG", "WBKL 031100Z 00000KT 9999 FEW014 27/24 Q1008", "WBKS 031100Z 03005KT 360V070 9999 TS FEW016 FEW017CB 28/25 Q1008", "WBKT 031100Z VRB01KT 9999 FEW014 27/26 Q1008", "WBKW 031100Z 00000KT 9999 FEW016 25/24 Q1009", "WBSB 031130Z 13002KT 9999 TS FEW015 FEW016CB SCT140 BKN280 28/26 Q1009 NOSIG", "WIBB 031130Z 36011KT 8000 SCT013 FEW015CB 26/25 Q1007 NOSIG", "WIDD 031130Z 27004KT 9999 FEW014 27/25 Q1009 NOSIG", "WIDN 031130Z 26003KT 9999 SCT015 26/25 Q1008 NOSIG", "WIEE 031130Z VRB02KT 9999 SCT020 27/24 Q1009 NOSIG", "WIHH 031130Z 26008KT 6000 FEW022 29/21 Q1007 NOSIG METAR ", "WIII 031130Z 25006KT 9000 FEW022 28/23 Q1008 NOSIG", "WILL 031130Z 00000KT 8000 BKN013 25/22 Q1009 NOSIG", "WIMM 031100Z 30002KT 9999 SCT020 27/23 Q1008 NOSIG", "WIOO 031130Z 02002KT 6000 -RA SCT012 25/24 Q1009 NOSIG", "WIPP 031130Z 35005KT 9999 FEW010 27/24 Q1008 NOSIG", "WMAU 031100Z 24003KT 230V310 9000 SCT025 27/25 Q1007", "WMBA 031100Z 27004KT 210V310 9999 FEW021 30/23 Q1008", "WMKA 031100Z 25006KT 160V320 9999 FEW020 28/23 Q1008", "WMKB 031100Z 32003KT 250V010 9000 FEW020 28/23 Q1008 NOSIG", "WMKC 031100Z 11003KT 060V160 9999 TS FEW017CB 29/25 Q1008", "WMKD 031100Z 33006KT 9999 FEW025 27/24 Q1008 NOSIG", "WMKE 031100Z VRB02KT 9999 SCT020 25/24 Q1008", "WMKI 031100Z VRB02KT 9999 FEW019 30/24 Q1008", "WMKJ 031100Z VRB05KT 9999 FEW018 28/24 Q1007", "WMKK 031130Z 25003KT 200V330 9999 FEW030 28/24 Q1008 NOSIG", "WMKL 031100Z VRB03KT 9999 FEW020 29/24 Q1008", "WMKM 031100Z VRB02KT 9999 FEW027 28/25 Q1008", "WMKN 031100Z 27012KT 240V320 5000 TSRA FEW008 FEW017CB SCT020 24/23 Q1009", "WMKP 031130Z 00000KT 9999 FEW020 28/23 Q1008 NOSIG", "WMSA 031100Z 29007KT 260V320 9999 FEW017CB 29/24 Q1009", "WSAP 031100Z 25003KT 9999 FEW018 SCT150 BKN270 28/23 Q1007", "WSSL 031100Z 26005KT 210V310 9999 FEW018 SCT150 BKN270 28/24 Q1007", "WSSS 031130Z VRB02KT 9999 FEW018 SCT150 BKN270 28/23 Q1008 NOSIG", "YAMB 031130Z AUTO 20006KT 9999 // OVC100 20/16 Q1016 RF00.0/000.0", "YBAS 031130Z AUTO 08010KT 9999 // NCD 21/12 Q1015 RF00.0/000.6", "YBBN 031130Z 18008KT 9999 FEW027 BKN096 22/16 Q1016 RF00/0/000/0", "YBCG 031146Z AUTO 18008KT 6000 +SHRA SCT029 BKN039 BKN046 20/17 Q1017", "YBCS 031130Z AUTO 00000KT 9999 // NCD 25/24 Q1010 RF00.0/000.0", "YBHM 031148Z AUTO /////KT 9999 // BKN013 25/// Q1012 RF00.0/029.2", "YBLN 031130Z AUTO 18009KT 9999 // NCD 18/13 Q1013 RF00.0/000.0", "YBMA 031130Z AUTO 17006KT 9999 // NCD 21/11 Q1013 RF00.0/000.0", "YBRK 031130Z AUTO 14006KT 9999 // NCD 23/19 Q1014 RF00.0/000.0", "YBRM 031130Z AUTO 00000KT 9999 // NCD 26/25 Q1009 RF00.0/000.2", "YBSU 031130Z AUTO 17011KT 9999 // SCT016 BKN021 BKN029 22/19 Q1015", "YBTL 031130Z AUTO 15005KT 9999 // SCT021 SCT029 26/24 Q1011", "YBWW 031130Z AUTO 11014KT 9999 // NCD 19/14 Q1017 RF00.0/000.0", "YCFS 031130Z AUTO 24008KT 9999 // NCD 19/17 Q1019 RF00.0/000.0", "YCIN 031130Z AUTO 26004KT 9999 // NCD 26/24 Q1009 RF00.0/011.6", "YFRT 031130Z AUTO 12015KT 9999 // NCD 23/12 Q1011 RF00.0/000.0", "YGEL 031130Z AUTO 18015KT 9999 // NCD 23/17 Q1011 RF00.0/000.0", "YGLA 031130Z AUTO 13006KT 9999 // NCD 24/19 Q1014 RF00.0/000.0", "YHID 031130Z AUTO 17001KT 9999 // NCD 26/25 Q1009 RF00.0/006.8", "YLHI 031130Z AUTO 09021KT 5000 SHRA SCT023 SCT033 BKN040 20/17 Q1020", "YMAV 031130Z AUTO 26004KT 9999 // BKN084 14/13 Q1018 RF00.0/000.0", "YMHB 031130Z 19005KT 9999 FEW040 BKN065 14/11 Q1019 RF00.0/000.0", "YMLT 031130Z AUTO 35005KT 9999 // NCD 09/07 Q1020 RF00.0/000.0", "YMML 031130Z 28008KT CAVOK 14/11 Q1019", "YPAD 031130Z 09002KT CAVOK 17/06 Q1017 ALOFT TO SOUTH", "YPCC 031130Z AUTO 16009KT 9999 // SCT027 27/22 Q1009 RF00.0/000.0", "YPDN 031130Z 18003KT CAVOK 27/24 Q1009", "YPEA 031130Z AUTO 21009KT 9999 // NCD 21/15 Q1011 RF00.0/000.0", "YPGV 031130Z AUTO 14004KT 9999 // SCT021 28/25 Q1010 RF00.0/000.0", "YPJT 031130Z AUTO 19009KT 9999 // NCD 21/16 Q1012 RF00.0/000.0", "YPKG 031130Z AUTO 15004KT 9999 // SCT090 24/14 Q1009 RF00.0/000.0", "YPKU 031130Z AUTO 28004KT 9999 // NCD 26/24 Q1010 RF00.0/000.2", "YPLM 031130Z AUTO 22008KT 9999 // OVC110 27/23 Q1009 RF00.0/000.2", "YPPD 031130Z AUTO 27011KT 9999 // NCD 30/25 Q1008 RF00.0////./", "YPPH 031130Z 20013KT CAVOK 21/15 Q1011", "YPTN 031130Z AUTO 27005KT 9999 // NCD 28/22 Q1010 RF00.0/000.0", "YPWR 031130Z AUTO 05009KT 9999 // NCD 21/02 Q1016 RF00.0/000.0", "YPXM 031130Z AUTO 00000KT 9999 // SCT045 24/22 Q1010 RF00.0/002.2", "YSCB 031132Z AUTO 08005KT 9999 // BKN021 BKN096 15/12 Q1022", "YSDU 031130Z AUTO 12009KT 9999 // NCD 19/12 Q1019 RF00.0/000.0", "YSNF 031130Z AUTO 09013KT 9999 // NCD 20/17 Q1020 RF00.0/000.0", "YSRI 031130Z AUTO 00000KT 7000 // NCD 17/17 Q1021 RF00.0/000.2", "YSSY 031130Z 04007KT 9999 SCT040 21/14 Q1021", "YSTW 031130Z AUTO 14008KT 9999 // NCD 18/11 Q1019 RF00.0/000.0", "YWLM 031130Z AUTO 08005KT 9999 // SCT039 19/15 Q1020 RF00.0/000.2", "ZBAA 031130Z 10002MPS 060V140 CAVOK 17/M01 Q1020 NOSIG", "ZBAD 031130Z 09005MPS CAVOK 16/03 Q1019 NOSIG", "ZBHH 031100Z 07007MPS 9999 -RA SCT033 03/M00 Q1018 NOSIG", "ZBSJ 031100Z 04003MPS 6000 NSC 15/07 Q1016 NOSIG", "ZBTJ 031130Z 09005MPS CAVOK 14/03 Q1019 NOSIG", "ZBYN 031130Z 08005MPS 050V110 8000 -RA SCT016 08/03 Q1015 NOSIG", "ZGGG 031130Z 09002MPS 060V130 8000 -SHRA FEW013 OVC023 22/22 Q1009 NOSIG", "ZGHA 031100Z 18006MPS CAVOK 24/20 Q1000 NOSIG", "ZGKL 031100Z 15004MPS 9999 BKN030 OVC050 24/22 Q1002 NOSIG", "ZGNN 031100Z 16005MPS CAVOK 27/22 Q1003 NOSIG", "ZGOW 031100Z 13003MPS 090V150 7000 -RA SCT015 OVC020 18/16 Q1013 NOSIG", "ZGSZ 031100Z 11005MPS 9999 FEW020 BKN046 23/19 Q1009 NOSIG", "ZHCC 031100Z 03006MPS 5000 -RA BR SCT007 OVC030 10/09 Q1010 NOSIG", "ZHHH 031100Z 07004MPS 2500 TSRA BR SCT007 SCT030CB BKN040 19/18 Q1002 NOSIG", "ZJHK 031100Z 16005MPS 130V190 CAVOK 27/24 Q1005 NOSIG", "ZJSY 031100Z 14003MPS 110V190 9999 FEW020 28/24 Q1007 NOSIG", "ZLLL 031100Z 12004MPS 7000 SCT020 BKN040 04/M00 Q1013 NOSIG", "ZLXY 031100Z 25005MPS 9999 FEW009 SCT030 OVC060 08/06 Q1012 NOSIG", "ZMCK 031130Z 32004MPS 9999 SCT100 M09/M18 Q1029 NOSIG RMK QFE654.7 45 MOP", "ZPPP 031100Z 25011G16MPS 9999 FEW030 19/00 Q1012 BECMG TL1240 22005MPS", "ZSAM 031100Z 12004MPS 070V150 9999 OVC040 20/16 Q1013 NOSIG", "ZSFZ 031100Z 02004MPS 9999 BKN017 17/12 Q1014 NOSIG", "ZSHC 031130Z 16005MPS 120V200 CAVOK 21/06 Q1010 NOSIG", "ZSNB 031100Z 16007MPS CAVOK 19/12 Q1013 NOSIG", "ZSNJ 031100Z 11004MPS 8000 -TSRA OVC043 FEW046CB 14/13 Q1007 RESHRA BECMG TL1130 -SHRA OVC043", "ZSOF 031100Z 13006MPS 3300 -SHRA BR BKN007 14/13 Q1005 BECMG TL1200 2700", "ZSPD 031130Z 14008MPS 9999 SCT010 16/14 Q1013 NOSIG", "ZSQD 031100Z 08005MPS 9999 BKN026 13/07 Q1016 NOSIG", "ZSSS 031130Z 14008MPS CAVOK 17/13 Q1012 NOSIG", "ZUCK 031100Z 30006MPS CAVOK 17/14 Q1000 NOSIG", "ZUGY 031100Z 20010MPS 9999 FEW033 27/10 Q1000 BECMG TL1230 02005MPS", "ZUTF 031100Z 04004MPS CAVOK 21/06 Q1001 NOSIG", "ZUUU 031100Z 35003MPS CAVOK 19/09 Q1002 NOSIG", "ZWSH 031100Z 11007MPS 9000 NSC 20/M19 Q1010 NOSIG", "ZWWW 031130Z 32006G12MPS 9999 FEW040TCU SCT046 03/M17 Q1033 NOSIG", "ZYCC 031100Z 34003MPS 310V010 CAVOK 10/M03 Q1024 NOSIG", "ZYHB 031100Z 27002MPS CAVOK 07/M01 Q1025 NOSIG", "ZYTL 031130Z 10005MPS CAVOK 12/01 Q1022 NOSIG", "ZYTX 031130Z 01005MPS 340V040 CAVOK 14/M00 Q1024 NOSIG"]}