No errors
No warnings
409 ms
data source=metars
5056 results
raw_text,station_id,observation_time,latitude,longitude,temp_c,dewpoint_c,wind_dir_degrees,wind_speed_kt,wind_gust_kt,visibility_statute_mi,altim_in_hg,sea_level_pressure_mb,corrected,auto,auto_station,maintenance_indicator_on,no_signal,lightning_sensor_off,freezing_rain_sensor_off,present_weather_sensor_off,wx_string,sky_cover,cloud_base_ft_agl,sky_cover,cloud_base_ft_agl,sky_cover,cloud_base_ft_agl,sky_cover,cloud_base_ft_agl,flight_category,three_hr_pressure_tendency_mb,maxT_c,minT_c,maxT24hr_c,minT24hr_c,precip_in,pcp3hr_in,pcp6hr_in,pcp24hr_in,snow_in,vert_vis_ft,metar_type,elevation_m
YMAY 311557Z AUTO 29010KT 9999 // SCT016 OVC059 12/11 Q0988,YMAY,2022-10-31T15:57:00Z,-36.07,146.95,12.0,11.0,290,10,,6.21,29.17323,,,TRUE,,,,,,,,SCT,1600,OVC,5900,,,,,VFR,,,,,,,,,,,,SPECI,156.0
PHNG 311557Z 06009KT 10SM SCT022 A2999 RMK AO2 SLP152 $ ,PHNG,2022-10-31T15:57:00Z,21.43,-157.77,,,60,9,,10.0,29.991142,1015.2,,,TRUE,TRUE,,,,,,SCT,2200,,,,,,,VFR,,,,,,,,,,,,METAR,1.0
KNYL 311557Z 03007KT 7SM CLR 19/M02 A2994 RMK AO2 SLP135 T01891017 ,KNYL,2022-10-31T15:57:00Z,32.65,-114.62,18.9,-1.7,30,7,,7.0,29.940945,1013.5,,,TRUE,,,,,,,CLR,,,,,,,,VFR,,,,,,,,,,,,METAR,58.0
PPIZ 311556Z AUTO 14013KT 9SM -SN SCT009 OVC015 M07/M08 A2986 RMK AO2 SNB51 SLP116 P0000 T10671083 FZRANO,PPIZ,2022-10-31T15:56:00Z,69.73,-163.0,-6.7,-8.3,140,13,,9.0,29.861221,1011.6,,TRUE,TRUE,,,,TRUE,,-SN,SCT,900,OVC,1500,,,,,MVFR,,,,,,0.005,,,,,,METAR,5.0
PMDY 311556Z AUTO 09008KT 10SM FEW020 24/21 A3008 RMK AO2 SLP186 T02390206 TSNO,PMDY,2022-10-31T15:56:00Z,28.22,-177.37,23.9,20.6,90,8,,10.0,30.079725,1018.6,,TRUE,TRUE,,,TRUE,,,,FEW,2000,,,,,,,VFR,,,,,,,,,,,,METAR,6.0
PHNY 311556Z AUTO 08007KT 10SM CLR 21/19 A3005 RMK AO2 SLP156 T02110189 $,PHNY,2022-10-31T15:56:00Z,20.77,-156.95,21.1,18.9,80,7,,10.0,30.050198,1015.6,,TRUE,TRUE,TRUE,,,,,,CLR,,,,,,,,VFR,,,,,,,,,,,,METAR,395.0
PFYU 311556Z 02005KT 10SM CLR M14/M18 A2995 RMK AO2 SLP160 T11441178,PFYU,2022-10-31T15:56:00Z,66.57,-145.23,-14.4,-17.8,20,5,,10.0,29.949802,1016.0,,,TRUE,,,,,,,CLR,,,,,,,,VFR,,,,,,,,,,,,METAR,130.0
PFWS 311556Z AUTO 31014G20KT 10SM CLR M04/M08 A3011 RMK AO2 SLP241 T10441083 FZRANO,PFWS,2022-10-31T15:56:00Z,58.7,-157.0,-4.4,-8.3,310,14,20,10.0,30.109253,1024.1,,TRUE,TRUE,,,,TRUE,,,CLR,,,,,,,,VFR,,,,,,,,,,,,METAR,40.0
PFSH 311556Z AUTO 10003KT 10SM CLR M11/M12 A3008 RMK AO2 SLP186 T11111122 FZRANO,PFSH,2022-10-31T15:56:00Z,64.37,-161.22,-11.1,-12.2,100,3,,10.0,30.079725,1018.6,,TRUE,TRUE,,,,TRUE,,,CLR,,,,,,,,VFR,,,,,,,,,,,,METAR,6.0
PFNO 311556Z AUTO 06005KT 9SM OVC009 M14/M16 A3007 RMK AO2 CIG 006V011 SLP270 T11441161 FZRANO,PFNO,2022-10-31T15:56:00Z,66.82,-161.02,-14.4,-16.1,60,5,,9.0,30.070866,1027.0,,TRUE,TRUE,,,,TRUE,,,OVC,900,,,,,,,IFR,,,,,,,,,,,,METAR,14.0
PFKW 311556Z AUTO 25006KT 10SM CLR M12/M13 A3017 RMK AO2 SLP216 T11171128 FZRANO,PFKW,2022-10-31T15:56:00Z,60.8,-161.43,-11.7,-12.8,250,6,,10.0,30.171259,1021.6,,TRUE,TRUE,,,,TRUE,,,CLR,,,,,,,,VFR,,,,,,,,,,,,METAR,4.0
PFKT 311556Z AUTO 31008KT 10SM FEW055 M06/M07 A3010 RMK AO2 SNE11 SLP194 P0000 T10611072 FZRANO,PFKT,2022-10-31T15:56:00Z,65.33,-166.47,-6.1,-7.2,310,8,,10.0,30.100393,1019.4,,TRUE,TRUE,,,,TRUE,,,FEW,5500,,,,,,,VFR,,,,,,0.005,,,,,,METAR,8.0
PFEL 311556Z AUTO 00000KT 10SM CLR M08/M10 A3003 RMK AO2 SLP174 T10831100 FZRANO,PFEL,2022-10-31T15:56:00Z,64.62,-162.27,-8.3,-10.0,0,0,,10.0,30.029528,1017.4,,TRUE,TRUE,,,,TRUE,,,CLR,,,,,,,,VFR,,,,,,,,,,,,METAR,50.0
PFCL 311556Z AUTO 29013KT 10SM CLR A3013 RMK AO2 SLPNO FZRANO TSNO $,PFCL,2022-10-31T15:56:00Z,58.83,-158.53,,,290,13,,10.0,30.129921,,,TRUE,TRUE,TRUE,,TRUE,TRUE,,,CLR,,,,,,,,VFR,,,,,,,,,,,,METAR,23.0
PAZK 311556Z AUTO 01006KT 9SM -SN OVC020 M13/M14 A2946 RMK AO2 SLP051 P0000 T11281144 FZRANO,PAZK,2022-10-31T15:56:00Z,61.93,-147.17,-12.8,-14.4,10,6,,9.0,29.459646,1005.1,,TRUE,TRUE,,,,TRUE,,-SN,OVC,2000,,,,,,,MVFR,,,,,,0.005,,,,,,METAR,1002.0
PAWS 311556Z AUTO 30004KT 10SM SCT120 M07/M11 A2965 RMK AO2 SLP047 T10721106 FZRANO,PAWS,2022-10-31T15:56:00Z,61.57,-149.53,-7.2,-10.6,300,4,,10.0,29.648623,1004.7,,TRUE,TRUE,,,,TRUE,,,SCT,12000,,,,,,,VFR,,,,,,,,,,,,METAR,102.0
PAWN 311556Z AUTO 01004KT 10SM OVC010 M14/M16 A3006 RMK AO2 SNE29 SLP192 P0000 T11441161 FZRANO,PAWN,2022-10-31T15:56:00Z,67.57,-162.98,-14.4,-16.1,10,4,,10.0,30.059055,1019.2,,TRUE,TRUE,,,,TRUE,,,OVC,1000,,,,,,,MVFR,,,,,,0.005,,,,,,METAR,26.0
PAWM 311556Z AUTO 32005KT 9SM OVC016 M06/M07 A3006 RMK AO2 SLP186 T10611067 FZRANO PNO $,PAWM,2022-10-31T15:56:00Z,64.68,-163.42,-6.1,-6.7,320,5,,9.0,30.059055,1018.6,,TRUE,TRUE,TRUE,,,TRUE,,,OVC,1600,,,,,,,MVFR,,,,,,,,,,,,METAR,80.0
PAVD 311556Z 15004KT 10SM SCT080 BKN110 BKN200 A2952 RMK AO2 SLPNO M03/M09 $,PAVD,2022-10-31T15:56:00Z,61.13,-146.25,,,150,4,,10.0,29.518702,,,,TRUE,TRUE,,,,,,SCT,8000,BKN,11000,BKN,20000,,,VFR,,,,,,,,,,,,METAR,21.0
PAVC 311556Z AUTO 26004KT 10SM SCT036 OVC060 02/M02 A3030 RMK AO2 SLP261 T00171022 FZRANO PNO $,PAVC,2022-10-31T15:56:00Z,55.12,-162.27,1.7,-2.2,260,4,,10.0,30.301182,1026.1,,TRUE,TRUE,TRUE,,,TRUE,,,SCT,3600,OVC,6000,,,,,VFR,,,,,,,,,,,,METAR,48.0
PAVA 311556Z AUTO 00000KT 10SM BKN046 M08/M08 A3018 RMK AO2 SLP224 T10781083 FZRANO,PAVA,2022-10-31T15:56:00Z,61.53,-165.6,-7.8,-8.3,0,0,,10.0,30.180119,1022.4,,TRUE,TRUE,,,,TRUE,,,BKN,4600,,,,,,,VFR,,,,,,,,,,,,METAR,14.0
PAUN 311556Z AUTO 00000KT 10SM BKN026 M12/M13 A3008 RMK AO2 SLP189 T11171128 FZRANO,PAUN,2022-10-31T15:56:00Z,63.88,-160.8,-11.7,-12.8,0,0,,10.0,30.079725,1018.9,,TRUE,TRUE,,,,TRUE,,,BKN,2600,,,,,,,MVFR,,,,,,,,,,,,METAR,4.0
PATQ 311556Z AUTO 11006KT 10SM CLR M21/M23 A2994 RMK AO2 SNB27E50 SLP147 P0000 T12111233 FZRANO TSNO,PATQ,2022-10-31T15:56:00Z,70.47,-157.43,-21.1,-23.3,110,6,,10.0,29.940945,1014.7,,TRUE,TRUE,,,TRUE,TRUE,,,CLR,,,,,,,,VFR,,,,,,0.005,,,,,,METAR,28.0
PATE 311556Z AUTO 31011KT 9SM FEW034 OVC050 M04/M06 A3007 RMK AO2 SNE55 SLP191 P0000 T10441056 FZRANO,PATE,2022-10-31T15:56:00Z,65.23,-166.33,-4.4,-5.6,310,11,,9.0,30.070866,1019.1,,TRUE,TRUE,,,,TRUE,,,FEW,3400,OVC,5000,,,,,VFR,,,,,,0.005,,,,,,METAR,93.0
PASX 311556Z AUTO 00000KT 10SM FEW065 M07/M08 A2971 RMK AO2 SLP069 T10721083 FZRANO,PASX,2022-10-31T15:56:00Z,60.48,-151.05,-7.2,-8.3,0,0,,10.0,29.71063,1006.9,,TRUE,TRUE,,,,TRUE,,,FEW,6500,,,,,,,VFR,,,,,,,,,,,,METAR,28.0
PASM 311556Z AUTO 25006KT 10SM FEW032 M09/M10 A3014 RMK AO2 SLP217 T10891100 FZRANO,PASM,2022-10-31T15:56:00Z,62.07,-163.3,-8.9,-10.0,250,6,,10.0,30.138779,1021.7,,TRUE,TRUE,,,,TRUE,,,FEW,3200,,,,,,,VFR,,,,,,,,,,,,METAR,108.0
PASK 311556Z AUTO 08006KT 10SM OVC016 M14/M16 A3008 RMK AO2 SLP182 T11391156 FZRANO,PASK,2022-10-31T15:56:00Z,66.6,-160.0,-13.9,-15.6,80,6,,10.0,30.079725,1018.2,,TRUE,TRUE,,,,TRUE,,,OVC,1600,,,,,,,MVFR,,,,,,,,,,,,METAR,3.0
PASH 311556Z AUTO 32020KT 9SM OVC034 M02/M07 A3006 RMK AO2 PK WND 32026/1521 SLP180 T10171067 FZRANO PNO $,PASH,2022-10-31T15:56:00Z,66.27,-166.08,-1.7,-6.7,320,20,,9.0,30.059055,1018.0,,TRUE,TRUE,TRUE,,,TRUE,,,OVC,3400,,,,,,,VFR,,,,,,,,,,,,METAR,3.0
PASD 311556Z 32012KT 10SM SCT047 02/M03 A3027 RMK AO2 SLP251 T00221028 $,PASD,2022-10-31T15:56:00Z,55.33,-160.52,2.2,-2.8,320,12,,10.0,30.268702,1025.1,,,TRUE,TRUE,,,,,,SCT,4700,,,,,,,VFR,,,,,,,,,,,,METAR,6.0
PASA 311556Z AUTO 16007KT 10SM OVC040 M07/M10 A3013 RMK AO2 SLP204 T10671100 FZRANO,PASA,2022-10-31T15:56:00Z,63.68,-170.5,-6.7,-10.0,160,7,,10.0,30.129921,1020.4,,TRUE,TRUE,,,,TRUE,,,OVC,4000,,,,,,,VFR,,,,,,,,,,,,METAR,9.0
PARY 311556Z AUTO 00000KT 10SM OVC050 M10/M12 A2995 RMK AO2 SLP162 T11001122 FZRANO,PARY,2022-10-31T15:56:00Z,64.73,-155.47,-10.0,-12.2,0,0,,10.0,29.949802,1016.2,,TRUE,TRUE,,,,TRUE,,,OVC,5000,,,,,,,VFR,,,,,,,,,,,,METAR,185.0
PARS 311556Z AUTO 28006KT 10SM SCT030 OVC038 A3011 RMK AO2 SLPNO FZRANO $,PARS,2022-10-31T15:56:00Z,61.77,-161.32,,,280,6,,10.0,30.109253,,,TRUE,TRUE,TRUE,,,TRUE,,,SCT,3000,OVC,3800,,,,,VFR,,,,,,,,,,,,METAR,15.0
PARC 311556Z AUTO 00000KT 10SM CLR M21/M23 A2985 RMK AO2 SLP186 T12061228 FZRANO,PARC,2022-10-31T15:56:00Z,68.12,-145.58,-20.6,-22.8,0,0,,10.0,29.84941,1018.6,,TRUE,TRUE,,,,TRUE,,,CLR,,,,,,,,VFR,,,,,,,,,,,,METAR,626.0
PAQH 311556Z AUTO 33003KT 10SM CLR M08/M09 A3022 RMK AO2 SLP233 T10781089 PWINO FZRANO,PAQH,2022-10-31T15:56:00Z,59.75,-161.85,-7.8,-8.9,330,3,,10.0,30.221457,1023.3,,TRUE,TRUE,,,,TRUE,TRUE,,CLR,,,,,,,,VFR,,,,,,,,,,,,METAR,8.0
PAPO 311556Z AUTO 28022KT 5SM -SN FEW023 M02/M06 A2996 RMK AO2 PK WND 28032/1524 UPB41E43SNE41B49 SLP145 T10221056 FZRANO PNO $,PAPO,2022-10-31T15:56:00Z,68.35,-166.8,-2.2,-5.6,280,22,,5.0,29.958662,1014.5,,TRUE,TRUE,TRUE,,,TRUE,,-SN,FEW,2300,,,,,,,MVFR,,,,,,,,,,,,METAR,4.0
PAPM 311556Z AUTO 01006KT 10SM CLR A3022 RMK AO2 SLPNO FZRANO PNO $,PAPM,2022-10-31T15:56:00Z,59.02,-161.82,,,10,6,,10.0,30.221457,,,TRUE,TRUE,TRUE,,,TRUE,,,CLR,,,,,,,,VFR,,,,,,,,,,,,METAR,4.0
PAPH 311556Z AUTO 33015KT 10SM CLR M01/M07 A3021 RMK AO2 SLP232 T10061067 FZRANO,PAPH,2022-10-31T15:56:00Z,56.95,-158.62,-0.6,-6.7,330,15,,10.0,30.209646,1023.2,,TRUE,TRUE,,,,TRUE,,,CLR,,,,,,,,VFR,,,,,,,,,,,,METAR,29.0
PAPG 311556Z 26003KT 10SM -RASN FEW016 SCT021 BKN031 00/M01 A2957 RMK AO2 SLP016 P0000 T00001006,PAPG,2022-10-31T15:56:00Z,56.82,-132.93,0.0,-0.6,260,3,,10.0,29.568897,1001.6,,,TRUE,,,,,,-RA -SN,FEW,1600,SCT,2100,BKN,3100,,,VFR,,,,,,0.005,,,,,,METAR,24.0
PAOU 311556Z AUTO 30013KT 10SM SCT037 OVC049 02/M05 A3026 RMK AO2 UPB29E45 SLP248 T00221050 FZRANO PNO $,PAOU,2022-10-31T15:56:00Z,56.0,-161.17,2.2,-5.0,300,13,,10.0,30.259842,1024.8,,TRUE,TRUE,TRUE,,,TRUE,,,SCT,3700,OVC,4900,,,,,VFR,,,,,,,,,,,,METAR,3.0
PAOO 311556Z AUTO 00000KT OVC036 M07/M07 A3021 RMK AO2 SLP238 T10671072 PWINO FZRANO TSNO $,PAOO,2022-10-31T15:56:00Z,60.53,-165.08,-6.7,-7.2,0,0,,,30.209646,1023.8,,TRUE,TRUE,TRUE,,TRUE,TRUE,TRUE,,OVC,3600,,,,,,,,,,,,,,,,,,,METAR,15.0
PAOH 311556Z AUTO 00000KT 10SM BKN040 OVC060 01/01 A2947 RMK AO2 SLP979 T00110006 FZRANO,PAOH,2022-10-31T15:56:00Z,58.1,-135.45,1.1,0.6,0,0,,10.0,29.471457,997.9,,TRUE,TRUE,,,,TRUE,,,BKN,4000,OVC,6000,,,,,VFR,,,,,,,,,,,,METAR,0.0
PANW 311556Z AUTO 31009KT 10SM CLR M09/M13 A3008 RMK AO2 SLP198 T10941128 FZRANO,PANW,2022-10-31T15:56:00Z,59.45,-157.32,-9.4,-12.8,310,9,,10.0,30.079725,1019.8,,TRUE,TRUE,,,,TRUE,,,CLR,,,,,,,,VFR,,,,,,,,,,,,METAR,100.0
PANV 311556Z AUTO 28007KT 10SM CLR M08/M08 A3003 RMK AO2 SLP297 T10781083 FZRANO TSNO,PANV,2022-10-31T15:56:00Z,62.65,-160.18,-7.8,-8.3,280,7,,10.0,30.029528,1029.7,,TRUE,TRUE,,,TRUE,TRUE,,,CLR,,,,,,,,VFR,,,,,,,,,,,,METAR,91.0
PANI 311556Z AUTO 29004KT 10SM CLR M09/M11 A3016 RMK AO2 SLP205 T10891106 FZRANO $,PANI,2022-10-31T15:56:00Z,61.58,-159.53,-8.9,-10.6,290,4,,10.0,30.159449,1020.5,,TRUE,TRUE,TRUE,,,TRUE,,,CLR,,,,,,,,VFR,,,,,,,,,,,,METAR,21.0
PANA 311556Z AUTO 28004KT 10SM CLR M11/M13 A3019 RMK AO2 SLP222 T11111128 FZRANO TSNO $,PANA,2022-10-31T15:56:00Z,60.68,-161.98,-11.1,-12.8,280,4,,10.0,30.188976,1022.2,,TRUE,TRUE,TRUE,,TRUE,TRUE,,,CLR,,,,,,,,VFR,,,,,,,,,,,,METAR,7.0
PAMK 311556Z AUTO 32010KT 10SM OVC024 M03/M05 A3008 RMK AO2 SNE06 SLP187 P0000 T10281050 FZRANO,PAMK,2022-10-31T15:56:00Z,63.48,-162.12,-2.8,-5.0,320,10,,10.0,30.079725,1018.7,,TRUE,TRUE,,,,TRUE,,,OVC,2400,,,,,,,MVFR,,,,,,0.005,,,,,,METAR,31.0
PAMH 311556Z AUTO 00000KT 9SM -SN OVC055 M12/M13 A2994 RMK AO2 SLP149 P0000 T11171128 FZRANO,PAMH,2022-10-31T15:56:00Z,63.9,-152.28,-11.7,-12.8,0,0,,9.0,29.940945,1014.9,,TRUE,TRUE,,,,TRUE,,-SN,OVC,5500,,,,,,,VFR,,,,,,0.005,,,,,,METAR,200.0
PAMB 311556Z AUTO 28009KT 9SM CLR M06/M12 A3014 RMK AO2 SLP209 T10561122 FZRANO $,PAMB,2022-10-31T15:56:00Z,58.98,-159.05,-5.6,-12.2,280,9,,9.0,30.138779,1020.9,,TRUE,TRUE,TRUE,,,TRUE,,,CLR,,,,,,,,VFR,,,,,,,,,,,,METAR,28.0
PALG 311556Z AUTO VRB03KT 10SM CLR M12/M14 A3012 RMK AO2 SLP205 T11221139 FZRANO,PALG,2022-10-31T15:56:00Z,61.53,-160.33,-12.2,-13.9,0,3,,10.0,30.121063,1020.5,,TRUE,TRUE,,,,TRUE,,,CLR,,,,,,,,VFR,,,,,,,,,,,,METAR,13.0
PAKP 311556Z AUTO 00000KT 10SM SCT041 M16/M18 A2983 RMK AO2 SLP183 T11611183 FZRANO,PAKP,2022-10-31T15:56:00Z,68.13,-151.73,-16.1,-18.3,0,0,,10.0,29.828741,1018.3,,TRUE,TRUE,,,,TRUE,,,SCT,4100,,,,,,,VFR,,,,,,,,,,,,METAR,649.0
PAKK 311556Z AUTO 00000KT 10SM BKN020 OVC043 M09/M10 A3002 RMK AO2 SLP175 T10941100 FZRANO,PAKK,2022-10-31T15:56:00Z,64.93,-161.15,-9.4,-10.0,0,0,,10.0,30.02067,1017.5,,TRUE,TRUE,,,,TRUE,,,BKN,2000,OVC,4300,,,,,MVFR,,,,,,,,,,,,METAR,56.0
PAKI 311556Z AUTO 00000KT 4SM BR BKN055 M06/M06 A3021 RMK AO2 SLP233 T10611061 FZRANO PNO $,PAKI,2022-10-31T15:56:00Z,59.93,-164.03,-6.1,-6.1,0,0,,4.0,30.209646,1023.3,,TRUE,TRUE,TRUE,,,TRUE,,BR,BKN,5500,,,,,,,MVFR,,,,,,,,,,,,METAR,4.0
PAKH 311556Z AUTO 10SM FEW035 A2995 RMK AO2 SLPNO FZRANO TSNO $,PAKH,2022-10-31T15:56:00Z,56.93,-154.18,,,,,,10.0,29.949802,,,TRUE,TRUE,TRUE,,TRUE,TRUE,,,FEW,3500,,,,,,,VFR,,,,,,,,,,,,METAR,15.0
PAKF 311556Z AUTO 22003KT 10SM BKN036 OVC060 A3029 RMK AO2 SLPNO FZRANO $,PAKF,2022-10-31T15:56:00Z,54.85,-163.42,,,220,3,,10.0,30.28937,,,TRUE,TRUE,TRUE,,,TRUE,,,BKN,3600,OVC,6000,,,,,VFR,,,,,,,,,,,,METAR,2.0
PAJZ 311556Z AUTO 31012G22KT 9SM CLR M05/M11 A3011 RMK AO2 SLP204 T10501106 FZRANO $,PAJZ,2022-10-31T15:56:00Z,59.73,-157.27,-5.0,-10.6,310,12,22,9.0,30.109253,1020.4,,TRUE,TRUE,TRUE,,,TRUE,,,CLR,,,,,,,,VFR,,,,,,,,,,,,METAR,80.0
PAIW 311556Z AUTO 34010KT 10SM FEW025 SCT030 OVC041 M03/M07 A3012 RMK AO2 SLP200 T10331072 FZRANO,PAIW,2022-10-31T15:56:00Z,65.62,-168.1,-3.3,-7.2,340,10,,10.0,30.121063,1020.0,,TRUE,TRUE,,,,TRUE,,,FEW,2500,SCT,3000,OVC,4100,,,VFR,,,,,,,,,,,,METAR,6.0
PAIN 311556Z AUTO 00000KT 9SM -SN OVC022 M12/M16 A2980 RMK AO2 SLP140 P0000 T11171156 FZRANO,PAIN,2022-10-31T15:56:00Z,63.73,-148.92,-11.7,-15.6,0,0,,9.0,29.799213,1014.0,,TRUE,TRUE,,,,TRUE,,-SN,OVC,2200,,,,,,,MVFR,,,,,,0.005,,,,,,METAR,525.0
PAIK 311556Z AUTO 30004KT 10SM BKN007 M19/M21 A3009 RMK AO2 SLP194 T11891206 FZRANO,PAIK,2022-10-31T15:56:00Z,66.98,-160.43,-18.9,-20.6,300,4,,10.0,30.088583,1019.4,,TRUE,TRUE,,,,TRUE,,,BKN,700,,,,,,,IFR,,,,,,,,,,,,METAR,49.0
PAIG 311556Z AUTO 26010KT 10SM SCT048 M06/M09 A3004 RMK AO2 SLP182 T10611094 FZRANO $,PAIG,2022-10-31T15:56:00Z,59.32,-155.9,-6.1,-9.4,260,10,,10.0,30.041338,1018.2,,TRUE,TRUE,TRUE,,,TRUE,,,SCT,4800,,,,,,,VFR,,,,,,,,,,,,METAR,24.0
PAHY 311556Z AUTO 12012G21KT 10SM -RA BKN038 OVC055 03/01 A2956 RMK AO2 RAB26UPB35E40 SLP007 P0000 T00280011 $,PAHY,2022-10-31T15:56:00Z,55.2,-132.83,2.8,1.1,120,12,21,10.0,29.56004,1000.7,,TRUE,TRUE,TRUE,,,,,-RA,BKN,3800,OVC,5500,,,,,VFR,,,,,,0.005,,,,,,METAR,0.0
PAHL 311556Z AUTO 00000KT 10SM OVC060 M10/M11 A3002 RMK AO2 SNB13E24 SLP173 P0000 T11001111 FZRANO,PAHL,2022-10-31T15:56:00Z,65.7,-156.35,-10.0,-11.1,0,0,,10.0,30.02067,1017.3,,TRUE,TRUE,,,,TRUE,,,OVC,6000,,,,,,,VFR,,,,,,0.005,,,,,,METAR,49.0
PAGS 311556Z AUTO 13008KT 10SM SCT013 BKN040 OVC060 04/02 A2947 RMK AO2 SLP978 T00390022,PAGS,2022-10-31T15:56:00Z,58.42,-135.7,3.9,2.2,130,8,,10.0,29.471457,997.8,,TRUE,TRUE,,,,,,,SCT,1300,BKN,4000,OVC,6000,,,VFR,,,,,,,,,,,,METAR,9.0
PAGN 311556Z AUTO 09003KT 10SM FEW038 02/02 A2952 RMK AO2 SLP985 T00220022 FZRANO,PAGN,2022-10-31T15:56:00Z,57.5,-134.58,2.2,2.2,90,3,,10.0,29.518702,998.5,,TRUE,TRUE,,,,TRUE,,,FEW,3800,,,,,,,VFR,,,,,,,,,,,,METAR,2.0
PAGL 311556Z AUTO 02003KT 10SM CLR M11/M11 A3008 RMK AO2 SLP183 T11061111 PWINO FZRANO $,PAGL,2022-10-31T15:56:00Z,64.55,-163.0,-10.6,-11.1,20,3,,10.0,30.079725,1018.3,,TRUE,TRUE,TRUE,,,TRUE,TRUE,,CLR,,,,,,,,VFR,,,,,,,,,,,,METAR,20.0
PAGA 311556Z AUTO 10SM OVC060 M11/M13 A3004 RMK AO2 SLP177 T11111128 FZRANO $,PAGA,2022-10-31T15:56:00Z,64.73,-156.93,-11.1,-12.8,,,,10.0,30.041338,1017.7,,TRUE,TRUE,TRUE,,,TRUE,,,OVC,6000,,,,,,,VFR,,,,,,,,,,,,METAR,39.0
PAFM 311556Z AUTO 00000KT 10SM CLR M18/M21 A3007 RMK AO2 SLP194 T11831206 FZRANO,PAFM,2022-10-31T15:56:00Z,67.1,-157.85,-18.3,-20.6,0,0,,10.0,30.070866,1019.4,,TRUE,TRUE,,,,TRUE,,,CLR,,,,,,,,VFR,,,,,,,,,,,,METAR,79.0
PAFE 311556Z AUTO 09006KT 10SM SCT031 01/00 A2955 RMK AO2 SLP018 T00110000 FZRANO,PAFE,2022-10-31T15:56:00Z,56.97,-133.92,1.1,0.0,90,6,,10.0,29.551182,1001.8,,TRUE,TRUE,,,,TRUE,,,SCT,3100,,,,,,,VFR,,,,,,,,,,,,METAR,1.0
PADU 311556Z 16004KT 10SM CLR 03/M02 A3029 RMK AO2 SLP262 T00281017,PADU,2022-10-31T15:56:00Z,53.9,-166.53,2.8,-1.7,160,4,,10.0,30.28937,1026.2,,,TRUE,,,,,,,CLR,,,,,,,,VFR,,,,,,,,,,,,METAR,4.0
PADM 311556Z AUTO 13003KT 10SM BKN037 M07/M09 A3017 RMK AO2 SLP223 T10721094 FZRANO,PADM,2022-10-31T15:56:00Z,61.87,-162.03,-7.2,-9.4,130,3,,10.0,30.171259,1022.3,,TRUE,TRUE,,,,TRUE,,,BKN,3700,,,,,,,VFR,,,,,,,,,,,,METAR,17.0
PADL 311556Z 28010KT 10SM CLR M07/M12 A3012 RMK AO2 SLP205 T10721117,PADL,2022-10-31T15:56:00Z,59.05,-158.5,-7.2,-11.7,280,10,,10.0,30.121063,1020.5,,,TRUE,,,,,,,CLR,,,,,,,,VFR,,,,,,,,,,,,METAR,20.0
PADK 311556Z AUTO 14013KT BKN016 OVC021 06/04 A2995 RMK AO2 SLP141 P0001 T00610044 PWINO $,PADK,2022-10-31T15:56:00Z,51.88,-176.65,6.1,4.4,140,13,,,29.949802,1014.1,,TRUE,TRUE,TRUE,,,,TRUE,,BKN,1600,OVC,2100,,,,,,,,,,,0.01,,,,,,METAR,3.0
PABV 311556Z AUTO 22003KT 10SM OVC065 M04/M12 A2968 RMK AO2 SLP058 T10441122 FZRANO,PABV,2022-10-31T15:56:00Z,61.42,-149.52,-4.4,-12.2,220,3,,10.0,29.681103,1005.8,,TRUE,TRUE,,,,TRUE,,,OVC,6500,,,,,,,VFR,,,,,,,,,,,,METAR,21.0
PABL 311556Z AUTO 17005KT 10SM OVC015 M08/M09 A3005 RMK AO2 SLP177 T10781089 FZRANO $,PABL,2022-10-31T15:56:00Z,65.98,-161.15,-7.8,-8.9,170,5,,10.0,30.050198,1017.7,,TRUE,TRUE,TRUE,,,TRUE,,,OVC,1500,,,,,,,MVFR,,,,,,,,,,,,METAR,7.0
PAAK 311556Z AUTO 12016KT 10SM SCT020 BKN034 OVC045 A3006 RMK AO2 SLPNO FZRANO $,PAAK,2022-10-31T15:56:00Z,52.22,-174.2,,,120,16,,10.0,30.059055,,,TRUE,TRUE,TRUE,,,TRUE,,,SCT,2000,BKN,3400,OVC,4500,,,VFR,,,,,,,,,,,,METAR,11.0
KYKN 311556Z AUTO 18004KT 10SM CLR 09/03 A2990 RMK AO2 SLP144 T00890028,KYKN,2022-10-31T15:56:00Z,42.92,-97.37,8.9,2.8,180,4,,10.0,29.899607,1014.4,,TRUE,TRUE,,,,,,,CLR,,,,,,,,VFR,,,,,,,,,,,,METAR,388.0
KY50 311556Z AUTO 00000KT 10SM CLR 14/07 A2986 RMK AO2 SLP112 T01440067 $,KY50,2022-10-31T15:56:00Z,44.03,-89.3,14.4,6.7,0,0,,10.0,29.861221,1011.2,,TRUE,TRUE,TRUE,,,,,,CLR,,,,,,,,VFR,,,,,,,,,,,,METAR,261.0
KWWD 311556Z AUTO 28004KT 10SM FEW028 19/13 A3009 RMK AO2 SLP193 T01890128 $,KWWD,2022-10-31T15:56:00Z,39.02,-74.92,18.9,12.8,280,4,,10.0,30.088583,1019.3,,TRUE,TRUE,TRUE,,,,,,FEW,2800,,,,,,,VFR,,,,,,,,,,,,METAR,4.0
KWVL 311556Z AUTO 18007KT 10SM CLR 14/04 A2997 RMK AO2 SLP178 T01390044,KWVL,2022-10-31T15:56:00Z,44.52,-69.67,13.9,4.4,180,7,,10.0,29.970472,1017.8,,TRUE,TRUE,,,,,,,CLR,,,,,,,,VFR,,,,,,,,,,,,METAR,87.0
KVIS 311556Z AUTO 08005KT 10SM CLR 13/04 A2999 RMK AO2 SLP164 T01330044,KVIS,2022-10-31T15:56:00Z,36.32,-119.4,13.3,4.4,80,5,,10.0,29.991142,1016.4,,TRUE,TRUE,,,,,,,CLR,,,,,,,,VFR,,,,,,,,,,,,METAR,92.0
KVBT 311556Z AUTO VRB03KT 7SM OVC002 13/11 A3004 RMK AO2 RAE05 SLP172 P0003 T01280111,KVBT,2022-10-31T15:56:00Z,36.35,-94.22,12.8,11.1,0,3,,7.0,30.041338,1017.2,,TRUE,TRUE,,,,,,,OVC,200,,,,,,,LIFR,,,,,,0.03,,,,,,METAR,390.0
KUDG 311556Z AUTO 15006KT 10SM FEW031 SCT055 20/17 A3007 RMK AO2 SLP182 T02000172,KUDG,2022-10-31T15:56:00Z,34.45,-79.88,20.0,17.2,150,6,,10.0,30.070866,1018.2,,TRUE,TRUE,,,,,,,FEW,3100,SCT,5500,,,,,VFR,,,,,,,,,,,,METAR,57.0
KUCP 311556Z AUTO 15007KT 9SM OVC005 13/13 A2995 RMK AO2 SLP158 T01280128,KUCP,2022-10-31T15:56:00Z,41.03,-80.42,12.8,12.8,150,7,,9.0,29.949802,1015.8,,TRUE,TRUE,,,,,,,OVC,500,,,,,,,IFR,,,,,,,,,,,,METAR,313.0
KTVF 311556Z AUTO 21011KT 10SM CLR 08/00 A2973 RMK AO2 SLP078 T00830000,KTVF,2022-10-31T15:56:00Z,48.07,-96.17,8.3,0.0,210,11,,10.0,29.731298,1007.8,,TRUE,TRUE,,,,,,,CLR,,,,,,,,VFR,,,,,,,,,,,,METAR,339.0
KSXT 311556Z AUTO 16003KT 10SM BKN110 09/05 A3002 RMK AO2 SLP149 T00890050 ,KSXT,2022-10-31T15:56:00Z,42.6,-123.37,8.9,5.0,160,3,,10.0,30.02067,1014.9,,TRUE,TRUE,,,,,,,BKN,11000,,,,,,,VFR,,,,,,,,,,,,METAR,1151.0
KSUE 311556Z AUTO 29003KT 10SM CLR 14/06 A2985 RMK AO2 SLP108 T01440061,KSUE,2022-10-31T15:56:00Z,44.85,-87.42,14.4,6.1,290,3,,10.0,29.84941,1010.8,,TRUE,TRUE,,,,,,,CLR,,,,,,,,VFR,,,,,,,,,,,,METAR,215.0
KSRC 311556Z AUTO VRB03KT 10SM SCT021 18/12 A3001 RMK AO2 SLP161 T01780122,KSRC,2022-10-31T15:56:00Z,35.22,-91.73,17.8,12.2,0,3,,10.0,30.008858,1016.1,,TRUE,TRUE,,,,,,,SCT,2100,,,,,,,VFR,,,,,,,,,,,,METAR,80.0
KSQI 311556Z AUTO 33006KT 8SM CLR 12/11 A2986 RMK AO2 SLP978 T01220111,KSQI,2022-10-31T15:56:00Z,41.75,-89.67,12.2,11.1,330,6,,8.0,29.861221,997.8,,TRUE,TRUE,,,,,,,CLR,,,,,,,,VFR,,,,,,,,,,,,METAR,196.0
KSPD 311556Z AUTO 26007KT 16/M02 A3003 RMK AO1 SLP143 T01611022,KSPD,2022-10-31T15:56:00Z,37.28,-102.62,16.1,-2.2,260,7,,,30.029528,1014.3,,TRUE,TRUE,,,,,,,,,,,,,,,,,,,,,,,,,,,METAR,1340.0
KSOP 311556Z AUTO 15005KT 10SM BKN048 BKN055 20/16 A3009 RMK AO2 SLP191 T02000156 TSNO,KSOP,2022-10-31T15:56:00Z,35.23,-79.4,20.0,15.6,150,5,,10.0,30.088583,1019.1,,TRUE,TRUE,,,TRUE,,,,BKN,4800,BKN,5500,,,,,VFR,,,,,,,,,,,,METAR,135.0
KSMP 311556Z AUTO VRB03KT 1/2SM RA FG VV002 04/03 A2980 RMK AO2 SLP095 P0011 T00440033,KSMP,2022-10-31T15:56:00Z,47.28,-121.33,4.4,3.3,0,3,,0.5,29.799213,1009.5,,TRUE,TRUE,,,,,,RA FG,OVX,0,,,,,,,LIFR,,,,,,0.11,,,,,200,METAR,1206.0
KSMN 311556Z AUTO 34003KT 10SM CLR 04/00 A2998 RMK AO2 SLP848 T00390000,KSMN,2022-10-31T15:56:00Z,45.12,-113.87,3.9,0.0,340,3,,10.0,29.97933,984.8,,TRUE,TRUE,,,,,,,CLR,,,,,,,,VFR,,,,,,,,,,,,METAR,1228.0
KSLG 311556Z AUTO 20005KT 2 1/2SM BR OVC002 11/11 A3004 RMK AO2 VIS 2V4 SLP168 T01110111,KSLG,2022-10-31T15:56:00Z,36.2,-94.48,11.1,11.1,200,5,,2.5,30.041338,1016.8,,TRUE,TRUE,,,,,,BR,OVC,200,,,,,,,LIFR,,,,,,,,,,,,METAR,361.0
KSKX 311556Z AUTO 32003KT 10SM CLR 06/M06 A3020 RMK AO2 SLP228 T00561056,KSKX,2022-10-31T15:56:00Z,36.45,-105.67,5.6,-5.6,320,3,,10.0,30.200787,1022.8,,TRUE,TRUE,,,,,,,CLR,,,,,,,,VFR,,,,,,,,,,,,METAR,2163.0
KSGU 311556Z AUTO 19004KT 10SM CLR 10/M03 A3014 RMK AO2 SLP193 T01001033,KSGU,2022-10-31T15:56:00Z,37.03,-113.52,10.0,-3.3,190,4,,10.0,30.138779,1019.3,,TRUE,TRUE,,,,,,,CLR,,,,,,,,VFR,,,,,,,,,,,,METAR,877.0
KSGT 311556Z AUTO 30006KT 10SM CLR 18/14 A3002 RMK AO2 SLP166 T01830139,KSGT,2022-10-31T15:56:00Z,34.6,-91.57,18.3,13.9,300,6,,10.0,30.02067,1016.6,,TRUE,TRUE,,,,,,,CLR,,,,,,,,VFR,,,,,,,,,,,,METAR,67.0
KSGJ 311556Z 13008KT 10SM SCT015 26/23 A3004 RMK AO2 SLP173 T02610233,KSGJ,2022-10-31T15:56:00Z,29.97,-81.33,26.1,23.3,130,8,,10.0,30.041338,1017.3,,,TRUE,,,,,,,SCT,1500,,,,,,,VFR,,,,,,,,,,,,METAR,2.0
KSGH 311556Z AUTO 22010KT 10SM BKN013 OVC021 17/ A2991 RMK AO2 SLP126 T0167,KSGH,2022-10-31T15:56:00Z,39.83,-83.83,16.7,,220,10,,10.0,29.911417,1012.6,,TRUE,TRUE,,,,,,,BKN,1300,OVC,2100,,,,,MVFR,,,,,,,,,,,,METAR,318.0
KSFZ 311556Z AUTO 25009KT 10SM BKN017 BKN025 OVC035 16/12 A3007 RMK AO2 SLP185 T01610117,KSFZ,2022-10-31T15:56:00Z,41.92,-71.5,16.1,11.7,250,9,,10.0,30.070866,1018.5,,TRUE,TRUE,,,,,,,BKN,1700,BKN,2500,OVC,3500,,,MVFR,,,,,,,,,,,,METAR,129.0
KSFM 311556Z AUTO 23006G15KT 10SM CLR 17/07 A3002 RMK AO2 SLP171 T01670067,KSFM,2022-10-31T15:56:00Z,43.38,-70.72,16.7,6.7,230,6,15,10.0,30.02067,1017.1,,TRUE,TRUE,,,,,,,CLR,,,,,,,,VFR,,,,,,,,,,,,METAR,70.0
KSDY 311556Z AUTO 19010KT 10SM CLR 07/01 A2977 RMK AO2 SLP097 T00670011 PNO $,KSDY,2022-10-31T15:56:00Z,47.7,-104.2,6.7,1.1,190,10,,10.0,29.769686,1009.7,,TRUE,TRUE,TRUE,,,,,,CLR,,,,,,,,VFR,,,,,,,,,,,,METAR,600.0
KRUT 311556Z AUTO 01003KT 10SM CLR 14/03 A3001 RMK AO2 SLP160 T01440028 $,KRUT,2022-10-31T15:56:00Z,43.53,-72.95,14.4,2.8,10,3,,10.0,30.008858,1016.0,,TRUE,TRUE,TRUE,,,,,,CLR,,,,,,,,VFR,,,,,,,,,,,,METAR,238.0
KPWT 311556Z AUTO 19013G18KT 10SM OVC005 12/12 A2977 RMK AO2 RAE41 CIG 004V009 SLP086 P0001 T01170117,KPWT,2022-10-31T15:56:00Z,47.5,-122.77,11.7,11.7,190,13,18,10.0,29.769686,1008.6,,TRUE,TRUE,,,,,,,OVC,500,,,,,,,IFR,,,,,,0.01,,,,,,METAR,143.0
KPWG 311556Z AUTO 00000KT CLR 20/12 A3008 RMK AO2 SLP182 T02000122 PWINO $,KPWG,2022-10-31T15:56:00Z,31.48,-97.32,20.0,12.2,0,0,,,30.079725,1018.2,,TRUE,TRUE,TRUE,,,,TRUE,,CLR,,,,,,,,,,,,,,,,,,,,METAR,178.0
KPVU 311556Z 00000KT 10SM SCT200 04/M02 A3021 RMK AO2 SLP231 T00441017,KPVU,2022-10-31T15:56:00Z,40.22,-111.72,4.4,-1.7,0,0,,10.0,30.209646,1023.1,,,TRUE,,,,,,,SCT,20000,,,,,,,VFR,,,,,,,,,,,,METAR,1370.0
KPVG 311556Z AUTO VRB03KT 10SM BKN045 OVC070 19/13 A3012 RMK AO2 SLP202 T01940133 PNO $,KPVG,2022-10-31T15:56:00Z,36.78,-76.45,19.4,13.3,0,3,,10.0,30.121063,1020.2,,TRUE,TRUE,TRUE,,,,,,BKN,4500,OVC,7000,,,,,VFR,,,,,,,,,,,,METAR,7.0
KPVC 311556Z AUTO 20008KT 10SM SCT021 BKN033 OVC041 16/13 A3009 RMK AO2 SLP187 T01610128,KPVC,2022-10-31T15:56:00Z,42.07,-70.22,16.1,12.8,200,8,,10.0,30.088583,1018.7,,TRUE,TRUE,,,,,,,SCT,2100,BKN,3300,OVC,4100,,,VFR,,,,,,,,,,,,METAR,1.0
KPTV 311556Z AUTO 35003KT 10SM CLR 14/04 A3001 RMK AO2 SLP160 T01390039,KPTV,2022-10-31T15:56:00Z,36.02,-119.07,13.9,3.9,350,3,,10.0,30.008858,1016.0,,TRUE,TRUE,,,,,,,CLR,,,,,,,,VFR,,,,,,,,,,,,METAR,132.0
KPTN 311556Z AUTO 35005KT 10SM CLR 22/16 A3008 RMK AO2 SLP187 T02220156 $,KPTN,2022-10-31T15:56:00Z,29.72,-91.33,22.2,15.6,350,5,,10.0,30.079725,1018.7,,TRUE,TRUE,TRUE,,,,,,CLR,,,,,,,,VFR,,,,,,,,,,,,METAR,2.0
KPRX 311556Z AUTO VRB03KT 10SM CLR 17/13 A3007 RMK AO2 SLP179 T01720133,KPRX,2022-10-31T15:56:00Z,33.63,-95.45,17.2,13.3,0,3,,10.0,30.070866,1017.9,,TRUE,TRUE,,,,,,,CLR,,,,,,,,VFR,,,,,,,,,,,,METAR,165.0
KPQI 311556Z AUTO VRB05KT 10SM CLR 15/01 A2998 RMK AO2 SLP181 T01500006,KPQI,2022-10-31T15:56:00Z,46.68,-68.05,15.0,0.6,0,5,,10.0,29.97933,1018.1,,TRUE,TRUE,,,,,,,CLR,,,,,,,,VFR,,,,,,,,,,,,METAR,154.0
KPIB 311556Z AUTO VRB04KT 10SM FEW031 SCT046 21/13 A3008 RMK AO2 SLP183 T02110133,KPIB,2022-10-31T15:56:00Z,31.47,-89.33,21.1,13.3,0,4,,10.0,30.079725,1018.3,,TRUE,TRUE,,,,,,,FEW,3100,SCT,4600,,,,,VFR,,,,,,,,,,,,METAR,91.0
KP60 311556Z AUTO VRB03KT 00/M03 A3013 RMK AO1 SLP210 T00001033 ,KP60,2022-10-31T15:56:00Z,44.55,-110.42,0.0,-3.3,0,3,,,30.129921,1021.0,,TRUE,TRUE,,,,,,,,,,,,,,,,,,,,,,,,,,,METAR,2377.0
KP53 311556Z AUTO 36005KT 11/07 A2981 RMK AO1 SLP097 T01060072,KP53,2022-10-31T15:56:00Z,46.42,-86.65,10.6,7.2,360,5,,,29.811024,1009.7,,TRUE,TRUE,,,,,,,,,,,,,,,,,,,,,,,,,,,METAR,185.0
KOWB 311556Z 22010KT 9SM OVC011 17/16 A2991 RMK AO2 SLP130 T01670156,KOWB,2022-10-31T15:56:00Z,37.72,-87.17,16.7,15.6,220,10,,9.0,29.911417,1013.0,,,TRUE,,,,,,,OVC,1100,,,,,,,MVFR,,,,,,,,,,,,METAR,121.0
KOTH 311556Z 14010KT 10SM OVC018 11/10 A3003 RMK AO2 SLP169 T01110100,KOTH,2022-10-31T15:56:00Z,43.42,-124.25,11.1,10.0,140,10,,10.0,30.029528,1016.9,,,TRUE,,,,,,,OVC,1800,,,,,,,MVFR,,,,,,,,,,,,METAR,3.0
KOTG 311556Z AUTO 21007KT 10SM CLR 13/00 A2991 RMK AO2 SLP137 T01330000,KOTG,2022-10-31T15:56:00Z,43.65,-95.57,13.3,0.0,210,7,,10.0,29.911417,1013.7,,TRUE,TRUE,,,,,,,CLR,,,,,,,,VFR,,,,,,,,,,,,METAR,478.0
KOLU 311556Z AUTO 00000KT 10SM CLR 11/02 A2996 RMK AO2 SLP153 T01060017,KOLU,2022-10-31T15:56:00Z,41.45,-97.33,10.6,1.7,0,0,,10.0,29.958662,1015.3,,TRUE,TRUE,,,,,,,CLR,,,,,,,,VFR,,,,,,,,,,,,METAR,438.0
KOKK 311556Z AUTO 21012KT 10SM SCT015 BKN055 OVC085 17/17 A2985 RMK AO2 SLPNO T01720172 PNO $,KOKK,2022-10-31T15:56:00Z,40.53,-86.07,17.2,17.2,210,12,,10.0,29.84941,,,TRUE,TRUE,TRUE,,,,,,SCT,1500,BKN,5500,OVC,8500,,,VFR,,,,,,,,,,,,METAR,251.0
KOCH 311556Z AUTO 29004KT 10SM CLR 21/14 A3008 RMK AO2 SLP189 T02060139,KOCH,2022-10-31T15:56:00Z,31.57,-94.72,20.6,13.9,290,4,,10.0,30.079725,1018.9,,TRUE,TRUE,,,,,,,CLR,,,,,,,,VFR,,,,,,,,,,,,METAR,105.0
KOAJ 311556Z 12004KT 10SM SCT035 BKN075 23/17 A3010 RMK AO2 SLP194 T02280167,KOAJ,2022-10-31T15:56:00Z,34.82,-77.62,22.8,16.7,120,4,,10.0,30.100393,1019.4,,,TRUE,,,,,,,SCT,3500,BKN,7500,,,,,VFR,,,,,,,,,,,,METAR,26.0
KNYG 311556Z 16009KT 9SM SCT100 18/13 A3007 RMK AO2 SLP184 T01780133 $,KNYG,2022-10-31T15:56:00Z,38.5,-77.3,17.8,13.3,160,9,,9.0,30.070866,1018.4,,,TRUE,TRUE,,,,,,SCT,10000,,,,,,,VFR,,,,,,,,,,,,METAR,2.0
KNXP 311556Z AUTO 09004KT CLR 15/M09 A3009 RMK AO2 SLP166 T01501089 $ ,KNXP,2022-10-31T15:56:00Z,34.28,-116.13,15.0,-8.9,90,4,,,30.088583,1016.6,,TRUE,TRUE,TRUE,,,,,,CLR,,,,,,,,,,,,,,,,,,,,METAR,610.0
KNXF 311556Z AUTO 10SM 17/12 A2993 RMK AO2 SLP220 T01720117 PWINO $ ,KNXF,2022-10-31T15:56:00Z,33.28,-117.45,17.2,11.7,,,,10.0,29.929134,1022.0,,TRUE,TRUE,TRUE,,,,TRUE,,,,,,,,,,,,,,,,,,,,,,METAR,28.0
KNUC 311556Z 24005KT 7SM BKN006 BKN250 17/16 A2996 RMK AO2 SLP141 T01670156 $ ,KNUC,2022-10-31T15:56:00Z,33.02,-118.57,16.7,15.6,240,5,,7.0,29.958662,1014.1,,,TRUE,TRUE,,,,,,BKN,600,BKN,25000,,,,,IFR,,,,,,,,,,,,METAR,52.0
KNTU 311556Z 12005KT 10SM SCT065 BKN080 19/13 A3011 RMK AO2 SLP197 T01890133 ,KNTU,2022-10-31T15:56:00Z,36.82,-76.02,18.9,13.3,120,5,,10.0,30.109253,1019.7,,,TRUE,,,,,,,SCT,6500,BKN,8000,,,,,VFR,,,,,,,,,,,,METAR,6.0
KNQI 311556Z 12010KT 10SM OVC085 25/17 A3002 RMK AO2 SLP162 T02500167 $ ,KNQI,2022-10-31T15:56:00Z,27.5,-97.82,25.0,16.7,120,10,,10.0,30.02067,1016.2,,,TRUE,TRUE,,,,,,OVC,8500,,,,,,,VFR,,,,,,,,,,,,METAR,15.0
KNOG 311556Z AUTO 08009KT 10SM CLR 24/16 A3004 RMK AO2 SLP152 T02390156 PNO $ ,KNOG,2022-10-31T15:56:00Z,27.9,-98.05,23.9,15.6,80,9,,10.0,30.041338,1015.2,,TRUE,TRUE,TRUE,,,,,,CLR,,,,,,,,VFR,,,,,,,,,,,,METAR,72.0
KNMM 311556Z 27008KT 10SM FEW010 OVC055 20/14 A3005 RMK AO2 SLP184 T02000139 ,KNMM,2022-10-31T15:56:00Z,32.53,-88.53,20.0,13.9,270,8,,10.0,30.050198,1018.4,,,TRUE,,,,,,,FEW,1000,OVC,5500,,,,,VFR,,,,,,,,,,,,METAR,94.0
KNLC 311556Z 00000KT 9SM BKN170 BKN200 11/01 A2999 RMK AO2 SLP156 RH/52 T01060011 ,KNLC,2022-10-31T15:56:00Z,36.32,-119.95,10.6,1.1,0,0,,9.0,29.991142,1015.6,,,TRUE,,,,,,,BKN,17000,BKN,20000,,,,,VFR,,,,,,,,,,,,METAR,69.0
KNJK 311556Z 00000KT 10SM FEW250 19/M03 A2994 RMK AO2 SLP153 T01941028 $,KNJK,2022-10-31T15:56:00Z,32.82,-115.67,19.4,-2.8,0,0,,10.0,29.940945,1015.3,,,TRUE,TRUE,,,,,,FEW,25000,,,,,,,VFR,,,,,,,,,,,,METAR,-15.0
KNID 311556Z 00000KT 10SM BKN250 11/M10 A3003 RMK AO2 SLP168 T01061100 $,KNID,2022-10-31T15:56:00Z,35.68,-117.68,10.6,-10.0,0,0,,10.0,30.029528,1016.8,,,TRUE,TRUE,,,,,,BKN,25000,,,,,,,VFR,,,,,,,,,,,,METAR,682.0
KNGP 311556Z 11012KT 10SM FEW025 FEW080 BKN250 BKN300 27/17 A3003 RMK AO2 SLP167 T02720167 ,KNGP,2022-10-31T15:56:00Z,27.68,-97.28,27.2,16.7,110,12,,10.0,30.029528,1016.7,,,TRUE,,,,,,,FEW,2500,FEW,8000,BKN,25000,BKN,30000,VFR,,,,,,,,,,,,METAR,5.0
KNFL 311556Z 00000KT 10SM SCT150 BKN220 05/M07 A3009 RMK AO2 SLP157 T00501072 $ ,KNFL,2022-10-31T15:56:00Z,39.42,-118.7,5.0,-7.2,0,0,,10.0,30.088583,1015.7,,,TRUE,TRUE,,,,,,SCT,15000,BKN,22000,,,,,VFR,,,,,,,,,,,,METAR,1199.0
KNFE 311556Z AUTO 16005KT 10SM BKN055 BKN070 OVC085 21/14 A3011 RMK AO2 SLP198 T02060139,KNFE,2022-10-31T15:56:00Z,36.7,-76.13,20.6,13.9,160,5,,10.0,30.109253,1019.8,,TRUE,TRUE,,,,,,,BKN,5500,BKN,7000,OVC,8500,,,VFR,,,,,,,,,,,,METAR,4.0
KNBC 311556Z 17004KT 10SM SCT010 BKN060 25/22 A3004 RMK AO2 SLP173 T02500217,KNBC,2022-10-31T15:56:00Z,32.47,-80.72,25.0,21.7,170,4,,10.0,30.041338,1017.3,,,TRUE,,,,,,,SCT,1000,BKN,6000,,,,,VFR,,,,,,,,,,,,METAR,9.0
KMYR 311556Z 09007KT 10SM SCT007 22/20 A3008 RMK AO2 SLP185 T02220200,KMYR,2022-10-31T15:56:00Z,33.68,-78.92,22.2,20.0,90,7,,10.0,30.079725,1018.5,,,TRUE,,,,,,,SCT,700,,,,,,,VFR,,,,,,,,,,,,METAR,7.0
KMVN 311556Z AUTO 25007KT 10SM FEW011 BKN025 OVC030 15/13 A2990 RMK AO2 SLP128 T01500128,KMVN,2022-10-31T15:56:00Z,38.32,-88.87,15.0,12.8,250,7,,10.0,29.899607,1012.8,,TRUE,TRUE,,,,,,,FEW,1100,BKN,2500,OVC,3000,,,MVFR,,,,,,,,,,,,METAR,145.0
KMUO 311556Z AUTO 08011KT 10SM CLR 07/M01 A3003 RMK AO2 SLP178 T00671007 $,KMUO,2022-10-31T15:56:00Z,43.03,-115.87,6.7,-0.7,80,11,,10.0,30.029528,1017.8,,TRUE,TRUE,TRUE,,,,,,CLR,,,,,,,,VFR,,,,,,,,,,,,METAR,915.0
KMTW 311556Z AUTO 00000KT 10SM CLR 15/06 A2985 RMK AO2 SLP110 T01500056,KMTW,2022-10-31T15:56:00Z,44.12,-87.67,15.0,5.6,0,0,,10.0,29.84941,1011.0,,TRUE,TRUE,,,,,,,CLR,,,,,,,,VFR,,,,,,,,,,,,METAR,197.0
KMTC 311556Z 15006KT 7/8SM R19/P6000FT -DZ BR OVC003 14/14 A2982 RMK AO2A SLP104 P0001 T01410136,KMTC,2022-10-31T15:56:00Z,42.62,-82.83,14.1,13.6,150,6,,0.88,29.819881,1010.4,,,TRUE,,,,,,-DZ BR,OVC,300,,,,,,,LIFR,,,,,,0.01,,,,,,METAR,177.0
KMSV 311556Z AUTO VRB04KT 10SM CLR 14/08 A3005 RMK AO2 SLP180 T01390078,KMSV,2022-10-31T15:56:00Z,41.7,-74.78,13.9,7.8,0,4,,10.0,30.050198,1018.0,,TRUE,TRUE,,,,,,,CLR,,,,,,,,VFR,,,,,,,,,,,,METAR,427.0
KMRF 311556Z AUTO 11005KT 10SM FEW110 16/04 A3011 RMK AO2 SLP156 T01560044,KMRF,2022-10-31T15:56:00Z,30.37,-104.02,15.6,4.4,110,5,,10.0,30.109253,1015.6,,TRUE,TRUE,,,,,,,FEW,11000,,,,,,,VFR,,,,,,,,,,,,METAR,1476.0
KMQY 311556Z VRB05KT 10SM BKN015 BKN022 OVC065 17/14 A2999 RMK AO2 SLP162 T01720144,KMQY,2022-10-31T15:56:00Z,36.02,-86.52,17.2,14.4,0,5,,10.0,29.991142,1016.2,,,TRUE,,,,,,,BKN,1500,BKN,2200,OVC,6500,,,MVFR,,,,,,,,,,,,METAR,156.0
KMNM 311556Z AUTO 31006KT 10SM CLR 13/06 A2985 RMK AO2 SLP111 T01280061 PNO $,KMNM,2022-10-31T15:56:00Z,45.12,-87.63,12.8,6.1,310,6,,10.0,29.84941,1011.1,,TRUE,TRUE,TRUE,,,,,,CLR,,,,,,,,VFR,,,,,,,,,,,,METAR,188.0
KMML 311556Z AUTO 22008KT 10SM CLR 14/02 A2987 RMK AO2 SLP123 T01390017,KMML,2022-10-31T15:56:00Z,44.45,-95.82,13.9,1.7,220,8,,10.0,29.870079,1012.3,,TRUE,TRUE,,,,,,,CLR,,,,,,,,VFR,,,,,,,,,,,,METAR,358.0
KMKY 311556Z AUTO 14008KT 110V190 10SM FEW030 30/21 A2998 RMK AO2 SLP153 T03000211 TSNO $,KMKY,2022-10-31T15:56:00Z,26.0,-81.67,30.0,21.1,140,8,,10.0,29.97933,1015.3,,TRUE,TRUE,TRUE,,TRUE,,,,FEW,3000,,,,,,,VFR,,,,,,,,,,,,METAR,2.0
KMKT 311556Z AUTO 22003KT 10SM CLR 09/01 A2990 RMK AO2 SLP133 T00940006,KMKT,2022-10-31T15:56:00Z,44.22,-93.92,9.4,0.6,220,3,,10.0,29.899607,1013.3,,TRUE,TRUE,,,,,,,CLR,,,,,,,,VFR,,,,,,,,,,,,METAR,309.0
KMHS 311556Z AUTO 00000KT 10SM CLR 03/M01 A3004 RMK AO2 SLP196 T00331006 ,KMHS,2022-10-31T15:56:00Z,41.32,-122.32,3.3,-0.6,0,0,,10.0,30.041338,1019.6,,TRUE,TRUE,,,,,,,CLR,,,,,,,,VFR,,,,,,,,,,,,METAR,1080.0
KMBL 311556Z AUTO 00000KT 10SM CLR 15/07 A2984 RMK AO2 SLP108 T01500072,KMBL,2022-10-31T15:56:00Z,44.27,-86.25,15.0,7.2,0,0,,10.0,29.840551,1010.8,,TRUE,TRUE,,,,,,,CLR,,,,,,,,VFR,,,,,,,,,,,,METAR,187.0
KM19 311556Z AUTO 30012KT 10SM SCT018 17/13 A2999 RMK AO2 SLP153 T01720128,KM19,2022-10-31T15:56:00Z,35.65,-91.17,17.2,12.8,300,12,,10.0,29.991142,1015.3,,TRUE,TRUE,,,,,,,SCT,1800,,,,,,,VFR,,,,,,,,,,,,METAR,72.0
KLZU 311556Z 06005KT 1 1/2SM BR OVC002 15/15 A3004 RMK AO2 SLP179 T01500150,KLZU,2022-10-31T15:56:00Z,33.98,-83.97,15.0,15.0,60,5,,1.5,30.041338,1017.9,,,TRUE,,,,,,BR,OVC,200,,,,,,,LIFR,,,,,,,,,,,,METAR,316.0
KLRD 311556Z 11007KT 10SM OVC048 22/16 A3001 RMK AO2 SLP162 T02170156,KLRD,2022-10-31T15:56:00Z,27.55,-99.47,21.7,15.6,110,7,,10.0,30.008858,1016.2,,,TRUE,,,,,,,OVC,4800,,,,,,,VFR,,,,,,,,,,,,METAR,150.0
KLPC 311556Z AUTO 07004KT 10SM BKN003 08/08 A2997 RMK AO2 SLP149 T00830083,KLPC,2022-10-31T15:56:00Z,34.67,-120.47,8.3,8.3,70,4,,10.0,29.970472,1014.9,,TRUE,TRUE,,,,,,,BKN,300,,,,,,,LIFR,,,,,,,,,,,,METAR,26.0
KLGD 311556Z AUTO 17013KT 10SM FEW095 11/00 A2994 RMK AO2 PK WND 19026/1510 RAB04E27 SLP136 P0000 T01110000,KLGD,2022-10-31T15:56:00Z,45.28,-118.0,11.1,0.0,170,13,,10.0,29.940945,1013.6,,TRUE,TRUE,,,,,,,FEW,9500,,,,,,,VFR,,,,,,0.005,,,,,,METAR,827.0
KLEW 311556Z AUTO 14005KT 10SM CLR 15/03 A3000 RMK AO2 SLP165 T01500033,KLEW,2022-10-31T15:56:00Z,44.03,-70.28,15.0,3.3,140,5,,10.0,30.0,1016.5,,TRUE,TRUE,,,,,,,CLR,,,,,,,,VFR,,,,,,,,,,,,METAR,81.0
KLCI 311556Z AUTO 21011KT 10SM CLR 15/01 A3001 RMK AO2 SLP166 T01500011,KLCI,2022-10-31T15:56:00Z,43.57,-71.42,15.0,1.1,210,11,,10.0,30.008858,1016.6,,TRUE,TRUE,,,,,,,CLR,,,,,,,,VFR,,,,,,,,,,,,METAR,166.0
KLBT 311556Z AUTO 14006KT 10SM BKN070 23/18 A3007 RMK AO2 SLP180 T02330178 TSNO $,KLBT,2022-10-31T15:56:00Z,34.6,-79.07,23.3,17.8,140,6,,10.0,30.070866,1018.0,,TRUE,TRUE,TRUE,,TRUE,,,,BKN,7000,,,,,,,VFR,,,,,,,,,,,,METAR,37.0
KLBL 311556Z AUTO 21008KT 10SM CLR 17/01 A3005 RMK AO2 SLP168 T01720006,KLBL,2022-10-31T15:56:00Z,37.03,-100.97,17.2,0.6,210,8,,10.0,30.050198,1016.8,,TRUE,TRUE,,,,,,,CLR,,,,,,,,VFR,,,,,,,,,,,,METAR,877.0
KKLS 311556Z AUTO 15007KT 10SM -RA SCT009 BKN030 OVC042 A2991 RMK AO2 SLPNO P0007 FZRANO,KKLS,2022-10-31T15:56:00Z,46.12,-122.9,,,150,7,,10.0,29.911417,,,TRUE,TRUE,,,,TRUE,,-RA,SCT,900,BKN,3000,OVC,4200,,,MVFR,,,,,,0.07,,,,,,METAR,4.0
KJKA 311556Z 00000KT 10SM CLR 22/14 A3005,KJKA,2022-10-31T15:56:00Z,30.28,-87.67,22.0,14.0,0,0,,10.0,30.050198,,,,,,,,,,,CLR,,,,,,,,VFR,,,,,,,,,,,,METAR,5.0
KJHW 311556Z AUTO 18008KT 10SM SCT011 BKN021 OVC029 12/10 A2995 RMK AO2 RAB08E34 SLP149 P0000 T01220100,KJHW,2022-10-31T15:56:00Z,42.15,-79.27,12.2,10.0,180,8,,10.0,29.949802,1014.9,,TRUE,TRUE,,,,,,,SCT,1100,BKN,2100,OVC,2900,,,MVFR,,,,,,0.005,,,,,,METAR,520.0
KJAC 311556Z 00000KT 10SM CLR 01/M04 A3014 RMK AO2 SLP227 T00111039,KJAC,2022-10-31T15:56:00Z,43.62,-110.73,1.1,-3.9,0,0,,10.0,30.138779,1022.7,,,TRUE,,,,,,,CLR,,,,,,,,VFR,,,,,,,,,,,,METAR,1967.0
KIWD 311556Z AUTO 22005KT 10SM CLR 12/04 A2984 RMK AO2 SLP112 T01170039,KIWD,2022-10-31T15:56:00Z,46.52,-90.12,11.7,3.9,220,5,,10.0,29.840551,1011.2,,TRUE,TRUE,,,,,,,CLR,,,,,,,,VFR,,,,,,,,,,,,METAR,373.0
KITH 311556Z 15008KT 10SM FEW070 14/07 A2999 RMK AO2 SLP157 T01390072,KITH,2022-10-31T15:56:00Z,42.48,-76.45,13.9,7.2,150,8,,10.0,29.991142,1015.7,,,TRUE,,,,,,,FEW,7000,,,,,,,VFR,,,,,,,,,,,,METAR,338.0
KISO 311556Z 13003KT 10SM OVC050 22/15 A3011,KISO,2022-10-31T15:56:00Z,35.32,-77.62,22.0,15.0,130,3,,10.0,30.109253,,,,,,,,,,,OVC,5000,,,,,,,VFR,,,,,,,,,,,,METAR,27.0
KISM 311556Z VRB04KT 10SM SCT022 28/22 A3003 RMK AO2 SLP169 T02780217 PNO $,KISM,2022-10-31T15:56:00Z,28.28,-81.43,27.8,21.7,0,4,,10.0,30.029528,1016.9,,,TRUE,TRUE,,,,,,SCT,2200,,,,,,,VFR,,,,,,,,,,,,METAR,25.0
KILE 311556Z AUTO 25006KT 10SM 21/12 A3008 RMK AO2 SLP178 T02110117 $,KILE,2022-10-31T15:56:00Z,31.08,-97.68,21.1,11.7,250,6,,10.0,30.079725,1017.8,,TRUE,TRUE,TRUE,,,,,,,,,,,,,,,,,,,,,,,,,,METAR,256.0
KHYS 311556Z AUTO 24005KT 10SM CLR 14/M03 RMK AO2 SLPNO T01441028 $,KHYS,2022-10-31T15:56:00Z,38.85,-99.27,14.4,-2.8,240,5,,10.0,,,,TRUE,TRUE,TRUE,,,,,,CLR,,,,,,,,VFR,,,,,,,,,,,,METAR,607.0
KHYI 311556Z 22004KT 10SM CLR 16/13 A3009 RMK AO2 SLPNO T01600130 $,KHYI,2022-10-31T15:56:00Z,29.88,-97.87,16.0,13.0,220,4,,10.0,30.088583,,,,TRUE,TRUE,,,,,,CLR,,,,,,,,VFR,,,,,,,,,,,,METAR,180.0
KHND 311556Z 00000KT 10SM CLR 15/M04 A3009 RMK AO2 SLP197 T01501039,KHND,2022-10-31T15:56:00Z,35.98,-115.13,15.0,-3.9,0,0,,10.0,30.088583,1019.7,,,TRUE,,,,,,,CLR,,,,,,,,VFR,,,,,,,,,,,,METAR,740.0
KHNB 311556Z AUTO 20008KT 6SM -RA BR OVC006 16/15 A2991 RMK AO2 CIG 004V009 SLP127 P0001 T01560150,KHNB,2022-10-31T15:56:00Z,38.25,-86.95,15.6,15.0,200,8,,6.0,29.911417,1012.7,,TRUE,TRUE,,,,,,-RA BR,OVC,600,,,,,,,IFR,,,,,,0.01,,,,,,METAR,159.0
KHEZ 311556Z AUTO 18003KT 10SM CLR 21/13 A3008 RMK AO2 SLP185 T02110128,KHEZ,2022-10-31T15:56:00Z,31.62,-91.3,21.1,12.8,180,3,,10.0,30.079725,1018.5,,TRUE,TRUE,,,,,,,CLR,,,,,,,,VFR,,,,,,,,,,,,METAR,82.0
KHEF 311556Z 20008KT 10SM SCT110 17/13 A3006 RMK AO2 SLP185 T01720128,KHEF,2022-10-31T15:56:00Z,38.72,-77.52,17.2,12.8,200,8,,10.0,30.059055,1018.5,,,TRUE,,,,,,,SCT,11000,,,,,,,VFR,,,,,,,,,,,,METAR,53.0
KHDN 311556Z AUTO 11006KT 10SM CLR 02/M04 A3021 RMK AO2 SLP237 T00171044 FZRANO,KHDN,2022-10-31T15:56:00Z,40.48,-107.22,1.7,-4.4,110,6,,10.0,30.209646,1023.7,,TRUE,TRUE,,,,TRUE,,,CLR,,,,,,,,VFR,,,,,,,,,,,,METAR,2012.0
KGXY 311556Z 00000KT 10SM CLR 07/M04 A3004 RMK AO2 SLP189 T00671044 $,KGXY,2022-10-31T15:56:00Z,40.43,-104.62,6.7,-4.4,0,0,,10.0,30.041338,1018.9,,,TRUE,TRUE,,,,,,CLR,,,,,,,,VFR,,,,,,,,,,,,METAR,1420.0
KGVQ 311556Z AUTO 00000KT 8SM -RA BKN016 OVC034 13/10 A2994 RMK AO2 RAB18 SLP141 P0000 T01280100,KGVQ,2022-10-31T15:56:00Z,43.03,-78.17,12.8,10.0,0,0,,8.0,29.940945,1014.1,,TRUE,TRUE,,,,,,-RA,BKN,1600,OVC,3400,,,,,MVFR,,,,,,0.005,,,,,,METAR,279.0
KGUC 311556Z AUTO 00000KT 10SM CLR M02/M06 A3026 RMK AO2 SLP266 T10221061 FZRANO,KGUC,2022-10-31T15:56:00Z,38.52,-106.93,-2.2,-6.1,0,0,,10.0,30.259842,1026.6,,TRUE,TRUE,,,,TRUE,,,CLR,,,,,,,,VFR,,,,,,,,,,,,METAR,2337.0
KGTU 311556Z 00000KT 10SM CLR 18/12 A3009 RMK AO2 SLP190 T01830122,KGTU,2022-10-31T15:56:00Z,30.68,-97.68,18.3,12.2,0,0,,10.0,30.088583,1019.0,,,TRUE,,,,,,,CLR,,,,,,,,VFR,,,,,,,,,,,,METAR,232.0
KGTR 311556Z 24004KT 10SM OVC014 18/16 A3004 RMK AO2 SLP179 T01830156,KGTR,2022-10-31T15:56:00Z,33.45,-88.58,18.3,15.6,240,4,,10.0,30.041338,1017.9,,,TRUE,,,,,,,OVC,1400,,,,,,,MVFR,,,,,,,,,,,,METAR,80.0
KGPZ 311556Z AUTO 21006KT 10SM CLR 11/01 A2980 RMK AO2 SLP103 T01110006,KGPZ,2022-10-31T15:56:00Z,47.22,-93.52,11.1,0.6,210,6,,10.0,29.799213,1010.3,,TRUE,TRUE,,,,,,,CLR,,,,,,,,VFR,,,,,,,,,,,,METAR,410.0
KGNR 311556Z AUTO 07005KT 16/M06 A2996 RMK AO1 SLP151 T01561056 ,KGNR,2022-10-31T15:56:00Z,45.47,-69.55,15.6,-5.6,70,5,,,29.958662,1015.1,,TRUE,TRUE,,,,,,,,,,,,,,,,,,,,,,,,,,,METAR,426.0
KGNA 311556Z AUTO 22003KT 08/05 A2980 RMK AO1 SLP097 T00780050 ,KGNA,2022-10-31T15:56:00Z,47.75,-90.35,7.8,5.0,220,3,,,29.799213,1009.7,,TRUE,TRUE,,,,,,,,,,,,,,,,,,,,,,,,,,,METAR,186.0
KGDV 311556Z AUTO 17006KT 10SM CLR 05/00 A2979 RMK AO2 SLP099 T00500000,KGDV,2022-10-31T15:56:00Z,47.13,-104.8,5.0,0.0,170,6,,10.0,29.790354,1009.9,,TRUE,TRUE,,,,,,,CLR,,,,,,,,VFR,,,,,,,,,,,,METAR,749.0
KGBD 311556Z AUTO 26004KT 10SM CLR 14/M01 A3003 RMK AO2 SLP170 T01391011,KGBD,2022-10-31T15:56:00Z,38.35,-98.87,13.9,-1.1,260,4,,10.0,30.029528,1017.0,,TRUE,TRUE,,,,,,,CLR,,,,,,,,VFR,,,,,,,,,,,,METAR,573.0
KGAI 311556Z AUTO 14/12 RMK AO2 RAE10B26E46 SLPNO P0000 T01440122 PWINO $,KGAI,2022-10-31T15:56:00Z,39.17,-77.17,14.4,12.2,,,,,,,,TRUE,TRUE,TRUE,,,,TRUE,,,,,,,,,,,,,,,,0.005,,,,,,METAR,151.0
KGAD 311556Z AUTO 22005KT 10SM FEW010 OVC055 17/16 A3004 RMK AO2 SLP174 P0001 T01720156 $,KGAD,2022-10-31T15:56:00Z,33.97,-86.08,17.2,15.6,220,5,,10.0,30.041338,1017.4,,TRUE,TRUE,TRUE,,,,,,FEW,1000,OVC,5500,,,,,VFR,,,,,,0.01,,,,,,METAR,169.0
KFRM 311556Z AUTO 27003KT 10SM CLR 12/02 A2991 RMK AO2 SLP140 T01170022,KFRM,2022-10-31T15:56:00Z,43.63,-94.42,11.7,2.2,270,3,,10.0,29.911417,1014.0,,TRUE,TRUE,,,,,,,CLR,,,,,,,,VFR,,,,,,,,,,,,METAR,353.0
KFOD 311556Z AUTO 28003KT 10SM CLR 12/03 A2993 RMK AO2 SLP153 T01170033,KFOD,2022-10-31T15:56:00Z,42.53,-94.17,11.7,3.3,280,3,,10.0,29.929134,1015.3,,TRUE,TRUE,,,,,,,CLR,,,,,,,,VFR,,,,,,,,,,,,METAR,347.0
KFNL 311556Z 19005KT 10SM CLR 09/M06 A3002 RMK AO2 SLP153 T00891061,KFNL,2022-10-31T15:56:00Z,40.45,-105.02,8.9,-6.1,190,5,,10.0,30.02067,1015.3,,,TRUE,,,,,,,CLR,,,,,,,,VFR,,,,,,,,,,,,METAR,1529.0
KFLP 311556Z AUTO VRB04KT 10SM FEW019 17/12 A2999 RMK AO2 SLP152 T01720122,KFLP,2022-10-31T15:56:00Z,36.28,-92.58,17.2,12.2,0,4,,10.0,29.991142,1015.2,,TRUE,TRUE,,,,,,,FEW,1900,,,,,,,VFR,,,,,,,,,,,,METAR,215.0
KFKL 311556Z AUTO 17007KT 10SM -RA OVC003 11/11 A2995 RMK AO2 SLP148 P0000 T01110111,KFKL,2022-10-31T15:56:00Z,41.37,-79.87,11.1,11.1,170,7,,10.0,29.949802,1014.8,,TRUE,TRUE,,,,,,-RA,OVC,300,,,,,,,LIFR,,,,,,0.005,,,,,,METAR,468.0
KFCI 311556Z AUTO 20006KT 10SM -RA OVC037 18/13 A3010 RMK AO2 RAB49 SLP201 P0000 T01780133,KFCI,2022-10-31T15:56:00Z,37.4,-77.52,17.8,13.3,200,6,,10.0,30.100393,1020.1,,TRUE,TRUE,,,,,,-RA,OVC,3700,,,,,,,VFR,,,,,,0.005,,,,,,METAR,63.0
KFAM 311556Z AUTO 26005KT 10SM OVC017 14/11 A2993 RMK AO2 SLP143 T01390106,KFAM,2022-10-31T15:56:00Z,37.77,-90.42,13.9,10.6,260,5,,10.0,29.929134,1014.3,,TRUE,TRUE,,,,,,,OVC,1700,,,,,,,MVFR,,,,,,,,,,,,METAR,276.0
KEWK 311556Z AUTO 27004KT 10SM CLR 15/03 A3003 RMK AO2 SLP163 T01500028,KEWK,2022-10-31T15:56:00Z,38.05,-97.27,15.0,2.8,270,4,,10.0,30.029528,1016.3,,TRUE,TRUE,,,,,,,CLR,,,,,,,,VFR,,,,,,,,,,,,METAR,468.0
KESC 311556Z AUTO 00000KT 10SM CLR 13/07 A2983 RMK AO2 SLP108 T01330067 PNO $,KESC,2022-10-31T15:56:00Z,45.72,-87.08,13.3,6.7,0,0,,10.0,29.828741,1010.8,,TRUE,TRUE,TRUE,,,,,,CLR,,,,,,,,VFR,,,,,,,,,,,,METAR,180.0
KENV 311556Z AUTO 11004KT 10SM CLR 05/M05 A3016 RMK AO2 SLP221 T00501050,KENV,2022-10-31T15:56:00Z,40.72,-114.02,5.0,-5.0,110,4,,10.0,30.159449,1022.1,,TRUE,TRUE,,,,,,,CLR,,,,,,,,VFR,,,,,,,,,,,,METAR,1291.0
KEKY 311556Z AUTO 18003KT 10SM OVC050 17/16 A3005 RMK AO2 SLP025 T01720156,KEKY,2022-10-31T15:56:00Z,33.32,-86.93,17.2,15.6,180,3,,10.0,30.050198,1002.5,,TRUE,TRUE,,,,,,,OVC,5000,,,,,,,VFR,,,,,,,,,,,,METAR,213.0
KEKQ 311556Z AUTO 21009KT 10SM BKN018 BKN025 OVC055 17/15 A3000 RMK AO2 SLP151 T01720150,KEKQ,2022-10-31T15:56:00Z,36.85,-84.85,17.2,15.0,210,9,,10.0,30.0,1015.1,,TRUE,TRUE,,,,,,,BKN,1800,BKN,2500,OVC,5500,,,MVFR,,,,,,,,,,,,METAR,291.0
KEHR 311556Z AUTO 21008KT 9SM OVC009 16/15 A2991 RMK AO2 RAB13E42 CIG 007V012 SLP129 P0000 T01610150,KEHR,2022-10-31T15:56:00Z,37.82,-87.67,16.1,15.0,210,8,,9.0,29.911417,1012.9,,TRUE,TRUE,,,,,,,OVC,900,,,,,,,IFR,,,,,,0.005,,,,,,METAR,117.0
KEGE 311556Z 00000KT 10SM CLR M02/M04 A3027 RMK AO2 SLP152 T10171044,KEGE,2022-10-31T15:56:00Z,39.63,-106.92,-1.7,-4.4,0,0,,10.0,30.268702,1015.2,,,TRUE,,,,,,,CLR,,,,,,,,VFR,,,,,,,,,,,,METAR,1993.0
KEEN 311556Z AUTO 17005KT 10SM CLR 14/05 A3003 RMK AO2 SLP177 T01390050 $,KEEN,2022-10-31T15:56:00Z,42.88,-72.27,13.9,5.0,170,5,,10.0,30.029528,1017.7,,TRUE,TRUE,TRUE,,,,,,CLR,,,,,,,,VFR,,,,,,,,,,,,METAR,143.0
KEAR 311556Z AUTO 21008KT 10SM CLR 11/00 A2996 RMK AO2 SLP148 T01110000,KEAR,2022-10-31T15:56:00Z,40.72,-99.0,11.1,0.0,210,8,,10.0,29.958662,1014.8,,TRUE,TRUE,,,,,,,CLR,,,,,,,,VFR,,,,,,,,,,,,METAR,649.0
KDYR 311556Z AUTO 24008KT 10SM BKN015 OVC041 17/16 A2997 RMK AO2 SLP153 T01720161,KDYR,2022-10-31T15:56:00Z,36.0,-89.4,17.2,16.1,240,8,,10.0,29.970472,1015.3,,TRUE,TRUE,,,,,,,BKN,1500,OVC,4100,,,,,MVFR,,,,,,,,,,,,METAR,98.0
KDWU 311556Z AUTO 19006KT 10SM BKN013 OVC020 18/18 A2996 RMK AO2 SLP145 T01830178,KDWU,2022-10-31T15:56:00Z,38.55,-82.73,18.3,17.8,190,6,,10.0,29.958662,1014.5,,TRUE,TRUE,,,,,,,BKN,1300,OVC,2000,,,,,MVFR,,,,,,,,,,,,METAR,165.0
KDVL 311556Z AUTO 25011KT 10SM CLR 09/01 A2972 RMK AO2 SLP085 T00940011,KDVL,2022-10-31T15:56:00Z,48.12,-98.92,9.4,1.1,250,11,,10.0,29.719488,1008.5,,TRUE,TRUE,,,,,,,CLR,,,,,,,,VFR,,,,,,,,,,,,METAR,439.0
KDIJ 311556Z AUTO 16009KT 10SM CLR 06/M03 A3015 RMK AO2 SLP222 T00611028,KDIJ,2022-10-31T15:56:00Z,43.75,-111.1,6.1,-2.8,160,9,,10.0,30.15059,1022.2,,TRUE,TRUE,,,,,,,CLR,,,,,,,,VFR,,,,,,,,,,,,METAR,1896.0
KCWI 311556Z AUTO 30004KT 6SM BR CLR 08/08 A2988 RMK AO2 SLP124 T00830083,KCWI,2022-10-31T15:56:00Z,41.82,-90.32,8.3,8.3,300,4,,6.0,29.878937,1012.4,,TRUE,TRUE,,,,,,BR,CLR,,,,,,,,VFR,,,,,,,,,,,,METAR,212.0
KCVO 311556Z AUTO 19007KT 10SM OVC020 12/09 A2998 RMK AO2 SLP152 T01220094,KCVO,2022-10-31T15:56:00Z,44.5,-123.28,12.2,9.4,190,7,,10.0,29.97933,1015.2,,TRUE,TRUE,,,,,,,OVC,2000,,,,,,,MVFR,,,,,,,,,,,,METAR,75.0
KCVN 311556Z AUTO 23009KT 10SM CLR 14/06 A3011 RMK AO2 SLP185 T01440061,KCVN,2022-10-31T15:56:00Z,34.42,-103.07,14.4,6.1,230,9,,10.0,30.109253,1018.5,,TRUE,TRUE,,,,,,,CLR,,,,,,,,VFR,,,,,,,,,,,,METAR,1278.0
KCOE 311556Z AUTO 21011KT 10SM OVC024 10/07 A2980 RMK AO2 RAB14E37 SLP108 T01000067 PNO $,KCOE,2022-10-31T15:56:00Z,47.77,-116.82,10.0,6.7,210,11,,10.0,29.799213,1010.8,,TRUE,TRUE,TRUE,,,,,,OVC,2400,,,,,,,MVFR,,,,,,,,,,,,METAR,693.0
KCOD 311556Z AUTO 24012G31KT 10SM CLR 12/M03 A2993 RMK AO2 PK WND 22031/1547 SLP116 T01171028,KCOD,2022-10-31T15:56:00Z,44.52,-109.02,11.7,-2.8,240,12,31,10.0,29.929134,1011.6,,TRUE,TRUE,,,,,,,CLR,,,,,,,,VFR,,,,,,,,,,,,METAR,1550.0
KCIU 311556Z AUTO 14006KT 10SM FEW120 11/07 A2985 RMK AO2 SLP111 T01110072,KCIU,2022-10-31T15:56:00Z,46.25,-84.47,11.1,7.2,140,6,,10.0,29.84941,1011.1,,TRUE,TRUE,,,,,,,FEW,12000,,,,,,,VFR,,,,,,,,,,,,METAR,242.0
KCGZ 311556Z AUTO 17005KT 10SM CLR 14/01 A3000 RMK AO2 SLP155 T01440006 $,KCGZ,2022-10-31T15:56:00Z,32.95,-111.77,14.4,0.6,170,5,,10.0,30.0,1015.5,,TRUE,TRUE,TRUE,,,,,,CLR,,,,,,,,VFR,,,,,,,,,,,,METAR,444.0
KBVX 311556Z AUTO VRB04KT 10SM FEW018 17/12 A2999 RMK AO2 SLP156 T01720122,KBVX,2022-10-31T15:56:00Z,35.73,-91.65,17.2,12.2,0,4,,10.0,29.991142,1015.6,,TRUE,TRUE,,,,,,,FEW,1800,,,,,,,VFR,,,,,,,,,,,,METAR,137.0
KBTP 311556Z AUTO 16004KT 8SM OVC003 12/12 A2997 RMK AO2 RAE26 SLP156 P0000 T01220122 TSNO,KBTP,2022-10-31T15:56:00Z,40.77,-79.95,12.2,12.2,160,4,,8.0,29.970472,1015.6,,TRUE,TRUE,,,TRUE,,,,OVC,300,,,,,,,LIFR,,,,,,0.005,,,,,,METAR,375.0
KBOK 311556Z AUTO 16003KT 10SM CLR 07/07 A3004 RMK AO2 SLP174 T00720072 $,KBOK,2022-10-31T15:56:00Z,42.07,-124.28,7.2,7.2,160,3,,10.0,30.041338,1017.4,,TRUE,TRUE,TRUE,,,,,,CLR,,,,,,,,VFR,,,,,,,,,,,,METAR,140.0
KBMI 311556Z 00000KT 1SM R20/P6000FT RA BR BKN004 BKN024 OVC033 13/13 A2985 RMK AO2 SLP104 P0014 T01280128,KBMI,2022-10-31T15:56:00Z,40.47,-88.92,12.8,12.8,0,0,,1.0,29.84941,1010.4,,,TRUE,,,,,,RA BR,BKN,400,BKN,2400,OVC,3300,,,LIFR,,,,,,0.14,,,,,,METAR,262.0
KBLM 311556Z AUTO 24006KT 10SM CLR 18/12 A3009 RMK AO2 SLP189 T01780117,KBLM,2022-10-31T15:56:00Z,40.17,-74.12,17.8,11.7,240,6,,10.0,30.088583,1018.9,,TRUE,TRUE,,,,,,,CLR,,,,,,,,VFR,,,,,,,,,,,,METAR,45.0
KBID 311556Z AUTO 20004KT 7SM OVC011 14/13 A3009 RMK AO2 SLP190 T01440128,KBID,2022-10-31T15:56:00Z,41.17,-71.58,14.4,12.8,200,4,,7.0,30.088583,1019.0,,TRUE,TRUE,,,,,,,OVC,1100,,,,,,,MVFR,,,,,,,,,,,,METAR,32.0
KBHB 311556Z AUTO 19014KT 10SM CLR 15/10 A3002 RMK AO2 SLP168 T01500100 PNO $,KBHB,2022-10-31T15:56:00Z,44.45,-68.37,15.0,10.0,190,14,,10.0,30.02067,1016.8,,TRUE,TRUE,TRUE,,,,,,CLR,,,,,,,,VFR,,,,,,,,,,,,METAR,21.0
KAWO 311556Z AUTO 15016KT 10SM OVC015 12/11 A2976 RMK AO2 RAE31 SLP083 P0001 T01220106,KAWO,2022-10-31T15:56:00Z,48.17,-122.17,12.2,10.6,150,16,,10.0,29.760826,1008.3,,TRUE,TRUE,,,,,,,OVC,1500,,,,,,,MVFR,,,,,,0.01,,,,,,METAR,38.0
KAUO 311556Z AUTO VRB04KT 10SM CLR 20/13 A3006 RMK AO2 SLP195 T02000133,KAUO,2022-10-31T15:56:00Z,32.62,-85.43,20.0,13.3,0,4,,10.0,30.059055,1019.5,,TRUE,TRUE,,,,,,,CLR,,,,,,,,VFR,,,,,,,,,,,,METAR,231.0
KASH 311556Z 23007G14KT 180V280 10SM CLR 17/10 A3004 RMK AO2 SLP177 T01720100 $,KASH,2022-10-31T15:56:00Z,42.78,-71.52,17.2,10.0,230,7,14,10.0,30.041338,1017.7,,,TRUE,TRUE,,,,,,CLR,,,,,,,,VFR,,,,,,,,,,,,METAR,56.0
KARG 311556Z AUTO 29009KT 10SM FEW018 BKN048 18/12 A2997 RMK AO2 SLP148 T01780117,KARG,2022-10-31T15:56:00Z,36.12,-90.92,17.8,11.7,290,9,,10.0,29.970472,1014.8,,TRUE,TRUE,,,,,,,FEW,1800,BKN,4800,,,,,VFR,,,,,,,,,,,,METAR,82.0
KAJO 311556Z AUTO 00000KT 10SM CLR 12/08 A2996 RMK AO2 SLP141 T01220083,KAJO,2022-10-31T15:56:00Z,33.9,-117.6,12.2,8.3,0,0,,10.0,29.958662,1014.1,,TRUE,TRUE,,,,,,,CLR,,,,,,,,VFR,,,,,,,,,,,,METAR,161.0
KAIZ 311556Z AUTO 29008KT 270V330 10SM CLR 16/11 RMK AO2 SLPNO T01560106 $,KAIZ,2022-10-31T15:56:00Z,38.1,-92.53,15.6,10.6,290,8,,10.0,,,,TRUE,TRUE,TRUE,,,,,,CLR,,,,,,,,VFR,,,,,,,,,,,,METAR,263.0
KAFJ 311556Z AUTO 19007KT 10SM OVC007 16/14 A2998 RMK AO2 SLP153 T01560144,KAFJ,2022-10-31T15:56:00Z,40.13,-80.28,15.6,14.4,190,7,,10.0,29.97933,1015.3,,TRUE,TRUE,,,,,,,OVC,700,,,,,,,IFR,,,,,,,,,,,,METAR,360.0
KADC 311556Z AUTO 22008KT 10SM CLR 14/M01 A2979 RMK AO2 TSNO,KADC,2022-10-31T15:56:00Z,46.45,-95.22,14.0,-1.0,220,8,,10.0,29.790354,,,TRUE,TRUE,,,TRUE,,,,CLR,,,,,,,,VFR,,,,,,,,,,,,METAR,416.0
K8D3 311556Z AUTO 23012KT 17/M01 A2979 RMK AO1 SLP089 T01671006,K8D3,2022-10-31T15:56:00Z,45.67,-96.98,16.7,-0.6,230,12,,,29.790354,1008.9,,TRUE,TRUE,,,,,,,,,,,,,,,,,,,,,,,,,,,METAR,535.0
K7N0 311556Z AUTO 00000KT 10SM FEW029 SCT048 23/14 A3008 RMK AO2 SLP185 T02280139 PNO $,K7N0,2022-10-31T15:56:00Z,29.95,-90.07,22.8,13.9,0,0,,10.0,30.079725,1018.5,,TRUE,TRUE,TRUE,,,,,,FEW,2900,SCT,4800,,,,,VFR,,,,,,,,,,,,METAR,0.0
K2WX 311556Z AUTO 24006KT 12/M03 A2980 RMK AO1 SLP099 T01171033 ,K2WX,2022-10-31T15:56:00Z,45.6,-103.55,11.7,-3.3,240,6,,,29.799213,1009.9,,TRUE,TRUE,,,,,,,,,,,,,,,,,,,,,,,,,,,METAR,925.0
K1M4 311556Z AUTO 23008KT 10SM BKN007 OVC013 16/14 A3005 RMK AO2 CIG 006V010 SLP167 T01560144,K1M4,2022-10-31T15:56:00Z,34.28,-87.6,15.6,14.4,230,8,,10.0,30.050198,1016.7,,TRUE,TRUE,,,,,,,BKN,700,OVC,1300,,,,,IFR,,,,,,,,,,,,METAR,283.0
CYTZ 311556Z AUTO 06012KT 3SM -RA BR SCT015 OVC028 10/09 A2991 RMK SLP133,CYTZ,2022-10-31T15:56:00Z,43.63,-79.4,10.0,9.0,60,12,,3.0,29.911417,1013.3,,TRUE,,,,,,,-RA BR,SCT,1500,OVC,2800,,,,,MVFR,,,,,,,,,,,,SPECI,76.0
CYKJ 311556Z AUTO 31011G18KT 4SM -SN BKN010 BKN015 OVC027 M01/M01 A2937 RMK SLP975,CYKJ,2022-10-31T15:56:00Z,57.25,-105.62,-1.0,-1.0,310,11,18,4.0,29.371063,997.5,,TRUE,,,,,,,-SN,BKN,1000,BKN,1500,OVC,2700,,,MVFR,,,,,,,,,,,,SPECI,519.0
TXKF 311555Z 33014KT 9999 VCSH FEW019 SCT045 24/22 Q1012 ,TXKF,2022-10-31T15:55:00Z,32.37,-64.68,24.0,22.0,330,14,,6.21,29.88189,,,,,,,,,,VCSH,FEW,1900,SCT,4500,,,,,VFR,,,,,,,,,,,,METAR,4.0
RODN 311555Z 03012KT 8SM -RA BKN050 23/21 A2983 RMK AO2A SLP107 P0004 T02280209 $,RODN,2022-10-31T15:55:00Z,26.35,127.77,22.8,20.9,30,12,,8.0,29.828741,1010.7,,,TRUE,TRUE,,,,,-RA,BKN,5000,,,,,,,VFR,,,,,,0.04,,,,,,METAR,38.0
RKSO 311555Z 00000KT 2SM BR CLR 09/09 A3024 RMK AO2A SLP244 T00900090 TSNO CHINO RWY09 $,RKSO,2022-10-31T15:55:00Z,37.08,127.02,9.0,9.0,0,0,,2.0,30.239174,1024.4,,,TRUE,TRUE,,TRUE,,,BR,CLR,,,,,,,,IFR,,,,,,,,,,,,METAR,10.0
RKJK 311555Z 35005KT 4SM BR CLR 10/10 A3020 RMK AO2A SLP231 T01020100,RKJK,2022-10-31T15:55:00Z,35.9,126.62,10.2,10.0,350,5,,4.0,30.200787,1023.1,,,TRUE,,,,,,BR,CLR,,,,,,,,MVFR,,,,,,,,,,,,METAR,8.0
PWAK 311555Z AUTO 05005KT 9999 FEW020 SCT028 BKN036 BKN045 26/24 A2985 RMK AO2 RAB39E51 SLP114 P0000 T02610237 $,PWAK,2022-10-31T15:55:00Z,19.28,166.62,26.1,23.7,50,5,,6.21,29.84941,1011.4,,TRUE,TRUE,TRUE,,,,,,FEW,2000,SCT,2800,BKN,3600,BKN,4500,VFR,,,,,,0.005,,,,,,METAR,7.0
PHHI 311555Z AUTO 32004KT 10SM FEW022 21/16 A3003 RMK AO2 SLP160 T02060160 $,PHHI,2022-10-31T15:55:00Z,21.48,-158.05,20.6,16.0,320,4,,10.0,30.029528,1016.0,,TRUE,TRUE,TRUE,,,,,,FEW,2200,,,,,,,VFR,,,,,,,,,,,,METAR,246.0
PGUA 311555Z AUTO 12008KT 10SM M 26/24 A2984 RMK AO2 SLP095 T02640236 $,PGUA,2022-10-31T15:55:00Z,13.57,144.92,26.4,23.6,120,8,,10.0,29.840551,1009.5,,TRUE,TRUE,TRUE,,,,,,,,,,,,,,,,,,,,,,,,,,METAR,159.0
PAUT 311555Z AUTO 00000KT 10SM OVC050 02/00 A3029 RMK AO2,PAUT,2022-10-31T15:55:00Z,54.13,-165.6,2.0,0.0,0,0,,10.0,30.28937,,,TRUE,TRUE,,,,,,,OVC,5000,,,,,,,VFR,,,,,,,,,,,,METAR,25.0
PALU 311555Z AUTO 29020KT 10SM FEW026 SCT060 M01/M06 A2990 RMK AO2 PK WND 29030/1531 SHSNB1414E1547 SLP123 T10111064,PALU,2022-10-31T15:55:00Z,68.88,-166.1,-1.1,-6.4,290,20,,10.0,29.899607,1012.3,,TRUE,TRUE,,,,,,,FEW,2600,SCT,6000,,,,,VFR,,,,,,,,,,,,METAR,8.0
PAKX 311555Z AUTO 30004KT 10SM SCT034 SCT041 OVC060 M05/M10 A2992 RMK AO2,PAKX,2022-10-31T15:55:00Z,60.2,-154.32,-5.0,-10.0,300,4,,10.0,29.920275,,,TRUE,TRUE,,,,,,,SCT,3400,SCT,4100,OVC,6000,,,VFR,,,,,,,,,,,,METAR,88.0
PAIM 311555Z AUTO 00000KT 10SM OVC070 M12/M13 A2992 RMK AO2 SLP168 T11161127,PAIM,2022-10-31T15:55:00Z,66.0,-153.7,-11.6,-12.7,0,0,,10.0,29.920275,1016.8,,TRUE,TRUE,,,,,,,OVC,7000,,,,,,,VFR,,,,,,,,,,,,METAR,309.0
PAFR 311555Z AUTO 00000KT 10SM OVC035 M06/M11 A2962 RMK AO2 SLP041 T10611107 VISNO RWY35 CHINO RWY35 $,PAFR,2022-10-31T15:55:00Z,61.27,-149.65,-6.1,-10.7,0,0,,10.0,29.619095,1004.1,,TRUE,TRUE,TRUE,,,,,,OVC,3500,,,,,,,VFR,,,,,,,,,,,,METAR,106.0
PAFB 311555Z 00000KT 9SM -SN BKN055 OVC070 M20/M23 A2993 RMK AO2A SNB50 SLP157 P0000 T12021227,PAFB,2022-10-31T15:55:00Z,64.83,-147.62,-20.2,-22.7,0,0,,9.0,29.929134,1015.7,,,TRUE,,,,,,-SN,BKN,5500,OVC,7000,,,,,VFR,,,,,,0.005,,,,,,METAR,137.0
PAEI 311555Z AUTO M 10SM OVC049 M17/M20 A2990 RMK AO2 SLP145 T11731197 TSNO $,PAEI,2022-10-31T15:55:00Z,64.67,-147.1,-17.3,-19.7,,,,10.0,29.899607,1014.5,,TRUE,TRUE,TRUE,,TRUE,,,,OVC,4900,,,,,,,VFR,,,,,,,,,,,,METAR,166.0
PAEH 311555Z 35007KT 310V020 10SM -SHSN OVC029 M01/M05 A3021 RMK AO2A SLP239,PAEH,2022-10-31T15:55:00Z,58.65,-162.07,-1.0,-5.0,350,7,,10.0,30.209646,1023.9,,,TRUE,,,,,,-SHSN,OVC,2900,,,,,,,MVFR,,,,,,,,,,,,METAR,101.0
PACZ 311555Z 00000KT 10SM BKN041 M03/M09 A3013 RMK AO2A SLP212,PACZ,2022-10-31T15:55:00Z,61.78,-166.03,-3.0,-9.0,0,0,,10.0,30.129921,1021.2,,,TRUE,,,,,,,BKN,4100,,,,,,,VFR,,,,,,,,,,,,METAR,129.0
PAAD 311555Z AUTO 11008KT 10SM OVC021 M14/M17 A3005 RMK AO2 T11381170,PAAD,2022-10-31T15:55:00Z,70.13,-146.28,-13.8,-17.0,110,8,,10.0,30.050198,,,TRUE,TRUE,,,,,,,OVC,2100,,,,,,,MVFR,,,,,,,,,,,,METAR,8.0
OPLA 311555Z 12006KT 4000 FU NSC 24/18 Q1013 NOSIG RMK QFE988 A29.93,OPLA,2022-10-31T15:55:00Z,31.52,74.4,24.0,18.0,120,6,,2.49,29.911417,,,,,,TRUE,,,,FU,CLR,,,,,,,,IFR,,,,,,,,,,,,METAR,217.0
OKAS 311555Z 12010KT 9999 FEW200 29/13 A2988 RMK AO2A SLP112 $,OKAS,2022-10-31T15:55:00Z,29.35,47.52,29.0,13.0,120,10,,6.21,29.878937,1011.2,,,TRUE,TRUE,,,,,,FEW,20000,,,,,,,VFR,,,,,,,,,,,,METAR,144.0
OEPS 311555Z 14006KT 9999 CLR 28/03 A3011 RMK A02A SLP169 WND DATA ESTMD T02840031 $,OEPS,2022-10-31T15:55:00Z,24.07,47.58,28.4,3.1,140,6,,6.21,30.109253,1016.9,,,TRUE,TRUE,,,,,,CLR,,,,,,,,VFR,,,,,,,,,,,,METAR,503.0
NZFX 311555Z 00000KT 1200 FEW015 M24/M27 A2896 RMK SLP802 LSR10 SDG/HDP,NZFX,2022-10-31T15:55:00Z,-77.95,166.77,-24.0,-27.0,0,0,,0.75,28.96063,980.2,,,,,,,,,,FEW,1500,,,,,,,LIFR,,,,,,,,,,,,METAR,10.0
NZCM 311555Z AUTO 05003KT 9999 CLR M13/M16 A2895 RMK AO2 SLP808 T11311157,NZCM,2022-10-31T15:55:00Z,-77.85,166.67,-13.1,-15.7,50,3,,6.21,28.948818,980.8,,TRUE,TRUE,,,,,,,CLR,,,,,,,,VFR,,,,,,,,,,,,METAR,24.0
KY70 311555Z AUTO 00000KT 1/4SM FG OVC002 12/12 A2984 RMK AO2 T01150115,KY70,2022-10-31T15:55:00Z,42.93,-85.07,11.5,11.5,0,0,,0.25,29.840551,,,TRUE,TRUE,,,,,,FG,OVC,200,,,,,,,LIFR,,,,,,,,,,,,METAR,247.0
KY63 311555Z AUTO 19010KT 10SM CLR 10/01 A2983 RMK AO2 T01020013,KY63,2022-10-31T15:55:00Z,45.98,-96.0,10.2,1.3,190,10,,10.0,29.828741,,,TRUE,TRUE,,,,,,,CLR,,,,,,,,VFR,,,,,,,,,,,,METAR,367.0
KY51 311555Z AUTO 00000KT 10SM CLR 12/08 A2987 RMK AO1 T01170081,KY51,2022-10-31T15:55:00Z,43.58,-90.9,11.7,8.1,0,0,,10.0,29.870079,,,TRUE,TRUE,,,,,,,CLR,,,,,,,,VFR,,,,,,,,,,,,METAR,390.0
KY49 311555Z AUTO 24009G15KT 10SM CLR 10/M01 A2978 RMK AO2 T01031006,KY49,2022-10-31T15:55:00Z,47.15,-94.65,10.3,-0.6,240,9,15,10.0,29.778543,,,TRUE,TRUE,,,,,,,CLR,,,,,,,,VFR,,,,,,,,,,,,METAR,413.0
KY31 311555Z AUTO 00000KT 10SM OVC024 14/07 A2985 RMK AO2 T01370072,KY31,2022-10-31T15:55:00Z,44.25,-84.18,13.7,7.2,0,0,,10.0,29.84941,,,TRUE,TRUE,,,,,,,OVC,2400,,,,,,,MVFR,,,,,,,,,,,,METAR,264.0
KY23 311555Z AUTO 00000KT 10SM CLR 08/08 A2987 RMK AO2 T00770077,KY23,2022-10-31T15:55:00Z,45.3,-91.63,7.7,7.7,0,0,,10.0,29.870079,,,TRUE,TRUE,,,,,,,CLR,,,,,,,,VFR,,,,,,,,,,,,METAR,322.0
KY19 311555Z AUTO 25010KT 10SM CLR 08/01 A2979 RMK AO2,KY19,2022-10-31T15:55:00Z,46.77,-100.9,8.0,1.0,250,10,,10.0,29.790354,,,TRUE,TRUE,,,,,,,CLR,,,,,,,,VFR,,,,,,,,,,,,METAR,591.0
KXSA 311555Z AUTO 15006KT 10SM BKN033 19/14 A3010 RMK AO2 T01870139,KXSA,2022-10-31T15:55:00Z,37.87,-76.9,18.7,13.9,150,6,,10.0,30.100393,,,TRUE,TRUE,,,,,,,BKN,3300,,,,,,,VFR,,,,,,,,,,,,METAR,41.0
KXNX 311555Z AUTO VRB06KT 10SM BKN013 BKN028 OVC065 17/16 A2999 RMK A01,KXNX,2022-10-31T15:55:00Z,36.38,-86.42,17.0,16.0,0,6,,10.0,29.991142,,,TRUE,TRUE,,,,,,,BKN,1300,BKN,2800,OVC,6500,,,MVFR,,,,,,,,,,,,METAR,178.0
KXNO 311555Z AUTO 12005KT 10SM OVC006 20/20 A3005 RMK AO2 CIG 004V006 SLP177 T02030203 $,KXNO,2022-10-31T15:55:00Z,33.62,-81.07,20.3,20.3,120,5,,10.0,30.050198,1017.7,,TRUE,TRUE,TRUE,,,,,,OVC,600,,,,,,,IFR,,,,,,,,,,,,METAR,94.0
KXMR 311555Z AUTO 08006KT 10SM M 27/23 A3000 RMK AO2 SLP162 T02730233 $,KXMR,2022-10-31T15:55:00Z,28.47,-80.57,27.3,23.3,80,6,,10.0,30.0,1016.2,,TRUE,TRUE,TRUE,,,,,,,,,,,,,,,,,,,,,,,,,,METAR,5.0
KXLL 311555Z AUTO 24003KT 10SM SCT110 15/11 A3008 RMK AO2,KXLL,2022-10-31T15:55:00Z,40.57,-75.48,15.0,11.0,240,3,,10.0,30.079725,,,TRUE,TRUE,,,,,,,SCT,11000,,,,,,,VFR,,,,,,,,,,,,METAR,118.0
KXIF 311555Z AUTO 00000KT 8SM FEW037 12/10 A3003 RMK AO2 RAE02RAB06E27 SLP175 P0001 T01160102 $,KXIF,2022-10-31T15:55:00Z,,,11.6,10.2,0,0,,8.0,30.029528,1017.5,,TRUE,TRUE,TRUE,,,,,,FEW,3700,,,,,,,VFR,,,,,,0.01,,,,,,METAR,
KX60 311555Z AUTO 21007KT 10SM SCT022 27/21 A3004 RMK AO2,KX60,2022-10-31T15:55:00Z,29.35,-82.47,27.0,21.0,210,7,,10.0,30.041338,,,TRUE,TRUE,,,,,,,SCT,2200,,,,,,,VFR,,,,,,,,,,,,SPECI,21.0
KX07 311555Z AUTO 00000KT 10SM SCT027 SCT033 SCT038 28/22 A3002 RMK A01,KX07,2022-10-31T15:55:00Z,27.9,-81.62,28.0,22.0,0,0,,10.0,30.02067,,,TRUE,TRUE,,,,,,,SCT,2700,SCT,3300,SCT,3800,,,VFR,,,,,,,,,,,,METAR,36.0
KWRB 311555Z AUTO 19007KT 10SM BKN011 BKN017 22/22 A3002 RMK AO2 SLP166 T02160216,KWRB,2022-10-31T15:55:00Z,32.63,-83.58,21.6,21.6,190,7,,10.0,30.02067,1016.6,,TRUE,TRUE,,,,,,,BKN,1100,BKN,1700,,,,,MVFR,,,,,,,,,,,,METAR,82.0
KW96 311555Z AUTO 19003KT 10SM SCT038 SCT049 BKN065 18/13 A3010 RMK AO1 T01810125,KW96,2022-10-31T15:55:00Z,37.5,-77.12,18.1,12.5,190,3,,10.0,30.100393,,,TRUE,TRUE,,,,,,,SCT,3800,SCT,4900,BKN,6500,,,VFR,,,,,,,,,,,,METAR,35.0
KW81 311555Z AUTO 15003KT 10SM SCT014 BKN036 OVC042 16/11 A3009 RMK AO1 T01640112,KW81,2022-10-31T15:55:00Z,37.18,-78.1,16.4,11.2,150,3,,10.0,30.088583,,,TRUE,TRUE,,,,,,,SCT,1400,BKN,3600,OVC,4200,,,VFR,,,,,,,,,,,,SPECI,121.0
KW78 311555Z AUTO 17003KT 10SM SCT021 SCT031 SCT037 20/13 A3009 RMK AO1 T01960126,KW78,2022-10-31T15:55:00Z,36.7,-78.85,19.6,12.6,170,3,,10.0,30.088583,,,TRUE,TRUE,,,,,,,SCT,2100,SCT,3100,SCT,3700,,,VFR,,,,,,,,,,,,METAR,120.0
KW75 311555Z AUTO 21006KT 10SM SCT060 OVC080 18/13 A3011 RMK AO1 T01770130,KW75,2022-10-31T15:55:00Z,37.6,-76.45,17.7,13.0,210,6,,10.0,30.109253,,,TRUE,TRUE,,,,,,,SCT,6000,OVC,8000,,,,,VFR,,,,,,,,,,,,SPECI,8.0
KW63 311555Z AUTO 14003KT 10SM SCT032 SCT049 18/14 A3008 RMK AO1,KW63,2022-10-31T15:55:00Z,36.6,-78.55,18.0,14.0,140,3,,10.0,30.079725,,,TRUE,TRUE,,,,,,,SCT,3200,SCT,4900,,,,,VFR,,,,,,,,,,,,SPECI,126.0
KW31 311555Z AUTO 18003KT 10SM BKN031 OVC040 18/13 A3009 RMK AO1 T01820134,KW31,2022-10-31T15:55:00Z,36.95,-78.18,18.2,13.4,180,3,,10.0,30.088583,,,TRUE,TRUE,,,,,,,BKN,3100,OVC,4000,,,,,VFR,,,,,,,,,,,,METAR,159.0
KW13 311555Z AUTO 10SM OVC026 15/12 A3007 RMK AO1 T01500120,KW13,2022-10-31T15:55:00Z,38.08,-78.95,15.0,12.0,,,,10.0,30.070866,,,TRUE,TRUE,,,,,,,OVC,2600,,,,,,,MVFR,,,,,,,,,,,,SPECI,440.0
KVWU 311555Z AUTO 22005KT 10SM CLR 11/01 A2972 RMK AO2,KVWU,2022-10-31T15:55:00Z,48.15,-94.52,11.0,1.0,220,5,,10.0,29.719488,,,TRUE,TRUE,,,,,,,CLR,,,,,,,,VFR,,,,,,,,,,,,METAR,359.0
KVVV 311555Z 16004KT 10SM 09/02 A2983 RMK AO2,KVVV,2022-10-31T15:55:00Z,45.3,-96.42,9.0,2.0,160,4,,10.0,29.828741,,,,TRUE,,,,,,,,,,,,,,,,,,,,,,,,,,,METAR,334.0
KVTP 311555Z AUTO 26011G17KT 10SM CLR M01/M08 A3020 RMK AO2,KVTP,2022-10-31T15:55:00Z,37.5,-105.17,-1.0,-8.0,260,11,17,10.0,30.200787,,,TRUE,TRUE,,,,,,,CLR,,,,,,,,VFR,,,,,,,,,,,,METAR,3086.0
KVTI 311555Z AUTO 30006KT 10SM CLR 13/07 A2990 RMK AO2 T01320070,KVTI,2022-10-31T15:55:00Z,42.22,-92.02,13.2,7.0,300,6,,10.0,29.899607,,,TRUE,TRUE,,,,,,,CLR,,,,,,,,VFR,,,,,,,,,,,,METAR,256.0
KVPS 311555Z AUTO 30003KT 10SM CLR 23/14 A3002 RMK AO2 SLP172 T02250138 $,KVPS,2022-10-31T15:55:00Z,30.47,-86.52,22.5,13.8,300,3,,10.0,30.02067,1017.2,,TRUE,TRUE,TRUE,,,,,,CLR,,,,,,,,VFR,,,,,,,,,,,,METAR,21.0
KVOK 311555Z 27003KT 10SM FEW250 13/06 A2985 RMK AO2A SLP117,KVOK,2022-10-31T15:55:00Z,43.93,-90.27,13.0,6.0,270,3,,10.0,29.84941,1011.7,,,TRUE,,,,,,,FEW,25000,,,,,,,VFR,,,,,,,,,,,,METAR,278.0
KVNW 311555Z AUTO 22011KT 5SM BR SCT010 SCT014 OVC070 17/15 A2986 RMK AO2,KVNW,2022-10-31T15:55:00Z,40.87,-84.62,17.0,15.0,220,11,,5.0,29.861221,,,TRUE,TRUE,,,,,,BR,SCT,1000,SCT,1400,OVC,7000,,,MVFR,,,,,,,,,,,,METAR,238.0
KVLL 311555Z AUTO 00000KT 4SM RA OVC003 09/09 A2986 RMK AO2 T00930090,KVLL,2022-10-31T15:55:00Z,42.55,-83.18,9.3,9.0,0,0,,4.0,29.861221,,,TRUE,TRUE,,,,,,RA,OVC,300,,,,,,,LIFR,,,,,,,,,,,,METAR,214.0
KVJI 311555Z AUTO 00000KT 4SM BR BKN004 OVC029 16/14 A3004 RMK AO2 P0003 T01550142,KVJI,2022-10-31T15:55:00Z,36.68,-82.03,15.5,14.2,0,0,,4.0,30.041338,,,TRUE,TRUE,,,,,,BR,BKN,400,OVC,2900,,,,,LIFR,,,,,,0.03,,,,,,METAR,636.0
KVGC 311555Z AUTO 15009KT 10SM CLR 12/06 A3000 RMK AO2,KVGC,2022-10-31T15:55:00Z,42.85,-75.57,12.0,6.0,150,9,,10.0,30.0,,,TRUE,TRUE,,,,,,,CLR,,,,,,,,VFR,,,,,,,,,,,,METAR,346.0
KVER 311555Z AUTO 28005KT 10SM CLR 15/12 A2994 RMK AO2 T01520122,KVER,2022-10-31T15:55:00Z,38.95,-92.68,15.2,12.2,280,5,,10.0,29.940945,,,TRUE,TRUE,,,,,,,CLR,,,,,,,,VFR,,,,,,,,,,,,METAR,209.0
KVDF 311555Z AUTO 17004KT 10SM SCT030 30/22 A3002 RMK AO2,KVDF,2022-10-31T15:55:00Z,28.02,-82.33,30.0,22.0,170,4,,10.0,30.02067,,,TRUE,TRUE,,,,,,,SCT,3000,,,,,,,VFR,,,,,,,,,,,,METAR,5.0
KVCV 311555Z AUTO 15006KT 10SM CLR 12/M08 A3008 RMK AO2,KVCV,2022-10-31T15:55:00Z,34.58,-117.38,12.0,-8.0,150,6,,10.0,30.079725,,,TRUE,TRUE,,,,,,,CLR,,,,,,,,VFR,,,,,,,,,,,,METAR,871.0
KVBG 311555Z 15003KT 10SM SCT003 BKN200 08/08 A2997 RMK AO2A SLP153 T00790079,KVBG,2022-10-31T15:55:00Z,34.73,-120.58,7.9,7.9,150,3,,10.0,29.970472,1015.3,,,TRUE,,,,,,,SCT,300,BKN,20000,,,,,VFR,,,,,,,,,,,,METAR,96.0
KVAD 311555Z AUTO 18006KT 10SM SCT016 25/20 A3002 RMK AO2 SLP166 T02540197 $,KVAD,2022-10-31T15:55:00Z,30.97,-83.2,25.4,19.7,180,6,,10.0,30.02067,1016.6,,TRUE,TRUE,TRUE,,,,,,SCT,1600,,,,,,,VFR,,,,,,,,,,,,METAR,70.0
KUXL 311555Z AUTO 00000KT 10SM CLR 22/16 A3008 RMK AO2 T02230155,KUXL,2022-10-31T15:55:00Z,30.13,-93.38,22.3,15.5,0,0,,10.0,30.079725,,,TRUE,TRUE,,,,,,,CLR,,,,,,,,VFR,,,,,,,,,,,,METAR,2.0
KUVA 311555Z AUTO 00000KT 10SM SCT022 19/14 A3008 RMK AO2 T01910137,KUVA,2022-10-31T15:55:00Z,29.22,-99.75,19.1,13.7,0,0,,10.0,30.079725,,,TRUE,TRUE,,,,,,,SCT,2200,,,,,,,VFR,,,,,,,,,,,,METAR,285.0
KUTA 311555Z AUTO 24007KT 10SM OVC012 17/15 A3001 RMK AO2 CIG 011V017 T01730152 $,KUTA,2022-10-31T15:55:00Z,34.68,-90.35,17.3,15.2,240,7,,10.0,30.008858,,,TRUE,TRUE,TRUE,,,,,,OVC,1200,,,,,,,MVFR,,,,,,,,,,,,METAR,58.0
KUSE 311555Z AUTO 23004KT 7SM OVC005 16/16 A2984 RMK AO2,KUSE,2022-10-31T15:55:00Z,41.62,-84.13,16.0,16.0,230,4,,7.0,29.840551,,,TRUE,TRUE,,,,,,,OVC,500,,,,,,,IFR,,,,,,,,,,,,METAR,237.0
KUOX 311555Z AUTO 23007KT 210V280 10SM FEW020 SCT030 BKN038 18/13 A3002 RMK AO2,KUOX,2022-10-31T15:55:00Z,34.38,-89.53,18.0,13.0,230,7,,10.0,30.02067,,,TRUE,TRUE,,,,,,,FEW,2000,SCT,3000,BKN,3800,,,VFR,,,,,,,,,,,,METAR,123.0
KUNU 311555Z AUTO 00000KT 10SM CLR 13/06 A2986 RMK AO2 T01270057,KUNU,2022-10-31T15:55:00Z,43.42,-88.7,12.7,5.7,0,0,,10.0,29.861221,,,TRUE,TRUE,,,,,,,CLR,,,,,,,,VFR,,,,,,,,,,,,METAR,281.0
KULM 311555Z AUTO 00000KT 10SM CLR 10/M01 A2988 RMK AO2,KULM,2022-10-31T15:55:00Z,44.32,-94.5,10.0,-1.0,0,0,,10.0,29.878937,,,TRUE,TRUE,,,,,,,CLR,,,,,,,,VFR,,,,,,,,,,,,METAR,305.0
KUKT 311555Z AUTO VRB05KT 10SM CLR 15/12 A3007 RMK A01,KUKT,2022-10-31T15:55:00Z,40.43,-75.38,15.0,12.0,0,5,,10.0,30.070866,,,TRUE,TRUE,,,,,,,CLR,,,,,,,,VFR,,,,,,,,,,,,METAR,156.0
KUGN 311555Z 01004KT 3SM BR OVC004 12/11 A2984 RMK AO2 SLP103 T01220106,KUGN,2022-10-31T15:55:00Z,42.42,-87.87,12.2,10.6,10,4,,3.0,29.840551,1010.3,,,TRUE,,,,,,BR,OVC,400,,,,,,,LIFR,,,,,,,,,,,,METAR,217.0
KUCY 311555Z AUTO 24010KT 10SM FEW020 OVC035 18/14 A2993 RMK A01,KUCY,2022-10-31T15:55:00Z,36.38,-88.98,18.0,14.0,240,10,,10.0,29.929134,,,TRUE,TRUE,,,,,,,FEW,2000,OVC,3500,,,,,VFR,,,,,,,,,,,,METAR,97.0
KU68 311555Z AUTO 10003KT 10SM CLR 07/M05 A2994 RMK AO2,KU68,2022-10-31T15:55:00Z,44.92,-108.45,7.0,-5.0,100,3,,10.0,29.940945,,,TRUE,TRUE,,,,,,,CLR,,,,,,,,VFR,,,,,,,,,,,,METAR,1244.0
KU55 311555Z AUTO 00000KT 10SM M01/M06 A3025 RMK A01,KU55,2022-10-31T15:55:00Z,37.85,-112.38,-1.0,-6.0,0,0,,10.0,30.250984,,,TRUE,TRUE,,,,,,,,,,,,,,,,,,,,,,,,,,,METAR,2060.0
KU42 311555Z AUTO 16008KT 10SM CLR 07/01 A3017 RMK AO1 T00730010,KU42,2022-10-31T15:55:00Z,40.62,-111.98,7.3,1.0,160,8,,10.0,30.171259,,,TRUE,TRUE,,,,,,,CLR,,,,,,,,VFR,,,,,,,,,,,,METAR,1399.0
KTWT 311555Z AUTO 21006KT 10SM BKN016 OVC023 17/14 A2991 RMK AO2,KTWT,2022-10-31T15:55:00Z,37.55,-87.95,17.0,14.0,210,6,,10.0,29.911417,,,TRUE,TRUE,,,,,,,BKN,1600,OVC,2300,,,,,MVFR,,,,,,,,,,,,METAR,113.0
KTWM 311555Z AUTO 21005KT 10SM CLR 13/01 A2979 RMK AO2,KTWM,2022-10-31T15:55:00Z,47.05,-91.75,13.0,1.0,210,5,,10.0,29.790354,,,TRUE,TRUE,,,,,,,CLR,,,,,,,,VFR,,,,,,,,,,,,METAR,331.0
KTVY 311555Z AUTO 19011G15KT 10SM CLR 08/00 A3017 RMK AO2,KTVY,2022-10-31T15:55:00Z,40.62,-112.35,8.0,0.0,190,11,15,10.0,30.171259,,,TRUE,TRUE,,,,,,,CLR,,,,,,,,VFR,,,,,,,,,,,,METAR,1310.0
KTTS 311555Z AUTO 09006KT 10SM FEW055 28/20 A3000 RMK AO2 SLP163 T02750198 $,KTTS,2022-10-31T15:55:00Z,28.58,-80.67,27.5,19.8,90,6,,10.0,30.0,1016.3,,TRUE,TRUE,TRUE,,,,,,FEW,5500,,,,,,,VFR,,,,,,,,,,,,METAR,1.0
KTTF 311555Z AUTO 19004KT 4SM BR OVC004 16/15 A2984 RMK AO2 T01600152,KTTF,2022-10-31T15:55:00Z,41.93,-83.42,16.0,15.2,190,4,,4.0,29.840551,,,TRUE,TRUE,,,,,,BR,OVC,400,,,,,,,LIFR,,,,,,,,,,,,METAR,186.0
KTSP 311555Z AUTO 10005KT 9SM CLR 10/M08 A3009 RMK AO2,KTSP,2022-10-31T15:55:00Z,35.13,-118.43,10.0,-8.0,100,5,,9.0,30.088583,,,TRUE,TRUE,,,,,,,CLR,,,,,,,,VFR,,,,,,,,,,,,METAR,1209.0
KTQV 311555Z AUTO 00000KT 10SM CLR 20/14 A3008 RMK A01,KTQV,2022-10-31T15:55:00Z,36.0,-78.93,20.0,14.0,0,0,,10.0,30.079725,,,TRUE,TRUE,,,,,,,CLR,,,,,,,,VFR,,,,,,,,,,,,METAR,230.0
KTQH 311555Z AUTO 00000KT 10SM CLR 17/13 A3004 RMK AO2,KTQH,2022-10-31T15:55:00Z,35.93,-95.0,17.0,13.0,0,0,,10.0,30.041338,,,TRUE,TRUE,,,,,,,CLR,,,,,,,,VFR,,,,,,,,,,,,METAR,265.0
KTOB 311555Z AUTO 00000KT 10SM CLR 12/04 A2989 RMK AO2,KTOB,2022-10-31T15:55:00Z,44.02,-92.82,12.0,4.0,0,0,,10.0,29.890747,,,TRUE,TRUE,,,,,,,CLR,,,,,,,,VFR,,,,,,,,,,,,METAR,394.0
KTNU 311555Z AUTO 29005KT 10SM CLR 13/07 A2991 RMK A01,KTNU,2022-10-31T15:55:00Z,41.67,-93.02,13.0,7.0,290,5,,10.0,29.911417,,,TRUE,TRUE,,,,,,,CLR,,,,,,,,VFR,,,,,,,,,,,,METAR,287.0
KTME 311555Z AUTO 00000KT 10SM CLR 22/15 A3009 RMK AO2,KTME,2022-10-31T15:55:00Z,29.8,-95.9,22.0,15.0,0,0,,10.0,30.088583,,,TRUE,TRUE,,,,,,,CLR,,,,,,,,VFR,,,,,,,,,,,,METAR,49.0
KTKX 311555Z AUTO 25007KT 6SM BR SCT012 BKN020 OVC026 16/16 A2995 RMK AO2 TSNO,KTKX,2022-10-31T15:55:00Z,36.22,-90.03,16.0,16.0,250,7,,6.0,29.949802,,,TRUE,TRUE,,,TRUE,,,BR,SCT,1200,BKN,2000,OVC,2600,,,MVFR,,,,,,,,,,,,METAR,73.0
KTKV 311555Z AUTO 00000KT 10SM CLR 11/06 A2985 RMK AO2 T01140055 PWINO,KTKV,2022-10-31T15:55:00Z,45.47,-89.82,11.4,5.5,0,0,,10.0,29.84941,,,TRUE,TRUE,,,,,TRUE,,CLR,,,,,,,,VFR,,,,,,,,,,,,METAR,449.0
KTKC 311555Z AUTO 21009KT 10SM CLR 14/M01 A2987 RMK AO2,KTKC,2022-10-31T15:55:00Z,44.25,-95.62,14.0,-1.0,210,9,,10.0,29.870079,,,TRUE,TRUE,,,,,,,CLR,,,,,,,,VFR,,,,,,,,,,,,METAR,408.0
KTIK 311555Z AUTO 30005KT 10SM CLR 16/03 A3002 RMK AO2 VIS 5/8 RWY13 SLP169 T01620029 $,KTIK,2022-10-31T15:55:00Z,35.4,-97.38,16.2,2.9,300,5,,10.0,30.02067,1016.9,,TRUE,TRUE,TRUE,,,,,,CLR,,,,,,,,VFR,,,,,,,,,,,,METAR,387.0
KTHA 311555Z AUTO 18009KT 10SM SCT048 OVC055 16/15 A2999 RMK A01,KTHA,2022-10-31T15:55:00Z,35.38,-86.25,16.0,15.0,180,9,,10.0,29.991142,,,TRUE,TRUE,,,,,,,SCT,4800,OVC,5500,,,,,VFR,,,,,,,,,,,,METAR,333.0
KTGI 311555Z AUTO 20005KT 10SM BKN080 OVC085 17/15 A3010 RMK AO1 T01740148,KTGI,2022-10-31T15:55:00Z,37.82,-75.98,17.4,14.8,200,5,,10.0,30.100393,,,TRUE,TRUE,,,,,,,BKN,8000,OVC,8500,,,,,VFR,,,,,,,,,,,,METAR,1.0
KTEW 311555Z AUTO 00000KT 7SM OVC004 15/13 A2984 RMK AO2 T01450131,KTEW,2022-10-31T15:55:00Z,42.57,-84.42,14.5,13.1,0,0,,7.0,29.840551,,,TRUE,TRUE,,,,,,,OVC,400,,,,,,,LIFR,,,,,,,,,,,,METAR,281.0
KTDR 311555Z AUTO 02007KT 10SM BKN038 OVC045 24/18 A3000 RMK AO2 SLP163 T02410176 $,KTDR,2022-10-31T15:55:00Z,30.05,-85.52,24.1,17.6,20,7,,10.0,30.0,1016.3,,TRUE,TRUE,TRUE,,,,,,BKN,3800,OVC,4500,,,,,VFR,,,,,,,,,,,,METAR,4.0
KTDF 311555Z AUTO 15004KT 10SM CLR 19/13 A3010 RMK AO2,KTDF,2022-10-31T15:55:00Z,36.28,-78.98,19.0,13.0,150,4,,10.0,30.100393,,,TRUE,TRUE,,,,,,,CLR,,,,,,,,VFR,,,,,,,,,,,,METAR,180.0
KTCM 311555Z AUTO 18013KT 10SM -RA FEW040 SCT049 BKN065 11/11 A2980 RMK AO2 RAE33RAB41 PRESFR SLP095 P0004 T01130113,KTCM,2022-10-31T15:55:00Z,47.13,-122.47,11.3,11.3,180,13,,10.0,29.799213,1009.5,,TRUE,TRUE,,,,,,-RA,FEW,4000,SCT,4900,BKN,6500,,,VFR,,,,,,0.04,,,,,,METAR,87.0
KTBN 311555Z AUTO 25006KT 10SM CLR 16/09 A2995 RMK AO2 SLP142 T01570094 $,KTBN,2022-10-31T15:55:00Z,37.73,-92.13,15.7,9.4,250,6,,10.0,29.949802,1014.2,,TRUE,TRUE,TRUE,,,,,,CLR,,,,,,,,VFR,,,,,,,,,,,,METAR,349.0
KT89 311555Z AUTO 14004KT 10SM CLR 19/07 A3002 RMK A01,KT89,2022-10-31T15:55:00Z,29.27,-103.68,19.0,7.0,140,4,,10.0,30.02067,,,TRUE,TRUE,,,,,,,CLR,,,,,,,,VFR,,,,,,,,,,,,METAR,801.0
KT82 311555Z AUTO 00000KT 10SM CLR 17/11 A3009 RMK AO2 T01710110,KT82,2022-10-31T15:55:00Z,30.25,-98.92,17.1,11.0,0,0,,10.0,30.088583,,,TRUE,TRUE,,,,,,,CLR,,,,,,,,VFR,,,,,,,,,,,,METAR,509.0
KT70 311555Z AUTO 35008KT 7SM OVC012 20/16 A3003 RMK AO2 SLP161 T01950155 $,KT70,2022-10-31T15:55:00Z,29.12,-100.48,19.5,15.5,350,8,,7.0,30.029528,1016.1,,TRUE,TRUE,TRUE,,,,,,OVC,1200,,,,,,,MVFR,,,,,,,,,,,,METAR,296.0
KT69 311555Z AUTO VRB05KT 10SM FEW070 23/17 A3003 RMK A01,KT69,2022-10-31T15:55:00Z,28.03,-97.55,23.0,17.0,0,5,,10.0,30.029528,,,TRUE,TRUE,,,,,,,FEW,7000,,,,,,,VFR,,,,,,,,,,,,METAR,15.0
KSZY 311555Z AUTO 00000KT 10SM OVC008 16/15 A2998 RMK A01,KSZY,2022-10-31T15:55:00Z,35.2,-88.5,16.0,15.0,0,0,,10.0,29.97933,,,TRUE,TRUE,,,,,,,OVC,800,,,,,,,IFR,,,,,,,,,,,,METAR,184.0
KSZT 311555Z AUTO 25003KT 3SM -RA OVC021 08/07 A2976 RMK AO2,KSZT,2022-10-31T15:55:00Z,48.3,-116.57,8.0,7.0,250,3,,3.0,29.760826,,,TRUE,TRUE,,,,,,-RA,OVC,2100,,,,,,,MVFR,,,,,,,,,,,,METAR,649.0
KSYN 311555Z AUTO 23003KT 7SM CLR 10/04 A2989 RMK AO2 T00950037,KSYN,2022-10-31T15:55:00Z,44.47,-93.02,9.5,3.7,230,3,,7.0,29.890747,,,TRUE,TRUE,,,,,,,CLR,,,,,,,,VFR,,,,,,,,,,,,METAR,280.0
KSYM 311555Z AUTO 20007KT 10SM SCT015 BKN028 OVC065 18/15 A2997 RMK AO2,KSYM,2022-10-31T15:55:00Z,38.22,-83.58,18.0,15.0,200,7,,10.0,29.970472,,,TRUE,TRUE,,,,,,,SCT,1500,BKN,2800,OVC,6500,,,MVFR,,,,,,,,,,,,METAR,307.0
KSYI 311555Z AUTO 21009KT 10SM BKN016 BKN025 18/15 A2999 RMK A01,KSYI,2022-10-31T15:55:00Z,35.57,-86.45,18.0,15.0,210,9,,10.0,29.991142,,,TRUE,TRUE,,,,,,,BKN,1600,BKN,2500,,,,,MVFR,,,,,,,,,,,,METAR,244.0
KSYF 311555Z AUTO 23006KT 10SM CLR 10/M05 A3000 RMK AO2 T01001054 PWINO,KSYF,2022-10-31T15:55:00Z,39.77,-101.8,10.0,-5.4,230,6,,10.0,30.0,,,TRUE,TRUE,,,,,TRUE,,CLR,,,,,,,,VFR,,,,,,,,,,,,METAR,1041.0
KSXU 311555Z AUTO 00000KT 10SM CLR 11/01 A3010 RMK AO2 T01130007,KSXU,2022-10-31T15:55:00Z,34.93,-104.65,11.3,0.7,0,0,,10.0,30.100393,,,TRUE,TRUE,,,,,,,CLR,,,,,,,,VFR,,,,,,,,,,,,METAR,1465.0
KSXS 311555Z AUTO 35007KT 10SM CLR 21/13 A3003 RMK AO2 SLP168 T02090131,KSXS,2022-10-31T15:55:00Z,31.37,-85.85,20.9,13.1,350,7,,10.0,30.029528,1016.8,,TRUE,TRUE,,,,,,,CLR,,,,,,,,VFR,,,,,,,,,,,,METAR,120.0
KSWW 311555Z AUTO 22003KT 10SM CLR 17/11 A3011 RMK AO2 T01690112,KSWW,2022-10-31T15:55:00Z,32.47,-100.47,16.9,11.2,220,3,,10.0,30.109253,,,TRUE,TRUE,,,,,,,CLR,,,,,,,,VFR,,,,,,,,,,,,METAR,718.0
KSVN 311555Z AUTO 17008G15KT 10SM FEW026 27/20 A3001 RMK AO2 SLP165 T02720203 $,KSVN,2022-10-31T15:55:00Z,32.02,-81.12,27.2,20.3,170,8,15,10.0,30.008858,1016.5,,TRUE,TRUE,TRUE,,,,,,FEW,2600,,,,,,,VFR,,,,,,,,,,,,METAR,13.0
KSVH 311555Z AUTO 00000KT 5SM RA OVC007 14/13 A3007 RMK AO2 P0001 T01350125,KSVH,2022-10-31T15:55:00Z,35.75,-80.95,13.5,12.5,0,0,,5.0,30.070866,,,TRUE,TRUE,,,,,,RA,OVC,700,,,,,,,IFR,,,,,,0.01,,,,,,METAR,286.0
KSVE 311555Z AUTO 25003KT 7SM CLR 00/M08 A3010 RMK AO2,KSVE,2022-10-31T15:55:00Z,40.37,-120.57,0.0,-8.0,250,3,,7.0,30.100393,,,TRUE,TRUE,,,,,,,CLR,,,,,,,,VFR,,,,,,,,,,,,METAR,1263.0
KSVC 311555Z AUTO 00000KT 10SM CLR 15/M01 A3012 RMK AO2 T01541007,KSVC,2022-10-31T15:55:00Z,32.63,-108.15,15.4,-0.7,0,0,,10.0,30.121063,,,TRUE,TRUE,,,,,,,CLR,,,,,,,,VFR,,,,,,,,,,,,METAR,1638.0
KSUZ 311555Z AUTO 33006KT 9SM CLR 18/13 A3002 RMK A01,KSUZ,2022-10-31T15:55:00Z,34.58,-92.48,18.0,13.0,330,6,,9.0,30.02067,,,TRUE,TRUE,,,,,,,CLR,,,,,,,,VFR,,,,,,,,,,,,METAR,114.0
KSUW 311555Z AUTO 22006KT 10SM CLR 10/00 A2983 RMK AO2 T01000001,KSUW,2022-10-31T15:55:00Z,46.68,-92.1,10.0,0.1,220,6,,10.0,29.828741,,,TRUE,TRUE,,,,,,,CLR,,,,,,,,VFR,,,,,,,,,,,,SPECI,205.0
KSUU 311555Z 36004KT 10SM BKN200 10/07 A2998 RMK AO2A SLP159 T00950073 $,KSUU,2022-10-31T15:55:00Z,38.27,-121.93,9.5,7.3,360,4,,10.0,29.97933,1015.9,,,TRUE,TRUE,,,,,,BKN,20000,,,,,,,VFR,,,,,,,,,,,,METAR,9.0
KSTF 311555Z AUTO VRB03KT 10SM SCT015 SCT021 OVC060 18/15 A3002 RMK AO2,KSTF,2022-10-31T15:55:00Z,33.43,-88.85,18.0,15.0,0,3,,10.0,30.02067,,,TRUE,TRUE,,,,,,,SCT,1500,SCT,2100,OVC,6000,,,VFR,,,,,,,,,,,,METAR,99.0
KSSC 311555Z 15005KT 6SM BR OVC006 20/18 A3005 RMK AO2A SLP177 T01980176 $,KSSC,2022-10-31T15:55:00Z,33.97,-80.47,19.8,17.6,150,5,,6.0,30.050198,1017.7,,,TRUE,TRUE,,,,,BR,OVC,600,,,,,,,IFR,,,,,,,,,,,,METAR,71.0
KSRR 311555Z AUTO 00000KT 10SM 09/00 A3018 RMK AO2,KSRR,2022-10-31T15:55:00Z,33.47,-105.52,9.0,0.0,0,0,,10.0,30.180119,,,TRUE,TRUE,,,,,,,,,,,,,,,,,,,,,,,,,,,METAR,2063.0
KSRE 311555Z AUTO VRB04KT 10SM CLR 18/04 A3005 RMK AO2,KSRE,2022-10-31T15:55:00Z,35.27,-96.68,18.0,4.0,0,4,,10.0,30.050198,,,TRUE,TRUE,,,,,,,CLR,,,,,,,,VFR,,,,,,,,,,,,METAR,306.0
KSRB 311555Z AUTO 19009KT 10SM SCT013 OVC049 16/15 A2999 RMK A01,KSRB,2022-10-31T15:55:00Z,36.05,-85.53,16.0,15.0,190,9,,10.0,29.991142,,,TRUE,TRUE,,,,,,,SCT,1300,OVC,4900,,,,,VFR,,,,,,,,,,,,METAR,303.0
KSPF 311555Z AUTO 25003KT 10SM CLR 12/M07 A2989 RMK AO2,KSPF,2022-10-31T15:55:00Z,44.47,-103.78,12.0,-7.0,250,3,,10.0,29.890747,,,TRUE,TRUE,,,,,,,CLR,,,,,,,,VFR,,,,,,,,,,,,METAR,1191.0
KSPA 311555Z AUTO 03005KT 3SM +RA BKN004 BKN011 OVC016 13/12 A3005 RMK AO2 P0033,KSPA,2022-10-31T15:55:00Z,34.92,-81.95,13.0,12.0,30,5,,3.0,30.050198,,,TRUE,TRUE,,,,,,+RA,BKN,400,BKN,1100,OVC,1600,,,LIFR,,,,,,0.33,,,,,,METAR,242.0
KSOW 311555Z AUTO 31004KT 9SM CLR 06/M06 A3019 RMK AO2,KSOW,2022-10-31T15:55:00Z,34.27,-110.0,6.0,-6.0,310,4,,9.0,30.188976,,,TRUE,TRUE,,,,,,,CLR,,,,,,,,VFR,,,,,,,,,,,,METAR,1954.0
KSNK 311555Z AUTO 00000KT 10SM CLR 15/08 A3009 RMK AO2 T01510078,KSNK,2022-10-31T15:55:00Z,32.7,-100.95,15.1,7.8,0,0,,10.0,30.088583,,,TRUE,TRUE,,,,,,,CLR,,,,,,,,VFR,,,,,,,,,,,,METAR,738.0
KSNC 311555Z AUTO VRB06KT 10SM FEW026 SCT039 18/12 A3007 RMK AO2,KSNC,2022-10-31T15:55:00Z,41.38,-72.5,18.0,12.0,0,6,,10.0,30.070866,,,TRUE,TRUE,,,,,,,FEW,2600,SCT,3900,,,,,VFR,,,,,,,,,,,,METAR,114.0
KSMS 311555Z AUTO 16007KT 8SM OVC007 21/19 A3007 RMK AO2,KSMS,2022-10-31T15:55:00Z,34.0,-80.37,21.0,19.0,160,7,,8.0,30.070866,,,TRUE,TRUE,,,,,,,OVC,700,,,,,,,IFR,,,,,,,,,,,,METAR,53.0
KSLI 311555Z 00000KT 10SM FEW020 SCT150 BKN200 16/10 A2990 RMK AO2A SLP128 T01630097,KSLI,2022-10-31T15:55:00Z,33.78,-118.03,16.3,9.7,0,0,,10.0,29.899607,1012.8,,,TRUE,,,,,,,FEW,2000,SCT,15000,BKN,20000,,,VFR,,,,,,,,,,,,METAR,8.0
KSLH 311555Z AUTO 00000KT 10SM CLR 10/07 A2984 RMK AO2,KSLH,2022-10-31T15:55:00Z,45.65,-84.52,10.0,7.0,0,0,,10.0,29.840551,,,TRUE,TRUE,,,,,,,CLR,,,,,,,,VFR,,,,,,,,,,,,METAR,193.0
KSKF 311555Z AUTO 13005KT 10SM FEW190 21/14 A3003 RMK AO2 SLP166 T02130135 $,KSKF,2022-10-31T15:55:00Z,29.38,-98.57,21.3,13.5,130,5,,10.0,30.029528,1016.6,,TRUE,TRUE,TRUE,,,,,,FEW,19000,,,,,,,VFR,,,,,,,,,,,,METAR,214.0
KSKA 311555Z 20011KT 10SM OVC085 09/06 A2975 RMK AO2A SLP290 T00850058 $,KSKA,2022-10-31T15:55:00Z,47.62,-117.67,8.5,5.8,200,11,,10.0,29.749016,1029.0,,,TRUE,TRUE,,,,,,OVC,8500,,,,,,,VFR,,,,,,,,,,,,METAR,754.0
KSJX 311555Z AUTO 27005KT 10SM CLR 17/05 A2984 RMK AO2 T01660052,KSJX,2022-10-31T15:55:00Z,45.7,-85.57,16.6,5.2,270,5,,10.0,29.840551,,,TRUE,TRUE,,,,,,,CLR,,,,,,,,VFR,,,,,,,,,,,,METAR,202.0
KSIK 311555Z AUTO 23006KT 10SM SCT012 SCT018 BKN024 16/15 A2993 RMK AO2,KSIK,2022-10-31T15:55:00Z,36.9,-89.57,16.0,15.0,230,6,,10.0,29.929134,,,TRUE,TRUE,,,,,,,SCT,1200,SCT,1800,BKN,2400,,,MVFR,,,,,,,,,,,,METAR,95.0
KSIF 311555Z AUTO 00000KT 10SM OVC008 15/13 A3008 RMK AO2 T01450133,KSIF,2022-10-31T15:55:00Z,36.43,-79.85,14.5,13.3,0,0,,10.0,30.079725,,,TRUE,TRUE,,,,,,,OVC,800,,,,,,,IFR,,,,,,,,,,,,METAR,206.0
KSHD 311555Z AUTO 19007KT 10SM SCT022 OVC028 16/12 A3008 RMK AO2 T01600122,KSHD,2022-10-31T15:55:00Z,38.27,-78.9,16.0,12.2,190,7,,10.0,30.079725,,,TRUE,TRUE,,,,,,,SCT,2200,OVC,2800,,,,,MVFR,,,,,,,,,,,,SPECI,360.0
KSGS 311555Z AUTO 00000KT 10SM CLR 11/03 A2987 RMK AO2 T01070030,KSGS,2022-10-31T15:55:00Z,44.87,-93.03,10.7,3.0,0,0,,10.0,29.870079,,,TRUE,TRUE,,,,,,,CLR,,,,,,,,VFR,,,,,,,,,,,,METAR,250.0
KSFQ 311555Z AUTO 00000KT 10SM OVC044 19/13 A3013 RMK AO2 T01880134,KSFQ,2022-10-31T15:55:00Z,36.68,-76.6,18.8,13.4,0,0,,10.0,30.129921,,,TRUE,TRUE,,,,,,,OVC,4400,,,,,,,VFR,,,,,,,,,,,,METAR,19.0
KSEZ 311555Z AUTO 12004KT 10SM 13/M04 A3012 RMK AO2,KSEZ,2022-10-31T15:55:00Z,34.85,-111.78,13.0,-4.0,120,4,,10.0,30.121063,,,TRUE,TRUE,,,,,,,,,,,,,,,,,,,,,,,,,,,METAR,1455.0
KSEQ 311555Z AUTO 17005KT 10SM CLR 22/14 A3004 RMK AO2 SLP171 T02200136,KSEQ,2022-10-31T15:55:00Z,29.57,-97.9,22.0,13.6,170,5,,10.0,30.041338,1017.1,,TRUE,TRUE,,,,,,,CLR,,,,,,,,VFR,,,,,,,,,,,,METAR,160.0
KSEP 311555Z AUTO 00000KT 10SM CLR 20/11 A3010 RMK AO2 T02000106,KSEP,2022-10-31T15:55:00Z,32.22,-98.17,20.0,10.6,0,0,,10.0,30.100393,,,TRUE,TRUE,,,,,,,CLR,,,,,,,,VFR,,,,,,,,,,,,METAR,399.0
KSEM 311555Z AUTO 24004KT 10SM OVC049 19/16 A3004 RMK AO2,KSEM,2022-10-31T15:55:00Z,32.35,-86.98,19.0,16.0,240,4,,10.0,30.041338,,,TRUE,TRUE,,,,,,,OVC,4900,,,,,,,VFR,,,,,,,,,,,,METAR,48.0
KSDC 311555Z AUTO 14004KT 10SM OVC065 14/06 A2996 RMK AO2,KSDC,2022-10-31T15:55:00Z,43.23,-77.12,14.0,6.0,140,4,,10.0,29.958662,,,TRUE,TRUE,,,,,,,OVC,6500,,,,,,,VFR,,,,,,,,,,,,METAR,127.0
KSCR 311555Z AUTO 12005KT 10SM CLR 20/15 A3008 RMK AO2 T01980151,KSCR,2022-10-31T15:55:00Z,35.7,-79.5,19.8,15.1,120,5,,10.0,30.079725,,,TRUE,TRUE,,,,,,,CLR,,,,,,,,VFR,,,,,,,,,,,,METAR,182.0
KSCK 311555Z 00000KT 9SM CLR 12/06 A2998 RMK AO2 SLP152 T01170056,KSCK,2022-10-31T15:55:00Z,37.88,-121.22,11.7,5.6,0,0,,9.0,29.97933,1015.2,,,TRUE,,,,,,,CLR,,,,,,,,VFR,,,,,,,,,,,,METAR,8.0
KSCD 311555Z AUTO 25006KT 10SM OVC049 19/15 A3005 RMK AO2 T01890149,KSCD,2022-10-31T15:55:00Z,33.17,-86.3,18.9,14.9,250,6,,10.0,30.050198,,,TRUE,TRUE,,,,,,,OVC,4900,,,,,,,VFR,,,,,,,,,,,,METAR,164.0
KSAZ 311555Z 20005KT 7SM 12/01 A2981 RMK AO2,KSAZ,2022-10-31T15:55:00Z,46.37,-94.8,12.0,1.0,200,5,,7.0,29.811024,,,,TRUE,,,,,,,,,,,,,,,,,,,,,,,,,,,METAR,391.0
KSAR 311555Z AUTO 25004KT 10SM BKN008 OVC017 13/13 A2992 RMK AO2 T01340126,KSAR,2022-10-31T15:55:00Z,38.15,-89.7,13.4,12.6,250,4,,10.0,29.920275,,,TRUE,TRUE,,,,,,,BKN,800,OVC,1700,,,,,IFR,,,,,,,,,,,,METAR,162.0
KS39 311555Z AUTO 18006KT 10SM CLR 12/03 A2994 RMK AO2,KS39,2022-10-31T15:55:00Z,44.28,-120.9,12.0,3.0,180,6,,10.0,29.940945,,,TRUE,TRUE,,,,,,,CLR,,,,,,,,VFR,,,,,,,,,,,,METAR,987.0
KS32 311555Z AUTO 26012KT 10SM CLR 12/M01 A2975 RMK AO2 TSNO,KS32,2022-10-31T15:55:00Z,47.42,-98.1,12.0,-1.0,260,12,,10.0,29.749016,,,TRUE,TRUE,,,TRUE,,,,CLR,,,,,,,,VFR,,,,,,,,,,,,METAR,435.0
KS25 311555Z AUTO 22006KT 10SM CLR 06/01 A2977 RMK AO2,KS25,2022-10-31T15:55:00Z,47.8,-103.25,6.0,1.0,220,6,,10.0,29.769686,,,TRUE,TRUE,,,,,,,CLR,,,,,,,,VFR,,,,,,,,,,,,METAR,632.0
KS24 311555Z AUTO 20008KT 10SM FEW010 BKN055 BKN065 17/15 A2986 RMK AO2,KS24,2022-10-31T15:55:00Z,,,17.0,15.0,200,8,,10.0,29.861221,,,TRUE,TRUE,,,,,,,FEW,1000,BKN,5500,BKN,6500,,,VFR,,,,,,,,,,,,METAR,
KRZN 311555Z AUTO 00000KT 10SM CLR 11/01 A2986 RMK AO2 T01130014,KRZN,2022-10-31T15:55:00Z,45.82,-92.37,11.3,1.4,0,0,,10.0,29.861221,,,TRUE,TRUE,,,,,,,CLR,,,,,,,,VFR,,,,,,,,,,,,METAR,301.0
KRZL 311555Z AUTO 19005KT 10SM SCT012 OVC018 15/15 A2983 RMK AO2,KRZL,2022-10-31T15:55:00Z,40.95,-87.18,15.0,15.0,190,5,,10.0,29.828741,,,TRUE,TRUE,,,,,,,SCT,1200,OVC,1800,,,,,MVFR,,,,,,,,,,,,METAR,210.0
KRYV 311555Z AUTO 00000KT 10SM CLR 13/05 A2986 RMK AO2 T01330051,KRYV,2022-10-31T15:55:00Z,43.17,-88.72,13.3,5.1,0,0,,10.0,29.861221,,,TRUE,TRUE,,,,,,,CLR,,,,,,,,VFR,,,,,,,,,,,,METAR,249.0
KRYM 311555Z AUTO 22004KT 10SM CLR 09/01 A2982 RMK AO2 SLP111 T00920011 $,KRYM,2022-10-31T15:55:00Z,46.08,-94.37,9.2,1.1,220,4,,10.0,29.819881,1011.1,,TRUE,TRUE,TRUE,,,,,,CLR,,,,,,,,VFR,,,,,,,,,,,,METAR,344.0
KRVL 311555Z AUTO 00000KT 9SM SCT049 BKN055 OVC065 11/07 A3004 RMK AO2,KRVL,2022-10-31T15:55:00Z,40.68,-77.63,11.0,7.0,0,0,,9.0,30.041338,,,TRUE,TRUE,,,,,,,SCT,4900,BKN,5500,OVC,6500,,,VFR,,,,,,,,,,,,METAR,250.0
KRUQ 311555Z AUTO 00000KT 10SM -RA OVC010 16/14 A3007 RMK AO2 T01560136,KRUQ,2022-10-31T15:55:00Z,35.65,-80.52,15.6,13.6,0,0,,10.0,30.070866,,,TRUE,TRUE,,,,,,-RA,OVC,1000,,,,,,,MVFR,,,,,,,,,,,,METAR,231.0
KRUG 311555Z AUTO 27010KT 10SM CLR 09/02 A2971 RMK AO2,KRUG,2022-10-31T15:55:00Z,48.38,-100.02,9.0,2.0,270,10,,10.0,29.71063,,,TRUE,TRUE,,,,,,,CLR,,,,,,,,VFR,,,,,,,,,,,,METAR,469.0
KRTS 311555Z AUTO 00000KT 9SM CLR 00/M10 A3012 RMK AO2,KRTS,2022-10-31T15:55:00Z,39.67,-119.88,0.0,-10.0,0,0,,9.0,30.121063,,,TRUE,TRUE,,,,,,,CLR,,,,,,,,VFR,,,,,,,,,,,,METAR,1537.0
KRSN 311555Z AUTO 00000KT 10SM CLR 21/14 A3005 RMK AO2 T02050139,KRSN,2022-10-31T15:55:00Z,32.52,-92.58,20.5,13.9,0,0,,10.0,30.050198,,,TRUE,TRUE,,,,,,,CLR,,,,,,,,VFR,,,,,,,,,,,,METAR,86.0
KRRT 311555Z AUTO 21010KT 10SM 09/02 A2966 RMK AO2,KRRT,2022-10-31T15:55:00Z,48.93,-95.33,9.0,2.0,210,10,,10.0,29.660433,,,TRUE,TRUE,,,,,,,,,,,,,,,,,,,,,,,,,,,METAR,327.0
KRRL 311555Z AUTO 00000KT 10SM CLR 11/05 A2985 RMK AO2 T01060054 TSNO,KRRL,2022-10-31T15:55:00Z,45.2,-89.72,10.6,5.4,0,0,,10.0,29.84941,,,TRUE,TRUE,,,TRUE,,,,CLR,,,,,,,,VFR,,,,,,,,,,,,METAR,397.0
KRQB 311555Z AUTO 00000KT 10SM OVC031 14/09 A2984 RMK AO2 T01400085,KRQB,2022-10-31T15:55:00Z,43.72,-85.5,14.0,8.5,0,0,,10.0,29.840551,,,TRUE,TRUE,,,,,,,OVC,3100,,,,,,,VFR,,,,,,,,,,,,METAR,282.0
KRPH 311555Z AUTO 00000KT 10SM CLR 16/11 A3006 RMK AO2 T01610115 $,KRPH,2022-10-31T15:55:00Z,33.12,-98.55,16.1,11.5,0,0,,10.0,30.059055,,,TRUE,TRUE,TRUE,,,,,,CLR,,,,,,,,VFR,,,,,,,,,,,,METAR,341.0
KRPD 311555Z AUTO 00000KT 10SM CLR 08/07 A2988 RMK AO2 T00790068,KRPD,2022-10-31T15:55:00Z,45.42,-91.77,7.9,6.8,0,0,,10.0,29.878937,,,TRUE,TRUE,,,,,,,CLR,,,,,,,,VFR,,,,,,,,,,,,METAR,334.0
KROX 311555Z AUTO 22010KT 10SM CLR 09/01 A2967 RMK AO2,KROX,2022-10-31T15:55:00Z,48.85,-95.7,9.0,1.0,220,10,,10.0,29.66929,,,TRUE,TRUE,,,,,,,CLR,,,,,,,,VFR,,,,,,,,,,,,METAR,320.0
KRNV 311555Z AUTO 27004KT 10SM BKN013 18/14 A3004 RMK AO2 T01760143 TSNO,KRNV,2022-10-31T15:55:00Z,33.77,-90.75,17.6,14.3,270,4,,10.0,30.041338,,,TRUE,TRUE,,,TRUE,,,,BKN,1300,,,,,,,MVFR,,,,,,,,,,,,METAR,42.0
KRNP 311555Z AUTO 00000KT 3SM BR OVC003 13/12 A2984 RMK AO2 T01290116,KRNP,2022-10-31T15:55:00Z,43.0,-84.13,12.9,11.6,0,0,,3.0,29.840551,,,TRUE,TRUE,,,,,,BR,OVC,300,,,,,,,LIFR,,,,,,,,,,,,METAR,224.0
KRNO 311555Z 00000KT 10SM SCT200 BKN250 03/M06 A3011 RMK AO2 SLP187 T00331061,KRNO,2022-10-31T15:55:00Z,39.5,-119.77,3.3,-6.1,0,0,,10.0,30.109253,1018.7,,,TRUE,,,,,,,SCT,20000,BKN,25000,,,,,VFR,,,,,,,,,,,,METAR,1344.0
KRNH 311555Z AUTO 00000KT 10SM CLR 09/07 A2987 RMK AO2 T00900073,KRNH,2022-10-31T15:55:00Z,45.15,-92.53,9.0,7.3,0,0,,10.0,29.870079,,,TRUE,TRUE,,,,,,,CLR,,,,,,,,VFR,,,,,,,,,,,,METAR,302.0
KRND 311555Z AUTO 18005KT 10SM CLR 21/14 A3004 RMK AO2 SLP168 T02140141,KRND,2022-10-31T15:55:00Z,29.53,-98.27,21.4,14.1,180,5,,10.0,30.041338,1016.8,,TRUE,TRUE,,,,,,,CLR,,,,,,,,VFR,,,,,,,,,,,,METAR,224.0
KRNC 311555Z AUTO VRB05KT 10SM FEW015 OVC050 17/14 A2999 RMK A01,KRNC,2022-10-31T15:55:00Z,35.7,-85.85,17.0,14.0,0,5,,10.0,29.991142,,,TRUE,TRUE,,,,,,,FEW,1500,OVC,5000,,,,,VFR,,,,,,,,,,,,METAR,310.0
KRMY 311555Z AUTO 00000KT 5SM BR OVC003 14/13 A2984 RMK AO2 T01360131,KRMY,2022-10-31T15:55:00Z,42.25,-84.95,13.6,13.1,0,0,,5.0,29.840551,,,TRUE,TRUE,,,,,,BR,OVC,300,,,,,,,LIFR,,,,,,,,,,,,METAR,285.0
KRMN 311555Z AUTO 20007KT 10SM SCT024 SCT090 20/12 A3010 RMK AO2 T01960124,KRMN,2022-10-31T15:55:00Z,38.4,-77.45,19.6,12.4,200,7,,10.0,30.100393,,,TRUE,TRUE,,,,,,,SCT,2400,SCT,9000,,,,,VFR,,,,,,,,,,,,METAR,50.0
KRLD 311555Z AUTO 23013G22KT 10SM OVC080 17/09 A2981 RMK AO2 T01710086,KRLD,2022-10-31T15:55:00Z,46.3,-119.3,17.1,8.6,230,13,22,10.0,29.811024,,,TRUE,TRUE,,,,,,,OVC,8000,,,,,,,VFR,,,,,,,,,,,,METAR,118.0
KRKW 311555Z AUTO VRB05G11KT 10SM SCT008 OVC050 16/14 A3000 RMK A01,KRKW,2022-10-31T15:55:00Z,35.92,-84.68,16.0,14.0,0,5,11,10.0,30.0,,,TRUE,TRUE,,,,,,,SCT,800,OVC,5000,,,,,VFR,,,,,,,,,,,,METAR,505.0
KRIV 311555Z AUTO 00000KT 10SM CLR 14/00 A2997 RMK AO2 SLP142 T01410000,KRIV,2022-10-31T15:55:00Z,33.87,-117.23,14.1,0.0,0,0,,10.0,29.970472,1014.2,,TRUE,TRUE,,,,,,,CLR,,,,,,,,VFR,,,,,,,,,,,,METAR,454.0
KRHP 311555Z AUTO 28003KT 10SM SCT018 BKN025 OVC031 17/14 A3004 RMK AO2 T01710142,KRHP,2022-10-31T15:55:00Z,35.18,-83.85,17.1,14.2,280,3,,10.0,30.041338,,,TRUE,TRUE,,,,,,,SCT,1800,BKN,2500,OVC,3100,,,MVFR,,,,,,,,,,,,SPECI,515.0
KRGK 311555Z AUTO 00000KT 10SM CLR 08/03 A2987 RMK AO2,KRGK,2022-10-31T15:55:00Z,44.58,-92.48,8.0,3.0,0,0,,10.0,29.870079,,,TRUE,TRUE,,,,,,,CLR,,,,,,,,VFR,,,,,,,,,,,,METAR,238.0
KRFI 311555Z AUTO 00000KT 10SM CLR 21/10 A3008 RMK AO2 T02100101,KRFI,2022-10-31T15:55:00Z,32.15,-94.85,21.0,10.1,0,0,,10.0,30.079725,,,TRUE,TRUE,,,,,,,CLR,,,,,,,,VFR,,,,,,,,,,,,METAR,133.0
KRCZ 311555Z AUTO 13005KT 10SM SCT017 SCT035 21/17 A3007 RMK AO2 T02140167,KRCZ,2022-10-31T15:55:00Z,34.88,-79.77,21.4,16.7,130,5,,10.0,30.070866,,,TRUE,TRUE,,,,,,,SCT,1700,SCT,3500,,,,,VFR,,,,,,,,,,,,METAR,110.0
KRCX 311555Z AUTO 00000KT 10SM CLR 09/08 A2988 RMK AO2 T00940080,KRCX,2022-10-31T15:55:00Z,45.5,-91.0,9.4,8.0,0,0,,10.0,29.878937,,,TRUE,TRUE,,,,,,,CLR,,,,,,,,VFR,,,,,,,,,,,,METAR,373.0
KRCM 311555Z AUTO 25005KT 10SM CLR 14/06 A2996 RMK AO2,KRCM,2022-10-31T15:55:00Z,38.78,-93.8,14.0,6.0,250,5,,10.0,29.958662,,,TRUE,TRUE,,,,,,,CLR,,,,,,,,VFR,,,,,,,,,,,,METAR,242.0
KRCE 311555Z AUTO 00000KT 10SM CLR 14/06 A3005 RMK AO2,KRCE,2022-10-31T15:55:00Z,35.48,-97.82,14.0,6.0,0,0,,10.0,30.050198,,,TRUE,TRUE,,,,,,,CLR,,,,,,,,VFR,,,,,,,,,,,,METAR,412.0
KRCA 311555Z AUTO 23003KT 10SM CLR 12/M08 A2984 RMK AO2 SLP114 T01211079 $,KRCA,2022-10-31T15:55:00Z,44.15,-103.12,12.1,-7.9,230,3,,10.0,29.840551,1011.4,,TRUE,TRUE,TRUE,,,,,,CLR,,,,,,,,VFR,,,,,,,,,,,,METAR,993.0
KRAW 311555Z AUTO 28004KT 10SM SCT110 14/09 A2997 RMK AO2,KRAW,2022-10-31T15:55:00Z,38.35,-93.35,14.0,9.0,280,4,,10.0,29.970472,,,TRUE,TRUE,,,,,,,SCT,11000,,,,,,,VFR,,,,,,,,,,,,METAR,285.0
KQVF 311555Z AUTO 14008KT 100V160 9999 FEW017 BKN170 27/23 A2993 RMK AO2 SLP138 WND DATA ESTMD T02650234,KQVF,2022-10-31T15:55:00Z,,,26.5,23.4,140,8,,6.21,29.929134,1013.8,,TRUE,TRUE,,,,,,,FEW,1700,BKN,17000,,,,,VFR,,,,,,,,,,,,METAR,
KQRH 311555Z AUTO VRB05KT 9999 CLR 28/21 A2986 RMK AO2 SLP114 WND DATA ESTMD T02800210,KQRH,2022-10-31T15:55:00Z,,,28.0,21.0,0,5,,6.21,29.861221,1011.4,,TRUE,TRUE,,,,,,,CLR,,,,,,,,VFR,,,,,,,,,,,,METAR,
KQDG 311555Z AUTO 22003KT 9999 BKN037 10/07 A3020 RMK AO2 SLPNO T01000067,KQDG,2022-10-31T15:55:00Z,,,10.0,6.7,220,3,,6.21,30.200787,,,TRUE,TRUE,,,,,,,BKN,3700,,,,,,,VFR,,,,,,,,,,,,METAR,
KQD3 311555Z AUTO 09006KT M M CLR 28/20 A2990 RMK AO2 SLP110 WND DATA ESTMD T02820201 $,KQD3,2022-10-31T15:55:00Z,,,28.2,20.1,90,6,,,29.899607,1011.0,,TRUE,TRUE,TRUE,,,,,,CLR,,,,,,,,,,,,,,,,,,,,METAR,
KQAZ 311555Z AUTO 11007KT 070V160 9999 CLR 31/M02 A2997 RMK AO2 SLP148 WND DATA ESTMD T03091022,KQAZ,2022-10-31T15:55:00Z,,,30.9,-2.2,110,7,,6.21,29.970472,1014.8,,TRUE,TRUE,,,,,,,CLR,,,,,,,,VFR,,,,,,,,,,,,METAR,
KPZQ 311555Z AUTO 00000KT 10SM CLR 13/08 A2987 RMK AO2 T01300076,KPZQ,2022-10-31T15:55:00Z,45.4,-83.82,13.0,7.6,0,0,,10.0,29.870079,,,TRUE,TRUE,,,,,,,CLR,,,,,,,,VFR,,,,,,,,,,,,METAR,199.0
KPYX 311555Z AUTO 22006KT 10SM CLR 13/02 A3006 RMK AO2 T01340018,KPYX,2022-10-31T15:55:00Z,36.42,-100.75,13.4,1.8,220,6,,10.0,30.059055,,,TRUE,TRUE,,,,,,,CLR,,,,,,,,VFR,,,,,,,,,,,,METAR,890.0
KPWC 311555Z AUTO 20005KT 10SM CLR 12/02 A2983 RMK AO2,KPWC,2022-10-31T15:55:00Z,46.72,-94.38,12.0,2.0,200,5,,10.0,29.828741,,,TRUE,TRUE,,,,,,,CLR,,,,,,,,VFR,,,,,,,,,,,,METAR,394.0
KPVJ 311555Z AUTO 00000KT 10SM CLR 14/07 A3006 RMK AO2 T01400074,KPVJ,2022-10-31T15:55:00Z,34.72,-97.22,14.0,7.4,0,0,,10.0,30.059055,,,TRUE,TRUE,,,,,,,CLR,,,,,,,,VFR,,,,,,,,,,,,METAR,287.0
KPVF 311555Z AUTO 09005KT 10SM CLR 13/00 A3004 RMK AO1,KPVF,2022-10-31T15:55:00Z,38.72,-120.75,13.0,0.0,90,5,,10.0,30.041338,,,TRUE,TRUE,,,,,,,CLR,,,,,,,,VFR,,,,,,,,,,,,METAR,788.0
KPVB 311555Z AUTO 31004KT 10SM CLR 13/06 A2987 RMK AO1 T01320061,KPVB,2022-10-31T15:55:00Z,42.68,-90.43,13.2,6.1,310,4,,10.0,29.870079,,,TRUE,TRUE,,,,,,,CLR,,,,,,,,VFR,,,,,,,,,,,,METAR,311.0
KPUJ 311555Z AUTO 26004KT 5SM BR SCT008 BKN012 BKN019 17/17 A3003 RMK AO2,KPUJ,2022-10-31T15:55:00Z,33.92,-84.93,17.0,17.0,260,4,,5.0,30.029528,,,TRUE,TRUE,,,,,,BR,SCT,800,BKN,1200,BKN,1900,,,MVFR,,,,,,,,,,,,METAR,385.0
KPTS 311555Z AUTO 26006KT 10SM CLR 16/09 A2998 RMK AO2 T01550093 PWINO,KPTS,2022-10-31T15:55:00Z,37.45,-94.73,15.5,9.3,260,6,,10.0,29.97933,,,TRUE,TRUE,,,,,TRUE,,CLR,,,,,,,,VFR,,,,,,,,,,,,METAR,286.0
KPTD 311555Z AUTO 23009KT 10SM CLR 16/03 A2995 RMK AO2,KPTD,2022-10-31T15:55:00Z,44.68,-74.95,16.0,3.0,230,9,,10.0,29.949802,,,TRUE,TRUE,,,,,,,CLR,,,,,,,,VFR,,,,,,,,,,,,METAR,144.0
KPTB 311555Z AUTO 00000KT 10SM CLR 18/13 A3011 RMK AO2 T01750126,KPTB,2022-10-31T15:55:00Z,37.17,-77.52,17.5,12.6,0,0,,10.0,30.109253,,,TRUE,TRUE,,,,,,,CLR,,,,,,,,VFR,,,,,,,,,,,,METAR,56.0
KPSM 311555Z 22005KT 10SM FEW200 BKN250 17/09 A3002 RMK AO2A SLP169 T01690088,KPSM,2022-10-31T15:55:00Z,43.08,-70.82,16.9,8.8,220,5,,10.0,30.02067,1016.9,,,TRUE,,,,,,,FEW,20000,BKN,25000,,,,,VFR,,,,,,,,,,,,METAR,34.0
KPRO 311555Z AUTO 32003KT 10SM CLR 12/03 A2993 RMK AO2 T01180028,KPRO,2022-10-31T15:55:00Z,41.83,-94.17,11.8,2.8,320,3,,10.0,29.929134,,,TRUE,TRUE,,,,,,,CLR,,,,,,,,VFR,,,,,,,,,,,,METAR,308.0
KPOV 311555Z AUTO 19003KT 5SM OVC005 15/13 A2991 RMK AO2 T01460126 PWINO,KPOV,2022-10-31T15:55:00Z,41.22,-81.25,14.6,12.6,190,3,,5.0,29.911417,,,TRUE,TRUE,,,,,TRUE,,OVC,500,,,,,,,IFR,,,,,,,,,,,,METAR,363.0
KPOE 311555Z AUTO 00000KT 10SM CLR 21/13 A3006 RMK AO2 LTG DSNT S SLP181 T02140133,KPOE,2022-10-31T15:55:00Z,31.05,-93.2,21.4,13.3,0,0,,10.0,30.059055,1018.1,,TRUE,TRUE,,,,,,,CLR,,,,,,,,VFR,,,,,,,,,,,,METAR,98.0
KPOB 311555Z AUTO 15003KT 10SM SCT060 OVC160 21/15 A3007 RMK AO2 SLP185 T02100149 $,KPOB,2022-10-31T15:55:00Z,35.17,-79.02,21.0,14.9,150,3,,10.0,30.070866,1018.5,,TRUE,TRUE,TRUE,,,,,,SCT,6000,OVC,16000,,,,,VFR,,,,,,,,,,,,METAR,57.0
KPNM 311555Z AUTO 00000KT 10SM CLR 11/02 A2987 RMK AO2 TSNO,KPNM,2022-10-31T15:55:00Z,45.53,-93.6,11.0,2.0,0,0,,10.0,29.870079,,,TRUE,TRUE,,,TRUE,,,,CLR,,,,,,,,VFR,,,,,,,,,,,,METAR,298.0
KPLR 311555Z AUTO 00000KT 10SM FEW009 OVC050 18/16 A3005 RMK A01,KPLR,2022-10-31T15:55:00Z,33.57,-86.25,18.0,16.0,0,0,,10.0,30.050198,,,TRUE,TRUE,,,,,,,FEW,900,OVC,5000,,,,,VFR,,,,,,,,,,,,SPECI,145.0
KPKV 311555Z AUTO 06005KT 10SM CLR 22/18 A3006 RMK AO2 T02190175,KPKV,2022-10-31T15:55:00Z,28.65,-96.68,21.9,17.5,60,5,,10.0,30.059055,,,TRUE,TRUE,,,,,,,CLR,,,,,,,,VFR,,,,,,,,,,,,METAR,8.0
KPHT 311555Z AUTO 22009KT 10SM SCT012 SCT018 OVC032 17/16 A2995 RMK A01,KPHT,2022-10-31T15:55:00Z,36.33,-88.38,17.0,16.0,220,9,,10.0,29.949802,,,TRUE,TRUE,,,,,,,SCT,1200,SCT,1800,OVC,3200,,,VFR,,,,,,,,,,,,METAR,172.0
KPHP 311555Z AUTO 26011KT 10SM CLR 10/M04 A2987 RMK AO2 SLP119 T01001039,KPHP,2022-10-31T15:55:00Z,44.05,-101.6,10.0,-3.9,260,11,,10.0,29.870079,1011.9,,TRUE,TRUE,,,,,,,CLR,,,,,,,,VFR,,,,,,,,,,,,METAR,673.0
KPGV 311555Z AUTO 00000KT 10SM BKN048 OVC060 21/16 A3011 RMK AO2,KPGV,2022-10-31T15:55:00Z,35.63,-77.4,21.0,16.0,0,0,,10.0,30.109253,,,TRUE,TRUE,,,,,,,BKN,4800,OVC,6000,,,,,VFR,,,,,,,,,,,,METAR,6.0
KPEX 311555Z AUTO 21004KT 10SM CLR 12/01 A2987 RMK AO2,KPEX,2022-10-31T15:55:00Z,45.37,-94.73,12.0,1.0,210,4,,10.0,29.870079,,,TRUE,TRUE,,,,,,,CLR,,,,,,,,VFR,,,,,,,,,,,,METAR,359.0
KPDC 311555Z AUTO 00000KT 10SM CLR 09/05 A2989 RMK AO2 T00870052,KPDC,2022-10-31T15:55:00Z,43.02,-91.12,8.7,5.2,0,0,,10.0,29.890747,,,TRUE,TRUE,,,,,,,CLR,,,,,,,,VFR,,,,,,,,,,,,SPECI,201.0
KPCZ 311555Z AUTO 00000KT 10SM CLR 14/07 A2986 RMK AO2 T01400066,KPCZ,2022-10-31T15:55:00Z,44.33,-89.02,14.0,6.6,0,0,,10.0,29.861221,,,TRUE,TRUE,,,,,,,CLR,,,,,,,,VFR,,,,,,,,,,,,METAR,248.0
KPCW 311555Z AUTO 21007KT 10SM BKN013 BKN021 OVC060 17/17 A2985 RMK AO2,KPCW,2022-10-31T15:55:00Z,41.52,-82.87,17.0,17.0,210,7,,10.0,29.84941,,,TRUE,TRUE,,,,,,,BKN,1300,BKN,2100,OVC,6000,,,MVFR,,,,,,,,,,,,METAR,179.0
KPCM 311555Z AUTO 17007KT 10SM SCT029 SCT036 30/22 A3004 RMK AO2,KPCM,2022-10-31T15:55:00Z,28.0,-82.17,30.0,22.0,170,7,,10.0,30.041338,,,TRUE,TRUE,,,,,,,SCT,2900,SCT,3600,,,,,VFR,,,,,,,,,,,,SPECI,43.0
KPBH 311555Z AUTO 00000KT 10SM CLR 09/05 A2985 RMK AO2 T00930052,KPBH,2022-10-31T15:55:00Z,45.7,-90.4,9.3,5.2,0,0,,10.0,29.84941,,,TRUE,TRUE,,,,,,,CLR,,,,,,,,VFR,,,,,,,,,,,,METAR,445.0
KPAN 311555Z AUTO 00000KT 10SM CLR 13/M06 A3013 RMK AO2 PWINO TSNO,KPAN,2022-10-31T15:55:00Z,34.25,-111.33,13.0,-6.0,0,0,,10.0,30.129921,,,TRUE,TRUE,,,TRUE,,TRUE,,CLR,,,,,,,,VFR,,,,,,,,,,,,METAR,1575.0
KPAM 311555Z 02005KT 10SM SCT035 BKN043 22/17 A3003 RMK AO2A RAB02E23 SLP172 T02210166 $,KPAM,2022-10-31T15:55:00Z,30.07,-85.57,22.1,16.6,20,5,,10.0,30.029528,1017.2,,,TRUE,TRUE,,,,,,SCT,3500,BKN,4300,,,,,VFR,,,,,,,,,,,,METAR,4.0
KP08 311555Z AUTO 00000KT 10SM CLR 17/02 A2999 RMK AO2,KP08,2022-10-31T15:55:00Z,32.93,-111.43,17.0,2.0,0,0,,10.0,29.991142,,,TRUE,TRUE,,,,,,,CLR,,,,,,,,VFR,,,,,,,,,,,,METAR,477.0
KOZW 311555Z AUTO 15003KT 7SM OVC003 14/14 A2984 RMK AO2 T01420138 P0001,KOZW,2022-10-31T15:55:00Z,42.62,-83.98,14.2,13.8,150,3,,7.0,29.840551,,,TRUE,TRUE,,,,,,,OVC,300,,,,,,,LIFR,,,,,,0.01,,,,,,METAR,288.0
KOZS 311555Z AUTO 26009KT 10SM CLR 15/10 A2997 RMK AO2,KOZS,2022-10-31T15:55:00Z,37.97,-92.68,15.0,10.0,260,9,,10.0,29.970472,,,TRUE,TRUE,,,,,,,CLR,,,,,,,,VFR,,,,,,,,,,,,SPECI,321.0
KOZR 311555Z AUTO 30007KT 10SM CLR 22/13 A3004 RMK AO2 SLP173 T02150134,KOZR,2022-10-31T15:55:00Z,31.28,-85.72,21.5,13.4,300,7,,10.0,30.041338,1017.3,,TRUE,TRUE,,,,,,,CLR,,,,,,,,VFR,,,,,,,,,,,,METAR,90.0
KOYM 311555Z AUTO 00000KT 10SM SCT028 BKN036 OVC043 12/08 A3001 RMK AO2 PWINO,KOYM,2022-10-31T15:55:00Z,41.42,-78.5,12.0,8.0,0,0,,10.0,30.008858,,,TRUE,TRUE,,,,,TRUE,,SCT,2800,BKN,3600,OVC,4300,,,VFR,,,,,,,,,,,,METAR,582.0
KOXV 311555Z AUTO 31004KT 10SM CLR 12/06 A2992 RMK AO2,KOXV,2022-10-31T15:55:00Z,41.28,-93.12,12.0,6.0,310,4,,10.0,29.920275,,,TRUE,TRUE,,,,,,,CLR,,,,,,,,VFR,,,,,,,,,,,,METAR,280.0
KOXI 311555Z AUTO 20004KT 5SM BKN006 BKN014 OVC038 15/14 A2982 RMK AO1,KOXI,2022-10-31T15:55:00Z,41.33,-86.67,15.0,14.0,200,4,,5.0,29.819881,,,TRUE,TRUE,,,,,,,BKN,600,BKN,1400,OVC,3800,,,IFR,,,,,,,,,,,,METAR,208.0
KOXD 311555Z AUTO 20006KT 10SM BKN013 BKN022 OVC029 18/15 A2990 RMK AO2 T01830146,KOXD,2022-10-31T15:55:00Z,39.5,-84.78,18.3,14.6,200,6,,10.0,29.899607,,,TRUE,TRUE,,,,,,,BKN,1300,BKN,2200,OVC,2900,,,MVFR,,,,,,,,,,,,METAR,317.0
KOVL 311555Z AUTO 22005KT 10SM CLR 11/01 A2987 RMK AO2,KOVL,2022-10-31T15:55:00Z,44.78,-95.03,11.0,1.0,220,5,,10.0,29.870079,,,TRUE,TRUE,,,,,,,CLR,,,,,,,,VFR,,,,,,,,,,,,METAR,329.0
KOSC 311555Z AUTO 00000KT 10SM SCT036 BKN090 15/08 A2986 RMK AO2 T01540082,KOSC,2022-10-31T15:55:00Z,44.45,-83.4,15.4,8.2,0,0,,10.0,29.861221,,,TRUE,TRUE,,,,,,,SCT,3600,BKN,9000,,,,,VFR,,,,,,,,,,,,METAR,191.0
KORS 311555Z AUTO 19011G17KT 6SM -RA BR FEW007 BKN022 OVC030 11/11 A2972 RMK AO2,KORS,2022-10-31T15:55:00Z,48.7,-122.92,11.0,11.0,190,11,17,6.0,29.719488,,,TRUE,TRUE,,,,,,-RA BR,FEW,700,BKN,2200,OVC,3000,,,MVFR,,,,,,,,,,,,METAR,7.0
KONZ 311555Z AUTO 18004KT 2SM -DZ OVC003 14/11 A2984 RMK AO2 T01360109 P0001,KONZ,2022-10-31T15:55:00Z,42.1,-83.15,13.6,10.9,180,4,,2.0,29.840551,,,TRUE,TRUE,,,,,,-DZ,OVC,300,,,,,,,LIFR,,,,,,0.01,,,,,,METAR,179.0
KONM 311555Z AUTO 36010KT 10SM CLR 10/M05 A3015 RMK AO2 T00961053,KONM,2022-10-31T15:55:00Z,34.02,-106.9,9.6,-5.3,360,10,,10.0,30.15059,,,TRUE,TRUE,,,,,,,CLR,,,,,,,,VFR,,,,,,,,,,,,METAR,1467.0
KOMH 311555Z AUTO 19007KT 10SM SCT016 BKN027 OVC110 14/12 A3010 RMK AO2 P0001,KOMH,2022-10-31T15:55:00Z,38.25,-78.05,14.0,12.0,190,7,,10.0,30.100393,,,TRUE,TRUE,,,,,,,SCT,1600,BKN,2700,OVC,11000,,,MVFR,,,,,,0.01,,,,,,METAR,136.0
KOLG 311555Z AUTO 00000KT 10SM CLR 06/03 A2985 RMK AO1,KOLG,2022-10-31T15:55:00Z,46.3,-91.82,6.0,3.0,0,0,,10.0,29.84941,,,TRUE,TRUE,,,,,,,CLR,,,,,,,,VFR,,,,,,,,,,,,METAR,334.0
KOKV 311555Z AUTO 00000KT 10SM OVC100 11/10 A3003 RMK AO2,KOKV,2022-10-31T15:55:00Z,39.13,-78.15,11.0,10.0,0,0,,10.0,30.029528,,,TRUE,TRUE,,,,,,,OVC,10000,,,,,,,VFR,,,,,,,,,,,,METAR,213.0
KOJA 311555Z AUTO 00000KT 10SM CLR 16/06 A3007 RMK AO2 T01580062,KOJA,2022-10-31T15:55:00Z,35.55,-98.67,15.8,6.2,0,0,,10.0,30.070866,,,TRUE,TRUE,,,,,,,CLR,,,,,,,,VFR,,,,,,,,,,,,METAR,490.0
KOIN 311555Z AUTO 26005KT 10SM CLR 13/M02 A3003 RMK AO1 T01311018,KOIN,2022-10-31T15:55:00Z,39.83,-100.53,13.1,-1.8,260,5,,10.0,30.029528,,,TRUE,TRUE,,,,,,,CLR,,,,,,,,VFR,,,,,,,,,,,,METAR,810.0
KOIC 311555Z AUTO 18008KT 10SM CLR 13/07 A3003 RMK AO2 T01280072,KOIC,2022-10-31T15:55:00Z,42.57,-75.52,12.8,7.2,180,8,,10.0,30.029528,,,TRUE,TRUE,,,,,,,CLR,,,,,,,,VFR,,,,,,,,,,,,METAR,311.0
KOFF 311555Z 30005KT 10SM CLR 11/02 A2998 RMK AO2A SLP159 T01140022 PWINO PNO FZRANO TSNO $,KOFF,2022-10-31T15:55:00Z,41.12,-95.92,11.4,2.2,300,5,,10.0,29.97933,1015.9,,,TRUE,TRUE,,TRUE,TRUE,TRUE,,CLR,,,,,,,,VFR,,,,,,,,,,,,METAR,308.0
KOEO 311555Z AUTO 00000KT 10SM CLR 08/08 A2991 RMK AO2 T00790078,KOEO,2022-10-31T15:55:00Z,45.32,-92.7,7.9,7.8,0,0,,10.0,29.911417,,,TRUE,TRUE,,,,,,,CLR,,,,,,,,VFR,,,,,,,,,,,,METAR,269.0
KOEL 311555Z AUTO 25012KT 10SM CLR 16/M07 A3001 RMK AO1 T01631066,KOEL,2022-10-31T15:55:00Z,39.12,-100.82,16.3,-6.6,250,12,,10.0,30.008858,,,TRUE,TRUE,,,,,,,CLR,,,,,,,,VFR,,,,,,,,,,,,METAR,924.0
KOEB 311555Z AUTO 00000KT 7SM BKN002 OVC011 14/14 A2983 RMK AO2 T01440138,KOEB,2022-10-31T15:55:00Z,41.92,-85.05,14.4,13.8,0,0,,7.0,29.828741,,,TRUE,TRUE,,,,,,,BKN,200,OVC,1100,,,,,LIFR,,,,,,,,,,,,METAR,291.0
KOCQ 311555Z AUTO 00000KT 10SM CLR 14/07 A2984 RMK AO1 T01350071,KOCQ,2022-10-31T15:55:00Z,44.87,-87.92,13.5,7.1,0,0,,10.0,29.840551,,,TRUE,TRUE,,,,,,,CLR,,,,,,,,VFR,,,,,,,,,,,,METAR,181.0
KOAR 311555Z AUTO 00000KT 1/4SM FZFG OVC003 M07/M09 A3000 RMK AO2,KOAR,2022-10-31T15:55:00Z,36.67,-121.77,-7.0,-9.0,0,0,,0.25,30.0,,,TRUE,TRUE,,,,,,FZFG,OVC,300,,,,,,,LIFR,,,,,,,,,,,,METAR,41.0
KO69 311555Z AUTO 00000KT 3SM BR OVC005 09/09 A3000 RMK A01,KO69,2022-10-31T15:55:00Z,38.25,-122.6,9.0,9.0,0,0,,3.0,30.0,,,TRUE,TRUE,,,,,,BR,OVC,500,,,,,,,IFR,,,,,,,,,,,,METAR,26.0
KO32 311555Z AUTO 00000KT 10SM CLR 13/04 A2997 RMK AO2 T01300044 $,KO32,2022-10-31T15:55:00Z,36.67,-119.45,13.0,4.4,0,0,,10.0,29.970472,,,TRUE,TRUE,TRUE,,,,,,CLR,,,,,,,,VFR,,,,,,,,,,,,METAR,117.0
KO22 311555Z AUTO 00000KT 10SM CLR 11/04 A3000 RMK A01,KO22,2022-10-31T15:55:00Z,38.03,-120.42,11.0,4.0,0,0,,10.0,30.0,,,TRUE,TRUE,,,,,,,CLR,,,,,,,,VFR,,,,,,,,,,,,METAR,637.0
KO05 311555Z AUTO 00000KT 4SM HZ CLR 02/M07 A3010 RMK A01,KO05,2022-10-31T15:55:00Z,40.28,-121.23,2.0,-7.0,0,0,,4.0,30.100393,,,TRUE,TRUE,,,,,,HZ,CLR,,,,,,,,MVFR,,,,,,,,,,,,METAR,1380.0
KNUQ 311555Z AUTO 00000KT 7SM CLR 12/10 A2998 RMK AO2,KNUQ,2022-10-31T15:55:00Z,37.4,-122.05,12.0,10.0,0,0,,7.0,29.97933,,,TRUE,TRUE,,,,,,,CLR,,,,,,,,VFR,,,,,,,,,,,,METAR,9.0
KNKX 311555Z 06004KT 10SM CLR 18/08 A2993 RMK AO2 SLP131 T01830078 $ ,KNKX,2022-10-31T15:55:00Z,32.87,-117.13,18.3,7.8,60,4,,10.0,29.929134,1013.1,,,TRUE,TRUE,,,,,,CLR,,,,,,,,VFR,,,,,,,,,,,,METAR,138.0
KNBG 311555Z VRB04KT 7SM SCT030 BKN250 22/16 A3007 RMK AO2 SLP180 T02220156 $,KNBG,2022-10-31T15:55:00Z,29.83,-90.02,22.2,15.6,0,4,,7.0,30.070866,1018.0,,,TRUE,TRUE,,,,,,SCT,3000,BKN,25000,,,,,VFR,,,,,,,,,,,,METAR,0.0
KN38 311555Z AUTO 20007KT 10SM BKN100 10/07 A2999 RMK AO2,KN38,2022-10-31T15:55:00Z,41.73,-77.4,10.0,7.0,200,7,,10.0,29.991142,,,TRUE,TRUE,,,,,,,BKN,10000,,,,,,,VFR,,,,,,,,,,,,METAR,576.0
KMZH 311555Z AUTO 23003KT 10SM CLR 09/01 A2984 RMK AO2,KMZH,2022-10-31T15:55:00Z,46.42,-92.8,9.0,1.0,230,3,,10.0,29.840551,,,TRUE,TRUE,,,,,,,CLR,,,,,,,,VFR,,,,,,,,,,,,METAR,331.0
KMYJ 311555Z AUTO 33006KT 10SM 13/11 A2992 RMK AO2,KMYJ,2022-10-31T15:55:00Z,39.15,-91.82,13.0,11.0,330,6,,10.0,29.920275,,,TRUE,TRUE,,,,,,,,,,,,,,,,,,,,,,,,,,,METAR,249.0
KMXF 311555Z AUTO 27005KT 10SM CLR 21/12 A3002 RMK AO2 SLP167 T02070116,KMXF,2022-10-31T15:55:00Z,32.38,-86.37,20.7,11.6,270,5,,10.0,30.02067,1016.7,,TRUE,TRUE,,,,,,,CLR,,,,,,,,VFR,,,,,,,,,,,,METAR,47.0
KMWM 311555Z AUTO 19003KT 10SM CLR 12/01 A2989 RMK AO2,KMWM,2022-10-31T15:55:00Z,43.9,-95.1,12.0,1.0,190,3,,10.0,29.890747,,,TRUE,TRUE,,,,,,,CLR,,,,,,,,VFR,,,,,,,,,,,,METAR,427.0
KMVH 311555Z AUTO 00000KT 10SM CLR 09/M00 A2978 RMK AO2 PWINO,KMVH,2022-10-31T15:55:00Z,46.83,-108.93,9.0,0.0,0,0,,10.0,29.778543,,,TRUE,TRUE,,,,,TRUE,,CLR,,,,,,,,VFR,,,,,,,,,,,,METAR,1352.0
KMVE 311555Z AUTO 00000KT 10SM CLR 10/02 A2986 RMK AO2,KMVE,2022-10-31T15:55:00Z,44.97,-95.72,10.0,2.0,0,0,,10.0,29.861221,,,TRUE,TRUE,,,,,,,CLR,,,,,,,,VFR,,,,,,,,,,,,METAR,319.0
KMUT 311555Z AUTO 33007KT 3SM HZ CLR 14/09 A2989 RMK AO2,KMUT,2022-10-31T15:55:00Z,41.37,-91.15,14.0,9.0,330,7,,3.0,29.890747,,,TRUE,TRUE,,,,,,HZ,CLR,,,,,,,,MVFR,,,,,,,,,,,,METAR,166.0
KMTV 311555Z AUTO 00000KT 10SM OVC007 14/12 A3011 RMK AO2 T01350121,KMTV,2022-10-31T15:55:00Z,36.63,-80.02,13.5,12.1,0,0,,10.0,30.109253,,,TRUE,TRUE,,,,,,,OVC,700,,,,,,,IFR,,,,,,,,,,,,METAR,276.0
KMRN 311555Z AUTO 00000KT 1 1/2SM +RA BKN002 OVC007 14/13 A3011 RMK AO2 P0034 T01360132,KMRN,2022-10-31T15:55:00Z,35.82,-81.62,13.6,13.2,0,0,,1.5,30.109253,,,TRUE,TRUE,,,,,,+RA,BKN,200,OVC,700,,,,,LIFR,,,,,,0.34,,,,,,METAR,375.0
KMRJ 311555Z AUTO 33004KT 10SM CLR 13/05 A2986 RMK AO2,KMRJ,2022-10-31T15:55:00Z,42.88,-90.23,13.0,5.0,330,4,,10.0,29.861221,,,TRUE,TRUE,,,,,,,CLR,,,,,,,,VFR,,,,,,,,,,,,METAR,350.0
KMQJ 311555Z AUTO 20008KT 170V230 10SM OVC011 15/15 A2987 RMK AO1,KMQJ,2022-10-31T15:55:00Z,39.85,-85.9,15.0,15.0,200,8,,10.0,29.870079,,,TRUE,TRUE,,,,,,,OVC,1100,,,,,,,MVFR,,,,,,,,,,,,METAR,262.0
KMOX 311555Z AUTO 17007KT 10SM 09/00 A2984 RMK AO2,KMOX,2022-10-31T15:55:00Z,45.57,-95.97,9.0,0.0,170,7,,10.0,29.840551,,,TRUE,TRUE,,,,,,,,,,,,,,,,,,,,,,,,,,,METAR,346.0
KMOR 311555Z AUTO 15003KT 10SM OVC004 16/16 A3000 RMK A01,KMOR,2022-10-31T15:55:00Z,36.18,-83.37,16.0,16.0,150,3,,10.0,30.0,,,TRUE,TRUE,,,,,,,OVC,400,,,,,,,LIFR,,,,,,,,,,,,METAR,393.0
KMNZ 311555Z AUTO 00000KT 10SM CLR 21/11 A3008 RMK AO2 T02090111,KMNZ,2022-10-31T15:55:00Z,31.67,-98.15,20.9,11.1,0,0,,10.0,30.079725,,,TRUE,TRUE,,,,,,,CLR,,,,,,,,VFR,,,,,,,,,,,,METAR,397.0
KMNV 311555Z AUTO 24007KT 10SM 18/17 A3000 RMK A01,KMNV,2022-10-31T15:55:00Z,35.55,-84.38,18.0,17.0,240,7,,10.0,30.0,,,TRUE,TRUE,,,,,,,,,,,,,,,,,,,,,,,,,,,METAR,306.0
KMNI 311555Z AUTO 24006KT 10SM SCT008 SCT013 BKN031 22/19 A3006 RMK AO2,KMNI,2022-10-31T15:55:00Z,33.58,-80.22,22.0,19.0,240,6,,10.0,30.059055,,,TRUE,TRUE,,,,,,,SCT,800,SCT,1300,BKN,3100,,,VFR,,,,,,,,,,,,METAR,29.0
KMNE 311555Z AUTO 00000KT 10SM CLR 19/16 A3006 RMK AO2 T01880156,KMNE,2022-10-31T15:55:00Z,32.65,-93.3,18.8,15.6,0,0,,10.0,30.059055,,,TRUE,TRUE,,,,,,,CLR,,,,,,,,VFR,,,,,,,,,,,,METAR,84.0
KMMT 311555Z 14007KT 3SM BR OVC003 19/18 A3003 RMK AO2A SLP171 T01850183 $,KMMT,2022-10-31T15:55:00Z,33.92,-80.8,18.5,18.3,140,7,,3.0,30.029528,1017.1,,,TRUE,TRUE,,,,,BR,OVC,300,,,,,,,LIFR,,,,,,,,,,,,METAR,76.0
KMMI 311555Z AUTO 25004KT 10SM OVC008 17/16 A3003 RMK A01,KMMI,2022-10-31T15:55:00Z,35.4,-84.57,17.0,16.0,250,4,,10.0,30.029528,,,TRUE,TRUE,,,,,,,OVC,800,,,,,,,IFR,,,,,,,,,,,,METAR,252.0
KMKN 311555Z AUTO 00000KT 10SM CLR 20/14 A3008 RMK AO2 T02030143,KMKN,2022-10-31T15:55:00Z,31.92,-98.6,20.3,14.3,0,0,,10.0,30.079725,,,TRUE,TRUE,,,,,,,CLR,,,,,,,,VFR,,,,,,,,,,,,METAR,428.0
KMKJ 311555Z AUTO 03004KT 10SM OVC003 12/12 A3009 RMK AO2 T01170115,KMKJ,2022-10-31T15:55:00Z,36.88,-81.33,11.7,11.5,30,4,,10.0,30.088583,,,TRUE,TRUE,,,,,,,OVC,300,,,,,,,LIFR,,,,,,,,,,,,METAR,777.0
KMKG 311555Z 35003KT 10SM BKN027 16/11 A2984 RMK AO2 SLP105 T01560106,KMKG,2022-10-31T15:55:00Z,43.17,-86.23,15.6,10.6,350,3,,10.0,29.840551,1010.5,,,TRUE,,,,,,,BKN,2700,,,,,,,MVFR,,,,,,,,,,,,METAR,190.0
KMIB 311555Z AUTO 27013KT 10SM CLR 09/01 A2969 RMK AO2 SLP065 T00890011 $,KMIB,2022-10-31T15:55:00Z,48.42,-101.35,8.9,1.1,270,13,,10.0,29.68996,1006.5,,TRUE,TRUE,TRUE,,,,,,CLR,,,,,,,,VFR,,,,,,,,,,,,METAR,505.0
KMHR 311555Z AUTO 00000KT 10SM CLR 12/04 A2997 RMK A01,KMHR,2022-10-31T15:55:00Z,38.55,-121.28,12.0,4.0,0,0,,10.0,29.970472,,,TRUE,TRUE,,,,,,,CLR,,,,,,,,VFR,,,,,,,,,,,,METAR,30.0
KMHL 311555Z AUTO 29006KT 10SM CLR 14/08 A2995 RMK AO2,KMHL,2022-10-31T15:55:00Z,39.1,-93.2,14.0,8.0,290,6,,10.0,29.949802,,,TRUE,TRUE,,,,,,,CLR,,,,,,,,VFR,,,,,,,,,,,,METAR,236.0
KMGN 311555Z AUTO 00000KT 10SM CLR 12/06 A2985 RMK AO2 T01230065,KMGN,2022-10-31T15:55:00Z,45.43,-84.92,12.3,6.5,0,0,,10.0,29.84941,,,TRUE,TRUE,,,,,,,CLR,,,,,,,,VFR,,,,,,,,,,,,METAR,205.0
KMGG 311555Z AUTO 22003KT 10SM CLR 12/01 A2988 RMK AO2 T01200007,KMGG,2022-10-31T15:55:00Z,45.23,-93.98,12.0,0.7,220,3,,10.0,29.878937,,,TRUE,TRUE,,,,,,,CLR,,,,,,,,VFR,,,,,,,,,,,,METAR,310.0
KMGE 311555Z 09003KT 3/4SM BR OVC002 16/16 A3001 RMK AO2A SLP161 P0000 T01640162 RVRNO $,KMGE,2022-10-31T15:55:00Z,33.92,-84.52,16.4,16.2,90,3,,0.75,30.008858,1016.1,,,TRUE,TRUE,,,,,BR,OVC,200,,,,,,,LIFR,,,,,,0.005,,,,,,METAR,309.0
KMEZ 311555Z AUTO 00000KT 10SM 17/10 A3004 RMK AO2 T01720099,KMEZ,2022-10-31T15:55:00Z,34.55,-94.2,17.2,9.9,0,0,,10.0,30.041338,,,TRUE,TRUE,,,,,,,,,,,,,,,,,,,,,,,,,,,METAR,320.0
KMEV 311555Z AUTO 00000KT 10SM CLR M00/M09 A3012 RMK AO2,KMEV,2022-10-31T15:55:00Z,38.98,-119.75,0.0,-9.0,0,0,,10.0,30.121063,,,TRUE,TRUE,,,,,,,CLR,,,,,,,,VFR,,,,,,,,,,,,METAR,1437.0
KMDZ 311555Z AUTO 28003KT 10SM CLR 11/06 A2986 RMK AO2 T01090059 PWINO,KMDZ,2022-10-31T15:55:00Z,45.1,-90.3,10.9,5.9,280,3,,10.0,29.861221,,,TRUE,TRUE,,,,,TRUE,,CLR,,,,,,,,VFR,,,,,,,,,,,,METAR,446.0
KMDS 311555Z AUTO 18007KT 10SM CLR 09/04 A2987 RMK AO2,KMDS,2022-10-31T15:55:00Z,44.02,-97.08,9.0,4.0,180,7,,10.0,29.870079,,,TRUE,TRUE,,,,,,,CLR,,,,,,,,VFR,,,,,,,,,,,,METAR,524.0
KMCJ 311555Z AUTO 00000KT 10SM CLR 21/13 A3006 RMK A01,KMCJ,2022-10-31T15:55:00Z,29.72,-95.4,21.0,13.0,0,0,,10.0,30.059055,,,TRUE,TRUE,,,,,,,CLR,,,,,,,,VFR,,,,,,,,,,,,SPECI,70.0
KMCF 311555Z AUTO 18004KT 10SM CLR 28/21 A2998 RMK AO2 SLP155 T02760209 FZRANO $,KMCF,2022-10-31T15:55:00Z,27.85,-82.52,27.6,20.9,180,4,,10.0,29.97933,1015.5,,TRUE,TRUE,TRUE,,,TRUE,,,CLR,,,,,,,,VFR,,,,,,,,,,,,METAR,3.0
KMCD 311555Z AUTO 00000KT 10SM CLR 11/06 A2985 RMK AO2 T01130062,KMCD,2022-10-31T15:55:00Z,45.85,-84.63,11.3,6.2,0,0,,10.0,29.84941,,,TRUE,TRUE,,,,,,,CLR,,,,,,,,VFR,,,,,,,,,,,,METAR,228.0
KMCC 311555Z AUTO 00000KT 10SM 13/05 A2999 RMK AO2,KMCC,2022-10-31T15:55:00Z,38.67,-121.4,13.0,5.0,0,0,,10.0,29.991142,,,TRUE,TRUE,,,,,,,,,,,,,,,,,,,,,,,,,,,METAR,21.0
KMBY 311555Z AUTO 30005KT 10SM CLR 15/08 A2993 RMK AO2,KMBY,2022-10-31T15:55:00Z,39.47,-92.43,15.0,8.0,300,5,,10.0,29.929134,,,TRUE,TRUE,,,,,,,CLR,,,,,,,,VFR,,,,,,,,,,,,METAR,263.0
KMBT 311555Z AUTO 21009KT 10SM BKN018 BKN025 OVC060 18/14 A2997 RMK A01,KMBT,2022-10-31T15:55:00Z,35.88,-86.38,18.0,14.0,210,9,,10.0,29.970472,,,TRUE,TRUE,,,,,,,BKN,1800,BKN,2500,OVC,6000,,,MVFR,,,,,,,,,,,,METAR,187.0
KMBO 311555Z AUTO 25005KT 10SM BKN060 20/16 A3005 RMK AO2,KMBO,2022-10-31T15:55:00Z,32.43,-90.1,20.0,16.0,250,5,,10.0,30.050198,,,TRUE,TRUE,,,,,,,BKN,6000,,,,,,,VFR,,,,,,,,,,,,METAR,98.0
KMAW 311555Z AUTO 31009KT 2SM -RA SCT004 BKN009 OVC019 15/13 A2996 RMK AO1 P0002,KMAW,2022-10-31T15:55:00Z,36.6,-90.0,15.0,13.0,310,9,,2.0,29.958662,,,TRUE,TRUE,,,,,,-RA,SCT,400,BKN,900,OVC,1900,,,IFR,,,,,,0.02,,,,,,METAR,88.0
KMAO 311555Z AUTO 14007KT 10SM CLR 23/17 A3007 RMK AO2,KMAO,2022-10-31T15:55:00Z,34.18,-79.33,23.0,17.0,140,7,,10.0,30.070866,,,TRUE,TRUE,,,,,,,CLR,,,,,,,,VFR,,,,,,,,,,,,METAR,27.0
KMAN 311555Z AUTO 13004KT 9SM CLR 05/00 A3006 RMK A01,KMAN,2022-10-31T15:55:00Z,43.58,-116.52,5.0,0.0,130,4,,9.0,30.059055,,,TRUE,TRUE,,,,,,,CLR,,,,,,,,VFR,,,,,,,,,,,,METAR,773.0
KM91 311555Z AUTO 20009KT 7SM SCT012 BKN031 OVC065 16/15 A2995 RMK A01,KM91,2022-10-31T15:55:00Z,36.53,-86.92,16.0,15.0,200,9,,7.0,29.949802,,,TRUE,TRUE,,,,,,,SCT,1200,BKN,3100,OVC,6500,,,VFR,,,,,,,,,,,,METAR,214.0
KM75 311555Z AUTO 00000KT 10SM CLR 11/03 A2968 RMK A01,KM75,2022-10-31T15:55:00Z,48.37,-107.92,11.0,3.0,0,0,,10.0,29.681103,,,TRUE,TRUE,,,,,,,CLR,,,,,,,,VFR,,,,,,,,,,,,METAR,687.0
KM40 311555Z AUTO 23006KT 9SM OVC010 17/16 A3004 RMK AO2,KM40,2022-10-31T15:55:00Z,33.87,-88.48,17.0,16.0,230,6,,9.0,30.041338,,,TRUE,TRUE,,,,,,,OVC,1000,,,,,,,MVFR,,,,,,,,,,,,METAR,68.0
KM30 311555Z AUTO 24005KT 10SM OVC015 17/15 A2993 RMK AO2 P0001 T01650146,KM30,2022-10-31T15:55:00Z,37.18,-88.75,16.5,14.6,240,5,,10.0,29.929134,,,TRUE,TRUE,,,,,,,OVC,1500,,,,,,,MVFR,,,,,,0.01,,,,,,METAR,116.0
KM25 311555Z AUTO 23006KT 10SM SCT015 OVC032 16/13 A2995 RMK AO2 PWINO,KM25,2022-10-31T15:55:00Z,36.77,-88.58,16.0,13.0,230,6,,10.0,29.949802,,,TRUE,TRUE,,,,,TRUE,,SCT,1500,OVC,3200,,,,,VFR,,,,,,,,,,,,SPECI,157.0
KM21 311555Z AUTO 22009KT 10SM OVC014 17/14 A2994 RMK AO2 T01660139,KM21,2022-10-31T15:55:00Z,37.22,-87.15,16.6,13.9,220,9,,10.0,29.940945,,,TRUE,TRUE,,,,,,,OVC,1400,,,,,,,MVFR,,,,,,,,,,,,METAR,127.0
KM08 311555Z AUTO 23006G13KT 10SM BKN019 OVC025 18/14 A2997 RMK A01,KM08,2022-10-31T15:55:00Z,35.22,-89.05,18.0,14.0,230,6,13,10.0,29.970472,,,TRUE,TRUE,,,,,,,BKN,1900,OVC,2500,,,,,MVFR,,,,,,,,,,,,METAR,149.0
KM04 311555Z AUTO 22009KT 10SM FEW014 FEW019 OVC041 17/15 A2997 RMK A01,KM04,2022-10-31T15:55:00Z,35.58,-89.58,17.0,15.0,220,9,,10.0,29.970472,,,TRUE,TRUE,,,,,,,FEW,1400,FEW,1900,OVC,4100,,,VFR,,,,,,,,,,,,METAR,83.0
KM02 311555Z AUTO 21008G13KT 10SM 15/14 A2996 RMK A01,KM02,2022-10-31T15:55:00Z,36.13,-87.43,15.0,14.0,210,8,13,10.0,29.958662,,,TRUE,TRUE,,,,,,,,,,,,,,,,,,,,,,,,,,,METAR,268.0
KLYV 311555Z AUTO 17003KT 10SM CLR 06/00 A2990 RMK AO2,KLYV,2022-10-31T15:55:00Z,43.62,-96.22,6.0,0.0,170,3,,10.0,29.899607,,,TRUE,TRUE,,,,,,,CLR,,,,,,,,VFR,,,,,,,,,,,,METAR,435.0
KLYO 311555Z AUTO 30004KT 10SM CLR 13/M01 A3003 RMK AO2 T01271008,KLYO,2022-10-31T15:55:00Z,38.35,-98.23,12.7,-0.8,300,4,,10.0,30.029528,,,TRUE,TRUE,,,,,,,CLR,,,,,,,,VFR,,,,,,,,,,,,METAR,515.0
KLXL 311555Z AUTO 20005KT 10SM CLR 10/01 A2984 RMK AO2,KLXL,2022-10-31T15:55:00Z,45.95,-94.33,10.0,1.0,200,5,,10.0,29.840551,,,TRUE,TRUE,,,,,,,CLR,,,,,,,,VFR,,,,,,,,,,,,METAR,335.0
KLWA 311555Z AUTO 00000KT 1 1/2SM BR OVC002 14/13 A2982 RMK AO2 T01400132,KLWA,2022-10-31T15:55:00Z,42.35,-86.25,14.0,13.2,0,0,,1.5,29.819881,,,TRUE,TRUE,,,,,,BR,OVC,200,,,,,,,LIFR,,,,,,,,,,,,METAR,199.0
KLVL 311555Z AUTO 15005KT 10SM BKN023 BKN050 BKN065 20/14 A3011 RMK AO1 T01970140,KLVL,2022-10-31T15:55:00Z,36.78,-77.8,19.7,14.0,150,5,,10.0,30.109253,,,TRUE,TRUE,,,,,,,BKN,2300,BKN,5000,BKN,6500,,,MVFR,,,,,,,,,,,,METAR,98.0
KLUX 311555Z AUTO 00000KT 1 1/4SM +RA OVC003 16/16 A3005 RMK AO2 P0034,KLUX,2022-10-31T15:55:00Z,34.5,-81.95,16.0,16.0,0,0,,1.25,30.050198,,,TRUE,TRUE,,,,,,+RA,OVC,300,,,,,,,LIFR,,,,,,0.34,,,,,,METAR,213.0
KLUM 311555Z AUTO 00000KT 10SM CLR 09/09 A2987 RMK AO2 T00940088 PWINO,KLUM,2022-10-31T15:55:00Z,44.9,-91.87,9.4,8.8,0,0,,10.0,29.870079,,,TRUE,TRUE,,,,,TRUE,,CLR,,,,,,,,VFR,,,,,,,,,,,,METAR,271.0
KLUG 311555Z AUTO 22011KT 10SM BKN023 OVC065 17/14 A2999 RMK A01,KLUG,2022-10-31T15:55:00Z,35.52,-86.8,17.0,14.0,220,11,,10.0,29.991142,,,TRUE,TRUE,,,,,,,BKN,2300,OVC,6500,,,,,MVFR,,,,,,,,,,,,METAR,218.0
KLUF 311555Z AUTO 00000KT 10SM CLR 18/02 A2997 RMK AO2 SLP144 T01830022 $,KLUF,2022-10-31T15:55:00Z,33.53,-112.37,18.3,2.2,0,0,,10.0,29.970472,1014.4,,TRUE,TRUE,TRUE,,,,,,CLR,,,,,,,,VFR,,,,,,,,,,,,METAR,333.0
KLUD 311555Z AUTO 00000KT 10SM CLR 17/11 A3007 RMK AO2 T01740107,KLUD,2022-10-31T15:55:00Z,33.25,-97.58,17.4,10.7,0,0,,10.0,30.070866,,,TRUE,TRUE,,,,,,,CLR,,,,,,,,VFR,,,,,,,,,,,,METAR,319.0
KLTS 311555Z 00000KT 10SM CLR 15/08 A3005 RMK AO2A SLP173 T01450080 $,KLTS,2022-10-31T15:55:00Z,34.67,-99.27,14.5,8.0,0,0,,10.0,30.050198,1017.3,,,TRUE,TRUE,,,,,,CLR,,,,,,,,VFR,,,,,,,,,,,,METAR,416.0
KLSV 311555Z AUTO 00000KT 10SM CLR 15/M05 A3004 RMK AO2 SLP163 T01501049,KLSV,2022-10-31T15:55:00Z,36.23,-115.05,15.0,-4.9,0,0,,10.0,30.041338,1016.3,,TRUE,TRUE,,,,,,,CLR,,,,,,,,VFR,,,,,,,,,,,,METAR,563.0
KLSF 311555Z AUTO 26006KT 10SM BKN016 BKN055 21/17 A3002 RMK AO2 CIG 016V055 BKN016 V SCT SLP169 T02130171 CHINO RWY15 $,KLSF,2022-10-31T15:55:00Z,32.32,-84.97,21.3,17.1,260,6,,10.0,30.02067,1016.9,,TRUE,TRUE,TRUE,,,,,,BKN,1600,BKN,5500,,,,,MVFR,,,,,,,,,,,,METAR,68.0
KLRY 311555Z AUTO 28004KT 10SM CLR 17/07 A2999 RMK AO2,KLRY,2022-10-31T15:55:00Z,38.62,-94.35,17.0,7.0,280,4,,10.0,29.991142,,,TRUE,TRUE,,,,,,,CLR,,,,,,,,VFR,,,,,,,,,,,,METAR,272.0
KLRU 311555Z AUTO 34010KT 10SM CLR 14/M04 A3010 RMK AO2 T01421044,KLRU,2022-10-31T15:55:00Z,32.28,-106.92,14.2,-4.4,340,10,,10.0,30.100393,,,TRUE,TRUE,,,,,,,CLR,,,,,,,,VFR,,,,,,,,,,,,METAR,1355.0
KLRO 311555Z AUTO 15006KT 9SM SCT030 26/22 A3005 RMK AO2,KLRO,2022-10-31T15:55:00Z,32.9,-79.78,26.0,22.0,150,6,,9.0,30.050198,,,TRUE,TRUE,,,,,,,SCT,3000,,,,,,,VFR,,,,,,,,,,,,METAR,3.0
KLQK 311555Z AUTO 3SM -RA BKN005 OVC012 14/14 A3005 RMK AO2 P0009 T01400140,KLQK,2022-10-31T15:55:00Z,34.82,-82.7,14.0,14.0,,,,3.0,30.050198,,,TRUE,TRUE,,,,,,-RA,BKN,500,OVC,1200,,,,,IFR,,,,,,0.09,,,,,,METAR,291.0
KLOR 311555Z AUTO 29006KT 10SM CLR 21/13 A3004 RMK AO2 SLP155 T02140130,KLOR,2022-10-31T15:55:00Z,31.35,-85.75,21.4,13.0,290,6,,10.0,30.041338,1015.5,,TRUE,TRUE,,,,,,,CLR,,,,,,,,VFR,,,,,,,,,,,,METAR,92.0
KLNQ 311555Z AUTO 33004KT 10SM CLR 23/16 A3008 RMK AO2 T02330162,KLNQ,2022-10-31T15:55:00Z,29.35,-89.43,23.3,16.2,330,4,,10.0,30.079725,,,TRUE,TRUE,,,,,,,CLR,,,,,,,,VFR,,,,,,,,,,,,METAR,1.0
KLNP 311555Z AUTO 17006KT 7SM OVC015 14/13 A3004 RMK AO2,KLNP,2022-10-31T15:55:00Z,36.98,-82.52,14.0,13.0,170,6,,7.0,30.041338,,,TRUE,TRUE,,,,,,,OVC,1500,,,,,,,MVFR,,,,,,,,,,,,METAR,817.0
KLNL 311555Z AUTO 26004KT 10SM CLR 13/05 A2984 RMK AO2 T01250051,KLNL,2022-10-31T15:55:00Z,46.15,-89.22,12.5,5.1,260,4,,10.0,29.840551,,,TRUE,TRUE,,,,,,,CLR,,,,,,,,VFR,,,,,,,,,,,,METAR,517.0
KLLJ 311555Z AUTO 00000KT 10SM CLR 07/M03 A3003 RMK AO2 SLP153 T00671028,KLLJ,2022-10-31T15:55:00Z,44.52,-114.22,6.7,-2.8,0,0,,10.0,30.029528,1015.3,,TRUE,TRUE,,,,,,,CLR,,,,,,,,VFR,,,,,,,,,,,,METAR,1535.0
KLKU 311555Z AUTO 21005KT 10SM SCT005 BKN023 OVC100 14/ A3009 RMK AO2 P0002 T0142////,KLKU,2022-10-31T15:55:00Z,38.02,-77.97,14.2,,210,5,,10.0,30.088583,,,TRUE,TRUE,,,,,,,SCT,500,BKN,2300,OVC,10000,,,MVFR,,,,,,0.02,,,,,,METAR,146.0
KLKR 311555Z AUTO 15004KT 9SM OVC006 19/17 A3006 RMK AO2,KLKR,2022-10-31T15:55:00Z,34.72,-80.85,19.0,17.0,150,4,,9.0,30.059055,,,TRUE,TRUE,,,,,,,OVC,600,,,,,,,IFR,,,,,,,,,,,,METAR,166.0
KLJF 311555Z AUTO 24004KT 10SM CLR 12/M01 A2987 RMK AO2,KLJF,2022-10-31T15:55:00Z,45.1,-94.52,12.0,-1.0,240,4,,10.0,29.870079,,,TRUE,TRUE,,,,,,,CLR,,,,,,,,VFR,,,,,,,,,,,,METAR,347.0
KLIC 311555Z AUTO 31004KT 10SM CLR 13/M06 A3004 RMK AO2 SLP160 T01281061,KLIC,2022-10-31T15:55:00Z,39.27,-103.67,12.8,-6.1,310,4,,10.0,30.041338,1016.0,,TRUE,TRUE,,,,,,,CLR,,,,,,,,VFR,,,,,,,,,,,,METAR,1635.0
KLHZ 311555Z AUTO 14004KT 10SM CLR 20/14 A3011 RMK AO2,KLHZ,2022-10-31T15:55:00Z,36.02,-78.33,20.0,14.0,140,4,,10.0,30.109253,,,TRUE,TRUE,,,,,,,CLR,,,,,,,,VFR,,,,,,,,,,,,SPECI,104.0
KLGF 311555Z AUTO 00000KT 9SM CLR 15/M04 A2994 RMK AO2 SLP138 T01541045 TSNO $,KLGF,2022-10-31T15:55:00Z,32.87,-114.4,15.4,-4.5,0,0,,9.0,29.940945,1013.8,,TRUE,TRUE,TRUE,,TRUE,,,,CLR,,,,,,,,VFR,,,,,,,,,,,,METAR,118.0
KLFI 311555Z 16003KT 10SM BKN060 19/14 A3010 RMK AO2A SLP199 T01850138 $,KLFI,2022-10-31T15:55:00Z,37.08,-76.33,18.5,13.8,160,3,,10.0,30.100393,1019.9,,,TRUE,TRUE,,,,,,BKN,6000,,,,,,,VFR,,,,,,,,,,,,METAR,2.0
KLDM 311555Z AUTO 00000KT 10SM CLR 14/07 A2984 RMK AO2 T01430073,KLDM,2022-10-31T15:55:00Z,43.97,-86.4,14.3,7.3,0,0,,10.0,29.840551,,,TRUE,TRUE,,,,,,,CLR,,,,,,,,VFR,,,,,,,,,,,,METAR,194.0
KLDJ 311555Z AUTO 27004KT 10SM CLR 16/09 A3009 RMK AO2 T01580092,KLDJ,2022-10-31T15:55:00Z,40.62,-74.25,15.8,9.2,270,4,,10.0,30.088583,,,TRUE,TRUE,,,,,,,CLR,,,,,,,,VFR,,,,,,,,,,,,METAR,6.0
KLCG 311555Z AUTO 00000KT 10SM CLR 12/05 A2992 RMK AO2 T01230052,KLCG,2022-10-31T15:55:00Z,42.25,-96.98,12.3,5.2,0,0,,10.0,29.920275,,,TRUE,TRUE,,,,,,,CLR,,,,,,,,VFR,,,,,,,,,,,,METAR,434.0
KLBO 311555Z AUTO 28007KT 10SM OVC095 14/11 A2998 RMK AO2,KLBO,2022-10-31T15:55:00Z,37.65,-92.65,14.0,11.0,280,7,,10.0,29.97933,,,TRUE,TRUE,,,,,,,OVC,9500,,,,,,,VFR,,,,,,,,,,,,METAR,399.0
KL52 311555Z AUTO 09005KT M1/4SM FG OVC002 08/08 A2996 RMK A01,KL52,2022-10-31T15:55:00Z,35.1,-120.62,8.0,8.0,90,5,,0.25,29.958662,,,TRUE,TRUE,,,,,,FG,OVC,200,,,,,,,LIFR,,,,,,,,,,,,METAR,3.0
KL35 311555Z AUTO 00000KT 10SM CLR 01/M10 A3019 RMK AO2,KL35,2022-10-31T15:55:00Z,34.27,-116.85,1.0,-10.0,0,0,,10.0,30.188976,,,TRUE,TRUE,,,,,,,CLR,,,,,,,,VFR,,,,,,,,,,,,METAR,2062.0
KL18 311555Z AUTO 00000KT 10SM CLR 19/M01 A2995 RMK AO2,KL18,2022-10-31T15:55:00Z,33.35,-117.25,19.0,-1.0,0,0,,10.0,29.949802,,,TRUE,TRUE,,,,,,,CLR,,,,,,,,VFR,,,,,,,,,,,,METAR,215.0
KL08 311555Z AUTO 00000KT 10SM CLR 17/M04 A2994 RMK AO2,KL08,2022-10-31T15:55:00Z,33.27,-116.32,17.0,-4.0,0,0,,10.0,29.940945,,,TRUE,TRUE,,,,,,,CLR,,,,,,,,VFR,,,,,,,,,,,,METAR,156.0
KKY8 311555Z AUTO 19010G15KT 9SM BKN012 BKN017 17/17 A2991 RMK A01 P0001,KKY8,2022-10-31T15:55:00Z,37.95,-86.87,17.0,17.0,190,10,15,9.0,29.911417,,,TRUE,TRUE,,,,,,,BKN,1200,BKN,1700,,,,,MVFR,,,,,,0.01,,,,,,METAR,124.0
KK70 311555Z AUTO 08007KT 10SM FEW024 FEW033 30/26 A2997 RMK AO2,KK70,2022-10-31T15:55:00Z,25.32,-80.28,30.0,26.0,80,7,,10.0,29.970472,,,TRUE,TRUE,,,,,,,FEW,2400,FEW,3300,,,,,VFR,,,,,,,,,,,,METAR,20.0
KJZI 311555Z AUTO 19007KT 10SM SCT031 SCT038 BKN043 26/21 A3005 RMK AO2,KJZI,2022-10-31T15:55:00Z,32.7,-80.0,26.0,21.0,190,7,,10.0,30.050198,,,TRUE,TRUE,,,,,,,SCT,3100,SCT,3800,BKN,4300,,,VFR,,,,,,,,,,,,METAR,5.0
KJYO 311555Z AUTO 18005KT 10SM OVC100 13/12 A3008 RMK AO2,KJYO,2022-10-31T15:55:00Z,39.07,-77.57,13.0,12.0,180,5,,10.0,30.079725,,,TRUE,TRUE,,,,,,,OVC,10000,,,,,,,VFR,,,,,,,,,,,,METAR,112.0
KJYM 311555Z AUTO 00000KT 4SM BR OVC002 14/13 A2984 RMK AO2 T01380129 P0002,KJYM,2022-10-31T15:55:00Z,41.92,-84.58,13.8,12.9,0,0,,4.0,29.840551,,,TRUE,TRUE,,,,,,BR,OVC,200,,,,,,,LIFR,,,,,,0.02,,,,,,METAR,357.0
KJYL 311555Z AUTO 19005KT 10SM CLR 25/20 A3005 RMK AO2 T02540203,KJYL,2022-10-31T15:55:00Z,32.65,-81.6,25.4,20.3,190,5,,10.0,30.050198,,,TRUE,TRUE,,,,,,,CLR,,,,,,,,VFR,,,,,,,,,,,,METAR,54.0
KJYG 311555Z AUTO 00000KT 10SM CLR 11/02 A2989 RMK AO2 TSNO,KJYG,2022-10-31T15:55:00Z,43.98,-94.55,11.0,2.0,0,0,,10.0,29.890747,,,TRUE,TRUE,,,TRUE,,,,CLR,,,,,,,,VFR,,,,,,,,,,,,METAR,323.0
KJXI 311555Z AUTO 10SM CLR 19/12 A3006 RMK AO2 P0001 T01860124,KJXI,2022-10-31T15:55:00Z,32.7,-94.95,18.6,12.4,,,,10.0,30.059055,,,TRUE,TRUE,,,,,,,CLR,,,,,,,,VFR,,,,,,0.01,,,,,,METAR,130.0
KJWY 311555Z AUTO 00000KT 10SM CLR 20/13 A3008 RMK AO2 T02040134,KJWY,2022-10-31T15:55:00Z,32.45,-96.92,20.4,13.4,0,0,,10.0,30.079725,,,TRUE,TRUE,,,,,,,CLR,,,,,,,,VFR,,,,,,,,,,,,METAR,211.0
KJWG 311555Z AUTO 00000KT 10SM CLR 15/06 A3008 RMK AO2 T01470056,KJWG,2022-10-31T15:55:00Z,35.87,-98.42,14.7,5.6,0,0,,10.0,30.079725,,,TRUE,TRUE,,,,,,,CLR,,,,,,,,VFR,,,,,,,,,,,,METAR,469.0
KJVW 311555Z AUTO 26004KT 10SM BKN060 20/20 A3006 RMK AO2,KJVW,2022-10-31T15:55:00Z,32.3,-90.42,20.0,20.0,260,4,,10.0,30.059055,,,TRUE,TRUE,,,,,,,BKN,6000,,,,,,,VFR,,,,,,,,,,,,METAR,73.0
KJTC 311555Z AUTO 14004KT 9SM CLR 08/M06 A3019 RMK AO2,KJTC,2022-10-31T15:55:00Z,34.13,-109.32,8.0,-6.0,140,4,,9.0,30.188976,,,TRUE,TRUE,,,,,,,CLR,,,,,,,,VFR,,,,,,,,,,,,METAR,2148.0
KJRO 311555Z AUTO 20007KT 10SM SCT015 BKN070 18/15 A2996 RMK AO2,KJRO,2022-10-31T15:55:00Z,,,18.0,15.0,200,7,,10.0,29.958662,,,TRUE,TRUE,,,,,,,SCT,1500,BKN,7000,,,,,VFR,,,,,,,,,,,,METAR,
KJPX 311555Z AUTO 19003KT 10SM OVC007 15/15 A3008 RMK AO2 T01540150,KJPX,2022-10-31T15:55:00Z,40.95,-72.25,15.4,15.0,190,3,,10.0,30.079725,,,TRUE,TRUE,,,,,,,OVC,700,,,,,,,IFR,,,,,,,,,,,,METAR,10.0
KJNX 311555Z AUTO 13005KT 10SM SCT065 22/15 A3009 RMK AO2,KJNX,2022-10-31T15:55:00Z,35.53,-78.38,22.0,15.0,130,5,,10.0,30.088583,,,TRUE,TRUE,,,,,,,SCT,6500,,,,,,,VFR,,,,,,,,,,,,METAR,41.0
KJMR 311555Z AUTO 20003KT 10SM CLR 10/02 A2989 RMK AO2,KJMR,2022-10-31T15:55:00Z,45.88,-93.27,10.0,2.0,200,3,,10.0,29.890747,,,TRUE,TRUE,,,,,,,CLR,,,,,,,,VFR,,,,,,,,,,,,METAR,301.0
KJKJ 311555Z AUTO 20008KT 10SM CLR 08/M01 A2978 RMK AO2 TSNO,KJKJ,2022-10-31T15:55:00Z,46.83,-96.67,8.0,-1.0,200,8,,10.0,29.778543,,,TRUE,TRUE,,,TRUE,,,,CLR,,,,,,,,VFR,,,,,,,,,,,,METAR,280.0
KJFZ 311555Z AUTO 00000KT 10SM OVC004 14/14 A3005 RMK AO2 P0001 T01420141,KJFZ,2022-10-31T15:55:00Z,37.07,-81.8,14.2,14.1,0,0,,10.0,30.050198,,,TRUE,TRUE,,,,,,,OVC,400,,,,,,,LIFR,,,,,,0.01,,,,,,METAR,809.0
KJFX 311555Z AUTO 00000KT 3SM BR SCT007 SCT014 OVC060 17/16 A3003 RMK AO2,KJFX,2022-10-31T15:55:00Z,33.9,-87.32,17.0,16.0,0,0,,3.0,30.029528,,,TRUE,TRUE,,,,,,BR,SCT,700,SCT,1400,OVC,6000,,,MVFR,,,,,,,,,,,,METAR,144.0
KJAQ 311555Z AUTO 00000KT 10SM CLR 15/01 A3000 RMK AO1 T01510011,KJAQ,2022-10-31T15:55:00Z,38.37,-120.8,15.1,1.1,0,0,,10.0,30.0,,,TRUE,TRUE,,,,,,,CLR,,,,,,,,VFR,,,,,,,,,,,,METAR,518.0
KIYA 311555Z AUTO 30003KT CLR 24/12 A3008 RMK AO2 T02370116 PWINO,KIYA,2022-10-31T15:55:00Z,29.98,-92.08,23.7,11.6,300,3,,,30.079725,,,TRUE,TRUE,,,,,TRUE,,CLR,,,,,,,,,,,,,,,,,,,,METAR,4.0
KIXA 311555Z AUTO 11003KT 7SM SCT029 SCT033 BKN047 18/16 A3011 RMK AO2,KIXA,2022-10-31T15:55:00Z,36.33,-77.63,18.0,16.0,110,3,,7.0,30.109253,,,TRUE,TRUE,,,,,,,SCT,2900,SCT,3300,BKN,4700,,,VFR,,,,,,,,,,,,METAR,43.0
KIWA 311555Z 13006KT 10SM CLR 16/02 A2999,KIWA,2022-10-31T15:55:00Z,33.3,-111.65,16.0,2.0,130,6,,10.0,29.991142,,,,,,,,,,,CLR,,,,,,,,VFR,,,,,,,,,,,,METAR,420.0
KIUA 311555Z AUTO 12003KT 10SM OVC045 14/07 A2996 RMK AO2 T01430073,KIUA,2022-10-31T15:55:00Z,42.92,-77.33,14.3,7.3,120,3,,10.0,29.958662,,,TRUE,TRUE,,,,,,,OVC,4500,,,,,,,VFR,,,,,,,,,,,,METAR,248.0
KISQ 311555Z AUTO 20004KT 10SM CLR 13/06 A2983 RMK AO2 T01250062,KISQ,2022-10-31T15:55:00Z,45.97,-86.17,12.5,6.2,200,4,,10.0,29.828741,,,TRUE,TRUE,,,,,,,CLR,,,,,,,,VFR,,,,,,,,,,,,METAR,206.0
KIRS 311555Z AUTO 00000KT 2 1/2SM BR OVC003 14/13 A2983 RMK AO2 T01400127,KIRS,2022-10-31T15:55:00Z,41.8,-85.43,14.0,12.7,0,0,,2.5,29.828741,,,TRUE,TRUE,,,,,,BR,OVC,300,,,,,,,LIFR,,,,,,,,,,,,METAR,282.0
KIRK 311555Z AUTO 33006KT 10SM CLR 14/08 A2992 RMK AO2 SLP135 T01440078,KIRK,2022-10-31T15:55:00Z,40.1,-92.55,14.4,7.8,330,6,,10.0,29.920275,1013.5,,TRUE,TRUE,,,,,,,CLR,,,,,,,,VFR,,,,,,,,,,,,METAR,292.0
KIPJ 311555Z AUTO 00000KT 5SM BR OVC004 14/14 A3007 RMK AO2 T01440140,KIPJ,2022-10-31T15:55:00Z,35.48,-81.17,14.4,14.0,0,0,,5.0,30.070866,,,TRUE,TRUE,,,,,,BR,OVC,400,,,,,,,LIFR,,,,,,,,,,,,METAR,266.0
KIOB 311555Z AUTO 22005KT 10SM BKN011 OVC014 17/15 A2997 RMK AO2 PWINO,KIOB,2022-10-31T15:55:00Z,38.05,-83.98,17.0,15.0,220,5,,10.0,29.970472,,,TRUE,TRUE,,,,,TRUE,,BKN,1100,OVC,1400,,,,,MVFR,,,,,,,,,,,,METAR,301.0
KINS 311555Z AUTO 00000KT 10SM CLR 09/M11 A3009 RMK AO2 SLP172 T00891106,KINS,2022-10-31T15:55:00Z,36.58,-115.68,8.9,-10.6,0,0,,10.0,30.088583,1017.2,,TRUE,TRUE,,,,,,,CLR,,,,,,,,VFR,,,,,,,,,,,,METAR,954.0
KINJ 311555Z AUTO 00000KT 10SM CLR 20/13 A3006 RMK AO2 T02030131,KINJ,2022-10-31T15:55:00Z,32.08,-97.1,20.3,13.1,0,0,,10.0,30.059055,,,TRUE,TRUE,,,,,,,CLR,,,,,,,,VFR,,,,,,,,,,,,METAR,208.0
KINF 311555Z AUTO 00000KT 7SM SCT022 26/21 A3004 RMK AO2,KINF,2022-10-31T15:55:00Z,28.8,-82.32,26.0,21.0,0,0,,7.0,30.041338,,,TRUE,TRUE,,,,,,,SCT,2200,,,,,,,VFR,,,,,,,,,,,,METAR,14.0
KIMS 311555Z AUTO 19006KT 10SM BKN013 OVC036 16/16 A2993 RMK AO2,KIMS,2022-10-31T15:55:00Z,38.75,-85.47,16.0,16.0,190,6,,10.0,29.929134,,,TRUE,TRUE,,,,,,,BKN,1300,OVC,3600,,,,,MVFR,,,,,,,,,,,,METAR,244.0
KIKW 311555Z AUTO 00000KT 7SM OVC029 12/11 A2985 RMK AO2 T01220107,KIKW,2022-10-31T15:55:00Z,43.67,-84.27,12.2,10.7,0,0,,7.0,29.84941,,,TRUE,TRUE,,,,,,,OVC,2900,,,,,,,MVFR,,,,,,,,,,,,METAR,190.0
KIGQ 311555Z AUTO 00000KT 3/4SM BR OVC002 14/14 A2983 RMK AO2 T01380138,KIGQ,2022-10-31T15:55:00Z,41.53,-87.53,13.8,13.8,0,0,,0.75,29.828741,,,TRUE,TRUE,,,,,,BR,OVC,200,,,,,,,LIFR,,,,,,,,,,,,METAR,187.0
KIFA 311555Z AUTO 30005KT 10SM CLR 12/05 A2993 RMK AO2 T01180052,KIFA,2022-10-31T15:55:00Z,42.47,-93.27,11.8,5.2,300,5,,10.0,29.929134,,,TRUE,TRUE,,,,,,,CLR,,,,,,,,VFR,,,,,,,,,,,,METAR,344.0
KIER 311555Z AUTO 28003KT 10SM CLR 24/14 A3006 RMK AO2 T02390143,KIER,2022-10-31T15:55:00Z,31.73,-93.1,23.9,14.3,280,3,,10.0,30.059055,,,TRUE,TRUE,,,,,,,CLR,,,,,,,,VFR,,,,,,,,,,,,METAR,35.0
KIDI 311555Z AUTO 00000KT 10SM OVC013 13/13 A3001 RMK A01,KIDI,2022-10-31T15:55:00Z,40.63,-79.1,13.0,13.0,0,0,,10.0,30.008858,,,TRUE,TRUE,,,,,,,OVC,1300,,,,,,,MVFR,,,,,,,,,,,,METAR,425.0
KIAB 311555Z AUTO 30006KT 10SM CLR 14/01 A3000 RMK AO2 SLP159 T01400013 $,KIAB,2022-10-31T15:55:00Z,37.62,-97.27,14.0,1.3,300,6,,10.0,30.0,1015.9,,TRUE,TRUE,TRUE,,,,,,CLR,,,,,,,,VFR,,,,,,,,,,,,METAR,413.0
KI69 311555Z AUTO 18006KT 10SM OVC010 17/15 A2992 RMK AO2 T01670146,KI69,2022-10-31T15:55:00Z,39.08,-84.22,16.7,14.6,180,6,,10.0,29.920275,,,TRUE,TRUE,,,,,,,OVC,1000,,,,,,,MVFR,,,,,,,,,,,,METAR,238.0
KI68 311555Z AUTO 20006KT 10SM SCT012 BKN020 BKN027 17/15 A2991 RMK AO1 T01700151,KI68,2022-10-31T15:55:00Z,39.47,-84.25,17.0,15.1,200,6,,10.0,29.911417,,,TRUE,TRUE,,,,,,,SCT,1200,BKN,2000,BKN,2700,,,MVFR,,,,,,,,,,,,METAR,274.0
KI67 311555Z AUTO 19008KT 10SM BKN014 OVC037 17/14 A2990 RMK AO1,KI67,2022-10-31T15:55:00Z,39.25,-84.78,17.0,14.0,190,8,,10.0,29.899607,,,TRUE,TRUE,,,,,,,BKN,1400,OVC,3700,,,,,MVFR,,,,,,,,,,,,METAR,177.0
KI35 311555Z AUTO 00000KT 10SM BKN005 OVC020 16/16 A3001 RMK AO2 T01560156,KI35,2022-10-31T15:55:00Z,36.87,-83.37,15.6,15.6,0,0,,10.0,30.008858,,,TRUE,TRUE,,,,,,,BKN,500,OVC,2000,,,,,IFR,,,,,,,,,,,,METAR,467.0
KI23 311555Z AUTO 21010KT 10SM SCT017 SCT025 SCT065 17/14 A2991 RMK AO1,KI23,2022-10-31T15:55:00Z,39.57,-83.42,17.0,14.0,210,10,,10.0,29.911417,,,TRUE,TRUE,,,,,,,SCT,1700,SCT,2500,SCT,6500,,,VFR,,,,,,,,,,,,METAR,298.0
KHZX 311555Z AUTO 21005KT 7SM CLR 11/03 A2982 RMK AO2,KHZX,2022-10-31T15:55:00Z,46.62,-93.32,11.0,3.0,210,5,,7.0,29.819881,,,TRUE,TRUE,,,,,,,CLR,,,,,,,,VFR,,,,,,,,,,,,METAR,374.0
KHZL 311555Z AUTO 15003KT 10SM BKN100 13/08 A3008 RMK AO2,KHZL,2022-10-31T15:55:00Z,40.98,-76.0,13.0,8.0,150,3,,10.0,30.079725,,,TRUE,TRUE,,,,,,,BKN,10000,,,,,,,VFR,,,,,,,,,,,,METAR,481.0
KHZE 311555Z AUTO 26008KT 10SM CLR 09/00 A2979 RMK AO2,KHZE,2022-10-31T15:55:00Z,47.28,-101.58,9.0,0.0,260,8,,10.0,29.790354,,,TRUE,TRUE,,,,,,,CLR,,,,,,,,VFR,,,,,,,,,,,,METAR,542.0
KHZD 311555Z AUTO 23006KT 10SM BKN014 BKN023 OVC028 17/15 A2995 RMK A01,KHZD,2022-10-31T15:55:00Z,36.08,-88.47,17.0,15.0,230,6,,10.0,29.949802,,,TRUE,TRUE,,,,,,,BKN,1400,BKN,2300,OVC,2800,,,MVFR,,,,,,,,,,,,METAR,147.0
KHYW 311555Z AUTO 12004KT 10SM CLR 23/20 A3007 RMK AO2,KHYW,2022-10-31T15:55:00Z,33.83,-79.12,23.0,20.0,120,4,,10.0,30.070866,,,TRUE,TRUE,,,,,,,CLR,,,,,,,,VFR,,,,,,,,,,,,METAR,10.0
KHWY 311555Z AUTO 22004KT 10SM RA SCT026 SCT065 OVC110 17/13 A3010 RMK AO2 T01700133,KHWY,2022-10-31T15:55:00Z,38.58,-77.72,17.0,13.3,220,4,,10.0,30.100393,,,TRUE,TRUE,,,,,,RA,SCT,2600,SCT,6500,OVC,11000,,,VFR,,,,,,,,,,,,METAR,93.0
KHVS 311555Z AUTO 17007KT 10SM FEW012 FEW050 20/17 A3006 RMK AO2,KHVS,2022-10-31T15:55:00Z,34.4,-80.12,20.0,17.0,170,7,,10.0,30.059055,,,TRUE,TRUE,,,,,,,FEW,1200,FEW,5000,,,,,VFR,,,,,,,,,,,,METAR,110.0
KHSP 311555Z AUTO 21008G14KT 10SM DZ OVC004 A3010 RMK AO2 P0005,KHSP,2022-10-31T15:55:00Z,37.95,-79.82,,,210,8,14,10.0,30.100393,,,TRUE,TRUE,,,,,,DZ,OVC,400,,,,,,,LIFR,,,,,,0.05,,,,,,METAR,1148.0
KHSD 311555Z AUTO 00000KT 10SM CLR 16/05 A3005 RMK A01,KHSD,2022-10-31T15:55:00Z,35.6,-97.72,16.0,5.0,0,0,,10.0,30.050198,,,TRUE,TRUE,,,,,,,CLR,,,,,,,,VFR,,,,,,,,,,,,METAR,358.0
KHRX 311555Z AUTO 22005KT 10SM CLR 14/07 A3010 RMK AO2 T01400066,KHRX,2022-10-31T15:55:00Z,34.87,-102.33,14.0,6.6,220,5,,10.0,30.100393,,,TRUE,TRUE,,,,,,,CLR,,,,,,,,VFR,,,,,,,,,,,,METAR,1153.0
KHRT 311555Z 03004KT 10SM CLR 22/14 A3004 RMK AO2A SLP174 T02220135 $,KHRT,2022-10-31T15:55:00Z,30.42,-86.68,22.2,13.5,30,4,,10.0,30.041338,1017.4,,,TRUE,TRUE,,,,,,CLR,,,,,,,,VFR,,,,,,,,,,,,METAR,10.0
KHRJ 311555Z AUTO 13004KT 10SM CLR 21/15 A3009 RMK AO2 T02090150,KHRJ,2022-10-31T15:55:00Z,35.38,-78.73,20.9,15.0,130,4,,10.0,30.088583,,,TRUE,TRUE,,,,,,,CLR,,,,,,,,VFR,,,,,,,,,,,,METAR,55.0
KHOP 311555Z AUTO 22011KT 10SM OVC010 17/16 A2993 RMK AO2 SLP136 T01650163,KHOP,2022-10-31T15:55:00Z,36.67,-87.5,16.5,16.3,220,11,,10.0,29.929134,1013.6,,TRUE,TRUE,,,,,,,OVC,1000,,,,,,,MVFR,,,,,,,,,,,,METAR,170.0
KHON 311555Z AUTO 19003KT 10SM CLR 08/00 A2985 RMK AO2 SLP116 T00830000,KHON,2022-10-31T15:55:00Z,44.38,-98.23,8.3,0.0,190,3,,10.0,29.84941,1011.6,,TRUE,TRUE,,,,,,,CLR,,,,,,,,VFR,,,,,,,,,,,,METAR,391.0
KHOE 311555Z AUTO 14007KT 10SM OVC014 25/20 A3004 RMK AO2 T02500208,KHOE,2022-10-31T15:55:00Z,31.05,-82.78,25.0,20.8,140,7,,10.0,30.041338,,,TRUE,TRUE,,,,,,,OVC,1400,,,,,,,MVFR,,,,,,,,,,,,METAR,56.0
KHNZ 311555Z AUTO 14006KT 10SM CLR 19/13 A3009 RMK AO2 T01850133,KHNZ,2022-10-31T15:55:00Z,36.37,-78.53,18.5,13.3,140,6,,10.0,30.088583,,,TRUE,TRUE,,,,,,,CLR,,,,,,,,VFR,,,,,,,,,,,,METAR,158.0
KHMN 311555Z AUTO 00000KT 10SM CLR 10/00 A3011 RMK AO2 SLP167 T00970000 $,KHMN,2022-10-31T15:55:00Z,32.85,-106.1,9.7,0.0,0,0,,10.0,30.109253,1016.7,,TRUE,TRUE,TRUE,,,,,,CLR,,,,,,,,VFR,,,,,,,,,,,,METAR,1240.0
KHLX 311555Z AUTO 17003KT 10SM OVC003 12/09 A3007 RMK AO2 P0003 T01190090,KHLX,2022-10-31T15:55:00Z,36.77,-80.82,11.9,9.0,170,3,,10.0,30.070866,,,TRUE,TRUE,,,,,,,OVC,300,,,,,,,LIFR,,,,,,0.03,,,,,,METAR,819.0
KHLR 311555Z AUTO 23004KT 9SM CLR 21/11 A3008 RMK AO2 SLP180 T02050111,KHLR,2022-10-31T15:55:00Z,31.13,-97.72,20.5,11.1,230,4,,9.0,30.079725,1018.0,,TRUE,TRUE,,,,,,,CLR,,,,,,,,VFR,,,,,,,,,,,,METAR,271.0
KHLB 311555Z AUTO 19008KT 10SM BKN016 BKN038 OVC070 16/13 A2989 RMK A01,KHLB,2022-10-31T15:55:00Z,39.35,-85.27,16.0,13.0,190,8,,10.0,29.890747,,,TRUE,TRUE,,,,,,,BKN,1600,BKN,3800,OVC,7000,,,MVFR,,,,,,,,,,,,METAR,297.0
KHIF 311555Z AUTO 11015KT 10SM CLR 05/M04 A3014 RMK AO2 SLP197 T00511042,KHIF,2022-10-31T15:55:00Z,41.12,-111.97,5.1,-4.2,110,15,,10.0,30.138779,1019.7,,TRUE,TRUE,,,,,,,CLR,,,,,,,,VFR,,,,,,,,,,,,METAR,1461.0
KHHF 311555Z AUTO 00000KT 10SM CLR 12/06 A3007 RMK AO2 T01240055,KHHF,2022-10-31T15:55:00Z,35.9,-100.4,12.4,5.5,0,0,,10.0,30.070866,,,TRUE,TRUE,,,,,,,CLR,,,,,,,,VFR,,,,,,,,,,,,METAR,729.0
KHFY 311555Z AUTO 19010KT 10SM SCT010 OVC017 16/15 A2988 RMK AO2 T01630152,KHFY,2022-10-31T15:55:00Z,39.63,-86.08,16.3,15.2,190,10,,10.0,29.878937,,,TRUE,TRUE,,,,,,,SCT,1000,OVC,1700,,,,,MVFR,,,,,,,,,,,,METAR,250.0
KHFJ 311555Z AUTO 23007KT 10SM SCT004 12/12 A3000 RMK AO2,KHFJ,2022-10-31T15:55:00Z,36.9,-94.02,12.0,12.0,230,7,,10.0,30.0,,,TRUE,TRUE,,,,,,,SCT,400,,,,,,,VFR,,,,,,,,,,,,METAR,398.0
KHFF 311555Z AUTO 17006KT 10SM SCT055 SCT070 BKN160 21/17 A3004 RMK AO2 SLP174 T02130167 $,KHFF,2022-10-31T15:55:00Z,35.03,-79.5,21.3,16.7,170,6,,10.0,30.041338,1017.4,,TRUE,TRUE,TRUE,,,,,,SCT,5500,SCT,7000,BKN,16000,,,VFR,,,,,,,,,,,,METAR,100.0
KHEY 311555Z AUTO 28003KT 10SM SCT050 21/15 A3002 RMK AO2 SLP166 T02130151,KHEY,2022-10-31T15:55:00Z,31.35,-85.65,21.3,15.1,280,3,,10.0,30.02067,1016.6,,TRUE,TRUE,,,,,,,SCT,5000,,,,,,,VFR,,,,,,,,,,,,METAR,95.0
KHCO 311555Z AUTO 20007KT 10SM CLR 08/02 A2966 RMK AO2,KHCO,2022-10-31T15:55:00Z,48.75,-96.93,8.0,2.0,200,7,,10.0,29.660433,,,TRUE,TRUE,,,,,,,CLR,,,,,,,,VFR,,,,,,,,,,,,METAR,250.0
KHBI 311555Z AUTO 10005KT 10SM SCT018 BKN025 BKN031 20/14 A3009 RMK AO2 T02000144,KHBI,2022-10-31T15:55:00Z,35.65,-79.9,20.0,14.4,100,5,,10.0,30.088583,,,TRUE,TRUE,,,,,,,SCT,1800,BKN,2500,BKN,3100,,,MVFR,,,,,,,,,,,,METAR,199.0
KHAI 311555Z AUTO 00000KT 3SM BR OVC002 14/14 A2984 RMK AO2 T01410136,KHAI,2022-10-31T15:55:00Z,41.97,-85.6,14.1,13.6,0,0,,3.0,29.840551,,,TRUE,TRUE,,,,,,BR,OVC,200,,,,,,,LIFR,,,,,,,,,,,,METAR,250.0
KHAF 311555Z AUTO 15005KT 4SM BR OVC009 12/12 A2999 RMK AO2,KHAF,2022-10-31T15:55:00Z,37.52,-122.5,12.0,12.0,150,5,,4.0,29.991142,,,TRUE,TRUE,,,,,,BR,OVC,900,,,,,,,IFR,,,,,,,,,,,,METAR,11.0
KHAE 311555Z AUTO 30007KT 7SM OVC036 13/11 A2991 RMK AO2,KHAE,2022-10-31T15:55:00Z,39.73,-91.45,13.0,11.0,300,7,,7.0,29.911417,,,TRUE,TRUE,,,,,,,OVC,3600,,,,,,,VFR,,,,,,,,,,,,METAR,230.0
KH71 311555Z AUTO 00000KT 10SM CLR 15/11 A3002 RMK AO2,KH71,2022-10-31T15:55:00Z,36.22,-95.33,15.0,11.0,0,0,,10.0,30.02067,,,TRUE,TRUE,,,,,,,CLR,,,,,,,,VFR,,,,,,,,,,,,METAR,190.0
KGZS 311555Z AUTO 20007KT 10SM BKN017 BKN028 OVC060 17/15 A2999 RMK A01,KGZS,2022-10-31T15:55:00Z,35.15,-87.05,17.0,15.0,200,7,,10.0,29.991142,,,TRUE,TRUE,,,,,,,BKN,1700,BKN,2800,OVC,6000,,,MVFR,,,,,,,,,,,,METAR,198.0
KGYL 311555Z AUTO 23003KT 7SM CLR 10/00 A2988 RMK AO2 T01030000,KGYL,2022-10-31T15:55:00Z,44.77,-94.08,10.3,0.0,230,3,,7.0,29.878937,,,TRUE,TRUE,,,,,,,CLR,,,,,,,,VFR,,,,,,,,,,,,METAR,304.0
KGYB 311555Z AUTO 00000KT 10SM CLR 22/13 A3008 RMK AO2 T02170133,KGYB,2022-10-31T15:55:00Z,30.17,-96.98,21.7,13.3,0,0,,10.0,30.079725,,,TRUE,TRUE,,,,,,,CLR,,,,,,,,VFR,,,,,,,,,,,,METAR,140.0
KGXF 311555Z 03003KT 10SM CLR 16/M01 A2997 RMK AO2A SLP143 T01611010 FZRANO $,KGXF,2022-10-31T15:55:00Z,32.88,-112.72,16.1,-1.0,30,3,,10.0,29.970472,1014.3,,,TRUE,TRUE,,,TRUE,,,CLR,,,,,,,,VFR,,,,,,,,,,,,METAR,261.0
KGWW 311555Z AUTO 14003KT 10SM SCT046 SCT070 21/15 A3011 RMK AO2 T02090149,KGWW,2022-10-31T15:55:00Z,35.47,-77.97,20.9,14.9,140,3,,10.0,30.109253,,,TRUE,TRUE,,,,,,,SCT,4600,SCT,7000,,,,,VFR,,,,,,,,,,,,METAR,40.0
KGWR 311555Z AUTO 22012KT 10SM CLR 10/00 A2979 RMK A01,KGWR,2022-10-31T15:55:00Z,46.22,-97.65,10.0,0.0,220,12,,10.0,29.790354,,,TRUE,TRUE,,,,,,,CLR,,,,,,,,VFR,,,,,,,,,,,,METAR,381.0
KGUR 311555Z AUTO 28016G19KT 10SM CLR 11/M06 A2996 RMK AO2 SLP151 T01091065,KGUR,2022-10-31T15:55:00Z,42.25,-104.72,10.9,-6.5,280,16,19,10.0,29.958662,1015.1,,TRUE,TRUE,,,,,,,CLR,,,,,,,,VFR,,,,,,,,,,,,METAR,1341.0
KGTB 311555Z AUTO 15006KT 10SM OVC140 13/05 A2994 RMK AO2 SLPNO T01270046,KGTB,2022-10-31T15:55:00Z,44.07,-75.72,12.7,4.6,150,6,,10.0,29.940945,,,TRUE,TRUE,,,,,,,OVC,14000,,,,,,,VFR,,,,,,,,,,,,METAR,206.0
KGRN 311555Z AUTO 26009KT 10SM CLR 11/M06 A2991 RMK AO2 T01101064,KGRN,2022-10-31T15:55:00Z,42.8,-102.17,11.0,-6.4,260,9,,10.0,29.911417,,,TRUE,TRUE,,,,,,,CLR,,,,,,,,VFR,,,,,,,,,,,,METAR,1080.0
KGRK 311555Z AUTO 25008KT 10SM CLR 21/11 A3004 RMK AO2 SLP167 T02100105,KGRK,2022-10-31T15:55:00Z,31.07,-97.83,21.0,10.5,250,8,,10.0,30.041338,1016.7,,TRUE,TRUE,,,,,,,CLR,,,,,,,,VFR,,,,,,,,,,,,METAR,311.0
KGRF 311555Z 15011KT 10SM -RA FEW026 BKN034 11/10 A2979 RMK AO2A SLP092 P0007 T01140100 $,KGRF,2022-10-31T15:55:00Z,47.07,-122.57,11.4,10.0,150,11,,10.0,29.790354,1009.2,,,TRUE,TRUE,,,,,-RA,FEW,2600,BKN,3400,,,,,VFR,,,,,,0.07,,,,,,METAR,91.0
KGPI 311555Z 17009KT 10SM OVC041 11/04 A2973 RMK AO2 SLP068 T01110039,KGPI,2022-10-31T15:55:00Z,48.32,-114.25,11.1,3.9,170,9,,10.0,29.731298,1006.8,,,TRUE,,,,,,,OVC,4100,,,,,,,VFR,,,,,,,,,,,,METAR,903.0
KGPH 311555Z AUTO 32004KT 10SM CLR 15/05 A2996 RMK AO2,KGPH,2022-10-31T15:55:00Z,39.33,-94.32,15.0,5.0,320,4,,10.0,29.958662,,,TRUE,TRUE,,,,,,,CLR,,,,,,,,VFR,,,,,,,,,,,,SPECI,233.0
KGNT 311555Z AUTO 35004KT 10SM CLR 03/M06 A3021 RMK AO2 T00331061,KGNT,2022-10-31T15:55:00Z,35.17,-107.9,3.3,-6.1,350,4,,10.0,30.209646,,,TRUE,TRUE,,,,,,,CLR,,,,,,,,VFR,,,,,,,,,,,,METAR,1988.0
KGNG 311555Z AUTO 08010KT 10SM CLR 05/00 A3011 RMK AO2,KGNG,2022-10-31T15:55:00Z,42.92,-114.77,5.0,0.0,80,10,,10.0,30.109253,,,TRUE,TRUE,,,,,,,CLR,,,,,,,,VFR,,,,,,,,,,,,METAR,1128.0
KGLY 311555Z AUTO 25004KT 10SM SCT110 14/10 A2996 RMK AO2,KGLY,2022-10-31T15:55:00Z,38.35,-93.68,14.0,10.0,250,4,,10.0,29.958662,,,TRUE,TRUE,,,,,,,SCT,11000,,,,,,,VFR,,,,,,,,,,,,METAR,247.0
KGKT 311555Z AUTO 00000KT 10SM OVC006 17/16 A3000 RMK A01,KGKT,2022-10-31T15:55:00Z,35.85,-83.53,17.0,16.0,0,0,,10.0,30.0,,,TRUE,TRUE,,,,,,,OVC,600,,,,,,,IFR,,,,,,,,,,,,METAR,305.0
KGHW 311555Z AUTO 21008KT 10SM CLR 11/01 A2985 RMK AO2,KGHW,2022-10-31T15:55:00Z,45.63,-95.32,11.0,1.0,210,8,,10.0,29.84941,,,TRUE,TRUE,,,,,,,CLR,,,,,,,,VFR,,,,,,,,,,,,METAR,423.0
KGGE 311555Z AUTO 12008KT 10SM BKN010 OVC033 23/20 A3007 RMK AO2,KGGE,2022-10-31T15:55:00Z,33.32,-79.32,23.0,20.0,120,8,,10.0,30.070866,,,TRUE,TRUE,,,,,,,BKN,1000,OVC,3300,,,,,MVFR,,,,,,,,,,,,METAR,9.0
KGFA 311555Z AUTO 21015KT 10SM CLR 12/02 A2971 RMK AO2 SLP069 T01200022 $,KGFA,2022-10-31T15:55:00Z,47.5,-111.18,12.0,2.2,210,15,,10.0,29.71063,1006.9,,TRUE,TRUE,TRUE,,,,,,CLR,,,,,,,,VFR,,,,,,,,,,,,METAR,1058.0
KGDJ 311555Z AUTO 00000KT 10SM CLR 16/12 A3009 RMK AO2 T01550122,KGDJ,2022-10-31T15:55:00Z,32.45,-97.82,15.5,12.2,0,0,,10.0,30.088583,,,TRUE,TRUE,,,,,,,CLR,,,,,,,,VFR,,,,,,,,,,,,METAR,235.0
KGCY 311555Z AUTO 20003KT 10SM FEW036 SCT044 BKN080 18/14 A3001 RMK A01,KGCY,2022-10-31T15:55:00Z,36.2,-82.82,18.0,14.0,200,3,,10.0,30.008858,,,TRUE,TRUE,,,,,,,FEW,3600,SCT,4400,BKN,8000,,,VFR,,,,,,,,,,,,METAR,488.0
KGAF 311555Z AUTO 24011KT 9SM CLR 10/01 A2969 RMK AO2,KGAF,2022-10-31T15:55:00Z,48.4,-97.37,10.0,1.0,240,11,,9.0,29.68996,,,TRUE,TRUE,,,,,,,CLR,,,,,,,,VFR,,,,,,,,,,,,SPECI,250.0
KFYG 311555Z AUTO 28006KT 5SM BR OVC013 13/13 A2991 RMK AO2,KFYG,2022-10-31T15:55:00Z,38.58,-91.0,13.0,13.0,280,6,,5.0,29.911417,,,TRUE,TRUE,,,,,,BR,OVC,1300,,,,,,,MVFR,,,,,,,,,,,,METAR,147.0
KFYE 311555Z AUTO 22009KT 10SM FEW020 OVC031 17/13 A2997 RMK A01,KFYE,2022-10-31T15:55:00Z,35.2,-89.38,17.0,13.0,220,9,,10.0,29.970472,,,TRUE,TRUE,,,,,,,FEW,2000,OVC,3100,,,,,VFR,,,,,,,,,,,,METAR,133.0
KFWB 311555Z AUTO 24007KT 9SM BKN006 BKN010 15/13 A2999 RMK AO2,KFWB,2022-10-31T15:55:00Z,36.7,-93.4,15.0,13.0,240,7,,9.0,29.991142,,,TRUE,TRUE,,,,,,,BKN,600,BKN,1000,,,,,IFR,,,,,,,,,,,,METAR,392.0
KFVX 311555Z AUTO 18008KT 10SM SCT024 BKN065 OVC120 18/12 A3008 RMK AO2 T01800120,KFVX,2022-10-31T15:55:00Z,37.35,-78.43,18.0,12.0,180,8,,10.0,30.079725,,,TRUE,TRUE,,,,,,,SCT,2400,BKN,6500,OVC,12000,,,VFR,,,,,,,,,,,,METAR,129.0
KFTN 311555Z AUTO 11007KT 10SM CLR 21/15 A3004 RMK A01,KFTN,2022-10-31T15:55:00Z,28.22,-100.02,21.0,15.0,110,7,,10.0,30.041338,,,TRUE,TRUE,,,,,,,CLR,,,,,,,,VFR,,,,,,,,,,,,METAR,236.0
KFTK 311555Z AUTO 19006KT 10SM M 16/15 A2991 RMK AO2 SLP128 T01640149 $,KFTK,2022-10-31T15:55:00Z,37.9,-85.97,16.4,14.9,190,6,,10.0,29.911417,1012.8,,TRUE,TRUE,TRUE,,,,,,,,,,,,,,,,,,,,,,,,,,METAR,225.0
KFSO 311555Z AUTO 22003KT 10SM CLR 14/02 A2998 RMK AO2 T01420020,KFSO,2022-10-31T15:55:00Z,44.93,-73.1,14.2,2.0,220,3,,10.0,29.97933,,,TRUE,TRUE,,,,,,,CLR,,,,,,,,VFR,,,,,,,,,,,,METAR,70.0
KFSI 311555Z AUTO 17003KT 10SM CLR 16/08 A3004 RMK AO2 SLP170 T01570075,KFSI,2022-10-31T15:55:00Z,34.65,-98.4,15.7,7.5,170,3,,10.0,30.041338,1017.0,,TRUE,TRUE,,,,,,,CLR,,,,,,,,VFR,,,,,,,,,,,,METAR,360.0
KFSE 311555Z AUTO 19012KT 10SM CLR 08/M02 A2976 RMK AO2,KFSE,2022-10-31T15:55:00Z,47.58,-95.77,8.0,-2.0,190,12,,10.0,29.760826,,,TRUE,TRUE,,,,,,,CLR,,,,,,,,VFR,,,,,,,,,,,,METAR,389.0
KFRR 311555Z AUTO 00000KT 10SM OVC100 13/10 A3004 RMK AO1,KFRR,2022-10-31T15:55:00Z,38.92,-78.25,13.0,10.0,0,0,,10.0,30.041338,,,TRUE,TRUE,,,,,,,OVC,10000,,,,,,,VFR,,,,,,,,,,,,METAR,213.0
KFRI 311555Z AUTO 21004KT 10SM CLR 12/04 A3000 RMK AO2 SLP158 T01210043 FZRANO $,KFRI,2022-10-31T15:55:00Z,39.05,-96.77,12.1,4.3,210,4,,10.0,30.0,1015.8,,TRUE,TRUE,TRUE,,,TRUE,,,CLR,,,,,,,,VFR,,,,,,,,,,,,METAR,232.0
KFRH 311555Z AUTO 22007KT 191V251 7SM OVC008 A2990 RMK AO1,KFRH,2022-10-31T15:55:00Z,38.5,-86.63,,,220,7,,7.0,29.899607,,,TRUE,TRUE,,,,,,,OVC,800,,,,,,,IFR,,,,,,,,,,,,METAR,241.0
KFPK 311555Z AUTO 00000KT 4SM BR OVC003 13/12 A2983 RMK AO2 T01250120,KFPK,2022-10-31T15:55:00Z,42.57,-84.82,12.5,12.0,0,0,,4.0,29.828741,,,TRUE,TRUE,,,,,,BR,OVC,300,,,,,,,LIFR,,,,,,,,,,,,METAR,269.0
KFOT 311555Z AUTO 12006KT 8SM OVC024 09/09 A3003 RMK AO1,KFOT,2022-10-31T15:55:00Z,40.55,-124.13,9.0,9.0,120,6,,8.0,30.029528,,,TRUE,TRUE,,,,,,,OVC,2400,,,,,,,MVFR,,,,,,,,,,,,METAR,118.0
KFLY 311555Z AUTO 07005KT CLR 12/M08 A3010 RMK AO2 T01231084 PWINO,KFLY,2022-10-31T15:55:00Z,38.95,-104.57,12.3,-8.4,70,5,,,30.100393,,,TRUE,TRUE,,,,,TRUE,,CLR,,,,,,,,,,,,,,,,,,,,METAR,2096.0
KFKS 311555Z AUTO 00000KT 10SM SCT120 14/08 A2985 RMK AO2 T01350078,KFKS,2022-10-31T15:55:00Z,44.63,-86.2,13.5,7.8,0,0,,10.0,29.84941,,,TRUE,TRUE,,,,,,,SCT,12000,,,,,,,VFR,,,,,,,,,,,,METAR,189.0
KFKN 311555Z AUTO 12003KT 10SM SCT039 OVC050 19/12 A3011 RMK AO2 T01880121,KFKN,2022-10-31T15:55:00Z,36.7,-76.9,18.8,12.1,120,3,,10.0,30.109253,,,TRUE,TRUE,,,,,,,SCT,3900,OVC,5000,,,,,VFR,,,,,,,,,,,,METAR,9.0
KFKA 311555Z AUTO 00000KT 7SM CLR 12/05 A2989 RMK AO2 T01240052,KFKA,2022-10-31T15:55:00Z,43.68,-92.17,12.4,5.2,0,0,,7.0,29.890747,,,TRUE,TRUE,,,,,,,CLR,,,,,,,,VFR,,,,,,,,,,,,METAR,388.0
KFHU 311555Z AUTO 10003KT 10SM CLR 16/M03 A3010 RMK AO2 SLP159 T01561029 $,KFHU,2022-10-31T15:55:00Z,31.58,-110.35,15.6,-2.9,100,3,,10.0,30.100393,1015.9,,TRUE,TRUE,TRUE,,,,,,CLR,,,,,,,,VFR,,,,,,,,,,,,METAR,1424.0
KFGX 311555Z AUTO 23010KT 10SM BKN015 BKN020 OVC065 18/15 A2996 RMK AO2 T01760146,KFGX,2022-10-31T15:55:00Z,38.55,-83.75,17.6,14.6,230,10,,10.0,29.958662,,,TRUE,TRUE,,,,,,,BKN,1500,BKN,2000,OVC,6500,,,MVFR,,,,,,,,,,,,METAR,279.0
KFGN 311555Z AUTO 23011KT 10SM CLR 08/00 A2965 RMK AO2,KFGN,2022-10-31T15:55:00Z,49.32,-94.9,8.0,0.0,230,11,,10.0,29.648623,,,TRUE,TRUE,,,,,,,CLR,,,,,,,,VFR,,,,,,,,,,,,METAR,327.0
KFFX 311555Z AUTO 00000KT 10SM SCT023 SCT034 OVC042 14/09 A2984 RMK AO2 T01420087,KFFX,2022-10-31T15:55:00Z,43.43,-86.0,14.2,8.7,0,0,,10.0,29.840551,,,TRUE,TRUE,,,,,,,SCT,2300,SCT,3400,OVC,4200,,,VFR,,,,,,,,,,,,METAR,234.0
KFFO 311555Z 19011KT 10SM BKN014 OVC022 17/14 A2987 RMK AO2A SLP116 T01680144,KFFO,2022-10-31T15:55:00Z,39.83,-84.03,16.8,14.4,190,11,,10.0,29.870079,1011.6,,,TRUE,,,,,,,BKN,1400,OVC,2200,,,,,MVFR,,,,,,,,,,,,METAR,250.0
KFFM 311555Z AUTO 18009KT 10SM CLR 12/01 A2979 RMK AO2,KFFM,2022-10-31T15:55:00Z,46.28,-96.15,12.0,1.0,180,9,,10.0,29.790354,,,TRUE,TRUE,,,,,,,CLR,,,,,,,,VFR,,,,,,,,,,,,METAR,362.0
KFFA 311555Z AUTO 00000KT 10SM CLR 18/13 A3011 RMK AO2 T01840134,KFFA,2022-10-31T15:55:00Z,36.02,-75.67,18.4,13.4,0,0,,10.0,30.109253,,,TRUE,TRUE,,,,,,,CLR,,,,,,,,VFR,,,,,,,,,,,,METAR,2.0
KFET 311555Z AUTO 00000KT 10SM CLR 12/02 A2996 RMK AO2 T01150021,KFET,2022-10-31T15:55:00Z,41.45,-96.52,11.5,2.1,0,0,,10.0,29.958662,,,TRUE,TRUE,,,,,,,CLR,,,,,,,,VFR,,,,,,,,,,,,METAR,366.0
KFDW 311555Z AUTO 15007KT 5SM BR OVC003 17/17 A3005 RMK AO1,KFDW,2022-10-31T15:55:00Z,34.32,-81.12,17.0,17.0,150,7,,5.0,30.050198,,,TRUE,TRUE,,,,,,BR,OVC,300,,,,,,,LIFR,,,,,,,,,,,,METAR,174.0
KFCS 311555Z AUTO 35007KT 10SM CLR 12/M09 A3004 RMK AO2 SLP168 T01161094 $,KFCS,2022-10-31T15:55:00Z,38.67,-104.77,11.6,-9.4,350,7,,10.0,30.041338,1016.8,,TRUE,TRUE,TRUE,,,,,,CLR,,,,,,,,VFR,,,,,,,,,,,,METAR,1789.0
KFBL 311555Z AUTO 20004KT 10SM CLR 08/03 A2989 RMK AO2,KFBL,2022-10-31T15:55:00Z,44.33,-93.32,8.0,3.0,200,4,,10.0,29.890747,,,TRUE,TRUE,,,,,,,CLR,,,,,,,,VFR,,,,,,,,,,,,METAR,318.0
KFBG 311555Z AUTO 11004KT 10SM FEW060 SCT170 22/16 A3006 RMK AO2 SLP181 T02150156,KFBG,2022-10-31T15:55:00Z,35.12,-78.92,21.5,15.6,110,4,,10.0,30.059055,1018.1,,TRUE,TRUE,,,,,,,FEW,6000,SCT,17000,,,,,VFR,,,,,,,,,,,,METAR,69.0
KFAF 311555Z 18006KT 10SM FEW045 BKN055 BKN070 17/13 A3009 RMK AO2A SLP193 T01700127 $,KFAF,2022-10-31T15:55:00Z,37.13,-76.62,17.0,12.7,180,6,,10.0,30.088583,1019.3,,,TRUE,TRUE,,,,,,FEW,4500,BKN,5500,BKN,7000,,,VFR,,,,,,,,,,,,METAR,3.0
KF70 311555Z AUTO 01003KT 10SM CLR 15/00 A2997 RMK AO2,KF70,2022-10-31T15:55:00Z,33.57,-117.13,15.0,0.0,10,3,,10.0,29.970472,,,TRUE,TRUE,,,,,,,CLR,,,,,,,,VFR,,,,,,,,,,,,METAR,406.0
KF46 311555Z AUTO 00000KT 10SM CLR 18/12 A3007 RMK AO2 T01810123,KF46,2022-10-31T15:55:00Z,32.93,-96.43,18.1,12.3,0,0,,10.0,30.070866,,,TRUE,TRUE,,,,,,,CLR,,,,,,,,VFR,,,,,,,,,,,,METAR,175.0
KF44 311555Z AUTO 00000KT 10SM CLR 20/12 A3005 RMK AO2,KF44,2022-10-31T15:55:00Z,32.17,-95.83,20.0,12.0,0,0,,10.0,30.050198,,,TRUE,TRUE,,,,,,,CLR,,,,,,,,VFR,,,,,,,,,,,,METAR,137.0
KF17 311555Z AUTO 29004KT 10SM CLR 21/12 A3008 RMK AO2,KF17,2022-10-31T15:55:00Z,31.83,-94.15,21.0,12.0,290,4,,10.0,30.079725,,,TRUE,TRUE,,,,,,,CLR,,,,,,,,VFR,,,,,,,,,,,,METAR,93.0
KF05 311555Z AUTO 00000KT 10SM CLR 15/12 A3007 RMK AO2 T01540121,KF05,2022-10-31T15:55:00Z,34.23,-99.28,15.4,12.1,0,0,,10.0,30.070866,,,TRUE,TRUE,,,,,,,CLR,,,,,,,,VFR,,,,,,,,,,,,METAR,384.0
KEZS 311555Z AUTO 00000KT 10SM CLR 13/08 A2985 RMK AO2 T01320079,KEZS,2022-10-31T15:55:00Z,44.78,-88.57,13.2,7.9,0,0,,10.0,29.84941,,,TRUE,TRUE,,,,,,,CLR,,,,,,,,VFR,,,,,,,,,,,,SPECI,247.0
KEZM 311555Z AUTO 21004KT 10SM OVC010 22/20 A3004 RMK AO2,KEZM,2022-10-31T15:55:00Z,32.22,-83.13,22.0,20.0,210,4,,10.0,30.041338,,,TRUE,TRUE,,,,,,,OVC,1000,,,,,,,MVFR,,,,,,,,,,,,SPECI,86.0
KEZF 311555Z AUTO 21005KT 10SM SCT024 SCT039 19/12 A3006 RMK AO2 T01880118,KEZF,2022-10-31T15:55:00Z,38.27,-77.45,18.8,11.8,210,5,,10.0,30.059055,,,TRUE,TRUE,,,,,,,SCT,2400,SCT,3900,,,,,VFR,,,,,,,,,,,,METAR,26.0
KEYF 311555Z AUTO 06004KT 10SM SCT047 OVC065 22/17 A3009 RMK AO2 T02220171,KEYF,2022-10-31T15:55:00Z,34.6,-78.58,22.2,17.1,60,4,,10.0,30.088583,,,TRUE,TRUE,,,,,,,SCT,4700,OVC,6500,,,,,VFR,,,,,,,,,,,,METAR,39.0
KEXX 311555Z AUTO 17003KT 10SM OVC012 17/17 A3007 RMK AO2 P0001 T01670167,KEXX,2022-10-31T15:55:00Z,35.78,-80.3,16.7,16.7,170,3,,10.0,30.070866,,,TRUE,TRUE,,,,,,,OVC,1200,,,,,,,MVFR,,,,,,0.01,,,,,,METAR,221.0
KEVU 311555Z AUTO 32005KT 10SM CLR 14/07 A2995 RMK AO2 T01460072,KEVU,2022-10-31T15:55:00Z,40.35,-94.92,14.6,7.2,320,5,,10.0,29.949802,,,TRUE,TRUE,,,,,,,CLR,,,,,,,,VFR,,,,,,,,,,,,METAR,351.0
KEVM 311555Z AUTO 22005KT 10SM CLR 09/01 A2980 RMK AO2 T00850008,KEVM,2022-10-31T15:55:00Z,47.42,-92.5,8.5,0.8,220,5,,10.0,29.799213,,,TRUE,TRUE,,,,,,,CLR,,,,,,,,VFR,,,,,,,,,,,,METAR,419.0
KETB 311555Z AUTO 08004KT 10SM CLR 14/06 A2985 RMK AO2,KETB,2022-10-31T15:55:00Z,43.42,-88.13,14.0,6.0,80,4,,10.0,29.84941,,,TRUE,TRUE,,,,,,,CLR,,,,,,,,VFR,,,,,,,,,,,,METAR,269.0
KERV 311555Z AUTO 00000KT 10SM CLR 16/11 A3008 RMK AO2 T01560107,KERV,2022-10-31T15:55:00Z,29.98,-99.08,15.6,10.7,0,0,,10.0,30.079725,,,TRUE,TRUE,,,,,,,CLR,,,,,,,,VFR,,,,,,,,,,,,METAR,483.0
KEOE 311555Z AUTO 17005KT 5SM BR OVC003 18/17 A3007 RMK AO2,KEOE,2022-10-31T15:55:00Z,34.32,-81.63,18.0,17.0,170,5,,5.0,30.070866,,,TRUE,TRUE,,,,,,BR,OVC,300,,,,,,,LIFR,,,,,,,,,,,,METAR,166.0
KEMV 311555Z AUTO 18005KT 10SM SCT055 BKN100 19/13 A3012 RMK AO2 T01850132,KEMV,2022-10-31T15:55:00Z,36.68,-77.48,18.5,13.2,180,5,,10.0,30.121063,,,TRUE,TRUE,,,,,,,SCT,5500,BKN,10000,,,,,VFR,,,,,,,,,,,,METAR,35.0
KELO 311555Z AUTO 22007KT 10SM CLR 11/M02 A2977 RMK AO2,KELO,2022-10-31T15:55:00Z,47.82,-91.83,11.0,-2.0,220,7,,10.0,29.769686,,,TRUE,TRUE,,,,,,,CLR,,,,,,,,VFR,,,,,,,,,,,,METAR,438.0
KELK 311555Z AUTO 20003KT 10SM CLR 16/05 A3007 RMK AO2 SLP465 T01590054 $,KELK,2022-10-31T15:55:00Z,35.43,-99.4,15.9,5.4,200,3,,10.0,30.070866,1046.5,,TRUE,TRUE,TRUE,,,,,,CLR,,,,,,,,VFR,,,,,,,,,,,,METAR,603.0
KEKX 311555Z AUTO 21011KT 10SM SCT014 BKN019 OVC029 17/14 A2994 RMK AO2 T01730142,KEKX,2022-10-31T15:55:00Z,37.68,-85.92,17.3,14.2,210,11,,10.0,29.940945,,,TRUE,TRUE,,,,,,,SCT,1400,BKN,1900,OVC,2900,,,MVFR,,,,,,,,,,,,METAR,234.0
KEKS 311555Z AUTO 16018G25KT 10SM OVC070 07/M01 A3002 RMK AO2,KEKS,2022-10-31T15:55:00Z,45.27,-111.65,7.0,-1.0,160,18,25,10.0,30.02067,,,TRUE,TRUE,,,,,,,OVC,7000,,,,,,,VFR,,,,,,,,,,,,METAR,1636.0
KEKM 311555Z 16003KT 6SM -RA BR OVC002 14/14 A2984 RMK AO2 CIG 001V003 P0000 T01420142,KEKM,2022-10-31T15:55:00Z,41.72,-86.0,14.2,14.2,160,3,,6.0,29.840551,,,,TRUE,,,,,,-RA BR,OVC,200,,,,,,,LIFR,,,,,,0.005,,,,,,METAR,236.0
KEIK 311555Z AUTO 00000KT 10SM CLR 10/M03 A3003 RMK AO2 T00951031 PWINO,KEIK,2022-10-31T15:55:00Z,40.02,-105.05,9.5,-3.1,0,0,,10.0,30.029528,,,TRUE,TRUE,,,,,TRUE,,CLR,,,,,,,,VFR,,,,,,,,,,,,METAR,1551.0
KEHO 311555Z AUTO 33004KT 1 1/2SM +RA OVC003 14/14 A3007 RMK AO2 P0005 T01350135,KEHO,2022-10-31T15:55:00Z,35.25,-81.6,13.5,13.5,330,4,,1.5,30.070866,,,TRUE,TRUE,,,,,,+RA,OVC,300,,,,,,,LIFR,,,,,,0.05,,,,,,METAR,261.0
KEGI 311555Z AUTO 31008KT 10SM CLR 22/13 A3004 RMK AO2 SLP172 T02200128 $,KEGI,2022-10-31T15:55:00Z,30.65,-86.52,22.0,12.8,310,8,,10.0,30.041338,1017.2,,TRUE,TRUE,TRUE,,,,,,CLR,,,,,,,,VFR,,,,,,,,,,,,METAR,59.0
KEFT 311555Z AUTO 04006KT 10SM CLR 14/06 A2986 RMK AO2 T01350056,KEFT,2022-10-31T15:55:00Z,42.62,-89.6,13.5,5.6,40,6,,10.0,29.861221,,,TRUE,TRUE,,,,,,,CLR,,,,,,,,VFR,,,,,,,,,,,,SPECI,332.0
KEFK 311555Z AUTO 15004KT 10SM CLR 15/M04 A2999 RMK AO2 T01531042,KEFK,2022-10-31T15:55:00Z,44.88,-72.23,15.3,-4.2,150,4,,10.0,29.991142,,,TRUE,TRUE,,,,,,,CLR,,,,,,,,VFR,,,,,,,,,,,,METAR,282.0
KEDW 311555Z 00000KT 90SM SCT250 06/M12 A3003 RMK AO2A SLP169 CONTRAILS T00621119,KEDW,2022-10-31T15:55:00Z,34.9,-117.87,6.2,-11.9,0,0,,90.0,30.029528,1016.9,,,TRUE,,,,,,,SCT,25000,,,,,,,VFR,,,,,,,,,,,,METAR,698.0
KEDU 311555Z AUTO 35003KT 10SM CLR 09/07 A3000 RMK AO1,KEDU,2022-10-31T15:55:00Z,38.53,-121.78,9.0,7.0,350,3,,10.0,30.0,,,TRUE,TRUE,,,,,,,CLR,,,,,,,,VFR,,,,,,,,,,,,METAR,20.0
KEDN 311555Z AUTO 31004KT 10SM CLR 20/13 A3005 RMK AO2 T02000131,KEDN,2022-10-31T15:55:00Z,31.3,-85.9,20.0,13.1,310,4,,10.0,30.050198,,,TRUE,TRUE,,,,,,,CLR,,,,,,,,VFR,,,,,,,,,,,,METAR,103.0
KEDE 311555Z AUTO 11005KT 10SM SCT048 OVC060 20/16 A3012 RMK AO2 T02010155,KEDE,2022-10-31T15:55:00Z,36.03,-76.57,20.1,15.5,110,5,,10.0,30.121063,,,TRUE,TRUE,,,,,,,SCT,4800,OVC,6000,,,,,VFR,,,,,,,,,,,,METAR,4.0
KECS 311555Z AUTO 15003KT 10SM CLR 06/M09 A2995 RMK AO2,KECS,2022-10-31T15:55:00Z,43.88,-104.32,6.0,-9.0,150,3,,10.0,29.949802,,,TRUE,TRUE,,,,,,,CLR,,,,,,,,VFR,,,,,,,,,,,,METAR,1273.0
KEAT 311555Z AUTO 26004KT 10SM OVC095 10/06 A2978 RMK AO2 RAB1456E08 SLP083 P0000 T01000061,KEAT,2022-10-31T15:55:00Z,47.4,-120.2,10.0,6.1,260,4,,10.0,29.778543,1008.3,,TRUE,TRUE,,,,,,,OVC,9500,,,,,,,VFR,,,,,,0.005,,,,,,METAR,375.0
KDZB 311555Z AUTO 10SM CLR 20/12 A3008 RMK AO2 T01980118,KDZB,2022-10-31T15:55:00Z,30.53,-98.37,19.8,11.8,,,,10.0,30.079725,,,TRUE,TRUE,,,,,,,CLR,,,,,,,,VFR,,,,,,,,,,,,METAR,329.0
KDYT 311555Z AUTO 21010KT 10SM CLR 10/01 A2981 RMK AO2,KDYT,2022-10-31T15:55:00Z,46.72,-92.03,10.0,1.0,210,10,,10.0,29.811024,,,TRUE,TRUE,,,,,,,CLR,,,,,,,,VFR,,,,,,,,,,,,METAR,185.0
KDYS 311555Z 00000KT 10SM CLR 17/09 A3005 RMK AO2A SLP156 T01680085,KDYS,2022-10-31T15:55:00Z,32.42,-99.83,16.8,8.5,0,0,,10.0,30.050198,1015.6,,,TRUE,,,,,,,CLR,,,,,,,,VFR,,,,,,,,,,,,METAR,544.0
KDYB 311555Z AUTO 17007KT 10SM CLR 25/22 A3004 RMK AO2,KDYB,2022-10-31T15:55:00Z,33.07,-80.28,25.0,22.0,170,7,,10.0,30.041338,,,TRUE,TRUE,,,,,,,CLR,,,,,,,,VFR,,,,,,,,,,,,METAR,15.0
KDYA 311555Z AUTO 21004KT 7SM OVC050 19/16 A3005 RMK AO2 T01880156,KDYA,2022-10-31T15:55:00Z,32.47,-87.95,18.8,15.6,210,4,,7.0,30.050198,,,TRUE,TRUE,,,,,,,OVC,5000,,,,,,,VFR,,,,,,,,,,,,METAR,33.0
KDXX 311555Z AUTO 21006KT 10SM CLR 13/02 A2986 RMK AO2,KDXX,2022-10-31T15:55:00Z,44.98,-96.18,13.0,2.0,210,6,,10.0,29.861221,,,TRUE,TRUE,,,,,,,CLR,,,,,,,,VFR,,,,,,,,,,,,METAR,327.0
KDUH 311555Z AUTO 21004KT 1 1/4SM BR OVC005 16/15 A2985 RMK AO2 T01590150,KDUH,2022-10-31T15:55:00Z,41.73,-83.65,15.9,15.0,210,4,,1.25,29.84941,,,TRUE,TRUE,,,,,,BR,OVC,500,,,,,,,IFR,,,,,,,,,,,,METAR,203.0
KDUA 311555Z AUTO 32003KT 10SM CLR 20/10 A3007 RMK AO2,KDUA,2022-10-31T15:55:00Z,33.95,-96.4,20.0,10.0,320,3,,10.0,30.070866,,,TRUE,TRUE,,,,,,,CLR,,,,,,,,VFR,,,,,,,,,,,,METAR,209.0
KDTL 311555Z AUTO 22010G15KT 10SM CLR 11/M00 A2978 RMK AO2,KDTL,2022-10-31T15:55:00Z,46.82,-95.88,11.0,0.0,220,10,15,10.0,29.778543,,,TRUE,TRUE,,,,,,,CLR,,,,,,,,VFR,,,,,,,,,,,,METAR,425.0
KDTA 311555Z AUTO 00000KT 10SM CLR 02/M02 A3019 RMK AO1,KDTA,2022-10-31T15:55:00Z,39.38,-112.5,2.0,-2.0,0,0,,10.0,30.188976,,,TRUE,TRUE,,,,,,,CLR,,,,,,,,VFR,,,,,,,,,,,,METAR,1452.0
KDRM 311555Z AUTO 12004KT 10SM CLR 12/08 A2985 RMK AO2 T01150076,KDRM,2022-10-31T15:55:00Z,46.0,-83.75,11.5,7.6,120,4,,10.0,29.84941,,,TRUE,TRUE,,,,,,,CLR,,,,,,,,VFR,,,,,,,,,,,,METAR,201.0
KDRI 311555Z AUTO 00000KT 7SM CLR 20/15 A3009 RMK AO2 T02020152 $,KDRI,2022-10-31T15:55:00Z,30.83,-93.33,20.2,15.2,0,0,,7.0,30.088583,,,TRUE,TRUE,TRUE,,,,,,CLR,,,,,,,,VFR,,,,,,,,,,,,METAR,59.0
KDOV 311555Z AUTO 20005KT 10SM FEW026 SCT100 18/11 A3007 RMK AO2 VIS 2 1/2 RWY14 VIS 2 1/2 RWY19 SLP186 T01790110,KDOV,2022-10-31T15:55:00Z,39.12,-75.47,17.9,11.0,200,5,,10.0,30.070866,1018.6,,TRUE,TRUE,,,,,,,FEW,2600,SCT,10000,,,,,VFR,,,,,,,,,,,,METAR,6.0
KDNN 311555Z AUTO VRB03KT 8SM OVC007 16/15 A3003 RMK AO2 CIG 004V009 T01630153,KDNN,2022-10-31T15:55:00Z,34.72,-84.87,16.3,15.3,0,3,,8.0,30.029528,,,TRUE,TRUE,,,,,,,OVC,700,,,,,,,IFR,,,,,,,,,,,,METAR,216.0
KDNA 311555Z AUTO 00000KT 10SM CLR 15/01 A3009 RMK AO2,KDNA,2022-10-31T15:55:00Z,31.88,-106.7,15.0,1.0,0,0,,10.0,30.088583,,,TRUE,TRUE,,,,,,,CLR,,,,,,,,VFR,,,,,,,,,,,,METAR,1254.0
KDMA 311555Z AUTO 18006KT 10SM CLR 15/M02 A3000 RMK AO2 SLP179 T01531017 $,KDMA,2022-10-31T15:55:00Z,32.17,-110.88,15.3,-1.7,180,6,,10.0,30.0,1017.9,,TRUE,TRUE,TRUE,,,,,,CLR,,,,,,,,VFR,,,,,,,,,,,,METAR,804.0
KDLZ 311555Z AUTO 19012KT 10SM SCT014 BKN020 OVC065 17/14 A2990 RMK AO2,KDLZ,2022-10-31T15:55:00Z,40.28,-83.12,17.0,14.0,190,12,,10.0,29.899607,,,TRUE,TRUE,,,,,,,SCT,1400,BKN,2000,OVC,6500,,,MVFR,,,,,,,,,,,,METAR,287.0
KDLL 311555Z AUTO 00000KT 10SM CLR 10/05 A2986 RMK AO2 T01040054,KDLL,2022-10-31T15:55:00Z,43.52,-89.77,10.4,5.4,0,0,,10.0,29.861221,,,TRUE,TRUE,,,,,,,CLR,,,,,,,,VFR,,,,,,,,,,,,SPECI,297.0
KDLH 311555Z 24009KT 10SM CLR 13/00 A2981 RMK AO2 SLP104 T01330000,KDLH,2022-10-31T15:55:00Z,46.85,-92.2,13.3,0.0,240,9,,10.0,29.811024,1010.4,,,TRUE,,,,,,,CLR,,,,,,,,VFR,,,,,,,,,,,,METAR,434.0
KDLF 311555Z 13006KT 10SM SCT220 19/14 A3002 RMK AO2A SLP160 T01920142 $,KDLF,2022-10-31T15:55:00Z,29.37,-100.78,19.2,14.2,130,6,,10.0,30.02067,1016.0,,,TRUE,TRUE,,,,,,SCT,22000,,,,,,,VFR,,,,,,,,,,,,METAR,328.0
KDKX 311555Z AUTO 29003KT 10SM 18/16 A3000 RMK A01,KDKX,2022-10-31T15:55:00Z,35.97,-83.87,18.0,16.0,290,3,,10.0,30.0,,,TRUE,TRUE,,,,,,,,,,,,,,,,,,,,,,,,,,,METAR,253.0
KDEH 311555Z AUTO 00000KT 10SM CLR 11/06 A2987 RMK AO2,KDEH,2022-10-31T15:55:00Z,43.27,-91.73,11.0,6.0,0,0,,10.0,29.870079,,,TRUE,TRUE,,,,,,,CLR,,,,,,,,VFR,,,,,,,,,,,,METAR,348.0
KDCM 311555Z AUTO 16005KT 7SM OVC003 17/17 A3006 RMK AO2,KDCM,2022-10-31T15:55:00Z,34.78,-81.2,17.0,17.0,160,5,,7.0,30.059055,,,TRUE,TRUE,,,,,,,OVC,300,,,,,,,LIFR,,,,,,,,,,,,METAR,191.0
KDAA 311555Z AUTO 00000KT 10SM FEW075 FEW095 16/13 A3005 RMK AO2 SLP179 T01620133 $,KDAA,2022-10-31T15:55:00Z,38.72,-77.17,16.2,13.3,0,0,,10.0,30.050198,1017.9,,TRUE,TRUE,TRUE,,,,,,FEW,7500,FEW,9500,,,,,VFR,,,,,,,,,,,,METAR,17.0
KD95 311555Z AUTO 00000KT 7SM OVC003 14/12 A2984 RMK AO2 T01370119 P0001,KD95,2022-10-31T15:55:00Z,43.07,-83.27,13.7,11.9,0,0,,7.0,29.840551,,,TRUE,TRUE,,,,,,,OVC,300,,,,,,,LIFR,,,,,,0.01,,,,,,METAR,253.0
KD60 311555Z AUTO 24010KT 10SM CLR 07/01 A2974 RMK AO2,KD60,2022-10-31T15:55:00Z,48.38,-102.9,7.0,1.0,240,10,,10.0,29.740158,,,TRUE,TRUE,,,,,,,CLR,,,,,,,,VFR,,,,,,,,,,,,METAR,682.0
KD57 311555Z AUTO 26005KT 10SM CLR 09/M02 A2977 RMK AO2,KD57,2022-10-31T15:55:00Z,46.82,-101.87,9.0,-2.0,260,5,,10.0,29.769686,,,TRUE,TRUE,,,,,,,CLR,,,,,,,,VFR,,,,,,,,,,,,METAR,636.0
KD55 311555Z AUTO 25011KT 10SM CLR 08/04 A2968 RMK AO2,KD55,2022-10-31T15:55:00Z,48.75,-98.4,8.0,4.0,250,11,,10.0,29.681103,,,TRUE,TRUE,,,,,,,CLR,,,,,,,,VFR,,,,,,,,,,,,METAR,488.0
KD50 311555Z AUTO 24010KT 10SM CLR 10/01 A2971 RMK AO2,KD50,2022-10-31T15:55:00Z,48.93,-103.3,10.0,1.0,240,10,,10.0,29.71063,,,TRUE,TRUE,,,,,,,CLR,,,,,,,,VFR,,,,,,,,,,,,METAR,591.0
KD39 311555Z AUTO 22006KT 10SM OVC002 12/00 A2985 RMK AO2 T01151001,KD39,2022-10-31T15:55:00Z,45.7,-94.93,11.5,-0.1,220,6,,10.0,29.84941,,,TRUE,TRUE,,,,,,,OVC,200,,,,,,,LIFR,,,,,,,,,,,,METAR,378.0
KD25 311555Z AUTO 22003KT 10SM CLR 09/07 A2984 RMK AO2 T00860074,KD25,2022-10-31T15:55:00Z,46.12,-89.88,8.6,7.4,220,3,,10.0,29.840551,,,TRUE,TRUE,,,,,,,CLR,,,,,,,,VFR,,,,,,,,,,,,METAR,490.0
KCZL 311555Z AUTO 22003KT 7SM BKN007 BKN017 BKN027 17/16 A3005 RMK AO2,KCZL,2022-10-31T15:55:00Z,34.47,-84.93,17.0,16.0,220,3,,7.0,30.050198,,,TRUE,TRUE,,,,,,,BKN,700,BKN,1700,BKN,2700,,,IFR,,,,,,,,,,,,METAR,197.0
KCXW 311555Z AUTO 25005KT 10SM FEW015 18/14 A3001 RMK A01,KCXW,2022-10-31T15:55:00Z,35.02,-92.55,18.0,14.0,250,5,,10.0,30.008858,,,TRUE,TRUE,,,,,,,FEW,1500,,,,,,,VFR,,,,,,,,,,,,METAR,84.0
KCXU 311555Z AUTO 21003KT 10SM SCT010 BKN024 24/19 A3003 RMK AO1 T02390186,KCXU,2022-10-31T15:55:00Z,31.22,-84.23,23.9,18.6,210,3,,10.0,30.029528,,,TRUE,TRUE,,,,,,,SCT,1000,BKN,2400,,,,,MVFR,,,,,,,,,,,,METAR,48.0
KCXP 311555Z AUTO 00000KT 10SM CLR 00/M09 A3014 RMK AO2,KCXP,2022-10-31T15:55:00Z,39.18,-119.73,0.0,-9.0,0,0,,10.0,30.138779,,,TRUE,TRUE,,,,,,,CLR,,,,,,,,VFR,,,,,,,,,,,,METAR,1431.0
KCXE 311555Z AUTO 15006KT 10SM BKN048 18/13 A3009 RMK AO1 T01800132,KCXE,2022-10-31T15:55:00Z,36.78,-78.5,18.0,13.2,150,6,,10.0,30.088583,,,TRUE,TRUE,,,,,,,BKN,4800,,,,,,,VFR,,,,,,,,,,,,METAR,154.0
KCWC 311555Z AUTO 00000KT 10SM CLR 16/10 A3008 RMK AO2 T01600098,KCWC,2022-10-31T15:55:00Z,33.85,-98.48,16.0,9.8,0,0,,10.0,30.079725,,,TRUE,TRUE,,,,,,,CLR,,,,,,,,VFR,,,,,,,,,,,,METAR,304.0
KCVX 311555Z AUTO 00000KT 10SM CLR 11/08 A2985 RMK AO2 T01070075,KCVX,2022-10-31T15:55:00Z,45.3,-85.27,10.7,7.5,0,0,,10.0,29.84941,,,TRUE,TRUE,,,,,,,CLR,,,,,,,,VFR,,,,,,,,,,,,METAR,196.0
KCVS 311555Z AUTO 24004KT 10SM CLR 13/07 A3010 RMK AO2 SLP169 T01320074 $,KCVS,2022-10-31T15:55:00Z,34.37,-103.32,13.2,7.4,240,4,,10.0,30.100393,1016.9,,TRUE,TRUE,TRUE,,,,,,CLR,,,,,,,,VFR,,,,,,,,,,,,METAR,1305.0
KCVH 311555Z AUTO 00000KT M1/4SM FG OVC001 08/07 A3002 RMK A01,KCVH,2022-10-31T15:55:00Z,36.9,-121.42,8.0,7.0,0,0,,0.25,30.02067,,,TRUE,TRUE,,,,,,FG,OVC,100,,,,,,,LIFR,,,,,,,,,,,,METAR,68.0
KCVC 311555Z AUTO 00000KT 5SM BR OVC003 17/17 A3003 RMK AO2,KCVC,2022-10-31T15:55:00Z,33.63,-83.85,17.0,17.0,0,0,,5.0,30.029528,,,TRUE,TRUE,,,,,,BR,OVC,300,,,,,,,LIFR,,,,,,,,,,,,METAR,240.0
KCTZ 311555Z AUTO 12004KT 10SM OVC060 21/18 A3009 RMK AO2 T02110177,KCTZ,2022-10-31T15:55:00Z,34.98,-78.37,21.1,17.7,120,4,,10.0,30.088583,,,TRUE,TRUE,,,,,,,OVC,6000,,,,,,,VFR,,,,,,,,,,,,METAR,43.0
KCSQ 311555Z AUTO 32005KT 9SM CLR 13/05 A2994 RMK AO2,KCSQ,2022-10-31T15:55:00Z,41.02,-94.37,13.0,5.0,320,5,,9.0,29.940945,,,TRUE,TRUE,,,,,,,CLR,,,,,,,,VFR,,,,,,,,,,,,METAR,394.0
KCRX 311555Z AUTO 23007KT 10SM BKN013 OVC019 17/14 A2999 RMK AO2,KCRX,2022-10-31T15:55:00Z,34.92,-88.6,17.0,14.0,230,7,,10.0,29.991142,,,TRUE,TRUE,,,,,,,BKN,1300,OVC,1900,,,,,MVFR,,,,,,,,,,,,METAR,128.0
KCQW 311555Z AUTO 15004KT 9SM FEW028 FEW034 SCT044 21/18 A3005 RMK AO2 PWINO,KCQW,2022-10-31T15:55:00Z,34.72,-79.95,21.0,18.0,150,4,,9.0,30.050198,,,TRUE,TRUE,,,,,TRUE,,FEW,2800,FEW,3400,SCT,4400,,,VFR,,,,,,,,,,,,METAR,67.0
KCPT 311555Z AUTO 00000KT 10SM CLR 19/12 A3008 RMK A01,KCPT,2022-10-31T15:55:00Z,32.35,-97.43,19.0,12.0,0,0,,10.0,30.079725,,,TRUE,TRUE,,,,,,,CLR,,,,,,,,VFR,,,,,,,,,,,,METAR,260.0
KCPK 311555Z AUTO 12003KT 18/13 A3011 RMK AO2 T01820126,KCPK,2022-10-31T15:55:00Z,36.67,-76.32,18.2,12.6,120,3,,,30.109253,,,TRUE,TRUE,,,,,,,,,,,,,,,,,,,,,,,,,,,METAR,4.0
KCPF 311555Z AUTO 22003KT 10SM -RA OVC014 16/15 A2999 RMK AO2,KCPF,2022-10-31T15:55:00Z,37.38,-83.27,16.0,15.0,220,3,,10.0,29.991142,,,TRUE,TRUE,,,,,,-RA,OVC,1400,,,,,,,MVFR,,,,,,,,,,,,METAR,382.0
KCOQ 311555Z AUTO 21005KT 10SM CLR 12/M01 A2980 RMK AO2 TSNO,KCOQ,2022-10-31T15:55:00Z,46.7,-92.5,12.0,-1.0,210,5,,10.0,29.799213,,,TRUE,TRUE,,,TRUE,,,,CLR,,,,,,,,VFR,,,,,,,,,,,,METAR,390.0
KCOF 311555Z AUTO 05005KT 10SM M 28/27 A2999 RMK AO2 SLP160 T02750273 $,KCOF,2022-10-31T15:55:00Z,28.23,-80.6,27.5,27.3,50,5,,10.0,29.991142,1016.0,,TRUE,TRUE,TRUE,,,,,,,,,,,,,,,,,,,,,,,,,,METAR,1.0
KCNK 311555Z AUTO 28005KT 10SM CLR 13/02 A3000 RMK AO2 SLP158 T01330022,KCNK,2022-10-31T15:55:00Z,39.55,-97.65,13.3,2.2,280,5,,10.0,30.0,1015.8,,TRUE,TRUE,,,,,,,CLR,,,,,,,,VFR,,,,,,,,,,,,METAR,445.0
KCNB 311555Z AUTO 23010G15KT 10SM CLR 15/01 A2986 RMK AO2 T01460005,KCNB,2022-10-31T15:55:00Z,44.73,-96.27,14.6,0.5,230,10,15,10.0,29.861221,,,TRUE,TRUE,,,,,,,CLR,,,,,,,,VFR,,,,,,,,,,,,METAR,363.0
KCMR 311555Z AUTO 00000KT 10SM CLR 08/M07 A3018 RMK AO2,KCMR,2022-10-31T15:55:00Z,35.3,-112.2,8.0,-7.0,0,0,,10.0,30.180119,,,TRUE,TRUE,,,,,,,CLR,,,,,,,,VFR,,,,,,,,,,,,METAR,2039.0
KCMA 311555Z AUTO 10004KT 10SM CLR 15/05 A2993 RMK AO2 SLP142 T01500050,KCMA,2022-10-31T15:55:00Z,34.22,-119.1,15.0,5.0,100,4,,10.0,29.929134,1014.2,,TRUE,TRUE,,,,,,,CLR,,,,,,,,VFR,,,,,,,,,,,,METAR,20.0
KCLW 311555Z AUTO 00000KT 10SM SCT028 27/20 A3002 RMK AO2,KCLW,2022-10-31T15:55:00Z,27.98,-82.75,27.0,20.0,0,0,,10.0,30.02067,,,TRUE,TRUE,,,,,,,SCT,2800,,,,,,,VFR,,,,,,,,,,,,SPECI,21.0
KCLS 311555Z AUTO 18010KT 6SM -RA SCT031 BKN040 OVC055 12/11 A2985 RMK AO2,KCLS,2022-10-31T15:55:00Z,46.68,-122.98,12.0,11.0,180,10,,6.0,29.84941,,,TRUE,TRUE,,,,,,-RA,SCT,3100,BKN,4000,OVC,5500,,,VFR,,,,,,,,,,,,METAR,52.0
KCLK 311555Z AUTO 00000KT 10SM CLR 12/03 A3007 RMK AO2,KCLK,2022-10-31T15:55:00Z,35.53,-98.93,12.0,3.0,0,0,,10.0,30.070866,,,TRUE,TRUE,,,,,,,CLR,,,,,,,,VFR,,,,,,,,,,,,METAR,489.0
KCLI 311555Z AUTO 00000KT 10SM CLR 12/07 A2987 RMK AO2 T01250073,KCLI,2022-10-31T15:55:00Z,44.62,-88.73,12.5,7.3,0,0,,10.0,29.870079,,,TRUE,TRUE,,,,,,,CLR,,,,,,,,VFR,,,,,,,,,,,,METAR,248.0
KCKZ 311555Z AUTO 18005KT 10SM CLR 14/12 A3008 RMK AO2,KCKZ,2022-10-31T15:55:00Z,40.38,-75.28,14.0,12.0,180,5,,10.0,30.079725,,,TRUE,TRUE,,,,,,,CLR,,,,,,,,VFR,,,,,,,,,,,,METAR,160.0
KCKM 311555Z AUTO 24006KT 10SM BKN015 BKN020 17/16 A3002 RMK A01,KCKM,2022-10-31T15:55:00Z,34.3,-90.52,17.0,16.0,240,6,,10.0,30.02067,,,TRUE,TRUE,,,,,,,BKN,1500,BKN,2000,,,,,MVFR,,,,,,,,,,,,METAR,52.0
KCKI 311555Z AUTO 16005KT 10SM SCT013 23/18 A3006 RMK AO2,KCKI,2022-10-31T15:55:00Z,33.72,-79.85,23.0,18.0,160,5,,10.0,30.059055,,,TRUE,TRUE,,,,,,,SCT,1300,,,,,,,VFR,,,,,,,,,,,,METAR,19.0
KCKC 311555Z AUTO 20006KT 10SM CLR 10/01 A2978 RMK AO2,KCKC,2022-10-31T15:55:00Z,47.83,-90.38,10.0,1.0,200,6,,10.0,29.778543,,,TRUE,TRUE,,,,,,,CLR,,,,,,,,VFR,,,,,,,,,,,,METAR,544.0
KCJR 311555Z AUTO 20005KT 10SM SCT029 SCT044 OVC110 17/12 A3008 RMK AO2 T01710118,KCJR,2022-10-31T15:55:00Z,38.53,-77.87,17.1,11.8,200,5,,10.0,30.079725,,,TRUE,TRUE,,,,,,,SCT,2900,SCT,4400,OVC,11000,,,VFR,,,,,,,,,,,,METAR,90.0
KCIR 311555Z AUTO 27005KT 10SM BKN008 OVC017 17/15 A2992 RMK AO2 T01650152,KCIR,2022-10-31T15:55:00Z,37.07,-89.22,16.5,15.2,270,5,,10.0,29.920275,,,TRUE,TRUE,,,,,,,BKN,800,OVC,1700,,,,,IFR,,,,,,,,,,,,METAR,96.0
KCGC 311555Z AUTO 23003KT 10SM CLR 27/19 A3003 RMK AO2,KCGC,2022-10-31T15:55:00Z,28.87,-82.57,27.0,19.0,230,3,,10.0,30.029528,,,TRUE,TRUE,,,,,,,CLR,,,,,,,,VFR,,,,,,,,,,,,SPECI,3.0
KCFJ 311555Z AUTO 22010G16KT 10SM OVC007 14/11 A2985 RMK AO2 T01370109,KCFJ,2022-10-31T15:55:00Z,39.98,-86.92,13.7,10.9,220,10,16,10.0,29.84941,,,TRUE,TRUE,,,,,,,OVC,700,,,,,,,IFR,,,,,,,,,,,,METAR,243.0
KCFE 311555Z AUTO 00000KT 10SM CLR 11/02 A2987 RMK AO2,KCFE,2022-10-31T15:55:00Z,45.17,-93.85,11.0,2.0,0,0,,10.0,29.870079,,,TRUE,TRUE,,,,,,,CLR,,,,,,,,VFR,,,,,,,,,,,,METAR,292.0
KCEY 311555Z AUTO 22008KT 8SM BKN013 BKN024 OVC036 16/15 A2995 RMK A01,KCEY,2022-10-31T15:55:00Z,36.67,-88.37,16.0,15.0,220,8,,8.0,29.949802,,,TRUE,TRUE,,,,,,,BKN,1300,BKN,2400,OVC,3600,,,MVFR,,,,,,,,,,,,METAR,172.0
KCDN 311555Z AUTO 00000KT 9SM BKN011 BKN028 BKN037 20/18 A3006 RMK AO2,KCDN,2022-10-31T15:55:00Z,34.28,-80.57,20.0,18.0,0,0,,9.0,30.059055,,,TRUE,TRUE,,,,,,,BKN,1100,BKN,2800,BKN,3700,,,MVFR,,,,,,,,,,,,METAR,90.0
KCDI 311555Z AUTO 21006KT 10SM OVC007 16/15 A2994 RMK AO2 T01640151,KCDI,2022-10-31T15:55:00Z,39.97,-81.58,16.4,15.1,210,6,,10.0,29.940945,,,TRUE,TRUE,,,,,,,OVC,700,,,,,,,IFR,,,,,,,,,,,,METAR,241.0
KCDH 311555Z AUTO 35003KT 8SM CLR 19/16 A3004 RMK AO2,KCDH,2022-10-31T15:55:00Z,33.62,-92.77,19.0,16.0,350,3,,8.0,30.041338,,,TRUE,TRUE,,,,,,,CLR,,,,,,,,VFR,,,,,,,,,,,,METAR,38.0
KCDA 311555Z AUTO 11004KT 10SM 10/M02 A3001 RMK AO2 T00971025,KCDA,2022-10-31T15:55:00Z,44.57,-72.02,9.7,-2.5,110,4,,10.0,30.008858,,,TRUE,TRUE,,,,,,,,,,,,,,,,,,,,,,,,,,,METAR,357.0
KCCY 311555Z AUTO 00000KT 9SM CLR 11/06 A2990 RMK AO2,KCCY,2022-10-31T15:55:00Z,43.07,-92.62,11.0,6.0,0,0,,9.0,29.899607,,,TRUE,TRUE,,,,,,,CLR,,,,,,,,VFR,,,,,,,,,,,,METAR,340.0
KCCA 311555Z AUTO 00000KT 10SM CLR 16/14 A3001 RMK AO2,KCCA,2022-10-31T15:55:00Z,35.6,-92.45,16.0,14.0,0,0,,10.0,30.008858,,,TRUE,TRUE,,,,,,,CLR,,,,,,,,VFR,,,,,,,,,,,,METAR,152.0
KCBG 311555Z AUTO 00000KT 10SM CLR 12/01 A2986 RMK AO2,KCBG,2022-10-31T15:55:00Z,45.57,-93.27,12.0,1.0,0,0,,10.0,29.861221,,,TRUE,TRUE,,,,,,,CLR,,,,,,,,VFR,,,,,,,,,,,,METAR,285.0
KCAD 311555Z AUTO 00000KT 10SM CLR 13/06 A2984 RMK AO2 T01280061,KCAD,2022-10-31T15:55:00Z,44.27,-85.42,12.8,6.1,0,0,,10.0,29.840551,,,TRUE,TRUE,,,,,,,CLR,,,,,,,,VFR,,,,,,,,,,,,METAR,397.0
KC83 311555Z AUTO 00000KT 10SM CLR 12/08 A2999 RMK AO2,KC83,2022-10-31T15:55:00Z,37.83,-121.62,12.0,8.0,0,0,,10.0,29.991142,,,TRUE,TRUE,,,,,,,CLR,,,,,,,,VFR,,,,,,,,,,,,METAR,16.0
KC29 311555Z AUTO 00000KT 10SM CLR 15/07 A2986 RMK AO1 T01460069,KC29,2022-10-31T15:55:00Z,43.12,-89.53,14.6,6.9,0,0,,10.0,29.861221,,,TRUE,TRUE,,,,,,,CLR,,,,,,,,VFR,,,,,,,,,,,,METAR,282.0
KC09 311555Z AUTO 00000KT 1/2SM FG OVC001 13/13 A2983 RMK AO2 T01300130,KC09,2022-10-31T15:55:00Z,41.43,-88.42,13.0,13.0,0,0,,0.5,29.828741,,,TRUE,TRUE,,,,,,FG,OVC,100,,,,,,,LIFR,,,,,,,,,,,,METAR,179.0
KC07 311555Z AUTO 25004KT 10SM CLR M01/M07 A3025 RMK AO2,KC07,2022-10-31T15:55:00Z,40.35,-106.7,-1.0,-7.0,250,4,,10.0,30.250984,,,TRUE,TRUE,,,,,,,CLR,,,,,,,,VFR,,,,,,,,,,,,METAR,3224.0
KBYS 311555Z AUTO 00000KT 8SM CLR 10/M10 A3001 RMK AO2 SLP154 T00961100 $,KBYS,2022-10-31T15:55:00Z,35.28,-116.63,9.6,-10.0,0,0,,8.0,30.008858,1015.4,,TRUE,TRUE,TRUE,,,,,,CLR,,,,,,,,VFR,,,,,,,,,,,,METAR,717.0
KBXK 311555Z AUTO 35005KT 10SM CLR 16/M00 A2999 RMK A01,KBXK,2022-10-31T15:55:00Z,33.42,-112.68,16.0,0.0,350,5,,10.0,29.991142,,,TRUE,TRUE,,,,,,,CLR,,,,,,,,VFR,,,,,,,,,,,,METAR,303.0
KBXA 311555Z AUTO 29004KT 10SM SCT030 BKN038 BKN047 22/14 A3008 RMK AO2 T02190143,KBXA,2022-10-31T15:55:00Z,30.82,-89.87,21.9,14.3,290,4,,10.0,30.079725,,,TRUE,TRUE,,,,,,,SCT,3000,BKN,3800,BKN,4700,,,VFR,,,,,,,,,,,,METAR,35.0
KBWW 311555Z AUTO 27012KT 10SM CLR 10/M02 A2981 RMK AO2,KBWW,2022-10-31T15:55:00Z,46.17,-103.3,10.0,-2.0,270,12,,10.0,29.811024,,,TRUE,TRUE,,,,,,,CLR,,,,,,,,VFR,,,,,,,,,,,,METAR,911.0
KBWP 311555Z AUTO 20007KT 10SM CLR 11/00 A2978 RMK AO2,KBWP,2022-10-31T15:55:00Z,46.25,-96.62,11.0,0.0,200,7,,10.0,29.778543,,,TRUE,TRUE,,,,,,,CLR,,,,,,,,VFR,,,,,,,,,,,,METAR,294.0
KBVU 311555Z AUTO 19003KT 10SM CLR 15/M07 A3006 RMK AO2,KBVU,2022-10-31T15:55:00Z,35.95,-114.87,15.0,-7.0,190,3,,10.0,30.059055,,,TRUE,TRUE,,,,,,,CLR,,,,,,,,VFR,,,,,,,,,,,,METAR,654.0
KBVI 311555Z AUTO 17004KT 2SM BR OVC002 15/13 A2995 RMK AO2 T01450130,KBVI,2022-10-31T15:55:00Z,40.77,-80.37,14.5,13.0,170,4,,2.0,29.949802,,,TRUE,TRUE,,,,,,BR,OVC,200,,,,,,,LIFR,,,,,,,,,,,,METAR,387.0
KBTN 311555Z AUTO 19011KT 10SM CLR 12/M01 A2980 RMK AO2,KBTN,2022-10-31T15:55:00Z,45.82,-97.75,12.0,-1.0,190,11,,10.0,29.799213,,,TRUE,TRUE,,,,,,,CLR,,,,,,,,VFR,,,,,,,,,,,,METAR,400.0
KBTA 311555Z AUTO 27004KT 10SM CLR 12/02 A2996 RMK AO2 T01150020,KBTA,2022-10-31T15:55:00Z,41.42,-96.12,11.5,2.0,270,4,,10.0,29.958662,,,TRUE,TRUE,,,,,,,CLR,,,,,,,,VFR,,,,,,,,,,,,METAR,400.0
KBRY 311555Z AUTO 20008KT 10SM FEW014 SCT025 18/15 A2992 RMK AO2 FEW V SCT T01810146,KBRY,2022-10-31T15:55:00Z,37.82,-85.5,18.1,14.6,200,8,,10.0,29.920275,,,TRUE,TRUE,,,,,,,FEW,1400,SCT,2500,,,,,VFR,,,,,,,,,,,,METAR,192.0
KBRG 311555Z AUTO 00000KT 10SM CLR 10/M06 A3017 RMK AO2 T00981064,KBRG,2022-10-31T15:55:00Z,34.65,-106.83,9.8,-6.4,0,0,,10.0,30.171259,,,TRUE,TRUE,,,,,,,CLR,,,,,,,,VFR,,,,,,,,,,,,METAR,1585.0
KBNW 311555Z AUTO 34005KT 10SM CLR 12/03 A2994 RMK AO2,KBNW,2022-10-31T15:55:00Z,42.03,-93.83,12.0,3.0,340,5,,10.0,29.940945,,,TRUE,TRUE,,,,,,,CLR,,,,,,,,VFR,,,,,,,,,,,,METAR,350.0
KBNL 311555Z AUTO 15007KT 10SM FEW007 SCT013 22/19 A3004 RMK AO2,KBNL,2022-10-31T15:55:00Z,33.25,-81.38,22.0,19.0,150,7,,10.0,30.041338,,,TRUE,TRUE,,,,,,,FEW,700,SCT,1300,,,,,VFR,,,,,,,,,,,,SPECI,76.0
KBLV 311555Z 23006KT 5SM BR OVC009 14/12 A2988 RMK AO2A OVC V BKN SLP121 T01410123 CHINO RWY14R $,KBLV,2022-10-31T15:55:00Z,38.53,-89.83,14.1,12.3,230,6,,5.0,29.878937,1012.1,,,TRUE,TRUE,,,,,BR,OVC,900,,,,,,,IFR,,,,,,,,,,,,METAR,134.0
KBKT 311555Z AUTO 19005KT 10SM BKN038 OVC045 19/13 A3010 RMK AO1 T01870130,KBKT,2022-10-31T15:55:00Z,37.07,-77.95,18.7,13.0,190,5,,10.0,30.100393,,,TRUE,TRUE,,,,,,,BKN,3800,OVC,4500,,,,,VFR,,,,,,,,,,,,METAR,134.0
KBKS 311555Z AUTO 07005KT 10SM BKN070 OVC090 22/18 A3000 RMK AO2 SLP121 T02220176 $,KBKS,2022-10-31T15:55:00Z,27.2,-98.12,22.2,17.6,70,5,,10.0,30.0,1012.1,,TRUE,TRUE,TRUE,,,,,,BKN,7000,OVC,9000,,,,,VFR,,,,,,,,,,,,METAR,34.0
KBKD 311555Z AUTO 00000KT 7SM CLR 21/10 A3007 RMK AO2 T02050097,KBKD,2022-10-31T15:55:00Z,32.72,-98.88,20.5,9.7,0,0,,7.0,30.070866,,,TRUE,TRUE,,,,,,,CLR,,,,,,,,VFR,,,,,,,,,,,,METAR,383.0
KBIX 311555Z AUTO 00000KT 10SM CLR 21/16 A3004 RMK AO2 SLP175 T02100155,KBIX,2022-10-31T15:55:00Z,30.42,-88.92,21.0,15.5,0,0,,10.0,30.041338,1017.5,,TRUE,TRUE,,,,,,,CLR,,,,,,,,VFR,,,,,,,,,,,,METAR,4.0
KBGF 311555Z AUTO 22004KT 10SM OVC050 17/14 A3000 RMK A01,KBGF,2022-10-31T15:55:00Z,35.18,-86.07,17.0,14.0,220,4,,10.0,30.0,,,TRUE,TRUE,,,,,,,OVC,5000,,,,,,,VFR,,,,,,,,,,,,METAR,295.0
KBEA 311555Z AUTO 11006KT 10SM CLR 22/14 A3004 RMK AO2 T02210137,KBEA,2022-10-31T15:55:00Z,28.37,-97.78,22.1,13.7,110,6,,10.0,30.041338,,,TRUE,TRUE,,,,,,,CLR,,,,,,,,VFR,,,,,,,,,,,,METAR,83.0
KBDU 311555Z AUTO 00000KT 10SM CLR 10/M06 A3002 RMK AO2,KBDU,2022-10-31T15:55:00Z,40.03,-105.23,10.0,-6.0,0,0,,10.0,30.02067,,,TRUE,TRUE,,,,,,,CLR,,,,,,,,VFR,,,,,,,,,,,,METAR,1614.0
KBDH 311555Z AUTO 20004KT 10SM CLR 12/02 A2990 RMK AO2,KBDH,2022-10-31T15:55:00Z,45.12,-95.13,12.0,2.0,200,4,,10.0,29.899607,,,TRUE,TRUE,,,,,,,CLR,,,,,,,,VFR,,,,,,,,,,,,METAR,341.0
KBCK 311555Z AUTO 26003KT 10SM CLR 12/06 A2988 RMK AO2 T01160055,KBCK,2022-10-31T15:55:00Z,44.25,-90.85,11.6,5.5,260,3,,10.0,29.878937,,,TRUE,TRUE,,,,,,,CLR,,,,,,,,VFR,,,,,,,,,,,,METAR,256.0
KBCB 311555Z AUTO 00000KT 10SM RA BKN008 OVC013 12/12 A3011 RMK AO2 P0006 T01170117,KBCB,2022-10-31T15:55:00Z,37.22,-80.42,11.7,11.7,0,0,,10.0,30.109253,,,TRUE,TRUE,,,,,,RA,BKN,800,OVC,1300,,,,,IFR,,,,,,0.06,,,,,,SPECI,642.0
KBBB 311555Z AUTO 20004KT 10SM CLR 09/00 A2986 RMK AO2,KBBB,2022-10-31T15:55:00Z,45.32,-95.65,9.0,0.0,200,4,,10.0,29.861221,,,TRUE,TRUE,,,,,,,CLR,,,,,,,,VFR,,,,,,,,,,,,METAR,315.0
KBAM 311555Z AUTO 00000KT 10SM CLR 01/M08 A3015 RMK AO1,KBAM,2022-10-31T15:55:00Z,40.6,-116.87,1.0,-8.0,0,0,,10.0,30.15059,,,TRUE,TRUE,,,,,,,CLR,,,,,,,,VFR,,,,,,,,,,,,METAR,1381.0
KBAD 311555Z AUTO 32003KT 10SM CLR 20/13 A3005 RMK AO2 SLP179 T01990126,KBAD,2022-10-31T15:55:00Z,32.5,-93.67,19.9,12.6,320,3,,10.0,30.050198,1017.9,,TRUE,TRUE,,,,,,,CLR,,,,,,,,VFR,,,,,,,,,,,,METAR,49.0
KBAC 311555Z AUTO 24007KT 10SM CLR 11/M01 A2977 RMK AO2,KBAC,2022-10-31T15:55:00Z,46.93,-98.02,11.0,-1.0,240,7,,10.0,29.769686,,,TRUE,TRUE,,,,,,,CLR,,,,,,,,VFR,,,,,,,,,,,,METAR,423.0
KBAB 311555Z AUTO 00000KT 10SM CLR 14/03 A2998 RMK AO2 SLP155 T01380030 $,KBAB,2022-10-31T15:55:00Z,39.13,-121.43,13.8,3.0,0,0,,10.0,29.97933,1015.5,,TRUE,TRUE,TRUE,,,,,,CLR,,,,,,,,VFR,,,,,,,,,,,,METAR,31.0
KAZC 311555Z AUTO 14003KT 10SM CLR 08/M03 A3018 RMK AO2,KAZC,2022-10-31T15:55:00Z,36.97,-113.02,8.0,-3.0,140,3,,10.0,30.180119,,,TRUE,TRUE,,,,,,,CLR,,,,,,,,VFR,,,,,,,,,,,,METAR,1476.0
KAXV 311555Z AUTO 20011G17KT 10SM BKN013 BKN021 OVC070 17/15 A2987 RMK AO2,KAXV,2022-10-31T15:55:00Z,40.5,-84.3,17.0,15.0,200,11,17,10.0,29.870079,,,TRUE,TRUE,,,,,,,BKN,1300,BKN,2100,OVC,7000,,,MVFR,,,,,,,,,,,,METAR,278.0
KAXS 311555Z AUTO 00000KT 10SM CLR 13/09 A3009 RMK AO2 T01340088,KAXS,2022-10-31T15:55:00Z,34.7,-99.33,13.4,8.8,0,0,,10.0,30.088583,,,TRUE,TRUE,,,,,,,CLR,,,,,,,,VFR,,,,,,,,,,,,METAR,433.0
KAXH 311555Z AUTO 00000KT 10SM CLR 23/14 A3008 RMK AO2 T02250138,KAXH,2022-10-31T15:55:00Z,29.52,-95.48,22.5,13.8,0,0,,10.0,30.079725,,,TRUE,TRUE,,,,,,,CLR,,,,,,,,VFR,,,,,,,,,,,,METAR,18.0
KAVK 311555Z AUTO 00000KT 10SM CLR 14/01 A3005 RMK AO2 PWINO,KAVK,2022-10-31T15:55:00Z,36.77,-98.67,14.0,1.0,0,0,,10.0,30.050198,,,TRUE,TRUE,,,,,TRUE,,CLR,,,,,,,,VFR,,,,,,,,,,,,METAR,450.0
KAVC 311555Z AUTO 19006KT 10SM BKN070 20/14 A3015 RMK AO2 T01960140,KAVC,2022-10-31T15:55:00Z,36.68,-78.05,19.6,14.0,190,6,,10.0,30.15059,,,TRUE,TRUE,,,,,,,BKN,7000,,,,,,,VFR,,,,,,,,,,,,METAR,119.0
KAUM 311555Z AUTO 00000KT 10SM CLR 11/04 A2990 RMK AO2,KAUM,2022-10-31T15:55:00Z,43.67,-92.92,11.0,4.0,0,0,,10.0,29.899607,,,TRUE,TRUE,,,,,,,CLR,,,,,,,,VFR,,,,,,,,,,,,METAR,376.0
KATS 311555Z AUTO 01007KT 10SM CLR 12/05 A3011 RMK AO2,KATS,2022-10-31T15:55:00Z,32.85,-104.47,12.0,5.0,10,7,,10.0,30.109253,,,TRUE,TRUE,,,,,,,CLR,,,,,,,,VFR,,,,,,,,,,,,METAR,1073.0
KATA 311555Z AUTO VRB03KT 10SM CLR 20/14 A3004 RMK AO2 SLP072 T01970140 $,KATA,2022-10-31T15:55:00Z,33.1,-94.2,19.7,14.0,0,3,,10.0,30.041338,1007.2,,TRUE,TRUE,TRUE,,,,,,CLR,,,,,,,,VFR,,,,,,,,,,,,METAR,85.0
KAST 311555Z AUTO 28007KT 6SM -RA BR FEW005 BKN010 OVC032 12/11 A2989 RMK AO2 WSHFT 1518 SLP120 P0009 T01220111,KAST,2022-10-31T15:55:00Z,46.15,-123.88,12.2,11.1,280,7,,6.0,29.890747,1012.0,,TRUE,TRUE,,,,,,-RA BR,FEW,500,BKN,1000,OVC,3200,,,MVFR,,,,,,0.09,,,,,,METAR,3.0
KASN 311555Z AUTO 00000KT 10SM SCT008 SCT012 BKN050 17/16 A3005 RMK AO2 T01720157,KASN,2022-10-31T15:55:00Z,33.57,-86.05,17.2,15.7,0,0,,10.0,30.050198,,,TRUE,TRUE,,,,,,,SCT,800,SCT,1200,BKN,5000,,,VFR,,,,,,,,,,,,METAR,159.0
KASJ 311555Z AUTO 20004KT 10SM OVC050 19/14 A3011 RMK AO2 T01920135,KASJ,2022-10-31T15:55:00Z,36.28,-77.17,19.2,13.5,200,4,,10.0,30.109253,,,TRUE,TRUE,,,,,,,OVC,5000,,,,,,,VFR,,,,,,,,,,,,METAR,20.0
KARW 311555Z AUTO 22005KT 10SM SCT027 26/19 A3004 RMK AO2,KARW,2022-10-31T15:55:00Z,32.42,-80.63,26.0,19.0,220,5,,10.0,30.041338,,,TRUE,TRUE,,,,,,,SCT,2700,,,,,,,VFR,,,,,,,,,,,,SPECI,2.0
KARV 311555Z AUTO 00000KT 10SM CLR 11/05 A2984 RMK AO2 T01100054,KARV,2022-10-31T15:55:00Z,45.92,-89.72,11.0,5.4,0,0,,10.0,29.840551,,,TRUE,TRUE,,,,,,,CLR,,,,,,,,VFR,,,,,,,,,,,,METAR,494.0
KARM 311555Z AUTO 00000KT 10SM CLR 21/15 A3008 RMK AO2 T02120148 TSNO,KARM,2022-10-31T15:55:00Z,29.25,-96.15,21.2,14.8,0,0,,10.0,30.079725,,,TRUE,TRUE,,,TRUE,,,,CLR,,,,,,,,VFR,,,,,,,,,,,,METAR,29.0
KAQX 311555Z AUTO 17006G11KT 10SM CLR 25/20 A3003 RMK AO2,KAQX,2022-10-31T15:55:00Z,32.98,-81.27,25.0,20.0,170,6,11,10.0,30.029528,,,TRUE,TRUE,,,,,,,CLR,,,,,,,,VFR,,,,,,,,,,,,METAR,48.0
KANW 311555Z AUTO 28006KT 10SM CLR 13/M05 A2990 RMK AO2 T01281046,KANW,2022-10-31T15:55:00Z,42.57,-100.0,12.8,-4.6,280,6,,10.0,29.899607,,,TRUE,TRUE,,,,,,,CLR,,,,,,,,VFR,,,,,,,,,,,,METAR,788.0
KANQ 311555Z AUTO 00000KT 6SM BR OVC004 15/15 A2983 RMK AO2,KANQ,2022-10-31T15:55:00Z,41.63,-85.08,15.0,15.0,0,0,,6.0,29.828741,,,TRUE,TRUE,,,,,,BR,OVC,400,,,,,,,LIFR,,,,,,,,,,,,METAR,299.0
KANJ 311555Z AUTO 00000KT 10SM BKN120 11/08 A2984 RMK AO2 SLP107 T01060083,KANJ,2022-10-31T15:55:00Z,46.47,-84.37,10.6,8.3,0,0,,10.0,29.840551,1010.7,,TRUE,TRUE,,,,,,,BKN,12000,,,,,,,VFR,,,,,,,,,,,,METAR,220.0
KAMN 311555Z AUTO 00000KT 1 1/4SM BR OVC004 12/11 A2985 RMK AO2 T01180110,KAMN,2022-10-31T15:55:00Z,43.32,-84.68,11.8,11.0,0,0,,1.25,29.84941,,,TRUE,TRUE,,,,,,BR,OVC,400,,,,,,,LIFR,,,,,,,,,,,,METAR,228.0
KALX 311555Z AUTO 26007KT 230V300 10SM CLR 20/14 A3004 RMK AO2 T01990136,KALX,2022-10-31T15:55:00Z,32.92,-85.97,19.9,13.6,260,7,,10.0,30.041338,,,TRUE,TRUE,,,,,,,CLR,,,,,,,,VFR,,,,,,,,,,,,METAR,198.0
KALM 311555Z AUTO 00000KT 8SM CLR 13/02 A3009 RMK AO2,KALM,2022-10-31T15:55:00Z,32.83,-105.98,13.0,2.0,0,0,,8.0,30.088583,,,TRUE,TRUE,,,,,,,CLR,,,,,,,,VFR,,,,,,,,,,,,METAR,1267.0
KAIT 311555Z AUTO 21007KT 10SM CLR 13/00 A2981 RMK AO2,KAIT,2022-10-31T15:55:00Z,46.53,-93.67,13.0,0.0,210,7,,10.0,29.811024,,,TRUE,TRUE,,,,,,,CLR,,,,,,,,VFR,,,,,,,,,,,,METAR,367.0
KAIK 311555Z AUTO 16008KT 10SM OVC006 21/19 A3005 RMK AO2 T02080188,KAIK,2022-10-31T15:55:00Z,33.65,-81.68,20.8,18.8,160,8,,10.0,30.050198,,,TRUE,TRUE,,,,,,,OVC,600,,,,,,,IFR,,,,,,,,,,,,METAR,155.0
KAIG 311555Z AUTO 00000KT 10SM CLR 13/06 A2985 RMK AO2 T01260055,KAIG,2022-10-31T15:55:00Z,45.15,-89.12,12.6,5.5,0,0,,10.0,29.84941,,,TRUE,TRUE,,,,,,,CLR,,,,,,,,VFR,,,,,,,,,,,,METAR,462.0
KAID 311555Z 18008KT 7SM OVC013 15/13 A2987,KAID,2022-10-31T15:55:00Z,40.12,-85.62,15.0,13.0,180,8,,7.0,29.870079,,,,,,,,,,,OVC,1300,,,,,,,MVFR,,,,,,,,,,,,METAR,277.0
KAGO 311555Z AUTO VRB05KT 10SM CLR 19/13 A3003 RMK A01,KAGO,2022-10-31T15:55:00Z,33.23,-93.22,19.0,13.0,0,5,,10.0,30.029528,,,TRUE,TRUE,,,,,,,CLR,,,,,,,,VFR,,,,,,,,,,,,METAR,91.0
KAGI 311555Z AUTO 04006KT 10SM CLR 25/14 A3005 RMK AO2 T02510144,KAGI,2022-10-31T15:55:00Z,27.55,-92.45,25.1,14.4,40,6,,10.0,30.050198,,,TRUE,TRUE,,,,,,,CLR,,,,,,,,VFR,,,,,,,,,,,,METAR,41.0
KAFP 311555Z AUTO 15004KT 10SM -RA SCT042 20/16 A3006 RMK AO2 T01960160,KAFP,2022-10-31T15:55:00Z,35.02,-80.08,19.6,16.0,150,4,,10.0,30.059055,,,TRUE,TRUE,,,,,,-RA,SCT,4200,,,,,,,VFR,,,,,,,,,,,,METAR,91.0
KAFF 311555Z AUTO 03003KT 10SM CLR 11/M08 A3006 RMK AO2 SLP163 T01071076,KAFF,2022-10-31T15:55:00Z,38.97,-104.82,10.7,-7.6,30,3,,10.0,30.059055,1016.3,,TRUE,TRUE,,,,,,,CLR,,,,,,,,VFR,,,,,,,,,,,,METAR,2003.0
KAEL 311555Z AUTO 00000KT 10SM CLR 12/04 A2990 RMK AO2,KAEL,2022-10-31T15:55:00Z,43.68,-93.37,12.0,4.0,0,0,,10.0,29.899607,,,TRUE,TRUE,,,,,,,CLR,,,,,,,,VFR,,,,,,,,,,,,METAR,382.0
KAEJ 311555Z AUTO 00000KT 10SM 04/M08 A3018 RMK AO2 T00421084,KAEJ,2022-10-31T15:55:00Z,38.82,-106.12,4.2,-8.4,0,0,,10.0,30.180119,,,TRUE,TRUE,,,,,,,,,,,,,,,,,,,,,,,,,,,METAR,2420.0
KADW 311555Z AUTO 18008KT 10SM FEW070 FEW200 17/12 A3004 RMK AO2 DZB17E27 SLP179 P0000 T01650118 $,KADW,2022-10-31T15:55:00Z,38.82,-76.87,16.5,11.8,180,8,,10.0,30.041338,1017.9,,TRUE,TRUE,TRUE,,,,,,FEW,7000,FEW,20000,,,,,VFR,,,,,,0.005,,,,,,METAR,87.0
KACQ 311555Z AUTO 00000KT 10SM CLR 07/01 A2992 RMK AO2,KACQ,2022-10-31T15:55:00Z,44.07,-93.55,7.0,1.0,0,0,,10.0,29.920275,,,TRUE,TRUE,,,,,,,CLR,,,,,,,,VFR,,,,,,,,,,,,METAR,339.0
KACP 311555Z AUTO 00000KT 10SM CLR 21/14 A3007 RMK AO2,KACP,2022-10-31T15:55:00Z,30.75,-92.68,21.0,14.0,0,0,,10.0,30.070866,,,TRUE,TRUE,,,,,,,CLR,,,,,,,,VFR,,,,,,,,,,,,METAR,31.0
KACB 311555Z AUTO 00000KT 10SM SCT120 13/07 A2986 RMK AO2 T01340071,KACB,2022-10-31T15:55:00Z,44.98,-85.2,13.4,7.1,0,0,,10.0,29.861221,,,TRUE,TRUE,,,,,,,SCT,12000,,,,,,,VFR,,,,,,,,,,,,METAR,189.0
KABH 311555Z AUTO 07003KT 10SM CLR 13/M05 A3007 RMK AO2 SLP170 T01311050,KABH,2022-10-31T15:55:00Z,38.75,-104.3,13.1,-5.0,70,3,,10.0,30.070866,1017.0,,TRUE,TRUE,,,,,,,CLR,,,,,,,,VFR,,,,,,,,,,,,METAR,1838.0
KAAT 311555Z AUTO 00000KT 4SM HZ CLR M01/M06 A3008 RMK AO2 SLP195 T10111061,KAAT,2022-10-31T15:55:00Z,41.48,-120.57,-1.1,-6.1,0,0,,4.0,30.079725,1019.5,,TRUE,TRUE,,,,,,HZ,CLR,,,,,,,,MVFR,,,,,,,,,,,,METAR,1336.0
KAAS 311555Z AUTO 21007KT 10SM BKN012 OVC017 16/14 A3000 RMK AO1,KAAS,2022-10-31T15:55:00Z,37.35,-85.32,16.0,14.0,210,7,,10.0,30.0,,,TRUE,TRUE,,,,,,,BKN,1200,OVC,1700,,,,,MVFR,,,,,,,,,,,,METAR,270.0
K9MN 311555Z AUTO 00000KT 10SM CLR 11/03 A2990 RMK AO1 T01060032,K9MN,2022-10-31T15:55:00Z,44.02,-92.48,10.6,3.2,0,0,,10.0,29.899607,,,TRUE,TRUE,,,,,,,CLR,,,,,,,,VFR,,,,,,,,,,,,METAR,308.0
K9L2 311555Z AUTO 00000KT 10SM CLR 07/M13 A3004 RMK AO2 SLP172 T00671130 $,K9L2,2022-10-31T15:55:00Z,34.98,-117.87,6.7,-13.0,0,0,,10.0,30.041338,1017.2,,TRUE,TRUE,TRUE,,,,,,CLR,,,,,,,,VFR,,,,,,,,,,,,METAR,697.0
K9D7 311555Z AUTO 26013KT 10SM CLR 08/02 A2971 RMK AO2 TSNO,K9D7,2022-10-31T15:55:00Z,48.48,-99.23,8.0,2.0,260,13,,10.0,29.71063,,,TRUE,TRUE,,,TRUE,,,,CLR,,,,,,,,VFR,,,,,,,,,,,,METAR,451.0
K96D 311555Z AUTO 25010G19KT 10SM CLR 10/01 A2964 RMK AO2,K96D,2022-10-31T15:55:00Z,48.93,-97.9,10.0,1.0,250,10,19,10.0,29.639763,,,TRUE,TRUE,,,,,,,CLR,,,,,,,,VFR,,,,,,,,,,,,METAR,290.0
K8W2 311555Z AUTO 00000KT 10SM SCT009 BKN070 OVC100 15/15 A3004 RMK AO1 T01530147,K8W2,2022-10-31T15:55:00Z,38.65,-78.7,15.3,14.7,0,0,,10.0,30.041338,,,TRUE,TRUE,,,,,,,SCT,900,BKN,7000,OVC,10000,,,VFR,,,,,,,,,,,,METAR,295.0
K8A3 311555Z AUTO 22008G14KT 10SM SCT013 SCT018 OVC048 15/13 A2998 RMK A01,K8A3,2022-10-31T15:55:00Z,36.42,-85.32,15.0,13.0,220,8,14,10.0,29.97933,,,TRUE,TRUE,,,,,,,SCT,1300,SCT,1800,OVC,4800,,,VFR,,,,,,,,,,,,METAR,413.0
K82V 311555Z AUTO 23004KT 10SM CLR 11/M07 A3002 RMK AO2,K82V,2022-10-31T15:55:00Z,41.15,-104.13,11.0,-7.0,230,4,,10.0,30.02067,,,TRUE,TRUE,,,,,,,CLR,,,,,,,,VFR,,,,,,,,,,,,METAR,1563.0
K82C 311555Z AUTO 29003KT 10SM CLR 12/06 A2986 RMK AO2 T01210060,K82C,2022-10-31T15:55:00Z,43.83,-90.13,12.1,6.0,290,3,,10.0,29.861221,,,TRUE,TRUE,,,,,,,CLR,,,,,,,,VFR,,,,,,,,,,,,METAR,273.0
K7W4 311555Z AUTO 23003KT 10SM SCT032 BKN080 OVC110 16/14 A3009 RMK AO1 P0001 T01550140,K7W4,2022-10-31T15:55:00Z,37.97,-77.75,15.5,14.0,230,3,,10.0,30.088583,,,TRUE,TRUE,,,,,,,SCT,3200,BKN,8000,OVC,11000,,,VFR,,,,,,0.01,,,,,,METAR,115.0
K7L2 311555Z AUTO 29004KT 10SM CLR 10/M03 A2982 RMK AO2,K7L2,2022-10-31T15:55:00Z,46.22,-100.25,10.0,-3.0,290,4,,10.0,29.819881,,,TRUE,TRUE,,,,,,,CLR,,,,,,,,VFR,,,,,,,,,,,,METAR,541.0
K77S 311555Z AUTO 16005KT 10SM OVC032 12/12 A3000 RMK A01,K77S,2022-10-31T15:55:00Z,43.93,-123.0,12.0,12.0,160,5,,10.0,30.0,,,TRUE,TRUE,,,,,,,OVC,3200,,,,,,,VFR,,,,,,,,,,,,SPECI,161.0
K6S2 311555Z AUTO VRB06KT 10SM OVC006 12/12 A2999 RMK AO2 P0001,K6S2,2022-10-31T15:55:00Z,43.98,-124.12,12.0,12.0,0,6,,10.0,29.991142,,,TRUE,TRUE,,,,,,,OVC,600,,,,,,,IFR,,,,,,0.01,,,,,,METAR,16.0
K6L4 311555Z AUTO VRB03KT 10SM BKN005 BKN010 OVC021 16/16 A3000 RMK AO2,K6L4,2022-10-31T15:55:00Z,37.85,-81.92,16.0,16.0,0,3,,10.0,30.0,,,TRUE,TRUE,,,,,,,BKN,500,BKN,1000,OVC,2100,,,IFR,,,,,,,,,,,,METAR,504.0
K6B9 311555Z AUTO 20006KT 10SM FEW100 14/07 A2997 RMK AO2,K6B9,2022-10-31T15:55:00Z,42.92,-76.43,14.0,7.0,200,6,,10.0,29.970472,,,TRUE,TRUE,,,,,,,FEW,10000,,,,,,,VFR,,,,,,,,,,,,METAR,306.0
K6B0 311555Z AUTO 18004KT 10SM CLR 13/02 A3001 RMK AO2 T01310024,K6B0,2022-10-31T15:55:00Z,43.98,-73.1,13.1,2.4,180,4,,10.0,30.008858,,,TRUE,TRUE,,,,,,,CLR,,,,,,,,VFR,,,,,,,,,,,,METAR,149.0
K6A2 311555Z AUTO 19004KT 10SM SCT013 SCT021 BKN029 20/20 A3003 RMK AO2,K6A2,2022-10-31T15:55:00Z,33.23,-84.27,20.0,20.0,190,4,,10.0,30.029528,,,TRUE,TRUE,,,,,,,SCT,1300,SCT,2100,BKN,2900,,,MVFR,,,,,,,,,,,,METAR,290.0
K65S 311555Z AUTO VRB04G10KT 5SM -RA BR BKN007 BKN016 OVC021 08/08 A2974 RMK AO2,K65S,2022-10-31T15:55:00Z,48.73,-116.3,8.0,8.0,0,4,10,5.0,29.740158,,,TRUE,TRUE,,,,,,-RA BR,BKN,700,BKN,1600,OVC,2100,,,IFR,,,,,,,,,,,,METAR,708.0
K5H4 311555Z AUTO 25011KT 10SM CLR 09/M03 A2975 RMK AO2,K5H4,2022-10-31T15:55:00Z,47.78,-99.93,9.0,-3.0,250,11,,10.0,29.749016,,,TRUE,TRUE,,,,,,,CLR,,,,,,,,VFR,,,,,,,,,,,,METAR,490.0
K54J 311555Z AUTO 34005KT 10SM CLR 21/13 A3006 RMK AO2 T02140129,K54J,2022-10-31T15:55:00Z,30.73,-86.15,21.4,12.9,340,5,,10.0,30.059055,,,TRUE,TRUE,,,,,,,CLR,,,,,,,,VFR,,,,,,,,,,,,METAR,87.0
K54A 311555Z AUTO 07008KT 050V110 10SM CLR 29/23 A2998 RMK AO2,K54A,2022-10-31T15:55:00Z,26.85,-82.25,29.0,23.0,70,8,,10.0,29.97933,,,TRUE,TRUE,,,,,,,CLR,,,,,,,,VFR,,,,,,,,,,,,METAR,2.0
K4S2 311555Z AUTO 00000KT 10SM -DZ SCT043 OVC049 11/10 A2987 RMK AO2,K4S2,2022-10-31T15:55:00Z,45.68,-121.55,11.0,10.0,0,0,,10.0,29.870079,,,TRUE,TRUE,,,,,,-DZ,SCT,4300,OVC,4900,,,,,VFR,,,,,,,,,,,,METAR,183.0
K4R5 311555Z AUTO 00000KT 10SM OVC110 10/05 A2983 RMK AO2 T00970050,K4R5,2022-10-31T15:55:00Z,46.78,-90.77,9.7,5.0,0,0,,10.0,29.828741,,,TRUE,TRUE,,,,,,,OVC,11000,,,,,,,VFR,,,,,,,,,,,,METAR,195.0
K4MR 311555Z AUTO 21003KT 10SM CLR 13/05 A3006 RMK AO2 SLP134 T01270054 $,K4MR,2022-10-31T15:55:00Z,34.3,-103.8,12.7,5.4,210,3,,10.0,30.059055,1013.4,,TRUE,TRUE,TRUE,,,,,,CLR,,,,,,,,VFR,,,,,,,,,,,,METAR,1339.0
K4M9 311555Z AUTO 31009KT 10SM 16/14 A2996 RMK AO2 PWINO,K4M9,2022-10-31T15:55:00Z,36.4,-90.65,16.0,14.0,310,9,,10.0,29.958662,,,TRUE,TRUE,,,,,TRUE,,,,,,,,,,,,,,,,,,,,,,METAR,86.0
K4I3 311555Z AUTO 18010G14KT 10SM BKN012 OVC017 17/15 A2992 RMK AO2,K4I3,2022-10-31T15:55:00Z,40.33,-82.53,17.0,15.0,180,10,14,10.0,29.920275,,,TRUE,TRUE,,,,,,,BKN,1200,OVC,1700,,,,,MVFR,,,,,,,,,,,,METAR,361.0
K4A6 311555Z AUTO 23004KT 10SM FEW013 SCT017 BKN023 17/17 A3003 RMK AO2,K4A6,2022-10-31T15:55:00Z,34.68,-86.0,17.0,17.0,230,4,,10.0,30.029528,,,TRUE,TRUE,,,,,,,FEW,1300,SCT,1700,BKN,2300,,,MVFR,,,,,,,,,,,,METAR,191.0
K46U 311555Z AUTO 00000KT 10SM CLR 01/M03 A3019 RMK A01,K46U,2022-10-31T15:55:00Z,43.18,-111.05,1.0,-3.0,0,0,,10.0,30.188976,,,TRUE,TRUE,,,,,,,CLR,,,,,,,,VFR,,,,,,,,,,,,METAR,1718.0
K46D 311555Z AUTO 24009G15KT 10SM CLR 10/M00 A2977 RMK AO2,K46D,2022-10-31T15:55:00Z,47.45,-99.15,10.0,0.0,240,9,15,10.0,29.769686,,,TRUE,TRUE,,,,,,,CLR,,,,,,,,VFR,,,,,,,,,,,,METAR,488.0
K42J 311555Z AUTO VRB06KT 10SM CLR 27/23 A3003 RMK A01,K42J,2022-10-31T15:55:00Z,29.85,-82.05,27.0,23.0,0,6,,10.0,30.029528,,,TRUE,TRUE,,,,,,,CLR,,,,,,,,VFR,,,,,,,,,,,,METAR,57.0
K3S8 311555Z AUTO 00000KT 1/2SM BR OVC003 06/06 A3008 RMK AO2,K3S8,2022-10-31T15:55:00Z,42.5,-123.4,6.0,6.0,0,0,,0.5,30.079725,,,TRUE,TRUE,,,,,,BR,OVC,300,,,,,,,LIFR,,,,,,,,,,,,METAR,339.0
K3R7 311555Z AUTO 34004KT 10SM CLR 21/14 A3007 RMK AO2 T02100143,K3R7,2022-10-31T15:55:00Z,30.25,-92.67,21.0,14.3,340,4,,10.0,30.070866,,,TRUE,TRUE,,,,,,,CLR,,,,,,,,VFR,,,,,,,,,,,,METAR,5.0
K3N8 311555Z AUTO 20012KT 10SM CLR 09/00 A2976 RMK AO2 T00941001,K3N8,2022-10-31T15:55:00Z,47.25,-95.92,9.4,-0.1,200,12,,10.0,29.760826,,,TRUE,TRUE,,,,,,,CLR,,,,,,,,VFR,,,,,,,,,,,,METAR,379.0
K3LF 311555Z AUTO 25008KT 5SM BR OVC004 12/12 A2989 RMK AO2 T01210120,K3LF,2022-10-31T15:55:00Z,39.17,-89.67,12.1,12.0,250,8,,5.0,29.890747,,,TRUE,TRUE,,,,,,BR,OVC,400,,,,,,,LIFR,,,,,,,,,,,,METAR,207.0
K3J7 311555Z AUTO 19005KT 5SM -RA OVC004 18/18 A3004 RMK AO2,K3J7,2022-10-31T15:55:00Z,33.6,-83.13,18.0,18.0,190,5,,5.0,30.041338,,,TRUE,TRUE,,,,,,-RA,OVC,400,,,,,,,LIFR,,,,,,,,,,,,METAR,207.0
K3I2 311555Z AUTO 18004KT 10SM BKN016 BKN038 19/17 A2997 RMK AO2 T01850173,K3I2,2022-10-31T15:55:00Z,38.92,-82.1,18.5,17.3,180,4,,10.0,29.970472,,,TRUE,TRUE,,,,,,,BKN,1600,BKN,3800,,,,,MVFR,,,,,,,,,,,,METAR,195.0
K3D2 311555Z AUTO 00000KT 10SM CLR 14/06 A2983 RMK AO2 T01370056,K3D2,2022-10-31T15:55:00Z,45.13,-87.18,13.7,5.6,0,0,,10.0,29.828741,,,TRUE,TRUE,,,,,,,CLR,,,,,,,,VFR,,,,,,,,,,,,METAR,233.0
K3AU 311555Z AUTO 29005KT 10SM CLR 15/00 A3003 RMK AO2,K3AU,2022-10-31T15:55:00Z,37.67,-97.08,15.0,0.0,290,5,,10.0,30.029528,,,TRUE,TRUE,,,,,,,CLR,,,,,,,,VFR,,,,,,,,,,,,METAR,403.0
K36K 311555Z AUTO 21010KT 10SM CLR 14/M03 A3005 RMK AO2,K36K,2022-10-31T15:55:00Z,37.97,-101.25,14.0,-3.0,210,10,,10.0,30.050198,,,TRUE,TRUE,,,,,,,CLR,,,,,,,,VFR,,,,,,,,,,,,METAR,938.0
K35A 311555Z AUTO 15003KT 1 3/4SM BR OVC004 16/ A3007 RMK A02 VIS 1 1/4V2 1/2 T0162////,K35A,2022-10-31T15:55:00Z,34.68,-81.63,16.2,,150,3,,1.75,30.070866,,,TRUE,TRUE,,,,,,BR,OVC,400,,,,,,,LIFR,,,,,,,,,,,,METAR,186.0
K33N 311555Z AUTO 19005KT 9SM SCT024 SCT030 18/13 A3008 RMK A01,K33N,2022-10-31T15:55:00Z,39.22,-75.6,18.0,13.0,190,5,,9.0,30.079725,,,TRUE,TRUE,,,,,,,SCT,2400,SCT,3000,,,,,VFR,,,,,,,,,,,,METAR,17.0
K2P2 311555Z AUTO 24005KT 10SM SCT100 BKN120 13/07 A2983 RMK AO2 T01260066,K2P2,2022-10-31T15:55:00Z,45.38,-86.92,12.6,6.6,240,5,,10.0,29.828741,,,TRUE,TRUE,,,,,,,SCT,10000,BKN,12000,,,,,VFR,,,,,,,,,,,,METAR,182.0
K2J9 311555Z AUTO VRB05KT 10SM OVC022 24/18 A3005 RMK AO2,K2J9,2022-10-31T15:55:00Z,30.6,-84.55,24.0,18.0,0,5,,10.0,30.050198,,,TRUE,TRUE,,,,,,,OVC,2200,,,,,,,MVFR,,,,,,,,,,,,METAR,62.0
K2G2 311555Z AUTO 23007G13KT 10SM OVC006 15/15 A2994 RMK A01,K2G2,2022-10-31T15:55:00Z,,,15.0,15.0,230,7,13,10.0,29.940945,,,TRUE,TRUE,,,,,,,OVC,600,,,,,,,IFR,,,,,,,,,,,,METAR,
K2DP 311555Z AUTO 06005KT 10SM CLR 22/14 A3009 RMK AO2 SLPNO T02200141 $,K2DP,2022-10-31T15:55:00Z,35.68,-75.9,22.0,14.1,60,5,,10.0,30.088583,,,TRUE,TRUE,TRUE,,,,,,CLR,,,,,,,,VFR,,,,,,,,,,,,METAR,1.0
K2D5 311555Z AUTO 20014KT 9SM CLR 07/M00 A2979 RMK AO2,K2D5,2022-10-31T15:55:00Z,46.17,-98.08,7.0,0.0,200,14,,9.0,29.790354,,,TRUE,TRUE,,,,,,,CLR,,,,,,,,VFR,,,,,,,,,,,,METAR,407.0
K2C8 311555Z AUTO 26010KT 10SM CLR 10/02 A2965 RMK AO2,K2C8,2022-10-31T15:55:00Z,48.78,-97.63,10.0,2.0,260,10,,10.0,29.648623,,,TRUE,TRUE,,,,,,,CLR,,,,,,,,VFR,,,,,,,,,,,,METAR,271.0
K2A0 311555Z AUTO 24006KT 10SM SCT008 BKN014 BKN047 17/17 A3000 RMK A01,K2A0,2022-10-31T15:55:00Z,35.48,-84.93,17.0,17.0,240,6,,10.0,30.0,,,TRUE,TRUE,,,,,,,SCT,800,BKN,1400,BKN,4700,,,MVFR,,,,,,,,,,,,METAR,219.0
K28J 311555Z AUTO 15006KT 9SM SCT022 BKN027 OVC060 25/20 A3003 RMK AO2 TSNO,K28J,2022-10-31T15:55:00Z,29.65,-81.68,25.0,20.0,150,6,,9.0,30.029528,,,TRUE,TRUE,,,TRUE,,,,SCT,2200,BKN,2700,OVC,6000,,,MVFR,,,,,,,,,,,,METAR,9.0
K27K 311555Z AUTO 21007KT 10SM BKN012 OVC033 16/14 A2995 RMK AO1,K27K,2022-10-31T15:55:00Z,38.23,-84.43,16.0,14.0,210,7,,10.0,29.949802,,,TRUE,TRUE,,,,,,,BKN,1200,OVC,3300,,,,,MVFR,,,,,,,,,,,,METAR,283.0
K24J 311555Z AUTO 15008KT 10SM CLR 27/21 A3002 RMK A01,K24J,2022-10-31T15:55:00Z,30.3,-83.03,27.0,21.0,150,8,,10.0,30.02067,,,TRUE,TRUE,,,,,,,CLR,,,,,,,,VFR,,,,,,,,,,,,METAR,30.0
K24A 311555Z AUTO 00000KT 1/2SM FG BKN001 OVC021 15/15 A3007 RMK AO2 VIS 1/4V5 P0001 T01470146,K24A,2022-10-31T15:55:00Z,35.32,-83.2,14.7,14.6,0,0,,0.5,30.070866,,,TRUE,TRUE,,,,,,FG,BKN,100,OVC,2100,,,,,LIFR,,,,,,0.01,,,,,,METAR,864.0
K22N 311555Z AUTO 00000KT 10SM OVC012 10/06 A3009 RMK AO2,K22N,2022-10-31T15:55:00Z,40.8,-75.77,10.0,6.0,0,0,,10.0,30.088583,,,TRUE,TRUE,,,,,,,OVC,1200,,,,,,,MVFR,,,,,,,,,,,,METAR,159.0
K21D 311555Z AUTO 00000KT 10SM CLR 10/03 A2988 RMK AO2,K21D,2022-10-31T15:55:00Z,45.0,-92.85,10.0,3.0,0,0,,10.0,29.878937,,,TRUE,TRUE,,,,,,,CLR,,,,,,,,VFR,,,,,,,,,,,,METAR,281.0
K20U 311555Z AUTO 23011KT 10SM CLR 08/M02 A2980 RMK AO2,K20U,2022-10-31T15:55:00Z,46.93,-103.98,8.0,-2.0,230,11,,10.0,29.799213,,,TRUE,TRUE,,,,,,,CLR,,,,,,,,VFR,,,,,,,,,,,,METAR,839.0
K1YT 311555Z AUTO 00000KT 10SM OVC070 11/05 A2977 RMK AO2 SLP086 T01120053 $,K1YT,2022-10-31T15:55:00Z,46.67,-120.45,11.2,5.3,0,0,,10.0,29.769686,1008.6,,TRUE,TRUE,TRUE,,,,,,OVC,7000,,,,,,,VFR,,,,,,,,,,,,METAR,423.0
K1V6 311555Z AUTO 29016KT 10SM CLR 12/M06 A3005 RMK AO2,K1V6,2022-10-31T15:55:00Z,38.43,-105.1,12.0,-6.0,290,16,,10.0,30.050198,,,TRUE,TRUE,,,,,,,CLR,,,,,,,,VFR,,,,,,,,,,,,METAR,1658.0
K1S5 311555Z AUTO 13003KT 10SM OVC090 14/08 A2981 RMK AO2 T01410081,K1S5,2022-10-31T15:55:00Z,46.33,-119.97,14.1,8.1,130,3,,10.0,29.811024,,,TRUE,TRUE,,,,,,,OVC,9000,,,,,,,VFR,,,,,,,,,,,,SPECI,228.0
K1R7 311555Z AUTO 28005KT 10SM CLR 21/20 A3008 RMK AO2 PWINO,K1R7,2022-10-31T15:55:00Z,31.6,-90.42,21.0,20.0,280,5,,10.0,30.079725,,,TRUE,TRUE,,,,,TRUE,,CLR,,,,,,,,VFR,,,,,,,,,,,,METAR,142.0
K1P1 311555Z AUTO 00000KT 10SM CLR 12/02 A3001 RMK AO2 T01210016,K1P1,2022-10-31T15:55:00Z,43.78,-71.75,12.1,1.6,0,0,,10.0,30.008858,,,TRUE,TRUE,,,,,,,CLR,,,,,,,,VFR,,,,,,,,,,,,METAR,155.0
K1OW 311555Z AUTO 29008KT 10SM CLR 12/M09 A3013 RMK AO2 SLP190 T01241087 FZRANO $,K1OW,2022-10-31T15:55:00Z,40.88,-104.0,12.4,-8.7,290,8,,10.0,30.129921,1019.0,,TRUE,TRUE,TRUE,,,TRUE,,,CLR,,,,,,,,VFR,,,,,,,,,,,,METAR,1650.0
K1OM 311555Z AUTO 23024G31KT 10SM CLR 14/01 A2968 RMK AO2 PK WND 23031/47 SLP056 T01360006 $,K1OM,2022-10-31T15:55:00Z,47.33,-108.93,13.6,0.6,230,24,31,10.0,29.681103,1005.6,,TRUE,TRUE,TRUE,,,,,,CLR,,,,,,,,VFR,,,,,,,,,,,,METAR,1088.0
K1NM 311555Z AUTO 28008KT 10SM SCT210 12/00 A2970 RMK AO2 SLP064 T01200001 $,K1NM,2022-10-31T15:55:00Z,47.07,-109.03,12.0,0.1,280,8,,10.0,29.698818,1006.4,,TRUE,TRUE,TRUE,,,,,,SCT,21000,,,,,,,VFR,,,,,,,,,,,,METAR,1169.0
K1MW 311555Z AUTO 24005KT 10SM M 10/M08 A2999 RMK AO2 SLP152 T01001077 FZRANO $,K1MW,2022-10-31T15:55:00Z,40.7,-103.48,10.0,-7.7,240,5,,10.0,29.991142,1015.2,,TRUE,TRUE,TRUE,,,TRUE,,,,,,,,,,,,,,,,,,,,,,,METAR,1338.0
K1MM 311555Z AUTO 25024G31KT 10SM CLR 13/M00 A2975 RMK AO2 PK WND 24037/10 SLP077 T01291004 $,K1MM,2022-10-31T15:55:00Z,47.02,-109.63,12.9,-0.4,250,24,31,10.0,29.749016,1007.7,,TRUE,TRUE,TRUE,,,,,,CLR,,,,,,,,VFR,,,,,,,,,,,,METAR,1256.0
K1M5 311555Z AUTO 21008KT 190V250 10SM FEW013 SCT024 BKN029 17/15 A2995 RMK A01,K1M5,2022-10-31T15:55:00Z,36.6,-86.48,17.0,15.0,210,8,,10.0,29.949802,,,TRUE,TRUE,,,,,,,FEW,1300,SCT,2400,BKN,2900,,,MVFR,,,,,,,,,,,,METAR,239.0
K1LM 311555Z AUTO 25003KT 10SM BKN100 OVC230 10/M01 A2982 RMK AO2 SLP100 T00961009 $,K1LM,2022-10-31T15:55:00Z,46.7,-109.73,9.6,-0.9,250,3,,10.0,29.819881,1010.0,,TRUE,TRUE,TRUE,,,,,,BKN,10000,OVC,23000,,,,,VFR,,,,,,,,,,,,METAR,1417.0
K1KM 311555Z AUTO 26019KT 10SM BKN140 OVC170 09/M01 A2979 RMK AO2 SLP090 T00911011 $,K1KM,2022-10-31T15:55:00Z,46.45,-109.8,9.1,-1.1,260,19,,10.0,29.790354,1009.0,,TRUE,TRUE,TRUE,,,,,,BKN,14000,OVC,17000,,,,,VFR,,,,,,,,,,,,METAR,1332.0
K1K1 311555Z AUTO 31004KT 10SM CLR 14/01 A3002 RMK AO2 T01400014,K1K1,2022-10-31T15:55:00Z,37.77,-97.12,14.0,1.4,310,4,,10.0,30.02067,,,TRUE,TRUE,,,,,,,CLR,,,,,,,,VFR,,,,,,,,,,,,METAR,411.0
K1JW 311555Z AUTO 28009G17KT 10SM CLR 15/M09 A2996 RMK AO2 SLP132 T01531089 FZRANO $,K1JW,2022-10-31T15:55:00Z,40.97,-103.2,15.3,-8.9,280,9,17,10.0,29.958662,1013.2,,TRUE,TRUE,TRUE,,,TRUE,,,CLR,,,,,,,,VFR,,,,,,,,,,,,METAR,1382.0
K1JM 311555Z AUTO 20028G35KT 10SM CLR 11/01 A2966 RMK AO2 PK WND 20035/49 SLP052 T01140013 PWINO $,K1JM,2022-10-31T15:55:00Z,47.75,-111.55,11.4,1.3,200,28,35,10.0,29.660433,1005.2,,TRUE,TRUE,TRUE,,,,TRUE,,CLR,,,,,,,,VFR,,,,,,,,,,,,METAR,1154.0
K1IW 311555Z AUTO 29013KT 10SM CLR 14/M06 A2996 RMK AO2 SLP133 T01411062 FZRANO $,K1IW,2022-10-31T15:55:00Z,41.05,-102.87,14.1,-6.2,290,13,,10.0,29.958662,1013.3,,TRUE,TRUE,TRUE,,,TRUE,,,CLR,,,,,,,,VFR,,,,,,,,,,,,METAR,1294.0
K1IM 311555Z AUTO 23020G27KT 10SM CLR 13/02 A2971 RMK AO2 PK WND 23027/47 SLP064 T01310023 $,K1IM,2022-10-31T15:55:00Z,47.32,-111.47,13.1,2.3,230,20,27,10.0,29.71063,1006.4,,TRUE,TRUE,TRUE,,,,,,CLR,,,,,,,,VFR,,,,,,,,,,,,METAR,1110.0
K1HW 311555Z AUTO 29015KT 10SM CLR 13/M06 A2995 RMK AO2 SLP138 T01261064 FZRANO $,K1HW,2022-10-31T15:55:00Z,41.32,-102.83,12.6,-6.4,290,15,,10.0,29.949802,1013.8,,TRUE,TRUE,TRUE,,,TRUE,,,CLR,,,,,,,,VFR,,,,,,,,,,,,METAR,1265.0
K1HM 311555Z AUTO 28021G31KT 10SM CLR 12/02 A2966 RMK AO2 PK WND 28038/13 SLP052 T01180020 $,K1HM,2022-10-31T15:55:00Z,47.7,-111.95,11.8,2.0,280,21,31,10.0,29.660433,1005.2,,TRUE,TRUE,TRUE,,,,,,CLR,,,,,,,,VFR,,,,,,,,,,,,METAR,1181.0
K1GM 311555Z AUTO 19021G28KT 10SM CLR 09/02 A2967 RMK AO2 PK WND 19032/14 SLP059 T00890020 $,K1GM,2022-10-31T15:55:00Z,47.33,-112.1,8.9,2.0,190,21,28,10.0,29.66929,1005.9,,TRUE,TRUE,TRUE,,,,,,CLR,,,,,,,,VFR,,,,,,,,,,,,METAR,1317.0
K1FM 311555Z AUTO 26016G26KT 10SM FEW055 12/01 A2967 RMK AO2 PK WND 28026/52 SLP049 T01200010 $,K1FM,2022-10-31T15:55:00Z,47.6,-112.32,12.0,1.0,260,16,26,10.0,29.66929,1004.9,,TRUE,TRUE,TRUE,,,,,,FEW,5500,,,,,,,VFR,,,,,,,,,,,,METAR,1344.0
K1EW 311555Z AUTO 09011KT 10SM CLR 12/M09 A2999 RMK AO2 SLP143 T01191092 FZRANO $,K1EW,2022-10-31T15:55:00Z,41.12,-103.98,11.9,-9.2,90,11,,10.0,29.991142,1014.3,,TRUE,TRUE,TRUE,,,TRUE,,,CLR,,,,,,,,VFR,,,,,,,,,,,,METAR,1609.0
K1EM 311555Z AUTO 24018G22KT 10SM FEW200 BKN240 13/01 A2970 RMK AO2 SLP062 T01280005 $,K1EM,2022-10-31T15:55:00Z,47.45,-109.42,12.8,0.5,240,18,22,10.0,29.698818,1006.2,,TRUE,TRUE,TRUE,,,,,,FEW,20000,BKN,24000,,,,,VFR,,,,,,,,,,,,METAR,1118.0
K1DW 311555Z AUTO 28011KT 10SM CLR 11/M07 A3001 RMK AO2 SLP148 T01141074 FZRANO $,K1DW,2022-10-31T15:55:00Z,41.37,-103.8,11.4,-7.4,280,11,,10.0,30.008858,1014.8,,TRUE,TRUE,TRUE,,,TRUE,,,CLR,,,,,,,,VFR,,,,,,,,,,,,METAR,1539.0
K1DM 311555Z AUTO 25027G32KT 10SM FEW220 14/01 A2970 RMK AO2 PK WND 24035/27 SLP061 T01370007 $,K1DM,2022-10-31T15:55:00Z,47.37,-109.8,13.7,0.7,250,27,32,10.0,29.698818,1006.1,,TRUE,TRUE,TRUE,,,,,,FEW,22000,,,,,,,VFR,,,,,,,,,,,,METAR,1093.0
K1CW 311555Z AUTO 32011KT 10SM CLR 12/M09 A2998 RMK AO2 SLP140 T01191092 FZRANO $,K1CW,2022-10-31T15:55:00Z,41.58,-103.57,11.9,-9.2,320,11,,10.0,29.97933,1014.0,,TRUE,TRUE,TRUE,,,TRUE,,,CLR,,,,,,,,VFR,,,,,,,,,,,,METAR,1370.0
K1CM 311555Z AUTO 19012KT 10SM FEW070 SCT100 12/00 A2977 RMK AO2 SLP081 T01200004 $,K1CM,2022-10-31T15:55:00Z,47.1,-110.17,12.0,0.4,190,12,,10.0,29.769686,1008.1,,TRUE,TRUE,TRUE,,,,,,FEW,7000,SCT,10000,,,,,VFR,,,,,,,,,,,,METAR,1338.0
K1BW 311555Z AUTO 28010KT 10SM CLR 10/M09 A3003 RMK AO2 SLP163 T00961095 FZRANO $,K1BW,2022-10-31T15:55:00Z,41.52,-104.0,9.6,-9.5,280,10,,10.0,30.029528,1016.3,,TRUE,TRUE,TRUE,,,TRUE,,,CLR,,,,,,,,VFR,,,,,,,,,,,,METAR,1606.0
K1BM 311555Z AUTO 24019G25KT 10SM CLR 13/00 A2974 RMK AO2 PK WND 25028/06 SLP069 T01340004 $,K1BM,2022-10-31T15:55:00Z,47.28,-110.37,13.4,0.4,240,19,25,10.0,29.740158,1006.9,,TRUE,TRUE,TRUE,,,,,,CLR,,,,,,,,VFR,,,,,,,,,,,,METAR,1234.0
K1AW 311555Z AUTO 27015KT 10SM CLR 12/M09 A3001 RMK AO2 SLP147 T01171088 FZRANO $,K1AW,2022-10-31T15:55:00Z,41.33,-104.27,11.7,-8.8,270,15,,10.0,30.008858,1014.7,,TRUE,TRUE,TRUE,,,TRUE,,,CLR,,,,,,,,VFR,,,,,,,,,,,,METAR,1670.0
K1AM 311555Z AUTO 23018G26KT 10SM BKN240 14/01 A2973 RMK AO2 SLP063 T01350005 $,K1AM,2022-10-31T15:55:00Z,47.28,-110.8,13.5,0.5,230,18,26,10.0,29.731298,1006.3,,TRUE,TRUE,TRUE,,,,,,BKN,24000,,,,,,,VFR,,,,,,,,,,,,METAR,1228.0
K1A9 311555Z AUTO 25004KT 10SM CLR 20/14 A3005 RMK AO2 T01950140,K1A9,2022-10-31T15:55:00Z,32.43,-86.52,19.5,14.0,250,4,,10.0,30.050198,,,TRUE,TRUE,,,,,,,CLR,,,,,,,,VFR,,,,,,,,,,,,METAR,65.0
K1A5 311555Z AUTO 00000KT 10SM SCT009 BKN041 17/15 A3008 RMK AO2 T01720148,K1A5,2022-10-31T15:55:00Z,35.22,-83.42,17.2,14.8,0,0,,10.0,30.079725,,,TRUE,TRUE,,,,,,,SCT,900,BKN,4100,,,,,VFR,,,,,,,,,,,,METAR,611.0
K15M 311555Z AUTO 00000KT 2SM -RA BR OVC005 15/15 A3002 RMK AO2 VIS 1V5 CIG 003V007 P0003 T01510151 $,K15M,2022-10-31T15:55:00Z,34.77,-88.17,15.1,15.1,0,0,,2.0,30.02067,,,TRUE,TRUE,TRUE,,,,,-RA BR,OVC,500,,,,,,,IFR,,,,,,0.03,,,,,,METAR,192.0
K14Y 311555Z AUTO 20006KT 10SM CLR 08/01 A2984 RMK AO2,K14Y,2022-10-31T15:55:00Z,45.9,-94.87,8.0,1.0,200,6,,10.0,29.840551,,,TRUE,TRUE,,,,,,,CLR,,,,,,,,VFR,,,,,,,,,,,,METAR,404.0
K11R 311555Z AUTO 00000KT 10SM CLR 21/15 A3008 RMK AO2 T02050152,K11R,2022-10-31T15:55:00Z,30.22,-96.37,20.5,15.2,0,0,,10.0,30.079725,,,TRUE,TRUE,,,,,,,CLR,,,,,,,,VFR,,,,,,,,,,,,METAR,87.0
K10G 311555Z AUTO 19007KT 5SM BR OVC004 15/15 A2993 RMK AO2,K10G,2022-10-31T15:55:00Z,,,15.0,15.0,190,7,,5.0,29.929134,,,TRUE,TRUE,,,,,,BR,OVC,400,,,,,,,LIFR,,,,,,,,,,,,METAR,
K0VG 311555Z AUTO 00000KT 10SM SCT005 SCT010 BKN017 16/16 A3002 RMK AO2,K0VG,2022-10-31T15:55:00Z,36.65,-83.22,16.0,16.0,0,0,,10.0,30.02067,,,TRUE,TRUE,,,,,,,SCT,500,SCT,1000,BKN,1700,,,MVFR,,,,,,,,,,,,METAR,426.0
K0V4 311555Z AUTO 17005KT 10SM SCT012 OVC022 16/13 A3009 RMK AO1,K0V4,2022-10-31T15:55:00Z,37.15,-79.02,16.0,13.0,170,5,,10.0,30.088583,,,TRUE,TRUE,,,,,,,SCT,1200,OVC,2200,,,,,MVFR,,,,,,,,,,,,METAR,186.0
K0S9 311555Z AUTO 30008G17KT 8SM -RA BKN008 BKN014 OVC055 10/10 A2977 RMK AO2,K0S9,2022-10-31T15:55:00Z,48.05,-122.82,10.0,10.0,300,8,17,8.0,29.769686,,,TRUE,TRUE,,,,,,-RA,BKN,800,BKN,1400,OVC,5500,,,IFR,,,,,,,,,,,,METAR,33.0
K0R0 311555Z AUTO 32005KT 9SM CLR 23/14 A3009 RMK AO2,K0R0,2022-10-31T15:55:00Z,31.3,-89.82,23.0,14.0,320,5,,9.0,30.088583,,,TRUE,TRUE,,,,,,,CLR,,,,,,,,VFR,,,,,,,,,,,,METAR,76.0
K0F2 311555Z AUTO 00000KT 10SM CLR 18/11 A3007 RMK AO2 T01750114,K0F2,2022-10-31T15:55:00Z,33.6,-97.78,17.5,11.4,0,0,,10.0,30.070866,,,TRUE,TRUE,,,,,,,CLR,,,,,,,,VFR,,,,,,,,,,,,METAR,330.0
K0E0 311555Z AUTO 00000KT 10SM CLR 06/00 A3017 RMK AO2 T00621005 TSNO,K0E0,2022-10-31T15:55:00Z,34.98,-106.0,6.2,-0.5,0,0,,10.0,30.171259,,,TRUE,TRUE,,,TRUE,,,,CLR,,,,,,,,VFR,,,,,,,,,,,,METAR,1887.0
K0CO 311555Z AUTO 34016G21KT 10SM CLR M07/M15 A3026 RMK AO2,K0CO,2022-10-31T15:55:00Z,39.8,-105.77,-7.0,-15.0,340,16,21,10.0,30.259842,,,TRUE,TRUE,,,,,,,CLR,,,,,,,,VFR,,,,,,,,,,,,METAR,3804.0
K0A9 311555Z AUTO 00000KT 9SM FEW028 BKN033 OVC041 17/16 A3003 RMK A01,K0A9,2022-10-31T15:55:00Z,36.37,-82.17,17.0,16.0,0,0,,9.0,30.029528,,,TRUE,TRUE,,,,,,,FEW,2800,BKN,3300,OVC,4100,,,VFR,,,,,,,,,,,,METAR,479.0
K0A0 311555Z AUTO 34012KT 10SM CLR 14/M04 A3010 RMK AO2,K0A0,2022-10-31T15:55:00Z,32.98,-106.97,14.0,-4.0,340,12,,10.0,30.100393,,,TRUE,TRUE,,,,,,,CLR,,,,,,,,VFR,,,,,,,,,,,,METAR,1401.0
K08D 311555Z AUTO 25007KT 10SM CLR 07/01 A2974 RMK AO2,K08D,2022-10-31T15:55:00Z,48.3,-102.4,7.0,1.0,250,7,,10.0,29.740158,,,TRUE,TRUE,,,,,,,CLR,,,,,,,,VFR,,,,,,,,,,,,METAR,683.0
K06D 311555Z AUTO 24012KT 10SM CLR 07/02 A2968 RMK AO2,K06D,2022-10-31T15:55:00Z,48.88,-99.62,7.0,2.0,240,12,,10.0,29.681103,,,TRUE,TRUE,,,,,,,CLR,,,,,,,,VFR,,,,,,,,,,,,METAR,554.0
K05U 311555Z AUTO 00000KT 10SM CLR 03/M06 A3018 RMK A01,K05U,2022-10-31T15:55:00Z,39.6,-116.0,3.0,-6.0,0,0,,10.0,30.180119,,,TRUE,TRUE,,,,,,,CLR,,,,,,,,VFR,,,,,,,,,,,,METAR,1813.0
K04W 311555Z AUTO 19003KT 10SM CLR 10/02 A2986 RMK AO2,K04W,2022-10-31T15:55:00Z,46.02,-92.9,10.0,2.0,190,3,,10.0,29.861221,,,TRUE,TRUE,,,,,,,CLR,,,,,,,,VFR,,,,,,,,,,,,METAR,310.0
FJDG 311555Z VRB03KT 9999 FEW020 28/22 A2990 RMK SLP122 T02750221,FJDG,2022-10-31T15:55:00Z,-7.32,72.42,27.5,22.1,0,3,,6.21,29.899607,1012.2,,,,,,,,,,FEW,2000,,,,,,,VFR,,,,,,,,,,,,METAR,3.0
ETAD 311555Z AUTO 11006KT 9999 CLR 15/10 A2997 RMK AO2 SLP139 T01480102 $,ETAD,2022-10-31T15:55:00Z,49.98,6.7,14.8,10.2,110,6,,6.21,29.970472,1013.9,,TRUE,TRUE,TRUE,,,,,,CLR,,,,,,,,VFR,,,,,,,,,,,,METAR,365.0
EHWO 311555Z AUTO 08005KT 8000 BR OVC130 16/14 Q1011 BLU,EHWO,2022-10-31T15:55:00Z,51.45,4.33,16.0,14.0,80,5,,4.97,29.852362,,,TRUE,,,,,,,BR,OVC,13000,,,,,,,MVFR,,,,,,,,,,,,METAR,15.0
EHVL 311555Z AUTO 11012KT 9999 OVC110 14/12 Q1014 BLU,EHVL,2022-10-31T15:55:00Z,53.28,5.08,14.0,12.0,110,12,,6.21,29.940945,,,TRUE,,,,,,,,OVC,11000,,,,,,,VFR,,,,,,,,,,,,METAR,2.0
EHVK 311555Z AUTO 08005KT 9999 FEW120 15/13 Q1013 BLU,EHVK,2022-10-31T15:55:00Z,51.65,5.7,15.0,13.0,80,5,,6.21,29.911417,,,TRUE,,,,,,,,FEW,12000,,,,,,,VFR,,,,,,,,,,,,METAR,20.0
EHRD 311555Z AUTO 09008KT 6000 NSC 15/15 Q1012 NOSIG,EHRD,2022-10-31T15:55:00Z,51.95,4.45,15.0,15.0,90,8,,3.73,29.88189,,,TRUE,,,TRUE,,,,,CLR,,,,,,,,MVFR,,,,,,,,,,,,METAR,-4.0
EHLW 311555Z AUTO 10008KT 010V170 9999 SCT095 OVC100 15/11 Q1014 BLU,EHLW,2022-10-31T15:55:00Z,53.22,5.75,15.0,11.0,100,8,,6.21,29.940945,,,TRUE,,,,,,,,SCT,9500,OVC,10000,,,,,VFR,,,,,,,,,,,,METAR,1.0
EHLE 311555Z AUTO 08006KT 050V110 9999 NSC 15/13 Q1013 NOSIG,EHLE,2022-10-31T15:55:00Z,52.45,5.52,15.0,13.0,80,6,,6.21,29.911417,,,TRUE,,,TRUE,,,,,CLR,,,,,,,,VFR,,,,,,,,,,,,METAR,-3.0
EHKD 311555Z AUTO 10008KT 080V140 9999 SCT088 BKN099 OVC110 15/12 Q1013 BLU NOSIG,EHKD,2022-10-31T15:55:00Z,52.92,4.77,15.0,12.0,100,8,,6.21,29.911417,,,TRUE,,,TRUE,,,,,SCT,8800,BKN,9900,OVC,11000,,,VFR,,,,,,,,,,,,METAR,1.0
EHGR 311555Z AUTO 11007KT 060V130 9999 NCD 16/13 Q1012 BLU,EHGR,2022-10-31T15:55:00Z,51.55,4.93,16.0,13.0,110,7,,6.21,29.88189,,,TRUE,,,,,,,,CLR,,,,,,,,VFR,,,,,,,,,,,,METAR,12.0
EHGG 311555Z AUTO 08006KT 9999 NSC 14/12 Q1015 NOSIG,EHGG,2022-10-31T15:55:00Z,53.12,6.57,14.0,12.0,80,6,,6.21,29.970472,,,TRUE,,,TRUE,,,,,CLR,,,,,,,,VFR,,,,,,,,,,,,METAR,2.0
EHEH 311555Z AUTO VRB04KT 9999 NCD 16/13 Q1012 BLU NOSIG,EHEH,2022-10-31T15:55:00Z,51.45,5.38,16.0,13.0,0,4,,6.21,29.88189,,,TRUE,,,TRUE,,,,,CLR,,,,,,,,VFR,,,,,,,,,,,,METAR,20.0
EHDL 311555Z AUTO 09004KT 010V170 9999 OVC100 16/13 Q1013 BLU,EHDL,2022-10-31T15:55:00Z,52.07,5.88,16.0,13.0,90,4,,6.21,29.911417,,,TRUE,,,,,,,,OVC,10000,,,,,,,VFR,,,,,,,,,,,,METAR,49.0
EHBK 311555Z AUTO 11006KT 9999 NCD 16/13 Q1013 NOSIG,EHBK,2022-10-31T15:55:00Z,50.92,5.77,16.0,13.0,110,6,,6.21,29.911417,,,TRUE,,,TRUE,,,,,CLR,,,,,,,,VFR,,,,,,,,,,,,METAR,112.0
EHAM 311555Z 08009KT CAVOK 15/13 Q1013 NOSIG,EHAM,2022-10-31T15:55:00Z,52.32,4.78,15.0,13.0,80,9,,6.21,29.911417,,,,,,TRUE,,,,,CAVOK,,,,,,,,VFR,,,,,,,,,,,,METAR,-2.0
EGUN 311555Z 11010G15KT 9999 SCT090 OVC200 15/13 A2978 RMK AO2A SLP088 T01490134 $,EGUN,2022-10-31T15:55:00Z,52.37,0.48,14.9,13.4,110,10,15,6.21,29.778543,1008.8,,,TRUE,TRUE,,,,,,SCT,9000,OVC,20000,,,,,VFR,,,,,,,,,,,,METAR,10.0
EGUL 311555Z AUTO 08005KT 9999 SCT085 15/13 A2978 RMK AO2 SLP088 T01520125 $,EGUL,2022-10-31T15:55:00Z,52.42,0.57,15.2,12.5,80,5,,6.21,29.778543,1008.8,,TRUE,TRUE,TRUE,,,,,,SCT,8500,,,,,,,VFR,,,,,,,,,,,,METAR,8.0
CYYL 311555Z AUTO 30012G18KT 9SM OVC008 02/01 A2923 RMK SLP920,CYYL,2022-10-31T15:55:00Z,56.87,-101.07,2.0,1.0,300,12,18,9.0,29.22933,992.0,,TRUE,,,,,,,,OVC,800,,,,,,,IFR,,,,,,,,,,,,SPECI,351.0
BGTL 311555Z AUTO 11005KT 9999 CLR M16/M22 A2929 RMK AO2 SLP908 T11571217 TSNO $,BGTL,2022-10-31T15:55:00Z,76.53,-68.75,-15.7,-21.7,110,5,,6.21,29.291338,990.8,,TRUE,TRUE,TRUE,,TRUE,,,,CLR,,,,,,,,VFR,,,,,,,,,,,,METAR,79.0
YSCB 311554Z AUTO 29020KT 9999 -SHRA SCT031 BKN047 BKN056 14/10 Q0987,YSCB,2022-10-31T15:54:00Z,-35.3,149.18,14.0,10.0,290,20,,6.21,29.143702,,,TRUE,,,,,,,-SHRA,SCT,3100,BKN,4700,BKN,5600,,,VFR,,,,,,,,,,,,SPECI,577.0
PKMR 311554Z VRB03KT 15SM FEW015 SCT050 SCT120 OVC300 27/23 A2977 RMK SLP081 T02670234,PKMR,2022-10-31T15:54:00Z,7.08,171.38,26.7,23.4,0,3,,15.0,29.769686,1008.1,,,,,,,,,,FEW,1500,SCT,5000,SCT,12000,OVC,30000,VFR,,,,,,,,,,,,METAR,7.0
PHOG 311554Z 04010KT 10SM CLR 25/20 A3000 RMK AO2 SLP163 T02500200 $,PHOG,2022-10-31T15:54:00Z,20.9,-156.43,25.0,20.0,40,10,,10.0,30.0,1016.3,,,TRUE,TRUE,,,,,,CLR,,,,,,,,VFR,,,,,,,,,,,,METAR,14.0
PHMK 311554Z 03008KT 10SM CLR 24/20 A3001 RMK AO2 SLP165 T02390200,PHMK,2022-10-31T15:54:00Z,21.15,-157.1,23.9,20.0,30,8,,10.0,30.008858,1016.5,,,TRUE,,,,,,,CLR,,,,,,,,VFR,,,,,,,,,,,,METAR,135.0
PGUM 311554Z 10005KT 10SM CLR 27/26 A2984 RMK AO2 SLP095 T02720256,PGUM,2022-10-31T15:54:00Z,13.48,144.8,27.2,25.6,100,5,,10.0,29.840551,1009.5,,,TRUE,,,,,,,CLR,,,,,,,,VFR,,,,,,,,,,,,METAR,74.0
PGSN 311554Z 10007KT 10SM FEW020 28/25 A2983 RMK AO2 RAE15 SLP124 P0000 T02780250 $,PGSN,2022-10-31T15:54:00Z,15.12,145.72,27.8,25.0,100,7,,10.0,29.828741,1012.4,,,TRUE,TRUE,,,,,,FEW,2000,,,,,,,VFR,,,,,,0.005,,,,,,METAR,65.0
PAKN 311554Z AUTO 32007KT 10SM CLR M08/M11 A3007 RMK AO2 SLP183 T10831111 TSNO,PAKN,2022-10-31T15:54:00Z,58.68,-156.65,-8.3,-11.1,320,7,,10.0,30.070866,1018.3,,TRUE,TRUE,,,TRUE,,,,CLR,,,,,,,,VFR,,,,,,,,,,,,METAR,20.0
PAHN 311554Z AUTO 12003KT 8SM -RA BKN007 OVC013 01/01 A2948 RMK AO2 RAB25SNE25 SLP983 P0002 T00110006 TSNO,PAHN,2022-10-31T15:54:00Z,59.25,-135.52,1.1,0.6,120,3,,8.0,29.480314,998.3,,TRUE,TRUE,,,TRUE,,,-RA,BKN,700,OVC,1300,,,,,IFR,,,,,,0.02,,,,,,METAR,15.0
KWLD 311554Z AUTO 33005KT 10SM CLR 15/04 A3004 RMK AO2 SLP169 T01500039,KWLD,2022-10-31T15:54:00Z,37.17,-97.03,15.0,3.9,330,5,,10.0,30.041338,1016.9,,TRUE,TRUE,,,,,,,CLR,,,,,,,,VFR,,,,,,,,,,,,METAR,351.0
KWAL 311554Z 12005KT 10SM FEW070 19/13 A3010 RMK AO2 SLP191 T01940128,KWAL,2022-10-31T15:54:00Z,37.93,-75.47,19.4,12.8,120,5,,10.0,30.100393,1019.1,,,TRUE,,,,,,,FEW,7000,,,,,,,VFR,,,,,,,,,,,,METAR,10.0
KVTA 311554Z AUTO 22008KT 10SM SCT016 SCT022 OVC032 19/14 A2991 RMK AO2 SLP126 T01940144,KVTA,2022-10-31T15:54:00Z,40.02,-82.47,19.4,14.4,220,8,,10.0,29.911417,1012.6,,TRUE,TRUE,,,,,,,SCT,1600,SCT,2200,OVC,3200,,,VFR,,,,,,,,,,,,METAR,268.0
KVSF 311554Z AUTO 00000KT 10SM CLR 12/02 A3003 RMK AO2 SLP172 T01220017,KVSF,2022-10-31T15:54:00Z,43.35,-72.52,12.2,1.7,0,0,,10.0,30.029528,1017.2,,TRUE,TRUE,,,,,,,CLR,,,,,,,,VFR,,,,,,,,,,,,METAR,176.0
KVAY 311554Z AUTO VRB03KT 10SM BKN028 17/12 A3008 RMK AO2 SLP186 T01720117 PWINO,KVAY,2022-10-31T15:54:00Z,39.93,-74.83,17.2,11.7,0,3,,10.0,30.079725,1018.6,,TRUE,TRUE,,,,,TRUE,,BKN,2800,,,,,,,MVFR,,,,,,,,,,,,METAR,15.0
KUZA 311554Z AUTO VRB05KT 6SM BR OVC005 17/16 A3005 RMK AO2 SLP173 T01720161,KUZA,2022-10-31T15:54:00Z,34.98,-81.05,17.2,16.1,0,5,,6.0,30.050198,1017.3,,TRUE,TRUE,,,,,,BR,OVC,500,,,,,,,IFR,,,,,,,,,,,,METAR,198.0
KUIN 311554Z AUTO 31009KT 8SM BKN038 OVC110 13/11 A2990 RMK AO2 RAE1459 SLP123 P0000 T01280106,KUIN,2022-10-31T15:54:00Z,39.95,-91.2,12.8,10.6,310,9,,8.0,29.899607,1012.3,,TRUE,TRUE,,,,,,,BKN,3800,OVC,11000,,,,,VFR,,,,,,0.005,,,,,,METAR,233.0
KTQE 311554Z AUTO VRB03KT 10SM CLR 12/02 A2995 RMK AO2 SLP141 T01170017,KTQE,2022-10-31T15:54:00Z,41.77,-96.18,11.7,1.7,0,3,,10.0,29.949802,1014.1,,TRUE,TRUE,,,,,,,CLR,,,,,,,,VFR,,,,,,,,,,,,METAR,312.0
KTAD 311554Z AUTO 26011KT 10SM CLR 11/M03 A3007 RMK AO2 SLP158 T01111033,KTAD,2022-10-31T15:54:00Z,37.27,-104.33,11.1,-3.3,260,11,,10.0,30.070866,1015.8,,TRUE,TRUE,,,,,,,CLR,,,,,,,,VFR,,,,,,,,,,,,METAR,1751.0
KSYR 311554Z 08004KT 10SM SCT120 BKN150 OVC180 15/07 A2997 RMK AO2 SLP146 T01500067,KSYR,2022-10-31T15:54:00Z,43.12,-76.1,15.0,6.7,80,4,,10.0,29.970472,1014.6,,,TRUE,,,,,,,SCT,12000,BKN,15000,OVC,18000,,,VFR,,,,,,,,,,,,METAR,125.0
KSUS 311554Z 28008KT 10SM BKN009 OVC014 13/11 A2989 RMK AO2 SLP122 T01330111,KSUS,2022-10-31T15:54:00Z,38.65,-90.65,13.3,11.1,280,8,,10.0,29.890747,1012.2,,,TRUE,,,,,,,BKN,900,OVC,1400,,,,,IFR,,,,,,,,,,,,METAR,140.0
KSLC 311554Z 15007KT 10SM FEW230 08/M01 A3016 RMK AO2 SLP202 T00831006,KSLC,2022-10-31T15:54:00Z,40.77,-111.97,8.3,-0.6,150,7,,10.0,30.159449,1020.2,,,TRUE,,,,,,,FEW,23000,,,,,,,VFR,,,,,,,,,,,,METAR,1286.0
KSET 311554Z AUTO 30005KT 10SM OVC010 14/12 A2989 RMK AO2 CIG 009V012 SLP119 T01390117,KSET,2022-10-31T15:54:00Z,38.93,-90.43,13.9,11.7,300,5,,10.0,29.890747,1011.9,,TRUE,TRUE,,,,,,,OVC,1000,,,,,,,MVFR,,,,,,,,,,,,METAR,133.0
KSBY 311554Z 20007KT 10SM CLR 20/13 A3009 RMK AO2 SLP192 T02000128,KSBY,2022-10-31T15:54:00Z,38.33,-75.5,20.0,12.8,200,7,,10.0,30.088583,1019.2,,,TRUE,,,,,,,CLR,,,,,,,,VFR,,,,,,,,,,,,METAR,14.0
KSBN 311554Z 11004KT 3/4SM R27L/5000VP6000FT -RA BR OVC003 14/14 A2984 RMK AO2 RAB47 SLP104 P0001 T01440139,KSBN,2022-10-31T15:54:00Z,41.7,-86.32,14.4,13.9,110,4,,0.75,29.840551,1010.4,,,TRUE,,,,,,-RA BR,OVC,300,,,,,,,LIFR,,,,,,0.01,,,,,,METAR,236.0
KRST 311554Z 30005KT 10SM CLR 12/05 A2990 RMK AO2 SLP130 T01170050,KRST,2022-10-31T15:54:00Z,43.9,-92.5,11.7,5.0,300,5,,10.0,29.899607,1013.0,,,TRUE,,,,,,,CLR,,,,,,,,VFR,,,,,,,,,,,,METAR,398.0
KROC 311554Z 23005KT 10SM SCT048 BKN085 OVC120 13/06 A2996 RMK AO2 RAB35E47 SLP148 P0000 T01280056,KROC,2022-10-31T15:54:00Z,43.12,-77.68,12.8,5.6,230,5,,10.0,29.958662,1014.8,,,TRUE,,,,,,,SCT,4800,BKN,8500,OVC,12000,,,VFR,,,,,,0.005,,,,,,METAR,166.0
KROA 311554Z 11003KT 3SM -RA BR OVC005 13/12 A3009 RMK AO2 RAB05 SLP188 P0011 T01330122,KROA,2022-10-31T15:54:00Z,37.32,-79.97,13.3,12.2,110,3,,3.0,30.088583,1018.8,,,TRUE,,,,,,-RA BR,OVC,500,,,,,,,IFR,,,,,,0.11,,,,,,METAR,349.0
KRKS 311554Z AUTO 24016KT 10SM CLR 04/M06 A3014 RMK AO2 PK WND 24027/1531 SLP199 T00391061,KRKS,2022-10-31T15:54:00Z,41.6,-109.07,3.9,-6.1,240,16,,10.0,30.138779,1019.9,,TRUE,TRUE,,,,,,,CLR,,,,,,,,VFR,,,,,,,,,,,,METAR,2062.0
KRIC 311554Z 21005KT 10SM FEW025 SCT030 BKN035 19/13 A3009 RMK AO2 SLP194 T01890128,KRIC,2022-10-31T15:54:00Z,37.52,-77.32,18.9,12.8,210,5,,10.0,30.088583,1019.4,,,TRUE,,,,,,,FEW,2500,SCT,3000,BKN,3500,,,VFR,,,,,,,,,,,,METAR,51.0
KRFD 311554Z 33004KT 8SM SCT044 OVC250 14/09 A2986 RMK AO2 SLP113 T01390094,KRFD,2022-10-31T15:54:00Z,42.2,-89.1,13.9,9.4,330,4,,8.0,29.861221,1011.3,,,TRUE,,,,,,,SCT,4400,OVC,25000,,,,,VFR,,,,,,,,,,,,METAR,222.0
KRDG 311554Z 00000KT 10SM SCT015 BKN019 BKN095 15/11 A3006 RMK AO2 SLP186 T01500106 $,KRDG,2022-10-31T15:54:00Z,40.37,-75.97,15.0,10.6,0,0,,10.0,30.059055,1018.6,,,TRUE,TRUE,,,,,,SCT,1500,BKN,1900,BKN,9500,,,MVFR,,,,,,,,,,,,METAR,101.0
KRBL 311554Z AUTO 33004KT 10SM CLR 11/02 A3001 RMK AO2 SLP160 T01110017,KRBL,2022-10-31T15:54:00Z,40.15,-122.25,11.1,1.7,330,4,,10.0,30.008858,1016.0,,TRUE,TRUE,,,,,,,CLR,,,,,,,,VFR,,,,,,,,,,,,METAR,107.0
KPTW 311554Z AUTO 23005KT 9SM BKN027 BKN120 15/11 A3009 RMK AO2 SLP189 T01500111,KPTW,2022-10-31T15:54:00Z,40.23,-75.55,15.0,11.1,230,5,,9.0,30.088583,1018.9,,TRUE,TRUE,,,,,,,BKN,2700,BKN,12000,,,,,MVFR,,,,,,,,,,,,METAR,88.0
KPSF 311554Z AUTO 23011G17KT 10SM CLR 13/07 A3002 RMK AO2 SLP161 T01330067,KPSF,2022-10-31T15:54:00Z,42.43,-73.28,13.3,6.7,230,11,17,10.0,30.02067,1016.1,,TRUE,TRUE,,,,,,,CLR,,,,,,,,VFR,,,,,,,,,,,,METAR,352.0
KPNE 311554Z 21003KT 10SM SCT030 BKN120 16/11 A3009 RMK AO2 SLP189 T01560106,KPNE,2022-10-31T15:54:00Z,40.08,-75.02,15.6,10.6,210,3,,10.0,30.088583,1018.9,,,TRUE,,,,,,,SCT,3000,BKN,12000,,,,,VFR,,,,,,,,,,,,METAR,32.0
KPLN 311554Z AUTO 00000KT 10SM CLR 11/06 A2986 RMK AO2 SLP115 T01110061,KPLN,2022-10-31T15:54:00Z,45.57,-84.8,11.1,6.1,0,0,,10.0,29.861221,1011.5,,TRUE,TRUE,,,,,,,CLR,,,,,,,,VFR,,,,,,,,,,,,METAR,215.0
KPIA 311554Z 33004KT 1SM R04/P6000FT -RA BR OVC003 13/12 A2986 RMK AO2 RAE00B48 SLP111 P0000 T01280117,KPIA,2022-10-31T15:54:00Z,40.67,-89.68,12.8,11.7,330,4,,1.0,29.861221,1011.1,,,TRUE,,,,,,-RA BR,OVC,300,,,,,,,LIFR,,,,,,0.005,,,,,,METAR,200.0
KPHL 311554Z 19003KT 10SM BKN029 BKN130 16/13 A3008 RMK AO2 SLP186 T01560128 $,KPHL,2022-10-31T15:54:00Z,39.87,-75.23,15.6,12.8,190,3,,10.0,30.079725,1018.6,,,TRUE,TRUE,,,,,,BKN,2900,BKN,13000,,,,,MVFR,,,,,,,,,,,,METAR,2.0
KPHF 311554Z 17004KT 10SM OVC060 18/13 A3011 RMK AO2 SLP196 T01780133,KPHF,2022-10-31T15:54:00Z,37.13,-76.5,17.8,13.3,170,4,,10.0,30.109253,1019.6,,,TRUE,,,,,,,OVC,6000,,,,,,,VFR,,,,,,,,,,,,METAR,12.0
KORH 311554Z 22015KT 10SM CLR 16/09 A3005 RMK AO2 SLP177 T01610094,KORH,2022-10-31T15:54:00Z,42.27,-71.87,16.1,9.4,220,15,,10.0,30.050198,1017.7,,,TRUE,,,,,,,CLR,,,,,,,,VFR,,,,,,,,,,,,METAR,306.0
KOLM 311554Z 20009KT 3SM -RA BR BKN007 BKN018 OVC043 12/11 A2982 RMK AO2 SLP099 P0015 T01170111,KOLM,2022-10-31T15:54:00Z,46.97,-122.9,11.7,11.1,200,9,,3.0,29.819881,1009.9,,,TRUE,,,,,,-RA BR,BKN,700,BKN,1800,OVC,4300,,,IFR,,,,,,0.15,,,,,,METAR,58.0
KOFP 311554Z AUTO 21007KT 10SM BKN037 OVC044 18/13 A3010 RMK AO2 SLP192 T01830128,KOFP,2022-10-31T15:54:00Z,37.7,-77.43,18.3,12.8,210,7,,10.0,30.100393,1019.2,,TRUE,TRUE,,,,,,,BKN,3700,OVC,4400,,,,,VFR,,,,,,,,,,,,METAR,63.0
KNAK 311554Z AUTO 16004KT 10SM FEW018 BKN028 OVC055 17/13 A3007 RMK AO2 RAE23 SLP185 P0000 T01720133,KNAK,2022-10-31T15:54:00Z,38.98,-76.48,17.2,13.3,160,4,,10.0,30.070866,1018.5,,TRUE,TRUE,,,,,,,FEW,1800,BKN,2800,OVC,5500,,,MVFR,,,,,,0.005,,,,,,METAR,2.0
KMVL 311554Z AUTO 00000KT 10SM CLR 14/M01 A2999 RMK AO2 SLP161 T01391006,KMVL,2022-10-31T15:54:00Z,44.53,-72.62,13.9,-0.6,0,0,,10.0,29.991142,1016.1,,TRUE,TRUE,,,,,,,CLR,,,,,,,,VFR,,,,,,,,,,,,METAR,226.0
KMTP 311554Z AUTO 00000KT 15/14 A3010 RMK AO1 SLP191 T01500144,KMTP,2022-10-31T15:54:00Z,41.07,-71.92,15.0,14.4,0,0,,,30.100393,1019.1,,TRUE,TRUE,,,,,,,,,,,,,,,,,,,,,,,,,,,METAR,2.0
KMRY 311554Z 25003KT 7SM OVC004 11/10 A3001 RMK AO2 SLP174 T01060100 $,KMRY,2022-10-31T15:54:00Z,36.58,-121.85,10.6,10.0,250,3,,7.0,30.008858,1017.4,,,TRUE,TRUE,,,,,,OVC,400,,,,,,,LIFR,,,,,,,,,,,,METAR,51.0
KMOT 311554Z 22010KT 10SM CLR 10/01 A2972 RMK AO2 SLP070 T01000011,KMOT,2022-10-31T15:54:00Z,48.25,-101.27,10.0,1.1,220,10,,10.0,29.719488,1007.0,,,TRUE,,,,,,,CLR,,,,,,,,VFR,,,,,,,,,,,,METAR,507.0
KMKC 311554Z 32005KT 10SM CLR 16/06 A2996 RMK AO2 SLP143 T01560061,KMKC,2022-10-31T15:54:00Z,39.12,-94.6,15.6,6.1,320,5,,10.0,29.958662,1014.3,,,TRUE,,,,,,,CLR,,,,,,,,VFR,,,,,,,,,,,,METAR,228.0
KMIV 311554Z AUTO 15004KT 10SM OVC026 17/12 A3009 RMK AO2 SLP186 T01720122 $,KMIV,2022-10-31T15:54:00Z,39.37,-75.08,17.2,12.2,150,4,,10.0,30.088583,1018.6,,TRUE,TRUE,TRUE,,,,,,OVC,2600,,,,,,,MVFR,,,,,,,,,,,,METAR,18.0
KMGJ 311554Z AUTO 22010KT 10SM CLR 13/09 A3005 RMK AO2 SLP179 T01330089,KMGJ,2022-10-31T15:54:00Z,41.52,-74.27,13.3,8.9,220,10,,10.0,30.050198,1017.9,,TRUE,TRUE,,,,,,,CLR,,,,,,,,VFR,,,,,,,,,,,,METAR,106.0
KMFI 311554Z AUTO 30005KT 10SM CLR 13/06 A2986 RMK AO2 SLP115 T01330061,KMFI,2022-10-31T15:54:00Z,44.63,-90.18,13.3,6.1,300,5,,10.0,29.861221,1011.5,,TRUE,TRUE,,,,,,,CLR,,,,,,,,VFR,,,,,,,,,,,,METAR,383.0
KMEM 311554Z 24008KT 10SM BKN009 BKN015 OVC040 16/14 A2999 RMK AO2 SLP154 BKN009 V SCT T01560139,KMEM,2022-10-31T15:54:00Z,35.07,-89.98,15.6,13.9,240,8,,10.0,29.991142,1015.4,,,TRUE,,,,,,,BKN,900,BKN,1500,OVC,4000,,,IFR,,,,,,,,,,,,METAR,78.0
KLYH 311554Z 18006KT 4SM -RA BR BKN013 BKN046 OVC070 14/12 A3009 RMK AO2 RAB43 SLP186 P0002 T01440122,KLYH,2022-10-31T15:54:00Z,37.32,-79.2,14.4,12.2,180,6,,4.0,30.088583,1018.6,,,TRUE,,,,,,-RA BR,BKN,1300,BKN,4600,OVC,7000,,,MVFR,,,,,,0.02,,,,,,METAR,282.0
KLWT 311554Z AUTO 23032G42KT 10SM CLR 13/00 A2976 RMK AO2 PK WND 24044/1535 SLP064 T01280000,KLWT,2022-10-31T15:54:00Z,47.05,-109.47,12.8,0.0,230,32,42,10.0,29.760826,1006.4,,TRUE,TRUE,,,,,,,CLR,,,,,,,,VFR,,,,,,,,,,,,METAR,1254.0
KLWM 311554Z 22010KT 10SM FEW030 17/09 A3005 RMK AO2 SLP178 T01670094,KLWM,2022-10-31T15:54:00Z,42.72,-71.13,16.7,9.4,220,10,,10.0,30.050198,1017.8,,,TRUE,,,,,,,FEW,3000,,,,,,,VFR,,,,,,,,,,,,METAR,42.0
KLEX 311554Z 20009KT 10SM FEW015 OVC055 17/14 A2995 RMK AO2 SLP136 T01720139,KLEX,2022-10-31T15:54:00Z,38.03,-84.6,17.2,13.9,200,9,,10.0,29.949802,1013.6,,,TRUE,,,,,,,FEW,1500,OVC,5500,,,,,VFR,,,,,,,,,,,,METAR,294.0
KLAF 311554Z 21006KT 1 3/4SM -RA BR OVC006 15/14 A2982 RMK AO2 SLP097 P0001 T01500139,KLAF,2022-10-31T15:54:00Z,40.42,-86.93,15.0,13.9,210,6,,1.75,29.819881,1009.7,,,TRUE,,,,,,-RA BR,OVC,600,,,,,,,IFR,,,,,,0.01,,,,,,METAR,182.0
KJST 311554Z AUTO 24004KT 4SM BR SCT007 OVC012 11/11 A2999 RMK AO2 RAE45 SLP160 P0000 T01060106,KJST,2022-10-31T15:54:00Z,40.32,-78.83,10.6,10.6,240,4,,4.0,29.991142,1016.0,,TRUE,TRUE,,,,,,BR,SCT,700,OVC,1200,,,,,MVFR,,,,,,0.005,,,,,,METAR,695.0
KJAN 311554Z 23004KT 10SM BKN055 19/14 A3006 RMK AO2 SLP175 T01940144,KJAN,2022-10-31T15:54:00Z,32.32,-90.08,19.4,14.4,230,4,,10.0,30.059055,1017.5,,,TRUE,,,,,,,BKN,5500,,,,,,,VFR,,,,,,,,,,,,METAR,92.0
KIZG 311554Z AUTO 00000KT 10SM CLR 14/01 A2999 RMK AO2 SLP158 T01390011,KIZG,2022-10-31T15:54:00Z,43.98,-70.95,13.9,1.1,0,0,,10.0,29.991142,1015.8,,TRUE,TRUE,,,,,,,CLR,,,,,,,,VFR,,,,,,,,,,,,METAR,138.0
KISW 311554Z AUTO VRB03KT 10SM CLR 12/06 A2987 RMK AO2 SLP119 T01220061,KISW,2022-10-31T15:54:00Z,44.37,-89.83,12.2,6.1,0,3,,10.0,29.870079,1011.9,,TRUE,TRUE,,,,,,,CLR,,,,,,,,VFR,,,,,,,,,,,,METAR,311.0
KIPT 311554Z 00000KT 10SM FEW017 BKN100 BKN120 13/08 A3003 RMK AO2 SLP171 T01280083,KIPT,2022-10-31T15:54:00Z,41.25,-76.92,12.8,8.3,0,0,,10.0,30.029528,1017.1,,,TRUE,,,,,,,FEW,1700,BKN,10000,BKN,12000,,,VFR,,,,,,,,,,,,METAR,160.0
KINT 311554Z 00000KT 10SM -RA OVC009 16/14 A3009 RMK AO2 RAB44 CIG 007V013 SLP183 P0000 T01560139,KINT,2022-10-31T15:54:00Z,36.13,-80.22,15.6,13.9,0,0,,10.0,30.088583,1018.3,,,TRUE,,,,,,-RA,OVC,900,,,,,,,IFR,,,,,,0.005,,,,,,METAR,292.0
KINL 311554Z AUTO 21010G18KT 10SM CLR 10/00 A2969 RMK AO2 SLP068 T01000000,KINL,2022-10-31T15:54:00Z,48.57,-93.4,10.0,0.0,210,10,18,10.0,29.68996,1006.8,,TRUE,TRUE,,,,,,,CLR,,,,,,,,VFR,,,,,,,,,,,,METAR,353.0
KIND 311554Z 20010KT 5SM -DZ BR FEW008 OVC012 15/14 A2986 RMK AO2 DZB23 SLP109 P0000 T01500139,KIND,2022-10-31T15:54:00Z,39.72,-86.27,15.0,13.9,200,10,,5.0,29.861221,1010.9,,,TRUE,,,,,,-DZ BR,FEW,800,OVC,1200,,,,,MVFR,,,,,,0.005,,,,,,METAR,242.0
KIMT 311554Z AUTO 00000KT 10SM CLR 13/05 A2982 RMK AO2 SLP103 T01280050,KIMT,2022-10-31T15:54:00Z,45.82,-88.12,12.8,5.0,0,0,,10.0,29.819881,1010.3,,TRUE,TRUE,,,,,,,CLR,,,,,,,,VFR,,,,,,,,,,,,METAR,343.0
KILN 311554Z AUTO 20011KT 9SM SCT014 OVC065 17/14 A2991 RMK AO2 SLP129 T01670144,KILN,2022-10-31T15:54:00Z,39.43,-83.8,16.7,14.4,200,11,,9.0,29.911417,1012.9,,TRUE,TRUE,,,,,,,SCT,1400,OVC,6500,,,,,VFR,,,,,,,,,,,,METAR,325.0
KHWD 311554Z 07004KT 10SM CLR 12/10 A2998 RMK AO2 SLP161 T01220100,KHWD,2022-10-31T15:54:00Z,37.67,-122.12,12.2,10.0,70,4,,10.0,29.97933,1016.1,,,TRUE,,,,,,,CLR,,,,,,,,VFR,,,,,,,,,,,,METAR,9.0
KGSO 311554Z 18005KT 10SM FEW009 BKN017 OVC040 17/14 A3007 RMK AO2 SLP176 T01720139,KGSO,2022-10-31T15:54:00Z,36.1,-79.95,17.2,13.9,180,5,,10.0,30.070866,1017.6,,,TRUE,,,,,,,FEW,900,BKN,1700,OVC,4000,,,MVFR,,,,,,,,,,,,METAR,275.0
KGRD 311554Z AUTO 27007KT 4SM -RA BR BKN004 BKN008 OVC031 17/17 A3006 RMK AO2 P0020,KGRD,2022-10-31T15:54:00Z,34.25,-82.15,17.0,17.0,270,7,,4.0,30.059055,,,TRUE,TRUE,,,,,,-RA BR,BKN,400,BKN,800,OVC,3100,,,LIFR,,,,,,0.2,,,,,,METAR,188.0
KGED 311554Z AUTO 18006KT 10SM BKN024 19/13 A3009 RMK AO2 SLP189 T01940128,KGED,2022-10-31T15:54:00Z,38.68,-75.37,19.4,12.8,180,6,,10.0,30.088583,1018.9,,TRUE,TRUE,,,,,,,BKN,2400,,,,,,,MVFR,,,,,,,,,,,,METAR,15.0
KGCN 311554Z 05014KT 10SM CLR 10/M07 A3019 RMK AO2 SLP196 T01001072,KGCN,2022-10-31T15:54:00Z,35.95,-112.15,10.0,-7.2,50,14,,10.0,30.188976,1019.6,,,TRUE,,,,,,,CLR,,,,,,,,VFR,,,,,,,,,,,,METAR,1993.0
KGCK 311554Z 22009KT 10SM CLR 14/M01 A3002 RMK AO2 SLP160 T01391011,KGCK,2022-10-31T15:54:00Z,37.92,-100.72,13.9,-1.1,220,9,,10.0,30.02067,1016.0,,,TRUE,,,,,,,CLR,,,,,,,,VFR,,,,,,,,,,,,METAR,877.0
KFZY 311554Z AUTO VRB04KT 10SM FEW110 14/07 A2995 RMK AO2 SLP144 T01390067,KFZY,2022-10-31T15:54:00Z,43.35,-76.38,13.9,6.7,0,4,,10.0,29.949802,1014.4,,TRUE,TRUE,,,,,,,FEW,11000,,,,,,,VFR,,,,,,,,,,,,METAR,143.0
KFWA 311554Z 22010KT 10SM BKN015 BKN021 BKN080 17/14 A2985 RMK AO2 SLP108 T01670144 $,KFWA,2022-10-31T15:54:00Z,40.98,-85.2,16.7,14.4,220,10,,10.0,29.84941,1010.8,,,TRUE,TRUE,,,,,,BKN,1500,BKN,2100,BKN,8000,,,MVFR,,,,,,,,,,,,METAR,243.0
KFIG 311554Z AUTO 06003KT 10SM 09/07 A3001 RMK AO2 RAE02B35E53 SLP168 T00890072 $,KFIG,2022-10-31T15:54:00Z,41.05,-78.42,8.9,7.2,60,3,,10.0,30.008858,1016.8,,TRUE,TRUE,TRUE,,,,,,,,,,,,,,,,,,,,,,,,,,METAR,461.0
KEWN 311554Z 08004KT 10SM FEW035 SCT055 22/14 A3011 RMK AO2 SLP197 T02170144,KEWN,2022-10-31T15:54:00Z,35.07,-77.05,21.7,14.4,80,4,,10.0,30.109253,1019.7,,,TRUE,,,,,,,FEW,3500,SCT,5500,,,,,VFR,,,,,,,,,,,,METAR,3.0
KEVV 311554Z 22008KT 5SM BR OVC009 16/15 A2991 RMK AO2 RAB33E48 SLP125 P0000 T01610150 $,KEVV,2022-10-31T15:54:00Z,38.05,-87.52,16.1,15.0,220,8,,5.0,29.911417,1012.5,,,TRUE,TRUE,,,,,BR,OVC,900,,,,,,,IFR,,,,,,0.005,,,,,,METAR,123.0
KEUG 311554Z 17010KT 10SM SCT045 BKN090 BKN170 12/09 A2999 RMK AO2 SLP156 T01220094,KEUG,2022-10-31T15:54:00Z,44.13,-123.22,12.2,9.4,170,10,,10.0,29.991142,1015.6,,,TRUE,,,,,,,SCT,4500,BKN,9000,BKN,17000,,,VFR,,,,,,,,,,,,METAR,109.0
KECG 311554Z 00000KT 10SM OVC050 19/14 A3012 RMK AO2 SLP198 T01940139,KECG,2022-10-31T15:54:00Z,36.27,-76.18,19.4,13.9,0,0,,10.0,30.121063,1019.8,,,TRUE,,,,,,,OVC,5000,,,,,,,VFR,,,,,,,,,,,,METAR,2.0
KDYL 311554Z AUTO 22005KT 10SM FEW028 14/11 A3007 RMK AO2 SLP184 T01440106,KDYL,2022-10-31T15:54:00Z,40.33,-75.12,14.4,10.6,220,5,,10.0,30.070866,1018.4,,TRUE,TRUE,,,,,,,FEW,2800,,,,,,,VFR,,,,,,,,,,,,METAR,121.0
KDSV 311554Z AUTO 13004KT 10SM FEW055 SCT070 SCT110 15/07 A2995 RMK AO2 SLP153 T01500067,KDSV,2022-10-31T15:54:00Z,42.57,-77.72,15.0,6.7,130,4,,10.0,29.949802,1015.3,,TRUE,TRUE,,,,,,,FEW,5500,SCT,7000,SCT,11000,,,VFR,,,,,,,,,,,,METAR,195.0
KDSM 311554Z 00000KT 10SM FEW150 BKN250 12/04 A2994 RMK AO2 SLP139 T01170044 $,KDSM,2022-10-31T15:54:00Z,41.53,-93.67,11.7,4.4,0,0,,10.0,29.940945,1013.9,,,TRUE,TRUE,,,,,,FEW,15000,BKN,25000,,,,,VFR,,,,,,,,,,,,METAR,286.0
KDMH 311554Z AUTO 16/12 A3008 RMK AO1 SLP185 P0001 T01610122 ,KDMH,2022-10-31T15:54:00Z,39.28,-76.62,16.1,12.2,,,,,30.079725,1018.5,,TRUE,TRUE,,,,,,,,,,,,,,,,,,,,,0.01,,,,,,METAR,4.0
KDEC 311554Z 25009KT 7SM OVC004 13/13 A2986 RMK AO2 SLP109 T01330133,KDEC,2022-10-31T15:54:00Z,39.83,-88.87,13.3,13.3,250,9,,7.0,29.861221,1010.9,,,TRUE,,,,,,,OVC,400,,,,,,,LIFR,,,,,,,,,,,,METAR,205.0
KCWF 311554Z 31004KT 10SM CLR 22/14 A3007,KCWF,2022-10-31T15:54:00Z,30.22,-93.15,22.0,14.0,310,4,,10.0,30.070866,,,,,,,,,,,CLR,,,,,,,,VFR,,,,,,,,,,,,METAR,4.0
KCRW 311554Z 04003KT 2SM BR SCT006 BKN012 OVC025 17/16 A2998 RMK AO2 RAE17 SLP146 P0002 T01670161 $,KCRW,2022-10-31T15:54:00Z,38.38,-81.58,16.7,16.1,40,3,,2.0,29.97933,1014.6,,,TRUE,TRUE,,,,,BR,SCT,600,BKN,1200,OVC,2500,,,IFR,,,,,,0.02,,,,,,METAR,278.0
KCOU 311554Z 28005KT 10SM FEW100 17/12 A2993 RMK AO2 SLP133 T01670117,KCOU,2022-10-31T15:54:00Z,38.82,-92.22,16.7,11.7,280,5,,10.0,29.929134,1013.3,,,TRUE,,,,,,,FEW,10000,,,,,,,VFR,,,,,,,,,,,,METAR,272.0
KCOS 311554Z 34004KT 10SM FEW250 14/M08 A3007 RMK AO2 SLP149 T01391083,KCOS,2022-10-31T15:54:00Z,38.82,-104.68,13.9,-8.3,340,4,,10.0,30.070866,1014.9,,,TRUE,,,,,,,FEW,25000,,,,,,,VFR,,,,,,,,,,,,METAR,1886.0
KCEU 311554Z AUTO 04004KT 2 1/2SM -RA BR BKN004 BKN011 OVC017 14/14 A3006 RMK AO2 SLP176 P0001 T01440139,KCEU,2022-10-31T15:54:00Z,34.67,-82.88,14.4,13.9,40,4,,2.5,30.059055,1017.6,,TRUE,TRUE,,,,,,-RA BR,BKN,400,BKN,1100,OVC,1700,,,LIFR,,,,,,0.01,,,,,,METAR,270.0
KCAR 311554Z AUTO VRB03KT 10SM CLR 14/00 A2997 RMK AO2 SLP155 T01440000,KCAR,2022-10-31T15:54:00Z,46.87,-68.02,14.4,0.0,0,3,,10.0,29.970472,1015.5,,TRUE,TRUE,,,,,,,CLR,,,,,,,,VFR,,,,,,,,,,,,METAR,189.0
KBWI 311554Z 22004KT 5SM -RA BR SCT014 BKN025 OVC050 16/13 A3007 RMK AO2 RAE17B44 SLP181 P0001 T01560133 $,KBWI,2022-10-31T15:54:00Z,39.17,-76.68,15.6,13.3,220,4,,5.0,30.070866,1018.1,,,TRUE,TRUE,,,,,-RA BR,SCT,1400,BKN,2500,OVC,5000,,,MVFR,,,,,,0.01,,,,,,METAR,42.0
KBUY 311554Z AUTO 14006KT 10SM BKN021 OVC035 19/14 A3007 RMK AO2 SLP177 T01940144,KBUY,2022-10-31T15:54:00Z,36.05,-79.47,19.4,14.4,140,6,,10.0,30.070866,1017.7,,TRUE,TRUE,,,,,,,BKN,2100,OVC,3500,,,,,MVFR,,,,,,,,,,,,METAR,185.0
KBUF 311554Z 15007KT 9SM -RA BKN013 BKN037 OVC050 12/11 A2993 RMK AO2 SLP137 P0003 T01170106 $,KBUF,2022-10-31T15:54:00Z,42.93,-78.73,11.7,10.6,150,7,,9.0,29.929134,1013.7,,,TRUE,TRUE,,,,,-RA,BKN,1300,BKN,3700,OVC,5000,,,MVFR,,,,,,0.03,,,,,,METAR,217.0
KBTV 311554Z 19010KT 10SM FEW070 SCT110 BKN240 16/01 A2999 RMK AO2 SLP156 T01560011,KBTV,2022-10-31T15:54:00Z,44.47,-73.15,15.6,1.1,190,10,,10.0,29.991142,1015.6,,,TRUE,,,,,,,FEW,7000,SCT,11000,BKN,24000,,,VFR,,,,,,,,,,,,METAR,101.0
KBOS 311554Z 26012KT 10SM FEW025 SCT040 BKN250 17/11 A3006 RMK AO2 SLP178 T01720111,KBOS,2022-10-31T15:54:00Z,42.37,-71.02,17.2,11.1,260,12,,10.0,30.059055,1017.8,,,TRUE,,,,,,,FEW,2500,SCT,4000,BKN,25000,,,VFR,,,,,,,,,,,,METAR,4.0
KBFL 311554Z AUTO 00000KT 6SM HZ CLR 14/01 A2997 RMK AO2 SLP147 T01440011,KBFL,2022-10-31T15:54:00Z,35.43,-119.05,14.4,1.1,0,0,,6.0,29.970472,1014.7,,TRUE,TRUE,,,,,,HZ,CLR,,,,,,,,VFR,,,,,,,,,,,,METAR,146.0
KAVP 311554Z AUTO VRB05KT 10SM FEW035 FEW070 BKN110 14/08 A3005 RMK AO2 SLP175 T01390083,KAVP,2022-10-31T15:54:00Z,41.33,-75.72,13.9,8.3,0,5,,10.0,30.050198,1017.5,,TRUE,TRUE,,,,,,,FEW,3500,FEW,7000,BKN,11000,,,VFR,,,,,,,,,,,,METAR,290.0
KAVL 311554Z 15005KT 2SM -RA BR BKN003 BKN024 OVC031 13/12 A3007 RMK AO2 SLP172 P0002 T01280122,KAVL,2022-10-31T15:54:00Z,35.43,-82.53,12.8,12.2,150,5,,2.0,30.070866,1017.2,,,TRUE,,,,,,-RA BR,BKN,300,BKN,2400,OVC,3100,,,LIFR,,,,,,0.02,,,,,,METAR,646.0
KAUW 311554Z AUTO 28003KT 10SM CLR 13/05 A2984 RMK AO2 SLP112 T01280050,KAUW,2022-10-31T15:54:00Z,44.93,-89.62,12.8,5.0,280,3,,10.0,29.840551,1011.2,,TRUE,TRUE,,,,,,,CLR,,,,,,,,VFR,,,,,,,,,,,,METAR,367.0
KAPN 311554Z AUTO 18004KT 10SM CLR 15/07 A2986 RMK AO2 SLP115 T01500072,KAPN,2022-10-31T15:54:00Z,45.07,-83.57,15.0,7.2,180,4,,10.0,29.861221,1011.5,,TRUE,TRUE,,,,,,,CLR,,,,,,,,VFR,,,,,,,,,,,,METAR,208.0
KAPC 311554Z 01006KT 5SM HZ OVC008 12/09 A2999 RMK AO2 SLP146 T01220094,KAPC,2022-10-31T15:54:00Z,38.2,-122.28,12.2,9.4,10,6,,5.0,29.991142,1014.6,,,TRUE,,,,,,HZ,OVC,800,,,,,,,IFR,,,,,,,,,,,,METAR,5.0
KAND 311554Z AUTO 02003KT 3SM -RA BR BKN004 OVC015 16/14 A3005 RMK AO2 P0006,KAND,2022-10-31T15:54:00Z,34.5,-82.72,16.0,14.0,20,3,,3.0,30.050198,,,TRUE,TRUE,,,,,,-RA BR,BKN,400,OVC,1500,,,,,LIFR,,,,,,0.06,,,,,,METAR,233.0
KALO 311554Z 31004KT 10SM CLR 12/06 A2990 RMK AO2 SLP127 T01220061,KALO,2022-10-31T15:54:00Z,42.55,-92.4,12.2,6.1,310,4,,10.0,29.899607,1012.7,,,TRUE,,,,,,,CLR,,,,,,,,VFR,,,,,,,,,,,,METAR,264.0
KAKR 311554Z AUTO 21010KT 2 1/2SM HZ OVC004 17/14 A2991 RMK AO2 SLP125 T01670139,KAKR,2022-10-31T15:54:00Z,41.03,-81.47,16.7,13.9,210,10,,2.5,29.911417,1012.5,,TRUE,TRUE,,,,,,HZ,OVC,400,,,,,,,LIFR,,,,,,,,,,,,METAR,319.0
KAKQ 311554Z AUTO VRB03KT 10SM FEW038 SCT048 BKN055 18/13 A3010 RMK AO2 SLP195 T01830128,KAKQ,2022-10-31T15:54:00Z,36.98,-77.0,18.3,12.8,0,3,,10.0,30.100393,1019.5,,TRUE,TRUE,,,,,,,FEW,3800,SCT,4800,BKN,5500,,,VFR,,,,,,,,,,,,METAR,34.0
KAKH 311554Z AUTO VRB03KT 2 1/2SM -RA BR OVC004 15/15 A3006 RMK AO2 RAE05B47 SLP176 P0000 T01500150,KAKH,2022-10-31T15:54:00Z,35.2,-81.15,15.0,15.0,0,3,,2.5,30.059055,1017.6,,TRUE,TRUE,,,,,,-RA BR,OVC,400,,,,,,,LIFR,,,,,,0.005,,,,,,METAR,242.0
KACY 311554Z 22008KT 10SM CLR 19/10 A3009 RMK AO2 SLP189 T01890100,KACY,2022-10-31T15:54:00Z,39.45,-74.57,18.9,10.0,220,8,,10.0,30.088583,1018.9,,,TRUE,,,,,,,CLR,,,,,,,,VFR,,,,,,,,,,,,METAR,18.0
KAAO 311554Z AUTO 30006KT 10SM CLR 14/02 A3002 RMK AO2 SLP163 T01440017,KAAO,2022-10-31T15:54:00Z,37.75,-97.22,14.4,1.7,300,6,,10.0,30.02067,1016.3,,TRUE,TRUE,,,,,,,CLR,,,,,,,,VFR,,,,,,,,,,,,METAR,429.0
K1V4 311554Z AUTO 11/M01 A2999 RMK AO1 SLP159 T01061006 PNO,K1V4,2022-10-31T15:54:00Z,44.42,-72.02,10.6,-0.6,,,,,29.991142,1015.9,,TRUE,TRUE,,,,,,,,,,,,,,,,,,,,,,,,,,,METAR,213.0
K12N 311554Z AUTO 18005KT 16/09 A3007 RMK AO1 SLP183 T01560094,K12N,2022-10-31T15:54:00Z,41.02,-74.73,15.6,9.4,180,5,,,30.070866,1018.3,,TRUE,TRUE,,,,,,,,,,,,,,,,,,,,,,,,,,,METAR,178.0
EGVA 311554Z 06006KT 9999 FEW033 BKN048 14/13 A2968 RMK AO2A SLPNO T01440131 $,EGVA,2022-10-31T15:54:00Z,51.67,-1.78,14.4,13.1,60,6,,6.21,29.681103,,,,TRUE,TRUE,,,,,,FEW,3300,BKN,4800,,,,,VFR,,,,,,,,,,,,METAR,84.0
DIAP 311554Z 05007KT 020V080 6000 -TSRA BKN012 FEW020CB BKN025 29/25 Q1009 TEMPO 4000 TSRA,DIAP,2022-10-31T15:54:00Z,5.25,-3.92,29.0,25.0,50,7,,3.73,29.793306,,,,,,,,,,-TSRA,BKN,1200,FEW,2000,BKN,2500,,,MVFR,,,,,,,,,,,,METAR,4.0
CZST 311554Z VRB02KT 6SM -RA BR FEW007 BKN050 OVC060 01/01 A2964 RMK SC1SC4SC3 SLP039,CZST,2022-10-31T15:54:00Z,55.93,-129.98,1.0,1.0,0,2,,6.0,29.639763,1003.9,,,,,,,,,-RA BR,FEW,700,BKN,5000,OVC,6000,,,VFR,,,,,,,,,,,,SPECI,10.0
CYZS 311554Z 08013KT 3/4SM -SN DRSN VV018 M10/M11 A2964 RMK SN8 SLP047,CYZS,2022-10-31T15:54:00Z,64.2,-83.35,-10.0,-11.0,80,13,,0.75,29.639763,1004.7,,,,,,,,,-SN DRSN,OVX,0,,,,,,,LIFR,,,,,,,,,,,1800,SPECI,60.0
CYQF 311554Z AUTO 20006KT 9SM OVC048 01/M01 A2968 RMK SLP088,CYQF,2022-10-31T15:54:00Z,52.17,-113.9,1.0,-1.0,200,6,,9.0,29.681103,1008.8,,TRUE,,,,,,,,OVC,4800,,,,,,,VFR,,,,,,,,,,,,SPECI,912.0
TJNR 311553Z AUTO 07006KT 10SM SCT021 SCT060 30/25 A2997 RMK AO2 SLP148 T03000250,TJNR,2022-10-31T15:53:00Z,18.25,-65.63,30.0,25.0,70,6,,10.0,29.970472,1014.8,,TRUE,TRUE,,,,,,,SCT,2100,SCT,6000,,,,,VFR,,,,,,,,,,,,METAR,7.0
TISX 311553Z 11009KT 10SM SCT021 31/25 A2996 RMK AO2 SLP144 T03110250 PNO $ ,TISX,2022-10-31T15:53:00Z,17.7,-64.8,31.1,25.0,110,9,,10.0,29.958662,1014.4,,,TRUE,TRUE,,,,,,SCT,2100,,,,,,,VFR,,,,,,,,,,,,METAR,16.0
TIST 311553Z 14010KT 10SM CLR 31/24 A2995 RMK AO2 SLP141 T03060244,TIST,2022-10-31T15:53:00Z,18.33,-64.98,30.6,24.4,140,10,,10.0,29.949802,1014.1,,,TRUE,,,,,,,CLR,,,,,,,,VFR,,,,,,,,,,,,METAR,5.0
PHTO 311553Z 24007KT 10SM BKN035 21/18 A3000 RMK AO2 SLP158 T02060178,PHTO,2022-10-31T15:53:00Z,19.72,-155.05,20.6,17.8,240,7,,10.0,30.0,1015.8,,,TRUE,,,,,,,BKN,3500,,,,,,,VFR,,,,,,,,,,,,METAR,9.0
PHNL 311553Z 00000KT 10SM FEW025 FEW038 24/20 A3000 RMK AO2 SLP157 T02440200 $,PHNL,2022-10-31T15:53:00Z,21.33,-157.93,24.4,20.0,0,0,,10.0,30.0,1015.7,,,TRUE,TRUE,,,,,,FEW,2500,FEW,3800,,,,,VFR,,,,,,,,,,,,METAR,2.0
PHLI 311553Z 05016KT 10SM FEW024 SCT035 BKN060 25/22 A3003 RMK AO2 SLP167 T02500217 $,PHLI,2022-10-31T15:53:00Z,21.97,-159.33,25.0,21.7,50,16,,10.0,30.029528,1016.7,,,TRUE,TRUE,,,,,,FEW,2400,SCT,3500,BKN,6000,,,VFR,,,,,,,,,,,,METAR,32.0
PHKO 311553Z COR 10005KT 10SM FEW050 24/19 A2996 RMK AO2 SLP145 T02390189 TSNO,PHKO,2022-10-31T15:53:00Z,19.73,-156.05,23.9,18.9,100,5,,10.0,29.958662,1014.5,TRUE,,TRUE,,,TRUE,,,,FEW,5000,,,,,,,VFR,,,,,,,,,,,,METAR,11.0
PHJR 311553Z 05004KT 10SM FEW032 23/19 A3001 RMK AO2 SLP169 T02330189,PHJR,2022-10-31T15:53:00Z,21.32,-158.07,23.3,18.9,50,4,,10.0,30.008858,1016.9,,,TRUE,,,,,,,FEW,3200,,,,,,,VFR,,,,,,,,,,,,METAR,9.0
PAYA 311553Z AUTO 08005KT 10SM -RA OVC032 01/01 A2939 RMK AO2 SLP953 P0001 T00110006 TSNO $,PAYA,2022-10-31T15:53:00Z,59.52,-139.67,1.1,0.6,80,5,,10.0,29.388779,995.3,,TRUE,TRUE,TRUE,,TRUE,,,-RA,OVC,3200,,,,,,,VFR,,,,,,0.01,,,,,,METAR,9.0
PAWI 311553Z AUTO 13007KT 10SM CLR M18/M20 A2990 RMK AO2 SLP127 T11781200 TSNO $,PAWI,2022-10-31T15:53:00Z,70.63,-160.02,-17.8,-20.0,130,7,,10.0,29.899607,1012.7,,TRUE,TRUE,TRUE,,TRUE,,,,CLR,,,,,,,,VFR,,,,,,,,,,,,METAR,12.0
PAWD 311553Z AUTO 33021G40KT 10SM SCT100 M02/M14 A2955 RMK AO2 PK WND 33040/1544 SLP005 T10221144 TSNO $,PAWD,2022-10-31T15:53:00Z,60.12,-149.42,-2.2,-14.4,330,21,40,10.0,29.551182,1000.5,,TRUE,TRUE,TRUE,,TRUE,,,,SCT,10000,,,,,,,VFR,,,,,,,,,,,,METAR,3.0
PATO 311553Z AUTO 29010G21KT 10SM BKN040 BKN080 OVC110 M04/M11 A2958 RMK AO2 PK WND 29026/1514 SLP018 T10391111 TSNO,PATO,2022-10-31T15:53:00Z,60.78,-148.85,-3.9,-11.1,290,10,21,10.0,29.58071,1001.8,,TRUE,TRUE,,,TRUE,,,,BKN,4000,BKN,8000,OVC,11000,,,VFR,,,,,,,,,,,,METAR,47.0
PATK 311553Z 00000KT 10SM FEW110 M06/M14 A2964 RMK AO2 SLP045 T10561144,PATK,2022-10-31T15:53:00Z,62.32,-150.1,-5.6,-14.4,0,0,,10.0,29.639763,1004.5,,,TRUE,,,,,,,FEW,11000,,,,,,,VFR,,,,,,,,,,,,METAR,107.0
PASO 311553Z AUTO 01010G17KT 10SM BKN055 M01/M07 A2966 RMK AO2 SLP044 T10061067 TSNO,PASO,2022-10-31T15:53:00Z,59.45,-151.7,-0.6,-6.7,10,10,17,10.0,29.660433,1004.4,,TRUE,TRUE,,,TRUE,,,,BKN,5500,,,,,,,VFR,,,,,,,,,,,,METAR,20.0
PASN 311553Z AUTO 18012KT 10SM FEW016 SCT030 SCT036 03/01 A3010 RMK AO2 RAE1457B24E25SNB14E26 SLP193 P0001 T00280006 TSNO,PASN,2022-10-31T15:53:00Z,57.15,-170.22,2.8,0.6,180,12,,10.0,30.100393,1019.3,,TRUE,TRUE,,,TRUE,,,,FEW,1600,SCT,3000,SCT,3600,,,VFR,,,,,,0.01,,,,,,METAR,8.0
PASI 311553Z 10006KT 10SM FEW039 FEW120 03/00 A2946,PASI,2022-10-31T15:53:00Z,57.03,-135.35,3.0,0.0,100,6,,10.0,29.459646,,,,,,,,,,,FEW,3900,FEW,12000,,,,,VFR,,,,,,,,,,,,METAR,2.0
PASC 311553Z 00000KT 10SM CLR M22/M24 A3004 RMK AO2 SLP176 T12221244 $,PASC,2022-10-31T15:53:00Z,70.2,-148.47,-22.2,-24.4,0,0,,10.0,30.041338,1017.6,,,TRUE,TRUE,,,,,,CLR,,,,,,,,VFR,,,,,,,,,,,,METAR,17.0
PAQT 311553Z AUTO 16004KT 10SM CLR M20/M23 A3005 RMK AO2 SLP178 T12001233 TSNO $,PAQT,2022-10-31T15:53:00Z,70.22,-151.0,-20.0,-23.3,160,4,,10.0,30.050198,1017.8,,TRUE,TRUE,TRUE,,TRUE,,,,CLR,,,,,,,,VFR,,,,,,,,,,,,METAR,11.0
PAPB 311553Z AUTO 19010KT BKN065 03/ A3013 RMK AO2 SLP191 T0033 TSNO $,PAPB,2022-10-31T15:53:00Z,56.58,-169.67,3.3,,190,10,,,30.129921,1019.1,,TRUE,TRUE,TRUE,,TRUE,,,,BKN,6500,,,,,,,,,,,,,,,,,,,METAR,33.0
PAOT 311553Z 09009KT 10SM BKN004 OVC016 M11/M11 A3002 RMK AO2 SLP165 I1000 T11111111 $,PAOT,2022-10-31T15:53:00Z,66.88,-162.6,-11.1,-11.1,90,9,,10.0,30.02067,1016.5,,,TRUE,TRUE,,,,,,BKN,400,OVC,1600,,,,,LIFR,,,,,,,,,,,,METAR,3.0
PAOR 311553Z 31011KT 8SM -SN OVC050 M13/M15 A2969 RMK AO2 SNB16 SLP106 P0000 T11281150 $,PAOR,2022-10-31T15:53:00Z,62.97,-141.93,-12.8,-15.0,310,11,,8.0,29.68996,1010.6,,,TRUE,TRUE,,,,,-SN,OVC,5000,,,,,,,VFR,,,,,,0.005,,,,,,METAR,524.0
PAOM 311553Z 27003KT 10SM CLR M11/M13 A3008 RMK AO2 SLP185 T11111133,PAOM,2022-10-31T15:53:00Z,64.5,-165.43,-11.1,-13.3,270,3,,10.0,30.079725,1018.5,,,TRUE,,,,,,,CLR,,,,,,,,VFR,,,,,,,,,,,,METAR,6.0
PANN 311553Z AUTO 00000KT 10SM SCT010 OVC055 M13/M14 A2993 RMK AO2 SLP148 T11281144 TSNO,PANN,2022-10-31T15:53:00Z,64.55,-149.08,-12.8,-14.4,0,0,,10.0,29.929134,1014.8,,TRUE,TRUE,,,TRUE,,,,SCT,1000,OVC,5500,,,,,VFR,,,,,,,,,,,,METAR,110.0
PANC 311553Z 36010KT 10SM OVC110 M04/M14 A2967 RMK AO2 SLP051 T10441139,PANC,2022-10-31T15:53:00Z,61.17,-150.02,-4.4,-13.9,360,10,,10.0,29.66929,1005.1,,,TRUE,,,,,,,OVC,11000,,,,,,,VFR,,,,,,,,,,,,METAR,39.0
PAMR 311553Z 33006KT 10SM BKN060 OVC080 M04/M14 A2967 RMK AO2 SLP050 T10391144,PAMR,2022-10-31T15:53:00Z,61.22,-149.85,-3.9,-14.4,330,6,,10.0,29.66929,1005.0,,,TRUE,,,,,,,BKN,6000,OVC,8000,,,,,VFR,,,,,,,,,,,,METAR,43.0
PALH 311553Z 36007KT 10SM OVC110 M04/M14 A2968 RMK AO2 SLP053 T10441144,PALH,2022-10-31T15:53:00Z,61.18,-149.97,-4.4,-14.4,360,7,,10.0,29.681103,1005.3,,,TRUE,,,,,,,OVC,11000,,,,,,,VFR,,,,,,,,,,,,METAR,26.0
PAKW 311553Z AUTO 16003KT 10SM CLR 02/00 A2953 RMK AO2 SLP999 T00170000 TSNO $,PAKW,2022-10-31T15:53:00Z,55.58,-133.07,1.7,0.0,160,3,,10.0,29.530512,999.9,,TRUE,TRUE,TRUE,,TRUE,,,,CLR,,,,,,,,VFR,,,,,,,,,,,,METAR,7.0
PAKV 311553Z AUTO 00000KT 10SM OVC045 M12/M13 A3005 RMK AO2 SLP182 T11171128 TSNO $,PAKV,2022-10-31T15:53:00Z,64.33,-158.72,-11.7,-12.8,0,0,,10.0,30.050198,1018.2,,TRUE,TRUE,TRUE,,TRUE,,,,OVC,4500,,,,,,,VFR,,,,,,,,,,,,METAR,53.0
PAJN 311553Z 09011KT 5SM -SNRA BR FEW004 BKN028 OVC040 01/00 A2949 RMK AO2 SLP987 P0006 T00060000,PAJN,2022-10-31T15:53:00Z,58.35,-134.55,0.6,0.0,90,11,,5.0,29.489174,998.7,,,TRUE,,,,,,-SN -RA BR,FEW,400,BKN,2800,OVC,4000,,,MVFR,,,,,,0.06,,,,,,METAR,6.0
PAIL 311553Z 33010G23KT 10SM OVC030 M05/M09 A2996 RMK AO2 SNE1454 SLP150 P0000 T10501089 $,PAIL,2022-10-31T15:53:00Z,59.75,-154.92,-5.0,-8.9,330,10,23,10.0,29.958662,1015.0,,,TRUE,TRUE,,,,,,OVC,3000,,,,,,,MVFR,,,,,,0.005,,,,,,METAR,44.0
PAHO 311553Z 01008KT 10SM OVC100 M02/M11 A2967 RMK AO2 SLP048 T10221106,PAHO,2022-10-31T15:53:00Z,59.63,-151.48,-2.2,-10.6,10,8,,10.0,29.66929,1004.8,,,TRUE,,,,,,,OVC,10000,,,,,,,VFR,,,,,,,,,,,,METAR,6.0
PAGY 311553Z AUTO 00000KT 10SM OVC060 02/02 A2946 RMK AO2 SLP978 T00170017 TSNO,PAGY,2022-10-31T15:53:00Z,59.47,-135.32,1.7,1.7,0,0,,10.0,29.459646,997.8,,TRUE,TRUE,,,TRUE,,,,OVC,6000,,,,,,,VFR,,,,,,,,,,,,METAR,7.0
PAFA 311553Z 00000KT 10SM -SN SCT060 BKN075 M18/M22 A2994 RMK AO2 SNB22 SLP152 P0000 T11831222,PAFA,2022-10-31T15:53:00Z,64.8,-147.87,-18.3,-22.2,0,0,,10.0,29.940945,1015.2,,,TRUE,,,,,,-SN,SCT,6000,BKN,7500,,,,,VFR,,,,,,0.005,,,,,,METAR,130.0
PAEN 311553Z 02008KT 10SM BKN070 OVC085 M04/M09 A2968 RMK AO2 SLP055 T10391094,PAEN,2022-10-31T15:53:00Z,60.57,-151.25,-3.9,-9.4,20,8,,10.0,29.681103,1005.5,,,TRUE,,,,,,,BKN,7000,OVC,8500,,,,,VFR,,,,,,,,,,,,METAR,30.0
PAEG 311553Z AUTO 00000KT 10SM BKN048 M21/M24 A2981 RMK AO2 SLP123 T12111244 TSNO,PAEG,2022-10-31T15:53:00Z,64.78,-141.15,-21.1,-24.4,0,0,,10.0,29.811024,1012.3,,TRUE,TRUE,,,TRUE,,,,BKN,4800,,,,,,,VFR,,,,,,,,,,,,METAR,273.0
PADQ 311553Z 29028G38KT 10SM CLR M01/M12 A2973 RMK AO2 PK WND 28043/1457 SLP067 T10061117,PADQ,2022-10-31T15:53:00Z,57.75,-152.5,-0.6,-11.7,290,28,38,10.0,29.731298,1006.7,,,TRUE,,,,,,,CLR,,,,,,,,VFR,,,,,,,,,,,,METAR,5.0
PACV 311553Z 00000KT 10SM SCT100 M03/M04 A2938 RMK AO2 SLP949 T10331039,PACV,2022-10-31T15:53:00Z,60.5,-145.47,-3.3,-3.9,0,0,,10.0,29.379921,994.9,,,TRUE,,,,,,,SCT,10000,,,,,,,VFR,,,,,,,,,,,,METAR,15.0
PACD 311553Z AUTO 30008KT 10SM BKN021 BKN027 OVC033 02/00 A3028 RMK AO2 SLP254 T00170000 TSNO,PACD,2022-10-31T15:53:00Z,55.22,-162.72,1.7,0.0,300,8,,10.0,30.280512,1025.4,,TRUE,TRUE,,,TRUE,,,,BKN,2100,BKN,2700,OVC,3300,,,MVFR,,,,,,,,,,,,METAR,23.0
PABT 311553Z 00000KT 10SM FEW050 OVC075 M12/M14 A2997 RMK AO2 SLP169 T11221144 $,PABT,2022-10-31T15:53:00Z,66.92,-151.52,-12.2,-14.4,0,0,,10.0,29.970472,1016.9,,,TRUE,TRUE,,,,,,FEW,5000,OVC,7500,,,,,VFR,,,,,,,,,,,,METAR,195.0
PABR 311553Z 11012KT 3SM BR BKN011 M19/M21 A2997 RMK AO2 SLP151 T11891211,PABR,2022-10-31T15:53:00Z,71.28,-156.78,-18.9,-21.1,110,12,,3.0,29.970472,1015.1,,,TRUE,,,,,,BR,BKN,1100,,,,,,,MVFR,,,,,,,,,,,,METAR,6.0
PABI 311553Z 280/08KT 7SM -SN BKN018 OVC045 M12/M15 A2986 IC RMK AO2 SLP154 IC VC P0000 T11221150,PABI,2022-10-31T15:53:00Z,64.0,-145.72,-12.2,-15.0,,,,7.0,29.861221,1015.4,,,TRUE,,,,,,IC -SN,BKN,1800,OVC,4500,,,,,MVFR,,,,,,0.005,,,,,,METAR,388.0
PABE 311553Z AUTO 25009KT 10SM CLR M11/M12 A3018 RMK AO2 SLP222 T11111122 TSNO,PABE,2022-10-31T15:53:00Z,60.78,-161.83,-11.1,-12.2,250,9,,10.0,30.180119,1022.2,,TRUE,TRUE,,,TRUE,,,,CLR,,,,,,,,VFR,,,,,,,,,,,,METAR,28.0
PAAQ 311553Z 00000KT 10SM FEW120 M04/M12 A2963 RMK AO2 SLP039 T10441122 $,PAAQ,2022-10-31T15:53:00Z,61.6,-149.08,-4.4,-12.2,0,0,,10.0,29.630905,1003.9,,,TRUE,TRUE,,,,,,FEW,12000,,,,,,,VFR,,,,,,,,,,,,METAR,68.0
KZZV 311553Z AUTO 20006KT 10SM OVC009 17/16 A2993 RMK AO2 CIG 004V013 SLP133 T01720156,KZZV,2022-10-31T15:53:00Z,39.95,-81.9,17.2,15.6,200,6,,10.0,29.929134,1013.3,,TRUE,TRUE,,,,,,,OVC,900,,,,,,,IFR,,,,,,,,,,,,METAR,268.0
KYKM 311553Z AUTO 00000KT 10SM OVC070 11/07 A2981 RMK AO2 SLP095 T01060067,KYKM,2022-10-31T15:53:00Z,46.57,-120.53,10.6,6.7,0,0,,10.0,29.811024,1009.5,,TRUE,TRUE,,,,,,,OVC,7000,,,,,,,VFR,,,,,,,,,,,,METAR,319.0
KYIP 311553Z 00000KT 5SM BR OVC003 14/13 A2985 RMK AO2 RAB13E45 SLP105 P0004 T01440133 $,KYIP,2022-10-31T15:53:00Z,42.23,-83.53,14.4,13.3,0,0,,5.0,29.84941,1010.5,,,TRUE,TRUE,,,,,BR,OVC,300,,,,,,,LIFR,,,,,,0.04,,,,,,METAR,215.0
KXVG 311553Z AUTO 21005KT 10SM CLR 11/M01 A2978 RMK AO2,KXVG,2022-10-31T15:53:00Z,46.98,-94.2,11.0,-1.0,210,5,,10.0,29.778543,,,TRUE,TRUE,,,,,,,CLR,,,,,,,,VFR,,,,,,,,,,,,METAR,407.0
KXNA 311553Z 21006KT 9SM FEW003 13/12 A3003 RMK AO2 SLP163 T01280122,KXNA,2022-10-31T15:53:00Z,36.28,-94.3,12.8,12.2,210,6,,9.0,30.029528,1016.3,,,TRUE,,,,,,,FEW,300,,,,,,,VFR,,,,,,,,,,,,SPECI,390.0
KWVI 311553Z AUTO 06003KT 1SM BR OVC002 08/08 A3000 RMK AO2 SLP159 T00830083,KWVI,2022-10-31T15:53:00Z,36.93,-121.78,8.3,8.3,60,3,,1.0,30.0,1015.9,,TRUE,TRUE,,,,,,BR,OVC,200,,,,,,,LIFR,,,,,,,,,,,,METAR,47.0
KWST 311553Z AUTO VRB04KT 10SM SCT009 OVC020 16/14 A3008 RMK AO2 RAB02E20 SLP186 P0000 T01560144,KWST,2022-10-31T15:53:00Z,41.35,-71.8,15.6,14.4,0,4,,10.0,30.079725,1018.6,,TRUE,TRUE,,,,,,,SCT,900,OVC,2000,,,,,MVFR,,,,,,0.005,,,,,,METAR,20.0
KWRL 311553Z AUTO 00000KT 10SM CLR 06/M04 A2996 RMK AO2 SLP160 T00611039,KWRL,2022-10-31T15:53:00Z,43.97,-107.95,6.1,-3.9,0,0,,10.0,29.958662,1016.0,,TRUE,TRUE,,,,,,,CLR,,,,,,,,VFR,,,,,,,,,,,,METAR,1281.0
KVUO 311553Z AUTO 4SM -RA BR BKN060 OVC075 13/11 A2993 RMK AO2 SLP133 P0004 T01280111,KVUO,2022-10-31T15:53:00Z,45.62,-122.65,12.8,11.1,,,,4.0,29.929134,1013.3,,TRUE,TRUE,,,,,,-RA BR,BKN,6000,OVC,7500,,,,,MVFR,,,,,,0.04,,,,,,METAR,7.0
KVRB 311553Z 09010KT 10SM BKN020 29/24 A3001 RMK AO2 SLP161 T02890239,KVRB,2022-10-31T15:53:00Z,27.65,-80.42,28.9,23.9,90,10,,10.0,30.008858,1016.1,,,TRUE,,,,,,,BKN,2000,,,,,,,MVFR,,,,,,,,,,,,METAR,7.0
KVLD 311553Z 17006KT 10SM SCT020 27/20 A3003 RMK AO2 SLP174 T02720200 $,KVLD,2022-10-31T15:53:00Z,30.78,-83.27,27.2,20.0,170,6,,10.0,30.029528,1017.4,,,TRUE,TRUE,,,,,,SCT,2000,,,,,,,VFR,,,,,,,,,,,,METAR,59.0
KVIH 311553Z AUTO 27008KT 10SM SCT008 BKN050 14/12 A2994 RMK AO2 SLP136 T01390122,KVIH,2022-10-31T15:53:00Z,38.13,-91.77,13.9,12.2,270,8,,10.0,29.940945,1013.6,,TRUE,TRUE,,,,,,,SCT,800,BKN,5000,,,,,VFR,,,,,,,,,,,,METAR,342.0
KVGT 311553Z 13003KT 10SM CLR 16/M06 A3006 RMK AO2 SLP186 T01561056,KVGT,2022-10-31T15:53:00Z,36.22,-115.2,15.6,-5.6,130,3,,10.0,30.059055,1018.6,,,TRUE,,,,,,,CLR,,,,,,,,VFR,,,,,,,,,,,,METAR,664.0
KVEL 311553Z AUTO 00000KT 10SM CLR 05/M04 A3019 RMK AO2 SLP225 T00501039,KVEL,2022-10-31T15:53:00Z,40.45,-109.52,5.0,-3.9,0,0,,10.0,30.188976,1022.5,,TRUE,TRUE,,,,,,,CLR,,,,,,,,VFR,,,,,,,,,,,,METAR,1604.0
KVCB 311553Z AUTO 01004KT 10SM CLR 11/06 A3000 RMK AO2 SLP159 T01110056,KVCB,2022-10-31T15:53:00Z,38.38,-121.95,11.1,5.6,10,4,,10.0,30.0,1015.9,,TRUE,TRUE,,,,,,,CLR,,,,,,,,VFR,,,,,,,,,,,,METAR,30.0
KUUU 311553Z AUTO 16005KT 5SM -RA BR FEW007 OVC017 14/13 A3008 RMK AO2 RAE03B32 SLP184 P0000 T01390128,KUUU,2022-10-31T15:53:00Z,41.53,-71.28,13.9,12.8,160,5,,5.0,30.079725,1018.4,,TRUE,TRUE,,,,,,-RA BR,FEW,700,OVC,1700,,,,,MVFR,,,,,,0.005,,,,,,METAR,45.0
KUTS 311553Z AUTO VRB03KT 10SM CLR 22/13 A3007 RMK AO2 SLP179 T02170133,KUTS,2022-10-31T15:53:00Z,30.75,-95.58,21.7,13.3,0,3,,10.0,30.070866,1017.9,,TRUE,TRUE,,,,,,,CLR,,,,,,,,VFR,,,,,,,,,,,,METAR,103.0
KUNV 311553Z 00000KT 10SM OVC050 11/07 A3003,KUNV,2022-10-31T15:53:00Z,40.85,-77.83,11.0,7.0,0,0,,10.0,30.029528,,,,,,,,,,,OVC,5000,,,,,,,VFR,,,,,,,,,,,,METAR,365.0
KUNO 311553Z AUTO 28007KT 10SM FEW021 BKN049 17/11 A2997 RMK AO2 SLP143 T01670106,KUNO,2022-10-31T15:53:00Z,36.88,-91.9,16.7,10.6,280,7,,10.0,29.970472,1014.3,,TRUE,TRUE,,,,,,,FEW,2100,BKN,4900,,,,,VFR,,,,,,,,,,,,METAR,376.0
KUIL 311553Z AUTO 00000KT 10SM FEW017 SCT025 OVC032 09/08 A2983 RMK AO2 SLP102 T00890083,KUIL,2022-10-31T15:53:00Z,47.93,-124.55,8.9,8.3,0,0,,10.0,29.828741,1010.2,,TRUE,TRUE,,,,,,,FEW,1700,SCT,2500,OVC,3200,,,VFR,,,,,,,,,,,,METAR,58.0
KUAO 311553Z 20007KT 2 1/2SM -RA BR BKN008 OVC018 12/12 A2995 RMK AO2 RAE22B44 SLP140 P0002 T01220117,KUAO,2022-10-31T15:53:00Z,45.25,-122.77,12.2,11.7,200,7,,2.5,29.949802,1014.0,,,TRUE,,,,,,-RA BR,BKN,800,OVC,1800,,,,,IFR,,,,,,0.02,,,,,,METAR,60.0
KTYS 311553Z 00000KT 10SM BKN007 BKN012 OVC250 18/16 A2999 RMK AO2 SLP151 T01780156 $,KTYS,2022-10-31T15:53:00Z,35.82,-83.98,17.8,15.6,0,0,,10.0,29.991142,1015.1,,,TRUE,TRUE,,,,,,BKN,700,BKN,1200,OVC,25000,,,IFR,,,,,,,,,,,,METAR,300.0
KTYR 311553Z 00000KT 10SM CLR 20/12 A3006 RMK AO2 SLP174 T02000122,KTYR,2022-10-31T15:53:00Z,32.37,-95.4,20.0,12.2,0,0,,10.0,30.059055,1017.4,,,TRUE,,,,,,,CLR,,,,,,,,VFR,,,,,,,,,,,,METAR,161.0
KTXK 311553Z 33006KT 10SM CLR 20/13 A3005 RMK AO2 SLP173 T02000133,KTXK,2022-10-31T15:53:00Z,33.45,-93.98,20.0,13.3,330,6,,10.0,30.050198,1017.3,,,TRUE,,,,,,,CLR,,,,,,,,VFR,,,,,,,,,,,,METAR,118.0
KTWF 311553Z 20010KT 10SM CLR 13/M03 A3007 RMK AO2 SLP161 T01281028,KTWF,2022-10-31T15:53:00Z,42.48,-114.48,12.8,-2.8,200,10,,10.0,30.070866,1016.1,,,TRUE,,,,,,,CLR,,,,,,,,VFR,,,,,,,,,,,,METAR,1269.0
KTVR 311553Z AUTO VRB03KT 10SM CLR 22/15 A3006 RMK AO2 SLP186 T02170150,KTVR,2022-10-31T15:53:00Z,32.35,-91.03,21.7,15.0,0,3,,10.0,30.059055,1018.6,,TRUE,TRUE,,,,,,,CLR,,,,,,,,VFR,,,,,,,,,,,,METAR,25.0
KTVL 311553Z AUTO 18003KT 10SM CLR M03/M08 A3013 RMK AO2 SLP209 T10281083,KTVL,2022-10-31T15:53:00Z,38.9,-120.0,-2.8,-8.3,180,3,,10.0,30.129921,1020.9,,TRUE,TRUE,,,,,,,CLR,,,,,,,,VFR,,,,,,,,,,,,METAR,1907.0
KTVC 311553Z 31003KT 10SM BKN120 15/08 A2984 RMK AO2 SLP105 T01500078,KTVC,2022-10-31T15:53:00Z,44.73,-85.58,15.0,7.8,310,3,,10.0,29.840551,1010.5,,,TRUE,,,,,,,BKN,12000,,,,,,,VFR,,,,,,,,,,,,METAR,188.0
KTUS 311553Z 16008KT 120V190 10SM CLR 14/M01 A3003 RMK AO2 SLP144 T01441011 $,KTUS,2022-10-31T15:53:00Z,32.13,-110.95,14.4,-1.1,160,8,,10.0,30.029528,1014.4,,,TRUE,TRUE,,,,,,CLR,,,,,,,,VFR,,,,,,,,,,,,METAR,776.0
KTUP 311553Z 24004KT 10SM OVC012 18/14 A3001 RMK AO2 SLP161 T01780139,KTUP,2022-10-31T15:53:00Z,34.27,-88.77,17.8,13.9,240,4,,10.0,30.008858,1016.1,,,TRUE,,,,,,,OVC,1200,,,,,,,MVFR,,,,,,,,,,,,METAR,107.0
KTUL 311553Z 00000KT 10SM FEW250 17/08 A3003 RMK AO2 SLP165 T01670083,KTUL,2022-10-31T15:53:00Z,36.2,-95.88,16.7,8.3,0,0,,10.0,30.029528,1016.5,,,TRUE,,,,,,,FEW,25000,,,,,,,VFR,,,,,,,,,,,,METAR,196.0
KTTN 311553Z 20005KT 10SM BKN031 15/12 A3008 RMK AO2 SLP179 T01500117,KTTN,2022-10-31T15:53:00Z,40.28,-74.82,15.0,11.7,200,5,,10.0,30.079725,1017.9,,,TRUE,,,,,,,BKN,3100,,,,,,,VFR,,,,,,,,,,,,METAR,58.0
KTTD 311553Z 23008KT 3SM -RA SCT012 BKN024 OVC034 13/11 A2993 RMK AO2 SLP135 P0005 T01280106,KTTD,2022-10-31T15:53:00Z,45.55,-122.42,12.8,10.6,230,8,,3.0,29.929134,1013.5,,,TRUE,,,,,,-RA,SCT,1200,BKN,2400,OVC,3400,,,MVFR,,,,,,0.05,,,,,,METAR,8.0
KTRL 311553Z AUTO 00000KT 10SM CLR 19/12 A3006 RMK AO2 SLP175 T01940122,KTRL,2022-10-31T15:53:00Z,32.72,-96.27,19.4,12.2,0,0,,10.0,30.059055,1017.5,,TRUE,TRUE,,,,,,,CLR,,,,,,,,VFR,,,,,,,,,,,,METAR,144.0
KTRI 311553Z 00000KT 3SM BR BKN005 OVC034 16/15 A3003 RMK AO2 SFC VIS 6 RAE04 SLP153 P0000 T01610150 $,KTRI,2022-10-31T15:53:00Z,36.48,-82.4,16.1,15.0,0,0,,3.0,30.029528,1015.3,,,TRUE,TRUE,,,,,BR,BKN,500,OVC,3400,,,,,IFR,,,,,,0.005,,,,,,METAR,456.0
KTPA 311553Z 25004KT 10SM FEW025 FEW160 29/21 A3002 RMK AO2 SLP165 T02890206,KTPA,2022-10-31T15:53:00Z,27.97,-82.53,28.9,20.6,250,4,,10.0,30.02067,1016.5,,,TRUE,,,,,,,FEW,2500,FEW,16000,,,,,VFR,,,,,,,,,,,,METAR,2.0
KTOR 311553Z AUTO 28005KT 10SM CLR 09/M05 A2996 RMK AO2 SLP149 T00891050,KTOR,2022-10-31T15:53:00Z,42.07,-104.15,8.9,-5.0,280,5,,10.0,29.958662,1014.9,,TRUE,TRUE,,,,,,,CLR,,,,,,,,VFR,,,,,,,,,,,,METAR,1285.0
KTOP 311553Z 27007KT 10SM CLR 16/05 A2999 RMK AO2 SLP152 T01560050,KTOP,2022-10-31T15:53:00Z,39.07,-95.63,15.6,5.0,270,7,,10.0,29.991142,1015.2,,,TRUE,,,,,,,CLR,,,,,,,,VFR,,,,,,,,,,,,METAR,268.0
KTOI 311553Z AUTO 31007KT 10SM CLR 23/13 A3005 RMK AO2 SLP173 T02280128,KTOI,2022-10-31T15:53:00Z,31.85,-86.02,22.8,12.8,310,7,,10.0,30.050198,1017.3,,TRUE,TRUE,,,,,,,CLR,,,,,,,,VFR,,,,,,,,,,,,METAR,120.0
KTMB 311553Z 14005KT 10SM FEW027 SCT039 SCT047 29/23 A2998 RMK AO2 SLP151 T02940233,KTMB,2022-10-31T15:53:00Z,25.65,-80.43,29.4,23.3,140,5,,10.0,29.97933,1015.1,,,TRUE,,,,,,,FEW,2700,SCT,3900,SCT,4700,,,VFR,,,,,,,,,,,,METAR,2.0
KTLH 311553Z COR 00000KT 10SM BKN009 24/21 A3003 RMK AO2 SLP167 T02390206,KTLH,2022-10-31T15:53:00Z,30.4,-84.35,23.9,20.6,0,0,,10.0,30.029528,1016.7,TRUE,,TRUE,,,,,,,BKN,900,,,,,,,IFR,,,,,,,,,,,,METAR,17.0
KTKI 311553Z VRB03KT 10SM CLR 18/12 A3006 RMK AO2 SLP183 T01780117,KTKI,2022-10-31T15:53:00Z,33.18,-96.58,17.8,11.7,0,3,,10.0,30.059055,1018.3,,,TRUE,,,,,,,CLR,,,,,,,,VFR,,,,,,,,,,,,METAR,173.0
KTIW 311553Z 19015G23KT 10SM BKN030 BKN070 BKN080 12/11 A2980 RMK AO2 PK WND 19029/1526 RAE41 SLP092 P0000 T01170106,KTIW,2022-10-31T15:53:00Z,47.27,-122.58,11.7,10.6,190,15,23,10.0,29.799213,1009.2,,,TRUE,,,,,,,BKN,3000,BKN,7000,BKN,8000,,,MVFR,,,,,,0.005,,,,,,METAR,89.0
KTHV 311553Z AUTO VRB05KT 10SM OVC029 16/11 A3006 RMK AO2 RAB17E44 SLP181 P0000 T01610106,KTHV,2022-10-31T15:53:00Z,39.92,-76.88,16.1,10.6,0,5,,10.0,30.059055,1018.1,,TRUE,TRUE,,,,,,,OVC,2900,,,,,,,MVFR,,,,,,0.005,,,,,,METAR,141.0
KTDZ 311553Z AUTO 21009KT 10SM SCT011 OVC020 18/16 A2986 RMK AO2 SLP109 T01780156,KTDZ,2022-10-31T15:53:00Z,41.57,-83.48,17.8,15.6,210,9,,10.0,29.861221,1010.9,,TRUE,TRUE,,,,,,,SCT,1100,OVC,2000,,,,,MVFR,,,,,,,,,,,,METAR,189.0
KTCS 311553Z AUTO 01003KT 10SM CLR 12/M03 A3012 RMK AO2 SLP155 T01221028,KTCS,2022-10-31T15:53:00Z,33.23,-107.27,12.2,-2.8,10,3,,10.0,30.121063,1015.5,,TRUE,TRUE,,,,,,,CLR,,,,,,,,VFR,,,,,,,,,,,,METAR,1471.0
KTCL 311553Z 25004KT 6SM HZ FEW009 OVC060 18/16 A3004 RMK AO2 SLP171 T01830156,KTCL,2022-10-31T15:53:00Z,33.22,-87.62,18.3,15.6,250,4,,6.0,30.041338,1017.1,,,TRUE,,,,,,HZ,FEW,900,OVC,6000,,,,,VFR,,,,,,,,,,,,METAR,48.0
KTCC 311553Z AUTO 24004KT 10SM CLR 11/04 A3007 RMK AO2 SLP165 T01060044,KTCC,2022-10-31T15:53:00Z,35.18,-103.6,10.6,4.4,240,4,,10.0,30.070866,1016.5,,TRUE,TRUE,,,,,,,CLR,,,,,,,,VFR,,,,,,,,,,,,METAR,1233.0
KSWO 311553Z 33005KT 10SM CLR 18/06 A3004 RMK AO2 SLP166 T01830061,KSWO,2022-10-31T15:53:00Z,36.17,-97.08,18.3,6.1,330,5,,10.0,30.041338,1016.6,,,TRUE,,,,,,,CLR,,,,,,,,VFR,,,,,,,,,,,,METAR,293.0
KSTS 311553Z AUTO 00000KT 1/4SM FG VV002 08/08 A2998 RMK AO2 SLP147 T00780078,KSTS,2022-10-31T15:53:00Z,38.5,-122.82,7.8,7.8,0,0,,0.25,29.97933,1014.7,,TRUE,TRUE,,,,,,FG,OVX,0,,,,,,,LIFR,,,,,,,,,,,200,METAR,35.0
KSTP 311553Z 00000KT 5SM HZ CLR 09/04 A2988 RMK AO2 SLP121 T00940039,KSTP,2022-10-31T15:53:00Z,44.93,-93.05,9.4,3.9,0,0,,5.0,29.878937,1012.1,,,TRUE,,,,,,HZ,CLR,,,,,,,,MVFR,,,,,,,,,,,,METAR,213.0
KSTJ 311553Z 31004KT 10SM CLR 13/04 A2997 RMK AO2 SLP149 T01330044,KSTJ,2022-10-31T15:53:00Z,39.77,-94.92,13.3,4.4,310,4,,10.0,29.970472,1014.9,,,TRUE,,,,,,,CLR,,,,,,,,VFR,,,,,,,,,,,,METAR,247.0
KSTC 311553Z 19004KT 10SM CLR 10/01 A2986 RMK AO2 SLP127 T01000011,KSTC,2022-10-31T15:53:00Z,45.55,-94.05,10.0,1.1,190,4,,10.0,29.861221,1012.7,,,TRUE,,,,,,,CLR,,,,,,,,VFR,,,,,,,,,,,,METAR,302.0
KSSI 311553Z AUTO 13007KT 10SM CLR 27/20 A3003 RMK AO2 SLP171 T02670200,KSSI,2022-10-31T15:53:00Z,31.15,-81.38,26.7,20.0,130,7,,10.0,30.029528,1017.1,,TRUE,TRUE,,,,,,,CLR,,,,,,,,VFR,,,,,,,,,,,,METAR,6.0
KSSF 311553Z 15006KT 10SM CLR 23/14 A3004 RMK AO2 SLP167 T02330139,KSSF,2022-10-31T15:53:00Z,29.33,-98.47,23.3,13.9,150,6,,10.0,30.041338,1016.7,,,TRUE,,,,,,,CLR,,,,,,,,VFR,,,,,,,,,,,,METAR,175.0
KSRQ 311553Z 15004KT 10SM CLR 29/19 A2999 RMK AO2 SLP154 T02940194,KSRQ,2022-10-31T15:53:00Z,27.4,-82.57,29.4,19.4,150,4,,10.0,29.991142,1015.4,,,TRUE,,,,,,,CLR,,,,,,,,VFR,,,,,,,,,,,,METAR,5.0
KSPW 311553Z AUTO 25004KT 10SM CLR 13/M01 A2992 RMK AO2 SLP138 T01331006,KSPW,2022-10-31T15:53:00Z,43.17,-95.22,13.3,-0.6,250,4,,10.0,29.920275,1013.8,,TRUE,TRUE,,,,,,,CLR,,,,,,,,VFR,,,,,,,,,,,,METAR,407.0
KSPG 311553Z 00000KT 10SM CLR 27/24 A3000 RMK AO2 SLP159 T02670239,KSPG,2022-10-31T15:53:00Z,27.77,-82.63,26.7,23.9,0,0,,10.0,30.0,1015.9,,,TRUE,,,,,,,CLR,,,,,,,,VFR,,,,,,,,,,,,METAR,1.0
KSPB 311553Z AUTO 00000KT 10SM -RA BKN015 OVC080 12/12 A2990 RMK AO2 SLP126 P0002 T01220117,KSPB,2022-10-31T15:53:00Z,45.77,-122.87,12.2,11.7,0,0,,10.0,29.899607,1012.6,,TRUE,TRUE,,,,,,-RA,BKN,1500,OVC,8000,,,,,MVFR,,,,,,0.02,,,,,,METAR,15.0
KSNY 311553Z AUTO 30012KT 10SM CLR 13/M06 A2998 RMK AO2 SLP153 T01281061,KSNY,2022-10-31T15:53:00Z,41.1,-102.98,12.8,-6.1,300,12,,10.0,29.97933,1015.3,,TRUE,TRUE,,,,,,,CLR,,,,,,,,VFR,,,,,,,,,,,,METAR,1307.0
KSNS 311553Z 12004KT 4SM BR OVC004 10/08 A3000 RMK AO2 SLP169 T01000083 $,KSNS,2022-10-31T15:53:00Z,36.67,-121.6,10.0,8.3,120,4,,4.0,30.0,1016.9,,,TRUE,TRUE,,,,,BR,OVC,400,,,,,,,LIFR,,,,,,,,,,,,METAR,20.0
KSNA 311553Z VRB03KT 10SM FEW040 SCT080 SCT140 18/12 A2993 RMK AO2 SLP133 T01780117,KSNA,2022-10-31T15:53:00Z,33.67,-117.87,17.8,11.7,0,3,,10.0,29.929134,1013.3,,,TRUE,,,,,,,FEW,4000,SCT,8000,SCT,14000,,,VFR,,,,,,,,,,,,METAR,14.0
KSMQ 311553Z AUTO VRB03KT 10SM FEW040 15/10 A3007 RMK AO2 SLP182 T01500100,KSMQ,2022-10-31T15:53:00Z,40.62,-74.67,15.0,10.0,0,3,,10.0,30.070866,1018.2,,TRUE,TRUE,,,,,,,FEW,4000,,,,,,,VFR,,,,,,,,,,,,METAR,30.0
KSMF 311553Z 32004KT 10SM BKN230 11/06 A2999 RMK AO2 SLP154 T01110056,KSMF,2022-10-31T15:53:00Z,38.7,-121.6,11.1,5.6,320,4,,10.0,29.991142,1015.4,,,TRUE,,,,,,,BKN,23000,,,,,,,VFR,,,,,,,,,,,,METAR,7.0
KSLN 311553Z 35003KT 10SM CLR 13/03 A3002 RMK AO2 SLP166 T01330033,KSLN,2022-10-31T15:53:00Z,38.8,-97.65,13.3,3.3,350,3,,10.0,30.02067,1016.6,,,TRUE,,,,,,,CLR,,,,,,,,VFR,,,,,,,,,,,,SPECI,377.0
KSJC 311553Z 15005KT 4SM HZ SCT005 BKN007 OVC100 12/09 A2999 RMK AO2 SLP154 T01220094,KSJC,2022-10-31T15:53:00Z,37.37,-121.92,12.2,9.4,150,5,,4.0,29.991142,1015.4,,,TRUE,,,,,,HZ,SCT,500,BKN,700,OVC,10000,,,IFR,,,,,,,,,,,,METAR,13.0
KSIY 311553Z AUTO 00000KT 10SM CLR 03/M04 A3006 RMK AO2 SLP195 T00281039,KSIY,2022-10-31T15:53:00Z,41.77,-122.47,2.8,-3.9,0,0,,10.0,30.059055,1019.5,,TRUE,TRUE,,,,,,,CLR,,,,,,,,VFR,,,,,,,,,,,,METAR,807.0
KSHR 311553Z AUTO 00000KT 10SM CLR 08/01 A2987 RMK AO2 SLP129 T00830006,KSHR,2022-10-31T15:53:00Z,44.77,-106.97,8.3,0.6,0,0,,10.0,29.870079,1012.9,,TRUE,TRUE,,,,,,,CLR,,,,,,,,VFR,,,,,,,,,,,,METAR,1212.0
KSHN 311553Z AUTO 22016G22KT 10SM SCT016 SCT043 SCT050 12/11 A2978 RMK AO2 PK WND 23027/1508 RAE30 SLP085 P0002 T01220106,KSHN,2022-10-31T15:53:00Z,47.23,-123.13,12.2,10.6,220,16,22,10.0,29.778543,1008.5,,TRUE,TRUE,,,,,,,SCT,1600,SCT,4300,SCT,5000,,,VFR,,,,,,0.02,,,,,,METAR,84.0
KSGR 311553Z 00000KT 10SM CLR 23/13 A3007 RMK AO2 SLP183 T02280133,KSGR,2022-10-31T15:53:00Z,29.62,-95.65,22.8,13.3,0,0,,10.0,30.070866,1018.3,,,TRUE,,,,,,,CLR,,,,,,,,VFR,,,,,,,,,,,,METAR,22.0
KSFF 311553Z 20005KT 10SM BKN025 BKN060 11/06 A2979 RMK AO2 SLP087 T01110061,KSFF,2022-10-31T15:53:00Z,47.68,-117.32,11.1,6.1,200,5,,10.0,29.790354,1008.7,,,TRUE,,,,,,,BKN,2500,BKN,6000,,,,,MVFR,,,,,,,,,,,,METAR,593.0
KSFB 311553Z VRB03KT 10SM FEW025 SCT032 28/21 A3002 RMK AO2 SLP164 T02780211,KSFB,2022-10-31T15:53:00Z,28.77,-81.23,27.8,21.1,0,3,,10.0,30.02067,1016.4,,,TRUE,,,,,,,FEW,2500,SCT,3200,,,,,VFR,,,,,,,,,,,,SPECI,16.0
KSEG 311553Z AUTO 22004KT 10SM FEW018 BKN120 13/09 A3005 RMK AO2 SLP179 T01330089,KSEG,2022-10-31T15:53:00Z,40.82,-76.87,13.3,8.9,220,4,,10.0,30.050198,1017.9,,TRUE,TRUE,,,,,,,FEW,1800,BKN,12000,,,,,VFR,,,,,,,,,,,,METAR,136.0
KSEA 311553Z 18012G22KT 10SM SCT015 BKN026 OVC120 12/10 A2980 RMK AO2 SLP096 T01170100,KSEA,2022-10-31T15:53:00Z,47.45,-122.32,11.7,10.0,180,12,22,10.0,29.799213,1009.6,,,TRUE,,,,,,,SCT,1500,BKN,2600,OVC,12000,,,MVFR,,,,,,,,,,,,METAR,115.0
KSDM 311553Z 16003KT 10SM CLR 21/M03 A2993 RMK AO2 SLP132 T02061028 $,KSDM,2022-10-31T15:53:00Z,32.58,-117.0,20.6,-2.8,160,3,,10.0,29.929134,1013.2,,,TRUE,TRUE,,,,,,CLR,,,,,,,,VFR,,,,,,,,,,,,METAR,161.0
KSDL 311553Z 00000KT 10SM CLR 16/01 A2999 RMK AO2 SLP141 T01610006,KSDL,2022-10-31T15:53:00Z,33.62,-111.92,16.1,0.6,0,0,,10.0,29.991142,1014.1,,,TRUE,,,,,,,CLR,,,,,,,,VFR,,,,,,,,,,,,METAR,438.0
KSDB 311553Z AUTO 06004KT 10SM 17/M09 A3010 RMK AO2 SLP150 T01721089 $,KSDB,2022-10-31T15:53:00Z,34.75,-118.72,17.2,-8.9,60,4,,10.0,30.100393,1015.0,,TRUE,TRUE,TRUE,,,,,,,,,,,,,,,,,,,,,,,,,,METAR,1377.0
KSBM 311553Z AUTO 00000KT 10SM CLR 16/06 A2984 RMK AO2 SLP107 T01560056,KSBM,2022-10-31T15:53:00Z,43.78,-87.85,15.6,5.6,0,0,,10.0,29.840551,1010.7,,TRUE,TRUE,,,,,,,CLR,,,,,,,,VFR,,,,,,,,,,,,METAR,225.0
KSBD 311553Z 00000KT 10SM CLR 17/M06 A2996,KSBD,2022-10-31T15:53:00Z,34.08,-117.25,17.0,-6.0,0,0,,10.0,29.958662,,,,,,,,,,,CLR,,,,,,,,VFR,,,,,,,,,,,,METAR,353.0
KSBA 311553Z 00000KT 10SM CLR 14/09 A2992 RMK AO2 SLP132 T01390089 $,KSBA,2022-10-31T15:53:00Z,34.43,-119.85,13.9,8.9,0,0,,10.0,29.920275,1013.2,,,TRUE,TRUE,,,,,,CLR,,,,,,,,VFR,,,,,,,,,,,,METAR,2.0
KSAV 311553Z 18012KT 10SM SCT027 BKN140 BKN170 BKN250 27/18 A3003 RMK AO2 SLP170 T02720183,KSAV,2022-10-31T15:53:00Z,32.12,-81.2,27.2,18.3,180,12,,10.0,30.029528,1017.0,,,TRUE,,,,,,,SCT,2700,BKN,14000,BKN,17000,BKN,25000,VFR,,,,,,,,,,,,METAR,10.0
KSAF 311553Z 36014KT 10SM CLR 07/M05 A3016 RMK AO2 SLP189 T00671050,KSAF,2022-10-31T15:53:00Z,35.62,-106.1,6.7,-5.0,360,14,,10.0,30.159449,1018.9,,,TRUE,,,,,,,CLR,,,,,,,,VFR,,,,,,,,,,,,METAR,1918.0
KSAC 311553Z 00000KT 10SM CLR 11/07 A2999 RMK AO2 SLP154 T01110072,KSAC,2022-10-31T15:53:00Z,38.5,-121.5,11.1,7.2,0,0,,10.0,29.991142,1015.4,,,TRUE,,,,,,,CLR,,,,,,,,VFR,,,,,,,,,,,,METAR,5.0
KRXE 311553Z AUTO 18005KT 10SM CLR 06/M02 A3013 RMK AO2 SLP206 T00611017,KRXE,2022-10-31T15:53:00Z,43.83,-111.8,6.1,-1.7,180,5,,10.0,30.129921,1020.6,,TRUE,TRUE,,,,,,,CLR,,,,,,,,VFR,,,,,,,,,,,,METAR,1483.0
KRWL 311553Z AUTO 24019G28KT 10SM CLR 06/M06 A3013 RMK AO2 PK WND 23028/1548 SLP177 T00561056,KRWL,2022-10-31T15:53:00Z,41.8,-107.2,5.6,-5.6,240,19,28,10.0,30.129921,1017.7,,TRUE,TRUE,,,,,,,CLR,,,,,,,,VFR,,,,,,,,,,,,METAR,2066.0
KRWI 311553Z AUTO VRB04KT 10SM FEW060 21/13 A3011 RMK AO2 SLP194 T02060133 $,KRWI,2022-10-31T15:53:00Z,35.85,-77.9,20.6,13.3,0,4,,10.0,30.109253,1019.4,,TRUE,TRUE,TRUE,,,,,,FEW,6000,,,,,,,VFR,,,,,,,,,,,,SPECI,46.0
KRWF 311553Z AUTO 18003KT 10SM CLR 12/02 A2988 RMK AO2 SLP120 T01170017,KRWF,2022-10-31T15:53:00Z,44.55,-95.08,11.7,1.7,180,3,,10.0,29.878937,1012.0,,TRUE,TRUE,,,,,,,CLR,,,,,,,,VFR,,,,,,,,,,,,METAR,312.0
KRVS 311553Z 00000KT 10SM CLR 17/08 A3003 RMK AO2 SLP175 T01670083,KRVS,2022-10-31T15:53:00Z,36.05,-95.98,16.7,8.3,0,0,,10.0,30.029528,1017.5,,,TRUE,,,,,,,CLR,,,,,,,,VFR,,,,,,,,,,,,SPECI,191.0
KRUE 311553Z AUTO 31006KT 10SM CLR 18/12 A3001 RMK AO2 SLP155 T01830122,KRUE,2022-10-31T15:53:00Z,35.25,-93.1,18.3,12.2,310,6,,10.0,30.008858,1015.5,,TRUE,TRUE,,,,,,,CLR,,,,,,,,VFR,,,,,,,,,,,,SPECI,119.0
KRTN 311553Z AUTO 08004KT 10SM CLR 07/M01 A3011 RMK AO2 SLP168 T00721006,KRTN,2022-10-31T15:53:00Z,36.73,-104.5,7.2,-0.6,80,4,,10.0,30.109253,1016.8,,TRUE,TRUE,,,,,,,CLR,,,,,,,,VFR,,,,,,,,,,,,METAR,1939.0
KRSW 311553Z 12007KT 10SM BKN024 BKN031 29/23 A2998 RMK AO2 SLP150 T02890233,KRSW,2022-10-31T15:53:00Z,26.53,-81.75,28.9,23.3,120,7,,10.0,29.97933,1015.0,,,TRUE,,,,,,,BKN,2400,BKN,3100,,,,,MVFR,,,,,,,,,,,,SPECI,8.0
KRSL 311553Z AUTO 24004KT 10SM CLR 12/M01 A3000 RMK AO2 SLP164 T01171011,KRSL,2022-10-31T15:53:00Z,38.87,-98.82,11.7,-1.1,240,4,,10.0,30.0,1016.4,,TRUE,TRUE,,,,,,,CLR,,,,,,,,VFR,,,,,,,,,,,,SPECI,569.0
KRQE 311553Z AUTO 00000KT 10SM CLR 04/M04 A3019 RMK AO2 SLP189 T00441044,KRQE,2022-10-31T15:53:00Z,35.65,-109.07,4.4,-4.4,0,0,,10.0,30.188976,1018.9,,TRUE,TRUE,,,,,,,CLR,,,,,,,,VFR,,,,,,,,,,,,METAR,2056.0
KRNT 311553Z 18009KT 10SM FEW021 BKN030 OVC035 13/10 A2980 RMK AO2 SLP095 T01330100,KRNT,2022-10-31T15:53:00Z,47.5,-122.22,13.3,10.0,180,9,,10.0,29.799213,1009.5,,,TRUE,,,,,,,FEW,2100,BKN,3000,OVC,3500,,,MVFR,,,,,,,,,,,,METAR,7.0
KRNM 311553Z 00000KT 10SM CLR 19/M01 A2996 RMK AO2 SLP135 T01891006,KRNM,2022-10-31T15:53:00Z,33.03,-116.92,18.9,-0.6,0,0,,10.0,29.958662,1013.5,,,TRUE,,,,,,,CLR,,,,,,,,VFR,,,,,,,,,,,,METAR,423.0
KRMG 311553Z AUTO 10SM SCT004 BKN008 OVC045 18/16 A3002 RMK AO2 CIG 006V012 SLP159 T01780161,KRMG,2022-10-31T15:53:00Z,34.35,-85.17,17.8,16.1,,,,10.0,30.02067,1015.9,,TRUE,TRUE,,,,,,,SCT,400,BKN,800,OVC,4500,,,IFR,,,,,,,,,,,,METAR,196.0
KRME 311553Z 14007KT 10SM CLR 14/07 A3000 RMK AO2 SLP157 T01390067,KRME,2022-10-31T15:53:00Z,43.22,-75.4,13.9,6.7,140,7,,10.0,30.0,1015.7,,,TRUE,,,,,,,CLR,,,,,,,,VFR,,,,,,,,,,,,METAR,146.0
KRKP 311553Z AUTO 06009KT 10SM CLR 26/17 A3004 RMK AO2 SLP172 T02560172,KRKP,2022-10-31T15:53:00Z,28.08,-97.05,25.6,17.2,60,9,,10.0,30.041338,1017.2,,TRUE,TRUE,,,,,,,CLR,,,,,,,,VFR,,,,,,,,,,,,METAR,8.0
KRIW 311553Z AUTO 20005KT 10SM CLR 06/M07 A3001 RMK AO2 SLP152 T00611072,KRIW,2022-10-31T15:53:00Z,43.07,-108.43,6.1,-7.2,200,5,,10.0,30.008858,1015.2,,TRUE,TRUE,,,,,,,CLR,,,,,,,,VFR,,,,,,,,,,,,METAR,1662.0
KRIL 311553Z AUTO 00000KT 10SM CLR 02/M02 A3021 RMK AO2 SLP236 T00171022,KRIL,2022-10-31T15:53:00Z,39.53,-107.73,1.7,-2.2,0,0,,10.0,30.209646,1023.6,,TRUE,TRUE,,,,,,,CLR,,,,,,,,VFR,,,,,,,,,,,,METAR,1683.0
KRHI 311553Z AUTO 23003KT 10SM CLR 12/04 A2985 RMK AO2 SLP118 T01170044,KRHI,2022-10-31T15:53:00Z,45.63,-89.48,11.7,4.4,230,3,,10.0,29.84941,1011.8,,TRUE,TRUE,,,,,,,CLR,,,,,,,,VFR,,,,,,,,,,,,METAR,493.0
KRDD 311553Z 00000KT 10SM CLR 10/02 A3000 RMK AO2 SLP157 T01000017,KRDD,2022-10-31T15:53:00Z,40.52,-122.3,10.0,1.7,0,0,,10.0,30.0,1015.7,,,TRUE,,,,,,,CLR,,,,,,,,VFR,,,,,,,,,,,,METAR,152.0
KRBG 311553Z AUTO 00000KT 10SM CLR 12/10 A3003 RMK AO2 SLP167 T01220100,KRBG,2022-10-31T15:53:00Z,43.23,-123.35,12.2,10.0,0,0,,10.0,30.029528,1016.7,,TRUE,TRUE,,,,,,,CLR,,,,,,,,VFR,,,,,,,,,,,,METAR,152.0
KRBD 311553Z 00000KT 10SM CLR 21/12 A3006 RMK AO2 SLP174 T02060117,KRBD,2022-10-31T15:53:00Z,32.68,-96.87,20.6,11.7,0,0,,10.0,30.059055,1017.4,,,TRUE,,,,,,,CLR,,,,,,,,VFR,,,,,,,,,,,,METAR,200.0
KRAL 311553Z 06003KT 10SM CLR 16/M01 A2995 RMK AO2 SLP127 T01611006,KRAL,2022-10-31T15:53:00Z,33.95,-117.45,16.1,-0.6,60,3,,10.0,29.949802,1012.7,,,TRUE,,,,,,,CLR,,,,,,,,VFR,,,,,,,,,,,,METAR,254.0
KRAC 311553Z AUTO 05003KT 7SM OVC018 13/09 A2986 RMK AO2 SLP114 T01330094,KRAC,2022-10-31T15:53:00Z,42.77,-87.82,13.3,9.4,50,3,,7.0,29.861221,1011.4,,TRUE,TRUE,,,,,,,OVC,1800,,,,,,,MVFR,,,,,,,,,,,,METAR,203.0
KPWA 311553Z 00000KT 10SM CLR 16/06 A3006 RMK AO2 SLP175 T01560056,KPWA,2022-10-31T15:53:00Z,35.53,-97.65,15.6,5.6,0,0,,10.0,30.059055,1017.5,,,TRUE,,,,,,,CLR,,,,,,,,VFR,,,,,,,,,,,,SPECI,390.0
KPUW 311553Z AUTO 19011KT 10SM OVC037 11/07 A2986 RMK AO2 SLP115 T01060067,KPUW,2022-10-31T15:53:00Z,46.75,-117.12,10.6,6.7,190,11,,10.0,29.861221,1011.5,,TRUE,TRUE,,,,,,,OVC,3700,,,,,,,VFR,,,,,,,,,,,,METAR,774.0
KPUC 311553Z AUTO 00000KT 10SM CLR 07/M08 A3016 RMK AO2 SLP211 T00671078,KPUC,2022-10-31T15:53:00Z,39.62,-110.75,6.7,-7.8,0,0,,10.0,30.159449,1021.1,,TRUE,TRUE,,,,,,,CLR,,,,,,,,VFR,,,,,,,,,,,,METAR,1777.0
KPUB 311553Z 29007KT 10SM CLR 11/M06 A3004 RMK AO2 SLP161 T01061056,KPUB,2022-10-31T15:53:00Z,38.28,-104.5,10.6,-5.6,290,7,,10.0,30.041338,1016.1,,,TRUE,,,,,,,CLR,,,,,,,,VFR,,,,,,,,,,,,METAR,1441.0
KPTK 311553Z 14003KT 1 1/4SM BR OVC003 13/13 A2984 RMK AO2 SLP107 T01280128,KPTK,2022-10-31T15:53:00Z,42.67,-83.42,12.8,12.8,140,3,,1.25,29.840551,1010.7,,,TRUE,,,,,,BR,OVC,300,,,,,,,LIFR,,,,,,,,,,,,METAR,295.0
KPSX 311553Z AUTO 06005KT 10SM CLR 23/14 A3006 RMK AO2 SLP177 T02330139,KPSX,2022-10-31T15:53:00Z,28.72,-96.25,23.3,13.9,60,5,,10.0,30.059055,1017.7,,TRUE,TRUE,,,,,,,CLR,,,,,,,,VFR,,,,,,,,,,,,METAR,4.0
KPSP 311553Z 03003KT 10SM CLR 22/M04 A2995 RMK AO2 SLP139 T02171044,KPSP,2022-10-31T15:53:00Z,33.82,-116.5,21.7,-4.4,30,3,,10.0,29.949802,1013.9,,,TRUE,,,,,,,CLR,,,,,,,,VFR,,,,,,,,,,,,METAR,123.0
KPSC 311553Z 21012G21KT 10SM OVC075 16/08 A2982 RMK AO2 SLP097 T01560078,KPSC,2022-10-31T15:53:00Z,46.27,-119.12,15.6,7.8,210,12,21,10.0,29.819881,1009.7,,,TRUE,,,,,,,OVC,7500,,,,,,,VFR,,,,,,,,,,,,METAR,121.0
KPRC 311553Z 00000KT 10SM CLR 09/M06 A3014 RMK AO2 SLP169 T00941056,KPRC,2022-10-31T15:53:00Z,34.65,-112.42,9.4,-5.6,0,0,,10.0,30.138779,1016.9,,,TRUE,,,,,,,CLR,,,,,,,,VFR,,,,,,,,,,,,METAR,1528.0
KPRB 311553Z AUTO 00000KT 10SM CLR 07/01 A3002 RMK AO2 SLP164 T00720011 $,KPRB,2022-10-31T15:53:00Z,35.67,-120.63,7.2,1.1,0,0,,10.0,30.02067,1016.4,,TRUE,TRUE,TRUE,,,,,,CLR,,,,,,,,VFR,,,,,,,,,,,,METAR,249.0
KPQL 311553Z VRB05KT 10SM FEW026 23/16 A3006 RMK AO2 SLP179 T02330156,KPQL,2022-10-31T15:53:00Z,30.47,-88.53,23.3,15.6,0,5,,10.0,30.059055,1017.9,,,TRUE,,,,,,,FEW,2600,,,,,,,VFR,,,,,,,,,,,,SPECI,4.0
KPOU 311553Z 24008KT 10SM CLR 16/09 A3005 RMK AO2 SLP173 T01560089,KPOU,2022-10-31T15:53:00Z,41.63,-73.88,15.6,8.9,240,8,,10.0,30.050198,1017.3,,,TRUE,,,,,,,CLR,,,,,,,,VFR,,,,,,,,,,,,METAR,45.0
KPOF 311553Z AUTO 30006KT 10SM FEW015 SCT035 OVC055 16/13 A2994 RMK AO2 SLP137 T01560128,KPOF,2022-10-31T15:53:00Z,36.77,-90.32,15.6,12.8,300,6,,10.0,29.940945,1013.7,,TRUE,TRUE,,,,,,,FEW,1500,SCT,3500,OVC,5500,,,VFR,,,,,,,,,,,,METAR,99.0
KPNS 311553Z 28003KT 10SM CLR 23/13 A3005 RMK AO2 SLP178 T02280133,KPNS,2022-10-31T15:53:00Z,30.48,-87.18,22.8,13.3,280,3,,10.0,30.050198,1017.8,,,TRUE,,,,,,,CLR,,,,,,,,VFR,,,,,,,,,,,,SPECI,34.0
KPNC 311553Z AUTO VRB03KT 10SM CLR 15/06 A3003 RMK AO2 SLP163 T01500056,KPNC,2022-10-31T15:53:00Z,36.73,-97.1,15.0,5.6,0,3,,10.0,30.029528,1016.3,,TRUE,TRUE,,,,,,,CLR,,,,,,,,VFR,,,,,,,,,,,,SPECI,304.0
KPMP 311553Z 10008KT 10SM FEW019 FEW060 30/23 A2998 RMK AO2 SLP154 T03000233,KPMP,2022-10-31T15:53:00Z,26.25,-80.12,30.0,23.3,100,8,,10.0,29.97933,1015.4,,,TRUE,,,,,,,FEW,1900,FEW,6000,,,,,VFR,,,,,,,,,,,,SPECI,4.0
KPMD 311553Z 32003KT 10SM CLR 10/M06 A3005 RMK AO2 SLP170 T01001061,KPMD,2022-10-31T15:53:00Z,34.63,-118.08,10.0,-6.1,320,3,,10.0,30.050198,1017.0,,,TRUE,,,,,,,CLR,,,,,,,,VFR,,,,,,,,,,,,METAR,764.0
KPKD 311553Z AUTO 22006KT 10SM CLR 11/01 A2978 RMK AO2 SLP094 T01110006,KPKD,2022-10-31T15:53:00Z,46.9,-95.07,11.1,0.6,220,6,,10.0,29.778543,1009.4,,TRUE,TRUE,,,,,,,CLR,,,,,,,,VFR,,,,,,,,,,,,METAR,439.0
KPKB 311553Z 19005KT 10SM OVC010 17/15 A2997 RMK AO2 CIG 008V013 SLP145 T01670150,KPKB,2022-10-31T15:53:00Z,39.35,-81.43,16.7,15.0,190,5,,10.0,29.970472,1014.5,,,TRUE,,,,,,,OVC,1000,,,,,,,MVFR,,,,,,,,,,,,METAR,245.0
KPIR 311553Z AUTO 23005KT 10SM CLR 08/M03 A2984 RMK AO2 SLP111 T00831033,KPIR,2022-10-31T15:53:00Z,44.38,-100.28,8.3,-3.3,230,5,,10.0,29.840551,1011.1,,TRUE,TRUE,,,,,,,CLR,,,,,,,,VFR,,,,,,,,,,,,METAR,524.0
KPIL 311553Z AUTO 10010KT 10SM OVC060 26/19 A3000 RMK AO2 SLP157 T02610189,KPIL,2022-10-31T15:53:00Z,26.17,-97.33,26.1,18.9,100,10,,10.0,30.0,1015.7,,TRUE,TRUE,,,,,,,OVC,6000,,,,,,,VFR,,,,,,,,,,,,METAR,5.0
KPIH 311553Z 01005KT 10SM CLR 07/M02 A3012 RMK AO2 SLP199 T00721022,KPIH,2022-10-31T15:53:00Z,42.92,-112.57,7.2,-2.2,10,5,,10.0,30.121063,1019.9,,,TRUE,,,,,,,CLR,,,,,,,,VFR,,,,,,,,,,,,METAR,1357.0
KPIE 311553Z 04006KT 10SM FEW024 26/23 A3002 RMK AO2 SLP164 T02610233,KPIE,2022-10-31T15:53:00Z,27.92,-82.68,26.1,23.3,40,6,,10.0,30.02067,1016.4,,,TRUE,,,,,,,FEW,2400,,,,,,,VFR,,,,,,,,,,,,SPECI,1.0
KPHD 311553Z AUTO 21006KT 10SM OVC009 16/14 A2994 RMK AO2 CIG 006V012 SLP137 T01610144,KPHD,2022-10-31T15:53:00Z,40.47,-81.42,16.1,14.4,210,6,,10.0,29.940945,1013.7,,TRUE,TRUE,,,,,,,OVC,900,,,,,,,IFR,,,,,,,,,,,,METAR,272.0
KPGD 311553Z 10008KT 10SM SCT028 30/22 A3001 RMK AO2 SLP159 T03000222,KPGD,2022-10-31T15:53:00Z,26.92,-82.0,30.0,22.2,100,8,,10.0,30.008858,1015.9,,,TRUE,,,,,,,SCT,2800,,,,,,,VFR,,,,,,,,,,,,SPECI,7.0
KPEO 311553Z AUTO 21008KT 10SM OVC040 13/06 A2998 RMK AO2 SLP152 T01280061,KPEO,2022-10-31T15:53:00Z,42.65,-77.05,12.8,6.1,210,8,,10.0,29.97933,1015.2,,TRUE,TRUE,,,,,,,OVC,4000,,,,,,,VFR,,,,,,,,,,,,METAR,268.0
KPDX 311553Z 20014KT 6SM -RA BR FEW014 SCT029 OVC050 13/11 A2991 RMK AO2 SLP128 P0004 T01280111,KPDX,2022-10-31T15:53:00Z,45.6,-122.62,12.8,11.1,200,14,,6.0,29.911417,1012.8,,,TRUE,,,,,,-RA BR,FEW,1400,SCT,2900,OVC,5000,,,VFR,,,,,,0.04,,,,,,METAR,7.0
KPDT 311553Z 06003KT 10SM OVC060 12/07 A2987 RMK AO2 SLP108 T01170072,KPDT,2022-10-31T15:53:00Z,45.7,-118.83,11.7,7.2,60,3,,10.0,29.870079,1010.8,,,TRUE,,,,,,,OVC,6000,,,,,,,VFR,,,,,,,,,,,,METAR,453.0
KPDK 311553Z 00000KT 1/4SM FG OVC002 16/16 A3003 RMK AO2 SLP167 T01560156,KPDK,2022-10-31T15:53:00Z,33.88,-84.3,15.6,15.6,0,0,,0.25,30.029528,1016.7,,,TRUE,,,,,,FG,OVC,200,,,,,,,LIFR,,,,,,,,,,,,SPECI,299.0
KPBI 311553Z 13009KT 10SM SCT021 SCT050 SCT250 29/23 A2999 RMK AO2 SLP156 T02890233,KPBI,2022-10-31T15:53:00Z,26.68,-80.1,28.9,23.3,130,9,,10.0,29.991142,1015.6,,,TRUE,,,,,,,SCT,2100,SCT,5000,SCT,25000,,,VFR,,,,,,,,,,,,METAR,4.0
KPBG 311553Z AUTO 13009KT 10SM CLR 13/03 A2998 RMK AO2 SLP152 T01280033,KPBG,2022-10-31T15:53:00Z,44.65,-73.47,12.8,3.3,130,9,,10.0,29.97933,1015.2,,TRUE,TRUE,,,,,,,CLR,,,,,,,,VFR,,,,,,,,,,,,METAR,61.0
KPBF 311553Z AUTO 31004KT 10SM CLR 19/13 A3002 RMK AO2 SLP164 T01940128,KPBF,2022-10-31T15:53:00Z,34.18,-91.93,19.4,12.8,310,4,,10.0,30.02067,1016.4,,TRUE,TRUE,,,,,,,CLR,,,,,,,,VFR,,,,,,,,,,,,SPECI,63.0
KPAH 311553Z VRB03KT 10SM OVC015 17/14 A2992 RMK AO2 SLP128 T01720139 $,KPAH,2022-10-31T15:53:00Z,37.07,-88.77,17.2,13.9,0,3,,10.0,29.920275,1012.8,,,TRUE,TRUE,,,,,,OVC,1500,,,,,,,MVFR,,,,,,,,,,,,SPECI,125.0
KPAE 311553Z 18018G28KT 10SM BKN007 OVC015 12/10 A2976 RMK AO2 PK WND 19028/1544 SLP077 T01170100,KPAE,2022-10-31T15:53:00Z,47.92,-122.28,11.7,10.0,180,18,28,10.0,29.760826,1007.7,,,TRUE,,,,,,,BKN,700,OVC,1500,,,,,IFR,,,,,,,,,,,,METAR,166.0
KP68 311553Z AUTO 00000KT 02/M06 A3015 RMK AO1 SLP208 T00171061,KP68,2022-10-31T15:53:00Z,39.6,-116.0,1.7,-6.1,0,0,,,30.15059,1020.8,,TRUE,TRUE,,,,,,,,,,,,,,,,,,,,,,,,,,,METAR,1813.0
KOXB 311553Z AUTO 13005KT 10SM 17/12 A3011 RMK AO2 SLP194 T01720122,KOXB,2022-10-31T15:53:00Z,38.32,-75.12,17.2,12.2,130,5,,10.0,30.109253,1019.4,,TRUE,TRUE,,,,,,,,,,,,,,,,,,,,,,,,,,,METAR,2.0
KOWD 311553Z 24007KT 10SM OVC027 18/12 A3006 RMK AO2 SLP179 T01780122,KOWD,2022-10-31T15:53:00Z,42.18,-71.17,17.8,12.2,240,7,,10.0,30.059055,1017.9,,,TRUE,,,,,,,OVC,2700,,,,,,,MVFR,,,,,,,,,,,,METAR,14.0
KOWA 311553Z AUTO 00000KT 10SM CLR 09/03 A2989 RMK AO2,KOWA,2022-10-31T15:53:00Z,44.12,-93.25,9.0,3.0,0,0,,10.0,29.890747,,,TRUE,TRUE,,,,,,,CLR,,,,,,,,VFR,,,,,,,,,,,,METAR,345.0
KOVS 311553Z AUTO 23003KT 10SM CLR 10/06 A2988 RMK AO2 SLP124 T01000061,KOVS,2022-10-31T15:53:00Z,43.15,-90.68,10.0,6.1,230,3,,10.0,29.878937,1012.4,,TRUE,TRUE,,,,,,,CLR,,,,,,,,VFR,,,,,,,,,,,,METAR,205.0
KOVE 311553Z AUTO 14005KT 10SM CLR 14/04 A3000 RMK AO2 SLP162 T01440039,KOVE,2022-10-31T15:53:00Z,39.5,-121.62,14.4,3.9,140,5,,10.0,30.0,1016.2,,TRUE,TRUE,,,,,,,CLR,,,,,,,,VFR,,,,,,,,,,,,METAR,56.0
KOTM 311553Z AUTO 30003KT 9SM CLR 13/07 A2991 RMK AO2 SLP129 T01330072,KOTM,2022-10-31T15:53:00Z,41.1,-92.45,13.3,7.2,300,3,,9.0,29.911417,1012.9,,TRUE,TRUE,,,,,,,CLR,,,,,,,,VFR,,,,,,,,,,,,METAR,254.0
KOSH 311553Z 00000KT 8SM CLR 14/07 A2984 RMK AO2 SLP107 T01390067,KOSH,2022-10-31T15:53:00Z,43.98,-88.55,13.9,6.7,0,0,,8.0,29.840551,1010.7,,,TRUE,,,,,,,CLR,,,,,,,,VFR,,,,,,,,,,,,METAR,239.0
KORL 311553Z 00000KT 10SM SCT028 BKN034 BKN042 28/21 A3002 RMK AO2 SLP169 T02780211,KORL,2022-10-31T15:53:00Z,28.55,-81.33,27.8,21.1,0,0,,10.0,30.02067,1016.9,,,TRUE,,,,,,,SCT,2800,BKN,3400,BKN,4200,,,VFR,,,,,,,,,,,,SPECI,32.0
KORB 311553Z AUTO 22009G15KT 200V260 10SM CLR 11/00 A2973 RMK AO2,KORB,2022-10-31T15:53:00Z,48.02,-92.87,11.0,0.0,220,9,15,10.0,29.731298,,,TRUE,TRUE,,,,,,,CLR,,,,,,,,VFR,,,,,,,,,,,,METAR,407.0
KOQT 311553Z AUTO VRB03KT 10SM OVC008 16/15 A3002 RMK AO2 RAE12 CIG 007V013 SLP160 P0000 T01610150,KOQT,2022-10-31T15:53:00Z,36.02,-84.23,16.1,15.0,0,3,,10.0,30.02067,1016.0,,TRUE,TRUE,,,,,,,OVC,800,,,,,,,IFR,,,,,,0.005,,,,,,METAR,276.0
KOPF 311553Z 11010KT 10SM SCT012 BKN055 30/22 A2999 RMK AO2 SLP155 T03000217,KOPF,2022-10-31T15:53:00Z,25.92,-80.28,30.0,21.7,110,10,,10.0,29.991142,1015.5,,,TRUE,,,,,,,SCT,1200,BKN,5500,,,,,VFR,,,,,,,,,,,,METAR,1.0
KONT 311553Z 00000KT 10SM FEW200 SCT250 18/01 A2995 RMK AO2 SLP132 T01780011,KONT,2022-10-31T15:53:00Z,34.05,-117.58,17.8,1.1,0,0,,10.0,29.949802,1013.2,,,TRUE,,,,,,,FEW,20000,SCT,25000,,,,,VFR,,,,,,,,,,,,METAR,279.0
KONO 311553Z AUTO 00000KT 7SM CLR 04/01 A3006 RMK AO2 SLP191 T00390006,KONO,2022-10-31T15:53:00Z,44.02,-117.02,3.9,0.6,0,0,,7.0,30.059055,1019.1,,TRUE,TRUE,,,,,,,CLR,,,,,,,,VFR,,,,,,,,,,,,METAR,668.0
KOMK 311553Z AUTO 17008KT 10SM SCT095 10/07 A2972 RMK AO2 SLP065 T01000072,KOMK,2022-10-31T15:53:00Z,48.47,-119.52,10.0,7.2,170,8,,10.0,29.719488,1006.5,,TRUE,TRUE,,,,,,,SCT,9500,,,,,,,VFR,,,,,,,,,,,,METAR,395.0
KOLF 311553Z AUTO 09003KT CLR 06/01 A2975 RMK AO2 SLP089 T00560011 $,KOLF,2022-10-31T15:53:00Z,48.1,-105.58,5.6,1.1,90,3,,,29.749016,1008.9,,TRUE,TRUE,TRUE,,,,,,CLR,,,,,,,,,,,,,,,,,,,,METAR,605.0
KOJC 311553Z 29004KT 10SM CLR 16/06 A2996 RMK AO2 SLP142 T01560056,KOJC,2022-10-31T15:53:00Z,38.85,-94.73,15.6,5.6,290,4,,10.0,29.958662,1014.2,,,TRUE,,,,,,,CLR,,,,,,,,VFR,,,,,,,,,,,,METAR,328.0
KOGD 311553Z 16006KT 10SM CLR 07/M03 A3016 RMK AO2 SLP201 T00721033,KOGD,2022-10-31T15:53:00Z,41.2,-112.02,7.2,-3.3,160,6,,10.0,30.159449,1020.1,,,TRUE,,,,,,,CLR,,,,,,,,VFR,,,,,,,,,,,,METAR,1356.0
KOGB 311553Z AUTO 14005KT 9SM BKN005 OVC010 21/20 A3005 RMK AO2 CIG 004V008 SLP173 T02110200,KOGB,2022-10-31T15:53:00Z,33.47,-80.85,21.1,20.0,140,5,,9.0,30.050198,1017.3,,TRUE,TRUE,,,,,,,BKN,500,OVC,1000,,,,,IFR,,,,,,,,,,,,METAR,59.0
KODX 311553Z AUTO 00000KT 10SM CLR 08/02 A2992 RMK AO2 SLP144 T00830017,KODX,2022-10-31T15:53:00Z,41.62,-98.95,8.3,1.7,0,0,,10.0,29.920275,1014.4,,TRUE,TRUE,,,,,,,CLR,,,,,,,,VFR,,,,,,,,,,,,METAR,628.0
KODO 311553Z AUTO 17011KT 10SM CLR 17/07 A3010 RMK AO2 SLP163 T01720072,KODO,2022-10-31T15:53:00Z,31.92,-102.4,17.2,7.2,170,11,,10.0,30.100393,1016.3,,TRUE,TRUE,,,,,,,CLR,,,,,,,,VFR,,,,,,,,,,,,METAR,912.0
KOAK 311553Z 10004KT 10SM FEW008 BKN012 BKN230 13/11 A2999 RMK AO2 SLP154 T01280106,KOAK,2022-10-31T15:53:00Z,37.72,-122.23,12.8,10.6,100,4,,10.0,29.991142,1015.4,,,TRUE,,,,,,,FEW,800,BKN,1200,BKN,23000,,,MVFR,,,,,,,,,,,,METAR,3.0
KNUW 311553Z 22006KT 10SM -RA BKN010 OVC025 12/11 A2979 RMK AO2 PRESRR SLP087 P0000 T01170106 VISNO $,KNUW,2022-10-31T15:53:00Z,48.35,-122.65,11.7,10.6,220,6,,10.0,29.790354,1008.7,,,TRUE,TRUE,,,,,-RA,BKN,1000,OVC,2500,,,,,MVFR,,,,,,0.005,,,,,,METAR,14.0
KNUI 311553Z AUTO 20005KT 10SM OVC065 19/13 A3009 RMK AO2 SLP188 T01940128,KNUI,2022-10-31T15:53:00Z,38.15,-76.43,19.4,12.8,200,5,,10.0,30.088583,1018.8,,TRUE,TRUE,,,,,,,OVC,6500,,,,,,,VFR,,,,,,,,,,,,METAR,4.0
KNRS 311553Z 06003KT 7SM FEW006 BKN250 18/11 A2993 RMK AO2 SLP133 T01830111,KNRS,2022-10-31T15:53:00Z,32.57,-117.12,18.3,11.1,60,3,,7.0,29.929134,1013.3,,,TRUE,,,,,,,FEW,600,BKN,25000,,,,,VFR,,,,,,,,,,,,METAR,15.0
KNQX 311553Z 10007KT 10SM FEW018 32/24 A2997 RMK AO2 SLP148 T03220239 $ ,KNQX,2022-10-31T15:53:00Z,24.57,-81.67,32.2,23.9,100,7,,10.0,29.970472,1014.8,,,TRUE,TRUE,,,,,,FEW,1800,,,,,,,VFR,,,,,,,,,,,,METAR,2.0
KNIP 311553Z 19006KT 10SM SCT030 SCT250 27/21 A3004 RMK AO2 SLP167 T02670211,KNIP,2022-10-31T15:53:00Z,30.23,-81.67,26.7,21.1,190,6,,10.0,30.041338,1016.7,,,TRUE,,,,,,,SCT,3000,SCT,25000,,,,,VFR,,,,,,,,,,,,METAR,3.0
KNEW 311553Z 29004KT 7SM CLR 21/17 A3008 RMK AO2 SLP178 T02060167,KNEW,2022-10-31T15:53:00Z,30.05,-90.03,20.6,16.7,290,4,,7.0,30.079725,1017.8,,,TRUE,,,,,,,CLR,,,,,,,,VFR,,,,,,,,,,,,METAR,1.0
KMYV 311553Z AUTO 05003KT 10SM CLR 13/05 A2999 RMK AO2 SLP160 T01330050,KMYV,2022-10-31T15:53:00Z,39.1,-121.57,13.3,5.0,50,3,,10.0,29.991142,1016.0,,TRUE,TRUE,,,,,,,CLR,,,,,,,,VFR,,,,,,,,,,,,METAR,18.0
KMYF 311553Z 02003KT 10SM CLR 18/03 A2993 RMK AO2 SLP132 T01830028,KMYF,2022-10-31T15:53:00Z,32.82,-117.13,18.3,2.8,20,3,,10.0,29.929134,1013.2,,,TRUE,,,,,,,CLR,,,,,,,,VFR,,,,,,,,,,,,METAR,128.0
KMWT 311553Z AUTO VRB04KT 10SM CLR 18/11 A3001 RMK AO2 SLP158 T01780111,KMWT,2022-10-31T15:53:00Z,34.55,-93.58,17.8,11.1,0,4,,10.0,30.008858,1015.8,,TRUE,TRUE,,,,,,,CLR,,,,,,,,VFR,,,,,,,,,,,,METAR,220.0
KMWL 311553Z AUTO 00000KT 10SM CLR 18/12 A3006 RMK AO2 SLP174 T01780122,KMWL,2022-10-31T15:53:00Z,32.78,-98.07,17.8,12.2,0,0,,10.0,30.059055,1017.4,,TRUE,TRUE,,,,,,,CLR,,,,,,,,VFR,,,,,,,,,,,,METAR,288.0
KMVY 311553Z 19008KT 10SM SCT011 BKN022 BKN026 18/15 A3008 RMK AO2 SLP187 T01830150,KMVY,2022-10-31T15:53:00Z,41.4,-70.62,18.3,15.0,190,8,,10.0,30.079725,1018.7,,,TRUE,,,,,,,SCT,1100,BKN,2200,BKN,2600,,,MVFR,,,,,,,,,,,,METAR,18.0
KMTO 311553Z AUTO 22007KT 7SM OVC004 13/12 A2986 RMK AO2 CIG 003V006 SLP111 T01280117,KMTO,2022-10-31T15:53:00Z,39.47,-88.27,12.8,11.7,220,7,,7.0,29.861221,1011.1,,TRUE,TRUE,,,,,,,OVC,400,,,,,,,LIFR,,,,,,,,,,,,METAR,216.0
KMTJ 311553Z AUTO 19003KT 10SM CLR 04/M02 A3020 RMK AO2 SLP212 T00391022,KMTJ,2022-10-31T15:53:00Z,38.5,-107.9,3.9,-2.2,190,3,,10.0,30.200787,1021.2,,TRUE,TRUE,,,,,,,CLR,,,,,,,,VFR,,,,,,,,,,,,METAR,1755.0
KMTH 311553Z AUTO VRB05KT 10SM SCT020 32/24 A2997 RMK AO2 SLP147 T03170239 $,KMTH,2022-10-31T15:53:00Z,24.73,-81.05,31.7,23.9,0,5,,10.0,29.970472,1014.7,,TRUE,TRUE,TRUE,,,,,,SCT,2000,,,,,,,VFR,,,,,,,,,,,,METAR,1.0
KMSY 311553Z VRB03KT 10SM FEW020 FEW050 SCT250 22/15 A3007 RMK AO2 SLP185 T02220150,KMSY,2022-10-31T15:53:00Z,30.0,-90.25,22.2,15.0,0,3,,10.0,30.070866,1018.5,,,TRUE,,,,,,,FEW,2000,FEW,5000,SCT,25000,,,VFR,,,,,,,,,,,,METAR,0.0
KMSS 311553Z AUTO 19004KT 10SM CLR 14/04 A2996 RMK AO2 SLP148 T01440039,KMSS,2022-10-31T15:53:00Z,44.93,-74.85,14.4,3.9,190,4,,10.0,29.958662,1014.8,,TRUE,TRUE,,,,,,,CLR,,,,,,,,VFR,,,,,,,,,,,,METAR,60.0
KMSP 311553Z 00000KT 10SM FEW250 09/02 A2988 RMK AO2 SLP122 T00940022,KMSP,2022-10-31T15:53:00Z,44.88,-93.23,9.4,2.2,0,0,,10.0,29.878937,1012.2,,,TRUE,,,,,,,FEW,25000,,,,,,,VFR,,,,,,,,,,,,METAR,255.0
KMSO 311553Z 10SM BKN045 OVC055 13/04 A2985 RMK AO2 SLP106 T01280039,KMSO,2022-10-31T15:53:00Z,46.92,-114.1,12.8,3.9,,,,10.0,29.84941,1010.6,,,TRUE,,,,,,,BKN,4500,OVC,5500,,,,,VFR,,,,,,,,,,,,METAR,974.0
KMSN 311553Z 00000KT 10SM BKN250 13/07 A2985 RMK AO2 SLP112 T01330067,KMSN,2022-10-31T15:53:00Z,43.13,-89.35,13.3,6.7,0,0,,10.0,29.84941,1011.2,,,TRUE,,,,,,,BKN,25000,,,,,,,VFR,,,,,,,,,,,,METAR,262.0
KMSL 311553Z AUTO 23006KT 10SM FEW013 BKN019 OVC035 17/14 A3001 RMK AO2 SLP158 T01720144,KMSL,2022-10-31T15:53:00Z,34.75,-87.6,17.2,14.4,230,6,,10.0,30.008858,1015.8,,TRUE,TRUE,,,,,,,FEW,1300,BKN,1900,OVC,3500,,,MVFR,,,,,,,,,,,,METAR,170.0
KMRB 311553Z 00000KT 8SM FEW004 SCT040 BKN100 11/09 A3004 RMK AO2 RAE1458B16E47 SLP175 P0001 T01110094,KMRB,2022-10-31T15:53:00Z,39.4,-77.98,11.1,9.4,0,0,,8.0,30.041338,1017.5,,,TRUE,,,,,,,FEW,400,SCT,4000,BKN,10000,,,VFR,,,,,,0.01,,,,,,METAR,165.0
KMPO 311553Z AUTO 20009KT 10SM SCT015 SCT020 OVC110 11/08 A3005 RMK AO2 SLP186 T01110083,KMPO,2022-10-31T15:53:00Z,41.13,-75.38,11.1,8.3,200,9,,10.0,30.050198,1018.6,,TRUE,TRUE,,,,,,,SCT,1500,SCT,2000,OVC,11000,,,VFR,,,,,,,,,,,,METAR,576.0
KMOD 311553Z 00000KT 10SM CLR 10/06 A2997 RMK AO2 SLP149 T01000056,KMOD,2022-10-31T15:53:00Z,37.62,-120.95,10.0,5.6,0,0,,10.0,29.970472,1014.9,,,TRUE,,,,,,,CLR,,,,,,,,VFR,,,,,,,,,,,,METAR,25.0
KMMK 311553Z AUTO 19007KT 10SM CLR 18/09 A3006 RMK AO2 SLP179 T01780089,KMMK,2022-10-31T15:53:00Z,41.52,-72.83,17.8,8.9,190,7,,10.0,30.059055,1017.9,,TRUE,TRUE,,,,,,,CLR,,,,,,,,VFR,,,,,,,,,,,,METAR,30.0
KMLU 311553Z 26005KT 10SM CLR 22/13 A3006 RMK AO2 SLP178 T02170133,KMLU,2022-10-31T15:53:00Z,32.52,-92.03,21.7,13.3,260,5,,10.0,30.059055,1017.8,,,TRUE,,,,,,,CLR,,,,,,,,VFR,,,,,,,,,,,,METAR,22.0
KMLT 311553Z AUTO 00000KT 10SM CLR 12/05 A3001 RMK AO2 SLP168 T01220050,KMLT,2022-10-31T15:53:00Z,45.65,-68.7,12.2,5.0,0,0,,10.0,30.008858,1016.8,,TRUE,TRUE,,,,,,,CLR,,,,,,,,VFR,,,,,,,,,,,,METAR,121.0
KMLS 311553Z AUTO 16006KT 10SM CLR 07/M01 A2980 RMK AO2 SLP098 T00671006,KMLS,2022-10-31T15:53:00Z,46.43,-105.88,6.7,-0.6,160,6,,10.0,29.799213,1009.8,,TRUE,TRUE,,,,,,,CLR,,,,,,,,VFR,,,,,,,,,,,,METAR,800.0
KMLP 311553Z AUTO VRB06G18KT 1/2SM -RA FG VV002 02/02 A2982 RMK AO2 SLP057 P0006 T00220022,KMLP,2022-10-31T15:53:00Z,47.45,-115.67,2.2,2.2,0,6,18,0.5,29.819881,1005.7,,TRUE,TRUE,,,,,,-RA FG,OVX,0,,,,,,,LIFR,,,,,,0.06,,,,,200,METAR,1837.0
KMLC 311553Z AUTO 00000KT 9SM FEW110 16/09 A3005 RMK AO2 SLP173 T01560089,KMLC,2022-10-31T15:53:00Z,34.88,-95.78,15.6,8.9,0,0,,9.0,30.050198,1017.3,,TRUE,TRUE,,,,,,,FEW,11000,,,,,,,VFR,,,,,,,,,,,,METAR,231.0
KMLB 311553Z 14005KT 10SM CLR 28/22 A3001 RMK AO2 SLP160 T02780217,KMLB,2022-10-31T15:53:00Z,28.1,-80.65,27.8,21.7,140,5,,10.0,30.008858,1016.0,,,TRUE,,,,,,,CLR,,,,,,,,VFR,,,,,,,,,,,,METAR,7.0
KMKO 311553Z AUTO 06003KT 10SM CLR 17/08 A3005 RMK AO2 SLP172 T01720083,KMKO,2022-10-31T15:53:00Z,35.65,-95.37,17.2,8.3,60,3,,10.0,30.050198,1017.2,,TRUE,TRUE,,,,,,,CLR,,,,,,,,VFR,,,,,,,,,,,,METAR,184.0
KMKL 311553Z 26009KT 10SM OVC017 17/14 A2998 RMK AO2 SLP148 T01720139,KMKL,2022-10-31T15:53:00Z,35.6,-88.92,17.2,13.9,260,9,,10.0,29.97933,1014.8,,,TRUE,,,,,,,OVC,1700,,,,,,,MVFR,,,,,,,,,,,,METAR,130.0
KMIW 311553Z AUTO 31003KT 10SM CLR 12/06 A2991 RMK AO2 SLP131 T01170056,KMIW,2022-10-31T15:53:00Z,42.12,-92.92,11.7,5.6,310,3,,10.0,29.911417,1013.1,,TRUE,TRUE,,,,,,,CLR,,,,,,,,VFR,,,,,,,,,,,,METAR,296.0
KMIE 311553Z 22010G18KT 10SM BKN016 BKN025 OVC060 17/13 A2986 RMK AO2 SLP104 T01720133,KMIE,2022-10-31T15:53:00Z,40.23,-85.4,17.2,13.3,220,10,18,10.0,29.861221,1010.4,,,TRUE,,,,,,,BKN,1600,BKN,2500,OVC,6000,,,MVFR,,,,,,,,,,,,METAR,286.0
KMIC 311553Z 00000KT 10SM CLR 12/01 A2987 RMK AO2 SLP117 T01170011,KMIC,2022-10-31T15:53:00Z,45.07,-93.35,11.7,1.1,0,0,,10.0,29.870079,1011.7,,,TRUE,,,,,,,CLR,,,,,,,,VFR,,,,,,,,,,,,METAR,263.0
KMIA 311553Z 11007KT 10SM SCT027 BKN085 BKN200 31/23 A2998 RMK AO2 SLP153 T03060233,KMIA,2022-10-31T15:53:00Z,25.8,-80.32,30.6,23.3,110,7,,10.0,29.97933,1015.3,,,TRUE,,,,,,,SCT,2700,BKN,8500,BKN,20000,,,VFR,,,,,,,,,,,,METAR,1.0
KMHT 311553Z 20006KT 10SM FEW150 BKN250 16/07 A3002 RMK AO2 SLP179 T01610072,KMHT,2022-10-31T15:53:00Z,42.93,-71.43,16.1,7.2,200,6,,10.0,30.02067,1017.9,,,TRUE,,,,,,,FEW,15000,BKN,25000,,,,,VFR,,,,,,,,,,,,METAR,68.0
KMHE 311553Z AUTO 19006KT 10SM CLR 09/01 A2987 RMK AO2 SLP121 T00940006,KMHE,2022-10-31T15:53:00Z,43.77,-98.03,9.4,0.6,190,6,,10.0,29.870079,1012.1,,TRUE,TRUE,,,,,,,CLR,,,,,,,,VFR,,,,,,,,,,,,METAR,397.0
KMGY 311553Z AUTO 22011KT 10SM BKN012 BKN018 OVC024 17/14 A2990 RMK AO2 SLP121 T01670144,KMGY,2022-10-31T15:53:00Z,39.6,-84.23,16.7,14.4,220,11,,10.0,29.899607,1012.1,,TRUE,TRUE,,,,,,,BKN,1200,BKN,1800,OVC,2400,,,MVFR,,,,,,,,,,,,METAR,290.0
KMGW 311553Z VRB05KT 10SM OVC013 17/15 A2999 RMK AO2 RAB01E42 SLP151 P0002 T01670150,KMGW,2022-10-31T15:53:00Z,39.65,-79.92,16.7,15.0,0,5,,10.0,29.991142,1015.1,,,TRUE,,,,,,,OVC,1300,,,,,,,MVFR,,,,,,0.02,,,,,,METAR,375.0
KMGM 311553Z 22005KT 10SM CLR 21/14 A3005 RMK AO2 SLP173 T02110139 $,KMGM,2022-10-31T15:53:00Z,32.3,-86.4,21.1,13.9,220,5,,10.0,30.050198,1017.3,,,TRUE,TRUE,,,,,,CLR,,,,,,,,VFR,,,,,,,,,,,,METAR,64.0
KMFR 311553Z AUTO 01003KT 9SM CLR 05/03 A3004 RMK AO2 SLP174 T00500033,KMFR,2022-10-31T15:53:00Z,42.38,-122.87,5.0,3.3,10,3,,9.0,30.041338,1017.4,,TRUE,TRUE,,,,,,,CLR,,,,,,,,VFR,,,,,,,,,,,,METAR,397.0
KMDW 311553Z 03004KT 3/4SM R31C/4000VP6000FT BR OVC002 14/13 A2983 RMK AO2 SLP099 T01440128,KMDW,2022-10-31T15:53:00Z,41.78,-87.75,14.4,12.8,30,4,,0.75,29.828741,1009.9,,,TRUE,,,,,,BR,OVC,200,,,,,,,LIFR,,,,,,,,,,,,METAR,186.0
KMCW 311553Z AUTO 29003KT 10SM CLR 11/03 A2991 RMK AO2 SLP130 T01110033,KMCW,2022-10-31T15:53:00Z,43.15,-93.33,11.1,3.3,290,3,,10.0,29.911417,1013.0,,TRUE,TRUE,,,,,,,CLR,,,,,,,,VFR,,,,,,,,,,,,METAR,363.0
KMCO 311553Z 00000KT 10SM SCT024 28/21 A3002 RMK AO2 SLP163 T02780206,KMCO,2022-10-31T15:53:00Z,28.42,-81.33,27.8,20.6,0,0,,10.0,30.02067,1016.3,,,TRUE,,,,,,,SCT,2400,,,,,,,VFR,,,,,,,,,,,,METAR,27.0
KMCN 311553Z 21005KT 10SM BKN008 OVC011 21/20 A3002 RMK AO2 SLP163 T02110200,KMCN,2022-10-31T15:53:00Z,32.68,-83.65,21.1,20.0,210,5,,10.0,30.02067,1016.3,,,TRUE,,,,,,,BKN,800,OVC,1100,,,,,IFR,,,,,,,,,,,,METAR,104.0
KMCK 311553Z AUTO 27007KT 10SM CLR 09/M06 A2998 RMK AO2 SLP160 T00891056,KMCK,2022-10-31T15:53:00Z,40.2,-100.58,8.9,-5.6,270,7,,10.0,29.97933,1016.0,,TRUE,TRUE,,,,,,,CLR,,,,,,,,VFR,,,,,,,,,,,,METAR,780.0
KMCI 311553Z 31008KT 10SM FEW110 SCT160 SCT200 16/04 A2996 RMK AO2 SLP143 T01610044,KMCI,2022-10-31T15:53:00Z,39.3,-94.73,16.1,4.4,310,8,,10.0,29.958662,1014.3,,,TRUE,,,,,,,FEW,11000,SCT,16000,SCT,20000,,,VFR,,,,,,,,,,,,METAR,308.0
KMCE 311553Z AUTO 00000KT 10SM CLR 14/03 A2998 RMK AO2 SLP151 T01390028,KMCE,2022-10-31T15:53:00Z,37.28,-120.5,13.9,2.8,0,0,,10.0,29.97933,1015.1,,TRUE,TRUE,,,,,,,CLR,,,,,,,,VFR,,,,,,,,,,,,METAR,49.0
KMCB 311553Z AUTO 10SM CLR 21/11 A3007 RMK AO2 SLP178 T02110111,KMCB,2022-10-31T15:53:00Z,31.18,-90.47,21.1,11.1,,,,10.0,30.070866,1017.8,,TRUE,TRUE,,,,,,,CLR,,,,,,,,VFR,,,,,,,,,,,,METAR,124.0
KMBS 311553Z 05003KT 6SM BR OVC030 13/11 A2986 RMK AO2 SLP112 T01280106,KMBS,2022-10-31T15:53:00Z,43.53,-84.08,12.8,10.6,50,3,,6.0,29.861221,1011.2,,,TRUE,,,,,,BR,OVC,3000,,,,,,,MVFR,,,,,,,,,,,,METAR,201.0
KMAI 311553Z AUTO 30003KT 10SM OVC033 21/17 A3003 RMK AO1 SLP169 T02060172,KMAI,2022-10-31T15:53:00Z,30.83,-85.18,20.6,17.2,300,3,,10.0,30.029528,1016.9,,TRUE,TRUE,,,,,,,OVC,3300,,,,,,,VFR,,,,,,,,,,,,METAR,33.0
KMAF 311553Z 15006KT 10SM CLR 16/08 A3008 RMK AO2 SLP161 T01560083,KMAF,2022-10-31T15:53:00Z,31.95,-102.2,15.6,8.3,150,6,,10.0,30.079725,1016.1,,,TRUE,,,,,,,CLR,,,,,,,,VFR,,,,,,,,,,,,METAR,874.0
KMAE 311553Z AUTO 09004KT 10SM CLR 13/03 A2999 RMK AO2 SLP153 T01330033,KMAE,2022-10-31T15:53:00Z,36.98,-120.12,13.3,3.3,90,4,,10.0,29.991142,1015.3,,TRUE,TRUE,,,,,,,CLR,,,,,,,,VFR,,,,,,,,,,,,METAR,77.0
KLXV 311553Z AUTO 01005KT 10SM CLR 01/M11 A3022 RMK AO2 SLP183 T00111106,KLXV,2022-10-31T15:53:00Z,39.23,-106.32,1.1,-10.6,10,5,,10.0,30.221457,1018.3,,TRUE,TRUE,,,,,,,CLR,,,,,,,,VFR,,,,,,,,,,,,METAR,3027.0
KLXT 311553Z AUTO 30005KT 10SM CLR 16/06 A2996 RMK AO2 SLP144 T01610061,KLXT,2022-10-31T15:53:00Z,38.97,-94.37,16.1,6.1,300,5,,10.0,29.958662,1014.4,,TRUE,TRUE,,,,,,,CLR,,,,,,,,VFR,,,,,,,,,,,,METAR,306.0
KLWV 311553Z AUTO 23009KT 10SM OVC023 15/13 A2989 RMK AO2 SLP120 T01500133 $,KLWV,2022-10-31T15:53:00Z,38.77,-87.6,15.0,13.3,230,9,,10.0,29.890747,1012.0,,TRUE,TRUE,TRUE,,,,,,OVC,2300,,,,,,,MVFR,,,,,,,,,,,,METAR,128.0
KLWD 311553Z AUTO 36006KT 10SM CLR 14/05 A2994 RMK AO2 SLP138 T01440050,KLWD,2022-10-31T15:53:00Z,40.63,-93.9,14.4,5.0,360,6,,10.0,29.940945,1013.8,,TRUE,TRUE,,,,,,,CLR,,,,,,,,VFR,,,,,,,,,,,,METAR,345.0
KLVS 311553Z AUTO 24005KT 10SM CLR 10/M03 A3015 RMK AO2 SLP159 T01001028,KLVS,2022-10-31T15:53:00Z,35.65,-105.13,10.0,-2.8,240,5,,10.0,30.15059,1015.9,,TRUE,TRUE,,,,,,,CLR,,,,,,,,VFR,,,,,,,,,,,,METAR,2095.0
KLVM 311553Z AUTO 21034G44KT 10SM CLR 11/M02 A2984 RMK AO2 PK WND 21047/1524 SLP090 T01111017,KLVM,2022-10-31T15:53:00Z,45.7,-110.43,11.1,-1.7,210,34,44,10.0,29.840551,1009.0,,TRUE,TRUE,,,,,,,CLR,,,,,,,,VFR,,,,,,,,,,,,METAR,1418.0
KLVK 311553Z 10003KT 10SM CLR 11/07 A2998 RMK AO2 SLP151 T01060067,KLVK,2022-10-31T15:53:00Z,37.7,-121.82,10.6,6.7,100,3,,10.0,29.97933,1015.1,,,TRUE,,,,,,,CLR,,,,,,,,VFR,,,,,,,,,,,,METAR,120.0
KLVJ 311553Z AUTO 36003KT 10SM CLR 23/13 A3008 RMK AO2 SLP186 T02280133,KLVJ,2022-10-31T15:53:00Z,29.52,-95.25,22.8,13.3,360,3,,10.0,30.079725,1018.6,,TRUE,TRUE,,,,,,,CLR,,,,,,,,VFR,,,,,,,,,,,,METAR,11.0
KLUK 311553Z 20010KT 10SM BKN015 OVC070 18/15 A2992 RMK AO2 SLP129 T01780150,KLUK,2022-10-31T15:53:00Z,39.1,-84.42,17.8,15.0,200,10,,10.0,29.920275,1012.9,,,TRUE,,,,,,,BKN,1500,OVC,7000,,,,,MVFR,,,,,,,,,,,,METAR,144.0
KLSE 311553Z 16004KT 7SM CLR 09/06 A2988 RMK AO2 SLP121 T00940056,KLSE,2022-10-31T15:53:00Z,43.88,-91.25,9.4,5.6,160,4,,7.0,29.878937,1012.1,,,TRUE,,,,,,,CLR,,,,,,,,VFR,,,,,,,,,,,,METAR,198.0
KLPR 311553Z AUTO 21006KT 6SM BR OVC011 17/15 A2989 RMK AO2 SLP119 T01670150,KLPR,2022-10-31T15:53:00Z,41.35,-82.18,16.7,15.0,210,6,,6.0,29.890747,1011.9,,TRUE,TRUE,,,,,,BR,OVC,1100,,,,,,,MVFR,,,,,,,,,,,,METAR,241.0
KLOZ 311553Z AUTO 21007KT 10SM OVC040 17/15 A2998 RMK AO2 SLP147 T01670150,KLOZ,2022-10-31T15:53:00Z,37.08,-84.07,16.7,15.0,210,7,,10.0,29.97933,1014.7,,TRUE,TRUE,,,,,,,OVC,4000,,,,,,,VFR,,,,,,,,,,,,METAR,361.0
KLOU 311553Z 22009KT 10SM FEW017 SCT025 OVC035 17/14 A2992 RMK AO2 SLP128 T01720139,KLOU,2022-10-31T15:53:00Z,38.22,-85.67,17.2,13.9,220,9,,10.0,29.920275,1012.8,,,TRUE,,,,,,,FEW,1700,SCT,2500,OVC,3500,,,VFR,,,,,,,,,,,,METAR,165.0
KLOL 311553Z AUTO 13004KT 10SM CLR 01/M11 A3010 RMK AO2 SLP205 T00111106,KLOL,2022-10-31T15:53:00Z,40.07,-118.57,1.1,-10.6,130,4,,10.0,30.100393,1020.5,,TRUE,TRUE,,,,,,,CLR,,,,,,,,VFR,,,,,,,,,,,,METAR,1191.0
KLNS 311553Z 19005KT 10SM BKN011 BKN100 15/12 A3007 RMK AO2 SLP182 T01500117,KLNS,2022-10-31T15:53:00Z,40.12,-76.3,15.0,11.7,190,5,,10.0,30.070866,1018.2,,,TRUE,,,,,,,BKN,1100,BKN,10000,,,,,MVFR,,,,,,,,,,,,METAR,122.0
KLND 311553Z AUTO 10004KT 10SM CLR 06/M07 A2999 RMK AO2 SLP146 T00561067,KLND,2022-10-31T15:53:00Z,42.82,-108.73,5.6,-6.7,100,4,,10.0,29.991142,1014.6,,TRUE,TRUE,,,,,,,CLR,,,,,,,,VFR,,,,,,,,,,,,METAR,1700.0
KLMT 311553Z 00000KT 10SM CLR 02/M02 A3005 RMK AO2 SLP183 T00221022,KLMT,2022-10-31T15:53:00Z,42.15,-121.72,2.2,-2.2,0,0,,10.0,30.050198,1018.3,,,TRUE,,,,,,,CLR,,,,,,,,VFR,,,,,,,,,,,,METAR,1246.0
KLLQ 311553Z AUTO 25006KT 10SM SCT047 18/14 A3004 RMK AO2 SLP171 T01780144,KLLQ,2022-10-31T15:53:00Z,33.63,-91.75,17.8,14.4,250,6,,10.0,30.041338,1017.1,,TRUE,TRUE,,,,,,,SCT,4700,,,,,,,VFR,,,,,,,,,,,,METAR,86.0
KLKV 311553Z AUTO 00000KT 10SM CLR M01/M03 A3009 RMK AO2 SLP217 T10061028 FZRANO,KLKV,2022-10-31T15:53:00Z,42.17,-120.4,-0.6,-2.8,0,0,,10.0,30.088583,1021.7,,TRUE,TRUE,,,,TRUE,,,CLR,,,,,,,,VFR,,,,,,,,,,,,METAR,1440.0
KLIT 311553Z 34007KT 10SM FEW030 BKN250 20/12 A3002 RMK AO2 SLP166 T02000117,KLIT,2022-10-31T15:53:00Z,34.73,-92.23,20.0,11.7,340,7,,10.0,30.02067,1016.6,,,TRUE,,,,,,,FEW,3000,BKN,25000,,,,,VFR,,,,,,,,,,,,METAR,77.0
KLHX 311553Z AUTO 30005KT 10SM CLR 09/M04 A3005 RMK AO2 SLP153 T00941039,KLHX,2022-10-31T15:53:00Z,38.05,-103.52,9.4,-3.9,300,5,,10.0,30.050198,1015.3,,TRUE,TRUE,,,,,,,CLR,,,,,,,,VFR,,,,,,,,,,,,METAR,1289.0
KLHQ 311553Z AUTO 21011G17KT 10SM FEW015 BKN029 OVC043 19/15 A2992 RMK AO2 SLP130 T01890150,KLHQ,2022-10-31T15:53:00Z,39.75,-82.67,18.9,15.0,210,11,17,10.0,29.920275,1013.0,,TRUE,TRUE,,,,,,,FEW,1500,BKN,2900,OVC,4300,,,MVFR,,,,,,,,,,,,METAR,259.0
KLGB 311553Z 00000KT 10SM CLR 17/09 A2993 RMK AO2 SLP136 T01670089,KLGB,2022-10-31T15:53:00Z,33.82,-118.15,16.7,8.9,0,0,,10.0,29.929134,1013.6,,,TRUE,,,,,,,CLR,,,,,,,,VFR,,,,,,,,,,,,METAR,10.0
KLFT 311553Z 00000KT 10SM CLR 24/14 A3007 RMK AO2 SLP181 T02390139,KLFT,2022-10-31T15:53:00Z,30.2,-91.97,23.9,13.9,0,0,,10.0,30.070866,1018.1,,,TRUE,,,,,,,CLR,,,,,,,,VFR,,,,,,,,,,,,METAR,9.0
KLFK 311553Z AUTO 32005KT 10SM CLR 19/13 A3007 RMK AO2 SLP180 T01890133,KLFK,2022-10-31T15:53:00Z,31.23,-94.75,18.9,13.3,320,5,,10.0,30.070866,1018.0,,TRUE,TRUE,,,,,,,CLR,,,,,,,,VFR,,,,,,,,,,,,METAR,87.0
KLEE 311553Z 17005KT 10SM CLR 28/21 A3004 RMK AO2 SLP171 T02780211,KLEE,2022-10-31T15:53:00Z,28.82,-81.82,27.8,21.1,170,5,,10.0,30.041338,1017.1,,,TRUE,,,,,,,CLR,,,,,,,,VFR,,,,,,,,,,,,METAR,21.0
KLEB 311553Z 33003KT 10SM CLR 13/03 A3001 RMK AO2 SLP165 T01330028,KLEB,2022-10-31T15:53:00Z,43.63,-72.3,13.3,2.8,330,3,,10.0,30.008858,1016.5,,,TRUE,,,,,,,CLR,,,,,,,,VFR,,,,,,,,,,,,METAR,169.0
KLCH 311553Z VRB03KT 10SM CLR 22/14 A3007 RMK AO2 SLP190 T02170144,KLCH,2022-10-31T15:53:00Z,30.13,-93.22,21.7,14.4,0,3,,10.0,30.070866,1019.0,,,TRUE,,,,,,,CLR,,,,,,,,VFR,,,,,,,,,,,,METAR,2.0
KLBX 311553Z AUTO 08004KT 10SM CLR 24/13 A3007 RMK AO2 SLP181 T02390128,KLBX,2022-10-31T15:53:00Z,29.12,-95.47,23.9,12.8,80,4,,10.0,30.070866,1018.1,,TRUE,TRUE,,,,,,,CLR,,,,,,,,VFR,,,,,,,,,,,,METAR,4.0
KLBF 311553Z AUTO 27009KT 10SM CLR 10/M04 A2996 RMK AO2 SLP153 T01001039,KLBF,2022-10-31T15:53:00Z,41.12,-100.67,10.0,-3.9,270,9,,10.0,29.958662,1015.3,,TRUE,TRUE,,,,,,,CLR,,,,,,,,VFR,,,,,,,,,,,,METAR,843.0
KLBB 311553Z 00000KT 10SM FEW220 SCT250 16/09 A3010 RMK AO2 SLP165 T01560089,KLBB,2022-10-31T15:53:00Z,33.67,-101.82,15.6,8.9,0,0,,10.0,30.100393,1016.5,,,TRUE,,,,,,,FEW,22000,SCT,25000,,,,,VFR,,,,,,,,,,,,METAR,996.0
KLAX 311553Z 11003KT 10SM FEW007 SCT140 BKN250 17/11 A2994 RMK AO2 SLP136 T01720111 VISNO RWY24 $,KLAX,2022-10-31T15:53:00Z,33.93,-118.38,17.2,11.1,110,3,,10.0,29.940945,1013.6,,,TRUE,TRUE,,,,,,FEW,700,SCT,14000,BKN,25000,,,VFR,,,,,,,,,,,,METAR,30.0
KLAW 311553Z 00000KT 10SM CLR 16/08 A3007 RMK AO2 SLP180 T01610083,KLAW,2022-10-31T15:53:00Z,34.55,-98.42,16.1,8.3,0,0,,10.0,30.070866,1018.0,,,TRUE,,,,,,,CLR,,,,,,,,VFR,,,,,,,,,,,,METAR,328.0
KLAR 311553Z AUTO 24015KT 10SM CLR 07/M09 A3007 RMK AO2 SLP156 T00721089,KLAR,2022-10-31T15:53:00Z,41.32,-105.67,7.2,-8.9,240,15,,10.0,30.070866,1015.6,,TRUE,TRUE,,,,,,,CLR,,,,,,,,VFR,,,,,,,,,,,,METAR,2217.0
KLAN 311553Z 00000KT 3/4SM R28L/4500VP6000FT BR OVC002 13/12 A2984 RMK AO2 SLP108 T01280117,KLAN,2022-10-31T15:53:00Z,42.78,-84.58,12.8,11.7,0,0,,0.75,29.840551,1010.8,,,TRUE,,,,,,BR,OVC,200,,,,,,,LIFR,,,,,,,,,,,,METAR,261.0
KLAA 311553Z AUTO 27008KT 10SM CLR 08/M05 A3002 RMK AO2 SLP164 T00831050,KLAA,2022-10-31T15:53:00Z,38.07,-102.68,8.3,-5.0,270,8,,10.0,30.02067,1016.4,,TRUE,TRUE,,,,,,,CLR,,,,,,,,VFR,,,,,,,,,,,,METAR,1129.0
KJLN 311553Z 23009KT 10SM SCT110 16/09 A3000 RMK AO2 SLP155 T01610089,KJLN,2022-10-31T15:53:00Z,37.15,-94.5,16.1,8.9,230,9,,10.0,30.0,1015.5,,,TRUE,,,,,,,SCT,11000,,,,,,,VFR,,,,,,,,,,,,METAR,297.0
KJKL 311553Z AUTO VRB03KT 10SM FEW007 BKN011 OVC016 17/15 A2998 RMK AO2 SLP145 T01720150,KJKL,2022-10-31T15:53:00Z,37.6,-83.32,17.2,15.0,0,3,,10.0,29.97933,1014.5,,TRUE,TRUE,,,,,,,FEW,700,BKN,1100,OVC,1600,,,MVFR,,,,,,,,,,,,METAR,414.0
KJER 311553Z AUTO 12004KT 10SM CLR 08/M02 A3009 RMK AO2 SLP190 T00831017,KJER,2022-10-31T15:53:00Z,42.72,-114.45,8.3,-1.7,120,4,,10.0,30.088583,1019.0,,TRUE,TRUE,,,,,,,CLR,,,,,,,,VFR,,,,,,,,,,,,METAR,1226.0
KJEF 311553Z 29005KT 10SM CLR 16/12 A2993 RMK AO2 SLP126 T01610117 $,KJEF,2022-10-31T15:53:00Z,38.6,-92.15,16.1,11.7,290,5,,10.0,29.929134,1012.6,,,TRUE,TRUE,,,,,,CLR,,,,,,,,VFR,,,,,,,,,,,,METAR,167.0
KJBR 311553Z AUTO 27009KT 10SM BKN014 17/13 A2997 RMK AO2 SLP148 T01670128 $,KJBR,2022-10-31T15:53:00Z,35.83,-90.65,16.7,12.8,270,9,,10.0,29.970472,1014.8,,TRUE,TRUE,TRUE,,,,,,BKN,1400,,,,,,,MVFR,,,,,,,,,,,,METAR,79.0
KIXD 311553Z 28009KT 10SM CLR 16/05 A2998 RMK AO2 SLP147 T01610050,KIXD,2022-10-31T15:53:00Z,38.82,-94.88,16.1,5.0,280,9,,10.0,29.97933,1014.7,,,TRUE,,,,,,,CLR,,,,,,,,VFR,,,,,,,,,,,,METAR,322.0
KIWI 311553Z AUTO 21010KT 10SM CLR 16/08 A3003 RMK AO2 SLP169 T01560078,KIWI,2022-10-31T15:53:00Z,43.97,-69.72,15.6,7.8,210,10,,10.0,30.029528,1016.9,,TRUE,TRUE,,,,,,,CLR,,,,,,,,VFR,,,,,,,,,,,,METAR,16.0
KITR 311553Z AUTO 28007KT 5SM HZ CLR 13/M04 A3003 RMK AO2 SLP157 T01281039,KITR,2022-10-31T15:53:00Z,39.23,-102.28,12.8,-3.9,280,7,,5.0,30.029528,1015.7,,TRUE,TRUE,,,,,,HZ,CLR,,,,,,,,MVFR,,,,,,,,,,,,METAR,1285.0
KIPL 311553Z AUTO 22003KT 10SM CLR 19/M02 A2992 RMK AO2 SLP132 T01891022,KIPL,2022-10-31T15:53:00Z,32.83,-115.58,18.9,-2.2,220,3,,10.0,29.920275,1013.2,,TRUE,TRUE,,,,,,,CLR,,,,,,,,VFR,,,,,,,,,,,,METAR,-16.0
KINK 311553Z AUTO 13009KT 10SM CLR 16/07 A3006 RMK AO2 SLP154 T01610072,KINK,2022-10-31T15:53:00Z,31.78,-103.2,16.1,7.2,130,9,,10.0,30.059055,1015.4,,TRUE,TRUE,,,,,,,CLR,,,,,,,,VFR,,,,,,,,,,,,METAR,857.0
KIML 311553Z AUTO 29009KT 10SM CLR 13/M05 A2998 RMK AO2 SLP155 T01281050,KIML,2022-10-31T15:53:00Z,40.52,-101.62,12.8,-5.0,290,9,,10.0,29.97933,1015.5,,TRUE,TRUE,,,,,,,CLR,,,,,,,,VFR,,,,,,,,,,,,METAR,997.0
KILM 311553Z 09007KT 10SM FEW021 SCT031 24/18 A3009 RMK AO2 SLP187 T02440183,KILM,2022-10-31T15:53:00Z,34.27,-77.9,24.4,18.3,90,7,,10.0,30.088583,1018.7,,,TRUE,,,,,,,FEW,2100,SCT,3100,,,,,VFR,,,,,,,,,,,,METAR,9.0
KIDA 311553Z 00000KT 10SM CLR 06/M01 A3013 RMK AO2 SLP209 T00561011,KIDA,2022-10-31T15:53:00Z,43.52,-112.07,5.6,-1.1,0,0,,10.0,30.129921,1020.9,,,TRUE,,,,,,,CLR,,,,,,,,VFR,,,,,,,,,,,,METAR,1444.0
KICT 311553Z 31004KT 10SM FEW200 14/02 A3003 RMK AO2 SLP164 T01440022,KICT,2022-10-31T15:53:00Z,37.65,-97.43,14.4,2.2,310,4,,10.0,30.029528,1016.4,,,TRUE,,,,,,,FEW,20000,,,,,,,VFR,,,,,,,,,,,,METAR,428.0
KICR 311553Z AUTO 23006KT CLR 14/M04 A2987 RMK AO2 SLP117 T01391039 $,KICR,2022-10-31T15:53:00Z,43.38,-99.85,13.9,-3.9,230,6,,,29.870079,1011.7,,TRUE,TRUE,TRUE,,,,,,CLR,,,,,,,,,,,,,,,,,,,,METAR,618.0
KIAH 311553Z 29003KT 10SM BKN250 22/14 A3007 RMK AO2 SLP183 T02170139 $,KIAH,2022-10-31T15:53:00Z,30.0,-95.37,21.7,13.9,290,3,,10.0,30.070866,1018.3,,,TRUE,TRUE,,,,,,BKN,25000,,,,,,,VFR,,,,,,,,,,,,METAR,27.0
KIAG 311553Z 12003KT 8SM BKN011 BKN045 OVC060 12/11 A2992 RMK AO2 RAB09E42 SLP137 P0002 T01220111,KIAG,2022-10-31T15:53:00Z,43.12,-78.93,12.2,11.1,120,3,,8.0,29.920275,1013.7,,,TRUE,,,,,,,BKN,1100,BKN,4500,OVC,6000,,,MVFR,,,,,,0.02,,,,,,METAR,179.0
KHZY 311553Z AUTO 17007KT 5SM -RA BR OVC008 14/12 A2992 RMK AO2 RAB08E29B46 SLP130 P0000 T01440122,KHZY,2022-10-31T15:53:00Z,41.78,-80.7,14.4,12.2,170,7,,5.0,29.920275,1013.0,,TRUE,TRUE,,,,,,-RA BR,OVC,800,,,,,,,IFR,,,,,,0.005,,,,,,METAR,279.0
KHYR 311553Z AUTO 00000KT 10SM CLR 10/05 A2986 RMK AO2 SLP120 T01000050,KHYR,2022-10-31T15:53:00Z,46.02,-91.45,10.0,5.0,0,0,,10.0,29.861221,1012.0,,TRUE,TRUE,,,,,,,CLR,,,,,,,,VFR,,,,,,,,,,,,METAR,369.0
KHWO 311553Z 13010KT 10SM CLR 30/22 A2999 RMK AO2 SLP155 T03000222 $,KHWO,2022-10-31T15:53:00Z,26.0,-80.23,30.0,22.2,130,10,,10.0,29.991142,1015.5,,,TRUE,TRUE,,,,,,CLR,,,,,,,,VFR,,,,,,,,,,,,METAR,2.0
KHVR 311553Z AUTO 22016KT 10SM OVC095 12/02 A2966 RMK AO2 PK WND 22026/1530 SLP045 T01220022 $,KHVR,2022-10-31T15:53:00Z,48.55,-109.77,12.2,2.2,220,16,,10.0,29.660433,1004.5,,TRUE,TRUE,TRUE,,,,,,OVC,9500,,,,,,,VFR,,,,,,,,,,,,METAR,789.0
KHVN 311553Z 16007KT 10SM CLR 17/13 A3008 RMK AO2 SLP184 T01670128,KHVN,2022-10-31T15:53:00Z,41.27,-72.88,16.7,12.8,160,7,,10.0,30.079725,1018.4,,,TRUE,,,,,,,CLR,,,,,,,,VFR,,,,,,,,,,,,METAR,4.0
KHUL 311553Z AUTO 26004KT 10SM CLR 16/01 A2998 RMK AO2 SLP156 T01560011,KHUL,2022-10-31T15:53:00Z,46.12,-67.8,15.6,1.1,260,4,,10.0,29.97933,1015.6,,TRUE,TRUE,,,,,,,CLR,,,,,,,,VFR,,,,,,,,,,,,METAR,148.0
KHUF 311553Z 21007KT 10SM BKN014 OVC020 17/14 A2986 RMK AO2 SLP109 T01670144,KHUF,2022-10-31T15:53:00Z,39.45,-87.32,16.7,14.4,210,7,,10.0,29.861221,1010.9,,,TRUE,,,,,,,BKN,1400,OVC,2000,,,,,MVFR,,,,,,,,,,,,METAR,174.0
KHTL 311553Z AUTO 24003KT 10SM CLR 14/06 A2985 RMK AO2 SLP113 T01440061,KHTL,2022-10-31T15:53:00Z,44.35,-84.67,14.4,6.1,240,3,,10.0,29.84941,1011.3,,TRUE,TRUE,,,,,,,CLR,,,,,,,,VFR,,,,,,,,,,,,METAR,350.0
KHSV 311553Z 18004KT 9SM FEW007 BKN055 BKN250 17/15 A3001 RMK AO2 SLP158 T01670150,KHSV,2022-10-31T15:53:00Z,34.65,-86.78,16.7,15.0,180,4,,9.0,30.008858,1015.8,,,TRUE,,,,,,,FEW,700,BKN,5500,BKN,25000,,,VFR,,,,,,,,,,,,METAR,190.0
KHRO 311553Z AUTO 26007KT 10SM CLR 16/11 A2999 RMK AO2 SLP151 T01610111,KHRO,2022-10-31T15:53:00Z,36.27,-93.15,16.1,11.1,260,7,,10.0,29.991142,1015.1,,TRUE,TRUE,,,,,,,CLR,,,,,,,,VFR,,,,,,,,,,,,METAR,417.0
KHRI 311553Z AUTO 20003KT 10SM BKN080 BKN100 13/08 A2985 RMK AO2 SLP108 T01280083,KHRI,2022-10-31T15:53:00Z,45.83,-119.27,12.8,8.3,200,3,,10.0,29.84941,1010.8,,TRUE,TRUE,,,,,,,BKN,8000,BKN,10000,,,,,VFR,,,,,,,,,,,,METAR,194.0
KHQM 311553Z AUTO 29006KT 10SM BKN055 12/09 A2986 RMK AO2 SLP115 T01170094,KHQM,2022-10-31T15:53:00Z,46.97,-123.93,11.7,9.4,290,6,,10.0,29.861221,1011.5,,TRUE,TRUE,,,,,,,BKN,5500,,,,,,,VFR,,,,,,,,,,,,METAR,4.0
KHOU 311553Z 00000KT 10SM BKN250 23/12 A3007 RMK AO2 SLP186 T02330122,KHOU,2022-10-31T15:53:00Z,29.63,-95.28,23.3,12.2,0,0,,10.0,30.070866,1018.6,,,TRUE,,,,,,,BKN,25000,,,,,,,VFR,,,,,,,,,,,,METAR,13.0
KHOT 311553Z AUTO 27005KT 10SM CLR 17/13 A3003 RMK AO2 SLP167 T01720128,KHOT,2022-10-31T15:53:00Z,34.48,-93.1,17.2,12.8,270,5,,10.0,30.029528,1016.7,,TRUE,TRUE,,,,,,,CLR,,,,,,,,VFR,,,,,,,,,,,,METAR,153.0
KHLN 311553Z 19010KT 10SM BKN060 BKN080 13/00 A2981 RMK AO2 SLP098 T01280000,KHLN,2022-10-31T15:53:00Z,46.6,-111.98,12.8,0.0,190,10,,10.0,29.811024,1009.8,,,TRUE,,,,,,,BKN,6000,BKN,8000,,,,,VFR,,,,,,,,,,,,METAR,1178.0
KHLG 311553Z 21007KT 10SM OVC005 16/14 A2995 RMK AO2 SLP143 T01560139,KHLG,2022-10-31T15:53:00Z,40.17,-80.65,15.6,13.9,210,7,,10.0,29.949802,1014.3,,,TRUE,,,,,,,OVC,500,,,,,,,IFR,,,,,,,,,,,,METAR,365.0
KHLC 311553Z AUTO 28006KT 10SM CLR 14/M03 A3001 RMK AO2 SLP162 T01391028,KHLC,2022-10-31T15:53:00Z,39.37,-99.83,13.9,-2.8,280,6,,10.0,30.008858,1016.2,,TRUE,TRUE,,,,,,,CLR,,,,,,,,VFR,,,,,,,,,,,,METAR,667.0
KHKY 311553Z VRB03KT 1 1/2SM +RA BR OVC004 13/13 A3008 RMK AO2 RAB37 SLP173 P0009 T01330133,KHKY,2022-10-31T15:53:00Z,35.75,-81.38,13.3,13.3,0,3,,1.5,30.079725,1017.3,,,TRUE,,,,,,+RA BR,OVC,400,,,,,,,LIFR,,,,,,0.09,,,,,,METAR,357.0
KHKS 311553Z 29005KT 10SM SCT060 21/14 A3006 RMK AO2 SLP172 T02060144,KHKS,2022-10-31T15:53:00Z,32.33,-90.22,20.6,14.4,290,5,,10.0,30.059055,1017.2,,,TRUE,,,,,,,SCT,6000,,,,,,,VFR,,,,,,,,,,,,METAR,103.0
KHKA 311553Z AUTO 24009KT 10SM BKN011 BKN019 OVC036 17/14 A2996 RMK AO2 SLP143 T01670139 $,KHKA,2022-10-31T15:53:00Z,35.93,-89.83,16.7,13.9,240,9,,10.0,29.958662,1014.3,,TRUE,TRUE,TRUE,,,,,,BKN,1100,BKN,1900,OVC,3600,,,MVFR,,,,,,,,,,,,METAR,78.0
KHJO 311553Z AUTO 07006KT 7SM CLR 11/05 A2999 RMK AO2 SLP156 T01060050,KHJO,2022-10-31T15:53:00Z,36.32,-119.62,10.6,5.0,70,6,,7.0,29.991142,1015.6,,TRUE,TRUE,,,,,,,CLR,,,,,,,,VFR,,,,,,,,,,,,METAR,73.0
KHIO 311553Z 16006KT 7SM -RA BKN009 BKN070 OVC085 12/11 A2991 RMK AO2 SLP127 P0006 T01170111,KHIO,2022-10-31T15:53:00Z,45.55,-122.95,11.7,11.1,160,6,,7.0,29.911417,1012.7,,,TRUE,,,,,,-RA,BKN,900,BKN,7000,OVC,8500,,,IFR,,,,,,0.06,,,,,,METAR,62.0
KHIB 311553Z AUTO 00000KT 10SM CLR 07/01 A2979 RMK AO2 SLP102 T00720006,KHIB,2022-10-31T15:53:00Z,47.38,-92.83,7.2,0.6,0,0,,10.0,29.790354,1010.2,,TRUE,TRUE,,,,,,,CLR,,,,,,,,VFR,,,,,,,,,,,,METAR,409.0
KHHR 311553Z 00000KT 9SM CLR 17/09 A2994 RMK AO2 SLP136 T01720094 $,KHHR,2022-10-31T15:53:00Z,33.92,-118.33,17.2,9.4,0,0,,9.0,29.940945,1013.6,,,TRUE,TRUE,,,,,,CLR,,,,,,,,VFR,,,,,,,,,,,,METAR,21.0
KHGR 311553Z 00000KT 6SM -RA BR FEW049 OVC110 12/10 A3004 RMK AO2 SLP183 P0001 T01170100,KHGR,2022-10-31T15:53:00Z,39.7,-77.73,11.7,10.0,0,0,,6.0,30.041338,1018.3,,,TRUE,,,,,,-RA BR,FEW,4900,OVC,11000,,,,,VFR,,,,,,0.01,,,,,,METAR,206.0
KHFD 311553Z 19006KT 10SM FEW012 SCT060 18/10 A3006 RMK AO2 SLP177 T01780100,KHFD,2022-10-31T15:53:00Z,41.73,-72.65,17.8,10.0,190,6,,10.0,30.059055,1017.7,,,TRUE,,,,,,,FEW,1200,SCT,6000,,,,,VFR,,,,,,,,,,,,METAR,3.0
KHEI 311553Z AUTO 26008KT 10SM CLR 12/M03 A2982 RMK AO2 SLP107 T01171028,KHEI,2022-10-31T15:53:00Z,46.02,-102.65,11.7,-2.8,260,8,,10.0,29.819881,1010.7,,TRUE,TRUE,,,,,,,CLR,,,,,,,,VFR,,,,,,,,,,,,METAR,824.0
KHBR 311553Z AUTO 14006KT 10SM CLR 14/08 A3007 RMK AO2 SLP178 T01440078,KHBR,2022-10-31T15:53:00Z,34.98,-99.05,14.4,7.8,140,6,,10.0,30.070866,1017.8,,TRUE,TRUE,,,,,,,CLR,,,,,,,,VFR,,,,,,,,,,,,METAR,475.0
KHBG 311553Z AUTO 31004KT 10SM BKN035 OVC044 22/13 A3007 RMK AO2 SLP180 T02170133,KHBG,2022-10-31T15:53:00Z,31.27,-89.25,21.7,13.3,310,4,,10.0,30.070866,1018.0,,TRUE,TRUE,,,,,,,BKN,3500,OVC,4400,,,,,VFR,,,,,,,,,,,,METAR,45.0
KHAO 311553Z AUTO VRB05KT 10SM OVC039 18/14 A2992 RMK AO2 SLP129 T01780144,KHAO,2022-10-31T15:53:00Z,39.37,-84.52,17.8,14.4,0,5,,10.0,29.920275,1012.9,,TRUE,TRUE,,,,,,,OVC,3900,,,,,,,VFR,,,,,,,,,,,,METAR,185.0
KGZH 311553Z AUTO VRB03KT 10SM CLR 21/14 A3006 RMK AO2 SLP176 T02110139,KGZH,2022-10-31T15:53:00Z,31.42,-87.05,21.1,13.9,0,3,,10.0,30.059055,1017.6,,TRUE,TRUE,,,,,,,CLR,,,,,,,,VFR,,,,,,,,,,,,METAR,77.0
KGWO 311553Z AUTO 25006KT 10SM BKN015 OVC022 19/14 A3004 RMK AO2 SLP169 T01940144,KGWO,2022-10-31T15:53:00Z,33.5,-90.08,19.4,14.4,250,6,,10.0,30.041338,1016.9,,TRUE,TRUE,,,,,,,BKN,1500,OVC,2200,,,,,MVFR,,,,,,,,,,,,METAR,42.0
KGVL 311553Z AUTO 08005KT 7SM OVC003 15/14 A3006 RMK AO2 SLP172 T01500139,KGVL,2022-10-31T15:53:00Z,34.27,-83.83,15.0,13.9,80,5,,7.0,30.059055,1017.2,,TRUE,TRUE,,,,,,,OVC,300,,,,,,,LIFR,,,,,,,,,,,,METAR,387.0
KGUY 311553Z AUTO 21007KT 10SM CLR 17/01 A3004 RMK AO2 SLP150 T01670011,KGUY,2022-10-31T15:53:00Z,36.68,-101.5,16.7,1.1,210,7,,10.0,30.041338,1015.0,,TRUE,TRUE,,,,,,,CLR,,,,,,,,VFR,,,,,,,,,,,,METAR,950.0
KGUP 311553Z AUTO 00000KT 10SM CLR 04/M05 A3019 RMK AO2 SLP208 T00441050,KGUP,2022-10-31T15:53:00Z,35.52,-108.8,4.4,-5.0,0,0,,10.0,30.188976,1020.8,,TRUE,TRUE,,,,,,,CLR,,,,,,,,VFR,,,,,,,,,,,,METAR,1972.0
KGTF 311553Z 21015G26KT 10SM BKN070 13/02 A2973 RMK AO2 PK WND 20027/1540 SLP064 T01280022,KGTF,2022-10-31T15:53:00Z,47.47,-111.38,12.8,2.2,210,15,26,10.0,29.731298,1006.4,,,TRUE,,,,,,,BKN,7000,,,,,,,VFR,,,,,,,,,,,,METAR,1117.0
KGSP 311553Z 01005KT 2 1/2SM -RA BR BKN003 OVC022 13/13 A3006 RMK AO2 SLP175 P0047 T01330128,KGSP,2022-10-31T15:53:00Z,34.9,-82.22,13.3,12.8,10,5,,2.5,30.059055,1017.5,,,TRUE,,,,,,-RA BR,BKN,300,OVC,2200,,,,,LIFR,,,,,,0.47,,,,,,METAR,285.0
KGSH 311553Z AUTO 20007KT 1 3/4SM RA BR 15/14 A2983 RMK AO2 RAB22 SLP102 P0003 T01500139 $,KGSH,2022-10-31T15:53:00Z,41.53,-85.78,15.0,13.9,200,7,,1.75,29.828741,1010.2,,TRUE,TRUE,TRUE,,,,,RA BR,,,,,,,,,,,,,,,0.03,,,,,,METAR,252.0
KGRR 311553Z 00000KT 2SM BR OVC004 12/11 A2985 RMK AO2 SLP109 T01220111 $,KGRR,2022-10-31T15:53:00Z,42.88,-85.52,12.2,11.1,0,0,,2.0,29.84941,1010.9,,,TRUE,TRUE,,,,,BR,OVC,400,,,,,,,LIFR,,,,,,,,,,,,METAR,239.0
KGRI 311553Z 22006KT 10SM CLR 16/M01 A2995 RMK AO2 SLP149 T01611006,KGRI,2022-10-31T15:53:00Z,40.97,-98.32,16.1,-0.6,220,6,,10.0,29.949802,1014.9,,,TRUE,,,,,,,CLR,,,,,,,,VFR,,,,,,,,,,,,METAR,562.0
KGRB 311553Z 27004KT 10SM CLR 16/07 A2985 RMK AO2 SLP110 T01610072,KGRB,2022-10-31T15:53:00Z,44.48,-88.13,16.1,7.2,270,4,,10.0,29.84941,1011.0,,,TRUE,,,,,,,CLR,,,,,,,,VFR,,,,,,,,,,,,METAR,209.0
KGPT 311553Z 18003KT 10SM FEW028 23/14 A3005 RMK AO2 SLP175 T02280144,KGPT,2022-10-31T15:53:00Z,30.42,-89.08,22.8,14.4,180,3,,10.0,30.050198,1017.5,,,TRUE,,,,,,,FEW,2800,,,,,,,VFR,,,,,,,,,,,,METAR,5.0
KGOK 311553Z AUTO 26003KT 10SM 13/06 A3005 RMK AO2 SLP178 T01280061,KGOK,2022-10-31T15:53:00Z,35.85,-97.4,12.8,6.1,260,3,,10.0,30.050198,1017.8,,TRUE,TRUE,,,,,,,,,,,,,,,,,,,,,,,,,,,METAR,326.0
KGNV 311553Z 14007KT 10SM CLR 27/21 A3005 RMK AO2 SLP174 T02720206,KGNV,2022-10-31T15:53:00Z,29.7,-82.28,27.2,20.6,140,7,,10.0,30.050198,1017.4,,,TRUE,,,,,,,CLR,,,,,,,,VFR,,,,,,,,,,,,METAR,41.0
KGMU 311553Z 02009KT 3SM -RA BR FEW004 OVC010 14/13 A3006 RMK AO2 SLP176 P0016 T01440128,KGMU,2022-10-31T15:53:00Z,34.85,-82.35,14.4,12.8,20,9,,3.0,30.059055,1017.6,,,TRUE,,,,,,-RA BR,FEW,400,OVC,1000,,,,,MVFR,,,,,,0.16,,,,,,METAR,309.0
KGLR 311553Z AUTO 16006KT 10SM BKN120 15/05 A2985 RMK AO2 SLP114 T01500050,KGLR,2022-10-31T15:53:00Z,45.02,-84.68,15.0,5.0,160,6,,10.0,29.84941,1011.4,,TRUE,TRUE,,,,,,,BKN,12000,,,,,,,VFR,,,,,,,,,,,,METAR,403.0
KGLH 311553Z 26007KT 10SM CLR 19/14 A3004 RMK AO2 SLP177 T01940144,KGLH,2022-10-31T15:53:00Z,33.47,-90.98,19.4,14.4,260,7,,10.0,30.041338,1017.7,,,TRUE,,,,,,,CLR,,,,,,,,VFR,,,,,,,,,,,,METAR,40.0
KGLD 311553Z AUTO A3001 RMK AO2 SLPNO PWINO FZRANO $,KGLD,2022-10-31T15:53:00Z,39.37,-101.7,,,,,,,30.008858,,,TRUE,TRUE,TRUE,,,TRUE,TRUE,,,,,,,,,,,,,,,,,,,,,,METAR,1111.0
KGKY 311553Z 00000KT 10SM CLR 21/10 A3007 RMK AO2 SLP176 T02110100,KGKY,2022-10-31T15:53:00Z,32.67,-97.1,21.1,10.0,0,0,,10.0,30.070866,1017.6,,,TRUE,,,,,,,CLR,,,,,,,,VFR,,,,,,,,,,,,METAR,189.0
KGKJ 311553Z AUTO VRB04KT 2SM BR OVC003 12/12 A2993 RMK AO2 SLP135 T01220117,KGKJ,2022-10-31T15:53:00Z,41.63,-80.22,12.2,11.7,0,4,,2.0,29.929134,1013.5,,TRUE,TRUE,,,,,,BR,OVC,300,,,,,,,LIFR,,,,,,,,,,,,METAR,428.0
KGJT 311553Z 15009KT 10SM CLR 07/M01 A3018 RMK AO2 SLP207 T00671011,KGJT,2022-10-31T15:53:00Z,39.13,-108.53,6.7,-1.1,150,9,,10.0,30.180119,1020.7,,,TRUE,,,,,,,CLR,,,,,,,,VFR,,,,,,,,,,,,METAR,1475.0
KGIF 311553Z AUTO A3003 RMK AO2 SLPNO PWINO $,KGIF,2022-10-31T15:53:00Z,28.07,-81.75,,,,,,,30.029528,,,TRUE,TRUE,TRUE,,,,TRUE,,,,,,,,,,,,,,,,,,,,,,METAR,44.0
KGGW 311553Z AUTO 15008KT 10SM CLR 10/04 A2971 RMK AO2 SLP068 T01000039,KGGW,2022-10-31T15:53:00Z,48.22,-106.62,10.0,3.9,150,8,,10.0,29.71063,1006.8,,TRUE,TRUE,,,,,,,CLR,,,,,,,,VFR,,,,,,,,,,,,METAR,698.0
KGGG 311553Z VRB03KT 10SM CLR 19/13 A3006 RMK AO2 SLP175 T01940133,KGGG,2022-10-31T15:53:00Z,32.38,-94.72,19.4,13.3,0,3,,10.0,30.059055,1017.5,,,TRUE,,,,,,,CLR,,,,,,,,VFR,,,,,,,,,,,,METAR,107.0
KGFL 311553Z AUTO 18006KT 10SM CLR 12/04 A3002 RMK AO2 SLP171 T01220044,KGFL,2022-10-31T15:53:00Z,43.33,-73.62,12.2,4.4,180,6,,10.0,30.02067,1017.1,,TRUE,TRUE,,,,,,,CLR,,,,,,,,VFR,,,,,,,,,,,,METAR,99.0
KGFK 311553Z 25009KT 10SM BKN250 12/M01 A2971 RMK AO2 SLP067 T01171006,KGFK,2022-10-31T15:53:00Z,47.95,-97.18,11.7,-0.6,250,9,,10.0,29.71063,1006.7,,,TRUE,,,,,,,BKN,25000,,,,,,,VFR,,,,,,,,,,,,METAR,256.0
KGEZ 311553Z AUTO 19009KT 9SM -RA FEW010 BKN022 OVC046 17/15 A2987 RMK AO2 RAB31 SLP111 T01720150 PNO,KGEZ,2022-10-31T15:53:00Z,39.58,-85.8,17.2,15.0,190,9,,9.0,29.870079,1011.1,,TRUE,TRUE,,,,,,-RA,FEW,1000,BKN,2200,OVC,4600,,,MVFR,,,,,,,,,,,,METAR,245.0
KGEY 311553Z AUTO 00000KT 10SM CLR 01/M04 A2996 RMK AO2 SLP165 T00111039,KGEY,2022-10-31T15:53:00Z,44.52,-108.08,1.1,-3.9,0,0,,10.0,29.958662,1016.5,,TRUE,TRUE,,,,,,,CLR,,,,,,,,VFR,,,,,,,,,,,,METAR,1191.0
KGEG 311553Z 21012KT 10SM FEW025 SCT055 BKN090 09/06 A2977 RMK AO2 SLP082 T00940056,KGEG,2022-10-31T15:53:00Z,47.62,-117.53,9.4,5.6,210,12,,10.0,29.769686,1008.2,,,TRUE,,,,,,,FEW,2500,SCT,5500,BKN,9000,,,VFR,,,,,,,,,,,,METAR,718.0
KGCC 311553Z AUTO 23012KT 10SM CLR 11/M06 A2989 RMK AO2 SLP117 T01061056 $,KGCC,2022-10-31T15:53:00Z,44.33,-105.55,10.6,-5.6,230,12,,10.0,29.890747,1011.7,,TRUE,TRUE,TRUE,,,,,,CLR,,,,,,,,VFR,,,,,,,,,,,,METAR,1328.0
KGAG 311553Z AUTO 25004KT 10SM CLR 16/00 A3005 RMK AO2 SLP170 T01560000,KGAG,2022-10-31T15:53:00Z,36.3,-99.77,15.6,0.0,250,4,,10.0,30.050198,1017.0,,TRUE,TRUE,,,,,,,CLR,,,,,,,,VFR,,,,,,,,,,,,METAR,670.0
KFYV 311553Z 20006KT 10SM CLR 15/12 A3002 RMK AO2 SLP161 T01500117,KFYV,2022-10-31T15:53:00Z,36.02,-94.17,15.0,11.7,200,6,,10.0,30.02067,1016.1,,,TRUE,,,,,,,CLR,,,,,,,,VFR,,,,,,,,,,,,METAR,377.0
KFXE 311553Z 12008KT 10SM SCT026 SCT032 28/24 A2998 RMK AO2 SLP154 T02830239 $,KFXE,2022-10-31T15:53:00Z,26.2,-80.18,28.3,23.9,120,8,,10.0,29.97933,1015.4,,,TRUE,TRUE,,,,,,SCT,2600,SCT,3200,,,,,VFR,,,,,,,,,,,,METAR,3.0
KFWN 311553Z AUTO 21007KT 10SM CLR 14/09 A3007 RMK AO2 SLP184 T01440094,KFWN,2022-10-31T15:53:00Z,41.2,-74.63,14.4,9.4,210,7,,10.0,30.070866,1018.4,,TRUE,TRUE,,,,,,,CLR,,,,,,,,VFR,,,,,,,,,,,,METAR,129.0
KFVE 311553Z AUTO 24005KT 10SM CLR 14/M01 A2996 RMK AO2 SLP148 T01441006,KFVE,2022-10-31T15:53:00Z,47.28,-68.3,14.4,-0.6,240,5,,10.0,29.958662,1014.8,,TRUE,TRUE,,,,,,,CLR,,,,,,,,VFR,,,,,,,,,,,,METAR,299.0
KFUL 311553Z 08005KT 10SM SCT250 17/07 A2992 RMK AO2 SLP131 T01720067,KFUL,2022-10-31T15:53:00Z,33.87,-117.98,17.2,6.7,80,5,,10.0,29.920275,1013.1,,,TRUE,,,,,,,SCT,25000,,,,,,,VFR,,,,,,,,,,,,METAR,23.0
KFTY 311553Z 00000KT 1/2SM FG BKN002 OVC035 18/17 A3002 RMK AO2 RAB34E50 SLP162 P0000 T01780172,KFTY,2022-10-31T15:53:00Z,33.78,-84.52,17.8,17.2,0,0,,0.5,30.02067,1016.2,,,TRUE,,,,,,FG,BKN,200,OVC,3500,,,,,LIFR,,,,,,0.005,,,,,,METAR,245.0
KFTW 311553Z 00000KT 7SM CLR 17/12 A3006 RMK AO2 SLP175 T01720117 $,KFTW,2022-10-31T15:53:00Z,32.83,-97.37,17.2,11.7,0,0,,7.0,30.059055,1017.5,,,TRUE,TRUE,,,,,,CLR,,,,,,,,VFR,,,,,,,,,,,,METAR,213.0
KFST 311553Z AUTO 15005KT 10SM CLR 15/07 A3006 RMK AO2 SLP150 T01500072,KFST,2022-10-31T15:53:00Z,30.92,-102.92,15.0,7.2,150,5,,10.0,30.059055,1015.0,,TRUE,TRUE,,,,,,,CLR,,,,,,,,VFR,,,,,,,,,,,,METAR,917.0
KFSM 311553Z 26005KT 10SM CLR 17/13 A3003 RMK AO2 SLP167 T01670133,KFSM,2022-10-31T15:53:00Z,35.33,-94.37,16.7,13.3,260,5,,10.0,30.029528,1016.7,,,TRUE,,,,,,,CLR,,,,,,,,VFR,,,,,,,,,,,,METAR,136.0
KFRG 311553Z VRB04KT 10SM CLR 17/11 A3008 RMK AO2 SLP185 T01720106,KFRG,2022-10-31T15:53:00Z,40.73,-73.42,17.2,10.6,0,4,,10.0,30.079725,1018.5,,,TRUE,,,,,,,CLR,,,,,,,,VFR,,,,,,,,,,,,METAR,23.0
KFPR 311553Z 09012KT 10SM BKN022 BKN028 29/23 A3000 RMK AO2 SLP157 T02890228,KFPR,2022-10-31T15:53:00Z,27.5,-80.38,28.9,22.8,90,12,,10.0,30.0,1015.7,,,TRUE,,,,,,,BKN,2200,BKN,2800,,,,,MVFR,,,,,,,,,,,,SPECI,7.0
KFOZ 311553Z AUTO 21008KT 10SM CLR 12/01 A2980 RMK AO2,KFOZ,2022-10-31T15:53:00Z,47.77,-93.65,12.0,1.0,210,8,,10.0,29.799213,,,TRUE,TRUE,,,,,,,CLR,,,,,,,,VFR,,,,,,,,,,,,METAR,412.0
KFOE 311553Z 30009KT 10SM CLR 16/04 A2999 RMK AO2 SLP152 T01610044 PNO,KFOE,2022-10-31T15:53:00Z,38.93,-95.65,16.1,4.4,300,9,,10.0,29.991142,1015.2,,,TRUE,,,,,,,CLR,,,,,,,,VFR,,,,,,,,,,,,SPECI,315.0
KFNT 311553Z 14003KT 5SM BR OVC004 14/13 A2984 RMK AO2 RAE1456 SLP106 P0000 T01390128,KFNT,2022-10-31T15:53:00Z,42.97,-83.75,13.9,12.8,140,3,,5.0,29.840551,1010.6,,,TRUE,,,,,,BR,OVC,400,,,,,,,LIFR,,,,,,0.005,,,,,,METAR,235.0
KFNB 311553Z AUTO 32005KT 10SM CLR 13/03 A2997 RMK AO2 SLP148 T01330033,KFNB,2022-10-31T15:53:00Z,40.07,-95.58,13.3,3.3,320,5,,10.0,29.970472,1014.8,,TRUE,TRUE,,,,,,,CLR,,,,,,,,VFR,,,,,,,,,,,,METAR,301.0
KFMY 311553Z VRB06KT 10SM SCT028 31/23 A2998 RMK AO2 SLP153 T03060228,KFMY,2022-10-31T15:53:00Z,26.58,-81.87,30.6,22.8,0,6,,10.0,29.97933,1015.3,,,TRUE,,,,,,,SCT,2800,,,,,,,VFR,,,,,,,,,,,,SPECI,4.0
KFMN 311553Z 09006KT 10SM CLR 04/M06 A3017 RMK AO2 SLP214 T00441056,KFMN,2022-10-31T15:53:00Z,36.75,-108.23,4.4,-5.6,90,6,,10.0,30.171259,1021.4,,,TRUE,,,,,,,CLR,,,,,,,,VFR,,,,,,,,,,,,METAR,1677.0
KFLO 311553Z 13009KT 10SM FEW029 23/18 A3006 RMK AO2 SLP178 T02280183,KFLO,2022-10-31T15:53:00Z,34.18,-79.73,22.8,18.3,130,9,,10.0,30.059055,1017.8,,,TRUE,,,,,,,FEW,2900,,,,,,,VFR,,,,,,,,,,,,SPECI,43.0
KFLL 311553Z 12008KT 10SM FEW025 FEW080 FEW250 29/24 A2998 RMK AO2 SLP150 T02940239 $,KFLL,2022-10-31T15:53:00Z,26.07,-80.15,29.4,23.9,120,8,,10.0,29.97933,1015.0,,,TRUE,TRUE,,,,,,FEW,2500,FEW,8000,FEW,25000,,,VFR,,,,,,,,,,,,METAR,1.0
KFLD 311553Z AUTO 05003KT 10SM CLR 14/05 A2985 RMK AO2 SLP109 T01440050,KFLD,2022-10-31T15:53:00Z,43.77,-88.48,14.4,5.0,50,3,,10.0,29.84941,1010.9,,TRUE,TRUE,,,,,,,CLR,,,,,,,,VFR,,,,,,,,,,,,METAR,242.0
KFHR 311553Z AUTO 21012G20KT 2 1/2SM -RA BR BKN009 OVC015 11/09 A2975 RMK AO2 RAB11 SLP075 P0004 T01060094 $,KFHR,2022-10-31T15:53:00Z,48.52,-123.03,10.6,9.4,210,12,20,2.5,29.749016,1007.5,,TRUE,TRUE,TRUE,,,,,-RA BR,BKN,900,OVC,1500,,,,,IFR,,,,,,0.04,,,,,,METAR,34.0
KFFT 311553Z AUTO 19012G17KT 10SM BKN014 OVC065 18/15 A2992 RMK AO2 SLP128 T01780150,KFFT,2022-10-31T15:53:00Z,38.18,-84.9,17.8,15.0,190,12,17,10.0,29.920275,1012.8,,TRUE,TRUE,,,,,,,BKN,1400,OVC,6500,,,,,MVFR,,,,,,,,,,,,SPECI,235.0
KFFC 311553Z AUTO 24005KT 10SM FEW016 SCT023 BKN036 22/17 A3002 RMK AO2 SLP164 T02170172,KFFC,2022-10-31T15:53:00Z,33.35,-84.57,21.7,17.2,240,5,,10.0,30.02067,1016.4,,TRUE,TRUE,,,,,,,FEW,1600,SCT,2300,BKN,3600,,,VFR,,,,,,,,,,,,SPECI,242.0
KFDY 311553Z AUTO 20010KT 9SM SCT013 SCT027 OVC041 18/16 A2986 RMK AO2 SLP105 P0001 T01780161,KFDY,2022-10-31T15:53:00Z,41.02,-83.67,17.8,16.1,200,10,,9.0,29.861221,1010.5,,TRUE,TRUE,,,,,,,SCT,1300,SCT,2700,OVC,4100,,,VFR,,,,,,0.01,,,,,,METAR,247.0
KFDR 311553Z AUTO 00000KT 10SM CLR 16/11 A3004 RMK AO2 SLP163 T01610106 $,KFDR,2022-10-31T15:53:00Z,34.35,-98.98,16.1,10.6,0,0,,10.0,30.041338,1016.3,,TRUE,TRUE,TRUE,,,,,,CLR,,,,,,,,VFR,,,,,,,,,,,,METAR,378.0
KFCM 311553Z 21003KT 7SM CLR 09/01 A2987 RMK AO2 SLP120 T00940011,KFCM,2022-10-31T15:53:00Z,44.83,-93.47,9.4,1.1,210,3,,7.0,29.870079,1012.0,,,TRUE,,,,,,,CLR,,,,,,,,VFR,,,,,,,,,,,,METAR,276.0
KFAY 311553Z 10004KT 10SM FEW065 21/16 A3007 RMK AO2 SLP178 T02110156,KFAY,2022-10-31T15:53:00Z,34.98,-78.88,21.1,15.6,100,4,,10.0,30.070866,1017.8,,,TRUE,,,,,,,FEW,6500,,,,,,,VFR,,,,,,,,,,,,SPECI,57.0
KFAT 311553Z 09003KT 10SM SCT120 BKN180 15/04 A2999 RMK AO2 SLP153 T01500039,KFAT,2022-10-31T15:53:00Z,36.78,-119.72,15.0,3.9,90,3,,10.0,29.991142,1015.3,,,TRUE,,,,,,,SCT,12000,BKN,18000,,,,,VFR,,,,,,,,,,,,METAR,102.0
KFAR 311553Z 19010KT 10SM CLR 09/M02 A2976 RMK AO2 SLP085 T00891017 $,KFAR,2022-10-31T15:53:00Z,46.9,-96.82,8.9,-1.7,190,10,,10.0,29.760826,1008.5,,,TRUE,TRUE,,,,,,CLR,,,,,,,,VFR,,,,,,,,,,,,METAR,276.0
KEYW 311553Z 11009KT 10SM CLR 28/24 A2998 RMK AO2 SLP151 T02830244,KEYW,2022-10-31T15:53:00Z,24.55,-81.75,28.3,24.4,110,9,,10.0,29.97933,1015.1,,,TRUE,,,,,,,CLR,,,,,,,,VFR,,,,,,,,,,,,SPECI,1.0
KEYE 311553Z AUTO 19007KT 7SM OVC008 15/14 A2985 RMK AO2 CIG 007V011 SLP106 T01500144,KEYE,2022-10-31T15:53:00Z,39.83,-86.3,15.0,14.4,190,7,,7.0,29.84941,1010.6,,TRUE,TRUE,,,,,,,OVC,800,,,,,,,IFR,,,,,,,,,,,,METAR,248.0
KEWB 311553Z 18006KT 10SM OVC018 16/14 A3007 RMK AO2 SLP183 T01560144 $,KEWB,2022-10-31T15:53:00Z,41.68,-70.95,15.6,14.4,180,6,,10.0,30.070866,1018.3,,,TRUE,TRUE,,,,,,OVC,1800,,,,,,,MVFR,,,,,,,,,,,,METAR,22.0
KEVW 311553Z AUTO 21007KT 10SM CLR 02/M06 A3019 RMK AO2 SLP217 T00221061,KEVW,2022-10-31T15:53:00Z,41.27,-111.03,2.2,-6.1,210,7,,10.0,30.188976,1021.7,,TRUE,TRUE,,,,,,,CLR,,,,,,,,VFR,,,,,,,,,,,,METAR,2178.0
KETH 311553Z AUTO 19007KT 10SM 12/01 A2982 RMK AO2,KETH,2022-10-31T15:53:00Z,45.78,-96.55,12.0,1.0,190,7,,10.0,29.819881,,,TRUE,TRUE,,,,,,,,,,,,,,,,,,,,,,,,,,,METAR,309.0
KESF 311553Z AUTO VRB03KT 10SM CLR 22/14 A3006 RMK AO2 SLP177 T02220139,KESF,2022-10-31T15:53:00Z,31.4,-92.28,22.2,13.9,0,3,,10.0,30.059055,1017.7,,TRUE,TRUE,,,,,,,CLR,,,,,,,,VFR,,,,,,,,,,,,SPECI,27.0
KEQY 311553Z AUTO VRB03KT 10SM OVC007 18/16 A3006 RMK AO2 RAB12E25 SLP185 P0000 T01830161,KEQY,2022-10-31T15:53:00Z,35.02,-80.62,18.3,16.1,0,3,,10.0,30.059055,1018.5,,TRUE,TRUE,,,,,,,OVC,700,,,,,,,IFR,,,,,,0.005,,,,,,SPECI,205.0
KEPH 311553Z AUTO 00000KT 10SM FEW080 OVC100 10/07 A2977 RMK AO2 SLP081 T01000067,KEPH,2022-10-31T15:53:00Z,47.3,-119.52,10.0,6.7,0,0,,10.0,29.769686,1008.1,,TRUE,TRUE,,,,,,,FEW,8000,OVC,10000,,,,,VFR,,,,,,,,,,,,METAR,382.0
KENW 311553Z 35005KT 2SM HZ OVC014 13/11 A2985 RMK AO2 SLP109 T01330106,KENW,2022-10-31T15:53:00Z,42.6,-87.93,13.3,10.6,350,5,,2.0,29.84941,1010.9,,,TRUE,,,,,,HZ,OVC,1400,,,,,,,IFR,,,,,,,,,,,,METAR,222.0
KEMP 311553Z AUTO 29007KT 10SM CLR 13/04 A3000 RMK AO2 SLP159 T01330044,KEMP,2022-10-31T15:53:00Z,38.33,-96.2,13.3,4.4,290,7,,10.0,30.0,1015.9,,TRUE,TRUE,,,,,,,CLR,,,,,,,,VFR,,,,,,,,,,,,METAR,366.0
KELN 311553Z AUTO 30007KT 10SM OVC065 11/05 A2980 RMK AO2 SLP092 T01110050,KELN,2022-10-31T15:53:00Z,47.03,-120.53,11.1,5.0,300,7,,10.0,29.799213,1009.2,,TRUE,TRUE,,,,,,,OVC,6500,,,,,,,VFR,,,,,,,,,,,,METAR,532.0
KELM 311553Z 00000KT 10SM CLR 12/06 A2999 RMK AO2 SLP160 T01170061,KELM,2022-10-31T15:53:00Z,42.15,-76.9,11.7,6.1,0,0,,10.0,29.991142,1016.0,,,TRUE,,,,,,,CLR,,,,,,,,VFR,,,,,,,,,,,,METAR,287.0
KELD 311553Z AUTO VRB04KT 10SM CLR 19/14 A3005 RMK AO2 SLP173 T01890139,KELD,2022-10-31T15:53:00Z,33.22,-92.82,18.9,13.9,0,4,,10.0,30.050198,1017.3,,TRUE,TRUE,,,,,,,CLR,,,,,,,,VFR,,,,,,,,,,,,SPECI,76.0
KEET 311553Z AUTO 21004KT 8SM FEW028 OVC050 18/14 A3004 RMK AO2 SLP170 T01780144,KEET,2022-10-31T15:53:00Z,33.18,-86.78,17.8,14.4,210,4,,8.0,30.041338,1017.0,,TRUE,TRUE,,,,,,,FEW,2800,OVC,5000,,,,,VFR,,,,,,,,,,,,SPECI,172.0
KEEO 311553Z AUTO VRB03KT 10SM CLR 02/M05 A3020 RMK AO2 SLP232 T00171050,KEEO,2022-10-31T15:53:00Z,40.05,-107.88,1.7,-5.0,0,3,,10.0,30.200787,1023.2,,TRUE,TRUE,,,,,,,CLR,,,,,,,,VFR,,,,,,,,,,,,METAR,1957.0
KECP 311553Z 35005KT 10SM OVC038 22/15 A3004 RMK AO1 SLP182 T02170150,KECP,2022-10-31T15:53:00Z,30.35,-85.8,21.7,15.0,350,5,,10.0,30.041338,1018.2,,,TRUE,,,,,,,OVC,3800,,,,,,,VFR,,,,,,,,,,,,SPECI,17.0
KDWH 311553Z 00000KT 10SM CLR 22/14 A3007 RMK AO2 SLP183 T02220139 $,KDWH,2022-10-31T15:53:00Z,30.07,-95.55,22.2,13.9,0,0,,10.0,30.070866,1018.3,,,TRUE,TRUE,,,,,,CLR,,,,,,,,VFR,,,,,,,,,,,,METAR,46.0
KDVT 311553Z 00000KT 10SM CLR 17/M02 A2998 RMK AO2 SLP140 T01721017,KDVT,2022-10-31T15:53:00Z,33.68,-112.07,17.2,-1.7,0,0,,10.0,29.97933,1014.0,,,TRUE,,,,,,,CLR,,,,,,,,VFR,,,,,,,,,,,,METAR,454.0
KDVP 311553Z AUTO 20006KT 10SM CLR 12/00 A2990 RMK AO2 T01220000,KDVP,2022-10-31T15:53:00Z,43.98,-95.78,12.2,0.0,200,6,,10.0,29.899607,,,TRUE,TRUE,,,,,,,CLR,,,,,,,,VFR,,,,,,,,,,,,METAR,493.0
KDUJ 311553Z AUTO 12007KT 2 1/2SM BR FEW005 BKN017 OVC022 11/09 A2997 RMK AO2 SLP153 T01060089,KDUJ,2022-10-31T15:53:00Z,41.17,-78.9,10.6,8.9,120,7,,2.5,29.970472,1015.3,,TRUE,TRUE,,,,,,BR,FEW,500,BKN,1700,OVC,2200,,,IFR,,,,,,,,,,,,METAR,552.0
KDTW 311553Z 21003KT 2SM BR OVC003 14/14 A2985 RMK AO2 SFC VIS 2 1/2 RAE50 SLP108 P0001 T01440139 $,KDTW,2022-10-31T15:53:00Z,42.23,-83.33,14.4,13.9,210,3,,2.0,29.84941,1010.8,,,TRUE,TRUE,,,,,BR,OVC,300,,,,,,,LIFR,,,,,,0.01,,,,,,METAR,192.0
KDTS 311553Z 01005KT 10SM CLR 24/14 A3004 RMK AO2 SLP173 T02440139,KDTS,2022-10-31T15:53:00Z,30.4,-86.47,24.4,13.9,10,5,,10.0,30.041338,1017.3,,,TRUE,,,,,,,CLR,,,,,,,,VFR,,,,,,,,,,,,METAR,5.0
KDTO 311553Z 00000KT 10SM CLR 17/12 A3007 RMK AO2 SLP180 T01720117,KDTO,2022-10-31T15:53:00Z,33.2,-97.2,17.2,11.7,0,0,,10.0,30.070866,1018.0,,,TRUE,,,,,,,CLR,,,,,,,,VFR,,,,,,,,,,,,METAR,199.0
KDTN 311553Z AUTO VRB03KT 10SM CLR 19/14 A3006 RMK AO2 SLP177 T01940139,KDTN,2022-10-31T15:53:00Z,32.55,-93.75,19.4,13.9,0,3,,10.0,30.059055,1017.7,,TRUE,TRUE,,,,,,,CLR,,,,,,,,VFR,,,,,,,,,,,,SPECI,53.0
KDRT 311553Z AUTO 11007KT 10SM CLR 18/13 A3004 RMK AO2 SLP168 T01830133,KDRT,2022-10-31T15:53:00Z,29.37,-100.92,18.3,13.3,110,7,,10.0,30.041338,1016.8,,TRUE,TRUE,,,,,,,CLR,,,,,,,,VFR,,,,,,,,,,,,METAR,303.0
KDRO 311553Z AUTO VRB03KT 10SM CLR 04/M04 A3018 RMK AO2 SLP223 T00391039,KDRO,2022-10-31T15:53:00Z,37.15,-107.77,3.9,-3.9,0,3,,10.0,30.180119,1022.3,,TRUE,TRUE,,,,,,,CLR,,,,,,,,VFR,,,,,,,,,,,,METAR,2021.0
KDRA 311553Z AUTO 06004KT 10SM CLR 15/M09 A3007 RMK AO2 SLP157 T01501094,KDRA,2022-10-31T15:53:00Z,36.62,-116.03,15.0,-9.4,60,4,,10.0,30.070866,1015.7,,TRUE,TRUE,,,,,,,CLR,,,,,,,,VFR,,,,,,,,,,,,METAR,988.0
KDNL 311553Z AUTO 18005KT 5SM BR OVC003 19/18 A3005 RMK AO2 CIG 002V006 SLP172 T01890183,KDNL,2022-10-31T15:53:00Z,33.47,-82.03,18.9,18.3,180,5,,5.0,30.050198,1017.2,,TRUE,TRUE,,,,,,BR,OVC,300,,,,,,,LIFR,,,,,,,,,,,,SPECI,126.0
KDMO 311553Z AUTO 29006KT 10SM CLR 16/08 A2996 RMK AO2 SLP143 T01610083,KDMO,2022-10-31T15:53:00Z,38.72,-93.17,16.1,8.3,290,6,,10.0,29.958662,1014.3,,TRUE,TRUE,,,,,,,CLR,,,,,,,,VFR,,,,,,,,,,,,SPECI,271.0
KDMN 311553Z AUTO 07004KT 10SM CLR 13/M01 A3009 RMK AO2 SLP150 T01331006,KDMN,2022-10-31T15:53:00Z,32.27,-107.72,13.3,-0.6,70,4,,10.0,30.088583,1015.0,,TRUE,TRUE,,,,,,,CLR,,,,,,,,VFR,,,,,,,,,,,,METAR,1310.0
KDLS 311553Z AUTO 00000KT 10SM SCT018 SCT024 OVC046 14/09 A2987 RMK AO2 SLP116 T01390094,KDLS,2022-10-31T15:53:00Z,45.62,-121.17,13.9,9.4,0,0,,10.0,29.870079,1011.6,,TRUE,TRUE,,,,,,,SCT,1800,SCT,2400,OVC,4600,,,VFR,,,,,,,,,,,,METAR,71.0
KDLN 311553Z AUTO 21010KT 10SM FEW065 07/M01 A2995 RMK AO2 SLP132 T00671006,KDLN,2022-10-31T15:53:00Z,45.25,-112.55,6.7,-0.6,210,10,,10.0,29.949802,1013.2,,TRUE,TRUE,,,,,,,FEW,6500,,,,,,,VFR,,,,,,,,,,,,METAR,1586.0
KDKK 311553Z AUTO VRB03KT 10SM FEW043 BKN050 BKN070 15/12 A2991 RMK AO2 RAB10E43 SLP129 P0000 T01500117,KDKK,2022-10-31T15:53:00Z,42.5,-79.28,15.0,11.7,0,3,,10.0,29.911417,1012.9,,TRUE,TRUE,,,,,,,FEW,4300,BKN,5000,BKN,7000,,,VFR,,,,,,0.005,,,,,,METAR,205.0
KDHT 311553Z AUTO 22005KT 10SM CLR 16/03 A3008 RMK AO2 SLP157 T01560033 $,KDHT,2022-10-31T15:53:00Z,36.02,-102.55,15.6,3.3,220,5,,10.0,30.079725,1015.7,,TRUE,TRUE,TRUE,,,,,,CLR,,,,,,,,VFR,,,,,,,,,,,,METAR,1217.0
KDHN 311553Z 33004KT 10SM OVC043 21/17 A3007 RMK AO2 SLP179 T02060167,KDHN,2022-10-31T15:53:00Z,31.32,-85.45,20.6,16.7,330,4,,10.0,30.070866,1017.9,,,TRUE,,,,,,,OVC,4300,,,,,,,VFR,,,,,,,,,,,,SPECI,113.0
KDGW 311553Z AUTO 00000KT 10SM CLR 10/M06 A2998 RMK AO2 SLP149 T01001061 $,KDGW,2022-10-31T15:53:00Z,42.8,-105.38,10.0,-6.1,0,0,,10.0,29.97933,1014.9,,TRUE,TRUE,TRUE,,,,,,CLR,,,,,,,,VFR,,,,,,,,,,,,METAR,1503.0
KDFW 311553Z 00000KT 10SM BKN250 18/11 A3005 RMK AO2 SLP171 T01830106,KDFW,2022-10-31T15:53:00Z,32.9,-97.02,18.3,10.6,0,0,,10.0,30.050198,1017.1,,,TRUE,,,,,,,BKN,25000,,,,,,,VFR,,,,,,,,,,,,METAR,168.0
KDFI 311553Z AUTO 20008KT 2SM -RA BR BKN005 BKN011 OVC018 16/15 A2985 RMK AO2 RAB26 SLP107 P0007 T01610150,KDFI,2022-10-31T15:53:00Z,41.33,-84.43,16.1,15.0,200,8,,2.0,29.84941,1010.7,,TRUE,TRUE,,,,,,-RA BR,BKN,500,BKN,1100,OVC,1800,,,IFR,,,,,,0.07,,,,,,METAR,215.0
KDEW 311553Z AUTO 18009KT 10SM OVC017 10/06 A2978 RMK AO2 SLP085 T01000061,KDEW,2022-10-31T15:53:00Z,47.97,-117.43,10.0,6.1,180,9,,10.0,29.778543,1008.5,,TRUE,TRUE,,,,,,,OVC,1700,,,,,,,MVFR,,,,,,,,,,,,METAR,672.0
KDET 311553Z 00000KT 1 3/4SM BR OVC004 16/14 A2985 RMK AO2 RAB29E43 SLP107 P0000 T01560139,KDET,2022-10-31T15:53:00Z,42.4,-83.02,15.6,13.9,0,0,,1.75,29.84941,1010.7,,,TRUE,,,,,,BR,OVC,400,,,,,,,LIFR,,,,,,0.005,,,,,,METAR,190.0
KDEQ 311553Z AUTO 00000KT 1/4SM FG VV002 13/12 A3004 RMK AO2 SLP169 T01280122,KDEQ,2022-10-31T15:53:00Z,34.05,-94.4,12.8,12.2,0,0,,0.25,30.041338,1016.9,,TRUE,TRUE,,,,,,FG,OVX,0,,,,,,,LIFR,,,,,,,,,,,200,SPECI,107.0
KDEN 311553Z 22008KT 10SM FEW150 FEW220 11/M06 A3003 RMK AO2 SLP143 T01111061,KDEN,2022-10-31T15:53:00Z,39.85,-104.65,11.1,-6.1,220,8,,10.0,30.029528,1014.3,,,TRUE,,,,,,,FEW,15000,FEW,22000,,,,,VFR,,,,,,,,,,,,METAR,1656.0
KDCU 311553Z AUTO 20006KT 10SM FEW011 OVC065 17/14 A3001 RMK AO2 SLP159 T01720144,KDCU,2022-10-31T15:53:00Z,34.65,-86.95,17.2,14.4,200,6,,10.0,30.008858,1015.9,,TRUE,TRUE,,,,,,,FEW,1100,OVC,6500,,,,,VFR,,,,,,,,,,,,SPECI,180.0
KDBQ 311553Z 34007KT 10SM CLR 14/07 A2988 RMK AO2 SLP120 T01440067,KDBQ,2022-10-31T15:53:00Z,42.4,-90.7,14.4,6.7,340,7,,10.0,29.878937,1012.0,,,TRUE,,,,,,,CLR,,,,,,,,VFR,,,,,,,,,,,,METAR,317.0
KDAN 311553Z AUTO 00000KT 10SM FEW031 19/12 A3007 RMK AO2 SLP176 T01890122,KDAN,2022-10-31T15:53:00Z,36.57,-79.33,18.9,12.2,0,0,,10.0,30.070866,1017.6,,TRUE,TRUE,,,,,,,FEW,3100,,,,,,,VFR,,,,,,,,,,,,SPECI,170.0
KDAL 311553Z 00000KT 9SM SCT170 BKN250 19/11 A3006 RMK AO2 SLP175 T01890111 $,KDAL,2022-10-31T15:53:00Z,32.85,-96.85,18.9,11.1,0,0,,9.0,30.059055,1017.5,,,TRUE,TRUE,,,,,,SCT,17000,BKN,25000,,,,,VFR,,,,,,,,,,,,METAR,148.0
KCYS 311553Z 28011G20KT 10SM CLR 12/M09 A3002 RMK AO2 SLP133 T01221094,KCYS,2022-10-31T15:53:00Z,41.15,-104.8,12.2,-9.4,280,11,20,10.0,30.02067,1013.3,,,TRUE,,,,,,,CLR,,,,,,,,VFR,,,,,,,,,,,,METAR,1868.0
KCXO 311553Z 00000KT 10SM CLR 20/14 A3008 RMK AO2 SLP185 T02000139,KCXO,2022-10-31T15:53:00Z,30.35,-95.42,20.0,13.9,0,0,,10.0,30.079725,1018.5,,,TRUE,,,,,,,CLR,,,,,,,,VFR,,,,,,,,,,,,METAR,69.0
KCUT 311553Z AUTO 00000KT 10SM CLR 11/M10 A2993 RMK AO2 SLP124 T01061100,KCUT,2022-10-31T15:53:00Z,43.73,-103.62,10.6,-10.0,0,0,,10.0,29.929134,1012.4,,TRUE,TRUE,,,,,,,CLR,,,,,,,,VFR,,,,,,,,,,,,METAR,1700.0
KCUB 311553Z AUTO VRB03KT 6SM BR OVC004 18/17 A3005 RMK AO2 SLP175 T01830172,KCUB,2022-10-31T15:53:00Z,33.97,-81.0,18.3,17.2,0,3,,6.0,30.050198,1017.5,,TRUE,TRUE,,,,,,BR,OVC,400,,,,,,,LIFR,,,,,,,,,,,,SPECI,55.0
KCSM 311553Z 18004KT 10SM CLR 15/07 A3006 RMK AO2 SLP173 T01500072,KCSM,2022-10-31T15:53:00Z,35.35,-99.2,15.0,7.2,180,4,,10.0,30.059055,1017.3,,,TRUE,,,,,,,CLR,,,,,,,,VFR,,,,,,,,,,,,SPECI,586.0
KCRS 311553Z AUTO 00000KT 10SM CLR 21/12 A3007 RMK AO2 SLP181 T02060122,KCRS,2022-10-31T15:53:00Z,32.03,-96.4,20.6,12.2,0,0,,10.0,30.070866,1018.1,,TRUE,TRUE,,,,,,,CLR,,,,,,,,VFR,,,,,,,,,,,,METAR,136.0
KCRQ 311553Z AUTO 00000KT 10SM CLR 19/07 A2992 RMK AO2 SLP129 T01940072,KCRQ,2022-10-31T15:53:00Z,33.13,-117.28,19.4,7.2,0,0,,10.0,29.920275,1012.9,,TRUE,TRUE,,,,,,,CLR,,,,,,,,VFR,,,,,,,,,,,,METAR,96.0
KCRG 311553Z 14008KT 10SM SCT024 BKN041 28/21 A3003 RMK AO2 SLP169 T02780211,KCRG,2022-10-31T15:53:00Z,30.33,-81.52,27.8,21.1,140,8,,10.0,30.029528,1016.9,,,TRUE,,,,,,,SCT,2400,BKN,4100,,,,,VFR,,,,,,,,,,,,SPECI,12.0
KCRE 311553Z 09009KT 10SM CLR 22/19 A3007 RMK AO1 SLP184 T02170189,KCRE,2022-10-31T15:53:00Z,33.82,-78.72,21.7,18.9,90,9,,10.0,30.070866,1018.4,,,TRUE,,,,,,,CLR,,,,,,,,VFR,,,,,,,,,,,,SPECI,9.0
KCQC 311553Z AUTO 27007KT 10SM CLR 10/M01 A3017 RMK AO2 SLP176 T01001011,KCQC,2022-10-31T15:53:00Z,35.0,-105.67,10.0,-1.1,270,7,,10.0,30.171259,1017.6,,TRUE,TRUE,,,,,,,CLR,,,,,,,,VFR,,,,,,,,,,,,METAR,2163.0
KCPR 311553Z 21017KT 10SM CLR 07/M05 A3000 RMK AO2 PK WND 21026/1537 SLP149 T00721050,KCPR,2022-10-31T15:53:00Z,42.9,-106.47,7.2,-5.0,210,17,,10.0,30.0,1014.9,,,TRUE,,,,,,,CLR,,,,,,,,VFR,,,,,,,,,,,,METAR,1623.0
KCOT 311553Z AUTO 10006KT 10SM CLR 24/14 A3003 RMK AO2 SLP161 T02390144,KCOT,2022-10-31T15:53:00Z,28.45,-99.22,23.9,14.4,100,6,,10.0,30.029528,1016.1,,TRUE,TRUE,,,,,,,CLR,,,,,,,,VFR,,,,,,,,,,,,METAR,144.0
KCNY 311553Z AUTO 14006KT 10SM CLR 07/00 A3015 RMK AO2 SLP210 T00670000,KCNY,2022-10-31T15:53:00Z,38.77,-109.75,6.7,0.0,140,6,,10.0,30.15059,1021.0,,TRUE,TRUE,,,,,,,CLR,,,,,,,,VFR,,,,,,,,,,,,METAR,1392.0
KCNO 311553Z 00000KT 10SM SCT200 16/07 A2996 RMK AO2 SLP142 T01560067,KCNO,2022-10-31T15:53:00Z,33.98,-117.62,15.6,6.7,0,0,,10.0,29.958662,1014.2,,,TRUE,,,,,,,SCT,20000,,,,,,,VFR,,,,,,,,,,,,METAR,191.0
KCNM 311553Z AUTO 34006KT 10SM CLR 14/04 A3008 RMK AO2 SLP159 T01390044,KCNM,2022-10-31T15:53:00Z,32.33,-104.25,13.9,4.4,340,6,,10.0,30.079725,1015.9,,TRUE,TRUE,,,,,,,CLR,,,,,,,,VFR,,,,,,,,,,,,METAR,993.0
KCMX 311553Z AUTO 25004KT 10SM CLR 13/05 A2980 RMK AO2 SLP098 T01280050,KCMX,2022-10-31T15:53:00Z,47.17,-88.48,12.8,5.0,250,4,,10.0,29.799213,1009.8,,TRUE,TRUE,,,,,,,CLR,,,,,,,,VFR,,,,,,,,,,,,METAR,326.0
KCMI 311553Z 23012KT 1/2SM R32R/P6000FT BR OVC002 13/13 A2984 RMK AO2 SFC VIS 1 3/4 SLP105 T01330133,KCMI,2022-10-31T15:53:00Z,40.03,-88.27,13.3,13.3,230,12,,0.5,29.840551,1010.5,,,TRUE,,,,,,BR,OVC,200,,,,,,,LIFR,,,,,,,,,,,,METAR,227.0
KCLM 311553Z AUTO 30012G20KT 10SM OVC060 11/07 A2977 RMK AO2 PK WND 31027/1504 RAE21 SLP083 P0002 T01060067,KCLM,2022-10-31T15:53:00Z,48.12,-123.5,10.6,6.7,300,12,20,10.0,29.769686,1008.3,,TRUE,TRUE,,,,,,,OVC,6000,,,,,,,VFR,,,,,,0.02,,,,,,METAR,81.0
KCLL 311553Z 27005KT 10SM CLR 21/13 A3007 RMK AO2 SLP179 T02110133,KCLL,2022-10-31T15:53:00Z,30.58,-96.37,21.1,13.3,270,5,,10.0,30.070866,1017.9,,,TRUE,,,,,,,CLR,,,,,,,,VFR,,,,,,,,,,,,METAR,96.0
KCKB 311553Z 19005KT 10SM BKN013 OVC019 18/15 A2999 RMK AO2 RAE20 SLP146 P0001 T01780150,KCKB,2022-10-31T15:53:00Z,39.3,-80.22,17.8,15.0,190,5,,10.0,29.991142,1014.6,,,TRUE,,,,,,,BKN,1300,OVC,1900,,,,,MVFR,,,,,,0.01,,,,,,METAR,368.0
KCHA 311553Z 18006KT 10SM SCT011 BKN048 OVC055 18/16 A3002 RMK AO2 SLP161 BINOVC T01780156 $,KCHA,2022-10-31T15:53:00Z,35.03,-85.2,17.8,15.6,180,6,,10.0,30.02067,1016.1,,,TRUE,TRUE,,,,,,SCT,1100,BKN,4800,OVC,5500,,,VFR,,,,,,,,,,,,METAR,203.0
KCGI 311553Z 28009KT 10SM BKN008 BKN022 OVC049 16/13 A2992 RMK AO2 SLP131 T01610133,KCGI,2022-10-31T15:53:00Z,37.23,-89.58,16.1,13.3,280,9,,10.0,29.920275,1013.1,,,TRUE,,,,,,,BKN,800,BKN,2200,OVC,4900,,,IFR,,,,,,,,,,,,METAR,103.0
KCEZ 311553Z AUTO 00000KT 10SM CLR 04/M03 A3018 RMK AO2 SLP207 T00441033,KCEZ,2022-10-31T15:53:00Z,37.3,-108.63,4.4,-3.3,0,0,,10.0,30.180119,1020.7,,TRUE,TRUE,,,,,,,CLR,,,,,,,,VFR,,,,,,,,,,,,METAR,1801.0
KCEW 311553Z AUTO 32006KT 10SM CLR 23/13 A3006 RMK AO2 SLP177 T02280133,KCEW,2022-10-31T15:53:00Z,30.78,-86.52,22.8,13.3,320,6,,10.0,30.059055,1017.7,,TRUE,TRUE,,,,,,,CLR,,,,,,,,VFR,,,,,,,,,,,,SPECI,47.0
KCDW 311553Z 24005KT 10SM CLR 14/08 A3009 RMK AO2 SLP193 T01440083,KCDW,2022-10-31T15:53:00Z,40.88,-74.28,14.4,8.3,240,5,,10.0,30.088583,1019.3,,,TRUE,,,,,,,CLR,,,,,,,,VFR,,,,,,,,,,,,METAR,52.0
KCDS 311553Z AUTO 36003KT 10SM CLR 16/07 A3008 RMK AO2 SLP177 T01560067,KCDS,2022-10-31T15:53:00Z,34.43,-100.28,15.6,6.7,360,3,,10.0,30.079725,1017.7,,TRUE,TRUE,,,,,,,CLR,,,,,,,,VFR,,,,,,,,,,,,METAR,595.0
KCDR 311553Z AUTO 25007KT 10SM CLR 11/M06 A2993 RMK AO2 SLP149 T01111061,KCDR,2022-10-31T15:53:00Z,42.83,-103.1,11.1,-6.1,250,7,,10.0,29.929134,1014.9,,TRUE,TRUE,,,,,,,CLR,,,,,,,,VFR,,,,,,,,,,,,METAR,1002.0
KCDC 311553Z AUTO 00000KT 10SM CLR 04/M02 A3019 RMK AO2 SLP212 T00441017,KCDC,2022-10-31T15:53:00Z,37.7,-113.1,4.4,-1.7,0,0,,10.0,30.188976,1021.2,,TRUE,TRUE,,,,,,,CLR,,,,,,,,VFR,,,,,,,,,,,,METAR,1703.0
KCCR 311553Z 00000KT 10SM CLR 11/08 A2999 RMK AO2 SLP140 T01110083,KCCR,2022-10-31T15:53:00Z,38.0,-122.05,11.1,8.3,0,0,,10.0,29.991142,1014.0,,,TRUE,,,,,,,CLR,,,,,,,,VFR,,,,,,,,,,,,METAR,6.0
KCAG 311553Z AUTO 00000KT 10SM CLR M01/M03 A3021 RMK AO2 SLP252 T10061033,KCAG,2022-10-31T15:53:00Z,40.5,-107.52,-0.6,-3.3,0,0,,10.0,30.209646,1025.2,,TRUE,TRUE,,,,,,,CLR,,,,,,,,VFR,,,,,,,,,,,,METAR,1888.0
KBYI 311553Z AUTO 08003KT 10SM CLR 07/M01 A3009 RMK AO2 SLP186 T00721006,KBYI,2022-10-31T15:53:00Z,42.55,-113.77,7.2,-0.6,80,3,,10.0,30.088583,1018.6,,TRUE,TRUE,,,,,,,CLR,,,,,,,,VFR,,,,,,,,,,,,METAR,1263.0
KBYG 311553Z AUTO 17008KT 10SM CLR 13/M07 A2989 RMK AO2 SLP100 T01331067,KBYG,2022-10-31T15:53:00Z,44.38,-106.72,13.3,-6.7,170,8,,10.0,29.890747,1010.0,,TRUE,TRUE,,,,,,,CLR,,,,,,,,VFR,,,,,,,,,,,,METAR,1503.0
KBWG 311553Z AUTO 23009KT 10SM BKN018 OVC024 19/14 A2995 RMK AO2 SLP137 T01890139,KBWG,2022-10-31T15:53:00Z,36.97,-86.42,18.9,13.9,230,9,,10.0,29.949802,1013.7,,TRUE,TRUE,,,,,,,BKN,1800,OVC,2400,,,,,MVFR,,,,,,,,,,,,SPECI,159.0
KBVY 311553Z 22008KT 10SM CLR 17/11 A3004 RMK AO2 SLP168 T01670106,KBVY,2022-10-31T15:53:00Z,42.58,-70.92,16.7,10.6,220,8,,10.0,30.041338,1016.8,,,TRUE,,,,,,,CLR,,,,,,,,VFR,,,,,,,,,,,,METAR,28.0
KBVO 311553Z AUTO VRB04KT 10SM CLR 17/08 A3003 RMK AO2 SLP162 T01720083,KBVO,2022-10-31T15:53:00Z,36.77,-96.02,17.2,8.3,0,4,,10.0,30.029528,1016.2,,TRUE,TRUE,,,,,,,CLR,,,,,,,,VFR,,,,,,,,,,,,SPECI,210.0
KBUR 311553Z 00000KT 10SM CLR 18/M01 A2994 RMK AO2 SLP126 T01781006,KBUR,2022-10-31T15:53:00Z,34.2,-118.37,17.8,-0.6,0,0,,10.0,29.940945,1012.6,,,TRUE,,,,,,,CLR,,,,,,,,VFR,,,,,,,,,,,,METAR,221.0
KBTR 311553Z VRB05KT 10SM FEW037 23/14 A3007 RMK AO2 SLP180 T02330139,KBTR,2022-10-31T15:53:00Z,30.53,-91.15,23.3,13.9,0,5,,10.0,30.070866,1018.0,,,TRUE,,,,,,,FEW,3700,,,,,,,VFR,,,,,,,,,,,,METAR,20.0
KBTM 311553Z AUTO 10SM OVC065 08/M01 A2992 RMK AO2 SLP114 T00831006,KBTM,2022-10-31T15:53:00Z,45.97,-112.5,8.3,-0.6,,,,10.0,29.920275,1011.4,,TRUE,TRUE,,,,,,,OVC,6500,,,,,,,VFR,,,,,,,,,,,,METAR,1680.0
KBTL 311553Z 00000KT 1/4SM R23/1800V2400FT FG VV002 14/13 A2984 RMK AO2 SLP106 T01390133,KBTL,2022-10-31T15:53:00Z,42.32,-85.25,13.9,13.3,0,0,,0.25,29.840551,1010.6,,,TRUE,,,,,,FG,OVX,0,,,,,,,LIFR,,,,,,,,,,,200,METAR,282.0
KBRO 311553Z 11010KT 10SM OVC060 26/17 A2999 RMK AO2 SLP152 T02610172,KBRO,2022-10-31T15:53:00Z,25.92,-97.42,26.1,17.2,110,10,,10.0,29.991142,1015.2,,,TRUE,,,,,,,OVC,6000,,,,,,,VFR,,,,,,,,,,,,METAR,6.0
KBRL 311553Z AUTO 31005KT 7SM CLR 12/08 A2988 RMK AO2 SLP119 T01220078,KBRL,2022-10-31T15:53:00Z,40.77,-91.13,12.2,7.8,310,5,,7.0,29.878937,1011.9,,TRUE,TRUE,,,,,,,CLR,,,,,,,,VFR,,,,,,,,,,,,METAR,208.0
KBRD 311553Z AUTO 20006KT 10SM CLR 11/00 A2982 RMK AO2 SLP108 T01110000,KBRD,2022-10-31T15:53:00Z,46.4,-94.13,11.1,0.0,200,6,,10.0,29.819881,1010.8,,TRUE,TRUE,,,,,,,CLR,,,,,,,,VFR,,,,,,,,,,,,METAR,372.0
KBPT 311553Z 29003KT 10SM CLR 23/14 A3006 RMK AO2 SLP178 T02280144,KBPT,2022-10-31T15:53:00Z,29.95,-94.03,22.8,14.4,290,3,,10.0,30.059055,1017.8,,,TRUE,,,,,,,CLR,,,,,,,,VFR,,,,,,,,,,,,METAR,6.0
KBPI 311553Z AUTO 27003KT 10SM CLR 01/M05 A3013 RMK AO2 SLP201 T00111050,KBPI,2022-10-31T15:53:00Z,42.58,-110.1,1.1,-5.0,270,3,,10.0,30.129921,1020.1,,TRUE,TRUE,,,,,,,CLR,,,,,,,,VFR,,,,,,,,,,,,METAR,2120.0
KBOI 311553Z 00000KT 10SM BKN070 05/01 A3005 RMK AO2 SLP180 T00500006,KBOI,2022-10-31T15:53:00Z,43.57,-116.23,5.0,0.6,0,0,,10.0,30.050198,1018.0,,,TRUE,,,,,,,BKN,7000,,,,,,,VFR,,,,,,,,,,,,METAR,860.0
KBNO 311553Z AUTO 00000KT 10SM CLR 04/M03 A3003 RMK AO2 SLP183 T00391028,KBNO,2022-10-31T15:53:00Z,43.6,-118.95,3.9,-2.8,0,0,,10.0,30.029528,1018.3,,TRUE,TRUE,,,,,,,CLR,,,,,,,,VFR,,,,,,,,,,,,METAR,1263.0
KBNA 311553Z 21006KT 10SM BKN015 BKN045 BKN060 17/13 A2999 RMK AO2 SLP152 T01720128,KBNA,2022-10-31T15:53:00Z,36.12,-86.68,17.2,12.8,210,6,,10.0,29.991142,1015.2,,,TRUE,,,,,,,BKN,1500,BKN,4500,BKN,6000,,,MVFR,,,,,,,,,,,,SPECI,168.0
KBMQ 311553Z AUTO 20004KT 10SM CLR 19/12 A3010 RMK AO2 SLP184 T01940117 $,KBMQ,2022-10-31T15:53:00Z,30.73,-98.23,19.4,11.7,200,4,,10.0,30.100393,1018.4,,TRUE,TRUE,TRUE,,,,,,CLR,,,,,,,,VFR,,,,,,,,,,,,METAR,387.0
KBMG 311553Z 20007KT 1 1/2SM -RA BR OVC006 15/14 A2987 RMK AO2 SLP113 P0003 T01500139,KBMG,2022-10-31T15:53:00Z,39.15,-86.62,15.0,13.9,200,7,,1.5,29.870079,1011.3,,,TRUE,,,,,,-RA BR,OVC,600,,,,,,,IFR,,,,,,0.03,,,,,,METAR,254.0
KBLI 311553Z 18012G21KT 10SM -RA BKN032 OVC044 12/11 A2971 RMK AO2 SLP066 P0003 T01170111,KBLI,2022-10-31T15:53:00Z,48.8,-122.53,11.7,11.1,180,12,21,10.0,29.71063,1006.6,,,TRUE,,,,,,-RA,BKN,3200,OVC,4400,,,,,VFR,,,,,,0.03,,,,,,METAR,46.0
KBKV 311553Z VRB04KT 10SM CLR 28/20 A3003 RMK AO2 SLP167 T02830200,KBKV,2022-10-31T15:53:00Z,28.47,-82.45,28.3,20.0,0,4,,10.0,30.029528,1016.7,,,TRUE,,,,,,,CLR,,,,,,,,VFR,,,,,,,,,,,,SPECI,21.0
KBKL 311553Z 17008KT 10SM SCT012 BKN060 BKN075 18/14 A2988 RMK AO2 SLP116 T01780144,KBKL,2022-10-31T15:53:00Z,41.53,-81.67,17.8,14.4,170,8,,10.0,29.878937,1011.6,,,TRUE,,,,,,,SCT,1200,BKN,6000,BKN,7500,,,VFR,,,,,,,,,,,,METAR,177.0
KBKE 311553Z AUTO 21006KT 10SM CLR 08/01 A2997 RMK AO2 SLP151 T00780011,KBKE,2022-10-31T15:53:00Z,44.85,-117.82,7.8,1.1,210,6,,10.0,29.970472,1015.1,,TRUE,TRUE,,,,,,,CLR,,,,,,,,VFR,,,,,,,,,,,,METAR,1025.0
KBIV 311553Z AUTO 19003KT 3SM BR OVC003 13/13 A2984 RMK AO2 SLP105 T01330128,KBIV,2022-10-31T15:53:00Z,42.75,-86.1,13.3,12.8,190,3,,3.0,29.840551,1010.5,,TRUE,TRUE,,,,,,BR,OVC,300,,,,,,,LIFR,,,,,,,,,,,,METAR,207.0
KBIL 311553Z 24016KT 10SM FEW110 SCT200 09/M03 A2984 RMK AO2 SLP102 ACSL DSNT SW-NE T00891033,KBIL,2022-10-31T15:53:00Z,45.8,-108.55,8.9,-3.3,240,16,,10.0,29.840551,1010.2,,,TRUE,,,,,,,FEW,11000,SCT,20000,,,,,VFR,,,,,,,,,,,,METAR,1089.0
KBHM 311553Z 25005KT 10SM FEW024 BKN044 OVC050 17/14 A3006 RMK AO2 SLP173 T01720139,KBHM,2022-10-31T15:53:00Z,33.57,-86.75,17.2,13.9,250,5,,10.0,30.059055,1017.3,,,TRUE,,,,,,,FEW,2400,BKN,4400,OVC,5000,,,VFR,,,,,,,,,,,,SPECI,191.0
KBGR 311553Z 20007KT 10SM FEW120 SCT250 15/06 A3001 RMK AO2 SLP160 T01500056,KBGR,2022-10-31T15:53:00Z,44.8,-68.82,15.0,5.6,200,7,,10.0,30.008858,1016.0,,,TRUE,,,,,,,FEW,12000,SCT,25000,,,,,VFR,,,,,,,,,,,,METAR,45.0
KBGM 311553Z 21006KT 10SM BKN070 12/07 A3000 RMK AO2 SLP163 T01170072,KBGM,2022-10-31T15:53:00Z,42.22,-75.98,11.7,7.2,210,6,,10.0,30.0,1016.3,,,TRUE,,,,,,,BKN,7000,,,,,,,VFR,,,,,,,,,,,,METAR,485.0
KBFM 311553Z 13005KT 10SM CLR 22/14 A3007 RMK AO2 SLP183 T02170144,KBFM,2022-10-31T15:53:00Z,30.62,-88.07,21.7,14.4,130,5,,10.0,30.070866,1018.3,,,TRUE,,,,,,,CLR,,,,,,,,VFR,,,,,,,,,,,,SPECI,7.0
KBFI 311553Z 17014G21KT 10SM BKN020 BKN029 OVC070 12/11 A2979 RMK AO2 SLP087 T01220106,KBFI,2022-10-31T15:53:00Z,47.55,-122.32,12.2,10.6,170,14,21,10.0,29.790354,1008.7,,,TRUE,,,,,,,BKN,2000,BKN,2900,OVC,7000,,,MVFR,,,,,,,,,,,,METAR,7.0
KBFF 311553Z AUTO 00000KT 10SM CLR 09/M05 A2998 RMK AO2 SLP150 T00891050,KBFF,2022-10-31T15:53:00Z,41.87,-103.6,8.9,-5.0,0,0,,10.0,29.97933,1015.0,,TRUE,TRUE,,,,,,,CLR,,,,,,,,VFR,,,,,,,,,,,,METAR,1204.0
KBFD 311553Z AUTO 17004KT 10SM FEW018 OVC075 12/08 A2998 RMK AO2 RAB1455E37 SLP151 P0001 T01220083,KBFD,2022-10-31T15:53:00Z,41.8,-78.63,12.2,8.3,170,4,,10.0,29.97933,1015.1,,TRUE,TRUE,,,,,,,FEW,1800,OVC,7500,,,,,VFR,,,,,,0.01,,,,,,METAR,642.0
KBEH 311553Z AUTO 12003KT 1SM BR OVC002 14/13 A2982 RMK AO2 SLP099 T01440133,KBEH,2022-10-31T15:53:00Z,42.13,-86.42,14.4,13.3,120,3,,1.0,29.819881,1009.9,,TRUE,TRUE,,,,,,BR,OVC,200,,,,,,,LIFR,,,,,,,,,,,,METAR,196.0
KBDE 311553Z AUTO 23009G17KT 10SM CLR 11/M01 A2968 RMK AO2 SLP061 T01061006,KBDE,2022-10-31T15:53:00Z,48.73,-94.62,10.6,-0.6,230,9,17,10.0,29.681103,1006.1,,TRUE,TRUE,,,,,,,CLR,,,,,,,,VFR,,,,,,,,,,,,METAR,330.0
KBCT 311553Z 13008KT 10SM SCT030 31/24 A2999,KBCT,2022-10-31T15:53:00Z,26.38,-80.1,31.0,24.0,130,8,,10.0,29.991142,,,,,,,,,,,SCT,3000,,,,,,,VFR,,,,,,,,,,,,METAR,3.0
KBCE 311553Z AUTO 30005KT 10SM CLR 02/M05 A3022 RMK AO2 SLP199 T00221050,KBCE,2022-10-31T15:53:00Z,37.7,-112.15,2.2,-5.0,300,5,,10.0,30.221457,1019.9,,TRUE,TRUE,,,,,,,CLR,,,,,,,,VFR,,,,,,,,,,,,METAR,2311.0
KBBW 311553Z AUTO 21006KT 10SM CLR 13/M03 A2992 RMK AO2 SLP137 T01281028,KBBW,2022-10-31T15:53:00Z,41.43,-99.63,12.8,-2.8,210,6,,10.0,29.920275,1013.7,,TRUE,TRUE,,,,,,,CLR,,,,,,,,VFR,,,,,,,,,,,,METAR,771.0
KBAF 311553Z 17005KT 10SM CLR 14/08 A3004 RMK AO2 SLP175 T01440083,KBAF,2022-10-31T15:53:00Z,42.17,-72.72,14.4,8.3,170,5,,10.0,30.041338,1017.5,,,TRUE,,,,,,,CLR,,,,,,,,VFR,,,,,,,,,,,,METAR,80.0
KAZO 311553Z 00000KT 1/2SM R35/4000VP6000FT FG OVC002 14/13 A2984 RMK AO2 SLP107 T01390133 $,KAZO,2022-10-31T15:53:00Z,42.23,-85.55,13.9,13.3,0,0,,0.5,29.840551,1010.7,,,TRUE,TRUE,,,,,FG,OVC,200,,,,,,,LIFR,,,,,,,,,,,,METAR,264.0
KAXN 311553Z AUTO 21009KT 10SM CLR 11/M01 A2984 RMK AO2 SLP114 T01111006,KAXN,2022-10-31T15:53:00Z,45.87,-95.4,11.1,-0.6,210,9,,10.0,29.840551,1011.4,,TRUE,TRUE,,,,,,,CLR,,,,,,,,VFR,,,,,,,,,,,,METAR,433.0
KAWM 311553Z AUTO 24006KT 10SM OVC013 16/13 A2998 RMK AO2 SLP150 T01610133,KAWM,2022-10-31T15:53:00Z,35.13,-90.23,16.1,13.3,240,6,,10.0,29.97933,1015.0,,TRUE,TRUE,,,,,,,OVC,1300,,,,,,,MVFR,,,,,,,,,,,,SPECI,64.0
KAUS 311553Z 18006KT 10SM SCT200 BKN300 22/14 A3006 RMK AO2 SLP175 T02170139,KAUS,2022-10-31T15:53:00Z,30.18,-97.68,21.7,13.9,180,6,,10.0,30.059055,1017.5,,,TRUE,,,,,,,SCT,20000,BKN,30000,,,,,VFR,,,,,,,,,,,,METAR,148.0
KAUG 311553Z AUTO 17007KT 140V210 10SM CLR 16/03 A3000 RMK AO2 SLP160 T01560033,KAUG,2022-10-31T15:53:00Z,44.32,-69.8,15.6,3.3,170,7,,10.0,30.0,1016.0,,TRUE,TRUE,,,,,,,CLR,,,,,,,,VFR,,,,,,,,,,,,METAR,107.0
KATY 311553Z AUTO 16006KT 10SM CLR 09/01 A2984 RMK AO2 SLP115 T00890011,KATY,2022-10-31T15:53:00Z,44.9,-97.15,8.9,1.1,160,6,,10.0,29.840551,1011.5,,TRUE,TRUE,,,,,,,CLR,,,,,,,,VFR,,,,,,,,,,,,METAR,531.0
KASX 311553Z AUTO 25007KT 10SM CLR 12/04 A2985 RMK AO2 SLP114 T01170044,KASX,2022-10-31T15:53:00Z,46.55,-90.92,11.7,4.4,250,7,,10.0,29.84941,1011.4,,TRUE,TRUE,,,,,,,CLR,,,,,,,,VFR,,,,,,,,,,,,METAR,249.0
KASE 311553Z 35003KT 10SM CLR 01/M07 A3020 RMK AO2 SLP205 T00111067,KASE,2022-10-31T15:53:00Z,39.23,-106.87,1.1,-6.7,350,3,,10.0,30.200787,1020.5,,,TRUE,,,,,,,CLR,,,,,,,,VFR,,,,,,,,,,,,METAR,2384.0
KASD 311553Z AUTO 00000KT 10SM FEW050 23/15 A3006 RMK AO2 SLP180 T02280150,KASD,2022-10-31T15:53:00Z,30.35,-89.82,22.8,15.0,0,0,,10.0,30.059055,1018.0,,TRUE,TRUE,,,,,,,FEW,5000,,,,,,,VFR,,,,,,,,,,,,SPECI,8.0
KARB 311553Z 00000KT 4SM -RA BR OVC003 14/13 A2984 RMK AO2 SLP105 P0008 T01390128,KARB,2022-10-31T15:53:00Z,42.22,-83.73,13.9,12.8,0,0,,4.0,29.840551,1010.5,,,TRUE,,,,,,-RA BR,OVC,300,,,,,,,LIFR,,,,,,0.08,,,,,,METAR,251.0
KARA 311553Z 31006KT 10SM CLR 23/13 A3006 RMK AO2 SLP180 T02330133,KARA,2022-10-31T15:53:00Z,30.03,-91.88,23.3,13.3,310,6,,10.0,30.059055,1018.0,,,TRUE,,,,,,,CLR,,,,,,,,VFR,,,,,,,,,,,,SPECI,5.0
KAQP 311553Z AUTO 00000KT 10SM 10/01 A2985 RMK AO2,KAQP,2022-10-31T15:53:00Z,45.22,-96.0,10.0,1.0,0,0,,10.0,29.84941,,,TRUE,TRUE,,,,,,,,,,,,,,,,,,,,,,,,,,,METAR,312.0
KAPF 311553Z 07008KT 10SM FEW028 29/24 A2997 RMK AO2 SLP147 T02940244 $,KAPF,2022-10-31T15:53:00Z,26.15,-81.77,29.4,24.4,70,8,,10.0,29.970472,1014.7,,,TRUE,TRUE,,,,,,FEW,2800,,,,,,,VFR,,,,,,,,,,,,SPECI,2.0
KAPA 311553Z 24008KT 10SM FEW200 11/M08 A3005 RMK AO2 SLP165 T01061083,KAPA,2022-10-31T15:53:00Z,39.57,-104.85,10.6,-8.3,240,8,,10.0,30.050198,1016.5,,,TRUE,,,,,,,FEW,20000,,,,,,,VFR,,,,,,,,,,,,METAR,1791.0
KAOO 311553Z AUTO 18003KT 10SM -RA FEW030 OVC100 11/08 A3002 RMK AO2 SLP169 P0001 T01110083,KAOO,2022-10-31T15:53:00Z,40.3,-78.32,11.1,8.3,180,3,,10.0,30.02067,1016.9,,TRUE,TRUE,,,,,,-RA,FEW,3000,OVC,10000,,,,,VFR,,,,,,0.01,,,,,,METAR,450.0
KANB 311553Z AUTO 23007KT 10SM CLR 20/14 A3004 RMK AO2 SLP168 T02000139,KANB,2022-10-31T15:53:00Z,33.58,-85.85,20.0,13.9,230,7,,10.0,30.041338,1016.8,,TRUE,TRUE,,,,,,,CLR,,,,,,,,VFR,,,,,,,,,,,,METAR,187.0
KAMW 311553Z AUTO 36003KT 10SM CLR 12/03 A2992 RMK AO2 SLP133 T01220033,KAMW,2022-10-31T15:53:00Z,41.98,-93.62,12.2,3.3,360,3,,10.0,29.920275,1013.3,,TRUE,TRUE,,,,,,,CLR,,,,,,,,VFR,,,,,,,,,,,,METAR,282.0
KAMG 311553Z AUTO 17009KT 10SM BKN020 BKN027 26/21 A3003 RMK AO2 SLP166 T02560206,KAMG,2022-10-31T15:53:00Z,31.53,-82.5,25.6,20.6,170,9,,10.0,30.029528,1016.6,,TRUE,TRUE,,,,,,,BKN,2000,BKN,2700,,,,,MVFR,,,,,,,,,,,,METAR,61.0
KAMA 311553Z 21006KT 10SM CLR 16/07 A3008 RMK AO2 SLP158 T01610067,KAMA,2022-10-31T15:53:00Z,35.22,-101.72,16.1,6.7,210,6,,10.0,30.079725,1015.8,,,TRUE,,,,,,,CLR,,,,,,,,VFR,,,,,,,,,,,,METAR,1102.0
KALW 311553Z 18005KT 10SM OVC060 12/07 A2986 RMK AO2 SLP111 T01220067,KALW,2022-10-31T15:53:00Z,46.1,-118.28,12.2,6.7,180,5,,10.0,29.861221,1011.1,,,TRUE,,,,,,,OVC,6000,,,,,,,VFR,,,,,,,,,,,,METAR,355.0
KALI 311553Z AUTO 11007KT 10SM FEW085 25/16 A3002 RMK AO2 SLP165 T02500161,KALI,2022-10-31T15:53:00Z,27.73,-98.02,25.0,16.1,110,7,,10.0,30.02067,1016.5,,TRUE,TRUE,,,,,,,FEW,8500,,,,,,,VFR,,,,,,,,,,,,METAR,52.0
KAKO 311553Z AUTO 24010KT 10SM CLR 10/M05 A3002 RMK AO2 SLP154 T01001050,KAKO,2022-10-31T15:53:00Z,40.17,-103.22,10.0,-5.0,240,10,,10.0,30.02067,1015.4,,TRUE,TRUE,,,,,,,CLR,,,,,,,,VFR,,,,,,,,,,,,METAR,1431.0
KAIA 311553Z AUTO 27011KT 10SM CLR 10/M04 A2995 RMK AO2 SLP144 T01001039,KAIA,2022-10-31T15:53:00Z,42.05,-102.8,10.0,-3.9,270,11,,10.0,29.949802,1014.4,,TRUE,TRUE,,,,,,,CLR,,,,,,,,VFR,,,,,,,,,,,,METAR,1198.0
KAGS 311553Z VRB05KT 10SM BKN007 OVC012 20/19 A3003 RMK AO2 CIG 004V010 SLP169 T02000189 $,KAGS,2022-10-31T15:53:00Z,33.37,-81.97,20.0,18.9,0,5,,10.0,30.029528,1016.9,,,TRUE,TRUE,,,,,,BKN,700,OVC,1200,,,,,IFR,,,,,,,,,,,,METAR,40.0
KAGC 311553Z 18006KT 5SM BR OVC006 14/13 A2996 RMK AO2 CIG 005V008 SLP150 T01390128,KAGC,2022-10-31T15:53:00Z,40.35,-79.92,13.9,12.8,180,6,,5.0,29.958662,1015.0,,,TRUE,,,,,,BR,OVC,600,,,,,,,IFR,,,,,,,,,,,,METAR,380.0
KAFW 311553Z 00000KT 10SM BKN250 17/11 A3006 RMK AO2 SLP176 T01720106,KAFW,2022-10-31T15:53:00Z,32.97,-97.32,17.2,10.6,0,0,,10.0,30.059055,1017.6,,,TRUE,,,,,,,BKN,25000,,,,,,,VFR,,,,,,,,,,,,METAR,208.0
KAEX 311553Z 00000KT 10SM CLR 22/14 A3005 RMK AO2 SLP179 T02220144,KAEX,2022-10-31T15:53:00Z,31.33,-92.57,22.2,14.4,0,0,,10.0,30.050198,1017.9,,,TRUE,,,,,,,CLR,,,,,,,,VFR,,,,,,,,,,,,METAR,25.0
KADG 311553Z AUTO 25004KT 4SM BR OVC003 14/14 A2985 RMK AO2 RAB1456E07 SLP112 P0001 T01440144,KADG,2022-10-31T15:53:00Z,41.87,-84.08,14.4,14.4,250,4,,4.0,29.84941,1011.2,,TRUE,TRUE,,,,,,BR,OVC,300,,,,,,,LIFR,,,,,,0.01,,,,,,METAR,244.0
KACV 311553Z AUTO 00000KT 10SM CLR 08/07 A3003 RMK AO2 SLP175 T00830072,KACV,2022-10-31T15:53:00Z,40.98,-124.1,8.3,7.2,0,0,,10.0,30.029528,1017.5,,TRUE,TRUE,,,,,,,CLR,,,,,,,,VFR,,,,,,,,,,,,METAR,63.0
KACK 311553Z 17005KT 10SM SCT026 19/15 A3008 RMK AO2 SLP186 T01890150,KACK,2022-10-31T15:53:00Z,41.25,-70.07,18.9,15.0,170,5,,10.0,30.079725,1018.6,,,TRUE,,,,,,,SCT,2600,,,,,,,VFR,,,,,,,,,,,,METAR,12.0
KABY 311553Z VRB04KT 10SM BKN012 BKN018 OVC026 24/19 A3004 RMK AO2 SLP170 T02390194,KABY,2022-10-31T15:53:00Z,31.53,-84.2,23.9,19.4,0,4,,10.0,30.041338,1017.0,,,TRUE,,,,,,,BKN,1200,BKN,1800,OVC,2600,,,MVFR,,,,,,,,,,,,METAR,60.0
KABR 311553Z AUTO 19008KT 10SM CLR 09/01 A2982 RMK AO2 SLP109 T00940011,KABR,2022-10-31T15:53:00Z,45.45,-98.42,9.4,1.1,190,8,,10.0,29.819881,1010.9,,TRUE,TRUE,,,,,,,CLR,,,,,,,,VFR,,,,,,,,,,,,METAR,397.0
KAAF 311553Z AUTO 35007KT 10SM CLR 23/18 A3003 RMK AO2 SLP167 T02330183,KAAF,2022-10-31T15:53:00Z,29.73,-85.03,23.3,18.3,350,7,,10.0,30.029528,1016.7,,TRUE,TRUE,,,,,,,CLR,,,,,,,,VFR,,,,,,,,,,,,METAR,5.0
CYAY 311553Z AUTO 23019G32KT 9SM -RA BKN018 OVC060 10/07 A2957 RMK SLP016,CYAY,2022-10-31T15:53:00Z,51.38,-56.07,10.0,7.0,230,19,32,9.0,29.568897,1001.6,,TRUE,,,,,,,-RA,BKN,1800,OVC,6000,,,,,MVFR,,,,,,,,,,,,SPECI,23.0
CBBC 311553Z AUTO 15003KT 9SM -RA SCT039 BKN055 OVC072 03/02 A2974 RMK SLP074,CBBC,2022-10-31T15:53:00Z,52.18,-128.15,3.0,2.0,150,3,,9.0,29.740158,1007.4,,TRUE,,,,,,,-RA,SCT,3900,BKN,5500,OVC,7200,,,VFR,,,,,,,,,,,,SPECI,36.0
PATA 311552Z 00000KT 10SM FEW040 OVC075 M09/M12 A2996 RMK AO2 SLP152 T10891122 $,PATA,2022-10-31T15:52:00Z,65.17,-152.1,-8.9,-12.2,0,0,,10.0,29.958662,1015.2,,,TRUE,TRUE,,,,,,FEW,4000,OVC,7500,,,,,VFR,,,,,,,,,,,,METAR,62.0
PABA 311552Z AUTO 07020KT 9SM -SN OVC009 M09/M11 A3008 RMK AO2 CIG 003V011 SLP191 T10891106 FZRANO PNO $,PABA,2022-10-31T15:52:00Z,70.13,-143.58,-8.9,-10.6,70,20,,9.0,30.079725,1019.1,,TRUE,TRUE,TRUE,,,TRUE,,-SN,OVC,900,,,,,,,IFR,,,,,,,,,,,,METAR,1.0
KVTN 311552Z AUTO 23008KT 10SM CLR 09/M05 A2990 RMK AO2 SLP140 T00891050,KVTN,2022-10-31T15:52:00Z,42.87,-100.55,8.9,-5.0,230,8,,10.0,29.899607,1014.0,,TRUE,TRUE,,,,,,,CLR,,,,,,,,VFR,,,,,,,,,,,,METAR,790.0
KTRM 311552Z AUTO 31003KT 10SM CLR 18/01 A2991 RMK AO2 SLP130 T01780011,KTRM,2022-10-31T15:52:00Z,33.63,-116.17,17.8,1.1,310,3,,10.0,29.911417,1013.0,,TRUE,TRUE,,,,,,,CLR,,,,,,,,VFR,,,,,,,,,,,,METAR,-39.0
KTOL 311552Z 23007KT 2 1/2SM R25/6000VP6000FT -RA BR OVC006 17/16 A2985 RMK AO2 RAB23 CIG 003V009 SLP106 P0000 T01670156 $,KTOL,2022-10-31T15:52:00Z,41.58,-83.8,16.7,15.6,230,7,,2.5,29.84941,1010.6,,,TRUE,TRUE,,,,,-RA BR,OVC,600,,,,,,,IFR,,,,,,0.005,,,,,,METAR,206.0
KTAN 311552Z AUTO A3007 RMK AO2 SLPNO PWINO FZRANO TSNO $,KTAN,2022-10-31T15:52:00Z,41.88,-71.02,,,,,,,30.070866,,,TRUE,TRUE,TRUE,,TRUE,TRUE,TRUE,,,,,,,,,,,,,,,,,,,,,,METAR,8.0
KSUX 311552Z 13006KT 10SM CLR 08/03 A2994 RMK AO2 SLP143 T00830028,KSUX,2022-10-31T15:52:00Z,42.38,-96.38,8.3,2.8,130,6,,10.0,29.940945,1014.3,,,TRUE,,,,,,,CLR,,,,,,,,VFR,,,,,,,,,,,,METAR,332.0
KSPS 311552Z 00000KT 10SM BKN250 17/11 A3006 RMK AO2 SLP174 T01670106,KSPS,2022-10-31T15:52:00Z,33.98,-98.5,16.7,10.6,0,0,,10.0,30.059055,1017.4,,,TRUE,,,,,,,BKN,25000,,,,,,,VFR,,,,,,,,,,,,METAR,310.0
KSPI 311552Z 25007KT 4SM -RA BR BKN004 OVC070 12/11 A2986 RMK AO2 SLP111 P0010 T01220111,KSPI,2022-10-31T15:52:00Z,39.85,-89.68,12.2,11.1,250,7,,4.0,29.861221,1011.1,,,TRUE,,,,,,-RA BR,BKN,400,OVC,7000,,,,,LIFR,,,,,,0.1,,,,,,METAR,179.0
KSGF 311552Z 31007KT 10SM FEW110 16/11 A2997 RMK AO2 SLP146 T01610106,KSGF,2022-10-31T15:52:00Z,37.23,-93.38,16.1,10.6,310,7,,10.0,29.970472,1014.6,,,TRUE,,,,,,,FEW,11000,,,,,,,VFR,,,,,,,,,,,,METAR,387.0
KREO 311552Z AUTO 06005KT 06/M05 A3004 RMK AO1 SLP177 T00611050 $,KREO,2022-10-31T15:52:00Z,42.58,-117.87,6.1,-5.0,60,5,,,30.041338,1017.7,,TRUE,TRUE,TRUE,,,,,,,,,,,,,,,,,,,,,,,,,,METAR,1237.0
KRAP 311552Z 28005KT 10SM CLR 13/M08 A2987 RMK AO2 SLP126 T01331078,KRAP,2022-10-31T15:52:00Z,44.05,-103.05,13.3,-7.8,280,5,,10.0,29.870079,1012.6,,,TRUE,,,,,,,CLR,,,,,,,,VFR,,,,,,,,,,,,METAR,965.0
KPYM 311552Z AUTO VRB04KT 10SM OVC016 16/12 A3007 RMK AO2 SLP186 T01560122,KPYM,2022-10-31T15:52:00Z,41.92,-70.73,15.6,12.2,0,4,,10.0,30.070866,1018.6,,TRUE,TRUE,,,,,,,OVC,1600,,,,,,,MVFR,,,,,,,,,,,,METAR,42.0
KPWK 311552Z 36007KT 1SM BR OVC003 13/12 A2985 RMK AO2 SLP108 T01280117,KPWK,2022-10-31T15:52:00Z,42.12,-87.9,12.8,11.7,360,7,,1.0,29.84941,1010.8,,,TRUE,,,,,,BR,OVC,300,,,,,,,LIFR,,,,,,,,,,,,METAR,194.0
KPPF 311552Z AUTO 29004KT 10SM FEW110 17/06 A3001 RMK AO2 SLP158 T01720061,KPPF,2022-10-31T15:52:00Z,37.33,-95.5,17.2,6.1,290,4,,10.0,30.008858,1015.8,,TRUE,TRUE,,,,,,,FEW,11000,,,,,,,VFR,,,,,,,,,,,,METAR,265.0
KP69 311552Z AUTO 30003KT 07/06 A2995 RMK AO1 SLP147 P0002 T00720061,KP69,2022-10-31T15:52:00Z,46.15,-115.6,7.2,6.1,300,3,,,29.949802,1014.7,,TRUE,TRUE,,,,,,,,,,,,,,,,,,,,,0.02,,,,,,METAR,447.0
KORE 311552Z AUTO 22009KT 10SM CLR 15/07 A3005 RMK AO2 SLP180 T01500072,KORE,2022-10-31T15:52:00Z,42.57,-72.28,15.0,7.2,220,9,,10.0,30.050198,1018.0,,TRUE,TRUE,,,,,,,CLR,,,,,,,,VFR,,,,,,,,,,,,METAR,165.0
KOMA 311552Z 00000KT 10SM SCT250 10/03 A2996 RMK AO2 SLP148 T01000028,KOMA,2022-10-31T15:52:00Z,41.32,-95.9,10.0,2.8,0,0,,10.0,29.958662,1014.8,,,TRUE,,,,,,,SCT,25000,,,,,,,VFR,,,,,,,,,,,,METAR,299.0
KOKC 311552Z 00000KT 10SM SCT250 16/06 A3006 RMK AO2 SLP173 T01560061,KOKC,2022-10-31T15:52:00Z,35.38,-97.6,15.6,6.1,0,0,,10.0,30.059055,1017.3,,,TRUE,,,,,,,SCT,25000,,,,,,,VFR,,,,,,,,,,,,METAR,391.0
KOKB 311552Z AUTO 00000KT 10SM CLR 14/05 A2992 RMK AO2 SLP132 T01390050,KOKB,2022-10-31T15:52:00Z,33.22,-117.35,13.9,5.0,0,0,,10.0,29.920275,1013.2,,TRUE,TRUE,,,,,,,CLR,,,,,,,,VFR,,,,,,,,,,,,METAR,7.0
KNZY 311552Z 05004KT 10SM SCT250 18/12 A2992 RMK AO2 SLP131 T01830122 $,KNZY,2022-10-31T15:52:00Z,32.7,-117.22,18.3,12.2,50,4,,10.0,29.920275,1013.1,,,TRUE,TRUE,,,,,,SCT,25000,,,,,,,VFR,,,,,,,,,,,,METAR,4.0
KNRB 311552Z 15007KT 10SM SCT030 SCT200 28/23 A3004 RMK AO2 SLP170 T02780228,KNRB,2022-10-31T15:52:00Z,30.38,-81.42,27.8,22.8,150,7,,10.0,30.041338,1017.0,,,TRUE,,,,,,,SCT,3000,SCT,20000,,,,,VFR,,,,,,,,,,,,METAR,4.0
KNFW 311552Z 30008KT 10SM BKN250 16/12 A3007 RMK AO2 SLP167 T01610122 $,KNFW,2022-10-31T15:52:00Z,32.78,-97.43,16.1,12.2,300,8,,10.0,30.070866,1016.7,,,TRUE,TRUE,,,,,,BKN,25000,,,,,,,VFR,,,,,,,,,,,,METAR,188.0
KNFG 311552Z 07003KT 10SM CLR 13/03 A2993 RMK AO2 SLP135 T01330033 $,KNFG,2022-10-31T15:52:00Z,33.3,-117.35,13.3,3.3,70,3,,10.0,29.929134,1013.5,,,TRUE,TRUE,,,,,,CLR,,,,,,,,VFR,,,,,,,,,,,,METAR,21.0
KN60 311552Z AUTO 27010KT 10/03 A2975 RMK AO1 SLP086 T01000028,KN60,2022-10-31T15:52:00Z,47.65,-101.43,10.0,2.8,270,10,,,29.749016,1008.6,,TRUE,TRUE,,,,,,,,,,,,,,,,,,,,,,,,,,,METAR,582.0
KMWH 311552Z 26004KT 10SM OVC090 11/07 A2977 RMK AO2 SLP083 T01110067,KMWH,2022-10-31T15:52:00Z,47.2,-119.32,11.1,6.7,260,4,,10.0,29.769686,1008.3,,,TRUE,,,,,,,OVC,9000,,,,,,,VFR,,,,,,,,,,,,METAR,355.0
KMLI 311552Z 27004KT 7SM CLR 12/08 A2986 RMK AO2 SLP114 T01220078,KMLI,2022-10-31T15:52:00Z,41.45,-90.52,12.2,7.8,270,4,,7.0,29.861221,1011.4,,,TRUE,,,,,,,CLR,,,,,,,,VFR,,,,,,,,,,,,METAR,174.0
KMLF 311552Z AUTO 20005KT 10SM CLR 02/M03 A3018 RMK AO2 SLP223 T00221033,KMLF,2022-10-31T15:52:00Z,38.42,-113.02,2.2,-3.3,200,5,,10.0,30.180119,1022.3,,TRUE,TRUE,,,,,,,CLR,,,,,,,,VFR,,,,,,,,,,,,METAR,1537.0
KMKE 311552Z 31004KT 8SM OVC025 13/09 A2985 RMK AO2 SLP108 T01330094,KMKE,2022-10-31T15:52:00Z,42.95,-87.9,13.3,9.4,310,4,,8.0,29.84941,1010.8,,,TRUE,,,,,,,OVC,2500,,,,,,,MVFR,,,,,,,,,,,,METAR,203.0
KMHK 311552Z VRB03KT 10SM CLR 14/03 A3001 RMK AO2 SLP160 T01390028,KMHK,2022-10-31T15:52:00Z,39.13,-96.68,13.9,2.8,0,3,,10.0,30.008858,1016.0,,,TRUE,,,,,,,CLR,,,,,,,,VFR,,,,,,,,,,,,METAR,320.0
KMFD 311552Z 19011KT 10SM BKN012 BKN019 BKN035 17/14 A2990 RMK AO2 RAE03 SLP122 P0001 T01720144,KMFD,2022-10-31T15:52:00Z,40.82,-82.52,17.2,14.4,190,11,,10.0,29.899607,1012.2,,,TRUE,,,,,,,BKN,1200,BKN,1900,BKN,3500,,,MVFR,,,,,,0.01,,,,,,METAR,394.0
KMEB 311552Z AUTO 14004KT 10SM FEW039 OVC060 22/16 A3008 RMK AO2 SLP182 T02220161,KMEB,2022-10-31T15:52:00Z,34.78,-79.37,22.2,16.1,140,4,,10.0,30.079725,1018.2,,TRUE,TRUE,,,,,,,FEW,3900,OVC,6000,,,,,VFR,,,,,,,,,,,,METAR,65.0
KMDH 311552Z 26007KT 5SM BR FEW007 OVC020 14/13 A2991 RMK AO2 RAB1458E11 SLP127 P0000 T01390133,KMDH,2022-10-31T15:52:00Z,37.78,-89.25,13.9,13.3,260,7,,5.0,29.911417,1012.7,,,TRUE,,,,,,BR,FEW,700,OVC,2000,,,,,MVFR,,,,,,0.005,,,,,,METAR,122.0
KMBG 311552Z AUTO 18003KT 10SM CLR 09/M01 A2980 RMK AO2 SLP098 T00941011,KMBG,2022-10-31T15:52:00Z,45.55,-100.42,9.4,-1.1,180,3,,10.0,29.799213,1009.8,,TRUE,TRUE,,,,,,,CLR,,,,,,,,VFR,,,,,,,,,,,,METAR,515.0
KLWC 311552Z AUTO 31007KT 10SM CLR 16/05 A2998 RMK AO1 SLP150 T01560050,KLWC,2022-10-31T15:52:00Z,39.02,-95.22,15.6,5.0,310,7,,10.0,29.97933,1015.0,,TRUE,TRUE,,,,,,,CLR,,,,,,,,VFR,,,,,,,,,,,,METAR,252.0
KIOW 311552Z AUTO 32004KT 10SM CLR 13/07 A2991 RMK AO2 SLP129 T01330067,KIOW,2022-10-31T15:52:00Z,41.63,-91.55,13.3,6.7,320,4,,10.0,29.911417,1012.9,,TRUE,TRUE,,,,,,,CLR,,,,,,,,VFR,,,,,,,,,,,,METAR,199.0
KIJD 311552Z AUTO 21004KT 10SM FEW027 16/10 A3009 RMK AO2 SLP190 T01560100,KIJD,2022-10-31T15:52:00Z,41.75,-72.18,15.6,10.0,210,4,,10.0,30.088583,1019.0,,TRUE,TRUE,,,,,,,FEW,2700,,,,,,,VFR,,,,,,,,,,,,METAR,73.0
KIEN 311552Z AUTO 26012KT 10SM CLR 11/M07 A2991 RMK AO2 SLP141 T01061067,KIEN,2022-10-31T15:52:00Z,43.03,-102.52,10.6,-6.7,260,12,,10.0,29.911417,1014.1,,TRUE,TRUE,,,,,,,CLR,,,,,,,,VFR,,,,,,,,,,,,METAR,1002.0
KIAD 311552Z 18007KT 10SM FEW030 BKN080 16/11 A3005 RMK AO2 SLP176 T01610111,KIAD,2022-10-31T15:52:00Z,38.93,-77.45,16.1,11.1,180,7,,10.0,30.050198,1017.6,,,TRUE,,,,,,,FEW,3000,BKN,8000,,,,,VFR,,,,,,,,,,,,METAR,90.0
KHUT 311552Z 30004KT 10SM CLR 12/01 A3003 RMK AO2 SLP161 T01220006,KHUT,2022-10-31T15:52:00Z,38.07,-97.87,12.2,0.6,300,4,,10.0,30.029528,1016.1,,,TRUE,,,,,,,CLR,,,,,,,,VFR,,,,,,,,,,,,METAR,464.0
KHRL 311552Z 11013KT 10SM OVC060 26/19 A2998 RMK AO2 SLP152 T02610189,KHRL,2022-10-31T15:52:00Z,26.23,-97.65,26.1,18.9,110,13,,10.0,29.97933,1015.2,,,TRUE,,,,,,,OVC,6000,,,,,,,VFR,,,,,,,,,,,,METAR,9.0
KHIE 311552Z AUTO 28003KT 10SM CLR 12/M02 A3000 RMK AO2 SLP167 T01221022,KHIE,2022-10-31T15:52:00Z,44.37,-71.55,12.2,-2.2,280,3,,10.0,30.0,1016.7,,TRUE,TRUE,,,,,,,CLR,,,,,,,,VFR,,,,,,,,,,,,METAR,321.0
KGON 311552Z 19004KT 10SM OVC030 17/13 A3008 RMK AO2,KGON,2022-10-31T15:52:00Z,41.33,-72.05,17.0,13.0,190,4,,10.0,30.079725,,,,TRUE,,,,,,,OVC,3000,,,,,,,MVFR,,,,,,,,,,,,SPECI,2.0
KGLS 311552Z 35007KT 10SM CLR 23/14 A3008 RMK AO2 SLP185 T02280139,KGLS,2022-10-31T15:52:00Z,29.27,-94.87,22.8,13.9,350,7,,10.0,30.079725,1018.5,,,TRUE,,,,,,,CLR,,,,,,,,VFR,,,,,,,,,,,,METAR,2.0
KFIT 311552Z AUTO VRB06KT 10SM FEW032 18/08 A3005 RMK AO2 SLP178 T01780078,KFIT,2022-10-31T15:52:00Z,42.55,-71.75,17.8,7.8,0,6,,10.0,30.050198,1017.8,,TRUE,TRUE,,,,,,,FEW,3200,,,,,,,VFR,,,,,,,,,,,,METAR,102.0
KEST 311552Z AUTO 28006KT 10SM CLR 14/01 A2990 RMK AO2 SLP132 T01390011,KEST,2022-10-31T15:52:00Z,43.4,-94.75,13.9,1.1,280,6,,10.0,29.899607,1013.2,,TRUE,TRUE,,,,,,,CLR,,,,,,,,VFR,,,,,,,,,,,,METAR,401.0
KDVN 311552Z AUTO 31003KT 8SM CLR 11/06 A2989 RMK AO2 SLP121 T01060061,KDVN,2022-10-31T15:52:00Z,41.62,-90.58,10.6,6.1,310,3,,8.0,29.890747,1012.1,,TRUE,TRUE,,,,,,,CLR,,,,,,,,VFR,,,,,,,,,,,,METAR,227.0
KDPA 311552Z 36006KT 1SM R02L/P6000FT BR OVC003 13/12 A2983 RMK AO2 SLP103 T01280117,KDPA,2022-10-31T15:52:00Z,41.88,-88.25,12.8,11.7,360,6,,1.0,29.828741,1010.3,,,TRUE,,,,,,BR,OVC,300,,,,,,,LIFR,,,,,,,,,,,,METAR,228.0
KDDC 311552Z AUTO 21005KT 9SM CLR 14/M01 A3003 RMK AO2 SLP167 T01391011,KDDC,2022-10-31T15:52:00Z,37.77,-99.97,13.9,-1.1,210,5,,9.0,30.029528,1016.7,,TRUE,TRUE,,,,,,,CLR,,,,,,,,VFR,,,,,,,,,,,,METAR,786.0
KDCA 311552Z 18006KT 10SM FEW009 SCT024 OVC070 17/13 A3007 RMK AO2 RAB06E18DZB31E41 SLP183 P0000 T01670133,KDCA,2022-10-31T15:52:00Z,38.85,-77.03,16.7,13.3,180,6,,10.0,30.070866,1018.3,,,TRUE,,,,,,,FEW,900,SCT,2400,OVC,7000,,,VFR,,,,,,0.005,,,,,,METAR,4.0
KCVG 311552Z 22008KT 8SM FEW014 BKN027 OVC040 17/14 A2991 RMK AO2 CIG 014 36R SLP122 T01670144,KCVG,2022-10-31T15:52:00Z,39.05,-84.67,16.7,14.4,220,8,,8.0,29.911417,1012.2,,,TRUE,,,,,,,FEW,1400,BKN,2700,OVC,4000,,,MVFR,,,,,,,,,,,,METAR,264.0
KCQX 311552Z AUTO VRB03KT 10SM OVC023 17/14 A3009 RMK AO2 SLP192 T01670139,KCQX,2022-10-31T15:52:00Z,41.68,-70.0,16.7,13.9,0,3,,10.0,30.088583,1019.2,,TRUE,TRUE,,,,,,,OVC,2300,,,,,,,MVFR,,,,,,,,,,,,METAR,17.0
KCNU 311552Z AUTO 29006KT 10SM CLR 18/07 A3000 RMK AO2 SLP154 T01780067,KCNU,2022-10-31T15:52:00Z,37.67,-95.48,17.8,6.7,290,6,,10.0,30.0,1015.4,,TRUE,TRUE,,,,,,,CLR,,,,,,,,VFR,,,,,,,,,,,,METAR,301.0
KCID 311552Z 33008KT 5SM HZ CLR 13/07 A2989 RMK AO2 SLP123 T01280067,KCID,2022-10-31T15:52:00Z,41.88,-91.72,12.8,6.7,330,8,,5.0,29.890747,1012.3,,,TRUE,,,,,,HZ,CLR,,,,,,,,MVFR,,,,,,,,,,,,METAR,257.0
KCFV 311552Z AUTO 25004KT 10SM CLR 18/07 A3000 RMK AO2 SLP156 T01780072,KCFV,2022-10-31T15:52:00Z,37.08,-95.57,17.8,7.2,250,4,,10.0,30.0,1015.6,,TRUE,TRUE,,,,,,,CLR,,,,,,,,VFR,,,,,,,,,,,,METAR,228.0
KBML 311552Z AUTO 34004KT 10SM CLR 14/M01 A2998 RMK AO2 SLP162 T01441006,KBML,2022-10-31T15:52:00Z,44.58,-71.18,14.4,-0.6,340,4,,10.0,29.97933,1016.2,,TRUE,TRUE,,,,,,,CLR,,,,,,,,VFR,,,,,,,,,,,,METAR,344.0
KBLU 311552Z AUTO 00000KT 10SM CLR 11/M03 A3011 RMK AO2 SLP147 T01061028,KBLU,2022-10-31T15:52:00Z,39.28,-120.7,10.6,-2.8,0,0,,10.0,30.109253,1014.7,,TRUE,TRUE,,,,,,,CLR,,,,,,,,VFR,,,,,,,,,,,,METAR,1605.0
KBLH 311552Z AUTO 00000KT 10SM CLR 17/M01 A2996 RMK AO2 SLP142 T01721006 TSNO,KBLH,2022-10-31T15:52:00Z,33.62,-114.72,17.2,-0.6,0,0,,10.0,29.958662,1014.2,,TRUE,TRUE,,,TRUE,,,,CLR,,,,,,,,VFR,,,,,,,,,,,,METAR,119.0
KBLF 311552Z AUTO 00000KT 1 1/2SM -RA BR FEW006 BKN033 OVC046 13/12 A3006 RMK AO2 RAB15 SLP162 P0003 T01330122,KBLF,2022-10-31T15:52:00Z,37.3,-81.2,13.3,12.2,0,0,,1.5,30.059055,1016.2,,TRUE,TRUE,,,,,,-RA BR,FEW,600,BKN,3300,OVC,4600,,,IFR,,,,,,0.03,,,,,,METAR,871.0
KBKB 311552Z AUTO 00000KT 10SM CLR 23/14 A3004 RMK AO2 RAB21E30 SLP199 P0000 T02280139,KBKB,2022-10-31T15:52:00Z,31.02,-92.92,22.8,13.9,0,0,,10.0,30.041338,1019.9,,TRUE,TRUE,,,,,,,CLR,,,,,,,,VFR,,,,,,0.005,,,,,,METAR,74.0
KBIS 311552Z 00000KT 10SM CLR 08/M01 A2979 RMK AO2 SLP101 T00831011,KBIS,2022-10-31T15:52:00Z,46.77,-100.75,8.3,-1.1,0,0,,10.0,29.790354,1010.1,,,TRUE,,,,,,,CLR,,,,,,,,VFR,,,,,,,,,,,,METAR,506.0
KBDR 311552Z 17006KT 10SM CLR 15/11 A3008 RMK AO2 SLP186 T01500111,KBDR,2022-10-31T15:52:00Z,41.17,-73.13,15.0,11.1,170,6,,10.0,30.079725,1018.6,,,TRUE,,,,,,,CLR,,,,,,,,VFR,,,,,,,,,,,,METAR,5.0
KBAN 311552Z AUTO 00000KT 10SM CLR M03/M13 A3012 RMK AO2 SLP205 T10281128 $,KBAN,2022-10-31T15:52:00Z,38.35,-119.52,-2.8,-12.8,0,0,,10.0,30.121063,1020.5,,TRUE,TRUE,TRUE,,,,,,CLR,,,,,,,,VFR,,,,,,,,,,,,METAR,2067.0
KATL 311552Z 20004KT 8SM SCT007 BKN016 BKN028 BKN200 19/18 A3002 RMK AO2 SLP162 T01890178 $,KATL,2022-10-31T15:52:00Z,33.63,-84.45,18.9,17.8,200,4,,8.0,30.02067,1016.2,,,TRUE,TRUE,,,,,,SCT,700,BKN,1600,BKN,2800,BKN,20000,MVFR,,,,,,,,,,,,METAR,309.0
KARR 311552Z 35005KT 1 1/2SM BR OVC004 12/12 A2984 RMK AO2 SLP105 T01220117,KARR,2022-10-31T15:52:00Z,41.77,-88.48,12.2,11.7,350,5,,1.5,29.840551,1010.5,,,TRUE,,,,,,BR,OVC,400,,,,,,,LIFR,,,,,,,,,,,,METAR,213.0
KAQW 311552Z AUTO 11006KT 10SM CLR 14/07 A3002 RMK AO2 SLP171 T01440072,KAQW,2022-10-31T15:52:00Z,42.7,-73.17,14.4,7.2,110,6,,10.0,30.02067,1017.1,,TRUE,TRUE,,,,,,,CLR,,,,,,,,VFR,,,,,,,,,,,,METAR,196.0
KALS 311552Z AUTO 00000KT 10SM CLR 03/M06 A3020 RMK AO2 SLP209 T00281061,KALS,2022-10-31T15:52:00Z,37.43,-105.87,2.8,-6.1,0,0,,10.0,30.200787,1020.9,,TRUE,TRUE,,,,,,,CLR,,,,,,,,VFR,,,,,,,,,,,,METAR,2299.0
KAFN 311552Z AUTO 22009G15KT 180V260 10SM CLR 15/07 A3004 RMK AO2 SLP182 T01500072,KAFN,2022-10-31T15:52:00Z,42.8,-72.0,15.0,7.2,220,9,15,10.0,30.041338,1018.2,,TRUE,TRUE,,,,,,,CLR,,,,,,,,VFR,,,,,,,,,,,,METAR,308.0
KABQ 311552Z VRB04KT 10SM FEW250 08/M04 A3017 RMK AO2 SLP187 T00831039,KABQ,2022-10-31T15:52:00Z,35.05,-106.62,8.3,-3.9,0,4,,10.0,30.171259,1018.7,,,TRUE,,,,,,,FEW,25000,,,,,,,VFR,,,,,,,,,,,,METAR,1620.0
KABI 311552Z 00000KT 10SM CLR 18/11 A3008 RMK AO2 SLP172 T01780111,KABI,2022-10-31T15:52:00Z,32.42,-99.68,17.8,11.1,0,0,,10.0,30.079725,1017.2,,,TRUE,,,,,,,CLR,,,,,,,,VFR,,,,,,,,,,,,METAR,543.0
CYWH 311552Z 23019G24KT 15SM FEW005 SCT040 BKN220 10/09 A2975 RMK SF2SC1CI3 PRESRR SLP077,CYWH,2022-10-31T15:52:00Z,48.42,-123.38,10.0,9.0,230,19,24,15.0,29.749016,1007.7,,,,,,,,,,FEW,500,SCT,4000,BKN,22000,,,VFR,,,,,,,,,,,,SPECI,4.0
CYPR 311552Z AUTO 12008KT 6SM -RA BR FEW013 OVC023 02/01 A2965 RMK PCPN 1.0MM PAST HR SLP044,CYPR,2022-10-31T15:52:00Z,54.28,-130.45,2.0,1.0,120,8,,6.0,29.648623,1004.4,,TRUE,,,,,,,-RA BR,FEW,1300,OVC,2300,,,,,MVFR,,,,,,,,,,,,SPECI,30.0
CYHK 311552Z AUTO 31008KT 9SM -SN OVC016 M16/M18 A2973 RMK SLP076,CYHK,2022-10-31T15:52:00Z,68.62,-95.85,-16.0,-18.0,310,8,,9.0,29.731298,1007.6,,TRUE,,,,,,,-SN,OVC,1600,,,,,,,MVFR,,,,,,,,,,,,SPECI,36.0
CYBK 311552Z CCA 01023KT 3/4SM -SN BLSN OVC026 M14/M16 A2951 RMK SC8 SLP998,CYBK,2022-10-31T15:52:00Z,64.3,-96.07,-14.0,-16.0,10,23,,0.75,29.509842,999.8,,,,,,,,,BLSN -SN,OVC,2600,,,,,,,LIFR,,,,,,,,,,,,SPECI,14.0
PHBK 311551Z AUTO 08004KT 10SM CLR 22/16 A3000 RMK AO2 SLP161 T02170156,PHBK,2022-10-31T15:51:00Z,22.03,-159.78,21.7,15.6,80,4,,10.0,30.0,1016.1,,TRUE,TRUE,,,,,,,CLR,,,,,,,,VFR,,,,,,,,,,,,METAR,5.0
MUGM 311551Z 09011KT 10SM FEW030 FEW060 32/23 A2991 RMK AO2 SLP128 T03170233 $,MUGM,2022-10-31T15:51:00Z,19.9,-75.2,31.7,23.3,90,11,,10.0,29.911417,1012.8,,,TRUE,TRUE,,,,,,FEW,3000,FEW,6000,,,,,VFR,,,,,,,,,,,,METAR,21.0
MMCE 311551Z 13007KT 7SM SKC 28/23 A2994 RMK HZY,MMCE,2022-10-31T15:51:00Z,18.65,-91.8,28.0,23.0,130,7,,7.0,29.940945,,,,,,,,,,,SKC,,,,,,,,VFR,,,,,,,,,,,,METAR,5.0
KYNG 311551Z 17007KT 10SM OVC005 14/12 A2993 RMK AO2 SLP135 T01390122,KYNG,2022-10-31T15:51:00Z,41.25,-80.67,13.9,12.2,170,7,,10.0,29.929134,1013.5,,,TRUE,,,,,,,OVC,500,,,,,,,IFR,,,,,,,,,,,,METAR,356.0
KXWA 311551Z AUTO 22009KT 10SM CLR 07/01 A2973 RMK AO2 SLP090 T00670006,KXWA,2022-10-31T15:51:00Z,48.27,-103.75,6.7,0.6,220,9,,10.0,29.731298,1009.0,,TRUE,TRUE,,,,,,,CLR,,,,,,,,VFR,,,,,,,,,,,,METAR,717.0
KVPZ 311551Z AUTO 06003KT 3SM BR OVC003 16/14 A2983 RMK AO2 RAE06 P0004,KVPZ,2022-10-31T15:51:00Z,41.45,-87.0,16.0,14.0,60,3,,3.0,29.828741,,,TRUE,TRUE,,,,,,BR,OVC,300,,,,,,,LIFR,,,,,,0.04,,,,,,SPECI,235.0
KVNY 311551Z 26003KT 10SM CLR 17/01 A2993 RMK AO2 SLP129 T01720006,KVNY,2022-10-31T15:51:00Z,34.22,-118.48,17.2,0.6,260,3,,10.0,29.929134,1012.9,,,TRUE,,,,,,,CLR,,,,,,,,VFR,,,,,,,,,,,,METAR,241.0
KVCT 311551Z 06004KT 10SM CLR 22/16 A3006 RMK AO2 SLP178 T02170161,KVCT,2022-10-31T15:51:00Z,28.87,-96.93,21.7,16.1,60,4,,10.0,30.059055,1017.8,,,TRUE,,,,,,,CLR,,,,,,,,VFR,,,,,,,,,,,,METAR,33.0
KTPL 311551Z AUTO 23007KT 10SM CLR 22/12 A3008 RMK AO2 SLP177 T02170122,KTPL,2022-10-31T15:51:00Z,31.15,-97.4,21.7,12.2,230,7,,10.0,30.079725,1017.7,,TRUE,TRUE,,,,,,,CLR,,,,,,,,VFR,,,,,,,,,,,,METAR,206.0
KTEB 311551Z 21003KT 10SM CLR 15/09 A3007 RMK AO2 SLP182 T01500089,KTEB,2022-10-31T15:51:00Z,40.87,-74.05,15.0,8.9,210,3,,10.0,30.070866,1018.2,,,TRUE,,,,,,,CLR,,,,,,,,VFR,,,,,,,,,,,,METAR,3.0
KSTL 311551Z 28007KT 10SM OVC010 14/11 A2990 RMK AO2 SLP122 T01390106 $,KSTL,2022-10-31T15:51:00Z,38.75,-90.37,13.9,10.6,280,7,,10.0,29.899607,1012.2,,,TRUE,TRUE,,,,,,OVC,1000,,,,,,,MVFR,,,,,,,,,,,,METAR,163.0
KSNT 311551Z AUTO 34003KT 01/M02 A3011 RMK AO1 SLP170 T00111017,KSNT,2022-10-31T15:51:00Z,44.17,-114.93,1.1,-1.7,340,3,,,30.109253,1017.0,,TRUE,TRUE,,,,,,,,,,,,,,,,,,,,,,,,,,,METAR,1980.0
KSMX 311551Z 00000KT 6SM BR SCT001 08/08 A2996 RMK AO2 SLP150 T00780078 $,KSMX,2022-10-31T15:51:00Z,34.9,-120.45,7.8,7.8,0,0,,6.0,29.958662,1015.0,,,TRUE,TRUE,,,,,BR,SCT,100,,,,,,,VFR,,,,,,,,,,,,METAR,73.0
KSMO 311551Z 00000KT 10SM CLR 17/06 A2994 RMK AO2 SLP137 T01720056,KSMO,2022-10-31T15:51:00Z,34.02,-118.45,17.2,5.6,0,0,,10.0,29.940945,1013.7,,,TRUE,,,,,,,CLR,,,,,,,,VFR,,,,,,,,,,,,METAR,56.0
KSLK 311551Z AUTO VRB04KT 10SM CLR 13/01 A2997 RMK AO2 SLP158 T01280006,KSLK,2022-10-31T15:51:00Z,44.4,-74.2,12.8,0.6,0,4,,10.0,29.970472,1015.8,,TRUE,TRUE,,,,,,,CLR,,,,,,,,VFR,,,,,,,,,,,,METAR,502.0
KSJT 311551Z 00000KT 10SM CLR 17/09 A3008 RMK AO2 SLP177 T01720089,KSJT,2022-10-31T15:51:00Z,31.37,-100.5,17.2,8.9,0,0,,10.0,30.079725,1017.7,,,TRUE,,,,,,,CLR,,,,,,,,VFR,,,,,,,,,,,,METAR,582.0
KSAT 311551Z VRB03KT 10SM BKN250 21/13 A3006 RMK AO2 SLP166 T02110128,KSAT,2022-10-31T15:51:00Z,29.53,-98.48,21.1,12.8,0,3,,10.0,30.059055,1016.6,,,TRUE,,,,,,,BKN,25000,,,,,,,VFR,,,,,,,,,,,,METAR,246.0
KSAN 311551Z 00000KT 10SM FEW010 SCT250 18/08 A2994 RMK AO2 SLP137 T01830083,KSAN,2022-10-31T15:51:00Z,32.73,-117.18,18.3,8.3,0,0,,10.0,29.940945,1013.7,,,TRUE,,,,,,,FEW,1000,SCT,25000,,,,,VFR,,,,,,,,,,,,METAR,3.0
KSAD 311551Z AUTO 00000KT 10SM CLR 13/M01 A3005 RMK AO2 SLP154 T01281011,KSAD,2022-10-31T15:51:00Z,32.85,-109.63,12.8,-1.1,0,0,,10.0,30.050198,1015.4,,TRUE,TRUE,,,,,,,CLR,,,,,,,,VFR,,,,,,,,,,,,METAR,937.0
KROW 311551Z 02005KT 10SM CLR 12/05 A3009 RMK AO2 SLP156 T01220050 $,KROW,2022-10-31T15:51:00Z,33.3,-104.5,12.2,5.0,20,5,,10.0,30.088583,1015.6,,,TRUE,TRUE,,,,,,CLR,,,,,,,,VFR,,,,,,,,,,,,METAR,1105.0
KRDU 311551Z 17006KT 10SM FEW032 SCT055 BKN160 BKN250 22/15 A3008 RMK AO2 SLP185 T02170150,KRDU,2022-10-31T15:51:00Z,35.9,-78.78,21.7,15.0,170,6,,10.0,30.079725,1018.5,,,TRUE,,,,,,,FEW,3200,SCT,5500,BKN,16000,BKN,25000,VFR,,,,,,,,,,,,METAR,121.0
KPWM 311551Z 22008KT 10SM BKN250 15/07 A3001 RMK AO2 SLP163 T01500067,KPWM,2022-10-31T15:51:00Z,43.65,-70.3,15.0,6.7,220,8,,10.0,30.008858,1016.3,,,TRUE,,,,,,,BKN,25000,,,,,,,VFR,,,,,,,,,,,,METAR,15.0
KPVD 311551Z 17006KT 10SM FEW014 OVC023 16/13 A3008 RMK AO2 SLP186 T01560128,KPVD,2022-10-31T15:51:00Z,41.72,-71.43,15.6,12.8,170,6,,10.0,30.079725,1018.6,,,TRUE,,,,,,,FEW,1400,OVC,2300,,,,,MVFR,,,,,,,,,,,,METAR,15.0
KPIT 311551Z 17004KT 10SM OVC007 13/13 A2995 RMK AO2 DZB15E38 SLP150 P0000 T01330128,KPIT,2022-10-31T15:51:00Z,40.47,-80.2,13.3,12.8,170,4,,10.0,29.949802,1015.0,,,TRUE,,,,,,,OVC,700,,,,,,,IFR,,,,,,0.005,,,,,,METAR,339.0
KPHX 311551Z 11006KT 10SM CLR 18/02 A2996 RMK AO2 SLP133 T01830022,KPHX,2022-10-31T15:51:00Z,33.43,-112.02,18.3,2.2,110,6,,10.0,29.958662,1013.3,,,TRUE,,,,,,,CLR,,,,,,,,VFR,,,,,,,,,,,,METAR,338.0
KP59 311551Z AUTO 00000KT 12/06 A2980 RMK AO1 SLP094 T01220056,KP59,2022-10-31T15:51:00Z,47.47,-87.88,12.2,5.6,0,0,,,29.799213,1009.4,,TRUE,TRUE,,,,,,,,,,,,,,,,,,,,,,,,,,,METAR,185.0
KOXR 311551Z 01004KT 10SM CLR 15/05 A2993 RMK AO2 SLP134 T01500050 $,KOXR,2022-10-31T15:51:00Z,34.2,-119.2,15.0,5.0,10,4,,10.0,29.929134,1013.4,,,TRUE,TRUE,,,,,,CLR,,,,,,,,VFR,,,,,,,,,,,,METAR,12.0
KOXC 311551Z 27006KT 10SM CLR 14/09 A3008 RMK AO2 SLP199 T01440089,KOXC,2022-10-31T15:51:00Z,41.47,-73.13,14.4,8.9,270,6,,10.0,30.079725,1019.9,,,TRUE,,,,,,,CLR,,,,,,,,VFR,,,,,,,,,,,,METAR,211.0
KORF 311551Z 12004KT 10SM SCT047 OVC060 19/14 A3011 RMK AO2 SLP194 T01940139,KORF,2022-10-31T15:51:00Z,36.9,-76.2,19.4,13.9,120,4,,10.0,30.109253,1019.4,,,TRUE,,,,,,,SCT,4700,OVC,6000,,,,,VFR,,,,,,,,,,,,METAR,5.0
KORD 311551Z 02007KT 2 1/2SM BR OVC004 13/12 A2983 RMK AO2 SLP101 T01330117,KORD,2022-10-31T15:51:00Z,41.95,-87.93,13.3,11.7,20,7,,2.5,29.828741,1010.1,,,TRUE,,,,,,BR,OVC,400,,,,,,,LIFR,,,,,,,,,,,,METAR,202.0
KOCF 311551Z 19006KT 10SM BKN025 BKN035 BKN045 27/22 A3004 RMK AO2 SLP171 T02720217 PNO $,KOCF,2022-10-31T15:51:00Z,29.17,-82.22,27.2,21.7,190,6,,10.0,30.041338,1017.1,,,TRUE,TRUE,,,,,,BKN,2500,BKN,3500,BKN,4500,,,MVFR,,,,,,,,,,,,METAR,24.0
KNYC 311551Z AUTO 00000KT 10SM CLR 16/09 A3010 RMK AO2 SLP183 T01610089 $,KNYC,2022-10-31T15:51:00Z,40.78,-73.97,16.1,8.9,0,0,,10.0,30.100393,1018.3,,TRUE,TRUE,TRUE,,,,,,CLR,,,,,,,,VFR,,,,,,,,,,,,METAR,33.0
KMYL 311551Z AUTO 00000KT 10SM SCT100 SCT110 07/M01 A3001 RMK AO2 SLP158 T00721011,KMYL,2022-10-31T15:51:00Z,44.9,-116.1,7.2,-1.1,0,0,,10.0,30.008858,1015.8,,TRUE,TRUE,,,,,,,SCT,10000,SCT,11000,,,,,VFR,,,,,,,,,,,,METAR,1532.0
KMPV 311551Z AUTO 02004KT 10SM CLR 13/00 A3003 RMK AO2 SLP175 T01330000,KMPV,2022-10-31T15:51:00Z,44.2,-72.57,13.3,0.0,20,4,,10.0,30.029528,1017.5,,TRUE,TRUE,,,,,,,CLR,,,,,,,,VFR,,,,,,,,,,,,METAR,336.0
KLGU 311551Z AUTO 00000KT 10SM CLR 03/M01 A3017 RMK AO2 SLP224 T00281006,KLGU,2022-10-31T15:51:00Z,41.78,-111.85,2.8,-0.6,0,0,,10.0,30.171259,1022.4,,TRUE,TRUE,,,,,,,CLR,,,,,,,,VFR,,,,,,,,,,,,METAR,1359.0
KLGA 311551Z 21007KT 10SM SCT140 BKN250 17/08 A3007 RMK AO2 SLP183 T01670083 $,KLGA,2022-10-31T15:51:00Z,40.78,-73.88,16.7,8.3,210,7,,10.0,30.070866,1018.3,,,TRUE,TRUE,,,,,,SCT,14000,BKN,25000,,,,,VFR,,,,,,,,,,,,METAR,9.0
KJFK 311551Z 20007KT 10SM FEW045 SCT140 BKN250 16/10 A3009 RMK AO2 SLP188 T01610100,KJFK,2022-10-31T15:51:00Z,40.63,-73.77,16.1,10.0,200,7,,10.0,30.088583,1018.8,,,TRUE,,,,,,,FEW,4500,SCT,14000,BKN,25000,,,VFR,,,,,,,,,,,,METAR,3.0
KJCT 311551Z AUTO 00000KT 10SM CLR 16/09 A3009 RMK AO2 SLP168 T01560094,KJCT,2022-10-31T15:51:00Z,30.5,-99.77,15.6,9.4,0,0,,10.0,30.088583,1016.8,,TRUE,TRUE,,,,,,,CLR,,,,,,,,VFR,,,,,,,,,,,,METAR,522.0
KILG 311551Z 16005KT 10SM SCT010 BKN027 OVC110 16/13 A3009 RMK AO2 SLP189 T01610128,KILG,2022-10-31T15:51:00Z,39.67,-75.6,16.1,12.8,160,5,,10.0,30.088583,1018.9,,,TRUE,,,,,,,SCT,1000,BKN,2700,OVC,11000,,,MVFR,,,,,,,,,,,,METAR,22.0
KIGM 311551Z AUTO 04005KT 10SM CLR 14/M05 A3009 RMK AO2 SLP147 T01441050,KIGM,2022-10-31T15:51:00Z,35.25,-113.93,14.4,-5.0,40,5,,10.0,30.088583,1014.7,,TRUE,TRUE,,,,,,,CLR,,,,,,,,VFR,,,,,,,,,,,,METAR,1045.0
KHTS 311551Z 21005KT 10SM SCT008 BKN017 OVC031 17/16 A2997 RMK AO2 SLP143 T01720156,KHTS,2022-10-31T15:51:00Z,38.37,-82.55,17.2,15.6,210,5,,10.0,29.970472,1014.3,,,TRUE,,,,,,,SCT,800,BKN,1700,OVC,3100,,,MVFR,,,,,,,,,,,,METAR,252.0
KHSE 311551Z AUTO 07004KT 10SM CLR 22/14 A3010 RMK AO2 SLP193 T02170139,KHSE,2022-10-31T15:51:00Z,35.23,-75.62,21.7,13.9,70,4,,10.0,30.100393,1019.3,,TRUE,TRUE,,,,,,,CLR,,,,,,,,VFR,,,,,,,,,,,,METAR,4.0
KHDO 311551Z AUTO 07005KT 10SM CLR 21/14 A3006 RMK AO2 SLP171 T02060139,KHDO,2022-10-31T15:51:00Z,29.37,-99.17,20.6,13.9,70,5,,10.0,30.059055,1017.1,,TRUE,TRUE,,,,,,,CLR,,,,,,,,VFR,,,,,,,,,,,,METAR,280.0
KGDP 311551Z AUTO 06016KT 9SM CLR 14/04 A3012 RMK AO2 SLP155 T01390044,KGDP,2022-10-31T15:51:00Z,31.83,-104.82,13.9,4.4,60,16,,9.0,30.121063,1015.5,,TRUE,TRUE,,,,,,,CLR,,,,,,,,VFR,,,,,,,,,,,,METAR,1664.0
KFWS 311551Z 00000KT 10SM CLR 20/12 A3008,KFWS,2022-10-31T15:51:00Z,32.57,-97.3,20.0,12.0,0,0,,10.0,30.079725,,,,,,,,,,,CLR,,,,,,,,VFR,,,,,,,,,,,,METAR,211.0
KEWR 311551Z 26008KT 10SM SCT140 BKN240 17/10 A3008 RMK AO2 SLP186 T01670100,KEWR,2022-10-31T15:51:00Z,40.68,-74.17,16.7,10.0,260,8,,10.0,30.079725,1018.6,,,TRUE,,,,,,,SCT,14000,BKN,24000,,,,,VFR,,,,,,,,,,,,METAR,2.0
KERI 311551Z 17015KT 10SM -RA FEW014 SCT027 OVC048 15/12 A2990 RMK AO2 RAB30E40B51 SLP125 P0000 T01500117,KERI,2022-10-31T15:51:00Z,42.08,-80.18,15.0,11.7,170,15,,10.0,29.899607,1012.5,,,TRUE,,,,,,-RA,FEW,1400,SCT,2700,OVC,4800,,,VFR,,,,,,0.005,,,,,,METAR,222.0
KELP 311551Z 02011KT 10SM FEW180 FEW220 BKN250 15/00 A3007 RMK AO2 SLP137 T01500000,KELP,2022-10-31T15:51:00Z,31.82,-106.35,15.0,0.0,20,11,,10.0,30.070866,1013.7,,,TRUE,,,,,,,FEW,18000,FEW,22000,BKN,25000,,,VFR,,,,,,,,,,,,METAR,1205.0
KEKN 311551Z AUTO 00000KT 10SM BKN023 BKN030 OVC050 16/13 A3002 RMK AO2 SLP170 T01560133,KEKN,2022-10-31T15:51:00Z,38.88,-79.85,15.6,13.3,0,0,,10.0,30.02067,1017.0,,TRUE,TRUE,,,,,,,BKN,2300,BKN,3000,OVC,5000,,,MVFR,,,,,,,,,,,,METAR,596.0
KDAW 311551Z AUTO VRB06KT 10SM CLR 17/07 A3002 RMK AO2 SLP163 T01720067,KDAW,2022-10-31T15:51:00Z,43.28,-70.92,17.2,6.7,0,6,,10.0,30.02067,1016.3,,TRUE,TRUE,,,,,,,CLR,,,,,,,,VFR,,,,,,,,,,,,METAR,100.0
KCSG 311551Z 27006KT 10SM FEW024 OVC050 21/17 A3003 RMK AO2 SLP165 T02060167,KCSG,2022-10-31T15:51:00Z,32.52,-84.95,20.6,16.7,270,6,,10.0,30.029528,1016.5,,,TRUE,,,,,,,FEW,2400,OVC,5000,,,,,VFR,,,,,,,,,,,,METAR,120.0
KCRP 311551Z 09011G22KT 10SM FEW028 FEW070 FEW200 BKN250 26/17 A3002 RMK AO2 SLP164 T02610167,KCRP,2022-10-31T15:51:00Z,27.77,-97.5,26.1,16.7,90,11,22,10.0,30.02067,1016.4,,,TRUE,,,,,,,FEW,2800,FEW,7000,FEW,20000,BKN,25000,VFR,,,,,,,,,,,,METAR,11.0
KCON 311551Z AUTO 10SM CLR 16/03 A3002 RMK AO2 SLP168 T01560033,KCON,2022-10-31T15:51:00Z,43.2,-71.5,15.6,3.3,,,,10.0,30.02067,1016.8,,TRUE,TRUE,,,,,,,CLR,,,,,,,,VFR,,,,,,,,,,,,METAR,102.0
KCMH 311551Z 19012G17KT 10SM BKN018 BKN025 OVC034 18/15 A2991 RMK AO2 SLP126 T01780150,KCMH,2022-10-31T15:51:00Z,40.0,-82.88,17.8,15.0,190,12,17,10.0,29.911417,1012.6,,,TRUE,,,,,,,BKN,1800,BKN,2500,OVC,3400,,,MVFR,,,,,,,,,,,,METAR,257.0
KCLE 311551Z 20013KT 8SM -RA BKN012 OVC021 17/14 A2987 RMK AO2 RAB49 SLP129 P0000 T01720139,KCLE,2022-10-31T15:51:00Z,41.42,-81.85,17.2,13.9,200,13,,8.0,29.870079,1012.9,,,TRUE,,,,,,-RA,BKN,1200,OVC,2100,,,,,MVFR,,,,,,0.005,,,,,,METAR,237.0
KCDJ 311551Z AUTO VRB04KT 17/06 A2995 RMK AO1 SLP138 T01720061,KCDJ,2022-10-31T15:51:00Z,39.82,-93.57,17.2,6.1,0,4,,,29.949802,1013.8,,TRUE,TRUE,,,,,,,,,,,,,,,,,,,,,,,,,,,METAR,234.0
KCAK 311551Z 21012KT 2SM BR OVC003 16/14 A2992 RMK AO2 SFC VIS 3 SLP131 T01560139,KCAK,2022-10-31T15:51:00Z,40.92,-81.45,15.6,13.9,210,12,,2.0,29.920275,1013.1,,,TRUE,,,,,,BR,OVC,300,,,,,,,LIFR,,,,,,,,,,,,METAR,369.0
KBKW 311551Z AUTO 14006KT 1 1/2SM -RA BR BKN025 BKN030 OVC036 13/13 A3004 RMK AO2 SLP162 P0005 T01330128,KBKW,2022-10-31T15:51:00Z,37.8,-81.12,13.3,12.8,140,6,,1.5,30.041338,1016.2,,TRUE,TRUE,,,,,,-RA BR,BKN,2500,BKN,3000,OVC,3600,,,IFR,,,,,,0.05,,,,,,METAR,762.0
KBJJ 311551Z AUTO 20006KT 7SM OVC006 16/14 A2992 RMK AO2 CIG 004V009,KBJJ,2022-10-31T15:51:00Z,40.87,-81.88,16.0,14.0,200,6,,7.0,29.920275,,,TRUE,TRUE,,,,,,,OVC,600,,,,,,,IFR,,,,,,,,,,,,SPECI,338.0
KBHK 311551Z AUTO 24011KT 10SM CLR 11/M02 A2982 RMK AO2 SLP101 T01061022,KBHK,2022-10-31T15:51:00Z,46.35,-104.25,10.6,-2.2,240,11,,10.0,29.819881,1010.1,,TRUE,TRUE,,,,,,,CLR,,,,,,,,VFR,,,,,,,,,,,,METAR,904.0
KBGD 311551Z AUTO 16003KT 10SM CLR 14/05 A3009 RMK AO2 SLP170 T01440050,KBGD,2022-10-31T15:51:00Z,35.7,-101.4,14.4,5.0,160,3,,10.0,30.088583,1017.0,,TRUE,TRUE,,,,,,,CLR,,,,,,,,VFR,,,,,,,,,,,,METAR,928.0
KBED 311551Z 21010KT 180V250 10SM SCT037 17/11 A3004 RMK AO2 SLP186 T01720106,KBED,2022-10-31T15:51:00Z,42.47,-71.3,17.2,10.6,210,10,,10.0,30.041338,1018.6,,,TRUE,,,,,,,SCT,3700,,,,,,,VFR,,,,,,,,,,,,METAR,39.0
KBDL 311551Z 17005KT 10SM FEW040 BKN150 BKN250 17/09 A3005 RMK AO2 SLP177 T01720089,KBDL,2022-10-31T15:51:00Z,41.93,-72.68,17.2,8.9,170,5,,10.0,30.050198,1017.7,,,TRUE,,,,,,,FEW,4000,BKN,15000,BKN,25000,,,VFR,,,,,,,,,,,,METAR,52.0
KBAZ 311551Z AUTO 23006KT 10SM CLR 23/14 A3005 RMK AO2 SLP171 T02330144,KBAZ,2022-10-31T15:51:00Z,29.72,-98.05,23.3,14.4,230,6,,10.0,30.050198,1017.1,,TRUE,TRUE,,,,,,,CLR,,,,,,,,VFR,,,,,,,,,,,,METAR,199.0
KAVX 311551Z AUTO 00000KT 10SM CLR 24/M03 A2997 RMK AO2 SLP121 T02391033,KAVX,2022-10-31T15:51:00Z,33.4,-118.42,23.9,-3.3,0,0,,10.0,29.970472,1012.1,,TRUE,TRUE,,,,,,,CLR,,,,,,,,VFR,,,,,,,,,,,,METAR,482.0
KATT 311551Z AUTO VRB03KT 10SM CLR 18/12 A3008 RMK AO2 SLP180 T01830122,KATT,2022-10-31T15:51:00Z,30.32,-97.77,18.3,12.2,0,3,,10.0,30.079725,1018.0,,TRUE,TRUE,,,,,,,CLR,,,,,,,,VFR,,,,,,,,,,,,METAR,203.0
KALB 311551Z 14005KT 10SM SCT170 BKN250 13/06 A3004 RMK AO2 SLP172 T01280056,KALB,2022-10-31T15:51:00Z,42.75,-73.8,12.8,5.6,140,5,,10.0,30.041338,1017.2,,,TRUE,,,,,,,SCT,17000,BKN,25000,,,,,VFR,,,,,,,,,,,,METAR,82.0
KAHN 311551Z 36003KT 4SM BR OVC004 16/15 A3004 RMK AO2 SLP172 T01610150,KAHN,2022-10-31T15:51:00Z,33.95,-83.33,16.1,15.0,360,3,,4.0,30.041338,1017.2,,,TRUE,,,,,,BR,OVC,400,,,,,,,LIFR,,,,,,,,,,,,METAR,241.0
KACT 311551Z 00000KT 10SM CLR 20/13 A3007 RMK AO2 SLP179 T02000128,KACT,2022-10-31T15:51:00Z,31.62,-97.23,20.0,12.8,0,0,,10.0,30.070866,1017.9,,,TRUE,,,,,,,CLR,,,,,,,,VFR,,,,,,,,,,,,METAR,150.0
KABE 311551Z 00000KT 10SM OVC120 13/09 A3007 RMK AO2 SLP183 T01330089,KABE,2022-10-31T15:51:00Z,40.65,-75.45,13.3,8.9,0,0,,10.0,30.070866,1018.3,,,TRUE,,,,,,,OVC,12000,,,,,,,VFR,,,,,,,,,,,,METAR,117.0
K6R6 311551Z AUTO 07004KT 16/09 A3006 RMK AO1 SLP161 T01560094,K6R6,2022-10-31T15:51:00Z,30.05,-102.22,15.6,9.4,70,4,,,30.059055,1016.1,,TRUE,TRUE,,,,,,,,,,,,,,,,,,,,,,,,,,,METAR,702.0
YSTW 311550Z AUTO 31018G28KT 2700 SHRA SCT013 SCT020 BKN025 17/16 Q0997,YSTW,2022-10-31T15:50:00Z,-31.08,150.85,17.0,16.0,310,18,28,1.68,29.438976,,,TRUE,,,,,,,SHRA,SCT,1300,SCT,2000,BKN,2500,,,IFR,,,,,,,,,,,,SPECI,404.0
YCDU 311550Z AUTO 27024G42KT 4600 RA BKN014 BKN025 BKN042 11/10 Q1002,YCDU,2022-10-31T15:50:00Z,-32.12,133.7,11.0,10.0,270,24,42,2.86,29.586615,,,TRUE,,,,,,,RA,BKN,1400,BKN,2500,BKN,4200,,,IFR,,,,,,,,,,,,SPECI,21.0
TJBQ 311550Z 07008KT 10SM CLR 30/23 A2996 RMK LTG DSNT S,TJBQ,2022-10-31T15:50:00Z,18.5,-67.13,30.0,23.0,70,8,,10.0,29.958662,,,,,,,,,,,CLR,,,,,,,,VFR,,,,,,,,,,,,SPECI,69.0
PTRO 311550Z 14003KT 13SM SCT014CB BKN280 24/23 A2978 RMK CB ALQDS,PTRO,2022-10-31T15:50:00Z,7.37,134.55,24.0,23.0,140,3,,13.0,29.778543,,,,,,,,,,,SCT,1400,BKN,28000,,,,,VFR,,,,,,,,,,,,METAR,30.0
NZSP 311550Z 04013KT 1200 IC BLSN SCT008 OVC040 M41/ A2833 RMK CLN AIR 03016KT ALL WNDS GRID SDG/HDP,NZSP,2022-10-31T15:50:00Z,-89.98,179.98,-41.0,,40,13,,0.75,28.328741,,,,,,,,,,IC BLSN,SCT,800,OVC,4000,,,,,LIFR,,,,,,,,,,,,METAR,2830.0
MSLP 311550Z 03006KT 360V070 CAVOK 31/20 Q1011 A2988 NOSIG,MSLP,2022-10-31T15:50:00Z,13.43,-89.05,31.0,20.0,30,6,,6.21,29.852362,,,,,,TRUE,,,,,CAVOK,,,,,,,,VFR,,,,,,,,,,,,METAR,25.0
MMCP 311550Z 10005KT 7SM FEW015 29/23 A2996 RMK 8/100 HZY,MMCP,2022-10-31T15:50:00Z,19.82,-90.5,29.0,23.0,100,5,,7.0,29.958662,,,,,,,,,,,FEW,1500,,,,,,,VFR,,,,,,,,,,,,METAR,9.0
LXGB 311550Z 05002KT 9999 FEW011 OVC200 21/17 Q1020 NOSIG RMK BLU BLU,LXGB,2022-10-31T15:50:00Z,36.15,-5.33,21.0,17.0,50,2,,6.21,30.11811,,,,,,TRUE,,,,,FEW,1100,OVC,20000,,,,,VFR,,,,,,,,,,,,METAR,5.0
LSZS 311550Z 22009KT CAVOK 12/01 Q1025 RMK T TL170,LSZS,2022-10-31T15:50:00Z,46.53,9.88,12.0,1.0,220,9,,6.21,30.265747,,,,,,,,,,,CAVOK,,,,,,,,VFR,,,,,,,,,,,,METAR,1708.0
LSZR 311550Z 31003KT 0150 R10/0200N FG VV001 10/10 Q1018 RMK N,LSZR,2022-10-31T15:50:00Z,47.48,9.57,10.0,10.0,310,3,,0.09,30.059055,,,,,,,,,,FG,OVX,0,,,,,,,LIFR,,,,,,,,,,,100,METAR,396.0
LSZL 311550Z AUTO 27002KT 9999NDV NCD 18/11 Q1021 RMK,LSZL,2022-10-31T15:50:00Z,46.17,8.88,18.0,11.0,270,2,,,30.147638,,,TRUE,,,,,,,,CLR,,,,,,,,,,,,,,,,,,,,METAR,198.0
LSZH 311550Z 35003KT CAVOK 14/11 Q1017 NOSIG,LSZH,2022-10-31T15:50:00Z,47.48,8.53,14.0,11.0,350,3,,6.21,30.029528,,,,,,TRUE,,,,,CAVOK,,,,,,,,VFR,,,,,,,,,,,,METAR,424.0
LSZG 311550Z 23004KT CAVOK 16/14 Q1017,LSZG,2022-10-31T15:50:00Z,47.17,7.42,16.0,14.0,230,4,,6.21,30.029528,,,,,,,,,,,CAVOK,,,,,,,,VFR,,,,,,,,,,,,METAR,428.0
LSZC 311550Z VRB01KT CAVOK 14/11 Q1017,LSZC,2022-10-31T15:50:00Z,46.97,8.38,14.0,11.0,0,1,,6.21,30.029528,,,,,,,,,,,CAVOK,,,,,,,,VFR,,,,,,,,,,,,METAR,445.0
LSZB 311550Z 29006KT CAVOK 17/13 Q1018,LSZB,2022-10-31T15:50:00Z,46.92,7.5,17.0,13.0,290,6,,6.21,30.059055,,,,,,,,,,,CAVOK,,,,,,,,VFR,,,,,,,,,,,,METAR,510.0
LSZA 311550Z VRB01KT CAVOK 17/12 Q1021,LSZA,2022-10-31T15:50:00Z,46.0,8.92,17.0,12.0,0,1,,6.21,30.147638,,,,,,,,,,,CAVOK,,,,,,,,VFR,,,,,,,,,,,,METAR,276.0
LSMP 311550Z AUTO 00000KT 9999NDV NCD 16/12 Q1018 RMK,LSMP,2022-10-31T15:50:00Z,46.83,6.92,16.0,12.0,0,0,,,30.059055,,,TRUE,,,,,,,,CLR,,,,,,,,,,,,,,,,,,,,METAR,490.0
LSMM 311550Z AUTO 28005KT 230V330 9999NDV NCD 12/08 Q1018 RMK,LSMM,2022-10-31T15:50:00Z,46.75,8.12,12.0,8.0,280,5,,,30.059055,,,TRUE,,,,,,,,CLR,,,,,,,,,,,,,,,,,,,,METAR,570.0
LSME 311550Z 08002KT CAVOK 15/15 Q1017 RMK BLU,LSME,2022-10-31T15:50:00Z,47.1,8.3,15.0,15.0,80,2,,6.21,30.029528,,,,,,,,,,,CAVOK,,,,,,,,VFR,,,,,,,,,,,,METAR,427.0
LSMD 311550Z AUTO 00000KT 9999NDV NCD 16/12 Q1017 RMK,LSMD,2022-10-31T15:50:00Z,47.4,8.65,16.0,12.0,0,0,,,30.029528,,,TRUE,,,,,,,,CLR,,,,,,,,,,,,,,,,,,,,METAR,436.0
LSMA 311550Z AUTO 00000KT 9999NDV NCD 14/10 Q1017 RMK,LSMA,2022-10-31T15:50:00Z,46.95,8.28,14.0,10.0,0,0,,,30.029528,,,TRUE,,,,,,,,CLR,,,,,,,,,,,,,,,,,,,,METAR,441.0
LSGS 311550Z 27007KT CAVOK 17/09 Q1018,LSGS,2022-10-31T15:50:00Z,46.22,7.32,17.0,9.0,270,7,,6.21,30.059055,,,,,,,,,,,CAVOK,,,,,,,,VFR,,,,,,,,,,,,METAR,482.0
LSGG 311550Z 22004KT 200V260 CAVOK 18/12 Q1018 NOSIG,LSGG,2022-10-31T15:50:00Z,46.25,6.12,18.0,12.0,220,4,,6.21,30.059055,,,,,,TRUE,,,,,CAVOK,,,,,,,,VFR,,,,,,,,,,,,METAR,411.0
LSGC 311550Z VRB01KT CAVOK 15/07 Q1019,LSGC,2022-10-31T15:50:00Z,47.08,6.8,15.0,7.0,0,1,,6.21,30.088583,,,,,,,,,,,CAVOK,,,,,,,,VFR,,,,,,,,,,,,METAR,1018.0
LOXZ 311550Z VRB02KT 9999 FEW150 14/11 Q1021 NOSIG,LOXZ,2022-10-31T15:50:00Z,47.2,14.75,14.0,11.0,0,2,,6.21,30.147638,,,,,,TRUE,,,,,FEW,15000,,,,,,,VFR,,,,,,,,,,,,METAR,678.0
LOWW 311550Z 17007KT 3600 BR SCT001 BKN002 11/11 Q1022 BECMG 2500 BCFG TEMPO BKN001,LOWW,2022-10-31T15:50:00Z,48.12,16.57,11.0,11.0,170,7,,2.24,30.177166,,,,,,,,,,BR,SCT,100,BKN,200,,,,,LIFR,,,,,,,,,,,,METAR,179.0
LOWS 311550Z VRB02KT CAVOK 16/12 Q1018 NOSIG,LOWS,2022-10-31T15:50:00Z,47.78,13.02,16.0,12.0,0,2,,6.21,30.059055,,,,,,TRUE,,,,,CAVOK,,,,,,,,VFR,,,,,,,,,,,,METAR,427.0
LOWL 311550Z AUTO 12004KT 6000 0250W R26/P1500U BCFG SCT001 12/11 Q1019 TEMPO 0500 BKN001,LOWL,2022-10-31T15:50:00Z,48.22,14.18,12.0,11.0,120,4,,3.73,30.088583,,,TRUE,,,,,,,BCFG,SCT,100,,,,,,,MVFR,,,,,,,,,,,,METAR,290.0
LOWK 311550Z 05002KT CAVOK 15/12 Q1022 NOSIG,LOWK,2022-10-31T15:50:00Z,46.65,14.32,15.0,12.0,50,2,,6.21,30.177166,,,,,,TRUE,,,,,CAVOK,,,,,,,,VFR,,,,,,,,,,,,METAR,450.0
LOWI 311550Z 24003KT 190V280 CAVOK 16/09 Q1019 WS R26 NOSIG,LOWI,2022-10-31T15:50:00Z,47.27,11.33,16.0,9.0,240,3,,6.21,30.088583,,,,,,TRUE,,,,,CAVOK,,,,,,,,VFR,,,,,,,,,,,,METAR,570.0
LOWG 311550Z 17005KT CAVOK 13/11 Q1021 NOSIG,LOWG,2022-10-31T15:50:00Z,47.0,15.43,13.0,11.0,170,5,,6.21,30.147638,,,,,,TRUE,,,,,CAVOK,,,,,,,,VFR,,,,,,,,,,,,METAR,337.0
LLIB 311550Z AUTO 31010KT 9999 FEW050 22/13 Q1015,LLIB,2022-10-31T15:50:00Z,32.98,35.57,22.0,13.0,310,10,,6.21,29.970472,,,TRUE,,,,,,,,FEW,5000,,,,,,,VFR,,,,,,,,,,,,METAR,268.0
LLHA 311550Z 31006KT CAVOK 25/16 Q1014,LLHA,2022-10-31T15:50:00Z,32.8,35.03,25.0,16.0,310,6,,6.21,29.940945,,,,,,,,,,,CAVOK,,,,,,,,VFR,,,,,,,,,,,,METAR,3.0
LLER 311550Z 01012KT CAVOK 27/11 Q1013,LLER,2022-10-31T15:50:00Z,29.72,35.02,27.0,11.0,10,12,,6.21,29.911417,,,,,,,,,,,CAVOK,,,,,,,,VFR,,,,,,,,,,,,METAR,88.0
LLBG 311550Z 34005KT 9999 FEW035 24/15 Q1015 NOSIG,LLBG,2022-10-31T15:50:00Z,32.0,34.88,24.0,15.0,340,5,,6.21,29.970472,,,,,,TRUE,,,,,FEW,3500,,,,,,,VFR,,,,,,,,,,,,METAR,35.0
LIRZ 311550Z AUTO 15003KT 9999 NCD 22/10 Q1022,LIRZ,2022-10-31T15:50:00Z,43.1,12.5,22.0,10.0,150,3,,6.21,30.177166,,,TRUE,,,,,,,,CLR,,,,,,,,VFR,,,,,,,,,,,,METAR,206.0
LIRQ 311550Z VRB01KT CAVOK 21/13 Q1021,LIRQ,2022-10-31T15:50:00Z,43.8,11.2,21.0,13.0,0,1,,6.21,30.147638,,,,,,,,,,,CAVOK,,,,,,,,VFR,,,,,,,,,,,,METAR,33.0
LIRN 311550Z 24003KT CAVOK 21/16 Q1021 NOSIG,LIRN,2022-10-31T15:50:00Z,40.88,14.3,21.0,16.0,240,3,,6.21,30.147638,,,,,,TRUE,,,,,CAVOK,,,,,,,,VFR,,,,,,,,,,,,METAR,76.0
LIRF 311550Z 28004KT CAVOK 20/15 Q1021 NOSIG,LIRF,2022-10-31T15:50:00Z,41.78,12.23,20.0,15.0,280,4,,6.21,30.147638,,,,,,TRUE,,,,,CAVOK,,,,,,,,VFR,,,,,,,,,,,,METAR,2.0
LIRA 311550Z 28004KT CAVOK 22/13 Q1022,LIRA,2022-10-31T15:50:00Z,41.8,12.58,22.0,13.0,280,4,,6.21,30.177166,,,,,,,,,,,CAVOK,,,,,,,,VFR,,,,,,,,,,,,METAR,101.0
LIPZ 311550Z 16003KT 7000 NSC 19/16 Q1021 NOSIG,LIPZ,2022-10-31T15:50:00Z,45.5,12.35,19.0,16.0,160,3,,4.35,30.147638,,,,,,TRUE,,,,,CLR,,,,,,,,MVFR,,,,,,,,,,,,METAR,3.0
LIPY 311550Z AUTO 06003KT 9999 NCD 18/16 Q1021,LIPY,2022-10-31T15:50:00Z,43.62,13.37,18.0,16.0,60,3,,6.21,30.147638,,,TRUE,,,,,,,,CLR,,,,,,,,VFR,,,,,,,,,,,,METAR,11.0
LIPX 311550Z 13004KT 9000 NSC 21/12 Q1020,LIPX,2022-10-31T15:50:00Z,45.38,10.87,21.0,12.0,130,4,,5.59,30.11811,,,,,,,,,,,CLR,,,,,,,,VFR,,,,,,,,,,,,METAR,67.0
LIPR 311550Z VRB02KT CAVOK 19/15 Q1021,LIPR,2022-10-31T15:50:00Z,44.02,12.62,19.0,15.0,0,2,,6.21,30.147638,,,,,,,,,,,CAVOK,,,,,,,,VFR,,,,,,,,,,,,METAR,10.0
LIPQ 311550Z AUTO 14002KT 9999 NCD 19/14 Q1021,LIPQ,2022-10-31T15:50:00Z,45.82,13.47,19.0,14.0,140,2,,6.21,30.147638,,,TRUE,,,,,,,,CLR,,,,,,,,VFR,,,,,,,,,,,,METAR,6.0
LIPO 311550Z AUTO 21002KT 9999 NCD 22/12 Q1020,LIPO,2022-10-31T15:50:00Z,45.42,10.33,22.0,12.0,210,2,,6.21,30.11811,,,TRUE,,,,,,,,CLR,,,,,,,,VFR,,,,,,,,,,,,METAR,104.0
LIPK 311550Z 09004KT CAVOK 22/12 Q1021,LIPK,2022-10-31T15:50:00Z,44.2,12.07,22.0,12.0,90,4,,6.21,30.147638,,,,,,,,,,,CAVOK,,,,,,,,VFR,,,,,,,,,,,,METAR,24.0
LIPH 311550Z 15002KT CAVOK 21/15 Q1020,LIPH,2022-10-31T15:50:00Z,45.63,12.18,21.0,15.0,150,2,,6.21,30.11811,,,,,,,,,,,CAVOK,,,,,,,,VFR,,,,,,,,,,,,METAR,10.0
LIPE 311550Z 05003KT CAVOK 23/12 Q1021,LIPE,2022-10-31T15:50:00Z,44.52,11.3,23.0,12.0,50,3,,6.21,30.147638,,,,,,,,,,,CAVOK,,,,,,,,VFR,,,,,,,,,,,,METAR,37.0
LIPB 311550Z VRB02KT CAVOK 17/11 Q1021,LIPB,2022-10-31T15:50:00Z,46.47,11.32,17.0,11.0,0,2,,6.21,30.147638,,,,,,,,,,,CAVOK,,,,,,,,VFR,,,,,,,,,,,,METAR,239.0
LIMZ 311550Z AUTO 33003KT 310V010 9999 NCD 20/11 Q1021,LIMZ,2022-10-31T15:50:00Z,44.53,7.62,20.0,11.0,330,3,,6.21,30.147638,,,TRUE,,,,,,,,CLR,,,,,,,,VFR,,,,,,,,,,,,METAR,377.0
LIML 311550Z 15002KT CAVOK 22/12 Q1020 NOSIG,LIML,2022-10-31T15:50:00Z,45.47,9.27,22.0,12.0,150,2,,6.21,30.11811,,,,,,TRUE,,,,,CAVOK,,,,,,,,VFR,,,,,,,,,,,,METAR,109.0
LIMJ 311550Z 24004KT 9999 FEW015 SCT030 20/17 Q1021,LIMJ,2022-10-31T15:50:00Z,44.42,8.83,20.0,17.0,240,4,,6.21,30.147638,,,,,,,,,,,FEW,1500,SCT,3000,,,,,VFR,,,,,,,,,,,,METAR,3.0
LIMF 311550Z 36002KT 9999 FEW100 21/11 Q1021,LIMF,2022-10-31T15:50:00Z,45.22,7.65,21.0,11.0,360,2,,6.21,30.147638,,,,,,,,,,,FEW,10000,,,,,,,VFR,,,,,,,,,,,,METAR,295.0
LIME 311550Z 23003KT CAVOK 22/11 Q1021 NOSIG,LIME,2022-10-31T15:50:00Z,45.67,9.7,22.0,11.0,230,3,,6.21,30.147638,,,,,,TRUE,,,,,CAVOK,,,,,,,,VFR,,,,,,,,,,,,METAR,239.0
LIMC 311550Z VRB01KT CAVOK 20/14 Q1021 NOSIG,LIMC,2022-10-31T15:50:00Z,45.62,8.72,20.0,14.0,0,1,,6.21,30.147638,,,,,,TRUE,,,,,CAVOK,,,,,,,,VFR,,,,,,,,,,,,METAR,221.0
LIEO 311550Z 08005KT CAVOK 22/14 Q1021,LIEO,2022-10-31T15:50:00Z,40.88,9.52,22.0,14.0,80,5,,6.21,30.147638,,,,,,,,,,,CAVOK,,,,,,,,VFR,,,,,,,,,,,,METAR,8.0
LIEE 311550Z 18007KT CAVOK 22/15 Q1021,LIEE,2022-10-31T15:50:00Z,39.25,9.07,22.0,15.0,180,7,,6.21,30.147638,,,,,,,,,,,CAVOK,,,,,,,,VFR,,,,,,,,,,,,METAR,1.0
LIEA 311550Z 29003KT 260V320 CAVOK 22/15 Q1021,LIEA,2022-10-31T15:50:00Z,40.62,8.28,22.0,15.0,290,3,,6.21,30.147638,,,,,,,,,,,CAVOK,,,,,,,,VFR,,,,,,,,,,,,METAR,22.0
LICR 311550Z AUTO 36012KT 9999 NCD 21/16 Q1021,LICR,2022-10-31T15:50:00Z,38.07,15.65,21.0,16.0,360,12,,6.21,30.147638,,,TRUE,,,,,,,,CLR,,,,,,,,VFR,,,,,,,,,,,,METAR,16.0
LICJ 311550Z 04010KT CAVOK 21/15 Q1021,LICJ,2022-10-31T15:50:00Z,38.17,13.08,21.0,15.0,40,10,,6.21,30.147638,,,,,,,,,,,CAVOK,,,,,,,,VFR,,,,,,,,,,,,METAR,20.0
LICD 311550Z AUTO 25004KT 9999 NCD 23/14 Q1022,LICD,2022-10-31T15:50:00Z,35.5,12.62,23.0,14.0,250,4,,6.21,30.177166,,,TRUE,,,,,,,,CLR,,,,,,,,VFR,,,,,,,,,,,,METAR,20.0
LICC 311550Z 06006KT CAVOK 22/16 Q1020,LICC,2022-10-31T15:50:00Z,37.47,15.05,22.0,16.0,60,6,,6.21,30.11811,,,,,,,,,,,CAVOK,,,,,,,,VFR,,,,,,,,,,,,METAR,6.0
LICB 311550Z AUTO 26003KT 9999 NCD 21/08 Q1022,LICB,2022-10-31T15:50:00Z,37.0,14.62,21.0,8.0,260,3,,6.21,30.177166,,,TRUE,,,,,,,,CLR,,,,,,,,VFR,,,,,,,,,,,,METAR,212.0
LICA 311550Z AUTO 25004KT 9999 NCD 20/16 Q1022,LICA,2022-10-31T15:50:00Z,38.9,16.25,20.0,16.0,250,4,,6.21,30.177166,,,TRUE,,,,,,,,CLR,,,,,,,,VFR,,,,,,,,,,,,METAR,7.0
LIBR 311550Z 33011KT 9999 FEW010 20/18 Q1020,LIBR,2022-10-31T15:50:00Z,40.65,17.95,20.0,18.0,330,11,,6.21,30.11811,,,,,,,,,,,FEW,1000,,,,,,,VFR,,,,,,,,,,,,METAR,5.0
LIBP 311550Z AUTO 03004KT 9999 -RA NCD 19/15 Q1022,LIBP,2022-10-31T15:50:00Z,42.42,14.18,19.0,15.0,30,4,,6.21,30.177166,,,TRUE,,,,,,,-RA,CLR,,,,,,,,VFR,,,,,,,,,,,,METAR,10.0
LIBD 311550Z 30002KT CAVOK 20/14 Q1021,LIBD,2022-10-31T15:50:00Z,41.13,16.77,20.0,14.0,300,2,,6.21,30.147638,,,,,,,,,,,CAVOK,,,,,,,,VFR,,,,,,,,,,,,METAR,42.0
LGZA 311550Z 00000KT 9999 FEW030 21/17 Q1018,LGZA,2022-10-31T15:50:00Z,37.75,20.88,21.0,17.0,0,0,,6.21,30.059055,,,,,,,,,,,FEW,3000,,,,,,,VFR,,,,,,,,,,,,METAR,3.0
LGTS 311550Z VRB03KT CAVOK 21/09 Q1019 NOSIG,LGTS,2022-10-31T15:50:00Z,40.52,22.97,21.0,9.0,0,3,,6.21,30.088583,,,,,,TRUE,,,,,CAVOK,,,,,,,,VFR,,,,,,,,,,,,METAR,4.0
LGSO 311550Z 36016KT 9999 FEW016 19/10 Q1018,LGSO,2022-10-31T15:50:00Z,37.42,24.95,19.0,10.0,360,16,,6.21,30.059055,,,,,,,,,,,FEW,1600,,,,,,,VFR,,,,,,,,,,,,METAR,71.0
LGSM 311550Z 00000KT CAVOK 20/14 Q1015,LGSM,2022-10-31T15:50:00Z,37.68,26.92,20.0,14.0,0,0,,6.21,29.970472,,,,,,,,,,,CAVOK,,,,,,,,VFR,,,,,,,,,,,,METAR,5.0
LGSK 311550Z 36005KT 9999 FEW018 SCT025 19/11 Q1018,LGSK,2022-10-31T15:50:00Z,39.18,23.5,19.0,11.0,360,5,,6.21,30.059055,,,,,,,,,,,FEW,1800,SCT,2500,,,,,VFR,,,,,,,,,,,,METAR,13.0
LGSA 311550Z 00000KT 9999 FEW020 18/14 Q1017,LGSA,2022-10-31T15:50:00Z,35.53,24.13,18.0,14.0,0,0,,6.21,30.029528,,,,,,,,,,,FEW,2000,,,,,,,VFR,,,,,,,,,,,,METAR,122.0
LGRX 311550Z 00000KT 9999 FEW070 20/15 Q1018,LGRX,2022-10-31T15:50:00Z,38.17,21.42,20.0,15.0,0,0,,6.21,30.059055,,,,,,,,,,,FEW,7000,,,,,,,VFR,,,,,,,,,,,,METAR,16.0
LGRP 311550Z 22010KT CAVOK 20/13 Q1014 NOSIG,LGRP,2022-10-31T15:50:00Z,36.4,28.08,20.0,13.0,220,10,,6.21,29.940945,,,,,,TRUE,,,,,CAVOK,,,,,,,,VFR,,,,,,,,,,,,METAR,3.0
LGPZ 311550Z 00000KT CAVOK 19/14 Q1018,LGPZ,2022-10-31T15:50:00Z,38.92,20.77,19.0,14.0,0,0,,6.21,30.059055,,,,,,,,,,,CAVOK,,,,,,,,VFR,,,,,,,,,,,,METAR,3.0
LGPA 311550Z AUTO 01009KT //// -RA ////// 18/10 Q1017 RE//,LGPA,2022-10-31T15:50:00Z,37.02,25.1,18.0,10.0,10,9,,,30.029528,,,TRUE,,,,,,,-RA,,,,,,,,,,,,,,,,,,,,,METAR,42.0
LGMT 311550Z 31008KT 9999 FEW025 21/11 Q1017,LGMT,2022-10-31T15:50:00Z,39.05,26.6,21.0,11.0,310,8,,6.21,30.029528,,,,,,,,,,,FEW,2500,,,,,,,VFR,,,,,,,,,,,,METAR,4.0
LGMK 311550Z 01012KT CAVOK 18/12 Q1017,LGMK,2022-10-31T15:50:00Z,37.43,25.35,18.0,12.0,10,12,,6.21,30.029528,,,,,,,,,,,CAVOK,,,,,,,,VFR,,,,,,,,,,,,METAR,126.0
LGLM 311550Z 00000KT 9999 FEW018 18/13 Q1019,LGLM,2022-10-31T15:50:00Z,39.92,25.23,18.0,13.0,0,0,,6.21,30.088583,,,,,,,,,,,FEW,1800,,,,,,,VFR,,,,,,,,,,,,METAR,4.0
LGKZ 311550Z AUTO VRB02KT //// // ////// 17/03 Q1022 RE//,LGKZ,2022-10-31T15:50:00Z,40.28,21.83,17.0,3.0,0,2,,,30.177166,,,TRUE,,,,,,,,,,,,,,,,,,,,,,,,,,,,METAR,615.0
LGKV 311550Z 18004KT 9999 FEW030 18/13 Q1019,LGKV,2022-10-31T15:50:00Z,40.92,24.62,18.0,13.0,180,4,,6.21,30.088583,,,,,,,,,,,FEW,3000,,,,,,,VFR,,,,,,,,,,,,METAR,5.0
LGKR 311550Z 00000KT CAVOK 22/16 Q1017 NOSIG,LGKR,2022-10-31T15:50:00Z,39.62,19.92,22.0,16.0,0,0,,6.21,30.029528,,,,,,TRUE,,,,,CAVOK,,,,,,,,VFR,,,,,,,,,,,,METAR,2.0
LGKP 311550Z 31020KT 9999 FEW020 19/14 Q1016,LGKP,2022-10-31T15:50:00Z,35.42,27.15,19.0,14.0,310,20,,6.21,30.0,,,,,,,,,,,FEW,2000,,,,,,,VFR,,,,,,,,,,,,METAR,20.0
LGKO 311550Z 31010KT CAVOK 22/12 Q1015,LGKO,2022-10-31T15:50:00Z,36.8,27.08,22.0,12.0,310,10,,6.21,29.970472,,,,,,,,,,,CAVOK,,,,,,,,VFR,,,,,,,,,,,,METAR,130.0
LGKL 311550Z VRB03KT 9999 FEW025 18/14 Q1018,LGKL,2022-10-31T15:50:00Z,37.07,22.02,18.0,14.0,0,3,,6.21,30.059055,,,,,,,,,,,FEW,2500,,,,,,,VFR,,,,,,,,,,,,METAR,4.0
LGKF 311550Z 00000KT CAVOK 22/18 Q1018,LGKF,2022-10-31T15:50:00Z,38.12,20.5,22.0,18.0,0,0,,6.21,30.059055,,,,,,,,,,,CAVOK,,,,,,,,VFR,,,,,,,,,,,,METAR,14.0
LGKC 311550Z 09005KT 010V110 CAVOK 19/16 Q1019,LGKC,2022-10-31T15:50:00Z,36.28,23.02,19.0,16.0,90,5,,6.21,30.088583,,,,,,,,,,,CAVOK,,,,,,,,VFR,,,,,,,,,,,,METAR,313.0
LGIR 311550Z 30009KT 9999 FEW025 19/13 Q1018 NOSIG,LGIR,2022-10-31T15:50:00Z,35.33,25.17,19.0,13.0,300,9,,6.21,30.059055,,,,,,TRUE,,,,,FEW,2500,,,,,,,VFR,,,,,,,,,,,,METAR,37.0
LGIO 311550Z 12003KT 9999 FEW040 21/07 Q1020,LGIO,2022-10-31T15:50:00Z,39.7,20.82,21.0,7.0,120,3,,6.21,30.11811,,,,,,,,,,,FEW,4000,,,,,,,VFR,,,,,,,,,,,,METAR,476.0
LGHI 311550Z 36006KT CAVOK 20/09 Q1015,LGHI,2022-10-31T15:50:00Z,38.33,26.13,20.0,9.0,360,6,,6.21,29.970472,,,,,,,,,,,CAVOK,,,,,,,,VFR,,,,,,,,,,,,METAR,6.0
LGEL 311550Z 35006KT 9999 FEW030 23/09 Q1018,LGEL,2022-10-31T15:50:00Z,38.07,23.55,23.0,9.0,350,6,,6.21,30.059055,,,,,,,,,,,FEW,3000,,,,,,,VFR,,,,,,,,,,,,METAR,21.0
LGBL 311550Z 00000KT 9999 FEW035 18/13 Q1020,LGBL,2022-10-31T15:50:00Z,39.22,22.8,18.0,13.0,0,0,,6.21,30.11811,,,,,,,,,,,FEW,3500,,,,,,,VFR,,,,,,,,,,,,METAR,13.0
LGAV 311550Z 05008KT 9999 FEW030 21/09 Q1019 NOSIG,LGAV,2022-10-31T15:50:00Z,37.93,23.95,21.0,9.0,50,8,,6.21,30.088583,,,,,,TRUE,,,,,FEW,3000,,,,,,,VFR,,,,,,,,,,,,METAR,83.0
LGAL 311550Z 02003KT 9999 FEW030 21/12 Q1019,LGAL,2022-10-31T15:50:00Z,40.85,25.95,21.0,12.0,20,3,,6.21,30.088583,,,,,,,,,,,FEW,3000,,,,,,,VFR,,,,,,,,,,,,METAR,5.0
LGAD 311550Z 00000KT 9999 FEW030 21/14 Q1018,LGAD,2022-10-31T15:50:00Z,37.92,21.28,21.0,14.0,0,0,,6.21,30.059055,,,,,,,,,,,FEW,3000,,,,,,,VFR,,,,,,,,,,,,METAR,8.0
LCRA 311550Z 27011KT 9999 FEW080 23/15 Q1013 NOSIG,LCRA,2022-10-31T15:50:00Z,34.58,32.98,23.0,15.0,270,11,,6.21,29.911417,,,,,,TRUE,,,,,FEW,8000,,,,,,,VFR,,,,,,,,,,,,METAR,23.0
LATI 311550Z 33011KT CAVOK 21/13 Q1019 NOSIG,LATI,2022-10-31T15:50:00Z,41.42,19.72,21.0,13.0,330,11,,6.21,30.088583,,,,,,TRUE,,,,,CAVOK,,,,,,,,VFR,,,,,,,,,,,,METAR,32.0
KWHP 311550Z 33005KT 10SM SKC 21/M01 A2997 RMK OBSERVER HT,KWHP,2022-10-31T15:50:00Z,34.25,-118.42,21.0,-1.0,330,5,,10.0,29.970472,,,,,,,,,,,SKC,,,,,,,,VFR,,,,,,,,,,,,METAR,302.0
KVQQ 311550Z 16005KT 10SM BKN025 30/24 A3003,KVQQ,2022-10-31T15:50:00Z,30.22,-81.88,30.0,24.0,160,5,,10.0,30.029528,,,,,,,,,,,BKN,2500,,,,,,,MVFR,,,,,,,,,,,,METAR,21.0
KSUN 311550Z 29006KT 10SM SKC 03/M01 A3013,KSUN,2022-10-31T15:50:00Z,43.5,-114.28,3.0,-1.0,290,6,,10.0,30.129921,,,,,,,,,,,SKC,,,,,,,,VFR,,,,,,,,,,,,METAR,1619.0
KRZR 311550Z AUTO VRB05KT 10SM BKN010 OVC014 17/17 A3000 RMK A01,KRZR,2022-10-31T15:50:00Z,35.22,-84.8,17.0,17.0,0,5,,10.0,30.0,,,TRUE,TRUE,,,,,,,BKN,1000,OVC,1400,,,,,MVFR,,,,,,,,,,,,METAR,259.0
KRYY 311550Z VRB03KT 2SM BR OVC002 16/16 A3004 RMK AO2 SLP166 T01560156 $,KRYY,2022-10-31T15:50:00Z,34.02,-84.6,15.6,15.6,0,3,,2.0,30.041338,1016.6,,,TRUE,TRUE,,,,,BR,OVC,200,,,,,,,LIFR,,,,,,,,,,,,METAR,306.0
KQFX 311550Z AUTO 11002KT 6000 CLR 18/16 / RMK A02 TSNO,KQFX,2022-10-31T15:50:00Z,,,18.0,16.0,110,2,,3.73,,,,TRUE,TRUE,,,TRUE,,,,CLR,,,,,,,,MVFR,,,,,,,,,,,,METAR,
KQFW 311550Z AUTO 00000KT 4800 FEW110 04/04 A3007 RMK A02 TSNO,KQFW,2022-10-31T15:50:00Z,,,4.0,4.0,0,0,,2.98,30.070866,,,TRUE,TRUE,,,TRUE,,,,FEW,11000,,,,,,,IFR,,,,,,,,,,,,METAR,
KQFV 311550Z AUTO 27001KT 9999 CLR 05/05 A3026 RMK A02 TSNO,KQFV,2022-10-31T15:50:00Z,,,5.0,5.0,270,1,,6.21,30.259842,,,TRUE,TRUE,,,TRUE,,,,CLR,,,,,,,,VFR,,,,,,,,,,,,METAR,
KQFU 311550Z AUTO 08001KT 4000 BR BKN110 09/09 A3027 RMK A02 TSNO,KQFU,2022-10-31T15:50:00Z,,,9.0,9.0,80,1,,2.49,30.268702,,,TRUE,TRUE,,,TRUE,,,BR,BKN,11000,,,,,,,IFR,,,,,,,,,,,,METAR,
KQFT 311550Z AUTO 00000KT 9999 OVC110 09/07 A3022 RMK A02 TSNO,KQFT,2022-10-31T15:50:00Z,,,9.0,7.0,0,0,,6.21,30.221457,,,TRUE,TRUE,,,TRUE,,,,OVC,11000,,,,,,,VFR,,,,,,,,,,,,METAR,
KQFB 311550Z AUTO 01001KT 9999 CLR 08/06 A3027 RMK A02 TSNO,KQFB,2022-10-31T15:50:00Z,,,8.0,6.0,10,1,,6.21,30.268702,,,TRUE,TRUE,,,TRUE,,,,CLR,,,,,,,,VFR,,,,,,,,,,,,METAR,
KQEY 311550Z AUTO 23001KT 9999 CLR 08/06 A2994 RMK A02 TSNO,KQEY,2022-10-31T15:50:00Z,,,8.0,6.0,230,1,,6.21,29.940945,,,TRUE,TRUE,,,TRUE,,,,CLR,,,,,,,,VFR,,,,,,,,,,,,METAR,
KQEW 311550Z AUTO 15002KT 9999 CLR 07/06 A3023 RMK A02 TSNO,KQEW,2022-10-31T15:50:00Z,,,7.0,6.0,150,2,,6.21,30.230314,,,TRUE,TRUE,,,TRUE,,,,CLR,,,,,,,,VFR,,,,,,,,,,,,METAR,
KQEV 311550Z AUTO 00000KT 4800 CLR 08/07 A3020 RMK A02 TSNO,KQEV,2022-10-31T15:50:00Z,,,8.0,7.0,0,0,,2.98,30.200787,,,TRUE,TRUE,,,TRUE,,,,CLR,,,,,,,,IFR,,,,,,,,,,,,METAR,
KQER 311550Z AUTO 13001KT 9999 SCT050 06/05 A3019 RMK A02 TSNO,KQER,2022-10-31T15:50:00Z,,,6.0,5.0,130,1,,6.21,30.188976,,,TRUE,TRUE,,,TRUE,,,,SCT,5000,,,,,,,VFR,,,,,,,,,,,,METAR,
KQEQ 311550Z AUTO 15002KT 2000 BR CLR 11/12 / RMK A02 TSNO,KQEQ,2022-10-31T15:50:00Z,,,11.0,12.0,150,2,,1.24,,,,TRUE,TRUE,,,TRUE,,,BR,CLR,,,,,,,,IFR,,,,,,,,,,,,METAR,
KQEP 311550Z AUTO 00000KT 9000 CLR 09/08 A3025 RMK A02 TSNO,KQEP,2022-10-31T15:50:00Z,,,9.0,8.0,0,0,,5.59,30.250984,,,TRUE,TRUE,,,TRUE,,,,CLR,,,,,,,,VFR,,,,,,,,,,,,METAR,
KQEN 311550Z AUTO 26004KT 3200 BR BKN090 / / RMK A02 TSNO,KQEN,2022-10-31T15:50:00Z,,,,,260,4,,1.99,,,,TRUE,TRUE,,,TRUE,,,BR,BKN,9000,,,,,,,IFR,,,,,,,,,,,,METAR,
KQEJ 311550Z AUTO 00000KT 9999 CLR 21/21 / RMK A02 TSNO,KQEJ,2022-10-31T15:50:00Z,,,21.0,21.0,0,0,,6.21,,,,TRUE,TRUE,,,TRUE,,,,CLR,,,,,,,,VFR,,,,,,,,,,,,METAR,
KQEI 311550Z AUTO 27001KT 9999 CLR 06/06 A3022 RMK A02 TSNO,KQEI,2022-10-31T15:50:00Z,,,6.0,6.0,270,1,,6.21,30.221457,,,TRUE,TRUE,,,TRUE,,,,CLR,,,,,,,,VFR,,,,,,,,,,,,METAR,
KOLV 311550Z 21008KT 10SM BKN012 OVC017 17/15 A2998,KOLV,2022-10-31T15:50:00Z,34.98,-89.78,17.0,15.0,210,8,,10.0,29.97933,,,,,,,,,,,BKN,1200,OVC,1700,,,,,MVFR,,,,,,,,,,,,METAR,124.0
KNQA 311550Z 23010KT 10SM OVC009 16/15 A2997,KNQA,2022-10-31T15:50:00Z,35.35,-89.87,16.0,15.0,230,10,,10.0,29.970472,,,,,,,,,,,OVC,900,,,,,,,IFR,,,,,,,,,,,,METAR,90.0
KMRC 311550Z AUTO 21008KT 8SM FEW015 SCT026 BKN037 17/16 A2997 RMK A01,KMRC,2022-10-31T15:50:00Z,35.55,-87.18,17.0,16.0,210,8,,8.0,29.970472,,,TRUE,TRUE,,,,,,,FEW,1500,SCT,2600,BKN,3700,,,VFR,,,,,,,,,,,,METAR,205.0
KM54 311550Z AUTO 20009KT 10SM SCT013 BKN022 OVC065 17/15 A2996 RMK A01,KM54,2022-10-31T15:50:00Z,36.18,-86.32,17.0,15.0,200,9,,10.0,29.958662,,,TRUE,TRUE,,,,,,,SCT,1300,BKN,2200,OVC,6500,,,MVFR,,,,,,,,,,,,METAR,168.0
KLWB 311550Z 01004KT 2SM RA SCT001 BKN009 OVC026 11/11 A3006,KLWB,2022-10-31T15:50:00Z,37.87,-80.4,11.0,11.0,10,4,,2.0,30.059055,,,,,,,,,,RA,SCT,100,BKN,900,OVC,2600,,,IFR,,,,,,,,,,,,METAR,702.0
KLAL 311550Z 13006KT 10SM BKN027 28/20 A3003,KLAL,2022-10-31T15:50:00Z,27.98,-82.02,28.0,20.0,130,6,,10.0,30.029528,,,,,,,,,,,BKN,2700,,,,,,,MVFR,,,,,,,,,,,,SPECI,39.0
KJWN 311550Z 22007KT 10SM BKN016 17/14 A2995,KJWN,2022-10-31T15:50:00Z,36.18,-86.88,17.0,14.0,220,7,,10.0,29.949802,,,,,,,,,,,BKN,1600,,,,,,,MVFR,,,,,,,,,,,,METAR,149.0
KJQF 311550Z 00000KT 4SM BR OVC007 17/15 A3009,KJQF,2022-10-31T15:50:00Z,35.38,-80.72,17.0,15.0,0,0,,4.0,30.088583,,,,,,,,,,BR,OVC,700,,,,,,,IFR,,,,,,,,,,,,METAR,204.0
KIFP 311550Z 01018KT 20SM CLR 21/M05 A2997,KIFP,2022-10-31T15:50:00Z,35.15,-114.57,21.0,-5.0,10,18,,20.0,29.970472,,,,,,,,,,,CLR,,,,,,,,VFR,,,,,,,,,,,,METAR,210.0
KHXD 311550Z 18006KT 10SM FEW075 25/21 A3005,KHXD,2022-10-31T15:50:00Z,32.22,-80.7,25.0,21.0,180,6,,10.0,30.050198,,,,,,,,,,,FEW,7500,,,,,,,VFR,,,,,,,,,,,,METAR,5.0
KHQZ 311550Z 00000KT 7SM CLR 18/12 A3007,KHQZ,2022-10-31T15:50:00Z,32.75,-96.53,18.0,12.0,0,0,,7.0,30.070866,,,,,,,,,,,CLR,,,,,,,,VFR,,,,,,,,,,,,METAR,136.0
KHOB 311550Z 14007KT 10SM SKC 15/06 A3010,KHOB,2022-10-31T15:50:00Z,32.67,-103.22,15.0,6.0,140,7,,10.0,30.100393,,,,,,,,,,,SKC,,,,,,,,VFR,,,,,,,,,,,,METAR,1112.0
KGYI 311550Z 00000KT 10SM SKC 17/10 A3008,KGYI,2022-10-31T15:50:00Z,33.72,-96.67,17.0,10.0,0,0,,10.0,30.079725,,,,,,,,,,,SKC,,,,,,,,VFR,,,,,,,,,,,,METAR,227.0
KGOO 311550Z AUTO 00000KT 10SM CLR 15/M03 A3003 RMK A01,KGOO,2022-10-31T15:50:00Z,39.22,-121.0,15.0,-3.0,0,0,,10.0,30.029528,,,TRUE,TRUE,,,,,,,CLR,,,,,,,,VFR,,,,,,,,,,,,METAR,950.0
KGEU 311550Z 00000KT 10SM SKC 17/02 A2997,KGEU,2022-10-31T15:50:00Z,33.53,-112.3,17.0,2.0,0,0,,10.0,29.970472,,,,,,,,,,,SKC,,,,,,,,VFR,,,,,,,,,,,,METAR,319.0
KFIN 311550Z 08005KT 10SM SCT020 SCT025 27/22 A3003,KFIN,2022-10-31T15:50:00Z,29.47,-81.2,27.0,22.0,80,5,,10.0,30.029528,,,,,,,,,,,SCT,2000,SCT,2500,,,,,VFR,,,,,,,,,,,,METAR,10.0
KESN 311550Z 21006KT 10SM SCT031 BKN037 BKN060 17/14 A3013,KESN,2022-10-31T15:50:00Z,38.8,-76.07,17.0,14.0,210,6,,10.0,30.129921,,,,,,,,,,,SCT,3100,BKN,3700,BKN,6000,,,VFR,,,,,,,,,,,,METAR,14.0
KDAG 311550Z AUTO 28007KT 10SM CLR 13/M09 A3003 RMK AO2 SLP157 T01281089,KDAG,2022-10-31T15:50:00Z,34.85,-116.78,12.8,-8.9,280,7,,10.0,30.029528,1015.7,,TRUE,TRUE,,,,,,,CLR,,,,,,,,VFR,,,,,,,,,,,,METAR,584.0
KBDN 311550Z AUTO 21010KT 10SM CLR 11/M00 A2997 RMK AO2,KBDN,2022-10-31T15:50:00Z,44.1,-121.2,11.0,0.0,210,10,,10.0,29.970472,,,TRUE,TRUE,,,,,,,CLR,,,,,,,,VFR,,,,,,,,,,,,METAR,1044.0
KALN 311550Z 28007KT 6SM BR OVC008 13/12 A2990,KALN,2022-10-31T15:50:00Z,38.88,-90.03,13.0,12.0,280,7,,6.0,29.899607,,,,,,,,,,BR,OVC,800,,,,,,,IFR,,,,,,,,,,,,SPECI,159.0
KADM 311550Z 00000KT 10SM CLR 10/09 A3007,KADM,2022-10-31T15:50:00Z,34.3,-97.02,10.0,9.0,0,0,,10.0,30.070866,,,,,,,,,,,CLR,,,,,,,,VFR,,,,,,,,,,,,METAR,223.0
K2M2 311550Z AUTO VRB04KT 10SM FEW011 SCT015 BKN020 16/14 A2999 RMK A01,K2M2,2022-10-31T15:50:00Z,35.23,-87.25,16.0,14.0,0,4,,10.0,29.991142,,,TRUE,TRUE,,,,,,,FEW,1100,SCT,1500,BKN,2000,,,MVFR,,,,,,,,,,,,METAR,286.0
EYVI 311550Z 24002KT CAVOK 05/M00 Q1021 NOSIG,EYVI,2022-10-31T15:50:00Z,54.63,25.28,5.0,0.0,240,2,,6.21,30.147638,,,,,,TRUE,,,,,CAVOK,,,,,,,,VFR,,,,,,,,,,,,METAR,180.0
EYSA 311550Z 20004KT CAVOK 05/02 Q1021 NOSIG,EYSA,2022-10-31T15:50:00Z,55.9,23.4,5.0,2.0,200,4,,6.21,30.147638,,,,,,TRUE,,,,,CAVOK,,,,,,,,VFR,,,,,,,,,,,,METAR,135.0
EYPA 311550Z 20003KT 9999 BKN037 09/09 Q1020,EYPA,2022-10-31T15:50:00Z,55.97,21.08,9.0,9.0,200,3,,6.21,30.11811,,,,,,,,,,,BKN,3700,,,,,,,VFR,,,,,,,,,,,,METAR,15.0
EYKA 311550Z 00000KT CAVOK 04/01 Q1021,EYKA,2022-10-31T15:50:00Z,54.97,24.08,4.0,1.0,0,0,,6.21,30.147638,,,,,,,,,,,CAVOK,,,,,,,,VFR,,,,,,,,,,,,METAR,68.0
EVVA 311550Z AUTO 22005KT 9999 OVC015 11/10 Q1019,EVVA,2022-10-31T15:50:00Z,57.35,21.55,11.0,10.0,220,5,,6.21,30.088583,,,TRUE,,,,,,,,OVC,1500,,,,,,,MVFR,,,,,,,,,,,,METAR,1.0
EVRA 311550Z 20002KT CAVOK 05/04 Q1020 NOSIG,EVRA,2022-10-31T15:50:00Z,56.92,23.97,5.0,4.0,200,2,,6.21,30.11811,,,,,,TRUE,,,,,CAVOK,,,,,,,,VFR,,,,,,,,,,,,METAR,7.0
EVLA 311550Z AUTO 18003KT 9999 FEW015/// BKN039/// 10/08 Q1020,EVLA,2022-10-31T15:50:00Z,56.52,21.1,10.0,8.0,180,3,,6.21,30.11811,,,TRUE,,,,,,,,FEW,1500,BKN,3900,,,,,VFR,,,,,,,,,,,,METAR,5.0
EVGA 311550Z 19003KT CAVOK 04/03 Q1020 NOSIG,EVGA,2022-10-31T15:50:00Z,56.78,24.85,4.0,3.0,190,3,,6.21,30.11811,,,,,,TRUE,,,,,CAVOK,,,,,,,,VFR,,,,,,,,,,,,METAR,61.0
ETNG 311550Z 11008KT CAVOK 17/12 Q1013 NOSIG,ETNG,2022-10-31T15:50:00Z,50.97,6.03,17.0,12.0,110,8,,6.21,29.911417,,,,,,TRUE,,,,,CAVOK,,,,,,,,VFR,,,,,,,,,,,,METAR,76.0
ETIC 311550Z AUTO 00000KT 1800 HZ CLR 16/14 A3004 RMK AO2 VIS 1600V3000 SLP178 $,ETIC,2022-10-31T15:50:00Z,49.7,11.93,16.0,14.0,0,0,,1.12,30.041338,1017.8,,TRUE,TRUE,TRUE,,,,,HZ,CLR,,,,,,,,IFR,,,,,,,,,,,,SPECI,414.0
ESUT 311550Z AUTO 28003KT 4000 -DZ FEW008/// BKN018/// OVC023/// 00/00 Q1008 REDZ REUP,ESUT,2022-10-31T15:50:00Z,65.8,15.08,0.0,0.0,280,3,,2.49,29.763779,,,TRUE,,,,,,,-DZ,FEW,800,BKN,1800,OVC,2300,,,IFR,,,,,,,,,,,,METAR,457.0
ESUP 311550Z AUTO 06002KT 9999 SCT110/// M04/M04 Q1007,ESUP,2022-10-31T15:50:00Z,67.25,23.07,-4.0,-4.0,60,2,,6.21,29.734253,,,TRUE,,,,,,,,SCT,11000,,,,,,,VFR,,,,,,,,,,,,METAR,164.0
ESTL 311550Z AUTO 00000KT 9999 FEW018/// 12/12 Q1020,ESTL,2022-10-31T15:50:00Z,56.07,13.2,12.0,12.0,0,0,,6.21,30.11811,,,TRUE,,,,,,,,FEW,1800,,,,,,,VFR,,,,,,,,,,,,METAR,39.0
ESTA 311550Z 00000KT 0700 R14/P1500N R32/P1500N FG VV002 11/11 Q1020,ESTA,2022-10-31T15:50:00Z,56.28,12.83,11.0,11.0,0,0,,0.43,30.11811,,,,,,,,,,FG,OVX,0,,,,,,,LIFR,,,,,,,,,,,200,METAR,19.0
ESSV 311550Z 22005KT 9999 BKN011 11/11 Q1018,ESSV,2022-10-31T15:50:00Z,57.67,18.35,11.0,11.0,220,5,,6.21,30.059055,,,,,,,,,,,BKN,1100,,,,,,,MVFR,,,,,,,,,,,,METAR,38.0
ESST 311550Z AUTO 00000KT 9999 FEW018/// SCT025/// 07/06 Q1015,ESST,2022-10-31T15:50:00Z,60.15,12.98,7.0,6.0,0,0,,6.21,29.970472,,,TRUE,,,,,,,,FEW,1800,SCT,2500,,,,,VFR,,,,,,,,,,,,METAR,110.0
ESSP 311550Z AUTO 20002KT 9999 NCD 10/09 Q1017,ESSP,2022-10-31T15:50:00Z,58.58,16.25,10.0,9.0,200,2,,6.21,30.029528,,,TRUE,,,,,,,,CLR,,,,,,,,VFR,,,,,,,,,,,,METAR,3.0
ESSL 311550Z 22004KT 9999 FEW026 12/09 Q1018,ESSL,2022-10-31T15:50:00Z,58.4,15.67,12.0,9.0,220,4,,6.21,30.059055,,,,,,,,,,,FEW,2600,,,,,,,VFR,,,,,,,,,,,,METAR,51.0
ESSD 311550Z 24007KT 9999 FEW025 11/08 Q1014,ESSD,2022-10-31T15:50:00Z,60.42,15.5,11.0,8.0,240,7,,6.21,29.940945,,,,,,,,,,,FEW,2500,,,,,,,VFR,,,,,,,,,,,,METAR,151.0
ESSB 311550Z 23005KT 9999 FEW035 11/10 Q1016,ESSB,2022-10-31T15:50:00Z,59.35,17.93,11.0,10.0,230,5,,6.21,30.0,,,,,,,,,,,FEW,3500,,,,,,,VFR,,,,,,,,,,,,METAR,14.0
ESSA 311550Z 22008KT CAVOK 10/09 Q1015 NOSIG,ESSA,2022-10-31T15:50:00Z,59.65,17.93,10.0,9.0,220,8,,6.21,29.970472,,,,,,TRUE,,,,,CAVOK,,,,,,,,VFR,,,,,,,,,,,,METAR,36.0
ESPE 311550Z AUTO 32002KT 9999 SCT025/// BKN072/// OVC086/// M01/M01 Q1008 REFZRA,ESPE,2022-10-31T15:50:00Z,65.88,20.15,-1.0,-1.0,320,2,,6.21,29.763779,,,TRUE,,,,,,,,SCT,2500,BKN,7200,OVC,8600,,,VFR,,,,,,,,,,,,METAR,182.0
ESPA 311550Z 16007KT 9999 -RA BKN004 06/05 Q1007 RERA,ESPA,2022-10-31T15:50:00Z,65.53,22.12,6.0,5.0,160,7,,6.21,29.734253,,,,,,,,,,-RA,BKN,400,,,,,,,LIFR,,,,,,,,,,,,METAR,12.0
ESOW 311550Z 21008KT 9999 BKN034 13/10 Q1016,ESOW,2022-10-31T15:50:00Z,59.58,16.63,13.0,10.0,210,8,,6.21,30.0,,,,,,,,,,,BKN,3400,,,,,,,VFR,,,,,,,,,,,,METAR,7.0
ESOK 311550Z AUTO 23005KT 9999 NCD ///// Q1016,ESOK,2022-10-31T15:50:00Z,59.45,13.33,,,230,5,,6.21,30.0,,,TRUE,,,,,,,,CLR,,,,,,,,VFR,,,,,,,,,,,,METAR,101.0
ESOH 311550Z AUTO VRB03KT 9999 SCT025/// 10/09 Q1015,ESOH,2022-10-31T15:50:00Z,60.02,13.58,10.0,9.0,0,3,,6.21,29.970472,,,TRUE,,,,,,,,SCT,2500,,,,,,,VFR,,,,,,,,,,,,METAR,145.0
ESOE 311550Z 23009KT 200V260 CAVOK 13/10 Q1016,ESOE,2022-10-31T15:50:00Z,59.22,15.05,13.0,10.0,230,9,,6.21,30.0,,,,,,,,,,,CAVOK,,,,,,,,VFR,,,,,,,,,,,,METAR,57.0
ESNZ 311550Z VRB02KT 9999 BCFG NSC 03/03 Q1011,ESNZ,2022-10-31T15:50:00Z,63.18,14.5,3.0,3.0,0,2,,6.21,29.852362,,,,,,,,,,BCFG,CLR,,,,,,,,VFR,,,,,,,,,,,,METAR,360.0
ESNX 311550Z VRB01KT 9999 BKN048 OVC072 M00/M00 Q1006,ESNX,2022-10-31T15:50:00Z,65.58,19.28,0.0,0.0,0,1,,6.21,29.704725,,,,,,,,,,,BKN,4800,OVC,7200,,,,,VFR,,,,,,,,,,,,METAR,380.0
ESNV 311550Z AUTO 18003KT 2100 FEW003/// SCT084/// OVC110/// ///// Q1009,ESNV,2022-10-31T15:50:00Z,64.58,16.83,,,180,3,,1.3,29.793306,,,TRUE,,,,,,,,FEW,300,SCT,8400,OVC,11000,,,IFR,,,,,,,,,,,,METAR,348.0
ESNU 311550Z AUTO 23004KT 190V250 9999 OVC010/// 05/05 Q1009,ESNU,2022-10-31T15:50:00Z,63.78,20.28,5.0,5.0,230,4,,6.21,29.793306,,,TRUE,,,,,,,,OVC,1000,,,,,,,MVFR,,,,,,,,,,,,METAR,8.0
ESNS 311550Z 24006KT 2000 OVC003 05/05 Q1008,ESNS,2022-10-31T15:50:00Z,64.62,21.07,5.0,5.0,240,6,,1.24,29.763779,,,,,,,,,,,OVC,300,,,,,,,LIFR,,,,,,,,,,,,METAR,41.0
ESNQ 311550Z AUTO VRB03KT 9999 FEW053/// SCT086/// M04/M04 Q1005,ESNQ,2022-10-31T15:50:00Z,67.82,20.33,-4.0,-4.0,0,3,,6.21,29.675198,,,TRUE,,,,,,,,FEW,5300,SCT,8600,,,,,VFR,,,,,,,,,,,,METAR,447.0
ESNO 311550Z AUTO 24006KT 9999 NCD 03/03 Q1009,ESNO,2022-10-31T15:50:00Z,63.4,18.97,3.0,3.0,240,6,,6.21,29.793306,,,TRUE,,,,,,,,CLR,,,,,,,,VFR,,,,,,,,,,,,METAR,100.0
ESNN 311550Z AUTO 34003KT 0400 R16/P2000N R34/1900D BR NCD 01/01 Q1011,ESNN,2022-10-31T15:50:00Z,62.52,17.43,1.0,1.0,340,3,,0.25,29.852362,,,TRUE,,,,,,,BR,CLR,,,,,,,,LIFR,,,,,,,,,,,,METAR,4.0
ESNL 311550Z 00000KT 9999 OVC008 00/M00 Q1008,ESNL,2022-10-31T15:50:00Z,64.55,18.72,0.0,0.0,0,0,,6.21,29.763779,,,,,,,,,,,OVC,800,,,,,,,IFR,,,,,,,,,,,,METAR,220.0
ESNK 311550Z 32003KT 9999 FEW035 02/02 Q1011,ESNK,2022-10-31T15:50:00Z,63.03,17.77,2.0,2.0,320,3,,6.21,29.852362,,,,,,,,,,,FEW,3500,,,,,,,VFR,,,,,,,,,,,,METAR,4.0
ESNG 311550Z AUTO 20003KT 9999 BKN072/// M05/// Q1006,ESNG,2022-10-31T15:50:00Z,67.13,20.82,,,200,3,,6.21,29.704725,,,TRUE,,,,,,,,BKN,7200,,,,,,,VFR,,,,,,,,,,,,METAR,300.0
ESND 311550Z 24006KT 210V280 CAVOK 08/05 Q1012,ESND,2022-10-31T15:50:00Z,62.05,14.42,8.0,5.0,240,6,,6.21,29.88189,,,,,,,,,,,CAVOK,,,,,,,,VFR,,,,,,,,,,,,METAR,352.0
ESMX 311550Z 22006KT 9000 SCT004 11/11 Q1019,ESMX,2022-10-31T15:50:00Z,56.92,14.72,11.0,11.0,220,6,,5.59,30.088583,,,,,,,,,,,SCT,400,,,,,,,VFR,,,,,,,,,,,,METAR,176.0
ESMT 311550Z 19003KT 0250 R01/1100N R19/1000N FG VV002 11/11 Q1020,ESMT,2022-10-31T15:50:00Z,56.68,12.82,11.0,11.0,190,3,,0.16,30.11811,,,,,,,,,,FG,OVX,0,,,,,,,LIFR,,,,,,,,,,,200,METAR,24.0
ESMS 311550Z 26003KT 3000 BR BKN020 13/13 Q1020,ESMS,2022-10-31T15:50:00Z,55.53,13.37,13.0,13.0,260,3,,1.86,30.11811,,,,,,,,,,BR,BKN,2000,,,,,,,IFR,,,,,,,,,,,,METAR,68.0
ESMQ 311550Z 24003KT 9999 SCT014 13/11 Q1019,ESMQ,2022-10-31T15:50:00Z,56.68,16.3,13.0,11.0,240,3,,6.21,30.088583,,,,,,,,,,,SCT,1400,,,,,,,VFR,,,,,,,,,,,,METAR,3.0
ESMK 311550Z 27002KT 9999 BKN026 13/12 Q1019,ESMK,2022-10-31T15:50:00Z,55.92,14.08,13.0,12.0,270,2,,6.21,30.088583,,,,,,,,,,,BKN,2600,,,,,,,MVFR,,,,,,,,,,,,METAR,20.0
ESKS 311550Z AUTO 29003KT 260V320 9999 BKN007/// OVC009/// 07/07 Q1014,ESKS,2022-10-31T15:50:00Z,61.17,12.83,7.0,7.0,290,3,,6.21,29.940945,,,TRUE,,,,,,,,BKN,700,OVC,900,,,,,IFR,,,,,,,,,,,,METAR,503.0
ESKN 311550Z 23005KT CAVOK 09/08 Q1017,ESKN,2022-10-31T15:50:00Z,58.78,16.92,9.0,8.0,230,5,,6.21,30.029528,,,,,,,,,,,CAVOK,,,,,,,,VFR,,,,,,,,,,,,METAR,41.0
ESKM 311550Z AUTO VRB02KT 9999 OVC025/// 10/09 Q1014,ESKM,2022-10-31T15:50:00Z,60.97,14.52,10.0,9.0,0,2,,6.21,29.940945,,,TRUE,,,,,,,,OVC,2500,,,,,,,MVFR,,,,,,,,,,,,METAR,184.0
ESIB 311550Z 22007KT 9999 FEW017 SCT035 12/10 Q1017,ESIB,2022-10-31T15:50:00Z,58.42,12.7,12.0,10.0,220,7,,6.21,30.029528,,,,,,,,,,,FEW,1700,SCT,3500,,,,,VFR,,,,,,,,,,,,METAR,51.0
ESIA 311550Z AUTO 21004KT 9999 OVC035/// 11/10 Q1018,ESIA,2022-10-31T15:50:00Z,58.52,14.5,11.0,10.0,210,4,,6.21,30.059055,,,TRUE,,,,,,,,OVC,3500,,,,,,,VFR,,,,,,,,,,,,METAR,94.0
ESGT 311550Z 22007KT 9999 SCT029 12/10 Q1018,ESGT,2022-10-31T15:50:00Z,58.32,12.33,12.0,10.0,220,7,,6.21,30.059055,,,,,,,,,,,SCT,2900,,,,,,,VFR,,,,,,,,,,,,METAR,40.0
ESGP 311550Z AUTO 18005KT 2400 BR BKN002/// OVC003/// 12/10 Q1018,ESGP,2022-10-31T15:50:00Z,57.77,11.87,12.0,10.0,180,5,,1.49,30.059055,,,TRUE,,,,,,,BR,BKN,200,OVC,300,,,,,LIFR,,,,,,,,,,,,METAR,15.0
ESGJ 311550Z 23004KT 9999 FEW022 10/09 Q1018,ESGJ,2022-10-31T15:50:00Z,57.77,14.07,10.0,9.0,230,4,,6.21,30.059055,,,,,,,,,,,FEW,2200,,,,,,,VFR,,,,,,,,,,,,METAR,224.0
ESGG 311550Z 24005KT 9999 FEW003 SCT006 BKN009 11/10 Q1019,ESGG,2022-10-31T15:50:00Z,57.67,12.3,11.0,10.0,240,5,,6.21,30.088583,,,,,,,,,,,FEW,300,SCT,600,BKN,900,,,IFR,,,,,,,,,,,,METAR,152.0
ESDF 311550Z 01001KT 9999 OVC015 13/13 Q1019,ESDF,2022-10-31T15:50:00Z,56.27,15.27,13.0,13.0,10,1,,6.21,30.088583,,,,,,,,,,,OVC,1500,,,,,,,MVFR,,,,,,,,,,,,METAR,52.0
ESCM 311550Z AUTO 22006KT 9999 NCD 10/10 Q1015,ESCM,2022-10-31T15:50:00Z,59.88,17.6,10.0,10.0,220,6,,6.21,29.970472,,,TRUE,,,,,,,,CLR,,,,,,,,VFR,,,,,,,,,,,,METAR,21.0
ESCF 311550Z AUTO 24006KT 9999 FEW028/// 13/10 Q1018,ESCF,2022-10-31T15:50:00Z,58.38,15.52,13.0,10.0,240,6,,6.21,30.059055,,,TRUE,,,,,,,,FEW,2800,,,,,,,VFR,,,,,,,,,,,,METAR,86.0
ENZV 311550Z 16011KT 9999 FEW014 BKN022 12/10 Q1014,ENZV,2022-10-31T15:50:00Z,58.88,5.63,12.0,10.0,160,11,,6.21,29.940945,,,,,,,,,,,FEW,1400,BKN,2200,,,,,MVFR,,,,,,,,,,,,METAR,7.0
ENWV 311550Z AUTO 17025KT 9999NDV SCT007/// 13/13 Q1013 W///S3,ENWV,2022-10-31T15:50:00Z,56.28,3.4,13.0,13.0,170,25,,,29.911417,,,TRUE,,,,,,,,SCT,700,,,,,,,,,,,,,,,,,,,METAR,30.0
ENVD 311550Z 23004KT 160V290 9999 FEW015 BKN051 03/03 Q1007,ENVD,2022-10-31T15:50:00Z,70.07,29.85,3.0,3.0,230,4,,6.21,29.734253,,,,,,,,,,,FEW,1500,BKN,5100,,,,,VFR,,,,,,,,,,,,METAR,39.0
ENVA 311550Z 09004KT 080V140 9999 VCSH FEW010 BKN061 07/06 Q1011 NOSIG RMK WIND 670FT 15008KT,ENVA,2022-10-31T15:50:00Z,63.47,10.92,7.0,6.0,90,4,,6.21,29.852362,,,,,,TRUE,,,,VCSH,FEW,1000,BKN,6100,,,,,VFR,,,,,,,,,,,,METAR,12.0
ENUN 311550Z AUTO 21017KT 5000NDV OVC004/// 10/09 Q1004 W09/S4,ENUN,2022-10-31T15:50:00Z,,,10.0,9.0,210,17,,,29.64567,,,TRUE,,,,,,,,OVC,400,,,,,,,,,,,,,,,,,,,METAR,
ENUG 311550Z AUTO 26009KT 2500NDV -DZ BR OVC007/// 07/05 Q1004 W///S4,ENUG,2022-10-31T15:50:00Z,71.3,22.25,7.0,5.0,260,9,,,29.64567,,,TRUE,,,,,,,-DZ BR,OVC,700,,,,,,,,,,,,,,,,,,,METAR,30.0
ENTO 311550Z 19009KT CAVOK 11/10 Q1016 NOSIG,ENTO,2022-10-31T15:50:00Z,59.2,10.27,11.0,10.0,190,9,,6.21,30.0,,,,,,TRUE,,,,,CAVOK,,,,,,,,VFR,,,,,,,,,,,,METAR,84.0
ENTC 311550Z 19009KT 9999 -SHRA SCT025 BKN040 04/02 Q1007 TEMPO RA RMK WIND 2600FT 24008KT,ENTC,2022-10-31T15:50:00Z,69.68,18.92,4.0,2.0,190,9,,6.21,29.734253,,,,,,,,,,-SHRA,SCT,2500,BKN,4000,,,,,VFR,,,,,,,,,,,,METAR,9.0
ENST 311550Z VRB03KT 9000 -RADZ SCT005 BKN008 07/06 Q1009 RMK WIND 300FT VRB05KT,ENST,2022-10-31T15:50:00Z,65.97,12.47,7.0,6.0,0,3,,5.59,29.793306,,,,,,,,,,-RA -DZ,SCT,500,BKN,800,,,,,IFR,,,,,,,,,,,,METAR,17.0
ENSS 311550Z AUTO 23008KT 9999 FEW028 SCT048 01/M01 Q1008 RMK WIND 0500FT /////KT,ENSS,2022-10-31T15:50:00Z,70.35,31.05,1.0,-1.0,230,8,,6.21,29.763779,,,TRUE,,,,,,,,FEW,2800,SCT,4800,,,,,VFR,,,,,,,,,,,,METAR,13.0
ENSR 311550Z AUTO 16012KT 9999 OVC092/// 03/M02 Q1006 RMK WIND RWY32 15011KT WIND 1118FT 14010KT,ENSR,2022-10-31T15:50:00Z,69.78,20.97,3.0,-2.0,160,12,,6.21,29.704725,,,TRUE,,,,,,,,OVC,9200,,,,,,,VFR,,,,,,,,,,,,METAR,5.0
ENSO 311550Z 17013KT 9999 FEW013 BKN017 12/11 Q1014,ENSO,2022-10-31T15:50:00Z,59.78,5.33,12.0,11.0,170,13,,6.21,29.940945,,,,,,,,,,,FEW,1300,BKN,1700,,,,,MVFR,,,,,,,,,,,,METAR,48.0
ENSL 311550Z AUTO 19029KT 8000NDV OVC006/// 12/11 Q1009 W10/S4,ENSL,2022-10-31T15:50:00Z,58.37,1.9,12.0,11.0,190,29,,,29.793306,,,TRUE,,,,,,,,OVC,600,,,,,,,,,,,,,,,,,,,METAR,50.0
ENSK 311550Z 14013KT 9999 RA FEW010 SCT019 BKN024 06/05 Q1006,ENSK,2022-10-31T15:50:00Z,68.57,15.02,6.0,5.0,140,13,,6.21,29.704725,,,,,,,,,,RA,FEW,1000,SCT,1900,BKN,2400,,,MVFR,,,,,,,,,,,,METAR,3.0
ENSG 311550Z VRB02KT 9999 VCSH FEW/// BKN035 08/07 Q1013 RMK WIND 3806FT 19013KT,ENSG,2022-10-31T15:50:00Z,61.15,7.13,8.0,7.0,0,2,,6.21,29.911417,,,,,,,,,,VCSH,BKN,3500,,,,,,,VFR,,,,,,,,,,,,METAR,493.0
ENSF 311550Z AUTO /////KT 8000NDV BKN009/// ///// Q//// W///S4,ENSF,2022-10-31T15:50:00Z,61.25,1.85,,,,,,,,,,TRUE,,,,,,,,BKN,900,,,,,,,,,,,,,,,,,,,METAR,15.0
ENSE 311550Z AUTO 18034KT 8000NDV SCT008/// BKN220/// 12/11 Q1006 W///S4,ENSE,2022-10-31T15:50:00Z,61.45,2.15,12.0,11.0,180,34,,,29.704725,,,TRUE,,,,,,,,SCT,800,BKN,22000,,,,,,,,,,,,,,,,,METAR,10.0
ENSD 311550Z 05004KT 020V080 9999 FEW020 SCT034 BKN044 11/09 Q1011 RMK WIND RWY26 00000KT WIND 1140FT VRB03KT,ENSD,2022-10-31T15:50:00Z,61.82,6.12,11.0,9.0,50,4,,6.21,29.852362,,,,,,,,,,,FEW,2000,SCT,3400,BKN,4400,,,VFR,,,,,,,,,,,,METAR,61.0
ENSB 311550Z 11010KT 9999 SCT040 BKN070 M03/M06 Q1002 RMK WIND 1400FT 12009KT,ENSB,2022-10-31T15:50:00Z,78.25,15.47,-3.0,-6.0,110,10,,6.21,29.586615,,,,,,,,,,,SCT,4000,BKN,7000,,,,,VFR,,,,,,,,,,,,METAR,30.0
ENRY 311550Z 20007KT CAVOK 11/10 Q1016,ENRY,2022-10-31T15:50:00Z,59.37,10.77,11.0,10.0,200,7,,6.21,30.0,,,,,,,,,,,CAVOK,,,,,,,,VFR,,,,,,,,,,,,METAR,45.0
ENRS 311550Z AUTO 22012KT 4000 BR FEW006 SCT009 BKN014 09/10 Q1006,ENRS,2022-10-31T15:50:00Z,67.52,12.1,9.0,10.0,220,12,,2.49,29.704725,,,TRUE,,,,,,,BR,FEW,600,SCT,900,BKN,1400,,,IFR,,,,,,,,,,,,METAR,4.0
ENRO 311550Z AUTO 23006KT 9999 NCD 05/03 Q1012,ENRO,2022-10-31T15:50:00Z,62.57,11.33,5.0,3.0,230,6,,6.21,29.88189,,,TRUE,,,,,,,,CLR,,,,,,,,VFR,,,,,,,,,,,,METAR,624.0
ENRM 311550Z AUTO 13005KT 4300 SCT008 BKN012 OVC016 08/08 Q1010 RERA,ENRM,2022-10-31T15:50:00Z,64.83,11.13,8.0,8.0,130,5,,2.67,29.822834,,,TRUE,,,,,,,,SCT,800,BKN,1200,OVC,1600,,,IFR,,,,,,,,,,,,METAR,4.0
ENRA 311550Z 00000KT 9999 -DZ FEW004 SCT011 BKN014 02/02 Q1010,ENRA,2022-10-31T15:50:00Z,66.37,14.3,2.0,2.0,0,0,,6.21,29.822834,,,,,,,,,,-DZ,FEW,400,SCT,1100,BKN,1400,,,MVFR,,,,,,,,,,,,METAR,66.0
ENQR 311550Z AUTO 16030KT 6000NDV SCT008/// 11/10 Q1006 W10/S4,ENQR,2022-10-31T15:50:00Z,61.52,2.22,11.0,10.0,160,30,,,29.704725,,,TRUE,,,,,,,,SCT,800,,,,,,,,,,,,,,,,,,,METAR,10.0
ENQC 311550Z AUTO 16031KT 9999NDV BKN008/// 11/10 Q1009 W///S4,ENQC,2022-10-31T15:50:00Z,60.88,3.62,11.0,10.0,160,31,,,29.793306,,,TRUE,,,,,,,,BKN,800,,,,,,,,,,,,,,,,,,,METAR,20.0
ENQA 311550Z AUTO 17033KT 9999NDV FEW008/// SCT044/// 11/10 Q1010 W16/S4,ENQA,2022-10-31T15:50:00Z,60.65,3.72,11.0,10.0,170,33,,,29.822834,,,TRUE,,,,,,,,FEW,800,SCT,4400,,,,,,,,,,,,,,,,,METAR,90.0
ENOV 311550Z VRB05KT 9999 FEW035 BKN049 13/07 Q1011 RMK WIND RWY24 VRB06KT WIND 2090FT 15020KT,ENOV,2022-10-31T15:50:00Z,62.17,6.07,13.0,7.0,0,5,,6.21,29.852362,,,,,,,,,,,FEW,3500,BKN,4900,,,,,VFR,,,,,,,,,,,,METAR,72.0
ENOL 311550Z 10005KT 9999 VCSH FEW010 BKN040 08/07 Q1011 NOSIG,ENOL,2022-10-31T15:50:00Z,63.7,9.6,8.0,7.0,100,5,,6.21,29.852362,,,,,,TRUE,,,,VCSH,FEW,1000,BKN,4000,,,,,VFR,,,,,,,,,,,,METAR,9.0
ENOA 311550Z 17032KT 5000 BKN004 11/10 Q1008 W///S4,ENOA,2022-10-31T15:50:00Z,60.5,2.83,11.0,10.0,170,32,,3.11,29.763779,,,,,,,,,,,BKN,400,,,,,,,LIFR,,,,,,,,,,,,METAR,5.0
ENNO 311550Z VRB02KT 9999 SCT057 08/07 Q1015,ENNO,2022-10-31T15:50:00Z,59.57,9.22,8.0,7.0,0,2,,6.21,29.970472,,,,,,,,,,,SCT,5700,,,,,,,VFR,,,,,,,,,,,,METAR,19.0
ENNE 311550Z 20020KT 0250 FG VV002 10/10 Q1005 W///S4,ENNE,2022-10-31T15:50:00Z,66.03,8.08,10.0,10.0,200,20,,0.16,29.675198,,,,,,,,,,FG,OVX,0,,,,,,,LIFR,,,,,,,,,,,200,METAR,10.0
ENNA 311550Z 18009KT CAVOK M01/M04 Q1007 RMK WIND 1800FT 15003KT,ENNA,2022-10-31T15:50:00Z,70.07,24.97,-1.0,-4.0,180,9,,6.21,29.734253,,,,,,,,,,,CAVOK,,,,,,,,VFR,,,,,,,,,,,,METAR,12.0
ENMS 311550Z 00000KT 9999 -RADZ FEW005 BKN022 03/02 Q1010 RMK WIND 412FT VRB01KT,ENMS,2022-10-31T15:50:00Z,65.78,13.22,3.0,2.0,0,0,,6.21,29.822834,,,,,,,,,,-RA -DZ,FEW,500,BKN,2200,,,,,MVFR,,,,,,,,,,,,METAR,44.0
ENML 311550Z 06004KT 030V100 9999 FEW040 SCT065 09/08 Q1010,ENML,2022-10-31T15:50:00Z,62.75,7.27,9.0,8.0,60,4,,6.21,29.822834,,,,,,,,,,,FEW,4000,SCT,6500,,,,,VFR,,,,,,,,,,,,METAR,3.0
ENMH 311550Z AUTO 20007KT 160V220 9999 SCT053 03/02 Q1006,ENMH,2022-10-31T15:50:00Z,71.02,27.82,3.0,2.0,200,7,,6.21,29.704725,,,TRUE,,,,,,,,SCT,5300,,,,,,,VFR,,,,,,,,,,,,METAR,10.0
ENLK 311550Z 18012KT 2000 +RA FEW003 SCT004 BKN007 07/07 Q1006,ENLK,2022-10-31T15:50:00Z,68.15,13.62,7.0,7.0,180,12,,1.24,29.704725,,,,,,,,,,+RA,FEW,300,SCT,400,BKN,700,,,IFR,,,,,,,,,,,,METAR,26.0
ENLE 311550Z 16024KT 9999 BKN005 13/12 Q1012 W13/S4,ENLE,2022-10-31T15:50:00Z,56.53,3.22,13.0,12.0,160,24,,6.21,29.88189,,,,,,,,,,,BKN,500,,,,,,,IFR,,,,,,,,,,,,METAR,10.0
ENLA 311550Z AUTO 16026KT 9999NDV NCD 13/12 Q1010 W///S4,ENLA,2022-10-31T15:50:00Z,57.1,2.83,13.0,12.0,160,26,,,29.822834,,,TRUE,,,,,,,,CLR,,,,,,,,,,,,,,,,,,,,METAR,10.0
ENKR 311550Z 16003KT 130V190 9999 BKN046 00/M01 Q1008 RMK WIND 731FT 24008KT,ENKR,2022-10-31T15:50:00Z,69.72,29.88,0.0,-1.0,160,3,,6.21,29.763779,,,,,,,,,,,BKN,4600,,,,,,,VFR,,,,,,,,,,,,METAR,86.0
ENKB 311550Z 06004KT 010V100 9999 BKN059 10/07 Q1010 RMK WIND 745FT 14004KT,ENKB,2022-10-31T15:50:00Z,63.12,7.82,10.0,7.0,60,4,,6.21,29.822834,,,,,,,,,,,BKN,5900,,,,,,,VFR,,,,,,,,,,,,METAR,62.0
ENJS 311550Z 17028KT 7000 SCT006 11/11 Q1010 W11/S/,ENJS,2022-10-31T15:50:00Z,,,11.0,11.0,170,28,,4.35,29.822834,,,,,,,,,,,SCT,600,,,,,,,MVFR,,,,,,,,,,,,METAR,
ENHM 311550Z AUTO 16022KT 7000NDV FEW008/// BKN010/// 11/11 Q1008 W12/S/,ENHM,2022-10-31T15:50:00Z,59.57,2.23,11.0,11.0,160,22,,,29.763779,,,TRUE,,,,,,,,FEW,800,BKN,1000,,,,,,,,,,,,,,,,,METAR,10.0
ENHK 311550Z 12006KT CAVOK 06/02 Q1006,ENHK,2022-10-31T15:50:00Z,70.48,22.13,6.0,2.0,120,6,,6.21,29.704725,,,,,,,,,,,CAVOK,,,,,,,,VFR,,,,,,,,,,,,METAR,6.0
ENHF 311550Z 00000KT CAVOK 03/01 Q1005 RMK WIND 1254FT 21005KT,ENHF,2022-10-31T15:50:00Z,70.67,23.67,3.0,1.0,0,0,,6.21,29.675198,,,,,,,,,,,CAVOK,,,,,,,,VFR,,,-0.5,,,,,,,,,METAR,79.0
ENHE 311550Z 23023KT 0300 FG VV002 10/10 Q1007 W///S4,ENHE,2022-10-31T15:50:00Z,65.33,2.33,10.0,10.0,230,23,,0.19,29.734253,,,,,,,,,,FG,OVX,0,,,,,,,LIFR,,,,,,,,,,,200,METAR,10.0
ENHD 311550Z 16013KT 9999 BKN011 BKN016 12/09 Q1013,ENHD,2022-10-31T15:50:00Z,59.35,5.22,12.0,9.0,160,13,,6.21,29.911417,,,,,,,,,,,BKN,1100,BKN,1600,,,,,MVFR,,,,,,,,,,,,METAR,22.0
ENGM 311550Z 10003KT 040V150 9999 FEW011 SCT016 10/09 Q1015 NOSIG,ENGM,2022-10-31T15:50:00Z,60.2,11.07,10.0,9.0,100,3,,6.21,29.970472,,,,,,TRUE,,,,,FEW,1100,SCT,1600,,,,,VFR,,,,,,,,,,,,METAR,204.0
ENGC 311550Z 18032KT 7000 FEW008 11/10 Q1006 W10/S4,ENGC,2022-10-31T15:50:00Z,61.02,2.02,11.0,10.0,180,32,,4.35,29.704725,,,,,,,,,,,FEW,800,,,,,,,MVFR,,,,,,,,,,,,METAR,10.0
ENFL 311550Z 16017KT 9999 VCSH FEW013 SCT023 BKN028 13/09 Q1011,ENFL,2022-10-31T15:50:00Z,61.57,5.02,13.0,9.0,160,17,,6.21,29.852362,,,,,,,,,,VCSH,FEW,1300,SCT,2300,BKN,2800,,,MVFR,,,,,,,,,,,,METAR,1.0
ENFB 311550Z AUTO 17037KT 9000NDV BKN009/// 12/10 Q1006 W///S4,ENFB,2022-10-31T15:50:00Z,61.2,1.83,12.0,10.0,170,37,,,29.704725,,,TRUE,,,,,,,,BKN,900,,,,,,,,,,,,,,,,,,,METAR,10.0
ENEV 311550Z 18003KT 9999 DZ SCT024 BKN031 04/03 Q1007 RMK WIND 1400FT 22012KT,ENEV,2022-10-31T15:50:00Z,68.48,16.67,4.0,3.0,180,3,,6.21,29.734253,,,,,,,,,,DZ,SCT,2400,BKN,3100,,,,,VFR,,,,,,,,,,,,METAR,26.0
ENDU 311550Z 11002KT 7000 -RA FEW020 SCT030 BKN040 00/M00 Q1007 TEMPO RA RMK WIND 1100FT 19008KT WIND 2200FT 21007KT,ENDU,2022-10-31T15:50:00Z,69.05,18.55,0.0,0.0,110,2,,4.35,29.734253,,,,,,,,,,-RA,FEW,2000,SCT,3000,BKN,4000,,,MVFR,,,-0.7,,,,,,,,,METAR,65.0
ENDR 311550Z AUTO 23027KT 9999NDV FEW014/// BKN065/// 10/10 Q1008 W///S4,ENDR,2022-10-31T15:50:00Z,64.35,7.77,10.0,10.0,230,27,,,29.763779,,,TRUE,,,,,,,,FEW,1400,BKN,6500,,,,,,,,,,,,,,,,,METAR,10.0
ENCN 311550Z 19004KT 9999 FEW019 BKN024 12/10 Q1017,ENCN,2022-10-31T15:50:00Z,58.2,8.07,12.0,10.0,190,4,,6.21,30.029528,,,,,,,,,,,FEW,1900,BKN,2400,,,,,MVFR,,,,,,,,,,,,METAR,17.0
ENBV 311550Z 24010KT CAVOK 04/01 Q1007,ENBV,2022-10-31T15:50:00Z,70.87,29.02,4.0,1.0,240,10,,6.21,29.734253,,,,,,,,,,,CAVOK,,,,,,,,VFR,,,,,,,,,,,,METAR,13.0
ENBS 311550Z 19010KT 9999 -RA FEW022 BKN031 OVC043 02/01 Q1006,ENBS,2022-10-31T15:50:00Z,70.62,29.68,2.0,1.0,190,10,,6.21,29.704725,,,,,,,,,,-RA,FEW,2200,BKN,3100,OVC,4300,,,VFR,,,,,,,,,,,,METAR,144.0
ENBR 311550Z 17014KT 9999 SCT019 BKN023 12/09 Q1013 NOSIG RMK WIND 1200FT 15019KT,ENBR,2022-10-31T15:50:00Z,60.28,5.22,12.0,9.0,170,14,,6.21,29.911417,,,,,,TRUE,,,,,SCT,1900,BKN,2300,,,,,MVFR,,,,,,,,,,,,METAR,49.0
ENBO 311550Z 11012KT 8000 -DZ FEW004 BKN012 05/04 Q1008 TEMPO 4000 RADZ BKN006,ENBO,2022-10-31T15:50:00Z,67.27,14.37,5.0,4.0,110,12,,4.97,29.763779,,,,,,,,,,-DZ,FEW,400,BKN,1200,,,,,MVFR,,,,,,,,,,,,METAR,13.0
ENBN 311550Z 07007KT 9999 VCSH FEW005 SCT015 BKN025 08/08 Q1009,ENBN,2022-10-31T15:50:00Z,65.47,12.22,8.0,8.0,70,7,,6.21,29.793306,,,,,,,,,,VCSH,FEW,500,SCT,1500,BKN,2500,,,MVFR,,,,,,,,,,,,METAR,3.0
ENBL 311550Z 18005KT 9999 VCSH FEW008 SCT018 BKN025 10/08 Q1012,ENBL,2022-10-31T15:50:00Z,61.4,5.77,10.0,8.0,180,5,,6.21,29.88189,,,,,,,,,,VCSH,FEW,800,SCT,1800,BKN,2500,,,MVFR,,,,,,,,,,,,METAR,313.0
ENAT 311550Z 21005KT CAVOK 01/M03 Q1007 RMK WIND 700FT 18009KT,ENAT,2022-10-31T15:50:00Z,69.97,23.37,1.0,-3.0,210,5,,6.21,29.734253,,,,,,,,,,,CAVOK,,,,,,,,VFR,,,,,,,,,,,,METAR,3.0
ENAN 311550Z 18008KT 9999 -DZ SCT010 BKN019 05/04 Q1006,ENAN,2022-10-31T15:50:00Z,69.3,16.13,5.0,4.0,180,8,,6.21,29.704725,,,,,,,,,,-DZ,SCT,1000,BKN,1900,,,,,MVFR,,,,,,,,,,,,METAR,13.0
ENAL 311550Z 19008KT 9999 FEW051 13/08 Q1010,ENAL,2022-10-31T15:50:00Z,62.57,6.12,13.0,8.0,190,8,,6.21,29.822834,,,,,,,,,,,FEW,5100,,,,,,,VFR,,,,,,,,,,,,METAR,21.0
ELLX 311550Z 13006KT 110V170 CAVOK 16/10 Q1015 NOSIG,ELLX,2022-10-31T15:50:00Z,49.63,6.2,16.0,10.0,130,6,,6.21,29.970472,,,,,,TRUE,,,,,CAVOK,,,,,,,,VFR,,,,,,,,,,,,METAR,374.0
EKYT 311550Z AUTO 14003KT 9999 SCT200/// 12/11 Q1018 NOSIG,EKYT,2022-10-31T15:50:00Z,57.1,9.87,12.0,11.0,140,3,,6.21,30.059055,,,TRUE,,,TRUE,,,,,SCT,20000,,,,,,,VFR,,,,,,,,,,,,METAR,2.0
EKVG 311550Z AUTO 18017KT 9999 OVC008/// 10/09 Q0993 RMK BKN010/// BKN022/// WIND SKEID VRB16G34KT,EKVG,2022-10-31T15:50:00Z,62.07,-7.27,10.0,9.0,180,17,,6.21,29.320866,,,TRUE,,,,,,,,OVC,800,,,,,,,IFR,,,,,,,,,,,,METAR,89.0
EKVD 311550Z 19003KT 9999 FEW020 14/12 Q////,EKVD,2022-10-31T15:50:00Z,55.43,9.32,14.0,12.0,190,3,,6.21,,,,,,,,,,,,FEW,2000,,,,,,,VFR,,,,,,,,,,,,METAR,41.0
EKSP 311550Z 18001KT 9999 BKN019 13/10 Q1019 TEMPO BKN008,EKSP,2022-10-31T15:50:00Z,55.22,9.27,13.0,10.0,180,1,,6.21,30.088583,,,,,,,,,,,BKN,1900,,,,,,,MVFR,,,,,,,,,,,,METAR,40.0
EKSB 311550Z 17002KT 9999 SCT020 BKN220 14/11 Q1018,EKSB,2022-10-31T15:50:00Z,54.97,9.8,14.0,11.0,170,2,,6.21,30.059055,,,,,,,,,,,SCT,2000,BKN,22000,,,,,VFR,,,,,,,,,,,,METAR,23.0
EKRS 311550Z AUTO 23002KT 9999 SCT010/// 12/12 Q1019,EKRS,2022-10-31T15:50:00Z,55.42,11.8,12.0,12.0,230,2,,6.21,30.088583,,,TRUE,,,,,,,,SCT,1000,,,,,,,VFR,,,,,,,,,,,,METAR,34.0
EKRN 311550Z AUTO 29001KT 5000 OVC004/// 13/12 Q1020,EKRN,2022-10-31T15:50:00Z,55.07,14.75,13.0,12.0,290,1,,3.11,30.11811,,,TRUE,,,,,,,,OVC,400,,,,,,,LIFR,,,,,,,,,,,,METAR,14.0
EKRK 311550Z AUTO 00000KT 9999 BR FEW018/// 12/10 Q1020,EKRK,2022-10-31T15:50:00Z,55.58,12.13,12.0,10.0,0,0,,6.21,30.11811,,,TRUE,,,,,,,BR,FEW,1800,,,,,,,VFR,,,,,,,,,,,,METAR,40.0
EKOD 311550Z 16004KT 9999 FEW020 SCT140 13/12 Q1019,EKOD,2022-10-31T15:50:00Z,55.47,10.32,13.0,12.0,160,4,,6.21,30.088583,,,,,,,,,,,FEW,2000,SCT,14000,,,,,VFR,,,,,,,,,,,,METAR,13.0
EKKA 311550Z AUTO 18004KT 9999 SCT021/// 13/11 Q1018 NOSIG,EKKA,2022-10-31T15:50:00Z,56.3,9.12,13.0,11.0,180,4,,6.21,30.059055,,,TRUE,,,TRUE,,,,,SCT,2100,,,,,,,VFR,,,,,,,,,,,,METAR,50.0
EKEB 311550Z AUTO 17006KT 9999 BKN013/// 13/12 Q1018,EKEB,2022-10-31T15:50:00Z,55.52,8.55,13.0,12.0,170,6,,6.21,30.059055,,,TRUE,,,,,,,,BKN,1300,,,,,,,MVFR,,,,,,,,,,,,METAR,29.0
EKCH 311550Z AUTO 26004KT 9999 BKN021/// 12/10 Q1020 NOSIG,EKCH,2022-10-31T15:50:00Z,55.62,12.67,12.0,10.0,260,4,,6.21,30.11811,,,TRUE,,,TRUE,,,,,BKN,2100,,,,,,,MVFR,,,,,,,,,,,,METAR,4.0
EKBI 311550Z AUTO 17002KT 9999 FEW027/// 13/12 Q1018,EKBI,2022-10-31T15:50:00Z,55.73,9.15,13.0,12.0,170,2,,6.21,30.059055,,,TRUE,,,,,,,,FEW,2700,,,,,,,VFR,,,,,,,,,,,,METAR,67.0
EKAH 311550Z AUTO 14001KT 9999 NCD 13/12 Q1019,EKAH,2022-10-31T15:50:00Z,56.28,10.62,13.0,12.0,140,1,,6.21,30.088583,,,TRUE,,,,,,,,CLR,,,,,,,,VFR,,,,,,,,,,,,METAR,25.0
EGYM 311550Z 12009KT 9999 VCSH BKN045 SCT100 15/11 Q1009 TEMPO SCT016 RMK BLU TEMPO WHT,EGYM,2022-10-31T15:50:00Z,52.63,0.57,15.0,11.0,120,9,,6.21,29.793306,,,,,,,,,,VCSH,BKN,4500,SCT,10000,,,,,VFR,,,,,,,,,,,,METAR,25.0
EGYE 311550Z 12009KT 9999 FEW026 BKN250 ///// Q1007 RMK BLU,EGYE,2022-10-31T15:50:00Z,52.97,-0.57,,,120,9,,6.21,29.734253,,,,,,,,,,,FEW,2600,BKN,25000,,,,,VFR,,,,,,,,,,,,METAR,105.0
EGYD 311550Z 15009KT 9999 FEW026 BKN090 14/11 Q1008 NOSIG RMK BLU BLU,EGYD,2022-10-31T15:50:00Z,53.03,-0.5,14.0,11.0,150,9,,6.21,29.763779,,,,,,TRUE,,,,,FEW,2600,BKN,9000,,,,,VFR,,,,,,,,,,,,METAR,65.0
EGXT 311550Z 12006KT CAVOK 15/11 Q1008 RMK BLU,EGXT,2022-10-31T15:50:00Z,52.62,-0.47,15.0,11.0,120,6,,6.21,29.763779,,,,,,,,,,,CAVOK,,,,,,,,VFR,,,,,,,,,,,,METAR,74.0
EGXE 311550Z 14008KT 9999 FEW023 SCT045 BKN250 14/11 Q1008 NOSIG RMK BLU BLU,EGXE,2022-10-31T15:50:00Z,54.28,-1.52,14.0,11.0,140,8,,6.21,29.763779,,,,,,TRUE,,,,,FEW,2300,SCT,4500,BKN,25000,,,VFR,,,,,,,,,,,,METAR,30.0
EGXC 311550Z 15006KT 9999 FEW025 SCT090 BKN250 15/12 Q1009 TEMPO 7000 -SHRA RMK BLU TEMPO WHT,EGXC,2022-10-31T15:50:00Z,53.1,-0.17,15.0,12.0,150,6,,6.21,29.793306,,,,,,,,,,,FEW,2500,SCT,9000,BKN,25000,,,VFR,,,,,,,,,,,,METAR,9.0
EGWU 311550Z 11009KT 9999 BKN039 BKN120 16/11 Q1007 BECMG BKN015 RMK BLU BECMG WHT,EGWU,2022-10-31T15:50:00Z,51.55,-0.42,16.0,11.0,110,9,,6.21,29.734253,,,,,,,,,,,BKN,3900,BKN,12000,,,,,VFR,,,,,,,,,,,,METAR,33.0
EGVP 311550Z 10008KT 9999 -RA SCT017 BKN030 14/12 Q1005 TEMPO 7000 RA RMK WHT TEMPO WHT,EGVP,2022-10-31T15:50:00Z,51.13,-1.57,14.0,12.0,100,8,,6.21,29.675198,,,,,,,,,,-RA,SCT,1700,BKN,3000,,,,,MVFR,,,,,,,,,,,,METAR,80.0
EGVO 311550Z 10009KT 9999 FEW020 BKN040 BKN110 15/11 Q1006 TEMPO 5000 -SHRA SCT012 RMK BLU TEMPO GRN,EGVO,2022-10-31T15:50:00Z,51.23,-0.95,15.0,11.0,100,9,,6.21,29.704725,,,,,,,,,,,FEW,2000,BKN,4000,BKN,11000,,,VFR,,,,,,,,,,,,METAR,118.0
EGVN 311550Z 09006KT 9999 FEW042 BKN044 15/11 Q1006 TEMPO 6000 -RA SCT020 RMK BLU TEMPO WHT,EGVN,2022-10-31T15:50:00Z,51.77,-1.58,15.0,11.0,90,6,,6.21,29.704725,,,,,,,,,,,FEW,4200,BKN,4400,,,,,VFR,,,,,,,,,,,,METAR,83.0
EGUW 311550Z 11008KT 9999 FEW010 BKN120 14/12 Q1009 TEMPO SCT007 RMK BLU TEMPO GRN,EGUW,2022-10-31T15:50:00Z,52.12,0.97,14.0,12.0,110,8,,6.21,29.793306,,,,,,,,,,,FEW,1000,BKN,12000,,,,,VFR,,,,,,,,,,,,METAR,86.0
EGUB 311550Z 11008KT 9999 BKN039 15/11 Q1006 TEMPO 5000 RA SCT015 RMK BLU TEMPO WHT,EGUB,2022-10-31T15:50:00Z,51.62,-1.08,15.0,11.0,110,8,,6.21,29.704725,,,,,,,,,,,BKN,3900,,,,,,,VFR,,,,,,,,,,,,METAR,56.0
EGTK 311550Z 08005KT 9999 VCSH BKN041 OVC048 14/12 Q1006,EGTK,2022-10-31T15:50:00Z,51.83,-1.32,14.0,12.0,80,5,,6.21,29.704725,,,,,,,,,,VCSH,BKN,4100,OVC,4800,,,,,VFR,,,,,,,,,,,,METAR,78.0
EGTE 311550Z 10013KT 9999 -RA BKN010 15/13 Q1002,EGTE,2022-10-31T15:50:00Z,50.73,-3.42,15.0,13.0,100,13,,6.21,29.586615,,,,,,,,,,-RA,BKN,1000,,,,,,,MVFR,,,,,,,,,,,,METAR,30.0
EGTC 311550Z 11008KT 9999 SCT043 15/11 Q1007,EGTC,2022-10-31T15:50:00Z,52.07,-0.62,15.0,11.0,110,8,,6.21,29.734253,,,,,,,,,,,SCT,4300,,,,,,,VFR,,,,,,,,,,,,METAR,110.0
EGSY 311550Z 11012KT 9999 FEW018 SCT022 15/12 Q1003,EGSY,2022-10-31T15:50:00Z,51.4,-3.43,15.0,12.0,110,12,,6.21,29.616142,,,,,,,,,,,FEW,1800,SCT,2200,,,,,VFR,,,,,,,,,,,,METAR,46.0
EGSS 311550Z AUTO 11009KT 9999 BKN040 14/12 Q1009,EGSS,2022-10-31T15:50:00Z,51.88,0.22,14.0,12.0,110,9,,6.21,29.793306,,,TRUE,,,,,,,,BKN,4000,,,,,,,VFR,,,,,,,,,,,,METAR,101.0
EGSH 311550Z 12008KT 9999 SCT045 15/13 Q1010,EGSH,2022-10-31T15:50:00Z,52.68,1.28,15.0,13.0,120,8,,6.21,29.822834,,,,,,,,,,,SCT,4500,,,,,,,VFR,,,,,,,,,,,,METAR,21.0
EGSC 311550Z 13005KT 9999 FEW022 15/12 Q1008,EGSC,2022-10-31T15:50:00Z,52.2,0.17,15.0,12.0,130,5,,6.21,29.763779,,,,,,,,,,,FEW,2200,,,,,,,VFR,,,,,,,,,,,,METAR,19.0
EGQS 311550Z 15009KT 9999 FEW035 SCT050 BKN160 14/10 Q1001 NOSIG RMK BLU,EGQS,2022-10-31T15:50:00Z,57.72,-3.32,14.0,10.0,150,9,,6.21,29.557087,,,,,,TRUE,,,,,FEW,3500,SCT,5000,BKN,16000,,,VFR,,,,,,,,,,,,METAR,6.0
EGQM 311550Z AUTO 15015KT 9999 BKN150/// 13/11 Q1006,EGQM,2022-10-31T15:50:00Z,55.42,-1.6,13.0,11.0,150,15,,6.21,29.704725,,,TRUE,,,,,,,,BKN,15000,,,,,,,VFR,,,,,,,,,,,,METAR,24.0
EGQL 311550Z 20016KT CAVOK 14/10 Q1003 RMK BLU,EGQL,2022-10-31T15:50:00Z,56.38,-2.87,14.0,10.0,200,16,,6.21,29.616142,,,,,,,,,,,CAVOK,,,,,,,,VFR,,,,,,,,,,,,METAR,11.0
EGPO 311550Z 20011KT 9999 -RA FEW008 SCT022 BKN041 12/10 Q0999,EGPO,2022-10-31T15:50:00Z,58.22,-6.32,12.0,10.0,200,11,,6.21,29.498032,,,,,,,,,,-RA,FEW,800,SCT,2200,BKN,4100,,,VFR,,,,,,,,,,,,METAR,10.0
EGPN 311550Z 23010KT 9999 FEW030 14/10 Q1004,EGPN,2022-10-31T15:50:00Z,56.45,-3.02,14.0,10.0,230,10,,6.21,29.64567,,,,,,,,,,,FEW,3000,,,,,,,VFR,,,,,,,,,,,,METAR,4.0
EGPL 311550Z 23009KT 9999 VCSH FEW018 SCT040 11/09 Q0999,EGPL,2022-10-31T15:50:00Z,57.47,-7.37,11.0,9.0,230,9,,6.21,29.498032,,,,,,,,,,VCSH,FEW,1800,SCT,4000,,,,,VFR,,,,,,,,,,,,METAR,3.0
EGPK 311550Z 17010KT 9999 -RA FEW028 BKN035 14/11 Q1003,EGPK,2022-10-31T15:50:00Z,55.5,-4.58,14.0,11.0,170,10,,6.21,29.616142,,,,,,,,,,-RA,FEW,2800,BKN,3500,,,,,VFR,,,,,,,,,,,,METAR,14.0
EGPI 311550Z 18006KT 9999 FEW014 11/10 Q1001,EGPI,2022-10-31T15:50:00Z,55.68,-6.25,11.0,10.0,180,6,,6.21,29.557087,,,,,,,,,,,FEW,1400,,,,,,,VFR,,,,,,,,,,,,METAR,17.0
EGPH 311550Z 19010KT 9999 FEW029 15/10 Q1004,EGPH,2022-10-31T15:50:00Z,55.95,-3.35,15.0,10.0,190,10,,6.21,29.64567,,,,,,,,,,,FEW,2900,,,,,,,VFR,,,,,,,,,,,,METAR,29.0
EGPF 311550Z AUTO 17012KT 9999 SCT029/// BKN045/// //////CB 15/11 Q1003,EGPF,2022-10-31T15:50:00Z,55.87,-4.42,15.0,11.0,170,12,,6.21,29.616142,,,TRUE,,,,,,,,SCT,2900,BKN,4500,,,,,VFR,,,,,,,,,,,,METAR,8.0
EGPE 311550Z 20011KT 9999 VCSH FEW020 BKN045 15/09 Q1001,EGPE,2022-10-31T15:50:00Z,57.53,-4.05,15.0,9.0,200,11,,6.21,29.557087,,,,,,,,,,VCSH,FEW,2000,BKN,4500,,,,,VFR,,,,,,,,,,,,METAR,7.0
EGPD 311550Z AUTO 17016KT 9999 FEW010 SCT038 12/11 Q1004,EGPD,2022-10-31T15:50:00Z,57.2,-2.22,12.0,11.0,170,16,,6.21,29.64567,,,TRUE,,,,,,,,FEW,1000,SCT,3800,,,,,VFR,,,,,,,,,,,,METAR,65.0
EGPC 311550Z 15013KT 9999 FEW040 13/10 Q1001,EGPC,2022-10-31T15:50:00Z,58.45,-3.08,13.0,10.0,150,13,,6.21,29.557087,,,,,,,,,,,FEW,4000,,,,,,,VFR,,,,,,,,,,,,METAR,38.0
EGPB 311550Z 19016KT 9999 FEW010 12/11 Q1003,EGPB,2022-10-31T15:50:00Z,59.87,-1.3,12.0,11.0,190,16,,6.21,29.616142,,,,,,,,,,,FEW,1000,,,,,,,VFR,,,,,,,,,,,,METAR,2.0
EGPA 311550Z 16013KT 9999 VCSH SCT045 13/11 Q1001,EGPA,2022-10-31T15:50:00Z,58.95,-2.9,13.0,11.0,160,13,,6.21,29.557087,,,,,,,,,,VCSH,SCT,4500,,,,,,,VFR,,,,,,,,,,,,METAR,15.0
EGOW 311550Z 14011KT 9999 FEW020 14/11 Q1006 RMK BLU,EGOW,2022-10-31T15:50:00Z,53.58,-3.05,14.0,11.0,140,11,,6.21,29.704725,,,,,,,,,,,FEW,2000,,,,,,,VFR,,,,,,,,,,,,METAR,10.0
EGOV 311550Z 12008KT 9999 FEW028 BKN140 14/10 Q1003 NOSIG RMK BLU BLU,EGOV,2022-10-31T15:50:00Z,53.25,-4.53,14.0,10.0,120,8,,6.21,29.616142,,,,,,TRUE,,,,,FEW,2800,BKN,14000,,,,,VFR,,,,,,,,,,,,METAR,11.0
EGNX 311550Z 12008KT 9999 FEW025 14/10 Q1007,EGNX,2022-10-31T15:50:00Z,52.82,-1.32,14.0,10.0,120,8,,6.21,29.734253,,,,,,,,,,,FEW,2500,,,,,,,VFR,,,,,,,,,,,,METAR,91.0
EGNV 311550Z 16007KT 9999 FEW040 13/10 Q1008,EGNV,2022-10-31T15:50:00Z,54.52,-1.42,13.0,10.0,160,7,,6.21,29.763779,,,,,,,,,,,FEW,4000,,,,,,,VFR,,,,,,,,,,,,METAR,36.0
EGNT 311550Z 21004KT 160V270 9999 FEW017 14/11 Q1007,EGNT,2022-10-31T15:50:00Z,55.03,-1.7,14.0,11.0,210,4,,6.21,29.734253,,,,,,,,,,,FEW,1700,,,,,,,VFR,,,,,,,,,,,,METAR,77.0
EGNS 311550Z 17011KT 9999 FEW020 14/11 Q1003 NOSIG,EGNS,2022-10-31T15:50:00Z,54.08,-4.63,14.0,11.0,170,11,,6.21,29.616142,,,,,,TRUE,,,,,FEW,2000,,,,,,,VFR,,,,,,,,,,,,METAR,18.0
EGNR 311550Z 15011KT 9999 FEW017 14/11 Q1006,EGNR,2022-10-31T15:50:00Z,53.17,-2.98,14.0,11.0,150,11,,6.21,29.704725,,,,,,,,,,,FEW,1700,,,,,,,VFR,,,,,,,,,,,,METAR,11.0
EGNO 311550Z 13006KT 090V160 9999 FEW022 14/11 Q1006,EGNO,2022-10-31T15:50:00Z,53.75,-2.88,14.0,11.0,130,6,,6.21,29.704725,,,,,,,,,,,FEW,2200,,,,,,,VFR,,,,,,,,,,,,METAR,12.0
EGNM 311550Z 12006KT 070V160 9999 SCT019 SCT024 12/10 Q1008,EGNM,2022-10-31T15:50:00Z,53.87,-1.65,12.0,10.0,120,6,,6.21,29.763779,,,,,,,,,,,SCT,1900,SCT,2400,,,,,VFR,,,,,,,,,,,,METAR,221.0
EGNJ 311550Z 14008KT 9999 FEW020 15/13 Q1009,EGNJ,2022-10-31T15:50:00Z,53.57,-0.35,15.0,13.0,140,8,,6.21,29.793306,,,,,,,,,,,FEW,2000,,,,,,,VFR,,,,,,,,,,,,METAR,23.0
EGNH 311550Z 16009KT 9999 FEW015 14/11 Q1006,EGNH,2022-10-31T15:50:00Z,53.77,-3.03,14.0,11.0,160,9,,6.21,29.704725,,,,,,,,,,,FEW,1500,,,,,,,VFR,,,,,,,,,,,,METAR,10.0
EGMD 311550Z 08012KT CAVOK 16/15 Q1008,EGMD,2022-10-31T15:50:00Z,50.95,0.93,16.0,15.0,80,12,,6.21,29.763779,,,,,,,,,,,CAVOK,,,,,,,,VFR,,,,,,,,,,,,METAR,4.0
EGMC 311550Z 10008KT 9999 -RA FEW018 BKN042 15/13 Q1008,EGMC,2022-10-31T15:50:00Z,51.57,0.7,15.0,13.0,100,8,,6.21,29.763779,,,,,,,,,,-RA,FEW,1800,BKN,4200,,,,,VFR,,,,,,,,,,,,METAR,15.0
EGLL 311550Z AUTO 10008KT 9999 BKN041 15/11 Q1007 TEMPO SHRA,EGLL,2022-10-31T15:50:00Z,51.48,-0.45,15.0,11.0,100,8,,6.21,29.734253,,,TRUE,,,,,,,,BKN,4100,,,,,,,VFR,,,,,,,,,,,,METAR,26.0
EGLF 311550Z 09009KT 9999 VCSH BKN040 15/11 Q1006,EGLF,2022-10-31T15:50:00Z,51.28,-0.77,15.0,11.0,90,9,,6.21,29.704725,,,,,,,,,,VCSH,BKN,4000,,,,,,,VFR,,,,,,,,,,,,METAR,65.0
EGLC 311550Z AUTO 09009KT 9999 FEW038 16/11 Q1008,EGLC,2022-10-31T15:50:00Z,51.5,0.05,16.0,11.0,90,9,,6.21,29.763779,,,TRUE,,,,,,,,FEW,3800,,,,,,,VFR,,,,,,,,,,,,METAR,10.0
EGKK 311550Z 10007KT 9999 -SHRA FEW020 15/13 Q1007,EGKK,2022-10-31T15:50:00Z,51.13,-0.18,15.0,13.0,100,7,,6.21,29.734253,,,,,,,,,,-SHRA,FEW,2000,,,,,,,VFR,,,,,,,,,,,,METAR,58.0
EGKB 311550Z 11008KT 9999 FEW035 14/11 Q1008,EGKB,2022-10-31T15:50:00Z,51.32,0.02,14.0,11.0,110,8,,6.21,29.763779,,,,,,,,,,,FEW,3500,,,,,,,VFR,,,,,,,,,,,,METAR,183.0
EGKA 311550Z 09012KT 9999 FEW033 16/14 Q1006,EGKA,2022-10-31T15:50:00Z,50.83,-0.3,16.0,14.0,90,12,,6.21,29.704725,,,,,,,,,,,FEW,3300,,,,,,,VFR,,,,,,,,,,,,METAR,2.0
EGJJ 311550Z 16018KT 9999 -SHRA FEW006 BKN009 15/14 Q1004,EGJJ,2022-10-31T15:50:00Z,49.22,-2.2,15.0,14.0,160,18,,6.21,29.64567,,,,,,,,,,-SHRA,FEW,600,BKN,900,,,,,IFR,,,,,,,,,,,,METAR,84.0
EGJB 311550Z 15013G24KT 9999 -SHRA FEW006 SCT009 15/14 Q1003,EGJB,2022-10-31T15:50:00Z,49.42,-2.6,15.0,14.0,150,13,24,6.21,29.616142,,,,,,,,,,-SHRA,FEW,600,SCT,900,,,,,VFR,,,,,,,,,,,,METAR,102.0
EGJA 311550Z 17020KT 9999 -SHRA BKN010 15/14 Q1003 RESHRA,EGJA,2022-10-31T15:50:00Z,49.72,-2.2,15.0,14.0,170,20,,6.21,29.616142,,,,,,,,,,-SHRA,BKN,1000,,,,,,,MVFR,,,,,,,,,,,,METAR,83.0
EGHQ 311550Z 14015KT 9000 -SHRA BKN010CB 15/13 Q1000,EGHQ,2022-10-31T15:50:00Z,50.43,-5.0,15.0,13.0,140,15,,5.59,29.52756,,,,,,,,,,-SHRA,BKN,1000,,,,,,,MVFR,,,,,,,,,,,,METAR,101.0
EGHH 311550Z 11008KT 9999 -RA BKN010 15/14 Q1004,EGHH,2022-10-31T15:50:00Z,50.78,-1.83,15.0,14.0,110,8,,6.21,29.64567,,,,,,,,,,-RA,BKN,1000,,,,,,,MVFR,,,,,,,,,,,,METAR,9.0
EGHE 311550Z 13021KT 8000 VCSH FEW008 SCT010 15/14 Q0997,EGHE,2022-10-31T15:50:00Z,49.92,-6.28,15.0,14.0,130,21,,4.97,29.438976,,,,,,,,,,VCSH,FEW,800,SCT,1000,,,,,MVFR,,,,,,,,,,,,METAR,31.0
EGHC 311550Z 14018KT 7000 -RA FEW007 BKN040 14/13 Q0999,EGHC,2022-10-31T15:50:00Z,50.1,-5.67,14.0,13.0,140,18,,4.35,29.498032,,,,,,,,,,-RA,FEW,700,BKN,4000,,,,,MVFR,,,,,,,,,,,,METAR,117.0
EGGW 311550Z AUTO 11009KT 9999 FEW038 BKN045 14/12 Q1008,EGGW,2022-10-31T15:50:00Z,51.87,-0.37,14.0,12.0,110,9,,6.21,29.763779,,,TRUE,,,,,,,,FEW,3800,BKN,4500,,,,,VFR,,,,,,,,,,,,METAR,159.0
EGGP 311550Z 11007KT 090V150 9999 FEW030 14/12 Q1006,EGGP,2022-10-31T15:50:00Z,53.33,-2.85,14.0,12.0,110,7,,6.21,29.704725,,,,,,,,,,,FEW,3000,,,,,,,VFR,,,,,,,,,,,,METAR,23.0
EGGD 311550Z 09011KT 8000 RA FEW024/// SCT042/// //////TCU 12/11 Q1004,EGGD,2022-10-31T15:50:00Z,51.37,-2.72,12.0,11.0,90,11,,4.97,29.64567,,,,,,,,,,RA,FEW,2400,SCT,4200,,,,,MVFR,,,,,,,,,,,,METAR,182.0
EGFF 311550Z AUTO 11014KT 9999 NCD 14/12 Q1003,EGFF,2022-10-31T15:50:00Z,51.38,-3.35,14.0,12.0,110,14,,6.21,29.616142,,,TRUE,,,,,,,,CLR,,,,,,,,VFR,,,,,,,,,,,,METAR,65.0
EGEO 311550Z 19005KT 160V220 9999 VCSH SCT016 BKN021 13/11 Q1002,EGEO,2022-10-31T15:50:00Z,56.47,-5.4,13.0,11.0,190,5,,6.21,29.586615,,,,,,,,,,VCSH,SCT,1600,BKN,2100,,,,,MVFR,,,,,,,,,,,,METAR,5.0
EGEC 311550Z 17011KT 9999 -RA FEW045 13/11 Q1002,EGEC,2022-10-31T15:50:00Z,55.43,-5.68,13.0,11.0,170,11,,6.21,29.586615,,,,,,,,,,-RA,FEW,4500,,,,,,,VFR,,,,,,,,,,,,METAR,10.0
EGDY 311550Z 09011KT 9999 FEW011 BKN045 14/13 Q1003 TEMPO 3000 +SHRA SCT007 BKN050CB RMK BLU TEMPO YLO1,EGDY,2022-10-31T15:50:00Z,51.0,-2.63,14.0,13.0,90,11,,6.21,29.616142,,,,,,,,,,,FEW,1100,BKN,4500,,,,,VFR,,,,,,,,,,,,METAR,21.0
EGDR 311550Z 11012KT 9999 SHRA FEW006 SCT008 BKN040 14/13 Q0999 TEMPO 3000 SHRA SCT004 RMK GRN TEMPO YLO2,EGDR,2022-10-31T15:50:00Z,50.08,-5.25,14.0,13.0,110,12,,6.21,29.498032,,,,,,,,,,SHRA,FEW,600,SCT,800,BKN,4000,,,VFR,,,,,,,,,,,,METAR,74.0
EGDM 311550Z 10008KT 9999 BKN016 BKN040 13/13 Q1005 RMK WHT,EGDM,2022-10-31T15:50:00Z,51.17,-1.75,13.0,13.0,100,8,,6.21,29.675198,,,,,,,,,,,BKN,1600,BKN,4000,,,,,MVFR,,,,,,,,,,,,METAR,122.0
EGCN 311550Z 13007KT 9999 FEW024 14/11 Q1009,EGCN,2022-10-31T15:50:00Z,53.48,-1.0,14.0,11.0,130,7,,6.21,29.793306,,,,,,,,,,,FEW,2400,,,,,,,VFR,,,,,,,,,,,,METAR,9.0
EGCK 311550Z VRB06KT 9999 FEW038 15/09 Q1003,EGCK,2022-10-31T15:50:00Z,53.1,-4.33,15.0,9.0,0,6,,6.21,29.616142,,,,,,,,,,,FEW,3800,,,,,,,VFR,,,,,,,,,,,,METAR,6.0
EGCC 311550Z AUTO 13004KT 070V200 9999 NCD 14/10 Q1007,EGCC,2022-10-31T15:50:00Z,53.35,-2.27,14.0,10.0,130,4,,6.21,29.734253,,,TRUE,,,,,,,,CLR,,,,,,,,VFR,,,,,,,,,,,,METAR,78.0
EGBJ 311550Z 11005KT 070V140 9999 VCSH FEW018 SCT034 16/12 Q1005,EGBJ,2022-10-31T15:50:00Z,51.9,-2.17,16.0,12.0,110,5,,6.21,29.675198,,,,,,,,,,VCSH,FEW,1800,SCT,3400,,,,,VFR,,,,,,,,,,,,METAR,27.0
EGBB 311550Z 14009KT 9999 FEW025 14/11 Q1007,EGBB,2022-10-31T15:50:00Z,52.47,-1.75,14.0,11.0,140,9,,6.21,29.734253,,,,,,,,,,,FEW,2500,,,,,,,VFR,,,,,,,,,,,,METAR,91.0
EGAE 311550Z 22003KT 150V260 9999 -RA FEW008 SCT048 12/11 Q1001,EGAE,2022-10-31T15:50:00Z,55.03,-7.15,12.0,11.0,220,3,,6.21,29.557087,,,,,,,,,,-RA,FEW,800,SCT,4800,,,,,VFR,,,,,,,,,,,,METAR,9.0
EGAC 311550Z AUTO 20009KT 170V230 1700 +RA FEW010/// OVC043/// //////CB 12/11 Q1002,EGAC,2022-10-31T15:50:00Z,54.62,-5.87,12.0,11.0,200,9,,1.06,29.586615,,,TRUE,,,,,,,+RA,FEW,1000,OVC,4300,,,,,IFR,,,,,,,,,,,,METAR,2.0
EGAA 311550Z AUTO 16008KT 9999 -RA SCT035/// SCT042/// //////CB 12/10 Q1002 RERA,EGAA,2022-10-31T15:50:00Z,54.65,-6.22,12.0,10.0,160,8,,6.21,29.586615,,,TRUE,,,,,,,-RA,SCT,3500,SCT,4200,,,,,VFR,,,,,,,,,,,,METAR,65.0
EFVA 311550Z AUTO 21009KT 9000 OVC003 08/08 Q1010,EFVA,2022-10-31T15:50:00Z,63.05,21.77,8.0,8.0,210,9,,5.59,29.822834,,,TRUE,,,,,,,,OVC,300,,,,,,,LIFR,,,,,,,,,,,,METAR,4.0
EFUT 311550Z AUTO 18006KT CAVOK 02/M01 Q1016,EFUT,2022-10-31T15:50:00Z,60.88,26.93,2.0,-1.0,180,6,,6.21,30.0,,,TRUE,,,,,,,,CAVOK,,,,,,,,VFR,,,,,,,,,,,,METAR,104.0
EFTU 311550Z AUTO 22008KT 5000 OVC003 09/09 Q1015,EFTU,2022-10-31T15:50:00Z,60.52,22.27,9.0,9.0,220,8,,3.11,29.970472,,,TRUE,,,,,,,,OVC,300,,,,,,,LIFR,,,,,,,,,,,,METAR,47.0
EFTP 311550Z AUTO 19008KT 9999 OVC005 06/06 Q1013,EFTP,2022-10-31T15:50:00Z,61.42,23.62,6.0,6.0,190,8,,6.21,29.911417,,,TRUE,,,,,,,,OVC,500,,,,,,,IFR,,,,,,,,,,,,METAR,111.0
EFSI 311550Z AUTO 18008KT 5000 OVC002 06/06 Q1011,EFSI,2022-10-31T15:50:00Z,62.7,22.83,6.0,6.0,180,8,,3.11,29.852362,,,TRUE,,,,,,,,OVC,200,,,,,,,LIFR,,,,,,,,,,,,METAR,90.0
EFSA 311550Z 15003KT CAVOK 00/M03 Q1016,EFSA,2022-10-31T15:50:00Z,61.95,28.93,0.0,-3.0,150,3,,6.21,30.0,,,,,,,,,,,CAVOK,,,,,,,,VFR,,,,,,,,,,,,METAR,90.0
EFRO 311550Z AUTO 13008KT 0600 R21/0800 FG VV002 00/00 Q1009,EFRO,2022-10-31T15:50:00Z,66.57,25.82,0.0,0.0,130,8,,0.37,29.793306,,,TRUE,,,,,,,FG,OVX,0,,,,,,,LIFR,,,,,,,,,,,200,METAR,201.0
EFPO 311550Z AUTO 22006KT 190V250 3300 BR //////CB 09/09 Q1013,EFPO,2022-10-31T15:50:00Z,61.47,21.8,9.0,9.0,220,6,,2.05,29.911417,,,TRUE,,,,,,,BR,,,,,,,,,,,,,,,,,,,,,METAR,10.0
EFOU 311550Z AUTO 15006KT CAVOK 00/M00 Q1010,EFOU,2022-10-31T15:50:00Z,64.92,25.37,0.0,0.0,150,6,,6.21,29.822834,,,TRUE,,,,,,,,CAVOK,,,,,,,,VFR,,,,,,,,,,,,METAR,15.0
EFMI 311550Z AUTO VRB02KT CAVOK 01/M02 Q1015,EFMI,2022-10-31T15:50:00Z,61.68,27.2,1.0,-2.0,0,2,,6.21,29.970472,,,TRUE,,,,,,,,CAVOK,,,,,,,,VFR,,,,,,,,,,,,METAR,99.0
EFMA 311550Z AUTO 22005KT CAVOK 10/09 Q1015,EFMA,2022-10-31T15:50:00Z,60.12,19.9,10.0,9.0,220,5,,6.21,29.970472,,,TRUE,,,,,,,,CAVOK,,,,,,,,VFR,,,,,,,,,,,,METAR,6.0
EFLP 311550Z AUTO 18003KT CAVOK 01/M04 Q1016,EFLP,2022-10-31T15:50:00Z,61.03,28.15,1.0,-4.0,180,3,,6.21,30.0,,,TRUE,,,,,,,,CAVOK,,,,,,,,VFR,,,,,,,,,,,,METAR,102.0
EFKU 311550Z AUTO 16006KT CAVOK 02/M02 Q1014,EFKU,2022-10-31T15:50:00Z,63.02,27.8,2.0,-2.0,160,6,,6.21,29.940945,,,TRUE,,,,,,,,CAVOK,,,,,,,,VFR,,,,,,,,,,,,METAR,92.0
EFKT 311550Z 19008KT 1000 R34/1000D FZFG VV002 M03/M03 Q1008,EFKT,2022-10-31T15:50:00Z,67.7,24.85,-3.0,-3.0,190,8,,0.62,29.763779,,,,,,,,,,FZFG,OVX,0,,,,,,,LIFR,,,,,,,,,,,200,METAR,190.0
EFKS 311550Z AUTO VRB02KT 1600 0700 R30/P2000U BCFG FEW002 SCT004 M03/M03 Q1011,EFKS,2022-10-31T15:50:00Z,66.0,29.23,-3.0,-3.0,0,2,,0.99,29.852362,,,TRUE,,,,,,,BCFG,FEW,200,SCT,400,,,,,LIFR,,,,,,,,,,,,METAR,270.0
EFKK 311550Z AUTO 16007KT 9999 OVC003 05/05 Q1010,EFKK,2022-10-31T15:50:00Z,63.72,23.13,5.0,5.0,160,7,,6.21,29.822834,,,TRUE,,,,,,,,OVC,300,,,,,,,LIFR,,,,,,,,,,,,METAR,25.0
EFKI 311550Z 15005KT CAVOK M00/M03 Q1012,EFKI,2022-10-31T15:50:00Z,64.27,27.67,0.0,-3.0,150,5,,6.21,29.88189,,,,,,,,,,,CAVOK,,,,,,,,VFR,,,,,,,,,,,,METAR,132.0
EFKE 311550Z AUTO 14007KT 9999 OVC006 03/02 Q1009,EFKE,2022-10-31T15:50:00Z,65.78,24.57,3.0,2.0,140,7,,6.21,29.793306,,,TRUE,,,,,,,,OVC,600,,,,,,,IFR,,,,,,,,,,,,METAR,15.0
EFJY 311550Z AUTO 18004KT 9999 -RA BKN010 OVC023 03/02 Q1013,EFJY,2022-10-31T15:50:00Z,62.4,25.68,3.0,2.0,180,4,,6.21,29.911417,,,TRUE,,,,,,,-RA,BKN,1000,OVC,2300,,,,,MVFR,,,,,,,,,,,,METAR,139.0
EFJO 311550Z AUTO 18003KT CAVOK M01/M03 Q1015,EFJO,2022-10-31T15:50:00Z,62.67,29.62,-1.0,-3.0,180,3,,6.21,29.970472,,,TRUE,,,,,,,,CAVOK,,,,,,,,VFR,,,,,,,,,,,,METAR,118.0
EFIV 311550Z AUTO 24005KT 9999 NSC M06/M07 Q1008,EFIV,2022-10-31T15:50:00Z,68.62,27.42,-6.0,-7.0,240,5,,6.21,29.763779,,,TRUE,,,,,,,,CLR,,,,,,,,VFR,,,,,,,,,,,,METAR,145.0
EFHK 311550Z 19008KT 9999 -RA FEW009 BKN039 08/07 Q1016 BECMG BKN009,EFHK,2022-10-31T15:50:00Z,60.32,24.97,8.0,7.0,190,8,,6.21,30.0,,,,,,,,,,-RA,FEW,900,BKN,3900,,,,,VFR,,,,,,,,,,,,METAR,56.0
EFHA 311550Z AUTO 17007KT 9999 -SHRA OVC005 //////CB 05/04 Q1013,EFHA,2022-10-31T15:50:00Z,61.85,24.8,5.0,4.0,170,7,,6.21,29.911417,,,TRUE,,,,,,,-SHRA,OVC,500,,,,,,,IFR,,,,,,,,,,,,METAR,144.0
EFET 311550Z AUTO 05003KT 9999 FEW005 M07/M07 Q1006,EFET,2022-10-31T15:50:00Z,68.37,23.43,-7.0,-7.0,50,3,,6.21,29.704725,,,TRUE,,,,,,,,FEW,500,,,,,,,VFR,,,,,,,,,,,,METAR,300.0
EETU 311550Z AUTO 00000KT 9999 NCD 01/M01 Q1019,EETU,2022-10-31T15:50:00Z,58.32,26.68,1.0,-1.0,0,0,,6.21,30.088583,,,TRUE,,,,,,,,CLR,,,,,,,,VFR,,,,,,,,,,,,METAR,67.0
EETN 311550Z 20006KT 9999 BKN019 OVC049 07/05 Q1017 TEMPO 5000 RA,EETN,2022-10-31T15:50:00Z,59.4,24.82,7.0,5.0,200,6,,6.21,30.029528,,,,,,,,,,,BKN,1900,OVC,4900,,,,,MVFR,,,,,,,,,,,,METAR,41.0
EEPU 311550Z AUTO 21006KT 9999 OVC018/// 08/07 Q1019,EEPU,2022-10-31T15:50:00Z,58.42,24.47,8.0,7.0,210,6,,6.21,30.088583,,,TRUE,,,,,,,,OVC,1800,,,,,,,MVFR,,,,,,,,,,,,METAR,13.0
EEKE 311550Z 23005KT 190V290 9999 OVC010 10/09 Q1018,EEKE,2022-10-31T15:50:00Z,58.23,22.52,10.0,9.0,230,5,,6.21,30.059055,,,,,,,,,,,OVC,1000,,,,,,,MVFR,,,,,,,,,,,,METAR,4.0
EEKA 311550Z 20005KT 140V230 5000 -RA BROVC007 10/08 Q1017,EEKA,2022-10-31T15:50:00Z,58.98,22.83,10.0,8.0,200,5,,3.11,30.029528,,,,,,,,,,-RA BR,OVC,700,,,,,,,IFR,,,,,,,,,,,,METAR,6.0
EEEI 311550Z 19007KT 9999 OVC015 09/05 Q1018 BECMG OVC012,EEEI,2022-10-31T15:50:00Z,59.27,24.2,9.0,5.0,190,7,,6.21,30.059055,,,,,,,,,,,OVC,1500,,,,,,,MVFR,,,,,,,,,,,,METAR,19.0
EDXW 311550Z 16008KT 5000 BR 12/11 Q1018,EDXW,2022-10-31T15:50:00Z,54.92,8.33,12.0,11.0,160,8,,3.11,30.059055,,,,,,,,,,BR,,,,,,,,,,,,,,,,,,,,,METAR,8.0
EDVK 311550Z 13002KT CAVOK 16/12 Q1017,EDVK,2022-10-31T15:50:00Z,51.4,9.37,16.0,12.0,130,2,,6.21,30.029528,,,,,,,,,,,CAVOK,,,,,,,,VFR,,,,,,,,,,,,METAR,277.0
EDVE 311550Z 08005KT CAVOK 15/13 Q1018,EDVE,2022-10-31T15:50:00Z,52.32,10.55,15.0,13.0,80,5,,6.21,30.059055,,,,,,,,,,,CAVOK,,,,,,,,VFR,,,,,,,,,,,,METAR,83.0
EDTY 311550Z 13004KT CAVOK 17/12 Q1017,EDTY,2022-10-31T15:50:00Z,49.12,9.78,17.0,12.0,130,4,,6.21,30.029528,,,,,,,,,,,CAVOK,,,,,,,,VFR,,,,,,,,,,,,METAR,398.0
EDTL 311550Z VRB02KT CAVOK 15/13 Q1016,EDTL,2022-10-31T15:50:00Z,48.37,7.83,15.0,13.0,0,2,,6.21,30.0,,,,,,,,,,,CAVOK,,,,,,,,VFR,,,,,,,,,,,,METAR,152.0
EDSB 311550Z 28007KT 250V310 CAVOK 16/12 Q1016,EDSB,2022-10-31T15:50:00Z,48.78,8.08,16.0,12.0,280,7,,6.21,30.0,,,,,,,,,,,CAVOK,,,,,,,,VFR,,,,,,,,,,,,METAR,122.0
EDQM 311550Z 03003KT CAVOK 15/12 Q1019,EDQM,2022-10-31T15:50:00Z,50.3,11.85,15.0,12.0,30,3,,6.21,30.088583,,,,,,,,,,,CAVOK,,,,,,,,VFR,,,,,,,,,,,,METAR,578.0
EDNY 311550Z 26003KT 0200 R24/0200N FG VV/// 10/10 Q1018,EDNY,2022-10-31T15:50:00Z,47.67,9.52,10.0,10.0,260,3,,0.12,30.059055,,,,,,,,,,FG,OVX,0,,,,,,,LIFR,,,,,,,,,,,,METAR,411.0
EDMO 311550Z 04003KT CAVOK 17/10 Q1018,EDMO,2022-10-31T15:50:00Z,48.07,11.27,17.0,10.0,40,3,,6.21,30.059055,,,,,,,,,,,CAVOK,,,,,,,,VFR,,,,,,,,,,,,METAR,587.0
EDMA 311550Z 03004KT 4000 BR NSC 12/11 Q1018,EDMA,2022-10-31T15:50:00Z,48.42,10.92,12.0,11.0,30,4,,2.49,30.059055,,,,,,,,,,BR,CLR,,,,,,,,IFR,,,,,,,,,,,,METAR,462.0
EDLW 311550Z 04001KT CAVOK 17/14 Q1015,EDLW,2022-10-31T15:50:00Z,51.52,7.62,17.0,14.0,40,1,,6.21,29.970472,,,,,,,,,,,CAVOK,,,,,,,,VFR,,,,,,,,,,,,METAR,122.0
EDLV 311550Z 10005KT 070V130 CAVOK 16/13 Q1013,EDLV,2022-10-31T15:50:00Z,51.6,6.15,16.0,13.0,100,5,,6.21,29.911417,,,,,,,,,,,CAVOK,,,,,,,,VFR,,,,,,,,,,,,METAR,27.0
EDLP 311550Z 12007KT 090V150 CAVOK 17/12 Q1016,EDLP,2022-10-31T15:50:00Z,51.62,8.62,17.0,12.0,120,7,,6.21,30.0,,,,,,,,,,,CAVOK,,,,,,,,VFR,,,,,,,,,,,,METAR,211.0
EDLN 311550Z 13008KT CAVOK 18/12 Q1014,EDLN,2022-10-31T15:50:00Z,51.23,6.5,18.0,12.0,130,8,,6.21,29.940945,,,,,,,,,,,CAVOK,,,,,,,,VFR,,,,,,,,,,,,METAR,38.0
EDJA 311550Z 09003KT CAVOK 17/12 Q1018,EDJA,2022-10-31T15:50:00Z,47.98,10.23,17.0,12.0,90,3,,6.21,30.059055,,,,,,,,,,,CAVOK,,,,,,,,VFR,,,,,,,,,,,,METAR,625.0
EDHL 311550Z 11004KT 070V170 9999 OVC010 14/12 Q1019,EDHL,2022-10-31T15:50:00Z,53.8,10.72,14.0,12.0,110,4,,6.21,30.088583,,,,,,,,,,,OVC,1000,,,,,,,MVFR,,,,,,,,,,,,METAR,13.0
EDHK 311550Z 15005KT 9999 SCT007 11/11 Q1019,EDHK,2022-10-31T15:50:00Z,54.38,10.15,11.0,11.0,150,5,,6.21,30.088583,,,,,,,,,,,SCT,700,,,,,,,VFR,,,,,,,,,,,,METAR,24.0
EDHI 311550Z AUTO 09005KT 060V130 9999 // BKN150/// OVC180/// 13/13 Q1018,EDHI,2022-10-31T15:50:00Z,53.53,9.83,13.0,13.0,90,5,,6.21,30.059055,,,TRUE,,,,,,,,BKN,15000,OVC,18000,,,,,VFR,,,,,,,,,,,,METAR,5.0
EDGS 311550Z 12011KT CAVOK 14/10 Q1017,EDGS,2022-10-31T15:50:00Z,50.7,8.08,14.0,10.0,120,11,,6.21,30.029528,,,,,,,,,,,CAVOK,,,,,,,,VFR,,,,,,,,,,,,METAR,595.0
EDFM 311550Z 04004KT 3700 NSC 17/14 Q1017,EDFM,2022-10-31T15:50:00Z,49.47,8.52,17.0,14.0,40,4,,2.3,30.029528,,,,,,,,,,,CLR,,,,,,,,IFR,,,,,,,,,,,,METAR,94.0
EDFH 311550Z 15009KT 130V200 CAVOK 14/11 Q1016,EDFH,2022-10-31T15:50:00Z,49.95,7.27,14.0,11.0,150,9,,6.21,30.0,,,,,,,,,,,CAVOK,,,,,,,,VFR,,,,,,,,,,,,METAR,494.0
EDDW 311550Z AUTO 11005KT 7000 NSC 14/13 Q1017 NOSIG,EDDW,2022-10-31T15:50:00Z,53.03,8.8,14.0,13.0,110,5,,4.35,30.029528,,,TRUE,,,TRUE,,,,,CLR,,,,,,,,MVFR,,,,,,,,,,,,METAR,5.0
EDDV 311550Z AUTO 09007KT CAVOK 14/13 Q1018 NOSIG,EDDV,2022-10-31T15:50:00Z,52.47,9.68,14.0,13.0,90,7,,6.21,30.059055,,,TRUE,,,TRUE,,,,,CAVOK,,,,,,,,VFR,,,,,,,,,,,,METAR,53.0
EDDS 311550Z AUTO 09001KT CAVOK 15/12 Q1017 NOSIG,EDDS,2022-10-31T15:50:00Z,48.68,9.22,15.0,12.0,90,1,,6.21,30.029528,,,TRUE,,,TRUE,,,,,CAVOK,,,,,,,,VFR,,,,,,,,,,,,METAR,374.0
EDDR 311550Z AUTO 11003KT 9999 -SHRA FEW///TCU 15/12 Q1016 NOSIG,EDDR,2022-10-31T15:50:00Z,49.22,7.1,15.0,12.0,110,3,,6.21,30.0,,,TRUE,,,TRUE,,,,-SHRA,,,,,,,,,,,,,,,,,,,,,METAR,317.0
EDDP 311550Z AUTO 04005KT 5000 2000 R08L/1000U BR NSC 14/13 Q1019 TEMPO 2000 BR,EDDP,2022-10-31T15:50:00Z,51.43,12.23,14.0,13.0,40,5,,3.11,30.088583,,,TRUE,,,,,,,BR,CLR,,,,,,,,MVFR,,,,,,,,,,,,METAR,129.0
EDDN 311550Z AUTO 35002KT CAVOK 16/14 Q1017 NOSIG,EDDN,2022-10-31T15:50:00Z,49.5,11.05,16.0,14.0,350,2,,6.21,30.029528,,,TRUE,,,TRUE,,,,,CAVOK,,,,,,,,VFR,,,,,,,,,,,,METAR,312.0
EDDM 311550Z AUTO 03003KT CAVOK 15/13 Q1018 NOSIG,EDDM,2022-10-31T15:50:00Z,48.35,11.82,15.0,13.0,30,3,,6.21,30.059055,,,TRUE,,,TRUE,,,,,CAVOK,,,,,,,,VFR,,,,,,,,,,,,METAR,445.0
EDDL 311550Z AUTO 15009KT 120V190 CAVOK 19/11 Q1014 NOSIG,EDDL,2022-10-31T15:50:00Z,51.3,6.77,19.0,11.0,150,9,,6.21,29.940945,,,TRUE,,,TRUE,,,,,CAVOK,,,,,,,,VFR,,,,,,,,,,,,METAR,37.0
EDDK 311550Z AUTO 13010KT CAVOK 18/11 Q1015 NOSIG,EDDK,2022-10-31T15:50:00Z,50.87,7.15,18.0,11.0,130,10,,6.21,29.970472,,,TRUE,,,TRUE,,,,,CAVOK,,,,,,,,VFR,,,,,,,,,,,,METAR,92.0
EDDH 311550Z AUTO 09007KT CAVOK 13/11 Q1018 NOSIG,EDDH,2022-10-31T15:50:00Z,53.63,10.0,13.0,11.0,90,7,,6.21,30.059055,,,TRUE,,,TRUE,,,,,CAVOK,,,,,,,,VFR,,,,,,,,,,,,METAR,8.0
EDDG 311550Z AUTO 08003KT 020V120 CAVOK 16/13 Q1015 NOSIG,EDDG,2022-10-31T15:50:00Z,52.13,7.7,16.0,13.0,80,3,,6.21,29.970472,,,TRUE,,,TRUE,,,,,CAVOK,,,,,,,,VFR,,,,,,,,,,,,METAR,46.0
EDDF 311550Z AUTO VRB02KT CAVOK 16/13 Q1017 NOSIG,EDDF,2022-10-31T15:50:00Z,50.05,8.6,16.0,13.0,0,2,,6.21,30.029528,,,TRUE,,,TRUE,,,,,CAVOK,,,,,,,,VFR,,,,,,,,,,,,METAR,113.0
EDDE 311550Z AUTO 05003KT 010V080 CAVOK 15/13 Q1018 NOSIG,EDDE,2022-10-31T15:50:00Z,50.98,10.97,15.0,13.0,50,3,,6.21,30.059055,,,TRUE,,,TRUE,,,,,CAVOK,,,,,,,,VFR,,,,,,,,,,,,METAR,314.0
EDDC 311550Z AUTO 07004KT CAVOK 15/11 Q1019 NOSIG,EDDC,2022-10-31T15:50:00Z,51.13,13.75,15.0,11.0,70,4,,6.21,30.088583,,,TRUE,,,TRUE,,,,,CAVOK,,,,,,,,VFR,,,,,,,,,,,,METAR,227.0
EDDB 311550Z AUTO VRB02KT CAVOK 15/13 Q1019 NOSIG,EDDB,2022-10-31T15:50:00Z,52.38,13.53,15.0,13.0,0,2,,6.21,30.088583,,,TRUE,,,TRUE,,,,,CAVOK,,,,,,,,VFR,,,,,,,,,,,,METAR,48.0
EDBC 311550Z AUTO 10006KT 0200 R25/0225N // VV/// 13/13 Q1019,EDBC,2022-10-31T15:50:00Z,51.85,11.42,13.0,13.0,100,6,,0.12,30.088583,,,TRUE,,,,,,,,OVX,0,,,,,,,LIFR,,,,,,,,,,,,METAR,178.0
EDAH 311550Z VRB02KT 4300 1800E BR OVC003 14/14 Q1020,EDAH,2022-10-31T15:50:00Z,53.87,14.15,14.0,14.0,0,2,,2.67,30.11811,,,,,,,,,,BR,OVC,300,,,,,,,LIFR,,,,,,,,,,,,METAR,22.0
EDAC 311550Z 03002KT CAVOK 15/13 Q1019,EDAC,2022-10-31T15:50:00Z,50.98,12.5,15.0,13.0,30,2,,6.21,30.088583,,,,,,,,,,,CAVOK,,,,,,,,VFR,,,,,,,,,,,,METAR,193.0
EBOS 311550Z 11006KT CAVOK 14/12 Q1011 NOSIG,EBOS,2022-10-31T15:50:00Z,51.2,2.87,14.0,12.0,110,6,,6.21,29.852362,,,,,,TRUE,,,,,CAVOK,,,,,,,,VFR,,,,,,,,,,,,METAR,5.0
EBLG 311550Z 17009KT 140V210 CAVOK 18/09 Q1013 NOSIG,EBLG,2022-10-31T15:50:00Z,50.63,5.45,18.0,9.0,170,9,,6.21,29.911417,,,,,,TRUE,,,,,CAVOK,,,,,,,,VFR,,,,,,,,,,,,METAR,187.0
EBCI 311550Z 16008KT 130V200 CAVOK 17/10 Q1012 NOSIG,EBCI,2022-10-31T15:50:00Z,50.47,4.45,17.0,10.0,160,8,,6.21,29.88189,,,,,,TRUE,,,,,CAVOK,,,,,,,,VFR,,,,,,,,,,,,METAR,176.0
EBBR 311550Z 12006KT CAVOK 16/13 Q1012 NOSIG,EBBR,2022-10-31T15:50:00Z,50.9,4.52,16.0,13.0,120,6,,6.21,29.88189,,,,,,TRUE,,,,,CAVOK,,,,,,,,VFR,,,,,,,,,,,,METAR,49.0
EBAW 311550Z 10006KT CAVOK 15/12 Q1012 NOSIG,EBAW,2022-10-31T15:50:00Z,51.2,4.47,15.0,12.0,100,6,,6.21,29.88189,,,,,,TRUE,,,,,CAVOK,,,,,,,,VFR,,,,,,,,,,,,METAR,7.0
BIVM 311550Z 24017KT 7000 VCSH BKN012 06/05 Q0981,BIVM,2022-10-31T15:50:00Z,63.42,-20.28,6.0,5.0,240,17,,4.35,28.966536,,,,,,,,,,VCSH,BKN,1200,,,,,,,MVFR,,,,,,,,,,,,METAR,93.0
BGSF 311550Z AUTO 23004KT 9999NDV BKN075/// M05/M07 Q0991,BGSF,2022-10-31T15:50:00Z,67.0,-50.72,-5.0,-7.0,230,4,,,29.26181,,,TRUE,,,,,,,,BKN,7500,,,,,,,,,,,,,,,,,,,METAR,75.0
BGKK 311550Z AUTO 08015KT 9999NDV BKN019/// 02/M03 Q0983,BGKK,2022-10-31T15:50:00Z,65.57,-37.13,2.0,-3.0,80,15,,,29.02559,,,TRUE,,,,,,,,BKN,1900,,,,,,,,,,,,,,,,,,,METAR,37.0
BGJN 311550Z 14005KT 9999 FEW240 M06/M10 Q0991,BGJN,2022-10-31T15:50:00Z,69.25,-51.07,-6.0,-10.0,140,5,,6.21,29.26181,,,,,,,,,,,FEW,24000,,,,,,,VFR,,,,,,,,,,,,METAR,22.0
BGGH 311550Z 02004KT 5000 -SN BKN013 M01/M02 Q0989,BGGH,2022-10-31T15:50:00Z,64.2,-51.68,-1.0,-2.0,20,4,,3.11,29.202755,,,,,,,,,,-SN,BKN,1300,,,,,,,MVFR,,,,,,,,,,,,METAR,76.0
BGBW 311550Z 00000KT 9999 FEW035 BKN100 M03/M10 Q0985,BGBW,2022-10-31T15:50:00Z,61.17,-45.42,-3.0,-10.0,0,0,,6.21,29.084646,,,,,,,,,,,FEW,3500,BKN,10000,,,,,VFR,,,,,,,,,,,,METAR,49.0
YSDU 311549Z AUTO 28022G33KT 5000 UP SCT012 BKN024 OVC057 14/12 Q0995,YSDU,2022-10-31T15:49:00Z,-32.22,148.57,14.0,12.0,280,22,33,3.11,29.379921,,,TRUE,,,,,,,UP,SCT,1200,BKN,2400,OVC,5700,,,MVFR,,,,,,,,,,,,SPECI,285.0
CYTR 311549Z 22003KT 10SM -RA SCT055 BKN100 OVC140 12/08 A2995 RMK SC4AC3AC1 DENSITY ALT 134FT SLP144,CYTR,2022-10-31T15:49:00Z,44.12,-77.52,12.0,8.0,220,3,,10.0,29.949802,1014.4,,,,,,,,,-RA,SCT,5500,BKN,10000,OVC,14000,,,VFR,,,,,,,,,,,,SPECI,80.0
CYSK 311549Z 14014KT 7SM -DZ BKN011 03/02 A2974 RMK SC7 SLP074,CYSK,2022-10-31T15:49:00Z,56.53,-79.25,3.0,2.0,140,14,,7.0,29.740158,1007.4,,,,,,,,,-DZ,BKN,1100,,,,,,,MVFR,,,,,,,,,,,,SPECI,28.0
CYOO 311549Z AUTO 07003KT 6SM -RA BR SCT020 BKN027 OVC040 09/08 A2994 RMK SLP144,CYOO,2022-10-31T15:49:00Z,43.92,-78.9,9.0,8.0,70,3,,6.0,29.940945,1014.4,,TRUE,,,,,,,-RA BR,SCT,2000,BKN,2700,OVC,4000,,,MVFR,,,,,,,,,,,,SPECI,136.0
LEBG 311548Z 20014KT 9999 BKN032 13/11 Q1017,LEBG,2022-10-31T15:48:00Z,42.37,-3.62,13.0,11.0,200,14,,6.21,30.029528,,,,,,,,,,,BKN,3200,,,,,,,VFR,,,,,,,,,,,,SPECI,892.0
KOUN 311548Z 29004KT 10SM CLR 16/04 A3004,KOUN,2022-10-31T15:48:00Z,35.25,-97.47,16.0,4.0,290,4,,10.0,30.041338,,,,,,,,,,,CLR,,,,,,,,VFR,,,,,,,,,,,,METAR,359.0
KJDN 311548Z AUTO 00000KT 11/01 A2974 RMK AO1 SLP084 T01060011,KJDN,2022-10-31T15:48:00Z,47.33,-106.95,10.6,1.1,0,0,,,29.740158,1008.4,,TRUE,TRUE,,,,,,,,,,,,,,,,,,,,,,,,,,,METAR,802.0
KBJC 311548Z 16005KT 10SM FEW150 10/M05 A3004,KBJC,2022-10-31T15:48:00Z,39.9,-105.1,10.0,-5.0,160,5,,10.0,30.041338,,,,,,,,,,,FEW,15000,,,,,,,VFR,,,,,,,,,,,,METAR,1694.0
KASG 311548Z 20004KT 8SM CLR 13/13 A3003,KASG,2022-10-31T15:48:00Z,36.17,-94.12,13.0,13.0,200,4,,8.0,30.029528,,,,,,,,,,,CLR,,,,,,,,VFR,,,,,,,,,,,,METAR,410.0
CYSY 311548Z 02010KT 10SM IC FEW005 FEW012 SCT036 M22/M24 A3005 RMK ST1SC1SC3 ST TR SLP190,CYSY,2022-10-31T15:48:00Z,72.0,-125.23,-22.0,-24.0,20,10,,10.0,30.050198,1019.0,,,,,,,,,IC,FEW,500,FEW,1200,SCT,3600,,,VFR,,,,,,,,,,,,SPECI,83.0
CPIN 311548Z AUTO 01010KT ////SM SCT003 BKN012 OVC016 ///// A////,CPIN,2022-10-31T15:48:00Z,,,,,10,10,,,,,,TRUE,,,,,,,,SCT,300,BKN,1200,OVC,1600,,,,,,,,,,,,,,,SPECI,
KTOA 311547Z 00000KT 0SM VV000 16/16 A2994 FG,KTOA,2022-10-31T15:47:00Z,33.8,-118.33,16.0,16.0,0,0,,0.0,29.940945,,,,,,,,,,FG,OVX,0,,,,,,,LIFR,,,,,,,,,,,0,METAR,30.0
KTIX 311547Z 07005KT 7SM SCT038 SCT065 29/23 A3003,KTIX,2022-10-31T15:47:00Z,28.5,-80.8,29.0,23.0,70,5,,7.0,30.029528,,,,,,,,,,,SCT,3800,SCT,6500,,,,,VFR,,,,,,,,,,,,METAR,10.0
KSUA 311547Z 12010KT 10SM VCSH BKN020 28/23 A3002,KSUA,2022-10-31T15:47:00Z,27.18,-80.22,28.0,23.0,120,10,,10.0,30.02067,,,,,,,,,,VCSH,BKN,2000,,,,,,,MVFR,,,,,,,,,,,,METAR,4.0
KSEE 311547Z 00000KT 10SM SKC 13/06 A2995,KSEE,2022-10-31T15:47:00Z,32.82,-116.97,13.0,6.0,0,0,,10.0,29.949802,,,,,,,,,,,SKC,,,,,,,,VFR,,,,,,,,,,,,METAR,113.0
KSAW 311547Z 00000KT 10SM CLR 12/05 A2981,KSAW,2022-10-31T15:47:00Z,46.35,-87.4,12.0,5.0,0,0,,10.0,29.811024,,,,,,,,,,,CLR,,,,,,,,VFR,,,,,,,,,,,,METAR,359.0
KPOC 311547Z 00000KT 10SM CLR A2996,KPOC,2022-10-31T15:47:00Z,34.1,-117.77,,,0,0,,10.0,29.958662,,,,,,,,,,,CLR,,,,,,,,VFR,,,,,,,,,,,,METAR,304.0
KPAO 311547Z 15003KT 7SM BR BKN055 11/10 A2999,KPAO,2022-10-31T15:47:00Z,37.47,-122.12,11.0,10.0,150,3,,7.0,29.991142,,,,,,,,,,BR,BKN,5500,,,,,,,VFR,,,,,,,,,,,,METAR,2.0
KHSA 311547Z COR VRB05KT 10SM SCT049 22/14 A3006,KHSA,2022-10-31T15:47:00Z,30.37,-89.45,22.0,14.0,0,5,,10.0,30.059055,,TRUE,,,,,,,,,SCT,4900,,,,,,,VFR,,,,,,,,,,,,METAR,6.0
KGYR 311547Z 04003KT 10SM SKC 12/02 A2998,KGYR,2022-10-31T15:47:00Z,33.42,-112.37,12.0,2.0,40,3,,10.0,29.97933,,,,,,,,,,,SKC,,,,,,,,VFR,,,,,,,,,,,,METAR,292.0
KGYH 311547Z 02006KT 2SM -RA BR BKN003 OVC009 14/13 A3006,KGYH,2022-10-31T15:47:00Z,34.75,-82.38,14.0,13.0,20,6,,2.0,30.059055,,,,,,,,,,-RA BR,BKN,300,OVC,900,,,,,LIFR,,,,,,,,,,,,METAR,283.0
KFDK 311547Z 00000KT 5SM BR BKN007 OVC010 12/12 A3007,KFDK,2022-10-31T15:47:00Z,39.42,-77.37,12.0,12.0,0,0,,5.0,30.070866,,,,,,,,,,BR,BKN,700,OVC,1000,,,,,IFR,,,,,,,,,,,,METAR,82.0
KEVB 311547Z 13005KT 10SM SCT016 27/22 A3003,KEVB,2022-10-31T15:47:00Z,29.05,-80.95,27.0,22.0,130,5,,10.0,30.029528,,,,,,,,,,,SCT,1600,,,,,,,VFR,,,,,,,,,,,,METAR,2.0
KCWA 311547Z 00000KT 10SM CLR 13/06 A2986,KCWA,2022-10-31T15:47:00Z,44.78,-89.67,13.0,6.0,0,0,,10.0,29.861221,,,,,,,,,,,CLR,,,,,,,,VFR,,,,,,,,,,,,METAR,387.0
KCQT 311547Z AUTO 00000KT 10SM CLR 17/05 A2994 RMK AO2 SLP136 T01720050,KCQT,2022-10-31T15:47:00Z,34.02,-118.28,17.2,5.0,0,0,,10.0,29.940945,1013.6,,TRUE,TRUE,,,,,,,CLR,,,,,,,,VFR,,,,,,,,,,,,METAR,51.0
KBBG 311547Z 23006KT 9SM SCT009 SCT090 14/14 A3000,KBBG,2022-10-31T15:47:00Z,36.53,-93.2,14.0,14.0,230,6,,9.0,30.0,,,,,,,,,,,SCT,900,SCT,9000,,,,,VFR,,,,,,,,,,,,METAR,403.0
KANE 311547Z 00000KT 10SM CLR 12/01 A2987,KANE,2022-10-31T15:47:00Z,45.15,-93.22,12.0,1.0,0,0,,10.0,29.870079,,,,,,,,,,,CLR,,,,,,,,VFR,,,,,,,,,,,,METAR,276.0
KAEG 311547Z 34008KT 10SM CLR 11/M06 A3016,KAEG,2022-10-31T15:47:00Z,35.13,-106.8,11.0,-6.0,340,8,,10.0,30.159449,,,,,,,,,,,CLR,,,,,,,,VFR,,,,,,,,,,,,METAR,1771.0
KADS 311547Z 00000KT 13SM SKC 19/11 A3007,KADS,2022-10-31T15:47:00Z,32.97,-96.83,19.0,11.0,0,0,,13.0,30.070866,,,,,,,,,,,SKC,,,,,,,,VFR,,,,,,,,,,,,METAR,198.0
CYZY 311547Z AUTO 16005KT 9SM -SN OVC038 M00/M05 A2955 RMK SLP039,CYZY,2022-10-31T15:47:00Z,55.3,-123.13,0.0,-5.0,160,5,,9.0,29.551182,1003.9,,TRUE,,,,,,,-SN,OVC,3800,,,,,,,VFR,,,,,,,,,,,,SPECI,694.0
CYXX 311547Z 36003KT 5SM -RA BR FEW003 FEW009 OVC025 08/08 A2971 RMK SF1SF1SC6 SLP063,CYXX,2022-10-31T15:47:00Z,49.03,-122.38,8.0,8.0,360,3,,5.0,29.71063,1006.3,,,,,,,,,-RA BR,FEW,300,FEW,900,OVC,2500,,,MVFR,,,,,,,,,,,,SPECI,54.0
CYGL 311547Z 16006KT 15SM BKN006 OVC013 03/02 A2987 RMK SF6SC2 SLP128,CYGL,2022-10-31T15:47:00Z,53.62,-77.7,3.0,2.0,160,6,,15.0,29.870079,1012.8,,,,,,,,,,BKN,600,OVC,1300,,,,,IFR,,,,,,,,,,,,SPECI,192.0
MMCT 311546Z 17006KT 7SM FEW020 27/23 A2996 RMK 8/100 CI,MMCT,2022-10-31T15:46:00Z,20.63,-88.45,27.0,23.0,170,6,,7.0,29.958662,,,,,,,,,,,FEW,2000,,,,,,,VFR,,,,,,,,,,,,SPECI,29.0
KMUI 311546Z 00000KT 7SM OVC008 12/09 A3006 RMK AO2A SLP184,KMUI,2022-10-31T15:46:00Z,40.43,-76.57,12.0,9.0,0,0,,7.0,30.059055,1018.4,,,TRUE,,,,,,,OVC,800,,,,,,,IFR,,,,,,,,,,,,METAR,146.0
CYTH 311546Z 22003KT 15SM FEW040 SCT100 BKN220 01/00 A2922 RMK SC2AC2CI1 SLP910,CYTH,2022-10-31T15:46:00Z,55.8,-97.83,1.0,0.0,220,3,,15.0,29.220472,991.0,,,,,,,,,,FEW,4000,SCT,10000,BKN,22000,,,VFR,,,,,,,,,,,,SPECI,212.0
CYMH 311546Z AUTO 24019G26KT 9SM -RA SCT030 BKN036 OVC060 10/05 A2950 RMK SLP992,CYMH,2022-10-31T15:46:00Z,52.3,-55.82,10.0,5.0,240,19,26,9.0,29.500984,999.2,,TRUE,,,,,,,-RA,SCT,3000,BKN,3600,OVC,6000,,,VFR,,,,,,,,,,,,SPECI,18.0
CWKM 311546Z AUTO 14010KT ////SM FEW019 OVC025 M14/M18 A3008,CWKM,2022-10-31T15:46:00Z,69.6,-140.17,-14.0,-18.0,140,10,,,30.079725,,,TRUE,,,,,,,,FEW,1900,OVC,2500,,,,,,,,,,,,,,,,,SPECI,8.0
ZSJN 311545Z VRB01MPS 1600 PRFG BR SCT030 07/07 Q1026 NOSIG,ZSJN,2022-10-31T15:45:00Z,36.85,117.22,7.0,7.0,0,2,,0.99,30.295275,,,,,,TRUE,,,,PRFG BR,SCT,3000,,,,,,,LIFR,,,,,,,,,,,,SPECI,22.0
YBTL 311545Z AUTO 36010KT 9999 // SCT015 BKN018 BKN029 28/25 Q1006,YBTL,2022-10-31T15:45:00Z,-19.25,146.75,28.0,25.0,360,10,,6.21,29.704725,,,TRUE,,,,,,,,SCT,1500,BKN,1800,BKN,2900,,,MVFR,,,,,,,,,,,,SPECI,4.0
UATG 311545Z 21009MPS 5000 BR SCT010 BKN033CB 11/09 Q1004 NOSIG RMK QFE755/1006,UATG,2022-10-31T15:45:00Z,47.12,51.83,11.0,9.0,210,17,,3.11,29.64567,,,,,,TRUE,,,,BR,SCT,1000,BKN,3300,,,,,MVFR,,,,,,,,,,,,SPECI,-23.0
TJIG 311545Z 10010KT 10SM SCT040 SCT080 29/24 A2995,TJIG,2022-10-31T15:45:00Z,18.45,-66.1,29.0,24.0,100,10,,10.0,29.949802,,,,,,,,,,,SCT,4000,SCT,8000,,,,,VFR,,,,,,,,,,,,METAR,3.0
PALP 311545Z 18004KT 10SM SKC M20/M23 A3004,PALP,2022-10-31T15:45:00Z,70.33,-150.93,-20.0,-23.0,180,4,,10.0,30.041338,,,,,,,,,,,SKC,,,,,,,,VFR,,,,,,,,,,,,METAR,4.0
PAKU 311545Z 11007KT 10SM R06/P6000FT SKC M24/M25 A3005,PAKU,2022-10-31T15:45:00Z,70.32,-149.6,-24.0,-25.0,110,7,,10.0,30.050198,,,,,,,,,,,SKC,,,,,,,,VFR,,,,,,,,,,,,METAR,23.0
MKJP 311545Z 12019G30KT 1000 +SHRA VCSH BKN016 BKN018CB 26/24 Q1011,MKJP,2022-10-31T15:45:00Z,17.93,-76.78,26.0,24.0,120,19,30,0.62,29.852362,,,,,,,,,,+SHRA VCSH,BKN,1600,BKN,1800,,,,,LIFR,,,,,,,,,,,,SPECI,3.0
LMML 311545Z 35008KT 9999 FEW030 22/16 Q1022 NOSIG,LMML,2022-10-31T15:45:00Z,35.85,14.47,22.0,16.0,350,8,,6.21,30.177166,,,,,,TRUE,,,,,FEW,3000,,,,,,,VFR,,,,,,,,,,,,METAR,78.0
LIRP 311545Z 28005KT CAVOK 22/15 Q1022 NOSIG,LIRP,2022-10-31T15:45:00Z,43.68,10.38,22.0,15.0,280,5,,6.21,30.177166,,,,,,TRUE,,,,,CAVOK,,,,,,,,VFR,,,,,,,,,,,,METAR,1.0
LHSN 311545Z 10004KT 070V140 6000 OVC008 12/10 Q1023 BECMG 5000 BR RMK GRN,LHSN,2022-10-31T15:45:00Z,47.12,20.23,12.0,10.0,100,4,,3.73,30.206694,,,,,,,,,,,OVC,800,,,,,,,IFR,,,,,,,,,,,,SPECI,89.0
LHKE 311545Z 09004KT 2500 BR OVC003 11/10 Q1023 NOSIG RMK YLO,LHKE,2022-10-31T15:45:00Z,46.92,19.75,11.0,10.0,90,4,,1.55,30.206694,,,,,,TRUE,,,,BR,OVC,300,,,,,,,LIFR,,,,,,,,,,,,SPECI,113.0
KWDG 311545Z 35004KT 10SM SCT120 15/05 A3004,KWDG,2022-10-31T15:45:00Z,36.37,-97.78,15.0,5.0,350,4,,10.0,30.041338,,,,,,,,,,,SCT,12000,,,,,,,VFR,,,,,,,,,,,,METAR,352.0
KUES 311545Z 00000KT 10SM OVC030 12/07 A2986,KUES,2022-10-31T15:45:00Z,43.05,-88.25,12.0,7.0,0,0,,10.0,29.861221,,,,,,,,,,,OVC,3000,,,,,,,MVFR,,,,,,,,,,,,METAR,273.0
KTZR 311545Z 21009KT 10SM BKN015 BKN029 OVC070 18/16 A2992,KTZR,2022-10-31T15:45:00Z,39.9,-83.13,18.0,16.0,210,9,,10.0,29.920275,,,,,,,,,,,BKN,1500,BKN,2900,OVC,7000,,,MVFR,,,,,,,,,,,,METAR,275.0
KTRK 311545Z 00000KT 10SM CLR M03/M08 A3016,KTRK,2022-10-31T15:45:00Z,39.32,-120.13,-3.0,-8.0,0,0,,10.0,30.159449,,,,,,,,,,,CLR,,,,,,,,VFR,,,,,,,,,,,,METAR,1800.0
KSNH 311545Z AUTO 20007KT 10SM OVC008 17/15 A2998 RMK A01,KSNH,2022-10-31T15:45:00Z,35.17,-88.22,17.0,15.0,200,7,,10.0,29.97933,,,TRUE,TRUE,,,,,,,OVC,800,,,,,,,IFR,,,,,,,,,,,,METAR,142.0
KSCH 311545Z 15003KT 15SM CLR 14/03 A3003,KSCH,2022-10-31T15:45:00Z,42.85,-73.92,14.0,3.0,150,3,,15.0,30.029528,,,,,,,,,,,CLR,,,,,,,,VFR,,,,,,,,,,,,METAR,100.0
KS71 311545Z AUTO 06005KT 10SM 08/02 A2969 ,KS71,2022-10-31T15:45:00Z,48.6,-109.25,8.0,2.0,60,5,,10.0,29.68996,,,TRUE,,,,,,,,,,,,,,,,,,,,,,,,,,,,METAR,736.0
KMWA 311545Z 25008KT 7SM BKN008 OVC012 16/16 A2990,KMWA,2022-10-31T15:45:00Z,37.77,-89.02,16.0,16.0,250,8,,7.0,29.899607,,,,,,,,,,,BKN,800,OVC,1200,,,,,IFR,,,,,,,,,,,,METAR,142.0
KLBE 311545Z 00000KT 10SM OVC014 13/13 A2998,KLBE,2022-10-31T15:45:00Z,40.27,-79.4,13.0,13.0,0,0,,10.0,29.97933,,,,,,,,,,,OVC,1400,,,,,,,MVFR,,,,,,,,,,,,METAR,345.0
KJVL 311545Z VRB03KT 10SM SCT039 BKN200 13/08 A2985,KJVL,2022-10-31T15:45:00Z,42.62,-89.05,13.0,8.0,0,3,,10.0,29.84941,,,,,,,,,,,SCT,3900,BKN,20000,,,,,VFR,,,,,,,,,,,,METAR,244.0
KHRF 311545Z AUTO 17009KT 10SM BKN055 OVC065 13/02 A2987 RMK AO2 Hamilton ,KHRF,2022-10-31T15:45:00Z,46.25,-114.13,13.0,2.0,170,9,,10.0,29.870079,,,TRUE,TRUE,,,,,,,BKN,5500,OVC,6500,,,,,VFR,,,,,,,,,,,,METAR,1112.0
KGYY 311545Z 00000KT 1 1/2SM BR OVC003 14/14 A2983,KGYY,2022-10-31T15:45:00Z,41.62,-87.42,14.0,14.0,0,0,,1.5,29.828741,,,,,,,,,,BR,OVC,300,,,,,,,LIFR,,,,,,,,,,,,METAR,179.0
KFMH 311545Z 20007KT 10SM SCT008 BKN013 OVC024 16/14 A3008,KFMH,2022-10-31T15:45:00Z,41.65,-70.52,16.0,14.0,200,7,,10.0,30.079725,,,,,,,,,,,SCT,800,BKN,1300,OVC,2400,,,MVFR,,,,,,,,,,,,METAR,35.0
KEMT 311545Z 00000KT 10SM CLR 15/04 A2994,KEMT,2022-10-31T15:45:00Z,34.08,-118.03,15.0,4.0,0,0,,10.0,29.940945,,,,,,,,,,,CLR,,,,,,,,VFR,,,,,,,,,,,,METAR,84.0
KCGF 311545Z 20011KT 10SM OVC009 16/14 A2989,KCGF,2022-10-31T15:45:00Z,41.57,-81.47,16.0,14.0,200,11,,10.0,29.890747,,,,,,,,,,,OVC,900,,,,,,,IFR,,,,,,,,,,,,METAR,265.0
KBOW 311545Z 10005KT 10SM SCT023 28/22 A3003,KBOW,2022-10-31T15:45:00Z,27.93,-81.77,28.0,22.0,100,5,,10.0,30.029528,,,,,,,,,,,SCT,2300,,,,,,,VFR,,,,,,,,,,,,METAR,38.0
KBAK 311545Z 18010KT 10SM SCT011 BKN036 OVC070 15/14 A2989 RMK RA E12,KBAK,2022-10-31T15:45:00Z,39.27,-85.9,15.0,14.0,180,10,,10.0,29.890747,,,,,,,,,,,SCT,1100,BKN,3600,OVC,7000,,,VFR,,,,,,,,,,,,SPECI,199.0
KATW 311545Z 29005KT 10SM CLR 13/07 A2984,KATW,2022-10-31T15:45:00Z,44.27,-88.52,13.0,7.0,290,5,,10.0,29.840551,,,,,,,,,,,CLR,,,,,,,,VFR,,,,,,,,,,,,METAR,266.0
K3U3 311545Z AUTO 18014G22KT 10SM 11/M01 A2990 ,K3U3,2022-10-31T15:45:00Z,46.15,-112.87,11.0,-1.0,180,14,22,10.0,29.899607,,,TRUE,,,,,,,,,,,,,,,,,,,,,,,,,,,,METAR,1534.0
K38S 311545Z AUTO 17009G18KT 10SM 11/00 A2990 ,K38S,2022-10-31T15:45:00Z,46.38,-112.77,11.0,0.0,170,9,18,10.0,29.899607,,,TRUE,,,,,,,,,,,,,,,,,,,,,,,,,,,,METAR,1430.0
K1S3 311545Z AUTO 00000KT 10SM 11/M01 A2980 ,K1S3,2022-10-31T15:45:00Z,46.27,-106.62,11.0,-1.0,0,0,,10.0,29.799213,,,TRUE,,,,,,,,,,,,,,,,,,,,,,,,,,,,METAR,831.0
CYXH 311545Z CCA 04005KT 15SM -SHRA OVC065 06/01 A2966 RMK SC8 CVCTV CLD EMBD SLP060,CYXH,2022-10-31T15:45:00Z,50.02,-110.72,6.0,1.0,40,5,,15.0,29.660433,1006.0,,,,,,,,,-SHRA,OVC,6500,,,,,,,VFR,,,,,,,,,,,,SPECI,717.0
CYFS 311545Z 32006KT 4SM -SN OVC008 M06/M07 A2965 RMK SC8 CIG RAG SLP056,CYFS,2022-10-31T15:45:00Z,61.75,-121.22,-6.0,-7.0,320,6,,4.0,29.648623,1005.6,,,,,,,,,-SN,OVC,800,,,,,,,IFR,,,,,,,,,,,,SPECI,174.0
CWPF 311545Z AUTO 21009G16KT 11/08 RMK AO1 SLP072 T01090075 53001,CWPF,2022-10-31T15:45:00Z,48.43,-123.43,10.9,7.5,210,9,16,,,1007.2,,TRUE,TRUE,,,,,,,,,,,,,,,,0.1,,,,,,,,,,,METAR,5.0
SAVC 311544Z 28012KT 240V310 CAVOK 19/M06 Q1026,SAVC,2022-10-31T15:44:00Z,-45.78,-67.47,19.0,-6.0,280,12,,6.21,30.295275,,,,,,,,,,,CAVOK,,,,,,,,VFR,,,,,,,,,,,,SPECI,58.0
MMML 311544Z 36002KT 10SM SKC 19/M02 A2993 RMK RTS,MMML,2022-10-31T15:44:00Z,32.62,-115.23,19.0,-2.0,360,2,,10.0,29.929134,,,,,,,,,,,SKC,,,,,,,,VFR,,,,,,,,,,,,METAR,21.0
CYPC 311544Z 12003KT 15SM OVC022 M11/M16 A2997 RMK SC8 SLP151,CYPC,2022-10-31T15:44:00Z,69.37,-124.07,-11.0,-16.0,120,3,,15.0,29.970472,1015.1,,,,,,,,,,OVC,2200,,,,,,,MVFR,,,,,,,,,,,,SPECI,5.0
MMSM 311543Z 00000KT 7SM FEW220 20/12 A3029 RMK 8/002 HZY CU ARND STN,MMSM,2022-10-31T15:43:00Z,19.75,-99.02,20.0,12.0,0,0,,7.0,30.28937,,,,,,,,,,,FEW,22000,,,,,,,VFR,,,,,,,,,,,,SPECI,2250.0
YPXM 311542Z AUTO 13011KT 9999 // BKN011 BKN020 OVC029 22/21 Q1013,YPXM,2022-10-31T15:42:00Z,-10.45,105.68,22.0,21.0,130,11,,6.21,29.911417,,,TRUE,,,,,,,,BKN,1100,BKN,2000,OVC,2900,,,MVFR,,,,,,,,,,,,SPECI,262.0
MMVA 311542Z 00000KT 7SM SCT070 30/22 A2994 RMK 8/030 HZY,MMVA,2022-10-31T15:42:00Z,18.0,-92.82,30.0,22.0,0,0,,7.0,29.940945,,,,,,,,,,,SCT,7000,,,,,,,VFR,,,,,,,,,,,,SPECI,13.0
MMMD 311542Z 11008KT 7SM BKN015 28/22 A2998 RMK 8/100,MMMD,2022-10-31T15:42:00Z,20.95,-89.65,28.0,22.0,110,8,,7.0,29.97933,,,,,,,,,,,BKN,1500,,,,,,,MVFR,,,,,,,,,,,,METAR,10.0
KW99 311542Z AUTO 00000KT 10SM SCT005 BKN046 OVC080 11/11 A3005 RMK AO2,KW99,2022-10-31T15:42:00Z,39.0,-79.15,11.0,11.0,0,0,,10.0,30.050198,,,TRUE,TRUE,,,,,,,SCT,500,BKN,4600,OVC,8000,,,VFR,,,,,,,,,,,,METAR,288.0
KROS 311542Z AUTO 14003KT 10SM SCT070 SCT095 11/04 A2987 RMK AO2,KROS,2022-10-31T15:42:00Z,45.7,-92.95,11.0,4.0,140,3,,10.0,29.870079,,,TRUE,TRUE,,,,,,,SCT,7000,SCT,9500,,,,,VFR,,,,,,,,,,,,METAR,282.0
KHYA 311542Z 18007KT 10SM FEW007 BKN021 OVC048 16/14 A3007 RMK AO2 T01610144,KHYA,2022-10-31T15:42:00Z,41.67,-70.27,16.1,14.4,180,7,,10.0,30.070866,,,,TRUE,,,,,,,FEW,700,BKN,2100,OVC,4800,,,MVFR,,,,,,,,,,,,SPECI,11.0
CYZR 311542Z AUTO 15003KT 6SM BR OVC005 14/14 A2984 RMK SLP109 DENSITY ALT 700FT,CYZR,2022-10-31T15:42:00Z,43.0,-82.3,14.0,14.0,150,3,,6.0,29.840551,1010.9,,TRUE,,,,,,,BR,OVC,500,,,,,,,IFR,,,,,,,,,,,,SPECI,181.0
CYSF 311542Z AUTO 32008KT 9SM -SN SCT021 SCT055 M09/M12 A2948 RMK SLP006,CYSF,2022-10-31T15:42:00Z,59.25,-105.83,-9.0,-12.0,320,8,,9.0,29.480314,1000.6,,TRUE,,,,,,,-SN,SCT,2100,SCT,5500,,,,,VFR,,,,,,,,,,,,SPECI,238.0
MMUN 311541Z 08005KT 7SM SCT015 29/20 A2996 RMK 8/100,MMUN,2022-10-31T15:41:00Z,21.03,-86.85,29.0,20.0,80,5,,7.0,29.958662,,,,,,,,,,,SCT,1500,,,,,,,VFR,,,,,,,,,,,,METAR,13.0
MMCZ 311541Z 08007KT 8SM FEW015 29/24 A2995 RMK 8/100 SC,MMCZ,2022-10-31T15:41:00Z,20.52,-86.92,29.0,24.0,80,7,,8.0,29.949802,,,,,,,,,,,FEW,1500,,,,,,,VFR,,,,,,,,,,,,METAR,7.0
CYHY 311541Z 30007KT 2 1/2SM -FZDZ -SHGS BR BKN006 OVC008 M04/M04 A2963 RMK ST6ST2 SLP048,CYHY,2022-10-31T15:41:00Z,60.83,-115.77,-4.0,-4.0,300,7,,2.5,29.630905,1004.8,,,,,,,,,-FZDZ -SHGS BR,BKN,600,OVC,800,,,,,IFR,,,,,,,,,,,,SPECI,159.0
PKWA 311540Z AUTO 02005KT 10SM SCT016 SCT065 27/24 A2978 RMK AO2 T02700240,PKWA,2022-10-31T15:40:00Z,8.72,167.72,27.0,24.0,20,5,,10.0,29.778543,,,TRUE,TRUE,,,,,,,SCT,1600,SCT,6500,,,,,VFR,,,,,,,,,,,,METAR,6.0
MMTP 311540Z 00000KT 10SM FEW020 30/25 A2987 RMK 8/100 HZY,MMTP,2022-10-31T15:40:00Z,14.78,-92.37,30.0,25.0,0,0,,10.0,29.870079,,,,,,,,,,,FEW,2000,,,,,,,VFR,,,,,,,,,,,,METAR,27.0
MMTG 311540Z 36003KT 5SM FEW015 FEW300 26/19 A2998 RMK 8/101 VISY VRB FU HZ,MMTG,2022-10-31T15:40:00Z,16.57,-93.03,26.0,19.0,360,3,,5.0,29.97933,,,,,,,,,,,FEW,1500,FEW,30000,,,,,MVFR,,,,,,,,,,,,SPECI,463.0
MMPQ 311540Z 09010KT 8SM FEW030 FEW100 28/22 A2983 RMK 8/180,MMPQ,2022-10-31T15:40:00Z,17.53,-92.02,28.0,22.0,90,10,,8.0,29.828741,,,,,,,,,,,FEW,3000,FEW,10000,,,,,VFR,,,,,,,,,,,,METAR,48.0
MMMT 311540Z 36008KT 6SM FEW009 BKN020 BKN080 24/23 A2992 RMK 8/510 LWR VIS HZY VC,MMMT,2022-10-31T15:40:00Z,18.1,-94.57,24.0,23.0,360,8,,6.0,29.920275,,,,,,,,,,,FEW,900,BKN,2000,BKN,8000,,,MVFR,,,,,,,,,,,,METAR,15.0
MMCV 311540Z 17011KT 10SM BKN050 23/16 A2997 RMK 8/500,MMCV,2022-10-31T15:40:00Z,23.72,-98.97,23.0,16.0,170,11,,10.0,29.970472,,,,,,,,,,,BKN,5000,,,,,,,VFR,,,,,,,,,,,,METAR,230.0
MMCM 311540Z 00000KT 7SM SCT030 BKN100 29/23 A2996 RMK 8/130,MMCM,2022-10-31T15:40:00Z,18.5,-88.33,29.0,23.0,0,0,,7.0,29.958662,,,,,,,,,,,SCT,3000,BKN,10000,,,,,VFR,,,,,,,,,,,,METAR,10.0
LTCI 311540Z 18004KT 9999 -SHRA SCT040 BKN080 11/03 Q1021 NOSIG RMK RWY21 19003KT 140V250 3CU040 5AC080,LTCI,2022-10-31T15:40:00Z,38.47,43.33,11.0,3.0,180,4,,6.21,30.147638,,,,,,TRUE,,,,-SHRA,SCT,4000,BKN,8000,,,,,VFR,,,,,,,,,,,,SPECI,1654.0
KVOA 311540Z AUTO 02007KT 10SM SCT040 22/14 A3006 RMK A01,KVOA,2022-10-31T15:40:00Z,29.23,-87.78,22.0,14.0,20,7,,10.0,30.059055,,,TRUE,TRUE,,,,,,,SCT,4000,,,,,,,VFR,,,,,,,,,,,,METAR,53.0
KS85 311540Z AUTO 00000KT 10SM CLR 06/02 A2974 RMK A01 Culbertson ,KS85,2022-10-31T15:40:00Z,48.15,-104.5,6.0,2.0,0,0,,10.0,29.740158,,,TRUE,TRUE,,,,,,,CLR,,,,,,,,VFR,,,,,,,,,,,,METAR,596.0
KMTK 311540Z AUTO VRB04KT 10SM FEW018 22/16 A3007 RMK A01,KMTK,2022-10-31T15:40:00Z,,,22.0,16.0,0,4,,10.0,30.070866,,,TRUE,TRUE,,,,,,,FEW,1800,,,,,,,VFR,,,,,,,,,,,,METAR,
KGZN 311540Z AUTO 00000KT 10SM CLR 21/08 A3006 RMK AO2,KGZN,2022-10-31T15:40:00Z,32.37,-99.02,21.0,8.0,0,0,,10.0,30.059055,,,TRUE,TRUE,,,,,,,CLR,,,,,,,,VFR,,,,,,,,,,,,METAR,522.0
KCII 311540Z AUTO 22021G28KT 10SM 13/01 A2966 RMK A01 ,KCII,2022-10-31T15:40:00Z,47.83,-112.17,13.0,1.0,220,21,28,10.0,29.660433,,,TRUE,TRUE,,,,,,,,,,,,,,,,,,,,,,,,,,,METAR,1202.0
KCBM 311540Z 22005KT 10SM FEW012 SCT026 BKN032 BKN065 18/15 A3005 RMK AO2A SLP258 ALSTG/SLP ESTMD TSNO $,KCBM,2022-10-31T15:40:00Z,33.65,-88.45,18.0,15.0,220,5,,10.0,30.050198,1025.8,,,TRUE,TRUE,,TRUE,,,,FEW,1200,SCT,2600,BKN,3200,BKN,6500,VFR,,,,,,,,,,,,SPECI,59.0
K6S8 311540Z AUTO 24008KT 10SM 09/M03 A2985 RMK A01 LAUREL,K6S8,2022-10-31T15:40:00Z,45.7,-108.77,9.0,-3.0,240,8,,10.0,29.84941,,,TRUE,TRUE,,,,,,,,,,,,,,,,,,,,,,,,,,,SPECI,1072.0
CYFR 311540Z 07005KT 15SM FEW015 SCT055 BKN082 M09/M11 A2964 RMK SC1SC3AC4 SC TR SLP053,CYFR,2022-10-31T15:40:00Z,61.17,-113.68,-9.0,-11.0,70,5,,15.0,29.639763,1005.3,,,,,,,,,,FEW,1500,SCT,5500,BKN,8200,,,VFR,,,,,,,,,,,,SPECI,159.0
CWKP 311540Z AUTO 06003KT 350V070 ////SM OVC009 M14/M16 A2984,CWKP,2022-10-31T15:40:00Z,69.67,-121.67,-14.0,-16.0,60,3,,,29.840551,,,TRUE,,,,,,,,OVC,900,,,,,,,,,,,,,,,,,,,SPECI,322.0
KGUS 311539Z 21007KT 7SM SCT015 BKN009 BKN023 BKN031 OVC080 16/15 A2982 RMK CIG 015V023 BKN023 V OVC SLP100 PNO $,KGUS,2022-10-31T15:39:00Z,40.63,-86.15,16.0,15.0,210,7,,7.0,29.819881,1010.0,,,,TRUE,,,,,,SCT,1500,BKN,900,BKN,2300,BKN,3100,IFR,,,,,,,,,,,,SPECI,245.0
K2W6 311539Z AUTO 19005KT 10SM SCT027 OVC070 17/12 A3010 RMK AO1,K2W6,2022-10-31T15:39:00Z,38.32,-76.55,17.0,12.0,190,5,,10.0,30.100393,,,TRUE,TRUE,,,,,,,SCT,2700,OVC,7000,,,,,VFR,,,,,,,,,,,,METAR,40.0
CYPY 311539Z AUTO 32008KT 290V360 9SM -SN OVC050 M02/M06 A2956 RMK SLP028,CYPY,2022-10-31T15:39:00Z,58.77,-111.12,-2.0,-6.0,320,8,,9.0,29.56004,1002.8,,TRUE,,,,,,,-SN,OVC,5000,,,,,,,VFR,,,,,,,,,,,,SPECI,225.0
KMQB 311538Z AUTO 31006KT 10SM OVC100 A2990 RMK AO2,KMQB,2022-10-31T15:38:00Z,40.52,-90.65,,,310,6,,10.0,29.899607,,,TRUE,TRUE,,,,,,,OVC,10000,,,,,,,VFR,,,,,,,,,,,,SPECI,205.0
KFME 311538Z AUTO 00000KT 4SM SCT011 BKN025 OVC055 15/13 A3010 RMK AO1,KFME,2022-10-31T15:38:00Z,39.08,-76.77,15.0,13.0,0,0,,4.0,30.100393,,,TRUE,TRUE,,,,,,,SCT,1100,BKN,2500,OVC,5500,,,MVFR,,,,,,,,,,,,SPECI,43.0
CYYR 311538Z 34012G17KT 15SM FEW007 FEW014 BKN023 BKN039 03/01 A2971 RMK SF1SF2SC4SC1 PRESRR SH DIST SE SLP065,CYYR,2022-10-31T15:38:00Z,53.32,-60.42,3.0,1.0,340,12,17,15.0,29.71063,1006.5,,,,,,,,,,FEW,700,FEW,1400,BKN,2300,BKN,3900,MVFR,,,,,,,,,,,,SPECI,42.0
CYXR 311538Z AUTO 14002KT 9SM OVC086 07/06 A2986 RMK SLP124,CYXR,2022-10-31T15:38:00Z,47.7,-79.85,7.0,6.0,140,2,,9.0,29.861221,1012.4,,TRUE,,,,,,,,OVC,8600,,,,,,,VFR,,,,,,,,,,,,SPECI,244.0
YCFS 311537Z AUTO 36017G27KT 9999 // NCD 25/19 Q0994 RF00.0/000.0,YCFS,2022-10-31T15:37:00Z,-30.32,153.12,25.0,19.0,360,17,27,6.21,29.350393,,,TRUE,,,,,,,,CLR,,,,,,,,VFR,,,,,,,,,,,,SPECI,2.0
KRGA 311537Z AUTO 00000KT 10SM BKN016 OVC026 17/15 A2998 RMK AO2,KRGA,2022-10-31T15:37:00Z,37.63,-84.33,17.0,15.0,0,0,,10.0,29.97933,,,TRUE,TRUE,,,,,,,BKN,1600,OVC,2600,,,,,MVFR,,,,,,,,,,,,SPECI,301.0
KNY0 311537Z AUTO 00000KT 10SM CLR 11/03 A3003 RMK AO2,KNY0,2022-10-31T15:37:00Z,42.98,-74.33,11.0,3.0,0,0,,10.0,30.029528,,,TRUE,TRUE,,,,,,,CLR,,,,,,,,VFR,,,,,,,,,,,,METAR,266.0
KDUB 311537Z AUTO 34015KT 10SM CLR 05/M06 A3004 RMK AO2,KDUB,2022-10-31T15:37:00Z,43.55,-109.68,5.0,-6.0,340,15,,10.0,30.041338,,,TRUE,TRUE,,,,,,,CLR,,,,,,,,VFR,,,,,,,,,,,,SPECI,2205.0
CYSN 311537Z 10004KT 10SM -RA SCT014 BKN032 BKN068 12/11 A2991 RMK SC4SC2AC2 SLP131,CYSN,2022-10-31T15:37:00Z,43.2,-79.17,12.0,11.0,100,4,,10.0,29.911417,1013.1,,,,,,,,,-RA,SCT,1400,BKN,3200,BKN,6800,,,VFR,,,,,,,,,,,,SPECI,96.0
SBSP 311536Z 09006KT 9999 SCT040 BKN080 22/18 Q1013,SBSP,2022-10-31T15:36:00Z,-23.62,-46.65,22.0,18.0,90,6,,6.21,29.911417,,,,,,,,,,,SCT,4000,BKN,8000,,,,,VFR,,,,,,,,,,,,METAR,802.0
KHDC 311536Z AUTO 00000KT 10SM CLR 21/16 A3008 RMK AO2,KHDC,2022-10-31T15:36:00Z,30.52,-90.42,21.0,16.0,0,0,,10.0,30.079725,,,TRUE,TRUE,,,,,,,CLR,,,,,,,,VFR,,,,,,,,,,,,METAR,12.0
KCUL 311536Z AUTO 26007KT BKN022 OVC039 16/14 A2990 RMK AO2 PWINO,KCUL,2022-10-31T15:36:00Z,38.08,-88.12,16.0,14.0,260,7,,,29.899607,,,TRUE,TRUE,,,,,TRUE,,BKN,2200,OVC,3900,,,,,,,,,,,,,,,,,METAR,116.0
KCQM 311536Z AUTO 21006KT 10SM CLR 11/M02 A2976 RMK AO2,KCQM,2022-10-31T15:36:00Z,47.82,-92.68,11.0,-2.0,210,6,,10.0,29.760826,,,TRUE,TRUE,,,,,,,CLR,,,,,,,,VFR,,,,,,,,,,,,SPECI,406.0
KAPS 311536Z AUTO 00000KT 10SM SCT044 19/16 A3008 RMK AO2,KAPS,2022-10-31T15:36:00Z,30.08,-90.58,19.0,16.0,0,0,,10.0,30.079725,,,TRUE,TRUE,,,,,,,SCT,4400,,,,,,,VFR,,,,,,,,,,,,METAR,1.0
YSWG 311535Z AUTO 27014KT 9999 // SCT010 SCT020 BKN033 12/10 Q0989,YSWG,2022-10-31T15:35:00Z,-35.15,147.47,12.0,10.0,270,14,,6.21,29.202755,,,TRUE,,,,,,,,SCT,1000,SCT,2000,BKN,3300,,,VFR,,,,,,,,,,,,SPECI,212.0
YMDG 311535Z AUTO 33018G28KT 9999 -RA BKN020 BKN030 OVC049 17/16 Q0992 RERA,YMDG,2022-10-31T15:35:00Z,-32.57,149.62,17.0,16.0,330,18,28,6.21,29.291338,,,TRUE,,,,,,,-RA,BKN,2000,BKN,3000,OVC,4900,,,MVFR,,,,,,,,,,,,SPECI,470.0
RKJB 311535Z AUTO 09004KT 5000 BR NCD 10/09 Q1023,RKJB,2022-10-31T15:35:00Z,34.98,126.38,10.0,9.0,90,4,,3.11,30.206694,,,TRUE,,,,,,,BR,CLR,,,,,,,,MVFR,,,,,,,,,,,,SPECI,16.0
KZPH 311535Z AUTO 14005KT 10SM SCT027 28/21 A3004 RMK A02 T02790206,KZPH,2022-10-31T15:35:00Z,28.23,-82.15,27.9,20.6,140,5,,10.0,30.041338,,,TRUE,TRUE,,,,,,,SCT,2700,,,,,,,VFR,,,,,,,,,,,,METAR,26.0
KZER 311535Z AUTO 19006KT 10SM SCT004 SCT110 11/09 A3006 RMK AO2,KZER,2022-10-31T15:35:00Z,,,11.0,9.0,190,6,,10.0,30.059055,,,TRUE,TRUE,,,,,,,SCT,400,SCT,11000,,,,,VFR,,,,,,,,,,,,SPECI,
KXER 311535Z AUTO 00000KT 10SM 23/15 A2998 RMK A01,KXER,2022-10-31T15:35:00Z,,,23.0,15.0,0,0,,10.0,29.97933,,,TRUE,TRUE,,,,,,,,,,,,,,,,,,,,,,,,,,,METAR,
KXBP 311535Z AUTO 00000KT 10SM CLR 16/12 A3010 RMK AO2 T01550116,KXBP,2022-10-31T15:35:00Z,33.18,-97.83,15.5,11.6,0,0,,10.0,30.100393,,,TRUE,TRUE,,,,,,,CLR,,,,,,,,VFR,,,,,,,,,,,,SPECI,256.0
KX26 311535Z AUTO 06007KT 10SM SCT021 SCT027 SCT037 28/23 A3002 RMK AO2 T02770233,KX26,2022-10-31T15:35:00Z,27.82,-80.5,27.7,23.3,60,7,,10.0,30.02067,,,TRUE,TRUE,,,,,,,SCT,2100,SCT,2700,SCT,3700,,,VFR,,,,,,,,,,,,SPECI,5.0
KWWR 311535Z AUTO 23003KT 10SM CLR 13/00 A3008 RMK AO2,KWWR,2022-10-31T15:35:00Z,36.45,-99.52,13.0,0.0,230,3,,10.0,30.079725,,,TRUE,TRUE,,,,,,,CLR,,,,,,,,VFR,,,,,,,,,,,,METAR,664.0
KWDR 311535Z AUTO 00000KT 2 1/2SM -DZ OVC002 15/13 A3007 RMK AO2,KWDR,2022-10-31T15:35:00Z,33.98,-83.67,15.0,13.0,0,0,,2.5,30.070866,,,TRUE,TRUE,,,,,,-DZ,OVC,200,,,,,,,LIFR,,,,,,,,,,,,METAR,280.0
KWBF 311535Z AUTO 00000KT 10SM 25/18 A3005 RMK A01,KWBF,2022-10-31T15:35:00Z,26.93,-90.5,25.0,18.0,0,0,,10.0,30.050198,,,TRUE,TRUE,,,,,,,,,,,,,,,,,,,,,,,,,,,SPECI,40.0
KW43 311535Z AUTO 21005KT 10SM CLR 06/M06 A2990 RMK AO2,KW43,2022-10-31T15:35:00Z,44.67,-104.57,6.0,-6.0,210,5,,10.0,29.899607,,,TRUE,TRUE,,,,,,,CLR,,,,,,,,VFR,,,,,,,,,,,,SPECI,1292.0
KW29 311535Z AUTO 20007KT 180V240 10SM OVC029 17/14 A3010 RMK AO2 P0001 T01670142,KW29,2022-10-31T15:35:00Z,38.98,-76.33,16.7,14.2,200,7,,10.0,30.100393,,,TRUE,TRUE,,,,,,,OVC,2900,,,,,,,MVFR,,,,,,0.01,,,,,,SPECI,1.0
KW22 311535Z AUTO 21009KT 10SM BKN014 OVC055 17/17 A3000 RMK AO2,KW22,2022-10-31T15:35:00Z,39.0,-80.27,17.0,17.0,210,9,,10.0,30.0,,,TRUE,TRUE,,,,,,,BKN,1400,OVC,5500,,,,,MVFR,,,,,,,,,,,,SPECI,497.0
KVYS 311535Z AUTO 36006KT 5SM BR OVC004 13/12 A2985 RMK AO2 T01270121,KVYS,2022-10-31T15:35:00Z,41.35,-89.15,12.7,12.1,360,6,,5.0,29.84941,,,TRUE,TRUE,,,,,,BR,OVC,400,,,,,,,LIFR,,,,,,,,,,,,SPECI,198.0
KVVS 311535Z AUTO 22004KT 10SM -RA OVC016 15/14 A2999 RMK AO2 T01510144,KVVS,2022-10-31T15:35:00Z,39.95,-79.65,15.1,14.4,220,4,,10.0,29.991142,,,TRUE,TRUE,,,,,,-RA,OVC,1600,,,,,,,MVFR,,,,,,,,,,,,SPECI,386.0
KVUJ 311535Z AUTO 15004KT 10SM OVC015 19/16 A3011 RMK AO2 T01920155,KVUJ,2022-10-31T15:35:00Z,35.42,-80.15,19.2,15.5,150,4,,10.0,30.109253,,,TRUE,TRUE,,,,,,,OVC,1500,,,,,,,MVFR,,,,,,,,,,,,METAR,174.0
KVPC 311535Z AUTO 11005KT 10SM OVC006 18/17 A3003 RMK AO2,KVPC,2022-10-31T15:35:00Z,34.1,-84.85,18.0,17.0,110,5,,10.0,30.029528,,,TRUE,TRUE,,,,,,,OVC,600,,,,,,,IFR,,,,,,,,,,,,METAR,234.0
KVKS 311535Z AUTO 25006KT 10SM CLR 21/16 A3005 RMK A01,KVKS,2022-10-31T15:35:00Z,32.23,-90.93,21.0,16.0,250,6,,10.0,30.050198,,,TRUE,TRUE,,,,,,,CLR,,,,,,,,VFR,,,,,,,,,,,,METAR,31.0
KVHN 311535Z AUTO 00000KT 10SM CLR 14/03 A3011 RMK AO2 T01440031,KVHN,2022-10-31T15:35:00Z,31.07,-104.78,14.4,3.1,0,0,,10.0,30.109253,,,TRUE,TRUE,,,,,,,CLR,,,,,,,,VFR,,,,,,,,,,,,SPECI,1200.0
KVES 311535Z AUTO 20008KT 10SM OVC012 16/16 A2988 RMK AO2,KVES,2022-10-31T15:35:00Z,40.2,-84.53,16.0,16.0,200,8,,10.0,29.878937,,,TRUE,TRUE,,,,,,,OVC,1200,,,,,,,MVFR,,,,,,,,,,,,SPECI,308.0
KVDI 311535Z AUTO 21005KT 10SM OVC007 22/21 A3005 RMK AO2,KVDI,2022-10-31T15:35:00Z,32.2,-82.37,22.0,21.0,210,5,,10.0,30.050198,,,TRUE,TRUE,,,,,,,OVC,700,,,,,,,IFR,,,,,,,,,,,,METAR,81.0
KVAF 311535Z AUTO 04010KT 10SM CLR 26/13 A3005 RMK A01,KVAF,2022-10-31T15:35:00Z,27.35,-94.63,26.0,13.0,40,10,,10.0,30.050198,,,TRUE,TRUE,,,,,,,CLR,,,,,,,,VFR,,,,,,,,,,,,SPECI,38.0
KUYF 311535Z AUTO 21013KT 10SM OVC013 17/15 A2991 RMK AO2,KUYF,2022-10-31T15:35:00Z,39.93,-83.47,17.0,15.0,210,13,,10.0,29.911417,,,TRUE,TRUE,,,,,,,OVC,1300,,,,,,,MVFR,,,,,,,,,,,,METAR,326.0
KUNI 311535Z AUTO 19005KT 10SM OVC012 17/17 A2995 RMK AO2 T01720168,KUNI,2022-10-31T15:35:00Z,39.22,-82.23,17.2,16.8,190,5,,10.0,29.949802,,,TRUE,TRUE,,,,,,,OVC,1200,,,,,,,MVFR,,,,,,,,,,,,SPECI,232.0
KUMP 311535Z AUTO 21006KT 7SM OVC010 16/16 A2986 RMK AO2 T01560155,KUMP,2022-10-31T15:35:00Z,39.93,-86.05,15.6,15.5,210,6,,7.0,29.861221,,,TRUE,TRUE,,,,,,,OVC,1000,,,,,,,MVFR,,,,,,,,,,,,SPECI,247.0
KULS 311535Z AUTO 23006KT 10SM CLR 11/M03 A3002 RMK AO2,KULS,2022-10-31T15:35:00Z,37.6,-101.37,11.0,-3.0,230,6,,10.0,30.02067,,,TRUE,TRUE,,,,,,,CLR,,,,,,,,VFR,,,,,,,,,,,,SPECI,934.0
KUKL 311535Z AUTO 30006KT 10SM CLR A3000 RMK AO2,KUKL,2022-10-31T15:35:00Z,38.3,-95.73,,,300,6,,10.0,30.0,,,TRUE,TRUE,,,,,,,CLR,,,,,,,,VFR,,,,,,,,,,,,METAR,357.0
KUKF 311535Z AUTO 08003KT 10SM OVC004 12/12 A3013 RMK AO2 P0001,KUKF,2022-10-31T15:35:00Z,36.22,-81.1,12.0,12.0,80,3,,10.0,30.129921,,,TRUE,TRUE,,,,,,,OVC,400,,,,,,,LIFR,,,,,,0.01,,,,,,METAR,383.0
KTYQ 311535Z AUTO 20011KT 7SM OVC008 15/14 A2986 RMK AO2 T01480138,KTYQ,2022-10-31T15:35:00Z,40.03,-86.25,14.8,13.8,200,11,,7.0,29.861221,,,TRUE,TRUE,,,,,,,OVC,800,,,,,,,IFR,,,,,,,,,,,,SPECI,279.0
KTYL 311535Z AUTO 00000KT 10SM CLR 05/M07 A3019 RMK AO2,KTYL,2022-10-31T15:35:00Z,34.45,-110.12,5.0,-7.0,0,0,,10.0,30.188976,,,TRUE,TRUE,,,,,,,CLR,,,,,,,,VFR,,,,,,,,,,,,SPECI,1748.0
KTVI 311535Z AUTO 23004KT 10SM OVC009 22/19 A3005 RMK AO2,KTVI,2022-10-31T15:35:00Z,30.9,-83.88,22.0,19.0,230,4,,10.0,30.050198,,,TRUE,TRUE,,,,,,,OVC,900,,,,,,,IFR,,,,,,,,,,,,METAR,74.0
KTTA 311535Z AUTO 14005KT 10SM SCT055 20/14 A3008 RMK AO2 T01950136,KTTA,2022-10-31T15:35:00Z,35.58,-79.1,19.5,13.6,140,5,,10.0,30.079725,,,TRUE,TRUE,,,,,,,SCT,5500,,,,,,,VFR,,,,,,,,,,,,METAR,71.0
KTQK 311535Z AUTO 24008KT 10SM CLR 14/M02 A3003 RMK AO2 T01361020,KTQK,2022-10-31T15:35:00Z,38.47,-100.88,13.6,-2.0,240,8,,10.0,30.029528,,,TRUE,TRUE,,,,,,,CLR,,,,,,,,VFR,,,,,,,,,,,,METAR,906.0
KTOC 311535Z AUTO 06004KT 10SM OVC004 15/14 A3006 RMK AO2 T01480141,KTOC,2022-10-31T15:35:00Z,34.6,-83.3,14.8,14.1,60,4,,10.0,30.059055,,,TRUE,TRUE,,,,,,,OVC,400,,,,,,,LIFR,,,,,,,,,,,,SPECI,292.0
KTMT 311535Z AUTO 00000KT 10SM CLR M05/M12 A3018 RMK AO2 T10481118,KTMT,2022-10-31T15:35:00Z,39.47,-117.2,-4.8,-11.8,0,0,,10.0,30.180119,,,TRUE,TRUE,,,,,,,CLR,,,,,,,,VFR,,,,,,,,,,,,METAR,1748.0
KTMK 311535Z AUTO 15005KT 5SM -RA SCT007 BKN023 OVC050 13/12 A2994 RMK AO2 P0003,KTMK,2022-10-31T15:35:00Z,45.42,-123.82,13.0,12.0,150,5,,5.0,29.940945,,,TRUE,TRUE,,,,,,-RA,SCT,700,BKN,2300,OVC,5000,,,MVFR,,,,,,0.03,,,,,,SPECI,8.0
KTIP 311535Z AUTO 23007KT 2 1/2SM RA OVC002 13/13 A2984 RMK AO2 P0012 T01330132,KTIP,2022-10-31T15:35:00Z,40.28,-88.15,13.3,13.2,230,7,,2.5,29.840551,,,TRUE,TRUE,,,,,,RA,OVC,200,,,,,,,LIFR,,,,,,0.12,,,,,,SPECI,224.0
KTIF 311535Z AUTO 27008KT 10SM CLR 09/M04 A2993 RMK AO2 T00871043,KTIF,2022-10-31T15:35:00Z,41.97,-100.57,8.7,-4.3,270,8,,10.0,29.929134,,,TRUE,TRUE,,,,,,,CLR,,,,,,,,VFR,,,,,,,,,,,,SPECI,888.0
KTEX 311535Z AUTO 11003KT 10SM CLR 02/M07 A3024 RMK AO2,KTEX,2022-10-31T15:35:00Z,37.95,-107.9,2.0,-7.0,110,3,,10.0,30.239174,,,TRUE,TRUE,,,,,,,CLR,,,,,,,,VFR,,,,,,,,,,,,SPECI,2760.0
KTCY 311535Z AUTO 32004KT 9SM CLR 12/11 A2998 RMK A01,KTCY,2022-10-31T15:35:00Z,37.68,-121.43,12.0,11.0,320,4,,9.0,29.97933,,,TRUE,TRUE,,,,,,,CLR,,,,,,,,VFR,,,,,,,,,,,,METAR,51.0
KTBX 311535Z AUTO 10SM CLR 04/M10 A3010 RMK AO2,KTBX,2022-10-31T15:35:00Z,43.47,-108.23,4.0,-10.0,,,,10.0,30.100393,,,TRUE,TRUE,,,,,,,CLR,,,,,,,,VFR,,,,,,,,,,,,SPECI,2230.0
KTBR 311535Z AUTO 18003KT 10SM BKN007 BKN011 22/20 A3005 RMK AO2 T02240195,KTBR,2022-10-31T15:35:00Z,32.48,-81.73,22.4,19.5,180,3,,10.0,30.050198,,,TRUE,TRUE,,,,,,,BKN,700,BKN,1100,,,,,IFR,,,,,,,,,,,,METAR,54.0
KTAZ 311535Z AUTO 23007KT 2SM BR OVC002 13/12 A2987 RMK AO2 T01250122,KTAZ,2022-10-31T15:35:00Z,39.53,-89.33,12.5,12.2,230,7,,2.0,29.870079,,,TRUE,TRUE,,,,,,BR,OVC,200,,,,,,,LIFR,,,,,,,,,,,,METAR,188.0
KT78 311535Z AUTO 00000KT 10SM CLR 18/16 A3007 RMK AO2,KT78,2022-10-31T15:35:00Z,30.08,-94.7,18.0,16.0,0,0,,10.0,30.070866,,,TRUE,TRUE,,,,,,,CLR,,,,,,,,VFR,,,,,,,,,,,,METAR,21.0
KT74 311535Z AUTO 00000KT 10SM CLR 17/14 A3007 RMK AO2 T01750142,KT74,2022-10-31T15:35:00Z,30.57,-97.45,17.5,14.2,0,0,,10.0,30.070866,,,TRUE,TRUE,,,,,,,CLR,,,,,,,,VFR,,,,,,,,,,,,SPECI,169.0
KT35 311535Z AUTO 00000KT 10SM CLR 17/14 A3008 RMK AO2 T01690135,KT35,2022-10-31T15:35:00Z,30.88,-96.97,16.9,13.5,0,0,,10.0,30.079725,,,TRUE,TRUE,,,,,,,CLR,,,,,,,,VFR,,,,,,,,,,,,SPECI,122.0
KT20 311535Z AUTO 00000KT 10SM CLR 21/15 A3007 RMK AO2 T02080149,KT20,2022-10-31T15:35:00Z,29.52,-97.47,20.8,14.9,0,0,,10.0,30.070866,,,TRUE,TRUE,,,,,,,CLR,,,,,,,,VFR,,,,,,,,,,,,SPECI,107.0
KSXK 311535Z AUTO 16005KT 10SM CLR 08/03 A2991 RMK AO2,KSXK,2022-10-31T15:35:00Z,42.98,-96.17,8.0,3.0,160,5,,10.0,29.911417,,,TRUE,TRUE,,,,,,,CLR,,,,,,,,VFR,,,,,,,,,,,,SPECI,430.0
KSUT 311535Z AUTO 08006KT 10SM SCT011 BKN021 25/20 A3009 RMK AO2 T02480200,KSUT,2022-10-31T15:35:00Z,33.93,-78.08,24.8,20.0,80,6,,10.0,30.088583,,,TRUE,TRUE,,,,,,,SCT,1100,BKN,2100,,,,,MVFR,,,,,,,,,,,,METAR,6.0
KSTK 311535Z AUTO 16005KT 10SM CLR 04/M05 A3001 RMK AO2,KSTK,2022-10-31T15:35:00Z,40.62,-103.27,4.0,-5.0,160,5,,10.0,30.008858,,,TRUE,TRUE,,,,,,,CLR,,,,,,,,VFR,,,,,,,,,,,,SPECI,1228.0
KSTE 311535Z AUTO 00000KT 10SM CLR 14/04 A2986 RMK AO2 T01420038,KSTE,2022-10-31T15:35:00Z,44.55,-89.53,14.2,3.8,0,0,,10.0,29.861221,,,TRUE,TRUE,,,,,,,CLR,,,,,,,,VFR,,,,,,,,,,,,SPECI,335.0
KSOA 311535Z AUTO 00000KT 10SM CLR 17/10 A3012 RMK AO2,KSOA,2022-10-31T15:35:00Z,30.58,-100.65,17.0,10.0,0,0,,10.0,30.121063,,,TRUE,TRUE,,,,,,,CLR,,,,,,,,VFR,,,,,,,,,,,,SPECI,654.0
KSNL 311535Z AUTO 00000KT 10SM CLR 15/05 A3006 RMK AO2 T01490049,KSNL,2022-10-31T15:35:00Z,35.35,-96.95,14.9,4.9,0,0,,10.0,30.059055,,,TRUE,TRUE,,,,,,,CLR,,,,,,,,VFR,,,,,,,,,,,,METAR,327.0
KSME 311535Z AUTO 22004KT 7SM FEW013 FEW020 OVC055 17/17 A2996 RMK AO2,KSME,2022-10-31T15:35:00Z,37.05,-84.62,17.0,17.0,220,4,,7.0,29.958662,,,TRUE,TRUE,,,,,,,FEW,1300,FEW,2000,OVC,5500,,,VFR,,,,,,,,,,,,METAR,279.0
KSMD 311535Z AUTO 19007KT 10SM OVC011 16/16 A2985 RMK A01,KSMD,2022-10-31T15:35:00Z,41.15,-85.15,16.0,16.0,190,7,,10.0,29.84941,,,TRUE,TRUE,,,,,,,OVC,1100,,,,,,,MVFR,,,,,,,,,,,,METAR,252.0
KSLR 311535Z AUTO 00000KT 10SM CLR 16/14 A3008 RMK AO2 T01580136,KSLR,2022-10-31T15:35:00Z,33.17,-95.62,15.8,13.6,0,0,,10.0,30.079725,,,TRUE,TRUE,,,,,,,CLR,,,,,,,,VFR,,,,,,,,,,,,SPECI,144.0
KSLB 311535Z AUTO 26005KT 10SM CLR 12/01 A2993 RMK AO2,KSLB,2022-10-31T15:35:00Z,42.6,-95.23,12.0,1.0,260,5,,10.0,29.929134,,,TRUE,TRUE,,,,,,,CLR,,,,,,,,VFR,,,,,,,,,,,,SPECI,450.0
KSJS 311535Z AUTO 21003KT 7SM SCT011 SCT022 OVC026 17/17 A2999 RMK AO2 T01700170,KSJS,2022-10-31T15:35:00Z,37.75,-82.63,17.0,17.0,210,3,,7.0,29.991142,,,TRUE,TRUE,,,,,,,SCT,1100,SCT,2200,OVC,2600,,,MVFR,,,,,,,,,,,,METAR,359.0
KSHL 311535Z AUTO 00000KT CLR 08/02 A2990 RMK AO2,KSHL,2022-10-31T15:35:00Z,43.22,-95.83,8.0,2.0,0,0,,,29.899607,,,TRUE,TRUE,,,,,,,CLR,,,,,,,,,,,,,,,,,,,,METAR,430.0
KSDA 311535Z AUTO VRB03KT 8SM CLR 11/04 A2995 RMK AO2,KSDA,2022-10-31T15:35:00Z,40.75,-95.42,11.0,4.0,0,3,,8.0,29.949802,,,TRUE,TRUE,,,,,,,CLR,,,,,,,,VFR,,,,,,,,,,,,METAR,293.0
KSBS 311535Z AUTO 00000KT 10SM CLR M02/M04 A3020 RMK AO1 T10201040,KSBS,2022-10-31T15:35:00Z,40.52,-106.87,-2.0,-4.0,0,0,,10.0,30.200787,,,TRUE,TRUE,,,,,,,CLR,,,,,,,,VFR,,,,,,,,,,,,SPECI,2097.0
KSBO 311535Z AUTO 19004KT 10SM OVC006 21/21 A3006 RMK AO2,KSBO,2022-10-31T15:35:00Z,32.62,-82.37,21.0,21.0,190,4,,10.0,30.059055,,,TRUE,TRUE,,,,,,,OVC,600,,,,,,,IFR,,,,,,,,,,,,METAR,98.0
KSAA 311535Z AUTO 15009KT 10SM CLR 03/M05 A3014 RMK AO2,KSAA,2022-10-31T15:35:00Z,41.45,-106.8,3.0,-5.0,150,9,,10.0,30.138779,,,TRUE,TRUE,,,,,,,CLR,,,,,,,,VFR,,,,,,,,,,,,SPECI,2093.0
KS52 311535Z AUTO 00000KT 10SM -RA SCT070 SCT095 OVC110 05/04 A2975 RMK AO2 T00480041,KS52,2022-10-31T15:35:00Z,48.42,-120.15,4.8,4.1,0,0,,10.0,29.749016,,,TRUE,TRUE,,,,,,-RA,SCT,7000,SCT,9500,OVC,11000,,,VFR,,,,,,,,,,,,METAR,517.0
KS33 311535Z AUTO 21011KT 10SM CLR 13/04 A2993 RMK AO2,KS33,2022-10-31T15:35:00Z,44.67,-121.15,13.0,4.0,210,11,,10.0,29.929134,,,TRUE,TRUE,,,,,,,CLR,,,,,,,,VFR,,,,,,,,,,,,SPECI,739.0
KRYW 311535Z AUTO 27004KT 10SM CLR 17/10 A3009 RMK AO2 T01720104,KRYW,2022-10-31T15:35:00Z,30.5,-97.97,17.2,10.4,270,4,,10.0,30.088583,,,TRUE,TRUE,,,,,,,CLR,,,,,,,,VFR,,,,,,,,,,,,SPECI,370.0
KRWV 311535Z AUTO 29003KT 10SM CLR 19/14 A3007 RMK AO2 T01950137,KRWV,2022-10-31T15:35:00Z,30.52,-96.7,19.5,13.7,290,3,,10.0,30.070866,,,TRUE,TRUE,,,,,,,CLR,,,,,,,,VFR,,,,,,,,,,,,SPECI,116.0
KRVJ 311535Z AUTO 17009KT 10SM BKN015 23/20 A3004 RMK AO2 T02340199,KRVJ,2022-10-31T15:35:00Z,32.07,-82.15,23.4,19.9,170,9,,10.0,30.041338,,,TRUE,TRUE,,,,,,,BKN,1500,,,,,,,MVFR,,,,,,,,,,,,METAR,60.0
KRVF 311535Z AUTO 17007G14KT 110V200 10SM BKN070 OVC075 09/M00 A2995 RMK AO2,KRVF,2022-10-31T15:35:00Z,45.53,-112.3,9.0,0.0,170,7,14,10.0,29.949802,,,TRUE,TRUE,,,,,,,BKN,7000,OVC,7500,,,,,VFR,,,,,,,,,,,,METAR,1445.0
KRSV 311535Z AUTO 22006KT 10SM -RA SCT013 BKN019 OVC065 15/14 A2988 RMK AO2 T01500137,KRSV,2022-10-31T15:35:00Z,39.02,-87.65,15.0,13.7,220,6,,10.0,29.878937,,,TRUE,TRUE,,,,,,-RA,SCT,1300,BKN,1900,OVC,6500,,,MVFR,,,,,,,,,,,,SPECI,139.0
KRPJ 311535Z AUTO 35006KT 7SM SCT008 OVC018 13/12 A2986 RMK AO2 T01250119 TSNO,KRPJ,2022-10-31T15:35:00Z,41.88,-89.08,12.5,11.9,350,6,,7.0,29.861221,,,TRUE,TRUE,,,TRUE,,,,SCT,800,OVC,1800,,,,,MVFR,,,,,,,,,,,,SPECI,234.0
KRKR 311535Z AUTO 21005KT 10SM SCT001 12/12 A3005 RMK AO2,KRKR,2022-10-31T15:35:00Z,35.02,-94.62,12.0,12.0,210,5,,10.0,30.050198,,,TRUE,TRUE,,,,,,,SCT,100,,,,,,,VFR,,,,,,,,,,,,METAR,136.0
KREG 311535Z AUTO 00000KT 10SM CLR 22/16 A3007 RMK AO2 T02210159,KREG,2022-10-31T15:35:00Z,30.17,-90.93,22.1,15.9,0,0,,10.0,30.070866,,,TRUE,TRUE,,,,,,,CLR,,,,,,,,VFR,,,,,,,,,,,,METAR,3.0
KRDK 311535Z AUTO 30003KT 10SM CLR 11/04 A2996 RMK AO2,KRDK,2022-10-31T15:35:00Z,41.02,-95.27,11.0,4.0,300,3,,10.0,29.958662,,,TRUE,TRUE,,,,,,,CLR,,,,,,,,VFR,,,,,,,,,,,,METAR,317.0
KRCV 311535Z AUTO 29007KT 10SM CLR 03/M08 A3021 RMK AO2 T00331076,KRCV,2022-10-31T15:35:00Z,37.72,-106.35,3.3,-7.6,290,7,,10.0,30.209646,,,TRUE,TRUE,,,,,,,CLR,,,,,,,,VFR,,,,,,,,,,,,SPECI,2418.0
KRCR 311535Z AUTO VRB06KT 10SM SCT009 BKN014 OVC075 16/15 A2983 RMK AO2,KRCR,2022-10-31T15:35:00Z,41.07,-86.18,16.0,15.0,0,6,,10.0,29.828741,,,TRUE,TRUE,,,,,,,SCT,900,BKN,1400,OVC,7500,,,MVFR,,,,,,,,,,,,SPECI,240.0
KRBW 311535Z AUTO 19006KT 10SM SCT014 SCT025 BKN050 23/21 A3007 RMK AO2,KRBW,2022-10-31T15:35:00Z,32.92,-80.63,23.0,21.0,190,6,,10.0,30.070866,,,TRUE,TRUE,,,,,,,SCT,1400,SCT,2500,BKN,5000,,,VFR,,,,,,,,,,,,METAR,30.0
KRBO 311535Z AUTO 10SM CLR 25/16 A3002 RMK AO2 T02510162,KRBO,2022-10-31T15:35:00Z,27.78,-97.68,25.1,16.2,,,,10.0,30.02067,,,TRUE,TRUE,,,,,,,CLR,,,,,,,,VFR,,,,,,,,,,,,SPECI,24.0
KRAS 311535Z AUTO 09009KT 10SM CLR A3005 RMK AO2,KRAS,2022-10-31T15:35:00Z,27.82,-97.08,,,90,9,,10.0,30.050198,,,TRUE,TRUE,,,,,,,CLR,,,,,,,,VFR,,,,,,,,,,,,SPECI,3.0
KPZZ 311535Z AUTO 04007KT 8SM CLR 22/15 A3007 RMK A01,KPZZ,2022-10-31T15:35:00Z,28.43,-91.03,22.0,15.0,40,7,,8.0,30.070866,,,TRUE,TRUE,,,,,,,CLR,,,,,,,,VFR,,,,,,,,,,,,METAR,25.0
KPXE 311535Z AUTO 22008KT 10SM SCT008 BKN013 OVC020 21/20 A3004 RMK AO2 T02140203,KPXE,2022-10-31T15:35:00Z,32.52,-83.77,21.4,20.3,220,8,,10.0,30.041338,,,TRUE,TRUE,,,,,,,SCT,800,BKN,1300,OVC,2000,,,MVFR,,,,,,,,,,,,SPECI,126.0
KPWD 311535Z AUTO 15003KT 10SM CLR 05/01 A2972 RMK AO2,KPWD,2022-10-31T15:35:00Z,48.78,-104.52,5.0,1.0,150,3,,10.0,29.719488,,,TRUE,TRUE,,,,,,,CLR,,,,,,,,VFR,,,,,,,,,,,,METAR,690.0
KPTT 311535Z AUTO 31003KT 10SM CLR 14/00 A3004 RMK AO2 T01381001,KPTT,2022-10-31T15:35:00Z,37.7,-98.75,13.8,-0.1,310,3,,10.0,30.041338,,,TRUE,TRUE,,,,,,,CLR,,,,,,,,VFR,,,,,,,,,,,,METAR,594.0
KPSO 311535Z AUTO 00000KT 10SM CLR 03/M05 A3020 RMK AO2 T00281049,KPSO,2022-10-31T15:35:00Z,37.28,-107.05,2.8,-4.9,0,0,,10.0,30.200787,,,TRUE,TRUE,,,,,,,CLR,,,,,,,,VFR,,,,,,,,,,,,SPECI,2332.0
KPSN 311535Z AUTO 29004KT 8SM CLR 20/13 A3005 RMK AO2,KPSN,2022-10-31T15:35:00Z,31.78,-95.7,20.0,13.0,290,4,,8.0,30.050198,,,TRUE,TRUE,,,,,,,CLR,,,,,,,,VFR,,,,,,,,,,,,METAR,124.0
KPSK 311535Z AUTO 00000KT 7SM -DZ OVC005 12/12 A3007 RMK AO2 T01200120,KPSK,2022-10-31T15:35:00Z,37.13,-80.67,12.0,12.0,0,0,,7.0,30.070866,,,TRUE,TRUE,,,,,,-DZ,OVC,500,,,,,,,IFR,,,,,,,,,,,,METAR,629.0
KPRS 311535Z AUTO 00000KT 10SM SCT120 18/09 A3005 RMK AO2 T01760089,KPRS,2022-10-31T15:35:00Z,29.63,-104.35,17.6,8.9,0,0,,10.0,30.050198,,,TRUE,TRUE,,,,,,,SCT,12000,,,,,,,VFR,,,,,,,,,,,,SPECI,890.0
KPRG 311535Z AUTO 23009KT 10SM BKN006 OVC011 14/14 A2987 RMK AO2 T01410141,KPRG,2022-10-31T15:35:00Z,39.7,-87.67,14.1,14.1,230,9,,10.0,29.870079,,,TRUE,TRUE,,,,,,,BKN,600,OVC,1100,,,,,IFR,,,,,,,,,,,,SPECI,197.0
KPPQ 311535Z AUTO 31006KT 4SM OVC004 12/12 A2990 RMK AO2 T01160116,KPPQ,2022-10-31T15:35:00Z,39.63,-90.78,11.6,11.6,310,6,,4.0,29.899607,,,TRUE,TRUE,,,,,,,OVC,400,,,,,,,LIFR,,,,,,,,,,,,SPECI,215.0
KPPO 311535Z AUTO 00000KT 2 1/2SM -RA OVC003 14/14 A2983 RMK AO2 P0001 T01370137,KPPO,2022-10-31T15:35:00Z,41.57,-86.73,13.7,13.7,0,0,,2.5,29.828741,,,TRUE,TRUE,,,,,,-RA,OVC,300,,,,,,,LIFR,,,,,,0.01,,,,,,SPECI,242.0
KPPA 311535Z AUTO 25006KT 10SM CLR 16/06 A3009 RMK AO2 T01590055,KPPA,2022-10-31T15:35:00Z,35.62,-101.0,15.9,5.5,250,6,,10.0,30.088583,,,TRUE,TRUE,,,,,,,CLR,,,,,,,,VFR,,,,,,,,,,,,SPECI,989.0
KPOY 311535Z AUTO 16006KT 10SM CLR 07/M06 A2991 RMK AO2,KPOY,2022-10-31T15:35:00Z,44.87,-108.8,7.0,-6.0,160,6,,10.0,29.911417,,,TRUE,TRUE,,,,,,,CLR,,,,,,,,VFR,,,,,,,,,,,,SPECI,1547.0
KPNT 311535Z AUTO 31005KT 1SM BR OVC002 14/14 A2984 RMK AO2 T01350135,KPNT,2022-10-31T15:35:00Z,40.92,-88.62,13.5,13.5,310,5,,1.0,29.840551,,,TRUE,TRUE,,,,,,BR,OVC,200,,,,,,,LIFR,,,,,,,,,,,,METAR,199.0
KPNA 311535Z AUTO 00000KT 10SM SCT050 00/M05 A3014 RMK AO2,KPNA,2022-10-31T15:35:00Z,42.8,-109.8,0.0,-5.0,0,0,,10.0,30.138779,,,TRUE,TRUE,,,,,,,SCT,5000,,,,,,,VFR,,,,,,,,,,,,SPECI,2158.0
KPMV 311535Z AUTO 32005KT 10SM CLR 11/02 A2996 RMK AO2 T01100024,KPMV,2022-10-31T15:35:00Z,40.95,-95.92,11.0,2.4,320,5,,10.0,29.958662,,,TRUE,TRUE,,,,,,,CLR,,,,,,,,VFR,,,,,,,,,,,,SPECI,365.0
KPMU 311535Z AUTO 25007KT 10SM FEW016 SCT024 BKN029 17/13 A3001 RMK AO2,KPMU,2022-10-31T15:35:00Z,34.37,-89.9,17.0,13.0,250,7,,10.0,30.008858,,,TRUE,TRUE,,,,,,,FEW,1600,SCT,2400,BKN,2900,,,MVFR,,,,,,,,,,,,METAR,67.0
KPMH 311535Z AUTO 15003KT 10SM BKN014 BKN020 OVC070 19/15 A2995 RMK AO2 T01910152,KPMH,2022-10-31T15:35:00Z,38.83,-82.85,19.1,15.2,150,3,,10.0,29.949802,,,TRUE,TRUE,,,,,,,BKN,1400,BKN,2000,OVC,7000,,,MVFR,,,,,,,,,,,,SPECI,200.0
KPLU 311535Z AUTO 17005KT 4SM -DZ BKN028 BKN035 OVC055 12/12 A2983 RMK AO2,KPLU,2022-10-31T15:35:00Z,47.1,-122.28,12.0,12.0,170,5,,4.0,29.828741,,,TRUE,TRUE,,,,,,-DZ,BKN,2800,BKN,3500,OVC,5500,,,MVFR,,,,,,,,,,,,SPECI,164.0
KPIM 311535Z AUTO 27006KT 10SM BKN012 OVC023 20/17 A3004 RMK AO2 T01980165,KPIM,2022-10-31T15:35:00Z,32.83,-84.88,19.8,16.5,270,6,,10.0,30.041338,,,TRUE,TRUE,,,,,,,BKN,1200,OVC,2300,,,,,MVFR,,,,,,,,,,,,METAR,274.0
KPHN 311535Z AUTO 00000KT 3SM DZ OVC002 14/13 A2985 RMK AO2,KPHN,2022-10-31T15:35:00Z,42.92,-82.52,14.0,13.0,0,0,,3.0,29.84941,,,TRUE,TRUE,,,,,,DZ,OVC,200,,,,,,,LIFR,,,,,,,,,,,,SPECI,195.0
KPEZ 311535Z AUTO 05003KT 10SM CLR 19/15 A3007 RMK AO2 T01910147,KPEZ,2022-10-31T15:35:00Z,28.95,-98.52,19.1,14.7,50,3,,10.0,30.070866,,,TRUE,TRUE,,,,,,,CLR,,,,,,,,VFR,,,,,,,,,,,,SPECI,126.0
KPEQ 311535Z AUTO 06004KT 10SM CLR 13/07 A3006 RMK AO2 T01290065,KPEQ,2022-10-31T15:35:00Z,31.38,-103.52,12.9,6.5,60,4,,10.0,30.059055,,,TRUE,TRUE,,,,,,,CLR,,,,,,,,VFR,,,,,,,,,,,,SPECI,794.0
KPEA 311535Z AUTO 30004KT 10SM CLR 11/06 A2992 RMK AO2 T01120057,KPEA,2022-10-31T15:35:00Z,41.4,-92.95,11.2,5.7,300,4,,10.0,29.920275,,,TRUE,TRUE,,,,,,,CLR,,,,,,,,VFR,,,,,,,,,,,,SPECI,264.0
KPCD 311535Z AUTO 31007KT 250V330 10SM BKN015 BKN045 OVC080 16/14 A2991 RMK AO2 T01600139,KPCD,2022-10-31T15:35:00Z,37.87,-89.87,16.0,13.9,310,7,,10.0,29.911417,,,TRUE,TRUE,,,,,,,BKN,1500,BKN,4500,OVC,8000,,,MVFR,,,,,,,,,,,,METAR,112.0
KPBX 311535Z AUTO 00000KT 10SM BKN003 OVC027 16/16 A2999 RMK AO2 T01590159,KPBX,2022-10-31T15:35:00Z,37.57,-82.57,15.9,15.9,0,0,,10.0,29.991142,,,TRUE,TRUE,,,,,,,BKN,300,OVC,2700,,,,,LIFR,,,,,,,,,,,,METAR,447.0
KOWX 311535Z AUTO 21010KT 10SM SCT010 BKN014 OVC034 18/15 A2987 RMK AO1,KOWX,2022-10-31T15:35:00Z,41.03,-83.98,18.0,15.0,210,10,,10.0,29.870079,,,TRUE,TRUE,,,,,,,SCT,1000,BKN,1400,OVC,3400,,,MVFR,,,,,,,,,,,,METAR,232.0
KOWP 311535Z AUTO 00000KT 10SM CLR 16/08 A3005 RMK AO2 T01610084,KOWP,2022-10-31T15:35:00Z,36.18,-96.15,16.1,8.4,0,0,,10.0,30.050198,,,TRUE,TRUE,,,,,,,CLR,,,,,,,,VFR,,,,,,,,,,,,METAR,267.0
KOSA 311535Z AUTO 33003KT 10SM CLR 17/14 A3006 RMK AO2 T01680137,KOSA,2022-10-31T15:35:00Z,33.1,-94.97,16.8,13.7,330,3,,10.0,30.059055,,,TRUE,TRUE,,,,,,,CLR,,,,,,,,VFR,,,,,,,,,,,,SPECI,108.0
KORG 311535Z AUTO 01003KT 10SM CLR 23/17 A3009 RMK AO2 T02260166,KORG,2022-10-31T15:35:00Z,30.07,-93.8,22.6,16.6,10,3,,10.0,30.088583,,,TRUE,TRUE,,,,,,,CLR,,,,,,,,VFR,,,,,,,,,,,,SPECI,2.0
KOQN 311535Z AUTO 21003KT 10SM BKN026 OVC110 15/12 A3008 RMK AO2,KOQN,2022-10-31T15:35:00Z,39.98,-75.58,15.0,12.0,210,3,,10.0,30.079725,,,TRUE,TRUE,,,,,,,BKN,2600,OVC,11000,,,,,MVFR,,,,,,,,,,,,SPECI,141.0
KOPN 311535Z AUTO 20007KT 10SM BKN009 BKN016 OVC043 24/19 A3004 RMK AO2,KOPN,2022-10-31T15:35:00Z,32.95,-84.27,24.0,19.0,200,7,,10.0,30.041338,,,TRUE,TRUE,,,,,,,BKN,900,BKN,1600,OVC,4300,,,IFR,,,,,,,,,,,,METAR,241.0
KOPL 311535Z AUTO 36003KT 10SM CLR 22/14 A3007 RMK AO2 T02150139,KOPL,2022-10-31T15:35:00Z,30.55,-92.1,21.5,13.9,360,3,,10.0,30.070866,,,TRUE,TRUE,,,,,,,CLR,,,,,,,,VFR,,,,,,,,,,,,METAR,22.0
KOOA 311535Z AUTO 32005KT 10SM CLR 13/11 A2992 RMK AO2 T01330105,KOOA,2022-10-31T15:35:00Z,41.23,-92.5,13.3,10.5,320,5,,10.0,29.920275,,,TRUE,TRUE,,,,,,,CLR,,,,,,,,VFR,,,,,,,,,,,,SPECI,256.0
KONX 311535Z AUTO 00000KT 10SM OVC065 19/11 A3013 RMK AO2 T01900114,KONX,2022-10-31T15:35:00Z,36.4,-76.02,19.0,11.4,0,0,,10.0,30.129921,,,TRUE,TRUE,,,,,,,OVC,6500,,,,,,,VFR,,,,,,,,,,,,METAR,4.0
KONL 311535Z AUTO 21005KT 10SM CLR 10/M01 A2990 RMK AO2 T01011009,KONL,2022-10-31T15:35:00Z,42.47,-98.68,10.1,-0.9,210,5,,10.0,29.899607,,,TRUE,TRUE,,,,,,,CLR,,,,,,,,VFR,,,,,,,,,,,,SPECI,619.0
KONA 311535Z AUTO 00000KT 10SM CLR 08/05 A2989 RMK AO2,KONA,2022-10-31T15:35:00Z,44.07,-91.7,8.0,5.0,0,0,,10.0,29.890747,,,TRUE,TRUE,,,,,,,CLR,,,,,,,,VFR,,,,,,,,,,,,SPECI,200.0
KOLZ 311535Z AUTO 36004KT 9SM CLR 11/07 A2989 RMK A01,KOLZ,2022-10-31T15:35:00Z,42.67,-91.97,11.0,7.0,360,4,,9.0,29.890747,,,TRUE,TRUE,,,,,,,CLR,,,,,,,,VFR,,,,,,,,,,,,SPECI,328.0
KOLY 311535Z AUTO 25007KT 10SM BKN011 OVC016 14/14 A2990 RMK AO2 T01420136,KOLY,2022-10-31T15:35:00Z,38.72,-88.18,14.2,13.6,250,7,,10.0,29.899607,,,TRUE,TRUE,,,,,,,BKN,1100,OVC,1600,,,,,MVFR,,,,,,,,,,,,SPECI,144.0
KOLE 311535Z AUTO 21007KT 10SM SCT048 BKN060 OVC120 11/06 A2997 RMK AO2,KOLE,2022-10-31T15:35:00Z,42.23,-78.37,11.0,6.0,210,7,,10.0,29.970472,,,TRUE,TRUE,,,,,,,SCT,4800,BKN,6000,OVC,12000,,,VFR,,,,,,,,,,,,SPECI,651.0
KOKZ 311535Z AUTO 18004KT 2 1/2SM BR OVC002 20/20 A3004 RMK AO2 VIS 2V4 T02010196,KOKZ,2022-10-31T15:35:00Z,32.97,-82.83,20.1,19.6,180,4,,2.5,30.041338,,,TRUE,TRUE,,,,,,BR,OVC,200,,,,,,,LIFR,,,,,,,,,,,,METAR,128.0
KOKM 311535Z AUTO 22005KT 10SM CLR 15/04 A3004 RMK AO2 T01520037,KOKM,2022-10-31T15:35:00Z,35.67,-95.95,15.2,3.7,220,5,,10.0,30.041338,,,TRUE,TRUE,,,,,,,CLR,,,,,,,,VFR,,,,,,,,,,,,METAR,215.0
KOGS 311535Z AUTO VRB04KT 10SM CLR 14/04 A2993 RMK AO2,KOGS,2022-10-31T15:35:00Z,44.67,-75.47,14.0,4.0,0,4,,10.0,29.929134,,,TRUE,TRUE,,,,,,,CLR,,,,,,,,VFR,,,,,,,,,,,,SPECI,88.0
KOGA 311535Z AUTO 25007KT 10SM CLR 07/M04 A2998 RMK AO2 T00661045,KOGA,2022-10-31T15:35:00Z,41.12,-101.77,6.6,-4.5,250,7,,10.0,29.97933,,,TRUE,TRUE,,,,,,,CLR,,,,,,,,VFR,,,,,,,,,,,,SPECI,991.0
KOCW 311535Z AUTO 00000KT 10SM BKN049 BKN095 20/14 A3012 RMK AO2 T02010138,KOCW,2022-10-31T15:35:00Z,35.57,-77.05,20.1,13.8,0,0,,10.0,30.121063,,,TRUE,TRUE,,,,,,,BKN,4900,BKN,9500,,,,,VFR,,,,,,,,,,,,METAR,10.0
KOBE 311535Z AUTO VRB06G12KT 10SM SCT024 29/25 A2999 RMK AO2,KOBE,2022-10-31T15:35:00Z,27.27,-80.85,29.0,25.0,0,6,12,10.0,29.991142,,,TRUE,TRUE,,,,,,,SCT,2400,,,,,,,VFR,,,,,,,,,,,,METAR,11.0
KNRN 311535Z AUTO 26006KT 10SM CLR 12/M02 A3001 RMK AO2,KNRN,2022-10-31T15:35:00Z,39.85,-99.9,12.0,-2.0,260,6,,10.0,30.008858,,,TRUE,TRUE,,,,,,,CLR,,,,,,,,VFR,,,,,,,,,,,,METAR,726.0
KNOW 311535Z AUTO 28014G19KT 10SM SCT033 SCT050 OVC070 10/08 A2975 RMK AO2 P0002 T00960081,KNOW,2022-10-31T15:35:00Z,48.13,-123.4,9.6,8.1,280,14,19,10.0,29.749016,,,TRUE,TRUE,,,,,,,SCT,3300,SCT,5000,OVC,7000,,,VFR,,,,,,0.02,,,,,,SPECI,3.0
KN03 311535Z AUTO 15007KT 10SM CLR 12/06 A3000 RMK AO2,KN03,2022-10-31T15:35:00Z,42.6,-76.22,12.0,6.0,150,7,,10.0,30.0,,,TRUE,TRUE,,,,,,,CLR,,,,,,,,VFR,,,,,,,,,,,,SPECI,361.0
KMZZ 311535Z AUTO 20011G16KT 10SM BKN013 OVC021 16/15 A2986 RMK AO2 T01550149,KMZZ,2022-10-31T15:35:00Z,40.48,-85.68,15.5,14.9,200,11,16,10.0,29.861221,,,TRUE,TRUE,,,,,,,BKN,1300,OVC,2100,,,,,MVFR,,,,,,,,,,,,SPECI,260.0
KMZJ 311535Z AUTO VRB04KT 10SM CLR 12/M00 A3002 RMK AO2,KMZJ,2022-10-31T15:35:00Z,32.52,-111.32,12.0,0.0,0,4,,10.0,30.02067,,,TRUE,TRUE,,,,,,,CLR,,,,,,,,VFR,,,,,,,,,,,,METAR,574.0
KMYP 311535Z AUTO 27010KT 10SM CLR M04/M13 A3037 RMK AO2,KMYP,2022-10-31T15:35:00Z,38.48,-106.32,-4.0,-13.0,270,10,,10.0,30.369095,,,TRUE,TRUE,,,,,,,CLR,,,,,,,,VFR,,,,,,,,,,,,SPECI,3629.0
KMWO 311535Z AUTO 21008KT 10SM OVC012 17/16 A2991 RMK AO2 T01670157,KMWO,2022-10-31T15:35:00Z,39.53,-84.4,16.7,15.7,210,8,,10.0,29.911417,,,TRUE,TRUE,,,,,,,OVC,1200,,,,,,,MVFR,,,,,,,,,,,,SPECI,197.0
KMWK 311535Z AUTO 00000KT 5SM -DZ OVC003 13/13 A3010 RMK AO2 T01310127,KMWK,2022-10-31T15:35:00Z,36.47,-80.55,13.1,12.7,0,0,,5.0,30.100393,,,TRUE,TRUE,,,,,,-DZ,OVC,300,,,,,,,LIFR,,,,,,,,,,,,METAR,374.0
KMRT 311535Z AUTO 23009KT 10SM BKN012 BKN023 OVC070 17/15 A2991 RMK AO2 T01710147,KMRT,2022-10-31T15:35:00Z,40.22,-83.35,17.1,14.7,230,9,,10.0,29.911417,,,TRUE,TRUE,,,,,,,BKN,1200,BKN,2300,OVC,7000,,,MVFR,,,,,,,,,,,,SPECI,302.0
KMQW 311535Z AUTO 20007KT 10SM OVC010 22/21 A3004 RMK AO2 T02220210,KMQW,2022-10-31T15:35:00Z,32.1,-82.88,22.2,21.0,200,7,,10.0,30.041338,,,TRUE,TRUE,,,,,,,OVC,1000,,,,,,,MVFR,,,,,,,,,,,,SPECI,62.0
KMQS 311535Z AUTO VRB05KT 10SM BKN012 BKN021 15/13 A3009 RMK AO2,KMQS,2022-10-31T15:35:00Z,39.98,-75.87,15.0,13.0,0,5,,10.0,30.088583,,,TRUE,TRUE,,,,,,,BKN,1200,BKN,2100,,,,,MVFR,,,,,,,,,,,,SPECI,200.0
KMQI 311535Z AUTO 05004KT 10SM CLR 19/13 A3013 RMK AO2 T01890129,KMQI,2022-10-31T15:35:00Z,35.92,-75.7,18.9,12.9,50,4,,10.0,30.129921,,,TRUE,TRUE,,,,,,,CLR,,,,,,,,VFR,,,,,,,,,,,,METAR,3.0
KMPR 311535Z AUTO 30004KT 10SM CLR 13/03 A3002 RMK AO2 T01270028,KMPR,2022-10-31T15:35:00Z,38.35,-97.68,12.7,2.8,300,4,,10.0,30.02067,,,TRUE,TRUE,,,,,,,CLR,,,,,,,,VFR,,,,,,,,,,,,METAR,455.0
KMOP 311535Z AUTO 00000KT 10SM SCT016 OVC038 11/09 A2984 RMK AO2 T01090087,KMOP,2022-10-31T15:35:00Z,43.62,-84.73,10.9,8.7,0,0,,10.0,29.840551,,,TRUE,TRUE,,,,,,,SCT,1600,OVC,3800,,,,,VFR,,,,,,,,,,,,SPECI,229.0
KMNH 311535Z AUTO 00000KT 10SM CLR 08/M23 A3011 RMK AO2,KMNH,2022-10-31T15:35:00Z,39.22,-104.65,8.0,-23.0,0,0,,10.0,30.109253,,,TRUE,TRUE,,,,,,,CLR,,,,,,,,VFR,,,,,,,,,,,,SPECI,2152.0
KMLJ 311535Z AUTO 00000KT 9SM OVC005 20/20 A3003 RMK AO2,KMLJ,2022-10-31T15:35:00Z,33.15,-83.25,20.0,20.0,0,0,,9.0,30.029528,,,TRUE,TRUE,,,,,,,OVC,500,,,,,,,IFR,,,,,,,,,,,,METAR,115.0
KMLE 311535Z AUTO 00000KT 10SM CLR 10/02 A2996 RMK AO2 T01000021,KMLE,2022-10-31T15:35:00Z,41.2,-96.12,10.0,2.1,0,0,,10.0,29.958662,,,TRUE,TRUE,,,,,,,CLR,,,,,,,,VFR,,,,,,,,,,,,METAR,318.0
KMJQ 311535Z AUTO 23003KT 10SM CLR 10/01 A2991 RMK AO2,KMJQ,2022-10-31T15:35:00Z,43.63,-94.98,10.0,1.0,230,3,,10.0,29.911417,,,TRUE,TRUE,,,,,,,CLR,,,,,,,,VFR,,,,,,,,,,,,SPECI,439.0
KMJD 311535Z AUTO VRB04KT 10SM SCT050 20/16 A3006 RMK AO2,KMJD,2022-10-31T15:35:00Z,30.48,-89.65,20.0,16.0,0,4,,10.0,30.059055,,,TRUE,TRUE,,,,,,,SCT,5000,,,,,,,VFR,,,,,,,,,,,,METAR,17.0
KMHP 311535Z AUTO 21003KT 10SM BKN010 BKN014 22/ A3004 RMK AO2 T0217////,KMHP,2022-10-31T15:35:00Z,32.37,-82.08,21.7,,210,3,,10.0,30.041338,,,TRUE,TRUE,,,,,,,BKN,1000,BKN,1400,,,,,MVFR,,,,,,,,,,,,METAR,60.0
KMGR 311535Z AUTO 23005KT 10SM BKN010 22/20 A3004 RMK AO2,KMGR,2022-10-31T15:35:00Z,31.08,-83.8,22.0,20.0,230,5,,10.0,30.041338,,,TRUE,TRUE,,,,,,,BKN,1000,,,,,,,MVFR,,,,,,,,,,,,METAR,86.0
KMGC 311535Z AUTO 00000KT 2SM -RA OVC003 13/13 A2983 RMK AO2,KMGC,2022-10-31T15:35:00Z,41.7,-86.82,13.0,13.0,0,0,,2.0,29.828741,,,TRUE,TRUE,,,,,,-RA,OVC,300,,,,,,,LIFR,,,,,,,,,,,,SPECI,199.0
KMDD 311535Z AUTO 14005KT 10SM CLR 15/07 A3009 RMK AO2 T01550071,KMDD,2022-10-31T15:35:00Z,32.03,-102.1,15.5,7.1,140,5,,10.0,30.088583,,,TRUE,TRUE,,,,,,,CLR,,,,,,,,VFR,,,,,,,,,,,,SPECI,853.0
KM01 311535Z AUTO 22007KT 8SM OVC007 15/15 A2997 RMK AO2 CIG 007V009 T01550152 $,KM01,2022-10-31T15:35:00Z,35.2,-90.05,15.5,15.2,220,7,,8.0,29.970472,,,TRUE,TRUE,TRUE,,,,,,OVC,700,,,,,,,IFR,,,,,,,,,,,,METAR,69.0
KLZZ 311535Z AUTO 28003KT 10SM CLR 19/12 A3005 RMK AO2 T01940118,KLZZ,2022-10-31T15:35:00Z,31.1,-98.2,19.4,11.8,280,3,,10.0,30.050198,,,TRUE,TRUE,,,,,,,CLR,,,,,,,,VFR,,,,,,,,,,,,SPECI,356.0
KLXN 311535Z AUTO 27003KT 10SM CLR 10/M01 A2996 RMK AO2 T00961013,KLXN,2022-10-31T15:35:00Z,40.78,-99.77,9.6,-1.3,270,3,,10.0,29.958662,,,TRUE,TRUE,,,,,,,CLR,,,,,,,,VFR,,,,,,,,,,,,SPECI,734.0
KLVN 311535Z AUTO 00000KT 10SM CLR 11/01 A2989 RMK AO2,KLVN,2022-10-31T15:35:00Z,44.63,-93.23,11.0,1.0,0,0,,10.0,29.890747,,,TRUE,TRUE,,,,,,,CLR,,,,,,,,VFR,,,,,,,,,,,,SPECI,292.0
KLUV 311535Z AUTO 00000KT 10SM CLR 16/07 A3010 RMK AO2,KLUV,2022-10-31T15:35:00Z,32.75,-101.92,16.0,7.0,0,0,,10.0,30.100393,,,TRUE,TRUE,,,,,,,CLR,,,,,,,,VFR,,,,,,,,,,,,SPECI,910.0
KLUL 311535Z AUTO 32003KT 10SM SCT048 21/13 A3006 RMK A02 T02060132,KLUL,2022-10-31T15:35:00Z,31.67,-89.17,20.6,13.2,320,3,,10.0,30.059055,,,TRUE,TRUE,,,,,,,SCT,4800,,,,,,,VFR,,,,,,,,,,,,METAR,74.0
KLUA 311535Z AUTO 00000KT 10SM SCT035 SCT049 OVC090 15/13 A3004 RMK AO2,KLUA,2022-10-31T15:35:00Z,38.67,-78.5,15.0,13.0,0,0,,10.0,30.041338,,,TRUE,TRUE,,,,,,,SCT,3500,SCT,4900,OVC,9000,,,VFR,,,,,,,,,,,,METAR,273.0
KLRJ 311535Z AUTO 19005KT 10SM CLR 07/04 A2992 RMK AO2,KLRJ,2022-10-31T15:35:00Z,42.77,-96.2,7.0,4.0,190,5,,10.0,29.920275,,,TRUE,TRUE,,,,,,,CLR,,,,,,,,VFR,,,,,,,,,,,,SPECI,363.0
KLOT 311535Z AUTO 00000KT 1 1/4SM BR BKN003 OVC008 14/14 A2984 RMK AO2,KLOT,2022-10-31T15:35:00Z,41.6,-88.1,14.0,14.0,0,0,,1.25,29.840551,,,TRUE,TRUE,,,,,,BR,BKN,300,OVC,800,,,,,LIFR,,,,,,,,,,,,SPECI,205.0
KLOM 311535Z AUTO 21005KT 10SM BKN027 OVC120 14/12 A3009 RMK AO2 T01370118,KLOM,2022-10-31T15:35:00Z,40.13,-75.27,13.7,11.8,210,5,,10.0,30.088583,,,TRUE,TRUE,,,,,,,BKN,2700,OVC,12000,,,,,MVFR,,,,,,,,,,,,SPECI,87.0
KLNN 311535Z AUTO 21006KT 10SM OVC012 16/13 A2989 RMK AO1 T01630133,KLNN,2022-10-31T15:35:00Z,41.68,-81.38,16.3,13.3,210,6,,10.0,29.890747,,,TRUE,TRUE,,,,,,,OVC,1200,,,,,,,MVFR,,,,,,,,,,,,SPECI,190.0
KLNA 311535Z AUTO 11007KT 10SM CLR 29/24 A3000 RMK AO2 T02880237 PNO,KLNA,2022-10-31T15:35:00Z,26.6,-80.08,28.8,23.7,110,7,,10.0,30.0,,,TRUE,TRUE,,,,,,,CLR,,,,,,,,VFR,,,,,,,,,,,,METAR,3.0
KLMO 311535Z AUTO 00000KT 10SM CLR 10/M04 A3004 RMK AO2 T00991038,KLMO,2022-10-31T15:35:00Z,40.17,-105.17,9.9,-3.8,0,0,,10.0,30.041338,,,TRUE,TRUE,,,,,,,CLR,,,,,,,,VFR,,,,,,,,,,,,SPECI,1535.0
KLHM 311535Z AUTO 00000KT 10SM CLR 09/04 A2999 RMK AO1,KLHM,2022-10-31T15:35:00Z,38.92,-121.35,9.0,4.0,0,0,,10.0,29.991142,,,TRUE,TRUE,,,,,,,CLR,,,,,,,,VFR,,,,,,,,,,,,SPECI,36.0
KLHB 311535Z AUTO 00000KT 10SM CLR 17/14 A3009 RMK AO2 T01680140,KLHB,2022-10-31T15:35:00Z,30.87,-96.62,16.8,14.0,0,0,,10.0,30.088583,,,TRUE,TRUE,,,,,,,CLR,,,,,,,,VFR,,,,,,,,,,,,SPECI,83.0
KLGC 311535Z AUTO 27004KT 10SM SCT030 BKN055 20/15 A3004 RMK AO2 T01950153,KLGC,2022-10-31T15:35:00Z,33.0,-85.07,19.5,15.3,270,4,,10.0,30.041338,,,TRUE,TRUE,,,,,,,SCT,3000,BKN,5500,,,,,VFR,,,,,,,,,,,,METAR,209.0
KLCQ 311535Z AUTO 14006KT 10SM BKN012 BKN016 25/21 A3004 RMK AO2,KLCQ,2022-10-31T15:35:00Z,30.18,-82.58,25.0,21.0,140,6,,10.0,30.041338,,,TRUE,TRUE,,,,,,,BKN,1200,BKN,1600,,,,,MVFR,,,,,,,,,,,,METAR,59.0
KLAM 311535Z AUTO 00000KT 10SM CLR 05/M06 A3019 RMK AO2 T00491058,KLAM,2022-10-31T15:35:00Z,35.87,-106.27,4.9,-5.8,0,0,,10.0,30.188976,,,TRUE,TRUE,,,,,,,CLR,,,,,,,,VFR,,,,,,,,,,,,SPECI,2166.0
KKNB 311535Z AUTO 36009KT 10SM CLR 08/M05 A3018 RMK A01,KKNB,2022-10-31T15:35:00Z,37.02,-112.53,8.0,-5.0,360,9,,10.0,30.180119,,,TRUE,TRUE,,,,,,,CLR,,,,,,,,VFR,,,,,,,,,,,,METAR,1476.0
KK88 311535Z AUTO 26005KT 10SM OVC100 15/07 A3001 RMK AO1 T01480069,KK88,2022-10-31T15:35:00Z,37.87,-95.38,14.8,6.9,260,5,,10.0,30.008858,,,TRUE,TRUE,,,,,,,OVC,10000,,,,,,,VFR,,,,,,,,,,,,METAR,308.0
KK62 311535Z AUTO 19006KT 10SM BKN009 BKN013 OVC060 15/ A2993 RMK AO2,KK62,2022-10-31T15:35:00Z,38.7,-84.4,15.0,,190,6,,10.0,29.929134,,,TRUE,TRUE,,,,,,,BKN,900,BKN,1300,OVC,6000,,,IFR,,,,,,,,,,,,METAR,274.0
KJYR 311535Z AUTO 00000KT 10SM CLR 11/03 A2996 RMK AO2,KJYR,2022-10-31T15:35:00Z,40.9,-97.62,11.0,3.0,0,0,,10.0,29.958662,,,TRUE,TRUE,,,,,,,CLR,,,,,,,,VFR,,,,,,,,,,,,SPECI,508.0
KJVY 311535Z AUTO 23008KT 10SM SCT014 SCT020 OVC032 17/15 A2992 RMK AO2,KJVY,2022-10-31T15:35:00Z,38.37,-85.73,17.0,15.0,230,8,,10.0,29.920275,,,TRUE,TRUE,,,,,,,SCT,1400,SCT,2000,OVC,3200,,,VFR,,,,,,,,,,,,METAR,141.0
KJSY 311535Z AUTO 10SM SCT048 SCT055 OVC110 08/02 A2993 RMK AO2 T00830022 TSNO,KJSY,2022-10-31T15:35:00Z,45.35,-117.25,8.3,2.2,,,,10.0,29.929134,,,TRUE,TRUE,,,TRUE,,,,SCT,4800,SCT,5500,OVC,11000,,,VFR,,,,,,,,,,,,METAR,1256.0
KJSV 311535Z AUTO 00000KT 10SM CLR 15/11 A3003 RMK AO2,KJSV,2022-10-31T15:35:00Z,35.43,-94.8,15.0,11.0,0,0,,10.0,30.029528,,,TRUE,TRUE,,,,,,,CLR,,,,,,,,VFR,,,,,,,,,,,,METAR,158.0
KJOT 311535Z AUTO 00000KT 4SM BR BKN004 OVC013 15/15 A2983 RMK AO2 T01530146,KJOT,2022-10-31T15:35:00Z,41.52,-88.18,15.3,14.6,0,0,,4.0,29.828741,,,TRUE,TRUE,,,,,,BR,BKN,400,OVC,1300,,,,,LIFR,,,,,,,,,,,,SPECI,175.0
KJHN 311535Z AUTO 30004KT 10SM CLR 12/M03 A3002 RMK AO2 T01211032,KJHN,2022-10-31T15:35:00Z,37.58,-101.73,12.1,-3.2,300,4,,10.0,30.02067,,,TRUE,TRUE,,,,,,,CLR,,,,,,,,VFR,,,,,,,,,,,,METAR,1013.0
KJES 311535Z AUTO 00000KT 10SM SCT024 26/20 A3006 RMK AO2,KJES,2022-10-31T15:35:00Z,31.55,-81.88,26.0,20.0,0,0,,10.0,30.059055,,,TRUE,TRUE,,,,,,,SCT,2400,,,,,,,VFR,,,,,,,,,,,,METAR,26.0
KJDD 311535Z AUTO 00000KT 10SM CLR 18/14 A3007 RMK AO2,KJDD,2022-10-31T15:35:00Z,32.75,-95.5,18.0,14.0,0,0,,10.0,30.070866,,,TRUE,TRUE,,,,,,,CLR,,,,,,,,VFR,,,,,,,,,,,,SPECI,127.0
KJCA 311535Z AUTO 05005KT 4SM -RA BR OVC004 15/ A3005 RMK AO2 P0001 T0147////,KJCA,2022-10-31T15:35:00Z,34.18,-83.57,14.7,,50,5,,4.0,30.050198,,,TRUE,TRUE,,,,,,-RA BR,OVC,400,,,,,,,LIFR,,,,,,0.01,,,,,,METAR,287.0
KJAS 311535Z AUTO 00000KT 7SM CLR 19/16 A3006 RMK AO2,KJAS,2022-10-31T15:35:00Z,30.88,-94.03,19.0,16.0,0,0,,7.0,30.059055,,,TRUE,TRUE,,,,,,,CLR,,,,,,,,VFR,,,,,,,,,,,,SPECI,60.0
KIZA 311535Z AUTO 00000KT 10SM CLR 06/06 A2996 RMK AO2,KIZA,2022-10-31T15:35:00Z,34.6,-120.07,6.0,6.0,0,0,,10.0,29.958662,,,TRUE,TRUE,,,,,,,CLR,,,,,,,,VFR,,,,,,,,,,,,METAR,200.0
KIKV 311535Z AUTO 28004KT 10SM CLR 11/05 A2994 RMK AO2,KIKV,2022-10-31T15:35:00Z,41.68,-93.57,11.0,5.0,280,4,,10.0,29.940945,,,TRUE,TRUE,,,,,,,CLR,,,,,,,,VFR,,,,,,,,,,,,SPECI,270.0
KIKK 311535Z AUTO 36003KT 1SM BR OVC003 14/13 A2983 RMK AO2 T01410133,KIKK,2022-10-31T15:35:00Z,41.07,-87.85,14.1,13.3,360,3,,1.0,29.828741,,,TRUE,TRUE,,,,,,BR,OVC,300,,,,,,,LIFR,,,,,,,,,,,,SPECI,188.0
KIJX 311535Z AUTO 29009KT 2 1/2SM OVC003 12/12 A2988 RMK AO2 P0002 T01150115,KIJX,2022-10-31T15:35:00Z,39.77,-90.25,11.5,11.5,290,9,,2.5,29.878937,,,TRUE,TRUE,,,,,,,OVC,300,,,,,,,LIFR,,,,,,0.02,,,,,,METAR,187.0
KIIY 311535Z AUTO 18004KT 5SM BR OVC002 18/18 A3004 RMK AO2 T01790178,KIIY,2022-10-31T15:35:00Z,33.78,-82.82,17.9,17.8,180,4,,5.0,30.041338,,,TRUE,TRUE,,,,,,BR,OVC,200,,,,,,,LIFR,,,,,,,,,,,,METAR,192.0
KIDP 311535Z AUTO 00000KT 10SM CLR 17/08 A3001 RMK AO2 T01700076,KIDP,2022-10-31T15:35:00Z,37.17,-95.78,17.0,7.6,0,0,,10.0,30.008858,,,TRUE,TRUE,,,,,,,CLR,,,,,,,,VFR,,,,,,,,,,,,METAR,252.0
KICL 311535Z AUTO 00000KT 10SM CLR 11/06 A2997 RMK AO2,KICL,2022-10-31T15:35:00Z,40.72,-95.02,11.0,6.0,0,0,,10.0,29.970472,,,TRUE,TRUE,,,,,,,CLR,,,,,,,,VFR,,,,,,,,,,,,SPECI,299.0
KIBM 311535Z AUTO 27012G15KT 10SM CLR 11/M07 A3001 RMK AO2 T01101067,KIBM,2022-10-31T15:35:00Z,41.18,-103.68,11.0,-6.7,270,12,15,10.0,30.008858,,,TRUE,TRUE,,,,,,,CLR,,,,,,,,VFR,,,,,,,,,,,,SPECI,1494.0
KI75 311535Z AUTO 33004KT 10SM CLR 13/05 A2994 RMK AO2 T01250054,KI75,2022-10-31T15:35:00Z,41.05,-93.68,12.5,5.4,330,4,,10.0,29.940945,,,TRUE,TRUE,,,,,,,CLR,,,,,,,,VFR,,,,,,,,,,,,SPECI,336.0
KI74 311535Z AUTO 21005KT 10SM BKN011 OVC016 16/15 A2990 RMK AO2,KI74,2022-10-31T15:35:00Z,40.12,-83.75,16.0,15.0,210,5,,10.0,29.899607,,,TRUE,TRUE,,,,,,,BKN,1100,OVC,1600,,,,,MVFR,,,,,,,,,,,,SPECI,322.0
KI63 311535Z AUTO 29006KT 5SM -DZ OVC024 11/11 A2988 RMK AO2 P0001 T01080107,KI63,2022-10-31T15:35:00Z,39.98,-90.8,10.8,10.7,290,6,,5.0,29.878937,,,TRUE,TRUE,,,,,,-DZ,OVC,2400,,,,,,,MVFR,,,,,,0.01,,,,,,SPECI,221.0
KHZR 311535Z AUTO 30003KT 10SM CLR 22/15 A3007 RMK AO2 T02200147,KHZR,2022-10-31T15:35:00Z,30.72,-91.48,22.0,14.7,300,3,,10.0,30.070866,,,TRUE,TRUE,,,,,,,CLR,,,,,,,,VFR,,,,,,,,,,,,METAR,11.0
KHYX 311535Z AUTO 00000KT 7SM OVC028 12/10 A2984 RMK AO2 T01160097,KHYX,2022-10-31T15:35:00Z,43.43,-83.87,11.6,9.7,0,0,,7.0,29.840551,,,TRUE,TRUE,,,,,,,OVC,2800,,,,,,,MVFR,,,,,,,,,,,,SPECI,181.0
KHVE 311535Z AUTO 00000KT 10SM CLR 02/M02 A3020 RMK AO2,KHVE,2022-10-31T15:35:00Z,38.42,-110.7,2.0,-2.0,0,0,,10.0,30.200787,,,TRUE,TRUE,,,,,,,CLR,,,,,,,,VFR,,,,,,,,,,,,SPECI,1351.0
KHQU 311535Z AUTO 22003KT 2SM -RA BR OVC003 18/18 A3005 RMK AO2 T01820178,KHQU,2022-10-31T15:35:00Z,33.53,-82.52,18.2,17.8,220,3,,2.0,30.050198,,,TRUE,TRUE,,,,,,-RA BR,OVC,300,,,,,,,LIFR,,,,,,,,,,,,METAR,141.0
KHQG 311535Z AUTO 20008KT 10SM CLR 16/00 A3004 RMK AO2 T01610000,KHQG,2022-10-31T15:35:00Z,37.17,-101.37,16.1,0.0,200,8,,10.0,30.041338,,,TRUE,TRUE,,,,,,,CLR,,,,,,,,VFR,,,,,,,,,,,,METAR,956.0
KHQG 311535Z AUTO 20008KT 10SM CLR 16/00 A3004 RMK AO2 T01610000,KHQG,2022-10-31T15:35:00Z,37.17,-101.37,16.1,0.0,200,8,,10.0,30.041338,,,TRUE,TRUE,,,,,,,CLR,,,,,,,,VFR,,,,,,,,,,,,METAR,956.0
KHPT 311535Z AUTO 00000KT 10SM CLR 12/03 A2991 RMK AO2,KHPT,2022-10-31T15:35:00Z,42.72,-93.23,12.0,3.0,0,0,,10.0,29.911417,,,TRUE,TRUE,,,,,,,CLR,,,,,,,,VFR,,,,,,,,,,,,METAR,354.0
KHNR 311535Z AUTO 00000KT 6SM HZ CLR 09/06 A2995 RMK A01,KHNR,2022-10-31T15:35:00Z,41.58,-95.33,9.0,6.0,0,0,,6.0,29.949802,,,TRUE,TRUE,,,,,,HZ,CLR,,,,,,,,VFR,,,,,,,,,,,,SPECI,364.0
KHMZ 311535Z AUTO 00000KT 4SM -SN BKN030 BKN036 OVC095 07/07 A3003 RMK AO2 P0001 T00710067,KHMZ,2022-10-31T15:35:00Z,40.08,-78.52,7.1,6.7,0,0,,4.0,30.029528,,,TRUE,TRUE,,,,,,-SN,BKN,3000,BKN,3600,OVC,9500,,,MVFR,,,,,,0.01,,,,,,SPECI,351.0
KHMT 311535Z AUTO 00000KT 10SM CLR 12/M02 A2998 RMK AO2 T01221016,KHMT,2022-10-31T15:35:00Z,33.73,-117.02,12.2,-1.6,0,0,,10.0,29.97933,,,TRUE,TRUE,,,,,,,CLR,,,,,,,,VFR,,,,,,,,,,,,METAR,462.0
KHMP 311535Z AUTO 23008KT 10SM BKN008 OVC018 21/19 A3006 RMK AO2 T02070186,KHMP,2022-10-31T15:35:00Z,33.38,-84.33,20.7,18.6,230,8,,10.0,30.059055,,,TRUE,TRUE,,,,,,,BKN,800,OVC,1800,,,,,IFR,,,,,,,,,,,,METAR,263.0
KHJH 311535Z AUTO 00000KT 10SM CLR 11/03 A3000 RMK AO2 T01050034,KHJH,2022-10-31T15:35:00Z,40.15,-97.58,10.5,3.4,0,0,,10.0,30.0,,,TRUE,TRUE,,,,,,,CLR,,,,,,,,VFR,,,,,,,,,,,,SPECI,449.0
KHII 311535Z AUTO 00000KT 10SM CLR 17/M05 A2997 RMK AO2,KHII,2022-10-31T15:35:00Z,34.57,-114.37,17.0,-5.0,0,0,,10.0,29.970472,,,TRUE,TRUE,,,,,,,CLR,,,,,,,,VFR,,,,,,,,,,,,SPECI,241.0
KHHV 311535Z AUTO 10009KT 10SM FEW036 OVC080 26/15 A3001 RMK A01,KHHV,2022-10-31T15:35:00Z,26.93,-94.68,26.0,15.0,100,9,,10.0,30.008858,,,TRUE,TRUE,,,,,,,FEW,3600,OVC,8000,,,,,VFR,,,,,,,,,,,,SPECI,25.0
KHHG 311535Z AUTO 22006KT 10SM BKN013 OVC017 16/16 A2984 RMK AO2 T01600158,KHHG,2022-10-31T15:35:00Z,40.85,-85.45,16.0,15.8,220,6,,10.0,29.840551,,,TRUE,TRUE,,,,,,,BKN,1300,OVC,1700,,,,,MVFR,,,,,,,,,,,,SPECI,247.0
KHEQ 311535Z AUTO 25005KT 10SM CLR 12/M05 A3000 RMK AO2,KHEQ,2022-10-31T15:35:00Z,40.57,-102.28,12.0,-5.0,250,5,,10.0,30.0,,,TRUE,TRUE,,,,,,,CLR,,,,,,,,VFR,,,,,,,,,,,,SPECI,1136.0
KHEG 311535Z AUTO VRB06KT 10SM FEW023 29/21 A3006 RMK AO2,KHEG,2022-10-31T15:35:00Z,30.28,-81.8,29.0,21.0,0,6,,10.0,30.059055,,,TRUE,TRUE,,,,,,,FEW,2300,,,,,,,VFR,,,,,,,,,,,,METAR,25.0
KHDL 311535Z AUTO 31003KT 10SM OVC037 20/18 A3004 RMK AO2,KHDL,2022-10-31T15:35:00Z,31.37,-85.32,20.0,18.0,310,3,,10.0,30.041338,,,TRUE,TRUE,,,,,,,OVC,3700,,,,,,,VFR,,,,,,,,,,,,METAR,109.0
KHDE 311535Z AUTO 24005KT 10SM CLR 09/M01 A2997 RMK AO2 T00941007,KHDE,2022-10-31T15:35:00Z,40.45,-99.33,9.4,-0.7,240,5,,10.0,29.970472,,,TRUE,TRUE,,,,,,,CLR,,,,,,,,VFR,,,,,,,,,,,,METAR,703.0
KHCR 311535Z AUTO 00000KT 10SM CLR 00/M03 A3021 RMK AO2,KHCR,2022-10-31T15:35:00Z,40.48,-111.43,0.0,-3.0,0,0,,10.0,30.209646,,,TRUE,TRUE,,,,,,,CLR,,,,,,,,VFR,,,,,,,,,,,,SPECI,1708.0
KHCD 311535Z AUTO 24003KT 10SM CLR 11/00 A2989 RMK AO2 T01080001,KHCD,2022-10-31T15:35:00Z,44.87,-94.38,10.8,0.1,240,3,,10.0,29.890747,,,TRUE,TRUE,,,,,,,CLR,,,,,,,,VFR,,,,,,,,,,,,SPECI,320.0
KGZL 311535Z AUTO 00000KT 10SM CLR 15/12 A3002 RMK AO2,KGZL,2022-10-31T15:35:00Z,35.28,-95.1,15.0,12.0,0,0,,10.0,30.02067,,,TRUE,TRUE,,,,,,,CLR,,,,,,,,VFR,,,,,,,,,,,,METAR,176.0
KGYF 311535Z AUTO 08007KT 10SM OVC090 24/17 A3002 RMK AO2 T02420169,KGYF,2022-10-31T15:35:00Z,26.13,-94.9,24.2,16.9,80,7,,10.0,30.02067,,,TRUE,TRUE,,,,,,,OVC,9000,,,,,,,VFR,,,,,,,,,,,,METAR,65.0
KGWB 311535Z AUTO 20007KT 7SM BKN004 BKN009 OVC014 15/15 A2985 RMK AO2 P0004,KGWB,2022-10-31T15:35:00Z,41.3,-85.07,15.0,15.0,200,7,,7.0,29.84941,,,TRUE,TRUE,,,,,,,BKN,400,BKN,900,OVC,1400,,,LIFR,,,,,,0.04,,,,,,SPECI,268.0
KGVW 311535Z AUTO 04007KT 10SM CLR 22/15 A3007 RMK A01,KGVW,2022-10-31T15:35:00Z,29.13,-94.55,22.0,15.0,40,7,,10.0,30.070866,,,TRUE,TRUE,,,,,,,CLR,,,,,,,,VFR,,,,,,,,,,,,SPECI,37.0
KGVT 311535Z AUTO 00000KT 10SM CLR 17/12 A3007 RMK AO2 TSNO T01660125,KGVT,2022-10-31T15:35:00Z,33.07,-96.07,16.6,12.5,0,0,,10.0,30.070866,,,TRUE,TRUE,,,TRUE,,,,CLR,,,,,,,,VFR,,,,,,,,,,,,SPECI,165.0
KGUL 311535Z AUTO 00000KT 10SM FEW034 23/15 A3005 RMK A01,KGUL,2022-10-31T15:35:00Z,27.3,-93.53,23.0,15.0,0,0,,10.0,30.050198,,,TRUE,TRUE,,,,,,,FEW,3400,,,,,,,VFR,,,,,,,,,,,,SPECI,20.0
KGRY 311535Z AUTO 04007G12KT 340V070 10SM BKN029 OVC037 23/16 A3006 RMK A01,KGRY,2022-10-31T15:35:00Z,27.63,-90.45,23.0,16.0,40,7,12,10.0,30.059055,,,TRUE,TRUE,,,,,,,BKN,2900,OVC,3700,,,,,MVFR,,,,,,,,,,,,METAR,58.0
KGPC 311535Z AUTO 21009KT 10SM OVC007 15/14 A2986 RMK AO2 T01500140,KGPC,2022-10-31T15:35:00Z,39.63,-86.82,15.0,14.0,210,9,,10.0,29.861221,,,TRUE,TRUE,,,,,,,OVC,700,,,,,,,IFR,,,,,,,,,,,,SPECI,254.0
KGOP 311535Z AUTO 10SM CLR 19/11 A3009 RMK AO2,KGOP,2022-10-31T15:35:00Z,31.42,-97.8,19.0,11.0,,,,10.0,30.088583,,,TRUE,TRUE,,,,,,,CLR,,,,,,,,VFR,,,,,,,,,,,,SPECI,272.0
KGNC 311535Z AUTO 00000KT 10SM CLR 14/08 A3014 RMK AO2 T01390075,KGNC,2022-10-31T15:35:00Z,32.68,-102.65,13.9,7.5,0,0,,10.0,30.138779,,,TRUE,TRUE,,,,,,,CLR,,,,,,,,VFR,,,,,,,,,,,,SPECI,1002.0
KGNB 311535Z AUTO 00000KT 10SM CLR M03/M06 A3024 RMK AO2 T10331058,KGNB,2022-10-31T15:35:00Z,40.08,-105.92,-3.3,-5.8,0,0,,10.0,30.239174,,,TRUE,TRUE,,,,,,,CLR,,,,,,,,VFR,,,,,,,,,,,,SPECI,2500.0
KGMJ 311535Z AUTO 23004KT 9SM CLR 08/02 A3001 RMK AO2,KGMJ,2022-10-31T15:35:00Z,36.6,-94.73,8.0,2.0,230,4,,9.0,30.008858,,,TRUE,TRUE,,,,,,,CLR,,,,,,,,VFR,,,,,,,,,,,,METAR,251.0
KGLX 311535Z AUTO VRB06G11KT 10SM FEW027 27/16 A3007 RMK A01,KGLX,2022-10-31T15:35:00Z,28.23,-88.98,27.0,16.0,0,6,11,10.0,30.070866,,,TRUE,TRUE,,,,,,,FEW,2700,,,,,,,VFR,,,,,,,,,,,,SPECI,32.0
KGLW 311535Z AUTO 22007KT 10SM OVC012 17/15 A2996 RMK AO2 T01680149,KGLW,2022-10-31T15:35:00Z,37.03,-85.95,16.8,14.9,220,7,,10.0,29.958662,,,TRUE,TRUE,,,,,,,OVC,1200,,,,,,,MVFR,,,,,,,,,,,,METAR,216.0
KGLE 311535Z AUTO 00000KT 10SM CLR 17/10 A3008 RMK AO2 T01700103,KGLE,2022-10-31T15:35:00Z,33.65,-97.2,17.0,10.3,0,0,,10.0,30.079725,,,TRUE,TRUE,,,,,,,CLR,,,,,,,,VFR,,,,,,,,,,,,SPECI,250.0
KGIC 311535Z AUTO 21016G26KT 10SM SCT055 OVC070 12/00 A2988 RMK AO1,KGIC,2022-10-31T15:35:00Z,45.95,-116.12,12.0,0.0,210,16,26,10.0,29.878937,,,TRUE,TRUE,,,,,,,SCT,5500,OVC,7000,,,,,VFR,,,,,,,,,,,,METAR,1002.0
KGHG 311535Z AUTO 20007KT 10SM 16/13 A3007 RMK AO2,KGHG,2022-10-31T15:35:00Z,42.1,-70.67,16.0,13.0,200,7,,10.0,30.070866,,,TRUE,TRUE,,,,,,,,,,,,,,,,,,,,,,,,,,,SPECI,3.0
KGHB 311535Z AUTO 02006KT 10SM FEW038 23/14 A3006 RMK A01,KGHB,2022-10-31T15:35:00Z,27.83,-91.98,23.0,14.0,20,6,,10.0,30.059055,,,TRUE,TRUE,,,,,,,FEW,3800,,,,,,,VFR,,,,,,,,,,,,METAR,30.0
KGGP 311535Z AUTO 19007KT 10SM SCT012 SCT020 OVC027 15/13 A2984 RMK AO2,KGGP,2022-10-31T15:35:00Z,40.72,-86.37,15.0,13.0,190,7,,10.0,29.840551,,,TRUE,TRUE,,,,,,,SCT,1200,SCT,2000,OVC,2700,,,MVFR,,,,,,,,,,,,SPECI,224.0
KGGI 311535Z AUTO 00000KT 10SM CLR 13/08 A2992 RMK AO2 T01320080,KGGI,2022-10-31T15:35:00Z,41.72,-92.73,13.2,8.0,0,0,,10.0,29.920275,,,TRUE,TRUE,,,,,,,CLR,,,,,,,,VFR,,,,,,,,,,,,SPECI,305.0
KGGF 311535Z AUTO 28012KT 10SM 11/M06 A2997 RMK AO2,KGGF,2022-10-31T15:35:00Z,,,11.0,-6.0,280,12,,10.0,29.970472,,,TRUE,TRUE,,,,,,,,,,,,,,,,,,,,,,,,,,,SPECI,
KGEV 311535Z AUTO 00000KT 1/2SM +DZ OVC003 11/11 A3008 RMK AO2 P0001 T01100109,KGEV,2022-10-31T15:35:00Z,36.43,-81.42,11.0,10.9,0,0,,0.5,30.079725,,,TRUE,TRUE,,,,,,+DZ,OVC,300,,,,,,,LIFR,,,,,,0.01,,,,,,METAR,961.0
KGDB 311535Z AUTO 17005KT 10SM CLR 10/04 A2989 RMK AO2 T01000035,KGDB,2022-10-31T15:35:00Z,44.75,-95.55,10.0,3.5,170,5,,10.0,29.890747,,,TRUE,TRUE,,,,,,,CLR,,,,,,,,VFR,,,,,,,,,,,,SPECI,316.0
KGCM 311535Z AUTO 25003KT 10SM CLR 14/09 A3004 RMK AO2,KGCM,2022-10-31T15:35:00Z,36.3,-95.48,14.0,9.0,250,3,,10.0,30.041338,,,TRUE,TRUE,,,,,,,CLR,,,,,,,,VFR,,,,,,,,,,,,METAR,215.0
KGCD 311535Z AUTO 21010G14KT 10SM BKN100 OVC110 12/01 A2997 RMK AO2 T01180011,KGCD,2022-10-31T15:35:00Z,44.4,-118.97,11.8,1.1,210,10,14,10.0,29.970472,,,TRUE,TRUE,,,,,,,BKN,10000,OVC,11000,,,,,VFR,,,,,,,,,,,,SPECI,1122.0
KGBK 311535Z AUTO VRB06KT 9SM SCT037 25/15 A3004 RMK A01,KGBK,2022-10-31T15:35:00Z,27.2,-92.2,25.0,15.0,0,6,,9.0,30.041338,,,TRUE,TRUE,,,,,,,SCT,3700,,,,,,,VFR,,,,,,,,,,,,SPECI,20.0
KGBG 311535Z AUTO 31005KT 7SM SCT120 12/10 A2989 RMK AO2 T01180103,KGBG,2022-10-31T15:35:00Z,40.93,-90.43,11.8,10.3,310,5,,7.0,29.890747,,,TRUE,TRUE,,,,,,,SCT,12000,,,,,,,VFR,,,,,,,,,,,,METAR,230.0
KGAO 311535Z AUTO 34003KT 10SM CLR 23/16 A3008 RMK AO2 T02270160,KGAO,2022-10-31T15:35:00Z,29.45,-90.27,22.7,16.0,340,3,,10.0,30.079725,,,TRUE,TRUE,,,,,,,CLR,,,,,,,,VFR,,,,,,,,,,,,METAR,0.0
KFZG 311535Z AUTO 21006KT 10SM OVC015 24/20 A3004 RMK AO2 T02420196,KFZG,2022-10-31T15:35:00Z,31.68,-83.27,24.2,19.6,210,6,,10.0,30.041338,,,TRUE,TRUE,,,,,,,OVC,1500,,,,,,,MVFR,,,,,,,,,,,,METAR,105.0
KFYJ 311535Z AUTO 00000KT 10SM BKN070 BKN095 17/13 A3012 RMK AO1 T01740131,KFYJ,2022-10-31T15:35:00Z,37.52,-76.77,17.4,13.1,0,0,,10.0,30.121063,,,TRUE,TRUE,,,,,,,BKN,7000,BKN,9500,,,,,VFR,,,,,,,,,,,,METAR,3.0
KFXY 311535Z AUTO 24003KT 10SM CLR 10/03 A2990 RMK AO2,KFXY,2022-10-31T15:35:00Z,43.23,-93.62,10.0,3.0,240,3,,10.0,29.899607,,,TRUE,TRUE,,,,,,,CLR,,,,,,,,VFR,,,,,,,,,,,,SPECI,366.0
KFWZ 311535Z AUTO 23003KT 10SM CLR 03/M07 A3008 RMK AO2,KFWZ,2022-10-31T15:35:00Z,42.52,-108.78,3.0,-7.0,230,3,,10.0,30.079725,,,TRUE,TRUE,,,,,,,CLR,,,,,,,,VFR,,,,,,,,,,,,SPECI,2605.0
KFWC 311535Z AUTO 00000KT OVC010 14/13 A2989 RMK AO1 T01420130 PWINO,KFWC,2022-10-31T15:35:00Z,38.38,-88.42,14.2,13.0,0,0,,,29.890747,,,TRUE,TRUE,,,,,TRUE,,OVC,1000,,,,,,,,,,,,,,,,,,,SPECI,131.0
KFSW 311535Z AUTO 31006KT 10SM OVC001 12/09 A2989 RMK AO2,KFSW,2022-10-31T15:35:00Z,40.67,-91.32,12.0,9.0,310,6,,10.0,29.890747,,,TRUE,TRUE,,,,,,,OVC,100,,,,,,,LIFR,,,,,,,,,,,,SPECI,219.0
KFSK 311535Z AUTO 27005KT 10SM SCT120 14/08 A2999 RMK AO2 T01390083,KFSK,2022-10-31T15:35:00Z,37.8,-94.77,13.9,8.3,270,5,,10.0,29.991142,,,TRUE,TRUE,,,,,,,SCT,12000,,,,,,,VFR,,,,,,,,,,,,METAR,276.0
KFQD 311535Z AUTO 00000KT 1 1/2SM +RA BKN003 BKN009 OVC019 12/12 A3009 RMK AO2 P0020,KFQD,2022-10-31T15:35:00Z,35.42,-81.93,12.0,12.0,0,0,,1.5,30.088583,,,TRUE,TRUE,,,,,,+RA,BKN,300,BKN,900,OVC,1900,,,LIFR,,,,,,0.2,,,,,,METAR,325.0
KFPY 311535Z AUTO 15005KT 10SM SCT120 27/21 A3003 RMK AO2 T02720205 TSNO,KFPY,2022-10-31T15:35:00Z,30.07,-83.57,27.2,20.5,150,5,,10.0,30.029528,,,TRUE,TRUE,,,TRUE,,,,SCT,12000,,,,,,,VFR,,,,,,,,,,,,METAR,12.0
KFOA 311535Z AUTO 23007KT 10SM SCT012 BKN016 OVC035 15/13 A2990 RMK AO2,KFOA,2022-10-31T15:35:00Z,38.67,-88.45,15.0,13.0,230,7,,10.0,29.899607,,,TRUE,TRUE,,,,,,,SCT,1200,BKN,1600,OVC,3500,,,MVFR,,,,,,,,,,,,SPECI,141.0
KFMM 311535Z AUTO 26008KT 10SM CLR 06/M05 A3003 RMK AO2,KFMM,2022-10-31T15:35:00Z,40.33,-103.8,6.0,-5.0,260,8,,10.0,30.029528,,,TRUE,TRUE,,,,,,,CLR,,,,,,,,VFR,,,,,,,,,,,,SPECI,1376.0
KFKR 311535Z AUTO 20008KT 9SM OVC012 16/15 A2983 RMK AO2,KFKR,2022-10-31T15:35:00Z,40.27,-86.57,16.0,15.0,200,8,,9.0,29.828741,,,TRUE,TRUE,,,,,,,OVC,1200,,,,,,,MVFR,,,,,,,,,,,,SPECI,260.0
KFHB 311535Z AUTO 14008KT 10SM CLR 26/22 A3004 RMK AO2,KFHB,2022-10-31T15:35:00Z,30.62,-81.47,26.0,22.0,140,8,,10.0,30.041338,,,TRUE,TRUE,,,,,,,CLR,,,,,,,,VFR,,,,,,,,,,,,METAR,4.0
KFFL 311535Z AUTO 30004KT 8SM CLR 12/07 A2990 RMK A01,KFFL,2022-10-31T15:35:00Z,41.05,-91.97,12.0,7.0,300,4,,8.0,29.899607,,,TRUE,TRUE,,,,,,,CLR,,,,,,,,VFR,,,,,,,,,,,,SPECI,240.0
KFEP 311535Z AUTO 00000KT 7SM CLR 12/10 A2988 RMK AO2 T01160096,KFEP,2022-10-31T15:35:00Z,42.25,-89.58,11.6,9.6,0,0,,7.0,29.878937,,,TRUE,TRUE,,,,,,,CLR,,,,,,,,VFR,,,,,,,,,,,,SPECI,255.0
KF00 311535Z AUTO 00000KT 10SM CLR 17/13 A3007 RMK AO2 T01660134,KF00,2022-10-31T15:35:00Z,33.62,-96.18,16.6,13.4,0,0,,10.0,30.070866,,,TRUE,TRUE,,,,,,,CLR,,,,,,,,VFR,,,,,,,,,,,,SPECI,189.0
KEZZ 311535Z AUTO 32004KT 10SM CLR 14/06 A2997 RMK AO2 T01360055,KEZZ,2022-10-31T15:35:00Z,39.72,-94.28,13.6,5.5,320,4,,10.0,29.970472,,,TRUE,TRUE,,,,,,,CLR,,,,,,,,VFR,,,,,,,,,,,,METAR,317.0
KEZP 311535Z AUTO 07008KT 10SM FEW037 23/14 A3007 RMK A01,KEZP,2022-10-31T15:35:00Z,28.22,-92.8,23.0,14.0,70,8,,10.0,30.070866,,,TRUE,TRUE,,,,,,,FEW,3700,,,,,,,VFR,,,,,,,,,,,,METAR,30.0
KETN 311535Z AUTO 00000KT 10SM CLR 18/11 A3008 RMK AO2 T01840113,KETN,2022-10-31T15:35:00Z,32.42,-98.82,18.4,11.3,0,0,,10.0,30.079725,,,TRUE,TRUE,,,,,,,CLR,,,,,,,,VFR,,,,,,,,,,,,SPECI,445.0
KETC 311535Z AUTO 15004KT 7SM 19/14 A3011 RMK AO2 T01940144,KETC,2022-10-31T15:35:00Z,35.93,-77.55,19.4,14.4,150,4,,7.0,30.109253,,,TRUE,TRUE,,,,,,,,,,,,,,,,,,,,,,,,,,,METAR,15.0
KERY 311535Z AUTO 19003KT 10SM CLR 12/06 A2983 RMK AO2 T01210056,KERY,2022-10-31T15:35:00Z,46.3,-85.45,12.1,5.6,190,3,,10.0,29.828741,,,TRUE,TRUE,,,,,,,CLR,,,,,,,,VFR,,,,,,,,,,,,SPECI,261.0
KEQA 311535Z AUTO 32003KT 10SM CLR 14/03 A3001 RMK AO2,KEQA,2022-10-31T15:35:00Z,37.78,-96.82,14.0,3.0,320,3,,10.0,30.008858,,,TRUE,TRUE,,,,,,,CLR,,,,,,,,VFR,,,,,,,,,,,,METAR,422.0
KEOK 311535Z AUTO 32004KT 10SM FEW100 13/11 A2990 RMK A01,KEOK,2022-10-31T15:35:00Z,40.47,-91.42,13.0,11.0,320,4,,10.0,29.899607,,,TRUE,TRUE,,,,,,,FEW,10000,,,,,,,VFR,,,,,,,,,,,,SPECI,206.0
KEMM 311535Z AUTO 10007KT 10SM CLR 00/M05 A3018 RMK AO2,KEMM,2022-10-31T15:35:00Z,41.82,-110.55,0.0,-5.0,100,7,,10.0,30.180119,,,TRUE,TRUE,,,,,,,CLR,,,,,,,,VFR,,,,,,,,,,,,SPECI,2219.0
KELA 311535Z AUTO 00000KT 10SM CLR 22/14 A3007 RMK AO2 T02210142,KELA,2022-10-31T15:35:00Z,29.6,-96.32,22.1,14.2,0,0,,10.0,30.070866,,,TRUE,TRUE,,,,,,,CLR,,,,,,,,VFR,,,,,,,,,,,,SPECI,56.0
KEHA 311535Z AUTO 24011KT 10SM CLR 16/01 A3006 RMK AO2 T01570008,KEHA,2022-10-31T15:35:00Z,37.0,-101.87,15.7,0.8,240,11,,10.0,30.059055,,,TRUE,TRUE,,,,,,,CLR,,,,,,,,VFR,,,,,,,,,,,,SPECI,1103.0
KEGT 311535Z AUTO 31005KT 10SM CLR 14/03 A3004 RMK AO2 T01410029,KEGT,2022-10-31T15:35:00Z,37.32,-97.38,14.1,2.9,310,5,,10.0,30.041338,,,TRUE,TRUE,,,,,,,CLR,,,,,,,,VFR,,,,,,,,,,,,METAR,387.0
KEDC 311535Z AUTO 00000KT 10SM CLR 18/13 A3006 RMK AO2,KEDC,2022-10-31T15:35:00Z,30.4,-97.57,18.0,13.0,0,0,,10.0,30.059055,,,TRUE,TRUE,,,,,,,CLR,,,,,,,,VFR,,,,,,,,,,,,SPECI,184.0
KECU 311535Z AUTO 14011KT 10SM FEW008 18/13 A3013 RMK AO2,KECU,2022-10-31T15:35:00Z,29.95,-100.17,18.0,13.0,140,11,,10.0,30.129921,,,TRUE,TRUE,,,,,,,FEW,800,,,,,,,VFR,,,,,,,,,,,,SPECI,725.0
KEBS 311535Z AUTO 31007KT 10SM CLR 11/04 A2991 RMK AO2,KEBS,2022-10-31T15:35:00Z,42.43,-93.87,11.0,4.0,310,7,,10.0,29.911417,,,TRUE,TRUE,,,,,,,CLR,,,,,,,,VFR,,,,,,,,,,,,METAR,340.0
KEBG 311535Z AUTO 07005KT 10SM OVC060 24/18 A3000 RMK AO2 T02360178 PWINO,KEBG,2022-10-31T15:35:00Z,26.45,-98.13,23.6,17.8,70,5,,10.0,30.0,,,TRUE,TRUE,,,,,TRUE,,OVC,6000,,,,,,,VFR,,,,,,,,,,,,SPECI,21.0
KEBA 311535Z AUTO 00000KT 7SM -RA OVC004 16/16 A3005 RMK AO2 P0001 T01590156,KEBA,2022-10-31T15:35:00Z,34.1,-82.82,15.9,15.6,0,0,,7.0,30.050198,,,TRUE,TRUE,,,,,,-RA,OVC,400,,,,,,,LIFR,,,,,,0.01,,,,,,METAR,180.0
KE42 311535Z AUTO 21007KT 10SM CLR 12/04 A3007 RMK AO2 T01160044,KE42,2022-10-31T15:35:00Z,36.22,-101.2,11.6,4.4,210,7,,10.0,30.070866,,,TRUE,TRUE,,,,,,,CLR,,,,,,,,VFR,,,,,,,,,,,,SPECI,942.0
KE41 311535Z AUTO 17007KT 10SM CLR 15/08 A3009 RMK AO2 T01500080,KE41,2022-10-31T15:35:00Z,31.2,-101.47,15.0,8.0,170,7,,10.0,30.088583,,,TRUE,TRUE,,,,,,,CLR,,,,,,,,VFR,,,,,,,,,,,,SPECI,825.0
KE38 311535Z AUTO 00000KT 10SM SCT120 14/06 A3014 RMK AO2 T01370061,KE38,2022-10-31T15:35:00Z,30.38,-103.68,13.7,6.1,0,0,,10.0,30.138779,,,TRUE,TRUE,,,,,,,SCT,12000,,,,,,,VFR,,,,,,,,,,,,SPECI,1372.0
KE16 311535Z AUTO 00000KT 7SM CLR 08/07 A3002 RMK AO2,KE16,2022-10-31T15:35:00Z,37.08,-121.6,8.0,7.0,0,0,,7.0,30.02067,,,TRUE,TRUE,,,,,,,CLR,,,,,,,,VFR,,,,,,,,,,,,SPECI,84.0
KE11 311535Z AUTO 13003KT 10SM CLR 15/07 A3010 RMK AO2 T01520073,KE11,2022-10-31T15:35:00Z,32.33,-102.53,15.2,7.3,130,3,,10.0,30.100393,,,TRUE,TRUE,,,,,,,CLR,,,,,,,,VFR,,,,,,,,,,,,SPECI,966.0
KDZJ 311535Z AUTO 15003KT 10SM OVC020 17/15 A3006 RMK AO2 T01660145,KDZJ,2022-10-31T15:35:00Z,34.85,-84.0,16.6,14.5,150,3,,10.0,30.059055,,,TRUE,TRUE,,,,,,,OVC,2000,,,,,,,MVFR,,,,,,,,,,,,METAR,578.0
KDWA 311535Z AUTO 01005KT 10SM CLR 09/06 A3001 RMK AO2,KDWA,2022-10-31T15:35:00Z,38.58,-121.85,9.0,6.0,10,5,,10.0,30.008858,,,TRUE,TRUE,,,,,,,CLR,,,,,,,,VFR,,,,,,,,,,,,METAR,28.0
KDVO 311535Z AUTO 00000KT 10SM OVC007 11/10 A2999 RMK AO2,KDVO,2022-10-31T15:35:00Z,38.15,-122.55,11.0,10.0,0,0,,10.0,29.991142,,,TRUE,TRUE,,,,,,,OVC,700,,,,,,,IFR,,,,,,,,,,,,SPECI,1.0
KDUX 311535Z AUTO 22008KT 10SM CLR 15/04 A3008 RMK AO2 T01450038,KDUX,2022-10-31T15:35:00Z,35.85,-102.02,14.5,3.8,220,8,,10.0,30.079725,,,TRUE,TRUE,,,,,,,CLR,,,,,,,,VFR,,,,,,,,,,,,SPECI,1129.0
KDUC 311535Z AUTO 18003KT 10SM CLR 15/10 A3008 RMK AO2 T01510103,KDUC,2022-10-31T15:35:00Z,34.47,-97.97,15.1,10.3,180,3,,10.0,30.079725,,,TRUE,TRUE,,,,,,,CLR,,,,,,,,VFR,,,,,,,,,,,,METAR,339.0
KDSF 311535Z AUTO 00000KT 10SM OVC036 24/16 A3006 RMK A01,KDSF,2022-10-31T15:35:00Z,28.35,-88.27,24.0,16.0,0,0,,10.0,30.059055,,,TRUE,TRUE,,,,,,,OVC,3600,,,,,,,VFR,,,,,,,,,,,,SPECI,40.0
KDQH 311535Z AUTO 19005KT 10SM OVC008 23/20 A3006 RMK AO2 T02270201,KDQH,2022-10-31T15:35:00Z,31.48,-82.87,22.7,20.1,190,5,,10.0,30.059055,,,TRUE,TRUE,,,,,,,OVC,800,,,,,,,IFR,,,,,,,,,,,,METAR,76.0
KDPL 311535Z AUTO 09003KT 7SM BKN037 OVC065 21/16 A3011 RMK AO2,KDPL,2022-10-31T15:35:00Z,35.0,-77.97,21.0,16.0,90,3,,7.0,30.109253,,,TRUE,TRUE,,,,,,,BKN,3700,OVC,6500,,,,,VFR,,,,,,,,,,,,METAR,39.0
KDNV 311535Z AUTO 22008KT 5SM BR OVC003 14/13 A2984 RMK AO2 P0001 T01400133,KDNV,2022-10-31T15:35:00Z,40.2,-87.6,14.0,13.3,220,8,,5.0,29.840551,,,TRUE,TRUE,,,,,,BR,OVC,300,,,,,,,LIFR,,,,,,0.01,,,,,,SPECI,208.0
KDNS 311535Z AUTO 00000KT 07/07 A2996 RMK AO2,KDNS,2022-10-31T15:35:00Z,41.98,-95.37,7.0,7.0,0,0,,,29.958662,,,TRUE,TRUE,,,,,,,,,,,,,,,,,,,,,,,,,,,SPECI,382.0
KDMW 311535Z AUTO 21007KT 5SM -RA SCT013 BKN020 OVC050 14/13 A3008 RMK AO2,KDMW,2022-10-31T15:35:00Z,39.6,-77.0,14.0,13.0,210,7,,5.0,30.079725,,,TRUE,TRUE,,,,,,-RA,SCT,1300,BKN,2000,OVC,5000,,,MVFR,,,,,,,,,,,,METAR,239.0
KDLO 311535Z AUTO 00000KT 10SM CLR 06/01 A2999 RMK AO2 T00580010,KDLO,2022-10-31T15:35:00Z,35.75,-119.23,5.8,1.0,0,0,,10.0,29.991142,,,TRUE,TRUE,,,,,,,CLR,,,,,,,,VFR,,,,,,,,,,,,METAR,97.0
KDKR 311535Z AUTO 00000KT 10SM CLR 17/15 A3007 RMK AO2,KDKR,2022-10-31T15:35:00Z,31.3,-95.4,17.0,15.0,0,0,,10.0,30.070866,,,TRUE,TRUE,,,,,,,CLR,,,,,,,,VFR,,,,,,,,,,,,SPECI,105.0
KDKB 311535Z AUTO 35004KT 2 1/2SM BR OVC005 11/11 A2985 RMK AO2 T01130113,KDKB,2022-10-31T15:35:00Z,41.93,-88.7,11.3,11.3,350,4,,2.5,29.84941,,,TRUE,TRUE,,,,,,BR,OVC,500,,,,,,,IFR,,,,,,,,,,,,SPECI,277.0
KDED 311535Z AUTO 12006KT 10SM SCT027 SCT048 SCT055 28/21 A3004 RMK AO2 T02760210,KDED,2022-10-31T15:35:00Z,29.07,-81.28,27.6,21.0,120,6,,10.0,30.041338,,,TRUE,TRUE,,,,,,,SCT,2700,SCT,4800,SCT,5500,,,VFR,,,,,,,,,,,,METAR,21.0
KDCY 311535Z AUTO 20007KT 3SM BR OVC005 15/15 A2988 RMK AO2 T01500150,KDCY,2022-10-31T15:35:00Z,38.7,-87.13,15.0,15.0,200,7,,3.0,29.878937,,,TRUE,TRUE,,,,,,BR,OVC,500,,,,,,,IFR,,,,,,,,,,,,SPECI,143.0
KDBN 311535Z AUTO 00000KT 3SM BR OVC005 21/20 A3006 RMK AO2,KDBN,2022-10-31T15:35:00Z,32.57,-82.98,21.0,20.0,0,0,,3.0,30.059055,,,TRUE,TRUE,,,,,,BR,OVC,500,,,,,,,IFR,,,,,,,,,,,,SPECI,90.0
KD73 311535Z AUTO 00000KT 3 1/2SM -RA BR OVC002 16/ A3005 RMK AO2 P0001 T0161////,KD73,2022-10-31T15:35:00Z,33.78,-83.7,16.1,,0,0,,3.5,30.050198,,,TRUE,TRUE,,,,,,-RA BR,OVC,200,,,,,,,LIFR,,,,,,0.01,,,,,,METAR,254.0
KCZT 311535Z AUTO 14005KT 10SM CLR 20/14 A3003 RMK AO2,KCZT,2022-10-31T15:35:00Z,28.52,-99.82,20.0,14.0,140,5,,10.0,30.029528,,,TRUE,TRUE,,,,,,,CLR,,,,,,,,VFR,,,,,,,,,,,,SPECI,176.0
KCWV 311535Z AUTO 23004KT 7SM SCT006 SCT013 23/21 A3005 RMK AO2 T02340207,KCWV,2022-10-31T15:35:00Z,32.2,-81.87,23.4,20.7,230,4,,7.0,30.050198,,,TRUE,TRUE,,,,,,,SCT,600,SCT,1300,,,,,VFR,,,,,,,,,,,,METAR,32.0
KCUH 311535Z AUTO 26003KT 10SM CLR 15/12 A3003 RMK AO2 T01540115,KCUH,2022-10-31T15:35:00Z,35.95,-96.77,15.4,11.5,260,3,,10.0,30.029528,,,TRUE,TRUE,,,,,,,CLR,,,,,,,,VFR,,,,,,,,,,,,METAR,274.0
KCTY 311535Z AUTO 16006KT 10SM CLR 27/21 A3003 RMK AO2 T02680206,KCTY,2022-10-31T15:35:00Z,29.63,-83.1,26.8,20.6,160,6,,10.0,30.029528,,,TRUE,TRUE,,,,,,,CLR,,,,,,,,VFR,,,,,,,,,,,,SPECI,12.0
KCTJ 311535Z AUTO 00000KT 10SM SCT009 BKN014 OVC030 17/15 A3008 RMK AO2 T01690153,KCTJ,2022-10-31T15:35:00Z,33.63,-85.15,16.9,15.3,0,0,,10.0,30.079725,,,TRUE,TRUE,,,,,,,SCT,900,BKN,1400,OVC,3000,,,MVFR,,,,,,,,,,,,METAR,351.0
KCQF 311535Z AUTO 20003KT 10SM CLR 20/13 A3007 RMK AO2,KCQF,2022-10-31T15:35:00Z,30.47,-87.88,20.0,13.0,200,3,,10.0,30.070866,,,TRUE,TRUE,,,,,,,CLR,,,,,,,,VFR,,,,,,,,,,,,METAR,21.0
KCQB 311535Z AUTO 31004KT 10SM CLR 17/04 A3005 RMK AO2 T01690042,KCQB,2022-10-31T15:35:00Z,35.72,-96.82,16.9,4.2,310,4,,10.0,30.050198,,,TRUE,TRUE,,,,,,,CLR,,,,,,,,VFR,,,,,,,,,,,,METAR,298.0
KCPW 311535Z AUTO 27007KT 10SM CLR M02/M11 A3034 RMK AO2,KCPW,2022-10-31T15:35:00Z,37.45,-106.8,-2.0,-11.0,270,7,,10.0,30.339567,,,TRUE,TRUE,,,,,,,CLR,,,,,,,,VFR,,,,,,,,,,,,SPECI,3570.0
KCPU 311535Z AUTO 00000KT 10SM CLR 10/01 A3000 RMK AO2 T01010006,KCPU,2022-10-31T15:35:00Z,38.15,-120.65,10.1,0.6,0,0,,10.0,30.0,,,TRUE,TRUE,,,,,,,CLR,,,,,,,,VFR,,,,,,,,,,,,METAR,400.0
KCPC 311535Z AUTO 10005KT 10SM CLR 24/18 A3009 RMK AO2 T02350180,KCPC,2022-10-31T15:35:00Z,34.28,-78.72,23.5,18.0,100,5,,10.0,30.088583,,,TRUE,TRUE,,,,,,,CLR,,,,,,,,VFR,,,,,,,,,,,,METAR,27.0
KCOM 311535Z AUTO 00000KT CLR 18/10 A3008 RMK AO2 T01750098 PWINO,KCOM,2022-10-31T15:35:00Z,31.83,-99.4,17.5,9.8,0,0,,,30.079725,,,TRUE,TRUE,,,,,TRUE,,CLR,,,,,,,,,,,,,,,,,,,,SPECI,516.0
KCNI 311535Z AUTO 15004KT 10SM OVC003 15/14 A3005 RMK AO2 T01460144,KCNI,2022-10-31T15:35:00Z,34.32,-84.42,14.6,14.4,150,4,,10.0,30.050198,,,TRUE,TRUE,,,,,,,OVC,300,,,,,,,LIFR,,,,,,,,,,,,METAR,371.0
KCNC 311535Z AUTO 30005KT 10SM CLR 12/07 A2993 RMK AO2,KCNC,2022-10-31T15:35:00Z,41.02,-93.37,12.0,7.0,300,5,,10.0,29.929134,,,TRUE,TRUE,,,,,,,CLR,,,,,,,,VFR,,,,,,,,,,,,SPECI,319.0
KCMD 311535Z AUTO 20007KT 9SM OVC055 17/16 A3004 RMK AO2,KCMD,2022-10-31T15:35:00Z,34.27,-86.85,17.0,16.0,200,7,,9.0,30.041338,,,TRUE,TRUE,,,,,,,OVC,5500,,,,,,,VFR,,,,,,,,,,,,METAR,294.0
KCKP 311535Z AUTO 00000KT 10SM CLR 07/00 A2994 RMK AO2 T00660003,KCKP,2022-10-31T15:35:00Z,42.73,-95.55,6.6,0.3,0,0,,10.0,29.940945,,,TRUE,TRUE,,,,,,,CLR,,,,,,,,VFR,,,,,,,,,,,,METAR,369.0
KCKN 311535Z 19009KT 10SM 07/M02 A2974 RMK AO2,KCKN,2022-10-31T15:35:00Z,47.85,-96.62,7.0,-2.0,190,9,,10.0,29.740158,,,,TRUE,,,,,,,,,,,,,,,,,,,,,,,,,,,SPECI,272.0
KCKF 311535Z AUTO 20006KT 7SM BKN006 OVC012 21/20 A3005 RMK AO2 T02140195,KCKF,2022-10-31T15:35:00Z,31.98,-83.77,21.4,19.5,200,6,,7.0,30.050198,,,TRUE,TRUE,,,,,,,BKN,600,OVC,1200,,,,,IFR,,,,,,,,,,,,METAR,92.0
KCIN 311535Z AUTO 29004KT 10SM CLR 12/05 A2993 RMK AO2,KCIN,2022-10-31T15:35:00Z,42.03,-94.78,12.0,5.0,290,4,,10.0,29.929134,,,TRUE,TRUE,,,,,,,CLR,,,,,,,,VFR,,,,,,,,,,,,SPECI,365.0
KCGS 311535Z AUTO 21003KT 10SM -RA BKN024 BKN029 OVC049 16/13 A3008 RMK AO2 T01550132,KCGS,2022-10-31T15:35:00Z,38.98,-76.92,15.5,13.2,210,3,,10.0,30.079725,,,TRUE,TRUE,,,,,,-RA,BKN,2400,BKN,2900,OVC,4900,,,MVFR,,,,,,,,,,,,SPECI,15.0
KCGE 311535Z AUTO VRB07G12KT 10SM SCT060 BKN070 19/14 A3010 RMK A01,KCGE,2022-10-31T15:35:00Z,38.53,-76.03,19.0,14.0,0,7,12,10.0,30.100393,,,TRUE,TRUE,,,,,,,SCT,6000,BKN,7000,,,,,VFR,,,,,,,,,,,,SPECI,5.0
KCFS 311535Z AUTO 00000KT 4SM BR SCT002 BKN010 OVC075 12/11 A2985 RMK AO2 T01170105,KCFS,2022-10-31T15:35:00Z,43.47,-83.45,11.7,10.5,0,0,,4.0,29.84941,,,TRUE,TRUE,,,,,,BR,SCT,200,BKN,1000,OVC,7500,,,MVFR,,,,,,,,,,,,SPECI,214.0
KCFD 311535Z AUTO 30003KT 10SM CLR 18/14 A3009 RMK AO2 T01830136,KCFD,2022-10-31T15:35:00Z,30.72,-96.33,18.3,13.6,300,3,,10.0,30.088583,,,TRUE,TRUE,,,,,,,CLR,,,,,,,,VFR,,,,,,,,,,,,SPECI,106.0
KCDD 311535Z AUTO 19005KT 10SM CLR 09/M02 A2976 RMK AO2,KCDD,2022-10-31T15:35:00Z,48.27,-92.48,9.0,-2.0,190,5,,10.0,29.760826,,,TRUE,TRUE,,,,,,,CLR,,,,,,,,VFR,,,,,,,,,,,,SPECI,344.0
KCCU 311535Z AUTO 00000KT 10SM CLR M01/M21 A3028 RMK AO2,KCCU,2022-10-31T15:35:00Z,39.48,-106.15,-1.0,-21.0,0,0,,10.0,30.280512,,,TRUE,TRUE,,,,,,,CLR,,,,,,,,VFR,,,,,,,,,,,,SPECI,3672.0
KCCO 311535Z AUTO 00000KT 10SM SCT014 SCT024 BKN050 20/16 A3003 RMK AO2 T01980162,KCCO,2022-10-31T15:35:00Z,33.32,-84.77,19.8,16.2,0,0,,10.0,30.029528,,,TRUE,TRUE,,,,,,,SCT,1400,SCT,2400,BKN,5000,,,VFR,,,,,,,,,,,,METAR,290.0
KCBK 311535Z AUTO 25009KT 10SM CLR 14/M04 A3002 RMK AO2 T01361039,KCBK,2022-10-31T15:35:00Z,39.43,-101.05,13.6,-3.9,250,9,,10.0,30.02067,,,TRUE,TRUE,,,,,,,CLR,,,,,,,,VFR,,,,,,,,,,,,METAR,970.0
KCBE 311535Z AUTO 00000KT 10SM -RA SCT017 BKN070 OVC085 09/07 A3009 RMK AO2 T00860068,KCBE,2022-10-31T15:35:00Z,39.62,-78.77,8.6,6.8,0,0,,10.0,30.088583,,,TRUE,TRUE,,,,,,-RA,SCT,1700,BKN,7000,OVC,8500,,,VFR,,,,,,,,,,,,METAR,226.0
KCAV 311535Z AUTO 00000KT 10SM CLR 09/04 A2992 RMK A01,KCAV,2022-10-31T15:35:00Z,42.75,-93.77,9.0,4.0,0,0,,10.0,29.920275,,,TRUE,TRUE,,,,,,,CLR,,,,,,,,VFR,,,,,,,,,,,,SPECI,352.0
KC75 311535Z AUTO 33004KT 2 1/2SM OVC005 12/12 A2985 RMK AO2 T01230123 PWINO,KC75,2022-10-31T15:35:00Z,41.02,-89.38,12.3,12.3,330,4,,2.5,29.84941,,,TRUE,TRUE,,,,,TRUE,,OVC,500,,,,,,,IFR,,,,,,,,,,,,SPECI,166.0
KC65 311535Z AUTO VRB05KT 2SM BR 15/15 A2982 RMK A01,KC65,2022-10-31T15:35:00Z,41.37,-86.3,15.0,15.0,0,5,,2.0,29.819881,,,TRUE,TRUE,,,,,,BR,,,,,,,,,,,,,,,,,,,,,SPECI,241.0
KC35 311535Z AUTO 00000KT 10SM CLR 09/05 A2987 RMK AO2 T00940053 PWINO,KC35,2022-10-31T15:35:00Z,43.53,-89.98,9.4,5.3,0,0,,10.0,29.870079,,,TRUE,TRUE,,,,,TRUE,,CLR,,,,,,,,VFR,,,,,,,,,,,,SPECI,272.0
KBYY 311535Z AUTO 00000KT 10SM CLR 22/14 A3007 RMK AO2 T02190145,KBYY,2022-10-31T15:35:00Z,28.97,-95.87,21.9,14.5,0,0,,10.0,30.070866,,,TRUE,TRUE,,,,,,,CLR,,,,,,,,VFR,,,,,,,,,,,,SPECI,12.0
KBYL 311535Z AUTO 00000KT 10SM FEW018 SCT023 OVC037 16/15 A2999 RMK AO1,KBYL,2022-10-31T15:35:00Z,36.8,-84.2,16.0,15.0,0,0,,10.0,29.991142,,,TRUE,TRUE,,,,,,,FEW,1800,SCT,2300,OVC,3700,,,VFR,,,,,,,,,,,,METAR,355.0
KBVS 311535Z AUTO 11006KT 10SM BKN012 BKN020 OVC070 11/11 A2974 RMK A01,KBVS,2022-10-31T15:35:00Z,48.47,-122.42,11.0,11.0,110,6,,10.0,29.740158,,,TRUE,TRUE,,,,,,,BKN,1200,BKN,2000,OVC,7000,,,MVFR,,,,,,,,,,,,SPECI,31.0
KBVN 311535Z AUTO 13003KT 10SM CLR 08/02 A2993 RMK AO2 T00840023,KBVN,2022-10-31T15:35:00Z,41.73,-98.05,8.4,2.3,130,3,,10.0,29.929134,,,TRUE,TRUE,,,,,,,CLR,,,,,,,,VFR,,,,,,,,,,,,SPECI,547.0
KBUU 311535Z AUTO 36004KT 10SM OVC026 13/11 A2985 RMK AO2 T01270107 PWINO,KBUU,2022-10-31T15:35:00Z,42.68,-88.3,12.7,10.7,360,4,,10.0,29.84941,,,TRUE,TRUE,,,,,TRUE,,OVC,2600,,,,,,,MVFR,,,,,,,,,,,,METAR,238.0
KBQX 311535Z AUTO 08007KT 040V110 10SM CLR 23/15 A3007 RMK A01,KBQX,2022-10-31T15:35:00Z,28.5,-95.72,23.0,15.0,80,7,,10.0,30.070866,,,TRUE,TRUE,,,,,,,CLR,,,,,,,,VFR,,,,,,,,,,,,SPECI,34.0
KBQP 311535Z AUTO 24006KT 10SM CLR 20/13 A3005 RMK AO2 T01990134,KBQP,2022-10-31T15:35:00Z,32.75,-91.88,19.9,13.4,240,6,,10.0,30.050198,,,TRUE,TRUE,,,,,,,CLR,,,,,,,,VFR,,,,,,,,,,,,METAR,50.0
KBQK 311535Z AUTO 14010KT 10SM SCT024 27/20 A3004 RMK AO2 T02710196,KBQK,2022-10-31T15:35:00Z,31.25,-81.47,27.1,19.6,140,10,,10.0,30.041338,,,TRUE,TRUE,,,,,,,SCT,2400,,,,,,,VFR,,,,,,,,,,,,METAR,7.0
KBPG 311535Z AUTO 00000KT 10SM CLR 16/08 A3009 RMK AO2 T01570077,KBPG,2022-10-31T15:35:00Z,32.22,-101.52,15.7,7.7,0,0,,10.0,30.088583,,,TRUE,TRUE,,,,,,,CLR,,,,,,,,VFR,,,,,,,,,,,,SPECI,782.0
KBMT 311535Z AUTO 00000KT 10SM CLR 20/14 A3007 RMK AO2 T02020137,KBMT,2022-10-31T15:35:00Z,30.07,-94.22,20.2,13.7,0,0,,10.0,30.070866,,,TRUE,TRUE,,,,,,,CLR,,,,,,,,VFR,,,,,,,,,,,,SPECI,8.0
KBKX 311535Z AUTO 16007KT 3SM HZ 08/01 A2987 RMK AO2 RAB1457RAEMM P0000 $,KBKX,2022-10-31T15:35:00Z,44.3,-96.82,8.0,1.0,160,7,,3.0,29.870079,,,TRUE,TRUE,TRUE,,,,,HZ,,,,,,,,,,,,,,,0.005,,,,,,SPECI,494.0
KBJI 311535Z AUTO 00000KT 10SM CLR 08/01 A2976 RMK AO2 T00830005,KBJI,2022-10-31T15:35:00Z,47.5,-94.92,8.3,0.5,0,0,,10.0,29.760826,,,TRUE,TRUE,,,,,,,CLR,,,,,,,,VFR,,,,,,,,,,,,METAR,422.0
KBIJ 311535Z AUTO 00000KT 10SM OVC035 21/15 A3004 RMK AO2,KBIJ,2022-10-31T15:35:00Z,31.4,-84.9,21.0,15.0,0,0,,10.0,30.041338,,,TRUE,TRUE,,,,,,,OVC,3500,,,,,,,VFR,,,,,,,,,,,,METAR,63.0
KBIE 311535Z AUTO 29004KT 10SM CLR 10/03 A2999 RMK AO2 T01000033,KBIE,2022-10-31T15:35:00Z,40.28,-96.75,10.0,3.3,290,4,,10.0,29.991142,,,TRUE,TRUE,,,,,,,CLR,,,,,,,,VFR,,,,,,,,,,,,SPECI,398.0
KBHC 311535Z AUTO 18007KT 10SM BKN015 OVC020 25/20 A3004 RMK AO2,KBHC,2022-10-31T15:35:00Z,31.72,-82.4,25.0,20.0,180,7,,10.0,30.041338,,,TRUE,TRUE,,,,,,,BKN,1500,OVC,2000,,,,,MVFR,,,,,,,,,,,,METAR,61.0
KBGE 311535Z AUTO 26005KT 10SM SCT023 BKN038 OVC060 24/18 A3004 RMK AO2 T02360176,KBGE,2022-10-31T15:35:00Z,30.97,-84.63,23.6,17.6,260,5,,10.0,30.041338,,,TRUE,TRUE,,,,,,,SCT,2300,BKN,3800,OVC,6000,,,VFR,,,,,,,,,,,,METAR,40.0
KBEC 311535Z AUTO 30005KT 10SM CLR 13/01 A3002 RMK AO2 T01270011,KBEC,2022-10-31T15:35:00Z,37.7,-97.22,12.7,1.1,300,5,,10.0,30.02067,,,TRUE,TRUE,,,,,,,CLR,,,,,,,,VFR,,,,,,,,,,,,METAR,421.0
KBDG 311535Z AUTO 00000KT 10SM 07/M06 A3024 RMK AO1 T00671059,KBDG,2022-10-31T15:35:00Z,37.58,-109.47,6.7,-5.9,0,0,,10.0,30.239174,,,TRUE,TRUE,,,,,,,,,,,,,,,,,,,,,,,,,,,SPECI,1778.0
KBBP 311535Z AUTO 13006KT 10SM CLR 21/17 A3006 RMK AO2,KBBP,2022-10-31T15:35:00Z,34.62,-79.73,21.0,17.0,130,6,,10.0,30.059055,,,TRUE,TRUE,,,,,,,CLR,,,,,,,,VFR,,,,,,,,,,,,METAR,44.0
KBBD 311535Z AUTO 00000KT 10SM CLR 16/10 A3009 RMK AO2,KBBD,2022-10-31T15:35:00Z,31.18,-99.32,16.0,10.0,0,0,,10.0,30.088583,,,TRUE,TRUE,,,,,,,CLR,,,,,,,,VFR,,,,,,,,,,,,SPECI,554.0
KBAX 311535Z AUTO 15003KT 10SM SCT005 SCT021 OVC040 A2985 RMK AO2,KBAX,2022-10-31T15:35:00Z,43.78,-82.98,,,150,3,,10.0,29.84941,,,TRUE,TRUE,,,,,,,SCT,500,SCT,2100,OVC,4000,,,VFR,,,,,,,,,,,,SPECI,229.0
KAZE 311535Z AUTO 19004KT 10SM OVC011 23/21 A3003 RMK AO2 T02330205,KAZE,2022-10-31T15:35:00Z,31.88,-82.65,23.3,20.5,190,4,,10.0,30.029528,,,TRUE,TRUE,,,,,,,OVC,1100,,,,,,,MVFR,,,,,,,,,,,,METAR,78.0
KAYS 311535Z AUTO 19007KT 10SM SCT020 27/24 A3003 RMK AO2 T02670239,KAYS,2022-10-31T15:35:00Z,31.25,-82.4,26.7,23.9,190,7,,10.0,30.029528,,,TRUE,TRUE,,,,,,,SCT,2000,,,,,,,VFR,,,,,,,,,,,,SPECI,42.0
KAXX 311535Z AUTO 00000KT 10SM CLR 00/M03 A3022 RMK AO2 T10051030,KAXX,2022-10-31T15:35:00Z,36.42,-105.28,-0.5,-3.0,0,0,,10.0,30.221457,,,TRUE,TRUE,,,,,,,CLR,,,,,,,,VFR,,,,,,,,,,,,SPECI,2543.0
KAXA 311535Z AUTO 00000KT 10SM CLR 10/04 A2991 RMK A01,KAXA,2022-10-31T15:35:00Z,43.07,-94.27,10.0,4.0,0,0,,10.0,29.911417,,,TRUE,TRUE,,,,,,,CLR,,,,,,,,VFR,,,,,,,,,,,,SPECI,371.0
KAWG 311535Z AUTO 00000KT 9SM CLR 13/08 A2989 RMK AO2,KAWG,2022-10-31T15:35:00Z,41.27,-91.67,13.0,8.0,0,0,,9.0,29.890747,,,TRUE,TRUE,,,,,,,CLR,,,,,,,,VFR,,,,,,,,,,,,SPECI,229.0
KAVQ 311535Z AUTO 13007KT 10SM CLR 14/M02 A2999 RMK AO2 T01361021,KAVQ,2022-10-31T15:35:00Z,32.4,-111.22,13.6,-2.1,130,7,,10.0,29.991142,,,TRUE,TRUE,,,,,,,CLR,,,,,,,,VFR,,,,,,,,,,,,SPECI,618.0
KAUN 311535Z AUTO 09007KT 10SM CLR 14/M01 A3001 RMK A01,KAUN,2022-10-31T15:35:00Z,38.95,-121.08,14.0,-1.0,90,7,,10.0,30.008858,,,TRUE,TRUE,,,,,,,CLR,,,,,,,,VFR,,,,,,,,,,,,SPECI,453.0
KAUH 311535Z AUTO 23004KT 10SM CLR 11/02 A2996 RMK AO2 T01130023,KAUH,2022-10-31T15:35:00Z,40.88,-98.0,11.3,2.3,230,4,,10.0,29.958662,,,TRUE,TRUE,,,,,,,CLR,,,,,,,,VFR,,,,,,,,,,,,SPECI,549.0
KATP 311535Z AUTO 36009G14KT 10SM FEW085 24/17 A3005 RMK A01,KATP,2022-10-31T15:35:00Z,27.2,-90.03,24.0,17.0,360,9,14,10.0,30.050198,,,TRUE,TRUE,,,,,,,FEW,8500,,,,,,,VFR,,,,,,,,,,,,METAR,50.0
KASW 311535Z AUTO 00000KT 10SM BKN006 OVC011 14/14 A2984 RMK AO2 P0003 T01450145,KASW,2022-10-31T15:35:00Z,41.27,-85.83,14.5,14.5,0,0,,10.0,29.840551,,,TRUE,TRUE,,,,,,,BKN,600,OVC,1100,,,,,IFR,,,,,,0.03,,,,,,SPECI,253.0
KASL 311535Z AUTO 00000KT 10SM CLR 17/15 A3005 RMK AO2 T01700146 TSNO $,KASL,2022-10-31T15:35:00Z,32.52,-94.3,17.0,14.6,0,0,,10.0,30.050198,,,TRUE,TRUE,TRUE,,TRUE,,,,CLR,,,,,,,,VFR,,,,,,,,,,,,SPECI,104.0
KAQO 311535Z AUTO 00000KT 10SM CLR 17/11 A3008 RMK AO2,KAQO,2022-10-31T15:35:00Z,30.78,-98.67,17.0,11.0,0,0,,10.0,30.079725,,,TRUE,TRUE,,,,,,,CLR,,,,,,,,VFR,,,,,,,,,,,,SPECI,334.0
KAJZ 311535Z AUTO 00000KT 10SM CLR 02/M02 A3022 RMK AO2 T00241022,KAJZ,2022-10-31T15:35:00Z,38.78,-108.07,2.4,-2.2,0,0,,10.0,30.221457,,,TRUE,TRUE,,,,,,,CLR,,,,,,,,VFR,,,,,,,,,,,,SPECI,1583.0
KAJR 311535Z AUTO 05003KT 7SM OVC004 15/15 A3005 RMK AO2 T01520152,KAJR,2022-10-31T15:35:00Z,34.5,-83.55,15.2,15.2,50,3,,7.0,30.050198,,,TRUE,TRUE,,,,,,,OVC,400,,,,,,,LIFR,,,,,,,,,,,,METAR,441.0
KAJG 311535Z AUTO 25008KT 10SM OVC023 16/14 A2989 RMK AO2 T01550141,KAJG,2022-10-31T15:35:00Z,38.62,-87.73,15.5,14.1,250,8,,10.0,29.890747,,,TRUE,TRUE,,,,,,,OVC,2300,,,,,,,MVFR,,,,,,,,,,,,SPECI,130.0
KAIO 311535Z AUTO 00000KT 9SM CLR 10/08 A2994 RMK AO2,KAIO,2022-10-31T15:35:00Z,41.4,-95.03,10.0,8.0,0,0,,9.0,29.940945,,,TRUE,TRUE,,,,,,,CLR,,,,,,,,VFR,,,,,,,,,,,,SPECI,349.0
KAHQ 311535Z AUTO 00000KT 10SM CLR 11/01 A2996 RMK AO2 T01120010,KAHQ,2022-10-31T15:35:00Z,41.23,-96.6,11.2,1.0,0,0,,10.0,29.958662,,,TRUE,TRUE,,,,,,,CLR,,,,,,,,VFR,,,,,,,,,,,,SPECI,372.0
KAFO 311535Z AUTO 00000KT 10SM CLR M01/M03 A3017 RMK AO2,KAFO,2022-10-31T15:35:00Z,42.72,-110.95,-1.0,-3.0,0,0,,10.0,30.171259,,,TRUE,TRUE,,,,,,,CLR,,,,,,,,VFR,,,,,,,,,,,,SPECI,1881.0
KAFK 311535Z AUTO 00000KT 10SM CLR 11/02 A2997 RMK AO2 T01120020,KAFK,2022-10-31T15:35:00Z,40.6,-95.85,11.2,2.0,0,0,,10.0,29.970472,,,TRUE,TRUE,,,,,,,CLR,,,,,,,,VFR,,,,,,,,,,,,SPECI,353.0
KADU 311535Z AUTO 31003KT 10SM SCT041 SCT060 SCT100 12/03 A2994 RMK AO2,KADU,2022-10-31T15:35:00Z,41.7,-94.92,12.0,3.0,310,3,,10.0,29.940945,,,TRUE,TRUE,,,,,,,SCT,4100,SCT,6000,SCT,10000,,,VFR,,,,,,,,,,,,SPECI,391.0
KADT 311535Z AUTO 23006KT 10SM CLR 10/M05 A3005 RMK AO2 T01021048,KADT,2022-10-31T15:35:00Z,39.83,-101.05,10.2,-4.8,230,6,,10.0,30.050198,,,TRUE,TRUE,,,,,,,CLR,,,,,,,,VFR,,,,,,,,,,,,METAR,899.0
KADH 311535Z AUTO 35003KT 10SM CLR 15/06 A3007 RMK AO2,KADH,2022-10-31T15:35:00Z,34.8,-96.67,15.0,6.0,350,3,,10.0,30.070866,,,TRUE,TRUE,,,,,,,CLR,,,,,,,,VFR,,,,,,,,,,,,METAR,301.0
KAAA 311535Z AUTO 00000KT 4SM RA OVC002 13/13 A2986 RMK AO2 T01320132,KAAA,2022-10-31T15:35:00Z,40.17,-89.33,13.2,13.2,0,0,,4.0,29.861221,,,TRUE,TRUE,,,,,,RA,OVC,200,,,,,,,LIFR,,,,,,,,,,,,SPECI,179.0
K9V9 311535Z AUTO 25004KT 10SM CLR 07/M02 A2987 RMK AO2 T00741016,K9V9,2022-10-31T15:35:00Z,43.77,-99.32,7.4,-1.6,250,4,,10.0,29.870079,,,TRUE,TRUE,,,,,,,CLR,,,,,,,,VFR,,,,,,,,,,,,METAR,511.0
K9A5 311535Z AUTO 24004KT 10SM SCT006 SCT041 OVC050 16/16 A3004 RMK AO2 T01600160,K9A5,2022-10-31T15:35:00Z,34.68,-85.28,16.0,16.0,240,4,,10.0,30.041338,,,TRUE,TRUE,,,,,,,SCT,600,SCT,4100,OVC,5000,,,VFR,,,,,,,,,,,,METAR,234.0
K8T6 311535Z AUTO 00000KT 10SM CLR 22/17 A3004 RMK AO2,K8T6,2022-10-31T15:35:00Z,28.37,-98.12,22.0,17.0,0,0,,10.0,30.041338,,,TRUE,TRUE,,,,,,,CLR,,,,,,,,VFR,,,,,,,,,,,,METAR,39.0
K8A0 311535Z AUTO 23004KT 10SM SCT011 OVC046 16/13 A3004 RMK AO2,K8A0,2022-10-31T15:35:00Z,34.23,-86.25,16.0,13.0,230,4,,10.0,30.041338,,,TRUE,TRUE,,,,,,,SCT,1100,OVC,4600,,,,,VFR,,,,,,,,,,,,METAR,313.0
K81R 311535Z AUTO 00000KT 10SM CLR 15/12 A3010 RMK AO2 T01520123,K81R,2022-10-31T15:35:00Z,31.23,-98.72,15.2,12.3,0,0,,10.0,30.100393,,,TRUE,TRUE,,,,,,,CLR,,,,,,,,VFR,,,,,,,,,,,,SPECI,381.0
K7BM 311535Z AUTO 00000KT 10SM CLR 03/M16 A3021 RMK AO2,K7BM,2022-10-31T15:35:00Z,38.78,-106.22,3.0,-16.0,0,0,,10.0,30.209646,,,TRUE,TRUE,,,,,,,CLR,,,,,,,,VFR,,,,,,,,,,,,SPECI,2996.0
K74V 311535Z AUTO 00000KT 10SM 03/M05 A3022 RMK AO2,K74V,2022-10-31T15:35:00Z,40.28,-110.05,3.0,-5.0,0,0,,10.0,30.221457,,,TRUE,TRUE,,,,,,,,,,,,,,,,,,,,,,,,,,,SPECI,1567.0
K6S0 311535Z AUTO 27013KT 10SM BKN075 09/M02 A2988 RMK A01,K6S0,2022-10-31T15:35:00Z,45.8,-109.97,9.0,-2.0,270,13,,10.0,29.878937,,,TRUE,TRUE,,,,,,,BKN,7500,,,,,,,VFR,,,,,,,,,,,,METAR,1364.0
K6P9 311535Z AUTO 00000KT 10SM CLR 20/09 A3008 RMK AO2 T02010089,K6P9,2022-10-31T15:35:00Z,32.43,-98.6,20.1,8.9,0,0,,10.0,30.079725,,,TRUE,TRUE,,,,,,,CLR,,,,,,,,VFR,,,,,,,,,,,,SPECI,451.0
K6I2 311535Z AUTO 20006KT 10SM BKN017 OVC055 16/15 A2996 RMK AO2,K6I2,2022-10-31T15:35:00Z,37.63,-85.25,16.0,15.0,200,6,,10.0,29.958662,,,TRUE,TRUE,,,,,,,BKN,1700,OVC,5500,,,,,MVFR,,,,,,,,,,,,METAR,258.0
K6A1 311535Z AUTO 24006KT 10SM BKN012 BKN020 OVC028 21/19 A3004 RMK AO2 T02100185,K6A1,2022-10-31T15:35:00Z,32.57,-84.25,21.0,18.5,240,6,,10.0,30.041338,,,TRUE,TRUE,,,,,,,BKN,1200,BKN,2000,OVC,2800,,,MVFR,,,,,,,,,,,,METAR,198.0
K66R 311535Z AUTO 00000KT 10SM CLR 20/15 A3009 RMK AO2 T01980147,K66R,2022-10-31T15:35:00Z,29.65,-96.52,19.8,14.7,0,0,,10.0,30.088583,,,TRUE,TRUE,,,,,,,CLR,,,,,,,,VFR,,,,,,,,,,,,SPECI,70.0
K63S 311535Z AUTO 00000KT 10SM FEW015 OVC028 08/07 A2976 RMK A01,K63S,2022-10-31T15:35:00Z,48.53,-117.88,8.0,7.0,0,0,,10.0,29.760826,,,TRUE,TRUE,,,,,,,FEW,1500,OVC,2800,,,,,MVFR,,,,,,,,,,,,METAR,571.0
K5SM 311535Z AUTO 00000KT 10SM CLR M02/M11 A3030 RMK AO2,K5SM,2022-10-31T15:35:00Z,39.43,-107.38,-2.0,-11.0,0,0,,10.0,30.301182,,,TRUE,TRUE,,,,,,,CLR,,,,,,,,VFR,,,,,,,,,,,,SPECI,3229.0
K5R8 311535Z AUTO 00000KT 10SM CLR 17/16 A3009 RMK AO2 T01680155,K5R8,2022-10-31T15:35:00Z,30.43,-93.47,16.8,15.5,0,0,,10.0,30.088583,,,TRUE,TRUE,,,,,,,CLR,,,,,,,,VFR,,,,,,,,,,,,METAR,26.0
K5M9 311535Z AUTO 21003KT 10SM BKN009 OVC014 16/14 A2992 RMK AO2 T01600138,K5M9,2022-10-31T15:35:00Z,37.33,-88.12,16.0,13.8,210,3,,10.0,29.920275,,,TRUE,TRUE,,,,,,,BKN,900,OVC,1400,,,,,IFR,,,,,,,,,,,,METAR,199.0
K5C1 311535Z AUTO 18003KT 10SM CLR 18/12 A3008 RMK AO1,K5C1,2022-10-31T15:35:00Z,29.72,-98.7,18.0,12.0,180,3,,10.0,30.079725,,,TRUE,TRUE,,,,,,,CLR,,,,,,,,VFR,,,,,,,,,,,,SPECI,422.0
K57C 311535Z AUTO 32004KT 10SM OVC028 12/10 A2985 RMK AO2 T01160101,K57C,2022-10-31T15:35:00Z,42.8,-88.37,11.6,10.1,320,4,,10.0,29.84941,,,TRUE,TRUE,,,,,,,OVC,2800,,,,,,,MVFR,,,,,,,,,,,,SPECI,454.0
K4S1 311535Z AUTO 00000KT 1/2SM -RA OVC001 10/09 A3003 RMK AO2,K4S1,2022-10-31T15:35:00Z,42.42,-124.42,10.0,9.0,0,0,,0.5,30.029528,,,TRUE,TRUE,,,,,,-RA,OVC,100,,,,,,,LIFR,,,,,,,,,,,,METAR,7.0
K4O4 311535Z AUTO VRB03KT 1/4SM UP FG BKN003 14/14 A3006 RMK AO2,K4O4,2022-10-31T15:35:00Z,33.92,-94.87,14.0,14.0,0,3,,0.25,30.059055,,,TRUE,TRUE,,,,,,FG UP,BKN,300,,,,,,,LIFR,,,,,,,,,,,,METAR,148.0
K4F2 311535Z AUTO 10SM CLR 19/14 A3006 RMK AO2 T01860137,K4F2,2022-10-31T15:35:00Z,32.18,-94.3,18.6,13.7,,,,10.0,30.059055,,,TRUE,TRUE,,,,,,,CLR,,,,,,,,VFR,,,,,,,,,,,,METAR,76.0
K4A9 311535Z AUTO 22005KT 10SM 17/14 A3002 RMK AO2 T01750143,K4A9,2022-10-31T15:35:00Z,34.47,-85.72,17.5,14.3,220,5,,10.0,30.02067,,,TRUE,TRUE,,,,,,,,,,,,,,,,,,,,,,,,,,,METAR,273.0
K49A 311535Z AUTO 21006KT 10SM OVC011 17/15 A3006 RMK AO2 T01710150,K49A,2022-10-31T15:35:00Z,34.63,-84.53,17.1,15.0,210,6,,10.0,30.059055,,,TRUE,TRUE,,,,,,,OVC,1100,,,,,,,MVFR,,,,,,,,,,,,METAR,449.0
K48A 311535Z AUTO 17006KT 10SM OVC005 21/20 A3004 RMK AO2 T02130204,K48A,2022-10-31T15:35:00Z,32.4,-83.27,21.3,20.4,170,6,,10.0,30.041338,,,TRUE,TRUE,,,,,,,OVC,500,,,,,,,IFR,,,,,,,,,,,,SPECI,115.0
K41U 311535Z AUTO 00000KT 10SM CLR M03/M05 A3022 RMK AO1 T10291047,K41U,2022-10-31T15:35:00Z,39.33,-111.6,-2.9,-4.7,0,0,,10.0,30.221457,,,TRUE,TRUE,,,,,,,CLR,,,,,,,,VFR,,,,,,,,,,,,METAR,1676.0
K40U 311535Z AUTO 04003KT 10SM CLR 01/M06 A3018 RMK AO2 T00111059,K40U,2022-10-31T15:35:00Z,40.98,-109.68,1.1,-5.9,40,3,,10.0,30.180119,,,TRUE,TRUE,,,,,,,CLR,,,,,,,,VFR,,,,,,,,,,,,METAR,1882.0
K3K3 311535Z AUTO 28008KT 10SM CLR 07/M06 A3004 RMK AO2,K3K3,2022-10-31T15:35:00Z,38.0,-101.75,7.0,-6.0,280,8,,10.0,30.041338,,,TRUE,TRUE,,,,,,,CLR,,,,,,,,VFR,,,,,,,,,,,,METAR,1010.0
K3F3 311535Z AUTO 20003KT 10SM CLR 19/15 A3010 RMK AO2 T01890153,K3F3,2022-10-31T15:35:00Z,32.07,-93.77,18.9,15.3,200,3,,10.0,30.100393,,,TRUE,TRUE,,,,,,,CLR,,,,,,,,VFR,,,,,,,,,,,,METAR,96.0
K33V 311535Z AUTO 18008KT 10SM CLR 00/M05 A3019 RMK AO1,K33V,2022-10-31T15:35:00Z,40.75,-106.28,0.0,-5.0,180,8,,10.0,30.188976,,,TRUE,TRUE,,,,,,,CLR,,,,,,,,VFR,,,,,,,,,,,,SPECI,2486.0
K2V5 311535Z AUTO 30006KT 10SM CLR 10/M06 A3001 RMK AO2,K2V5,2022-10-31T15:35:00Z,40.1,-102.25,10.0,-6.0,300,6,,10.0,30.008858,,,TRUE,TRUE,,,,,,,CLR,,,,,,,,VFR,,,,,,,,,,,,SPECI,1117.0
K2R9 311535Z AUTO 00000KT 10SM CLR 20/16 A3007 RMK AO2 T01960158,K2R9,2022-10-31T15:35:00Z,28.82,-97.87,19.6,15.8,0,0,,10.0,30.070866,,,TRUE,TRUE,,,,,,,CLR,,,,,,,,VFR,,,,,,,,,,,,SPECI,88.0
K2J5 311535Z AUTO 16008KT 10SM OVC006 20/19 A3005 RMK AO2 T02020191,K2J5,2022-10-31T15:35:00Z,32.9,-81.97,20.2,19.1,160,8,,10.0,30.050198,,,TRUE,TRUE,,,,,,,OVC,600,,,,,,,IFR,,,,,,,,,,,,METAR,72.0
K2J3 311535Z AUTO 17004KT 7SM BR OVC004 20/20 A3005 RMK AO2 T02030197,K2J3,2022-10-31T15:35:00Z,32.98,-82.38,20.3,19.7,170,4,,7.0,30.050198,,,TRUE,TRUE,,,,,,BR,OVC,400,,,,,,,LIFR,,,,,,,,,,,,METAR,97.0
K2IS 311535Z AUTO 08009KT 10SM SCT019 BKN028 BKN035 28/23 A3000 RMK AO2 T02780230,K2IS,2022-10-31T15:35:00Z,26.73,-81.05,27.8,23.0,80,9,,10.0,30.0,,,TRUE,TRUE,,,,,,,SCT,1900,BKN,2800,BKN,3500,,,MVFR,,,,,,,,,,,,METAR,5.0
K2G9 311535Z AUTO 22007KT 10SM BKN012 BKN060 OVC085 14/13 A3000 RMK AO2 P0001,K2G9,2022-10-31T15:35:00Z,40.03,-79.02,14.0,13.0,220,7,,10.0,30.0,,,TRUE,TRUE,,,,,,,BKN,1200,BKN,6000,OVC,8500,,,MVFR,,,,,,0.01,,,,,,SPECI,677.0
K2G4 311535Z AUTO 21006KT 1 1/4SM BKN003 OVC006 12/12 A3003 RMK AO1,K2G4,2022-10-31T15:35:00Z,39.58,-79.33,12.0,12.0,210,6,,1.25,30.029528,,,TRUE,TRUE,,,,,,,BKN,300,OVC,600,,,,,LIFR,,,,,,,,,,,,SPECI,908.0
K20V 311535Z AUTO 00000KT 10SM CLR M03/M05 A3026 RMK AO2,K20V,2022-10-31T15:35:00Z,40.05,-106.37,-3.0,-5.0,0,0,,10.0,30.259842,,,TRUE,TRUE,,,,,,,CLR,,,,,,,,VFR,,,,,,,,,,,,SPECI,2259.0
K1U7 311535Z AUTO 10008KT 10SM CLR 01/01 A3016 RMK A01,K1U7,2022-10-31T15:35:00Z,42.25,-111.33,1.0,1.0,100,8,,10.0,30.159449,,,TRUE,TRUE,,,,,,,CLR,,,,,,,,VFR,,,,,,,,,,,,METAR,1808.0
K1R8 311535Z AUTO VRB05KT 10SM CLR 20/15 A3006 RMK AO2,K1R8,2022-10-31T15:35:00Z,30.87,-87.82,20.0,15.0,0,5,,10.0,30.059055,,,TRUE,TRUE,,,,,,,CLR,,,,,,,,VFR,,,,,,,,,,,,METAR,76.0
K1H2 311535Z AUTO 21006KT 10SM OVC012 13/12 A2990 RMK AO2 T01300121,K1H2,2022-10-31T15:35:00Z,39.07,-88.53,13.0,12.1,210,6,,10.0,29.899607,,,TRUE,TRUE,,,,,,,OVC,1200,,,,,,,MVFR,,,,,,,,,,,,SPECI,174.0
K1D1 311535Z AUTO 13004KT 10SM CLR 10/03 A2984 RMK AO2,K1D1,2022-10-31T15:35:00Z,45.23,-96.57,10.0,3.0,130,4,,10.0,29.840551,,,TRUE,TRUE,,,,,,,CLR,,,,,,,,VFR,,,,,,,,,,,,METAR,341.0
K1A6 311535Z AUTO 16006KT 10SM OVC008 16/15 A3001 RMK AO2 T01590151,K1A6,2022-10-31T15:35:00Z,36.62,-83.73,15.9,15.1,160,6,,10.0,30.008858,,,TRUE,TRUE,,,,,,,OVC,800,,,,,,,IFR,,,,,,,,,,,,METAR,348.0
K19S 311535Z AUTO 22005KT 7SM CLR 13/M01 A3004 RMK AO2 T01351015,K19S,2022-10-31T15:35:00Z,37.48,-100.83,13.5,-1.5,220,5,,7.0,30.041338,,,TRUE,TRUE,,,,,,,CLR,,,,,,,,VFR,,,,,,,,,,,,METAR,886.0
K18H 311535Z AUTO 05007KT 9SM BKN095 25/17 A3002 RMK A01,K18H,2022-10-31T15:35:00Z,26.13,-92.03,25.0,17.0,50,7,,9.0,30.02067,,,TRUE,TRUE,,,,,,,BKN,9500,,,,,,,VFR,,,,,,,,,,,,METAR,30.0
K18A 311535Z AUTO 03003KT 5SM BR OVC003 14/14 A3006 RMK AO2 T01430140,K18A,2022-10-31T15:35:00Z,34.35,-83.13,14.3,14.0,30,3,,5.0,30.059055,,,TRUE,TRUE,,,,,,BR,OVC,300,,,,,,,LIFR,,,,,,,,,,,,METAR,260.0
K17J 311535Z AUTO 34003KT 10SM OVC032 20/15 A3004 RMK AO2 T02040149,K17J,2022-10-31T15:35:00Z,31.0,-84.87,20.4,14.9,340,3,,10.0,30.041338,,,TRUE,TRUE,,,,,,,OVC,3200,,,,,,,VFR,,,,,,,,,,,,METAR,42.0
K13K 311535Z AUTO 28009KT 10SM CLR 14/05 A3001 RMK AO2 T01440049,K13K,2022-10-31T15:35:00Z,37.85,-96.3,14.4,4.9,280,9,,10.0,30.008858,,,TRUE,TRUE,,,,,,,CLR,,,,,,,,VFR,,,,,,,,,,,,METAR,367.0
K0R4 311535Z AUTO 27003KT 10SM CLR 21/14 A3007 RMK AO2 T02110142,K0R4,2022-10-31T15:35:00Z,31.57,-91.5,21.1,14.2,270,3,,10.0,30.070866,,,TRUE,TRUE,,,,,,,CLR,,,,,,,,VFR,,,,,,,,,,,,METAR,16.0
K06C 311535Z AUTO 00000KT 3SM OVC002 12/12 A2983 RMK AO2 T01240124,K06C,2022-10-31T15:35:00Z,41.98,-88.1,12.4,12.4,0,0,,3.0,29.828741,,,TRUE,TRUE,,,,,,,OVC,200,,,,,,,LIFR,,,,,,,,,,,,SPECI,243.0
K04V 311535Z AUTO 29011KT 10SM CLR 03/M07 A3023 RMK AO2,K04V,2022-10-31T15:35:00Z,38.1,-106.17,3.0,-7.0,290,11,,10.0,30.230314,,,TRUE,TRUE,,,,,,,CLR,,,,,,,,VFR,,,,,,,,,,,,SPECI,2389.0
SBBR 311534Z 22005KT 6000 2500E -TSRA FEW020 SCT030 FEW035CB BKN100 21/19 Q1016,SBBR,2022-10-31T15:34:00Z,-15.87,-47.92,21.0,19.0,220,5,,3.73,30.0,,,,,,,,,,-TSRA,FEW,2000,SCT,3000,FEW,3500,BKN,10000,MVFR,,,,,,,,,,,,SPECI,1051.0
KMMH 311534Z AUTO 00000KT 10SM CLR M03/M14 A3019 RMK AO2,KMMH,2022-10-31T15:34:00Z,37.62,-118.83,-3.0,-14.0,0,0,,10.0,30.188976,,,TRUE,TRUE,,,,,,,CLR,,,,,,,,VFR,,,,,,,,,,,,SPECI,2167.0
KJXN 311534Z 00000KT 7SM OVC003 13/13 A2983 RMK AO2 RAE11 P0000 T01280128 $,KJXN,2022-10-31T15:34:00Z,42.27,-84.47,12.8,12.8,0,0,,7.0,29.828741,,,,TRUE,TRUE,,,,,,OVC,300,,,,,,,LIFR,,,,,,0.005,,,,,,SPECI,303.0
KHHW 311534Z AUTO 00000KT 10SM CLR 16/12 A3006 RMK AO2,KHHW,2022-10-31T15:34:00Z,34.03,-95.55,16.0,12.0,0,0,,10.0,30.059055,,,TRUE,TRUE,,,,,,,CLR,,,,,,,,VFR,,,,,,,,,,,,METAR,178.0
KGSB 311534Z COR AUTO 06004KT 10SM BKN055 20/15 A3008 RMK AO2 RAB34 SLP189 $ COR 1549,KGSB,2022-10-31T15:34:00Z,35.33,-77.93,20.0,15.0,60,4,,10.0,30.079725,1018.9,TRUE,TRUE,TRUE,TRUE,,,,,,BKN,5500,,,,,,,VFR,,,,,,,,,,,,SPECI,33.0
CYYZ 311534Z CCA 10005KT 1 1/2SM -RA BR BKN003 BKN010 OVC040 10/10 A2991 RMK ST5ST2SC1 SLP136,CYYZ,2022-10-31T15:34:00Z,43.67,-79.62,10.0,10.0,100,5,,1.5,29.911417,1013.6,,,,,,,,,-RA BR,BKN,300,BKN,1000,OVC,4000,,,LIFR,,,,,,,,,,,,SPECI,171.0
CYWY 311534Z 31009KT 3SM -SN BR SCT013 BKN065 OVC085 M09/M11 A2976 RMK SC3SC3AS2 SLP093,CYWY,2022-10-31T15:34:00Z,63.22,-123.43,-9.0,-11.0,310,9,,3.0,29.760826,1009.3,,,,,,,,,-SN BR,SCT,1300,BKN,6500,OVC,8500,,,MVFR,,,,,,,,,,,,SPECI,135.0
BIGR 311534Z 10009KT 9999 FEW100 SCT200 06/03 Q0983,BIGR,2022-10-31T15:34:00Z,66.53,-18.02,6.0,3.0,100,9,,6.21,29.02559,,,,,,,,,,,FEW,10000,SCT,20000,,,,,VFR,,,,,,,,,,,,METAR,35.0
LHPP 311533Z AUTO 10006KT 0900 R34/P1500 FG OVC001 12/12 Q1022,LHPP,2022-10-31T15:33:00Z,45.98,18.23,12.0,12.0,100,6,,0.56,30.177166,,,TRUE,,,,,,,FG,OVC,100,,,,,,,LIFR,,,,,,,,,,,,SPECI,193.0
KCYD 311533Z AUTO 36005KT 1 1/2SM HZ SCT001 SCT026 26/16 A3007 RMK A02 VIS 3/4V5 T02590158,KCYD,2022-10-31T15:33:00Z,28.17,-89.22,25.9,15.8,360,5,,1.5,30.070866,,,TRUE,TRUE,,,,,,HZ,SCT,100,SCT,2600,,,,,IFR,,,,,,,,,,,,METAR,30.0
KCKV 311533Z AUTO 22007KT 9SM OVC010 17/14 A2995 RMK AO2 CIG 009V014 T01720139,KCKV,2022-10-31T15:33:00Z,36.62,-87.42,17.2,13.9,220,7,,9.0,29.949802,,,TRUE,TRUE,,,,,,,OVC,1000,,,,,,,MVFR,,,,,,,,,,,,SPECI,166.0
CYBQ 311533Z AUTO /////KT 9SM SCT025 OVC029 01/01 A2909 RMK PCPN 0.8MM PAST HR WIND MISG SLP870,CYBQ,2022-10-31T15:33:00Z,58.7,-98.5,1.0,1.0,,,,9.0,29.090551,987.0,,TRUE,,,,,,,,SCT,2500,OVC,2900,,,,,MVFR,,,,,,,,,,,,SPECI,272.0
YMOR 311532Z AUTO 25017KT 1600 TS SCT012 SCT022 BKN031 18/17 Q0998,YMOR,2022-10-31T15:32:00Z,-29.5,149.85,18.0,17.0,250,17,,0.99,29.468504,,,TRUE,,,,,,,TS,SCT,1200,SCT,2200,BKN,3100,,,LIFR,,,,,,,,,,,,SPECI,211.0
YMER 311532Z AUTO 22005KT 190V270 5000 RA BKN024 BKN039 OVC072 14/14 Q0983,YMER,2022-10-31T15:32:00Z,-36.92,149.9,14.0,14.0,220,5,,3.11,29.02559,,,TRUE,,,,,,,RA,BKN,2400,BKN,3900,OVC,7200,,,MVFR,,,,,,,,,,,,SPECI,2.0
YEML 311532Z AUTO 06013KT 9999 VCTS -SHRA SCT022 SCT100 24/24 Q1002 RETS,YEML,2022-10-31T15:32:00Z,-23.57,148.18,24.0,24.0,60,13,,6.21,29.586615,,,TRUE,,,,,,,VCTS -SHRA,SCT,2200,SCT,10000,,,,,VFR,,,,,,,,,,,,SPECI,192.0
CZCP 311532Z AUTO 05010KT 010V080 ////SM //// FEW008 BKN015 OVC019 M13/M16 A2994,CZCP,2022-10-31T15:32:00Z,70.17,-124.68,-13.0,-16.0,50,10,,,29.940945,,,TRUE,,,,,,,,FEW,800,BKN,1500,OVC,1900,,,,,,,,,,,,,,,SPECI,23.0
CYZP 311532Z AUTO 22005KT 9SM -RA BKN023 BKN044 BKN096 02/01 A2967 RMK SLP050,CYZP,2022-10-31T15:32:00Z,53.25,-131.82,2.0,1.0,220,5,,9.0,29.66929,1005.0,,TRUE,,,,,,,-RA,BKN,2300,BKN,4400,BKN,9600,,,MVFR,,,,,,,,,,,,SPECI,7.0
CYPW 311532Z 28007KT 15SM FEW008 BKN015 BKN042 08/08 A2970 RMK SF1SC5SC1 VIS N-E 3 LO CLD BR SLP063,CYPW,2022-10-31T15:32:00Z,49.83,-124.5,8.0,8.0,280,7,,15.0,29.698818,1006.3,,,,,,,,,,FEW,800,BKN,1500,BKN,4200,,,MVFR,,,,,,,,,,,,SPECI,122.0
VAUD 311531Z 25003KT 5000 HZ NSC 20/12 Q1017 NOSIG,VAUD,2022-10-31T15:31:00Z,24.62,73.9,20.0,12.0,250,3,,3.11,30.029528,,,,,,TRUE,,,,HZ,CLR,,,,,,,,MVFR,,,,,,,,,,,,METAR,506.0
SUMU 311531Z 19015KT 9999 FEW033TCU BKN040 14/07 Q1026 TEMPO 18018G28KT SHRA,SUMU,2022-10-31T15:31:00Z,-34.83,-56.02,14.0,7.0,190,15,,6.21,30.295275,,,,,,,,,,,FEW,3300,BKN,4000,,,,,VFR,,,,,,,,,,,,SPECI,32.0
KC99 311531Z AUTO 31012G19KT 10SM CLR M02/M16 A3021 RMK AO2,KC99,2022-10-31T15:31:00Z,39.87,-105.55,-2.0,-16.0,310,12,19,10.0,30.209646,,,TRUE,TRUE,,,,,,,CLR,,,,,,,,VFR,,,,,,,,,,,,SPECI,3334.0
ZYTX 311530Z 32004MPS CAVOK 08/M04 Q1025 NOSIG,ZYTX,2022-10-31T15:30:00Z,41.63,123.48,8.0,-4.0,320,8,,6.21,30.265747,,,,,,TRUE,,,,,CAVOK,,,,,,,,VFR,,,,,,,,,,,,METAR,56.0
ZYTL 311530Z 00000MPS 5000 BR SCT033 08/06 Q1024 NOSIG,ZYTL,2022-10-31T15:30:00Z,38.97,121.55,8.0,6.0,0,0,,3.11,30.236221,,,,,,TRUE,,,,BR,SCT,3300,,,,,,,MVFR,,,,,,,,,,,,METAR,33.0
ZWWW 311530Z 03002MPS CAVOK 06/M03 Q1026 NOSIG,ZWWW,2022-10-31T15:30:00Z,43.9,87.47,6.0,-3.0,30,4,,6.21,30.295275,,,,,,TRUE,,,,,CAVOK,,,,,,,,VFR,,,,,,,,,,,,METAR,654.0
ZSSS 311530Z 03002MPS 010V080 CAVOK 16/12 Q1022 NOSIG,ZSSS,2022-10-31T15:30:00Z,31.2,121.33,16.0,12.0,30,4,,6.21,30.177166,,,,,,TRUE,,,,,CAVOK,,,,,,,,VFR,,,,,,,,,,,,METAR,2.0
ZSPD 311530Z 03005MPS CAVOK 17/12 Q1022 NOSIG,ZSPD,2022-10-31T15:30:00Z,31.15,121.8,17.0,12.0,30,10,,6.21,30.177166,,,,,,TRUE,,,,,CAVOK,,,,,,,,VFR,,,,,,,,,,,,METAR,4.0
ZSHC 311530Z 05002MPS CAVOK 15/12 Q1022 NOSIG,ZSHC,2022-10-31T15:30:00Z,30.22,120.43,15.0,12.0,50,4,,6.21,30.177166,,,,,,TRUE,,,,,CAVOK,,,,,,,,VFR,,,,,,,,,,,,METAR,8.0
ZGGG 311530Z 36009MPS CAVOK 24/12 Q1012 NOSIG,ZGGG,2022-10-31T15:30:00Z,23.4,113.3,24.0,12.0,360,17,,6.21,29.88189,,,,,,TRUE,,,,,CAVOK,,,,,,,,VFR,,,,,,,,,,,,METAR,11.0
ZBYN 311530Z 10002MPS CAVOK 04/M03 Q1026 NOSIG,ZBYN,2022-10-31T15:30:00Z,37.73,112.63,4.0,-3.0,100,4,,6.21,30.295275,,,,,,TRUE,,,,,CAVOK,,,,,,,,VFR,,,,,,,,,,,,METAR,778.0
ZBTJ 311530Z 32003MPS CAVOK 10/M06 Q1027 NOSIG,ZBTJ,2022-10-31T15:30:00Z,39.12,117.35,10.0,-6.0,320,6,,6.21,30.324802,,,,,,TRUE,,,,,CAVOK,,,,,,,,VFR,,,,,,,,,,,,METAR,4.0
ZBAD 311530Z VRB01MPS CAVOK 03/M04 Q1027 NOSIG,ZBAD,2022-10-31T15:30:00Z,39.5,116.42,3.0,-4.0,0,2,,6.21,30.324802,,,,,,TRUE,,,,,CAVOK,,,,,,,,VFR,,,,,,,,,,,,METAR,25.0
ZBAA 311530Z VRB01MPS CAVOK 03/M06 Q1028 NOSIG,ZBAA,2022-10-31T15:30:00Z,40.07,116.6,3.0,-6.0,0,2,,6.21,30.35433,,,,,,TRUE,,,,,CAVOK,,,,,,,,VFR,,,,,,,,,,,,METAR,31.0
YWLM 311530Z AUTO 32013KT 9999 // OVC100 21/18 Q0991 RERA RF00.0/007.6,YWLM,2022-10-31T15:30:00Z,-32.8,151.83,21.0,18.0,320,13,,6.21,29.26181,,,TRUE,,,,,,,,OVC,10000,,,,,,,VFR,,,,,,,,,,,,METAR,7.0
YWGT 311530Z AUTO 29004KT 260V330 //// // BKN014 BKN071 11/11 Q0988,YWGT,2022-10-31T15:30:00Z,-36.42,146.3,11.0,11.0,290,4,,,29.17323,,,TRUE,,,,,,,,BKN,1400,BKN,7100,,,,,,,,,,,,,,,,,SPECI,152.0
YSSY 311530Z 33019KT 9999 FEW040 SCT160 BKN245 23/16 Q0986,YSSY,2022-10-31T15:30:00Z,-33.95,151.17,23.0,16.0,330,19,,6.21,29.114174,,,,,,,,,,,FEW,4000,SCT,16000,BKN,24500,,,VFR,,,,,,,,,,,,METAR,3.0
YSRI 311530Z AUTO 36011KT 9999 // NCD 22/19 Q0987 RF00.0/001.0,YSRI,2022-10-31T15:30:00Z,-33.6,150.77,22.0,19.0,360,11,,6.21,29.143702,,,TRUE,,,,,,,,CLR,,,,,,,,VFR,,,,,,,,,,,,METAR,19.0
YSNW 311530Z AUTO 30021G35KT 9999 // SCT065 21/14 Q0984,YSNW,2022-10-31T15:30:00Z,-34.95,150.53,21.0,14.0,300,21,35,6.21,29.055119,,,TRUE,,,,,,,,SCT,6500,,,,,,,VFR,,,,,,,,,,,,SPECI,109.0
YSNF 311530Z AUTO 00000KT 9999 // ////// 14/13 Q1012 RF00.0/000.0,YSNF,2022-10-31T15:30:00Z,-29.03,167.93,14.0,13.0,0,0,,6.21,29.88189,,,TRUE,,,,,,,,,,,,,,,,,,,,,,,,,,,,METAR,113.0
YPWR 311530Z AUTO 30021KT 9999 // SCT038 BKN045 OVC091 11/06 Q1002,YPWR,2022-10-31T15:30:00Z,-31.15,136.82,11.0,6.0,300,21,,6.21,29.586615,,,TRUE,,,,,,,,SCT,3800,BKN,4500,OVC,9100,,,VFR,,,,,,,,,,,,METAR,169.0
YPTN 311530Z AUTO 31010KT 9999 // NCD 30/17 Q1008 RF00.0/000.0,YPTN,2022-10-31T15:30:00Z,-14.52,132.38,30.0,17.0,310,10,,6.21,29.763779,,,TRUE,,,,,,,,CLR,,,,,,,,VFR,,,,,,,,,,,,METAR,135.0
YPPH 311530Z 19010KT CAVOK 12/07 Q1026,YPPH,2022-10-31T15:30:00Z,-31.93,115.98,12.0,7.0,190,10,,6.21,30.295275,,,,,,,,,,,CAVOK,,,,,,,,VFR,,,,,,,,,,,,METAR,16.0
YPPD 311530Z AUTO 14009KT 9999 // NCD 22/M10 Q1015 RF00.0/000.0,YPPD,2022-10-31T15:30:00Z,-20.37,118.62,22.0,-10.0,140,9,,6.21,29.970472,,,TRUE,,,,,,,,CLR,,,,,,,,VFR,,,,,,,,,,,,METAR,6.0
YPLM 311530Z AUTO 21009KT 9999 // NCD 16/M06 Q1016 RF00.0////./,YPLM,2022-10-31T15:30:00Z,-22.23,114.08,16.0,-6.0,210,9,,6.21,30.0,,,TRUE,,,,,,,,CLR,,,,,,,,VFR,,,,,,,,,,,,METAR,5.0
YPKU 311530Z AUTO 01008KT 9999 // NCD 27/23 Q1007 RF00.0/000.0,YPKU,2022-10-31T15:30:00Z,-15.77,128.7,27.0,23.0,10,8,,6.21,29.734253,,,TRUE,,,,,,,,CLR,,,,,,,,VFR,,,,,,,,,,,,METAR,42.0
YPKG 311530Z AUTO 21007KT 9999 // NCD 11/05 Q1022 RF00.0/000.0,YPKG,2022-10-31T15:30:00Z,-30.78,121.45,11.0,5.0,210,7,,6.21,30.177166,,,TRUE,,,,,,,,CLR,,,,,,,,VFR,,,,,,,,,,,,METAR,372.0
YPJT 311530Z AUTO 18008KT 9999 // NCD 12/07 Q1026 RF00.0/000.0,YPJT,2022-10-31T15:30:00Z,-32.1,115.88,12.0,7.0,180,8,,6.21,30.295275,,,TRUE,,,,,,,,CLR,,,,,,,,VFR,,,,,,,,,,,,METAR,29.0
YPGV 311530Z AUTO 33005KT 9999 // NCD 27/24 Q1008 RF00.0/000.0,YPGV,2022-10-31T15:30:00Z,-12.27,136.82,27.0,24.0,330,5,,6.21,29.763779,,,TRUE,,,,,,,,CLR,,,,,,,,VFR,,,,,,,,,,,,METAR,53.0
YPEA 311530Z AUTO 16006KT 9999 // NCD 11/07 Q1025,YPEA,2022-10-31T15:30:00Z,-31.67,116.02,11.0,7.0,160,6,,6.21,30.265747,,,TRUE,,,,,,,,CLR,,,,,,,,VFR,,,,,,,,,,,,METAR,38.0
YPDN 311530Z AUTO 26007KT 9999 // NCD 29/25 Q1008,YPDN,2022-10-31T15:30:00Z,-12.42,130.9,29.0,25.0,260,7,,6.21,29.763779,,,TRUE,,,,,,,,CLR,,,,,,,,VFR,,,,,,,,,,,,METAR,32.0
YPCC 311530Z AUTO 11009KT 9999 // SCT029 SCT038 26/21 Q1013,YPCC,2022-10-31T15:30:00Z,-12.18,96.83,26.0,21.0,110,9,,6.21,29.911417,,,TRUE,,,,,,,,SCT,2900,SCT,3800,,,,,VFR,,,,,,,,,,,,METAR,3.0
YPAD 311530Z 29015KT 9999 -SHRA FEW018 SCT026 BKN052 10/06 Q0993,YPAD,2022-10-31T15:30:00Z,-34.95,138.52,10.0,6.0,290,15,,6.21,29.320866,,,,,,,,,,-SHRA,FEW,1800,SCT,2600,BKN,5200,,,VFR,,,,,,,,,,,,METAR,2.0
YMML 311530Z 28009KT CAVOK 09/07 Q0989,YMML,2022-10-31T15:30:00Z,-37.67,144.82,9.0,7.0,280,9,,6.21,29.202755,,,,,,,,,,,CAVOK,,,,,,,,VFR,,,,,,,,,,,,METAR,115.0
YMLT 311530Z AUTO 34004KT 9999 // NCD 05/04 Q0983 RF00.0/001.6,YMLT,2022-10-31T15:30:00Z,-41.53,147.2,5.0,4.0,340,4,,6.21,29.02559,,,TRUE,,,,,,,,CLR,,,,,,,,VFR,,,,,,,,,,,,METAR,167.0
YMHB 311530Z AUTO 28012KT 9999 // NCD 10/04 Q0982 RF00.0/000.0,YMHB,2022-10-31T15:30:00Z,-42.83,147.52,10.0,4.0,280,12,,6.21,28.996063,,,TRUE,,,,,,,,CLR,,,,,,,,VFR,,,,,,,,,,,,METAR,2.0
YMAV 311530Z AUTO 28010KT 9999 // OVC087 09/07 Q0988 RF00.0/001.0,YMAV,2022-10-31T15:30:00Z,-38.03,144.48,9.0,7.0,280,10,,6.21,29.17323,,,TRUE,,,,,,,,OVC,8700,,,,,,,VFR,,,,,,,,,,,,METAR,11.0
YLRE 311530Z AUTO 20017KT 6000 // SCT019 BKN037 BKN077 20/18 Q1006,YLRE,2022-10-31T15:30:00Z,-23.43,144.28,20.0,18.0,200,17,,3.73,29.704725,,,TRUE,,,,,,,,SCT,1900,BKN,3700,BKN,7700,,,MVFR,,,,,,,,,,,,SPECI,191.0
YHID 311530Z AUTO 11006KT 9999 // NCD 27/// Q1007 RF00.0/000.0,YHID,2022-10-31T15:30:00Z,-10.58,142.3,,,110,6,,6.21,29.734253,,,TRUE,,,,,,,,CLR,,,,,,,,VFR,,,,,,,,,,,,METAR,5.0
YGLA 311530Z AUTO 36006KT 9999 // BKN015 BKN020 OVC029 25/22 Q1006,YGLA,2022-10-31T15:30:00Z,-23.87,151.22,25.0,22.0,360,6,,6.21,29.704725,,,TRUE,,,,,,,,BKN,1500,BKN,2000,OVC,2900,,,MVFR,,,,,,,,,,,,METAR,17.0
YGEL 311530Z AUTO 14012KT 9999 // NCD 14/09 Q1025 RF00.0/000.0,YGEL,2022-10-31T15:30:00Z,-28.8,114.7,14.0,9.0,140,12,,6.21,30.265747,,,TRUE,,,,,,,,CLR,,,,,,,,VFR,,,,,,,,,,,,METAR,32.0
YFRT 311530Z AUTO 26020KT 9999 // SCT031 SCT043 BKN054 13/08 Q1014,YFRT,2022-10-31T15:30:00Z,-30.83,128.12,13.0,8.0,260,20,,6.21,29.940945,,,TRUE,,,,,,,,SCT,3100,SCT,4300,BKN,5400,,,VFR,,,,,,,,,,,,METAR,159.0
YCIN 311530Z AUTO 15009KT 9999 // NCD 26/01 Q1010 RF00.0/000.0,YCIN,2022-10-31T15:30:00Z,-17.58,123.83,26.0,1.0,150,9,,6.21,29.822834,,,TRUE,,,,,,,,CLR,,,,,,,,VFR,,,,,,,,,,,,METAR,83.0
YCBB 311530Z AUTO 32018G29KT 9999 -SHRA SCT054 SCT069 BKN095 15/13 Q0996,YCBB,2022-10-31T15:30:00Z,-31.33,149.27,15.0,13.0,320,18,29,6.21,29.409449,,,TRUE,,,,,,,-SHRA,SCT,5400,SCT,6900,BKN,9500,,,VFR,,,,,,,,,,,,SPECI,644.0
YBWW 311530Z AUTO 35009KT 9999 // OVC100 OVC120 21/18 Q1002,YBWW,2022-10-31T15:30:00Z,-27.55,151.8,21.0,18.0,350,9,,6.21,29.586615,,,TRUE,,,,,,,,OVC,10000,OVC,12000,,,,,VFR,,,,,,,,,,,,METAR,460.0
YBUD 311530Z AUTO 36009KT 9999 // OVC009 OVC014 24/23 Q1005,YBUD,2022-10-31T15:30:00Z,-24.9,152.32,24.0,23.0,360,9,,6.21,29.675198,,,TRUE,,,,,,,,OVC,900,OVC,1400,,,,,IFR,,,,,,,,,,,,SPECI,30.0
YBRM 311530Z AUTO 14012KT 9999 // NCD 27/05 Q1011 RF00.0/000.0,YBRM,2022-10-31T15:30:00Z,-17.93,122.23,27.0,5.0,140,12,,6.21,29.852362,,,TRUE,,,,,,,,CLR,,,,,,,,VFR,,,,,,,,,,,,METAR,11.0
YBRK 311530Z AUTO 03006KT 9999 // NCD 24/21 Q1005 RF00.0/000.0,YBRK,2022-10-31T15:30:00Z,-23.37,150.47,24.0,21.0,30,6,,6.21,29.675198,,,TRUE,,,,,,,,CLR,,,,,,,,VFR,,,,,,,,,,,,METAR,10.0
YBMA 311530Z AUTO 18015KT 9999 // NCD 26/17 Q1008 RF00.0/000.6,YBMA,2022-10-31T15:30:00Z,-20.67,139.48,26.0,17.0,180,15,,6.21,29.763779,,,TRUE,,,,,,,,CLR,,,,,,,,VFR,,,,,,,,,,,,METAR,346.0
YBLN 311530Z AUTO 20004KT 9999 // ////// 11/11 Q1027 RF00.0/000.0,YBLN,2022-10-31T15:30:00Z,-33.68,115.4,11.0,11.0,200,4,,6.21,30.324802,,,TRUE,,,,,,,,,,,,,,,,,,,,,,,,,,,,METAR,17.0
YBHM 311530Z AUTO 36012KT //// // BKN020 27/24 Q1006 RF00.0/000.0,YBHM,2022-10-31T15:30:00Z,-20.35,148.95,27.0,24.0,360,12,,,29.704725,,,TRUE,,,,,,,,BKN,2000,,,,,,,,,,,,,,,,,,,METAR,4.0
YBCS 311530Z AUTO 31003KT 9999 // SCT024 OVC035 28/23 Q1006,YBCS,2022-10-31T15:30:00Z,-16.87,145.75,28.0,23.0,310,3,,6.21,29.704725,,,TRUE,,,,,,,,SCT,2400,OVC,3500,,,,,VFR,,,,,,,,,,,,METAR,2.0
YBCG 311530Z AUTO 36016KT 9999 -RA SCT069 SCT100 23/20 Q1000,YBCG,2022-10-31T15:30:00Z,-28.17,153.5,23.0,20.0,360,16,,6.21,29.52756,,,TRUE,,,,,,,-RA,SCT,6900,SCT,10000,,,,,VFR,,,,,,,,,,,,METAR,5.0
YBBN 311530Z 02016KT 9999 -RA NSC 24/20 Q1001,YBBN,2022-10-31T15:30:00Z,-27.38,153.13,24.0,20.0,20,16,,6.21,29.557087,,,,,,,,,,-RA,CLR,,,,,,,,VFR,,,,,,,,,,,,METAR,3.0
YBAS 311530Z AUTO 21008KT 9999 // NCD 15/M01 Q1014 RF00.0/000.2,YBAS,2022-10-31T15:30:00Z,-23.8,133.9,15.0,-1.0,210,8,,6.21,29.940945,,,TRUE,,,,,,,,CLR,,,,,,,,VFR,,,,,,,,,,,,METAR,549.0
YAMB 311530Z AUTO 02006KT 9999 // SCT077 SCT120 25/15 Q1000,YAMB,2022-10-31T15:30:00Z,-27.63,152.72,25.0,15.0,20,6,,6.21,29.52756,,,TRUE,,,,,,,,SCT,7700,SCT,12000,,,,,VFR,,,,,,,,,,,,METAR,26.0
WSSS 311530Z 34005KT 9999 FEW018 SCT160 27/24 Q1010 NOSIG,WSSS,2022-10-31T15:30:00Z,1.37,103.97,27.0,24.0,340,5,,6.21,29.822834,,,,,,TRUE,,,,,FEW,1800,SCT,16000,,,,,VFR,,,,,,,,,,,,METAR,17.0
WMKP 311530Z 00000KT 6000 -RA FEW012 SCT024 26/25 Q1011 NOSIG,WMKP,2022-10-31T15:30:00Z,5.28,100.27,26.0,25.0,0,0,,3.73,29.852362,,,,,,TRUE,,,,-RA,FEW,1200,SCT,2400,,,,,MVFR,,,,,,,,,,,,METAR,4.0
WMKK 311530Z VRB02KT 9999 FEW010 SCT030 27/24 Q1010 NOSIG,WMKK,2022-10-31T15:30:00Z,2.75,101.72,27.0,24.0,0,2,,6.21,29.822834,,,,,,TRUE,,,,,FEW,1000,SCT,3000,,,,,VFR,,,,,,,,,,,,METAR,21.0
WIPP 311530Z 00000KT 8000 FEW010 26/24 Q1010 NOSIG,WIPP,2022-10-31T15:30:00Z,-2.88,104.7,26.0,24.0,0,0,,4.97,29.822834,,,,,,TRUE,,,,,FEW,1000,,,,,,,MVFR,,,,,,,,,,,,METAR,7.0
WIOO 311530Z 03003KT 6000 SCT012 25/24 Q1010 NOSIG,WIOO,2022-10-31T15:30:00Z,-0.15,109.4,25.0,24.0,30,3,,3.73,29.822834,,,,,,TRUE,,,,,SCT,1200,,,,,,,MVFR,,,,,,,,,,,,METAR,4.0
WIMM 311530Z 30004KT 4000 -TSRA FEW015CB BKN016 24/24 Q1011 NOSIG RMK CB OVER THE FIELD,WIMM,2022-10-31T15:30:00Z,3.57,98.67,24.0,24.0,300,4,,2.49,29.852362,,,,,,TRUE,,,,-TSRA,FEW,1500,BKN,1600,,,,,IFR,,,,,,,,,,,,METAR,27.0
WIEE 311530Z 06001KT 9999 SCT020 25/25 Q1011 NOSIG,WIEE,2022-10-31T15:30:00Z,-0.78,100.28,25.0,25.0,60,1,,6.21,29.852362,,,,,,TRUE,,,,,SCT,2000,,,,,,,VFR,,,,,,,,,,,,METAR,5.0
WIDD 311530Z 02005KT 9999 FEW014 28/25 Q1012 NOSIG,WIDD,2022-10-31T15:30:00Z,1.12,104.12,28.0,25.0,20,5,,6.21,29.88189,,,,,,TRUE,,,,,FEW,1400,,,,,,,VFR,,,,,,,,,,,,METAR,26.0
WIBB 311530Z 00000KT 6000 BKN012 28/25 Q1009,WIBB,2022-10-31T15:30:00Z,0.47,101.45,28.0,25.0,0,0,,3.73,29.793306,,,,,,,,,,,BKN,1200,,,,,,,MVFR,,,,,,,,,,,,METAR,41.0
WBSB 311530Z 23008KT 6000 -TSRA FEW004 SCT012 FEW015CB BKN150 25/25 Q1011 TEMPO 5000 TSRA,WBSB,2022-10-31T15:30:00Z,4.93,114.92,25.0,25.0,230,8,,3.73,29.852362,,,,,,,,,,-TSRA,FEW,400,SCT,1200,FEW,1500,BKN,15000,MVFR,,,,,,,,,,,,METAR,15.0
WBKK 311530Z 18004KT 140V230 9999 -RA FEW013 SCT035 26/25 Q1009 NOSIG,WBKK,2022-10-31T15:30:00Z,5.93,116.05,26.0,25.0,180,4,,6.21,29.793306,,,,,,TRUE,,,,-RA,FEW,1300,SCT,3500,,,,,VFR,,,,,,,,,,,,METAR,9.0
WBGG 311530Z VRB03KT 9999 SCT020 26/24 Q1010 NOSIG,WBGG,2022-10-31T15:30:00Z,1.48,110.35,26.0,24.0,0,3,,6.21,29.822834,,,,,,TRUE,,,,,SCT,2000,,,,,,,VFR,,,,,,,,,,,,METAR,26.0
WARR 311530Z VRB02KT 8000 SCT020 28/25 Q1009 NOSIG,WARR,2022-10-31T15:30:00Z,-7.37,112.78,28.0,25.0,0,2,,4.97,29.793306,,,,,,TRUE,,,,,SCT,2000,,,,,,,MVFR,,,,,,,,,,,,METAR,3.0
WAQQ 311530Z 12003KT 8000 FEW015B SCT015 29/26 Q1008 NOSIG RMK CB TO N METAR WAYY NIL,WAQQ,2022-10-31T15:30:00Z,3.33,117.57,29.0,26.0,120,3,,4.97,29.763779,,,,,,TRUE,,,,,SCT,1500,,,,,,,MVFR,,,,,,,,,,,,METAR,6.0
WAPP 311530Z 01004KT 9999 FEW018CB 26/24 Q1009 NOSIG RMK CB TO NW,WAPP,2022-10-31T15:30:00Z,-3.7,128.08,26.0,24.0,10,4,,6.21,29.793306,,,,,,TRUE,,,,,FEW,1800,,,,,,,VFR,,,,,,,,,,,,METAR,20.0
WAOO 311530Z AUTO VRB01KT 9999 BKN210 26/23 Q1008 NOSIG,WAOO,2022-10-31T15:30:00Z,-3.45,114.77,26.0,23.0,0,1,,6.21,29.763779,,,TRUE,,,TRUE,,,,,BKN,21000,,,,,,,VFR,,,,,,,,,,,,METAR,23.0
WAMM 311530Z VRB01KT 9999 SCT021 24/23 Q1008 NOSIG,WAMM,2022-10-31T15:30:00Z,1.55,124.92,24.0,23.0,0,1,,6.21,29.763779,,,,,,TRUE,,,,,SCT,2100,,,,,,,VFR,,,,,,,,,,,,METAR,86.0
WALL 311530Z 20005KT 9000 SCT020 29/25 Q1008 NOSIG,WALL,2022-10-31T15:30:00Z,-1.27,116.9,29.0,25.0,200,5,,5.59,29.763779,,,,,,TRUE,,,,,SCT,2000,,,,,,,VFR,,,,,,,,,,,,METAR,3.0
WAJJ 311530Z 32003KT 9000 -RA FEW013 24/22 Q1006 NOSIG,WAJJ,2022-10-31T15:30:00Z,-2.58,140.52,24.0,22.0,320,3,,5.59,29.704725,,,,,,TRUE,,,,-RA,FEW,1300,,,,,,,VFR,,,,,,,,,,,,METAR,93.0
WAHS 311530Z AUTO 25001KT 6000 BKN049 OVC060 27/24 Q1009,WAHS,2022-10-31T15:30:00Z,-6.98,110.38,27.0,24.0,250,1,,3.73,29.793306,,,TRUE,,,,,,,,BKN,4900,OVC,6000,,,,,MVFR,,,,,,,,,,,,METAR,3.0
WADL 311530Z 03002KT 7000 SCT016 25/23 Q1011 NOSIG,WADL,2022-10-31T15:30:00Z,-8.75,116.28,25.0,23.0,30,2,,4.35,29.852362,,,,,,TRUE,,,,,SCT,1600,,,,,,,MVFR,,,,,,,,,,,,METAR,97.0
WADD 311530Z VRB01KT 9999 SCT017 26/23 Q1010 NOSIG,WADD,2022-10-31T15:30:00Z,-8.73,115.17,26.0,23.0,0,1,,6.21,29.822834,,,,,,TRUE,,,,,SCT,1700,,,,,,,VFR,,,,,,,,,,,,METAR,3.0
WABB 311530Z 02003KT 020V250 9999 FEW018 27/26 Q1009 NOSIG,WABB,2022-10-31T15:30:00Z,-1.18,136.12,27.0,26.0,20,3,,6.21,29.793306,,,,,,TRUE,,,,,FEW,1800,,,,,,,VFR,,,,,,,,,,,,METAR,12.0
WAAA 311530Z 11002KT 8000 FEW019 26/24 Q1009 NOSIG,WAAA,2022-10-31T15:30:00Z,-5.07,119.55,26.0,24.0,110,2,,4.97,29.793306,,,,,,TRUE,,,,,FEW,1900,,,,,,,MVFR,,,,,,,,,,,,METAR,13.0
VYYY 311530Z 23004KT 7000 FEW016 28/25 Q1011 NOSIG,VYYY,2022-10-31T15:30:00Z,16.9,96.13,28.0,25.0,230,4,,4.35,29.852362,,,,,,TRUE,,,,,FEW,1600,,,,,,,MVFR,,,,,,,,,,,,METAR,31.0
VVTS 311530Z VRB01KT 9999 SCT020 28/26 Q1010 NOSIG,VVTS,2022-10-31T15:30:00Z,10.82,106.67,28.0,26.0,0,1,,6.21,29.822834,,,,,,TRUE,,,,,SCT,2000,,,,,,,VFR,,,,,,,,,,,,METAR,10.0
VVPQ 311530Z VRB01KT 9999 FEW017 25/23 Q1010 NOSIG,VVPQ,2022-10-31T15:30:00Z,10.23,103.97,25.0,23.0,0,1,,6.21,29.822834,,,,,,TRUE,,,,,FEW,1700,,,,,,,VFR,,,,,,,,,,,,METAR,8.0
VVPB 311530Z 28007KT 8000 SCT015 BKN060 24/19 Q1014 NOSIG,VVPB,2022-10-31T15:30:00Z,16.38,107.7,24.0,19.0,280,7,,4.97,29.940945,,,,,,TRUE,,,,,SCT,1500,BKN,6000,,,,,MVFR,,,,,,,,,,,,METAR,15.0
VVNB 311530Z VRB03KT CAVOK 24/13 Q1016 NOSIG,VVNB,2022-10-31T15:30:00Z,21.22,105.8,24.0,13.0,0,3,,6.21,30.0,,,,,,TRUE,,,,,CAVOK,,,,,,,,VFR,,,,,,,,,,,,METAR,6.0
VVDN 311530Z 34012KT 9999 FEW015 SCT060 26/17 Q1013 NOSIG,VVDN,2022-10-31T15:30:00Z,16.03,108.2,26.0,17.0,340,12,,6.21,29.911417,,,,,,TRUE,,,,,FEW,1500,SCT,6000,,,,,VFR,,,,,,,,,,,,METAR,7.0
VVCT 311530Z 30001KT 9999 FEW015 24/24 Q1010 NOSIG,VVCT,2022-10-31T15:30:00Z,10.08,105.72,24.0,24.0,300,1,,6.21,29.822834,,,,,,TRUE,,,,,FEW,1500,,,,,,,VFR,,,,,,,,,,,,METAR,6.0
VVCR 311530Z VRB01KT 8000 FEW015 25/23 Q1011 NOSIG,VVCR,2022-10-31T15:30:00Z,12.0,109.22,25.0,23.0,0,1,,4.97,29.852362,,,,,,TRUE,,,,,FEW,1500,,,,,,,MVFR,,,,,,,,,,,,METAR,12.0
VVCI 311530Z 33004KT CAVOK 23/13 Q1014 NOSIG,VVCI,2022-10-31T15:30:00Z,20.82,106.73,23.0,13.0,330,4,,6.21,29.940945,,,,,,TRUE,,,,,CAVOK,,,,,,,,VFR,,,,,,,,,,,,METAR,6.0
VTSS 311530Z 00000KT 9999 FEW020 SCT100 25/24 Q1010 NOSIG,VTSS,2022-10-31T15:30:00Z,6.92,100.38,25.0,24.0,0,0,,6.21,29.822834,,,,,,TRUE,,,,,FEW,2000,SCT,10000,,,,,VFR,,,,,,,,,,,,METAR,28.0
VTSP 311530Z 34002KT 9999 FEW020 SCT050 25/24 Q1011 NOSIG,VTSP,2022-10-31T15:30:00Z,8.12,98.32,25.0,24.0,340,2,,6.21,29.852362,,,,,,TRUE,,,,,FEW,2000,SCT,5000,,,,,VFR,,,,,,,,,,,,METAR,12.0
VTCC 311530Z VRB02KT 9999 FEW035 24/20 Q1014 NOSIG,VTCC,2022-10-31T15:30:00Z,18.77,98.97,24.0,20.0,0,2,,6.21,29.940945,,,,,,TRUE,,,,,FEW,3500,,,,,,,VFR,,,,,,,,,,,,METAR,308.0
VTBU 311530Z 01006KT 5000 HZ NSC 26/19 Q1011 NOSIG,VTBU,2022-10-31T15:30:00Z,12.68,101.0,26.0,19.0,10,6,,3.11,29.852362,,,,,,TRUE,,,,HZ,CLR,,,,,,,,MVFR,,,,,,,,,,,,METAR,12.0
VTBS 311530Z 07008KT 8000 FEW020 29/20 Q1011 NOSIG,VTBS,2022-10-31T15:30:00Z,13.68,100.75,29.0,20.0,70,8,,4.97,29.852362,,,,,,TRUE,,,,,FEW,2000,,,,,,,MVFR,,,,,,,,,,,,METAR,1.0
VTBD 311530Z 05005KT 9999 FEW020 27/21 Q1012 NOSIG,VTBD,2022-10-31T15:30:00Z,13.92,100.6,27.0,21.0,50,5,,6.21,29.88189,,,,,,TRUE,,,,,FEW,2000,,,,,,,VFR,,,,,,,,,,,,METAR,6.0
VOTV 311530Z 21004KT 2000 TSRA SCT008 SCT012 FEW025CB OVC080 25/24 Q1012 NOSIG,VOTV,2022-10-31T15:30:00Z,8.48,76.92,25.0,24.0,210,4,,1.24,29.88189,,,,,,TRUE,,,,TSRA,SCT,800,SCT,1200,FEW,2500,OVC,8000,IFR,,,,,,,,,,,,METAR,9.0
VOTR 311530Z 03005KT 3000 HZ SCT016 BKN100 27/22 Q1011 NOSIG,VOTR,2022-10-31T15:30:00Z,10.77,78.72,27.0,22.0,30,5,,1.86,29.852362,,,,,,TRUE,,,,HZ,SCT,1600,BKN,10000,,,,,IFR,,,,,,,,,,,,METAR,90.0
VOTP 311530Z 09005KT 4000 HZ FEW020 SCT080 25/21 Q1013 NOSIG,VOTP,2022-10-31T15:30:00Z,13.63,79.55,25.0,21.0,90,5,,2.49,29.911417,,,,,,TRUE,,,,HZ,FEW,2000,SCT,8000,,,,,IFR,,,,,,,,,,,,METAR,103.0
VORY 311530Z 03005KT 6000 FEW020 BKN090 26/25 Q1012 NOSIG,VORY,2022-10-31T15:30:00Z,17.1,81.82,26.0,25.0,30,5,,3.73,29.88189,,,,,,TRUE,,,,,FEW,2000,BKN,9000,,,,,MVFR,,,,,,,,,,,,METAR,47.0
VOMM 311530Z 04008KT 2000 -TSRA SCT018 FEW025CB BKN080 25/24 Q1012 NOSIG,VOMM,2022-10-31T15:30:00Z,13.0,80.17,25.0,24.0,40,8,,1.24,29.88189,,,,,,TRUE,,,,-TSRA,SCT,1800,FEW,2500,BKN,8000,,,IFR,,,,,,,,,,,,METAR,7.0
VOML 311530Z 00000KT 6000 NSC 28/22 Q1011 NOSIG,VOML,2022-10-31T15:30:00Z,12.97,74.88,28.0,22.0,0,0,,3.73,29.852362,,,,,,TRUE,,,,,CLR,,,,,,,,MVFR,,,,,,,,,,,,METAR,100.0
VOKN 311530Z VRB02KT 3500 BR FEW012 FEW025TCU SCT080 29/25 Q1011 NOSIG,VOKN,2022-10-31T15:30:00Z,11.92,75.55,29.0,25.0,0,2,,2.17,29.852362,,,,,,TRUE,,,,BR,FEW,1200,FEW,2500,SCT,8000,,,IFR,,,,,,,,,,,,METAR,105.0
VOHY 311530Z 05005KT 5000 HZ NSC 22/15 Q1016 NOSIG,VOHY,2022-10-31T15:30:00Z,17.45,78.47,22.0,15.0,50,5,,3.11,30.0,,,,,,TRUE,,,,HZ,CLR,,,,,,,,MVFR,,,,,,,,,,,,METAR,540.0
VOHS 311530Z 06007KT 5000 BR FEW020 22/18 Q1016 NOSIG,VOHS,2022-10-31T15:30:00Z,17.23,78.43,22.0,18.0,60,7,,3.11,30.0,,,,,,TRUE,,,,BR,FEW,2000,,,,,,,MVFR,,,,,,,,,,,,METAR,607.0
VOHB 311530Z 11004KT 6000 NSC 24/15 Q1015,VOHB,2022-10-31T15:30:00Z,15.37,75.08,24.0,15.0,110,4,,3.73,29.970472,,,,,,,,,,,CLR,,,,,,,,MVFR,,,,,,,,,,,,METAR,661.0
VOCL 311530Z 10003KT 3000 -TSRA FEW006 SCT012 FEW025CB BKN080 24/21 Q1011 NOSIG,VOCL,2022-10-31T15:30:00Z,11.13,75.95,24.0,21.0,100,3,,1.86,29.852362,,,,,,TRUE,,,,-TSRA,FEW,600,SCT,1200,FEW,2500,BKN,8000,IFR,,,,,,,,,,,,METAR,104.0
VOCI 311530Z 24002KT 4000 TS SCT012 FEW025CB OVC080 24/24 Q1011 NOSIG,VOCI,2022-10-31T15:30:00Z,10.15,76.4,24.0,24.0,240,2,,2.49,29.852362,,,,,,TRUE,,,,TS,SCT,1200,FEW,2500,OVC,8000,,,IFR,,,,,,,,,,,,METAR,8.0
VOCB 311530Z VRB03KT 5000 HZ FEW012 SCT080 26/20 Q1013 NOSIG,VOCB,2022-10-31T15:30:00Z,11.02,77.03,26.0,20.0,0,3,,3.11,29.911417,,,,,,TRUE,,,,HZ,FEW,1200,SCT,8000,,,,,MVFR,,,,,,,,,,,,METAR,394.0
VOBZ 311530Z VRB02KT 3000 BR SCT018 OVC080 26/23 Q1012 NOSIG,VOBZ,2022-10-31T15:30:00Z,16.52,80.78,26.0,23.0,0,2,,1.86,29.88189,,,,,,TRUE,,,,BR,SCT,1800,OVC,8000,,,,,IFR,,,,,,,,,,,,METAR,26.0
VOBL 311530Z 01004KT 6000 NSC 22/16 Q1017 NOSIG,VOBL,2022-10-31T15:30:00Z,13.2,77.7,22.0,16.0,10,4,,3.73,30.029528,,,,,,TRUE,,,,,CLR,,,,,,,,MVFR,,,,,,,,,,,,METAR,908.0
VMMC 311530Z 36021KT 9999 FEW040 25/17 Q1008 NOSIG,VMMC,2022-10-31T15:30:00Z,22.15,113.58,25.0,17.0,360,21,,6.21,29.763779,,,,,,TRUE,,,,,FEW,4000,,,,,,,VFR,,,,,,,,,,,,METAR,1.0
VILK 311530Z 00000KT 2500 BR NSC 22/21 Q1014 NOSIG,VILK,2022-10-31T15:30:00Z,26.75,80.88,22.0,21.0,0,0,,1.55,29.940945,,,,,,TRUE,,,,BR,CLR,,,,,,,,IFR,,,,,,,,,,,,METAR,121.0
VIJP 311530Z VRB02KT 2500 FU NSC 24/14 Q1017 NOSIG,VIJP,2022-10-31T15:30:00Z,26.82,75.8,24.0,14.0,0,2,,1.55,30.029528,,,,,,TRUE,,,,FU,CLR,,,,,,,,IFR,,,,,,,,,,,,METAR,383.0
VIDP 311530Z 00000KT 1800 R28/P2000 R29/P2000 FU NSC 23/16 Q1015 NOSIG,VIDP,2022-10-31T15:30:00Z,28.57,77.12,23.0,16.0,0,0,,1.12,29.970472,,,,,,TRUE,,,,FU,CLR,,,,,,,,IFR,,,,,,,,,,,,METAR,236.0
VIAR 311530Z 09005KT 1500 R34/2000 BR FEW100 22/19 Q1014 NOSIG,VIAR,2022-10-31T15:30:00Z,31.7,74.8,22.0,19.0,90,5,,0.93,29.940945,,,,,,TRUE,,,,BR,FEW,10000,,,,,,,LIFR,,,,,,,,,,,,METAR,226.0
VHHH 311530Z 02019KT 9999 FEW030 26/11 Q1009 NOSIG,VHHH,2022-10-31T15:30:00Z,22.32,113.92,26.0,11.0,20,19,,6.21,29.793306,,,,,,TRUE,,,,,FEW,3000,,,,,,,VFR,,,,,,,,,,,,METAR,9.0
VGHS 311530Z 00000KT 3500 HZ NSC 28/20 Q1012 NOSIG,VGHS,2022-10-31T15:30:00Z,23.85,90.4,28.0,20.0,0,0,,2.17,29.88189,,,,,,TRUE,,,,HZ,CLR,,,,,,,,IFR,,,,,,,,,,,,METAR,11.0
VERP 311530Z 07004KT 4000 HZ NSC 23/19 Q1015 NOSIG,VERP,2022-10-31T15:30:00Z,21.18,81.73,23.0,19.0,70,4,,2.49,29.970472,,,,,,TRUE,,,,HZ,CLR,,,,,,,,IFR,,,,,,,,,,,,METAR,318.0
VERC 311530Z 00000KT 4000 HZ NSC 21/16 Q1017 NOSIG,VERC,2022-10-31T15:30:00Z,23.32,85.32,21.0,16.0,0,0,,2.49,30.029528,,,,,,TRUE,,,,HZ,CLR,,,,,,,,IFR,,,,,,,,,,,,METAR,646.0
VEPT 311530Z 25003KT 4000 HZ NSC 25/20 Q1012 NOSIG,VEPT,2022-10-31T15:30:00Z,25.6,85.08,25.0,20.0,250,3,,2.49,29.88189,,,,,,TRUE,,,,HZ,CLR,,,,,,,,IFR,,,,,,,,,,,,METAR,53.0
VEGT 311530Z 00000KT 3000 BR FEW020 24/23 Q1013 NOSIG,VEGT,2022-10-31T15:30:00Z,26.1,91.58,24.0,23.0,0,0,,1.86,29.911417,,,,,,TRUE,,,,BR,FEW,2000,,,,,,,IFR,,,,,,,,,,,,METAR,50.0
VECC 311530Z 30003KT 3500 HZ NSC 27/20 Q1012 NOSIG,VECC,2022-10-31T15:30:00Z,22.65,88.43,27.0,20.0,300,3,,2.17,29.88189,,,,,,TRUE,,,,HZ,CLR,,,,,,,,IFR,,,,,,,,,,,,METAR,11.0
VEBS 311530Z 00000KT 3000 HZ FEW020 24/23 Q1015 NOSIG,VEBS,2022-10-31T15:30:00Z,20.25,85.82,24.0,23.0,0,0,,1.86,29.970472,,,,,,TRUE,,,,HZ,FEW,2000,,,,,,,IFR,,,,,,,,,,,,METAR,42.0
VEBN 311530Z 00000KT 3000 BR FEW025 23/20 Q1014 NOSIG,VEBN,2022-10-31T15:30:00Z,25.45,82.85,23.0,20.0,0,0,,1.86,29.940945,,,,,,TRUE,,,,BR,FEW,2500,,,,,,,IFR,,,,,,,,,,,,METAR,81.0
VDSV 311530Z 07003KT 9000 SCT015 26/24 Q1010,VDSV,2022-10-31T15:30:00Z,10.58,103.63,26.0,24.0,70,3,,5.59,29.822834,,,,,,,,,,,SCT,1500,,,,,,,VFR,,,,,,,,,,,,METAR,1.0
VDSR 311530Z 36007KT 9000 SCT015 25/21 Q1010,VDSR,2022-10-31T15:30:00Z,13.42,103.8,25.0,21.0,360,7,,5.59,29.822834,,,,,,,,,,,SCT,1500,,,,,,,VFR,,,,,,,,,,,,METAR,16.0
VDPP 311530Z VRB02KT 9000 FEW017 27/22 Q1010,VDPP,2022-10-31T15:30:00Z,11.55,104.83,27.0,22.0,0,2,,5.59,29.822834,,,,,,,,,,,FEW,1700,,,,,,,VFR,,,,,,,,,,,,METAR,10.0
VASU 311530Z 00000KT 6000 NSC 25/15 Q1013 NOSIG,VASU,2022-10-31T15:30:00Z,21.12,72.73,25.0,15.0,0,0,,3.73,29.911417,,,,,,TRUE,,,,,CLR,,,,,,,,MVFR,,,,,,,,,,,,METAR,6.0
VANP 311530Z 00000KT 4000 HZ NSC 20/15 Q1016 NOSIG,VANP,2022-10-31T15:30:00Z,21.08,79.05,20.0,15.0,0,0,,2.49,30.0,,,,,,TRUE,,,,HZ,CLR,,,,,,,,IFR,,,,,,,,,,,,METAR,309.0
VAID 311530Z 07003KT 5000 HZ NSC 21/10 Q1017 NOSIG,VAID,2022-10-31T15:30:00Z,22.72,75.8,21.0,10.0,70,3,,3.11,30.029528,,,,,,TRUE,,,,HZ,CLR,,,,,,,,MVFR,,,,,,,,,,,,METAR,564.0
VABP 311530Z 07002KT 4000 HZ NSC 22/09 Q1017 NOSIG,VABP,2022-10-31T15:30:00Z,23.28,77.33,22.0,9.0,70,2,,2.49,30.029528,,,,,,TRUE,,,,HZ,CLR,,,,,,,,IFR,,,,,,,,,,,,METAR,520.0
VABB 311530Z 35006KT 3500 FU NSC 29/14 Q1012 NOSIG,VABB,2022-10-31T15:30:00Z,19.1,72.87,29.0,14.0,350,6,,2.17,29.88189,,,,,,TRUE,,,,FU,CLR,,,,,,,,IFR,,,,,,,,,,,,METAR,14.0
VAAH 311530Z VRB03KT 4000 FU NSC 25/16 Q1013 NOSIG,VAAH,2022-10-31T15:30:00Z,23.07,72.63,25.0,16.0,0,3,,2.49,29.911417,,,,,,TRUE,,,,FU,CLR,,,,,,,,IFR,,,,,,,,,,,,METAR,52.0
UWWW 311530Z 28002MPS 240V310 9999 SCT033 02/M04 Q0999 R33/CLRD60 NOSIG RMK QFE739/0985,UWWW,2022-10-31T15:30:00Z,53.5,50.17,2.0,-4.0,280,4,,6.21,29.498032,,,,,,TRUE,,,,,SCT,3300,,,,,,,VFR,,,,,,,,,,,,METAR,124.0
UWUU 311530Z 31006MPS 9999 -SHRA SCT006 OVC013CB 02/02 Q0998 R32L/290344 NOSIG RMK QBB180,UWUU,2022-10-31T15:30:00Z,54.57,55.87,2.0,2.0,310,12,,6.21,29.468504,,,,,,TRUE,,,,-SHRA,SCT,600,OVC,1300,,,,,MVFR,,,,,,,,,,,,METAR,137.0
UWSG 311530Z 29004MPS 270V330 CAVOK 03/M03 Q1002 R26/CLRD70 NOSIG RMK QFE749/0998,UWSG,2022-10-31T15:30:00Z,51.72,46.17,3.0,-3.0,290,8,,6.21,29.586615,,,,,,TRUE,,,,,CAVOK,,,,,,,,VFR,,,,,,,,,,,,METAR,31.0
UWPS 311530Z 27005MPS 9999 BKN019 00/M02 Q1000 R20/120060 NOSIG RMK QFE732,UWPS,2022-10-31T15:30:00Z,54.12,45.2,0.0,-2.0,270,10,,6.21,29.52756,,,,,,TRUE,,,,,BKN,1900,,,,,,,MVFR,,,,,,,,,,,,METAR,206.0
UWOO 311530Z VRB01MPS 9000 -SHRA OVC024CB 06/06 Q0999 R26/290356 NOSIG RMK QFE739/0985,UWOO,2022-10-31T15:30:00Z,51.8,55.47,6.0,6.0,0,2,,5.59,29.498032,,,,,,TRUE,,,,-SHRA,OVC,2400,,,,,,,MVFR,,,,,,,,,,,,METAR,90.0
UWLL 311530Z 27002MPS 9999 BKN046 01/M02 Q0999 R20/090065 NOSIG RMK QFE739/0986,UWLL,2022-10-31T15:30:00Z,54.27,48.23,1.0,-2.0,270,4,,6.21,29.498032,,,,,,TRUE,,,,,BKN,4600,,,,,,,VFR,,,,,,,,,,,,METAR,119.0
UWKS 311530Z 25004MPS 9999 OVC010CB M00/M01 Q0997 R24/690348 TEMPO 0800 +SHSN VV002 RMK QFE733,UWKS,2022-10-31T15:30:00Z,56.08,47.35,0.0,-1.0,250,8,,6.21,29.438976,,,,,,,,,,,OVC,1000,,,,,,,MVFR,,,,,,,,,,,,METAR,165.0
UWKE 311530Z 24007MPS 9999 BKN043 M00/M02 Q0997 R21/090070 NOSIG RMK QFE731/0975,UWKE,2022-10-31T15:30:00Z,55.57,52.08,0.0,-2.0,240,14,,6.21,29.438976,,,,,,TRUE,,,,,BKN,4300,,,,,,,VFR,,,,,,,,,,,,METAR,193.0
UWKD 311530Z 27005MPS 9999 OVC026 01/M02 Q0997 R29/290050 NOSIG RMK QFE737/0983,UWKD,2022-10-31T15:30:00Z,55.62,49.28,1.0,-2.0,270,10,,6.21,29.438976,,,,,,TRUE,,,,,OVC,2600,,,,,,,MVFR,,,,,,,,,,,,METAR,114.0
UWGG 311530Z 28003MPS 8000 -SN OVC005 00/00 Q0998 R36R/290050 NOSIG,UWGG,2022-10-31T15:30:00Z,56.23,43.78,0.0,0.0,280,6,,4.97,29.468504,,,,,,TRUE,,,,-SN,OVC,500,,,,,,,IFR,,,,,,,,,,,,METAR,73.0
UUYY 311530Z 01002MPS 9999 FEW011 BKN018CB 01/01 Q0999 R36/29//51 NOSIG RMK QFE740/0987,UUYY,2022-10-31T15:30:00Z,61.65,50.83,1.0,1.0,10,4,,6.21,29.498032,,,,,,TRUE,,,,,FEW,1100,BKN,1800,,,,,MVFR,,,,,,,,,,,,METAR,107.0
UUWW 311530Z 31008G14MPS 9999 BKN016 02/M02 Q1009 RMK WS R24 R24/190045 TEMPO 30010G17MPS,UUWW,2022-10-31T15:30:00Z,55.6,37.27,2.0,-2.0,310,16,27,6.21,29.793306,,,,,,,,,,,BKN,1600,,,,,,,MVFR,,,,,,,,,,,,METAR,195.0
UUOO 311530Z 31008MPS 9999 OVC045 02/M02 Q1009 R30/190060 NOSIG RMK QFE743,UUOO,2022-10-31T15:30:00Z,51.82,39.23,2.0,-2.0,310,16,,6.21,29.793306,,,,,,TRUE,,,,,OVC,4500,,,,,,,VFR,,,,,,,,,,,,METAR,154.0
UUOL 311530Z 30005MPS 9999 BKN028 02/M02 Q1007 R33/090060 NOSIG,UUOL,2022-10-31T15:30:00Z,52.7,39.53,2.0,-2.0,300,10,,6.21,29.734253,,,,,,TRUE,,,,,BKN,2800,,,,,,,MVFR,,,,,,,,,,,,METAR,176.0
UUOK 311530Z 31007MPS 9999 OVC041 03/M03 Q1013 R30/090060 NOSIG RMK QFE741/0989,UUOK,2022-10-31T15:30:00Z,51.75,36.28,3.0,-3.0,310,14,,6.21,29.911417,,,,,,TRUE,,,,,OVC,4100,,,,,,,VFR,,,,,,,,,,,,METAR,203.0
UUOB 311530Z 34006MPS 9999 BKN035 03/M03 Q1014 R29/010070 NOSIG,UUOB,2022-10-31T15:30:00Z,50.65,36.58,3.0,-3.0,340,12,,6.21,29.940945,,,,,,TRUE,,,,,BKN,3500,,,,,,,VFR,,,,,,,,,,,,METAR,218.0
UUMO 311530Z 32009G14MPS 9999 BKN018 03/M01 Q1008 R25/CLRD60 NOSIG RMK QFE741/0988,UUMO,2022-10-31T15:30:00Z,55.52,37.5,3.0,-1.0,320,17,27,6.21,29.763779,,,,,,TRUE,,,,,BKN,1800,,,,,,,MVFR,,,,,,,,,,,,METAR,167.0
UUEE 311530Z 31008G14MPS 9999 -SN SCT014 02/M00 Q1008 R24L/150051 R24C/150051 NOSIG,UUEE,2022-10-31T15:30:00Z,55.97,37.42,2.0,0.0,310,16,27,6.21,29.763779,,,,,,TRUE,,,,-SN,SCT,1400,,,,,,,VFR,,,,,,,,,,,,METAR,186.0
UUDL 311530Z 33005MPS 9999 -RA OVC009 02/02 Q1004 R23/290245 NOSIG RMK QFE745,UUDL,2022-10-31T15:30:00Z,57.57,40.17,2.0,2.0,330,10,,6.21,29.64567,,,,,,TRUE,,,,-RA,OVC,900,,,,,,,IFR,,,,,,,,,,,,METAR,88.0
UUDD 311530Z 33012MPS 9999 BKN019 03/M01 Q1007 R32L/190050 NOSIG,UUDD,2022-10-31T15:30:00Z,55.4,37.9,3.0,-1.0,330,23,,6.21,29.734253,,,,,,TRUE,,,,,BKN,1900,,,,,,,MVFR,,,,,,,,,,,,METAR,165.0
UUBW 311530Z 30010G15MPS 9999 BKN019 03/M00 Q1007 R30/010060 NOSIG,UUBW,2022-10-31T15:30:00Z,55.55,38.15,3.0,0.0,300,19,29,6.21,29.734253,,,,,,TRUE,,,,,BKN,1900,,,,,,,MVFR,,,,,,,,,,,,METAR,111.0
UUBP 311530Z AUTO 28004MPS 9999 ///033 01/M04 Q1015 RMK QFE743/0991,UUBP,2022-10-31T15:30:00Z,53.22,34.18,1.0,-4.0,280,8,,6.21,29.970472,,,TRUE,,,,,,,,,,,,,,,,,,,,,,,,,,,,METAR,197.0
UUBC 311530Z 30008MPS 9999 BKN035 03/M02 Q1010 R31/CLRD60 NOSIG RMK QFE741/0988,UUBC,2022-10-31T15:30:00Z,54.55,36.37,3.0,-2.0,300,16,,6.21,29.822834,,,,,,TRUE,,,,,BKN,3500,,,,,,,VFR,,,,,,,,,,,,METAR,198.0
UTTT 311530Z 06004KT 350V090 CAVOK 12/07 Q1022 R08L/CLRD70 NOSIG,UTTT,2022-10-31T15:30:00Z,41.27,69.27,12.0,7.0,60,4,,6.21,30.177166,,,,,,TRUE,,,,,CAVOK,,,,,,,,VFR,,,,,,,,,,,,METAR,429.0
UTST 311530Z 33004KT CAVOK 16/10 Q1019 R25/CLRD70 NOSIG,UTST,2022-10-31T15:30:00Z,37.28,67.32,16.0,10.0,330,4,,6.21,30.088583,,,,,,TRUE,,,,,CAVOK,,,,,,,,VFR,,,,,,,,,,,,METAR,311.0
UTSS 311530Z 14008KT 9999 NSC 11/08 Q1020 R09/70D NOSIG,UTSS,2022-10-31T15:30:00Z,39.7,66.98,11.0,8.0,140,8,,6.21,30.11811,,,,,,TRUE,,,,,CLR,,,,,,,,VFR,,,,,,,,,,,,METAR,665.0
UTSK 311530Z 04004KT CAVOK 15/04 Q1019 R16/CLRD70,UTSK,2022-10-31T15:30:00Z,38.8,65.77,15.0,4.0,40,4,,6.21,30.088583,,,,,,,,,,,CAVOK,,,,,,,,VFR,,,,,,,,,,,,METAR,399.0
UTSB 311530Z 03002KT CAVOK 11/04 Q1019 R01/CLRD70 NOSIG,UTSB,2022-10-31T15:30:00Z,39.77,64.48,11.0,4.0,30,2,,6.21,30.088583,,,,,,TRUE,,,,,CAVOK,,,,,,,,VFR,,,,,,,,,,,,METAR,225.0
UTSA 311530Z 08006KT 7000 NSC 09/02 Q1019 R07/CLRD70 NOSIG,UTSA,2022-10-31T15:30:00Z,40.12,65.17,9.0,2.0,80,6,,4.35,30.088583,,,,,,TRUE,,,,,CLR,,,,,,,,MVFR,,,,,,,,,,,,METAR,346.0
UTNU 311530Z 12006KT CAVOK 13/07 Q1017 R13/CLRD70 NOSIG,UTNU,2022-10-31T15:30:00Z,41.58,60.63,13.0,7.0,120,6,,6.21,30.029528,,,,,,TRUE,,,,,CAVOK,,,,,,,,VFR,,,,,,,,,,,,METAR,97.0
UTNN 311530Z 10004KT CAVOK 11/04 Q1017 R33/CLRD60 NOSIG,UTNN,2022-10-31T15:30:00Z,42.48,59.63,11.0,4.0,100,4,,6.21,30.029528,,,,,,TRUE,,,,,CAVOK,,,,,,,,VFR,,,,,,,,,,,,METAR,76.0
UTFN 311530Z 33004KT 7000 NSC 11/07 Q1024 R28/CLRD70 NOSIG,UTFN,2022-10-31T15:30:00Z,40.98,71.57,11.0,7.0,330,4,,4.35,30.236221,,,,,,TRUE,,,,,CLR,,,,,,,,MVFR,,,,,,,,,,,,METAR,477.0
UTFF 311530Z 16004KT 6000 NSC 09/07 Q1024 R18/CLRD70,UTFF,2022-10-31T15:30:00Z,40.37,71.73,9.0,7.0,160,4,,3.73,30.236221,,,,,,,,,,,CLR,,,,,,,,MVFR,,,,,,,,,,,,METAR,612.0
UTDT 311530Z VRB01MPS 8000 FEW130 15/13 Q1018 R35/////// RMK QFE724/0965,UTDT,2022-10-31T15:30:00Z,37.87,68.87,15.0,13.0,0,2,,4.97,30.059055,,,,,,,,,,,FEW,13000,,,,,,,MVFR,,,,,,,,,,,,METAR,443.0
UTDL 311530Z 08007MPS 9999 NSC 12/10 Q1022 R08/CLRD70 NOSIG RMK QFE727/0970,UTDL,2022-10-31T15:30:00Z,40.22,69.7,12.0,10.0,80,14,,6.21,30.177166,,,,,,TRUE,,,,,CLR,,,,,,,,VFR,,,,,,,,,,,,METAR,436.0
UTDK 311530Z 04003MPS 010V080 9999 NSC 16/12 Q1020 R01/09//70 RMK QFE707/0943,UTDK,2022-10-31T15:30:00Z,37.98,69.8,16.0,12.0,40,6,,6.21,30.11811,,,,,,,,,,,CLR,,,,,,,,VFR,,,,,,,,,,,,METAR,675.0
UTDD 311530Z 08004MPS 9999 BKN100 13/07 Q1021 R09/D NOSIG RMK QFE697/0930,UTDD,2022-10-31T15:30:00Z,38.53,68.82,13.0,7.0,80,8,,6.21,30.147638,,,,,,TRUE,,,,,BKN,10000,,,,,,,VFR,,,,,,,,,,,,METAR,785.0
USTR 311530Z 17006MPS 9999 SCT008 BKN023CB 01/M00 Q1007 R21/CLRD65 R12/CLRD65 TEMPO 2100 -SHSNRA SCT005 BKN016CB,USTR,2022-10-31T15:30:00Z,57.18,65.32,1.0,0.0,170,12,,6.21,29.734253,,,,,,,,,,,SCT,800,BKN,2300,,,,,MVFR,,,,,,,,,,,,METAR,93.0
USSS 311530Z 15005MPS 9999 OVC007 03/02 Q1001 R08R/290050 R08L/590232 TEMPO BKN005 RMK QFE731/0975,USSS,2022-10-31T15:30:00Z,56.75,60.78,3.0,2.0,150,10,,6.21,29.557087,,,,,,,,,,,OVC,700,,,,,,,IFR,,,,,,,,,,,,METAR,222.0
USRR 311530Z 16005MPS 130V200 CAVOK M03/M06 Q1013 R07/CLRD60 NOSIG RMK QFE755,USRR,2022-10-31T15:30:00Z,61.33,73.42,-3.0,-6.0,160,10,,6.21,29.911417,,,,,,TRUE,,,,,CAVOK,,,,,,,,VFR,,,,,,,,,,,,METAR,52.0
USPP 311530Z 12003MPS 100V160 9999 BKN005 OVC013 04/03 Q0996 R21/290250 TEMPO 1100 -RA BR BKN003 RMK QBB160 QFE736,USPP,2022-10-31T15:30:00Z,57.92,56.02,4.0,3.0,120,6,,6.21,29.409449,,,,,,,,,,,BKN,500,OVC,1300,,,,,IFR,,,,,,,,,,,,METAR,120.0
USNN 311530Z 17005MPS CAVOK M04/M06 Q1017 R21/0///65 NOSIG RMK QFE758,USNN,2022-10-31T15:30:00Z,60.95,76.48,-4.0,-6.0,170,10,,6.21,30.029528,,,,,,TRUE,,,,,CAVOK,,,,,,,,VFR,,,,,,,,,,,,METAR,52.0
USHH 311530Z 15005MPS 1700 R06/1700U SHSN BKN007CB M03/M03 Q1008 R06/010060 TEMPO 0500 +SHSN BKN003 OVC010CB,USHH,2022-10-31T15:30:00Z,61.03,69.08,-3.0,-3.0,150,10,,1.06,29.763779,,,,,,,,,,SHSN,BKN,700,,,,,,,IFR,,,,,,,,,,,,METAR,46.0
USDA 311530Z AUTO 20010MPS 9999 NCD M01/M02 Q0997 RMK QFE746/0995,USDA,2022-10-31T15:30:00Z,71.2,72.05,-1.0,-2.0,200,19,,6.21,29.438976,,,TRUE,,,,,,,,CLR,,,,,,,,VFR,,,,,,,,,,,,METAR,5.0
USCM 311530Z 15008MPS 0400 R18/1000U DZ FG VV001 05/05 Q1000 R18/290055 TEMPO 15013MPS RMK QBB030 QFE713,USCM,2022-10-31T15:30:00Z,53.4,58.75,5.0,5.0,150,16,,0.25,29.52756,,,,,,,,,,DZ FG,OVX,0,,,,,,,LIFR,,,,,,,,,,,100,METAR,425.0
USCC 311530Z 16005MPS 4400 BR FU OVC004 03/03 Q1003 R09/290042 TEMPO 1200 BR OVC002 RMK QBB120 QFE732,USCC,2022-10-31T15:30:00Z,55.3,61.5,3.0,3.0,160,10,,2.73,29.616142,,,,,,,,,,BR FU,OVC,400,,,,,,,LIFR,,,,,,,,,,,,METAR,227.0
URWW 311530Z 31005MPS CAVOK 02/M01 Q1004 R24/290051 TEMPO 1000 SHSN BKN003 BKN016CB,URWW,2022-10-31T15:30:00Z,48.78,44.33,2.0,-1.0,310,10,,6.21,29.64567,,,,,,,,,,,CAVOK,,,,,,,,VFR,,,,,,,,,,,,METAR,131.0
URWI 311530Z AUTO 32006MPS 9999 // ///018/// 05/02 Q1006,URWI,2022-10-31T15:30:00Z,46.37,44.33,5.0,2.0,320,12,,6.21,29.704725,,,TRUE,,,,,,,,,,,,,,,,,,,,,,,,,,,,METAR,145.0
URWA 311530Z 27006MPS 9999 BKN041 10/08 Q1005 R27/290055 NOSIG RMK QFE755/1007,URWA,2022-10-31T15:30:00Z,46.28,47.98,10.0,8.0,270,12,,6.21,29.675198,,,,,,TRUE,,,,,BKN,4100,,,,,,,VFR,,,,,,,,,,,,METAR,-19.0
URSS 311530Z 13004MPS 9999 -SHRA OVC040CB 13/10 Q1015 WS ALL RWY R02/290060 R06/290060 NOSIG RMK R06/14004G07MPS MT OBSC QFE760,URSS,2022-10-31T15:30:00Z,43.45,39.92,13.0,10.0,130,8,,6.21,29.970472,,,,,,TRUE,,,,-SHRA,OVC,4000,,,,,,,VFR,,,,,,,,,,,,METAR,4.0
URRP 311530Z 35006MPS 9999 FEW/// SCT064CB 03/M00 Q1011 R05/290053 TEMPO 33013G18MPS 0800 +SHRA SCT003 BKN020CB RMK QFE754/1005,URRP,2022-10-31T15:30:00Z,47.5,39.92,3.0,0.0,350,12,,6.21,29.852362,,,,,,,,,,,SCT,6400,,,,,,,VFR,,,,,,,,,,,,METAR,73.0
URMT 311530Z 30010G17MPS 6000 -SHRA SCT013 BKN025CB 09/07 Q1008 R25/290155 NOSIG RMK QFE717,URMT,2022-10-31T15:30:00Z,45.12,42.12,9.0,7.0,300,19,33,3.73,29.763779,,,,,,TRUE,,,,-SHRA,SCT,1300,BKN,2500,,,,,MVFR,,,,,,,,,,,,METAR,448.0
URMO 311530Z 08003MPS 9999 SCT130 09/05 Q1008 R09/010070 NOSIG RMK QFE712/0950,URMO,2022-10-31T15:30:00Z,43.2,44.6,9.0,5.0,80,6,,6.21,29.763779,,,,,,TRUE,,,,,SCT,13000,,,,,,,VFR,,,,,,,,,,,,METAR,505.0
URMM 311530Z 30007MPS 9999 -SHRA BKN025CB 12/08 Q1009 R30/290150 NOSIG RMK QFE729/0972,URMM,2022-10-31T15:30:00Z,44.22,43.07,12.0,8.0,300,14,,6.21,29.793306,,,,,,TRUE,,,,-SHRA,BKN,2500,,,,,,,MVFR,,,,,,,,,,,,METAR,318.0
URML 311530Z 19003MPS 9999 NSC 10/07 Q1008 R14/01//70 NOSIG RMK QFE756/1008,URML,2022-10-31T15:30:00Z,42.82,47.65,10.0,7.0,190,6,,6.21,29.763779,,,,,,TRUE,,,,,CLR,,,,,,,,VFR,,,,,,,,,,,,METAR,4.0
URMG 311530Z 07004MPS CAVOK 13/06 Q1007 R08/090070 NOSIG RMK QFE741/0988,URMG,2022-10-31T15:30:00Z,43.38,45.7,13.0,6.0,70,8,,6.21,29.734253,,,,,,TRUE,,,,,CAVOK,,,,,,,,VFR,,,,,,,,,,,,METAR,160.0
URKK 311530Z 28009MPS 9999 BKN024CB 12/07 Q1014 R23L/CLRD70 TEMPO 29012G19MPS RMK QFE757,URKK,2022-10-31T15:30:00Z,45.03,39.15,12.0,7.0,280,17,,6.21,29.940945,,,,,,,,,,,BKN,2400,,,,,,,MVFR,,,,,,,,,,,,METAR,29.0
URKA 311530Z 33006MPS 9999 SCT059 11/07 Q1015 R22/010070 TEMPO 34010G17MPS RMK QFE756/1008,URKA,2022-10-31T15:30:00Z,45.0,37.35,11.0,7.0,330,12,,6.21,29.970472,,,,,,,,,,,SCT,5900,,,,,,,VFR,,,,,,,,,,,,METAR,41.0
UNWW 311530Z 28002MPS 8000 SCT040CB 00/M01 Q1020 R19/290250 NOSIG RMK QFE738,UNWW,2022-10-31T15:30:00Z,53.82,86.88,0.0,-1.0,280,4,,4.97,30.11811,,,,,,TRUE,,,,,SCT,4000,,,,,,,MVFR,,,,,,,,,,,,METAR,307.0
UNTT 311530Z 08001MPS CAVOK M06/M07 Q1020 R21/////// NOSIG RMK QFE750,UNTT,2022-10-31T15:30:00Z,56.38,85.22,-6.0,-7.0,80,2,,6.21,30.11811,,,,,,TRUE,,,,,CAVOK,,,,,,,,VFR,,,,,,,,,,,,METAR,179.0
UNOO 311530Z 17003MPS 3600 BR BKN002 M04/M04 Q1020 R25/190055 NOSIG RMK QBB060 OBST OBSC QFE757,UNOO,2022-10-31T15:30:00Z,54.97,73.32,-4.0,-4.0,170,6,,2.24,30.11811,,,,,,TRUE,,,,BR,BKN,200,,,,,,,LIFR,,,,,,,,,,,,METAR,85.0
UNNT 311530Z 35001MPS 9999 SCT012 BKN045 M01/M05 Q1020 R25/150060 R16/150060 NOSIG RMK QFE755/1007,UNNT,2022-10-31T15:30:00Z,55.02,82.65,-1.0,-5.0,350,2,,6.21,30.11811,,,,,,TRUE,,,,,SCT,1200,BKN,4500,,,,,VFR,,,,,,,,,,,,METAR,106.0
UNKL 311530Z 00000MPS CAVOK M09/M10 Q1024 R11/CLRD65 NOSIG RMK QFE742,UNKL,2022-10-31T15:30:00Z,56.17,92.48,-9.0,-10.0,0,0,,6.21,30.236221,,,,,,TRUE,,,,,CAVOK,,,,,,,,VFR,,,,,,,,,,,,METAR,278.0
UNEE 311530Z 12003MPS CAVOK M01/M05 Q1020 R23/120155 NOSIG RMK QFE742,UNEE,2022-10-31T15:30:00Z,55.27,86.1,-1.0,-5.0,120,6,,6.21,30.11811,,,,,,TRUE,,,,,CAVOK,,,,,,,,VFR,,,,,,,,,,,,METAR,261.0
UNBB 311530Z 23004MPS 9999 SCT007 BKN017 00/M01 Q1020 R24/290245 NOSIG RMK QFE742,UNBB,2022-10-31T15:30:00Z,53.37,83.53,0.0,-1.0,230,8,,6.21,30.11811,,,,,,TRUE,,,,,SCT,700,BKN,1700,,,,,MVFR,,,,,,,,,,,,METAR,249.0
UNAA 311530Z 27001MPS 8000 NSC M03/M06 Q1024 R02/150060 NOSIG RMK QFE745,UNAA,2022-10-31T15:30:00Z,53.75,91.4,-3.0,-6.0,270,2,,4.97,30.236221,,,,,,TRUE,,,,,CLR,,,,,,,,MVFR,,,,,,,,,,,,METAR,249.0
UMMS 311530Z 30003MPS CAVOK 04/M01 Q1020 NOSIG,UMMS,2022-10-31T15:30:00Z,53.88,28.03,4.0,-1.0,300,6,,6.21,30.11811,,,,,,TRUE,,,,,CAVOK,,,,,,,,VFR,,,,,,,,,,,,METAR,196.0
UMKK 311530Z 12002MPS 9000 BKN016 11/10 Q1020 R24/CLRD95 NOSIG RMK QFE764/1018,UMKK,2022-10-31T15:30:00Z,54.88,20.57,11.0,10.0,120,4,,5.59,30.11811,,,,,,TRUE,,,,,BKN,1600,,,,,,,MVFR,,,,,,,,,,,,METAR,6.0
UMIO 311530Z 31002MPS CAVOK 02/M03 Q1018 NOSIG RMK QFE746/0995,UMIO,2022-10-31T15:30:00Z,54.43,30.3,2.0,-3.0,310,4,,6.21,30.059055,,,,,,TRUE,,,,,CAVOK,,,,,,,,VFR,,,,,,,,,,,,METAR,189.0
UMGG 311530Z 31004MPS CAVOK 04/M03 Q1018 NOSIG,UMGG,2022-10-31T15:30:00Z,52.53,31.02,4.0,-3.0,310,8,,6.21,30.059055,,,,,,TRUE,,,,,CAVOK,,,,,,,,VFR,,,,,,,,,,,,METAR,135.0
ULWC 311530Z 32002G07MPS 9000 -SHRA BKN008 OVC016CB 01/00 Q1009 R21/690150 NOSIG RMK QFE747/0996,ULWC,2022-10-31T15:30:00Z,59.28,38.02,1.0,0.0,320,4,14,5.59,29.793306,,,,,,TRUE,,,,-SHRA,BKN,800,OVC,1600,,,,,IFR,,,,,,,,,,,,METAR,113.0
ULPB 311530Z 25002MPS 230V290 CAVOK M01/M04 Q1015 R19/190055 NOSIG RMK QFE757/1010,ULPB,2022-10-31T15:30:00Z,61.88,34.15,-1.0,-4.0,250,4,,6.21,29.970472,,,,,,TRUE,,,,,CAVOK,,,,,,,,VFR,,,,,,,,,,,,METAR,41.0
ULOO 311530Z 30001MPS CAVOK 04/M00 Q1019 R01/090060 NOSIG RMK QFE760,ULOO,2022-10-31T15:30:00Z,57.78,28.4,4.0,0.0,300,2,,6.21,30.088583,,,,,,TRUE,,,,,CAVOK,,,,,,,,VFR,,,,,,,,,,,,METAR,46.0
ULMM 311530Z 00000MPS 9999 BKN008 00/00 Q1010 R31/690153 NOSIG RMK OBST OBSC QFE750,ULMM,2022-10-31T15:30:00Z,68.78,32.75,0.0,0.0,0,0,,6.21,29.822834,,,,,,TRUE,,,,,BKN,800,,,,,,,IFR,,,,,,,,,,,,METAR,79.0
ULLI 311530Z 27002MPS CAVOK 01/M05 Q1017 R88/090060 NOSIG,ULLI,2022-10-31T15:30:00Z,59.8,30.27,1.0,-5.0,270,4,,6.21,30.029528,,,,,,TRUE,,,,,CAVOK,,,,,,,,VFR,,,,,,,,,,,,METAR,25.0
ULAA 311530Z 33002MPS 300V010 9999 BKN021 02/00 Q1008 R26/190065 NOSIG RMK QFE755/1006,ULAA,2022-10-31T15:30:00Z,64.6,40.72,2.0,0.0,330,4,,6.21,29.763779,,,,,,TRUE,,,,,BKN,2100,,,,,,,MVFR,,,,,,,,,,,,METAR,10.0
UIUU 311530Z VRB01MPS 9999 NSC M11/M14 Q1025 R26/CLRD60 NOSIG RMK QFE724/0966,UIUU,2022-10-31T15:30:00Z,51.8,107.45,-11.0,-14.0,0,2,,6.21,30.265747,,,,,,TRUE,,,,,CLR,,,,,,,,VFR,,,,,,,,,,,,METAR,508.0
UIII 311530Z 07002MPS 030V110 9999 OVC029 M09/M11 Q1025 R12/CLRD60 NOSIG RMK QFE726/0969,UIII,2022-10-31T15:30:00Z,52.27,104.37,-9.0,-11.0,70,4,,6.21,30.265747,,,,,,TRUE,,,,,OVC,2900,,,,,,,MVFR,,,,,,,,,,,,METAR,480.0
UIBB 311530Z AUTO 06002MPS 9999 // NSC M11/M14 Q1027 RMK QFE727/0969,UIBB,2022-10-31T15:30:00Z,56.37,101.7,-11.0,-14.0,60,4,,6.21,30.324802,,,TRUE,,,,,,,,CLR,,,,,,,,VFR,,,,,,,,,,,,METAR,485.0
UIAA 311530Z AUTO 29004MPS 9999 NCD M09/M15 Q1020 RMK QFE706/0942,UIAA,2022-10-31T15:30:00Z,52.02,113.32,-9.0,-15.0,290,8,,6.21,30.11811,,,TRUE,,,,,,,,CLR,,,,,,,,VFR,,,,,,,,,,,,METAR,650.0
UHWW 311530Z 13004MPS 9999 -SHRA SCT010 BKN030CB 09/08 Q1021 R25L/290060 NOSIG RMK QFE765,UHWW,2022-10-31T15:30:00Z,43.4,132.15,9.0,8.0,130,8,,6.21,30.147638,,,,,,TRUE,,,,-SHRA,SCT,1000,BKN,3000,,,,,MVFR,,,,,,,,,,,,METAR,11.0
UHSS 311530Z 13003MPS 9999 BKN009 BKN026 07/06 Q1026 R19/70D NOSIG RMK MT OBSC QFE768/1024,UHSS,2022-10-31T15:30:00Z,46.88,142.72,7.0,6.0,130,6,,6.21,30.295275,,,,,,TRUE,,,,,BKN,900,BKN,2600,,,,,IFR,,,,,,,,,,,,METAR,14.0
UHHH 311530Z 16003MPS 9999 -SHRA SCT024CB 05/03 Q1017 R23R/290045 NOSIG RMK QFE757/1009,UHHH,2022-10-31T15:30:00Z,48.52,135.18,5.0,3.0,160,6,,6.21,30.029528,,,,,,TRUE,,,,-SHRA,SCT,2400,,,,,,,VFR,,,,,,,,,,,,METAR,74.0
UGTB 311530Z 30017KT CAVOK 15/02 Q1013 NOSIG,UGTB,2022-10-31T15:30:00Z,41.67,44.95,15.0,2.0,300,17,,6.21,29.911417,,,,,,TRUE,,,,,CAVOK,,,,,,,,VFR,,,,,,,,,,,,METAR,468.0
UGSB 311530Z 14006KT 9999 -SHRA SCT025 BKN052 14/11 Q1017 NOSIG,UGSB,2022-10-31T15:30:00Z,41.62,41.6,14.0,11.0,140,6,,6.21,30.029528,,,,,,TRUE,,,,-SHRA,SCT,2500,BKN,5200,,,,,VFR,,,,,,,,,,,,METAR,32.0
UGMS 311530Z AUTO VRB01KT //// ////// 02/02 Q1018,UGMS,2022-10-31T15:30:00Z,43.05,42.75,2.0,2.0,0,1,,,30.059055,,,TRUE,,,,,,,,,,,,,,,,,,,,,,,,,,,,METAR,1442.0
UGKO 311530Z 27004KT 250V330 9999 -RA SCT033 OVC054 13/11 Q1016 NOSIG,UGKO,2022-10-31T15:30:00Z,42.18,42.48,13.0,11.0,270,4,,6.21,30.0,,,,,,TRUE,,,,-RA,SCT,3300,OVC,5400,,,,,VFR,,,,,,,,,,,,METAR,44.0
UGAM 311530Z AUTO 10003KT 060V170 //// ////// 09/09 Q1017,UGAM,2022-10-31T15:30:00Z,42.53,43.13,9.0,9.0,100,3,,,30.029528,,,TRUE,,,,,,,,,,,,,,,,,,,,,,,,,,,,METAR,544.0
UEEE 311530Z 32003MPS 9999 FEW050CB M16/M18 Q1019 R23L/450155 NOSIG RMK QFE756,UEEE,2022-10-31T15:30:00Z,62.08,129.77,-16.0,-18.0,320,6,,6.21,30.088583,,,,,,TRUE,,,,,FEW,5000,,,,,,,VFR,,,,,,,,,,,,METAR,106.0
UDYZ 311530Z 02003KT 9999 NSC 12/01 Q1013 R09/010070 NOSIG,UDYZ,2022-10-31T15:30:00Z,40.15,44.4,12.0,1.0,20,3,,6.21,29.911417,,,,,,TRUE,,,,,CLR,,,,,,,,VFR,,,,,,,,,,,,METAR,851.0
UDSG 311530Z 27007KT 9999 FEW049 09/M01 Q1015 R02/CLRD70 NOSIG,UDSG,2022-10-31T15:30:00Z,40.75,43.87,9.0,-1.0,270,7,,6.21,29.970472,,,,,,TRUE,,,,,FEW,4900,,,,,,,VFR,,,,,,,,,,,,METAR,1515.0
UCFO 311530Z VRB01MPS 2100 BR FU NSC 08/06 Q1024 R12/0///95 NOSIG,UCFO,2022-10-31T15:30:00Z,40.6,72.8,8.0,6.0,0,2,,1.3,30.236221,,,,,,TRUE,,,,BR FU,CLR,,,,,,,,IFR,,,,,,,,,,,,METAR,881.0
UCFM 311530Z 10002MPS 9999 3700E BR NSC 04/03 Q1024 R08/0///95 NOSIG,UCFM,2022-10-31T15:30:00Z,43.07,74.48,4.0,3.0,100,4,,6.21,30.236221,,,,,,TRUE,,,,BR,CLR,,,,,,,,VFR,,,,,,,,,,,,METAR,632.0
UBBZ 311530Z AUTO 33006KT 9999 // ///////// 16/07 Q1012,UBBZ,2022-10-31T15:30:00Z,,,16.0,7.0,330,6,,6.21,29.88189,,,TRUE,,,,,,,,,,,,,,,,,,,,,,,,,,,,METAR,
UBBN 311530Z VRB02KT 9999 FEW046 BKN100 14/05 Q1012 NOSIG RMK MT OP QFE684,UBBN,2022-10-31T15:30:00Z,39.18,45.45,14.0,5.0,0,2,,6.21,29.88189,,,,,,TRUE,,,,,FEW,4600,BKN,10000,,,,,VFR,,,,,,,,,,,,SPECI,857.0
UBBG 311530Z 21006KT 9999 FEW100 14/00 Q1011 NOSIG,UBBG,2022-10-31T15:30:00Z,40.73,46.32,14.0,0.0,210,6,,6.21,29.852362,,,,,,TRUE,,,,,FEW,10000,,,,,,,VFR,,,,,,,,,,,,METAR,333.0
UBBF 311530Z AUTO 30008KT 9999 // NSC 13/06 Q1011,UBBF,2022-10-31T15:30:00Z,39.6,47.2,13.0,6.0,300,8,,6.21,29.852362,,,TRUE,,,,,,,,CLR,,,,,,,,VFR,,,,,,,,,,,,METAR,370.0
UBBB 311530Z 25004KT CAVOK 15/11 Q1010 NOSIG,UBBB,2022-10-31T15:30:00Z,40.47,50.07,15.0,11.0,250,4,,6.21,29.822834,,,,,,TRUE,,,,,CAVOK,,,,,,,,VFR,,,,,,,,,,,,METAR,94.0
UAUU 311530Z 14008MPS 9999 BKN004 OVC033 01/01 Q1009 NOSIG RMK QBB130 QFE741/0988,UAUU,2022-10-31T15:30:00Z,53.2,63.55,1.0,1.0,140,16,,6.21,29.793306,,,,,,TRUE,,,,,BKN,400,OVC,3300,,,,,LIFR,,,,,,,,,,,,METAR,177.0
UATT 311530Z 18007MPS 9999 SCT014CB OVC031 09/08 Q1003 NOSIG RMK QFE733/0977,UATT,2022-10-31T15:30:00Z,50.25,57.2,9.0,8.0,180,14,,6.21,29.616142,,,,,,TRUE,,,,,SCT,1400,OVC,3100,,,,,VFR,,,,,,,,,,,,METAR,217.0
UATE 311530Z VRB01MPS CAVOK 14/10 Q1008 NOSIG RMK QFE754/1006,UATE,2022-10-31T15:30:00Z,43.87,51.1,14.0,10.0,0,2,,6.21,29.763779,,,,,,TRUE,,,,,CAVOK,,,,,,,,VFR,,,,,,,,,,,,METAR,21.0
UASP 311530Z 18002MPS 9999 BKN034 00/M03 Q1023 NOSIG RMK QFE756/1008,UASP,2022-10-31T15:30:00Z,52.2,77.07,0.0,-3.0,180,4,,6.21,30.206694,,,,,,TRUE,,,,,BKN,3400,,,,,,,VFR,,,,,,,,,,,,METAR,122.0
UARR 311530Z 23004MPS 9000 -SHRA OVC014CB 04/03 Q1000 TEMPO 0500 FG VV003 RMK QFE746/0995,UARR,2022-10-31T15:30:00Z,51.15,51.53,4.0,3.0,230,8,,5.59,29.52756,,,,,,,,,,-SHRA,OVC,1400,,,,,,,MVFR,,,,,,,,,,,,METAR,33.0
UAKK 311530Z 22002MPS 9999 BKN009 BKN020 02/01 Q1023 NOSIG RMK QFE720/0960,UAKK,2022-10-31T15:30:00Z,49.68,73.35,2.0,1.0,220,4,,6.21,30.206694,,,,,,TRUE,,,,,BKN,900,BKN,2000,,,,,IFR,,,,,,,,,,,,METAR,532.0
UAKD 311530Z 19006MPS 9999 OVC016 03/M01 Q1022 NOSIG RMK QFE733/0978,UAKD,2022-10-31T15:30:00Z,47.7,67.73,3.0,-1.0,190,12,,6.21,30.177166,,,,,,TRUE,,,,,OVC,1600,,,,,,,MVFR,,,,,,,,,,,,METAR,379.0
UAIT 311530Z 07004MPS CAVOK 06/04 Q1023 NOSIG RMK QFE742/0990,UAIT,2022-10-31T15:30:00Z,43.32,68.55,6.0,4.0,70,8,,6.21,30.206694,,,,,,TRUE,,,,,CAVOK,,,,,,,,VFR,,,,,,,,,,,,METAR,301.0
UAII 311530Z 07002MPS CAVOK 09/05 Q1022 NOSIG RMK QFE731/0975,UAII,2022-10-31T15:30:00Z,42.37,69.48,9.0,5.0,70,4,,6.21,30.177166,,,,,,TRUE,,,,,CAVOK,,,,,,,,VFR,,,,,,,,,,,,METAR,410.0
UADD 311530Z 00000MPS 9999 NSC 06/04 Q1023 NOSIG RMK QFE710/0947,UADD,2022-10-31T15:30:00Z,42.85,71.3,6.0,4.0,0,0,,6.21,30.206694,,,,,,TRUE,,,,,CLR,,,,,,,,VFR,,,,,,,,,,,,METAR,663.0
UACK 311530Z 17005MPS CAVOK M04/M07 Q1017 NOSIG RMK QFE739/0986,UACK,2022-10-31T15:30:00Z,53.32,69.58,-4.0,-7.0,170,10,,6.21,30.029528,,,,,,TRUE,,,,,CAVOK,,,,,,,,VFR,,,,,,,,,,,,METAR,261.0
UACC 311530Z 18004MPS CAVOK M01/M02 Q1021 NOSIG RMK QFE734/0979,UACC,2022-10-31T15:30:00Z,51.02,71.47,-1.0,-2.0,180,8,,6.21,30.147638,,,,,,TRUE,,,,,CAVOK,,,,,,,,VFR,,,,,,,,,,,,METAR,354.0
UAAA 311530Z 00000MPS 5000 BR SCT050CB BKN100 06/0 Q1024 NOSIG,UAAA,2022-10-31T15:30:00Z,43.35,77.03,6.0,,0,0,,3.11,30.236221,,,,,,TRUE,,,,BR,SCT,5000,BKN,10000,,,,,MVFR,,,,,,,,,,,,METAR,673.0
TFFR 311530Z AUTO 13015KT 9999 BKN027 BKN034 30/24 Q1013,TFFR,2022-10-31T15:30:00Z,16.27,-61.53,30.0,24.0,130,15,,6.21,29.911417,,,TRUE,,,,,,,,BKN,2700,BKN,3400,,,,,MVFR,,,,,,,,,,,,METAR,6.0
TFFF 311530Z AUTO 12017KT 9999 SCT028 31/26 Q1013,TFFF,2022-10-31T15:30:00Z,14.6,-61.0,31.0,26.0,120,17,,6.21,29.911417,,,TRUE,,,,,,,,SCT,2800,,,,,,,VFR,,,,,,,,,,,,METAR,3.0
SPZO 311530Z VRB04KT 9999 NSC 19/00 Q1028 NOSIG RMK BIRD HAZARD RWY 10/28,SPZO,2022-10-31T15:30:00Z,-13.55,-71.93,19.0,0.0,0,4,,6.21,30.35433,,,,,,TRUE,,,,,CLR,,,,,,,,VFR,,,,,,,,,,,,SPECI,3249.0
SPJR 311530Z VRB03KT CAVOK 21/M04 Q1026,SPJR,2022-10-31T15:30:00Z,-7.13,-78.48,21.0,-4.0,0,3,,6.21,30.295275,,,,,,,,,,,CAVOK,,,,,,,,VFR,,,,,,,,,,,,METAR,2622.0
SOCA 311530Z AUTO 05012KT 9999 BKN023 BKN037 BKN044 31/25 Q1012 TEMPO 3000 SHRA BKN020TCU,SOCA,2022-10-31T15:30:00Z,4.82,-52.37,31.0,25.0,50,12,,6.21,29.88189,,,TRUE,,,,,,,,BKN,2300,BKN,3700,BKN,4400,,,MVFR,,,,,,,,,,,,METAR,7.0
SBRP 311530Z 24010G20KT 9999 TS VCSH SCT027 FEW030CB OVC080 25/20 Q1010,SBRP,2022-10-31T15:30:00Z,-21.13,-47.77,25.0,20.0,240,10,20,6.21,29.822834,,,,,,,,,,TS VCSH,SCT,2700,FEW,3000,OVC,8000,,,VFR,,,,,,,,,,,,SPECI,550.0
SBPP 311530Z 18020KT 9999 OVC005 14/14 Q1016,SBPP,2022-10-31T15:30:00Z,-22.55,-55.7,14.0,14.0,180,20,,6.21,30.0,,,,,,,,,,,OVC,500,,,,,,,IFR,,,,,,,,,,,,SPECI,650.0
ROAH 311530Z AUTO 02013KT 9999 -RA FEW042 SCT045 BKN050 24/21 Q1011 RMK A2986,ROAH,2022-10-31T15:30:00Z,26.18,127.65,24.0,21.0,20,13,,6.21,29.852362,,,TRUE,,,,,,,-RA,FEW,4200,SCT,4500,BKN,5000,,,VFR,,,,,,,,,,,,METAR,6.0
RKSI 311530Z 31004KT 9000 NSC 13/11 Q1023 NOSIG,RKSI,2022-10-31T15:30:00Z,37.47,126.45,13.0,11.0,310,4,,5.59,30.206694,,,,,,TRUE,,,,,CLR,,,,,,,,VFR,,,,,,,,,,,,METAR,7.0
RJTT 311530Z 36010KT 9999 FEW030 SCT/// 15/10 Q1025 NOSIG RMK 1CU030 A3027,RJTT,2022-10-31T15:30:00Z,35.55,139.77,15.0,10.0,360,10,,6.21,30.265747,,,,,,TRUE,,,,,FEW,3000,,,,,,,VFR,,,,,,,,,,,,METAR,5.0
RJGG 311530Z AUTO 09008KT 9999 FEW037 BKN048 OVC050 18/07 Q1023 NOSIG,RJGG,2022-10-31T15:30:00Z,34.87,136.8,18.0,7.0,90,8,,6.21,30.206694,,,TRUE,,,TRUE,,,,,FEW,3700,BKN,4800,OVC,5000,,,VFR,,,,,,,,,,,,METAR,5.0
RJFF 311530Z AUTO 13003KT 9999 NSC 14/11 Q1020 NOSIG RMK A3012,RJFF,2022-10-31T15:30:00Z,33.58,130.45,14.0,11.0,130,3,,6.21,30.11811,,,TRUE,,,TRUE,,,,,CLR,,,,,,,,VFR,,,,,,,,,,,,METAR,7.0
RJCC 311530Z 13005KT 9999 FEW020 SCT030 BKN050 10/08 Q1027 RMK 1CU020 3CU030 7CU050 A3033,RJCC,2022-10-31T15:30:00Z,42.77,141.68,10.0,8.0,130,5,,6.21,30.324802,,,,,,,,,,,FEW,2000,SCT,3000,BKN,5000,,,VFR,,,,,,,,,,,,METAR,19.0
RJBB 311530Z AUTO 07007KT 9999 NSC 18/13 Q1020 NOSIG,RJBB,2022-10-31T15:30:00Z,34.43,135.25,18.0,13.0,70,7,,6.21,30.11811,,,TRUE,,,TRUE,,,,,CLR,,,,,,,,VFR,,,,,,,,,,,,METAR,8.0
RJAA 311530Z AUTO 36008KT 9999 NCD 12/09 Q1024 NOSIG RMK A3026,RJAA,2022-10-31T15:30:00Z,35.77,140.38,12.0,9.0,360,8,,6.21,30.236221,,,TRUE,,,TRUE,,,,,CLR,,,,,,,,VFR,,,,,,,,,,,,METAR,36.0
RCTP 311530Z 08013KT 5000 RA FEW005 BKN012 BKN030 19/19 Q1014 NOSIG RMK A2996,RCTP,2022-10-31T15:30:00Z,25.07,121.22,19.0,19.0,80,13,,3.11,29.940945,,,,,,TRUE,,,,RA,FEW,500,BKN,1200,BKN,3000,,,MVFR,,,,,,,,,,,,METAR,33.0
RCSS 311530Z 13003KT 100V160 6000 -RA FEW010 BKN018 BKN030 20/19 Q1014 NOSIG RMK A2997,RCSS,2022-10-31T15:30:00Z,25.07,121.55,20.0,19.0,130,3,,3.73,29.940945,,,,,,TRUE,,,,-RA,FEW,1000,BKN,1800,BKN,3000,,,MVFR,,,,,,,,,,,,METAR,8.0
RCNN 311530Z 01014KT 9000 -RA FEW008 BKN020 BKN040 21/19 Q1005 RMK A2969,RCNN,2022-10-31T15:30:00Z,22.93,120.2,21.0,19.0,10,14,,5.59,29.675198,,,,,,,,,,-RA,FEW,800,BKN,2000,BKN,4000,,,MVFR,,,,,,,,,,,,METAR,15.0
RCKH 311530Z 36007KT 320V040 5000 -RA FEW008 SCT015 BKN050 22/21 Q1005 NOSIG RMK A2969,RCKH,2022-10-31T15:30:00Z,22.57,120.33,22.0,21.0,360,7,,3.11,29.675198,,,,,,TRUE,,,,-RA,FEW,800,SCT,1500,BKN,5000,,,MVFR,,,,,,,,,,,,METAR,6.0
OTBD 311530Z AUTO 14006KT CAVOK 30/22 Q1014 NOSIG,OTBD,2022-10-31T15:30:00Z,25.25,51.57,30.0,22.0,140,6,,6.21,29.940945,,,TRUE,,,TRUE,,,,,CAVOK,,,,,,,,VFR,,,,,,,,,,,,METAR,13.0
OPPS 311530Z 23004KT 1800 HZ FEW030TCU SCT040 SCT100 21/16 Q101 6,OPPS,2022-10-31T15:30:00Z,33.98,71.52,21.0,16.0,230,4,,1.12,,,,,,,,,,,HZ,FEW,3000,SCT,4000,SCT,10000,,,IFR,,,,,,,,,,,,SPECI,356.0
OPMT 311530Z 00000KT 2500 FU NSC 27/19 Q1011 NOSIG,OPMT,2022-10-31T15:30:00Z,30.2,71.42,27.0,19.0,0,0,,1.55,29.852362,,,,,,TRUE,,,,FU,CLR,,,,,,,,IFR,,,,,,,,,,,,METAR,122.0
OIYY 311530Z 22004KT 9999 SCT100 23/02 Q1019,OIYY,2022-10-31T15:30:00Z,31.9,54.28,23.0,2.0,220,4,,6.21,30.088583,,,,,,,,,,,SCT,10000,,,,,,,VFR,,,,,,,,,,,,METAR,1226.0
OITT 311530Z VRB02KT 9999 FEW032 13/05 Q1016 A3002,OITT,2022-10-31T15:30:00Z,38.13,46.23,13.0,5.0,0,2,,6.21,30.0,,,,,,,,,,,FEW,3200,,,,,,,VFR,,,,,,,,,,,,METAR,1353.0
OISS 311530Z 29004KT 7000 NSC 21/07 Q1021 A3018,OISS,2022-10-31T15:30:00Z,29.53,52.58,21.0,7.0,290,4,,4.35,30.147638,,,,,,,,,,,CLR,,,,,,,,MVFR,,,,,,,,,,,,METAR,1484.0
OIMM 311530Z 21004KT CAVOK 16/08 Q1018 A3007,OIMM,2022-10-31T15:30:00Z,36.23,59.63,16.0,8.0,210,4,,6.21,30.059055,,,,,,,,,,,CAVOK,,,,,,,,VFR,,,,,,,,,,,,METAR,995.0
OIKB 311530Z 24004KT 6000 NSC 29/22 Q1013 A2994,OIKB,2022-10-31T15:30:00Z,27.22,56.37,29.0,22.0,240,4,,3.73,29.911417,,,,,,,,,,,CLR,,,,,,,,MVFR,,,,,,,,,,,,METAR,6.0
OIII 311530Z 27010KT 9999 FEW035CB SCT100 21/02 Q1017 A3005,OIII,2022-10-31T15:30:00Z,35.68,51.3,21.0,2.0,270,10,,6.21,30.029528,,,,,,,,,,,FEW,3500,SCT,10000,,,,,VFR,,,,,,,,,,,,METAR,1182.0
OIIE 311530Z 28010KT 9999 FEW040 SCT200 20/04 Q1017,OIIE,2022-10-31T15:30:00Z,35.42,51.15,20.0,4.0,280,10,,6.21,30.029528,,,,,,,,,,,FEW,4000,SCT,20000,,,,,VFR,,,,,,,,,,,,METAR,993.0
OIGG 311530Z 25004KT 8000 FEW090 BKN180 17/16 Q1010,OIGG,2022-10-31T15:30:00Z,37.33,49.6,17.0,16.0,250,4,,4.97,29.822834,,,,,,,,,,,FEW,9000,BKN,18000,,,,,MVFR,,,,,,,,,,,,METAR,-16.0
OIFM 311530Z 16004KT CAVOK 19/M00 Q1021 A3015,OIFM,2022-10-31T15:30:00Z,32.75,51.87,19.0,0.0,160,4,,6.21,30.147638,,,,,,,,,,,CAVOK,,,,,,,,VFR,,,,,,,,,,,,METAR,1539.0
OICC 311530Z 20012KT 9000 -SHRA SCT040CB BKN100 21/M03 Q1019 A3009,OICC,2022-10-31T15:30:00Z,34.35,47.17,21.0,-3.0,200,12,,5.59,30.088583,,,,,,,,,,-SHRA,SCT,4000,BKN,10000,,,,,VFR,,,,,,,,,,,,METAR,1310.0
OIAW 311530Z 16002KT CAVOK 28/12 Q1011,OIAW,2022-10-31T15:30:00Z,31.33,48.77,28.0,12.0,160,2,,6.21,29.852362,,,,,,,,,,,CAVOK,,,,,,,,VFR,,,,,,,,,,,,METAR,25.0
OBBI 311530Z 10006KT CAVOK 29/19 Q1014 NOSIG,OBBI,2022-10-31T15:30:00Z,26.27,50.63,29.0,19.0,100,6,,6.21,29.940945,,,,,,TRUE,,,,,CAVOK,,,,,,,,VFR,,,,,,,,,,,,METAR,6.0
NZWN 311530Z AUTO 36016KT 9999 FEW023/// 14/11 Q1008 NOSIG,NZWN,2022-10-31T15:30:00Z,-41.32,174.8,14.0,11.0,360,16,,6.21,29.763779,,,TRUE,,,TRUE,,,,,FEW,2300,,,,,,,VFR,,,,,,,,,,,,METAR,12.0
NZCH 311530Z AUTO 31001KT 0800 R02/P2000N R20/P2000N FG NCD 07/06 Q1005 BECMG 9999 NSW TEMPO 0500 FG,NZCH,2022-10-31T15:30:00Z,-43.48,172.52,7.0,6.0,310,1,,0.5,29.675198,,,TRUE,,,,,,,FG,CLR,,,,,,,,LIFR,,,,,,,,,,,,METAR,36.0
NZAA 311530Z AUTO 20006KT 9999 FEW040/// OVC050/// 16/15 Q1011 NOSIG,NZAA,2022-10-31T15:30:00Z,-37.02,174.8,16.0,15.0,200,6,,6.21,29.852362,,,TRUE,,,TRUE,,,,,FEW,4000,OVC,5000,,,,,VFR,,,,,,,,,,,,METAR,7.0
NWWW 311530Z AUTO VRB02KT CAVOK 19/19 Q1009 NOSIG,NWWW,2022-10-31T15:30:00Z,-22.02,166.22,19.0,19.0,0,2,,6.21,29.793306,,,TRUE,,,TRUE,,,,,CAVOK,,,,,,,,VFR,,,,,,,,,,,,METAR,16.0
NTAA 311530Z VRB03KT 9999 FEW023 SCT130 23/20 Q1013 NOSIG,NTAA,2022-10-31T15:30:00Z,-17.55,-149.62,23.0,20.0,0,3,,6.21,29.911417,,,,,,TRUE,,,,,FEW,2300,SCT,13000,,,,,VFR,,,,,,,,,,,,METAR,2.0
NLWW 311530Z AUTO 00000KT 9999 FEW020/// SCT074/// OVC130/// 25/24 Q1009 TEMPO 2000 TSRA BKN008 BKN015CB,NLWW,2022-10-31T15:30:00Z,-13.23,-176.18,25.0,24.0,0,0,,6.21,29.793306,,,TRUE,,,,,,,,FEW,2000,SCT,7400,OVC,13000,,,VFR,,,,,,,,,,,,METAR,24.0
NCRG 311530Z AUTO 09012KT 9999 SCT022/// BKN095/// 24/20 Q1016,NCRG,2022-10-31T15:30:00Z,-21.2,-159.82,24.0,20.0,90,12,,6.21,30.0,,,TRUE,,,,,,,,SCT,2200,BKN,9500,,,,,VFR,,,,,,,,,,,,METAR,7.0
LZZI 311530Z 28007KT CAVOK 11/09 Q1021,LZZI,2022-10-31T15:30:00Z,49.23,18.62,11.0,9.0,280,7,,6.21,30.147638,,,,,,,,,,,CAVOK,,,,,,,,VFR,,,,,,,,,,,,METAR,311.0
LZTT 311530Z VRB02KT CAVOK 11/08 Q1022 NOSIG,LZTT,2022-10-31T15:30:00Z,49.07,20.25,11.0,8.0,0,2,,6.21,30.177166,,,,,,TRUE,,,,,CAVOK,,,,,,,,VFR,,,,,,,,,,,,METAR,693.0
LZPP 311530Z 15006KT 130V190 9999 OVC005 11/10 Q1022,LZPP,2022-10-31T15:30:00Z,48.62,17.83,11.0,10.0,150,6,,6.21,30.177166,,,,,,,,,,,OVC,500,,,,,,,IFR,,,,,,,,,,,,METAR,160.0
LZKZ 311530Z 02002KT 6000 OVC006 11/10 Q1024 NOSIG,LZKZ,2022-10-31T15:30:00Z,48.67,21.23,11.0,10.0,20,2,,3.73,30.236221,,,,,,TRUE,,,,,OVC,600,,,,,,,IFR,,,,,,,,,,,,METAR,227.0
LZIB 311530Z 09003KT 060V130 9000 BKN003 OVC004 10/10 Q1022 TEMPO OVC002,LZIB,2022-10-31T15:30:00Z,48.17,17.22,10.0,10.0,90,3,,5.59,30.177166,,,,,,,,,,,BKN,300,OVC,400,,,,,LIFR,,,,,,,,,,,,METAR,129.0
LYVR 311530Z AUTO 04003KT 020V080 4000 -SHRA BR FEW007/// 11/11 Q1023,LYVR,2022-10-31T15:30:00Z,45.13,21.32,11.0,11.0,40,3,,2.49,30.206694,,,TRUE,,,,,,,-SHRA BR,FEW,700,,,,,,,IFR,,,,,,,,,,,,METAR,82.0
LYTV 311530Z 32002KT CAVOK 21/14 Q1020 NOSIG,LYTV,2022-10-31T15:30:00Z,42.4,18.72,21.0,14.0,320,2,,6.21,30.11811,,,,,,TRUE,,,,,CAVOK,,,,,,,,VFR,,,,,,,,,,,,METAR,3.0
LYPG 311530Z 27003KT CAVOK 22/12 Q1020 NOSIG,LYPG,2022-10-31T15:30:00Z,42.37,19.25,22.0,12.0,270,3,,6.21,30.11811,,,,,,TRUE,,,,,CAVOK,,,,,,,,VFR,,,,,,,,,,,,METAR,32.0
LYNI 311530Z VRB01KT CAVOK 21/07 Q1022 NOSIG,LYNI,2022-10-31T15:30:00Z,43.33,21.85,21.0,7.0,0,1,,6.21,30.177166,,,,,,TRUE,,,,,CAVOK,,,,,,,,VFR,,,,,,,,,,,,METAR,197.0
LYKV 311530Z VRB01KT CAVOK 20/09 Q1022 NOSIG,LYKV,2022-10-31T15:30:00Z,43.82,20.58,20.0,9.0,0,1,,6.21,30.177166,,,,,,TRUE,,,,,CAVOK,,,,,,,,VFR,,,,,,,,,,,,METAR,209.0
LYBT 311530Z 02003KT 7000 NSC 14/13 Q1023 NOSIG,LYBT,2022-10-31T15:30:00Z,44.93,20.25,14.0,13.0,20,3,,4.35,30.206694,,,,,,TRUE,,,,,CLR,,,,,,,,MVFR,,,,,,,,,,,,METAR,78.0
LYBE 311530Z 04005KT 010V070 3500 BR NSC 15/13 Q1022 NOSIG,LYBE,2022-10-31T15:30:00Z,44.82,20.28,15.0,13.0,40,5,,2.17,30.177166,,,,,,TRUE,,,,BR,CLR,,,,,,,,IFR,,,,,,,,,,,,METAR,93.0
LUKK 311530Z 32006KT CAVOK 13/05 Q1020 NOSIG,LUKK,2022-10-31T15:30:00Z,46.93,28.93,13.0,5.0,320,6,,6.21,30.11811,,,,,,TRUE,,,,,CAVOK,,,,,,,,VFR,,,,,,,,,,,,METAR,102.0
LRTR 311530Z 31003KT 4000 BR SCT005 OVC006 11/11 Q1023,LRTR,2022-10-31T15:30:00Z,45.82,21.33,11.0,11.0,310,3,,2.49,30.206694,,,,,,,,,,BR,SCT,500,OVC,600,,,,,IFR,,,,,,,,,,,,METAR,104.0
LRTM 311530Z 07003KT 9000 BKN014 BKN035 12/10 Q1023,LRTM,2022-10-31T15:30:00Z,46.47,24.42,12.0,10.0,70,3,,5.59,30.206694,,,,,,,,,,,BKN,1400,BKN,3500,,,,,MVFR,,,,,,,,,,,,METAR,289.0
LRTC 311530Z 34010KT CAVOK 16/04 Q1020,LRTC,2022-10-31T15:30:00Z,45.07,28.72,16.0,4.0,340,10,,6.21,30.11811,,,,,,,,,,,CAVOK,,,,,,,,VFR,,,,,,,,,,,,METAR,52.0
LRSV 311530Z 01005KT CAVOK 13/09 Q1021,LRSV,2022-10-31T15:30:00Z,47.68,26.35,13.0,9.0,10,5,,6.21,30.147638,,,,,,,,,,,CAVOK,,,,,,,,VFR,,,,,,,,,,,,METAR,406.0
LRSM 311530Z 05002KT 9999 OVC010 12/10 Q1024,LRSM,2022-10-31T15:30:00Z,47.7,22.88,12.0,10.0,50,2,,6.21,30.236221,,,,,,,,,,,OVC,1000,,,,,,,MVFR,,,,,,,,,,,,METAR,123.0
LRSB 311530Z 24004KT 8000 NSC 11/10 Q1023,LRSB,2022-10-31T15:30:00Z,45.78,24.08,11.0,10.0,240,4,,4.97,30.206694,,,,,,,,,,,CLR,,,,,,,,MVFR,,,,,,,,,,,,METAR,442.0
LROP 311530Z 27002KT CAVOK 18/10 Q1020 NOSIG,LROP,2022-10-31T15:30:00Z,44.57,26.1,18.0,10.0,270,2,,6.21,30.11811,,,,,,TRUE,,,,,CAVOK,,,,,,,,VFR,,,,,,,,,,,,METAR,92.0
LROD 311530Z 29002KT 5000 BR OVC009 12/10 Q1023,LROD,2022-10-31T15:30:00Z,47.03,21.88,12.0,10.0,290,2,,3.11,30.206694,,,,,,,,,,BR,OVC,900,,,,,,,IFR,,,,,,,,,,,,METAR,132.0
LRIA 311530Z 34006KT CAVOK 12/07 Q1021,LRIA,2022-10-31T15:30:00Z,47.17,27.62,12.0,7.0,340,6,,6.21,30.147638,,,,,,,,,,,CAVOK,,,,,,,,VFR,,,,,,,,,,,,METAR,71.0
LRCV 311530Z 19004KT CAVOK 21/08 Q1020,LRCV,2022-10-31T15:30:00Z,44.32,23.88,21.0,8.0,190,4,,6.21,30.11811,,,,,,,,,,,CAVOK,,,,,,,,VFR,,,,,,,,,,,,METAR,192.0
LRCL 311530Z 04003KT 010V070 7000 BKN012 12/09 Q1023,LRCL,2022-10-31T15:30:00Z,46.78,23.68,12.0,9.0,40,3,,4.35,30.206694,,,,,,,,,,,BKN,1200,,,,,,,MVFR,,,,,,,,,,,,METAR,313.0
LRCK 311530Z 32007KT CAVOK 17/10 Q1020 NOSIG,LRCK,2022-10-31T15:30:00Z,44.37,28.48,17.0,10.0,320,7,,6.21,30.11811,,,,,,TRUE,,,,,CAVOK,,,,,,,,VFR,,,,,,,,,,,,METAR,108.0
LRBS 311530Z 00000KT CAVOK 20/10 Q1021 NOSIG,LRBS,2022-10-31T15:30:00Z,44.5,26.08,20.0,10.0,0,0,,6.21,30.147638,,,,,,TRUE,,,,,CAVOK,,,,,,,,VFR,,,,,,,,,,,,METAR,91.0
LRBM 311530Z VRB02KT 9999 OVC010 12/10 Q1024,LRBM,2022-10-31T15:30:00Z,47.67,23.47,12.0,10.0,0,2,,6.21,30.236221,,,,,,,,,,,OVC,1000,,,,,,,MVFR,,,,,,,,,,,,METAR,180.0
LRBC 311530Z 30004KT 270V350 CAVOK 14/09 Q1021,LRBC,2022-10-31T15:30:00Z,46.52,26.92,14.0,9.0,300,4,,6.21,30.147638,,,,,,,,,,,CAVOK,,,,,,,,VFR,,,,,,,,,,,,METAR,183.0
LRAR 311530Z 06004KT 4500 BR OVC007 11/10 Q1023,LRAR,2022-10-31T15:30:00Z,46.18,21.27,11.0,10.0,60,4,,2.8,30.206694,,,,,,,,,,BR,OVC,700,,,,,,,IFR,,,,,,,,,,,,METAR,102.0
LQTZ 311530Z VRB01KT CAVOK 20/12 Q1021,LQTZ,2022-10-31T15:30:00Z,44.47,18.73,20.0,12.0,0,1,,6.21,30.147638,,,,,,,,,,,CAVOK,,,,,,,,VFR,,,,,,,,,,,,METAR,242.0
LQSA 311530Z VRB02KT CAVOK 18/08 Q1023 NOSIG,LQSA,2022-10-31T15:30:00Z,43.82,18.32,18.0,8.0,0,2,,6.21,30.206694,,,,,,TRUE,,,,,CAVOK,,,,,,,,VFR,,,,,,,,,,,,METAR,505.0
LQBK 311530Z 30003KT CAVOK 17/14 Q1021 NOSIG,LQBK,2022-10-31T15:30:00Z,44.93,17.3,17.0,14.0,300,3,,6.21,30.147638,,,,,,TRUE,,,,,CAVOK,,,,,,,,VFR,,,,,,,,,,,,METAR,114.0
LPPT 311530Z 31007KT 280V340 9999 SCT012 SCT020 19/17 Q1018,LPPT,2022-10-31T15:30:00Z,38.77,-9.13,19.0,17.0,310,7,,6.21,30.059055,,,,,,,,,,,SCT,1200,SCT,2000,,,,,VFR,,,,,,,,,,,,METAR,98.0
LPPS 311530Z 31007KT 280V340 9999 FEW015 23/18 Q1020,LPPS,2022-10-31T15:30:00Z,33.07,-16.35,23.0,18.0,310,7,,6.21,30.11811,,,,,,,,,,,FEW,1500,,,,,,,VFR,,,,,,,,,,,,METAR,89.0
LPPR 311530Z 30008KT 270V340 9999 SCT022 18/14 Q1017,LPPR,2022-10-31T15:30:00Z,41.23,-8.68,18.0,14.0,300,8,,6.21,30.029528,,,,,,,,,,,SCT,2200,,,,,,,VFR,,,,,,,,,,,,METAR,64.0
LPPD 311530Z 25004KT 9999 FEW025 18/10 Q1023,LPPD,2022-10-31T15:30:00Z,37.73,-25.68,18.0,10.0,250,4,,6.21,30.206694,,,,,,,,,,,FEW,2500,,,,,,,VFR,,,,,,,,,,,,METAR,62.0
LPMA 311530Z 14003KT 9999 SCT015 BKN030 23/18 Q1020,LPMA,2022-10-31T15:30:00Z,32.7,-16.77,23.0,18.0,140,3,,6.21,30.11811,,,,,,,,,,,SCT,1500,BKN,3000,,,,,MVFR,,,,,,,,,,,,METAR,54.0
LPHR 311530Z 21006KT 110V280 9999 FEW025 19/10 Q1022,LPHR,2022-10-31T15:30:00Z,38.52,-28.72,19.0,10.0,210,6,,6.21,30.177166,,,,,,,,,,,FEW,2500,,,,,,,VFR,,,,,,,,,,,,METAR,39.0
LPFR 311530Z 21008KT 5000 RA FEW004 SCT016 BKN020 21/20 Q1018,LPFR,2022-10-31T15:30:00Z,37.02,-7.97,21.0,20.0,210,8,,3.11,30.059055,,,,,,,,,,RA,FEW,400,SCT,1600,BKN,2000,,,MVFR,,,,,,,,,,,,METAR,3.0
LPFL 311530Z 24006KT 180V290 9999 FEW030 20/09 Q1021,LPFL,2022-10-31T15:30:00Z,39.45,-31.12,20.0,9.0,240,6,,6.21,30.147638,,,,,,,,,,,FEW,3000,,,,,,,VFR,,,,,,,,,,,,METAR,35.0
LPCS 311530Z 34010KT 9999 3000NW VCSH FEW004 SCT010 BKN018 19/17 Q1018,LPCS,2022-10-31T15:30:00Z,38.73,-9.35,19.0,17.0,340,10,,6.21,30.059055,,,,,,,,,,VCSH,FEW,400,SCT,1000,BKN,1800,,,MVFR,,,,,,,,,,,,METAR,99.0
LPAZ 311530Z 13007KT 100V160 9999 FEW026 19/11 Q1022,LPAZ,2022-10-31T15:30:00Z,36.97,-25.17,19.0,11.0,130,7,,6.21,30.177166,,,,,,,,,,,FEW,2600,,,,,,,VFR,,,,,,,,,,,,METAR,96.0
LKTB 311530Z 12004KT 090V150 3500 BR OVC002 10/10 Q1022 NOSIG,LKTB,2022-10-31T15:30:00Z,49.15,16.68,10.0,10.0,120,4,,2.17,30.177166,,,,,,TRUE,,,,BR,OVC,200,,,,,,,LIFR,,,,,,,,,,,,METAR,233.0
LKPR 311530Z 02004KT 5000 BR NSC 12/12 Q1020 TEMPO 3000 BR,LKPR,2022-10-31T15:30:00Z,50.1,14.27,12.0,12.0,20,4,,3.11,30.11811,,,,,,,,,,BR,CLR,,,,,,,,MVFR,,,,,,,,,,,,METAR,364.0
LKPD 311530Z 13002KT 0200 R27/0250N FG VV001 11/11 Q1021 NOSIG RMK RED RED,LKPD,2022-10-31T15:30:00Z,50.02,15.73,11.0,11.0,130,2,,0.12,30.147638,,,,,,TRUE,,,,FG,OVX,0,,,,,,,LIFR,,,,,,,,,,,100,METAR,226.0
LKNA 311530Z 12004KT 090V150 0200 R30/0150 FG VV001 09/09 Q1021 NOSIG RMK RED RED,LKNA,2022-10-31T15:30:00Z,49.17,16.12,9.0,9.0,120,4,,0.12,30.147638,,,,,,TRUE,,,,FG,OVX,0,,,,,,,LIFR,,,,,,,,,,,100,METAR,460.0
LKMT 311530Z 23007KT 0600 R22/P2000N R04/1900N FG OVC002 10/09 Q1021 NOSIG,LKMT,2022-10-31T15:30:00Z,49.68,18.12,10.0,9.0,230,7,,0.37,30.147638,,,,,,TRUE,,,,FG,OVC,200,,,,,,,LIFR,,,,,,,,,,,,METAR,251.0
LKKV 311530Z VRB02KT CAVOK 14/09 Q1020,LKKV,2022-10-31T15:30:00Z,50.2,12.92,14.0,9.0,0,2,,6.21,30.11811,,,,,,,,,,,CAVOK,,,,,,,,VFR,,,,,,,,,,,,METAR,600.0
LKCV 311530Z VRB02KT 0100 R31/0250N FG VV001 11/11 Q1020 NOSIG RMK RED RED,LKCV,2022-10-31T15:30:00Z,49.93,15.38,11.0,11.0,0,2,,0.06,30.11811,,,,,,TRUE,,,,FG,OVX,0,,,,,,,LIFR,,,,,,,,,,,100,METAR,234.0
LJPZ 311530Z VRB01KT CAVOK 19/16 Q1021,LJPZ,2022-10-31T15:30:00Z,45.47,13.62,19.0,16.0,0,1,,6.21,30.147638,,,,,,,,,,,CAVOK,,,,,,,,VFR,,,,,,,,,,,,METAR,2.0
LJMB 311530Z 13005KT CAVOK 13/11 Q1021,LJMB,2022-10-31T15:30:00Z,46.47,15.67,13.0,11.0,130,5,,6.21,30.147638,,,,,,,,,,,CAVOK,,,,,,,,VFR,,,,,,,,,,,,METAR,263.0
LJLJ 311530Z 28002KT CAVOK 16/14 Q1021 NOSIG,LJLJ,2022-10-31T15:30:00Z,46.22,14.47,16.0,14.0,280,2,,6.21,30.147638,,,,,,TRUE,,,,,CAVOK,,,,,,,,VFR,,,,,,,,,,,,METAR,363.0
LJCE 311530Z 08005KT CAVOK 16/13 Q1021 RMK BLU,LJCE,2022-10-31T15:30:00Z,45.9,15.52,16.0,13.0,80,5,,6.21,30.147638,,,,,,,,,,,CAVOK,,,,,,,,VFR,,,,,,,,,,,,METAR,153.0
LHBP 311530Z 08005KT 030V120 5000 -DZ BR OVC004 11/10 Q1023 NOSIG,LHBP,2022-10-31T15:30:00Z,47.43,19.27,11.0,10.0,80,5,,3.11,30.206694,,,,,,TRUE,,,,-DZ BR,OVC,400,,,,,,,LIFR,,,,,,,,,,,,METAR,141.0
LFYR 311530Z AUTO 20011KT 170V230 9999 +RA FEW013/// BKN052/// BKN076/// //////CB 19/14 Q1011,LFYR,2022-10-31T15:30:00Z,47.32,1.68,19.0,14.0,200,11,,6.21,29.852362,,,TRUE,,,,,,,+RA,FEW,1300,BKN,5200,BKN,7600,,,VFR,,,,,,,,,,,,METAR,83.0
LFVP 311530Z AUTO 22022KT CAVOK 14/09 Q1014 NOSIG,LFVP,2022-10-31T15:30:00Z,46.77,-56.18,14.0,9.0,220,22,,6.21,29.940945,,,TRUE,,,TRUE,,,,,CAVOK,,,,,,,,VFR,,,,,,,,,,,,METAR,5.0
LFTW 311530Z AUTO 14012KT 9999 BKN022/// BKN029/// BKN036/// ///TCU 21/16 Q1019 TEMPO 4000 RA BKN012 BECMG 15015G25KT,LFTW,2022-10-31T15:30:00Z,43.75,4.42,21.0,16.0,140,12,,6.21,30.088583,,,TRUE,,,,,,,,BKN,2200,BKN,2900,BKN,3600,,,MVFR,,,,,,,,,,,,METAR,91.0
LFTH 311530Z AUTO 10008KT CAVOK 21/17 Q1021 NOSIG,LFTH,2022-10-31T15:30:00Z,43.1,6.15,21.0,17.0,100,8,,6.21,30.147638,,,TRUE,,,TRUE,,,,,CAVOK,,,,,,,,VFR,,,,,,,,,,,,METAR,3.0
LFSX 311530Z AUTO VRB02KT CAVOK 18/14 Q1016,LFSX,2022-10-31T15:30:00Z,47.77,6.35,18.0,14.0,0,2,,6.21,30.0,,,TRUE,,,,,,,,CAVOK,,,,,,,,VFR,,,,,,,,,,,,METAR,266.0
LFST 311530Z AUTO 33002KT CAVOK 16/13 Q1016 NOSIG,LFST,2022-10-31T15:30:00Z,48.53,7.63,16.0,13.0,330,2,,6.21,30.0,,,TRUE,,,TRUE,,,,,CAVOK,,,,,,,,VFR,,,,,,,,,,,,METAR,149.0
LFSO 311530Z AUTO 17012KT CAVOK 19/09 Q1016,LFSO,2022-10-31T15:30:00Z,48.57,5.97,19.0,9.0,170,12,,6.21,30.0,,,TRUE,,,,,,,,CAVOK,,,,,,,,VFR,,,,,,,,,,,,METAR,328.0
LFSN 311530Z AUTO 13005KT CAVOK 18/13 Q1016,LFSN,2022-10-31T15:30:00Z,48.68,6.22,18.0,13.0,130,5,,6.21,30.0,,,TRUE,,,,,,,,CAVOK,,,,,,,,VFR,,,,,,,,,,,,METAR,214.0
LFSM 311530Z AUTO 26004KT CAVOK 19/12 Q1017,LFSM,2022-10-31T15:30:00Z,47.48,6.78,19.0,12.0,260,4,,6.21,30.029528,,,TRUE,,,,,,,,CAVOK,,,,,,,,VFR,,,,,,,,,,,,METAR,317.0
LFSL 311530Z AUTO VRB02KT 9999 -RA ///CB 21/15 Q1014 TEMPO 20015G25KT 3000 TSRA,LFSL,2022-10-31T15:30:00Z,45.03,1.48,21.0,15.0,0,2,,6.21,29.940945,,,TRUE,,,,,,,-RA,,,,,,,,,,,,1.5,,,,,,,,,METAR,300.0
LFSI 311530Z AUTO 15007KT CAVOK 19/12 Q1014,LFSI,2022-10-31T15:30:00Z,48.62,4.9,19.0,12.0,150,7,,6.21,29.940945,,,TRUE,,,,,,,,CAVOK,,,,,,,,VFR,,,,,,,,,,,,METAR,136.0
LFSG 311530Z AUTO 19008KT CAVOK 18/10 Q1016,LFSG,2022-10-31T15:30:00Z,48.33,6.07,18.0,10.0,190,8,,6.21,30.0,,,TRUE,,,,,,,,CAVOK,,,,,,,,VFR,,,,,,,,,,,,METAR,320.0
LFSD 311530Z AUTO 15004KT CAVOK 19/13 Q1015,LFSD,2022-10-31T15:30:00Z,47.27,5.08,19.0,13.0,150,4,,6.21,29.970472,,,TRUE,,,,,,,,CAVOK,,,,,,,,VFR,,,,,,,,,,,,METAR,218.0
LFSB 311530Z AUTO 35006KT CAVOK 17/13 Q1016 NOSIG,LFSB,2022-10-31T15:30:00Z,47.6,7.52,17.0,13.0,350,6,,6.21,30.0,,,TRUE,,,TRUE,,,,,CAVOK,,,,,,,,VFR,,,,,,,,,,,,METAR,262.0
LFRZ 311530Z AUTO 21013KT 9999 SCT036/// BKN052/// BKN070/// //////TCU 17/14 Q1006 TEMPO 21025G45KT 3000 SHRA BKN012 BKN020CB,LFRZ,2022-10-31T15:30:00Z,47.32,-2.17,17.0,14.0,210,13,,6.21,29.704725,,,TRUE,,,,,,,,SCT,3600,BKN,5200,BKN,7000,,,VFR,,,-2.5,,,,,,,,,METAR,2.0
LFRV 311530Z AUTO 19013G29KT 160V240 5000 -RA BR SCT008/// BKN014/// OVC024/// ///CB 15/14 Q1005,LFRV,2022-10-31T15:30:00Z,47.72,-2.72,15.0,14.0,190,13,29,3.11,29.675198,,,TRUE,,,,,,,-RA BR,SCT,800,BKN,1400,OVC,2400,,,MVFR,,,,,,,,,,,,METAR,132.0
LFRU 311530Z AUTO 17006KT 130V220 9999 FEW020/// SCT058/// BKN076/// ///TCU 16/13 Q1002,LFRU,2022-10-31T15:30:00Z,48.6,-3.82,16.0,13.0,170,6,,6.21,29.586615,,,TRUE,,,,,,,,FEW,2000,SCT,5800,BKN,7600,,,VFR,,,,,,,,,,,,METAR,85.0
LFRT 311530Z AUTO 16007KT 120V190 9999 SCT020 BKN062 BKN100 16/14 Q1003,LFRT,2022-10-31T15:30:00Z,48.53,-2.85,16.0,14.0,160,7,,6.21,29.616142,,,TRUE,,,,,,,,SCT,2000,BKN,6200,BKN,10000,,,VFR,,,,,,,,,,,,METAR,134.0
LFRS 311530Z AUTO 19008KT 9999 SCT021/// BKN026/// OVC033/// //////TCU 16/15 Q1006 TEMPO 22025G42KT 3000 SHRA BKN012 BKN020CB,LFRS,2022-10-31T15:30:00Z,47.17,-1.6,16.0,15.0,190,8,,6.21,29.704725,,,TRUE,,,,,,,,SCT,2100,BKN,2600,OVC,3300,,,MVFR,,,,,,,,,,,,METAR,26.0
LFRQ 311530Z AUTO 22011KT 180V260 5000 RA BR BKN006/// OVC012/// //////TCU 14/14 Q1003 TEMPO TSRA BKN008 BKN020CB BECMG 20020G35KT,LFRQ,2022-10-31T15:30:00Z,47.97,-4.17,14.0,14.0,220,11,,3.11,29.616142,,,TRUE,,,,,,,RA BR,BKN,600,OVC,1200,,,,,IFR,,,2.0,,,,,,,,,METAR,94.0
LFRO 311530Z AUTO 15009KT 9999 BKN024/// BKN034/// OVC082/// //////CB 16/13 Q1002,LFRO,2022-10-31T15:30:00Z,48.75,-3.47,16.0,13.0,150,9,,6.21,29.586615,,,TRUE,,,,,,,,BKN,2400,BKN,3400,OVC,8200,,,MVFR,,,,,,,,,,,,METAR,86.0
LFRN 311530Z AUTO 21012KT 9999 -RA FEW030/// SCT038/// BKN049/// //////CB 15/13 Q1006 TEMPO 15015G25KT 3000 SHRA BKN008 BKN015CB,LFRN,2022-10-31T15:30:00Z,48.07,-1.73,15.0,13.0,210,12,,6.21,29.704725,,,TRUE,,,,,,,-RA,FEW,3000,SCT,3800,BKN,4900,,,VFR,,,,,,,,,,,,METAR,35.0
LFRM 311530Z AUTO 18010G20KT 140V220 9999 -RA FEW020/// BKN041/// BKN049/// //////CB 17/15 Q1009 TEMPO 3000 SHRA BKN012 BKN020CB,LFRM,2022-10-31T15:30:00Z,47.95,0.2,17.0,15.0,180,10,20,6.21,29.793306,,,TRUE,,,,,,,-RA,FEW,2000,BKN,4100,BKN,4900,,,VFR,,,,,,,,,,,,METAR,51.0
LFRL 311530Z AUTO 20017KT 9999 -RA BKN006/// OVC011/// //////CB 14/14 Q1002,LFRL,2022-10-31T15:30:00Z,48.27,-4.43,14.0,14.0,200,17,,6.21,29.586615,,,TRUE,,,,,,,-RA,BKN,600,OVC,1100,,,,,IFR,,,,,,,,,,,,METAR,80.0
LFRK 311530Z AUTO 14008KT CAVOK 17/14 Q1006 TEMPO 3000 SHRA SCT008 BKN030CB,LFRK,2022-10-31T15:30:00Z,49.17,-0.45,17.0,14.0,140,8,,6.21,29.704725,,,TRUE,,,,,,,,CAVOK,,,,,,,,VFR,,,,,,,,,,,,METAR,66.0
LFRJ 311530Z AUTO 18012KT 7000 2900 RA FEW015/// SCT025/// BKN050/// //////CB 15/14 Q1001,LFRJ,2022-10-31T15:30:00Z,48.52,-4.15,15.0,14.0,180,12,,4.35,29.557087,,,TRUE,,,,,,,RA,FEW,1500,SCT,2500,BKN,5000,,,MVFR,,,,,,,,,,,,METAR,109.0
LFRI 311530Z AUTO 17011KT CAVOK 17/15 Q1007 TEMPO 3000 SHRA BKN010 BKN020CB BECMG 18015G25KT,LFRI,2022-10-31T15:30:00Z,46.7,-1.37,17.0,15.0,170,11,,6.21,29.734253,,,TRUE,,,,,,,,CAVOK,,,,,,,,VFR,,,,,,,,,,,,METAR,89.0
LFRH 311530Z AUTO 21016KT 5000 -RA BR BKN006/// BKN013/// BKN022/// //////CB 15/15 Q1004 TEMPO SHRA BECMG 22020G40KT,LFRH,2022-10-31T15:30:00Z,47.77,-3.45,15.0,15.0,210,16,,3.11,29.64567,,,TRUE,,,,,,,-RA BR,BKN,600,BKN,1300,BKN,2200,,,IFR,,,,,,,,,,,,METAR,46.0
LFRG 311530Z AUTO 15008KT CAVOK 17/15 Q1008 TEMPO 3000 SHRA SCT008 BKN030CB,LFRG,2022-10-31T15:30:00Z,49.37,0.15,17.0,15.0,150,8,,6.21,29.763779,,,TRUE,,,,,,,,CAVOK,,,,,,,,VFR,,,,,,,,,,,,METAR,146.0
LFRD 311530Z AUTO 19006KT 140V270 9000 -RA BKN014/// BKN020/// BKN028/// //////CB 16/15 Q1005 TEMPO 3000 SHRA BKN008 BKN015CB BECMG 17015G30KT,LFRD,2022-10-31T15:30:00Z,48.58,-2.07,16.0,15.0,190,6,,5.59,29.675198,,,TRUE,,,,,,,-RA,BKN,1400,BKN,2000,BKN,2800,,,MVFR,,,,,,,,,,,,METAR,56.0
LFRC 311530Z AUTO 16011KT 9999 BKN017 BKN130 15/14 Q1005 TEMPO 4000 SHRA BKN008 BKN030CB,LFRC,2022-10-31T15:30:00Z,49.63,-1.47,15.0,14.0,160,11,,6.21,29.675198,,,TRUE,,,,,,,,BKN,1700,BKN,13000,,,,,MVFR,,,,,,,,,,,,METAR,137.0
LFRB 311530Z AUTO 20021KT 8000 -RA BKN007/// BKN016/// BKN025/// ///CB 14/14 Q1002 TEMPO 16020G30KT 3000 SHRA,LFRB,2022-10-31T15:30:00Z,48.45,-4.42,14.0,14.0,200,21,,4.97,29.586615,,,TRUE,,,,,,,-RA,BKN,700,BKN,1600,BKN,2500,,,IFR,,,,,,,,,,,,METAR,91.0
LFQQ 311530Z AUTO 11006KT CAVOK 17/14 Q1010 BECMG 18015G25KT,LFQQ,2022-10-31T15:30:00Z,50.57,3.1,17.0,14.0,110,6,,6.21,29.822834,,,TRUE,,,,,,,,CAVOK,,,,,,,,VFR,,,,,,,,,,,,METAR,43.0
LFQG 311530Z AUTO 12007KT CAVOK 20/14 Q1012,LFQG,2022-10-31T15:30:00Z,47.0,3.1,20.0,14.0,120,7,,6.21,29.88189,,,TRUE,,,,,,,,CAVOK,,,,,,,,VFR,,,,,,,,,,,,METAR,172.0
LFQB 311530Z AUTO 16007KT CAVOK 20/12 Q1013,LFQB,2022-10-31T15:30:00Z,48.32,4.02,20.0,12.0,160,7,,6.21,29.911417,,,TRUE,,,,,,,,CAVOK,,,,,,,,VFR,,,,,,,,,,,,METAR,107.0
LFQA 311530Z AUTO 13007KT CAVOK 18/13 Q1012,LFQA,2022-10-31T15:30:00Z,49.2,4.15,18.0,13.0,130,7,,6.21,29.88189,,,TRUE,,,,,,,,CAVOK,,,,,,,,VFR,,,,,,,,,,,,METAR,92.0
LFPV 311530Z AUTO 16008KT 130V190 CAVOK 19/13 Q1011 TEMPO 22020G35KT 1500 TSRA BKN025CB,LFPV,2022-10-31T15:30:00Z,48.77,2.2,19.0,13.0,160,8,,6.21,29.852362,,,TRUE,,,,,,,,CAVOK,,,,,,,,VFR,,,,,,,,,,,,METAR,171.0
LFPT 311530Z AUTO 15008KT CAVOK 19/14 Q1010,LFPT,2022-10-31T15:30:00Z,49.1,2.03,19.0,14.0,150,8,,6.21,29.822834,,,TRUE,,,,,,,,CAVOK,,,,,,,,VFR,,,,,,,,,,,,METAR,91.0
LFPO 311530Z 15008KT 9999 FEW032 BKN200 20/14 Q1011 TEMPO 17015G30KT 4000 RA SCT030TCU,LFPO,2022-10-31T15:30:00Z,48.72,2.38,20.0,14.0,150,8,,6.21,29.852362,,,,,,,,,,,FEW,3200,BKN,20000,,,,,VFR,,,,,,,,,,,,METAR,88.0
LFPN 311530Z AUTO 16009KT CAVOK 19/13 Q1010 TEMPO 17020G35KT 2000 TSRA BKN030CB,LFPN,2022-10-31T15:30:00Z,48.75,2.12,19.0,13.0,160,9,,6.21,29.822834,,,TRUE,,,,,,,,CAVOK,,,,,,,,VFR,,,,,,,,,,,,METAR,152.0
LFPM 311530Z AUTO 16009KT CAVOK 19/14 Q1011,LFPM,2022-10-31T15:30:00Z,48.62,2.67,19.0,14.0,160,9,,6.21,29.852362,,,TRUE,,,,,,,,CAVOK,,,,,,,,VFR,,,,,,,,,,,,METAR,91.0
LFPG 311530Z 16009KT CAVOK 19/14 Q1011 NOSIG,LFPG,2022-10-31T15:30:00Z,49.02,2.53,19.0,14.0,160,9,,6.21,29.852362,,,,,,TRUE,,,,,CAVOK,,,,,,,,VFR,,,,,,,,,,,,METAR,107.0
LFPB 311530Z AUTO 14009KT CAVOK 19/14 Q1010 TEMPO 4000 SHRA BKN014 SCT030TCU,LFPB,2022-10-31T15:30:00Z,48.97,2.42,19.0,14.0,140,9,,6.21,29.822834,,,TRUE,,,,,,,,CAVOK,,,,,,,,VFR,,,,,,,,,,,,METAR,50.0
LFOZ 311530Z AUTO 13008KT CAVOK 20/13 Q1011,LFOZ,2022-10-31T15:30:00Z,47.9,2.17,20.0,13.0,130,8,,6.21,29.852362,,,TRUE,,,,,,,,CAVOK,,,,,,,,VFR,,,,,,,,,,,,METAR,121.0
LFOV 311530Z AUTO 18012KT 9999 FEW032 SCT076 BKN110 17/15 Q1007,LFOV,2022-10-31T15:30:00Z,48.03,-0.75,17.0,15.0,180,12,,6.21,29.734253,,,TRUE,,,,,,,,FEW,3200,SCT,7600,BKN,11000,,,VFR,,,,,,,,,,,,METAR,99.0
LFOT 311530Z AUTO 19010KT 9999 -RA FEW044/// SCT058/// BKN072/// ///TCU 17/15 Q1010 TEMPO 19015G25KT 4000 SHRA SCT040CB,LFOT,2022-10-31T15:30:00Z,47.43,0.72,17.0,15.0,190,10,,6.21,29.822834,,,TRUE,,,,,,,-RA,FEW,4400,SCT,5800,BKN,7200,,,VFR,,,,,,,,,,,,METAR,107.0
LFOP 311530Z AUTO 15013KT 9999 SCT024 SCT220 17/13 Q1009 TEMPO 4000 RA BKN014 OVC040 BECMG 18015G25KT,LFOP,2022-10-31T15:30:00Z,49.37,1.17,17.0,13.0,150,13,,6.21,29.793306,,,TRUE,,,,,,,,SCT,2400,SCT,22000,,,,,VFR,,,,,,,,,,,,METAR,149.0
LFOK 311530Z AUTO 16011KT CAVOK 18/13 Q1013 NOSIG,LFOK,2022-10-31T15:30:00Z,48.78,4.15,18.0,13.0,160,11,,6.21,29.911417,,,TRUE,,,TRUE,,,,,CAVOK,,,,,,,,VFR,,,,,,,,,,,,METAR,166.0
LFOJ 311530Z AUTO 15009KT 9999 //////TCU 20/14 Q1009 TEMPO 22020G30KT 2000 SHRA BKN012 SCT040CB,LFOJ,2022-10-31T15:30:00Z,47.98,1.75,20.0,14.0,150,9,,6.21,29.793306,,,TRUE,,,,,,,,,,,,,,,,,,,,,,,,,,,,METAR,122.0
LFOH 311530Z AUTO 14009KT CAVOK 18/14 Q1007 BECMG 18015G25KT,LFOH,2022-10-31T15:30:00Z,49.52,0.08,18.0,14.0,140,9,,6.21,29.734253,,,TRUE,,,,,,,,CAVOK,,,,,,,,VFR,,,,,,,,,,,,METAR,87.0
LFOE 311530Z AUTO 16008KT 9999 FEW024 OVC210 18/14 Q1009 TEMPO 18020G30KT 2000 TSRA BKN015CB,LFOE,2022-10-31T15:30:00Z,49.02,1.22,18.0,14.0,160,8,,6.21,29.793306,,,TRUE,,,,,,,,FEW,2400,OVC,21000,,,,,VFR,,,,,,,,,,,,METAR,132.0
LFOB 311530Z AUTO 15008KT CAVOK 18/13 Q1010 TEMPO 4000 RA BKN014 OVC040 BECMG 18015G25KT,LFOB,2022-10-31T15:30:00Z,49.47,2.12,18.0,13.0,150,8,,6.21,29.822834,,,TRUE,,,,,,,,CAVOK,,,,,,,,VFR,,,,,,,,,,,,METAR,99.0
LFOA 311530Z AUTO 13005KT CAVOK 21/14 Q1012,LFOA,2022-10-31T15:30:00Z,47.05,2.63,21.0,14.0,130,5,,6.21,29.88189,,,TRUE,,,,,,,,CAVOK,,,,,,,,VFR,,,,,,,,,,,,METAR,174.0
LFMY 311530Z AUTO 16010KT 9999 ////// 22/15 Q1020,LFMY,2022-10-31T15:30:00Z,43.6,5.1,22.0,15.0,160,10,,6.21,30.11811,,,TRUE,,,,,,,,,,,,,,,,,,,,,,,,,,,,METAR,57.0
LFMV 311530Z AUTO 16011KT 9999 BKN062 22/13 Q1019 NOSIG,LFMV,2022-10-31T15:30:00Z,43.9,4.9,22.0,13.0,160,11,,6.21,30.088583,,,TRUE,,,TRUE,,,,,BKN,6200,,,,,,,VFR,,,,,,,,,,,,METAR,33.0
LFMU 311530Z AUTO 12014KT 9999 OVC013 22/19 Q1017 TEMPO OVC008 BECMG 12015G25KT,LFMU,2022-10-31T15:30:00Z,43.32,3.35,22.0,19.0,120,14,,6.21,30.029528,,,TRUE,,,,,,,,OVC,1300,,,,,,,MVFR,,,,,,,,,,,,METAR,14.0
LFMT 311530Z AUTO 13018KT 9999 SCT021/// BKN041/// BKN049/// ///CB 21/19 Q1019 TEMPO 14015G25KT OVC013,LFMT,2022-10-31T15:30:00Z,43.57,3.97,21.0,19.0,130,18,,6.21,30.088583,,,TRUE,,,,,,,,SCT,2100,BKN,4100,BKN,4900,,,VFR,,,,,,,,,,,,METAR,1.0
LFMP 311530Z AUTO 18015KT CAVOK 24/14 Q1014 TEMPO 18017G30KT,LFMP,2022-10-31T15:30:00Z,42.73,2.87,24.0,14.0,180,15,,6.21,29.940945,,,TRUE,,,,,,,,CAVOK,,,,,,,,VFR,,,,,,,,,,,,METAR,41.0
LFMO 311530Z AUTO 18009KT 150V210 9999 SCT068 22/14 Q1019 TEMPO 4000 TSRA BKN030CB,LFMO,2022-10-31T15:30:00Z,44.13,4.87,22.0,14.0,180,9,,6.21,30.088583,,,TRUE,,,,,,,,SCT,6800,,,,,,,VFR,,,,,,,,,,,,METAR,56.0
LFMN 311530Z 10004KT CAVOK 20/16 Q1022 NOSIG,LFMN,2022-10-31T15:30:00Z,43.65,7.2,20.0,16.0,100,4,,6.21,30.177166,,,,,,TRUE,,,,,CAVOK,,,,,,,,VFR,,,,,,,,,,,,METAR,4.0
LFML 311530Z AUTO 14012KT 9999 BKN050 22/16 Q1020 NOSIG,LFML,2022-10-31T15:30:00Z,43.45,5.22,22.0,16.0,140,12,,6.21,30.11811,,,TRUE,,,TRUE,,,,,BKN,5000,,,,,,,VFR,,,,,,,,,,,,METAR,20.0
LFMK 311530Z AUTO 08020KT CAVOK 21/17 Q1014 TEMPO 09020G30KT,LFMK,2022-10-31T15:30:00Z,43.22,2.32,21.0,17.0,80,20,,6.21,29.940945,,,TRUE,,,,,,,,CAVOK,,,,,,,,VFR,,,,,,,,,,,,METAR,124.0
LFMI 311530Z AUTO 14014KT 9999 BKN032 BKN048 OVC058 22/16 Q1019 BECMG 15015G25KT,LFMI,2022-10-31T15:30:00Z,43.52,4.93,22.0,16.0,140,14,,6.21,30.088583,,,TRUE,,,,,,,,BKN,3200,BKN,4800,OVC,5800,,,VFR,,,,,,,,,,,,METAR,20.0
LFMH 311530Z AUTO 18013G23KT 150V270 CAVOK 21/12 Q1016,LFMH,2022-10-31T15:30:00Z,45.52,4.28,21.0,12.0,180,13,23,6.21,30.0,,,TRUE,,,,,,,,CAVOK,,,,,,,,VFR,,,,,,,,,,,,METAR,400.0
LFMD 311530Z AUTO 17004KT 100V230 CAVOK 21/17 Q1021 TEMPO BKN010,LFMD,2022-10-31T15:30:00Z,43.53,6.95,21.0,17.0,170,4,,6.21,30.147638,,,TRUE,,,,,,,,CAVOK,,,,,,,,VFR,,,,,,,,,,,,METAR,2.0
LFMC 311530Z AUTO 13007KT 9999 ////// 22/15 Q1021,LFMC,2022-10-31T15:30:00Z,43.37,6.38,22.0,15.0,130,7,,6.21,30.147638,,,TRUE,,,,,,,,,,,,,,,,,,,,,,,,,,,,METAR,79.0
LFLY 311530Z AUTO 18015KT CAVOK 21/12 Q1017 TEMPO 18015G30KT,LFLY,2022-10-31T15:30:00Z,45.72,4.95,21.0,12.0,180,15,,6.21,30.029528,,,TRUE,,,,,,,,CAVOK,,,,,,,,VFR,,,,,,,,,,,,METAR,197.0
LFLX 311530Z AUTO 20009KT 9999 -RA //////TCU 20/14 Q1012 TEMPO 22020G33KT 2500 TSRA SCT030CB,LFLX,2022-10-31T15:30:00Z,46.87,1.73,20.0,14.0,200,9,,6.21,29.88189,,,TRUE,,,,,,,-RA,,,,,,,,,,,,,,,,,,,,,METAR,157.0
LFLW 311530Z AUTO 14015KT CAVOK 19/12 Q1016 TEMPO 15015G27KT 3000 RA BKN020 SCT030CB,LFLW,2022-10-31T15:30:00Z,44.88,2.42,19.0,12.0,140,15,,6.21,30.0,,,TRUE,,,,,,,,CAVOK,,,,,,,,VFR,,,,,,,,,,,,METAR,638.0
LFLV 311530Z AUTO 16008KT CAVOK 22/12 Q1013,LFLV,2022-10-31T15:30:00Z,46.17,3.38,22.0,12.0,160,8,,6.21,29.911417,,,TRUE,,,,,,,,CAVOK,,,,,,,,VFR,,,,,,,,,,,,METAR,248.0
LFLU 311530Z AUTO 19012KT 9999 FEW070 BKN080 21/12 Q1017,LFLU,2022-10-31T15:30:00Z,44.92,4.98,21.0,12.0,190,12,,6.21,30.029528,,,TRUE,,,,,,,,FEW,7000,BKN,8000,,,,,VFR,,,,,,,,,,,,METAR,162.0
LFLS 311530Z AUTO 28005KT 220V330 CAVOK 20/11 Q1018 TEMPO 21015G25KT,LFLS,2022-10-31T15:30:00Z,45.37,5.32,20.0,11.0,280,5,,6.21,30.059055,,,TRUE,,,,,,,,CAVOK,,,,,,,,VFR,,,-1.5,,,,,,,,,METAR,386.0
LFLP 311530Z AUTO 24005KT 200V270 CAVOK 19/13 Q1018 NOSIG,LFLP,2022-10-31T15:30:00Z,45.92,6.1,19.0,13.0,240,5,,6.21,30.059055,,,TRUE,,,TRUE,,,,,CAVOK,,,,,,,,VFR,,,,,,,,,,,,METAR,460.0
LFLN 311530Z AUTO 15012KT CAVOK 21/12 Q1014 TEMPO 18015G25KT,LFLN,2022-10-31T15:30:00Z,46.42,4.02,21.0,12.0,150,12,,6.21,29.940945,,,TRUE,,,,,,,,CAVOK,,,,,,,,VFR,,,,,,,,,,,,METAR,238.0
LFLL 311530Z 18009KT CAVOK 22/11 Q1017 NOSIG,LFLL,2022-10-31T15:30:00Z,45.72,5.07,22.0,11.0,180,9,,6.21,30.029528,,,,,,TRUE,,,,,CAVOK,,,,,,,,VFR,,,,,,,,,,,,METAR,234.0
LFLH 311530Z AUTO 18011KT CAVOK 21/11 Q1015,LFLH,2022-10-31T15:30:00Z,46.83,4.82,21.0,11.0,180,11,,6.21,29.970472,,,TRUE,,,,,,,,CAVOK,,,,,,,,VFR,,,,,,,,,,,,METAR,190.0
LFLC 311530Z AUTO 17015KT 9999 FEW064 SCT140 BKN210 23/11 Q1013 BECMG 18015G28KT,LFLC,2022-10-31T15:30:00Z,45.78,3.17,23.0,11.0,170,15,,6.21,29.911417,,,TRUE,,,,,,,,FEW,6400,SCT,14000,BKN,21000,,,VFR,,,,,,,,,,,,METAR,325.0
LFLB 311530Z AUTO VRB03KT CAVOK 18/13 Q1018 NOSIG,LFLB,2022-10-31T15:30:00Z,45.63,5.87,18.0,13.0,0,3,,6.21,30.059055,,,TRUE,,,TRUE,,,,,CAVOK,,,,,,,,VFR,,,,,,,,,,,,METAR,234.0
LFKS 311530Z AUTO 16003KT CAVOK 21/15 Q1022,LFKS,2022-10-31T15:30:00Z,41.92,9.4,21.0,15.0,160,3,,6.21,30.177166,,,TRUE,,,,,,,,CAVOK,,,,,,,,VFR,,,,,,,,,,,,METAR,22.0
LFKJ 311530Z AUTO 20004KT 170V250 CAVOK 22/15 Q1021 NOSIG,LFKJ,2022-10-31T15:30:00Z,41.92,8.8,22.0,15.0,200,4,,6.21,30.147638,,,TRUE,,,TRUE,,,,,CAVOK,,,,,,,,VFR,,,,,,,,,,,,METAR,9.0
LFKF 311530Z AUTO 20004KT 170V230 CAVOK 21/14 Q1022 NOSIG,LFKF,2022-10-31T15:30:00Z,41.5,9.08,21.0,14.0,200,4,,6.21,30.177166,,,TRUE,,,TRUE,,,,,CAVOK,,,,,,,,VFR,,,,,,,,,,,,METAR,15.0
LFKC 311530Z AUTO 31004KT 280V340 CAVOK 22/15 Q1021 NOSIG,LFKC,2022-10-31T15:30:00Z,42.52,8.8,22.0,15.0,310,4,,6.21,30.147638,,,TRUE,,,TRUE,,,,,CAVOK,,,,,,,,VFR,,,,,,,,,,,,METAR,38.0
LFKB 311530Z AUTO 11003KT CAVOK 21/15 Q1022 NOSIG,LFKB,2022-10-31T15:30:00Z,42.55,9.48,21.0,15.0,110,3,,6.21,30.177166,,,TRUE,,,TRUE,,,,,CAVOK,,,,,,,,VFR,,,,,,,,,,,,METAR,7.0
LFJR 311530Z AUTO 17008KT 9999 SCT042 BKN052 OVC064 17/15 Q1008,LFJR,2022-10-31T15:30:00Z,47.57,-0.32,17.0,15.0,170,8,,6.21,29.763779,,,TRUE,,,,,,,,SCT,4200,BKN,5200,OVC,6400,,,VFR,,,,,,,,,,,,METAR,50.0
LFJL 311530Z AUTO 14012KT CAVOK 17/11 Q1015 NOSIG,LFJL,2022-10-31T15:30:00Z,48.97,6.25,17.0,11.0,140,12,,6.21,29.970472,,,TRUE,,,TRUE,,,,,CAVOK,,,,,,,,VFR,,,,,,,,,,,,METAR,259.0
LFHP 311530Z AUTO 17012G25KT 140V210 CAVOK 17/11 Q1018,LFHP,2022-10-31T15:30:00Z,45.07,3.77,17.0,11.0,170,12,25,6.21,30.059055,,,TRUE,,,,,,,,CAVOK,,,,,,,,VFR,,,,,,,,,,,,METAR,829.0
LFGJ 311530Z AUTO 16008KT CAVOK 19/13 Q1016 TEMPO 19015G30KT,LFGJ,2022-10-31T15:30:00Z,47.05,5.43,19.0,13.0,160,8,,6.21,30.0,,,TRUE,,,,,,,,CAVOK,,,,,,,,VFR,,,,,,,,,,,,METAR,191.0
LFGA 311530Z AUTO 34004KT CAVOK 17/12 Q1016,LFGA,2022-10-31T15:30:00Z,48.1,7.35,17.0,12.0,340,4,,6.21,30.0,,,TRUE,,,,,,,,CAVOK,,,,,,,,VFR,,,,,,,,,,,,METAR,191.0
LFCR 311530Z AUTO 14019KT 9999 ////// 19/13 Q1015,LFCR,2022-10-31T15:30:00Z,44.4,2.47,19.0,13.0,140,19,,6.21,29.970472,,,TRUE,,,,,,,,,,,,,,,,,,,,,,,,,,,,METAR,576.0
LFCK 311530Z AUTO 12022KT CAVOK 21/15 Q1014 BECMG 13025G35KT,LFCK,2022-10-31T15:30:00Z,43.55,2.28,21.0,15.0,120,22,,6.21,29.940945,,,TRUE,,,,,,,,CAVOK,,,,,,,,VFR,,,,,,,,,,,,METAR,223.0
LFBZ 311530Z AUTO 20008KT 160V240 CAVOK 23/13 Q1012 TEMPO 20015G25KT TSRA BKN008 BKN030CB,LFBZ,2022-10-31T15:30:00Z,43.47,-1.53,23.0,13.0,200,8,,6.21,29.88189,,,TRUE,,,,,,,,CAVOK,,,,,,,,VFR,,,1.5,,,,,,,,,METAR,70.0
LFBY 311530Z AUTO 18006KT 150V210 9999 // ////// 20/14 Q1012,LFBY,2022-10-31T15:30:00Z,43.68,-1.07,20.0,14.0,180,6,,6.21,29.88189,,,TRUE,,,,,,,,,,,,,,,,,,,,,,,,,,,,METAR,32.0
LFBX 311530Z AUTO 21005KT 170V250 9999 -RA //////TCU 20/14 Q1014,LFBX,2022-10-31T15:30:00Z,45.2,0.82,20.0,14.0,210,5,,6.21,29.940945,,,TRUE,,,,,,,-RA,,,,,,,,,,,,,,,,,,,,,METAR,97.0
LFBU 311530Z AUTO 15011KT 9999 -RA ///TCU 18/15 Q1011 TEMPO 22015G30KT 3000 SHRA SCT030CB,LFBU,2022-10-31T15:30:00Z,45.72,0.22,18.0,15.0,150,11,,6.21,29.852362,,,TRUE,,,,,,,-RA,,,,,,,,,,,,,,,,,,,,,METAR,124.0
LFBT 311530Z AUTO 23003KT 9999 BKN100/// OVC130/// //////TCU 20/11 Q1014 TEMPO 28015G25KT SCT035CB,LFBT,2022-10-31T15:30:00Z,43.18,0.0,20.0,11.0,230,3,,6.21,29.940945,,,TRUE,,,,,,,,BKN,10000,OVC,13000,,,,,VFR,,,,,,,,,,,,METAR,359.0
LFBO 311530Z AUTO 14010KT 9999 ///TCU 23/14 Q1013 TEMPO 14015G25KT BECMG NSC,LFBO,2022-10-31T15:30:00Z,43.62,1.37,23.0,14.0,140,10,,6.21,29.911417,,,TRUE,,,,,,,,,,,,,,,,,,,,,,,,,,,,METAR,150.0
LFBM 311530Z AUTO 14005KT 9999 // NSC 20/14 Q1012,LFBM,2022-10-31T15:30:00Z,43.92,-0.5,20.0,14.0,140,5,,6.21,29.88189,,,TRUE,,,,,,,,CLR,,,,,,,,VFR,,,,,,,,,,,,METAR,56.0
LFBL 311530Z AUTO /////KT 9999 -RA ////// 18/14 Q1013,LFBL,2022-10-31T15:30:00Z,45.87,1.17,18.0,14.0,,,,6.21,29.911417,,,TRUE,,,,,,,-RA,,,,,,,,,,,,,,,,,,,,,METAR,402.0
LFBI 311530Z AUTO 16012KT 9999 -RA NSC 17/15 Q1010 TEMPO 3000 SHRA BKN014 BKN025CB BECMG 20016G30KT,LFBI,2022-10-31T15:30:00Z,46.58,0.32,17.0,15.0,160,12,,6.21,29.822834,,,TRUE,,,,,,,-RA,CLR,,,,,,,,VFR,,,1.6,,,,,,,,,METAR,117.0
LFBH 311530Z AUTO 17016KT CAVOK 19/15 Q1008 TEMPO 21025G40KT 3000 SHRA BKN025CB,LFBH,2022-10-31T15:30:00Z,46.18,-1.2,19.0,15.0,170,16,,6.21,29.763779,,,TRUE,,,,,,,,CAVOK,,,,,,,,VFR,,,-2.5,,,,,,,,,METAR,18.0
LFBG 311530Z AUTO 15014KT CAVOK 19/15 Q1010 TEMPO 16015G25KT 2000 SHRA BKN030CB,LFBG,2022-10-31T15:30:00Z,45.67,-0.32,19.0,15.0,150,14,,6.21,29.822834,,,TRUE,,,,,,,,CAVOK,,,,,,,,VFR,,,,,,,,,,,,METAR,28.0
LFBF 311530Z AUTO 15007KT 110V200 CAVOK 23/14 Q1013,LFBF,2022-10-31T15:30:00Z,43.53,1.37,23.0,14.0,150,7,,6.21,29.911417,,,TRUE,,,,,,,,CAVOK,,,,,,,,VFR,,,,,,,,,,,,METAR,159.0
LFBE 311530Z AUTO 19007KT 9999 -RA //////TCU 20/14 Q1013 TEMPO 20015G25KT 3000 TSRA BKN010 BKN030CB,LFBE,2022-10-31T15:30:00Z,44.82,0.52,20.0,14.0,190,7,,6.21,29.911417,,,TRUE,,,,,,,-RA,,,,,,,,,,,,1.5,,,,,,,,,METAR,49.0
LFBD 311530Z AUTO 17008KT 9999 NSC 19/15 Q1011 TEMPO 20015G25KT 3000 TSRA BKN020CB,LFBD,2022-10-31T15:30:00Z,44.82,-0.7,19.0,15.0,170,8,,6.21,29.852362,,,TRUE,,,,,,,,CLR,,,,,,,,VFR,,,1.5,,,,,,,,,METAR,48.0
LFBC 311530Z AUTO 17006KT CAVOK 19/15 Q1011 NOSIG,LFBC,2022-10-31T15:30:00Z,44.52,-1.12,19.0,15.0,170,6,,6.21,29.852362,,,TRUE,,,TRUE,,,,,CAVOK,,,,,,,,VFR,,,,,,,,,,,,METAR,22.0
LFBA 311530Z AUTO 29005KT 9999 -RA //////TCU 20/17 Q1014 TEMPO 28015G35KT -TSRA SCT060CB BKN080,LFBA,2022-10-31T15:30:00Z,44.17,0.6,20.0,17.0,290,5,,6.21,29.940945,,,TRUE,,,,,,,-RA,,,,,,,,,,,,,,,,,,,,,METAR,68.0
LFAT 311530Z AUTO 13008KT CAVOK 17/14 Q1009 NOSIG,LFAT,2022-10-31T15:30:00Z,50.52,1.62,17.0,14.0,130,8,,6.21,29.793306,,,TRUE,,,TRUE,,,,,CAVOK,,,,,,,,VFR,,,,,,,,,,,,METAR,2.0
LFAQ 311530Z AUTO 14010KT CAVOK 17/13 Q1010 NOSIG,LFAQ,2022-10-31T15:30:00Z,49.97,2.7,17.0,13.0,140,10,,6.21,29.822834,,,TRUE,,,TRUE,,,,,CAVOK,,,,,,,,VFR,,,,,,,,,,,,METAR,107.0
LFAC 311530Z AUTO 11011KT CAVOK 16/13 Q1009,LFAC,2022-10-31T15:30:00Z,50.97,1.95,16.0,13.0,110,11,,6.21,29.793306,,,TRUE,,,,,,,,CAVOK,,,,,,,,VFR,,,,,,,,,,,,METAR,3.0
LEZL 311530Z 18001KT CAVOK 23/15 Q1018 NOSIG,LEZL,2022-10-31T15:30:00Z,37.42,-5.9,23.0,15.0,180,1,,6.21,30.059055,,,,,,TRUE,,,,,CAVOK,,,,,,,,VFR,,,,,,,,,,,,METAR,26.0
LEZG 311530Z 34003KT 290V010 9999 -RA FEW085 21/16 Q1017,LEZG,2022-10-31T15:30:00Z,41.67,-1.02,21.0,16.0,340,3,,6.21,30.029528,,,,,,,,,,-RA,FEW,8500,,,,,,,VFR,,,,,,,,,,,,METAR,245.0
LEXJ 311530Z 32014KT 280V010 9999 FEW050 BKN060 20/14 Q1012,LEXJ,2022-10-31T15:30:00Z,43.42,-3.82,20.0,14.0,320,14,,6.21,29.88189,,,,,,,,,,,FEW,5000,BKN,6000,,,,,VFR,,,,,,,,,,,,METAR,1.0
LEVX 311530Z 31006KT 240V350 9999 BKN025 FEW030TCU 16/12 Q1016 NOSIG,LEVX,2022-10-31T15:30:00Z,42.23,-8.62,16.0,12.0,310,6,,6.21,30.0,,,,,,TRUE,,,,,BKN,2500,FEW,3000,,,,,MVFR,,,,,,,,,,,,METAR,253.0
LEVT 311530Z 23009G20KT 200V260 9999 BKN050 19/10 Q1015,LEVT,2022-10-31T15:30:00Z,42.87,-2.72,19.0,10.0,230,9,20,6.21,29.970472,,,,,,,,,,,BKN,5000,,,,,,,VFR,,,,,,,,,,,,METAR,501.0
LEVS 311530Z 17005KT 140V200 9999 -RA FEW030 BKN065 16/11 Q1020,LEVS,2022-10-31T15:30:00Z,40.37,-3.78,16.0,11.0,170,5,,6.21,30.11811,,,,,,,,,,-RA,FEW,3000,BKN,6500,,,,,VFR,,,,,,,,,,,,METAR,683.0
LEVD 311530Z 21015KT 9999 FEW008 BKN015 BKN026 15/13 Q1017,LEVD,2022-10-31T15:30:00Z,41.72,-4.85,15.0,13.0,210,15,,6.21,30.029528,,,,,,,,,,,FEW,800,BKN,1500,BKN,2600,,,MVFR,,,,,,,,,,,,METAR,844.0
LEVC 311530Z 15004KT 120V190 9999 FEW025 22/17 Q1018 NOSIG,LEVC,2022-10-31T15:30:00Z,39.5,-0.47,22.0,17.0,150,4,,6.21,30.059055,,,,,,TRUE,,,,,FEW,2500,,,,,,,VFR,,,,,,,,,,,,METAR,58.0
LETU 311530Z AUTO 16008G28KT 120V220 9999 NSC 20/11 Q1018,LETU,2022-10-31T15:30:00Z,,,20.0,11.0,160,8,28,6.21,30.059055,,,TRUE,,,,,,,,CLR,,,,,,,,VFR,,,,,,,,,,,,METAR,
LETO 311530Z 18006KT 9999 -DZ SCT065 15/13 Q1020 TEMPO RA,LETO,2022-10-31T15:30:00Z,40.48,-3.47,15.0,13.0,180,6,,6.21,30.11811,,,,,,,,,,-DZ,SCT,6500,,,,,,,VFR,,,,,,,,,,,,METAR,598.0
LETL 311530Z AUTO 20010KT CAVOK 18/07 Q1021,LETL,2022-10-31T15:30:00Z,40.42,-1.22,18.0,7.0,200,10,,6.21,30.147638,,,TRUE,,,,,,,,CAVOK,,,,,,,,VFR,,,,,,,,,,,,METAR,1024.0
LESU 311530Z 21006KT 180V240 9999 FEW034 BKN090 17/12 Q1020,LESU,2022-10-31T15:30:00Z,42.33,1.4,17.0,12.0,210,6,,6.21,30.11811,,,,,,,,,,,FEW,3400,BKN,9000,,,,,VFR,,,,,,,,,,,,METAR,802.0
LEST 311530Z 31007KT 280V340 9999 FEW025 15/10 Q1016 NOSIG,LEST,2022-10-31T15:30:00Z,42.88,-8.42,15.0,10.0,310,7,,6.21,30.0,,,,,,TRUE,,,,,FEW,2500,,,,,,,VFR,,,,,,,,,,,,METAR,363.0
LESO 311530Z 19011KT 9999 FEW065 24/13 Q1012,LESO,2022-10-31T15:30:00Z,43.35,-1.8,24.0,13.0,190,11,,6.21,29.88189,,,,,,,,,,,FEW,6500,,,,,,,VFR,,,,,,,,,,,,METAR,3.0
LESB 311530Z AUTO 22009KT CAVOK 24/18 Q1019,LESB,2022-10-31T15:30:00Z,39.6,2.7,24.0,18.0,220,9,,6.21,30.088583,,,TRUE,,,,,,,,CAVOK,,,,,,,,VFR,,,,,,,,,,,,METAR,48.0
LESA 311530Z 23014KT 9999 FEW017 SCT030 BKN040 15/12 Q1017,LESA,2022-10-31T15:30:00Z,40.95,-5.5,15.0,12.0,230,14,,6.21,30.029528,,,,,,,,,,,FEW,1700,SCT,3000,BKN,4000,,,VFR,,,,,,,,,,,,METAR,788.0
LERT 311530Z 20008KT 120V240 CAVOK 21/18 Q1019 NOSIG,LERT,2022-10-31T15:30:00Z,36.63,-6.33,21.0,18.0,200,8,,6.21,30.088583,,,,,,TRUE,,,,,CAVOK,,,,,,,,VFR,,,,,,,,,,,,METAR,27.0
LERS 311530Z 20006KT 160V230 9999 SCT020 22/18 Q1019,LERS,2022-10-31T15:30:00Z,41.13,1.17,22.0,18.0,200,6,,6.21,30.088583,,,,,,,,,,,SCT,2000,,,,,,,VFR,,,,,,,,,,,,METAR,68.0
LERI 311530Z VRB03KT CAVOK 25/16 Q1018 NOSIG,LERI,2022-10-31T15:30:00Z,37.95,-1.22,25.0,16.0,0,3,,6.21,30.059055,,,,,,TRUE,,,,,CAVOK,,,,,,,,VFR,,,,,,,,,,,,METAR,74.0
LEPP 311530Z 16014G25KT 120V200 9999 FEW045 20/10 Q1016,LEPP,2022-10-31T15:30:00Z,42.77,-1.65,20.0,10.0,160,14,25,6.21,30.0,,,,,,,,,,,FEW,4500,,,,,,,VFR,,,,,,,,,,,,METAR,448.0
LEPA 311530Z 18007KT 140V210 9999 FEW028 25/18 Q1019 NOSIG,LEPA,2022-10-31T15:30:00Z,39.55,2.73,25.0,18.0,180,7,,6.21,30.088583,,,,,,TRUE,,,,,FEW,2800,,,,,,,VFR,,,,,,,,,,,,METAR,8.0
LEMO 311530Z VRB01KT CAVOK 23/14 Q1019 NOSIG,LEMO,2022-10-31T15:30:00Z,37.17,-5.62,23.0,14.0,0,1,,6.21,30.088583,,,,,,TRUE,,,,,CAVOK,,,,,,,,VFR,,,,,,,,,,,,METAR,82.0
LEMI 311530Z 15007KT 9999 FEW020 22/17 Q1019,LEMI,2022-10-31T15:30:00Z,37.8,-1.12,22.0,17.0,150,7,,6.21,30.088583,,,,,,,,,,,FEW,2000,,,,,,,VFR,,,,,,,,,,,,METAR,193.0
LEMH 311530Z 17010KT 140V200 9999 SCT020 BKN025 22/19 Q1020,LEMH,2022-10-31T15:30:00Z,39.87,4.22,22.0,19.0,170,10,,6.21,30.11811,,,,,,,,,,,SCT,2000,BKN,2500,,,,,MVFR,,,,,,,,,,,,METAR,82.0
LEMG 311530Z 11004KT 070V140 9999 FEW030 21/17 Q1019 NOSIG,LEMG,2022-10-31T15:30:00Z,36.67,-4.47,21.0,17.0,110,4,,6.21,30.088583,,,,,,TRUE,,,,,FEW,3000,,,,,,,VFR,,,,,,,,,,,,METAR,5.0
LEMD 311530Z 16006KT 120V210 9999 SCT060 BKN080 16/13 Q1020 REDZ TEMPO RA,LEMD,2022-10-31T15:30:00Z,40.45,-3.57,16.0,13.0,160,6,,6.21,30.11811,,,,,,,,,,,SCT,6000,BKN,8000,,,,,VFR,,,,,,,,,,,,METAR,589.0
LELO 311530Z VRB02KT 9999 FEW040 BKN067 18/13 Q1015,LELO,2022-10-31T15:30:00Z,42.45,-2.32,18.0,13.0,0,2,,6.21,29.970472,,,,,,,,,,,FEW,4000,BKN,6700,,,,,VFR,,,,,,,,,,,,METAR,352.0
LELN 311530Z 22012KT 9999 -RA FEW005 BKN010 13/13 Q1015 RERA,LELN,2022-10-31T15:30:00Z,42.58,-5.65,13.0,13.0,220,12,,6.21,29.970472,,,,,,,,,,-RA,FEW,500,BKN,1000,,,,,MVFR,,,,,,,,,,,,METAR,911.0
LELL 311530Z 18006KT 140V210 9000 SCT025 BKN040 22/17 Q1019,LELL,2022-10-31T15:30:00Z,41.52,2.1,22.0,17.0,180,6,,5.59,30.088583,,,,,,,,,,,SCT,2500,BKN,4000,,,,,VFR,,,,,,,,,,,,METAR,136.0
LELC 311530Z 12005KT 080V160 9999 SCT022 23/19 Q1018 NOSIG,LELC,2022-10-31T15:30:00Z,37.77,-0.8,23.0,19.0,120,5,,6.21,30.059055,,,,,,TRUE,,,,,SCT,2200,,,,,,,VFR,,,,,,,,,,,,METAR,3.0
LEJR 311530Z 18005KT 080V230 CAVOK 23/14 Q1018,LEJR,2022-10-31T15:30:00Z,36.75,-6.07,23.0,14.0,180,5,,6.21,30.059055,,,,,,,,,,,CAVOK,,,,,,,,VFR,,,,,,,,,,,,METAR,25.0
LEIB 311530Z 17005KT 120V200 9999 SCT018 23/19 Q1018 NOSIG,LEIB,2022-10-31T15:30:00Z,38.87,1.38,23.0,19.0,170,5,,6.21,30.059055,,,,,,TRUE,,,,,SCT,1800,,,,,,,VFR,,,,,,,,,,,,METAR,4.0
LEHC 311530Z 10009KT CAVOK 19/14 Q1019,LEHC,2022-10-31T15:30:00Z,42.08,-0.32,19.0,14.0,100,9,,6.21,30.088583,,,,,,,,,,,CAVOK,,,,,,,,VFR,,,,,,,,,,,,METAR,540.0
LEGT 311530Z 20003KT 9999 -DZ SCT049 17/11 Q1020,LEGT,2022-10-31T15:30:00Z,40.28,-3.72,17.0,11.0,200,3,,6.21,30.11811,,,,,,,,,,-DZ,SCT,4900,,,,,,,VFR,,,,,,,,,,,,METAR,619.0
LEGR 311530Z 27006KT 230V300 CAVOK 24/06 Q1021,LEGR,2022-10-31T15:30:00Z,37.18,-3.78,24.0,6.0,270,6,,6.21,30.147638,,,,,,,,,,,CAVOK,,,,,,,,VFR,,,,,,,,,,,,METAR,560.0
LEGE 311530Z 19016KT 9999 FEW040 22/17 Q1018,LEGE,2022-10-31T15:30:00Z,41.9,2.77,22.0,17.0,190,16,,6.21,30.059055,,,,,,,,,,,FEW,4000,,,,,,,VFR,,,,,,,,,,,,METAR,140.0
LEDA 311530Z 15007KT 120V190 CAVOK 22/14 Q1018,LEDA,2022-10-31T15:30:00Z,41.73,0.53,22.0,14.0,150,7,,6.21,30.059055,,,,,,,,,,,CAVOK,,,,,,,,VFR,,,,,,,,,,,,METAR,352.0
LECV 311530Z VRB02KT 9999 -RA SCT020 SCT040 12/12 Q1020,LECV,2022-10-31T15:30:00Z,40.68,-3.75,12.0,12.0,0,2,,6.21,30.11811,,,,,,,,,,-RA,SCT,2000,SCT,4000,,,,,VFR,,,,,,,,,,,,METAR,995.0
LECO 311530Z 30007KT 240V010 9999 SCT018 17/12 Q1016 TEMPO 3000 RA BKN010,LECO,2022-10-31T15:30:00Z,43.3,-8.37,17.0,12.0,300,7,,6.21,30.0,,,,,,,,,,,SCT,1800,,,,,,,VFR,,,,,,,,,,,,METAR,80.0
LECH 311530Z AUTO 18006KT 150V220 CAVOK 20/16 Q1019,LECH,2022-10-31T15:30:00Z,40.2,0.07,20.0,16.0,180,6,,6.21,30.088583,,,TRUE,,,,,,,,CAVOK,,,,,,,,VFR,,,,,,,,,,,,METAR,360.0
LEBZ 311530Z 18006KT 140V210 7000 -RA FEW022 20/18 Q1018,LEBZ,2022-10-31T15:30:00Z,38.87,-6.82,20.0,18.0,180,6,,4.35,30.059055,,,,,,,,,,-RA,FEW,2200,,,,,,,MVFR,,,,,,,,,,,,METAR,183.0
LEBT 311530Z AUTO 12005KT 080V150 CAVOK 22/17 Q1018,LEBT,2022-10-31T15:30:00Z,39.58,-0.45,22.0,17.0,120,5,,6.21,30.059055,,,TRUE,,,,,,,,CAVOK,,,,,,,,VFR,,,,,,,,,,,,METAR,50.0
LEBR 311530Z AUTO 15008KT 110V200 8000 RA FEW034 BKN040 OVC069 17/15 Q1018,LEBR,2022-10-31T15:30:00Z,42.2,-1.43,17.0,15.0,150,8,,4.97,30.059055,,,TRUE,,,,,,,RA,FEW,3400,BKN,4000,OVC,6900,,,MVFR,,,,,,,,,,,,METAR,347.0
LEBL 311530Z 13003KT 080V160 9999 FEW025 SCT035 21/19 Q1019 NOSIG,LEBL,2022-10-31T15:30:00Z,41.28,2.07,21.0,19.0,130,3,,6.21,30.088583,,,,,,TRUE,,,,,FEW,2500,SCT,3500,,,,,VFR,,,,,,,,,,,,METAR,2.0
LEBB 311530Z 21012G25KT 150V260 9999 SCT060 24/12 Q1012 NOSIG,LEBB,2022-10-31T15:30:00Z,43.28,-2.92,24.0,12.0,210,12,25,6.21,29.88189,,,,,,TRUE,,,,,SCT,6000,,,,,,,VFR,,,,,,,,,,,,METAR,38.0
LEBA 311530Z 06003KT 320V110 CAVOK 21/15 Q1018,LEBA,2022-10-31T15:30:00Z,37.85,-4.83,21.0,15.0,60,3,,6.21,30.059055,,,,,,,,,,,CAVOK,,,,,,,,VFR,,,,,,,,,,,,METAR,88.0
LEAS 311530Z 29019G29KT 260V320 9999 FEW010 17/13 Q1013 NOSIG,LEAS,2022-10-31T15:30:00Z,43.57,-6.03,17.0,13.0,290,19,29,6.21,29.911417,,,,,,TRUE,,,,,FEW,1000,,,,,,,VFR,,,,,,,,,,,,METAR,120.0
LEAO 311530Z 27005KT 9999 -RA SCT040 20/09 Q1021,LEAO,2022-10-31T15:30:00Z,38.95,-3.73,20.0,9.0,270,5,,6.21,30.147638,,,,,,,,,,-RA,SCT,4000,,,,,,,VFR,,,,,,,,,,,,METAR,621.0
LEAM 311530Z 22005KT 190V280 CAVOK 23/19 Q1018,LEAM,2022-10-31T15:30:00Z,36.85,-2.37,23.0,19.0,220,5,,6.21,30.059055,,,,,,,,,,,CAVOK,,,,,,,,VFR,,,,,,,,,,,,METAR,16.0
LEAL 311530Z 11006KT 070V160 9999 SCT023 22/18 Q1018 NOSIG,LEAL,2022-10-31T15:30:00Z,38.27,-0.55,22.0,18.0,110,6,,6.21,30.059055,,,,,,TRUE,,,,,SCT,2300,,,,,,,VFR,,,,,,,,,,,,METAR,26.0
LEAG 311530Z AUTO 05006KT 020V080 CAVOK 20/17 Q1020,LEAG,2022-10-31T15:30:00Z,36.12,-5.45,20.0,17.0,50,6,,6.21,30.11811,,,TRUE,,,,,,,,CAVOK,,,,,,,,VFR,,,,,,,,,,,,METAR,4.0
LEAB 311530Z 33007KT CAVOK 21/09 Q1021 NOSIG,LEAB,2022-10-31T15:30:00Z,38.95,-1.85,21.0,9.0,330,7,,6.21,30.147638,,,,,,TRUE,,,,,CAVOK,,,,,,,,VFR,,,,,,,,,,,,METAR,704.0
LDZD 311530Z 28005KT CAVOK 21/16 Q1021 NOSIG,LDZD,2022-10-31T15:30:00Z,44.1,15.33,21.0,16.0,280,5,,6.21,30.147638,,,,,,TRUE,,,,,CAVOK,,,,,,,,VFR,,,,,,,,,,,,METAR,82.0
LDZA 311530Z VRB02KT 0300 R04/0550D R22/0550N FG VV002 13/12 Q1021 BECMG 0100 VV001,LDZA,2022-10-31T15:30:00Z,45.72,16.07,13.0,12.0,0,2,,0.19,30.147638,,,,,,,,,,FG,OVX,0,,,,,,,LIFR,,,,,,,,,,,200,METAR,103.0
LDSP 311530Z 24004KT CAVOK 22/15 Q1020 NOSIG,LDSP,2022-10-31T15:30:00Z,43.53,16.3,22.0,15.0,240,4,,6.21,30.11811,,,,,,TRUE,,,,,CAVOK,,,,,,,,VFR,,,,,,,,,,,,METAR,16.0
LDRI 311530Z 34001KT CAVOK 20/12 Q1021,LDRI,2022-10-31T15:30:00Z,45.22,14.57,20.0,12.0,340,1,,6.21,30.147638,,,,,,,,,,,CAVOK,,,,,,,,VFR,,,,,,,,,,,,METAR,80.0
LDPL 311530Z 28003KT CAVOK 20/14 Q1021 NOSIG,LDPL,2022-10-31T15:30:00Z,44.88,13.92,20.0,14.0,280,3,,6.21,30.147638,,,,,,TRUE,,,,,CAVOK,,,,,,,,VFR,,,,,,,,,,,,METAR,63.0
LDOS 311530Z 07005KT 2000 BR NSC 12/11 Q1022,LDOS,2022-10-31T15:30:00Z,45.47,18.82,12.0,11.0,70,5,,1.24,30.177166,,,,,,,,,,BR,CLR,,,,,,,,IFR,,,,,,,,,,,,METAR,82.0
LDDU 311530Z VRB02KT CAVOK 21/14 Q1020 NOSIG,LDDU,2022-10-31T15:30:00Z,42.57,18.27,21.0,14.0,0,2,,6.21,30.11811,,,,,,TRUE,,,,,CAVOK,,,,,,,,VFR,,,,,,,,,,,,METAR,156.0
LCPH 311530Z 32010KT 9999 FEW030TCU 22/15 Q1014,LCPH,2022-10-31T15:30:00Z,34.72,32.47,22.0,15.0,320,10,,6.21,29.940945,,,,,,,,,,,FEW,3000,,,,,,,VFR,,,,,,,,,,,,METAR,8.0
LCLK 311530Z 01007KT 9999 FEW045 23/15 Q1014 NOSIG,LCLK,2022-10-31T15:30:00Z,34.87,33.62,23.0,15.0,10,7,,6.21,29.940945,,,,,,TRUE,,,,,FEW,4500,,,,,,,VFR,,,,,,,,,,,,METAR,2.0
LBWN 311530Z 09004KT CAVOK 18/10 Q1020 NOSIG,LBWN,2022-10-31T15:30:00Z,43.22,27.82,18.0,10.0,90,4,,6.21,30.11811,,,,,,TRUE,,,,,CAVOK,,,,,,,,VFR,,,,,,,,,,,,METAR,74.0
LBSF 311530Z 04005KT CAVOK 20/07 Q1022 NOSIG,LBSF,2022-10-31T15:30:00Z,42.65,23.37,20.0,7.0,40,5,,6.21,30.177166,,,,,,TRUE,,,,,CAVOK,,,,,,,,VFR,,,,,,,,,,,,METAR,592.0
LBPD 311530Z AUTO 11004KT 9999 OVC150/// 23/08 Q1020 NOSIG,LBPD,2022-10-31T15:30:00Z,42.05,24.85,23.0,8.0,110,4,,6.21,30.11811,,,TRUE,,,TRUE,,,,,OVC,15000,,,,,,,VFR,,,,,,,,,,,,METAR,182.0
LBGO 311530Z AUTO 27004KT 9999 NCD 17/09 Q1020 NOSIG,LBGO,2022-10-31T15:30:00Z,43.15,25.72,17.0,9.0,270,4,,6.21,30.11811,,,TRUE,,,TRUE,,,,,CLR,,,,,,,,VFR,,,,,,,,,,,,METAR,84.0
LBBG 311530Z 11006KT 9999 FEW045 17/12 Q1021 NOSIG,LBBG,2022-10-31T15:30:00Z,42.57,27.52,17.0,12.0,110,6,,6.21,30.147638,,,,,,TRUE,,,,,FEW,4500,,,,,,,VFR,,,,,,,,,,,,METAR,41.0
KTXW 311530Z AUTO 11009KT 1SM HZ OVC060 25/18 A2999 RMK AO2 VIS 1/2V5 T02460181,KTXW,2022-10-31T15:30:00Z,26.18,-97.97,24.6,18.1,110,9,,1.0,29.991142,,,TRUE,TRUE,,,,,,HZ,OVC,6000,,,,,,,IFR,,,,,,,,,,,,SPECI,21.0
KTNB 311530Z AUTO 20006KT 2SM +RA SCT006 OVC012 13/13 A3009 RMK AO2 P0010 T01260126,KTNB,2022-10-31T15:30:00Z,36.2,-81.65,12.6,12.6,200,6,,2.0,30.088583,,,TRUE,TRUE,,,,,,+RA,SCT,600,OVC,1200,,,,,IFR,,,,,,0.1,,,,,,SPECI,958.0
KT41 311530Z AUTO 10SM CLR 22/13 A3008 RMK AO2 T02200133,KT41,2022-10-31T15:30:00Z,29.67,-95.07,22.0,13.3,,,,10.0,30.079725,,,TRUE,TRUE,,,,,,,CLR,,,,,,,,VFR,,,,,,,,,,,,SPECI,8.0
KS21 311530Z AUTO 18012KT 10SM OVC035 02/M02 A3004 RMK AO2,KS21,2022-10-31T15:30:00Z,43.88,-121.45,2.0,-2.0,180,12,,10.0,30.041338,,,TRUE,TRUE,,,,,,,OVC,3500,,,,,,,VFR,,,,,,,,,,,,METAR,1269.0
KROG 311530Z 6SM SCT003 13/11 A3003 RMK AO2 $,KROG,2022-10-31T15:30:00Z,36.37,-94.1,13.0,11.0,,,,6.0,30.029528,,,,TRUE,TRUE,,,,,,SCT,300,,,,,,,VFR,,,,,,,,,,,,SPECI,407.0
KPVW 311530Z AUTO 00000KT 10SM CLR 14/07 A3009 RMK AO2 T01430074,KPVW,2022-10-31T15:30:00Z,34.17,-101.72,14.3,7.4,0,0,,10.0,30.088583,,,TRUE,TRUE,,,,,,,CLR,,,,,,,,VFR,,,,,,,,,,,,SPECI,1029.0
KOZA 311530Z AUTO 14005KT 10SM CLR 17/08 A3010 RMK AO2,KOZA,2022-10-31T15:30:00Z,30.73,-101.2,17.0,8.0,140,5,,10.0,30.100393,,,TRUE,TRUE,,,,,,,CLR,,,,,,,,VFR,,,,,,,,,,,,SPECI,721.0
KMYZ 311530Z AUTO 00000KT 10SM CLR 09/02 A3000 RMK AO2,KMYZ,2022-10-31T15:30:00Z,39.85,-96.63,9.0,2.0,0,0,,10.0,30.0,,,TRUE,TRUE,,,,,,,CLR,,,,,,,,VFR,,,,,,,,,,,,METAR,388.0
KMPZ 311530Z AUTO 32004KT 10SM CLR 12/11 A2990 RMK AO2,KMPZ,2022-10-31T15:30:00Z,40.95,-91.52,12.0,11.0,320,4,,10.0,29.899607,,,TRUE,TRUE,,,,,,,CLR,,,,,,,,VFR,,,,,,,,,,,,SPECI,222.0
KHSG 311530Z AUTO 00000KT 10SM CLR 07/M02 A2997 RMK AO2 T00651024,KHSG,2022-10-31T15:30:00Z,43.72,-108.38,6.5,-2.4,0,0,,10.0,29.970472,,,TRUE,TRUE,,,,,,,CLR,,,,,,,,VFR,,,,,,,,,,,,SPECI,1497.0
KHBV 311530Z AUTO 11006KT 10SM SCT065 OVC080 20/15 A3004 RMK AO2 T02020150,KHBV,2022-10-31T15:30:00Z,27.35,-98.73,20.2,15.0,110,6,,10.0,30.041338,,,TRUE,TRUE,,,,,,,SCT,6500,OVC,8000,,,,,VFR,,,,,,,,,,,,SPECI,200.0
KEAN 311530Z AUTO 26014G21KT 10SM CLR 12/M07 A2999 RMK AO2 T01161067,KEAN,2022-10-31T15:30:00Z,42.05,-104.93,11.6,-6.7,260,14,21,10.0,29.991142,,,TRUE,TRUE,,,,,,,CLR,,,,,,,,VFR,,,,,,,,,,,,SPECI,1452.0
KDWX 311530Z AUTO 10SM CLR M08/M11 A3022 RMK AO2 T10771107,KDWX,2022-10-31T15:30:00Z,41.03,-107.5,-7.7,-10.7,,,,10.0,30.221457,,,TRUE,TRUE,,,,,,,CLR,,,,,,,,VFR,,,,,,,,,,,,SPECI,1974.0
KDVK 311530Z AUTO 00000KT 10SM BKN014 BKN019 OVC055 16/14 A2997 RMK AO2,KDVK,2022-10-31T15:30:00Z,37.58,-84.77,16.0,14.0,0,0,,10.0,29.970472,,,TRUE,TRUE,,,,,,,BKN,1400,BKN,1900,OVC,5500,,,MVFR,,,,,,,,,,,,METAR,309.0
KCHK 311530Z AUTO 00000KT 10SM CLR 12/08 A3004 RMK AO2 T01190083,KCHK,2022-10-31T15:30:00Z,35.1,-97.97,11.9,8.3,0,0,,10.0,30.041338,,,TRUE,TRUE,,,,,,,CLR,,,,,,,,VFR,,,,,,,,,,,,METAR,346.0
KBMC 311530Z AUTO 10SM CLR 02/M02 A3018 RMK AO1 T00201017,KBMC,2022-10-31T15:30:00Z,41.55,-112.07,2.0,-1.7,,,,10.0,30.180119,,,TRUE,TRUE,,,,,,,CLR,,,,,,,,VFR,,,,,,,,,,,,SPECI,1289.0
KANK 311530Z AUTO 33006KT 10SM CLR 03/M08 A3025 RMK AO1 T00301080,KANK,2022-10-31T15:30:00Z,38.53,-106.05,3.0,-8.0,330,6,,10.0,30.250984,,,TRUE,TRUE,,,,,,,CLR,,,,,,,,VFR,,,,,,,,,,,,SPECI,2293.0
K4V1 311530Z AUTO 26017G21KT 10SM CLR 13/M05 A3008 RMK AO2 T01321052,K4V1,2022-10-31T15:30:00Z,37.7,-104.78,13.2,-5.2,260,17,21,10.0,30.079725,,,TRUE,TRUE,,,,,,,CLR,,,,,,,,VFR,,,,,,,,,,,,METAR,1847.0
K1F0 311530Z AUTO 22003KT 10SM CLR 13/10 A3007 RMK AO2 T01320096,K1F0,2022-10-31T15:30:00Z,34.15,-97.12,13.2,9.6,220,3,,10.0,30.070866,,,TRUE,TRUE,,,,,,,CLR,,,,,,,,VFR,,,,,,,,,,,,METAR,256.0
HUEN 311530Z 14008KT CAVOK 25/19 Q1014 NOSIG,HUEN,2022-10-31T15:30:00Z,0.03,32.45,25.0,19.0,140,8,,6.21,29.940945,,,,,,TRUE,,,,,CAVOK,,,,,,,,VFR,,,,,,,,,,,,METAR,1147.0
HKMO 311530Z 10007KT 9999 BKN024 26/22 Q1012 NOSIG,HKMO,2022-10-31T15:30:00Z,-4.02,39.62,26.0,22.0,100,7,,6.21,29.88189,,,,,,TRUE,,,,,BKN,2400,,,,,,,MVFR,,,,,,,,,,,,METAR,55.0
HKJK 311530Z 06014KT 9999 FEW025CB SCT026 24/12 Q1020 NOSIG,HKJK,2022-10-31T15:30:00Z,-1.32,36.92,24.0,12.0,60,14,,6.21,30.11811,,,,,,TRUE,,,,,FEW,2500,SCT,2600,,,,,VFR,,,,,,,,,,,,METAR,1615.0
GQNO 311530Z 09009KT 050V140 8000 NSC 38/M04 Q1010 NOSIG,GQNO,2022-10-31T15:30:00Z,18.3,-15.97,38.0,-4.0,90,9,,4.97,29.822834,,,,,,TRUE,,,,,CLR,,,,,,,,MVFR,,,,,,,,,,,,METAR,1.0
GOBD 311530Z 24008KT 210V270 8000 NSC 34/15 Q1009 NOSIG,GOBD,2022-10-31T15:30:00Z,14.67,-17.07,34.0,15.0,240,8,,4.97,29.793306,,,,,,TRUE,,,,,CLR,,,,,,,,MVFR,,,,,,,,,,,,METAR,90.0
GMTT 311530Z 26005KT 8000 NSC 22/15 Q1019 NOSIG,GMTT,2022-10-31T15:30:00Z,35.72,-5.9,22.0,15.0,260,5,,4.97,30.088583,,,,,,TRUE,,,,,CLR,,,,,,,,MVFR,,,,,,,,,,,,METAR,19.0
GMMX 311530Z 30008KT 260V350 9999 FEW100 32/00 Q1019 NOSIG,GMMX,2022-10-31T15:30:00Z,31.62,-8.03,32.0,0.0,300,8,,6.21,30.088583,,,,,,TRUE,,,,,FEW,10000,,,,,,,VFR,,,,,,,,,,,,METAR,465.0
GMMN 311530Z 34011KT CAVOK 26/15 Q1020 NOSIG,GMMN,2022-10-31T15:30:00Z,33.37,-7.58,26.0,15.0,340,11,,6.21,30.11811,,,,,,TRUE,,,,,CAVOK,,,,,,,,VFR,,,,,,,,,,,,METAR,196.0
GMME 311530Z 35005KT 300V020 5000 NSC 23/21 Q1018 NOSIG,GMME,2022-10-31T15:30:00Z,34.05,-6.77,23.0,21.0,350,5,,3.11,30.059055,,,,,,TRUE,,,,,CLR,,,,,,,,MVFR,,,,,,,,,,,,METAR,84.0
GMFO 311530Z 33011KT CAVOK 29/14 Q1019 NOSIG,GMFO,2022-10-31T15:30:00Z,34.78,-1.92,29.0,14.0,330,11,,6.21,30.088583,,,,,,TRUE,,,,,CAVOK,,,,,,,,VFR,,,,,,,,,,,,METAR,452.0
GMFF 311530Z 34008KT 9999 FEW033 BKN200 29/M03 Q1020 NOSIG,GMFF,2022-10-31T15:30:00Z,33.92,-4.97,29.0,-3.0,340,8,,6.21,30.11811,,,,,,TRUE,,,,,FEW,3300,BKN,20000,,,,,VFR,,,,,,,,,,,,METAR,575.0
GMAD 311530Z 27015KT CAVOK 33/M05 Q1017 NOSIG,GMAD,2022-10-31T15:30:00Z,30.32,-9.42,33.0,-5.0,270,15,,6.21,30.029528,,,,,,TRUE,,,,,CAVOK,,,,,,,,VFR,,,,,,,,,,,,METAR,66.0
GEML 311530Z 05005KT 010V080 CAVOK 23/18 Q1019,GEML,2022-10-31T15:30:00Z,35.27,-2.95,23.0,18.0,50,5,,6.21,30.088583,,,,,,,,,,,CAVOK,,,,,,,,VFR,,,,,,,,,,,,METAR,48.0
GECE 311530Z AUTO 24003KT CAVOK 20/18 Q1019,GECE,2022-10-31T15:30:00Z,35.88,-5.3,20.0,18.0,240,3,,6.21,30.088583,,,TRUE,,,,,,,,CAVOK,,,,,,,,VFR,,,,,,,,,,,,METAR,2.0
GCXO 311530Z 12005KT 090V170 CAVOK 23/17 Q1021 NOSIG,GCXO,2022-10-31T15:30:00Z,28.48,-16.35,23.0,17.0,120,5,,6.21,30.147638,,,,,,TRUE,,,,,CAVOK,,,,,,,,VFR,,,,,,,,,,,,METAR,623.0
GCTS 311530Z 10014KT 9999 FEW020 25/19 Q1019 NOSIG,GCTS,2022-10-31T15:30:00Z,28.05,-16.57,25.0,19.0,100,14,,6.21,30.088583,,,,,,TRUE,,,,,FEW,2000,,,,,,,VFR,,,,,,,,,,,,METAR,59.0
GCRR 311530Z 07015KT CAVOK 25/21 Q1018,GCRR,2022-10-31T15:30:00Z,28.95,-13.58,25.0,21.0,70,15,,6.21,30.059055,,,,,,,,,,,CAVOK,,,,,,,,VFR,,,,,,,,,,,,METAR,9.0
GCLP 311530Z 03015KT 9999 FEW020 25/20 Q1018 NOSIG,GCLP,2022-10-31T15:30:00Z,27.92,-15.38,25.0,20.0,30,15,,6.21,30.059055,,,,,,TRUE,,,,,FEW,2000,,,,,,,VFR,,,,,,,,,,,,METAR,16.0
GCLA 311530Z 07004KT 030V110 CAVOK 25/19 Q1019,GCLA,2022-10-31T15:30:00Z,28.62,-17.75,25.0,19.0,70,4,,6.21,30.088583,,,,,,,,,,,CAVOK,,,,,,,,VFR,,,,,,,,,,,,METAR,20.0
GCHI 311530Z 05010KT 9999 FEW025 24/20 Q1019,GCHI,2022-10-31T15:30:00Z,27.82,-17.88,24.0,20.0,50,10,,6.21,30.088583,,,,,,,,,,,FEW,2500,,,,,,,VFR,,,,,,,,,,,,METAR,21.0
GCGM 311530Z 23010KT 200V260 CAVOK 24/19 Q1019 RMK R09/24006KT 170V300 ARP/24008KT 160V280,GCGM,2022-10-31T15:30:00Z,28.03,-17.22,24.0,19.0,230,10,,6.21,30.088583,,,,,,,,,,,CAVOK,,,,,,,,VFR,,,,,,,,,,,,METAR,217.0
GCFV 311530Z 04008KT CAVOK 25/21 Q1018,GCFV,2022-10-31T15:30:00Z,28.43,-13.87,25.0,21.0,40,8,,6.21,30.059055,,,,,,,,,,,CAVOK,,,,,,,,VFR,,,,,,,,,,,,METAR,11.0
GABS 311530Z 08009KT 040V120 CAVOK 35/09 Q1011 NOSIG,GABS,2022-10-31T15:30:00Z,12.53,-7.95,35.0,9.0,80,9,,6.21,29.852362,,,,,,TRUE,,,,,CAVOK,,,,,,,,VFR,,,,,,,,,,,,METAR,375.0
FOOG 311530Z 20010KT 9999 SCT010 FEW020CB BKN040 29/25 Q1008,FOOG,2022-10-31T15:30:00Z,-0.7,8.75,29.0,25.0,200,10,,6.21,29.763779,,,,,,,,,,,SCT,1000,FEW,2000,BKN,4000,,,VFR,,,,,,,,,,,,METAR,4.0
FMMI 311530Z 08008KT 9999 SCT020CB 19/13 Q1021 NOSIG,FMMI,2022-10-31T15:30:00Z,-18.8,47.47,19.0,13.0,80,8,,6.21,30.147638,,,,,,TRUE,,,,,SCT,2000,,,,,,,VFR,,,,,,,,,,,,METAR,1269.0
FMEP 311530Z AUTO 14006KT 9999 FEW041/// SCT078/// ///TCU 24/19 Q1020,FMEP,2022-10-31T15:30:00Z,-21.32,55.42,24.0,19.0,140,6,,6.21,30.11811,,,TRUE,,,,,,,,FEW,4100,SCT,7800,,,,,VFR,,,,,,,,,,,,METAR,21.0
FMEE 311530Z AUTO 12014KT 9999 OVC074/// 23/18 Q1019 TEMPO 2500 SHRA SCT025TCU,FMEE,2022-10-31T15:30:00Z,-20.88,55.52,23.0,18.0,120,14,,6.21,30.088583,,,TRUE,,,,,,,,OVC,7400,,,,,,,VFR,,,,,,,,,,,,METAR,20.0
FMCZ 311530Z AUTO 02006KT CAVOK 26/21 Q1015 NOSIG,FMCZ,2022-10-31T15:30:00Z,-12.8,45.27,26.0,21.0,20,6,,6.21,29.970472,,,TRUE,,,TRUE,,,,,CAVOK,,,,,,,,VFR,,,,,,,,,,,,METAR,7.0
FAOR 311530Z 35004KT 310V070 9999 FEW040TCU 19/08 Q1021 NOSIG,FAOR,2022-10-31T15:30:00Z,-26.13,28.23,19.0,8.0,350,4,,6.21,30.147638,,,,,,TRUE,,,,,FEW,4000,,,,,,,VFR,,,,,,,,,,,,METAR,1684.0
EPZG 311530Z 00000KT 9999 MIFG NSC 15/15 Q1020,EPZG,2022-10-31T15:30:00Z,52.13,15.77,15.0,15.0,0,0,,6.21,30.11811,,,,,,,,,,MIFG,CLR,,,,,,,,VFR,,,,,,,,,,,,METAR,59.0
EPWR 311530Z 31001KT CAVOK 15/12 Q1020,EPWR,2022-10-31T15:30:00Z,51.1,16.88,15.0,12.0,310,1,,6.21,30.11811,,,,,,,,,,,CAVOK,,,,,,,,VFR,,,,,,,,,,,,METAR,118.0
EPWA 311530Z 20003KT 170V230 4000 BR BKN003 12/12 Q1021 TEMPO 2000 BR,EPWA,2022-10-31T15:30:00Z,52.17,20.97,12.0,12.0,200,3,,2.49,30.147638,,,,,,,,,,BR,BKN,300,,,,,,,LIFR,,,,,,,,,,,,METAR,107.0
EPSY 311530Z 15004KT 120V180 3800 BR OVC003 09/09 Q1021,EPSY,2022-10-31T15:30:00Z,53.47,20.93,9.0,9.0,150,4,,2.36,30.147638,,,,,,,,,,BR,OVC,300,,,,,,,LIFR,,,,,,,,,,,,METAR,136.0
EPSC 311530Z 32004KT 280V350 1200 R31/1700U BR OVC001 12/12 Q1020,EPSC,2022-10-31T15:30:00Z,53.58,14.9,12.0,12.0,320,4,,0.75,30.11811,,,,,,,,,,BR,OVC,100,,,,,,,LIFR,,,,,,,,,,,,METAR,47.0
EPRZ 311530Z VRB01KT CAVOK 15/12 Q1021,EPRZ,2022-10-31T15:30:00Z,50.1,22.02,15.0,12.0,0,1,,6.21,30.147638,,,,,,,,,,,CAVOK,,,,,,,,VFR,,,,,,,,,,,,METAR,206.0
EPPO 311530Z 28002KT CAVOK 15/14 Q1020,EPPO,2022-10-31T15:30:00Z,52.42,16.83,15.0,14.0,280,2,,6.21,30.11811,,,,,,,,,,,CAVOK,,,,,,,,VFR,,,,,,,,,,,,METAR,87.0
EPMO 311530Z 16003KT 2200 MIFG BR BKN006 13/13 Q1020,EPMO,2022-10-31T15:30:00Z,52.45,20.65,13.0,13.0,160,3,,1.37,30.11811,,,,,,,,,,MIFG BR,BKN,600,,,,,,,IFR,,,,,,,,,,,,METAR,102.0
EPLL 311530Z 05003KT 4000 MIFG BR NSC 14/13 Q1020,EPLL,2022-10-31T15:30:00Z,51.72,19.4,14.0,13.0,50,3,,2.49,30.11811,,,,,,,,,,MIFG BR,CLR,,,,,,,,IFR,,,,,,,,,,,,METAR,176.0
EPLB 311530Z 07004KT 9000 NSC 10/10 Q1022,EPLB,2022-10-31T15:30:00Z,51.23,22.72,10.0,10.0,70,4,,5.59,30.177166,,,,,,,,,,,CLR,,,,,,,,VFR,,,,,,,,,,,,METAR,206.0
EPKT 311530Z 29002KT CAVOK 15/11 Q1021,EPKT,2022-10-31T15:30:00Z,50.47,19.08,15.0,11.0,290,2,,6.21,30.147638,,,,,,,,,,,CAVOK,,,,,,,,VFR,,,,,,,,,,,,METAR,296.0
EPKK 311530Z VRB01KT CAVOK 17/12 Q1020,EPKK,2022-10-31T15:30:00Z,50.07,19.8,17.0,12.0,0,1,,6.21,30.11811,,,,,,,,,,,CAVOK,,,,,,,,VFR,,,,,,,,,,,,METAR,237.0
EPGD 311530Z 32006KT 4500 BR OVC002 12/11 Q1019,EPGD,2022-10-31T15:30:00Z,54.37,18.47,12.0,11.0,320,6,,2.8,30.088583,,,,,,,,,,BR,OVC,200,,,,,,,LIFR,,,,,,,,,,,,METAR,136.0
EPBY 311530Z 22003KT 190V270 0200 R26/0500N FG VV001 11/11 Q1020,EPBY,2022-10-31T15:30:00Z,53.1,18.0,11.0,11.0,220,3,,0.12,30.11811,,,,,,,,,,FG,OVX,0,,,,,,,LIFR,,,,,,,,,,,100,METAR,66.0
EIWF 311530Z 16012KT 110V200 4000 +RA SCT006 BKN012 12/12 Q1000,EIWF,2022-10-31T15:30:00Z,52.18,-7.08,12.0,12.0,160,12,,2.49,29.52756,,,,,,,,,,+RA,SCT,600,BKN,1200,,,,,IFR,,,,,,,,,,,,METAR,26.0
EINN 311530Z 33003KT 8000 -RA FEW005 OVC050 10/09 Q1000 NOSIG,EINN,2022-10-31T15:30:00Z,52.7,-8.92,10.0,9.0,330,3,,4.97,29.52756,,,,,,TRUE,,,,-RA,FEW,500,OVC,5000,,,,,MVFR,,,,,,,,,,,,METAR,20.0
EIKY 311530Z VRB01KT 9999 -RA FEW014 OVC025 10/09 Q1000,EIKY,2022-10-31T15:30:00Z,52.18,-9.53,10.0,9.0,0,1,,6.21,29.52756,,,,,,,,,,-RA,FEW,1400,OVC,2500,,,,,MVFR,,,,,,,,,,,,METAR,23.0
EIKN 311530Z 15002KT 9999 BKN003 SCT036 OVC070 10/10 Q1000 NOSIG,EIKN,2022-10-31T15:30:00Z,53.92,-8.82,10.0,10.0,150,2,,6.21,29.52756,,,,,,TRUE,,,,,BKN,300,SCT,3600,OVC,7000,,,LIFR,,,,,,,,,,,,METAR,201.0
EIDW 311530Z 18014G26KT 150V220 9999 -RA FEW009 SCT020 BKN050 13/10 Q1002 NOSIG,EIDW,2022-10-31T15:30:00Z,53.42,-6.28,13.0,10.0,180,14,26,6.21,29.586615,,,,,,TRUE,,,,-RA,FEW,900,SCT,2000,BKN,5000,,,VFR,,,,,,,,,,,,METAR,75.0
EIDL 311530Z 19006KT 160V220 9999 -RA FEW035 11/09 Q1000,EIDL,2022-10-31T15:30:00Z,55.05,-8.33,11.0,9.0,190,6,,6.21,29.52756,,,,,,,,,,-RA,FEW,3500,,,,,,,VFR,,,,,,,,,,,,METAR,2.0
EICK 311530Z 18005KT 150V270 5000 RA BKN005 SCT014 BKN025 11/10 Q0999 TEMPO 3000,EICK,2022-10-31T15:30:00Z,51.85,-8.47,11.0,10.0,180,5,,3.11,29.498032,,,,,,,,,,RA,BKN,500,SCT,1400,BKN,2500,,,IFR,,,,,,,,,,,,METAR,158.0
DTTA 311530Z 03008KT 360V070 CAVOK 25/18 Q1020,DTTA,2022-10-31T15:30:00Z,36.85,10.22,25.0,18.0,30,8,,6.21,30.11811,,,,,,,,,,,CAVOK,,,,,,,,VFR,,,,,,,,,,,,METAR,4.0
DTNH 311530Z 10015KT CAVOK 25/18 Q1020,DTNH,2022-10-31T15:30:00Z,36.07,10.43,25.0,18.0,100,15,,6.21,30.11811,,,,,,,,,,,CAVOK,,,,,,,,VFR,,,,,,,,,,,,METAR,1.0
DTMB 311530Z 11011KT 9999 SCT023 26/15 Q1020,DTMB,2022-10-31T15:30:00Z,35.77,10.75,26.0,15.0,110,11,,6.21,30.11811,,,,,,,,,,,SCT,2300,,,,,,,VFR,,,,,,,,,,,,METAR,1.0
DAOO 311530Z 33008KT CAVOK 25/18 Q1017,DAOO,2022-10-31T15:30:00Z,35.62,-0.62,25.0,18.0,330,8,,6.21,30.029528,,,,,,,,,,,CAVOK,,,,,,,,VFR,,,,,,,,,,,,METAR,87.0
DAON 311530Z 33009KT CAVOK 26/14 Q1018,DAON,2022-10-31T15:30:00Z,35.02,-1.47,26.0,14.0,330,9,,6.21,30.059055,,,,,,,,,,,CAVOK,,,,,,,,VFR,,,,,,,,,,,,METAR,245.0
DABC 311530Z 01007KT CAVOK 26/02 Q1022,DABC,2022-10-31T15:30:00Z,36.27,6.62,26.0,2.0,10,7,,6.21,30.177166,,,,,,,,,,,CAVOK,,,,,,,,VFR,,,,,,,,,,,,METAR,686.0
DABB 311530Z 04011KT CAVOK 23/12 Q1019,DABB,2022-10-31T15:30:00Z,36.82,7.82,23.0,12.0,40,11,,6.21,30.088583,,,,,,,,,,,CAVOK,,,,,,,,VFR,,,,,,,,,,,,METAR,3.0
DAAT 311530Z 28008KT CAVOK 25/M05 Q1022,DAAT,2022-10-31T15:30:00Z,22.82,5.47,25.0,-5.0,280,8,,6.21,30.177166,,,,,,,,,,,CAVOK,,,,,,,,VFR,,,,,,,,,,,,METAR,1376.0
DAAG 311530Z 04005KT CAVOK 27/13 Q1019,DAAG,2022-10-31T15:30:00Z,36.68,3.22,27.0,13.0,40,5,,6.21,30.088583,,,,,,,,,,,CAVOK,,,,,,,,VFR,,,,,,,,,,,,METAR,18.0
BIKF 311530Z 09015KT 9999 VCSH BKN012 BKN018 07/06 Q0979,BIKF,2022-10-31T15:30:00Z,63.98,-22.6,7.0,6.0,90,15,,6.21,28.90748,,,,,,,,,,VCSH,BKN,1200,BKN,1800,,,,,MVFR,,,,,,,,,,,,METAR,49.0
CYCA 311529Z AUTO 03011KT 5/8SM -SN VV005 00/M00 A2957 RMK ICE SLP017,CYCA,2022-10-31T15:29:00Z,53.68,-57.03,0.0,0.0,30,11,,0.63,29.568897,1001.7,,TRUE,,,,,,,-SN,OVX,0,,,,,,,LIFR,,,,,,,,,,,500,SPECI,12.0
CYGT 311528Z 29012KT 5SM -SN SCT021 BKN034 OVC071 M15/M18 A2957 RMK SC4SC3AC1 SLP022,CYGT,2022-10-31T15:28:00Z,69.37,-81.82,-15.0,-18.0,290,12,,5.0,29.568897,1002.2,,,,,,,,,-SN,SCT,2100,BKN,3400,OVC,7100,,,MVFR,,,,,,,,,,,,SPECI,49.0
CWOB 311528Z AUTO 03020G28KT ////SM OVC003 M03/M03 A2943,CWOB,2022-10-31T15:28:00Z,63.33,-64.15,-3.0,-3.0,30,20,28,,29.430119,,,TRUE,,,,,,,,OVC,300,,,,,,,,,,,,,,,,,,,SPECI,369.0
EHSC 311525Z AUTO 09015KT 7000 ///////// 16/14 Q1012 W16/H5,EHSC,2022-10-31T15:25:00Z,51.93,3.67,16.0,14.0,90,15,,4.35,29.88189,,,TRUE,,,,,,,,,,,,,,,,,,,,,,,,,,,,METAR,19.0
EHSA 311525Z AUTO 08015KT 9000 ///////// 16/14 Q1011 W16/H6,EHSA,2022-10-31T15:25:00Z,52.0,3.28,16.0,14.0,80,15,,5.59,29.852362,,,TRUE,,,,,,,,,,,,,,,,,,,,,,,,,,,,METAR,18.0
EHQE 311525Z AUTO /////KT 9999 NSC 16/13 Q1013,EHQE,2022-10-31T15:25:00Z,52.92,4.15,16.0,13.0,,,,6.21,29.911417,,,TRUE,,,,,,,,CLR,,,,,,,,VFR,,,,,,,,,,,,METAR,41.0
EHPG 311525Z AUTO 10014KT 9000 NSC 16/14 Q1012,EHPG,2022-10-31T15:25:00Z,52.37,3.35,16.0,14.0,100,14,,5.59,29.88189,,,TRUE,,,,,,,,CLR,,,,,,,,VFR,,,,,,,,,,,,METAR,24.0
EHMG 311525Z AUTO 14013KT 9999 NCD 15/12 Q1015,EHMG,2022-10-31T15:25:00Z,53.62,4.97,15.0,12.0,140,13,,6.21,29.970472,,,TRUE,,,,,,,,CLR,,,,,,,,VFR,,,,,,,,,,,,METAR,30.0
EHMA 311525Z AUTO 11014KT 9999 NSC 15/12 Q1015,EHMA,2022-10-31T15:25:00Z,53.5,5.95,15.0,12.0,110,14,,6.21,29.970472,,,TRUE,,,,,,,,CLR,,,,,,,,VFR,,,,,,,,,,,,METAR,27.0
EHKV 311525Z AUTO /////KT //// // NSC 15/13 Q1013,EHKV,2022-10-31T15:25:00Z,53.27,3.63,15.0,13.0,,,,,29.911417,,,TRUE,,,,,,,,CLR,,,,,,,,,,,,,,,,,,,,METAR,28.0
EHJR 311525Z AUTO 15016KT //// // ///////// 15/13 Q1013 RE// W16/H10,EHJR,2022-10-31T15:25:00Z,53.22,3.22,15.0,13.0,150,16,,,29.911417,,,TRUE,,,,,,,,,,,,,,,,,,,,,,,,,,,,METAR,31.0
EHJA 311525Z AUTO 15014KT 9999 FEW009/// SCT011/// 15/13 Q1013,EHJA,2022-10-31T15:25:00Z,53.82,2.95,15.0,13.0,150,14,,6.21,29.911417,,,TRUE,,,,,,,,FEW,900,SCT,1100,,,,,VFR,,,,,,,,,,,,METAR,34.0
EHHW 311525Z AUTO 14009KT 9999 NCD 14/12 Q1016,EHHW,2022-10-31T15:25:00Z,54.03,6.03,14.0,12.0,140,9,,6.21,30.0,,,TRUE,,,,,,,,CLR,,,,,,,,VFR,,,,,,,,,,,,METAR,10.0
EHFS 311525Z AUTO 08010KT 8000 NSC 16/14 Q1011,EHFS,2022-10-31T15:25:00Z,51.45,3.6,16.0,14.0,80,10,,4.97,29.852362,,,TRUE,,,,,,,,CLR,,,,,,,,MVFR,,,,,,,,,,,,METAR,1.0
EHFD 311525Z AUTO 16013KT 9999 FEW006/// SCT008/// 14/13 Q1015,EHFD,2022-10-31T15:25:00Z,54.85,4.7,14.0,13.0,160,13,,6.21,29.970472,,,TRUE,,,,,,,,FEW,600,SCT,800,,,,,VFR,,,,,,,,,,,,METAR,24.0
EHDV 311525Z AUTO 17018KT 140V210 9999 FEW009/// 15/13 Q1013,EHDV,2022-10-31T15:25:00Z,54.32,2.93,15.0,13.0,170,18,,6.21,29.911417,,,TRUE,,,,,,,,FEW,900,,,,,,,VFR,,,,,,,,,,,,METAR,36.0
EHAK 311525Z AUTO 17018KT 9999 FEW007/// 14/13 Q1014,EHAK,2022-10-31T15:25:00Z,55.38,3.82,14.0,13.0,170,18,,6.21,29.940945,,,TRUE,,,,,,,,FEW,700,,,,,,,VFR,,,,,,,,,,,,METAR,33.0
EBLB 311525Z AUTO 16009KT 9999 NCD 16/08 Q1015 BLU,EBLB,2022-10-31T15:25:00Z,50.47,6.17,16.0,8.0,160,9,,6.21,29.970472,,,TRUE,,,,,,,,CLR,,,,,,,,VFR,,,,,,,,,,,,METAR,563.0
EBFS 311525Z AUTO 17010KT 9999 SCT100/// BKN110/// OVC130/// 17/11 Q1013 BLU,EBFS,2022-10-31T15:25:00Z,50.23,4.65,17.0,11.0,170,10,,6.21,29.911417,,,TRUE,,,,,,,,SCT,10000,BKN,11000,OVC,13000,,,VFR,,,,,,,,,,,,METAR,276.0
EBFN 311525Z AUTO 10007KT 9999 BKN130/// 15/13 Q1010 BLU,EBFN,2022-10-31T15:25:00Z,51.08,2.65,15.0,13.0,100,7,,6.21,29.822834,,,TRUE,,,,,,,,BKN,13000,,,,,,,VFR,,,,,,,,,,,,METAR,9.0
EBDT 311525Z AUTO 11005KT 9999 FEW110/// 18/14 Q1012 BLU,EBDT,2022-10-31T15:25:00Z,51.02,5.07,18.0,14.0,110,5,,6.21,29.88189,,,TRUE,,,,,,,,FEW,11000,,,,,,,VFR,,,,,,,,,,,,METAR,25.0
EBCV 311525Z AUTO 15005KT 9999 NCD 18/12 Q1011 BLU,EBCV,2022-10-31T15:25:00Z,50.57,3.82,18.0,12.0,150,5,,6.21,29.852362,,,TRUE,,,,,,,,CLR,,,,,,,,VFR,,,,,,,,,,,,METAR,56.0
EBBL 311525Z AUTO 09003KT 9999 SCT110/// 17/13 Q1013 BLU,EBBL,2022-10-31T15:25:00Z,51.17,5.47,17.0,13.0,90,3,,6.21,29.911417,,,TRUE,,,,,,,,SCT,11000,,,,,,,VFR,,,,,,,,,,,,METAR,50.0
EBBE 311525Z AUTO 12005KT 9999 NCD 18/12 Q1012 BLU,EBBE,2022-10-31T15:25:00Z,50.75,4.77,18.0,12.0,120,5,,6.21,29.88189,,,TRUE,,,,,,,,CLR,,,,,,,,VFR,,,,,,,,,,,,METAR,127.0
CYLU 311525Z 31016KT 12SM VCSH FEW010 SCT018 BKN029 M01/M03 A2977 RMK ST2SC2SC3 SLP088,CYLU,2022-10-31T15:25:00Z,58.72,-65.98,-1.0,-3.0,310,16,,12.0,29.769686,1008.8,,,,,,,,,VCSH,FEW,1000,SCT,1800,BKN,2900,,,MVFR,,,,,,,,,,,,SPECI,61.0
SARL 311524Z 20024G37KT 9999 BKN015 BKN100 16/05 Q1025,SARL,2022-10-31T15:24:00Z,-29.68,-57.15,16.0,5.0,200,24,37,6.21,30.265747,,,,,,,,,,,BKN,1500,BKN,10000,,,,,MVFR,,,,,,,,,,,,SPECI,70.0
MMVR 311524Z 00000KT 5SM SCT020 27/23 A2997 RMK 8/500 HZY ISOL AC,MMVR,2022-10-31T15:24:00Z,19.15,-96.18,27.0,23.0,0,0,,5.0,29.970472,,,,,,,,,,,SCT,2000,,,,,,,MVFR,,,,,,,,,,,,METAR,26.0
CZFN 311524Z 32007KT 260V340 3/4SM -SHSN OVC028 M12/M15 A2985 RMK SN6SC2 SLP120,CZFN,2022-10-31T15:24:00Z,64.92,-125.57,-12.0,-15.0,320,7,,0.75,29.84941,1012.0,,,,,,,,,-SHSN,OVC,2800,,,,,,,LIFR,,,,,,,,,,,,SPECI,135.0
CYYD 311524Z 22002KT 15SM SCT024 OVC140 M01/M02 A2956 RMK SC4AC3 SLP031,CYYD,2022-10-31T15:24:00Z,54.82,-127.18,-1.0,-2.0,220,2,,15.0,29.56004,1003.1,,,,,,,,,,SCT,2400,OVC,14000,,,,,VFR,,,,,,,,,,,,SPECI,527.0
KSFY 311523Z AUTO 00000KT 5SM BR CLR 09/07 A2987 RMK AO2,KSFY,2022-10-31T15:23:00Z,42.05,-90.12,9.0,7.0,0,0,,5.0,29.870079,,,TRUE,TRUE,,,,,,BR,CLR,,,,,,,,MVFR,,,,,,,,,,,,METAR,188.0
KHST 311523Z 07005KT 10SM SCT019 SCT040 29/24 A2997 RMK SLP152,KHST,2022-10-31T15:23:00Z,25.48,-80.37,29.0,24.0,70,5,,10.0,29.970472,1015.2,,,,,,,,,,SCT,1900,SCT,4000,,,,,VFR,,,,,,,,,,,,SPECI,1.0
CWRX 311523Z AUTO ///// ////SM BKN027 OVC032 M13/M16 A2955,CWRX,2022-10-31T15:23:00Z,69.07,-79.07,-13.0,-16.0,,,,,29.551182,,,TRUE,,,,,,,,BKN,2700,OVC,3200,,,,,,,,,,,,,,,,,SPECI,39.0
YABA 311522Z AUTO 22011KT 9999 // SCT015 SCT020 BKN025 12/10 Q1025,YABA,2022-10-31T15:22:00Z,-34.93,117.8,12.0,10.0,220,11,,6.21,30.265747,,,TRUE,,,,,,,,SCT,1500,SCT,2000,BKN,2500,,,MVFR,,,,,,,,,,,,SPECI,67.0
KMRH 311522Z AUTO 07007KT 10SM BKN031 22/17 A3010 RMK AO2 T02220167,KMRH,2022-10-31T15:22:00Z,34.73,-76.65,22.2,16.7,70,7,,10.0,30.100393,,,TRUE,TRUE,,,,,,,BKN,3100,,,,,,,VFR,,,,,,,,,,,,SPECI,2.0
KCAE 311521Z 13005KT 2 1/2SM BR OVC003 17/16 A3005 RMK AO2 T01720161,KCAE,2022-10-31T15:21:00Z,33.93,-81.12,17.2,16.1,130,5,,2.5,30.050198,,,,TRUE,,,,,,BR,OVC,300,,,,,,,LIFR,,,,,,,,,,,,SPECI,69.0
EGXW 311521Z 15009KT 9999 FEW022 BKN250 15/12 Q1009 NOSIG RMK BLU BLU,EGXW,2022-10-31T15:21:00Z,53.18,-0.52,15.0,12.0,150,9,,6.21,29.793306,,,,,,TRUE,,,,,FEW,2200,BKN,25000,,,,,VFR,,,,,,,,,,,,METAR,70.0
YWHA 311520Z AUTO 30011KT 9999 -RA SCT016 BKN055 BKN064 10/09 Q0997,YWHA,2022-10-31T15:20:00Z,-33.07,137.52,10.0,9.0,300,11,,6.21,29.438976,,,TRUE,,,,,,,-RA,SCT,1600,BKN,5500,BKN,6400,,,VFR,,,,,,,,,,,,SPECI,12.0
SBPJ 311520Z 25004KT 9999 TS VCSH SCT030 FEW035CB 35/22 Q1010,SBPJ,2022-10-31T15:20:00Z,-10.28,-48.37,35.0,22.0,250,4,,6.21,29.822834,,,,,,,,,,TS VCSH,SCT,3000,FEW,3500,,,,,VFR,,,,,,,,,,,,SPECI,226.0
SBCR 311520Z 23021G38KT 190V250 3000 -DZ BR BKN008 OVC013 16/14 Q1015,SBCR,2022-10-31T15:20:00Z,-19.0,-57.67,16.0,14.0,230,21,38,1.86,29.970472,,,,,,,,,,-DZ BR,BKN,800,OVC,1300,,,,,IFR,,,,,,,,,,,,SPECI,142.0
SBCG 311520Z 14010KT 110V180 9999 SCT008 BKN026 FEW050TCU BKN100 23/20 Q1013 RETS,SBCG,2022-10-31T15:20:00Z,-20.47,-54.67,23.0,20.0,140,10,,6.21,29.911417,,,,,,,,,,,SCT,800,BKN,2600,FEW,5000,BKN,10000,MVFR,,,,,,,,,,,,METAR,556.0
MMTO 311520Z 00000KT 3SM HZ FEW015 16/10 A3036 RMK 8/500,MMTO,2022-10-31T15:20:00Z,19.35,-99.57,16.0,10.0,0,0,,3.0,30.360237,,,,,,,,,,HZ,FEW,1500,,,,,,,MVFR,,,,,,,,,,,,METAR,2582.0
LTFM 311520Z 03006KT CAVOK 16/13 Q1021 NOSIG RMK RWY17L 01005KT RWY34L 01006KT RWY16R 02004KT RWY36 03006KT RWY18 03004KT,LTFM,2022-10-31T15:20:00Z,41.27,28.75,16.0,13.0,30,6,,6.21,30.147638,,,,,,TRUE,,,,,CAVOK,,,,,,,,VFR,,,,,,,,,,,,METAR,99.0
LTFJ 311520Z 03008KT CAVOK 17/11 Q1020 NOSIG RMK RWY24 03007KT,LTFJ,2022-10-31T15:20:00Z,40.9,29.3,17.0,11.0,30,8,,6.21,30.11811,,,,,,TRUE,,,,,CAVOK,,,,,,,,VFR,,,,,,,,,,,,SPECI,83.0
LTFE 311520Z 21005KT CAVOK 19/12 Q1015 NOSIG RMK RWY10 24006KT 200V270,LTFE,2022-10-31T15:20:00Z,37.25,27.67,19.0,12.0,210,5,,6.21,29.970472,,,,,,TRUE,,,,,CAVOK,,,,,,,,VFR,,,,,,,,,,,,SPECI,6.0
LTFC 311520Z 20005KT 180V250 9999 FEW040 17/02 Q1017 RMK RWY23 22005KT 190V280,LTFC,2022-10-31T15:20:00Z,37.87,30.38,17.0,2.0,200,5,,6.21,30.029528,,,,,,,,,,,FEW,4000,,,,,,,VFR,,,,,,,,,,,,SPECI,862.0
LTCS 311520Z 04003KT CAVOK 14/10 Q1017 RMK RWY22 15002KT SKC,LTCS,2022-10-31T15:20:00Z,37.45,38.9,14.0,10.0,40,3,,6.21,30.029528,,,,,,,,,,,CAVOK,,,,,,,,VFR,,,,,,,,,,,,METAR,825.0
LTCJ 311520Z 00000KT 9999 FEW040 SCT100 13/11 Q1016 NOSIG RMK RWY20 VRB02KT 2CU040 4AC100,LTCJ,2022-10-31T15:20:00Z,37.93,41.12,13.0,11.0,0,0,,6.21,30.0,,,,,,TRUE,,,,,FEW,4000,SCT,10000,,,,,VFR,,,,,,,,,,,,SPECI,559.0
LTCG 311520Z 19004KT 9999 SCT035 16/12 Q1018 NOSIG RMK RWY29 18004KT,LTCG,2022-10-31T15:20:00Z,41.0,39.77,16.0,12.0,190,4,,6.21,30.059055,,,,,,TRUE,,,,,SCT,3500,,,,,,,VFR,,,,,,,,,,,,SPECI,28.0
LTCE 311520Z 28007KT 230V300 9999 FEW040 08/M04 Q1017 NOSIG RMK RWY08R 29004KT 230V350 RWY26R 28008KT RWY08L 29006KT 260V360 1CU040,LTCE,2022-10-31T15:20:00Z,39.95,41.17,8.0,-4.0,280,7,,6.21,30.029528,,,,,,TRUE,,,,,FEW,4000,,,,,,,VFR,,,,,,,,,,,,SPECI,1758.0
LTCC 311520Z 03003KT 9999 SCT040 BKN100 14/11 Q1016 NOSIG RMK RWY16 00000KT 3CU040 5AC100,LTCC,2022-10-31T15:20:00Z,37.88,40.2,14.0,11.0,30,3,,6.21,30.0,,,,,,TRUE,,,,,SCT,4000,BKN,10000,,,,,VFR,,,,,,,,,,,,SPECI,676.0
LTBU 311520Z 03009KT CAVOK 16/10 Q1021 RMK RWY22 02008KT,LTBU,2022-10-31T15:20:00Z,41.13,27.92,16.0,10.0,30,9,,6.21,30.147638,,,,,,,,,,,CAVOK,,,,,,,,VFR,,,,,,,,,,,,SPECI,165.0
LTBS 311520Z 27004KT 230V290 CAVOK 22/11 Q1014 NOSIG RMK RWY19 24005KT SKC,LTBS,2022-10-31T15:20:00Z,36.7,28.78,22.0,11.0,270,4,,6.21,29.940945,,,,,,TRUE,,,,,CAVOK,,,,,,,,VFR,,,,,,,,,,,,SPECI,2.0
LTBR 311520Z VRB01KT CAVOK 16/05 Q1020 NOSIG RMK RWY07 02005KT,LTBR,2022-10-31T15:20:00Z,40.25,29.57,16.0,5.0,0,1,,6.21,30.11811,,,,,,TRUE,,,,,CAVOK,,,,,,,,VFR,,,,,,,,,,,,SPECI,233.0
LTBJ 311520Z 36011KT CAVOK 20/05 Q1015 NOSIG RMK RWY16 02009KT,LTBJ,2022-10-31T15:20:00Z,38.28,27.15,20.0,5.0,360,11,,6.21,29.970472,,,,,,TRUE,,,,,CAVOK,,,,,,,,VFR,,,,,,,,,,,,SPECI,123.0
LTBA 311520Z 02009KT CAVOK 18/10 Q1020 RMK RWY23 02010KT,LTBA,2022-10-31T15:20:00Z,40.97,28.82,18.0,10.0,20,9,,6.21,30.11811,,,,,,,,,,,CAVOK,,,,,,,,VFR,,,,,,,,,,,,SPECI,33.0
LTAZ 311520Z VRB02KT CAVOK 13/M03 Q1018 RMK RWY29 32004KT,LTAZ,2022-10-31T15:20:00Z,38.77,34.52,13.0,-3.0,0,2,,6.21,30.059055,,,,,,,,,,,CAVOK,,,,,,,,VFR,,,,,,,,,,,,SPECI,944.0
LTAU 311520Z 00000KT CAVOK 12/00 Q1018 NOSIG RMK RWY07 30002KT,LTAU,2022-10-31T15:20:00Z,38.77,35.48,12.0,0.0,0,0,,6.21,30.059055,,,,,,TRUE,,,,,CAVOK,,,,,,,,VFR,,,,,,,,,,,,SPECI,1053.0
LTAT 311520Z 32005KT 9999 FEW040 SCT100 14/03 Q1016 NOSIG RMK RWY03 VRB02KT,LTAT,2022-10-31T15:20:00Z,38.43,38.08,14.0,3.0,320,5,,6.21,30.0,,,,,,TRUE,,,,,FEW,4000,SCT,10000,,,,,VFR,,,,,,,,,,,,SPECI,850.0
LTAP 311520Z 03003KT 350V050 9999 FEW040 SCT100 13/03 Q1017 NOSIG RMK RWY23 05008KT,LTAP,2022-10-31T15:20:00Z,40.83,35.52,13.0,3.0,30,3,,6.21,30.029528,,,,,,TRUE,,,,,FEW,4000,SCT,10000,,,,,VFR,,,,,,,,,,,,SPECI,536.0
LTAJ 311520Z 00000KT 9999 FEW040 SCT100 17/09 Q1016 NOSIG RMK RWY10 00000KT 1CU040 3AC100,LTAJ,2022-10-31T15:20:00Z,36.95,37.48,17.0,9.0,0,0,,6.21,30.0,,,,,,TRUE,,,,,FEW,4000,SCT,10000,,,,,VFR,,,,,,,,,,,,SPECI,684.0
LTAI 311520Z 19003KT CAVOK 21/13 Q1014 NOSIG RMK RWY18C 21003KT 160V260 RWY36R 20004KT 180V240 RWY18L 20004KT,LTAI,2022-10-31T15:20:00Z,36.9,30.8,21.0,13.0,190,3,,6.21,29.940945,,,,,,TRUE,,,,,CAVOK,,,,,,,,VFR,,,-0.3,,,,,,,,,SPECI,50.0
LTAG 311520Z 22006KT CAVOK 24/11 Q1012 NOSIG RMK 2AC100,LTAG,2022-10-31T15:20:00Z,37.0,35.42,24.0,11.0,220,6,,6.21,29.88189,,,,,,TRUE,,,,,CAVOK,,,,,,,,VFR,,,,,,,,,,,,SPECI,62.0
LTAF 311520Z 23006KT 9999 FEW035 23/14 Q1013 NOSIG RMK RWY23 25006KT 2CU035,LTAF,2022-10-31T15:20:00Z,36.98,35.28,23.0,14.0,230,6,,6.21,29.911417,,,,,,TRUE,,,,,FEW,3500,,,,,,,VFR,,,,,,,,,,,,SPECI,19.0
LTAC 311520Z 22005KT 9999 FEW040 SCT100 14/M02 Q1019 NOSIG RMK RWY21L 19004KT RWY03L 20004KT RWY21R 21004KT,LTAC,2022-10-31T15:20:00Z,40.12,32.98,14.0,-2.0,220,5,,6.21,30.088583,,,,,,TRUE,,,,,FEW,4000,SCT,10000,,,,,VFR,,,0.4,,,,,,,,,SPECI,952.0
LGSR 311520Z 33008KT CAVOK 20/12 Q1017,LGSR,2022-10-31T15:20:00Z,36.4,25.48,20.0,12.0,330,8,,6.21,30.029528,,,,,,,,,,,CAVOK,,,,,,,,VFR,,,,,,,,,,,,METAR,31.0
LCEN 311520Z 29010KT 9999 SCT020 22/15 Q1014 NOSIG RMK RWY11 29009KT,LCEN,2022-10-31T15:20:00Z,35.15,33.5,22.0,15.0,290,10,,6.21,29.940945,,,,,,TRUE,,,,,SCT,2000,,,,,,,VFR,,,,,,,,,,,,SPECI,91.0
KDAY 311520Z 21010KT 10SM BKN011 OVC017 17/14 A2990 RMK AO2 T01670144,KDAY,2022-10-31T15:20:00Z,39.9,-84.22,16.7,14.4,210,10,,10.0,29.899607,,,,TRUE,,,,,,,BKN,1100,OVC,1700,,,,,MVFR,,,,,,,,,,,,SPECI,303.0
KCXY 311520Z 06004KT 8SM SCT012 14/09 A3007 RMK AO2 T01390094,KCXY,2022-10-31T15:20:00Z,40.22,-76.85,13.9,9.4,60,4,,8.0,30.070866,,,,TRUE,,,,,,,SCT,1200,,,,,,,VFR,,,,,,,,,,,,SPECI,102.0
ETWM 311520Z AUTO 07004KT //// // ////// 15/12 Q1015 ///,ETWM,2022-10-31T15:20:00Z,52.72,7.33,15.0,12.0,70,4,,,29.970472,,,TRUE,,,,,,,,,,,,,,,,,,,,,,,,,,,,METAR,18.0
ETSN 311520Z 11002KT 0150 R27/0350N FG VV000 12/12 Q1018 RED,ETSN,2022-10-31T15:20:00Z,48.72,11.22,12.0,12.0,110,2,,0.09,30.059055,,,,,,,,,,FG,OVX,0,,,,,,,LIFR,,,,,,,,,,,0,METAR,378.0
ETSL 311520Z AUTO 36002KT 9999 // ////// 17/13 Q1018 ///,ETSL,2022-10-31T15:20:00Z,48.18,10.87,17.0,13.0,360,2,,6.21,30.059055,,,TRUE,,,,,,,,,,,,,,,,,,,,,,,,,,,,METAR,548.0
ETSI 311520Z AUTO VRB02KT 0100 // ////// 12/12 Q1018 ///,ETSI,2022-10-31T15:20:00Z,48.72,11.53,12.0,12.0,0,2,,0.06,30.059055,,,TRUE,,,,,,,,,,,,,,,,,,,,,,,,,,,,METAR,366.0
ETSH 311520Z 02002KT 9999 OVC190 15/14 Q1019 BLU,ETSH,2022-10-31T15:20:00Z,51.77,13.17,15.0,14.0,20,2,,6.21,30.088583,,,,,,,,,,,OVC,19000,,,,,,,VFR,,,,,,,,,,,,METAR,79.0
ETSB 311520Z AUTO 12005KT //// // ////// 15/10 Q1016 ///,ETSB,2022-10-31T15:20:00Z,50.17,7.07,15.0,10.0,120,5,,,30.0,,,TRUE,,,,,,,,,,,,,,,,,,,,,,,,,,,,METAR,477.0
ETNW 311520Z 10009KT 9999 FEW130 BKN150 BKN210 15/14 Q1017 BLU,ETNW,2022-10-31T15:20:00Z,52.45,9.42,15.0,14.0,100,9,,6.21,30.029528,,,,,,,,,,,FEW,13000,BKN,15000,BKN,21000,,,VFR,,,,,,,,,,,,METAR,57.0
ETNT 311520Z AUTO 11004KT //// // ////// 14/13 Q1017 ///,ETNT,2022-10-31T15:20:00Z,53.53,7.67,14.0,13.0,110,4,,,30.029528,,,TRUE,,,,,,,,,,,,,,,,,,,,,,,,,,,,METAR,5.0
ETNS 311520Z AUTO 04003KT 9999 // ////// 12/12 Q1018 ///,ETNS,2022-10-31T15:20:00Z,54.47,9.52,12.0,12.0,40,3,,6.21,30.059055,,,TRUE,,,,,,,,,,,,,,,,,,,,,,,,,,,,METAR,22.0
ETNN 311520Z 11005KT 9999 SCT120 BKN210 17/11 Q1014 BLU+,ETNN,2022-10-31T15:20:00Z,50.82,6.67,17.0,11.0,110,5,,6.21,29.940945,,,,,,,,,,,SCT,12000,BKN,21000,,,,,VFR,,,,,,,,,,,,METAR,108.0
ETNL 311520Z 35001KT 0700 R27/1400D FG OVC001 13/13 Q1020 RED,ETNL,2022-10-31T15:20:00Z,53.92,12.27,13.0,13.0,350,1,,0.43,30.11811,,,,,,,,,,FG,OVC,100,,,,,,,LIFR,,,,,,,,,,,,METAR,40.0
ETNH 311520Z AUTO VRB03KT 8000 // ////// 13/11 Q1018 ///,ETNH,2022-10-31T15:20:00Z,54.32,9.55,13.0,11.0,0,3,,4.97,30.059055,,,TRUE,,,,,,,,,,,,,,,,,,,,,,,,,,,,METAR,6.0
ETMN 311520Z 11005KT 6000 SCT006 BKN130 12/12 Q1018 WHT,ETMN,2022-10-31T15:20:00Z,53.77,8.67,12.0,12.0,110,5,,3.73,30.059055,,,,,,,,,,,SCT,600,BKN,13000,,,,,MVFR,,,,,,,,,,,,METAR,23.0
ETHS 311520Z AUTO 11007KT 6000 // ////// 14/12 Q1018 ///,ETHS,2022-10-31T15:20:00Z,52.92,10.18,14.0,12.0,110,7,,3.73,30.059055,,,TRUE,,,,,,,,,,,,,,,,,,,,,,,,,,,,METAR,71.0
ETHN 311520Z 08003KT 9999 BKN150 16/14 Q1017 BLU,ETHN,2022-10-31T15:20:00Z,49.38,9.97,16.0,14.0,80,3,,6.21,30.029528,,,,,,,,,,,BKN,15000,,,,,,,VFR,,,,,,,,,,,,METAR,466.0
ETHL 311520Z 05001KT 9999 FEW160 16/12 Q1018 BLU+,ETHL,2022-10-31T15:20:00Z,48.22,9.92,16.0,12.0,50,1,,6.21,30.059055,,,,,,,,,,,FEW,16000,,,,,,,VFR,,,,,,,,,,,,METAR,536.0
ETHF 311520Z 10003KT 9999 FEW040 BKN130 17/12 Q1017 BLU BLU,ETHF,2022-10-31T15:20:00Z,51.12,9.28,17.0,12.0,100,3,,6.21,30.029528,,,,,,,,,,,FEW,4000,BKN,13000,,,,,VFR,,,,,,,,,,,,METAR,171.0
ETHC 311520Z AUTO 08005KT 9999 // ////// 14/12 Q1018 ///,ETHC,2022-10-31T15:20:00Z,52.6,10.02,14.0,12.0,80,5,,6.21,30.059055,,,TRUE,,,,,,,,,,,,,,,,,,,,,,,,,,,,METAR,35.0
ETHB 311520Z AUTO 08005KT 9999 // ////// 16/13 Q1017 ///,ETHB,2022-10-31T15:20:00Z,52.27,9.07,16.0,13.0,80,5,,6.21,30.029528,,,TRUE,,,,,,,,,,,,,,,,,,,,,,,,,,,,METAR,69.0
ETHA 311520Z AUTO 03002KT 9999 // ////// 17/09 Q1018 ///,ETHA,2022-10-31T15:20:00Z,47.83,10.87,17.0,9.0,30,2,,6.21,30.059055,,,TRUE,,,,,,,,,,,,,,,,,,,,,,,,,,,,METAR,738.0
ETGG 311520Z AUTO 17005KT 9999 // ////// 14/11 Q1018 ///,ETGG,2022-10-31T15:20:00Z,54.83,9.5,14.0,11.0,170,5,,6.21,30.059055,,,TRUE,,,,,,,,,,,,,,,,,,,,,,,,,,,,METAR,33.0
ENNM 311520Z 05013KT 9999 FEW016 SCT023 BKN033 05/04 Q1011,ENNM,2022-10-31T15:20:00Z,64.47,11.57,5.0,4.0,50,13,,6.21,29.852362,,,,,,,,,,,FEW,1600,SCT,2300,BKN,3300,,,VFR,,,,,,,,,,,,METAR,2.0
EGYP 311520Z 27021KT 9999 SCT035 11/02 Q1012 NOSIG,EGYP,2022-10-31T15:20:00Z,-51.82,-58.45,11.0,2.0,270,21,,6.21,29.88189,,,,,,TRUE,,,,,SCT,3500,,,,,,,VFR,,,,,,,,,,,,METAR,70.0
EGYH 311520Z 16007KT CAVOK 15/11 Q1009 RMK BLU,EGYH,2022-10-31T15:20:00Z,52.87,0.15,15.0,11.0,160,7,,6.21,29.793306,,,,,,,,,,,CAVOK,,,,,,,,VFR,,,,,,,,,,,,METAR,5.0
EGXZ 311520Z AUTO 14010KT 9999 SCT029/// 14/11 Q1008,EGXZ,2022-10-31T15:20:00Z,54.2,-1.38,14.0,11.0,140,10,,6.21,29.763779,,,TRUE,,,,,,,,SCT,2900,,,,,,,VFR,,,,,,,,,,,,METAR,24.0
EGXV 311520Z AUTO 15006KT 9999 NCD 14/11 Q1009,EGXV,2022-10-31T15:20:00Z,53.87,-0.45,14.0,11.0,150,6,,6.21,29.793306,,,TRUE,,,,,,,,CLR,,,,,,,,VFR,,,,,,,,,,,,METAR,6.0
EGQK 311520Z AUTO 19007KT 9999 SCT120/// 16/09 Q1001,EGQK,2022-10-31T15:20:00Z,57.65,-3.57,16.0,9.0,190,7,,6.21,29.557087,,,TRUE,,,,,,,,SCT,12000,,,,,,,VFR,,,,,,,,,,,,METAR,5.0
EGPU 311520Z AUTO 20012KT 9999 -RA NCD 11/10 Q1000,EGPU,2022-10-31T15:20:00Z,56.5,-6.88,11.0,10.0,200,12,,6.21,29.52756,,,TRUE,,,,,,,-RA,CLR,,,,,,,,VFR,,,,,,,,,,,,METAR,12.0
EGOS 311520Z 12008KT 9999 SCT025 BKN150 15/11 Q1006 NOSIG RMK BLU BLU,EGOS,2022-10-31T15:20:00Z,52.8,-2.67,15.0,11.0,120,8,,6.21,29.704725,,,,,,TRUE,,,,,SCT,2500,BKN,15000,,,,,VFR,,,,,,,,,,,,METAR,76.0
EGOP 311520Z AUTO 12013KT 9999 NCD 15/10 Q1003,EGOP,2022-10-31T15:20:00Z,51.72,-4.37,15.0,10.0,120,13,,6.21,29.616142,,,TRUE,,,,,,,,CLR,,,,,,,,VFR,,,,,,,,,,,,METAR,8.0
EGOM 311520Z AUTO 17010KT 9999 SCT036/// 12/09 Q1006,EGOM,2022-10-31T15:20:00Z,55.05,-2.55,12.0,9.0,170,10,,6.21,29.704725,,,TRUE,,,,,,,,SCT,3600,,,,,,,VFR,,,,,,,,,,,,METAR,286.0
EGHI 311520Z 11006KT 070V150 4000 SHRA SCT012 BKN038 15/12 Q1006,EGHI,2022-10-31T15:20:00Z,50.95,-1.35,15.0,12.0,110,6,,2.49,29.704725,,,,,,,,,,SHRA,SCT,1200,BKN,3800,,,,,IFR,,,,,,,,,,,,METAR,13.0
CYZT 311520Z 26003KT 15SM SCT020 BKN063 04/03 A2978 RMK SC3SC2 SLP086,CYZT,2022-10-31T15:20:00Z,50.68,-127.37,4.0,3.0,260,3,,15.0,29.778543,1008.6,,,,,,,,,,SCT,2000,BKN,6300,,,,,VFR,,,,,,,,,,,,SPECI,13.0
CYRA 311519Z 10003KT 070V140 5SM -SN VV032 M10/M13 A2969 RMK SN8 SNW CVR/MUCH LOOSE SLP075,CYRA,2022-10-31T15:19:00Z,64.12,-117.32,-10.0,-13.0,100,3,,5.0,29.68996,1007.5,,,,,,,,,-SN,OVX,0,,,,,,,LIFR,,,,,,,,,,,3200,SPECI,232.0
UTO8 M M M 128/-15/-17/2201/M/ SOG 03 2004 87MM,UTO8,2022-10-31T15:18:21Z,,,,,,,,,,,,,,,,,,,,,,,,,,,,,,,,,,,,,,,,SPECI,
CYHE 311518Z AUTO 10006KT 7SM -RA FEW007 OVC046 07/07 A2973 RMK PCPN 0.5MM PAST HR SLP071,CYHE,2022-10-31T15:18:00Z,49.37,-121.5,7.0,7.0,100,6,,7.0,29.731298,1007.1,,TRUE,,,,,,,-RA,FEW,700,OVC,4600,,,,,VFR,,,,,,,,,,,,SPECI,43.0
CYGW 311517Z AUTO 17008KT 9SM SCT017 BKN025 05/03 A2982 RMK SLP101,CYGW,2022-10-31T15:17:00Z,55.27,-77.77,5.0,3.0,170,8,,9.0,29.819881,1010.1,,TRUE,,,,,,,,SCT,1700,BKN,2500,,,,,MVFR,,,,,,,,,,,,SPECI,13.0
KEUF 311516Z AUTO 31004KT 10SM SCT008 OVC043 21/17 A3005 RMK AO2 T02060172,KEUF,2022-10-31T15:16:00Z,31.95,-85.13,20.6,17.2,310,4,,10.0,30.050198,,,TRUE,TRUE,,,,,,,SCT,800,OVC,4300,,,,,VFR,,,,,,,,,,,,SPECI,87.0
K40B 311516Z AUTO VRB02KT 13/M02 A2999 RMK AO1 SLP173 T01331022 58003,K40B,2022-10-31T15:16:00Z,46.62,-69.52,13.3,-2.2,0,2,,,29.991142,1017.3,,TRUE,TRUE,,,,,,,,,,,,,,,,-0.3,,,,,,,,,,,METAR,344.0
CYXU 311516Z 14007KT 3SM BR OVC003 12/12 A2988 RMK ST8 SLP124,CYXU,2022-10-31T15:16:00Z,43.03,-81.15,12.0,12.0,140,7,,3.0,29.878937,1012.4,,,,,,,,,BR,OVC,300,,,,,,,LIFR,,,,,,,,,,,,SPECI,278.0
PATC 311515Z AUTO 36013KT 10SM -SN FEW025 BKN032 M05/M07 A3008 RMK AO2 SLP191,PATC,2022-10-31T15:15:00Z,65.57,-167.92,-5.0,-7.0,360,13,,10.0,30.079725,1019.1,,TRUE,TRUE,,,,,,-SN,FEW,2500,BKN,3200,,,,,VFR,,,,,,,,,,,,METAR,77.0
LHSM 311515Z AUTO 00000KT 0650 R16/0900N FG VV002 11/11 Q1022 NOSIG,LHSM,2022-10-31T15:15:00Z,46.68,17.17,11.0,11.0,0,0,,0.4,30.177166,,,TRUE,,,TRUE,,,,FG,OVX,0,,,,,,,LIFR,,,,,,,,,,,200,METAR,119.0
LHPR 311515Z AUTO 12006KT 5000 BR OVC003 11/11 Q1022 NOSIG,LHPR,2022-10-31T15:15:00Z,47.63,17.82,11.0,11.0,120,6,,3.11,30.177166,,,TRUE,,,TRUE,,,,BR,OVC,300,,,,,,,LIFR,,,,,,,,,,,,METAR,127.0
LHPA 311515Z 11002KT 1000 R16/P1500 BR OVC002 11/11 Q1022 BECMG 0800 FG RMK AMB,LHPA,2022-10-31T15:15:00Z,47.35,17.5,11.0,11.0,110,2,,0.62,30.177166,,,,,,,,,,BR,OVC,200,,,,,,,LIFR,,,,,,,,,,,,METAR,143.0
LHDC 311515Z AUTO VRB02KT 9000 OVC007 12/10 Q1024 NOSIG,LHDC,2022-10-31T15:15:00Z,47.48,21.62,12.0,10.0,0,2,,5.59,30.236221,,,TRUE,,,TRUE,,,,,OVC,700,,,,,,,IFR,,,,,,,,,,,,METAR,105.0
KUBE 311515Z AUTO 00000KT 10SM CLR 07/07 A2986 RMK AO2,KUBE,2022-10-31T15:15:00Z,45.5,-91.98,7.0,7.0,0,0,,10.0,29.861221,,,TRUE,TRUE,,,,,,,CLR,,,,,,,,VFR,,,,,,,,,,,,METAR,376.0
KTFP 311515Z AUTO 12010G14KT 10SM CLR 26/16 A3002 RMK AO2 T02610156,KTFP,2022-10-31T15:15:00Z,27.92,-97.22,26.1,15.6,120,10,14,10.0,30.02067,,,TRUE,TRUE,,,,,,,CLR,,,,,,,,VFR,,,,,,,,,,,,METAR,5.0
KONP 311515Z AUTO 20017G23KT 1 1/4SM -RA OVC004 12/11 A2998 RMK AO2 P0001,KONP,2022-10-31T15:15:00Z,44.57,-124.05,12.0,11.0,200,17,23,1.25,29.97933,,,TRUE,TRUE,,,,,,-RA,OVC,400,,,,,,,LIFR,,,,,,0.01,,,,,,SPECI,43.0
KMKS 311515Z AUTO 14005KT 10SM SCT012 23/20 A3005 RMK AO2,KMKS,2022-10-31T15:15:00Z,33.18,-80.03,23.0,20.0,140,5,,10.0,30.050198,,,TRUE,TRUE,,,,,,,SCT,1200,,,,,,,VFR,,,,,,,,,,,,SPECI,22.0
KMER 311515Z AUTO 00000KT 10SM CLR 09/07 A2997 RMK AO1,KMER,2022-10-31T15:15:00Z,37.38,-120.57,9.0,7.0,0,0,,10.0,29.970472,,,TRUE,TRUE,,,,,,,CLR,,,,,,,,VFR,,,,,,,,,,,,METAR,58.0
KCIC 311515Z AUTO 05005KT 10SM CLR 14/01 A3000 RMK AO1,KCIC,2022-10-31T15:15:00Z,39.78,-121.85,14.0,1.0,50,5,,10.0,30.0,,,TRUE,TRUE,,,,,,,CLR,,,,,,,,VFR,,,,,,,,,,,,METAR,72.0
KCEC 311515Z AUTO 00000KT 3SM BR CLR 07/06 A3004 RMK AO2 T00670056,KCEC,2022-10-31T15:15:00Z,41.78,-124.23,6.7,5.6,0,0,,3.0,30.041338,,,TRUE,TRUE,,,,,,BR,CLR,,,,,,,,MVFR,,,,,,,,,,,,SPECI,17.0
CYZF 311514Z 08009KT 1 1/2SM -SN BKN016 OVC038 M11/M13 A2968 RMK SC6SC2 SLP071,CYZF,2022-10-31T15:14:00Z,62.47,-114.45,-11.0,-13.0,80,9,,1.5,29.681103,1007.1,,,,,,,,,-SN,BKN,1600,OVC,3800,,,,,IFR,,,,,,,,,,,,SPECI,202.0
CYIO 311514Z 27007KT 8SM -SN BKN015 OVC021 M13/M15 A2939 RMK ST5SC3 SLP963,CYIO,2022-10-31T15:14:00Z,72.68,-77.97,-13.0,-15.0,270,7,,8.0,29.388779,996.3,,,,,,,,,-SN,BKN,1500,OVC,2100,,,,,MVFR,,,,,,,,,,,,SPECI,61.0
CYCD 311514Z VRB02KT 10SM FEW008 SCT035 BKN079 08/07 A2971 RMK SF1SC3AC3 SF TR SLP062,CYCD,2022-10-31T15:14:00Z,49.05,-123.87,8.0,7.0,0,2,,10.0,29.71063,1006.2,,,,,,,,,,FEW,800,SCT,3500,BKN,7900,,,VFR,,,,,,,,,,,,SPECI,30.0
KNKT 311513Z 10SM BKN029 22/16 A3012 RMK AO2 T02170161,KNKT,2022-10-31T15:13:00Z,34.9,-76.88,21.7,16.1,,,,10.0,30.121063,,,,TRUE,,,,,,,BKN,2900,,,,,,,MVFR,,,,,,,,,,,,SPECI,8.0
CYSB 311513Z VRB02KT 6SM BR SCT002 BKN120 08/08 A2988 RMK ST4AC3 SLP129,CYSB,2022-10-31T15:13:00Z,46.63,-80.8,8.0,8.0,0,2,,6.0,29.878937,1012.9,,,,,,,,,BR,SCT,200,BKN,12000,,,,,VFR,,,,,,,,,,,,SPECI,349.0
SLVR 311512Z 18024G35KT 2800 -TSRA BKN020 FEW030CB OVC070 13/08 Q1018,SLVR,2022-10-31T15:12:00Z,-17.63,-63.13,13.0,8.0,180,24,35,1.74,30.059055,,,,,,,,,,-TSRA,BKN,2000,FEW,3000,OVC,7000,,,IFR,,,,,,,,,,,,SPECI,377.0
CYQG 311512Z AUTO 19007KT 6SM BR OVC005 15/15 A2985 RMK SLP110 DENSITY ALT 900FT,CYQG,2022-10-31T15:12:00Z,42.27,-82.97,15.0,15.0,190,7,,6.0,29.84941,1011.0,,TRUE,,,,,,,BR,OVC,500,,,,,,,IFR,,,,,,,,,,,,SPECI,189.0
CYCK 311512Z AUTO 19011KT 9SM SCT015 14/13 A2986 RMK SLP113 DENSITY ALT 800FT,CYCK,2022-10-31T15:12:00Z,42.3,-82.08,14.0,13.0,190,11,,9.0,29.861221,1011.3,,TRUE,,,,,,,,SCT,1500,,,,,,,VFR,,,,,,,,,,,,SPECI,196.0
YCBA 311510Z AUTO 27015G26KT 9999 // SCT037 OVC070 15/09 Q0997,YCBA,2022-10-31T15:10:00Z,-31.53,145.8,15.0,9.0,270,15,26,6.21,29.438976,,,TRUE,,,,,,,,SCT,3700,OVC,7000,,,,,VFR,,,,,,,,,,,,SPECI,219.0
VCRI 311510Z 00000KT 9999 VCTS SCT018 FEW020 CB 28/26 Q1010 NOSIG RMK E/SE/W,VCRI,2022-10-31T15:10:00Z,6.28,81.13,28.0,26.0,0,0,,6.21,29.822834,,,,,,TRUE,,,,VCTS,SCT,1800,FEW,2000,,,,,VFR,,,,,,,,,,,,METAR,50.0
VCBI 311510Z 04005KT 360V090 9999 VCTS SCT016 FEW019CB 27/24 Q1010 NOSIG RMK CB SE/S,VCBI,2022-10-31T15:10:00Z,7.17,79.88,27.0,24.0,40,5,,6.21,29.822834,,,,,,TRUE,,,,VCTS,SCT,1600,FEW,1900,,,,,VFR,,,,,,,,,,,,METAR,10.0
RCMQ 311510Z 01022G32KT 9999 -RA SCT008 BKN025 BKN050 20/18 Q1007 RMK A2976 AWOS R36 N/A,RCMQ,2022-10-31T15:10:00Z,24.27,120.62,20.0,18.0,10,22,32,6.21,29.734253,,,,TRUE,,,,,,-RA,SCT,800,BKN,2500,BKN,5000,,,MVFR,,,,,,,,,,,,METAR,202.0
PART 1 OF 2 METAR ,PART,2022-10-31T15:10:00Z,,,,,,,,,,,,,,,,,,,,,,,,,,,,,,,,,,,,,,,,METAR,
KQEX 311510Z AUTO 03002KT 9999 CLR 10/08 A3016 RMK A02 TSNO,KQEX,2022-10-31T15:10:00Z,,,10.0,8.0,30,2,,6.21,30.159449,,,TRUE,TRUE,,,TRUE,,,,CLR,,,,,,,,VFR,,,,,,,,,,,,METAR,
KNBT 311510Z AUTO 07006KT 10SM BKN029 22/16 A3011 RMK AO2 T02220156,KNBT,2022-10-31T15:10:00Z,35.02,-76.47,22.2,15.6,70,6,,10.0,30.109253,,,TRUE,TRUE,,,,,,,BKN,2900,,,,,,,MVFR,,,,,,,,,,,,SPECI,5.0
CYVP 311510Z 31014G20KT 15SM SCT031 SCT082 M00/M08 A2987 RMK SC3AC1 SLP119,CYVP,2022-10-31T15:10:00Z,58.12,-68.42,0.0,-8.0,310,14,20,15.0,29.870079,1011.9,,,,,,,,,,SCT,3100,SCT,8200,,,,,VFR,,,,,,,,,,,,SPECI,28.0
CYBW 311510Z AUTO 07004KT 060V130 9SM -SN FEW018 BKN024 OVC033 00/M01 A2967 RMK SLP093,CYBW,2022-10-31T15:10:00Z,51.1,-114.37,0.0,-1.0,70,4,,9.0,29.66929,1009.3,,TRUE,,,,,,,-SN,FEW,1800,BKN,2400,OVC,3300,,,MVFR,,,,,,,,,,,,SPECI,1197.0
SBSJ 311509Z 24005KT 3000 TSRA BR FEW006 BKN012 FEW030CB BKN050 21/21 Q1013,SBSJ,2022-10-31T15:09:00Z,-23.22,-45.87,21.0,21.0,240,5,,1.86,29.911417,,,,,,,,,,TSRA BR,FEW,600,BKN,1200,FEW,3000,BKN,5000,IFR,,,,,,,,,,,,SPECI,640.0
CYZE 311508Z AUTO 16005KT 100V170 9SM FEW006 13/10 A2986 RMK SLP118,CYZE,2022-10-31T15:08:00Z,45.88,-82.57,13.0,10.0,160,5,,9.0,29.861221,1011.8,,TRUE,,,,,,,,FEW,600,,,,,,,VFR,,,,,,,,,,,,SPECI,189.0
KSDF 311507Z 22009KT 10SM BKN015 BKN060 BKN250 18/14 A2991 RMK AO2 T01780144,KSDF,2022-10-31T15:07:00Z,38.18,-85.73,17.8,14.4,220,9,,10.0,29.911417,,,,TRUE,,,,,,,BKN,1500,BKN,6000,BKN,25000,,,MVFR,,,,,,,,,,,,METAR,146.0
CFOX 311506Z AUTO ///// ////SM FEW003 SCT032 BKN044 M12/M14 A2953,CFOX,2022-10-31T15:06:00Z,,,-12.0,-14.0,,,,,29.530512,,,TRUE,,,,,,,,FEW,300,SCT,3200,BKN,4400,,,,,,,,,,,,,,,SPECI,
PADG 311505Z 00000KT 10SM OVC013 M11/M12 A2993,PADG,2022-10-31T15:05:00Z,68.03,-162.9,-11.0,-12.0,0,0,,10.0,29.929134,,,,,,,,,,,OVC,1300,,,,,,,MVFR,,,,,,,,,,,,SPECI,296.0
MMBT 311504Z RTD 00000KT 9SM SKC 30/21 A2992,MMBT,2022-10-31T15:04:00Z,15.77,-96.27,30.0,21.0,0,0,,9.0,29.920275,,,,,,,,,,,SKC,,,,,,,,VFR,,,,,,,,,,,,METAR,137.0
KMDT 311504Z 14003KT 5SM BR SCT005 BKN090 12/09 A3007 RMK AO2 T01170094,KMDT,2022-10-31T15:04:00Z,40.2,-76.77,11.7,9.4,140,3,,5.0,30.070866,,,,TRUE,,,,,,BR,SCT,500,BKN,9000,,,,,MVFR,,,,,,,,,,,,SPECI,91.0
SVSR 311503Z AUTO NIL,SVSR,2022-10-31T15:03:00Z,7.87,-67.43,,,,,,,,,,TRUE,,,,,,,,,,,,,,,,,,,,,,,,,,,,METAR,49.0
SVPR 311503Z AUTO 12006KT NCD 29/20 Q1014,SVPR,2022-10-31T15:03:00Z,8.3,-62.77,29.0,20.0,120,6,,,29.940945,,,TRUE,,,,,,,,CLR,,,,,,,,,,,,,,,,,,,,METAR,140.0
SVPA 311503Z AUTO NIL,SVPA,2022-10-31T15:03:00Z,5.62,-67.6,,,,,,,,,,TRUE,,,,,,,,,,,,,,,,,,,,,,,,,,,,METAR,77.0
SVMT 311503Z AUTO 08007KT NCD 28/28 Q1013,SVMT,2022-10-31T15:03:00Z,9.75,-63.17,28.0,28.0,80,7,,,29.911417,,,TRUE,,,,,,,,CLR,,,,,,,,,,,,,,,,,,,,METAR,67.0
SVMI 311503Z AUTO 08007KT NCD 30/21 Q1013,SVMI,2022-10-31T15:03:00Z,10.6,-67.0,30.0,21.0,80,7,,,29.911417,,,TRUE,,,,,,,,CLR,,,,,,,,,,,,,,,,,,,,METAR,48.0
SVMG 311503Z AUTO 10013KT NCD 29/25 Q1013,SVMG,2022-10-31T15:03:00Z,10.92,-63.97,29.0,25.0,100,13,,,29.911417,,,TRUE,,,,,,,,CLR,,,,,,,,,,,,,,,,,,,,METAR,16.0
SVMC 311503Z AUTO NIL,SVMC,2022-10-31T15:03:00Z,10.57,-71.72,,,,,,,,,,TRUE,,,,,,,,,,,,,,,,,,,,,,,,,,,,METAR,76.0
SVLO 311503Z AUTO NIL,SVLO,2022-10-31T15:03:00Z,11.8,-66.18,,,,,,,,,,TRUE,,,,,,,,,,,,,,,,,,,,,,,,,,,,METAR,3.0
SVJM 311503Z AUTO 27004KT NCD 27/22 Q1014,SVJM,2022-10-31T15:03:00Z,9.92,-67.38,27.0,22.0,270,4,,,29.940945,,,TRUE,,,,,,,,CLR,,,,,,,,,,,,,,,,,,,,METAR,448.0
SVGU 311503Z AUTO NIL,SVGU,2022-10-31T15:03:00Z,9.03,-69.75,,,,,,,,,,TRUE,,,,,,,,,,,,,,,,,,,,,,,,,,,,METAR,165.0
SVGD 311503Z AUTO 00003KT NCD 28/23 Q1014,SVGD,2022-10-31T15:03:00Z,7.22,-70.75,28.0,23.0,0,3,,,29.940945,,,TRUE,,,,,,,,CLR,,,,,,,,,,,,,,,,,,,,METAR,129.0
SVFM 311503Z AUTO 00000KT NCD ///// Q////,SVFM,2022-10-31T15:03:00Z,10.48,-66.83,,,0,0,,,,,,TRUE,,,,,,,,CLR,,,,,,,,,,,,,,,,,,,,METAR,852.0
SVCS 311503Z AUTO 05003KT NCD ///48 Q1017,SVCS,2022-10-31T15:03:00Z,10.3,-66.82,,,50,3,,,30.029528,,,TRUE,,,,,,,,CLR,,,,,,,,,,,,,,,,,,,,METAR,656.0
SVCJ 311503Z AUTO NIL,SVCJ,2022-10-31T15:03:00Z,9.65,-68.58,,,,,,,,,,TRUE,,,,,,,,,,,,,,,,,,,,,,,,,,,,METAR,156.0
SVCB 311503Z AUTO 05007KT NCD 30/22 Q1012,SVCB,2022-10-31T15:03:00Z,8.12,-63.53,30.0,22.0,50,7,,,29.88189,,,TRUE,,,,,,,,CLR,,,,,,,,,,,,,,,,,,,,METAR,47.0
SVBS 311503Z AUTO 11007KT NCD 27/// Q1015,SVBS,2022-10-31T15:03:00Z,10.25,-67.65,,,110,7,,,29.970472,,,TRUE,,,,,,,,CLR,,,,,,,,,,,,,,,,,,,,METAR,435.0
SVBM 311503Z AUTO NIL,SVBM,2022-10-31T15:03:00Z,10.05,-69.37,,,,,,,,,,TRUE,,,,,,,,,,,,,,,,,,,,,,,,,,,,METAR,624.0
SVBI 311503Z AUTO 02005KT NCD 28/22 Q1017,SVBI,2022-10-31T15:03:00Z,8.62,-70.22,28.0,22.0,20,5,,,30.029528,,,TRUE,,,,,,,,CLR,,,,,,,,,,,,,,,,,,,,METAR,185.0
SVBC 311503Z AUTO 25002KT NCD 29/26 Q1013,SVBC,2022-10-31T15:03:00Z,10.12,-64.68,29.0,26.0,250,2,,,29.911417,,,TRUE,,,,,,,,CLR,,,,,,,,,,,,,,,,,,,,METAR,7.0
PAHX 311502Z AUTO 17003KT 10SM CLR M09/M09 A3005 RMK AO2 SLP178 60000 T10891094 51009 FZRANO,PAHX,2022-10-31T15:02:00Z,62.7,-159.57,-8.9,-9.4,170,3,,10.0,30.050198,1017.8,,TRUE,TRUE,,,,TRUE,,,CLR,,,,,,,,VFR,0.9,,,,,,0.005,,,,,METAR,20.0
KHSB 311502Z AUTO 23003KT 7SM SCT005 OVC019 15/15 A2991 RMK AO2,KHSB,2022-10-31T15:02:00Z,37.82,-88.55,15.0,15.0,230,3,,7.0,29.911417,,,TRUE,TRUE,,,,,,,SCT,500,OVC,1900,,,,,MVFR,,,,,,,,,,,,METAR,118.0
PAFS 311501Z AUTO 25003KT 5SM -SN BR FEW028 BKN043 OVC050 M11/M11 A2996 RMK AO2 SLP158 P0000 60001 T11061111 53015 FZRANO,PAFS,2022-10-31T15:01:00Z,63.02,-154.35,-10.6,-11.1,250,3,,5.0,29.958662,1015.8,,TRUE,TRUE,,,,TRUE,,-SN BR,FEW,2800,BKN,4300,OVC,5000,,,MVFR,1.5,,,,,0.005,0.01,,,,,METAR,131.0
CWVH 311501Z AUTO 28005KT ////SM BKN003 BKN007 OVC018 M13/M14 A2996,CWVH,2022-10-31T15:01:00Z,68.9,-133.93,-13.0,-14.0,280,5,,,29.958662,,,TRUE,,,,,,,,BKN,300,BKN,700,OVC,1800,,,,,,,,,,,,,,,SPECI,246.0
ZYHB 311500Z 25007MPS CAVOK 03/M03 Q1018 NOSIG,ZYHB,2022-10-31T15:00:00Z,45.62,126.25,3.0,-3.0,250,14,,6.21,30.059055,,,,,,TRUE,,,,,CAVOK,,,,,,,,VFR,,,,,,,,,,,,METAR,134.0
ZYCC 311500Z 30004MPS 270V340 9999 SCT030 06/M05 Q1021 NOSIG,ZYCC,2022-10-31T15:00:00Z,43.98,125.68,6.0,-5.0,300,8,,6.21,30.147638,,,,,,TRUE,,,,,SCT,3000,,,,,,,VFR,,,,,,,,,,,,METAR,211.0
ZWSH 311500Z AUTO 34002MPS 9000 // ///////// 10/M03 Q1020,ZWSH,2022-10-31T15:00:00Z,39.55,76.02,10.0,-3.0,340,4,,5.59,30.11811,,,TRUE,,,,,,,,,,,,,,,,,,,,,,,,,,,,METAR,1374.0
ZUUU 311500Z 21001MPS CAVOK 16/14 Q1024 NOSIG,ZUUU,2022-10-31T15:00:00Z,30.58,103.95,16.0,14.0,210,2,,6.21,30.236221,,,,,,TRUE,,,,,CAVOK,,,,,,,,VFR,,,,,,,,,,,,METAR,494.0
ZUTF 311500Z 22001MPS 8000 NSC 14/13 Q1024 NOSIG,ZUTF,2022-10-31T15:00:00Z,30.3,104.43,14.0,13.0,220,2,,4.97,30.236221,,,,,,TRUE,,,,,CLR,,,,,,,,MVFR,,,,,,,,,,,,METAR,443.0
ZUGY 311500Z 01002MPS 9999 SCT026 11/10 Q1026 NOSIG,ZUGY,2022-10-31T15:00:00Z,26.53,106.8,11.0,10.0,10,4,,6.21,30.295275,,,,,,TRUE,,,,,SCT,2600,,,,,,,VFR,,,,,,,,,,,,METAR,1130.0
ZUCK 311500Z 00000MPS CAVOK 17/13 Q1024 NOSIG,ZUCK,2022-10-31T15:00:00Z,29.72,106.63,17.0,13.0,0,0,,6.21,30.236221,,,,,,TRUE,,,,,CAVOK,,,,,,,,VFR,,,,,,,,,,,,METAR,416.0
ZSQD 311500Z 35003MPS 2800 BR NSC 12/10 Q1025 BECMG TL1600 3500,ZSQD,2022-10-31T15:00:00Z,36.27,120.38,12.0,10.0,350,6,,1.74,30.265747,,,,,,,,,,BR,CLR,,,,,,,,IFR,,,,,,,,,,,,METAR,8.0
ZSOF 311500Z 03002MPS 5000 BR NSC 15/12 Q1024 NOSIG,ZSOF,2022-10-31T15:00:00Z,31.98,116.97,15.0,12.0,30,4,,3.11,30.236221,,,,,,TRUE,,,,BR,CLR,,,,,,,,MVFR,,,,,,,,,,,,METAR,23.0
ZSNJ 311500Z 02002MPS CAVOK 17/14 Q1023 NOSIG,ZSNJ,2022-10-31T15:00:00Z,31.75,118.87,17.0,14.0,20,4,,6.21,30.206694,,,,,,TRUE,,,,,CAVOK,,,,,,,,VFR,,,,,,,,,,,,METAR,27.0
ZSNB 311500Z 34002MPS CAVOK 18/14 Q1022 NOSIG,ZSNB,2022-10-31T15:00:00Z,29.83,121.47,18.0,14.0,340,4,,6.21,30.177166,,,,,,TRUE,,,,,CAVOK,,,,,,,,VFR,,,,,,,,,,,,METAR,5.0
ZSFZ 311500Z 02006MPS 9999 OVC033 19/15 Q1016 NOSIG,ZSFZ,2022-10-31T15:00:00Z,25.93,119.67,19.0,15.0,20,12,,6.21,30.0,,,,,,TRUE,,,,,OVC,3300,,,,,,,VFR,,,,,,,,,,,,METAR,14.0
ZSAM 311500Z 04008MPS 9999 -RA FEW033 22/17 Q1013 NOSIG,ZSAM,2022-10-31T15:00:00Z,24.53,118.13,22.0,17.0,40,16,,6.21,29.911417,,,,,,TRUE,,,,-RA,FEW,3300,,,,,,,VFR,,,,,,,,,,,,METAR,13.0
ZPPP 311500Z 04005MPS CAVOK 08/06 Q1030 NOSIG,ZPPP,2022-10-31T15:00:00Z,25.0,102.65,8.0,6.0,40,10,,6.21,30.413385,,,,,,TRUE,,,,,CAVOK,,,,,,,,VFR,,,,,,,,,,,,METAR,1885.0
ZLXY 311500Z VRB01MPS 6000 NSC 10/10 Q1024 NOSIG,ZLXY,2022-10-31T15:00:00Z,34.43,108.75,10.0,10.0,0,2,,3.73,30.236221,,,,,,TRUE,,,,,CLR,,,,,,,,MVFR,,,,,,,,,,,,METAR,478.0
ZLLL 311500Z 32003MPS CAVOK 03/M00 Q1023 NOSIG,ZLLL,2022-10-31T15:00:00Z,36.52,103.62,3.0,0.0,320,6,,6.21,30.206694,,,,,,TRUE,,,,,CAVOK,,,,,,,,VFR,,,,,,,,,,,,METAR,1939.0
ZJSY 311500Z VRB01MPS CAVOK 22/16 Q1011 NOSIG,ZJSY,2022-10-31T15:00:00Z,18.3,109.42,22.0,16.0,0,2,,6.21,29.852362,,,,,,TRUE,,,,,CAVOK,,,,,,,,VFR,,,,,,,,,,,,METAR,27.0
ZJHK 311500Z 34007MPS CAVOK 24/15 Q1011 NOSIG,ZJHK,2022-10-31T15:00:00Z,19.93,110.43,24.0,15.0,340,14,,6.21,29.852362,,,,,,TRUE,,,,,CAVOK,,,,,,,,VFR,,,,,,,,,,,,METAR,21.0
ZHHH 311500Z 01002MPS 340V040 8000 NSC 16/09 Q1023 NOSIG,ZHHH,2022-10-31T15:00:00Z,30.78,114.22,16.0,9.0,10,4,,4.97,30.206694,,,,,,TRUE,,,,,CLR,,,,,,,,MVFR,,,,,,,,,,,,METAR,33.0
ZHCC 311500Z 00000MPS 2800 BR NSC 12/09 Q1025 NOSIG,ZHCC,2022-10-31T15:00:00Z,34.52,113.83,12.0,9.0,0,0,,1.74,30.265747,,,,,,TRUE,,,,BR,CLR,,,,,,,,IFR,,,,,,,,,,,,METAR,149.0
ZGSZ 311500Z 02008MPS CAVOK 26/11 Q1010 NOSIG,ZGSZ,2022-10-31T15:00:00Z,22.63,113.8,26.0,11.0,20,16,,6.21,29.822834,,,,,,TRUE,,,,,CAVOK,,,,,,,,VFR,,,,,,,,,,,,METAR,18.0
ZGOW 311500Z 02002MPS 9999 FEW020 BKN050 21/18 Q1011 NOSIG,ZGOW,2022-10-31T15:00:00Z,23.55,116.5,21.0,18.0,20,4,,6.21,29.852362,,,,,,TRUE,,,,,FEW,2000,BKN,5000,,,,,VFR,,,,,,,,,,,,METAR,4.0
ZGNN 311500Z 36003MPS CAVOK 22/11 Q1016 NOSIG,ZGNN,2022-10-31T15:00:00Z,22.62,108.17,22.0,11.0,360,6,,6.21,30.0,,,,,,TRUE,,,,,CAVOK,,,,,,,,VFR,,,,,,,,,,,,METAR,128.0
ZGKL 311500Z 04006MPS CAVOK 21/08 Q1019 NOSIG,ZGKL,2022-10-31T15:00:00Z,25.22,110.03,21.0,8.0,40,12,,6.21,30.088583,,,,,,TRUE,,,,,CAVOK,,,,,,,,VFR,,,,,,,,,,,,METAR,151.0
ZGHA 311500Z 02002MPS CAVOK 15/09 Q1022 NOSIG,ZGHA,2022-10-31T15:00:00Z,28.18,113.22,15.0,9.0,20,4,,6.21,30.177166,,,,,,TRUE,,,,,CAVOK,,,,,,,,VFR,,,,,,,,,,,,METAR,61.0
ZBSJ 311500Z 07001MPS CAVOK 06/01 Q1026 NOSIG,ZBSJ,2022-10-31T15:00:00Z,38.28,114.7,6.0,1.0,70,2,,6.21,30.295275,,,,,,TRUE,,,,,CAVOK,,,,,,,,VFR,,,,,,,,,,,,METAR,70.0
ZBHH 311500Z 05002MPS CAVOK M03/M07 Q1027 NOSIG,ZBHH,2022-10-31T15:00:00Z,40.85,111.82,-3.0,-7.0,50,4,,6.21,30.324802,,,,,,TRUE,,,,,CAVOK,,,,,,,,VFR,,,,,,,,,,,,METAR,1081.0
YLIS 311500Z AUTO 36008KT 9999 // SCT083 SCT115 23/21 Q0998,YLIS,2022-10-31T15:00:00Z,-28.83,153.27,23.0,21.0,360,8,,6.21,29.468504,,,TRUE,,,,,,,,SCT,8300,SCT,11500,,,,,VFR,,,,,,,,,,,,SPECI,6.0
WSSL 311500Z 01004KT 330V030 CAVOK 27/24 Q1010,WSSL,2022-10-31T15:00:00Z,1.42,103.87,27.0,24.0,10,4,,6.21,29.822834,,,,,,,,,,,CAVOK,,,,,,,,VFR,,,,,,,,,,,,METAR,11.0
WSAP 311500Z 02005KT 9999 FEW018 SCT160 28/24 Q1010,WSAP,2022-10-31T15:00:00Z,1.37,103.92,28.0,24.0,20,5,,6.21,29.822834,,,,,,,,,,,FEW,1800,SCT,16000,,,,,VFR,,,,,,,,,,,,METAR,20.0
WMSA 311500Z VRB02KT 9999 FEW026 28/24 Q1011,WMSA,2022-10-31T15:00:00Z,3.13,101.55,28.0,24.0,0,2,,6.21,29.852362,,,,,,,,,,,FEW,2600,,,,,,,VFR,,,,,,,,,,,,METAR,19.0
WMKN 311500Z VRB02KT 9000 -RA SCT020 25/25 Q1011 RERA,WMKN,2022-10-31T15:00:00Z,5.37,103.1,25.0,25.0,0,2,,5.59,29.852362,,,,,,,,,,-RA,SCT,2000,,,,,,,VFR,,,,,,,,,,,,METAR,12.0
WMKM 311500Z 00000KT 9999 FEW028 27/24 Q1011,WMKM,2022-10-31T15:00:00Z,2.27,102.25,27.0,24.0,0,0,,6.21,29.852362,,,,,,,,,,,FEW,2800,,,,,,,VFR,,,,,,,,,,,,METAR,9.0
WMKL 311500Z VRB02KT 9999 FEW026 26/25 Q1011,WMKL,2022-10-31T15:00:00Z,6.32,99.72,26.0,25.0,0,2,,6.21,29.852362,,,,,,,,,,,FEW,2600,,,,,,,VFR,,,,,,,,,,,,METAR,4.0
WMKJ 311500Z VRB03KT 9999 FEW022 26/25 Q1010,WMKJ,2022-10-31T15:00:00Z,1.63,103.67,26.0,25.0,0,3,,6.21,29.822834,,,,,,,,,,,FEW,2200,,,,,,,VFR,,,,,,,,,,,,METAR,38.0
WMKI 311500Z 04005KT 360V080 8000 FEW025 27/23 Q1011,WMKI,2022-10-31T15:00:00Z,4.57,101.08,27.0,23.0,40,5,,4.97,29.852362,,,,,,,,,,,FEW,2500,,,,,,,MVFR,,,,,,,,,,,,METAR,37.0
WMKE 311500Z AUTO VRB01KT //// // ////// 26/25 Q1011,WMKE,2022-10-31T15:00:00Z,4.53,103.43,26.0,25.0,0,1,,,29.852362,,,TRUE,,,,,,,,,,,,,,,,,,,,,,,,,,,,METAR,5.0
WMKD 311500Z 30018G29KT 260V320 8000 -TSRA FEW016CB SCT024 24/23 Q1011 TEMPO 4000 TSRA,WMKD,2022-10-31T15:00:00Z,3.77,103.22,24.0,23.0,300,18,29,4.97,29.852362,,,,,,,,,,-TSRA,FEW,1600,SCT,2400,,,,,MVFR,,,,,,,,,,,,METAR,18.0
WMKC 311500Z 00000KT 9999 -RA FEW010 25/25 Q1011,WMKC,2022-10-31T15:00:00Z,6.17,102.28,25.0,25.0,0,0,,6.21,29.852362,,,,,,,,,,-RA,FEW,1000,,,,,,,VFR,,,,,,,,,,,,METAR,7.0
WMKB 311500Z VRB02KT 8000 -RA FEW010 SCT023 26/25 Q1010 NOSIG,WMKB,2022-10-31T15:00:00Z,5.47,100.38,26.0,25.0,0,2,,4.97,29.822834,,,,,,TRUE,,,,-RA,FEW,1000,SCT,2300,,,,,MVFR,,,,,,,,,,,,METAR,4.0
WMKA 311500Z 00000KT 9000 FEW012 25/24 Q1011,WMKA,2022-10-31T15:00:00Z,6.2,100.4,25.0,24.0,0,0,,5.59,29.852362,,,,,,,,,,,FEW,1200,,,,,,,VFR,,,,,,,,,,,,METAR,5.0
WMBA 311500Z VRB01KT 9000 FEW031 27/25 Q1010,WMBA,2022-10-31T15:00:00Z,4.22,100.7,27.0,25.0,0,1,,5.59,29.822834,,,,,,,,,,,FEW,3100,,,,,,,VFR,,,,,,,,,,,,METAR,9.0
WMAU 311500Z 00000KT 9000 -RA SCT025 27/25 Q1011,WMAU,2022-10-31T15:00:00Z,2.38,103.88,27.0,25.0,0,0,,5.59,29.852362,,,,,,,,,,-RA,SCT,2500,,,,,,,VFR,,,,,,,,,,,,METAR,5.0
WBKW 311500Z VRB02KT 9999 FEW016 26/25 Q1009,WBKW,2022-10-31T15:00:00Z,4.32,118.12,26.0,25.0,0,2,,6.21,29.793306,,,,,,,,,,,FEW,1600,,,,,,,VFR,,,,,,,,,,,,METAR,17.0
WBKT 311500Z 25006KT 210V300 8000 -RA FEW013 SCT032 25/24 Q1009 RERA,WBKT,2022-10-31T15:00:00Z,6.92,116.83,25.0,24.0,250,6,,4.97,29.793306,,,,,,,,,,-RA,FEW,1300,SCT,3200,,,,,MVFR,,,,,,,,,,,,METAR,11.0
WBKS 311500Z VRB03KT 5000 RA FEW007 SCT030 24/24 Q1010,WBKS,2022-10-31T15:00:00Z,5.9,118.07,24.0,24.0,0,3,,3.11,29.822834,,,,,,,,,,RA,FEW,700,SCT,3000,,,,,MVFR,,,,,,,,,,,,METAR,13.0
WBKL 311500Z 25003KT 190V320 8000 -RA FEW010 SCT030 26/25 Q1010,WBKL,2022-10-31T15:00:00Z,5.3,115.25,26.0,25.0,250,3,,4.97,29.822834,,,,,,,,,,-RA,FEW,1000,SCT,3000,,,,,MVFR,,,,,,,,,,,,METAR,29.0
WBGY 311500Z AUTO VRB02KT //// // ////// 25/24 Q1010,WBGY,2022-10-31T15:00:00Z,1.22,111.45,25.0,24.0,0,2,,,29.822834,,,TRUE,,,,,,,,,,,,,,,,,,,,,,,,,,,,METAR,13.0
WBGS 311500Z 00000KT 9999 FEW005 SCT017 25/25 Q1010,WBGS,2022-10-31T15:00:00Z,2.27,111.98,25.0,25.0,0,0,,6.21,29.822834,,,,,,,,,,,FEW,500,SCT,1700,,,,,VFR,,,,,,,,,,,,METAR,26.0
WBGR 311500Z VRB08KT 9999 SCT014 FEW015CB 27/23 Q1011,WBGR,2022-10-31T15:00:00Z,4.32,113.98,27.0,23.0,0,8,,6.21,29.852362,,,,,,,,,,,SCT,1400,FEW,1500,,,,,VFR,,,,,,,,,,,,METAR,18.0
WBGB 311500Z 26003KT 210V330 5000 TSRA FEW005 FEW015CB SCT016 25/25 Q1011,WBGB,2022-10-31T15:00:00Z,3.12,113.02,25.0,25.0,260,3,,3.11,29.852362,,,,,,,,,,TSRA,FEW,500,FEW,1500,SCT,1600,,,MVFR,,,,,,,,,,,,METAR,34.0
VTUU 311500Z 05007KT 9000 NSC 23/20 Q1013 NOSIG,VTUU,2022-10-31T15:00:00Z,15.25,104.87,23.0,20.0,50,7,,5.59,29.911417,,,,,,TRUE,,,,,CLR,,,,,,,,VFR,,,,,,,,,,,,METAR,119.0
VTUK 311500Z 10002KT 9000 NSC 23/20 Q1014 NOSIG,VTUK,2022-10-31T15:00:00Z,16.47,102.78,23.0,20.0,100,2,,5.59,29.940945,,,,,,TRUE,,,,,CLR,,,,,,,,VFR,,,,,,,,,,,,METAR,190.0
VTUI 311500Z 12005KT 9999 FEW035 24/17 Q1013 NOSIG,VTUI,2022-10-31T15:00:00Z,17.2,104.12,24.0,17.0,120,5,,6.21,29.911417,,,,,,TRUE,,,,,FEW,3500,,,,,,,VFR,,,,,,,,,,,,METAR,162.0
VTSM 311500Z 00000KT 9999 FEW020 28/24 Q1011 NOSIG,VTSM,2022-10-31T15:00:00Z,9.55,100.07,28.0,24.0,0,0,,6.21,29.852362,,,,,,TRUE,,,,,FEW,2000,,,,,,,VFR,,,,,,,,,,,,METAR,12.0
VTSG 311500Z VRB02KT 6000 FEW020 BKN080 25/24 Q1011 NOSIG,VTSG,2022-10-31T15:00:00Z,8.1,98.98,25.0,24.0,0,2,,3.73,29.852362,,,,,,TRUE,,,,,FEW,2000,BKN,8000,,,,,MVFR,,,,,,,,,,,,METAR,32.0
VTSF 311500Z 34003KT 280V020 9999 FEW016TCU SCT022 27/27 Q1010 NOSIG,VTSF,2022-10-31T15:00:00Z,8.53,99.95,27.0,27.0,340,3,,6.21,29.822834,,,,,,TRUE,,,,,FEW,1600,SCT,2200,,,,,VFR,,,,,,,,,,,,METAR,6.0
VTSB 311500Z 00000KT 8000 FEW020 26/25 Q1011 NOSIG,VTSB,2022-10-31T15:00:00Z,9.12,99.15,26.0,25.0,0,0,,4.97,29.852362,,,,,,TRUE,,,,,FEW,2000,,,,,,,MVFR,,,,,,,,,,,,METAR,10.0
VTPP 311500Z 00000KT CAVOK 25/25 Q1012 NOSIG,VTPP,2022-10-31T15:00:00Z,16.78,100.28,25.0,25.0,0,0,,6.21,29.88189,,,,,,TRUE,,,,,CAVOK,,,,,,,,VFR,,,,,,,,,,,,METAR,45.0
VTCT 311500Z 00000KT 9999 FEW045 23/22 Q1015 NOSIG,VTCT,2022-10-31T15:00:00Z,19.95,99.88,23.0,22.0,0,0,,6.21,29.970472,,,,,,TRUE,,,,,FEW,4500,,,,,,,VFR,,,,,,,,,,,,METAR,389.0
VRMM 311500Z 23011KT 9999 FEW017 FEW018CB BKN280 27/24 Q1012 CB ENE NOSIG,VRMM,2022-10-31T15:00:00Z,4.2,73.52,27.0,24.0,230,11,,6.21,29.88189,,,,,,TRUE,,,,,FEW,1700,FEW,1800,BKN,28000,,,VFR,,,,,,,,,,,,METAR,2.0
VRMH 311500Z 26005KT 9999 FEW019 28/23 Q1011,VRMH,2022-10-31T15:00:00Z,6.75,73.17,28.0,23.0,260,5,,6.21,29.852362,,,,,,,,,,,FEW,1900,,,,,,,VFR,,,,,,,,,,,,METAR,1.0
VRMG 311500Z 31007KT 9999 FEW017TCU BKN260 27/24 Q1012 TEMPO 5000 SHRA,VRMG,2022-10-31T15:00:00Z,-0.7,73.15,27.0,24.0,310,7,,6.21,29.88189,,,,,,,,,,,FEW,1700,BKN,26000,,,,,VFR,,,,,,,,,,,,METAR,3.0
VOVZ 311500Z 06004KT 4000 HZ NSC 27/22 Q1013 NOSIG,VOVZ,2022-10-31T15:00:00Z,17.72,83.22,27.0,22.0,60,4,,2.49,29.911417,,,,,,TRUE,,,,HZ,CLR,,,,,,,,IFR,,,,,,,,,,,,METAR,4.0
VOPB 311500Z 07003KT 5000 BR SCT014 SCT220 27/23 Q1011 NOSIG,VOPB,2022-10-31T15:00:00Z,11.63,92.73,27.0,23.0,70,3,,3.11,29.852362,,,,,,TRUE,,,,BR,SCT,1400,SCT,22000,,,,,MVFR,,,,,,,,,,,,METAR,1.0
VOMD 311500Z 06004KT 5000 HZ NSC 26/22 Q1011 NOSIG,VOMD,2022-10-31T15:00:00Z,9.83,78.08,26.0,22.0,60,4,,3.11,29.852362,,,,,,TRUE,,,,HZ,CLR,,,,,,,,MVFR,,,,,,,,,,,,METAR,135.0
VOGO 311500Z 04004KT 6000 NSC 28/22 Q1011 NOSIG,VOGO,2022-10-31T15:00:00Z,15.38,73.83,28.0,22.0,40,4,,3.73,29.852362,,,,,,TRUE,,,,,CLR,,,,,,,,MVFR,,,,,,,,,,,,METAR,56.0
VOBG 311500Z 04005KT 6000 FEW012 SCT080 22/16 Q1017 NOSIG,VOBG,2022-10-31T15:00:00Z,12.95,77.65,22.0,16.0,40,5,,3.73,30.029528,,,,,,TRUE,,,,,FEW,1200,SCT,8000,,,,,MVFR,,,,,,,,,,,,METAR,884.0
VGEG 311500Z 32007KT 4000 HZ NSC 29/26 Q1011 NOSIG,VGEG,2022-10-31T15:00:00Z,22.23,91.82,29.0,26.0,320,7,,2.49,29.852362,,,,,,TRUE,,,,HZ,CLR,,,,,,,,IFR,,,,,,,,,,,,METAR,7.0
VEGY 311500Z 00000KT 3000 HZ SCT020 22/17 Q1014,VEGY,2022-10-31T15:00:00Z,24.75,84.95,22.0,17.0,0,0,,1.86,29.940945,,,,,,,,,,HZ,SCT,2000,,,,,,,IFR,,,,,,,,,,,,METAR,115.0
VARK 311500Z 09003KT 6000 NSC 27/12 Q1013 NOSIG,VARK,2022-10-31T15:00:00Z,22.3,70.77,27.0,12.0,90,3,,3.73,29.911417,,,,,,TRUE,,,,,CLR,,,,,,,,MVFR,,,,,,,,,,,,METAR,125.0
VAJB 311500Z 09003KT 3500 HZ NSC 22/13 Q1016 NOSIG,VAJB,2022-10-31T15:00:00Z,23.18,80.05,22.0,13.0,90,3,,2.17,30.0,,,,,,TRUE,,,,HZ,CLR,,,,,,,,IFR,,,,,,,,,,,,METAR,489.0
VABO 311500Z 07003KT 6000 NSC 27/16 Q1013 NOSIG,VABO,2022-10-31T15:00:00Z,22.33,73.22,27.0,16.0,70,3,,3.73,29.911417,,,,,,TRUE,,,,,CLR,,,,,,,,MVFR,,,,,,,,,,,,METAR,36.0
UWOR 311500Z 18007MPS 9999 OVC014 08/07 Q1004 R25/290055 NOSIG RMK QFE730/0973,UWOR,2022-10-31T15:00:00Z,51.07,58.6,8.0,7.0,180,14,,6.21,29.64567,,,,,,TRUE,,,,,OVC,1400,,,,,,,MVFR,,,,,,,,,,,,SPECI,270.0
UWLW 311500Z 27003MPS 9999 OVC049 02/M02 Q0999 R20/120055 NOSIG RMK QFE744/0992,UWLW,2022-10-31T15:00:00Z,54.4,48.8,2.0,-2.0,270,6,,6.21,29.498032,,,,,,TRUE,,,,,OVC,4900,,,,,,,VFR,,,,,,,,,,,,SPECI,67.0
UTAV 311500Z 06006KT CAVOK 13/02 Q1018 R13/CLRD70 NOSIG,UTAV,2022-10-31T15:00:00Z,39.08,63.62,13.0,2.0,60,6,,6.21,30.059055,,,,,,TRUE,,,,,CAVOK,,,,,,,,VFR,,,,,,,,,,,,SPECI,187.0
UTAT 311500Z 12006KT 9999 BKN050 14/08 Q1017 R08/CLRD70 NOSIG,UTAT,2022-10-31T15:00:00Z,41.77,59.83,14.0,8.0,120,6,,6.21,30.029528,,,,,,TRUE,,,,,BKN,5000,,,,,,,VFR,,,,,,,,,,,,SPECI,84.0
UTAM 311500Z 09006KT 6000 NSC 16/04 Q1017 R88/CLRD70 NOSIG,UTAM,2022-10-31T15:00:00Z,37.62,61.9,16.0,4.0,90,6,,3.73,30.029528,,,,,,TRUE,,,,,CLR,,,,,,,,MVFR,,,,,,,,,,,,SPECI,218.0
UTAK 311500Z 18008KT CAVOK 16/09 Q1011 R16R/CLRD70 NOSIG,UTAK,2022-10-31T15:00:00Z,40.05,53.0,16.0,9.0,180,8,,6.21,29.852362,,,,,,TRUE,,,,,CAVOK,,,,,,,,VFR,,,,,,,,,,,,SPECI,83.0
UTAA 311500Z 00000KT 5000 BR NSC 15/13 Q1014 R88/70D NOSIG,UTAA,2022-10-31T15:00:00Z,37.98,58.37,15.0,13.0,0,0,,3.11,29.940945,,,,,,TRUE,,,,BR,CLR,,,,,,,,MVFR,,,,,,,,,,,,METAR,207.0
URMN 311500Z 26002MPS 9999 FEW/// 10/04 Q1008 R24/010070 NOSIG RMK QFE719,URMN,2022-10-31T15:00:00Z,43.52,43.63,10.0,4.0,260,4,,6.21,29.763779,,,,,,TRUE,,,,,,,,,,,,,,,,,,,,,,,,,SPECI,424.0
UOOO 311500Z 21012MPS 8000 -SN BLSN OVC013 M04/M05 Q1010 R19/410530 NOSIG RMK QFE741/0988,UOOO,2022-10-31T15:00:00Z,69.32,87.33,-4.0,-5.0,210,23,,4.97,29.822834,,,,,,TRUE,,,,-SN BLSN,OVC,1300,,,,,,,MVFR,,,,,,,,,,,,SPECI,177.0
UMII 311500Z 31003MPS CAVOK 04/M02 Q1017 NOSIG,UMII,2022-10-31T15:00:00Z,55.13,30.35,4.0,-2.0,310,6,,6.21,30.029528,,,,,,TRUE,,,,,CAVOK,,,,,,,,VFR,,,,,,,,,,,,METAR,208.0
UHPP 311500Z 01005MPS CAVOK M05/M12 Q1022 R34L/CLRD65 NOSIG RMK QFE763/1017,UHPP,2022-10-31T15:00:00Z,53.17,158.45,-5.0,-12.0,10,10,,6.21,30.177166,,,,,,TRUE,,,,,CAVOK,,,,,,,,VFR,,,,,,,,,,,,METAR,33.0
UHMM 311500Z 10001MPS 9999 NSC M26/M29 Q1026 RMK QFE755 R28/08003MPS,UHMM,2022-10-31T15:00:00Z,59.92,150.72,-26.0,-29.0,100,2,,6.21,30.295275,,,,,,,,,,,CLR,,,,,,,,VFR,,,,,,,,,,,,METAR,175.0
UHMA 311500Z 34005MPS CAVOK M23/M25 Q1019 R01/////// NOSIG RMK TDZ R01/34005G06MPS END R01/36007G09MPS QFE760/1014,UHMA,2022-10-31T15:00:00Z,64.73,177.73,-23.0,-25.0,340,10,,6.21,30.088583,,,,,,TRUE,,,,,CAVOK,,,,,,,,VFR,,,,,,,,,,,,METAR,53.0
UHBB 311500Z 18005MPS 7000 FEW010 SCT033CB 02/01 Q1005 R36/290250 NOSIG RMK QBB300 QFE736/0981,UHBB,2022-10-31T15:00:00Z,50.43,127.42,2.0,1.0,180,10,,4.35,29.675198,,,,,,TRUE,,,,,FEW,1000,SCT,3300,,,,,MVFR,,,,,,,,,,,,METAR,185.0
UERR 311500Z 27004MPS 9999 -SHSN BKN023CB M09/M11 Q1021 R25/490340 NOSIG RMK QFE735/0980,UERR,2022-10-31T15:00:00Z,62.53,114.05,-9.0,-11.0,270,8,,6.21,30.147638,,,,,,TRUE,,,,-SHSN,BKN,2300,,,,,,,MVFR,,,,,,,,,,,,SPECI,352.0
UERP 311500Z 20002MPS CAVOK M16/M17 Q1016 R35/890235 RMK QFE718,UERP,2022-10-31T15:00:00Z,66.4,112.03,-16.0,-17.0,200,4,,6.21,30.0,,,,,,,,,,,CAVOK,,,,,,,,VFR,,,,,,,,,,,,SPECI,514.0
UCFL 311500Z 32002MPS 9999 SCT026CB BKN100 04/M01 Q1023 R07/CLRD95,UCFL,2022-10-31T15:00:00Z,42.58,76.7,4.0,-1.0,320,4,,6.21,30.206694,,,,,,,,,,,SCT,2600,BKN,10000,,,,,VFR,,,,,,,,,,,,METAR,1654.0
UBBY 311500Z 01006KT 9999 SCT100 16/M00 Q1013 NOSIG RMK MT OP,UBBY,2022-10-31T15:00:00Z,41.57,46.67,16.0,0.0,10,6,,6.21,29.911417,,,,,,TRUE,,,,,SCT,10000,,,,,,,VFR,,,,,,,,,,,,METAR,383.0
UASK 311500Z 26003MPS 9999 -SHRA BKN026CB OVC046 05/03 Q1024 NOSIG RMK QFE742/0990,UASK,2022-10-31T15:00:00Z,50.03,82.5,5.0,3.0,260,6,,6.21,30.236221,,,,,,TRUE,,,,-SHRA,BKN,2600,OVC,4600,,,,,MVFR,,,,,,,,,,,,METAR,285.0
UAOO 311500Z 11004MPS CAVOK 04/M01 Q1021 NOSIG RMK QFE754/1006,UAOO,2022-10-31T15:00:00Z,44.7,65.6,4.0,-1.0,110,8,,6.21,30.147638,,,,,,TRUE,,,,,CAVOK,,,,,,,,VFR,,,,,,,,,,,,METAR,130.0
TVSA 311500Z 08009KT 9999 SCT020 29/25 Q1013 NOSIG ,TVSA,2022-10-31T15:00:00Z,13.15,-61.15,29.0,25.0,80,9,,6.21,29.911417,,,,,,TRUE,,,,,SCT,2000,,,,,,,VFR,,,,,,,,,,,,METAR,3.0
TTPP 311500Z 10014KT 060V160 9999 VCSH FEW022 31/24 Q1012 NOSIG,TTPP,2022-10-31T15:00:00Z,10.58,-61.35,31.0,24.0,100,14,,6.21,29.88189,,,,,,TRUE,,,,VCSH,FEW,2200,,,,,,,VFR,,,,,,,,,,,,METAR,11.0
TTCP 311500Z 10013KT 9999 VCSH SCT016 29/25 Q1012 VCSH W,TTCP,2022-10-31T15:00:00Z,11.15,-60.85,29.0,25.0,100,13,,6.21,29.88189,,,,,,,,,,VCSH VCSH,SCT,1600,,,,,,,VFR,,,,,,,,,,,,METAR,13.0
TRPG 311500Z 10017KT 9999 FEW017 29/25 Q1016,TRPG,2022-10-31T15:00:00Z,16.78,-62.2,29.0,25.0,100,17,,6.21,30.0,,,,,,,,,,,FEW,1700,,,,,,,VFR,,,,,,,,,,,,METAR,170.0
TQPF 311500Z 12012KT 9999 -RA SCT017 BKN040 29/25 Q1015,TQPF,2022-10-31T15:00:00Z,18.2,-63.05,29.0,25.0,120,12,,6.21,29.970472,,,,,,,,,,-RA,SCT,1700,BKN,4000,,,,,VFR,,,,,,,,,,,,METAR,33.0
TNCM 311500Z 11008KT 9999 SCT017 BKN038 30/25 Q1016 NOSIG ,TNCM,2022-10-31T15:00:00Z,18.05,-63.12,30.0,25.0,110,8,,6.21,30.0,,,,,,TRUE,,,,,SCT,1700,BKN,3800,,,,,VFR,,,,,,,,,,,,METAR,9.0
TNCC 311500Z 13005KT 5000 +RA SCT002 BKN017 24/23 Q1012 TEMPO 13010G25KT 5000 +RA SCT017TCU BKN020,TNCC,2022-10-31T15:00:00Z,12.2,-68.97,24.0,23.0,130,5,,3.11,29.88189,,,,,,,,,,+RA,SCT,200,BKN,1700,,,,,MVFR,,,,,,,,,,,,METAR,10.0
TLPL 311500Z 11021KT 9999 FEW028 31/25 Q1013 NOSIG,TLPL,2022-10-31T15:00:00Z,13.75,-60.95,31.0,25.0,110,21,,6.21,29.911417,,,,,,TRUE,,,,,FEW,2800,,,,,,,VFR,,,,,,,,,,,,METAR,13.0
TLPC 311500Z 11014KT 9999 FEW026 30/24 Q1013 NOSIG,TLPC,2022-10-31T15:00:00Z,14.02,-61.0,30.0,24.0,110,14,,6.21,29.911417,,,,,,TRUE,,,,,FEW,2600,,,,,,,VFR,,,,,,,,,,,,METAR,8.0
TKPN 311500Z 09010KT 9999 SCT021 SCT050 30/26 Q1014,TKPN,2022-10-31T15:00:00Z,17.2,-62.58,30.0,26.0,90,10,,6.21,29.940945,,,,,,,,,,,SCT,2100,SCT,5000,,,,,VFR,,,,,,,,,,,,METAR,12.0
TKPK 311500Z 08011KT 9999 FEW020 SCT042 31/24 Q1014,TKPK,2022-10-31T15:00:00Z,17.3,-62.72,31.0,24.0,80,11,,6.21,29.940945,,,,,,,,,,,FEW,2000,SCT,4200,,,,,VFR,,,,,,,,,,,,METAR,62.0
TGPY 311500Z 08022KT 9999 FEW018 30/26 Q1012 NOSIG,TGPY,2022-10-31T15:00:00Z,12.0,-61.78,30.0,26.0,80,22,,6.21,29.88189,,,,,,TRUE,,,,,FEW,1800,,,,,,,VFR,,,,,,,,,,,,METAR,12.0
TDPD 311500Z 13009KT 9999 SCT015 30/25 Q1014,TDPD,2022-10-31T15:00:00Z,15.55,-61.3,30.0,25.0,130,9,,6.21,29.940945,,,,,,,,,,,SCT,1500,,,,,,,VFR,,,,,,,,,,,,METAR,13.0
TDCF 311500Z 14005KT 9999 FEW017 31/22 Q1012,TDCF,2022-10-31T15:00:00Z,15.33,-61.4,31.0,22.0,140,5,,6.21,29.88189,,,,,,,,,,,FEW,1700,,,,,,,VFR,,,,,,,,,,,,METAR,4.0
TBPB 311500Z 11016KT 9999 FEW020 31/25 Q1012 NOSIG,TBPB,2022-10-31T15:00:00Z,13.07,-59.48,31.0,25.0,110,16,,6.21,29.88189,,,,,,TRUE,,,,,FEW,2000,,,,,,,VFR,,,,,,,,,,,,METAR,55.0
TAPA 311500Z 09010KT 060V130 9999 BKN020 30/24 Q1014 NOSIG,TAPA,2022-10-31T15:00:00Z,17.13,-61.78,30.0,24.0,90,10,,6.21,29.940945,,,,,,TRUE,,,,,BKN,2000,,,,,,,MVFR,,,,,,,,,,,,METAR,15.0
SYMB 311500Z 09004KT 9999 VCSH BKN018 BKN090 28/25 Q//// NOSIG RMK VCSH ALQDS,SYMB,2022-10-31T15:00:00Z,8.2,-59.78,28.0,25.0,90,4,,6.21,,,,,,,TRUE,,,,VCSH,BKN,1800,BKN,9000,,,,,MVFR,,,,,,,,,,,,METAR,13.0
SYLT 311500Z 09012KT 9999 BKN026 30/23 Q//// NOSIG,SYLT,2022-10-31T15:00:00Z,3.37,-59.78,30.0,23.0,90,12,,6.21,,,,,,,TRUE,,,,,BKN,2600,,,,,,,MVFR,,,,,,,,,,,,METAR,88.0
SYKM 311500Z 08008KT 9999 SCT018 SCT038 BKN090 29/23 Q//// NOSIG,SYKM,2022-10-31T15:00:00Z,5.87,-60.62,29.0,23.0,80,8,,6.21,,,,,,,TRUE,,,,,SCT,1800,SCT,3800,BKN,9000,,,VFR,,,,,,,,,,,,METAR,488.0
SYEC 311500Z 07006KT 9000 -SHRA FEW015CB SCT016 BKN090 26/25 Q1012 NOSIG CB NNW-NNE,SYEC,2022-10-31T15:00:00Z,6.8,-58.1,26.0,25.0,70,6,,5.59,29.88189,,,,,,TRUE,,,,-SHRA,FEW,1500,SCT,1600,BKN,9000,,,VFR,,,,,,,,,,,,METAR,2.0
SYCJ 311500Z 06018KT 9999 FEW020CB SCT022 31/23 Q1011 NOSIG RMK CB NE,SYCJ,2022-10-31T15:00:00Z,6.5,-58.25,31.0,23.0,60,18,,6.21,29.852362,,,,,,TRUE,,,,,FEW,2000,SCT,2200,,,,,VFR,,,,,,,,,,,,SPECI,30.0
SVVG 311500Z /////KT 9999 SC030 31/23 Q1011,SVVG,2022-10-31T15:00:00Z,8.62,-71.67,31.0,23.0,,,,6.21,29.852362,,,,,,,,,,,,,,,,,,,,,,,,,,,,,,,SPECI,70.0
SULS 311500Z 20016KT 9999 BKN040 15/02 Q1025,SULS,2022-10-31T15:00:00Z,-34.87,-55.1,15.0,2.0,200,16,,6.21,30.265747,,,,,,,,,,,BKN,4000,,,,,,,VFR,,,,,,,,,,,,METAR,22.0
SUDU 311500Z 20012KT 9999 BKN023 15/05 Q1026,SUDU,2022-10-31T15:00:00Z,-33.35,-56.5,15.0,5.0,200,12,,6.21,30.295275,,,,,,,,,,,BKN,2300,,,,,,,MVFR,,,,,,,,,,,,METAR,91.0
SUAA 311500Z /////KT 9999 BKN027 14/05 Q1027,SUAA,2022-10-31T15:00:00Z,-34.78,-56.25,14.0,5.0,,,,6.21,30.324802,,,,,,,,,,,BKN,2700,,,,,,,MVFR,,,,,,,,,,,,SPECI,48.0
SPYL 311500Z 16013KT CAVOK 21/15 Q1014 RMK BIRD HAZARD RWY 17/35 PP000,SPYL,2022-10-31T15:00:00Z,-4.57,-81.25,21.0,15.0,160,13,,6.21,29.940945,,,,,,,,,,,CAVOK,,,,,,,,VFR,,,,,,,,,,,,SPECI,89.0
SPTU 311500Z 33005KT 280V020 9999 FEW012 BKN100 28/25 Q1009 RMK BIRD HAZARD RWY 01/19 PP000,SPTU,2022-10-31T15:00:00Z,-12.62,-69.22,28.0,25.0,330,5,,6.21,29.793306,,,,,,,,,,,FEW,1200,BKN,10000,,,,,VFR,,,,,,,,,,,,METAR,213.0
SPTN 311500Z 20007KT CAVOK 19/11 Q1016 RMK PP000,SPTN,2022-10-31T15:00:00Z,-18.03,-70.28,19.0,11.0,200,7,,6.21,30.0,,,,,,,,,,,CAVOK,,,,,,,,VFR,,,,,,,,,,,,SPECI,459.0
SPST 311500Z 30010KT 9999 SCT020 33/22 Q1009 RMK BIRD HAZARD RWY 17/35 PP000,SPST,2022-10-31T15:00:00Z,-6.52,-76.37,33.0,22.0,300,10,,6.21,29.793306,,,,,,,,,,,SCT,2000,,,,,,,VFR,,,,,,,,,,,,METAR,282.0
SPSO 311500Z 34005KT 290V010 8000 OVC013 17/14 Q1015 RMK BR BIRD HAZARD RWY 22/04 PP000,SPSO,2022-10-31T15:00:00Z,-13.73,-76.22,17.0,14.0,340,5,,4.97,29.970472,,,,,,,,,,,OVC,1300,,,,,,,MVFR,,,,,,,,,,,,METAR,8.0
SPRU 311500Z 17008KT 7000 BCFG OVC013 17/13 Q1016 RMK PP000,SPRU,2022-10-31T15:00:00Z,-8.08,-79.12,17.0,13.0,170,8,,4.35,30.0,,,,,,,,,,BCFG,OVC,1300,,,,,,,MVFR,,,,,,,,,,,,METAR,23.0
SPQU 311500Z 27008KT 230V290 CAVOK 17/M07 Q1026 NOSIG RMK PP000,SPQU,2022-10-31T15:00:00Z,-16.33,-71.57,17.0,-7.0,270,8,,6.21,30.295275,,,,,,TRUE,,,,,CAVOK,,,,,,,,VFR,,,,,,,,,,,,METAR,2527.0
SPQT 311500Z 03009KT 350V060 9999 SCT012 32/28 Q1010 NOSIG RMK BIRD HAZARD RWY 06/24 PP000,SPQT,2022-10-31T15:00:00Z,-3.78,-73.32,32.0,28.0,30,9,,6.21,29.822834,,,,,,TRUE,,,,,SCT,1200,,,,,,,VFR,,,,,,,,,,,,SPECI,92.0
SPPY 311500Z 34004KT CAVOK 18/08 Q1027 RMK PP000,SPPY,2022-10-31T15:00:00Z,-6.22,-77.85,18.0,8.0,340,4,,6.21,30.324802,,,,,,,,,,,CAVOK,,,,,,,,VFR,,,,,,,,,,,,METAR,2536.0
SPNC 311500Z 11005KT 9999 FEW040 26/09 Q1019 RMK PP000,SPNC,2022-10-31T15:00:00Z,-9.87,-76.2,26.0,9.0,110,5,,6.21,30.088583,,,,,,,,,,,FEW,4000,,,,,,,VFR,,,,,,,,,,,,METAR,1856.0
SPMS 311500Z 34004KT 9999 SCT020 31/25 Q1010 RMK BIRD HAZARD RWY 09/27 PP000,SPMS,2022-10-31T15:00:00Z,-5.9,-76.12,31.0,25.0,340,4,,6.21,29.822834,,,,,,,,,,,SCT,2000,,,,,,,VFR,,,,,,,,,,,,METAR,149.0
SPME 311500Z 28006KT 9999 BKN017 24/20 Q1013 RMK BIRD HAZARD RWY 32/14 TX25.9/TN19.0 PP000,SPME,2022-10-31T15:00:00Z,-3.55,-80.4,24.0,20.0,280,6,,6.21,29.911417,,,,,,,,,,,BKN,1700,,,,,,,MVFR,,,,,,,,,,,,METAR,26.0
SPLO 311500Z 17008KT 9999 FEW030 20/14 Q1015 RMK PP000,SPLO,2022-10-31T15:00:00Z,-17.7,-71.35,20.0,14.0,170,8,,6.21,29.970472,,,,,,,,,,,FEW,3000,,,,,,,VFR,,,,,,,,,,,,METAR,25.0
SPJL 311500Z VRB03KT CAVOK 16/M15 Q1034 RMK PP000,SPJL,2022-10-31T15:00:00Z,-15.47,-70.15,16.0,-15.0,0,3,,6.21,30.531496,,,,,,,,,,,CAVOK,,,,,,,,VFR,,,,,,,,,,,,METAR,3837.0
SPJI 311500Z 19007KT 9999 FEW019 BKN080 28/24 Q1019 RMK PP000,SPJI,2022-10-31T15:00:00Z,-7.17,-76.72,28.0,24.0,190,7,,6.21,30.088583,,,,,,,,,,,FEW,1900,BKN,8000,,,,,VFR,,,,,,,,,,,,METAR,363.0
SPHY 311500Z /////KT CAVOK 15/02 Q1034 RMK BIRD HAZARD RWY03/21 PP000,SPHY,2022-10-31T15:00:00Z,-13.7,-73.35,15.0,2.0,,,,6.21,30.531496,,,,,,,,,,,CAVOK,,,,,,,,VFR,,,,,,,,,,,,METAR,3553.0
SPHO 311500Z 17003KT 100V270 9999 FEW030 21/00 Q1026 RMK PP000,SPHO,2022-10-31T15:00:00Z,-13.17,-74.22,21.0,0.0,170,3,,6.21,30.295275,,,,,,,,,,,FEW,3000,,,,,,,VFR,,,,,,,,,,,,METAR,2743.0
SPHI 311500Z 17007KT 140V210 9999 OVC015 18/14 Q1016 RMK BIRD HAZARD RWY 19/01 PP000,SPHI,2022-10-31T15:00:00Z,-6.78,-79.82,18.0,14.0,170,7,,6.21,30.0,,,,,,,,,,,OVC,1500,,,,,,,MVFR,,,,,,,,,,,,METAR,33.0
SPGM 311500Z 02003KT 9999 FEW030 28/21 Q1013 RMK PP000,SPGM,2022-10-31T15:00:00Z,-9.28,-76.0,28.0,21.0,20,3,,6.21,29.911417,,,,,,,,,,,FEW,3000,,,,,,,VFR,,,,,,,,,,,,METAR,643.0
SPEO 311500Z 20008KT 9999 BKN015 18/14 Q1016 RMK PP000,SPEO,2022-10-31T15:00:00Z,-9.17,-78.52,18.0,14.0,200,8,,6.21,30.0,,,,,,,,,,,BKN,1500,,,,,,,MVFR,,,,,,,,,,,,METAR,13.0
SPCL 311500Z 35009KT 9999 BKN020 31/24 Q1010 RMK BIRD HAZARD RWY 02/20 PP000,SPCL,2022-10-31T15:00:00Z,-8.38,-74.58,31.0,24.0,350,9,,6.21,29.822834,,,,,,,,,,,BKN,2000,,,,,,,MVFR,,,,,,,,,,,,METAR,154.0
SLYA 311500Z 20010G22KT 9999 OVC070 17/02 Q1027,SLYA,2022-10-31T15:00:00Z,-21.97,-63.65,17.0,2.0,200,10,22,6.21,30.324802,,,,,,,,,,,OVC,7000,,,,,,,VFR,,,,,,,,,,,,METAR,646.0
SLVM 311500Z 18015G27KT 9999 OVC070 18/01 Q1028,SLVM,2022-10-31T15:00:00Z,-21.25,-63.4,18.0,1.0,180,15,27,6.21,30.35433,,,,,,,,,,,OVC,7000,,,,,,,VFR,,,,,,,,,,,,METAR,396.0
SLTR 311500Z 16015G25KT 1000 +TSRA BKN005 FEW020CB OVC070 17/17 Q1014,SLTR,2022-10-31T15:00:00Z,-14.83,-64.92,17.0,17.0,160,15,25,0.62,29.940945,,,,,,,,,,+TSRA,BKN,500,FEW,2000,OVC,7000,,,LIFR,,,,,,,,,,,,METAR,157.0
SLTJ 311500Z 14010KT 9999 BKN027 OVC070 08/M02 Q1028,SLTJ,2022-10-31T15:00:00Z,-21.55,-64.72,8.0,-2.0,140,10,,6.21,30.35433,,,,,,,,,,,BKN,2700,OVC,7000,,,,,MVFR,,,,,,,,,,,,METAR,1850.0
SLSV 311500Z 18020KT 9999 OVC012 16/14 Q1016,SLSV,2022-10-31T15:00:00Z,-16.4,-61.05,16.0,14.0,180,20,,6.21,30.0,,,,,,,,,,,OVC,1200,,,,,,,MVFR,,,,,,,,,,,,METAR,450.0
SLSA 311500Z 34007KT 9999 SCT017 BKN080 30/24 Q1010,SLSA,2022-10-31T15:00:00Z,-13.77,-65.43,30.0,24.0,340,7,,6.21,29.822834,,,,,,,,,,,SCT,1700,BKN,8000,,,,,VFR,,,,,,,,,,,,METAR,144.0
SLRY 311500Z 36008KT 9999 BKN012 BKN080 28/24 Q1009,SLRY,2022-10-31T15:00:00Z,-14.3,-67.37,28.0,24.0,360,8,,6.21,29.793306,,,,,,,,,,,BKN,1200,BKN,8000,,,,,MVFR,,,,,,,,,,,,METAR,187.0
SLRQ 311500Z 32004KT 9999 SCT017 BKN200 28/26 Q1007,SLRQ,2022-10-31T15:00:00Z,-14.42,-67.5,28.0,26.0,320,4,,6.21,29.734253,,,,,,,,,,,SCT,1700,BKN,20000,,,,,VFR,,,,,,,,,,,,METAR,209.0
SLRI 311500Z 03010KT 9999 SCT017 33/24 Q1011,SLRI,2022-10-31T15:00:00Z,-11.02,-66.08,33.0,24.0,30,10,,6.21,29.852362,,,,,,,,,,,SCT,1700,,,,,,,VFR,,,,,,,,,,,,METAR,136.0
SLRB 311500Z 18010KT 8000 -DZ OVC006 15/14 Q1024,SLRB,2022-10-31T15:00:00Z,-18.32,-59.75,15.0,14.0,180,10,,4.97,30.236221,,,,,,,,,,-DZ,OVC,600,,,,,,,IFR,,,,,,,,,,,,METAR,266.0
SLPS 311500Z 24010KT 6000 BKN012 19/16 Q1011,SLPS,2022-10-31T15:00:00Z,-18.98,-57.82,19.0,16.0,240,10,,3.73,29.852362,,,,,,,,,,,BKN,1200,,,,,,,MVFR,,,,,,,,,,,,METAR,136.0
SLPO 311500Z 36010KT 9999 FEW017 15/01 Q1033,SLPO,2022-10-31T15:00:00Z,-19.53,-65.72,15.0,1.0,360,10,,6.21,30.501968,,,,,,,,,,,FEW,1700,,,,,,,VFR,,,,,,,,,,,,METAR,3915.0
SLOR 311500Z 18005KT 9999 FEW020 15/M01 Q1033,SLOR,2022-10-31T15:00:00Z,-17.97,-67.08,15.0,-1.0,180,5,,6.21,30.501968,,,,,,,,,,,FEW,2000,,,,,,,VFR,,,,,,,,,,,,METAR,3720.0
SLMG 311500Z 32008KT 9999 FEW017 SCT080 31/24 Q1008,SLMG,2022-10-31T15:00:00Z,-13.27,-64.07,31.0,24.0,320,8,,6.21,29.763779,,,,,,,,,,,FEW,1700,SCT,8000,,,,,VFR,,,,,,,,,,,,METAR,146.0
SLLP 311500Z 24006KT 9999 FEW015 16/M07 Q1036,SLLP,2022-10-31T15:00:00Z,-16.52,-68.17,16.0,-7.0,240,6,,6.21,30.590551,,,,,,,,,,,FEW,1500,,,,,,,VFR,,,,,,,,,,,,METAR,4061.0
SLJE 311500Z 18015G28KT 9999 OVC012 14/11 Q1022,SLJE,2022-10-31T15:00:00Z,-17.82,-60.75,14.0,11.0,180,15,28,6.21,30.177166,,,,,,,,,,,OVC,1200,,,,,,,MVFR,,,,,,,,,,,,METAR,286.0
SLET 311500Z 16024G40KT 5000 -TSRA BKN025 FEW030CB OVC070 14/08 Q1019,SLET,2022-10-31T15:00:00Z,-17.8,-63.17,14.0,8.0,160,24,40,3.11,30.088583,,,,,,,,,,-TSRA,BKN,2500,FEW,3000,OVC,7000,,,MVFR,,,,,,,,,,,,METAR,421.0
SLCP 311500Z 18040G50KT 9999 BKN010 OVC070 14/12 Q1020,SLCP,2022-10-31T15:00:00Z,-16.15,-62.02,14.0,12.0,180,40,50,6.21,30.11811,,,,,,,,,,,BKN,1000,OVC,7000,,,,,MVFR,,,,,,,,,,,,METAR,502.0
SLCO 311500Z 34010KT 9999 BKN018 32/25 Q1010,SLCO,2022-10-31T15:00:00Z,-11.03,-68.78,32.0,25.0,340,10,,6.21,29.822834,,,,,,,,,,,BKN,1800,,,,,,,MVFR,,,,,,,,,,,,METAR,238.0
SLCB 311500Z 25004KT 9999 FEW033 26/06 Q1020,SLCB,2022-10-31T15:00:00Z,-17.42,-66.18,26.0,6.0,250,4,,6.21,30.11811,,,,,,,,,,,FEW,3300,,,,,,,VFR,,,,,,,,,,,,METAR,2560.0
SLCA 311500Z 18010KT 8000 OVC070 18/M01 Q1027,SLCA,2022-10-31T15:00:00Z,-20.0,-63.53,18.0,-1.0,180,10,,4.97,30.324802,,,,,,,,,,,OVC,7000,,,,,,,MVFR,,,,,,,,,,,,METAR,796.0
SLAL 311500Z 02015KT 9999 FEW020 FEW030CB 17/08 Q1026,SLAL,2022-10-31T15:00:00Z,-19.23,-65.15,17.0,8.0,20,15,,6.21,30.295275,,,,,,,,,,,FEW,2000,FEW,3000,,,,,VFR,,,,,,,,,,,,METAR,3109.0
SKVV 311500Z 09004KT 9999 SCT020 28/23 Q1014 RMK A2994,SKVV,2022-10-31T15:00:00Z,4.17,-73.62,28.0,23.0,90,4,,6.21,29.940945,,,,,,,,,,,SCT,2000,,,,,,,VFR,,,,,,,,,,,,METAR,421.0
SKVP 311500Z 23004KT 170V290 9999 FEW015 SCT200 29/22 Q1014 RMK A2995,SKVP,2022-10-31T15:00:00Z,10.43,-73.25,29.0,22.0,230,4,,6.21,29.940945,,,,,,,,,,,FEW,1500,SCT,20000,,,,,VFR,,,,,,,,,,,,METAR,137.0
SKUI 311500Z 15003KT 9999 BKN025 27/23 Q1011 RMK A2987,SKUI,2022-10-31T15:00:00Z,5.68,-76.63,27.0,23.0,150,3,,6.21,29.852362,,,,,,,,,,,BKN,2500,,,,,,,MVFR,,,,,,,,,,,,METAR,55.0
SKUC 311500Z 07004KT 9999 SCT020 30/24 Q1012 RMK A2990,SKUC,2022-10-31T15:00:00Z,7.07,-70.73,30.0,24.0,70,4,,6.21,29.88189,,,,,,,,,,,SCT,2000,,,,,,,VFR,,,,,,,,,,,,METAR,127.0
SKSP 311500Z VRB02KT 9999 FEW014 BKN080 28/24 Q1011 REDZ RMK A2987,SKSP,2022-10-31T15:00:00Z,12.58,-81.72,28.0,24.0,0,2,,6.21,29.852362,,,,,,,,,,,FEW,1400,BKN,8000,,,,,VFR,,,,,,,,,,,,METAR,6.0
SKSM 311500Z 20005KT 9999 FEW020 SCT200 31/21 Q1013 RMK A2992,SKSM,2022-10-31T15:00:00Z,11.12,-74.22,31.0,21.0,200,5,,6.21,29.911417,,,,,,,,,,,FEW,2000,SCT,20000,,,,,VFR,,,,,,,,,,,,METAR,5.0
SKRH 311500Z 14008KT 9999 FEW015 BKN200 31/22 Q1011 RMK A2987,SKRH,2022-10-31T15:00:00Z,11.52,-72.92,31.0,22.0,140,8,,6.21,29.852362,,,,,,,,,,,FEW,1500,BKN,20000,,,,,VFR,,,,,,,,,,,,METAR,11.0
SKRG 311500Z 12010KT 9999 SCT020 19/12 Q1026 NOSIG RMK A3029,SKRG,2022-10-31T15:00:00Z,6.17,-75.42,19.0,12.0,120,10,,6.21,30.295275,,,,,,TRUE,,,,,SCT,2000,,,,,,,VFR,,,,,,,,,,,,METAR,2132.0
SKPV 311500Z 00000KT 9999 FEW017 SCT070 BKN200 28/24 Q1012 RMK A2987,SKPV,2022-10-31T15:00:00Z,13.37,-81.35,28.0,24.0,0,0,,6.21,29.88189,,,,,,,,,,,FEW,1700,SCT,7000,BKN,20000,,,VFR,,,,,,,,,,,,METAR,7.0
SKPS 311500Z 33005KT 9999 FEW023 20/15 Q1021 RMK A3015,SKPS,2022-10-31T15:00:00Z,1.4,-77.28,20.0,15.0,330,5,,6.21,30.147638,,,,,,,,,,,FEW,2300,,,,,,,VFR,,,,,,,,,,,,METAR,1798.0
SKPE 311500Z 28004KT 9999 SCT020 24/17 Q1018 RMK A3007,SKPE,2022-10-31T15:00:00Z,4.82,-75.73,24.0,17.0,280,4,,6.21,30.059055,,,,,,,,,,,SCT,2000,,,,,,,VFR,,,,,,,,,,,,METAR,1341.0
SKPC 311500Z 07008KT 040V100 9999 SCT017 29/25 Q1011 RMK A2986,SKPC,2022-10-31T15:00:00Z,6.18,-67.5,29.0,25.0,70,8,,6.21,29.852362,,,,,,,,,,,SCT,1700,,,,,,,VFR,,,,,,,,,,,,METAR,51.0
SKNV 311500Z 04009KT 9999 SCT025 29/20 Q1013 RMK/A2994,SKNV,2022-10-31T15:00:00Z,2.93,-75.28,29.0,20.0,40,9,,6.21,29.911417,,,,,,,,,,,SCT,2500,,,,,,,VFR,,,,,,,,,,,,METAR,449.0
SKMZ 311500Z 28005KT 8000 VCFG BKN030 19/16 Q1026 RMK VCFG/W A3031,SKMZ,2022-10-31T15:00:00Z,5.03,-75.47,19.0,16.0,280,5,,4.97,30.295275,,,,,,,,,,VCFG,BKN,3000,,,,,,,MVFR,,,,,,,,,,,,METAR,2075.0
SKMR 311500Z VRB04KT 9999 SCT020 SCT200 29/23 Q1011 RMK A2987,SKMR,2022-10-31T15:00:00Z,8.82,-75.83,29.0,23.0,0,4,,6.21,29.852362,,,,,,,,,,,SCT,2000,SCT,20000,,,,,VFR,,,,,,,,,,,,METAR,12.0
SKMD 311500Z 36008KT 9999 FEW035 24/16 Q1020 RMK A3014,SKMD,2022-10-31T15:00:00Z,6.22,-75.58,24.0,16.0,360,8,,6.21,30.11811,,,,,,,,,,,FEW,3500,,,,,,,VFR,,,,,,,,,,,,METAR,1491.0
SKLT 311500Z 36004KT 9999 BKN017 32/24 Q1010 RMK A2983,SKLT,2022-10-31T15:00:00Z,-4.2,-69.93,32.0,24.0,360,4,,6.21,29.822834,,,,,,,,,,,BKN,1700,,,,,,,MVFR,,,,,,,,,,,,METAR,78.0
SKLC 311500Z 19006KT 9999 SCT020 29/24 Q1011 RMK A2988,SKLC,2022-10-31T15:00:00Z,7.82,-76.72,29.0,24.0,190,6,,6.21,29.852362,,,,,,,,,,,SCT,2000,,,,,,,VFR,,,,,,,,,,,,METAR,20.0
SKIP 311500Z 00000KT 9999 FEW020 15/10 Q1029 RMK A3040,SKIP,2022-10-31T15:00:00Z,0.85,-77.67,15.0,10.0,0,0,,6.21,30.383858,,,,,,,,,,,FEW,2000,,,,,,,VFR,,,,,,,,,,,,METAR,2964.0
SKIB 311500Z 11004KT 9999 SCT020 24/20 Q1019 RMK A3011,SKIB,2022-10-31T15:00:00Z,4.42,-75.12,24.0,20.0,110,4,,6.21,30.088583,,,,,,,,,,,SCT,2000,,,,,,,VFR,,,,,,,,,,,,METAR,899.0
SKEJ 311500Z 27003KT 9999 SCT008 28/23 Q1011 RMK A2987,SKEJ,2022-10-31T15:00:00Z,7.02,-73.8,28.0,23.0,270,3,,6.21,29.852362,,,,,,,,,,,SCT,800,,,,,,,VFR,,,,,,,,,,,,METAR,123.0
SKCL 311500Z VRB03KT 9000 SCT025 26/20 Q1016 NOSIG RMK HZ A3002,SKCL,2022-10-31T15:00:00Z,3.53,-76.37,26.0,20.0,0,3,,5.59,30.0,,,,,,TRUE,,,,,SCT,2500,,,,,,,VFR,,,,,,,,,,,,METAR,967.0
SKCG 311500Z 18009KT 130V210 9999 SCT017TCU SCT200 30/24 Q1011 RMK A2986,SKCG,2022-10-31T15:00:00Z,10.43,-75.52,30.0,24.0,180,9,,6.21,29.852362,,,,,,,,,,,SCT,1700,SCT,20000,,,,,VFR,,,,,,,,,,,,METAR,6.0
SKCC 311500Z VRB03KT 9999 FEW023 30/20 Q1013 RMK A2993,SKCC,2022-10-31T15:00:00Z,7.92,-72.52,30.0,20.0,0,3,,6.21,29.911417,,,,,,,,,,,FEW,2300,,,,,,,VFR,,,,,,,,,,,,METAR,308.0
SKBQ 311500Z VRB02KT 9999 FEW015 BKN200 29/24 Q1012 RMK A2989,SKBQ,2022-10-31T15:00:00Z,10.87,-74.77,29.0,24.0,0,2,,6.21,29.88189,,,,,,,,,,,FEW,1500,BKN,20000,,,,,VFR,,,,,,,,,,,,METAR,23.0
SKBO 311500Z 34003KT 9999 FEW020 17/10 Q1027 NOSIG RMK A3033,SKBO,2022-10-31T15:00:00Z,4.7,-74.15,17.0,10.0,340,3,,6.21,30.324802,,,,,,TRUE,,,,,FEW,2000,,,,,,,VFR,,,,,,,,,,,,METAR,2547.0
SKBG 311500Z 15003KT 9999 FEW017 24/16 Q1016 RMK A3002,SKBG,2022-10-31T15:00:00Z,7.13,-73.18,24.0,16.0,150,3,,6.21,30.0,,,,,,,,,,,FEW,1700,,,,,,,VFR,,,,,,,,,,,,METAR,1187.0
SKAR 311500Z 29003KT 9999 SCT025 24/18 R1019 RMK A3012,SKAR,2022-10-31T15:00:00Z,4.45,-75.77,24.0,18.0,290,3,,6.21,,,,,,,,,,,,SCT,2500,,,,,,,VFR,,,,,,,,,,,,METAR,1214.0
SGCO 311500Z 18010G20KT 2000 DZBR OVC005 15/13 Q1019,SGCO,2022-10-31T15:00:00Z,-23.43,-57.42,15.0,13.0,180,10,20,1.24,30.088583,,,,,,,,,,DZ BR,OVC,500,,,,,,,IFR,,,,,,,,,,,,METAR,74.0
SETU 311500Z 10003KT 9999 FEW020 15/06 Q1031,SETU,2022-10-31T15:00:00Z,0.82,-77.7,15.0,6.0,100,3,,6.21,30.442913,,,,,,,,,,,FEW,2000,,,,,,,VFR,,,,,,,,,,,,METAR,2936.0
SETN 311500Z 28005KT 9999 FEW026 28/22 Q1012 RMK A2989,SETN,2022-10-31T15:00:00Z,0.98,-79.63,28.0,22.0,280,5,,6.21,29.88189,,,,,,,,,,,FEW,2600,,,,,,,VFR,,,,,,,,,,,,METAR,10.0
SEST 311500Z 18010KT 9999 BKN020 20/18 Q1012 RMK A2989,SEST,2022-10-31T15:00:00Z,-0.9,-89.62,20.0,18.0,180,10,,6.21,29.88189,,,,,,,,,,,BKN,2000,,,,,,,MVFR,,,,,,,,,,,,METAR,13.0
SESM 311500Z 18003KT 090V250 9999 SCT026 BKN100 23/20 Q1016 RMK A3002,SESM,2022-10-31T15:00:00Z,-1.5,-78.07,23.0,20.0,180,3,,6.21,30.0,,,,,,,,,,,SCT,2600,BKN,10000,,,,,VFR,,,,,,,,,,,,METAR,1056.0
SESA 311500Z 20010KT 9999 SCT008 OVC013 21/18 Q1014 RMK A2994,SESA,2022-10-31T15:00:00Z,-2.2,-80.98,21.0,18.0,200,10,,6.21,29.940945,,,,,,,,,,,SCT,800,OVC,1300,,,,,MVFR,,,,,,,,,,,,METAR,6.0
SERO 311500Z 31003KT 9999 FEW013 OVC020 23/18 Q1013,SERO,2022-10-31T15:00:00Z,-3.43,-79.98,23.0,18.0,310,3,,6.21,29.911417,,,,,,,,,,,FEW,1300,OVC,2000,,,,,MVFR,,,,,,,,,,,,METAR,6.0
SERB 311500Z 06005KT 9999 SCT040 17/10 Q1028,SERB,2022-10-31T15:00:00Z,-1.65,-78.67,17.0,10.0,60,5,,6.21,30.35433,,,,,,,,,,,SCT,4000,,,,,,,VFR,,,,,,,,,,,,METAR,2788.0
SEQM 311500Z VRB03KT 9999 FEW030 SCT300 19/07 Q1026 NOSIG RMK A3031,SEQM,2022-10-31T15:00:00Z,-0.12,-78.35,19.0,7.0,0,3,,6.21,30.295275,,,,,,TRUE,,,,,FEW,3000,SCT,30000,,,,,VFR,,,,,,,,,,,,SPECI,2386.0
SENL 311500Z 27004KT 9999 VCSH SCT020 BKN100 26/24 Q1013 RMK A2992,SENL,2022-10-31T15:00:00Z,0.1,-76.87,26.0,24.0,270,4,,6.21,29.911417,,,,,,,,,,VCSH,SCT,2000,BKN,10000,,,,,VFR,,,,,,,,,,,,METAR,293.0
SEMT 311500Z 29006KT 9999 BKN020 24/20 Q1013 RMK A2993,SEMT,2022-10-31T15:00:00Z,-0.95,-80.67,24.0,20.0,290,6,,6.21,29.911417,,,,,,,,,,,BKN,2000,,,,,,,MVFR,,,,,,,,,,,,SPECI,13.0
SEMC 311500Z 06005KT 9999 SCT026 24/18 Q1017 RMK A3004,SEMC,2022-10-31T15:00:00Z,-2.3,-78.12,24.0,18.0,60,5,,6.21,30.029528,,,,,,,,,,,SCT,2600,,,,,,,VFR,,,,,,,,,,,,METAR,1036.0
SELT 311500Z 18003KT 9999 FEW026 14/03 Q1030,SELT,2022-10-31T15:00:00Z,-0.92,-78.62,14.0,3.0,180,3,,6.21,30.413385,,,,,,,,,,,FEW,2600,,,,,,,VFR,,,,,,,,,,,,METAR,2779.0
SEJD 311500Z 00000KT 2000 -RA SCT006 BKN023 OVC080 22/22 Q1013 RERA RMK A2994,SEJD,2022-10-31T15:00:00Z,-1.07,-77.58,22.0,22.0,0,0,,1.24,29.911417,,,,,,,,,,-RA,SCT,600,BKN,2300,OVC,8000,,,IFR,,,,,,,,,,,,METAR,376.0
SEGZ 311500Z 00000KT 9999 FEW026 26/21 Q1015,SEGZ,2022-10-31T15:00:00Z,,,26.0,21.0,0,0,,6.21,29.970472,,,,,,,,,,,FEW,2600,,,,,,,VFR,,,,,,,,,,,,METAR,
SEGU 311500Z 18005KT 080V240 9999 BKN026 26/19 Q1012 NOSIG RMK A2990,SEGU,2022-10-31T15:00:00Z,-2.15,-79.88,26.0,19.0,180,5,,6.21,29.88189,,,,,,TRUE,,,,,BKN,2600,,,,,,,MVFR,,,,,,,,,,,,SPECI,6.0
SEGS 311500Z 14013KT 9999 SCT013 BKN020 23/17 Q1014 RMK A2996,SEGS,2022-10-31T15:00:00Z,-0.45,-90.27,23.0,17.0,140,13,,6.21,29.940945,,,,,,,,,,,SCT,1300,BKN,2000,,,,,MVFR,,,,,,,,,,,,METAR,51.0
SECU 311500Z 03003KT 9999 FEW030 16/05 Q1026,SECU,2022-10-31T15:00:00Z,-2.88,-78.98,16.0,5.0,30,3,,6.21,30.295275,,,,,,,,,,,FEW,3000,,,,,,,VFR,,,,,,,,,,,,METAR,2516.0
SECO 311500Z 31003KT 9999 SCT016 BKN100 27/23 Q1012 RMK A2988,SECO,2022-10-31T15:00:00Z,-0.45,-76.98,27.0,23.0,310,3,,6.21,29.88189,,,,,,,,,,,SCT,1600,BKN,10000,,,,,VFR,,,,,,,,,,,,METAR,256.0
SECA 311500Z 28002KT 9999 FEW040 24/13 Q1018 RMK A3008,SECA,2022-10-31T15:00:00Z,-4.0,-79.37,24.0,13.0,280,2,,6.21,30.059055,,,,,,,,,,,FEW,4000,,,,,,,VFR,,,,,,,,,,,,METAR,1237.0
SCVD 311500Z 17006KT CAVOK 15/04 Q1031,SCVD,2022-10-31T15:00:00Z,-39.65,-73.08,15.0,4.0,170,6,,6.21,30.442913,,,,,,,,,,,CAVOK,,,,,,,,VFR,,,,,,,,,,,,METAR,19.0
SCTN 311500Z 20011KT CAVOK 10/07 Q1034,SCTN,2022-10-31T15:00:00Z,-42.92,-72.7,10.0,7.0,200,11,,6.21,30.531496,,,,,,,,,,,CAVOK,,,,,,,,VFR,,,,,,,,,,,,METAR,8.0
SCTE 311500Z 17013KT 140V210 9999 BKN027 11/05 Q1034 NOSIG,SCTE,2022-10-31T15:00:00Z,-41.43,-73.08,11.0,5.0,170,13,,6.21,30.531496,,,,,,TRUE,,,,,BKN,2700,,,,,,,MVFR,,,,,,,,,,,,METAR,85.0
SCTB 311500Z 20003KT CAVOK 20/M01 Q1017,SCTB,2022-10-31T15:00:00Z,-33.45,-70.53,20.0,-1.0,200,3,,6.21,30.029528,,,,,,,,,,,CAVOK,,,,,,,,VFR,,,,,,,,,,,,METAR,655.0
SCSN 311500Z 24012KT CAVOK 16/01 Q1016,SCSN,2022-10-31T15:00:00Z,-33.65,-71.62,16.0,1.0,240,12,,6.21,30.0,,,,,,,,,,,CAVOK,,,,,,,,VFR,,,,,,,,,,,,METAR,73.0
SCSE 311500Z 28010KT CAVOK 16/10 Q1016,SCSE,2022-10-31T15:00:00Z,-29.92,-71.2,16.0,10.0,280,10,,6.21,30.0,,,,,,,,,,,CAVOK,,,,,,,,VFR,,,,,,,,,,,,METAR,141.0
SCRM 311500Z 36021KT 0300 SN FZFG OVC003 M02/M02 Q0979 NOSIG,SCRM,2022-10-31T15:00:00Z,-62.18,-58.98,-2.0,-2.0,360,21,,0.19,28.90748,,,,,,TRUE,,,,SN FZFG,OVC,300,,,,,,,LIFR,,,,,,,,,,,,METAR,45.0
SCRG 311500Z 21010KT CAVOK 20/M04 Q1017,SCRG,2022-10-31T15:00:00Z,-34.17,-70.77,20.0,-4.0,210,10,,6.21,30.029528,,,,,,,,,,,CAVOK,,,,,,,,VFR,,,,,,,,,,,,METAR,488.0
SCRD 311500Z 34007KT CAVOK 18/05 Q1017,SCRD,2022-10-31T15:00:00Z,-33.07,-71.55,18.0,5.0,340,7,,6.21,30.029528,,,,,,,,,,,CAVOK,,,,,,,,VFR,,,,,,,,,,,,METAR,342.0
SCQP 311500Z 14008KT 100V170 CAVOK 15/06 Q1030,SCQP,2022-10-31T15:00:00Z,-38.92,-72.65,15.0,6.0,140,8,,6.21,30.413385,,,,,,,,,,,CAVOK,,,,,,,,VFR,,,,,,,,,,,,METAR,97.0
SCPQ 311500Z 20012KT 9999 FEW022 11/05 Q1034,SCPQ,2022-10-31T15:00:00Z,-42.33,-73.72,11.0,5.0,200,12,,6.21,30.531496,,,,,,,,,,,FEW,2200,,,,,,,VFR,,,,,,,,,,,,METAR,166.0
SCPD 311500Z 25004KT 200V320 CAVOK 19/01 Q1016,SCPD,2022-10-31T15:00:00Z,,,19.0,1.0,250,4,,6.21,30.0,,,,,,,,,,,CAVOK,,,,,,,,VFR,,,,,,,,,,,,METAR,
SCON 311500Z AUTO VRB06KT CAVOK 11/06 Q1035,SCON,2022-10-31T15:00:00Z,-43.13,-73.62,11.0,6.0,0,6,,6.21,30.561024,,,TRUE,,,,,,,,CAVOK,,,,,,,,VFR,,,,,,,,,,,,METAR,11.0
SCNT 311500Z 28032G42KT 260V320 9999 SCT050 13/01 Q1017,SCNT,2022-10-31T15:00:00Z,-51.67,-72.53,13.0,1.0,280,32,42,6.21,30.029528,,,,,,,,,,,SCT,5000,,,,,,,VFR,,,,,,,,,,,,METAR,68.0
SCMK 311500Z 15007KT CAVOK 12/04 Q1035,SCMK,2022-10-31T15:00:00Z,-43.9,-73.73,12.0,4.0,150,7,,6.21,30.561024,,,,,,,,,,,CAVOK,,,,,,,,VFR,,,,,,,,,,,,METAR,22.0
SCJO 311500Z 21010KT 170V240 9999 BKN025 12/05 Q1032,SCJO,2022-10-31T15:00:00Z,-40.6,-73.05,12.0,5.0,210,10,,6.21,30.47244,,,,,,,,,,,BKN,2500,,,,,,,MVFR,,,,,,,,,,,,METAR,61.0
SCIR 311500Z 11025G35KT 4000 HZ SCT015 12/08 Q1030,SCIR,2022-10-31T15:00:00Z,-33.67,-78.93,12.0,8.0,110,25,35,2.49,30.413385,,,,,,,,,,HZ,SCT,1500,,,,,,,IFR,,,,,,,,,,,,METAR,132.0
SCIP 311500Z 30005KT 220V340 9999 SCT020 21/16 Q1020 NOSIG,SCIP,2022-10-31T15:00:00Z,-27.17,-109.43,21.0,16.0,300,5,,6.21,30.11811,,,,,,TRUE,,,,,SCT,2000,,,,,,,VFR,,,,,,,,,,,,METAR,48.0
SCIE 311500Z 16020KT CAVOK 20/M04 Q1024,SCIE,2022-10-31T15:00:00Z,-36.77,-73.07,20.0,-4.0,160,20,,6.21,30.236221,,,,,,,,,,,CAVOK,,,,,,,,VFR,,,,,,,,,,,,METAR,8.0
SCIC 311500Z 25011KT CAVOK 23/M01 Q1016,SCIC,2022-10-31T15:00:00Z,-34.97,-71.22,23.0,-1.0,250,11,,6.21,30.0,,,,,,,,,,,CAVOK,,,,,,,,VFR,,,,,,,,,,,,METAR,230.0
SCGZ 311500Z 27015KT 9999 VCSH FEW050 SCT076 BKN100 10/M00 Q1003,SCGZ,2022-10-31T15:00:00Z,-54.93,-67.63,10.0,0.0,270,15,,6.21,29.616142,,,,,,,,,,VCSH,FEW,5000,SCT,7600,BKN,10000,,,VFR,,,,,,,,,,,,METAR,21.0
SCGE 311500Z 18014KT CAVOK 17/02 Q1027,SCGE,2022-10-31T15:00:00Z,-37.4,-72.42,17.0,2.0,180,14,,6.21,30.324802,,,,,,,,,,,CAVOK,,,,,,,,VFR,,,,,,,,,,,,METAR,122.0
SCFA 311500Z 21007KT 9999 FEW023 17/10 Q1016 NOSIG,SCFA,2022-10-31T15:00:00Z,-23.43,-70.43,17.0,10.0,210,7,,6.21,30.0,,,,,,TRUE,,,,,FEW,2300,,,,,,,VFR,,,,,,,,,,,,METAR,113.0
SCDA 311500Z 23012KT CAVOK 18/11 Q1016,SCDA,2022-10-31T15:00:00Z,-20.53,-70.17,18.0,11.0,230,12,,6.21,30.0,,,,,,,,,,,CAVOK,,,,,,,,VFR,,,,,,,,,,,,METAR,41.0
SCCY 311500Z VRB04KT CAVOK 12/M00 Q1030,SCCY,2022-10-31T15:00:00Z,-45.58,-72.1,12.0,0.0,0,4,,6.21,30.413385,,,,,,,,,,,CAVOK,,,,,,,,VFR,,,,,,,,,,,,METAR,301.0
SCCI 311500Z 30024G36KT 9999 FEW045 BKN080 09/02 Q1011 NOSIG,SCCI,2022-10-31T15:00:00Z,-53.0,-70.85,9.0,2.0,300,24,36,6.21,29.852362,,,,,,TRUE,,,,,FEW,4500,BKN,8000,,,,,VFR,,,,,,,,,,,,METAR,37.0
SCCH 311500Z 20009KT CAVOK 19/03 Q1023,SCCH,2022-10-31T15:00:00Z,-36.57,-72.02,19.0,3.0,200,9,,6.21,30.206694,,,,,,,,,,,CAVOK,,,,,,,,VFR,,,,,,,,,,,,METAR,148.0
SCCF 311500Z 25011KT 200V290 CAVOK 19/M19 Q1026,SCCF,2022-10-31T15:00:00Z,-22.5,-68.9,19.0,-19.0,250,11,,6.21,30.295275,,,,,,,,,,,CAVOK,,,,,,,,VFR,,,,,,,,,,,,METAR,2290.0
SCBA 311500Z 30024KT CAVOK 11/M01 Q1027,SCBA,2022-10-31T15:00:00Z,-45.92,-71.68,11.0,-1.0,300,24,,6.21,30.324802,,,,,,,,,,,CAVOK,,,,,,,,VFR,,,,,,,,,,,,METAR,516.0
SCAT 311500Z VRB04KT 9999 FEW018 18/10 Q1016,SCAT,2022-10-31T15:00:00Z,-27.27,-70.77,18.0,10.0,0,4,,6.21,30.0,,,,,,,,,,,FEW,1800,,,,,,,VFR,,,,,,,,,,,,METAR,209.0
SCAR 311500Z 21012KT CAVOK 19/11 Q1015,SCAR,2022-10-31T15:00:00Z,-18.35,-70.33,19.0,11.0,210,12,,6.21,29.970472,,,,,,,,,,,CAVOK,,,,,,,,VFR,,,,,,,,,,,,METAR,57.0
SCAP 311500Z AUTO 27006KT 200V360 9999 ////// 13/02 Q1036,SCAP,2022-10-31T15:00:00Z,-43.62,-71.8,13.0,2.0,270,6,,6.21,30.590551,,,TRUE,,,,,,,,,,,,,,,,,,,,,,,,,,,,METAR,252.0
SBYS 311500Z 18012KT 2000 RA BKN008 BKN017 22/21 Q1012,SBYS,2022-10-31T15:00:00Z,-21.97,-47.33,22.0,21.0,180,12,,1.24,29.88189,,,,,,,,,,RA,BKN,800,BKN,1700,,,,,IFR,,,,,,,,,,,,METAR,600.0
SBVT 311500Z 03014KT 9999 FEW045 29/22 Q1010,SBVT,2022-10-31T15:00:00Z,-20.25,-40.28,29.0,22.0,30,14,,6.21,29.822834,,,,,,,,,,,FEW,4500,,,,,,,VFR,,,,,,,,,,,,METAR,4.0
SBVH 311500Z 30008KT 9999 FEW015 BKN100 26/23 Q1015,SBVH,2022-10-31T15:00:00Z,-12.68,-60.08,26.0,23.0,300,8,,6.21,29.970472,,,,,,,,,,,FEW,1500,BKN,10000,,,,,VFR,,,,,,,,,,,,METAR,615.0
SBUY 311500Z 36005KT 9999 FEW025 SCT100 31/24 Q1009,SBUY,2022-10-31T15:00:00Z,-4.88,-65.35,31.0,24.0,360,5,,6.21,29.793306,,,,,,,,,,,FEW,2500,SCT,10000,,,,,VFR,,,,,,,,,,,,METAR,44.0
SBUR 311500Z 29014KT 9999 SCT040 FEW045TCU 30/17 Q1013 RESHRA,SBUR,2022-10-31T15:00:00Z,-19.77,-47.97,30.0,17.0,290,14,,6.21,29.911417,,,,,,,,,,,SCT,4000,FEW,4500,,,,,VFR,,,,,,,,,,,,METAR,807.0
SBUL 311500Z 01006KT 4000 -TSRA BKN026 FEW035CB SCT100 20/18 Q1015,SBUL,2022-10-31T15:00:00Z,-18.87,-48.22,20.0,18.0,10,6,,2.49,29.970472,,,,,,,,,,-TSRA,BKN,2600,FEW,3500,SCT,10000,,,IFR,,,,,,,,,,,,METAR,945.0
SBUF 311500Z 18005KT CAVOK 34/14 Q1012,SBUF,2022-10-31T15:00:00Z,-9.4,-38.25,34.0,14.0,180,5,,6.21,29.88189,,,,,,,,,,,CAVOK,,,,,,,,VFR,,,,,,,,,,,,METAR,266.0
SBUA 311500Z 06004KT 350V130 9999 SCT033 32/24 Q1010,SBUA,2022-10-31T15:00:00Z,-0.15,-66.98,32.0,24.0,60,4,,6.21,29.822834,,,,,,,,,,,SCT,3300,,,,,,,VFR,,,,,,,,,,,,METAR,73.0
SBTU 311500Z AUTO VRB07KT //// // FEW037/// 31/22 Q1012,SBTU,2022-10-31T15:00:00Z,-3.78,-49.72,31.0,22.0,0,7,,,29.88189,,,TRUE,,,,,,,,FEW,3700,,,,,,,,,,,,,,,,,,,METAR,250.0
SBTT 311500Z 09006KT 9999 SCT025 31/24 Q1011,SBTT,2022-10-31T15:00:00Z,-4.25,-69.93,31.0,24.0,90,6,,6.21,29.852362,,,,,,,,,,,SCT,2500,,,,,,,VFR,,,,,,,,,,,,METAR,79.0
SBTF 311500Z 05011KT 9999 SCT018 33/25 Q1010,SBTF,2022-10-31T15:00:00Z,-3.37,-64.72,33.0,25.0,50,11,,6.21,29.822834,,,,,,,,,,,SCT,1800,,,,,,,VFR,,,,,,,,,,,,METAR,55.0
SBTE 311500Z 06006KT CAVOK 37/18 Q1009,SBTE,2022-10-31T15:00:00Z,-5.05,-42.82,37.0,18.0,60,6,,6.21,29.793306,,,,,,,,,,,CAVOK,,,,,,,,VFR,,,,,,,,,,,,METAR,60.0
SBTA 311500Z 09003KT 010V170 9999 VCSH SCT014 25/21 Q1011,SBTA,2022-10-31T15:00:00Z,-23.03,-45.5,25.0,21.0,90,3,,6.21,29.852362,,,,,,,,,,VCSH,SCT,1400,,,,,,,VFR,,,,,,,,,,,,METAR,578.0
SBST 311500Z VRB02KT 9999 -DZ FEW023 BKN033 BKN050 27/22 Q1008,SBST,2022-10-31T15:00:00Z,-23.92,-46.3,27.0,22.0,0,2,,6.21,29.763779,,,,,,,,,,-DZ,FEW,2300,BKN,3300,BKN,5000,,,VFR,,,,,,,,,,,,METAR,5.0
SBSR 311500Z 30008KT 240V330 9999 SCT030 BKN070 28/20 Q1011,SBSR,2022-10-31T15:00:00Z,-20.8,-49.4,28.0,20.0,300,8,,6.21,29.852362,,,,,,,,,,,SCT,3000,BKN,7000,,,,,VFR,,,,,,,,,,,,METAR,537.0
SBSN 311500Z 10014KT 9999 SCT020 31/25 Q1011,SBSN,2022-10-31T15:00:00Z,-2.42,-54.78,31.0,25.0,100,14,,6.21,29.852362,,,,,,,,,,,SCT,2000,,,,,,,VFR,,,,,,,,,,,,METAR,57.0
SBSM 311500Z 18005KT 120V240 6000 -RA BKN011 OVC025 10/09 Q1022,SBSM,2022-10-31T15:00:00Z,-29.72,-53.7,10.0,9.0,180,5,,3.73,30.177166,,,,,,,,,,-RA,BKN,1100,OVC,2500,,,,,MVFR,,,,,,,,,,,,METAR,86.0
SBSC 311500Z 16010KT 9999 SCT025 BKN070 28/23 Q1008,SBSC,2022-10-31T15:00:00Z,-22.92,-43.72,28.0,23.0,160,10,,6.21,29.763779,,,,,,,,,,,SCT,2500,BKN,7000,,,,,VFR,,,,,,,,,,,,METAR,6.0
SBRJ 311500Z 17015KT 9999 FEW030 30/23 Q1007,SBRJ,2022-10-31T15:00:00Z,-22.9,-43.17,30.0,23.0,170,15,,6.21,29.734253,,,,,,,,,,,FEW,3000,,,,,,,VFR,,,,,,,,,,,,METAR,6.0
SBRB 311500Z 34009KT 9999 SCT021 33/23 Q1011,SBRB,2022-10-31T15:00:00Z,-9.87,-67.88,33.0,23.0,340,9,,6.21,29.852362,,,,,,,,,,,SCT,2100,,,,,,,VFR,,,,,,,,,,,,METAR,190.0
SBPR 311500Z 04005KT 9999 4000SE RA BKN018 OVC080 22/21 Q1017,SBPR,2022-10-31T15:00:00Z,-19.9,-43.98,22.0,21.0,40,5,,6.21,30.029528,,,,,,,,,,RA,BKN,1800,OVC,8000,,,,,MVFR,,,,,,,,,,,,METAR,936.0
SBPL 311500Z 13007KT 9999 SCT030 BKN080 33/19 Q1012,SBPL,2022-10-31T15:00:00Z,-9.37,-40.57,33.0,19.0,130,7,,6.21,29.88189,,,,,,,,,,,SCT,3000,BKN,8000,,,,,VFR,,,,,,,,,,,,METAR,386.0
SBPK 311500Z 21015G25KT 9999 BKN030 OVC050 15/06 Q1021,SBPK,2022-10-31T15:00:00Z,-31.72,-52.33,15.0,6.0,210,15,25,6.21,30.147638,,,,,,,,,,,BKN,3000,OVC,5000,,,,,MVFR,,,,,,,,,,,,METAR,17.0
SBPG 311500Z 30003KT 9999 BKN020 OVC070 20/18 Q1013,SBPG,2022-10-31T15:00:00Z,-25.18,-50.13,20.0,18.0,300,3,,6.21,29.911417,,,,,,,,,,,BKN,2000,OVC,7000,,,,,MVFR,,,,,,,,,,,,METAR,9.0
SBPF 311500Z 18010G20KT 160V220 5000 RA BKN004 OVC010 12/11 Q1015,SBPF,2022-10-31T15:00:00Z,-28.25,-52.33,12.0,11.0,180,10,20,3.11,29.970472,,,,,,,,,,RA,BKN,400,OVC,1000,,,,,LIFR,,,,,,,,,,,,METAR,720.0
SBPB 311500Z 11018KT CAVOK 33/25 Q1009,SBPB,2022-10-31T15:00:00Z,-2.88,-41.72,33.0,25.0,110,18,,6.21,29.793306,,,,,,,,,,,CAVOK,,,,,,,,VFR,,,,,,,,,,,,METAR,3.0
SBPA 311500Z 19010G20KT 150V220 3500 RA SCT008 OVC011 16/15 Q1017,SBPA,2022-10-31T15:00:00Z,-30.0,-51.17,16.0,15.0,190,10,20,2.17,30.029528,,,,,,,,,,RA,SCT,800,OVC,1100,,,,,IFR,,,,,,,,,,,,METAR,3.0
SBOI 311500Z 05005KT 9999 SCT030 31/25 Q1012,SBOI,2022-10-31T15:00:00Z,3.85,-51.78,31.0,25.0,50,5,,6.21,29.88189,,,,,,,,,,,SCT,3000,,,,,,,VFR,,,,,,,,,,,,METAR,15.0
SBNT 311500Z 13012KT 100V160 9999 FEW035 30/18 Q1011,SBNT,2022-10-31T15:00:00Z,-5.92,-35.25,30.0,18.0,130,12,,6.21,29.852362,,,,,,,,,,,FEW,3500,,,,,,,VFR,,,,,,,,,,,,METAR,51.0
SBNM 311500Z 18018KT 5000 -RA BR BKN010 OVC070 11/11 Q1018 RERA,SBNM,2022-10-31T15:00:00Z,-28.27,-54.17,11.0,11.0,180,18,,3.11,30.059055,,,,,,,,,,-RA BR,BKN,1000,OVC,7000,,,,,MVFR,,,,,,,,,,,,METAR,325.0
SBNF 311500Z 12005KT 9999 FEW020 23/20 Q1009,SBNF,2022-10-31T15:00:00Z,-26.88,-48.65,23.0,20.0,120,5,,6.21,29.793306,,,,,,,,,,,FEW,2000,,,,,,,VFR,,,,,,,,,,,,METAR,5.0
SBMT 311500Z 30005KT 9999 BKN021 21/20 Q1013,SBMT,2022-10-31T15:00:00Z,-23.52,-46.63,21.0,20.0,300,5,,6.21,29.911417,,,,,,,,,,,BKN,2100,,,,,,,MVFR,,,,,,,,,,,,METAR,722.0
SBMS 311500Z 04011KT 9999 FEW030 38/18 Q1010,SBMS,2022-10-31T15:00:00Z,-5.2,-37.37,38.0,18.0,40,11,,6.21,29.822834,,,,,,,,,,,FEW,3000,,,,,,,VFR,,,,,,,,,,,,METAR,23.0
SBMQ 311500Z 07014KT 9999 SCT020 34/24 Q1011,SBMQ,2022-10-31T15:00:00Z,0.05,-51.07,34.0,24.0,70,14,,6.21,29.852362,,,,,,,,,,,SCT,2000,,,,,,,VFR,,,,,,,,,,,,METAR,15.0
SBMK 311500Z VRB04KT 9999 FEW030 BKN100 29/18 Q1015,SBMK,2022-10-31T15:00:00Z,-16.7,-43.82,29.0,18.0,0,4,,6.21,29.970472,,,,,,,,,,,FEW,3000,BKN,10000,,,,,VFR,,,,,,,,,,,,METAR,665.0
SBMG 311500Z 13007KT 110V170 9999 -RA FEW010 SCT035 BKN090 21/19 Q1011,SBMG,2022-10-31T15:00:00Z,-23.48,-52.02,21.0,19.0,130,7,,6.21,29.852362,,,,,,,,,,-RA,FEW,1000,SCT,3500,BKN,9000,,,VFR,,,,,,,,,,,,METAR,543.0
SBME 311500Z 33008KT 260V060 9999 FEW030 40/20 Q1006,SBME,2022-10-31T15:00:00Z,-22.35,-41.77,40.0,20.0,330,8,,6.21,29.704725,,,,,,,,,,,FEW,3000,,,,,,,VFR,,,,,,,,,,,,METAR,2.0
SBMA 311500Z 34003KT 9999 BKN020 35/22 Q1010,SBMA,2022-10-31T15:00:00Z,-5.37,-49.13,35.0,22.0,340,3,,6.21,29.822834,,,,,,,,,,,BKN,2000,,,,,,,MVFR,,,,,,,,,,,,METAR,110.0
SBLS 311500Z VRB02KT 9999 BKN011 OVC090 23/21 Q1016,SBLS,2022-10-31T15:00:00Z,-19.67,-43.88,23.0,21.0,0,2,,6.21,30.0,,,,,,,,,,,BKN,1100,OVC,9000,,,,,MVFR,,,,,,,,,,,,METAR,850.0
SBLO 311500Z 18003KT 9999 SCT015 BKN100 21/19 Q1013,SBLO,2022-10-31T15:00:00Z,-23.33,-51.12,21.0,19.0,180,3,,6.21,29.911417,,,,,,,,,,,SCT,1500,BKN,10000,,,,,VFR,,,,,,,,,,,,METAR,563.0
SBLB 311500Z AUTO 02032KT 9999 NCD 25/22 Q1010 W/////,SBLB,2022-10-31T15:00:00Z,-22.1,-39.92,25.0,22.0,20,32,,6.21,29.822834,,,TRUE,,,,,,,,CLR,,,,,,,,VFR,,,,,,,,,,,,METAR,10.0
SBKP 311500Z 17006KT 130V200 7000 -RA SCT004 BKN030 OVC100 21/20 Q1012,SBKP,2022-10-31T15:00:00Z,-23.0,-47.13,21.0,20.0,170,6,,4.35,29.88189,,,,,,,,,,-RA,SCT,400,BKN,3000,OVC,10000,,,MVFR,,,,,,,,,,,,METAR,659.0
SBKG 311500Z 11011KT 9999 FEW030 31/16 Q1013,SBKG,2022-10-31T15:00:00Z,-7.27,-35.88,31.0,16.0,110,11,,6.21,29.911417,,,,,,,,,,,FEW,3000,,,,,,,VFR,,,,,,,,,,,,METAR,499.0
SBJV 311500Z 02003KT 9999 FEW020 26/21 Q1009,SBJV,2022-10-31T15:00:00Z,-26.22,-48.8,26.0,21.0,20,3,,6.21,29.793306,,,,,,,,,,,FEW,2000,,,,,,,VFR,,,,,,,,,,,,METAR,3.0
SBJU 311500Z 00000KT 9999 SCT022 33/16 Q1014,SBJU,2022-10-31T15:00:00Z,-7.22,-39.27,33.0,16.0,0,0,,6.21,29.940945,,,,,,,,,,,SCT,2200,,,,,,,VFR,,,,,,,,,,,,METAR,407.0
SBJR 311500Z 16009KT 9999 FEW025 BKN100 30/24 Q1008,SBJR,2022-10-31T15:00:00Z,-22.98,-43.37,30.0,24.0,160,9,,6.21,29.763779,,,,,,,,,,,FEW,2500,BKN,10000,,,,,VFR,,,,,,,,,,,,METAR,5.0
SBJP 311500Z 07010KT 040V100 9999 BKN030 31/21 Q1012,SBJP,2022-10-31T15:00:00Z,-7.15,-34.95,31.0,21.0,70,10,,6.21,29.88189,,,,,,,,,,,BKN,3000,,,,,,,MVFR,,,,,,,,,,,,METAR,66.0
SBJE 311500Z 03014KT 9999 SCT020 36/22 Q1009,SBJE,2022-10-31T15:00:00Z,-2.9,-40.35,36.0,22.0,30,14,,6.21,29.793306,,,,,,,,,,,SCT,2000,,,,,,,VFR,,,,,,,,,,,,METAR,25.0
SBIZ 311500Z 13002KT 9999 SCT025 35/23 Q1009,SBIZ,2022-10-31T15:00:00Z,-5.52,-47.45,35.0,23.0,130,2,,6.21,29.793306,,,,,,,,,,,SCT,2500,,,,,,,VFR,,,,,,,,,,,,METAR,131.0
SBIP 311500Z AUTO 05003KT 360V090 9999 -RA OVC009 25/21 Q1013,SBIP,2022-10-31T15:00:00Z,-19.47,-42.48,25.0,21.0,50,3,,6.21,29.911417,,,TRUE,,,,,,,-RA,OVC,900,,,,,,,IFR,,,,,,,,,,,,METAR,240.0
SBIL 311500Z 06008KT 8000 VCSH SCT019 BKN050 28/25 Q1013,SBIL,2022-10-31T15:00:00Z,-14.8,-39.02,28.0,25.0,60,8,,4.97,29.911417,,,,,,,,,,VCSH,SCT,1900,BKN,5000,,,,,MVFR,,,,,,,,,,,,METAR,9.0
SBIH 311500Z 06005KT 8000 FEW015 FEW025TCU 34/26 Q1010,SBIH,2022-10-31T15:00:00Z,-4.25,-56.0,34.0,26.0,60,5,,4.97,29.822834,,,,,,,,,,,FEW,1500,FEW,2500,,,,,MVFR,,,,,,,,,,,,METAR,30.0
SBHT 311500Z 07007KT 9999 BKN025 31/25 Q1011,SBHT,2022-10-31T15:00:00Z,-3.25,-52.27,31.0,25.0,70,7,,6.21,29.852362,,,,,,,,,,,BKN,2500,,,,,,,MVFR,,,,,,,,,,,,METAR,105.0
SBGW 311500Z 24005KT 9999 BKN035 28/20 Q1011,SBGW,2022-10-31T15:00:00Z,-22.78,-45.2,28.0,20.0,240,5,,6.21,29.852362,,,,,,,,,,,BKN,3500,,,,,,,VFR,,,,,,,,,,,,METAR,539.0
SBGR 311500Z 30003KT 9999 SCT013 OVC100 21/20 Q1013 RERA,SBGR,2022-10-31T15:00:00Z,-23.42,-46.47,21.0,20.0,300,3,,6.21,29.911417,,,,,,,,,,,SCT,1300,OVC,10000,,,,,VFR,,,,,,,,,,,,METAR,745.0
SBGO 311500Z 30006KT 280V340 9999 FEW040 FEW045TCU BKN100 28/21 Q1015,SBGO,2022-10-31T15:00:00Z,-16.62,-49.22,28.0,21.0,300,6,,6.21,29.970472,,,,,,,,,,,FEW,4000,FEW,4500,BKN,10000,,,VFR,,,,,,,,,,,,METAR,740.0
SBGM 311500Z 35011KT 9999 SCT036 33/22 Q1011,SBGM,2022-10-31T15:00:00Z,-10.78,-65.28,33.0,22.0,350,11,,6.21,29.852362,,,,,,,,,,,SCT,3600,,,,,,,VFR,,,,,,,,,,,,METAR,147.0
SBGL 311500Z 24010KT CAVOK 33/22 Q1007,SBGL,2022-10-31T15:00:00Z,-22.82,-43.25,33.0,22.0,240,10,,6.21,29.734253,,,,,,,,,,,CAVOK,,,,,,,,VFR,,,,,,,,,,,,METAR,3.0
SBFS 311500Z 04010KT CAVOK 30/26 Q1008,SBFS,2022-10-31T15:00:00Z,-22.02,-41.07,30.0,26.0,40,10,,6.21,29.763779,,,,,,,,,,,CAVOK,,,,,,,,VFR,,,,,,,,,,,,METAR,3.0
SBFN 311500Z AUTO 18007KT 140V220 9999 SCT019 30/23 Q1011,SBFN,2022-10-31T15:00:00Z,-3.85,-32.42,30.0,23.0,180,7,,6.21,29.852362,,,TRUE,,,,,,,,SCT,1900,,,,,,,VFR,,,,,,,,,,,,METAR,52.0
SBFL 311500Z 17016KT 9999 SCT035 25/18 Q1009,SBFL,2022-10-31T15:00:00Z,-27.67,-48.53,25.0,18.0,170,16,,6.21,29.793306,,,,,,,,,,,SCT,3500,,,,,,,VFR,,,,,,,,,,,,METAR,5.0
SBFI 311500Z 22013KT 9999 BKN007 OVC018 15/14 Q1015,SBFI,2022-10-31T15:00:00Z,-25.6,-54.48,15.0,14.0,220,13,,6.21,29.970472,,,,,,,,,,,BKN,700,OVC,1800,,,,,IFR,,,,,,,,,,,,METAR,233.0
SBES 311500Z 22013KT 9999 FEW025 32/21 Q1008,SBES,2022-10-31T15:00:00Z,-22.82,-42.1,32.0,21.0,220,13,,6.21,29.763779,,,,,,,,,,,FEW,2500,,,,,,,VFR,,,,,,,,,,,,METAR,16.0
SBDN 311500Z 15014KT 9999 BKN009 BKN060 23/21 Q1012,SBDN,2022-10-31T15:00:00Z,-22.18,-51.43,23.0,21.0,150,14,,6.21,29.88189,,,,,,,,,,,BKN,900,BKN,6000,,,,,IFR,,,,,,,,,,,,METAR,438.0
SBCZ 311500Z 35008KT 9999 BKN025 31/25 Q1011,SBCZ,2022-10-31T15:00:00Z,-7.58,-72.77,31.0,25.0,350,8,,6.21,29.852362,,,,,,,,,,,BKN,2500,,,,,,,MVFR,,,,,,,,,,,,METAR,193.0
SBCY 311500Z 22004KT 9999 SCT030 BKN100 28/21 Q1012,SBCY,2022-10-31T15:00:00Z,-15.65,-56.12,28.0,21.0,220,4,,6.21,29.88189,,,,,,,,,,,SCT,3000,BKN,10000,,,,,VFR,,,,,,,,,,,,METAR,182.0
SBCX 311500Z 21016KT 5000 2000SE -RA BCFG BKN002 OVC004 11/// Q1016,SBCX,2022-10-31T15:00:00Z,-29.2,-51.18,,,210,16,,3.11,30.0,,,,,,,,,,BCFG -RA,BKN,200,OVC,400,,,,,LIFR,,,,,,,,,,,,METAR,752.0
SBCT 311500Z 35003KT 9000 -RA BKN010 BKN070 19/18 Q1014,SBCT,2022-10-31T15:00:00Z,-25.52,-49.17,19.0,18.0,350,3,,5.59,29.940945,,,,,,,,,,-RA,BKN,1000,BKN,7000,,,,,MVFR,,,,,,,,,,,,METAR,914.0
SBCP 311500Z 33010KT 9999 FEW020 31/20 Q1008,SBCP,2022-10-31T15:00:00Z,-21.7,-41.3,31.0,20.0,330,10,,6.21,29.763779,,,,,,,,,,,FEW,2000,,,,,,,VFR,,,,,,,,,,,,METAR,15.0
SBCO 311500Z 19009KT 160V230 2500 RA SCT007 BKN011 OVC016 16/14 Q1017,SBCO,2022-10-31T15:00:00Z,-29.95,-51.15,16.0,14.0,190,9,,1.55,30.029528,,,,,,,,,,RA,SCT,700,BKN,1100,OVC,1600,,,IFR,,,,,,,,,,,,METAR,8.0
SBCJ 311500Z 03004KT 6000 SCT023 29/22 Q1016,SBCJ,2022-10-31T15:00:00Z,-6.12,-50.0,29.0,22.0,30,4,,3.73,30.0,,,,,,,,,,,SCT,2300,,,,,,,MVFR,,,,,,,,,,,,METAR,634.0
SBCH 311500Z 20003KT 5000 1800W -RA BR BCFG SCT005 BKN020 OVC100 19/18 Q1013,SBCH,2022-10-31T15:00:00Z,-27.13,-52.67,19.0,18.0,200,3,,3.11,29.911417,,,,,,,,,,BCFG -RA BR,SCT,500,BKN,2000,OVC,10000,,,MVFR,,,,,,,,,,,,METAR,639.0
SBCF 311500Z 01002KT 9000 BKN009 BKN040 OVC070 23/19 Q1016,SBCF,2022-10-31T15:00:00Z,-19.63,-43.97,23.0,19.0,10,2,,5.59,30.0,,,,,,,,,,,BKN,900,BKN,4000,OVC,7000,,,IFR,,,,,,,,,,,,METAR,825.0
SBCC 311500Z 31007KT 9999 FEW030 SCT100 30/21 Q1013,SBCC,2022-10-31T15:00:00Z,-9.33,-54.95,30.0,21.0,310,7,,6.21,29.911417,,,,,,,,,,,FEW,3000,SCT,10000,,,,,VFR,,,,,,,,,,,,METAR,540.0
SBCA 311500Z 26007KT 9999 SCT006 BKN012 BKN030 20/18 Q1014,SBCA,2022-10-31T15:00:00Z,-25.0,-53.5,20.0,18.0,260,7,,6.21,29.940945,,,,,,,,,,,SCT,600,BKN,1200,BKN,3000,,,MVFR,,,,,,,,,,,,METAR,753.0
SBBW 311500Z 27006KT 9999 TS VCSH SCT015 FEW020CB SCT080 BKN090 28/24 Q1014 RESHRA,SBBW,2022-10-31T15:00:00Z,-15.87,-52.38,28.0,24.0,270,6,,6.21,29.940945,,,,,,,,,,TS VCSH,SCT,1500,FEW,2000,SCT,8000,BKN,9000,VFR,,,,,,,,,,,,METAR,354.0
SBBU 311500Z 16008KT 9999 FEW008 SCT033 22/20 Q1011,SBBU,2022-10-31T15:00:00Z,-22.33,-49.07,22.0,20.0,160,8,,6.21,29.852362,,,,,,,,,,,FEW,800,SCT,3300,,,,,VFR,,,,,,,,,,,,METAR,616.0
SBBQ 311500Z 01001KT 9999 BKN022 FEW030TCU 25/19 Q1017,SBBQ,2022-10-31T15:00:00Z,-21.25,-43.77,25.0,19.0,10,1,,6.21,30.029528,,,,,,,,,,,BKN,2200,FEW,3000,,,,,MVFR,,,,,,,,,,,,METAR,1106.0
SBBI 311500Z 02003KT 330V060 4000 -RA BR FEW005 BKN012 BKN100 19/16 Q1015,SBBI,2022-10-31T15:00:00Z,-25.4,-49.23,19.0,16.0,20,3,,2.49,29.970472,,,,,,,,,,-RA BR,FEW,500,BKN,1200,BKN,10000,,,IFR,,,,,,,,,,,,METAR,928.0
SBBH 311500Z 35003KT 4000 -RA BKN010 BKN020 OVC100 23/19 Q1016,SBBH,2022-10-31T15:00:00Z,-19.85,-43.95,23.0,19.0,350,3,,2.49,30.0,,,,,,,,,,-RA,BKN,1000,BKN,2000,OVC,10000,,,IFR,,,,,,,,,,,,METAR,799.0
SBBG 311500Z 18020KT 9999 FEW030 OVC100 16/05 Q1022,SBBG,2022-10-31T15:00:00Z,-31.38,-54.12,16.0,5.0,180,20,,6.21,30.177166,,,,,,,,,,,FEW,3000,OVC,10000,,,,,VFR,,,,,,,,,,,,METAR,182.0
SBAX 311500Z 32005KT 9999 BKN020 BKN030 26/21 Q1014,SBAX,2022-10-31T15:00:00Z,-19.57,-46.97,26.0,21.0,320,5,,6.21,29.940945,,,,,,,,,,,BKN,2000,BKN,3000,,,,,MVFR,,,,,,,,,,,,METAR,989.0
SBAT 311500Z 27004KT 9999 FEW030 33/24 Q1012,SBAT,2022-10-31T15:00:00Z,-9.87,-56.1,33.0,24.0,270,4,,6.21,29.88189,,,,,,,,,,,FEW,3000,,,,,,,VFR,,,,,,,,,,,,METAR,287.0
SBAN 311500Z 30004KT 9999 FEW020 FEW025TCU BKN100 25/20 Q1018,SBAN,2022-10-31T15:00:00Z,-16.22,-48.97,25.0,20.0,300,4,,6.21,30.059055,,,,,,,,,,,FEW,2000,FEW,2500,BKN,10000,,,VFR,,,,,,,,,,,,METAR,1131.0
SBAF 311500Z 23012KT 9999 FEW025 SCT100 29/25 Q1008,SBAF,2022-10-31T15:00:00Z,-22.87,-43.38,29.0,25.0,230,12,,6.21,29.763779,,,,,,,,,,,FEW,2500,SCT,10000,,,,,VFR,,,,,,,,,,,,METAR,34.0
SAZS 311500Z 36005KT CAVOK 12/M06 Q1032 RMK PP///,SAZS,2022-10-31T15:00:00Z,-41.15,-71.17,12.0,-6.0,360,5,,6.21,30.47244,,,,,,,,,,,CAVOK,,,,,,,,VFR,,,,,,,,,,,,SPECI,843.0
SAZN 311500Z 02002KT CAVOK 18/M08 Q1033,SAZN,2022-10-31T15:00:00Z,-38.95,-68.15,18.0,-8.0,20,2,,6.21,30.501968,,,,,,,,,,,CAVOK,,,,,,,,VFR,,,,,,,,,,,,METAR,273.0
SAZM 311500Z 20013KT 170V240 9999 SCT041 SCT048 FEW060TCU 12/04 Q1028 RMK PP/// RESHRA,SAZM,2022-10-31T15:00:00Z,-37.92,-57.57,12.0,4.0,200,13,,6.21,30.35433,,,,,,,,,,,SCT,4100,SCT,4800,FEW,6000,,,VFR,,,,,,,,,,,,SPECI,17.0
SAWH 311500Z 23017KT 9999 -DZ BKN040 BKN100 10/03 Q1003 RMK PP999,SAWH,2022-10-31T15:00:00Z,-54.85,-68.3,10.0,3.0,230,17,,6.21,29.616142,,,,,,,,,,-DZ,BKN,4000,BKN,10000,,,,,VFR,,,,,,,,,,,,METAR,22.0
SAWG 311500Z 27019KT CAVOK 13/M04 Q1016,SAWG,2022-10-31T15:00:00Z,-51.62,-69.27,13.0,-4.0,270,19,,6.21,30.0,,,,,,,,,,,CAVOK,,,,,,,,VFR,,,,,,,,,,,,METAR,15.0
SAWE 311500Z 29031KT 9999 BKN043 11/01 Q1008 RMK PP000,SAWE,2022-10-31T15:00:00Z,-53.78,-67.75,11.0,1.0,290,31,,6.21,29.763779,,,,,,,,,,,BKN,4300,,,,,,,VFR,,,,,,,,,,,,SPECI,22.0
SASJ 311500Z 17013KT 140V200 9999 SCT050 BKN100 15/M05 Q1031 RMK PP000,SASJ,2022-10-31T15:00:00Z,-24.38,-65.1,15.0,-5.0,170,13,,6.21,30.442913,,,,,,,,,,,SCT,5000,BKN,10000,,,,,VFR,,,,,,,,,,,,SPECI,913.0
SASA 311500Z VRB07KT 9999 FEW050 BKN070 13/M06 Q1031 PP000,SASA,2022-10-31T15:00:00Z,-24.85,-65.48,13.0,-6.0,0,7,,6.21,30.442913,,,,,,,,,,,FEW,5000,BKN,7000,,,,,VFR,,,,,,,,,,,,SPECI,1235.0
SARP 311500Z 16016KT 9999 OVC010 13/10 Q1021,SARP,2022-10-31T15:00:00Z,-27.38,-55.97,13.0,10.0,160,16,,6.21,30.147638,,,,,,,,,,,OVC,1000,,,,,,,MVFR,,,,,,,,,,,,METAR,123.0
SARI 311500Z VRB07G17KT 5000 -DZ BR BKN005 OVC015 15/15 Q1015 RMK PP999,SARI,2022-10-31T15:00:00Z,-25.73,-54.47,15.0,15.0,0,7,17,3.11,29.970472,,,,,,,,,,-DZ BR,BKN,500,OVC,1500,,,,,IFR,,,,,,,,,,,,SPECI,268.0
SARF 311500Z 23023G32KT CAVOK 15/05 Q1023,SARF,2022-10-31T15:00:00Z,-26.22,-58.22,15.0,5.0,230,23,32,6.21,30.206694,,,,,,,,,,,CAVOK,,,,,,,,VFR,,,,,,,,,,,,METAR,65.0
SARE 311500Z 17020KT 9999 FEW025 18/05 Q1026 RMK PP///,SARE,2022-10-31T15:00:00Z,-27.43,-59.05,18.0,5.0,170,20,,6.21,30.295275,,,,,,,,,,,FEW,2500,,,,,,,VFR,,,,,,,,,,,,SPECI,52.0
SARC 311500Z 18023KT 9999 FEW018 BKN100 17/04 Q1025,SARC,2022-10-31T15:00:00Z,-27.43,-58.77,17.0,4.0,180,23,,6.21,30.265747,,,,,,,,,,,FEW,1800,BKN,10000,,,,,VFR,,,,,,,,,,,,METAR,60.0
SAOC 311500Z 20013G25KT CAVOK 14/M14 Q1034,SAOC,2022-10-31T15:00:00Z,-33.08,-64.27,14.0,-14.0,200,13,25,6.21,30.531496,,,,,,,,,,,CAVOK,,,,,,,,VFR,,,,,,,,,,,,METAR,422.0
SANT 311500Z 18009KT 160V220 9000 FEW070 OVC090 17/M04 Q1032 RMK PP000,SANT,2022-10-31T15:00:00Z,-26.85,-65.1,17.0,-4.0,180,9,,5.59,30.47244,,,,,,,,,,,FEW,7000,OVC,9000,,,,,VFR,,,,,,,,,,,,SPECI,446.0
SAME 311500Z 36008KT 9999 FEW045 14/M10 Q1035,SAME,2022-10-31T15:00:00Z,-32.82,-68.78,14.0,-10.0,360,8,,6.21,30.561024,,,,,,,,,,,FEW,4500,,,,,,,VFR,,,,,,,,,,,,METAR,709.0
SAEZ 311500Z 21010KT 180V250 CAVOK 15/M00 Q1029 NOSIG RMK PP000,SAEZ,2022-10-31T15:00:00Z,-34.82,-58.53,15.0,0.0,210,10,,6.21,30.383858,,,,,,TRUE,,,,,CAVOK,,,,,,,,VFR,,,,,,,,,,,,SPECI,16.0
SADF 311500Z 19013KT 150V250 CAVOK 15/01 Q1029 RMK PP000,SADF,2022-10-31T15:00:00Z,-34.45,-58.58,15.0,1.0,190,13,,6.21,30.383858,,,,,,,,,,,CAVOK,,,,,,,,VFR,,,,,,,,,,,,SPECI,4.0
SACO 311500Z 16014G25KT 130V190 9999 FEW045 15/M06 Q1034 NOSIG RMK PP000,SACO,2022-10-31T15:00:00Z,-31.32,-64.22,15.0,-6.0,160,14,25,6.21,30.531496,,,,,,TRUE,,,,,FEW,4500,,,,,,,VFR,,,,,,,,,,,,SPECI,474.0
SABE 311500Z 20010KT 140V280 9999 SCT045 15/01 Q1029 NOSIG RMK PP000,SABE,2022-10-31T15:00:00Z,-34.57,-58.42,15.0,1.0,200,10,,6.21,30.383858,,,,,,TRUE,,,,,SCT,4500,,,,,,,VFR,,,,,,,,,,,,SPECI,3.0
SAAR 311500Z 20019KT CAVOK 16/M00 Q1031 RMK PP000,SAAR,2022-10-31T15:00:00Z,-32.92,-60.77,16.0,0.0,200,19,,6.21,30.442913,,,,,,,,,,,CAVOK,,,,,,,,VFR,,,,,,,,,,,,SPECI,24.0
RPVP 311500Z 27004KT 9999 FEW019 BKN240 26/24 Q1008 RMK A2977,RPVP,2022-10-31T15:00:00Z,9.75,118.75,26.0,24.0,270,4,,6.21,29.763779,,,,,,,,,,,FEW,1900,BKN,24000,,,,,VFR,,,,,,,,,,,,METAR,15.0
RPVM 311500Z 00000KT 9999 FEW020 SCT300 27/24 Q1009 RMK A2980,RPVM,2022-10-31T15:00:00Z,10.32,123.98,27.0,24.0,0,0,,6.21,29.793306,,,,,,,,,,,FEW,2000,SCT,30000,,,,,VFR,,,,,,,,,,,,METAR,9.0
RPVD 311500Z 25004KT 9999 FEW015 26/22 Q1008 RMK A2977,RPVD,2022-10-31T15:00:00Z,9.33,123.3,26.0,22.0,250,4,,6.21,29.763779,,,,,,,,,,,FEW,1500,,,,,,,VFR,,,,,,,,,,,,METAR,11.0
RPMZ 311500Z 04006KT 9999 FEW017 SCT300 27/25 Q1009 RMK A2980,RPMZ,2022-10-31T15:00:00Z,6.92,122.07,27.0,25.0,40,6,,6.21,29.793306,,,,,,,,,,,FEW,1700,SCT,30000,,,,,VFR,,,,,,,,,,,,METAR,8.0
RPMD 311500Z 33003KT 300V360 9999 FEW016 SCT290 28/27 Q1009 RMK A2980,RPMD,2022-10-31T15:00:00Z,7.12,125.65,28.0,27.0,330,3,,6.21,29.793306,,,,,,,,,,,FEW,1600,SCT,29000,,,,,VFR,,,,,,,,,,,,METAR,19.0
RPLL 311500Z 15005KT 110V190 9999 FEW023 BKN100 25/23 Q1006 NOSIG RMK A2971,RPLL,2022-10-31T15:00:00Z,14.52,121.0,25.0,23.0,150,5,,6.21,29.704725,,,,,,TRUE,,,,,FEW,2300,BKN,10000,,,,,VFR,,,,,,,,,,,,METAR,15.0
RPLI 311500Z VRB02KT 9999 FEW018 BKN100 26/25 Q1003 NOSIG RMK A2962,RPLI,2022-10-31T15:00:00Z,18.17,120.52,26.0,25.0,0,2,,6.21,29.616142,,,,,,TRUE,,,,,FEW,1800,BKN,10000,,,,,VFR,,,,,,,,,,,,METAR,5.0
RPLC 311500Z 18012KT 4000 -RA SCT015 OVC090 25/25 Q1006 RMK A2971,RPLC,2022-10-31T15:00:00Z,15.18,120.55,25.0,25.0,180,12,,2.49,29.704725,,,,,,,,,,-RA,SCT,1500,OVC,9000,,,,,IFR,,,,,,,,,,,,METAR,138.0
RPLB 311500Z 16013KT 9999 SCT018 BKN080 27/25 Q1006 RERA RMK A2971,RPLB,2022-10-31T15:00:00Z,14.8,120.27,27.0,25.0,160,13,,6.21,29.704725,,,,,,,,,,,SCT,1800,BKN,8000,,,,,VFR,,,,,,,,,,,,METAR,19.0
ROYN 311500Z AUTO 04031KT 1600 UP NCD 23/// Q1010,ROYN,2022-10-31T15:00:00Z,24.47,122.97,,,40,31,,0.99,29.822834,,,TRUE,,,,,,,UP,CLR,,,,,,,,LIFR,,,,,,,,,,,,METAR,21.0
RORY 311500Z AUTO 05017G28KT 9999 -RA FEW017 SCT080 BKN090 23/21 Q1011,RORY,2022-10-31T15:00:00Z,27.05,128.4,23.0,21.0,50,17,28,6.21,29.852362,,,TRUE,,,,,,,-RA,FEW,1700,SCT,8000,BKN,9000,,,VFR,,,,,,,,,,,,METAR,13.0
RORK 311500Z AUTO 08009KT 9999 FEW029 SCT100 BKN150 25/23 Q1011,RORK,2022-10-31T15:00:00Z,25.93,131.32,25.0,23.0,80,9,,6.21,29.852362,,,TRUE,,,,,,,,FEW,2900,SCT,10000,BKN,15000,,,VFR,,,,,,,,,,,,METAR,11.0
ROMD 311500Z AUTO 06005KT 030V110 9999 FEW027 SCT100 BKN140 24/23 Q1011,ROMD,2022-10-31T15:00:00Z,25.83,131.25,24.0,23.0,60,5,,6.21,29.852362,,,TRUE,,,,,,,,FEW,2700,SCT,10000,BKN,14000,,,VFR,,,,,,,,,,,,METAR,45.0
ROIG 311500Z AUTO 05026KT 0600 R04/1300V1800D +RA FG SCT002 BKN007 BKN011 24/24 Q1008,ROIG,2022-10-31T15:00:00Z,24.38,124.23,24.0,24.0,50,26,,0.37,29.763779,,,TRUE,,,,,,,+RA FG,SCT,200,BKN,700,BKN,1100,,,LIFR,,,,,,,,,,,,METAR,37.0
RKTU 311500Z 10001KT CAVOK 08/06 Q1024,RKTU,2022-10-31T15:00:00Z,36.7,127.5,8.0,6.0,100,1,,6.21,30.236221,,,,,,,,,,,CAVOK,,,,,,,,VFR,,,,,,,,,,,,METAR,46.0
RKTN 311500Z 08001KT CAVOK 10/07 Q1024,RKTN,2022-10-31T15:00:00Z,35.88,128.65,10.0,7.0,80,1,,6.21,30.236221,,,,,,,,,,,CAVOK,,,,,,,,VFR,,,,,,,,,,,,METAR,25.0
RKSS 311500Z 31003KT 2000 0600NW PRFG NSC 09/09 Q1023 NOSIG,RKSS,2022-10-31T15:00:00Z,37.55,126.78,9.0,9.0,310,3,,1.24,30.206694,,,,,,TRUE,,,,PRFG,CLR,,,,,,,,IFR,,,,,,,,,,,,METAR,18.0
RKSM 311500Z 18001KT 6000 BR FEW110 11/09 A3024,RKSM,2022-10-31T15:00:00Z,37.43,127.12,11.0,9.0,180,1,,3.73,30.239174,,,,,,,,,,BR,FEW,11000,,,,,,,MVFR,,,,,,,,,,,,METAR,18.0
RKPK 311500Z 03003KT CAVOK 13/08 Q1023,RKPK,2022-10-31T15:00:00Z,35.17,128.93,13.0,8.0,30,3,,6.21,30.206694,,,,,,,,,,,CAVOK,,,,,,,,VFR,,,,,,,,,,,,METAR,3.0
RKPC 311500Z 12005KT 9999 FEW030 15/11 Q1022 NOSIG,RKPC,2022-10-31T15:00:00Z,33.5,126.48,15.0,11.0,120,5,,6.21,30.177166,,,,,,TRUE,,,,,FEW,3000,,,,,,,VFR,,,,,,,,,,,,METAR,23.0
RKNY 311500Z AUTO 25004KT 9999 NCD 11/08 Q1022,RKNY,2022-10-31T15:00:00Z,38.07,128.67,11.0,8.0,250,4,,6.21,30.177166,,,TRUE,,,,,,,,CLR,,,,,,,,VFR,,,,,,,,,,,,METAR,76.0
RJSM 311500Z 23003KT 9999 FEW020 09/07 Q1027,RJSM,2022-10-31T15:00:00Z,40.7,141.37,9.0,7.0,230,3,,6.21,30.324802,,,,,,,,,,,FEW,2000,,,,,,,VFR,,,,,,,,,,,,METAR,31.0
RJOS 311500Z 28006KT 9999 FEW015 SCT030 BKN050 15/11 Q1020,RJOS,2022-10-31T15:00:00Z,34.12,134.62,15.0,11.0,280,6,,6.21,30.11811,,,,,,,,,,,FEW,1500,SCT,3000,BKN,5000,,,VFR,,,,,,,,,,,,METAR,3.0
RJOO 311500Z AUTO 06011KT 9999 FEW046 OVC060 18/12 Q1021 RMK A3016,RJOO,2022-10-31T15:00:00Z,34.78,135.43,18.0,12.0,60,11,,6.21,30.147638,,,TRUE,,,,,,,,FEW,4600,OVC,6000,,,,,VFR,,,,,,,,,,,,METAR,11.0
RJOH 311500Z 17003KT 9999 FEW050 BKN/// 11/10 Q1021,RJOH,2022-10-31T15:00:00Z,35.48,133.25,11.0,10.0,170,3,,6.21,30.147638,,,,,,,,,,,FEW,5000,,,,,,,VFR,,,,,,,,,,,,METAR,6.0
RJNK 311500Z 09002KT 9999 BKN050 SCT080 13/10 Q1022,RJNK,2022-10-31T15:00:00Z,36.38,136.42,13.0,10.0,90,2,,6.21,30.177166,,,,,,,,,,,BKN,5000,SCT,8000,,,,,VFR,,,,,,,,,,,,METAR,7.0
RJKI 311500Z AUTO 07010KT 9999 -RA FEW012 SCT080 BKN110 //////TCU 23/21 Q1013,RJKI,2022-10-31T15:00:00Z,28.32,129.92,23.0,21.0,70,10,,6.21,29.911417,,,TRUE,,,,,,,-RA,FEW,1200,SCT,8000,BKN,11000,,,VFR,,,,,,,,,,,,SPECI,6.0
RJKA 311500Z AUTO 06015KT 7000 -RA FEW012 SCT014 BKN100 //////TCU 24/22 Q1013,RJKA,2022-10-31T15:00:00Z,28.42,129.72,24.0,22.0,60,15,,4.35,29.911417,,,TRUE,,,,,,,-RA,FEW,1200,SCT,1400,BKN,10000,,,MVFR,,,,,,,,,,,,SPECI,7.0
RJFR 311500Z 33004KT 9999 FEW030 BKN/// 16/12 Q1020,RJFR,2022-10-31T15:00:00Z,33.83,131.03,16.0,12.0,330,4,,6.21,30.11811,,,,,,,,,,,FEW,3000,,,,,,,VFR,,,,,,,,,,,,METAR,9.0
RJDB 311500Z AUTO 06009KT 020V110 9999 FEW034 SCT240 18/12 Q1020,RJDB,2022-10-31T15:00:00Z,33.75,129.78,18.0,12.0,60,9,,6.21,30.11811,,,TRUE,,,,,,,,FEW,3400,SCT,24000,,,,,VFR,,,,,,,,,,,,METAR,13.0
RJAW 311500Z 12012KT 9999 SCT015 SCT/// 25/23 Q1013 RMK 3CU015 A2992 WIND BY EQPT/25,RJAW,2022-10-31T15:00:00Z,24.78,141.32,25.0,23.0,120,12,,6.21,29.911417,,,,,,,,,,,SCT,1500,,,,,,,VFR,,,,,,,,,,,,SPECI,116.0
RJAH 311500Z 36004KT 9999 FEW030 07/07 Q1025,RJAH,2022-10-31T15:00:00Z,36.17,140.42,7.0,7.0,360,4,,6.21,30.265747,,,,,,,,,,,FEW,3000,,,,,,,VFR,,,,,,,,,,,,METAR,31.0
PLCH 311500Z 10005KT 9999 FEW020 SCT040 26/23 Q1008,PLCH,2022-10-31T15:00:00Z,1.98,-157.35,26.0,23.0,100,5,,6.21,29.763779,,,,,,,,,,,FEW,2000,SCT,4000,,,,,VFR,,,,,,,,,,,,METAR,5.0
OTHH 311500Z 13009KT CAVOK 31/20 Q1014 NOSIG,OTHH,2022-10-31T15:00:00Z,25.27,51.6,31.0,20.0,130,9,,6.21,29.940945,,,,,,TRUE,,,,,CAVOK,,,,,,,,VFR,,,,,,,,,,,,METAR,3.0
ORBI 311500Z 28005KT 230V290 9999 SCT030 30/09 Q1009 NOSIG,ORBI,2022-10-31T15:00:00Z,33.27,44.23,30.0,9.0,280,5,,6.21,29.793306,,,,,,TRUE,,,,,SCT,3000,,,,,,,VFR,,,,,,,,,,,,METAR,37.0
OPSK 311500Z 00000KT 4000 HZ NSC 27/21 Q1009 NOSIG,OPSK,2022-10-31T15:00:00Z,27.72,68.8,27.0,21.0,0,0,,2.49,29.793306,,,,,,TRUE,,,,HZ,CLR,,,,,,,,IFR,,,,,,,,,,,,METAR,62.0
OPIS 311500Z 00000KT 5000 FU FEW040 SCT100 19/15 Q1015 NOSIG,OPIS,2022-10-31T15:00:00Z,33.55,72.83,19.0,15.0,0,0,,3.11,29.970472,,,,,,TRUE,,,,FU,FEW,4000,SCT,10000,,,,,MVFR,,,,,,,,,,,,METAR,542.0
OPFA 311500Z 00000KT 4000 FU NSC 25/17 Q1012 NOSIG,OPFA,2022-10-31T15:00:00Z,31.37,73.0,25.0,17.0,0,0,,2.49,29.88189,,,,,,TRUE,,,,FU,CLR,,,,,,,,IFR,,,,,,,,,,,,METAR,180.0
OMSJ 311500Z 34005KT 7000 NSC 28/21 Q1014 NOSIG,OMSJ,2022-10-31T15:00:00Z,25.32,55.52,28.0,21.0,340,5,,4.35,29.940945,,,,,,TRUE,,,,,CLR,,,,,,,,MVFR,,,,,,,,,,,,METAR,33.0
OMRK 311500Z 32004KT 6000 NSC 27/23 Q1014 A2996,OMRK,2022-10-31T15:00:00Z,25.62,55.93,27.0,23.0,320,4,,3.73,29.940945,,,,,,,,,,,CLR,,,,,,,,MVFR,,,,,,,,,,,,METAR,18.0
OMFJ 311500Z 11002KT 6000 NSC 29/23 Q1014 A2995,OMFJ,2022-10-31T15:00:00Z,25.1,56.32,29.0,23.0,110,2,,3.73,29.940945,,,,,,,,,,,CLR,,,,,,,,MVFR,,,,,,,,,,,,METAR,27.0
OMDW 311500Z 33008KT 7000 NSC 28/21 Q1015 NOSIG,OMDW,2022-10-31T15:00:00Z,24.9,55.17,28.0,21.0,330,8,,4.35,29.970472,,,,,,TRUE,,,,,CLR,,,,,,,,MVFR,,,,,,,,,,,,METAR,34.0
OMDB 311500Z 34007KT 8000 NSC 30/22 Q1014 NOSIG,OMDB,2022-10-31T15:00:00Z,25.25,55.37,30.0,22.0,340,7,,4.97,29.940945,,,,,,TRUE,,,,,CLR,,,,,,,,MVFR,,,,,,,,,,,,METAR,5.0
OMAL 311500Z 33013KT 8000 NSC 31/18 Q1015 NOSIG,OMAL,2022-10-31T15:00:00Z,24.25,55.6,31.0,18.0,330,13,,4.97,29.970472,,,,,,TRUE,,,,,CLR,,,,,,,,MVFR,,,,,,,,,,,,METAR,247.0
OMAD 311500Z 35006KT CAVOK 30/22 Q1014 NOSIG,OMAD,2022-10-31T15:00:00Z,24.42,54.47,30.0,22.0,350,6,,6.21,29.940945,,,,,,TRUE,,,,,CAVOK,,,,,,,,VFR,,,,,,,,,,,,METAR,9.0
OMAA 311500Z 33009KT 8000 NSC 29/22 Q1013 NOSIG,OMAA,2022-10-31T15:00:00Z,24.42,54.65,29.0,22.0,330,9,,4.97,29.911417,,,,,,TRUE,,,,,CLR,,,,,,,,MVFR,,,,,,,,,,,,METAR,13.0
OJAI 311500Z 28009KT 5000 HZ SCT030 20/11 Q1017 NOSIG,OJAI,2022-10-31T15:00:00Z,31.72,36.0,20.0,11.0,280,9,,3.11,30.029528,,,,,,TRUE,,,,HZ,SCT,3000,,,,,,,MVFR,,,,,,,,,,,,METAR,723.0
OIZJ 311500Z 27006KT 6000 NSC 27/24 Q1012,OIZJ,2022-10-31T15:00:00Z,25.65,57.8,27.0,24.0,270,6,,3.73,29.88189,,,,,,,,,,,CLR,,,,,,,,MVFR,,,,,,,,,,,,METAR,6.0
OIZI 311500Z 28004KT CAVOK 30/07 Q1016,OIZI,2022-10-31T15:00:00Z,27.23,60.72,30.0,7.0,280,4,,6.21,30.0,,,,,,,,,,,CAVOK,,,,,,,,VFR,,,,,,,,,,,,METAR,622.0
OIZH 311500Z 00000KT CAVOK 21/01 Q1021 A3018 NOSIG,OIZH,2022-10-31T15:00:00Z,29.47,60.92,21.0,1.0,0,0,,6.21,30.147638,,,,,,TRUE,,,,,CAVOK,,,,,,,,VFR,,,,,,,,,,,,METAR,1378.0
OIZB 311500Z 26004KT CAVOK 22/05 Q1017,OIZB,2022-10-31T15:00:00Z,31.1,61.55,22.0,5.0,260,4,,6.21,30.029528,,,,,,,,,,,CAVOK,,,,,,,,VFR,,,,,,,,,,,,METAR,483.0
OITZ 311500Z 24016KT 7000 -RA FEW020 SCT035CB BKN080 11/07 Q1018 A3007,OITZ,2022-10-31T15:00:00Z,36.77,48.37,11.0,7.0,240,16,,4.35,30.059055,,,,,,,,,,-RA,FEW,2000,SCT,3500,BKN,8000,,,MVFR,,,,,,,,,,,,METAR,1630.0
OITR 311500Z 31002KT 9999 FEW035CB FEW040 08/02 Q1015,OITR,2022-10-31T15:00:00Z,37.67,45.07,8.0,2.0,310,2,,6.21,29.970472,,,,,,,,,,,FEW,3500,FEW,4000,,,,,VFR,,,,,,,,,,,,METAR,1312.0
OITP 311500Z 21004KT CAVOK 14/09 Q1009,OITP,2022-10-31T15:00:00Z,39.6,47.88,14.0,9.0,210,4,,6.21,29.793306,,,,,,,,,,,CAVOK,,,,,,,,VFR,,,,,,,,,,,,METAR,72.0
OITM 311500Z 16010KT 8000 FEW040 13/08 Q1016,OITM,2022-10-31T15:00:00Z,37.35,46.15,13.0,8.0,160,10,,4.97,30.0,,,,,,,,,,,FEW,4000,,,,,,,MVFR,,,,,,,,,,,,METAR,1340.0
OITL 311500Z 22019KT 9999 FEW030 SCT080 14/06 Q1014 NOSIG,OITL,2022-10-31T15:00:00Z,38.33,48.42,14.0,6.0,220,19,,6.21,29.940945,,,,,,TRUE,,,,,FEW,3000,SCT,8000,,,,,VFR,,,,,,,,,,,,METAR,1314.0
OISY 311500Z 14008KT 9999 FEW100 18/06 Q1024,OISY,2022-10-31T15:00:00Z,30.7,51.55,18.0,6.0,140,8,,6.21,30.236221,,,,,,,,,,,FEW,10000,,,,,,,VFR,,,,,,,,,,,,METAR,1800.0
OISR 311500Z 29006KT 2000 HZ NSC 27/21 Q1015 A3000 NOSIG,OISR,2022-10-31T15:00:00Z,27.37,53.2,27.0,21.0,290,6,,1.24,29.970472,,,,,,TRUE,,,,HZ,CLR,,,,,,,,IFR,,,,,,,,,,,,METAR,402.0
OISL 311500Z 28006KT CAVOK 27/04 Q1016 A3001 NOSIG,OISL,2022-10-31T15:00:00Z,27.67,54.37,27.0,4.0,280,6,,6.21,30.0,,,,,,TRUE,,,,,CAVOK,,,,,,,,VFR,,,,,,,,,,,,METAR,804.0
OISF 311500Z 23006KT CAVOK 22/M02 Q1021 A3015,OISF,2022-10-31T15:00:00Z,28.9,53.72,22.0,-2.0,230,6,,6.21,30.147638,,,,,,,,,,,CAVOK,,,,,,,,VFR,,,,,,,,,,,,METAR,1305.0
OINZ 311500Z 12004KT CAVOK 17/15 Q1011,OINZ,2022-10-31T15:00:00Z,36.63,53.2,17.0,15.0,120,4,,6.21,29.852362,,,,,,,,,,,CAVOK,,,,,,,,VFR,,,,,,,,,,,,METAR,8.0
OINR 311500Z 31004KT 9999 SCT040CB BKN160 18/15 Q1009,OINR,2022-10-31T15:00:00Z,36.9,50.67,18.0,15.0,310,4,,6.21,29.793306,,,,,,,,,,,SCT,4000,BKN,16000,,,,,VFR,,,,,,,,,,,,METAR,-19.0
OINN 311500Z 02004KT 9999 FEW020CB SCT027 BKN180 18/16 Q1010,OINN,2022-10-31T15:00:00Z,36.67,51.47,18.0,16.0,20,4,,6.21,29.822834,,,,,,,,,,,FEW,2000,SCT,2700,BKN,18000,,,VFR,,,,,,,,,,,,METAR,-25.0
OING 311500Z 00000KT CAVOK 18/16 Q1012 NOSIG,OING,2022-10-31T15:00:00Z,36.9,54.4,18.0,16.0,0,0,,6.21,29.88189,,,,,,TRUE,,,,,CAVOK,,,,,,,,VFR,,,,,,,,,,,,METAR,0.0
OINE 311500Z 09004KT CAVOK 20/11 Q1010,OINE,2022-10-31T15:00:00Z,37.38,55.45,20.0,11.0,90,4,,6.21,29.822834,,,,,,,,,,,CAVOK,,,,,,,,VFR,,,,,,,,,,,,METAR,125.0
OIMT 311500Z AUTO 09004KT //// // ////// 23/02 Q1015,OIMT,2022-10-31T15:00:00Z,33.67,56.88,23.0,2.0,90,4,,,29.970472,,,TRUE,,,,,,,,,,,,,,,,,,,,,,,,,,,,METAR,693.0
OIMS 311500Z 00000KT CAVOK 18/04 Q1018,OIMS,2022-10-31T15:00:00Z,36.17,57.6,18.0,4.0,0,0,,6.21,30.059055,,,,,,,,,,,CAVOK,,,,,,,,VFR,,,,,,,,,,,,METAR,920.0
OIMN 311500Z 00000KT CAVOK 15/03 Q1016,OIMN,2022-10-31T15:00:00Z,37.48,57.3,15.0,3.0,0,0,,6.21,30.0,,,,,,,,,,,CAVOK,,,,,,,,VFR,,,,,,,,,,,,METAR,1065.0
OIMJ 311500Z 18004KT CAVOK 15/01 Q1017,OIMJ,2022-10-31T15:00:00Z,36.43,55.1,15.0,1.0,180,4,,6.21,30.029528,,,,,,,,,,,CAVOK,,,,,,,,VFR,,,,,,,,,,,,METAR,1285.0
OIMB 311500Z 29006KT CAVOK 19/M02 Q1021 A3015,OIMB,2022-10-31T15:00:00Z,32.9,59.28,19.0,-2.0,290,6,,6.21,30.147638,,,,,,,,,,,CAVOK,,,,,,,,VFR,,,,,,,,,,,,METAR,1512.0
OIKQ 311500Z 24006KT 6000 NSC 28/23 Q1013 NOSIG,OIKQ,2022-10-31T15:00:00Z,26.75,55.9,28.0,23.0,240,6,,3.73,29.911417,,,,,,TRUE,,,,,CLR,,,,,,,,MVFR,,,,,,,,,,,,METAR,9.0
OIKK 311500Z 02004KT 9999 FEW040 21/M00 Q1022 A3020,OIKK,2022-10-31T15:00:00Z,30.25,56.97,21.0,0.0,20,4,,6.21,30.177166,,,,,,,,,,,FEW,4000,,,,,,,VFR,,,,,,,,,,,,METAR,1749.0
OIIP 311500Z 35008KT 9999 FEW030CB SCT035 BKN100 16/06 Q1016 A3002,OIIP,2022-10-31T15:00:00Z,35.78,50.83,16.0,6.0,350,8,,6.21,30.0,,,,,,,,,,,FEW,3000,SCT,3500,BKN,10000,,,VFR,,,,,,,,,,,,METAR,1270.0
OIIK 311500Z 11004KT 9999 FEW030CB SCT035 OVC090 14/10 Q1019,OIIK,2022-10-31T15:00:00Z,36.25,50.05,14.0,10.0,110,4,,6.21,30.088583,,,,,,,,,,,FEW,3000,SCT,3500,OVC,9000,,,VFR,,,,,,,,,,,,METAR,1278.0
OIHM 311500Z AUTO 20004KT //// // ////// 18/M02 Q1021,OIHM,2022-10-31T15:00:00Z,34.28,48.82,18.0,-2.0,200,4,,,30.147638,,,TRUE,,,,,,,,,,,,,,,,,,,,,,,,,,,,METAR,1744.0
OIHH 311500Z 03008KT 9999 FEW035CB SCT040 14/04 Q1020 A3014,OIHH,2022-10-31T15:00:00Z,34.87,48.55,14.0,4.0,30,8,,6.21,30.11811,,,,,,,,,,,FEW,3500,SCT,4000,,,,,VFR,,,,,,,,,,,,METAR,1742.0
OIFS 311500Z 08004KT 9999 FEW040 15/M04 Q1024,OIFS,2022-10-31T15:00:00Z,32.28,50.85,15.0,-4.0,80,4,,6.21,30.236221,,,,,,,,,,,FEW,4000,,,,,,,VFR,,,,,,,,,,,,METAR,2042.0
OICS 311500Z 00000KT 9999 FEW035CB SCT040 BKN090 15/07 Q1019 A3011 RESHRA,OICS,2022-10-31T15:00:00Z,35.25,47.02,15.0,7.0,0,0,,6.21,30.088583,,,,,,,,,,,FEW,3500,SCT,4000,BKN,9000,,,VFR,,,,,,,,,,,,METAR,1369.0
OICK 311500Z 21006KT 9999 FEW040CB SCT045 BKN090 24/02 Q1018,OICK,2022-10-31T15:00:00Z,33.43,48.28,24.0,2.0,210,6,,6.21,30.059055,,,,,,,,,,,FEW,4000,SCT,4500,BKN,9000,,,VFR,,,,,,,,,,,,METAR,1156.0
OICI 311500Z 13008KT 9999 BKN045 SCT090 22/02 Q1019 A3010,OICI,2022-10-31T15:00:00Z,33.58,46.4,22.0,2.0,130,8,,6.21,30.088583,,,,,,,,,,,BKN,4500,SCT,9000,,,,,VFR,,,,,,,,,,,,METAR,1323.0
OIBV 311500Z 00000KT 1500 HZ NSC 28/23 Q1013,OIBV,2022-10-31T15:00:00Z,26.82,53.35,28.0,23.0,0,0,,0.93,29.911417,,,,,,,,,,HZ,CLR,,,,,,,,LIFR,,,,,,,,,,,,METAR,23.0
OIBS 311500Z 29004KT 1200 HZ NSC 29/22 Q1014,OIBS,2022-10-31T15:00:00Z,25.9,54.55,29.0,22.0,290,4,,0.75,29.940945,,,,,,,,,,HZ,CLR,,,,,,,,LIFR,,,,,,,,,,,,METAR,4.0
OIBQ 311500Z 00000KT 4000 HZ NSC 29/22 Q1013 A2992,OIBQ,2022-10-31T15:00:00Z,29.27,50.32,29.0,22.0,0,0,,2.49,29.911417,,,,,,,,,,HZ,CLR,,,,,,,,IFR,,,,,,,,,,,,METAR,3.0
OIBP 311500Z 00000KT 3000 BR NSC 28/25 Q1013 A2992,OIBP,2022-10-31T15:00:00Z,27.38,52.73,28.0,25.0,0,0,,1.86,29.911417,,,,,,,,,,BR,CLR,,,,,,,,IFR,,,,,,,,,,,,METAR,13.0
OIBL 311500Z 26004KT 3000 HZ NSC 28/22 Q1013,OIBL,2022-10-31T15:00:00Z,26.53,54.82,28.0,22.0,260,4,,1.86,29.911417,,,,,,,,,,HZ,CLR,,,,,,,,IFR,,,,,,,,,,,,METAR,25.0
OIBK 311500Z 28006KT 3000 HZ NSC 28/21 Q1013 NOSIG,OIBK,2022-10-31T15:00:00Z,26.53,53.98,28.0,21.0,280,6,,1.86,29.911417,,,,,,TRUE,,,,HZ,CLR,,,,,,,,IFR,,,,,,,,,,,,METAR,27.0
OIBJ 311500Z AUTO 22004KT //// // ////// 24/20 Q1018,OIBJ,2022-10-31T15:00:00Z,27.82,52.35,24.0,20.0,220,4,,,30.059055,,,TRUE,,,,,,,,,,,,,,,,,,,,,,,,,,,,METAR,647.0
OIBH 311500Z 21006KT 4000 HZ FEW035 28/24 Q1012 A2990,OIBH,2022-10-31T15:00:00Z,27.2,54.32,28.0,24.0,210,6,,2.49,29.88189,,,,,,,,,,HZ,FEW,3500,,,,,,,IFR,,,,,,,,,,,,METAR,412.0
OIBB 311500Z 17006KT 7000 NSC 28/20 Q1013 A2992 NOSIG,OIBB,2022-10-31T15:00:00Z,28.93,50.83,28.0,20.0,170,6,,4.35,29.911417,,,,,,TRUE,,,,,CLR,,,,,,,,MVFR,,,,,,,,,,,,METAR,15.0
OIBA 311500Z 30006KT 4000 HZ NSC 29/22 Q1012,OIBA,2022-10-31T15:00:00Z,25.88,55.03,29.0,22.0,300,6,,2.49,29.88189,,,,,,,,,,HZ,CLR,,,,,,,,IFR,,,,,,,,,,,,METAR,7.0
OIAM 311500Z 16010KT 9999 FEW040 29/22 Q1012,OIAM,2022-10-31T15:00:00Z,30.55,49.15,29.0,22.0,160,10,,6.21,29.88189,,,,,,,,,,,FEW,4000,,,,,,,VFR,,,,,,,,,,,,METAR,7.0
OIAH 311500Z 28006KT 7000 SCT040 26/20 Q1018,OIAH,2022-10-31T15:00:00Z,30.33,50.83,26.0,20.0,280,6,,4.35,30.059055,,,,,,,,,,,SCT,4000,,,,,,,MVFR,,,,,,,,,,,,METAR,730.0
OIAG 311500Z 19008KT 8000 NSC 30/19 Q1013,OIAG,2022-10-31T15:00:00Z,30.73,49.68,30.0,19.0,190,8,,4.97,29.911417,,,,,,,,,,,CLR,,,,,,,,MVFR,,,,,,,,,,,,METAR,17.0
OIAA 311500Z 19006KT CAVOK 29/13 Q1011,OIAA,2022-10-31T15:00:00Z,30.35,48.22,29.0,13.0,190,6,,6.21,29.852362,,,,,,,,,,,CAVOK,,,,,,,,VFR,,,,,,,,,,,,METAR,4.0
OEYN 311500Z 27014KT CAVOK 31/22 Q1009 NOSIG,OEYN,2022-10-31T15:00:00Z,24.13,38.07,31.0,22.0,270,14,,6.21,29.793306,,,,,,TRUE,,,,,CAVOK,,,,,,,,VFR,,,,,,,,,,,,METAR,20.0
OEWJ 311500Z 32014KT CAVOK 28/21 Q1011 NOSIG,OEWJ,2022-10-31T15:00:00Z,26.18,36.47,28.0,21.0,320,14,,6.21,29.852362,,,,,,TRUE,,,,,CAVOK,,,,,,,,VFR,,,,,,,,,,,,METAR,8.0
OEWD 311500Z 10006KT CAVOK 29/12 Q1015,OEWD,2022-10-31T15:00:00Z,20.5,45.2,29.0,12.0,100,6,,6.21,29.970472,,,,,,,,,,,CAVOK,,,,,,,,VFR,,,,,,,,,,,,METAR,629.0
OETR 311500Z 25008KT CAVOK 23/09 Q1015 NOSIG,OETR,2022-10-31T15:00:00Z,31.7,38.73,23.0,9.0,250,8,,6.21,29.970472,,,,,,TRUE,,,,,CAVOK,,,,,,,,VFR,,,,,,,,,,,,METAR,854.0
OETF 311500Z 30010KT 9999 FEW030 25/13 Q1021 NOSIG,OETF,2022-10-31T15:00:00Z,21.47,40.53,25.0,13.0,300,10,,6.21,30.147638,,,,,,TRUE,,,,,FEW,3000,,,,,,,VFR,,,,,,,,,,,,METAR,1460.0
OETB 311500Z 00000KT 9999 FEW040 27/07 Q1013 NOSIG,OETB,2022-10-31T15:00:00Z,28.37,36.62,27.0,7.0,0,0,,6.21,29.911417,,,,,,TRUE,,,,,FEW,4000,,,,,,,VFR,,,,,,,,,,,,METAR,770.0
OESK 311500Z 26008KT CAVOK 28/07 Q1017 NOSIG,OESK,2022-10-31T15:00:00Z,29.78,40.1,28.0,7.0,260,8,,6.21,30.029528,,,,,,TRUE,,,,,CAVOK,,,,,,,,VFR,,,,,,,,,,,,METAR,671.0
OESH 311500Z 05010KT CAVOK 30/04 Q1015 NOSIG,OESH,2022-10-31T15:00:00Z,17.47,47.12,30.0,4.0,50,10,,6.21,29.970472,,,,,,TRUE,,,,,CAVOK,,,,,,,,VFR,,,,,,,,,,,,METAR,720.0
OERR 311500Z 30005KT 9000 NSC 29/03 Q1012 NOSIG,OERR,2022-10-31T15:00:00Z,30.9,41.13,29.0,3.0,300,5,,5.59,29.88189,,,,,,TRUE,,,,,CLR,,,,,,,,VFR,,,,,,,,,,,,METAR,554.0
OERK 311500Z 11004KT CAVOK 30/02 Q1017 NOSIG,OERK,2022-10-31T15:00:00Z,24.95,46.72,30.0,2.0,110,4,,6.21,30.029528,,,,,,TRUE,,,,,CAVOK,,,,,,,,VFR,,,,,,,,,,,,METAR,618.0
OERF 311500Z 32010KT CAVOK 30/00 Q1011 NOSIG,OERF,2022-10-31T15:00:00Z,29.62,43.48,30.0,0.0,320,10,,6.21,29.852362,,,,,,TRUE,,,,,CAVOK,,,,,,,,VFR,,,,,,,,,,,,METAR,441.0
OEPA 311500Z 19004KT CAVOK 32/16 Q1013 NOSIG,OEPA,2022-10-31T15:00:00Z,28.33,46.12,32.0,16.0,190,4,,6.21,29.911417,,,,,,TRUE,,,,,CAVOK,,,,,,,,VFR,,,,,,,,,,,,METAR,361.0
OENG 311500Z 09006KT CAVOK 26/00 Q1019 NOSIG,OENG,2022-10-31T15:00:00Z,17.62,44.42,26.0,0.0,90,6,,6.21,30.088583,,,,,,TRUE,,,,,CAVOK,,,,,,,,VFR,,,,,,,,,,,,METAR,1210.0
OEMN 311500Z 26005KT 9999 FEW040 31/19 Q1013,OEMN,2022-10-31T15:00:00Z,,,31.0,19.0,260,5,,6.21,29.911417,,,,,,,,,,,FEW,4000,,,,,,,VFR,,,,,,,,,,,,METAR,
OEMA 311500Z 27010KT CAVOK 35/02 Q1014 NOSIG,OEMA,2022-10-31T15:00:00Z,24.55,39.7,35.0,2.0,270,10,,6.21,29.940945,,,,,,TRUE,,,,,CAVOK,,,,,,,,VFR,,,,,,,,,,,,METAR,639.0
OEKM 311500Z 23008KT CAVOK 20/12 Q1024 NOSIG,OEKM,2022-10-31T15:00:00Z,18.3,42.78,20.0,12.0,230,8,,6.21,30.236221,,,,,,TRUE,,,,,CAVOK,,,,,,,,VFR,,,,,,,,,,,,METAR,2038.0
OEKJ 311500Z 20005KT CAVOK 30/01 Q1018,OEKJ,2022-10-31T15:00:00Z,24.07,47.58,30.0,1.0,200,5,,6.21,30.059055,,,,,,,,,,,CAVOK,,,,,,,,VFR,,,,,,,,,,,,METAR,487.0
OEJN 311500Z 31008KT 8000 NSC 31/23 Q1010 NOSIG,OEJN,2022-10-31T15:00:00Z,21.68,39.15,31.0,23.0,310,8,,4.97,29.822834,,,,,,TRUE,,,,,CLR,,,,,,,,MVFR,,,,,,,,,,,,METAR,8.0
OEJB 311500Z AUTO 16005KT CAVOK 30/19 Q1013 NOSIG,OEJB,2022-10-31T15:00:00Z,27.05,49.4,30.0,19.0,160,5,,6.21,29.911417,,,TRUE,,,TRUE,,,,,CAVOK,,,,,,,,VFR,,,,,,,,,,,,METAR,6.0
OEHL 311500Z 18006KT CAVOK 29/06 Q1016,OEHL,2022-10-31T15:00:00Z,27.43,41.68,29.0,6.0,180,6,,6.21,30.0,,,,,,,,,,,CAVOK,,,,,,,,VFR,,,,,,,,,,,,METAR,1002.0
OEGT 311500Z 30009KT CAVOK 25/05 Q1014 NOSIG,OEGT,2022-10-31T15:00:00Z,31.42,37.27,25.0,5.0,300,9,,6.21,29.940945,,,,,,TRUE,,,,,CAVOK,,,,,,,,VFR,,,,,,,,,,,,METAR,512.0
OEGS 311500Z 13002KT CAVOK 30/07 Q1014,OEGS,2022-10-31T15:00:00Z,26.3,43.77,30.0,7.0,130,2,,6.21,29.940945,,,,,,,,,,,CAVOK,,,,,,,,VFR,,,,,,,,,,,,METAR,647.0
OEGN 311500Z 24006KT CAVOK 32/22 Q1010 NOSIG,OEGN,2022-10-31T15:00:00Z,16.9,42.58,32.0,22.0,240,6,,6.21,29.822834,,,,,,TRUE,,,,,CAVOK,,,,,,,,VFR,,,,,,,,,,,,METAR,5.0
OEDR 311500Z 08006KT CAVOK 30/20 Q1012,OEDR,2022-10-31T15:00:00Z,26.27,50.17,30.0,20.0,80,6,,6.21,29.88189,,,,,,,,,,,CAVOK,,,,,,,,VFR,,,,,,,,,,,,METAR,17.0
OEDM 311500Z 12009KT CAVOK 29/M03 Q1017,OEDM,2022-10-31T15:00:00Z,24.45,44.12,29.0,-3.0,120,9,,6.21,30.029528,,,,,,,,,,,CAVOK,,,,,,,,VFR,,,,,,,,,,,,METAR,922.0
OEDF 311500Z 09007KT CAVOK 31/11 Q1012 NOSIG,OEDF,2022-10-31T15:00:00Z,26.43,49.82,31.0,11.0,90,7,,6.21,29.88189,,,,,,TRUE,,,,,CAVOK,,,,,,,,VFR,,,,,,,,,,,,METAR,15.0
OEBH 311500Z 09008KT CAVOK 27/03 Q1016 NOSIG,OEBH,2022-10-31T15:00:00Z,19.98,42.62,27.0,3.0,90,8,,6.21,30.0,,,,,,TRUE,,,,,CAVOK,,,,,,,,VFR,,,,,,,,,,,,METAR,1167.0
OEBA 311500Z 09012KT CAVOK 26/05 Q1020 NOSIG,OEBA,2022-10-31T15:00:00Z,20.3,41.63,26.0,5.0,90,12,,6.21,30.11811,,,,,,TRUE,,,,,CAVOK,,,,,,,,VFR,,,,,,,,,,,,METAR,1659.0
OEAO 311500Z 22013KT 9999 SCT040 31/05 Q1014 NOSIG,OEAO,2022-10-31T15:00:00Z,26.48,38.12,31.0,5.0,220,13,,6.21,29.940945,,,,,,TRUE,,,,,SCT,4000,,,,,,,VFR,,,,,,,,,,,,METAR,615.0
OEAH 311500Z 00000KT CAVOK 32/02 Q1013 NOSIG,OEAH,2022-10-31T15:00:00Z,25.28,49.48,32.0,2.0,0,0,,6.21,29.911417,,,,,,TRUE,,,,,CAVOK,,,,,,,,VFR,,,,,,,,,,,,METAR,180.0
OEAB 311500Z 19008KT 9999 FEW020 19/12 Q1024 NOSIG,OEAB,2022-10-31T15:00:00Z,18.23,42.65,19.0,12.0,190,8,,6.21,30.236221,,,,,,TRUE,,,,,FEW,2000,,,,,,,VFR,,,,,,,,,,,,METAR,2092.0
NVVV 311500Z 08002KT 9999 FEW020 22/22 Q1008,NVVV,2022-10-31T15:00:00Z,-17.68,168.3,22.0,22.0,80,2,,6.21,29.763779,,,,,,,,,,,FEW,2000,,,,,,,VFR,,,,,,,,,,,,METAR,23.0
NVSC 311500Z 00000KT 9999 SCT020 24/24 Q1007,NVSC,2022-10-31T15:00:00Z,-13.85,167.55,24.0,24.0,0,0,,6.21,29.734253,,,,,,,,,,,SCT,2000,,,,,,,VFR,,,,,,,,,,,,METAR,11.0
NSFA 311500Z 10005KT 9999 FEW020 25/24 Q1009,NSFA,2022-10-31T15:00:00Z,-13.83,-172.0,25.0,24.0,100,5,,6.21,29.793306,,,,,,,,,,,FEW,2000,,,,,,,VFR,,,,,,,,,,,,METAR,6.0
NIUE 311500Z 09004KT 9999 SCT018 24/23 Q1011,NIUE,2022-10-31T15:00:00Z,-19.07,-169.92,24.0,23.0,90,4,,6.21,29.852362,,,,,,,,,,,SCT,1800,,,,,,,VFR,,,,,,,,,,,,METAR,22.0
NGTA 311500 07005KT 9999 FEW020 27/23 Q1008,NGTA,2022-10-31T15:00:00Z,1.37,173.13,27.0,23.0,70,5,,6.21,29.763779,,,,,,,,,,,FEW,2000,,,,,,,VFR,,,,,,,,,,,,METAR,8.0
MZBZ 311500Z 33004KT 9999 FEW018 27/24 A2996 Q1014 NOSIG,MZBZ,2022-10-31T15:00:00Z,17.53,-88.3,27.0,24.0,330,4,,6.21,29.940945,,,,,,TRUE,,,,,FEW,1800,,,,,,,VFR,,,,,,,,,,,,METAR,6.0
MYNN 311500Z 11009KT 9999 SCT025 29/23 A3001,MYNN,2022-10-31T15:00:00Z,25.03,-77.47,29.0,23.0,110,9,,6.21,30.008858,,,,,,,,,,,SCT,2500,,,,,,,VFR,,,,,,,,,,,,METAR,5.0
MYGF 311500Z 30005KT 9999 VCSH FEW025 BKN040 BKN120 26/23 A3002,MYGF,2022-10-31T15:00:00Z,26.55,-78.7,26.0,23.0,300,5,,6.21,30.02067,,,,,,,,,,VCSH,FEW,2500,BKN,4000,BKN,12000,,,VFR,,,,,,,,,,,,METAR,2.0
MWCR 311500Z 05012KT 9999 VCSH FEW014CB 31/25 Q1012,MWCR,2022-10-31T15:00:00Z,19.3,-81.37,31.0,25.0,50,12,,6.21,29.88189,,,,,,,,,,VCSH,FEW,1400,,,,,,,VFR,,,,,,,,,,,,METAR,4.0
MWCB 311500Z 08006KT 9999 SCT016 30/25 Q1012,MWCB,2022-10-31T15:00:00Z,19.68,-79.88,30.0,25.0,80,6,,6.21,29.88189,,,,,,,,,,,SCT,1600,,,,,,,VFR,,,,,,,,,,,,METAR,7.0
MTPP 311500Z 14007KT 1300V200 9999 FEW026 31/22 Q1012 A2989,MTPP,2022-10-31T15:00:00Z,18.57,-72.3,31.0,22.0,140,7,,6.21,29.88189,,,,,,,,,,,FEW,2600,,,,,,,VFR,,,,,,,,,,,,METAR,36.0
MRLM 311500Z 29005KT CAVOK 30/20 A2987,MRLM,2022-10-31T15:00:00Z,9.97,-83.03,30.0,20.0,290,5,,6.21,29.870079,,,,,,,,,,,CAVOK,,,,,,,,VFR,,,,,,,,,,,,METAR,2.0
MPTO 311500Z 11005KT 9999 SCT018 28/24 Q1011 NOSIG,MPTO,2022-10-31T15:00:00Z,9.05,-79.38,28.0,24.0,110,5,,6.21,29.852362,,,,,,TRUE,,,,,SCT,1800,,,,,,,VFR,,,,,,,,,,,,METAR,7.0
MPSM 311500Z 22003KT 9999 SCT020 SCT080 30/24 Q1011,MPSM,2022-10-31T15:00:00Z,8.38,-80.13,30.0,24.0,220,3,,6.21,29.852362,,,,,,,,,,,SCT,2000,SCT,8000,,,,,VFR,,,,,,,,,,,,METAR,36.0
MPPA 311500Z 18005KT 9999 FEW018 29/24 Q1011,MPPA,2022-10-31T15:00:00Z,8.92,-79.6,29.0,24.0,180,5,,6.21,29.852362,,,,,,,,,,,FEW,1800,,,,,,,VFR,,,,,,,,,,,,METAR,1.0
MPMG 311500Z VRB01KT 9999 SCT020 29/24 Q1011 NOSIG,MPMG,2022-10-31T15:00:00Z,8.98,-79.57,29.0,24.0,0,1,,6.21,29.852362,,,,,,TRUE,,,,,SCT,2000,,,,,,,VFR,,,,,,,,,,,,METAR,6.0
MPDA 311500Z 09004KT 9999 SCT018 SCT090 27/23 Q1012,MPDA,2022-10-31T15:00:00Z,8.4,-82.43,27.0,23.0,90,4,,6.21,29.88189,,,,,,,,,,,SCT,1800,SCT,9000,,,,,VFR,,,,,,,,,,,,METAR,15.0
MPBO 311500Z 27006KT 9999 FEW020 SCT090 28/25 Q1012,MPBO,2022-10-31T15:00:00Z,9.35,-82.25,28.0,25.0,270,6,,6.21,29.88189,,,,,,,,,,,FEW,2000,SCT,9000,,,,,VFR,,,,,,,,,,,,METAR,2.0
MNRS 311500Z 00000KT 9999 FEW013 30/24 Q1011,MNRS,2022-10-31T15:00:00Z,11.42,-85.82,30.0,24.0,0,0,,6.21,29.852362,,,,,,,,,,,FEW,1300,,,,,,,VFR,,,,,,,,,,,,METAR,53.0
MNPC 311500Z 36006KT 5000 DZ FEW014CB BKN016TCU 26/24 Q1011 CBRA/SW TCURA/N/NE/SE/SW,MNPC,2022-10-31T15:00:00Z,14.05,-83.38,26.0,24.0,360,6,,3.11,29.852362,,,,,,,,,,DZ RA RA,FEW,1400,BKN,1600,,,,,MVFR,,,,,,,,,,,,METAR,10.0
MNMG 311500Z 11004KT 9999 FEW021 29/22 Q1012 A2989 1AC070 1CI300 NOSIG,MNMG,2022-10-31T15:00:00Z,12.15,-86.17,29.0,22.0,110,4,,6.21,29.88189,,,,,,TRUE,,,,,FEW,2100,,,,,,,VFR,,,,,,,,,,,,METAR,59.0
MNJU 311500Z 09004KT 9999 FEW020 30/22 Q1011,MNJU,2022-10-31T15:00:00Z,12.08,-85.37,30.0,22.0,90,4,,6.21,29.852362,,,,,,,,,,,FEW,2000,,,,,,,VFR,,,,,,,,,,,,METAR,85.0
MNJG 311500Z 09004KT 9999 SCT020 22/16 Q1014,MNJG,2022-10-31T15:00:00Z,13.13,-86.02,22.0,16.0,90,4,,6.21,29.940945,,,,,,,,,,,SCT,2000,,,,,,,VFR,,,,,,,,,,,,METAR,981.0
MNCH 311500Z 00000KT 9999 FEW025 28/23 Q1012,MNCH,2022-10-31T15:00:00Z,12.63,-87.13,28.0,23.0,0,0,,6.21,29.88189,,,,,,,,,,,FEW,2500,,,,,,,VFR,,,,,,,,,,,,METAR,70.0
MNBL 311500Z 36004KT 9999 SCT018 29/25 Q1011,MNBL,2022-10-31T15:00:00Z,12.0,-83.77,29.0,25.0,360,4,,6.21,29.852362,,,,,,,,,,,SCT,1800,,,,,,,VFR,,,,,,,,,,,,METAR,10.0
MKJS 311500Z 08017KT 9999 FEW022 30/23 Q1010,MKJS,2022-10-31T15:00:00Z,18.5,-77.92,30.0,23.0,80,17,,6.21,29.822834,,,,,,,,,,,FEW,2200,,,,,,,VFR,,,,,,,,,,,,METAR,3.0
MHYR 311500Z 25004KT 9999 SCT022 21/18,MHYR,2022-10-31T15:00:00Z,15.13,-87.13,21.0,18.0,250,4,,6.21,,,,,,,,,,,,SCT,2200,,,,,,,VFR,,,,,,,,,,,,METAR,682.0
MHTR 311500Z 00000KT 9999 SCT025TCU 29/24,MHTR,2022-10-31T15:00:00Z,15.93,-85.93,29.0,24.0,0,0,,6.21,,,,,,,,,,,,SCT,2500,,,,,,,VFR,,,,,,,,,,,,METAR,3.0
MHTG 311500Z 36010KT 9999 FEW034 22/15 Q1019 A3009 NOSIG,MHTG,2022-10-31T15:00:00Z,14.07,-87.22,22.0,15.0,360,10,,6.21,30.088583,,,,,,TRUE,,,,,FEW,3400,,,,,,,VFR,,,,,,,,,,,,METAR,1001.0
MHSR 311500Z 03004KT 9999 SCT025 20/17,MHSR,2022-10-31T15:00:00Z,14.78,-88.78,20.0,17.0,30,4,,6.21,,,,,,,,,,,,SCT,2500,,,,,,,VFR,,,,,,,,,,,,METAR,1087.0
MHRO 311500Z 08003KT 9999 SCT023TCU 28/21 Q1014 A2995 NOSIG,MHRO,2022-10-31T15:00:00Z,16.32,-86.53,28.0,21.0,80,3,,6.21,29.940945,,,,,,TRUE,,,,,SCT,2300,,,,,,,VFR,,,,,,,,,,,,METAR,6.0
MHPL 311500Z 36007KT 9999 BKN024TCU SCT080 28/23 Q1009,MHPL,2022-10-31T15:00:00Z,15.27,-83.78,28.0,23.0,360,7,,6.21,29.793306,,,,,,,,,,,BKN,2400,SCT,8000,,,,,MVFR,,,,,,,,,,,,METAR,13.0
MHNO 311500Z 02004KT 9999 FEW040 24/17,MHNO,2022-10-31T15:00:00Z,14.43,-89.18,24.0,17.0,20,4,,6.21,,,,,,,,,,,,FEW,4000,,,,,,,VFR,,,,,,,,,,,,METAR,790.0
MHLM 311500Z 25005KT 9999 FEW026 25/21 Q1014 A2996 NOSIG,MHLM,2022-10-31T15:00:00Z,15.45,-87.93,25.0,21.0,250,5,,6.21,29.940945,,,,,,TRUE,,,,,FEW,2600,,,,,,,VFR,,,,,,,,,,,,METAR,32.0
MHLE 311500Z 01006KT 9999 FEW024 18/12,MHLE,2022-10-31T15:00:00Z,14.28,-88.17,18.0,12.0,10,6,,6.21,,,,,,,,,,,,FEW,2400,,,,,,,VFR,,,,,,,,,,,,METAR,1688.0
MHLC 311500Z 23003KT 9999 FEW036 28/20 Q1014 A2995 NOSIG,MHLC,2022-10-31T15:00:00Z,15.75,-86.85,28.0,20.0,230,3,,6.21,29.940945,,,,,,TRUE,,,,,FEW,3600,,,,,,,VFR,,,,,,,,,,,,METAR,13.0
MHGS 311500Z 00000KT 9999 FEW052 21/16,MHGS,2022-10-31T15:00:00Z,14.57,-88.6,21.0,16.0,0,0,,6.21,,,,,,,,,,,,FEW,5200,,,,,,,VFR,,,,,,,,,,,,METAR,913.0
MHCH 311500Z 36008KT 9999 FEW030 30/22,MHCH,2022-10-31T15:00:00Z,13.32,-87.15,30.0,22.0,360,8,,6.21,,,,,,,,,,,,FEW,3000,,,,,,,VFR,,,,,,,,,,,,METAR,58.0
MGZA 311500Z 00000KT 9999 SCT017 BKN200 25/21 QFE 990.0,MGZA,2022-10-31T15:00:00Z,14.97,-89.53,25.0,21.0,0,0,,6.21,,,,,,,,,,,,SCT,1700,BKN,20000,,,,,VFR,,,,,,,,,,,,METAR,195.0
MGTU 311500Z 00000KT CAVOK 28/24 FEW200,MGTU,2022-10-31T15:00:00Z,,,28.0,24.0,0,0,,6.21,,,,,,,,,,,,FEW,20000,,,,,,,VFR,,,,,,,,,,,,METAR,
MGSJ 311500Z 00000KT CAVOK 31/23 Q1013 A2991 FEW200,MGSJ,2022-10-31T15:00:00Z,13.93,-90.83,31.0,23.0,0,0,,6.21,29.911417,,,,,,,,,,,FEW,20000,,,,,,,VFR,,,,,,,,,,,,METAR,7.0
MGRT 311500Z 00000KT CAVOK 28/22 Q1014 A2994 SCT200 VOL. SANTA MARIA Y SANTIAGUITO EN ACTIVIDAD,MGRT,2022-10-31T15:00:00Z,14.53,-91.7,28.0,22.0,0,0,,6.21,29.940945,,,,,,,,,,SA SA,SCT,20000,,,,,,,VFR,,,,,,,,,,,,METAR,209.0
MGQZ 311500Z CORR 00000KT CAVOK 17/09 QFE 773.0 FEW200,MGQZ,2022-10-31T15:00:00Z,14.87,-91.5,17.0,9.0,0,0,,6.21,,,,,,,,,,,,FEW,20000,,,,,,,VFR,,,,,,,,,,,,METAR,2378.0
MGPB 311500Z 00000KT 9999 FEW018 28/23 Q1013 A2991,MGPB,2022-10-31T15:00:00Z,15.73,-88.58,28.0,23.0,0,0,,6.21,29.911417,,,,,,,,,,,FEW,1800,,,,,,,VFR,,,,,,,,,,,,METAR,6.0
MGMT 311500Z 00000KT CAVOK 31/20 FEW070,MGMT,2022-10-31T15:00:00Z,,,31.0,20.0,0,0,,6.21,,,,,,,,,,,,FEW,7000,,,,,,,VFR,,,,,,,,,,,,METAR,
MGMM 311500Z 03004KT CAVOK 27/23 Q1016 A3000,MGMM,2022-10-31T15:00:00Z,16.9,-89.87,27.0,23.0,30,4,,6.21,30.0,,,,,,,,,,,CAVOK,,,,,,,,VFR,,,,,,,,,,,,METAR,105.0
MGHT 311500Z 00000KT 9999 FEW024 18/13 FEW200,MGHT,2022-10-31T15:00:00Z,15.32,-91.5,18.0,13.0,0,0,,6.21,,,,,,,,,,,,FEW,2400,FEW,20000,,,,,VFR,,,,,,,,,,,,METAR,1875.0
MGES 311500Z 03004KT 9999 SCT016 SCT200 22/16 QFE 910.2,MGES,2022-10-31T15:00:00Z,14.57,-89.32,22.0,16.0,30,4,,6.21,,,,,,,,,,,,SCT,1600,SCT,20000,,,,,VFR,,,,,,,,,,,,METAR,948.0
MGCB 311500Z CORR 00000KT 9999 SCT018 19/16 QFE 871.5,MGCB,2022-10-31T15:00:00Z,15.48,-90.42,19.0,16.0,0,0,,6.21,,,,,,,,,,,,SCT,1800,,,,,,,VFR,,,,,,,,,,,,METAR,1323.0
MDST 311500Z 13006KT 9999 SCT020 SCT300 29/23 Q1014,MDST,2022-10-31T15:00:00Z,19.4,-70.6,29.0,23.0,130,6,,6.21,29.940945,,,,,,,,,,,SCT,2000,SCT,30000,,,,,VFR,,,,,,,,,,,,METAR,175.0
MDSD 311500Z 11010KT 9999 FEW018CB SCT020 29/25 Q1014 CB/SE,MDSD,2022-10-31T15:00:00Z,18.42,-69.67,29.0,25.0,110,10,,6.21,29.940945,,,,,,,,,,,FEW,1800,SCT,2000,,,,,VFR,,,,,,,,,,,,METAR,18.0
MDPP 311500Z 00000KT 9999 FEW018 27/23 Q1013,MDPP,2022-10-31T15:00:00Z,19.75,-70.57,27.0,23.0,0,0,,6.21,29.911417,,,,,,,,,,,FEW,1800,,,,,,,VFR,,,,,,,,,,,,METAR,9.0
MDPC 311500Z 12012KT 9999 SCT020 SCT070 29/25 Q1014,MDPC,2022-10-31T15:00:00Z,18.57,-68.37,29.0,25.0,120,12,,6.21,29.940945,,,,,,,,,,,SCT,2000,SCT,7000,,,,,VFR,,,,,,,,,,,,METAR,10.0
MDLR 311500Z 09010KT 8000 VCSH BKN018 30/25 Q1013,MDLR,2022-10-31T15:00:00Z,18.45,-68.92,30.0,25.0,90,10,,4.97,29.911417,,,,,,,,,,VCSH,BKN,1800,,,,,,,MVFR,,,,,,,,,,,,METAR,66.0
MDJB 311500Z 06004KT 9999 SCT018 30/24 Q1014 NOSIG,MDJB,2022-10-31T15:00:00Z,18.57,-69.98,30.0,24.0,60,4,,6.21,29.940945,,,,,,TRUE,,,,,SCT,1800,,,,,,,VFR,,,,,,,,,,,,METAR,24.0
MDCY 311500Z 10008KT 9999 FEW020 SCT300 28/24 Q1013,MDCY,2022-10-31T15:00:00Z,19.27,-69.73,28.0,24.0,100,8,,6.21,29.911417,,,,,,,,,,,FEW,2000,SCT,30000,,,,,VFR,,,,,,,,,,,,METAR,4.0
MDBH 311500Z 09010KT 9999 FEW020CB FEW022 SCT300 31/26 Q1014 CB/SE,MDBH,2022-10-31T15:00:00Z,18.25,-71.12,31.0,26.0,90,10,,6.21,29.940945,,,,,,,,,,,FEW,2000,FEW,2200,SCT,30000,,,VFR,,,,,,,,,,,,METAR,7.0
MDAB 311500Z 00000KT 9999 SCT018 SCT300 29/26 Q1015,MDAB,2022-10-31T15:00:00Z,19.2,-69.43,29.0,26.0,0,0,,6.21,29.970472,,,,,,,,,,,SCT,1800,SCT,30000,,,,,VFR,,,,,,,,,,,,METAR,28.0
MBGT 311500Z 08010KT 9999 SCT015 30/23 Q1015,MBGT,2022-10-31T15:00:00Z,21.43,-71.15,30.0,23.0,80,10,,6.21,29.970472,,,,,,,,,,,SCT,1500,,,,,,,VFR,,,,,,,,,,,,SPECI,6.0
LRTZ 311500Z 01006KT 9999 FEW050 19/10 Q1020 BLU BLU,LRTZ,2022-10-31T15:00:00Z,43.98,28.62,19.0,10.0,10,6,,6.21,30.11811,,,,,,,,,,,FEW,5000,,,,,,,VFR,,,,,,,,,,,,METAR,45.0
LRFT 311500Z 36002KT 9999 SCT050 20/10 Q1020 BLU BLU,LRFT,2022-10-31T15:00:00Z,44.38,27.72,20.0,10.0,360,2,,6.21,30.11811,,,,,,,,,,,SCT,5000,,,,,,,VFR,,,,,,,,,,,,METAR,54.0
LRBO 311500Z 09004KT 9999 SKC 20/10 Q1020 BLACK BLACK,LRBO,2022-10-31T15:00:00Z,45.22,26.97,20.0,10.0,90,4,,6.21,30.11811,,,,,,,,,,,SKC,,,,,,,,VFR,,,,,,,,,,,,METAR,104.0
LQMO 311500Z 26002KT CAVOK 28/08 Q1019,LQMO,2022-10-31T15:00:00Z,43.28,17.83,28.0,8.0,260,2,,6.21,30.088583,,,,,,,,,,,CAVOK,,,,,,,,VFR,,,,,,,,,,,,METAR,49.0
LPST 311500Z 33008KT 6000 -DZ BKN008 BKN016 18/16 Q1017,LPST,2022-10-31T15:00:00Z,38.82,-9.33,18.0,16.0,330,8,,3.73,30.029528,,,,,,,,,,-DZ,BKN,800,BKN,1600,,,,,IFR,,,,,,,,,,,,METAR,129.0
LPOV 311500Z 33008KT 300V360 9999 FEW006 SCT020 18/14 Q1016,LPOV,2022-10-31T15:00:00Z,40.92,-8.65,18.0,14.0,330,8,,6.21,30.0,,,,,,,,,,,FEW,600,SCT,2000,,,,,VFR,,,,,,,,,,,,METAR,16.0
LPMT 311500Z 25010KT 9999 FEW026 SCT037 21/17 Q1017,LPMT,2022-10-31T15:00:00Z,38.7,-9.05,21.0,17.0,250,10,,6.21,30.029528,,,,,,,,,,,FEW,2600,SCT,3700,,,,,VFR,,,,,,,,,,,,METAR,4.0
LPMR 311500Z 34006KT 9999 FEW010 SCT015 BKN028 18/15 Q1017,LPMR,2022-10-31T15:00:00Z,39.82,-8.88,18.0,15.0,340,6,,6.21,30.029528,,,,,,,,,,,FEW,1000,SCT,1500,BKN,2800,,,MVFR,,,,,,,,,,,,METAR,50.0
LPLA 311500Z /////KT 9999 FEW035 20/12 Q1022,LPLA,2022-10-31T15:00:00Z,38.77,-27.1,20.0,12.0,,,,6.21,30.177166,,,,,,,,,,,FEW,3500,,,,,,,VFR,,,,,,,,,,,,SPECI,60.0
LPBJ 311500Z 24009KT 9999 SCT016 SCT030 20/17 Q1018,LPBJ,2022-10-31T15:00:00Z,38.08,-7.93,20.0,17.0,240,9,,6.21,30.059055,,,,,,,,,,,SCT,1600,SCT,3000,,,,,VFR,,,,,,,,,,,,METAR,196.0
LPAR 311500Z 30009KT 270V330 9999 FEW020 SCT040 21/17 Q1017,LPAR,2022-10-31T15:00:00Z,38.88,-9.03,21.0,17.0,300,9,,6.21,30.029528,,,,,,,,,,,FEW,2000,SCT,4000,,,,,VFR,,,,,,,,,,,,METAR,2.0
LOAV 311500Z VRB02KT 0900 FG VV005 11/11,LOAV,2022-10-31T15:00:00Z,47.97,16.27,11.0,11.0,0,2,,0.56,,,,,,,,,,,FG,OVX,0,,,,,,,LIFR,,,,,,,,,,,500,METAR,232.0
LOAN 311500Z 10003KT 0300 FG VV001,LOAN,2022-10-31T15:00:00Z,47.85,16.25,,,100,3,,0.19,,,,,,,,,,,FG,OVX,0,,,,,,,LIFR,,,,,,,,,,,100,METAR,266.0
LKLN 311500Z AUTO 03003KT 360V070 CAVOK 17/12 Q1019,LKLN,2022-10-31T15:00:00Z,49.68,13.27,17.0,12.0,30,3,,6.21,30.088583,,,TRUE,,,,,,,,CAVOK,,,,,,,,VFR,,,,,,,,,,,,METAR,353.0
LKKU 311500Z VRB01KT 4500 BR OVC004 11/10 Q1022,LKKU,2022-10-31T15:00:00Z,49.05,17.45,11.0,10.0,0,1,,2.8,30.177166,,,,,,,,,,BR,OVC,400,,,,,,,LIFR,,,,,,,,,,,,METAR,176.0
LKKB 311500Z 03004KT 0100 R24/0225N FG VV001 10/10 Q1020 NOSIG,LKKB,2022-10-31T15:00:00Z,50.12,14.53,10.0,10.0,30,4,,0.06,30.11811,,,,,,TRUE,,,,FG,OVX,0,,,,,,,LIFR,,,,,,,,,,,100,METAR,281.0
LBWB 311500Z 18002KT 9999 FEW040 16/11 Q1020,LBWB,2022-10-31T15:00:00Z,43.42,28.18,16.0,11.0,180,2,,6.21,30.11811,,,,,,,,,,,FEW,4000,,,,,,,VFR,,,,,,,,,,,,METAR,190.0
LBPL 311500Z 27004KT 9999 FEW100 24/11 Q1020,LBPL,2022-10-31T15:00:00Z,43.45,24.5,24.0,11.0,270,4,,6.21,30.11811,,,,,,,,,,,FEW,10000,,,,,,,VFR,,,,,,,,,,,,METAR,93.0
LBPG 311500Z 36008KT 9999 BKN100 24/07 Q1020,LBPG,2022-10-31T15:00:00Z,42.28,24.72,24.0,7.0,360,8,,6.21,30.11811,,,,,,,,,,,BKN,10000,,,,,,,VFR,,,,,,,,,,,,METAR,198.0
LBIA 311500Z 04006KT 9999 FEW060 SCT100 22/07 Q1020,LBIA,2022-10-31T15:00:00Z,42.45,26.35,22.0,7.0,40,6,,6.21,30.11811,,,,,,,,,,,FEW,6000,SCT,10000,,,,,VFR,,,,,,,,,,,,METAR,155.0
KNEL 311500Z AUTO VRB04KT CLR 16/11 A3008 RMK AO2 SLP184 T01610106 50001 $,KNEL,2022-10-31T15:00:00Z,40.03,-74.33,16.1,10.6,0,4,,,30.079725,1018.4,,TRUE,TRUE,TRUE,,,,,,CLR,,,,,,,,,0.1,,,,,,,,,,,SPECI,26.0
KDPG 311500Z 12003KT 50SM FEW350 M01/M06 A3020 RMK SLP231 T10061065 53002,KDPG,2022-10-31T15:00:00Z,40.2,-112.93,-0.6,-6.5,120,3,,50.0,30.200787,1023.1,,,,,,,,,,FEW,35000,,,,,,,VFR,0.2,,,,,,,,,,,METAR,1324.0
HTZA 311500Z 10013KT 9999 FEW024 28/22 Q1012 NOSIG,HTZA,2022-10-31T15:00:00Z,-6.22,39.22,28.0,22.0,100,13,,6.21,29.88189,,,,,,TRUE,,,,,FEW,2400,,,,,,,VFR,,,,,,,,,,,,METAR,19.0
HTMW 311500Z 32015KT 9999 FEW023 26/21 Q1012 NOSIG,HTMW,2022-10-31T15:00:00Z,-2.43,32.92,26.0,21.0,320,15,,6.21,29.88189,,,,,,TRUE,,,,,FEW,2300,,,,,,,VFR,,,,,,,,,,,,METAR,1144.0
HTKJ 311500Z 09010KT 9999 SCT038 31/13 Q1014 NOSIG,HTKJ,2022-10-31T15:00:00Z,-3.42,37.07,31.0,13.0,90,10,,6.21,29.940945,,,,,,TRUE,,,,,SCT,3800,,,,,,,VFR,,,,,,,,,,,,METAR,893.0
HTJN 311500Z AUTO 03508KT 353V082 //// 29/10 Q1017,HTJN,2022-10-31T15:00:00Z,,,29.0,10.0,35,8,,,30.029528,,,TRUE,,,,,,,,,,,,,,,,,,,,,,,,,,,,METAR,
HTDA 311500Z 11010KT 9999 FEW019 27/22 Q1013 NOSIG,HTDA,2022-10-31T15:00:00Z,-6.88,39.2,27.0,22.0,110,10,,6.21,29.911417,,,,,,TRUE,,,,,FEW,1900,,,,,,,VFR,,,,,,,,,,,,METAR,53.0
HSSK 311500Z 34009KT CAVOK 36/09 Q1009 NOSIG,HSSK,2022-10-31T15:00:00Z,15.58,32.55,36.0,9.0,340,9,,6.21,29.793306,,,,,,TRUE,,,,,CAVOK,,,,,,,,VFR,,,,,,,,,,,,METAR,380.0
HRZA 311500Z 22004KT 9999 TS FEW023CB BKN025 22/15 Q1017 NOSIG,HRZA,2022-10-31T15:00:00Z,-2.47,28.92,22.0,15.0,220,4,,6.21,30.029528,,,,,,TRUE,,,,TS,FEW,2300,BKN,2500,,,,,MVFR,,,,,,,,,,,,METAR,1591.0
HRYR 311500Z 33004KT 9999 FEW023CB SCT025 25/15 Q1016 NOSIG,HRYR,2022-10-31T15:00:00Z,-1.97,30.13,25.0,15.0,330,4,,6.21,30.0,,,,,,TRUE,,,,,FEW,2300,SCT,2500,,,,,VFR,,,,,,,,,,,,METAR,1493.0
HKWJ 311500Z 11006KT 9999 FEW032CB FEW036 33/17 Q1008,HKWJ,2022-10-31T15:00:00Z,1.75,40.08,33.0,17.0,110,6,,6.21,29.763779,,,,,,,,,,,FEW,3200,FEW,3600,,,,,VFR,,,,,,,,,,,,METAR,254.0
HKNW 311500Z 09010KT 9999 SCT026 25/08 1019,HKNW,2022-10-31T15:00:00Z,-1.32,36.82,25.0,8.0,90,10,,6.21,,,,,,,,,,,,SCT,2600,,,,,,,VFR,,,,,,,,,,,,SPECI,1666.0
HKNK 311500Z 15010KT 9999 FEW022CB BKN023 21/11,HKNK,2022-10-31T15:00:00Z,-0.3,36.17,21.0,11.0,150,10,,6.21,,,,,,,,,,,,FEW,2200,BKN,2300,,,,,MVFR,,,,,,,,,,,,METAR,1900.0
HKNI 311500Z 30001KT 9999 FEW022CB BKN023 23/12,HKNI,2022-10-31T15:00:00Z,-0.33,36.92,23.0,12.0,300,1,,6.21,,,,,,,,,,,,FEW,2200,BKN,2300,,,,,MVFR,,,,,,,,,,,,METAR,1769.0
HKGA 311500Z 14025KT 9999 TS FEW028CB SCT029 BKN080 29/21 Q1011,HKGA,2022-10-31T15:00:00Z,-0.47,39.65,29.0,21.0,140,25,,6.21,29.852362,,,,,,,,,,TS,FEW,2800,SCT,2900,BKN,8000,,,VFR,,,,,,,,,,,,METAR,147.0
HKEL 311500Z 26004KT 9999 FEW021CB BKN022 19/12 Q1022,HKEL,2022-10-31T15:00:00Z,0.4,35.23,19.0,12.0,260,4,,6.21,30.177166,,,,,,,,,,,FEW,2100,BKN,2200,,,,,MVFR,,,,,,,,,,,,METAR,2116.0
HETR 311500Z 31013KT CAVOK 27/15 Q1013,HETR,2022-10-31T15:00:00Z,28.22,33.65,27.0,15.0,310,13,,6.21,29.911417,,,,,,,,,,,CAVOK,,,,,,,,VFR,,,,,,,,,,,,METAR,35.0
HESW 311500Z 27010KT 9999 SCT025 24/10 Q1016,HESW,2022-10-31T15:00:00Z,29.35,25.5,24.0,10.0,270,10,,6.21,30.0,,,,,,,,,,,SCT,2500,,,,,,,VFR,,,,,,,,,,,,METAR,101.0
HESN 311500Z 36007KT CAVOK 30/08 Q1011 NOSIG,HESN,2022-10-31T15:00:00Z,23.97,32.82,30.0,8.0,360,7,,6.21,29.852362,,,,,,TRUE,,,,,CAVOK,,,,,,,,VFR,,,,,,,,,,,,METAR,197.0
HESH 311500Z 01008KT 9999 FEW020 27/17 Q1012 NOSIG,HESH,2022-10-31T15:00:00Z,27.97,34.38,27.0,17.0,10,8,,6.21,29.88189,,,,,,TRUE,,,,,FEW,2000,,,,,,,VFR,,,,,,,,,,,,METAR,50.0
HESG 311500Z 32010KT CAVOK 27/06 Q1013 NOSIG,HESG,2022-10-31T15:00:00Z,26.33,31.75,27.0,6.0,320,10,,6.21,29.911417,,,,,,TRUE,,,,,CAVOK,,,,,,,,VFR,,,,,,,,,,,,METAR,70.0
HEPS 311500Z 35006KT CAVOK 25/20 Q1015 NOSIG,HEPS,2022-10-31T15:00:00Z,31.28,32.25,25.0,20.0,350,6,,6.21,29.970472,,,,,,TRUE,,,,,CAVOK,,,,,,,,VFR,,,,,,,,,,,,METAR,2.0
HEMM 311500Z 30010KT 9999 SCT020 22/15 Q1016 NOSIG,HEMM,2022-10-31T15:00:00Z,31.32,27.22,22.0,15.0,300,10,,6.21,30.0,,,,,,TRUE,,,,,SCT,2000,,,,,,,VFR,,,,,,,,,,,,METAR,26.0
HEMA 311500Z 36009KT CAVOK 27/19 Q1013 NOSIG,HEMA,2022-10-31T15:00:00Z,25.55,34.58,27.0,19.0,360,9,,6.21,29.911417,,,,,,TRUE,,,,,CAVOK,,,,,,,,VFR,,,,,,,,,,,,METAR,77.0
HELX 311500Z 33005KT CAVOK 28/09 Q1013 NOSIG,HELX,2022-10-31T15:00:00Z,25.67,32.7,28.0,9.0,330,5,,6.21,29.911417,,,,,,TRUE,,,,,CAVOK,,,,,,,,VFR,,,,,,,,,,,,METAR,86.0
HEIS 311500Z 36008KT 9999 SCT025 26/15 Q1015,HEIS,2022-10-31T15:00:00Z,30.58,32.25,26.0,15.0,360,8,,6.21,29.970472,,,,,,,,,,,SCT,2500,,,,,,,VFR,,,,,,,,,,,,METAR,14.0
HEGN 311500Z 34013KT CAVOK 27/13 Q1013 NOSIG,HEGN,2022-10-31T15:00:00Z,27.18,33.8,27.0,13.0,340,13,,6.21,29.911417,,,,,,TRUE,,,,,CAVOK,,,,,,,,VFR,,,,,,,,,,,,METAR,14.0
HECP 311500Z 36005KT 9999 SCT025 25/09 Q1015 NOSIG,HECP,2022-10-31T15:00:00Z,30.07,31.83,25.0,9.0,360,5,,6.21,29.970472,,,,,,TRUE,,,,,SCT,2500,,,,,,,VFR,,,,,,,,,,,,METAR,240.0
HEBL 311500Z 34007KT CAVOK 29/18 Q1013 NOSIG,HEBL,2022-10-31T15:00:00Z,22.38,31.62,29.0,18.0,340,7,,6.21,29.911417,,,,,,TRUE,,,,,CAVOK,,,,,,,,VFR,,,,,,,,,,,,METAR,184.0
HEBA 311500Z 34005KT 9999 FEW020 23/14 Q1014 NOSIG,HEBA,2022-10-31T15:00:00Z,30.92,29.7,23.0,14.0,340,5,,6.21,29.940945,,,,,,TRUE,,,,,FEW,2000,,,,,,,VFR,,,,,,,,,,,,METAR,41.0
HEAX 311500Z 33004KT 9999 SCT020 25/15 Q1015 NOSIG,HEAX,2022-10-31T15:00:00Z,31.18,29.93,25.0,15.0,330,4,,6.21,29.970472,,,,,,TRUE,,,,,SCT,2000,,,,,,,VFR,,,,,,,,,,,,METAR,-2.0
HEAT 311500Z 36015KT CAVOK 26/08 Q1017 NOSIG,HEAT,2022-10-31T15:00:00Z,27.05,31.02,26.0,8.0,360,15,,6.21,30.029528,,,,,,TRUE,,,,,CAVOK,,,,,,,,VFR,,,,,,,,,,,,METAR,229.0
GQPP 311500Z 16004KT 120V210 6000 NSC 36/06 Q1013 NOSIG,GQPP,2022-10-31T15:00:00Z,20.92,-17.02,36.0,6.0,160,4,,3.73,29.911417,,,,,,TRUE,,,,,CLR,,,,,,,,MVFR,,,,,,,,,,,,METAR,5.0
GOTT 311500Z 04004KT CAVOK 37/16 Q1009,GOTT,2022-10-31T15:00:00Z,13.73,-13.65,37.0,16.0,40,4,,6.21,29.793306,,,,,,,,,,,CAVOK,,,,,,,,VFR,,,,,,,,,,,,METAR,53.0
GOTK 311500Z 04006KT 9999 FEW015 36/18 Q1009,GOTK,2022-10-31T15:00:00Z,12.57,-12.22,36.0,18.0,40,6,,6.21,29.793306,,,,,,,,,,,FEW,1500,,,,,,,VFR,,,,,,,,,,,,METAR,165.0
GOSS 311500Z VRB02KT CAVOK 39/16 Q1009,GOSS,2022-10-31T15:00:00Z,16.05,-16.45,39.0,16.0,0,2,,6.21,29.793306,,,,,,,,,,,CAVOK,,,,,,,,VFR,,,,,,,,,,,,METAR,3.0
GOSP 311500Z 08002KT CAVOK 39/16 Q1010,GOSP,2022-10-31T15:00:00Z,16.68,-14.97,39.0,16.0,80,2,,6.21,29.822834,,,,,,,,,,,CAVOK,,,,,,,,VFR,,,,,,,,,,,,METAR,10.0
GOSM 311500Z 14002KT CAVOK 39/12 Q1009,GOSM,2022-10-31T15:00:00Z,15.6,-13.33,39.0,12.0,140,2,,6.21,29.793306,,,,,,,,,,,CAVOK,,,,,,,,VFR,,,,,,,,,,,,METAR,28.0
GOOY 311500Z 32004KT 8000 NSC 32/24 Q1009,GOOY,2022-10-31T15:00:00Z,14.73,-17.5,32.0,24.0,320,4,,4.97,29.793306,,,,,,,,,,,CLR,,,,,,,,MVFR,,,,,,,,,,,,METAR,21.0
GOOK 311500Z 00000KT CAVOK 37/21 Q1009,GOOK,2022-10-31T15:00:00Z,14.15,-16.07,37.0,21.0,0,0,,6.21,29.793306,,,,,,,,,,,CAVOK,,,,,,,,VFR,,,,,,,,,,,,METAR,8.0
GOOG 311500Z 07004KT CAVOK 39/18 Q1007,GOOG,2022-10-31T15:00:00Z,15.4,-15.08,39.0,18.0,70,4,,6.21,29.734253,,,,,,,,,,,CAVOK,,,,,,,,VFR,,,,,,,,,,,,METAR,38.0
GOOD 311500Z 18006KT 9999 FEW013 38/19 Q1009,GOOD,2022-10-31T15:00:00Z,14.65,-16.22,38.0,19.0,180,6,,6.21,29.793306,,,,,,,,,,,FEW,1300,,,,,,,VFR,,,,,,,,,,,,METAR,9.0
GOGS 311500Z VRB04KT 9999 FEW013 33/25 Q1009,GOGS,2022-10-31T15:00:00Z,12.4,-16.75,33.0,25.0,0,4,,6.21,29.793306,,,,,,,,,,,FEW,1300,,,,,,,VFR,,,,,,,,,,,,METAR,13.0
GOGK 311500Z 08006KT CAVOK 26/24 Q1007,GOGK,2022-10-31T15:00:00Z,12.9,-14.97,26.0,24.0,80,6,,6.21,29.734253,,,,,,,,,,,CAVOK,,,,,,,,VFR,,,,,,,,,,,,METAR,37.0
GOGG 311500Z 06004KT CAVOK 36/25 Q1009,GOGG,2022-10-31T15:00:00Z,12.55,-16.27,36.0,25.0,60,4,,6.21,29.793306,,,,,,,,,,,CAVOK,,,,,,,,VFR,,,,,,,,,,,,METAR,24.0
GMTN 311500Z 08005KT 030V110 8000 SCT023 BKN200 23/18 Q1019 NOSIG,GMTN,2022-10-31T15:00:00Z,35.58,-5.32,23.0,18.0,80,5,,4.97,30.088583,,,,,,TRUE,,,,,SCT,2300,BKN,20000,,,,,MVFR,,,,,,,,,,,,METAR,10.0
GMTA 311500Z 34006KT 290V010 8000 NSC 23/16 Q1019 NOSIG,GMTA,2022-10-31T15:00:00Z,35.17,-3.85,23.0,16.0,340,6,,4.97,30.088583,,,,,,TRUE,,,,,CLR,,,,,,,,MVFR,,,,,,,,,,,,METAR,14.0
GMMZ 311500Z 18004KT CAVOK 27/M09 Q1023 NOSIG,GMMZ,2022-10-31T15:00:00Z,30.93,-6.9,27.0,-9.0,180,4,,6.21,30.206694,,,,,,TRUE,,,,,CAVOK,,,,,,,,VFR,,,,,,,,,,,,METAR,1139.0
GMMW 311500Z 06008KT 030V090 6000 NSC 24/15 Q1018 NOSIG,GMMW,2022-10-31T15:00:00Z,34.98,-3.02,24.0,15.0,60,8,,3.73,30.059055,,,,,,TRUE,,,,,CLR,,,,,,,,MVFR,,,,,,,,,,,,METAR,174.0
GMML 311500Z 34010KT CAVOK 31/10Q1017 NOSIG,GMML,2022-10-31T15:00:00Z,27.13,-13.23,,,340,10,,6.21,30.029528,,,,,,TRUE,,,,,CAVOK,,,,,,,,VFR,,,,,,,,,,,,METAR,63.0
GMMI 311500Z AUTO VRB04G08KT 9999NDV ////// 31/07 Q1018 NOSIG,GMMI,2022-10-31T15:00:00Z,31.4,-9.68,31.0,7.0,0,4,8,,30.059055,,,TRUE,,,TRUE,,,,,,,,,,,,,,,,,,,,,,,,,METAR,102.0
GMMH 311500Z 01014KT CAVOK 27/12 Q1015 NOSIG,GMMH,2022-10-31T15:00:00Z,23.72,-15.93,27.0,12.0,10,14,,6.21,29.970472,,,,,,TRUE,,,,,CAVOK,,,,,,,,VFR,,,,,,,,,,,,METAR,11.0
GMMD 311500Z 22005KT CAVOK 31/M04 Q1020 NOSIG,GMMD,2022-10-31T15:00:00Z,32.4,-6.32,31.0,-4.0,220,5,,6.21,30.11811,,,,,,TRUE,,,,,CAVOK,,,,,,,,VFR,,,,,,,,,,,,METAR,515.0
GMMC 311500Z 02004KT 6000 NSC 25/19 Q1019,GMMC,2022-10-31T15:00:00Z,33.57,-7.67,25.0,19.0,20,4,,3.73,30.088583,,,,,,,,,,,CLR,,,,,,,,MVFR,,,,,,,,,,,,METAR,62.0
GMMB 311500Z 32010KT 270V350 5000 NSC 24/16 Q1020 NOSIG,GMMB,2022-10-31T15:00:00Z,33.65,-7.22,24.0,16.0,320,10,,3.11,30.11811,,,,,,TRUE,,,,,CLR,,,,,,,,MVFR,,,,,,,,,,,,METAR,191.0
GMFM 311500Z 32010KT 290V350 CAVOK 30/04 Q1020 NOSIG,GMFM,2022-10-31T15:00:00Z,33.87,-5.52,30.0,4.0,320,10,,6.21,30.11811,,,,,,TRUE,,,,,CAVOK,,,,,,,,VFR,,,,,,,,,,,,METAR,569.0
GMFK 311500Z 20008KT 160V230 CAVOK 27/M09 Q1025 NOSIG,GMFK,2022-10-31T15:00:00Z,31.95,-4.4,27.0,-9.0,200,8,,6.21,30.265747,,,,,,TRUE,,,,,CAVOK,,,,,,,,VFR,,,,,,,,,,,,METAR,1033.0
GMFB 311500Z 25006KT 210V290 CAVOK 26/M06 Q1024 NOSIG,GMFB,2022-10-31T15:00:00Z,32.52,-1.98,26.0,-6.0,250,6,,6.21,30.236221,,,,,,TRUE,,,,,CAVOK,,,,,,,,VFR,,,,,,,,,,,,METAR,1106.0
GMAZ 311500Z AUTO VRB04KT CAVOK 28/M06 Q1023,GMAZ,2022-10-31T15:00:00Z,30.32,-5.87,28.0,-6.0,0,4,,6.21,30.206694,,,TRUE,,,,,,,,CAVOK,,,,,,,,VFR,,,,,,,,,,,,METAR,729.0
GMAT 311500Z 34010KT CAVOK 31/06 Q1017 NOSIG,GMAT,2022-10-31T15:00:00Z,28.43,-11.15,31.0,6.0,340,10,,6.21,30.029528,,,,,,TRUE,,,,,CAVOK,,,,,,,,VFR,,,,,,,,,,,,METAR,192.0
GMAG 311500Z 19004KT 150V270 CAVOK 34/M09 Q1018 NOSIG,GMAG,2022-10-31T15:00:00Z,29.03,-10.05,34.0,-9.0,190,4,,6.21,30.059055,,,,,,TRUE,,,,,CAVOK,,,,,,,,VFR,,,,,,,,,,,,METAR,333.0
GGOV 311500Z 08004KT 040V120 8000 SCT010 35/22 Q1009 NOSIG,GGOV,2022-10-31T15:00:00Z,11.88,-15.65,35.0,22.0,80,4,,4.97,29.793306,,,,,,TRUE,,,,,SCT,1000,,,,,,,MVFR,,,,,,,,,,,,METAR,31.0
GBYD 311500Z VRB02KT 9999 SCT013 35/25 Q1009,GBYD,2022-10-31T15:00:00Z,13.33,-16.65,35.0,25.0,0,2,,6.21,29.793306,,,,,,,,,,,SCT,1300,,,,,,,VFR,,,,,,,,,,,,METAR,29.0
GAMB 311500Z 10008KT CAVOK 36/08 Q1011,GAMB,2022-10-31T15:00:00Z,14.52,-4.08,36.0,8.0,100,8,,6.21,29.852362,,,,,,,,,,,CAVOK,,,,,,,,VFR,,,,,,,,,,,,METAR,271.0
GAKD 311500Z 10010KT 8000 NSC 37/09 Q1010,GAKD,2022-10-31T15:00:00Z,14.48,-11.4,37.0,9.0,100,10,,4.97,29.822834,,,,,,,,,,,CLR,,,,,,,,MVFR,,,,,,,,,,,,METAR,53.0
FYWW 311500Z 29003KT CAVOK 31/M04 Q1018,FYWW,2022-10-31T15:00:00Z,-22.57,17.1,31.0,-4.0,290,3,,6.21,30.059055,,,,,,,,,,,CAVOK,,,,,,,,VFR,,,,,,,,,,,,METAR,1672.0
FYWH 311500Z 07004KT CAVOK 31/M02 Q1019 NOSIG,FYWH,2022-10-31T15:00:00Z,-22.47,17.47,31.0,-2.0,70,4,,6.21,30.088583,,,,,,TRUE,,,,,CAVOK,,,,,,,,VFR,,,,,,,,,,,,METAR,1699.0
FYWE 311500Z 28008KT CAVOK 31/M07 Q1019,FYWE,2022-10-31T15:00:00Z,-22.62,17.08,31.0,-7.0,280,8,,6.21,30.088583,,,,,,,,,,,CAVOK,,,,,,,,VFR,,,,,,,,,,,,METAR,1700.0
FYWB 311500Z 28008KT CAVOK 23/12 Q1012,FYWB,2022-10-31T15:00:00Z,-22.98,14.65,23.0,12.0,280,8,,6.21,29.88189,,,,,,,,,,,CAVOK,,,,,,,,VFR,,,,,,,,,,,,METAR,87.0
FYLZ 311500Z AUTO 21019KT //// // ////// 21/13 Q1011,FYLZ,2022-10-31T15:00:00Z,-26.68,15.25,21.0,13.0,210,19,,,29.852362,,,TRUE,,,,,,,,,,,,,,,,,,,,,,,,,,,,METAR,129.0
FYKM 311500Z 21003KT 9999 SCT030CB 34/12 Q1010,FYKM,2022-10-31T15:00:00Z,-17.63,24.18,34.0,12.0,210,3,,6.21,29.822834,,,,,,,,,,,SCT,3000,,,,,,,VFR,,,,,,,,,,,,METAR,959.0
FYGF 311500Z 06002KT 9999 FEW040TCU 34/02 Q1016,FYGF,2022-10-31T15:00:00Z,-19.6,18.12,34.0,2.0,60,2,,6.21,30.0,,,,,,,,,,,FEW,4000,,,,,,,VFR,,,,,,,,,,,,METAR,1407.0
FWKI 311500Z 07013KT CAVOK 29/10 Q1016 NOSIG,FWKI,2022-10-31T15:00:00Z,-13.78,33.78,29.0,10.0,70,13,,6.21,30.0,,,,,,TRUE,,,,,CAVOK,,,,,,,,VFR,,,,,,,,,,,,METAR,1225.0
FWCL 311500Z 09010KT 9999 FEW030 33/11 Q1013 NOSIG,FWCL,2022-10-31T15:00:00Z,-15.67,34.97,33.0,11.0,90,10,,6.21,29.911417,,,,,,TRUE,,,,,FEW,3000,,,,,,,VFR,,,,,,,,,,,,METAR,774.0
FTTD 311500Z 02006KT CAVOK 36/// Q1010,FTTD,2022-10-31T15:00:00Z,8.62,16.07,,,20,6,,6.21,29.822834,,,,,,,,,,,CAVOK,,,,,,,,VFR,,,,,,,,,,,,METAR,420.0
FTTA 311500Z 05006KT 9999 FEW040 35/20 Q1009,FTTA,2022-10-31T15:00:00Z,9.15,18.37,35.0,20.0,50,6,,6.21,29.793306,,,,,,,,,,,FEW,4000,,,,,,,VFR,,,,,,,,,,,,METAR,361.0
FSIA 311500Z 14011KT 9999 FEW022 26/23 Q1013 NOSIG,FSIA,2022-10-31T15:00:00Z,-4.67,55.52,26.0,23.0,140,11,,6.21,29.911417,,,,,,TRUE,,,,,FEW,2200,,,,,,,VFR,,,,,,,,,,,,METAR,3.0
FOOR 311500Z /////KT 9999 SCT008 32/24 Q////,FOOR,2022-10-31T15:00:00Z,-0.82,12.73,32.0,24.0,,,,6.21,,,,,,,,,,,,SCT,800,,,,,,,VFR,,,,,,,,,,,,METAR,487.0
FOON 311500Z VRB02KT 9999 BKN020 FEW023CB 34/22 Q1010,FOON,2022-10-31T15:00:00Z,-1.65,13.43,34.0,22.0,0,2,,6.21,29.822834,,,,,,,,,,,BKN,2000,FEW,2300,,,,,MVFR,,,,,,,,,,,,METAR,440.0
FOOL 311500Z 25006KT 220V290 9999 TS SCT012 FEW020CB SCT033 28/25 Q1008 NOSIG,FOOL,2022-10-31T15:00:00Z,0.45,9.42,28.0,25.0,250,6,,6.21,29.763779,,,,,,TRUE,,,,TS,SCT,1200,FEW,2000,SCT,3300,,,VFR,,,,,,,,,,,,METAR,9.0
FOOK 311500Z /////KT 9000 SCT012TCU BKN020 FEW020CB 29/24 Q////,FOOK,2022-10-31T15:00:00Z,0.57,12.88,29.0,24.0,,,,5.59,,,,,,,,,,,,SCT,1200,BKN,2000,FEW,2000,,,MVFR,,,,,,,,,,,,METAR,517.0
FOGR 311500Z /////KT 9999 SCT013TCU 34/24 Q////,FOGR,2022-10-31T15:00:00Z,-0.7,10.25,34.0,24.0,,,,6.21,,,,,,,,,,,,SCT,1300,,,,,,,VFR,,,,,,,,,,,,METAR,25.0
FOGO 311500Z /////KT 9999 FEW015 BKN050 29/23 Q////,FOGO,2022-10-31T15:00:00Z,1.53,11.58,29.0,23.0,,,,6.21,,,,,,,,,,,,FEW,1500,BKN,5000,,,,,VFR,,,,,,,,,,,,METAR,660.0
FOGM 311500Z 24004KT 9999 TS BKN015TCU FEW020CB 34/23 Q////,FOGM,2022-10-31T15:00:00Z,-1.83,11.05,34.0,23.0,240,4,,6.21,,,,,,,,,,,TS,BKN,1500,FEW,2000,,,,,MVFR,,,,,,,,,,,,METAR,90.0
FNUE 311500Z 00000KT 9999 SCT031 SCT060 25/22 Q1017,FNUE,2022-10-31T15:00:00Z,-11.77,19.9,25.0,22.0,0,0,,6.21,30.029528,,,,,,,,,,,SCT,3100,SCT,6000,,,,,VFR,,,,,,,,,,,,METAR,1354.0
FNUB 311500Z 08008KT 9999 SCT025 26/12 Q1021,FNUB,2022-10-31T15:00:00Z,-14.93,13.57,26.0,12.0,80,8,,6.21,30.147638,,,,,,,,,,,SCT,2500,,,,,,,VFR,,,,,,,,,,,,METAR,1749.0
FNSO 311500Z 26010KT 9999 SCT010 FEW013CB 30/24 Q////,FNSO,2022-10-31T15:00:00Z,-6.13,12.37,30.0,24.0,260,10,,6.21,,,,,,,,,,,,SCT,1000,FEW,1300,,,,,VFR,,,,,,,,,,,,METAR,7.0
FNMO 311500Z 22012KT 9999 FEW///CB 25/21 Q1008,FNMO,2022-10-31T15:00:00Z,-15.27,12.15,25.0,21.0,220,12,,6.21,29.763779,,,,,,,,,,,,,,,,,,,,,,,,,,,,,,,METAR,64.0
FNKU 311500Z 00000KT 9999 BKN040 25/14 Q1016,FNKU,2022-10-31T15:00:00Z,-12.4,16.95,25.0,14.0,0,0,,6.21,30.0,,,,,,,,,,,BKN,4000,,,,,,,VFR,,,,,,,,,,,,METAR,1724.0
FNHU 311500Z VRB03KT 9999 SCT020 FEW026CB BKN070 18/16 Q1019,FNHU,2022-10-31T15:00:00Z,-12.82,15.77,18.0,16.0,0,3,,6.21,30.088583,,,,,,,,,,,SCT,2000,FEW,2600,BKN,7000,,,VFR,,,,,,,,,,,,METAR,1697.0
FNGI 311500Z 34008KT 9999 SCT020 29/13 Q1013,FNGI,2022-10-31T15:00:00Z,-17.05,15.68,29.0,13.0,340,8,,6.21,29.911417,,,,,,,,,,,SCT,2000,,,,,,,VFR,,,,,,,,,,,,METAR,1116.0
FNCT 311500Z 27010KT 9999 FEW015 SCT100 26/22 Q1008,FNCT,2022-10-31T15:00:00Z,-12.48,13.48,26.0,22.0,270,10,,6.21,29.763779,,,,,,,,,,,FEW,1500,SCT,10000,,,,,VFR,,,,,,,,,,,,METAR,6.0
FNCA 311500Z 25007KT 9999 FEW015 FEW016CB 30/23 Q1008,FNCA,2022-10-31T15:00:00Z,-5.58,12.18,30.0,23.0,250,7,,6.21,29.763779,,,,,,,,,,,FEW,1500,FEW,1600,,,,,VFR,,,,,,,,,,,,METAR,14.0
FMSD 311500Z 08025G35KT 9999 FEW016CB 27/21 Q1012,FMSD,2022-10-31T15:00:00Z,-25.03,46.95,27.0,21.0,80,25,35,6.21,29.88189,,,,,,,,,,,FEW,1600,,,,,,,VFR,,,,,,,,,,,,METAR,7.0
FMNN 311500Z 23004KT 9999 FEW020 SCT100 27/// Q1014,FMNN,2022-10-31T15:00:00Z,-13.32,48.32,,,230,4,,6.21,29.940945,,,,,,,,,,,FEW,2000,SCT,10000,,,,,VFR,,,,,,,,,,,,METAR,10.0
FMNM 311500Z 34009KT 9999 FEW020 27/21 Q1013 NOSIG,FMNM,2022-10-31T15:00:00Z,-15.67,46.35,27.0,21.0,340,9,,6.21,29.911417,,,,,,TRUE,,,,,FEW,2000,,,,,,,VFR,,,,,,,,,,,,METAR,18.0
FMNA 311500Z 14012KT 9999 FEW020 25/17 Q1014,FMNA,2022-10-31T15:00:00Z,-12.33,49.28,25.0,17.0,140,12,,6.21,29.940945,,,,,,,,,,,FEW,2000,,,,,,,VFR,,,,,,,,,,,,METAR,108.0
FMMT 311500Z 09004KT 060V140 9999 SCT017 25/20 Q1017 NOSIG,FMMT,2022-10-31T15:00:00Z,-18.12,49.38,25.0,20.0,90,4,,6.21,30.029528,,,,,,TRUE,,,,,SCT,1700,,,,,,,VFR,,,,,,,,,,,,METAR,13.0
FMMS 311500Z 11004KT 9999 FEW020 25/21 Q1017,FMMS,2022-10-31T15:00:00Z,-17.08,49.82,25.0,21.0,110,4,,6.21,30.029528,,,,,,,,,,,FEW,2000,,,,,,,VFR,,,,,,,,,,,,METAR,4.0
FIMP 311500Z 01007KT 9999 VCSH SCT015 23/19 Q1020,FIMP,2022-10-31T15:00:00Z,-20.43,57.68,23.0,19.0,10,7,,6.21,30.11811,,,,,,,,,,VCSH,SCT,1500,,,,,,,VFR,,,,,,,,,,,,METAR,57.0
FGSL 311500Z 24009KT 9999 SCT010 FEW020CB 29/26 Q1009 NOSIG,FGSL,2022-10-31T15:00:00Z,3.75,8.72,29.0,26.0,240,9,,6.21,29.793306,,,,,,TRUE,,,,,SCT,1000,FEW,2000,,,,,VFR,,,,,,,,,,,,METAR,23.0
FGBT 311500Z 00000KT 9999 BKN010 FEW020CB 28/26 Q1008,FGBT,2022-10-31T15:00:00Z,1.9,9.8,28.0,26.0,0,0,,6.21,29.763779,,,,,,,,,,,BKN,1000,FEW,2000,,,,,MVFR,,,,,,,,,,,,METAR,2.0
FBSK 311500Z 26006KT 230V310 9999 FEW030 FEW035CB SCT070 32/11 Q1014 NOSIG,FBSK,2022-10-31T15:00:00Z,-24.55,25.92,32.0,11.0,260,6,,6.21,29.940945,,,,,,TRUE,,,,,FEW,3000,FEW,3500,SCT,7000,,,VFR,,,,,,,,,,,,METAR,1007.0
FBPM 311500Z 20006KT 170V230 9999 FEW030CB BKN070 29/14 Q1015,FBPM,2022-10-31T15:00:00Z,-21.17,27.48,29.0,14.0,200,6,,6.21,29.970472,,,,,,,,,,,FEW,3000,BKN,7000,,,,,VFR,,,,,,,,,,,,METAR,1009.0
FBMN 311500Z 03004KT CAVOK 31/14 Q1013,FBMN,2022-10-31T15:00:00Z,-19.97,23.42,31.0,14.0,30,4,,6.21,29.911417,,,,,,,,,,,CAVOK,,,,,,,,VFR,,,,,,,,,,,,METAR,946.0
FAWK 311500Z AUTO 17008KT //// // ////// 19/12 Q1022,FAWK,2022-10-31T15:00:00Z,-25.82,28.22,19.0,12.0,170,8,,,30.177166,,,TRUE,,,,,,,,,,,,,,,,,,,,,,,,,,,,METAR,1496.0
FAWB 311500Z AUTO 15011KT //// // ////// 18/15 Q1018,FAWB,2022-10-31T15:00:00Z,-25.65,28.22,18.0,15.0,150,11,,,30.059055,,,TRUE,,,,,,,,,,,,,,,,,,,,,,,,,,,,METAR,1245.0
FAUT 311500Z 17006KT 5000 BR BKN010 12/10 Q1024,FAUT,2022-10-31T15:00:00Z,-31.53,28.67,12.0,10.0,170,6,,3.11,30.236221,,,,,,,,,,BR,BKN,1000,,,,,,,MVFR,,,,,,,,,,,,METAR,735.0
FAUP 311500Z 20009KT 9999 SCT050 FEW100 30/M00 Q1014 NOSIG,FAUP,2022-10-31T15:00:00Z,-28.38,21.27,30.0,0.0,200,9,,6.21,29.940945,,,,,,TRUE,,,,,SCT,5000,FEW,10000,,,,,VFR,,,,,,,,,,,,METAR,845.0
FASI 311500Z AUTO 04008G21KT //// // ////// 17/12 Q1024,FASI,2022-10-31T15:00:00Z,-26.25,28.4,17.0,12.0,40,8,21,,30.236221,,,TRUE,,,,,,,,,,,,,,,,,,,,,,,,,,,,METAR,1627.0
FAPP 311500Z 07007KT 7000 -RA FEW025 BKN120 19/17 Q1022 NOSIG,FAPP,2022-10-31T15:00:00Z,-23.83,29.45,19.0,17.0,70,7,,4.35,30.177166,,,,,,TRUE,,,,-RA,FEW,2500,BKN,12000,,,,,MVFR,,,,,,,,,,,,METAR,1238.0
FAPE 311500Z 15012KT 120V180 9999 FEW018 16/11 Q1025 NOSIG,FAPE,2022-10-31T15:00:00Z,-33.98,25.6,16.0,11.0,150,12,,6.21,30.265747,,,,,,TRUE,,,,,FEW,1800,,,,,,,VFR,,,,,,,,,,,,METAR,58.0
FAMM 311500Z 18009KT 9999 FEW030 BKN080 29/M00 Q1018 NOSIG,FAMM,2022-10-31T15:00:00Z,-25.8,25.53,29.0,0.0,180,9,,6.21,30.059055,,,,,,TRUE,,,,,FEW,3000,BKN,8000,,,,,VFR,,,,,,,,,,,,METAR,1280.0
FALW 311500Z AUTO 19017KT //// // ////// 25/06 Q1015,FALW,2022-10-31T15:00:00Z,-32.97,18.17,25.0,6.0,190,17,,,29.970472,,,TRUE,,,,,,,,,,,,,,,,,,,,,,,,,,,,METAR,31.0
FALE 311500Z 13006KT 090V180 3000 RA BKN004 OVC014 16/14 Q1024 TEMPO 5000 -RA,FALE,2022-10-31T15:00:00Z,-29.62,31.12,16.0,14.0,130,6,,1.86,30.236221,,,,,,,,,,RA,BKN,400,OVC,1400,,,,,LIFR,,,,,,,,,,,,METAR,109.0
FALA 311500Z VRB04KT 9999 VCTS FEW030 FEW040CB 17/14 Q1020 NOSIG,FALA,2022-10-31T15:00:00Z,-25.93,27.92,17.0,14.0,0,4,,6.21,30.11811,,,,,,TRUE,,,,VCTS,FEW,3000,FEW,4000,,,,,VFR,,,,,,,,,,,,METAR,1365.0
FAKN 311500Z AUTO 15004KT //// // ////// 17/15 Q1022,FAKN,2022-10-31T15:00:00Z,-25.38,31.1,17.0,15.0,150,4,,,30.177166,,,TRUE,,,,,,,,,,,,,,,,,,,,,,,,,,,,METAR,864.0
FAKM 311500Z 20004KT CAVOK 28/04 Q1016,FAKM,2022-10-31T15:00:00Z,-28.8,24.77,28.0,4.0,200,4,,6.21,30.0,,,,,,,,,,,CAVOK,,,,,,,,VFR,,,,,,,,,,,,METAR,1203.0
FAJB 311500Z AUTO 25001KT //// // ////// 16/13 Q1020,FAJB,2022-10-31T15:00:00Z,-26.15,28.0,16.0,13.0,250,1,,,30.11811,,,TRUE,,,,,,,,,,,,,,,,,,,,,,,,,,,,METAR,1626.0
FAHS 311500Z AUTO 17012G22KT //// // ////// 22/17 Q1019,FAHS,2022-10-31T15:00:00Z,-24.37,31.03,22.0,17.0,170,12,22,,30.088583,,,TRUE,,,,,,,,,,,,,,,,,,,,,,,,,,,,METAR,532.0
FAGG 311500Z 12012KT 9999 FEW035 16/09 Q1024,FAGG,2022-10-31T15:00:00Z,-34.0,22.37,16.0,9.0,120,12,,6.21,30.236221,,,,,,,,,,,FEW,3500,,,,,,,VFR,,,,,,,,,,,,METAR,196.0
FAEL 311500Z 20008KT 160V240 3600 RA BKN027 14/13 Q1025,FAEL,2022-10-31T15:00:00Z,-33.03,27.82,14.0,13.0,200,8,,2.24,30.265747,,,,,,,,,,RA,BKN,2700,,,,,,,IFR,,,,,,,,,,,,METAR,127.0
FACT 311500Z 16024KT CAVOK 22/09 Q1018 NOSIG,FACT,2022-10-31T15:00:00Z,-33.97,18.6,22.0,9.0,160,24,,6.21,30.059055,,,,,,TRUE,,,,,CAVOK,,,,,,,,VFR,,,,,,,,,,,,METAR,48.0
FABL 311500Z 24010KT 9999 FEW040 26/03 Q1018 NOSIG,FABL,2022-10-31T15:00:00Z,-29.1,26.3,26.0,3.0,240,10,,6.21,30.059055,,,,,,TRUE,,,,,FEW,4000,,,,,,,VFR,,,,,,,,,,,,METAR,1348.0
EPRA 311500Z 14005KT 0200 FG OVC002 12/12 Q1021,EPRA,2022-10-31T15:00:00Z,51.38,21.22,12.0,12.0,140,5,,0.12,30.147638,,,,,,,,,,FG,OVC,200,,,,,,,LIFR,,,,,,,,,,,,METAR,182.0
EISG 311500Z VRB03KT 9999 FEW013 SCT039 11/10 Q1000,EISG,2022-10-31T15:00:00Z,54.28,-8.6,11.0,10.0,0,3,,6.21,29.52756,,,,,,,,,,,FEW,1300,SCT,3900,,,,,VFR,,,,,,,,,,,,METAR,1.0
EIME 311500Z 18009KT 9999 -RA FEW018 SCT045 BKN060 15/10 Q1002,EIME,2022-10-31T15:00:00Z,53.3,-6.45,15.0,10.0,180,9,,6.21,29.586615,,,,,,,,,,-RA,FEW,1800,SCT,4500,BKN,6000,,,VFR,,,,,,,,,,,,METAR,90.0
DXXX 311500Z 18008KT 140V210 9999 FEW016 FEW020CB 31/25 Q1009 NOSIG,DXXX,2022-10-31T15:00:00Z,6.17,1.25,31.0,25.0,180,8,,6.21,29.793306,,,,,,TRUE,,,,,FEW,1600,FEW,2000,,,,,VFR,,,,,,,,,,,,METAR,22.0
DXSK 311500Z 08008KT 9999 FEW016 BKN260 34/23 Q////,DXSK,2022-10-31T15:00:00Z,9.0,1.15,34.0,23.0,80,8,,6.21,,,,,,,,,,,,FEW,1600,BKN,26000,,,,,VFR,,,,,,,,,,,,METAR,381.0
DXNG 311500Z 10006KT 9999 FEW010 33/15 Q1011,DXNG,2022-10-31T15:00:00Z,9.77,1.1,33.0,15.0,100,6,,6.21,29.852362,,,,,,,,,,,FEW,1000,,,,,,,VFR,,,,,,,,,,,,METAR,343.0
DTTZ 311500Z 27004KT 220V320 CAVOK 27/11 Q1020,DTTZ,2022-10-31T15:00:00Z,33.93,8.1,27.0,11.0,270,4,,6.21,30.11811,,,,,,,,,,,CAVOK,,,,,,,,VFR,,,,,,,,,,,,METAR,87.0
DTTX 311500Z 18008KT 150V210 9999 FEW030 25/14 Q1021,DTTX,2022-10-31T15:00:00Z,34.72,10.68,25.0,14.0,180,8,,6.21,30.147638,,,,,,,,,,,FEW,3000,,,,,,,VFR,,,,,,,,,,,,METAR,17.0
DTTR 311500Z 01006KT 330V050 CAVOK 26/09 Q1022,DTTR,2022-10-31T15:00:00Z,31.7,9.27,26.0,9.0,10,6,,6.21,30.177166,,,,,,,,,,,CAVOK,,,,,,,,VFR,,,,,,,,,,,,METAR,253.0
DTTN 311500Z 07002KT 9999 FEW020 29/03 Q1018,DTTN,2022-10-31T15:00:00Z,36.47,8.8,29.0,3.0,70,2,,6.21,30.059055,,,,,,,,,,,FEW,2000,,,,,,,VFR,,,,,,,,,,,,METAR,145.0
DTTL 311500Z VRB02KT 9999 FEW020 25/18 Q1021,DTTL,2022-10-31T15:00:00Z,36.85,11.07,25.0,18.0,0,2,,6.21,30.147638,,,,,,,,,,,FEW,2000,,,,,,,VFR,,,,,,,,,,,,METAR,18.0
DTTK 311500Z VRB03KT 9999 FEW023 29/10 Q1020,DTTK,2022-10-31T15:00:00Z,35.67,10.08,29.0,10.0,0,3,,6.21,30.11811,,,,,,,,,,,FEW,2300,,,,,,,VFR,,,,,,,,,,,,METAR,65.0
DTTJ 311500Z 06007KT 030V100 CAVOK 25/12 Q1021 NOSIG,DTTJ,2022-10-31T15:00:00Z,33.87,10.77,25.0,12.0,60,7,,6.21,30.147638,,,,,,TRUE,,,,,CAVOK,,,,,,,,VFR,,,,,,,,,,,,METAR,3.0
DTTG 311500Z VRB02KT 9999 FEW020 27/12 Q1021 NOSIG,DTTG,2022-10-31T15:00:00Z,33.73,9.92,27.0,12.0,0,2,,6.21,30.147638,,,,,,TRUE,,,,,FEW,2000,,,,,,,VFR,,,,,,,,,,,,METAR,120.0
DTTF 311500Z 22007KT 200V270 8000 NSC 25/11 Q1022 NOSIG,DTTF,2022-10-31T15:00:00Z,34.42,8.82,25.0,11.0,220,7,,4.97,30.177166,,,,,,TRUE,,,,,CLR,,,,,,,,MVFR,,,,,,,,,,,,METAR,314.0
DTTD 311500Z 06004KT 330V130 CAVOK 25/05 Q1022,DTTD,2022-10-31T15:00:00Z,32.32,10.4,25.0,5.0,60,4,,6.21,30.177166,,,,,,,,,,,CAVOK,,,,,,,,VFR,,,,,,,,,,,,METAR,306.0
DTTB 311500Z 05015KT CAVOK 25/18 Q1020,DTTB,2022-10-31T15:00:00Z,37.25,9.8,25.0,18.0,50,15,,6.21,30.11811,,,,,,,,,,,CAVOK,,,,,,,,VFR,,,,,,,,,,,,METAR,4.0
DTKA 311500Z 28003KT 230V320 9999 FEW020 25/18 Q1019 NOSIG,DTKA,2022-10-31T15:00:00Z,36.98,8.88,25.0,18.0,280,3,,6.21,30.088583,,,,,,TRUE,,,,,FEW,2000,,,,,,,VFR,,,,,,,,,,,,METAR,70.0
DRZR 311500Z 02008KT CAVOK 34/05 Q1013,DRZR,2022-10-31T15:00:00Z,13.77,8.98,34.0,5.0,20,8,,6.21,29.911417,,,,,,,,,,,CAVOK,,,,,,,,VFR,,,,,,,,,,,,METAR,457.0
DRZA 311500Z 10012KT CAVOK 32/06 Q1014,DRZA,2022-10-31T15:00:00Z,16.97,8.0,32.0,6.0,100,12,,6.21,29.940945,,,,,,,,,,,CAVOK,,,,,,,,VFR,,,,,,,,,,,,METAR,506.0
DRRT 311500Z 14008KT CAVOK 34/04 Q1012,DRRT,2022-10-31T15:00:00Z,14.87,5.27,34.0,4.0,140,8,,6.21,29.88189,,,,,,,,,,,CAVOK,,,,,,,,VFR,,,,,,,,,,,,METAR,387.0
DRRN 311500Z 09010KT CAVOK 36/01 Q1011 NOSIG,DRRN,2022-10-31T15:00:00Z,13.47,2.17,36.0,1.0,90,10,,6.21,29.852362,,,,,,TRUE,,,,,CAVOK,,,,,,,,VFR,,,,,,,,,,,,METAR,223.0
DRRM 311500Z 08012KT CAVOK 34/07 Q1011,DRRM,2022-10-31T15:00:00Z,13.5,7.12,34.0,7.0,80,12,,6.21,29.852362,,,,,,,,,,,CAVOK,,,,,,,,VFR,,,,,,,,,,,,METAR,374.0
DNYO 311500Z 03013KT 9000 NSC 34/13 Q1011,DNYO,2022-10-31T15:00:00Z,9.27,12.42,34.0,13.0,30,13,,5.59,29.852362,,,,,,,,,,,CLR,,,,,,,,VFR,,,,,,,,,,,,METAR,178.0
DNMM 311500Z 19004KT 9999 BKN013 FEW020CB 29/24 Q1010 NOSIG,DNMM,2022-10-31T15:00:00Z,6.57,3.32,29.0,24.0,190,4,,6.21,29.822834,,,,,,TRUE,,,,,BKN,1300,FEW,2000,,,,,MVFR,,,,,,,,,,,,METAR,27.0
DNKT 311500Z 11007KT CAVOK 33/09 Q1013,DNKT,2022-10-31T15:00:00Z,13.0,7.67,33.0,9.0,110,7,,6.21,29.911417,,,,,,,,,,,CAVOK,,,,,,,,VFR,,,,,,,,,,,,METAR,504.0
DNKN 311500Z 04009KT CAVOK 32/10 Q1014 NOSIG,DNKN,2022-10-31T15:00:00Z,12.05,8.52,32.0,10.0,40,9,,6.21,29.940945,,,,,,TRUE,,,,,CAVOK,,,,,,,,VFR,,,,,,,,,,,,METAR,471.0
DNJO 311500Z 08011KT CAVOK 27/08 Q1017,DNJO,2022-10-31T15:00:00Z,9.87,8.9,27.0,8.0,80,11,,6.21,30.029528,,,,,,,,,,,CAVOK,,,,,,,,VFR,,,,,,,,,,,,METAR,1284.0
DNEN 311500Z 06004KT 9999 FEW015 33/21 Q1009 NOSIG,DNEN,2022-10-31T15:00:00Z,6.47,7.55,33.0,21.0,60,4,,6.21,29.793306,,,,,,TRUE,,,,,FEW,1500,,,,,,,VFR,,,,,,,,,,,,METAR,142.0
DNAA 311500Z 11007KT 7000 NSC 34/14 Q1010 NOSIG,DNAA,2022-10-31T15:00:00Z,9.0,7.27,34.0,14.0,110,7,,4.35,29.822834,,,,,,TRUE,,,,,CLR,,,,,,,,MVFR,,,,,,,,,,,,METAR,338.0
DIYO 311500Z 10006KT 9999 FEW016 32/23 Q1009 NOSIG,DIYO,2022-10-31T15:00:00Z,6.9,-5.35,32.0,23.0,100,6,,6.21,29.793306,,,,,,TRUE,,,,,FEW,1600,,,,,,,VFR,,,,,,,,,,,,METAR,202.0
DIBK 311500Z 10006KT 9999 BKN016 32/21 Q1010 NOSIG,DIBK,2022-10-31T15:00:00Z,7.73,-5.07,32.0,21.0,100,6,,6.21,29.822834,,,,,,TRUE,,,,,BKN,1600,,,,,,,MVFR,,,,,,,,,,,,METAR,363.0
DGAA 311500Z 15007KT 110V190 9999 FEW015 FEW030CB 28/24 Q1009 NOSIG,DGAA,2022-10-31T15:00:00Z,5.58,-0.17,28.0,24.0,150,7,,6.21,29.793306,,,,,,TRUE,,,,,FEW,1500,FEW,3000,,,,,VFR,,,,,,,,,,,,METAR,68.0
DFOO 311500Z 08006KT 040V120 9999 FEW026 34/11 Q1011,DFOO,2022-10-31T15:00:00Z,11.17,-4.32,34.0,11.0,80,6,,6.21,29.852362,,,,,,,,,,,FEW,2600,,,,,,,VFR,,,,,,,,,,,,METAR,461.0
DFFD 311500Z 09009KT 030V140 CAVOK 36/09 Q1010 NOSIG,DFFD,2022-10-31T15:00:00Z,12.35,-1.52,36.0,9.0,90,9,,6.21,29.822834,,,,,,TRUE,,,,,CAVOK,,,,,,,,VFR,,,,,,,,,,,,METAR,309.0
DBBB 311500Z 16008KT 130V190 9999 TS SCT012 FEW020CB 30/24 Q1009 NOSIG,DBBB,2022-10-31T15:00:00Z,6.35,2.38,30.0,24.0,160,8,,6.21,29.793306,,,,,,TRUE,,,,TS,SCT,1200,FEW,2000,,,,,VFR,,,,,,,,,,,,METAR,4.0
DAUZ 311500Z 05004KT CAVOK 26/M02 Q1021,DAUZ,2022-10-31T15:00:00Z,28.05,9.63,26.0,-2.0,50,4,,6.21,30.147638,,,,,,,,,,,CAVOK,,,,,,,,VFR,,,,,,,,,,,,METAR,567.0
DAUU 311500Z 00000KT CAVOK 28/01 Q1020,DAUU,2022-10-31T15:00:00Z,31.92,5.4,28.0,1.0,0,0,,6.21,30.11811,,,,,,,,,,,CAVOK,,,,,,,,VFR,,,,,,,,,,,,METAR,147.0
DAUT 311500Z 07014KT CAVOK 30/M04 Q1019,DAUT,2022-10-31T15:00:00Z,29.25,0.27,30.0,-4.0,70,14,,6.21,30.088583,,,,,,,,,,,CAVOK,,,,,,,,VFR,,,,,,,,,,,,METAR,307.0
DAUO 311500Z 27003KT 200V330 CAVOK 28/05 Q1021,DAUO,2022-10-31T15:00:00Z,33.5,6.78,28.0,5.0,270,3,,6.21,30.147638,,,,,,,,,,,CAVOK,,,,,,,,VFR,,,,,,,,,,,,METAR,55.0
DAUL 311500Z 22010KT CAVOK 27/04 Q1022,DAUL,2022-10-31T15:00:00Z,33.77,2.92,27.0,4.0,220,10,,6.21,30.177166,,,,,,,,,,,CAVOK,,,,,,,,VFR,,,,,,,,,,,,METAR,755.0
DAUK 311500Z 22003KT CAVOK 29/04 Q1021,DAUK,2022-10-31T15:00:00Z,33.08,6.08,29.0,4.0,220,3,,6.21,30.147638,,,,,,,,,,,CAVOK,,,,,,,,VFR,,,,,,,,,,,,METAR,83.0
DAUI 311500Z 09010KT CAVOK 32/M04 Q1016,DAUI,2022-10-31T15:00:00Z,27.25,2.52,32.0,-4.0,90,10,,6.21,30.0,,,,,,,,,,,CAVOK,,,,,,,,VFR,,,,,,,,,,,,METAR,271.0
DAUH 311500Z 01003KT CAVOK 28/04 Q1021,DAUH,2022-10-31T15:00:00Z,31.67,6.15,28.0,4.0,10,3,,6.21,30.147638,,,,,,,,,,,CAVOK,,,,,,,,VFR,,,,,,,,,,,,METAR,141.0
DAUG 311500Z VRB03KT CAVOK 27/M02 Q1023,DAUG,2022-10-31T15:00:00Z,32.38,3.78,27.0,-2.0,0,3,,6.21,30.206694,,,,,,,,,,,CAVOK,,,,,,,,VFR,,,,,,,,,,,,METAR,444.0
DAUE 311500Z 06005KT CAVOK 28/00 Q1022,DAUE,2022-10-31T15:00:00Z,30.57,2.87,28.0,0.0,60,5,,6.21,30.177166,,,,,,,,,,,CAVOK,,,,,,,,VFR,,,,,,,,,,,,METAR,396.0
DAUB 311500Z VRB02KT CAVOK 28/04 Q1020,DAUB,2022-10-31T15:00:00Z,34.78,5.73,28.0,4.0,0,2,,6.21,30.11811,,,,,,,,,,,CAVOK,,,,,,,,VFR,,,,,,,,,,,,METAR,75.0
DAUA 311500Z 01015KT CAVOK 31/// Q1018,DAUA,2022-10-31T15:00:00Z,27.83,-0.18,,,10,15,,6.21,30.059055,,,,,,,,,,,CAVOK,,,,,,,,VFR,,,,,,,,,,,,METAR,278.0
DATM 311500Z 06009KT 030V090 CAVOK 33/M02 Q1016,DATM,2022-10-31T15:00:00Z,21.38,0.92,33.0,-2.0,60,9,,6.21,30.0,,,,,,,,,,,CAVOK,,,,,,,,VFR,,,,,,,,,,,,METAR,398.0
DAOY 311500Z 24004KT CAVOK 24/M07 Q1025,DAOY,2022-10-31T15:00:00Z,33.72,1.08,24.0,-7.0,240,4,,6.21,30.265747,,,,,,,,,,,CAVOK,,,,,,,,VFR,,,,,,,,,,,,METAR,1340.0
DAOV 311500Z 02005KT CAVOK 32/// Q1019,DAOV,2022-10-31T15:00:00Z,35.2,0.15,,,20,5,,6.21,30.088583,,,,,,,,,,,CAVOK,,,,,,,,VFR,,,,,,,,,,,,METAR,506.0
DAOR 311500Z 27006KT 9999 FEW033 27/M03 Q1023,DAOR,2022-10-31T15:00:00Z,31.65,-2.27,27.0,-3.0,270,6,,6.21,30.206694,,,,,,,,,,,FEW,3300,,,,,,,VFR,,,,,,,,,,,,METAR,809.0
DAOL 311500Z 33004KT 8000 NSC 32/09 Q1018,DAOL,2022-10-31T15:00:00Z,35.53,-0.52,32.0,9.0,330,4,,4.97,30.059055,,,,,,,,,,,CLR,,,,,,,,MVFR,,,,,,,,,,,,METAR,103.0
DAOI 311500Z 20004KT CAVOK 31/M05 Q1019,DAOI,2022-10-31T15:00:00Z,36.22,1.32,31.0,-5.0,200,4,,6.21,30.088583,,,,,,,,,,,CAVOK,,,,,,,,VFR,,,,,,,,,,,,METAR,141.0
DAOF 311500Z 07008KT CAVOK 31/M04 Q1020,DAOF,2022-10-31T15:00:00Z,27.7,-8.17,31.0,-4.0,70,8,,6.21,30.11811,,,,,,,,,,,CAVOK,,,,,,,,VFR,,,,,,,,,,,,METAR,441.0
DAOB 311500Z 09003KT CAVOK 27/// Q1023,DAOB,2022-10-31T15:00:00Z,35.33,1.47,,,90,3,,6.21,30.206694,,,,,,,,,,,CAVOK,,,,,,,,VFR,,,,,,,,,,,,METAR,976.0
DAFH 311500Z 22008KT CAVOK 26/M02 Q1024,DAFH,2022-10-31T15:00:00Z,32.93,3.32,26.0,-2.0,220,8,,6.21,30.236221,,,,,,,,,,,CAVOK,,,,,,,,VFR,,,,,,,,,,,,METAR,774.0
DABT 311500Z 28007KT CAVOK 27/M03 Q1023,DABT,2022-10-31T15:00:00Z,35.75,6.32,27.0,-3.0,280,7,,6.21,30.206694,,,,,,,,,,,CAVOK,,,,,,,,VFR,,,,,,,,,,,,METAR,813.0
DABS 311500Z 36005KT CAVOK 25/// Q1023,DABS,2022-10-31T15:00:00Z,35.43,8.12,,,360,5,,6.21,30.206694,,,,,,,,,,,CAVOK,,,,,,,,VFR,,,,,,,,,,,,METAR,806.0
DAAY 311500Z 20008KT CAVOK 26/M07 Q1025,DAAY,2022-10-31T15:00:00Z,33.53,-0.25,26.0,-7.0,200,8,,6.21,30.265747,,,,,,,,,,,CAVOK,,,,,,,,VFR,,,,,,,,,,,,METAR,1116.0
DAAV 311500Z 36004KT 330V030 7000 NSC 24/13 Q1019,DAAV,2022-10-31T15:00:00Z,36.8,5.88,24.0,13.0,360,4,,4.35,30.088583,,,,,,,,,,,CLR,,,,,,,,MVFR,,,,,,,,,,,,METAR,11.0
DAAS 311500Z 26004KT CAVOK 25/M09 Q1023,DAAS,2022-10-31T15:00:00Z,36.18,5.33,25.0,-9.0,260,4,,6.21,30.206694,,,,,,,,,,,CAVOK,,,,,,,,VFR,,,,,,,,,,,,METAR,1012.0
DAAP 311500Z 03006KT CAVOK 28/M02 Q1020,DAAP,2022-10-31T15:00:00Z,26.72,8.62,28.0,-2.0,30,6,,6.21,30.11811,,,,,,,,,,,CAVOK,,,,,,,,VFR,,,,,,,,,,,,METAR,542.0
DAAJ 311500Z 06011KT CAVOK 25/M03 Q1021,DAAJ,2022-10-31T15:00:00Z,24.28,9.47,25.0,-3.0,60,11,,6.21,30.147638,,,,,,,,,,,CAVOK,,,,,,,,VFR,,,,,,,,,,,,METAR,962.0
DAAE 311500Z 09005KT 8000 NSC 23/17 Q1019,DAAE,2022-10-31T15:00:00Z,36.72,5.07,23.0,17.0,90,5,,4.97,30.088583,,,,,,,,,,,CLR,,,,,,,,MVFR,,,,,,,,,,,,METAR,1.0
DAAD 311500Z VRB02KT 8000 NSC 25/06 Q1023,DAAD,2022-10-31T15:00:00Z,35.32,4.2,25.0,6.0,0,2,,4.97,30.206694,,,,,,,,,,,CLR,,,,,,,,MVFR,,,,,,,,,,,,METAR,461.0
CZZJ 311500Z AUTO 13001KT M02/M07 RMK AO1 SLP059 T10181074 53003,CZZJ,2022-10-31T15:00:00Z,53.58,-116.47,-1.8,-7.4,130,1,,,,1005.9,,TRUE,TRUE,,,,,,,,,,,,,,,,0.3,,,,,,,,,,,METAR,927.0
CZVL 311500Z AUTO 23007KT 9SM OVC150 M02/M06 A2963 RMK SLP059,CZVL,2022-10-31T15:00:00Z,53.67,-113.85,-2.0,-6.0,230,7,,9.0,29.630905,1005.9,,TRUE,,,,,,,,OVC,15000,,,,,,,VFR,,,,,,,,,,,,METAR,685.0
CZUM 311500Z AUTO 32012G19KT 9SM BKN026 02/M02 A2978 RMK SLP108,CZUM,2022-10-31T15:00:00Z,53.55,-64.1,2.0,-2.0,320,12,19,9.0,29.778543,1010.8,,TRUE,,,,,,,,BKN,2600,,,,,,,MVFR,,,,,,,,,,,,METAR,431.0
CZTB 311500Z AUTO 24003KT 03/M01 RMK AO1 SLP108 T00311009 56003,CZTB,2022-10-31T15:00:00Z,48.37,-89.32,3.1,-0.9,240,3,,,,1010.8,,TRUE,TRUE,,,,,,,,,,,,,,,,-0.3,,,,,,,,,,,METAR,197.0
CZSP 311500Z AUTO 25012G18KT 16/06 RMK AO1 PK WND 25018/1451 SLP146 T01580056 56002,CZSP,2022-10-31T15:00:00Z,46.45,-62.58,15.8,5.6,250,12,18,,,1014.6,,TRUE,TRUE,,,,,,,,,,,,,,,,-0.2,,,,,,,,,,,METAR,31.0
CZSM 311500Z AUTO 02003KT M06/M08 RMK AO1 SOG 03 1028 SLP033 T10641078 50002,CZSM,2022-10-31T15:00:00Z,60.03,-111.93,-6.4,-7.8,20,3,,,,1003.3,,TRUE,TRUE,,,,,,,,,,,,,,,,0.2,,,,,,,,,,,METAR,203.0
CZSJ 311500Z AUTO 21006KT 160V250 9SM FEW100 SCT120 SCT140 BKN170 07/M01 A2941 RMK SLP971,CZSJ,2022-10-31T15:00:00Z,53.07,-93.35,7.0,-1.0,210,6,,9.0,29.409449,997.1,,TRUE,,,,,,,,FEW,10000,SCT,12000,SCT,14000,BKN,17000,VFR,,,,,,,,,,,,METAR,286.0
CZRP 311500Z AUTO 34020KT M21/M22 RMK AO1 SOG 52 3004 PK WND 34026/1408 SLP054 T12061215,CZRP,2022-10-31T15:00:00Z,75.37,-105.72,-20.6,-21.5,340,20,,,,1005.4,,TRUE,TRUE,,,,,,,,,,,,,,,,,,,,,,,,,,,METAR,6.0
CZPS 311500Z AUTO 22010KT 00/M02 RMK AO1 T00001016,CZPS,2022-10-31T15:00:00Z,52.43,-113.6,0.0,-1.6,220,10,,,,,,TRUE,TRUE,,,,,,,,,,,,,,,,,,,,,,,,,,,METAR,953.0
CZPC 311500Z AUTO 14007KT 100V170 9SM -RA BKN050 OVC076 03/01 A2965 RMK SLP060,CZPC,2022-10-31T15:00:00Z,49.52,-114.0,3.0,1.0,140,7,,9.0,29.648623,1006.0,,TRUE,,,,,,,-RA,BKN,5000,OVC,7600,,,,,VFR,,,,,,,,,,,,METAR,1187.0
CZOL 311500Z AUTO 24003KT M00/M06 RMK AO1 T10041055,CZOL,2022-10-31T15:00:00Z,53.65,-113.35,-0.4,-5.5,240,3,,,,,,TRUE,TRUE,,,,,,,,,,,,,,,,,,,,,,,,,,,METAR,645.0
CZMT 311500Z 19005KT 15SM SCT060 BKN140 02/01 A2963 RMK SC4AC3 SLP036,CZMT,2022-10-31T15:00:00Z,54.03,-132.13,2.0,1.0,190,5,,15.0,29.630905,1003.6,,,,,,,,,,SCT,6000,BKN,14000,,,,,VFR,,,,,,,,,,,,METAR,11.0
CZMJ 311500Z AUTO 28007KT 03/M00 RMK AO1 SLP080 T00251004 51013,CZMJ,2022-10-31T15:00:00Z,50.33,-105.53,2.5,-0.4,280,7,,,,1008.0,,TRUE,TRUE,,,,,,,,,,,,,,,,1.3,,,,,,,,,,,METAR,571.0
CZMD 311500Z AUTO 21013G19KT 9SM SCT150 06/M01 A2941 RMK SLP973,CZMD,2022-10-31T15:00:00Z,53.43,-91.77,6.0,-1.0,210,13,19,9.0,29.409449,997.3,,TRUE,,,,,,,,SCT,15000,,,,,,,VFR,,,,,,,,,,,,METAR,276.0
CZKD 311500Z AUTO 25005KT 02/01 RMK AO1 SLP905 T00190005 55014,CZKD,2022-10-31T15:00:00Z,56.03,-96.52,1.9,0.5,250,5,,,,990.5,,TRUE,TRUE,,,,,,,,,,,,,,,,-1.4,,,,,,,,,,,METAR,190.0
CZHY 311500Z AUTO 32007KT M03/M04 RMK AO1 SOG 06 1013 SLP042 T10251044,CZHY,2022-10-31T15:00:00Z,60.83,-115.78,-2.5,-4.4,320,7,,,,1004.2,,TRUE,TRUE,,,,,,,,,,,,,,,,,,,,,,,,,,,METAR,159.0
CZFS 311500Z AUTO 29005KT M06/M07 RMK AO1 3PAST HR SOG 11 3011 SLP052 P0001 T10601073 50005,CZFS,2022-10-31T15:00:00Z,61.77,-121.23,-6.0,-7.3,290,5,,,,1005.2,,TRUE,TRUE,,,,,,,,,,,,,,,,0.5,,,,,0.01,,,,,,METAR,174.0
CZFM 311500Z 33003KT 10SM -SN OVC020 M13/M16 A3005 RMK SC8 SLP182,CZFM,2022-10-31T15:00:00Z,67.4,-134.87,-13.0,-16.0,330,3,,10.0,30.050198,1018.2,,,,,,,,,-SN,OVC,2000,,,,,,,MVFR,,,,,,,,,,,,METAR,33.0
CZFA 311500Z 31007G15KT 2SM -SN FEW010 BKN035 OVC070 M06/M07 A2940 RMK SC2SC4AC2 PCPN VRY LGT VIS RDCD BY LW CLDS SLP004,CZFA,2022-10-31T15:00:00Z,62.2,-133.38,-6.0,-7.0,310,7,15,2.0,29.40059,1000.4,,,,,,,,,-SN,FEW,1000,BKN,3500,OVC,7000,,,IFR,,,,,,,,,,,,METAR,702.0
CZEV 311500Z AUTO 31003KT M14/M15 RMK AO1 SOG 09 3013 SLP181 T11381153,CZEV,2022-10-31T15:00:00Z,68.32,-133.48,-13.8,-15.3,310,3,,,,1018.1,,TRUE,TRUE,,,,,,,,,,,,,,,,,,,,,,,,,,,METAR,92.0
CZEM 311500Z 15006KT 110V170 15SM SCT240 06/02 A2988 RMK CI4 SLP121,CZEM,2022-10-31T15:00:00Z,52.22,-78.52,6.0,2.0,150,6,,15.0,29.878937,1012.1,,,,,,,,,,SCT,24000,,,,,,,VFR,,,,,,,,,,,,METAR,9.0
CZEL 311500Z AUTO 12003KT 09/08 RMK AO1 1PAST HR 8002 SLP137 P0000 T00850080 50021,CZEL,2022-10-31T15:00:00Z,43.65,-80.42,8.5,8.0,120,3,,,,1013.7,,TRUE,TRUE,,,,,,,,,,,,,,,,2.1,,,,,0.005,,,,,,METAR,370.0
CZDB 311500Z AUTO 06001KT 08/ RMK AO1 SLP179 T0084 58005,CZDB,2022-10-31T15:00:00Z,45.42,-63.47,8.4,,60,1,,,,1017.9,,TRUE,TRUE,,,,,,,,,,,,,,,,-0.5,,,,,,,,,,,METAR,38.0
CZCR 311500Z AUTO 26007KT 14/02 RMK AO1 SLP139 T01360015 50002,CZCR,2022-10-31T15:00:00Z,47.98,-66.33,13.6,1.5,260,7,,,,1013.9,,TRUE,TRUE,,,,,,,,,,,,,,,,0.2,,,,,,,,,,,METAR,39.0
CZBF 311500Z AUTO 24007KT 9SM CLR 12/01 A2995 RMK SLP146,CZBF,2022-10-31T15:00:00Z,47.62,-65.75,12.0,1.0,240,7,,9.0,29.949802,1014.6,,TRUE,,,,,,,,CLR,,,,,,,,VFR,,,,,,,,,,,,METAR,60.0
CYZX 311500Z 23008KT 15SM BKN250 13/08 A3005 RMK CI6 SLP175,CYZX,2022-10-31T15:00:00Z,44.98,-64.92,13.0,8.0,230,8,,15.0,30.050198,1017.5,,,,,,,,,,BKN,25000,,,,,,,VFR,,,,,,,,,,,,METAR,28.0
CYZV 311500Z 33010G20KT 30SM FEW035 SCT240 12/M00 A2987 RMK SC1CI3 SC TR SLP120,CYZV,2022-10-31T15:00:00Z,50.22,-66.27,12.0,0.0,330,10,20,30.0,29.870079,1012.0,,,,,,,,,,FEW,3500,SCT,24000,,,,,VFR,,,,,,,,,,,,METAR,43.0
CYZU 311500Z 24007KT 15SM FEW140 M03/M10 A2961 RMK AC2 SLP060,CYZU,2022-10-31T15:00:00Z,54.15,-115.78,-3.0,-10.0,240,7,,15.0,29.610237,1006.0,,,,,,,,,,FEW,14000,,,,,,,VFR,,,,,,,,,,,,METAR,785.0
CYZH 311500Z AUTO 26007KT 9SM CLR 00/M08 A2957 RMK SLP038,CYZH,2022-10-31T15:00:00Z,55.28,-114.77,0.0,-8.0,260,7,,9.0,29.568897,1003.8,,TRUE,,,,,,,,CLR,,,,,,,,VFR,,,,,,,,,,,,METAR,583.0
CYZG 311500Z 22011KT 10SM -SN BKN018 M07/M11 A2975 RMK SC7 SLP096,CYZG,2022-10-31T15:00:00Z,62.17,-75.67,-7.0,-11.0,220,11,,10.0,29.749016,1009.6,,,,,,,,,-SN,BKN,1800,,,,,,,MVFR,,,,,,,,,,,,METAR,217.0
CYYY 311500Z 25011G16KT 30SM SCT240 13/02 A2996 RMK CI3 SLP147,CYYY,2022-10-31T15:00:00Z,48.6,-68.22,13.0,2.0,250,11,16,30.0,29.958662,1014.7,,,,,,,,,,SCT,24000,,,,,,,VFR,,,,,,,,,,,,METAR,43.0
CYYW 311500Z AUTO 20005KT 9SM CLR 06/M02 A2969 RMK SLP072,CYYW,2022-10-31T15:00:00Z,50.3,-88.9,6.0,-2.0,200,5,,9.0,29.68996,1007.2,,TRUE,,,,,,,,CLR,,,,,,,,VFR,,,,,,,,,,,,METAR,320.0
CYYU 311500Z 21003KT 15SM SCT230 06/04 A2980 RMK CI3 SLP101,CYYU,2022-10-31T15:00:00Z,49.42,-82.47,6.0,4.0,210,3,,15.0,29.799213,1010.1,,,,,,,,,,SCT,23000,,,,,,,VFR,,,,,,,,,,,,METAR,228.0
CYYT 311500Z 26017G26KT 15SM FEW160 FEW230 12/05 A2990 RMK AC1CI1 AC TR SLP132,CYYT,2022-10-31T15:00:00Z,47.62,-52.73,12.0,5.0,260,17,26,15.0,29.899607,1013.2,,,,,,,,,,FEW,16000,FEW,23000,,,,,VFR,,,,,,,,,,,,METAR,128.0
CYYQ 311500Z 23010KT 15SM SCT055 OVC084 M01/M03 A2916 RMK SC4AC4 SLP878,CYYQ,2022-10-31T15:00:00Z,58.75,-94.07,-1.0,-3.0,230,10,,15.0,29.161417,987.8,,,,,,,,,,SCT,5500,OVC,8400,,,,,VFR,,,,,,,,,,,,METAR,20.0
CYYN 311500Z AUTO 21004KT 160V250 9SM FEW066 BKN100 BKN120 01/M00 A2967 RMK ICE MISG SLP070,CYYN,2022-10-31T15:00:00Z,50.28,-107.68,1.0,0.0,210,4,,9.0,29.66929,1007.0,,TRUE,,,,,,,,FEW,6600,BKN,10000,BKN,12000,,,VFR,,,,,,,,,,,,METAR,814.0
CYYJ 311500Z CCA 16003KT 110V190 15SM -RA FEW007 SCT012 BKN064 OVC100 09/09 A2971 RMK SF1SC4SC2AC2 SF TR SLP062,CYYJ,2022-10-31T15:00:00Z,48.63,-123.42,9.0,9.0,160,3,,15.0,29.71063,1006.2,,,,,,,,,-RA,FEW,700,SCT,1200,BKN,6400,OVC,10000,VFR,,,,,,,,,,,,METAR,16.0
CYYH 311500Z 28013KT 12SM -SN FEW006 BKN017 OVC027 M15/M18 A2967 RMK ST2SC3SC3 CIG RAG SLP054,CYYH,2022-10-31T15:00:00Z,69.53,-93.57,-15.0,-18.0,280,13,,12.0,29.66929,1005.4,,,,,,,,,-SN,FEW,600,BKN,1700,OVC,2700,,,MVFR,,,,,,,,,,,,METAR,19.0
CYYG 311500Z 24011KT 15SM FEW100 BKN220 14/06 A2997 RMK AC2CI4 SLP151,CYYG,2022-10-31T15:00:00Z,46.28,-63.12,14.0,6.0,240,11,,15.0,29.970472,1015.1,,,,,,,,,,FEW,10000,BKN,22000,,,,,VFR,,,,,,,,,,,,METAR,48.0
CYYF 311500Z 18012KT 15SM FEW040 FEW050 BKN160 10/06 A2968 RMK SC1SC2AC5 SC TR SLP056 DENSITY ALT 1200FT,CYYF,2022-10-31T15:00:00Z,49.47,-119.6,10.0,6.0,180,12,,15.0,29.681103,1005.6,,,,,,,,,,FEW,4000,FEW,5000,BKN,16000,,,VFR,,,,,,,,,,,,METAR,342.0
CYYE 311500Z 00000KT 15SM SCT068 BKN170 M09/M10 A2957 RMK AC3AC3 SLP044,CYYE,2022-10-31T15:00:00Z,58.83,-122.58,-9.0,-10.0,0,0,,15.0,29.568897,1004.4,,,,,,,,,,SCT,6800,BKN,17000,,,,,VFR,,,,,,,,,,,,METAR,379.0
CYYC 311500Z 09004KT 10SM OVC038 01/M02 A2968 RMK SC8 SLP082,CYYC,2022-10-31T15:00:00Z,51.12,-114.02,1.0,-2.0,90,4,,10.0,29.681103,1008.2,,,,,,,,,,OVC,3800,,,,,,,VFR,,,,,,,,,,,,METAR,1085.0
CYYB 311500Z 13005KT 30SM BKN130 OVC220 08/04 A2988 RMK AC6CI2 SLP125,CYYB,2022-10-31T15:00:00Z,46.35,-79.42,8.0,4.0,130,5,,30.0,29.878937,1012.5,,,,,,,,,,BKN,13000,OVC,22000,,,,,VFR,,,,,,,,,,,,METAR,360.0
CYXZ 311500Z 00000KT 12SM FEW150 FEW250 07/05 A2982 RMK AC1CI2 AC TR SLP111,CYXZ,2022-10-31T15:00:00Z,47.97,-84.77,7.0,5.0,0,0,,12.0,29.819881,1011.1,,,,,,,,,,FEW,15000,FEW,25000,,,,,VFR,,,,,,,,,,,,METAR,287.0
CYXY 311500Z 35003KT 310V020 15SM -SN FEW006 OVC014 M05/M06 A2942 RMK SF1SC7 SLP006,CYXY,2022-10-31T15:00:00Z,60.72,-135.07,-5.0,-6.0,350,3,,15.0,29.421259,1000.6,,,,,,,,,-SN,FEW,600,OVC,1400,,,,,MVFR,,,,,,,,,,,,METAR,677.0
CYXT 311500Z 25003KT 8SM FEW002 BKN013 BKN030 BKN100 01/M00 A2965 RMK SF1CF4SC1AC1 SLP050,CYXT,2022-10-31T15:00:00Z,54.47,-128.57,1.0,0.0,250,3,,8.0,29.648623,1005.0,,,,,,,,,,FEW,200,BKN,1300,BKN,3000,BKN,10000,MVFR,,,,,,,,,,,,METAR,213.0
CYXS 311500Z AUTO 35004KT 9SM FEW048 BKN066 M03/M05 A2957 RMK SLP045,CYXS,2022-10-31T15:00:00Z,53.88,-122.68,-3.0,-5.0,350,4,,9.0,29.568897,1004.5,,TRUE,,,,,,,,FEW,4800,BKN,6600,,,,,VFR,,,,,,,,,,,,METAR,685.0
CYXP 311500Z 27011G18KT 15SM VCSH FEW014 BKN021 BKN110 M05/M09 A2950 RMK ST2SC4AC1 SLP995,CYXP,2022-10-31T15:00:00Z,66.15,-65.72,-5.0,-9.0,270,11,18,15.0,29.500984,999.5,,,,,,,,,VCSH,FEW,1400,BKN,2100,BKN,11000,,,MVFR,,,,,,,,,,,,METAR,29.0
CYXN 311500Z 27010KT 4SM -SN OVC006 00/M00 A2914 RMK ST8 WIND ESTD SLP870,CYXN,2022-10-31T15:00:00Z,62.23,-92.58,0.0,0.0,270,10,,4.0,29.140747,987.0,,,,,,,,,-SN,OVC,600,,,,,,,IFR,,,,,,,,,,,,METAR,9.0
CYXL 311500Z 20010G15KT 170V230 15SM BKN240 07/M00 A2963 RMK CI5 SLP054,CYXL,2022-10-31T15:00:00Z,50.12,-91.9,7.0,0.0,200,10,15,15.0,29.630905,1005.4,,,,,,,,,,BKN,24000,,,,,,,VFR,,,,,,,,,,,,METAR,381.0
CYXJ 311500Z 20005KT 15SM BKN160 M02/M07 A2953 RMK AC6 SLP033,CYXJ,2022-10-31T15:00:00Z,56.25,-120.73,-2.0,-7.0,200,5,,15.0,29.530512,1003.3,,,,,,,,,,BKN,16000,,,,,,,VFR,,,,,,,,,,,,METAR,700.0
CYXE 311500Z 21006KT 15SM BKN094 04/M05 A2964 RMK AC7 SLP059,CYXE,2022-10-31T15:00:00Z,52.17,-106.7,4.0,-5.0,210,6,,15.0,29.639763,1005.9,,,,,,,,,,BKN,9400,,,,,,,VFR,,,,,,,,,,,,METAR,504.0
CYXC 311500Z 26004KT 200V280 25SM FEW005 FEW020 BKN035 OVC100 04/03 A2971 RMK SF1SC1SC4AC2 SLP075,CYXC,2022-10-31T15:00:00Z,49.6,-115.78,4.0,3.0,260,4,,25.0,29.71063,1007.5,,,,,,,,,,FEW,500,FEW,2000,BKN,3500,OVC,10000,VFR,,,,,,,,,,,,METAR,928.0
CYWL 311500Z 14005KT 15SM BKN050 BKN100 M00/M05 A2958 RMK SC5AC2 SLP047,CYWL,2022-10-31T15:00:00Z,52.18,-122.07,0.0,-5.0,140,5,,15.0,29.58071,1004.7,,,,,,,,,,BKN,5000,BKN,10000,,,,,VFR,,,,,,,,,,,,METAR,942.0
CYWK 311500Z 31010G16KT 290V350 15SM SCT023 04/M03 A2984 RMK CU4 SLP129,CYWK,2022-10-31T15:00:00Z,52.92,-66.87,4.0,-3.0,310,10,16,15.0,29.840551,1012.9,,,,,,,,,,SCT,2300,,,,,,,VFR,,,,,,,,,,,,METAR,547.0
CYWJ 311500Z 32012KT 15SM -SN BKN055 BKN065 M10/M12 A2971 RMK SC5SC2 SLP084,CYWJ,2022-10-31T15:00:00Z,65.22,-123.43,-10.0,-12.0,320,12,,15.0,29.71063,1008.4,,,,,,,,,-SN,BKN,5500,BKN,6500,,,,,VFR,,,,,,,,,,,,METAR,208.0
CYWG 311500Z 23011G16KT 15SM FEW160 BKN250 07/01 A2958 RMK AC1CI6 AC TR SLP027,CYWG,2022-10-31T15:00:00Z,49.9,-97.23,7.0,1.0,230,11,16,15.0,29.58071,1002.7,,,,,,,,,,FEW,16000,BKN,25000,,,,,VFR,,,,,,,,,,,,METAR,238.0
CYWE 311500Z AUTO 08011KT 9SM OVC050 M14/M17 A2967 RMK ICE MISG SLP088,CYWE,2022-10-31T15:00:00Z,64.18,-114.08,-14.0,-17.0,80,11,,9.0,29.66929,1008.8,,TRUE,,,,,,,,OVC,5000,,,,,,,VFR,,,,,,,,,,,,METAR,374.0
CYVV 311500Z 15005KT 100V170 15SM BKN060 BKN100 11/06 A2987 RMK SC6AC1 SLP121,CYVV,2022-10-31T15:00:00Z,44.75,-81.1,11.0,6.0,150,5,,15.0,29.870079,1012.1,,,,,,,,,,BKN,6000,BKN,10000,,,,,VFR,,,,,,,,,,,,METAR,221.0
CYVT 311500Z AUTO 33012G19KT 9SM FEW020 OVC050 02/M03 A2951 RMK SLP013,CYVT,2022-10-31T15:00:00Z,55.83,-108.42,2.0,-3.0,330,12,19,9.0,29.509842,1001.3,,TRUE,,,,,,,,FEW,2000,OVC,5000,,,,,VFR,,,,,,,,,,,,METAR,438.0
CYVR 311500Z 10003KT 6SM -RA BR FEW005 BKN007 OVC020 09/09 A2971 RMK SC2SC4SC2 SLP063,CYVR,2022-10-31T15:00:00Z,49.17,-123.17,9.0,9.0,100,3,,6.0,29.71063,1006.3,,,,,,,,,-RA BR,FEW,500,BKN,700,OVC,2000,,,IFR,,,,,,,,,,,,METAR,2.0
CYVQ 311500Z 29015G22KT 20SM -SN DRSN SCT032 OVC075 M15/M17 A2990 RMK SC3AC5 SLP135,CYVQ,2022-10-31T15:00:00Z,65.27,-126.78,-15.0,-17.0,290,15,22,20.0,29.899607,1013.5,,,,,,,,,-SN DRSN,SCT,3200,OVC,7500,,,,,VFR,,,,,,,,,,,,METAR,63.0
CYVO 311500Z 18004KT 15SM BKN130 OVC150 07/05 A2988 RMK AC7AS1 SLP135,CYVO,2022-10-31T15:00:00Z,48.07,-77.77,7.0,5.0,180,4,,15.0,29.878937,1013.5,,,,,,,,,,BKN,13000,OVC,15000,,,,,VFR,,,,,,,,,,,,METAR,329.0
CYVM 311500Z 20008KT 15SM FEW090 BKN110 BKN250 M10/M13 A2943 RMK AC1AC4CC2 SLP969,CYVM,2022-10-31T15:00:00Z,67.55,-64.02,-10.0,-13.0,200,8,,15.0,29.430119,996.9,,,,,,,,,,FEW,9000,BKN,11000,BKN,25000,,,VFR,,,,,,,,,,,,METAR,3.0
CYVL 311500Z AUTO 36010G16KT 9SM CLR M18/M20 A2983 RMK SLP138,CYVL,2022-10-31T15:00:00Z,67.02,-126.13,-18.0,-20.0,360,10,16,9.0,29.828741,1013.8,,TRUE,,,,,,,,CLR,,,,,,,,VFR,,,,,,,,,,,,METAR,261.0
CYVC 311500Z 27010G19KT 15SM FEW070 03/M04 A2946 RMK AC1 SLP993,CYVC,2022-10-31T15:00:00Z,55.15,-105.27,3.0,-4.0,270,10,19,15.0,29.459646,999.3,,,,,,,,,,FEW,7000,,,,,,,VFR,,,,,,,,,,,,METAR,378.0
CYUY 311500Z 20007KT 15SM BKN140 BKN200 BKN240 07/05 A2988 RMK AC5CI1CC1 SLP132,CYUY,2022-10-31T15:00:00Z,48.2,-78.82,7.0,5.0,200,7,,15.0,29.878937,1013.2,,,,,,,,,,BKN,14000,BKN,20000,BKN,24000,,,VFR,,,,,,,,,,,,METAR,304.0
CYUX 311500Z 28015KT 10SM DRSN SCT055 M17/M19 A2964 RMK SC3 SLP039,CYUX,2022-10-31T15:00:00Z,68.77,-81.22,-17.0,-19.0,280,15,,10.0,29.639763,1003.9,,,,,,,,,DRSN,SCT,5500,,,,,,,VFR,,,,,,,,,,,,METAR,8.0
CYUT 311500Z 02007KT 15SM BKN150 M18/M21 A2974 RMK AC6 SLP075,CYUT,2022-10-31T15:00:00Z,66.52,-86.22,-18.0,-21.0,20,7,,15.0,29.740158,1007.5,,,,,,,,,,BKN,15000,,,,,,,VFR,,,,,,,,,,,,METAR,22.0
CYUS 311500Z AUTO 01013KT ////SM //// OVC020 M16/M20 A2969,CYUS,2022-10-31T15:00:00Z,68.78,-93.42,-16.0,-20.0,10,13,,,29.68996,,,TRUE,,,,,,,,OVC,2000,,,,,,,,,,,,,,,,,,,METAR,30.0
CYUL 311500Z 15003KT 30SM BKN180 OVC250 13/M00 A2997 RMK CS7CI1 SLP151,CYUL,2022-10-31T15:00:00Z,45.47,-73.73,13.0,0.0,150,3,,30.0,29.970472,1015.1,,,,,,,,,,BKN,18000,OVC,25000,,,,,VFR,,,,,,,,,,,,METAR,31.0
CYUB 311500Z 02008KT 10SM -SN OVC018 M11/M14 A3003 RMK SC8 SLP173,CYUB,2022-10-31T15:00:00Z,69.43,-133.02,-11.0,-14.0,20,8,,10.0,30.029528,1017.3,,,,,,,,,-SN,OVC,1800,,,,,,,MVFR,,,,,,,,,,,,METAR,5.0
CYUA 311500Z AUTO 22007KT ////SM OVC028 M13/M15 A3004,CYUA,2022-10-31T15:00:00Z,68.92,-137.23,-13.0,-15.0,220,7,,,30.041338,,,TRUE,,,,,,,,OVC,2800,,,,,,,,,,,,,,,,,,,METAR,25.0
CYTS 311500Z 19005KT 15SM FEW060 SCT180 BKN240 08/04 A2984 RMK SC1AC3CI3 SLP116,CYTS,2022-10-31T15:00:00Z,48.57,-81.37,8.0,4.0,190,5,,15.0,29.840551,1011.6,,,,,,,,,,FEW,6000,SCT,18000,BKN,24000,,,VFR,,,,,,,,,,,,METAR,290.0
CYTQ 311500Z 29014G21KT 15SM FEW028 M02/M08 A2986 RMK SC2 SLP117,CYTQ,2022-10-31T15:00:00Z,58.67,-69.95,-2.0,-8.0,290,14,21,15.0,29.861221,1011.7,,,,,,,,,,FEW,2800,,,,,,,VFR,,,,,,,,,,,,METAR,14.0
CYTL 311500Z AUTO 19010KT 9SM BKN096 06/M01 A2944 RMK SLP982,CYTL,2022-10-31T15:00:00Z,53.82,-89.88,6.0,-1.0,190,10,,9.0,29.438976,998.2,,TRUE,,,,,,,,BKN,9600,,,,,,,VFR,,,,,,,,,,,,METAR,218.0
CYTE 311500Z VRB02KT 15SM -SN OVC026 M07/M12 A2974 RMK SC8 SLP077,CYTE,2022-10-31T15:00:00Z,64.22,-76.52,-7.0,-12.0,0,2,,15.0,29.740158,1007.7,,,,,,,,,-SN,OVC,2600,,,,,,,MVFR,,,,,,,,,,,,METAR,49.0
CYSP 311500Z 00000KT 15SM FEW085 SCT220 05/04 A2979 RMK AS1CC2 SLP105,CYSP,2022-10-31T15:00:00Z,48.75,-86.35,5.0,4.0,0,0,,15.0,29.790354,1010.5,,,,,,,,,,FEW,8500,SCT,22000,,,,,VFR,,,,,,,,,,,,METAR,312.0
CYSM 311500Z CCA 04005KT 3SM -SN OVC012 M06/M08 A2959 RMK SC8 CIG VRB 009-015 SLP036,CYSM,2022-10-31T15:00:00Z,60.03,-111.92,-6.0,-8.0,40,5,,3.0,29.589567,1003.6,,,,,,,,,-SN,OVC,1200,,,,,,,MVFR,,,,,,,,,,,,METAR,203.0
CYSJ 311500Z 22007KT 200V260 15SM FEW008 FEW190 BKN230 13/07 A3003 RMK SF1AC1CI5 SF TR SLP172,CYSJ,2022-10-31T15:00:00Z,45.32,-65.88,13.0,7.0,220,7,,15.0,30.029528,1017.2,,,,,,,,,,FEW,800,FEW,19000,BKN,23000,,,VFR,,,,,,,,,,,,METAR,89.0
CYSC 311500Z AUTO VRB02KT 9SM SCT200 07/00 A2999 RMK SLP165,CYSC,2022-10-31T15:00:00Z,45.43,-71.68,7.0,0.0,0,2,,9.0,29.991142,1016.5,,TRUE,,,,,,,,SCT,20000,,,,,,,VFR,,,,,,,,,,,,METAR,236.0
CYRV 311500Z AUTO 27002KT 9SM OVC017 06/06 A2969 RMK SLP066,CYRV,2022-10-31T15:00:00Z,50.97,-118.17,6.0,6.0,270,2,,9.0,29.68996,1006.6,,TRUE,,,,,,,,OVC,1700,,,,,,,MVFR,,,,,,,,,,,,METAR,456.0
CYRT 311500Z 08017G30KT 1/2SM -SN BLSN OVC004 M01/M01 A2919 RMK BLSN4SC4 SLP889,CYRT,2022-10-31T15:00:00Z,62.82,-92.12,-1.0,-1.0,80,17,30,0.5,29.190945,988.9,,,,,,,,,-SN BLSN,OVC,400,,,,,,,LIFR,,,,,,,,,,,,METAR,29.0
CYRQ 311500Z AUTO 21003KT 110V240 9SM CLR 10/04 A2998 RMK SLP155,CYRQ,2022-10-31T15:00:00Z,46.35,-72.68,10.0,4.0,210,3,,9.0,29.97933,1015.5,,TRUE,,,,,,,,CLR,,,,,,,,VFR,,,,,,,,,,,,METAR,58.0
CYRL 311500Z 19006KT 15SM FEW240 06/M00 A2953 RMK CI1 SLP016,CYRL,2022-10-31T15:00:00Z,51.07,-93.78,6.0,0.0,190,6,,15.0,29.530512,1001.6,,,,,,,,,,FEW,24000,,,,,,,VFR,,,,,,,,,,,,METAR,370.0
CYRJ 311500Z 00000KT 40SM SCT190 BKN230 12/03 A2995 RMK AS3CI4 SLP149,CYRJ,2022-10-31T15:00:00Z,48.52,-72.27,12.0,3.0,0,0,,40.0,29.949802,1014.9,,,,,,,,,,SCT,19000,BKN,23000,,,,,VFR,,,,,,,,,,,,METAR,173.0
CYRB 311500Z 34010KT 15SM IC SCT040 M24/M27 A2950 RMK SC4 SLP004,CYRB,2022-10-31T15:00:00Z,74.72,-94.97,-24.0,-27.0,340,10,,15.0,29.500984,1000.4,,,,,,,,,IC,SCT,4000,,,,,,,VFR,,,,,,,,,,,,METAR,59.0
CYQZ 311500Z AUTO 00000KT 9SM OVC100 M02/M03 A2960 RMK SLP054,CYQZ,2022-10-31T15:00:00Z,53.02,-122.52,-2.0,-3.0,0,0,,9.0,29.601377,1005.4,,TRUE,,,,,,,,OVC,10000,,,,,,,VFR,,,,,,,,,,,,METAR,548.0
CYQY 311500Z 24013G19KT 15SM BKN250 16/01 A2994 RMK CI6 SLP143 DENSITY ALT 400FT,CYQY,2022-10-31T15:00:00Z,46.17,-60.03,16.0,1.0,240,13,19,15.0,29.940945,1014.3,,,,,,,,,,BKN,25000,,,,,,,VFR,,,,,,,,,,,,METAR,58.0
CYQX 311500Z 22017G22KT 20SM FEW020 SCT110 BKN200 12/05 A2979 RMK CF1AC4CI1 CF TR SLP095,CYQX,2022-10-31T15:00:00Z,48.95,-54.58,12.0,5.0,220,17,22,20.0,29.790354,1009.5,,,,,,,,,,FEW,2000,SCT,11000,BKN,20000,,,VFR,,,,,,,,,,,,METAR,144.0
CYQW 311500Z AUTO 27008KT 9SM BKN110 BKN130 04/M05 A2966 RMK SLP066,CYQW,2022-10-31T15:00:00Z,52.77,-108.25,4.0,-5.0,270,8,,9.0,29.660433,1006.6,,TRUE,,,,,,,,BKN,11000,BKN,13000,,,,,VFR,,,,,,,,,,,,METAR,545.0
CYQV 311500Z AUTO 26010KT 9SM FEW240 02/M01 A2959 RMK SLP044,CYQV,2022-10-31T15:00:00Z,51.27,-102.47,2.0,-1.0,260,10,,9.0,29.589567,1004.4,,TRUE,,,,,,,,FEW,24000,,,,,,,VFR,,,,,,,,,,,,METAR,493.0
CYQU 311500Z 15004KT 25SM SCT200 M06/M10 A2958 RMK CI3 SLP052,CYQU,2022-10-31T15:00:00Z,55.18,-118.88,-6.0,-10.0,150,4,,25.0,29.58071,1005.2,,,,,,,,,,SCT,20000,,,,,,,VFR,,,,,,,,,,,,METAR,668.0
CYQT 311500Z 21004KT 20SM FEW260 03/M01 A2981 RMK CI1 SLP107,CYQT,2022-10-31T15:00:00Z,48.37,-89.32,3.0,-1.0,210,4,,20.0,29.811024,1010.7,,,,,,,,,,FEW,26000,,,,,,,VFR,,,,,,,,,,,,METAR,197.0
CYQR 311500Z 25004KT 15SM SCT140 BKN210 01/M00 A2969 RMK AC3CS4 SLP079,CYQR,2022-10-31T15:00:00Z,50.43,-104.67,1.0,0.0,250,4,,15.0,29.68996,1007.9,,,,,,,,,,SCT,14000,BKN,21000,,,,,VFR,,,,,,,,,,,,METAR,576.0
CYQQ 311500Z 32004KT 15SM FEW012 FEW030 08/07 A2971 RMK SC1SC1 SLP063,CYQQ,2022-10-31T15:00:00Z,49.72,-124.9,8.0,7.0,320,4,,15.0,29.71063,1006.3,,,,,,,,,,FEW,1200,FEW,3000,,,,,VFR,,,,,,,,,,,,METAR,24.0
CYQM 311500Z 23009G15KT 15SM BKN210 12/04 A3000 RMK CI7 SLP162,CYQM,2022-10-31T15:00:00Z,46.12,-64.67,12.0,4.0,230,9,15,15.0,30.0,1016.2,,,,,,,,,,BKN,21000,,,,,,,VFR,,,,,,,,,,,,METAR,67.0
CYQL 311500Z 35006KT 40SM FEW060 BKN120 BKN230 01/M01 A2966 RMK SC1AS4CI2 PRESRR SLP069,CYQL,2022-10-31T15:00:00Z,49.63,-112.8,1.0,-1.0,350,6,,40.0,29.660433,1006.9,,,,,,,,,,FEW,6000,BKN,12000,BKN,23000,,,VFR,,,,,,,,,,,,METAR,923.0
CYQK 311500Z 21013KT 20SM SCT240 07/01 A2961 RMK CI4 SLP042,CYQK,2022-10-31T15:00:00Z,49.78,-94.37,7.0,1.0,210,13,,20.0,29.610237,1004.2,,,,,,,,,,SCT,24000,,,,,,,VFR,,,,,,,,,,,,METAR,413.0
CYQI 311500Z 24007KT 15SM SCT190 BKN230 15/11 A3009 RMK AC3CI2 SLP194,CYQI,2022-10-31T15:00:00Z,43.83,-66.08,15.0,11.0,240,7,,15.0,30.088583,1019.4,,,,,,,,,,SCT,19000,BKN,23000,,,,,VFR,,,,,,,,,,,,METAR,37.0
CYQH 311500Z 04005KT 350V050 30SM FEW100 M11/M12 A2942 RMK AC1 SLP007,CYQH,2022-10-31T15:00:00Z,60.12,-128.82,-11.0,-12.0,40,5,,30.0,29.421259,1000.7,,,,,,,,,,FEW,10000,,,,,,,VFR,,,,,,,,,,,,METAR,692.0
CYQD 311500Z AUTO 25014G22KT 9SM FEW150 04/M00 A2942 RMK SLP974,CYQD,2022-10-31T15:00:00Z,53.97,-101.08,4.0,0.0,250,14,22,9.0,29.421259,997.4,,TRUE,,,,,,,,FEW,15000,,,,,,,VFR,,,,,,,,,,,,METAR,268.0
CYQB 311500Z 27004KT 240V320 30SM FEW180 SCT240 09/03 A2999 RMK AC1CI2 SLP161,CYQB,2022-10-31T15:00:00Z,46.78,-71.38,9.0,3.0,270,4,,30.0,29.991142,1016.1,,,,,,,,,,FEW,18000,SCT,24000,,,,,VFR,,,,,,,,,,,,METAR,73.0
CYQA 311500Z AUTO 13003KT 9SM BKN130 OVC150 09/03 A2990 RMK SLP135,CYQA,2022-10-31T15:00:00Z,44.97,-79.3,9.0,3.0,130,3,,9.0,29.899607,1013.5,,TRUE,,,,,,,,BKN,13000,OVC,15000,,,,,VFR,,,,,,,,,,,,METAR,277.0
CYPX 311500Z AUTO 17014G19KT 9SM OVC025 M02/M07 A2980 RMK SLP096,CYPX,2022-10-31T15:00:00Z,60.03,-77.27,-2.0,-7.0,170,14,19,9.0,29.799213,1009.6,,TRUE,,,,,,,,OVC,2500,,,,,,,MVFR,,,,,,,,,,,,METAR,10.0
CYPQ 311500Z AUTO 00000KT 9SM -RA FEW081 OVC097 08/05 A2994 RMK SLP147,CYPQ,2022-10-31T15:00:00Z,44.22,-78.37,8.0,5.0,0,0,,9.0,29.940945,1014.7,,TRUE,,,,,,,-RA,FEW,8100,OVC,9700,,,,,VFR,,,,,,,,,,,,METAR,190.0
CYPO 311500Z AUTO 19010G16KT 9SM SCT100 BKN120 BKN140 05/M02 A2958 RMK SLP021,CYPO,2022-10-31T15:00:00Z,54.98,-85.43,5.0,-2.0,190,10,16,9.0,29.58071,1002.1,,TRUE,,,,,,,,SCT,10000,BKN,12000,BKN,14000,,,VFR,,,,,,,,,,,,METAR,49.0
CYPL 311500Z AUTO 19014G21KT 9SM FEW150 07/M02 A2957 RMK SLP031,CYPL,2022-10-31T15:00:00Z,51.43,-90.22,7.0,-2.0,190,14,21,9.0,29.568897,1003.1,,TRUE,,,,,,,,FEW,15000,,,,,,,VFR,,,,,,,,,,,,METAR,390.0
CYPH 311500Z AUTO 18007G15KT 9SM OVC025 01/M03 A2978 RMK SLP087,CYPH,2022-10-31T15:00:00Z,58.47,-78.08,1.0,-3.0,180,7,15,9.0,29.778543,1008.7,,TRUE,,,,,,,,OVC,2500,,,,,,,MVFR,,,,,,,,,,,,METAR,24.0
CYPG 311500Z 24017G22KT 15SM SCT160 BKN220 08/01 A2958 RMK AC3CI4 CONTRAILS SLP025,CYPG,2022-10-31T15:00:00Z,49.9,-98.28,8.0,1.0,240,17,22,15.0,29.58071,1002.5,,,,,,,,,,SCT,16000,BKN,22000,,,,,VFR,,,,,,,,,,,,METAR,270.0
CYPE 311500Z 20007KT 15SM FEW180 M07/M10 A2955 RMK AC1 AC TR SLP039,CYPE,2022-10-31T15:00:00Z,56.22,-117.45,-7.0,-10.0,200,7,,15.0,29.551182,1003.9,,,,,,,,,,FEW,18000,,,,,,,VFR,,,,,,,,,,,,METAR,572.0
CYPD 311500Z AUTO 26011KT 9SM FEW230 15/M00 A2999 RMK SLP160 DENSITY ALT 400FT,CYPD,2022-10-31T15:00:00Z,45.67,-61.37,15.0,0.0,260,11,,9.0,29.991142,1016.0,,TRUE,,,,,,,,FEW,23000,,,,,,,VFR,,,,,,,,,,,,METAR,106.0
CYPA 311500Z 27010KT 15SM FEW130 SCT250 02/M04 A2959 RMK AC1CI2 SLP042,CYPA,2022-10-31T15:00:00Z,53.22,-105.67,2.0,-4.0,270,10,,15.0,29.589567,1004.2,,,,,,,,,,FEW,13000,SCT,25000,,,,,VFR,,,,,,,,,,,,METAR,428.0
CYOY 311500Z 16003KT 15SM FEW170 BKN240 11/02 A2999 RMK AC1CI4 DENSITY ALT 191FT SLP160,CYOY,2022-10-31T15:00:00Z,46.88,-71.5,11.0,2.0,160,3,,15.0,29.991142,1016.0,,,,,,,,,,FEW,17000,BKN,24000,,,,,VFR,,,,,,,,,,,,METAR,167.0
CYOW 311500Z 19006KT 15SM BKN170 11/05 A2995 RMK AC7 SLP147,CYOW,2022-10-31T15:00:00Z,45.32,-75.67,11.0,5.0,190,6,,15.0,29.949802,1014.7,,,,,,,,,,BKN,17000,,,,,,,VFR,,,,,,,,,,,,METAR,111.0
CYOJ 311500Z 04002KT 15SM FEW022 BKN030 M02/M02 A2957 RMK SC1SC6 SLP037,CYOJ,2022-10-31T15:00:00Z,58.62,-117.17,-2.0,-2.0,40,2,,15.0,29.568897,1003.7,,,,,,,,,,FEW,2200,BKN,3000,,,,,MVFR,,,,,,,,,,,,METAR,339.0
CYOD 311500Z 23009KT 15SM FEW140 M01/M06 A2961 RMK AC1 DENSITY ALT 483FT SLP048,CYOD,2022-10-31T15:00:00Z,54.4,-110.28,-1.0,-6.0,230,9,,15.0,29.610237,1004.8,,,,,,,,,,FEW,14000,,,,,,,VFR,,,,,,,,,,,,METAR,540.0
CYOC 311500Z 24003KT 35SM IC FEW033 M21/M23 A2996 RMK SC1 SC TR FROIN SLP177,CYOC,2022-10-31T15:00:00Z,67.57,-139.83,-21.0,-23.0,240,3,,35.0,29.958662,1017.7,,,,,,,,,IC,FEW,3300,,,,,,,VFR,,,,,,,,,,,,METAR,253.0
CYNM 311500Z AUTO 13005KT 9SM FEW047 OVC066 04/02 A2986 RMK SLP126,CYNM,2022-10-31T15:00:00Z,49.77,-77.78,4.0,2.0,130,5,,9.0,29.861221,1012.6,,TRUE,,,,,,,,FEW,4700,OVC,6600,,,,,VFR,,,,,,,,,,,,METAR,276.0
CYNE 311500Z AUTO 25005KT 220V280 9SM FEW160 06/02 A2933 RMK SLP943,CYNE,2022-10-31T15:00:00Z,53.97,-97.83,6.0,2.0,250,5,,9.0,29.329725,994.3,,TRUE,,,,,,,,FEW,16000,,,,,,,VFR,,,,,,,,,,,,METAR,220.0
CYND 311500Z 09006KT 15SM SCT160 BKN240 09/02 A2995 RMK AC4CI3 SLP147,CYND,2022-10-31T15:00:00Z,45.52,-75.57,9.0,2.0,90,6,,15.0,29.949802,1014.7,,,,,,,,,,SCT,16000,BKN,24000,,,,,VFR,,,,,,,,,,,,METAR,57.0
CYNA 311500Z AUTO 27015G24KT 9SM CLR 07/05 A2975 RMK SLP076,CYNA,2022-10-31T15:00:00Z,50.18,-61.78,7.0,5.0,270,15,24,9.0,29.749016,1007.6,,TRUE,,,,,,,,CLR,,,,,,,,VFR,,,,,,,,,,,,METAR,9.0
CYMX 311500Z VRB02KT 30SM SCT180 BKN240 10/04 A2997 RMK AC4CS3 SLP153,CYMX,2022-10-31T15:00:00Z,45.67,-74.03,10.0,4.0,0,2,,30.0,29.970472,1015.3,,,,,,,,,,SCT,18000,BKN,24000,,,,,VFR,,,,,,,,,,,,METAR,78.0
CYMU 311500Z CCA 15008KT 15SM SCT020 BKN190 M00/M03 A2984 RMK SC3AS4 SLP111,CYMU,2022-10-31T15:00:00Z,56.53,-76.52,0.0,-3.0,150,8,,15.0,29.840551,1011.1,,,,,,,,,,SCT,2000,BKN,19000,,,,,VFR,,,,,,,,,,,,METAR,69.0
CYMT 311500Z AUTO 07004KT 050V120 9SM CLR 07/01 A2991 RMK SLP142,CYMT,2022-10-31T15:00:00Z,49.77,-74.52,7.0,1.0,70,4,,9.0,29.911417,1014.2,,TRUE,,,,,,,,CLR,,,,,,,,VFR,,,,,,,,,,,,METAR,388.0
CYMO 311500Z AUTO 13005KT 9SM CLR 07/01 A2982 RMK SLP099,CYMO,2022-10-31T15:00:00Z,51.28,-80.62,7.0,1.0,130,5,,9.0,29.819881,1009.9,,TRUE,,,,,,,,CLR,,,,,,,,VFR,,,,,,,,,,,,METAR,8.0
CYMM 311500Z AUTO 27006KT 9SM CLR M00/M03 A2955 RMK SLP026,CYMM,2022-10-31T15:00:00Z,56.65,-111.22,0.0,-3.0,270,6,,9.0,29.551182,1002.6,,TRUE,,,,,,,,CLR,,,,,,,,VFR,,,,,,,,,,,,METAR,371.0
CYMJ 311500Z 28007KT 15SM BKN120 BKN210 04/01 A2969 RMK AC5CI2 SLP072,CYMJ,2022-10-31T15:00:00Z,50.32,-105.55,4.0,1.0,280,7,,15.0,29.68996,1007.2,,,,,,,,,,BKN,12000,BKN,21000,,,,,VFR,,,,,,,,,,,,METAR,578.0
CYMA 311500Z 01010G15KT 15SM -SN OVC040 M08/M12 A2955 RMK SC8 SLP048,CYMA,2022-10-31T15:00:00Z,63.62,-135.87,-8.0,-12.0,10,10,15,15.0,29.551182,1004.8,,,,,,,,,-SN,OVC,4000,,,,,,,VFR,,,,,,,,,,,,METAR,519.0
CYLW 311500Z AUTO VRB02KT 9SM CLR 04/02 A2967 RMK SLP059,CYLW,2022-10-31T15:00:00Z,49.95,-119.37,4.0,2.0,0,2,,9.0,29.66929,1005.9,,TRUE,,,,,,,,CLR,,,,,,,,VFR,,,,,,,,,,,,METAR,420.0
CYLT 311500Z 29007KT 15SM FEW030 M23/M26 A2970 RMK SC2 SLP064,CYLT,2022-10-31T15:00:00Z,82.52,-62.32,-23.0,-26.0,290,7,,15.0,29.698818,1006.4,,,,,,,,,,FEW,3000,,,,,,,VFR,,,,,,,,,,,,METAR,9.0
CYLL 311500Z 27010KT 15SM BKN110 02/M07 A2962 RMK AC7 SLP056,CYLL,2022-10-31T15:00:00Z,53.32,-110.07,2.0,-7.0,270,10,,15.0,29.619095,1005.6,,,,,,,,,,BKN,11000,,,,,,,VFR,,,,,,,,,,,,METAR,664.0
CYLK 311500Z 09006KT 060V120 20SM -SHSN BKN013 BKN110 M12/M14 A2970 RMK SC7AC1 VIS 15 N-NW VC SHSN N-NW CIG RAG CLRG FM SE SLP076,CYLK,2022-10-31T15:00:00Z,62.42,-110.67,-12.0,-14.0,90,6,,20.0,29.698818,1007.6,,,,,,,,,-SHSN,BKN,1300,BKN,11000,,,,,MVFR,,,,,,,,,,,,METAR,183.0
CYLJ 311500Z 25011KT 15SM FEW130 FEW170 SCT210 01/M06 A2958 RMK AC1AC1CI2 AC TR SLP037,CYLJ,2022-10-31T15:00:00Z,54.12,-108.52,1.0,-6.0,250,11,,15.0,29.58071,1003.7,,,,,,,,,,FEW,13000,FEW,17000,SCT,21000,,,VFR,,,,,,,,,,,,METAR,481.0
CYLH 311500Z AUTO 19009G16KT 9SM BKN130 06/M03 A2961 RMK SLP043,CYLH,2022-10-31T15:00:00Z,52.2,-87.93,6.0,-3.0,190,9,16,9.0,29.610237,1004.3,,TRUE,,,,,,,,BKN,13000,,,,,,,VFR,,,,,,,,,,,,METAR,245.0
CYLD 311500Z 19005KT 15SM SCT230 BKN250 08/04 A2983 RMK CC3CI2 SLP119,CYLD,2022-10-31T15:00:00Z,47.82,-83.35,8.0,4.0,190,5,,15.0,29.828741,1011.9,,,,,,,,,,SCT,23000,BKN,25000,,,,,VFR,,,,,,,,,,,,METAR,449.0
CYLC 311500Z 32016KT 15SM DRSN SCT025 M08/M13 A2974 RMK SC3 SLP076,CYLC,2022-10-31T15:00:00Z,62.85,-69.87,-8.0,-13.0,320,16,,15.0,29.740158,1007.6,,,,,,,,,DRSN,SCT,2500,,,,,,,VFR,,,,,,,,,,,,METAR,52.0
CYKY 311500Z 29004KT 15SM OVC060 02/M02 A2967 RMK SC8 SLP069,CYKY,2022-10-31T15:00:00Z,51.52,-109.17,2.0,-2.0,290,4,,15.0,29.66929,1006.9,,,,,,,,,,OVC,6000,,,,,,,VFR,,,,,,,,,,,,METAR,692.0
CYKQ 311500Z 14006KT 15SM BKN250 06/01 A2986 RMK CI5 SLP116,CYKQ,2022-10-31T15:00:00Z,51.47,-78.75,6.0,1.0,140,6,,15.0,29.861221,1011.6,,,,,,,,,,BKN,25000,,,,,,,VFR,,,,,,,,,,,,METAR,28.0
CYKO 311500Z 14016KT 15SM BKN018 M02/M06 A2976 RMK SC7 SLP080,CYKO,2022-10-31T15:00:00Z,60.82,-78.15,-2.0,-6.0,140,16,,15.0,29.760826,1008.0,,,,,,,,,,BKN,1800,,,,,,,MVFR,,,,,,,,,,,,METAR,23.0
CYKL 311500Z AUTO 31013G21KT 9SM OVC020 M03/M05 A2984 RMK SLP136,CYKL,2022-10-31T15:00:00Z,54.8,-66.8,-3.0,-5.0,310,13,21,9.0,29.840551,1013.6,,TRUE,,,,,,,,OVC,2000,,,,,,,MVFR,,,,,,,,,,,,METAR,507.0
CYKG 311500Z 32013KT 15SM -SN OVC024 M05/M09 A2974 RMK SC8 SLP087,CYKG,2022-10-31T15:00:00Z,61.58,-71.92,-5.0,-9.0,320,13,,15.0,29.740158,1008.7,,,,,,,,,-SN,OVC,2400,,,,,,,MVFR,,,,,,,,,,,,METAR,134.0
CYKF 311500Z AUTO 08005KT 3/4SM -RA BR OVC004 09/09 A2990 RMK PCPN 0.5MM PAST HR SLP132,CYKF,2022-10-31T15:00:00Z,43.47,-80.38,9.0,9.0,80,5,,0.75,29.899607,1013.2,,TRUE,,,,,,,-RA BR,OVC,400,,,,,,,LIFR,,,,,,,,,,,,METAR,312.0
CYKA 311500Z VRB02KT 40SM SCT160 05/00 A2963 RMK AC4 SLP042,CYKA,2022-10-31T15:00:00Z,50.7,-120.45,5.0,0.0,0,2,,40.0,29.630905,1004.2,,,,,,,,,,SCT,16000,,,,,,,VFR,,,,,,,,,,,,METAR,344.0
CYJT 311500Z 24021G30KT 15SM FEW030 SCT220 12/08 A2983 RMK SC1CI3 SC TR SLP104,CYJT,2022-10-31T15:00:00Z,48.55,-58.57,12.0,8.0,240,21,30,15.0,29.828741,1010.4,,,,,,,,,,FEW,3000,SCT,22000,,,,,VFR,,,,,,,,,,,,METAR,7.0
CYJF 311500Z 06006KT 15SM FEW011 FEW080 SCT100 SCT130 M07/M09 A2963 RMK ST1AC1AC1AC1 VIS NE 7/AS ASOCTD SLP051,CYJF,2022-10-31T15:00:00Z,60.23,-123.47,-7.0,-9.0,60,6,,15.0,29.630905,1005.1,,,,,,,,,,FEW,1100,FEW,8000,SCT,10000,SCT,13000,VFR,,,,,,,,,,,,METAR,215.0
CYIV 311500Z AUTO 21003KT 170V250 9SM CLR 05/M00 A2934 RMK SLP947,CYIV,2022-10-31T15:00:00Z,53.85,-94.65,5.0,0.0,210,3,,9.0,29.338583,994.7,,TRUE,,,,,,,,CLR,,,,,,,,VFR,,,,,,,,,,,,METAR,234.0
CYIN 311500Z AUTO 14006KT 9SM CLR M00/M03 A2955 RMK SLP028,CYIN,2022-10-31T15:00:00Z,51.27,-121.68,0.0,-3.0,140,6,,9.0,29.551182,1002.8,,TRUE,,,,,,,,CLR,,,,,,,,VFR,,,,,,,,,,,,METAR,1127.0
CYIK 311500Z 14009KT 15SM BKN028 M05/M09 A2974 RMK SC7 SLP077,CYIK,2022-10-31T15:00:00Z,62.42,-77.93,-5.0,-9.0,140,9,,15.0,29.740158,1007.7,,,,,,,,,,BKN,2800,,,,,,,MVFR,,,,,,,,,,,,METAR,44.0
CYHZ 311500Z CCA 22007KT 15SM BKN210 BKN250 12/07 A3004 RMK CS5CI2 CS ASOCTD HALO SLP179,CYHZ,2022-10-31T15:00:00Z,44.87,-63.5,12.0,7.0,220,7,,15.0,30.041338,1017.9,,,,,,,,,,BKN,21000,BKN,25000,,,,,VFR,,,,,,,,,,,,SPECI,136.0
CYHU 311500Z AUTO 19008KT 9SM CLR 14/03 A2997 RMK SLP152,CYHU,2022-10-31T15:00:00Z,45.52,-73.42,14.0,3.0,190,8,,9.0,29.970472,1015.2,,TRUE,,,,,,,,CLR,,,,,,,,VFR,,,,,,,,,,,,METAR,26.0
CYHM 311500Z 08004KT 3/4SM R12/P6000FT/D BR OVC002 10/09 A2991 RMK FG5ST3 SLP134,CYHM,2022-10-31T15:00:00Z,43.17,-79.93,10.0,9.0,80,4,,0.75,29.911417,1013.4,,,,,,,,,BR,OVC,200,,,,,,,LIFR,,,,,,,,,,,,METAR,237.0
CYHI 311500Z 06007KT 15SM FEW035 FEW085 M21/M24 A2995 RMK SC1AC1 SC TR AC TR SLP149,CYHI,2022-10-31T15:00:00Z,70.77,-117.78,-21.0,-24.0,60,7,,15.0,29.949802,1014.9,,,,,,,,,,FEW,3500,FEW,8500,,,,,VFR,,,,,,,,,,,,METAR,33.0
CYHD 311500Z AUTO 21008G15KT 9SM CLR 06/M00 A2962 RMK SLP049,CYHD,2022-10-31T15:00:00Z,49.82,-92.75,6.0,0.0,210,8,15,9.0,29.619095,1004.9,,TRUE,,,,,,,,CLR,,,,,,,,VFR,,,,,,,,,,,,METAR,414.0
CYHA 311500Z 32021G30KT 15SM OVC025 M02/M06 A2976 RMK SC8 SLP081,CYHA,2022-10-31T15:00:00Z,61.03,-69.62,-2.0,-6.0,320,21,30,15.0,29.760826,1008.1,,,,,,,,,,OVC,2500,,,,,,,MVFR,,,,,,,,,,,,METAR,31.0
CYGX 311500Z 16005KT 120V200 15SM BKN018 02/M02 A2917 RMK SC7 PRESFR SLP889,CYGX,2022-10-31T15:00:00Z,56.35,-94.7,2.0,-2.0,160,5,,15.0,29.170275,988.9,,,,,,,,,,BKN,1800,,,,,,,MVFR,,,,,,,,,,,,METAR,145.0
CYGV 311500Z AUTO 26014KT 9SM CLR 10/04 A2978 RMK SLP089,CYGV,2022-10-31T15:00:00Z,50.28,-63.62,10.0,4.0,260,14,,9.0,29.778543,1008.9,,TRUE,,,,,,,,CLR,,,,,,,,VFR,,,,,,,,,,,,METAR,32.0
CYGR 311500Z 26019KT 20SM FEW230 BKN280 13/05 A2990 RMK CI2CI4 SLP128,CYGR,2022-10-31T15:00:00Z,47.42,-61.77,13.0,5.0,260,19,,20.0,29.899607,1012.8,,,,,,,,,,FEW,23000,BKN,28000,,,,,VFR,,,,,,,,,,,,METAR,4.0
CYGP 311500Z 28008KT 260V340 15SM SCT150 BKN300 13/02 A2987 RMK AS3CI2 SLP118,CYGP,2022-10-31T15:00:00Z,48.77,-64.47,13.0,2.0,280,8,,15.0,29.870079,1011.8,,,,,,,,,,SCT,15000,BKN,30000,,,,,VFR,,,,,,,,,,,,METAR,31.0
CYGK 311500Z 18014KT 15SM BKN140 BKN250 12/08 A2997 RMK AC7CI1 CI TR VIRGA SLP154,CYGK,2022-10-31T15:00:00Z,44.22,-76.58,12.0,8.0,180,14,,15.0,29.970472,1015.4,,,,,,,,,,BKN,14000,BKN,25000,,,,,VFR,,,,,,,,,,,,METAR,91.0
CYGH 311500Z 30007KT 9SM -SN FEW018 BKN040 M17/M20 A2994 RMK SC2SC5 SLP151,CYGH,2022-10-31T15:00:00Z,66.23,-128.63,-17.0,-20.0,300,7,,9.0,29.940945,1015.1,,,,,,,,,-SN,FEW,1800,BKN,4000,,,,,VFR,,,,,,,,,,,,METAR,72.0
CYGE 311500Z 15008KT 12SM SCT019 BKN051 BKN070 05/03 A2965 RMK SC3SC3AS1 PCPN N SLP061,CYGE,2022-10-31T15:00:00Z,51.3,-116.98,5.0,3.0,150,8,,12.0,29.648623,1006.1,,,,,,,,,,SCT,1900,BKN,5100,BKN,7000,,,VFR,,,,,,,,,,,,METAR,786.0
CYFT 311500Z 31012KT 15SM BKN025 OVC090 02/M03 A2964 RMK SC5AS3 SLP043,CYFT,2022-10-31T15:00:00Z,55.07,-59.18,2.0,-3.0,310,12,,15.0,29.639763,1004.3,,,,,,,,,,BKN,2500,OVC,9000,,,,,MVFR,,,,,,,,,,,,METAR,65.0
CYFO 311500Z 25011KT 15SM FEW140 05/M01 A2938 RMK AC1 AC TR SLP961,CYFO,2022-10-31T15:00:00Z,54.67,-101.67,5.0,-1.0,250,11,,15.0,29.379921,996.1,,,,,,,,,,FEW,14000,,,,,,,VFR,,,,,,,,,,,,METAR,303.0
CYFC 311500Z AUTO 22006KT 9SM SCT200 11/04 A3001 RMK SLP167,CYFC,2022-10-31T15:00:00Z,45.87,-66.53,11.0,4.0,220,6,,9.0,30.008858,1016.7,,TRUE,,,,,,,,SCT,20000,,,,,,,VFR,,,,,,,,,,,,METAR,16.0
CYFB 311500Z 33020G27KT 30SM DRSN BKN026 BKN050 M08/M12 A2970 RMK SC6SC1 SLP062,CYFB,2022-10-31T15:00:00Z,63.75,-68.55,-8.0,-12.0,330,20,27,30.0,29.698818,1006.2,,,,,,,,,DRSN,BKN,2600,BKN,5000,,,,,MVFR,,,,,,,,,,,,METAR,23.0
CYEV 311500Z 30003KT 260V330 15SM -SN OVC025 M14/M15 A3003 RMK SC8 SLP180,CYEV,2022-10-31T15:00:00Z,68.32,-133.5,-14.0,-15.0,300,3,,15.0,30.029528,1018.0,,,,,,,,,-SN,OVC,2500,,,,,,,MVFR,,,,,,,,,,,,METAR,74.0
CYET 311500Z AUTO VRB02KT 9SM BKN110 OVC130 M02/M06 A2960 RMK SLP060,CYET,2022-10-31T15:00:00Z,53.57,-116.47,-2.0,-6.0,0,2,,9.0,29.601377,1006.0,,TRUE,,,,,,,,BKN,11000,OVC,13000,,,,,VFR,,,,,,,,,,,,METAR,925.0
CYER 311500Z AUTO 17009G15KT 9SM BKN081 OVC095 05/M00 A2942 RMK PRESFR SLP964,CYER,2022-10-31T15:00:00Z,56.02,-87.68,5.0,0.0,170,9,15,9.0,29.421259,996.4,,TRUE,,,,,,,,BKN,8100,OVC,9500,,,,,VFR,,,,,,,,,,,,METAR,11.0
CYEN 311500Z AUTO 25009KT 9SM FEW220 05/01 A2970 RMK SLP077,CYEN,2022-10-31T15:00:00Z,49.22,-102.97,5.0,1.0,250,9,,9.0,29.698818,1007.7,,TRUE,,,,,,,,FEW,22000,,,,,,,VFR,,,,,,,,,,,,METAR,580.0
CYEK 311500Z 23005KT 15SM OVC005 00/00 RMK SC8 ALTM 2909 WIND EST VIA CYQB DENSITY ALT MISG,CYEK,2022-10-31T15:00:00Z,61.1,-94.07,0.0,0.0,230,5,,15.0,,,,,,,,,,,,OVC,500,,,,,,,IFR,,,,,,,,,,,,SPECI,7.0
CYEG 311500Z 21007KT 20SM BKN140 M05/M06 A2965 RMK AC5 SLP071,CYEG,2022-10-31T15:00:00Z,53.3,-113.58,-5.0,-6.0,210,7,,20.0,29.648623,1007.1,,,,,,,,,,BKN,14000,,,,,,,VFR,,,,,,,,,,,,METAR,710.0
CYED 311500Z 22005KT 15SM SCT150 M03/M07 A2965 RMK AC4 DENSITY ALT 724FT SLP069,CYED,2022-10-31T15:00:00Z,53.67,-113.47,-3.0,-7.0,220,5,,15.0,29.648623,1006.9,,,,,,,,,,SCT,15000,,,,,,,VFR,,,,,,,,,,,,METAR,688.0
CYDQ 311500Z AUTO 04003KT 9SM CLR M06/M08 A2955 RMK SLP042,CYDQ,2022-10-31T15:00:00Z,55.75,-120.18,-6.0,-8.0,40,3,,9.0,29.551182,1004.2,,TRUE,,,,,,,,CLR,,,,,,,,VFR,,,,,,,,,,,,METAR,658.0
CYDP 311500Z 30023G30KT 15SM FEW037 SCT130 03/M03 A2966 RMK SC1AC4 SC TR G32 PAST HR SLP048,CYDP,2022-10-31T15:00:00Z,56.53,-61.68,3.0,-3.0,300,23,30,15.0,29.660433,1004.8,,,,,,,,,,FEW,3700,SCT,13000,,,,,VFR,,,,,,,,,,,,METAR,14.0
CYDN 311500Z AUTO 26016G24KT 9SM FEW220 07/01 A2954 RMK SLP015,CYDN,2022-10-31T15:00:00Z,51.1,-100.05,7.0,1.0,260,16,24,9.0,29.53937,1001.5,,TRUE,,,,,,,,FEW,22000,,,,,,,VFR,,,,,,,,,,,,METAR,302.0
CYDL 311500Z AUTO 00000KT 9SM BKN060 OVC076 M06/M07 A2943 RMK SLP997,CYDL,2022-10-31T15:00:00Z,58.42,-130.02,-6.0,-7.0,0,0,,9.0,29.430119,999.7,,TRUE,,,,,,,,BKN,6000,OVC,7600,,,,,VFR,,,,,,,,,,,,METAR,804.0
CYDF 311500Z 23023G31KT 15SM FEW028 13/05 A2975 RMK SC2 SLP077 DENSITY ALT 100FT,CYDF,2022-10-31T15:00:00Z,49.22,-57.4,13.0,5.0,230,23,31,15.0,29.749016,1007.7,,,,,,,,,,FEW,2800,,,,,,,VFR,,,,,,,,,,,,METAR,15.0
CYDC 311500Z 00000KT 15SM FEW020 BKN071 04/02 A2969 RMK CU1AC7 CU TR SLP066,CYDC,2022-10-31T15:00:00Z,49.47,-120.52,4.0,2.0,0,0,,15.0,29.68996,1006.6,,,,,,,,,,FEW,2000,BKN,7100,,,,,VFR,,,,,,,,,,,,METAR,703.0
CYDB 311500Z 29013KT 10SM OVC037 M13/M16 A2954 RMK SC8 SLP065,CYDB,2022-10-31T15:00:00Z,61.37,-139.02,-13.0,-16.0,290,13,,10.0,29.53937,1006.5,,,,,,,,,,OVC,3700,,,,,,,VFR,,,,,,,,,,,,METAR,807.0
CYDA 311500Z VRB02KT 10SM -SN OVC035 M13/M15 A2968 RMK SC8 SLP086,CYDA,2022-10-31T15:00:00Z,64.03,-139.12,-13.0,-15.0,0,2,,10.0,29.681103,1008.6,,,,,,,,,-SN,OVC,3500,,,,,,,VFR,,,,,,,,,,,,METAR,338.0
CYCY 311500Z 28004KT 15SM FEW017 FEW031 FEW048 BKN140 BKN180 M12/M14 A2932 RMK SF1SC1SC1AC5AC1 SF TR SC TR SC TR SLP933,CYCY,2022-10-31T15:00:00Z,70.48,-68.52,-12.0,-14.0,280,4,,15.0,29.320866,993.3,,,,,,,,,,FEW,1700,FEW,3100,FEW,4800,BKN,14000,VFR,,,,,,,,,,,,METAR,73.0
CYCX 311500Z 24005KT 15SM BKN200 BKN230 12/04 A3001 RMK CI5CI1 DENSITY ALT -185FT CI TR SLP164,CYCX,2022-10-31T15:00:00Z,45.83,-66.45,12.0,4.0,240,5,,15.0,30.008858,1016.4,,,,,,,,,,BKN,20000,BKN,23000,,,,,VFR,,,,,,,,,,,,METAR,46.0
CYCS 311500Z 07025G32KT 1/2SM SN DRSN OVC007 M01/M02 A2933 RMK SN4SC4 SLP935,CYCS,2022-10-31T15:00:00Z,63.35,-90.72,-1.0,-2.0,70,25,32,0.5,29.329725,993.5,,,,,,,,,SN DRSN,OVC,700,,,,,,,LIFR,,,,,,,,,,,,METAR,7.0
CYCQ 311500Z 34002KT 35SM FEW040 FEW120 SCT180 BKN200 M06/M09 A2954 RMK SC1AC1AC2CI3 SC TR GND FROST SLP036,CYCQ,2022-10-31T15:00:00Z,55.7,-121.62,-6.0,-9.0,340,2,,35.0,29.53937,1003.6,,,,,,,,,,FEW,4000,FEW,12000,SCT,18000,BKN,20000,VFR,,,,,,,,,,,,METAR,614.0
CYCP 311500Z 00000KT 3SM BR BKN005 BKN032 03/03 A2965 RMK SF5SC2 VIS SW 6 SLP063,CYCP,2022-10-31T15:00:00Z,52.13,-119.28,3.0,3.0,0,0,,3.0,29.648623,1006.3,,,,,,,,,BR,BKN,500,BKN,3200,,,,,IFR,,,,,,,,,,,,METAR,677.0
CYCO 311500Z 24007KT 230V300 15SM -SN FEW003 SCT014 OVC030 M19/M21 A2993 RMK ST1ST4SC4 ST TR MIFG N SLP139,CYCO,2022-10-31T15:00:00Z,67.82,-115.15,-19.0,-21.0,240,7,,15.0,29.929134,1013.9,,,,,,,,,-SN,FEW,300,SCT,1400,OVC,3000,,,MVFR,,,,,,,,,,,,METAR,20.0
CYCG 311500Z 00000KT 15SM FEW001 FEW006 FEW025 SCT090 BKN160 07/07 A2975 RMK SF1SF1CF1AC2AC3 SF TR LOW CIG S VIS S 5 SLP085,CYCG,2022-10-31T15:00:00Z,49.28,-117.63,7.0,7.0,0,0,,15.0,29.749016,1008.5,,,,,,,,,,FEW,100,FEW,600,FEW,2500,SCT,9000,VFR,,,,,,,,,,,,METAR,487.0
CYCB 311500Z 28009KT 15SM FEW010 BKN110 M24/M28 A2984 RMK SC2AC3 SLP113,CYCB,2022-10-31T15:00:00Z,69.1,-105.12,-24.0,-28.0,280,9,,15.0,29.840551,1011.3,,,,,,,,,,FEW,1000,BKN,11000,,,,,VFR,,,,,,,,,,,,METAR,19.0
CYBX 311500Z 26019G24KT 15SM BKN008 OVC012 09/07 A2959 RMK SC5SC3 SLP023,CYBX,2022-10-31T15:00:00Z,51.45,-57.18,9.0,7.0,260,19,24,15.0,29.589567,1002.3,,,,,,,,,,BKN,800,OVC,1200,,,,,IFR,,,,,,,,,,,,METAR,32.0
CYBV 311500Z 24008KT 15SM FEW150 SCT280 06/02 A2944 RMK AC1CI3 AC TR SLP980,CYBV,2022-10-31T15:00:00Z,52.35,-97.03,6.0,2.0,240,8,,15.0,29.438976,998.0,,,,,,,,,,FEW,15000,SCT,28000,,,,,VFR,,,,,,,,,,,,METAR,219.0
CYBU 311500Z AUTO 25010KT 9SM CLR A2954 RMK T MISG DP MISG DENSITY ALT MISG,CYBU,2022-10-31T15:00:00Z,53.32,-104.0,,,250,10,,9.0,29.53937,,,TRUE,,,,,,,,CLR,,,,,,,,VFR,,,,,,,,,,,,METAR,369.0
CYBR 311500Z 25011KT 15SM SCT180 BKN250 04/01 A2962 RMK AC3CI4 SLP051,CYBR,2022-10-31T15:00:00Z,49.92,-99.95,4.0,1.0,250,11,,15.0,29.619095,1005.1,,,,,,,,,,SCT,18000,BKN,25000,,,,,VFR,,,,,,,,,,,,METAR,405.0
CYBL 311500Z VRB02KT 20SM R12/5500VP6000FT/D MIFG SCT035 BKN090 04/04 A2971 RMK SC3AC2 SLP066,CYBL,2022-10-31T15:00:00Z,49.95,-125.27,4.0,4.0,0,2,,20.0,29.71063,1006.6,,,,,,,,,MIFG,SCT,3500,BKN,9000,,,,,VFR,,,,,,,,,,,,METAR,94.0
CYBG 311500Z 10004KT 25SM FEW180 SCT250 11/02 A2996 RMK AC1CI4 CC ASOCTD SLP153,CYBG,2022-10-31T15:00:00Z,48.33,-70.98,11.0,2.0,100,4,,25.0,29.958662,1015.3,,,,,,,,,,FEW,18000,SCT,25000,,,,,VFR,,,,,,,,,,,,METAR,151.0
CYBD 311500Z 27003KT 4SM -RA BR FEW009 SCT017 BKN030 OVC050 03/02 A2972 RMK SF1SC3SC3SC2 SF TR WIND ESTD SLP069,CYBD,2022-10-31T15:00:00Z,52.38,-126.58,3.0,2.0,270,3,,4.0,29.719488,1006.9,,,,,,,,,-RA BR,FEW,900,SCT,1700,BKN,3000,OVC,5000,MVFR,,,,,,,,,,,,METAR,40.0
CYBC 311500Z AUTO 33005KT 310V020 9SM CLR 12/03 A2994 RMK SLP140,CYBC,2022-10-31T15:00:00Z,49.13,-68.2,12.0,3.0,330,5,,9.0,29.940945,1014.0,,TRUE,,,,,,,,CLR,,,,,,,,VFR,,,,,,,,,,,,METAR,20.0
CYBB 311500Z 22014KT 15SM OVC020 M17/M19 A2969 RMK SC8 SLP059,CYBB,2022-10-31T15:00:00Z,68.53,-89.78,-17.0,-19.0,220,14,,15.0,29.68996,1005.9,,,,,,,,,,OVC,2000,,,,,,,MVFR,,,,,,,,,,,,METAR,13.0
CYAZ 311500Z 30006KT 5SM -SHRA BR OVC030 08/07 A2977 RMK CU8 SLP085,CYAZ,2022-10-31T15:00:00Z,49.08,-125.77,8.0,7.0,300,6,,5.0,29.769686,1008.5,,,,,,,,,-SHRA BR,OVC,3000,,,,,,,MVFR,,,,,,,,,,,,METAR,26.0
CYAW 311500Z 24008KT 15SM BKN250 14/07 A3007 RMK CI6 DENSITY ALT -19FT SLP184,CYAW,2022-10-31T15:00:00Z,44.63,-63.5,14.0,7.0,240,8,,15.0,30.070866,1018.4,,,,,,,,,,BKN,25000,,,,,,,VFR,,,,,,,,,,,,METAR,50.0
CYAT 311500Z AUTO 18005KT 9SM CLR 04/M00 A2976 RMK SLP081,CYAT,2022-10-31T15:00:00Z,52.93,-82.43,4.0,0.0,180,5,,9.0,29.760826,1008.1,,TRUE,,,,,,,,CLR,,,,,,,,VFR,,,,,,,,,,,,METAR,4.0
CYAS 311500Z 30015KT 15SM SCT045 M05/M09 A2980 RMK SC3 SLP103,CYAS,2022-10-31T15:00:00Z,60.02,-70.0,-5.0,-9.0,300,15,,15.0,29.799213,1010.3,,,,,,,,,,SCT,4500,,,,,,,VFR,,,,,,,,,,,,METAR,99.0
CYAM 311500Z 08006KT 8SM BKN120 BKN140 BKN220 11/08 A2984 RMK AC5AC1CI1 SLP112,CYAM,2022-10-31T15:00:00Z,46.48,-84.52,11.0,8.0,80,6,,8.0,29.840551,1011.2,,,,,,,,,,BKN,12000,BKN,14000,BKN,22000,,,VFR,,,,,,,,,,,,METAR,186.0
CYAH 311500Z AUTO 15004KT 9SM OVC015 03/M00 A2990 RMK SLP142,CYAH,2022-10-31T15:00:00Z,53.75,-73.67,3.0,0.0,150,4,,9.0,29.899607,1014.2,,TRUE,,,,,,,,OVC,1500,,,,,,,MVFR,,,,,,,,,,,,METAR,298.0
CYAB 311500Z 06004KT 5SM -SN OVC020 M15/M18 A2940 RMK NS8 CIG EST SLP961,CYAB,2022-10-31T15:00:00Z,73.0,-85.02,-15.0,-18.0,60,4,,5.0,29.40059,996.1,,,,,,,,,-SN,OVC,2000,,,,,,,MVFR,,,,,,,,,,,,METAR,36.0
CXZV 311500Z AUTO 32008KT 11/M01 RMK AO1 1018 SLP117 T01051008 50002,CXZV,2022-10-31T15:00:00Z,50.22,-66.25,10.5,-0.8,320,8,,,,1011.7,,TRUE,TRUE,,,,,,,,,,,,,,,,0.2,,,,,,,,,,,METAR,43.0
CXZC 311500Z AUTO 14002KT 07/02 RMK AO1 SLP100 T00740015 58018,CXZC,2022-10-31T15:00:00Z,51.3,-80.62,7.4,1.5,140,2,,,,1010.0,,TRUE,TRUE,,,,,,,,,,,,,,,,-1.8,,,,,,,,,,,METAR,8.0
CXYH 311500Z AUTO 03001KT M07/M08 RMK AO1 SLP047 T10711082 51015,CXYH,2022-10-31T15:00:00Z,61.25,-123.75,-7.1,-8.2,30,1,,,,1004.7,,TRUE,TRUE,,,,,,,,,,,,,,,,1.5,,,,,,,,,,,METAR,197.0
CXWN 311500Z AUTO 23006KT 07/M00 RMK AO1 SLP027 T00661001 55003,CXWN,2022-10-31T15:00:00Z,49.88,-97.13,6.6,-0.1,230,6,,,,1002.7,,TRUE,TRUE,,,,,,,,,,,,,,,,-0.3,,,,,,,,,,,METAR,232.0
CXWM 311500Z AUTO 20003KT 02/00 RMK AO1 T00150000,CXWM,2022-10-31T15:00:00Z,49.5,-112.12,1.5,0.0,200,3,,,,,,TRUE,TRUE,,,,,,,,,,,,,,,,,,,,,,,,,,,METAR,947.0
CXVW 311500Z AUTO 20007KT M03/M10 RMK AO1 SLP041 T10251097 56001,CXVW,2022-10-31T15:00:00Z,55.1,-117.2,-2.5,-9.7,200,7,,,,1004.1,,TRUE,TRUE,,,,,,,,,,,,,,,,-0.1,,,,,,,,,,,METAR,696.0
CXVN 311500Z AUTO 31002KT 08/07 RMK AO1 9PAST HR 8001 SLP139 P0004 T00770069 50034,CXVN,2022-10-31T15:00:00Z,43.18,-79.4,7.7,6.9,310,2,,,,1013.9,,TRUE,TRUE,,,,,,,,,,,,,,,,3.4,,,,,0.04,,,,,,METAR,86.0
CXVM 311500Z AUTO 26006KT 01/M06 RMK AO1 T00141055,CXVM,2022-10-31T15:00:00Z,53.35,-110.88,1.4,-5.5,260,6,,,,,,TRUE,TRUE,,,,,,,,,,,,,,,,,,,,,,,,,,,METAR,622.0
CXTV 311500Z AUTO 30005KT M12/M13 RMK AO1 SOG 09 3010 SLP176 T11151131,CXTV,2022-10-31T15:00:00Z,68.75,-133.5,-11.5,-13.1,300,5,,,,1017.6,,TRUE,TRUE,,,,,,,,,,,,,,,,,,,,,,,,,,,METAR,91.0
CXTP 311500Z AUTO 23011KT 12/05 RMK AO1 PK WND 22022/1417 SLP101 T01180053 58026,CXTP,2022-10-31T15:00:00Z,48.55,-53.97,11.8,5.3,230,11,,,,1010.1,,TRUE,TRUE,,,,,,,,,,,,,,,,-2.6,,,,,,,,,,,METAR,104.0
CXTO 311500Z AUTO 11/09 RMK AO1 1PAST HR 8001 SLP139 P0000 T01080088 50015,CXTO,2022-10-31T15:00:00Z,43.67,-79.4,10.8,8.8,,,,,,1013.9,,TRUE,TRUE,,,,,,,,,,,,,,,,1.5,,,,,0.005,,,,,,METAR,115.0
CXTN 311500Z AUTO 08006KT M20/M23 RMK AO1 SOG 22 3009 SLP150 T11951226,CXTN,2022-10-31T15:00:00Z,69.2,-122.35,-19.5,-22.6,80,6,,,,1015.0,,TRUE,TRUE,,,,,,,,,,,,,,,,,,,,,,,,,,,METAR,564.0
CXTH 311500Z AUTO 25008KT M00/M05 RMK AO1 T10011052,CXTH,2022-10-31T15:00:00Z,53.63,-111.68,-0.1,-5.2,250,8,,,,,,TRUE,TRUE,,,,,,,,,,,,,,,,,,,,,,,,,,,METAR,679.0
CXTD 311500Z AUTO 23009KT 14/01 RMK AO1 PK WND 21017/1400 SLP172 T01360006 55006,CXTD,2022-10-31T15:00:00Z,45.62,-61.68,13.6,0.6,230,9,,,,1017.2,,TRUE,TRUE,,,,,,,,,,,,,,,,-0.6,,,,,,,,,,,METAR,58.0
CXSP 311500Z AUTO 23006KT M03/M07 RMK AO1 T10271068,CXSP,2022-10-31T15:00:00Z,54.02,-111.27,-2.7,-6.8,230,6,,,,,,TRUE,TRUE,,,,,,,,,,,,,,,,,,,,,,,,,,,METAR,652.0
CXSL 311500Z AUTO 29003KT M03/M08 RMK AO1 T10291075,CXSL,2022-10-31T15:00:00Z,54.28,-112.5,-2.9,-7.5,290,3,,,,,,TRUE,TRUE,,,,,,,,,,,,,,,,,,,,,,,,,,,METAR,680.0
CXSH 311500Z AUTO 10002KT 09/02 RMK AO1 SLP157 T00920017 58003,CXSH,2022-10-31T15:00:00Z,46.55,-72.73,9.2,1.7,100,2,,,,1015.7,,TRUE,TRUE,,,,,,,,,,,,,,,,-0.3,,,,,,,,,,,METAR,106.0
CXSE 311500Z AUTO 34019G24KT M16/M18 RMK AO1 SOG 05 3002 PK WND 33025/1413 SLP056 T11591180,CXSE,2022-10-31T15:00:00Z,73.77,-105.28,-15.9,-18.0,340,19,24,,,1005.6,,TRUE,TRUE,,,,,,,,,,,,,,,,,,,,,,,,,,,METAR,11.0
CXSC 311500Z AUTO 07004KT 03/M01 RMK AO1 T00251007,CXSC,2022-10-31T15:00:00Z,50.3,-110.08,2.5,-0.7,70,4,,,,,,TRUE,TRUE,,,,,,,,,,,,,,,,,,,,,,,,,,,METAR,809.0
CXRL 311500Z AUTO 25009KT M02/M08 RMK AO1 T10201075,CXRL,2022-10-31T15:00:00Z,54.5,-111.7,-2.0,-7.5,250,9,,,,,,TRUE,TRUE,,,,,,,,,,,,,,,,,,,,,,,,,,,METAR,585.0
CXRH 311500Z AUTO 23013G22KT 12/07 RMK AO1 PK WND 25028/1414 SLP074 T01160070 56014,CXRH,2022-10-31T15:00:00Z,49.57,-57.88,11.6,7.0,230,13,22,,,1007.4,,TRUE,TRUE,,,,,,,,,,,,,,,,-1.4,,,,,,,,,,,METAR,68.0
CXRB 311500Z AUTO 36012KT M24/M27 RMK AO1 SOG 03 6003 SLP999 T12401270,CXRB,2022-10-31T15:00:00Z,74.72,-94.98,-24.0,-27.0,360,12,,,,999.9,,TRUE,TRUE,,,,,,,,,,,,,,,,,,,,,,,,,,,METAR,30.0
CXPL 311500Z AUTO 33005KT M00/M00 RMK AO1 T10031003,CXPL,2022-10-31T15:00:00Z,51.13,-111.7,-0.3,-0.3,330,5,,,,,,TRUE,TRUE,,,,,,,,,,,,,,,,,,,,,,,,,,,METAR,735.0
CXPC 311500Z AUTO 10/06 RMK AO1 SLP128 T01040056 58004,CXPC,2022-10-31T15:00:00Z,45.35,-80.05,10.4,5.6,,,,,,1012.8,,TRUE,TRUE,,,,,,,,,,,,,,,,-0.4,,,,,,,,,,,METAR,176.0
CXPA 311500Z AUTO 06003KT M09/M12 RMK AO1 T10911119,CXPA,2022-10-31T15:00:00Z,55.62,-118.3,-9.1,-11.9,60,3,,,,,,TRUE,TRUE,,,,,,,,,,,,,,,,,,,,,,,,,,,METAR,628.0
CXOY 311500Z AUTO 32004KT 02/M04 RMK AO1 T00181039,CXOY,2022-10-31T15:00:00Z,51.35,-110.35,1.8,-3.9,320,4,,,,,,TRUE,TRUE,,,,,,,,,,,,,,,,,,,,,,,,,,,METAR,784.0
CXOX 311500Z AUTO 27008G16KT 03/M05 RMK AO1 SLP986 T00321050 53023,CXOX,2022-10-31T15:00:00Z,55.15,-105.27,3.2,-5.0,270,8,16,,,998.6,,TRUE,TRUE,,,,,,,,,,,,,,,,2.3,,,,,,,,,,,METAR,381.0
CXOL 311500Z AUTO 11001KT 01/01 RMK AO1 T00060006,CXOL,2022-10-31T15:00:00Z,51.77,-114.08,0.6,0.6,110,1,,,,,,TRUE,TRUE,,,,,,,,,,,,,,,,,,,,,,,,,,,METAR,1026.0
CXNP 311500Z AUTO 20006KT 13/09 RMK AO1 2PAST HR 0000 SLP161 P0001 T01340093 50002,CXNP,2022-10-31T15:00:00Z,45.75,-64.23,13.4,9.3,200,6,,,,1016.1,,TRUE,TRUE,,,,,,,,,,,,,,,,0.2,,,,,0.01,,,,,,METAR,19.0
CXNM 311500Z AUTO 26018G26KT 12/02 RMK AO1 PK WND 27026/1452 T01190016,CXNM,2022-10-31T15:00:00Z,46.82,-60.67,11.9,1.6,260,18,26,,,,,TRUE,TRUE,,,,,,,,,,,,,,,,,,,,,,,,,,,METAR,452.0
CXMY 311500Z AUTO 14/04 RMK AO1 T01370042,CXMY,2022-10-31T15:00:00Z,44.98,-62.48,13.7,4.2,,,,,,,,TRUE,TRUE,,,,,,,,,,,,,,,,,,,,,,,,,,,METAR,37.0
CXMO 311500Z AUTO 31005KT 01/M00 RMK AO1 T00121001,CXMO,2022-10-31T15:00:00Z,51.67,-112.68,1.2,-0.1,310,5,,,,,,TRUE,TRUE,,,,,,,,,,,,,,,,,,,,,,,,,,,METAR,837.0
CXMM 311500Z AUTO 28005KT M01/M03 RMK AO1 SLP025 T10071027 53014,CXMM,2022-10-31T15:00:00Z,56.65,-111.22,-0.7,-2.7,280,5,,,,1002.5,,TRUE,TRUE,,,,,,,,,,,,,,,,1.4,,,,,,,,,,,METAR,372.0
CXMI 311500Z AUTO 24006KT 14/06 RMK AO1 SLP180 T01440064 58006,CXMI,2022-10-31T15:00:00Z,44.6,-63.53,14.4,6.4,240,6,,,,1018.0,,TRUE,TRUE,,,,,,,,,,,,,,,,-0.6,,,,,,,,,,,METAR,15.0
CXMG 311500Z AUTO 36003KT M06/M07 RMK AO1 T10611068,CXMG,2022-10-31T15:00:00Z,56.97,-117.45,-6.1,-6.8,360,3,,,,,,TRUE,TRUE,,,,,,,,,,,,,,,,,,,,,,,,,,,METAR,467.0
CXMD 311500Z AUTO 25012G17KT 07/M00 RMK AO1 PK WND 27019/1421 SLP041 T00731001 55000,CXMD,2022-10-31T15:00:00Z,49.18,-98.08,7.3,-0.1,250,12,17,,,1004.1,,TRUE,TRUE,,,,,,,,,,,,,,,,0.0,,,,,,,,,,,METAR,297.0
CXLL 311500Z AUTO 03002KT M06/M08 RMK AO1 SOG 18 1012 SLP059 T10621076,CXLL,2022-10-31T15:00:00Z,61.12,-122.85,-6.2,-7.6,30,2,,,,1005.9,,TRUE,TRUE,,,,,,,,,,,,,,,,,,,,,,,,,,,METAR,180.0
CXLB 311500Z AUTO 23006KT 14/08 RMK AO1 SLP184 T01430083 58005,CXLB,2022-10-31T15:00:00Z,44.37,-64.3,14.3,8.3,230,6,,,,1018.4,,TRUE,TRUE,,,,,,,,,,,,,,,,-0.5,,,,,,,,,,,METAR,4.0
CXKT 311500Z AUTO 29003KT 13/07 RMK AO1 SLP170 T01290066 58009,CXKT,2022-10-31T15:00:00Z,45.07,-64.48,12.9,6.6,290,3,,,,1017.0,,TRUE,TRUE,,,,,,,,,,,,,,,,-0.9,,,,,,,,,,,METAR,48.0
CXKM 311500Z AUTO 28006KT 02/M06 RMK AO1 T00221055,CXKM,2022-10-31T15:00:00Z,52.83,-111.87,2.2,-5.5,280,6,,,,,,TRUE,TRUE,,,,,,,,,,,,,,,,,,,,,,,,,,,METAR,679.0
CXKI 311500Z AUTO 00015KT 07/05 RMK AO1 SLP122 T00720047 58004,CXKI,2022-10-31T15:00:00Z,48.13,-80.0,7.2,4.7,0,15,,,,1012.2,,TRUE,TRUE,,,,,,,,,,,,,,,,-0.4,,,,,,,,,,,METAR,328.0
CXKE 311500Z AUTO 20004KT 13/05 RMK AO1 SLP144 T01250052 58005,CXKE,2022-10-31T15:00:00Z,45.0,-75.63,12.5,5.2,200,4,,,,1014.4,,TRUE,TRUE,,,,,,,,,,,,,,,,-0.5,,,,,,,,,,,METAR,99.0
CXKA 311500Z AUTO 20003KT 07/04 RMK AO1 SLP101 T00680039 58011,CXKA,2022-10-31T15:00:00Z,49.4,-82.45,6.8,3.9,200,3,,,,1010.1,,TRUE,TRUE,,,,,,,,,,,,,,,,-1.1,,,,,,,,,,,METAR,221.0
CXIB 311500Z AUTO 25009G17KT 18/01 RMK AO1 PK WND 24018/1449 SLP123 T01820006 56011,CXIB,2022-10-31T15:00:00Z,46.67,-60.4,18.2,0.6,250,9,17,,,1012.3,,TRUE,TRUE,,,,,,,,,,,,,,,,-1.1,,,,,,,,,,,METAR,6.0
CXHR 311500Z AUTO 34005KT 01/M02 RMK AO1 T00121022,CXHR,2022-10-31T15:00:00Z,51.18,-112.5,1.2,-2.2,340,5,,,,,,TRUE,TRUE,,,,,,,,,,,,,,,,,,,,,,,,,,,METAR,975.0
CXHP 311500Z AUTO 23008KT M02/M09 RMK AO1 T10171091,CXHP,2022-10-31T15:00:00Z,55.4,-116.48,-1.7,-9.1,230,8,,,,,,TRUE,TRUE,,,,,,,,,,,,,,,,,,,,,,,,,,,METAR,601.0
CXHM 311500Z AUTO 00000KT 08/07 RMK AO1 9PAST HR 8003 SLP137 P0004 T00810074 50018,CXHM,2022-10-31T15:00:00Z,43.28,-79.9,8.1,7.4,0,0,,,,1013.7,,TRUE,TRUE,,,,,,,,,,,,,,,,1.8,,,,,0.04,,,,,,METAR,105.0
CXHD 311500Z AUTO 25006KT M00/M04 RMK AO1 T10041041,CXHD,2022-10-31T15:00:00Z,53.18,-112.25,-0.4,-4.1,250,6,,,,,,TRUE,TRUE,,,,,,,,,,,,,,,,,,,,,,,,,,,METAR,688.0
CXHA 311500Z AUTO 19008KT 15/14 RMK AO1 0000 SLP109 T01470138 50004,CXHA,2022-10-31T15:00:00Z,42.03,-82.9,14.7,13.8,190,8,,,,1010.9,,TRUE,TRUE,,,,,,,,,,,,,,,,0.4,,,,,,,,,,,METAR,193.0
CXGH 311500Z AUTO 24012KT 07/01 RMK AO1 SLP006 T00730012 56001,CXGH,2022-10-31T15:00:00Z,50.63,-97.0,7.3,1.2,240,12,,,,1000.6,,TRUE,TRUE,,,,,,,,,,,,,,,,-0.1,,,,,,,,,,,METAR,217.0
CXFR 311500Z AUTO 16001KT M08/M11 RMK AO1 T10801106,CXFR,2022-10-31T15:00:00Z,56.08,-118.43,-8.0,-10.6,160,1,,,,,,TRUE,TRUE,,,,,,,,,,,,,,,,,,,,,,,,,,,METAR,657.0
CXFM 311500Z AUTO 18004KT 05/02 RMK AO1 T00490021,CXFM,2022-10-31T15:00:00Z,49.48,-111.48,4.9,2.1,180,4,,,,,,TRUE,TRUE,,,,,,,,,,,,,,,,,,,,,,,,,,,METAR,884.0
CXET 311500Z AUTO 16005KT 08/08 RMK AO1 0PAST HR 8001 SLP135 P0004 T00840075 50033,CXET,2022-10-31T15:00:00Z,44.23,-79.78,8.4,7.5,160,5,,,,1013.5,,TRUE,TRUE,,,,,,,,,,,,,,,,3.3,,,,,0.04,,,,,,METAR,250.0
CXEG 311500Z AUTO 20006KT M05/M06 RMK AO1 SLP067 T10471061 53003,CXEG,2022-10-31T15:00:00Z,53.3,-113.6,-4.7,-6.1,200,6,,,,1006.7,,TRUE,TRUE,,,,,,,,,,,,,,,,0.3,,,,,,,,,,,METAR,706.0
CXEC 311500Z AUTO 25002KT M01/M06 RMK AO1 SLP061 T10131060 53004,CXEC,2022-10-31T15:00:00Z,53.57,-113.52,-1.3,-6.0,250,2,,,,1006.1,,TRUE,TRUE,,,,,,,,,,,,,,,,0.4,,,,,,,,,,,METAR,666.0
CXEA 311500Z AUTO 22003KT 07/M00 RMK AO1 SLP017 T00661004 57010,CXEA,2022-10-31T15:00:00Z,50.63,-93.22,6.6,-0.4,220,3,,,,1001.7,,TRUE,TRUE,,,,,,,,,,,,,,,,-1.0,,,,,,,,,,,METAR,351.0
CXDW 311500Z AUTO 25017G22KT 07/M00 RMK AO1 PK WND 26024/1431 SLP036 T00711002 55002,CXDW,2022-10-31T15:00:00Z,49.4,-98.32,7.1,-0.2,250,17,22,,,1003.6,,TRUE,TRUE,,,,,,,,,,,,,,,,-0.2,,,,,,,,,,,METAR,341.0
CXDK 311500Z AUTO M06/M10 RMK AO1 SOG 08 1014 SLP049 T10611097,CXDK,2022-10-31T15:00:00Z,61.27,-124.47,-6.1,-9.7,,,,,,1004.9,,TRUE,TRUE,,,,,,,,,,,,,,,,,,,,,,,,,,,METAR,269.0
CXDI 311500Z AUTO 18005KT 13/11 RMK AO1 8006 SLP125 T01260113 50019,CXDI,2022-10-31T15:00:00Z,42.87,-80.55,12.6,11.3,180,5,,,,1012.5,,TRUE,TRUE,,,,,,,,,,,,,,,,1.9,,,,,,,,,,,METAR,234.0
CXDE 311500Z AUTO 33012KT M10/M12 RMK AO1 SOG 11 3016 SLP085 T11021121,CXDE,2022-10-31T15:00:00Z,65.22,-123.43,-10.2,-12.1,330,12,,,,1008.5,,TRUE,TRUE,,,,,,,,,,,,,,,,,,,,,,,,,,,METAR,208.0
CXDB 311500Z AUTO 27005KT 06/01 RMK AO1 T00570011,CXDB,2022-10-31T15:00:00Z,49.05,-112.82,5.7,1.1,270,5,,,,,,TRUE,TRUE,,,,,,,,,,,,,,,,,,,,,,,,,,,METAR,1311.0
CXCS 311500Z AUTO 27008KT 03/M04 RMK AO1 T00261037,CXCS,2022-10-31T15:00:00Z,51.93,-110.72,2.6,-3.7,270,8,,,,,,TRUE,TRUE,,,,,,,,,,,,,,,,,,,,,,,,,,,METAR,771.0
CXCP 311500Z AUTO 35008KT M00/M01 RMK AO1 T10041006,CXCP,2022-10-31T15:00:00Z,50.28,-113.35,-0.4,-0.6,350,8,,,,,,TRUE,TRUE,,,,,,,,,,,,,,,,,,,,,,,,,,,METAR,999.0
CXCK 311500Z AUTO 30005KT M07/M10 RMK AO1 SOG 06 1022 SLP029 T10701097 50002,CXCK,2022-10-31T15:00:00Z,62.12,-136.2,-7.0,-9.7,300,5,,,,1002.9,,TRUE,TRUE,,,,,,,,,,,,,,,,0.2,,,,,,,,,,,METAR,526.0
CXCD 311500Z AUTO 26002KT M05/M09 RMK AO1 T10521087,CXCD,2022-10-31T15:00:00Z,56.32,-119.75,-5.2,-8.7,260,2,,,,,,TRUE,TRUE,,,,,,,,,,,,,,,,,,,,,,,,,,,METAR,628.0
CXCA 311500Z AUTO 09001KT 01/01 RMK AO1 SLP102 T00050014 56006,CXCA,2022-10-31T15:00:00Z,49.15,-88.35,0.5,1.4,90,1,,,,1010.2,,TRUE,TRUE,,,,,,,,,,,,,,,,-0.6,,,,,,,,,,,METAR,228.0
CXBW 311500Z AUTO 01006KT 02/01 RMK AO1 T00210009,CXBW,2022-10-31T15:00:00Z,49.8,-112.3,2.1,0.9,10,6,,,,,,TRUE,TRUE,,,,,,,,,,,,,,,,,,,,,,,,,,,METAR,823.0
CXBR 311500Z AUTO 04004KT RMK AO1,CXBR,2022-10-31T15:00:00Z,49.62,-113.82,,,40,4,,,,,,TRUE,TRUE,,,,,,,,,,,,,,,,,,,,,,,,,,,METAR,1137.0
CXBO 311500Z AUTO 23002KT 11/02 RMK AO1 T01130024,CXBO,2022-10-31T15:00:00Z,46.83,-71.2,11.3,2.4,230,2,,,,,,TRUE,TRUE,,,,,,,,,,,,,,,,,,,,,,,,,,,METAR,8.0
CXBK 311500Z AUTO 28009KT 04/01 RMK AO1 SOG 01 1016 SLP074 T00390009,CXBK,2022-10-31T15:00:00Z,50.2,-104.7,3.9,0.9,280,9,,,,1007.4,,TRUE,TRUE,,,,,,,,,,,,,,,,,,,,,,,,,,,METAR,585.0
CXBI 311500Z AUTO 16004KT 08/06 RMK AO1 2PAST HR 0002 SLP144 P0001 T00790061 50002,CXBI,2022-10-31T15:00:00Z,44.48,-79.55,7.9,6.1,160,4,,,,1014.4,,TRUE,TRUE,,,,,,,,,,,,,,,,0.2,,,,,0.01,,,,,,METAR,287.0
CXBA 311500Z AUTO 25004KT 03/M05 RMK AO1 T00301049,CXBA,2022-10-31T15:00:00Z,52.12,-110.1,3.0,-4.9,250,4,,,,,,TRUE,TRUE,,,,,,,,,,,,,,,,,,,,,,,,,,,METAR,696.0
CXAT 311500Z AUTO 07005KT M15/M18 RMK AO1 SOG 08 1005 SLP963 T11511183,CXAT,2022-10-31T15:00:00Z,73.0,-85.03,-15.1,-18.3,70,5,,,,996.3,,TRUE,TRUE,,,,,,,,,,,,,,,,,,,,,,,,,,,METAR,10.0
CXAK 311500Z AUTO 22003KT 02/M03 RMK AO1 T00241032,CXAK,2022-10-31T15:00:00Z,52.35,-112.6,2.4,-3.2,220,3,,,,,,TRUE,TRUE,,,,,,,,,,,,,,,,,,,,,,,,,,,METAR,799.0
CXAJ 311500Z AUTO 23007KT M04/M08 RMK AO1 T10371080,CXAJ,2022-10-31T15:00:00Z,54.78,-112.82,-3.7,-8.0,230,7,,,,,,TRUE,TRUE,,,,,,,,,,,,,,,,,,,,,,,,,,,METAR,586.0
CXAG 311500Z AUTO 23008KT M05/M08 RMK AO1 T10521079,CXAG,2022-10-31T15:00:00Z,53.92,-112.28,-5.2,-7.9,230,8,,,,,,TRUE,TRUE,,,,,,,,,,,,,,,,,,,,,,,,,,,METAR,632.0
CXAF 311500Z AUTO 27006KT M04/M08 RMK AO1 T10371081,CXAF,2022-10-31T15:00:00Z,54.28,-112.97,-3.7,-8.1,270,6,,,,,,TRUE,TRUE,,,,,,,,,,,,,,,,,,,,,,,,,,,METAR,667.0
CWZW 311500Z AUTO 03003KT M08/M10 RMK AO1 SOG 05 3011 SLP004 T10791096,CWZW,2022-10-31T15:00:00Z,60.17,-132.73,-7.9,-9.6,30,3,,,,1000.4,,TRUE,TRUE,,,,,,,,,,,,,,,,,,,,,,,,,,,METAR,683.0
CWZQ 311500Z AUTO 22014G19KT 14/07 RMK AO1 PK WND 20019/1437 SLP153 T01360066 55000,CWZQ,2022-10-31T15:00:00Z,46.53,-61.05,13.6,6.6,220,14,19,,,1015.3,,TRUE,TRUE,,,,,,,,,,,,,,,,0.0,,,,,,,,,,,METAR,13.0
CWZO 311500Z AUTO 21015KT RMK AO1 PK WND 18019/1420,CWZO,2022-10-31T15:00:00Z,48.57,-123.25,,,210,15,,,,,,TRUE,TRUE,,,,,,,,,,,,,,,,,,,,,,,,,,,METAR,5.0
CWZN 311500Z AUTO 22021KT 12/09 RMK AO1 PK WND 22025/1426 SLP121 T01200089 58026,CWZN,2022-10-31T15:00:00Z,47.37,-55.8,12.0,8.9,220,21,,,,1012.1,,TRUE,TRUE,,,,,,,,,,,,,,,,-2.6,,,,,,,,,,,METAR,63.0
CWZL 311500Z AUTO 22003KT 03/02 RMK AO1 SLP056 T00330017 56003,CWZL,2022-10-31T15:00:00Z,53.03,-131.6,3.3,1.7,220,3,,,,1005.6,,TRUE,TRUE,,,,,,,,,,,,,,,,-0.3,,,,,,,,,,,METAR,17.0
CWZG 311500Z AUTO 22004KT 01/M00 RMK AO1 8004 SLP048 T00111004 50003,CWZG,2022-10-31T15:00:00Z,51.2,-115.55,1.1,-0.4,220,4,,,,1004.8,,TRUE,TRUE,,,,,,,,,,,,,,,,0.3,,,,,,,,,,,METAR,1402.0
CWZA 311500Z AUTO 19003KT 08/08 RMK AO1 9PAST HR 5017 SLP070 P0011 T00820079 50049,CWZA,2022-10-31T15:00:00Z,49.25,-121.77,8.2,7.9,190,3,,,,1007.0,,TRUE,TRUE,,,,,,,,,,,,,,,,4.9,,,,,0.11,,,,,,METAR,18.0
CWYY 311500Z AUTO 18003KT 09/08 RMK AO1 SLP060 T00920079 56013,CWYY,2022-10-31T15:00:00Z,49.03,-119.43,9.2,7.9,180,3,,,,1006.0,,TRUE,TRUE,,,,,,,,,,,,,,,,-1.3,,,,,,,,,,,METAR,284.0
CWYL 311500Z AUTO 28011G16KT M00/M01 RMK AO1 3PAST HR SOG 05 8003 SLP049 P0001 T10011007 50003,CWYL,2022-10-31T15:00:00Z,51.45,-116.33,-0.1,-0.7,280,11,16,,,1004.9,,TRUE,TRUE,,,,,,,,,,,,,,,,0.3,,,,,0.01,,,,,,METAR,1602.0
CWYJ 311500Z AUTO 18004KT 09/09 RMK AO1 1PAST HR 5011 SLP069 P0004 T00850091 50022,CWYJ,2022-10-31T15:00:00Z,48.45,-123.3,8.5,9.1,180,4,,,,1006.9,,TRUE,TRUE,,,,,,,,,,,,,,,,2.2,,,,,0.04,,,,,,METAR,59.0
CWXL 311500Z AUTO 19001KT 05/02 RMK AO1 SLP055 T00520023 53002,CWXL,2022-10-31T15:00:00Z,49.73,-111.45,5.2,2.3,190,1,,,,1005.5,,TRUE,TRUE,,,,,,,,,,,,,,,,0.2,,,,,,,,,,,METAR,815.0
CWXI 311500Z AUTO 23028G34KT 10/08 RMK AO1 PK WND 22035/1430 SLP009 T01020078 58031,CWXI,2022-10-31T15:00:00Z,51.02,-57.1,10.2,7.8,230,28,34,,,1000.9,,TRUE,TRUE,,,,,,,,,,,,,,,,-3.1,,,,,,,,,,,METAR,15.0
CWXC 311500Z AUTO 19003KT 10/03 RMK AO1 SLP148 T00960029 58002,CWXC,2022-10-31T15:00:00Z,48.88,-71.03,9.6,2.9,190,3,,,,1014.8,,TRUE,TRUE,,,,,,,,,,,,,,,,-0.2,,,,,,,,,,,METAR,306.0
CWXA 311500Z AUTO 00036KT 01/M01 RMK AO1 2PAST HR 5003 SLP079 P0001 T00051007 50002,CWXA,2022-10-31T15:00:00Z,51.07,-115.07,0.5,-0.7,0,36,,,,1007.9,,TRUE,TRUE,,,,,,,,,,,,,,,,0.2,,,,,0.01,,,,,,METAR,1303.0
CWWZ 311500Z AUTO 01004KT 10/09 RMK AO1 0000 SLP139 T00970088 50028,CWWZ,2022-10-31T15:00:00Z,43.25,-79.22,9.7,8.8,10,4,,,,1013.9,,TRUE,TRUE,,,,,,,,,,,,,,,,2.8,,,,,,,,,,,METAR,75.0
CWWS 311500Z AUTO 25012G17KT 07/03 RMK AO1 PK WND 23020/1406 SLP958 T00680028 55000,CWWS,2022-10-31T15:00:00Z,52.82,-97.62,6.8,2.8,250,12,17,,,995.8,,TRUE,TRUE,,,,,,,,,,,,,,,,0.0,,,,,,,,,,,METAR,220.0
CWWL 311500Z AUTO 23014KT 06/01 RMK AO1 PK WND 23018/1458 SLP043 T00620009 58001,CWWL,2022-10-31T15:00:00Z,53.5,-130.63,6.2,0.9,230,14,,,,1004.3,,TRUE,TRUE,,,,,,,,,,,,,,,,-0.1,,,,,,,,,,,METAR,8.0
CWWK 311500Z AUTO 14002KT 09/08 RMK AO1 6PAST HR 6023 SLP065 P0002 T00930084 50038,CWWK,2022-10-31T15:00:00Z,49.02,-122.78,9.3,8.4,140,2,,,,1006.5,,TRUE,TRUE,,,,,,,,,,,,,,,,3.8,,,,,0.02,,,,,,METAR,10.0
CWWF 311500Z AUTO 30007KT 04/01 RMK AO1 SLP069 T00440005 52014,CWWF,2022-10-31T15:00:00Z,49.7,-103.8,4.4,0.5,300,7,,,,1006.9,,TRUE,TRUE,,,,,,,,,,,,,,,,1.4,,,,,,,,,,,METAR,583.0
CWWE 311500Z AUTO 21009KT 15/09 RMK AO1 SLP188 T01490089 58005,CWWE,2022-10-31T15:00:00Z,43.98,-64.67,14.9,8.9,210,9,,,,1018.8,,TRUE,TRUE,,,,,,,,,,,,,,,,-0.5,,,,,,,,,,,METAR,4.0
CWWB 311500Z AUTO 05004KT 08/07 RMK AO1 SLP137 T00750072 58003,CWWB,2022-10-31T15:00:00Z,43.3,-79.78,7.5,7.2,50,4,,,,1013.7,,TRUE,TRUE,,,,,,,,,,,,,,,,-0.3,,,,,,,,,,,METAR,77.0
CWWA 311500Z AUTO 04001KT 08/08 RMK AO1 3PAST HR 6017 SLP065 P0005 T00830081 50037,CWWA,2022-10-31T15:00:00Z,49.35,-123.18,8.3,8.1,40,1,,,,1006.5,,TRUE,TRUE,,,,,,,,,,,,,,,,3.7,,,,,0.05,,,,,,METAR,172.0
CWVT 311500Z AUTO 33010KT 02/M03 RMK AO1 PK WND 32019/1436 SLP027 T00161029 53030,CWVT,2022-10-31T15:00:00Z,55.83,-108.42,1.6,-2.9,330,10,,,,1002.7,,TRUE,TRUE,,,,,,,,,,,,,,,,3.0,,,,,,,,,,,METAR,431.0
CWVQ 311500Z AUTO 17002KT 13/M00 RMK AO1 SLP151 T01341001 58005,CWVQ,2022-10-31T15:00:00Z,45.42,-73.92,13.4,-0.1,170,2,,,,1015.1,,TRUE,TRUE,,,,,,,,,,,,,,,,-0.5,,,,,,,,,,,METAR,38.0
CWVP 311500Z AUTO 26004KT 07/M00 RMK AO1 SLP046 T00721001 56005,CWVP,2022-10-31T15:00:00Z,49.63,-109.52,7.2,-0.1,260,4,,,,1004.6,,TRUE,TRUE,,,,,,,,,,,,,,,,-0.5,,,,,,,,,,,METAR,1269.0
CWVN 311500Z AUTO 23004KT 06/02 RMK AO1 SLP065 T00570015 55001,CWVN,2022-10-31T15:00:00Z,49.07,-107.58,5.7,1.5,230,4,,,,1006.5,,TRUE,TRUE,,,,,,,,,,,,,,,,-0.1,,,,,,,,,,,METAR,792.0
CWVI 311500Z AUTO 24008KT M00/M06 RMK AO1 SLP061 T10031057 53006,CWVI,2022-10-31T15:00:00Z,53.52,-112.1,-0.3,-5.7,240,8,,,,1006.1,,TRUE,TRUE,,,,,,,,,,,,,,,,0.6,,,,,,,,,,,METAR,640.0
CWVF 311500Z AUTO 17014KT 10/09 RMK AO1 PK WND 14019/1400 T01010094,CWVF,2022-10-31T15:00:00Z,49.1,-123.3,10.1,9.4,170,14,,,,,,TRUE,TRUE,,,,,,,,,,,,,,,,,,,,,,,,,,,METAR,13.0
CWUX 311500Z AUTO 06003KT 10/03 RMK AO1 SLP152 T00950030 58006,CWUX,2022-10-31T15:00:00Z,48.3,-70.93,9.5,3.0,60,3,,,,1015.2,,TRUE,TRUE,,,,,,,,,,,,,,,,-0.6,,,,,,,,,,,METAR,150.0
CWUW 311500Z AUTO 29015KT ////SM FEW007 M20/M22 A2940,CWUW,2022-10-31T15:00:00Z,68.62,-71.12,-20.0,-22.0,290,15,,,29.40059,,,TRUE,,,,,,,,FEW,700,,,,,,,,,,,,,,,,,,,METAR,173.0
CWUS 311500Z AUTO 33002KT 08/01 RMK AO1 SLP061 T00760012 56008,CWUS,2022-10-31T15:00:00Z,49.57,-119.65,7.6,1.2,330,2,,,,1006.1,,TRUE,TRUE,,,,,,,,,,,,,,,,-0.8,,,,,,,,,,,METAR,455.0
CWTY 311500Z AUTO 07003KT 09/04 RMK AO1 SLP159 T00890036 58004,CWTY,2022-10-31T15:00:00Z,46.35,-72.52,8.9,3.6,70,3,,,,1015.9,,TRUE,TRUE,,,,,,,,,,,,,,,,-0.4,,,,,,,,,,,METAR,8.0
CWTT 311500Z AUTO 22003KT 10/02 RMK AO1 T00960020,CWTT,2022-10-31T15:00:00Z,45.27,-72.17,9.6,2.0,220,3,,,,,,TRUE,TRUE,,,,,,,,,,,,,,,,,,,,,,,,,,,METAR,210.0
CWTN 311500Z AUTO 26004KT 12/03 RMK AO1 SLP154 T01170034 58002,CWTN,2022-10-31T15:00:00Z,47.07,-70.78,11.7,3.4,260,4,,,,1015.4,,TRUE,TRUE,,,,,,,,,,,,,,,,-0.2,,,,,,,,,,,METAR,5.0
CWTG 311500Z AUTO 25009KT 08/04 RMK AO1 SLP135 T00760041 51012,CWTG,2022-10-31T15:00:00Z,49.32,-67.37,7.6,4.1,250,9,,,,1013.5,,TRUE,TRUE,,,,,,,,,,,,,,,,1.2,,,,,,,,,,,METAR,6.0
CWTA 311500Z AUTO 15004KT 14/01 RMK AO1 SLP150 T01390007 58004,CWTA,2022-10-31T15:00:00Z,45.5,-73.58,13.9,0.7,150,4,,,,1015.0,,TRUE,TRUE,,,,,,,,,,,,,,,,-0.4,,,,,,,,,,,METAR,71.0
CWSW 311500Z 00000KT 4SM -RA FEW008 OVC026 06/06 A2966 RMK SF2ST6 SLP064 DENSITY ALT 3900FT,CWSW,2022-10-31T15:00:00Z,49.83,-114.87,6.0,6.0,0,0,,4.0,29.660433,1006.4,,,,,,,,,-RA,FEW,800,OVC,2600,,,,,MVFR,,,,,,,,,,,,METAR,1173.0
CWST 311500Z AUTO 25005KT 13/M00 RMK AO1 SLP150 T01301001 50002,CWST,2022-10-31T15:00:00Z,47.35,-70.02,13.0,-0.1,250,5,,,,1015.0,,TRUE,TRUE,,,,,,,,,,,,,,,,0.2,,,,,,,,,,,METAR,31.0
CWSS 311500Z AUTO 22002KT 12/07 RMK AO1 SLP170 T01160071 58007,CWSS,2022-10-31T15:00:00Z,45.2,-67.25,11.6,7.1,220,2,,,,1017.0,,TRUE,TRUE,,,,,,,,,,,,,,,,-0.7,,,,,,,,,,,METAR,27.0
CWSR 311500Z AUTO 25011KT 02/M08 RMK AO1 PK WND 25020/1402 SLP036 T00241079 51016,CWSR,2022-10-31T15:00:00Z,53.37,-107.55,2.4,-7.9,250,11,,,,1003.6,,TRUE,TRUE,,,,,,,,,,,,,,,,1.6,,,,,,,,,,,METAR,589.0
CWSP 311500Z AUTO 29015KT 10/09 RMK AO1 2PAST HR 5006 PK WND 28020/1445 SLP070 P0005 T00970089 50030,CWSP,2022-10-31T15:00:00Z,48.38,-123.92,9.7,8.9,290,15,,,,1007.0,,TRUE,TRUE,,,,,,,,,,,,,,,,3.0,,,,,0.05,,,,,,METAR,2.0
CWSL 311500Z AUTO 18003KT 04/04 RMK AO1 8011 SLP056 T00420040 50002,CWSL,2022-10-31T15:00:00Z,50.7,-119.28,4.2,4.0,180,3,,,,1005.6,,TRUE,TRUE,,,,,,,,,,,,,,,,0.2,,,,,,,,,,,METAR,353.0
CWSK 311500Z AUTO 14005KT 09/08 RMK AO1 2PAST HR 6016 SLP048 P0009 T00900075 50065,CWSK,2022-10-31T15:00:00Z,49.78,-123.17,9.0,7.5,140,5,,,,1004.8,,TRUE,TRUE,,,,,,,,,,,,,,,,6.5,,,,,0.09,,,,,,METAR,59.0
CWSG 311500Z AUTO 09/04 RMK AO1 24 1014 SLP140 T00890037,CWSG,2022-10-31T15:00:00Z,49.12,-66.65,8.9,3.7,,,,,,1014.0,,TRUE,TRUE,,,,,,,,,,,,,,,,,,,,,,,,,,,METAR,5.0
CWSF 311500Z AUTO 28013G20KT 10/03 RMK AO1 PK WND 29022/1401 SLP123 T01010028 52021,CWSF,2022-10-31T15:00:00Z,49.25,-65.32,10.1,2.8,280,13,20,,,1012.3,,TRUE,TRUE,,,,,,,,,,,,,,,,2.1,,,,,,,,,,,METAR,15.0
CWSD 311500Z AUTO 25011KT 12/04 RMK AO1 SLP154 T01220039 51001,CWSD,2022-10-31T15:00:00Z,46.43,-63.85,12.2,3.9,250,11,,,,1015.4,,TRUE,TRUE,,,,,,,,,,,,,,,,0.1,,,,,,,,,,,METAR,12.0
CWSA 311500Z AUTO 23012KT 9SM CLR 15/12 A3007 RMK SLP184,CWSA,2022-10-31T15:00:00Z,43.93,-60.0,15.0,12.0,230,12,,9.0,30.070866,1018.4,,TRUE,,,,,,,,CLR,,,,,,,,VFR,,,,,,,,,,,,METAR,4.0
CWRZ 311500Z AUTO 24009KT 08/04 RMK AO1 SLP117 T00750043 51010,CWRZ,2022-10-31T15:00:00Z,48.42,-64.32,7.5,4.3,240,9,,,,1011.7,,TRUE,TRUE,,,,,,,,,,,,,,,,1.0,,,,,,,,,,,METAR,16.0
CWRY 311500Z AUTO 26007KT 07/02 RMK AO1 SLP051 T00660023 55000,CWRY,2022-10-31T15:00:00Z,49.12,-112.05,6.6,2.3,260,7,,,,1005.1,,TRUE,TRUE,,,,,,,,,,,,,,,,0.0,,,,,,,,,,,METAR,1048.0
CWRU 311500Z AUTO 01009KT 06/ RMK AO1 4PAST HR 3007 PK WND 34019/1401 SLP083 P0002 T0055 50016,CWRU,2022-10-31T15:00:00Z,50.12,-127.93,5.5,,10,9,,,,1008.3,,TRUE,TRUE,,,,,,,,,,,,,,,,1.6,,,,,0.02,,,,,,METAR,76.0
CWRT 311500Z AUTO 16001KT 04/04 RMK AO1 2PAST HR 3005 SLP058 P0009 T00410039 50042,CWRT,2022-10-31T15:00:00Z,49.62,-114.47,4.1,3.9,160,1,,,,1005.8,,TRUE,TRUE,,,,,,,,,,,,,,,,4.2,,,,,0.09,,,,,,METAR,1311.0
CWRO 311500Z AUTO 20010KT 02/ RMK AO1 SLP030 T0018 58003,CWRO,2022-10-31T15:00:00Z,54.17,-131.67,1.8,,200,10,,,,1003.0,,TRUE,TRUE,,,,,,,,,,,,,,,,-0.3,,,,,,,,,,,METAR,7.0
CWRN 311500Z AUTO 22015G22KT 14/06 RMK AO1 PK WND 21023/1426 SLP158 T01370062 56012,CWRN,2022-10-31T15:00:00Z,45.35,-60.98,13.7,6.2,220,15,22,,,1015.8,,TRUE,TRUE,,,,,,,,,,,,,,,,-1.2,,,,,,,,,,,METAR,8.0
CWRM 311500Z AUTO 18006KT M00/00 RMK AO1 3PAST HR 8002 SLP049 P0001 T10020000 50020,CWRM,2022-10-31T15:00:00Z,52.42,-114.92,-0.2,0.0,180,6,,,,1004.9,,TRUE,TRUE,,,,,,,,,,,,,,,,2.0,,,,,0.01,,,,,,METAR,986.0
CWRK 311500Z AUTO 22001KT 07/03 RMK AO1 SLP146 T00720031 55001,CWRK,2022-10-31T15:00:00Z,45.07,-77.87,7.2,3.1,220,1,,,,1014.6,,TRUE,TRUE,,,,,,,,,,,,,,,,-0.1,,,,,,,,,,,METAR,328.0
CWRJ 311500Z AUTO 29006KT 03/M02 RMK AO1 SLP059 T00331018 55000,CWRJ,2022-10-31T15:00:00Z,51.57,-107.92,3.3,-1.8,290,6,,,,1005.9,,TRUE,TRUE,,,,,,,,,,,,,,,,0.0,,,,,,,,,,,METAR,586.0
CWRH 311500Z AUTO 29037G46KT ////SM ////// ///// A2946,CWRH,2022-10-31T15:00:00Z,61.58,-64.65,,,290,37,46,,29.459646,,,TRUE,,,,,,,,,,,,,,,,,,,,,,,,,,,,METAR,343.0
CWRA 311500Z AUTO 00024KT 13/08 RMK AO1 SLP147 T01270080 58013,CWRA,2022-10-31T15:00:00Z,46.65,-53.07,12.7,8.0,0,24,,,,1014.7,,TRUE,TRUE,,,,,,,,,,,,,,,,-1.3,,,,,,,,,,,METAR,4.0
CWQV 311500Z AUTO 27005KT 08/04 RMK AO1 T00810041,CWQV,2022-10-31T15:00:00Z,48.27,-70.12,8.1,4.1,270,5,,,,,,TRUE,TRUE,,,,,,,,,,,,,,,,,,,,,,,,,,,METAR,4.0
CWQS 311500Z AUTO 25005KT 05/01 RMK AO1 PK WND 29017/1430 SLP036 T00500008 58003,CWQS,2022-10-31T15:00:00Z,53.32,-132.77,5.0,0.8,250,5,,,,1003.6,,TRUE,TRUE,,,,,,,,,,,,,,,,-0.3,,,,,,,,,,,METAR,10.0
CWQR 311500Z AUTO 27023KT 07/03 RMK AO1 PK WND 27028/1428 T00670033,CWQR,2022-10-31T15:00:00Z,50.22,-64.22,6.7,3.3,270,23,,,,,,TRUE,TRUE,,,,,,,,,,,,,,,,,,,,,,,,,,,METAR,9.0
CWQP 311500Z AUTO 36001KT 13/09 RMK AO1 PK WND 36019/1412 SLP147 T01280092 58001,CWQP,2022-10-31T15:00:00Z,43.83,-77.15,12.8,9.2,360,1,,,,1014.7,,TRUE,TRUE,,,,,,,,,,,,,,,,-0.1,,,,,,,,,,,METAR,77.0
CWQO 311500Z AUTO 23014KT 08/03 RMK AO1 T00770028,CWQO,2022-10-31T15:00:00Z,48.42,-68.9,7.7,2.8,230,14,,,,,,TRUE,TRUE,,,,,,,,,,,,,,,,,,,,,,,,,,,METAR,7.0
CWQK 311500Z AUTO 24023G31KT 11/ RMK AO1 PK WND 24031/1458 SLP063 T0109 55015,CWQK,2022-10-31T15:00:00Z,48.3,-123.53,10.9,,240,23,31,,,1006.3,,TRUE,TRUE,,,,,,,,,,,,,,,,-1.5,,,,,,,,,,,METAR,5.0
CWQH 311500Z AUTO 06002KT 07/02 RMK AO1 SLP163 T00730022 58010,CWQH,2022-10-31T15:00:00Z,45.37,-71.82,7.3,2.2,60,2,,,,1016.3,,TRUE,TRUE,,,,,,,,,,,,,,,,-1.0,,,,,,,,,,,METAR,181.0
CWPZ 311500Z AUTO 17001KT M02/M03 RMK AO1 4PAST HR 0000 SLP035 P0002 T10171026 50010,CWPZ,2022-10-31T15:00:00Z,54.38,-125.97,-1.7,-2.6,170,1,,,,1003.5,,TRUE,TRUE,,,,,,,,,,,,,,,,1.0,,,,,0.02,,,,,,METAR,715.0
CWPX 311500Z AUTO 33020KT ////SM //// OVC002 M24/M27 A2977,CWPX,2022-10-31T15:00:00Z,69.03,-107.82,-24.0,-27.0,330,20,,,29.769686,,,TRUE,,,,,,,,OVC,200,,,,,,,,,,,,,,,,,,,METAR,163.0
CWPR 311500Z AUTO 33002KT 04/02 RMK AO1 SOG 01 8012 SLP063 T00370024,CWPR,2022-10-31T15:00:00Z,49.47,-120.52,3.7,2.4,330,2,,,,1006.3,,TRUE,TRUE,,,,,,,,,,,,,,,,,,,,,,,,,,,METAR,703.0
CWPO 311500Z AUTO 23007KT 04/01 RMK AO1 SLP065 T00410009 53005,CWPO,2022-10-31T15:00:00Z,49.2,-98.9,4.1,0.9,230,7,,,,1006.5,,TRUE,TRUE,,,,,,,,,,,,,,,,0.5,,,,,,,,,,,METAR,471.0
CWPK 311500Z AUTO 00000KT 07/03 RMK AO1 SLP147 T00650034 58007,CWPK,2022-10-31T15:00:00Z,47.92,-74.62,6.5,3.4,0,0,,,,1014.7,,TRUE,TRUE,,,,,,,,,,,,,,,,-0.7,,,,,,,,,,,METAR,443.0
CWPE 311500Z AUTO 27005KT 13/10 RMK AO1 SLP172 T01300097 58002,CWPE,2022-10-31T15:00:00Z,45.07,-66.47,13.0,9.7,270,5,,,,1017.2,,TRUE,TRUE,,,,,,,,,,,,,,,,-0.2,,,,,,,,,,,METAR,9.0
CWPD 311500Z AUTO 18001KT 09/02 RMK AO1 SLP144 T00900018 58003,CWPD,2022-10-31T15:00:00Z,47.57,-71.22,9.0,1.8,180,1,,,,1014.4,,TRUE,TRUE,,,,,,,,,,,,,,,,-0.3,,,,,,,,,,,METAR,795.0
CWPC 311500Z AUTO 14007KT 11/10 RMK AO1 PK WND 20017/1416 SLP148 T01100101 58001,CWPC,2022-10-31T15:00:00Z,42.87,-79.25,11.0,10.1,140,7,,,,1014.8,,TRUE,TRUE,,,,,,,,,,,,,,,,-0.1,,,,,,,,,,,METAR,174.0
CWOY 311500Z AUTO 27006KT 04/M02 RMK AO1 SLP050 T00411015 52017,CWOY,2022-10-31T15:00:00Z,51.77,-104.2,4.1,-1.5,270,6,,,,1005.0,,TRUE,TRUE,,,,,,,,,,,,,,,,1.7,,,,,,,,,,,METAR,557.0
CWOE 311500Z AUTO 21004KT 08/01 RMK AO1 SLP048 T00780013 55004,CWOE,2022-10-31T15:00:00Z,49.12,-110.47,7.8,1.3,210,4,,,,1004.8,,TRUE,TRUE,,,,,,,,,,,,,,,,-0.4,,,,,,,,,,,METAR,931.0
CWOD 311500Z AUTO 02001KT 07/04 RMK AO1 SLP150 T00720037 50001,CWOD,2022-10-31T15:00:00Z,48.85,-72.55,7.2,3.7,20,1,,,,1015.0,,TRUE,TRUE,,,,,,,,,,,,,,,,0.1,,,,,,,,,,,METAR,150.0
CWOC 311500Z AUTO 30011G19KT 11/01 RMK AO1 PK WND 27019/1421 SLP126 T01120011 55001,CWOC,2022-10-31T15:00:00Z,48.02,-65.32,11.2,1.1,300,11,19,,,1012.6,,TRUE,TRUE,,,,,,,,,,,,,,,,-0.1,,,,,,,,,,,METAR,42.0
CWNZ 311500Z AUTO 21003KT 07/03 RMK AO1 SLP095 T00690031 58013,CWNZ,2022-10-31T15:00:00Z,49.75,-84.17,6.9,3.1,210,3,,,,1009.5,,TRUE,TRUE,,,,,,,,,,,,,,,,-1.3,,,,,,,,,,,METAR,261.0
CWNQ 311500Z AUTO 22002KT 11/02 RMK AO1 SLP154 T01070015 58003,CWNQ,2022-10-31T15:00:00Z,46.22,-72.65,10.7,1.5,220,2,,,,1015.4,,TRUE,TRUE,,,,,,,,,,,,,,,,-0.3,,,,,,,,,,,METAR,9.0
CWNP 311500Z AUTO 14007KT 06/04 RMK AO1 8014 SLP067 T00560037 50003,CWNP,2022-10-31T15:00:00Z,50.27,-117.82,5.6,3.7,140,7,,,,1006.7,,TRUE,TRUE,,,,,,,,,,,,,,,,0.3,,,,,,,,,,,METAR,517.0
CWNM 311500Z AUTO 25004KT 07/07 RMK AO1 2PAST HR 8005 SLP080 P0001 T00730073 50041,CWNM,2022-10-31T15:00:00Z,49.5,-117.3,7.3,7.3,250,4,,,,1008.0,,TRUE,TRUE,,,,,,,,,,,,,,,,4.1,,,,,0.01,,,,,,METAR,533.0
CWNK 311500Z AUTO 24011KT 08/01 RMK AO1 SLP035 T00770014 55000,CWNK,2022-10-31T15:00:00Z,49.5,-98.03,7.7,1.4,240,11,,,,1003.5,,TRUE,TRUE,,,,,,,,,,,,,,,,0.0,,,,,,,,,,,METAR,271.0
CWNH 311500Z AUTO 19005KT 12/M00 RMK AO1 SLP152 T01211002 58001,CWNH,2022-10-31T15:00:00Z,47.8,-69.53,12.1,-0.2,190,5,,,,1015.2,,TRUE,TRUE,,,,,,,,,,,,,,,,-0.1,,,,,,,,,,,METAR,147.0
CWNE 311500Z AUTO 24019KT 11/06 RMK AO1 PK WND 23024/1401 SLP138 T01100055 51002,CWNE,2022-10-31T15:00:00Z,47.07,-64.0,11.0,5.5,240,19,,,,1013.8,,TRUE,TRUE,,,,,,,,,,,,,,,,0.2,,,,,,,,,,,METAR,5.0
CWND 311500Z AUTO 02009KT M12/M14 RMK AO1 SLP155 T11241144 53012,CWND,2022-10-31T15:00:00Z,69.63,-135.43,-12.4,-14.4,20,9,,,,1015.5,,TRUE,TRUE,,,,,,,,,,,,,,,,1.2,,,,,,,,,,,METAR,14.0
CWNC 311500Z AUTO 09002KT 11/08 RMK AO1 4PAST HR 1006 SLP145 P0002 T01100075 50004,CWNC,2022-10-31T15:00:00Z,43.95,-78.17,11.0,7.5,90,2,,,,1014.5,,TRUE,TRUE,,,,,,,,,,,,,,,,0.4,,,,,0.02,,,,,,METAR,71.0
CWMZ 311500Z AUTO 17010KT 11/ RMK AO1 SLP127 T0113 58003,CWMZ,2022-10-31T15:00:00Z,45.02,-80.37,11.3,,170,10,,,,1012.7,,TRUE,TRUE,,,,,,,,,,,,,,,,-0.3,,,,,,,,,,,METAR,175.0
CWMT 311500Z AUTO 05002KT M10/M12 RMK AO1 1PAST HR SOG 06 3014 SLP065 P0000 T11041119 50001,CWMT,2022-10-31T15:00:00Z,63.13,-117.25,-10.4,-11.9,50,2,,,,1006.5,,TRUE,TRUE,,,,,,,,,,,,,,,,0.1,,,,,0.005,,,,,,METAR,274.0
CWMQ 311500Z AUTO 11002KT 05/02 RMK AO1 SLP057 T00500021 55002,CWMQ,2022-10-31T15:00:00Z,49.9,-109.47,5.0,2.1,110,2,,,,1005.7,,TRUE,TRUE,,,,,,,,,,,,,,,,-0.2,,,,,,,,,,,METAR,767.0
CWMM 311500Z AUTO 07003KT 09/08 RMK AO1 9PAST HR 8020 SLP066 P0004 T00870083 50048,CWMM,2022-10-31T15:00:00Z,49.22,-122.68,8.7,8.3,70,3,,,,1006.6,,TRUE,TRUE,,,,,,,,,,,,,,,,4.8,,,,,0.04,,,,,,METAR,2.0
CWMJ 311500Z AUTO 14002KT 08/02 RMK AO1 SLP143 T00840016 58004,CWMJ,2022-10-31T15:00:00Z,46.27,-76.0,8.4,1.6,140,2,,,,1014.3,,TRUE,TRUE,,,,,,,,,,,,,,,,-0.4,,,,,,,,,,,METAR,198.0
CWME 311500Z AUTO 17007KT 04/02 RMK AO1 0002 SLP075 T00350021 50008,CWME,2022-10-31T15:00:00Z,52.18,-127.47,3.5,2.1,170,7,,,,1007.5,,TRUE,TRUE,,,,,,,,,,,,,,,,0.8,,,,,,,,,,,METAR,23.0
CWLY 311500Z AUTO 20010G26KT 9SM -RA OVC066 08/05 A2962 RMK SLP038,CWLY,2022-10-31T15:00:00Z,50.22,-121.58,8.0,5.0,200,10,26,9.0,29.619095,1003.8,,TRUE,,,,,,,-RA,OVC,6600,,,,,,,VFR,,,,,,,,,,,,METAR,228.0
CWLX 311500Z AUTO ///// ////SM ////// M16/M18 A2955,CWLX,2022-10-31T15:00:00Z,68.9,-75.15,-16.0,-18.0,,,,,29.551182,,,TRUE,,,,,,,,,,,,,,,,,,,,,,,,,,,,METAR,129.0
CWLS 311500Z AUTO 17005KT 10/09 RMK AO1 6007 SLP126 T00980088 50032,CWLS,2022-10-31T15:00:00Z,43.97,-80.75,9.8,8.8,170,5,,,,1012.6,,TRUE,TRUE,,,,,,,,,,,,,,,,3.2,,,,,,,,,,,METAR,413.0
CWLM 311500Z AUTO 20006KT 09/09 RMK AO1 0PAST HR 5009 SLP068 P0004 T00930089 50020,CWLM,2022-10-31T15:00:00Z,48.42,-123.32,9.3,8.9,200,6,,,,1006.8,,TRUE,TRUE,,,,,,,,,,,,,,,,2.0,,,,,0.04,,,,,,METAR,62.0
CWLI 311500Z AUTO 35006KT ////SM OVC016 M12/M15 A3000,CWLI,2022-10-31T15:00:00Z,69.6,-130.9,-12.0,-15.0,350,6,,,30.0,,,TRUE,,,,,,,,OVC,1600,,,,,,,,,,,,,,,,,,,METAR,92.0
CWLE 311500Z AUTO 19007KT 02/M01 RMK AO1 SLP076 T00181011 53009,CWLE,2022-10-31T15:00:00Z,50.95,-107.15,1.8,-1.1,190,7,,,,1007.6,,TRUE,TRUE,,,,,,,,,,,,,,,,0.9,,,,,,,,,,,METAR,666.0
CWLC 311500Z AUTO 14017KT 04/02 RMK AO1 PK WND 15026/1427 T00430020,CWLC,2022-10-31T15:00:00Z,54.3,-130.62,4.3,2.0,140,17,,,,,,TRUE,TRUE,,,,,,,,,,,,,,,,,,,,,,,,,,,METAR,27.0
CWLB 311500Z AUTO 25007KT M01/ RMK AO1 SLP042 T1010 53010,CWLB,2022-10-31T15:00:00Z,54.77,-112.02,-1.0,,250,7,,,,1004.2,,TRUE,TRUE,,,,,,,,,,,,,,,,1.0,,,,,,,,,,,METAR,561.0
CWKX 311500Z AUTO 25001KT M06/M07 RMK AO1 SOG 02 3005 SLP013 T10611072,CWKX,2022-10-31T15:00:00Z,58.43,-130.02,-6.1,-7.2,250,1,,,,1001.3,,TRUE,TRUE,,,,,,,,,,,,,,,,,,,,,,,,,,,METAR,807.0
CWKO 311500Z AUTO 36004KT 05/M00 RMK AO1 SLP076 T00521003 55002,CWKO,2022-10-31T15:00:00Z,49.17,-105.97,5.2,-0.3,360,4,,,,1007.6,,TRUE,TRUE,,,,,,,,,,,,,,,,-0.2,,,,,,,,,,,METAR,914.0
CWKK 311500Z AUTO 19006KT 08/ RMK AO1 SLP088 T0076 58011,CWKK,2022-10-31T15:00:00Z,49.72,-88.33,7.6,,190,6,,,,1008.8,,TRUE,TRUE,,,,,,,,,,,,,,,,-1.1,,,,,,,,,,,METAR,259.0
CWKH 311500Z AUTO 08/08 RMK AO1 4PAST HR 6012 SLP055 P0002 T00780077 50060,CWKH,2022-10-31T15:00:00Z,48.57,-123.55,7.8,7.7,,,,,,1005.5,,TRUE,TRUE,,,,,,,,,,,,,,,,6.0,,,,,0.02,,,,,,METAR,327.0
CWKD 311500Z AUTO 05/M02 RMK AO1 SLP150 T00461018 51009,CWKD,2022-10-31T15:00:00Z,50.73,-71.02,4.6,-1.8,,,,,,1015.0,,TRUE,TRUE,,,,,,,,,,,,,,,,0.9,,,,,,,,,,,METAR,496.0
CWJX 311500Z AUTO 00000KT 01/M02 RMK AO1 SLP069 T00111024 53004,CWJX,2022-10-31T15:00:00Z,50.88,-109.5,1.1,-2.4,0,0,,,,1006.9,,TRUE,TRUE,,,,,,,,,,,,,,,,0.4,,,,,,,,,,,METAR,671.0
CWJW 311500Z AUTO 10003KT M00/M01 RMK AO1 SLP057 T10031011 58003,CWJW,2022-10-31T15:00:00Z,52.93,-118.03,-0.3,-1.1,100,3,,,,1005.7,,TRUE,TRUE,,,,,,,,,,,,,,,,-0.3,,,,,,,,,,,METAR,1022.0
CWJV 311500Z AUTO 08003KT 05/04 RMK AO1 SLP054 T00480041 58011,CWJV,2022-10-31T15:00:00Z,50.22,-119.18,4.8,4.1,80,3,,,,1005.4,,TRUE,TRUE,,,,,,,,,,,,,,,,-1.1,,,,,,,,,,,METAR,487.0
CWJU 311500Z AUTO 27015G21KT 05/03 RMK AO1 PK WND 25028/1442 SLP017 T00480026 58003,CWJU,2022-10-31T15:00:00Z,54.25,-133.07,4.8,2.6,270,15,21,,,1001.7,,TRUE,TRUE,,,,,,,,,,,,,,,,-0.3,,,,,,,,,,,METAR,47.0
CWJT 311500Z AUTO 00000KT 07/04 RMK AO1 SLP151 T00730044 58005,CWJT,2022-10-31T15:00:00Z,46.07,-74.57,7.3,4.4,0,0,,,,1015.1,,TRUE,TRUE,,,,,,,,,,,,,,,,-0.5,,,,,,,,,,,METAR,236.0
CWJR 311500Z AUTO 33003KT 08/07 RMK AO1 7PAST HR 1012 SLP079 P0003 T00780068 50028,CWJR,2022-10-31T15:00:00Z,49.03,-116.5,7.8,6.8,330,3,,,,1007.9,,TRUE,TRUE,,,,,,,,,,,,,,,,2.8,,,,,0.03,,,,,,METAR,642.0
CWJO 311500Z AUTO 05003KT 10/04 RMK AO1 SLP150 T01020039 58002,CWJO,2022-10-31T15:00:00Z,48.43,-71.15,10.2,3.9,50,3,,,,1015.0,,TRUE,TRUE,,,,,,,,,,,,,,,,-0.2,,,,,,,,,,,METAR,113.0
CWJI 311500Z AUTO 26003KT 04/M00 RMK AO1 SLP074 T00371003 52006,CWJI,2022-10-31T15:00:00Z,49.72,-105.93,3.7,-0.3,260,3,,,,1007.4,,TRUE,TRUE,,,,,,,,,,,,,,,,0.6,,,,,,,,,,,METAR,724.0
CWJH 311500Z AUTO 29009G17KT 02/M00 RMK AO1 2PAST HR 3027 PK WND 33020/1447 SLP948 P0001 T00221004 50002,CWJH,2022-10-31T15:00:00Z,56.32,-103.27,2.2,-0.4,290,9,17,,,994.8,,TRUE,TRUE,,,,,,,,,,,,,,,,0.2,,,,,0.01,,,,,,METAR,345.0
CWJD 311500Z AUTO 27008KT 06/01 RMK AO1 SLP965 T00600013 53017,CWJD,2022-10-31T15:00:00Z,53.18,-99.27,6.0,1.3,270,8,,,,996.5,,TRUE,TRUE,,,,,,,,,,,,,,,,1.7,,,,,,,,,,,METAR,222.0
CWJC 311500Z AUTO 02029G36KT M13/M15 RMK AO1 PK WND 02036/1453 SLP945 T11281147 53024,CWJC,2022-10-31T15:00:00Z,61.13,-100.9,-12.8,-14.7,20,29,36,,,994.5,,TRUE,TRUE,,,,,,,,,,,,,,,,2.4,,,,,,,,,,,METAR,340.0
CWJB 311500Z AUTO 34008KT 11/02 RMK AO1 T01090016,CWJB,2022-10-31T15:00:00Z,46.78,-71.28,10.9,1.6,340,8,,,,,,TRUE,TRUE,,,,,,,,,,,,,,,,,,,,,,,,,,,METAR,90.0
CWIZ 311500Z AUTO 18008KT 13/04 RMK AO1 T01320035,CWIZ,2022-10-31T15:00:00Z,45.28,-73.33,13.2,3.5,180,8,,,,,,TRUE,TRUE,,,,,,,,,,,,,,,,,,,,,,,,,,,METAR,45.0
CWIX 311500Z AUTO 00000KT 08/05 RMK AO1 SLP146 T00800049 50007,CWIX,2022-10-31T15:00:00Z,48.6,-71.72,8.0,4.9,0,0,,,,1014.6,,TRUE,TRUE,,,,,,,,,,,,,,,,0.7,,,,,,,,,,,METAR,109.0
CWIW 311500Z AUTO 28009KT 04/M02 RMK AO1 SLP057 T00421023 53011,CWIW,2022-10-31T15:00:00Z,51.67,-105.4,4.2,-2.3,280,9,,,,1005.7,,TRUE,TRUE,,,,,,,,,,,,,,,,1.1,,,,,,,,,,,METAR,524.0
CWIT 311500Z AUTO 13003KT 13/01 RMK AO1 SLP149 T01270010 58004,CWIT,2022-10-31T15:00:00Z,45.17,-73.67,12.7,1.0,130,3,,,,1014.9,,TRUE,TRUE,,,,,,,,,,,,,,,,-0.4,,,,,,,,,,,METAR,53.0
CWIS 311500Z AUTO 21003KT 11/01 RMK AO1 SLP157 T01110009 50001,CWIS,2022-10-31T15:00:00Z,47.28,-70.63,11.1,0.9,210,3,,,,1015.7,,TRUE,TRUE,,,,,,,,,,,,,,,,0.1,,,,,,,,,,,METAR,720.0
CWIP 311500Z AUTO 31004KT 11/01 RMK AO1 T01070009,CWIP,2022-10-31T15:00:00Z,50.17,-66.43,10.7,0.9,310,4,,,,,,TRUE,TRUE,,,,,,,,,,,,,,,,,,,,,,,,,,,METAR,27.0
CWIL 311500Z AUTO ///// ////SM OVC011 ///// A////,CWIL,2022-10-31T15:00:00Z,68.32,-100.07,,,,,,,,,,TRUE,,,,,,,,OVC,1100,,,,,,,,,,,,,,,,,,,METAR,28.0
CWIK 311500Z AUTO 28008KT 04/M00 RMK AO1 SLP056 T00421002 52017,CWIK,2022-10-31T15:00:00Z,50.37,-102.58,4.2,-0.2,280,8,,,,1005.6,,TRUE,TRUE,,,,,,,,,,,,,,,,1.7,,,,,,,,,,,METAR,597.0
CWIJ 311500Z AUTO 07004KT M20/M22 RMK AO1 SOG 07 3010 SLP122 T11971220,CWIJ,2022-10-31T15:00:00Z,65.77,-111.23,-19.7,-22.0,70,4,,,,1012.2,,TRUE,TRUE,,,,,,,,,,,,,,,,,,,,,,,,,,,METAR,490.0
CWII 311500Z AUTO 22021KT 07/02 RMK AO1 PK WND 21026/1403 SLP006 T00650016 55001,CWII,2022-10-31T15:00:00Z,50.7,-96.57,6.5,1.6,220,21,,,,1000.6,,TRUE,TRUE,,,,,,,,,,,,,,,,-0.1,,,,,,,,,,,METAR,216.0
CWIG 311500Z AUTO 23010G15KT RMK AO1,CWIG,2022-10-31T15:00:00Z,47.07,-70.53,,,230,10,15,,,,,TRUE,TRUE,,,,,,,,,,,,,,,,,,,,,,,,,,,METAR,12.0
CWID 311500Z AUTO 00000KT M08/M10 RMK AO1 SLP055 T10831097 51012,CWID,2022-10-31T15:00:00Z,61.32,-117.6,-8.3,-9.7,0,0,,,,1005.5,,TRUE,TRUE,,,,,,,,,,,,,,,,1.2,,,,,,,,,,,METAR,160.0
CWHV 311500Z AUTO 13003KT 06/M01 RMK AO1 SLP161 T00641014 58007,CWHV,2022-10-31T15:00:00Z,46.2,-70.78,6.4,-1.4,130,3,,,,1016.1,,TRUE,TRUE,,,,,,,,,,,,,,,,-0.7,,,,,,,,,,,METAR,227.0
CWHT 311500Z AUTO 33006KT M07/M12 RMK AO1 SLP030 T10671118 52018,CWHT,2022-10-31T15:00:00Z,60.77,-137.58,-6.7,-11.8,330,6,,,,1003.0,,TRUE,TRUE,,,,,,,,,,,,,,,,1.8,,,,,,,,,,,METAR,601.0
CWHQ 311500Z AUTO 13002KT 10/01 RMK AO1 T01030011,CWHQ,2022-10-31T15:00:00Z,46.68,-71.97,10.3,1.1,130,2,,,,,,TRUE,TRUE,,,,,,,,,,,,,,,,,,,,,,,,,,,METAR,56.0
CWHP 311500Z AUTO 23016KT 10/07 RMK AO1 PK WND 24019/1435 SLP090 T00960066 51004,CWHP,2022-10-31T15:00:00Z,49.08,-61.7,9.6,6.6,230,16,,,,1009.0,,TRUE,TRUE,,,,,,,,,,,,,,,,0.4,,,,,,,,,,,METAR,7.0
CWHO 311500Z AUTO 00032KT 03/M04 RMK AO1 SLP045 T00321039 51017,CWHO,2022-10-31T15:00:00Z,55.45,-60.22,3.2,-3.9,0,32,,,,1004.5,,TRUE,TRUE,,,,,,,,,,,,,,,,1.7,,,,,,,,,,,METAR,16.0
CWHL 311500Z AUTO 11009KT 03/02 RMK AO1 4PAST HR 0002 PK WND 16019/1412 SLP039 P0005 T00290016 50018,CWHL,2022-10-31T15:00:00Z,54.17,-130.35,2.9,1.6,110,9,,,,1003.9,,TRUE,TRUE,,,,,,,,,,,,,,,,1.8,,,,,0.05,,,,,,METAR,5.0
CWHI 311500Z AUTO 30006KT 02/M02 RMK AO1 T00181015,CWHI,2022-10-31T15:00:00Z,51.7,-113.22,1.8,-1.5,300,6,,,,,,TRUE,TRUE,,,,,,,,,,,,,,,,,,,,,,,,,,,METAR,906.0
CWGY 311500Z AUTO 27007KT 03/M03 RMK AO1 SLP069 T00321034 55001,CWGY,2022-10-31T15:00:00Z,51.67,-110.2,3.2,-3.4,270,7,,,,1006.9,,TRUE,TRUE,,,,,,,,,,,,,,,,-0.1,,,,,,,,,,,METAR,709.0
CWGW 311500Z AUTO 19002KT 06/05 RMK AO1 7PAST HR 3004 SLP064 P0007 T00570046 50049,CWGW,2022-10-31T15:00:00Z,49.75,-114.9,5.7,4.6,190,2,,,,1006.4,,TRUE,TRUE,,,,,,,,,,,,,,,,4.9,,,,,0.07,,,,,,METAR,1137.0
CWGT 311500Z AUTO 17009KT 10/08 RMK AO1 PK WND 13019/1404 SLP058 T00960083 56008,CWGT,2022-10-31T15:00:00Z,49.48,-124.43,9.6,8.3,170,9,,,,1005.8,,TRUE,TRUE,,,,,,,,,,,,,,,,-0.8,,,,,,,,,,,METAR,5.0
CWGR 311500Z AUTO 25017KT 13/05 RMK AO1 PK WND 25023/1443 SLP126 T01260052 50002,CWGR,2022-10-31T15:00:00Z,47.42,-61.77,12.6,5.2,250,17,,,,1012.6,,TRUE,TRUE,,,,,,,,,,,,,,,,0.2,,,,,,,,,,,METAR,4.0
CWGM 311500Z AUTO 23021G28KT 06/03 RMK AO1 PK WND 24031/1417 SLP033 T00600033 53011,CWGM,2022-10-31T15:00:00Z,49.13,-113.8,6.0,3.3,230,21,28,,,1003.3,,TRUE,TRUE,,,,,,,,,,,,,,,,1.1,,,,,,,,,,,METAR,1292.0
CWGL 311500Z AUTO 14006KT 08/06 RMK AO1 SLP123 T00750056 51007,CWGL,2022-10-31T15:00:00Z,44.53,-79.22,7.5,5.6,140,6,,,,1012.3,,TRUE,TRUE,,,,,,,,,,,,,,,,0.7,,,,,,,,,,,METAR,220.0
CWGH 311500Z AUTO 20006KT 14/07 RMK AO1 SLP144 T01420071 58005,CWGH,2022-10-31T15:00:00Z,44.42,-75.85,14.2,7.1,200,6,,,,1014.4,,TRUE,TRUE,,,,,,,,,,,,,,,,-0.5,,,,,,,,,,,METAR,76.0
CWGD 311500Z AUTO 12006KT 12/11 RMK AO1 3PAST HR 8008 SLP113 P0001 T01160109 50009,CWGD,2022-10-31T15:00:00Z,43.77,-81.72,11.6,10.9,120,6,,,,1011.3,,TRUE,TRUE,,,,,,,,,,,,,,,,0.9,,,,,0.01,,,,,,METAR,214.0
CWGB 311500Z AUTO 12001KT 09/ RMK AO1 6PAST HR 7006 SLP053 P0002 T0088 50016,CWGB,2022-10-31T15:00:00Z,49.35,-124.13,8.8,,120,1,,,,1005.3,,TRUE,TRUE,,,,,,,,,,,,,,,,1.6,,,,,0.02,,,,,,METAR,6.0
CWFQ 311500Z AUTO 21004KT 13/M01 RMK AO1 SLP154 T01291014 58004,CWFQ,2022-10-31T15:00:00Z,45.03,-72.85,12.9,-1.4,210,4,,,,1015.4,,TRUE,TRUE,,,,,,,,,,,,,,,,-0.4,,,,,,,,,,,METAR,190.0
CWFJ 311500Z AUTO 36009KT 04/01 RMK AO1 PK WND 36018/1446 T00410006,CWFJ,2022-10-31T15:00:00Z,49.2,-113.27,4.1,0.6,360,9,,,,,,TRUE,TRUE,,,,,,,,,,,,,,,,,,,,,,,,,,,METAR,1142.0
CWFF 311500Z AUTO 26010KT 03/M02 RMK AO1 SLP032 T00311015 53018,CWFF,2022-10-31T15:00:00Z,52.82,-104.6,3.1,-1.5,260,10,,,,1003.2,,TRUE,TRUE,,,,,,,,,,,,,,,,1.8,,,,,,,,,,,METAR,482.0
CWFD 311500Z AUTO 36003KT ////SM ////// M12/M13 A2922,CWFD,2022-10-31T15:00:00Z,66.58,-61.58,-12.0,-13.0,360,3,,,29.220472,,,TRUE,,,,,,,,,,,,,,,,,,,,,,,,,,,,METAR,375.0
CWEZ 311500Z AUTO 21014KT 10/09 RMK AO1 4PAST HR 6023 SLP054 P0002 T00980094 50050,CWEZ,2022-10-31T15:00:00Z,48.78,-123.05,9.8,9.4,210,14,,,,1005.4,,TRUE,TRUE,,,,,,,,,,,,,,,,5.0,,,,,0.02,,,,,,METAR,23.0
CWEW 311500Z AUTO 20001KT 10/04 RMK AO1 SLP158 T01040040 58005,CWEW,2022-10-31T15:00:00Z,45.82,-73.43,10.4,4.0,200,1,,,,1015.8,,TRUE,TRUE,,,,,,,,,,,,,,,,-0.5,,,,,,,,,,,METAR,17.0
CWEU 311500Z 27007KT 250V340 15SM IC FEW090 M24/M27 A2964 RMK AC1 AC TR SLP053,CWEU,2022-10-31T15:00:00Z,80.0,-85.93,-24.0,-27.0,270,7,,15.0,29.639763,1005.3,,,,,,,,,IC,FEW,9000,,,,,,,VFR,,,,,,,,,,,,METAR,2.0
CWER 311500Z AUTO 21009KT RMK AO1,CWER,2022-10-31T15:00:00Z,47.0,-70.82,,,210,9,,,,,,TRUE,TRUE,,,,,,,,,,,,,,,,,,,,,,,,,,,METAR,4.0
CWEQ 311500Z AUTO 22009KT 04/M00 RMK AO1 PK WND 24017/1411 SLP010 T00351002 51025,CWEQ,2022-10-31T15:00:00Z,52.12,-101.22,3.5,-0.2,220,9,,,,1001.0,,TRUE,TRUE,,,,,,,,,,,,,,,,2.5,,,,,,,,,,,METAR,331.0
CWEP 311500Z AUTO 20007KT 15/09 RMK AO1 SLP149 T01490092 57002,CWEP,2022-10-31T15:00:00Z,46.45,-61.98,14.9,9.2,200,7,,,,1014.9,,TRUE,TRUE,,,,,,,,,,,,,,,,-0.2,,,,,,,,,,,METAR,9.0
CWEL 311500Z AUTO 29007KT 10/08 RMK AO1 6PAST HR 5002 PK WND 11019/1401 SLP062 P0002 T00950075 50008,CWEL,2022-10-31T15:00:00Z,49.22,-123.8,9.5,7.5,290,7,,,,1006.2,,TRUE,TRUE,,,,,,,,,,,,,,,,0.8,,,,,0.02,,,,,,METAR,0.0
CWEK 311500Z AUTO 15022KT 05/ RMK AO1 PK WND 16025/1444 SLP004 T0045 58006,CWEK,2022-10-31T15:00:00Z,54.58,-130.7,4.5,,150,22,,,,1000.4,,TRUE,TRUE,,,,,,,,,,,,,,,,-0.6,,,,,,,,,,,METAR,8.0
CWEH 311500Z AUTO 24002KT 05/01 RMK AO1 SLP056 T00480007 55006,CWEH,2022-10-31T15:00:00Z,49.43,-108.98,4.8,0.7,240,2,,,,1005.6,,TRUE,TRUE,,,,,,,,,,,,,,,,-0.6,,,,,,,,,,,METAR,1077.0
CWEF 311500Z AUTO 25030G35KT 12/08 RMK AO1 PK WND 25035/1451 SLP108 T01150083 58015,CWEF,2022-10-31T15:00:00Z,47.22,-60.13,11.5,8.3,250,30,35,,,1010.8,,TRUE,TRUE,,,,,,,,,,,,,,,,-1.5,,,,,,,,,,,METAR,27.0
CWEE 311500Z AUTO 05/02 RMK AO1 SLP140 T00490024 58003,CWEE,2022-10-31T15:00:00Z,49.27,-73.35,4.9,2.4,,,,,,1014.0,,TRUE,TRUE,,,,,,,,,,,,,,,,-0.3,,,,,,,,,,,METAR,302.0
CWEB 311500Z AUTO 00030KT 08/07 RMK AO1 0002 SLP081 T00770073 50006,CWEB,2022-10-31T15:00:00Z,49.38,-126.55,7.7,7.3,0,30,,,,1008.1,,TRUE,TRUE,,,,,,,,,,,,,,,,0.6,,,,,,,,,,,METAR,1.0
CWDZ 311500Z AUTO 31003KT 03/M02 RMK AO1 SLP075 T00281018 53002,CWDZ,2022-10-31T15:00:00Z,51.43,-112.67,2.8,-1.8,310,3,,,,1007.5,,TRUE,TRUE,,,,,,,,,,,,,,,,0.2,,,,,,,,,,,METAR,689.0
CWDV 311500Z AUTO 21005KT 07/M01 RMK AO1 SLP082 T00741012 58012,CWDV,2022-10-31T15:00:00Z,49.02,-90.47,7.4,-1.2,210,5,,,,1008.2,,TRUE,TRUE,,,,,,,,,,,,,,,,-1.2,,,,,,,,,,,METAR,487.0
CWDT 311500Z AUTO 26002KT RMK AO1 50005,CWDT,2022-10-31T15:00:00Z,49.83,-71.17,,,260,2,,,,,,TRUE,TRUE,,,,,,,,,,,,,,,,0.5,,,,,,,,,,,METAR,389.0
CWDQ 311500Z AUTO 33004KT 08/03 RMK AO1 SOG 01 8007 SLP155 T00810027,CWDQ,2022-10-31T15:00:00Z,47.42,-72.78,8.1,2.7,330,4,,,,1015.5,,TRUE,TRUE,,,,,,,,,,,,,,,,,,,,,,,,,,,METAR,174.0
CWDO 311500Z AUTO 22017G25KT 09/04 RMK AO1 PK WND 22025/1404 SLP055 T00850044 58036,CWDO,2022-10-31T15:00:00Z,49.68,-54.78,8.5,4.4,220,17,25,,,1005.5,,TRUE,TRUE,,,,,,,,,,,,,,,,-3.6,,,,,,,,,,,METAR,89.0
CWDM 311500Z AUTO 27012G18KT 12/04 RMK AO1 PK WND 27025/1415 SLP045 T01170044 55014,CWDM,2022-10-31T15:00:00Z,50.47,-59.63,11.7,4.4,270,12,18,,,1004.5,,TRUE,TRUE,,,,,,,,,,,,,,,,-1.4,,,,,,,,,,,METAR,2.0
CWDK 311500Z AUTO 33007KT 01/00 RMK AO1 SLP078 T00100000 53015,CWDK,2022-10-31T15:00:00Z,50.02,-113.62,1.0,0.0,330,7,,,,1007.8,,TRUE,TRUE,,,,,,,,,,,,,,,,1.5,,,,,,,,,,,METAR,1014.0
CWDJ 311500Z AUTO 26005KT 01/M01 RMK AO1 SLP077 T00141013 53018,CWDJ,2022-10-31T15:00:00Z,50.4,-104.58,1.4,-1.3,260,5,,,,1007.7,,TRUE,TRUE,,,,,,,,,,,,,,,,1.8,,,,,,,,,,,METAR,576.0
CWDC 311500Z AUTO 02007KT M10/M13 RMK AO1 SOG 02 2040 SLP018 T11011133,CWDC,2022-10-31T15:00:00Z,59.57,-108.48,-10.1,-13.3,20,7,,,,1001.8,,TRUE,TRUE,,,,,,,,,,,,,,,,,,,,,,,,,,,METAR,311.0
CWDA 311500Z AUTO 17011G16KT 11/ RMK AO1 PK WND 25017/1414 T0108,CWDA,2022-10-31T15:00:00Z,50.72,-56.12,10.8,,170,11,16,,,,,TRUE,TRUE,,,,,,,,,,,,,,,,,,,,,,,,,,,METAR,30.0
CWCT 311500Z AUTO 28009KT 02/M02 RMK AO1 SLP077 T00151024 53004,CWCT,2022-10-31T15:00:00Z,52.07,-111.43,1.5,-2.4,280,9,,,,1007.7,,TRUE,TRUE,,,,,,,,,,,,,,,,0.4,,,,,,,,,,,METAR,793.0
CWCO 311500Z AUTO 16004KT 11/08 RMK AO1 SLP124 T01140075 58002,CWCO,2022-10-31T15:00:00Z,44.5,-80.22,11.4,7.5,160,4,,,,1012.4,,TRUE,TRUE,,,,,,,,,,,,,,,,-0.2,,,,,,,,,,,METAR,182.0
CWCJ 311500Z AUTO 04002KT 01/M00 RMK AO1 SLP104 T00131004 58008,CWCJ,2022-10-31T15:00:00Z,48.6,-86.28,1.3,-0.4,40,2,,,,1010.4,,TRUE,TRUE,,,,,,,,,,,,,,,,-0.8,,,,,,,,,,,METAR,207.0
CWCI 311500Z AUTO 16006KT 08/07 RMK AO1 SLP102 T00750069 58003,CWCI,2022-10-31T15:00:00Z,47.33,-85.82,7.5,6.9,160,6,,,,1010.2,,TRUE,TRUE,,,,,,,,,,,,,,,,-0.3,,,,,,,,,,,METAR,167.0
CWCF 311500Z AUTO 22008KT 06/02 RMK AO1 SLP978 T00610017 53001,CWCF,2022-10-31T15:00:00Z,52.35,-97.03,6.1,1.7,220,8,,,,997.8,,TRUE,TRUE,,,,,,,,,,,,,,,,0.1,,,,,,,,,,,METAR,219.0
CWBZ 311500Z AUTO 24007KT 16/02 RMK AO1 SLP147 T01580015 58002,CWBZ,2022-10-31T15:00:00Z,45.12,-74.28,15.8,1.5,240,7,,,,1014.7,,TRUE,TRUE,,,,,,,,,,,,,,,,-0.2,,,,,,,,,,,METAR,49.0
CWBY 311500Z AUTO 28015G21KT 11/03 RMK AO1 PK WND 30021/1457 SLP108 T01140026 51015,CWBY,2022-10-31T15:00:00Z,49.83,-64.28,11.4,2.6,280,15,21,,,1010.8,,TRUE,TRUE,,,,,,,,,,,,,,,,1.5,,,,,,,,,,,METAR,56.0
CWBV 311500Z AUTO 25017KT 14/09 RMK AO1 PK WND 25020/1459 SLP164 T01370086 56006,CWBV,2022-10-31T15:00:00Z,44.82,-62.33,13.7,8.6,250,17,,,,1016.4,,TRUE,TRUE,,,,,,,,,,,,,,,,-0.6,,,,,,,,,,,METAR,16.0
CWBU 311500Z AUTO 27011G16KT 03/M02 RMK AO1 SLP018 T00281024 52023,CWBU,2022-10-31T15:00:00Z,53.33,-104.02,2.8,-2.4,270,11,16,,,1001.8,,TRUE,TRUE,,,,,,,,,,,,,,,,2.3,,,,,,,,,,,METAR,369.0
CWBT 311500Z AUTO 27006KT 09/04 RMK AO1 SLP100 T00850038 53014,CWBT,2022-10-31T15:00:00Z,50.27,-64.23,8.5,3.8,270,6,,,,1010.0,,TRUE,TRUE,,,,,,,,,,,,,,,,1.4,,,,,,,,,,,METAR,12.0
CWBS 311500Z AUTO 11001KT 09/05 RMK AO1 T00880053,CWBS,2022-10-31T15:00:00Z,46.18,-72.92,8.8,5.3,110,1,,,,,,TRUE,TRUE,,,,,,,,,,,,,,,,,,,,,,,,,,,METAR,3.0
CWBO 311500Z AUTO 01005KT 01/M02 RMK AO1 SLP072 T00051024 53005,CWBO,2022-10-31T15:00:00Z,50.53,-111.83,0.5,-2.4,10,5,,,,1007.2,,TRUE,TRUE,,,,,,,,,,,,,,,,0.5,,,,,,,,,,,METAR,752.0
CWBK 311500Z AUTO 23005KT 14/06 RMK AO1 SLP161 T01350057 56004,CWBK,2022-10-31T15:00:00Z,45.77,-62.67,13.5,5.7,230,5,,,,1016.1,,TRUE,TRUE,,,,,,,,,,,,,,,,-0.4,,,,,,,,,,,METAR,2.0
CWBA 311500Z AUTO 19005KT 08/06 RMK AO1 T00810057,CWBA,2022-10-31T15:00:00Z,46.72,-79.1,8.1,5.7,190,5,,,,,,TRUE,TRUE,,,,,,,,,,,,,,,,,,,,,,,,,,,METAR,181.0
CWAV 311500Z AUTO 13005KT 01/M02 RMK AO1 SLP071 T00061023 53001,CWAV,2022-10-31T15:00:00Z,51.77,-114.67,0.6,-2.3,130,5,,,,1007.1,,TRUE,TRUE,,,,,,,,,,,,,,,,0.1,,,,,,,,,,,METAR,1115.0
CWAR 311500Z AUTO 18022KT 12/09 RMK AO1 PK WND 18026/1456 SLP134 T01240087 58022,CWAR,2022-10-31T15:00:00Z,47.28,-54.0,12.4,8.7,180,22,,,,1013.4,,TRUE,TRUE,,,,,,,,,,,,,,,,-2.2,,,,,,,,,,,METAR,6.0
CWAQ 311500Z AUTO 29003KT 04/01 RMK AO1 SLP076 T00410009 51001,CWAQ,2022-10-31T15:00:00Z,49.05,-105.48,4.1,0.9,290,3,,,,1007.6,,TRUE,TRUE,,,,,,,,,,,,,,,,0.1,,,,,,,,,,,METAR,761.0
CWAJ 311500Z AUTO 16007KT RMK AO1 58002,CWAJ,2022-10-31T15:00:00Z,42.25,-81.9,,,160,7,,,,,,TRUE,TRUE,,,,,,,,,,,,,,,,-0.2,,,,,,,,,,,METAR,177.0
CWAF 311500Z AUTO 21009KT 08/06 RMK AO1 T00800056,CWAF,2022-10-31T15:00:00Z,48.07,-69.55,8.0,5.6,210,9,,,,,,TRUE,TRUE,,,,,,,,,,,,,,,,,,,,,,,,,,,METAR,6.0
CWAE 311500Z 18003KT 15SM -RA OVC010 05/05 A2962 RMK SC8 WIND ESTD SLP039,CWAE,2022-10-31T15:00:00Z,50.13,-122.95,5.0,5.0,180,3,,15.0,29.619095,1003.9,,,,,,,,,-RA,OVC,1000,,,,,,,MVFR,,,,,,,,,,,,METAR,658.0
CTRA 311500Z AUTO 20004KT 06/01 RMK AO1 SLP046 T00610008 56013,CTRA,2022-10-31T15:00:00Z,49.67,-93.73,6.1,0.8,200,4,,,,1004.6,,TRUE,TRUE,,,,,,,,,,,,,,,,-1.3,,,,,,,,,,,METAR,432.0
CTNK 311500Z AUTO 27001KT 06/03 RMK AO1 SLP144 T00620026 58005,CTNK,2022-10-31T15:00:00Z,45.53,-78.27,6.2,2.6,270,1,,,,1014.4,,TRUE,TRUE,,,,,,,,,,,,,,,,-0.5,,,,,,,,,,,METAR,405.0
CTCK 311500Z AUTO 22005KT 14/04 RMK AO1 SLP146 T01370035 58002,CTCK,2022-10-31T15:00:00Z,45.25,-74.97,13.7,3.5,220,5,,,,1014.6,,TRUE,TRUE,,,,,,,,,,,,,,,,-0.2,,,,,,,,,,,METAR,84.0
CPSV 311500Z AUTO 03008KT 04/01 RMK AO1 T00440010,CPSV,2022-10-31T15:00:00Z,49.92,-110.92,4.4,1.0,30,8,,,,,,TRUE,TRUE,,,,,,,,,,,,,,,,,,,,,,,,,,,METAR,766.0
CPST 311500Z AUTO 03004KT 01/M02 RMK AO1 T00101015,CPST,2022-10-31T15:00:00Z,51.03,-113.28,1.0,-1.5,30,4,,,,,,TRUE,TRUE,,,,,,,,,,,,,,,,,,,,,,,,,,,METAR,1005.0
CPRY 311500Z AUTO 31002KT 01/00 RMK AO1 T00140000,CPRY,2022-10-31T15:00:00Z,49.48,-112.68,1.4,0.0,310,2,,,,,,TRUE,TRUE,,,,,,,,,,,,,,,,,,,,,,,,,,,METAR,947.0
CPRO 311500Z AUTO 00000KT M03/M03 RMK AO1 T10291030,CPRO,2022-10-31T15:00:00Z,50.83,-112.05,-2.9,-3.0,0,0,,,,,,TRUE,TRUE,,,,,,,,,,,,,,,,,,,,,,,,,,,METAR,733.0
CPIR 311500Z AUTO 01009KT 02/M00 RMK AO1 T00241001,CPIR,2022-10-31T15:00:00Z,49.9,-112.73,2.4,-0.1,10,9,,,,,,TRUE,TRUE,,,,,,,,,,,,,,,,,,,,,,,,,,,METAR,895.0
CPFI 311500Z AUTO 03002KT 02/01 RMK AO1 T00190006,CPFI,2022-10-31T15:00:00Z,49.8,-112.03,1.9,0.6,30,2,,,,,,TRUE,TRUE,,,,,,,,,,,,,,,,,,,,,,,,,,,METAR,804.0
CPEH 311500Z AUTO 00000KT 02/M01 RMK AO1 T00221007,CPEH,2022-10-31T15:00:00Z,50.18,-112.43,2.2,-0.7,0,0,,,,,,TRUE,TRUE,,,,,,,,,,,,,,,,,,,,,,,,,,,METAR,814.0
CPBT 311500Z AUTO 33004KT 01/M00 RMK AO1 T00101001,CPBT,2022-10-31T15:00:00Z,49.53,-113.05,1.0,-0.1,330,4,,,,,,TRUE,TRUE,,,,,,,,,,,,,,,,,,,,,,,,,,,METAR,998.0
CMGB 311500Z AUTO 21004KT 14/00 RMK AO1 SLP156 T01420000 58005,CMGB,2022-10-31T15:00:00Z,45.37,-72.77,14.2,0.0,210,4,,,,1015.6,,TRUE,TRUE,,,,,,,,,,,,,,,,-0.5,,,,,,,,,,,METAR,87.0
CMFM 311500Z AUTO 00000KT 09/02 RMK AO1 SLP161 T00850023 58002,CMFM,2022-10-31T15:00:00Z,47.32,-71.15,8.5,2.3,0,0,,,,1016.1,,TRUE,TRUE,,,,,,,,,,,,,,,,-0.2,,,,,,,,,,,METAR,663.0
CERM 311500Z AUTO 11002KT 11/02 RMK AO1 SLP158 T01130019 58002,CERM,2022-10-31T15:00:00Z,47.42,-68.32,11.3,1.9,110,2,,,,1015.8,,TRUE,TRUE,,,,,,,,,,,,,,,,-0.2,,,,,,,,,,,METAR,151.0
CBAR 311500Z AUTO 01008KT ////SM OVC016 M12/M14 A2998,CBAR,2022-10-31T15:00:00Z,,,-12.0,-14.0,10,8,,,29.97933,,,TRUE,,,,,,,,OVC,1600,,,,,,,,,,,,,,,,,,,METAR,
CAHR 311500Z AUTO 26009KT 14/04 RMK AO1 SLP151 T01420039 50000,CAHR,2022-10-31T15:00:00Z,46.35,-63.17,14.2,3.9,260,9,,,,1015.1,,TRUE,TRUE,,,,,,,,,,,,,,,,0.0,,,,,,,,,,,METAR,52.0
BIRK 311500Z 09012KT 9999 VCSH FEW008 SCT034 BKN140 08/04 Q0979,BIRK,2022-10-31T15:00:00Z,64.13,-21.93,8.0,4.0,90,12,,6.21,28.90748,,,,,,,,,,VCSH,FEW,800,SCT,3400,BKN,14000,,,VFR,,,,,,,,,,,,METAR,12.0
BIHU 311500Z 13007KT 9999 FEW068 BKN100 07/02 Q0982,BIHU,2022-10-31T15:00:00Z,65.95,-17.43,7.0,2.0,130,7,,6.21,28.996063,,,,,,,,,,,FEW,6800,BKN,10000,,,,,VFR,,,,,,,,,,,,METAR,15.0
BIHN 311500Z 10014KT 5000 RADZ BR SCT008 BKN012 OVC018 09/08 Q0980,BIHN,2022-10-31T15:00:00Z,64.3,-15.23,9.0,8.0,100,14,,3.11,28.937008,,,,,,,,,,RA DZ BR,SCT,800,BKN,1200,OVC,1800,,,MVFR,,,,,,,,,,,,METAR,8.0
BIEG 311500Z 01005KT 350V070 9999 RA SCT030 BKN037 OVC060 08/06 Q0983,BIEG,2022-10-31T15:00:00Z,65.27,-14.4,8.0,6.0,10,5,,6.21,29.02559,,,,,,,,,,RA,SCT,3000,BKN,3700,OVC,6000,,,VFR,,,,,,,,,,,,METAR,20.0
BIAR 311500Z VRB02KT 9999 FEW052 05/02 Q0982,BIAR,2022-10-31T15:00:00Z,65.67,-18.07,5.0,2.0,0,2,,6.21,28.996063,,,,,,,,,,,FEW,5200,,,,,,,VFR,,,,,,,,,,,,METAR,1.0
ANYN 311500Z VRB02KT 9999 FEW020 27/24 Q1009,ANYN,2022-10-31T15:00:00Z,-0.55,166.92,27.0,24.0,0,2,,6.21,29.793306,,,,,,,,,,,FEW,2000,,,,,,,VFR,,,,,,,,,,,,METAR,7.0
PASY 311459Z 35012KT 7SM BKN044 OVC055 05/03 RMK AO2A SLP120 ALSTG/SLP ESTMD WND DATA ESTMD T00450033 RVRNO PNO $,PASY,2022-10-31T14:59:00Z,52.72,174.12,4.5,3.3,350,12,,7.0,,1012.0,,,TRUE,TRUE,,,,,,BKN,4400,OVC,5500,,,,,VFR,,,,,,,,,,,,METAR,6.0
KP92 311459Z AUTO 30003KT 19/16 A3006 RMK AO1 SLP179 T01940161 52020,KP92,2022-10-31T14:59:00Z,29.57,-91.53,19.4,16.1,300,3,,,30.059055,1017.9,,TRUE,TRUE,,,,,,,,,,,,,,,,2.0,,,,,,,,,,,SPECI,1.0
KNOZ 311459Z AUTO 33008KT 10SM CLR 15/M05 A2992 RMK AO2 SLP084 T01501050 53009 $,KNOZ,2022-10-31T14:59:00Z,32.53,-114.5,15.0,-5.0,330,8,,10.0,29.920275,1008.4,,TRUE,TRUE,TRUE,,,,,,CLR,,,,,,,,VFR,0.9,,,,,,,,,,,METAR,78.0
KNGU 311459Z VRB03KT 10SM SCT030 BKN070 BKN200 19/13 A3013 RMK AO2 SLP204 T01890128 51008 $,KNGU,2022-10-31T14:59:00Z,36.93,-76.27,18.9,12.8,0,3,,10.0,30.129921,1020.4,,,TRUE,TRUE,,,,,,SCT,3000,BKN,7000,BKN,20000,,,VFR,0.8,,,,,,,,,,,METAR,3.0
PHSF 311458Z AUTO 09009KT 10SM CLR 08/02 A3031 RMK AO2 SLP163 T00770022 56006 $,PHSF,2022-10-31T14:58:00Z,19.77,-155.55,7.7,2.2,90,9,,10.0,30.31004,1016.3,,TRUE,TRUE,TRUE,,,,,,CLR,,,,,,,,VFR,-0.6,,,,,,,,,,,SPECI,1863.0
KPRN 311458Z AUTO 00000KT 10SM CLR 18/14 A3004 RMK AO2 SLP121 T01780144 51016 $,KPRN,2022-10-31T14:58:00Z,31.85,-86.62,17.8,14.4,0,0,,10.0,30.041338,1012.1,,TRUE,TRUE,TRUE,,,,,,CLR,,,,,,,,VFR,1.6,,,,,,,,,,,METAR,137.0
KMEI 311458Z VRB04KT 10SM CLR 19/14 A3004 RMK AO2 SLP171 T01940144 51017,KMEI,2022-10-31T14:58:00Z,32.33,-88.75,19.4,14.4,0,4,,10.0,30.041338,1017.1,,,TRUE,,,,,,,CLR,,,,,,,,VFR,1.7,,,,,,,,,,,SPECI,90.0
KHUA 311458Z 20003KT 5SM BR SCT038 OVC050 17/15 A3001 RMK SLPNO RVRNO $,KHUA,2022-10-31T14:58:00Z,34.68,-86.68,17.0,15.0,200,3,,5.0,30.008858,,,,,TRUE,,,,,BR,SCT,3800,OVC,5000,,,,,MVFR,,,,,,,,,,,,METAR,200.0
KGOV 311458Z AUTO 00000KT 10SM SCT110 11/06 A2985 RMK AO2 SLP120 T01050056 58001 $,KGOV,2022-10-31T14:58:00Z,44.68,-84.73,10.5,5.6,0,0,,10.0,29.84941,1012.0,,TRUE,TRUE,TRUE,,,,,,SCT,11000,,,,,,,VFR,-0.1,,,,,,,,,,,SPECI,350.0
KFEW 311458Z 22010G15KT 10SM SCT150 09/M09 A3007 RMK SLPNO WND DATA ESTMD ALSTG ESTMD,KFEW,2022-10-31T14:58:00Z,41.13,-104.87,9.0,-9.0,220,10,15,10.0,30.070866,,,,,,,,,,,SCT,15000,,,,,,,VFR,,,,,,,,,,,,METAR,1877.0
KCMY 311458Z AUTO 00000KT 9SM CLR 07/05 A2989 RMK AO2 SLP131 T00670053 51004 $,KCMY,2022-10-31T14:58:00Z,43.97,-90.73,6.7,5.3,0,0,,9.0,29.890747,1013.1,,TRUE,TRUE,TRUE,,,,,,CLR,,,,,,,,VFR,0.4,,,,,,,,,,,SPECI,253.0
KBKF 311458Z 20007KT 10SM FEW140 FEW220 07/M05 A3004 RMK AO2A SLP159 T00681055 53007,KBKF,2022-10-31T14:58:00Z,39.72,-104.75,6.8,-5.5,200,7,,10.0,30.041338,1015.9,,,TRUE,,,,,,,FEW,14000,FEW,22000,,,,,VFR,0.7,,,,,,,,,,,METAR,1703.0
KBCR 311458Z AUTO 01003KT 10SM OVC038 21/16 A3005 RMK AO2 SLP133 T02060161 53014,KBCR,2022-10-31T14:58:00Z,30.85,-85.6,20.6,16.1,10,3,,10.0,30.050198,1013.3,,TRUE,TRUE,,,,,,,OVC,3800,,,,,,,VFR,1.4,,,,,,,,,,,SPECI,26.0
KAPG 311458Z 20005KT 10SM SCT007 BKN025 15/13 A3006 RMK AO2A SLP183 T01530128 58003 $,KAPG,2022-10-31T14:58:00Z,39.47,-76.17,15.3,12.8,200,5,,10.0,30.059055,1018.3,,,TRUE,TRUE,,,,,,SCT,700,BKN,2500,,,,,MVFR,-0.3,,,,,,,,,,,SPECI,18.0
K0J4 311458Z AUTO VRB05KT 10SM CLR 21/14 A3007 RMK AO2 SLP178 T02110139 51015,K0J4,2022-10-31T14:58:00Z,31.05,-86.32,21.1,13.9,0,5,,10.0,30.070866,1017.8,,TRUE,TRUE,,,,,,,CLR,,,,,,,,VFR,1.5,,,,,,,,,,,METAR,96.0
MMPE 311457Z RTD 01005KT 10SM SKC 14/04 A2991 RMK RTS,MMPE,2022-10-31T14:57:00Z,31.35,-113.52,14.0,4.0,10,5,,10.0,29.911417,,,,,,,,,,,SKC,,,,,,,,VFR,,,,,,,,,,,,METAR,9.0
KNJW 311457Z AUTO 24007KT 10SM SCT014 OVC055 18/13 A3007 RMK AO2 SLP096 T01830133 51018,KNJW,2022-10-31T14:57:00Z,32.78,-88.82,18.3,13.3,240,7,,10.0,30.070866,1009.6,,TRUE,TRUE,,,,,,,SCT,1400,OVC,5500,,,,,VFR,1.8,,,,,,,,,,,METAR,165.0
KNJM 311457Z AUTO 11004KT 8SM BKN024 22/16 A3011 RMK AO2 SLP201 T02220161 50003 $,KNJM,2022-10-31T14:57:00Z,34.68,-77.02,22.2,16.1,110,4,,8.0,30.109253,1020.1,,TRUE,TRUE,TRUE,,,,,,BKN,2400,,,,,,,MVFR,0.3,,,,,,,,,,,METAR,5.0
KFLG 311457Z AUTO 00000KT 10SM CLR 02/M06 A3017 RMK AO2 SLP197 T00221056 53007,KFLG,2022-10-31T14:57:00Z,35.13,-111.67,2.2,-5.6,0,0,,10.0,30.171259,1019.7,,TRUE,TRUE,,,,,,,CLR,,,,,,,,VFR,0.7,,,,,,,,,,,SPECI,2134.0
KAQV 311457Z AUTO 00000KT 8SM CLR 19/16 A3005 RMK AO2 SLP174 T01890156 53023,KAQV,2022-10-31T14:57:00Z,31.4,-93.3,18.9,15.6,0,0,,8.0,30.050198,1017.4,,TRUE,TRUE,,,,,,,CLR,,,,,,,,VFR,2.3,,,,,,,,,,,METAR,123.0
TJSJ 311456Z 10005KT 10SM SCT027 SCT075 29/24 A2997 RMK AO2 SLP147 T02940244 50007,TJSJ,2022-10-31T14:56:00Z,18.43,-66.02,29.4,24.4,100,5,,10.0,29.970472,1014.7,,,TRUE,,,,,,,SCT,2700,SCT,7500,,,,,VFR,0.7,,,,,,,,,,,SPECI,3.0
ROTM 311456Z 04007G16KT 9999 -SHRA BKN007 BKN012 OVC040 22/20 A2983 RMK DZE50SHRAB50 SLP101 P0003 60005 T02180200 402340218 52007,ROTM,2022-10-31T14:56:00Z,26.27,127.75,21.8,20.0,40,7,16,6.21,29.828741,1010.1,,,,,,,,,-SHRA,BKN,700,BKN,1200,OVC,4000,,,IFR,0.7,,,23.4,21.8,0.03,0.05,,,,,METAR,80.0
RJOI 311456Z 31005KT 9999 FEW030 BKN250 14/08 A3013 RMK AO2 SLP203 T01440078 402170144 58010,RJOI,2022-10-31T14:56:00Z,34.13,132.23,14.4,7.8,310,5,,6.21,30.129921,1020.3,,,TRUE,,,,,,,FEW,3000,BKN,25000,,,,,VFR,-1.0,,,21.7,14.4,,,,,,,SPECI,2.0
PAED 311456Z 01004KT 10SM SCT055 OVC110 M04/M13 A2963 RMK AO2A SLP032 T10431132 52024 $,PAED,2022-10-31T14:56:00Z,61.25,-149.83,-4.3,-13.2,10,4,,10.0,29.630905,1003.2,,,TRUE,TRUE,,,,,,SCT,5500,OVC,11000,,,,,VFR,2.4,,,,,,,,,,,METAR,54.0
KWMC 311456Z AUTO 00000KT 10SM CLR M05/M11 A3011 RMK AO2 SLP210 T10501106 55002 $,KWMC,2022-10-31T14:56:00Z,40.9,-117.8,-5.0,-10.6,0,0,,10.0,30.109253,1021.0,,TRUE,TRUE,TRUE,,,,,,CLR,,,,,,,,VFR,-0.2,,,,,,,,,,,SPECI,1311.0
KWJF 311456Z 00000KT 10SM CLR 05/M08 A3004 RMK AO2 SLP176 T00501083 53002,KWJF,2022-10-31T14:56:00Z,34.73,-118.22,5.0,-8.3,0,0,,10.0,30.041338,1017.6,,,TRUE,,,,,,,CLR,,,,,,,,VFR,0.2,,,,,,,,,,,METAR,712.0
KUKI 311456Z AUTO 00000KT 10SM CLR 07/04 A2999 RMK AO2 SLP153 T00670044 58004,KUKI,2022-10-31T14:56:00Z,39.12,-123.2,6.7,4.4,0,0,,10.0,29.991142,1015.3,,TRUE,TRUE,,,,,,,CLR,,,,,,,,VFR,-0.4,,,,,,,,,,,METAR,183.0
KTPH 311456Z AUTO 36006KT 10SM CLR 01/M09 A3015 RMK AO2 SLP196 T00061094 55001,KTPH,2022-10-31T14:56:00Z,38.05,-117.08,0.6,-9.4,360,6,,10.0,30.15059,1019.6,,TRUE,TRUE,,,,,,,CLR,,,,,,,,VFR,-0.1,,,,,,,,,,,SPECI,1647.0
KSLE 311456Z 17010KT 10SM -RA OVC026 13/09 A2993 RMK AO2 RAE00B54 SLP136 P0000 60000 T01330094 56012,KSLE,2022-10-31T14:56:00Z,44.9,-123.0,13.3,9.4,170,10,,10.0,29.929134,1013.6,,,TRUE,,,,,,-RA,OVC,2600,,,,,,,MVFR,-1.2,,,,,0.005,0.005,,,,,METAR,63.0
KSHV 311456Z 29005KT 9SM FEW240 FEW280 18/14 A3004 RMK SLPNO,KSHV,2022-10-31T14:56:00Z,32.45,-93.83,18.0,14.0,290,5,,9.0,30.041338,,,,,,,,,,,FEW,24000,FEW,28000,,,,,VFR,,,,,,,,,,,,METAR,70.0
KSFO 311456Z 00000KT 10SM FEW006 BKN180 11/09 A2998 RMK AO2 SLP151 T01110094 56005,KSFO,2022-10-31T14:56:00Z,37.62,-122.37,11.1,9.4,0,0,,10.0,29.97933,1015.1,,,TRUE,,,,,,,FEW,600,BKN,18000,,,,,VFR,-0.5,,,,,,,,,,,SPECI,2.0
KSBP 311456Z 00000KT 8SM SCT002 07/06 A2995 RMK AO2 SLP141 T00670061 55001,KSBP,2022-10-31T14:56:00Z,35.23,-120.63,6.7,6.1,0,0,,8.0,29.949802,1014.1,,,TRUE,,,,,,,SCT,200,,,,,,,VFR,-0.1,,,,,,,,,,,METAR,52.0
KRDM 311456Z 13003KT 10SM CLR 12/00 A2993 RMK AO2 SLP131 T01170000 58004,KRDM,2022-10-31T14:56:00Z,44.25,-121.15,11.7,0.0,130,3,,10.0,29.929134,1013.1,,,TRUE,,,,,,,CLR,,,,,,,,VFR,-0.4,,,,,,,,,,,SPECI,930.0
KP28 311456Z AUTO 34003KT 08/00 A3004 RMK AO1 SLP173 T00780000 53011,KP28,2022-10-31T14:56:00Z,37.28,-98.55,7.8,0.0,340,3,,,30.041338,1017.3,,TRUE,TRUE,,,,,,,,,,,,,,,,1.1,,,,,,,,,,,METAR,469.0
KOFK 311456Z AUTO 00000KT 10SM CLR 07/03 A2992 RMK AO2 SLP141 T00670028 55001,KOFK,2022-10-31T14:56:00Z,41.98,-97.43,6.7,2.8,0,0,,10.0,29.920275,1014.1,,TRUE,TRUE,,,,,,,CLR,,,,,,,,VFR,-0.1,,,,,,,,,,,METAR,476.0
KNSE 311456Z VRB04KT 10SM FEW050 SCT250 21/14 A3006 RMK AO2 SLP163 6//// T02060139 51017 PNO $,KNSE,2022-10-31T14:56:00Z,30.73,-87.02,20.6,13.9,0,4,,10.0,30.059055,1016.3,,,TRUE,TRUE,,,,,,FEW,5000,SCT,25000,,,,,VFR,1.7,,,,,,,,,,,SPECI,56.0
KNPA 311456Z 31004KT 10SM SCT250 21/15 A3005 RMK AO2 SLP178 T02060150 51017,KNPA,2022-10-31T14:56:00Z,30.35,-87.32,20.6,15.0,310,4,,10.0,30.050198,1017.8,,,TRUE,,,,,,,SCT,25000,,,,,,,VFR,1.7,,,,,,,,,,,SPECI,6.0
KNDZ 311456Z 30004KT 10SM FEW250 20/14 A3005 RMK AO2 SLP163 T02000144 51017 $,KNDZ,2022-10-31T14:56:00Z,30.7,-87.02,20.0,14.4,300,4,,10.0,30.050198,1016.3,,,TRUE,TRUE,,,,,,FEW,25000,,,,,,,VFR,1.7,,,,,,,,,,,METAR,51.0
KNCA 311456Z 00000KT 10SM CLR 20/16 A3011 RMK AO2 SLP197 T02000161 51009,KNCA,2022-10-31T14:56:00Z,34.72,-77.45,20.0,16.1,0,0,,10.0,30.109253,1019.7,,,TRUE,,,,,,,CLR,,,,,,,,VFR,0.9,,,,,,,,,,,METAR,9.0
KMOB 311456Z 27003KT 10SM FEW060 BKN250 20/15 A3006 RMK AO2 SLP179 T02000150 53017,KMOB,2022-10-31T14:56:00Z,30.68,-88.25,20.0,15.0,270,3,,10.0,30.059055,1017.9,,,TRUE,,,,,,,FEW,6000,BKN,25000,,,,,VFR,1.7,,,,,,,,,,,METAR,67.0
KMEH 311456Z AUTO 00000KT 10SM -RA OVC055 09/05 A2991 RMK AO2 RAB32 SLP127 P0000 60000 T00940050 55005,KMEH,2022-10-31T14:56:00Z,45.52,-118.42,9.4,5.0,0,0,,10.0,29.911417,1012.7,,TRUE,TRUE,,,,,,-RA,OVC,5500,,,,,,,VFR,-0.5,,,,,0.005,0.005,,,,,METAR,1138.0
KLWS 311456Z 02003KT 10SM OVC070 10/07 A2983 RMK AO2 RAE09 SLP105 P0000 60000 T01000072 56008,KLWS,2022-10-31T14:56:00Z,46.37,-117.02,10.0,7.2,20,3,,10.0,29.828741,1010.5,,,TRUE,,,,,,,OVC,7000,,,,,,,VFR,-0.8,,,,,0.005,0.005,,,,,METAR,435.0
KLRF 311456Z 29007KT 10SM FEW180 17/13 A3000 RMK AO2A SLPNO RVRNO TSNO $,KLRF,2022-10-31T14:56:00Z,34.92,-92.12,17.0,13.0,290,7,,10.0,30.0,,,,TRUE,TRUE,,TRUE,,,,FEW,18000,,,,,,,VFR,,,,,,,,,,,,METAR,85.0
KLNR 311456Z AUTO 26004KT 10SM CLR 08/04 A2988 RMK AO2 SLP115 T00780044 50003,KLNR,2022-10-31T14:56:00Z,43.22,-90.18,7.8,4.4,260,4,,10.0,29.878937,1011.5,,TRUE,TRUE,,,,,,,CLR,,,,,,,,VFR,0.3,,,,,,,,,,,METAR,218.0
KLAS 311456Z 00000KT 10SM FEW250 13/M06 A3005 RMK AO2 SLP163 T01331056 53004,KLAS,2022-10-31T14:56:00Z,36.07,-115.17,13.3,-5.6,0,0,,10.0,30.050198,1016.3,,,TRUE,,,,,,,FEW,25000,,,,,,,VFR,0.4,,,,,,,,,,,METAR,662.0
KJRB 311456Z AUTO 21004KT 10SM CLR A3010 RMK AO2 PK WND 26045/1427 SLPNO 6//// FZRANO $,KJRB,2022-10-31T14:56:00Z,40.7,-74.02,,,210,4,,10.0,30.100393,,,TRUE,TRUE,TRUE,,,TRUE,,,CLR,,,,,,,,VFR,,,,,,,,,,,,METAR,2.0
KJMS 311456Z AUTO 24008KT 10SM CLR 08/M02 A2975 RMK AO2 SLP083 T00831022 55001,KJMS,2022-10-31T14:56:00Z,46.93,-98.67,8.3,-2.2,240,8,,10.0,29.749016,1008.3,,TRUE,TRUE,,,,,,,CLR,,,,,,,,VFR,-0.1,,,,,,,,,,,METAR,455.0
KJAX 311456Z 14007KT 10SM FEW020 FEW060 SCT170 27/21 A3003 RMK AO2 SLP169 T02720211 50008,KJAX,2022-10-31T14:56:00Z,30.5,-81.68,27.2,21.1,140,7,,10.0,30.029528,1016.9,,,TRUE,,,,,,,FEW,2000,FEW,6000,SCT,17000,,,VFR,0.8,,,,,,,,,,,METAR,8.0
KISP 311456Z 24004KT 10SM BKN026 BKN140 17/11 A3007 RMK AO2 SLP183 T01720106 58011,KISP,2022-10-31T14:56:00Z,40.8,-73.1,17.2,10.6,240,4,,10.0,30.070866,1018.3,,,TRUE,,,,,,,BKN,2600,BKN,14000,,,,,MVFR,-1.1,,,,,,,,,,,SPECI,25.0
KINW 311456Z AUTO 12004KT 10SM CLR 02/M05 A3017 RMK AO2 SLP212 T00171050 53012,KINW,2022-10-31T14:56:00Z,35.03,-110.72,1.7,-5.0,120,4,,10.0,30.171259,1021.2,,TRUE,TRUE,,,,,,,CLR,,,,,,,,VFR,1.2,,,,,,,,,,,SPECI,1492.0
KHWV 311456Z AUTO 18004KT 10SM BKN025 17/10 A3010 RMK AO2 SLP191 T01670100 58000,KHWV,2022-10-31T14:56:00Z,40.82,-72.87,16.7,10.0,180,4,,10.0,30.100393,1019.1,,TRUE,TRUE,,,,,,,BKN,2500,,,,,,,MVFR,0.0,,,,,,,,,,,SPECI,20.0
KHPN 311456Z 27005KT 10SM CLR 16/09 A3007 RMK AO2 SLP185 T01560094 58004,KHPN,2022-10-31T14:56:00Z,41.07,-73.7,15.6,9.4,270,5,,10.0,30.070866,1018.5,,,TRUE,,,,,,,CLR,,,,,,,,VFR,-0.4,,,,,,,,,,,SPECI,113.0
KFSD 311456Z 00000KT 10SM FEW250 06/01 A2989 RMK AO2 SLP132 T00560006 53002,KFSD,2022-10-31T14:56:00Z,43.58,-96.75,5.6,0.6,0,0,,10.0,29.890747,1013.2,,,TRUE,,,,,,,FEW,25000,,,,,,,VFR,0.2,,,,,,,,,,,METAR,433.0
KELZ 311456Z AUTO 00000KT 10SM -RA SCT028 BKN049 OVC100 12/07 A2999 RMK AO2 RAB29 SLP158 P0000 60000 T01220067 58005,KELZ,2022-10-31T14:56:00Z,42.1,-77.98,12.2,6.7,0,0,,10.0,29.991142,1015.8,,TRUE,TRUE,,,,,,-RA,SCT,2800,BKN,4900,OVC,10000,,,VFR,-0.5,,,,,0.005,0.005,,,,,METAR,639.0
KEED 311456Z AUTO 33007KT 10SM CLR 19/M04 A2998 RMK AO2 SLP130 T01891044 51012,KEED,2022-10-31T14:56:00Z,34.77,-114.62,18.9,-4.4,330,7,,10.0,29.97933,1013.0,,TRUE,TRUE,,,,,,,CLR,,,,,,,,VFR,1.2,,,,,,,,,,,METAR,271.0
KEAU 311456Z 00000KT 4SM BR CLR 05/04 A2987 RMK AO2 SLP121 I3000 T00500039 53004,KEAU,2022-10-31T14:56:00Z,44.87,-91.48,5.0,3.9,0,0,,4.0,29.870079,1012.1,,,TRUE,,,,,,BR,CLR,,,,,,,,MVFR,0.4,,,,,,,,,,,SPECI,271.0
KDIK 311456Z AUTO 26007KT 10SM CLR 06/M02 A2977 RMK AO2 SLP094 T00561017 53003,KDIK,2022-10-31T14:56:00Z,46.8,-102.8,5.6,-1.7,260,7,,10.0,29.769686,1009.4,,TRUE,TRUE,,,,,,,CLR,,,,,,,,VFR,0.3,,,,,,,,,,,METAR,788.0
KD07 311456Z AUTO 28010KT 08/M04 A2984 RMK AO1 SLP116 T00831039 53002 $,KD07,2022-10-31T14:56:00Z,45.03,-102.02,8.3,-3.9,280,10,,,29.840551,1011.6,,TRUE,TRUE,TRUE,,,,,,,,,,,,,,,0.2,,,,,,,,,,,SPECI,786.0
KCTB 311456Z AUTO 24016G25KT 10SM CLR 10/02 A2966 RMK AO2 SLP040 T01000017 56009,KCTB,2022-10-31T14:56:00Z,48.6,-112.37,10.0,1.7,240,16,25,10.0,29.660433,1004.0,,TRUE,TRUE,,,,,,,CLR,,,,,,,,VFR,-0.9,,,,,,,,,,,METAR,1172.0
KCHS 311456Z 12006KT 10SM FEW010 SCT035 BKN120 25/21 A3005 RMK AO2 SLP176 T02500206 51007 $,KCHS,2022-10-31T14:56:00Z,32.9,-80.03,25.0,20.6,120,6,,10.0,30.050198,1017.6,,,TRUE,TRUE,,,,,,FEW,1000,SCT,3500,BKN,12000,,,VFR,0.7,,,,,,,,,,,SPECI,12.0
KBZN 311456Z 08005KT 10SM OVC070 05/01 A2991 RMK AO2 SLP140 T00500006 55005,KBZN,2022-10-31T14:56:00Z,45.78,-111.17,5.0,0.6,80,5,,10.0,29.911417,1014.0,,,TRUE,,,,,,,OVC,7000,,,,,,,VFR,-0.5,,,,,,,,,,,SPECI,1349.0
KBIH 311456Z AUTO 31004KT 10SM CLR 01/M09 A3010 RMK AO2 SLP186 T00061094 55001,KBIH,2022-10-31T14:56:00Z,37.37,-118.35,0.6,-9.4,310,4,,10.0,30.100393,1018.6,,TRUE,TRUE,,,,,,,CLR,,,,,,,,VFR,-0.1,,,,,,,,,,,SPECI,1252.0
KART 311456Z AUTO 19005KT 10SM CLR 14/06 A2995 RMK AO2 SLP145 T01390056 58006,KART,2022-10-31T14:56:00Z,43.98,-76.03,13.9,5.6,190,5,,10.0,29.949802,1014.5,,TRUE,TRUE,,,,,,,CLR,,,,,,,,VFR,-0.6,,,,,,,,,,,METAR,100.0
KALK 311456Z AUTO 10SM CLR 09/M02 A3009 RMK AO2 SLP132 T00941017 53011 $,KALK,2022-10-31T14:56:00Z,31.6,-110.43,9.4,-1.7,,,,10.0,30.088583,1013.2,,TRUE,TRUE,TRUE,,,,,,CLR,,,,,,,,VFR,1.1,,,,,,,,,,,METAR,1451.0
K79J 311456Z AUTO 32003KT 10SM CLR 20/14 A3005 RMK AO2 SLP172 60000 T02000139 51009,K79J,2022-10-31T14:56:00Z,31.32,-86.4,20.0,13.9,320,3,,10.0,30.050198,1017.2,,TRUE,TRUE,,,,,,,CLR,,,,,,,,VFR,0.9,,,,,,,,,,,SPECI,93.0
ETOU 311456Z 12002KT 9999 BKN160 18/13 A3004 RMK AO2A SLPNO RVRNO,ETOU,2022-10-31T14:56:00Z,50.03,8.32,18.0,13.0,120,2,,6.21,30.041338,,,,TRUE,,,,,,,BKN,16000,,,,,,,VFR,,,,,,,,,,,,METAR,141.0
YGTH 311455Z AUTO 27011KT 9999 // SCT009 OVC067 12/12 Q0992,YGTH,2022-10-31T14:55:00Z,-34.25,146.07,12.0,12.0,270,11,,6.21,29.291338,,,TRUE,,,,,,,,SCT,900,OVC,6700,,,,,VFR,,,,,,,,,,,,SPECI,132.0
TNCE 311455Z AUTO 11011KT 070V150 //// // ///////// 31/24 Q1014 RE//,TNCE,2022-10-31T14:55:00Z,17.48,-62.97,31.0,24.0,110,11,,,29.940945,,,TRUE,,,,,,,,,,,,,,,,,,,,,,,,,,,,SPECI,38.0
TNCB 311455Z 11011KT 070V170 9999 +RA SCT014 BKN018 25/25 Q1012,TNCB,2022-10-31T14:55:00Z,12.13,-68.28,25.0,25.0,110,11,,6.21,29.88189,,,,,,,,,,+RA,SCT,1400,BKN,1800,,,,,MVFR,,,,,,,,,,,,METAR,6.0
RKSG 311455Z 00000KT 4SM BR FEW014 SCT130 10/10 A3022 RMK AO2A SLP237 T01020100 402020081 52004 TSNO $,RKSG,2022-10-31T14:55:00Z,36.97,127.02,10.2,10.0,0,0,,4.0,30.221457,1023.7,,,TRUE,TRUE,,TRUE,,,BR,FEW,1400,SCT,13000,,,,,MVFR,0.4,,,20.2,8.1,,,,,,,SPECI,12.0
RJTY 311455Z AUTO 33004KT 10SM CLR 10/06 A3034 RMK AO2 SLP278 T00970057 401860055 58005 $,RJTY,2022-10-31T14:55:00Z,35.75,139.33,9.7,5.7,330,4,,10.0,30.339567,1027.8,,TRUE,TRUE,TRUE,,,,,,CLR,,,,,,,,VFR,-0.5,,,18.6,5.5,,,,,,,SPECI,136.0
PAWG 311455Z 10008KT 10SM FEW010 SCT030 BKN060 03/01 A2957,PAWG,2022-10-31T14:55:00Z,56.48,-132.37,3.0,1.0,100,8,,10.0,29.568897,,,,,,,,,,,FEW,1000,SCT,3000,BKN,6000,,,VFR,,,,,,,,,,,,METAR,6.0
PATL 311455Z AUTO VRB03KT 10SM OVC065 M09/M10 A2996 RMK AO2 PK WND 030135/1438 SHSNB1334E1404 SLP172 T10911105 51015 TSNO $,PATL,2022-10-31T14:55:00Z,62.9,-155.97,-9.1,-10.5,0,3,,10.0,29.958662,1017.2,,TRUE,TRUE,TRUE,,TRUE,,,,OVC,6500,,,,,,,VFR,1.5,,,,,,,,,,,METAR,261.0
PASV 311455Z AUTO 33011KT 1 1/4SM -SN BR OVC003 M10/M11 A2987 RMK AO2 SNB1255 SLP163 P0000 60000 T10981110 51011,PASV,2022-10-31T14:55:00Z,61.1,-155.57,-9.8,-11.0,330,11,,1.25,29.870079,1016.3,,TRUE,TRUE,,,,,,-SN BR,OVC,300,,,,,,,LIFR,1.1,,,,,0.005,0.005,,,,,METAR,462.0
OTBH 311455Z 10007KT 9999 CLR 30/22 A2993 RMK AO2A SLPNO ALSTG ESTMD T02970224 PWINO FZRANO TSNO CHINO RWY34 $,OTBH,2022-10-31T14:55:00Z,25.12,51.32,29.7,22.4,100,7,,6.21,29.929134,,,,TRUE,TRUE,,TRUE,TRUE,TRUE,,CLR,,,,,,,,VFR,,,,,,,,,,,,METAR,40.0
LIVT 311455Z AUTO VRB01KT //// 20/16 Q1021,LIVT,2022-10-31T14:55:00Z,45.68,13.75,20.0,16.0,0,1,,,30.147638,,,TRUE,,,,,,,,,,,,,,,,,,,,,,,,,,,,METAR,20.0
LIVR 311455Z 18006KT CAVOK 12/M00 Q1027 RMK SCT SCT200 MON LIB VIS MIN 9999,LIVR,2022-10-31T14:55:00Z,46.28,11.78,12.0,0.0,180,6,,6.21,30.324802,,,,,,,,,,,CAVOK,,,,,,,,VFR,,,,,,,,,,,,METAR,1997.0
LIVP 311455Z 19011KT CAVOK 11/M02 Q1028,LIVP,2022-10-31T14:55:00Z,46.15,11.03,11.0,-2.0,190,11,,6.21,30.35433,,,,,,,,,,,CAVOK,,,,,,,,VFR,,,,,,,,,,,,METAR,2099.0
LIVO 311455Z 00000KT CAVOK 19/10 Q1022 RMK BKN BKN200 VIS MIN 9999,LIVO,2022-10-31T14:55:00Z,46.5,13.58,19.0,10.0,0,0,,6.21,30.177166,,,,,,,,,,,CAVOK,,,,,,,,VFR,,,,,,,,,,,,METAR,782.0
LIVM 311455Z 11004KT CAVOK 23/15 Q1021 RMK BKN BKN180 QUK 1 QUL 0 VIS MAR 12 KM VIS MIN 9999,LIVM,2022-10-31T14:55:00Z,44.45,12.3,23.0,15.0,110,4,,6.21,30.147638,,,,,,,,,,,CAVOK,,,,,,,,VFR,,,,,,,,,,,,METAR,6.0
LIVF 311455Z 00000KT CAVOK 21/07 Q1022,LIVF,2022-10-31T14:55:00Z,43.52,12.72,21.0,7.0,0,0,,6.21,30.177166,,,,,,,,,,,CAVOK,,,,,,,,VFR,,,,,,,,,,,,METAR,549.0
LIVE 311455Z 22005KT 9999 SCT050 15/05 Q1025 RMK BKN SCT180 VIS MIN 9999,LIVE,2022-10-31T14:55:00Z,46.82,10.5,15.0,5.0,220,5,,6.21,30.265747,,,,,,,,,,,SCT,5000,,,,,,,VFR,,,,,,,,,,,,METAR,1684.0
LIVD 311455Z VRB02KT CAVOK 15/09 Q1025 RMK BKN FEW100 BKN230 VIS MIN 9999,LIVD,2022-10-31T14:55:00Z,46.72,12.22,15.0,9.0,0,2,,6.21,30.265747,,,,,,,,,,,CAVOK,,,,,,,,VFR,,,,,,,,,,,,METAR,1221.0
LIVC 311455Z AUTO 21008KT 100V230 //// 12/M01 Q1030,LIVC,2022-10-31T14:55:00Z,44.2,10.68,12.0,-1.0,210,8,,,30.413385,,,TRUE,,,,,,,,,,,,,,,,,,,,,,,,,,,,METAR,2139.0
LIRX 311455Z 23002KT CAVOK 22/11 Q1022 RMK SCT SCT200 VIS MIN 9999 VIS MAR 20 KM,LIRX,2022-10-31T14:55:00Z,42.73,10.38,22.0,11.0,230,2,,6.21,30.177166,,,,,,,,,,,CAVOK,,,,,,,,VFR,,,,,,,,,,,,METAR,397.0
LIRV 311455Z 24005KT CAVOK 23/10 Q1023 RMK SKC MON E SE LIB NC VIS MIN 9999 WIND THR04 ///// KT BLU,LIRV,2022-10-31T14:55:00Z,42.42,12.07,23.0,10.0,240,5,,6.21,30.206694,,,,,,,,,,,CAVOK,,,,,,,,VFR,,,,,,,,,,,,METAR,294.0
LIRT 311455Z 11005KT CAVOK 19/03 Q1025,LIRT,2022-10-31T14:55:00Z,41.03,15.22,19.0,3.0,110,5,,6.21,30.265747,,,,,,,,,,,CAVOK,,,,,,,,VFR,,,,,,,,,,,,METAR,1058.0
LIRS 311455Z 22005KT CAVOK 21/18 Q1022 RMK SCT SCT200 VIS MIN 9999 WIND THR03 23006KT WIND THR21 22005KT BLU,LIRS,2022-10-31T14:55:00Z,42.75,11.07,21.0,18.0,220,5,,6.21,30.177166,,,,,,,,,,,CAVOK,,,,,,,,VFR,,,,,,,,,,,,METAR,3.0
LIRM 311455Z 20005KT CAVOK 23/05 Q1021 RMK SKC VIS MIN 9999 WIND THR06 24006KT BLU,LIRM,2022-10-31T14:55:00Z,41.05,14.07,23.0,5.0,200,5,,6.21,30.147638,,,,,,,,,,,CAVOK,,,,,,,,VFR,,,,,,,,,,,,METAR,6.0
LIRL 311455Z 24006KT CAVOK 25/17 Q1021 RMK SKC MON LIB NC VIS MIN 9999 WIND THR12 /////KT WIND THR30 25006KT BLU,LIRL,2022-10-31T14:55:00Z,41.53,12.9,25.0,17.0,240,6,,6.21,30.147638,,,,,,,,,,,CAVOK,,,,,,,,VFR,,,,,,,,,,,,METAR,23.0
LIRK 311455Z AUTO 28005KT //// 17/01 Q1033,LIRK,2022-10-31T14:55:00Z,42.47,12.97,17.0,1.0,280,5,,,30.501968,,,TRUE,,,,,,,,,,,,,,,,,,,,,,,,,,,,METAR,1721.0
LIRH 311455Z 20002KT CAVOK 25/10 Q1022 RMK SKC MON LIB NC VIS MIN 9999 WIND THR16 19002KT BLU,LIRH,2022-10-31T14:55:00Z,41.65,13.3,25.0,10.0,200,2,,6.21,30.177166,,,,,,,,,,,CAVOK,,,,,,,,VFR,,,,,,,,,,,,METAR,183.0
LIRG 311455Z 28004KT CAVOK 26/05 Q1022 RMK SKC MON NE LIB NC VIS MIN 9999 BLU,LIRG,2022-10-31T14:55:00Z,42.0,12.73,26.0,5.0,280,4,,6.21,30.177166,,,,,,,,,,,CAVOK,,,,,,,,VFR,,,,,,,,,,,,METAR,82.0
LIRE 311455Z 28008KT CAVOK 22/18 Q1021 RMK SKC VIS MIN 9999 WIND THR13 30007KT WIND THR31 /////KT BLU,LIRE,2022-10-31T14:55:00Z,41.65,12.43,22.0,18.0,280,8,,6.21,30.147638,,,,,,,,,,,CAVOK,,,,,,,,VFR,,,,,,,,,,,,METAR,16.0
LIQO 311455Z AUTO /////KT //// ///// Q////,LIQO,2022-10-31T14:55:00Z,42.38,11.17,,,,,,,,,,TRUE,,,,,,,,,,,,,,,,,,,,,,,,,,,,METAR,627.0
LIQC 311455Z 00000KT CAVOK 20/17 Q1022 RMK SKC QUK 1 QUL 0 VIS MAR 20 KM VIS MIN 9999,LIQC,2022-10-31T14:55:00Z,40.55,14.2,20.0,17.0,0,0,,6.21,30.177166,,,,,,,,,,,CAVOK,,,,,,,,VFR,,,,,,,,,,,,METAR,154.0
LIPS 311455Z /////KT CAVOK 25/15 Q1020,LIPS,2022-10-31T14:55:00Z,45.68,12.1,25.0,15.0,,,,6.21,30.11811,,,,,,,,,,,CAVOK,,,,,,,,VFR,,,,,,,,,,,,METAR,42.0
LIPL 311455Z 24002KT CAVOK 23/12 Q1020 RMK FEW FEW200 VIS MIN 9999 WIND THR31 20004KT WIND THR13 23002KT BLU,LIPL,2022-10-31T14:55:00Z,45.42,10.27,23.0,12.0,240,2,,6.21,30.11811,,,,,,,,,,,CAVOK,,,,,,,,VFR,,,0.4,,,,,,,,,METAR,96.0
LIPI 311455Z 17002KT CAVOK 22/15 Q1020 RMK BKN BKN200 VIS MIN 9999 WIND THR06 19002KT WIND THR24 17501KT BLU,LIPI,2022-10-31T14:55:00Z,45.97,13.05,22.0,15.0,170,2,,6.21,30.11811,,,,,,,,,,,CAVOK,,,,,,,,VFR,,,,,,,,,,,,METAR,49.0
LIPF 311455Z 00000KT CAVOK 22/13 Q1021 RMK FEW FEW200 VIS MIN 9999,LIPF,2022-10-31T14:55:00Z,44.82,11.62,22.0,13.0,0,0,,6.21,30.147638,,,,,,,,,,,CAVOK,,,,,,,,VFR,,,,,,,,,,,,SPECI,5.0
LIPC 311455Z 08004KT CAVOK 21/16 Q1022 RMK SCT SCT220 VIS MIN 9999 WIND THR11 09004KT WIND THR29 09004KT BLU,LIPC,2022-10-31T14:55:00Z,44.22,12.3,21.0,16.0,80,4,,6.21,30.177166,,,,,,,,,,,CAVOK,,,,,,,,VFR,,,,,,,,,,,,METAR,10.0
LIPA 311455Z 12004KT CAVOK 22/15 Q1021 RMK SCT SCT200 VIS MIN 9999 WIND THR05 /////KT WIND THR23 /////KT A3016 BLU,LIPA,2022-10-31T14:55:00Z,46.02,12.58,22.0,15.0,120,4,,6.21,30.147638,,,,,,,,,,,CAVOK,,,,,,,,VFR,,,,,,,,,,,,METAR,113.0
LIMY 311455Z 32005KT CAVOK 21/12 Q1021,LIMY,2022-10-31T14:55:00Z,44.25,7.78,21.0,12.0,320,5,,6.21,30.147638,,,,,,,,,,,CAVOK,,,,,,,,VFR,,,,,,,,,,,,METAR,1742.0
LIMV 311455Z /////KT CAVOK 17/14 Q1023,LIMV,2022-10-31T14:55:00Z,44.55,8.93,17.0,14.0,,,,6.21,30.206694,,,,,,,,,,,CAVOK,,,,,,,,VFR,,,,,,,,,,,,METAR,474.0
LIMU 311455Z 10004KT 9999 SCT020 21/17 Q1024 RMK BKN SCT200 QUK 1 QUL 1 SE VIS MAR 20 KM VIS MIN 9999,LIMU,2022-10-31T14:55:00Z,43.95,8.17,21.0,17.0,100,4,,6.21,30.236221,,,,,,,,,,,SCT,2000,,,,,,,VFR,,,,,,,,,,,,METAR,215.0
LIMS 311455Z 00000KT CAVOK 23/16 Q1020 RMK FEW FEW240 VIS MIN 9999 WIND THR30 00000KT BLU,LIMS,2022-10-31T14:55:00Z,44.92,9.72,23.0,16.0,0,0,,6.21,30.11811,,,,,,,,,,,CAVOK,,,,,,,,VFR,,,,,,,,,,,,METAR,132.0
LIMN 311455Z /////KT CAVOK 23/13 Q1021,LIMN,2022-10-31T14:55:00Z,45.52,8.67,23.0,13.0,,,,6.21,30.147638,,,,,,,,,,,CAVOK,,,,,,,,VFR,,,,,,,,,,,,METAR,168.0
LIMK 311455Z 00000KT CAVOK 21/14 Q1022 RMK FEW FEW100 VAL S FOSCHIA VIS MIN 9999,LIMK,2022-10-31T14:55:00Z,45.02,7.72,21.0,14.0,0,0,,6.21,30.177166,,,,,,,,,,,CAVOK,,,,,,,,VFR,,,,,,,,,,,,METAR,693.0
LIMH 311455Z AUTO 22010G21KT //// M02/M06 Q1030,LIMH,2022-10-31T14:55:00Z,45.93,7.7,-2.0,-6.0,220,10,21,,30.413385,,,TRUE,,,,,,,,,,,,,,,,,,,,,,,,,,,,METAR,3473.0
LIED 311455Z 14008KT 9999 FEW025 23/14 Q1022 RMK SCT SCT200 VIS MIN 9999 WIND THR35 /////KT WIND THR17 15007KT BLU,LIED,2022-10-31T14:55:00Z,39.35,8.97,23.0,14.0,140,8,,6.21,30.177166,,,,,,,,,,,FEW,2500,,,,,,,VFR,,,,,,,,,,,,METAR,26.0
LIEB 311455Z 15004KT CAVOK 25/15 Q1021 RMK FEW FEW200 QUK 2 QUL 0 VIS MAR 30 KM MON LIB VIS MIN 9999,LIEB,2022-10-31T14:55:00Z,39.93,9.72,25.0,15.0,150,4,,6.21,30.147638,,,,,,,,,,,CAVOK,,,,,,,,VFR,,,,,,,,,,,,METAR,126.0
LICZ 311455Z /////KT CAVOK 25/08 Q1019 RMK SKC VIS MIN 9999 WIND THR28 09007KT WIND THR10 08008KT A3012 BLU,LICZ,2022-10-31T14:55:00Z,37.4,14.92,25.0,8.0,,,,6.21,30.088583,,,,,,,,,,,CAVOK,,,,,,,,VFR,,,,,,,,,,,,SPECI,22.0
LICT 311455Z 36008KT CAVOK 24/19 Q1021 RMK SKC VIS MIN 9999 WIND THR13 02009KT BLU,LICT,2022-10-31T14:55:00Z,37.92,12.5,24.0,19.0,360,8,,6.21,30.147638,,,,,,,,,,,CAVOK,,,,,,,,VFR,,,,,,,,,,,,METAR,4.0
LICF 311455Z 01004KT 9999 FEW040 22/11 Q1021 RMK FEW QUK 1 QUL 0 VIS MAR 20 KM MON E CIME INC NC MON W LIB NC VIS MIN 9999,LICF,2022-10-31T14:55:00Z,38.2,15.55,22.0,11.0,10,4,,6.21,30.147638,,,,,,,,,,,FEW,4000,,,,,,,VFR,,,,,,,,,,,,METAR,66.0
LIBY 311455Z 02007KT CAVOK 23/17 Q1018 RMK FEW FEW200 QUK 3 QUL 1 N VIS MAR 15 KM VIS MIN 9999,LIBY,2022-10-31T14:55:00Z,39.82,18.35,23.0,17.0,20,7,,6.21,30.059055,,,,,,,,,,,CAVOK,,,,,,,,VFR,,,,,,,,,,,,METAR,105.0
LIBV 311455Z 32006KT CAVOK 22/06 Q1021 RMK SKC VIS MIN 9999 WIND THR32 35003KT WIND THR14 34006KT BLU,LIBV,2022-10-31T14:55:00Z,40.77,16.93,22.0,6.0,320,6,,6.21,30.147638,,,,,,,,,,,CAVOK,,,,,,,,VFR,,,,,,,,,,,,METAR,344.0
LIBQ 311455Z 06005KT 020V090 CAVOK 13/02 Q1027,LIBQ,2022-10-31T14:55:00Z,39.32,16.38,13.0,2.0,60,5,,6.21,30.324802,,,,,,,,,,,CAVOK,,,,,,,,VFR,,,,,,,,,,,,METAR,1660.0
LIBN 311455Z 35009KT CAVOK 21/17 Q1020 RMK FEW FEW200 VIS MIN 9999 WIND THR14 34010KT WIND THR32 36011KT BLU,LIBN,2022-10-31T14:55:00Z,40.23,18.13,21.0,17.0,350,9,,6.21,30.11811,,,,,,,,,,,CAVOK,,,,,,,,VFR,,,,,,,,,,,,METAR,46.0
LIBA 311455Z 28006KT CAVOK 25/11 Q1021 RMK SKC VIS MIN 9999 WIND THR11 28008KT WIND THR29 /////KT BLU,LIBA,2022-10-31T14:55:00Z,41.53,15.72,25.0,11.0,280,6,,6.21,30.147638,,,,,,,,,,,CAVOK,,,,,,,,VFR,,,,,,,,,,,,METAR,55.0
KWRI 311455Z 22005KT 10SM BKN080 17/11 A3009 RMK A02A SLP188 60000 58006,KWRI,2022-10-31T14:55:00Z,40.02,-74.58,17.0,11.0,220,5,,10.0,30.088583,1018.8,,,TRUE,,,,,,,BKN,8000,,,,,,,VFR,-0.6,,,,,,,,,,,SPECI,35.0
KSZL 311455Z 28004KT 10SM BKN140 BKN200 14/07 A2989 RMK AO2A SLP124 T01410072 52015 $,KSZL,2022-10-31T14:55:00Z,38.73,-93.53,14.1,7.2,280,4,,10.0,29.890747,1012.4,,,TRUE,TRUE,,,,,,BKN,14000,BKN,20000,,,,,VFR,1.5,,,,,,,,,,,METAR,259.0
KSWF 311455Z 24010KT 10SM SCT060 14/09 A3006,KSWF,2022-10-31T14:55:00Z,41.5,-74.08,14.0,9.0,240,10,,10.0,30.059055,,,,,,,,,,,SCT,6000,,,,,,,VFR,,,,,,,,,,,,METAR,139.0
KRDR 311455Z COR 21005KT 10SM BKN250 10/M01 A2968 RMK AO2A SLPNO COR 1549,KRDR,2022-10-31T14:55:00Z,47.93,-97.4,10.0,-1.0,210,5,,10.0,29.681103,,TRUE,,TRUE,,,,,,,BKN,25000,,,,,,,VFR,,,,,,,,,,,,METAR,276.0
KQTZ 311455Z 33002KT 9999 BKN140 30/09 A2979 RMK SLP087 WND DATA ESTMD ALSTG/SLP ESTMD 53002,KQTZ,2022-10-31T14:55:00Z,,,30.0,9.0,330,2,,6.21,29.790354,1008.7,,,,,,,,,,BKN,14000,,,,,,,VFR,0.2,,,,,,,,,,,SPECI,
KQN3 311455Z AUTO VRB05G10KT 9999 CLR 37/03 A2987 RMK AO2 SLP104 WND DATA ESTMD T03650033,KQN3,2022-10-31T14:55:00Z,,,36.5,3.3,0,5,10,6.21,29.870079,1010.4,,TRUE,TRUE,,,,,,,CLR,,,,,,,,VFR,,,,,,,,,,,,METAR,
KQHY 311455Z AUTO 03003KT 10SM CLR 21/14 A3005 RMK AO2 SLP182 T02070143 52016,KQHY,2022-10-31T14:55:00Z,,,20.7,14.3,30,3,,10.0,30.050198,1018.2,,TRUE,TRUE,,,,,,,CLR,,,,,,,,VFR,1.6,,,,,,,,,,,METAR,
KQBL 311455Z AUTO 36003KT 10SM CLR 21/14 A3006 RMK AO2 SLP185 WND DATA ESTMD T02070140 52017,KQBL,2022-10-31T14:55:00Z,,,20.7,14.0,360,3,,10.0,30.059055,1018.5,,TRUE,TRUE,,,,,,,CLR,,,,,,,,VFR,1.7,,,,,,,,,,,METAR,
KP58 311455Z AUTO 16006KT 12/12 A2985 RMK AO1 SLP110 60006 T01220117 56003,KP58,2022-10-31T14:55:00Z,44.02,-82.8,12.2,11.7,160,6,,,29.84941,1011.0,,TRUE,TRUE,,,,,,,,,,,,,,,,-0.3,,,,,,0.06,,,,,METAR,180.0
KNTD 311455Z 06004KT 8SM FEW190 FEW250 09/06 A2993 RMK AO2 SLP136 T00890061 53007 $,KNTD,2022-10-31T14:55:00Z,34.12,-119.12,8.9,6.1,60,4,,8.0,29.929134,1013.6,,,TRUE,TRUE,,,,,,FEW,19000,FEW,25000,,,,,VFR,0.7,,,,,,,,,,,METAR,1.0
KMMU 311455Z 00000KT 10SM BKN250 15/12 A3009,KMMU,2022-10-31T14:55:00Z,40.78,-74.42,15.0,12.0,0,0,,10.0,30.088583,,,,,,,,,,,BKN,25000,,,,,,,VFR,,,,,,,,,,,,METAR,55.0
KLHW 311455Z 00000KT 10SM FEW003 23/22 A3002 RMK AO2A SLP169 T02280216 50007 $,KLHW,2022-10-31T14:55:00Z,31.88,-81.57,22.8,21.6,0,0,,10.0,30.02067,1016.9,,,TRUE,TRUE,,,,,,FEW,300,,,,,,,VFR,0.7,,,,,,,,,,,SPECI,14.0
KLCK 311455Z AUTO 18010KT 10SM BKN010 OVC070 17/16 A2992 RMK AO2 T01730157,KLCK,2022-10-31T14:55:00Z,39.82,-82.92,17.3,15.7,180,10,,10.0,29.920275,,,TRUE,TRUE,,,,,,,BKN,1000,OVC,7000,,,,,MVFR,,,,,,,,,,,,METAR,225.0
KEND 311455Z AUTO 28004KT 10SM CLR 10/04 A3001 RMK AO2 SLP165 T01030044 52015 $,KEND,2022-10-31T14:55:00Z,36.33,-97.92,10.3,4.4,280,4,,10.0,30.008858,1016.5,,TRUE,TRUE,TRUE,,,,,,CLR,,,,,,,,VFR,1.5,,,,,,,,,,,METAR,392.0
KCWN 311455Z AUTO 35004KT 10SM CLR 11/M08 A3001 RMK AO2 PRESRR SLP036 T01071080 53080 $,KCWN,2022-10-31T14:55:00Z,38.75,-104.85,10.7,-8.0,350,4,,10.0,30.008858,1003.6,,TRUE,TRUE,TRUE,,,,,,CLR,,,,,,,,VFR,8.0,,,,,,,,,,,METAR,2040.0
KCNW 311455Z 00000KT 10SM SKC 15/14 A3007,KCNW,2022-10-31T14:55:00Z,31.63,-97.07,15.0,14.0,0,0,,10.0,30.070866,,,,,,,,,,,SKC,,,,,,,,VFR,,,,,,,,,,,,METAR,139.0
KCEF 311455Z 24006KT 10SM FEW040 BKN150 BKN250 13/08 A3005 RMK AO2A SLPNO T01290076,KCEF,2022-10-31T14:55:00Z,42.2,-72.52,12.9,7.6,240,6,,10.0,30.050198,,,,TRUE,,,,,,,FEW,4000,BKN,15000,BKN,25000,,,VFR,,,,,,,,,,,,SPECI,72.0
KCCB 311455Z AUTO 06003KT 10SM CLR 18/M05 A2994 RMK AO2,KCCB,2022-10-31T14:55:00Z,34.12,-117.68,18.0,-5.0,60,3,,10.0,29.940945,,,TRUE,TRUE,,,,,,,CLR,,,,,,,,VFR,,,,,,,,,,,,METAR,440.0
KCAO 311455Z AUTO 25009KT 10SM CLR 10/01 A3007 RMK AO2 SLP158 T01000006 53005,KCAO,2022-10-31T14:55:00Z,36.45,-103.15,10.0,0.6,250,9,,10.0,30.070866,1015.8,,TRUE,TRUE,,,,,,,CLR,,,,,,,,VFR,0.5,,,,,,,,,,,METAR,1517.0
KBIF 311455Z AUTO 26007KT 10SM CLR 11/M00 A3005 RMK AO2 SLP144 T01111004 52013 $,KBIF,2022-10-31T14:55:00Z,31.85,-106.38,11.1,-0.4,260,7,,10.0,30.050198,1014.4,,TRUE,TRUE,TRUE,,,,,,CLR,,,,,,,,VFR,1.3,,,,,,,,,,,METAR,1201.0
K9S5 311455Z AUTO 20008KT 10SM 09/M02 A2989 RMK Three Forks ,K9S5,2022-10-31T14:55:00Z,45.88,-111.57,9.0,-2.0,200,8,,10.0,29.890747,,,TRUE,,,,,,,,,,,,,,,,,,,,,,,,,,,,METAR,1246.0
ETIK 311455Z 04003KT 8000 BR BKN150 15/15 A3005 RMK AO2A SLP179 T01520150 57020,ETIK,2022-10-31T14:55:00Z,49.47,10.38,15.2,15.0,40,3,,4.97,30.050198,1017.9,,,TRUE,,,,,,BR,BKN,15000,,,,,,,MVFR,-2.0,,,,,,,,,,,METAR,326.0
ETIH 311455Z AUTO 00000KT 9999 CLR 16/12 A3008 RMK AO2 SLP189 T01600120 57017,ETIH,2022-10-31T14:55:00Z,49.22,11.83,16.0,12.0,0,0,,6.21,30.079725,1018.9,,TRUE,TRUE,,,,,,,CLR,,,,,,,,VFR,-1.7,,,,,,,,,,,METAR,436.0
ETEB 311455Z AUTO 09004KT 9999 CLR 17/12 A3005 RMK AO2 SLP185 T01660121 57020 $,ETEB,2022-10-31T14:55:00Z,49.32,10.63,16.6,12.1,90,4,,6.21,30.050198,1018.5,,TRUE,TRUE,TRUE,,,,,,CLR,,,,,,,,VFR,-2.0,,,,,,,,,,,METAR,466.0
ETAR 311455Z AUTO 08004KT 9999 CLR 18/13 A3000 RMK AO2 SLP162 T01750130 57025,ETAR,2022-10-31T14:55:00Z,49.43,7.58,17.5,13.0,80,4,,6.21,30.0,1016.2,,TRUE,TRUE,,,,,,,CLR,,,,,,,,VFR,-2.5,,,,,,,,,,,METAR,231.0
KMTN 311454Z 00000KT 10SM OVC007 15/14 A3010,KMTN,2022-10-31T14:54:00Z,39.32,-76.42,15.0,14.0,0,0,,10.0,30.100393,,,,,,,,,,,OVC,700,,,,,,,IFR,,,,,,,,,,,,SPECI,2.0
KLNK 311454Z 18003KT 10SM CLR 07/01 A2998 RMK AO2 SLP155 T00720011 51007,KLNK,2022-10-31T14:54:00Z,40.85,-96.77,7.2,1.1,180,3,,10.0,29.97933,1015.5,,,TRUE,,,,,,,CLR,,,,,,,,VFR,0.7,,,,,,,,,,,METAR,357.0
KFFZ 311454Z 00000KT 10SM CLR 16/M02 A2997 RMK AO2 SLP134 T01611017 53014,KFFZ,2022-10-31T14:54:00Z,33.47,-111.72,16.1,-1.7,0,0,,10.0,29.970472,1013.4,,,TRUE,,,,,,,CLR,,,,,,,,VFR,1.4,,,,,,,,,,,METAR,420.0
KDDH 311454Z AUTO 18008KT 10SM CLR 15/05 A3004 RMK AO2 SLP174 T01500050 58005,KDDH,2022-10-31T14:54:00Z,42.9,-73.25,15.0,5.0,180,8,,10.0,30.041338,1017.4,,TRUE,TRUE,,,,,,,CLR,,,,,,,,VFR,-0.5,,,,,,,,,,,SPECI,241.0
PAKT 311453Z 14008KT 10SM -RA SCT025 SCT039 BKN050 02/01 A2960 RMK AO2 RAB45 SLP025 HARBOR WIND 12013KT P0000 60000 T00220006 51002,PAKT,2022-10-31T14:53:00Z,55.35,-131.72,2.2,0.6,140,8,,10.0,29.601377,1002.5,,,TRUE,,,,,,-RA,SCT,2500,SCT,3900,BKN,5000,,,VFR,0.2,,,,,0.005,0.005,,,,,METAR,27.0
PAGK 311453Z AUTO 01006KT 10SM OVC100 M10/M15 A2956 RMK AO2 SLP058 T11001150 53023 TSNO,PAGK,2022-10-31T14:53:00Z,62.15,-145.45,-10.0,-15.0,10,6,,10.0,29.56004,1005.8,,TRUE,TRUE,,,TRUE,,,,OVC,10000,,,,,,,VFR,2.3,,,,,,,,,,,METAR,481.0
MMTM 311453Z E30008KT 5SM SCT004 OVC008 22/21 A2996 RMK SLP146 52012 982 8/7// BINOVC -DZE43 -DZ OCNL,MMTM,2022-10-31T14:53:00Z,22.28,-97.87,22.0,21.0,300,8,,5.0,29.958662,1014.6,,,,,,,,,,SCT,400,OVC,800,,,,,IFR,1.2,,,,,,,,,,,METAR,21.0
MMMV 311453Z 00000KT 10SM BKN080 BKN200 16/10 A3000 RMK 8/072,MMMV,2022-10-31T14:53:00Z,26.95,-101.47,16.0,10.0,0,0,,10.0,30.0,,,,,,,,,,,BKN,8000,BKN,20000,,,,,VFR,,,,,,,,,,,,METAR,567.0
KNSI 311453Z 00000KT 10SM SCT140 BKN220 14/08 A2992 RMK SLP126 T01390083 53002,KNSI,2022-10-31T14:53:00Z,33.23,-119.45,13.9,8.3,0,0,,10.0,29.920275,1012.6,,,,,,,,,,SCT,14000,BKN,22000,,,,,VFR,0.2,,,,,,,,,,,METAR,161.0
KMFE 311453Z 10009KT 10SM OVC060 24/18 A2998,KMFE,2022-10-31T14:53:00Z,26.18,-98.25,24.0,18.0,100,9,,10.0,29.97933,,,,,,,,,,,OVC,6000,,,,,,,VFR,,,,,,,,,,,,METAR,29.0
KHSI 311453Z AUTO 22004KT 10SM CLR 07/01 A2997 RMK AO2 SLP156 T00720006 53005,KHSI,2022-10-31T14:53:00Z,40.6,-98.43,7.2,0.6,220,4,,10.0,29.970472,1015.6,,TRUE,TRUE,,,,,,,CLR,,,,,,,,VFR,0.5,,,,,,,,,,,METAR,592.0
KFOK 311453Z 20005KT 10SM FEW008 BKN030 17/14 A3010 RMK AO2 RAE11 SLP193 P0000 60001 T01670139 58003,KFOK,2022-10-31T14:53:00Z,40.85,-72.62,16.7,13.9,200,5,,10.0,30.100393,1019.3,,,TRUE,,,,,,,FEW,800,BKN,3000,,,,,MVFR,-0.3,,,,,0.005,0.01,,,,,METAR,13.0
KELY 311453Z AUTO 17009KT 10SM CLR M03/M07 A3018 RMK AO2 SLP233 T10331072 55003,KELY,2022-10-31T14:53:00Z,39.3,-114.85,-3.3,-7.2,170,9,,10.0,30.180119,1023.3,,TRUE,TRUE,,,,,,,CLR,,,,,,,,VFR,-0.3,,,,,,,,,,,SPECI,1906.0
KDXR 311453Z 25008KT 10SM CLR 15/08 A3008 RMK AO2 SLP187 T01500083 58004,KDXR,2022-10-31T14:53:00Z,41.37,-73.48,15.0,8.3,250,8,,10.0,30.079725,1018.7,,,TRUE,,,,,,,CLR,,,,,,,,VFR,-0.4,,,,,,,,,,,METAR,138.0
KCSV 311453Z AUTO VRB05KT 10SM OVC040 14/13 A3002 RMK AO2 SLP157 T01390133 51012,KCSV,2022-10-31T14:53:00Z,35.95,-85.08,13.9,13.3,0,5,,10.0,30.02067,1015.7,,TRUE,TRUE,,,,,,,OVC,4000,,,,,,,VFR,1.2,,,,,,,,,,,METAR,569.0
KBPK 311453Z AUTO 33004KT 10SM FEW011 15/12 A2997 RMK AO2 SLP144 T01500117 51014,KBPK,2022-10-31T14:53:00Z,36.37,-92.47,15.0,11.7,330,4,,10.0,29.970472,1014.4,,TRUE,TRUE,,,,,,,FEW,1100,,,,,,,VFR,1.4,,,,,,,,,,,METAR,279.0
KAOH 311453Z AUTO 20008G16KT 9SM SCT008 BKN012 OVC038 17/15 A2987 RMK AO2 RAB20E29 SLP111 P0000 60000 T01720150 50004,KAOH,2022-10-31T14:53:00Z,40.7,-84.02,17.2,15.0,200,8,16,9.0,29.870079,1011.1,,TRUE,TRUE,,,,,,,SCT,800,BKN,1200,OVC,3800,,,MVFR,0.4,,,,,0.005,,,,,,SPECI,294.0
MMPS 311452Z 05008KT 12SM SKC 27/21 A2988 RMK HZY,MMPS,2022-10-31T14:52:00Z,15.87,-97.08,27.0,21.0,50,8,,12.0,29.878937,,,,,,,,,,,SKC,,,,,,,,VFR,,,,,,,,,,,,METAR,65.0
MMIO 311452Z 00000KT 5SM SKC 11/03 A3015,MMIO,2022-10-31T14:52:00Z,25.55,-100.93,11.0,3.0,0,0,,5.0,30.15059,,,,,,,,,,,SKC,,,,,,,,MVFR,,,,,,,,,,,,METAR,1430.0
MMCL 311452Z 06004KT 10SM FEW015 22/17 A2990 RMK SLP123 972 8/500,MMCL,2022-10-31T14:52:00Z,24.77,-107.47,22.0,17.0,60,4,,10.0,29.899607,1012.3,,,,,,,,,,FEW,1500,,,,,,,VFR,,,,,,,,,,,,METAR,35.0
KNHK 311452Z COR VRB05KT 10SM FEW003 FEW033 BKN060 BKN075 18/12 A3011 RMK AO2 SLP195 T01830122 51007,KNHK,2022-10-31T14:52:00Z,38.28,-76.4,18.3,12.2,0,5,,10.0,30.109253,1019.5,TRUE,,TRUE,,,,,,,FEW,300,FEW,3300,BKN,6000,BKN,7500,VFR,0.7,,,,,,,,,,,SPECI,5.0
KCLT 311452Z 12005KT 8SM BKN008 OVC011 16/14 A3007 RMK SLP177 60001 T01560139 51001 $,KCLT,2022-10-31T14:52:00Z,35.22,-80.95,15.6,13.9,120,5,,8.0,30.070866,1017.7,,,,TRUE,,,,,,BKN,800,OVC,1100,,,,,IFR,0.1,,,,,,0.01,,,,,METAR,223.0
PTYA 311451Z 00000KT 12SM SCT016 BKN300 26/26 A2982 RMK MDT CU N SLP100 8/201 T02640256 403080264 50002,PTYA,2022-10-31T14:51:00Z,9.48,138.08,26.4,25.6,0,0,,12.0,29.819881,1010.0,,,,,,,,,,SCT,1600,BKN,30000,,,,,VFR,0.2,,,30.8,26.4,,,,,,,SPECI,4.0
PAMD 311451Z AUTO 33010KT 10SM BKN120 03/M02 A2936 RMK AO2 SLP928 6//// T00331022 53020 PNO $,PAMD,2022-10-31T14:51:00Z,59.43,-146.3,3.3,-2.2,330,10,,10.0,29.359253,992.8,,TRUE,TRUE,TRUE,,,,,,BKN,12000,,,,,,,VFR,2.0,,,,,,,,,,,METAR,20.0
MUCM 311451Z 05011KT 9000 BKN018 28/25 Q1014,MUCM,2022-10-31T14:51:00Z,21.42,-77.85,28.0,25.0,50,11,,5.59,29.940945,,,,,,,,,,,BKN,1800,,,,,,,MVFR,,,,,,,,,,,,METAR,125.0
SFAL 31450Z 24017KT 9999 FEW024 08/04 Q1012,SFAL,2022-10-31T14:50:00Z,-51.68,-57.77,8.0,4.0,324,17,,6.21,29.88189,,,,,,,,,,,FEW,2400,,,,,,,VFR,,,,,,,,,,,,METAR,23.0
OOSH 311450Z AUTO 14004KT //// ////// 29/23 Q1013 RMK 1009,OOSH,2022-10-31T14:50:00Z,24.38,56.62,29.0,23.0,140,4,,,29.911417,,,TRUE,,,,,,,,,,,,,,,,,,,,,,,,,,,,METAR,35.0
OOSA 311450Z 14006KT CAVOK 28/21 Q1014 NOSIG,OOSA,2022-10-31T14:50:00Z,17.03,54.1,28.0,21.0,140,6,,6.21,29.940945,,,,,,TRUE,,,,,CAVOK,,,,,,,,VFR,,,,,,,,,,,,METAR,20.0
OOMS 311450Z 08003KT CAVOK 29/22 Q1013 NOSIG,OOMS,2022-10-31T14:50:00Z,23.58,58.28,29.0,22.0,80,3,,6.21,29.911417,,,,,,TRUE,,,,,CAVOK,,,,,,,,VFR,,,,,,,,,,,,METAR,8.0
OOKB 311450Z 03005KT CAVOK 29/22 Q1013 NOSIG,OOKB,2022-10-31T14:50:00Z,26.17,56.23,29.0,22.0,30,5,,6.21,29.911417,,,,,,TRUE,,,,,CAVOK,,,,,,,,VFR,,,,,,,,,,,,METAR,30.0
OODQ 311450Z AUTO 11007KT CAVOK ////// 27/22 Q1015 NOSIG RMK RH74? 0,OODQ,2022-10-31T14:50:00Z,19.52,57.65,27.0,22.0,110,7,,6.21,29.970472,,,TRUE,,,TRUE,,,,,CAVOK,,,,,,,,VFR,,,,,,,,,,,,METAR,116.0
OOAD 311450Z AUTO 16006KT //// R31///// // NCD 31/12 Q1016 NOSIG,OOAD,2022-10-31T14:50:00Z,22.5,57.37,31.0,12.0,160,6,,,30.0,,,TRUE,,,TRUE,,,,,CLR,,,,,,,,,,,,,,,,,,,,METAR,327.0
NSTU 311450Z VRB05KT 10SM SCT023 25/24 A2982 RMK SLP100 8/100 T02450240 56007,NSTU,2022-10-31T14:50:00Z,-14.33,-170.72,24.5,24.0,0,5,,10.0,29.819881,1010.0,,,,,,,,,,SCT,2300,,,,,,,VFR,-0.7,,,,,,,,,,,METAR,8.0
MUVR 311450Z 08007KT 050V110 9999 SCT020 29/23 Q1015,MUVR,2022-10-31T14:50:00Z,23.03,-81.43,29.0,23.0,80,7,,6.21,29.970472,,,,,,,,,,,SCT,2000,,,,,,,VFR,,,,,,,,,,,,METAR,65.0
MUSC 311450Z 09007KT 050V120 9000 SCT020 29/23 Q1015,MUSC,2022-10-31T14:50:00Z,22.5,-79.92,29.0,23.0,90,7,,5.59,29.970472,,,,,,,,,,,SCT,2000,,,,,,,VFR,,,,,,,,,,,,METAR,97.0
MUHG 311450Z 09010KT 060V120 9999 SCT020 30/23 Q1013,MUHG,2022-10-31T14:50:00Z,20.78,-76.32,30.0,23.0,90,10,,6.21,29.911417,,,,,,,,,,,SCT,2000,,,,,,,VFR,,,,,,,,,,,,METAR,100.0
MUHA 311450Z 09006KT 050V130 9000 FEW025 29/20 Q1015,MUHA,2022-10-31T14:50:00Z,22.98,-82.42,29.0,20.0,90,6,,5.59,29.970472,,,,,,,,,,,FEW,2500,,,,,,,VFR,,,,,,,,,,,,METAR,61.0
MUCU 311450Z 13007KT 100V160 9000 FEW020 30/23 Q1013,MUCU,2022-10-31T14:50:00Z,19.97,-75.83,30.0,23.0,130,7,,5.59,29.911417,,,,,,,,,,,FEW,2000,,,,,,,VFR,,,,,,,,,,,,METAR,70.0
MUCL 311450Z 05008KT 020V090 9000 FEW020 29/25 Q1014,MUCL,2022-10-31T14:50:00Z,21.63,-81.55,29.0,25.0,50,8,,5.59,29.940945,,,,,,,,,,,FEW,2000,,,,,,,VFR,,,,,,,,,,,,METAR,5.0
MUCF 311450Z 08007KT 040V140 9999 FEW025 30/24 Q1015,MUCF,2022-10-31T14:50:00Z,22.15,-80.4,30.0,24.0,80,7,,6.21,29.970472,,,,,,,,,,,FEW,2500,,,,,,,VFR,,,,,,,,,,,,METAR,35.0
MUCC 311450Z 07011KT 040V100 9000 BKN018CB 30/25 Q1014,MUCC,2022-10-31T14:50:00Z,22.47,-78.33,30.0,25.0,70,11,,5.59,29.940945,,,,,,,,,,,BKN,1800,,,,,,,MVFR,,,,,,,,,,,,METAR,7.0
MSSS 311450Z 33007KT CAVOK 24/19 Q1016 A3002,MSSS,2022-10-31T14:50:00Z,13.7,-89.12,24.0,19.0,330,7,,6.21,30.0,,,,,,,,,,,CAVOK,,,,,,,,VFR,,,,,,,,,,,,METAR,611.0
MSSA 311450Z 06003KT CAVOK 26/18 Q1017 A3006,MSSA,2022-10-31T14:50:00Z,13.97,-89.53,26.0,18.0,60,3,,6.21,30.029528,,,,,,,,,,,CAVOK,,,,,,,,VFR,,,,,,,,,,,,METAR,656.0
MSLU 311450Z 00000KT CAVOK 28/22 Q1011 A2988,MSLU,2022-10-31T14:50:00Z,13.33,-87.88,28.0,22.0,0,0,,6.21,29.852362,,,,,,,,,,,CAVOK,,,,,,,,VFR,,,,,,,,,,,,METAR,5.0
MSAC 311450Z 10005KT 9999 FEW030 30/17 Q1010 A2984,MSAC,2022-10-31T14:50:00Z,13.57,-89.83,30.0,17.0,100,5,,6.21,29.822834,,,,,,,,,,,FEW,3000,,,,,,,VFR,,,,,,,,,,,,METAR,14.0
LTFO 311450Z 19006KT 9999 SCT025 BKN100 17/12 Q1017,LTFO,2022-10-31T14:50:00Z,41.18,40.85,17.0,12.0,190,6,,6.21,30.029528,,,,,,,,,,,SCT,2500,BKN,10000,,,,,VFR,,,,,,,,,,,,METAR,5.0
LTFH 311450Z 18003KT 160V230 9999 -SHRA SCT033 BKN080 15/12 Q1018 NOSIG,LTFH,2022-10-31T14:50:00Z,41.27,36.57,15.0,12.0,180,3,,6.21,30.059055,,,,,,TRUE,,,,-SHRA,SCT,3300,BKN,8000,,,,,VFR,,,,,,,,,,,,METAR,7.0
LTFG 311450Z 23003KT 9999 FEW030 23/15 Q1015,LTFG,2022-10-31T14:50:00Z,36.3,32.3,23.0,15.0,230,3,,6.21,29.970472,,,,,,,,,,,FEW,3000,,,,,,,VFR,,,,,,,,,,,,METAR,26.0
LTFD 311450Z 06017KT CAVOK 22/09 Q1017,LTFD,2022-10-31T14:50:00Z,39.55,27.02,22.0,9.0,60,17,,6.21,30.029528,,,,,,,,,,,CAVOK,,,,,,,,VFR,,,,,,,,,,,,METAR,15.0
LTFB 311450Z 26008KT CAVOK 19/12 Q1016,LTFB,2022-10-31T14:50:00Z,37.95,27.33,19.0,12.0,260,8,,6.21,30.0,,,,,,,,,,,CAVOK,,,,,,,,VFR,,,,,,,,,,,,METAR,3.0
LTDA 311450Z 14004KT 8000 FEW040 SCT120 24/10 Q1013 NOSIG,LTDA,2022-10-31T14:50:00Z,36.37,36.28,24.0,10.0,140,4,,4.97,29.911417,,,,,,TRUE,,,,,FEW,4000,SCT,12000,,,,,MVFR,,,,,,,,,,,,METAR,80.0
LTCW 311450Z VRB04KT 9000 FEW040 12/01 Q1018,LTCW,2022-10-31T14:50:00Z,37.55,44.23,12.0,1.0,0,4,,5.59,30.059055,,,,,,,,,,,FEW,4000,,,,,,,VFR,,,,,,,,,,,,METAR,1852.0
LTCV 311450Z 27010KT CAVOK 18/05 Q1015,LTCV,2022-10-31T14:50:00Z,37.37,42.07,18.0,5.0,270,10,,6.21,29.970472,,,,,,,,,,,CAVOK,,,,,,,,VFR,,,,,,,,,,,,METAR,620.0
LTCT 311450Z 00000KT 9999 FEW040 14/01 Q1013,LTCT,2022-10-31T14:50:00Z,39.98,43.87,14.0,1.0,0,0,,6.21,29.911417,,,,,,,,,,,FEW,4000,,,,,,,VFR,,,,,,,,,,,,METAR,936.0
LTCR 311450Z 36008KT 320V030 9999 FEW040 SCT100 20/08 Q1015,LTCR,2022-10-31T14:50:00Z,37.22,40.63,20.0,8.0,360,8,,6.21,29.970472,,,,,,,,,,,FEW,4000,SCT,10000,,,,,VFR,,,,,,,,,,,,METAR,529.0
LTCO 311450Z 23016KT 9999 FEW040 12/00 Q1016,LTCO,2022-10-31T14:50:00Z,39.65,43.03,12.0,0.0,230,16,,6.21,30.0,,,,,,,,,,,FEW,4000,,,,,,,VFR,,,,,,,,,,,,METAR,1657.0
LTCN 311450Z 33008KT 9999 FEW040 SCT100 22/05 Q1015 NOSIG,LTCN,2022-10-31T14:50:00Z,37.53,36.95,22.0,5.0,330,8,,6.21,29.970472,,,,,,TRUE,,,,,FEW,4000,SCT,10000,,,,,VFR,,,,,,,,,,,,METAR,505.0
LTCF 311450Z 26005KT 200V320 9999 FEW040 09/M04 Q1015,LTCF,2022-10-31T14:50:00Z,40.57,43.12,9.0,-4.0,260,5,,6.21,29.970472,,,,,,,,,,,FEW,4000,,,,,,,VFR,,,,,,,,,,,,METAR,1794.0
LTCD 311450Z 24006KT CAVOK 14/M01 Q1016 NOSIG,LTCD,2022-10-31T14:50:00Z,39.72,39.52,14.0,-1.0,240,6,,6.21,30.0,,,,,,TRUE,,,,,CAVOK,,,,,,,,VFR,,,,,,,,,,,,METAR,1146.0
LTCB 311450Z 22003KT 9999 BKN035 16/10 Q1018 RESHRA,LTCB,2022-10-31T14:50:00Z,40.97,38.07,16.0,10.0,220,3,,6.21,30.059055,,,,,,,,,,,BKN,3500,,,,,,,VFR,,,,,,,,,,,,METAR,5.0
LTCA 311450Z VRB02KT 9999 FEW035 14/05 Q1016 NOSIG,LTCA,2022-10-31T14:50:00Z,38.6,39.28,14.0,5.0,0,2,,6.21,30.0,,,,,,TRUE,,,,,FEW,3500,,,,,,,VFR,,,,,,,,,,,,METAR,887.0
LTBY 311450Z 33008KT CAVOK 15/01 Q1019,LTBY,2022-10-31T14:50:00Z,39.82,30.52,15.0,1.0,330,8,,6.21,30.088583,,,,,,,,,,,CAVOK,,,,,,,,VFR,,,,,,,,,,,,METAR,788.0
LTBQ 311450Z 14002KT CAVOK 13/10 Q1021 NOSIG,LTBQ,2022-10-31T14:50:00Z,40.73,30.07,13.0,10.0,140,2,,6.21,30.147638,,,,,,TRUE,,,,,CAVOK,,,,,,,,VFR,,,,,,,,,,,,METAR,51.0
LTBH 311450Z 06011KT CAVOK 19/11 Q1019,LTBH,2022-10-31T14:50:00Z,40.13,26.42,19.0,11.0,60,11,,6.21,30.088583,,,,,,,,,,,CAVOK,,,,,,,,VFR,,,,,,,,,,,,METAR,8.0
LTBF 311450Z 35009KT CAVOK 18/08 Q1019 NOSIG,LTBF,2022-10-31T14:50:00Z,39.62,27.92,18.0,8.0,350,9,,6.21,30.088583,,,,,,TRUE,,,,,CAVOK,,,,,,,,VFR,,,,,,,,,,,,METAR,95.0
LTBD 311450Z 25006KT CAVOK 23/06 Q1014,LTBD,2022-10-31T14:50:00Z,37.82,27.88,23.0,6.0,250,6,,6.21,29.940945,,,,,,,,,,,CAVOK,,,,,,,,VFR,,,,,,,,,,,,METAR,29.0
LTAY 311450Z 27007KT CAVOK 17/M02 Q1017,LTAY,2022-10-31T14:50:00Z,37.78,29.7,17.0,-2.0,270,7,,6.21,30.029528,,,,,,,,,,,CAVOK,,,,,,,,VFR,,,,,,,,,,,,METAR,851.0
LTAR 311450Z 32010KT 9999 FEW040 09/M13 Q1020,LTAR,2022-10-31T14:50:00Z,39.8,36.9,9.0,-13.0,320,10,,6.21,30.11811,,,,,,,,,,,FEW,4000,,,,,,,VFR,,,,,,,,,,,,METAR,1601.0
LTAN 311450Z 02007KT 9999 FEW030 SCT100 14/01 Q1019 NOSIG,LTAN,2022-10-31T14:50:00Z,37.97,32.55,14.0,1.0,20,7,,6.21,30.088583,,,,,,TRUE,,,,,FEW,3000,SCT,10000,,,,,VFR,,,,,,,,,,,,METAR,1029.0
LTAE 311450Z 30006KT 9999 FEW040 15/M01 Q1019 NOSIG RMK RWY21 25004KT,LTAE,2022-10-31T14:50:00Z,40.07,32.57,15.0,-1.0,300,6,,6.21,30.088583,,,,,,TRUE,,,,,FEW,4000,,,,,,,VFR,,,,,,,,,,,,METAR,836.0
LIRU 311450Z 23004KT 200V260 CAVOK 26/13 Q1021,LIRU,2022-10-31T14:50:00Z,41.95,12.5,26.0,13.0,230,4,,6.21,30.147638,,,,,,,,,,,CAVOK,,,,,,,,VFR,,,,,,,,,,,,METAR,16.0
LIRI 311450Z 26003KT 230V300 CAVOK 22/14 Q1021,LIRI,2022-10-31T14:50:00Z,40.62,14.92,22.0,14.0,260,3,,6.21,30.147638,,,,,,,,,,,CAVOK,,,,,,,,VFR,,,,,,,,,,,,METAR,31.0
LIQN 311450Z VRB01KT CAVOK 25/07 Q1023,LIQN,2022-10-31T14:50:00Z,42.42,12.83,25.0,7.0,0,1,,6.21,30.206694,,,,,,,,,,,CAVOK,,,,,,,,VFR,,,,,,,,,,,,METAR,387.0
LIMW 311450Z AUTO 25005KT 200V290 9999 NCD 21/08 Q1020,LIMW,2022-10-31T14:50:00Z,45.73,7.37,21.0,8.0,250,5,,6.21,30.11811,,,TRUE,,,,,,,,CLR,,,,,,,,VFR,,,,,,,,,,,,METAR,554.0
LIMP 311450Z VRB01KT 9999 FEW030 23/12 Q1021,LIMP,2022-10-31T14:50:00Z,44.82,10.3,23.0,12.0,0,1,,6.21,30.147638,,,,,,,,,,,FEW,3000,,,,,,,VFR,,,,,,,,,,,,METAR,41.0
LIMG 311450Z 07006KT 040V100 9999 FEW020 21/16 Q1022,LIMG,2022-10-31T14:50:00Z,44.03,8.12,21.0,16.0,70,6,,6.21,30.177166,,,,,,,,,,,FEW,2000,,,,,,,VFR,,,,,,,,,,,,METAR,41.0
LIMA 311450Z VRB02KT CAVOK 22/09 Q1021,LIMA,2022-10-31T14:50:00Z,45.08,7.6,22.0,9.0,0,2,,6.21,30.147638,,,,,,,,,,,CAVOK,,,,,,,,VFR,,,,,,,,,,,,METAR,285.0
LICG 311450Z 07005KT 9999 FEW020 21/17 Q1022,LICG,2022-10-31T14:50:00Z,36.82,11.97,21.0,17.0,70,5,,6.21,30.177166,,,,,,,,,,,FEW,2000,,,,,,,VFR,,,,,,,,,,,,METAR,192.0
LIBG 311450Z 35008KT 330V030 CAVOK 26/11 Q1019,LIBG,2022-10-31T14:50:00Z,40.52,17.4,26.0,11.0,350,8,,6.21,30.088583,,,,,,,,,,,CAVOK,,,,,,,,VFR,,,,,,,,,,,,METAR,64.0
LIBF 311450Z 33009KT CAVOK 25/09 Q1021,LIBF,2022-10-31T14:50:00Z,41.42,15.53,25.0,9.0,330,9,,6.21,30.147638,,,,,,,,,,,CAVOK,,,,,,,,VFR,,,,,,,,,,,,METAR,81.0
LIBC 311450Z 02009KT CAVOK 25/07 Q1020,LIBC,2022-10-31T14:50:00Z,39.0,17.07,25.0,7.0,20,9,,6.21,30.11811,,,,,,,,,,,CAVOK,,,,,,,,VFR,,,,,,,,,,,,METAR,158.0
KOSU 311450Z 20010KT 10SM SCT010 BKN015 BKN020 18/16 A2991 RMK AO2,KOSU,2022-10-31T14:50:00Z,40.08,-83.08,18.0,16.0,200,10,,10.0,29.911417,,,,TRUE,,,,,,,SCT,1000,BKN,1500,BKN,2000,,,MVFR,,,,,,,,,,,,METAR,276.0
KOMN 311450Z 10003KT 7SM BKN013 27/27 A3004,KOMN,2022-10-31T14:50:00Z,29.3,-81.12,27.0,27.0,100,3,,7.0,30.041338,,,,,,,,,,,BKN,1300,,,,,,,MVFR,,,,,,,,,,,,METAR,7.0
KMWN 311450Z 25016KT 110SM SCT090 SCT160 BKN200 BKN220 08/M13 RMK,KMWN,2022-10-31T14:50:00Z,44.27,-71.3,8.0,-13.0,250,16,,10.0,,,,,,,,,,,,SCT,9000,SCT,16000,BKN,20000,BKN,22000,VFR,,,,,,,,,,,,METAR,1911.0
KGPM 311450Z 00000KT 10SM SKC 17/10 A3008,KGPM,2022-10-31T14:50:00Z,32.7,-97.05,17.0,10.0,0,0,,10.0,30.079725,,,,,,,,,,,SKC,,,,,,,,VFR,,,,,,,,,,,,METAR,178.0
EGXS 311450Z AUTO 12009KT 9999 NCD 14/12 Q1010 RERA,EGXS,2022-10-31T14:50:00Z,53.48,0.15,14.0,12.0,120,9,,6.21,29.822834,,,TRUE,,,,,,,,CLR,,,,,,,,VFR,,,,,,,,,,,,METAR,6.0
EGXP 311450Z AUTO 14007KT //// // ///////// 15/12 Q1009,EGXP,2022-10-31T14:50:00Z,53.3,-0.55,15.0,12.0,140,7,,,29.793306,,,TRUE,,,,,,,,,,,,,,,,,,,,,,,,,,,,METAR,58.0
EGWC 311450Z 15009KT 9999 FEW010 SCT015 15/10 Q1008 RMK WHT,EGWC,2022-10-31T14:50:00Z,52.63,-2.3,15.0,10.0,150,9,,6.21,29.763779,,,,,,,,,,,FEW,1000,SCT,1500,,,,,VFR,,,,,,,,,,,,METAR,79.0
EGQA 311450Z 15016KT 9999 FEW030 OVC180 16/// Q1000 RMK BLU,EGQA,2022-10-31T14:50:00Z,57.83,-3.95,,,150,16,,6.21,29.52756,,,,,,,,,,,FEW,3000,OVC,18000,,,,,VFR,,,,,,,,,,,,METAR,4.0
MMZH 311449Z 00000KT 7SM SKC 27/22 A2987 RMK SLP115 5//// 965 HZY AC,MMZH,2022-10-31T14:49:00Z,17.6,-101.47,27.0,22.0,0,0,,7.0,29.870079,1011.5,,,,,,,,,,SKC,,,,,,,,VFR,,,,,,,,,,,,METAR,9.0
MMTJ 311448Z 13006KT 10SM SKC 16/00 A2994 RMK SLP152 57005 955 HZY ISOL CI,MMTJ,2022-10-31T14:48:00Z,32.53,-116.97,16.0,0.0,130,6,,10.0,29.940945,1015.2,,,,,,,,,,SKC,,,,,,,,VFR,-0.5,,,,,,,,,,,METAR,150.0
MMPR 311448Z 03005KT 15SM SKC 23/19 A2989 RMK SLP118 5//// 974,MMPR,2022-10-31T14:48:00Z,20.67,-105.25,23.0,19.0,30,5,,15.0,29.890747,1011.8,,,,,,,,,,SKC,,,,,,,,VFR,,,,,,,,,,,,SPECI,6.0
MMSP 311447Z 00000KT 5SM SCT015 13/09 A3021 RMK SLP125 52004 963 8/600 HZY CI,MMSP,2022-10-31T14:47:00Z,22.25,-100.93,13.0,9.0,0,0,,5.0,30.209646,1012.5,,,,,,,,,,SCT,1500,,,,,,,MVFR,0.4,,,,,,,,,,,SPECI,1841.0
KSQL 311447Z 00000KT 10SM BKN180 10/09 A2999,KSQL,2022-10-31T14:47:00Z,37.52,-122.25,10.0,9.0,0,0,,10.0,29.991142,,,,,,,,,,,BKN,18000,,,,,,,VFR,,,,,,,,,,,,METAR,1.0
KRHV 311447Z 00000KT 10SM SKC 11/08 A3000,KRHV,2022-10-31T14:47:00Z,37.33,-121.82,11.0,8.0,0,0,,10.0,30.0,,,,,,,,,,,SKC,,,,,,,,VFR,,,,,,,,,,,,METAR,37.0
KHUM 311447Z 00000KT 7SM CLR 19/18 A3007,KHUM,2022-10-31T14:47:00Z,29.57,-90.67,19.0,18.0,0,0,,7.0,30.070866,,,,,,,,,,,CLR,,,,,,,,VFR,,,,,,,,,,,,METAR,1.0
KCHD 311447Z 05005KT 10SM CLR 11/04 A2997,KCHD,2022-10-31T14:47:00Z,33.27,-111.82,11.0,4.0,50,5,,10.0,29.970472,,,,,,,,,,,CLR,,,,,,,,VFR,,,,,,,,,,,,METAR,378.0
KCFO 311447Z 21008KT 10SM SKC 08/M08 A3005,KCFO,2022-10-31T14:47:00Z,39.78,-104.55,8.0,-8.0,210,8,,10.0,30.050198,,,,,,,,,,,SKC,,,,,,,,VFR,,,,,,,,,,,,METAR,1672.0
MMIA 311446Z 00000KT 8SM SKC 22/20 A3001 RMK HZY,MMIA,2022-10-31T14:46:00Z,19.27,-103.57,22.0,20.0,0,0,,8.0,30.008858,,,,,,,,,,,SKC,,,,,,,,VFR,,,,,,,,,,,,SPECI,744.0
MMMX 311445Z 08007KT 7SM FEW220 16/10 A3030 NOSIG RMK SLP102 52013 973 8/002 HZY,MMMX,2022-10-31T14:45:00Z,19.43,-99.08,16.0,10.0,80,7,,7.0,30.301182,1010.2,,,,,TRUE,,,,,FEW,22000,,,,,,,VFR,1.3,,,,,,,,,,,METAR,2224.0
MMLO 311445Z 00000KT 10SM SKC 17/06 A3028 RMK SLP142 52020 969 CI,MMLO,2022-10-31T14:45:00Z,21.0,-101.47,17.0,6.0,0,0,,10.0,30.280512,1014.2,,,,,,,,,,SKC,,,,,,,,VFR,2.0,,,,,,,,,,,SPECI,1805.0
MMDO 311445Z 15003KT 10SM SKC 09/M02 A3018 RMK SLP115 52010 978 HZY,MMDO,2022-10-31T14:45:00Z,24.12,-104.52,9.0,-2.0,150,3,,10.0,30.180119,1011.5,,,,,,,,,,SKC,,,,,,,,VFR,1.0,,,,,,,,,,,METAR,1863.0
KRYN 311445Z 10006KT 10SM CLR 09/M01 A2999,KRYN,2022-10-31T14:45:00Z,32.15,-111.17,9.0,-1.0,100,6,,10.0,29.991142,,,,,,,,,,,CLR,,,,,,,,VFR,,,,,,,,,,,,METAR,731.0
KMWC 311445Z 00000KT 10SM OVC029 11/06 A2986,KMWC,2022-10-31T14:45:00Z,43.12,-88.03,11.0,6.0,0,0,,10.0,29.861221,,,,,,,,,,,OVC,2900,,,,,,,MVFR,,,,,,,,,,,,METAR,225.0
FAIR 311445Z 20008KT 9999 TSRA BKN025 SCT045CB 19/11 Q1021,FAIR,2022-10-31T14:45:00Z,-25.92,28.22,19.0,11.0,200,8,,6.21,30.147638,,,,,,,,,,TSRA,BKN,2500,SCT,4500,,,,,MVFR,,,,,,,,,,,,SPECI,1527.0
