{"station_id": ["AGGH", "ANYN", "AYMH", "AYNZ", "AYPY", "BGBW", "BGGH", "BGJN", "BGKK", "BGSF", "BGTL", "BIAR", "BIEG", "BIIS", "BIKF", "BIRK", "BKPR", "CAHR", "CBAR", "CBBC", "CERM", "CFOX", "CMFM", "CMGB", "CPBT", "CPEH", "CPFI", "CPIN", "CPRO", "CPRY", "CPST", "CPSV", "CTCK", "CTNK", "CTRA", "CWAF", "CWAJ", "CWAQ", "CWAR", "CWAV", "CWBA", "CWBK", "CWBO", "CWBS", "CWBT", "CWBU", "CWBV", "CWBY", "CWBZ", "CWCF", "CWCJ", "CWCO", "CWCT", "CWDA", "CWDC", "CWDJ", "CWDK", "CWDM", "CWDO", "CWDQ", "CWDT", "CWDV", "CWDZ", "CWEB", "CWEE", "CWEF", "CWEH", "CWEK", "CWEL", "CWEP", "CWEQ", "CWER", "CWEU", "CWEW", "CWEZ", "CWFD", "CWFF", "CWFJ", "CWFQ", "CWGB", "CWGD", "CWGH", "CWGL", "CWGM", "CWGR", "CWGT", "CWGW", "CWGY", "CWHI", "CWHL", "CWHO", "CWHP", "CWHQ", "CWHT", "CWHV", "CWID", "CWIG", "CWIJ", "CWIK", "CWIL", "CWIP", "CWIS", "CWIT", "CWIW", "CWIX", "CWIZ", "CWJB", "CWJC", "CWJD", "CWJH", "CWJI", "CWJR", "CWJT", "CWJU", "CWJV", "CWJW", "CWJX", "CWKD", "CWKG", "CWKH", "CWKK", "CWKM", "CWKO", "CWKP", "CWKX", "CWLB", "CWLC", "CWLE", "CWLI", "CWLM", "CWLS", "CWLX", "CWLY", "CWME", "CWMJ", "CWMM", "CWMQ", "CWMT", "CWMZ", "CWNC", "CWND", "CWNE", "CWNH", "CWNK", "CWNM", "CWNP", "CWNQ", "CWNZ", "CWOB", "CWOC", "CWOD", "CWOE", "CWOY", "CWPC", "CWPD", "CWPE", "CWPF", "CWPK", "CWPO", "CWPR", "CWPX", "CWPZ", "CWQH", "CWQK", "CWQO", "CWQP", "CWQR", "CWQS", "CWQV", "CWRA", "CWRH", "CWRJ", "CWRK", "CWRM", "CWRN", "CWRO", "CWRT", "CWRU", "CWRX", "CWRY", "CWRZ", "CWSA", "CWSD", "CWSF", "CWSG", "CWSK", "CWSL", "CWSP", "CWSR", "CWSS", "CWST", "CWTA", "CWTG", "CWTN", "CWTT", "CWTY", "CWUS", "CWUW", "CWUX", "CWVF", "CWVH", "CWVI", "CWVN", "CWVP", "CWVQ", "CWVT", "CWVU", "CWWA", "CWWB", "CWWE", "CWWF", "CWWK", "CWWL", "CWWS", "CWWZ", "CWXA", "CWXC", "CWXI", "CWXL", "CWYJ", "CWYL", "CWYY", "CWZA", "CWZG", "CWZL", "CWZN", "CWZO", "CWZQ", "CWZW", "CXAF", "CXAG", "CXAJ", "CXAK", "CXAT", "CXBA", "CXBI", "CXBK", "CXBO", "CXBR", "CXBW", "CXCA", "CXCD", "CXCK", "CXCP", "CXCS", "CXDB", "CXDE", "CXDI", "CXDK", "CXDW", "CXEA", "CXEC", "CXEG", "CXET", "CXFM", "CXFR", "CXGH", "CXHA", "CXHD", "CXHM", "CXHP", "CXHR", "CXIB", "CXKA", "CXKE", "CXKI", "CXKM", "CXKT", "CXLB", "CXLL", "CXMD", "CXMG", "CXMI", "CXMM", "CXMO", "CXMY", "CXNM", "CXNP", "CXOL", "CXOX", "CXOY", "CXPA", "CXPC", "CXPL", "CXRB", "CXRH", "CXRL", "CXSC", "CXSE", "CXSH", "CXSL", "CXSP", "CXTD", "CXTH", "CXTN", "CXTO", "CXTP", "CXTV", "CXVM", "CXVN", "CXVW", "CXWM", "CXWN", "CXYH", "CXZC", "CXZV", "CYAH", "CYAM", "CYAT", "CYAY", "CYBC", "CYBG", "CYBK", "CYBQ", "CYBR", "CYBU", "CYBW", "CYBX", "CYCA", "CYCB", "CYCK", "CYCO", "CYCY", "CYDB", "CYDF", "CYDL", "CYDN", "CYDQ", "CYEG", "CYEK", "CYEN", "CYER", "CYET", "CYEV", "CYFB", "CYFC", "CYFS", "CYGL", "CYGV", "CYGW", "CYGX", "CYHD", "CYHE", "CYHK", "CYHM", "CYHU", "CYHY", "CYHZ", "CYIN", "CYIO", "CYIV", "CYJT", "CYKA", "CYKF", "CYKJ", "CYKL", "CYKY", "CYLH", "CYLL", "CYLT", "CYLW", "CYMA", "CYMH", "CYMM", "CYMO", "CYMT", "CYMX", "CYNA", "CYNE", "CYNM", "CYOD", "CYOJ", "CYOO", "CYOW", "CYPA", "CYPD", "CYPE", "CYPH", "CYPL", "CYPO", "CYPQ", "CYPR", "CYPX", "CYPY", "CYQA", "CYQB", "CYQD", "CYQF", "CYQG", "CYQH", "CYQI", "CYQK", "CYQL", "CYQM", "CYQQ", "CYQR", "CYQT", "CYQU", "CYQV", "CYQW", "CYQX", "CYQY", "CYQZ", "CYRB", "CYRJ", "CYRQ", "CYRT", "CYRV", "CYSB", "CYSC", "CYSF", "CYSJ", "CYSM", "CYTE", "CYTH", "CYTL", "CYTR", "CYTS", "CYTZ", "CYUA", "CYUL", "CYUS", "CYUX", "CYUY", "CYVC", "CYVL", "CYVM", "CYVO", "CYVP", "CYVQ", "CYVR", "CYVT", "CYVV", "CYWE", "CYWG", "CYWK", "CYWL", "CYXC", "CYXE", "CYXH", "CYXJ", "CYXL", "CYXR", "CYXS", "CYXT", "CYXU", "CYXX", "CYXY", "CYYB", "CYYC", "CYYD", "CYYE", "CYYF", "CYYG", "CYYJ", "CYYL", "CYYN", "CYYQ", "CYYR", "CYYT", "CYYU", "CYYW", "CYYY", "CYYZ", "CYZE", "CYZF", "CYZH", "CYZP", "CYZR", "CYZS", "CYZT", "CYZV", "CYZX", "CYZY", "CZBF", "CZCP", "CZCR", "CZDB", "CZEL", "CZEV", "CZFS", "CZHY", "CZKD", "CZMD", "CZMJ", "CZOL", "CZPC", "CZPS", "CZRP", "CZSJ", "CZSM", "CZSP", "CZTB", "CZUM", "CZVL", "CZZJ", "DAAE", "DAAG", "DAAJ", "DAAP", "DAAT", "DAAV", "DAAY", "DABB", "DABC", "DABT", "DAOB", "DAOF", "DAON", "DAOO", "DAOR", "DAUA", "DAUB", "DAUE", "DAUG", "DAUH", "DAUI", "DAUK", "DAUO", "DAUT", "DAUU", "DBBB", "DFFD", "DFOO", "DGAA", "DIAP", "DIBK", "DIYO", "DNAA", "DNEN", "DNGO", "DNIB", "DNIL", "DNIM", "DNKA", "DNKN", "DNMM", "DNMN", "DNPO", "DNSO", "DNYO", "DRRM", "DRRN", "DRRT", "DRZA", "DRZR", "DTKA", "DTMB", "DTNH", "DTTA", "DTTB", "DTTD", "DTTF", "DTTG", "DTTJ", "DTTK", "DTTL", "DTTN", "DTTR", "DTTX", "DTTZ", "DXNG", "DXXX", "EBAW", "EBBE", "EBBL", "EBBR", "EBCI", "EBCV", "EBDT", "EBFN", "EBFS", "EBLB", "EBLG", "EBOS", "EDAC", "EDAH", "EDBC", "EDDB", "EDDC", "EDDE", "EDDF", "EDDG", "EDDH", "EDDK", "EDDL", "EDDM", "EDDN", "EDDP", "EDDR", "EDDS", "EDDV", "EDDW", "EDFH", "EDFM", "EDGS", "EDHI", "EDHK", "EDHL", "EDJA", "EDLN", "EDLP", "EDLV", "EDLW", "EDMA", "EDMO", "EDNY", "EDQM", "EDSB", "EDTL", "EDTY", "EDVE", "EDVK", "EDXW", "EEEI", "EEKA", "EEKE", "EEPU", "EETN", "EETU", "EFET", "EFHA", "EFHK", "EFIV", "EFJO", "EFJY", "EFKE", "EFKI", "EFKK", "EFKS", "EFKT", "EFKU", "EFLP", "EFMA", "EFMI", "EFOU", "EFPO", "EFRO", "EFSA", "EFSI", "EFTP", "EFTU", "EFUT", "EFVA", "EGAA", "EGAC", "EGAE", "EGBB", "EGBJ", "EGCC", "EGCK", "EGCN", "EGDM", "EGDR", "EGDY", "EGEC", "EGFF", "EGGD", "EGGP", "EGGW", "EGHC", "EGHE", "EGHH", "EGHI", "EGHQ", "EGJA", "EGJB", "EGJJ", "EGKA", "EGKB", "EGKK", "EGLC", "EGLF", "EGLL", "EGMC", "EGMD", "EGNH", "EGNJ", "EGNM", "EGNO", "EGNR", "EGNS", "EGNT", "EGNV", "EGNX", "EGOM", "EGOP", "EGOS", "EGOV", "EGOW", "EGPA", "EGPB", "EGPC", "EGPD", "EGPE", "EGPF", "EGPH", "EGPI", "EGPK", "EGPL", "EGPN", "EGPO", "EGPU", "EGQK", "EGQL", "EGQM", "EGQS", "EGSC", "EGSH", "EGSS", "EGSY", "EGTC", "EGTE", "EGTK", "EGUB", "EGUL", "EGUN", "EGUW", "EGVA", "EGVN", "EGVO", "EGVP", "EGWU", "EGXC", "EGXE", "EGXP", "EGXS", "EGXV", "EGXW", "EGXZ", "EGYD", "EGYE", "EGYH", "EGYM", "EGYP", "EHAK", "EHAM", "EHBK", "EHDL", "EHDV", "EHEH", "EHFD", "EHFS", "EHGG", "EHGR", "EHHW", "EHJA", "EHJR", "EHKD", "EHKV", "EHLE", "EHLW", "EHMA", "EHMG", "EHPG", "EHQE", "EHRD", "EHSA", "EHSC", "EHVK", "EHVL", "EHWO", "EICK", "EIDL", "EIDW", "EIKN", "EIKY", "EIME", "EINN", "EISG", "EIWF", "EKAH", "EKBI", "EKCH", "EKEB", "EKKA", "EKOD", "EKRK", "EKRN", "EKSB", "EKSP", "EKVD", "EKVG", "EKVJ", "EKYT", "ELLX", "ENAL", "ENAN", "ENAT", "ENBL", "ENBN", "ENBO", "ENBR", "ENBS", "ENBV", "ENCN", "ENDR", "ENDU", "ENEV", "ENFB", "ENFL", "ENGC", "ENGM", "ENHD", "ENHE", "ENHF", "ENHK", "ENHM", "ENHV", "ENJS", "ENKB", "ENKR", "ENLA", "ENLE", "ENLK", "ENMH", "ENML", "ENMS", "ENNA", "ENNE", "ENNM", "ENNO", "ENOA", "ENOL", "ENOV", "ENQA", "ENQC", "ENQR", "ENRA", "ENRM", "ENRO", "ENRS", "ENRY", "ENSB", "ENSD", "ENSE", "ENSF", "ENSG", "ENSH", "ENSK", "ENSL", "ENSO", "ENSR", "ENSS", "ENST", "ENTC", "ENTO", "ENUG", "ENVA", "ENVD", "ENVR", "ENWV", "ENZV", "EPBY", "EPGD", "EPKK", "EPKT", "EPLB", "EPLL", "EPMO", "EPPO", "EPRA", "EPRZ", "EPSC", "EPSY", "EPWA", "EPWR", "EPZG", "ESCF", "ESCM", "ESDF", "ESGG", "ESGJ", "ESGP", "ESGT", "ESIA", "ESIB", "ESKM", "ESKN", "ESKS", "ESMK", "ESMQ", "ESMS", "ESMT", "ESMV", "ESMX", "ESND", "ESNG", "ESNK", "ESNL", "ESNN", "ESNO", "ESNQ", "ESNS", "ESNU", "ESNV", "ESNX", "ESNZ", "ESOE", "ESOH", "ESOK", "ESOW", "ESPA", "ESPE", "ESSA", "ESSB", "ESSD", "ESSL", "ESSP", "ESST", "ESSV", "ESTA", "ESTL", "ESUP", "ESUT", "ETAD", "ETAR", "ETEB", "ETGG", "ETHA", "ETHB", "ETHC", "ETHF", "ETHL", "ETHN", "ETHS", "ETIC", "ETIH", "ETIK", "ETMN", "ETND", "ETNG", "ETNH", "ETNL", "ETNN", "ETNS", "ETNT", "ETNW", "ETOU", "ETSB", "ETSH", "ETSI", "ETSL", "ETSN", "ETWM", "EVLA", "EVRA", "EVVA", "EYKA", "EYPA", "EYSA", "EYVI", "FABL", "FACT", "FACV", "FAEL", "FAGG", "FAKM", "FAKN", "FALA", "FALE", "FALW", "FAMM", "FAOR", "FAPE", "FAPP", "FASB", "FAUP", "FBKE", "FBPM", "FBSK", "FCBB", "FCPP", "FDMS", "FDMY", "FDOT", "FDPP", "FDSK", "FEFF", "FEFT", "FGSL", "FIMP", "FJDG", "FKKD", "FKKR", "FKYS", "FMCH", "FMCZ", "FMEE", "FMEP", "FMMI", "FMMT", "FMNA", "FMNM", "FMNN", "FMSD", "FNCA", "FNCT", "FNDU", "FNHU", "FNLU", "FNMO", "FNSO", "FNUE", "FOGM", "FOGO", "FOGR", "FOOB", "FOOG", "FOOL", "FOON", "FOOR", "FQBR", "FQCH", "FQIN", "FQLC", "FQMA", "FQNC", "FQPB", "FQQL", "FQVL", "FQXA", "FSIA", "FTTA", "FTTC", "FTTD", "FTTJ", "FWCL", "FWKI", "FYGF", "FYKM", "FYLZ", "FYRU", "FYWE", "FYWH", "FYWW", "GABS", "GBYD", "GCFV", "GCLA", "GCLP", "GCRR", "GCTS", "GCXO", "GECE", "GEML", "GFLL", "GGOV", "GLRB", "GMAD", "GMAT", "GMFF", "GMFK", "GMFO", "GMME", "GMMI", "GMMN", "GMMW", "GMMX", "GMMZ", "GMTA", "GMTN", "GMTT", "GOBD", "GOGG", "GOGK", "GOGS", "GOOD", "GOOG", "GOOK", "GOOY", "GOSM", "GOSP", "GOSS", "GOTK", "GOTT", "GQNO", "GQPP", "GUCY", "GVAC", "GVBA", "GVNP", "GVSV", "HAAB", "HCMF", "HCMM", "HDAM", "HEAT", "HEAX", "HEBA", "HEBL", "HECA", "HECP", "HEGN", "HEIS", "HELX", "HEMA", "HEMM", "HEPS", "HESG", "HESN", "HESW", "HETR", "HKEL", "HKEM", "HKGA", "HKJK", "HKKI", "HKKT", "HKLU", "HKME", "HKML", "HKMO", "HKNI", "HKNK", "HKNW", "HKWJ", "HRYR", "HRZA", "HSSK", "HTDA", "HTJN", "HTKJ", "HTMW", "HTZA", "HUEN", "K04V", "K04W", "K05U", "K06C", "K06D", "K08D", "K0A0", "K0A9", "K0CO", "K0E0", "K0F2", "K0J4", "K0R0", "K0R4", "K0S9", "K0VG", "K10G", "K11R", "K12N", "K13K", "K14Y", "K15M", "K17J", "K18A", "K18H", "K19S", "K1A5", "K1A6", "K1A9", "K1AM", "K1AW", "K1BM", "K1BW", "K1CM", "K1CW", "K1D1", "K1DW", "K1EW", "K1F0", "K1FM", "K1FW", "K1H2", "K1HM", "K1HW", "K1IM", "K1IW", "K1JM", "K1JW", "K1K1", "K1KM", "K1KW", "K1LM", "K1M4", "K1M5", "K1MM", "K1MW", "K1NM", "K1OM", "K1P1", "K1R7", "K1R8", "K1S3", "K1S5", "K1U7", "K1V4", "K1V6", "K1YT", "K20U", "K20V", "K21D", "K22N", "K24A", "K24J", "K27K", "K28J", "K2A0", "K2C8", "K2D5", "K2DP", "K2G2", "K2G9", "K2J3", "K2J5", "K2J9", "K2M2", "K2P2", "K2R9", "K2V5", "K2W6", "K2WX", "K33N", "K33V", "K35A", "K36K", "K38S", "K3AU", "K3D2", "K3F3", "K3J7", "K3K3", "K3LF", "K3N8", "K3S8", "K3U3", "K40B", "K40U", "K41U", "K42J", "K46D", "K46U", "K48A", "K49A", "K4A6", "K4A9", "K4BM", "K4F2", "K4I3", "K4M9", "K4MR", "K4O4", "K4R5", "K4S1", "K4S2", "K4V0", "K4V1", "K54A", "K54J", "K57C", "K5C1", "K5H4", "K5M9", "K5R8", "K5SM", "K5T9", "K63S", "K65S", "K66R", "K6A1", "K6A2", "K6B0", "K6B9", "K6I2", "K6L4", "K6P9", "K6R6", "K6S0", "K6S2", "K6S8", "K74V", "K77S", "K79J", "K7BM", "K7L2", "K7N0", "K7W4", "K7W6", "K81R", "K82C", "K82V", "K8A0", "K8A3", "K8D3", "K8T6", "K8W2", "K96D", "K9A5", "K9D7", "K9L2", "K9MN", "K9V9", "KAAA", "KAAF", "KAAO", "KAAS", "KAAT", "KABE", "KABH", "KABI", "KABQ", "KABR", "KABY", "KACB", "KACJ", "KACK", "KACP", "KACQ", "KACT", "KACV", "KACY", "KADC", "KADF", "KADG", "KADH", "KADM", "KADS", "KADT", "KADU", "KADW", "KAEG", "KAEJ", "KAEL", "KAEX", "KAFF", "KAFJ", "KAFK", "KAFN", "KAFO", "KAFP", "KAFW", "KAGC", "KAGI", "KAGO", "KAGS", "KAHN", "KAHQ", "KAIA", "KAID", "KAIG", "KAIK", "KAIO", "KAIT", "KAIZ", "KAJG", "KAJO", "KAJR", "KAJZ", "KAKH", "KAKO", "KAKQ", "KAKR", "KALB", "KALI", "KALK", "KALM", "KALN", "KALO", "KALS", "KALW", "KALX", "KAMA", "KAMG", "KAMN", "KAMW", "KANB", "KAND", "KANE", "KANJ", "KANK", "KANQ", "KANW", "KAOH", "KAOO", "KAPA", "KAPC", "KAPF", "KAPN", "KAPS", "KAPY", "KAQO", "KAQP", "KAQV", "KAQW", "KAQX", "KARA", "KARB", "KARG", "KARM", "KARR", "KART", "KARV", "KARW", "KASD", "KASE", "KASH", "KASJ", "KASL", "KASN", "KAST", "KASW", "KASX", "KATA", "KATL", "KATP", "KATS", "KATT", "KATW", "KATY", "KAUG", "KAUH", "KAUM", "KAUN", "KAUO", "KAUS", "KAUW", "KAVC", "KAVK", "KAVL", "KAVP", "KAVQ", "KAVX", "KAWG", "KAWM", "KAWO", "KAXA", "KAXH", "KAXN", "KAXS", "KAXV", "KAXX", "KAYS", "KAZC", "KAZE", "KAZO", "KBAB", "KBAC", "KBAD", "KBAF", "KBAM", "KBAN", "KBAX", "KBAZ", "KBBB", "KBBD", "KBBG", "KBBP", "KBBW", "KBCB", "KBCK", "KBCR", "KBDE", "KBDG", "KBDH", "KBDL", "KBDR", "KBDU", "KBEA", "KBEC", "KBED", "KBEH", "KBFD", "KBFF", "KBFI", "KBFL", "KBFM", "KBGD", "KBGE", "KBGF", "KBGM", "KBGR", "KBHB", "KBHC", "KBHK", "KBHM", "KBID", "KBIE", "KBIF", "KBIH", "KBIJ", "KBIL", "KBIS", "KBIV", "KBIX", "KBJC", "KBJI", "KBJJ", "KBKB", "KBKD", "KBKE", "KBKF", "KBKL", "KBKS", "KBKT", "KBKV", "KBKW", "KBKX", "KBLF", "KBLH", "KBLI", "KBLM", "KBLU", "KBLV", "KBMC", "KBMG", "KBMI", "KBML", "KBMQ", "KBMT", "KBNA", "KBNL", "KBNO", "KBNW", "KBOI", "KBOK", "KBOS", "KBOW", "KBPC", "KBPG", "KBPI", "KBPK", "KBPT", "KBQK", "KBQP", "KBQX", "KBRD", "KBRG", "KBRL", "KBRO", "KBRY", "KBTA", "KBTL", "KBTM", "KBTN", "KBTP", "KBTR", "KBTV", "KBUF", "KBUR", "KBUU", "KBUY", "KBVI", "KBVN", "KBVO", "KBVS", "KBVU", "KBVX", "KBVY", "KBWG", "KBWI", "KBWP", "KBWW", "KBXA", "KBXK", "KBYG", "KBYI", "KBYL", "KBYS", "KBYY", "KBZN", "KC07", "KC09", "KC29", "KC35", "KC65", "KC75", "KC83", "KC99", "KCAD", "KCAE", "KCAG", "KCAK", "KCAO", "KCAR", "KCAV", "KCBE", "KCBF", "KCBG", "KCBK", "KCBM", "KCCA", "KCCB", "KCCO", "KCCR", "KCCU", "KCCY", "KCDA", "KCDC", "KCDD", "KCDH", "KCDI", "KCDJ", "KCDN", "KCDR", "KCDS", "KCDW", "KCEC", "KCEF", "KCEU", "KCEW", "KCEY", "KCEZ", "KCFD", "KCFE", "KCFJ", "KCFO", "KCFS", "KCFV", "KCGC", "KCGE", "KCGF", "KCGI", "KCGZ", "KCHA", "KCHK", "KCHO", "KCHS", "KCIC", "KCID", "KCIN", "KCIR", "KCIU", "KCJR", "KCKB", "KCKC", "KCKF", "KCKI", "KCKM", "KCKN", "KCKP", "KCKV", "KCKZ", "KCLE", "KCLI", "KCLK", "KCLL", "KCLM", "KCLS", "KCLT", "KCLW", "KCMA", "KCMD", "KCMH", "KCMI", "KCMR", "KCMX", "KCMY", "KCNB", "KCNC", "KCNI", "KCNK", "KCNM", "KCNO", "KCNU", "KCNY", "KCOD", "KCOE", "KCOF", "KCOM", "KCON", "KCOQ", "KCOS", "KCOT", "KCOU", "KCPC", "KCPF", "KCPK", "KCPR", "KCPS", "KCPT", "KCPU", "KCPW", "KCQB", "KCQC", "KCQF", "KCQM", "KCQT", "KCQW", "KCQX", "KCRE", "KCRG", "KCRP", "KCRQ", "KCRS", "KCRW", "KCRX", "KCSG", "KCSM", "KCSQ", "KCSV", "KCTB", "KCTJ", "KCTY", "KCTZ", "KCUB", "KCUH", "KCUL", "KCUT", "KCVC", "KCVG", "KCVH", "KCVN", "KCVO", "KCVS", "KCVX", "KCWA", "KCWC", "KCWF", "KCWI", "KCWN", "KCWV", "KCXE", "KCXO", "KCXP", "KCXU", "KCXW", "KCXY", "KCYD", "KCYS", "KCZL", "KCZT", "KD07", "KD25", "KD39", "KD50", "KD55", "KD57", "KD60", "KD73", "KD95", "KDAA", "KDAB", "KDAG", "KDAL", "KDAN", "KDAW", "KDAY", "KDBN", "KDBQ", "KDCA", "KDCM", "KDCU", "KDCY", "KDDC", "KDDH", "KDEC", "KDED", "KDEH", "KDEN", "KDEQ", "KDET", "KDEW", "KDFI", "KDFW", "KDGW", "KDHN", "KDHT", "KDIJ", "KDIK", "KDKB", "KDKK", "KDKR", "KDKX", "KDLF", "KDLH", "KDLL", "KDLN", "KDLO", "KDLS", "KDLZ", "KDMA", "KDMH", "KDMN", "KDMO", "KDMW", "KDNA", "KDNL", "KDNN", "KDNV", "KDOV", "KDPA", "KDPL", "KDQH", "KDRA", "KDRI", "KDRM", "KDRO", "KDRT", "KDSF", "KDSM", "KDSV", "KDTA", "KDTL", "KDTN", "KDTO", "KDTS", "KDTW", "KDUA", "KDUB", "KDUC", "KDUH", "KDUJ", "KDUX", "KDVK", "KDVL", "KDVN", "KDVO", "KDVP", "KDVT", "KDWA", "KDWH", "KDWU", "KDWX", "KDXR", "KDYA", "KDYB", "KDYL", "KDYR", "KDYS", "KDYT", "KDZB", "KDZJ", "KE11", "KE16", "KE38", "KE41", "KE42", "KEAN", "KEAR", "KEAT", "KEAU", "KEBA", "KEBG", "KEBS", "KECG", "KECP", "KECS", "KECU", "KEDE", "KEDJ", "KEDN", "KEDW", "KEED", "KEEN", "KEEO", "KEET", "KEFD", "KEFK", "KEFT", "KEGE", "KEGT", "KEGV", "KEHA", "KEHO", "KEHR", "KEIK", "KEKM", "KEKN", "KEKO", "KEKQ", "KEKX", "KEKY", "KELA", "KELD", "KELK", "KELM", "KELN", "KELO", "KELP", "KELY", "KELZ", "KEMM", "KEMP", "KEMV", "KEND", "KENV", "KENW", "KEPH", "KEQA", "KEQY", "KERI", "KERV", "KERY", "KESC", "KESF", "KESN", "KEST", "KETB", "KETC", "KETH", "KETN", "KEUF", "KEUG", "KEVM", "KEVU", "KEVV", "KEVW", "KEWB", "KEWK", "KEWN", "KEWR", "KEXX", "KEYE", "KEYF", "KEYW", "KEZF", "KEZM", "KEZS", "KEZZ", "KF00", "KF05", "KF17", "KF44", "KF46", "KF70", "KFAF", "KFAM", "KFAR", "KFAT", "KFAY", "KFBG", "KFBL", "KFCI", "KFCM", "KFCS", "KFDK", "KFDR", "KFDW", "KFDY", "KFEP", "KFET", "KFEW", "KFFA", "KFFC", "KFFL", "KFFM", "KFFO", "KFFT", "KFFX", "KFFZ", "KFGN", "KFGX", "KFHB", "KFHR", "KFHU", "KFIG", "KFIN", "KFIT", "KFKA", "KFKL", "KFKN", "KFKR", "KFKS", "KFLD", "KFLG", "KFLL", "KFLO", "KFLP", "KFLY", "KFME", "KFMM", "KFMN", "KFMY", "KFNB", "KFNL", "KFNT", "KFOA", "KFOD", "KFOE", "KFOK", "KFOT", "KFOZ", "KFPK", "KFPR", "KFPY", "KFQD", "KFRG", "KFRH", "KFRI", "KFRM", "KFRR", "KFSD", "KFSE", "KFSI", "KFSK", "KFSM", "KFSO", "KFST", "KFSW", "KFTK", "KFTN", "KFTW", "KFTY", "KFUL", "KFVE", "KFVX", "KFWA", "KFWB", "KFWC", "KFWN", "KFWS", "KFWZ", "KFXE", "KFXY", "KFYE", "KFYG", "KFYJ", "KFYV", "KFZG", "KGAD", "KGAF", "KGAG", "KGAI", "KGAO", "KGBD", "KGBG", "KGBK", "KGCC", "KGCD", "KGCK", "KGCM", "KGCN", "KGCY", "KGDB", "KGDJ", "KGDP", "KGDV", "KGED", "KGEG", "KGEV", "KGEY", "KGEZ", "KGFA", "KGFK", "KGFL", "KGGE", "KGGF", "KGGG", "KGGI", "KGGP", "KGGW", "KGHB", "KGHG", "KGHW", "KGIC", "KGIF", "KGJT", "KGKJ", "KGKT", "KGKY", "KGLD", "KGLE", "KGLH", "KGLR", "KGLS", "KGLW", "KGLX", "KGLY", "KGMJ", "KGMU", "KGNA", "KGNB", "KGNC", "KGNG", "KGNR", "KGNT", "KGNV", "KGOK", "KGON", "KGOO", "KGOP", "KGOV", "KGPC", "KGPH", "KGPI", "KGPM", "KGPT", "KGPZ", "KGRB", "KGRD", "KGRF", "KGRI", "KGRK", "KGRN", "KGRR", "KGRY", "KGSB", "KGSH", "KGSO", "KGSP", "KGTB", "KGTF", "KGTR", "KGTU", "KGUC", "KGUP", "KGUR", "KGUS", "KGUY", "KGVL", "KGVQ", "KGVT", "KGVW", "KGWB", "KGWO", "KGWR", "KGWW", "KGXF", "KGXY", "KGYB", "KGYF", "KGYI", "KGYL", "KGYY", "KGZH", "KGZL", "KGZN", "KGZS", "KH71", "KHAE", "KHAF", "KHAI", "KHAO", "KHBG", "KHBI", "KHBR", "KHBV", "KHCD", "KHCO", "KHCR", "KHDC", "KHDE", "KHDL", "KHDN", "KHDO", "KHEF", "KHEG", "KHEI", "KHEQ", "KHEY", "KHEZ", "KHFD", "KHFF", "KHFJ", "KHFY", "KHGR", "KHHF", "KHHG", "KHHR", "KHHV", "KHHW", "KHIB", "KHIE", "KHIF", "KHII", "KHIO", "KHJH", "KHJO", "KHKA", "KHKS", "KHKY", "KHLB", "KHLC", "KHLG", "KHLN", "KHLR", "KHLX", "KHMN", "KHMP", "KHMT", "KHMZ", "KHNB", "KHND", "KHNR", "KHNZ", "KHOB", "KHOE", "KHON", "KHOP", "KHOT", "KHOU", "KHPN", "KHPT", "KHQG", "KHQG", "KHQM", "KHQU", "KHQZ", "KHRF", "KHRI", "KHRJ", "KHRL", "KHRO", "KHRT", "KHRX", "KHSB", "KHSD", "KHSE", "KHSG", "KHSI", "KHSP", "KHST", "KHSV", "KHTL", "KHTS", "KHUF", "KHUL", "KHUM", "KHUT", "KHVE", "KHVN", "KHVR", "KHVS", "KHWD", "KHWO", "KHWV", "KHWY", "KHXD", "KHYA", "KHYI", "KHYR", "KHYS", "KHYW", "KHYX", "KHZD", "KHZE", "KHZL", "KHZR", "KHZX", "KHZY", "KI23", "KI35", "KI63", "KI67", "KI68", "KI69", "KI74", "KI75", "KIAB", "KIAD", "KIAG", "KIAH", "KIBM", "KICL", "KICR", "KICT", "KIDA", "KIDI", "KIDP", "KIEN", "KIER", "KIFA", "KIFP", "KIGM", "KIGQ", "KIIB", "KIIY", "KIJD", "KIJX", "KIKK", "KIKV", "KIKW", "KILE", "KILG", "KILM", "KILN", "KIML", "KIMS", "KIMT", "KIND", "KINF", "KINJ", "KINK", "KINL", "KINS", "KINT", "KINW", "KIOB", "KIOW", "KIPJ", "KIPT", "KIRK", "KIRS", "KISM", "KISO", "KISP", "KISQ", "KISW", "KITH", "KITR", "KIUA", "KIWA", "KIWD", "KIWI", "KIXA", "KIXD", "KIYA", "KIZA", "KIZG", "KJAC", "KJAN", "KJAQ", "KJAS", "KJAU", "KJAX", "KJBR", "KJCA", "KJCT", "KJDD", "KJDN", "KJEF", "KJER", "KJES", "KJFK", "KJFX", "KJFZ", "KJHN", "KJHW", "KJKA", "KJKJ", "KJKL", "KJLN", "KJMR", "KJMS", "KJNX", "KJOT", "KJPX", "KJQF", "KJRB", "KJRO", "KJSL", "KJSO", "KJST", "KJSV", "KJSY", "KJTC", "KJVL", "KJVW", "KJVY", "KJWG", "KJWN", "KJWY", "KJXI", "KJXN", "KJYG", "KJYL", "KJYM", "KJYO", "KJYR", "KJZI", "KK62", "KK70", "KK88", "KKLS", "KKY8", "KL08", "KL18", "KL35", "KL52", "KLAA", "KLAF", "KLAL", "KLAM", "KLAN", "KLAR", "KLAS", "KLAW", "KLAX", "KLBB", "KLBE", "KLBF", "KLBL", "KLBO", "KLBT", "KLBX", "KLCG", "KLCH", "KLCI", "KLCK", "KLCQ", "KLDJ", "KLDM", "KLEB", "KLEE", "KLEW", "KLEX", "KLFI", "KLFK", "KLFT", "KLGA", "KLGB", "KLGC", "KLGD", "KLGF", "KLGU", "KLHB", "KLHM", "KLHQ", "KLHW", "KLHX", "KLHZ", "KLIC", "KLIT", "KLJF", "KLKR", "KLKU", "KLKV", "KLLJ", "KLLN", "KLLQ", "KLMO", "KLMT", "KLNA", "KLNC", "KLND", "KLNK", "KLNL", "KLNN", "KLNP", "KLNQ", "KLNR", "KLNS", "KLOL", "KLOM", "KLOR", "KLOT", "KLOU", "KLOZ", "KLPC", "KLPR", "KLQK", "KLRD", "KLRF", "KLRJ", "KLRO", "KLRU", "KLRY", "KLSE", "KLSF", "KLSV", "KLTS", "KLUA", "KLUD", "KLUF", "KLUG", "KLUK", "KLUL", "KLUM", "KLUV", "KLUX", "KLVJ", "KLVK", "KLVL", "KLVM", "KLVN", "KLVS", "KLWA", "KLWB", "KLWC", "KLWD", "KLWM", "KLWS", "KLWT", "KLWV", "KLXL", "KLXN", "KLXT", "KLXV", "KLXY", "KLYH", "KLYO", "KLYV", "KLZU", "KLZZ", "KM01", "KM02", "KM04", "KM08", "KM19", "KM21", "KM25", "KM30", "KM40", "KM54", "KM75", "KM91", "KMAE", "KMAF", "KMAI", "KMAN", "KMAO", "KMAW", "KMBG", "KMBL", "KMBO", "KMBS", "KMBT", "KMBY", "KMCB", "KMCC", "KMCD", "KMCE", "KMCF", "KMCI", "KMCJ", "KMCK", "KMCN", "KMCO", "KMCW", "KMDD", "KMDH", "KMDS", "KMDT", "KMDW", "KMDZ", "KMEB", "KMEH", "KMEI", "KMEM", "KMER", "KMEV", "KMEZ", "KMFD", "KMFE", "KMFI", "KMFR", "KMFV", "KMGC", "KMGE", "KMGG", "KMGJ", "KMGM", "KMGN", "KMGR", "KMGW", "KMGY", "KMHE", "KMHK", "KMHL", "KMHP", "KMHR", "KMHS", "KMHT", "KMIA", "KMIB", "KMIC", "KMIE", "KMIO", "KMIV", "KMIW", "KMJD", "KMJQ", "KMKC", "KMKE", "KMKG", "KMKJ", "KMKL", "KMKN", "KMKO", "KMKS", "KMKT", "KMKY", "KMLB", "KMLC", "KMLE", "KMLF", "KMLI", "KMLJ", "KMLP", "KMLS", "KMLT", "KMLU", "KMMH", "KMMI", "KMMK", "KMML", "KMMT", "KMMU", "KMNE", "KMNH", "KMNI", "KMNM", "KMNN", "KMNV", "KMNZ", "KMOB", "KMOD", "KMOP", "KMOR", "KMOT", "KMOX", "KMPO", "KMPR", "KMPV", "KMPZ", "KMQB", "KMQI", "KMQS", "KMQW", "KMQY", "KMRB", "KMRC", "KMRF", "KMRH", "KMRJ", "KMRN", "KMRT", "KMRY", "KMSL", "KMSN", "KMSO", "KMSP", "KMSS", "KMSV", "KMSY", "KMTC", "KMTH", "KMTJ", "KMTN", "KMTO", "KMTP", "KMTV", "KMTW", "KMUI", "KMUO", "KMUT", "KMVE", "KMVH", "KMVL", "KMVN", "KMVY", "KMWA", "KMWC", "KMWH", "KMWK", "KMWL", "KMWM", "KMWN", "KMWO", "KMWT", "KMXF", "KMYF", "KMYJ", "KMYL", "KMYP", "KMYR", "KMYV", "KMYZ", "KMZH", "KMZZ", "KN03", "KN38", "KN60", "KNAK", "KNBC", "KNBG", "KNBT", "KNCA", "KNDZ", "KNEL", "KNEW", "KNFE", "KNFG", "KNFL", "KNFW", "KNGP", "KNGU", "KNHK", "KNID", "KNIP", "KNJK", "KNJM", "KNJW", "KNKT", "KNKX", "KNLC", "KNMM", "KNOG", "KNOW", "KNOZ", "KNPA", "KNQA", "KNQI", "KNQX", "KNRB", "KNRN", "KNRS", "KNSE", "KNSI", "KNTD", "KNTU", "KNUC", "KNUI", "KNUQ", "KNUW", "KNXF", "KNXP", "KNY0", "KNYC", "KNYG", "KNYL", "KNZY", "KO05", "KO22", "KO32", "KO69", "KOAJ", "KOAK", "KOAR", "KOBE", "KOCF", "KOCH", "KOCQ", "KOCW", "KODO", "KODX", "KOEB", "KOEL", "KOEO", "KOFF", "KOFK", "KOFP", "KOGA", "KOGB", "KOGD", "KOGS", "KOIC", "KOIN", "KOJA", "KOJC", "KOKB", "KOKC", "KOKK", "KOKM", "KOKV", "KOKZ", "KOLE", "KOLF", "KOLG", "KOLM", "KOLS", "KOLU", "KOLV", "KOLY", "KOLZ", "KOMA", "KOMH", "KOMK", "KONA", "KONL", "KONM", "KONO", "KONP", "KONT", "KONX", "KONZ", "KOOA", "KOPF", "KOPL", "KOPN", "KOQN", "KOQT", "KORB", "KORD", "KORE", "KORF", "KORG", "KORH", "KORL", "KORS", "KOSA", "KOSC", "KOSH", "KOSU", "KOTG", "KOTH", "KOTM", "KOUN", "KOVE", "KOVL", "KOVS", "KOWA", "KOWB", "KOWD", "KOWP", "KOWX", "KOXC", "KOXD", "KOXI", "KOXR", "KOXV", "KOZA", "KOZR", "KOZS", "KOZW", "KP08", "KP28", "KP53", "KP58", "KP59", "KP60", "KP68", "KP69", "KPAE", "KPAH", "KPAM", "KPAN", "KPBF", "KPBG", "KPBH", "KPBI", "KPBX", "KPCD", "KPCM", "KPCW", "KPCZ", "KPDC", "KPDK", "KPDT", "KPDX", "KPEA", "KPEO", "KPEQ", "KPEX", "KPEZ", "KPGA", "KPGD", "KPGV", "KPHD", "KPHF", "KPHL", "KPHN", "KPHP", "KPHT", "KPHX", "KPIA", "KPIB", "KPIE", "KPIH", "KPIL", "KPIM", "KPIR", "KPIT", "KPKB", "KPKD", "KPKV", "KPLN", "KPLR", "KPLU", "KPMD", "KPMH", "KPMP", "KPMU", "KPMV", "KPNA", "KPNC", "KPNE", "KPNM", "KPNS", "KPNT", "KPOB", "KPOE", "KPOF", "KPOU", "KPOV", "KPOY", "KPPA", "KPPF", "KPPO", "KPPQ", "KPQI", "KPQL", "KPRB", "KPRC", "KPRG", "KPRN", "KPRO", "KPRS", "KPRX", "KPSC", "KPSF", "KPSK", "KPSM", "KPSN", "KPSO", "KPSP", "KPSX", "KPTB", "KPTD", "KPTK", "KPTN", "KPTS", "KPTT", "KPTV", "KPTW", "KPUB", "KPUC", "KPUJ", "KPUW", "KPVB", "KPVC", "KPVD", "KPVF", "KPVG", "KPVJ", "KPVU", "KPVW", "KPWA", "KPWC", "KPWD", "KPWG", "KPWK", "KPWM", "KPWT", "KPXE", "KPYM", "KPYX", "KPZQ", "KPZZ", "KQAZ", "KQBL", "KQD3", "KQEI", "KQEJ", "KQEN", "KQEP", "KQEQ", "KQER", "KQEV", "KQEW", "KQEX", "KQEY", "KQFB", "KQFT", "KQFU", "KQFV", "KQFW", "KQFX", "KQN3", "KQRH", "KQTZ", "KQVF", "KRAC", "KRAL", "KRAP", "KRAS", "KRAW", "KRBD", "KRBG", "KRBL", "KRBO", "KRBW", "KRCA", "KRCE", "KRCM", "KRCR", "KRCV", "KRCX", "KRCZ", "KRDG", "KRDK", "KRDM", "KRDR", "KRDU", "KREG", "KREO", "KRFD", "KRFI", "KRGA", "KRGK", "KRHI", "KRHP", "KRIC", "KRIL", "KRIV", "KRIW", "KRKD", "KRKP", "KRKR", "KRKS", "KRLD", "KRME", "KRMG", "KRMN", "KRMY", "KRNC", "KRND", "KRNH", "KRNM", "KRNO", "KRNP", "KRNT", "KRNV", "KROA", "KROC", "KROG", "KROS", "KROW", "KROX", "KRPD", "KRPH", "KRPJ", "KRPX", "KRQB", "KRQE", "KRRL", "KRRT", "KRSL", "KRSN", "KRST", "KRSV", "KRSW", "KRTN", "KRTS", "KRUE", "KRUG", "KRUQ", "KRUT", "KRVF", "KRVJ", "KRVL", "KRVS", "KRWF", "KRWI", "KRWL", "KRWV", "KRXE", "KRYM", "KRYV", "KRYW", "KRYY", "KRZL", "KRZN", "KRZR", "KRZT", "KS21", "KS24", "KS25", "KS32", "KS33", "KS34", "KS39", "KS52", "KS59", "KS71", "KS85", "KSAA", "KSAC", "KSAD", "KSAF", "KSAN", "KSAR", "KSAT", "KSAV", "KSAW", "KSAZ", "KSBD", "KSBM", "KSBN", "KSBO", "KSBP", "KSBS", "KSBY", "KSCD", "KSCK", "KSCR", "KSCX", "KSDA", "KSDB", "KSDC", "KSDF", "KSDL", "KSDM", "KSDY", "KSEA", "KSEE", "KSEF", "KSEG", "KSEM", "KSEP", "KSEQ", "KSET", "KSEZ", "KSFB", "KSFF", "KSFM", "KSFO", "KSFQ", "KSFY", "KSFZ", "KSGF", "KSGH", "KSGJ", "KSGR", "KSGS", "KSGT", "KSGU", "KSHD", "KSHL", "KSHN", "KSHR", "KSHV", "KSIF", "KSIK", "KSIY", "KSJC", "KSJS", "KSJT", "KSJX", "KSKA", "KSKF", "KSKX", "KSLB", "KSLC", "KSLE", "KSLG", "KSLH", "KSLI", "KSLK", "KSLN", "KSLO", "KSLR", "KSME", "KSMF", "KSMN", "KSMO", "KSMP", "KSMQ", "KSMS", "KSMX", "KSNA", "KSNC", "KSNH", "KSNK", "KSNL", "KSNS", "KSNT", "KSNY", "KSOA", "KSOP", "KSOW", "KSPA", "KSPB", "KSPD", "KSPF", "KSPG", "KSPI", "KSPS", "KSPW", "KSQI", "KSQL", "KSRB", "KSRC", "KSRE", "KSRQ", "KSRR", "KSSC", "KSSF", "KSSI", "KSTC", "KSTE", "KSTF", "KSTJ", "KSTK", "KSTL", "KSTP", "KSTS", "KSUA", "KSUE", "KSUN", "KSUS", "KSUT", "KSUU", "KSUW", "KSUX", "KSUZ", "KSVC", "KSVE", "KSVH", "KSVN", "KSWF", "KSWO", "KSWW", "KSXK", "KSXS", "KSXT", "KSXU", "KSYF", "KSYI", "KSYM", "KSYN", "KSYR", "KSZL", "KSZT", "KSZY", "KT20", "KT35", "KT41", "KT69", "KT70", "KT74", "KT78", "KT82", "KT89", "KTAD", "KTAN", "KTAZ", "KTBN", "KTBR", "KTCC", "KTCL", "KTCM", "KTCS", "KTCY", "KTDF", "KTDR", "KTDZ", "KTEB", "KTEW", "KTEX", "KTFP", "KTGI", "KTHA", "KTHM", "KTHV", "KTIF", "KTIK", "KTIP", "KTIW", "KTKC", "KTKI", "KTKV", "KTKX", "KTLH", "KTMB", "KTME", "KTMK", "KTMT", "KTNB", "KTNU", "KTOB", "KTOC", "KTOI", "KTOL", "KTOP", "KTOR", "KTPA", "KTPH", "KTPL", "KTQE", "KTQH", "KTQK", "KTQV", "KTRI", "KTRK", "KTRL", "KTRM", "KTSP", "KTTA", "KTTD", "KTTF", "KTTN", "KTTS", "KTUL", "KTUP", "KTUS", "KTVC", "KTVF", "KTVI", "KTVL", "KTVR", "KTVY", "KTWF", "KTWM", "KTWT", "KTXK", "KTXW", "KTYL", "KTYQ", "KTYR", "KTYS", "KTZR", "KU42", "KU55", "KU68", "KUAO", "KUBE", "KUCP", "KUCY", "KUDG", "KUES", "KUGN", "KUIL", "KUIN", "KUKF", "KUKI", "KUKL", "KUKT", "KULM", "KULS", "KUMP", "KUNI", "KUNO", "KUNU", "KUNV", "KUOX", "KUSE", "KUTA", "KUTS", "KUUU", "KUVA", "KUXL", "KUYF", "KUZA", "KVAD", "KVAF", "KVAY", "KVBG", "KVBT", "KVCB", "KVCT", "KVCV", "KVDF", "KVDI", "KVEL", "KVER", "KVES", "KVGC", "KVGT", "KVHN", "KVIH", "KVIS", "KVJI", "KVKS", "KVLD", "KVLL", "KVNW", "KVNY", "KVOK", "KVPC", "KVPS", "KVPZ", "KVQQ", "KVRB", "KVSF", "KVTA", "KVTI", "KVTN", "KVTP", "KVUJ", "KVUO", "KVVS", "KVVV", "KVWU", "KVYS", "KW13", "KW22", "KW31", "KW63", "KW75", "KW78", "KW81", "KW96", "KW99", "KWAL", "KWBF", "KWDG", "KWDR", "KWJF", "KWLD", "KWMC", "KWRB", "KWRI", "KWRL", "KWST", "KWVI", "KWVL", "KWWD", "KWWR", "KX07", "KX26", "KX60", "KXBP", "KXER", "KXIF", "KXLL", "KXMR", "KXNA", "KXNO", "KXNX", "KXSA", "KXVG", "KXWA", "KY19", "KY23", "KY31", "KY49", "KY50", "KY51", "KY63", "KY70", "KYIP", "KYKM", "KYKN", "KYNG", "KZER", "KZPH", "KZZV", "LATI", "LBBG", "LBGO", "LBPD", "LBSF", "LBWN", "LCEN", "LCLK", "LCPH", "LDDU", "LDOS", "LDPL", "LDRI", "LDSP", "LDZA", "LDZD", "LEAB", "LEAG", "LEAL", "LEAM", "LEAO", "LEAS", "LEBA", "LEBB", "LEBG", "LEBL", "LEBR", "LEBT", "LEBZ", "LECH", "LECO", "LECV", "LEDA", "LEEC", "LEGA", "LEGE", "LEGR", "LEGT", "LEHC", "LEIB", "LEJR", "LELC", "LELL", "LELN", "LELO", "LEMD", "LEMG", "LEMH", "LEMI", "LEMO", "LEPA", "LEPP", "LERI", "LERS", "LERT", "LESA", "LESB", "LESO", "LEST", "LETL", "LETO", "LETU", "LEVC", "LEVD", "LEVS", "LEVT", "LEVX", "LEXJ", "LEZG", "LEZL", "LFAC", "LFAQ", "LFAT", "LFBA", "LFBC", "LFBD", "LFBE", "LFBF", "LFBG", "LFBH", "LFBI", "LFBL", "LFBM", "LFBO", "LFBP", "LFBT", "LFBU", "LFBX", "LFBY", "LFBZ", "LFCK", "LFCR", "LFGA", "LFGJ", "LFHP", "LFJL", "LFJR", "LFKB", "LFKC", "LFKF", "LFKJ", "LFKS", "LFLB", "LFLC", "LFLH", "LFLL", "LFLN", "LFLP", "LFLS", "LFLU", "LFLV", "LFLW", "LFLX", "LFLY", "LFMC", "LFMD", "LFMH", "LFMI", "LFMK", "LFML", "LFMN", "LFMO", "LFMP", "LFMT", "LFMU", "LFMV", "LFMY", "LFOA", "LFOB", "LFOE", "LFOH", "LFOJ", "LFOK", "LFOP", "LFOT", "LFOV", "LFOZ", "LFPB", "LFPG", "LFPM", "LFPN", "LFPO", "LFPT", "LFPV", "LFQA", "LFQB", "LFQG", "LFQQ", "LFRB", "LFRC", "LFRD", "LFRG", "LFRH", "LFRI", "LFRJ", "LFRK", "LFRL", "LFRM", "LFRN", "LFRO", "LFRQ", "LFRS", "LFRT", "LFRU", "LFRV", "LFRZ", "LFSB", "LFSD", "LFSG", "LFSI", "LFSL", "LFSM", "LFSN", "LFSO", "LFST", "LFSX", "LFTH", "LFTW", "LFVP", "LFYR", "LGAD", "LGAL", "LGAV", "LGBL", "LGEL", "LGHI", "LGIO", "LGIR", "LGKF", "LGKL", "LGKO", "LGKP", "LGKR", "LGKV", "LGKZ", "LGLM", "LGMK", "LGMT", "LGNX", "LGPA", "LGPZ", "LGRP", "LGRX", "LGSA", "LGSK", "LGSM", "LGSO", "LGSR", "LGTS", "LGZA", "LHBP", "LHDC", "LHKE", "LHPA", "LHPP", "LHPR", "LHSM", "LHSN", "LIBA", "LIBC", "LIBD", "LIBF", "LIBG", "LIBN", "LIBP", "LIBQ", "LIBR", "LIBV", "LIBY", "LICA", "LICB", "LICC", "LICD", "LICF", "LICG", "LICJ", "LICR", "LICT", "LICZ", "LIEA", "LIEB", "LIED", "LIEE", "LIEO", "LIMC", "LIME", "LIMF", "LIMG", "LIMJ", "LIMK", "LIML", "LIMN", "LIMP", "LIMS", "LIMU", "LIMV", "LIMW", "LIMY", "LIMZ", "LIPA", "LIPB", "LIPC", "LIPE", "LIPF", "LIPH", "LIPI", "LIPK", "LIPL", "LIPO", "LIPQ", "LIPR", "LIPS", "LIPX", "LIPY", "LIPZ", "LIQC", "LIQO", "LIQW", "LIRA", "LIRE", "LIRF", "LIRG", "LIRH", "LIRK", "LIRL", "LIRM", "LIRN", "LIRP", "LIRQ", "LIRS", "LIRT", "LIRU", "LIRV", "LIRX", "LIRZ", "LIVC", "LIVD", "LIVE", "LIVF", "LIVM", "LIVO", "LIVP", "LIVR", "LIVT", "LJCE", "LJLJ", "LJMB", "LJPZ", "LKCV", "LKKB", "LKKU", "LKKV", "LKLN", "LKMT", "LKNA", "LKPD", "LKPR", "LKTB", "LKVO", "LLBG", "LLER", "LLHA", "LLIB", "LMML", "LOAN", "LOAV", "LOWG", "LOWI", "LOWK", "LOWL", "LOWS", "LOWW", "LOXZ", "LPAZ", "LPBJ", "LPFR", "LPHR", "LPLA", "LPMA", "LPMR", "LPMT", "LPPD", "LPPR", "LPPS", "LPPT", "LPST", "LQBK", "LQMO", "LQSA", "LQTZ", "LRAR", "LRBC", "LRBM", "LRBO", "LRBS", "LRCK", "LRCL", "LRCT", "LRCV", "LRFT", "LRIA", "LROD", "LROP", "LRSB", "LRSM", "LRSV", "LRTC", "LRTM", "LRTR", "LRTZ", "LSGC", "LSGG", "LSGS", "LSMA", "LSMD", "LSME", "LSMM", "LSMP", "LSZA", "LSZB", "LSZC", "LSZG", "LSZH", "LSZL", "LSZR", "LSZS", "LTAC", "LTAE", "LTAF", "LTAG", "LTAI", "LTAJ", "LTAL", "LTAN", "LTAP", "LTAR", "LTAS", "LTAT", "LTAU", "LTAW", "LTAY", "LTAZ", "LTBA", "LTBD", "LTBF", "LTBH", "LTBJ", "LTBO", "LTBQ", "LTBR", "LTBS", "LTBU", "LTBY", "LTCA", "LTCB", "LTCC", "LTCD", "LTCE", "LTCF", "LTCG", "LTCI", "LTCJ", "LTCK", "LTCL", "LTCM", "LTCN", "LTCO", "LTCP", "LTCR", "LTCS", "LTCT", "LTCU", "LTCV", "LTCW", "LTDA", "LTFB", "LTFC", "LTFD", "LTFE", "LTFG", "LTFH", "LTFJ", "LTFK", "LTFM", "LTFO", "LUKK", "LWOH", "LWSK", "LXGB", "LYBE", "LYNI", "LYPG", "LYTV", "LZIB", "LZKZ", "LZPP", "LZTT", "LZZI", "MDPC", "MDSD", "MDST", "MHTG", "MPTO", "MROC", "MSLP", "MUCF", "MUCL", "MUCM", "MUCU", "MUGM", "MUHA", "MUHG", "MUVR", "MYNN", "NCAI", "NCAT", "NCMG", "NCMH", "NCMK", "NCMR", "NCNS", "NCPK", "NCPL", "NCPY", "NCRG", "NCRK", "NCSW", "NFFN", "NFNA", "NFTF", "NGFU", "NGTA", "NIUE", "NLWW", "NSFA", "NSTU", "NVSS", "NVVV", "NWWW", "NZAA", "NZCH", "NZCM", "NZFX", "NZWN", "OBBI", "OEAB", "OEAH", "OEAO", "OEBA", "OEBH", "OEDF", "OEDM", "OEDR", "OEGN", "OEGS", "OEGT", "OEHL", "OEJB", "OEJN", "OEKJ", "OEKM", "OEMA", "OEMN", "OENG", "OEPA", "OERF", "OERK", "OERR", "OESH", "OESK", "OETB", "OETF", "OETR", "OEWD", "OEWJ", "OEYN", "OIAA", "OIAG", "OIAH", "OIAI", "OIAM", "OIAW", "OIBA", "OIBB", "OIBH", "OIBJ", "OIBK", "OIBL", "OIBP", "OIBQ", "OIBS", "OIBV", "OICC", "OICI", "OICJ", "OICK", "OICM", "OICS", "OIFK", "OIFM", "OIFS", "OIGG", "OIGK", "OIHH", "OIHM", "OIHR", "OIIE", "OIII", "OIIK", "OIIP", "OIIS", "OIKB", "OIKK", "OIKO", "OIKQ", "OIMB", "OIMC", "OIMD", "OIMJ", "OIMM", "OIMN", "OIMQ", "OIMS", "OINB", "OINE", "OING", "OINK", "OINN", "OINR", "OINZ", "OISA", "OISF", "OISL", "OISR", "OISS", "OISY", "OITK", "OITL", "OITM", "OITP", "OITR", "OITT", "OITU", "OITZ", "OIYY", "OIZB", "OIZC", "OIZH", "OIZI", "OIZJ", "OJAI", "OJAM", "OJAQ", "OKBK", "OLBA", "OMAA", "OMAD", "OMAL", "OMDB", "OMDW", "OMFJ", "OMRK", "OMSJ", "OODQ", "OOKB", "OOMS", "OOSA", "OOSH", "OPFA", "OPIS", "OPKC", "OPLA", "OPMT", "OPPS", "OPSK", "OPST", "ORBI", "ORMM", "ORNI", "ORSU", "OSDI", "OSKL", "OSLK", "OTBD", "OTHH", "PAAD", "PAAK", "PAAQ", "PABA", "PABE", "PABL", "PABR", "PABT", "PABV", "PACD", "PACV", "PACZ", "PADK", "PADL", "PADM", "PADQ", "PADU", "PAED", "PAEH", "PAEI", "PAEN", "PAFA", "PAFB", "PAFE", "PAFM", "PAFR", "PAFS", "PAGA", "PAGK", "PAGL", "PAGM", "PAGN", "PAGS", "PAGY", "PAHL", "PAHN", "PAHO", "PAHX", "PAHY", "PAIG", "PAIK", "PAIL", "PAIM", "PAIN", "PAJC", "PAJN", "PAJZ", "PAKF", "PAKH", "PAKI", "PAKK", "PAKN", "PAKP", "PAKT", "PAKV", "PAKW", "PAKX", "PALH", "PALU", "PAMB", "PAMD", "PAMK", "PAMR", "PANA", "PANC", "PANI", "PANN", "PANV", "PANW", "PAOH", "PAOM", "PAOO", "PAOR", "PAOT", "PAOU", "PAPB", "PAPG", "PAPH", "PAPM", "PAPN", "PAQH", "PAQT", "PARC", "PARS", "PARY", "PASA", "PASC", "PASD", "PASH", "PASI", "PASK", "PASL", "PASM", "PASN", "PASO", "PASV", "PASX", "PASY", "PATA", "PATC", "PATE", "PATG", "PATK", "PATL", "PATO", "PATQ", "PAUN", "PAUT", "PAVA", "PAVC", "PAVD", "PAWD", "PAWI", "PAWM", "PAWN", "PAWS", "PAYA", "PAZK", "PFCL", "PFEL", "PFKT", "PFNO", "PFSH", "PFWS", "PFYU", "PGRO", "PGSN", "PGUA", "PGUM", "PGWT", "PHBK", "PHHI", "PHJR", "PHKO", "PHLI", "PHMK", "PHNG", "PHNL", "PHNY", "PHOG", "PHSF", "PHTO", "PKMR", "PKWA", "PLCH", "PMDY", "PPIZ", "PTRO", "PTTP", "PTYA", "PWAK", "RCFN", "RCKH", "RCMQ", "RCNN", "RCSS", "RCTP", "RJAA", "RJAF", "RJAH", "RJAW", "RJBB", "RJBD", "RJBE", "RJBT", "RJCB", "RJCC", "RJCH", "RJCK", "RJCM", "RJCN", "RJCO", "RJCW", "RJDB", "RJDC", "RJDT", "RJEB", "RJEC", "RJFE", "RJFF", "RJFG", "RJFK", "RJFM", "RJFO", "RJFR", "RJFS", "RJFT", "RJFU", "RJGG", "RJKA", "RJKI", "RJNK", "RJNS", "RJNT", "RJNW", "RJNY", "RJOA", "RJOB", "RJOC", "RJOF", "RJOH", "RJOI", "RJOK", "RJOM", "RJOO", "RJOR", "RJOS", "RJOT", "RJOW", "RJOY", "RJOZ", "RJSA", "RJSC", "RJSF", "RJSI", "RJSK", "RJSM", "RJSN", "RJSR", "RJSS", "RJSY", "RJTF", "RJTI", "RJTO", "RJTT", "RJTY", "RKJB", "RKJK", "RKNF", "RKNY", "RKPC", "RKPK", "RKSG", "RKSI", "RKSM", "RKSO", "RKSS", "RKTN", "RKTU", "ROAH", "RODN", "ROIG", "ROMD", "ROMY", "RORK", "RORS", "RORY", "ROTM", "ROYN", "RPLB", "RPLI", "RPLL", "RPMD", "RPMZ", "RPVM", "SAAR", "SABE", "SACO", "SADF", "SAEZ", "SAME", "SANT", "SAOC", "SARE", "SARF", "SARI", "SARL", "SARP", "SASA", "SASJ", "SAVC", "SAWE", "SAWH", "SAZM", "SAZN", "SAZS", "SBAN", "SBAR", "SBAX", "SBBE", "SBBG", "SBBH", "SBBR", "SBBV", "SBCA", "SBCF", "SBCG", "SBCH", "SBCT", "SBCY", "SBDN", "SBEG", "SBFI", "SBFL", "SBFN", "SBFZ", "SBGL", "SBGO", "SBGR", "SBIP", "SBIZ", "SBJP", "SBJU", "SBKG", "SBKP", "SBLB", "SBLE", "SBLO", "SBMA", "SBME", "SBMG", "SBMN", "SBMO", "SBMQ", "SBNT", "SBPA", "SBPJ", "SBPL", "SBPS", "SBPV", "SBRB", "SBRF", "SBRJ", "SBRP", "SBSC", "SBSL", "SBSN", "SBSP", "SBSR", "SBSV", "SBTE", "SBTU", "SBUL", "SBUR", "SBVT", "SCAP", "SCAR", "SCAT", "SCBA", "SCCF", "SCCH", "SCCI", "SCCY", "SCDA", "SCEL", "SCFA", "SCFT", "SCIC", "SCIE", "SCIP", "SCJO", "SCMK", "SCON", "SCPD", "SCPQ", "SCQP", "SCSE", "SCSN", "SCTE", "SCTN", "SCVD", "SCVM", "SGAS", "SGES", "SKBO", "SKBQ", "SKCG", "SKCL", "SKLT", "SKRG", "SKSP", "SLCB", "SLLP", "SLVR", "SMJP", "SOCA", "SULS", "SUMU", "SVBC", "SVBI", "SVBM", "SVBS", "SVCB", "SVCJ", "SVCS", "SVFM", "SVGD", "SVGU", "SVJM", "SVLO", "SVMC", "SVMG", "SVMI", "SVMT", "SVPA", "SVPR", "SVSR", "SVVA", "SYCJ", "TAPA", "TBPB", "TFFF", "TFFR", "TIST", "TISX", "TJNR", "TJSJ", "TLPL", "TNCA", "TNCB", "TNCC", "TNCE", "TNCM", "TTCP", "TTPP", "TXKF", "UAAH", "UAAT", "UACK", "UACP", "UADD", "UAIT", "UAKD", "UAOO", "UARR", "UASK", "UASP", "UASS", "UAUU", "UBBB", "UBBF", "UBBG", "UBBL", "UBBN", "UBBQ", "UBBY", "UBBZ", "UBEE", "UCFL", "UCFM", "UCFO", "UDSG", "UDYZ", "UEEE", "UERP", "UERR", "UGKO", "UGSB", "UGTB", "UHBB", "UHHH", "UHMA", "UHMM", "UHPP", "UHSS", "UHWW", "UIAA", "UIBB", "UIII", "UIUU", "ULAA", "ULLI", "ULMM", "ULOO", "ULPB", "ULWC", "UMBB", "UMGG", "UMKK", "UMMG", "UMMS", "UMOO", "UNAA", "UNBB", "UNEE", "UNKL", "UNNT", "UNOO", "UNTT", "UNWW", "UOOO", "URKA", "URKK", "URMG", "URML", "URMM", "URMN", "URMO", "URMT", "URRP", "URSS", "URWA", "URWI", "URWW", "USCC", "USCM", "USDA", "USHH", "USNN", "USPP", "USRR", "USSS", "USTR", "UTAA", "UTAK", "UTAM", "UTAT", "UTAV", "UTDD", "UTDK", "UTDL", "UTDT", "UTFA", "UTFF", "UTFN", "UTNN", "UTNU", "UTO8", "UTSA", "UTSB", "UTSK", "UTSS", "UTST", "UTTT", "UUBC", "UUBP", "UUBW", "UUDD", "UUDL", "UUEE", "UUMO", "UUOB", "UUOK", "UUOL", "UUOO", "UUWW", "UUYY", "UWGG", "UWKD", "UWKE", "UWKS", "UWLL", "UWLW", "UWOO", "UWOR", "UWPS", "UWSG", "UWUU", "UWWW", "VAAH", "VABB", "VABO", "VABP", "VABV", "VAID", "VAJB", "VAJJ", "VAKE", "VAKP", "VANP", "VARK", "VASD", "VASU", "VAUD", "VCBI", "VCRI", "VDPP", "VDSR", "VDSV", "VEAT", "VEBI", "VEBN", "VEBS", "VEBU", "VECC", "VECO", "VEDG", "VEDO", "VEGT", "VEGY", "VEIM", "VEJH", "VEJR", "VEJS", "VEKI", "VELP", "VELR", "VEMN", "VEMR", "VEPT", "VEPY", "VERC", "VERP", "VGEG", "VGHS", "VHHH", "VIAR", "VIDP", "VIGG", "VIJP", "VILD", "VILK", "VISM", "VLLB", "VLLN", "VLPS", "VLSK", "VLVT", "VMMC", "VNKT", "VOAR", "VOAT", "VOBG", "VOBL", "VOBM", "VOBZ", "VOCB", "VOCI", "VOCL", "VOCP", "VOGB", "VOGO", "VOHB", "VOHS", "VOHY", "VOJV", "VOKN", "VOKU", "VOMD", "VOML", "VOMM", "VOMY", "VOPC", "VORY", "VOSM", "VOSR", "VOTK", "VOTP", "VOTR", "VOTV", "VOVZ", "VQPR", "VRMG", "VRMH", "VRMM", "VTBD", "VTBO", "VTBS", "VTBU", "VTCC", "VTCH", "VTCL", "VTCN", "VTCP", "VTCT", "VTPB", "VTPH", "VTPM", "VTPO", "VTPP", "VTSB", "VTSC", "VTSE", "VTSF", "VTSG", "VTSM", "VTSP", "VTSR", "VTSS", "VTST", "VTUD", "VTUI", "VTUK", "VTUL", "VTUO", "VTUQ", "VTUU", "VTUV", "VTUW", "VVCI", "VVCR", "VVCT", "VVDN", "VVNB", "VVPB", "VVPQ", "VVTS", "VYMD", "VYNT", "VYYY", "WAAA", "WABB", "WADD", "WADL", "WAHS", "WAJJ", "WAKK", "WALL", "WAMM", "WAOO", "WAPP", "WAQQ", "WARR", "WATT", "WAYY", "WBGB", "WBGG", "WBGR", "WBGS", "WBGY", "WBKK", "WBKL", "WBKS", "WBKW", "WBSB", "WIBB", "WIDD", "WIDN", "WIEE", "WIHH", "WIII", "WIMM", "WIOO", "WIPP", "WMAU", "WMBA", "WMKA", "WMKB", "WMKC", "WMKD", "WMKE", "WMKI", "WMKJ", "WMKK", "WMKL", "WMKM", "WMKN", "WMKP", "WMSA", "WSAP", "WSSL", "WSSS", "YABA", "YBAS", "YBBN", "YBCG", "YBCS", "YBHM", "YBLN", "YBRK", "YBRM", "YBUD", "YBWW", "YCBA", "YCFS", "YCOM", "YGEL", "YGFN", "YGLA", "YLHI", "YLIS", "YMAV", "YMER", "YMHB", "YMIA", "YMLT", "YMML", "YPAD", "YPCC", "YPDN", "YPEA", "YPKG", "YPLM", "YPPD", "YPPH", "YPXM", "YSCB", "YSNF", "YSNW", "YSRI", "YSSY", "YSTW", "YSWG", "YTRE", "YWLM", "ZBAA", "ZBAD", "ZBHH", "ZBSJ", "ZBTJ", "ZBYN", "ZGGG", "ZGHA", "ZGKL", "ZGNN", "ZGOW", "ZGSZ", "ZHCC", "ZHHH", "ZJHK", "ZJSY", "ZLLL", "ZLXY", "ZMCK", "ZMUB", "ZPPP", "ZSAM", "ZSFZ", "ZSHC", "ZSNB", "ZSNJ", "ZSOF", "ZSPD", "ZSQD", "ZSSS", "ZUCK", "ZUGY", "ZUTF", "ZUUU", "ZWSH", "ZWWW", "ZYCC", "ZYHB", "ZYTL", "ZYTX"], "observation_time": ["2022-10-24T07:00:00Z", "2022-10-24T07:00:00Z", "2022-10-24T07:00:00Z", "2022-10-24T07:00:00Z", "2022-10-24T07:00:00Z", "2022-10-24T06:50:00Z", "2022-10-24T06:50:00Z", "2022-10-24T06:50:00Z", "2022-10-24T06:50:00Z", "2022-10-24T06:50:00Z", "2022-10-24T06:55:00Z", "2022-10-24T07:00:00Z", "2022-10-24T07:00:00Z", "2022-10-24T07:00:00Z", "2022-10-24T07:30:00Z", "2022-10-24T07:00:00Z", "2022-10-24T07:30:00Z", "2022-10-24T07:00:00Z", "2022-10-24T07:00:00Z", "2022-10-24T07:28:00Z", "2022-10-24T07:00:00Z", "2022-10-24T07:00:00Z", "2022-10-24T07:00:00Z", "2022-10-24T07:00:00Z", "2022-10-24T07:00:00Z", "2022-10-24T07:00:00Z", "2022-10-24T07:00:00Z", "2022-10-24T07:06:00Z", "2022-10-24T07:00:00Z", "2022-10-24T07:00:00Z", "2022-10-24T07:00:00Z", "2022-10-24T07:00:00Z", "2022-10-24T07:00:00Z", "2022-10-24T07:00:00Z", "2022-10-24T07:00:00Z", "2022-10-24T07:00:00Z", "2022-10-24T07:00:00Z", "2022-10-24T07:00:00Z", "2022-10-24T07:00:00Z", "2022-10-24T07:00:00Z", "2022-10-24T07:00:00Z", "2022-10-24T07:00:00Z", "2022-10-24T07:00:00Z", "2022-10-24T07:00:00Z", "2022-10-24T07:00:00Z", "2022-10-24T07:00:00Z", "2022-10-24T07:00:00Z", "2022-10-24T07:00:00Z", "2022-10-24T07:00:00Z", "2022-10-24T07:00:00Z", "2022-10-24T07:00:00Z", "2022-10-24T07:00:00Z", "2022-10-24T07:00:00Z", "2022-10-24T07:00:00Z", "2022-10-24T07:00:00Z", "2022-10-24T07:00:00Z", "2022-10-24T07:00:00Z", "2022-10-24T07:00:00Z", "2022-10-24T07:00:00Z", "2022-10-24T07:00:00Z", "2022-10-24T07:00:00Z", "2022-10-24T07:00:00Z", "2022-10-24T07:00:00Z", "2022-10-24T07:00:00Z", "2022-10-24T07:00:00Z", "2022-10-24T07:00:00Z", "2022-10-24T07:00:00Z", "2022-10-24T07:00:00Z", "2022-10-24T07:00:00Z", "2022-10-24T07:00:00Z", "2022-10-24T07:00:00Z", "2022-10-24T07:00:00Z", "2022-10-24T07:00:00Z", "2022-10-24T07:00:00Z", "2022-10-24T07:00:00Z", "2022-10-24T07:21:00Z", "2022-10-24T07:00:00Z", "2022-10-24T07:00:00Z", "2022-10-24T07:00:00Z", "2022-10-24T07:00:00Z", "2022-10-24T07:00:00Z", "2022-10-24T07:00:00Z", "2022-10-24T07:00:00Z", "2022-10-24T07:00:00Z", "2022-10-24T07:00:00Z", "2022-10-24T07:00:00Z", "2022-10-24T07:00:00Z", "2022-10-24T07:00:00Z", "2022-10-24T07:00:00Z", "2022-10-24T07:00:00Z", "2022-10-24T07:00:00Z", "2022-10-24T07:00:00Z", "2022-10-24T07:00:00Z", "2022-10-24T07:00:00Z", "2022-10-24T07:00:00Z", "2022-10-24T07:00:00Z", "2022-10-24T07:00:00Z", "2022-10-24T07:00:00Z", "2022-10-24T07:00:00Z", "2022-10-24T07:32:00Z", "2022-10-24T07:00:00Z", "2022-10-24T07:00:00Z", "2022-10-24T07:00:00Z", "2022-10-24T07:00:00Z", "2022-10-24T07:00:00Z", "2022-10-24T07:00:00Z", "2022-10-24T07:00:00Z", "2022-10-24T07:00:00Z", "2022-10-24T07:00:00Z", "2022-10-24T07:00:00Z", "2022-10-24T07:00:00Z", "2022-10-24T07:00:00Z", "2022-10-24T07:00:00Z", "2022-10-24T07:00:00Z", "2022-10-24T07:00:00Z", "2022-10-24T07:00:00Z", "2022-10-24T07:00:00Z", "2022-10-24T07:00:00Z", "2022-10-24T07:00:00Z", "2022-10-24T07:00:00Z", "2022-10-24T07:00:00Z", "2022-10-24T07:00:00Z", "2022-10-24T07:00:00Z", "2022-10-24T07:00:00Z", "2022-10-24T07:00:00Z", "2022-10-24T07:00:00Z", "2022-10-24T07:00:00Z", "2022-10-24T07:00:00Z", "2022-10-24T07:00:00Z", "2022-10-24T07:00:00Z", "2022-10-24T07:00:00Z", "2022-10-24T07:00:00Z", "2022-10-24T07:00:00Z", "2022-10-24T07:00:00Z", "2022-10-24T07:00:00Z", "2022-10-24T07:00:00Z", "2022-10-24T07:00:00Z", "2022-10-24T07:00:00Z", "2022-10-24T07:00:00Z", "2022-10-24T07:00:00Z", "2022-10-24T07:08:00Z", "2022-10-24T07:00:00Z", "2022-10-24T07:00:00Z", "2022-10-24T07:00:00Z", "2022-10-24T07:00:00Z", "2022-10-24T07:00:00Z", "2022-10-24T07:00:00Z", "2022-10-24T07:00:00Z", "2022-10-24T07:00:00Z", "2022-10-24T07:00:00Z", "2022-10-24T07:00:00Z", "2022-10-24T07:00:00Z", "2022-10-24T07:00:00Z", "2022-10-24T07:00:00Z", "2022-10-24T07:00:00Z", "2022-10-24T07:00:00Z", "2022-10-24T07:30:00Z", "2022-10-24T07:00:00Z", "2022-10-24T07:00:00Z", "2022-10-24T07:00:00Z", "2022-10-24T07:29:00Z", "2022-10-24T07:00:00Z", "2022-10-24T07:00:00Z", "2022-10-24T07:00:00Z", "2022-10-24T07:00:00Z", "2022-10-24T07:00:00Z", "2022-10-24T07:00:00Z", "2022-10-24T07:00:00Z", "2022-10-24T07:00:00Z", "2022-10-24T07:00:00Z", "2022-10-24T07:00:00Z", "2022-10-24T07:00:00Z", "2022-10-24T07:00:00Z", "2022-10-24T07:00:00Z", "2022-10-24T07:00:00Z", "2022-10-24T07:00:00Z", "2022-10-24T07:00:00Z", "2022-10-24T07:00:00Z", "2022-10-24T07:00:00Z", "2022-10-24T07:00:00Z", "2022-10-24T07:00:00Z", "2022-10-24T07:14:00Z", "2022-10-24T07:00:00Z", "2022-10-24T07:00:00Z", "2022-10-24T07:00:00Z", "2022-10-24T07:00:00Z", "2022-10-24T07:00:00Z", "2022-10-24T07:00:00Z", "2022-10-24T07:00:00Z", "2022-10-24T07:00:00Z", "2022-10-24T07:00:00Z", "2022-10-24T07:00:00Z", "2022-10-24T07:00:00Z", "2022-10-24T07:00:00Z", "2022-10-24T07:00:00Z", "2022-10-24T07:00:00Z", "2022-10-24T07:00:00Z", "2022-10-24T07:27:00Z", "2022-10-24T07:00:00Z", "2022-10-24T07:00:00Z", "2022-10-24T07:00:00Z", "2022-10-24T07:00:00Z", "2022-10-24T07:00:00Z", "2022-10-24T07:00:00Z", "2022-10-24T07:00:00Z", "2022-10-24T07:00:00Z", "2022-10-24T07:00:00Z", "2022-10-24T07:00:00Z", "2022-10-24T07:00:00Z", "2022-10-24T07:00:00Z", "2022-10-24T07:00:00Z", "2022-10-24T07:00:00Z", "2022-10-24T07:00:00Z", "2022-10-24T07:00:00Z", "2022-10-24T07:00:00Z", "2022-10-24T07:00:00Z", "2022-10-24T07:00:00Z", "2022-10-24T07:00:00Z", "2022-10-24T07:00:00Z", "2022-10-24T07:00:00Z", "2022-10-24T07:00:00Z", "2022-10-24T07:00:00Z", "2022-10-24T07:00:00Z", "2022-10-24T07:00:00Z", "2022-10-24T07:00:00Z", "2022-10-24T07:00:00Z", "2022-10-24T07:00:00Z", "2022-10-24T07:00:00Z", "2022-10-24T07:00:00Z", "2022-10-24T07:00:00Z", "2022-10-24T07:00:00Z", "2022-10-24T07:00:00Z", "2022-10-24T07:00:00Z", "2022-10-24T07:00:00Z", "2022-10-24T07:00:00Z", "2022-10-24T07:00:00Z", "2022-10-24T07:00:00Z", "2022-10-24T07:00:00Z", "2022-10-24T07:00:00Z", "2022-10-24T07:00:00Z", "2022-10-24T07:00:00Z", "2022-10-24T07:00:00Z", "2022-10-24T07:00:00Z", "2022-10-24T07:00:00Z", "2022-10-24T07:00:00Z", "2022-10-24T07:00:00Z", "2022-10-24T07:00:00Z", "2022-10-24T07:00:00Z", "2022-10-24T07:00:00Z", "2022-10-24T07:00:00Z", "2022-10-24T07:00:00Z", "2022-10-24T07:00:00Z", "2022-10-24T07:00:00Z", "2022-10-24T07:00:00Z", "2022-10-24T07:00:00Z", "2022-10-24T07:00:00Z", "2022-10-24T07:00:00Z", "2022-10-24T07:00:00Z", "2022-10-24T07:00:00Z", "2022-10-24T07:00:00Z", "2022-10-24T07:00:00Z", "2022-10-24T07:00:00Z", "2022-10-24T07:00:00Z", "2022-10-24T07:00:00Z", "2022-10-24T07:00:00Z", "2022-10-24T07:00:00Z", "2022-10-24T07:00:00Z", "2022-10-24T07:00:00Z", "2022-10-24T07:00:00Z", "2022-10-24T07:00:00Z", "2022-10-24T07:00:00Z", "2022-10-24T07:00:00Z", "2022-10-24T07:00:00Z", "2022-10-24T07:00:00Z", "2022-10-24T07:00:00Z", "2022-10-24T07:00:00Z", "2022-10-24T07:00:00Z", "2022-10-24T07:00:00Z", "2022-10-24T07:00:00Z", "2022-10-24T07:00:00Z", "2022-10-24T07:00:00Z", "2022-10-24T07:00:00Z", "2022-10-24T07:00:00Z", "2022-10-24T07:00:00Z", "2022-10-24T07:00:00Z", "2022-10-24T07:00:00Z", "2022-10-24T07:00:00Z", "2022-10-24T07:00:00Z", "2022-10-24T07:00:00Z", "2022-10-24T07:00:00Z", "2022-10-24T07:00:00Z", "2022-10-24T07:00:00Z", "2022-10-24T07:00:00Z", "2022-10-24T07:00:00Z", "2022-10-24T07:00:00Z", "2022-10-24T07:00:00Z", "2022-10-24T07:00:00Z", "2022-10-24T07:00:00Z", "2022-10-24T07:00:00Z", "2022-10-24T07:00:00Z", "2022-10-24T07:00:00Z", "2022-10-24T07:00:00Z", "2022-10-24T07:00:00Z", "2022-10-24T07:00:00Z", "2022-10-24T07:00:00Z", "2022-10-24T07:00:00Z", "2022-10-24T07:00:00Z", "2022-10-24T07:00:00Z", "2022-10-24T07:00:00Z", "2022-10-24T07:00:00Z", "2022-10-24T07:00:00Z", "2022-10-24T07:00:00Z", "2022-10-24T07:00:00Z", "2022-10-24T07:00:00Z", "2022-10-24T07:30:00Z", "2022-10-24T07:29:00Z", "2022-10-24T07:13:00Z", "2022-10-24T07:00:00Z", "2022-10-24T07:00:00Z", "2022-10-24T07:00:00Z", "2022-10-24T07:00:00Z", "2022-10-24T07:12:00Z", "2022-10-24T07:03:00Z", "2022-10-24T07:27:00Z", "2022-10-24T07:00:00Z", "2022-10-24T07:33:00Z", "2022-10-24T07:36:00Z", "2022-10-24T07:00:00Z", "2022-10-24T07:00:00Z", "2022-10-24T07:00:00Z", "2022-10-24T07:08:00Z", "2022-10-24T07:00:00Z", "2022-10-24T07:00:00Z", "2022-10-24T07:00:00Z", "2022-10-24T07:00:00Z", "2022-10-24T07:00:00Z", "2022-10-24T07:21:00Z", "2022-10-24T07:00:00Z", "2022-10-24T07:00:00Z", "2022-10-24T07:00:00Z", "2022-10-24T07:00:00Z", "2022-10-24T07:37:00Z", "2022-10-24T07:25:00Z", "2022-10-24T07:00:00Z", "2022-10-24T07:00:00Z", "2022-10-24T07:00:00Z", "2022-10-24T07:00:00Z", "2022-10-24T07:07:00Z", "2022-10-24T07:00:00Z", "2022-10-24T07:31:00Z", "2022-10-24T07:37:00Z", "2022-10-24T07:00:00Z", "2022-10-24T07:00:00Z", "2022-10-24T07:00:00Z", "2022-10-24T07:00:00Z", "2022-10-24T07:00:00Z", "2022-10-24T07:00:00Z", "2022-10-24T07:00:00Z", "2022-10-24T07:00:00Z", "2022-10-24T07:00:00Z", "2022-10-24T07:22:00Z", "2022-10-24T07:00:00Z", "2022-10-24T07:00:00Z", "2022-10-24T07:00:00Z", "2022-10-24T07:00:00Z", "2022-10-24T07:00:00Z", "2022-10-24T07:00:00Z", "2022-10-24T07:26:00Z", "2022-10-24T07:17:00Z", "2022-10-24T07:00:00Z", "2022-10-24T07:00:00Z", "2022-10-24T07:00:00Z", "2022-10-24T07:00:00Z", "2022-10-24T07:00:00Z", "2022-10-24T07:00:00Z", "2022-10-24T07:00:00Z", "2022-10-24T07:00:00Z", "2022-10-24T07:00:00Z", "2022-10-24T07:00:00Z", "2022-10-24T07:00:00Z", "2022-10-24T07:00:00Z", "2022-10-24T07:25:00Z", "2022-10-24T07:27:00Z", "2022-10-24T07:00:00Z", "2022-10-24T07:00:00Z", "2022-10-24T07:00:00Z", "2022-10-24T07:02:00Z", "2022-10-24T07:00:00Z", "2022-10-24T07:00:00Z", "2022-10-24T07:25:00Z", "2022-10-24T07:00:00Z", "2022-10-24T07:10:00Z", "2022-10-24T07:00:00Z", "2022-10-24T07:00:00Z", "2022-10-24T07:00:00Z", "2022-10-24T07:00:00Z", "2022-10-24T07:00:00Z", "2022-10-24T07:00:00Z", "2022-10-24T07:37:00Z", "2022-10-24T07:00:00Z", "2022-10-24T07:00:00Z", "2022-10-24T07:00:00Z", "2022-10-24T07:12:00Z", "2022-10-24T07:00:00Z", "2022-10-24T07:00:00Z", "2022-10-24T07:00:00Z", "2022-10-24T07:00:00Z", "2022-10-24T07:00:00Z", "2022-10-24T07:00:00Z", "2022-10-24T07:00:00Z", "2022-10-24T07:37:00Z", "2022-10-24T07:00:00Z", "2022-10-24T07:00:00Z", "2022-10-24T07:00:00Z", "2022-10-24T07:35:00Z", "2022-10-24T07:22:00Z", "2022-10-24T07:00:00Z", "2022-10-24T07:00:00Z", "2022-10-24T07:00:00Z", "2022-10-24T07:02:00Z", "2022-10-24T07:00:00Z", "2022-10-24T07:21:00Z", "2022-10-24T07:00:00Z", "2022-10-24T07:00:00Z", "2022-10-24T07:00:00Z", "2022-10-24T07:00:00Z", "2022-10-24T07:36:00Z", "2022-10-24T07:00:00Z", "2022-10-24T07:00:00Z", "2022-10-24T07:00:00Z", "2022-10-24T07:23:00Z", "2022-10-24T07:07:00Z", "2022-10-24T07:00:00Z", "2022-10-24T07:26:00Z", "2022-10-24T07:12:00Z", "2022-10-24T07:38:00Z", "2022-10-24T07:00:00Z", "2022-10-24T07:00:00Z", "2022-10-24T07:09:00Z", "2022-10-24T07:00:00Z", "2022-10-24T07:16:00Z", "2022-10-24T07:31:00Z", "2022-10-24T07:00:00Z", "2022-10-24T07:25:00Z", "2022-10-24T07:34:00Z", "2022-10-24T07:00:00Z", "2022-10-24T07:00:00Z", "2022-10-24T07:00:00Z", "2022-10-24T07:00:00Z", "2022-10-24T07:00:00Z", "2022-10-24T07:00:00Z", "2022-10-24T07:31:00Z", "2022-10-24T07:00:00Z", "2022-10-24T07:00:00Z", "2022-10-24T07:00:00Z", "2022-10-24T07:00:00Z", "2022-10-24T07:37:00Z", "2022-10-24T07:00:00Z", "2022-10-24T07:00:00Z", "2022-10-24T07:00:00Z", "2022-10-24T07:00:00Z", "2022-10-24T07:00:00Z", "2022-10-24T07:00:00Z", "2022-10-24T07:00:00Z", "2022-10-24T07:00:00Z", "2022-10-24T07:00:00Z", "2022-10-24T07:00:00Z", "2022-10-24T07:32:00Z", "2022-10-24T07:00:00Z", "2022-10-24T07:00:00Z", "2022-10-24T07:00:00Z", "2022-10-24T07:00:00Z", "2022-10-24T07:15:00Z", "2022-10-24T07:37:00Z", "2022-10-24T07:00:00Z", "2022-10-24T07:05:00Z", "2022-10-24T07:00:00Z", "2022-10-24T07:00:00Z", "2022-10-24T07:00:00Z", "2022-10-24T07:00:00Z", "2022-10-24T07:00:00Z", "2022-10-24T07:00:00Z", "2022-10-24T07:00:00Z", "2022-10-24T07:00:00Z", "2022-10-24T07:00:00Z", "2022-10-24T07:00:00Z", "2022-10-24T07:00:00Z", "2022-10-24T07:00:00Z", "2022-10-24T07:00:00Z", "2022-10-24T07:00:00Z", "2022-10-24T07:00:00Z", "2022-10-24T07:00:00Z", "2022-10-24T07:00:00Z", "2022-10-24T07:00:00Z", "2022-10-24T07:00:00Z", "2022-10-24T07:00:00Z", "2022-10-24T07:00:00Z", "2022-10-24T07:30:00Z", "2022-10-24T07:00:00Z", "2022-10-24T07:00:00Z", "2022-10-24T07:30:00Z", "2022-10-24T07:00:00Z", "2022-10-24T07:00:00Z", "2022-10-24T07:30:00Z", "2022-10-24T07:30:00Z", "2022-10-24T07:00:00Z", "2022-10-24T07:00:00Z", "2022-10-24T07:00:00Z", "2022-10-24T07:30:00Z", "2022-10-24T07:30:00Z", "2022-10-24T07:00:00Z", "2022-10-24T07:00:00Z", "2022-10-24T07:00:00Z", "2022-10-24T07:00:00Z", "2022-10-24T07:00:00Z", "2022-10-24T07:00:00Z", "2022-10-24T07:00:00Z", "2022-10-24T07:00:00Z", "2022-10-24T07:00:00Z", "2022-10-24T07:00:00Z", "2022-10-24T07:00:00Z", "2022-10-24T07:00:00Z", "2022-10-24T07:00:00Z", "2022-10-24T07:00:00Z", "2022-10-24T07:00:00Z", "2022-10-24T07:30:00Z", "2022-10-24T07:00:00Z", "2022-10-24T07:00:00Z", "2022-10-24T07:00:00Z", "2022-10-24T07:00:00Z", "2022-10-24T07:00:00Z", "2022-10-24T07:00:00Z", "2022-10-24T07:00:00Z", "2022-10-24T07:00:00Z", "2022-10-24T07:00:00Z", "2022-10-24T07:00:00Z", "2022-10-24T07:00:00Z", "2022-10-24T07:00:00Z", "2022-10-24T07:00:00Z", "2022-10-24T07:00:00Z", "2022-10-24T07:00:00Z", "2022-10-24T07:00:00Z", "2022-10-24T07:00:00Z", "2022-10-24T07:00:00Z", "2022-10-24T07:00:00Z", "2022-10-24T07:00:00Z", "2022-10-24T07:00:00Z", "2022-10-24T07:30:00Z", "2022-10-24T07:30:00Z", "2022-10-24T07:30:00Z", "2022-10-24T07:00:00Z", "2022-10-24T07:00:00Z", "2022-10-24T07:00:00Z", "2022-10-24T07:00:00Z", "2022-10-24T07:30:00Z", "2022-10-24T07:00:00Z", "2022-10-24T07:00:00Z", "2022-10-24T07:00:00Z", "2022-10-24T07:00:00Z", "2022-10-24T07:00:00Z", "2022-10-24T07:00:00Z", "2022-10-24T07:00:00Z", "2022-10-24T07:00:00Z", "2022-10-24T07:20:00Z", "2022-10-24T07:25:00Z", "2022-10-24T07:25:00Z", "2022-10-24T07:20:00Z", "2022-10-24T07:20:00Z", "2022-10-24T07:25:00Z", "2022-10-24T07:25:00Z", "2022-10-24T07:33:00Z", "2022-10-24T07:25:00Z", "2022-10-24T07:25:00Z", "2022-10-24T07:20:00Z", "2022-10-24T07:20:00Z", "2022-10-24T07:20:00Z", "2022-10-24T07:20:00Z", "2022-10-24T07:20:00Z", "2022-10-24T07:20:00Z", "2022-10-24T07:20:00Z", "2022-10-24T07:20:00Z", "2022-10-24T07:20:00Z", "2022-10-24T07:20:00Z", "2022-10-24T07:20:00Z", "2022-10-24T07:20:00Z", "2022-10-24T07:20:00Z", "2022-10-24T07:20:00Z", "2022-10-24T07:20:00Z", "2022-10-24T07:20:00Z", "2022-10-24T07:20:00Z", "2022-10-24T07:20:00Z", "2022-10-24T07:20:00Z", "2022-10-24T07:20:00Z", "2022-10-24T07:20:00Z", "2022-10-24T07:20:00Z", "2022-10-24T07:20:00Z", "2022-10-24T07:20:00Z", "2022-10-24T07:20:00Z", "2022-10-24T07:20:00Z", "2022-10-24T07:20:00Z", "2022-10-24T07:20:00Z", "2022-10-24T07:20:00Z", "2022-10-24T07:20:00Z", "2022-10-24T07:20:00Z", "2022-10-24T07:20:00Z", "2022-10-24T07:20:00Z", "2022-10-24T07:20:00Z", "2022-10-24T07:20:00Z", "2022-10-24T07:20:00Z", "2022-10-24T07:20:00Z", "2022-10-24T07:20:00Z", "2022-10-24T07:20:00Z", "2022-10-24T07:20:00Z", "2022-10-24T07:20:00Z", "2022-10-24T06:50:00Z", "2022-10-24T07:20:00Z", "2022-10-24T07:20:00Z", "2022-10-24T07:20:00Z", "2022-10-24T07:20:00Z", "2022-10-24T07:20:00Z", "2022-10-24T07:20:00Z", "2022-10-24T07:20:00Z", "2022-10-24T07:20:00Z", "2022-10-24T07:20:00Z", "2022-10-24T07:20:00Z", "2022-10-24T07:20:00Z", "2022-10-24T07:20:00Z", "2022-10-24T07:20:00Z", "2022-10-24T07:20:00Z", "2022-10-24T07:20:00Z", "2022-10-24T07:20:00Z", "2022-10-24T07:20:00Z", "2022-10-24T07:20:00Z", "2022-10-24T07:20:00Z", "2022-10-24T07:20:00Z", "2022-10-24T07:20:00Z", "2022-10-24T07:20:00Z", "2022-10-24T07:20:00Z", "2022-10-24T07:20:00Z", "2022-10-24T07:20:00Z", "2022-10-24T07:20:00Z", "2022-10-24T07:20:00Z", "2022-10-24T07:20:00Z", "2022-10-24T07:20:00Z", "2022-10-24T07:20:00Z", "2022-10-24T07:20:00Z", "2022-10-24T07:20:00Z", "2022-10-24T07:20:00Z", "2022-10-24T07:20:00Z", "2022-10-24T07:20:00Z", "2022-10-24T07:20:00Z", "2022-10-24T07:20:00Z", "2022-10-24T07:20:00Z", "2022-10-24T07:20:00Z", "2022-10-24T07:20:00Z", "2022-10-24T07:20:00Z", "2022-10-24T07:20:00Z", "2022-10-24T07:20:00Z", "2022-10-24T07:20:00Z", "2022-10-24T07:20:00Z", "2022-10-24T07:20:00Z", "2022-10-24T07:20:00Z", "2022-10-24T07:20:00Z", "2022-10-24T07:20:00Z", "2022-10-24T07:20:00Z", "2022-10-24T07:20:00Z", "2022-10-24T07:20:00Z", "2022-10-24T07:20:00Z", "2022-10-24T07:20:00Z", "2022-10-24T07:20:00Z", "2022-10-24T07:20:00Z", "2022-10-24T07:20:00Z", "2022-10-24T07:20:00Z", "2022-10-24T07:20:00Z", "2022-10-24T07:20:00Z", "2022-10-24T07:20:00Z", "2022-10-24T07:20:00Z", "2022-10-24T07:20:00Z", "2022-10-24T07:20:00Z", "2022-10-24T07:20:00Z", "2022-10-24T07:20:00Z", "2022-10-24T07:20:00Z", "2022-10-24T07:20:00Z", "2022-10-24T07:20:00Z", "2022-10-24T07:20:00Z", "2022-10-24T07:20:00Z", "2022-10-24T07:20:00Z", "2022-10-24T07:20:00Z", "2022-10-24T07:20:00Z", "2022-10-24T07:20:00Z", "2022-10-24T07:20:00Z", "2022-10-24T07:20:00Z", "2022-10-24T07:20:00Z", "2022-10-24T07:20:00Z", "2022-10-24T07:20:00Z", "2022-10-24T07:20:00Z", "2022-10-24T07:20:00Z", "2022-10-24T07:20:00Z", "2022-10-24T07:20:00Z", "2022-10-24T07:20:00Z", "2022-10-24T07:20:00Z", "2022-10-24T07:20:00Z", "2022-10-24T07:20:00Z", "2022-10-24T07:20:00Z", "2022-10-24T07:06:00Z", "2022-10-24T06:50:00Z", "2022-10-24T07:20:00Z", "2022-10-24T07:20:00Z", "2022-10-24T07:20:00Z", "2022-10-24T07:20:00Z", "2022-10-24T07:20:00Z", "2022-10-24T07:20:00Z", "2022-10-24T07:20:00Z", "2022-10-24T07:20:00Z", "2022-10-24T07:20:00Z", "2022-10-24T06:55:00Z", "2022-10-24T07:15:00Z", "2022-10-24T06:50:00Z", "2022-10-24T06:55:00Z", "2022-10-24T07:20:00Z", "2022-10-24T07:20:00Z", "2022-10-24T07:20:00Z", "2022-10-24T07:20:00Z", "2022-10-24T06:50:00Z", "2022-10-24T07:20:00Z", "2022-10-24T06:50:00Z", "2022-10-24T06:50:00Z", "2022-10-24T07:20:00Z", "2022-10-24T07:20:00Z", "2022-10-24T07:20:00Z", "2022-10-24T07:20:00Z", "2022-10-24T07:30:00Z", "2022-10-24T07:20:00Z", "2022-10-24T07:20:00Z", "2022-10-24T06:50:00Z", "2022-10-24T07:25:00Z", "2022-10-24T07:25:00Z", "2022-10-24T07:25:00Z", "2022-10-24T07:25:00Z", "2022-10-24T07:25:00Z", "2022-10-24T07:25:00Z", "2022-10-24T07:25:00Z", "2022-10-24T07:25:00Z", "2022-10-24T07:25:00Z", "2022-10-24T07:25:00Z", "2022-10-24T07:25:00Z", "2022-10-24T07:25:00Z", "2022-10-24T07:25:00Z", "2022-10-24T07:25:00Z", "2022-10-24T07:25:00Z", "2022-10-24T07:25:00Z", "2022-10-24T07:25:00Z", "2022-10-24T07:25:00Z", "2022-10-24T07:25:00Z", "2022-10-24T07:25:00Z", "2022-10-24T07:25:00Z", "2022-10-24T07:25:00Z", "2022-10-24T07:25:00Z", "2022-10-24T07:25:00Z", "2022-10-24T07:25:00Z", "2022-10-24T07:25:00Z", "2022-10-24T07:30:00Z", "2022-10-24T07:30:00Z", "2022-10-24T07:30:00Z", "2022-10-24T07:30:00Z", "2022-10-24T07:30:00Z", "2022-10-24T07:30:00Z", "2022-10-24T07:30:00Z", "2022-10-24T07:30:00Z", "2022-10-24T07:30:00Z", "2022-10-24T07:30:00Z", "2022-10-24T07:20:00Z", "2022-10-24T07:20:00Z", "2022-10-24T07:20:00Z", "2022-10-24T07:20:00Z", "2022-10-24T07:34:00Z", "2022-10-24T06:50:00Z", "2022-10-24T07:20:00Z", "2022-10-24T07:20:00Z", "2022-10-24T07:20:00Z", "2022-10-24T07:20:00Z", "2022-10-24T06:50:00Z", "2022-10-24T07:20:00Z", "2022-10-24T06:50:00Z", "2022-10-24T07:32:00Z", "2022-10-24T07:20:00Z", "2022-10-24T07:20:00Z", "2022-10-24T07:20:00Z", "2022-10-24T07:20:00Z", "2022-10-24T07:20:00Z", "2022-10-24T07:20:00Z", "2022-10-24T07:20:00Z", "2022-10-24T07:20:00Z", "2022-10-24T07:20:00Z", "2022-10-24T07:20:00Z", "2022-10-24T07:20:00Z", "2022-10-24T07:20:00Z", "2022-10-24T07:20:00Z", "2022-10-24T07:20:00Z", "2022-10-24T07:20:00Z", "2022-10-24T07:20:00Z", "2022-10-24T07:20:00Z", "2022-10-24T07:20:00Z", "2022-10-24T07:20:00Z", "2022-10-24T07:20:00Z", "2022-10-24T07:20:00Z", "2022-10-24T07:20:00Z", "2022-10-24T07:20:00Z", "2022-10-24T07:20:00Z", "2022-10-24T07:20:00Z", "2022-10-24T07:20:00Z", "2022-10-24T07:20:00Z", "2022-10-24T07:20:00Z", "2022-10-24T07:20:00Z", "2022-10-24T07:20:00Z", "2022-10-24T07:20:00Z", "2022-10-24T07:20:00Z", "2022-10-24T07:20:00Z", "2022-10-24T07:20:00Z", "2022-10-24T07:20:00Z", "2022-10-24T07:20:00Z", "2022-10-24T07:20:00Z", "2022-10-24T07:20:00Z", "2022-10-24T07:20:00Z", "2022-10-24T07:20:00Z", "2022-10-24T07:20:00Z", "2022-10-24T07:20:00Z", "2022-10-24T07:20:00Z", "2022-10-24T07:20:00Z", "2022-10-24T07:20:00Z", "2022-10-24T07:20:00Z", "2022-10-24T07:20:00Z", "2022-10-24T07:20:00Z", "2022-10-24T07:20:00Z", "2022-10-24T07:20:00Z", "2022-10-24T07:20:00Z", "2022-10-24T07:20:00Z", "2022-10-24T07:20:00Z", "2022-10-24T06:50:00Z", "2022-10-24T07:20:00Z", "2022-10-24T07:20:00Z", "2022-10-24T07:20:00Z", "2022-10-24T07:20:00Z", "2022-10-24T07:20:00Z", "2022-10-24T07:20:00Z", "2022-10-24T07:20:00Z", "2022-10-24T07:20:00Z", "2022-10-24T07:20:00Z", "2022-10-24T07:20:00Z", "2022-10-24T07:20:00Z", "2022-10-24T06:50:00Z", "2022-10-24T07:20:00Z", "2022-10-24T07:20:00Z", "2022-10-24T07:30:00Z", "2022-10-24T07:30:00Z", "2022-10-24T07:30:00Z", "2022-10-24T07:30:00Z", "2022-10-24T07:30:00Z", "2022-10-24T07:30:00Z", "2022-10-24T07:30:00Z", "2022-10-24T07:30:00Z", "2022-10-24T07:30:00Z", "2022-10-24T07:30:00Z", "2022-10-24T07:30:00Z", "2022-10-24T07:30:00Z", "2022-10-24T07:30:00Z", "2022-10-24T07:30:00Z", "2022-10-24T07:30:00Z", "2022-10-24T07:20:00Z", "2022-10-24T07:20:00Z", "2022-10-24T07:20:00Z", "2022-10-24T06:50:00Z", "2022-10-24T07:20:00Z", "2022-10-24T07:20:00Z", "2022-10-24T07:20:00Z", "2022-10-24T07:20:00Z", "2022-10-24T07:20:00Z", "2022-10-24T07:20:00Z", "2022-10-24T07:20:00Z", "2022-10-24T07:20:00Z", "2022-10-24T07:20:00Z", "2022-10-24T07:20:00Z", "2022-10-24T07:20:00Z", "2022-10-24T07:20:00Z", "2022-10-24T07:20:00Z", "2022-10-24T07:20:00Z", "2022-10-24T07:20:00Z", "2022-10-24T07:20:00Z", "2022-10-24T07:20:00Z", "2022-10-24T07:20:00Z", "2022-10-24T07:20:00Z", "2022-10-24T07:20:00Z", "2022-10-24T07:20:00Z", "2022-10-24T07:20:00Z", "2022-10-24T07:20:00Z", "2022-10-24T07:20:00Z", "2022-10-24T07:20:00Z", "2022-10-24T07:20:00Z", "2022-10-24T07:20:00Z", "2022-10-24T07:20:00Z", "2022-10-24T07:20:00Z", "2022-10-24T07:20:00Z", "2022-10-24T07:20:00Z", "2022-10-24T07:20:00Z", "2022-10-24T07:20:00Z", "2022-10-24T07:20:00Z", "2022-10-24T07:20:00Z", "2022-10-24T06:50:00Z", "2022-10-24T07:20:00Z", "2022-10-24T07:20:00Z", "2022-10-24T07:20:00Z", "2022-10-24T07:20:00Z", "2022-10-24T07:20:00Z", "2022-10-24T07:20:00Z", "2022-10-24T07:20:00Z", "2022-10-24T06:55:00Z", "2022-10-24T06:55:00Z", "2022-10-24T07:30:00Z", "2022-10-24T07:20:00Z", "2022-10-24T07:20:00Z", "2022-10-24T07:20:00Z", "2022-10-24T07:20:00Z", "2022-10-24T07:20:00Z", "2022-10-24T07:20:00Z", "2022-10-24T07:20:00Z", "2022-10-24T07:20:00Z", "2022-10-24T07:25:00Z", "2022-10-24T07:34:00Z", "2022-10-24T07:00:00Z", "2022-10-24T07:20:00Z", "2022-10-24T07:20:00Z", "2022-10-24T06:50:00Z", "2022-10-24T07:20:00Z", "2022-10-24T07:20:00Z", "2022-10-24T07:20:00Z", "2022-10-24T07:20:00Z", "2022-10-24T07:20:00Z", "2022-10-24T07:20:00Z", "2022-10-24T06:55:00Z", "2022-10-24T07:20:00Z", "2022-10-24T07:20:00Z", "2022-10-24T07:20:00Z", "2022-10-24T07:20:00Z", "2022-10-24T07:20:00Z", "2022-10-24T07:20:00Z", "2022-10-24T07:20:00Z", "2022-10-24T07:20:00Z", "2022-10-24T07:20:00Z", "2022-10-24T07:20:00Z", "2022-10-24T07:20:00Z", "2022-10-24T07:20:00Z", "2022-10-24T07:20:00Z", "2022-10-24T07:00:00Z", "2022-10-24T07:00:00Z", "2022-10-24T06:42:00Z", "2022-10-24T07:00:00Z", "2022-10-24T07:00:00Z", "2022-10-24T06:39:00Z", "2022-10-24T07:00:00Z", "2022-10-24T07:00:00Z", "2022-10-24T07:00:00Z", "2022-10-24T07:00:00Z", "2022-10-24T07:00:00Z", "2022-10-24T07:00:00Z", "2022-10-24T07:00:00Z", "2022-10-24T07:00:00Z", "2022-10-24T06:53:00Z", "2022-10-24T07:00:00Z", "2022-10-24T07:00:00Z", "2022-10-24T07:00:00Z", "2022-10-24T07:00:00Z", "2022-10-24T07:00:00Z", "2022-10-24T07:00:00Z", "2022-10-24T07:00:00Z", "2022-10-24T07:00:00Z", "2022-10-24T07:00:00Z", "2022-10-24T07:00:00Z", "2022-10-24T07:00:00Z", "2022-10-24T07:00:00Z", "2022-10-24T07:00:00Z", "2022-10-24T07:00:00Z", "2022-10-24T07:00:00Z", "2022-10-24T06:55:00Z", "2022-10-24T07:00:00Z", "2022-10-24T07:00:00Z", "2022-10-24T07:00:00Z", "2022-10-24T07:00:00Z", "2022-10-24T07:30:00Z", "2022-10-24T07:30:00Z", "2022-10-24T07:30:00Z", "2022-10-24T07:30:00Z", "2022-10-24T07:00:00Z", "2022-10-24T07:00:00Z", "2022-10-24T07:00:00Z", "2022-10-24T07:00:00Z", "2022-10-24T07:00:00Z", "2022-10-24T07:00:00Z", "2022-10-24T07:00:00Z", "2022-10-24T07:00:00Z", "2022-10-24T07:00:00Z", "2022-10-24T07:00:00Z", "2022-10-24T07:00:00Z", "2022-10-24T07:00:00Z", "2022-10-24T07:00:00Z", "2022-10-24T07:00:00Z", "2022-10-24T07:00:00Z", "2022-10-24T07:00:00Z", "2022-10-24T07:00:00Z", "2022-10-24T07:00:00Z", "2022-10-24T07:00:00Z", "2022-10-24T07:00:00Z", "2022-10-24T07:00:00Z", "2022-10-24T07:00:00Z", "2022-10-24T07:00:00Z", "2022-10-24T07:00:00Z", "2022-10-24T07:00:00Z", "2022-10-24T07:00:00Z", "2022-10-24T07:00:00Z", "2022-10-24T07:00:00Z", "2022-10-24T07:00:00Z", "2022-10-24T07:00:00Z", "2022-10-24T07:00:00Z", "2022-10-24T07:00:00Z", "2022-10-24T07:00:00Z", "2022-10-24T07:00:00Z", "2022-10-24T07:00:00Z", "2022-10-24T07:00:00Z", "2022-10-24T07:00:00Z", "2022-10-24T07:00:00Z", "2022-10-24T07:00:00Z", "2022-10-24T07:00:00Z", "2022-10-24T07:00:00Z", "2022-10-24T07:00:00Z", "2022-10-24T07:00:00Z", "2022-10-24T07:00:00Z", "2022-10-24T07:00:00Z", "2022-10-24T07:00:00Z", "2022-10-24T07:00:00Z", "2022-10-24T07:30:00Z", "2022-10-24T07:30:00Z", "2022-10-24T07:30:00Z", "2022-10-24T07:30:00Z", "2022-10-24T07:30:00Z", "2022-10-24T07:30:00Z", "2022-10-24T07:30:00Z", "2022-10-24T07:30:00Z", "2022-10-24T07:00:00Z", "2022-10-24T07:00:00Z", "2022-10-24T07:30:00Z", "2022-10-24T07:30:00Z", "2022-10-24T07:00:00Z", "2022-10-24T07:30:00Z", "2022-10-24T07:00:00Z", "2022-10-24T07:30:00Z", "2022-10-24T07:30:00Z", "2022-10-24T07:00:00Z", "2022-10-24T07:30:00Z", "2022-10-24T07:00:00Z", "2022-10-24T07:30:00Z", "2022-10-24T07:00:00Z", "2022-10-24T07:00:00Z", "2022-10-24T07:00:00Z", "2022-10-24T07:30:00Z", "2022-10-24T07:00:00Z", "2022-10-24T07:00:00Z", "2022-10-24T07:00:00Z", "2022-10-24T07:00:00Z", "2022-10-24T07:00:00Z", "2022-10-24T07:00:00Z", "2022-10-24T07:00:00Z", "2022-10-24T07:00:00Z", "2022-10-24T07:00:00Z", "2022-10-24T07:00:00Z", "2022-10-24T07:00:00Z", "2022-10-24T07:00:00Z", "2022-10-24T07:00:00Z", "2022-10-24T07:00:00Z", "2022-10-24T07:00:00Z", "2022-10-24T07:00:00Z", "2022-10-24T07:00:00Z", "2022-10-24T07:00:00Z", "2022-10-24T07:00:00Z", "2022-10-24T07:00:00Z", "2022-10-24T07:00:00Z", "2022-10-24T07:00:00Z", "2022-10-24T07:00:00Z", "2022-10-24T07:00:00Z", "2022-10-24T07:00:00Z", "2022-10-24T07:00:00Z", "2022-10-24T07:00:00Z", "2022-10-24T07:00:00Z", "2022-10-24T07:30:00Z", "2022-10-24T07:00:00Z", "2022-10-24T07:00:00Z", "2022-10-24T07:00:00Z", "2022-10-24T07:00:00Z", "2022-10-24T07:00:00Z", "2022-10-24T07:00:00Z", "2022-10-24T07:00:00Z", "2022-10-24T07:00:00Z", "2022-10-24T07:00:00Z", "2022-10-24T07:00:00Z", "2022-10-24T07:00:00Z", "2022-10-24T07:00:00Z", "2022-10-24T07:00:00Z", "2022-10-24T07:00:00Z", "2022-10-24T07:00:00Z", "2022-10-24T07:00:00Z", "2022-10-24T07:00:00Z", "2022-10-24T07:00:00Z", "2022-10-24T07:00:00Z", "2022-10-24T07:00:00Z", "2022-10-24T07:00:00Z", "2022-10-24T07:00:00Z", "2022-10-24T07:00:00Z", "2022-10-24T07:00:00Z", "2022-10-24T07:00:00Z", "2022-10-24T07:30:00Z", "2022-10-24T07:00:00Z", "2022-10-24T07:30:00Z", "2022-10-24T07:00:00Z", "2022-10-24T07:00:00Z", "2022-10-24T07:00:00Z", "2022-10-24T07:00:00Z", "2022-10-24T07:00:00Z", "2022-10-24T07:00:00Z", "2022-10-24T07:15:00Z", "2022-10-24T07:35:00Z", "2022-10-24T07:35:00Z", "2022-10-24T07:15:00Z", "2022-10-24T07:35:00Z", "2022-10-24T07:35:00Z", "2022-10-24T07:35:00Z", "2022-10-24T07:35:00Z", "2022-10-24T07:35:00Z", "2022-10-24T07:35:00Z", "2022-10-24T07:35:00Z", "2022-10-24T06:58:00Z", "2022-10-24T07:35:00Z", "2022-10-24T07:15:00Z", "2022-10-24T07:35:00Z", "2022-10-24T07:35:00Z", "2022-10-24T07:35:00Z", "2022-10-24T07:15:00Z", "2022-10-24T06:54:00Z", "2022-10-24T07:35:00Z", "2022-10-24T07:35:00Z", "2022-10-24T07:35:00Z", "2022-10-24T07:15:00Z", "2022-10-24T07:35:00Z", "2022-10-24T07:35:00Z", "2022-10-24T07:15:00Z", "2022-10-24T07:35:00Z", "2022-10-24T07:15:00Z", "2022-10-24T07:35:00Z", "2022-10-24T06:55:00Z", "2022-10-24T06:56:00Z", "2022-10-24T06:55:00Z", "2022-10-24T06:56:00Z", "2022-10-24T06:55:00Z", "2022-10-24T06:56:00Z", "2022-10-24T07:35:00Z", "2022-10-24T06:56:00Z", "2022-10-24T06:56:00Z", "2022-10-24T07:35:00Z", "2022-10-24T06:55:00Z", "2022-10-24T06:56:00Z", "2022-10-24T07:35:00Z", "2022-10-24T06:55:00Z", "2022-10-24T06:56:00Z", "2022-10-24T06:55:00Z", "2022-10-24T06:56:00Z", "2022-10-24T06:55:00Z", "2022-10-24T06:56:00Z", "2022-10-24T07:35:00Z", "2022-10-24T06:55:00Z", "2022-10-24T06:56:00Z", "2022-10-24T06:55:00Z", "2022-10-24T06:56:00Z", "2022-10-24T07:35:00Z", "2022-10-24T06:55:00Z", "2022-10-24T06:55:00Z", "2022-10-24T06:55:00Z", "2022-10-24T06:55:00Z", "2022-10-24T07:35:00Z", "2022-10-24T07:35:00Z", "2022-10-24T07:15:00Z", "2022-10-24T07:30:00Z", "2022-10-24T07:35:00Z", "2022-10-24T07:35:00Z", "2022-10-24T06:54:00Z", "2022-10-24T07:35:00Z", "2022-10-24T06:55:00Z", "2022-10-24T07:35:00Z", "2022-10-24T07:15:00Z", "2022-10-24T07:35:00Z", "2022-10-24T07:35:00Z", "2022-10-24T07:35:00Z", "2022-10-24T07:35:00Z", "2022-10-24T07:35:00Z", "2022-10-24T07:35:00Z", "2022-10-24T07:35:00Z", "2022-10-24T07:35:00Z", "2022-10-24T07:35:00Z", "2022-10-24T06:55:00Z", "2022-10-24T07:30:00Z", "2022-10-24T07:15:00Z", "2022-10-24T07:35:00Z", "2022-10-24T07:15:00Z", "2022-10-24T07:35:00Z", "2022-10-24T07:35:00Z", "2022-10-24T07:35:00Z", "2022-10-24T07:35:00Z", "2022-10-24T07:35:00Z", "2022-10-24T07:19:00Z", "2022-10-24T06:56:00Z", "2022-10-24T07:35:00Z", "2022-10-24T07:15:00Z", "2022-10-24T07:35:00Z", "2022-10-24T07:30:00Z", "2022-10-24T07:30:00Z", "2022-10-24T07:35:00Z", "2022-10-24T07:35:00Z", "2022-10-24T07:35:00Z", "2022-10-24T07:35:00Z", "2022-10-24T07:15:00Z", "2022-10-24T07:35:00Z", "2022-10-24T07:35:00Z", "2022-10-24T07:35:00Z", "2022-10-24T07:30:00Z", "2022-10-24T07:16:00Z", "2022-10-24T07:35:00Z", "2022-10-24T07:35:00Z", "2022-10-24T07:35:00Z", "2022-10-24T07:35:00Z", "2022-10-24T07:35:00Z", "2022-10-24T07:15:00Z", "2022-10-24T07:15:00Z", "2022-10-24T07:35:00Z", "2022-10-24T07:35:00Z", "2022-10-24T07:15:00Z", "2022-10-24T07:35:00Z", "2022-10-24T06:52:00Z", "2022-10-24T07:35:00Z", "2022-10-24T06:55:00Z", "2022-10-24T07:15:00Z", "2022-10-24T07:35:00Z", "2022-10-24T07:35:00Z", "2022-10-24T07:35:00Z", "2022-10-24T07:35:00Z", "2022-10-24T07:10:00Z", "2022-10-24T07:35:00Z", "2022-10-24T07:35:00Z", "2022-10-24T07:35:00Z", "2022-10-24T07:15:00Z", "2022-10-24T07:35:00Z", "2022-10-24T07:35:00Z", "2022-10-24T07:15:00Z", "2022-10-24T07:15:00Z", "2022-10-24T07:35:00Z", "2022-10-24T07:35:00Z", "2022-10-24T07:35:00Z", "2022-10-24T07:15:00Z", "2022-10-24T07:35:00Z", "2022-10-24T07:35:00Z", "2022-10-24T07:35:00Z", "2022-10-24T07:35:00Z", "2022-10-24T07:15:00Z", "2022-10-24T07:35:00Z", "2022-10-24T07:15:00Z", "2022-10-24T06:51:00Z", "2022-10-24T07:35:00Z", "2022-10-24T07:35:00Z", "2022-10-24T07:25:00Z", "2022-10-24T07:15:00Z", "2022-10-24T07:35:00Z", "2022-10-24T06:56:00Z", "2022-10-24T07:35:00Z", "2022-10-24T07:35:00Z", "2022-10-24T06:56:00Z", "2022-10-24T07:35:00Z", "2022-10-24T07:35:00Z", "2022-10-24T07:35:00Z", "2022-10-24T07:35:00Z", "2022-10-24T07:35:00Z", "2022-10-24T07:15:00Z", "2022-10-24T07:35:00Z", "2022-10-24T06:56:00Z", "2022-10-24T07:15:00Z", "2022-10-24T07:35:00Z", "2022-10-24T07:35:00Z", "2022-10-24T07:35:00Z", "2022-10-24T06:55:00Z", "2022-10-24T06:55:00Z", "2022-10-24T07:35:00Z", "2022-10-24T07:15:00Z", "2022-10-24T07:35:00Z", "2022-10-24T06:53:00Z", "2022-10-24T06:54:00Z", "2022-10-24T07:35:00Z", "2022-10-24T06:55:00Z", "2022-10-24T07:08:00Z", "2022-10-24T06:55:00Z", "2022-10-24T07:05:00Z", "2022-10-24T06:52:00Z", "2022-10-24T07:27:00Z", "2022-10-24T06:53:00Z", "2022-10-24T07:35:00Z", "2022-10-24T07:35:00Z", "2022-10-24T06:53:00Z", "2022-10-24T07:35:00Z", "2022-10-24T07:35:00Z", "2022-10-24T06:51:00Z", "2022-10-24T06:53:00Z", "2022-10-24T07:16:00Z", "2022-10-24T07:36:00Z", "2022-10-24T06:56:00Z", "2022-10-24T06:53:00Z", "2022-10-24T07:15:00Z", "2022-10-24T07:15:00Z", "2022-10-24T07:35:00Z", "2022-10-24T07:15:00Z", "2022-10-24T07:15:00Z", "2022-10-24T07:30:00Z", "2022-10-24T07:35:00Z", "2022-10-24T07:35:00Z", "2022-10-24T07:35:00Z", "2022-10-24T06:53:00Z", "2022-10-24T06:55:00Z", "2022-10-24T06:56:00Z", "2022-10-24T07:15:00Z", "2022-10-24T07:36:00Z", "2022-10-24T07:15:00Z", "2022-10-24T07:35:00Z", "2022-10-24T06:53:00Z", "2022-10-24T06:53:00Z", "2022-10-24T07:35:00Z", "2022-10-24T07:35:00Z", "2022-10-24T06:53:00Z", "2022-10-24T06:51:00Z", "2022-10-24T07:35:00Z", "2022-10-24T06:53:00Z", "2022-10-24T07:35:00Z", "2022-10-24T07:35:00Z", "2022-10-24T07:35:00Z", "2022-10-24T07:15:00Z", "2022-10-24T07:35:00Z", "2022-10-24T06:56:00Z", "2022-10-24T07:15:00Z", "2022-10-24T06:56:00Z", "2022-10-24T07:15:00Z", "2022-10-24T07:15:00Z", "2022-10-24T06:54:00Z", "2022-10-24T06:53:00Z", "2022-10-24T06:54:00Z", "2022-10-24T06:54:00Z", "2022-10-24T06:51:00Z", "2022-10-24T06:53:00Z", "2022-10-24T06:56:00Z", "2022-10-24T07:35:00Z", "2022-10-24T07:15:00Z", "2022-10-24T06:54:00Z", "2022-10-24T06:52:00Z", "2022-10-24T06:53:00Z", "2022-10-24T07:35:00Z", "2022-10-24T06:53:00Z", "2022-10-24T07:33:00Z", "2022-10-24T07:35:00Z", "2022-10-24T06:53:00Z", "2022-10-24T06:53:00Z", "2022-10-24T06:56:00Z", "2022-10-24T07:35:00Z", "2022-10-24T06:55:00Z", "2022-10-24T07:10:00Z", "2022-10-24T07:35:00Z", "2022-10-24T07:35:00Z", "2022-10-24T06:53:00Z", "2022-10-24T06:53:00Z", "2022-10-24T07:03:00Z", "2022-10-24T06:54:00Z", "2022-10-24T06:53:00Z", "2022-10-24T06:54:00Z", "2022-10-24T07:17:00Z", "2022-10-24T07:35:00Z", "2022-10-24T07:15:00Z", "2022-10-24T07:33:00Z", "2022-10-24T06:57:00Z", "2022-10-24T06:52:00Z", "2022-10-24T07:35:00Z", "2022-10-24T06:53:00Z", "2022-10-24T06:53:00Z", "2022-10-24T06:56:00Z", "2022-10-24T07:35:00Z", "2022-10-24T06:52:00Z", "2022-10-24T06:56:00Z", "2022-10-24T07:35:00Z", "2022-10-24T07:35:00Z", "2022-10-24T06:53:00Z", "2022-10-24T06:53:00Z", "2022-10-24T06:56:00Z", "2022-10-24T07:35:00Z", "2022-10-24T07:15:00Z", "2022-10-24T07:35:00Z", "2022-10-24T06:55:00Z", "2022-10-24T07:15:00Z", "2022-10-24T06:53:00Z", "2022-10-24T07:35:00Z", "2022-10-24T06:52:00Z", "2022-10-24T07:35:00Z", "2022-10-24T07:35:00Z", "2022-10-24T06:51:00Z", "2022-10-24T07:35:00Z", "2022-10-24T06:53:00Z", "2022-10-24T06:53:00Z", "2022-10-24T07:15:00Z", "2022-10-24T07:35:00Z", "2022-10-24T07:15:00Z", "2022-10-24T06:56:00Z", "2022-10-24T06:53:00Z", "2022-10-24T06:54:00Z", "2022-10-24T07:35:00Z", "2022-10-24T07:35:00Z", "2022-10-24T06:54:00Z", "2022-10-24T06:54:00Z", "2022-10-24T07:35:00Z", "2022-10-24T06:51:00Z", "2022-10-24T07:15:00Z", "2022-10-24T06:53:00Z", "2022-10-24T06:56:00Z", "2022-10-24T07:15:00Z", "2022-10-24T07:35:00Z", "2022-10-24T06:53:00Z", "2022-10-24T07:35:00Z", "2022-10-24T07:35:00Z", "2022-10-24T07:15:00Z", "2022-10-24T07:15:00Z", "2022-10-24T07:35:00Z", "2022-10-24T07:15:00Z", "2022-10-24T06:53:00Z", "2022-10-24T06:55:00Z", "2022-10-24T07:35:00Z", "2022-10-24T07:25:00Z", "2022-10-24T06:53:00Z", "2022-10-24T07:35:00Z", "2022-10-24T06:52:00Z", "2022-10-24T07:35:00Z", "2022-10-24T06:51:00Z", "2022-10-24T07:35:00Z", "2022-10-24T07:35:00Z", "2022-10-24T07:15:00Z", "2022-10-24T07:15:00Z", "2022-10-24T06:53:00Z", "2022-10-24T07:35:00Z", "2022-10-24T07:35:00Z", "2022-10-24T06:58:00Z", "2022-10-24T06:53:00Z", "2022-10-24T07:15:00Z", "2022-10-24T07:35:00Z", "2022-10-24T06:51:00Z", "2022-10-24T06:52:00Z", "2022-10-24T07:35:00Z", "2022-10-24T07:35:00Z", "2022-10-24T07:15:00Z", "2022-10-24T06:51:00Z", "2022-10-24T07:06:00Z", "2022-10-24T07:35:00Z", "2022-10-24T06:53:00Z", "2022-10-24T06:53:00Z", "2022-10-24T06:54:00Z", "2022-10-24T06:53:00Z", "2022-10-24T06:51:00Z", "2022-10-24T07:35:00Z", "2022-10-24T07:35:00Z", "2022-10-24T07:21:00Z", "2022-10-24T06:53:00Z", "2022-10-24T07:12:00Z", "2022-10-24T07:15:00Z", "2022-10-24T06:51:00Z", "2022-10-24T06:53:00Z", "2022-10-24T06:56:00Z", "2022-10-24T07:35:00Z", "2022-10-24T06:55:00Z", "2022-10-24T06:56:00Z", "2022-10-24T07:15:00Z", "2022-10-24T07:16:00Z", "2022-10-24T07:21:00Z", "2022-10-24T07:04:00Z", "2022-10-24T07:20:00Z", "2022-10-24T07:35:00Z", "2022-10-24T07:15:00Z", "2022-10-24T06:56:00Z", "2022-10-24T06:52:00Z", "2022-10-24T07:35:00Z", "2022-10-24T06:53:00Z", "2022-10-24T06:58:00Z", "2022-10-24T06:53:00Z", "2022-10-24T07:35:00Z", "2022-10-24T07:35:00Z", "2022-10-24T06:53:00Z", "2022-10-24T06:51:00Z", "2022-10-24T06:56:00Z", "2022-10-24T06:52:00Z", "2022-10-24T06:52:00Z", "2022-10-24T06:53:00Z", "2022-10-24T07:35:00Z", "2022-10-24T06:52:00Z", "2022-10-24T06:55:00Z", "2022-10-24T07:10:00Z", "2022-10-24T06:53:00Z", "2022-10-24T06:56:00Z", "2022-10-24T06:52:00Z", "2022-10-24T06:53:00Z", "2022-10-24T07:15:00Z", "2022-10-24T06:53:00Z", "2022-10-24T07:35:00Z", "2022-10-24T06:53:00Z", "2022-10-24T07:35:00Z", "2022-10-24T06:53:00Z", "2022-10-24T06:56:00Z", "2022-10-24T07:32:00Z", "2022-10-24T07:35:00Z", "2022-10-24T07:35:00Z", "2022-10-24T07:35:00Z", "2022-10-24T06:53:00Z", "2022-10-24T06:53:00Z", "2022-10-24T06:53:00Z", "2022-10-24T07:15:00Z", "2022-10-24T07:15:00Z", "2022-10-24T07:35:00Z", "2022-10-24T06:53:00Z", "2022-10-24T07:35:00Z", "2022-10-24T06:53:00Z", "2022-10-24T06:53:00Z", "2022-10-24T07:35:00Z", "2022-10-24T07:35:00Z", "2022-10-24T06:53:00Z", "2022-10-24T06:53:00Z", "2022-10-24T07:35:00Z", "2022-10-24T06:56:00Z", "2022-10-24T06:53:00Z", "2022-10-24T06:54:00Z", "2022-10-24T06:54:00Z", "2022-10-24T06:53:00Z", "2022-10-24T07:15:00Z", "2022-10-24T06:54:00Z", "2022-10-24T07:35:00Z", "2022-10-24T07:35:00Z", "2022-10-24T06:53:00Z", "2022-10-24T07:15:00Z", "2022-10-24T07:35:00Z", "2022-10-24T06:56:00Z", "2022-10-24T06:53:00Z", "2022-10-24T06:53:00Z", "2022-10-24T06:54:00Z", "2022-10-24T07:35:00Z", "2022-10-24T07:35:00Z", "2022-10-24T07:35:00Z", "2022-10-24T07:35:00Z", "2022-10-24T07:24:00Z", "2022-10-24T06:53:00Z", "2022-10-24T07:15:00Z", "2022-10-24T06:55:00Z", "2022-10-24T07:15:00Z", "2022-10-24T06:56:00Z", "2022-10-24T07:35:00Z", "2022-10-24T07:35:00Z", "2022-10-24T07:35:00Z", "2022-10-24T07:35:00Z", "2022-10-24T07:15:00Z", "2022-10-24T07:35:00Z", "2022-10-24T07:35:00Z", "2022-10-24T07:12:00Z", "2022-10-24T07:35:00Z", "2022-10-24T06:56:00Z", "2022-10-24T06:53:00Z", "2022-10-24T06:51:00Z", "2022-10-24T06:55:00Z", "2022-10-24T06:54:00Z", "2022-10-24T07:15:00Z", "2022-10-24T07:15:00Z", "2022-10-24T07:15:00Z", "2022-10-24T07:35:00Z", "2022-10-24T07:35:00Z", "2022-10-24T06:55:00Z", "2022-10-24T07:35:00Z", "2022-10-24T07:35:00Z", "2022-10-24T07:15:00Z", "2022-10-24T06:53:00Z", "2022-10-24T07:15:00Z", "2022-10-24T07:35:00Z", "2022-10-24T07:35:00Z", "2022-10-24T07:34:00Z", "2022-10-24T07:34:00Z", "2022-10-24T07:35:00Z", "2022-10-24T07:35:00Z", "2022-10-24T06:51:00Z", "2022-10-24T07:35:00Z", "2022-10-24T06:53:00Z", "2022-10-24T06:53:00Z", "2022-10-24T06:53:00Z", "2022-10-24T06:56:00Z", "2022-10-24T07:27:00Z", "2022-10-24T06:54:00Z", "2022-10-24T06:53:00Z", "2022-10-24T07:35:00Z", "2022-10-24T06:53:00Z", "2022-10-24T07:35:00Z", "2022-10-24T07:35:00Z", "2022-10-24T07:35:00Z", "2022-10-24T07:35:00Z", "2022-10-24T07:35:00Z", "2022-10-24T06:52:00Z", "2022-10-24T07:35:00Z", "2022-10-24T07:15:00Z", "2022-10-24T07:35:00Z", "2022-10-24T06:53:00Z", "2022-10-24T06:56:00Z", "2022-10-24T06:53:00Z", "2022-10-24T07:10:00Z", "2022-10-24T06:53:00Z", "2022-10-24T06:56:00Z", "2022-10-24T07:35:00Z", "2022-10-24T06:52:00Z", "2022-10-24T07:15:00Z", "2022-10-24T07:35:00Z", "2022-10-24T06:56:00Z", "2022-10-24T07:35:00Z", "2022-10-24T06:53:00Z", "2022-10-24T07:36:00Z", "2022-10-24T07:15:00Z", "2022-10-24T07:35:00Z", "2022-10-24T07:35:00Z", "2022-10-24T07:35:00Z", "2022-10-24T07:15:00Z", "2022-10-24T06:52:00Z", "2022-10-24T07:35:00Z", "2022-10-24T06:51:00Z", "2022-10-24T07:35:00Z", "2022-10-24T07:35:00Z", "2022-10-24T06:53:00Z", "2022-10-24T06:53:00Z", "2022-10-24T07:35:00Z", "2022-10-24T06:52:00Z", "2022-10-24T07:35:00Z", "2022-10-24T06:55:00Z", "2022-10-24T07:15:00Z", "2022-10-24T06:51:00Z", "2022-10-24T06:53:00Z", "2022-10-24T07:35:00Z", "2022-10-24T07:16:00Z", "2022-10-24T06:58:00Z", "2022-10-24T07:35:00Z", "2022-10-24T07:15:00Z", "2022-10-24T07:15:00Z", "2022-10-24T06:55:00Z", "2022-10-24T06:53:00Z", "2022-10-24T06:53:00Z", "2022-10-24T06:52:00Z", "2022-10-24T06:53:00Z", "2022-10-24T07:26:00Z", "2022-10-24T06:56:00Z", "2022-10-24T06:55:00Z", "2022-10-24T07:35:00Z", "2022-10-24T06:51:00Z", "2022-10-24T07:35:00Z", "2022-10-24T06:54:00Z", "2022-10-24T06:53:00Z", "2022-10-24T06:54:00Z", "2022-10-24T07:15:00Z", "2022-10-24T07:35:00Z", "2022-10-24T07:35:00Z", "2022-10-24T06:53:00Z", "2022-10-24T06:53:00Z", "2022-10-24T07:35:00Z", "2022-10-24T07:35:00Z", "2022-10-24T07:15:00Z", "2022-10-24T07:15:00Z", "2022-10-24T07:10:00Z", "2022-10-24T07:35:00Z", "2022-10-24T07:35:00Z", "2022-10-24T06:47:00Z", "2022-10-24T07:35:00Z", "2022-10-24T07:18:00Z", "2022-10-24T06:53:00Z", "2022-10-24T06:53:00Z", "2022-10-24T06:59:00Z", "2022-10-24T06:53:00Z", "2022-10-24T06:53:00Z", "2022-10-24T06:54:00Z", "2022-10-24T07:35:00Z", "2022-10-24T06:51:00Z", "2022-10-24T06:53:00Z", "2022-10-24T07:35:00Z", "2022-10-24T06:53:00Z", "2022-10-24T07:04:00Z", "2022-10-24T07:15:00Z", "2022-10-24T07:35:00Z", "2022-10-24T07:35:00Z", "2022-10-24T06:53:00Z", "2022-10-24T07:15:00Z", "2022-10-24T07:15:00Z", "2022-10-24T07:08:00Z", "2022-10-24T07:35:00Z", "2022-10-24T06:52:00Z", "2022-10-24T07:35:00Z", "2022-10-24T06:56:00Z", "2022-10-24T06:56:00Z", "2022-10-24T07:21:00Z", "2022-10-24T07:35:00Z", "2022-10-24T07:35:00Z", "2022-10-24T07:35:00Z", "2022-10-24T07:35:00Z", "2022-10-24T06:56:00Z", "2022-10-24T07:00:00Z", "2022-10-24T07:15:00Z", "2022-10-24T07:35:00Z", "2022-10-24T06:53:00Z", "2022-10-24T07:35:00Z", "2022-10-24T07:35:00Z", "2022-10-24T07:25:00Z", "2022-10-24T07:04:00Z", "2022-10-24T07:13:00Z", "2022-10-24T06:53:00Z", "2022-10-24T07:35:00Z", "2022-10-24T07:15:00Z", "2022-10-24T06:56:00Z", "2022-10-24T07:35:00Z", "2022-10-24T07:35:00Z", "2022-10-24T07:35:00Z", "2022-10-24T07:35:00Z", "2022-10-24T07:35:00Z", "2022-10-24T07:35:00Z", "2022-10-24T07:15:00Z", "2022-10-24T07:35:00Z", "2022-10-24T07:30:00Z", "2022-10-24T06:53:00Z", "2022-10-24T06:50:00Z", "2022-10-24T06:53:00Z", "2022-10-24T06:53:00Z", "2022-10-24T06:51:00Z", "2022-10-24T06:56:00Z", "2022-10-24T07:15:00Z", "2022-10-24T06:53:00Z", "2022-10-24T07:12:00Z", "2022-10-24T07:15:00Z", "2022-10-24T06:53:00Z", "2022-10-24T07:15:00Z", "2022-10-24T06:52:00Z", "2022-10-24T07:13:00Z", "2022-10-24T06:54:00Z", "2022-10-24T07:15:00Z", "2022-10-24T07:35:00Z", "2022-10-24T06:53:00Z", "2022-10-24T06:53:00Z", "2022-10-24T06:53:00Z", "2022-10-24T06:53:00Z", "2022-10-24T06:53:00Z", "2022-10-24T06:53:00Z", "2022-10-24T06:53:00Z", "2022-10-24T06:53:00Z", "2022-10-24T06:53:00Z", "2022-10-24T06:56:00Z", "2022-10-24T06:56:00Z", "2022-10-24T07:15:00Z", "2022-10-24T06:53:00Z", "2022-10-24T07:15:00Z", "2022-10-24T07:35:00Z", "2022-10-24T06:55:00Z", "2022-10-24T07:36:00Z", "2022-10-24T07:35:00Z", "2022-10-24T06:53:00Z", "2022-10-24T07:35:00Z", "2022-10-24T06:53:00Z", "2022-10-24T07:35:00Z", "2022-10-24T07:16:00Z", "2022-10-24T06:54:00Z", "2022-10-24T06:53:00Z", "2022-10-24T06:53:00Z", "2022-10-24T07:15:00Z", "2022-10-24T07:35:00Z", "2022-10-24T06:53:00Z", "2022-10-24T07:35:00Z", "2022-10-24T07:15:00Z", "2022-10-24T07:33:00Z", "2022-10-24T06:52:00Z", "2022-10-24T07:15:00Z", "2022-10-24T07:15:00Z", "2022-10-24T06:53:00Z", "2022-10-24T07:35:00Z", "2022-10-24T07:35:00Z", "2022-10-24T06:53:00Z", "2022-10-24T06:53:00Z", "2022-10-24T07:35:00Z", "2022-10-24T06:54:00Z", "2022-10-24T06:54:00Z", "2022-10-24T07:35:00Z", "2022-10-24T07:35:00Z", "2022-10-24T07:12:00Z", "2022-10-24T06:53:00Z", "2022-10-24T06:53:00Z", "2022-10-24T06:53:00Z", "2022-10-24T07:35:00Z", "2022-10-24T07:14:00Z", "2022-10-24T07:35:00Z", "2022-10-24T07:35:00Z", "2022-10-24T06:53:00Z", "2022-10-24T07:15:00Z", "2022-10-24T07:10:00Z", "2022-10-24T07:05:00Z", "2022-10-24T06:52:00Z", "2022-10-24T07:15:00Z", "2022-10-24T07:33:00Z", "2022-10-24T06:53:00Z", "2022-10-24T07:35:00Z", "2022-10-24T06:53:00Z", "2022-10-24T06:56:00Z", "2022-10-24T07:10:00Z", "2022-10-24T06:53:00Z", "2022-10-24T07:35:00Z", "2022-10-24T07:35:00Z", "2022-10-24T06:54:00Z", "2022-10-24T06:56:00Z", "2022-10-24T06:55:00Z", "2022-10-24T07:35:00Z", "2022-10-24T07:35:00Z", "2022-10-24T07:35:00Z", "2022-10-24T07:15:00Z", "2022-10-24T07:15:00Z", "2022-10-24T07:15:00Z", "2022-10-24T07:15:00Z", "2022-10-24T07:35:00Z", "2022-10-24T07:10:00Z", "2022-10-24T06:56:00Z", "2022-10-24T06:55:00Z", "2022-10-24T06:56:00Z", "2022-10-24T07:35:00Z", "2022-10-24T07:35:00Z", "2022-10-24T07:15:00Z", "2022-10-24T06:54:00Z", "2022-10-24T06:53:00Z", "2022-10-24T07:35:00Z", "2022-10-24T07:35:00Z", "2022-10-24T07:35:00Z", "2022-10-24T07:35:00Z", "2022-10-24T07:35:00Z", "2022-10-24T06:55:00Z", "2022-10-24T06:56:00Z", "2022-10-24T06:56:00Z", "2022-10-24T06:53:00Z", "2022-10-24T06:53:00Z", "2022-10-24T06:54:00Z", "2022-10-24T07:35:00Z", "2022-10-24T07:35:00Z", "2022-10-24T06:56:00Z", "2022-10-24T07:15:00Z", "2022-10-24T07:35:00Z", "2022-10-24T07:15:00Z", "2022-10-24T07:35:00Z", "2022-10-24T06:56:00Z", "2022-10-24T07:35:00Z", "2022-10-24T07:35:00Z", "2022-10-24T06:51:00Z", "2022-10-24T06:56:00Z", "2022-10-24T06:56:00Z", "2022-10-24T07:35:00Z", "2022-10-24T06:56:00Z", "2022-10-24T07:35:00Z", "2022-10-24T06:53:00Z", "2022-10-24T07:35:00Z", "2022-10-24T06:53:00Z", "2022-10-24T06:53:00Z", "2022-10-24T07:35:00Z", "2022-10-24T06:51:00Z", "2022-10-24T06:53:00Z", "2022-10-24T06:56:00Z", "2022-10-24T07:35:00Z", "2022-10-24T06:53:00Z", "2022-10-24T07:35:00Z", "2022-10-24T06:55:00Z", "2022-10-24T06:56:00Z", "2022-10-24T06:53:00Z", "2022-10-24T06:53:00Z", "2022-10-24T07:35:00Z", "2022-10-24T06:53:00Z", "2022-10-24T06:51:00Z", "2022-10-24T07:35:00Z", "2022-10-24T07:35:00Z", "2022-10-24T06:56:00Z", "2022-10-24T06:53:00Z", "2022-10-24T07:23:00Z", "2022-10-24T06:52:00Z", "2022-10-24T07:35:00Z", "2022-10-24T07:35:00Z", "2022-10-24T07:33:00Z", "2022-10-24T07:15:00Z", "2022-10-24T06:58:00Z", "2022-10-24T06:54:00Z", "2022-10-24T07:21:00Z", "2022-10-24T07:35:00Z", "2022-10-24T06:54:00Z", "2022-10-24T06:53:00Z", "2022-10-24T06:53:00Z", "2022-10-24T06:56:00Z", "2022-10-24T06:54:00Z", "2022-10-24T07:00:00Z", "2022-10-24T07:35:00Z", "2022-10-24T06:53:00Z", "2022-10-24T07:35:00Z", "2022-10-24T06:53:00Z", "2022-10-24T07:35:00Z", "2022-10-24T07:35:00Z", "2022-10-24T07:35:00Z", "2022-10-24T07:35:00Z", "2022-10-24T07:35:00Z", "2022-10-24T07:35:00Z", "2022-10-24T07:35:00Z", "2022-10-24T07:35:00Z", "2022-10-24T07:35:00Z", "2022-10-24T07:35:00Z", "2022-10-24T06:55:00Z", "2022-10-24T06:56:00Z", "2022-10-24T07:01:00Z", "2022-10-24T06:53:00Z", "2022-10-24T07:31:00Z", "2022-10-24T07:30:00Z", "2022-10-24T07:35:00Z", "2022-10-24T06:56:00Z", "2022-10-24T06:53:00Z", "2022-10-24T06:55:00Z", "2022-10-24T07:20:00Z", "2022-10-24T06:53:00Z", "2022-10-24T07:35:00Z", "2022-10-24T06:53:00Z", "2022-10-24T07:15:00Z", "2022-10-24T07:35:00Z", "2022-10-24T06:58:00Z", "2022-10-24T07:35:00Z", "2022-10-24T06:53:00Z", "2022-10-24T07:15:00Z", "2022-10-24T07:35:00Z", "2022-10-24T06:55:00Z", "2022-10-24T06:53:00Z", "2022-10-24T07:35:00Z", "2022-10-24T06:54:00Z", "2022-10-24T07:35:00Z", "2022-10-24T07:35:00Z", "2022-10-24T07:35:00Z", "2022-10-24T06:53:00Z", "2022-10-24T07:23:00Z", "2022-10-24T06:54:00Z", "2022-10-24T07:35:00Z", "2022-10-24T06:52:00Z", "2022-10-24T07:35:00Z", "2022-10-24T06:56:00Z", "2022-10-24T07:35:00Z", "2022-10-24T07:15:00Z", "2022-10-24T07:35:00Z", "2022-10-24T06:53:00Z", "2022-10-24T06:57:00Z", "2022-10-24T06:53:00Z", "2022-10-24T06:53:00Z", "2022-10-24T06:56:00Z", "2022-10-24T07:35:00Z", "2022-10-24T07:19:00Z", "2022-10-24T07:15:00Z", "2022-10-24T06:53:00Z", "2022-10-24T06:53:00Z", "2022-10-24T06:53:00Z", "2022-10-24T06:56:00Z", "2022-10-24T06:53:00Z", "2022-10-24T07:35:00Z", "2022-10-24T06:56:00Z", "2022-10-24T06:53:00Z", "2022-10-24T07:30:00Z", "2022-10-24T07:30:00Z", "2022-10-24T07:33:00Z", "2022-10-24T07:35:00Z", "2022-10-24T06:53:00Z", "2022-10-24T07:15:00Z", "2022-10-24T07:15:00Z", "2022-10-24T06:53:00Z", "2022-10-24T07:35:00Z", "2022-10-24T06:55:00Z", "2022-10-24T06:56:00Z", "2022-10-24T07:35:00Z", "2022-10-24T06:56:00Z", "2022-10-24T07:35:00Z", "2022-10-24T06:55:00Z", "2022-10-24T07:15:00Z", "2022-10-24T06:53:00Z", "2022-10-24T07:35:00Z", "2022-10-24T06:53:00Z", "2022-10-24T07:35:00Z", "2022-10-24T06:55:00Z", "2022-10-24T07:35:00Z", "2022-10-24T06:53:00Z", "2022-10-24T06:53:00Z", "2022-10-24T06:53:00Z", "2022-10-24T06:53:00Z", "2022-10-24T07:35:00Z", "2022-10-24T06:54:00Z", "2022-10-24T07:35:00Z", "2022-10-24T07:35:00Z", "2022-10-24T06:53:00Z", "2022-10-24T07:35:00Z", "2022-10-24T07:15:00Z", "2022-10-24T06:53:00Z", "2022-10-24T07:15:00Z", "2022-10-24T07:30:00Z", "2022-10-24T07:15:00Z", "2022-10-24T07:15:00Z", "2022-10-24T06:53:00Z", "2022-10-24T07:15:00Z", "2022-10-24T06:56:00Z", "2022-10-24T07:35:00Z", "2022-10-24T06:53:00Z", "2022-10-24T06:56:00Z", "2022-10-24T07:35:00Z", "2022-10-24T06:56:00Z", "2022-10-24T07:15:00Z", "2022-10-24T07:30:00Z", "2022-10-24T06:53:00Z", "2022-10-24T07:15:00Z", "2022-10-24T06:54:00Z", "2022-10-24T07:15:00Z", "2022-10-24T06:54:00Z", "2022-10-24T07:35:00Z", "2022-10-24T07:35:00Z", "2022-10-24T07:35:00Z", "2022-10-24T06:51:00Z", "2022-10-24T07:27:00Z", "2022-10-24T06:54:00Z", "2022-10-24T06:53:00Z", "2022-10-24T07:15:00Z", "2022-10-24T07:18:00Z", "2022-10-24T06:53:00Z", "2022-10-24T06:55:00Z", "2022-10-24T06:53:00Z", "2022-10-24T06:53:00Z", "2022-10-24T07:35:00Z", "2022-10-24T07:15:00Z", "2022-10-24T07:07:00Z", "2022-10-24T07:35:00Z", "2022-10-24T07:15:00Z", "2022-10-24T06:53:00Z", "2022-10-24T07:35:00Z", "2022-10-24T07:15:00Z", "2022-10-24T07:35:00Z", "2022-10-24T07:15:00Z", "2022-10-24T06:53:00Z", "2022-10-24T07:00:00Z", "2022-10-24T06:53:00Z", "2022-10-24T07:35:00Z", "2022-10-24T06:53:00Z", "2022-10-24T06:53:00Z", "2022-10-24T07:15:00Z", "2022-10-24T06:53:00Z", "2022-10-24T06:53:00Z", "2022-10-24T06:52:00Z", "2022-10-24T07:15:00Z", "2022-10-24T07:35:00Z", "2022-10-24T07:35:00Z", "2022-10-24T07:35:00Z", "2022-10-24T06:53:00Z", "2022-10-24T06:56:00Z", "2022-10-24T07:15:00Z", "2022-10-24T07:15:00Z", "2022-10-24T07:35:00Z", "2022-10-24T06:56:00Z", "2022-10-24T07:35:00Z", "2022-10-24T06:53:00Z", "2022-10-24T06:53:00Z", "2022-10-24T07:17:00Z", "2022-10-24T07:30:00Z", "2022-10-24T07:15:00Z", "2022-10-24T06:58:00Z", "2022-10-24T07:35:00Z", "2022-10-24T07:35:00Z", "2022-10-24T06:55:00Z", "2022-10-24T07:35:00Z", "2022-10-24T07:27:00Z", "2022-10-24T07:19:00Z", "2022-10-24T06:53:00Z", "2022-10-24T06:56:00Z", "2022-10-24T06:55:00Z", "2022-10-24T06:53:00Z", "2022-10-24T07:35:00Z", "2022-10-24T07:35:00Z", "2022-10-24T06:53:00Z", "2022-10-24T07:35:00Z", "2022-10-24T06:55:00Z", "2022-10-24T06:53:00Z", "2022-10-24T06:54:00Z", "2022-10-24T06:53:00Z", "2022-10-24T07:33:00Z", "2022-10-24T06:53:00Z", "2022-10-24T06:56:00Z", "2022-10-24T06:56:00Z", "2022-10-24T06:56:00Z", "2022-10-24T06:53:00Z", "2022-10-24T07:20:00Z", "2022-10-24T06:55:00Z", "2022-10-24T06:53:00Z", "2022-10-24T06:53:00Z", "2022-10-24T06:56:00Z", "2022-10-24T07:15:00Z", "2022-10-24T07:30:00Z", "2022-10-24T07:35:00Z", "2022-10-24T06:53:00Z", "2022-10-24T07:35:00Z", "2022-10-24T07:35:00Z", "2022-10-24T06:55:00Z", "2022-10-24T06:56:00Z", "2022-10-24T07:35:00Z", "2022-10-24T07:35:00Z", "2022-10-24T07:35:00Z", "2022-10-24T07:35:00Z", "2022-10-24T07:35:00Z", "2022-10-24T06:53:00Z", "2022-10-24T07:15:00Z", "2022-10-24T07:20:00Z", "2022-10-24T07:35:00Z", "2022-10-24T07:35:00Z", "2022-10-24T07:35:00Z", "2022-10-24T07:35:00Z", "2022-10-24T07:35:00Z", "2022-10-24T06:53:00Z", "2022-10-24T06:53:00Z", "2022-10-24T07:35:00Z", "2022-10-24T06:53:00Z", "2022-10-24T07:10:00Z", "2022-10-24T07:35:00Z", "2022-10-24T07:35:00Z", "2022-10-24T07:15:00Z", "2022-10-24T07:23:00Z", "2022-10-24T07:15:00Z", "2022-10-24T07:15:00Z", "2022-10-24T06:56:00Z", "2022-10-24T07:13:00Z", "2022-10-24T07:25:00Z", "2022-10-24T07:35:00Z", "2022-10-24T07:27:00Z", "2022-10-24T07:15:00Z", "2022-10-24T06:55:00Z", "2022-10-24T06:56:00Z", "2022-10-24T06:53:00Z", "2022-10-24T06:55:00Z", "2022-10-24T07:35:00Z", "2022-10-24T07:35:00Z", "2022-10-24T06:53:00Z", "2022-10-24T07:35:00Z", "2022-10-24T07:15:00Z", "2022-10-24T06:53:00Z", "2022-10-24T07:35:00Z", "2022-10-24T07:15:00Z", "2022-10-24T07:21:00Z", "2022-10-24T06:52:00Z", "2022-10-24T06:55:00Z", "2022-10-24T07:15:00Z", "2022-10-24T06:53:00Z", "2022-10-24T07:35:00Z", "2022-10-24T06:53:00Z", "2022-10-24T06:53:00Z", "2022-10-24T06:53:00Z", "2022-10-24T06:53:00Z", "2022-10-24T07:35:00Z", "2022-10-24T06:53:00Z", "2022-10-24T06:53:00Z", "2022-10-24T06:53:00Z", "2022-10-24T06:55:00Z", "2022-10-24T07:35:00Z", "2022-10-24T06:55:00Z", "2022-10-24T07:35:00Z", "2022-10-24T07:35:00Z", "2022-10-24T07:15:00Z", "2022-10-24T06:56:00Z", "2022-10-24T06:56:00Z", "2022-10-24T07:15:00Z", "2022-10-24T07:35:00Z", "2022-10-24T07:35:00Z", "2022-10-24T07:35:00Z", "2022-10-24T06:55:00Z", "2022-10-24T06:55:00Z", "2022-10-24T06:53:00Z", "2022-10-24T06:53:00Z", "2022-10-24T06:56:00Z", "2022-10-24T07:15:00Z", "2022-10-24T07:35:00Z", "2022-10-24T07:35:00Z", "2022-10-24T06:53:00Z", "2022-10-24T07:35:00Z", "2022-10-24T07:35:00Z", "2022-10-24T07:35:00Z", "2022-10-24T06:53:00Z", "2022-10-24T07:35:00Z", "2022-10-24T06:52:00Z", "2022-10-24T06:53:00Z", "2022-10-24T06:55:00Z", "2022-10-24T07:35:00Z", "2022-10-24T07:35:00Z", "2022-10-24T07:35:00Z", "2022-10-24T06:51:00Z", "2022-10-24T07:10:00Z", "2022-10-24T06:53:00Z", "2022-10-24T07:35:00Z", "2022-10-24T06:55:00Z", "2022-10-24T06:53:00Z", "2022-10-24T06:53:00Z", "2022-10-24T06:51:00Z", "2022-10-24T06:53:00Z", "2022-10-24T06:53:00Z", "2022-10-24T07:15:00Z", "2022-10-24T06:52:00Z", "2022-10-24T07:15:00Z", "2022-10-24T06:53:00Z", "2022-10-24T06:53:00Z", "2022-10-24T07:35:00Z", "2022-10-24T06:54:00Z", "2022-10-24T06:53:00Z", "2022-10-24T06:56:00Z", "2022-10-24T07:35:00Z", "2022-10-24T07:35:00Z", "2022-10-24T06:56:00Z", "2022-10-24T07:20:00Z", "2022-10-24T07:29:00Z", "2022-10-24T06:56:00Z", "2022-10-24T07:35:00Z", "2022-10-24T07:35:00Z", "2022-10-24T07:35:00Z", "2022-10-24T07:35:00Z", "2022-10-24T07:35:00Z", "2022-10-24T07:15:00Z", "2022-10-24T07:35:00Z", "2022-10-24T06:53:00Z", "2022-10-24T07:35:00Z", "2022-10-24T07:35:00Z", "2022-10-24T07:15:00Z", "2022-10-24T07:35:00Z", "2022-10-24T07:35:00Z", "2022-10-24T07:35:00Z", "2022-10-24T07:15:00Z", "2022-10-24T07:15:00Z", "2022-10-24T07:26:00Z", "2022-10-24T07:14:00Z", "2022-10-24T06:53:00Z", "2022-10-24T06:53:00Z", "2022-10-24T07:15:00Z", "2022-10-24T07:15:00Z", "2022-10-24T07:13:00Z", "2022-10-24T07:19:00Z", "2022-10-24T06:53:00Z", "2022-10-24T07:35:00Z", "2022-10-24T07:15:00Z", "2022-10-24T06:52:00Z", "2022-10-24T07:35:00Z", "2022-10-24T07:35:00Z", "2022-10-24T07:35:00Z", "2022-10-24T06:51:00Z", "2022-10-24T07:35:00Z", "2022-10-24T07:15:00Z", "2022-10-24T07:35:00Z", "2022-10-24T06:52:00Z", "2022-10-24T07:15:00Z", "2022-10-24T07:15:00Z", "2022-10-24T07:15:00Z", "2022-10-24T07:35:00Z", "2022-10-24T06:56:00Z", "2022-10-24T06:51:00Z", "2022-10-24T07:23:00Z", "2022-10-24T06:54:00Z", "2022-10-24T06:53:00Z", "2022-10-24T07:35:00Z", "2022-10-24T06:54:00Z", "2022-10-24T06:54:00Z", "2022-10-24T07:35:00Z", "2022-10-24T07:35:00Z", "2022-10-24T06:53:00Z", "2022-10-24T07:23:00Z", "2022-10-24T06:55:00Z", "2022-10-24T06:54:00Z", "2022-10-24T06:56:00Z", "2022-10-24T07:35:00Z", "2022-10-24T06:52:00Z", "2022-10-24T07:35:00Z", "2022-10-24T07:36:00Z", "2022-10-24T06:55:00Z", "2022-10-24T07:35:00Z", "2022-10-24T06:56:00Z", "2022-10-24T07:35:00Z", "2022-10-24T06:56:00Z", "2022-10-24T07:35:00Z", "2022-10-24T06:54:00Z", "2022-10-24T06:56:00Z", "2022-10-24T06:53:00Z", "2022-10-24T07:35:00Z", "2022-10-24T07:35:00Z", "2022-10-24T06:56:00Z", "2022-10-24T06:53:00Z", "2022-10-24T07:35:00Z", "2022-10-24T06:53:00Z", "2022-10-24T07:35:00Z", "2022-10-24T07:15:00Z", "2022-10-24T06:54:00Z", "2022-10-24T06:56:00Z", "2022-10-24T06:54:00Z", "2022-10-24T07:35:00Z", "2022-10-24T07:15:00Z", "2022-10-24T07:35:00Z", "2022-10-24T06:56:00Z", "2022-10-24T06:53:00Z", "2022-10-24T07:35:00Z", "2022-10-24T06:51:00Z", "2022-10-24T07:35:00Z", "2022-10-24T06:48:00Z", "2022-10-24T06:53:00Z", "2022-10-24T06:53:00Z", "2022-10-24T07:15:00Z", "2022-10-24T06:51:00Z", "2022-10-24T07:35:00Z", "2022-10-24T07:35:00Z", "2022-10-24T07:35:00Z", "2022-10-24T06:56:00Z", "2022-10-24T07:15:00Z", "2022-10-24T07:35:00Z", "2022-10-24T06:53:00Z", "2022-10-24T06:53:00Z", "2022-10-24T07:35:00Z", "2022-10-24T06:56:00Z", "2022-10-24T07:35:00Z", "2022-10-24T07:15:00Z", "2022-10-24T07:35:00Z", "2022-10-24T07:35:00Z", "2022-10-24T07:08:00Z", "2022-10-24T07:35:00Z", "2022-10-24T07:20:00Z", "2022-10-24T07:35:00Z", "2022-10-24T06:54:00Z", "2022-10-24T07:15:00Z", "2022-10-24T07:35:00Z", "2022-10-24T07:35:00Z", "2022-10-24T07:15:00Z", "2022-10-24T07:15:00Z", "2022-10-24T07:15:00Z", "2022-10-24T07:35:00Z", "2022-10-24T07:35:00Z", "2022-10-24T07:35:00Z", "2022-10-24T07:35:00Z", "2022-10-24T06:56:00Z", "2022-10-24T07:35:00Z", "2022-10-24T07:35:00Z", "2022-10-24T07:35:00Z", "2022-10-24T07:35:00Z", "2022-10-24T07:15:00Z", "2022-10-24T07:35:00Z", "2022-10-24T07:15:00Z", "2022-10-24T07:35:00Z", "2022-10-24T07:35:00Z", "2022-10-24T06:56:00Z", "2022-10-24T07:35:00Z", "2022-10-24T07:35:00Z", "2022-10-24T07:35:00Z", "2022-10-24T07:35:00Z", "2022-10-24T07:35:00Z", "2022-10-24T06:53:00Z", "2022-10-24T06:54:00Z", "2022-10-24T07:35:00Z", "2022-10-24T07:15:00Z", "2022-10-24T06:53:00Z", "2022-10-24T07:25:00Z", "2022-10-24T06:56:00Z", "2022-10-24T06:53:00Z", "2022-10-24T06:53:00Z", "2022-10-24T06:53:00Z", "2022-10-24T07:35:00Z", "2022-10-24T06:53:00Z", "2022-10-24T06:56:00Z", "2022-10-24T07:35:00Z", "2022-10-24T06:56:00Z", "2022-10-24T06:53:00Z", "2022-10-24T07:35:00Z", "2022-10-24T06:53:00Z", "2022-10-24T06:56:00Z", "2022-10-24T06:55:00Z", "2022-10-24T07:15:00Z", "2022-10-24T07:35:00Z", "2022-10-24T07:35:00Z", "2022-10-24T07:33:00Z", "2022-10-24T06:53:00Z", "2022-10-24T06:56:00Z", "2022-10-24T06:54:00Z", "2022-10-24T07:31:00Z", "2022-10-24T06:53:00Z", "2022-10-24T06:53:00Z", "2022-10-24T06:51:00Z", "2022-10-24T06:53:00Z", "2022-10-24T07:15:00Z", "2022-10-24T06:56:00Z", "2022-10-24T06:55:00Z", "2022-10-24T06:51:00Z", "2022-10-24T07:35:00Z", "2022-10-24T07:35:00Z", "2022-10-24T06:53:00Z", "2022-10-24T06:55:00Z", "2022-10-24T06:53:00Z", "2022-10-24T07:35:00Z", "2022-10-24T06:55:00Z", "2022-10-24T06:53:00Z", "2022-10-24T07:35:00Z", "2022-10-24T07:35:00Z", "2022-10-24T07:35:00Z", "2022-10-24T06:53:00Z", "2022-10-24T06:55:00Z", "2022-10-24T07:15:00Z", "2022-10-24T06:53:00Z", "2022-10-24T07:15:00Z", "2022-10-24T06:53:00Z", "2022-10-24T07:35:00Z", "2022-10-24T07:35:00Z", "2022-10-24T07:13:00Z", "2022-10-24T07:21:00Z", "2022-10-24T07:35:00Z", "2022-10-24T07:35:00Z", "2022-10-24T07:35:00Z", "2022-10-24T07:35:00Z", "2022-10-24T07:20:00Z", "2022-10-24T07:33:00Z", "2022-10-24T06:53:00Z", "2022-10-24T07:15:00Z", "2022-10-24T06:55:00Z", "2022-10-24T07:15:00Z", "2022-10-24T06:53:00Z", "2022-10-24T06:53:00Z", "2022-10-24T06:56:00Z", "2022-10-24T06:53:00Z", "2022-10-24T07:35:00Z", "2022-10-24T06:56:00Z", "2022-10-24T06:55:00Z", "2022-10-24T07:15:00Z", "2022-10-24T07:35:00Z", "2022-10-24T07:35:00Z", "2022-10-24T07:35:00Z", "2022-10-24T06:53:00Z", "2022-10-24T06:55:00Z", "2022-10-24T06:55:00Z", "2022-10-24T06:55:00Z", "2022-10-24T07:35:00Z", "2022-10-24T07:35:00Z", "2022-10-24T06:55:00Z", "2022-10-24T07:35:00Z", "2022-10-24T06:53:00Z", "2022-10-24T07:35:00Z", "2022-10-24T07:35:00Z", "2022-10-24T07:15:00Z", "2022-10-24T07:35:00Z", "2022-10-24T06:53:00Z", "2022-10-24T06:53:00Z", "2022-10-24T07:35:00Z", "2022-10-24T06:53:00Z", "2022-10-24T07:35:00Z", "2022-10-24T06:53:00Z", "2022-10-24T07:35:00Z", "2022-10-24T07:15:00Z", "2022-10-24T06:52:00Z", "2022-10-24T06:53:00Z", "2022-10-24T07:03:00Z", "2022-10-24T06:56:00Z", "2022-10-24T07:28:00Z", "2022-10-24T06:53:00Z", "2022-10-24T07:35:00Z", "2022-10-24T07:15:00Z", "2022-10-24T06:53:00Z", "2022-10-24T06:53:00Z", "2022-10-24T07:35:00Z", "2022-10-24T06:54:00Z", "2022-10-24T07:35:00Z", "2022-10-24T07:35:00Z", "2022-10-24T06:56:00Z", "2022-10-24T07:15:00Z", "2022-10-24T07:35:00Z", "2022-10-24T07:35:00Z", "2022-10-24T07:35:00Z", "2022-10-24T07:35:00Z", "2022-10-24T06:56:00Z", "2022-10-24T07:35:00Z", "2022-10-24T07:35:00Z", "2022-10-24T07:35:00Z", "2022-10-24T07:35:00Z", "2022-10-24T07:30:00Z", "2022-10-24T07:35:00Z", "2022-10-24T07:35:00Z", "2022-10-24T06:53:00Z", "2022-10-24T06:53:00Z", "2022-10-24T06:53:00Z", "2022-10-24T07:35:00Z", "2022-10-24T07:35:00Z", "2022-10-24T07:35:00Z", "2022-10-24T06:52:00Z", "2022-10-24T06:56:00Z", "2022-10-24T07:35:00Z", "2022-10-24T06:53:00Z", "2022-10-24T07:35:00Z", "2022-10-24T07:35:00Z", "2022-10-24T06:53:00Z", "2022-10-24T07:35:00Z", "2022-10-24T07:35:00Z", "2022-10-24T06:53:00Z", "2022-10-24T06:55:00Z", "2022-10-24T06:53:00Z", "2022-10-24T07:35:00Z", "2022-10-24T06:53:00Z", "2022-10-24T06:53:00Z", "2022-10-24T06:53:00Z", "2022-10-24T06:53:00Z", "2022-10-24T07:35:00Z", "2022-10-24T06:52:00Z", "2022-10-24T07:35:00Z", "2022-10-24T07:27:00Z", "2022-10-24T06:53:00Z", "2022-10-24T07:35:00Z", "2022-10-24T06:52:00Z", "2022-10-24T06:56:00Z", "2022-10-24T06:58:00Z", "2022-10-24T06:54:00Z", "2022-10-24T07:35:00Z", "2022-10-24T07:35:00Z", "2022-10-24T07:35:00Z", "2022-10-24T06:52:00Z", "2022-10-24T07:05:00Z", "2022-10-24T06:54:00Z", "2022-10-24T06:53:00Z", "2022-10-24T07:35:00Z", "2022-10-24T07:15:00Z", "2022-10-24T06:55:00Z", "2022-10-24T07:35:00Z", "2022-10-24T06:54:00Z", "2022-10-24T06:53:00Z", "2022-10-24T07:35:00Z", "2022-10-24T07:35:00Z", "2022-10-24T06:53:00Z", "2022-10-24T06:53:00Z", "2022-10-24T06:53:00Z", "2022-10-24T06:52:00Z", "2022-10-24T07:35:00Z", "2022-10-24T07:10:00Z", "2022-10-24T07:35:00Z", "2022-10-24T06:56:00Z", "2022-10-24T06:53:00Z", "2022-10-24T06:53:00Z", "2022-10-24T07:31:00Z", "2022-10-24T06:53:00Z", "2022-10-24T06:53:00Z", "2022-10-24T07:35:00Z", "2022-10-24T07:02:00Z", "2022-10-24T06:53:00Z", "2022-10-24T07:15:00Z", "2022-10-24T07:35:00Z", "2022-10-24T06:54:00Z", "2022-10-24T06:52:00Z", "2022-10-24T06:55:00Z", "2022-10-24T07:35:00Z", "2022-10-24T06:53:00Z", "2022-10-24T07:35:00Z", "2022-10-24T06:53:00Z", "2022-10-24T07:35:00Z", "2022-10-24T06:56:00Z", "2022-10-24T06:56:00Z", "2022-10-24T06:53:00Z", "2022-10-24T06:53:00Z", "2022-10-24T07:15:00Z", "2022-10-24T06:52:00Z", "2022-10-24T06:52:00Z", "2022-10-24T07:15:00Z", "2022-10-24T07:31:00Z", "2022-10-24T07:26:00Z", "2022-10-24T06:53:00Z", "2022-10-24T06:53:00Z", "2022-10-24T07:14:00Z", "2022-10-24T07:35:00Z", "2022-10-24T06:53:00Z", "2022-10-24T06:56:00Z", "2022-10-24T06:55:00Z", "2022-10-24T07:15:00Z", "2022-10-24T07:35:00Z", "2022-10-24T07:15:00Z", "2022-10-24T07:35:00Z", "2022-10-24T06:56:00Z", "2022-10-24T06:53:00Z", "2022-10-24T07:35:00Z", "2022-10-24T07:35:00Z", "2022-10-24T06:56:00Z", "2022-10-24T06:53:00Z", "2022-10-24T07:35:00Z", "2022-10-24T07:35:00Z", "2022-10-24T07:28:00Z", "2022-10-24T07:35:00Z", "2022-10-24T07:11:00Z", "2022-10-24T07:35:00Z", "2022-10-24T06:51:00Z", "2022-10-24T07:10:00Z", "2022-10-24T07:15:00Z", "2022-10-24T07:15:00Z", "2022-10-24T07:15:00Z", "2022-10-24T07:15:00Z", "2022-10-24T06:56:00Z", "2022-10-24T07:24:00Z", "2022-10-24T07:30:00Z", "2022-10-24T06:56:00Z", "2022-10-24T06:58:00Z", "2022-10-24T07:35:00Z", "2022-10-24T07:35:00Z", "2022-10-24T07:35:00Z", "2022-10-24T06:54:00Z", "2022-10-24T06:53:00Z", "2022-10-24T06:53:00Z", "2022-10-24T06:53:00Z", "2022-10-24T06:53:00Z", "2022-10-24T06:53:00Z", "2022-10-24T06:56:00Z", "2022-10-24T06:53:00Z", "2022-10-24T06:55:00Z", "2022-10-24T06:53:00Z", "2022-10-24T07:01:00Z", "2022-10-24T07:18:00Z", "2022-10-24T06:53:00Z", "2022-10-24T06:54:00Z", "2022-10-24T07:35:00Z", "2022-10-24T06:56:00Z", "2022-10-24T07:25:00Z", "2022-10-24T06:56:00Z", "2022-10-24T07:35:00Z", "2022-10-24T07:35:00Z", "2022-10-24T07:35:00Z", "2022-10-24T06:54:00Z", "2022-10-24T06:56:00Z", "2022-10-24T06:53:00Z", "2022-10-24T07:35:00Z", "2022-10-24T07:35:00Z", "2022-10-24T06:52:00Z", "2022-10-24T07:35:00Z", "2022-10-24T06:53:00Z", "2022-10-24T07:35:00Z", "2022-10-24T06:53:00Z", "2022-10-24T07:35:00Z", "2022-10-24T06:53:00Z", "2022-10-24T06:55:00Z", "2022-10-24T06:53:00Z", "2022-10-24T07:35:00Z", "2022-10-24T06:51:00Z", "2022-10-24T07:07:00Z", "2022-10-24T06:56:00Z", "2022-10-24T06:53:00Z", "2022-10-24T07:10:00Z", "2022-10-24T07:35:00Z", "2022-10-24T07:35:00Z", "2022-10-24T07:35:00Z", "2022-10-24T07:35:00Z", "2022-10-24T06:52:00Z", "2022-10-24T07:25:00Z", "2022-10-24T07:18:00Z", "2022-10-24T06:55:00Z", "2022-10-24T07:00:00Z", "2022-10-24T06:56:00Z", "2022-10-24T06:56:00Z", "2022-10-24T07:00:00Z", "2022-10-24T06:53:00Z", "2022-10-24T06:56:00Z", "2022-10-24T06:52:00Z", "2022-10-24T06:56:00Z", "2022-10-24T06:52:00Z", "2022-10-24T06:56:00Z", "2022-10-24T06:59:00Z", "2022-10-24T06:52:00Z", "2022-10-24T06:56:00Z", "2022-10-24T06:53:00Z", "2022-10-24T06:56:00Z", "2022-10-24T06:57:00Z", "2022-10-24T06:57:00Z", "2022-10-24T06:56:00Z", "2022-10-24T06:55:00Z", "2022-10-24T06:56:00Z", "2022-10-24T06:56:00Z", "2022-10-24T06:56:00Z", "2022-10-24T07:15:00Z", "2022-10-24T06:59:00Z", "2022-10-24T06:56:00Z", "2022-10-24T07:35:00Z", "2022-10-24T06:56:00Z", "2022-10-24T06:53:00Z", "2022-10-24T06:52:00Z", "2022-10-24T07:15:00Z", "2022-10-24T06:53:00Z", "2022-10-24T06:56:00Z", "2022-10-24T06:53:00Z", "2022-10-24T06:55:00Z", "2022-10-24T06:56:00Z", "2022-10-24T06:56:00Z", "2022-10-24T06:53:00Z", "2022-10-24T07:35:00Z", "2022-10-24T06:53:00Z", "2022-10-24T06:56:00Z", "2022-10-24T06:56:00Z", "2022-10-24T07:14:00Z", "2022-10-24T06:51:00Z", "2022-10-24T06:56:00Z", "2022-10-24T06:57:00Z", "2022-10-24T06:52:00Z", "2022-10-24T07:35:00Z", "2022-10-24T07:35:00Z", "2022-10-24T07:35:00Z", "2022-10-24T07:35:00Z", "2022-10-24T06:56:00Z", "2022-10-24T06:53:00Z", "2022-10-24T07:35:00Z", "2022-10-24T07:15:00Z", "2022-10-24T07:20:00Z", "2022-10-24T07:31:00Z", "2022-10-24T07:15:00Z", "2022-10-24T07:15:00Z", "2022-10-24T06:53:00Z", "2022-10-24T06:53:00Z", "2022-10-24T07:35:00Z", "2022-10-24T07:35:00Z", "2022-10-24T07:35:00Z", "2022-10-24T06:55:00Z", "2022-10-24T06:56:00Z", "2022-10-24T07:12:00Z", "2022-10-24T07:15:00Z", "2022-10-24T06:53:00Z", "2022-10-24T06:53:00Z", "2022-10-24T07:15:00Z", "2022-10-24T07:35:00Z", "2022-10-24T07:35:00Z", "2022-10-24T07:35:00Z", "2022-10-24T06:53:00Z", "2022-10-24T06:52:00Z", "2022-10-24T06:52:00Z", "2022-10-24T06:56:00Z", "2022-10-24T07:35:00Z", "2022-10-24T07:35:00Z", "2022-10-24T07:15:00Z", "2022-10-24T07:35:00Z", "2022-10-24T06:53:00Z", "2022-10-24T07:35:00Z", "2022-10-24T06:54:00Z", "2022-10-24T06:54:00Z", "2022-10-24T06:56:00Z", "2022-10-24T07:35:00Z", "2022-10-24T07:35:00Z", "2022-10-24T07:15:00Z", "2022-10-24T06:52:00Z", "2022-10-24T07:35:00Z", "2022-10-24T06:53:00Z", "2022-10-24T07:18:00Z", "2022-10-24T07:15:00Z", "2022-10-24T07:35:00Z", "2022-10-24T06:53:00Z", "2022-10-24T06:55:00Z", "2022-10-24T06:53:00Z", "2022-10-24T07:35:00Z", "2022-10-24T07:35:00Z", "2022-10-24T07:15:00Z", "2022-10-24T06:53:00Z", "2022-10-24T07:15:00Z", "2022-10-24T07:15:00Z", "2022-10-24T07:35:00Z", "2022-10-24T06:53:00Z", "2022-10-24T07:33:00Z", "2022-10-24T06:51:00Z", "2022-10-24T07:14:00Z", "2022-10-24T06:51:00Z", "2022-10-24T07:15:00Z", "2022-10-24T07:22:00Z", "2022-10-24T06:53:00Z", "2022-10-24T07:35:00Z", "2022-10-24T07:10:00Z", "2022-10-24T07:35:00Z", "2022-10-24T06:53:00Z", "2022-10-24T06:53:00Z", "2022-10-24T07:20:00Z", "2022-10-24T06:56:00Z", "2022-10-24T06:53:00Z", "2022-10-24T07:15:00Z", "2022-10-24T06:53:00Z", "2022-10-24T07:35:00Z", "2022-10-24T06:53:00Z", "2022-10-24T07:33:00Z", "2022-10-24T06:56:00Z", "2022-10-24T07:08:00Z", "2022-10-24T07:15:00Z", "2022-10-24T07:15:00Z", "2022-10-24T06:51:00Z", "2022-10-24T07:35:00Z", "2022-10-24T07:35:00Z", "2022-10-24T06:51:00Z", "2022-10-24T07:35:00Z", "2022-10-24T07:15:00Z", "2022-10-24T06:55:00Z", "2022-10-24T07:35:00Z", "2022-10-24T07:35:00Z", "2022-10-24T07:35:00Z", "2022-10-24T06:56:00Z", "2022-10-24T06:56:00Z", "2022-10-24T06:55:00Z", "2022-10-24T06:51:00Z", "2022-10-24T06:56:00Z", "2022-10-24T06:53:00Z", "2022-10-24T06:52:00Z", "2022-10-24T06:53:00Z", "2022-10-24T06:53:00Z", "2022-10-24T06:55:00Z", "2022-10-24T07:35:00Z", "2022-10-24T06:53:00Z", "2022-10-24T06:53:00Z", "2022-10-24T07:35:00Z", "2022-10-24T06:53:00Z", "2022-10-24T07:15:00Z", "2022-10-24T07:35:00Z", "2022-10-24T07:35:00Z", "2022-10-24T07:35:00Z", "2022-10-24T07:35:00Z", "2022-10-24T07:35:00Z", "2022-10-24T06:53:00Z", "2022-10-24T06:53:00Z", "2022-10-24T06:53:00Z", "2022-10-24T07:15:00Z", "2022-10-24T06:53:00Z", "2022-10-24T07:15:00Z", "2022-10-24T07:35:00Z", "2022-10-24T07:35:00Z", "2022-10-24T06:53:00Z", "2022-10-24T06:53:00Z", "2022-10-24T07:35:00Z", "2022-10-24T06:53:00Z", "2022-10-24T06:54:00Z", "2022-10-24T07:13:00Z", "2022-10-24T07:35:00Z", "2022-10-24T06:55:00Z", "2022-10-24T07:35:00Z", "2022-10-24T06:51:00Z", "2022-10-24T06:54:00Z", "2022-10-24T06:56:00Z", "2022-10-24T06:53:00Z", "2022-10-24T06:53:00Z", "2022-10-24T06:53:00Z", "2022-10-24T07:15:00Z", "2022-10-24T07:33:00Z", "2022-10-24T06:51:00Z", "2022-10-24T06:53:00Z", "2022-10-24T06:53:00Z", "2022-10-24T07:35:00Z", "2022-10-24T06:54:00Z", "2022-10-24T07:35:00Z", "2022-10-24T07:15:00Z", "2022-10-24T06:53:00Z", "2022-10-24T07:35:00Z", "2022-10-24T06:53:00Z", "2022-10-24T07:15:00Z", "2022-10-24T07:35:00Z", "2022-10-24T07:15:00Z", "2022-10-24T06:53:00Z", "2022-10-24T06:54:00Z", "2022-10-24T07:35:00Z", "2022-10-24T07:11:00Z", "2022-10-24T07:15:00Z", "2022-10-24T07:19:00Z", "2022-10-24T06:55:00Z", "2022-10-24T06:53:00Z", "2022-10-24T06:53:00Z", "2022-10-24T07:35:00Z", "2022-10-24T07:15:00Z", "2022-10-24T07:15:00Z", "2022-10-24T06:52:00Z", "2022-10-24T07:35:00Z", "2022-10-24T07:15:00Z", "2022-10-24T06:56:00Z", "2022-10-24T06:53:00Z", "2022-10-24T06:53:00Z", "2022-10-24T06:53:00Z", "2022-10-24T07:35:00Z", "2022-10-24T06:58:00Z", "2022-10-24T07:35:00Z", "2022-10-24T07:35:00Z", "2022-10-24T06:56:00Z", "2022-10-24T06:53:00Z", "2022-10-24T06:54:00Z", "2022-10-24T07:35:00Z", "2022-10-24T06:55:00Z", "2022-10-24T07:15:00Z", "2022-10-24T07:35:00Z", "2022-10-24T06:53:00Z", "2022-10-24T06:53:00Z", "2022-10-24T07:35:00Z", "2022-10-24T07:35:00Z", "2022-10-24T06:53:00Z", "2022-10-24T06:56:00Z", "2022-10-24T07:35:00Z", "2022-10-24T07:15:00Z", "2022-10-24T06:56:00Z", "2022-10-24T07:23:00Z", "2022-10-24T06:53:00Z", "2022-10-24T06:53:00Z", "2022-10-24T07:35:00Z", "2022-10-24T06:53:00Z", "2022-10-24T07:35:00Z", "2022-10-24T06:56:00Z", "2022-10-24T06:51:00Z", "2022-10-24T07:35:00Z", "2022-10-24T07:24:00Z", "2022-10-24T07:35:00Z", "2022-10-24T07:32:00Z", "2022-10-24T07:10:00Z", "2022-10-24T06:53:00Z", "2022-10-24T07:35:00Z", "2022-10-24T07:35:00Z", "2022-10-24T06:56:00Z", "2022-10-24T06:52:00Z", "2022-10-24T06:51:00Z", "2022-10-24T06:56:00Z", "2022-10-24T07:15:00Z", "2022-10-24T06:52:00Z", "2022-10-24T07:35:00Z", "2022-10-24T07:35:00Z", "2022-10-24T07:35:00Z", "2022-10-24T07:23:00Z", "2022-10-24T06:55:00Z", "2022-10-24T06:55:00Z", "2022-10-24T07:30:00Z", "2022-10-24T07:30:00Z", "2022-10-24T07:30:00Z", "2022-10-24T07:30:00Z", "2022-10-24T07:30:00Z", "2022-10-24T07:30:00Z", "2022-10-24T07:30:00Z", "2022-10-24T07:30:00Z", "2022-10-24T07:30:00Z", "2022-10-24T07:30:00Z", "2022-10-24T07:30:00Z", "2022-10-24T07:30:00Z", "2022-10-24T07:30:00Z", "2022-10-24T07:30:00Z", "2022-10-24T07:30:00Z", "2022-10-24T07:30:00Z", "2022-10-24T06:55:00Z", "2022-10-24T06:55:00Z", "2022-10-24T06:55:00Z", "2022-10-24T06:55:00Z", "2022-10-24T06:53:00Z", "2022-10-24T06:53:00Z", "2022-10-24T06:52:00Z", "2022-10-24T07:35:00Z", "2022-10-24T07:35:00Z", "2022-10-24T06:53:00Z", "2022-10-24T06:53:00Z", "2022-10-24T06:54:00Z", "2022-10-24T07:15:00Z", "2022-10-24T07:15:00Z", "2022-10-24T06:55:00Z", "2022-10-24T07:35:00Z", "2022-10-24T07:35:00Z", "2022-10-24T07:15:00Z", "2022-10-24T07:15:00Z", "2022-10-24T07:35:00Z", "2022-10-24T07:35:00Z", "2022-10-24T06:54:00Z", "2022-10-24T07:15:00Z", "2022-10-24T06:56:00Z", "2022-10-24T07:05:00Z", "2022-10-24T06:51:00Z", "2022-10-24T07:15:00Z", "2022-10-24T06:52:00Z", "2022-10-24T06:54:00Z", "2022-10-24T07:35:00Z", "2022-10-24T06:55:00Z", "2022-10-24T07:35:00Z", "2022-10-24T06:53:00Z", "2022-10-24T07:35:00Z", "2022-10-24T06:54:00Z", "2022-10-24T06:53:00Z", "2022-10-24T06:55:00Z", "2022-10-24T06:53:00Z", "2022-10-24T06:56:00Z", "2022-10-24T06:53:00Z", "2022-10-24T07:35:00Z", "2022-10-24T06:54:00Z", "2022-10-24T07:35:00Z", "2022-10-24T06:53:00Z", "2022-10-24T06:53:00Z", "2022-10-24T07:35:00Z", "2022-10-24T07:35:00Z", "2022-10-24T07:35:00Z", "2022-10-24T07:05:00Z", "2022-10-24T07:35:00Z", "2022-10-24T06:53:00Z", "2022-10-24T06:55:00Z", "2022-10-24T07:35:00Z", "2022-10-24T06:53:00Z", "2022-10-24T07:35:00Z", "2022-10-24T06:54:00Z", "2022-10-24T06:54:00Z", "2022-10-24T06:58:00Z", "2022-10-24T07:24:00Z", "2022-10-24T06:51:00Z", "2022-10-24T07:35:00Z", "2022-10-24T07:35:00Z", "2022-10-24T07:35:00Z", "2022-10-24T07:35:00Z", "2022-10-24T07:02:00Z", "2022-10-24T07:35:00Z", "2022-10-24T06:53:00Z", "2022-10-24T07:35:00Z", "2022-10-24T07:35:00Z", "2022-10-24T06:53:00Z", "2022-10-24T07:35:00Z", "2022-10-24T06:54:00Z", "2022-10-24T07:35:00Z", "2022-10-24T06:53:00Z", "2022-10-24T06:53:00Z", "2022-10-24T07:35:00Z", "2022-10-24T06:53:00Z", "2022-10-24T07:35:00Z", "2022-10-24T07:35:00Z", "2022-10-24T06:56:00Z", "2022-10-24T07:35:00Z", "2022-10-24T07:35:00Z", "2022-10-24T07:35:00Z", "2022-10-24T06:53:00Z", "2022-10-24T06:53:00Z", "2022-10-24T06:53:00Z", "2022-10-24T07:00:00Z", "2022-10-24T07:15:00Z", "2022-10-24T06:53:00Z", "2022-10-24T06:55:00Z", "2022-10-24T07:35:00Z", "2022-10-24T07:35:00Z", "2022-10-24T06:50:00Z", "2022-10-24T07:35:00Z", "2022-10-24T07:35:00Z", "2022-10-24T07:35:00Z", "2022-10-24T07:35:00Z", "2022-10-24T07:35:00Z", "2022-10-24T07:35:00Z", "2022-10-24T07:35:00Z", "2022-10-24T07:35:00Z", "2022-10-24T07:35:00Z", "2022-10-24T06:55:00Z", "2022-10-24T07:35:00Z", "2022-10-24T07:35:00Z", "2022-10-24T07:30:00Z", "2022-10-24T07:30:00Z", "2022-10-24T07:25:00Z", "2022-10-24T07:35:00Z", "2022-10-24T06:53:00Z", "2022-10-24T06:51:00Z", "2022-10-24T06:53:00Z", "2022-10-24T06:51:00Z", "2022-10-24T07:35:00Z", "2022-10-24T06:51:00Z", "2022-10-24T06:53:00Z", "2022-10-24T07:18:00Z", "2022-10-24T07:35:00Z", "2022-10-24T07:20:00Z", "2022-10-24T06:53:00Z", "2022-10-24T06:54:00Z", "2022-10-24T07:15:00Z", "2022-10-24T06:56:00Z", "2022-10-24T07:15:00Z", "2022-10-24T06:54:00Z", "2022-10-24T07:35:00Z", "2022-10-24T06:55:00Z", "2022-10-24T07:35:00Z", "2022-10-24T07:35:00Z", "2022-10-24T07:15:00Z", "2022-10-24T06:53:00Z", "2022-10-24T07:35:00Z", "2022-10-24T06:56:00Z", "2022-10-24T06:53:00Z", "2022-10-24T06:53:00Z", "2022-10-24T07:37:00Z", "2022-10-24T06:53:00Z", "2022-10-24T07:35:00Z", "2022-10-24T07:15:00Z", "2022-10-24T07:36:00Z", "2022-10-24T07:35:00Z", "2022-10-24T07:35:00Z", "2022-10-24T06:55:00Z", "2022-10-24T06:54:00Z", "2022-10-24T07:35:00Z", "2022-10-24T06:53:00Z", "2022-10-24T06:53:00Z", "2022-10-24T06:56:00Z", "2022-10-24T06:56:00Z", "2022-10-24T07:35:00Z", "2022-10-24T07:22:00Z", "2022-10-24T06:56:00Z", "2022-10-24T06:52:00Z", "2022-10-24T06:56:00Z", "2022-10-24T06:56:00Z", "2022-10-24T06:53:00Z", "2022-10-24T07:35:00Z", "2022-10-24T06:56:00Z", "2022-10-24T06:56:00Z", "2022-10-24T07:35:00Z", "2022-10-24T07:15:00Z", "2022-10-24T06:53:00Z", "2022-10-24T07:01:00Z", "2022-10-24T06:56:00Z", "2022-10-24T07:35:00Z", "2022-10-24T07:35:00Z", "2022-10-24T06:53:00Z", "2022-10-24T06:53:00Z", "2022-10-24T07:15:00Z", "2022-10-24T06:51:00Z", "2022-10-24T07:35:00Z", "2022-10-24T06:55:00Z", "2022-10-24T07:00:00Z", "2022-10-24T06:56:00Z", "2022-10-24T07:15:00Z", "2022-10-24T07:36:00Z", "2022-10-24T06:56:00Z", "2022-10-24T06:56:00Z", "2022-10-24T07:35:00Z", "2022-10-24T06:55:00Z", "2022-10-24T06:51:00Z", "2022-10-24T07:10:00Z", "2022-10-24T07:35:00Z", "2022-10-24T07:10:00Z", "2022-10-24T07:35:00Z", "2022-10-24T06:53:00Z", "2022-10-24T06:56:00Z", "2022-10-24T06:51:00Z", "2022-10-24T06:56:00Z", "2022-10-24T06:53:00Z", "2022-10-24T07:15:00Z", "2022-10-24T06:51:00Z", "2022-10-24T06:53:00Z", "2022-10-24T07:35:00Z", "2022-10-24T07:30:00Z", "2022-10-24T07:35:00Z", "2022-10-24T07:15:00Z", "2022-10-24T06:53:00Z", "2022-10-24T06:51:00Z", "2022-10-24T06:53:00Z", "2022-10-24T07:15:00Z", "2022-10-24T07:25:00Z", "2022-10-24T07:35:00Z", "2022-10-24T07:35:00Z", "2022-10-24T06:53:00Z", "2022-10-24T06:56:00Z", "2022-10-24T07:35:00Z", "2022-10-24T06:53:00Z", "2022-10-24T06:52:00Z", "2022-10-24T06:52:00Z", "2022-10-24T06:53:00Z", "2022-10-24T06:56:00Z", "2022-10-24T07:35:00Z", "2022-10-24T07:35:00Z", "2022-10-24T06:56:00Z", "2022-10-24T07:35:00Z", "2022-10-24T06:53:00Z", "2022-10-24T07:35:00Z", "2022-10-24T06:55:00Z", "2022-10-24T06:53:00Z", "2022-10-24T06:53:00Z", "2022-10-24T06:53:00Z", "2022-10-24T07:35:00Z", "2022-10-24T07:35:00Z", "2022-10-24T06:53:00Z", "2022-10-24T07:35:00Z", "2022-10-24T06:51:00Z", "2022-10-24T06:53:00Z", "2022-10-24T06:53:00Z", "2022-10-24T07:35:00Z", "2022-10-24T06:56:00Z", "2022-10-24T07:35:00Z", "2022-10-24T06:54:00Z", "2022-10-24T07:15:00Z", "2022-10-24T06:55:00Z", "2022-10-24T07:35:00Z", "2022-10-24T06:52:00Z", "2022-10-24T07:35:00Z", "2022-10-24T07:35:00Z", "2022-10-24T07:35:00Z", "2022-10-24T07:35:00Z", "2022-10-24T06:55:00Z", "2022-10-24T06:45:00Z", "2022-10-24T06:53:00Z", "2022-10-24T07:35:00Z", "2022-10-24T07:35:00Z", "2022-10-24T06:55:00Z", "2022-10-24T06:56:00Z", "2022-10-24T07:35:00Z", "2022-10-24T07:35:00Z", "2022-10-24T07:35:00Z", "2022-10-24T07:35:00Z", "2022-10-24T07:35:00Z", "2022-10-24T06:54:00Z", "2022-10-24T06:55:00Z", "2022-10-24T07:35:00Z", "2022-10-24T07:35:00Z", "2022-10-24T07:15:00Z", "2022-10-24T07:15:00Z", "2022-10-24T07:15:00Z", "2022-10-24T07:35:00Z", "2022-10-24T06:55:00Z", "2022-10-24T07:35:00Z", "2022-10-24T07:35:00Z", "2022-10-24T07:35:00Z", "2022-10-24T07:35:00Z", "2022-10-24T06:54:00Z", "2022-10-24T06:52:00Z", "2022-10-24T07:15:00Z", "2022-10-24T06:55:00Z", "2022-10-24T07:15:00Z", "2022-10-24T06:53:00Z", "2022-10-24T06:53:00Z", "2022-10-24T06:55:00Z", "2022-10-24T06:53:00Z", "2022-10-24T07:35:00Z", "2022-10-24T07:35:00Z", "2022-10-24T06:55:00Z", "2022-10-24T06:53:00Z", "2022-10-24T07:26:00Z", "2022-10-24T07:35:00Z", "2022-10-24T07:35:00Z", "2022-10-24T06:55:00Z", "2022-10-24T07:35:00Z", "2022-10-24T07:35:00Z", "2022-10-24T06:55:00Z", "2022-10-24T07:14:00Z", "2022-10-24T07:15:00Z", "2022-10-24T06:55:00Z", "2022-10-24T07:15:00Z", "2022-10-24T06:53:00Z", "2022-10-24T07:35:00Z", "2022-10-24T06:53:00Z", "2022-10-24T07:35:00Z", "2022-10-24T07:35:00Z", "2022-10-24T06:53:00Z", "2022-10-24T06:53:00Z", "2022-10-24T07:35:00Z", "2022-10-24T07:15:00Z", "2022-10-24T07:35:00Z", "2022-10-24T07:10:00Z", "2022-10-24T07:35:00Z", "2022-10-24T07:35:00Z", "2022-10-24T07:15:00Z", "2022-10-24T06:53:00Z", "2022-10-24T06:52:00Z", "2022-10-24T06:53:00Z", "2022-10-24T06:53:00Z", "2022-10-24T06:53:00Z", "2022-10-24T06:56:00Z", "2022-10-24T06:51:00Z", "2022-10-24T07:31:00Z", "2022-10-24T07:35:00Z", "2022-10-24T07:15:00Z", "2022-10-24T07:35:00Z", "2022-10-24T06:53:00Z", "2022-10-24T07:15:00Z", "2022-10-24T07:14:00Z", "2022-10-24T06:52:00Z", "2022-10-24T07:35:00Z", "2022-10-24T07:15:00Z", "2022-10-24T06:53:00Z", "2022-10-24T07:35:00Z", "2022-10-24T07:25:00Z", "2022-10-24T06:55:00Z", "2022-10-24T06:53:00Z", "2022-10-24T06:53:00Z", "2022-10-24T06:53:00Z", "2022-10-24T07:12:00Z", "2022-10-24T06:56:00Z", "2022-10-24T07:15:00Z", "2022-10-24T06:53:00Z", "2022-10-24T06:53:00Z", "2022-10-24T07:35:00Z", "2022-10-24T06:53:00Z", "2022-10-24T07:35:00Z", "2022-10-24T07:35:00Z", "2022-10-24T07:34:00Z", "2022-10-24T07:10:00Z", "2022-10-24T07:35:00Z", "2022-10-24T07:35:00Z", "2022-10-24T06:53:00Z", "2022-10-24T06:53:00Z", "2022-10-24T07:15:00Z", "2022-10-24T07:35:00Z", "2022-10-24T07:35:00Z", "2022-10-24T07:35:00Z", "2022-10-24T06:53:00Z", "2022-10-24T06:55:00Z", "2022-10-24T06:56:00Z", "2022-10-24T07:35:00Z", "2022-10-24T06:56:00Z", "2022-10-24T07:35:00Z", "2022-10-24T06:55:00Z", "2022-10-24T07:18:00Z", "2022-10-24T06:54:00Z", "2022-10-24T07:15:00Z", "2022-10-24T06:56:00Z", "2022-10-24T07:15:00Z", "2022-10-24T07:35:00Z", "2022-10-24T07:35:00Z", "2022-10-24T07:15:00Z", "2022-10-24T07:15:00Z", "2022-10-24T07:15:00Z", "2022-10-24T06:53:00Z", "2022-10-24T07:35:00Z", "2022-10-24T07:35:00Z", "2022-10-24T07:35:00Z", "2022-10-24T07:35:00Z", "2022-10-24T07:35:00Z", "2022-10-24T06:53:00Z", "2022-10-24T06:53:00Z", "2022-10-24T07:35:00Z", "2022-10-24T07:35:00Z", "2022-10-24T07:15:00Z", "2022-10-24T06:54:00Z", "2022-10-24T06:55:00Z", "2022-10-24T07:35:00Z", "2022-10-24T06:54:00Z", "2022-10-24T06:55:00Z", "2022-10-24T06:56:00Z", "2022-10-24T06:53:00Z", "2022-10-24T06:51:00Z", "2022-10-24T07:35:00Z", "2022-10-24T07:35:00Z", "2022-10-24T07:15:00Z", "2022-10-24T06:53:00Z", "2022-10-24T07:35:00Z", "2022-10-24T07:15:00Z", "2022-10-24T07:35:00Z", "2022-10-24T06:53:00Z", "2022-10-24T07:35:00Z", "2022-10-24T06:53:00Z", "2022-10-24T06:56:00Z", "2022-10-24T07:35:00Z", "2022-10-24T07:15:00Z", "2022-10-24T07:34:00Z", "2022-10-24T07:35:00Z", "2022-10-24T07:35:00Z", "2022-10-24T06:51:00Z", "2022-10-24T06:55:00Z", "2022-10-24T07:15:00Z", "2022-10-24T06:55:00Z", "2022-10-24T06:56:00Z", "2022-10-24T07:35:00Z", "2022-10-24T06:53:00Z", "2022-10-24T06:54:00Z", "2022-10-24T06:54:00Z", "2022-10-24T07:35:00Z", "2022-10-24T06:52:00Z", "2022-10-24T07:35:00Z", "2022-10-24T07:15:00Z", "2022-10-24T06:53:00Z", "2022-10-24T07:35:00Z", "2022-10-24T07:35:00Z", "2022-10-24T07:35:00Z", "2022-10-24T07:35:00Z", "2022-10-24T07:35:00Z", "2022-10-24T07:15:00Z", "2022-10-24T07:35:00Z", "2022-10-24T07:35:00Z", "2022-10-24T07:35:00Z", "2022-10-24T07:35:00Z", "2022-10-24T07:35:00Z", "2022-10-24T07:35:00Z", "2022-10-24T07:22:00Z", "2022-10-24T06:54:00Z", "2022-10-24T07:35:00Z", "2022-10-24T07:35:00Z", "2022-10-24T07:15:00Z", "2022-10-24T06:56:00Z", "2022-10-24T06:54:00Z", "2022-10-24T06:56:00Z", "2022-10-24T06:55:00Z", "2022-10-24T07:17:00Z", "2022-10-24T07:36:00Z", "2022-10-24T07:25:00Z", "2022-10-24T06:53:00Z", "2022-10-24T06:56:00Z", "2022-10-24T06:56:00Z", "2022-10-24T07:10:00Z", "2022-10-24T07:35:00Z", "2022-10-24T07:15:00Z", "2022-10-24T07:35:00Z", "2022-10-24T07:15:00Z", "2022-10-24T07:35:00Z", "2022-10-24T06:55:00Z", "2022-10-24T07:35:00Z", "2022-10-24T06:55:00Z", "2022-10-24T06:53:00Z", "2022-10-24T06:55:00Z", "2022-10-24T07:35:00Z", "2022-10-24T07:35:00Z", "2022-10-24T07:33:00Z", "2022-10-24T06:51:00Z", "2022-10-24T07:35:00Z", "2022-10-24T07:35:00Z", "2022-10-24T07:35:00Z", "2022-10-24T07:35:00Z", "2022-10-24T06:56:00Z", "2022-10-24T07:35:00Z", "2022-10-24T07:35:00Z", "2022-10-24T07:35:00Z", "2022-10-24T06:53:00Z", "2022-10-24T06:53:00Z", "2022-10-24T06:56:00Z", "2022-10-24T06:51:00Z", "2022-10-24T07:15:00Z", "2022-10-24T07:35:00Z", "2022-10-24T06:53:00Z", "2022-10-24T07:20:00Z", "2022-10-24T07:30:00Z", "2022-10-24T07:30:00Z", "2022-10-24T07:30:00Z", "2022-10-24T07:30:00Z", "2022-10-24T07:30:00Z", "2022-10-24T07:20:00Z", "2022-10-24T07:30:00Z", "2022-10-24T07:30:00Z", "2022-10-24T07:30:00Z", "2022-10-24T07:30:00Z", "2022-10-24T07:30:00Z", "2022-10-24T07:30:00Z", "2022-10-24T07:30:00Z", "2022-10-24T07:30:00Z", "2022-10-24T07:30:00Z", "2022-10-24T07:30:00Z", "2022-10-24T07:30:00Z", "2022-10-24T07:30:00Z", "2022-10-24T07:30:00Z", "2022-10-24T07:30:00Z", "2022-10-24T07:30:00Z", "2022-10-24T07:30:00Z", "2022-10-24T07:30:00Z", "2022-10-24T07:30:00Z", "2022-10-24T07:30:00Z", "2022-10-24T07:30:00Z", "2022-10-24T07:30:00Z", "2022-10-24T07:30:00Z", "2022-10-24T07:30:00Z", "2022-10-24T07:30:00Z", "2022-10-24T07:30:00Z", "2022-10-24T07:30:00Z", "2022-10-24T07:30:00Z", "2022-10-24T07:30:00Z", "2022-10-24T07:30:00Z", "2022-10-24T07:30:00Z", "2022-10-24T07:30:00Z", "2022-10-24T07:30:00Z", "2022-10-24T07:30:00Z", "2022-10-24T07:30:00Z", "2022-10-24T07:30:00Z", "2022-10-24T07:30:00Z", "2022-10-24T07:30:00Z", "2022-10-24T07:30:00Z", "2022-10-24T07:30:00Z", "2022-10-24T07:30:00Z", "2022-10-24T07:30:00Z", "2022-10-24T07:30:00Z", "2022-10-24T07:30:00Z", "2022-10-24T07:30:00Z", "2022-10-24T07:30:00Z", "2022-10-24T07:30:00Z", "2022-10-24T07:30:00Z", "2022-10-24T07:30:00Z", "2022-10-24T07:30:00Z", "2022-10-24T07:30:00Z", "2022-10-24T07:30:00Z", "2022-10-24T07:30:00Z", "2022-10-24T07:30:00Z", "2022-10-24T07:30:00Z", "2022-10-24T07:30:00Z", "2022-10-24T07:30:00Z", "2022-10-24T07:30:00Z", "2022-10-24T07:30:00Z", "2022-10-24T07:30:00Z", "2022-10-24T07:30:00Z", "2022-10-24T07:30:00Z", "2022-10-24T07:30:00Z", "2022-10-24T07:30:00Z", "2022-10-24T07:30:00Z", "2022-10-24T07:30:00Z", "2022-10-24T07:30:00Z", "2022-10-24T07:30:00Z", "2022-10-24T07:30:00Z", "2022-10-24T07:30:00Z", "2022-10-24T07:30:00Z", "2022-10-24T07:30:00Z", "2022-10-24T07:30:00Z", "2022-10-24T07:30:00Z", "2022-10-24T07:30:00Z", "2022-10-24T07:30:00Z", "2022-10-24T07:30:00Z", "2022-10-24T07:30:00Z", "2022-10-24T07:30:00Z", "2022-10-24T07:30:00Z", "2022-10-24T07:30:00Z", "2022-10-24T07:30:00Z", "2022-10-24T07:30:00Z", "2022-10-24T07:30:00Z", "2022-10-24T07:30:00Z", "2022-10-24T07:30:00Z", "2022-10-24T07:30:00Z", "2022-10-24T07:30:00Z", "2022-10-24T07:30:00Z", "2022-10-24T07:30:00Z", "2022-10-24T07:30:00Z", "2022-10-24T07:30:00Z", "2022-10-24T07:30:00Z", "2022-10-24T07:30:00Z", "2022-10-24T07:30:00Z", "2022-10-24T07:30:00Z", "2022-10-24T07:30:00Z", "2022-10-24T07:30:00Z", "2022-10-24T07:30:00Z", "2022-10-24T07:30:00Z", "2022-10-24T07:30:00Z", "2022-10-24T07:30:00Z", "2022-10-24T07:30:00Z", "2022-10-24T07:30:00Z", "2022-10-24T07:30:00Z", "2022-10-24T07:30:00Z", "2022-10-24T07:30:00Z", "2022-10-24T07:30:00Z", "2022-10-24T07:30:00Z", "2022-10-24T07:30:00Z", "2022-10-24T07:30:00Z", "2022-10-24T07:30:00Z", "2022-10-24T07:30:00Z", "2022-10-24T07:30:00Z", "2022-10-24T07:30:00Z", "2022-10-24T07:30:00Z", "2022-10-24T07:30:00Z", "2022-10-24T07:30:00Z", "2022-10-24T07:30:00Z", "2022-10-24T07:30:00Z", "2022-10-24T07:30:00Z", "2022-10-24T07:30:00Z", "2022-10-24T07:30:00Z", "2022-10-24T07:30:00Z", "2022-10-24T07:30:00Z", "2022-10-24T07:30:00Z", "2022-10-24T07:30:00Z", "2022-10-24T07:30:00Z", "2022-10-24T07:30:00Z", "2022-10-24T07:30:00Z", "2022-10-24T07:30:00Z", "2022-10-24T07:30:00Z", "2022-10-24T07:30:00Z", "2022-10-24T07:30:00Z", "2022-10-24T07:30:00Z", "2022-10-24T07:30:00Z", "2022-10-24T07:30:00Z", "2022-10-24T07:30:00Z", "2022-10-24T07:30:00Z", "2022-10-24T07:30:00Z", "2022-10-24T07:00:00Z", "2022-10-24T07:30:00Z", "2022-10-24T07:30:00Z", "2022-10-24T07:30:00Z", "2022-10-24T07:30:00Z", "2022-10-24T07:30:00Z", "2022-10-24T07:30:00Z", "2022-10-24T07:30:00Z", "2022-10-24T07:30:00Z", "2022-10-24T07:30:00Z", "2022-10-24T07:30:00Z", "2022-10-24T07:30:00Z", "2022-10-24T07:30:00Z", "2022-10-24T07:30:00Z", "2022-10-24T07:30:00Z", "2022-10-24T07:30:00Z", "2022-10-24T07:30:00Z", "2022-10-24T07:30:00Z", "2022-10-24T07:30:00Z", "2022-10-24T07:30:00Z", "2022-10-24T07:30:00Z", "2022-10-24T07:30:00Z", "2022-10-24T07:30:00Z", "2022-10-24T07:30:00Z", "2022-10-24T07:30:00Z", "2022-10-24T07:30:00Z", "2022-10-24T07:30:00Z", "2022-10-24T07:30:00Z", "2022-10-24T07:30:00Z", "2022-10-24T07:30:00Z", "2022-10-24T07:30:00Z", "2022-10-24T07:30:00Z", "2022-10-24T07:30:00Z", "2022-10-24T07:30:00Z", "2022-10-24T07:20:00Z", "2022-10-24T07:20:00Z", "2022-10-24T07:20:00Z", "2022-10-24T07:20:00Z", "2022-10-24T07:20:00Z", "2022-10-24T06:50:00Z", "2022-10-24T07:20:00Z", "2022-10-24T07:20:00Z", "2022-10-24T06:50:00Z", "2022-10-24T07:20:00Z", "2022-10-24T07:20:00Z", "2022-10-24T07:20:00Z", "2022-10-24T07:20:00Z", "2022-10-24T07:20:00Z", "2022-10-24T06:50:00Z", "2022-10-24T07:20:00Z", "2022-10-24T07:20:00Z", "2022-10-24T07:20:00Z", "2022-10-24T06:50:00Z", "2022-10-24T06:50:00Z", "2022-10-24T07:20:00Z", "2022-10-24T07:20:00Z", "2022-10-24T07:20:00Z", "2022-10-24T07:20:00Z", "2022-10-24T07:20:00Z", "2022-10-24T06:50:00Z", "2022-10-24T06:50:00Z", "2022-10-24T07:20:00Z", "2022-10-24T07:20:00Z", "2022-10-24T06:50:00Z", "2022-10-24T07:30:00Z", "2022-10-24T07:15:00Z", "2022-10-24T07:15:00Z", "2022-10-24T07:15:00Z", "2022-10-24T07:15:00Z", "2022-10-24T07:15:00Z", "2022-10-24T07:15:00Z", "2022-10-24T07:15:00Z", "2022-10-24T06:55:00Z", "2022-10-24T06:50:00Z", "2022-10-24T07:20:00Z", "2022-10-24T06:50:00Z", "2022-10-24T06:50:00Z", "2022-10-24T06:55:00Z", "2022-10-24T07:20:00Z", "2022-10-24T06:55:00Z", "2022-10-24T07:20:00Z", "2022-10-24T06:55:00Z", "2022-10-24T06:55:00Z", "2022-10-24T07:20:00Z", "2022-10-24T07:20:00Z", "2022-10-24T07:20:00Z", "2022-10-24T07:20:00Z", "2022-10-24T06:55:00Z", "2022-10-24T06:50:00Z", "2022-10-24T07:20:00Z", "2022-10-24T07:20:00Z", "2022-10-24T06:55:00Z", "2022-10-24T06:55:00Z", "2022-10-24T07:20:00Z", "2022-10-24T06:55:00Z", "2022-10-24T06:55:00Z", "2022-10-24T07:20:00Z", "2022-10-24T07:20:00Z", "2022-10-24T07:20:00Z", "2022-10-24T07:20:00Z", "2022-10-24T07:20:00Z", "2022-10-24T06:50:00Z", "2022-10-24T07:20:00Z", "2022-10-24T06:55:00Z", "2022-10-24T07:20:00Z", "2022-10-24T06:55:00Z", "2022-10-24T06:50:00Z", "2022-10-24T06:55:00Z", "2022-10-24T06:55:00Z", "2022-10-24T06:55:00Z", "2022-10-24T07:20:00Z", "2022-10-24T06:55:00Z", "2022-10-24T07:20:00Z", "2022-10-24T06:55:00Z", "2022-10-24T06:50:00Z", "2022-10-24T06:55:00Z", "2022-10-24T07:20:00Z", "2022-10-24T06:55:00Z", "2022-10-24T07:20:00Z", "2022-10-24T06:55:00Z", "2022-10-24T06:50:00Z", "2022-10-24T06:55:00Z", "2022-10-24T07:20:00Z", "2022-10-24T07:20:00Z", "2022-10-24T07:20:00Z", "2022-10-24T06:55:00Z", "2022-10-24T07:20:00Z", "2022-10-24T07:20:00Z", "2022-10-24T07:20:00Z", "2022-10-24T06:55:00Z", "2022-10-24T06:55:00Z", "2022-10-24T06:55:00Z", "2022-10-24T07:20:00Z", "2022-10-24T06:55:00Z", "2022-10-24T07:20:00Z", "2022-10-24T06:55:00Z", "2022-10-24T07:08:00Z", "2022-10-24T06:55:00Z", "2022-10-24T06:55:00Z", "2022-10-24T06:55:00Z", "2022-10-24T07:20:00Z", "2022-10-24T07:15:00Z", "2022-10-24T07:20:00Z", "2022-10-24T06:55:00Z", "2022-10-24T06:55:00Z", "2022-10-24T07:15:00Z", "2022-10-24T06:55:00Z", "2022-10-24T06:55:00Z", "2022-10-24T07:20:00Z", "2022-10-24T07:15:00Z", "2022-10-24T06:55:00Z", "2022-10-24T06:55:00Z", "2022-10-24T06:55:00Z", "2022-10-24T06:55:00Z", "2022-10-24T06:55:00Z", "2022-10-24T06:55:00Z", "2022-10-24T06:55:00Z", "2022-10-24T06:55:00Z", "2022-10-24T07:30:00Z", "2022-10-24T07:30:00Z", "2022-10-24T07:30:00Z", "2022-10-24T07:30:00Z", "2022-10-24T07:30:00Z", "2022-10-24T07:00:00Z", "2022-10-24T07:00:00Z", "2022-10-24T07:30:00Z", "2022-10-24T07:00:00Z", "2022-10-24T07:30:00Z", "2022-10-24T07:30:00Z", "2022-10-24T07:30:00Z", "2022-10-24T07:30:00Z", "2022-10-24T07:30:00Z", "2022-10-24T07:00:00Z", "2022-10-24T07:20:00Z", "2022-10-24T06:50:00Z", "2022-10-24T06:50:00Z", "2022-10-24T06:50:00Z", "2022-10-24T07:15:00Z", "2022-10-24T07:00:00Z", "2022-10-24T07:00:00Z", "2022-10-24T07:20:00Z", "2022-10-24T07:20:00Z", "2022-10-24T07:20:00Z", "2022-10-24T07:20:00Z", "2022-10-24T07:20:00Z", "2022-10-24T07:20:00Z", "2022-10-24T07:20:00Z", "2022-10-24T07:30:00Z", "2022-10-24T07:00:00Z", "2022-10-24T07:30:00Z", "2022-10-24T07:00:00Z", "2022-10-24T07:00:00Z", "2022-10-24T07:30:00Z", "2022-10-24T07:00:00Z", "2022-10-24T07:00:00Z", "2022-10-24T07:30:00Z", "2022-10-24T07:30:00Z", "2022-10-24T07:30:00Z", "2022-10-24T07:30:00Z", "2022-10-24T07:00:00Z", "2022-10-24T07:30:00Z", "2022-10-24T07:30:00Z", "2022-10-24T07:30:00Z", "2022-10-24T07:30:00Z", "2022-10-24T07:30:00Z", "2022-10-24T07:30:00Z", "2022-10-24T07:30:00Z", "2022-10-24T07:00:00Z", "2022-10-24T07:30:00Z", "2022-10-24T07:30:00Z", "2022-10-24T07:30:00Z", "2022-10-24T07:00:00Z", "2022-10-24T07:30:00Z", "2022-10-24T07:00:00Z", "2022-10-24T07:30:00Z", "2022-10-24T07:30:00Z", "2022-10-24T07:30:00Z", "2022-10-24T07:30:00Z", "2022-10-24T07:30:00Z", "2022-10-24T07:30:00Z", "2022-10-24T07:30:00Z", "2022-10-24T07:30:00Z", "2022-10-24T07:30:00Z", "2022-10-24T07:00:00Z", "2022-10-24T07:20:00Z", "2022-10-24T07:20:00Z", "2022-10-24T07:20:00Z", "2022-10-24T07:20:00Z", "2022-10-24T07:20:00Z", "2022-10-24T07:20:00Z", "2022-10-24T07:20:00Z", "2022-10-24T07:20:00Z", "2022-10-24T07:20:00Z", "2022-10-24T07:20:00Z", "2022-10-24T07:20:00Z", "2022-10-24T07:20:00Z", "2022-10-24T07:20:00Z", "2022-10-24T07:20:00Z", "2022-10-24T07:20:00Z", "2022-10-24T07:20:00Z", "2022-10-24T07:20:00Z", "2022-10-24T06:50:00Z", "2022-10-24T07:20:00Z", "2022-10-24T07:20:00Z", "2022-10-24T07:20:00Z", "2022-10-24T07:20:00Z", "2022-10-24T06:50:00Z", "2022-10-24T06:50:00Z", "2022-10-24T07:20:00Z", "2022-10-24T06:50:00Z", "2022-10-24T06:50:00Z", "2022-10-24T07:20:00Z", "2022-10-24T07:20:00Z", "2022-10-24T06:50:00Z", "2022-10-24T06:50:00Z", "2022-10-24T07:20:00Z", "2022-10-24T07:20:00Z", "2022-10-24T06:50:00Z", "2022-10-24T06:50:00Z", "2022-10-24T06:50:00Z", "2022-10-24T07:20:00Z", "2022-10-24T06:50:00Z", "2022-10-24T06:50:00Z", "2022-10-24T07:20:00Z", "2022-10-24T07:20:00Z", "2022-10-24T07:20:00Z", "2022-10-24T06:50:00Z", "2022-10-24T06:50:00Z", "2022-10-24T06:50:00Z", "2022-10-24T07:20:00Z", "2022-10-24T06:50:00Z", "2022-10-24T07:20:00Z", "2022-10-24T06:50:00Z", "2022-10-24T07:20:00Z", "2022-10-24T06:50:00Z", "2022-10-24T07:20:00Z", "2022-10-24T06:50:00Z", "2022-10-24T06:50:00Z", "2022-10-24T06:50:00Z", "2022-10-24T06:50:00Z", "2022-10-24T06:50:00Z", "2022-10-24T06:50:00Z", "2022-10-24T06:50:00Z", "2022-10-24T07:20:00Z", "2022-10-24T06:50:00Z", "2022-10-24T06:50:00Z", "2022-10-24T06:50:00Z", "2022-10-24T06:50:00Z", "2022-10-24T06:50:00Z", "2022-10-24T06:50:00Z", "2022-10-24T07:20:00Z", "2022-10-24T06:50:00Z", "2022-10-24T07:20:00Z", "2022-10-24T06:50:00Z", "2022-10-24T06:50:00Z", "2022-10-24T07:20:00Z", "2022-10-24T06:50:00Z", "2022-10-24T07:20:00Z", "2022-10-24T06:50:00Z", "2022-10-24T07:30:00Z", "2022-10-24T07:30:00Z", "2022-10-24T07:30:00Z", "2022-10-24T07:20:00Z", "2022-10-24T07:30:00Z", "2022-10-24T07:30:00Z", "2022-10-24T07:30:00Z", "2022-10-24T07:30:00Z", "2022-10-24T07:30:00Z", "2022-10-24T07:30:00Z", "2022-10-24T07:30:00Z", "2022-10-24T07:30:00Z", "2022-10-24T07:30:00Z", "2022-10-24T07:00:00Z", "2022-10-24T07:00:00Z", "2022-10-24T07:00:00Z", "2022-10-24T07:00:00Z", "2022-10-24T07:00:00Z", "2022-10-24T07:00:00Z", "2022-10-24T06:50:00Z", "2022-10-24T06:59:00Z", "2022-10-24T06:50:00Z", "2022-10-24T06:50:00Z", "2022-10-24T06:50:00Z", "2022-10-24T06:51:00Z", "2022-10-24T06:50:00Z", "2022-10-24T06:50:00Z", "2022-10-24T06:50:00Z", "2022-10-24T07:00:00Z", "2022-10-24T07:00:00Z", "2022-10-24T07:00:00Z", "2022-10-24T07:00:00Z", "2022-10-24T07:00:00Z", "2022-10-24T07:00:00Z", "2022-10-24T07:00:00Z", "2022-10-24T07:00:00Z", "2022-10-24T07:00:00Z", "2022-10-24T07:00:00Z", "2022-10-24T07:00:00Z", "2022-10-24T07:30:00Z", "2022-10-24T07:00:00Z", "2022-10-24T07:00:00Z", "2022-10-24T07:00:00Z", "2022-10-24T07:00:00Z", "2022-10-24T07:00:00Z", "2022-10-24T07:00:00Z", "2022-10-24T07:00:00Z", "2022-10-24T07:00:00Z", "2022-10-24T07:30:00Z", "2022-10-24T07:00:00Z", "2022-10-24T06:50:00Z", "2022-10-24T07:00:00Z", "2022-10-24T07:00:00Z", "2022-10-24T07:30:00Z", "2022-10-24T07:30:00Z", "2022-10-24T07:30:00Z", "2022-10-24T06:55:00Z", "2022-10-24T06:55:00Z", "2022-10-24T07:30:00Z", "2022-10-24T07:30:00Z", "2022-10-24T07:00:00Z", "2022-10-24T07:00:00Z", "2022-10-24T07:00:00Z", "2022-10-24T07:00:00Z", "2022-10-24T07:00:00Z", "2022-10-24T07:00:00Z", "2022-10-24T07:00:00Z", "2022-10-24T07:00:00Z", "2022-10-24T07:00:00Z", "2022-10-24T07:00:00Z", "2022-10-24T07:00:00Z", "2022-10-24T07:00:00Z", "2022-10-24T07:00:00Z", "2022-10-24T07:00:00Z", "2022-10-24T07:00:00Z", "2022-10-24T07:00:00Z", "2022-10-24T07:00:00Z", "2022-10-24T07:00:00Z", "2022-10-24T07:00:00Z", "2022-10-24T07:00:00Z", "2022-10-24T07:00:00Z", "2022-10-24T07:00:00Z", "2022-10-24T07:00:00Z", "2022-10-24T07:00:00Z", "2022-10-24T07:00:00Z", "2022-10-24T07:00:00Z", "2022-10-24T07:00:00Z", "2022-10-24T07:00:00Z", "2022-10-24T07:00:00Z", "2022-10-24T07:00:00Z", "2022-10-24T07:00:00Z", "2022-10-24T07:00:00Z", "2022-10-24T07:00:00Z", "2022-10-24T07:00:00Z", "2022-10-24T07:00:00Z", "2022-10-24T07:00:00Z", "2022-10-24T07:30:00Z", "2022-10-24T07:00:00Z", "2022-10-24T07:00:00Z", "2022-10-24T07:00:00Z", "2022-10-24T07:00:00Z", "2022-10-24T07:30:00Z", "2022-10-24T07:00:00Z", "2022-10-24T07:00:00Z", "2022-10-24T07:00:00Z", "2022-10-24T07:00:00Z", "2022-10-24T07:00:00Z", "2022-10-24T07:30:00Z", "2022-10-24T07:00:00Z", "2022-10-24T07:00:00Z", "2022-10-24T07:00:00Z", "2022-10-24T07:00:00Z", "2022-10-24T07:00:00Z", "2022-10-24T07:00:00Z", "2022-10-24T07:30:00Z", "2022-10-24T07:00:00Z", "2022-10-24T07:30:00Z", "2022-10-24T06:50:00Z", "2022-10-24T07:00:00Z", "2022-10-24T07:00:00Z", "2022-10-24T07:30:00Z", "2022-10-24T07:00:00Z", "2022-10-24T07:30:00Z", "2022-10-24T07:00:00Z", "2022-10-24T07:00:00Z", "2022-10-24T07:00:00Z", "2022-10-24T07:30:00Z", "2022-10-24T07:00:00Z", "2022-10-24T07:00:00Z", "2022-10-24T07:00:00Z", "2022-10-24T07:00:00Z", "2022-10-24T06:51:00Z", "2022-10-24T07:00:00Z", "2022-10-24T07:00:00Z", "2022-10-24T07:30:00Z", "2022-10-24T07:00:00Z", "2022-10-24T07:00:00Z", "2022-10-24T07:00:00Z", "2022-10-24T07:00:00Z", "2022-10-24T07:00:00Z", "2022-10-24T07:00:00Z", "2022-10-24T07:00:00Z", "2022-10-24T07:00:00Z", "2022-10-24T07:00:00Z", "2022-10-24T07:00:00Z", "2022-10-24T07:00:00Z", "2022-10-24T07:00:00Z", "2022-10-24T07:00:00Z", "2022-10-24T07:00:00Z", "2022-10-24T07:00:00Z", "2022-10-24T07:30:00Z", "2022-10-24T07:00:00Z", "2022-10-24T07:00:00Z", "2022-10-24T07:00:00Z", "2022-10-24T07:00:00Z", "2022-10-24T07:30:00Z", "2022-10-24T07:30:00Z", "2022-10-24T06:52:00Z", "2022-10-24T07:00:00Z", "2022-10-24T07:00:00Z", "2022-10-24T07:00:00Z", "2022-10-24T07:00:00Z", "2022-10-24T07:30:00Z", "2022-10-24T07:30:00Z", "2022-10-24T07:00:00Z", "2022-10-24T07:00:00Z", "2022-10-24T07:00:00Z", "2022-10-24T07:00:00Z", "2022-10-24T07:00:00Z", "2022-10-24T07:00:00Z", "2022-10-24T07:00:00Z", "2022-10-24T07:00:00Z", "2022-10-24T07:00:00Z", "2022-10-24T07:00:00Z", "2022-10-24T07:00:00Z", "2022-10-24T07:00:00Z", "2022-10-24T07:00:00Z", "2022-10-24T07:00:00Z", "2022-10-24T06:50:00Z", "2022-10-24T06:50:00Z", "2022-10-24T06:50:00Z", "2022-10-24T06:50:00Z", "2022-10-24T06:50:00Z", "2022-10-24T06:55:00Z", "2022-10-24T07:30:00Z", "2022-10-24T07:30:00Z", "2022-10-24T07:25:00Z", "2022-10-24T07:30:00Z", "2022-10-24T07:25:00Z", "2022-10-24T07:00:00Z", "2022-10-24T07:00:00Z", "2022-10-24T07:38:00Z", "2022-10-24T07:00:00Z", "2022-10-24T07:00:00Z", "2022-10-24T07:00:00Z", "2022-10-24T07:00:00Z", "2022-10-24T07:00:00Z", "2022-10-24T07:00:00Z", "2022-10-24T07:30:00Z", "2022-10-24T07:00:00Z", "2022-10-24T07:35:00Z", "2022-10-24T06:56:00Z", "2022-10-24T06:53:00Z", "2022-10-24T06:52:00Z", "2022-10-24T07:21:00Z", "2022-10-24T07:12:00Z", "2022-10-24T07:33:00Z", "2022-10-24T06:53:00Z", "2022-10-24T06:56:00Z", "2022-10-24T06:53:00Z", "2022-10-24T06:53:00Z", "2022-10-24T07:25:00Z", "2022-10-24T06:56:00Z", "2022-10-24T06:56:00Z", "2022-10-24T07:27:00Z", "2022-10-24T06:53:00Z", "2022-10-24T06:56:00Z", "2022-10-24T06:55:00Z", "2022-10-24T07:24:00Z", "2022-10-24T07:05:00Z", "2022-10-24T06:53:00Z", "2022-10-24T06:53:00Z", "2022-10-24T06:55:00Z", "2022-10-24T06:56:00Z", "2022-10-24T06:56:00Z", "2022-10-24T06:55:00Z", "2022-10-24T07:01:00Z", "2022-10-24T06:56:00Z", "2022-10-24T06:53:00Z", "2022-10-24T07:36:00Z", "2022-10-24T06:56:00Z", "2022-10-24T07:17:00Z", "2022-10-24T06:56:00Z", "2022-10-24T06:53:00Z", "2022-10-24T06:56:00Z", "2022-10-24T06:54:00Z", "2022-10-24T06:53:00Z", "2022-10-24T07:02:00Z", "2022-10-24T07:20:00Z", "2022-10-24T06:56:00Z", "2022-10-24T06:56:00Z", "2022-10-24T06:53:00Z", "2022-10-24T06:55:00Z", "2022-10-24T07:35:00Z", "2022-10-24T06:57:00Z", "2022-10-24T06:53:00Z", "2022-10-24T07:28:00Z", "2022-10-24T06:56:00Z", "2022-10-24T07:11:00Z", "2022-10-24T06:56:00Z", "2022-10-24T07:14:00Z", "2022-10-24T06:54:00Z", "2022-10-24T06:56:00Z", "2022-10-24T06:53:00Z", "2022-10-24T06:53:00Z", "2022-10-24T06:53:00Z", "2022-10-24T07:35:00Z", "2022-10-24T06:53:00Z", "2022-10-24T06:58:00Z", "2022-10-24T07:36:00Z", "2022-10-24T06:51:00Z", "2022-10-24T07:18:00Z", "2022-10-24T06:53:00Z", "2022-10-24T07:31:00Z", "2022-10-24T06:53:00Z", "2022-10-24T07:32:00Z", "2022-10-24T07:32:00Z", "2022-10-24T07:24:00Z", "2022-10-24T07:32:00Z", "2022-10-24T06:56:00Z", "2022-10-24T07:25:00Z", "2022-10-24T06:56:00Z", "2022-10-24T06:53:00Z", "2022-10-24T07:16:00Z", "2022-10-24T06:56:00Z", "2022-10-24T06:53:00Z", "2022-10-24T07:08:00Z", "2022-10-24T07:20:00Z", "2022-10-24T07:31:00Z", "2022-10-24T06:56:00Z", "2022-10-24T06:56:00Z", "2022-10-24T06:53:00Z", "2022-10-24T06:56:00Z", "2022-10-24T07:22:00Z", "2022-10-24T06:56:00Z", "2022-10-24T07:11:00Z", "2022-10-24T07:07:00Z", "2022-10-24T06:56:00Z", "2022-10-24T06:56:00Z", "2022-10-24T06:53:00Z", "2022-10-24T07:27:00Z", "2022-10-24T07:25:00Z", "2022-10-24T07:20:00Z", "2022-10-24T06:53:00Z", "2022-10-24T06:53:00Z", "2022-10-24T06:55:00Z", "2022-10-24T06:56:00Z", "2022-10-24T06:58:00Z", "2022-10-24T06:52:00Z", "2022-10-24T06:55:00Z", "2022-10-24T06:56:00Z", "2022-10-24T07:18:00Z", "2022-10-24T06:53:00Z", "2022-10-24T06:55:00Z", "2022-10-24T06:53:00Z", "2022-10-24T06:56:00Z", "2022-10-24T06:56:00Z", "2022-10-24T07:35:00Z", "2022-10-24T07:27:00Z", "2022-10-24T06:56:00Z", "2022-10-24T06:56:00Z", "2022-10-24T06:53:00Z", "2022-10-24T06:53:00Z", "2022-10-24T06:56:00Z", "2022-10-24T07:26:00Z", "2022-10-24T06:56:00Z", "2022-10-24T06:53:00Z", "2022-10-24T06:56:00Z", "2022-10-24T06:56:00Z", "2022-10-24T07:18:00Z", "2022-10-24T06:56:00Z", "2022-10-24T07:26:00Z", "2022-10-24T07:30:00Z", "2022-10-24T07:31:00Z", "2022-10-24T07:07:00Z", "2022-10-24T06:50:00Z", "2022-10-24T06:54:00Z", "2022-10-24T06:55:00Z", "2022-10-24T06:54:00Z", "2022-10-24T06:50:00Z", "2022-10-24T06:51:00Z", "2022-10-24T07:34:00Z", "2022-10-24T06:53:00Z", "2022-10-24T06:53:00Z", "2022-10-24T06:53:00Z", "2022-10-24T06:54:00Z", "2022-10-24T06:57:00Z", "2022-10-24T06:53:00Z", "2022-10-24T06:56:00Z", "2022-10-24T06:54:00Z", "2022-10-24T06:58:00Z", "2022-10-24T06:53:00Z", "2022-10-24T06:56:00Z", "2022-10-24T07:20:00Z", "2022-10-24T07:00:00Z", "2022-10-24T06:56:00Z", "2022-10-24T06:56:00Z", "2022-10-24T06:50:00Z", "2022-10-24T06:51:00Z", "2022-10-24T07:11:00Z", "2022-10-24T06:59:00Z", "2022-10-24T07:30:00Z", "2022-10-24T07:30:00Z", "2022-10-24T07:30:00Z", "2022-10-24T07:30:00Z", "2022-10-24T07:30:00Z", "2022-10-24T07:30:00Z", "2022-10-24T07:30:00Z", "2022-10-24T07:00:00Z", "2022-10-24T07:00:00Z", "2022-10-24T07:00:00Z", "2022-10-24T07:30:00Z", "2022-10-24T07:00:00Z", "2022-10-24T07:00:00Z", "2022-10-24T07:00:00Z", "2022-10-24T07:00:00Z", "2022-10-24T07:30:00Z", "2022-10-24T07:00:00Z", "2022-10-24T07:00:00Z", "2022-10-24T07:00:00Z", "2022-10-24T07:00:00Z", "2022-10-24T07:08:00Z", "2022-10-24T07:00:00Z", "2022-10-24T07:00:00Z", "2022-10-24T07:00:00Z", "2022-10-24T07:00:00Z", "2022-10-24T07:00:00Z", "2022-10-24T07:00:00Z", "2022-10-24T07:00:00Z", "2022-10-24T07:30:00Z", "2022-10-24T07:00:00Z", "2022-10-24T07:00:00Z", "2022-10-24T07:00:00Z", "2022-10-24T07:00:00Z", "2022-10-24T07:00:00Z", "2022-10-24T07:00:00Z", "2022-10-24T07:00:00Z", "2022-10-24T07:00:00Z", "2022-10-24T07:30:00Z", "2022-10-24T07:00:00Z", "2022-10-24T07:29:00Z", "2022-10-24T07:00:00Z", "2022-10-24T07:00:00Z", "2022-10-24T07:00:00Z", "2022-10-24T07:00:00Z", "2022-10-24T06:41:00Z", "2022-10-24T07:00:00Z", "2022-10-24T07:00:00Z", "2022-10-24T07:00:00Z", "2022-10-24T06:31:00Z", "2022-10-24T07:00:00Z", "2022-10-24T06:56:00Z", "2022-10-24T07:00:00Z", "2022-10-24T07:00:00Z", "2022-10-24T07:00:00Z", "2022-10-24T07:15:00Z", "2022-10-24T07:00:00Z", "2022-10-24T07:00:00Z", "2022-10-24T07:00:00Z", "2022-10-24T07:00:00Z", "2022-10-24T06:38:00Z", "2022-10-24T07:00:00Z", "2022-10-24T07:00:00Z", "2022-10-24T07:00:00Z", "2022-10-24T07:00:00Z", "2022-10-24T07:00:00Z", "2022-10-24T07:00:00Z", "2022-10-24T07:00:00Z", "2022-10-24T07:00:00Z", "2022-10-24T07:00:00Z", "2022-10-24T07:00:00Z", "2022-10-24T07:00:00Z", "2022-10-24T07:00:00Z", "2022-10-24T07:00:00Z", "2022-10-24T07:30:00Z", "2022-10-24T07:23:00Z", "2022-10-24T07:00:00Z", "2022-10-24T06:55:00Z", "2022-10-24T07:04:00Z", "2022-10-24T07:00:00Z", "2022-10-24T07:00:00Z", "2022-10-24T07:00:00Z", "2022-10-24T06:55:00Z", "2022-10-24T07:30:00Z", "2022-10-24T07:00:00Z", "2022-10-24T06:55:00Z", "2022-10-24T07:00:00Z", "2022-10-24T07:00:00Z", "2022-10-24T07:00:00Z", "2022-10-24T07:30:00Z", "2022-10-24T06:55:00Z", "2022-10-24T07:03:00Z", "2022-10-24T07:14:00Z", "2022-10-24T07:00:00Z", "2022-10-24T07:00:00Z", "2022-10-24T07:00:00Z", "2022-10-24T07:00:00Z", "2022-10-24T06:56:00Z", "2022-10-24T07:00:00Z", "2022-10-24T07:00:00Z", "2022-10-24T07:00:00Z", "2022-10-24T07:00:00Z", "2022-10-24T07:00:00Z", "2022-10-24T07:00:00Z", "2022-10-24T07:00:00Z", "2022-10-24T07:00:00Z", "2022-10-24T07:00:00Z", "2022-10-24T07:00:00Z", "2022-10-24T07:00:00Z", "2022-10-24T07:00:00Z", "2022-10-24T07:00:00Z", "2022-10-24T07:00:00Z", "2022-10-24T07:00:00Z", "2022-10-24T07:00:00Z", "2022-10-24T07:00:00Z", "2022-10-24T07:00:00Z", "2022-10-24T07:00:00Z", "2022-10-24T07:00:00Z", "2022-10-24T07:00:00Z", "2022-10-24T07:00:00Z", "2022-10-24T07:00:00Z", "2022-10-24T07:00:00Z", "2022-10-24T07:00:00Z", "2022-10-24T07:00:00Z", "2022-10-24T07:00:00Z", "2022-10-24T07:00:00Z", "2022-10-24T07:00:00Z", "2022-10-24T07:00:00Z", "2022-10-24T07:00:00Z", "2022-10-24T07:00:00Z", "2022-10-24T07:00:00Z", "2022-10-24T07:00:00Z", "2022-10-24T07:00:00Z", "2022-10-24T07:00:00Z", "2022-10-24T07:00:00Z", "2022-10-24T07:00:00Z", "2022-10-24T07:00:00Z", "2022-10-24T07:00:00Z", "2022-10-24T07:00:00Z", "2022-10-24T07:00:00Z", "2022-10-24T07:00:00Z", "2022-10-24T07:00:00Z", "2022-10-24T07:00:00Z", "2022-10-24T07:00:00Z", "2022-10-24T07:00:00Z", "2022-10-24T07:00:00Z", "2022-10-24T07:00:00Z", "2022-10-24T07:00:00Z", "2022-10-24T07:00:00Z", "2022-10-24T07:00:00Z", "2022-10-24T07:00:00Z", "2022-10-24T07:00:00Z", "2022-10-24T07:00:00Z", "2022-10-24T07:00:00Z", "2022-10-24T07:00:00Z", "2022-10-24T07:00:00Z", "2022-10-24T07:00:00Z", "2022-10-24T07:00:00Z", "2022-10-24T07:00:00Z", "2022-10-24T07:00:00Z", "2022-10-24T07:00:00Z", "2022-10-24T07:00:00Z", "2022-10-24T07:00:00Z", "2022-10-24T07:00:00Z", "2022-10-24T07:00:00Z", "2022-10-24T07:00:00Z", "2022-10-24T07:00:00Z", "2022-10-24T07:00:00Z", "2022-10-24T07:00:00Z", "2022-10-24T07:00:00Z", "2022-10-24T07:00:00Z", "2022-10-24T07:00:00Z", "2022-10-24T07:00:00Z", "2022-10-24T07:00:00Z", "2022-10-24T07:00:00Z", "2022-10-24T07:00:00Z", "2022-10-24T07:00:00Z", "2022-10-24T07:00:00Z", "2022-10-24T07:00:00Z", "2022-10-24T07:00:00Z", "2022-10-24T07:00:00Z", "2022-10-24T07:00:00Z", "2022-10-24T07:00:00Z", "2022-10-24T07:00:00Z", "2022-10-24T07:00:00Z", "2022-10-24T07:00:00Z", "2022-10-24T07:00:00Z", "2022-10-24T07:00:00Z", "2022-10-24T07:00:00Z", "2022-10-24T07:00:00Z", "2022-10-24T07:00:00Z", "2022-10-24T07:00:00Z", "2022-10-24T07:00:00Z", "2022-10-24T07:00:00Z", "2022-10-24T07:00:00Z", "2022-10-24T07:00:00Z", "2022-10-24T07:00:00Z", "2022-10-24T07:00:00Z", "2022-10-24T07:00:00Z", "2022-10-24T07:00:00Z", "2022-10-24T07:00:00Z", "2022-10-24T07:00:00Z", "2022-10-24T07:00:00Z", "2022-10-24T07:00:00Z", "2022-10-24T07:00:00Z", "2022-10-24T07:00:00Z", "2022-10-24T07:00:00Z", "2022-10-24T07:00:00Z", "2022-10-24T07:00:00Z", "2022-10-24T07:00:00Z", "2022-10-24T07:00:00Z", "2022-10-24T07:00:00Z", "2022-10-24T07:00:00Z", "2022-10-24T07:00:00Z", "2022-10-24T07:00:00Z", "2022-10-24T07:00:00Z", "2022-10-24T07:00:00Z", "2022-10-24T07:00:00Z", "2022-10-24T07:00:00Z", "2022-10-24T07:00:00Z", "2022-10-24T07:00:00Z", "2022-10-24T07:00:00Z", "2022-10-24T07:00:00Z", "2022-10-24T07:00:00Z", "2022-10-24T07:00:00Z", "2022-10-24T07:30:00Z", "2022-10-24T07:28:00Z", "2022-10-24T07:00:00Z", "2022-10-24T07:03:00Z", "2022-10-24T07:03:00Z", "2022-10-24T07:03:00Z", "2022-10-24T07:03:00Z", "2022-10-24T07:03:00Z", "2022-10-24T07:03:00Z", "2022-10-24T07:03:00Z", "2022-10-24T07:03:00Z", "2022-10-24T07:03:00Z", "2022-10-24T07:03:00Z", "2022-10-24T07:03:00Z", "2022-10-24T07:03:00Z", "2022-10-24T07:03:00Z", "2022-10-24T07:03:00Z", "2022-10-24T07:03:00Z", "2022-10-24T07:03:00Z", "2022-10-24T07:03:00Z", "2022-10-24T07:03:00Z", "2022-10-24T07:03:00Z", "2022-10-24T07:03:00Z", "2022-10-24T07:00:00Z", "2022-10-24T07:00:00Z", "2022-10-24T07:00:00Z", "2022-10-24T07:30:00Z", "2022-10-24T07:30:00Z", "2022-10-24T06:53:00Z", "2022-10-24T06:53:00Z", "2022-10-24T06:53:00Z", "2022-10-24T06:56:00Z", "2022-10-24T07:00:00Z", "2022-10-24T07:00:00Z", "2022-10-24T06:55:00Z", "2022-10-24T07:00:00Z", "2022-10-24T06:55:00Z", "2022-10-24T07:00:00Z", "2022-10-24T07:00:00Z", "2022-10-24T07:00:00Z", "2022-10-24T06:55:00Z", "2022-10-24T07:30:00Z", "2022-10-24T07:30:00Z", "2022-10-24T07:30:00Z", "2022-10-24T07:30:00Z", "2022-10-24T07:30:00Z", "2022-10-24T07:30:00Z", "2022-10-24T07:30:00Z", "2022-10-24T07:30:00Z", "2022-10-24T07:30:00Z", "2022-10-24T07:30:00Z", "2022-10-24T07:30:00Z", "2022-10-24T07:30:00Z", "2022-10-24T07:30:00Z", "2022-10-24T07:30:00Z", "2022-10-24T07:30:00Z", "2022-10-24T07:30:00Z", "2022-10-24T07:00:00Z", "2022-10-24T07:30:00Z", "2022-10-24T07:00:00Z", "2022-10-24T07:00:00Z", "2022-10-24T07:30:00Z", "2022-10-24T07:00:00Z", "2022-10-24T07:00:00Z", "2022-10-24T07:30:00Z", "2022-10-24T07:30:00Z", "2022-10-24T07:30:00Z", "2022-10-24T07:30:00Z", "2022-10-24T07:30:00Z", "2022-10-24T07:30:00Z", "2022-10-24T07:30:00Z", "2022-10-24T07:30:00Z", "2022-10-24T07:30:00Z", "2022-10-24T07:30:00Z", "2022-10-24T07:30:00Z", "2022-10-24T07:30:00Z", "2022-10-24T07:00:00Z", "2022-10-24T07:30:00Z", "2022-10-24T07:30:00Z", "2022-10-24T07:30:00Z", "2022-10-24T07:30:00Z", "2022-10-24T07:30:00Z", "2022-10-24T07:30:00Z", "2022-10-24T07:30:00Z", "2022-10-24T07:30:00Z", "2022-10-24T07:30:00Z", "2022-10-24T07:30:00Z", "2022-10-24T07:30:00Z", "2022-10-24T07:30:00Z", "2022-10-24T07:30:00Z", "2022-10-24T07:30:00Z", "2022-10-24T07:00:00Z", "2022-10-24T07:30:00Z", "2022-10-24T07:30:00Z", "2022-10-24T07:05:00Z", "2022-10-24T07:30:00Z", "2022-10-24T07:00:00Z", "2022-10-24T07:30:00Z", "2022-10-24T07:30:00Z", "2022-10-24T07:30:00Z", "2022-10-24T07:30:00Z", "2022-10-24T07:30:00Z", "2022-10-24T07:30:00Z", "2022-10-24T07:30:00Z", "2022-10-24T07:30:00Z", "2022-10-24T07:30:00Z", "2022-10-24T07:30:00Z", "2022-10-24T07:30:00Z", "2022-10-24T07:30:00Z", "2022-10-24T07:30:00Z", "2022-10-24T07:30:00Z", "2022-10-24T07:30:00Z", "2022-10-24T07:30:00Z", "2022-10-24T07:30:00Z", "2022-10-24T07:30:00Z", "2022-10-24T07:30:00Z", "2022-10-24T07:30:00Z", "2022-10-24T07:30:00Z", "2022-10-24T07:30:00Z", "2022-10-24T07:30:00Z", "2022-10-24T07:30:00Z", "2022-10-24T07:30:00Z", "2022-10-24T07:30:00Z", "2022-10-24T07:30:00Z", "2022-10-24T07:30:00Z", "2022-10-24T07:30:00Z", "2022-10-24T07:30:00Z", "2022-10-24T07:30:00Z", "2022-10-24T07:00:00Z", "2022-10-24T07:00:00Z", "2022-10-24T07:00:00Z", "2022-10-24T07:00:00Z", "2022-10-24T07:00:00Z", "2022-10-24T07:30:00Z", "2022-10-24T07:30:00Z", "2022-10-24T07:30:00Z", "2022-10-24T07:30:00Z", "2022-10-24T07:00:00Z", "2022-10-24T07:00:00Z", "2022-10-24T07:00:00Z", "2022-10-24T07:00:00Z", "2022-10-24T07:00:00Z", "2022-10-24T07:22:00Z", "2022-10-24T07:00:00Z", "2022-10-24T07:00:00Z", "2022-10-24T07:00:00Z", "2022-10-24T07:00:00Z", "2022-10-24T07:00:00Z", "2022-10-24T07:00:00Z", "2022-10-24T07:30:00Z", "2022-10-24T07:30:00Z", "2022-10-24T07:30:00Z", "2022-10-24T07:30:00Z", "2022-10-24T07:30:00Z", "2022-10-24T07:30:00Z", "2022-10-24T07:30:00Z", "2022-10-24T07:30:00Z", "2022-10-24T07:30:00Z", "2022-10-24T07:30:00Z", "2022-10-24T07:30:00Z", "2022-10-24T07:30:00Z", "2022-10-24T07:30:00Z", "2022-10-24T07:30:00Z", "2022-10-24T07:30:00Z", "2022-10-24T07:30:00Z", "2022-10-24T07:30:00Z", "2022-10-24T07:30:00Z", "2022-10-24T07:00:00Z", "2022-10-24T07:30:00Z", "2022-10-24T07:00:00Z", "2022-10-24T07:30:00Z", "2022-10-24T07:30:00Z", "2022-10-24T07:30:00Z", "2022-10-24T07:30:00Z", "2022-10-24T07:30:00Z", "2022-10-24T07:30:00Z", "2022-10-24T07:30:00Z", "2022-10-24T07:30:00Z", "2022-10-24T07:00:00Z", "2022-10-24T07:30:00Z", "2022-10-24T07:30:00Z", "2022-10-24T07:00:00Z", "2022-10-24T07:30:00Z", "2022-10-24T07:30:00Z", "2022-10-24T07:30:00Z", "2022-10-24T07:00:00Z", "2022-10-24T07:30:00Z", "2022-10-24T07:30:00Z", "2022-10-24T07:00:00Z", "2022-10-24T07:10:00Z", "2022-10-24T07:10:00Z", "2022-10-24T07:30:00Z", "2022-10-24T07:30:00Z", "2022-10-24T07:30:00Z", "2022-10-24T07:30:00Z", "2022-10-24T07:00:00Z", "2022-10-24T07:30:00Z", "2022-10-24T07:30:00Z", "2022-10-24T07:00:00Z", "2022-10-24T07:30:00Z", "2022-10-24T07:00:00Z", "2022-10-24T07:30:00Z", "2022-10-24T07:30:00Z", "2022-10-24T07:30:00Z", "2022-10-24T07:30:00Z", "2022-10-24T07:30:00Z", "2022-10-24T07:30:00Z", "2022-10-24T07:30:00Z", "2022-10-24T07:00:00Z", "2022-10-24T07:00:00Z", "2022-10-24T07:30:00Z", "2022-10-24T07:00:00Z", "2022-10-24T07:30:00Z", "2022-10-24T07:30:00Z", "2022-10-24T07:30:00Z", "2022-10-24T07:30:00Z", "2022-10-24T07:30:00Z", "2022-10-24T07:30:00Z", "2022-10-24T07:00:00Z", "2022-10-24T07:30:00Z", "2022-10-24T07:30:00Z", "2022-10-24T07:30:00Z", "2022-10-24T07:30:00Z", "2022-10-24T07:30:00Z", "2022-10-24T07:30:00Z", "2022-10-24T07:30:00Z", "2022-10-24T07:30:00Z", "2022-10-24T07:00:00Z", "2022-10-24T07:00:00Z", "2022-10-24T07:00:00Z", "2022-10-24T07:00:00Z", "2022-10-24T07:00:00Z", "2022-10-24T07:30:00Z", "2022-10-24T07:30:00Z", "2022-10-24T07:30:00Z", "2022-10-24T07:00:00Z", "2022-10-24T07:30:00Z", "2022-10-24T07:30:00Z", "2022-10-24T07:30:00Z", "2022-10-24T07:30:00Z", "2022-10-24T07:30:00Z", "2022-10-24T07:30:00Z", "2022-10-24T07:30:00Z", "2022-10-24T07:30:00Z", "2022-10-24T07:30:00Z", "2022-10-24T07:30:00Z", "2022-10-24T07:00:00Z", "2022-10-24T07:30:00Z", "2022-10-24T07:30:00Z", "2022-10-24T07:30:00Z", "2022-10-24T07:00:00Z", "2022-10-24T07:30:00Z", "2022-10-24T07:30:00Z", "2022-10-24T07:30:00Z", "2022-10-24T07:30:00Z", "2022-10-24T07:30:00Z", "2022-10-24T07:30:00Z", "2022-10-24T07:00:00Z", "2022-10-24T07:30:00Z", "2022-10-24T07:00:00Z", "2022-10-24T07:30:00Z", "2022-10-24T07:00:00Z", "2022-10-24T07:30:00Z", "2022-10-24T07:30:00Z", "2022-10-24T07:30:00Z", "2022-10-24T07:00:00Z", "2022-10-24T07:30:00Z", "2022-10-24T07:00:00Z", "2022-10-24T07:00:00Z", "2022-10-24T07:00:00Z", "2022-10-24T07:30:00Z", "2022-10-24T07:00:00Z", "2022-10-24T07:30:00Z", "2022-10-24T07:30:00Z", "2022-10-24T07:30:00Z", "2022-10-24T07:00:00Z", "2022-10-24T07:00:00Z", "2022-10-24T07:00:00Z", "2022-10-24T07:00:00Z", "2022-10-24T07:00:00Z", "2022-10-24T07:00:00Z", "2022-10-24T07:00:00Z", "2022-10-24T07:00:00Z", "2022-10-24T07:00:00Z", "2022-10-24T07:00:00Z", "2022-10-24T07:00:00Z", "2022-10-24T07:00:00Z", "2022-10-24T07:00:00Z", "2022-10-24T07:00:00Z", "2022-10-24T07:00:00Z", "2022-10-24T07:00:00Z", "2022-10-24T07:30:00Z", "2022-10-24T07:00:00Z", "2022-10-24T07:30:00Z", "2022-10-24T07:00:00Z", "2022-10-24T07:00:00Z", "2022-10-24T07:00:00Z", "2022-10-24T07:00:00Z", "2022-10-24T07:00:00Z", "2022-10-24T07:00:00Z", "2022-10-24T07:00:00Z", "2022-10-24T07:00:00Z", "2022-10-24T07:00:00Z", "2022-10-24T07:00:00Z", "2022-10-24T07:30:00Z", "2022-10-24T07:30:00Z", "2022-10-24T07:30:00Z", "2022-10-24T07:30:00Z", "2022-10-24T07:30:00Z", "2022-10-24T07:30:00Z", "2022-10-24T07:30:00Z", "2022-10-24T07:30:00Z", "2022-10-24T07:30:00Z", "2022-10-24T07:00:00Z", "2022-10-24T07:30:00Z", "2022-10-24T07:30:00Z", "2022-10-24T07:00:00Z", "2022-10-24T07:30:00Z", "2022-10-24T07:30:00Z", "2022-10-24T07:30:00Z", "2022-10-24T07:00:00Z", "2022-10-24T07:00:00Z", "2022-10-24T07:30:00Z", "2022-10-24T07:00:00Z", "2022-10-24T07:00:00Z", "2022-10-24T07:30:00Z", "2022-10-24T07:00:00Z", "2022-10-24T07:30:00Z", "2022-10-24T07:00:00Z", "2022-10-24T07:00:00Z", "2022-10-24T07:00:00Z", "2022-10-24T07:30:00Z", "2022-10-24T07:00:00Z", "2022-10-24T07:00:00Z", "2022-10-24T07:00:00Z", "2022-10-24T07:30:00Z", "2022-10-24T07:00:00Z", "2022-10-24T07:00:00Z", "2022-10-24T07:00:00Z", "2022-10-24T07:30:00Z", "2022-10-24T07:30:00Z", "2022-10-24T07:30:00Z", "2022-10-24T07:00:00Z", "2022-10-24T07:30:00Z", "2022-10-24T07:00:00Z", "2022-10-24T07:30:00Z", "2022-10-24T07:30:00Z", "2022-10-24T07:00:00Z", "2022-10-24T07:00:00Z", "2022-10-24T07:00:00Z", "2022-10-24T07:00:00Z", "2022-10-24T07:00:00Z", "2022-10-24T07:00:00Z", "2022-10-24T07:00:00Z", "2022-10-24T07:00:00Z", "2022-10-24T07:00:00Z", "2022-10-24T07:00:00Z", "2022-10-24T07:00:00Z", "2022-10-24T07:30:00Z", "2022-10-24T07:00:00Z", "2022-10-24T07:00:00Z", "2022-10-24T07:00:00Z", "2022-10-24T07:30:00Z", "2022-10-24T07:00:00Z", "2022-10-24T07:00:00Z", "2022-10-24T07:00:00Z", "2022-10-24T07:30:00Z", "2022-10-24T06:30:00Z", "2022-10-24T07:30:00Z", "2022-10-24T07:30:00Z", "2022-10-24T07:30:00Z", "2022-10-24T07:36:00Z", "2022-10-24T07:31:00Z", "2022-10-24T07:30:00Z", "2022-10-24T07:30:00Z", "2022-10-24T07:30:00Z", "2022-10-24T07:30:00Z", "2022-10-24T07:30:00Z", "2022-10-24T06:30:00Z", "2022-10-24T07:30:00Z", "2022-10-24T07:34:00Z", "2022-10-24T07:13:00Z", "2022-10-24T06:50:00Z", "2022-10-24T07:20:00Z", "2022-10-24T07:30:00Z", "2022-10-24T07:30:00Z", "2022-10-24T07:30:00Z", "2022-10-24T07:30:00Z", "2022-10-24T07:30:00Z", "2022-10-24T07:07:00Z", "2022-10-24T07:30:00Z", "2022-10-24T07:30:00Z", "2022-10-24T07:30:00Z", "2022-10-24T07:30:00Z", "2022-10-24T07:30:00Z", "2022-10-24T07:08:00Z", "2022-10-24T07:30:00Z", "2022-10-24T07:30:00Z", "2022-10-24T07:30:00Z", "2022-10-24T07:30:00Z", "2022-10-24T07:30:00Z", "2022-10-24T07:30:00Z", "2022-10-24T07:30:00Z", "2022-10-24T07:30:00Z", "2022-10-24T07:30:00Z", "2022-10-24T07:30:00Z", "2022-10-24T07:30:00Z", "2022-10-24T07:22:00Z", "2022-10-24T07:30:00Z", "2022-10-24T07:30:00Z", "2022-10-24T07:30:00Z", "2022-10-24T07:30:00Z", "2022-10-24T07:00:00Z", "2022-10-24T07:00:00Z", "2022-10-24T07:30:00Z", "2022-10-24T07:30:00Z", "2022-10-24T07:30:00Z", "2022-10-24T07:00:00Z", "2022-10-24T07:00:00Z", "2022-10-24T07:00:00Z", "2022-10-24T07:00:00Z", "2022-10-24T07:00:00Z", "2022-10-24T07:00:00Z", "2022-10-24T07:00:00Z", "2022-10-24T07:00:00Z", "2022-10-24T07:00:00Z", "2022-10-24T07:00:00Z", "2022-10-24T07:00:00Z", "2022-10-24T07:30:00Z", "2022-10-24T07:00:00Z", "2022-10-24T07:00:00Z", "2022-10-24T07:00:00Z", "2022-10-24T07:00:00Z", "2022-10-24T07:30:00Z", "2022-10-24T07:00:00Z", "2022-10-24T07:00:00Z", "2022-10-24T07:00:00Z", "2022-10-24T07:30:00Z", "2022-10-24T07:00:00Z", "2022-10-24T07:30:00Z", "2022-10-24T07:00:00Z", "2022-10-24T07:00:00Z", "2022-10-24T07:00:00Z", "2022-10-24T07:00:00Z", "2022-10-24T07:00:00Z", "2022-10-24T07:30:00Z", "2022-10-24T07:00:00Z", "2022-10-24T07:00:00Z", "2022-10-24T07:30:00Z", "2022-10-24T07:30:00Z"], "raw_text": ["AGGH 240700Z 29003KT 9999 FEW018 FEW020CB 30/25 Q1007", "ANYN 240700Z 07008KT 9999 FEW020 29/24 Q1010", "AYMH 240700Z 14008KT 9999 BKN030 BKN050 20/18 Q1018", "AYNZ 240700Z 10010G20KT 9999 SCT050 31/21 Q1006", "AYPY 240700Z 17015KT 9999 FEW020 BKN025 30/25 Q1006", "BGBW 240650Z AUTO 23004KT 2500NDV -RASN FEW003/// SCT006/// BKN008/// OVC015/// 00/M01 Q0998", "BGGH 240650Z AUTO 19008KT 9999NDV OVC004/// 00/00 Q0999", "BGJN 240650Z AUTO 00000KT 9999NDV BKN180/// M03/M04 Q0998", "BGKK 240650Z AUTO 24004KT 4300NDV -RASN OVC023/// M00/M00 Q0996", "BGSF 240650Z AUTO 03007KT 9999NDV NCD M02/M04 Q0998", "BGTL 240655Z AUTO 09006KT 9999 CLR M12/M15 A2958 RMK AO2 SLP004 T11221151 TSNO $", "BIAR 240700Z 00000KT CAVOK M04/M05 Q1004", "BIEG 240700Z 18005KT CAVOK M01/M02 Q1005", "BIIS 240700Z VRB05KT CAVOK 04/01 Q1002", "BIKF 240730Z 11017KT 9999 -RA FEW018 BKN048 06/04 Q0999", "BIRK 240700Z 08012KT 9999 -SHRA SCT023 BKN062 06/01 Q1000", "BKPR 240730Z VRB01KT 6000 NSC 12/09 Q1025 NOSIG", "CAHR 240700Z AUTO 21005KT 12/10 RMK AO1 SLP281 T01180095 56005", "CBAR 240700Z AUTO 31009KT ////SM SCT090 M09/M12 A3010", "CBBC 240728Z AUTO 17008KT 9SM -RA SCT024 BKN034 BKN050 BKN060 08/08 A2970 RMK SLP060", "CERM 240700Z AUTO 00000KT 04/04 RMK AO1 SLP281 T00350041 54000", "CFOX 240700Z AUTO ///// ////SM BKN026 OVC031 M07/M09 A2974", "CMFM 240700Z AUTO 00000KT 04/03 RMK AO1 SLP280 T00360034 56007", "CMGB 240700Z AUTO 00000KT 08/07 RMK AO1 SLP252 T00820068 56003", "CPBT 240700Z AUTO 20009KT M07/M08 RMK AO1 T10661078", "CPEH 240700Z AUTO 00000KT M02/M03 RMK AO1 T10221031", "CPFI 240700Z AUTO 18006KT 00/M00 RMK AO1 T00001004", "CPIN 240706Z AUTO 26009KT ////SM FEW009 SCT022 BKN031 ///// A////", "CPRO 240700Z AUTO 17006KT M01/M01 RMK AO1 T10091009", "CPRY 240700Z AUTO 18007KT M03/M04 RMK AO1 T10271036", "CPST 240700Z AUTO 18012KT M02/M03 RMK AO1 7PAST HR M P0003 T10191032 50007", "CPSV 240700Z AUTO 25007KT M03/M03 RMK AO1 T10301031", "CTCK 240700Z AUTO 10001KT 04/03 RMK AO1 SLP243 T00380027 56001", "CTNK 240700Z AUTO 00000KT M00/M00 RMK AO1 SLP242 T10011003 58006", "CTRA 240700Z AUTO 11006KT 13/11 RMK AO1 SLP989 T01250108 56031", "CWAF 240700Z AUTO 05009KT 07/05 RMK AO1 T00660048", "CWAJ 240700Z AUTO 13010KT RMK AO1 56002", "CWAQ 240700Z AUTO 34023G28KT M01/M02 RMK AO1 SOG 02 3002 PK WND 34031/0629 SLP079 T10131020", "CWAR 240700Z AUTO 29006KT 11/08 RMK AO1 SLP269 T01120079 53002", "CWAV 240700Z AUTO 16001KT M05/M06 RMK AO1 SLP131 T10541059 58031", "CWBA 240700Z AUTO 16003KT 08/08 RMK AO1 T00820078", "CWBK 240700Z AUTO 21005KT 11/09 RMK AO1 SLP288 T01140088 56003", "CWBO 240700Z AUTO 18006KT M01/M02 RMK AO1 SLP177 T10081017 58019", "CWBS 240700Z AUTO 01003KT 11/08 RMK AO1 T01110076", "CWBT 240700Z AUTO 36002KT 01/01 RMK AO1 SLP276 T00050005 51005", "CWBU 240700Z AUTO 02014KT M00/M01 RMK AO1 5PAST HR SOG 02 8012 PK WND 01021/0609 SLP154 P0002 T10041010 50005", "CWBV 240700Z AUTO 35003KT 12/10 RMK AO1 SLP276 T01230104 58003", "CWBY 240700Z AUTO 06003KT 06/05 RMK AO1 SLP274 T00570049 50001", "CWBZ 240700Z AUTO 01001KT 04/03 RMK AO1 SLP241 T00370034 58002", "CWCF 240700Z AUTO 05010G21KT 03/02 RMK AO1 PK WND 06022/0606 SLP044 T00300015 56041", "CWCJ 240700Z AUTO 14005KT 19/10 RMK AO1 SLP114 T01890095 58014", "CWCO 240700Z AUTO 17002KT 09/05 RMK AO1 SLP213 T00930050 56009", "CWCT 240700Z AUTO 22008KT M04/M04 RMK AO1 SLP176 T10381041 56018", "CWDA 240700Z AUTO 32004KT 06/ RMK AO1 T0059", "CWDC 240700Z AUTO 12002KT 01/M00 RMK AO1 SOG 03 8009 SLP178 T00071003", "CWDJ 240700Z AUTO 36020KT M01/M02 RMK AO1 SOG 02 8011 PK WND 01025/0640 SLP089 T10071020", "CWDK 240700Z AUTO 16007KT M09/M10 RMK AO1 SOG 12 8024 SLP175 T10921102", "CWDM 240700Z AUTO 35002KT 01/01 RMK AO1 SLP268 T00050010 53008", "CWDO 240700Z AUTO 28015KT 09/07 RMK AO1 PK WND 28020/0621 SLP243 T00860067 53005", "CWDQ 240700Z AUTO 09001KT 05/04 RMK AO1 SLP270 T00490040 55000", "CWDT 240700Z AUTO 00000KT RMK AO1 51001", "CWDV 240700Z AUTO 13005KT 12/10 RMK AO1 1PAST HR 6028 SLP042 P0000 T01180104 50001", "CWDZ 240700Z AUTO 16006KT 01/01 RMK AO1 SLP158 T00060005 58020", "CWEB 240700Z AUTO 00012KT 09/08 RMK AO1 8PAST HR 8026 SLP118 P0003 T00910084 50008", "CWEE 240700Z AUTO 02/02 RMK AO1 SLP255 T00230022 50000", "CWEF 240700Z AUTO 12001KT 12/10 RMK AO1 SLP278 T01230096 50001", "CWEH 240700Z AUTO 35017KT M03/M04 RMK AO1 SOG 03 8011 PK WND 34026/0630 SLP151 T10291040", "CWEK 240700Z AUTO 16032G37KT 10/ RMK AO1 PK WND 17042/0648 SLP903 T0104 58006", "CWEL 240700Z AUTO 12023KT 10/07 RMK AO1 PK WND 12028/0648 SLP152 T01010068 58027", "CWEP 240700Z AUTO 19005KT 12/12 RMK AO1 SLP285 T01190115 56006", "CWEQ 240700Z AUTO 02010KT 00/01 RMK AO1 SLP080 T00000005 56028", "CWER 240700Z AUTO 11001KT RMK AO1", "CWEU 240700Z 08004KT 15SM IC FEW060 SCT150 M22/M26 A2983 RMK SC2AC1 SLP115", "CWEW 240700Z AUTO 04001KT 08/06 RMK AO1 SLP258 T00790064 56004", "CWEZ 240700Z AUTO 16012KT 09/08 RMK AO1 2PAST HR 8019 SLP165 P0005 T00930080 50012", "CWFD 240721Z AUTO ///// ////SM FEW004 SCT019 OVC055 M05/M05 A2946", "CWFF 240700Z AUTO 01014G20KT M01/M02 RMK AO1 6PAST HR 8019 PK WND 02020/0659 SLP144 P0002 T10091020 50006", "CWFJ 240700Z AUTO 21007KT M05/M06 RMK AO1 T10481059", "CWFQ 240700Z AUTO 16003KT 14/03 RMK AO1 SLP250 T01410029 56002", "CWGB 240700Z AUTO 11027KT 10/ RMK AO1 PK WND 11034/0624 SLP144 T0100 58024", "CWGD 240700Z AUTO 13009KT 13/05 RMK AO1 SLP205 T01290048 53001", "CWGH 240700Z AUTO 05002KT 12/07 RMK AO1 SLP238 T01160073 56002", "CWGL 240700Z AUTO 08002KT 08/06 RMK AO1 SLP207 T00770056 57011", "CWGM 240700Z AUTO 24016G21KT 01/M05 RMK AO1 SOG 30 8017 PK WND 25022/0638 SLP164 T00101047", "CWGR 240700Z AUTO 18001KT 11/10 RMK AO1 SLP276 T01080095 58006", "CWGT 240700Z AUTO 12033KT 09/04 RMK AO1 PRESFR PK WND 11038/0643 SLP128 T00880041 58035", "CWGW 240700Z AUTO 18004KT 01/M02 RMK AO1 SLP177 T00121015 58012", "CWGY 240700Z AUTO 00000KT M07/M08 RMK AO1 SLP178 T10701078 58022", "CWHI 240700Z AUTO 13008KT M05/M06 RMK AO1 T10471059", "CWHL 240700Z AUTO 14022KT 10/08 RMK AO1 PK WND 13028/0612 SLP952 T00990084 57005", "CWHO 240700Z AUTO 00028KT 04/M03 RMK AO1 SLP233 T00401027 51007", "CWHP 240700Z AUTO 36001KT 07/06 RMK AO1 SLP273 T00650061 53004", "CWHQ 240700Z AUTO 05001KT 08/07 RMK AO1 T00800066", "CWHT 240700Z AUTO 32013G24KT M02/M07 RMK AO1 PK WND 33024/0650 SLP096 T10171073 52007", "CWHV 240700Z AUTO 17001KT 08/07 RMK AO1 SLP264 T00830067 56007", "CWID 240700Z AUTO 10002KT M02/M06 RMK AO1 SLP146 T10201058 58009", "CWIG 240700Z AUTO 20002KT RMK AO1", "CWIJ 240700Z AUTO 19005KT M12/M15 RMK AO1 SOG 07 8009 SLP195 T11221147", "CWIK 240700Z AUTO 35013G18KT M00/M01 RMK AO1 0PAST HR 8017 PK WND 34019/0648 SLP040 P0004 T10011010 50010", "CWIL 240732Z AUTO ///// ////SM SCT003 BKN008 OVC025 ///// A////", "CWIP 240700Z AUTO 31003KT 06/06 RMK AO1 T00620056", "CWIS 240700Z AUTO 19001KT 08/06 RMK AO1 SLP279 T00790055 56005", "CWIT 240700Z AUTO 10004KT 10/07 RMK AO1 SLP243 T00960070 56003", "CWIW 240700Z AUTO 36018KT M00/M01 RMK AO1 SOG 02 6020 PK WND 00025/0624 SLP134 T10031010", "CWIX 240700Z AUTO 03001KT 07/07 RMK AO1 SLP257 T00720069 51002", "CWIZ 240700Z AUTO 23001KT 09/07 RMK AO1 T00920067", "CWJB 240700Z AUTO 35009KT 10/07 RMK AO1 T01020068", "CWJC 240700Z AUTO 17015KT M07/M09 RMK AO1 SOG 09 8013 PK WND 18019/0659 SLP256 T10681086", "CWJD 240700Z AUTO 04013G25KT 02/01 RMK AO1 2PAST HR 8036 PK WND 04025/0612 SLP093 P0001 T00230014 50002", "CWJH 240700Z AUTO 06003KT M01/M06 RMK AO1 SLP214 T10131057 57012", "CWJI 240700Z AUTO 35023G29KT M02/M02 RMK AO1 SOG 12 7001 PK WND 00030/0640 SLP105 T10171015", "CWJR 240700Z AUTO 07003KT 05/02 RMK AO1 SLP192 T00480021 57005", "CWJT 240700Z AUTO 00000KT 04/ RMK AO1 SLP251 T0040 56005", "CWJU 240700Z AUTO 28035G43KT 09/08 RMK AO1 PRESRR PK WND 27044/0639 SLP928 T00920082 53033", "CWJV 240700Z AUTO 09003KT 06/M00 RMK AO1 SLP163 T00581004 58004", "CWJW 240700Z AUTO 09004KT 03/M07 RMK AO1 SLP109 T00281074 58011", "CWJX 240700Z AUTO 34004KT M01/M02 RMK AO1 SLP164 T10071024 58024", "CWKD 240700Z AUTO 06/06 RMK AO1 SLP266 T00620061 50002", "CWKG 240700Z AUTO 07003KT 10/10 RMK AO1 9PAST HR 8005 SLP283 P0004 T01040099 50009", "CWKH 240700Z AUTO 05/05 RMK AO1 4PAST HR 8022 SLP157 P0002 T00540049 50004", "CWKK 240700Z AUTO 12010KT 12/ RMK AO1 SLP087 T0115 58018", "CWKM 240700Z AUTO 11022KT ////SM BKN003 BKN046 M09/M09 A3005", "CWKO 240700Z AUTO 35009KT M03/M04 RMK AO1 SOG 03 8004 SLP090 T10271037", "CWKP 240700Z AUTO 28021KT ////SM OVC012 M08/M09 A2992", "CWKX 240700Z AUTO 34007KT M00/M03 RMK AO1 SLP012 T10021032 50001", "CWLB 240700Z AUTO 16006KT 03/M02 RMK AO1 SLP155 T00271021 58015", "CWLC 240700Z AUTO 16031G37KT 10/08 RMK AO1 PK WND 16039/0639 T01040082", "CWLE 240700Z AUTO 01018KT M01/M02 RMK AO1 SOG 12 8016 PK WND 35024/0625 SLP150 T10111016", "CWLI 240700Z AUTO 33004KT ////SM OVC021 M08/M12 A3012", "CWLM 240700Z AUTO 12004KT 09/08 RMK AO1 2PAST HR 8019 SLP168 P0001 T00890082 50002", "CWLS 240700Z AUTO 15006KT 11/04 RMK AO1 SLP219 T01100044 55003", "CWLX 240700Z AUTO ///// ////SM ////// M08/M09 A2975", "CWLY 240700Z AUTO 18009G25KT 150V220 9SM BKN071 OVC089 11/01 A2987 RMK SLP123", "CWME 240700Z AUTO 21010G21KT 09/06 RMK AO1 8PAST HR 8001 PK WND 20022/0629 SLP063 P0007 T00860060 50018", "CWMJ 240700Z AUTO 00000KT 05/04 RMK AO1 SLP250 T00490043 58002", "CWMM 240700Z AUTO 09003KT 08/08 RMK AO1 1PAST HR 8014 SLP185 P0012 T00830075 50031", "CWMQ 240700Z AUTO 29003KT M01/M01 RMK AO1 SOG 10 8016 SLP174 T10081012", "CWMT 240700Z AUTO 06002KT M05/M06 RMK AO1 SLP166 T10451062 57006", "CWMZ 240700Z AUTO 11006KT 13/09 RMK AO1 SLP219 T01320088 56009", "CWNC 240700Z AUTO 07004KT 11/07 RMK AO1 SLP227 T01130071 50001", "CWND M01/M01 RMK 3003 T10061014", "CWNE 240700Z AUTO 22010KT 13/11 RMK AO1 SLP271 T01320111 56005", "CWNH 240700Z AUTO 26002KT 14/05 RMK AO1 SLP265 T01360049 56001", "CWNK 240700Z AUTO 35011G16KT 08/08 RMK AO1 0PAST HR 5026 SLP953 P0039 T00820076 50100", "CWNM 240700Z AUTO 24007KT 06/04 RMK AO1 SLP185 T00620041 58003", "CWNP 240700Z AUTO 13004KT 06/01 RMK AO1 SLP165 T00640009 58007", "CWNQ 240700Z AUTO 07003KT 09/07 RMK AO1 SLP254 T00910070 55002", "CWNZ 240700Z AUTO 14005KT 10/09 RMK AO1 SLP158 T01020091 56008", "CWOB 240700Z AUTO 32023G29KT ////SM SCT049 BKN060 OVC070 M03/M05 A2972", "CWOC 240700Z AUTO 35001KT 07/06 RMK AO1 SLP270 T00740063 57003", "CWOD 240700Z AUTO 31005KT 04/04 RMK AO1 SLP262 T00410036 51001", "CWOE 240700Z AUTO 30007KT M03/M04 RMK AO1 SLP176 T10331040 58014", "CWOY 240700Z AUTO 02012G20KT M01/M02 RMK AO1 2PAST HR SOG 07 7019 PK WND 02020/0658 SLP114 P0001 T10081018 50002", "CWPC 240700Z AUTO 14009KT 14/08 RMK AO1 SLP232 T01370083 57006", "CWPD 240700Z AUTO 21002KT 03/03 RMK AO1 SLP257 T00310031 57005", "CWPE 240700Z AUTO 03003KT 12/11 RMK AO1 SLP278 T01190110 58002", "CWPF 240730Z AUTO 34001KT 09/07 RMK AO1 SLP160 T00860074 58027", "CWPK 240700Z AUTO 00000KT 03/03 RMK AO1 SLP265 T00300026 53001", "CWPO 240700Z AUTO 03017G24KT 06/06 RMK AO1 0PAST HR 8034 PK WND 02026/0608 SLP943 P0016 T00560056 50040", "CWPR 240700Z AUTO 28001KT 03/01 RMK AO1 SLP169 T00250011 58013", "CWPX 240729Z AUTO 34010KT ////SM //// SCT011 BKN025 OVC045 M15/M17 A2986", "CWPZ 240700Z AUTO 11004KT 01/M00 RMK AO1 SLP037 T00111001 58009", "CWQH 240700Z AUTO 05003KT 08/06 RMK AO1 SLP265 T00770055 55001", "CWQK 240700Z AUTO 36006KT 09/ RMK AO1 SLP167 T0088 58022", "CWQO 240700Z AUTO 18003KT 09/06 RMK AO1 T00920060", "CWQP 240700Z AUTO 00000KT 14/10 RMK AO1 SLP234 T01390102 58001", "CWQR 240700Z AUTO 04002KT 06/05 RMK AO1 T00610053", "CWQS 240700Z AUTO 31036G42KT 11/08 RMK AO1 PK WND 30045/0647 SLP967 T01090077 53018", "CWQV 240700Z AUTO 07001KT 09/08 RMK AO1 T00900078", "CWRA 240700Z AUTO 00031KT 10/08 RMK AO1 SLP258 T00960075 53001", "CWRH 240700Z AUTO 27036G47KT ////SM ////// ///// A2987", "CWRJ 240700Z AUTO 35006KT M01/M02 RMK AO1 SLP164 T10061016 58018", "CWRK 240700Z AUTO 29001KT M00/M00 RMK AO1 SLP244 T10031003 58002", "CWRM 240700Z AUTO 12005KT M03/M04 RMK AO1 SLP099 T10321036 58029", "CWRN 240700Z AUTO 22002KT 10/08 RMK AO1 SLP285 T00990084 56003", "CWRO 240700Z AUTO 19014G19KT 09/ RMK AO1 PK WND 19024/0611 SLP927 T0093 55000", "CWRT 240700Z AUTO 19002KT M05/M06 RMK AO1 SLP180 T10491055 58015", "CWRU 240700Z AUTO 20006G15KT 10/ RMK AO1 2PAST HR 1015 PK WND 14017/0600 SLP104 P0005 T0102 50012", "CWRX 240700Z AUTO ///// ////SM OVC030 M08/M12 A2979", "CWRY 240700Z AUTO 18004KT M01/M01 RMK AO1 SLP182 T10061007 58017", "CWRZ 240700Z AUTO 03003KT 07/06 RMK AO1 SLP266 T00710058 58005", "CWSA 240714Z AUTO 05007KT 3/8SM FG VV003 14/14 A3036 RMK SLP283", "CWSD 240700Z AUTO 19007KT 12/12 RMK AO1 SLP280 T01230118 56006", "CWSF 240700Z AUTO 17012KT 09/06 RMK AO1 SLP263 T00940062 58002", "CWSG 240700Z AUTO 08/06 RMK AO1 SLP269 T00790056 53003", "CWSK 240700Z AUTO 13005KT 07/06 RMK AO1 8PAST HR 8016 SLP167 P0011 T00660057 50028", "CWSL 240700Z AUTO 17001KT 06/01 RMK AO1 SLP161 T00570013 58009", "CWSP 240700Z AUTO 04006KT 08/05 RMK AO1 4PAST HR 8025 SLP167 P0002 T00800051 50004", "CWSR 240700Z AUTO 32002KT M00/M03 RMK AO1 SLP167 T10011028 58021", "CWSS 240700Z AUTO 16001KT 10/10 RMK AO1 SLP277 T01040099 50000", "CWST 240700Z AUTO 13002KT 08/06 RMK AO1 SLP259 T00830063 55002", "CWTA 240700Z AUTO 34002KT 12/08 RMK AO1 SLP249 T01200080 55006", "CWTG 240700Z AUTO 00000KT 07/05 RMK AO1 SLP267 T00710050 53003", "CWTN 240700Z AUTO 00000KT 10/07 RMK AO1 SLP258 T00970072 58004", "CWTT 240700Z AUTO 01002KT 07/05 RMK AO1 T00670054", "CWTY 240700Z AUTO 33002KT 11/07 RMK AO1 SLP260 T01090070 55002", "CWUS 240700Z AUTO 14001KT 10/M04 RMK AO1 SLP166 T00981039 57004", "CWUW 240727Z AUTO 28023KT ////SM BKN003 BKN008 OVC037 M11/M12 A2963", "CWUX 240700Z AUTO 26001KT 05/05 RMK AO1 SLP270 T00450047 51001", "CWVF 240700Z AUTO 09013KT 08/07 RMK AO1 PK WND 14017/0634 T00830067", "CWVH 240700Z AUTO 10007KT ////SM NCD ///// A////", "CWVI 240700Z AUTO 16004KT M04/M06 RMK AO1 SLP159 T10391057 58019", "CWVN 240700Z AUTO 34023G28KT M01/M02 RMK AO1 SOG 02 0000 PK WND 34029/0612 SLP130 T10121022", "CWVP 240700Z AUTO 34006KT M04/M05 RMK AO1 SOG 17 8013 SLP154 T10401048", "CWVQ 240700Z AUTO 03002KT 08/06 RMK AO1 SLP248 T00780059 56004", "CWVT 240700Z AUTO 15002KT M02/M03 RMK AO1 SLP204 T10151029 58014", "CWVU 240700Z AUTO 05004KT 13/12 RMK AO1 SLP270 T01300115 56007", "CWWA 240700Z AUTO 06002KT 06/05 RMK AO1 8PAST HR 8015 SLP180 P0015 T00570053 50038", "CWWB 240700Z AUTO 20001KT 09/08 RMK AO1 SLP225 T00900077 56007", "CWWE 240700Z AUTO 03005KT 12/12 RMK AO1 2PAST HR 8009 SLP276 P0016 T01170115 50042", "CWWF 240700Z AUTO 01019G26KT M00/M01 RMK AO1 PK WND 01026/0700 SLP050 T10011010 58007", "CWWK 240700Z AUTO 09001KT 09/08 RMK AO1 4PAST HR 8015 SLP181 P0009 T00860076 50024", "CWWL 240700Z AUTO 18029KT 11/08 RMK AO1 PK WND 19037/0610 SLP957 T01080075 55007", "CWWS 240700Z AUTO 05028KT 03/02 RMK AO1 PK WND 04035/0607 SLP064 T00340021 56043", "CWWZ 240700Z AUTO 00000KT 09/08 RMK AO1 SLP222 T00860080 55002", "CWXA 240700Z AUTO 00025KT M01/M05 RMK AO1 SLP153 T10131049 58027", "CWXC 240700Z AUTO 00000KT 03/03 RMK AO1 SLP272 T00290027 55003", "CWXI 240700Z AUTO 33012KT 09/04 RMK AO1 SLP256 T00930037 53014", "CWXL 240700Z AUTO 15003KT M02/M02 RMK AO1 SLP187 T10171022 56018", "CWYJ 240700Z AUTO 00000KT 09/08 RMK AO1 3PAST HR 8020 SLP169 P0001 T00870083 50003", "CWYL 240700Z AUTO 27012KT M02/M06 RMK AO1 SLP145 T10161055 58012", "CWYY 240700Z AUTO 12004KT 10/M02 RMK AO1 SLP165 T00951017 58004", "CWZA 240700Z AUTO 10002KT 07/06 RMK AO1 1PAST HR 8016 SLP174 P0000 T00730055 50001", "CWZG 240700Z AUTO 23004KT 01/M04 RMK AO1 SOG 03 8020 SLP141 T00051037", "CWZL 240700Z AUTO 20005KT 11/08 RMK AO1 SLP968 T01100081 55000", "CWZN 240700Z AUTO 32010KT 12/09 RMK AO1 SLP272 T01160092 53003", "CWZO 240700Z AUTO 16010KT RMK AO1", "CWZQ 240700Z AUTO 16002KT 10/07 RMK AO1 SLP283 T01030073 58008", "CWZW 240700Z AUTO 09002KT M03/M05 RMK AO1 SLP051 T10341053 51004", "CXAF 240700Z AUTO 13007KT M02/M03 RMK AO1 T10231033", "CXAG 240700Z AUTO 14006KT M01/M03 RMK AO1 T10141029", "CXAJ 240700Z AUTO 12003KT M01/M02 RMK AO1 T10071017", "CXAK 240700Z AUTO 16009KT M03/M04 RMK AO1 T10341035", "CXAT 240700Z AUTO 35009KT M07/M11 RMK AO1 1PAST HR SOG 04 3013 PK WND 31018/0601 SLP042 P0000 T10651106 50001", "CXBA 240700Z AUTO 16003KT M08/M09 RMK AO1 T10761093", "CXBI 240700Z AUTO 06003KT 04/02 RMK AO1 SLP230 T00370023 56012", "CXBK 240700Z AUTO 35022G27KT M01/M01 RMK AO1 SOG 09 8010 PK WND 35027/0654 SLP082 T10091011", "CXBO 240700Z AUTO 00000KT 10/07 RMK AO1 T01040072", "CXBR 240700Z AUTO 24011KT RMK AO1", "CXBW 240700Z AUTO 18007KT M00/M00 RMK AO1 T10031004", "CXCA 240700Z AUTO 16005KT 13/09 RMK AO1 SLP079 T01290093 58020", "CXCD 240700Z AUTO 04003KT M01/M01 RMK AO1 T10101012", "CXCK 240700Z AUTO 31009G17KT M02/M05 RMK AO1 PK WND 31017/0656 SLP101 T10211049 51003", "CXCP 240700Z AUTO 13005KT M06/M06 RMK AO1 T10581063", "CXCS 240700Z AUTO 20004KT M07/M08 RMK AO1 T10691076", "CXDB 240700Z AUTO 21008KT M10/M11 RMK AO1 T10991110", "CXDE 240700Z AUTO 17003KT M05/M07 RMK AO1 SOG 03 0000 SLP176 T10451069", "CXDI 240700Z AUTO 34001KT 04/03 RMK AO1 SLP215 T00420034 56006", "CXDK 240700Z AUTO M03/M06 RMK AO1 SLP121 T10261061 57005", "CXDW 240700Z AUTO 34017G23KT 06/05 RMK AO1 4PAST HR 6032 PK WND 34023/0650 SLP950 P0037 T00600054 50094", "CXEA 240700Z AUTO 09010G15KT 10/09 RMK AO1 PK WND 09017/0604 SLP005 T01040088 56039", "CXEC 240700Z AUTO 16004KT 01/M03 RMK AO1 SLP134 T00081031 58023", "CXEG 240700Z AUTO 12009KT M03/M05 RMK AO1 SLP136 T10311051 58026", "CXET 240700Z AUTO 19003KT 04/02 RMK AO1 SLP224 T00440022 56010", "CXFM 240700Z AUTO 20008KT M03/M04 RMK AO1 T10321037", "CXFR 240700Z AUTO 09009KT M01/M01 RMK AO1 T10091009", "CXGH 240700Z AUTO 02019KT 08/07 RMK AO1 PK WND 02026/0615 SLP975 T00820071 56042", "CXHA 240700Z AUTO 17005KT 14/08 RMK AO1 SLP191 T01360081 56003", "CXHD 240700Z AUTO 18008KT M05/M05 RMK AO1 T10461051", "CXHM 240700Z AUTO 00000KT 04/02 RMK AO1 SLP224 T00370015 57007", "CXHP 240700Z AUTO 06004KT M02/M03 RMK AO1 T10201030", "CXHR 240700Z AUTO 18014KT M01/M01 RMK AO1 PK WND 18017/0653 T10061006", "CXIB 240700Z AUTO 00000KT 07/06 RMK AO1 SLP280 T00650062 57006", "CXKA 240700Z AUTO 15007KT 11/10 RMK AO1 SLP179 T01130097 56005", "CXKE 240700Z AUTO 00000KT 05/03 RMK AO1 SLP246 T00470031 53002", "CXKI 240700Z AUTO 00012KT 05/05 RMK AO1 SLP209 T00500049 58009", "CXKM 240700Z AUTO 18006KT M05/M06 RMK AO1 T10511057", "CXKT 240700Z AUTO 19003KT 10/08 RMK AO1 SLP279 T00980084 58008", "CXLB 240700Z AUTO 02001KT 12/09 RMK AO1 SLP284 T01150091 58001", "CXLL 240700Z AUTO 03004KT M04/M05 RMK AO1 SOG 02 8002 SLP139 T10371048", "CXMD 240700Z AUTO 36013G20KT 08/08 RMK AO1 2PAST HR PRESFR 8037 PK WND 02021/0634 SLP939 P0024 T00830078 50062", "CXMG 240700Z AUTO 04003KT M01/M02 RMK AO1 T10101018", "CXMI 240700Z AUTO 01003KT 13/10 RMK AO1 SLP285 T01260099 57001", "CXMM 240700Z AUTO 11005KT M03/M04 RMK AO1 8PAST HR 8011 SLP166 P0003 T10271043 50008", "CXMO 240700Z AUTO 18013KT M00/M00 RMK AO1 PK WND 18018/0651 T10011001", "CXMY 240700Z AUTO 09/08 RMK AO1 T00870075", "CXNM 240700Z AUTO 19002KT 12/05 RMK AO1 T01240049", "CXNP 240700Z AUTO 20002KT 10/08 RMK AO1 SLP278 T00970081 58005", "CXOL 240700Z AUTO 15008KT M03/M03 RMK AO1 T10321032", "CXOX 240700Z AUTO 08006KT 01/M04 RMK AO1 SLP187 T00071042 58017", "CXOY 240700Z AUTO 25005KT M03/M03 RMK AO1 T10291033", "CXPA 240700Z AUTO 09004KT M01/M02 RMK AO1 T10091019", "CXPC 240700Z AUTO 11/05 RMK AO1 SLP217 T01130053 57010", "CXPL 240700Z AUTO 21007KT M04/M04 RMK AO1 T10411041", "CXRB 240700Z AUTO 07011KT M19/M21 RMK AO1 SOG 03 3011 SLP058 T11921214", "CXRH 240700Z AUTO 16001KT 06/05 RMK AO1 SLP272 T00620048 52003", "CXRL 240700Z AUTO 13007KT M00/M04 RMK AO1 T10031036", "CXSC 240700Z AUTO 27007KT M03/M04 RMK AO1 T10251044", "CXSE 240700Z AUTO 33014KT M17/M19 RMK AO1 SOG 05 0003 PK WND 31018/0648 SLP087 T11681194", "CXSH 240700Z AUTO 34002KT 08/06 RMK AO1 SLP260 T00750058 56005", "CXSL 240700Z AUTO 14006KT 01/M02 RMK AO1 T00071016", "CXSP 240700Z AUTO 12006KT M01/M06 RMK AO1 T10141055", "CXTD 240700Z AUTO 00000KT 10/07 RMK AO1 SLP301 T00990068 55002", "CXTH 240700Z AUTO 12008KT M01/M05 RMK AO1 T10121049", "CXTN 240700Z AUTO 28007KT M11/M13 RMK AO1 1PAST HR SOG 27 6002 SLP187 P0000 T11121127 50001", "CXTO 240700Z AUTO 11/06 RMK AO1 SLP220 T01060062 55007", "CXTP 240700Z AUTO 29003KT 06/04 RMK AO1 SLP256 T00600042 53003", "CXTV 240700Z AUTO 00000KT M16/M18 RMK AO1 SOG 07 8003 SLP207 T11561175", "CXVM 240700Z AUTO 17003KT M05/M07 RMK AO1 T10491066", "CXVN 240700Z AUTO 16003KT 06/05 RMK AO1 SLP219 T00590053 58008", "CXVW 240700Z AUTO 15012KT M00/M02 RMK AO1 SLP087 T10021018 57018", "CXWM 240700Z AUTO 17008KT M01/M01 RMK AO1 T10091010", "CXWN 240700Z AUTO 02005KT 11/08 RMK AO1 SLP946 T01070075 56037", "CXYH 240700Z AUTO 02001KT M04/M05 RMK AO1 SLP119 T10361049 58003", "CXZC 240700Z AUTO 00000KT 04/03 RMK AO1 SLP177 T00370031 58001", "CXZV 240700Z AUTO 04002KT 03/02 RMK AO1 SLP268 T00330015 51003", "CYAH 240700Z AUTO VRB02KT 9SM CLR 00/M00 A3021 RMK SLP246", "CYAM 240700Z 11008KT 070V140 15SM FEW065 OVC082 15/10 A3000 RMK SC1AC7 SLP162 DENSITY ALT 700FT", "CYAT 240700Z AUTO 05011G17KT 9SM OVC037 06/05 A3009 RMK SLP191", "CYAY 240700Z AUTO 27008KT 9SM CLR 04/01 A3027 RMK SLP254", "CYBC 240700Z AUTO 36005KT 9SM CLR 06/06 A3031 RMK SLP265", "CYBG 240700Z 00000KT 25SM BKN250 08/06 A3031 RMK CI5 SLP266", "CYBK 240700Z 22006KT 15SM BKN030 M13/M15 A3028 RMK SC6 SLP257", "CYBQ 240700Z AUTO /////KT 9SM CLR M07/M09 A3026 RMK WIND MISG SLP272", "CYBR 240730Z 05025G35KT 15SM -TSRA OVC006 04/04 A2939 RMK ST8 CB EMBD OCNL LTGIC ALQDS SLP970", "CYBU 240729Z AUTO 36018G23KT 2 1/2SM -SN SCT006 SCT011 OVC015 M01/M01 A2992 RMK ICE SLP156", "CYBW 240713Z AUTO 20004KT 3/8SM R35/2600V4500FT FZFG CLR M08/M09 A2982 RMK ICE PAST HR SLP170", "CYBX 240700Z 29006KT 15SM SKC 04/01 A3030 RMK SLP265", "CYCA 240700Z AUTO 21004KT 210V290 9SM CLR 01/M01 A3024 RMK SLP241", "CYCB 240700Z 35004KT 6SM -SN BKN018 BKN100 M15/M17 A2993 RMK SC5AC2 SLP140", "CYCK 240700Z AUTO 16010KT 9SM CLR 13/08 A3011 RMK SLP199", "CYCO 240712Z 23012KT 15SM -SN FEW050 BKN110 M12/M15 A3004 RMK SC2AS4 SLP176", "CYCY 240703Z AUTO 26004KT 5SM -SN OVC039 M05/M06 A2956 RMK SLP016", "CYDB 240727Z AUTO 29010KT 6SM -SN OVC040 M06/M08 A2978 RMK SLP138", "CYDF 240700Z 17002KT 15SM FEW240 02/02 A3034 RMK CI2 SLP278", "CYDL 240733Z AUTO VRB07KT 9SM -SN -UP FEW030 OVC050 M00/M04 A2945 RMK SLP995", "CYDN 240736Z AUTO 03014G20KT 3SM -RA OVC005 03/ A2959 RMK DP MISG SLP034", "CYDQ 240700Z AUTO 16003KT 9SM CLR M01/M02 A2966 RMK SLP077", "CYEG 240700Z 13010KT 20SM FEW240 M03/M05 A2984 RMK CI1 CI TR SLP139", "CYEK 240700Z AUTO /////KT RMK WIND MISG CLD MISG WX MISG VIS MISG PCPN MISG PRES MISG T MISG DP MISG ICE MISG DENSITY ALT MISG", "CYEN 240708Z AUTO 35019G29KT 9SM -RA OVC010 02/01 A2951 RMK SLP019", "CYER 240700Z AUTO 08010G15KT 9SM -RA OVC018 02/01 A3023 RMK SLP239", "CYET 240700Z AUTO 01003KT 9SM SCT100 BKN180 M02/ A2974 RMK DP MISG ICE MISG SLP108", "CYEV 240700Z 07007KT 15SM FEW150 M14/M15 A3010 RMK AC1 SLP202", "CYFB 240700Z 32019G28KT 12SM -SN DRSN BKN018 OVC076 M02/M04 A2996 RMK SC6AC2 SLP149", "CYFC 240700Z AUTO 15002KT 9SM OVC140 10/09 A3034 RMK SLP277", "CYFS 240721Z VRB02KT 10SM -SN OVC012 M04/M05 A2992 RMK SC8 CIG VRB 010-020 SLP148", "CYGL 240700Z 06011KT 15SM SKC 05/04 A3014 RMK SLP217", "CYGV 240700Z AUTO 02002KT 9SM CLR 03/03 A3033 RMK SLP274", "CYGW 240700Z AUTO 07006KT 9SM FEW110 OVC150 03/00 A3026 RMK PRESFR SLP248", "CYGX 240700Z 05010G17KT 15SM OVC025 M02/M04 A3017 RMK SC8 SLP230", "CYHD 240737Z AUTO 08007KT 9SM -RA BKN071 OVC090 13/11 A2951 RMK LTNG DIST SW SLP001 DENSITY ALT 1900FT", "CYHE 240725Z AUTO 23007KT 200V280 9SM FEW042 BKN049 OVC066 08/06 A3002 RMK SLP168", "CYHK 240700Z AUTO 30010KT 9SM OVC044 M15/M17 A2992 RMK SLP139", "CYHM 240700Z 01004KT 15SM SKC 07/06 A3017 RMK SLP221", "CYHU 240700Z AUTO 02004KT 9SM OVC240 07/06 A3026 RMK SLP250", "CYHY 240700Z 15004KT 15SM FEW230 M07/M09 A2994 RMK CI1 SLP154", "CYHZ 240707Z 04003KT 020V170 15SM -RA OVC120 10/07 A3037 RMK AC8 PCPN VRY LGT PRESFR SLP290", "CYIN 240700Z AUTO 15010G17KT 9SM OVC076 02/M04 A2978 RMK SLP108", "CYIO 240731Z AUTO 25011G16KT 5SM -SN FEW007 SCT024 OVC036 M07/M08 A2962 RMK SLP039", "CYIV 240737Z AUTO 06014G24KT 4SM -RA BR OVC010 01/00 A2982 RMK LTNG DIST W PRESFR SLP113", "CYJT 240700Z 36002KT 15SM BKN004 OVC014 09/08 A3037 RMK SF6SF2 SLP286", "CYKA 240700Z 14003KT 050V190 40SM BKN060 OVC090 09/M00 A2989 RMK SC7AC1 VIRGA SLP134", "CYKF 240700Z AUTO 33003KT 320V050 9SM CLR 02/01 A3018 RMK SLP224", "CYKJ 240700Z AUTO 13005KT 9SM FEW023 BKN210 BKN230 M03/M06 A3006 RMK SLP213", "CYKL 240700Z AUTO 16004KT 9SM CLR M03/M03 A3026 RMK SLP278", "CYKY 240700Z 01006KT 15SM FEW070 SCT260 M02/M05 A2994 RMK AC2CI2 SLP171", "CYLH 240700Z AUTO 08013KT 9SM OVC012 05/03 A2991 RMK SLP140", "CYLL 240700Z AUTO 17006KT 9SM CLR M04/M07 A2995 RMK SLP177", "CYLT 240700Z 27008KT 15SM FEW015 M29/M32 A3003 RMK SF1 FROIN SLP173", "CYLW 240722Z AUTO 15013G24KT 9SM -RA OVC050 08/01 A2998 RMK SLP162", "CYMA 240700Z 24004KT 15SM -SN OVC039 M03/M04 A2978 RMK SC8 SLP120", "CYMH 240700Z AUTO 30005KT 9SM CLR 02/M01 A3025 RMK SLP246", "CYMM 240700Z AUTO 11008KT 9SM CLR M03/M04 A2995 RMK SLP167", "CYMO 240700Z AUTO 24002KT 9SM CLR 03/03 A3004 RMK SLP176", "CYMT 240700Z AUTO 00000KT 9SM CLR 06/05 A3025 RMK SLP254", "CYMX 240700Z 02003KT 320V050 25SM SCT240 08/05 A3026 RMK CI4 SLP252", "CYNA 240726Z AUTO 04004KT 9SM CLR 04/04 A3033 RMK ICE MISG SLP274", "CYNE 240717Z AUTO 04007G20KT 360V080 5SM BR OVC012 00/M01 A2983 RMK PRESFR SLP116", "CYNM 240700Z AUTO 17006KT 9SM CLR 06/06 A3017 RMK SLP225", "CYOD 240700Z 13005KT 15SM SKC M02/M03 A2998 RMK DENSITY ALT -28FT SLP181", "CYOJ 240700Z AUTO 11009KT 9SM OVC007 M03/M03 A2983 RMK SLP126", "CYOO 240700Z AUTO 10005KT 9SM CLR 10/06 A3018 RMK SLP224", "CYOW 240700Z 06004KT 15SM SCT220 BKN240 07/05 A3025 RMK CI4CI3 SLP248", "CYPA 240700Z 03008KT 4SM -SN SCT009 OVC019 M00/M01 A2998 RMK SF3SC5 SLP176", "CYPD 240700Z AUTO 02003KT 9SM FEW180 08/07 A3037 RMK SLP288", "CYPE 240700Z 14005KT 15SM FEW130 OVC180 M01/M02 A2974 RMK AC1AC7 SLP104", "CYPH 240700Z AUTO 02008KT 9SM OVC032 M00/M02 A3032 RMK SLP272", "CYPL 240700Z AUTO 10011G18KT 9SM FEW025 BKN039 OVC055 09/07 A2976 RMK SLP090", "CYPO 240700Z AUTO 09008G15KT 040V110 9SM BKN050 OVC055 03/01 A3018 RMK SLP225", "CYPQ 240700Z AUTO 00000KT 9SM CLR 01/01 A3020 RMK SLP232", "CYPR 240725Z AUTO 14014G20KT 9SM BKN019 BKN026 OVC031 09/08 A2937 RMK SLP950", "CYPX 240727Z AUTO 36010KT 9SM OVC032 M03/M08 A3033 RMK SLP276", "CYPY 240700Z AUTO 12002KT 9SM BKN005 M01/M02 A2997 RMK SLP165", "CYQA 240700Z AUTO 11004KT 9SM CLR 08/04 A3017 RMK SLP222", "CYQB 240700Z 35004KT 15SM OVC190 12/06 A3030 RMK AC8 SLP263", "CYQD 240702Z AUTO 01012G22KT 340V050 9SM BKN014 OVC019 M00/M02 A2991 RMK SLP145", "CYQF 240700Z AUTO 16012G17KT 9SM CLR M02/M04 A2983 RMK SLP143", "CYQG 240700Z AUTO 16004KT 9SM CLR 11/07 A3009 RMK SLP192", "CYQH 240725Z 10012G17KT 15SM -SN OVC023 M02/M06 A2962 RMK SC8 SLP069", "CYQI 240700Z 07005KT 050V110 3SM SHRA OVC003 14/14 A3032 RMK SF8 SLP272", "CYQK 240710Z 11013KT 20SM -SHRA SCT047 BKN076 BKN110 14/11 A2946 RMK SC4AC2AC1 CVCTV CLD EMBD OCNL LTNG DIST S SLP981 DENSITY ALT 2200FT", "CYQL 240700Z AUTO 19008KT 9SM CLR M04/M05 A2994 RMK SLP181", "CYQM 240700Z 19003KT 15SM SCT045 BKN140 BKN200 11/10 A3035 RMK SC3AS2CI2 SLP280", "CYQQ 240700Z 16012KT 9SM -RA FEW025 OVC035 08/05 A2994 RMK SC2SC6 SLP140", "CYQR 240700Z 35021G29KT 6SM -SN OVC008 M01/M02 A2972 RMK SC8 SLP093", "CYQT 240700Z 07008KT 12SM -SHRA BKN037 BKN073 OVC110 11/10 A2971 RMK SC5AC2AC1 CVCTV CLD EMBD SLP067", "CYQU 240700Z 10006KT 20SM SCT040 OVC120 00/M01 A2968 RMK SC4AC4 PRESFR SLP080", "CYQV 240737Z AUTO 36018G26KT 9SM -RA OVC013 00/M01 A2965 RMK ICE PAST HR SLP067", "CYQW 240700Z AUTO 07003KT 9SM BKN180 M04/M06 A2997 RMK PRESFR SLP178", "CYQX 240700Z 25008KT 20SM FEW200 08/05 A3029 RMK CC1 SLP263", "CYQY 240700Z 17002KT 15SM SCT240 06/06 A3037 RMK CI3 CIG ESTD SLP289", "CYQZ 240712Z AUTO 12008KT 9SM SCT060 BKN076 OVC091 05/02 A2974 RMK SLP093", "CYRB 240700Z 06015KT 15SM SKC M20/M22 A2968 RMK OCNL DRSN SLP064", "CYRJ 240700Z 00000KT 25SM SKC 11/06 A3029 RMK SLP264", "CYRQ 240700Z AUTO 03003KT 9SM BKN210 OVC250 09/07 A3028 RMK SLP258", "CYRT 240700Z 31007KT 10SM -SN BKN019 M11/M14 A3034 RMK SC6 SLP281", "CYRV 240700Z AUTO 00000KT 9SM OVC066 04/02 A2999 RMK SLP168", "CYSB 240700Z 14010KT 15SM FEW060 SCT230 12/07 A3015 RMK SC2CI2 SLP215", "CYSC 240700Z AUTO 10004KT 9SM 09/05 A3030 RMK CLD MISG PCPN MISG SLP267", "CYSF 240737Z AUTO 10005KT 9SM -SN SCT020 OVC042 M00/M03 A3008 RMK SLP203", "CYSJ 240700Z 00000KT 15SM OVC120 10/09 A3037 RMK AC8 SLP286", "CYSM 240700Z 15005KT 15SM OVC004 M01/M01 A2995 RMK ST8 SLP160", "CYTE 240700Z AUTO 29021G26KT 9SM -SN OVC025 M06/M09 A3008 RMK SLP194", "CYTH 240735Z 04011G18KT 2SM -SN OVC012 M02/M04 A3006 RMK SC8 SLP195", "CYTL 240722Z AUTO 07009G19KT 050V110 9SM OVC007 02/02 A2994 RMK PRESFR SLP155", "CYTR 240700Z 04003KT 15SM BKN250 06/04 A3022 RMK CI5 DENSITY ALT -959FT SLP235", "CYTS 240700Z 18007KT 15SM SKC 12/10 A3009 RMK SLP195", "CYTZ 240700Z AUTO 06013KT 9SM CLR 10/07 A3017 RMK SLP220", "CYUA 240702Z AUTO 10009KT ////SM BKN011 BKN043 BKN050 M14/M16 A3008", "CYUL 240700Z 02006KT 15SM BKN230 OVC250 10/07 A3026 RMK CC6CI2 SLP248", "CYUS 240721Z AUTO 28012G19KT ////SM //// BKN009 OVC014 M11/M14 A2989", "CYUX 240700Z AUTO 28016KT 9SM FEW096 M11/M13 A2986 RMK SLP115", "CYUY 240700Z 16004KT 15SM SCT220 12/09 A3017 RMK CI3 SLP222", "CYVC 240700Z 08006KT 15SM SCT020 BKN120 01/M04 A3005 RMK SC4AC3 SLP197", "CYVL 240700Z AUTO 05005KT 9SM -SN OVC019 M10/M11 A3001 RMK SLP192", "CYVM 240736Z AUTO 06002KT 9SM BKN006 BKN014 M02/M02 A2962 RMK SLP033", "CYVO 240700Z AUTO 17006KT 9SM CLR 09/07 A3020 RMK SLP237", "CYVP 240700Z 25007KT 15SM BKN019 BKN040 02/M00 A3025 RMK SC6SC1 SLP249", "CYVQ 240700Z 00000KT 6SM -SN OVC010 M05/M05 A3003 RMK SC8 SLP177", "CYVR 240723Z 06010KT 12SM -RA OVC046 08/08 A3003 RMK SC8 SLP171", "CYVT 240707Z AUTO 16003KT 130V190 9SM SCT001 OVC015 M02/M02 A3001 RMK SLP191", "CYVV 240700Z 13005KT 15SM SKC 12/04 A3014 RMK SLP209", "CYWE 240726Z AUTO 04004KT 1 3/4SM -SN OVC004 M05/M05 A2995 RMK ICE MISG SLP174", "CYWG 240712Z 04014G21KT 15SM TSRA OVC036CB 10/08 A2935 RMK CB8 FRQ LTGIC CBEMB LTG E TO S SLP946 DENSITY ALT 1100FT", "CYWK 240738Z AUTO 16004KT 1/2SM FZFG BKN003 M01/M02 A3028 RMK SLP286", "CYWL 240700Z 11018G25KT 15SM BKN070 03/M02 A2975 RMK AC6 SLP105", "CYXC 240700Z 17007KT 140V200 25SM BKN078 BKN150 03/M01 A2999 RMK AC6AC1 SLP180", "CYXE 240709Z 36015G20KT 3SM -SN OVC008 M00/M01 A2992 RMK SC8 SLP161", "CYXH 240700Z AUTO 23006KT 9SM CLR M02/M03 A2997 RMK SLP180", "CYXJ 240716Z 12010KT 10SM FEW004 BKN043 OVC220 M00/M01 A2964 RMK SC2SC5CI1 SLP072", "CYXL 240731Z CCA 12009G15KT 080V150 12SM -SHRA SCT040 OVC060 11/10 A2957 RMK SC4SC4 CVCTV CLD EMBD PRESFR SLP021 DENSITY ALT 1600FT", "CYXR 240700Z AUTO 14006KT 9SM CLR 10/09 A3014 RMK SLP213", "CYXS 240725Z AUTO 18012KT 9SM -RA BKN060 OVC076 03/01 A2967 RMK SLP075", "CYXT 240734Z 09008KT 3SM -RA BR SCT004 BKN008 OVC040 03/03 A2948 RMK SF4SF3SC1 SLP994", "CYXU 240700Z 08006KT 15SM SKC 08/05 A3017 RMK SLP218", "CYXX 240700Z 02003KT 6SM -RA OVC037 08/07 A3004 RMK SC8 SLP177", "CYXY 240700Z 35013G21KT 10SM -SN BKN018 OVC027 M01/M03 A2962 RMK SC6SC2 SLP068", "CYYB 240700Z AUTO 12007KT 9SM CLR 11/06 A3018 RMK SLP223", "CYYC 240700Z 16007KT 10SM SKC M04/M06 A2984 RMK SLP157", "CYYD 240700Z AUTO 16005KT 9SM FEW043 OVC076 02/00 A2951 RMK SLP014", "CYYE 240731Z 34005KT 1SM -SN OVC022 M02/M03 A2970 RMK SC8 SLP082", "CYYF 240700Z 18006KT 15SM OVC060 10/M02 A2999 RMK SC8 SLP162", "CYYG 240700Z 15002KT 15SM BKN200 12/10 A3035 RMK CI6 SLP282", "CYYJ 240700Z 13003KT 110V180 15SM -RA FEW010 OVC045 09/08 A3002 RMK SC1SC8 SC TR SLP167", "CYYL 240700Z AUTO 07007KT 9SM CLR M03/M06 A3012 RMK SLP227", "CYYN 240737Z AUTO 36017G23KT 9SM OVC005 M02/M03 A2985 RMK ICE MISG SLP144", "CYYQ 240700Z 00000KT 15SM BKN024 M03/M06 A3034 RMK SC7 SLP277", "CYYR 240700Z 23009KT 15SM SKC 03/M00 A3031 RMK AURBO SLP265", "CYYT 240700Z 29010KT 15SM SCT240 08/07 A3029 RMK CI3 SLP262", "CYYU 240700Z 15007KT 15SM SKC 10/09 A3004 RMK SLP178", "CYYW 240700Z AUTO 11007KT 9SM OVC035 14/11 A2975 RMK SLP072 DENSITY ALT 1400FT", "CYYY 240700Z 17003KT 30SM SKC 10/07 A3030 RMK SLP264", "CYYZ 240700Z 32002KT 15SM FEW260 08/05 A3018 RMK CI1 CI TR SLP223", "CYZE 240700Z AUTO 16009KT 9SM CLR 14/09 A3010 RMK SLP198", "CYZF 240700Z 13007KT 15SM OVC031 M02/M05 A2997 RMK SC8 SLP168", "CYZH 240700Z AUTO 10007KT 9SM CLR 00/M02 A2982 RMK SLP124", "CYZP 240732Z AUTO 25020G25KT 6SM -RA BR BKN055 OVC071 10/09 A2940 RMK PRESRR PCPN 0.5MM PAST HR SLP959 DENSITY ALT 100FT", "CYZR 240700Z AUTO 14006KT 9SM CLR 10/07 A3011 RMK SLP199", "CYZS 240700Z 28014G22KT 10SM -SN BKN024 M10/M10 A3020 RMK SC7 SLP237", "CYZT 240700Z 14006KT 15SM -RA SCT023 BKN045 08/07 A2981 RMK SC3SC4 SLP098", "CYZV 240700Z 03004KT 15SM SKC 04/04 A3032 RMK SLP272", "CYZX 240715Z 00000KT 12SM OVC100 10/09 A3037 RMK AC8 SLP285", "CYZY 240737Z AUTO 14008KT 9SM -SNRA -UP BKN017 OVC023 01/00 A2963 RMK SLP064", "CZBF 240700Z AUTO 00000KT 9SM SCT220 07/06 A3035 RMK SLP281", "CZCP 240705Z AUTO 31011G18KT 280V350 ////SM //// BKN024 OVC028 M06/M10 A3001", "CZCR 240700Z AUTO 24003KT 06/06 RMK AO1 SLP275 T00590057 58002", "CZDB 240700Z AUTO 04003KT 09/ RMK AO1 SLP292 T0091 56003", "CZEL 240700Z AUTO 07003KT 07/04 RMK AO1 SLP224 T00700036 56003", "CZEV 240700Z AUTO 08007KT M14/M15 RMK AO1 SOG 07 6001 SLP204 T11361153", "CZFS 240700Z AUTO 36002KT M04/M06 RMK AO1 SOG 01 8010 SLP147 T10431055", "CZHY 240700Z AUTO 15004KT M06/M08 RMK AO1 SLP149 T10621078 56011", "CZKD 240700Z AUTO 06011G18KT M01/M04 RMK AO1 PK WND 06019/0617 SLP216 T10141037 57023", "CZMD 240700Z AUTO 06012G20KT 5SM BR OVC008 03/03 A2987 RMK SLP129", "CZMJ 240700Z AUTO 36021G28KT M01/M01 RMK AO1 SOG 18 7010 PK WND 34028/0659 SLP118 T10111014", "CZOL 240700Z AUTO 14003KT M02/M03 RMK AO1 T10151026", "CZPC 240700Z AUTO 24010KT 9SM CLR M05/M06 A2991 RMK ICE PAST HR SLP178", "CZPS 240700Z AUTO 16008KT M03/M04 RMK AO1 T10261042", "CZRP 240700Z AUTO 32017KT M24/M26 RMK AO1 SOG 53 3006 PK WND 32021/0633 SLP088 T12361261", "CZSJ 240700Z AUTO 08012G21KT 9SM OVC013 03/01 A2979 RMK SLP102", "CZSM 240700Z AUTO 16003KT M01/M02 RMK AO1 SLP157 T10101016 58019", "CZSP 240700Z AUTO 16005KT 11/09 RMK AO1 SLP283 T01060091 56004", "CZTB 240700Z AUTO 06006KT 11/10 RMK AO1 SLP068 T01120097 56017", "CZUM 240700Z AUTO 29003KT 260V010 9SM CLR M03/M04 A3029 RMK SLP282", "CZVL 240700Z AUTO 14005KT 9SM CLR M01/M03 A2984 RMK SLP134", "CZZJ 240700Z AUTO 02004KT M03/M03 RMK AO1 SLP107 T10261034 56023", "DAAE 240700Z 26013KT CAVOK 23/06 Q1021", "DAAG 240730Z 17004KT CAVOK 24/06 Q1021", "DAAJ 240700Z 35004KT CAVOK 16/03 Q1026", "DAAP 240700Z 10004KT CAVOK 18/02 Q1025", "DAAT 240730Z 07006KT CAVOK 19/M02 Q1027", "DAAV 240700Z 16004KT CAVOK 20/09 Q1020", "DAAY 240700Z VRB02KT CAVOK 14/M01 Q1027", "DABB 240730Z 21009KT CAVOK 22/07 Q1021", "DABC 240730Z 18005KT CAVOK 17/04 Q1027", "DABT 240700Z 19003KT CAVOK 09/M01 Q1028", "DAOB 240700Z 19013KT CAVOK 15/M02 Q1026", "DAOF 240700Z 07008KT CAVOK 19/M06 Q1018", "DAON 240730Z 12004KT 9999 FEW026 SCT233 20/00 Q1020", "DAOO 240730Z VRB02KT CAVOK 16/11 Q1019", "DAOR 240700Z 05004KT CAVOK 14/M01 Q1025", "DAUA 240700Z 08009KT CAVOK 17/M03 Q1020", "DAUB 240700Z VRB02KT CAVOK 19/06 Q1025", "DAUE 240700Z 08006KT CAVOK 20/05 Q1024", "DAUG 240700Z VRB02KT CAVOK 16/01 Q1026", "DAUH 240700Z 07003KT CAVOK 19/05 Q1024", "DAUI 240700Z 06014KT CAVOK 23/04 Q1020", "DAUK 240700Z VRB02KT CAVOK 16/04 Q1025", "DAUO 240700Z VRB02KT CAVOK 17/05 Q1024", "DAUT 240700Z 08013KT CAVOK 18/05 Q1021", "DAUU 240700Z 00000KT CAVOK 17/04 Q1023", "DBBB 240700Z 28004KT 8000 FEW011 26/24 Q1012 NOSIG", "DFFD 240700Z 00000KT 8000 NSC 23/17 Q1013 TEMPO 4000 HZ", "DFOO 240700Z 00000KT CAVOK 21/19 Q1014", "DGAA 240700Z 27007KT 5000 BR SCT010 26/24 Q1012 NOSIG", "DIAP 240730Z 23008KT 9999 SCT013 27/26 Q1013 NOSIG", "DIBK 240700Z 20006KT 0200 FG SCT005 OVC010 22/22 Q1014 NOSIG", "DIYO 240700Z 24004KT 4000 BR BKN010 24/23 Q1013 BECMG 6000", "DNAA 240700Z 01002KT CAVOK 25/24 Q1014 NOSIG", "DNEN 240700Z 26006KT 2000 MIST BKN009 24/24 Q1013 BECMG 7000", "DNGO 240700Z 00000KT CAVOK 28/23 Q1014", "DNIB 240700Z 24003KT 7000 NSC 25/23 Q1013", "DNIL 240700Z 00000KT 2000 BR FEW010 24/23 Q1013", "DNIM 240700Z 00000KT 5000 BR FEW007 24/23 Q1012", "DNKA 240700Z 00000KT 7000 NSC 22/16 Q1017 NOSIG", "DNKN 240700Z 00000KT 8000 NSC 24/13 Q1017 NOSIG", "DNMM 240700Z VRB02KT 5000 BR FEW010 26/25 Q1013 BECMG 7000 NSW", "DNMN 240700Z 05003KT CAVOK 26/23 Q1013", "DNPO 240700Z 00000KT 5000 BR 24/24 Q1012 BECMG 7000 NSW", "DNSO 240700Z 08008KT CAVOK 24/13 Q1014", "DNYO 240700Z 00000KT CAVOK 28/24 Q1014", "DRRM 240700Z 08008KT CAVOK 25/08 Q1014", "DRRN 240700Z 04008KT 8000 NSC 28/04 Q1013 TEMPO 4000 DU", "DRRT 240700Z 04006KT CAVOK 26/08 Q1015", "DRZA 240700Z 08012KT CAVOK 29/08 Q1017", "DRZR 240700Z 02008KT 4000 DU NSC 27/06 Q1016", "DTKA 240700Z 09007KT CAVOK 18/07 Q1021 NOSIG", "DTMB 240730Z AUTO 20006KT /// 22/16 Q1023", "DTNH 240730Z 20008KT CAVOK 19/08 Q1023 NOSIG", "DTTA 240730Z 17006KT CAVOK 23/10 Q1023", "DTTB 240700Z 00000KT CAVOK 18/12 Q1022", "DTTD 240700Z 28002KT CAVOK 22/04 Q1026", "DTTF 240700Z 04004KT CAVOK 15/06 Q1026 NOSIG", "DTTG 240700Z 28004KT 240V020 CAVOK 16/04 Q1025 NOSIG", "DTTJ 240730Z 17003KT CAVOK 24/13 Q1024 NOSIG", "DTTK 240700Z 21003KT 130V270 CAVOK 17/07 Q1023", "DTTL 240700Z 21003KT 160V240 CAVOK 21/18 Q1022", "DTTN 240700Z 21003KT CAVOK 15/05 Q1023", "DTTR 240700Z 14004KT CAVOK 18/05 Q1027", "DTTX 240700Z 23003KT CAVOK 20/11 Q1024", "DTTZ 240700Z 12005KT CAVOK 20/06 Q1024", "DXNG 240700Z 04002KT CAVOK 23/18 Q1014", "DXXX 240700Z 24005KT 9999 FEW012 26/25 Q1013 NOSIG", "EBAW 240720Z AUTO 21014KT 9999 // VV/// 15/12 Q1005", "EBBE 240725Z 21020KT 9999 FEW020 SCT030 16/11 Q1006 BLU BLU TEMPO WHT", "EBBL 240725Z 22015KT 9999 SCT040 16/10 Q1005 BLU BLU", "EBBR 240720Z 22016KT 9999 FEW030 16/12 Q1005 NOSIG", "EBCI 240720Z 20017KT 9999 BKN025 15/10 Q1007 NOSIG", "EBCV 240725Z AUTO 21017KT 9999 FEW022/// 15/12 Q1006 BLU", "EBDT 240725Z AUTO 21015G29KT 9999 BKN034/// 16/11 Q1005 BLU", "EBFN 240733Z 22012KT 5000 -SHRA FEW013 SCT018TCU BKN040 14/12 Q1003 WHT BLU TEMPO GRN", "EBFS 240725Z 21017KT 9999 BKN025 BKN070 14/10 Q1008 BLU BLU BECMG WHT", "EBLB 240725Z AUTO 22013KT 9999 BKN022/// 13/09 Q1008 WHT", "EBLG 240720Z 21019KT 9999 SCT031 15/10 Q1007 NOSIG", "EBOS 240720Z 22015KT 8000 -SHRA BKN021 13/11 Q1004 TEMPO 20020G30KT 4000 SHRA", "EDAC 240720Z 19010KT CAVOK 16/12 Q1012", "EDAH 240720Z 19008KT 8000 OVC004 13/13 Q1009", "EDBC 240720Z AUTO 18007KT 9999 // BKN240/// 15/12 Q1010", "EDDB 240720Z AUTO 21007KT CAVOK 13/12 Q1010 NOSIG", "EDDC 240720Z AUTO 17009KT CAVOK 15/12 Q1013 NOSIG", "EDDE 240720Z AUTO 18013KT CAVOK 15/11 Q1012 NOSIG", "EDDF 240720Z AUTO 06004KT 010V110 CAVOK 12/12 Q1011 BECMG 19005KT", "EDDG 240720Z AUTO 18007KT 150V210 9999 BKN046 16/11 Q1005 NOSIG", "EDDH 240720Z AUTO 17009KT CAVOK 14/12 Q1005 NOSIG", "EDDK 240720Z AUTO 19010KT CAVOK 16/11 Q1008 NOSIG", "EDDL 240720Z AUTO 17012KT 9999 BKN040 16/11 Q1006 NOSIG", "EDDM 240720Z AUTO 17004KT 140V240 9999 SHRA FEW///CB 15/13 Q1017 BECMG NSW", "EDDN 240720Z AUTO 15005KT CAVOK 15/13 Q1014 TEMPO 23015G25KT 3000 TSRA BKN030CB", "EDDP 240720Z AUTO 19012KT CAVOK 15/12 Q1011 NOSIG", "EDDR 240720Z AUTO 21009KT CAVOK 15/13 Q1012 NOSIG", "EDDS 240720Z AUTO 20004KT 110V270 9999 SHRA FEW///TCU 15/13 Q1014 TEMPO 22015G25KT NSW", "EDDV 240720Z AUTO 19010KT CAVOK 16/12 Q1007 NOSIG", "EDDW 240720Z AUTO 18009KT CAVOK 15/11 Q1005 BECMG 20014KT", "EDFH 240720Z 21014KT CAVOK 14/10 Q1010", "EDFM 240720Z 18008KT 150V220 CAVOK 17/13 Q1013", "EDGS 240720Z 19013KT CAVOK 12/11 Q1010", "EDHI 240720Z 20010KT 160V220 CAVOK 15/13 Q1005", "EDHK 240720Z 21008KT 180V240 CAVOK 13/11 Q1004", "EDHL 240720Z 17004KT 130V230 CAVOK 14/12 Q1005", "EDJA 240720Z 21004KT 9999 -RA NSC 13/12 Q1018", "EDLN 240720Z 18009KT 160V220 9999 FEW040 16/11 Q1006", "EDLP 240720Z 18010KT CAVOK 17/09 Q1008", "EDLV 240720Z 20010KT 9999 FEW036 16/11 Q1005", "EDLW 240720Z 19012KT CAVOK 16/10 Q1006", "EDMA 240720Z 15006KT 9999 -RA NSC 14/13 Q1017", "EDMO 240720Z 19007KT 9999 FEW055 14/12 Q1018", "EDNY 240720Z VRB02KT 9999 -RA FEW054 14/13 Q1017", "EDQM 240720Z VRB01KT 9999 FEW010 SCT073 12/11 Q1015", "EDSB 240720Z 19006KT 9999 VCSH FEW048 16/13 Q1013", "EDTL 240720Z VRB02KT 9999 FEW049 16/13 Q1014", "EDTY 240720Z 18007KT 140V240 9999 -RA BKN048 15/12 Q1015", "EDVE 240720Z 16007KT CAVOK 15/12 Q1008", "EDVK 240720Z 20013KT CAVOK 17/12 Q1008", "EDXW 240720Z AUTO 18012KT 9999 // FEW069/// BKN086/// 14/12 Q1001", "EEEI 240650Z 07002KT 9999 FEW018 M01/M02 Q1016 NOSIG", "EEKA 240720Z 00000KT 9999 SCT027 05/04 Q1015", "EEKE 240720Z 06004KT 9999 FEW019 SCT046 08/06 Q1015", "EEPU 240720Z AUTO VRB02KT 9999 OVC100/// 02/02 Q1016", "EETN 240720Z 10001KT 9999 FEW030 01/00 Q1016 NOSIG", "EETU 240720Z 25002KT 2100 MIFG BR FEW002 02/01 Q1016", "EFET 240720Z AUTO 24003KT CAVOK M05/M06 Q1010", "EFHA 240720Z 33001KT CAVOK M01/M03 Q1015", "EFHK 240720Z 29003KT CAVOK M01/M01 Q1016 NOSIG", "EFIV 240720Z AUTO 22004KT 9999 BKN042 M01/M01 Q1010", "EFJO 240720Z AUTO 32007KT 280V350 CAVOK 00/M03 Q1012", "EFJY 240720Z 28005KT CAVOK M01/M03 Q1014", "EFKE 240720Z AUTO VRB01KT CAVOK M03/M05 Q1013", "EFKI 240720Z AUTO 31007KT CAVOK M01/M04 Q1012", "EFKK 240720Z AUTO VRB01KT CAVOK M02/M03 Q1015", "EFKS 240720Z AUTO 32007KT 9999 OVC009 M01/M03 Q1010", "EFKT 240720Z AUTO 30004KT CAVOK M02/M05 Q1011", "EFKU 240720Z 32007KT CAVOK 00/M03 Q1013", "EFLP 240720Z AUTO 30006KT 280V340 CAVOK 00/M02 Q1014", "EFMA 240720Z 36001KT CAVOK 00/M00 Q1015", "EFMI 240720Z AUTO 28005KT CAVOK 01/M02 Q1014", "EFOU 240720Z AUTO VRB01KT CAVOK M01/M03 Q1013", "EFPO 240720Z AUTO 11003KT CAVOK M02/M03 Q1016", "EFRO 240720Z 30004KT 270V330 CAVOK M02/M05 Q1011", "EFSA 240720Z AUTO 31007KT CAVOK 01/M02 Q1013", "EFSI 240720Z AUTO 14002KT CAVOK M04/M05 Q1015", "EFTP 240720Z VRB01KT CAVOK M03/M04 Q1015", "EFTU 240720Z AUTO 08002KT CAVOK M01/M02 Q1016", "EFUT 240720Z 33006KT CAVOK 00/M01 Q1015", "EFVA 240720Z AUTO 16002KT CAVOK M03/M03 Q1015", "EGAA 240720Z AUTO 19006KT 160V220 3700 -DZ BR BKN003 BKN013 10/10 Q0994", "EGAC 240720Z AUTO 22007KT 9999 BKN007 11/10 Q0994", "EGAE 240720Z 19005KT 150V220 9999 FEW007 BKN011 12/11 Q0993", "EGBB 240720Z 22006KT 180V240 9999 SCT008 12/11 Q0999", "EGBJ 240720Z 20007KT 9999 VCSH SCT007 BKN015 13/12 Q1000", "EGCC 240720Z AUTO 19005KT 150V220 9999 NCD 11/11 Q0997 NOSIG", "EGCK 240720Z AUTO 20011KT 170V230 9999 SCT014/// BKN032/// 13/11 Q0997", "EGCN 240720Z 24008KT 9999 FEW030 13/11 Q0997", "EGDM 240720Z 23005KT 9999 FEW014 11/10 Q1001 NOSIG RMK BLU BLU", "EGDR 240720Z AUTO 21007KT 9999 BR NCD 14/13 Q1002", "EGDY 240720Z 21008KT 9999 FEW025 SCT080 11/10 Q1001 NOSIG RMK BLU BLU", "EGEC 240720Z 12001KT 9999 SCT025 SCT034 10/10 Q0993", "EGFF 240720Z AUTO 24010KT 9999 SCT033 13/11 Q1000", "EGGD 240720Z AUTO 23010KT 180V260 9999 SCT010 11/10 Q1001", "EGGP 240720Z 21004KT CAVOK 12/11 Q0997", "EGGW 240720Z 24013KT 7000 BKN007 OVC013 12/09 Q1000", "EGHC 240720Z 22010KT 9999 FEW014 FEW022CB 13/12 Q1002", "EGHE 240720Z 23013KT 9999 FEW015 14/12 Q1002", "EGHH 240720Z 24005KT 9999 FEW020 12/11 Q1002", "EGHI 240720Z 23002KT 9999 FEW045 12/10 Q1002", "EGHQ 240720Z 20009KT 9000 SCT012 12/12 Q1002", "EGJA 240720Z 24020KT 9999 SCT013 14/12 Q1004", "EGJB 240720Z 22011KT 9999 SCT012 14/13 Q1004", "EGJJ 240720Z 22012KT 9999 FEW012 SCT048 15/13 Q1005", "EGKA 240720Z 26007KT 9999 VCSH FEW013 FEW019TCU 14/12 Q1002", "EGKB 240720Z 22010KT CAVOK 11/09 Q1002", "EGKK 240720Z 22005KT 200V260 CAVOK 11/10 Q1002", "EGLC 240720Z AUTO 24009KT 9999 BKN014 13/10 Q1002", "EGLF 240720Z AUTO 23009KT 9999 NCD 11/10 Q1001", "EGLL 240720Z AUTO 24010KT 9999 SCT013 12/10 Q1001 NOSIG", "EGMC 240720Z 23011KT 9999 SCT019 13/11 Q1001", "EGMD 240720Z AUTO 26010KT 9999 FEW020/// 14/13 Q1003", "EGNH 240720Z 26013KT 8000 FEW001 SCT013 13/12 Q0996", "EGNJ 240720Z 24012KT 8000 -SHRA SCT005 SCT011 BKN020 13/13 Q0996", "EGNM 240720Z 25009KT 9999 FEW005 SCT020 11/10 Q0996", "EGNO 240720Z 24008KT 9000 BKN015 12/12 Q0996", "EGNR 240720Z 16006KT 9999 FEW008 11/09 Q0998", "EGNS 240720Z 26009KT 9999 FEW008 12/11 Q0995 NOSIG", "EGNT 240720Z 28008KT 8000 FEW004 SCT030 11/11 Q0994", "EGNV 240720Z 20006KT 4000 R23/P1000N BCFG BR FEW001 08/08 Q0995", "EGNX 240720Z 24012KT 9999 FEW008 SCT032 12/11 Q0998", "EGOM 240720Z AUTO 24010KT 0150 RA OVC001/// 10/10 Q0994", "EGOP 240720Z AUTO 24021KT 8000 OVC014/// 15/13 Q0999", "EGOS 240720Z 18006KT 9999 FEW021 BKN120 11/10 Q0998 NOSIG RMK BLU BLU", "EGOV 240720Z 22015KT 9999 SCT009TCU SCT250 14/12 Q0996 RMK GRN", "EGOW 240720Z 23011KT 9999 SCT025 13/12 Q0997 RMK BLU", "EGPA 240720Z 11015KT 9999 -RA BKN006 12/11 Q0994", "EGPB 240720Z 12018KT 9999 FEW011 BKN017 12/10 Q0998 TEMPO BKN014", "EGPC 240720Z 10016KT 8000 -RA OVC006 12/11 Q0993", "EGPD 240720Z AUTO VRB02KT 0250 R16/0200N FG VV/// 11/11 Q0992", "EGPE 240720Z 00000KT 0250 R05/1200U FG NSC 08/08 Q0992", "EGPF 240720Z AUTO VRB02KT 9999 OVC007 11/11 Q0994", "EGPH 240720Z 25005KT 9999 SCT023 10/09 Q0993", "EGPI 240720Z 14004KT 130V200 9999 FEW003 SCT006 BKN026 11/11 Q0993", "EGPK 240720Z 15003KT 9999 FEW011 BKN020 10/10 Q0994", "EGPL 240720Z 13004KT 4000 -RA BR SCT002 BKN003 12/12 Q0990", "EGPN 240720Z 24002KT 0750 FG VV/// 11/11 Q0993", "EGPO 240720Z 11012KT 9999 FEW003 BKN023 13/12 Q0991", "EGPU 240720Z AUTO 21007KT 9999 FEW006/// 12/11 Q0991", "EGQK 240720Z AUTO 05003KT 4200 BR BKN073/// 10/10 Q0992", "EGQL 240706Z 27003KT 1300 -DZ BKN002 BKN007 11/11 Q0992 RMK AMB", "EGQM 240650Z AUTO 27007KT 9999 OVC070/// 12/11 Q0993", "EGQS 240720Z 09005KT 9999 FEW001 FEW010CB SCT075 12/12 Q0992 NOSIG RMK BLU BLU", "EGSC 240720Z 24011KT 9000 SCT015 SCT032 13/12 Q0999", "EGSH 240720Z 24014KT 9999 SCT009 BKN013 BKN018 13/12 Q0998 TEMPO BKN009", "EGSS 240720Z AUTO 23012KT 9999 SCT012 OVC017 13/11 Q1000", "EGSY 240720Z AUTO 22012KT 9999 FEW022/// 13/11 Q1000", "EGTC 240720Z 23012KT 9999 BKN009 12/11 Q1000", "EGTE 240720Z 12004KT 090V150 9999 FEW035 11/10 Q1002", "EGTK 240720Z 22009KT 9999 BKN005 BKN010 12/12 Q1000", "EGUB 240720Z 22007KT 9999 FEW014 SCT041 12/11 Q1001 TEMPO 6000 SHRA SCT020 RMK BLU TEMPO WHT", "EGUL 240655Z 24014KT 9999 FEW012 BKN049 13/13 A2946 RMK AO2A SLP980 T01270125 $", "EGUN 240715Z 24010G15KT 9999 SCT013 BKN045 13/13 A2948 RMK AO2A SLP986 $", "EGUW 240650Z 24013KT 9999 SCT010 BKN050 12/11 Q0999 TEMPO 6000 SHRA RMK GRN GRN", "EGVA 240655Z 22008KT 9999 -DZ FEW007 BKN015 11/11 A2951 RMK AO2A DZB20 SLP996 P0001 T01140112 $", "EGVN 240720Z 22005KT 9999 BKN008 12/11 Q1000 NOSIG RMK GRN GRN", "EGVO 240720Z 22011KT 9999 FEW010 11/10 Q1001 RMK BLU", "EGVP 240720Z 25006KT 9999 FEW016 11/10 Q1001 NOSIG RMK BLU", "EGWU 240720Z 24008KT 9999 FEW012 SCT050 12/11 Q1001 TEMPO SCT012", "EGXC 240650Z 26014KT 9999 -RA FEW010 BKN050 13/12 Q0996 RMK BLU", "EGXE 240720Z 25003KT 9999 FEW004 BKN250 10/10 Q0995 RMK BLU", "EGXP 240650Z AUTO 25009KT 9999 // FEW026/// SCT032/// BKN050/// 12/12 Q0996", "EGXS 240650Z AUTO 23013KT 5000 -RA FEW007/// BKN050/// 13/12 Q0994", "EGXV 240720Z AUTO 26009KT 6000 // OVC007/// 13/12 Q0995", "EGXW 240720Z 24010KT 9999 -RA FEW006 BKN050 12/12 Q0997 TEMPO SCT006 RMK BLU TEMPO YLO1", "EGXZ 240720Z AUTO 14002KT 0050 FG OVC001/// 08/08 Q0995", "EGYD 240720Z 24016KT 9999 -RA FEW007 SCT060 BKN080 12/11 Q0997 TEMPO 6000 RA SCT007 RMK BLU TEMPO GRN", "EGYE 240730Z 24013KT 9999 FEW004 BKN035 ///// Q0997 RMK BLU", "EGYH 240720Z AUTO 24014KT 9999 // OVC048/// 12/11 Q0997", "EGYM 240720Z 23016KT 9999 SCT009 SCT080 12/11 Q0998 TEMPO FEW012 SCT020 RMK GRN TEMPO WHT", "EGYP 240650Z 18004KT CAVOK 10/03 Q0998", "EHAK 240725Z AUTO 17023KT 9999 FEW010/// SCT037/// BKN046/// 14/13 Q0992", "EHAM 240725Z 21020KT 9999 -DZRA FEW006 BKN027 14/12 Q1001 TEMPO 4500 SHRA SCT020CB", "EHBK 240725Z AUTO 21020KT 180V240 9999 FEW036 16/10 Q1006 BECMG 21018G30KT", "EHDL 240725Z AUTO VRB15KT 9999 FEW031 BKN035 BKN300 16/11 Q1003 BLU", "EHDV 240725Z AUTO 25013KT 190V300 9999 FEW006/// SCT029/// BKN048/// 14/12 Q0992 REDZ", "EHEH 240725Z AUTO 20012KT 9999 FEW030 SCT043 16/12 Q1004 BLU BECMG 21016G28KT", "EHFD 240725Z AUTO 17026KT 9000 -RA FEW013/// SCT016/// BKN035/// 15/13 Q0994", "EHFS 240725Z AUTO 20026KT 9999 BKN023/// OVC027/// 16/11 Q1002", "EHGG 240725Z AUTO 19016G28KT 160V230 9999 OVC046 16/11 Q1001 NOSIG", "EHGR 240725Z AUTO 21014G26KT 140V240 9999 NCD 16/12 Q1003 BLU TEMPO 22018G28KT", "EHHW 240725Z AUTO 19028KT 9999 FEW029/// SCT040/// 16/11 Q0999", "EHJA 240725Z AUTO 24025KT 9000 -RADZ FEW006/// SCT010/// BKN025/// 14/13 Q0993", "EHJR 240725Z AUTO 25036KT //// // ///////// 15/13 Q0996 RE// W16/H35", "EHKD 240725Z AUTO 21028KT 180V240 9999 SCT018 BKN021 OVC025 15/12 Q0998 WHT TEMPO 23030G45KT 4500 SHRA FEW015 SCT025CB BKN030", "EHKV 240725Z AUTO 25044KT 9999 FEW011 SCT014 BKN017 15/12 Q0995", "EHLE 240725Z AUTO 20020G35KT 170V240 9999 SCT032 BKN037 BKN041 16/11 Q1001 NOSIG", "EHLW 240725Z AUTO 19017KT 150V230 9999 SCT032 SCT037 BKN045 16/11 Q0999 BLU TEMPO 21018G30KT 4000 SHRA FEW015 SCT020CB BKN030", "EHMA 240725Z AUTO 19031KT 9999 BKN042 OVC047 16/11 Q0999", "EHMG 240725Z AUTO 20045KT 6000 FEW010 SCT018 BKN023 16/12 Q0997", "EHPG 240725Z AUTO 24040KT 9999 SCT015 BKN019 BKN024 16/11 Q0999", "EHQE 240725Z AUTO /////KT 9999 FEW014 SCT021 BKN031 16/11 Q0997", "EHRD 240725Z AUTO 21021G33KT 180V250 9999 BKN026 OVC032 16/12 Q1001 TEMPO 7000 SHRA SCT020CB", "EHSA 240725Z AUTO 22035KT 9999 ///////// 16/12 Q1001 W16/H33", "EHSC 240725Z AUTO 22035KT 9999 ///////// 15/13 Q1001 RERA W16/H22", "EHVK 240725Z AUTO 21016KT 170V250 9999 FEW043 SCT050 BKN055 16/11 Q1004 BLU NOSIG", "EHVL 240725Z AUTO 20029G40KT 9999 SCT015 BKN019 BKN025 15/13 Q0997 WHT", "EHWO 240730Z AUTO 21013KT 160V250 9999 BKN042 OVC047 16/12 Q1003 BLU TEMPO 22015G28KT", "EICK 240730Z 22008KT 9999 FEW011 SCT060 10/10 Q0998 NOSIG", "EIDL 240730Z 23013KT 3900 -RA BKN006 BKN016 12/11 Q0992", "EIDW 240730Z 21004KT 170V260 9999 FEW010 BKN018 11/09 Q0995 NOSIG", "EIKN 240730Z 23006KT 190V260 9999 FEW005 FEW020CB 10/09 Q0994 NOSIG", "EIKY 240730Z 21007KT 9999 SCT022 BKN026 12/10 Q0997", "EIME 240730Z 23011KT 9999 BKN012 11/10 Q0995", "EINN 240730Z 21007KT 9999 FEW010 BKN090 12/11 Q0996 NOSIG", "EISG 240730Z VRB03KT CAVOK 10/09 Q0994", "EIWF 240730Z 25006KT 210V290 9999 FEW015 SCT025 11/10 Q0998", "EKAH 240720Z AUTO 13005KT 100V160 9999 BKN005/// 13/13 Q1003", "EKBI 240720Z AUTO 13006KT 100V160 9999 FEW053/// OVC067/// 13/12 Q1002", "EKCH 240720Z 15010KT 9999 FEW009 BKN011 14/13 Q1006 TEMPO 4000 BKN006", "EKEB 240720Z AUTO 13011KT 9999 -RA BKN036/// 14/12 Q1001", "EKKA 240734Z AUTO 13007KT 9000 SCT071/// 13/12 Q1001 TEMPO 4000 SHRA BKN012 SCT020CB", "EKOD 240650Z 17008KT CAVOK 12/11 Q1003", "EKRK 240720Z AUTO 15008KT 9000 BKN004/// BKN083/// 13/12 Q1005", "EKRN 240720Z 12006KT 9999 FEW007 BKN038 13/13 Q1008", "EKSB 240720Z 17005KT 120V220 CAVOK 15/13 Q1002", "EKSP 240720Z 17009KT 9999 FEW048 BKN078 13/12 Q1002 BECMG 19010G20KT", "EKVD 240650Z 14008KT 9999 FEW010 BKN045 13/12 Q1002", "EKVG 240720Z AUTO 04008KT 350V070 9999 FEW032/// BKN071/// BKN110/// 09/06 Q1000 RMK SCT043/// BKN064/// BKN110/// WIND SKEID 09017KT", "EKVJ 240650Z 12008KT 9999 FEW015 SCT080 12/11 Q1001", "EKYT 240732Z AUTO 13009KT 5000 OVC004/// 13/12 Q1002", "ELLX 240720Z 21012KT 180V240 CAVOK 15/10 Q1010 NOSIG", "ENAL 240720Z 05014KT 9999 FEW040 08/06 Q1004", "ENAN 240720Z 25004KT 180V270 9999 SCT035 M01/M03 Q1013", "ENAT 240720Z 15003KT 9999 FEW021 BKN029 01/01 Q1011 RMK WIND 700FT 10005KT", "ENBL 240720Z 36004KT 9999 FEW/// 06/05 Q1003", "ENBN 240720Z 05005KT 010V180 CAVOK 02/M03 Q1010", "ENBO 240720Z 09010KT CAVOK M00/M03 Q1013 NOSIG", "ENBR 240720Z 00000KT 9999 FEW045 SCT100 07/06 Q1001 NOSIG RMK WIND 1200FT 09005KT", "ENBS 240720Z 35011KT 9999 SCT037 BKN048 01/M03 Q1008", "ENBV 240720Z 35011KT 9999 SCT040 04/M02 Q1009", "ENCN 240720Z 06014KT 7000 -RA FEW002 BKN009 10/09 Q1003", "ENDR 240720Z AUTO 07023KT 9999NDV FEW019/// 06/02 Q1006 W///S5", "ENDU 240720Z 00000KT 9999 2000E BCFG FEW002 SCT100 BKN180 M03/M03 Q1013 NOSIG RMK WIND 1100FT 23004KT WIND 2200FT 27005KT", "ENEV 240720Z 36003KT 9999 FEW043 M01/M01 Q1013 RMK WIND 1400FT VRB01KT", "ENFB 240720Z AUTO 10018KT 9000NDV BKN043/// 11/10 Q1002 W///S4", "ENFL 240720Z 08008KT 9999 FEW007 06/06 Q1003", "ENGC 240720Z 12017KT 9999 BKN040 10/10 Q1002 W09/S4", "ENGM 240720Z 02006KT 2700 -DZ BR OVC002 04/04 Q1009 TEMPO 4000 -DZ BR", "ENHD 240720Z 08012KT 9999 -RA FEW006 BKN053 11/06 Q1000", "ENHE 240720Z 08020KT 9999 BKN030 06/M01 Q1008 W///S5", "ENHF 240720Z 03004KT 9999 FEW020 BKN048 02/M01 Q1009 RMK WIND 1254FT 12008KT", "ENHK 240720Z 10006KT 9999 -RA SCT010 BKN020 02/01 Q1010", "ENHM 240720Z AUTO 09025KT 9000NDV -SHRA SCT032/// BKN039/// 12/12 Q0998 W12/S/", "ENHV 240720Z AUTO 10006KT 9999 SCT035/// BKN100/// 02/M02 Q1010", "ENJS 240720Z 11031KT 7000 -RA BKN008 10/10 Q0997 W11/S/", "ENKB 240720Z 07005KT 040V100 9999 FEW042 SCT065 06/02 Q1005 RMK WIND 745FT 13014KT", "ENKR 240720Z 32009KT 9999 FEW012 SCT022 01/M01 Q1009 RMK WIND 731FT 30008KT", "ENLA 240720Z AUTO 11018KT 9999NDV BKN008/// 13/13 Q0993 W///S4", "ENLE 240720Z 11020KT 9999 VCSH FEW006 SCT025 BKN050 13/11 Q0993 W13/S4", "ENLK 240720Z 08004KT CAVOK 00/M01 Q1013", "ENMH 240720Z AUTO 02006KT 9999 BKN035 03/M03 Q1009", "ENML 240720Z 06007KT 020V090 CAVOK 04/03 Q1005", "ENMS 240720Z 20003KT 9999 FEW003 M04/M04 Q1012 RMK WIND 412FT VRB03KT", "ENNA 240720Z VRB03KT 9999 FEW045 M00/M01 Q1011 RMK WIND 1800FT 15006KT", "ENNE 240720Z 10017KT 9999 FEW025 BKN035 06/00 Q1010 W///S5", "ENNM 240720Z 10013KT 070V130 CAVOK 02/M02 Q1009", "ENNO 240720Z 00000KT 9999 FEW004 BKN028 06/05 Q1009", "ENOA 240720Z 09022KT 9999 FEW050 11/09 Q1001 W///S4", "ENOL 240720Z 13017KT CAVOK 05/03 Q1006 NOSIG", "ENOV 240720Z 00000KT 9999 PRFG NSC 01/01 Q1004 RMK WIND RWY24 24002KT WIND 2090FT 13002KT", "ENQA 240720Z AUTO 07014KT 9999NDV NCD 11/08 Q1002 W16/S4", "ENQC 240720Z AUTO 07015KT 9999NDV FEW097/// 12/09 Q1001 W///S4", "ENQR 240720Z AUTO 09006KT 040V120 9000NDV SCT038/// 11/10 Q1002 W10/S4", "ENRA 240720Z VRB02KT CAVOK M01/M06 Q1012", "ENRM 240720Z 07005KT 030V100 CAVOK 01/M02 Q1009", "ENRO 240720Z 00000KT 9999 BKN014 M01/M01 Q1008", "ENRS 240720Z 07002KT 9999 BKN045 05/M04 Q1012", "ENRY 240720Z 03005KT 9999 OVC005 06/05 Q1009 TEMPO 4000 BR OVC003", "ENSB 240720Z VRB03KT 4000 -SHSN VV016 M06/M07 Q1009 TEMPO 29010KT 2000 SHSN VV008 RMK WIND 1400FT VRB02KT", "ENSD 240720Z 00000KT 9999 FEW/// 05/05 Q1004 RMK WIND RWY26 00000KT WIND 1140FT 09004KT", "ENSE 240720Z AUTO 11017KT 9999NDV SCT040/// 10/10 Q1002 W///S4", "ENSF 240720Z AUTO 09017KT 9999NDV FEW003/// BKN042/// 12/09 Q1002 W///S4", "ENSG 240720Z 06005KT 9999 FEW030 04/03 Q1005 RMK WIND 3306FT 10019KT", "ENSH 240650Z 35005KT 320V030 9999 VCSH FEW021 SCT150 01/M01 Q1013 RMK WIND 150FT 35004KT", "ENSK 240720Z 36006KT 9999 FEW013 M01/M02 Q1013", "ENSL 240720Z AUTO 12036KT 5000NDV -RA BKN007/// OVC016/// 12/11 Q0997 W10/S5", "ENSO 240720Z 09014KT 050V120 9999 -RA SCT045 BKN080 12/04 Q1000", "ENSR 240720Z 27009KT 240V310 9999 FEW015 SCT041 BKN066 04/M02 Q1011 RMK WIND RWY32 VRB02KT WIND 1118FT 25020KT", "ENSS 240720Z 35006KT 310V040 9999 VCSH SCT015 BKN022 OVC034 03/01 Q1008 RMK WIND 0500FT 36017KT", "ENST 240720Z 36005KT CAVOK 01/M04 Q1010 RMK WIND 300FT VRB04KT", "ENTC 240720Z 19009KT 9999 SCT016 BKN049 02/M01 Q1013 NOSIG RMK WIND 2600FT 30010KT", "ENTO 240720Z 36009KT 360V060 7000 OVC002 06/06 Q1008 TEMPO 4000 DZ BR", "ENUG 240720Z AUTO 12005KT 9999NDV DZ OVC027/// 04/M01 Q1009 W///S4", "ENVA 240720Z 11004KT CAVOK 03/01 Q1008 NOSIG RMK WIND 670FT 11009KT", "ENVD 240720Z 29010KT 9999 SCT012 SCT059 00/M02 Q1009", "ENVR 240650Z 08014KT 9999 -SHRA FEW024 SCT029 BKN037 03/00 Q1013", "ENWV 240720Z AUTO 12023KT 6000NDV -SHRA SCT018/// BKN040/// 13/13 Q0992 W///S4", "ENZV 240720Z 09011KT 9999 FEW045 BKN066 14/07 Q0999", "EPBY 240730Z 17004KT 6000 OVC006 12/11 Q1012", "EPGD 240730Z 15004KT 110V190 1000 0400E R29/0600U PRFG BR OVC001 10/10 Q1011", "EPKK 240730Z 20003KT 8000 NSC 10/09 Q1016", "EPKT 240730Z 23010KT 9999 -RA FEW040 14/12 Q1016", "EPLB 240730Z 16004KT 8000 NSC 12/12 Q1016", "EPLL 240730Z VRB02KT CAVOK 12/11 Q1014", "EPMO 240730Z 09004KT 4400 -RA BR NSC 10/10 Q1014", "EPPO 240730Z 19005KT CAVOK 12/11 Q1012", "EPRA 240730Z 20007KT CAVOK 11/11 Q1015", "EPRZ 240730Z 22009KT CAVOK 14/11 Q1017", "EPSC 240730Z 17007KT 130V190 7000 BKN002 OVC003 13/13 Q1010", "EPSY 240730Z 15004KT 120V190 0800 R01/1500N FG OVC001 10/10 Q1014", "EPWA 240730Z 14006KT 8000 NSC 10/09 Q1015 NOSIG", "EPWR 240730Z 23006KT CAVOK 15/12 Q1014", "EPZG 240730Z 19004KT 9000 NSC 13/13 Q1012", "ESCF 240720Z 08005KT 9999 BKN004 09/09 Q1010", "ESCM 240720Z 10008KT 9999 FEW035 BKN042 06/04 Q1014", "ESDF 240720Z 14005KT 110V180 3500 SHRA BR OVC003 12/12 Q1009", "ESGG 240650Z 11012KT 9999 FEW013 BKN015 08/07 Q1006", "ESGJ 240720Z 11005KT 9999 BKN024 08/08 Q1008 REDZ", "ESGP 240720Z 10009KT 9999 -RA FEW048 SCT061 OVC078 10/08 Q1005", "ESGT 240720Z 09007KT 060V130 9999 -RA SCT032 BKN043 OVC059 09/08 Q1007", "ESIA 240720Z 10008KT 9999 BKN005 BKN007 OVC033 10/09 Q1010", "ESIB 240720Z 09008KT 9999 -DZ FEW005 SCT040 BKN072 09/09 Q1008", "ESKM 240720Z AUTO 07004KT 9999 OVC011/// 03/03 Q1012", "ESKN 240720Z 10012KT 8000 -DZ FEW005 BKN011 08/07 Q1012", "ESKS 240720Z AUTO 11007KT 9000 OVC006/// 02/01 Q1010 REUP", "ESMK 240720Z 13006KT 6000 -DZ BKN004 OVC006 13/13 Q1007", "ESMQ 240720Z 11005KT 9999 SCT006 BKN008 OVC035 11/11 Q1010", "ESMS 240720Z 13007KT 8000 FEW003 BKN018 13/12 Q1006 REDZ", "ESMT 240720Z 13010KT 080V150 9999 BKN007 12/12 Q1005", "ESMV 240720Z AUTO VRB02KT 9999 RA BKN006/// BKN009/// OVC022/// 08/// Q1008", "ESMX 240720Z 10004KT 040V110 8000 RA BKN005 10/10 Q1008", "ESND 240720Z AUTO 12005KT 090V150 9999 OVC033/// 02/M00 Q1012", "ESNG 240720Z 30002KT CAVOK M05/// Q1012", "ESNK 240720Z 30002KT 9999 FEW003 OVC051 M04/M05 Q1016", "ESNL 240720Z AUTO VRB01KT 9999 NCD M07/M08 Q1014", "ESNN 240720Z 32004KT 9999 OVC042 M02/M04 Q1015", "ESNO 240720Z 33003KT CAVOK M05/M05 Q1015", "ESNQ 240720Z 20004KT CAVOK M04/M06 Q1011", "ESNS 240720Z 26003KT CAVOK M03/M04 Q1015", "ESNU 240720Z 34003KT CAVOK M05/M06 Q1015", "ESNV 240720Z AUTO 00000KT 9999 NCD ///// Q1013", "ESNX 240720Z AUTO 00000KT 9999 NCD M07/M07 Q1013", "ESNZ 240720Z 14011KT 9999 SCT024 BKN044 02/M00 Q1010", "ESOE 240720Z AUTO 06008KT 2400 R01///// R19///// VV001 07/07 Q1011", "ESOH 240720Z AUTO 10004KT 060V140 9999 OVC008/// 06/05 Q1011", "ESOK 240720Z 08006KT 9999 OVC005 06/XX Q1010", "ESOW 240720Z 08006KT 050V120 9999 BKN005 06/05 Q1013", "ESPA 240720Z 33004KT CAVOK M02/M06 Q1014", "ESPE 240720Z VRB01KT CAVOK M07/M08 Q1014", "ESSA 240720Z 09007KT 9999 FEW025 BKN033 06/04 Q1013 NOSIG", "ESSB 240720Z 09008KT 9999 BKN017 08/05 Q1013", "ESSD 240720Z 10004KT 9999 BKN006 OVC009 03/02 Q1013", "ESSL 240650Z 09007KT 9999 FEW006 SCT010 OVC038 09/09 Q1010", "ESSP 240720Z 10010KT 6000 -DZ OVC004 09/09 Q1011", "ESST 240720Z VRB03KT 7000 OVC007 05/05 Q1011", "ESSV 240720Z 13008KT 9999 BKN003 10/10 Q1012", "ESTA 240720Z 12013KT 9999 BKN009 13/12 Q1005", "ESTL 240720Z 12009KT 9999 SCT003 OVC005 13/13 Q1006", "ESUP 240720Z AUTO 23003KT //// SCT120/// M02/M04 Q1012", "ESUT 240720Z AUTO 00000KT 9999 NCD M06/M07 Q1011", "ETAD 240655Z AUTO 21011KT 9999 CLR 14/10 A2979 RMK AO2 SLP075 T01380100 $", "ETAR 240655Z AUTO 19006KT 9999 CLR 17/17 A2986 RMK AO2 SLP110 T01730170 $", "ETEB 240730Z AUTO 28008G22KT 5000 VCTS +RA BKN017 BKN050 14/12 A2999 RMK AO2 RAB01 TSB09E30 SLP165 $", "ETGG 240720Z AUTO 17015KT 9999 // ////// 14/12 Q1002 ///", "ETHA 240720Z VRB02KT 9999 BKN060 BKN150 12/12 Q1018 BLU BLU TEMPO WHT", "ETHB 240720Z 19015KT 9999 FEW030 BKN270 16/12 Q1006 BLU+BLU+", "ETHC 240720Z 17007KT 9999 FEW240 BKN280 15/13 Q1007 BLU+BLU+", "ETHF 240720Z 21007KT 9999 FEW060 BKN280 15/12 Q1010 BLU+BLU+", "ETHL 240720Z 20007KT 9999 -RA FEW040 BKN070 14/12 Q1016 BLU BLU TEMPO GRN", "ETHN 240720Z 18007KT 9999 FEW030CB SCT060 OVC090 13/11 Q1014 RETSRA BLU BLU TEMPO YLO", "ETHS 240720Z 19010KT 9999 BKN280 15/13 Q1006 BLACKBLU+BLU+", "ETIC 240725Z AUTO 00000KT 9999 BKN012 OVC055 13/13 A2998 RMK AO2 CIG 012V055 BKN V FEW SLP154 $", "ETIH 240734Z AUTO 29004KT 9999 SCT007 13/12 A3002 RMK AO2 DZB12E34 SLP165 $", "ETIK 240700Z 25016G23KT 0400 R24/0550V1300 +TSRA BKN028 BKN055 15/11 A2998 RMK AO2A VIS 0400V9000 CIG 028V060 BKN028 V FEW SLP148 $", "ETMN 240720Z 21012G22KT 9999 FEW025 SCT230 16/10 Q1003 BLU+BLU", "ETND 240720Z 20011KT 9999 BKN042 BKN300 15/11 Q1005 BLU", "ETNG 240650Z 22010G23KT 9999 FEW035 BKN280 17/11 Q1006 NOSIG", "ETNH 240720Z 17007KT 9999 FEW055 14/12 Q1003 BLU+BLU+", "ETNL 240720Z 18004KT 9999 FEW075 BKN260 13/12 Q1006 BLU+BLU+", "ETNN 240720Z 20007KT 9999 FEW040 BKN260 16/10 Q1007 BLU+BLU+", "ETNS 240720Z 18010KT 9999 BKN047 SCT170 14/12 Q1003 BLU", "ETNT 240720Z 19007KT 9999 FEW038 BKN048 15/11 Q1002 BLACKBLU", "ETNW 240720Z 18006KT 9999 FEW035 BKN310 15/13 Q1006 BLU+BLU+", "ETOU 240655Z AUTO 09005KT 9999 CLR 12/12 A2986 RMK AO2 SLP114 T01240122 $", "ETSB 240720Z 23013KT 9999 SCT150 BKN210 14/10 Q1009 BLU+BLU+", "ETSH 240720Z 20007KT 9999 BKN200 BKN260 15/13 Q1011 BLU+BLU", "ETSI 240720Z 19005KT 9999 -RA FEW060 BKN080 15/13 Q1016 BLU BLU TEMPO WHT", "ETSL 240720Z 19005KT 8000 -RA FEW040 BKN070 15/12 Q1017 BLU BLU TEMPO GRN", "ETSN 240720Z 19006KT 9999 RA FEW010 BKN080 14/13 Q1016 BLU BLU TEMPO WHT", "ETWM 240720Z 18009G21KT 9999 FEW045 16/10 Q1003 BLU+", "EVLA 240720Z AUTO 14006KT 120V180 8000 OVC002/// 10/10 Q1013", "EVRA 240720Z VRB02KT 9999 SCT033 BKN040 BKN049 08/06 Q1015 NOSIG", "EVVA 240720Z AUTO 12005KT 9999 OVC008 08/08 Q1014", "EYKA 240720Z 17003KT 130V200 9999 OVC004 10/08 Q1016", "EYPA 240720Z 13004KT 090V180 9999 OVC002 10/10 Q1014", "EYSA 240720Z 16007KT 9999 OVC006 09/08 Q1015 NOSIG", "EYVI 240720Z 14005KT 9999 SCT012 BKN043 08/06 Q1016 TEMPO BKN005", "FABL 240700Z 33005KT 270V040 CAVOK 21/14 Q1021 NOSIG", "FACT 240700Z 22011KT CAVOK 21/14 Q1014 NOSIG", "FACV 240642Z 07007KT CAVOK 24/11 Q1016", "FAEL 240700Z 15006KT 120V180 9999 FEW015 23/19 Q1018", "FAGG 240700Z 12008KT 9999 FEW010 BKN024 19/16 Q1017", "FAKM 240639Z 04006KT CAVOK 21/14 Q1020", "FAKN 240700Z 06005KT 9999 BKN010 21/17 Q1020 BECMG BKN015", "FALA 240700Z 33008KT 300V360 9999 FEW020 22/13 Q1023 NOSIG", "FALE 240700Z 21007KT 9999 FEW020 25/19 Q1016 NOSIG", "FALW 240700Z AUTO 03004KT //// // ////// 17/13 Q1014", "FAMM 240700Z 02013KT CAVOK 25/12 Q1020 NOSIG", "FAOR 240700Z 36013KT CAVOK 21/12 Q1023 NOSIG", "FAPE 240700Z 15005KT 110V190 9999 SCT012 BKN018 BKN033 21/18 Q1017 NOSIG", "FAPP 240700Z 33003KT 9999 OVC012 19/16 Q1024 NOSIG", "FASB 240653Z 13002KT CAVOK 22/04 Q1018", "FAUP 240700Z 34014KT CAVOK 26/10 Q1015 NOSIG", "FBKE 240700Z 11013KT CAVOK 30/10 Q1017", "FBPM 240700Z 14008KT 9999 FEW020 FEW030CB BKN070 19/18 Q1021 RETS", "FBSK 240700Z 04011KT 010V070 CAVOK 25/16 Q1019 NOSIG", "FCBB 240700Z 25005KT 220V280 8000 BKN020 FEW026CB 26/23 Q1015 NOSIG", "FCPP 240700Z 20009KT 9999 SCT010 BKN021 26/25 Q1013 NOSIG", "FDMS 240700Z 30004KT 9999 FEW035 24/18 Q1017 NOSIG", "FDMY 240700Z AUTO 07005KT //// // ////// 26/20 Q1026", "FDOT 240700Z AUTO 02001KT //// // ////// 29/21 Q1016", "FDPP 240700Z AUTO /////KT //// // ////// 24/15 Q1016", "FDSK 240700Z 36011KT 9999 SCT030 25/18 Q1017 NOSIG", "FEFF 240700Z 25004KT 9999 FEW010 27/22 Q1012 NOSIG", "FEFT 240700Z 36014KT CAVOK 22/20 Q1013", "FGSL 240700Z VRB01KT 9999 SCT010 26/24 Q1013 NOSIG", "FIMP 240700Z 06013KT 9999 VCSH SCT016 BKN050 26/18 Q1020", "FJDG 240655Z 13016G22KT 9999 FEW020 SCT049 BKN090 29/25 A2990 RMK SLP122 P0001 T02940252", "FKKD 240700Z VRB02KT 8000 BKN014 FEW016CB 27/24 Q1013 NOSIG", "FKKR 240700Z VRB02KT CAVOK 28/24 Q1013 NOSIG", "FKYS 240700Z 02003KT 4000 BR FEW003 BKN006 22/22 Q1018 BECMG 6000 NSW", "FMCH 240700Z 10030KT 9999 SCT024 30/20 Q1016 NOSIG", "FMCZ 240730Z AUTO VRB03KT 9999 FEW024 30/23 Q1017 NOSIG", "FMEE 240730Z AUTO 08012KT 9999 BKN078/// 28/21 Q1019 NOSIG", "FMEP 240730Z AUTO 17006KT 140V210 CAVOK 27/18 Q1019 NOSIG", "FMMI 240730Z VRB04KT 9999 FEW017 25/12 Q1022 NOSIG", "FMMT 240700Z 06010KT 010V100 9999 SCT017TCU 27/21 Q1018 NOSIG", "FMNA 240700Z 14012KT 9999 SCT020 29/16 Q1016", "FMNM 240700Z 33010KT 290V030 9999 FEW020 31/22 Q1016 NOSIG", "FMNN 240700Z 03006KT 9999 SCT020 28/// Q1016", "FMSD 240700Z 14008KT 9999 FEW020 28/19 Q1016", "FNCA 240700Z 18006KT 9999 FEW010 BKN018 26/24 Q1013", "FNCT 240700Z 32004KT 9999 OVC020 25/22 Q1014", "FNDU 240700Z 18009KT 9999 FEW020 ///// Q////", "FNHU 240700Z 34010KT 8000 RA BKN012 FEW025 SCT060 16/16 Q1024", "FNLU 240700Z 14007KT 7000 FEW011 SCT018 BKN070 25/23 Q1013", "FNMO 240700Z 00000KT 9999 FEW007 BKN025 21/18 Q1013", "FNSO 240700Z 23006KT 7000 VCSH BKN008 OVC030 25/24 Q////", "FNUE 240700Z 36007KT 9999 BKN020 21/19 Q1025", "FOGM 240700Z /////KT 9000 SCT007 OVC020 23/22 Q////", "FOGO 240700Z /////KT 9000 SCT007 OVC025 21/20 Q////", "FOGR 240700Z /////KT 6000 RA SCT006 OVC023 23/23 Q////", "FOOB 240700Z /////KT 2000 BR SCT006 OVC020 22/22 Q1013", "FOOG 240700Z 16005KT 120V190 9000 SCT008 BKN030 26/25 Q1013", "FOOL 240700Z 17008KT 3000 -TSRA SCT008 FEW020CB BKN030 25/25 Q1013 TEMPO 2000 TSRA", "FOON 240700Z /////KT 8000 FEW008 22/21 Q1015", "FOOR 240700Z /////KT 5000 RA SCT003 BKN005 FEW010CB 21/21 Q////", "FQBR 240700Z 10013KT 9999 BKN018 29/22 Q1015", "FQCH 240700Z /////KT 5000 BR SCT015 BKN020 25/19 Q1020", "FQIN 240700Z 06010KT 9999 FEW020 29/21 Q1016", "FQLC 240700Z 05013KT CAVOK 24/12 Q1023", "FQMA 240700Z 36005KT 300V360 9999 SCT025 FEW030CB 27/21 Q1015 RMK CB TO W NOSIG", "FQNC 240700Z 03012KT 9999 SCT020 SCT100 27/20 Q1017", "FQPB 240700Z 04015KT 9999 FEW020 BKN/// 27/21 Q1018", "FQQL 240700Z 09009KT CAVOK 29/22 Q1015", "FQVL 240700Z 09009KT 9999 BKN020 29/24 Q1016", "FQXA 240700Z 02007KT CAVOK 28/19 Q1016", "FSIA 240700Z 13012G23KT 100V160 9999 SCT018 28/23 Q1014 NOSIG", "FTTA 240700Z 32006KT CAVOK 27/24 Q1014", "FTTC 240700Z 10014KT CAVOK 31/// Q1016", "FTTD 240700Z 00000KT CAVOK 27/24 Q1015", "FTTJ 240700Z 33006KT 7000 NSC 31/20 Q1012 NOSIG", "FWCL 240700Z 05007KT CAVOK 29/12 Q1018 NOSIG", "FWKI 240700Z 06012KT CAVOK 27/12 Q1021 NOSIG", "FYGF 240700Z 33003KT CAVOK 29/11 Q1021", "FYKM 240700Z 17004KT CAVOK 31/11 Q1016", "FYLZ 240700Z AUTO 13002KT //// // ////// 18/13 Q1014", "FYRU 240700Z 30010KT CAVOK 29/13 Q1020", "FYWE 240700Z 17008KT CAVOK 26/03 Q1023", "FYWH 240700Z 09009KT CAVOK 25/12 Q1023 NOSIG", "FYWW 240700Z 09007KT CAVOK 28/06 Q1022", "GABS 240700Z 02002KT 9999 FEW020 23/21 Q1015 NOSIG", "GBYD 240700Z 12010KT 9999 BKN010 FEW018CB SCT100 23/22 Q1014 CB(NE-E)", "GCFV 240730Z 05008KT 9999 FEW018 22/19 Q1016", "GCLA 240730Z 29004KT 9999 SCT025 20/15 Q1016", "GCLP 240730Z 35008KT 9999 SCT020 21/18 Q1016 NOSIG", "GCRR 240730Z 02006KT 9999 FEW020 20/18 Q1016", "GCTS 240730Z 01006KT 9999 FEW025 20/16 Q1016 NOSIG", "GCXO 240730Z 18004KT 130V210 9999 FEW010 16/15 Q1018 NOSIG", "GECE 240730Z AUTO 00000KT CAVOK 19/17 Q1017", "GEML 240730Z VRB01KT CAVOK 20/12 Q1018", "GFLL 240700Z 09008KT 9999 BKN010 FEW026CB 24/22 Q1012 RMK CB-NE", "GGOV 240700Z 02005KT 280V060 4000 TSRA BKN010 FEW018CB 23/22 Q1015 NOSIG", "GLRB 240730Z 00000KT 9999 TS BKN011 FEW023CB 23/22 Q1013 TEMPO TS RMK CB/S-NW", "GMAD 240730Z 04009KT CAVOK 22/M02 Q1015 NOSIG", "GMAT 240700Z 14008KT 5000 NSC 22/09 Q1015 NOSIG", "GMFF 240730Z 20006KT CAVOK 16/04 Q1020 NOSIG", "GMFK 240700Z 00000KT CAVOK 13/M03 Q1027 NOSIG", "GMFO 240730Z 17014KT CAVOK 23/00 Q1021 NOSIG", "GMME 240730Z 09005KT 5000 NSC 16/16 Q1015 NOSIG", "GMMI 240700Z VRB02KT 6000 NSC 14/08 Q1015 NOSIG", "GMMN 240730Z 33006KT CAVOK 15/12 Q1017 NOSIG", "GMMW 240700Z VRB01KT CAVOK 13/09 Q1019 NOSIG", "GMMX 240730Z 07007KT CAVOK 20/06 Q1017 NOSIG", "GMMZ 240700Z 31002KT CAVOK 11/M05 Q1026 NOSIG", "GMTA 240700Z 17003KT 150V220 CAVOK 18/13 Q1017 NOSIG", "GMTN 240700Z 22006KT 6000 BKN008 17/14 Q1017 NOSIG", "GMTT 240730Z 09005KT 6000 2500W NSC 17/17 Q1017 NOSIG", "GOBD 240700Z 12006KT 8000 SCT016 24/23 Q1014 NOSIG", "GOGG 240700Z 28006KT 8000 TSRA BKN015 FEW026CB 22/22 Q1015", "GOGK 240700Z 08006KT 9999 -RA NSC 23/22 Q1014", "GOGS 240700Z 06012KT 9999 TS FEW008 FEW030CB 23/22 Q1014", "GOOD 240700Z 00000KT CAVOK 24/23 Q1014", "GOOG 240700Z 11004KT CAVOK 24/19 Q1012", "GOOK 240700Z 14006KT CAVOK 24/22 Q1014", "GOOY 240700Z 00000KT 9999 SCT011 26/25 Q1013", "GOSM 240700Z 14006KT CAVOK 26/22 Q1013", "GOSP 240700Z 28002KT 9999 FEW013 27/25 Q1013", "GOSS 240700Z 16006KT 110V190 9999 SCT010 25/21 Q1013", "GOTK 240700Z 28004KT 6000 -TSRA FEW030CB 22/21 Q1015", "GOTT 240700Z 00000KT 9000 -RA FEW013 23/22 Q1015", "GQNO 240700Z 23008KT CAVOK 23/22 Q1012 NOSIG", "GQPP 240700Z 36005KT 340V040 1000 BR BKN006 18/18 Q1013 NOSIG", "GUCY 240700Z 01004KT 9999 FEW015 BKN110 25/23 Q1014 NOSIG", "GVAC 240700Z 02006KT 9999 BKN014 24/20 Q1014 NOSIG", "GVBA 240700Z 07003KT 9999 SCT014 23/20 Q1014 NOSIG", "GVNP 240700Z 01005KT 9999 FEW018 23/20 Q1014 NOSIG", "GVSV 240700Z 05008KT 9999 FEW018 25/20 Q1014 NOSIG", "HAAB 240700Z 08012KT SCT030 19/07 Q1029 NOSIG", "HCMF 240700Z 06012KT CAVOK 27/24 Q1014", "HCMM 240700Z 15009KT 9999 BKN021 29/24 Q1014", "HDAM 240700Z 060/11KT 9999 FEW023 33/24 Q1014", "HEAT 240700Z 33010KT CAVOK 21/13 Q1020 NOSIG", "HEAX 240700Z 35005KT 9999 FEW020 24/12 Q1020 NOSIG", "HEBA 240700Z 33010KT 9999 SCT020 23/13 Q1020 NOSIG", "HEBL 240700Z 34014KT CAVOK 24/06 Q1018 NOSIG", "HECA 240730Z 35009KT 9999 SCT025 23/14 Q1019 NOSIG", "HECP 240700Z 33014KT 6000 NSC 21/13 Q1019 NOSIG", "HEGN 240700Z 31011KT CAVOK 26/11 Q1016 NOSIG", "HEIS 240700Z 33010KT 9999 SCT025 23/13 Q1018", "HELX 240700Z 34003KT 6000 NSC 24/12 Q1017 NOSIG", "HEMA 240700Z 33017KT CAVOK 26/14 Q1015 NOSIG", "HEMM 240700Z 21005KT 9999 FEW020 21/14 Q1021 NOSIG", "HEPS 240700Z 36010KT 9999 FEW025 24/18 Q1019 NOSIG", "HESG 240700Z 34005KT CAVOK 22/09 Q1016 NOSIG", "HESN 240700Z 35010KT CAVOK 24/09 Q1017 NOSIG", "HESW 240700Z 30003KT CAVOK 17/11 Q1022", "HETR 240700Z 29016KT 9999 FEW025 26/15 Q1015", "HKEL 240700Z VRB06KT 9999 FEW021 20/11 Q1027", "HKEM 240700Z 30003KT 9999 FEW021 24/14", "HKGA 240700Z 00000KT 9999 BKN024 28/20 Q1016", "HKJK 240700Z 03007KT 9999 SCT022 22/13 Q1024 NOSIG", "HKKI 240700Z VRB04KT CAVOK 27/14 Q1019", "HKKT 240700Z 09004KT 9999 FEW020 24/14", "HKLU 240700Z 00000KT 9999 -RA BKN024 28/23 Q1015", "HKME 240700Z 12005KT 9999 FEW020 23/14", "HKML 240700Z 16010KT 9999 SCT021 29/22 Q1016", "HKMO 240700Z 12006KT 9999 BKN024 28/21 Q1016 NOSIG", "HKNI 240700Z 14005KT 9999 FEW024 22/12", "HKNK 240700Z 00000KT 9999 FEW021 21/11", "HKNW 240700Z 06008KT 9999 SCT024 22/13 Q1025", "HKWJ 240700Z 16008KT 9999 BKN031 29/19 Q1014", "HRYR 240730Z 18006KT 150V220 9999 SCT026 SCT100 23/16 Q1022 NOSIG", "HRZA 240700Z VRB03KT 9999 FEW026 SCT100 24/17 Q1022 NOSIG", "HSSK 240730Z 33008KT CAVOK 30/04 Q1015 NOSIG", "HTDA 240700Z 08007KT 9999 SCT025 29/21 Q1017 NOSIG", "HTJN 240700Z AUTO 35410KT //// 24/16 Q1022", "HTKJ 240700Z 12005KT 9999 SCT028 25/17 Q1021 NOSIG", "HTMW 240700Z 09010KT 9999 FEW025 FEW026CB 29/13 Q1018 NOSIG", "HTZA 240700Z 03006KT 9999 -RA SCT016 BKN080 26/23 Q1017 NOSIG", "HUEN 240700Z 33005KT 9999 FEW024 FEW026CB 25/20 Q101 9 NOSIG", "K04V 240715Z AUTO 29008KT 10SM M04/M08 A2986 RMK AO2", "K04W 240735Z AUTO 15010G18KT 10SM SCT023 SCT029 BKN039 19/16 A2949 RMK AO2 LTG DSNT E AND NW", "K05U 240735Z AUTO 00000KT 10SM M05/M07 A3021 RMK A01", "K06C 240715Z AUTO 19010G16KT 10SM SCT120 19/12 A2989 RMK AO2 T01900120", "K06D 240735Z AUTO 36018G24KT 10SM OVC003 05/05 A2931 RMK AO2 LTG DSNT ALQDS", "K08D 240735Z AUTO 36023G32KT 1 1/2SM +UP 02/02 A2941 RMK AO2 LTG DSNT N-E", "K0A0 240735Z AUTO 19006KT 10SM BKN080 14/05 A2981 RMK AO2", "K0A9 240735Z AUTO 00000KT 7SM CLR 08/05 A3018 RMK A01", "K0CO 240735Z AUTO 34022G31KT 1/2SM +SN OVC003 M14/M16 A2979 RMK AO2", "K0E0 240735Z AUTO 32007KT 10SM SCT047 BKN065 OVC085 05/M01 A2985 RMK AO2 T00461013 TSNO", "K0F2 240735Z AUTO 16011G19KT 10SM CLR 23/18 A2973 RMK AO2 T02300175", "K0J4 240658Z AUTO 00000KT 10SM CLR 08/05 A3012 RMK AO2 SLP198 T00830050 $", "K0R0 240735Z AUTO 00000KT 10SM FEW030 13/12 A3008 RMK AO2", "K0R4 240715Z AUTO 10005KT 10SM CLR 18/14 A3002 RMK AO2 T01760142", "K0S9 240735Z AUTO 11005KT 8SM -RA OVC065 08/07 A3001 RMK AO2", "K0VG 240735Z AUTO 00000KT 10SM CLR 04/03 A3019 RMK AO2", "K10G 240735Z AUTO 14004KT 10SM CLR 13/02 A3015 RMK AO2", "K11R 240715Z AUTO 17007KT 10SM OVC060 25/20 A2987 RMK AO2 T02460201", "K12N 240654Z AUTO 04007KT 010V100 13/09 A3019 RMK AO1 SLP221 T01330094 $", "K13K 240735Z AUTO 18019G28KT 10SM CLR 23/14 A2965 RMK AO2 T02300142", "K14Y 240735Z AUTO 15012G18KT 10SM CLR 17/15 A2936 RMK AO2", "K15M 240735Z AUTO 00000KT 10SM CLR 13/09 A3009 RMK AO2 T01330094 $", "K17J 240715Z AUTO 00000KT 10SM CLR 10/07 A3012 RMK AO2 T00960071", "K18A 240735Z AUTO 02004KT 10SM CLR 06/04 A3018 RMK AO2 T00640045", "K18H 240735Z AUTO 16026KT 10SM FEW037 OVC060 26/17 A2994 RMK A01", "K19S 240715Z AUTO 35017G22KT 7SM OVC100 13/02 A2973 RMK AO2 T01290020", "K1A5 240735Z AUTO 00000KT 10SM CLR 01/01 A3026 RMK AO2 T00110006", "K1A6 240715Z AUTO 00000KT 10SM CLR 04/04 A3018 RMK AO2 T00420042", "K1A9 240735Z AUTO 00000KT 10SM CLR 08/07 A3012 RMK AO2 T00780070", "K1AM 240655Z AUTO 28010KT 10SM BKN004 OVC009 M00/M00 A2997 RMK AO2 SNE0557 SLP179 P0000 T10041005 400011011 $", "K1AW 240656Z AUTO 31011KT 10SM CLR M01/M02 A2972 RMK AO2 SLP059 T10071023 401601007 $", "K1BM 240655Z AUTO 27013KT 10SM FEW033 BKN055 M01/M03 A2995 RMK AO2 SLP171 T10101027 400121010 $", "K1BW 240656Z AUTO 31014KT 10SM SCT027 OVC034 01/M03 A2972 RMK AO2 SLP054 T00091027 401720009 $", "K1CM 240655Z AUTO 29023G29KT 9SM BKN006 OVC050 M01/M02 A2993 RMK AO2 PK WND 30029/48 SNE21 SLP164 P0000 T10151019 400021019 $", "K1CW 240656Z AUTO 33010KT 10SM FEW060 SCT170 01/M02 A2971 RMK AO2 SLP048 T00121022 401500012 $", "K1D1 240735Z AUTO 23011G20KT 10SM SCT070 BKN075 12/09 A2931 RMK AO2", "K1DW 240656Z AUTO 32013KT 10SM FEW040 01/M02 A2974 RMK AO2 SLP056 T00081019 401460008 $", "K1EW 240656Z AUTO 14008KT 10SM CLR M00/M02 A2973 RMK AO2 SLP055 T10011017 401671001 $", "K1F0 240735Z AUTO 16012G19KT 10SM CLR 23/17 A2974 RMK AO2 T02340169", "K1FM 240655Z AUTO 00000KT 10SM CLR M04/M05 A2997 RMK AO2 SLP189 T10451046 410031049 $", "K1FW 240656Z AUTO 33013KT 10SM CLR 01/M02 A2971 RMK AO2 SLP043 T00131016 401510010 $", "K1H2 240735Z AUTO 13009KT 10SM CLR 18/07 A2998 RMK AO2 T01760066", "K1HM 240655Z AUTO 28004KT 10SM OVC007 M01/M03 A2997 RMK AO2 SLP180 T10141028 400041014 $", "K1HW 240656Z AUTO 30010KT 10SM CLR 02/M01 A2969 RMK AO2 SLP046 T00221007 401770021 $", "K1IM 240655Z AUTO 25006KT 10SM OVC012 00/00 A2998 RMK AO2 SLP184 T00010000 400081001 $", "K1IW 240656Z AUTO 31015KT 10SM CLR 02/M01 A2971 RMK AO2 SLP046 T00231008 401900023 $", "K1JM 240655Z AUTO 24004KT 7SM OVC011 M01/M01 A2997 RMK AO2 SLP185 T10081011 410031010 PWINO $", "K1JW 240656Z AUTO 32014KT 10SM FEW140 02/M02 A2958 RMK AO2 SLP997 T00201016 401750020 $", "K1K1 240735Z AUTO 10SM -RA SCT080 SCT110 23/13 A2962 RMK AO2 T02250132", "K1KM 240655Z AUTO 31012KT 10SM FEW028 OVC039 01/M03 A2991 RMK AO2 SNE17PLB17E22 SLP150 P0000 T00091034 400300000 $", "K1KW 240656Z AUTO 32009KT 10SM FEW140 02/M01 A2971 RMK AO2 SLP048 T00181009 401600015 $", "K1LM 240655Z AUTO 35016KT 9SM -SN OVC005 M02/M03 A2991 RMK AO2 PK WND 35026/17 SNE39SNB41 SLP160 P0000 T10231027 400021027 $", "K1M4 240656Z AUTO 17005KT 10SM CLR 16/06 A3013 RMK AO2 SLP190 T01560061", "K1M5 240735Z AUTO 19008KT 10SM CLR 15/06 A3010 RMK A01", "K1MM 240655Z AUTO 00000KT 10SM BKN008 OVC013 M02/M03 A2992 RMK AO2 SNE25 CIG 006V008 SLP167 P0000 T10201034 400031024 $", "K1MW 240655Z AUTO 29010KT 10SM M 02/M00 A2530 RMK AO2 SLP507 T00171002 401950017 FZRANO $", "K1NM 240655Z AUTO 32022G32KT 10SM FEW023 SCT030 BKN060 OVC095 M00/M03 A2983 RMK AO2 PK WND 32032/45 SNE37PLB37E42 SLP128 P0000 T10011035 400161009 $", "K1OM 240655Z AUTO 30031G37KT 10SM FEW009 FEW043 OVC060 M01/M02 A2984 RMK AO2 PK WND 31038/40 SNE49 SLP134 P0000 T10111025 400211013 $", "K1P1 240735Z AUTO 00000KT 10SM OVC026 09/08 A3030 RMK AO2 T00870076", "K1R7 240735Z AUTO 00000KT 10SM CLR 15/15 A3007 RMK AO2 PWINO", "K1R8 240715Z AUTO 10003KT 10SM BKN041 BKN049 12/12 A3008 RMK AO2", "K1S3 240730Z AUTO 29016G24KT 3SM M01/M01 A2979 ", "K1S5 240735Z AUTO 00000KT 10SM CLR 02/01 A3012 RMK AO2 T00200009", "K1U7 240735Z AUTO 35013KT 10SM OVC030 M01/M01 A3000 RMK A01", "K1V4 240654Z AUTO 09/06 A3029 RMK AO1 SLP255 T00940061 PNO", "K1V6 240735Z AUTO 34003KT 10SM SCT090 05/M01 A2977 RMK AO2", "K1YT 240655Z AUTO 00000KT 10SM CLR 04/M01 A3007 RMK AO2 SLP192 T00441010 $", "K20U 240735Z AUTO 31023G29KT 10SM OVC003 M00/M00 A2954 RMK AO2", "K20V 240715Z AUTO 33005KT 10SM BKN037 BKN046 OVC080 M01/M08 A2992 RMK AO2", "K21D 240735Z AUTO 15012G17KT 10SM VCTS SCT060 SCT080 BKN110 18/15 A2952 RMK AO2 LTG DSNT SE THRU NW P0002", "K22N 240735Z AUTO 00000KT 3SM RA OVC003 11/10 A3020 RMK AO2", "K24A 240735Z AUTO 14003KT 10SM CLR 08/03 A3024 RMK AO2 T00800028", "K24J 240735Z AUTO 00000KT M1/4SM FG 11/11 A3010 RMK A01", "K27K 240735Z AUTO 00000KT 10SM CLR 10/02 A3011 RMK AO1", "K28J 240735Z AUTO 00000KT 4SM BR CLR 10/10 A3009 RMK AO2 TSNO", "K2A0 240735Z AUTO 00000KT 10SM CLR 04/04 A3016 RMK A01", "K2C8 240735Z AUTO 35011KT 4SM -RA SCT005 BKN034 OVC050 09/09 A2929 RMK AO2 LTG DSNT NW-NE", "K2D5 240735Z AUTO 20018G29KT 9SM BKN024 BKN055 OVC110 11/08 A2923 RMK AO2", "K2DP 240655Z AUTO 33009KT 10SM OVC005 16/16 A3007 RMK AO2 SLPNO T01550155 $", "K2G2 240730Z AUTO 08005KT 10SM CLR 08/03 A3016 RMK A01", "K2G9 240715Z AUTO 24003KT 5SM BR CLR 06/05 A3020 RMK AO2", "K2J3 240735Z AUTO 00000KT 10SM CLR 09/08 A3016 RMK AO2 T00860079", "K2J5 240715Z AUTO 00000KT 10SM CLR 08/07 A3016 RMK AO2 T00820074", "K2J9 240735Z AUTO 00000KT 10SM CLR 09/08 A3012 RMK AO2", "K2M2 240735Z AUTO 00000KT 10SM CLR 14/05 A3010 RMK A01", "K2P2 240735Z AUTO 19013G21KT 10SM BKN110 14/14 A2987 RMK AO2 T01440137", "K2R9 240735Z AUTO 14009KT 10SM BKN060 23/22 A2982 RMK AO2 T02340218", "K2V5 240735Z AUTO 30008G16KT 10SM CLR 04/01 A2976 RMK AO2", "K2W6 240719Z AUTO 33003KT 7SM OVC004 12/12 A3014 RMK AO1", "K2WX 240656Z AUTO 29028G40KT 01/M01 A2950 RMK AO1 PK WND 29040/0656 SLP003 T00111006 400890011", "K33N 240735Z AUTO 02006KT 10SM OVC004 12/12 A3010 RMK A01", "K33V 240715Z AUTO 00000KT 10SM SCT029 SCT034 M08/M10 A2987 RMK AO1", "K35A 240735Z AUTO 00000KT 10SM CLR 06/05 A3021 RMK A02 T00580052", "K36K 240730Z AUTO 35015G20KT 10SM OVC100 10/02 A2978 RMK AO2", "K38S 240730Z AUTO 00000KT 10SM M02/M02 A3007 ", "K3AU 240735Z AUTO 20019G26KT 10SM BKN110 23/12 A2964 RMK AO2", "K3D2 240735Z AUTO 17012G23KT 10SM -RA BKN110 13/11 A2985 RMK AO2 P0001 T01290113", "K3F3 240735Z AUTO 14009G16KT 10SM SCT021 SCT026 BKN032 21/18 A2996 RMK AO2 T02140175", "K3J7 240735Z AUTO 00000KT 10SM CLR 10/07 A3016 RMK AO2", "K3K3 240715Z AUTO 35015G22KT 10SM OVC110 08/01 A2975 RMK AO2", "K3LF 240735Z AUTO 16013KT 10SM CLR 19/11 A2991 RMK AO2 T01900107", "K3N8 240735Z AUTO 14013G20KT 10SM VCTS BKN046 OVC060 16/15 A2928 RMK AO2 LTG DSNT NE T01620145", "K3S8 240735Z AUTO 00000KT 10SM CLR 03/02 A3028 RMK AO2", "K3U3 240730Z AUTO 00000KT 10SM 00/M04 A3004 ", "K40B 240716Z AUTO 00000KT 07/07 A3033 RMK AO1 SLP277 T00670067 57005", "K40U 240735Z AUTO 28020G25KT 10SM BKN075 BKN090 M01/M08 A2997 RMK AO2 T10091076", "K41U 240735Z AUTO 20004KT 10SM OVC041 00/M03 A3008 RMK AO1 T10031030", "K42J 240735Z AUTO 00000KT 10SM SCT025 14/14 A3009 RMK A01", "K46D 240735Z AUTO 09006KT 10SM SCT065 SCT085 14/12 A2920 RMK AO2 LTG DSNT N AND W", "K46U 240735Z AUTO 32012G17KT 9SM FEW001 SCT017 BKN022 M01/M02 A3001 RMK A01", "K48A 240715Z AUTO 00000KT 10SM CLR 08/07 A3015 RMK AO2 T00750069", "K49A 240715Z AUTO 00000KT 10SM CLR 06/05 A3021 RMK AO2 T00580046", "K4A6 240735Z AUTO 00000KT 10SM FEW019 SCT023 OVC038 09/08 A3016 RMK AO2", "K4A9 240735Z AUTO 02003KT 10SM CLR 07/06 A3015 RMK AO2 T00730058", "K4BM 240715Z AUTO 25006G19KT 10SM CLR M09/M13 A2984 RMK AO2", "K4F2 240735Z AUTO 14010KT 10SM BKN021 OVC026 22/18 A2990 RMK AO2 T02200184", "K4I3 240652Z AUTO 05003KT 10SM CLR 11/07 A3014 RMK AO2", "K4M9 240735Z AUTO 15009KT 10SM CLR 18/14 A2994 RMK AO2 PWINO", "K4MR 240655Z AUTO 31009G24KT 10SM BKN070 OVC095 15/05 A2969 RMK AO2 PK WND 34026/43 RAB08E42 SLP981 P0000 T01490054 402400140 $", "K4O4 240715Z AUTO 13007KT 9SM FEW032 OVC047 22/18 A2987 RMK AO2", "K4R5 240735Z AUTO 17003KT 10SM BKN065 BKN075 OVC100 15/14 A2958 RMK AO2 LTG DSNT W THRU NE P0001 T01540143", "K4S1 240735Z AUTO 05010KT 7SM CLR 08/05 A3022 RMK AO2", "K4S2 240735Z AUTO 00000KT 10SM OVC120 06/03 A3017 RMK AO2", "K4V0 240735Z AUTO 11004KT 10SM SCT060 M01/M02 A2997 RMK AO2 T10151021", "K4V1 240710Z AUTO 27010KT 10SM CLR 04/M10 A2979 RMK AO2 T00411105", "K54A 240735Z AUTO 05005KT 10SM CLR 19/19 A3004 RMK AO2", "K54J 240735Z AUTO 00000KT 10SM CLR 10/08 A3010 RMK AO2 T01020078", "K57C 240735Z AUTO 17008KT 10SM OVC120 17/12 A2986 RMK AO2 T01720121", "K5C1 240715Z AUTO 17013G17KT 10SM BKN016 OVC024 22/19 A2985 RMK AO1", "K5H4 240735Z AUTO 05015G22KT 9SM VCTS BKN005 OVC055 09/M03 A2921 RMK AO2 LTG DSNT W-NE", "K5M9 240735Z AUTO 18006KT 10SM CLR 17/06 A3004 RMK AO2 T01700058", "K5R8 240715Z AUTO 11003KT 10SM CLR 20/19 A2995 RMK AO2 T02010185", "K5SM 240715Z AUTO 7SM -SN BKN002 BKN009 OVC043 A2993 RMK AO2", "K5T9 240735Z AUTO 12006G12KT 10SM FEW085 OVC120 24/20 A2975 RMK A01", "K63S 240735Z AUTO 00000KT 10SM OVC100 05/00 A3007 RMK A01", "K65S 240735Z AUTO 00000KT 10SM SCT065 OVC075 05/01 A3006 RMK AO2", "K66R 240715Z AUTO 17005KT 10SM OVC060 24/20 A2988 RMK AO2 T02400200", "K6A1 240735Z AUTO 00000KT 10SM CLR 10/07 A3016 RMK AO2 T01000073", "K6A2 240735Z AUTO 00000KT 10SM CLR 07/07 A3016 RMK AO2", "K6B0 240735Z AUTO 00000KT 10SM SCT043 BKN050 OVC110 11/07 A3027 RMK AO2 T01110067", "K6B9 240735Z AUTO 00000KT 10SM 12/12 A3021 RMK AO2", "K6I2 240715Z AUTO 15006KT 10SM CLR 14/03 A3011 RMK AO2", "K6L4 240735Z AUTO 10SM CLR 12/05 A3016 RMK AO2", "K6P9 240715Z AUTO 19010G16KT 10SM -RA BKN022 OVC050 22/19 A2977 RMK AO2 T02200187", "K6R6 240651Z AUTO 04003KT 18/16 A2976 RMK AO1 SLP052 T01780161", "K6S0 240735Z AUTO 26024G38KT 10SM FEW039 SCT046 OVC075 01/M05 A2992 RMK A01", "K6S2 240735Z AUTO 00000KT 10SM BKN090 BKN110 09/09 A3020 RMK AO2", "K6S8 240725Z AUTO 31013G22KT 4SM BR 00/M01 A2993 RMK A01 LAUREL", "K74V 240715Z AUTO 28004KT 10SM 00/M07 A2998 RMK AO2", "K77S 240735Z AUTO 00000KT 10SM FEW042 OVC110 07/07 A3021 RMK A01", "K79J 240656Z AUTO 00000KT 10SM CLR 11/07 A3011 RMK AO2 SLP192 T01060067", "K7BM 240735Z AUTO 25013G20KT 10SM CLR M06/M12 A2983 RMK AO2", "K7L2 240735Z AUTO 27015G21KT 10SM OVC010 09/08 A2925 RMK AO2", "K7N0 240656Z AUTO VRB03KT 10SM FEW033 21/19 A3005 RMK AO2 SLP174 T02110189 PNO $", "K7W4 240735Z AUTO 36004KT 10SM OVC015 14/11 A3015 RMK AO1 T01400114", "K7W6 240735Z AUTO 31011G16KT 10SM OVC006 15/15 A3008 RMK AO2 T01470147", "K81R 240735Z AUTO 18013G19KT 10SM BKN030 OVC035 24/18 A2982 RMK AO2 T02410182", "K82C 240735Z AUTO 16009G15KT 10SM OVC075 18/16 A2974 RMK AO2 T01790163", "K82V 240735Z AUTO 24004KT 10SM CLR M01/M01 A2977 RMK AO2", "K8A0 240715Z AUTO 13003KT 10SM CLR 13/05 A3014 RMK AO2", "K8A3 240735Z AUTO 21005KT 10SM CLR 14/03 A3013 RMK A01", "K8D3 240656Z AUTO 23016G27KT 14/09 A2926 RMK AO1 PK WND 22027/0647 SLP896 T01440089", "K8T6 240715Z AUTO 14014G20KT 10SM FEW025 SCT033 BKN050 25/22 A2979 RMK AO2", "K8W2 240735Z AUTO 22005KT 10SM OVC035 10/10 A3019 RMK AO1 T01020096", "K96D 240735Z AUTO 34012KT 10SM VCTS OVC006 09/09 A2930 RMK AO2 LTG DSNT NE AND SW AND W", "K9A5 240735Z AUTO 00000KT 10SM CLR 05/05 A3017 RMK AO2 T00510051", "K9D7 240655Z AUTO 02014G24KT 9SM OVC007 08/08 A2929 RMK AO2 TSNO", "K9L2 240655Z AUTO 00000KT 10SM CLR 10/M10 A3009 RMK AO2 SLP182 T01001102 $", "K9MN 240735Z AUTO 13015G23KT 10SM CLR 19/14 A2958 RMK AO1 T01850140", "K9V9 240715Z AUTO 27023G31KT 10SM CLR 07/02 A2947 RMK AO2 T00650022", "KAAA 240735Z AUTO 19014G17KT 10SM SCT120 21/13 A2988 RMK AO2 T02080127", "KAAF 240653Z AUTO 05003KT 10SM CLR 11/11 A3008 RMK AO2 SLP187 T01060106", "KAAO 240654Z AUTO 18017G35KT 10SM FEW095 23/14 A2961 RMK AO2 PK WND 19036/0604 SLP011 T02330144", "KAAS 240735Z AUTO 13003KT 10SM CLR 11/05 A3016 RMK AO1", "KAAT 240655Z AUTO 18003KT 9SM CLR M06/M08 A3022 RMK AO2 SLP251 T10561078", "KABE 240708Z 04008KT 10SM FEW007 OVC014 11/10 A3017 RMK AO2 P0001 T01110100 $", "KABH 240655Z AUTO 01006KT 10SM FEW230 01/M03 A2979 RMK AO2 SLP060 T00051026 401970005", "KABI 240705Z 16015G23KT 10SM BKN029 23/18 A2974 RMK AO2 PK WND 17026/0654 RAE0658 P0000 T02330178", "KABQ 240652Z 33011G16KT 10SM BKN050 BKN075 OVC095 08/M03 A2987 RMK AO2 SLP062 MTNS OBSC NE T00831033 402000083", "KABR 240727Z AUTO 23015G22KT 10SM BKN018 11/07 A2928 RMK AO2 T01110072", "KABY 240653Z AUTO 00000KT 10SM CLR 11/08 A3015 RMK AO2 SLP206 T01060083", "KACB 240735Z AUTO 19003KT 7SM RA OVC110 15/13 A3001 RMK AO2 T01530127", "KACJ 240735Z AUTO 00000KT 10SM CLR 09/08 A3014 RMK AO2 T00950076", "KACK 240653Z AUTO 01006KT 1/2SM FG VV003 17/16 A3016 RMK AO2 SLP214 T01670161 RVRNO", "KACP 240735Z AUTO 13003KT 10SM CLR 20/15 A2997 RMK AO2", "KACQ 240735Z AUTO 15021G28KT 10SM CLR 20/14 A2950 RMK AO2", "KACT 240651Z AUTO 18019G27KT 10SM BKN025 BKN032 24/20 A2980 RMK AO2 PK WND 17027/0651 RAE02 SLP083 P0000 T02390200 $", "KACV 240653Z AUTO 08004KT 10SM CLR 06/04 A3023 RMK AO2 SLP244 T00560039", "KACY 240716Z AUTO 04011KT 6SM -RA BR BKN007 BKN014 OVC019 16/15 A3009 RMK AO2 P0009 T01610150", "KADC 240736Z AUTO 12010KT 10SM BKN044 17/15 A2933 RMK AO2 TSNO", "KADF 240656Z AUTO 16005KT 10SM FEW035 21/16 A2993 RMK AO2 SLP134 T02110161", "KADG 240653Z AUTO 20003KT 10SM CLR 12/07 A3009 RMK AO2 SLP188 T01220072", "KADH 240715Z AUTO 17011G16KT 10SM CLR 22/13 A2975 RMK AO2", "KADM 240715Z AUTO 16013KT 10SM BKN037 OVC044 24/16 A2974 RMK AO2", "KADS 240735Z AUTO 17009G14KT 10SM OVC026 23/17 A2982 RMK AO2 T02310169", "KADT 240715Z AUTO 29010G15KT 10SM CLR 07/02 A2977 RMK AO2 T00730015", "KADU 240715Z AUTO 18018G28KT 10SM SCT046 SCT055 SCT075 23/14 A2952 RMK AO2 PWINO", "KADW 240730Z AUTO 34006KT 10SM SCT004 OVC008 13/13 A3012 RMK AO2 DZB0655E05RAB05E08DZB08E13RAB13E14 CIG 006 RWY19L SLP206 $", "KAEG 240735Z AUTO 35010KT 10SM OVC050 05/M03 A2987 RMK AO2 T00501034", "KAEJ 240735Z AUTO 27003KT 10SM M03/M10 A2984 RMK AO2 T10281100", "KAEL 240735Z AUTO 17013G20KT 10SM CLR 19/15 A2953 RMK AO2", "KAEX 240653Z 14009KT 10SM CLR 20/16 A2997 RMK AO2 SLP150 T02000156", "KAFF 240655Z 02007KT 10SM SCT028 BKN070 00/M02 A2978 RMK AO2A SLP058 T00031021 401681001", "KAFJ 240656Z AUTO 00000KT 10SM CLR 03/02 A3020 RMK AO2 SLP226 T00330022", "KAFK 240715Z AUTO 21022G31KT 10SM CLR 24/14 A2952 RMK AO2 T02360139", "KAFN 240736Z AUTO 36004KT 6SM BR BKN004 OVC016 10/08 A3025 RMK AO2 T01000083", "KAFO 240715Z AUTO 01003KT 10SM SCT027 BKN037 OVC050 M02/M06 A2999 RMK AO2", "KAFP 240735Z AUTO 00000KT 10SM CLR 04/03 A3017 RMK AO2 T00360030", "KAFW 240653Z 17018G25KT 10SM OVC029 26/17 A2977 RMK AO2 PK WND 18031/0601 SLP064 T02560172 $", "KAGC 240653Z 09004KT 10SM CLR 11/07 A3016 RMK AO2 SLP215 T01110067", "KAGI 240735Z AUTO 16020KT 10SM CLR 26/16 A2995 RMK AO2 T02580163", "KAGO 240735Z AUTO 17007G12KT 10SM BKN033 OVC055 21/17 A2991 RMK A01", "KAGS 240653Z AUTO 00000KT 8SM CLR 07/07 A3016 RMK AO2 SLP212 T00670067", "KAHN 240651Z AUTO 00000KT 10SM CLR 08/06 A3017 RMK AO2 SLP215 T00780056", "KAHQ 240735Z AUTO 30013G17KT 10SM CLR 15/05 A2951 RMK AO2 T01500052", "KAIA 240653Z AUTO 29016G24KT 10SM CLR 03/M02 A2968 RMK AO2 SLP041 T00281022 401721028", "KAID 240735Z AUTO 19007KT 10SM CLR 17/04 A3005 RMK AO2 T01670042", "KAIG 240735Z AUTO 13011G15KT 10SM OVC018 15/15 A2979 RMK AO2 T01450145", "KAIK 240735Z AUTO 00000KT 10SM CLR 07/05 A3016 RMK AO2 T00710054", "KAIO 240715Z AUTO 19021G27KT 10SM CLR 23/16 A2951 RMK AO2", "KAIT 240735Z AUTO 00000KT 10SM SCT024 BKN030 OVC060 17/15 A2943 RMK AO2 LTG DSNT NE", "KAIZ 240656Z AUTO 19010KT 10SM CLR 22/13 RMK AO2 SLPNO T02170133 $", "KAJG 240715Z AUTO 17009KT 10SM CLR 18/07 A3001 RMK AO2 T01820067", "KAJO 240656Z AUTO 10003KT 10SM CLR 14/10 A3003 RMK AO2 SLP164 T01440100", "KAJR 240715Z AUTO 03003KT 10SM CLR 07/06 A3018 RMK AO2 T00700057", "KAJZ 240715Z AUTO 27003KT 10SM BKN060 OVC070 03/00 A2993 RMK AO2 T00310001", "KAKH 240654Z AUTO 00000KT 10SM CLR 06/06 A3018 RMK AO2 SLP219 T00610056", "KAKO 240653Z AUTO 31012KT 10SM CLR 02/00 A2974 RMK AO2 SLP043 T00170000 402390017 $", "KAKQ 240654Z AUTO 33003KT 10SM OVC007 14/13 A3013 RMK AO2 SLP203 T01440128", "KAKR 240654Z AUTO 00000KT 10SM CLR 10/01 A3015 RMK AO2 SLP207 T01000011", "KALB 240651Z 00000KT 10SM OVC033 13/08 A3026 RMK AO2 SLP246 T01330083", "KALI 240653Z AUTO 15011KT 10SM BKN055 24/22 A2980 RMK AO2 PRESFR SLP088 T02440217", "KALK 240656Z AUTO 25014G21KT 4SM +RA FEW022 BKN044 OVC050 11/08 A2995 RMK AO2 RAB42 SLP070 P0004 T01110083 402060106", "KALM 240735Z AUTO 15009KT 10SM FEW045 SCT075 BKN110 15/04 A2982 RMK AO2", "KALN 240715Z AUTO 16010KT 10SM CLR 20/12 A2989 RMK AO2 T02030115", "KALO 240654Z AUTO 16017G25KT 10SM CLR 19/14 A2961 RMK AO2 PK WND 15028/0641 SLP022 T01940144 $", "KALS 240652Z AUTO 25004KT 10SM SCT110 M04/M08 A2983 RMK AO2 SLP079 T10441078 401171056", "KALW 240653Z AUTO 18006KT 10SM CLR 07/00 A3016 RMK AO2 SLP217 T00670000 $", "KALX 240735Z AUTO 00000KT 10SM CLR 09/09 A3014 RMK AO2 T00940088", "KAMA 240653Z AUTO 29009KT 10SM BKN100 17/04 A2971 RMK AO2 SLP014 T01720044", "KAMG 240733Z AUTO 00000KT 1 1/2SM BR CLR 10/09 A3013 RMK AO2 T01000089", "KAMN 240735Z AUTO 13004KT 10SM CLR 15/09 A3005 RMK AO2 T01520092", "KAMW 240653Z AUTO 16014G23KT 10SM CLR 22/14 A2956 RMK AO2 PK WND 17026/0636 SLP999 T02170144", "KANB 240653Z AUTO 06003KT 10SM CLR 11/07 A3015 RMK AO2 SLP207 T01110072", "KAND 240656Z AUTO 00000KT 10SM CLR 07/05 A3018 RMK AO2 SLP214 T00720050", "KANE 240735Z AUTO 14015G21KT 10SM -RA SCT110 20/16 A2946 RMK AO2 P0001", "KANJ 240655Z AUTO 13009KT 10SM OVC080 14/10 A3001 RMK AO2 SLP160 T01440100", "KANK 240710Z AUTO 31008KT 10SM CLR M01/M08 A2991 RMK AO1 T10061085", "KANQ 240735Z AUTO 16004KT 10SM BKN038 14/07 A3005 RMK AO2", "KANW 240735Z AUTO 29011KT 10SM CLR 05/01 A2960 RMK AO2 T00480008", "KAOH 240653Z AUTO 16007KT 10SM CLR 13/06 A3008 RMK AO2 SLP183 T01330061", "KAOO 240653Z AUTO 00000KT 10SM OVC018 13/09 A3019 RMK AO2 SLP221 T01280094", "KAPA 240703Z 20006KT 10SM SCT029 BKN095 02/00 A2978 RMK AO2 T00170000", "KAPC 240654Z AUTO 32007KT 10SM CLR 14/M02 A3010 RMK AO2 SLP185 T01391017", "KAPF 240653Z AUTO 06004KT 10SM CLR 19/18 A3004 RMK AO2 SLP171 T01890183 PWINO $", "KAPN 240654Z AUTO 15008KT 10SM CLR 14/08 A3007 RMK AO2 SLP182 T01440078", "KAPS 240717Z AUTO 00000KT 10SM SCT035 BKN041 14/14 A3004 RMK AO2", "KAPY 240735Z AUTO 14010KT 10SM CLR 26/22 A2979 RMK AO2 T02580218 TSNO", "KAQO 240715Z AUTO 17007G14KT 10SM OVC033 24/18 A2982 RMK AO2", "KAQP 240733Z AUTO 27013G18KT 10SM 16/10 A2932 RMK AO2", "KAQV 240657Z AUTO VRB04KT 10SM CLR 20/16 A2994 RMK AO2 SLP136 T02000156", "KAQW 240652Z AUTO 11007KT 10SM BKN026 OVC033 14/07 A3025 RMK AO2 SLP244 T01390072", "KAQX 240735Z AUTO 00000KT 10SM CLR 09/09 A3015 RMK AO2", "KARA 240653Z AUTO 11005KT 10SM CLR 16/14 A3000 RMK AO2 SLP157 T01610139", "KARB 240653Z AUTO 00000KT 10SM CLR 08/06 A3008 RMK AO2 SLP186 T00780056", "KARG 240656Z AUTO 17013KT 10SM CLR 21/12 A2994 RMK AO2 SLP139 T02060122", "KARM 240735Z AUTO 17012KT 10SM CLR 24/20 A2988 RMK AO2 T02410201 TSNO", "KARR 240652Z 15010KT 10SM FEW120 17/10 A2989 RMK AO2 RAB0557E35 SLP117 P0000 T01720100", "KART 240656Z AUTO 00000KT 10SM OVC100 09/07 A3024 RMK AO2 SLP237 T00890067", "KARV 240735Z AUTO 17013G18KT 10SM BKN013 OVC070 16/15 A2973 RMK AO2 T01570147", "KARW 240735Z AUTO 00000KT 7SM CLR 13/13 A3014 RMK AO2", "KASD 240653Z AUTO 00000KT 10SM CLR 14/12 A3004 RMK AO2 SLP173 T01390122", "KASE 240653Z AUTO 00000KT 10SM OVC070 M03/M04 A2989 RMK AO2 SLP101 T10331044 401061033", "KASH 240656Z AUTO 33007KT 10SM OVC019 13/09 A3028 RMK AO2 SLP256 T01280094 $", "KASJ 240735Z AUTO 36004KT 10SM OVC007 14/14 A3013 RMK AO2 T01360136", "KASL 240715Z AUTO 00000KT 10SM OVC020 22/18 A2988 RMK AO2 CIG 020V024 T02240179 TSNO $", "KASN 240735Z AUTO 00000KT 10SM CLR 09/08 A3015 RMK AO2 T00880076", "KAST 240655Z AUTO 15006KT 10SM OVC080 10/06 A3010 RMK AO2 RAB0556E06B26E49 SLP193 P0000 T01000061", "KASW 240715Z AUTO 14004KT 10SM CLR 15/07 A3002 RMK AO2 T01550075", "KASX 240653Z AUTO 17012G26KT 10SM OVC065 19/15 A2958 RMK AO2 PK WND 15026/0648 RAB12E35 SLP014 P0001 T01890150", "KATA 240735Z AUTO 15010KT 10SM OVC028 23/19 A2988 RMK AO2 CIG 026V033 SLP018 T02280186 $", "KATL 240652Z 00000KT 10SM BKN250 12/07 A3016 RMK AO2 SLP209 T01220067 $", "KATP 240735Z AUTO 17015G22KT 10SM SCT046 SCT050 25/16 A3000 RMK A01", "KATS 240735Z AUTO 25014G25KT 10SM FEW080 SCT090 19/05 A2982 RMK AO2", "KATT 240651Z AUTO VRB06KT 10SM SCT017 BKN022 OVC029 23/21 A2983 RMK AO2 RAB40E50 SLP089 P0000 T02330211", "KATW 240735Z AUTO 16009KT 10SM -RA SCT090 OVC110 15/12 A2984 RMK AO2 P0001", "KATY 240653Z AUTO 22012KT 10SM -RA FEW060 09/06 A2934 RMK AO2 PK WND 24026/0628 SLP929 P0000 T00940061", "KAUG 240653Z AUTO 02004KT 10SM BKN020 BKN029 OVC070 12/11 A3032 RMK AO2 SLP268 T01220111", "KAUH 240715Z AUTO 31010G15KT 10SM CLR 11/04 A2958 RMK AO2 T01070036", "KAUM 240735Z AUTO 18016G24KT 10SM CLR 21/15 A2956 RMK AO2", "KAUN 240715Z AUTO VRB04G10KT 10SM CLR 12/M08 A3008 RMK A01", "KAUO 240656Z AUTO 09004KT 10SM CLR 13/07 A3015 RMK AO2 SLP228 T01330072", "KAUS 240653Z 17012G19KT 10SM SCT020 BKN026 BKN060 24/21 A2983 RMK AO2 SLP089 T02390211", "KAUW 240654Z AUTO 11011KT 10SM BKN022 OVC027 17/14 A2974 RMK AO2 RAB06E16 SLP071 P0000 T01670144 $", "KAVC 240735Z AUTO 00000KT 10SM SCT010 12/12 A3020 RMK AO2 T01220120", "KAVK 240735Z AUTO 20026G33KT 10SM SCT120 24/14 A2961 RMK AO2 PWINO", "KAVL 240654Z AUTO 00000KT 10SM CLR 04/03 A3023 RMK AO2 SLP225 T00390028", "KAVP 240654Z AUTO 10SM A3019 RMK AO2 SLPNO PWINO FZRANO $", "KAVQ 240735Z AUTO 32006KT 10SM SCT075 BKN080 OVC110 15/06 A2989 RMK AO2 T01480059", "KAVX 240651Z AUTO 34005KT 10SM CLR 15/02 A3002 RMK AO2 SLP154 T01500017", "KAWG 240715Z AUTO 18015G24KT 10SM FEW065 FEW120 21/17 A2969 RMK AO2", "KAWM 240653Z AUTO 16012KT 10SM CLR 19/10 A2999 RMK AO2 SLP152 T01890100", "KAWO 240656Z AUTO 14009KT 10SM -RA FEW030 BKN050 OVC060 09/06 A3011 RMK AO2 RAB11 SLP201 P0000 T00940056", "KAXA 240715Z AUTO 16016G23KT 10SM CLR 20/16 A2947 RMK A01", "KAXH 240735Z AUTO 16005KT 10SM BKN060 24/21 A2990 RMK AO2 T02430207", "KAXN 240653Z AUTO 13012G22KT 10SM FEW055 17/15 A2934 RMK AO2 SLP932 T01720150", "KAXS 240735Z AUTO 16008KT 10SM CLR 23/15 A2969 RMK AO2 T02260146", "KAXV 240735Z AUTO 16005KT 10SM CLR 12/05 A3008 RMK AO2", "KAXX 240715Z AUTO 27009G16KT 10SM -SN SCT029 SCT039 OVC055 M01/M06 A2986 RMK AO2 T10101057", "KAYS 240715Z AUTO 00000KT 3SM BR CLR 11/10 A3013 RMK AO2 T01070100", "KAZC 240735Z AUTO 13006KT 10SM CLR 00/M02 A3007 RMK AO2", "KAZE 240715Z AUTO 00000KT 10SM CLR 13/12 A3013 RMK AO2 T01270116", "KAZO 240653Z AUTO 12004KT 10SM SCT110 16/11 A3003 RMK AO2 LTG DSNT NW RAB09E19 SLP167 P0000 T01560111", "KBAB 240655Z AUTO 36008KT 10SM CLR 12/M05 A3007 RMK AO2 SLP185 T01161054 VISNO RWY33 $", "KBAC 240735Z AUTO 14013G18KT 10SM FEW039 FEW044 FEW050 15/13 A2919 RMK AO2", "KBAD 240725Z AUTO 16013KT 10SM SCT027 SCT038 OVC180 21/16 A2991 RMK AO2 SLP131", "KBAF 240653Z AUTO 36004KT 10SM OVC021 12/07 A3024 RMK AO2 RAB23E44 SLP241 P0000 T01220072", "KBAM 240735Z AUTO 13005KT 10SM CLR M02/M05 A3022 RMK AO1", "KBAN 240652Z AUTO 00000KT 10SM CLR M07/M13 A3019 RMK AO2 SLP233 T10721128 $", "KBAX 240735Z AUTO 15005KT 10SM CLR 13/07 A3011 RMK AO2 T01290065", "KBAZ 240651Z AUTO 18015KT 10SM SCT020 BKN025 OVC050 24/21 A2983 RMK AO2 SLP091 T02440211", "KBBB 240735Z AUTO 21008KT 10SM CLR 19/15 A2932 RMK AO2", "KBBD 240735Z AUTO 19012G20KT 9SM OVC027 22/18 A2982 RMK AO2", "KBBG 240715Z AUTO 15007KT 10SM FEW038 20/14 A2986 RMK AO2", "KBBP 240715Z AUTO 00000KT 10SM CLR 05/05 A3015 RMK AO2", "KBBW 240653Z AUTO 28015KT 10SM SCT090 08/02 A2960 RMK AO2 SLP006 T00830022", "KBCB 240735Z AUTO 00000KT 10SM CLR 03/03 A3024 RMK AO2 T00340034", "KBCK 240735Z AUTO 17006G14KT 10SM SCT070 BKN090 20/15 A2967 RMK AO2 T01960150", "KBCR 240658Z AUTO 00000KT 10SM CLR 08/07 A3012 RMK AO2 SLP156 T00830067 $", "KBDE 240653Z AUTO 14012G19KT 10SM -RA FEW025 SCT070 BKN085 16/14 A2941 RMK AO2 LTG DSNT N AND SE AND S TSE0559 SLP957 P0003 T01610139", "KBDG 240715Z AUTO 33010KT 10SM 01/M03 A2997 RMK AO1 T00121034", "KBDH 240735Z AUTO 16014G23KT 10SM -RA SCT110 21/15 A2937 RMK AO2 LTG DSNT E", "KBDL 240651Z 36005KT 10SM -RA OVC019 13/07 A3024 RMK AO2 RAB47 SLP240 P0000 T01280067", "KBDR 240652Z AUTO 02011KT 10SM OVC011 12/10 A3019 RMK AO2 RAE47 CIG 008V012 SLP224 P0000 T01170100", "KBDU 240735Z AUTO 00000KT 10SM CLR 03/M03 A2976 RMK AO2", "KBEA 240735Z AUTO 14009KT 10SM SCT065 23/22 A2981 RMK AO2 T02300218 PWINO", "KBEC 240715Z AUTO 19020G29KT 10SM -RA SCT065 BKN100 22/14 A2961 RMK AO2 T02240141", "KBED 240651Z AUTO 01007KT 10SM OVC011 12/08 A3024 RMK AO2 SLP253 T01170083", "KBEH 240706Z AUTO 14005KT 10SM VCTS SCT100 18/09 A2999 RMK AO2 LTG DSNT W T01830094", "KBFD 240735Z AUTO 00000KT 9SM SCT043 07/05 A3021 RMK AO2 T00670050", "KBFF 240653Z AUTO 29008KT 10SM SCT085 03/M02 A2973 RMK AO2 SLP056 T00281022 401670028", "KBFI 240653Z 14008KT 10SM SCT042 SCT050 OVC070 09/06 A3012 RMK AO2 SLP198 T00940061", "KBFL 240654Z AUTO 14004KT 9SM CLR 14/01 A3009 RMK AO2 SLP187 T01390011", "KBFM 240653Z AUTO 32003KT 10SM CLR 15/14 A3009 RMK AO2 SLP188 T01500139", "KBGD 240651Z AUTO 26003KT 10SM CLR 19/03 A2972 RMK AO2 SLP024 T01890028", "KBGE 240735Z AUTO 00000KT 10SM CLR 11/09 A3012 RMK AO2 T01090086", "KBGF 240735Z AUTO 00000KT 10SM CLR 14/05 A3013 RMK A01", "KBGM 240721Z AUTO 05005KT 10SM -RA BKN016 BKN027 OVC034 12/08 A3021 RMK AO2 RAE0657B17 P0000 T01170083", "KBGR 240653Z 33006KT 10SM FEW075 BKN095 OVC110 12/11 A3033 RMK AO2 RAB29E42 SLP270 P0000 T01220106", "KBHB 240712Z AUTO 05005KT 10SM -RA OVC009 13/09 A3033 RMK AO2 RAB09 PNO $", "KBHC 240715Z AUTO 00000KT 7SM CLR A3014 RMK AO2", "KBHK 240651Z AUTO 30024G31KT 5SM UP BR OVC005 M01/M01 A2958 RMK AO2 PK WND 30033/0631 UPB08SNE08 SLP031 P0000 T10061006 400721006", "KBHM 240653Z 00000KT 10SM BKN250 12/07 A3015 RMK AO2 SLP204 T01220072", "KBID 240656Z AUTO 03014G19KT 10SM OVC002 12/12 A3019 RMK AO2 SLP222 T01220117", "KBIE 240735Z AUTO 21023G29KT 10SM SCT120 24/15 A2951 RMK AO2 T02400146", "KBIF 240655Z AUTO 16012KT 10SM CLR 18/05 A2982 RMK AO2 PK WND 05027/0555 RAE20 SLP037 P0000 T01760045 $", "KBIH 240656Z AUTO 32011KT 10SM CLR 05/M09 A3020 RMK AO2 SLP210 T00501094", "KBIJ 240715Z AUTO 00000KT 10SM CLR 07/06 A3013 RMK AO2", "KBIL 240716Z 32028G36KT 3SM OVC060 01/M02 A2989 RMK AO2 PK WND 31039/0701 SFC VIS 9 SNE16 VCSH ALQDS P0000 T00061022", "KBIS 240721Z AUTO 30023G32KT 10SM VCTS OVC009 09/07 A2924 RMK AO2 PK WND 29032/0718 LTG DSNT E T00890072", "KBIV 240704Z AUTO 13010KT 7SM RA FEW060 BKN090 OVC110 16/13 A3000 RMK AO2 LTG DSNT E AND SE TSE0658 P0003 T01560128", "KBIX 240720Z AUTO 07004KT 10SM BKN023 BKN032 OVC047 19/17 A3002 RMK AO2 CIG 023V032 BKN023 V FEW SLP169", "KBJC 240735Z AUTO 25005KT 10SM CLR 02/M05 A2978 RMK AO2", "KBJI 240715Z AUTO 00000KT 10SM OVC020 15/15 A2938 RMK AO2 LTG DSNT SE T01510145", "KBJJ 240656Z AUTO 00000KT 10SM CLR 06/04 A3015 RMK AO2 SLP211 T00560039", "KBKB 240652Z AUTO 10SM CLR 20/16 A2994 RMK AO2 RAE13 SLP165 P0000 T02000161", "KBKD 240735Z AUTO 19015G24KT 7SM SCT027 25/19 A2973 RMK AO2 T02470186", "KBKE 240653Z AUTO 00000KT 10SM CLR M04/M05 A3017 RMK AO2 SLP236 T10391050", "KBKF 240658Z 19006KT 10SM BKN080 OVC120 01/M01 A2977 RMK AO2A SLP043 T00121007 401890010", "KBKL 240653Z AUTO 15011KT 10SM CLR 14/03 A3013 RMK AO2 SLP200 T01440028", "KBKS 240735Z AUTO 14009KT 10SM FEW027 SCT150 25/22 A2979 RMK AO2 SLP050 T02450224 $", "KBKT 240735Z AUTO 00000KT 10SM CLR 12/12 A3015 RMK AO1 T01150115", "KBKV 240653Z AUTO 06004KT 10SM CLR 18/17 A3009 RMK AO2 SLP189 T01780167", "KBKW 240651Z AUTO 00000KT 10SM CLR 10/01 A3020 RMK AO2 SLP209 T01000006", "KBKX 240656Z AUTO 10SM CLR RMK AO2 SLPNO FZRANO $", "KBLF 240652Z AUTO 00000KT 10SM CLR 09/01 A3021 RMK AO2 SLP212 T00890006", "KBLH 240652Z AUTO 34012KT 10SM CLR 18/M07 A2997 RMK AO2 SLP144 T01831072 TSNO", "KBLI 240653Z AUTO 15008KT 10SM -RA OVC040 09/07 A3004 RMK AO2 SLP179 P0003 T00940067", "KBLM 240735Z AUTO 04011KT 2 1/2SM UP OVC004 A3015 RMK AO2 P0001 FZRANO $", "KBLU 240652Z AUTO VRB03KT 10SM CLR 04/M11 A3012 RMK AO2 SLP181 T00391106 $", "KBLV 240655Z 17008G18KT 10SM BKN200 21/12 A2989 RMK AO2A SLP122 T02060115 $", "KBMC 240710Z AUTO 10SM CLR 01/M01 A3009 RMK AO1 T00131006", "KBMG 240653Z AUTO 15005KT 10SM CLR 16/07 A3004 RMK AO2 SLP165 T01560072 $", "KBMI 240656Z AUTO 18018G24KT 10SM FEW100 18/11 A2988 RMK AO2 SLP113 T01830106", "KBML 240652Z AUTO 00000KT 10SM FEW110 07/06 A3032 RMK AO2 SLP270 T00720056", "KBMQ 240653Z AUTO 18013G24KT 10SM BKN021 OVC026 23/20 A2984 RMK AO2 PK WND 18026/0617 SLP086 T02330200", "KBMT 240715Z AUTO 14005KT 10SM CLR 22/20 A2991 RMK AO2 T02170202", "KBNA 240653Z 15003KT 10SM OVC250 15/04 A3012 RMK AO2 SLP193 T01500044 $", "KBNL 240735Z AUTO 00000KT 10SM FEW037 FEW042 07/06 A3016 RMK AO2", "KBNO 240653Z AUTO 23005KT 10SM CLR M07/M09 A3020 RMK AO2 SLP252 T10671089 $", "KBNW 240735Z AUTO 18015G20KT 10SM CLR 21/15 A2957 RMK AO2", "KBOI 240653Z 29004KT 10SM CLR 02/M02 A3017 RMK AO2 SLP222 T00171022 401060011", "KBOK 240656Z AUTO 00000KT 10SM CLR 07/05 A3023 RMK AO2 SLP239 T00720050 401500050 $", "KBOS 240732Z 36010KT 3SM BR OVC004 12/11 A3023 RMK AO2 T01170111", "KBOW 240735Z AUTO 00000KT 10SM CLR 19/18 A3007 RMK AO2", "KBPC 240735Z AUTO 00000KT 10SM BKN120 17/01 A2970 RMK AO2", "KBPG 240735Z AUTO 20015KT 10SM CLR 22/15 A2972 RMK AO2 T02170154", "KBPI 240653Z AUTO 33014KT 10SM CLR M04/M09 A2990 RMK AO2 SLP120 T10391089 400391056", "KBPK 240653Z AUTO 21009G16KT 10SM CLR 22/14 A2988 RMK AO2 SLP107 T02170139", "KBPT 240653Z AUTO 16012KT 10SM CLR 23/21 A2991 RMK AO2 SLP128 T02330206", "KBQK 240715Z AUTO 00000KT 1SM BR VV007 10/10 A3013 RMK AO2 T00990095", "KBQP 240715Z AUTO 15006KT 10SM SCT045 20/14 A3000 RMK AO2 T01980137", "KBQX 240735Z AUTO 17024KT 6SM HZ FEW030 SCT034 BKN060 27/21 A2988 RMK A01", "KBRD 240653Z AUTO 26005KT 10SM SCT025 BKN037 OVC046 17/15 A2943 RMK AO2 LTG DSNT NW-NE RAE26 TSE17 SLP961 P0016 T01720150", "KBRG 240735Z AUTO 31009G14KT 10SM -DZ BKN045 OVC050 07/M02 A2987 RMK AO2 T00721016", "KBRL 240653Z AUTO 18012KT 10SM CLR 21/14 A2977 RMK AO2 SLP077 T02060139", "KBRO 240653Z AUTO 15015G25KT 10SM BKN041 BKN055 27/22 A2984 RMK AO2 SLP104 T02720217", "KBRY 240735Z AUTO 00000KT 10SM CLR 10/06 A3008 RMK AO2 T00950059", "KBTA 240735Z AUTO 18016G27KT 10SM CLR 24/14 A2947 RMK AO2 T02360142", "KBTL 240653Z AUTO 14005KT 10SM CLR 17/08 A3005 RMK AO2 SLP170 T01720083", "KBTM 240653Z AUTO 31004KT 10SM FEW039 OVC060 M01/M04 A3003 RMK AO2 SLP197 T10111039 400111017", "KBTN 240735Z AUTO 21013G22KT 9SM -RA FEW020 SCT060 BKN075 10/09 A2923 RMK AO2", "KBTP 240656Z AUTO 03004KT 10SM CLR 06/06 A3019 RMK AO2 SLP229 T00610056 TSNO", "KBTR 240653Z 07004KT 10SM CLR 14/14 A3003 RMK AO2 SLP168 T01440139 $", "KBTV 240654Z AUTO 00000KT 10SM OVC120 11/06 A3027 RMK AO2 SLP251 T01060056", "KBUF 240654Z 15004KT 10SM CLR 10/04 A3020 RMK AO2 SLP226 T01000044 $", "KBUR 240653Z 10005KT 10SM CLR 17/04 A3001 RMK AO2 SLP151 T01670039", "KBUU 240715Z AUTO 17003KT 10SM SCT120 17/13 A2987 RMK AO2 T01710125 PWINO", "KBUY 240654Z AUTO 00000KT 10SM OVC012 10/08 A3017 RMK AO2 SLP213 T01000083", "KBVI 240735Z AUTO 00000KT 10SM CLR 11/06 A3018 RMK AO2 T01070059", "KBVN 240735Z AUTO 29004KT 10SM CLR 09/04 A2958 RMK AO2 T00900040", "KBVO 240653Z AUTO 18012G23KT 10SM CLR 24/14 A2969 RMK AO2 SLP043 T02440139", "KBVS 240715Z AUTO 14010G16KT 110V180 10SM OVC035 09/05 A3007 RMK A01", "KBVU 240735Z AUTO 34013KT 10SM CLR 11/M07 A3009 RMK AO2", "KBVX 240656Z AUTO 17007G15KT 10SM CLR 21/14 A2993 RMK AO2 SLP133 T02110144", "KBVY 240653Z AUTO 01008KT 1 3/4SM BR OVC004 11/11 A3024 RMK AO2 SLP234 T01110106", "KBWG 240653Z AUTO 00000KT 10SM CLR 12/06 A3009 RMK AO2 SLP185 T01170061", "KBWI 240654Z 33003KT 2SM -DZ BR FEW006 BKN010 OVC015 14/13 A3015 RMK AO2 SLP208 P0000 T01390128 $", "KBWP 240735Z AUTO 16016KT 10SM SCT030 SCT046 OVC070 17/15 A2925 RMK AO2", "KBWW 240735Z AUTO 30026KT 4SM -RA OVC007 00/00 A2949 RMK AO2", "KBXA 240735Z AUTO 00000KT 10SM CLR 12/11 A3006 RMK AO2 T01200106", "KBXK 240735Z AUTO 31008KT 10SM CLR 16/M09 A2993 RMK A01", "KBYG 240724Z AUTO 34017G26KT 3SM -SN BR FEW004 OVC027 M02/M03 A2977 RMK AO2 PK WND 34030/0700 P0000 T10171033", "KBYI 240653Z AUTO 26014G21KT 10SM CLR 01/M03 A3010 RMK AO2 SLP198 T00061033 400780006", "KBYL 240715Z AUTO 00000KT 10SM CLR 08/04 A3016 RMK AO1", "KBYS 240655Z AUTO 01013KT 10SM CLR 11/M10 A3006 RMK AO2 SLP169 T01141096", "KBYY 240715Z AUTO 17009KT 10SM BKN060 23/21 A2989 RMK AO2 T02410209", "KBZN 240656Z AUTO 23005KT 10SM BKN050 OVC065 00/M02 A3004 RMK AO2 SLP204 T00001017 400061006", "KC07 240735Z AUTO 30011G19KT 260V330 M1/4SM SN OVC001 M10/M10 A2986 RMK AO2", "KC09 240735Z AUTO 15010KT 7SM -TSRA 16/12 A2991 RMK AO2 LTG DSNT N THRU S P0006 T01560124", "KC29 240735Z AUTO 17011KT 10SM OVC110 18/16 A2980 RMK AO1 T01830155", "KC35 240735Z AUTO 17009KT 10SM SCT050 BKN095 OVC110 18/16 A2976 RMK AO2 P0001 T01750155 PWINO", "KC65 240715Z AUTO VRB06KT 10SM BKN110 18/08 A3001 RMK A01", "KC75 240735Z AUTO 18008G14KT 10SM CLR 20/14 A2986 RMK AO2 T02030140", "KC83 240735Z AUTO 29007KT 10SM CLR 15/M04 A3009 RMK AO2", "KC99 240712Z AUTO 30024G35KT OVC005 M11/M12 A2973 RMK AO2", "KCAD 240735Z AUTO 12005KT 10SM -RA BKN110 14/12 A3001 RMK AO2 T01380116", "KCAE 240656Z 00000KT 10SM CLR 07/06 A3016 RMK AO2 SLP212 T00720061", "KCAG 240653Z AUTO 28003KT 10SM BKN070 OVC090 M03/M06 A2995 RMK AO2 SLP167 T10281056 400171028", "KCAK 240651Z 13005KT 10SM CLR 11/02 A3016 RMK AO2 SLP209 T01110017", "KCAO 240655Z AUTO 28011KT 10SM FEW090 BKN110 11/M04 A2976 RMK AO2 SLP026 T01061039 402440106", "KCAR 240654Z AUTO 03003KT 10SM CLR 09/07 A3033 RMK AO2 SLP274 T00940067", "KCAV 240715Z AUTO 17018G26KT 10SM 20/15 A2952 RMK A01", "KCBE 240715Z AUTO 00000KT 10SM OVC040 12/08 A3023 RMK AO2 T01200082", "KCBF 240715Z AUTO 19018G33KT 10SM CLR 23/12 A2947 RMK AO2", "KCBG 240735Z AUTO 13004G16KT 10SM -RA CLR 19/11 A2946 RMK AO2 P0001", "KCBK 240735Z AUTO 30015G20KT 10SM CLR 06/02 A2973 RMK AO2 T00620016", "KCBM 240655Z AUTO 00000KT 10SM CLR 10/07 A3006 RMK AO2 SLP181 T00970073 $", "KCCA 240735Z AUTO 16008G15KT 130V200 10SM OVC060 22/16 A2991 RMK AO2", "KCCB 240735Z AUTO 00000KT 10SM CLR 12/08 A3001 RMK AO2", "KCCO 240715Z AUTO 00000KT 10SM CLR 08/07 A3015 RMK AO2 T00840066", "KCCR 240653Z AUTO 00000KT 10SM CLR 11/01 A3011 RMK AO2 SLP180 T01060011", "KCCU 240715Z AUTO 31009KT 1 1/4SM -SN OVC005 M09/M12 A2985 RMK AO2", "KCCY 240735Z AUTO 16019G24KT 10SM CLR 19/16 A2959 RMK AO2", "KCDA 240735Z AUTO 00000KT 10SM 09/06 A3032 RMK AO2 T00930057", "KCDC 240734Z AUTO 00000KT 10SM FEW001 FEW033 BKN050 M03/M05 A3009 RMK AO2 I1001 T10331050 PNO $", "KCDD 240734Z AUTO 00000KT 3SM -RA SCT048 SCT065 BKN085 13/12 A2954 RMK AO2", "KCDH 240735Z AUTO 13011KT 10SM FEW033 20/18 A2993 RMK AO2", "KCDI 240735Z AUTO 00000KT 7SM CLR 02/02 A3016 RMK AO2 T00210021", "KCDJ 240651Z AUTO 17010G22KT 24/14 A2968 RMK AO1 SLP036 T02390144", "KCDN 240735Z AUTO 00000KT 10SM FEW036 06/04 A3016 RMK AO2", "KCDR 240653Z AUTO 30027G37KT 10SM OVC075 04/M03 A2968 RMK AO2 PK WND 30041/0604 SLP056 T00441028 401500011", "KCDS 240653Z AUTO 20018KT 10SM CLR 22/13 A2967 RMK AO2 SLP021 T02170133", "KCDW 240653Z AUTO 00000KT 8SM OVC013 12/11 A3019 RMK AO2 RAB22E34 SLP227 P0001 T01220106", "KCEC 240656Z AUTO 04003KT 5SM BR CLR 08/06 A3024 RMK AO2 SLP239 T00830061", "KCEF 240727Z AUTO 00000KT 10SM -DZ OVC019 11/08 A3022 RMK AO2 DZB09E11RAB11E21DZB21E23DZB27 CIG 018 RWY23 SLP240", "KCEU 240654Z AUTO 00000KT 10SM CLR 10/09 A3018 RMK AO2 SLP215 T01000089", "KCEW 240653Z AUTO 00000KT 10SM CLR 07/06 A3011 RMK AO2 SLP196 T00720061", "KCEY 240735Z AUTO 15008KT 10SM CLR 18/06 A3003 RMK A01", "KCEZ 240653Z AUTO 32008KT 10SM CLR 01/M03 A2989 RMK AO2 SLP101 T00111028 401500011 $", "KCFD 240735Z AUTO 16009G19KT 10SM OVC042 24/19 A2988 RMK AO2 T02400193", "KCFE 240735Z AUTO 15012G20KT 10SM SCT060 SCT070 OVC080 21/15 A2941 RMK AO2", "KCFJ 240735Z AUTO 18011KT 10SM CLR 16/04 A3000 RMK AO2 T01550035", "KCFO 240735Z AUTO 22007KT 10SM OVC110 03/01 A2980 RMK AO2 T00330010", "KCFS 240735Z AUTO 00000KT 10SM CLR 13/07 A3010 RMK AO2 T01310066", "KCFV 240652Z AUTO 17019G26KT 10SM CLR 23/14 A2968 RMK AO2 PK WND 17026/0652 SLP043 T02330139 PWINO $", "KCGC 240735Z AUTO 00000KT 3SM BR SCT003 15/14 A3008 RMK AO2", "KCGE 240715Z AUTO 32008G13KT 3SM BR OVC004 13/13 A3011 RMK A01", "KCGF 240735Z AUTO 13008KT 10SM CLR 13/03 A3016 RMK AO2 T01260031", "KCGI 240653Z AUTO 17012KT 10SM CLR 20/09 A2996 RMK AO2 SLP142 T02000089", "KCGZ 240656Z AUTO 29008KT 10SM BKN100 18/M05 A2989 RMK AO2 SLP111 T01781050 402390178 $", "KCHA 240653Z AUTO 00000KT 10SM CLR 09/06 A3016 RMK AO2 SLP209 T00890056", "KCHK 240710Z AUTO 16009G16KT 10SM SCT049 23/17 A2967 RMK AO2 T02320168", "KCHO 240653Z AUTO 00000KT 10SM CLR 13/11 A3016 RMK AO2 SLP208 T01330106", "KCHS 240656Z 00000KT 8SM FEW200 11/11 A3013 RMK AO2 SLP201 T01110106", "KCIC 240735Z AUTO 00000KT 10SM CLR 10/M05 A3015 RMK AO1", "KCID 240652Z AUTO 16014G22KT 10SM CLR 19/14 A2968 RMK AO2 SLP044 T01940144 $", "KCIN 240715Z AUTO 19026G35KT 10SM CLR 23/14 A2948 RMK AO2", "KCIR 240735Z AUTO 20010KT 10SM CLR 19/08 A2998 RMK AO2 T01940080", "KCIU 240656Z AUTO 14013KT 10SM OVC080 16/09 A3002 RMK AO2 SLP161 T01560094", "KCJR 240735Z AUTO 36003KT 10SM OVC019 15/11 A3017 RMK AO2 T01470110", "KCKB 240653Z AUTO 00000KT 10SM CLR 07/02 A3016 RMK AO2 SLP207 T00670022", "KCKC 240736Z AUTO 08009KT 7SM -RA SCT015 BKN032 OVC070 13/13 A2964 RMK AO2 P0005", "KCKF 240715Z AUTO 04003KT 10SM CLR 10/08 A3016 RMK AO2 T00950076", "KCKI 240735Z AUTO 00000KT 10SM CLR 04/03 A3015 RMK AO2", "KCKM 240735Z AUTO 15007KT 10SM SCT046 OVC055 19/12 A3002 RMK A01", "KCKN 240735Z AUTO 11009KT 10SM CLR 17/14 A2924 RMK AO2", "KCKP 240715Z AUTO 19013G23KT 10SM SCT060 22/14 A2942 RMK AO2 T02220135", "KCKV 240652Z AUTO 15007KT 10SM CLR 16/06 A3007 RMK AO2 SLP179 T01610061", "KCKZ 240735Z AUTO 04006KT 5SM BR OVC003 12/12 A3017 RMK AO2", "KCLE 240651Z 16008KT 10SM CLR 12/03 A3012 RMK AO2 SLP213 T01220028 $", "KCLI 240735Z AUTO 16014KT 10SM -RA SCT048 BKN100 OVC120 16/15 A2980 RMK AO2 P0001 T01600149", "KCLK 240735Z AUTO 19015G21KT 10SM SCT110 22/13 A2967 RMK AO2", "KCLL 240653Z AUTO 17012G24KT 10SM OVC046 24/19 A2985 RMK AO2 RAE0557 SLP104 P0000 T02440194", "KCLM 240653Z AUTO 00000KT 9SM -RA OVC070 08/07 A3003 RMK AO2 SLP171 P0003 T00830067", "KCLS 240735Z AUTO 18006KT 10SM FEW042 SCT048 BKN055 09/06 A3011 RMK AO2", "KCLT 240652Z 33004KT 8SM CLR 07/06 A3018 RMK SLP216 T00720061 $", "KCLW 240735Z AUTO 10003KT 10SM CLR 18/16 A3006 RMK AO2", "KCMA 240655Z AUTO 35006KT 10SM CLR 13/04 A3001 RMK AO2 SLP169 T01280039", "KCMD 240715Z AUTO 00000KT 10SM CLR 15/06 A3014 RMK AO2", "KCMH 240651Z 00000KT 10SM CLR 10/08 A3011 RMK AO2 SLP194 T01000078 $", "KCMI 240653Z AUTO 16015KT 10SM CLR 17/07 A2993 RMK AO2 SLP130 T01720072", "KCMR 240735Z AUTO 00000KT 10SM CLR M04/M06 A2999 RMK AO2", "KCMX 240716Z AUTO 14007KT 10SM -RA SCT080 OVC100 17/14 A2970 RMK AO2 RAB0658 TSE10 PRESFR P0001 T01670139", "KCMY 240658Z AUTO 16013G22KT 10SM OVC080 19/16 A2970 RMK AO2 RAE07 SLP056 P0000 T01920161 $", "KCNB 240735Z AUTO 23009KT 10SM CLR 13/08 A2936 RMK AO2 T01340079", "KCNC 240715Z AUTO 17019G29KT 10SM CLR 21/16 A2962 RMK AO2", "KCNI 240715Z AUTO 04004KT 10SM CLR 06/04 A3019 RMK AO2 T00630044", "KCNK 240655Z AUTO 26010G22KT 10SM -RA FEW040 BKN095 OVC110 17/08 A2958 RMK AO2 PK WND 21031/0620 LTG DSNT S RAB03 PRESRR SLP001 P0006 T01720083", "KCNM 240653Z AUTO 24016G25KT 10SM -RA SCT075 OVC100 20/03 A2980 RMK AO2 PK WND 27044/0625 RAB29 SLP036 P0000 T02000033 403060139", "KCNO 240653Z AUTO VRB03KT 10SM CLR 13/10 A3003 RMK AO2 SLP164 T01330100", "KCNU 240652Z AUTO 18020G29KT 10SM CLR 24/14 A2969 RMK AO2 PK WND 17032/0615 SLP043 T02390139 $", "KCNY 240653Z AUTO 29010KT 10SM CLR 02/M02 A2995 RMK AO2 SLP145 T00221022 400940006", "KCOD 240726Z AUTO 00000KT 10SM BKN006 OVC047 M01/M02 A2989 RMK AO2 FZRANO", "KCOE 240656Z AUTO 17007KT 10SM BKN044 05/02 A3012 RMK AO2 SLP228 T00500017 PNO $", "KCOF 240655Z AUTO 32004KT 10SM CLR 22/22 A3004 RMK AO2 SLP177 T02210219", "KCOM 240735Z AUTO 18018G23KT 10SM -RA OVC120 23/18 A2977 RMK AO2 T02250181", "KCON 240651Z AUTO 33004KT 10SM FEW017 OVC024 11/09 A3029 RMK AO2 RAB18E28 SLP259 P0001 T01060094", "KCOQ 240735Z AUTO 10005KT 10SM SCT035 BKN043 OVC048 15/14 A2950 RMK AO2 TSNO P0002", "KCOS 240654Z 09003KT 10SM FEW015 SCT040 02/M03 A2980 RMK AO2 SLP064 T00171028 401890011 $", "KCOT 240653Z AUTO 15013KT 7SM FEW027 SCT110 26/19 A2977 RMK AO2 PRESFR SLP074 T02610194", "KCOU 240654Z AUTO 17010KT 10SM CLR 23/13 A2982 RMK AO2 SLP090 T02280133", "KCPC 240715Z AUTO 00000KT 10SM CLR 09/07 A3014 RMK AO2 T00890068", "KCPF 240735Z AUTO 00000KT 10SM CLR 07/04 A3016 RMK AO2", "KCPK 240735Z AUTO 32005KT 14/13 A3010 RMK AO2 T01400131", "KCPR 240653Z AUTO 27011KT 10SM SCT110 M01/M03 A2979 RMK AO2 SLP096 T10061033 400941011", "KCPS 240653Z AUTO 18008KT 10SM CLR 21/12 A2988 RMK AO2 SLP115 T02110122 $", "KCPT 240735Z AUTO 16011G17KT 10SM SCT025 BKN033 OVC120 22/20 A2979 RMK A01", "KCPU 240735Z AUTO 00000KT 10SM CLR 08/M05 A3007 RMK AO2 T00811047", "KCPW 240715Z AUTO 23011G15KT 10SM BKN070 OVC085 M12/M12 A2990 RMK AO2", "KCQB 240715Z AUTO 17016G22KT 10SM CLR 23/14 A2970 RMK AO2 T02320141", "KCQC 240710Z AUTO 30015G22KT 10SM SCT033 OVC065 03/M02 A2983 RMK AO2 T00281017", "KCQF 240735Z AUTO 00000KT 10SM CLR 12/11 A3008 RMK AO2", "KCQM 240735Z AUTO 14004KT 10SM SCT030 BKN037 OVC044 17/13 A2950 RMK AO2 LTG DSNT NE AND S", "KCQT 240647Z AUTO 10003KT 10SM CLR 16/12 A3002 RMK AO2 SLP163 T01610117 $", "KCQW 240735Z AUTO 00000KT 10SM CLR 04/04 A3015 RMK AO2 PWINO", "KCQX 240718Z AUTO 33004KT 1 1/4SM BR OVC002 15/14 A3018 RMK AO2 T01500144", "KCRE 240653Z AUTO 00000KT 10SM CLR 10/07 A3013 RMK AO1 SLP202 T01000072", "KCRG 240653Z AUTO 00000KT 10SM CLR 14/12 A3010 RMK AO2 SLP193 T01390122", "KCRP 240659Z 17018G25KT 10SM -RA SCT024 BKN037 OVC044 24/23 A2984 RMK AO2 P0001 T02440228 $", "KCRQ 240653Z AUTO 08003KT 10SM CLR 15/10 A3000 RMK AO2 SLP158 T01500100", "KCRS 240653Z AUTO 17016KT 10SM OVC026 24/17 A2984 RMK AO2 SLP099 T02390172 $", "KCRW 240654Z 00000KT 10SM CLR 07/06 A3014 RMK AO2 SLP204 T00670061", "KCRX 240735Z AUTO 14005KT 10SM CLR 12/07 A3007 RMK AO2", "KCSG 240651Z AUTO 00000KT 10SM CLR 11/08 A3014 RMK AO2 SLP204 T01110078", "KCSM 240653Z AUTO 19019G29KT 10SM BKN110 22/14 A2968 RMK AO2 PK WND 18030/0620 SLP028 T02220139", "KCSQ 240735Z AUTO 18017G25KT 10SM CLR 22/15 A2958 RMK AO2", "KCSV 240653Z AUTO 00000KT 10SM CLR 07/04 A3018 RMK AO2 SLP211 T00670044", "KCTB 240704Z AUTO 23004KT 10SM BKN001 M07/M07 A2997 RMK AO2 T10671072 $", "KCTJ 240715Z AUTO 00000KT 10SM CLR 07/06 A3020 RMK AO2 T00720055", "KCTY 240735Z AUTO 00000KT 10SM SCT003 SCT120 10/09 A3010 RMK AO2 T01000088", "KCTZ 240735Z AUTO 00000KT 10SM OVC009 16/16 A3014 RMK AO2 T01570156", "KCUB 240653Z AUTO 00000KT 8SM CLR 09/08 A3017 RMK AO2 SLP215 T00890078", "KCUH 240715Z AUTO 18011G23KT 10SM CLR 23/14 A2969 RMK AO2 T02320136", "KCUL 240715Z AUTO 14009KT 10SM CLR 15/07 A3000 RMK AO2", "KCUT 240708Z AUTO 28019G33KT 10SM BKN018 OVC095 M02/M06 A2959 RMK AO2 PK WND 29033/0708 T10171056", "KCVC 240735Z AUTO 00000KT 10SM CLR 07/06 A3016 RMK AO2", "KCVG 240652Z 17005KT 10SM CLR 13/05 A3009 RMK AO2 SLP182 T01330050", "KCVH 240735Z AUTO 00000KT 10SM CLR 10/02 A3012 RMK A01", "KCVN 240656Z AUTO 31015KT 10SM FEW060 BKN090 OVC110 15/04 A2977 RMK AO2 RAB0558E09 SLP046 P0000 T01500039 402330139", "KCVO 240656Z AUTO 16008KT 10SM OVC100 09/07 A3020 RMK AO2 SLP226 T00940072", "KCVS 240721Z AUTO 32015KT 10SM -RA SCT044 OVC065 16/04 A2976 RMK AO2 RAB21 SLP026 $", "KCVX 240735Z AUTO 16010G21KT 10SM -RA SCT043 SCT060 SCT080 17/12 A2998 RMK AO2 T01670119", "KCWA 240735Z AUTO 15012G17KT 10SM SCT012 BKN060 BKN090 16/15 A2975 RMK AO2", "KCWC 240735Z AUTO 18020G24KT 10SM CLR 24/17 A2969 RMK AO2 T02420170", "KCWF 240735Z AUTO 12008KT 10SM CLR 19/18 A2994 RMK AO2 T01950180", "KCWI 240656Z AUTO 15015KT 10SM -RA FEW055 18/16 A2979 RMK AO2 TSB04E19 SLP087 P0000 T01830156", "KCWN 240700Z AUTO 30007KT 10SM SCT018 SCT025 BKN037 OVC046 02/M03 A2915 RMK AO2 SLP734 $", "KCWV 240715Z AUTO 00000KT 7SM CLR 09/08 A3015 RMK AO2 T00900084", "KCXE 240735Z AUTO 00000KT 10SM OVC027 11/11 A3016 RMK AO1 T01120112", "KCXO 240653Z AUTO 17010KT 10SM CLR 23/19 A2989 RMK AO2 SLP116 T02280194", "KCXP 240735Z AUTO 00000KT 10SM CLR M03/M10 A3025 RMK AO2", "KCXU 240735Z AUTO 00000KT 10SM CLR 10/07 A3013 RMK AO1 T01000072", "KCXW 240725Z AUTO 17011KT 10SM FEW031 SCT050 OVC065 21/16 A2990 RMK A01", "KCXY 240704Z AUTO 33003KT 4SM -RA BR BKN009 OVC016 14/12 A3018 RMK AO2 CIG 007V011 P0000 T01390122", "KCYD 240713Z AUTO 17010KT 10SM SCT029 SCT034 SCT048 24/18 A3004 RMK A02 T02440176", "KCYS 240653Z AUTO 29008G20KT 10SM CLR 01/M05 A2975 RMK AO2 SLP049 T00061050 401220006", "KCZL 240735Z AUTO 00000KT 10SM CLR 06/05 A3019 RMK AO2", "KCZT 240715Z AUTO 13006KT 10SM OVC025 24/19 A2977 RMK AO2", "KD07 240656Z AUTO 30031G50KT 03/M01 A2945 RMK AO1 PK WND 31050/0651 SLP981 T00331011 401220022", "KD25 240735Z AUTO 15010G18KT 10SM BKN011 OVC065 16/16 A2972 RMK AO2 P0001 T01550155", "KD39 240735Z AUTO 14012KT 10SM CLR 18/16 A2935 RMK AO2 LTG DSNT S T01780156", "KD50 240735Z AUTO 34022G27KT 6SM RA OVC006 01/01 A2953 RMK AO2", "KD55 240735Z AUTO 04018G26KT 9SM FEW004 BKN033 OVC070 09/09 A2927 RMK AO2 LTG DSNT NE AND SW", "KD57 240735Z AUTO 31021KT 10SM BKN009 OVC014 05/04 A2934 RMK AO2", "KD60 240735Z AUTO 34016G24KT 6SM RA SCT008 SCT013 02/02 A2947 RMK AO2 LTG DSNT NE", "KD73 240715Z AUTO 00000KT 10SM CLR 07/ A3018 RMK AO2 T0068////", "KD95 240735Z AUTO 00000KT 10SM CLR 10/05 A3011 RMK AO2 T01040054", "KDAA 240730Z AUTO 32005KT 10SM OVC013 14/13 A3013 RMK AO2 CIG 009V015 SLP206", "KDAB 240653Z 31003KT 10SM FEW040 BKN060 21/18 A3009 RMK AO2 SLP187 T02110178", "KDAG 240650Z AUTO 11004KT 10SM CLR 13/M11 A3009 RMK AO2 SLP178 T01281106", "KDAL 240653Z 18008G16KT 10SM -RA OVC029 24/17 A2979 RMK AO2 PK WND 18027/0622 RAB51 SLP081 P0000 T02390167", "KDAN 240653Z AUTO 23003KT 10SM SCT026 09/06 A3018 RMK AO2 SLP213 T00890061", "KDAW 240651Z AUTO 36006KT 10SM OVC014 13/08 A3027 RMK AO2 SLP247 T01330083", "KDAY 240656Z 16006KT 10SM CLR 13/06 A3010 RMK AO2 SLP189 T01280056", "KDBN 240715Z AUTO 00000KT 10SM CLR 08/07 A3018 RMK AO2", "KDBQ 240653Z AUTO 17017G25KT 10SM FEW120 18/16 A2974 RMK AO2 PK WND 15029/0606 SLP067 T01830156 $", "KDCA 240712Z 33007KT 10SM BKN010 OVC029 14/13 A3016 RMK AO2 T01390128 $", "KDCM 240715Z AUTO 00000KT 10SM CLR 06/05 A3018 RMK AO2", "KDCU 240653Z AUTO 08004KT 10SM CLR 12/07 A3013 RMK AO2 SLP198 T01170072", "KDCY 240715Z AUTO 17007KT 10SM CLR 15/07 A3002 RMK AO2 T01500072", "KDDC 240652Z AUTO 34011G23KT 10SM FEW120 16/02 A2967 RMK AO2 PK WND 34027/0637 PRESRR SLP017 T01610017", "KDDH 240713Z AUTO 00000KT 10SM BKN029 OVC070 14/02 A3024 RMK AO2 T01390022", "KDEC 240654Z 18013G22KT 10SM -RA CLR 19/11 A2991 RMK AO2 RAB53 SLP124 P0000 T01940106", "KDED 240715Z AUTO 36004KT 10SM OVC060 20/17 A3009 RMK AO2 T01990170", "KDEH 240735Z AUTO 16013G20KT 10SM FEW035 BKN050 OVC065 18/15 A2963 RMK AO2", "KDEN 240653Z 18008KT 10SM FEW090 BKN110 02/01 A2977 RMK AO2 SLP039 T00170006 402060017", "KDEQ 240653Z AUTO 10005KT 10SM BKN033 OVC046 22/16 A2987 RMK AO2 SLP108 T02220156 $", "KDET 240653Z 15003KT 9SM CLR 13/08 A3010 RMK AO2 SLP189 T01280078", "KDEW 240653Z AUTO 16005KT 10SM CLR 04/01 A3012 RMK AO2 SLP209 T00390011", "KDFI 240653Z AUTO 14003KT 10SM CLR 15/07 A3007 RMK AO2 SLP179 T01500067", "KDFW 240653Z 18017G30KT 10SM OVC030 24/18 A2976 RMK AO2 PK WND 17030/0648 RAB15E29 SLP070 CIG 029V035 P0000 T02440178", "KDGW 240653Z AUTO 33015KT 10SM BKN021 OVC026 00/M04 A2978 RMK AO2 UPB02E12 SLP092 P0000 T00001039 401330000", "KDHN 240653Z AUTO 00000KT 10SM CLR 09/07 A3014 RMK AO2 SLP205 T00890067", "KDHT 240653Z AUTO 27007KT 10SM SCT110 13/02 A2976 RMK AO2 SLP026 T01330022", "KDIJ 240656Z AUTO 06005KT 10SM SCT029 BKN070 M04/M06 A3002 RMK AO2 SNB01E14 SLP199 P0000 T10391061 400171039", "KDIK 240656Z AUTO 30021G33KT 9SM -SN OVC007 02/00 A2940 RMK AO2 PK WND 31035/0627 SNB50 SLP967 P0000 T00170000 400940017", "KDKB 240715Z AUTO 17011KT 10SM OVC110 16/14 A2989 RMK AO2 T01600136", "KDKK 240653Z AUTO 17006KT 10SM CLR 15/09 A3017 RMK AO2 SLP217 T01500089 $", "KDKR 240715Z AUTO 16010KT 10SM OVC060 23/21 A2987 RMK AO2", "KDKX 240735Z AUTO 00000KT 3/4SM BR 06/06 A3017 RMK A01 VIS 1/4V4", "KDLF 240655Z AUTO 11009KT 10SM BKN039 OVC130 23/18 A2975 RMK AO2 SLP063 T02340178 $", "KDLH 240736Z 13010KT 10SM -TSRA FEW028 BKN039CB OVC080 14/13 A2953 RMK AO2 TSE13B30 FRQ LTGICCCCG S-SW ANS DSNT NW-NE TS S-SW MOV NE P0001 T01440133", "KDLL 240735Z AUTO 16010G14KT 10SM BKN095 OVC110 17/14 A2978 RMK AO2 LTG DSNT SW T01650143", "KDLN 240653Z AUTO 14005KT 10SM CLR M04/M05 A3003 RMK AO2 SLP199 T10441050 400061044", "KDLO 240735Z AUTO 17003KT 10SM CLR 07/02 A3010 RMK AO2 T00700020", "KDLS 240653Z AUTO 20003KT 10SM CLR 10/02 A3016 RMK AO2 SLP213 T01000017", "KDLZ 240735Z AUTO 00000KT 10SM CLR 08/05 A3012 RMK AO2", "KDMA 240716Z AUTO 29009KT 10SM -DZ BKN060 OVC100 14/09 A2988 RMK AO2 RAE04DZB16 SLP132 $", "KDMH 240654Z AUTO 14/13 A3016 RMK AO1 SLP212 T01440128", "KDMN 240653Z AUTO 27008KT 10SM OVC080 14/07 A2985 RMK AO2 SLP047 T01440072 402330144", "KDMO 240653Z AUTO 18012KT 10SM CLR 23/14 A2977 RMK AO2 SLP070 T02280139", "KDMW 240715Z AUTO 03003KT 2 1/2SM BR OVC004 13/13 A3016 RMK AO2 LTG DSNT SE", "KDNA 240735Z AUTO 23006KT 10SM CLR 14/06 A2984 RMK AO2", "KDNL 240653Z AUTO 00000KT 10SM CLR 13/09 A3017 RMK AO2 SLP211 T01330089", "KDNN 240735Z AUTO 00000KT 10SM CLR 05/05 A3017 RMK AO2 T00540046", "KDNV 240715Z AUTO 18015G21KT 10SM CLR 19/07 A2996 RMK AO2 T01900071", "KDOV 240733Z AUTO 34008KT 10SM OVC005 13/13 A3008 RMK AO2 RAE0657DZB0657E0659RAB0659E00 CIG 004 RWY14 CIG 004 RWY19 SLP190", "KDPA 240652Z 17013G20KT 10SM FEW075 FEW120 19/09 A2989 RMK AO2 RAB28E45 SLP118 P0000 T01890094", "KDPL 240715Z AUTO 01008KT 10SM OVC009 15/14 A3014 RMK AO2", "KDQH 240715Z AUTO 00000KT 10SM CLR 12/12 A3015 RMK AO2 T01220117", "KDRA 240653Z AUTO 04009KT 10SM CLR 07/M08 A3013 RMK AO2 SLP187 T00721078", "KDRI 240735Z AUTO 13007KT 10SM BKN200 20/18 A2996 RMK AO2 T02010181 $", "KDRM 240735Z AUTO 15011G16KT 10SM OVC080 14/08 A3005 RMK AO2 T01400082", "KDRO 240653Z AUTO 16003KT 10SM FEW110 M01/M04 A2987 RMK AO2 SLP116 T10111039 401221022 $", "KDRT 240653Z AUTO 08005KT 10SM SCT041 23/18 A2976 RMK AO2 SLP069 T02280178", "KDSF 240735Z AUTO 09011KT 10SM FEW031 FEW042 BKN055 25/19 A3002 RMK A01", "KDSM 240654Z 17019G30KT 10SM BKN220 22/14 A2957 RMK AO2 PK WND 17032/0619 SLP006 T02220144", "KDSV 240654Z AUTO 16003KT 10SM SCT100 SCT120 11/05 A3022 RMK AO2 SLP240 T01060050", "KDTA 240735Z AUTO 05006KT 10SM CLR 00/M06 A3010 RMK AO1", "KDTL 240735Z AUTO 13013KT 10SM BKN037 OVC050 16/14 A2928 RMK AO2", "KDTN 240712Z AUTO 15011G18KT 10SM BKN026 BKN033 22/17 A2992 RMK AO2 T02220167", "KDTO 240653Z AUTO 17017G26KT 10SM OVC036 24/18 A2978 RMK AO2 PK WND 18026/0626 SLP074 T02440178", "KDTS 240653Z AUTO 00000KT 10SM CLR 16/14 A3009 RMK AO2 SLP188 T01610139", "KDTW 240653Z 18004KT 10SM FEW250 13/08 A3009 RMK AO2 SLP189 T01280078 $", "KDUA 240735Z AUTO 18013G18KT 10SM BKN038 23/12 A2980 RMK AO2", "KDUB 240714Z AUTO 27022G26KT 10SM OVC110 M03/M11 A2985 RMK AO2", "KDUC 240735Z AUTO 17014KT 10SM OVC036 23/17 A2972 RMK AO2 T02310172", "KDUH 240735Z AUTO 14003KT 10SM CLR 12/06 A3009 RMK AO2 T01190060", "KDUJ 240653Z AUTO 03003KT 10SM CLR 09/07 A3020 RMK AO2 SLP224 T00890072", "KDUX 240715Z AUTO 27011KT 10SM CLR 15/02 A2974 RMK AO2 T01460020", "KDVK 240710Z AUTO 00000KT 10SM CLR 10/03 A3013 RMK AO2", "KDVL 240705Z AUTO 06010KT 10SM -RA OVC100 12/11 A2922 RMK AO2 LTG DSNT ALQDS TSE0659 P0000", "KDVN 240652Z AUTO 15012G19KT 9SM -RA FEW042 19/15 A2978 RMK AO2 LTG DSNT SW RAB0554E16B50 SLP077 P0001 T01890150", "KDVO 240715Z AUTO 33009KT 10SM CLR 15/01 A3009 RMK AO2", "KDVP 240733Z AUTO 25010KT 10SM SCT050 OVC060 14/08 A2941 RMK AO2 T01440078", "KDVT 240653Z AUTO 01016G23KT 10SM CLR 16/M06 A2989 RMK AO2 PK WND 36034/0610 SLP106 T01561056 402330156", "KDWA 240735Z AUTO 31012KT 10SM FEW044 FEW095 15/M04 A3010 RMK AO2", "KDWH 240653Z AUTO 16007KT 10SM CLR 24/19 A2988 RMK AO2 SLP114 T02440194", "KDWU 240656Z AUTO 00000KT 10SM CLR 07/07 A3014 RMK AO2 SLP208 T00670067", "KDWX 240710Z AUTO 08011KT 10SM M34/M37 A2996 RMK AO2 T13361367", "KDXR 240653Z AUTO 06006KT 8SM OVC012 13/10 A3021 RMK AO2 SLP231 T01280100", "KDYA 240735Z AUTO 00000KT 10SM CLR 08/08 A3011 RMK AO2 T00770077", "KDYB 240735Z AUTO 00000KT 10SM FEW034 09/09 A3013 RMK AO2", "KDYL 240654Z AUTO 03006KT 7SM OVC003 12/11 A3015 RMK AO2 SLP210 T01220106", "KDYR 240656Z AUTO VRB06KT 10SM CLR 18/08 A3002 RMK AO2 SLP168 T01830083", "KDYS 240655Z AUTO 15018KT 10SM FEW140 24/15 A2969 RMK AO2 SLP007 T02350147", "KDYT 240735Z AUTO 05011KT 7SM -RA FEW011 SCT032 BKN041 12/11 A2952 RMK AO2 LTG DSNT ALQDS", "KDZB 240735Z AUTO 18011G18KT 10SM OVC025 24/19 A2983 RMK AO2 T02420186", "KDZJ 240735Z AUTO 00000KT 7SM CLR 03/02 A3021 RMK AO2 T00250023", "KE11 240715Z AUTO 22009G15KT 10SM OVC100 19/16 A2977 RMK AO2 T01890158", "KE16 240715Z AUTO 10SM CLR 13/04 A3011 RMK AO2", "KE38 240715Z AUTO 22009G16KT 10SM SCT100 SCT120 21/07 A2988 RMK AO2 T02080069", "KE41 240715Z AUTO 18013G20KT 10SM SCT120 21/16 A2975 RMK AO2 T02080158", "KE42 240735Z AUTO 22004KT 10SM SCT110 15/02 A2972 RMK AO2 T01530019", "KEAN 240710Z AUTO 33003KT 10SM CLR 01/M02 A2976 RMK AO2 T00051024", "KEAR 240656Z AUTO 29017G21KT 10SM CLR 11/04 A2956 RMK AO2 SLP995 T01060039", "KEAT 240655Z AUTO 19003KT 10SM OVC100 07/M02 A3007 RMK AO2 SLP187 T00721017", "KEAU 240656Z AUTO 14013G22KT 10SM BKN075 BKN085 19/15 A2960 RMK AO2 SLP018 T01890150", "KEBA 240735Z AUTO 00000KT 10SM CLR 08/05 A3017 RMK AO2 T00760051", "KEBG 240735Z AUTO 15012G19KT 10SM OVC023 26/22 A2982 RMK AO2 T02580220 PWINO", "KEBS 240715Z AUTO 16021G27KT 10SM CLR 21/15 A2951 RMK AO2", "KECG 240654Z AUTO 32008KT 10SM OVC006 15/14 A3010 RMK AO2 SLP192 T01500139", "KECP 240653Z AUTO 00000KT 10SM CLR 09/07 A3009 RMK AO1 SLP200 T00890072", "KECS 240735Z AUTO 32020G28KT 10SM BKN017 OVC027 M01/M04 A2973 RMK AO2", "KECU 240735Z AUTO 15015G21KT 10SM OVC013 21/18 A2987 RMK AO2", "KEDE 240735Z AUTO 34006KT 10SM OVC008 16/16 A3012 RMK AO2 T01560155", "KEDJ 240735Z AUTO 17008KT 10SM CLR 13/06 A3011 RMK A01", "KEDN 240735Z AUTO 00000KT 10SM CLR 08/08 A3011 RMK AO2 T00830078", "KEDW 240655Z AUTO 00000KT 10SM CLR 08/M05 A3008 RMK AO2 SLP181 T00761048", "KEED 240656Z AUTO 36014KT 10SM CLR 16/M04 A3003 RMK AO2 SLP150 T01611044 $", "KEEN 240656Z AUTO 00000KT 10SM OVC025 11/10 A3028 RMK AO2 SLP259 T01060100 $", "KEEO 240653Z AUTO 09003KT 10SM BKN060 OVC080 M03/M04 A2995 RMK AO2 SNB02E36 SLP157 P0000 T10331039 400561039", "KEET 240653Z AUTO 00000KT 10SM CLR 11/08 A3013 RMK AO2 SLP199 T01060078", "KEFD 240654Z 15014KT 10SM FEW055 25/20 A2988", "KEFK 240735Z AUTO 00000KT 10SM OVC120 08/07 A3031 RMK AO2 T00840071", "KEFT 240735Z AUTO 19015KT 10SM -RA SCT033 SCT050 BKN110 18/14 A2981 RMK AO2 T01800142", "KEGE 240656Z AUTO 29005KT 10SM FEW055 SCT090 M01/M02 A2994 RMK AO2 SLP057 T10111022 FZRANO", "KEGT 240715Z AUTO 19018G26KT 10SM -RA SCT055 SCT075 BKN110 22/15 A2963 RMK AO2", "KEGV 240735Z AUTO 17009G14KT 10SM OVC007 15/15 A2976 RMK AO2 T01540154", "KEHA 240715Z AUTO 33013KT 10SM OVC095 15/M06 A2977 RMK AO2 T01481064", "KEHO 240735Z AUTO 00000KT 10SM CLR 06/05 A3019 RMK AO2 T00560047", "KEHR 240656Z AUTO 13004KT 10SM CLR 15/07 A3004 RMK AO2 SLP172 T01500067", "KEIK 240735Z AUTO 19009KT 10SM CLR 03/00 A2977 RMK AO2 T00300000 PWINO", "KEKM 240735Z AUTO 15003KT 9SM SCT120 BKN140 17/09 A3004 RMK AO2 T01670087", "KEKN 240651Z AUTO 00000KT 10SM CLR 01/M01 A3022 RMK AO2 SLP238 T00061011", "KEKO 240656Z AUTO 28004KT 10SM CLR M03/M06 A3018 RMK AO2 SLP235 T10281061", "KEKQ 240656Z AUTO 00000KT 10SM CLR 06/04 A3016 RMK AO2 SLP209 T00560039", "KEKX 240735Z AUTO 00000KT 10SM CLR 10/06 A3010 RMK AO2 T01040056", "KEKY 240656Z AUTO 13005KT 10SM CLR 14/07 A3013 RMK AO2 SLP051 T01390067", "KELA 240735Z AUTO 18006KT 10SM OVC060 24/20 A2987 RMK AO2 T02420203", "KELD 240653Z AUTO 13006KT 10SM CLR 19/16 A2996 RMK AO2 SLP142 T01940161", "KELK 240735Z AUTO 18011KT 10SM BKN100 BKN130 22/13 A2968 RMK AO2 RAB0657E0713 SLP340 P0000 T02160135 $", "KELM 240653Z AUTO 00000KT 10SM -RA OVC110 11/10 A3021 RMK AO2 SLP229 P0001 T01060100", "KELN 240653Z AUTO 26003KT 10SM BKN120 06/00 A3009 RMK AO2 SLP194 T00560000 $", "KELO 240735Z AUTO 13010G15KT 7SM RA SCT018 SCT075 BKN095 14/14 A2954 RMK AO2 LTG DSNT ALQDS P0001", "KELP 240651Z 21006KT 10SM SCT060 OVC090 18/06 A2982 RMK AO2 PK WND 26030/0600 RAE16 SLP033 P0000 T01780061 402780178", "KELY 240653Z AUTO 29006KT 10SM CLR M04/M07 A3014 RMK AO2 SLP220 T10441067 400281050", "KELZ 240656Z AUTO 00000KT 10SM OVC090 12/08 A3023 RMK AO2 SLP233 T01170083", "KEMM 240735Z AUTO 28016G22KT 10SM SCT013 OVC037 M03/M06 A2995 RMK AO2", "KEMP 240653Z AUTO 18021G34KT 10SM CLR 23/14 A2961 RMK AO2 PK WND 17035/0640 SLP014 T02280139", "KEMV 240735Z AUTO 32006KT 10SM OVC009 14/12 A3015 RMK AO2 T01400123", "KEND 240655Z AUTO 15015G24KT 10SM BKN180 OVC200 23/15 A2962 RMK AO2 PK WND 15026/0559 SLP018 T02280151", "KENV 240656Z AUTO 32018KT 10SM CLR 03/M07 A3012 RMK AO2 SLP209 T00281067 400940028", "KENW 240653Z AUTO 16009KT 6SM -RA OVC110 18/12 A2988 RMK AO2 RAB41 SLP115 P0001 T01780117", "KEPH 240653Z AUTO 00000KT 10SM CLR 04/M01 A3008 RMK AO2 SLP190 T00441011 $", "KEQA 240735Z AUTO 19021G31KT 10SM CLR 24/14 A2963 RMK AO2", "KEQY 240653Z AUTO 00000KT 10SM CLR 07/04 A3017 RMK AO2 SLP223 T00720044", "KERI 240651Z 16009KT 10SM CLR 12/08 A3015 RMK AO2 SLP210 T01220083", "KERV 240735Z AUTO 16014G20KT 10SM OVC013 22/20 A2983 RMK AO2 T02200195", "KERY 240735Z AUTO 17009KT 10SM -RA SCT037 BKN050 OVC100 15/12 A2996 RMK AO2 T01460120 P0001", "KESC 240656Z AUTO 18010G17KT 10SM OVC110 14/12 A2986 RMK AO2 RAB00E55 SLP117 T01440117 PNO $", "KESF 240653Z AUTO 15006KT 10SM OVC055 20/16 A2999 RMK AO2 SLP155 T02000156", "KESN 240723Z AUTO 31006KT 4SM +DZ BKN005 OVC012 13/13 A3016 RMK AO2 P0002 T01310126", "KEST 240652Z AUTO 17019KT 10SM FEW120 21/13 A2944 RMK AO2 PK WND 17031/0629 SLP959 T02110133", "KETB 240735Z AUTO 14004KT 10SM -RA BKN100 OVC120 15/12 A2988 RMK AO2 P0001", "KETC 240735Z AUTO 36005KT 10SM OVC011 15/13 A3014 RMK AO2 T01480129", "KETH 240733Z AUTO 20013G18KT 10SM 14/11 A2930 RMK AO2", "KETN 240715Z AUTO 17014G19KT 10SM OVC023 22/19 A2975 RMK AO2 T02220185", "KEUF 240658Z AUTO 00000KT 10SM CLR 09/08 A3015 RMK AO2 SLP205 T00940083", "KEUG 240654Z AUTO 14008KT 10SM OVC110 10/06 A3021 RMK AO2 SLP231 T01000056 $", "KEVM 240721Z AUTO 18007KT 10SM -RA SCT017 SCT045 OVC110 16/14 A2953 RMK AO2 LTG DSNT SE THRU SW", "KEVU 240735Z AUTO 18018G25KT 10SM BKN120 23/15 A2957 RMK AO2 T02400156", "KEVV 240654Z 17006KT 10SM CLR 17/07 A3004 RMK AO2 SLP170 T01720072", "KEVW 240653Z AUTO 24011KT 10SM BKN039 OVC048 M04/M06 A2999 RMK AO2 SLP167 T10441061 400001050 $", "KEWB 240653Z AUTO 01004KT 4SM BR OVC003 12/12 A3019 RMK AO2 SLP223 T01220122", "KEWK 240656Z AUTO 19027G34KT 10SM CLR 23/14 A2959 RMK AO2 PK WND 19037/0603 SLP001 T02330144", "KEWN 240654Z AUTO 35010KT 10SM OVC008 15/13 A3013 RMK AO2 SLP202 T01500133", "KEWR 240700Z 03011KT 6SM -RA BR OVC009 13/11 A3018 RMK AO2 P0000 T01330111", "KEXX 240735Z AUTO 00000KT 10SM CLR 05/05 A3018 RMK AO2 T00500050", "KEYE 240653Z AUTO 16005KT 10SM CLR 16/07 A3002 RMK AO2 SLP160 T01610072 $", "KEYF 240735Z AUTO 35005KT 10SM CLR 10/09 A3014 RMK AO2 T01050088", "KEYW 240653Z AUTO 05006KT 10SM CLR 24/22 A3002 RMK AO2 SLP165 T02390217", "KEZF 240735Z AUTO 34004KT 10SM BKN009 OVC016 14/12 A3013 RMK AO2 T01380121", "KEZM 240735Z AUTO 00000KT 10SM CLR 07/07 A3016 RMK AO2", "KEZS 240735Z AUTO 16005KT 10SM DZ SCT055 SCT065 BKN100 16/16 A2982 RMK AO2 T01610155", "KEZZ 240735Z AUTO 18016G22KT 10SM CLR 22/14 A2967 RMK AO2 T02250143", "KF00 240735Z AUTO 17015G19KT 10SM OVC032 23/16 A2981 RMK AO2 T02340163", "KF05 240735Z AUTO 18013KT 10SM CLR 25/16 A2967 RMK AO2 T02470157", "KF17 240735Z AUTO 15007KT 10SM OVC018 22/18 A2992 RMK AO2", "KF44 240735Z AUTO 18011G18KT 10SM SCT024 BKN037 OVC044 23/18 A2984 RMK AO2", "KF46 240735Z AUTO 19008G16KT 10SM OVC027 22/17 A2981 RMK AO2 T02220170", "KF70 240735Z AUTO 00000KT 10SM CLR 12/09 A3003 RMK AO2", "KFAF 240655Z AUTO 36008KT 10SM OVC009 15/13 A3010 RMK AO2 SLPNO T01460125 $", "KFAM 240656Z AUTO 18012KT 10SM CLR 19/12 A2993 RMK AO2 SLP139 T01940122", "KFAR 240701Z COR 11012G20KT 10SM BKN045 BKN 060 16/14 A2923", "KFAT 240653Z 00000KT 10SM FEW200 13/M01 A3007 RMK AO2 SLP182 T01281006", "KFAY 240731Z 03004KT 10SM BKN008 11/09 A3014 RMK AO2 T01060094 $", "KFBG 240730Z AUTO 36003KT 10SM OVC006 11/09 A3012 RMK AO2 SLP202 $", "KFBL 240735Z AUTO 15018G24KT 10SM CLR 21/14 A2950 RMK AO2", "KFCI 240656Z AUTO 31005KT 10SM OVC010 14/13 A3015 RMK AO2 SLP219 T01390133", "KFCM 240653Z AUTO 17014G26KT 10SM SCT120 22/14 A2945 RMK AO2 PK WND 17032/0608 SLP966 T02170144 $", "KFCS 240655Z AUTO 09008KT 10SM FEW065 00/M04 A2978 RMK AO2 SLP082 T00031038 401810003 $", "KFDK 240720Z AUTO 00000KT 10SM OVC008 13/13 A3017 RMK AO2", "KFDR 240653Z AUTO 18012KT 10SM CLR 24/14 A2965 RMK AO2 SLP018 T02440144", "KFDW 240735Z AUTO 07003KT 10SM CLR 09/07 A3016 RMK AO1", "KFDY 240653Z AUTO 14008KT 10SM CLR 14/07 A3009 RMK AO2 SLP181 T01390067", "KFEP 240715Z AUTO 17016G20KT 10SM BKN110 18/17 A2984 RMK AO2 T01840172", "KFET 240735Z AUTO 29010G20KT 10SM BKN050 16/06 A2951 RMK AO2 T01560060", "KFEW 240658Z 27016KT 10SM CLR 01/M02 A2977 RMK AO2A SLPNO WND DATA ESTMD ALSTG DATA ESTMD", "KFFA 240735Z AUTO 31005KT 3SM BR OVC003 15/15 A3007 RMK AO2 T01460146", "KFFC 240653Z AUTO 00000KT 9SM CLR 07/06 A3016 RMK AO2 SLP212 T00720056", "KFFL 240715Z AUTO 18017G23KT 10SM FEW060 FEW095 OVC120 21/14 A2970 RMK A01", "KFFM 240735Z AUTO 15018G22KT 10SM CLR 18/15 A2926 RMK AO2", "KFFO 240655Z AUTO 14003KT 10SM CLR 11/05 A3007 RMK AO2 SLP184 T01080049", "KFFT 240653Z AUTO 15003KT 10SM CLR 10/04 A3010 RMK AO2 SLP189 T01000044", "KFFX 240735Z AUTO 14006KT 10SM SCT060 SCT080 OVC120 17/13 A2997 RMK AO2 T01660129", "KFFZ 240654Z AUTO 34006KT 10SM BKN090 18/M09 A2987 RMK AO2 SLP096 T01781094 402390178", "KFGN 240735Z AUTO 11008G16KT 10SM -RA SCT025 BKN032 OVC075 14/12 A2940 RMK AO2 P0001", "KFGX 240735Z AUTO 18005KT 10SM CLR 12/05 A3014 RMK AO2 T01150045", "KFHB 240735Z AUTO 00000KT 7SM CLR 14/13 A3011 RMK AO2", "KFHR 240653Z AUTO 13008KT 10SM -RA SCT020 OVC060 09/08 A3004 RMK AO2 SLP174 P0004 T00940078", "KFHU 240723Z 27014G20KT 5SM -RA BKN028 BKN048 OVC055 11/09 A2994 RMK AO2A RAB07 CIG 028V048 BKN028 V SCT SLP100", "KFIG 240654Z AUTO 00000KT 10SM BKN031 09/08 A3021 RMK AO2 SLP228 T00940083", "KFIN 240735Z AUTO 00000KT 10SM CLR 15/14 A3008 RMK AO2 T01510144", "KFIT 240652Z AUTO 36007KT 10SM OVC019 12/07 A3027 RMK AO2 SLP253 T01220072", "KFKA 240735Z AUTO 17016G21KT 10SM CLR 18/14 A2962 RMK AO2 T01750140", "KFKL 240656Z AUTO 12006KT 10SM CLR 07/07 A3019 RMK AO2 SLP226 T00670067", "KFKN 240735Z AUTO 32003KT 10SM OVC009 14/13 A3013 RMK AO2 T01400128", "KFKR 240715Z AUTO 17008KT 10SM FEW027 SCT033 BKN055 15/08 A2999 RMK AO2", "KFKS 240735Z AUTO 14007KT 10SM RA BKN039 BKN046 OVC075 15/13 A2995 RMK AO2 T01510128", "KFLD 240653Z AUTO 16009KT 10SM -RA OVC110 18/13 A2984 RMK AO2 RAB0556E12B30 SLP101 P0001 T01780133", "KFLG 240657Z AUTO VRB04KT 10SM CLR M02/M07 A2995 RMK AO2 SLP117 T10171067 401001017", "KFLL 240653Z 09003KT 10SM CLR 24/18 A3001 RMK AO2 SLP163 T02440183 $", "KFLO 240653Z AUTO 00000KT 10SM CLR 06/05 A3015 RMK AO2 SLP207 T00610050 $", "KFLP 240656Z AUTO 17007G16KT 140V210 10SM CLR 22/15 A2988 RMK AO2 SLP111 T02220150", "KFLY 240735Z AUTO 06007KT 360V070 10SM CLR 00/M02 A2981 RMK AO2 T10051022", "KFME 240719Z AUTO 33003KT 5SM BKN006 OVC010 12/12 A3018 RMK AO1", "KFMM 240715Z AUTO 34010G15KT 10SM BKN100 BKN120 02/00 A2976 RMK AO2 LTG DSNT S", "KFMN 240653Z AUTO 26007KT 10SM BKN033 02/M02 A2990 RMK AO2 SLP121 T00171017 401560011", "KFMY 240653Z AUTO 07004KT 10SM CLR 21/18 A3005 RMK AO2 SLP176 T02060183", "KFNB 240653Z AUTO 18019G34KT 10SM CLR 24/14 A2953 RMK AO2 PK WND 17041/0638 SLP987 T02390144", "KFNL 240656Z 22006KT 10SM CLR 03/M02 A2977 RMK AO2 SLPNO T00331017 401890028", "KFNT 240653Z AUTO 15005KT 10SM CLR 12/08 A3009 RMK AO2 SLP188 T01170083", "KFOA 240735Z AUTO 16009KT 10SM CLR 16/07 A2998 RMK AO2", "KFOD 240656Z AUTO 17015G25KT 10SM CLR 22/13 A2950 RMK AO2 SLP995 T02170133", "KFOE 240653Z AUTO 10SM CLR 23/16 A2961 RMK AO2 SLP013 T02330156 $", "KFOK 240730Z AUTO 03009KT 2 1/2SM BR OVC003 13/13 A3018 RMK AO2 RAB11E28 P0000 T01330128 $", "KFOT 240730Z AUTO 15006KT 7SM CLR 05/05 A3024 RMK AO1", "KFOZ 240733Z AUTO 13009KT 10SM SCT005 BKN015 OVC095 17/14 A2948 RMK AO2", "KFPK 240735Z AUTO 00000KT 10SM BKN120 14/09 A3006 RMK AO2 T01410088", "KFPR 240653Z AUTO 26003KT 10SM BKN036 BKN047 21/20 A3005 RMK AO2 SLP177 T02110200", "KFPY 240715Z AUTO 00000KT 3/4SM BR VV005 12/12 A3011 RMK AO2 T01240119 TSNO", "KFQD 240715Z AUTO 00000KT 10SM CLR 06/06 A3021 RMK AO2", "KFRG 240653Z AUTO 04010KT 6SM BR OVC005 13/11 A3017 RMK AO2 SLP215 T01280111 $", "KFRH 240735Z AUTO 19003KT 10SM CLR 16/04 A3006 RMK AO1", "KFRI 240655Z AUTO 17024G31KT 10SM CLR 25/15 A2952 RMK AO2 PK WND 17035/0558 SLP984 T02470145 FZRANO $", "KFRM 240656Z AUTO 17021G26KT 10SM CLR 20/14 A2945 RMK AO2 PK WND 17026/0656 SLP967 T02000144", "KFRR 240735Z AUTO 00000KT 10SM OVC025 12/11 A3017 RMK AO1", "KFSD 240656Z AUTO 28010G19KT 10SM CLR 12/05 A2942 RMK AO2 SLP956 T01220050", "KFSE 240735Z AUTO 14012G19KT 10SM +VCTSRA SCT019 BKN070 OVC110 15/14 A2930 RMK AO2 LTG DSNT ALQDS P0001", "KFSI 240655Z AUTO 18010KT 10SM CLR 23/16 A2967 RMK AO2 SLP037 T02330161", "KFSK 240715Z AUTO 19016G29KT 10SM CLR 23/13 A2970 RMK AO2 T02340133", "KFSM 240653Z AUTO 14004KT 10SM OVC070 23/17 A2984 RMK AO2 SLP100 T02330172", "KFSO 240735Z AUTO 12003KT 10SM CLR 11/06 A3027 RMK AO2 T01130060", "KFST 240653Z AUTO 25007KT 10SM CLR 19/14 A2974 RMK AO2 SLP022 T01890144 $", "KFSW 240735Z AUTO 17010KT 10SM OVC001 22/14 A2975 RMK AO2", "KFTK 240655Z AUTO 18004KT 10SM CLR 13/06 A3007 RMK AO2 SLP181 T01330055", "KFTN 240735Z AUTO 15010G16KT 10SM BKN021 OVC110 25/20 A2979 RMK A01", "KFTW 240653Z 17014G24KT 10SM OVC026 24/19 A2977 RMK AO2 PK WND 17026/0619 SLP072 T02390189 $", "KFTY 240653Z 00000KT 10SM CLR 07/06 A3016 RMK AO2 SLP210 T00670056", "KFUL 240653Z AUTO 07003KT 10SM CLR 16/12 A3000 RMK AO2 SLP157 T01560117", "KFVE 240653Z AUTO 00000KT 10SM CLR 12/06 A3033 RMK AO2 SLP268 T01220056", "KFVX 240735Z AUTO 00000KT 10SM CLR 11/10 A3015 RMK AO2 T01100103", "KFWA 240654Z 14007KT 10SM FEW120 13/07 A3005 RMK AO2 SLP174 T01330067", "KFWB 240735Z AUTO 16007G13KT 140V200 10SM FEW044 21/15 A2984 RMK AO2", "KFWC 240735Z AUTO 14006KT CLR 17/06 A2997 RMK AO1 T01710056 PWINO", "KFWN 240653Z AUTO 04007KT 10SM OVC020 14/08 A3020 RMK AO2 SLP227 T01390083 $", "KFWS 240735Z AUTO 16010KT 10SM BKN023 OVC027 23/18 A2980 RMK AO2 T02310183", "KFWZ 240715Z AUTO 00000KT 3SM BR BKN003 OVC009 M05/M06 A2984 RMK AO2", "KFXE 240653Z 29003KT 10SM CLR 22/20 A3002 RMK AO2 SLP168 T02220200 $", "KFXY 240715Z AUTO 16017G21KT 10SM SCT120 20/14 A2952 RMK AO2", "KFYE 240730Z AUTO 17007KT 10SM CLR 17/08 A3002 RMK A01", "KFYG 240715Z AUTO 16010KT 10SM CLR 23/14 A2984 RMK AO2", "KFYJ 240715Z AUTO 00000KT 10SM OVC010 14/12 A3014 RMK AO1 T01360123", "KFYV 240653Z AUTO 16016G24KT 10SM CLR 22/14 A2984 RMK AO2 SLP087 T02220144", "KFZG 240715Z AUTO 00000KT 2 1/2SM CLR 11/10 A3015 RMK AO2 VIS 1/2V5 T01050100", "KGAD 240656Z AUTO 00000KT 10SM CLR 09/07 A3016 RMK AO2 SLP214 T00890072 $", "KGAF 240735Z AUTO 01006KT 6SM BR FEW024 FEW043 BKN090 11/11 A2929 RMK AO2 LTG DSNT W-NE", "KGAG 240653Z AUTO 20014KT 10SM CLR 23/13 A2963 RMK AO2 SLP004 T02280128", "KGAI 240656Z AUTO 00000KT 6SM BR OVC004 12/12 A3017 RMK AO2 SLP229 T01220122", "KGAO 240735Z AUTO 00000KT 10SM BKN044 16/15 A3003 RMK AO2 T01610148", "KGBD 240656Z AUTO 35008KT 10SM SCT080 16/07 A2964 RMK AO2 TSB15E47RAE36 SLP018 P0002 T01560072", "KGBG 240715Z AUTO 16008KT 10SM CLR 19/15 A2982 RMK AO2 T01890152", "KGBK 240730Z AUTO 14017G25KT 9SM 26/17 A2994 RMK A01", "KGCC 240653Z AUTO 31021G39KT 5SM -SN BR FEW018 SCT024 OVC045 M02/M04 A2974 RMK AO2 PK WND 30039/0648 SNB03 SLP093 P0000 T10171039 400891017", "KGCD 240715Z AUTO 11004KT 10SM CLR 00/M02 A3018 RMK AO2 T10031021", "KGCK 240654Z AUTO 34017KT 10SM CLR 11/03 A2970 RMK AO2 PK WND 34026/0600 WSHFT 0541 SLP030 T01110033", "KGCM 240715Z AUTO 18011G15KT 10SM CLR 22/10 A2976 RMK AO2", "KGCN 240654Z AUTO 33006KT 10SM CLR M01/M08 A2998 RMK AO2 SLP132 T10111078 400831044", "KGCY 240735Z AUTO 00000KT 10SM CLR 10/04 A3016 RMK A01", "KGDB 240735Z AUTO 21012G19KT 10SM SCT055 21/13 A2937 RMK AO2 T02120134", "KGDJ 240735Z AUTO 15013G19KT 10SM -DZ SCT026 SCT036 BKN120 23/20 A2977 RMK AO2 T02300196", "KGDP 240651Z AUTO 24038G52KT 10SM OVC060 14/04 A2988 RMK AO2 PK WND 26056/0618 RAB03E45 SLP050 P0000 T01390039 402440128", "KGDV 240727Z AUTO 31019G26KT 3SM -SN BR BKN006 BKN013 OVC023 00/M01 A2961 RMK AO2 PK WND 31027/0710 CIG 003V009 P0000 FZRANO", "KGED 240654Z AUTO 34005KT 5SM BR OVC003 15/14 A3008 RMK AO2 SLP185 T01500144", "KGEG 240653Z 17008KT 10SM FEW080 FEW140 BKN210 03/00 A3010 RMK AO2 SLP207 T00280000 $", "KGEV 240715Z AUTO 00000KT 10SM CLR 08/02 A3023 RMK AO2 T00760024", "KGEY 240718Z AUTO 32016G24KT 4SM -SN BR BKN015 OVC026 00/M01 A2988 RMK AO2 P0000 T00001011", "KGEZ 240653Z AUTO 14007KT 10SM CLR 15/07 A3004 RMK AO2 SLP167 T01500067 $", "KGFA 240655Z AUTO 23007KT 9SM OVC018 00/00 A3000 RMK AO2 SLP191 T00020001 400041002 $", "KGFK 240653Z AUTO 18009G22KT 10SM -RA OVC095 17/13 A2924 RMK AO2 PK WND 15030/0601 RAB16 SLP900 P0000 T01720128 $", "KGFL 240653Z AUTO 34004KT 10SM OVC050 12/07 A3026 RMK AO2 SLP247 T01220072", "KGGE 240735Z AUTO 00000KT 10SM CLR 08/07 A3014 RMK AO2", "KGGF 240715Z AUTO 30014G23KT 10SM CLR 04/01 A2969 RMK AO2", "KGGG 240707Z AUTO 17012KT 10SM SCT021 OVC055 23/19 A2988 RMK AO2 T02280189", "KGGI 240735Z AUTO 17015G22KT 10SM CLR 22/16 A2964 RMK AO2 T02190158", "KGGP 240715Z AUTO 18008KT 10SM CLR 17/07 A3002 RMK AO2", "KGGW 240653Z AUTO 33023G34KT 3SM -SN BR BKN044 OVC060 00/M02 A2975 RMK AO2 PK WND 33034/0646 SLP100 P0001 T00001022 400670000", "KGHB 240735Z AUTO 14008G20KT 080V170 9SM SCT036 BKN048 OVC055 26/19 A2996 RMK A01", "KGHG 240715Z AUTO VRB04G12KT 1/2SM FG OVC003 13/12 A3020 RMK AO2", "KGHW 240735Z AUTO 14012KT 10SM CLR 18/16 A2934 RMK AO2 LTG DSNT SE", "KGIC 240715Z AUTO 20007KT 10SM CLR 00/M01 A3015 RMK AO1", "KGIF 240653Z AUTO 04004KT 10SM CLR A3010 RMK AO2 SLPNO", "KGJT 240700Z AUTO 36005KT 10SM FEW002 SCT018 OVC065 01/00 A2996 RMK AO2 T00110000", "KGKJ 240653Z AUTO VRB03KT 10SM CLR 11/08 A3018 RMK AO2 SLP215 T01060078", "KGKT 240735Z AUTO 00000KT 10SM CLR 06/06 A3017 RMK A01", "KGKY 240653Z AUTO 15013G20KT 10SM OVC026 24/17 A2979 RMK AO2 PK WND 17027/0606 RAB20E32 SLP076 P0000 T02390172", "KGLD 240653Z AUTO 30014KT 10SM CLR 06/02 A2973 RMK AO2 SLP037 T00560017 402780050", "KGLE 240715Z AUTO 17016G23KT 10SM BKN040 23/17 A2977 RMK AO2 T02320165", "KGLH 240653Z AUTO 17012KT 10SM SCT055 21/13 A3000 RMK AO2 SLP164 T02110128", "KGLR 240653Z AUTO 16007KT 10SM OVC100 16/08 A3003 RMK AO2 LTG DSNT SW RAB17E33 SLP165 P0000 T01610083", "KGLS 240652Z AUTO 16014KT 10SM BKN060 25/21 A2990 RMK AO2 SLP126 T02500206", "KGLW 240715Z AUTO 00000KT 10SM CLR 12/06 A3010 RMK AO2 T01190060", "KGLX 240735Z AUTO 00000KT 10SM SCT050 25/18 A3002 RMK A01", "KGLY 240735Z AUTO 16014KT 10SM CLR 22/14 A2974 RMK AO2", "KGMJ 240735Z AUTO 18012G18KT 10SM CLR 16/05 A2976 RMK AO2", "KGMU 240653Z AUTO 00000KT 10SM CLR 11/04 A3019 RMK AO2 SLP217 T01060044 PWINO $", "KGNA 240656Z AUTO 06010KT 14/12 A2964 RMK AO1 SLP036 T01390122", "KGNB 240715Z AUTO 27012G17KT 10SM OVC080 M04/M09 A2989 RMK AO2 T10411087", "KGNC 240715Z AUTO 21008KT 10SM OVC100 18/16 A2981 RMK AO2 T01770161", "KGNG 240735Z AUTO 25010KT 10SM CLR M01/M01 A3015 RMK AO2", "KGNR 240656Z AUTO 00000KT 12/04 A3032 RMK AO1 SLP268 T01220044", "KGNT 240735Z AUTO 33007KT 10SM OVC100 01/M03 A2991 RMK AO2 T00101026", "KGNV 240653Z AUTO 00000KT 10SM CLR 13/13 A3012 RMK AO2 SLP198 T01330128", "KGOK 240653Z AUTO 18019G28KT 10SM CLR 23/15 A2966 RMK AO2 PK WND 17029/0611 SLP033 T02280150", "KGON 240717Z AUTO 01008KT 10SM BKN009 OVC015 13/12 A3019 RMK AO2 CIG 008V012 T01330117", "KGOO 240730Z AUTO 06005KT 10SM CLR 09/M10 A3010 RMK A01", "KGOP 240715Z AUTO 10SM BKN023 BKN028 24/19 A2982 RMK AO2", "KGOV 240658Z AUTO 16007KT 10SM OVC100 16/09 A3003 RMK AO2 LTG DSNT W SLP172 T01590089 $", "KGPC 240735Z AUTO 16008KT 10SM CLR 14/07 A3002 RMK AO2 T01440072", "KGPH 240735Z AUTO 18013G21KT 10SM CLR 23/13 A2967 RMK AO2", "KGPI 240655Z AUTO 12003KT 10SM BKN060 OVC085 00/M01 A3005 RMK AO2 SLP194 T00001006 400891017", "KGPM 240735Z AUTO 18006G14KT 10SM OVC022 23/18 A2981 RMK AO2 T02270175", "KGPT 240727Z AUTO 00000KT 10SM BKN023 BKN030 BKN034 19/18 A3004 RMK AO2 T01890178", "KGPZ 240719Z AUTO 16008KT 10SM VCTS -RA FEW030 BKN045 OVC060 16/14 A2949 RMK AO2 LTG DSNT E-SW TSB00E13B19 P0002", "KGRB 240653Z AUTO 14012KT 10SM OVC110 16/13 A2983 RMK AO2 RAE48 SLP100 P0004 T01610133 $", "KGRD 240656Z AUTO 00000KT 10SM CLR 06/04 A3018 RMK AO2 SLP219 T00610044", "KGRF 240655Z 14006KT 10SM BKN095 08/05 A3009 RMK AO2A SLP194 T00810049 $", "KGRI 240653Z AUTO 29006KT 10SM CLR 11/04 A2959 RMK AO2 PRESRR SLP013 T01110039", "KGRK 240735Z AUTO 17016G21KT 10SM SCT021 BKN046 OVC190 24/19 A2977 RMK AO2 SLP069", "KGRN 240735Z AUTO 29016G23KT 10SM OVC050 03/M02 A2962 RMK AO2 T00321020", "KGRR 240653Z AUTO 17006KT 10SM -RA FEW085 BKN110 17/11 A3003 RMK AO2 LTG DSNT SW RAE0556B43 SLP165 P0000 T01720106 $", "KGRY 240735Z AUTO 18010G16KT 10SM BKN041 BKN048 25/16 A3000 RMK A01", "KGSB 240655Z 33005KT 10SM OVC008 15/12 A3011 RMK AO2A SLP199 T01540121 $", "KGSH 240653Z AUTO 15007KT 10SM BKN110 17/08 A3001 RMK AO2 SLP157 T01670083", "KGSO 240654Z 00000KT 10SM OVC012 11/07 A3018 RMK AO2 SLP214 T01060072", "KGSP 240653Z 00000KT 10SM CLR 07/04 A3019 RMK AO2 SLP216 T00720044", "KGTB 240733Z AUTO 15008KT 10SM -DZ BKN090 OVC110 12/05 A3021 RMK AO2 DZB17E27DZB33 SLP230", "KGTF 240653Z 24007KT 8SM FEW009 OVC017 00/M01 A3000 RMK AO2 SLP200 T00001006 400001006 $", "KGTR 240656Z AUTO 16005KT 10SM CLR 13/08 A3010 RMK AO2 SLP198 T01280083", "KGTU 240656Z AUTO 17013G25KT 10SM OVC020 24/20 A2983 RMK AO2 PK WND 18026/0609 SLP097 T02390200", "KGUC 240656Z AUTO 34004KT 10SM FEW075 SCT090 M03/M05 A2987 RMK AO2 SLP119 T10331050 FZRANO", "KGUP 240653Z AUTO 24004KT 9SM -SN BKN050 OVC070 02/M03 A2991 RMK AO2 UPB23E40SNE23B38E39B40 SLP109 P0000 T00171033 401280017", "KGUR 240720Z AUTO 31009KT 10SM BKN023 BKN055 02/M01 A2975 RMK AO2 CIG 023V055 BKN023 V SCT SLP082", "KGUS 240655Z AUTO 14006KT 10SM CLR 13/07 A2999 RMK AO2 SLP156 T01300070 $", "KGUY 240653Z AUTO 30010KT 10SM 17/00 A2968 RMK AO2 SLP004 T01720000 $", "KGVL 240653Z AUTO 00000KT 10SM CLR 10/04 A3019 RMK AO2 SLP215 T01000044", "KGVQ 240656Z AUTO 12007KT 10SM CLR 11/08 A3020 RMK AO2 SLP225 T01110083", "KGVT 240715Z AUTO 17012KT 10SM OVC028 23/17 A2982 RMK AO2 TSNO T02300174", "KGVW 240730Z AUTO 14013G22KT 10SM FEW060 25/20 A2991 RMK A01", "KGWB 240735Z AUTO 00000KT 10SM CLR 13/07 A3006 RMK AO2", "KGWO 240653Z AUTO 18010KT 10SM CLR 18/11 A3004 RMK AO2 SLP170 T01780111", "KGWR 240735Z AUTO 19015G23KT 10SM SCT021 BKN038 BKN048 12/12 A2925 RMK A01", "KGWW 240735Z AUTO 35003KT 10SM OVC009 15/14 A3014 RMK AO2 T01500141", "KGXF 240655Z AUTO 33010KT 10SM OVC090 20/M11 A2990 RMK AO2 SLP116 T01951107 402640182 FZRANO $", "KGXY 240656Z 00000KT 10SM CLR 03/M03 A2977 RMK AO2 SLP073 T00281028 402060022 $", "KGYB 240735Z AUTO 19006KT 10SM BKN025 BKN036 OVC050 24/21 A2986 RMK AO2 T02350205", "KGYF 240735Z AUTO 14028KT 10SM BKN030 BKN035 BKN055 26/20 A2988 RMK AO2 T02610196", "KGYI 240735Z AUTO 17018G24KT 10SM OVC035 24/15 A2979 RMK AO2 T02380152 TSNO", "KGYL 240735Z AUTO 16013G18KT 10SM CLR 22/15 A2941 RMK AO2 T02150146", "KGYY 240735Z AUTO 17006KT 10SM -RA BKN110 18/10 A2995 RMK AO2 LTG DSNT E AND W T01830102", "KGZH 240653Z AUTO 00000KT 9SM CLR 07/06 A3011 RMK AO2 SLP195 T00720056", "KGZL 240715Z AUTO 18012G17KT 10SM SCT060 23/16 A2979 RMK AO2 LTG DSNT S", "KGZN 240720Z AUTO 18015G21KT 10SM BKN020 OVC050 22/19 A2973 RMK AO2", "KGZS 240735Z AUTO 00000KT 10SM CLR 08/07 A3011 RMK A01", "KH71 240735Z AUTO 17015G23KT 10SM BKN047 24/14 A2973 RMK AO2", "KHAE 240735Z AUTO 18014G17KT 10SM CLR 22/12 A2981 RMK AO2", "KHAF 240735Z AUTO 03004KT 5SM BR BKN003 09/09 A3011 RMK AO2", "KHAI 240735Z AUTO 00000KT 10SM BKN110 15/09 A3005 RMK AO2 T01480087", "KHAO 240653Z AUTO 00000KT 10SM CLR 10/06 A3010 RMK AO2 SLP192 T01000056", "KHBG 240653Z AUTO 00000KT 10SM CLR 13/12 A3008 RMK AO2 SLP184 T01280117", "KHBI 240735Z AUTO 00000KT 10SM BKN008 BKN012 06/05 A3021 RMK AO2 T00570048", "KHBR 240653Z AUTO 19015KT 10SM CLR 22/14 A2967 RMK AO2 SLP029 T02220144", "KHBV 240710Z AUTO 17009G14KT 10SM BKN022 23/21 A2982 RMK AO2 T02330210", "KHCD 240735Z AUTO 15012G22KT 10SM SCT110 21/15 A2940 RMK AO2 T02110148", "KHCO 240735Z AUTO 13010KT 10SM -RA SCT028 SCT045 OVC095 16/16 A2928 RMK AO2 LTG DSNT N P0004", "KHCR 240715Z AUTO 11003KT 7SM -SN SCT007 BKN016 OVC095 M01/M04 A3004 RMK AO2", "KHDC 240723Z AUTO 00000KT 10SM CLR 14/14 A3005 RMK AO2 TSNO", "KHDE 240715Z AUTO 29013G20KT 10SM SCT110 10/03 A2962 RMK AO2 T00950027", "KHDL 240715Z AUTO 00000KT 10SM CLR 09/09 A3012 RMK AO2", "KHDN 240656Z AUTO 29006KT 10SM -SN SCT031 OVC065 M03/M05 A2995 RMK AO2 SNB55 SLP161 P0000 T10281050 FZRANO", "KHDO 240713Z AUTO 15013KT 10SM -RA SCT020 BKN038 BKN110 23/21 A2981 RMK AO2 P0000 T02330206", "KHEF 240725Z AUTO 36006KT 10SM OVC016 14/12 A3016 RMK AO2", "KHEG 240735Z AUTO 00000KT 1/2SM FG VV005 12/11 A3012 RMK AO2", "KHEI 240727Z AUTO 29026G38KT 9SM OVC009 02/01 A2945 RMK AO2 PK WND 28038/0724 T00170006", "KHEQ 240715Z AUTO 30009KT 10SM CLR 05/01 A2974 RMK AO2", "KHEY 240655Z AUTO 00000KT 10SM CLR 09/08 A3009 RMK AO2 SLP190 T00880083 $", "KHEZ 240656Z AUTO 12008KT 10SM CLR 17/14 A3004 RMK AO2 SLP172 T01720139", "KHFD 240653Z AUTO 01006KT 10SM OVC017 13/07 A3023 RMK AO2 RAB15E31 SLP237 P0000 T01280072", "KHFF 240655Z AUTO 00000KT 10SM CLR 06/06 A3013 RMK AO2 SLP205 T00560055 $", "KHFJ 240735Z AUTO 17011G19KT 10SM CLR 21/13 A2979 RMK AO2", "KHFY 240735Z AUTO 16006KT 10SM CLR 15/09 A3005 RMK AO2 T01500088", "KHGR 240653Z AUTO 34004KT 10SM OVC018 13/11 A3017 RMK AO2 SLP226 T01330111 $", "KHHF 240735Z AUTO 32003KT 10SM CLR 20/09 A2967 RMK AO2 T02000091", "KHHG 240715Z AUTO 14004KT 10SM CLR M09/M15 A3004 RMK AO2 T10901150", "KHHR 240653Z AUTO 00000KT 10SM CLR 17/11 A3001 RMK AO2 SLP160 T01720111", "KHHV 240735Z AUTO 16015G30KT 140V200 10SM BKN060 26/19 A2987 RMK A01", "KHHW 240715Z AUTO 15008KT 10SM OVC036 22/16 A2982 RMK AO2", "KHIB 240721Z AUTO 16006KT 6SM VCTS -RA BR SCT025 BKN090 OVC100 16/14 A2950 RMK AO2 LTG DSNT SE-SW RAB04 P0002 T01560144", "KHIE 240652Z AUTO 00000KT 10SM OVC100 08/07 A3030 RMK AO2 SLP265 T00780067", "KHIF 240655Z AUTO 00000KT 10SM SCT065 02/M02 A3005 RMK AO2 SLP176 T00151025 400590009 $", "KHII 240715Z AUTO 34011G17KT 10SM CLR 17/M07 A3000 RMK AO2", "KHIO 240653Z AUTO 00000KT 10SM OVC120 08/07 A3017 RMK AO2 SLP217 T00830067", "KHJH 240735Z AUTO 31009G17KT 10SM BKN095 14/04 A2960 RMK AO2 T01430041", "KHJO 240653Z AUTO 31006KT 10SM CLR 13/M02 A3008 RMK AO2 SLP188 T01331022", "KHKA 240653Z AUTO 17011KT 10SM CLR 19/09 A2999 RMK AO2 SLP153 T01940094 $", "KHKS 240653Z AUTO 12005KT 10SM CLR 16/13 A3006 RMK AO2 SLP171 T01610133", "KHKY 240653Z AUTO 00000KT 10SM CLR 08/07 A3019 RMK AO2 SLP210 T00830072", "KHLB 240735Z AUTO 18004KT 10SM CLR 13/05 A3007 RMK A01", "KHLC 240653Z AUTO 33009KT 10SM FEW120 12/04 A2966 RMK AO2 RAB0557E06 SLP024 P0000 T01170039", "KHLG 240653Z AUTO 00000KT 10SM CLR 11/04 A3016 RMK AO2 SLP215 T01060039", "KHLN 240653Z AUTO 16003KT 10SM FEW032 BKN044 OVC070 02/M02 A3002 RMK AO2 SLP208 T00171017 400220011", "KHLR 240655Z AUTO 18017G24KT 10SM BKN022 OVC029 24/19 A2981 RMK AO2 BKN V OVC SLP084 T02390192", "KHLX 240735Z AUTO 24004KT 10SM CLR 06/03 A3021 RMK AO2 T00550027", "KHMN 240655Z AUTO 14011KT 10SM BKN100 OVC120 16/06 A2984 RMK AO2 SLP048 T01550060 402390143 $", "KHMP 240735Z AUTO 00000KT 10SM CLR 06/06 A3019 RMK AO2 T00640061", "KHMT 240735Z AUTO 00000KT 10SM CLR 11/10 A3003 RMK AO2 T01080104", "KHMZ 240715Z AUTO 00000KT 10SM OVC039 12/09 A3019 RMK AO2 T01180088", "KHNB 240656Z AUTO 18008KT 10SM CLR 17/07 A3006 RMK AO2 SLP176 T01720072", "KHND 240656Z AUTO 00000KT 10SM CLR 11/M07 A3011 RMK AO2 SLP208 T01061067 401780100", "KHNR 240715Z AUTO 19022G33KT 10SM CLR 23/15 A2949 RMK A01", "KHNZ 240735Z AUTO 00000KT 10SM BKN018 11/11 A3016 RMK AO2 T01130112", "KHOB 240735Z AUTO 26024G33KT 9SM -RA SCT044 BKN060 OVC075 16/08 A2980 RMK AO2", "KHOE 240735Z AUTO 00000KT 10SM CLR 09/08 A3013 RMK AO2 T00920081", "KHON 240655Z AUTO 27015G22KT 10SM CLR 09/05 A2937 RMK AO2 PK WND 28028/0616 RAE01 SLP943 P0000 T00940050", "KHOP 240655Z AUTO 14006KT 10SM CLR 16/06 A3005 RMK AO2 SLP175 T01630061", "KHOT 240653Z AUTO 16008KT 10SM FEW060 22/16 A2992 RMK AO2 SLP126 T02170161", "KHOU 240653Z 16013G18KT 10SM BKN055 OVC250 25/20 A2988 RMK AO2 SLP123 T02500200", "KHPN 240656Z 05008KT 010V070 5SM -DZ OVC005 12/11 A3018 RMK AO2 SLP221 P0000 T01220111 $", "KHPT 240715Z AUTO 17016G22KT 10SM CLR 20/13 A2956 RMK AO2", "KHQG 240735Z AUTO 35017G22KT 10SM CLR 14/M01 A2975 RMK AO2 T01401012", "KHQG 240735Z AUTO 35017G22KT 10SM CLR 14/M01 A2975 RMK AO2 T01401012", "KHQM 240653Z AUTO 14007KT 10SM -RA OVC050 11/08 A3010 RMK AO2 RAB0558 SLP196 P0003 T01110078", "KHQU 240735Z AUTO 00000KT 10SM CLR 07/06 A3017 RMK AO2 T00690062", "KHQZ 240735Z AUTO 16009KT 10SM OVC026 22/17 A2981 RMK AO1 T02150168", "KHRF 240735Z AUTO 00000KT 10SM OVC060 01/M01 A3010 RMK AO2", "KHRI 240653Z AUTO 19007KT 10SM CLR 06/02 A3016 RMK AO2 SLP215 T00610017", "KHRJ 240735Z AUTO 03007KT 10SM OVC010 15/13 A3016 RMK AO2 T01510133", "KHRL 240652Z AUTO 16015KT 10SM SCT036 BKN055 26/22 A2983 RMK AO2 SLP100 T02610217 $", "KHRO 240653Z AUTO 16008KT 10SM FEW036 21/14 A2987 RMK AO2 SLP100 T02060139", "KHRT 240655Z 00000KT 10SM CLR 11/09 A3008 RMK AO2A SLP188 T01060089 $", "KHRX 240735Z AUTO 27007KT 10SM CLR 15/06 A2977 RMK AO2 T01530055", "KHSB 240735Z AUTO 16008KT 10SM CLR 18/10 A2999 RMK AO2 T01790100", "KHSD 240735Z AUTO 18020G26KT 10SM CLR 23/16 A2965 RMK A01", "KHSE 240651Z AUTO VRB06KT 10SM OVC007 16/15 A3008 RMK AO2 SLP186 T01560150 $", "KHSG 240710Z AUTO 00000KT 5SM -SN BKN016 OVC023 M01/M02 A2991 RMK AO2 T10101021", "KHSI 240653Z AUTO 31009KT 10SM CLR 11/04 A2958 RMK AO2 SLP004 T01110039", "KHSP 240735Z AUTO 28006KT 10SM CLR A3022 RMK AO2", "KHST 240655Z AUTO 31004KT 10SM CLR 21/19 A3000 RMK AO2 SLP162 T02120191", "KHSV 240653Z AUTO 12005KT 10SM CLR 13/07 A3012 RMK AO2 SLP195 T01280072", "KHTL 240653Z AUTO 16008KT 10SM FEW110 15/09 A3005 RMK AO2 SLP173 T01500089 $", "KHTS 240651Z 00000KT 10SM CLR 08/06 A3013 RMK AO2 SLP199 T00830056", "KHUF 240653Z 17007KT 10SM CLR 17/08 A3000 RMK AO2 SLP155 T01720083", "KHUL 240653Z AUTO 00000KT 10SM CLR 09/08 A3034 RMK AO2 SLP274 T00940078", "KHUM 240715Z AUTO 00000KT 1 1/4SM BR BKN039 16/16 A3003 RMK AO2 VIS 1/2V4 T01580155", "KHUT 240652Z AUTO 19018G29KT 10SM CLR 23/14 A2956 RMK AO2 PK WND 20035/0618 SLP986 T02280144", "KHVE 240715Z AUTO 30004KT 10SM CLR 02/M04 A3001 RMK AO2", "KHVN 240653Z AUTO 01010KT 6SM BR OVC010 12/11 A3020 RMK AO2 RAE01 SLP225 P0000 T01170106", "KHVR 240653Z AUTO 31006KT -SN FEW046 OVC060 00/M01 A2997 RMK AO2 SLP171 P0000 T00001011 400220000 $", "KHVS 240735Z AUTO 00000KT 10SM BKN029 BKN037 BKN050 06/04 A3015 RMK AO2", "KHWD 240654Z AUTO 06006KT 10SM CLR 12/02 A3011 RMK AO2 SLP205 T01170022", "KHWO 240653Z 31004KT 10SM CLR 21/19 A3004 RMK AO2 SLP170 T02110189", "KHWV 240656Z AUTO VRB06KT 4SM BR OVC004 14/12 A3018 RMK AO2 SLP220 T01390122", "KHWY 240735Z AUTO 01003KT 10SM OVC019 15/12 A3019 RMK AO2 T01450120", "KHXD 240735Z AUTO 00000KT 10SM CLR 13/12 A3015 RMK AO2", "KHYA 240656Z AUTO 35005KT 1/2SM FG VV002 14/14 A3017 RMK AO2 SLP216 T01390139", "KHYI 240720Z AUTO 18015KT 10SM SCT020 BKN034 OVC046 RMK AO2 FZRANO $", "KHYR 240729Z AUTO 17012G20KT 5SM +TSRA FEW027 SCT041 OVC060 18/15 A2961 RMK AO2 PK WND 13026/0708 LTG DSNT SW-NW RAB24 TSB23 PRESRR P0006 T01830150", "KHYS 240656Z AUTO 10SM CLR 13/03 A2961 RMK AO2 SLP012 T01330033 $", "KHYW 240735Z AUTO 00000KT 10SM CLR 06/06 A3014 RMK AO2", "KHYX 240735Z AUTO 14006KT 10SM CLR 13/08 A3008 RMK AO2 T01260078", "KHZD 240735Z AUTO 12005KT 10SM CLR 16/08 A3003 RMK A01", "KHZE 240735Z AUTO 34020G31KT 7SM -RA OVC017 05/05 A2933 RMK AO2 LTG DSNT ALQDS", "KHZL 240735Z AUTO 00000KT 3SM +RA OVC008 11/11 A3021 RMK AO2 P0010", "KHZR 240715Z AUTO 10004KT 10SM CLR 16/14 A3002 RMK AO2 T01580141", "KHZX 240735Z AUTO 16010KT 10SM SCT025 BKN032 OVC050 18/15 A2946 RMK AO2", "KHZY 240653Z AUTO 19004KT 10SM CLR 09/04 A3018 RMK AO2 SLP218 T00890044", "KI23 240735Z AUTO 16003KT 10SM CLR 08/04 A3012 RMK AO1", "KI35 240735Z AUTO 00000KT 10SM CLR 05/05 A3018 RMK AO2 T00510051", "KI63 240715Z AUTO 19009G14KT 10SM CLR 21/13 A2982 RMK AO2 T02090127", "KI67 240735Z AUTO 00000KT 10SM CLR 07/06 A3009 RMK AO1", "KI68 240735Z AUTO 13004KT 10SM CLR 13/05 A3010 RMK AO1 T01300047", "KI69 240735Z AUTO 00000KT 10SM CLR 11/05 A3012 RMK AO2 T01080050", "KI74 240715Z AUTO 00000KT 10SM CLR 10/06 A3011 RMK AO2", "KI75 240715Z AUTO 17017G23KT 10SM CLR 22/15 A2962 RMK AO2 T02160150", "KIAB 240726Z 22017G25KT 4SM -TSRA SCT035CB BKN070 BKN100 21/16 A2960 RMK SLP013", "KIAD 240714Z 34006KT 10SM OVC010 14/12 A3016 RMK AO2 T01440122", "KIAG 240653Z AUTO 00000KT 10SM CLR 08/04 A3019 RMK AO2 SLP223 T00830039", "KIAH 240653Z 17010G21KT 10SM SCT026 OVC250 24/20 A2988 RMK AO2 SLP117 T02440200", "KIBM 240715Z AUTO 31007KT 10SM CLR 00/M01 A2974 RMK AO2 T00011015", "KICL 240715Z AUTO 20021G29KT 10SM CLR 23/14 A2956 RMK AO2", "KICR 240713Z AUTO 28016G27KT OVC030 07/02 A2955 RMK AO2 PK WND 27027/0707 T00720017", "KICT 240719Z 18024G37KT 10SM VCTS OVC110 23/15 A2960 RMK AO2 PK WND 19037/0715 LTG DSNT S RAB0659E09 TSE13 P0000 T02280150", "KIDA 240653Z AUTO 34005KT 10SM BKN070 BKN100 01/M04 A3006 RMK AO2 SLP188 T00061044 400560006", "KIDI 240735Z AUTO 00000KT 10SM CLR 07/07 A3021 RMK A01", "KIDP 240715Z AUTO 18016G22KT 10SM CLR 23/13 A2970 RMK AO2 T02290134", "KIEN 240652Z AUTO 28017G29KT 10SM BKN043 BKN055 OVC075 04/M01 A2963 RMK AO2 PK WND 26029/0648 SLP035 T00391006 401561022", "KIER 240735Z AUTO 16010KT 10SM CLR 20/16 A2996 RMK AO2 T02010160", "KIFA 240735Z AUTO 16015G21KT 10SM CLR 21/15 A2958 RMK AO2 T02050153", "KIFP 240735Z AUTO 01016G23KT 10SM CLR 16/M05 A3002 RMK AO2", "KIGM 240651Z AUTO 35008KT 10SM CLR 07/M05 A3005 RMK AO2 SLP138 T00671050 401780061", "KIGQ 240735Z AUTO 18008KT 10SM -RA SCT100 SCT120 17/10 A2994 RMK AO2 LTG DSNT NE AND W T01730099", "KIIB 240715Z AUTO 16017G22KT 10SM CLR 19/16 A2967 RMK AO2 T01850155", "KIIY 240735Z AUTO 00000KT 10SM CLR 09/07 A3017 RMK AO2 T00880071", "KIJD 240652Z AUTO 02005KT 10SM OVC013 12/09 A3022 RMK AO2 RAE0558 SLP234 P0000 T01170094", "KIJX 240715Z AUTO 17010G17KT 10SM SCT120 21/12 A2985 RMK AO2 T02060122", "KIKK 240715Z AUTO 16006KT 10SM SCT044 SCT065 SCT085 16/10 A2994 RMK AO2 T01610104", "KIKV 240715Z AUTO 18018G24KT 10SM CLR 22/15 A2958 RMK AO2", "KIKW 240735Z AUTO 13005KT 10SM CLR 15/09 A3006 RMK AO2 T01500092", "KILE 240656Z AUTO 18015G20KT 10SM BKN024 OVC033 24/20 A2982 RMK AO2 PK WND 18026/0624 SLP084 T02390200", "KILG 240651Z AUTO 02009KT 6SM -RA BR OVC006 13/12 A3014 RMK AO2 RAB0552 CIG 004V009 SLP205 P0006 T01280117", "KILM 240723Z AUTO 00000KT 10SM OVC008 14/13 A3012 RMK AO2 T01390128 PWINO", "KILN 240654Z AUTO 16004KT 10SM CLR 13/05 A3011 RMK AO2 SLP195 T01280050", "KIML 240653Z AUTO 31015G21KT 10SM CLR 06/01 A2971 RMK AO2 SLP040 T00560006 402830017 $", "KIMS 240735Z AUTO 00000KT 10SM CLR 13/07 A3010 RMK AO2", "KIMT 240654Z AUTO 14009KT 9SM OVC110 14/13 A2981 RMK AO2 RAE03B28E54 SLP094 P0000 T01440133", "KIND 240654Z 15008KT 10SM CLR 14/07 A3002 RMK AO2 SLP162 T01390072 $", "KINF 240735Z AUTO 00000KT 1SM BR VV007 13/13 A3009 RMK AO2", "KINJ 240735Z AUTO 17015KT 10SM BKN028 OVC120 23/20 A2980 RMK AO2 T02250200", "KINK 240653Z AUTO 21003KT 9SM OVC100 18/16 A2975 RMK AO2 SLP030 T01830161 $", "KINL 240723Z AUTO 11008KT 10SM -RA FEW022 OVC032 14/13 A2945 RMK AO2 LTG DSNT NE AND NW TSE09 P0007 T01440133", "KINS 240655Z AUTO 04003KT 10SM CLR 07/M09 A3013 RMK AO2 SLP188 T00701094 $", "KINT 240654Z AUTO 01004KT 10SM CLR 10/06 A3019 RMK AO2 SLP218 T01000061", "KINW 240656Z AUTO 32011KT 10SM OVC070 06/M06 A2995 RMK AO2 SLP119 T00611056 401670061", "KIOB 240735Z AUTO 20004KT 10SM CLR 06/04 A3014 RMK AO2 PWINO", "KIOW 240652Z AUTO 16011G20KT 10SM CLR 21/15 A2972 RMK AO2 LTG DSNT SE SLP060 T02060150", "KIPJ 240735Z AUTO 00000KT 10SM CLR 04/04 A3019 RMK AO2 T00430039", "KIPT 240736Z AUTO 00000KT 5SM -RA BR FEW028 OVC036 12/12 A3018 RMK AO2 RAE0657B23 P0000 T01220117", "KIRK 240655Z AUTO 17017G25KT 10SM CLR 22/14 A2974 RMK AO2 PK WND 16032/0635 SLP063 T02170139", "KIRS 240735Z AUTO 15004KT 10SM SCT110 16/07 A3004 RMK AO2 T01570070", "KISM 240656Z AUTO 00000KT 10SM CLR 20/18 A3010 RMK AO2 SLP191 T02000183 PNO $", "KISO 240735Z AUTO 35007KT 10SM OVC009 15/14 A3014 RMK AO2 T01530136", "KISP 240656Z AUTO 03010KT 5SM BR OVC004 13/12 A3017 RMK AO2 SLP215 T01280122", "KISQ 240735Z AUTO 14009G15KT 10SM OVC046 13/11 A2992 RMK AO2 T01290105", "KISW 240654Z AUTO 15009G16KT 10SM -RA FEW075 SCT095 OVC110 17/16 A2976 RMK AO2 RAB16 SLP073 P0002 T01720156", "KITH 240656Z AUTO 07003KT 10SM BKN110 11/11 A3022 RMK AO2 RAE04 SLP233 P0000 T01110111", "KITR 240653Z AUTO 31012KT 10SM CLR 05/01 A2976 RMK AO2 SLP039 T00500011 402670044 $", "KIUA 240735Z AUTO 00000KT 10SM OVC110 12/09 A3021 RMK AO2 T01150091", "KIWA 240735Z AUTO 33012KT 10SM SCT120 17/M09 A2989 RMK AO2 T01721092", "KIWD 240656Z AUTO 18012G24KT 10SM FEW085 18/14 A2963 RMK AO2 SLP030 T01780144", "KIWI 240653Z AUTO 00000KT 10SM OVC010 12/09 A3031 RMK AO2 RAB14E45 SLP263 P0001 T01220089", "KIXA 240735Z AUTO 05004KT 10SM OVC011 13/13 A3014 RMK AO2", "KIXD 240653Z AUTO 18017G30KT 10SM CLR 23/14 A2967 RMK AO2 PK WND 18033/0615 SLP035 T02330139 $", "KIYA 240735Z AUTO 09003KT CLR 18/14 A2999 RMK AO2 T01810144 PWINO", "KIZA 240715Z AUTO 09004KT 10SM BKN019 08/05 A3005 RMK AO2", "KIZG 240654Z AUTO 00000KT 10SM OVC029 11/07 A3031 RMK AO2 SLP266 T01060072", "KJAC 240656Z AUTO 27005KT 9SM OVC060 M02/M05 A2995 RMK AO2 SNE56 SLP172 T10221050 400331022 FZRANO PNO $", "KJAN 240654Z AUTO 00000KT 10SM CLR 12/11 A3007 RMK AO2 SLP178 T01220106", "KJAQ 240735Z AUTO 00000KT 10SM CLR 12/M09 A3006 RMK AO1 T01171087", "KJAS 240715Z AUTO 14004KT 9SM BKN030 BKN036 21/21 A2991 RMK AO2", "KJAU 240735Z AUTO 00000KT 10SM CLR 04/03 A3021 RMK A01", "KJAX 240656Z 00000KT 10SM CLR 13/12 A3010 RMK AO2 SLP192 T01280117", "KJBR 240653Z AUTO 17009KT 10SM CLR 19/11 A2997 RMK AO2 SLP146 T01890111 $", "KJCA 240735Z AUTO 02003KT 10SM CLR 08/05 A3018 RMK AO2 T00750048", "KJCT 240651Z AUTO 17016G26KT 10SM BKN025 OVC100 23/19 A2981 RMK AO2 PK WND 16029/0600 SLP057 T02330189 $", "KJDD 240735Z AUTO 17005KT 10SM OVC046 23/19 A2985 RMK AO2", "KJDN 240648Z AUTO 31022G33KT M01/M02 A2978 RMK AO1 PK WND 32034/0621 SLP109 P0002 T10061017 400671006", "KJEF 240653Z AUTO 17008KT 10SM CLR 24/13 A2982 RMK AO2 SLP084 T02390133 $", "KJER 240653Z AUTO 24008KT 10SM CLR 00/M03 A3012 RMK AO2 SLP212 T00001028 400831011", "KJES 240715Z AUTO 00000KT 10SM CLR M29/M30 A3016 RMK AO2", "KJFK 240651Z 03010KT 10SM -RA BKN008 OVC013 13/12 A3018 RMK AO2 RAB0557 SLP219 P0001 T01280117", "KJFX 240735Z AUTO 00000KT 4SM BR CLR 06/06 A3012 RMK AO2", "KJFZ 240735Z AUTO 00000KT 10SM CLR 09/00 A3020 RMK AO2 T00880000", "KJHN 240735Z AUTO 34014KT 10SM CLR 10/01 A2977 RMK AO2 T00980007", "KJHW 240656Z AUTO 18004KT 10SM CLR 09/07 A3021 RMK AO2 SLP232 T00940067", "KJKA 240715Z AUTO 00000KT 10SM CLR 14/14 A3007 RMK AO2", "KJKJ 240735Z AUTO 12009KT 10SM CLR 16/13 A2924 RMK AO2 TSNO", "KJKL 240653Z AUTO 18003KT 10SM CLR 14/04 A3015 RMK AO2 SLP199 T01390044", "KJLN 240653Z AUTO 18016G36KT 10SM CLR 23/13 A2975 RMK AO2 PK WND 19038/0618 SLP061 T02330128 $", "KJMR 240735Z AUTO 14010G17KT 10SM CLR 20/15 A2949 RMK AO2", "KJMS 240656Z AUTO 11013KT 10SM CLR 16/11 A2916 RMK AO2 PK WND 11027/0605 SLP871 T01560106", "KJNX 240735Z AUTO 03005KT 10SM OVC011 16/13 A3014 RMK AO2", "KJOT 240715Z AUTO 18008KT 10SM BKN110 19/10 A2992 RMK AO2 T01920097", "KJPX 240735Z AUTO 02004KT 7SM OVC004 13/13 A3017 RMK AO2 T01300130", "KJQF 240735Z AUTO 00000KT 7SM CLR 05/05 A3021 RMK AO2", "KJRB 240708Z AUTO 03010G17KT 9SM OVC008 A3018 RMK AO2 FZRANO $", "KJRO 240735Z AUTO 00000KT 10SM CLR 03/03 A3015 RMK AO2", "KJSL 240720Z AUTO 16009G21KT 130V220 10SM BKN055 26/17 A2998 RMK A01", "KJSO 240735Z AUTO 19009G15KT 10SM BKN020 BKN049 22/19 A2990 RMK AO2 T02160191 TSNO", "KJST 240654Z AUTO 17003KT CLR 11/09 A3019 RMK AO2 SLP224 T01110089 $", "KJSV 240715Z AUTO 18007G13KT 10SM OVC060 24/15 A2981 RMK AO2", "KJSY 240735Z AUTO 10SM CLR M01/M04 A3015 RMK AO2 T10151043 TSNO", "KJTC 240735Z AUTO 29007KT 1 1/4SM -SN SCT001 OVC010 M01/M02 A2996 RMK AO2", "KJVL 240715Z AUTO 18011KT 10SM SCT110 19/12 A2983 RMK AO2", "KJVW 240715Z AUTO 10005KT 10SM CLR 16/16 A3005 RMK AO2", "KJVY 240715Z AUTO 00000KT 10SM CLR 08/07 A3008 RMK AO2 PWINO", "KJWG 240735Z AUTO 19017G22KT 10SM CLR 23/14 A2968 RMK AO2 T02270144", "KJWN 240735Z AUTO 00000KT 10SM 13/07 A3009 RMK A01", "KJWY 240735Z AUTO 18010KT 10SM OVC022 21/19 A2981 RMK AO2 T02100190", "KJXI 240735Z AUTO 15008KT 10SM BKN025 BKN043 23/18 A2987 RMK AO2 T02270175", "KJXN 240656Z AUTO 13003KT 10SM CLR 14/08 A3007 RMK AO2 SLP180 T01440083", "KJYG 240735Z AUTO 16020G26KT 10SM CLR 21/13 A2941 RMK AO2", "KJYL 240735Z AUTO 00000KT 10SM CLR 07/06 A3016 RMK AO2 T00740061", "KJYM 240735Z AUTO 14003KT 10SM CLR 13/07 A3008 RMK AO2 T01260067", "KJYO 240735Z AUTO 36003KT 10SM OVC014 13/13 A3018 RMK AO2", "KJYR 240715Z AUTO 31010KT 10SM CLR 12/04 A2956 RMK AO2", "KJZI 240735Z AUTO 32004KT 10SM CLR 11/10 A3014 RMK AO2", "KK62 240715Z AUTO 19006KT 10SM CLR 12/02 A3010 RMK AO2", "KK70 240735Z AUTO 05004KT 10SM FEW033 25/21 A2999 RMK AO2", "KK88 240735Z AUTO 17019G26KT 10SM CLR 22/13 A2969 RMK AO1 T02230126", "KKLS 240656Z AUTO 14006KT 10SM OVC100 09/07 A3017 RMK AO2 SLP219 T00940072", "KKY8 240735Z AUTO 00000KT 10SM CLR 17/08 A3006 RMK A01", "KL08 240735Z AUTO 36011KT 10SM FEW047 SCT065 BKN075 18/M08 A2998 RMK AO2", "KL18 240735Z AUTO 35005KT 10SM CLR 13/10 A3002 RMK AO2", "KL35 240735Z AUTO 12004KT 10SM CLR 00/M12 A3013 RMK AO2", "KL52 240735Z AUTO 00000KT 10SM CLR 07/04 A3007 RMK A01", "KLAA 240653Z AUTO 02006KT 10SM CLR 07/01 A2975 RMK AO2 PRESRR SLP037 T00720011 402890072", "KLAF 240654Z AUTO 17005KT 10SM CLR 17/08 A2997 RMK AO2 SLP146 T01720078", "KLAL 240735Z AUTO 00000KT 10SM CLR 18/17 A3008 RMK AO2 T01810171", "KLAM 240715Z AUTO 28009KT 10SM SCT120 02/M08 A2986 RMK AO2 T00161082", "KLAN 240653Z 15008KT 10SM CLR 16/09 A3006 RMK AO2 SLP177 T01610089", "KLAR 240725Z AUTO 26006KT 5SM -SN BR FEW011 BKN031 OVC055 M03/M04 A2979 RMK AO2 SNB0657 P0000 T10281039 $", "KLAS 240656Z 34010KT 10SM CLR 12/M08 A3009 RMK AO2 SLP182 T01221083", "KLAW 240653Z AUTO 17010KT 10SM CLR 24/16 A2969 RMK AO2 SLP039 T02390161", "KLAX 240653Z 10005KT 10SM CLR 16/12 A3001 RMK AO2 SLP159 T01610117", "KLBB 240653Z 20018G27KT 10SM SCT085 OVC100 19/15 A2972 RMK AO2 PK WND 20027/0650 SLP014 T01890150", "KLBE 240735Z AUTO 00000KT 10SM CLR 07/07 A3017 RMK AO2", "KLBF 240653Z AUTO 28009KT 10SM FEW100 07/02 A2966 RMK AO2 SLP025 T00670022", "KLBL 240656Z AUTO 33016KT 10SM SCT110 18/M01 A2967 RMK AO2 SLP014 T01781006", "KLBO 240735Z AUTO 17012G15KT 10SM CLR 19/11 A2985 RMK AO2", "KLBT 240656Z AUTO 00000KT 10SM CLR 07/06 A3013 RMK AO2 SLP203 T00720061 TSNO $", "KLBX 240653Z AUTO 17013G22KT 10SM SCT060 25/19 A2989 RMK AO2 PK WND 15027/0622 SLP120 T02500194", "KLCG 240735Z AUTO 29010KT 10SM SCT050 12/05 A2951 RMK AO2 T01150045", "KLCH 240653Z AUTO 13009KT 10SM CLR 19/18 A2995 RMK AO2 SLP150 T01940183", "KLCI 240656Z AUTO 07006KT 8SM -RA BKN020 OVC024 13/10 A3030 RMK AO2 RAB49 SLP260 P0000 T01280100", "KLCK 240655Z AUTO 00000KT 10SM CLR 09/06 A3012 RMK AO2 T00900059", "KLCQ 240715Z AUTO 00000KT 1/4SM FG BKN003 12/12 A3010 RMK AO2", "KLDJ 240735Z AUTO 05008G17KT 5SM BR OVC008 13/11 A3017 RMK AO2 P0001 T01260112", "KLDM 240735Z AUTO 13006KT 10SM RA BKN120 17/13 A2994 RMK AO2 T01660127 P0002", "KLEB 240733Z AUTO 00000KT 10SM BKN026 OVC034 11/09 A3030 RMK AO2 RAB0658E14 P0000 T01110089", "KLEE 240653Z AUTO 02003KT 10SM CLR 17/16 A3010 RMK AO2 SLP191 T01720161 $", "KLEW 240656Z AUTO 36003KT 10SM BKN018 BKN026 OVC070 11/11 A3031 RMK AO2 RAE29 SLP269 P0001 T01110111", "KLEX 240654Z AUTO 17006KT 10SM CLR 14/03 A3012 RMK AO2 SLP192 T01440033", "KLFI 240731Z AUTO 33008KT 8SM OVC007 14/14 A3009 RMK AO2 SLP196 $", "KLFK 240653Z AUTO 15007KT 10SM SCT029 22/20 A2989 RMK AO2 SLP119 T02220200", "KLFT 240653Z AUTO 11003KT 10SM CLR 18/16 A3000 RMK AO2 SLP157 T01830156", "KLGA 240651Z 04013KT 8SM OVC010 13/11 A3019 RMK AO2 RAB0553E04B37E50 SLP228 P0000 T01280106 $", "KLGB 240653Z 00000KT 10SM CLR 17/11 A3000 RMK AO2 SLP159 T01720111", "KLGC 240715Z AUTO 00000KT 10SM CLR 07/06 A3015 RMK AO2 T00700057", "KLGD 240656Z AUTO 00000KT 10SM CLR M03/M04 A3018 RMK AO2 SLP240 T10281039 FZRANO", "KLGF 240655Z AUTO 35008KT M M CLR 19/M07 A2992 RMK AO2 SLP130 T01891067 402700187 RVRNO PWINO TSNO $", "KLGU 240651Z AUTO 21003KT 10SM SCT025 SCT044 BKN075 01/01 A3007 RMK AO2 SLP188 T00110006 400500006", "KLHB 240735Z AUTO 17014G20KT 10SM BKN023 BKN029 OVC040 25/20 A2986 RMK AO2 T02460200", "KLHM 240735Z AUTO 36005KT 10SM CLR 11/M05 A3008 RMK AO1", "KLHQ 240653Z AUTO 00000KT 10SM CLR 05/04 A3013 RMK AO2 SLP200 T00500044", "KLHW 240655Z AUTO 00000KT 10SM CLR 10/09 A3011 RMK AO2 SLP199 T00990090 $", "KLHX 240653Z AUTO 03003KT 10SM CLR 06/00 A2978 RMK AO2 SLP045 T00560000 402670056 $", "KLHZ 240735Z AUTO 00000KT 7SM SCT018 11/11 A3017 RMK AO2", "KLIC 240655Z AUTO 00000KT 10SM BKN110 01/M01 A2978 RMK AO2 SLP040 T00111011 402280011 $", "KLIT 240653Z 17005KT 10SM SCT060 SCT250 22/15 A2994 RMK AO2 SLP137 T02170150", "KLJF 240735Z AUTO 15010G17KT 10SM CLR 20/14 A2937 RMK AO2", "KLKR 240735Z AUTO 00000KT 8SM SCT032 06/05 A3017 RMK AO2", "KLKU 240735Z AUTO 34003KT 10SM OVC015 12/12 A3016 RMK AO2 T01210115", "KLKV 240653Z AUTO 26003KT 10SM CLR M06/M08 A3022 RMK AO2 SLP266 T10611083 FZRANO", "KLLJ 240655Z AUTO 00000KT 10SM CLR M02/M09 A3010 RMK AO2 SLP205 T10221089 400501033 $", "KLLN 240715Z AUTO 20013KT 10SM FEW055 OVC065 17/15 A2975 RMK AO2", "KLLQ 240653Z AUTO 17006KT 10SM CLR 22/14 A2999 RMK AO2 SLP151 T02170144", "KLMO 240715Z AUTO 27005KT 10SM CLR 04/00 A2978 RMK AO2 T00431004", "KLMT 240653Z AUTO 00000KT 10SM CLR M04/M06 A3021 RMK AO2 SLP242 T10391056", "KLNA 240735Z AUTO 00000KT 10SM SCT033 25/20 A3003 RMK AO2 T02470200 PNO", "KLNC 240735Z AUTO 17007G14KT 10SM -RA OVC024 21/18 A2981 RMK AO2 P0001 T02120181", "KLND 240713Z AUTO 08003KT 10SM SCT012 OVC018 M01/M03 A2989 RMK AO2 T10061028", "KLNK 240721Z AUTO 30013G23KT 10SM FEW049 17/06 A2951 RMK AO2 PK WND 21033/0658 WSHFT 0701 T01720056", "KLNL 240735Z AUTO 17008KT 150V210 10SM BKN011 OVC085 16/15 A2977 RMK AO2 P0002 T01550146", "KLNN 240735Z AUTO 18006KT 10SM CLR 13/00 A3014 RMK AO1 T01330002", "KLNP 240735Z AUTO 00000KT 10SM CLR 11/02 A3020 RMK AO2", "KLNQ 240735Z AUTO 00000KT 7SM BKN047 21/18 A3004 RMK AO2 T02070184", "KLNR 240720Z AUTO 13007G17KT 120V180 10SM VCTS FEW075 FEW090 OVC110 21/15 A2976 RMK AO2 RAB01E11 P0000 T02110150", "KLNS 240733Z AUTO 02009KT 4SM BR SCT005 OVC014 13/11 A3016 RMK AO2 T01280111", "KLOL 240653Z AUTO 00000KT 10SM CLR A3023 RMK AO2 SLPNO $", "KLOM 240715Z AUTO 05004KT 5SM RA BR OVC005 12/11 A3016 RMK AO2 T01160114", "KLOR 240655Z AUTO 00000KT 7SM CLR 07/07 A3011 RMK AO2 SLP179 T00720069 $", "KLOT 240715Z AUTO 17014KT 10SM VCTS FEW055 SCT065 OVC110 19/10 A2992 RMK AO2 LTG DSNT SW", "KLOU 240653Z AUTO 00000KT 10SM CLR 12/06 A3007 RMK AO2 SLP180 T01220061", "KLOZ 240653Z AUTO 00000KT 10SM CLR 07/04 A3014 RMK AO2 SLP203 T00670039", "KLPC 240656Z AUTO 00000KT 10SM CLR 07/05 A3006 RMK AO2 SLP182 T00720050", "KLPR 240653Z AUTO 17004KT 10SM CLR 09/06 A3013 RMK AO2 SLP202 T00940056", "KLQK 240735Z AUTO 10SM CLR 04/04 A3017 RMK AO2 T00400038", "KLRD 240656Z AUTO 16016G23KT 10SM BKN020 OVC110 25/21 A2978 RMK AO2 SLP079 T02500211", "KLRF 240655Z AUTO 19006KT 10SM FEW065 21/15 A2992 RMK AO2 SLP132 T02140150", "KLRJ 240715Z AUTO 27009G15KT 10SM SCT050 OVC060 15/06 A2945 RMK AO2", "KLRO 240735Z AUTO 00000KT 10SM CLR 10/10 A3013 RMK AO2", "KLRU 240735Z AUTO 23009KT 10SM CLR 13/07 A2984 RMK AO2 T01310073", "KLRY 240735Z AUTO 20009G14KT 10SM CLR 23/13 A2973 RMK AO2", "KLSE 240653Z AUTO 16015G30KT 10SM CLR 21/15 A2965 RMK AO2 PK WND 18030/0649 SLP030 T02060150 $", "KLSF 240655Z AUTO 00000KT 10SM CLR 08/07 A3013 RMK AO2 SLP207 T00760070 CHINO RWY15 $", "KLSV 240655Z AUTO 04004KT 10SM CLR 11/M07 A3007 RMK AO2 SLP175 T01141070", "KLTS 240655Z AUTO 17008KT 10SM FEW140 SCT170 OVC220 23/15 A2965 RMK AO2 SLP025 T02260147 $", "KLUA 240735Z AUTO 00000KT 10SM OVC022 13/11 A3018 RMK AO2", "KLUD 240735Z AUTO 17015G20KT 7SM SCT032 SCT038 23/18 A2975 RMK AO2 T02320180", "KLUF 240655Z AUTO 33010KT 10SM CLR 17/M08 A2987 RMK AO2 SLP108 T01701082 402530168 $", "KLUG 240735Z AUTO 00000KT 10SM CLR 09/07 A3012 RMK A01", "KLUK 240653Z AUTO 00000KT 6SM BR CLR 08/08 A3011 RMK AO2 SLP195 T00780078", "KLUL 240735Z AUTO 00000KT 10SM CLR 11/10 A3009 RMK A02 T01070103", "KLUM 240735Z AUTO 14015KT 10SM SCT037 BKN060 21/18 A2959 RMK AO2 LTG DSNT SW THRU N T02060184 PWINO", "KLUV 240715Z AUTO 23010KT 10SM BKN110 19/17 A2975 RMK AO2", "KLUX 240735Z AUTO 35005KT 10SM CLR 05/04 A3017 RMK AO2", "KLVJ 240653Z AUTO 16009G18KT 10SM SCT060 25/20 A2990 RMK AO2 SLP124 T02500200", "KLVK 240653Z AUTO 00000KT 10SM CLR 12/M01 A3010 RMK AO2 SLP189 T01221006", "KLVL 240735Z AUTO 34003KT 10SM OVC009 15/13 A3015 RMK AO1 T01470130", "KLVM 240653Z AUTO 29005KT 10SM FEW014 BKN025 OVC060 M01/M02 A3000 RMK AO2 SNE46 SLP186 P0001 T10061022 400171006 $", "KLVN 240735Z AUTO 17013G19KT 10SM CLR 19/13 A2949 RMK AO2", "KLVS 240653Z AUTO 06010KT 10SM OVC085 05/M02 A2980 RMK AO2 SLP018 T00501022 401780050", "KLWA 240735Z AUTO 13004KT 10SM OVC100 19/09 A3000 RMK AO2 T01920089", "KLWB 240715Z AUTO 00000KT 10SM CLR 03/01 A3021 RMK AO2 T00280009", "KLWC 240652Z AUTO 18015G28KT 10SM CLR 24/14 A2963 RMK AO1 PK WND 18032/0623 SLP024 T02390144", "KLWD 240653Z AUTO 18015G27KT 10SM CLR 22/14 A2962 RMK AO2 PK WND 17029/0637 SLP022 T02220139", "KLWM 240703Z AUTO 36005KT 2 1/2SM -RA BR OVC008 11/09 A3026 RMK AO2 RAB00 CIG 006V011 P0000 T01060094", "KLWS 240656Z AUTO 17008KT 10SM CLR 07/02 A3015 RMK AO2 SLP216 T00720017", "KLWT 240728Z AUTO 29017G23KT 10SM OVC002 M02/M03 A2993 RMK AO2 T10221028 $", "KLWV 240653Z AUTO 10SM CLR 16/07 A3001 RMK AO2 SLP159 T01610072 $", "KLXL 240735Z AUTO 14011G18KT 10SM SCT060 BKN080 18/15 A2938 RMK AO2 LTG DSNT N", "KLXN 240715Z AUTO 30017G28KT 10SM SCT100 BKN120 08/02 A2964 RMK AO2 T00830021", "KLXT 240653Z AUTO 19017G30KT 10SM CLR 23/14 A2968 RMK AO2 PK WND 19037/0612 SLP040 T02330139", "KLXV 240653Z AUTO 31003KT 9SM -SN SCT021 OVC048 M07/M10 A2985 RMK AO2 SLP056 P0000 T10721100 400441078 $", "KLXY 240735Z AUTO 16013G24KT 10SM OVC022 24/19 A2983 RMK AO2 T02420191", "KLYH 240654Z AUTO 00000KT 10SM OVC036 14/11 A3018 RMK AO2 SLP213 T01390106", "KLYO 240735Z AUTO 31010KT 10SM SCT060 BKN075 18/07 A2961 RMK AO2 T01810067", "KLYV 240735Z AUTO 26006KT 10SM SCT050 12/07 A2944 RMK AO2", "KLZU 240656Z AUTO 00000KT 10SM CLR 07/06 A3017 RMK AO2 SLP226 T00720056", "KLZZ 240715Z AUTO 18015G20KT 160V220 10SM SCT025 SCT032 BKN049 24/19 A2978 RMK AO2 T02360190", "KM01 240735Z AUTO 16012KT 10SM BKN270 20/10 A2999 RMK AO2 T01960097 $", "KM02 240735Z AUTO 17005KT 10SM 15/05 A3008 RMK A01", "KM04 240735Z AUTO 19006KT 10SM CLR 17/08 A3001 RMK A01", "KM08 240735Z AUTO 15004KT 10SM CLR 15/07 A3003 RMK A01", "KM19 240656Z AUTO 17011KT 10SM FEW055 19/13 A2995 RMK AO2 SLP139 T01940128 PNO $", "KM21 240735Z AUTO 16005KT 10SM CLR 15/06 A3007 RMK AO2 T01480060", "KM25 240735Z AUTO 19010G15KT 10SM CLR 18/06 A3003 RMK AO2 PWINO", "KM30 240735Z AUTO 17007G14KT 10SM CLR 20/06 A3000 RMK AO2 T01990064", "KM40 240735Z AUTO 18004KT 10SM CLR 11/09 A3010 RMK AO2", "KM54 240730Z AUTO 00000KT 10SM FEW037 10/07 A3009 RMK A01", "KM75 240735Z AUTO 33021G27KT 10SM OVC020 00/M01 A2986 RMK A01", "KM91 240735Z AUTO 16004KT 10SM FEW032 15/06 A3008 RMK A01", "KMAE 240653Z AUTO 00000KT 10SM CLR 08/M01 A3008 RMK AO2 SLP184 T00781006", "KMAF 240653Z AUTO 20010G18KT 10SM SCT095 20/17 A2973 RMK AO2 PK WND 18027/0602 SLP023 T02000167", "KMAI 240653Z AUTO 00000KT 10SM CLR 09/07 A3010 RMK AO1 SLP192 T00940072 $", "KMAN 240735Z AUTO 30008KT 10SM FEW001 04/M02 A3018 RMK A01", "KMAO 240735Z AUTO 00000KT 10SM CLR 07/05 A3014 RMK AO2", "KMAW 240735Z AUTO 17009KT 10SM CLR 19/09 A2997 RMK AO1", "KMBG 240652Z AUTO 28014G26KT 10SM OVC014 09/05 A2930 RMK AO2 PK WND 30035/0608 SLP920 T00890050", "KMBL 240656Z AUTO VRB04KT 10SM -RA FEW050 BKN070 OVC110 16/14 A2996 RMK AO2 SLP143 P0004 T01560139", "KMBO 240735Z AUTO 00000KT 10SM CLR 13/13 A3005 RMK AO2", "KMBS 240653Z AUTO 14008KT 10SM CLR 12/08 A3007 RMK AO2 SLP182 T01220083", "KMBT 240735Z AUTO 00000KT 10SM FEW035 FEW042 12/07 A3010 RMK A01", "KMBY 240735Z AUTO 17011KT 10SM CLR 22/12 A2977 RMK AO2", "KMCB 240653Z AUTO 00000KT 10SM CLR 14/13 A3005 RMK AO2 SLP173 T01440133", "KMCC 240735Z AUTO 29005KT 10SM CLR 11/M02 A3008 RMK AO2", "KMCD 240735Z AUTO 15007KT 130V210 10SM BKN070 BKN080 OVC100 15/09 A3001 RMK AO2 T01500092", "KMCE 240653Z AUTO 15004KT 10SM CLR 08/M01 A3006 RMK AO2 SLP179 T00831011", "KMCF 240655Z AUTO 06008KT 10SM CLR 19/17 A3003 RMK AO2 SLP172 T01880168 FZRANO $", "KMCI 240653Z 19021G30KT 10SM FEW050 BKN250 24/14 A2964 RMK AO2 PK WND 19034/0627 SLP024 T02440139", "KMCJ 240735Z AUTO 17018KT 9SM OVC055 24/20 A2986 RMK A01", "KMCK 240653Z AUTO 29011KT 10SM CLR 08/02 A2968 RMK AO2 SLP033 T00780022", "KMCN 240653Z AUTO 00000KT 10SM CLR 08/07 A3016 RMK AO2 SLP210 T00780072", "KMCO 240653Z 35004KT 10SM FEW039 BKN055 20/18 A3009 RMK AO2 SLP187 T02000183 $", "KMCW 240653Z AUTO 17016G25KT 10SM FEW110 18/14 A2955 RMK AO2 PK WND 16029/0640 SLP993 T01830144", "KMDD 240735Z AUTO 19017G22KT 10SM BKN110 21/16 A2974 RMK AO2 T02080158", "KMDH 240652Z AUTO 17010KT 10SM CLR 20/08 A2996 RMK AO2 SLP140 T02000083", "KMDS 240735Z AUTO 25019G29KT 10SM CLR 09/07 A2944 RMK AO2", "KMDT 240727Z 01003KT 5SM -RA BR BKN015 OVC021 13/12 A3017 RMK AO2 P0002 T01330122", "KMDW 240653Z 19012G21KT 10SM FEW060 SCT110 BKN200 22/08 A2991 RMK AO2 LTG DSNT SE SLP117 OCNL LTGIC DSNT SE CB DSNT SE T02170083", "KMDZ 240735Z AUTO 16014G18KT 10SM OVC012 17/17 A2970 RMK AO2 T01660166 PWINO", "KMEB 240652Z AUTO 00000KT 10SM CLR 08/05 A3015 RMK AO2 SLP208 T00780050", "KMEH 240656Z AUTO 00000KT 10SM CLR M03/M04 A3014 RMK AO2 SLP229 I1001 T10281039", "KMEI 240658Z AUTO 00000KT 10SM CLR 11/09 A3010 RMK AO2 SLP190 T01060089", "KMEM 240654Z 16008KT 10SM SCT250 19/09 A3002 RMK AO2 SLP162 T01890094", "KMER 240735Z AUTO 00000KT 10SM CLR 07/01 A3007 RMK AO1", "KMEV 240735Z AUTO 00000KT 10SM CLR M04/M09 A3024 RMK AO2", "KMEZ 240735Z AUTO VRB05KT 10SM 21/17 A2989 RMK AO2 T02130166 $", "KMFD 240652Z AUTO 14007KT 10SM CLR 11/06 A3013 RMK AO2 SLP200 T01060061 $", "KMFE 240705Z AUTO 15015G21KT 10SM BKN023 OVC055 26/22 A2983 RMK AO2 T02610222 $", "KMFI 240654Z AUTO 16009G18KT 10SM SCT015 BKN080 OVC100 17/16 A2972 RMK AO2 RAB31E40 SLP061 P0000 T01720156", "KMFR 240653Z AUTO 15003KT 10SM CLR 06/03 A3024 RMK AO2 SLP242 T00610033", "KMFV 240735Z AUTO 32007G17KT 300V360 3SM BR OVC004 12/11 A3009 RMK AO2 T01180112", "KMGC 240715Z AUTO 15006KT 10SM -RA SCT100 SCT120 17/08 A2998 RMK AO2", "KMGE 240655Z AUTO 00000KT 10SM CLR 08/05 A3015 RMK AO2 SLP209 T00800053 $", "KMGG 240735Z AUTO 15010G20KT 10SM CLR 20/15 A2941 RMK AO2 T02020147 PWINO", "KMGJ 240654Z AUTO 05008KT 10SM OVC021 13/07 A3020 RMK AO2 SLP225 T01280067", "KMGM 240653Z AUTO 00000KT 10SM CLR 09/07 A3013 RMK AO2 SLP200 T00940072", "KMGN 240735Z AUTO 09006KT 10SM BKN065 OVC080 15/12 A3000 RMK AO2 T01480125", "KMGR 240735Z AUTO 00000KT 10SM CLR 11/10 A3013 RMK AO2", "KMGW 240653Z AUTO 13004KT 10SM CLR 12/08 A3017 RMK AO2 SLP213 T01170078", "KMGY 240653Z AUTO 16005KT 10SM CLR 15/04 A3009 RMK AO2 SLP185 T01500039", "KMHE 240653Z AUTO 25011KT 10SM CLR 09/04 A2948 RMK AO2 SLP980 T00940039", "KMHK 240652Z AUTO 19018G32KT 10SM CLR 25/14 A2953 RMK AO2 PK WND 21041/0601 SLP987 T02500139", "KMHL 240735Z AUTO 17016G20KT 10SM CLR 22/14 A2974 RMK AO2", "KMHP 240710Z AUTO 00000KT 10SM CLR 10/ A3015 RMK AO2 T0097////", "KMHR 240735Z AUTO 31007KT 10SM CLR 13/M03 A3005 RMK A01", "KMHS 240656Z AUTO 00000KT 10SM CLR M01/M04 A3023 RMK AO2 SLP265 T10061039", "KMHT 240653Z 34007KT 10SM OVC021 13/09 A3026 RMK AO2 SLP261 T01280089", "KMIA 240653Z 34004KT 10SM FEW036 24/20 A3002 RMK AO2 SLP166 T02390200 $", "KMIB 240731Z 01021G24KT 10SM OVC007 04/03 A2931 RMK AO2A RAE01 SLP938 $", "KMIC 240653Z 15011G19KT 10SM -RA FEW055 SCT095 BKN120 21/15 A2946 RMK AO2 PK WND 15032/0628 RAB34 SLP971 P0000 T02060150", "KMIE 240653Z AUTO 19009KT 10SM CLR 18/06 A3004 RMK AO2 SLP162 T01830056", "KMIO 240735Z AUTO 17016G24KT 10SM BKN048 23/13 A2974 RMK AO2", "KMIV 240702Z AUTO 01008KT 5SM -RA BR BKN004 BKN012 OVC033 13/13 A3010 RMK AO2 RAB0655 P0002 T01330133 $", "KMIW 240653Z AUTO 16017G27KT 10SM CLR 20/14 A2960 RMK AO2 PK WND 19027/0653 SLP016 T02000144", "KMJD 240715Z AUTO 00000KT 10SM BKN034 BKN042 16/16 A3004 RMK AO2", "KMJQ 240735Z AUTO 17017G23KT 10SM CLR 21/13 A2943 RMK AO2", "KMKC 240654Z 19013G20KT 10SM CLR 24/14 A2965 RMK AO2 PK WND 18030/0602 SLP033 T02390144", "KMKE 240652Z 14009KT 9SM -RA OVC110 16/12 A2986 RMK AO2 RAB47 SLP109 P0000 T01610122 $", "KMKG 240655Z AUTO 14010KT 10SM -RA OVC100 17/13 A2998 RMK AO2 LTG DSNT S SLP149 P0003 T01670128", "KMKJ 240735Z AUTO 00000KT 7SM CLR 01/00 A3024 RMK AO2 T00101003", "KMKL 240653Z 18010G16KT CLR 19/07 A3004 RMK AO2 SLP169 T01890067 $", "KMKN 240735Z AUTO 19016KT 7SM -RA SCT048 SCT065 OVC090 22/20 A2979 RMK AO2 T02210196", "KMKO 240653Z AUTO 17017G27KT 10SM CLR 24/14 A2979 RMK AO2 PK WND 15028/0642 SLP079 T02390144", "KMKS 240735Z AUTO 00000KT 10SM CLR 08/08 A3014 RMK AO2", "KMKT 240656Z AUTO 16019G29KT 10SM FEW120 22/14 A2945 RMK AO2 PK WND 17030/0642 LTG DSNT N SLP970 T02170144", "KMKY 240656Z AUTO 02004KT 10SM CLR 20/17 A3005 RMK AO2 SLP176 T02000167 TSNO $", "KMLB 240653Z AUTO 00000KT 10SM SCT034 21/20 A3006 RMK AO2 SLP179 T02060200", "KMLC 240653Z AUTO 18010G22KT 150V220 10SM CLR 23/16 A2978 RMK AO2 SLP073 T02280156", "KMLE 240715Z AUTO 17012G21KT 10SM CLR 24/14 A2947 RMK AO2 T02420140", "KMLF 240652Z AUTO 00000KT 10SM OVC075 M03/M04 A3010 RMK AO2 SLP207 T10281044 400391039 $", "KMLI 240652Z AUTO 15009G16KT 10SM FEW110 19/15 A2978 RMK AO2 LTG DSNT SW AND W RAB07E16B41E51 SLP079 P0000 T01940150", "KMLJ 240715Z AUTO 00000KT 9SM CLR 10/10 A3015 RMK AO2", "KMLP 240731Z AUTO 00000KT 10SM SCT001 BKN014 OVC022 M03/M05 A3004 RMK AO2 T10331050", "KMLS 240726Z AUTO 31022G29KT 1 3/4SM -SN BR OVC017 M01/M02 A2973 RMK AO2 PK WND 31029/0717 P0000 T10061017", "KMLT 240653Z AUTO 00000KT 10SM CLR 11/10 A3035 RMK AO2 SLP282 T01060100", "KMLU 240653Z AUTO VRB06KT 10SM FEW050 21/15 A3000 RMK AO2 SLP156 T02110150", "KMMH 240714Z AUTO 00000KT 10SM CLR M07/M12 A3021 RMK AO2", "KMMI 240735Z AUTO 00000KT 10SM CLR 04/03 A3019 RMK A01", "KMMK 240653Z AUTO 01006KT 10SM OVC016 12/08 A3022 RMK AO2 RAE22 SLP233 P0001 T01170078", "KMML 240656Z AUTO 24016G23KT 10SM CLR 19/12 A2935 RMK AO2 PK WND 17026/0614 PRESRR SLP933 T01890117", "KMMT 240655Z AUTO 00000KT 10SM CLR 06/06 A3014 RMK AO2 SLP209 T00630062 $", "KMMU 240715Z AUTO 02005KT 7SM -DZ OVC009 12/11 A3018 RMK AO2", "KMNE 240735Z AUTO 15005KT 10SM SCT030 SCT037 21/17 A2995 RMK AO2 T02120174", "KMNH 240715Z AUTO 00000KT 10SM OVC060 00/M01 A2982 RMK AO2", "KMNI 240735Z AUTO 00000KT 10SM CLR 06/06 A3015 RMK AO2", "KMNM 240656Z AUTO 19011G16KT 10SM FEW045 BKN110 15/12 A2986 RMK AO2 RAB0558E31 SLP109 T01500122 PNO $", "KMNN 240653Z AUTO 17005KT 8SM CLR 11/06 A3011 RMK AO2 SLP196 T01060056", "KMNV 240735Z AUTO 00000KT 10SM 06/04 A3016 RMK A01", "KMNZ 240735Z AUTO 18014G18KT 10SM OVC024 24/19 A2981 RMK AO2 T02360191", "KMOB 240656Z AUTO 10005KT 10SM FEW004 16/13 A3008 RMK AO2 SLP182 T01560133 $", "KMOD 240653Z AUTO 31010KT 10SM CLR 13/M01 A3006 RMK AO2 SLP178 T01281011 $", "KMOP 240735Z AUTO 14004KT 10SM BKN120 15/09 A3004 RMK AO2 T01470090", "KMOR 240735Z AUTO 00000KT 10SM CLR 07/05 A3016 RMK A01", "KMOT 240728Z AUTO 33022G34KT 10SM OVC005 04/03 A2931 RMK AO2 PK WND 33034/0719 LTG DSNT E AND S T00440028 $", "KMOX 240735Z AUTO 18009KT 10SM 17/14 RMK AO2", "KMPO 240711Z AUTO 06008G15KT 2 1/2SM -RA BR OVC004 09/09 A3018 RMK AO2 P0001 T00940094", "KMPR 240735Z AUTO 23020G26KT 10SM SCT050 SCT120 23/14 A2960 RMK AO2 T02310142", "KMPV 240651Z AUTO 00000KT 10SM BKN036 BKN110 11/06 A3034 RMK AO2 SLP274 T01060061", "KMPZ 240710Z AUTO 18013G18KT 10SM CLR 21/17 A2974 RMK AO2", "KMQB 240715Z AUTO 18010KT 10SM CLR 20/13 A2983 RMK AO2 T02010126", "KMQI 240715Z AUTO 35008KT 10SM OVC005 15/14 A3009 RMK AO2 T01480143", "KMQS 240715Z AUTO 04005G10KT 2 1/2SM -RA OVC002 12/11 A3015 RMK AO2", "KMQW 240715Z AUTO 00000KT 10SM CLR 08/08 A3015 RMK AO2 T00830076", "KMQY 240656Z AUTO 15003KT 10SM CLR 10/08 A3013 RMK AO2 SLP207 T01000078", "KMRB 240724Z AUTO 01007KT 10SM BKN009 BKN018 OVC030 13/12 A3017 RMK AO2 CIG 007V012 T01280117 $", "KMRC 240730Z AUTO 00000KT 10SM CLR 12/10 A3009 RMK A01", "KMRF 240656Z AUTO 25010KT 10SM BKN090 OVC110 18/08 A2989 RMK AO2 SLP052 T01830083 402720072", "KMRH 240658Z AUTO 36007KT 10SM OVC006 15/14 A3011 RMK AO2 SLP197 T01500139", "KMRJ 240735Z AUTO 16009KT 10SM SCT120 17/13 A2978 RMK AO2", "KMRN 240735Z AUTO 00000KT 7SM CLR 04/04 A3024 RMK AO2 T00380035", "KMRT 240735Z AUTO 00000KT 10SM CLR 07/04 A3012 RMK AO2 T00660036", "KMRY 240654Z AUTO 10003KT 10SM CLR 10/03 A3010 RMK AO2 SLP205 T01000028", "KMSL 240653Z AUTO 11004KT 10SM CLR 11/08 A3010 RMK AO2 SLP188 T01060078", "KMSN 240653Z AUTO 16010KT 10SM -RA FEW090 OVC110 18/14 A2981 RMK AO2 RAE18B39 SLP092 P0000 T01780144", "KMSO 240653Z AUTO 00000KT 10SM BKN047 BKN075 02/01 A3009 RMK AO2 SLP208 T00220006 400830022 $", "KMSP 240653Z 18016G24KT 10SM BKN095 OVC130 21/14 A2949 RMK AO2 PK WND 15030/0612 RAB0557E06 SLP980 P0000 T02110144", "KMSS 240653Z AUTO 00000KT 10SM CLR 03/02 A3027 RMK AO2 SLP251 T00330017", "KMSV 240656Z AUTO 08008KT 10SM OVC012 11/09 A3021 RMK AO2 RAB21E48 SLP232 P0000 T01060089", "KMSY 240653Z 09005KT 10SM FEW038 19/18 A3004 RMK AO2 SLP173 T01890178 $", "KMTC 240655Z AUTO 11003KT 10SM CLR 10/08 A3007 RMK AO2 SLP187 T00990083", "KMTH 240653Z AUTO 02006KT 10SM SCT035 SCT041 BKN055 24/21 A3000 RMK AO2 SLP160 T02440211 $", "KMTJ 240701Z AUTO 31009G15KT 9SM UP BKN008 OVC014 M01/M02 A2993 RMK AO2 UPB0659SNE0659 CIG 006V010 P0000 T10061017 $", "KMTN 240718Z AUTO 28003KT 3SM +DZ BKN005 BKN009 OVC014 13/13 A3016 RMK AO2 P0001", "KMTO 240653Z AUTO 16013G23KT 10SM CLR 18/07 A2994 RMK AO2 SLP132 T01830067", "KMTP 240654Z AUTO 05004KT 14/13 A3020 RMK AO1 SLP226 T01390133", "KMTV 240735Z AUTO 00000KT 10SM CLR 03/02 A3021 RMK AO2 T00300018", "KMTW 240656Z AUTO 15012G17KT 10SM -RA FEW047 SCT090 OVC110 14/12 A2988 RMK AO2 RAB46 SLP116 P0001 T01390117", "KMUI 240725Z AUTO 00000KT 10SM OVC022 12/11 A3015 RMK AO2 RAE05DZB05E25 OVC V BKN SLP213", "KMUO 240656Z 27005KT 10SM CLR M00/M04 A3014 RMK AO2A SLP218 T10041038 400961004 $", "KMUT 240735Z AUTO 15011KT 10SM FEW011 SCT030 BKN090 20/16 A2974 RMK AO2", "KMVE 240735Z AUTO 24008KT 10SM SCT060 19/12 A2934 RMK AO2 LTG DSNT N", "KMVH 240735Z AUTO 32025G34KT 6SM BR FEW005 BKN013 OVC019 M02/M04 A2984 RMK AO2 PWINO", "KMVL 240654Z AUTO 00000KT 10SM BKN120 08/06 A3030 RMK AO2 SLP264 T00780056", "KMVN 240656Z AUTO 17009KT 10SM CLR 19/07 A2997 RMK AO2 SLP149 T01890072", "KMVY 240653Z AUTO 02008KT 3SM BR OVC002 15/15 A3018 RMK AO2 RAE0558B31E44 SLP218 P0000 T01500150", "KMWA 240735Z AUTO 17010KT 10SM CLR 19/07 A2998 RMK AO2 T01870073", "KMWC 240735Z AUTO 15003KT 10SM -DZ BKN110 16/10 A2989 RMK AO2", "KMWH 240652Z AUTO 17006KT 10SM CLR 07/01 A3009 RMK AO2 SLP193 T00670011", "KMWK 240735Z AUTO 00000KT 10SM CLR 05/04 A3021 RMK AO2 T00510042", "KMWL 240653Z AUTO 16015KT 10SM -RA BKN031 OVC041 24/18 A2973 RMK AO2 RAB52 SLP054 P0000 T02440183", "KMWM 240735Z AUTO 16014G23KT 10SM CLR 21/13 A2939 RMK AO2", "KMWN 240653Z 11030KT 1/16SM -DZ FG VV000 07/07 RMK DZB10", "KMWO 240735Z AUTO 00000KT 10SM CLR 07/06 A3011 RMK AO2 T00670063", "KMWT 240653Z AUTO 14005KT 10SM BKN045 22/16 A2989 RMK AO2 SLP110 T02220161", "KMXF 240655Z AUTO 00000KT 10SM CLR 10/07 A3010 RMK AO2 SLP195 T00950069", "KMYF 240653Z AUTO 00000KT 10SM CLR 14/11 A3001 RMK AO2 SLP160 T01440106", "KMYJ 240735Z AUTO 18009G15KT 10SM CLR 21/13 A2982 RMK AO2", "KMYL 240651Z AUTO 00000KT 10SM CLR M02/M07 A3011 RMK AO2 SLP218 T10221067 400391033", "KMYP 240707Z AUTO BKN002 OVC006 M10/M12 A2992 RMK AO2 PWINO", "KMYR 240656Z AUTO 35004KT 10SM CLR 12/08 A3014 RMK AO2 SLP204 T01170083", "KMYV 240653Z AUTO 32010KT 10SM CLR 11/M02 A3010 RMK AO2 SLP195 T01111022 $", "KMYZ 240710Z AUTO 21007G18KT 10SM BKN095 23/14 A2953 RMK AO2", "KMZH 240735Z AUTO 15006KT 10SM SCT027 OVC036 18/15 A2949 RMK AO2 LTG DSNT N AND NW", "KMZZ 240735Z AUTO 17006KT 10SM CLR 14/07 A3004 RMK AO2 T01360071", "KN03 240735Z AUTO 00000KT 10SM BKN110 10/09 A3022 RMK AO2", "KN38 240735Z AUTO 03003KT 10SM FEW085 BKN110 10/09 A3020 RMK AO2", "KN60 240652Z AUTO 31018G29KT 04/04 A2931 RMK AO1 PK WND 31029/0647 SLP935 T00440039", "KNAK 240725Z AUTO 34008KT 7SM -RA OVC009 14/13 A3014 RMK AO2 P0001 T01390128", "KNBC 240718Z AUTO 00000KT FEW002 12/11 A3014 RMK AO2 T01220111 $", "KNBG 240655Z AUTO 04003KT 1/4SM FG VV002 14/14 A3003 RMK AO2 SLP169 T01390139 $", "KNBT 240700Z AUTO 33006G15KT 10SM OVC007 18/14 A3011 RMK AO2 SLP199 T01830144", "KNCA 240656Z AUTO 36008KT 10SM OVC008 15/14 A3012 RMK AO2 SLP201 T01500144", "KNDZ 240656Z AUTO 00000KT CLR 12/11 A3009 RMK AO2 SLP176 T01220111 $", "KNEL 240700Z AUTO 05006KT 4SM BR OVC004 13/13 A3012 RMK AO2 RAB0641E0650 SLP198 T01330133 PNO $", "KNEW 240653Z AUTO 00000KT 10SM CLR 19/18 A3004 RMK AO2 SLP167 T01940178", "KNFE 240656Z AUTO VRB04KT 5SM BR OVC006 16/14 A3010 RMK AO2 SLP194 T01560139", "KNFG 240652Z AUTO 00000KT 10SM CLR 13/10 A3001 RMK AO2 SLP163 T01280100", "KNFL 240656Z AUTO 28003KT 10SM CLR M01/M08 A3023 RMK AO2 SLP198 T10111078", "KNFW 240652Z AUTO 17020G29KT 10SM OVC027 A2978 RMK AO2 PK WND 19029/0645 SLP071 TSNO $", "KNGP 240656Z AUTO 16021G27KT 10SM FEW035 SCT047 BKN060 28/21 A2984 RMK AO2 PK WND 16029/0605 SLP104 T02780211", "KNGU 240659Z 33010KT 10SM OVC008 15/13 A3012 RMK AO2 SLP198 T01500133 $", "KNHK 240652Z AUTO 32011KT 4SM BR OVC006 14/13 A3012 RMK AO2 SLP201 T01440128 $", "KNID 240656Z AUTO 31008KT 10SM CLR 12/M09 A3010 RMK AO2 SLP190 T01221094 $", "KNIP 240653Z 00000KT 10SM CLR 18/16 A3011 RMK AO2 SLP191 T01780156 $", "KNJK 240656Z AUTO 36010KT 10SM CLR 18/M01 A2996 RMK AO2 SLP161 T01781011 $", "KNJM 240657Z AUTO 01006KT 8SM OVC006 17/14 A3012 RMK AO2 SLP203 T01720139", "KNJW 240657Z AUTO 14003KT 10SM CLR 12/08 A3012 RMK AO2 SLP113 T01220078", "KNKT 240656Z AUTO 34011KT 10SM OVC007 15/13 A3013 RMK AO2 SLP198 T01500133", "KNKX 240655Z 00000KT 10SM CLR 12/10 A3001 RMK AO2 SLP158 T01170100", "KNLC 240656Z AUTO 31007KT 10SM CLR 09/M03 A3008 RMK AO2 SLP185 T00941033", "KNMM 240656Z AUTO 00000KT 10SM CLR 11/08 A3010 RMK AO2 VIS 1 3/4 SOUTH SLP202 T01060083 $", "KNOG 240656Z AUTO 14016KT 10SM SCT060 24/21 A2981 RMK AO2 PRESFR SLP075 T02440206 PNO $", "KNOW 240715Z AUTO 16004KT 10SM -RA OVC070 08/08 A3002 RMK AO2 P0002 T00820081", "KNOZ 240659Z AUTO 01012KT 10SM OVC090 20/M06 A2992 RMK AO2 SLP082 T02001061 402720150", "KNPA 240656Z AUTO 02004KT 9SM CLR 13/ A3007 RMK AO2 SLP184 T0133 $", "KNQA 240735Z AUTO 17008KT 10SM CLR 18/09 A2999 RMK A01", "KNQI 240656Z AUTO 17010KT 10SM SCT060 BKN110 26/22 A2983 RMK AO2 SLP097 T02560222 $", "KNQX 240653Z AUTO 05007KT CLR 27/21 A3001 RMK AO2 SLP162 T02670211 $", "KNRB 240652Z AUTO 00000KT 10SM CLR A3010 RMK AO2 SLP194 $", "KNRN 240715Z AUTO 33017G24KT 10SM OVC110 09/02 A2968 RMK AO2", "KNRS 240653Z AUTO 07005KT 10SM OVC035 13/11 A3001 RMK AO2 SLP161 T01280111 $", "KNSE 240656Z AUTO 00000KT 10SM CLR 09/09 A3009 RMK AO2 SLP176 T00940089 PNO $", "KNSI 240653Z AUTO 33009KT CLR 14/11 A3000 RMK AO2 SLP154 T01440111 PWINO $", "KNTD 240655Z AUTO 03008KT 10SM CLR 15/04 A3001 RMK AO2 SLP162 T01500044", "KNTU 240656Z 34010KT 10SM OVC008 15/14 A3009 RMK AO2 SLP190 T01500139", "KNUC 240656Z AUTO 17003KT 10SM CLR 12/ A3001 RMK AO2 SLP161 T0122 $", "KNUI 240653Z AUTO VRB04KT OVC006 15/13 A3011 RMK AO2 CIG 004V009 SLP197 T01500128", "KNUQ 240735Z AUTO 00000KT 10SM 12/03 A3010 RMK AO2", "KNUW 240653Z 16014G22KT 9SM -RA FEW040 OVC055 10/06 A3009 RMK AO2 SLP189 P0001 T01000056 VISNO $", "KNXF 240656Z AUTO 10SM 14/11 A3000 RMK AO2 SLP246 T01390106 PWINO $", "KNXP 240656Z AUTO 35013G22KT CLR 15/M12 A3012 RMK AO2 SLP174 T01501117 $", "KNY0 240714Z AUTO 07003KT 10SM SCT020 OVC025 11/04 A3026 RMK AO2", "KNYC 240651Z AUTO 06008KT 040V100 10SM OVC009 13/11 A3020 RMK AO2 RAB10E20 SLP218 P0000 T01280111 $", "KNYG 240656Z AUTO 33007KT 10SM OVC023 14/ A3017 RMK AO2 SLP216 T0144 $", "KNYL 240657Z AUTO 36009KT 10SM CLR 20/M06 A2992 RMK AO2 SLP128 T02001056 402670172", "KNZY 240652Z AUTO 00000KT 10SM CLR 17/11 A3000 RMK AO2 SLP158 T01670111 $", "KO05 240735Z AUTO 33003KT 10SM FEW060 M01/M10 A3021 RMK A01", "KO22 240735Z AUTO 00000KT 10SM CLR 08/M08 A3008 RMK A01", "KO32 240735Z AUTO 10003KT 10SM CLR 09/01 A3007 RMK AO2 T00860014 $", "KO69 240735Z AUTO 32004KT 10SM CLR 11/02 A3013 RMK A01", "KOAJ 240656Z AUTO 01006KT 10SM OVC009 15/14 A3014 RMK AO2 SLP206 T01500139", "KOAK 240653Z 08003KT 10SM FEW220 12/04 A3012 RMK AO2 SLP199 T01220044", "KOAR 240735Z AUTO 13003KT 10SM CLR M15/M21 A3010 RMK AO2 PWINO", "KOBE 240715Z AUTO 00000KT 10SM FEW046 SCT055 19/19 A3005 RMK AO2", "KOCF 240720Z AUTO 01003KT 7SM CLR 15/14 A3010 RMK AO2 PNO $", "KOCH 240731Z AUTO 15008KT 10SM SCT015 BKN031 OVC038 22/20 A2990 RMK AO2", "KOCQ 240715Z AUTO 15012G18KT 10SM BKN100 14/13 A2983 RMK AO1 T01410132", "KOCW 240715Z AUTO 33006KT 10SM OVC009 15/13 A3013 RMK AO2 T01450126", "KODO 240653Z AUTO 19017G23KT 10SM FEW100 20/16 A2974 RMK AO2 SLP027 T02000161 $", "KODX 240653Z AUTO 29013KT 10SM SCT120 09/04 A2956 RMK AO2 SLP001 T00940039", "KOEB 240735Z AUTO 14004KT 10SM CLR 14/08 A3006 RMK AO2 T01400075", "KOEL 240735Z AUTO 33017KT 10SM SCT120 08/00 A2972 RMK AO1 T00750000", "KOEO 240735Z AUTO 14015G19KT 10SM SCT060 19/18 A2954 RMK AO2 T01860180 PWINO", "KOFF 240655Z 18020G26KT 10SM CLR 24/13 A2949 RMK AO2A PK WND 19029/0558 SLP980 T02400129 PWINO PNO FZRANO TSNO VISNO RWY13 $", "KOFK 240656Z AUTO 29014KT 10SM OVC037 11/04 A2951 RMK AO2 SLP982 T01110039", "KOFP 240712Z AUTO VRB04KT 10SM OVC011 14/12 A3015 RMK AO2 T01390122", "KOGA 240715Z AUTO 28012G17KT 10SM CLR 05/02 A2969 RMK AO2 T00470015", "KOGB 240653Z AUTO 00000KT 6SM BR CLR 09/08 A3016 RMK AO2 SLP209 T00890083", "KOGD 240653Z AUTO 00000KT 10SM FEW100 03/M02 A3007 RMK AO2 SLP175 T00331017 400830028", "KOGS 240715Z AUTO 00000KT 10SM CLR 07/06 A3023 RMK AO2", "KOIC 240735Z AUTO 36003KT 10SM BKN050 OVC070 09/08 A3026 RMK AO2 T00910080", "KOIN 240735Z AUTO 32017G20KT 10SM CLR 08/02 A2972 RMK AO1 T00750022", "KOJA 240735Z AUTO 20015G22KT 10SM CLR 23/15 A2968 RMK AO2 T02300147", "KOJC 240653Z AUTO 19013G28KT 10SM CLR 23/14 A2967 RMK AO2 PK WND 17029/0610 SLP034 T02330139", "KOKB 240652Z AUTO 02003KT 8SM CLR 11/09 A3001 RMK AO2 SLP160 T01110094", "KOKC 240652Z 18019G25KT 10SM OVC250 23/16 A2969 RMK AO2 SLP038 T02280156", "KOKK 240656Z AUTO 15008KT 10SM CLR 13/08 A3002 RMK AO2 SLP163 T01280083 PNO $", "KOKM 240735Z AUTO 17015G27KT 10SM CLR 23/14 A2974 RMK AO2 T02340140", "KOKV 240735Z AUTO 00000KT 10SM OVC018 12/11 A3016 RMK AO2", "KOKZ 240715Z AUTO 00000KT 10SM CLR 09/07 A3016 RMK AO2 T00870075", "KOLE 240735Z AUTO 20005KT 10SM CLR 09/08 A3021 RMK AO2", "KOLF 240653Z AUTO 34020G29KT -SN BKN044 OVC050 01/M02 A2968 RMK AO2 PK WND 36032/0624 SLP070 P0000 T00061017 400720006", "KOLG 240735Z AUTO 16012G20KT 10SM BKN031 BKN044 OVC060 18/14 A2955 RMK AO1 P0002", "KOLM 240654Z AUTO 20004KT 10SM FEW060 OVC085 08/05 A3012 RMK AO2 SLP200 T00830050 $", "KOLS 240654Z AUTO 27007KT 10SM -RA FEW024 BKN041 OVC070 13/10 A2995 RMK AO2 RAB11E37B54 SLP093 P0000 T01330100 402170122", "KOLU 240656Z AUTO 29012KT 10SM CLR 12/04 A2952 RMK AO2 SLP989 T01220044", "KOLV 240735Z AUTO 16006KT 10SM FEW055 17/08 A3002 RMK A01", "KOLY 240735Z AUTO 15008KT 10SM CLR 16/06 A2999 RMK AO2 T01610055", "KOLZ 240715Z AUTO 15016KT 10SM CLR 17/15 A2965 RMK A01", "KOMA 240652Z 18023G31KT 10SM FEW150 BKN200 24/14 A2946 RMK AO2 PK WND 18035/0601 SLP966 T02390139", "KOMH 240735Z AUTO 00000KT 10SM OVC016 13/11 A3018 RMK AO2", "KOMK 240653Z AUTO 18011KT 10SM BKN120 09/M02 A3003 RMK AO2 SLP173 T00941022", "KONA 240718Z AUTO 15011G23KT 10SM CLR 21/14 A2961 RMK AO2", "KONL 240715Z AUTO 28007G15KT 10SM CLR 07/03 A2954 RMK AO2 T00700028", "KONM 240735Z AUTO 34008G14KT 10SM -RA SCT009 BKN023 OVC028 07/05 A2984 RMK AO2 T00690053", "KONO 240653Z AUTO 25008KT 10SM CLR 03/M02 A3021 RMK AO2 SLP239 T00331022 401390022", "KONP 240655Z 14005KT 10SM OVC110 10/06 A3021 RMK OB ENTERED BY NWS PORTLAND", "KONT 240653Z VRB04KT 10SM CLR 13/09 A3001 RMK AO2 SLP158 T01280094 $", "KONX 240735Z AUTO 32005KT 10SM OVC004 14/14 A3009 RMK AO2 T01420142", "KONZ 240735Z AUTO 18005KT 10SM CLR 12/08 A3009 RMK AO2 T01160082", "KOOA 240715Z AUTO 19023G29KT 10SM CLR 23/18 A2966 RMK AO2 T02260181", "KOPF 240653Z AUTO 32003KT 10SM CLR 22/19 A3003 RMK AO2 SLP169 T02170189", "KOPL 240715Z AUTO 13007KT 10SM CLR 18/15 A3000 RMK AO2 T01790147", "KOPN 240715Z AUTO 00000KT 10SM CLR 11/08 A3017 RMK AO2", "KOQN 240735Z AUTO 04005KT 10SM -DZ OVC004 12/11 A3014 RMK AO2 P0003", "KOQT 240653Z AUTO 00000KT 10SM CLR 07/05 A3017 RMK AO2 SLP215 T00670050", "KORB 240733Z AUTO 14005KT 10SM CLR 16/13 A2948 RMK AO2", "KORD 240651Z 18013G22KT 10SM SCT120 BKN200 21/08 A2988 RMK AO2 SLP113 OCNL LTGIC DSNT SE-SW CB DSNT SE-SW T02060083", "KORE 240714Z AUTO 36009KT 10SM -RA FEW019 BKN028 BKN036 12/07 A3026 RMK AO2 RAB07 P0000 T01220072", "KORF 240651Z 34008KT 310V010 10SM OVC008 14/14 A3010 RMK AO2 SLP192 T01440139", "KORG 240715Z AUTO 16006KT 10SM CLR 25/22 A2994 RMK AO2 T02470215", "KORH 240722Z AUTO 04008KT 10SM OVC005 09/08 A3024 RMK AO2 CIG 003V009 T00940083", "KORL 240653Z AUTO 36004KT 10SM OVC039 22/18 A3009 RMK AO2 SLP192 T02170178", "KORS 240735Z AUTO 16010G17KT 7SM -RA FEW044 OVC055 09/08 A3000 RMK AO2", "KOSA 240710Z AUTO 16010KT 10SM BKN043 BKN048 23/19 A2986 RMK AO2 T02300185", "KOSC 240735Z AUTO 17004KT 10SM CLR 14/08 A3009 RMK AO2 T01380076", "KOSH 240653Z AUTO 17008KT 10SM -RA OVC110 17/14 A2983 RMK AO2 RAB31 SLP093 P0001 T01720139", "KOSU 240653Z AUTO 00000KT 10SM CLR 12/07 A3011 RMK AO2 SLP194 T01220067", "KOTG 240720Z AUTO 26013KT 10SM SCT065 17/11 A2942 RMK AO2 WSHFT 0700", "KOTH 240656Z AUTO 15008KT 10SM BKN100 09/08 A3024 RMK AO2 SLP240 T00890083", "KOTM 240653Z AUTO 18022G31KT 10SM CLR 23/14 A2967 RMK AO2 PK WND 19032/0603 SLP039 T02280144", "KOUN 240715Z AUTO 16015G21KT 10SM CLR 23/16 A2968 RMK AO2 T02300158", "KOVE 240653Z AUTO 30005KT 10SM CLR 11/M03 A3013 RMK AO2 SLP204 T01111028", "KOVL 240735Z AUTO 14017G21KT 10SM CLR 20/14 A2935 RMK AO2", "KOVS 240653Z AUTO 17008G17KT 10SM CLR 19/16 A2973 RMK AO2 RAE10 SLP064 P0001 T01940156 $", "KOWA 240733Z AUTO 16021G27KT 10SM CLR 20/14 A2951 RMK AO2", "KOWB 240656Z AUTO 17007KT 10SM CLR 16/07 A3006 RMK AO2 SLP176 T01610067", "KOWD 240708Z AUTO 35006KT 1 3/4SM BR OVC004 12/11 A3022 RMK AO2 T01170111", "KOWP 240715Z AUTO 17011G19KT 10SM CLR 25/14 A2973 RMK AO2 T02520135", "KOWX 240715Z AUTO 00000KT 10SM CLR 10/03 A3010 RMK AO1", "KOXC 240651Z AUTO 03009KT 7SM -RA OVC008 09/09 A3021 RMK AO2 RAB0557 CIG 006V011 SLP245 P0000 T00940089", "KOXD 240735Z AUTO 17005KT 10SM CLR 15/05 A3009 RMK AO2 T01520047", "KOXI 240735Z AUTO 15007KT 10SM SCT100 SCT120 15/08 A3000 RMK AO1", "KOXR 240651Z AUTO 06006KT 10SM CLR 13/08 A3000 RMK AO2 SLP159 T01280083", "KOXV 240735Z AUTO 18017G29KT 10SM CLR 22/14 A2961 RMK AO2", "KOZA 240715Z AUTO 18018G27KT 10SM SCT120 22/15 A2978 RMK AO2", "KOZR 240655Z AUTO 01003KT 10SM CLR 10/06 A3010 RMK AO2 SLP194 T01000063 $", "KOZS 240735Z AUTO 16010G15KT 10SM CLR 20/12 A2983 RMK AO2", "KOZW 240735Z AUTO 12003KT 10SM CLR 12/09 A3009 RMK AO2 T01210086", "KP08 240735Z AUTO 29006KT 10SM BKN100 17/M02 A2988 RMK AO2", "KP28 240656Z AUTO 18015G22KT 24/13 A2957 RMK AO1 PK WND 18028/0628 SLP995 T02390133 $", "KP53 240656Z AUTO 16014G25KT 18/11 A2985 RMK AO1 SLP107 T01780106", "KP58 240655Z AUTO 15007KT 13/09 A3009 RMK AO1 SLP190 T01330094", "KP59 240651Z AUTO 20012G25KT 16/10 A2971 RMK AO1 PK WND 20028/0619 SLP056 T01610100 $", "KP60 240656Z AUTO 00000KT M07/M09 A2995 RMK AO1 SLP168 T10671094 410221067", "KP68 240653Z AUTO 17006KT M05/M07 A3018 RMK AO1 SLP231 T10501072", "KP69 240652Z AUTO 00000KT 06/04 A3021 RMK AO1 SLP240 T00560039", "KPAE 240653Z AUTO 15009KT 10SM -RA OVC055 09/06 A3010 RMK AO2 RAB51 SLP195 P0000 T00940056", "KPAH 240653Z AUTO 18008G17KT 10SM CLR 21/06 A2999 RMK AO2 SLP152 T02060061", "KPAM 240655Z 00000KT 6SM BR CLR 12/11 A3008 RMK AO2A SLP189 T01160107 $", "KPAN 240735Z AUTO 32005KT 10SM CLR 05/M08 A2995 RMK AO2 PWINO TSNO", "KPBF 240653Z AUTO 17014KT 10SM CLR 22/14 A2996 RMK AO2 SLP141 T02220144", "KPBG 240653Z AUTO 00000KT 10SM CLR 06/05 A3027 RMK AO2 SLP250 T00610050", "KPBH 240735Z AUTO 15013G20KT 10SM SCT018 OVC065 17/16 A2966 RMK AO2 P0001 T01650156", "KPBI 240653Z 00000KT 10SM FEW030 SCT250 21/19 A3004 RMK AO2 SLP171 T02110189 $", "KPBX 240715Z AUTO 17005KT 10SM CLR 12/06 A3015 RMK AO2 T01210055", "KPCD 240735Z AUTO 16007KT 10SM CLR 19/12 A2992 RMK AO2 T01930118", "KPCM 240735Z AUTO 04003KT 10SM CLR 18/18 A3009 RMK AO2", "KPCW 240735Z AUTO 16004KT 10SM CLR 11/09 A3010 RMK AO2", "KPCZ 240735Z AUTO 14007KT 10SM -DZ SCT035 SCT042 BKN110 18/16 A2980 RMK AO2 P0003 T01780162", "KPDC 240735Z AUTO 14012G18KT 10SM CLR 20/14 A2969 RMK AO2 T01980140", "KPDK 240653Z AUTO 00000KT 8SM CLR 06/06 A3016 RMK AO2 SLP213 T00610061", "KPDT 240653Z AUTO 16008KT 10SM CLR 04/M01 A3016 RMK AO2 SLP213 T00391006", "KPDX 240653Z 11005KT 10SM OVC120 11/06 A3019 RMK AO2 SLP224 T01060056", "KPEA 240715Z AUTO 18016G26KT 10SM CLR 22/15 A2963 RMK AO2 T02200146", "KPEO 240653Z AUTO 00000KT 10SM -RA OVC100 12/09 A3022 RMK AO2 RAB48 SLP234 P0000 T01170094 $", "KPEQ 240715Z AUTO 28016G24KT 10SM OVC100 22/10 A2978 RMK AO2 T02150095", "KPEX 240735Z AUTO 16010G22KT 10SM CLR 20/15 A2937 RMK AO2", "KPEZ 240735Z AUTO 14008G15KT 10SM BKN050 OVC120 25/20 A2981 RMK AO2 T02500203", "KPGA 240653Z AUTO 29005KT 10SM FEW043 SCT055 OVC080 06/M07 A2997 RMK AO2 SLP129 T00561072 401610056 $", "KPGD 240653Z AUTO 04005KT 10SM CLR 18/17 A3007 RMK AO2 SLP181 T01780167", "KPGV 240735Z AUTO 36007KT 10SM OVC008 15/15 A3013 RMK AO2", "KPHD 240653Z AUTO 00000KT 10SM CLR 06/04 A3016 RMK AO2 SLP213 T00560039", "KPHF 240654Z AUTO 33008KT 10SM OVC009 14/13 A3012 RMK AO2 SLP198 T01390128", "KPHL 240713Z 04012KT 1 1/2SM RA BR BKN006 OVC012 12/12 A3014 RMK AO2 DZE0658RAB0658 P0009 T01220117 $", "KPHN 240735Z AUTO 00000KT 10SM CLR 11/05 A3012 RMK AO2", "KPHP 240655Z AUTO 29025G45KT 10SM FEW047 OVC060 04/00 A2955 RMK AO2 PK WND 29045/0648 SLP006 T00440000 401561011", "KPHT 240735Z AUTO 15007KT 10SM CLR 16/07 A3003 RMK A01", "KPHX 240651Z 33009G18KT 10SM FEW100 19/M10 A2985 RMK AO2 SLP097 T01891100 402560189 $", "KPIA 240654Z 19011KT 10SM CLR 20/13 A2985 RMK AO2 SLP105 T02000128", "KPIB 240656Z AUTO 00000KT 9SM CLR 12/12 A3009 RMK AO2 SLP187 T01170117 PNO $", "KPIE 240653Z AUTO 07007KT 10SM CLR 21/18 A3007 RMK AO2 SLP184 T02060183", "KPIH 240653Z AUTO 22015KT 10SM OVC070 01/M03 A3010 RMK AO2 SLP203 T00111028 400560006 $", "KPIL 240653Z AUTO 16015G25KT 10SM FEW060 27/22 A2984 RMK AO2 SLP104 T02670217", "KPIM 240715Z AUTO 14004KT 10SM CLR 09/07 A3015 RMK AO2 T00910065", "KPIR 240733Z AUTO 29020G31KT 10SM BKN032 OVC043 07/01 A2945 RMK AO2 PK WND 29033/0657 T00670006 $", "KPIT 240651Z 00000KT 10SM CLR 07/03 A3017 RMK AO2 SLP222 T00720028 $", "KPKB 240653Z AUTO 00000KT 10SM CLR 07/05 A3015 RMK AO2 SLP206 T00720050", "KPKD 240653Z AUTO 16022G29KT 10SM FEW013 FEW070 16/15 A2935 RMK AO2 PK WND 14032/0600 LTG DSNT ALQDS RAE19 SLP935 P0000 T01560150", "KPKV 240735Z AUTO 17009KT 10SM CLR 26/21 A2986 RMK AO2 T02570206", "KPLN 240654Z AUTO 16006KT 10SM SCT070 OVC100 14/12 A3001 RMK AO2 RAE40 SLP161 P0001 T01440117 $", "KPLR 240735Z AUTO 00000KT 10SM FEW024 SCT029 OVC040 07/07 A3015 RMK A01", "KPLU 240715Z AUTO 00000KT 10SM OVC070 09/06 A3011 RMK AO2", "KPMD 240653Z AUTO 14003KT 10SM CLR 07/M04 A3010 RMK AO2 SLP185 T00671039", "KPMH 240735Z AUTO 00000KT 10SM CLR 07/05 A3015 RMK AO2 T00700049", "KPMP 240653Z AUTO 10007KT 10SM SCT034 25/19 A3002 RMK AO2 SLP167 T02500189", "KPMU 240715Z AUTO 15005KT 10SM CLR 17/09 A3003 RMK AO2", "KPMV 240735Z AUTO 18018G23KT 10SM CLR 23/14 A2950 RMK AO2 T02300138", "KPNA 240715Z AUTO 30015G20KT 10SM CLR M03/M07 A2988 RMK AO2", "KPNC 240653Z AUTO 17014G23KT 10SM CLR 24/14 A2966 RMK AO2 PK WND 17026/0622 SLP028 T02440144", "KPNE 240654Z AUTO 04008KT 7SM OVC005 12/11 A3017 RMK AO2 SLP214 T01220106", "KPNM 240735Z AUTO 14010G18KT 10SM CLR 20/16 A2943 RMK AO2 TSNO", "KPNS 240711Z 00000KT 10SM FEW002 16/14 A3008 RMK AO2 T01560139", "KPNT 240715Z AUTO 16012KT 10SM OVC120 19/12 A2991 RMK AO2 LTG DSNT N T01900121", "KPOB 240719Z AUTO 00000KT 10SM OVC007 09/07 A3014 RMK AO2 CIG 007V009 SLP209 $", "KPOE 240655Z AUTO 13008KT 10SM SCT200 BKN250 BKN270 20/17 A2994 RMK AO2 SLP138 T01970167", "KPOF 240653Z AUTO 18009G18KT 10SM CLR 20/11 A2995 RMK AO2 SLP138 T02000106 $", "KPOU 240653Z AUTO 01007KT 10SM OVC022 14/07 A3021 RMK AO2 SLP225 T01390072", "KPOV 240735Z AUTO 10004KT 10SM CLR 06/02 A3015 RMK AO2 T00610017 PWINO", "KPOY 240715Z AUTO 31027G38KT 10SM BKN027 00/M06 A2984 RMK AO2", "KPPA 240715Z AUTO 31007KT 10SM BKN110 19/04 A2972 RMK AO2 T01890041", "KPPF 240652Z AUTO 17011G25KT 10SM CLR 23/13 A2970 RMK AO2 PK WND 17026/0613 SLP048 T02330128 PWINO $", "KPPO 240735Z AUTO 16006KT 10SM BKN100 BKN120 16/11 A2999 RMK AO2 LTG DSNT NW T01630110", "KPPQ 240715Z AUTO 18006KT 10SM SCT120 22/14 A2985 RMK AO2 T02170135", "KPQI 240656Z AUTO 00000KT 10SM CLR 08/07 A3034 RMK AO2 SLP301 T00780067", "KPQL 240653Z AUTO 09003KT 10SM CLR 16/16 A3006 RMK AO2 SLP179 T01610156", "KPRB 240653Z AUTO 28004KT 10SM CLR 10/02 A3012 RMK AO2 SLP196 T01000022 $", "KPRC 240653Z AUTO 34008KT 10SM CLR 01/M05 A2999 RMK AO2 SLP131 T00061050 401500000", "KPRG 240735Z AUTO 16010KT 10SM CLR 17/09 A2999 RMK AO2 T01670085", "KPRN 240658Z AUTO 00000KT 10SM CLR 07/06 A3011 RMK AO2 SLP145 T00670061", "KPRO 240735Z AUTO 18018G26KT 10SM CLR 23/14 A2954 RMK AO2 T02280139", "KPRS 240735Z AUTO 20006KT 10SM BKN095 OVC120 26/11 A2980 RMK AO2 T02580107", "KPRX 240656Z AUTO 16010KT 10SM OVC038 23/18 A2984 RMK AO2 SLP100 T02280178", "KPSC 240653Z AUTO 21009KT 10SM CLR 09/02 A3014 RMK AO2 SLP208 T00940017 $", "KPSF 240654Z AUTO 06007KT 10SM OVC018 12/07 A3023 RMK AO2 SLP224 T01220067", "KPSK 240735Z AUTO 00000KT 10SM CLR 02/02 A3021 RMK AO2 T00240024", "KPSM 240655Z 35005KT 3SM -DZ BR OVC007 11/09 A3026 RMK AO2A DZB54 SLP250 P0000 T01130094", "KPSN 240715Z AUTO 17008G14KT 140V200 10SM OVC049 23/19 A2985 RMK AO2", "KPSO 240735Z AUTO 00000KT 10SM OVC100 M02/M07 A2988 RMK AO2 T10181069", "KPSP 240653Z AUTO 31007KT 10SM CLR 21/M10 A3003 RMK AO2 SLP168 T02111100 $", "KPSX 240653Z AUTO 10SM CLR 26/21 A2987 RMK AO2 SLP114 T02560206", "KPTB 240735Z AUTO 36007KT 10SM OVC009 14/12 A3014 RMK AO2 T01400120", "KPTD 240735Z AUTO 00000KT 10SM SCT050 SCT060 BKN085 08/05 A3025 RMK AO2", "KPTK 240653Z AUTO 00000KT 10SM CLR 12/08 A3010 RMK AO2 SLP191 T01170078 $", "KPTN 240656Z AUTO 10003KT 10SM CLR 18/16 A3003 RMK AO2 SLP168 T01830161 $", "KPTS 240735Z AUTO 18015G25KT 10SM CLR 23/14 A2971 RMK AO2 T02300138 PWINO", "KPTT 240715Z AUTO 31015G22KT 10SM SCT047 SCT060 BKN080 23/01 A2962 RMK AO2 T02270007", "KPTV 240656Z AUTO 00000KT 10SM CLR 08/01 A3010 RMK AO2 SLP193 T00830011 402110050", "KPTW 240723Z AUTO 01003KT 2SM -RA BR OVC004 11/11 A3017 RMK AO2 RAB05 P0001 T01060106", "KPUB 240653Z AUTO 04010KT 10SM CLR 06/M02 A2979 RMK AO2 PK WND 01026/0559 SLP050 T00561017 402280056", "KPUC 240653Z AUTO 33011G21KT 10SM CLR 00/M08 A2997 RMK AO2 SLP165 T00001083 400720000", "KPUJ 240735Z AUTO 00000KT 10SM CLR 11/04 A3016 RMK AO2", "KPUW 240653Z AUTO VRB03KT 10SM CLR 02/01 A3014 RMK AO2 SLP223 T00220006 $", "KPVB 240735Z AUTO 15019G23KT 10SM CLR 18/15 A2976 RMK AO1 T01830150", "KPVC 240656Z AUTO 01006KT 3/4SM -RA BR OVC003 14/14 A3020 RMK AO2 SLP225 P0000 T01390139", "KPVD 240651Z 01011KT 10SM OVC005 11/11 A3021 RMK AO2 SLP231 T01110106", "KPVF 240735Z AUTO 09008KT 10SM CLR 10/M11 A3010 RMK AO1", "KPVG 240724Z AUTO VRB03KT 2SM -RA BR OVC004 14/14 A3012 RMK AO2 RAB17 CIG 003V008 PNO $", "KPVJ 240735Z AUTO 17012G18KT 130V190 10SM CLR 23/16 A2972 RMK AO2 T02300162", "KPVU 240732Z AUTO 05005KT 10SM -RA BKN019 BKN043 OVC100 01/M01 A3010 RMK AO2 P0000", "KPVW 240710Z AUTO 23010G19KT 10SM OVC100 18/14 A2973 RMK AO2 T01750138", "KPWA 240653Z AUTO 18020G28KT 10SM CLR 23/15 A2967 RMK AO2 PK WND 19029/0610 SLP031 T02330150", "KPWC 240735Z AUTO 14008KT 10SM SCT028 BKN037 OVC080 16/14 A2944 RMK AO2 LTG DSNT N AND NE P0006", "KPWD 240735Z AUTO 35028G34KT 10SM OVC008 M00/M01 A2957 RMK AO2", "KPWG 240656Z AUTO 16017G23KT 10SM OVC024 24/20 A2981 RMK AO2 SLPNO T02390200", "KPWK 240652Z AUTO 19013G22KT 10SM FEW100 21/09 A2991 RMK AO2 SLP122 T02110089", "KPWM 240651Z AUTO 03005KT 4SM BR OVC012 11/10 A3029 RMK AO2 RAE21 SLP257 P0001 T01110100", "KPWT 240656Z AUTO 20006KT 10SM BKN035 09/07 A3010 RMK AO2 SLP199 T00890067", "KPXE 240715Z AUTO 00000KT 10SM CLR 07/07 A3016 RMK AO2 T00750070", "KPYM 240652Z AUTO 01008KT 2 1/2SM BR OVC003 13/12 A3020 RMK AO2 SLP228 T01330122", "KPYX 240735Z AUTO 28006KT 10SM CLR 16/M01 A2970 RMK AO2 T01611011", "KPZQ 240735Z AUTO 16007KT 10SM BKN100 BKN110 16/09 A3006 RMK AO2 T01620086", "KPZZ 240735Z AUTO 16015KT 10SM FEW035 BKN055 25/18 A2999 RMK A01", "KQAZ 240723Z 08014G26KT 6000 HZ CLR 29/04 A3005 RMK SLP173 WND DATA ESTMD", "KQBL 240655Z AUTO 00000KT 10SM CLR 13/13 A3010 RMK AO2 SLP199 WND DATA ESTMD T01290128", "KQD3 240655Z AUTO 00000KT 9999 CLR 31/22 A2995 RMK AO2 SLP127 WND DATA ESTMD T03130215", "KQEI 240730Z AUTO 30006KT 9999 SCT055 OVC080 10/03 A3016 RMK A02 TSNO", "KQEJ 240730Z AUTO 06004KT 9999 // BKN075 21/21 / RMK A02 TSNO", "KQEN 240730Z AUTO 31002KT 9999 // BKN008 OVC022 / / RMK A02 TSNO", "KQEP 240730Z AUTO 26003KT 9999 SCT070 14/M02 A3016 RMK A02 TSNO", "KQEQ 240730Z AUTO 36005KT 9999 CLR 13/M05 A3020 RMK A02 TSNO", "KQER 240730Z AUTO 33004KT 9999 CLR 12/00 A3011 RMK A02 TSNO", "KQEV 240730Z AUTO 34005KT 9999 CLR 13/M03 A3013 RMK A02 TSNO", "KQEW 240730Z AUTO 34004KT 9999 // OVC065 14/M00 A3010 RMK A02 TSNO", "KQEX 240730Z AUTO 34006KT 9999 CLR 15/M01 A3003 RMK A02 TSNO", "KQEY 240730Z AUTO 28003G11KT 9999 CLR 14/M05 A2984 RMK A02 TSNO", "KQFB 240730Z AUTO 30011G17KT 9999 FEW070 15/M02 A3014 RMK A02 TSNO", "KQFT 240730Z AUTO 24003KT 9999 SCT065 15/M01 A3013 RMK A02 TSNO", "KQFU 240730Z AUTO 24001KT 9999 CLR 14/M06 A3020 RMK A02 TSNO", "KQFV 240730Z AUTO 31002KT 9999 BKN070 12/M01 A3016 RMK A02 TSNO", "KQFW 240730Z AUTO 03005KT 9999 OVC075 11/03 A2999 RMK A02 TSNO", "KQFX 240730Z AUTO 36002KT 9999 OVC080 18/16 / RMK A02 TSNO", "KQN3 240655Z AUTO VRB03KT 9999 CLR 27/05 A2995 RMK AO2 SLP131 WND DATA ESTMD T02730051", "KQRH 240655Z AUTO 08008G12KT 000V240 9999 CLR 32/22 A2990 RMK AO2 SLP128 WND DATA ESTMD T03170224", "KQTZ 240655Z 35010G17KT 9999 SCT150 28/10 A2997 RMK SLP148 WND DATA ESTMD ALSTG/SLP ESTMD", "KQVF 240655Z AUTO 11009G14KT 060V160 9999 BKN042 29/23 A3001 RMK AO2 SLP165 WND DATA ESTMD T02890233", "KRAC 240653Z AUTO 16011KT 10SM -RA BKN110 16/11 A2989 RMK AO2 RAB39 SLP121 P0000 T01610111", "KRAL 240653Z AUTO 00000KT 10SM CLR 13/09 A3002 RMK AO2 SLP154 T01330094", "KRAP 240652Z AUTO 34016KT 10SM OVC045 03/M02 A2960 RMK AO2 SLP029 T00331022 401170033", "KRAS 240735Z AUTO 16018G23KT 10SM SCT060 A2985 RMK AO2", "KRAW 240735Z AUTO 19010G15KT 10SM CLR 21/12 A2977 RMK AO2", "KRBD 240653Z AUTO 17010G18KT 10SM OVC026 23/18 A2980 RMK AO2 PK WND 17027/0606 RAB34E43 SLP081 P0000 T02280178", "KRBG 240653Z AUTO 00000KT 10SM CLR 07/04 A3024 RMK AO2 SLP242 T00720044", "KRBL 240654Z AUTO 31005KT 10SM CLR 13/M04 A3016 RMK AO2 SLP212 T01281039", "KRBO 240715Z AUTO 10SM SCT001 SCT060 25/22 A2983 RMK AO2 T02470223", "KRBW 240715Z AUTO 00000KT 10SM CLR 07/07 A3015 RMK AO2", "KRCA 240655Z AUTO 32021G28KT 10SM BKN038 OVC070 03/M03 A2956 RMK AO2 SLP019 T00301031 401080030 $", "KRCE 240735Z AUTO 18016G22KT 10SM FEW039 22/16 A2967 RMK AO2", "KRCM 240735Z AUTO 15009G17KT 10SM CLR 22/13 A2971 RMK AO2", "KRCR 240715Z AUTO 17006KT 10SM FEW027 FEW060 BKN110 16/08 A3001 RMK AO2", "KRCV 240715Z AUTO 27008KT 10SM SCT120 M03/M11 A2986 RMK AO2 T10341115", "KRCX 240735Z AUTO 15011G23KT 10SM BKN020 BKN026 OVC065 19/17 A2965 RMK AO2 LTG DSNT N AND NW T01900172", "KRCZ 240735Z AUTO 00000KT 10SM CLR 06/05 A3016 RMK AO2 T00640052", "KRDG 240654Z AUTO 01007KT 4SM -RA BR OVC012 12/12 A3017 RMK AO2 RAB19 SLP220 P0001 T01220117 $", "KRDK 240715Z AUTO 19021G27KT FEW230 FEW250 23/14 A2953 RMK AO2", "KRDM 240656Z AUTO 14006KT 10SM OVC120 02/M02 A3017 RMK AO2 SLP222 T00221022 $", "KRDR 240705Z 15007KT 10SM BKN090 OVC130 16/13 A2921 RMK AO2A SLP894 CHINO RWY17 $", "KRDU 240651Z 00000KT 10SM FEW010 OVC014 15/13 A3016 RMK AO2 SLP210 T01500128", "KREG 240715Z AUTO 00000KT 5SM BR CLR 15/14 A3003 RMK AO2 T01450141", "KREO 240652Z AUTO 16007KT M03/M06 A3019 RMK AO1 SLP238 T10331061 400891044", "KRFD 240654Z 18009KT 10SM SCT120 OVC140 19/13 A2987 RMK AO2 RAE17 SLP110 P0000 T01890133", "KRFI 240735Z AUTO 15007KT 10SM BKN019 BKN029 OVC042 24/17 A2989 RMK AO2 T02400173", "KRGA 240655Z AUTO 20007KT 10SM CLR 15/03 A3014 RMK AO2", "KRGK 240735Z AUTO 17013G19KT 10SM SCT060 SCT075 BKN095 19/14 A2954 RMK AO2 LTG DSNT NE THRU SW P0001", "KRHI 240653Z AUTO 15012G19KT 10SM SCT010 BKN013 OVC090 16/14 A2976 RMK AO2 RAE18 SLP072 P0001 T01560139", "KRHP 240735Z AUTO 00000KT 10SM CLR 01/00 A3021 RMK AO2 T00100001", "KRIC 240654Z 35007KT 10SM OVC008 14/13 A3014 RMK AO2 SLP210 T01390128 $", "KRIL 240653Z AUTO 00000KT 10SM FEW007 OVC090 M01/M02 A2995 RMK AO2 SLP147 T10061022 401001006", "KRIV 240655Z AUTO 00000KT 10SM CLR 12/09 A3002 RMK AO2 SLP160 T01230086", "KRIW 240653Z AUTO 01009KT 10SM OVC049 M02/M04 A2988 RMK AO2 SLP135 T10171039 400501017", "KRKD 240656Z AUTO 04007KT 9SM -RA OVC011 12/12 A3031 RMK AO2 RAB41 SLP262 P0000 T01220117", "KRKP 240653Z AUTO 16010G21KT 140V200 10SM BKN060 27/21 A2985 RMK AO2 SLP109 T02670211", "KRKR 240735Z AUTO 10SM SCT040 OVC065 23/15 A2984 RMK AO2", "KRKS 240654Z AUTO 25019G28KT 10SM CLR M04/M07 A2991 RMK AO2 PK WND 26028/0645 SLP150 T10441067 400331044", "KRLD 240735Z AUTO 19006KT 10SM CLR 09/03 A3014 RMK AO2 T00860034", "KRME 240653Z AUTO 32004KT 10SM CLR 09/06 A3025 RMK AO2 SLP244 T00940056", "KRMG 240653Z AUTO 00000KT 10SM CLR 07/06 A3015 RMK AO2 SLP205 T00720056", "KRMN 240735Z AUTO 34005KT 10SM SCT008 OVC014 15/13 A3018 RMK AO2 T01470128", "KRMY 240735Z AUTO 15003KT 10SM CLR 15/08 A3006 RMK AO2 T01510077", "KRNC 240735Z AUTO 00000KT 10SM CLR 07/06 A3013 RMK A01", "KRND 240705Z AUTO 18015KT 10SM BKN018 BKN023 OVC210 24/21 A2981 RMK AO2 SLP086", "KRNH 240735Z AUTO 15011KT 10SM BKN060 BKN085 BKN120 18/18 A2954 RMK AO2 T01830176", "KRNM 240653Z AUTO 00000KT 9SM CLR 09/08 A3002 RMK AO2 SLP159 T00890078", "KRNO 240655Z 12003KT 10SM CLR 02/M08 A3022 RMK AO2 SLP231 T00171078", "KRNP 240735Z AUTO 13004KT 10SM CLR 14/08 A3008 RMK AO2 T01360082", "KRNT 240653Z AUTO 11004KT 10SM SCT038 BKN060 OVC075 10/06 A3012 RMK AO2 SLP205 T01000056", "KRNV 240735Z AUTO 17009KT 10SM SCT060 A3002 RMK AO2 TSNO", "KROA 240654Z 00000KT 10SM CLR 06/04 A3022 RMK AO2 SLP231 T00610039 $", "KROC 240654Z 00000KT 10SM FEW110 FEW140 SCT250 07/05 A3021 RMK AO2 SLP235 T00720050", "KROG 240658Z 10SM CLR 22/14 A2982 RMK AO2 SLP082 T02170139 $", "KROS 240724Z AUTO 15011G21KT 10SM SCT090 SCT110 21/17 A2948 RMK AO2 LTG DSNT N AND S", "KROW 240651Z AUTO 27021G30KT 10SM SCT110 18/04 A2976 RMK AO2 PK WND 28042/0614 SLP019 T01830039 402720161", "KROX 240735Z AUTO 10010G15KT 10SM BKN090 16/15 A2933 RMK AO2 LTG DSNT NW THRU E", "KRPD 240735Z AUTO 15015G22KT 7SM SCT022 BKN060 OVC090 19/17 A2961 RMK AO2 LTG DSNT S THRU N T01880171", "KRPH 240735Z AUTO 17011G19KT 120V190 10SM FEW130 SCT160 25/18 A2970 RMK AO2 T02450183 $", "KRPJ 240735Z AUTO 15010KT 10SM -RA SCT050 SCT090 OVC120 16/15 A2987 RMK AO2 T01640150 TSNO", "KRPX 240702Z AUTO 10SM 02/M05 A2980 RMK Roundup ", "KRQB 240735Z AUTO 14003KT 10SM -RA SCT090 OVC110 15/12 A3001 RMK AO2 T01490120 P0001", "KRQE 240653Z AUTO 20003KT 10SM FEW050 OVC070 02/M05 A2991 RMK AO2 SLP089 T00171050 401170017 $", "KRRL 240735Z AUTO 16005KT 10SM OVC018 16/16 A2974 RMK AO2 T01620162 TSNO", "KRRT 240735Z AUTO 09010KT 10SM SCT019 BKN100 13/11 A2936 RMK AO2 LTG DSNT E AND NW", "KRSL 240653Z AUTO 32012KT 10SM CLR 15/03 A2962 RMK AO2 SLP013 T01500033", "KRSN 240735Z AUTO 16009KT 10SM CLR 20/15 A3001 RMK AO2 T02000150", "KRST 240654Z AUTO 16019G35KT 10SM CLR 18/14 A2957 RMK AO2 PK WND 16035/0647 SLP008 T01780144 $", "KRSV 240735Z AUTO 17009KT 10SM CLR 16/07 A3001 RMK AO2 T01630067", "KRSW 240653Z AUTO 05004KT 10SM CLR 20/17 A3005 RMK AO2 SLP172 T02000172", "KRTN 240653Z AUTO 29004KT 10SM CLR 03/M05 A2980 RMK AO2 SLP031 T00331050 402060033", "KRTS 240735Z AUTO 00000KT 10SM CLR M04/M13 A3023 RMK AO2", "KRUE 240653Z AUTO 10003KT 10SM FEW040 FEW050 BKN060 21/15 A2988 RMK AO2 SLP111 T02110150", "KRUG 240735Z AUTO 04026G37KT 3SM TS SCT006 BKN042 OVC060 06/06 A2921 RMK AO2", "KRUQ 240735Z AUTO 00000KT 7SM CLR 03/03 A3018 RMK AO2 T00330030", "KRUT 240656Z AUTO 16004KT 10SM SCT031 OVC060 13/05 A3027 RMK AO2 SLP246 T01280050 $", "KRVF 240735Z AUTO 22003KT 10SM FEW035 OVC060 M01/M03 A3005 RMK AO2", "KRVJ 240735Z AUTO 02003KT 3 1/2SM BR CLR 09/ A3015 RMK AO2 T0086////", "KRVL 240735Z AUTO 00000KT 2SM BR OVC019 11/10 A3018 RMK AO2", "KRVS 240653Z AUTO 18015G25KT 10SM CLR 24/13 A2972 RMK AO2 PK WND 18029/0638 SLP066 T02440128", "KRWF 240653Z AUTO 15023KT 10SM CLR 21/16 A2934 RMK AO2 PK WND 14031/0636 SLP928 T02060156", "KRWI 240653Z AUTO 35011KT 10SM OVC011 16/12 A3014 RMK AO2 SLP207 T01560122", "KRWL 240700Z AUTO 24010KT 10SM BKN021 OVC030 M03/M06 A2986 RMK AO2 T10331061", "KRWV 240715Z AUTO 17015KT 10SM BKN025 OVC032 24/20 A2986 RMK AO2 T02380199", "KRXE 240653Z AUTO 32004KT 10SM BKN100 01/M04 A3004 RMK AO2 SLP182 T00061044 400610006", "KRYM 240655Z AUTO 16011G18KT 10SM SCT032 OVC044 18/15 A2939 RMK AO2 LTG DSNT NW SLP951 T01820154 $", "KRYV 240735Z AUTO 14007KT 10SM -RA SCT095 OVC120 17/12 A2984 RMK AO2 T01680121", "KRYW 240735Z AUTO 19010G18KT 10SM OVC017 23/20 A2984 RMK AO2 T02310196", "KRYY 240650Z AUTO 00000KT 10SM CLR 08/07 A3018 RMK AO2 SLP214 T00780067 $", "KRZL 240735Z AUTO 14004KT 10SM CLR 16/08 A2999 RMK AO2", "KRZN 240735Z AUTO 16015G21KT 10SM CLR 18/15 A2952 RMK AO2 T01780148", "KRZR 240735Z AUTO 00000KT 10SM CLR 04/04 A3015 RMK A01", "KRZT 240735Z AUTO 00000KT 10SM CLR 05/05 A3012 RMK AO2 PWINO", "KS21 240735Z AUTO 20011KT 10SM OVC095 00/M02 A3021 RMK AO2", "KS24 240735Z AUTO 17006KT 10SM CLR 14/07 A3011 RMK AO2", "KS25 240735Z AUTO 32015KT 10SM -DZ BKN009 BKN013 OVC024 02/02 A2950 RMK AO2", "KS32 240735Z AUTO 14020KT 10SM FEW050 FEW075 OVC090 15/15 A2918 RMK AO2 TSNO", "KS33 240735Z AUTO 17004KT 10SM SCT120 03/00 A3019 RMK AO2", "KS34 240655Z AUTO 00000KT 10SM 02/M15 A3010 RMK Plains ", "KS39 240735Z AUTO 12004KT 10SM OVC110 02/M01 A3017 RMK AO2", "KS52 240735Z AUTO 00000KT 10SM SCT090 BKN120 04/M02 A3002 RMK AO2 T00411022", "KS59 240730Z AUTO 00000KT 10SM 01/01 A3007 ", "KS71 240730Z AUTO 28008KT 10SM 01/M01 A2997 ", "KS85 240725Z AUTO 33021G29KT 6SM BR BKN010 OVC031 01/01 A2957 RMK A01 Culbertson ", "KSAA 240735Z AUTO 21010KT 10SM SCT030 BKN075 M04/M06 A2988 RMK AO2", "KSAC 240653Z AUTO 30006KT 10SM CLR 13/M02 A3008 RMK AO2 SLP185 T01281022", "KSAD 240651Z AUTO 30012KT 7SM RA BKN055 OVC070 11/11 A2985 RMK AO2 RAB10 SLP075 P0009 T01110106 402500111", "KSAF 240653Z AUTO 32011KT 10SM SCT055 04/M04 A2981 RMK AO2 SLP038 T00391044 401720022", "KSAN 240651Z 33003KT 10SM CLR 16/11 A3002 RMK AO2 SLP165 T01560106", "KSAR 240735Z AUTO 17012G16KT 10SM CLR 20/10 A2994 RMK AO2 T01990100", "KSAT 240651Z 17015KT 10SM BKN020 BKN050 OVC250 24/20 A2985 RMK AO2 PK WND 16027/0628 SLP088 T02390200", "KSAV 240653Z AUTO 00000KT 10SM CLR 11/10 A3014 RMK AO2 SLP207 T01110100", "KSAW 240718Z AUTO 18016G23KT 10SM -RA BKN110 15/12 A2983 RMK AO2 T01450120", "KSAZ 240735Z AUTO 11006KT 10SM SCT055 18/15 A2936 RMK AO2 LTG DSNT NE", "KSBD 240720Z AUTO 00000KT 10SM CLR 13/08 A3003 RMK AO2 T01270075", "KSBM 240653Z AUTO 16011G20KT 10SM -RA OVC110 16/13 A2986 RMK AO2 PK WND 17026/0610 RAB02 SLP111 P0001 T01610128", "KSBN 240654Z AUTO 17008KT 10SM OVC100 19/08 A3001 RMK AO2 SLP159 T01890083", "KSBO 240715Z AUTO 00000KT 10SM CLR 10/10 A3016 RMK AO2", "KSBP 240656Z AUTO 31005KT 10SM CLR 14/01 A3007 RMK AO2 SLP180 T01440006", "KSBS 240715Z AUTO 00000KT 10SM OVC028 M03/M06 A2992 RMK AO1 T10351063", "KSBY 240654Z AUTO 31007KT 4SM BR OVC003 14/14 A3008 RMK AO2 SLP188 T01440139", "KSCD 240735Z AUTO 00000KT 10SM SCT120 08/07 A3015 RMK AO2 T00800073", "KSCK 240655Z AUTO 31009KT 10SM CLR 13/M01 A3007 RMK AO2 SLP182 T01331006", "KSCR 240735Z AUTO 36003KT 10SM OVC003 11/11 A3017 RMK AO2 T01110111", "KSCX 240735Z AUTO 00000KT 10SM CLR 05/04 A3015 RMK A01", "KSDA 240715Z AUTO 19023G30KT 10SM SCT090 SCT120 24/14 A2952 RMK AO2", "KSDB 240653Z AUTO 35005KT 10SM 07/M04 A3012 RMK AO2 SLP179 T00671044 $", "KSDC 240735Z AUTO 00000KT 10SM SCT080 BKN100 OVC120 12/08 A3021 RMK AO2", "KSDF 240656Z 13004KT 10SM SCT250 14/07 A3007 RMK AO2 SLP180 T01440067", "KSDL 240653Z AUTO 34004KT 10SM CLR 17/M09 A2988 RMK AO2 SLP102 T01671089 402390167", "KSDM 240653Z AUTO 05004KT 10SM CLR 13/10 A3000 RMK AO2 SLP157 T01330100", "KSDY 240737Z AUTO 33015G21KT 10SM -RA FEW011 BKN014 OVC038 02/01 A2957 RMK AO2 FZRANO PNO $", "KSEA 240653Z 18009KT 10SM SCT033 BKN070 OVC100 10/04 A3012 RMK AO2 SLP206 T01000044 $", "KSEE 240735Z AUTO 00000KT 10SM CLR 13/10 A3001 RMK AO2", "KSEF 240715Z AUTO 35003KT 10SM CLR 19/ A3007 RMK AO2", "KSEG 240736Z AUTO 00000KT 2 1/2SM BR SCT006 OVC014 12/12 A3019 RMK AO2 RAE27 P0002 T01170117", "KSEM 240735Z AUTO 00000KT 10SM FEW041 08/08 A3011 RMK AO2", "KSEP 240735Z AUTO 18013G20KT 10SM SCT100 SCT120 22/19 A2980 RMK AO2 T02210190", "KSEQ 240655Z AUTO 17011KT 10SM OVC017 24/21 A2982 RMK AO2 SLP093 T02370210 $", "KSET 240654Z AUTO 17008KT 10SM CLR 22/12 A2986 RMK AO2 SLP106 T02220122", "KSEZ 240735Z AUTO 02004KT 10SM 05/M06 A2996 RMK AO2", "KSFB 240653Z AUTO 00000KT 10SM BKN036 OVC045 21/18 A3009 RMK AO2 SLP188 T02060178", "KSFF 240653Z AUTO 00000KT 10SM FEW060 07/01 A3012 RMK AO2 SLP206 T00670006", "KSFM 240656Z AUTO 03011KT 10SM OVC012 12/09 A3028 RMK AO2 SLP256 T01170089", "KSFO 240656Z 28006KT 10SM CLR 13/07 A3011 RMK AO2 SLP195 T01330072 $", "KSFQ 240735Z AUTO 34005KT 10SM OVC005 15/15 A3012 RMK AO2 T01450145", "KSFY 240722Z AUTO 15013KT 10SM SCT100 SCT120 18/15 A2979 RMK AO2 P0002", "KSFZ 240656Z AUTO 02009KT 10SM OVC005 10/09 A3022 RMK AO2 SLP235 T01000094", "KSGF 240652Z 17013KT 10SM CLR 21/13 A2980 RMK AO2 SLP078 T02060133 $", "KSGH 240656Z AUTO 17004KT 10SM CLR 14/06 A3011 RMK AO2 SLP194 T01390056", "KSGJ 240656Z AUTO 00000KT 10SM CLR 16/16 A3011 RMK AO2 SLP193 T01610156", "KSGR 240653Z AUTO 17011KT 10SM SCT055 24/19 A2988 RMK AO2 SLP118 T02440194", "KSGS 240735Z AUTO 15010G17KT 7SM -TSRA SCT050 SCT070 BKN095 20/15 A2949 RMK AO2 LTG DSNT N AND NE T01950151 P0002", "KSGT 240656Z AUTO 17013KT 10SM CLR 22/14 A2997 RMK AO2 SLP147 T02170144", "KSGU 240656Z AUTO 14008KT 10SM CLR 04/00 A3007 RMK AO2 SLP183 T00390000 401330039", "KSHD 240735Z AUTO 00000KT 10SM BKN024 05/04 A3022 RMK AO2 T00470042", "KSHL 240715Z AUTO 28013KT 10SM FEW055 OVC065 15/08 A2942 RMK AO2", "KSHN 240653Z AUTO 00000KT 10SM -RA OVC050 08/07 A3009 RMK AO2 RAB15 SLP193 P0001 T00830072", "KSHR 240701Z AUTO 31014KT 1 1/2SM -SN BR OVC015 M01/M03 A2982 RMK AO2 P0000 T10061028", "KSHV 240656Z 16012G24KT 10SM SCT024 SCT034 BKN044 23/17 A2991 RMK SLPNO", "KSIF 240735Z AUTO 00000KT 10SM CLR 04/04 A3019 RMK AO2 T00350035", "KSIK 240735Z AUTO 16007KT 10SM CLR 19/09 A2997 RMK AO2", "KSIY 240653Z AUTO 00000KT 10SM CLR 00/M04 A3026 RMK AO2 SLP267 T00001044", "KSJC 240653Z 00000KT 10SM CLR 13/05 A3010 RMK AO2 SLP190 T01330050", "KSJS 240715Z AUTO 22003KT 10SM CLR 12/06 A3016 RMK AO2 T01230059", "KSJT 240651Z AUTO 17027G40KT 10SM SCT120 23/17 A2968 RMK AO2 PK WND 16043/0628 SLP027 T02330172", "KSJX 240735Z AUTO 15007KT 10SM SCT120 16/12 A2996 RMK AO2 T01590122", "KSKA 240655Z 20007KT 10SM CLR 02/M00 A3009 RMK AO2A SLP466 T00171001 $", "KSKF 240700Z AUTO 17011KT 10SM FEW024 BKN049 24/20 A2982 RMK AO2 SLP091 $", "KSKX 240656Z AUTO VRB05KT 10SM OVC070 02/M04 A2990 RMK AO2 SLP117 T00171039 401390017 FZRANO", "KSLB 240715Z AUTO 19022G33KT 10SM CLR 22/14 A2944 RMK AO2", "KSLC 240736Z VRB04KT 10SM SCT028 BKN036 OVC060 03/00 A3009 RMK AO2 T00330000 $", "KSLE 240656Z AUTO 15004KT 10SM OVC110 09/06 A3018 RMK AO2 SLP221 T00940056", "KSLG 240656Z AUTO 17014G21KT 10SM CLR 22/14 A2982 RMK AO2 SLP083 T02170144", "KSLH 240735Z AUTO 15006KT 10SM -RA SCT036 SCT055 OVC110 14/11 A3001 RMK AO2", "KSLI 240655Z AUTO 08003KT 10SM CLR 14/11 A2998 RMK AO2 SLP155 T01410113", "KSLK 240651Z AUTO 00000KT 10SM SCT070 SCT090 04/02 A3026 RMK AO2 SLP251 T00390022", "KSLN 240710Z AUTO 27013G30KT 10SM BKN050 22/09 A2959 RMK AO2 PK WND 22031/0658 WSHFT 0650 PRESRR T02220089", "KSLO 240735Z AUTO 16007KT 130V190 10SM CLR 20/08 A2995 RMK AO2 T02020080", "KSLR 240710Z AUTO 18008G14KT 10SM RA BKN030 BKN036 22/18 A2986 RMK AO2 T02240178", "KSME 240735Z AUTO 00000KT 10SM CLR 07/06 A3012 RMK AO2", "KSMF 240653Z 29005KT 10SM CLR 12/M02 A3007 RMK AO2 SLP183 T01221017", "KSMN 240656Z AUTO 00000KT 10SM OVC055 01/M03 A3012 RMK AO2 SLP890 T00061033 400560000 FZRANO", "KSMO 240651Z AUTO 09004KT 10SM CLR 13/08 A3000 RMK AO2 SLP159 T01330083", "KSMP 240656Z AUTO 00000KT 10SM SCT016 BKN080 OVC090 02/00 A3007 RMK AO2 SLP203 T00170000 $", "KSMQ 240653Z AUTO VRB05KT 10SM OVC013 13/11 A3015 RMK AO2 SLP209 T01330111", "KSMS 240715Z AUTO 00000KT 10SM CLR 06/06 A3016 RMK AO2", "KSMX 240651Z AUTO 00000KT 10SM CLR 09/07 A3007 RMK AO2 SLP185 T00890067", "KSNA 240653Z 09004KT 10SM CLR 18/11 A3000 RMK AO2 SLP157 T01780111", "KSNC 240735Z AUTO 36005G11KT 2 1/2SM BR SCT001 OVC009 11/11 A3021 RMK AO2", "KSNH 240730Z AUTO 16007KT 10SM CLR 17/07 A3006 RMK A01", "KSNK 240735Z AUTO 20009KT 10SM CLR 22/15 A2972 RMK AO2 T02170147", "KSNL 240715Z AUTO 18014G23KT 10SM CLR 23/12 A2970 RMK AO2 T02250121", "KSNS 240653Z AUTO 00000KT 10SM CLR 11/06 A3010 RMK AO2 SLP201 T01110061", "KSNT 240651Z AUTO 00000KT M07/M09 A3010 RMK AO1 SLP193 T10671094 400171078", "KSNY 240653Z AUTO 31017KT 10SM CLR 02/M01 A2971 RMK AO2 PK WND 30027/0641 SLP044 T00221011 401890022", "KSOA 240715Z AUTO 15018G25KT 10SM -RA CLR 22/18 A2980 RMK AO2", "KSOP 240725Z AUTO 00000KT 10SM BKN007 06/05 A3017 RMK AO2 TSNO", "KSOW 240735Z AUTO 11005KT 10SM -SN FEW020 BKN030 OVC043 00/M02 A2996 RMK AO2", "KSPA 240735Z AUTO 00000KT 10SM CLR 07/05 A3018 RMK AO2", "KSPB 240653Z AUTO 00000KT 10SM FEW090 BKN110 08/07 A3018 RMK AO2 SLP218 T00830067", "KSPD 240656Z AUTO 31014KT 12/M09 A2974 RMK AO1 SLP014 T01171094 402670117", "KSPF 240735Z AUTO 29020G41KT 6SM -SN FEW004 FEW016 OVC024 M01/M03 A2965 RMK AO2", "KSPG 240653Z AUTO 07010KT 10SM CLR 22/20 A3006 RMK AO2 SLP179 T02170200", "KSPI 240652Z AUTO 18013G25KT 10SM CLR 21/12 A2986 RMK AO2 PK WND 18030/0624 SLP107 T02060117", "KSPS 240652Z 17017G22KT 10SM CLR 24/17 A2968 RMK AO2 SLP034 T02440172", "KSPW 240653Z AUTO 10SM CLR 23/13 A2942 RMK AO2 SLP949 T02330133 $", "KSQI 240656Z AUTO 14007KT 10SM -RA SCT120 18/16 A2984 RMK AO2 SLP970 P0001 T01830161", "KSQL 240735Z AUTO 00000KT 10SM CLR 13/04 A3012 RMK AO2", "KSRB 240735Z AUTO 00000KT 10SM CLR 05/05 A3014 RMK A01", "KSRC 240656Z AUTO 18007KT 10SM CLR 21/14 A2995 RMK AO2 SLP140 T02060144", "KSRE 240735Z AUTO 10SM SCT040 22/12 A2972 RMK AO2", "KSRQ 240653Z AUTO 08006KT 10SM CLR 19/17 A3005 RMK AO2 SLP174 T01940167", "KSRR 240735Z AUTO 24012G20KT 10SM 07/04 A2985 RMK AO2", "KSSC 240655Z AUTO 00000KT 8SM CLR 09/06 A3014 RMK AO2 SLP207 T00940061 $", "KSSF 240653Z AUTO 16015G24KT 10SM SCT050 BKN120 24/21 A2981 RMK AO2 SLP084 T02440206", "KSSI 240653Z AUTO 00000KT 6SM BR CLR 15/13 A3011 RMK AO2 SLP198 T01500128", "KSTC 240653Z AUTO 14013G22KT 10SM CLR 19/16 A2940 RMK AO2 SLP959 T01890156", "KSTE 240735Z AUTO 17010G15KT 10SM SCT070 BKN100 BKN120 18/16 A2976 RMK AO2 P0001 T01770158", "KSTF 240735Z AUTO 15004KT 10SM CLR 12/09 A3007 RMK AO2", "KSTJ 240653Z AUTO 18018G34KT 10SM CLR 23/14 A2961 RMK AO2 PK WND 18037/0604 SLP018 T02280144", "KSTK 240735Z AUTO 28004KT 10SM CLR 01/00 A2975 RMK AO2", "KSTL 240651Z 16009KT 10SM BKN160 OVC250 22/12 A2987 RMK AO2 SLP105 T02220117 $", "KSTP 240653Z AUTO 15015G28KT 10SM FEW060 SCT090 20/15 A2950 RMK AO2 PK WND 14028/0652 LTG DSNT E RAE29 SLP985 P0002 T02000150", "KSTS 240653Z AUTO 00000KT 10SM CLR 12/03 A3012 RMK AO2 SLP194 T01220028", "KSUA 240735Z AUTO 32003KT 10SM SCT034 SCT046 22/19 A3005 RMK AO2 T02180194", "KSUE 240656Z AUTO 17013KT 10SM SCT045 BKN055 14/12 A2989 RMK AO2 RAE07 SLP120 P0000 T01390117", "KSUN 240735Z AUTO 29006KT 10SM CLR M02/M07 A3010 RMK AO2", "KSUS 240654Z AUTO 17007KT 10SM CLR 22/12 A2985 RMK AO2 SLP100 T02220122", "KSUT 240715Z AUTO 01004KT 10SM CLR 13/11 A3013 RMK AO2 T01310105", "KSUU 240655Z AUTO 34011KT 10SM CLR 17/M04 A3007 RMK AO2 SLP189 T01671045 $", "KSUW 240735Z AUTO 05006KT 10SM RA SCT035 BKN045 OVC120 13/12 A2953 RMK AO2 T01280121", "KSUX 240652Z AUTO 32010KT 10SM BKN055 17/07 A2945 RMK AO2 WSHFT 0539 SLP965 T01670067", "KSUZ 240735Z AUTO 17009KT 10SM FEW031 SCT050 BKN060 21/16 A2993 RMK A01", "KSVC 240735Z AUTO 27014G19KT 10SM SCT065 12/07 A2986 RMK AO2 T01150067", "KSVE 240735Z AUTO 26004KT 9SM CLR M07/M15 A3023 RMK AO2", "KSVH 240735Z AUTO 00000KT 10SM CLR 07/05 A3019 RMK AO2 T00680046", "KSVN 240655Z 30003KT 10SM CLR 11/11 A3011 RMK AO2A SLP199 T01100107 $", "KSWF 240645Z 07008KT 7SM BKN020 14/08 A3020", "KSWO 240653Z AUTO 18016G25KT 10SM CLR 24/15 A2967 RMK AO2 PK WND 17027/0642 SLP033 T02440150", "KSWW 240735Z AUTO 18018G27KT 10SM CLR 23/16 A2973 RMK AO2 T02300160", "KSXK 240735Z AUTO 28013KT 10SM FEW034 BKN049 OVC065 13/06 A2945 RMK AO2", "KSXS 240655Z AUTO 00000KT 10SM CLR 10/08 A3011 RMK AO2 SLP197 T00980079 $", "KSXT 240656Z AUTO 15008KT 10SM CLR 03/M02 A3020 RMK AO2 SLP237 T00331017", "KSXU 240735Z AUTO 29009KT 10SM OVC065 11/M01 A2978 RMK AO2 T01081012", "KSYF 240735Z AUTO 30012G16KT 10SM CLR 06/01 A2975 RMK AO2 T00550006 PWINO", "KSYI 240735Z AUTO 14004KT 10SM CLR 14/05 A3012 RMK A01", "KSYM 240735Z AUTO 15004KT 10SM CLR 10/05 A3014 RMK AO2", "KSYN 240735Z AUTO 17019G26KT 10SM SCT120 20/15 A2950 RMK AO2 T02000145", "KSYR 240654Z 05005KT 10SM -RA BKN100 12/07 A3023 RMK AO2 SLP234 P0000 T01170072 $", "KSZL 240655Z COR 18014G20KT 10SM SCT090 BKN200 22/14 A2969 RMK AO2A SLP048 T02180137 COR 0701", "KSZT 240735Z AUTO 21003KT 10SM SCT038 SCT046 04/01 A3010 RMK AO2", "KSZY 240735Z AUTO 17009KT 10SM CLR 17/07 A3006 RMK A01", "KT20 240715Z AUTO 17009G17KT 10SM BKN023 OVC031 25/21 A2984 RMK AO2 T02500213", "KT35 240715Z AUTO 18009G19KT 10SM SCT018 BKN027 OVC040 24/21 A2983 RMK AO2 T02360205", "KT41 240715Z AUTO 10SM CLR 25/19 A2990 RMK AO2 T02490193", "KT69 240735Z AUTO 18012G17KT 9SM FEW014 FEW023 BKN046 24/23 A2983 RMK A01", "KT70 240655Z AUTO 36012KT 10SM BKN110 24/19 A2976 RMK AO2 SLP065 T02360189 $", "KT74 240735Z AUTO 18014G19KT 10SM BKN022 BKN049 OVC055 24/20 A2982 RMK AO2 T02400204", "KT78 240735Z AUTO 17005KT 10SM CLR 22/21 A2988 RMK AO2", "KT82 240735Z AUTO 18010G20KT 10SM OVC020 23/18 A2984 RMK AO2 T02250183", "KT89 240735Z AUTO 23014G20KT 10SM CLR 27/09 A2976 RMK A01", "KTAD 240654Z AUTO 28006KT 10SM CLR 04/M07 A2978 RMK AO2 SLP032 T00441072 402220033", "KTAN 240652Z AUTO A3021 RMK AO2 SLPNO PWINO FZRANO TSNO $", "KTAZ 240715Z AUTO 17013G18KT 10SM CLR 20/11 A2990 RMK AO2 T02000111", "KTBN 240655Z AUTO 17016G26KT 10SM OVC210 21/12 A2983 RMK AO2 PK WND 15027/11 SLP093 T02080122", "KTBR 240715Z AUTO 00000KT 10SM CLR 08/07 A3015 RMK AO2 T00820074", "KTCC 240653Z AUTO 24009KT 10SM OVC095 13/03 A2975 RMK AO2 SLP026 T01280028 402560128", "KTCL 240653Z AUTO 00000KT 8SM CLR 09/08 A3011 RMK AO2 SLP195 T00940083", "KTCM 240655Z AUTO 20003KT 6SM BR CLR 08/07 A3012 RMK AO2 SLP204 T00820074 $", "KTCS 240653Z AUTO 22010KT 10SM FEW070 SCT090 14/03 A2979 RMK AO2 SLP023 T01440033 402170139", "KTCY 240735Z AUTO 27008KT 10SM CLR 15/M04 A3009 RMK A01", "KTDF 240735Z AUTO 00000KT 10SM OVC017 11/10 A3018 RMK AO2", "KTDR 240655Z AUTO 05003KT 10SM CLR 13/12 A3006 RMK AO2 SLP183 T01290123 $", "KTDZ 240653Z AUTO 16005KT 10SM CLR 13/07 A3010 RMK AO2 SLP190 T01280072 $", "KTEB 240726Z 03004KT 5SM BR OVC009 12/11 A3017 RMK AO2 T01220111", "KTEW 240735Z AUTO 15004KT 10SM CLR 15/09 A3008 RMK AO2 T01470086", "KTEX 240735Z AUTO 00000KT 10SM OVC006 M05/M07 A2989 RMK AO2", "KTFP 240655Z AUTO 18014G21KT 10SM CLR 27/20 A2983 RMK AO2 T02650204", "KTGI 240735Z AUTO 33018G21KT 4SM BKN005 OVC009 15/14 A3009 RMK AO1 T01450139", "KTHA 240735Z AUTO 00000KT 10SM CLR 12/06 A3012 RMK A01", "KTHM 240655Z AUTO 00000KT 10SM 02/01 A3015 RMK Thompson Falls ", "KTHV 240714Z AUTO 35003KT 4SM BR OVC007 13/12 A3017 RMK AO2 CIG 004V011 T01280122", "KTIF 240715Z AUTO 27011KT 10SM SCT060 SCT120 04/02 A2963 RMK AO2 T00400016", "KTIK 240655Z AUTO 18017G22KT 10SM BKN180 23/15 A2967 RMK AO2 SLP040 T02260149", "KTIP 240715Z AUTO 17014G18KT 10SM CLR 17/07 A2994 RMK AO2 T01740070", "KTIW 240653Z AUTO 18008KT 10SM SCT042 OVC085 10/06 A3011 RMK AO2 SLP199 T01000056", "KTKC 240735Z AUTO 25009KT 10SM 16/08 A2939 RMK AO2 T01600077", "KTKI 240653Z AUTO 18016KT 10SM OVC034 24/16 A2980 RMK AO2 PK WND 18027/0635 SLP084 T02390156", "KTKV 240735Z AUTO 14004KT 10SM OVC023 16/15 A2972 RMK AO2 T01620147 PWINO", "KTKX 240735Z AUTO 18011G17KT 9SM CLR 20/11 A2996 RMK AO2 TSNO", "KTLH 240653Z AUTO 00000KT 10SM CLR 09/07 A3010 RMK AO2 SLP193 T00940067", "KTMB 240653Z 00000KT 10SM CLR 19/19 A3002 RMK AO2 SLP165 T01940189", "KTME 240735Z AUTO 18008KT 10SM 24/20 A2989 RMK AO2", "KTMK 240715Z AUTO 00000KT 10SM -DZ SCT075 OVC090 08/07 A3018 RMK AO2", "KTMT 240735Z AUTO 25003KT 10SM CLR M08/M09 A3024 RMK AO2 T10831095", "KTNB 240710Z AUTO 00000KT 10SM CLR 02/02 A3024 RMK AO2 T00150015", "KTNU 240735Z AUTO 18016G23KT 10SM CLR 21/16 A2961 RMK A01", "KTOB 240735Z AUTO 15020G25KT 10SM CLR 18/14 A2955 RMK AO2", "KTOC 240715Z AUTO 33004KT 10SM CLR 07/05 A3018 RMK AO2 T00700047", "KTOI 240653Z AUTO 00000KT 10SM CLR 09/06 A3013 RMK AO2 SLP198 T00890061", "KTOL 240652Z 00000KT 10SM CLR 11/07 A3008 RMK AO2 SLP185 T01060072", "KTOP 240653Z AUTO 17016G34KT 10SM CLR 24/14 A2960 RMK AO2 PK WND 16034/0653 SLP011 T02440144", "KTOR 240653Z AUTO 32012KT 10SM SCT060 03/M03 A2973 RMK AO2 SLP064 T00281028 401330022", "KTPA 240653Z 06005KT 10SM CLR 20/16 A3008 RMK AO2 SLP186 T02000156", "KTPH 240656Z AUTO 36009KT 10SM CLR M01/M08 A3019 RMK AO2 SLP226 T10111083", "KTPL 240651Z AUTO 16021G29KT 10SM OVC019 24/21 RMK AO2 PK WND 16029/0649 SLPNO T02390206 $", "KTQE 240731Z AUTO 29015G27KT 10SM FEW050 SCT065 19/08 A2947 RMK AO2 PK WND 19033/0703 WSHFT 0717 PRESRR T01890083", "KTQH 240735Z AUTO 16011G16KT 10SM BKN050 22/12 A2980 RMK AO2", "KTQK 240715Z AUTO 33014G19KT 10SM SCT110 09/02 A2973 RMK AO2 T00920022", "KTQV 240735Z AUTO 34005KT 10SM OVC015 15/12 A3015 RMK A01", "KTRI 240653Z 00000KT 10SM CLR 06/03 A3019 RMK AO2 SLP208 T00560033 $", "KTRK 240715Z AUTO 07003KT 10SM CLR M05/M11 A3020 RMK AO2", "KTRL 240714Z AUTO 16010KT 10SM -RA BKN027 22/18 A2981 RMK AO2 RAB09 P0000 T02220178", "KTRM 240652Z AUTO 30009KT 10SM CLR 19/M04 A2997 RMK AO2 SLP151 T01941039", "KTSP 240735Z AUTO 00000KT 9SM CLR 01/M04 A3014 RMK AO2", "KTTA 240715Z AUTO 00000KT 10SM OVC009 09/09 A3015 RMK AO2 T00900090", "KTTD 240653Z AUTO 00000KT 10SM BKN120 11/06 A3019 RMK AO2 SLP224 T01060056", "KTTF 240735Z AUTO 00000KT 10SM CLR 11/07 A3009 RMK AO2 T01110068", "KTTN 240725Z AUTO 04007KT 6SM -RA BR OVC004 12/12 A3014 RMK AO2 RAB22 P0001 T01170117", "KTTS 240655Z AUTO 00000KT 10SM BKN040 BKN047 21/19 A3005 RMK AO2 VIS 1/2 RWY15/33 SLP180 T02100185 $", "KTUL 240653Z 17021G29KT 10SM BKN120 OVC250 24/13 A2972 RMK AO2 PK WND 18032/0633 SLP057 T02440133", "KTUP 240653Z AUTO 20005KT 10SM CLR 15/07 A3007 RMK AO2 SLP178 T01500072 $", "KTUS 240653Z 36010KT 10SM SCT037 BKN047 OVC060 16/11 A2990 RMK AO2 LTG DSNT E RAB09E31 SLP092 P0000 T01560111 402390156", "KTVC 240712Z AUTO 15007KT 10SM BKN055 OVC100 17/12 A2997 RMK AO2 LTG DSNT SE RAE04 TSE0654 P0000 T01670122", "KTVF 240656Z AUTO 11014KT 10SM -RA SCT028 SCT041 BKN100 16/16 A2929 RMK AO2 SLP916 P0001 T01560156", "KTVI 240715Z AUTO 00000KT 10SM CLR 11/10 A3013 RMK AO2", "KTVL 240653Z AUTO 15003KT 10SM CLR M02/M10 A3018 RMK AO2 SLP214 T10171100", "KTVR 240653Z AUTO 15005KT 10SM CLR 17/13 A3004 RMK AO2 SLP176 T01720133", "KTVY 240735Z AUTO 14005KT 10SM -SN SCT013 BKN031 OVC060 00/00 A3011 RMK AO2", "KTWF 240653Z AUTO 24013KT 10SM CLR 00/M04 A3013 RMK AO2 SLP202 T00001039 400720000", "KTWM 240735Z AUTO 07008KT 7SM TSRA SCT015 SCT028 OVC038 14/13 A2955 RMK AO2 LTG DSNT E SW AND W P0004", "KTWT 240735Z AUTO 16008KT 10SM CLR 18/06 A3003 RMK AO2", "KTXK 240734Z AUTO 17012G20KT 10SM FEW027 SCT031 BKN055 23/17 A2990 RMK AO2 T02330172", "KTXW 240710Z AUTO 15013G17KT 1 1/2SM HZ OVC023 26/22 A2982 RMK AO2 VIS 3/4V5 T02620217", "KTYL 240735Z AUTO 18006KT 10SM SCT032 BKN049 OVC065 02/00 A2997 RMK AO2", "KTYQ 240735Z AUTO 17009KT 10SM CLR 16/07 A3003 RMK AO2 T01560070", "KTYR 240653Z AUTO 18012KT 10SM SCT027 OVC035 24/18 A2985 RMK AO2 SLP102 T02390183 $", "KTYS 240653Z 00000KT 10SM FEW250 08/06 A3015 RMK AO2 SLP205 T00830061", "KTZR 240715Z AUTO 00000KT 10SM CLR 09/06 A3013 RMK AO2 T00900061", "KU42 240735Z AUTO 00000KT 10SM OVC035 00/00 A3010 RMK AO1 T00020002", "KU55 240735Z AUTO 05005KT 10SM M06/M08 A3007 RMK A01", "KU68 240735Z AUTO 31012G17KT 5SM -SN SCT023 BKN028 OVC033 00/00 A2990 RMK AO2", "KUAO 240653Z AUTO 19004KT 10SM BKN120 09/06 A3019 RMK AO2 SLP224 T00940056", "KUBE 240655Z AUTO 16010G18KT 10SM VCTSDZ SCT021 BKN045 OVC075 18/18 A2958 RMK AO2 LTG DSNT ALQS", "KUCP 240656Z AUTO 00000KT 10SM CLR 05/04 A3019 RMK AO2 SLP238 T00500044", "KUCY 240735Z AUTO 18006KT 10SM CLR 18/07 A3000 RMK A01", "KUDG 240656Z AUTO 33004KT 10SM CLR 06/05 A3016 RMK AO2 SLP212 T00610050", "KUES 240735Z AUTO 17004KT 10SM BKN110 16/11 A2989 RMK AO2", "KUGN 240655Z AUTO 18010G17KT 10SM -RA BKN110 19/10 A2989 RMK AO2 RAB42 SLP112 P0000 T01940100", "KUIL 240718Z AUTO 15007G17KT 130V200 5SM RA BR BKN010 OVC015 09/09 A2999 RMK AO2 P0006 T00940089", "KUIN 240654Z AUTO 19013G22KT 10SM CLR 22/13 A2981 RMK AO2 SLP087 T02170133", "KUKF 240715Z AUTO 00000KT 10SM CLR 03/03 A3026 RMK AO2", "KUKI 240656Z AUTO 30003KT 10SM CLR 08/02 A3016 RMK AO2 SLP211 T00780022", "KUKL 240715Z AUTO 19023G26KT 10SM CLR A2964 RMK AO2", "KUKT 240735Z AUTO 00000KT 2 1/2SM BR OVC004 11/11 A3017 RMK A01", "KULM 240735Z AUTO 16023G28KT 10SM CLR 21/13 A2939 RMK AO2", "KULS 240715Z AUTO 34012G19KT 10SM CLR 11/01 A2973 RMK AO2", "KUMP 240715Z AUTO 18008KT 10SM CLR 18/09 A3003 RMK AO2 T01750086", "KUNI 240715Z AUTO 00000KT 7SM -SN CLR 04/04 A3014 RMK AO2 T00400040", "KUNO 240653Z AUTO 16008KT 10SM CLR 19/12 A2992 RMK AO2 SLP119 T01890122", "KUNU 240735Z AUTO 13010KT 10SM BKN110 16/14 A2985 RMK AO2 T01570141", "KUNV 240735Z AUTO 00000KT 10SM SCT025 OVC031 11/11 A3019 RMK AO2 T01070107", "KUOX 240735Z AUTO 16006G13KT 10SM CLR 17/09 A3006 RMK AO2 PWINO", "KUSE 240735Z AUTO 17005KT 10SM CLR 11/08 A3007 RMK AO2", "KUTA 240735Z AUTO 16010KT 10SM FEW280 18/11 A3000 RMK AO2 T01770110 $", "KUTS 240653Z AUTO 17007KT 10SM FEW025 24/19 A2987 RMK AO2 SLP110 T02390194", "KUUU 240653Z AUTO 01011KT 4SM BR OVC003 11/11 A3018 RMK AO2 SLP220 T01110111", "KUVA 240735Z AUTO 11004KT 10SM BKN110 22/21 A2982 RMK AO2 T02180207", "KUXL 240735Z AUTO 10005KT 10SM CLR 21/20 A2994 RMK AO2 T02100196", "KUYF 240715Z AUTO 18003KT 10SM CLR 07/03 A3011 RMK AO2", "KUZA 240654Z AUTO 00000KT 9SM CLR 04/04 A3018 RMK AO2 SLP218 T00440039", "KVAD 240655Z AUTO 00000KT 10SM CLR 13/12 A3011 RMK AO2 SLP197 T01330123 $", "KVAF 240735Z AUTO 15024KT 10SM FEW050 OVC060 27/18 A2991 RMK A01", "KVAY 240654Z AUTO 01006KT 6SM -RA BR OVC004 12/12 A3014 RMK AO2 RAB52 SLP205 P0000 T01220117 $", "KVBG 240655Z AUTO 06009KT 10SM CLR 12/02 A3007 RMK AO2 SLP185 T01240023 TSNO $", "KVBT 240656Z AUTO 17013G20KT 10SM CLR 22/14 A2983 RMK AO2 SLP091 T02170144", "KVCB 240653Z AUTO 34012KT 10SM CLR 18/M04 A3009 RMK AO2 SLP189 T01781044", "KVCT 240651Z AUTO 17009KT 10SM CLR 24/21 A2986 RMK AO2 SLP110 T02440211", "KVCV 240735Z AUTO 00000KT 10SM CLR 06/M06 A3014 RMK AO2", "KVDF 240735Z AUTO 00000KT 7SM CLR 15/15 A3008 RMK AO2", "KVDI 240715Z AUTO 00000KT 10SM CLR 12/11 A3015 RMK AO2", "KVEL 240653Z AUTO 00000KT 10SM SCT060 M01/M03 A2996 RMK AO2 SLP155 T10061033 400671006", "KVER 240735Z AUTO 15011KT 10SM CLR 23/15 A2978 RMK AO2 T02260151", "KVES 240715Z AUTO 00000KT 10SM CLR 12/03 A3008 RMK AO2", "KVGC 240735Z AUTO 00000KT 10SM SCT050 BKN100 08/07 A3023 RMK AO2", "KVGT 240653Z AUTO 01004KT 10SM CLR 13/M08 A3009 RMK AO2 SLP200 T01281083 $", "KVHN 240735Z AUTO 29007G16KT 260V320 10SM OVC080 15/09 A2995 RMK AO2 T01500085", "KVIH 240653Z AUTO 18014G26KT 10SM CLR 21/12 A2984 RMK AO2 PK WND 17030/0615 SLP094 T02110122 $", "KVIS 240656Z AUTO 28004KT 10SM CLR 08/01 A3009 RMK AO2 SLP198 T00830006", "KVJI 240735Z AUTO 10007KT 10SM CLR 07/00 A3019 RMK AO2 T00741002", "KVKS 240715Z AUTO VRB04KT 10SM FEW055 18/16 A3002 RMK A01", "KVLD 240734Z AUTO 00000KT 3SM BR CLR 11/10 A3012 RMK AO2 T01110100", "KVLL 240735Z AUTO 00000KT 10SM CLR 10/08 A3012 RMK AO2 T00980079", "KVNW 240735Z AUTO 16005KT 10SM CLR 13/05 A3007 RMK AO2", "KVNY 240651Z AUTO 36012KT 10SM CLR 18/M02 A3000 RMK AO2 SLP151 T01781017 $", "KVOK 240655Z AUTO 15010KT 10SM BKN080 OVC090 18/16 A2971 RMK AO2 RAE27 SLP060 P0003 T01780158", "KVPC 240715Z AUTO 00000KT 10SM CLR 08/07 A3017 RMK AO2", "KVPS 240655Z AUTO 00000KT 10SM CLR 11/09 A3007 RMK AO2 SLP189 T01090090 $", "KVPZ 240656Z AUTO 17005KT 10SM FEW100 SCT110 18/09 A2998 RMK AO2 LTG DSNT W SLP147 T01780094 $", "KVQQ 240735Z AUTO 00000KT 1 1/2SM BR CLR 10/10 A3010 RMK AO2", "KVRB 240653Z AUTO 00000KT 10SM FEW039 21/21 A3006 RMK AO2 SLP178 T02110206 $", "KVSF 240654Z AUTO 00000KT 10SM OVC028 11/08 A3030 RMK AO2 SLP262 T01060083", "KVTA 240654Z AUTO 00000KT 8SM CLR 07/05 A3013 RMK AO2 SLP199 T00670050", "KVTI 240735Z AUTO 15014G18KT 10SM CLR 20/15 A2966 RMK AO2 T01960151", "KVTN 240652Z AUTO 28013KT 10SM SCT042 OVC060 06/01 A2959 RMK AO2 PK WND 28028/0605 SLP012 T00560006", "KVTP 240735Z AUTO 24007G15KT 210V270 10SM CLR M07/M12 A2983 RMK AO2", "KVUJ 240715Z AUTO 00000KT 10SM CLR 04/04 A3021 RMK AO2 LTG DSNT E T00410038", "KVUO 240653Z AUTO 13004KT 10SM OVC120 11/06 A3020 RMK AO2 SLP225 T01060056 $", "KVVS 240735Z AUTO 06003KT 10SM CLR 10/08 A3017 RMK AO2 T01030081", "KVVV 240735Z 24009G16KT 10SM 13/08 A2932 RMK AO2", "KVWU 240735Z AUTO 09005KT 10SM SCT045 120 17/15 A2939 RMK AO2 LTG DSNT N", "KVYS 240735Z AUTO 13009KT 10SM -RA SCT120 18/13 A2988 RMK AO2 LTG DSNT E T01790126", "KW13 240735Z AUTO 10SM CLR 08/07 A3020 RMK AO1 T00750073", "KW22 240715Z AUTO 00000KT 10SM CLR 06/01 A3017 RMK AO2", "KW31 240735Z AUTO 33003KT 10SM CLR 11/11 A3015 RMK AO1 T01050105", "KW63 240735Z AUTO 00000KT 10SM BKN024 12/12 A3016 RMK AO1", "KW75 240735Z AUTO 32006KT 10SM OVC007 14/13 A3012 RMK AO1 T01350125", "KW78 240735Z AUTO 00000KT 3SM BKN032 10/09 A3017 RMK AO1 T00960089", "KW81 240735Z AUTO 00000KT 10SM CLR 10/09 A3015 RMK AO1 T01020089", "KW96 240735Z AUTO 00000KT 10SM OVC007 14/13 A3013 RMK AO1 T01350127", "KW99 240722Z AUTO 00000KT 10SM CLR 04/04 A3023 RMK AO2", "KWAL 240654Z AUTO 31011KT 3SM BR OVC004 14/14 A3007 RMK AO2 RAE13 SLP180 P0001 T01440139", "KWBF 240735Z AUTO 12013KT 10SM 25/17 A3000 RMK A01", "KWDG 240735Z AUTO 18011KT 10SM CLR 23/15 A2964 RMK AO2", "KWDR 240715Z AUTO 00000KT 10SM CLR 07/05 A3019 RMK AO2", "KWJF 240656Z AUTO 00000KT 10SM CLR 06/M04 A3010 RMK AO2 SLP192 T00561044", "KWLD 240654Z AUTO 18018G32KT 10SM CLR 24/15 A2965 RMK AO2 PK WND 17035/0602 SLP026 T02390150", "KWMC 240656Z AUTO A3022 RMK AO2 SLPNO PWINO FZRANO $", "KWRB 240655Z 00000KT 10SM FEW250 09/09 A3015 RMK AO2A SLP211 T00860086", "KWRI 240717Z 03008KT 3SM -RA BR OVC004 13/13 A3012 RMK AO2A SLP199 $", "KWRL 240736Z AUTO 33012KT 1 3/4SM -SN BR SCT010 SCT019 OVC025 M01/M01 A2990 RMK AO2 SNB10 P0000 T10061011", "KWST 240725Z AUTO 01006KT 10SM -RA SCT008 OVC017 13/12 A3019 RMK AO2 RAB0657 P0000 T01280117", "KWVI 240653Z AUTO 33003KT 10SM CLR 08/03 A3010 RMK AO2 SLP192 T00830033", "KWVL 240656Z AUTO 03004KT 10SM -RA BKN080 BKN100 12/11 A3030 RMK AO2 RAE24B42 SLP288 P0000 T01170106", "KWWD 240656Z AUTO 04013KT 10SM OVC006 16/16 A3008 RMK AO2 RAE35 SLP188 P0000 T01610156 $", "KWWR 240710Z AUTO 20015G23KT 10SM CLR 22/12 A2965 RMK AO2", "KX07 240735Z AUTO 00000KT 10SM CLR 18/18 A3007 RMK A01", "KX26 240715Z AUTO 33004KT 10SM SCT037 20/19 A3006 RMK AO2 T02020194", "KX60 240735Z AUTO 00000KT 10SM CLR 12/12 A3009 RMK AO2 T01220117", "KXBP 240715Z AUTO 17015G21KT 10SM SCT031 SCT038 24/18 A2975 RMK AO2 T02410177", "KXER 240735Z AUTO 16013KT 10SM CLR 26/16 A2990 RMK A01", "KXIF 240655Z AUTO 00000KT 6SM BR OVC008 12/12 A3016 RMK AO2 SLP216 T01210119 $", "KXLL 240735Z AUTO 01005KT 4SM BR OVC003 11/11 A3018 RMK AO2", "KXMR 240655Z AUTO 01004KT 10SM SCT050 BKN065 22/19 A3005 RMK AO2 SLP179 T02200193 $", "KXNA 240653Z AUTO 17015KT 10SM CLR 22/14 A2981 RMK AO2 PK WND 16026/0631 SLP080 T02170139", "KXNO 240655Z AUTO 00000KT 10SM CLR 08/08 A3016 RMK AO2 SLP215 T00790079 $", "KXNX 240735Z AUTO 00000KT 10SM CLR 10/07 A3014 RMK A01", "KXSA 240735Z AUTO 33004KT 10SM OVC006 13/13 A3013 RMK AO2 T01340134", "KXVG 240733Z AUTO 12004KT 4SM +TSRA SCT016 BKN050 OVC100 16/15 A2942 RMK AO2 LTG DSNT ALQDS P0015", "KXWA 240651Z AUTO 35023G34KT 10SM -RA BKN007 OVC029 01/00 A2951 RMK AO2 PK WND 35035/0610 UPB27E33RAB33SNE27 SLP019 P0004 T00110000", "KY19 240735Z AUTO 31024G33KT 2SM +RA OVC005 05/05 A2925 RMK AO2 LTG DSNT ALQDS VIS 1 3/4V3", "KY23 240735Z AUTO 16011G20KT 10SM SCT021 SCT060 BKN085 19/17 A2960 RMK AO2 T01900171", "KY31 240735Z AUTO 00000KT 10SM CLR 13/07 A3006 RMK AO2 T01290074", "KY49 240735Z AUTO 16013G20KT 10SM VCTS SCT015 SCT070 SCT090 16/15 A2936 RMK AO2 LTG DSNT SE T01600146 P0004", "KY50 240656Z AUTO 13007KT 8SM -RA FEW070 SCT090 OVC110 17/16 A2979 RMK AO2 PRESFR SLP082 P0003 T01670161 $", "KY51 240735Z AUTO 15013G20KT 10SM CLR 17/17 A2970 RMK AO1 T01700167", "KY63 240735Z AUTO 14011KT 10SM BKN037 17/15 A2929 RMK AO2 T01700153", "KY70 240735Z AUTO 16005KT 10SM -RA SCT055 OVC120 15/09 A3004 RMK AO2 T01510091", "KYIP 240653Z 00000KT 10SM CLR 12/07 A3010 RMK AO2 SLP186 T01170072", "KYKM 240653Z AUTO 00000KT 10SM CLR 03/00 A3012 RMK AO2 SLP204 T00330000", "KYKN 240656Z AUTO 27013G20KT 10SM CLR 11/04 A2949 RMK AO2 SLP992 T01060044", "KYNG 240651Z 12007KT 10SM CLR 08/04 A3017 RMK AO2 SLP216 T00830044", "KZER 240715Z AUTO 02005KT 5SM RA SCT003 BKN011 10/10 A3019 RMK AO2 P0004", "KZPH 240735Z AUTO 00000KT 7SM CLR 15/15 A3009 RMK A02 T01500149", "KZZV 240653Z AUTO 00000KT 10SM CLR 07/05 A3014 RMK AO2 SLP204 T00670050", "LATI 240720Z VRB02KT CAVOK 18/13 Q1023 NOSIG", "LBBG 240730Z 25006KT CAVOK 18/09 Q1023 NOSIG", "LBGO 240730Z AUTO VRB02KT 9999 BKN084/// 12/08 Q1023 NOSIG", "LBPD 240730Z AUTO 32004KT 280V340 9999 FEW083/// 16/08 Q1023 NOSIG", "LBSF 240730Z 00000KT CAVOK 13/07 Q1025 NOSIG", "LBWN 240730Z VRB02KT CAVOK 17/09 Q1022 NOSIG", "LCEN 240720Z 29010KT CAVOK 24/10 Q1018 NOSIG RMK RWY11 30009KT", "LCLK 240730Z 31009KT 290V010 CAVOK 27/10 Q1018 NOSIG", "LCPH 240730Z 30005KT 250V320 CAVOK 24/12 Q1018", "LDDU 240730Z 09005KT CAVOK 19/12 Q1023 NOSIG", "LDOS 240730Z 18006KT 8000 NSC 15/14 Q1020", "LDPL 240730Z 14006KT 100V180 9999 FEW010 OVC017 19/17 Q1022 TEMPO BKN010", "LDRI 240730Z 14005KT 100V170 9999 FEW020 BKN037 19/17 Q1022", "LDSP 240730Z VRB01KT CAVOK 21/14 Q1022 NOSIG", "LDZA 240730Z 28003KT 250V320 CAVOK 17/14 Q1020 BECMG 22008KT", "LDZD 240730Z VRB02KT CAVOK 17/15 Q1022 NOSIG", "LEAB 240730Z 09003KT CAVOK 10/09 Q1021 NOSIG", "LEAG 240730Z AUTO VRB01KT CAVOK 18/15 Q1018", "LEAL 240730Z VRB01KT 7000 FEW015 18/17 Q1018 NOSIG", "LEAM 240730Z 32004KT 290V350 CAVOK 20/14 Q1018", "LEAO 240730Z 00000KT 9999 FEW048 12/12 Q1020", "LEAS 240730Z 22006KT 9999 FEW066 13/09 Q1014 NOSIG", "LEBA 240730Z 00000KT CAVOK 16/16 Q1019", "LEBB 240730Z 20010KT 100V260 9999 FEW060 21/10 Q1015 NOSIG", "LEBG 240730Z 20010KT 9999 SCT024 BKN032 10/08 Q1019", "LEBL 240730Z 31005KT 260V340 9999 FEW005 19/15 Q1017 NOSIG", "LEBR 240730Z AUTO 16003KT 130V240 9999 NCD 14/11 Q1018", "LEBT 240730Z AUTO VRB01KT CAVOK 17/13 Q1018", "LEBZ 240730Z 10004KT CAVOK 14/14 Q1018", "LECH 240730Z AUTO 19003KT 160V290 CAVOK 16/12 Q1018", "LECO 240730Z 17006KT 140V200 9999 FEW030 14/13 Q1013 NOSIG", "LECV 240730Z VRB02KT 9999 FEW050 11/07 Q1020", "LEDA 240730Z VRB02KT 9999 FEW064 16/15 Q1018", "LEEC 240730Z 03001KT CAVOK 17/17 Q1018", "LEGA 240730Z VRB01KT CAVOK 19/01 Q1020", "LEGE 240730Z 00000KT 9999 FEW030 16/15 Q1016", "LEGR 240730Z 00000KT CAVOK 16/09 Q1020", "LEGT 240730Z 00000KT 9999 BCFG SCT033 BKN038 12/11 Q1020", "LEHC 240730Z 04001KT 9999 FEW045 14/13 Q1019", "LEIB 240730Z 00000KT 9999 SCT009 21/20 Q1018 NOSIG", "LEJR 240730Z 00000KT CAVOK 16/16 Q1018", "LELC 240730Z VRB02KT CAVOK 18/17 Q1018 NOSIG", "LELL 240730Z 29004KT 9999 FEW040 19/13 Q1017", "LELN 240730Z 17005KT 9000 BCFG OVC004 10/09 Q1017", "LELO 240730Z VRB01KT 9999 SCT069 10/07 Q1018", "LEMD 240730Z VRB02KT 3000 0500N R32R/P2000 R32L/P2000 BR BCFG FEW002 13/12 Q1020 NOSIG", "LEMG 240730Z 28005KT CAVOK 18/14 Q1018 NOSIG", "LEMH 240730Z 22006KT CAVOK 22/22 Q1018", "LEMI 240730Z VRB01KT CAVOK 20/11 Q1018", "LEMO 240730Z VRB01KT CAVOK 16/15 Q1018 NOSIG", "LEPA 240730Z 01001KT CAVOK 17/16 Q1018 NOSIG", "LEPP 240730Z 18009KT CAVOK 16/11 Q1018", "LERI 240730Z 26003KT CAVOK 16/15 Q1018 NOSIG", "LERS 240730Z 36004KT 9999 FEW020 19/17 Q1017", "LERT 240730Z 04005KT CAVOK 18/15 Q1018 NOSIG", "LESA 240730Z 12003KT 090V150 9999 FEW038 SCT047 11/09 Q1018", "LESB 240730Z AUTO VRB02KT CAVOK 19/12 Q1019", "LESO 240730Z 19005KT 160V220 CAVOK 16/10 Q1015", "LEST 240730Z 21005KT 170V250 6000 SCT007 BKN013 13/13 Q1014 NOSIG", "LETL 240730Z AUTO 17007KT CAVOK 11/09 Q1021", "LETO 240730Z VRB02KT 4000 BR FEW032 SCT038 13/12 Q1020 NOSIG", "LETU 240730Z AUTO 21008KT 9999 NSC 15/09 Q1018", "LEVC 240730Z VRB01KT CAVOK 19/13 Q1018 NOSIG", "LEVD 240730Z 20006KT 9999 SCT022 BKN027 11/10 Q1018", "LEVS 240730Z 00000KT 9999 BKN027 12/12 Q1020", "LEVT 240730Z 21006KT 9999 BKN044 15/09 Q1017", "LEVX 240730Z 19006KT 150V230 0150 R19/0750D R01/0300N FG VV001 14/14 Q1015 NOSIG", "LEXJ 240730Z 22010KT 170V260 9999 FEW060 19/10 Q1013", "LEZG 240730Z 16004KT 9999 SCT080 15/12 Q1018", "LEZL 240730Z VRB01KT CAVOK 18/17 Q1018 NOSIG", "LFAC 240730Z AUTO 25015KT 9999 BKN019/// BKN029/// OVC035/// ///TCU 15/13 Q1003", "LFAQ 240730Z AUTO 21016KT 9999 BKN034 BKN043 BKN060 15/13 Q1007 TEMPO 22017G27KT", "LFAT 240730Z AUTO 22013KT 190V250 9999 -RA FEW014/// OVC021/// //////TCU 15/12 Q1004 TEMPO 2000 SHRA SCT016 BKN020CB BKN030 BECMG 22017G27KT", "LFBA 240730Z AUTO 11003KT CAVOK 12/12 Q1015 NOSIG", "LFBC 240730Z AUTO VRB02KT CAVOK 16/14 Q1014 NOSIG", "LFBD 240730Z AUTO 20001KT CAVOK 17/14 Q1015 TEMPO BKN050TCU", "LFBE 240730Z AUTO 08005KT CAVOK 12/11 Q1015 NOSIG", "LFBF 240730Z AUTO VRB02KT 9999 BKN004 16/15 Q1015", "LFBG 240730Z AUTO 20007KT 9999 //////TCU 17/14 Q1014 BECMG NSC", "LFBH 240730Z AUTO 21011KT 9999 BKN027 BKN230 18/14 Q1012 TEMPO 24018G28KT 4500 SHRA BKN025TCU SCT030CB", "LFBI 240730Z AUTO 19010KT 9999 BKN029 BKN034 15/13 Q1013 TEMPO 4500 SHRA BKN030TCU SCT035CB", "LFBL 240730Z AUTO 12002KT CAVOK 13/09 Q1015 NOSIG", "LFBM 240730Z AUTO 29004KT 9999 // NSC 15/11 Q1015", "LFBO 240730Z AUTO 32003KT CAVOK 16/16 Q1015 NOSIG", "LFBP 240730Z AUTO 06003KT CAVOK 15/10 Q1015 BECMG 25010KT", "LFBT 240730Z AUTO 20004KT CAVOK 13/10 Q1016 NOSIG", "LFBU 240730Z AUTO 17004KT 130V210 CAVOK 15/12 Q1014 NOSIG", "LFBX 240730Z AUTO 00000KT CAVOK 11/11 Q1015", "LFBY 240730Z AUTO VRB03KT 9999 // ////// 17/12 Q1015", "LFBZ 240730Z AUTO 22004KT 160V280 CAVOK 19/10 Q1015 NOSIG", "LFCK 240730Z AUTO 15004KT CAVOK 16/14 Q1016 NOSIG", "LFCR 240730Z AUTO 15003KT CAVOK 13/12 Q1017 NOSIG", "LFGA 240730Z AUTO VRB01KT 9999 ////// 16/14 Q1013", "LFGJ 240730Z AUTO VRB02KT CAVOK 15/14 Q1014 NOSIG", "LFHP 240730Z AUTO 10005KT 050V180 9999 BKN049 BKN200 15/12 Q1017", "LFJL 240730Z AUTO 18010KT CAVOK 15/11 Q1012 NOSIG", "LFJR 240730Z AUTO 20009KT 9999 BKN025 BKN032 16/13 Q1010", "LFKB 240730Z AUTO 20003KT 9999 FEW016 BKN022 BKN240 20/17 Q1020 BECMG 12010KT", "LFKC 240730Z AUTO VRB03KT CAVOK 20/12 Q1019 TEMPO 21017G27KT", "LFKF 240730Z AUTO 00000KT CAVOK 16/15 Q1020 NOSIG", "LFKJ 240730Z AUTO 04006KT CAVOK 19/09 Q1021 NOSIG", "LFKS 240730Z AUTO VRB02KT 9999 BKN011 21/18 Q1020", "LFLB 240730Z AUTO 22009KT 190V270 9999 FEW070/// BKN110/// BKN140/// //////CB 17/14 Q1016 TEMPO VRB15G25KT 2000 TSRA", "LFLC 240730Z AUTO 17008KT CAVOK 16/11 Q1015 BECMG 24010KT", "LFLH 240730Z AUTO 14002KT CAVOK 13/13 Q1014", "LFLL 240730Z 17014KT 9999 FEW053CB FEW060TCU SCT066 BKN210 20/15 Q1015 TEMPO 4000 TSRA SCT040CB", "LFLN 240730Z AUTO 20004KT 170V230 CAVOK 15/13 Q1014 NOSIG", "LFLP 240730Z AUTO 14005KT 090V190 9999 FEW052/// BKN068/// BKN086/// ///CB 16/13 Q1018 TEMPO VRB15G25KT 2000 TSRA", "LFLS 240730Z AUTO 23003KT 190V270 CAVOK 16/15 Q1016 TEMPO VRB15G25KT 2000 TSRA BKN040CB OVC070", "LFLU 240730Z AUTO 22005KT 200V270 9999 SCT045/// BKN190/// BKN220/// ///CB 19/16 Q1014", "LFLV 240730Z AUTO 18004KT 150V220 CAVOK 14/12 Q1015", "LFLW 240730Z AUTO 09004KT 060V130 CAVOK 11/10 Q1017 NOSIG", "LFLX 240730Z AUTO 18007KT CAVOK 15/12 Q1013 NOSIG", "LFLY 240730Z AUTO 22008KT 9999 //////CB 19/16 Q1015 TEMPO 4000 TSRA", "LFMC 240730Z AUTO 06003KT 020V100 9999 ////// 20/18 Q1018", "LFMD 240730Z AUTO 36004KT 320V040 9999 OVC019 18/16 Q1018 NOSIG", "LFMH 240730Z AUTO 17004KT 9999 VCTS ///CB 17/14 Q1015", "LFMI 240730Z AUTO 13009KT 9999 OVC017 22/19 Q1016 BECMG 15015G25KT", "LFMK 240730Z AUTO 00000KT 4000 BR BKN003 OVC007 18/18 Q1015 BECMG CAVOK", "LFML 240730Z AUTO 09012KT 9999 BKN023 OVC140 23/18 Q1016 BECMG 15015G25KT", "LFMN 240730Z 33008KT 9999 BKN021 SCT030 20/15 Q1019 NOSIG", "LFMO 240730Z AUTO 08002KT 9999 OVC037 19/17 Q1016 NOSIG", "LFMP 240730Z AUTO 22005KT CAVOK 22/11 Q1014 BECMG 05010KT", "LFMT 240730Z AUTO 12011KT 7000 NSC 21/21 Q1015 NOSIG", "LFMU 240730Z AUTO 04006KT 9000 NSC 20/19 Q1015 NOSIG", "LFMV 240730Z AUTO 13012KT 9999 FEW039 22/16 Q1016 NOSIG", "LFMY 240730Z AUTO 06006KT 9999 OVC023 21/17 Q1016 BECMG 17012KT", "LFOA 240730Z AUTO 19007KT CAVOK 15/11 Q1014 NOSIG", "LFOB 240730Z AUTO 20012KT 9999 -DZ BKN025 BKN033 BKN043 14/13 Q1008 BECMG 20015G25KT", "LFOE 240730Z AUTO 22011KT 9999 FEW025 SCT036 OVC047 14/13 Q1008 TEMPO 4000 SHRA SCT015 SCT025TCU BECMG 21015G25KT", "LFOH 240730Z AUTO 21011KT 9999 BKN019 OVC028 15/12 Q1006 TEMPO 22020G30KT", "LFOJ 240730Z AUTO 20014KT 9999 FEW024 BKN033 15/13 Q1010 NOSIG", "LFOK 240730Z AUTO 21019KT CAVOK 15/12 Q1011 TEMPO 20017G27KT", "LFOP 240730Z AUTO 21011KT 9999 BKN024 OVC042 14/11 Q1007 TEMPO 22015G25KT", "LFOT 240730Z AUTO 22013G23KT 180V260 9999 FEW014 SCT019 BKN025 16/13 Q1011 TEMPO 4000 SHRA BKN025CB", "LFOV 240730Z AUTO 20010KT 9999 DZ FEW015/// BKN022/// BKN029/// ///TCU 15/13 Q1009", "LFOZ 240730Z AUTO 21012KT 9999 SCT027 OVC033 15/13 Q1012", "LFPB 240730Z AUTO 20015KT 9999 FEW024 SCT036 16/12 Q1009 BECMG 20015G30KT", "LFPG 240730Z 21017KT 9999 FEW016 SCT025 16/12 Q1009 TEMPO 21015G30KT", "LFPM 240730Z AUTO 20014KT 9999 SCT027 15/13 Q1010", "LFPN 240730Z AUTO 20014KT 9999 BKN038 14/12 Q1009 TEMPO 23017G27KT 4000 SHRA BKN025CB", "LFPO 240730Z 20012KT 170V230 9999 BKN034 15/12 Q1010 NOSIG", "LFPT 240730Z AUTO 21012KT 9999 BKN031 BKN039 BKN046 15/12 Q1008", "LFPV 240730Z AUTO 20010KT 170V240 9999 FEW028 BKN035 14/12 Q1010 TEMPO 21015G25KT", "LFQA 240730Z AUTO 21009KT 180V240 9999 BKN031 BKN038 16/12 Q1010", "LFQB 240730Z AUTO 20011KT CAVOK 16/12 Q1012", "LFQG 240700Z AUTO 21005KT CAVOK 16/12 Q1013", "LFQQ 240730Z AUTO 21019KT 9999 BKN032 OVC038 16/11 Q1005 TEMPO SHRA BKN025CB BECMG 20017G27KT", "LFRB 240730Z AUTO 22012KT 9999 BKN010/// BKN025/// BKN036/// //////TCU 14/13 Q1005 TEMPO 24015G25KT 3000 SHRA BKN005", "LFRC 240730Z AUTO 23011KT 9999 FEW016 SCT026 13/12 Q1005 TEMPO 4000 SHRA BKN012 BKN020CB BECMG 23015G25KT", "LFRD 240730Z AUTO 20012KT 9999 -RA BKN036/// BKN066/// BKN086/// ///TCU 14/13 Q1006 TEMPO 22015G25KT 4000 SHRA BKN012 BKN020CB", "LFRG 240730Z AUTO 22013KT 180V240 9999 BKN011 BKN020 OVC025 13/12 Q1007 TEMPO 4000 SHRA BKN012 BKN020CB BECMG 22015G25KT", "LFRH 240730Z AUTO 24016KT 9999 OVC013/// //////TCU 16/14 Q1007 TEMPO 2500 TSRA SCT010 BKN015CB BECMG 22015G25KT", "LFRI 240730Z AUTO 22009KT 9999 BKN019 OVC025 17/14 Q1011 TEMPO 23015G30KT 4500 SHRA BKN025TCU SCT030CB", "LFRJ 240730Z AUTO 23012KT 9999 BKN009 BKN026 BKN036 14/13 Q1005", "LFRK 240730Z AUTO 21009KT 9999 FEW010 SCT022 BKN030 14/12 Q1006 TEMPO 4000 SHRA BKN012 BKN020CB BECMG 22015G25KT", "LFRL 240730Z AUTO 22012KT 9999 FEW017/// SCT023/// BKN035/// //////TCU 14/13 Q1006 TEMPO 2000 TSRA BKN004 BKN013CB", "LFRM 240730Z AUTO 19010KT 160V240 9999 BKN028 BKN033 16/13 Q1009 TEMPO 22015G25KT 4000 SHRA BKN025TCU SCT030CB", "LFRN 240730Z AUTO 20009KT 9999 FEW017/// BKN043/// ///TCU 15/13 Q1008 TEMPO 22015G25KT 4000 SHRA BKN012 BKN020CB", "LFRO 240730Z AUTO 23015KT 9999 BKN010/// BKN014/// OVC023/// //////TCU 14/13 Q1005", "LFRQ 240730Z AUTO 22012KT 9999 BKN010/// BKN016/// OVC021/// //////TCU 15/14 Q1006 TEMPO 24015G25KT 3000 SHRA BKN008 BKN020CB", "LFRS 240730Z AUTO 23009KT 190V260 9999 BKN021/// BKN048/// BKN062/// //////TCU 15/14 Q1010 TEMPO 23016G30KT 4500 SHRA BKN025TCU SCT030CB", "LFRT 240730Z AUTO 21010KT 170V230 9999 SCT023 BKN028 BKN036 14/12 Q1005", "LFRU 240730Z AUTO 23012KT 9999 SCT012 SCT025 BKN035 14/13 Q1005", "LFRV 240730Z AUTO 22011KT 190V250 9999 BKN012 OVC017 15/13 Q1008", "LFRZ 240730Z AUTO 23014KT 9999 -RA BKN018/// BKN024/// BKN033/// //////CB 17/15 Q1009 TEMPO 24020G33KT 4500 SHRA", "LFSB 240730Z AUTO 14007KT 110V180 9999 -RA FEW046/// BKN088/// OVC100/// //////CB 15/14 Q1015 TEMPO 2500 TSRA", "LFSD 240730Z AUTO 13003KT 9999 ////// 12/12 Q1013", "LFSG 240730Z AUTO 19009KT CAVOK 16/12 Q1013", "LFSI 240730Z AUTO 20008KT 170V230 CAVOK 17/11 Q1012", "LFSL 240730Z AUTO VRB01KT CAVOK 10/10 Q1016 NOSIG", "LFSM 240730Z AUTO VRB02KT 9999 ///TCU 14/13 Q1014", "LFSN 240730Z AUTO 19003KT 160V230 CAVOK 16/13 Q1012", "LFSO 240730Z AUTO 21012KT CAVOK 16/11 Q1013 NOSIG", "LFST 240730Z AUTO VRB01KT 9999 BKN043 BKN076 BKN100 16/14 Q1014 TEMPO 20015G25KT SHRA FEW030CB", "LFSX 240730Z AUTO VRB03KT CAVOK 15/13 Q1014", "LFTH 240730Z AUTO 32002KT 9999 BKN018 OVC025 21/18 Q1018 TEMPO BKN010 BECMG 07010KT", "LFTW 240730Z AUTO 15011KT 120V180 9999 OVC007 21/20 Q1016 BECMG NSC", "LFVP 240730Z AUTO 31011KT CAVOK 11/08 Q1027", "LFYR 240730Z AUTO 19007KT 9999 SCT028 BKN034 16/13 Q1012 NOSIG", "LGAD 240720Z 00000KT CAVOK 21/17 Q1023", "LGAL 240720Z 00000KT CAVOK 17/12 Q1023", "LGAV 240720Z 05005KT 010V080 CAVOK 21/12 Q1023 NOSIG", "LGBL 240720Z 00000KT CAVOK 20/14 Q1023", "LGEL 240720Z 00000KT CAVOK 22/15 Q1023", "LGHI 240650Z 36009KT CAVOK 20/12 Q1021", "LGIO 240720Z 30001KT CAVOK 13/11 Q1026", "LGIR 240720Z VRB02KT 9999 FEW020 21/16 Q1022 NOSIG", "LGKF 240650Z 00000KT 9999 FEW012 20/19 Q1022", "LGKL 240720Z VRB03KT CAVOK 20/15 Q1022", "LGKO 240720Z 36011KT CAVOK 20/13 Q1020", "LGKP 240720Z 33015KT CAVOK 22/16 Q1020", "LGKR 240720Z 00000KT CAVOK 19/17 Q1022 NOSIG", "LGKV 240720Z 08004KT 9999 FEW018 18/13 Q1023", "LGKZ 240650Z 00000KT CAVOK 18/06 Q1025", "LGLM 240720Z 03003KT 8000 FEW008 19/18 Q1023", "LGMK 240720Z 02016KT 9999 FEW008 19/13 Q1022", "LGMT 240720Z VRB03KT CAVOK 18/12 Q1022", "LGNX 240650Z VRB03KT CAVOK 20/16 Q1022", "LGPA 240650Z 32008KT CAVOK 21/13 Q1022", "LGPZ 240720Z 00000KT 0700 FG VV000 18/18 Q1023", "LGRP 240720Z 25007KT CAVOK 21/15 Q1019 NOSIG", "LGRX 240720Z 00000KT CAVOK 18/18 Q1023", "LGSA 240720Z 00000KT CAVOK 21/15 Q1021", "LGSK 240720Z 16003KT 8000 SCT009 20/18 Q1021", "LGSM 240650Z 01010KT CAVOK 19/11 Q1021", "LGSO 240650Z 09004KT CAVOK 20/15 Q1022", "LGSR 240720Z 34008KT CAVOK 19/14 Q1022", "LGTS 240720Z VRB03KT 9999 FEW012 19/12 Q1024 NOSIG", "LGZA 240650Z 00000KT 9999 FEW018 19/17 Q1023", "LHBP 240730Z 07005KT 030V100 3000 BR OVC003 12/11 Q1019 TEMPO 2000 BR", "LHDC 240715Z AUTO 08003KT 050V110 9999 ////// 13/11 Q1020", "LHKE 240715Z 06004KT 5000 BR FEW083 BKN200 12/11 Q1019 BECMG 8000 NSW RMK WHT", "LHPA 240715Z 30006KT 0400 R34/0500V0900U FG OVC002 13/13 Q1019 NOSIG RMK RED", "LHPP 240715Z AUTO 00000KT 8000 NCD 15/14 Q1020", "LHPR 240715Z AUTO 06002KT 1600 BR OVC001 14/13 Q1019 BECMG 5000 BR BKN010", "LHSM 240715Z AUTO VRB02KT 5000 BR FEW005 13/13 Q1019 BECMG 6000 NSW SCT010", "LHSN 240715Z 07002KT 8000 NSC 11/11 Q1019 NOSIG RMK BLU", "LIBA 240655Z VRB02KT 0100 FG VV001 17/16 Q1022 RMK VIS MIN 0100 WIND THR11 VRB02KT WIND THR29 /////KT RED", "LIBC 240650Z VRB02KT CAVOK 19/19 Q1023", "LIBD 240720Z VRB02KT CAVOK 19/15 Q1022", "LIBF 240650Z VRB01KT 0150 FG VV/// 14/14 Q1022", "LIBG 240650Z 00000KT 0000 R35/////// FG VV/// 17/16 Q1023", "LIBN 240655Z VRB02KT 0150 FG OVC002 16/15 Q1022 RMK OVC VIS MIN 0150 WIND THR14 VRB02KT WIND THR32 VRB02KT RED", "LIBP 240720Z AUTO 23004KT 200V260 0700 R22/1200D FG VV002 15/15 Q1021", "LIBQ 240655Z 26002KT CAVOK 17/M08 Q1031", "LIBR 240720Z 20007KT 0700 R31/1300U FG BKN002 18/18 Q1022", "LIBV 240655Z 19003KT 150V220 CAVOK 15/13 Q1022 RMK SCT SCT200 VIS MIN 9999 WIND THR32 18006KT WIND THR14 19005KT BLU", "LIBY 240655Z 00000KT CAVOK 20/17 Q1022 RMK SKC QUK 1 QUL 0 VIS MAR 10 KM VIS MIN 9999", "LICA 240720Z AUTO VRB02KT 9999 OVC015/// 20/18 Q1024", "LICB 240720Z AUTO VRB02KT 9999 NCD 21/17 Q1026", "LICC 240720Z 27012KT CAVOK 22/09 Q1023", "LICD 240720Z AUTO 21010KT 9999 NCD 25/20 Q1024", "LICF 240655Z 06009KT CAVOK 21/17 Q1023 RMK SKC QUK 2 QUL 0 VIS MAR 10 KM MON LIB NC VIS MIN 9999", "LICG 240650Z 19011KT CAVOK 22/20 Q1024", "LICJ 240720Z VRB02KT CAVOK 21/15 Q1023", "LICR 240720Z AUTO 01005KT 340V050 9999 NCD 23/10 Q1023", "LICT 240655Z 14011KT 9999 FEW020 21/18 Q1024 RMK FEW VIS MIN 9999 WIND THR13 17008KT BLU", "LICZ 240655Z /////KT CAVOK 19/17 Q1023 RMK SKC VIS MIN 9999 WIND THR28 VRB03KT WIND THR10 30009KT A3021 BLU", "LIEA 240720Z 06002KT CAVOK 19/16 Q1020", "LIEB 240655Z 22006KT CAVOK 20/16 Q1021 RMK FEW FEW200 QUK 3 QUL 2 SE VIS MAR 25 KM MON LIB VIS MIN 9999", "LIED 240655Z 36002KT 2000 BR SCT003 SCT005 18/16 Q1021 RMK BKN VIS MIN 2000 WIND THR35 /////KT WIND THR17 31001KT YLO", "LIEE 240720Z AUTO 35004KT 0550 0400SE R32/0650N FG VV002 18/18 Q1021", "LIEO 240720Z VRB02KT CAVOK 15/14 Q1021", "LIMC 240720Z 11008KT 6000 BKN030 17/16 Q1019 NOSIG", "LIME 240720Z 02003KT 9999 SCT060 19/16 Q1019 NOSIG", "LIMF 240720Z 35003KT 7000 BKN010 17/16 Q1019", "LIMG 240650Z 27006KT 9999 FEW020 SCT026 18/16 Q1019", "LIMJ 240720Z 13022KT 9999 SCT015 SCT030 22/19 Q1019", "LIMK 240655Z 00000KT 0100 FG VV/// 15/15 Q1019 RMK VAL INVIS VIS MIN 0100", "LIML 240720Z 11007KT 080V140 8000 SCT010 SCT030 17/15 Q1019 NOSIG", "LIMN 240655Z /////KT 3500 -DZ BR FEW010 SCT030 16/16 Q1018 RMK OVC VIS MIN 3500 YLO", "LIMP 240650Z 10004KT 0500 R20/0600 FG BKN005 16/16 Q1019", "LIMS 240655Z 24002KT 0700 0600N R30/1500 R12/1000 FG BKN002 13/13 Q1018 RMK BKN VIS MIN 0600N WIND THR30 23002KT RED", "LIMU 240655Z 18003KT 9999 BKN020 19/16 Q1019 RMK BKN QUK 1 QUL 1 SE VIS MAR 20 KM VIS MIN 9999", "LIMV 240655Z /////KT 9999 SCT007 17/16 Q1021 RMK BKN MON N LIB S CIME INC CUF VAL NIL VIS MIN 9999", "LIMW 240720Z AUTO VRB02KT 9999 -RA OVC020/// 14/14 Q1020", "LIMY 240655Z 20003KT 3200 BR FEW018 16/14 Q1018 RMK BKN SCT190 VAL FOSCHIA VIS MIN 3200", "LIMZ 240720Z AUTO VRB02KT 9999 BKN025/// 16/14 Q1019", "LIPA 240655Z 03006KT 5000 BR FEW010 SCT015 BKN025 17/17 Q1020 RMK OVC VIS MIN 3000NE WIND THR05 /////KT WIND THR23 /////KT A3013 YLO", "LIPB 240650Z VRB01KT 9999 FEW040 BKN080 13/13 Q1020", "LIPC 240655Z 14004KT CAVOK 16/14 Q1020 RMK BKN SCT100 SCT200 VIS MIN 9999 WIND THR11 20004KT WIND THR29 15003KT BLU", "LIPE 240720Z 10003KT 0800 R12/0750U R30/1200U FG SCT002 15/15 Q1019", "LIPF 240655Z VRB02KT 0300 FG OVC003 16/15 Q1020 RMK OVC VIS MIN 0300", "LIPH 240720Z 05004KT 4000 BR BKN004 BKN020 19/18 Q1020", "LIPI 240655Z 13006KT 4500 BR SCT006 BKN013 18/18 Q1020 RMK OVC VIS MIN 4500 WIND THR06 16006KT WIND THR24 14007KT BLK GRN", "LIPK 240650Z VRB02KT CAVOK 16/13 Q1020", "LIPL 240655Z 12005KT 8000 NSC 15/13 Q1019 RMK SCT FEW120 SCT180 VIS MIN 8000 WIND THR31 11004KT WIND THR13 13004KT BLU", "LIPO 240720Z AUTO 08003KT 360V100 9999 NCD 17/16 Q1020", "LIPQ 240720Z AUTO VRB01KT 9999 BKN040/// 18/17 Q1020", "LIPR 240720Z VRB02KT 9999 SCT070 20/15 Q1021", "LIPS 240655Z /////KT 6000 OVC005 19/17 Q1019 RMK OVC VIS MIN 6000 WIND THR26 02005KT WIND THR08 06005KT YLO", "LIPX 240720Z 35004KT 9999 FEW060 16/14 Q1020", "LIPY 240720Z AUTO VRB02KT 9999 NCD 15/15 Q1021", "LIPZ 240720Z VRB02KT 1500 BR BKN004 19/18 Q1020 NOSIG", "LIQC 240655Z 00000KT CAVOK 17/15 Q1024 RMK SKC QUK 1 QUL 0 VIS MAR 20 KM VIS MIN 9999", "LIQO 240655Z AUTO /////KT //// ///// Q////", "LIQW 240655Z /////KT 9999 SCT030 22/19 Q1021 RMK SCT VIS MIN 9999 WIND THR18 13006KT BLU", "LIRA 240720Z 05003KT 020V080 CAVOK 16/14 Q1024", "LIRE 240655Z 10007KT 9999 FEW015 19/17 Q1023 RMK FEW VIS MIN 9999 WIND THR13 12008KT WIND THR31 /////KT BLU", "LIRF 240720Z 09005KT 9000 FEW030 17/17 Q1023 NOSIG", "LIRG 240655Z VRB02KT CAVOK 11/10 Q1023 RMK SCT SCT200 MON NE LIB NC VIS MIN 9999 BLU", "LIRH 240708Z 30002KT 0900 FG BKN003 13/13 Q1023 RMK BKN MON INVIS NC VIS MIN 0900 WIND THR16 00000KT AMB", "LIRK 240655Z AUTO 25003KT //// 11/M18 Q1032", "LIRL 240655Z VRB03KT CAVOK 16/16 Q1023 RMK FEW FEW200 MON LIB NC VIS MIN 9999 WIND THR12 /////KT WIND THR30 VRB03KT BLU", "LIRM 240655Z 05002KT 0600 FG BKN005 16/16 Q1023 RMK BKN VIS MIN 0600 WIND THR06 08002KT RED", "LIRN 240720Z VRB02KT 7000 NSC 17/14 Q1024 NOSIG", "LIRP 240715Z 10008KT 9999 FEW020 BKN025 21/16 Q1021 NOSIG", "LIRQ 240720Z 15003KT 9999 BKN050 20/17 Q1022", "LIRS 240655Z 12005KT 9999 SCT025 20/18 Q1021 RMK BKN SCT200 VIS MIN 9999 WIND THR03 13005KT WIND THR21 13006KT BLU", "LIRT 240655Z 23009KT CAVOK 16/02 Q1027", "LIRU 240715Z 35003KT 6000 NSC 13/13 Q1024", "LIRV 240655Z 01004KT 1000 BR SCT007 12/10 Q1023 RMK SCT MON E SE INVIS NC VIS MIN 1000 WIND THR04 /////KT AMB", "LIRX 240655Z 16015KT 0000 FG VV/// 19/17 Q1021 RMK VIS MIN 0000 VIS MAR 30 M", "LIRZ 240720Z AUTO VRB01KT 9999 BKN016/// 15/14 Q1024", "LIVC 240715Z AUTO 23023G34KT ///// 09/02 Q1028", "LIVD 240655Z VRB02KT 9999 SCT025 09/09 Q1023 RMK BKN SCT200 VIS MIN 9999", "LIVE 240655Z 00000KT 5000 -RA BR SCT009 BKN015 09/08 Q1021 RMK OVC VIS MIN 5000", "LIVF 240655Z 05005KT 9999 FEW030 17/10 Q1021", "LIVM 240655Z AUTO VRB02KT //// 16/14 Q1020", "LIVO 240655Z 00000KT 9999 BKN030 13/11 Q1019 RMK BKN VIS MIN 9999", "LIVP 240655Z 21023G33KT 0000 -RA FG VV/// 07/07 Q1022 RMK MON INVIS VAL INVIS VIS MIN 0000", "LIVR 240655Z 18011KT 0800 FG VV/// 07/05 Q1023 RMK MON INVIS VIS MIN 0800", "LIVT 240655Z VRB03KT 9999 SCT040 20/17 Q1020 RMK BKN SCT060 QUK 0 QUL 0 VIS MAR 10 KM VIS MIN 9999", "LJCE 240730Z VRB01KT CAVOK 16/14 Q1020 RMK BLU", "LJLJ 240730Z VRB02KT 9999 FEW028 BKN055 14/14 Q1021 NOSIG", "LJMB 240730Z 12003KT CAVOK 14/13 Q1019", "LJPZ 240730Z 14005KT 100V180 CAVOK 20/17 Q1021", "LKCV 240730Z 12003KT CAVOK 13/11 Q1016 NOSIG RMK BLU BLU", "LKKB 240700Z VRB02KT CAVOK 12/12 Q1016 NOSIG", "LKKU 240700Z 00000KT 8000 FEW008 BKN014 12/11 Q1018", "LKKV 240730Z 09003KT 050V140 9999 BKN011 12/11 Q1016", "LKLN 240700Z AUTO 00000KT 9000 FEW110 BKN140 BKN200 11/11 Q1016", "LKMT 240730Z 23012KT 9999 FEW016 14/12 Q1017 NOSIG", "LKNA 240730Z 17007KT 0100 R30/0300N -RA FG VV001 11/11 Q1018 RERA NOSIG RMK RED RED", "LKPD 240730Z 06003KT 040V100 CAVOK 13/12 Q1016 NOSIG RMK BLU BLU", "LKPR 240730Z 14005KT CAVOK 13/13 Q1015 NOSIG", "LKTB 240730Z 14003KT 0250 R27/0600N FG VV002 12/12 Q1017 NOSIG", "LKVO 240700Z 14005KT CAVOK 13/12 Q1016", "LLBG 240720Z 21004KT 180V240 9999 FEW028 24/16 Q1017 NOSIG", "LLER 240650Z 36009KT CAVOK 23/14 Q1017", "LLHA 240650Z VRB03KT 9999 FEW035 25/15 Q1017", "LLIB 240650Z AUTO VRB03KT CAVOK 23/13 Q1017", "LMML 240715Z 24003KT 210V270 CAVOK 22/19 Q1025 NOSIG", "LOAN 240700Z VRB02KT 0300 FG BKN003", "LOAV 240700Z VRB02KT 9999 FEW010 14/10", "LOWG 240720Z AUTO VRB02KT CAVOK 10/09 Q1019 NOSIG", "LOWI 240720Z VRB01KT 9999 -RA FEW025 BKN045 13/12 Q1019 NOSIG", "LOWK 240720Z VRB02KT 0400 R10/0500N R28/0400N FG BKN001 09/09 Q1021 TEMPO 0700 BCFG SCT002", "LOWL 240720Z VRB02KT 3500 -SHRA BR FEW003 SCT070 BKN080 11/11 Q1018 BECMG 6000", "LOWS 240720Z VRB01KT 9999 FEW050 BKN070 14/12 Q1019 NOSIG", "LOWW 240720Z VRB01KT 9999 FEW001 13/11 Q1019 NOSIG", "LOXZ 240720Z VRB02KT 9999 FEW050 SCT300 08/08 Q1021", "LPAZ 240730Z 33012KT 9999 FEW022 17/13 Q1013", "LPBJ 240700Z 08002KT 9999 FEW045 15/14 Q1018", "LPFR 240730Z 07008G18KT 9999 FEW008 SCT012 FEW020TCU 19/18 Q1017", "LPHR 240700Z 34007KT 9999 FEW016 BKN035 16/13 Q1015", "LPLA 240700Z /////KT 9999 FEW018 SCT025 17/15 Q1014", "LPMA 240730Z 22013KT 9999 SCT016 SCT060 21/14 Q1014", "LPMR 240700Z 15005KT 9999 FEW020 15/14 Q1016", "LPMT 240700Z 11005KT 9999 SCT022 16/15 Q1016", "LPPD 240730Z 36007KT 330V040 9999 FEW020 17/13 Q1013", "LPPR 240730Z 18012KT 9999 FEW012 SCT041 16/15 Q1015", "LPPS 240730Z 21010KT 9999 FEW014 20/15 Q1014", "LPPT 240730Z 15005KT 110V200 9999 FEW003 SCT016 17/16 Q1017", "LPST 240700Z 17008KT 5000 BR SCT004 17/16 Q1016", "LQBK 240730Z VRB02KT CAVOK 14/14 Q1020 NOSIG", "LQMO 240730Z VRB02KT 9999 4900SE NSC 14/12 Q1022", "LQSA 240730Z VRB01KT CAVOK 10/09 Q1023 NOSIG", "LQTZ 240730Z VRB01KT CAVOK 11/10 Q1020", "LRAR 240730Z 14010KT CAVOK 16/11 Q1020", "LRBC 240730Z 11003KT 060V140 6000 FEW002 10/07 Q1021", "LRBM 240730Z 10004KT 9999 BKN043 12/10 Q1022", "LRBO 240700Z 27008KT 9999 BKN200 14/08 Q1022 BLU BLU", "LRBS 240730Z 00000KT CAVOK 14/08 Q1023 NOSIG", "LRCK 240730Z 10006KT 9999 FEW020 19/13 Q1022 NOSIG", "LRCL 240730Z VRB01KT 0600 R25/0800U FG OVC001 09/09 Q1023", "LRCT 240700Z 12004KT 0300 FG VV002 07/07 Q1023 RED RED", "LRCV 240730Z 06004KT 030V090 CAVOK 14/08 Q1022", "LRFT 240700Z 23006KT 9999 SCT200 13/08 Q1023 BLU BLU", "LRIA 240730Z 00000KT 7000 NSC 11/09 Q1021", "LROD 240730Z 10006KT 9999 BKN043 15/10 Q1020", "LROP 240730Z 00000KT CAVOK 15/07 Q1023 NOSIG", "LRSB 240730Z 13003KT 100V180 9999 FEW065 09/07 Q1023", "LRSM 240730Z 12006KT CAVOK 14/10 Q1021", "LRSV 240730Z 24007KT CAVOK 14/09 Q1020", "LRTC 240730Z VRB01KT CAVOK 16/06 Q1023", "LRTM 240730Z 10003KT 050V140 8000 FEW004 08/08 Q1023", "LRTR 240730Z 11009KT CAVOK 15/11 Q1021", "LRTZ 240700Z 14006KT 9999 SCT007 18/15 Q1022 BLU BLU", "LSGC 240720Z 23004KT 170V260 7000 +TSRA FEW011 BKN030CB 11/11 Q1017 RETS", "LSGG 240720Z 31003KT 9999 FEW020 FEW040TCU BKN060 14/13 Q1016 RESHRA TEMPO SHRA", "LSGS 240720Z VRB02KT 7000 RA FEW010 SCT030 OVC050 14/13 Q1020", "LSMA 240720Z VRB03KT 9999 FEW026 BKN098 14/13 Q1017 RMK BLU", "LSMD 240720Z 13004KT 8000 -SHRA FEW063 BKN078 14/13 Q1017 RMK BLU", "LSME 240720Z VRB02KT 9999 -SHRA FEW040 SCT074 BKN120 14/14 Q1016 RMK BLU", "LSMM 240720Z 14003KT 080V190 9999 FEW026 BKN110 13/13 Q1017 RMK BLU", "LSMP 240720Z AUTO VRB01KT 9999NDV -SHRA FEW044 BKN070 13/12 Q1016 RMK", "LSZA 240720Z VRB03KT 5000 +RA FEW008 SCT021 BKN024 17/17 Q1019", "LSZB 240720Z VRB02KT 9999 SCT075 BKN085 //////TCU 13/13 Q1016", "LSZC 240720Z 02003KT 320V060 7000 -RA VCSH FEW050 SCT060 BKN070 14/13 Q1017", "LSZG 240720Z VRB01KT 9999 TS SCT055CB BKN065 13/13 Q1016", "LSZH 240720Z VRB03KT 9999 -SHRA FEW050TCU SCT065 13/12 Q1016 RESHRA TEMPO TSRA", "LSZL 240720Z 32004KT 270V010 7000 -SHRA FEW005 BKN040 OVC045 17/16 Q1018 RMK WHT", "LSZR 240720Z 27008KT 8000 -RA BKN050 BKN065 15/14 Q1017 RMK E", "LSZS 240720Z VRB02KT 5000 -RA SCT003 BKN030 OVC045 08/07 Q1022 RMK D TL170", "LTAC 240720Z 00000KT CAVOK 11/01 Q1025 NOSIG RMK RWY21L VRB02KT RWY03L VRB01KT RWY21R VRB02KT", "LTAE 240650Z VRB01KT CAVOK 11/03 Q1025 NOSIG RMK RWY21 00000KT", "LTAF 240720Z VRB03KT CAVOK 24/06 Q1018 NOSIG RMK RWY23 VRB02KT SKC", "LTAG 240720Z 10003KT CAVOK 26/01 Q1017 NOSIG RMK SKC", "LTAI 240720Z VRB01KT CAVOK 23/06 Q1019 NOSIG RMK RWY18C VRB02KT RWY36R VRB01KT RWY18L VRB02KT", "LTAJ 240720Z 00000KT CAVOK 21/05 Q1020 NOSIG RMK RWY10 10002KT SKC", "LTAL 240650Z 22007KT 9999 SCT033 SCT100 11/06 Q1025", "LTAN 240650Z VRB02KT CAVOK 13/00 Q1025 NOSIG", "LTAP 240720Z VRB02KT CAVOK 15/03 Q1023 NOSIG RMK RWY23 VRB02KT", "LTAR 240650Z 30006KT CAVOK 09/M05 Q1025", "LTAS 240650Z VRB03KT 9999 FEW040 SCT100 13/09 Q1025", "LTAT 240720Z 10003KT 050V150 CAVOK 14/02 Q1023 NOSIG RMK RWY03 08003KT 030V150", "LTAU 240720Z 00000KT 9999 FEW040 11/01 Q1025 NOSIG RMK RWY07 24001KT", "LTAW 240650Z 00000KT CAVOK 12/05 Q1022", "LTAY 240650Z 00000KT CAVOK 13/M00 Q1024", "LTAZ 240720Z 12004KT 080V170 CAVOK 12/M05 Q1025 RMK RWY29 VRB03KT", "LTBA 240720Z 12005KT 090V150 CAVOK 17/13 Q1023 RMK RWY23 12004KT 090V150", "LTBD 240650Z 07005KT CAVOK 16/02 Q1021", "LTBF 240650Z 00000KT CAVOK 13/07 Q1024 NOSIG", "LTBH 240650Z 06003KT CAVOK 16/11 Q1023", "LTBJ 240720Z 36016KT CAVOK 20/09 Q1021 NOSIG RMK RWY16 01012KT", "LTBO 240650Z 07008KT 040V100 CAVOK 17/04 Q1024", "LTBQ 240650Z 15003KT 110V190 CAVOK 15/12 Q1024 NOSIG", "LTBR 240720Z VRB02KT CAVOK 13/07 Q1025 NOSIG RMK RWY07 VRB01KT", "LTBS 240720Z VRB02KT CAVOK 21/08 Q1019 BECMG TL0900 21012KT RMK RWY19 00000KT SKC", "LTBU 240720Z 12005KT 090V160 CAVOK 20/11 Q1023 RMK RWY22 14004KT 090V170", "LTBY 240650Z VRB02KT CAVOK 11/04 Q1025", "LTCA 240650Z 00000KT CAVOK 14/04 Q1022 NOSIG", "LTCB 240650Z 22007KT 9999 BKN035 19/11 Q1023", "LTCC 240720Z VRB02KT CAVOK 18/05 Q1020 NOSIG RMK RWY16 02004KT 340V090 1CI200", "LTCD 240650Z 00000KT 9999 SCT080 11/03 Q1023 NOSIG", "LTCE 240720Z 29003KT 250V350 CAVOK 09/00 Q1023 NOSIG RMK RWY08R VRB02KT RWY26R VRB02KT RWY08L VRB02KT SKC", "LTCF 240650Z 28006KT 9999 SCT040 BKN070 04/03 Q1023", "LTCG 240720Z 24006KT 190V260 9999 SCT035 BKN100 19/09 Q1023 NOSIG RMK RWY29 27006KT 240V300", "LTCI 240650Z 27005KT 210V300 9999 SCT040 12/05 Q1025 NOSIG", "LTCJ 240720Z 33003KT 250V050 CAVOK 14/10 Q1020 NOSIG RMK RWY20 30003KT 240V010 SKC", "LTCK 240650Z VRB02KT 9999 FEW035 SCT080 BKN180 09/06 Q1022", "LTCL 240650Z 24005KT 9999 4900SW BR NSC 12/12 Q1021", "LTCM 240650Z 28009KT 260V320 9999 FEW013 SCT030 17/14 Q1024", "LTCN 240650Z 14003KT 110V190 CAVOK 16/05 Q1021 NOSIG", "LTCO 240650Z VRB02KT 9999 BKN070 05/02 Q1023", "LTCP 240650Z 15006KT 110V170 CAVOK 18/03 Q1020", "LTCR 240650Z 35006KT 290V030 9999 FEW040 21/02 Q1019", "LTCS 240720Z VRB03KT CAVOK 19/03 Q1021 RMK RWY22 VRB03KT SKC", "LTCT 240650Z 32011KT 9999 SCT080 BKN150 13/04 Q1022", "LTCU 240650Z 11003KT 060V150 CAVOK 11/04 Q1022", "LTCV 240650Z 25004KT CAVOK 17/10 Q1019", "LTCW 240650Z 19014KT 150V220 9999 SCT030 BKN080 12/02 Q1023", "LTDA 240650Z VRB02KT CAVOK 20/11 Q1019 NOSIG", "LTFB 240650Z 05004KT 030V090 CAVOK 15/07 Q1022", "LTFC 240720Z VRB02KT CAVOK 14/00 Q1024 RMK RWY23 27003KT 200V310", "LTFD 240650Z 06003KT 020V100 CAVOK 19/10 Q1023", "LTFE 240720Z VRB02KT CAVOK 18/10 Q1020 NOSIG RMK RWY10 VRB01KT", "LTFG 240650Z 10003KT 070V160 CAVOK 21/07 Q1020", "LTFH 240650Z VRB02KT 9999 SCT030 BKN100 16/13 Q1024 NOSIG", "LTFJ 240720Z 16003KT CAVOK 18/11 Q1023 NOSIG RMK RWY24 VRB02KT", "LTFK 240650Z VRB02KT CAVOK 19/16 Q1024", "LTFM 240720Z 18004KT CAVOK 19/11 Q1024 NOSIG RMK RWY17L 17004KT RWY34L 15004KT RWY16R 17005KT RWY36 17005KT 140V200 RWY18 18003KT", "LTFO 240650Z 21010KT 9999 -SHRA FEW020CB BKN035 19/12 Q1022 RETSRA", "LUKK 240730Z 23003KT 200V260 CAVOK 13/10 Q1022 NOSIG", "LWOH 240730Z 00000KT CAVOK 16/11 Q1027", "LWSK 240730Z 00000KT CAVOK 13/10 Q1025 NOSIG", "LXGB 240720Z 26004KT CAVOK 18/15 Q1018 NOSIG", "LYBE 240730Z VRB02KT CAVOK 17/13 Q1021 NOSIG", "LYNI 240730Z 16003KT 120V250 CAVOK 14/11 Q1023 NOSIG", "LYPG 240730Z VRB01KT CAVOK 17/12 Q1024 NOSIG", "LYTV 240730Z 00000KT CAVOK 17/16 Q1023 NOSIG", "LZIB 240730Z 08005KT 2100 -DZ BR OVC003 14/14 Q1019 TEMPO 1200 DZ BR", "LZKZ 240730Z VRB02KT 9999 FEW008 BKN020 13/11 Q1020 NOSIG", "LZPP 240730Z 04002KT 7000 SCT006 BKN018 15/14 Q1019", "LZTT 240730Z VRB02KT CAVOK 09/08 Q1019 NOSIG", "LZZI 240730Z VRB01KT 9999 SCT003 BKN015 09/09 Q1019", "MDPC 240700Z 00000KT 9999 FEW018 25/23 Q1013", "MDSD 240700Z 02004KT 9999 FEW016CB FEW018 23/22 Q1013 CB/SW", "MDST 240700Z 00000KT 9999 SCT016 23/22 Q1013", "MHTG 240700Z 00000KT 9999 FEW017 19/19 Q1019 A3009 RERA NOSIG", "MPTO 240700Z 00000KT 7000 -RA SCT004 BKN012CB 25/24 Q1012 RETS TEMPO 6000 RA", "MROC 240700Z 05005KT 9999 FEW030 BKN200 19/18 A3006 NOSIG", "MSLP 240650Z 06003KT 9999 FEW020 FEW037CB SCT057 25/24 Q1012 A2988 NOSIG RMK CB NE", "MUCF 240659Z AUTO 04005KT 22/21 Q1015", "MUCL 240650Z AUTO 07005KT 030V110 26/23 Q1014", "MUCM 240650Z 04004KT 8000 FEW020 22/21 Q1015", "MUCU 240650Z 34006KT 9000 FEW020 BKN060 24/21 Q1013", "MUGM 240651Z 33005KT 10SM SCT150 OVC180 25/21 A2992 RMK AO2 SLP131 T02500211 $", "MUHA 240650Z VRB01KT 9000 FEW030 19/19 Q1016", "MUHG 240650Z VRB01KT 9999 FEW020 21/21 Q1014", "MUVR 240650Z 13004KT 9999 FEW020 20/19 Q1016", "MYNN 240700Z VRB02KT 9999 FEW040 23/19 A3000", "NCAI 240700Z AUTO 04006KT //// ////// 26/23 Q1010", "NCAT 240700Z AUTO 34005KT //// ////// ///// Q////", "NCMG 240700Z AUTO 33008KT //// ////// ///// Q////", "NCMH 240700Z AUTO 18001KT //// ////// ///// Q1012", "NCMK 240700Z AUTO NIL", "NCMR 240700Z AUTO 35003KT //// ////// ///// Q1010", "NCNS 240700Z AUTO 25001KT //// ////// 27/21 Q1012", "NCPK 240700Z AUTO NIL", "NCPL 240700Z AUTO 32003KT //// ////// 26/24 Q1009", "NCPY 240700Z AUTO 04005KT //// ////// 27/23 Q1012", "NCRG 240730Z AUTO 34009KT 300V360 9999 OVC075/// 24/21 Q1010", "NCRK 240700Z AUTO 33001KT //// ////// 26/22 Q1011", "NCSW 240700Z AUTO 26003KT //// ////// 27/24 Q1011", "NFFN 240700Z 13008KT 9999 FEW028 SCT048 BKN120 25/20 Q1011 NOSIG", "NFNA 240700Z 12005KT 9999 SCT018 BKN045 BKN110 24/20 Q1013", "NFTF 240700Z 14012G24KT 9999 FEW014 22/16 Q1015", "NGFU 240700Z 01006KT 9999 FEW018TCU BKN300 28/24 Q1010", "NGTA 240700Z 07003KT 9999 FEW019 SCT040 BKN300 27/24 Q1009", "NIUE 240700Z 20009KT 9999 SCT017 BKN030 BKN100 24/19 Q1009", "NLWW 240730Z AUTO VRB03KT 9999 FEW016/// SCT028/// OVC041/// 26/24 Q1010 TEMPO 2000 TSRA BKN012 FEW018CB SCT020TCU", "NSFA 240700Z 31009KT 9999 FEW023 SCT120 OVC290 26/24 Q1011", "NSTU 240650Z 33012KT 10SM SCT018 BKN040 27/24 A2981 RMK SLP095 T02720241", "NVSS 240700Z 01003KT 9999 FEW012 SCT018 BKN040 24/24 Q1009 RERA", "NVVV 240700Z 06009KT 5000 RA FEW010 BKN018 FEW025CB OVC090 23/22 Q1009 RMK POOR VIS", "NWWW 240730Z AUTO 05008KT 010V100 9999 FEW046 BKN058 25/17 Q1012 TEMPO 05018G28KT FEW025TCU", "NZAA 240730Z AUTO 21017KT 9999 SCT019/// 16/12 Q1025 NOSIG", "NZCH 240730Z AUTO 18010KT 9999 -RA FEW012/// SCT027/// OVC100/// 08/06 Q1032 NOSIG", "NZCM 240655Z AUTO 07016G22KT 9999 BKN034 BKN230 M23/M28 A2941 RMK AO2 SLP965 T12281277 $", "NZFX 240655Z 05014KT 9999 FEW024 BKN045 BKN070 OVC150 M23/M26 A2944 RMK VIS GRID S-W 2400 SLP963 LSR12 VCBLSN GRID S-W GRID22014KT SDF/HDF HDN GRID S-W", "NZWN 240730Z AUTO 17022KT 9999 SCT019/// BKN028/// OVC055/// 12/08 Q1029 NOSIG", "OBBI 240730Z 30006KT CAVOK 33/12 Q1014 NOSIG", "OEAB 240700Z 21006KT CAVOK 22/00 Q1027 NOSIG", "OEAH 240700Z 27007KT CAVOK 34/02 Q1015 NOSIG", "OEAO 240700Z 27002KT CAVOK 29/07 Q1017 NOSIG", "OEBA 240700Z 11006KT CAVOK 24/08 Q1024 NOSIG", "OEBH 240700Z 18003KT CAVOK 27/08 Q1020 NOSIG", "OEDF 240700Z 29004KT CAVOK 32/06 Q1014 NOSIG", "OEDM 240700Z 21010KT CAVOK 29/M04 Q1020", "OEDR 240700Z 36005KT 7000 NSC 33/02 Q1014", "OEGN 240700Z 21004KT 9999 SCT030 35/25 Q1014 NOSIG", "OEGS 240700Z 21009KT CAVOK 29/07 Q1018", "OEGT 240700Z 02008KT CAVOK 22/10 Q1017 NOSIG", "OEHL 240700Z 23008KT CAVOK 27/00 Q1020", "OEJB 240700Z AUTO 00000KT CAVOK 31/06 Q1014 NOSIG", "OEJN 240700Z 34006KT CAVOK 32/22 Q1012 NOSIG", "OEKJ 240700Z 26007KT CAVOK 32/M02 Q1020", "OEKM 240700Z 14003KT CAVOK 23/04 Q1027 NOSIG", "OEMA 240700Z 13004KT CAVOK 31/M01 Q1018 NOSIG", "OEMN 240700Z 00000KT CAVOK 33/20 Q1015", "OENG 240700Z 05005KT CAVOK 28/03 Q1022 NOSIG", "OEPA 240700Z 22008KT CAVOK 31/07 Q1016 NOSIG", "OERF 240700Z 22014KT CAVOK 31/M04 Q1015 NOSIG", "OERK 240700Z 10003KT CAVOK 31/07 Q1019 NOSIG", "OERR 240700Z 04018KT 8000 NSC 24/06 Q1016 NOSIG", "OESH 240700Z 11011KT CAVOK 32/05 Q1018 NOSIG", "OESK 240700Z 29004KT CAVOK 24/07 Q1019 NOSIG", "OETB 240700Z 33003KT CAVOK 21/10 Q1018 NOSIG", "OETF 240700Z 18006KT CAVOK 26/04 Q1024 NOSIG", "OETR 240700Z 08018KT CAVOK 23/11 Q1019 NOSIG", "OEWD 240700Z 11006KT CAVOK 31/09 Q1018", "OEWJ 240700Z 29005KT CAVOK 28/21 Q1013 NOSIG", "OEYN 240700Z 09006KT CAVOK 30/24 Q1011 NOSIG", "OIAA 240700Z 16002KT 7000 NSC 33/14 Q1014", "OIAG 240700Z 04006KT 6000 NSC 31/17 Q1015", "OIAH 240700Z 00000KT CAVOK 28/09 Q1019", "OIAI 240700Z 34002KT CAVOK 30/07 Q1015", "OIAM 240700Z 00000KT 5000 HZ NSC 29/23 Q1014", "OIAW 240730Z 18002KT 5000 HZ NSC 33/21 Q1013", "OIBA 240700Z 24004KT 3500 HZ NSC 33/23 Q1013", "OIBB 240700Z 27006KT 6000 NSC 30/23 Q1014 A2995 NOSIG", "OIBH 240700Z 21006KT 4000 HZ FEW030 31/25 Q1013 A2993", "OIBJ 240700Z AUTO VRB01KT //// // ////// 32/10 Q1018", "OIBK 240730Z 28008KT 7000 NSC 33/23 Q1013", "OIBL 240700Z 18004KT 5000 HZ NSC 32/23 Q1013", "OIBP 240700Z 29006KT 6000 NSC 32/23 Q1013 A2993", "OIBQ 240700Z 33004KT 6000 NSC 30/24 Q1014 A2996", "OIBS 240700Z 24004KT 5000 HZ NSC 32/24 Q1014", "OIBV 240700Z 31004KT 7000 NSC 32/23 Q1013", "OICC 240730Z 09004KT 9000 SCT090 BKN200 24/M01 Q1022 A3020", "OICI 240700Z 14006KT 9000 FEW050 BKN090 24/03 Q1024 A3025", "OICJ 240700Z 15004KT CAVOK 20/M04 Q1025", "OICK 240700Z 12002KT CAVOK 22/M02 Q1022", "OICM 240700Z 15004KT CAVOK 35/11 Q1011", "OICS 240700Z 34004KT 9999 SCT045 SCT080 17/07 Q1022 A3019 BECMG FM 0800 FEW035CB SCT045 BKN080", "OIFK 240700Z 33004KT CAVOK 23/03 Q1020 A3012", "OIFM 240730Z 28008KT CAVOK 24/M05 Q1025 A3027", "OIFS 240700Z 14004KT CAVOK 19/M07 Q1028", "OIGG 240730Z 00000KT 9999 FEW010CB BKN015 BKN080 18/17 Q1017", "OIGK 240650Z 23012KT 9999 BKN035 13/06 Q1023", "OIHH 240700Z 21006KT 9999 SCT040 21/M03 Q1023 A3023", "OIHM 240700Z 23006KT CAVOK 21/M04 Q1024", "OIHR 240730Z 35010KT 6000 NSC 18/04 Q1024", "OIIE 240700Z 04004KT 9999 FEW040 23/05 Q1020", "OIII 240730Z 18006KT 9999 FEW040 23/03 Q1020 A3014", "OIIK 240700Z 05004KT 9999 FEW040CB OVC100 17/10 Q1021", "OIIP 240700Z 20004KT 6000 SCT040 BKN100 21/06 Q1020 A3012", "OIIS 240700Z 18004KT CAVOK 22/06 Q1020", "OIKB 240730Z 16006KT 5000 HZ NSC 32/24 Q1013 A2993", "OIKK 240700Z 00000KT CAVOK 24/M04 Q1025 A3028", "OIKO 240700Z 19002KT 8000 NSC 33/16 Q1014", "OIKQ 240700Z 21008KT 4000 HZ NSC 32/27 Q1014 NOSIG", "OIMB 240700Z 00000KT CAVOK 28/M07 Q1022 A3020", "OIMC 240651Z 28004KT CAVOK 19/10 Q1018", "OIMD 240700Z 04004KT CAVOK 22/07 Q1017", "OIMJ 240700Z 25004KT CAVOK 20/07 Q1020", "OIMM 240730Z 01004KT 8000 FEW045 21/11 Q1020 A3012", "OIMN 240700Z VRB02KT 9000 NSC 16/08 Q1020", "OIMQ 240700Z 18004KT 9999 FEW030 22/07 Q1020", "OIMS 240700Z 06008KT CAVOK 20/11 Q1021", "OINB 240700Z 23004KT 9999 SCT020 FEW025CB BKN090 20/17 Q1016", "OINE 240700Z 15004KT CAVOK 24/13 Q1015", "OING 240700Z 03004KT 9999 FEW030 23/15 Q1017 NOSIG", "OINK 240700Z 00000KT CAVOK 23/13 Q1014", "OINN 240700Z 00000KT 9999 FEW022TCU BKN026 OVC090 20/16 Q1015", "OINR 240700Z 33002KT 9999 FEW022CB BKN026 21/15 Q1016", "OINZ 240700Z 26008KT 9999 FEW018 BKN025 BKN090 20/17 Q1016", "OISA 240700Z 29002KT CAVOK 21/M05 Q1028 A3036", "OISF 240700Z 00000KT 7000 NSC 25/M01 Q1023 A3022", "OISL 240700Z 00000KT CAVOK 29/05 Q1018 A3006 NOSIG", "OISR 240700Z 00000KT CAVOK 32/11 Q1017 A3004 NOSIG", "OISS 240700Z 00000KT 7000 NSC 22/01 Q1024 A3026", "OISY 240730Z 00000KT CAVOK 21/M03 Q1027", "OITK 240700Z 00000KT 9999 SCT040 BKN190 11/07 Q1020", "OITL 240700Z 30004KT 8000 VCFG FEW010 BKN180 11/10 Q1019 NOSIG", "OITM 240700Z 16008KT 8000 FEW035 SCT090 OVC180 16/07 Q1020", "OITP 240700Z 31006KT CAVOK 14/13 Q1016", "OITR 240730Z 13004KT 4500 2000NE HZ SCT040 BKN180 12/08 Q1020", "OITT 240730Z 29004KT 3000 HZ FEW030 SCT080 BKN180 12/07 Q1021 A3016", "OITU 240652Z 05004KT CAVOK 12/04 Q1021", "OITZ 240700Z 08010KT 9999 SCT030 FEW035CB BKN060 11/08 Q1020 A3014 RESHRA", "OIYY 240700Z 04004KT CAVOK 25/02 Q1023 NOSIG", "OIZB 240700Z 34006KT CAVOK 27/08 Q1017", "OIZC 240700Z 25012KT 5000 HZ NSC 33/23 Q1012", "OIZH 240730Z 04004KT CAVOK 29/M05 Q1021 A3018", "OIZI 240730Z 24004KT 8000 NSC 31/08 Q1016", "OIZJ 240700Z 14008KT 8000 NSC 29/25 Q1012", "OJAI 240700Z VRB02KT 3000 HZ NSC 19/14 Q1019 NOSIG", "OJAM 240700Z 00000KT 5000 HZ NSC 20/12 Q1020 NOSIG", "OJAQ 240700Z 36006KT 8000 NSC 23/16 Q1017 NOSIG", "OKBK 240700Z 22003KT 7000 NSC 33/04 Q1014 NOSIG", "OLBA 240700Z VRB02KT CAVOK 25/16 Q1019 NOSIG", "OMAA 240700Z 06004KT 360V150 CAVOK 33/14 Q1014 BECMG 33010KT", "OMAD 240700Z 08003KT 010V120 CAVOK 34/16 Q1014 BECMG 33010KT", "OMAL 240700Z 16005KT 120V190 CAVOK 33/08 Q1016 NOSIG", "OMDB 240700Z 03005KT 310V100 CAVOK 34/17 Q1014 BECMG 33012KT", "OMDW 240700Z 03005KT 360V060 CAVOK 34/12 Q1015 NOSIG", "OMFJ 240700Z 08007KT 040V120 7000 NSC 32/24 Q1014 A2996", "OMRK 240700Z 36004KT CAVOK 36/11 Q1014 A2996", "OMSJ 240700Z 33003KT 280V020 CAVOK 34/13 Q1014 NOSIG", "OODQ 240650Z AUTO 09005KT 040V130 CAVOK 29/21 Q1016 NOSIG RMK RH61? 0", "OOKB 240650Z 03009KT CAVOK 34/06 Q1014 NOSIG", "OOMS 240650Z 02006KT CAVOK 36/05 Q1013 NOSIG", "OOSA 240650Z 14008KT 110V170 CAVOK 31/16 Q1015 NOSIG", "OOSH 240650Z AUTO 10005KT //// ////// 34/09 Q1013 RMK 1010", "OPFA 240655Z 31002KT 4000 HZ NSC 29/15 Q1013 NOSIG", "OPIS 240730Z 31008KT 8000 NSC 27/07 Q1013 NOSIG", "OPKC 240730Z 26010KT 5000 HZ NSC 34/15 Q1012 NOSIG", "OPLA 240725Z 35011KT 4000 HZ NSC 29/10 Q1012 NOSIG RMK QFE986 A29.90", "OPMT 240730Z 18003KT 2000 HZ NSC 30/12 Q1013 TEMPO 2500", "OPPS 240725Z 05004KT 4000 HZ NSC 27/11 Q1013", "OPSK 240700Z 05004KT 5000 HZ NSC 31/18 Q1011 NOSIG", "OPST 240700Z 05004KT 5000 HZ NSC 27/14 Q1013 NOSIG 44?", "ORBI 240738Z 35013KT 4000 DU NSC 29/12 Q1015", "ORMM 240700Z 16004KT CAVOK 33/06 Q1014 NOSIG", "ORNI 240700Z 00000KT 6000 NSC 27/10 Q1014", "ORSU 240700Z 32008KT 5000 RA BR BKN045 OVC080 15/15 Q1025", "OSDI 240700Z 11007KT 9999 SCT030 BKN100 21/08 Q1021", "OSKL 240700Z 35010KT CAVOK 20/08 Q1018", "OSLK 240700Z VRB03KT 6000 24/15 Q1018", "OTBD 240730Z 08004KT 030V130 9000 NSC 32/22 Q1014 NOSIG", "OTHH 240700Z VRB02KT 9000 NSC 32/21 Q1014 NOSIG", "PAAD 240735Z AUTO 10020KT 10SM OVC007 M06/M07 A2998 RMK AO2 T10621073", "PAAK 240656Z AUTO 24009KT 10SM FEW029 SCT075 BKN100 A3032 RMK AO2 SLPNO FZRANO $", "PAAQ 240653Z 05003KT 10SM CLR M04/M07 A2988 RMK AO2 SLP125 T10441072", "PABA 240652Z AUTO 09023KT 7SM OVC006 M05/M06 A3002 RMK AO2 PK WND 09028/0652 SLP173 T10501061 FZRANO PNO $", "PABE 240721Z 16010KT 8SM -RA FEW022 OVC033 02/02 A2965 RMK AO2 P0001 T00170017 $", "PABL 240712Z AUTO 13011KT 10SM BKN023 BKN032 OVC048 01/M01 A2980 RMK AO2 RAE01 P0000 FZRANO $", "PABR 240733Z AUTO 11018KT 1 1/2SM BR OVC003 M08/M09 A2992 RMK AO2 I1001 T10831094 TSNO $", "PABT 240653Z 35003KT 8SM -SN OVC036 M07/M09 A2998 RMK AO2 SLP169 P0000 T10671089 $", "PABV 240656Z AUTO 11006KT 10SM CLR M01/M09 A2991 RMK AO2 SLP134 T10061089 FZRANO", "PACD 240653Z AUTO 26021G28KT 9SM BKN023 OVC029 07/04 A3013 RMK AO2 PK WND 26035/0628 SLP205 T00720039 TSNO", "PACV 240653Z 34010KT 10SM CLR 04/M11 A2970 RMK AO2 SLP058 T00441106", "PACZ 240725Z AUTO 03014KT 010V090 10SM BKN005 BKN055 01/00 A2978 RMK AO2 SLP090", "PADK 240656Z AUTO 24025G30KT OVC008 11/10 A3029 RMK AO2 PK WND 23034/0608 SLP258 T01060100 PWINO $", "PADL 240656Z AUTO 19003KT 10SM FEW026 BKN033 OVC041 03/03 A2974 RMK AO2 RAE00B27E47 SLP075 P0000 T00330028", "PADM 240727Z AUTO 01014KT 9SM -SN FEW009 SCT060 01/M01 A2972 RMK AO2 P0000 FZRANO", "PADQ 240653Z AUTO 28004KT 10SM FEW080 OVC100 03/M03 A2991 RMK AO2 SLP129 T00331028 TSNO", "PADU 240656Z AUTO 20011KT 10SM OVC043 09/04 A3026 RMK AO2 SLP250 T00890044", "PAED 240655Z AUTO 00000KT 10SM CLR M03/M07 A2988 RMK AO2 SLP117 T10281075 $", "PAEH 240724Z AUTO 29028G33KT 220V010 10SM OVC011 05/04 A2972 RMK AO2 PK WND 27037/0700 SLP070", "PAEI 240705Z 00000KT 9SM BKN007 OVC011 M03/M03 A2993 RMK AO2A CIG 007V011 SLP146", "PAEN 240653Z AUTO 00000KT 10SM CLR M04/M04 A2990 RMK AO2 SLP129 T10391044 TSNO", "PAFA 240653Z 33003KT 3SM -SN BR SCT006 BKN011 OVC020 M02/M03 A2996 RMK AO2 SLP156 P0000 T10171033 $", "PAFB 240655Z AUTO 00000KT 8SM OVC009 M02/M02 A2995 RMK AO2 SLP154 T10201021", "PAFE 240656Z AUTO 31006KT 10SM OVC050 06/02 A2945 RMK AO2 RAE08 SLP986 P0000 T00560017", "PAFM 240656Z AUTO 06005KT 9SM -SN OVC020 M01/M03 A2993 RMK AO2 SLP142 P0001 T10111028 FZRANO", "PAFR 240655Z AUTO 00000KT 10SM CLR M08/M09 A2985 RMK AO2 SLP120 T10761087 VISNO RWY35 CHINO RWY35 $", "PAFS 240701Z AUTO 06003KT 10SM CLR M07/M08 A2991 RMK AO2 SLP139 T10721083 FZRANO", "PAGA 240656Z AUTO 10SM FEW011 SCT070 BKN110 M02/M04 A2990 RMK AO2 SLP128 T10221044 FZRANO $", "PAGK 240653Z AUTO 32010KT 10SM CLR M07/M12 A2985 RMK AO2 SLP143 T10671117 TSNO", "PAGL 240736Z AUTO 18006KT 4SM BR BKN004 OVC011 01/00 A2979 RMK AO2 P0001 PWINO FZRANO $", "PAGM 240656Z AUTO 10SM FEW044 SCT080 00/M03 A2983 RMK AO2 SLP106 T00001028 FZRANO $", "PAGN 240717Z AUTO 00000KT 10SM BKN003 BKN120 03/03 A2949 RMK AO2", "PAGS 240656Z AUTO 32007KT 10SM CLR 03/M02 A2953 RMK AO2 SLP998 T00331022", "PAGY 240653Z AUTO 02008KT 10SM BKN070 OVC095 08/M02 A2960 RMK AO2 SLP023 T00781017 TSNO $", "PAHL 240656Z AUTO 00000KT 10SM UP OVC022 M02/M02 A2991 RMK AO2 UPB13E26B50SNE13B26E50 SLP134 P0000 T10171022 FZRANO", "PAHN 240654Z AUTO 31010KT 10SM FEW070 OVC100 06/M01 A2958 RMK AO2 SLP018 T00561011 TSNO $", "PAHO 240653Z AUTO 04004KT 10SM CLR M02/M06 A2989 RMK AO2 SLP124 T10171056 TSNO", "PAHX 240702Z AUTO 11010KT 10SM -SN OVC050 M01/M01 A2978 RMK AO2 SNB0644 SLP087 P0000 T10061011 FZRANO", "PAHY 240720Z AUTO 33006KT 10SM -RA SCT016 OVC055 09/08 A2924 RMK AO2 P0000 $", "PAIG 240656Z AUTO 10SM -RA OVC020 02/M01 A2986 RMK AO2 RAB07 SLP121 P0000 T00221011 FZRANO $", "PAIK 240656Z AUTO 11009KT 10SM UP OVC013 M01/M02 A2986 RMK AO2 UPB36SNE36 SLP113 P0000 T10061017 FZRANO", "PAIL 240653Z AUTO 03004KT 10SM OVC085 M01/M03 A2989 RMK AO2 SLP125 T10061028 TSNO $", "PAIM 240655Z AUTO 10002KT 10SM -SN OVC011 M03/M04 A2990 RMK AO2 SNB0631 SLP152 T10351042", "PAIN 240735Z AUTO 00000KT 10SM FEW020 M14/M16 A2989 RMK AO2 FZRANO $", "PAJC 240657Z AUTO 23005KT 10SM OVC033 08/04 A2997 RMK AO2 SLP149 T00830039 PNO $", "PAJN 240653Z 21003KT 10SM FEW170 M01/M01 A2950 RMK AO2 SLP988 T10111011 $", "PAJZ 240728Z AUTO 13017G22KT 4SM -SN BR BKN006 OVC009 01/00 A2980 RMK AO2 P0001 FZRANO $", "PAKF 240656Z AUTO 29016G24KT 10SM OVC032 A3017 RMK AO2 PK WND 29028/0559 SLPNO FZRANO $", "PAKH 240711Z AUTO 10SM UP SCT018 BKN023 OVC041 A2998 RMK AO2 RAB0658E07 P0000 FZRANO TSNO $", "PAKI 240656Z AUTO 30015KT 10SM BKN008 OVC015 04/ A2967 RMK AO2 CIG 004V010 SLP048 T0039 PNO $", "PAKK 240714Z AUTO 17006KT 2 1/2SM -SN BR OVC015 00/M01 A2976 RMK AO2 VIS 2V3 P0000 FZRANO", "PAKN 240654Z 15014KT 10SM BKN026 OVC033 02/02 A2981 RMK AO2 RAE18 SLP094 P0000 T00220017", "PAKP 240656Z AUTO 19007KT 9SM -SN CLR M13/M15 A2986 RMK AO2 SLP174 P0000 T11331150 FZRANO", "PAKT 240653Z AUTO 13013G23KT 8SM -RA BKN010 BKN015 OVC021 09/08 A2927 RMK AO2 PK WND 12031/0602 SLP911 P0016 T00940078 TSNO", "PAKV 240653Z AUTO 00000KT 10SM OVC016 M02/M02 A2989 RMK AO2 SLP124 T10171022 TSNO", "PAKW 240653Z AUTO 04014G25KT 7SM -RA OVC041 06/04 A2926 RMK AO2 PK WND 04029/0643 PRESRR SLP909 P0003 T00560039 TSNO $", "PAKX 240735Z AUTO 09003KT 10SM OVC080 00/M03 A2987 RMK AO2", "PALH 240653Z 12003KT 10SM CLR M03/M06 A2990 RMK AO2 SLP126 T10281061", "PALU 240658Z AUTO 12008KT 2 1/2SM -SN OVC007 00/M01 A2976 RMK AO2 SLP077", "PAMB 240736Z AUTO 23005KT 7SM -RA SCT021 BKN031 OVC060 04/03 A2973 RMK AO2 RAB05 P0000 $", "PAMD 240651Z AUTO 33018G23KT 10SM CLR 06/M03 A2972 RMK AO2 PK WND 32032/0614 SLP053 T00611033 PNO $", "PAMK 240718Z AUTO 14005KT 3SM -SN BR OVC016 00/M01 A2978 RMK AO2 P0001 FZRANO", "PAMR 240653Z 00000KT 10SM CLR M03/M08 A2990 RMK AO2 SLP125 T10281078", "PANA 240731Z AUTO 17005KT 9SM -RA SCT015 BKN020 OVC035 02/02 A2966 RMK AO2 P0001 FZRANO TSNO $", "PANC 240653Z 13003KT 10SM CLR M04/M06 A2989 RMK AO2 SLP124 T10391056", "PANI 240732Z AUTO 12013G18KT 4SM -SN SCT006 OVC015 A2976 RMK AO2 P0000 FZRANO $", "PANN 240732Z AUTO 10003KT 1 3/4SM BR BKN002 M07/M08 A2993 RMK AO2 T10671078 TSNO", "PANV 240724Z AUTO 06007KT 2 1/2SM -SN BR SCT026 BKN032 OVC039 M01/M02 A2975 RMK AO2 UPB02E04SNB04 P0000 FZRANO TSNO", "PANW 240732Z AUTO 15012G17KT 9SM -RA OVC003 01/01 A2976 RMK AO2 UPE0659RAB30SNB0659E30 P0004 FZRANO", "PAOH 240656Z AUTO 10003KT 10SM CLR M01/M01 A2951 RMK AO2 SLP995 T10111011 FZRANO", "PAOM 240725Z AUTO 26013KT 10SM -RA SCT008 OVC021 02/01 A2973 RMK AO2 RAB02 CIG 015 NE P0000 T00220006 TSNO", "PAOO 240656Z AUTO 31015G21KT OVC007 02/01 A2976 RMK AO2 PK WND 32027/0621 SLP081 T00170011 PWINO FZRANO TSNO $", "PAOR 240653Z 00000KT 10SM OVC060 M07/M09 A2987 RMK AO2 SLP156 T10721094 $", "PAOT 240716Z 12016KT 10SM BKN016 BKN037 OVC100 M01/M01 A2974 RMK AO2 T10061011", "PAOU 240656Z AUTO 25027G34KT 9SM BKN027 BKN034 07/03 A3004 RMK AO2 PK WND 26037/0641 SLP173 T00670028 PNO $", "PAPB 240653Z AUTO 29009KT 7SM SCT020 BKN040 OVC090 05/ A3015 RMK AO2 SLP199 T0050 TSNO $", "PAPG 240708Z AUTO 15004KT 10SM -RA SCT009 BKN034 OVC060 04/04 A2941 RMK AO2 P0000", "PAPH 240720Z AUTO 25026G32KT 8SM SCT025 SCT032 OVC042 07/03 A2995 RMK AO2 PK WND 25032/0720", "PAPM 240731Z AUTO 29020G26KT 10SM SCT013 SCT017 OVC022 A2969 RMK AO2 PK WND 29026/0724 UPE27 P0000 FZRANO $", "PAPN 240656Z AUTO 25012KT 7SM -RA BKN015 OVC021 06/05 A2987 RMK AO2 PK WND 21032/0632 SLP116 T00610050 PNO $", "PAQH 240656Z AUTO 24003KT 10SM -RA SCT013 BKN022 OVC065 03/03 A2965 RMK AO2 SLP042 P0009 T00330028", "PAQT 240653Z AUTO 10004KT 3/4SM BR FEW002 OVC006 M11/M12 A2998 RMK AO2 SLP154 I1000 T11061117 TSNO", "PARC 240656Z AUTO 34004KT 9SM -SN OVC014 M12/M14 A2991 RMK AO2 SLP198 P0000 T11221139 FZRANO", "PARS 240722Z AUTO 07005KT 2SM -SN OVC007 A2969 RMK AO2 CIG 004V009 P0002 FZRANO $", "PARY 240656Z AUTO 07007KT 9SM -SN OVC010 M04/M05 A2991 RMK AO2 SNB23 CIG 007V012 SLP142 P0000 T10391050 FZRANO", "PASA 240711Z AUTO 23006KT 10SM FEW025 M01/M02 A2983 RMK AO2 FZRANO", "PASC 240707Z 13008KT 2SM BR OVC003 M09/M11 A2998 RMK AO2 T10891106 $", "PASD 240656Z AUTO 26015G21KT 10SM OVC045 08/02 A3010 RMK AO2 SLP195 T00830022 PNO $", "PASH 240656Z AUTO 16006KT 10SM BKN017 OVC034 00/M01 A2966 RMK AO2 SLP046 T00001006 FZRANO PNO $", "PASI 240653Z 34014KT 10SM SCT100 08/01 A2946 RMK SLP976 T00830011", "PASK 240727Z AUTO 12010KT 2SM -SN BR BKN017 BKN022 OVC037 M01/M01 A2986 RMK AO2 P0000 FZRANO", "PASL 240725Z AUTO 09003KT 7SM -SN BKN024 OVC032 M01/M03 A2987 RMK AO2 UPB21E23SNB23 P0000 FZRANO", "PASM 240720Z AUTO 02006KT 3SM -SN BR BKN010 OVC016 00/00 A2974 RMK AO2 CIG 005V013 P0000 FZRANO", "PASN 240653Z AUTO 28009KT 10SM FEW021 SCT028 BKN120 04/02 A3012 RMK AO2 RAE26B38E47 SLP200 P0000 T00390017 TSNO $", "PASO 240653Z AUTO 00000KT 10SM CLR M01/M02 A2989 RMK AO2 SLP122 I1000 T10111017 TSNO", "PASV 240655Z AUTO 05004KT 10SM OVC075 M04/M06 A2979 RMK AO2 SLP120 T10391063", "PASX 240656Z AUTO 07004KT 10SM CLR M06/M06 A2992 RMK AO2 SLP140 T10561061 FZRANO", "PASY 240658Z AUTO M 3/4SM BR M M M", "PATA 240652Z AUTO 04004KT 10SM OVC023 M04/M06 A2998 RMK AO2 SLP156 T10441056 TSNO $", "PATC 240655Z AUTO 35022G27KT BKN008 01/00 A2968 RMK AO2 PK WND 33027/0555 SLP055 T00051003 PWINO FZRANO $", "PATE 240656Z AUTO 26012KT 10SM SCT005 OVC008 01/01 A2967 RMK AO2 UPB00E24RAB35E51 SLP053 P0000 T00110006 FZRANO", "PATG 240718Z AUTO 21007KT 9SM -RA FEW011 BKN028 OVC035 04/04 A2969 RMK AO2 P0003", "PATK 240653Z AUTO VRB03KT 10SM CLR M04/M09 A2989 RMK AO2 SLP128 T10441094 TSNO", "PATL 240655Z AUTO 00000KT 10SM BKN008 M04/M04 A2990 RMK AO2 SLP143 T10391042 TSNO $", "PATO 240653Z AUTO 28006KT 10SM CLR 00/M05 A2987 RMK AO2 SLP115 T00001050 TSNO", "PATQ 240656Z AUTO 09007KT 10SM CLR M12/M13 A2989 RMK AO2 SLP126 T11171128 FZRANO TSNO", "PAUN 240656Z AUTO 08017KT 10SM SCT043 OVC050 01/M02 A2981 RMK AO2 UPB05E17SNE05 SLP098 P0000 T00061022 FZRANO", "PAUT 240735Z AUTO 33013G16KT 10SM OVC050 06/03 A3026 RMK AO2", "PAVA 240727Z AUTO 33016KT 10SM SCT016 SCT023 01/01 A2980 RMK AO2 FZRANO", "PAVC 240656Z AUTO 27024G36KT 10SM OVC029 07/02 A3014 RMK AO2 PK WND 26041/0621 SLP207 T00720017 PNO $", "PAVD 240656Z AUTO VRB04G15KT CLR A2989 RMK AO2 PK WND 36028/0620 SLPNO FZRANO TSNO PNO $", "PAWD 240653Z AUTO 36017G26KT 10SM CLR 03/M09 A2983 RMK AO2 PK WND 02029/0559 SLP100 T00331094 TSNO $", "PAWI 240653Z AUTO 11011KT 10SM CLR M11/M13 A2984 RMK AO2 SLP104 T11061128 TSNO $", "PAWM 240656Z AUTO 15005KT 8SM -RA BKN008 BKN013 OVC039 01/01 A2976 RMK AO2 UPE35RAB35 CIG 006V010 SLP081 T00060006 FZRANO PNO $", "PAWN 240726Z AUTO 11011KT 3SM -SN BR SCT006 OVC014 00/M01 A2977 RMK AO2 P0000 FZRANO", "PAWS 240656Z AUTO 00000KT 10SM CLR M06/M07 A2990 RMK AO2 SLP134 T10611072 FZRANO", "PAYA 240653Z AUTO 00000KT 10SM CLR M01/M02 A2958 RMK AO2 SLP017 T10111017 TSNO $", "PAZK 240656Z AUTO 26004KT 10SM CLR M11/M13 A2978 RMK AO2 SLP154 T11111133 FZRANO", "PFCL 240656Z AUTO 23012KT 10SM FEW039 BKN050 A2975 RMK AO2 PK WND 21026/0622 UPE01B18E25B43E55RAB25E34 SLPNO P0000 FZRANO TSNO $", "PFEL 240718Z AUTO 17012G22KT 10SM -RA OVC007 01/00 A2978 RMK AO2 P0000 FZRANO", "PFKT 240656Z AUTO 23007KT 9SM OVC010 02/01 A2969 RMK AO2 UPB36E46 CIG 007V013 SLP053 P0000 T00170011 FZRANO", "PFNO 240726Z AUTO 12018KT 6SM UP BR FEW015 BKN029 OVC047 M01/M01 A2981 RMK AO2 P0000 FZRANO", "PFSH 240730Z AUTO 15011KT 10SM SCT025 SCT055 01/M02 A2981 RMK AO2 UPE06 P0000 FZRANO", "PFWS 240731Z AUTO 18014KT 10SM -RA BKN013 BKN017 OVC025 03/02 A2982 RMK AO2 P0003", "PFYU 240707Z AUTO 05003KT 10SM BKN022 OVC033 M07/M09 A3002 RMK AO2 FZRANO", "PGRO 240650Z 13012KT 7SM SCT014 BKN100 28/24 A2977", "PGSN 240654Z 10008KT 10SM FEW025 SCT070 29/25 A2981 RMK AO2 RAE50 SLP114 P0005 T02890250 $", "PGUA 240655Z AUTO 14007KT 10SM FEW017 FEW022 27/23 A2981 RMK AO2 SLP085 T02740234 $", "PGUM 240654Z 11007KT 10SM FEW023 29/24 A2980 RMK AO2 SLP084 T02940244", "PGWT 240650Z 10012KT 7SM SCT017 SCT060 BKN100 30/25", "PHBK 240651Z AUTO 00000KT 10SM BKN075 26/18 A3002 RMK AO2 SLP168 T02560178", "PHHI 240734Z AUTO 14003KT 10SM -DZ FEW008 SCT045 22/16 A3007 RMK AO2 DZB34 SLP172 $", "PHJR 240653Z VRB05KT 10SM CLR 26/18 A3004 RMK AO2 SLP177 T02560178", "PHKO 240653Z 11005KT 10SM BKN050 27/19 A2999 RMK AO2 SLP155 T02670189", "PHLI 240653Z 07016KT 10SM CLR 26/22 A3005 RMK AO2 SLP174 T02560222 $", "PHMK 240654Z AUTO 06010KT 10SM CLR 25/19 A3004 RMK AO2 SLP172 T02500189 TSNO", "PHNG 240657Z AUTO 08010G20KT 10SM FEW029 A3001 RMK AO2 SLP159 $", "PHNL 240653Z 06014G17KT 10SM FEW025 27/20 A3002 RMK AO2 SLP166 T02670200", "PHNY 240656Z AUTO 04008KT 10SM CLR 22/19 A3008 RMK AO2 SLP164 T02220189 $", "PHOG 240654Z 05019G23KT 10SM SCT070 26/20 A3001 RMK AO2 SLP169 T02560200", "PHSF 240658Z AUTO 05003KT 10SM BKN016 12/08 A3034 RMK AO2 SLP165 T01190083 402240060 $", "PHTO 240653Z 24004KT 10SM SCT060 BKN080 23/21 A3004 RMK AO2 SLP172 T02280206", "PKMR 240656Z 08005KT 15SM FEW015 SCT050 BKN120 BKN300 28/23 A2982 RMK SLP102 T02810233", "PKWA 240720Z AUTO 10004KT 10SM CLR 28/24 A2984 RMK AO2 T02770244", "PLCH 240700Z 11005KT 9999 FEW020 26/23 Q1010", "PMDY 240656Z AUTO 00000KT 10SM SCT026 SCT030 BKN060 23/21 A3014 RMK AO2 SLP207 T02280206 TSNO", "PPIZ 240656Z AUTO 12010KT 10SM OVC065 M05/M07 A2981 RMK AO2 SLP096 T10501067 FZRANO", "PTRO 240650Z 30004KT 13SM BKN014CB BKN100 OVC280 24/23 A2971 RMK CB OHD AND ALQDS", "PTTP 240651Z 00000KT 15SM FEW018 OVC120 25/24 A2983 RMK RAE22 SLP100 T02480237", "PTYA 240711Z VRB03KT 5SM SHRA BKN015CB OVC120 26/25 A2971 RMK CB ALQDS", "PWAK 240659Z AUTO 09011G18KT 9999 FEW019 SCT037 26/24 A2995 RMK AO2 RAE59 SLP148 $", "RCFN 240730Z 02005G15KT 320V080 9999 FEW015 BKN032 BKN080 24/19 Q1016 NOSIG RMK A3002", "RCKH 240730Z 25008KT 210V290 9999 FEW015 SCT030 BKN070 28/21 Q1011 NOSIG RMK A2988", "RCMQ 240730Z 02018G28KT 9999 FEW012 SCT050 BKN200 24/14 Q1014 NOSIG RMK A2995", "RCNN 240730Z 30003KT 9999 FEW012 SCT025 BKN050 27/19 Q1012 NOSIG RMK A2989", "RCSS 240730Z 08011KT 050V110 9999 FEW025 BKN035 BKN050 23/14 Q1019 NOSIG RMK A3010", "RCTP 240730Z 05023KT 9999 FEW015 BKN040 23/15 Q1018 WS ALL RWY NOSIG RMK A3008", "RJAA 240730Z 03008KT 9999 FEW015 SCT060 BKN090 14/08 Q1014 NOSIG RMK 1CU015 4SC060 5AC090 A2994", "RJAF 240700Z 34014KT 9999 VCSH FEW020 SCT025 BKN040 10/05 Q1013", "RJAH 240700Z 01005KT 9999 FEW020 BKN100 12/08 Q1014", "RJAW 240700Z 16011KT 9999 FEW010 SCT015 BKN/// 26/25 Q1009 RMK 1CU010 3CU015 A2982", "RJBB 240730Z 35018KT 9999 FEW020 18/12 Q1012 NOSIG", "RJBD 240700Z 33014KT 9999 FEW020 20/06 Q1011", "RJBE 240700Z 33010KT 9999 -SHRA FEW020 SCT040 BKN060 16/11 Q1013", "RJBT 240700Z VRB02KT 9999 -SHRA FEW000 SCT020 BKN040 12/10 Q1014", "RJCB 240700Z 36009KT 9999 -SHRA FEW010 SCT020 BKN040 06/03 Q1015", "RJCC 240730Z 34010KT 9999 FEW012 SCT040 06/04 Q1015 RMK 1ST012 3CU040 A3000", "RJCH 240700Z 32011KT 290V350 9999 FEW020 SCT120 09/03 Q1014", "RJCK 240700Z 03008KT 350V080 9999 FEW030 SCT100 08/02 Q1015", "RJCM 240700Z VRB02KT 9999 FEW010 SCT030 BKN040 07/05 Q1016", "RJCN 240700Z 01005KT 340V050 9999 FEW015 SCT070 07/01 Q1014", "RJCO 240708Z 27005KT 220V310 9999 FEW010 SCT015 BKN050 07/03 Q1018 RMK 1ST010 3ST015 6CU050 A3006", "RJCW 240700Z 06007KT 9999 FEW040 05/M03 Q1018", "RJDB 240700Z AUTO 30006KT 260V350 9999 NSC 18/04 Q1016", "RJDC 240700Z 34008KT 270V040 9999 VCSH FEW025 SCT040 17/09 Q1015", "RJDT 240700Z 34008KT 290V020 9999 FEW045 SCT050 17/04 Q1017", "RJEB 240700Z 36012KT 9999 FEW015 BKN025 BKN045 07/03 Q1017", "RJEC 240700Z 33009KT 9999 FEW015 SCT050 BKN080 06/02 Q1015", "RJFE 240700Z 35014KT 320V020 9999 FEW040 BKN045 17/07 Q1017", "RJFF 240730Z 32011KT 9999 FEW030 SCT060 17/04 Q1016 NOSIG RMK 1CU030 3SC060 A3001", "RJFG 240700Z 30016KT 9999 FEW030 BKN/// 19/10 Q1014", "RJFK 240700Z 30012KT 9999 FEW040 19/06 Q1014 RMK 1CU040 A2997", "RJFM 240700Z 06009KT 9999 FEW040 BKN070 21/11 Q1013", "RJFO 240700Z 33009KT 9999 FEW030 SCT045 18/09 Q1014", "RJFR 240700Z 34014KT 9999 FEW025 SCT045 BKN080 17/10 Q1015", "RJFS 240700Z 33011KT 9999 FEW045 19/04 Q1016", "RJFT 240700Z 32009KT 280V350 9999 FEW040 18/06 Q1015", "RJFU 240700Z 31018KT 9999 FEW050 19/06 Q1016", "RJGG 240730Z 31014KT 9999 FEW030 20/09 Q1011 NOSIG", "RJKA 240700Z 36018KT 9999 FEW030 SCT035 BKN040 23/16 Q1014", "RJKI 240729Z AUTO 36018G28KT 9999 FEW033 SCT035 23/17 Q1014 RMK A2995", "RJNK 240700Z 06014KT 9999 FEW030 15/08 Q1014", "RJNS 240700Z 06005KT 020V100 9999 -SHRA FEW025 SCT040 16/10 Q1011", "RJNT 240700Z 03009KT 360V070 9999 FEW020 SCT030 15/06 Q1015", "RJNW 240700Z 04005KT 360V090 9999 FEW030 13/04 Q1016", "RJNY 240641Z 05008KT 9999 -SHRA FEW020 BKN030 BKN250 18/12 Q1011 RMK 1CU020 5CU030 A2986", "RJOA 240700Z 31007KT 9999 FEW030 BKN070 14/05 Q1014", "RJOB 240700Z 03006KT 360V060 9999 VCSH FEW020 SCT045 BKN100 14/07 Q1013", "RJOC 240700Z 30010KT 9999 -SHRA FEW002 FEW025CB SCT035 BKN050 12/10 Q1016", "RJOF 240631Z 33013KT 9999 -SHRA FEW020 BKN035 18/05 Q1014 RMK 1CU020 5CU035 A2996", "RJOH 240700Z 24008KT 9999 -SHRA FEW005 SCT030 BKN060 13/08 Q1015", "RJOI 240656Z 26007KT 9999 FEW025 SCT070 BKN090 19/03 A2995 RMK AO2 SLP141 T01890033", "RJOK 240700Z 34013KT 9999 FEW040 21/02 Q1012", "RJOM 240700Z 33011KT 9999 FEW025 SCT050 BKN080 19/08 Q1014", "RJOO 240700Z 35011KT 9999 VCSH FEW020 FEW025TCU SCT040 BKN070 17/06 Q1013 RMK 1CU020 1TCU025 3CU040 5AC070 A2991 TCU 15KM S MOV E", "RJOR 240715Z 31014KT 9999 VCSH FEW020CB SCT035 BKN070 15/07 Q1014 RMK 1CB020 3CU035 5AC070 A2995 CB 25KM NE-E MOV E", "RJOS 240700Z 33009KT 9999 FEW030 20/04 Q1012", "RJOT 240700Z 28007KT 260V320 9999 FEW030 18/05 Q1013", "RJOW 240700Z VRB03KT 9999 FEW003 SCT025 FEW030TCU BKN035 13/11 Q1015", "RJOY 240700Z 34008KT 300V020 9999 VCSH FEW025 BKN045 17/08 Q1012", "RJOZ 240638Z 34015G25KT 9999 FEW020 SCT050 17/09 Q1015 RMK 1CU020 4SC050 A2999", "RJSA 240700Z 22008KT 9999 FEW025 SCT050 06/05 Q1016", "RJSC 240700Z 34005KT 300V010 9999 FEW040 12/05 Q1016", "RJSF 240700Z 03007KT 9999 FEW030 12/02 Q1014", "RJSI 240700Z 32005KT 220V360 9999 FEW040 SCT070 12/03 Q1015", "RJSK 240700Z 32006KT 9999 FEW040 10/02 Q1016", "RJSM 240700Z 26012KT 9999 FEW030 10/02 Q1015", "RJSN 240700Z 01013KT 9999 VCSH FEW040 SCT050 15/04 Q1016", "RJSR 240700Z 30006KT 260V330 9999 FEW030 BKN050 11/04 Q1016", "RJSS 240700Z VRB02KT 9999 FEW020 SCT070 13/04 Q1015", "RJSY 240700Z 01005KT 310V060 9999 FEW030 SCT045 13/02 Q1016", "RJTF 240700Z 01006KT 9999 FEW020 SCT040 BKN060 13/07 Q1014", "RJTI 240700Z 03009KT 350V060 9999 FEW015 BKN060 14/08 Q1014", "RJTO 240700Z 04017KT 9999 FEW025 SCT030 BKN050 15/09 Q1013", "RJTT 240730Z 04013KT 9999 FEW015 BKN060 15/09 Q1014 NOSIG RMK 1CU015 7AC060 A2996", "RJTY 240723Z 00000KT 10SM SCT037 BKN065 11/07 A3000 RMK AO2A RAE01DZB01E23 SLP163 $", "RKJB 240700Z 36017KT CAVOK 14/00 Q1022 NOSIG", "RKJK 240655Z 34018G24KT 10SM CLR 14/M03 A3015 RMK AO2A PK WND 34026/17 SLP214 T01381035 $", "RKNF 240704Z 01013KT 0000 -SN FG VV000 M01/M01 A3021 RMK CIG000", "RKNY 240700Z 02007G19KT 6000 -RA FEW015 BKN030 OVC070 08/06 Q1022 NOSIG", "RKPC 240700Z 34010KT 300V030 CAVOK 15/03 Q1021 NOSIG", "RKPK 240700Z 34011KT CAVOK 18/M04 Q1018", "RKSG 240655Z 29009KT 10SM CLR 14/M00 A3014 RMK AO2A SLP210 T01401005 TSNO $", "RKSI 240730Z 34012KT CAVOK 13/M02 Q1022 NOSIG", "RKSM 240700Z 28008KT 9999 FEW040 14/M05 A3015", "RKSO 240655Z AUTO 35008KT 10SM CLR 15/M04 A3016 RMK AO2 SLP217 T01451038 TSNO CHINO RWY09 $", "RKSS 240700Z 32011KT 290V350 CAVOK 14/M03 Q1021 NOSIG", "RKTN 240700Z 33012KT CAVOK 16/M02 Q1019", "RKTU 240700Z 32008KT CAVOK 15/00 Q1020", "ROAH 240730Z 01024KT 9999 FEW040 25/16 Q1014 RMK 2CU040 A2997", "RODN 240655Z AUTO 36015KT 10SM SCT042 24/15 A2995 RMK AO2 SLP148 T02420146 $", "ROIG 240703Z 02015G25KT 9999 SCT034 24/16 Q1015 RMK 4CU034 A2999", "ROMD 240714Z AUTO 36015G25KT 9999 FEW032 SCT034 26/19 Q1011 RMK A2987", "ROMY 240700Z 01018KT 9999 FEW033 SCT037 24/17 Q1015", "RORK 240700Z AUTO 36021KT 9999 FEW031 SCT034 25/18 Q1011", "RORS 240700Z 01024KT 9999 FEW036 25/17 Q1015", "RORY 240700Z AUTO 36017KT 9999 FEW042 BKN048 25/17 Q1014", "ROTM 240656Z 36019G29KT 9999 SCT030 BKN040 23/17 A2995 RMK SLP142 XWND ADV WND WRNG T02330168", "ROYN 240700Z AUTO 02027KT 9999 SCT035 BKN044 24/18 Q1017", "RPLB 240700Z 06006KT 020V090 9999 SCT020 BKN300 32/24 Q1007 NOSIG RMK A2974", "RPLI 240700Z 03011KT 9999 FEW018 BKN100 31/24 Q1008 NOSIG RMK A2977", "RPLL 240700Z 16006KT 100V200 9999 FEW025 SCT100 32/25 Q1006 NOSIG RMK A2971", "RPMD 240700Z 18006KT 140V200 9999 SCT015CB BKN260 31/24 Q1005 RMK A2968 CB SW/WSW-NW", "RPMZ 240700Z 26007KT 210V290 9999 FEW016CB BKN090 29/26 Q1007 RMK A2974 CB NW-N", "RPVM 240700Z 05010KT 9999 SCT018CB BKN100 31/27 Q1006 RMK A2971 CB N/NE/E/SE/SW", "SAAR 240700Z 09004KT CAVOK 14/10 Q1016 RMK PP000", "SABE 240700Z 03009KT 9999 FEW011 16/14 Q1019 NOSIG RMK PP000", "SACO 240700Z 03009KT 9999 SCT035 16/10 Q1015 NOSIG RMK PP000", "SADF 240700Z 05007KT CAVOK 13/12 Q1019 RMK PP000", "SAEZ 240700Z 07005KT CAVOK 14/12 Q1019 NOSIG RMK PP000", "SAME 240700Z 23003KT CAVOK 15/08 Q1011", "SANT 240700Z 36005KT CAVOK 14/12 Q1012 RMK PP000", "SAOC 240700Z 02011KT CAVOK 16/08 Q1014", "SARE 240700Z 11008KT CAVOK 19/10 Q1014 RMK PP///", "SARF 240700Z 14005KT CAVOK 19/17 Q1013", "SARI 240700Z 00000KT CAVOK 15/15 Q1015 RMK PP000", "SARL 240700Z 16006KT CAVOK 14/12 Q1017", "SARP 240700Z 14006KT CAVOK 17/11 Q1015", "SASA 240700Z 24004KT 9999 SCT050 14/09 Q1018 RMK PP000", "SASJ 240700Z 29004KT 9999 BKN070 21/12 Q1016 RMK PP000", "SAVC 240700Z 29014KT CAVOK 14/02 Q1006 RMK PP000", "SAWE 240700Z 28014KT CAVOK 04/01 Q0997 RMK PP000", "SAWH 240700Z 25011KT 9999 SCT048 SCT200 05/02 Q0994 RMK PP000", "SAZM 240700Z 02005KT 0400 R13/1000 FG OVC002 11/11 Q1020 RMK PP///", "SAZN 240700Z 23002KT CAVOK 15/02 Q1014", "SAZS 240700Z 31017KT 9999 BKN035 09/03 Q1013 RMK PP///", "SBAN 240700Z 06009KT 9999 FEW025 SCT100 18/18 Q1017", "SBAR 240700Z 09009KT 9999 FEW016 26/23 Q1012", "SBAX 240700Z AUTO 13005KT CAVOK 18/16 Q1017", "SBBE 240700Z 11002KT CAVOK 24/23 Q1010", "SBBG 240700Z AUTO 07004KT CAVOK ///// Q////", "SBBH 240700Z 10004KT 9999 SCT020 BKN090 19/16 Q1017", "SBBR 240700Z 07008KT 9999 -RA BKN008 BKN100 18/18 Q1017", "SBBV 240700Z 36002KT CAVOK 26/24 Q1010", "SBCA 240700Z 17006KT CAVOK 17/12 Q1016", "SBCF 240700Z 16004KT 9999 FEW023 BKN100 18/16 Q1017", "SBCG 240700Z 08007KT CAVOK 21/15 Q1014", "SBCH 240700Z 12006KT CAVOK 15/12 Q1017", "SBCT 240700Z 09003KT 9999 BKN007 16/16 Q1018", "SBCY 240700Z 17004KT CAVOK 26/23 Q1010", "SBDN 240700Z 10003KT CAVOK 20/15 Q1013", "SBEG 240700Z 26001KT CAVOK 25/24 Q1009", "SBFI 240700Z 18003KT CAVOK 17/16 Q1014", "SBFL 240700Z VRB02KT 9999 -RA SCT026 OVC040 18/17 Q1016", "SBFN 240700Z AUTO 12006KT 090V150 9999 FEW016 25/22 Q1012", "SBFZ 240700Z 10011KT 9999 BKN020 27/22 Q1011", "SBGL 240700Z 16003KT 9999 FEW013 OVC030 21/18 Q1015", "SBGO 240700Z 13004KT 9999 FEW040 BKN100 21/20 Q1015", "SBGR 240700Z 07006KT 9999 BKN007 17/16 Q1017", "SBIP 240700Z AUTO 02005KT 9999 BKN032 BKN047 21/19 Q1015", "SBIZ 240700Z 02008KT 9999 FEW023 SCT080 27/22 Q1010", "SBJP 240700Z 08005KT 9999 SCT018 25/22 Q1013", "SBJU 240700Z 00000KT 9999 SCT020 22/22 Q1016", "SBKG 240700Z 09009KT 9999 BKN009 22/21 Q1015", "SBKP 240700Z 12006KT CAVOK 17/15 Q1015", "SBLB 240700Z AUTO 32003KT 9999 BKN018 23/20 Q1015 W/////", "SBLE 240700Z AUTO 09005KT 060V120 9999 ///////// 23/19 Q1015", "SBLO 240700Z 15002KT CAVOK 20/16 Q1015", "SBMA 240700Z 00000KT CAVOK 25/24 Q1010", "SBME 240700Z 31002KT 9999 OVC015 20/20 Q1015", "SBMG 240700Z 16002KT CAVOK 21/15 Q1013", "SBMN 240700Z 00000KT CAVOK 26/25 Q1009", "SBMO 240700Z 36004KT CAVOK 22/21 Q1013", "SBMQ 240700Z 06005KT 9999 FEW013 27/25 Q1009", "SBNT 240700Z 10007KT 9999 BKN025 25/22 Q1012", "SBPA 240700Z VRB02KT 9999 SCT014 BKN015 16/14 Q1018", "SBPJ 240700Z 13003KT 9999 FEW018 BKN050 27/23 Q1010", "SBPL 240700Z 15013KT CAVOK 26/18 Q1013", "SBPS 240700Z 09008KT 6000 -RA FEW011 BKN016 OVC090 22/21 Q1014", "SBPV 240700Z /////KT 9999 FEW013 25/24 Q1010", "SBRB 240700Z 29004KT 9999 FEW010 24/24 Q1012", "SBRF 240700Z 06006KT 030V090 9999 SCT020 26/21 Q1013", "SBRJ 240700Z 11003KT 060V140 9999 SCT030 SCT080 22/19 Q1014", "SBRP 240700Z 08003KT CAVOK 18/16 Q1014", "SBSC 240700Z 00000KT 9999 FEW020 BKN050 20/18 Q1015", "SBSL 240700Z 05009KT 9999 FEW015 SCT035 28/23 Q1010", "SBSN 240700Z 09008KT 9999 FEW016 28/26 Q1009", "SBSP 240700Z AUTO VRB02KT CAVOK 16/15 Q1018", "SBSR 240700Z 13003KT CAVOK 21/16 Q1014", "SBSV 240700Z 07009KT 9999 FEW015 26/23 Q1013", "SBTE 240700Z 00000KT CAVOK 26/22 Q1009", "SBTU 240700Z AUTO 19008KT //// // FEW041/// 24/22 Q1011", "SBUL 240700Z 05007KT 9999 SCT006 18/16 Q1017", "SBUR 240700Z 04006KT CAVOK 19/17 Q1016", "SBVT 240700Z 05003KT 9999 SCT020 OVC040 22/20 Q1015", "SCAP 240700Z AUTO /////KT ///V/// //// // ////// ///// Q////", "SCAR 240700Z VRB02KT 9999 OVC018 16/12 Q1015", "SCAT 240700Z AUTO VRB03KT 9999 OVC007/// 11/10 Q1015", "SCBA 240700Z AUTO 31014KT 9999 FEW043/// OVC050/// 07/04 Q1005", "SCCF 240700Z 11016KT CAVOK 05/M16 Q1026", "SCCH 240700Z AUTO 00000KT CAVOK 03/03 Q1019", "SCCI 240700Z 33005KT 9999 SCT040 BKN100 04/02 Q0998 NOSIG", "SCCY 240700Z AUTO VRB04KT 9999 OVC041 09/05 Q1007", "SCDA 240700Z 23005KT 9999 OVC021 15/10 Q1016", "SCEL 240700Z 17006KT CAVOK 09/05 Q1017 NOSIG", "SCFA 240700Z 18006KT 9999 OVC016 14/10 Q1016 NOSIG", "SCFT 240700Z AUTO 28005KT 210V320 9999 OVC025/// 08/07 Q1011", "SCIC 240700Z AUTO 18003KT //// R/////// // NCD 08/05 Q1018", "SCIE 240700Z 00000KT CAVOK 08/07 Q1019", "SCIP 240700Z 00000KT 9999 OVC045 18/15 Q1023 NOSIG", "SCJO 240700Z AUTO 03009KT 9999 -SHRA FEW048/// OVC054/// 11/09 Q1015", "SCMK 240700Z AUTO 32006KT 290V350 //// // BKN005/// OVC012/// 10/10 Q1012", "SCON 240700Z AUTO 06004KT 9999 OVC015/// 11/10 Q1013", "SCPD 240700Z AUTO 00000KT //// ///////// 09/02 Q1017", "SCPQ 240700Z AUTO 35009KT 3500 -DZ BKN002 OVC010 10/09 Q1012", "SCQP 240700Z AUTO VRB02KT CAVOK 08/08 Q1018", "SCSE 240700Z AUTO 11002KT 9999 OVC007/// 10/09 Q1016", "SCSN 240700Z AUTO 10003KT 9999 NCD 05/05 Q1018", "SCTE 240700Z 02013KT 9999 FEW015 BKN035 OVC050 11/09 Q1015 NOSIG", "SCTN 240700Z AUTO 34011KT 310V010 8000 BKN006 OVC013 10/10 Q1014", "SCVD 240700Z AUTO 07005KT 9999 -RA BKN021 OVC026 11/09 Q1017", "SCVM 240700Z 13003KT 080V220 CAVOK 06/05 Q1017", "SGAS 240700Z 14004KT 110V170 CAVOK 21/17 Q1013", "SGES 240700Z 18005KT CAVOK 18/15 Q1014", "SKBO 240700Z 06006KT 9999 FEW010 BKN070 12/10 Q1027 NOSIG RMK A3032", "SKBQ 240700Z VRB02KT 9999 FEW010 25/24 Q1010 NOSIG RMK A2984", "SKCG 240700Z VRB01KT 9999 FEW017 SCT200 26/24 Q1009 RMK A2981", "SKCL 240700Z 32003KT 280V350 9999 SCT030 BKN070 22/20 Q1015 NOSIG RMK A2999", "SKLT 240700Z 00000KT 9999 SCT013 SCT080 24/23 Q1010 RMK A2984", "SKRG 240700Z VRB02KT 9999 SCT006 OVC080 14/14 Q1026 REDZ NOSIG RMK A3026", "SKSP 240700Z 07008KT 9999 FEW016 BKN200 28/25 Q1011 RMK A2987", "SLCB 240700Z 14003KT 9999 FEW033 SCT080 16/06 Q1025", "SLLP 240700Z 10010KT 4000E VCFG FEW002 SCT010 BKN070 04/03 Q1037", "SLVR 240700Z 26004KT 9999 FEW020 20/18 Q1011", "SMJP 240700Z 15001KT 9999 FEW007 FEW015CB 24/24 Q1010 NOSIG", "SOCA 240730Z AUTO 00000KT 6000 FEW036 23/23 Q1010", "SULS 240728Z 09004KT 0900 FG BKN002 13/11 Q1020", "SUMU 240700Z 00000KT CAVOK 11/11 Q1020 NOSIG", "SVBC 240703Z AUTO 12003KT NCD 25/24 Q1011", "SVBI 240703Z AUTO 29002KT NCD 26/22 Q1014", "SVBM 240703Z AUTO NIL", "SVBS 240703Z AUTO 15001KT NCD 24/// Q1014", "SVCB 240703Z AUTO 12003KT NCD 25/22 Q1010", "SVCJ 240703Z AUTO NIL", "SVCS 240703Z AUTO 25003KT NCD ///45 Q1015", "SVFM 240703Z AUTO 00000KT NCD 22/19 Q1014", "SVGD 240703Z AUTO 19004KT NCD 24/24 Q1012", "SVGU 240703Z AUTO NIL", "SVJM 240703Z AUTO 03003KT NCD 22/22 Q1012", "SVLO 240703Z AUTO NIL", "SVMC 240703Z AUTO NIL", "SVMG 240703Z AUTO 10006KT NCD 27/26 Q1011", "SVMI 240703Z AUTO 10004KT NCD ///// Q1012", "SVMT 240703Z AUTO 05003KT NCD 25/25 Q1011", "SVPA 240703Z AUTO NIL", "SVPR 240703Z AUTO 13003KT NCD 24/21 Q1012", "SVSR 240703Z AUTO NIL", "SVVA 240703Z AUTO 00000KT NCD 25/24 Q1013", "SYCJ 240700Z 05006KT 9000 SCT017 SCT039 25/25 Q1010 NOSIG", "TAPA 240700Z 09005KT 050V150 9999 VCSH SCT018 26/24 Q1012 NOSIG", "TBPB 240700Z 11012KT 9999 SCT018 28/25 Q1010 NOSIG", "TFFF 240730Z AUTO 06003KT 9999 FEW024 OVC190 26/24 Q1011", "TFFR 240730Z AUTO 03002KT 9999 FEW019 BKN160 24/23 Q1012", "TIST 240653Z AUTO 08004KT 10SM CLR 26/23 A2992 RMK AO2 SLP132 T02610228", "TISX 240653Z AUTO 36004KT 10SM CLR 25/22 A2993 RMK AO2 SLP133 T02500222 TSNO $", "TJNR 240653Z AUTO 24003KT 10SM FEW025 24/22 A2995 RMK AO2 SLP140 T02390222", "TJSJ 240656Z 00000KT 10SM FEW027 26/24 A2993 RMK AO2 RAB30E40 SLP135 P0000 T02610239 $", "TLPL 240700Z 10012KT 9999 SCT023 28/24 Q1011 TEMPO SHRA", "TNCA 240700Z 09009KT 9999 FEW018 28/25 Q1010 NOSIG", "TNCB 240655Z AUTO 08005KT 9999 FEW016/// 27/25 Q1010", "TNCC 240700Z 12004KT 9999 VCSH FEW016 26/24 Q1010 NOSIG", "TNCE 240655Z AUTO 09005KT 050V120 //// // ///////// 27/24 Q1013 RE//", "TNCM 240700Z 07004KT 9999 FEW016 27/24 Q1014 ", "TTCP 240700Z 05004KT 9999 FEW016 26/24 Q1010 NOSIG", "TTPP 240700Z 00000KT 9999 FEW016 25/23 Q1010 NOSIG", "TXKF 240655Z 08013KT 9999 SCT030 SCT057 25/20 Q1018 ", "UAAH 240730Z 08006MPS CAVOK 06/M10 Q1028 NOSIG RMK QFE733/0978", "UAAT 240730Z 03008MPS 9999 FEW100 09/01 Q1023 NOSIG RMK QFE716/0955", "UACK 240730Z 24006MPS CAVOK M01/M06 Q1026 NOSIG RMK QFE745/0994", "UACP 240730Z 24009MPS CAVOK 02/M04 Q1023 NOSIG RMK QFE754/1006", "UADD 240730Z 33003MPS 9999 BKN010 OVC050 08/06 Q1021 NOSIG RMK MT OBSC QFE709/0945", "UAIT 240730Z 09006MPS CAVOK 14/02 Q1020 NOSIG RMK QFE740/0987", "UAKD 240730Z 10006MPS CAVOK 06/M09 Q1028 NOSIG RMK QFE737/0982", "UAOO 240730Z 08006MPS CAVOK 10/01 Q1023 NOSIG RMK QFE756/1008", "UARR 240730Z 19008MPS 9999 SCT040 07/02 Q1018 NOSIG RMK QFE760/1014", "UASK 240730Z 10003MPS 060V130 9999 SCT033 04/M08 Q1032 NOSIG RMK QFE748/0998", "UASP 240730Z 22007MPS 9999 BKN046 04/M07 Q1030 NOSIG RMK QFE761/1015", "UASS 240730Z 19003MPS CAVOK 06/M10 Q1032 NOSIG RMK QFE755/1007", "UAUU 240730Z 15006MPS CAVOK 00/M03 Q1024 NOSIG RMK QFE751/1002", "UBBB 240730Z 20012KT CAVOK 18/10 Q1016 NOSIG", "UBBF 240730Z 09004KT 9999 SCT100 17/10 Q1017 NOSIG RMK MT OP", "UBBG 240730Z 31016KT 9999 SCT100 18/04 Q1017 NOSIG", "UBBL 240700Z 03004KT 9999 BKN060 17/11 Q1018 NOSIG RMK MT OP", "UBBN 240730Z 18004KT 7000 SCT026 12/08 Q1020 NOSIG RMK MT OBSC QFE690", "UBBQ 240700Z 04004KT 9999 NSC 13/08 Q1017 NOSIG RMK MT OBSC", "UBBY 240700Z 33006KT 9999 SCT100 15/08 Q1020 NOSIG RMK MT OP", "UBBZ 240730Z 20006KT 9999 BKN066 14/09 Q1018 NOSIG RMK MT OPEN", "UBEE 240700Z 30008KT CAVOK 18/08 Q1017 NOSIG", "UCFL 240700Z VRB01MPS 9999 SCT026CB BKN100 10/05 Q1020 R07/19//95", "UCFM 240730Z VRB01MPS CAVOK 09/06 Q1021 R08/0///95 NOSIG", "UCFO 240730Z 27002MPS 230V290 6000 SCT011 BKN049 12/08 Q1019 R12/0///95 NOSIG", "UDSG 240730Z VRB02KT 9999 BKN040 08/05 Q1023 R02/29//55 NOSIG", "UDYZ 240730Z VRB01KT 9999 SCT046 13/07 Q1021 R09/010070 NOSIG", "UEEE 240730Z 18005MPS CAVOK M01/M06 Q0999 R23L/490148 NOSIG RMK QFE740", "UERP 240730Z 30007G12MPS 3100 -SHSN BLSN BKN006 BKN016CB OVC100 M07/M08 Q0981 R35/592033 NOSIG RMK QBB180 QFE691", "UERR 240730Z 25013G19MPS 9999 BKN027CB M01/M07 Q0990 R25/290140 NOSIG RMK QFE712/0950", "UGKO 240730Z VRB02KT 9999 BKN051CB 16/11 Q1020 NOSIG", "UGSB 240730Z 16008KT 120V210 9999 FEW030 BKN110 17/12 Q1022 NOSIG", "UGTB 240730Z 31019KT CAVOK 16/07 Q1018 NOSIG", "UHBB 240730Z 14003MPS CAVOK 06/M09 Q1020 R36/090060 NOSIG RMK QFE747/0996", "UHHH 240730Z 24006MPS CAVOK 06/M05 Q1020 R23R/090060 NOSIG RMK QFE758/1011", "UHMA 240700Z 31005MPS CAVOK M08/M11 Q1012 R01/////// NOSIG RMK TDZ R01/31005G07MPS END R01/30005G07MPS QFE755/1007", "UHMM 240730Z 30002MPS 9999 NSC M08/M16 Q1009 R10/82//55 NOSIG RMK QFE742 R28/17001MPS", "UHPP 240730Z 04004MPS 330V060 CAVOK 02/M06 Q1010 R34L/CLRD65 NOSIG RMK QFE754/1005", "UHSS 240730Z 34003MPS 9999 NSC 03/M03 Q1019 R01/CLRD70 NOSIG RMK QFE763/1018", "UHWW 240730Z 01004MPS 9999 NSC 08/M07 Q1023 R07R/0///70 NOSIG RMK QFE766", "UIAA 240730Z VRB01MPS 9999 NSC 10/M06 Q1006 R29/70D NOSIG RMK QFE696/0928", "UIBB 240730Z 27007MPS 9999 SCT045CB 00/M09 Q1020 R30/220160 NOSIG RMK QFE722/0963", "UIII 240730Z 31006MPS 9999 SCT049CB 04/M02 Q1021 R30/290150 NOSIG RMK QFE721/0961", "UIUU 240730Z 32008MPS 9999 BKN050CB 06/M01 Q1015 R26/60D NOSIG RMK QFE717/0956", "ULAA 240730Z 33003MPS 290V010 9000 -DZ BKN007 04/03 Q0996 R26/290060 NOSIG RMK QFE745/0994", "ULLI 240730Z 28004MPS CAVOK 02/M01 Q1014 R28R/090060 NOSIG", "ULMM 240730Z 30003MPS 9999 SCT012 00/00 Q1008 R31/690155 NOSIG RMK QFE749", "ULOO 240730Z VRB01MPS 9999 FEW004 05/03 Q1015 R19/290050 NOSIG RMK OBST OBSC QFE757", "ULPB 240730Z 27003MPS 240V300 9999 SCT024 01/M02 Q1009 R19/190055 NOSIG RMK QFE753/1004", "ULWC 240730Z 27002G07MPS 9999 FEW033 02/M02 Q1007 R21/290060 NOSIG RMK QFE745/0994", "UMBB 240700Z 12002MPS 0150 R11/M0300 FG VV/// 10/10 Q1016 NOSIG", "UMGG 240730Z 30004MPS 8000 FEW001 BKN032 07/07 Q1017 NOSIG RMK QBB050", "UMKK 240730Z 14003MPS 110V170 1700 1300S R24/1700U BR OVC001 10/10 Q1013 R24/290095 NOSIG RMK QBB050 OBST OBSC QFE759/1012", "UMMG 240705Z 17002MPS 3200 BR BKN002 10/10 Q1016 NOSIG RMK QBB070", "UMMS 240730Z 36003MPS 9999 BKN015 08/06 Q1016 NOSIG", "UMOO 240700Z 28003MPS 7000 BKN025 07/06 Q1017 NOSIG", "UNAA 240730Z 22005MPS 170V290 9999 -SHSN SCT048CB 05/M08 Q1029 R20/CLRD65 NOSIG RMK QFE749", "UNBB 240730Z 25006MPS 9999 BKN040CB 00/M04 Q1030 R24/190055 NOSIG RMK QFE750", "UNEE 240730Z 24009MPS 9999 BKN030CB 01/M04 Q1027 R23/CLRD60 NOSIG RMK QFE747", "UNKL 240730Z 26007G15MPS 9999 -SHSN BKN031CB 01/M03 Q1025 WS R29 R29/290050 NOSIG RMK QFE743", "UNNT 240730Z 24009MPS 9999 -SHSNRA BKN021CB 02/M04 Q1028 R25/220160 R34/290150 NOSIG RMK QFE761/1014", "UNOO 240730Z 22006MPS CAVOK 01/M06 Q1025 R25/190055 NOSIG RMK QFE760", "UNTT 240730Z 23009MPS 9999 FEW025CB SCT048 01/M03 Q1024 R21/290150 NOSIG RMK QFE753", "UNWW 240730Z 23007MPS 9000 -SHSN BKN016CB 01/M04 Q1030 R19/250255 NOSIG RMK QFE745", "UOOO 240730Z 21006MPS 2400 -SHSN DRSN SCT007 BKN023CB M04/M04 Q0986 R19/420244 NOSIG RMK QFE723/0965", "URKA 240730Z 30005MPS 9999 BKN020CB 13/10 Q1020 R22/010070 NOSIG RMK QFE760/1013", "URKK 240730Z 27010MPS 9999 BKN022 14/09 Q1018 R23L/290060 TEMPO 2000 SHRA SCT005 BKN020CB RMK QFE760", "URMG 240730Z 25002MPS 210V300 CAVOK 13/07 Q1016 R26/090070 NOSIG RMK QFE747/0996", "URML 240730Z 36002MPS 9999 SCT016 14/10 Q1016 R32/01//70 NOSIG RMK QFE762/1016", "URMM 240730Z 30004MPS 9999 NSC 13/07 Q1017 R30/090070 NOSIG RMK QFE734/0979", "URMN 240730Z 01002MPS 9999 SCT/// 16/03 Q1016 R24/010070 NOSIG RMK QFE725", "URMO 240730Z 26003MPS 240V300 9999 SCT/// 13/05 Q1016 R09/010070 NOSIG RMK QFE718/0958", "URMT 240730Z 27010MPS 9999 SCT013 BKN030CB 11/09 Q1016 R25/290055 NOSIG RMK QFE723", "URRP 240730Z 30007MPS 9999 SCT011 SCT///CB 12/11 Q1012 R23/290055 NOSIG RMK QFE751/1002", "URSS 240730Z 04004MPS 9999 SCT050CB 13/10 Q1020 R02/290060 R06/190065 TEMPO -TSRA BKN030CB RMK R06/08005MPS QFE764", "URWA 240730Z 14005MPS CAVOK 13/07 Q1017 R09/010070 TEMPO 2000 RA BR BKN006 OVC016 RMK QFE765/1020", "URWI 240730Z 20009MPS 9999 SCT030CB 11/08 Q1014 R09/190060 NOSIG", "URWW 240730Z 14007MPS 5000 -SHRA BR SCT004 BKN023CB 07/07 Q1010 R06/290060 TEMPO 19010G15MPS 1000 TSRAGR RMK OBST OBSC", "USCC 240730Z 20006MPS 9999 BKN036 02/M05 Q1017 R27/000060 NOSIG RMK QFE743", "USCM 240730Z 16006MPS 9999 OVC029 00/M03 Q1019 R18/090060 NOSIG RMK QFE726", "USDA 240730Z 08003MPS 9000 -SN FEW005 BKN033 M01/M02 Q0989 R04/550243 NOSIG RMK QBB150 QFE740/0987", "USHH 240730Z 24008MPS CAVOK 03/M04 Q1003 R24/010060 TEMPO 2000 SNRA", "USNN 240730Z 24008MPS 6000 -SHSN BKN029CB 00/M03 Q1005 R21/420762 NOSIG RMK QFE749", "USPP 240730Z 22010G15MPS 9999 FEW029 05/M02 Q1006 R21/090060 NOSIG RMK QFE744", "USRR 240730Z 23007MPS 9999 BKN028 02/M03 Q1003 R25/450250 NOSIG RMK QFE747", "USSS 240730Z 22007MPS 9999 OVC027 02/M03 Q1013 R26R/010060 R26L/010060 NOSIG RMK QFE739/0985", "USTR 240730Z 25006G11MPS 9999 BKN040 04/M05 Q1014 R21/CLRD65 R30/CLRD65 NOSIG", "UTAA 240700Z 14006KT 110V180 9000 OVC007 13/12 Q1019 R88/70D NOSIG", "UTAK 240700Z 17008KT 9999 BKN050 16/11 Q1018 R16R/CLRD70 NOSIG", "UTAM 240700Z 06008KT CAVOK 19/10 Q1020 R88/CLRD7 NOSIG", "UTAT 240700Z 10004KT CAVOK 14/02 Q1022 R08/CLRD70 NOSIG", "UTAV 240700Z 30004KT CAVOK 14/10 Q1020 R31/CLRD70 NOSIG", "UTDD 240730Z VRB02MPS 7000 FEW036 SCT071CB BKN100 15/09 Q1020 R09/D NOSIG RMK QFE696/0929", "UTDK 240730Z 00000MPS 5000 HZ BKN027CB OVC036 18/10 Q1020 R01/09//70 RMK QFE707/0943", "UTDL 240730Z 07004MPS 4800 -RA BR BKN005 OVC048 12/11 Q1020 R08/290450 NOSIG RMK QBB170 QFE726/0968", "UTDT 240730Z 26002MPS 200V310 7000 SCT028CB BKN040 20/11 Q1018 R35/CLRD70 RMK QFE724/0965", "UTFA 240700Z ///KT 5000 -SHRA BR OVC/// 13/09 Q1021 R88/29//55", "UTFF 240700Z 33002KT 6000 SCT058CB 12/07 Q1020 R18/CLRD70", "UTFN 240700Z VRB02KT 6000 -SHRA OVC008CB 12/10 Q1020 R28/290150 NOSIG", "UTNN 240700Z 04004KT CAVOK 13/M01 Q1022 R33/CLRD60 NOSIG", "UTNU 240700Z 13006KT CAVOK 15/04 Q1022 R13/CLRD70 NOSIG", "UTO8 M M M 074/-14/-16/2518/M/ PK WND 2622 0631Z SOG 31 2007 60MM", "UTSA 240700Z 27002KT 6000 NSC 15/09 Q1020 R07/CLRD70 NOSIG", "UTSB 240700Z 33004KT 280V010 9999 FEW050CB 15/10 Q1020 R01/CLRD70 NOSIG", "UTSK 240700Z 34004KT 9999 FEW050CB 16/13 Q1020 R16/CLRD70", "UTSS 240700Z 16004KT 3300 -SHRA FEW009 OVC046CB 11/11 Q1019 R09/290250 NOSIG", "UTST 240700Z 22004KT 160V270 9999 FEW066CB 17/09 Q1020 R25/CLRD70 NOSIG", "UTTT 240700Z VRB02KT 2700 -SHRA BR OVC004CB 10/10 Q1021 R08L/29//50 NOSIG RMK BASE460", "UUBC 240730Z 31005MPS 9999 SCT015 07/05 Q1012 R31/290150 NOSIG RMK QFE742/0989", "UUBP 240730Z 30004MPS 9999 BKN014 08/06 Q1015 R16/////// NOSIG RMK QFE743/0990", "UUBW 240730Z 29003MPS 9999 BKN016 06/04 Q1010 R30/290050 NOSIG", "UUDD 240730Z 30005MPS 9999 BKN013 06/04 Q1010 R88/290045 NOSIG", "UUDL 240730Z 32006MPS 9999 BKN015 05/M00 Q1007 R23/190060 NOSIG RMK QFE747", "UUEE 240730Z 29006MPS 9999 BKN012 06/03 Q1010 R24L/290051 R24C/290051 NOSIG", "UUMO 240730Z 31006MPS 9999 OVC014 06/05 Q1010 R25/290050 NOSIG RMK QFE742/0990", "UUOB 240730Z 31006MPS 9000 BKN008 08/07 Q1014 R29/190065 NOSIG", "UUOK 240730Z 33006MPS 9999 OVC014 07/06 Q1013 R30/190055 NOSIG RMK QFE741/0989", "UUOL 240730Z 32005MPS 9999 OVC014 07/06 Q1010 R15/290150 NOSIG", "UUOO 240730Z 31006MPS 9999 -RA OVC010 08/07 Q1010 R30/290155 NOSIG RMK QFE744", "UUWW 240730Z 31006MPS 9999 BKN011 BKN026 06/03 Q1010 R01/290050 NOSIG", "UUYY 240730Z 27003MPS 9999 FEW008 SCT017CB 02/01 Q0995 R18/29//51 NOSIG RMK QFE738/0984", "UWGG 240730Z 27003MPS 9999 OVC006 07/06 Q1004 R18L/290050 NOSIG", "UWKD 240730Z 20007G12MPS 8000 -SHRA BKN008CB 05/04 Q1007 R11/2/0050 NOSIG RMK QFE745/0994", "UWKE 240730Z 20010MPS 9000 -RA BKN006 OVC033 03/03 Q1010 R21/210355 NOSIG RMK OBST OBSC QFE741/0988", "UWKS 240730Z 21007MPS 9999 -RA OVC005 06/05 Q1004 R24/290355 NOSIG RMK QFE739", "UWLL 240730Z 20006MPS 9999 -RA OVC036 06/04 Q1009 R20/290150 NOSIG RMK QFE747/0996", "UWLW 240700Z 17006MPS CAVOK 06/04 Q1010 R20/290250 NOSIG RMK QFE752/1003", "UWOO 240730Z 18004MPS 9999 BKN046 04/00 Q1021 R26/65D NOSIG RMK QFE755/1007", "UWOR 240700Z 21005MPS CAVOK 06/M04 Q1023 R25/CLRD65 NOSIG RMK QFE743/0991", "UWPS 240730Z 21007MPS 9000 -RA OVC005 05/05 Q1007 R20/CLRD60 NOSIG RMK QBB150 QFE738", "UWSG 240730Z 16007MPS 7000 -RA BKN007 BKN030 OVC033 06/05 Q1012 R26/290060 NOSIG RMK QFE756/1008", "UWUU 240730Z 18007MPS 9999 OVC022 03/M01 Q1016 R14R/0///60 NOSIG", "UWWW 240730Z 20007MPS 9999 SCT033 07/01 Q1013 R15/CLRD60 NOSIG RMK QFE748/0998", "VAAH 240730Z 36010KT 6000 NSC 36/11 Q1011 NOSIG", "VABB 240730Z 27007KT 2500 FU NSC 32/12 Q1010 NOSIG", "VABO 240730Z 02007KT 6000 NSC 32/16 Q1011 NOSIG", "VABP 240730Z 33009KT 6000 NSC 29/06 Q1012 NOSIG", "VABV 240700Z 32007KT 5000 FU NSC 34/10 Q1012 NOSIG", "VAID 240730Z 02008KT 6000 NSC 30/10 Q1013 NOSIG", "VAJB 240730Z 35007KT 5000 HZ NSC 28/15 Q1011 NO SIG", "VAJJ 240700Z 26006KT 5000 FU NSC 31/20 Q1011 NOSIG", "VAKE 240730Z 26003KT 5000 FU NSC 35/11 Q1011 NOSIG", "VAKP 240730Z 04006KT 7000 NSC 28/10 Q1014", "VANP 240730Z 33008KT 5000 HZ NSC 30/16 Q1010 NOSIG", "VARK 240700Z 05006KT 6000 NSC 35/13 Q1012 NOSIG", "VASD 240730Z 34006KT 6000 NSC 29/08 Q1014 NOSIG", "VASU 240730Z 35007KT 6000 NSC 33/16 Q1011 NOSIG", "VAUD 240700Z 35009KT 6000 NSC 31/08 Q1014 NOSIG", "VCBI 240710Z 26007KT 210V320 9999 FEW014 BKN017 29/25 Q1011 NOSIG", "VCRI 240710Z 25013KT 8000 -SHRA FEW016 SCT018 BKN080 29/26 Q1010 NOSIG", "VDPP 240730Z 33004KT 270V030 9999 SCT015 FEW017CB 31/24 Q1007 RMK CB:SW", "VDSR 240730Z 20005KT 170V230 9999 SCT015 SCT040 29/25 Q1007", "VDSV 240730Z 12006KT 090V170 9000 -TSRA SCT015 FEW017CB BKN040 26/24 Q1008 RMK CB:N", "VEAT 240730Z 04008KT 1800 MOD RA FEW008 SCT016 OVC090 22/22 Q1004 NOSIG", "VEBI 240700Z 10009KT 1000 RA FEW002 SCT016 FEW025CB OVC080 17/17 Q1014 TEMPO 0800 RA", "VEBN 240730Z 29005KT 5000 HZ NSC 32/18 Q1007 NOSIG", "VEBS 240730Z 30005KT 4000 HZ SCT018 BKN100 29/25 Q1005 NOSIG", "VEBU 240700Z 32010KT 6000 NSC 30/18 Q1008 NOSIG", "VECC 240730Z 03014G24KT 3200 -RA SCT010 SCT015 OVC090 23/21 Q1001 TEMPO TL0830 03015G30KT", "VECO 240700Z 07004KT 5000 HZ BKN025 BKN090 27/21 Q1008", "VEDG 240730Z 06011KT 5000 HZ SCT020 BKN100 27/22 Q1004 NOSIG", "VEDO 240730Z 36005KT 4500 HZ SCT018 SCT025 BKN100 29/17 Q1006 NOSIG", "VEGT 240730Z 05004KT 3500 RA SCT018 OVC090 23/22 Q1010 NOSIG", "VEGY 240730Z 00000KT 4500 HZ NSC 30/18 Q1006 NOSIG", "VEIM 240730Z 05004KT 3000 -RA FEW008 SCT018 BKN090 20/19 Q1011 NOSIG", "VEJH 240730Z 34007KT 4500 HZ SCT100 31/23 Q1006", "VEJR 240730Z 02005KT 6000 FEW030 29/15 Q1010", "VEJS 240700Z 32004KT 3000 HZ SCT018 BKN100 29/21 Q1005", "VEKI 240700Z 07004KT 5000 HZ NSC 30/19 Q1007 NOSIG", "VELP 240730Z 11004KT 1000 BR SCT005 SCT015 BKN100 21/21 Q1006 BECMG 1200 BR", "VELR 240700Z 00000KT 3000 DZ SCT008 BKN016 FEW025CB OVC080 24/22 Q1012", "VEMN 240730Z 05003KT 2500 -RA SCT008 SCT018 FEW025CB OVC090 24/22 Q1012 TEMPO 1500 RA", "VEMR 240730Z 02010KT 2000 -RA FEW008 BKN018 FEW025CB OVC090 22/21 Q1010 TEMPO 1500 RA", "VEPT 240730Z 1002KT 5000 HZ FEW020 SCT100 32/23 Q1005 NOSIG", "VEPY 240730Z 20005KT 5000 HZ FEW015 SCT100 23/10 Q1014 NOSIG", "VERC 240730Z 35011KT 5000 HZ NSC 27/16 Q1008 NOSIG", "VERP 240730Z 34002KT 5000 HZ NSC 30/17 Q1008 NOSIG", "VGEG 240700Z 08012KT 4000 SCT016 FEW028CB OVC090 26/24 Q1000 NOSIG", "VGHS 240730Z 08010KT 2500 RA BKN009 OVC090 24/23 Q1004 NOSIG", "VHHH 240730Z 10013KT 9999 FEW027 28/18 Q1014 NOSIG", "VIAR 240730Z 30004KT 5000 HZ NSC 30/12 Q1012 NOSIG", "VIDP 240730Z 30005KT 2500 FU NSC 29/13 Q1011 NOSIG", "VIGG 240730Z 20002KT 7000 FEW035 27/12 Q1015", "VIJP 240730Z 34004KT 3500 HZ NSC 30/10 Q1013 NOSIG", "VILD 240730Z 32006KT 6000 30/13 Q1012", "VILK 240730Z 32003KT 5000 HZ NSC 30/21 Q1008 NOSIG", "VISM 240700Z 00000KT 6000 NSC 22/06 Q1019", "VLLB 240700Z 32002KT 9999 SCT020 32/21 Q1012 NOSIG", "VLLN 240700Z 20006KT 9999 SCT020 31/20 Q1014 NOSIG", "VLPS 240700Z 32002KT 9999 SCT020 33/23 Q1010 NOSIG", "VLSK 240700Z 09006KT 9999 SCT020 33/18 Q1012 NOSIG", "VLVT 240730Z 06004KT 8000 SCT020 32/23 Q1010 NOSIG", "VMMC 240730Z 11014KT 9999 FEW040 25/21 Q1014 NOSIG", "VNKT 240730Z 28006KT 9999 FEW025 26/09 Q1014 NOSIG", "VOAR 240700Z 31007KT 6000 FEW020 SCT100 31/14 Q1010 NOSIG", "VOAT 240730Z 29004KT 6000 FEW015 32/24 Q1010 NOSIG", "VOBG 240730Z 30010KT 6000 SCT012 27/11 Q1015 NOSIG", "VOBL 240730Z 32010KT CAVOK 26/08 Q1014 NOSIG", "VOBM 240730Z 36005KT CAVOK 27/09 Q1015", "VOBZ 240730Z 32010KT 6000 FEW020 SCT100 32/21 Q1007 NOSIG", "VOCB 240730Z 22007KT 6000 SCT012 BKN080 30/21 Q1011 NOSIG", "VOCI 240730Z 25005KT 6000 SCT015 SCT080 31/25 Q1009 NOSIG", "VOCL 240730Z 24008KT 6000 SCT012 BKN080 29/23 Q1010 NOSIG", "VOCP 240730Z 31006KT 5000 HZ FEW020 31/13 Q1009 NOSIG", "VOGB 240730Z 36005KT CAVOK 28/14 Q1012", "VOGO 240700Z 07007KT 6000 NSC 33/12 Q1010 NOSIG", "VOHB 240730Z 04008KT 8000 NSC 28/12 Q1013", "VOHS 240730Z 35012KT 6000 FEW015 28/13 Q1012 NOSIG", "VOHY 240730Z 30006KT 6000 FEW020 28/11 Q1013 NOSIG", "VOJV 240700Z 32008KT 7000 NSC 28/15 Q1013", "VOKN 240730Z 23006KT 6000 FEW012 FEW025TCU 31/25 Q1009 NOSIG", "VOKU 240730Z 31010KT 5000 HZ FEW020 29/12 Q1011", "VOMD 240730Z 03003KT 6000 FEW022 33/23 Q1009 NOSIG", "VOML 240730Z 23006KT 6000 FEW015 32/22 Q1009 NOSIG", "VOMM 240730Z 32008KT 6000 FEW020 SCT100 33/18 Q1008 NOSIG", "VOMY 240730Z 29004KT CAVOK 29/15 Q1014", "VOPC 240700Z 24008KT 6000 SCT015 33/20 Q1010 NOSIG", "VORY 240730Z 27006KT 6000 FEW020 BKN090 33/20 Q1006 NOSIG", "VOSM 240700Z 30006KT 6000 SCT020 30/16 Q1011 NOSIG", "VOSR 240730Z 06004KT 5000 HZ NSC 32/11 Q1010 NOSIG", "VOTK 240700Z VRB02KT 6000 SCT018 FEW025TCU 34/23 Q1009 NOSIG", "VOTP 240730Z 36007KT 6000 FEW020 31/12 Q1008 NOSIG", "VOTR 240730Z 29004KT 3000 HZ SCT016 BKN100 31/24 Q1009 BECMG 5000 HZ", "VOTV 240730Z 27006KT 6000 FEW015 FEW025CB SCT080 29/24 Q1010 NOSIG", "VOVZ 240700Z VRB02KT 5000 HZ FEW018 SCT220 33/18 Q1006 NOSIG", "VQPR 240730Z 02003KT 350V060 9999 OVC080 17/03 Q1018", "VRMG 240700Z 24007KT 9999 FEW018 30/24 Q1012 NOSIG", "VRMH 240700Z 26008KT 9999 FEW018TCU BKN120 29/25 Q1011", "VRMM 240700Z 25014KT 9999 FEW017 FEW018CB BKN120 30/26 Q1011 CB SE,SW TEMPO 5000 SHRA", "VTBD 240730Z 02005KT 350V060 9999 FEW020 SCT040 33/23 Q1009 NOSIG", "VTBO 240700Z 03002KT 9000 FEW025 35/23 Q1008", "VTBS 240730Z 11007G19KT 070V160 9999 FEW020 33/21 Q1008 NOSIG", "VTBU 240730Z 24006KT 7000 FEW020 SCT100 29/25 Q1009 NOSIG", "VTCC 240730Z 18007KT 160V240 9999 BKN035 32/20 Q1011 NOSIG", "VTCH 240700Z 27004KT 180V310 9999 BKN025 31/22 Q1010 NOSIG", "VTCL 240700Z VRB02KT 9999 BKN025 32/20 Q1011 NOSIG", "VTCN 240700Z VRB04KT 9999 FEW045 32/21 Q1011 NOSIG", "VTCP 240700Z VRB03KT 9999 FEW035 34/21 Q1010 NOSIG", "VTCT 240700Z 00000KT 9999 FEW045 29/21 Q1012 NOSIG", "VTPB 240700Z VRB01KT 9999 FEW030 34/20 Q1010 NOSIG", "VTPH 240700Z 06006KT 020V100 9000 FEW030 32/24 Q1009 NOSIG", "VTPM 240700Z 35004KT 280V060 9999 FEW040 33/21 Q1009 NOSIG", "VTPO 240700Z 23004KT 9999 FEW025 33/21 Q1010 NOSIG", "VTPP 240700Z VRB04KT 9999 FEW030 33/18 Q1010 NOSIG", "VTSB 240700Z 00000KT 9999 FEW018CB 32/25 Q1009 NOSIG", "VTSC 240700Z 29005KT 270V340 9999 FEW022 29/23 Q1009 NOSIG", "VTSE 240700Z 15006KT 9999 VCSH FEW018TCU SCT020 SCT100 32/25 Q1009 NOSIG", "VTSF 240700Z 04006KT 350V090 9999 FEW018 33/26 Q1009 NOSIG", "VTSG 240700Z 20006KT 160V240 9999 BKN020 30/25 Q1010 NOSIG", "VTSM 240700Z 32008KT 270V360 9999 FEW020 31/25 Q1010 NOSIG", "VTSP 240730Z 29007KT 250V320 9999 FEW020 30/25 Q1009 NOSIG", "VTSR 240700Z 00000KT 9999 SCT025 31/22 Q1010 NOSIG", "VTSS 240730Z 00000KT 9999 FEW020 BKN100 29/24 Q1009 NOSIG", "VTST 240700Z VRB02KT 9999 SCT025 SCT030 30/25 Q1009 NOSIG", "VTUD 240700Z 10006KT 050V170 9999 FEW035 34/19 Q1011 NOSIG", "VTUI 240700Z 09006KT 060V140 CAVOK 32/18 Q1011 NOSIG", "VTUK 240700Z 07006KT 360V130 CAVOK 32/17 Q1011 NOSIG", "VTUL 240700Z 13005KT 060V190 7000 FEW030 32/19 Q1011 NOSIG", "VTUO 240700Z 07009KT 030V110 9999 FEW030 31/20 Q1011 NOSIG", "VTUQ 240700Z 02005KT 330V060 9999 FEW040 31/23 Q1010 NOSIG", "VTUU 240700Z VRB04KT 9999 FEW045 32/22 Q1009 NOSIG", "VTUV 240700Z 09007KT 040V120 9999 FEW030 32/20 Q1010 NOSIG", "VTUW 240700Z 12004KT 070V200 CAVOK 32/18 Q1010 NOSIG", "VVCI 240730Z 14009KT CAVOK 29/21 Q1012 NOSIG", "VVCR 240730Z 06011KT 9999 FEW015 32/23 Q1009 NOSIG", "VVCT 240730Z VRB02KT 9999 SCT013 FEW015TCU 33/23 Q1007 NOSIG TCU/E/SW", "VVDN 240730Z 35006KT 320V030 9999 FEW015 BKN050 31/20 Q1010 NOSIG", "VVNB 240730Z 09004KT 010V160 9999 FEW012 33/20 Q1012 NOSIG", "VVPB 240730Z 32007KT 9999 FEW017 BKN060 29/23 Q1011 NOSIG", "VVPQ 240730Z VRB02KT 9999 SCT015 FEW017CB SCT040 30/25 Q1008 NOSIG CB/NE", "VVTS 240730Z VRB03KT 9999 BKN017 34/24 Q1006 NOSIG", "VYMD 240730Z 18003KT 7000 BKN020 SCT120 34/24 Q1005 NOSIG", "VYNT 240700Z 19010KT 7000 BKN020 FEW025CB BKN110 33/24 Q1007 NOSIG", "VYYY 240730Z 17008KT 5000 -RA BKN013 FEW017CB OVC090 26/26 Q1009", "WAAA 240730Z 28010KT 9999 SCT019 31/25 Q1007 NOSIG", "WABB 240700Z 06005KT 210V060 9999 SCT018 BKN100 29/24 Q1007 NOSIG", "WADD 240730Z 26009KT 9999 FEW015CB SCT016 29/26 Q1008 NOSIG", "WADL 240730Z 02008KT 3000 TSRA FEW015CB BKN016 26/24 Q1008 TEMPO TL0830 1000 +TSRA RMK CB OVER THE FIELD", "WAHS 240730Z 00000KT 7000 FEW013CB FEW014 28/25 Q1007 RMK CB TO NW", "WAJJ 240700Z 12003KT 9999 FEW013 28/24 Q1007 NOSIG", "WAKK 240700Z 18010KT 9999 FEW016 30/25 Q1005 NOSIG", "WALL 240730Z 22002KT 9999 FEW018CB FEW020 31/26Q1006 RMK CB TO SW", "WAMM 240700Z VRB03KT 9999 SCT019 31/25 Q1007 NOSIG", "WAOO 240700Z 24010KT 9999 SCT017 32/24 Q1007 NOSIG", "WAPP 240730Z 22008KT 9999 FEW016 31/25 Q1006 NOSIG", "WAQQ 240700Z 17003KT 9999 SCT015 30/25 Q1007 NOSIG", "WARR 240730Z 36004KT 9000 -RA SCT020 27/26 Q1007 RETS TEMPO TL0800 8000 -TSRA", "WATT 240700Z 24007KT 9999 BKN017 33/24 Q1007 RERA NOSIG", "WAYY 240700Z 18004KT 9999 SCT015 32/26 Q1006 NOSIG", "WBGB 240700Z 25004KT 210V290 9999 FEW016 29/26 Q1008", "WBGG 240730Z 16005KT 110V200 4000 TSRA FEW015CB SCT020 25/24 Q1007 TEMPO 4000 TSRA", "WBGR 240700Z 27006KT 210V350 9999 SCT014 FEW015CB 31/25 Q1008", "WBGS 240700Z VRB03KT 9999 SCT018 30/26 Q1007", "WBGY 240700Z VRB01KT 9999 FEW015CB SCT022 31/25 Q1007", "WBKK 240730Z 23004KT 160V310 9999 FEW014 29/24 Q1007 NOSIG", "WBKL 240700Z 25003KT 190V340 9999 FEW015 28/24 Q1008", "WBKS 240700Z 31005KT 280V350 9999 FEW016 30/24 Q1006", "WBKW 240700Z VRB01KT 9999 FEW016CB 29/25 Q1007", "WBSB 240730Z 22005KT 9999 FEW015 FEW016CB SCT140 BKN280 28/27 Q1008 NOSIG", "WIBB 240730Z 33006KT 3000 -RA BKN009 FEW015CB 24/24 Q1008 RMK CB OVER THE FIELD", "WIDD 240730Z 35005KT 9000 -RA SCT014 28/24 Q1010 NOSIG", "WIDN 240700Z 34008KT 9999 SCT015 29/23 Q1010 NOSIG", "WIEE 240730Z 28006KT 9999 FEW020 SCT120 30/25 Q1008 NOSIG", "WIHH 240700Z 25014KT 7000 SCT018 31/22 Q1008 NOSIG", "WIII 240730Z 25018KT 9999 VCTS SCT020 30/24 Q1009 NOSIG RMK CBTO N", "WIMM 240730Z 36006KT 9999 SCT017 30/25 Q1008 NOSIG", "WIOO 240700Z 25011KT 9000 FEW011CB BKN012 30/24 Q1008 NOSIG", "WIPP 240700Z 21003KT 9999 FEW010CB BKN010 31/24 Q1007 RMK CB TONE AND SE", "WMAU 240700Z VRB02KT 8000 -RA SCT025 27/25 Q1009", "WMBA 240700Z VRB07KT 9999 FEW017CB 32/25 Q1008", "WMKA 240700Z 29006KT 250V330 9999 FEW017CB SCT020 30/25 Q1009", "WMKB 240700Z 31007KT 250V360 9000 FEW020 30/25 Q1009 NOSIG", "WMKC 240700Z VRB02KT 9999 -RA FEW010 27/25 Q1009", "WMKD 240700Z VRB05KT 9999 FEW017CB SCT019 30/24 Q1008 NOSIG", "WMKE 240700Z 35003KT 300V060 9999 -RA FEW007 SCT020 26/25 Q1009", "WMKI 240700Z 35007KT 320V050 9000 FEW017CB SCT019 32/23 Q1008", "WMKJ 240700Z VRB04KT 9999 FEW018 30/26 Q1009", "WMKK 240730Z 29007KT 210V350 9000 VCSH FEW017CB 30/23 Q1008 NOSIG", "WMKL 240700Z 01004KT 280V080 9999 FEW020 30/25 Q1010", "WMKM 240700Z VRB05KT 9999 FEW021 32/26 Q1008", "WMKN 240700Z 31008KT 270V020 9999 -RA FEW010 SCT020 27/25 Q1009", "WMKP 240730Z VRB07KT 9999 FEW017CB 32/23 Q1008 NOSIG", "WMSA 240700Z 30010KT 260V330 9999 FEW017CB 32/23 Q1009", "WSAP 240700Z 01005KT 9999 FEW018 BKN270 31/24 Q1009", "WSSL 240700Z 01006KT 330V050 9999 FEW018TCU SCT170 BKN270 30/24 Q1009", "WSSS 240730Z 36007KT 9999 -RA FEW016 SCT160 BKN270 29/25 Q1008 NOSIG", "YABA 240630Z AUTO 12014KT 9999 // SCT013 SCT017 BKN029 14/13 Q1008", "YBAS 240730Z AUTO 25006KT 200V310 9999 // NCD 33/09 Q1006 RF00.0/000.0", "YBBN 240730Z 02013KT 9999 FEW030 24/21 Q1005", "YBCG 240730Z AUTO 36008KT 9999 -SHRA SCT051 24/20 Q1005 RETS", "YBCS 240736Z AUTO 35008KT 9999 // SCT019 BKN027 28/24 Q1007", "YBHM 240731Z AUTO 34019KT 9999 // BKN018 28/24 Q1007", "YBLN 240730Z AUTO 21017KT 9999 // SCT025 20/13 Q1009 RF00.0/000.0", "YBRK 240730Z AUTO 11015G25KT 9999 // SCT038 BKN054 BKN067 27/18 Q1006", "YBRM 240730Z AUTO 26014KT 9999 // BKN019 30/23 Q1006 RF00.0/000.0", "YBUD 240730Z AUTO 36012KT 9999 VCTS BKN008 OVC011 24/24 Q1007", "YBWW 240730Z AUTO 27003KT 9999 // NCD 27/17 Q1006 RF00.0/000.0", "YCBA 240630Z AUTO 36005KT 310V010 9999 VCTS SCT026 SCT047 BKN071 18/16 Q1005 RETS", "YCFS 240730Z AUTO 24006KT 9999 // NCD 21/18 Q1006 RF00.0/003.6 DL-W/DL-NW", "YCOM 240734Z AUTO 10007KT 2700 // SCT016 BKN020 BKN027 ///// Q1011", "YGEL 240713Z AUTO 20017G27KT 9999 // SCT035 22/13 Q1012", "YGFN 240650Z AUTO 11005KT 9999 VCTS -SHRA SCT034 BKN085 BKN110 22/20 Q1005 RETS RESHRA", "YGLA 240720Z AUTO 29007KT 9999 // SCT021 SCT049 BKN070 23/20 Q1007 RETS", "YLHI 240730Z AUTO 07028KT 4900 BR OVC013 OVC018 20/18 Q1012", "YLIS 240730Z AUTO 14008KT 9999 TS SCT028 BKN042 BKN099 23/19 Q1006", "YMAV 240730Z AUTO 17008KT 9999 // SCT025 BKN097 OVC115 16/14 Q1008", "YMER 240730Z AUTO 07013KT 7000 -RA BKN010 OVC013 OVC017 18/18 Q1011", "YMHB 240730Z 09006KT 5000 BR BKN006 OVC012 11/10 Q1023 RF00/0/000/0", "YMIA 240707Z AUTO 20006KT 9999 SHRA BKN072 OVC084 16/16 Q1003 RETS", "YMLT 240730Z AUTO 15019KT 9999 // OVC054 12/08 Q1018 RF00.0/000.0", "YMML 240730Z 20005KT 9999 FEW020 SCT081 BKN115 19/14 Q1007", "YPAD 240730Z 23015KT 9999 BKN026 17/14 Q1006", "YPCC 240730Z AUTO 12011KT 9999 // SCT031 28/21 Q1011 RF00.0/000.0", "YPDN 240730Z 29015KT 9999 FEW020 32/26 Q1004", "YPEA 240708Z 21017KT 9999 SCT035 22/13 Q1009", "YPKG 240730Z AUTO 23018KT 9999 VCTS SCT016 SCT082 25/12 Q1003", "YPLM 240730Z AUTO 23016KT 200V270 9999 // SCT058 29/11 Q1008", "YPPD 240730Z AUTO 29017KT 9999 // SCT040 SCT076 OVC125 26/19 Q1005", "YPPH 240730Z 24018KT 9999 SCT034 21/12 Q1009", "YPXM 240730Z AUTO 13010KT 0400 SHRA BKN002 OVC007 23/23 Q1011", "YSCB 240730Z AUTO 15006KT 9999 -SHRA SCT029 SCT050 SCT063 16/14 Q1009", "YSNF 240730Z AUTO 08011KT 9999 // BKN027 OVC033 OVC043 19/14 Q1022", "YSNW 240730Z 15004KT 4500 -RA BKN005 BKN010 18/18 Q1007", "YSRI 240730Z AUTO 22007KT 9999 // SCT010 BKN017 BKN027 20/19 Q1007", "YSSY 240730Z AUTO 06014KT 9999 // BKN012 OVC115 20/18 Q1007", "YSTW 240730Z AUTO 32004KT 2600 HZ NCD 24/15 Q1006", "YSWG 240722Z AUTO 10007KT 9999 // SCT062 BKN074 OVC088 16/15 Q1007", "YTRE 240730Z AUTO 24006KT 9999 // BKN006 OVC025 18/18 Q1006", "YWLM 240730Z AUTO 08003KT 9999 -SHRA OVC004 18/18 Q1007", "ZBAA 240730Z 15002MPS 110V200 CAVOK 19/04 Q1022 NOSIG", "ZBAD 240730Z 21003MPS CAVOK 20/02 Q1022 NOSIG", "ZBHH 240700Z 24003MPS 200V260 CAVOK 18/M06 Q1021 NOSIG", "ZBSJ 240700Z 15003MPS 130V190 5000 HZ NSC 21/04 Q1021 NOSIG", "ZBTJ 240730Z 15005MPS CAVOK 20/05 Q1022 NOSIG", "ZBYN 240730Z 22002MPS 190V260 CAVOK 21/M06 Q1021 NOSIG", "ZGGG 240730Z 09002MPS 060V140 CAVOK 33/18 Q1013 NOSIG", "ZGHA 240700Z 05003MPS 020V100 CAVOK 28/09 Q1018 NOSIG", "ZGKL 240700Z 01004MPS 330V070 CAVOK 32/08 Q1015 NOSIG", "ZGNN 240700Z VRB02MPS CAVOK 32/15 Q1014 NOSIG", "ZGOW 240700Z 13005MPS 110V180 CAVOK 27/14 Q1015 NOSIG", "ZGSZ 240700Z 20005MPS CAVOK 28/20 Q1013 NOSIG", "ZHCC 240700Z 14002MPS 100V210 8000 NSC 23/06 Q1023 NOSIG", "ZHHH 240700Z 12003MPS 090V150 CAVOK 25/03 Q1021 NOSIG", "ZJHK 240700Z 08005MPS 5000 -RA BR SCT005 BKN020 25/24 Q1012 NOSIG", "ZJSY 240700Z 27003MPS 220V290 9999 SCT036 BKN066 28/22 Q1010 NOSIG", "ZLLL 240700Z 18003MPS 140V220 CAVOK 18/03 Q1020 NOSIG", "ZLXY 240700Z 08003MPS 8000 SCT070 18/06 Q1021 NOSIG", "ZMCK 240730Z 28005MPS CAVOK 14/M09 Q1010 NOSIG RMK QFE642.8 20", "ZMUB 240700Z 24003MPS CAVOK 13/M10 Q1010 NOSIG RMK QFE650.9 19", "ZPPP 240700Z 20004MPS 9999 BKN026 20/11 Q1025 NOSIG", "ZSAM 240700Z 07009MPS CAVOK 26/07 Q1017 NOSIG", "ZSFZ 240700Z 05011MPS CAVOK 22/13 Q1021 NOSIG", "ZSHC 240730Z 04003MPS 350V100 CAVOK 22/06 Q1023 NOSIG", "ZSNB 240700Z 03004MPS 340V080 9999 FEW050 21/08 Q1024 NOSIG", "ZSNJ 240700Z 08005MPS 030V130 CAVOK 23/04 Q1023 NOSIG", "ZSOF 240700Z 11003MPS 070V180 CAVOK 24/03 Q1023 NOSIG", "ZSPD 240730Z 03006MPS CAVOK 20/09 Q1024 NOSIG", "ZSQD 240700Z 18005MPS CAVOK 19/07 Q1024 NOSIG", "ZSSS 240730Z 02004MPS 340V060 CAVOK 22/06 Q1024 NOSIG", "ZUCK 240700Z 02007MPS 9999 -RA FEW050 18/14 Q1019 NOSIG", "ZUGY 240700Z VRB02MPS CAVOK 25/09 Q1019 NOSIG", "ZUTF 240700Z VRB02MPS 7000 FEW050 22/14 Q1019 NOSIG", "ZUUU 240700Z 34003MPS 9999 SCT050 20/15 Q1019 NOSIG", "ZWSH 240700Z AUTO 11003MPS 070V150 7000 // ///////// 17/M05 Q1017", "ZWWW 240730Z VRB01MPS 9999 BKN011 OVC020 07/04 Q1027 NOSIG", "ZYCC 240700Z VRB01MPS CAVOK 09/M08 Q1025 NOSIG", "ZYHB 240700Z 18002MPS 150V220 CAVOK 08/M06 Q1025 NOSIG", "ZYTL 240730Z 28003MPS 240V310 CAVOK 16/02 Q1025 NOSIG", "ZYTX 240730Z VRB01MPS CAVOK 13/M07 Q1024 NOSIG"]}