{"station_id": ["AGGH", "BGBW", "BGGH", "BGJN", "BGKK", "BGSF", "BGTL", "BIAR", "BIEG", "BIIS", "BIKF", "BIRK", "BIVM", "BK12", "BKPR", "CAHR", "CBAR", "CBBC", "CERM", "CMFM", "CMGB", "CPIN", "CTCK", "CTNK", "CTRA", "CWAF", "CWAJ", "CWAQ", "CWAR", "CWAV", "CWBA", "CWBO", "CWBS", "CWBT", "CWBU", "CWBV", "CWBY", "CWBZ", "CWCF", "CWCJ", "CWCO", "CWCT", "CWDA", "CWDC", "CWDJ", "CWDK", "CWDM", "CWDO", "CWDQ", "CWDV", "CWDZ", "CWEB", "CWEF", "CWEH", "CWEL", "CWEP", "CWEQ", "CWER", "CWEU", "CWEW", "CWEZ", "CWFD", "CWFF", "CWFJ", "CWFQ", "CWGB", "CWGD", "CWGH", "CWGL", "CWGM", "CWGR", "CWGT", "CWGW", "CWGY", "CWHO", "CWHP", "CWHQ", "CWHT", "CWHV", "CWID", "CWIG", "CWII", "CWIJ", "CWIK", "CWIL", "CWIP", "CWIS", "CWIT", "CWIW", "CWIZ", "CWJB", "CWJC", "CWJD", "CWJH", "CWJI", "CWJO", "CWJR", "CWJT", "CWJU", "CWJV", "CWJW", "CWJX", "CWKG", "CWKH", "CWKM", "CWKO", "CWKX", "CWLB", "CWLC", "CWLE", "CWLM", "CWLP", "CWLS", "CWLX", "CWLY", "CWME", "CWMJ", "CWMM", "CWMQ", "CWMT", "CWNC", "CWND", "CWNE", "CWNH", "CWNK", "CWNM", "CWNP", "CWNQ", "CWNZ", "CWOB", "CWOC", "CWOD", "CWOE", "CWOY", "CWPD", "CWPE", "CWPF", "CWPK", "CWPO", "CWPR", "CWPZ", "CWQH", "CWQK", "CWQO", "CWQP", "CWQR", "CWQS", "CWQV", "CWRA", "CWRJ", "CWRK", "CWRM", "CWRN", "CWRO", "CWRT", "CWRU", "CWRY", "CWRZ", "CWSA", "CWSD", "CWSF", "CWSG", "CWSK", "CWSL", "CWSP", "CWSR", "CWSS", "CWST", "CWTA", "CWTG", "CWTN", "CWTT", "CWTY", "CWUS", "CWUW", "CWUX", "CWVF", "CWVI", "CWVN", "CWVP", "CWVQ", "CWVT", "CWVU", "CWWA", "CWWB", "CWWE", "CWWF", "CWWK", "CWWL", "CWWS", "CWWZ", "CWXA", "CWXC", "CWXI", "CWXL", "CWYJ", "CWYY", "CWZA", "CWZG", "CWZL", "CWZN", "CWZO", "CWZQ", "CWZW", "CWZZ", "CXAT", "CXBI", "CXBK", "CXBO", "CXCA", "CXCK", "CXDE", "CXDI", "CXDK", "CXDW", "CXEA", "CXEC", "CXEG", "CXET", "CXGH", "CXHA", "CXHM", "CXIB", "CXKA", "CXKE", "CXKI", "CXKT", "CXLB", "CXLL", "CXMD", "CXMI", "CXMM", "CXMY", "CXNM", "CXNP", "CXOX", "CXPC", "CXRB", "CXRH", "CXSE", "CXSH", "CXTD", "CXTN", "CXTO", "CXTP", "CXTV", "CXVN", "CXWN", "CXYH", "CXZC", "CXZV", "CYAH", "CYAM", "CYAT", "CYAY", "CYBB", "CYBC", "CYBG", "CYBK", "CYBQ", "CYBR", "CYBU", "CYBW", "CYBX", "CYCA", "CYCB", "CYCK", "CYCO", "CYCY", "CYDB", "CYDF", "CYDL", "CYDN", "CYDP", "CYDQ", "CYEG", "CYEK", "CYEN", "CYER", "CYET", "CYEV", "CYFB", "CYFC", "CYFO", "CYFS", "CYFT", "CYGK", "CYGL", "CYGP", "CYGR", "CYGV", "CYGW", "CYGX", "CYHD", "CYHE", "CYHK", "CYHM", "CYHU", "CYHY", "CYHZ", "CYIN", "CYIO", "CYIV", "CYJT", "CYKA", "CYKF", "CYKJ", "CYKL", "CYKP", "CYKY", "CYLD", "CYLH", "CYLL", "CYLW", "CYMA", "CYMH", "CYMM", "CYMO", "CYMT", "CYMX", "CYNA", "CYND", "CYNE", "CYNM", "CYOD", "CYOJ", "CYOO", "CYOW", "CYPA", "CYPD", "CYPE", "CYPH", "CYPL", "CYPO", "CYPQ", "CYPR", "CYPX", "CYPY", "CYQA", "CYQB", "CYQD", "CYQF", "CYQG", "CYQH", "CYQI", "CYQK", "CYQL", "CYQM", "CYQQ", "CYQR", "CYQT", "CYQU", "CYQV", "CYQW", "CYQX", "CYQY", "CYQZ", "CYRB", "CYRJ", "CYRL", "CYRQ", "CYRT", "CYRV", "CYSB", "CYSC", "CYSF", "CYSJ", "CYSM", "CYSN", "CYTE", "CYTH", "CYTL", "CYTR", "CYTS", "CYTZ", "CYUA", "CYUL", "CYUS", "CYUT", "CYUX", "CYUY", "CYVC", "CYVL", "CYVM", "CYVO", "CYVP", "CYVQ", "CYVR", "CYVT", "CYVV", "CYWE", "CYWG", "CYWK", "CYWL", "CYXC", "CYXE", "CYXH", "CYXJ", "CYXL", "CYXR", "CYXS", "CYXT", "CYXU", "CYXX", "CYXY", "CYXZ", "CYYB", "CYYC", "CYYD", "CYYE", "CYYF", "CYYG", "CYYH", "CYYJ", "CYYL", "CYYN", "CYYQ", "CYYR", "CYYT", "CYYU", "CYYW", "CYYY", "CYYZ", "CYZE", "CYZF", "CYZH", "CYZP", "CYZR", "CYZS", "CYZT", "CYZV", "CYZX", "CYZY", "CZBF", "CZCR", "CZDB", "CZEL", "CZEV", "CZFS", "CZHY", "CZMD", "CZMJ", "CZPC", "CZSJ", "CZSM", "CZSP", "CZUM", "CZVL", "CZZJ", "DAAG", "DAAS", "DAAT", "DABB", "DABC", "DABS", "DAOB", "DAOI", "DAON", "DAOO", "DAUA", "DAUB", "DAUG", "DAUH", "DBBB", "DFFD", "DFOO", "DGAA", "DIAP", "DIBK", "DIYO", "DNAA", "DNGO", "DNIB", "DNIL", "DNKN", "DNMM", "DNMN", "DNSO", "DNYO", "DRRM", "DRRN", "DRRT", "DRZA", "DRZR", "DTKA", "DTMB", "DTNH", "DTTA", "DTTB", "DTTD", "DTTF", "DTTG", "DTTJ", "DTTK", "DTTL", "DTTN", "DTTR", "DTTX", "DTTZ", "DXNG", "DXXX", "EBAW", "EBBE", "EBBL", "EBBR", "EBCI", "EBCV", "EBDT", "EBFN", "EBFS", "EBLB", "EBLG", "EBOS", "EDAC", "EDAH", "EDBC", "EDDB", "EDDC", "EDDE", "EDDF", "EDDG", "EDDH", "EDDK", "EDDL", "EDDM", "EDDN", "EDDP", "EDDR", "EDDS", "EDDV", "EDDW", "EDFH", "EDFM", "EDGS", "EDHI", "EDHK", "EDHL", "EDJA", "EDLN", "EDLP", "EDLV", "EDLW", "EDMA", "EDMO", "EDNY", "EDQM", "EDSB", "EDTL", "EDTY", "EDVE", "EDVK", "EDWE", "EDXW", "EEEI", "EEKE", "EEPU", "EETN", "EETU", "EFET", "EFHA", "EFHK", "EFIV", "EFJO", "EFJY", "EFKE", "EFKI", "EFKK", "EFKS", "EFKT", "EFKU", "EFLP", "EFMA", "EFMI", "EFOU", "EFPO", "EFRO", "EFSA", "EFSI", "EFTP", "EFTU", "EFUT", "EFVA", "EGAA", "EGAC", "EGAE", "EGBB", "EGBJ", "EGCC", "EGCK", "EGDM", "EGDR", "EGDY", "EGFF", "EGGD", "EGGP", "EGGW", "EGHC", "EGHE", "EGHH", "EGHI", "EGHQ", "EGJA", "EGJB", "EGJJ", "EGKA", "EGKB", "EGKK", "EGLC", "EGLF", "EGLL", "EGMC", "EGMD", "EGNH", "EGNJ", "EGNM", "EGNR", "EGNS", "EGNT", "EGNV", "EGNX", "EGOM", "EGOP", "EGOS", "EGOV", "EGPA", "EGPB", "EGPC", "EGPD", "EGPE", "EGPF", "EGPH", "EGPI", "EGPK", "EGPL", "EGPN", "EGPO", "EGPU", "EGQA", "EGQK", "EGQL", "EGQM", "EGQS", "EGSH", "EGSS", "EGSY", "EGTC", "EGTE", "EGTK", "EGUB", "EGUL", "EGUN", "EGUW", "EGVA", "EGVN", "EGVO", "EGVP", "EGWU", "EGXC", "EGXS", "EGXT", "EGXV", "EGXW", "EGXZ", "EGYD", "EGYE", "EGYH", "EGYM", "EGYP", "EHAK", "EHAM", "EHBK", "EHDL", "EHDV", "EHEH", "EHFD", "EHFS", "EHGG", "EHGR", "EHHW", "EHJA", "EHJR", "EHKD", "EHKV", "EHLE", "EHLW", "EHMG", "EHPG", "EHRD", "EHSA", "EHSC", "EHVK", "EHVL", "EHWO", "EICK", "EIDL", "EIDW", "EIKN", "EIKY", "EIME", "EINN", "EISG", "EIWF", "EKAH", "EKBI", "EKCH", "EKEB", "EKKA", "EKOD", "EKRK", "EKRN", "EKRS", "EKSB", "EKSP", "EKVD", "EKVG", "EKYT", "ELLX", "ENAL", "ENAN", "ENAT", "ENBL", "ENBN", "ENBO", "ENBR", "ENBS", "ENBV", "ENCN", "ENDR", "ENDU", "ENEV", "ENFB", "ENFL", "ENGC", "ENGM", "ENHD", "ENHE", "ENHF", "ENHK", "ENHM", "ENHV", "ENJS", "ENKB", "ENKR", "ENLA", "ENLE", "ENLK", "ENMH", "ENML", "ENMS", "ENNA", "ENNE", "ENNM", "ENNO", "ENOA", "ENOL", "ENOV", "ENQA", "ENQC", "ENQR", "ENRA", "ENRM", "ENRO", "ENRS", "ENRY", "ENSB", "ENSD", "ENSE", "ENSF", "ENSG", "ENSH", "ENSK", "ENSL", "ENSR", "ENSS", "ENST", "ENTC", "ENTO", "ENUG", "ENUN", "ENVA", "ENVD", "ENWV", "ENZV", "EPBY", "EPGD", "EPKK", "EPKT", "EPLB", "EPLL", "EPMO", "EPPO", "EPRZ", "EPSC", "EPSY", "EPWA", "EPWR", "EPZG", "ESCF", "ESCM", "ESDF", "ESGG", "ESGJ", "ESGP", "ESGT", "ESIA", "ESIB", "ESKM", "ESKN", "ESKS", "ESMK", "ESMQ", "ESMS", "ESMT", "ESMX", "ESND", "ESNG", "ESNK", "ESNL", "ESNN", "ESNO", "ESNQ", "ESNS", "ESNU", "ESNV", "ESNX", "ESNZ", "ESOE", "ESOH", "ESOK", "ESOW", "ESPA", "ESPE", "ESSA", "ESSB", "ESSD", "ESSL", "ESSP", "ESST", "ESSV", "ESTA", "ESTL", "ESUP", "ESUT", "ETAD", "ETAR", "ETEB", "ETGG", "ETHA", "ETHB", "ETHC", "ETHF", "ETHL", "ETHN", "ETHS", "ETIC", "ETIH", "ETIK", "ETMN", "ETNH", "ETNL", "ETNN", "ETNS", "ETNT", "ETNW", "ETOU", "ETSB", "ETSH", "ETSI", "ETSL", "ETSN", "ETWM", "EVGA", "EVLA", "EVRA", "EVVA", "EYKA", "EYPA", "EYSA", "EYVI", "FABL", "FACT", "FAEL", "FAGG", "FAJB", "FAKM", "FAKN", "FALA", "FALE", "FALW", "FAMM", "FAOR", "FAPE", "FAPN", "FAPP", "FASB", "FASI", "FAUP", "FAUT", "FAVV", "FAWB", "FBSK", "FCBB", "FCPP", "FDBB", "FDMY", "FDPP", "FDSK", "FDST", "FEFF", "FGSL", "FIMP", "FJDG", "FKKD", "FKKL", "FKKR", "FKYS", "FMCZ", "FMEE", "FMEP", "FMMI", "FMNA", "FMNM", "FMNN", "FMSD", "FNLU", "FOGK", "FOGM", "FOGO", "FOGR", "FOOG", "FOOL", "FOON", "FOOR", "FOOT", "FQBR", "FQCH", "FQLC", "FQMA", "FQNP", "FQQL", "FQVL", "FQXA", "FSIA", "FTTA", "FTTC", "FTTJ", "FTTY", "FVJN", "FVRG", "FWCL", "FWKI", "FYGF", "FYKM", "FYLZ", "FYWB", "FYWE", "FYWH", "FYWW", "GABS", "GAKD", "GAMB", "GBYD", "GCFV", "GCGM", "GCHI", "GCLA", "GCLP", "GCRR", "GCTS", "GCXO", "GECE", "GEML", "GFLL", "GGOV", "GLRB", "GMAD", "GMAG", "GMAT", "GMFB", "GMFF", "GMFK", "GMFM", "GMFO", "GMMB", "GMMC", "GMMD", "GMME", "GMMH", "GMMI", "GMML", "GMMN", "GMMW", "GMMX", "GMMZ", "GMTA", "GMTN", "GMTT", "GOBD", "GOGG", "GOGS", "GOOK", "GOOY", "GOSS", "GOTK", "GOTT", "GQNO", "GQPP", "GUCY", "GVAC", "GVBA", "GVNP", "GVSV", "HAAB", "HABD", "HADR", "HCMF", "HCMM", "HEAT", "HEAX", "HEBA", "HEBL", "HECA", "HEGN", "HEIS", "HELX", "HEMA", "HEMM", "HEPS", "HESG", "HESH", "HESN", "HESW", "HESX", "HETR", "HKJK", "HKKI", "HKML", "HKNW", "HRYR", "HRZA", "HSFS", "HSNN", "HSSK", "HTAR", "HTBU", "HTDA", "HTDO", "HTIB", "HTIR", "HTKA", "HTKJ", "HTMG", "HTMP", "HTMT", "HTMU", "HTMW", "HTSO", "HTSU", "HTTB", "HTZA", "HUEN", "K04V", "K04W", "K05U", "K06D", "K08D", "K0A0", "K0CO", "K0E0", "K0F2", "K0J4", "K0R0", "K0R4", "K0S9", "K0V4", "K0VG", "K10G", "K12N", "K13K", "K14Y", "K15M", "K17J", "K18A", "K18H", "K19S", "K1A5", "K1A6", "K1A9", "K1AM", "K1AW", "K1BM", "K1BW", "K1CM", "K1CN", "K1CW", "K1D1", "K1DM", "K1DN", "K1DW", "K1EM", "K1EN", "K1EW", "K1F0", "K1FW", "K1GM", "K1GN", "K1H2", "K1HM", "K1HN", "K1HW", "K1IM", "K1IN", "K1IW", "K1JM", "K1JN", "K1JW", "K1KM", "K1KN", "K1LN", "K1LW", "K1M5", "K1MN", "K1MW", "K1NN", "K1NW", "K1OM", "K1ON", "K1OW", "K1P1", "K1R7", "K1R8", "K1S3", "K1S5", "K1U7", "K1V4", "K1V6", "K1YT", "K20U", "K20V", "K21D", "K22N", "K24A", "K24J", "K28J", "K2A0", "K2C8", "K2D5", "K2DP", "K2G2", "K2G4", "K2G9", "K2I0", "K2IS", "K2J3", "K2J5", "K2M2", "K2P2", "K2R9", "K2V5", "K2V6", "K2W6", "K2WX", "K33N", "K33V", "K35A", "K36K", "K38S", "K3AU", "K3D2", "K3F3", "K3J7", "K3K3", "K3N8", "K3R7", "K3S8", "K3T5", "K3U3", "K40B", "K40U", "K41U", "K42J", "K46D", "K46U", "K48A", "K49A", "K4A6", "K4A9", "K4BM", "K4F2", "K4I3", "K4M9", "K4MR", "K4O4", "K4R5", "K4S1", "K4S2", "K4U6", "K4V0", "K4V1", "K54A", "K54J", "K57C", "K5A6", "K5C1", "K5H4", "K5R8", "K5SM", "K5T9", "K63S", "K65S", "K66R", "K6A1", "K6A2", "K6B0", "K6B9", "K6I2", "K6L4", "K6P9", "K6R6", "K6S0", "K6S2", "K6S8", "K74V", "K77S", "K79J", "K7BM", "K7L2", "K7W4", "K7W6", "K81R", "K82C", "K82V", "K8A0", "K8A3", "K8B0", "K8D3", "K8T6", "K8W2", "K96D", "K9A5", "K9L2", "K9MN", "K9S9", "K9V9", "KA39", "KAAA", "KAAF", "KAAO", "KAAS", "KAAT", "KABE", "KABH", "KABI", "KABQ", "KABR", "KABY", "KACB", "KACJ", "KACK", "KACP", "KACQ", "KACT", "KACV", "KACY", "KACZ", "KADC", "KADF", "KADG", "KADH", "KADM", "KADS", "KADT", "KADU", "KADW", "KAEG", "KAEJ", "KAEL", "KAEX", "KAFF", "KAFJ", "KAFK", "KAFN", "KAFO", "KAFP", "KAFW", "KAGC", "KAGI", "KAGO", "KAGS", "KAHN", "KAHQ", "KAIA", "KAID", "KAIG", "KAIK", "KAIO", "KAIT", "KAIZ", "KAJG", "KAJR", "KAJZ", "KAKH", "KAKO", "KAKQ", "KAKR", "KALB", "KALI", "KALK", "KALM", "KALN", "KALO", "KALS", "KALW", "KAMA", "KAMG", "KAMN", "KAMW", "KANB", "KAND", "KANE", "KANJ", "KANK", "KANQ", "KANW", "KAOH", "KAOO", "KAPA", "KAPC", "KAPF", "KAPN", "KAPS", "KAPY", "KAQO", "KAQP", "KAQV", "KAQW", "KAQX", "KARA", "KARB", "KARG", "KARM", "KARR", "KART", "KARV", "KARW", "KASD", "KASE", "KASG", "KASH", "KASJ", "KASL", "KASN", "KAST", "KASW", "KASX", "KATA", "KATL", "KATP", "KATS", "KATT", "KATW", "KATY", "KAUG", "KAUH", "KAUM", "KAUN", "KAUO", "KAUS", "KAUW", "KAVC", "KAVK", "KAVL", "KAVP", "KAVQ", "KAVX", "KAWG", "KAWM", "KAWO", "KAXA", "KAXH", "KAXN", "KAXS", "KAXV", "KAXX", "KAYS", "KAZC", "KAZE", "KAZO", "KBAB", "KBAC", "KBAD", "KBAF", "KBAK", "KBAM", "KBAN", "KBAX", "KBAZ", "KBBB", "KBBD", "KBBG", "KBBP", "KBBW", "KBCB", "KBCE", "KBCK", "KBCR", "KBCT", "KBDE", "KBDG", "KBDH", "KBDL", "KBDN", "KBDR", "KBDU", "KBEA", "KBEC", "KBED", "KBEH", "KBFD", "KBFF", "KBFI", "KBFL", "KBFM", "KBFR", "KBGD", "KBGE", "KBGF", "KBGM", "KBGR", "KBHB", "KBHC", "KBHK", "KBHM", "KBID", "KBIE", "KBIF", "KBIH", "KBIL", "KBIS", "KBIV", "KBIX", "KBJC", "KBJI", "KBJJ", "KBKB", "KBKD", "KBKE", "KBKF", "KBKL", "KBKN", "KBKS", "KBKT", "KBKV", "KBKW", "KBKX", "KBLF", "KBLI", "KBLM", "KBLU", "KBLV", "KBMC", "KBMG", "KBMI", "KBML", "KBMQ", "KBMT", "KBNA", "KBNL", "KBNO", "KBNW", "KBOI", "KBOK", "KBOS", "KBOW", "KBPC", "KBPG", "KBPI", "KBPK", "KBPT", "KBQK", "KBQP", "KBQX", "KBRD", "KBRG", "KBRL", "KBRO", "KBRY", "KBTA", "KBTL", "KBTM", "KBTN", "KBTP", "KBTR", "KBTV", "KBUF", "KBUR", "KBUU", "KBUY", "KBVI", "KBVN", "KBVO", "KBVS", "KBVU", "KBVX", "KBVY", "KBWD", "KBWG", "KBWI", "KBWP", "KBWW", "KBXA", "KBXK", "KBYG", "KBYI", "KBYL", "KBYS", "KBYY", "KBZN", "KC09", "KC29", "KC35", "KC62", "KC65", "KC75", "KC83", "KC99", "KCAD", "KCAE", "KCAG", "KCAK", "KCAO", "KCAR", "KCAV", "KCBE", "KCBF", "KCBK", "KCBM", "KCCA", "KCCB", "KCCO", "KCCR", "KCCU", "KCCY", "KCDA", "KCDC", "KCDD", "KCDI", "KCDJ", "KCDR", "KCDS", "KCDW", "KCEC", "KCEF", "KCEU", "KCEW", "KCEY", "KCEZ", "KCFD", "KCFE", "KCFJ", "KCFO", "KCFS", "KCFV", "KCGC", "KCGE", "KCGF", "KCGI", "KCGS", "KCGZ", "KCHA", "KCHK", "KCHO", "KCHS", "KCIC", "KCID", "KCIN", "KCIR", "KCIU", "KCJR", "KCKB", "KCKC", "KCKF", "KCKI", "KCKM", "KCKN", "KCKP", "KCKV", "KCKZ", "KCLE", "KCLI", "KCLK", "KCLL", "KCLM", "KCLS", "KCLT", "KCLW", "KCMA", "KCMD", "KCMH", "KCMI", "KCMR", "KCMX", "KCMY", "KCNB", "KCNC", "KCNI", "KCNK", "KCNM", "KCNO", "KCNU", "KCNY", "KCOD", "KCOE", "KCOF", "KCOM", "KCON", "KCOQ", "KCOS", "KCOT", "KCOU", "KCPC", "KCPK", "KCPR", "KCPS", "KCPT", "KCPW", "KCQB", "KCQC", "KCQF", "KCQM", "KCQT", "KCQW", "KCQX", "KCRE", "KCRG", "KCRP", "KCRQ", "KCRS", "KCRW", "KCRX", "KCSG", "KCSM", "KCSQ", "KCSV", "KCTB", "KCTJ", "KCTY", "KCTZ", "KCUB", "KCUH", "KCUL", "KCUT", "KCVC", "KCVG", "KCVH", "KCVN", "KCVO", "KCVS", "KCVX", "KCWA", "KCWC", "KCWF", "KCWI", "KCWN", "KCWV", "KCXE", "KCXO", "KCXP", "KCXU", "KCXW", "KCXY", "KCYD", "KCYS", "KCZL", "KCZT", "KD07", "KD25", "KD39", "KD55", "KD57", "KD60", "KD73", "KD95", "KDAA", "KDAB", "KDAG", "KDAL", "KDAN", "KDAW", "KDAY", "KDBN", "KDBQ", "KDCA", "KDCU", "KDCY", "KDDC", "KDDH", "KDEC", "KDED", "KDEH", "KDEN", "KDEQ", "KDET", "KDEW", "KDFI", "KDFW", "KDGW", "KDHN", "KDHT", "KDIJ", "KDIK", "KDKK", "KDKR", "KDKX", "KDLF", "KDLH", "KDLL", "KDLN", "KDLO", "KDLP", "KDLS", "KDLZ", "KDMA", "KDMH", "KDMN", "KDMO", "KDMW", "KDNA", "KDNL", "KDNN", "KDNV", "KDOV", "KDPA", "KDPL", "KDQH", "KDRA", "KDRI", "KDRM", "KDRO", "KDRT", "KDSF", "KDSM", "KDSV", "KDTA", "KDTL", "KDTN", "KDTO", "KDTS", "KDTW", "KDUA", "KDUB", "KDUC", "KDUG", "KDUH", "KDUJ", "KDUX", "KDVK", "KDVL", "KDVN", "KDVO", "KDVP", "KDVT", "KDWA", "KDWH", "KDWU", "KDWX", "KDXR", "KDXX", "KDYB", "KDYL", "KDYR", "KDYS", "KDYT", "KDZB", "KDZJ", "KE11", "KE16", "KE38", "KE41", "KE42", "KEAN", "KEAR", "KEAT", "KEAU", "KEBA", "KEBG", "KEBS", "KECG", "KECP", "KECS", "KECU", "KEDC", "KEDE", "KEDJ", "KEDN", "KEDU", "KEDW", "KEED", "KEEN", "KEEO", "KEET", "KEFD", "KEFK", "KEFT", "KEGE", "KEGI", "KEGT", "KEGV", "KEHA", "KEHO", "KEHR", "KEIK", "KEKE", "KEKM", "KEKN", "KEKO", "KEKQ", "KEKS", "KEKX", "KEKY", "KELA", "KELD", "KELK", "KELM", "KELN", "KELO", "KELP", "KELY", "KELZ", "KEMM", "KEMP", "KEMV", "KEND", "KENL", "KENV", "KENW", "KEOE", "KEOK", "KEPH", "KEQA", "KEQY", "KERI", "KERV", "KERY", "KESC", "KESF", "KESN", "KEST", "KETB", "KETC", "KETN", "KEUF", "KEUG", "KEUL", "KEVB", "KEVM", "KEVU", "KEVV", "KEVW", "KEWB", "KEWK", "KEWN", "KEWR", "KEXX", "KEYE", "KEYF", "KEYW", "KEZF", "KEZM", "KEZP", "KEZZ", "KF00", "KF05", "KF17", "KF44", "KF46", "KF70", "KFAF", "KFAM", "KFAR", "KFAT", "KFAY", "KFBG", "KFBL", "KFCI", "KFCM", "KFCS", "KFDK", "KFDR", "KFDW", "KFDY", "KFEP", "KFET", "KFEW", "KFFA", "KFFC", "KFFL", "KFFM", "KFFO", "KFFT", "KFFX", "KFFZ", "KFGN", "KFGX", "KFHB", "KFHR", "KFHU", "KFIG", "KFIN", "KFIT", "KFKA", "KFKL", "KFKN", "KFKR", "KFKS", "KFLD", "KFLG", "KFLL", "KFLO", "KFLP", "KFLY", "KFME", "KFMH", "KFMM", "KFMN", "KFMY", "KFNB", "KFNL", "KFNT", "KFOA", "KFOD", "KFOE", "KFOK", "KFOZ", "KFPK", "KFPR", "KFPY", "KFQD", "KFRG", "KFRH", "KFRI", "KFRM", "KFSD", "KFSE", "KFSI", "KFSK", "KFSM", "KFSO", "KFST", "KFSW", "KFTK", "KFTN", "KFTW", "KFTY", "KFUL", "KFVE", "KFVX", "KFWA", "KFWB", "KFWC", "KFWN", "KFWS", "KFXE", "KFXY", "KFYE", "KFYG", "KFYJ", "KFYM", "KFYV", "KFZG", "KFZY", "KGAD", "KGAF", "KGAG", "KGAI", "KGAO", "KGBD", "KGBG", "KGCC", "KGCD", "KGCK", "KGCM", "KGCN", "KGCY", "KGDA", "KGDB", "KGDJ", "KGDV", "KGED", "KGEG", "KGEV", "KGEY", "KGEZ", "KGFA", "KGFK", "KGFL", "KGGE", "KGGF", "KGGG", "KGGI", "KGGP", "KGGW", "KGHG", "KGHW", "KGIC", "KGIF", "KGJT", "KGKJ", "KGKT", "KGKY", "KGLD", "KGLE", "KGLH", "KGLR", "KGLS", "KGLW", "KGLY", "KGMJ", "KGMU", "KGNA", "KGNB", "KGNC", "KGNG", "KGNR", "KGNT", "KGNV", "KGOK", "KGON", "KGOO", "KGOP", "KGOV", "KGPC", "KGPH", "KGPI", "KGPM", "KGPT", "KGPZ", "KGRB", "KGRD", "KGRF", "KGRI", "KGRK", "KGRN", "KGRR", "KGRY", "KGSB", "KGSH", "KGSO", "KGSP", "KGTB", "KGTF", "KGTR", "KGTU", "KGUC", "KGUL", "KGUP", "KGUR", "KGUS", "KGUY", "KGVE", "KGVL", "KGVQ", "KGVT", "KGVW", "KGWB", "KGWO", "KGWR", "KGWW", "KGXA", "KGXF", "KGXY", "KGYB", "KGYF", "KGYH", "KGYI", "KGYL", "KGYY", "KGZH", "KGZL", "KGZN", "KGZS", "KH71", "KHAE", "KHAF", "KHAI", "KHAO", "KHBG", "KHBI", "KHBR", "KHBV", "KHCD", "KHCO", "KHCR", "KHDC", "KHDE", "KHDL", "KHDN", "KHDO", "KHEF", "KHEG", "KHEI", "KHEQ", "KHEY", "KHEZ", "KHFD", "KHFF", "KHFJ", "KHGR", "KHHF", "KHHG", "KHHR", "KHHW", "KHIB", "KHIE", "KHIF", "KHII", "KHIO", "KHJH", "KHJO", "KHKA", "KHKS", "KHKY", "KHLB", "KHLC", "KHLG", "KHLN", "KHLR", "KHLX", "KHMP", "KHMT", "KHMZ", "KHNB", "KHND", "KHNR", "KHNZ", "KHOB", "KHOE", "KHON", "KHOP", "KHOT", "KHOU", "KHPN", "KHPT", "KHQG", "KHQG", "KHQM", "KHQU", "KHQZ", "KHRF", "KHRI", "KHRJ", "KHRL", "KHRO", "KHRT", "KHRX", "KHSB", "KHSD", "KHSE", "KHSG", "KHSI", "KHSP", "KHST", "KHSV", "KHTH", "KHTL", "KHTS", "KHUA", "KHUF", "KHUL", "KHUM", "KHUT", "KHVE", "KHVN", "KHVR", "KHVS", "KHWD", "KHWO", "KHWV", "KHWY", "KHYA", "KHYI", "KHYR", "KHYS", "KHYW", "KHYX", "KHZD", "KHZE", "KHZL", "KHZR", "KHZX", "KHZY", "KI19", "KI23", "KI35", "KI63", "KI67", "KI69", "KI74", "KI75", "KIAB", "KIAD", "KIAG", "KIAH", "KIBM", "KICR", "KICT", "KIDA", "KIDI", "KIDP", "KIEN", "KIER", "KIFA", "KIFP", "KIGM", "KIGQ", "KIIB", "KIIY", "KIJD", "KIJX", "KIKG", "KIKK", "KIKT", "KIKV", "KIKW", "KILE", "KILG", "KILM", "KILN", "KIML", "KIMM", "KIMS", "KIMT", "KIND", "KINF", "KINJ", "KINK", "KINL", "KINS", "KINT", "KINW", "KIOB", "KIOW", "KIPJ", "KIPL", "KIPT", "KIRK", "KIRS", "KISM", "KISO", "KISP", "KISQ", "KISW", "KITH", "KITR", "KIUA", "KIWA", "KIWD", "KIWI", "KIXA", "KIXD", "KIYA", "KIZA", "KIZG", "KJAC", "KJAN", "KJAQ", "KJAS", "KJAU", "KJAX", "KJBR", "KJCA", "KJCT", "KJDD", "KJDN", "KJEF", "KJER", "KJES", "KJFK", "KJFX", "KJFZ", "KJHN", "KJHW", "KJKA", "KJKJ", "KJKL", "KJLN", "KJMR", "KJMS", "KJNX", "KJPX", "KJQF", "KJRB", "KJRO", "KJSO", "KJST", "KJSV", "KJSY", "KJTC", "KJVL", "KJVW", "KJVY", "KJWG", "KJWN", "KJWY", "KJXN", "KJYG", "KJYL", "KJYM", "KJYR", "KJZI", "KJZP", "KK62", "KK70", "KK82", "KKLS", "KKNB", "KKY8", "KL08", "KL18", "KL35", "KL52", "KLAA", "KLAF", "KLAL", "KLAM", "KLAN", "KLAR", "KLAS", "KLAW", "KLAX", "KLBB", "KLBE", "KLBF", "KLBL", "KLBO", "KLBT", "KLBX", "KLCG", "KLCH", "KLCI", "KLCK", "KLCQ", "KLDM", "KLEB", "KLEE", "KLEW", "KLEX", "KLFI", "KLFK", "KLFT", "KLGA", "KLGB", "KLGC", "KLGD", "KLGF", "KLGU", "KLHB", "KLHM", "KLHQ", "KLHW", "KLHX", "KLHZ", "KLIC", "KLIT", "KLJF", "KLKR", "KLKU", "KLKV", "KLLJ", "KLLN", "KLLQ", "KLMO", "KLMS", "KLMT", "KLNA", "KLNC", "KLND", "KLNK", "KLNL", "KLNN", "KLNP", "KLNQ", "KLNR", "KLNS", "KLOL", "KLOM", "KLOR", "KLOT", "KLOU", "KLOZ", "KLPR", "KLQK", "KLRD", "KLRF", "KLRJ", "KLRO", "KLRU", "KLRY", "KLSE", "KLSF", "KLSV", "KLTS", "KLUA", "KLUD", "KLUF", "KLUG", "KLUK", "KLUL", "KLUM", "KLUV", "KLUX", "KLVJ", "KLVK", "KLVL", "KLVM", "KLVN", "KLVS", "KLWA", "KLWB", "KLWC", "KLWD", "KLWM", "KLWS", "KLWT", "KLWV", "KLXL", "KLXN", "KLXT", "KLXV", "KLXY", "KLYH", "KLYO", "KLYV", "KLZU", "KLZZ", "KM01", "KM02", "KM08", "KM19", "KM21", "KM30", "KM40", "KM54", "KM75", "KM91", "KMAE", "KMAF", "KMAI", "KMAN", "KMAO", "KMAW", "KMBG", "KMBL", "KMBO", "KMBS", "KMBT", "KMBY", "KMCB", "KMCC", "KMCD", "KMCE", "KMCF", "KMCI", "KMCJ", "KMCK", "KMCN", "KMCO", "KMCW", "KMCZ", "KMDD", "KMDH", "KMDQ", "KMDS", "KMDT", "KMDW", "KMDZ", "KMEB", "KMEH", "KMEI", "KMEM", "KMER", "KMEV", "KMEZ", "KMFD", "KMFE", "KMFI", "KMFR", "KMFV", "KMGC", "KMGE", "KMGG", "KMGJ", "KMGM", "KMGN", "KMGW", "KMGY", "KMHE", "KMHK", "KMHL", "KMHP", "KMHS", "KMHT", "KMHV", "KMIA", "KMIB", "KMIC", "KMIE", "KMIO", "KMIV", "KMIW", "KMJD", "KMJQ", "KMKC", "KMKE", "KMKG", "KMKJ", "KMKL", "KMKN", "KMKO", "KMKS", "KMKT", "KMKY", "KMLB", "KMLC", "KMLE", "KMLF", "KMLI", "KMLJ", "KMLP", "KMLS", "KMLT", "KMLU", "KMMH", "KMMI", "KMMK", "KMML", "KMMT", "KMMU", "KMMV", "KMNE", "KMNH", "KMNI", "KMNM", "KMNN", "KMNV", "KMNZ", "KMOB", "KMOD", "KMOP", "KMOR", "KMOT", "KMOX", "KMPO", "KMPR", "KMPV", "KMPZ", "KMQB", "KMQI", "KMQJ", "KMQS", "KMQW", "KMQY", "KMRB", "KMRC", "KMRF", "KMRH", "KMRJ", "KMRN", "KMRT", "KMRY", "KMSL", "KMSN", "KMSO", "KMSP", "KMSS", "KMSV", "KMSY", "KMTC", "KMTH", "KMTJ", "KMTK", "KMTN", "KMTO", "KMTP", "KMTV", "KMTW", "KMUO", "KMUT", "KMVE", "KMVH", "KMVL", "KMVN", "KMVY", "KMWA", "KMWC", "KMWH", "KMWK", "KMWL", "KMWM", "KMWN", "KMWO", "KMWT", "KMXF", "KMYF", "KMYJ", "KMYL", "KMYR", "KMYV", "KMYZ", "KMZH", "KN03", "KN38", "KN60", "KN79", "KNAK", "KNBC", "KNBG", "KNBT", "KNCA", "KNDZ", "KNEL", "KNEW", "KNFE", "KNFG", "KNFL", "KNFW", "KNGP", "KNGU", "KNHK", "KNID", "KNIP", "KNJK", "KNJM", "KNJW", "KNKT", "KNKX", "KNLC", "KNMM", "KNOG", "KNOW", "KNOZ", "KNPA", "KNQA", "KNQI", "KNQX", "KNRB", "KNRN", "KNRS", "KNSE", "KNSI", "KNTD", "KNTU", "KNUC", "KNUI", "KNUW", "KNXF", "KNXP", "KNY0", "KNYC", "KNYG", "KNYL", "KNZY", "KO05", "KO22", "KO32", "KO86", "KOAJ", "KOAK", "KOAR", "KOBE", "KOCF", "KOCH", "KOCQ", "KOCW", "KODO", "KODX", "KOEB", "KOEL", "KOEO", "KOFF", "KOFK", "KOFP", "KOGA", "KOGB", "KOGD", "KOGS", "KOIC", "KOIN", "KOJA", "KOJC", "KOKB", "KOKC", "KOKK", "KOKM", "KOKV", "KOKZ", "KOLE", "KOLF", "KOLG", "KOLM", "KOLS", "KOLU", "KOLV", "KOLY", "KOLZ", "KOMA", "KOMH", "KOMK", "KOMN", "KONA", "KONL", "KONM", "KONO", "KONP", "KONT", "KONX", "KONZ", "KOOA", "KOPF", "KOPL", "KOPN", "KOQN", "KOQT", "KORB", "KORD", "KORE", "KORF", "KORG", "KORH", "KORL", "KORS", "KOSA", "KOSC", "KOSH", "KOSU", "KOTG", "KOTH", "KOTM", "KOUN", "KOVE", "KOVL", "KOVS", "KOWA", "KOWB", "KOWD", "KOWI", "KOWP", "KOWX", "KOXB", "KOXC", "KOXD", "KOXI", "KOXR", "KOXV", "KOYM", "KOZA", "KOZR", "KOZS", "KOZW", "KP08", "KP28", "KP52", "KP53", "KP58", "KP59", "KP60", "KP68", "KP69", "KP92", "KPAE", "KPAH", "KPAM", "KPAN", "KPBF", "KPBG", "KPBH", "KPBI", "KPBX", "KPCD", "KPCM", "KPCW", "KPCZ", "KPDC", "KPDK", "KPDT", "KPDX", "KPEA", "KPEO", "KPEQ", "KPEX", "KPEZ", "KPGA", "KPGD", "KPGV", "KPHD", "KPHF", "KPHL", "KPHN", "KPHP", "KPHT", "KPHX", "KPIA", "KPIB", "KPIE", "KPIH", "KPIL", "KPIM", "KPIR", "KPIT", "KPJC", "KPKB", "KPKD", "KPKV", "KPLN", "KPLR", "KPLU", "KPMD", "KPMH", "KPMP", "KPMU", "KPMV", "KPNA", "KPNC", "KPNE", "KPNM", "KPNS", "KPNT", "KPO1", "KPOB", "KPOE", "KPOF", "KPOU", "KPOV", "KPOY", "KPPA", "KPPF", "KPPO", "KPPQ", "KPQI", "KPQL", "KPRB", "KPRC", "KPRG", "KPRN", "KPRO", "KPRS", "KPRX", "KPSC", "KPSF", "KPSK", "KPSM", "KPSN", "KPSO", "KPSP", "KPSX", "KPTB", "KPTD", "KPTK", "KPTN", "KPTS", "KPTT", "KPTV", "KPTW", "KPUB", "KPUC", "KPUJ", "KPUW", "KPVB", "KPVC", "KPVD", "KPVF", "KPVG", "KPVJ", "KPVU", "KPVW", "KPWA", "KPWC", "KPWD", "KPWG", "KPWK", "KPWM", "KPWT", "KPXE", "KPYM", "KPYX", "KPZQ", "KQAZ", "KQBL", "KQD3", "KQDG", "KQEI", "KQEJ", "KQEN", "KQEP", "KQEQ", "KQER", "KQES", "KQEV", "KQEW", "KQEX", "KQEY", "KQFB", "KQFT", "KQFU", "KQFV", "KQFW", "KQFX", "KQHY", "KQN3", "KQRH", "KQTZ", "KQVF", "KRAC", "KRAL", "KRAP", "KRAS", "KRAW", "KRBD", "KRBG", "KRBL", "KRBO", "KRBW", "KRCA", "KRCE", "KRCM", "KRCR", "KRCV", "KRCX", "KRCZ", "KRDD", "KRDG", "KRDK", "KRDM", "KRDR", "KRDU", "KREG", "KREO", "KRFD", "KRFI", "KRGA", "KRGK", "KRHI", "KRHP", "KRIC", "KRID", "KRIL", "KRIV", "KRIW", "KRKD", "KRKP", "KRKR", "KRKS", "KRKW", "KRLD", "KRME", "KRMG", "KRMN", "KRMY", "KRNC", "KRND", "KRNH", "KRNM", "KRNO", "KRNP", "KRNT", "KROA", "KROC", "KROG", "KROS", "KROW", "KROX", "KRPD", "KRPH", "KRPJ", "KRPX", "KRQB", "KRQE", "KRQO", "KRRT", "KRSL", "KRSN", "KRSP", "KRST", "KRSW", "KRTN", "KRTS", "KRUE", "KRUG", "KRUQ", "KRUT", "KRVF", "KRVJ", "KRVL", "KRVS", "KRWF", "KRWI", "KRWL", "KRWV", "KRXE", "KRYM", "KRYV", "KRYW", "KRYY", "KRZL", "KRZN", "KRZR", "KRZT", "KS21", "KS24", "KS25", "KS32", "KS33", "KS34", "KS39", "KS52", "KS85", "KSAA", "KSAD", "KSAF", "KSAN", "KSAR", "KSAT", "KSAV", "KSAW", "KSAZ", "KSBA", "KSBD", "KSBM", "KSBN", "KSBO", "KSBP", "KSBS", "KSBY", "KSCD", "KSCK", "KSCR", "KSCX", "KSDA", "KSDB", "KSDC", "KSDF", "KSDL", "KSDM", "KSDY", "KSEA", "KSEE", "KSEF", "KSEG", "KSEM", "KSEP", "KSEQ", "KSET", "KSEZ", "KSFB", "KSFF", "KSFM", "KSFO", "KSFQ", "KSFZ", "KSGF", "KSGH", "KSGJ", "KSGR", "KSGT", "KSGU", "KSHD", "KSHL", "KSHM", "KSHN", "KSHR", "KSHV", "KSIF", "KSIK", "KSIY", "KSJC", "KSJS", "KSJT", "KSJX", "KSKA", "KSKF", "KSKX", "KSLB", "KSLC", "KSLE", "KSLG", "KSLH", "KSLI", "KSLK", "KSLN", "KSLO", "KSLR", "KSMD", "KSME", "KSMF", "KSMN", "KSMO", "KSMP", "KSMQ", "KSMS", "KSMX", "KSNA", "KSNC", "KSNK", "KSNL", "KSNS", "KSNT", "KSNY", "KSOA", "KSOP", "KSOW", "KSPA", "KSPB", "KSPD", "KSPF", "KSPG", "KSPI", "KSPK", "KSPS", "KSPW", "KSQL", "KSRB", "KSRC", "KSRE", "KSRQ", "KSRR", "KSSC", "KSSF", "KSSI", "KSTC", "KSTE", "KSTF", "KSTJ", "KSTK", "KSTL", "KSTP", "KSTS", "KSUA", "KSUE", "KSUN", "KSUS", "KSUT", "KSUU", "KSUW", "KSUX", "KSUZ", "KSVC", "KSVE", "KSVH", "KSVN", "KSWO", "KSWW", "KSXK", "KSXS", "KSXT", "KSXU", "KSYF", "KSYI", "KSYM", "KSYN", "KSYR", "KSZL", "KSZT", "KSZY", "KT20", "KT35", "KT41", "KT69", "KT70", "KT74", "KT78", "KT82", "KT89", "KTAD", "KTAN", "KTAZ", "KTBN", "KTBR", "KTCC", "KTCL", "KTCM", "KTCS", "KTCY", "KTDF", "KTDR", "KTDZ", "KTEB", "KTEW", "KTEX", "KTFP", "KTHA", "KTHM", "KTHV", "KTIF", "KTIK", "KTIP", "KTIW", "KTIX", "KTKC", "KTKI", "KTKV", "KTKX", "KTLH", "KTMA", "KTMB", "KTMK", "KTMT", "KTNB", "KTNU", "KTOB", "KTOC", "KTOI", "KTOL", "KTOP", "KTOR", "KTPA", "KTPF", "KTPH", "KTPL", "KTQE", "KTQH", "KTQK", "KTQV", "KTRI", "KTRK", "KTRL", "KTRM", "KTSP", "KTTA", "KTTD", "KTTF", "KTTN", "KTTS", "KTUL", "KTUP", "KTUS", "KTVC", "KTVF", "KTVI", "KTVK", "KTVL", "KTVR", "KTVY", "KTWF", "KTWM", "KTWT", "KTXK", "KTXW", "KTYL", "KTYQ", "KTYR", "KTYS", "KTZR", "KU42", "KU55", "KU64", "KU68", "KU69", "KUAO", "KUBE", "KUCP", "KUCY", "KUDG", "KUES", "KUGN", "KUIL", "KUIN", "KUKF", "KUKI", "KUKL", "KUKT", "KULM", "KULS", "KUNI", "KUNO", "KUNU", "KUNV", "KUOX", "KUSE", "KUTA", "KUTS", "KUUU", "KUUV", "KUVA", "KUXL", "KUYF", "KUZA", "KVAD", "KVAF", "KVAY", "KVBG", "KVBT", "KVBW", "KVCB", "KVCT", "KVCV", "KVDF", "KVDI", "KVEL", "KVER", "KVES", "KVGC", "KVGT", "KVHN", "KVIH", "KVIS", "KVJI", "KVKS", "KVKY", "KVLD", "KVLL", "KVNC", "KVNW", "KVNY", "KVOA", "KVOK", "KVPC", "KVPS", "KVPZ", "KVQQ", "KVRB", "KVSF", "KVTA", "KVTI", "KVTN", "KVTP", "KVUJ", "KVUO", "KVVS", "KVVV", "KVWU", "KVYS", "KW22", "KW29", "KW40", "KW43", "KW63", "KW75", "KW78", "KW81", "KW99", "KWAL", "KWBF", "KWDG", "KWDR", "KWJF", "KWLD", "KWMC", "KWRB", "KWRI", "KWRL", "KWST", "KWVI", "KWVL", "KWWD", "KWWR", "KX07", "KX26", "KX60", "KXER", "KXLL", "KXMR", "KXNA", "KXNO", "KXNX", "KXSA", "KXVG", "KXWA", "KY19", "KY23", "KY31", "KY49", "KY50", "KY51", "KY63", "KY70", "KYIP", "KYKM", "KYKN", "KYNG", "KZER", "KZPH", "KZZV", "LATI", "LBBG", "LBGO", "LBIA", "LBPD", "LBPG", "LBPL", "LBSF", "LBWN", "LCEN", "LCLK", "LCPH", "LCRA", "LDDU", "LDLO", "LDOS", "LDPL", "LDRI", "LDSB", "LDSP", "LDZA", "LDZD", "LEAB", "LEAG", "LEAL", "LEAM", "LEAO", "LEAS", "LEBA", "LEBB", "LEBG", "LEBL", "LEBR", "LEBZ", "LECH", "LECO", "LECV", "LEDA", "LEGE", "LEGR", "LEGT", "LEHC", "LEIB", "LEJR", "LELC", "LELL", "LELN", "LELO", "LEMD", "LEMG", "LEMH", "LEMI", "LEMO", "LEPA", "LEPP", "LERI", "LERS", "LERT", "LESA", "LESB", "LESO", "LEST", "LESU", "LETL", "LETO", "LETU", "LEVC", "LEVD", "LEVS", "LEVT", "LEVX", "LEXJ", "LEZG", "LEZL", "LFAC", "LFAQ", "LFAT", "LFBA", "LFBC", "LFBD", "LFBE", "LFBF", "LFBG", "LFBH", "LFBI", "LFBL", "LFBM", "LFBO", "LFBP", "LFBT", "LFBU", "LFBX", "LFBY", "LFBZ", "LFCK", "LFCR", "LFGA", "LFGJ", "LFHP", "LFJL", "LFJR", "LFKB", "LFKC", "LFKF", "LFKJ", "LFKS", "LFLB", "LFLC", "LFLH", "LFLL", "LFLN", "LFLP", "LFLS", "LFLU", "LFLV", "LFLW", "LFLX", "LFLY", "LFMC", "LFMD", "LFMH", "LFMI", "LFMK", "LFML", "LFMN", "LFMO", "LFMP", "LFMT", "LFMU", "LFMV", "LFMY", "LFOA", "LFOB", "LFOE", "LFOJ", "LFOK", "LFOP", "LFOT", "LFOV", "LFOZ", "LFPB", "LFPG", "LFPM", "LFPN", "LFPO", "LFPT", "LFPV", "LFQA", "LFQB", "LFQG", "LFQQ", "LFRB", "LFRC", "LFRD", "LFRG", "LFRH", "LFRI", "LFRJ", "LFRK", "LFRL", "LFRM", "LFRN", "LFRO", "LFRQ", "LFRS", "LFRT", "LFRU", "LFRV", "LFRZ", "LFSB", "LFSD", "LFSG", "LFSI", "LFSL", "LFSM", "LFSN", "LFSO", "LFST", "LFSX", "LFTH", "LFTW", "LFVP", "LFYR", "LGAD", "LGAL", "LGAV", "LGBL", "LGEL", "LGHI", "LGIO", "LGIR", "LGKF", "LGKL", "LGKO", "LGKP", "LGKR", "LGKV", "LGKZ", "LGLM", "LGMK", "LGMT", "LGPZ", "LGRP", "LGRX", "LGSA", "LGSK", "LGSM", "LGSO", "LGSR", "LGTS", "LGZA", "LHBP", "LHDC", "LHKE", "LHPA", "LHPP", "LHPR", "LHSM", "LHSN", "LIBA", "LIBC", "LIBD", "LIBF", "LIBG", "LIBN", "LIBP", "LIBQ", "LIBR", "LIBV", "LIBY", "LICA", "LICB", "LICC", "LICD", "LICF", "LICG", "LICJ", "LICR", "LICT", "LICZ", "LIEA", "LIEB", "LIED", "LIEE", "LIEO", "LIMA", "LIMC", "LIME", "LIMF", "LIMG", "LIMH", "LIMJ", "LIMK", "LIML", "LIMP", "LIMS", "LIMU", "LIMV", "LIMW", "LIMZ", "LIPA", "LIPB", "LIPC", "LIPE", "LIPF", "LIPH", "LIPI", "LIPK", "LIPL", "LIPO", "LIPQ", "LIPR", "LIPS", "LIPU", "LIPX", "LIPY", "LIPZ", "LIQC", "LIQN", "LIRA", "LIRE", "LIRF", "LIRI", "LIRK", "LIRM", "LIRN", "LIRP", "LIRQ", "LIRS", "LIRT", "LIRU", "LIRV", "LIRX", "LIRZ", "LIVC", "LIVD", "LIVE", "LIVM", "LIVP", "LIVR", "LIVT", "LJCE", "LJLJ", "LJMB", "LJPZ", "LKCV", "LKKB", "LKKU", "LKKV", "LKLN", "LKMT", "LKNA", "LKPD", "LKPR", "LKTB", "LLBG", "LLER", "LLHA", "LLIB", "LMML", "LOAN", "LOAV", "LOWG", "LOWI", "LOWK", "LOWL", "LOWS", "LOWW", "LOXZ", "LPAZ", "LPBJ", "LPCS", "LPFL", "LPFR", "LPHR", "LPLA", "LPMA", "LPMR", "LPMT", "LPOV", "LPPD", "LPPR", "LPPS", "LPPT", "LQBK", "LQMO", "LQSA", "LQTZ", "LRAR", "LRBC", "LRBM", "LRBS", "LRCK", "LRCL", "LRCV", "LRIA", "LROD", "LROP", "LRSB", "LRSM", "LRSV", "LRTC", "LRTM", "LRTR", "LSGC", "LSGG", "LSGS", "LSMA", "LSMD", "LSME", "LSMM", "LSMP", "LSZA", "LSZB", "LSZC", "LSZG", "LSZH", "LSZL", "LSZR", "LSZS", "LTAC", "LTAE", "LTAF", "LTAG", "LTAI", "LTAJ", "LTAL", "LTAN", "LTAP", "LTAR", "LTAS", "LTAT", "LTAU", "LTAW", "LTAY", "LTAZ", "LTBA", "LTBD", "LTBF", "LTBH", "LTBJ", "LTBL", "LTBO", "LTBQ", "LTBR", "LTBS", "LTBU", "LTBY", "LTCA", "LTCB", "LTCC", "LTCD", "LTCE", "LTCF", "LTCG", "LTCI", "LTCJ", "LTCK", "LTCL", "LTCN", "LTCO", "LTCP", "LTCR", "LTCS", "LTCT", "LTCU", "LTCV", "LTCW", "LTDA", "LTFC", "LTFD", "LTFE", "LTFG", "LTFH", "LTFJ", "LTFM", "LTFO", "LUKK", "LWOH", "LWSK", "LXGB", "LYBE", "LYBT", "LYKV", "LYNI", "LYPG", "LYTV", "LYVR", "LZIB", "LZKZ", "LZPP", "LZTT", "LZZI", "MBPV", "MDCY", "MDJB", "MDLR", "MDPC", "MDPP", "MDSD", "MDST", "MGGT", "MGHT", "MGMM", "MGPB", "MHLM", "MHPR", "MHTG", "MKJP", "MKJS", "MMAA", "MMAS", "MMCP", "MMCZ", "MMDO", "MMGL", "MMHO", "MMLO", "MMMD", "MMMM", "MMMX", "MMMY", "MMMZ", "MMQT", "MMSD", "MMSP", "MMTC", "MMTG", "MMTJ", "MMTO", "MMTP", "MMUN", "MMZC", "MNMG", "MPDA", "MPMG", "MPPA", "MPTO", "MROC", "MSLP", "MTPP", "MUCC", "MUCF", "MUCL", "MUCM", "MUCU", "MUGM", "MUHA", "MUHG", "MUSC", "MUVR", "MWCR", "MYEM", "MYGF", "MYNN", "MZBZ", "NCAI", "NCAT", "NCMG", "NCMH", "NCMK", "NCMR", "NCNS", "NCPK", "NCPL", "NCPY", "NCRG", "NCRK", "NCSW", "NFFN", "NFNA", "NFTF", "NGFU", "NGTA", "NIUE", "NLWW", "NSFA", "NSTU", "NTAA", "NVVV", "NWWW", "NZAA", "NZCH", "NZCM", "NZWN", "OBBI", "OEAB", "OEAH", "OEAO", "OEBA", "OEBH", "OEDF", "OEDM", "OEDR", "OEGN", "OEGS", "OEGT", "OEHL", "OEJB", "OEJN", "OEKJ", "OEKM", "OEMA", "OEMN", "OENG", "OEPA", "OEPS", "OERF", "OERK", "OERR", "OESH", "OESK", "OETB", "OETF", "OETR", "OEWD", "OEWJ", "OEYN", "OIAA", "OIAG", "OIAH", "OIAI", "OIAM", "OIAW", "OIBA", "OIBB", "OIBH", "OIBK", "OIBL", "OIBP", "OIBQ", "OIBS", "OIBV", "OICC", "OICI", "OICJ", "OICK", "OICM", "OICS", "OIFK", "OIFM", "OIFS", "OIGG", "OIGK", "OIHH", "OIHM", "OIHR", "OIIE", "OIII", "OIIK", "OIIP", "OIKB", "OIKK", "OIKO", "OIKQ", "OIMB", "OIMC", "OIMD", "OIMJ", "OIMM", "OIMN", "OIMQ", "OIMS", "OINB", "OINE", "OING", "OINK", "OINN", "OINR", "OINZ", "OISA", "OISF", "OISL", "OISR", "OISS", "OISY", "OITK", "OITL", "OITM", "OITP", "OITR", "OITT", "OITZ", "OIYY", "OIZB", "OIZC", "OIZH", "OIZI", "OIZJ", "OJAI", "OJAM", "OJAQ", "OKAS", "OKKK", "OLBA", "OMAA", "OMAD", "OMAL", "OMDB", "OMDW", "OMFJ", "OMRK", "OMSJ", "OOAD", "OODQ", "OOKB", "OOMS", "OOSA", "OOSH", "OPFA", "OPIS", "OPKC", "OPLA", "OPMT", "OPNH", "OPPS", "OPSK", "ORBI", "ORMM", "ORSU", "OSDI", "OSLK", "OTBD", "OTBH", "OTHH", "PAAD", "PAAK", "PAAQ", "PABA", "PABE", "PABI", "PABL", "PABR", "PABT", "PABV", "PACD", "PACM", "PACV", "PADK", "PADL", "PADM", "PADQ", "PADU", "PAED", "PAEG", "PAEH", "PAEI", "PAEN", "PAFA", "PAFB", "PAFE", "PAFM", "PAFR", "PAFS", "PAGL", "PAGN", "PAGS", "PAGY", "PAHL", "PAHN", "PAHO", "PAHX", "PAHY", "PAIG", "PAIK", "PAIM", "PAIN", "PAIW", "PAJN", "PAJZ", "PAKF", "PAKH", "PAKI", "PAKN", "PAKP", "PAKT", "PAKV", "PAKW", "PAKX", "PALG", "PALH", "PALU", "PAMB", "PAMC", "PAMH", "PAMK", "PAMM", "PAMO", "PAMR", "PAMY", "PANA", "PANC", "PANI", "PANW", "PAOH", "PAOM", "PAOR", "PAOT", "PAOU", "PAPG", "PAPH", "PAPN", "PAPO", "PAQT", "PARY", "PASC", "PASD", "PASI", "PASK", "PASL", "PASM", "PASN", "PASO", "PASV", "PASX", "PASY", "PATA", "PATC", "PATK", "PATL", "PATO", "PATQ", "PAUN", "PAVC", "PAVD", "PAVL", "PAWD", "PAWI", "PAWM", "PAWN", "PAWS", "PAYA", "PAZK", "PFCL", "PFEL", "PFKT", "PFSH", "PFWS", "PFYU", "PGSN", "PGUA", "PGUM", "PHBK", "PHHI", "PHJR", "PHKO", "PHLI", "PHMK", "PHNG", "PHNL", "PHNY", "PHOG", "PHSF", "PHTO", "PKMR", "PKWA", "PLCH", "PMDY", "PPIZ", "PTKK", "PTPN", "PTRO", "PTTP", "PTYA", "PWAK", "RCFN", "RCKH", "RCMQ", "RCNN", "RCSS", "RCTP", "RJAA", "RJAH", "RJBB", "RJBE", "RJCB", "RJCC", "RJCH", "RJCK", "RJCM", "RJCO", "RJDB", "RJDC", "RJDT", "RJEC", "RJFF", "RJFK", "RJFM", "RJFO", "RJFR", "RJFS", "RJFT", "RJFU", "RJGG", "RJKA", "RJKI", "RJNK", "RJNS", "RJNT", "RJOA", "RJOB", "RJOC", "RJOH", "RJOI", "RJOK", "RJOM", "RJOO", "RJOR", "RJOS", "RJOT", "RJSA", "RJSF", "RJSK", "RJSM", "RJSN", "RJSS", "RJSY", "RJTT", "RJTY", "RKJB", "RKJK", "RKNY", "RKPC", "RKPK", "RKSG", "RKSI", "RKSM", "RKSO", "RKSS", "RKTN", "RKTU", "ROAH", "RODE", "RODN", "ROIG", "ROMD", "ROMY", "RORK", "RORS", "RORT", "RORY", "ROYN", "RPLB", "RPLC", "RPLI", "RPLL", "RPMD", "RPVM", "RPVP", "SAAR", "SABE", "SACO", "SADF", "SAEZ", "SAME", "SANT", "SAOC", "SARC", "SARE", "SARF", "SARI", "SARL", "SARP", "SASA", "SASJ", "SAVC", "SAWE", "SAWG", "SAWH", "SAZM", "SAZN", "SAZS", "SBAF", "SBAN", "SBAR", "SBBE", "SBBG", "SBBH", "SBBI", "SBBR", "SBBU", "SBBV", "SBCA", "SBCB", "SBCC", "SBCF", "SBCG", "SBCH", "SBCJ", "SBCO", "SBCP", "SBCR", "SBCT", "SBCY", "SBDN", "SBEG", "SBES", "SBFI", "SBFL", "SBFN", "SBFS", "SBFZ", "SBGL", "SBGO", "SBGR", "SBGW", "SBHT", "SBIH", "SBIL", "SBIP", "SBIZ", "SBJP", "SBJR", "SBJU", "SBJV", "SBKG", "SBKP", "SBLB", "SBLE", "SBLO", "SBLS", "SBMA", "SBME", "SBMG", "SBMK", "SBMN", "SBMO", "SBMQ", "SBMT", "SBNF", "SBNT", "SBOI", "SBPA", "SBPB", "SBPF", "SBPJ", "SBPK", "SBPL", "SBPP", "SBPS", "SBPV", "SBRB", "SBRF", "SBRJ", "SBRP", "SBSC", "SBSG", "SBSJ", "SBSL", "SBSM", "SBSN", "SBSP", "SBSR", "SBST", "SBSV", "SBTA", "SBTE", "SBTF", "SBTT", "SBTU", "SBUL", "SBUR", "SBUY", "SBVH", "SBVT", "SBYS", "SCAR", "SCAT", "SCBA", "SCCF", "SCCH", "SCCI", "SCCY", "SCDA", "SCEL", "SCFT", "SCHR", "SCIC", "SCIE", "SCIP", "SCIR", "SCJO", "SCMK", "SCON", "SCPD", "SCPQ", "SCQP", "SCRG", "SCSE", "SCSN", "SCTE", "SCVD", "SCVM", "SECA", "SECU", "SEGU", "SELT", "SEMT", "SEQM", "SESA", "SESM", "SGAS", "SGEN", "SGES", "SKAR", "SKBG", "SKBO", "SKBQ", "SKCC", "SKCG", "SKCL", "SKEJ", "SKIB", "SKIP", "SKLC", "SKLT", "SKMD", "SKMR", "SKMZ", "SKNV", "SKPC", "SKPE", "SKPS", "SKPV", "SKRG", "SKRH", "SKSM", "SKSP", "SKUI", "SKVP", "SKVV", "SLAL", "SLCA", "SLCB", "SLCP", "SLET", "SLLP", "SLRI", "SLSA", "SLSV", "SLTR", "SLVM", "SLVR", "SMJP", "SMZO", "SOCA", "SPHI", "SPHO", "SPJC", "SPJR", "SPQT", "SPQU", "SPRU", "SPSO", "SPST", "SPTN", "SPTU", "SPZO", "SUAA", "SUCA", "SULS", "SUMU", "SUSO", "SVBC", "SVBI", "SVBM", "SVBS", "SVCB", "SVCS", "SVFM", "SVGD", "SVGU", "SVJM", "SVLO", "SVMC", "SVMG", "SVMI", "SVMT", "SVPA", "SVPR", "SVSA", "SVSR", "SVVA", "SVVL", "SYCJ", "TAPA", "TBPB", "TDPD", "TFFF", "TFFR", "TIST", "TISX", "TJBQ", "TJIG", "TJNR", "TJPS", "TJSJ", "TKPK", "TKPN", "TLPL", "TNCA", "TNCB", "TNCC", "TNCE", "TNCM", "TQPF", "TRPG", "TTCP", "TTPP", "TUPJ", "TVSA", "TXKF", "UAAA", "UAAH", "UAAT", "UACC", "UACK", "UACP", "UADD", "UAII", "UAIT", "UAKD", "UAKK", "UAOO", "UARR", "UASK", "UASP", "UASS", "UATE", "UATG", "UATT", "UAUU", "UBBB", "UBBF", "UBBG", "UBBL", "UBBN", "UBBQ", "UBBY", "UBBZ", "UBEE", "UCFL", "UCFM", "UCFO", "UDSG", "UDYZ", "UEEE", "UERP", "UERR", "UGAM", "UGKO", "UGMS", "UGSB", "UGTB", "UHBB", "UHHH", "UHMA", "UHMM", "UHPP", "UHSS", "UHWW", "UIAA", "UIBB", "UIII", "UIUU", "ULAA", "ULLI", "ULMM", "ULOO", "ULPB", "ULWC", "UMBB", "UMGG", "UMII", "UMIO", "UMKK", "UMMG", "UMMS", "UMOO", "UNAA", "UNBB", "UNEE", "UNKL", "UNNT", "UNOO", "UNTT", "UNWW", "UOOO", "URKA", "URKK", "URMG", "URML", "URMM", "URMN", "URMO", "URMT", "URRP", "URSS", "URWA", "URWI", "URWW", "USCC", "USCM", "USDA", "USHH", "USNN", "USPP", "USRR", "USSS", "USTR", "UTAA", "UTAK", "UTAM", "UTAT", "UTAV", "UTDD", "UTDK", "UTDL", "UTDT", "UTFF", "UTFN", "UTNN", "UTNU", "UTO8", "UTSA", "UTSB", "UTSK", "UTSS", "UTST", "UTTT", "UUBC", "UUBP", "UUBW", "UUDD", "UUDL", "UUEE", "UUMO", "UUOB", "UUOK", "UUOL", "UUOO", "UUWW", "UUYY", "UWGG", "UWKD", "UWKE", "UWKS", "UWLL", "UWLW", "UWOO", "UWOR", "UWPS", "UWSG", "UWUU", "UWWW", "VAAH", "VABB", "VABO", "VABP", "VADU", "VAID", "VAJB", "VAJJ", "VAJL", "VAKE", "VAKP", "VANP", "VAOZ", "VASD", "VASU", "VAUD", "VCBI", "VCRI", "VDPP", "VDSR", "VDSV", "VEAT", "VEBN", "VEBS", "VECC", "VECO", "VEDG", "VEGT", "VEGY", "VEIM", "VEJH", "VEJR", "VEJS", "VEKI", "VELP", "VELR", "VEMN", "VEPT", "VERC", "VERK", "VERP", "VERU", "VGHS", "VHHH", "VIAR", "VIDN", "VIDP", "VIJP", "VILK", "VIPT", "VLLB", "VLLN", "VLVT", "VMMC", "VNKT", "VOBG", "VOBL", "VOBM", "VOBZ", "VOCB", "VOCI", "VOCL", "VOCP", "VOGA", "VOGB", "VOGO", "VOHB", "VOHS", "VOHY", "VOJV", "VOKN", "VOKU", "VOMD", "VOML", "VOMM", "VOMY", "VOPC", "VORY", "VOTK", "VOTP", "VOTR", "VOTV", "VOVZ", "VRMG", "VRMH", "VRMM", "VTBD", "VTBS", "VTBU", "VTCC", "VTCH", "VTCL", "VTCN", "VTCP", "VTCT", "VTPB", "VTPH", "VTPM", "VTPO", "VTPP", "VTPT", "VTSB", "VTSC", "VTSE", "VTSF", "VTSG", "VTSM", "VTSP", "VTSR", "VTSS", "VTST", "VTUD", "VTUI", "VTUK", "VTUL", "VTUO", "VTUQ", "VTUU", "VTUV", "VTUW", "VVCI", "VVCR", "VVCT", "VVDN", "VVNB", "VVPB", "VVPQ", "VVTS", "VVVD", "VYMD", "VYNT", "VYYY", "WABB", "WADD", "WADL", "WAHS", "WAJJ", "WALL", "WAMM", "WAOO", "WAPP", "WAQQ", "WARR", "WATT", "WBGB", "WBGG", "WBGR", "WBGS", "WBGY", "WBKK", "WBKL", "WBKS", "WBKT", "WBKW", "WBSB", "WIBB", "WIDD", "WIEE", "WIHH", "WIII", "WILL", "WIMM", "WIOO", "WIPP", "WMAU", "WMBA", "WMKA", "WMKB", "WMKC", "WMKD", "WMKE", "WMKI", "WMKJ", "WMKK", "WMKL", "WMKM", "WMKN", "WMKP", "WMSA", "WSAP", "WSSL", "WSSS", "YAMB", "YBAS", "YBBN", "YBCG", "YBCS", "YBHM", "YBLN", "YBMA", "YBRK", "YBRM", "YBSU", "YBTL", "YBWW", "YCFS", "YCIN", "YFRT", "YGEL", "YGLA", "YHID", "YLHI", "YMAV", "YMHB", "YMLT", "YMML", "YPAD", "YPCC", "YPDN", "YPEA", "YPGV", "YPJT", "YPKG", "YPKU", "YPLM", "YPPD", "YPPH", "YPTN", "YPWR", "YPXM", "YSCB", "YSDU", "YSNF", "YSRI", "YSSY", "YSTW", "YWLM", "ZBAA", "ZBAD", "ZBHH", "ZBSJ", "ZBTJ", "ZBYN", "ZGGG", "ZGHA", "ZGKL", "ZGNN", "ZGOW", "ZGSZ", "ZHCC", "ZHHH", "ZJHK", "ZJSY", "ZLLL", "ZLXY", "ZMCK", "ZMUB", "ZPPP", "ZSAM", "ZSFZ", "ZSHC", "ZSNB", "ZSNJ", "ZSOF", "ZSPD", "ZSQD", "ZSSS", "ZUCK", "ZUGY", "ZUTF", "ZUUU", "ZWSH", "ZWWW", "ZYCC", "ZYHB", "ZYTL", "ZYTX"], "observation_time": ["2023-04-01T11:00:00Z", "2023-04-01T10:50:00Z", "2023-04-01T10:50:00Z", "2023-04-01T10:50:00Z", "2023-04-01T10:50:00Z", "2023-04-01T10:50:00Z", "2023-04-01T10:55:00Z", "2023-04-01T11:00:00Z", "2023-04-01T11:08:00Z", "2023-04-01T11:00:00Z", "2023-04-01T11:00:00Z", "2023-04-01T11:00:00Z", "2023-04-01T11:00:00Z", "2023-04-01T10:55:00Z", "2023-04-01T11:30:00Z", "2023-04-01T11:00:00Z", "2023-04-01T11:00:00Z", "2023-04-01T11:29:00Z", "2023-04-01T11:00:00Z", "2023-04-01T11:00:00Z", "2023-04-01T11:00:00Z", "2023-04-01T11:00:00Z", "2023-04-01T11:00:00Z", "2023-04-01T11:00:00Z", "2023-04-01T11:00:00Z", "2023-04-01T11:00:00Z", "2023-04-01T11:00:00Z", "2023-04-01T11:00:00Z", "2023-04-01T11:00:00Z", "2023-04-01T11:00:00Z", "2023-04-01T11:00:00Z", "2023-04-01T11:00:00Z", "2023-04-01T11:00:00Z", "2023-04-01T11:00:00Z", "2023-04-01T11:00:00Z", "2023-04-01T11:00:00Z", "2023-04-01T11:00:00Z", "2023-04-01T11:00:00Z", "2023-04-01T11:00:00Z", "2023-04-01T11:00:00Z", "2023-04-01T11:00:00Z", "2023-04-01T11:00:00Z", "2023-04-01T11:00:00Z", "2023-04-01T11:00:00Z", "2023-04-01T11:00:00Z", "2023-04-01T11:00:00Z", "2023-04-01T11:00:00Z", "2023-04-01T11:00:00Z", "2023-04-01T11:00:00Z", "2023-04-01T11:00:00Z", "2023-04-01T11:00:00Z", "2023-04-01T11:00:00Z", "2023-04-01T11:00:00Z", "2023-04-01T11:00:00Z", "2023-04-01T11:00:00Z", "2023-04-01T11:00:00Z", "2023-04-01T11:00:00Z", "2023-04-01T11:00:00Z", "2023-04-01T11:00:00Z", "2023-04-01T11:00:00Z", "2023-04-01T11:00:00Z", "2023-04-01T11:00:00Z", "2023-04-01T11:00:00Z", "2023-04-01T11:00:00Z", "2023-04-01T11:00:00Z", "2023-04-01T11:00:00Z", "2023-04-01T11:00:00Z", "2023-04-01T11:00:00Z", "2023-04-01T11:00:00Z", "2023-04-01T11:00:00Z", "2023-04-01T11:00:00Z", "2023-04-01T11:00:00Z", "2023-04-01T11:00:00Z", "2023-04-01T11:00:00Z", "2023-04-01T11:00:00Z", "2023-04-01T11:00:00Z", "2023-04-01T11:00:00Z", "2023-04-01T11:00:00Z", "2023-04-01T11:00:00Z", "2023-04-01T11:00:00Z", "2023-04-01T11:00:00Z", "2023-04-01T11:00:00Z", "2023-04-01T11:00:00Z", "2023-04-01T11:00:00Z", "2023-04-01T11:00:00Z", "2023-04-01T11:00:00Z", "2023-04-01T11:00:00Z", "2023-04-01T11:00:00Z", "2023-04-01T11:00:00Z", "2023-04-01T11:00:00Z", "2023-04-01T11:00:00Z", "2023-04-01T11:00:00Z", "2023-04-01T11:00:00Z", "2023-04-01T11:00:00Z", "2023-04-01T11:00:00Z", "2023-04-01T11:00:00Z", "2023-04-01T11:00:00Z", "2023-04-01T11:00:00Z", "2023-04-01T11:00:00Z", "2023-04-01T11:00:00Z", "2023-04-01T11:00:00Z", "2023-04-01T11:00:00Z", "2023-04-01T11:00:00Z", "2023-04-01T11:00:00Z", "2023-04-01T11:00:00Z", "2023-04-01T11:00:00Z", "2023-04-01T11:00:00Z", "2023-04-01T11:00:00Z", "2023-04-01T11:00:00Z", "2023-04-01T11:00:00Z", "2023-04-01T11:00:00Z", "2023-04-01T11:00:00Z", "2023-04-01T11:00:00Z", "2023-04-01T11:00:00Z", "2023-04-01T11:00:00Z", "2023-04-01T11:00:00Z", "2023-04-01T11:00:00Z", "2023-04-01T11:00:00Z", "2023-04-01T11:00:00Z", "2023-04-01T11:00:00Z", "2023-04-01T11:00:00Z", "2023-04-01T11:00:00Z", "2023-04-01T11:00:00Z", "2023-04-01T11:00:00Z", "2023-04-01T11:00:00Z", "2023-04-01T11:00:00Z", "2023-04-01T11:00:00Z", "2023-04-01T11:00:00Z", "2023-04-01T11:00:00Z", "2023-04-01T11:00:00Z", "2023-04-01T11:00:00Z", "2023-04-01T11:00:00Z", "2023-04-01T11:00:00Z", "2023-04-01T11:00:00Z", "2023-04-01T11:00:00Z", "2023-04-01T11:00:00Z", "2023-04-01T11:15:00Z", "2023-04-01T11:00:00Z", "2023-04-01T11:00:00Z", "2023-04-01T11:00:00Z", "2023-04-01T11:00:00Z", "2023-04-01T11:00:00Z", "2023-04-01T11:00:00Z", "2023-04-01T11:00:00Z", "2023-04-01T11:00:00Z", "2023-04-01T11:00:00Z", "2023-04-01T11:00:00Z", "2023-04-01T11:00:00Z", "2023-04-01T11:00:00Z", "2023-04-01T11:00:00Z", "2023-04-01T11:00:00Z", "2023-04-01T11:00:00Z", "2023-04-01T11:00:00Z", "2023-04-01T11:00:00Z", "2023-04-01T11:00:00Z", "2023-04-01T11:00:00Z", "2023-04-01T11:00:00Z", "2023-04-01T11:00:00Z", "2023-04-01T11:13:00Z", "2023-04-01T11:00:00Z", "2023-04-01T11:00:00Z", "2023-04-01T11:00:00Z", "2023-04-01T11:00:00Z", "2023-04-01T11:00:00Z", "2023-04-01T11:00:00Z", "2023-04-01T11:00:00Z", "2023-04-01T11:00:00Z", "2023-04-01T11:00:00Z", "2023-04-01T11:00:00Z", "2023-04-01T11:00:00Z", "2023-04-01T11:00:00Z", "2023-04-01T11:00:00Z", "2023-04-01T11:00:00Z", "2023-04-01T11:00:00Z", "2023-04-01T11:00:00Z", "2023-04-01T11:00:00Z", "2023-04-01T11:00:00Z", "2023-04-01T11:00:00Z", "2023-04-01T11:00:00Z", "2023-04-01T11:00:00Z", "2023-04-01T11:00:00Z", "2023-04-01T11:00:00Z", "2023-04-01T11:00:00Z", "2023-04-01T11:00:00Z", "2023-04-01T11:00:00Z", "2023-04-01T11:00:00Z", "2023-04-01T11:00:00Z", "2023-04-01T11:00:00Z", "2023-04-01T11:00:00Z", "2023-04-01T11:00:00Z", "2023-04-01T11:00:00Z", "2023-04-01T11:00:00Z", "2023-04-01T11:00:00Z", "2023-04-01T11:00:00Z", "2023-04-01T11:00:00Z", "2023-04-01T11:00:00Z", "2023-04-01T11:00:00Z", "2023-04-01T11:00:00Z", "2023-04-01T11:00:00Z", "2023-04-01T11:00:00Z", "2023-04-01T11:00:00Z", "2023-04-01T11:00:00Z", "2023-04-01T11:00:00Z", "2023-04-01T11:00:00Z", "2023-04-01T11:00:00Z", "2023-04-01T11:00:00Z", "2023-04-01T11:00:00Z", "2023-04-01T11:00:00Z", "2023-04-01T11:00:00Z", "2023-04-01T11:00:00Z", "2023-04-01T11:00:00Z", "2023-04-01T11:00:00Z", "2023-04-01T11:00:00Z", "2023-04-01T11:00:00Z", "2023-04-01T11:00:00Z", "2023-04-01T11:00:00Z", "2023-04-01T11:00:00Z", "2023-04-01T11:00:00Z", "2023-04-01T11:00:00Z", "2023-04-01T11:00:00Z", "2023-04-01T11:00:00Z", "2023-04-01T11:00:00Z", "2023-04-01T11:00:00Z", "2023-04-01T11:00:00Z", "2023-04-01T11:00:00Z", "2023-04-01T11:00:00Z", "2023-04-01T11:00:00Z", "2023-04-01T11:00:00Z", "2023-04-01T11:00:00Z", "2023-04-01T11:00:00Z", "2023-04-01T11:00:00Z", "2023-04-01T11:00:00Z", "2023-04-01T11:00:00Z", "2023-04-01T11:00:00Z", "2023-04-01T11:00:00Z", "2023-04-01T11:00:00Z", "2023-04-01T11:00:00Z", "2023-04-01T11:00:00Z", "2023-04-01T11:00:00Z", "2023-04-01T11:00:00Z", "2023-04-01T11:00:00Z", "2023-04-01T11:00:00Z", "2023-04-01T11:00:00Z", "2023-04-01T11:00:00Z", "2023-04-01T11:00:00Z", "2023-04-01T11:00:00Z", "2023-04-01T11:00:00Z", "2023-04-01T11:00:00Z", "2023-04-01T11:00:00Z", "2023-04-01T11:00:00Z", "2023-04-01T11:00:00Z", "2023-04-01T11:17:00Z", "2023-04-01T11:00:00Z", "2023-04-01T11:00:00Z", "2023-04-01T11:27:00Z", "2023-04-01T11:00:00Z", "2023-04-01T11:00:00Z", "2023-04-01T11:00:00Z", "2023-04-01T11:00:00Z", "2023-04-01T11:00:00Z", "2023-04-01T11:00:00Z", "2023-04-01T11:00:00Z", "2023-04-01T11:00:00Z", "2023-04-01T11:25:00Z", "2023-04-01T11:27:00Z", "2023-04-01T11:00:00Z", "2023-04-01T11:00:00Z", "2023-04-01T11:00:00Z", "2023-04-01T11:00:00Z", "2023-04-01T11:00:00Z", "2023-04-01T11:00:00Z", "2023-04-01T11:00:00Z", "2023-04-01T11:00:00Z", "2023-04-01T11:00:00Z", "2023-04-01T11:00:00Z", "2023-04-01T11:00:00Z", "2023-04-01T11:27:00Z", "2023-04-01T11:00:00Z", "2023-04-01T11:00:00Z", "2023-04-01T11:00:00Z", "2023-04-01T11:00:00Z", "2023-04-01T11:00:00Z", "2023-04-01T11:21:00Z", "2023-04-01T11:00:00Z", "2023-04-01T11:00:00Z", "2023-04-01T11:00:00Z", "2023-04-01T11:25:00Z", "2023-04-01T11:00:00Z", "2023-04-01T11:00:00Z", "2023-04-01T11:00:00Z", "2023-04-01T11:00:00Z", "2023-04-01T11:27:00Z", "2023-04-01T11:00:00Z", "2023-04-01T11:00:00Z", "2023-04-01T11:00:00Z", "2023-04-01T11:00:00Z", "2023-04-01T11:00:00Z", "2023-04-01T11:22:00Z", "2023-04-01T11:00:00Z", "2023-04-01T11:00:00Z", "2023-04-01T11:15:00Z", "2023-04-01T11:00:00Z", "2023-04-01T11:00:00Z", "2023-04-01T11:00:00Z", "2023-04-01T11:00:00Z", "2023-04-01T11:00:00Z", "2023-04-01T11:04:00Z", "2023-04-01T11:21:00Z", "2023-04-01T11:00:00Z", "2023-04-01T11:00:00Z", "2023-04-01T11:00:00Z", "2023-04-01T11:00:00Z", "2023-04-01T11:00:00Z", "2023-04-01T11:28:00Z", "2023-04-01T11:00:00Z", "2023-04-01T11:00:00Z", "2023-04-01T11:00:00Z", "2023-04-01T11:00:00Z", "2023-04-01T11:16:00Z", "2023-04-01T11:00:00Z", "2023-04-01T11:00:00Z", "2023-04-01T11:00:00Z", "2023-04-01T11:00:00Z", "2023-04-01T11:00:00Z", "2023-04-01T11:17:00Z", "2023-04-01T11:00:00Z", "2023-04-01T11:17:00Z", "2023-04-01T11:00:00Z", "2023-04-01T11:00:00Z", "2023-04-01T11:00:00Z", "2023-04-01T11:00:00Z", "2023-04-01T11:11:00Z", "2023-04-01T11:00:00Z", "2023-04-01T11:23:00Z", "2023-04-01T11:00:00Z", "2023-04-01T11:00:00Z", "2023-04-01T11:15:00Z", "2023-04-01T11:00:00Z", "2023-04-01T11:04:00Z", "2023-04-01T11:00:00Z", "2023-04-01T11:00:00Z", "2023-04-01T11:00:00Z", "2023-04-01T11:00:00Z", "2023-04-01T11:00:00Z", "2023-04-01T11:00:00Z", "2023-04-01T11:00:00Z", "2023-04-01T11:00:00Z", "2023-04-01T11:00:00Z", "2023-04-01T11:00:00Z", "2023-04-01T11:00:00Z", "2023-04-01T11:00:00Z", "2023-04-01T11:00:00Z", "2023-04-01T11:00:00Z", "2023-04-01T11:00:00Z", "2023-04-01T11:00:00Z", "2023-04-01T11:00:00Z", "2023-04-01T11:00:00Z", "2023-04-01T11:00:00Z", "2023-04-01T11:00:00Z", "2023-04-01T11:00:00Z", "2023-04-01T11:14:00Z", "2023-04-01T11:00:00Z", "2023-04-01T11:13:00Z", "2023-04-01T11:00:00Z", "2023-04-01T11:29:00Z", "2023-04-01T11:00:00Z", "2023-04-01T11:00:00Z", "2023-04-01T11:00:00Z", "2023-04-01T11:00:00Z", "2023-04-01T11:13:00Z", "2023-04-01T11:00:00Z", "2023-04-01T11:00:00Z", "2023-04-01T11:18:00Z", "2023-04-01T11:23:00Z", "2023-04-01T11:00:00Z", "2023-04-01T11:00:00Z", "2023-04-01T11:00:00Z", "2023-04-01T11:11:00Z", "2023-04-01T11:00:00Z", "2023-04-01T11:00:00Z", "2023-04-01T11:00:00Z", "2023-04-01T11:00:00Z", "2023-04-01T11:00:00Z", "2023-04-01T11:09:00Z", "2023-04-01T11:00:00Z", "2023-04-01T11:00:00Z", "2023-04-01T11:00:00Z", "2023-04-01T11:00:00Z", "2023-04-01T11:00:00Z", "2023-04-01T11:00:00Z", "2023-04-01T11:00:00Z", "2023-04-01T11:00:00Z", "2023-04-01T11:00:00Z", "2023-04-01T11:00:00Z", "2023-04-01T11:00:00Z", "2023-04-01T11:00:00Z", "2023-04-01T11:00:00Z", "2023-04-01T11:00:00Z", "2023-04-01T11:00:00Z", "2023-04-01T11:15:00Z", "2023-04-01T11:00:00Z", "2023-04-01T11:00:00Z", "2023-04-01T11:00:00Z", "2023-04-01T11:20:00Z", "2023-04-01T11:00:00Z", "2023-04-01T11:00:00Z", "2023-04-01T11:00:00Z", "2023-04-01T11:00:00Z", "2023-04-01T11:00:00Z", "2023-04-01T11:00:00Z", "2023-04-01T11:00:00Z", "2023-04-01T11:00:00Z", "2023-04-01T11:00:00Z", "2023-04-01T11:16:00Z", "2023-04-01T11:00:00Z", "2023-04-01T11:00:00Z", "2023-04-01T11:00:00Z", "2023-04-01T11:00:00Z", "2023-04-01T11:00:00Z", "2023-04-01T11:00:00Z", "2023-04-01T11:00:00Z", "2023-04-01T11:00:00Z", "2023-04-01T11:25:00Z", "2023-04-01T11:29:00Z", "2023-04-01T11:00:00Z", "2023-04-01T11:00:00Z", "2023-04-01T11:00:00Z", "2023-04-01T11:00:00Z", "2023-04-01T11:00:00Z", "2023-04-01T11:00:00Z", "2023-04-01T11:15:00Z", "2023-04-01T11:19:00Z", "2023-04-01T11:29:00Z", "2023-04-01T11:00:00Z", "2023-04-01T11:00:00Z", "2023-04-01T11:00:00Z", "2023-04-01T11:00:00Z", "2023-04-01T11:00:00Z", "2023-04-01T11:00:00Z", "2023-04-01T11:00:00Z", "2023-04-01T11:00:00Z", "2023-04-01T11:00:00Z", "2023-04-01T11:00:00Z", "2023-04-01T11:00:00Z", "2023-04-01T11:00:00Z", "2023-04-01T11:00:00Z", "2023-04-01T11:22:00Z", "2023-04-01T11:27:00Z", "2023-04-01T11:00:00Z", "2023-04-01T11:00:00Z", "2023-04-01T11:00:00Z", "2023-04-01T11:00:00Z", "2023-04-01T11:00:00Z", "2023-04-01T11:00:00Z", "2023-04-01T11:00:00Z", "2023-04-01T11:00:00Z", "2023-04-01T11:00:00Z", "2023-04-01T11:00:00Z", "2023-04-01T11:00:00Z", "2023-04-01T11:00:00Z", "2023-04-01T11:00:00Z", "2023-04-01T11:00:00Z", "2023-04-01T11:00:00Z", "2023-04-01T11:00:00Z", "2023-04-01T11:00:00Z", "2023-04-01T11:00:00Z", "2023-04-01T11:00:00Z", "2023-04-01T11:00:00Z", "2023-04-01T11:00:00Z", "2023-04-01T11:00:00Z", "2023-04-01T11:00:00Z", "2023-04-01T11:00:00Z", "2023-04-01T11:00:00Z", "2023-04-01T11:00:00Z", "2023-04-01T11:00:00Z", "2023-04-01T11:00:00Z", "2023-04-01T11:00:00Z", "2023-04-01T11:00:00Z", "2023-04-01T11:00:00Z", "2023-04-01T11:00:00Z", "2023-04-01T11:00:00Z", "2023-04-01T11:00:00Z", "2023-04-01T11:00:00Z", "2023-04-01T11:00:00Z", "2023-04-01T11:00:00Z", "2023-04-01T11:00:00Z", "2023-04-01T11:00:00Z", "2023-04-01T11:00:00Z", "2023-04-01T11:00:00Z", "2023-04-01T11:00:00Z", "2023-04-01T11:00:00Z", "2023-04-01T11:00:00Z", "2023-04-01T11:00:00Z", "2023-04-01T11:00:00Z", "2023-04-01T11:00:00Z", "2023-04-01T11:00:00Z", "2023-04-01T11:00:00Z", "2023-04-01T11:00:00Z", "2023-04-01T11:00:00Z", "2023-04-01T11:00:00Z", "2023-04-01T11:00:00Z", "2023-04-01T11:20:00Z", "2023-04-01T10:55:00Z", "2023-04-01T11:20:00Z", "2023-04-01T11:20:00Z", "2023-04-01T11:20:00Z", "2023-04-01T10:55:00Z", "2023-04-01T10:55:00Z", "2023-04-01T11:22:00Z", "2023-04-01T10:55:00Z", "2023-04-01T11:22:00Z", "2023-04-01T11:20:00Z", "2023-04-01T11:20:00Z", "2023-04-01T10:50:00Z", "2023-04-01T11:20:00Z", "2023-04-01T11:20:00Z", "2023-04-01T11:20:00Z", "2023-04-01T11:20:00Z", "2023-04-01T11:20:00Z", "2023-04-01T11:20:00Z", "2023-04-01T11:20:00Z", "2023-04-01T11:20:00Z", "2023-04-01T11:20:00Z", "2023-04-01T11:20:00Z", "2023-04-01T11:20:00Z", "2023-04-01T11:20:00Z", "2023-04-01T11:20:00Z", "2023-04-01T11:20:00Z", "2023-04-01T11:20:00Z", "2023-04-01T11:20:00Z", "2023-04-01T11:20:00Z", "2023-04-01T11:20:00Z", "2023-04-01T11:20:00Z", "2023-04-01T11:20:00Z", "2023-04-01T11:20:00Z", "2023-04-01T11:20:00Z", "2023-04-01T11:20:00Z", "2023-04-01T11:20:00Z", "2023-04-01T11:20:00Z", "2023-04-01T11:20:00Z", "2023-04-01T11:20:00Z", "2023-04-01T11:20:00Z", "2023-04-01T11:20:00Z", "2023-04-01T11:20:00Z", "2023-04-01T11:20:00Z", "2023-04-01T11:20:00Z", "2023-04-01T11:20:00Z", "2023-04-01T11:20:00Z", "2023-04-01T11:20:00Z", "2023-04-01T11:20:00Z", "2023-04-01T11:20:00Z", "2023-04-01T11:20:00Z", "2023-04-01T11:20:00Z", "2023-04-01T11:27:00Z", "2023-04-01T11:20:00Z", "2023-04-01T11:20:00Z", "2023-04-01T11:20:00Z", "2023-04-01T11:20:00Z", "2023-04-01T11:20:00Z", "2023-04-01T11:20:00Z", "2023-04-01T11:20:00Z", "2023-04-01T11:20:00Z", "2023-04-01T11:20:00Z", "2023-04-01T11:20:00Z", "2023-04-01T11:20:00Z", "2023-04-01T11:20:00Z", "2023-04-01T11:20:00Z", "2023-04-01T11:20:00Z", "2023-04-01T11:20:00Z", "2023-04-01T11:20:00Z", "2023-04-01T11:20:00Z", "2023-04-01T11:20:00Z", "2023-04-01T11:20:00Z", "2023-04-01T11:20:00Z", "2023-04-01T11:20:00Z", "2023-04-01T11:20:00Z", "2023-04-01T11:20:00Z", "2023-04-01T11:20:00Z", "2023-04-01T11:20:00Z", "2023-04-01T11:20:00Z", "2023-04-01T11:20:00Z", "2023-04-01T11:20:00Z", "2023-04-01T11:20:00Z", "2023-04-01T11:20:00Z", "2023-04-01T11:20:00Z", "2023-04-01T11:20:00Z", "2023-04-01T10:50:00Z", "2023-04-01T11:20:00Z", "2023-04-01T11:20:00Z", "2023-04-01T10:50:00Z", "2023-04-01T10:50:00Z", "2023-04-01T10:50:00Z", "2023-04-01T11:20:00Z", "2023-04-01T11:20:00Z", "2023-04-01T11:20:00Z", "2023-04-01T11:20:00Z", "2023-04-01T11:20:00Z", "2023-04-01T11:20:00Z", "2023-04-01T11:20:00Z", "2023-04-01T11:20:00Z", "2023-04-01T11:20:00Z", "2023-04-01T11:20:00Z", "2023-04-01T11:20:00Z", "2023-04-01T11:20:00Z", "2023-04-01T11:20:00Z", "2023-04-01T11:20:00Z", "2023-04-01T11:20:00Z", "2023-04-01T11:20:00Z", "2023-04-01T11:20:00Z", "2023-04-01T11:20:00Z", "2023-04-01T11:20:00Z", "2023-04-01T10:50:00Z", "2023-04-01T11:20:00Z", "2023-04-01T11:20:00Z", "2023-04-01T11:20:00Z", "2023-04-01T11:20:00Z", "2023-04-01T11:20:00Z", "2023-04-01T11:20:00Z", "2023-04-01T11:20:00Z", "2023-04-01T11:20:00Z", "2023-04-01T10:50:00Z", "2023-04-01T10:50:00Z", "2023-04-01T10:50:00Z", "2023-04-01T10:50:00Z", "2023-04-01T11:20:00Z", "2023-04-01T11:20:00Z", "2023-04-01T11:20:00Z", "2023-04-01T11:20:00Z", "2023-04-01T11:20:00Z", "2023-04-01T11:20:00Z", "2023-04-01T11:20:00Z", "2023-04-01T11:20:00Z", "2023-04-01T11:20:00Z", "2023-04-01T11:20:00Z", "2023-04-01T11:20:00Z", "2023-04-01T11:20:00Z", "2023-04-01T11:20:00Z", "2023-04-01T10:50:00Z", "2023-04-01T10:50:00Z", "2023-04-01T10:50:00Z", "2023-04-01T10:50:00Z", "2023-04-01T10:50:00Z", "2023-04-01T11:20:00Z", "2023-04-01T11:20:00Z", "2023-04-01T11:20:00Z", "2023-04-01T11:20:00Z", "2023-04-01T11:20:00Z", "2023-04-01T11:20:00Z", "2023-04-01T10:50:00Z", "2023-04-01T11:05:00Z", "2023-04-01T10:55:00Z", "2023-04-01T10:50:00Z", "2023-04-01T10:55:00Z", "2023-04-01T11:20:00Z", "2023-04-01T10:50:00Z", "2023-04-01T10:50:00Z", "2023-04-01T11:20:00Z", "2023-04-01T10:50:00Z", "2023-04-01T10:50:00Z", "2023-04-01T10:50:00Z", "2023-04-01T10:50:00Z", "2023-04-01T10:50:00Z", "2023-04-01T10:50:00Z", "2023-04-01T10:50:00Z", "2023-04-01T10:50:00Z", "2023-04-01T10:50:00Z", "2023-04-01T10:50:00Z", "2023-04-01T11:20:00Z", "2023-04-01T11:25:00Z", "2023-04-01T11:25:00Z", "2023-04-01T11:25:00Z", "2023-04-01T11:25:00Z", "2023-04-01T11:25:00Z", "2023-04-01T11:25:00Z", "2023-04-01T11:25:00Z", "2023-04-01T10:55:00Z", "2023-04-01T11:25:00Z", "2023-04-01T11:25:00Z", "2023-04-01T11:25:00Z", "2023-04-01T11:25:00Z", "2023-04-01T11:25:00Z", "2023-04-01T11:25:00Z", "2023-04-01T11:25:00Z", "2023-04-01T11:25:00Z", "2023-04-01T11:25:00Z", "2023-04-01T11:25:00Z", "2023-04-01T11:25:00Z", "2023-04-01T11:25:00Z", "2023-04-01T11:25:00Z", "2023-04-01T11:25:00Z", "2023-04-01T11:25:00Z", "2023-04-01T11:25:00Z", "2023-04-01T11:25:00Z", "2023-04-01T11:00:00Z", "2023-04-01T11:00:00Z", "2023-04-01T11:00:00Z", "2023-04-01T11:00:00Z", "2023-04-01T10:30:00Z", "2023-04-01T11:00:00Z", "2023-04-01T11:00:00Z", "2023-04-01T11:00:00Z", "2023-04-01T11:00:00Z", "2023-04-01T11:20:00Z", "2023-04-01T11:20:00Z", "2023-04-01T11:20:00Z", "2023-04-01T11:20:00Z", "2023-04-01T11:20:00Z", "2023-04-01T11:20:00Z", "2023-04-01T11:20:00Z", "2023-04-01T11:20:00Z", "2023-04-01T11:20:00Z", "2023-04-01T11:20:00Z", "2023-04-01T11:20:00Z", "2023-04-01T11:20:00Z", "2023-04-01T11:20:00Z", "2023-04-01T11:20:00Z", "2023-04-01T11:20:00Z", "2023-04-01T11:20:00Z", "2023-04-01T11:20:00Z", "2023-04-01T11:20:00Z", "2023-04-01T11:20:00Z", "2023-04-01T11:20:00Z", "2023-04-01T11:20:00Z", "2023-04-01T11:20:00Z", "2023-04-01T11:20:00Z", "2023-04-01T11:20:00Z", "2023-04-01T11:20:00Z", "2023-04-01T11:20:00Z", "2023-04-01T11:20:00Z", "2023-04-01T11:20:00Z", "2023-04-01T11:20:00Z", "2023-04-01T11:20:00Z", "2023-04-01T11:20:00Z", "2023-04-01T11:20:00Z", "2023-04-01T11:20:00Z", "2023-04-01T10:50:00Z", "2023-04-01T11:20:00Z", "2023-04-01T11:20:00Z", "2023-04-01T11:20:00Z", "2023-04-01T11:20:00Z", "2023-04-01T11:20:00Z", "2023-04-01T11:20:00Z", "2023-04-01T11:20:00Z", "2023-04-01T11:20:00Z", "2023-04-01T11:20:00Z", "2023-04-01T10:20:00Z", "2023-04-01T11:20:00Z", "2023-04-01T11:20:00Z", "2023-04-01T11:20:00Z", "2023-04-01T11:20:00Z", "2023-04-01T11:20:00Z", "2023-04-01T11:20:00Z", "2023-04-01T11:20:00Z", "2023-04-01T11:20:00Z", "2023-04-01T11:20:00Z", "2023-04-01T11:20:00Z", "2023-04-01T11:20:00Z", "2023-04-01T11:20:00Z", "2023-04-01T11:20:00Z", "2023-04-01T11:20:00Z", "2023-04-01T11:20:00Z", "2023-04-01T11:20:00Z", "2023-04-01T11:20:00Z", "2023-04-01T11:20:00Z", "2023-04-01T11:20:00Z", "2023-04-01T11:20:00Z", "2023-04-01T11:20:00Z", "2023-04-01T11:20:00Z", "2023-04-01T11:20:00Z", "2023-04-01T11:20:00Z", "2023-04-01T11:20:00Z", "2023-04-01T11:20:00Z", "2023-04-01T11:20:00Z", "2023-04-01T11:20:00Z", "2023-04-01T11:20:00Z", "2023-04-01T11:20:00Z", "2023-04-01T11:20:00Z", "2023-04-01T11:20:00Z", "2023-04-01T11:20:00Z", "2023-04-01T11:20:00Z", "2023-04-01T11:20:00Z", "2023-04-01T11:20:00Z", "2023-04-01T11:20:00Z", "2023-04-01T11:00:00Z", "2023-04-01T11:00:00Z", "2023-04-01T11:00:00Z", "2023-04-01T11:00:00Z", "2023-04-01T11:00:00Z", "2023-04-01T11:00:00Z", "2023-04-01T11:00:00Z", "2023-04-01T11:00:00Z", "2023-04-01T11:00:00Z", "2023-04-01T11:00:00Z", "2023-04-01T11:00:00Z", "2023-04-01T11:00:00Z", "2023-04-01T11:00:00Z", "2023-04-01T11:00:00Z", "2023-04-01T11:20:00Z", "2023-04-01T11:20:00Z", "2023-04-01T11:20:00Z", "2023-04-01T11:20:00Z", "2023-04-01T11:20:00Z", "2023-04-01T11:20:00Z", "2023-04-01T11:20:00Z", "2023-04-01T11:20:00Z", "2023-04-01T11:20:00Z", "2023-04-01T11:20:00Z", "2023-04-01T11:20:00Z", "2023-04-01T11:20:00Z", "2023-04-01T11:20:00Z", "2023-04-01T11:20:00Z", "2023-04-01T11:20:00Z", "2023-04-01T11:20:00Z", "2023-04-01T11:20:00Z", "2023-04-01T11:20:00Z", "2023-04-01T11:20:00Z", "2023-04-01T11:20:00Z", "2023-04-01T11:20:00Z", "2023-04-01T11:20:00Z", "2023-04-01T11:20:00Z", "2023-04-01T11:20:00Z", "2023-04-01T11:20:00Z", "2023-04-01T11:20:00Z", "2023-04-01T11:20:00Z", "2023-04-01T11:20:00Z", "2023-04-01T11:20:00Z", "2023-04-01T11:20:00Z", "2023-04-01T11:20:00Z", "2023-04-01T11:20:00Z", "2023-04-01T11:20:00Z", "2023-04-01T11:20:00Z", "2023-04-01T11:20:00Z", "2023-04-01T11:20:00Z", "2023-04-01T11:20:00Z", "2023-04-01T11:20:00Z", "2023-04-01T11:20:00Z", "2023-04-01T11:20:00Z", "2023-04-01T11:20:00Z", "2023-04-01T11:20:00Z", "2023-04-01T11:20:00Z", "2023-04-01T11:20:00Z", "2023-04-01T11:20:00Z", "2023-04-01T11:20:00Z", "2023-04-01T11:18:00Z", "2023-04-01T11:02:00Z", "2023-04-01T11:04:00Z", "2023-04-01T11:20:00Z", "2023-04-01T11:20:00Z", "2023-04-01T11:20:00Z", "2023-04-01T11:20:00Z", "2023-04-01T11:20:00Z", "2023-04-01T11:20:00Z", "2023-04-01T11:20:00Z", "2023-04-01T11:20:00Z", "2023-04-01T11:24:00Z", "2023-04-01T10:55:00Z", "2023-04-01T11:00:00Z", "2023-04-01T11:20:00Z", "2023-04-01T11:20:00Z", "2023-04-01T11:20:00Z", "2023-04-01T11:20:00Z", "2023-04-01T11:20:00Z", "2023-04-01T11:20:00Z", "2023-04-01T11:20:00Z", "2023-04-01T11:14:00Z", "2023-04-01T11:20:00Z", "2023-04-01T11:20:00Z", "2023-04-01T11:20:00Z", "2023-04-01T11:20:00Z", "2023-04-01T11:20:00Z", "2023-04-01T11:20:00Z", "2023-04-01T11:20:00Z", "2023-04-01T11:20:00Z", "2023-04-01T11:20:00Z", "2023-04-01T11:20:00Z", "2023-04-01T11:20:00Z", "2023-04-01T11:20:00Z", "2023-04-01T11:20:00Z", "2023-04-01T11:20:00Z", "2023-04-01T11:00:00Z", "2023-04-01T11:00:00Z", "2023-04-01T11:00:00Z", "2023-04-01T11:00:00Z", "2023-04-01T11:00:00Z", "2023-04-01T11:00:00Z", "2023-04-01T11:00:00Z", "2023-04-01T11:00:00Z", "2023-04-01T11:00:00Z", "2023-04-01T11:00:00Z", "2023-04-01T11:00:00Z", "2023-04-01T11:00:00Z", "2023-04-01T11:00:00Z", "2023-04-01T11:00:00Z", "2023-04-01T11:00:00Z", "2023-04-01T10:42:00Z", "2023-04-01T11:00:00Z", "2023-04-01T11:00:00Z", "2023-04-01T11:00:00Z", "2023-04-01T11:00:00Z", "2023-04-01T11:00:00Z", "2023-04-01T11:00:00Z", "2023-04-01T11:00:00Z", "2023-04-01T11:00:00Z", "2023-04-01T11:00:00Z", "2023-04-01T11:00:00Z", "2023-04-01T11:00:00Z", "2023-04-01T11:00:00Z", "2023-04-01T11:00:00Z", "2023-04-01T11:00:00Z", "2023-04-01T11:00:00Z", "2023-04-01T11:00:00Z", "2023-04-01T10:55:00Z", "2023-04-01T11:00:00Z", "2023-04-01T11:00:00Z", "2023-04-01T11:00:00Z", "2023-04-01T11:00:00Z", "2023-04-01T11:00:00Z", "2023-04-01T11:00:00Z", "2023-04-01T11:00:00Z", "2023-04-01T11:30:00Z", "2023-04-01T11:00:00Z", "2023-04-01T11:00:00Z", "2023-04-01T11:00:00Z", "2023-04-01T11:00:00Z", "2023-04-01T11:00:00Z", "2023-04-01T11:00:00Z", "2023-04-01T11:00:00Z", "2023-04-01T11:00:00Z", "2023-04-01T11:00:00Z", "2023-04-01T11:00:00Z", "2023-04-01T11:00:00Z", "2023-04-01T11:00:00Z", "2023-04-01T11:00:00Z", "2023-04-01T11:00:00Z", "2023-04-01T11:00:00Z", "2023-04-01T11:00:00Z", "2023-04-01T11:00:00Z", "2023-04-01T11:00:00Z", "2023-04-01T11:00:00Z", "2023-04-01T11:00:00Z", "2023-04-01T11:00:00Z", "2023-04-01T11:00:00Z", "2023-04-01T11:00:00Z", "2023-04-01T11:00:00Z", "2023-04-01T11:00:00Z", "2023-04-01T11:00:00Z", "2023-04-01T11:00:00Z", "2023-04-01T11:00:00Z", "2023-04-01T11:00:00Z", "2023-04-01T11:00:00Z", "2023-04-01T11:00:00Z", "2023-04-01T11:00:00Z", "2023-04-01T11:00:00Z", "2023-04-01T11:00:00Z", "2023-04-01T11:00:00Z", "2023-04-01T11:00:00Z", "2023-04-01T11:00:00Z", "2023-04-01T11:00:00Z", "2023-04-01T11:00:00Z", "2023-04-01T11:00:00Z", "2023-04-01T11:00:00Z", "2023-04-01T11:00:00Z", "2023-04-01T11:00:00Z", "2023-04-01T11:00:00Z", "2023-04-01T11:00:00Z", "2023-04-01T11:00:00Z", "2023-04-01T11:00:00Z", "2023-04-01T11:00:00Z", "2023-04-01T11:00:00Z", "2023-04-01T11:00:00Z", "2023-04-01T11:00:00Z", "2023-04-01T11:00:00Z", "2023-04-01T11:00:00Z", "2023-04-01T11:00:00Z", "2023-04-01T11:00:00Z", "2023-04-01T11:00:00Z", "2023-04-01T11:00:00Z", "2023-04-01T11:00:00Z", "2023-04-01T11:00:00Z", "2023-04-01T11:00:00Z", "2023-04-01T11:00:00Z", "2023-04-01T11:00:00Z", "2023-04-01T11:00:00Z", "2023-04-01T11:00:00Z", "2023-04-01T11:00:00Z", "2023-04-01T11:00:00Z", "2023-04-01T11:00:00Z", "2023-04-01T11:00:00Z", "2023-04-01T11:00:00Z", "2023-04-01T11:00:00Z", "2023-04-01T11:00:00Z", "2023-04-01T11:00:00Z", "2023-04-01T11:00:00Z", "2023-04-01T11:00:00Z", "2023-04-01T11:00:00Z", "2023-04-01T11:00:00Z", "2023-04-01T11:00:00Z", "2023-04-01T11:00:00Z", "2023-04-01T11:00:00Z", "2023-04-01T11:00:00Z", "2023-04-01T11:00:00Z", "2023-04-01T11:00:00Z", "2023-04-01T11:00:00Z", "2023-04-01T11:00:00Z", "2023-04-01T11:00:00Z", "2023-04-01T11:00:00Z", "2023-04-01T11:00:00Z", "2023-04-01T11:00:00Z", "2023-04-01T11:00:00Z", "2023-04-01T11:00:00Z", "2023-04-01T11:00:00Z", "2023-04-01T11:00:00Z", "2023-04-01T11:00:00Z", "2023-04-01T11:00:00Z", "2023-04-01T11:00:00Z", "2023-04-01T11:00:00Z", "2023-04-01T11:00:00Z", "2023-04-01T11:00:00Z", "2023-04-01T11:00:00Z", "2023-04-01T11:00:00Z", "2023-04-01T11:00:00Z", "2023-04-01T11:00:00Z", "2023-04-01T11:00:00Z", "2023-04-01T11:00:00Z", "2023-04-01T11:00:00Z", "2023-04-01T11:00:00Z", "2023-04-01T11:00:00Z", "2023-04-01T11:00:00Z", "2023-04-01T11:00:00Z", "2023-04-01T11:00:00Z", "2023-04-01T11:00:00Z", "2023-04-01T11:00:00Z", "2023-04-01T11:00:00Z", "2023-04-01T11:00:00Z", "2023-04-01T11:00:00Z", "2023-04-01T11:00:00Z", "2023-04-01T11:00:00Z", "2023-04-01T11:00:00Z", "2023-04-01T11:00:00Z", "2023-04-01T11:00:00Z", "2023-04-01T11:00:00Z", "2023-04-01T11:00:00Z", "2023-04-01T11:30:00Z", "2023-04-01T11:00:00Z", "2023-04-01T11:00:00Z", "2023-04-01T11:00:00Z", "2023-04-01T11:00:00Z", "2023-04-01T11:00:00Z", "2023-04-01T11:00:00Z", "2023-04-01T11:00:00Z", "2023-04-01T11:00:00Z", "2023-04-01T11:00:00Z", "2023-04-01T11:00:00Z", "2023-04-01T11:00:00Z", "2023-04-01T11:00:00Z", "2023-04-01T11:00:00Z", "2023-04-01T11:00:00Z", "2023-04-01T11:00:00Z", "2023-04-01T11:00:00Z", "2023-04-01T11:00:00Z", "2023-04-01T10:30:00Z", "2023-04-01T11:09:00Z", "2023-04-01T11:15:00Z", "2023-04-01T11:15:00Z", "2023-04-01T11:15:00Z", "2023-04-01T11:15:00Z", "2023-04-01T11:15:00Z", "2023-04-01T11:15:00Z", "2023-04-01T11:15:00Z", "2023-04-01T11:15:00Z", "2023-04-01T11:08:00Z", "2023-04-01T11:15:00Z", "2023-04-01T11:15:00Z", "2023-04-01T11:15:00Z", "2023-04-01T11:15:00Z", "2023-04-01T11:15:00Z", "2023-04-01T11:15:00Z", "2023-04-01T10:54:00Z", "2023-04-01T11:15:00Z", "2023-04-01T11:15:00Z", "2023-04-01T11:15:00Z", "2023-04-01T11:15:00Z", "2023-04-01T11:15:00Z", "2023-04-01T11:15:00Z", "2023-04-01T11:15:00Z", "2023-04-01T11:15:00Z", "2023-04-01T11:15:00Z", "2023-04-01T11:15:00Z", "2023-04-01T10:55:00Z", "2023-04-01T10:55:00Z", "2023-04-01T10:55:00Z", "2023-04-01T10:55:00Z", "2023-04-01T10:55:00Z", "2023-04-01T11:10:00Z", "2023-04-01T10:55:00Z", "2023-04-01T11:15:00Z", "2023-04-01T10:55:00Z", "2023-04-01T10:55:00Z", "2023-04-01T10:55:00Z", "2023-04-01T10:55:00Z", "2023-04-01T10:55:00Z", "2023-04-01T10:55:00Z", "2023-04-01T11:15:00Z", "2023-04-01T10:55:00Z", "2023-04-01T10:55:00Z", "2023-04-01T10:55:00Z", "2023-04-01T11:15:00Z", "2023-04-01T10:55:00Z", "2023-04-01T10:55:00Z", "2023-04-01T10:55:00Z", "2023-04-01T10:55:00Z", "2023-04-01T10:55:00Z", "2023-04-01T10:55:00Z", "2023-04-01T10:55:00Z", "2023-04-01T10:55:00Z", "2023-04-01T10:55:00Z", "2023-04-01T10:55:00Z", "2023-04-01T10:55:00Z", "2023-04-01T10:55:00Z", "2023-04-01T10:55:00Z", "2023-04-01T11:15:00Z", "2023-04-01T10:55:00Z", "2023-04-01T10:55:00Z", "2023-04-01T10:55:00Z", "2023-04-01T10:55:00Z", "2023-04-01T10:55:00Z", "2023-04-01T10:55:00Z", "2023-04-01T10:55:00Z", "2023-04-01T11:15:00Z", "2023-04-01T11:15:00Z", "2023-04-01T11:15:00Z", "2023-04-01T11:30:00Z", "2023-04-01T11:15:00Z", "2023-04-01T11:15:00Z", "2023-04-01T10:54:00Z", "2023-04-01T11:15:00Z", "2023-04-01T10:55:00Z", "2023-04-01T11:15:00Z", "2023-04-01T11:15:00Z", "2023-04-01T11:15:00Z", "2023-04-01T11:15:00Z", "2023-04-01T11:05:00Z", "2023-04-01T11:15:00Z", "2023-04-01T11:15:00Z", "2023-04-01T11:15:00Z", "2023-04-01T11:15:00Z", "2023-04-01T11:15:00Z", "2023-04-01T10:55:00Z", "2023-04-01T11:10:00Z", "2023-04-01T11:15:00Z", "2023-04-01T11:15:00Z", "2023-04-01T11:15:00Z", "2023-04-01T11:15:00Z", "2023-04-01T11:15:00Z", "2023-04-01T11:15:00Z", "2023-04-01T11:15:00Z", "2023-04-01T11:15:00Z", "2023-04-01T11:15:00Z", "2023-04-01T11:15:00Z", "2023-04-01T11:19:00Z", "2023-04-01T11:09:00Z", "2023-04-01T10:56:00Z", "2023-04-01T11:15:00Z", "2023-04-01T11:15:00Z", "2023-04-01T11:15:00Z", "2023-04-01T11:15:00Z", "2023-04-01T11:30:00Z", "2023-04-01T11:15:00Z", "2023-04-01T11:15:00Z", "2023-04-01T11:15:00Z", "2023-04-01T11:15:00Z", "2023-04-01T11:15:00Z", "2023-04-01T11:15:00Z", "2023-04-01T11:15:00Z", "2023-04-01T11:15:00Z", "2023-04-01T11:15:00Z", "2023-04-01T11:30:00Z", "2023-04-01T11:16:00Z", "2023-04-01T11:15:00Z", "2023-04-01T11:15:00Z", "2023-04-01T11:15:00Z", "2023-04-01T11:15:00Z", "2023-04-01T11:15:00Z", "2023-04-01T11:15:00Z", "2023-04-01T11:15:00Z", "2023-04-01T11:15:00Z", "2023-04-01T11:15:00Z", "2023-04-01T11:15:00Z", "2023-04-01T11:15:00Z", "2023-04-01T11:16:00Z", "2023-04-01T11:15:00Z", "2023-04-01T10:55:00Z", "2023-04-01T11:15:00Z", "2023-04-01T11:15:00Z", "2023-04-01T11:15:00Z", "2023-04-01T11:15:00Z", "2023-04-01T11:10:00Z", "2023-04-01T11:15:00Z", "2023-04-01T11:15:00Z", "2023-04-01T11:15:00Z", "2023-04-01T11:15:00Z", "2023-04-01T11:15:00Z", "2023-04-01T11:15:00Z", "2023-04-01T11:15:00Z", "2023-04-01T11:15:00Z", "2023-04-01T11:15:00Z", "2023-04-01T11:15:00Z", "2023-04-01T11:15:00Z", "2023-04-01T11:15:00Z", "2023-04-01T11:15:00Z", "2023-04-01T11:15:00Z", "2023-04-01T11:15:00Z", "2023-04-01T11:15:00Z", "2023-04-01T11:15:00Z", "2023-04-01T11:15:00Z", "2023-04-01T11:15:00Z", "2023-04-01T11:15:00Z", "2023-04-01T11:15:00Z", "2023-04-01T10:51:00Z", "2023-04-01T11:15:00Z", "2023-04-01T11:15:00Z", "2023-04-01T11:10:00Z", "2023-04-01T11:15:00Z", "2023-04-01T11:15:00Z", "2023-04-01T11:18:00Z", "2023-04-01T11:15:00Z", "2023-04-01T11:15:00Z", "2023-04-01T11:15:00Z", "2023-04-01T11:10:00Z", "2023-04-01T11:15:00Z", "2023-04-01T11:15:00Z", "2023-04-01T11:20:00Z", "2023-04-01T11:15:00Z", "2023-04-01T11:10:00Z", "2023-04-01T11:15:00Z", "2023-04-01T10:56:00Z", "2023-04-01T11:15:00Z", "2023-04-01T11:15:00Z", "2023-04-01T11:15:00Z", "2023-04-01T11:15:00Z", "2023-04-01T10:55:00Z", "2023-04-01T11:15:00Z", "2023-04-01T11:10:00Z", "2023-04-01T11:15:00Z", "2023-04-01T11:15:00Z", "2023-04-01T11:15:00Z", "2023-04-01T10:53:00Z", "2023-04-01T10:54:00Z", "2023-04-01T11:15:00Z", "2023-04-01T10:55:00Z", "2023-04-01T11:10:00Z", "2023-04-01T10:55:00Z", "2023-04-01T10:52:00Z", "2023-04-01T10:52:00Z", "2023-04-01T10:53:00Z", "2023-04-01T10:53:00Z", "2023-04-01T11:15:00Z", "2023-04-01T11:15:00Z", "2023-04-01T11:19:00Z", "2023-04-01T11:15:00Z", "2023-04-01T11:15:00Z", "2023-04-01T10:51:00Z", "2023-04-01T10:53:00Z", "2023-04-01T11:01:00Z", "2023-04-01T11:05:00Z", "2023-04-01T11:17:00Z", "2023-04-01T10:56:00Z", "2023-04-01T10:53:00Z", "2023-04-01T11:10:00Z", "2023-04-01T11:15:00Z", "2023-04-01T10:47:00Z", "2023-04-01T11:15:00Z", "2023-04-01T11:15:00Z", "2023-04-01T11:19:00Z", "2023-04-01T11:15:00Z", "2023-04-01T11:15:00Z", "2023-04-01T11:15:00Z", "2023-04-01T10:53:00Z", "2023-04-01T11:00:00Z", "2023-04-01T10:56:00Z", "2023-04-01T11:15:00Z", "2023-04-01T10:52:00Z", "2023-04-01T11:10:00Z", "2023-04-01T11:09:00Z", "2023-04-01T10:53:00Z", "2023-04-01T10:53:00Z", "2023-04-01T11:15:00Z", "2023-04-01T11:15:00Z", "2023-04-01T10:53:00Z", "2023-04-01T10:51:00Z", "2023-04-01T11:15:00Z", "2023-04-01T10:59:00Z", "2023-04-01T11:15:00Z", "2023-04-01T11:15:00Z", "2023-04-01T11:15:00Z", "2023-04-01T11:15:00Z", "2023-04-01T11:15:00Z", "2023-04-01T10:56:00Z", "2023-04-01T11:15:00Z", "2023-04-01T11:15:00Z", "2023-04-01T11:15:00Z", "2023-04-01T10:54:00Z", "2023-04-01T10:53:00Z", "2023-04-01T10:54:00Z", "2023-04-01T10:54:00Z", "2023-04-01T10:57:00Z", "2023-04-01T10:53:00Z", "2023-04-01T10:56:00Z", "2023-04-01T11:15:00Z", "2023-04-01T11:15:00Z", "2023-04-01T11:17:00Z", "2023-04-01T10:52:00Z", "2023-04-01T11:17:00Z", "2023-04-01T10:53:00Z", "2023-04-01T10:53:00Z", "2023-04-01T11:15:00Z", "2023-04-01T10:53:00Z", "2023-04-01T11:25:00Z", "2023-04-01T10:56:00Z", "2023-04-01T11:15:00Z", "2023-04-01T11:26:00Z", "2023-04-01T11:10:00Z", "2023-04-01T11:15:00Z", "2023-04-01T11:15:00Z", "2023-04-01T10:53:00Z", "2023-04-01T11:24:00Z", "2023-04-01T10:53:00Z", "2023-04-01T10:54:00Z", "2023-04-01T10:53:00Z", "2023-04-01T10:54:00Z", "2023-04-01T11:19:00Z", "2023-04-01T11:15:00Z", "2023-04-01T11:15:00Z", "2023-04-01T11:13:00Z", "2023-04-01T11:13:00Z", "2023-04-01T11:11:00Z", "2023-04-01T11:15:00Z", "2023-04-01T10:53:00Z", "2023-04-01T10:53:00Z", "2023-04-01T10:56:00Z", "2023-04-01T11:15:00Z", "2023-04-01T11:14:00Z", "2023-04-01T11:18:00Z", "2023-04-01T11:15:00Z", "2023-04-01T11:15:00Z", "2023-04-01T10:53:00Z", "2023-04-01T10:53:00Z", "2023-04-01T10:48:00Z", "2023-04-01T11:14:00Z", "2023-04-01T11:05:00Z", "2023-04-01T11:15:00Z", "2023-04-01T11:15:00Z", "2023-04-01T11:23:00Z", "2023-04-01T11:15:00Z", "2023-04-01T10:53:00Z", "2023-04-01T11:15:00Z", "2023-04-01T10:52:00Z", "2023-04-01T11:15:00Z", "2023-04-01T11:15:00Z", "2023-04-01T10:51:00Z", "2023-04-01T10:45:00Z", "2023-04-01T10:53:00Z", "2023-04-01T11:23:00Z", "2023-04-01T11:15:00Z", "2023-04-01T11:17:00Z", "2023-04-01T11:15:00Z", "2023-04-01T10:53:00Z", "2023-04-01T10:53:00Z", "2023-04-01T11:23:00Z", "2023-04-01T11:15:00Z", "2023-04-01T11:20:00Z", "2023-04-01T11:17:00Z", "2023-04-01T10:54:00Z", "2023-04-01T11:15:00Z", "2023-04-01T10:51:00Z", "2023-04-01T11:15:00Z", "2023-04-01T10:53:00Z", "2023-04-01T10:56:00Z", "2023-04-01T11:15:00Z", "2023-04-01T11:15:00Z", "2023-04-01T10:53:00Z", "2023-04-01T11:15:00Z", "2023-04-01T11:15:00Z", "2023-04-01T11:15:00Z", "2023-04-01T11:15:00Z", "2023-04-01T11:15:00Z", "2023-04-01T11:15:00Z", "2023-04-01T10:53:00Z", "2023-04-01T10:55:00Z", "2023-04-01T11:15:00Z", "2023-04-01T10:55:00Z", "2023-04-01T11:23:00Z", "2023-04-01T10:45:00Z", "2023-04-01T11:15:00Z", "2023-04-01T10:52:00Z", "2023-04-01T11:15:00Z", "2023-04-01T10:51:00Z", "2023-04-01T11:15:00Z", "2023-04-01T11:15:00Z", "2023-04-01T11:15:00Z", "2023-04-01T11:15:00Z", "2023-04-01T10:53:00Z", "2023-04-01T11:15:00Z", "2023-04-01T10:53:00Z", "2023-04-01T11:15:00Z", "2023-04-01T10:57:00Z", "2023-04-01T10:53:00Z", "2023-04-01T10:53:00Z", "2023-04-01T11:15:00Z", "2023-04-01T11:15:00Z", "2023-04-01T11:19:00Z", "2023-04-01T11:15:00Z", "2023-04-01T11:15:00Z", "2023-04-01T11:15:00Z", "2023-04-01T11:15:00Z", "2023-04-01T11:15:00Z", "2023-04-01T10:59:00Z", "2023-04-01T10:53:00Z", "2023-04-01T10:53:00Z", "2023-04-01T10:53:00Z", "2023-04-01T10:53:00Z", "2023-04-01T10:54:00Z", "2023-04-01T11:09:00Z", "2023-04-01T11:15:00Z", "2023-04-01T10:51:00Z", "2023-04-01T11:15:00Z", "2023-04-01T11:15:00Z", "2023-04-01T10:53:00Z", "2023-04-01T10:53:00Z", "2023-04-01T10:56:00Z", "2023-04-01T11:15:00Z", "2023-04-01T10:51:00Z", "2023-04-01T11:20:00Z", "2023-04-01T10:56:00Z", "2023-04-01T11:15:00Z", "2023-04-01T10:55:00Z", "2023-04-01T10:56:00Z", "2023-04-01T10:53:00Z", "2023-04-01T10:52:00Z", "2023-04-01T10:53:00Z", "2023-04-01T11:20:00Z", "2023-04-01T11:15:00Z", "2023-04-01T11:15:00Z", "2023-04-01T10:56:00Z", "2023-04-01T10:52:00Z", "2023-04-01T11:15:00Z", "2023-04-01T10:53:00Z", "2023-04-01T10:58:00Z", "2023-04-01T10:53:00Z", "2023-04-01T11:15:00Z", "2023-04-01T11:15:00Z", "2023-04-01T11:15:00Z", "2023-04-01T10:53:00Z", "2023-04-01T10:58:00Z", "2023-04-01T10:56:00Z", "2023-04-01T11:13:00Z", "2023-04-01T10:53:00Z", "2023-04-01T11:18:00Z", "2023-04-01T10:52:00Z", "2023-04-01T10:55:00Z", "2023-04-01T11:15:00Z", "2023-04-01T10:53:00Z", "2023-04-01T10:56:00Z", "2023-04-01T10:52:00Z", "2023-04-01T10:53:00Z", "2023-04-01T11:15:00Z", "2023-04-01T10:53:00Z", "2023-04-01T11:15:00Z", "2023-04-01T11:23:00Z", "2023-04-01T11:15:00Z", "2023-04-01T10:53:00Z", "2023-04-01T11:21:00Z", "2023-04-01T11:10:00Z", "2023-04-01T11:30:00Z", "2023-04-01T11:15:00Z", "2023-04-01T11:15:00Z", "2023-04-01T10:53:00Z", "2023-04-01T10:53:00Z", "2023-04-01T10:53:00Z", "2023-04-01T11:15:00Z", "2023-04-01T11:15:00Z", "2023-04-01T11:15:00Z", "2023-04-01T10:53:00Z", "2023-04-01T11:15:00Z", "2023-04-01T10:53:00Z", "2023-04-01T10:53:00Z", "2023-04-01T11:15:00Z", "2023-04-01T11:15:00Z", "2023-04-01T10:53:00Z", "2023-04-01T10:53:00Z", "2023-04-01T11:15:00Z", "2023-04-01T10:56:00Z", "2023-04-01T10:53:00Z", "2023-04-01T11:23:00Z", "2023-04-01T10:54:00Z", "2023-04-01T10:53:00Z", "2023-04-01T11:15:00Z", "2023-04-01T10:54:00Z", "2023-04-01T11:15:00Z", "2023-04-01T11:15:00Z", "2023-04-01T10:53:00Z", "2023-04-01T11:15:00Z", "2023-04-01T11:15:00Z", "2023-04-01T10:56:00Z", "2023-04-01T11:17:00Z", "2023-04-01T11:15:00Z", "2023-04-01T10:53:00Z", "2023-04-01T10:54:00Z", "2023-04-01T11:15:00Z", "2023-04-01T11:15:00Z", "2023-04-01T11:15:00Z", "2023-04-01T11:15:00Z", "2023-04-01T10:53:00Z", "2023-04-01T10:53:00Z", "2023-04-01T11:15:00Z", "2023-04-01T10:55:00Z", "2023-04-01T11:15:00Z", "2023-04-01T10:56:00Z", "2023-04-01T11:15:00Z", "2023-04-01T11:15:00Z", "2023-04-01T11:15:00Z", "2023-04-01T11:15:00Z", "2023-04-01T11:15:00Z", "2023-04-01T11:15:00Z", "2023-04-01T11:15:00Z", "2023-04-01T11:15:00Z", "2023-04-01T11:15:00Z", "2023-04-01T11:17:00Z", "2023-04-01T10:53:00Z", "2023-04-01T10:51:00Z", "2023-04-01T10:55:00Z", "2023-04-01T10:54:00Z", "2023-04-01T11:15:00Z", "2023-04-01T11:05:00Z", "2023-04-01T11:15:00Z", "2023-04-01T11:15:00Z", "2023-04-01T10:55:00Z", "2023-04-01T11:15:00Z", "2023-04-01T11:15:00Z", "2023-04-01T11:15:00Z", "2023-04-01T10:53:00Z", "2023-04-01T11:15:00Z", "2023-04-01T11:15:00Z", "2023-04-01T11:15:00Z", "2023-04-01T10:53:00Z", "2023-04-01T11:15:00Z", "2023-04-01T11:15:00Z", "2023-04-01T10:51:00Z", "2023-04-01T10:53:00Z", "2023-04-01T10:53:00Z", "2023-04-01T10:53:00Z", "2023-04-01T11:15:00Z", "2023-04-01T11:25:00Z", "2023-04-01T10:54:00Z", "2023-04-01T11:04:00Z", "2023-04-01T11:15:00Z", "2023-04-01T10:53:00Z", "2023-04-01T11:15:00Z", "2023-04-01T11:15:00Z", "2023-04-01T11:15:00Z", "2023-04-01T11:15:00Z", "2023-04-01T11:15:00Z", "2023-04-01T10:52:00Z", "2023-04-01T11:15:00Z", "2023-04-01T11:05:00Z", "2023-04-01T10:45:00Z", "2023-04-01T10:53:00Z", "2023-04-01T11:10:00Z", "2023-04-01T10:56:00Z", "2023-04-01T10:53:00Z", "2023-04-01T11:15:00Z", "2023-04-01T10:53:00Z", "2023-04-01T10:56:00Z", "2023-04-01T11:15:00Z", "2023-04-01T11:16:00Z", "2023-04-01T11:15:00Z", "2023-04-01T11:15:00Z", "2023-04-01T11:19:00Z", "2023-04-01T11:15:00Z", "2023-04-01T10:53:00Z", "2023-04-01T11:16:00Z", "2023-04-01T11:15:00Z", "2023-04-01T10:55:00Z", "2023-04-01T11:15:00Z", "2023-04-01T11:15:00Z", "2023-04-01T11:15:00Z", "2023-04-01T10:52:00Z", "2023-04-01T11:15:00Z", "2023-04-01T10:51:00Z", "2023-04-01T11:15:00Z", "2023-04-01T11:15:00Z", "2023-04-01T10:59:00Z", "2023-04-01T10:53:00Z", "2023-04-01T11:15:00Z", "2023-04-01T10:52:00Z", "2023-04-01T11:15:00Z", "2023-04-01T10:55:00Z", "2023-04-01T11:15:00Z", "2023-04-01T10:51:00Z", "2023-04-01T11:27:00Z", "2023-04-01T11:15:00Z", "2023-04-01T10:53:00Z", "2023-04-01T10:55:00Z", "2023-04-01T11:15:00Z", "2023-04-01T11:15:00Z", "2023-04-01T11:15:00Z", "2023-04-01T10:55:00Z", "2023-04-01T10:53:00Z", "2023-04-01T10:53:00Z", "2023-04-01T10:52:00Z", "2023-04-01T10:53:00Z", "2023-04-01T10:56:00Z", "2023-04-01T11:16:00Z", "2023-04-01T10:55:00Z", "2023-04-01T11:15:00Z", "2023-04-01T11:08:00Z", "2023-04-01T11:15:00Z", "2023-04-01T10:54:00Z", "2023-04-01T11:18:00Z", "2023-04-01T10:54:00Z", "2023-04-01T11:10:00Z", "2023-04-01T11:15:00Z", "2023-04-01T10:53:00Z", "2023-04-01T10:53:00Z", "2023-04-01T11:15:00Z", "2023-04-01T11:15:00Z", "2023-04-01T11:15:00Z", "2023-04-01T10:53:00Z", "2023-04-01T11:15:00Z", "2023-04-01T11:16:00Z", "2023-04-01T10:47:00Z", "2023-04-01T11:15:00Z", "2023-04-01T11:15:00Z", "2023-04-01T10:53:00Z", "2023-04-01T10:53:00Z", "2023-04-01T11:10:00Z", "2023-04-01T10:53:00Z", "2023-04-01T10:53:00Z", "2023-04-01T10:54:00Z", "2023-04-01T11:15:00Z", "2023-04-01T11:17:00Z", "2023-04-01T10:53:00Z", "2023-04-01T11:15:00Z", "2023-04-01T10:53:00Z", "2023-04-01T10:56:00Z", "2023-04-01T11:15:00Z", "2023-04-01T11:15:00Z", "2023-04-01T11:05:00Z", "2023-04-01T10:53:00Z", "2023-04-01T11:15:00Z", "2023-04-01T11:20:00Z", "2023-04-01T10:53:00Z", "2023-04-01T11:15:00Z", "2023-04-01T10:52:00Z", "2023-04-01T11:15:00Z", "2023-04-01T10:56:00Z", "2023-04-01T10:56:00Z", "2023-04-01T10:55:00Z", "2023-04-01T11:15:00Z", "2023-04-01T11:20:00Z", "2023-04-01T11:15:00Z", "2023-04-01T11:00:00Z", "2023-04-01T10:56:00Z", "2023-04-01T10:55:00Z", "2023-04-01T11:15:00Z", "2023-04-01T11:15:00Z", "2023-04-01T11:25:00Z", "2023-04-01T11:15:00Z", "2023-04-01T11:15:00Z", "2023-04-01T11:15:00Z", "2023-04-01T10:56:00Z", "2023-04-01T11:15:00Z", "2023-04-01T10:53:00Z", "2023-04-01T11:15:00Z", "2023-04-01T11:15:00Z", "2023-04-01T10:56:00Z", "2023-04-01T11:15:00Z", "2023-04-01T11:15:00Z", "2023-04-01T11:15:00Z", "2023-04-01T11:15:00Z", "2023-04-01T11:15:00Z", "2023-04-01T11:15:00Z", "2023-04-01T11:15:00Z", "2023-04-01T11:21:00Z", "2023-04-01T10:53:00Z", "2023-04-01T10:50:00Z", "2023-04-01T10:53:00Z", "2023-04-01T10:53:00Z", "2023-04-01T11:20:00Z", "2023-04-01T10:56:00Z", "2023-04-01T10:40:00Z", "2023-04-01T11:14:00Z", "2023-04-01T11:22:00Z", "2023-04-01T10:53:00Z", "2023-04-01T11:15:00Z", "2023-04-01T10:52:00Z", "2023-04-01T11:19:00Z", "2023-04-01T10:54:00Z", "2023-04-01T11:10:00Z", "2023-04-01T11:15:00Z", "2023-04-01T10:53:00Z", "2023-04-01T10:53:00Z", "2023-04-01T10:53:00Z", "2023-04-01T11:15:00Z", "2023-04-01T10:53:00Z", "2023-04-01T10:53:00Z", "2023-04-01T10:53:00Z", "2023-04-01T11:17:00Z", "2023-04-01T10:53:00Z", "2023-04-01T11:22:00Z", "2023-04-01T10:56:00Z", "2023-04-01T10:53:00Z", "2023-04-01T11:15:00Z", "2023-04-01T11:15:00Z", "2023-04-01T10:55:00Z", "2023-04-01T10:55:00Z", "2023-04-01T11:15:00Z", "2023-04-01T10:53:00Z", "2023-04-01T11:15:00Z", "2023-04-01T11:15:00Z", "2023-04-01T10:53:00Z", "2023-04-01T11:15:00Z", "2023-04-01T10:55:00Z", "2023-04-01T10:54:00Z", "2023-04-01T10:53:00Z", "2023-04-01T10:53:00Z", "2023-04-01T11:05:00Z", "2023-04-01T11:15:00Z", "2023-04-01T10:53:00Z", "2023-04-01T11:15:00Z", "2023-04-01T11:15:00Z", "2023-04-01T10:55:00Z", "2023-04-01T11:25:00Z", "2023-04-01T11:05:00Z", "2023-04-01T11:15:00Z", "2023-04-01T10:53:00Z", "2023-04-01T11:15:00Z", "2023-04-01T11:15:00Z", "2023-04-01T10:53:00Z", "2023-04-01T10:53:00Z", "2023-04-01T11:20:00Z", "2023-04-01T10:54:00Z", "2023-04-01T10:54:00Z", "2023-04-01T11:15:00Z", "2023-04-01T11:15:00Z", "2023-04-01T10:53:00Z", "2023-04-01T10:53:00Z", "2023-04-01T11:05:00Z", "2023-04-01T10:53:00Z", "2023-04-01T11:15:00Z", "2023-04-01T11:21:00Z", "2023-04-01T11:10:00Z", "2023-04-01T10:56:00Z", "2023-04-01T11:15:00Z", "2023-04-01T10:53:00Z", "2023-04-01T11:15:00Z", "2023-04-01T11:10:00Z", "2023-04-01T10:56:00Z", "2023-04-01T11:09:00Z", "2023-04-01T11:15:00Z", "2023-04-01T11:13:00Z", "2023-04-01T10:53:00Z", "2023-04-01T11:15:00Z", "2023-04-01T11:23:00Z", "2023-04-01T10:56:00Z", "2023-04-01T11:15:00Z", "2023-04-01T10:53:00Z", "2023-04-01T11:15:00Z", "2023-04-01T11:15:00Z", "2023-04-01T10:54:00Z", "2023-04-01T10:56:00Z", "2023-04-01T10:55:00Z", "2023-04-01T11:15:00Z", "2023-04-01T11:15:00Z", "2023-04-01T11:15:00Z", "2023-04-01T11:15:00Z", "2023-04-01T11:15:00Z", "2023-04-01T11:15:00Z", "2023-04-01T11:15:00Z", "2023-04-01T11:15:00Z", "2023-04-01T11:10:00Z", "2023-04-01T10:56:00Z", "2023-04-01T10:55:00Z", "2023-04-01T11:11:00Z", "2023-04-01T11:15:00Z", "2023-04-01T11:15:00Z", "2023-04-01T11:15:00Z", "2023-04-01T10:54:00Z", "2023-04-01T10:53:00Z", "2023-04-01T11:15:00Z", "2023-04-01T11:15:00Z", "2023-04-01T10:55:00Z", "2023-04-01T11:10:00Z", "2023-04-01T11:15:00Z", "2023-04-01T11:15:00Z", "2023-04-01T11:15:00Z", "2023-04-01T10:55:00Z", "2023-04-01T10:56:00Z", "2023-04-01T11:24:00Z", "2023-04-01T10:53:00Z", "2023-04-01T10:54:00Z", "2023-04-01T10:54:00Z", "2023-04-01T11:15:00Z", "2023-04-01T11:15:00Z", "2023-04-01T10:56:00Z", "2023-04-01T11:20:00Z", "2023-04-01T11:15:00Z", "2023-04-01T11:15:00Z", "2023-04-01T11:15:00Z", "2023-04-01T11:15:00Z", "2023-04-01T10:56:00Z", "2023-04-01T11:15:00Z", "2023-04-01T11:15:00Z", "2023-04-01T11:15:00Z", "2023-04-01T10:51:00Z", "2023-04-01T10:56:00Z", "2023-04-01T10:56:00Z", "2023-04-01T11:15:00Z", "2023-04-01T11:15:00Z", "2023-04-01T11:28:00Z", "2023-04-01T11:15:00Z", "2023-04-01T10:53:00Z", "2023-04-01T11:15:00Z", "2023-04-01T11:23:00Z", "2023-04-01T10:53:00Z", "2023-04-01T11:15:00Z", "2023-04-01T10:51:00Z", "2023-04-01T10:53:00Z", "2023-04-01T10:56:00Z", "2023-04-01T11:15:00Z", "2023-04-01T10:53:00Z", "2023-04-01T11:15:00Z", "2023-04-01T10:55:00Z", "2023-04-01T11:15:00Z", "2023-04-01T10:56:00Z", "2023-04-01T10:53:00Z", "2023-04-01T10:55:00Z", "2023-04-01T11:15:00Z", "2023-04-01T10:53:00Z", "2023-04-01T11:15:00Z", "2023-04-01T10:53:00Z", "2023-04-01T10:51:00Z", "2023-04-01T11:15:00Z", "2023-04-01T11:15:00Z", "2023-04-01T11:21:00Z", "2023-04-01T11:11:00Z", "2023-04-01T10:50:00Z", "2023-04-01T10:52:00Z", "2023-04-01T11:15:00Z", "2023-04-01T11:00:00Z", "2023-04-01T11:10:00Z", "2023-04-01T10:58:00Z", "2023-04-01T10:54:00Z", "2023-04-01T10:56:00Z", "2023-04-01T10:47:00Z", "2023-04-01T11:23:00Z", "2023-04-01T11:15:00Z", "2023-04-01T10:54:00Z", "2023-04-01T10:53:00Z", "2023-04-01T10:53:00Z", "2023-04-01T10:56:00Z", "2023-04-01T10:54:00Z", "2023-04-01T10:51:00Z", "2023-04-01T11:10:00Z", "2023-04-01T10:53:00Z", "2023-04-01T11:10:00Z", "2023-04-01T11:18:00Z", "2023-04-01T11:15:00Z", "2023-04-01T11:15:00Z", "2023-04-01T11:25:00Z", "2023-04-01T11:15:00Z", "2023-04-01T11:15:00Z", "2023-04-01T11:20:00Z", "2023-04-01T11:04:00Z", "2023-04-01T11:15:00Z", "2023-04-01T11:15:00Z", "2023-04-01T11:15:00Z", "2023-04-01T10:55:00Z", "2023-04-01T10:56:00Z", "2023-04-01T10:53:00Z", "2023-04-01T10:53:00Z", "2023-04-01T10:53:00Z", "2023-04-01T10:55:00Z", "2023-04-01T11:15:00Z", "2023-04-01T11:10:00Z", "2023-04-01T10:53:00Z", "2023-04-01T10:55:00Z", "2023-04-01T10:47:00Z", "2023-04-01T10:53:00Z", "2023-04-01T11:15:00Z", "2023-04-01T10:53:00Z", "2023-04-01T11:15:00Z", "2023-04-01T11:15:00Z", "2023-04-01T10:55:00Z", "2023-04-01T11:10:00Z", "2023-04-01T10:53:00Z", "2023-04-01T11:15:00Z", "2023-04-01T11:15:00Z", "2023-04-01T10:55:00Z", "2023-04-01T10:53:00Z", "2023-04-01T11:15:00Z", "2023-04-01T10:54:00Z", "2023-04-01T11:15:00Z", "2023-04-01T11:15:00Z", "2023-04-01T11:15:00Z", "2023-04-01T10:53:00Z", "2023-04-01T10:55:00Z", "2023-04-01T10:54:00Z", "2023-04-01T11:15:00Z", "2023-04-01T11:18:00Z", "2023-04-01T11:15:00Z", "2023-04-01T10:56:00Z", "2023-04-01T11:15:00Z", "2023-04-01T11:15:00Z", "2023-04-01T10:56:00Z", "2023-04-01T11:20:00Z", "2023-04-01T10:57:00Z", "2023-04-01T11:21:00Z", "2023-04-01T10:53:00Z", "2023-04-01T10:56:00Z", "2023-04-01T11:15:00Z", "2023-04-01T11:09:00Z", "2023-04-01T10:55:00Z", "2023-04-01T11:15:00Z", "2023-04-01T10:53:00Z", "2023-04-01T10:53:00Z", "2023-04-01T11:14:00Z", "2023-04-01T10:56:00Z", "2023-04-01T10:53:00Z", "2023-04-01T11:15:00Z", "2023-04-01T11:14:00Z", "2023-04-01T10:53:00Z", "2023-04-01T10:53:00Z", "2023-04-01T11:13:00Z", "2023-04-01T11:15:00Z", "2023-04-01T10:53:00Z", "2023-04-01T11:15:00Z", "2023-04-01T11:10:00Z", "2023-04-01T11:12:00Z", "2023-04-01T11:15:00Z", "2023-04-01T10:55:00Z", "2023-04-01T10:56:00Z", "2023-04-01T10:56:00Z", "2023-04-01T11:15:00Z", "2023-04-01T10:55:00Z", "2023-04-01T11:15:00Z", "2023-04-01T10:53:00Z", "2023-04-01T11:15:00Z", "2023-04-01T10:53:00Z", "2023-04-01T11:15:00Z", "2023-04-01T10:55:00Z", "2023-04-01T11:15:00Z", "2023-04-01T10:53:00Z", "2023-04-01T11:01:00Z", "2023-04-01T10:53:00Z", "2023-04-01T11:16:00Z", "2023-04-01T11:15:00Z", "2023-04-01T10:54:00Z", "2023-04-01T11:15:00Z", "2023-04-01T11:15:00Z", "2023-04-01T11:19:00Z", "2023-04-01T11:15:00Z", "2023-04-01T10:53:00Z", "2023-04-01T11:15:00Z", "2023-04-01T11:15:00Z", "2023-04-01T11:15:00Z", "2023-04-01T11:15:00Z", "2023-04-01T11:15:00Z", "2023-04-01T10:53:00Z", "2023-04-01T11:15:00Z", "2023-04-01T10:54:00Z", "2023-04-01T11:19:00Z", "2023-04-01T11:15:00Z", "2023-04-01T10:53:00Z", "2023-04-01T11:23:00Z", "2023-04-01T11:15:00Z", "2023-04-01T10:56:00Z", "2023-04-01T11:15:00Z", "2023-04-01T10:53:00Z", "2023-04-01T11:15:00Z", "2023-04-01T10:54:00Z", "2023-04-01T11:15:00Z", "2023-04-01T10:54:00Z", "2023-04-01T11:15:00Z", "2023-04-01T11:15:00Z", "2023-04-01T11:15:00Z", "2023-04-01T11:15:00Z", "2023-04-01T10:56:00Z", "2023-04-01T10:54:00Z", "2023-04-01T11:14:00Z", "2023-04-01T11:10:00Z", "2023-04-01T10:53:00Z", "2023-04-01T10:53:00Z", "2023-04-01T10:55:00Z", "2023-04-01T10:53:00Z", "2023-04-01T11:26:00Z", "2023-04-01T11:15:00Z", "2023-04-01T11:15:00Z", "2023-04-01T10:53:00Z", "2023-04-01T11:15:00Z", "2023-04-01T11:15:00Z", "2023-04-01T10:53:00Z", "2023-04-01T11:15:00Z", "2023-04-01T11:15:00Z", "2023-04-01T11:15:00Z", "2023-04-01T10:53:00Z", "2023-04-01T10:53:00Z", "2023-04-01T10:53:00Z", "2023-04-01T11:15:00Z", "2023-04-01T10:53:00Z", "2023-04-01T10:53:00Z", "2023-04-01T11:15:00Z", "2023-04-01T10:53:00Z", "2023-04-01T11:21:00Z", "2023-04-01T10:52:00Z", "2023-04-01T11:15:00Z", "2023-04-01T11:15:00Z", "2023-04-01T11:15:00Z", "2023-04-01T10:53:00Z", "2023-04-01T10:56:00Z", "2023-04-01T11:15:00Z", "2023-04-01T11:10:00Z", "2023-04-01T11:20:00Z", "2023-04-01T10:56:00Z", "2023-04-01T11:15:00Z", "2023-04-01T10:53:00Z", "2023-04-01T10:53:00Z", "2023-04-01T10:56:00Z", "2023-04-01T11:15:00Z", "2023-04-01T11:15:00Z", "2023-04-01T11:11:00Z", "2023-04-01T11:15:00Z", "2023-04-01T10:35:00Z", "2023-04-01T10:55:00Z", "2023-04-01T11:15:00Z", "2023-04-01T10:53:00Z", "2023-04-01T10:56:00Z", "2023-04-01T10:53:00Z", "2023-04-01T10:56:00Z", "2023-04-01T10:55:00Z", "2023-04-01T10:53:00Z", "2023-04-01T10:55:00Z", "2023-04-01T11:15:00Z", "2023-04-01T10:53:00Z", "2023-04-01T11:15:00Z", "2023-04-01T10:55:00Z", "2023-04-01T10:53:00Z", "2023-04-01T10:54:00Z", "2023-04-01T11:23:00Z", "2023-04-01T11:15:00Z", "2023-04-01T10:53:00Z", "2023-04-01T10:56:00Z", "2023-04-01T10:56:00Z", "2023-04-01T10:56:00Z", "2023-04-01T11:15:00Z", "2023-04-01T10:53:00Z", "2023-04-01T10:55:00Z", "2023-04-01T11:08:00Z", "2023-04-01T10:53:00Z", "2023-04-01T11:15:00Z", "2023-04-01T11:20:00Z", "2023-04-01T10:56:00Z", "2023-04-01T11:15:00Z", "2023-04-01T11:15:00Z", "2023-04-01T11:15:00Z", "2023-04-01T10:53:00Z", "2023-04-01T11:15:00Z", "2023-04-01T11:15:00Z", "2023-04-01T10:55:00Z", "2023-04-01T10:55:00Z", "2023-04-01T10:56:00Z", "2023-04-01T11:15:00Z", "2023-04-01T11:16:00Z", "2023-04-01T10:47:00Z", "2023-04-01T11:15:00Z", "2023-04-01T11:15:00Z", "2023-04-01T10:45:00Z", "2023-04-01T10:53:00Z", "2023-04-01T11:15:00Z", "2023-04-01T11:00:00Z", "2023-04-01T11:15:00Z", "2023-04-01T11:15:00Z", "2023-04-01T11:15:00Z", "2023-04-01T11:15:00Z", "2023-04-01T11:15:00Z", "2023-04-01T10:53:00Z", "2023-04-01T10:53:00Z", "2023-04-01T11:05:00Z", "2023-04-01T10:53:00Z", "2023-04-01T11:15:00Z", "2023-04-01T11:15:00Z", "2023-04-01T11:15:00Z", "2023-04-01T11:15:00Z", "2023-04-01T11:15:00Z", "2023-04-01T11:15:00Z", "2023-04-01T11:15:00Z", "2023-04-01T10:56:00Z", "2023-04-01T10:51:00Z", "2023-04-01T10:56:00Z", "2023-04-01T11:15:00Z", "2023-04-01T10:53:00Z", "2023-04-01T11:15:00Z", "2023-04-01T10:55:00Z", "2023-04-01T11:08:00Z", "2023-04-01T10:53:00Z", "2023-04-01T10:55:00Z", "2023-04-01T11:15:00Z", "2023-04-01T10:53:00Z", "2023-04-01T11:15:00Z", "2023-04-01T11:15:00Z", "2023-04-01T10:53:00Z", "2023-04-01T11:21:00Z", "2023-04-01T10:53:00Z", "2023-04-01T11:20:00Z", "2023-04-01T10:55:00Z", "2023-04-01T11:15:00Z", "2023-04-01T10:53:00Z", "2023-04-01T11:15:00Z", "2023-04-01T10:53:00Z", "2023-04-01T10:53:00Z", "2023-04-01T10:53:00Z", "2023-04-01T10:53:00Z", "2023-04-01T11:15:00Z", "2023-04-01T10:53:00Z", "2023-04-01T10:53:00Z", "2023-04-01T10:53:00Z", "2023-04-01T10:55:00Z", "2023-04-01T11:15:00Z", "2023-04-01T11:15:00Z", "2023-04-01T11:15:00Z", "2023-04-01T11:15:00Z", "2023-04-01T10:56:00Z", "2023-04-01T10:56:00Z", "2023-04-01T11:15:00Z", "2023-04-01T11:15:00Z", "2023-04-01T11:15:00Z", "2023-04-01T11:15:00Z", "2023-04-01T10:55:00Z", "2023-04-01T10:55:00Z", "2023-04-01T10:53:00Z", "2023-04-01T11:12:00Z", "2023-04-01T10:56:00Z", "2023-04-01T11:15:00Z", "2023-04-01T11:15:00Z", "2023-04-01T11:15:00Z", "2023-04-01T11:06:00Z", "2023-04-01T11:15:00Z", "2023-04-01T11:15:00Z", "2023-04-01T11:20:00Z", "2023-04-01T10:53:00Z", "2023-04-01T11:05:00Z", "2023-04-01T11:07:00Z", "2023-04-01T10:53:00Z", "2023-04-01T11:20:00Z", "2023-04-01T11:15:00Z", "2023-04-01T11:15:00Z", "2023-04-01T11:15:00Z", "2023-04-01T10:51:00Z", "2023-04-01T11:10:00Z", "2023-04-01T10:53:00Z", "2023-04-01T11:15:00Z", "2023-04-01T10:55:00Z", "2023-04-01T10:53:00Z", "2023-04-01T11:15:00Z", "2023-04-01T11:17:00Z", "2023-04-01T10:51:00Z", "2023-04-01T10:55:00Z", "2023-04-01T10:53:00Z", "2023-04-01T11:02:00Z", "2023-04-01T10:47:00Z", "2023-04-01T10:52:00Z", "2023-04-01T11:15:00Z", "2023-04-01T10:53:00Z", "2023-04-01T10:53:00Z", "2023-04-01T11:15:00Z", "2023-04-01T10:54:00Z", "2023-04-01T10:53:00Z", "2023-04-01T11:11:00Z", "2023-04-01T11:15:00Z", "2023-04-01T11:08:00Z", "2023-04-01T10:56:00Z", "2023-04-01T10:53:00Z", "2023-04-01T10:56:00Z", "2023-04-01T11:15:00Z", "2023-04-01T11:15:00Z", "2023-04-01T11:15:00Z", "2023-04-01T11:15:00Z", "2023-04-01T11:15:00Z", "2023-04-01T11:15:00Z", "2023-04-01T11:15:00Z", "2023-04-01T10:53:00Z", "2023-04-01T11:15:00Z", "2023-04-01T11:15:00Z", "2023-04-01T10:30:00Z", "2023-04-01T11:15:00Z", "2023-04-01T11:15:00Z", "2023-04-01T11:15:00Z", "2023-04-01T11:15:00Z", "2023-04-01T11:15:00Z", "2023-04-01T10:55:00Z", "2023-04-01T10:52:00Z", "2023-04-01T10:53:00Z", "2023-04-01T10:53:00Z", "2023-04-01T11:15:00Z", "2023-04-01T10:53:00Z", "2023-04-01T10:53:00Z", "2023-04-01T10:53:00Z", "2023-04-01T11:15:00Z", "2023-04-01T11:15:00Z", "2023-04-01T10:52:00Z", "2023-04-01T11:15:00Z", "2023-04-01T11:15:00Z", "2023-04-01T11:15:00Z", "2023-04-01T10:51:00Z", "2023-04-01T11:15:00Z", "2023-04-01T11:15:00Z", "2023-04-01T11:15:00Z", "2023-04-01T11:02:00Z", "2023-04-01T11:15:00Z", "2023-04-01T11:15:00Z", "2023-04-01T11:15:00Z", "2023-04-01T11:20:00Z", "2023-04-01T11:15:00Z", "2023-04-01T11:15:00Z", "2023-04-01T10:56:00Z", "2023-04-01T11:11:00Z", "2023-04-01T10:53:00Z", "2023-04-01T10:54:00Z", "2023-04-01T10:53:00Z", "2023-04-01T11:15:00Z", "2023-04-01T11:15:00Z", "2023-04-01T10:54:00Z", "2023-04-01T10:54:00Z", "2023-04-01T11:15:00Z", "2023-04-01T11:15:00Z", "2023-04-01T10:53:00Z", "2023-04-01T10:54:00Z", "2023-04-01T10:55:00Z", "2023-04-01T10:54:00Z", "2023-04-01T10:56:00Z", "2023-04-01T11:15:00Z", "2023-04-01T10:52:00Z", "2023-04-01T11:10:00Z", "2023-04-01T10:53:00Z", "2023-04-01T10:54:00Z", "2023-04-01T10:55:00Z", "2023-04-01T11:15:00Z", "2023-04-01T11:18:00Z", "2023-04-01T10:56:00Z", "2023-04-01T10:56:00Z", "2023-04-01T11:15:00Z", "2023-04-01T11:20:00Z", "2023-04-01T10:56:00Z", "2023-04-01T10:53:00Z", "2023-04-01T11:15:00Z", "2023-04-01T11:15:00Z", "2023-04-01T10:56:00Z", "2023-04-01T11:19:00Z", "2023-04-01T11:10:00Z", "2023-04-01T10:53:00Z", "2023-04-01T11:15:00Z", "2023-04-01T11:15:00Z", "2023-04-01T11:20:00Z", "2023-04-01T11:27:00Z", "2023-04-01T10:54:00Z", "2023-04-01T11:15:00Z", "2023-04-01T11:15:00Z", "2023-04-01T11:10:00Z", "2023-04-01T10:56:00Z", "2023-04-01T10:53:00Z", "2023-04-01T11:15:00Z", "2023-04-01T10:51:00Z", "2023-04-01T10:35:00Z", "2023-04-01T10:48:00Z", "2023-04-01T10:53:00Z", "2023-04-01T10:53:00Z", "2023-04-01T11:15:00Z", "2023-04-01T10:54:00Z", "2023-04-01T11:15:00Z", "2023-04-01T11:15:00Z", "2023-04-01T11:15:00Z", "2023-04-01T10:56:00Z", "2023-04-01T11:15:00Z", "2023-04-01T11:15:00Z", "2023-04-01T11:02:00Z", "2023-04-01T10:53:00Z", "2023-04-01T11:15:00Z", "2023-04-01T10:56:00Z", "2023-04-01T11:10:00Z", "2023-04-01T11:15:00Z", "2023-04-01T10:55:00Z", "2023-04-01T10:56:00Z", "2023-04-01T11:15:00Z", "2023-04-01T11:15:00Z", "2023-04-01T11:09:00Z", "2023-04-01T11:15:00Z", "2023-04-01T11:15:00Z", "2023-04-01T11:15:00Z", "2023-04-01T10:45:00Z", "2023-04-01T11:15:00Z", "2023-04-01T11:15:00Z", "2023-04-01T11:15:00Z", "2023-04-01T11:15:00Z", "2023-04-01T11:15:00Z", "2023-04-01T10:56:00Z", "2023-04-01T11:16:00Z", "2023-04-01T11:15:00Z", "2023-04-01T11:15:00Z", "2023-04-01T11:15:00Z", "2023-04-01T11:15:00Z", "2023-04-01T11:15:00Z", "2023-04-01T11:15:00Z", "2023-04-01T11:10:00Z", "2023-04-01T11:15:00Z", "2023-04-01T10:56:00Z", "2023-04-01T11:15:00Z", "2023-04-01T11:15:00Z", "2023-04-01T11:15:00Z", "2023-04-01T11:15:00Z", "2023-04-01T11:15:00Z", "2023-04-01T11:15:00Z", "2023-04-01T10:53:00Z", "2023-04-01T10:54:00Z", "2023-04-01T10:50:00Z", "2023-04-01T11:15:00Z", "2023-04-01T10:53:00Z", "2023-04-01T10:53:00Z", "2023-04-01T10:56:00Z", "2023-04-01T10:53:00Z", "2023-04-01T10:53:00Z", "2023-04-01T10:53:00Z", "2023-04-01T10:47:00Z", "2023-04-01T10:53:00Z", "2023-04-01T10:56:00Z", "2023-04-01T11:15:00Z", "2023-04-01T10:56:00Z", "2023-04-01T10:53:00Z", "2023-04-01T11:15:00Z", "2023-04-01T10:53:00Z", "2023-04-01T11:13:00Z", "2023-04-01T10:55:00Z", "2023-04-01T11:15:00Z", "2023-04-01T11:15:00Z", "2023-04-01T11:19:00Z", "2023-04-01T10:53:00Z", "2023-04-01T11:24:00Z", "2023-04-01T10:54:00Z", "2023-04-01T10:55:00Z", "2023-04-01T11:26:00Z", "2023-04-01T10:53:00Z", "2023-04-01T10:51:00Z", "2023-04-01T10:53:00Z", "2023-04-01T11:15:00Z", "2023-04-01T10:56:00Z", "2023-04-01T10:55:00Z", "2023-04-01T10:51:00Z", "2023-04-01T11:15:00Z", "2023-04-01T11:15:00Z", "2023-04-01T10:53:00Z", "2023-04-01T10:55:00Z", "2023-04-01T10:53:00Z", "2023-04-01T11:15:00Z", "2023-04-01T10:55:00Z", "2023-04-01T10:53:00Z", "2023-04-01T11:15:00Z", "2023-04-01T11:15:00Z", "2023-04-01T11:15:00Z", "2023-04-01T10:53:00Z", "2023-04-01T10:55:00Z", "2023-04-01T11:15:00Z", "2023-04-01T10:53:00Z", "2023-04-01T11:15:00Z", "2023-04-01T11:15:00Z", "2023-04-01T10:53:00Z", "2023-04-01T11:15:00Z", "2023-04-01T11:15:00Z", "2023-04-01T10:53:00Z", "2023-04-01T10:54:00Z", "2023-04-01T11:15:00Z", "2023-04-01T11:15:00Z", "2023-04-01T11:15:00Z", "2023-04-01T11:15:00Z", "2023-04-01T11:08:00Z", "2023-04-01T10:53:00Z", "2023-04-01T10:53:00Z", "2023-04-01T11:15:00Z", "2023-04-01T11:15:00Z", "2023-04-01T10:55:00Z", "2023-04-01T10:53:00Z", "2023-04-01T10:53:00Z", "2023-04-01T10:53:00Z", "2023-04-01T11:15:00Z", "2023-04-01T10:57:00Z", "2023-04-01T10:55:00Z", "2023-04-01T11:15:00Z", "2023-04-01T11:15:00Z", "2023-04-01T11:15:00Z", "2023-04-01T11:15:00Z", "2023-04-01T10:53:00Z", "2023-04-01T10:55:00Z", "2023-04-01T10:55:00Z", "2023-04-01T10:55:00Z", "2023-04-01T11:15:00Z", "2023-04-01T11:15:00Z", "2023-04-01T10:55:00Z", "2023-04-01T11:15:00Z", "2023-04-01T10:53:00Z", "2023-04-01T11:15:00Z", "2023-04-01T11:15:00Z", "2023-04-01T11:15:00Z", "2023-04-01T11:15:00Z", "2023-04-01T11:13:00Z", "2023-04-01T10:53:00Z", "2023-04-01T11:15:00Z", "2023-04-01T10:53:00Z", "2023-04-01T11:15:00Z", "2023-04-01T10:53:00Z", "2023-04-01T11:15:00Z", "2023-04-01T11:15:00Z", "2023-04-01T10:52:00Z", "2023-04-01T10:53:00Z", "2023-04-01T11:27:00Z", "2023-04-01T10:56:00Z", "2023-04-01T10:54:00Z", "2023-04-01T10:53:00Z", "2023-04-01T11:15:00Z", "2023-04-01T11:15:00Z", "2023-04-01T10:53:00Z", "2023-04-01T10:53:00Z", "2023-04-01T11:15:00Z", "2023-04-01T10:54:00Z", "2023-04-01T11:15:00Z", "2023-04-01T11:15:00Z", "2023-04-01T11:19:00Z", "2023-04-01T11:15:00Z", "2023-04-01T11:15:00Z", "2023-04-01T11:15:00Z", "2023-04-01T11:15:00Z", "2023-04-01T10:56:00Z", "2023-04-01T11:15:00Z", "2023-04-01T11:15:00Z", "2023-04-01T11:15:00Z", "2023-04-01T11:10:00Z", "2023-04-01T11:15:00Z", "2023-04-01T11:10:00Z", "2023-04-01T10:53:00Z", "2023-04-01T10:53:00Z", "2023-04-01T10:53:00Z", "2023-04-01T11:15:00Z", "2023-04-01T11:15:00Z", "2023-04-01T11:15:00Z", "2023-04-01T10:52:00Z", "2023-04-01T10:56:00Z", "2023-04-01T11:15:00Z", "2023-04-01T10:53:00Z", "2023-04-01T11:15:00Z", "2023-04-01T11:15:00Z", "2023-04-01T11:21:00Z", "2023-04-01T11:15:00Z", "2023-04-01T11:15:00Z", "2023-04-01T10:53:00Z", "2023-04-01T10:55:00Z", "2023-04-01T10:53:00Z", "2023-04-01T11:15:00Z", "2023-04-01T10:53:00Z", "2023-04-01T10:53:00Z", "2023-04-01T10:53:00Z", "2023-04-01T10:53:00Z", "2023-04-01T11:00:00Z", "2023-04-01T11:15:00Z", "2023-04-01T10:52:00Z", "2023-04-01T11:15:00Z", "2023-04-01T11:15:00Z", "2023-04-01T10:56:00Z", "2023-04-01T11:20:00Z", "2023-04-01T11:15:00Z", "2023-04-01T11:03:00Z", "2023-04-01T11:27:00Z", "2023-04-01T10:58:00Z", "2023-04-01T10:54:00Z", "2023-04-01T11:15:00Z", "2023-04-01T11:15:00Z", "2023-04-01T11:15:00Z", "2023-04-01T10:52:00Z", "2023-04-01T11:23:00Z", "2023-04-01T11:25:00Z", "2023-04-01T10:53:00Z", "2023-04-01T10:35:00Z", "2023-04-01T11:15:00Z", "2023-04-01T10:55:00Z", "2023-04-01T11:15:00Z", "2023-04-01T10:54:00Z", "2023-04-01T11:03:00Z", "2023-04-01T11:15:00Z", "2023-04-01T10:53:00Z", "2023-04-01T10:53:00Z", "2023-04-01T10:53:00Z", "2023-04-01T10:52:00Z", "2023-04-01T11:15:00Z", "2023-04-01T11:15:00Z", "2023-04-01T11:07:00Z", "2023-04-01T10:53:00Z", "2023-04-01T11:20:00Z", "2023-04-01T10:53:00Z", "2023-04-01T10:55:00Z", "2023-04-01T10:53:00Z", "2023-04-01T10:53:00Z", "2023-04-01T11:15:00Z", "2023-04-01T10:54:00Z", "2023-04-01T10:53:00Z", "2023-04-01T11:15:00Z", "2023-04-01T11:15:00Z", "2023-04-01T10:54:00Z", "2023-04-01T10:52:00Z", "2023-04-01T10:55:00Z", "2023-04-01T11:15:00Z", "2023-04-01T10:53:00Z", "2023-04-01T11:15:00Z", "2023-04-01T10:53:00Z", "2023-04-01T11:15:00Z", "2023-04-01T10:56:00Z", "2023-04-01T10:56:00Z", "2023-04-01T10:53:00Z", "2023-04-01T10:53:00Z", "2023-04-01T11:15:00Z", "2023-04-01T10:52:00Z", "2023-04-01T10:52:00Z", "2023-04-01T11:15:00Z", "2023-04-01T11:23:00Z", "2023-04-01T10:53:00Z", "2023-04-01T11:22:00Z", "2023-04-01T11:18:00Z", "2023-04-01T11:15:00Z", "2023-04-01T11:15:00Z", "2023-04-01T10:53:00Z", "2023-04-01T10:56:00Z", "2023-04-01T10:55:00Z", "2023-04-01T10:35:00Z", "2023-04-01T10:53:00Z", "2023-04-01T11:19:00Z", "2023-04-01T11:15:00Z", "2023-04-01T11:15:00Z", "2023-04-01T11:10:00Z", "2023-04-01T10:53:00Z", "2023-04-01T11:15:00Z", "2023-04-01T11:15:00Z", "2023-04-01T11:19:00Z", "2023-04-01T10:53:00Z", "2023-04-01T11:15:00Z", "2023-04-01T11:15:00Z", "2023-04-01T10:54:00Z", "2023-04-01T11:15:00Z", "2023-04-01T10:53:00Z", "2023-04-01T11:15:00Z", "2023-04-01T11:21:00Z", "2023-04-01T11:15:00Z", "2023-04-01T11:15:00Z", "2023-04-01T11:10:00Z", "2023-04-01T11:15:00Z", "2023-04-01T11:15:00Z", "2023-04-01T11:15:00Z", "2023-04-01T10:56:00Z", "2023-04-01T10:53:00Z", "2023-04-01T11:10:00Z", "2023-04-01T10:56:00Z", "2023-04-01T10:58:00Z", "2023-04-01T11:15:00Z", "2023-04-01T11:05:00Z", "2023-04-01T10:39:00Z", "2023-04-01T10:54:00Z", "2023-04-01T10:53:00Z", "2023-04-01T10:53:00Z", "2023-04-01T10:53:00Z", "2023-04-01T10:53:00Z", "2023-04-01T10:53:00Z", "2023-04-01T10:56:00Z", "2023-04-01T10:53:00Z", "2023-04-01T10:55:00Z", "2023-04-01T10:53:00Z", "2023-04-01T10:53:00Z", "2023-04-01T11:15:00Z", "2023-04-01T10:53:00Z", "2023-04-01T10:53:00Z", "2023-04-01T10:54:00Z", "2023-04-01T11:15:00Z", "2023-04-01T10:56:00Z", "2023-04-01T10:55:00Z", "2023-04-01T11:15:00Z", "2023-04-01T11:15:00Z", "2023-04-01T11:20:00Z", "2023-04-01T11:23:00Z", "2023-04-01T10:56:00Z", "2023-04-01T11:26:00Z", "2023-04-01T11:15:00Z", "2023-04-01T11:15:00Z", "2023-04-01T10:52:00Z", "2023-04-01T11:05:00Z", "2023-04-01T10:53:00Z", "2023-04-01T11:15:00Z", "2023-04-01T10:54:00Z", "2023-04-01T11:15:00Z", "2023-04-01T10:53:00Z", "2023-04-01T11:25:00Z", "2023-04-01T10:53:00Z", "2023-04-01T11:15:00Z", "2023-04-01T11:23:00Z", "2023-04-01T10:56:00Z", "2023-04-01T10:53:00Z", "2023-04-01T11:15:00Z", "2023-04-01T11:15:00Z", "2023-04-01T11:15:00Z", "2023-04-01T11:15:00Z", "2023-04-01T10:52:00Z", "2023-04-01T11:15:00Z", "2023-04-01T10:54:00Z", "2023-04-01T10:56:00Z", "2023-04-01T11:24:00Z", "2023-04-01T11:00:00Z", "2023-04-01T10:56:00Z", "2023-04-01T10:56:00Z", "2023-04-01T11:00:00Z", "2023-04-01T10:53:00Z", "2023-04-01T10:56:00Z", "2023-04-01T11:27:00Z", "2023-04-01T10:56:00Z", "2023-04-01T10:52:00Z", "2023-04-01T10:56:00Z", "2023-04-01T10:59:00Z", "2023-04-01T11:27:00Z", "2023-04-01T10:56:00Z", "2023-04-01T10:53:00Z", "2023-04-01T10:56:00Z", "2023-04-01T11:10:00Z", "2023-04-01T10:57:00Z", "2023-04-01T11:03:00Z", "2023-04-01T10:55:00Z", "2023-04-01T10:56:00Z", "2023-04-01T10:56:00Z", "2023-04-01T10:56:00Z", "2023-04-01T11:10:00Z", "2023-04-01T10:59:00Z", "2023-04-01T11:22:00Z", "2023-04-01T10:50:00Z", "2023-04-01T11:22:00Z", "2023-04-01T10:53:00Z", "2023-04-01T10:52:00Z", "2023-04-01T11:15:00Z", "2023-04-01T10:53:00Z", "2023-04-01T11:22:00Z", "2023-04-01T10:53:00Z", "2023-04-01T10:55:00Z", "2023-04-01T11:03:00Z", "2023-04-01T10:56:00Z", "2023-04-01T11:28:00Z", "2023-04-01T10:53:00Z", "2023-04-01T10:56:00Z", "2023-04-01T10:56:00Z", "2023-04-01T10:56:00Z", "2023-04-01T10:51:00Z", "2023-04-01T11:11:00Z", "2023-04-01T10:57:00Z", "2023-04-01T10:52:00Z", "2023-04-01T11:15:00Z", "2023-04-01T11:15:00Z", "2023-04-01T11:15:00Z", "2023-04-01T11:15:00Z", "2023-04-01T10:56:00Z", "2023-04-01T10:53:00Z", "2023-04-01T11:15:00Z", "2023-04-01T11:15:00Z", "2023-04-01T10:51:00Z", "2023-04-01T10:56:00Z", "2023-04-01T11:15:00Z", "2023-04-01T11:05:00Z", "2023-04-01T10:53:00Z", "2023-04-01T10:53:00Z", "2023-04-01T11:15:00Z", "2023-04-01T11:15:00Z", "2023-04-01T11:15:00Z", "2023-04-01T10:55:00Z", "2023-04-01T10:56:00Z", "2023-04-01T11:19:00Z", "2023-04-01T11:15:00Z", "2023-04-01T10:53:00Z", "2023-04-01T10:53:00Z", "2023-04-01T11:15:00Z", "2023-04-01T11:15:00Z", "2023-04-01T11:15:00Z", "2023-04-01T11:15:00Z", "2023-04-01T10:53:00Z", "2023-04-01T10:52:00Z", "2023-04-01T10:52:00Z", "2023-04-01T10:56:00Z", "2023-04-01T11:15:00Z", "2023-04-01T11:15:00Z", "2023-04-01T11:15:00Z", "2023-04-01T11:15:00Z", "2023-04-01T10:53:00Z", "2023-04-01T11:15:00Z", "2023-04-01T10:54:00Z", "2023-04-01T10:54:00Z", "2023-04-01T10:56:00Z", "2023-04-01T11:15:00Z", "2023-04-01T11:15:00Z", "2023-04-01T11:15:00Z", "2023-04-01T10:52:00Z", "2023-04-01T11:15:00Z", "2023-04-01T10:53:00Z", "2023-04-01T10:50:00Z", "2023-04-01T11:15:00Z", "2023-04-01T11:15:00Z", "2023-04-01T11:15:00Z", "2023-04-01T10:53:00Z", "2023-04-01T11:15:00Z", "2023-04-01T10:53:00Z", "2023-04-01T11:05:00Z", "2023-04-01T11:15:00Z", "2023-04-01T11:15:00Z", "2023-04-01T10:53:00Z", "2023-04-01T11:15:00Z", "2023-04-01T11:15:00Z", "2023-04-01T11:15:00Z", "2023-04-01T10:53:00Z", "2023-04-01T11:13:00Z", "2023-04-01T11:24:00Z", "2023-04-01T11:17:00Z", "2023-04-01T11:19:00Z", "2023-04-01T11:15:00Z", "2023-04-01T11:21:00Z", "2023-04-01T10:53:00Z", "2023-04-01T11:15:00Z", "2023-04-01T11:15:00Z", "2023-04-01T11:15:00Z", "2023-04-01T11:10:00Z", "2023-04-01T10:53:00Z", "2023-04-01T10:56:00Z", "2023-04-01T10:56:00Z", "2023-04-01T10:53:00Z", "2023-04-01T11:15:00Z", "2023-04-01T10:53:00Z", "2023-04-01T11:15:00Z", "2023-04-01T10:53:00Z", "2023-04-01T11:13:00Z", "2023-04-01T10:56:00Z", "2023-04-01T10:53:00Z", "2023-04-01T11:10:00Z", "2023-04-01T11:15:00Z", "2023-04-01T11:15:00Z", "2023-04-01T10:53:00Z", "2023-04-01T11:21:00Z", "2023-04-01T11:15:00Z", "2023-04-01T11:15:00Z", "2023-04-01T10:51:00Z", "2023-04-01T11:15:00Z", "2023-04-01T11:15:00Z", "2023-04-01T11:15:00Z", "2023-04-01T11:05:00Z", "2023-04-01T11:15:00Z", "2023-04-01T11:15:00Z", "2023-04-01T11:15:00Z", "2023-04-01T10:56:00Z", "2023-04-01T11:05:00Z", "2023-04-01T10:56:00Z", "2023-04-01T10:55:00Z", "2023-04-01T10:51:00Z", "2023-04-01T10:56:00Z", "2023-04-01T10:53:00Z", "2023-04-01T10:52:00Z", "2023-04-01T10:59:00Z", "2023-04-01T11:16:00Z", "2023-04-01T10:53:00Z", "2023-04-01T10:55:00Z", "2023-04-01T11:15:00Z", "2023-04-01T10:53:00Z", "2023-04-01T10:53:00Z", "2023-04-01T11:15:00Z", "2023-04-01T10:53:00Z", "2023-04-01T11:15:00Z", "2023-04-01T11:15:00Z", "2023-04-01T11:15:00Z", "2023-04-01T11:15:00Z", "2023-04-01T11:15:00Z", "2023-04-01T11:15:00Z", "2023-04-01T11:01:00Z", "2023-04-01T10:53:00Z", "2023-04-01T10:53:00Z", "2023-04-01T11:15:00Z", "2023-04-01T10:53:00Z", "2023-04-01T11:15:00Z", "2023-04-01T11:15:00Z", "2023-04-01T11:15:00Z", "2023-04-01T10:53:00Z", "2023-04-01T10:53:00Z", "2023-04-01T11:05:00Z", "2023-04-01T10:53:00Z", "2023-04-01T10:54:00Z", "2023-04-01T11:24:00Z", "2023-04-01T11:15:00Z", "2023-04-01T10:55:00Z", "2023-04-01T11:15:00Z", "2023-04-01T10:51:00Z", "2023-04-01T10:54:00Z", "2023-04-01T10:56:00Z", "2023-04-01T10:53:00Z", "2023-04-01T10:53:00Z", "2023-04-01T10:53:00Z", "2023-04-01T11:15:00Z", "2023-04-01T10:53:00Z", "2023-04-01T10:51:00Z", "2023-04-01T11:15:00Z", "2023-04-01T10:53:00Z", "2023-04-01T10:53:00Z", "2023-04-01T11:15:00Z", "2023-04-01T10:54:00Z", "2023-04-01T11:15:00Z", "2023-04-01T11:15:00Z", "2023-04-01T10:53:00Z", "2023-04-01T11:15:00Z", "2023-04-01T10:53:00Z", "2023-04-01T11:15:00Z", "2023-04-01T11:15:00Z", "2023-04-01T11:15:00Z", "2023-04-01T10:53:00Z", "2023-04-01T10:54:00Z", "2023-04-01T11:15:00Z", "2023-04-01T11:19:00Z", "2023-04-01T11:15:00Z", "2023-04-01T11:20:00Z", "2023-04-01T10:55:00Z", "2023-04-01T11:25:00Z", "2023-04-01T10:53:00Z", "2023-04-01T10:53:00Z", "2023-04-01T11:15:00Z", "2023-04-01T11:15:00Z", "2023-04-01T11:15:00Z", "2023-04-01T10:52:00Z", "2023-04-01T11:15:00Z", "2023-04-01T11:15:00Z", "2023-04-01T10:56:00Z", "2023-04-01T11:06:00Z", "2023-04-01T11:22:00Z", "2023-04-01T10:53:00Z", "2023-04-01T11:15:00Z", "2023-04-01T11:25:00Z", "2023-04-01T11:15:00Z", "2023-04-01T11:15:00Z", "2023-04-01T10:56:00Z", "2023-04-01T10:53:00Z", "2023-04-01T11:26:00Z", "2023-04-01T11:15:00Z", "2023-04-01T11:05:00Z", "2023-04-01T11:15:00Z", "2023-04-01T11:15:00Z", "2023-04-01T10:53:00Z", "2023-04-01T11:24:00Z", "2023-04-01T11:15:00Z", "2023-04-01T11:15:00Z", "2023-04-01T10:53:00Z", "2023-04-01T11:28:00Z", "2023-04-01T11:15:00Z", "2023-04-01T11:15:00Z", "2023-04-01T10:56:00Z", "2023-04-01T10:54:00Z", "2023-04-01T10:53:00Z", "2023-04-01T10:53:00Z", "2023-04-01T11:15:00Z", "2023-04-01T11:17:00Z", "2023-04-01T11:15:00Z", "2023-04-01T11:11:00Z", "2023-04-01T11:02:00Z", "2023-04-01T11:15:00Z", "2023-04-01T10:56:00Z", "2023-04-01T11:15:00Z", "2023-04-01T10:56:00Z", "2023-04-01T11:15:00Z", "2023-04-01T10:53:00Z", "2023-04-01T11:15:00Z", "2023-04-01T11:15:00Z", "2023-04-01T10:56:00Z", "2023-04-01T11:20:00Z", "2023-04-01T11:13:00Z", "2023-04-01T10:56:00Z", "2023-04-01T11:15:00Z", "2023-04-01T11:19:00Z", "2023-04-01T10:50:00Z", "2023-04-01T11:15:00Z", "2023-04-01T10:55:00Z", "2023-04-01T11:25:00Z", "2023-04-01T10:55:00Z", "2023-04-01T10:55:00Z", "2023-04-01T11:30:00Z", "2023-04-01T11:20:00Z", "2023-04-01T11:30:00Z", "2023-04-01T11:30:00Z", "2023-04-01T11:30:00Z", "2023-04-01T11:20:00Z", "2023-04-01T11:20:00Z", "2023-04-01T11:20:00Z", "2023-04-01T11:30:00Z", "2023-04-01T11:20:00Z", "2023-04-01T11:20:00Z", "2023-04-01T11:20:00Z", "2023-04-01T11:20:00Z", "2023-04-01T11:30:00Z", "2023-04-01T11:30:00Z", "2023-04-01T11:20:00Z", "2023-04-01T11:30:00Z", "2023-04-01T11:19:00Z", "2023-04-01T10:55:00Z", "2023-04-01T10:55:00Z", "2023-04-01T10:55:00Z", "2023-04-01T10:55:00Z", "2023-04-01T10:53:00Z", "2023-04-01T10:53:00Z", "2023-04-01T10:52:00Z", "2023-04-01T11:15:00Z", "2023-04-01T11:15:00Z", "2023-04-01T10:53:00Z", "2023-04-01T11:09:00Z", "2023-04-01T10:54:00Z", "2023-04-01T11:15:00Z", "2023-04-01T11:15:00Z", "2023-04-01T10:55:00Z", "2023-04-01T10:55:00Z", "2023-04-01T11:15:00Z", "2023-04-01T11:15:00Z", "2023-04-01T11:15:00Z", "2023-04-01T11:15:00Z", "2023-04-01T11:15:00Z", "2023-04-01T10:53:00Z", "2023-04-01T10:54:00Z", "2023-04-01T11:15:00Z", "2023-04-01T11:16:00Z", "2023-04-01T10:55:00Z", "2023-04-01T10:51:00Z", "2023-04-01T11:15:00Z", "2023-04-01T10:52:00Z", "2023-04-01T11:15:00Z", "2023-04-01T11:15:00Z", "2023-04-01T11:15:00Z", "2023-04-01T11:15:00Z", "2023-04-01T10:53:00Z", "2023-04-01T11:16:00Z", "2023-04-01T10:54:00Z", "2023-04-01T11:15:00Z", "2023-04-01T10:53:00Z", "2023-04-01T10:55:00Z", "2023-04-01T10:53:00Z", "2023-04-01T10:56:00Z", "2023-04-01T11:08:00Z", "2023-04-01T11:15:00Z", "2023-04-01T10:54:00Z", "2023-04-01T11:15:00Z", "2023-04-01T11:15:00Z", "2023-04-01T10:53:00Z", "2023-04-01T11:23:00Z", "2023-04-01T11:15:00Z", "2023-04-01T11:15:00Z", "2023-04-01T11:15:00Z", "2023-04-01T10:55:00Z", "2023-04-01T11:15:00Z", "2023-04-01T11:23:00Z", "2023-04-01T10:55:00Z", "2023-04-01T11:15:00Z", "2023-04-01T10:53:00Z", "2023-04-01T11:01:00Z", "2023-04-01T10:54:00Z", "2023-04-01T10:58:00Z", "2023-04-01T11:15:00Z", "2023-04-01T10:51:00Z", "2023-04-01T11:15:00Z", "2023-04-01T11:15:00Z", "2023-04-01T11:15:00Z", "2023-04-01T11:15:00Z", "2023-04-01T11:01:00Z", "2023-04-01T11:15:00Z", "2023-04-01T10:53:00Z", "2023-04-01T11:15:00Z", "2023-04-01T11:15:00Z", "2023-04-01T10:53:00Z", "2023-04-01T11:15:00Z", "2023-04-01T11:25:00Z", "2023-04-01T10:54:00Z", "2023-04-01T10:53:00Z", "2023-04-01T10:53:00Z", "2023-04-01T11:15:00Z", "2023-04-01T10:53:00Z", "2023-04-01T11:15:00Z", "2023-04-01T11:05:00Z", "2023-04-01T10:56:00Z", "2023-04-01T11:15:00Z", "2023-04-01T11:15:00Z", "2023-04-01T11:15:00Z", "2023-04-01T10:53:00Z", "2023-04-01T10:53:00Z", "2023-04-01T11:14:00Z", "2023-04-01T10:53:00Z", "2023-04-01T11:15:00Z", "2023-04-01T10:53:00Z", "2023-04-01T10:55:00Z", "2023-04-01T11:15:00Z", "2023-04-01T11:15:00Z", "2023-04-01T10:50:00Z", "2023-04-01T11:15:00Z", "2023-04-01T11:15:00Z", "2023-04-01T11:15:00Z", "2023-04-01T11:15:00Z", "2023-04-01T11:15:00Z", "2023-04-01T11:15:00Z", "2023-04-01T11:15:00Z", "2023-04-01T11:15:00Z", "2023-04-01T11:15:00Z", "2023-04-01T10:55:00Z", "2023-04-01T11:15:00Z", "2023-04-01T11:15:00Z", "2023-04-01T11:10:00Z", "2023-04-01T11:15:00Z", "2023-04-01T10:51:00Z", "2023-04-01T10:53:00Z", "2023-04-01T10:51:00Z", "2023-04-01T11:15:00Z", "2023-04-01T10:51:00Z", "2023-04-01T10:53:00Z", "2023-04-01T10:47:00Z", "2023-04-01T11:15:00Z", "2023-04-01T10:53:00Z", "2023-04-01T11:20:00Z", "2023-04-01T11:25:00Z", "2023-04-01T10:54:00Z", "2023-04-01T11:15:00Z", "2023-04-01T10:56:00Z", "2023-04-01T11:15:00Z", "2023-04-01T10:54:00Z", "2023-04-01T11:15:00Z", "2023-04-01T10:55:00Z", "2023-04-01T11:05:00Z", "2023-04-01T11:15:00Z", "2023-04-01T11:15:00Z", "2023-04-01T10:51:00Z", "2023-04-01T11:15:00Z", "2023-04-01T10:56:00Z", "2023-04-01T10:53:00Z", "2023-04-01T10:53:00Z", "2023-04-01T10:56:00Z", "2023-04-01T11:00:00Z", "2023-04-01T11:15:00Z", "2023-04-01T11:15:00Z", "2023-04-01T10:53:00Z", "2023-04-01T11:15:00Z", "2023-04-01T11:15:00Z", "2023-04-01T10:55:00Z", "2023-04-01T10:54:00Z", "2023-04-01T11:15:00Z", "2023-04-01T10:53:00Z", "2023-04-01T11:08:00Z", "2023-04-01T11:13:00Z", "2023-04-01T10:56:00Z", "2023-04-01T11:15:00Z", "2023-04-01T11:10:00Z", "2023-04-01T10:52:00Z", "2023-04-01T10:56:00Z", "2023-04-01T10:56:00Z", "2023-04-01T11:23:00Z", "2023-04-01T10:56:00Z", "2023-04-01T10:56:00Z", "2023-04-01T11:15:00Z", "2023-04-01T11:15:00Z", "2023-04-01T10:55:00Z", "2023-04-01T11:19:00Z", "2023-04-01T10:53:00Z", "2023-04-01T10:56:00Z", "2023-04-01T11:05:00Z", "2023-04-01T11:15:00Z", "2023-04-01T10:53:00Z", "2023-04-01T10:53:00Z", "2023-04-01T11:15:00Z", "2023-04-01T10:51:00Z", "2023-04-01T11:15:00Z", "2023-04-01T11:15:00Z", "2023-04-01T10:55:00Z", "2023-04-01T10:56:00Z", "2023-04-01T11:15:00Z", "2023-04-01T10:54:00Z", "2023-04-01T10:56:00Z", "2023-04-01T10:56:00Z", "2023-04-01T11:15:00Z", "2023-04-01T10:55:00Z", "2023-04-01T10:51:00Z", "2023-04-01T10:53:00Z", "2023-04-01T11:15:00Z", "2023-04-01T11:15:00Z", "2023-04-01T11:15:00Z", "2023-04-01T11:15:00Z", "2023-04-01T10:53:00Z", "2023-04-01T10:56:00Z", "2023-04-01T10:51:00Z", "2023-04-01T11:22:00Z", "2023-04-01T10:53:00Z", "2023-04-01T11:15:00Z", "2023-04-01T10:51:00Z", "2023-04-01T10:53:00Z", "2023-04-01T11:15:00Z", "2023-04-01T11:15:00Z", "2023-04-01T11:15:00Z", "2023-04-01T10:53:00Z", "2023-04-01T10:51:00Z", "2023-04-01T10:53:00Z", "2023-04-01T11:15:00Z", "2023-04-01T10:56:00Z", "2023-04-01T11:15:00Z", "2023-04-01T11:15:00Z", "2023-04-01T10:53:00Z", "2023-04-01T10:56:00Z", "2023-04-01T11:15:00Z", "2023-04-01T10:53:00Z", "2023-04-01T10:52:00Z", "2023-04-01T11:15:00Z", "2023-04-01T10:52:00Z", "2023-04-01T10:53:00Z", "2023-04-01T11:15:00Z", "2023-04-01T11:15:00Z", "2023-04-01T10:56:00Z", "2023-04-01T11:15:00Z", "2023-04-01T10:53:00Z", "2023-04-01T11:15:00Z", "2023-04-01T10:55:00Z", "2023-04-01T10:53:00Z", "2023-04-01T10:53:00Z", "2023-04-01T10:53:00Z", "2023-04-01T11:15:00Z", "2023-04-01T11:15:00Z", "2023-04-01T10:53:00Z", "2023-04-01T11:15:00Z", "2023-04-01T10:51:00Z", "2023-04-01T10:53:00Z", "2023-04-01T10:53:00Z", "2023-04-01T10:47:00Z", "2023-04-01T10:56:00Z", "2023-04-01T11:15:00Z", "2023-04-01T10:54:00Z", "2023-04-01T11:10:00Z", "2023-04-01T10:55:00Z", "2023-04-01T11:15:00Z", "2023-04-01T10:52:00Z", "2023-04-01T11:15:00Z", "2023-04-01T11:15:00Z", "2023-04-01T11:15:00Z", "2023-04-01T11:05:00Z", "2023-04-01T11:05:00Z", "2023-04-01T10:53:00Z", "2023-04-01T11:15:00Z", "2023-04-01T11:15:00Z", "2023-04-01T10:55:00Z", "2023-04-01T10:56:00Z", "2023-04-01T11:15:00Z", "2023-04-01T11:15:00Z", "2023-04-01T11:15:00Z", "2023-04-01T11:15:00Z", "2023-04-01T11:15:00Z", "2023-04-01T10:54:00Z", "2023-04-01T10:55:00Z", "2023-04-01T11:15:00Z", "2023-04-01T11:15:00Z", "2023-04-01T11:15:00Z", "2023-04-01T11:15:00Z", "2023-04-01T11:15:00Z", "2023-04-01T11:15:00Z", "2023-04-01T10:55:00Z", "2023-04-01T11:15:00Z", "2023-04-01T11:15:00Z", "2023-04-01T11:15:00Z", "2023-04-01T11:15:00Z", "2023-04-01T10:54:00Z", "2023-04-01T10:52:00Z", "2023-04-01T11:15:00Z", "2023-04-01T10:55:00Z", "2023-04-01T11:15:00Z", "2023-04-01T10:53:00Z", "2023-04-01T11:27:00Z", "2023-04-01T10:55:00Z", "2023-04-01T10:53:00Z", "2023-04-01T11:15:00Z", "2023-04-01T11:05:00Z", "2023-04-01T11:11:00Z", "2023-04-01T10:53:00Z", "2023-04-01T10:51:00Z", "2023-04-01T11:15:00Z", "2023-04-01T11:15:00Z", "2023-04-01T10:35:00Z", "2023-04-01T11:15:00Z", "2023-04-01T10:55:00Z", "2023-04-01T10:53:00Z", "2023-04-01T11:15:00Z", "2023-04-01T10:55:00Z", "2023-04-01T11:15:00Z", "2023-04-01T11:15:00Z", "2023-04-01T10:50:00Z", "2023-04-01T11:15:00Z", "2023-04-01T10:53:00Z", "2023-04-01T11:15:00Z", "2023-04-01T11:15:00Z", "2023-04-01T11:10:00Z", "2023-04-01T11:15:00Z", "2023-04-01T10:53:00Z", "2023-04-01T11:10:00Z", "2023-04-01T11:15:00Z", "2023-04-01T11:15:00Z", "2023-04-01T11:15:00Z", "2023-04-01T11:15:00Z", "2023-04-01T11:15:00Z", "2023-04-01T11:17:00Z", "2023-04-01T10:52:00Z", "2023-04-01T10:53:00Z", "2023-04-01T10:53:00Z", "2023-04-01T10:53:00Z", "2023-04-01T11:15:00Z", "2023-04-01T10:56:00Z", "2023-04-01T10:51:00Z", "2023-04-01T10:54:00Z", "2023-04-01T11:15:00Z", "2023-04-01T11:15:00Z", "2023-04-01T11:15:00Z", "2023-04-01T11:09:00Z", "2023-04-01T10:47:00Z", "2023-04-01T10:53:00Z", "2023-04-01T10:52:00Z", "2023-04-01T11:15:00Z", "2023-04-01T11:05:00Z", "2023-04-01T10:53:00Z", "2023-04-01T11:15:00Z", "2023-04-01T10:53:00Z", "2023-04-01T10:55:00Z", "2023-04-01T10:53:00Z", "2023-04-01T10:53:00Z", "2023-04-01T10:53:00Z", "2023-04-01T10:53:00Z", "2023-04-01T10:56:00Z", "2023-04-01T11:15:00Z", "2023-04-01T11:15:00Z", "2023-04-01T10:53:00Z", "2023-04-01T10:53:00Z", "2023-04-01T11:15:00Z", "2023-04-01T10:53:00Z", "2023-04-01T11:15:00Z", "2023-04-01T11:15:00Z", "2023-04-01T10:53:00Z", "2023-04-01T11:15:00Z", "2023-04-01T11:15:00Z", "2023-04-01T11:15:00Z", "2023-04-01T10:53:00Z", "2023-04-01T10:53:00Z", "2023-04-01T11:15:00Z", "2023-04-01T11:15:00Z", "2023-04-01T11:15:00Z", "2023-04-01T11:15:00Z", "2023-04-01T11:15:00Z", "2023-04-01T11:15:00Z", "2023-04-01T11:27:00Z", "2023-04-01T11:15:00Z", "2023-04-01T10:56:00Z", "2023-04-01T11:10:00Z", "2023-04-01T10:56:00Z", "2023-04-01T10:45:00Z", "2023-04-01T10:51:00Z", "2023-04-01T10:53:00Z", "2023-04-01T10:54:00Z", "2023-04-01T11:05:00Z", "2023-04-01T10:56:00Z", "2023-04-01T11:15:00Z", "2023-04-01T11:15:00Z", "2023-04-01T11:15:00Z", "2023-04-01T11:10:00Z", "2023-04-01T11:15:00Z", "2023-04-01T10:53:00Z", "2023-04-01T11:15:00Z", "2023-04-01T10:53:00Z", "2023-04-01T11:15:00Z", "2023-04-01T11:15:00Z", "2023-04-01T11:15:00Z", "2023-04-01T11:02:00Z", "2023-04-01T11:02:00Z", "2023-04-01T11:15:00Z", "2023-04-01T11:15:00Z", "2023-04-01T11:15:00Z", "2023-04-01T11:15:00Z", "2023-04-01T10:54:00Z", "2023-04-01T10:55:00Z", "2023-04-01T11:15:00Z", "2023-04-01T10:54:00Z", "2023-04-01T11:25:00Z", "2023-04-01T10:56:00Z", "2023-04-01T11:15:00Z", "2023-04-01T10:53:00Z", "2023-04-01T11:27:00Z", "2023-04-01T11:15:00Z", "2023-04-01T11:15:00Z", "2023-04-01T11:15:00Z", "2023-04-01T10:53:00Z", "2023-04-01T11:15:00Z", "2023-04-01T11:10:00Z", "2023-04-01T11:15:00Z", "2023-04-01T10:53:00Z", "2023-04-01T11:15:00Z", "2023-04-01T10:53:00Z", "2023-04-01T10:56:00Z", "2023-04-01T11:15:00Z", "2023-04-01T11:15:00Z", "2023-04-01T11:15:00Z", "2023-04-01T10:53:00Z", "2023-04-01T11:15:00Z", "2023-04-01T11:15:00Z", "2023-04-01T11:15:00Z", "2023-04-01T10:51:00Z", "2023-04-01T11:25:00Z", "2023-04-01T10:55:00Z", "2023-04-01T11:15:00Z", "2023-04-01T11:15:00Z", "2023-04-01T10:56:00Z", "2023-04-01T10:50:00Z", "2023-04-01T10:53:00Z", "2023-04-01T11:13:00Z", "2023-04-01T10:54:00Z", "2023-04-01T11:15:00Z", "2023-04-01T10:52:00Z", "2023-04-01T11:15:00Z", "2023-04-01T11:05:00Z", "2023-04-01T10:53:00Z", "2023-04-01T11:15:00Z", "2023-04-01T11:15:00Z", "2023-04-01T11:15:00Z", "2023-04-01T11:15:00Z", "2023-04-01T11:15:00Z", "2023-04-01T11:05:00Z", "2023-04-01T11:05:00Z", "2023-04-01T11:15:00Z", "2023-04-01T11:15:00Z", "2023-04-01T11:15:00Z", "2023-04-01T11:15:00Z", "2023-04-01T11:15:00Z", "2023-04-01T11:02:00Z", "2023-04-01T11:12:00Z", "2023-04-01T11:15:00Z", "2023-04-01T11:15:00Z", "2023-04-01T11:15:00Z", "2023-04-01T10:56:00Z", "2023-04-01T10:54:00Z", "2023-04-01T10:56:00Z", "2023-04-01T10:55:00Z", "2023-04-01T11:05:00Z", "2023-04-01T10:53:00Z", "2023-04-01T11:24:00Z", "2023-04-01T10:53:00Z", "2023-04-01T11:10:00Z", "2023-04-01T10:56:00Z", "2023-04-01T11:15:00Z", "2023-04-01T11:15:00Z", "2023-04-01T11:15:00Z", "2023-04-01T11:15:00Z", "2023-04-01T11:15:00Z", "2023-04-01T11:15:00Z", "2023-04-01T10:55:00Z", "2023-04-01T10:53:00Z", "2023-04-01T10:55:00Z", "2023-04-01T11:15:00Z", "2023-04-01T11:15:00Z", "2023-04-01T11:13:00Z", "2023-04-01T10:51:00Z", "2023-04-01T11:15:00Z", "2023-04-01T11:15:00Z", "2023-04-01T11:15:00Z", "2023-04-01T11:15:00Z", "2023-04-01T10:56:00Z", "2023-04-01T11:15:00Z", "2023-04-01T11:15:00Z", "2023-04-01T11:15:00Z", "2023-04-01T10:53:00Z", "2023-04-01T10:53:00Z", "2023-04-01T10:56:00Z", "2023-04-01T10:51:00Z", "2023-04-01T11:15:00Z", "2023-04-01T11:15:00Z", "2023-04-01T10:53:00Z", "2023-04-01T11:20:00Z", "2023-04-01T11:00:00Z", "2023-04-01T11:00:00Z", "2023-04-01T11:00:00Z", "2023-04-01T11:00:00Z", "2023-04-01T11:00:00Z", "2023-04-01T11:00:00Z", "2023-04-01T11:00:00Z", "2023-04-01T11:00:00Z", "2023-04-01T11:20:00Z", "2023-04-01T11:00:00Z", "2023-04-01T11:00:00Z", "2023-04-01T11:20:00Z", "2023-04-01T11:00:00Z", "2023-04-01T11:00:00Z", "2023-04-01T11:00:00Z", "2023-04-01T11:00:00Z", "2023-04-01T11:00:00Z", "2023-04-01T11:00:00Z", "2023-04-01T11:00:00Z", "2023-04-01T11:00:00Z", "2023-04-01T11:00:00Z", "2023-04-01T11:00:00Z", "2023-04-01T11:00:00Z", "2023-04-01T11:00:00Z", "2023-04-01T11:00:00Z", "2023-04-01T11:00:00Z", "2023-04-01T11:00:00Z", "2023-04-01T11:00:00Z", "2023-04-01T11:00:00Z", "2023-04-01T11:00:00Z", "2023-04-01T11:00:00Z", "2023-04-01T11:00:00Z", "2023-04-01T11:00:00Z", "2023-04-01T11:00:00Z", "2023-04-01T11:00:00Z", "2023-04-01T11:00:00Z", "2023-04-01T11:00:00Z", "2023-04-01T11:00:00Z", "2023-04-01T11:00:00Z", "2023-04-01T11:00:00Z", "2023-04-01T11:00:00Z", "2023-04-01T11:00:00Z", "2023-04-01T11:30:00Z", "2023-04-01T11:00:00Z", "2023-04-01T11:00:00Z", "2023-04-01T11:00:00Z", "2023-04-01T11:00:00Z", "2023-04-01T11:00:00Z", "2023-04-01T11:00:00Z", "2023-04-01T11:00:00Z", "2023-04-01T11:00:00Z", "2023-04-01T11:30:00Z", "2023-04-01T11:00:00Z", "2023-04-01T11:00:00Z", "2023-04-01T11:00:00Z", "2023-04-01T11:00:00Z", "2023-04-01T11:00:00Z", "2023-04-01T11:00:00Z", "2023-04-01T11:00:00Z", "2023-04-01T11:12:00Z", "2023-04-01T11:00:00Z", "2023-04-01T11:00:00Z", "2023-04-01T11:00:00Z", "2023-04-01T11:00:00Z", "2023-04-01T11:00:00Z", "2023-04-01T11:00:00Z", "2023-04-01T11:00:00Z", "2023-04-01T11:00:00Z", "2023-04-01T11:00:00Z", "2023-04-01T11:00:00Z", "2023-04-01T11:00:00Z", "2023-04-01T11:00:00Z", "2023-04-01T11:00:00Z", "2023-04-01T11:00:00Z", "2023-04-01T11:00:00Z", "2023-04-01T11:00:00Z", "2023-04-01T11:00:00Z", "2023-04-01T11:00:00Z", "2023-04-01T11:00:00Z", "2023-04-01T11:00:00Z", "2023-04-01T11:00:00Z", "2023-04-01T11:00:00Z", "2023-04-01T11:00:00Z", "2023-04-01T11:00:00Z", "2023-04-01T11:00:00Z", "2023-04-01T11:00:00Z", "2023-04-01T11:00:00Z", "2023-04-01T11:00:00Z", "2023-04-01T11:00:00Z", "2023-04-01T11:00:00Z", "2023-04-01T11:00:00Z", "2023-04-01T11:00:00Z", "2023-04-01T11:00:00Z", "2023-04-01T11:00:00Z", "2023-04-01T11:00:00Z", "2023-04-01T11:00:00Z", "2023-04-01T11:00:00Z", "2023-04-01T11:00:00Z", "2023-04-01T11:00:00Z", "2023-04-01T11:00:00Z", "2023-04-01T11:00:00Z", "2023-04-01T11:00:00Z", "2023-04-01T11:00:00Z", "2023-04-01T11:00:00Z", "2023-04-01T11:00:00Z", "2023-04-01T11:00:00Z", "2023-04-01T11:00:00Z", "2023-04-01T11:00:00Z", "2023-04-01T11:00:00Z", "2023-04-01T11:00:00Z", "2023-04-01T11:00:00Z", "2023-04-01T11:00:00Z", "2023-04-01T11:00:00Z", "2023-04-01T11:00:00Z", "2023-04-01T11:00:00Z", "2023-04-01T11:00:00Z", "2023-04-01T11:00:00Z", "2023-04-01T11:00:00Z", "2023-04-01T11:00:00Z", "2023-04-01T11:00:00Z", "2023-04-01T11:00:00Z", "2023-04-01T11:00:00Z", "2023-04-01T11:00:00Z", "2023-04-01T11:00:00Z", "2023-04-01T11:00:00Z", "2023-04-01T11:00:00Z", "2023-04-01T11:00:00Z", "2023-04-01T11:00:00Z", "2023-04-01T11:00:00Z", "2023-04-01T11:00:00Z", "2023-04-01T11:00:00Z", "2023-04-01T11:00:00Z", "2023-04-01T11:00:00Z", "2023-04-01T11:00:00Z", "2023-04-01T11:00:00Z", "2023-04-01T11:00:00Z", "2023-04-01T11:00:00Z", "2023-04-01T11:00:00Z", "2023-04-01T11:00:00Z", "2023-04-01T11:00:00Z", "2023-04-01T11:00:00Z", "2023-04-01T11:00:00Z", "2023-04-01T11:00:00Z", "2023-04-01T11:00:00Z", "2023-04-01T11:00:00Z", "2023-04-01T11:00:00Z", "2023-04-01T11:00:00Z", "2023-04-01T11:00:00Z", "2023-04-01T11:00:00Z", "2023-04-01T11:00:00Z", "2023-04-01T11:00:00Z", "2023-04-01T11:00:00Z", "2023-04-01T11:00:00Z", "2023-04-01T11:00:00Z", "2023-04-01T11:00:00Z", "2023-04-01T11:00:00Z", "2023-04-01T11:00:00Z", "2023-04-01T11:00:00Z", "2023-04-01T11:00:00Z", "2023-04-01T11:00:00Z", "2023-04-01T11:00:00Z", "2023-04-01T11:00:00Z", "2023-04-01T11:00:00Z", "2023-04-01T11:00:00Z", "2023-04-01T11:00:00Z", "2023-04-01T11:00:00Z", "2023-04-01T11:00:00Z", "2023-04-01T11:00:00Z", "2023-04-01T11:00:00Z", "2023-04-01T11:00:00Z", "2023-04-01T11:00:00Z", "2023-04-01T11:00:00Z", "2023-04-01T11:00:00Z", "2023-04-01T11:00:00Z", "2023-04-01T11:00:00Z", "2023-04-01T11:00:00Z", "2023-04-01T11:00:00Z", "2023-04-01T11:00:00Z", "2023-04-01T11:00:00Z", "2023-04-01T11:00:00Z", "2023-04-01T11:00:00Z", "2023-04-01T11:00:00Z", "2023-04-01T11:20:00Z", "2023-04-01T11:20:00Z", "2023-04-01T11:20:00Z", "2023-04-01T11:20:00Z", "2023-04-01T11:20:00Z", "2023-04-01T10:50:00Z", "2023-04-01T11:20:00Z", "2023-04-01T11:20:00Z", "2023-04-01T10:50:00Z", "2023-04-01T11:20:00Z", "2023-04-01T11:20:00Z", "2023-04-01T11:20:00Z", "2023-04-01T11:20:00Z", "2023-04-01T11:20:00Z", "2023-04-01T10:50:00Z", "2023-04-01T11:20:00Z", "2023-04-01T11:20:00Z", "2023-04-01T11:20:00Z", "2023-04-01T11:20:00Z", "2023-04-01T11:20:00Z", "2023-04-01T11:20:00Z", "2023-04-01T11:20:00Z", "2023-04-01T10:50:00Z", "2023-04-01T10:50:00Z", "2023-04-01T10:50:00Z", "2023-04-01T11:20:00Z", "2023-04-01T11:20:00Z", "2023-04-01T10:50:00Z", "2023-04-01T11:00:00Z", "2023-04-01T10:45:00Z", "2023-04-01T11:15:00Z", "2023-04-01T10:45:00Z", "2023-04-01T10:45:00Z", "2023-04-01T10:45:00Z", "2023-04-01T10:45:00Z", "2023-04-01T11:15:00Z", "2023-04-01T10:55:00Z", "2023-04-01T10:50:00Z", "2023-04-01T11:20:00Z", "2023-04-01T11:07:00Z", "2023-04-01T10:50:00Z", "2023-04-01T10:55:00Z", "2023-04-01T11:20:00Z", "2023-04-01T10:55:00Z", "2023-04-01T11:20:00Z", "2023-04-01T10:55:00Z", "2023-04-01T10:55:00Z", "2023-04-01T11:20:00Z", "2023-04-01T11:20:00Z", "2023-04-01T11:20:00Z", "2023-04-01T11:20:00Z", "2023-04-01T10:55:00Z", "2023-04-01T10:50:00Z", "2023-04-01T11:20:00Z", "2023-04-01T11:20:00Z", "2023-04-01T10:55:00Z", "2023-04-01T10:55:00Z", "2023-04-01T11:20:00Z", "2023-04-01T10:55:00Z", "2023-04-01T10:55:00Z", "2023-04-01T11:20:00Z", "2023-04-01T11:20:00Z", "2023-04-01T10:50:00Z", "2023-04-01T11:20:00Z", "2023-04-01T11:20:00Z", "2023-04-01T11:20:00Z", "2023-04-01T10:50:00Z", "2023-04-01T10:55:00Z", "2023-04-01T11:20:00Z", "2023-04-01T10:55:00Z", "2023-04-01T11:20:00Z", "2023-04-01T10:50:00Z", "2023-04-01T10:55:00Z", "2023-04-01T10:55:00Z", "2023-04-01T10:55:00Z", "2023-04-01T11:20:00Z", "2023-04-01T11:20:00Z", "2023-04-01T10:55:00Z", "2023-04-01T10:50:00Z", "2023-04-01T10:55:00Z", "2023-04-01T11:20:00Z", "2023-04-01T10:55:00Z", "2023-04-01T11:20:00Z", "2023-04-01T10:55:00Z", "2023-04-01T10:50:00Z", "2023-04-01T10:55:00Z", "2023-04-01T11:20:00Z", "2023-04-01T11:20:00Z", "2023-04-01T11:20:00Z", "2023-04-01T10:55:00Z", "2023-04-01T10:50:00Z", "2023-04-01T11:20:00Z", "2023-04-01T11:20:00Z", "2023-04-01T11:20:00Z", "2023-04-01T10:55:00Z", "2023-04-01T10:50:00Z", "2023-04-01T11:20:00Z", "2023-04-01T10:55:00Z", "2023-04-01T11:20:00Z", "2023-04-01T10:50:00Z", "2023-04-01T10:55:00Z", "2023-04-01T10:55:00Z", "2023-04-01T11:20:00Z", "2023-04-01T11:15:00Z", "2023-04-01T11:20:00Z", "2023-04-01T10:55:00Z", "2023-04-01T10:55:00Z", "2023-04-01T10:50:00Z", "2023-04-01T10:55:00Z", "2023-04-01T10:55:00Z", "2023-04-01T11:20:00Z", "2023-04-01T10:55:00Z", "2023-04-01T10:55:00Z", "2023-04-01T10:55:00Z", "2023-04-01T10:55:00Z", "2023-04-01T10:55:00Z", "2023-04-01T10:55:00Z", "2023-04-01T10:55:00Z", "2023-04-01T11:00:00Z", "2023-04-01T11:00:00Z", "2023-04-01T11:00:00Z", "2023-04-01T11:00:00Z", "2023-04-01T11:00:00Z", "2023-04-01T11:00:00Z", "2023-04-01T11:00:00Z", "2023-04-01T11:00:00Z", "2023-04-01T11:00:00Z", "2023-04-01T11:00:00Z", "2023-04-01T11:00:00Z", "2023-04-01T11:00:00Z", "2023-04-01T11:00:00Z", "2023-04-01T11:00:00Z", "2023-04-01T11:20:00Z", "2023-04-01T10:50:00Z", "2023-04-01T10:50:00Z", "2023-04-01T10:50:00Z", "2023-04-01T11:15:00Z", "2023-04-01T11:00:00Z", "2023-04-01T11:00:00Z", "2023-04-01T11:20:00Z", "2023-04-01T11:20:00Z", "2023-04-01T11:20:00Z", "2023-04-01T11:20:00Z", "2023-04-01T11:20:00Z", "2023-04-01T11:20:00Z", "2023-04-01T11:20:00Z", "2023-04-01T11:00:00Z", "2023-04-01T11:00:00Z", "2023-04-01T11:00:00Z", "2023-04-01T11:00:00Z", "2023-04-01T11:00:00Z", "2023-04-01T11:00:00Z", "2023-04-01T11:00:00Z", "2023-04-01T11:00:00Z", "2023-04-01T11:00:00Z", "2023-04-01T11:00:00Z", "2023-04-01T11:00:00Z", "2023-04-01T11:00:00Z", "2023-04-01T11:00:00Z", "2023-04-01T11:00:00Z", "2023-04-01T11:00:00Z", "2023-04-01T11:00:00Z", "2023-04-01T11:00:00Z", "2023-04-01T11:00:00Z", "2023-04-01T11:00:00Z", "2023-04-01T11:00:00Z", "2023-04-01T11:00:00Z", "2023-04-01T11:00:00Z", "2023-04-01T11:00:00Z", "2023-04-01T11:00:00Z", "2023-04-01T11:00:00Z", "2023-04-01T11:00:00Z", "2023-04-01T11:00:00Z", "2023-04-01T11:00:00Z", "2023-04-01T11:00:00Z", "2023-04-01T11:00:00Z", "2023-04-01T11:00:00Z", "2023-04-01T11:00:00Z", "2023-04-01T11:00:00Z", "2023-04-01T11:00:00Z", "2023-04-01T11:00:00Z", "2023-04-01T11:20:00Z", "2023-04-01T11:20:00Z", "2023-04-01T11:20:00Z", "2023-04-01T11:20:00Z", "2023-04-01T11:20:00Z", "2023-04-01T11:20:00Z", "2023-04-01T11:20:00Z", "2023-04-01T11:20:00Z", "2023-04-01T11:20:00Z", "2023-04-01T11:20:00Z", "2023-04-01T11:20:00Z", "2023-04-01T11:20:00Z", "2023-04-01T11:20:00Z", "2023-04-01T11:20:00Z", "2023-04-01T11:20:00Z", "2023-04-01T11:20:00Z", "2023-04-01T11:20:00Z", "2023-04-01T10:50:00Z", "2023-04-01T11:20:00Z", "2023-04-01T11:20:00Z", "2023-04-01T11:20:00Z", "2023-04-01T11:20:00Z", "2023-04-01T10:50:00Z", "2023-04-01T10:50:00Z", "2023-04-01T11:20:00Z", "2023-04-01T10:50:00Z", "2023-04-01T10:50:00Z", "2023-04-01T11:20:00Z", "2023-04-01T11:20:00Z", "2023-04-01T10:50:00Z", "2023-04-01T10:50:00Z", "2023-04-01T11:20:00Z", "2023-04-01T11:20:00Z", "2023-04-01T10:50:00Z", "2023-04-01T10:50:00Z", "2023-04-01T10:50:00Z", "2023-04-01T11:20:00Z", "2023-04-01T11:12:00Z", "2023-04-01T10:50:00Z", "2023-04-01T10:50:00Z", "2023-04-01T11:20:00Z", "2023-04-01T11:20:00Z", "2023-04-01T11:20:00Z", "2023-04-01T10:50:00Z", "2023-04-01T10:50:00Z", "2023-04-01T10:50:00Z", "2023-04-01T11:20:00Z", "2023-04-01T10:50:00Z", "2023-04-01T11:20:00Z", "2023-04-01T10:50:00Z", "2023-04-01T11:20:00Z", "2023-04-01T10:50:00Z", "2023-04-01T11:20:00Z", "2023-04-01T10:50:00Z", "2023-04-01T10:50:00Z", "2023-04-01T10:50:00Z", "2023-04-01T10:50:00Z", "2023-04-01T10:50:00Z", "2023-04-01T10:50:00Z", "2023-04-01T11:20:00Z", "2023-04-01T10:50:00Z", "2023-04-01T10:50:00Z", "2023-04-01T10:50:00Z", "2023-04-01T10:50:00Z", "2023-04-01T10:50:00Z", "2023-04-01T11:20:00Z", "2023-04-01T10:50:00Z", "2023-04-01T11:20:00Z", "2023-04-01T10:50:00Z", "2023-04-01T10:50:00Z", "2023-04-01T11:20:00Z", "2023-04-01T11:20:00Z", "2023-04-01T10:50:00Z", "2023-04-01T11:00:00Z", "2023-04-01T11:00:00Z", "2023-04-01T11:30:00Z", "2023-04-01T11:20:00Z", "2023-04-01T11:00:00Z", "2023-04-01T11:00:00Z", "2023-04-01T11:00:00Z", "2023-04-01T11:00:00Z", "2023-04-01T11:00:00Z", "2023-04-01T11:00:00Z", "2023-04-01T11:00:00Z", "2023-04-01T11:00:00Z", "2023-04-01T11:00:00Z", "2023-04-01T11:00:00Z", "2023-04-01T11:00:00Z", "2023-04-01T11:00:00Z", "2023-04-01T11:00:00Z", "2023-04-01T11:00:00Z", "2023-04-01T11:00:00Z", "2023-04-01T11:00:00Z", "2023-04-01T11:00:00Z", "2023-04-01T11:00:00Z", "2023-04-01T11:00:00Z", "2023-04-01T11:00:00Z", "2023-04-01T11:00:00Z", "2023-04-01T11:00:00Z", "2023-04-01T11:00:00Z", "2023-04-01T11:00:00Z", "2023-04-01T11:00:00Z", "2023-04-01T11:00:00Z", "2023-04-01T11:00:00Z", "2023-04-01T11:00:00Z", "2023-04-01T11:00:00Z", "2023-04-01T10:43:00Z", "2023-04-01T10:42:00Z", "2023-04-01T11:06:00Z", "2023-04-01T10:43:00Z", "2023-04-01T11:02:00Z", "2023-04-01T10:43:00Z", "2023-04-01T10:40:00Z", "2023-04-01T10:46:00Z", "2023-04-01T10:41:00Z", "2023-04-01T10:41:00Z", "2023-04-01T10:44:00Z", "2023-04-01T10:40:00Z", "2023-04-01T10:40:00Z", "2023-04-01T10:41:00Z", "2023-04-01T10:45:00Z", "2023-04-01T10:43:00Z", "2023-04-01T10:40:00Z", "2023-04-01T10:45:00Z", "2023-04-01T10:40:00Z", "2023-04-01T10:43:00Z", "2023-04-01T10:41:00Z", "2023-04-01T10:47:00Z", "2023-04-01T10:40:00Z", "2023-04-01T11:00:00Z", "2023-04-01T11:00:00Z", "2023-04-01T11:00:00Z", "2023-04-01T11:00:00Z", "2023-04-01T11:00:00Z", "2023-04-01T11:00:00Z", "2023-04-01T10:50:00Z", "2023-04-01T11:00:00Z", "2023-04-01T10:50:00Z", "2023-04-01T10:59:00Z", "2023-04-01T10:50:00Z", "2023-04-01T10:50:00Z", "2023-04-01T10:50:00Z", "2023-04-01T10:51:00Z", "2023-04-01T10:50:00Z", "2023-04-01T10:50:00Z", "2023-04-01T10:50:00Z", "2023-04-01T10:50:00Z", "2023-04-01T11:00:00Z", "2023-04-01T11:00:00Z", "2023-04-01T11:00:00Z", "2023-04-01T11:00:00Z", "2023-04-01T11:00:00Z", "2023-04-01T11:00:00Z", "2023-04-01T11:00:00Z", "2023-04-01T11:00:00Z", "2023-04-01T11:00:00Z", "2023-04-01T11:00:00Z", "2023-04-01T11:00:00Z", "2023-04-01T11:00:00Z", "2023-04-01T11:00:00Z", "2023-04-01T11:00:00Z", "2023-04-01T11:00:00Z", "2023-04-01T11:00:00Z", "2023-04-01T11:00:00Z", "2023-04-01T11:00:00Z", "2023-04-01T11:00:00Z", "2023-04-01T11:00:00Z", "2023-04-01T11:00:00Z", "2023-04-01T11:00:00Z", "2023-04-01T11:00:00Z", "2023-04-01T11:00:00Z", "2023-04-01T11:00:00Z", "2023-04-01T11:00:00Z", "2023-04-01T10:50:00Z", "2023-04-01T11:00:00Z", "2023-04-01T11:00:00Z", "2023-04-01T11:00:00Z", "2023-04-01T11:00:00Z", "2023-04-01T11:00:00Z", "2023-04-01T10:55:00Z", "2023-04-01T11:00:00Z", "2023-04-01T11:00:00Z", "2023-04-01T11:00:00Z", "2023-04-01T11:00:00Z", "2023-04-01T11:00:00Z", "2023-04-01T11:00:00Z", "2023-04-01T11:00:00Z", "2023-04-01T11:00:00Z", "2023-04-01T11:00:00Z", "2023-04-01T11:00:00Z", "2023-04-01T11:00:00Z", "2023-04-01T11:00:00Z", "2023-04-01T11:00:00Z", "2023-04-01T11:00:00Z", "2023-04-01T11:00:00Z", "2023-04-01T11:00:00Z", "2023-04-01T11:00:00Z", "2023-04-01T11:00:00Z", "2023-04-01T11:00:00Z", "2023-04-01T11:00:00Z", "2023-04-01T11:00:00Z", "2023-04-01T11:00:00Z", "2023-04-01T10:55:00Z", "2023-04-01T11:00:00Z", "2023-04-01T11:00:00Z", "2023-04-01T11:00:00Z", "2023-04-01T11:00:00Z", "2023-04-01T11:00:00Z", "2023-04-01T11:00:00Z", "2023-04-01T11:00:00Z", "2023-04-01T11:00:00Z", "2023-04-01T11:00:00Z", "2023-04-01T11:00:00Z", "2023-04-01T11:00:00Z", "2023-04-01T11:00:00Z", "2023-04-01T11:00:00Z", "2023-04-01T11:00:00Z", "2023-04-01T10:52:00Z", "2023-04-01T11:00:00Z", "2023-04-01T11:00:00Z", "2023-04-01T11:00:00Z", "2023-04-01T11:00:00Z", "2023-04-01T11:00:00Z", "2023-04-01T11:00:00Z", "2023-04-01T11:00:00Z", "2023-04-01T11:00:00Z", "2023-04-01T11:00:00Z", "2023-04-01T11:00:00Z", "2023-04-01T11:00:00Z", "2023-04-01T11:00:00Z", "2023-04-01T11:00:00Z", "2023-04-01T11:00:00Z", "2023-04-01T11:00:00Z", "2023-04-01T11:00:00Z", "2023-04-01T11:00:00Z", "2023-04-01T11:00:00Z", "2023-04-01T11:00:00Z", "2023-04-01T11:00:00Z", "2023-04-01T11:00:00Z", "2023-04-01T10:50:00Z", "2023-04-01T11:00:00Z", "2023-04-01T11:00:00Z", "2023-04-01T11:00:00Z", "2023-04-01T11:00:00Z", "2023-04-01T11:00:00Z", "2023-04-01T11:00:00Z", "2023-04-01T11:00:00Z", "2023-04-01T11:00:00Z", "2023-04-01T11:00:00Z", "2023-04-01T11:00:00Z", "2023-04-01T11:00:00Z", "2023-04-01T11:00:00Z", "2023-04-01T10:50:00Z", "2023-04-01T11:00:00Z", "2023-04-01T11:00:00Z", "2023-04-01T11:00:00Z", "2023-04-01T11:00:00Z", "2023-04-01T11:00:00Z", "2023-04-01T11:00:00Z", "2023-04-01T11:00:00Z", "2023-04-01T11:00:00Z", "2023-04-01T11:00:00Z", "2023-04-01T11:00:00Z", "2023-04-01T11:00:00Z", "2023-04-01T11:00:00Z", "2023-04-01T11:00:00Z", "2023-04-01T11:00:00Z", "2023-04-01T11:00:00Z", "2023-04-01T11:00:00Z", "2023-04-01T11:00:00Z", "2023-04-01T11:00:00Z", "2023-04-01T11:00:00Z", "2023-04-01T11:00:00Z", "2023-04-01T11:00:00Z", "2023-04-01T11:00:00Z", "2023-04-01T11:00:00Z", "2023-04-01T11:00:00Z", "2023-04-01T11:00:00Z", "2023-04-01T11:00:00Z", "2023-04-01T11:00:00Z", "2023-04-01T11:00:00Z", "2023-04-01T11:00:00Z", "2023-04-01T11:00:00Z", "2023-04-01T11:00:00Z", "2023-04-01T11:00:00Z", "2023-04-01T11:00:00Z", "2023-04-01T11:00:00Z", "2023-04-01T11:00:00Z", "2023-04-01T10:55:00Z", "2023-04-01T11:00:00Z", "2023-04-01T11:00:00Z", "2023-04-01T11:00:00Z", "2023-04-01T11:00:00Z", "2023-04-01T11:00:00Z", "2023-04-01T11:00:00Z", "2023-04-01T11:00:00Z", "2023-04-01T11:00:00Z", "2023-04-01T11:00:00Z", "2023-04-01T11:00:00Z", "2023-04-01T10:50:00Z", "2023-04-01T10:50:00Z", "2023-04-01T10:50:00Z", "2023-04-01T10:50:00Z", "2023-04-01T10:50:00Z", "2023-04-01T10:50:00Z", "2023-04-01T10:55:00Z", "2023-04-01T11:00:00Z", "2023-04-01T11:30:00Z", "2023-04-01T11:25:00Z", "2023-04-01T11:30:00Z", "2023-04-01T11:00:00Z", "2023-04-01T11:00:00Z", "2023-04-01T11:00:00Z", "2023-04-01T11:00:00Z", "2023-04-01T11:00:00Z", "2023-04-01T11:00:00Z", "2023-04-01T11:00:00Z", "2023-04-01T11:00:00Z", "2023-04-01T11:00:00Z", "2023-04-01T10:55:00Z", "2023-04-01T11:00:00Z", "2023-04-01T11:15:00Z", "2023-04-01T11:17:00Z", "2023-04-01T10:53:00Z", "2023-04-01T10:52:00Z", "2023-04-01T11:04:00Z", "2023-04-01T11:12:00Z", "2023-04-01T10:56:00Z", "2023-04-01T10:53:00Z", "2023-04-01T10:53:00Z", "2023-04-01T10:56:00Z", "2023-04-01T10:53:00Z", "2023-04-01T11:13:00Z", "2023-04-01T10:53:00Z", "2023-04-01T10:56:00Z", "2023-04-01T10:56:00Z", "2023-04-01T10:56:00Z", "2023-04-01T10:53:00Z", "2023-04-01T10:56:00Z", "2023-04-01T10:55:00Z", "2023-04-01T10:53:00Z", "2023-04-01T10:55:00Z", "2023-04-01T10:55:00Z", "2023-04-01T10:53:00Z", "2023-04-01T10:53:00Z", "2023-04-01T10:55:00Z", "2023-04-01T10:56:00Z", "2023-04-01T10:56:00Z", "2023-04-01T10:55:00Z", "2023-04-01T11:01:00Z", "2023-04-01T11:16:00Z", "2023-04-01T10:56:00Z", "2023-04-01T11:03:00Z", "2023-04-01T10:53:00Z", "2023-04-01T10:56:00Z", "2023-04-01T10:54:00Z", "2023-04-01T10:53:00Z", "2023-04-01T11:02:00Z", "2023-04-01T11:09:00Z", "2023-04-01T10:56:00Z", "2023-04-01T10:56:00Z", "2023-04-01T10:55:00Z", "2023-04-01T10:56:00Z", "2023-04-01T11:25:00Z", "2023-04-01T10:53:00Z", "2023-04-01T10:56:00Z", "2023-04-01T10:56:00Z", "2023-04-01T11:20:00Z", "2023-04-01T10:56:00Z", "2023-04-01T10:54:00Z", "2023-04-01T10:56:00Z", "2023-04-01T11:19:00Z", "2023-04-01T10:53:00Z", "2023-04-01T10:53:00Z", "2023-04-01T11:15:00Z", "2023-04-01T11:05:00Z", "2023-04-01T10:53:00Z", "2023-04-01T10:55:00Z", "2023-04-01T10:56:00Z", "2023-04-01T10:53:00Z", "2023-04-01T10:56:00Z", "2023-04-01T11:20:00Z", "2023-04-01T10:56:00Z", "2023-04-01T10:56:00Z", "2023-04-01T10:53:00Z", "2023-04-01T10:56:00Z", "2023-04-01T10:56:00Z", "2023-04-01T10:53:00Z", "2023-04-01T10:56:00Z", "2023-04-01T10:56:00Z", "2023-04-01T10:56:00Z", "2023-04-01T11:20:00Z", "2023-04-01T10:53:00Z", "2023-04-01T11:20:00Z", "2023-04-01T10:56:00Z", "2023-04-01T11:03:00Z", "2023-04-01T10:56:00Z", "2023-04-01T10:56:00Z", "2023-04-01T11:08:00Z", "2023-04-01T10:53:00Z", "2023-04-01T10:56:00Z", "2023-04-01T11:17:00Z", "2023-04-01T10:56:00Z", "2023-04-01T10:53:00Z", "2023-04-01T10:56:00Z", "2023-04-01T11:24:00Z", "2023-04-01T10:56:00Z", "2023-04-01T10:53:00Z", "2023-04-01T10:53:00Z", "2023-04-01T11:23:00Z", "2023-04-01T10:56:00Z", "2023-04-01T10:55:00Z", "2023-04-01T10:52:00Z", "2023-04-01T11:19:00Z", "2023-04-01T10:53:00Z", "2023-04-01T11:08:00Z", "2023-04-01T10:53:00Z", "2023-04-01T11:07:00Z", "2023-04-01T10:56:00Z", "2023-04-01T10:56:00Z", "2023-04-01T10:56:00Z", "2023-04-01T11:20:00Z", "2023-04-01T10:53:00Z", "2023-04-01T10:53:00Z", "2023-04-01T10:56:00Z", "2023-04-01T11:08:00Z", "2023-04-01T10:56:00Z", "2023-04-01T10:53:00Z", "2023-04-01T10:56:00Z", "2023-04-01T10:56:00Z", "2023-04-01T10:56:00Z", "2023-04-01T10:56:00Z", "2023-04-01T11:25:00Z", "2023-04-01T10:56:00Z", "2023-04-01T10:56:00Z", "2023-04-01T11:13:00Z", "2023-04-01T10:55:00Z", "2023-04-01T10:54:00Z", "2023-04-01T10:51:00Z", "2023-04-01T10:55:00Z", "2023-04-01T10:53:00Z", "2023-04-01T11:23:00Z", "2023-04-01T10:53:00Z", "2023-04-01T10:54:00Z", "2023-04-01T10:57:00Z", "2023-04-01T10:53:00Z", "2023-04-01T10:56:00Z", "2023-04-01T10:54:00Z", "2023-04-01T10:55:00Z", "2023-04-01T10:53:00Z", "2023-04-01T10:51:00Z", "2023-04-01T11:20:00Z", "2023-04-01T11:00:00Z", "2023-04-01T10:56:00Z", "2023-04-01T11:09:00Z", "2023-04-01T10:50:00Z", "2023-04-01T10:50:00Z", "2023-04-01T10:50:00Z", "2023-04-01T10:55:00Z", "2023-04-01T10:51:00Z", "2023-04-01T10:55:00Z", "2023-04-01T11:00:00Z", "2023-04-01T11:00:00Z", "2023-04-01T11:12:00Z", "2023-04-01T11:00:00Z", "2023-04-01T11:00:00Z", "2023-04-01T11:00:00Z", "2023-04-01T11:00:00Z", "2023-04-01T11:00:00Z", "2023-04-01T11:00:00Z", "2023-04-01T11:00:00Z", "2023-04-01T11:00:00Z", "2023-04-01T11:00:00Z", "2023-04-01T11:00:00Z", "2023-04-01T11:00:00Z", "2023-04-01T11:00:00Z", "2023-04-01T11:00:00Z", "2023-04-01T11:00:00Z", "2023-04-01T11:00:00Z", "2023-04-01T11:00:00Z", "2023-04-01T11:11:00Z", "2023-04-01T11:00:00Z", "2023-04-01T11:00:00Z", "2023-04-01T11:00:00Z", "2023-04-01T11:00:00Z", "2023-04-01T11:00:00Z", "2023-04-01T11:00:00Z", "2023-04-01T11:00:00Z", "2023-04-01T11:00:00Z", "2023-04-01T11:00:00Z", "2023-04-01T11:00:00Z", "2023-04-01T11:00:00Z", "2023-04-01T11:00:00Z", "2023-04-01T11:00:00Z", "2023-04-01T11:00:00Z", "2023-04-01T11:00:00Z", "2023-04-01T11:00:00Z", "2023-04-01T11:00:00Z", "2023-04-01T11:00:00Z", "2023-04-01T10:56:00Z", "2023-04-01T11:00:00Z", "2023-04-01T11:00:00Z", "2023-04-01T11:00:00Z", "2023-04-01T11:00:00Z", "2023-04-01T11:00:00Z", "2023-04-01T11:00:00Z", "2023-04-01T11:00:00Z", "2023-04-01T11:00:00Z", "2023-04-01T11:00:00Z", "2023-04-01T11:00:00Z", "2023-04-01T11:00:00Z", "2023-04-01T11:00:00Z", "2023-04-01T11:00:00Z", "2023-04-01T11:00:00Z", "2023-04-01T10:55:00Z", "2023-04-01T11:00:00Z", "2023-04-01T10:55:00Z", "2023-04-01T11:00:00Z", "2023-04-01T11:00:00Z", "2023-04-01T11:00:00Z", "2023-04-01T10:55:00Z", "2023-04-01T11:00:00Z", "2023-04-01T11:00:00Z", "2023-04-01T10:55:00Z", "2023-04-01T11:00:00Z", "2023-04-01T11:00:00Z", "2023-04-01T11:00:00Z", "2023-04-01T11:00:00Z", "2023-04-01T10:59:00Z", "2023-04-01T11:25:00Z", "2023-04-01T11:00:00Z", "2023-04-01T11:00:00Z", "2023-04-01T11:00:00Z", "2023-04-01T11:00:00Z", "2023-04-01T11:00:00Z", "2023-04-01T11:00:00Z", "2023-04-01T11:00:00Z", "2023-04-01T11:00:00Z", "2023-04-01T11:00:00Z", "2023-04-01T11:00:00Z", "2023-04-01T11:00:00Z", "2023-04-01T11:00:00Z", "2023-04-01T11:00:00Z", "2023-04-01T11:00:00Z", "2023-04-01T11:00:00Z", "2023-04-01T11:00:00Z", "2023-04-01T11:00:00Z", "2023-04-01T11:00:00Z", "2023-04-01T11:00:00Z", "2023-04-01T11:00:00Z", "2023-04-01T11:00:00Z", "2023-04-01T11:00:00Z", "2023-04-01T11:00:00Z", "2023-04-01T11:00:00Z", "2023-04-01T11:00:00Z", "2023-04-01T11:00:00Z", "2023-04-01T11:00:00Z", "2023-04-01T11:00:00Z", "2023-04-01T11:00:00Z", "2023-04-01T11:00:00Z", "2023-04-01T11:00:00Z", "2023-04-01T11:00:00Z", "2023-04-01T11:00:00Z", "2023-04-01T11:00:00Z", "2023-04-01T11:00:00Z", "2023-04-01T11:00:00Z", "2023-04-01T11:00:00Z", "2023-04-01T11:00:00Z", "2023-04-01T11:00:00Z", "2023-04-01T11:00:00Z", "2023-04-01T11:00:00Z", "2023-04-01T11:00:00Z", "2023-04-01T11:00:00Z", "2023-04-01T11:00:00Z", "2023-04-01T11:00:00Z", "2023-04-01T11:00:00Z", "2023-04-01T11:00:00Z", "2023-04-01T11:00:00Z", "2023-04-01T11:00:00Z", "2023-04-01T11:00:00Z", "2023-04-01T11:00:00Z", "2023-04-01T11:00:00Z", "2023-04-01T11:00:00Z", "2023-04-01T11:00:00Z", "2023-04-01T11:00:00Z", "2023-04-01T11:00:00Z", "2023-04-01T11:00:00Z", "2023-04-01T11:00:00Z", "2023-04-01T11:00:00Z", "2023-04-01T11:00:00Z", "2023-04-01T11:00:00Z", "2023-04-01T11:00:00Z", "2023-04-01T11:00:00Z", "2023-04-01T11:00:00Z", "2023-04-01T11:00:00Z", "2023-04-01T11:00:00Z", "2023-04-01T11:00:00Z", "2023-04-01T11:00:00Z", "2023-04-01T11:00:00Z", "2023-04-01T11:00:00Z", "2023-04-01T11:00:00Z", "2023-04-01T11:00:00Z", "2023-04-01T11:00:00Z", "2023-04-01T11:00:00Z", "2023-04-01T11:00:00Z", "2023-04-01T11:00:00Z", "2023-04-01T11:00:00Z", "2023-04-01T11:00:00Z", "2023-04-01T11:00:00Z", "2023-04-01T11:00:00Z", "2023-04-01T11:00:00Z", "2023-04-01T11:00:00Z", "2023-04-01T11:00:00Z", "2023-04-01T11:00:00Z", "2023-04-01T11:00:00Z", "2023-04-01T11:00:00Z", "2023-04-01T11:00:00Z", "2023-04-01T11:00:00Z", "2023-04-01T11:00:00Z", "2023-04-01T11:00:00Z", "2023-04-01T11:00:00Z", "2023-04-01T11:00:00Z", "2023-04-01T11:00:00Z", "2023-04-01T11:00:00Z", "2023-04-01T11:00:00Z", "2023-04-01T11:00:00Z", "2023-04-01T11:00:00Z", "2023-04-01T11:00:00Z", "2023-04-01T11:00:00Z", "2023-04-01T11:00:00Z", "2023-04-01T11:00:00Z", "2023-04-01T11:00:00Z", "2023-04-01T11:00:00Z", "2023-04-01T11:00:00Z", "2023-04-01T11:15:00Z", "2023-04-01T11:00:00Z", "2023-04-01T11:00:00Z", "2023-04-01T11:00:00Z", "2023-04-01T11:00:00Z", "2023-04-01T11:00:00Z", "2023-04-01T11:00:00Z", "2023-04-01T11:00:00Z", "2023-04-01T11:00:00Z", "2023-04-01T11:00:00Z", "2023-04-01T11:00:00Z", "2023-04-01T11:00:00Z", "2023-04-01T11:00:00Z", "2023-04-01T11:00:00Z", "2023-04-01T11:00:00Z", "2023-04-01T11:00:00Z", "2023-04-01T11:00:00Z", "2023-04-01T11:00:00Z", "2023-04-01T11:15:00Z", "2023-04-01T11:15:00Z", "2023-04-01T11:00:00Z", "2023-04-01T11:00:00Z", "2023-04-01T11:00:00Z", "2023-04-01T11:00:00Z", "2023-04-01T11:00:00Z", "2023-04-01T11:00:00Z", "2023-04-01T11:00:00Z", "2023-04-01T11:00:00Z", "2023-04-01T11:00:00Z", "2023-04-01T11:00:00Z", "2023-04-01T11:00:00Z", "2023-04-01T11:00:00Z", "2023-04-01T11:00:00Z", "2023-04-01T11:00:00Z", "2023-04-01T11:00:00Z", "2023-04-01T11:00:00Z", "2023-04-01T11:00:00Z", "2023-04-01T11:00:00Z", "2023-04-01T11:00:00Z", "2023-04-01T11:00:00Z", "2023-04-01T11:00:00Z", "2023-04-01T11:00:00Z", "2023-04-01T11:00:00Z", "2023-04-01T11:00:00Z", "2023-04-01T11:00:00Z", "2023-04-01T11:00:00Z", "2023-04-01T11:00:00Z", "2023-04-01T11:00:00Z", "2023-04-01T11:00:00Z", "2023-04-01T11:00:00Z", "2023-04-01T11:00:00Z", "2023-04-01T11:00:00Z", "2023-04-01T11:00:00Z", "2023-04-01T11:00:00Z", "2023-04-01T11:00:00Z", "2023-04-01T11:00:00Z", "2023-04-01T11:00:00Z", "2023-04-01T11:00:00Z", "2023-04-01T11:00:00Z", "2023-04-01T11:00:00Z", "2023-04-01T11:00:00Z", "2023-04-01T11:00:00Z", "2023-04-01T11:00:00Z", "2023-04-01T11:30:00Z", "2023-04-01T11:30:00Z", "2023-04-01T11:30:00Z", "2023-04-01T11:00:00Z", "2023-04-01T11:00:00Z", "2023-04-01T11:00:00Z", "2023-04-01T11:00:00Z", "2023-04-01T11:00:00Z", "2023-04-01T11:00:00Z", "2023-04-01T11:00:00Z", "2023-04-01T11:00:00Z", "2023-04-01T11:00:00Z", "2023-04-01T11:00:00Z", "2023-04-01T11:00:00Z", "2023-04-01T11:00:00Z", "2023-04-01T11:00:00Z", "2023-04-01T11:00:00Z", "2023-04-01T11:00:00Z", "2023-04-01T11:00:00Z", "2023-04-01T11:00:00Z", "2023-04-01T11:00:00Z", "2023-04-01T11:00:00Z", "2023-04-01T11:00:00Z", "2023-04-01T11:00:00Z", "2023-04-01T11:00:00Z", "2023-04-01T11:00:00Z", "2023-04-01T11:00:00Z", "2023-04-01T11:00:00Z", "2023-04-01T11:00:00Z", "2023-04-01T11:00:00Z", "2023-04-01T11:00:00Z", "2023-04-01T11:00:00Z", "2023-04-01T11:00:00Z", "2023-04-01T11:00:00Z", "2023-04-01T11:00:00Z", "2023-04-01T11:00:00Z", "2023-04-01T11:00:00Z", "2023-04-01T11:00:00Z", "2023-04-01T11:00:00Z", "2023-04-01T11:00:00Z", "2023-04-01T11:00:00Z", "2023-04-01T11:05:00Z", "2023-04-01T11:00:00Z", "2023-04-01T11:00:00Z", "2023-04-01T11:00:00Z", "2023-04-01T11:00:00Z", "2023-04-01T11:00:00Z", "2023-04-01T11:00:00Z", "2023-04-01T11:00:00Z", "2023-04-01T11:00:00Z", "2023-04-01T11:00:00Z", "2023-04-01T11:00:00Z", "2023-04-01T11:00:00Z", "2023-04-01T11:00:00Z", "2023-04-01T11:00:00Z", "2023-04-01T11:00:00Z", "2023-04-01T11:30:00Z", "2023-04-01T11:00:00Z", "2023-04-01T11:00:00Z", "2023-04-01T11:00:00Z", "2023-04-01T11:00:00Z", "2023-04-01T11:00:00Z", "2023-04-01T11:03:00Z", "2023-04-01T11:03:00Z", "2023-04-01T11:03:00Z", "2023-04-01T11:03:00Z", "2023-04-01T11:03:00Z", "2023-04-01T11:03:00Z", "2023-04-01T11:03:00Z", "2023-04-01T11:03:00Z", "2023-04-01T11:03:00Z", "2023-04-01T11:03:00Z", "2023-04-01T11:03:00Z", "2023-04-01T11:03:00Z", "2023-04-01T11:03:00Z", "2023-04-01T11:03:00Z", "2023-04-01T11:03:00Z", "2023-04-01T11:03:00Z", "2023-04-01T11:03:00Z", "2023-04-01T11:03:00Z", "2023-04-01T11:03:00Z", "2023-04-01T11:03:00Z", "2023-04-01T11:03:00Z", "2023-04-01T11:00:00Z", "2023-04-01T11:00:00Z", "2023-04-01T11:00:00Z", "2023-04-01T11:00:00Z", "2023-04-01T11:00:00Z", "2023-04-01T11:00:00Z", "2023-04-01T10:53:00Z", "2023-04-01T10:53:00Z", "2023-04-01T10:50:00Z", "2023-04-01T10:55:00Z", "2023-04-01T10:53:00Z", "2023-04-01T11:15:00Z", "2023-04-01T10:56:00Z", "2023-04-01T11:00:00Z", "2023-04-01T11:00:00Z", "2023-04-01T11:00:00Z", "2023-04-01T11:00:00Z", "2023-04-01T10:55:00Z", "2023-04-01T11:00:00Z", "2023-04-01T10:55:00Z", "2023-04-01T11:00:00Z", "2023-04-01T11:00:00Z", "2023-04-01T11:00:00Z", "2023-04-01T11:00:00Z", "2023-04-01T11:00:00Z", "2023-04-01T11:00:00Z", "2023-04-01T11:00:00Z", "2023-04-01T10:55:00Z", "2023-04-01T11:00:00Z", "2023-04-01T11:00:00Z", "2023-04-01T11:00:00Z", "2023-04-01T11:00:00Z", "2023-04-01T11:00:00Z", "2023-04-01T11:00:00Z", "2023-04-01T11:00:00Z", "2023-04-01T11:02:00Z", "2023-04-01T11:00:00Z", "2023-04-01T11:00:00Z", "2023-04-01T11:00:00Z", "2023-04-01T11:00:00Z", "2023-04-01T11:00:00Z", "2023-04-01T11:00:00Z", "2023-04-01T11:00:00Z", "2023-04-01T11:00:00Z", "2023-04-01T11:00:00Z", "2023-04-01T11:00:00Z", "2023-04-01T11:00:00Z", "2023-04-01T11:00:00Z", "2023-04-01T11:00:00Z", "2023-04-01T11:00:00Z", "2023-04-01T11:00:00Z", "2023-04-01T11:00:00Z", "2023-04-01T11:00:00Z", "2023-04-01T11:00:00Z", "2023-04-01T11:00:00Z", "2023-04-01T11:00:00Z", "2023-04-01T11:00:00Z", "2023-04-01T11:00:00Z", "2023-04-01T11:00:00Z", "2023-04-01T11:00:00Z", "2023-04-01T11:00:00Z", "2023-04-01T11:00:00Z", "2023-04-01T11:00:00Z", "2023-04-01T11:00:00Z", "2023-04-01T11:00:00Z", "2023-04-01T11:00:00Z", "2023-04-01T11:00:00Z", "2023-04-01T11:00:00Z", "2023-04-01T11:00:00Z", "2023-04-01T11:00:00Z", "2023-04-01T11:00:00Z", "2023-04-01T11:00:00Z", "2023-04-01T11:00:00Z", "2023-04-01T11:00:00Z", "2023-04-01T11:00:00Z", "2023-04-01T11:00:00Z", "2023-04-01T11:00:00Z", "2023-04-01T11:00:00Z", "2023-04-01T11:00:00Z", "2023-04-01T11:00:00Z", "2023-04-01T11:00:00Z", "2023-04-01T11:00:00Z", "2023-04-01T11:00:00Z", "2023-04-01T11:00:00Z", "2023-04-01T11:00:00Z", "2023-04-01T11:00:00Z", "2023-04-01T11:00:00Z", "2023-04-01T11:00:00Z", "2023-04-01T11:00:00Z", "2023-04-01T11:00:00Z", "2023-04-01T11:00:00Z", "2023-04-01T11:00:00Z", "2023-04-01T11:00:00Z", "2023-04-01T11:24:00Z", "2023-04-01T11:00:00Z", "2023-04-01T11:00:00Z", "2023-04-01T11:00:00Z", "2023-04-01T11:00:00Z", "2023-04-01T11:00:00Z", "2023-04-01T11:00:00Z", "2023-04-01T11:00:00Z", "2023-04-01T11:00:00Z", "2023-04-01T11:00:00Z", "2023-04-01T11:00:00Z", "2023-04-01T11:00:00Z", "2023-04-01T11:00:00Z", "2023-04-01T11:00:00Z", "2023-04-01T11:00:00Z", "2023-04-01T11:00:00Z", "2023-04-01T11:00:00Z", "2023-04-01T11:00:00Z", "2023-04-01T11:00:00Z", "2023-04-01T11:00:00Z", "2023-04-01T11:00:00Z", "2023-04-01T11:00:00Z", "2023-04-01T11:00:00Z", "2023-04-01T11:00:00Z", "2023-04-01T11:00:00Z", "2023-04-01T11:00:00Z", "2023-04-01T11:00:00Z", "2023-04-01T11:00:00Z", "2023-04-01T11:00:00Z", "2023-04-01T11:00:00Z", "2023-04-01T11:00:00Z", "2023-04-01T11:00:00Z", "2023-04-01T11:00:00Z", "2023-04-01T11:00:00Z", "2023-04-01T11:00:00Z", "2023-04-01T11:00:00Z", "2023-04-01T11:00:00Z", "2023-04-01T11:00:00Z", "2023-04-01T11:00:00Z", "2023-04-01T11:00:00Z", "2023-04-01T11:00:00Z", "2023-04-01T11:00:00Z", "2023-04-01T11:00:00Z", "2023-04-01T11:00:00Z", "2023-04-01T11:00:00Z", "2023-04-01T11:00:00Z", "2023-04-01T11:14:06Z", "2023-04-01T11:00:00Z", "2023-04-01T11:00:00Z", "2023-04-01T11:00:00Z", "2023-04-01T11:00:00Z", "2023-04-01T10:30:00Z", "2023-04-01T11:00:00Z", "2023-04-01T11:00:00Z", "2023-04-01T11:00:00Z", "2023-04-01T11:00:00Z", "2023-04-01T11:00:00Z", "2023-04-01T11:00:00Z", "2023-04-01T11:00:00Z", "2023-04-01T11:00:00Z", "2023-04-01T11:00:00Z", "2023-04-01T11:00:00Z", "2023-04-01T11:00:00Z", "2023-04-01T11:00:00Z", "2023-04-01T11:00:00Z", "2023-04-01T11:00:00Z", "2023-04-01T11:00:00Z", "2023-04-01T11:00:00Z", "2023-04-01T11:00:00Z", "2023-04-01T11:00:00Z", "2023-04-01T11:00:00Z", "2023-04-01T11:00:00Z", "2023-04-01T11:00:00Z", "2023-04-01T11:00:00Z", "2023-04-01T11:00:00Z", "2023-04-01T11:00:00Z", "2023-04-01T11:00:00Z", "2023-04-01T11:00:00Z", "2023-04-01T11:00:00Z", "2023-04-01T11:00:00Z", "2023-04-01T11:00:00Z", "2023-04-01T11:30:00Z", "2023-04-01T11:00:00Z", "2023-04-01T10:30:00Z", "2023-04-01T11:00:00Z", "2023-04-01T11:00:00Z", "2023-04-01T11:00:00Z", "2023-04-01T11:00:00Z", "2023-04-01T11:00:00Z", "2023-04-01T11:00:00Z", "2023-04-01T11:00:00Z", "2023-04-01T11:00:00Z", "2023-04-01T11:00:00Z", "2023-04-01T11:00:00Z", "2023-04-01T11:10:00Z", "2023-04-01T11:10:00Z", "2023-04-01T11:00:00Z", "2023-04-01T11:00:00Z", "2023-04-01T11:00:00Z", "2023-04-01T11:00:00Z", "2023-04-01T11:00:00Z", "2023-04-01T11:00:00Z", "2023-04-01T11:00:00Z", "2023-04-01T11:00:00Z", "2023-04-01T11:00:00Z", "2023-04-01T11:00:00Z", "2023-04-01T11:00:00Z", "2023-04-01T11:00:00Z", "2023-04-01T11:00:00Z", "2023-04-01T11:00:00Z", "2023-04-01T11:00:00Z", "2023-04-01T11:00:00Z", "2023-04-01T11:00:00Z", "2023-04-01T11:00:00Z", "2023-04-01T10:30:00Z", "2023-04-01T11:00:00Z", "2023-04-01T11:00:00Z", "2023-04-01T11:00:00Z", "2023-04-01T11:00:00Z", "2023-04-01T11:00:00Z", "2023-04-01T11:00:00Z", "2023-04-01T11:00:00Z", "2023-04-01T11:00:00Z", "2023-04-01T11:00:00Z", "2023-04-01T11:00:00Z", "2023-04-01T11:00:00Z", "2023-04-01T10:30:00Z", "2023-04-01T11:00:00Z", "2023-04-01T11:00:00Z", "2023-04-01T11:00:00Z", "2023-04-01T11:00:00Z", "2023-04-01T11:00:00Z", "2023-04-01T11:30:00Z", "2023-04-01T11:00:00Z", "2023-04-01T11:00:00Z", "2023-04-01T11:00:00Z", "2023-04-01T11:00:00Z", "2023-04-01T11:00:00Z", "2023-04-01T11:00:00Z", "2023-04-01T11:00:00Z", "2023-04-01T11:00:00Z", "2023-04-01T10:30:00Z", "2023-04-01T11:00:00Z", "2023-04-01T10:30:00Z", "2023-04-01T11:00:00Z", "2023-04-01T11:00:00Z", "2023-04-01T11:00:00Z", "2023-04-01T11:00:00Z", "2023-04-01T11:00:00Z", "2023-04-01T11:00:00Z", "2023-04-01T11:00:00Z", "2023-04-01T11:00:00Z", "2023-04-01T11:00:00Z", "2023-04-01T11:00:00Z", "2023-04-01T11:00:00Z", "2023-04-01T11:00:00Z", "2023-04-01T10:30:00Z", "2023-04-01T11:00:00Z", "2023-04-01T11:00:00Z", "2023-04-01T11:00:00Z", "2023-04-01T11:00:00Z", "2023-04-01T11:00:00Z", "2023-04-01T11:00:00Z", "2023-04-01T11:00:00Z", "2023-04-01T11:00:00Z", "2023-04-01T11:00:00Z", "2023-04-01T11:00:00Z", "2023-04-01T11:00:00Z", "2023-04-01T11:00:00Z", "2023-04-01T11:00:00Z", "2023-04-01T11:00:00Z", "2023-04-01T11:00:00Z", "2023-04-01T11:00:00Z", "2023-04-01T11:00:00Z", "2023-04-01T11:00:00Z", "2023-04-01T11:00:00Z", "2023-04-01T11:00:00Z", "2023-04-01T11:00:00Z", "2023-04-01T11:00:00Z", "2023-04-01T11:00:00Z", "2023-04-01T11:00:00Z", "2023-04-01T11:00:00Z", "2023-04-01T11:00:00Z", "2023-04-01T11:00:00Z", "2023-04-01T11:00:00Z", "2023-04-01T11:00:00Z", "2023-04-01T11:00:00Z", "2023-04-01T11:00:00Z", "2023-04-01T11:00:00Z", "2023-04-01T11:00:00Z", "2023-04-01T11:00:00Z", "2023-04-01T11:00:00Z", "2023-04-01T11:00:00Z", "2023-04-01T11:00:00Z", "2023-04-01T11:00:00Z", "2023-04-01T11:00:00Z", "2023-04-01T11:00:00Z", "2023-04-01T11:00:00Z", "2023-04-01T11:00:00Z", "2023-04-01T11:00:00Z", "2023-04-01T11:00:00Z", "2023-04-01T11:00:00Z", "2023-04-01T11:00:00Z", "2023-04-01T11:00:00Z", "2023-04-01T11:00:00Z", "2023-04-01T11:00:00Z", "2023-04-01T11:00:00Z", "2023-04-01T10:30:00Z", "2023-04-01T11:00:00Z", "2023-04-01T11:00:00Z", "2023-04-01T11:00:00Z", "2023-04-01T11:00:00Z", "2023-04-01T11:30:00Z", "2023-04-01T11:00:00Z", "2023-04-01T11:00:00Z", "2023-04-01T11:00:00Z", "2023-04-01T11:00:00Z", "2023-04-01T11:00:00Z", "2023-04-01T11:00:00Z", "2023-04-01T11:00:00Z", "2023-04-01T11:00:00Z", "2023-04-01T11:00:00Z", "2023-04-01T11:00:00Z", "2023-04-01T11:00:00Z", "2023-04-01T11:00:00Z", "2023-04-01T11:00:00Z", "2023-04-01T11:00:00Z", "2023-04-01T11:00:00Z", "2023-04-01T11:00:00Z", "2023-04-01T11:00:00Z", "2023-04-01T11:00:00Z", "2023-04-01T11:00:00Z", "2023-04-01T11:00:00Z", "2023-04-01T11:00:00Z", "2023-04-01T11:00:00Z", "2023-04-01T10:30:00Z", "2023-04-01T11:00:00Z", "2023-04-01T11:30:00Z", "2023-04-01T10:30:00Z", "2023-04-01T11:00:00Z", "2023-04-01T11:00:00Z", "2023-04-01T11:00:00Z", "2023-04-01T11:00:00Z", "2023-04-01T11:00:00Z", "2023-04-01T11:00:00Z", "2023-04-01T11:00:00Z", "2023-04-01T11:00:00Z", "2023-04-01T11:00:00Z", "2023-04-01T11:00:00Z", "2023-04-01T11:00:00Z", "2023-04-01T11:00:00Z", "2023-04-01T11:00:00Z", "2023-04-01T11:00:00Z", "2023-04-01T11:00:00Z", "2023-04-01T11:00:00Z", "2023-04-01T11:00:00Z", "2023-04-01T11:00:00Z", "2023-04-01T11:00:00Z", "2023-04-01T11:00:00Z", "2023-04-01T11:00:00Z", "2023-04-01T11:00:00Z", "2023-04-01T11:00:00Z", "2023-04-01T11:00:00Z", "2023-04-01T11:00:00Z", "2023-04-01T11:00:00Z", "2023-04-01T11:00:00Z", "2023-04-01T11:00:00Z", "2023-04-01T11:00:00Z", "2023-04-01T11:00:00Z", "2023-04-01T11:00:00Z", "2023-04-01T11:00:00Z", "2023-04-01T11:00:00Z", "2023-04-01T11:00:00Z", "2023-04-01T11:00:00Z", "2023-04-01T11:00:00Z", "2023-04-01T11:00:00Z", "2023-04-01T11:00:00Z", "2023-04-01T11:00:00Z", "2023-04-01T11:00:00Z", "2023-04-01T11:00:00Z", "2023-04-01T11:00:00Z", "2023-04-01T11:00:00Z", "2023-04-01T11:00:00Z", "2023-04-01T11:00:00Z", "2023-04-01T11:00:00Z", "2023-04-01T11:00:00Z", "2023-04-01T11:00:00Z", "2023-04-01T11:00:00Z", "2023-04-01T11:00:00Z", "2023-04-01T11:00:00Z", "2023-04-01T11:00:00Z", "2023-04-01T11:00:00Z", "2023-04-01T11:00:00Z", "2023-04-01T11:00:00Z", "2023-04-01T11:00:00Z", "2023-04-01T11:00:00Z", "2023-04-01T11:00:00Z", "2023-04-01T11:00:00Z", "2023-04-01T11:00:00Z", "2023-04-01T11:00:00Z", "2023-04-01T11:00:00Z", "2023-04-01T11:00:00Z", "2023-04-01T11:00:00Z", "2023-04-01T11:00:00Z", "2023-04-01T11:00:00Z", "2023-04-01T11:00:00Z", "2023-04-01T11:00:00Z", "2023-04-01T11:00:00Z", "2023-04-01T11:00:00Z", "2023-04-01T11:00:00Z", "2023-04-01T11:00:00Z", "2023-04-01T11:00:00Z", "2023-04-01T11:00:00Z", "2023-04-01T11:00:00Z", "2023-04-01T11:00:00Z", "2023-04-01T11:00:00Z", "2023-04-01T11:00:00Z", "2023-04-01T11:00:00Z", "2023-04-01T11:00:00Z", "2023-04-01T11:00:00Z", "2023-04-01T11:00:00Z", "2023-04-01T11:00:00Z", "2023-04-01T11:00:00Z", "2023-04-01T11:30:00Z", "2023-04-01T11:00:00Z", "2023-04-01T11:00:00Z", "2023-04-01T11:00:00Z", "2023-04-01T11:00:00Z", "2023-04-01T11:00:00Z", "2023-04-01T11:00:00Z", "2023-04-01T11:00:00Z", "2023-04-01T11:00:00Z", "2023-04-01T11:00:00Z", "2023-04-01T11:00:00Z", "2023-04-01T11:00:00Z", "2023-04-01T11:00:00Z", "2023-04-01T11:00:00Z", "2023-04-01T11:00:00Z", "2023-04-01T11:00:00Z", "2023-04-01T11:00:00Z", "2023-04-01T11:00:00Z", "2023-04-01T11:00:00Z", "2023-04-01T11:00:00Z", "2023-04-01T11:00:00Z", "2023-04-01T11:00:00Z"], "raw_text": ["AGGH 011100Z 00000KT 9999 FEW015 FEW016CB BKN100 25/24 Q1009", "BGBW 011050Z 09003KT 9999 FEW016 M06/M14 Q1006", "BGGH 011050Z 06007KT 9999 SKC M06/M14 Q1004", "BGJN 011050Z VRB01KT 9999 FEW025 M15/M20 Q1014", "BGKK 011050Z 24003KT 9999 BKN085 M01/M07 Q1004", "BGSF 011050Z AUTO 04003KT 9999NDV NCD M17/M23 Q1013", "BGTL 011055Z AUTO 09006KT 9999 CLR M28/M32 A3014 RMK AO2 SLP200 T12761320 TSNO $", "BIAR 011100Z 17016KT 9999 SCT050 BKN066 06/M01 Q1002", "BIEG 011108Z 19013KT 9999 -SHRA SCT030 BKN040 OVC060 06/03 Q1004", "BIIS 011100Z VRB03KT 9999 SCT030 BKN060 04/01 Q0999", "BIKF 011100Z 17016G27KT 9999 -RA FEW011CB BKN018 OVC058 04/03 Q1000", "BIRK 011100Z 17009KT 9999 VCSH FEW019CB SCT035 BKN067 06/03 Q1001", "BIVM 011100Z 22013G23KT 9999 VCSH FEW012 BKN026 05/02 Q1004", "BK12 011055Z VRB06KT -SHRA FEW029 SCT055 12/08 A2967 RMK A02 SHRAB0854E1055 SLP049 WND DATA ESTMD", "BKPR 011130Z 23021KT 9999 FEW030 BKN055 13/08 Q1003 NOSIG", "CAHR 011100Z AUTO 16006KT M01/M03 RMK AO1 SOG 27 8016 SLP169 T10061026", "CBAR 011100Z AUTO 09013KT ////SM NCD M26/M29 A3001", "CBBC 011129Z AUTO 15004KT 9SM BKN033 BKN042 BKN060 OVC083 02/02 A2968 RMK PCPN 0.8MM PAST HR SLP055", "CERM 011100Z AUTO 13007KT M00/M04 RMK AO1 SOG 82 8031 SLP098 T10031039", "CMFM 011100Z AUTO 28001KT M04/M05 RMK AO1 SOG 115 8039 SLP046 T10411049", "CMGB 011100Z AUTO 12006KT 03/01 RMK AO1 2PAST HR 6049 SLP005 P0005 T00280014 50014", "CPIN 011100Z AUTO 12015KT ////SM ////// ///// A////", "CTCK 011100Z AUTO 08009KT 01/M00 RMK AO1 7PAST HR PRESFR SOG 34 8059 SLP966 P0011 T00081004 50072", "CTNK 011100Z AUTO 00000KT M00/01 RMK AO1 1PAST HR SOG 52 8057 SLP929 P0012 T10020005 50131", "CTRA 011100Z AUTO 02003KT M11/M19 RMK AO1 SOG 35 3009 SLP146 T11081192", "CWAF 011100Z AUTO 10008KT 01/M04 RMK AO1 T00091038", "CWAJ 011100Z AUTO 21012G19KT RMK AO1 PK WND 21019/1059 51016", "CWAQ 011100Z AUTO 13004KT M03/M05 RMK AO1 SLP101 T10251047 56008", "CWAR 011100Z AUTO 15006KT 01/M02 RMK AO1 SLP185 T00051019 50003", "CWAV 011100Z AUTO 25002KT M02/M08 RMK AO1 SOG 14 6004 SLP024 T10171076", "CWBA 011100Z AUTO 34006KT M01/M02 RMK AO1 6PAST HR SOG 45 M P0010 T10131019 50044", "CWBO 011100Z AUTO 24005KT 01/M04 RMK AO1 SLP032 T00051043 56009", "CWBS 011100Z AUTO 07015KT 02/01 RMK AO1 PK WND 06017/1036 T00150012", "CWBT 011100Z AUTO 05003KT M03/M04 RMK AO1 SLP142 T10341044 56012", "CWBU 011100Z AUTO 17002KT M11/M13 RMK AO1 SOG 31 6012 SLP092 T11081133", "CWBV 011100Z AUTO 23015KT M00/01 RMK AO1 PK WND 22019/1032 SLP176 T10020005 58010", "CWBY 011100Z AUTO 08004KT M03/M04 RMK AO1 SOG 21 6016 SLP136 T10291037", "CWBZ 011100Z AUTO 06009KT 01/01 RMK AO1 9PAST HR PRESFR 8056 SLP968 P0007 T00140012 50044", "CWCF 011100Z AUTO 16002KT M06/M16 RMK AO1 SOG 12 6008 SLP142 T10641159", "CWCJ 011100Z AUTO 04011G22KT M11/M19 RMK AO1 SOG 72 8010 PK WND 04027/1049 SLP056 T11091186", "CWCO 011100Z AUTO 14005KT 05/04 RMK AO1 5040 SLP896 T00470040 50087", "CWCT 011100Z AUTO 21004KT M12/M13 RMK AO1 SOG 24 6013 SLP036 T11161126", "CWDA 011100Z AUTO 00015KT M02/ RMK AO1 T1020", "CWDC 011100Z AUTO 07006KT M16/M22 RMK AO1 SOG 62 6002 SLP154 T11611222", "CWDJ 011100Z AUTO 13012KT M10/M13 RMK AO1 SOG 15 6014 T11031130", "CWDK 011100Z AUTO 20007KT M00/M05 RMK AO1 SOG 01 6013 SLP043 T10041051", "CWDM 011100Z AUTO 24009KT M02/M04 RMK AO1 6013 SLP147 T10171037 50002", "CWDO 011100Z AUTO 25006KT M03/M03 RMK AO1 SLP156 T10271031 58005", "CWDQ 011100Z AUTO 33003KT M01/M03 RMK AO1 SOG 44 8039 SLP039 T10101027", "CWDV 011100Z AUTO 03003KT M13/M20 RMK AO1 SOG 66 3022 SLP119 T11281196", "CWDZ 011100Z AUTO 13006KT M02/M05 RMK AO1 SLP024 T10191052 58009", "CWEB 011100Z AUTO 00027KT 05/02 RMK AO1 5PAST HR 1006 SLP090 P0002 T00510020 50011", "CWEF 011100Z AUTO 18005KT M00/M03 RMK AO1 SLP171 T10011026 56012", "CWEH 011100Z AUTO 22010KT M09/M11 RMK AO1 SOG 35 6009 SLP083 T10911109", "CWEL 011100Z AUTO 23004KT 06/M00 RMK AO1 SLP080 T00561003 51013", "CWEP 011100Z AUTO 17008KT M01/M02 RMK AO1 SOG 18 6015 SLP183 T10111023", "CWEQ 011100Z AUTO 24002KT M13/M16 RMK AO1 SOG 41 8010 SLP122 T11321157", "CWER 011100Z AUTO 05022KT RMK AO1 PK WND 05027/1049", "CWEU 011100Z 10010KT 15SM SKC M33/M37 A3036 RMK SLP301", "CWEW 011100Z AUTO 05005KT 01/01 RMK AO1 7PAST HR 6052 SLP010 P0007 T00110011 50020", "CWEZ 011100Z AUTO 27006G15KT 06/02 RMK AO1 PK WND 24019/1003 SLP085 T00560015 51012", "CWFD 011100Z AUTO ///// ////SM ////// M21/M23 A////", "CWFF 011100Z AUTO 15009KT M12/M14 RMK AO1 SOG 23 8016 SLP085 T11181141", "CWFJ 011100Z AUTO 17003KT 01/M07 RMK AO1 T00091066", "CWFQ 011100Z AUTO 36008KT 02/02 RMK AO1 5PAST HR SOG 10 6054 SLP992 P0006 T00210015 50015", "CWGB 011100Z AUTO 23004KT 05/ RMK AO1 SLP076 T0051 51011", "CWGD 011100Z AUTO 22014KT 07/04 RMK AO1 3016 PK WND 22021/1034 SLP918 T00730040 50075", "CWGH 011100Z AUTO 05004KT 03/03 RMK AO1 4PAST HR PRESFR 8068 SLP938 P0002 T00340032 50064", "CWGL 011100Z AUTO 11007KT 03/02 RMK AO1 PK WND 11017/1023 SLP885 T00290023 56046", "CWGM 011100Z AUTO 23012G19KT M01/M05 RMK AO1 SOG 01 8007 PK WND 21025/1003 SLP057 T10051048", "CWGR 011100Z AUTO 19010G15KT M00/M02 RMK AO1 SLP169 T10011018 56012", "CWGT 011100Z AUTO 24020KT 06/02 RMK AO1 PK WND 23022/1048 SLP075 T00550018 51012", "CWGW 011100Z AUTO 19003KT M01/M03 RMK AO1 1PAST HR 7010 SLP078 P0000 T10061028 50006", "CWGY 011100Z AUTO 33003KT M11/M12 RMK AO1 SOG 24 6014 SLP034 T11061117", "CWHO 011100Z AUTO 00003KT M09/M11 RMK AO1 SLP100 T10881112", "CWHP 011100Z AUTO 20010KT M00/M02 RMK AO1 SLP150 T10031016 56014", "CWHQ 011100Z AUTO 07006KT 01/M03 RMK AO1 T00111030", "CWHT 011100Z AUTO 33010G17KT M02/M07 RMK AO1 SOG 42 3012 PK WND 34020/1035 SLP976 T10231074", "CWHV 011100Z AUTO 13004KT 01/M02 RMK AO1 SLP046 T00061023 56045", "CWID 011100Z AUTO 08005KT M10/M12 RMK AO1 SLP068 T11001124 56005", "CWIG 011100Z AUTO 02012KT RMK AO1", "CWII 011100Z AUTO 11003KT M10/M15 RMK AO1 SLP156 T10961147 57005", "CWIJ 011100Z AUTO 10008KT M30/M34 RMK AO1 SOG 61 8006 SLP255 T13041338", "CWIK 011100Z AUTO 15008KT M11/M14 RMK AO1 SOG 11 8022 SLP111 T11121137", "CWIL 011100Z AUTO ///// ////SM ////// M30/M32 A3037", "CWIP 011100Z AUTO 03003KT M03/M06 RMK AO1 T10331056", "CWIS 011100Z AUTO 04003KT M05/M07 RMK AO1 SOG 144 8034 SLP060 T10511068", "CWIT 011100Z AUTO 12006KT 02/02 RMK AO1 5PAST HR PRESFR 8056 SLP980 P0006 T00150019 50020", "CWIW 011100Z AUTO 15005KT M14/M15 RMK AO1 SOG 18 7016 SLP077 T11361152", "CWIZ 011100Z AUTO 09005KT 02/01 RMK AO1 1PAST HR SOG 01 M P0008 T00170014 50021", "CWJB 011100Z AUTO 01/M03 RMK AO1 SOG 72 T00071028", "CWJC 011100Z AUTO 33009KT M31/M34 RMK AO1 SOG 03 6002 SLP211 T13061338", "CWJD 011100Z AUTO 21004KT M10/M14 RMK AO1 SOG 56 6006 SLP121 T10961135", "CWJH 011100Z AUTO 07003KT M10/M12 RMK AO1 SOG 74 6002 SLP139 T11041124 50002", "CWJI 011100Z AUTO 22010KT M04/M07 RMK AO1 SOG 20 8008 SLP082 T10421069", "CWJO 011100Z AUTO 11003KT M01/M07 RMK AO1 SLP063 T10121066", "CWJR 011100Z AUTO 17005KT 03/01 RMK AO1 8020 SLP086 T00270005 50001", "CWJT 011100Z AUTO 09003KT 03/02 RMK AO1 PRESFR 7055 SLP985 T00290020 50020", "CWJU 011100Z AUTO 23008KT 02/01 RMK AO1 PK WND 24020/1000 SLP014 T00190007 51006", "CWJV 011100Z AUTO 11003KT 02/01 RMK AO1 SLP051 T00240009 56012", "CWJW 011100Z AUTO 14002KT M02/M07 RMK AO1 SLP028 T10161070 58004", "CWJX 011100Z AUTO 21011KT M03/M07 RMK AO1 SOG 33 6017 SLP030 T10331069", "CWKG 011100Z AUTO 12005KT M01/M02 RMK AO1 6PAST HR SOG 03 7035 SLP147 P0002 T10101016 50034", "CWKH 011100Z AUTO 01/M00 RMK AO1 SLP077 T00111001 51012", "CWKM 011100Z AUTO 08012G18KT ////SM NCD M20/M23 A2987", "CWKO 011100Z AUTO 24012KT M03/M06 RMK AO1 SOG 13 6008 SLP097 T10271059", "CWKX 011100Z AUTO 00000KT M04/M05 RMK AO1 SOG 45 3007 SLP978 T10361050", "CWLB 011100Z AUTO 12006KT M04/M05 RMK AO1 SOG 20 7012 SLP035 T10371048", "CWLC 011100Z AUTO 23005KT 04/01 RMK AO1 T00400012", "CWLE 011100Z AUTO 21017KT M04/M07 RMK AO1 SOG 18 8017 PK WND 22019/1003 SLP053 T10421074", "CWLM 011100Z AUTO 25015G23KT 05/02 RMK AO1 PK WND 26023/1044 SLP093 T00460022 51010", "CWLP 011100Z AUTO 25015KT 04/02 RMK AO1 PK WND 25018/1048 SLP075 T00370021 53009", "CWLS 011100Z AUTO 24013G25KT 10/07 RMK AO1 5002 PK WND 24025/1051 SLP914 T00970073 50088", "CWLX 011100Z AUTO ///// ////SM ////// M24/M27 A3015", "CWLY 011100Z AUTO 19012G20KT 150V230 9SM FEW060 BKN075 05/01 A2960 RMK SLP031", "CWME 011100Z AUTO 22006KT 03/02 RMK AO1 4PAST HR 3003 SLP055 P0002 T00290017 50012", "CWMJ 011100Z AUTO 03005KT M00/M00 RMK AO1 2PAST HR PRESFR SOG 38 8052 SLP975 P0009 T10021002 50044", "CWMM 011100Z AUTO 10002KT 04/02 RMK AO1 1014 SLP092 T00380023 50007", "CWMQ 011100Z AUTO 21014KT 01/M06 RMK AO1 PK WND 20020/1011 SLP051 T00131064 56015", "CWMT 011100Z AUTO 08010G16KT M18/M21 RMK AO1 1PAST HR SOG 36 7012 SLP122 P0000 T11821212 50007", "CWNC 011100Z AUTO 10005KT 07/06 RMK AO1 2PAST HR 6047 SLP907 P0001 T00660063 50190", "CWND 011100Z AUTO 08012KT M24/M27 RMK AO1 SLP109 T12421270 52004", "CWNE 011100Z AUTO 19009KT M00/M03 RMK AO1 SLP152 T10011032 58016", "CWNH 011100Z AUTO 14003KT M01/M05 RMK AO1 SOG 54 6037 SLP079 T10091051", "CWNK 011100Z AUTO 28002KT M16/M21 RMK AO1 SLP161 T11551206 55004", "CWNM 011100Z AUTO 00000KT 03/03 RMK AO1 2PAST HR 8021 SLP077 P0001 T00270027 50004", "CWNP 011100Z AUTO 14005KT 03/01 RMK AO1 SOG 16 8023 SLP055 T00260009", "CWNQ 011100Z AUTO 05005KT 01/M00 RMK AO1 1PAST HR 6046 SLP024 P0000 T00071003 50001", "CWNZ 011100Z AUTO 03003KT M17/M20 RMK AO1 SOG 79 8009 SLP113 T11721195", "CWOB 011100Z AUTO 04018KT ////SM ////// M18/M20 A////", "CWOC 011100Z AUTO 07004KT M02/M04 RMK AO1 SOG 56 8018 SLP132 T10231044", "CWOD 011100Z AUTO 07003KT M03/M05 RMK AO1 SOG 40 6034 SLP066 T10311054", "CWOE 011100Z AUTO 07006KT M05/M08 RMK AO1 SOG 26 SLP080 T10501077", "CWOY 011100Z AUTO 17009KT M10/M12 RMK AO1 SOG 04 6017 SLP083 T11011124", "CWPD 011100Z AUTO 34001KT M05/M05 RMK AO1 SLP042 T10461046 57037", "CWPE 011100Z AUTO 13014KT 02/01 RMK AO1 2PAST HR 8036 PK WND 14018/1009 SLP131 P0001 T00150007 50023", "CWPF 011115Z AUTO 21011KT 05/02 RMK AO1 PK WND 23017/1104 SLP096 T00520024 53012", "CWPK 011100Z AUTO 07004KT M03/M04 RMK AO1 SOG 80 6036 SLP027 T10331042", "CWPO 011100Z AUTO 22002KT M16/M19 RMK AO1 SOG 41 6009 SLP171 T11631192", "CWPR 011100Z AUTO 05004KT M01/M03 RMK AO1 SLP045 T10061026 55006", "CWPZ 011100Z AUTO 15002KT M04/M05 RMK AO1 SOG 36 1010 SLP013 T10371046", "CWQH 011100Z AUTO 07003KT 01/M00 RMK AO1 SOG 03 6049 SLP029 T00101001 50005", "CWQK 011100Z AUTO 26028G37KT 05/01 RMK AO1 PK WND 25037/1051 SLP094 T00490009 53008", "CWQO 011100Z AUTO 11005KT M00/M07 RMK AO1 T10041073", "CWQP 011100Z AUTO 16015KT 05/04 RMK AO1 6063 PK WND 13022/1010 SLP923 T00470044 50195", "CWQR 011100Z AUTO 06009KT M02/M03 RMK AO1 T10181028", "CWQS 011100Z AUTO 19007G17KT 02/M00 RMK AO1 PK WND 22029/1030 SLP024 T00241004 51006", "CWQV 011100Z AUTO 09009KT 01/ RMK AO1 T0008", "CWRA 011100Z AUTO 01/M06 RMK AO1 SLP188 T00131055 51013", "CWRJ 011100Z AUTO 20011KT M06/M08 RMK AO1 SOG 04 8021 SLP035 T10621078", "CWRK 011100Z AUTO 32001KT M00/M00 RMK AO1 8PAST HR SOG 36 6061 SLP927 P0007 T10041004 50102", "CWRM 011100Z AUTO 28001KT M04/M06 RMK AO1 SOG 26 8005 SLP003 T10351059", "CWRN 011100Z AUTO 18013KT 01/M00 RMK AO1 PK WND 18017/1051 SLP198 T00121004 56011", "CWRO 011100Z AUTO 21006KT 02/ RMK AO1 SLP018 T0017 51009", "CWRT 011100Z AUTO 30006KT M01/M05 RMK AO1 PK WND 28023/1003 SLP067 T10051051 55004", "CWRU 011100Z AUTO 29010KT 04/ RMK AO1 2PAST HR 1007 SLP074 P0001 T0042 50002", "CWRY 011100Z AUTO 20006KT M00/M03 RMK AO1 SOG 13 8012 SLP057 T10031033", "CWRZ 011100Z AUTO 33003KT M03/M04 RMK AO1 SLP141 T10321035 56015", "CWSA 011113Z AUTO 17012KT 9SM BKN020 BKN091 01/M02 A3016 RMK SLP216", "CWSD 011100Z AUTO 17008KT M00/M02 RMK AO1 SOG 02 7018 SLP163 T10011015", "CWSF 011100Z AUTO 16012G18KT M00/M07 RMK AO1 SOG 24 7013 PK WND 17018/1059 SLP119 T10011070", "CWSG 011100Z AUTO 10003KT M02/M07 RMK AO1 SLP114 T10171072 58017", "CWSK 011100Z AUTO 33002KT 03/02 RMK AO1 4PAST HR 1009 SLP073 P0002 T00270024 50049", "CWSL 011100Z AUTO 00000KT 03/02 RMK AO1 3PAST HR 6013 SLP054 P0001 T00280023 50003", "CWSP 011100Z AUTO 30007KT 04/01 RMK AO1 2008 PK WND 29018/1010 SLP103 T00370014 50006", "CWSR 011100Z AUTO 10004KT M06/M08 RMK AO1 SOG 12 6016 SLP052 T10601075", "CWSS 011100Z AUTO 11004KT 01/M00 RMK AO1 SOG 01 8038 SLP120 T00061002 50015", "CWST 011100Z AUTO 09002KT 02/M03 RMK AO1 SOG 19 6038 SLP068 T00161026", "CWTA 011100Z AUTO 36004KT 01/01 RMK AO1 3PAST HR PRESFR SOG 50 6056 SLP993 P0009 T00120010 50028", "CWTG 011100Z AUTO 02006KT M02/M07 RMK AO1 SLP114 T10231069 58015", "CWTN 011100Z AUTO 06009KT 02/M03 RMK AO1 SLP062 T00211033 58041", "CWTT 011100Z AUTO 10002KT M01/M01 RMK AO1 T10051009", "CWTY 011100Z AUTO 05008KT 01/M00 RMK AO1 SLP031 T00141002 56046", "CWUS 011100Z AUTO 19007G17KT 06/M00 RMK AO1 PK WND 17019/1012 SLP045 T00561002 56014", "CWUW 011100Z AUTO 09018KT ////SM NCD M20/M23 A2998", "CWUX 011100Z AUTO 07003KT M01/M06 RMK AO1 SLP069 T10141058", "CWVF 011100Z AUTO 22012KT 06/02 RMK AO1 T00620016", "CWVI 011100Z AUTO 16003KT M03/M04 RMK AO1 SOG 24 6011 SLP033 T10301036", "CWVN 011100Z AUTO 25002KT M10/M12 RMK AO1 SOG 21 6004 SLP104 T11001123", "CWVP 011100Z AUTO 23010KT M04/M09 RMK AO1 SOG 38 6013 SLP064 T10351087", "CWVQ 011100Z AUTO 05007KT 01/01 RMK AO1 7PAST HR PRESFR SOG 14 8058 SLP985 P0007 T00110006 50038", "CWVT 011100Z AUTO 11006KT M05/M07 RMK AO1 SOG 44 5001 SLP081 T10471071", "CWVU 011100Z AUTO 10020G25KT 01/01 RMK AO1 2PAST HR 8048 PK WND 10025/1041 SLP113 P0001 T00100010 50031", "CWWA 011100Z AUTO 03001KT 03/03 RMK AO1 SLP084 T00310030 51010", "CWWB 011100Z AUTO 22006KT 09/08 RMK AO1 SLP926 T00860083 55009", "CWWE 011100Z AUTO 13011KT M00/M00 RMK AO1 5PAST HR 8033 SLP159 P0002 T10021001 50017", "CWWF 011100Z AUTO 18012KT M09/M11 RMK AO1 SOG 25 6016 SLP102 T10891109", "CWWK 011100Z AUTO 23003KT 06/01 RMK AO1 SLP095 T00620013 51012", "CWWL 011100Z AUTO 25008KT 05/02 RMK AO1 SLP026 T00480019 51008", "CWWS 011100Z AUTO 20011KT M08/M11 RMK AO1 SOG 76 6008 SLP129 T10751114", "CWWZ 011100Z AUTO 21015G23KT 10/07 RMK AO1 5006 PK WND 19027/1041 SLP928 T00980066 50102", "CWXA 011100Z AUTO 00025KT 01/M11 RMK AO1 SLP042 T00141111 58010", "CWXC 011100Z AUTO 03002KT M06/M09 RMK AO1 SLP067 T10601092 56040", "CWXI 011100Z AUTO 19014KT M02/M02 RMK AO1 PK WND 20020/1029 SLP132 T10171024 56016", "CWXL 011100Z AUTO 23009KT 01/M03 RMK AO1 SLP053 T00091034 56010", "CWYJ 011100Z AUTO 26003KT 03/01 RMK AO1 SLP096 T00250014 51010", "CWYY 011100Z AUTO 08003KT 05/03 RMK AO1 2PAST HR 6017 SLP059 P0001 T00510029 50002", "CWZA 011100Z AUTO 25001KT 05/03 RMK AO1 1014 SLP091 T00500029 50028", "CWZG 011100Z AUTO 24004KT 00/M08 RMK AO1 SOG 17 4000 SLP032 T00001082", "CWZL 011100Z AUTO 00000KT 03/01 RMK AO1 SLP038 T00280010 51007", "CWZN 011100Z AUTO 27010KT 01/M04 RMK AO1 SLP182 T00081038 50000", "CWZO 011100Z AUTO 26011KT RMK AO1 PK WND 26017/1018", "CWZQ 011100Z AUTO 17006KT 01/M03 RMK AO1 SLP187 T00061032 56012", "CWZW 011100Z AUTO 09003KT M03/M04 RMK AO1 SOG 57 1008 SLP969 T10301039", "CWZZ 011100Z AUTO 04010KT ////SM ////// ///// A2974", "CXAT 011100Z AUTO 00000KT M30/M33 RMK AO1 SOG 08 5000 SLP288 T12981330", "CXBI 011100Z AUTO 14004KT 02/02 RMK AO1 5034 SLP918 T00180017 50081", "CXBK 011100Z AUTO 15011KT M11/M12 RMK AO1 SOG 20 6015 SLP090 T11111123", "CXBO 011100Z AUTO 07011KT 02/M03 RMK AO1 T00151029", "CXCA 011100Z AUTO 36012KT M11/M19 RMK AO1 SOG 44 1008 PK WND 01017/1050 SLP112 T11091191", "CXCK 011100Z AUTO 31006KT M02/M04 RMK AO1 SOG 63 2012 SLP974 T10171038 50002", "CXDE 011100Z AUTO 10011G17KT M17/M19 RMK AO1 SOG 26 6003 PK WND 10017/1058 SLP115 T11651194", "CXDI 011100Z AUTO 24010G20KT 09/06 RMK AO1 3011 PK WND 24023/1014 SLP940 T00920057 50028", "CXDK 011100Z AUTO M09/M14 RMK AO1 SOG 34 6003 SLP051 T10851136", "CXDW 011100Z AUTO 25007KT M12/M16 RMK AO1 SOG 26 6008 SLP159 T11151155", "CXEA 011100Z AUTO 00000KT M16/M18 RMK AO1 SOG 47 5000 SLP145 T11551184", "CXEC 011100Z AUTO 12001KT M03/M04 RMK AO1 SLP023 T10301041 55004", "CXEG 011100Z AUTO 26004KT M04/M05 RMK AO1 SLP027 T10441054 55003", "CXET 011100Z AUTO 19003KT 02/02 RMK AO1 5025 SLP913 T00240021 50095", "CXGH 011100Z AUTO 00000KT M09/M13 RMK AO1 SLP154 T10861127 56006", "CXHA 011100Z AUTO 23011G18KT 09/05 RMK AO1 PK WND 24019/1037 SLP961 T00900047 51013", "CXHM 011100Z AUTO 24006KT 10/09 RMK AO1 5007 SLP928 T00950089 50134", "CXIB 011100Z AUTO 22003KT 01/M04 RMK AO1 SOG 40 5009 SLP177 T00071035", "CXKA 011100Z AUTO 02007G15KT M13/M16 RMK AO1 SOG 82 8008 PK WND 02017/1033 SLP091 T11281158", "CXKE 011100Z AUTO 08002KT 01/01 RMK AO1 0PAST HR 8058 SLP957 P0008 T00100008 50115", "CXKI 011100Z AUTO 02007G15KT M03/M06 RMK AO1 SOG 65 6038 SLP001 T10331061", "CXKT 011100Z AUTO 07002KT M01/M02 RMK AO1 2PAST HR 8025 SLP161 P0001 T10101023 50004", "CXLB 011100Z AUTO 16012KT 01/M00 RMK AO1 SLP164 T00051001 58027", "CXLL 011100Z AUTO M18/M19 RMK AO1 SOG 67 6001 SLP080 T11751194", "CXMD 011100Z AUTO 26004KT M11/M16 RMK AO1 SOG 24 5001 SLP155 T11131155", "CXMI 011100Z AUTO 15012KT 01/M00 RMK AO1 SLP175 T00051001 58015", "CXMM 011100Z AUTO 10007KT M07/M09 RMK AO1 SOG 32 8010 SLP056 T10661091", "CXMY 011100Z AUTO M00/M00 RMK AO1 7PAST HR M P0003 T10011004 50010", "CXNM 011100Z AUTO 24009KT M04/M05 RMK AO1 SOG 149 T10381051", "CXNP 011100Z AUTO 17009KT M00/M02 RMK AO1 SLP158 T10041020 58017", "CXOX 011100Z AUTO 08007KT M07/M10 RMK AO1 SOG 44 6005 SLP089 T10731102", "CXPC 011100Z AUTO 03/02 RMK AO1 2PAST HR 6051 SLP902 P0009 T00270018 50117", "CXRB 011100Z AUTO 32005KT M30/M32 RMK AO1 SLP304 T12981324 52003", "CXRH 011100Z AUTO 17002KT M02/M04 RMK AO1 SOG 09 6015 SLP165 T10171037 50001", "CXSE 011100Z AUTO 36002KT M35/M38 RMK AO1 SOG 26 3001 SLP293 T13461384 50002", "CXSH 011100Z AUTO 08006KT M00/M02 RMK AO1 SLP030 T10011018 56045", "CXTD 011100Z AUTO 18008KT M00/M02 RMK AO1 SOG 06 7012 SLP199 T10011019", "CXTN 011100Z AUTO 03004KT M24/M27 RMK AO1 SOG 40 3008 SLP178 T12371273", "CXTO 011100Z AUTO 08/08 RMK AO1 6023 SLP917 T00830076 50160", "CXTP 011100Z AUTO 00000KT M03/M04 RMK AO1 SLP168 T10261043 50000", "CXTV 011100Z AUTO 28002KT M25/M27 RMK AO1 SOG 44 1002 SLP131 T12541274", "CXVN 011100Z AUTO 22024G34KT 11/07 RMK AO1 SOG 01 5009 PK WND 23034/1053 SLP927 T01130070 50098", "CXWN 011100Z AUTO 00000KT M09/M14 RMK AO1 SLP157 T10901141 56002", "CXYH 011100Z AUTO 00000KT M13/M14 RMK AO1 SLP053 T11281135 58002", "CXZC 011100Z AUTO 32001KT M20/M23 RMK AO1 SOG 56 6007 SLP140 T12011226", "CXZV 011100Z AUTO 03004KT M05/M06 RMK AO1 SOG 76 7015 SLP124 T10491064", "CYAH 011117Z AUTO 06003KT 9SM BKN066 M21/M23 A2977 RMK ICE MISG SLP121", "CYAM 011100Z 05019G29KT 1/2SM R12/3500V4500FT/N SN BLSN BKN008 OVC015 M01/M01 A2928 RMK SN6SF1NS1 VIS VRB 3/8-5/8 CIG VRB 6-10 /S14/ SLP926", "CYAT 011100Z AUTO 32002KT 9SM BKN013 M23/M25 A2999 RMK SLP159", "CYAY 011127Z AUTO 14005KT 9SM OVC011 M04/M05 A2994 RMK SLP142", "CYBB 011100Z 04010KT 15SM BKN075 BKN190 M23/M27 A3026 RMK AC5CS2 SLP252", "CYBC 011100Z AUTO 09008KT 9SM OVC050 00/M03 A2982 RMK SLP100", "CYBG 011100Z 09008KT 25SM OVC030 M01/M04 A2970 RMK SC8 DENSITY ALT -1050FT SLP065", "CYBK 011100Z 35014KT 15SM -SN DRSN BKN038 M22/M25 A3008 RMK SC7 SLP192", "CYBQ 011100Z AUTO 31006KT 9SM CLR M27/M30 A2999 RMK SLP194", "CYBR 011100Z VRB02KT 15SM BKN087 M14/M18 A2990 RMK AC5 SLP157", "CYBU 011100Z AUTO 14002KT 9SM SCT025 M10/M12 A2974 RMK SLP098", "CYBW 011100Z AUTO 25012KT 9SM BKN240 M00/M08 A2953 RMK SLP032", "CYBX 011125Z 23012G18KT 4SM -SN BKN012 OVC020 M01/M01 A2993 RMK SC6SC2 SLP138", "CYCA 011127Z AUTO 21004KT 190V250 6SM -SN FEW036 SCT043 OVC055 M03/M04 A2984 RMK SLP109", "CYCB 011100Z 05002KT 15SM IC FEW070 M32/M35 A3041 RMK AC1 SLP307", "CYCK 011100Z AUTO 24017KT 9SM CLR 08/05 A2938 RMK SLP954", "CYCO 011100Z 11008KT 15SM SKC M22/M27 A3019 RMK SLP229", "CYCY 011100Z AUTO 29010KT 9SM CLR M26/M29 A3033 RMK SLP276", "CYDB 011100Z AUTO 29007KT 9SM -SN OVC035 M07/M10 A2940 RMK SLP005", "CYDF 011100Z 24005KT 15SM BKN044 BKN120 M01/M04 A3003 RMK SC5AC2 SLP174", "CYDL 011100Z AUTO 00000KT 9SM FEW170 M04/M05 A2936 RMK SLP963", "CYDN 011100Z AUTO 27004KT 9SM BKN096 M10/M15 A2988 RMK SLP142", "CYDP 011100Z VRB02KT 1/2SM FZFG VV003 M10/M11 A2987 RMK FG8 SLP116", "CYDQ 011100Z AUTO VRB02KT 9SM CLR 00/M03 A2947 RMK SLP005", "CYEG 011100Z 26003KT 6SM BR FEW004 OVC060 M04/M05 A2952 RMK ST1SC8 ST TR FROIN SLP031", "CYEK 011127Z AUTO 32015KT 2 1/4SM -SN OVC022 M23/M25 A2993 RMK SLP137", "CYEN 011100Z AUTO 17010G15KT 9SM OVC055 M06/M08 A2978 RMK SLP119", "CYER 011100Z AUTO 27006KT 9SM SCT240 M27/M30 A3002 RMK SLP170", "CYET 011100Z AUTO 01002KT 9SM BKN170 BKN190 M02/M06 A2949 RMK SLP011", "CYEV 011100Z 07006KT 15SM -SN SCT066 M18/M23 A2986 RMK AC3 SLP124", "CYFB 011100Z 08008KT 5SM -SN OVC014 M12/M15 A3007 RMK SC8 SLP187", "CYFC 011121Z AUTO 10006KT 9SM FEW006 OVC020 M00/M01 A2989 RMK SLP125", "CYFO 011100Z 05007KT 15SM SCT009 M09/M11 A2982 RMK SC3 SNW CVR/MUCH LOOSE SLP122", "CYFS 011100Z 36003KT 6SM -SN BKN054 BKN140 BKN250 M15/M17 A2972 RMK SC5AC2CI1 CI TR SLP084", "CYFT 011100Z 13004KT 050V160 15SM BKN100 BKN220 M05/M10 A2981 RMK AS5CI2 SLP101", "CYGK 011125Z 08003KT 3SM -RA BR OVC005 05/05 A2932 RMK SF8 CIG RAG SLP932", "CYGL 011100Z 36003KT 15SM SCT049 M23/M25 A2985 RMK SC4 SLP133", "CYGP 011100Z 26003KT 15SM OVC070 M06/M06 A2994 RMK AS8 SLP142", "CYGR 011100Z 20010G17KT 20SM SCT061 BKN270 00/M02 A3002 RMK SC3CI4 SLP169", "CYGV 011100Z AUTO 06006KT 9SM OVC008 M04/M05 A2994 RMK SLP142", "CYGW 011127Z AUTO 00000KT 5SM -SN BKN048 BKN066 BKN089 M18/M20 A2995 RMK SLP146", "CYGX 011100Z 30004KT 15SM FEW100 M27/M30 A3002 RMK AS1 AS TR SLP186", "CYHD 011100Z AUTO 06004KT 9SM CLR M13/M20 A2988 RMK SLP152", "CYHE 011100Z AUTO 29012G19KT 9SM FEW046 BKN060 BKN110 05/02 A2976 RMK SLP080", "CYHK 011100Z AUTO 02014KT 6SM HZ BKN180 M27/M30 A3033 RMK SLP283", "CYHM 011100Z 23019G29KT 15SM FEW010 FEW120 10/07 A2932 RMK CF1AC1 CF TR SLP932 DENSITY ALT 1100FT", "CYHU 011122Z AUTO 04008KT 3SM -UP BR OVC013 01/00 A2949 RMK PCPN 0.5MM PAST HR SLP989", "CYHY 011100Z 11010G17KT 3/4SM -SN DRSN VV026 M09/M12 A2968 RMK SN8 SLP068", "CYHZ 011100Z 17008KT 4SM -SN BKN007 BKN015 OVC030 M01/M02 A3002 RMK SF5SC2NS1 CIG RAG /S01/ SLP173", "CYIN 011115Z AUTO 18008KT 9SM -SN FEW046 SCT060 BKN077 BKN094 M02/M06 A2950 RMK SLP027", "CYIO 011100Z AUTO 21002KT 9SM CLR M30/M33 A3033 RMK SLP284", "CYIV 011100Z AUTO 04003KT 010V080 9SM FEW071 OVC110 M13/M17 A2992 RMK SLP152", "CYJT 011100Z 20009KT 15SM SCT015 BKN026 00/M03 A3005 RMK SC3SC4 SLP178", "CYKA 011100Z 13013G19KT 40SM SCT056 BKN120 05/01 A2961 RMK SC3AC3 SLP039", "CYKF 011100Z AUTO 23013G21KT 9SM CLR 10/09 A2929 RMK SLP925 DENSITY ALT 1400FT", "CYKJ 011104Z AUTO 09009KT 9SM -SN OVC043 M14/M16 A2980 RMK SLP139", "CYKL 011121Z AUTO 00000KT 2SM BR CLR M21/M23 A2972 RMK SLP128", "CYKP 011100Z AUTO 00000KT 9SM CLR M20/M22 A2992 RMK SLP157", "CYKY 011100Z 16007KT 15SM FEW100 M08/M10 A2952 RMK AC1 AC TR SLP034", "CYLD 011100Z 02021G29KT 15SM BKN014 OVC042 M10/M13 A2948 RMK SC5SC3 SLP016", "CYLH 011100Z AUTO 26003KT 9SM CLR M23/M25 A2988 RMK SLP146", "CYLL 011100Z AUTO 11008KT 1/4SM -FZRA FZFG VV002 M07/M09 A2953 RMK ICE SLP038", "CYLW 011128Z AUTO 02004KT 9SM -RA BKN047 OVC055 04/02 A2963 RMK SLP049", "CYMA 011100Z 01006KT 10SM -SN FEW013 OVC038 M03/M05 A2941 RMK SC2SC6 SLP991", "CYMH 011100Z AUTO 21006KT 170V240 9SM BKN041 OVC110 M03/M05 A2991 RMK SLP132", "CYMM 011100Z AUTO 10008KT 9SM FEW120 M07/M09 A2963 RMK SLP057", "CYMO 011100Z AUTO 34006KT 9SM CLR M20/M23 A2992 RMK SLP134", "CYMT 011116Z AUTO 08006KT 9SM -SN FEW041 SCT050 BKN066 OVC094 M11/M12 A2963 RMK SLP065", "CYMX 011100Z 05006G15KT 020V080 3SM -RA BR OVC003 00/00 A2950 RMK ST8 SLP996", "CYNA 011100Z AUTO 03002KT 9SM SCT010 BKN110 M03/M04 A2996 RMK SLP149", "CYND 011100Z 07014G21KT 3SM -RA BR OVC005 01/00 A2942 RMK FG1ST7 PRESFR SLP968", "CYNE 011100Z AUTO 06003KT 330V090 9SM OVC055 M08/M13 A2986 RMK SLP132", "CYNM 011100Z AUTO 34008KT 9SM CLR M13/M15 A2966 RMK SLP065", "CYOD 011117Z 06002KT 6SM BR SKC M08/M09 A2959 RMK DENSITY ALT -417FT SLP047", "CYOJ 011100Z AUTO 13006KT 9SM CLR M06/M07 A2955 RMK SLP030", "CYOO 011117Z AUTO 21008KT 1 3/4SM BR OVC002 08/08 A2927 RMK PRESRR SLP917", "CYOW 011100Z 06014KT 3SM RA BR OVC003 00/00 A2940 RMK ST8 PRESFR SLP964", "CYPA 011100Z 08007KT 6SM BR SKC M14/M15 A2969 RMK FROIN SLP088", "CYPD 011100Z AUTO 18005KT 9SM BKN005 OVC076 M01/M01 A3006 RMK SLP189", "CYPE 011100Z 25002KT 15SM OVC080 M00/M04 A2949 RMK AC8 SLP013", "CYPH 011111Z AUTO VRB02KT 9SM OVC014 M20/M22 A2993 RMK SLP142", "CYPL 011100Z AUTO 29007KT 9SM CLR M15/M22 A2988 RMK SLP151", "CYPO 011123Z AUTO 06002KT 9SM FEW002 M33/M36 A2997 RMK SLP163", "CYPQ 011100Z AUTO VRB02KT 9SM OVC003 03/03 A2925 RMK PRESFR SLP911", "CYPR 011100Z AUTO 10003KT 060V120 9SM BKN014 BKN019 OVC025 02/02 A2959 RMK SLP022", "CYPX 011115Z AUTO 23007KT 170V240 5SM -SN OVC047 M23/M25 A2992 RMK SLP136", "CYPY 011100Z AUTO 08015KT 9SM BKN060 BKN089 BKN110 OVC140 M13/M17 A2975 RMK SLP096", "CYQA 011104Z AUTO 12008G16KT 9SM BKN005 OVC009 02/02 A2919 RMK SLP897", "CYQB 011100Z 07016KT 30SM OVC028 01/M03 A2966 RMK SC8 PRESFR SLP049", "CYQD 011100Z AUTO 07003KT 9SM OVC039 M07/M10 A2981 RMK SLP112", "CYQF 011100Z AUTO 24005KT 9SM FEW100 BKN120 OVC200 M02/M07 A2952 RMK SLP039", "CYQG 011100Z AUTO 22013G18KT 9SM CLR 10/05 A2940 RMK SLP958", "CYQH 011100Z VRB02KT 20SM OVC120 M05/M08 A2941 RMK AC8 SLP998", "CYQI 011100Z 13013G20KT 2 1/2SM -SHRA BR OVC004 00/00 A2990 RMK SF8 PRESFR SLP127", "CYQK 011100Z 02004KT 20SM FEW080 FEW240 M11/M20 A2990 RMK AC1CI1 SLP153", "CYQL 011100Z AUTO 23013KT 9SM SCT140 OVC180 01/M05 A2961 RMK SLP048", "CYQM 011100Z 16009KT 12SM FEW008 FEW051 BKN072 M00/M02 A2996 RMK ST1SC2AC5 ST TR SLP152", "CYQQ 011100Z 25006KT 20SM FEW040 FEW070 BKN120 05/M01 A2976 RMK SC1AC2AC4 SLP077", "CYQR 011100Z 13012KT 15SM SKC M11/M13 A2970 RMK SLP097", "CYQT 011100Z 01005KT 290V050 15SM FEW250 M09/M20 A2978 RMK CI2 SLP098", "CYQU 011100Z 26002KT 25SM BKN070 00/M03 A2949 RMK AC7 SLP012", "CYQV 011100Z AUTO 16009KT 9SM CLR M11/M14 A2975 RMK SLP110", "CYQW 011100Z AUTO 12015KT 3/8SM SN VV002 M08/M09 A2959 RMK ICE SLP054", "CYQX 011100Z 23003KT 20SM VCFG FEW003 FEW024 SCT032 M03/M03 A3000 RMK SF1SC1SC2 SC TR FG BNK VIS E-SE 5 PRESFR SLP170", "CYQY 011100Z 20008KT 15SM FEW090 SCT120 BKN150 M02/M02 A3010 RMK AC1AC2AS4 SLP197", "CYQZ 011100Z AUTO 00000KT 9SM BKN076 BKN110 M02/M03 A2955 RMK SLP031", "CYRB 011100Z 32005KT 25SM FEW032 M30/M33 A3039 RMK SC1 SC TR SLP308", "CYRJ 011100Z 07002KT 25SM OVC022 M03/M05 A2967 RMK SC8 PRESFR SLP059", "CYRL 011100Z CCA 00000KT 15SM FEW025 BKN090 BKN240 M14/M19 A2990 RMK SC1AC5CI1 SLP154", "CYRQ 011114Z AUTO 06007KT 2 1/2SM -SN OVC023 00/M00 A2959 RMK SLP025", "CYRT 011100Z CCA 05015KT 8SM IC DRSN BKN021 M22/M25 A2992 RMK SC6 SLP138", "CYRV 011113Z AUTO VRB02KT 9SM SCT066 OVC079 03/01 A2966 RMK SLP059", "CYSB 011100Z 04025G31KT 3/8SM R22/1200V1600FT/N -SN BLSN VV002 M02/M03 A2928 RMK SN8 PRESFR SLP932", "CYSC 011129Z AUTO 04003KT 5SM RA -UP BR OVC024 00/M01 A2955 RMK PRESFR SLP019", "CYSF 011100Z AUTO 07006KT 9SM CLR M23/M26 A3001 RMK SLP192", "CYSJ 011100Z 13009KT 6SM -SN OVC004 M00/M00 A2992 RMK ST8 SLP140", "CYSM 011100Z 11005KT 070V160 12SM -SN OVC070 M12/M17 A2980 RMK AC8 SLP110", "CYSN 011100Z 22024G31KT 15SM BKN120 11/07 A2931 RMK AC6 SLP928 DENSITY ALT 700FT", "CYTE 011113Z AUTO 04004KT 360V060 9SM -SN FEW011 BKN020 OVC086 M16/M17 A2999 RMK SLP165", "CYTH 011100Z 05006KT 15SM BKN083 M17/M20 A2997 RMK AC6 SLP173", "CYTL 011100Z AUTO 03005KT 8SM -SN FEW055 M16/M18 A2990 RMK SLP147", "CYTR 011118Z 01005KT 3SM BR OVC003 06/06 A2926 RMK SF8 DENSITY ALT 130FT SLP911", "CYTS 011123Z 02016G22KT 15SM DRSN FEW020 BKN060 OVC200 M10/M14 A2960 RMK SF1SC6CI2 SF TR SLP044", "CYTZ 011100Z AUTO 21004KT 180V310 1/8SM R26/1200V1800FT/ FG VV002 06/06 A2928 RMK SLP920", "CYUA 011100Z AUTO 28006KT 250V310 ////SM NCD M25/M28 A2985", "CYUL 011100Z 03012KT 5SM -RA BR OVC006 01/01 A2949 RMK ST8 PRESFR SLP989", "CYUS 011111Z AUTO 33009KT 270V010 ////SM //// SCT005 SCT065 OVC075 M24/M27 A3031", "CYUT 011100Z 03007KT 10SM BKN020 M19/M22 A3014 RMK SC6 CALLOUT OBS SLP211", "CYUX 011100Z AUTO 02008KT 9SM OVC140 M24/M26 A3023 RMK SLP240", "CYUY 011100Z 05010KT 15SM -SN OVC008 M03/M04 A2950 RMK SC8 SLP009", "CYVC 011100Z 07008KT 15SM SCT065 M08/M10 A2974 RMK SC4 SLP098", "CYVL 011100Z AUTO 10010G18KT 9SM -SN OVC081 M20/M23 A2981 RMK SLP129", "CYVM 011109Z AUTO 05003KT 2 1/2SM -SN FEW010 BKN029 OVC034 M20/M22 A3028 RMK SLP256", "CYVO 011100Z 06009KT 15SM OVC006 M03/M03 A2950 RMK ST8 SLP011", "CYVP 011100Z 06002KT 15SM IC -SN BKN010 BKN014 BKN200 M22/M24 A2988 RMK ST5ST2CI1 CI TR SLP125", "CYVQ 011100Z CCA 00000KT 15SM -SN FEW027 SCT036 BKN054 OVC076 M13/M16 A2978 RMK SC2SC2SC2AC2 SLP095", "CYVR 011100Z 15004KT 120V250 12SM FEW033 FEW043 FEW080 SCT110 05/02 A2978 RMK SC1SC1AC1AC1 SC TR SLP086", "CYVT 011100Z AUTO 11009KT 9SM BKN160 M05/M07 A2966 RMK SLP069", "CYVV 011100Z 22012KT 150V230 6SM BR OVC006 06/05 A2918 RMK SF8 SLP888", "CYWE 011100Z AUTO 09012G17KT 9SM OVC086 M21/M26 A2994 RMK ICE MISG SLP188", "CYWG 011100Z 28002KT 15SM FEW100 M15/M17 A2994 RMK AC1 AC TR SLP160", "CYWK 011100Z 22003KT 3/4SM BR OVC002 M21/M23 A2977 RMK SF8 SLP131", "CYWL 011100Z 12006KT 15SM BKN060 M01/M05 A2952 RMK SC7 SLP030", "CYXC 011100Z 13007KT 15SM BKN070 01/M03 A2969 RMK AC7 SLP079", "CYXE 011100Z 09007KT 15SM SKC M10/M11 A2961 RMK SLP059", "CYXH 011100Z AUTO 21014G19KT 9SM BKN180 OVC200 01/M04 A2960 RMK SLP041", "CYXJ 011100Z 17005KT 15SM FEW130 BKN190 M01/M04 A2945 RMK AC2AC4 SLP002", "CYXL 011100Z 36004KT 15SM FEW240 M15/M21 A2991 RMK CI1 SLP158", "CYXR 011115Z AUTO 02012G17KT 9SM -SN OVC009 M02/M04 A2948 RMK SLP998", "CYXS 011100Z AUTO 19010G16KT 9SM FEW038 01/M03 A2951 RMK SLP021", "CYXT 011100Z 19007KT 4SM -SHRA BR SCT005 BKN024 OVC040 01/00 A2956 RMK SF3CU4SC1 SLP019", "CYXU 011100Z 24015G25KT 15SM FEW015 FEW140 10/07 A2933 RMK SF1AC1 SF TR SLP936 DENSITY ALT 1300FT", "CYXX 011120Z 18010KT 10SM -SHRA FEW053 SCT080 BKN110 04/02 A2979 RMK SC2AC3AC1 CVCTV CLD EMBD SLP093", "CYXY 011100Z 12002KT 15SM SCT065 BKN100 M02/M05 A2931 RMK SC3AC4 SLP960", "CYXZ 011100Z 04012G23KT 15SM BKN210 M10/M14 A2954 RMK CI7 SLP023", "CYYB 011100Z 05013G22KT 5SM -FZRA -PL BR SCT008 OVC025 M01/M02 A2928 RMK SF3SC5 SLP933", "CYYC 011100Z 26007KT 10SM SCT088 BKN210 BKN240 03/M10 A2953 RMK AC4CI2CI1 CI TR SLP026", "CYYD 011100Z AUTO 00000KT 9SM SCT066 BKN120 M01/M02 A2949 RMK SLP005", "CYYE 011100Z 32005KT 15SM -SN OVC032 M07/M10 A2957 RMK SC8 SLP042", "CYYF 011100Z 20017G23KT 15SM SCT045 BKN100 OVC170 06/01 A2965 RMK SC3AC3AC2 SLP050", "CYYG 011100Z 16008KT 15SM BKN055 BKN080 M00/M02 A3001 RMK SC7AC1 AC TR SLP168", "CYYH 011100Z 36007KT 15SM IC SCT120 BKN150 BKN200 M27/M30 A3035 RMK AS3AS2CI1 SLP286", "CYYJ 011116Z 25006KT 20SM FEW026 SCT036 BKN120 04/01 A2980 RMK CU1SC3AC3 CU TR SLP093", "CYYL 011100Z AUTO 07006KT 9SM BKN048 M21/M25 A2993 RMK SLP175", "CYYN 011100Z AUTO 21017G22KT 9SM CLR M04/M07 A2960 RMK ICE MISG SLP060", "CYYQ 011100Z 29008KT 15SM SKC M28/M32 A3001 RMK SLP168", "CYYR 011100Z 25014KT 15SM FEW015 SCT065 BKN080 M03/M07 A2985 RMK SC1SC3AS4 SLP112", "CYYT 011100Z 28010G16KT 15SM FEW045 SCT063 M03/M06 A3003 RMK SC1SC3 SLP180", "CYYU 011100Z 02011G16KT 15SM FEW038 SCT230 BKN240 M13/M16 A2974 RMK SC2CC1CC4 SLP089", "CYYW 011100Z AUTO 28002KT 9SM CLR M20/M23 A2989 RMK SLP157", "CYYY 011100Z 14010KT 30SM OVC054 M01/M09 A2980 RMK SC8 PRESFR SLP095", "CYYZ 011125Z 22011KT 8SM R23/5500VP6000FT/D FEW005 SCT075 07/07 A2928 RMK SF2AC1 SLP919", "CYZE 011129Z AUTO 05015G28KT 1SM -SN BKN007 OVC014 M00/M01 A2925 RMK ICE INTMT SLP914", "CYZF 011100Z 08016KT 15SM BKN070 M18/M23 A2987 RMK AC7 SLP141", "CYZH 011100Z AUTO 12004KT 100V160 9SM FEW071 OVC091 M01/M04 A2951 RMK SLP017", "CYZP 011100Z AUTO 19006KT 9SM BKN100 OVC120 01/M01 A2961 RMK SLP029", "CYZR 011100Z AUTO 25015G21KT 9SM CLR 11/03 A2931 RMK SLP930 DENSITY ALT 1000FT", "CYZS 011100Z 05018KT 15SM -SN SCT017 OVC032 M18/M20 A3000 RMK SC3SC5 SLP171", "CYZT 011100Z 22006KT 15SM FEW050 SCT078 BKN100 02/02 A2975 RMK SC1AC2AC2 SLP076", "CYZV 011115Z 04008KT 30SM FEW003 FEW050 BKN089 M04/M05 A2988 RMK SF1CU2AC5 SF TR SLP125", "CYZX 011119Z 07005KT 4SM -SN OVC015 M01/M02 A2997 RMK SC8 DENSITY ALT -1793FT SLP151", "CYZY 011129Z AUTO 15008KT 9SM -RA SCT008 BKN030 OVC045 01/M00 A2945 RMK SLP003", "CZBF 011100Z AUTO 17005KT 9SM OVC055 M02/M07 A2992 RMK SLP138", "CZCR 011100Z AUTO 08008KT M02/M03 RMK AO1 SOG 55 8021 SLP123 T10231031", "CZDB 011100Z AUTO 19005KT 01/M02 RMK AO1 SOG 02 8012 SLP177 T00051022", "CZEL 011100Z AUTO 22014G20KT 08/08 RMK AO1 SOG 01 5004 PK WND 22020/1057 SLP925 T00750081 50141", "CZEV 011100Z AUTO 09007KT M18/M23 RMK AO1 SOG 47 3003 SLP125 T11821228", "CZFS 011100Z AUTO 33003KT M15/M17 RMK AO1 SOG 50 4000 SLP083 T11521173 50007", "CZHY 011100Z AUTO 11009KT M08/M11 RMK AO1 3PAST HR SOG 21 8009 PK WND 12017/1030 SLP064 P0001 T10751109 50010", "CZMD 011100Z AUTO 05004KT 9SM BKN048 OVC071 M13/M17 A2989 RMK SLP147", "CZMJ 011100Z AUTO 22012KT M01/M04 RMK AO1 PK WND 25019/1013 SLP079 T10131035 56011", "CZPC 011100Z AUTO 27018G24KT 9SM BKN230 01/M06 A2961 RMK SLP057", "CZSJ 011100Z AUTO 00000KT 9SM OVC071 M09/M18 A2989 RMK SLP143", "CZSM 011100Z AUTO 10007KT M12/M16 RMK AO1 SOG 38 8011 SLP112 T11191163", "CZSP 011100Z AUTO 17006KT M01/M02 RMK AO1 SOG 11 6014 SLP173 T10061015", "CZUM 011122Z AUTO 00000KT 6SM BR CLR M15/M17 A2978 RMK SLP131", "CZVL 011127Z AUTO 10002KT 1 3/4SM BR BKN001 M03/ A2951 RMK DP MISG SLP027", "CZZJ 011100Z AUTO 01001KT M02/M07 RMK AO1 SOG 17 6007 SLP012 T10201069", "DAAG 011100Z 30017KT 9999 FEW026 BKN200 23/13 Q1019", "DAAS 011100Z 30014KT 260V340 9999 FEW026 SCT100 21/01 Q1019", "DAAT 011100Z VRB02KT CAVOK 25/M08 Q1024", "DABB 011100Z 05008KT 9999 FEW020 BKN200 20/14 Q1016", "DABC 011100Z 04006KT CAVOK 20/06 Q1018", "DABS 011100Z 33005KT 9999 FEW033 SCT100 25/M04 Q1017", "DAOB 011100Z 28014KT 9999 SCT026 SCT220 18/06 Q1023", "DAOI 011100Z 22005KT 9999 SCT026 SCT233 24/08 Q1021", "DAON 011100Z 28016KT CAVOK 25/09 Q1022", "DAOO 011100Z 24019KT CAVOK 25/12 Q1021", "DAUA 011100Z 35008KT CAVOK 31/// Q1020", "DAUB 011100Z 32014KT 7000 FEW040 SCT200 27/M02 Q1016", "DAUG 011100Z 32011KT 290V350 CAVOK 28/M01 Q1019", "DAUH 011100Z 33005KT 260V010 CAVOK 29/M03 Q1017", "DBBB 011100Z 19010KT 9999 SCT013 31/26 Q1012 NOSIG", "DFFD 011100Z 06013KT 010V080 8000 NSC 37/M03 Q1013 NOSIG", "DFOO 011100Z VRB05KT CAVOK 34/10 Q1014", "DGAA 011100Z 21011KT 9999 FEW032 31/24 Q1012 NOSIG", "DIAP 011100Z 19007KT 160V230 9999 FEW013 30/25 Q1012 NOSIG", "DIBK 011100Z 22006KT 9999 SCT015 30/23 Q1014 NOSIG", "DIYO 011100Z 20006KT 9999 BKN015 30/25 Q1013 NOSIG", "DNAA 011100Z 25007KT 9999 FEW013 34/21 Q1013 NOSIG", "DNGO 011100Z 09017KT 1200 HZ NSC 36/06 Q1012", "DNIB 011100Z 23003KT 9999 BKN012 31/24 Q1013", "DNIL 011100Z 16007KT 9999 FEW012 31/23 Q1013", "DNKN 011100Z 06016KT 0900 R06/0360 R24/0360 DU VV/// 34/M01 Q1017 NOSIG", "DNMM 011100Z 22006KT 9999 SCT014 32/25 Q1013 NOSIG", "DNMN 011100Z 10012KT 6000 FEW014 35/17 Q1012", "DNSO 011100Z 08019KT 2000 HZ NSC 27/02 Q1014", "DNYO 011100Z 24008KT 1800 HZ NSC 38/09 Q1011", "DRRM 011100Z 09014KT 030V110 0600 BLDU NSC 05/M02 Q1015", "DRRN 011100Z 11016KT 3400 BLDU NSC 38/M08 Q1012 NOSIG", "DRRT 011100Z 10012KT 6000 NSC 36/M07 Q1015", "DRZA 011100Z 10016KT 6000 NSC 34/M02 Q1016", "DRZR 011100Z 02014KT 1400 BLDU NSC 34/M07 Q1016", "DTKA 011100Z 31010KT 9999 SCT020 18/14 Q1017 NOSIG", "DTMB 011100Z 10008KT 8000 FEW023 24/10 Q1015", "DTNH 011100Z 09009KT CAVOK 25/07 Q1014 NOSIG", "DTTA 011100Z 33007KT 260V360 9999 SCT030 24/10 Q1015", "DTTB 011100Z 27010KT 240V300 9999 SCT020 21/14 Q1015", "DTTD 011100Z 27010KT 230V300 CAVOK 30/M03 Q1017", "DTTF 011100Z VRB03KT 9999 FEW033 29/02 Q1016", "DTTG 011100Z 21004KT 140V270 CAVOK 29/M02 Q1015 NOSIG", "DTTJ 011100Z 05006KT 010V100 CAVOK 25/08 Q1015 NOSIG", "DTTK 011100Z VRB02KT CAVOK 29/01 Q1014", "DTTL 011100Z VRB04KT 9999 SCT020 SCT030 21/13 Q1015", "DTTN 011100Z 35012KT 9999 SCT020 /////// Q1015", "DTTR 011100Z 24009KT 200V270 CAVOK 29/M03 Q1018", "DTTX 011100Z 09009KT CAVOK 25/09 Q1015", "DTTZ 011100Z 11010KT 8000 NSC 29/M01 Q1014", "DXNG 011100Z VRB04KT 9999 FEW008 32/17 Q1015", "DXXX 011100Z 23011KT 9999 SCT016 31/26 Q1012 NOSIG", "EBAW 011120Z 27013KT 9999 -RADZ BKN006 09/08 Q1000 TEMPO 3500 RADZ BKN004", "EBBE 011055Z AUTO 26012KT 9999 DZ FEW006/// BKN008/// BKN012/// 10/09 Q1000 GRN", "EBBL 011120Z AUTO 26012KT 9999 DZ OVC007/// 09/08 Q0999 GRN", "EBBR 011120Z 28014KT 9000 -RA SCT008 BKN010 10/08 Q1000 TEMPO BKN008", "EBCI 011120Z 27008KT 240V300 9999 FEW007 BKN009 09/07 Q1001 TEMPO 2500 -RADZ", "EBCV 011055Z AUTO 29013KT 9999 BKN010/// OVC015/// 09/08 Q1001 GRN", "EBDT 011055Z AUTO 28009KT 8000 -RA OVC006/// 09/09 Q0999 YLO", "EBFN 011122Z AUTO 31014KT 3400 -RA OVC007/// 08/08 Q1002 YLO", "EBFS 011055Z AUTO 28016KT 9999 FEW007/// BKN010/// OVC018/// 09/07 Q1001 GRN", "EBLB 011122Z AUTO 27010G21KT 1800 -RA OVC005/// 07/06 Q0999 YLO", "EBLG 011120Z 27015KT 9000 -RA SCT006 OVC009 09/08 Q1000 REDZ TEMPO 2500 RADZ", "EBOS 011120Z 31015KT 3200 -DZRA SCT005 BKN007 08/07 Q1002 TEMPO 2500 RADZ BKN004", "EDAC 011050Z 24014KT 9999 SCT030 OVC046 12/06 Q1000", "EDAH 011120Z 05016KT 020V080 9999 OVC010 04/02 Q1003", "EDBC 011120Z AUTO 21006KT 180V240 9999 // SCT039/// SCT062/// BKN097/// 12/07 Q0999", "EDDB 011120Z AUTO 06011KT 9999 -RA BKN006 BKN010 OVC026 09/08 Q1000 TEMPO SHRA", "EDDC 011120Z AUTO 23009KT 210V270 9999 -RA FEW024 SCT032 BKN041 10/08 Q1000 NOSIG", "EDDE 011120Z AUTO 22010KT 9999 BKN021 BKN031 10/06 Q0999 NOSIG", "EDDF 011120Z AUTO 21011KT 9999 -DZ FEW018 BKN043 12/09 Q1000 NOSIG", "EDDG 011120Z AUTO 13004KT 070V170 9999 BKN009 BKN026 OVC048 12/09 Q0996 TEMPO 3000 RADZ", "EDDH 011120Z AUTO 07017KT 9999 -RADZ BKN010 07/05 Q1001 TEMPO 07020G30KT BKN009", "EDDK 011120Z AUTO 26015KT 9999 BKN015 BKN020 11/08 Q0998 TEMPO 3000 RADZ", "EDDL 011120Z AUTO 24013KT 9999 -RA BKN008 BKN014 10/09 Q0997 TEMPO 3000 RADZ", "EDDM 011120Z AUTO 25026G39KT 9999 -RA BKN035 OVC047 11/04 Q1004 TEMPO RA", "EDDN 011120Z AUTO 21009KT 9999 -RADZ FEW007 BKN022 OVC027 09/07 Q1002 TEMPO 25015G25KT", "EDDP 011120Z AUTO 23005KT 200V260 9999 SCT026 BKN032 OVC040 12/07 Q0999 NOSIG", "EDDR 011120Z AUTO 24017KT 9999 -RADZ BKN012 BKN018 09/07 Q1002 BECMG SCT012 BKN015", "EDDS 011120Z AUTO 23013G27KT 160V270 9999 BKN022 OVC046 10/05 Q1003 NOSIG", "EDDV 011120Z AUTO 13003KT 080V170 9999 FEW018 OVC033 11/09 Q0998 TEMPO BKN012", "EDDW 011120Z AUTO 06016KT 9999 -DZ BKN007 09/08 Q0999 TEMPO SCT007 BKN012", "EDFH 011120Z 26015KT 6000 BKN007 09/07 Q0999", "EDFM 011120Z 20009KT 9999 -DZ FEW018 BKN022 OVC030 11/08 Q1002", "EDGS 011120Z 25014KT 3500 RA BR SCT004 BKN007 OVC033 07/06 Q0997", "EDHI 011120Z AUTO 07014KT 9999 // OVC011/// 07/05 Q1001", "EDHK 011120Z 09019KT 9999 OVC009 04/02 Q1005", "EDHL 011120Z 07016KT 9999 -RA OVC008 05/04 Q1003", "EDJA 011120Z 22019KT 9999 -RA FEW017 BKN021 OVC027 07/05 Q1005", "EDLN 011120Z 24007KT 200V300 8000 -RA OVC010 10/09 Q0997", "EDLP 011120Z 21004KT 180V260 9999 -RA BKN019 BKN022 OVC037 10/08 Q0997", "EDLV 011120Z 28013KT 5000 RA BKN007 OVC014 10/09 Q0997", "EDLW 011120Z 22012KT 9000 -RA BKN007 OVC015 10/09 Q0996", "EDMA 011120Z 23019G30KT 190V250 9999 -RA BKN025 OVC049 08/05 Q1004", "EDMO 011120Z 24020G30KT 9999 -RA BKN032 BKN043 09/04 Q1005", "EDNY 011120Z 24013KT 9999 BKN032 OVC039 09/05 Q1007", "EDQM 011120Z 21013KT 6000 -RA FEW005 BKN010 BKN017 07/06 Q1000", "EDSB 011120Z 20017KT 8000 RA SCT025 BKN033 OVC038 09/08 Q1003", "EDTL 011120Z 21011KT 8000 -RA FEW011 SCT024 BKN035 09/08 Q1006", "EDTY 011120Z 23014KT 9999 -RA SCT014 OVC024 08/06 Q1002", "EDVE 011120Z 25004KT 9999 FEW021 SCT027 OVC040 11/08 Q0998", "EDVK 011120Z 19010KT 160V230 9999 -RA SCT019 BKN028 10/08 Q0997", "EDWE 011120Z 06016KT 9999 OVC008 09/07 Q0999", "EDXW 011120Z 08024KT 9999 BKN010 04/02 Q1005", "EEEI 011127Z 06020KT CAVOK 03/M07 Q1008", "EEKE 011120Z 04019KT CAVOK 04/M08 Q1006", "EEPU 011120Z AUTO 02013KT 9999 OVC019/// 02/M02 Q1005", "EETN 011120Z 04013KT CAVOK 02/M07 Q1008 NOSIG", "EETU 011120Z AUTO 03008KT 350V070 4900 SG BKN006/// OVC009/// 00/M01 Q1003", "EFET 011120Z AUTO 33015KT 9999 SCT026 M03/M09 Q1011", "EFHA 011120Z AUTO 35009KT 320V040 CAVOK 02/M10 Q1010", "EFHK 011120Z 01011KT 320V040 9999 FEW040 04/M06 Q1008 NOSIG", "EFIV 011120Z 34013KT 5000 -SN OVC022 M03/M08 Q1009", "EFJO 011120Z 04004KT 350V090 9999 FEW040 SCT047 01/M07 Q1007", "EFJY 011120Z AUTO 01010KT 330V050 CAVOK 01/M10 Q1010", "EFKE 011120Z AUTO 27007KT 220V310 9999 OVC045 01/M08 Q1011", "EFKI 011120Z AUTO 32010KT 290V350 CAVOK M01/M11 Q1009", "EFKK 011120Z AUTO 35007KT CAVOK M00/M08 Q1014", "EFKS 011120Z AUTO 33015KT 9999 -SHSN FEW036 M02/M11 Q1007", "EFKT 011120Z 36018KT 9999 SCT043 M02/M11 Q1011", "EFKU 011120Z AUTO 31015KT 9999 -SHSN NCD M00/M08 Q1009 REFZRA", "EFLP 011120Z AUTO 36008KT 320V020 9999 FEW041 02/M07 Q1007", "EFMA 011120Z AUTO 01012KT 330V040 CAVOK 03/M04 Q1012", "EFMI 011120Z AUTO 33006KT 280V050 CAVOK 03/M08 Q1008", "EFOU 011120Z AUTO 30010KT CAVOK M01/M08 Q1012", "EFPO 011120Z AUTO 02010KT CAVOK 03/M10 Q1012", "EFRO 011120Z AUTO 33012KT 300V360 9999 FEW048 M00/M11 Q1010", "EFSA 011120Z AUTO 26006KT 240V310 9999 BKN035 02/M06 Q1008", "EFSI 011120Z AUTO 33011KT CAVOK 01/M10 Q1013", "EFTP 011120Z AUTO 02010KT 330V050 CAVOK 02/M09 Q1010", "EFTU 011120Z AUTO 03011KT 350V050 CAVOK 04/M07 Q1010", "EFUT 011120Z AUTO 04012KT 010V070 9999 BKN041 03/M07 Q1008", "EFVA 011120Z AUTO 34011KT CAVOK 00/M09 Q1015 REFZRA", "EGAA 011120Z AUTO VRB02KT 9999 FEW010 BKN015 BKN025 08/06 Q1011", "EGAC 011120Z AUTO 04004KT 010V070 9999 SCT013 BKN020 09/06 Q1011", "EGAE 011120Z 02004KT 340V070 9999 -RADZ SCT007 BKN022 10/09 Q1011", "EGBB 011120Z 01009KT 9999 BKN021 09/05 Q1007", "EGBJ 011050Z 01005KT 9999 VCSH BKN016 OVC045 09/08 Q1007", "EGCC 011120Z AUTO 02007KT 9999 SCT028 OVC033 09/03 Q1008", "EGCK 011120Z 04012KT 9999 SCT030 12/06 Q1009", "EGDM 011050Z AUTO 36007KT 9999 -RA OVC004/// 09/09 Q1006", "EGDR 011050Z AUTO 31014KT 9999 RA OVC012/// 11/09 Q1009", "EGDY 011050Z AUTO 29014KT 9999 -RA OVC012/// 11/08 Q1006", "EGFF 011120Z AUTO 30010KT 9999 BKN011 BKN032 11/09 Q1007", "EGGD 011120Z AUTO 34006KT 9999 BKN004 BKN009 OVC049 09/08 Q1007", "EGGP 011120Z 33010KT 290V020 9999 SCT031 11/04 Q1008", "EGGW 011120Z AUTO 35010KT 310V030 9999 BKN007 OVC013 08/06 Q1006", "EGHC 011120Z 32017KT 9999 FEW008 SCT016 11/09 Q1010", "EGHE 011120Z 32018KT 9999 -SHRA BKN013 11/09 Q1012", "EGHH 011120Z 28009KT 7000 -RA SCT026 BKN035 11/09 Q1006", "EGHI 011120Z 35004KT 310V030 8000 -RA SCT006 BKN042 10/10 Q1006", "EGHQ 011120Z 31019KT 9999 BKN010 10/09 Q1010", "EGJA 011120Z 29015KT 9999 FEW009 11/09 Q1008", "EGJB 011120Z 28016KT 9999 VCSH SCT012 BKN025 11/08 Q1009", "EGJJ 011120Z 28017KT 9999 FEW011 11/10 Q1009", "EGKA 011120Z 35009KT 9999 SCT014 SCT022 BKN037 11/09 Q1005", "EGKB 011120Z 33010KT 300V360 9999 BKN010 08/07 Q1005", "EGKK 011120Z 34009KT 300V010 9999 BKN012 10/07 Q1005", "EGLC 011120Z AUTO 32006KT 270V020 9999 BKN011 OVC016 09/07 Q1006", "EGLF 011120Z 36008KT 9999 BKN011 10/07 Q1006", "EGLL 011120Z AUTO 36007KT 320V040 9999 BKN012 OVC038 10/07 Q1006", "EGMC 011120Z 33011KT 290V350 9999 BKN012 09/07 Q1005", "EGMD 011050Z 31014KT 9999 SCT012 BKN022 10/08 Q1004", "EGNH 011120Z 05008KT 010V100 9999 FEW020 SCT027 10/04 Q1009", "EGNJ 011120Z 35011KT 9999 BKN015 10/07 Q1007", "EGNM 011120Z 01008KT 340V040 9999 -RADZ SCT012 BKN025 06/04 Q1008", "EGNR 011120Z 36007KT 320V030 9999 FEW023 SCT037 11/05 Q1009", "EGNS 011120Z 02008KT 9999 FEW025 10/04 Q1010 NOSIG", "EGNT 011120Z 04009KT 7000 VCSH BKN006 06/06 Q1009", "EGNV 011120Z 02012KT 5000 -SHRA SCT008 BKN015 07/05 Q1008", "EGNX 011120Z 35009KT 9999 BKN019 08/04 Q1007", "EGOM 011050Z AUTO 04008KT 9999 // OVC009/// 06/04 Q1008", "EGOP 011050Z AUTO 33016KT 9999 OVC008/// 10/09 Q1007", "EGOS 011050Z AUTO 35008KT 9999 OVC017/// 09/05 Q1007", "EGOV 011050Z AUTO 02009KT 9999 OVC021/// 11/06 Q1009", "EGPA 011120Z 15011KT 9999 FEW018 SCT030 08/03 Q1013", "EGPB 011120Z 12008KT 9999 SCT027 08/04 Q1014", "EGPC 011120Z 13011KT 9999 SCT026 SCT032 08/02 Q1013", "EGPD 011120Z AUTO 08010KT 9999 SCT015 OVC026 05/02 Q1013 TEMPO BKN012", "EGPE 011120Z 09004KT 9999 FEW025 SCT034 08/01 Q1012", "EGPF 011120Z AUTO 07010KT 9999 BKN028 OVC035 08/02 Q1012", "EGPH 011120Z 03007KT 9999 VCSH FEW014 BKN020 07/04 Q1011", "EGPI 011120Z AUTO 14005KT 9999 OVC028/// 09/04 Q1011", "EGPK 011120Z 04005KT 360V060 9999 BKN021 08/03 Q1011", "EGPL 011120Z 19011KT 5000 VCSH BKN005 08/08 Q1011", "EGPN 011120Z 06008KT 9000 FEW015 BKN020 07/03 Q1012", "EGPO 011120Z 17010KT 9999 FEW004 SCT009 BKN014 09/06 Q1011", "EGPU 011120Z 15011KT 9999 BKN025 08/05 Q1011", "EGQA 011050Z AUTO 11011KT 9999 SCT021/// 08/02 Q1012", "EGQK 011050Z AUTO 11010KT 9999 OVC028/// 07/01 Q1012", "EGQL 011050Z 07011KT 5000 -RADZ OVC009 06/04 Q1011 RMK GRN", "EGQM 011050Z AUTO 02011KT 9999 // OVC009/// 07/06 Q1009", "EGQS 011050Z 10008KT 9999 BKN028 07/01 Q1012 RMK BLU", "EGSH 011120Z 34010KT 290V020 5000 -DZ BKN005 08/07 Q1004 TEMPO BKN004", "EGSS 011120Z 33010KT 300V010 5000 HZ BKN004 OVC010 07/07 Q1005", "EGSY 011120Z 29011KT 9999 FEW013 BKN038 11/09 Q1007 RERA", "EGTC 011120Z 34010KT 9999 BKN010 08/06 Q1006", "EGTE 011120Z 29010KT 9999 4000W -SHRA SCT017 BKN025 10/09 Q1007", "EGTK 011120Z 36007KT 340V040 9999 SCT012 BKN015 09/06 Q1006", "EGUB 011050Z AUTO 01008KT 9999 OVC010/// 09/07 Q1006", "EGUL 011105Z AUTO 33015KT 9999 OVC009 08/08 A2966 RMK AO2 CIG 008 RWY24 SLP047 $", "EGUN 011055Z 34012G18KT 9999 OVC009 08/08 A2967 RMK AO2A SLP051 T00790079 $", "EGUW 011050Z AUTO 33014KT 9999 DZ OVC005/// 08/07 Q1003", "EGVA 011055Z AUTO 03005KT 9999 OVC011 09/09 A2970 RMK AO2 SLP062 T00910089 FZRANO $", "EGVN 011120Z 02008KT 9999 BKN010 09/07 Q1006 BECMG BKN015 RMK GRN BECMG WHT", "EGVO 011050Z AUTO 35007KT 9999 -RA OVC006/// 09/08 Q1005", "EGVP 011050Z AUTO 02008KT 9999 -RA BKN008/// OVC033/// 10/08 Q1006", "EGWU 011120Z 34010KT 9999 BKN014 10/07 Q1006 BECMG BKN015 RMK GRN BECMG WHT", "EGXC 011050Z 34013KT 9999 OVC018 09/05 Q1006 RMK WHT", "EGXS 011050Z AUTO 34019KT 9999 OVC006/// 08/06 Q1006", "EGXT 011050Z AUTO 34010KT 9999 OVC010/// 08/06 Q1006", "EGXV 011050Z AUTO 36009KT 9999 OVC014/// 08/06 Q1006", "EGXW 011050Z AUTO 36011KT 9999 OVC011/// 08/05 Q1006", "EGXZ 011050Z AUTO 02009KT 9999 BR OVC014/// 08/04 Q1008", "EGYD 011050Z AUTO 36012KT 9999 OVC010/// 08/05 Q1006", "EGYE 011050Z AUTO 35010KT //// VV/// ///// Q////", "EGYH 011050Z AUTO 36015KT 9999 OVC012/// 09/07 Q1005", "EGYM 011050Z AUTO 34015KT 7000 DZ OVC005/// 08/07 Q1005", "EGYP 011120Z 36008G20KT 9999 SCT014 BKN170 09/06 Q1004 TEMPO FEW014", "EHAK 011125Z AUTO 08033KT 9999 -RADZ SCT007/// BKN008/// OVC009/// 05/04 Q1006", "EHAM 011125Z 33008KT 310V010 9000 FEW005 BKN008 12/10 Q0998 TEMPO 5000 -RADZ", "EHBK 011125Z AUTO 25010KT 220V300 9999 -RADZ FEW006 BKN007 BKN008 09/08 Q0999 REDZRA TEMPO 5000 DZ", "EHDL 011125Z AUTO 29010KT 220V360 5000 RA FEW005 SCT011 BKN014 SCT015CB 10/10 Q0996 RERA REDZ GRN", "EHDV 011125Z AUTO 08020KT 9000 -SHRA FEW004/// SCT008/// BKN012/// 06/// Q1004", "EHEH 011125Z AUTO 26011KT 230V310 9999 OVC006 10/09 Q0998 YLO TEMPO 3000 DZ DZRA SCT004 BKN005 OVC007", "EHFD 011125Z AUTO 07031KT 9999 SCT007/// BKN008/// OVC009/// 05/04 Q1003", "EHFS 011055Z AUTO 28014KT 250V320 9999 BKN004/// OVC005/// 09/08 Q1000", "EHGG 011125Z AUTO 04014KT 010V070 9999 BKN006/// OVC007/// 09/08 Q0998 TEMPO 7000 DZ", "EHGR 011125Z AUTO 27011KT 240V300 9999 -RA BKN005 OVC006 10/09 Q0998 YLO", "EHHW 011125Z AUTO 07035KT 050V110 //// // BKN008/// OVC009/// 06/04 Q1001 RE//", "EHJA 011125Z AUTO 05025KT 4700 DZ FEW002/// SCT005/// BKN006/// 07/06 Q1003", "EHJR 011125Z AUTO 05024KT //// // ///////// 07/06 Q1001 RE// W08/H19", "EHKD 011125Z AUTO 03015KT 360V060 9999 OVC005 10/09 Q0999 YLO", "EHKV 011125Z AUTO 05023KT 9999 FEW002 BKN003 OVC004 07/06 Q1001 REDZ", "EHLE 011125Z AUTO 35007KT 310V030 9999 -SHRA FEW008 BKN010 BKN013 FEW015CB 11/11 Q0997 TEMPO 5000 -DZRA BKN008", "EHLW 011125Z AUTO 05019KT 350V120 9999 OVC006 09/08 Q0998 YLO", "EHMG 011125Z AUTO 06033KT 9999 SCT006 OVC007 07/05 Q1001", "EHPG 011125Z AUTO 34015KT 280V010 9999 -DZ SCT001 OVC003 08/08 Q1000 REDZ", "EHRD 011125Z AUTO 31009KT 270V350 7000 DZ BKN004 OVC005 10/10 Q0999 TEMPO 4000 -RADZ BKN005", "EHSA 011125Z AUTO 31019KT 2700 +DZ ///////// 08/07 Q1000 W07/H16", "EHSC 011125Z AUTO 32018KT 5000 DZ ///////// 08/08 Q1001 W09/H16", "EHVK 011125Z AUTO 27009KT 240V310 9999 DZ FEW006 BKN008 OVC010 10/09 Q0997 GRN", "EHVL 011125Z AUTO 05020KT 9999 BKN006 OVC007 08/07 Q0999 YLO", "EHWO 011125Z AUTO 28012KT 240V310 9999 DZRA SCT004 OVC005 09/09 Q1000 YLO", "EICK 011100Z 33022KT 9999 FEW018CB BKN021 10/06 Q1013 NOSIG", "EIDL 011100Z 33020KT 5000 -RA SCT014 BKN028 OVC036 09/07 Q1012", "EIDW 011100Z 35008KT 9999 -RA FEW004 BKN007 BKN010 10/08 Q1010 BECMG BKN012", "EIKN 011100Z 33018KT 290V360 9999 VCSH FEW010 BKN015 08/06 Q1013 BECMG BKN018", "EIKY 011030Z 32011G21KT 290V350 9999 FEW018 BKN048 10/07 Q1015", "EIME 011100Z 35006KT 9999 SCT008 BKN034 10/08 Q1010", "EINN 011100Z 31015KT 9999 FEW022 BKN028 12/05 Q1014 NOSIG", "EISG 011100Z 31019KT 9999 SCT019 BKN030 09/07 Q1013", "EIWF 011100Z 34016G26KT 300V010 9999 SCT019 BKN022 12/08 Q1011", "EKAH 011120Z AUTO 05017KT 9999 NCD 04/M05 Q1010", "EKBI 011120Z AUTO 07020KT 9999 SCT017/// 04/00 Q1008", "EKCH 011120Z 05011KT CAVOK 06/M04 Q1008 NOSIG", "EKEB 011120Z AUTO 06020KT 9999 OVC015/// 03/01 Q1007", "EKKA 011120Z AUTO 06020KT 9999 NCD 05/M07 Q1009", "EKOD 011120Z 05015KT 9999 BKN020 03/01 Q1008", "EKRK 011120Z AUTO 06010KT 020V090 9999 NCD 05/M04 Q1008", "EKRN 011120Z AUTO 05022KT 9999 BKN019/// 03/M02 Q1006", "EKRS 011120Z AUTO VRB11KT 9999 NCD 04/M00 Q1007", "EKSB 011120Z AUTO 08017KT 9999 OVC014/// 05/02 Q1006", "EKSP 011120Z 07015G25KT 9999 OVC014 04/01 Q1006", "EKVD 011120Z 06017G28KT 9999 OVC012 03/00 Q1007", "EKVG 011120Z AUTO 14015KT 9999 OVC020/// 07/04 Q1011 RMK OVC018/// WIND SKEID 13027KT", "EKYT 011120Z AUTO 06017KT 9999 NCD 05/M05 Q1011", "ELLX 011120Z 25019KT 9999 -SHRA SCT009 BKN011 09/08 Q1001 NOSIG", "ENAL 011120Z 06010KT CAVOK 05/M05 Q1015", "ENAN 011120Z 02016KT 9999 -SN FEW019 BKN035 01/M06 Q1018", "ENAT 011120Z 35013KT 9999 VCSH FEW012 SCT034 BKN120 M01/M07 Q1014 RMK WIND 700FT 33021G33KT", "ENBL 011120Z VRB03KT CAVOK 08/M15 Q1013", "ENBN 011120Z 01004KT 330V060 CAVOK 07/M06 Q1019", "ENBO 011120Z 35009KT 9999 FEW030 SCT053 02/M05 Q1019 NOSIG", "ENBR 011120Z 28005KT 230V320 CAVOK 07/M06 Q1015 NOSIG RMK WIND 1200FT 30006KT", "ENBS 011120Z AUTO 34025G37KT 1100 -SN ///032/// M03/M05 Q////", "ENBV 011120Z AUTO 35026KT 9999 FEW021/// SCT037/// BKN068/// M01/M04 Q1008", "ENCN 011120Z 05021KT CAVOK 05/M10 Q1014", "ENDR 011120Z AUTO 07023KT 9999NDV NCD 04/M05 Q1019 W///S4", "ENDU 011120Z 34010KT 320V030 9999 FEW030 SCT040 01/M09 Q1017 NOSIG RMK WIND 1100FT 36015KT WIND 2200FT 02019KT", "ENEV 011120Z VRB03KT 9999 -SHSN SCT017 BKN027 02/M03 Q1017 RMK WIND 1400FT 01011KT", "ENFB 011120Z AUTO 00000KT 9999NDV NCD ///// Q//// W///S4", "ENFL 011120Z 23005KT CAVOK 08/M09 Q1015", "ENGC 011120Z 13002KT CAVOK 09/03 Q1014 W06/S4", "ENGM 011120Z 01009KT CAVOK 04/M10 Q1015 NOSIG", "ENHD 011120Z 29006KT CAVOK 07/M09 Q1015", "ENHE 011050Z 07019KT 9999 SCT036 04/M04 Q1020 W///S5", "ENHF 011120Z 02016KT 9000 VCSH DRSN SCT015 BKN025 M04/M05 Q1013 RESHSN RMK WIND 1254FT 01030KT", "ENHK 011120Z AUTO 02012G23KT 340V080 9999 -SN SCT020/// BKN031/// M02/M06 Q1016", "ENHM 011120Z AUTO 18011KT //// NCD 06/00 Q1015 W07/S/", "ENHV 011120Z AUTO 01023KT 6000 -SN FEW004/// SCT026/// OVC042/// M01/M05 Q1012", "ENJS 011120Z 13017KT CAVOK 07/M11 Q1015 W07/S/", "ENKB 011120Z AUTO 06006KT 9999 NCD 04/M10 Q1016 RMK WIND 745FT 07005KT", "ENKR 011120Z 33020KT 9999 DRSN SCT019 M01/M05 Q1006 RMK WIND 731FT 32025KT", "ENLA 011120Z AUTO 07034KT 9999NDV BKN061/// 05/M04 Q1010 W///S5", "ENLE 011120Z 07033KT 9999 FEW020 SCT100 05/M03 Q1008 W07/S5", "ENLK 011020Z 35009KT 300V030 9999 VCSH FEW035CB SCT050 02/M07 Q1018", "ENMH 011120Z AUTO 01022G33KT 0800 R17/1600 SN FEW002/// BKN015/// OVC019/// M03/M04 Q1010", "ENML 011120Z 08006KT CAVOK 05/M08 Q1015", "ENMS 011120Z 18003KT 9999 SCT032 02/M10 Q1018 RMK WIND 412FT VRB02KT", "ENNA 011120Z 35022KT 1800 SN VV020 M02/M05 Q1013 RMK WIND 1800FT /////KT", "ENNE 011120Z 03020KT 9999 VCSH FEW020CB SCT040 04/M02 Q1020 W///S4", "ENNM 011120Z AUTO 06006KT 040V100 9999 NCD 02/M09 Q1019", "ENNO 011120Z VRB02KT CAVOK 07/M12 Q1016", "ENOA 011120Z 21012KT 9999 BKN040 06/03 Q1014 W///S4", "ENOL 011120Z 11005KT CAVOK 03/M05 Q1018 NOSIG", "ENOV 011120Z VRB02KT CAVOK 07/M08 Q1015 RMK WIND RWY24 07003KT WIND 2090FT 27006KT", "ENQA 011120Z AUTO 19010KT 9999NDV NCD 07/M03 Q1015 W10/S4", "ENQC 011120Z AUTO 19009KT 9999NDV FEW024/// 07/01 Q1014 W///S4", "ENQR 011120Z AUTO 08001KT 9999NDV NCD 09/03 Q1014 W08/S4", "ENRA 011120Z 34006KT 300V030 9999 SCT028 02/M09 Q1018", "ENRM 011120Z AUTO 04006KT 010V070 9999 NCD 03/M09 Q1019", "ENRO 011120Z AUTO 00000KT 9999 NCD M01/M14 Q1014", "ENRS 011120Z 01015KT 9999 FEW035 BKN045 03/M05 Q1020", "ENRY 011120Z 05009KT CAVOK 05/M11 Q1015", "ENSB 011120Z 09013KT 9999 FEW025 BKN040 M11/M15 Q1020 RMK WIND 1400FT 09004KT", "ENSD 011120Z 08004KT CAVOK 05/M06 Q1015 RMK WIND RWY26 VRB02KT WIND 1140FT 06003KT", "ENSE 011120Z AUTO 09005KT 060V120 //// NCD 06/02 Q1014 W///S/", "ENSF 011120Z AUTO 00000KT 9999NDV NCD ///// Q//// W///S4", "ENSG 011120Z 07004KT 040V100 CAVOK 01/M16 Q1014 RMK WIND 3806FT 09010KT", "ENSH 011120Z 32008KT 9999 3000N -SHSN BKN012 02/M05 Q1018 RMK WIND 0150FT 35014KT", "ENSK 011120Z 31005KT 270V010 9999 VCSH FEW030 SCT045 02/M05 Q1018", "ENSL 011120Z AUTO 12024KT 9999NDV NCD 05/M06 Q1014 W03/S5", "ENSR 011120Z AUTO 31011KT 9999 BKN059/// M01/M07 Q1016 RMK WIND RWY32 30009KT WIND 1118FT 31017KT", "ENSS 011120Z AUTO 34026KT 0550 R33/1300 +SN NCD M02/M02 Q1005 RMK WIND 0500FT 35034KT", "ENST 011120Z 29004KT 260V320 9999 VCSH FEW020CB BKN033 03/M04 Q1019 RMK WIND 300FT 30005KT", "ENTC 011120Z 02010KT 9999 VCSH FEW006 SCT031 BKN040 M02/M06 Q1018 TEMPO 4000 -SHSN VV014 RMK WIND 2600FT 35033G44KT", "ENTO 011120Z 36010KT CAVOK 03/M09 Q1015 NOSIG", "ENUG 011120Z AUTO 02025KT 3100NDV -SHSN BKN021/// M01/M06 Q1014 W///S5", "ENUN 011120Z AUTO 03015KT 9999NDV FEW021/// OVC038/// 04/M03 Q1021 W06/S4", "ENVA 011120Z 26005KT CAVOK 05/M07 Q1018 NOSIG RMK WIND 670FT VRB03KT", "ENVD 011120Z 34023KT 9000 2500N -SN DRSN SCT010 M02/M05 Q1005", "ENWV 011120Z AUTO 08031KT 9999NDV BKN016/// 05/01 Q1008 W///S5", "ENZV 011120Z 35003KT 280V060 CAVOK 07/M09 Q1014", "EPBY 011100Z 02009KT 350V060 9999 BKN011 BKN014 08/05 Q1000", "EPGD 011100Z 01012KT 340V040 5000 -DZ BR OVC003 02/02 Q1002", "EPKK 011100Z 24014KT 9999 SCT023 SCT033 11/07 Q1000", "EPKT 011100Z 25014KT 9999 BKN007 10/08 Q0999", "EPLB 011100Z 25010KT 9999 SCT029 13/07 Q0998", "EPLL 011100Z 28008KT 7000 -SHRA SCT026 BKN042CB 09/07 Q0997 RESHRA", "EPMO 011100Z 24006KT 9999 FEW008 BKN023 10/10 Q0997", "EPPO 011100Z 02008KT 7000 BKN004 08/07 Q1000", "EPRZ 011100Z 25008KT 220V280 9999 -SHRA FEW030CB BKN043 13/06 Q0999", "EPSC 011100Z 01009KT 330V060 9999 OVC006 05/03 Q1002", "EPSY 011100Z 36010KT 9999 SCT002 OVC006 07/06 Q0998", "EPWA 011100Z 25007KT 9999 -SHRA FEW007 SCT022CB 09/08 Q0997 TEMPO 4000 SHRA", "EPWR 011100Z 30013KT 270V330 9999 -SHRA SCT015CB BKN020 11/08 Q1000 RESHRA", "EPZG 011100Z 35005KT 310V020 9999 -RA BKN008 OVC022 11/10 Q1000", "ESCF 011120Z AUTO 05008KT 9999 NCD 02/M06 Q1013", "ESCM 011120Z AUTO 03017KT 9999 NCD 04/M04 Q1014", "ESDF 011120Z 05020KT CAVOK 06/M04 Q1008", "ESGG 011120Z 06018KT CAVOK 03/M07 Q1011", "ESGJ 011120Z AUTO 03013KT 9999 NCD M00/M04 Q1011", "ESGP 011120Z 07012KT CAVOK 05/M08 Q1012", "ESGT 011120Z AUTO 02013KT 9999 R15///// R33///// NCD 01/M04 Q1014", "ESIA 011120Z AUTO 06009KT 9999 NCD 02/M06 Q1013", "ESIB 011120Z AUTO 03008KT 9999 NCD 02/M04 Q1013", "ESKM 011120Z AUTO 02004KT 320V050 9999 NCD 04/M08 Q1015", "ESKN 011120Z 03009KT 340V060 CAVOK 03/M05 Q1012", "ESKS 011120Z AUTO 05006KT 020V100 9999 NCD 01/M10 Q1014", "ESMK 011120Z AUTO 04011G22KT 360V070 9999 NCD 06/M03 Q1008", "ESMQ 011120Z AUTO 01018KT 9999 FEW025/// 04/M02 Q1009", "ESMS 011120Z 07017KT CAVOK 05/M06 Q1007", "ESMT 011120Z AUTO 06016KT 9999 NCD 05/M10 Q1009", "ESMX 011120Z AUTO 02014KT 9999 NCD 03/M04 Q1009", "ESND 011120Z AUTO 26006KT 9999 NCD 01/M09 Q1015", "ESNG 011120Z AUTO 31010KT 9999 BKN049/// ///// Q1012", "ESNK 011120Z AUTO VRB02KT 9999 NCD 03/M11 Q1016", "ESNL 011120Z AUTO 31012KT 9999 NCD 01/M12 Q1014", "ESNN 011120Z AUTO 32008KT 280V350 9999 NCD 04/M10 Q1016", "ESNO 011120Z AUTO 31005KT 270V030 9999 NCD 02/M11 Q1015", "ESNQ 011120Z AUTO 35012KT 9999 BKN023/// M03/M08 Q1012", "ESNS 011120Z 26009KT CAVOK 02/M10 Q1013", "ESNU 011120Z 35008KT CAVOK 03/M11 Q1015", "ESNV 011120Z AUTO 28010KT 9999 NCD 00/M12 Q1014", "ESNX 011120Z AUTO 28013KT 9999 NCD 00/M09 Q1012", "ESNZ 011120Z AUTO 27005KT 9999 NCD M03/M09 Q1016", "ESOE 011120Z AUTO 06012KT 9999 NCD 06/M06 Q1014", "ESOH 011120Z AUTO 04009KT 010V070 9999 NCD 05/M09 Q1014", "ESOK 011120Z AUTO 05009KT 020V080 9999 NCD 05/M08 Q1014", "ESOW 011120Z AUTO 03013KT 360V060 9999 NCD 05/M04 Q1014", "ESPA 011120Z AUTO 31011KT 9999 NCD 01/M08 Q1012", "ESPE 011120Z AUTO 32008KT 9999 FEW056/// SCT090/// 02/M08 Q1012", "ESSA 011120Z 03017KT CAVOK 04/M07 Q1012 NOSIG", "ESSB 011120Z 35011KT CAVOK 05/M06 Q1012", "ESSD 011120Z AUTO 03006KT 360V070 9999 NCD 04/M06 Q1014", "ESSL 011120Z AUTO 03009KT 9999 NCD 02/M06 Q1013", "ESSP 011120Z 04010KT CAVOK 03/M06 Q1013", "ESST 011120Z AUTO 07005KT 360V130 9999 NCD 07/M09 Q1015", "ESSV 011120Z 05020KT CAVOK 04/M02 Q1009", "ESTA 011120Z 08015KT CAVOK 06/M07 Q1008", "ESTL 011120Z AUTO 05011KT 9999 NCD 06/M06 Q1008", "ESUP 011120Z AUTO 36008KT 320V030 9999 SCT042/// BKN098/// ///// Q1012", "ESUT 011120Z AUTO 29009KT 9999 NCD M02/M10 Q1015", "ETAD 011118Z 26013G21KT 9999 FEW014 BKN023 OVC039 10/07 A2951 RMK AO2A RAE00RAB07E08DZB08E10RAB10E18 CIG 020 RWY05 SLP987 $", "ETAR 011102Z AUTO 25014G23KT 9999 SCT016 OVC022 10/07 A2955 RMK AO2 RAE1057 CIG 014V022 CIG 015 RWY08 SLP012 $", "ETEB 011104Z AUTO 22014G18KT 9999 -RA BKN017 BKN023 08/05 A2958 RMK AO2 DZE1056RAB04 SLP035", "ETGG 011120Z AUTO 09013G26KT 9999 // ////// 04/02 Q1005 ///", "ETHA 011120Z AUTO 27025G37KT 9999 // ////// 07/04 Q1005 ///", "ETHB 011120Z AUTO 15006KT 4600 // ////// 11/09 Q0997 ///", "ETHC 011120Z AUTO 07007KT 7000 // ////// 11/09 Q0998 ///", "ETHF 011120Z 21009KT 9999 -RADZ FEW013 BKN025 BKN045 11/08 Q0998 BLU", "ETHL 011120Z 24018G29KT 9999 -RA OVC018 08/04 Q1004 WHT", "ETHN 011120Z 24018G28KT 9999 -RA BKN008 BKN012 07/06 Q1001 GRN", "ETHS 011120Z AUTO 07014KT 6000 // ////// 08/07 Q0999 ///", "ETIC 011124Z AUTO 22009G17KT 9999 -RA SCT022 OVC028 09/05 A2956 RMK AO2 RAB24 CIG 024V030 SLP017 $", "ETIH 011055Z AUTO 21010G18KT 9999 -RA BKN024 OVC030 10/05 A2960 RMK AO2 DZB0958E03RAB03E14DZB20E27RAB27E40DZB40E47RAB47 SLP030 P0000 T00990049", "ETIK 011100Z AUTO 22016G21KT 9000 -RA BR SCT022 OVC027 09/09 A2957 RMK AO2 RAB1058 CIG 022V028 SLP018 FZRANO $", "ETMN 011120Z 08021KT 9999 BKN009 06/05 Q1001 GRN", "ETNH 011120Z AUTO 06021KT 2800 // ////// 04/03 Q1004 ///", "ETNL 011120Z 07020KT 9999 OVC010 04/03 Q1003 GRN GRN TEMPO YLO", "ETNN 011120Z 25016KT 9999 -RA FEW010 BKN020 OVC030 10/08 Q0998 WHT", "ETNS 011120Z AUTO 07021G31KT 8000 // ////// 04/01 Q1004 ///", "ETNT 011120Z AUTO 08019KT //// // ////// 08/06 Q1000 ///", "ETNW 011120Z 14007KT 9999 -RA FEW013 BKN038 11/09 Q0997 BLU", "ETOU 011114Z AUTO 23011KT 9999 -DZ OVC031 11/M03 A2952 RMK AO2 RAE12DZB12E13DZB14 SLP000 $", "ETSB 011120Z AUTO /////KT //// // ////// ///// Q000/ ///", "ETSH 011120Z 26007KT 9999 SCT025 SCT035 BKN050 13/07 Q0999 BLU", "ETSI 011120Z AUTO 25016G29KT 7000 // ////// 09/05 Q1004 ///", "ETSL 011120Z AUTO 22017KT 8000 // ////// 07/04 Q1005 ///", "ETSN 011120Z 23013KT 9999 -RA SCT022 BKN030 09/05 Q1003 BLU", "ETWM 011120Z AUTO 09007KT //// // ////// 11/09 Q0997 ///", "EVGA 011120Z 36012KT 9999 OVC007 03/01 Q1002 NOSIG", "EVLA 011120Z AUTO 04012KT 9999 OVC013/// 03/00 Q1004", "EVRA 011120Z 01013KT 9999 -RA OVC008 03/01 Q1002 NOSIG", "EVVA 011120Z AUTO 04015KT 9999 BKN026 03/M01 Q1005", "EYKA 011120Z 36008KT 320V040 9999 OVC005 06/04 Q0999", "EYPA 011120Z 04014KT 9999 OVC009 03/01 Q1003", "EYSA 011120Z 01011KT 9999 OVC004 03/02 Q1001 NOSIG", "EYVI 011120Z 01005KT 9999 -RA SCT009 OVC041 09/07 Q0998 NOSIG", "FABL 011100Z 33006KT 9999 FEW030 24/11 Q1023 NOSIG", "FACT 011100Z 22011KT CAVOK 23/15 Q1014 NOSIG", "FAEL 011100Z 13010KT CAVOK 24/17 Q1018", "FAGG 011100Z 15008KT 110V190 CAVOK 21/13 Q1017", "FAJB 011100Z AUTO 34002KT //// // ////// 23/12 Q1024", "FAKM 011100Z 33004KT 9999 FEW050 27/13 Q1020", "FAKN 011100Z 07007KT 9999 FEW020 26/16 Q1021 NOSIG", "FALA 011100Z 32006KT 220V010 9999 SCT030 22/13 Q1024 NOSIG", "FALE 011100Z 12006KT 060V180 9999 SCT018 25/20 Q1018 NOSIG", "FALW 011100Z AUTO 24003KT //// // ////// 32/08 Q1012", "FAMM 011100Z 34009KT 9999 FEW035 26/13 Q1022 NOSIG", "FAOR 011100Z 31007KT 260V360 9999 FEW035 21/11 Q1025 NOSIG", "FAPE 011100Z 08007KT 030V110 CAVOK 26/07 Q1017 NOSIG", "FAPN 011100Z AUTO 03006KT //// // ////// 26/15 Q1021", "FAPP 011100Z 22001KT 9999 FEW028 24/13 Q1024 NOSIG", "FASB 011042Z 36008KT CAVOK 31/M03 Q1017", "FASI 011100Z AUTO 33001KT //// // ////// 23/11 Q1028", "FAUP 011100Z 33009KT 9999 FEW050 33/09 Q1016 NOSIG", "FAUT 011100Z 03005KT 9999 BKN020 23/16 Q1019", "FAVV 011100Z AUTO 30004KT //// // ////// 24/12 Q1025", "FAWB 011100Z AUTO 24002KT //// // ////// 24/14 Q1022", "FBSK 011100Z 05008KT 010V110 CAVOK 27/14 Q1020 NOSIG", "FCBB 011100Z 24005KT 200V280 9999 FEW016 29/21 Q1014 NOSIG", "FCPP 011100Z 31008KT 280V340 9999 SCT013 BKN023 FEW030CB 30/24 Q1012 NOSIG", "FDBB 011100Z AUTO 06001KT //// // ////// 31/21 Q1015", "FDMY 011100Z AUTO 14002KT //// // ////// 28/19 Q1028", "FDPP 011100Z AUTO 11006KT //// // ////// 22/17 Q1025", "FDSK 011100Z 08003KT 9999 SCT035 27/16 Q1019 NOSIG", "FDST 011100Z AUTO 29004KT //// // ////// 23/18 Q1018", "FEFF 011100Z 16008KT 9999 FEW023 32/22 Q1013 NOSIG", "FGSL 011100Z VRB03KT 9999 FEW010 30/26 Q1013 NOSIG", "FIMP 011100Z 09012KT 9999 SCT017 29/23 Q1014", "FJDG 011055Z 18005KT 9999 FEW020 SCT080 BKN250 30/24 A2977 RMK SLP078 T03000244", "FKKD 011100Z VRB04KT 9999 BKN016 FEW020CB 32/25 Q1012 NOSIG", "FKKL 011100Z /////KT 3500 DU NSC 36/03 Q1012", "FKKR 011100Z 24005KT 190V320 4000 DU NSC 38/01 Q1010 NOSIG", "FKYS 011100Z 26003KT 210V340 9999 BKN016 FEW020CB 28/23 Q1017 TEMPO TS", "FMCZ 011100Z AUTO 20011KT CAVOK 31/26 Q1009 NOSIG", "FMEE 011100Z AUTO 10013KT 9999 FEW034/// BKN210/// ///TCU 30/23 Q1013 TEMPO SCT010CB", "FMEP 011100Z AUTO 29010KT 9999 FEW036/// SCT064/// BKN096/// ///TCU 29/25 Q1013 TEMPO 4500 SHRA FEW015CB BKN030", "FMMI 011130Z 08008KT 040V130 9999 FEW024 27/16 Q1018 NOSIG", "FMNA 011100Z 14010KT 9999 VCTS BKN020CB 26/24 Q1008", "FMNM 011100Z 13006KT 060V200 9999 FEW017CB 35/21 Q1009 NOSIG", "FMNN 011100Z 03006KT 9999 VCTS BKN020CB 31/// Q1009", "FMSD 011100Z 14012KT 9999 SCT020TCU SCT033 27/23 Q1013", "FNLU 011100Z 30007KT 250V330 9999 SCT020 FEW023CB SCT070 30/23 Q1012 NOSIG", "FOGK 011100Z 00000KT 9999 SCT009 BKN016 27/23 Q////", "FOGM 011100Z /////KT 9999 SCT011 BKN026 28/23 Q////", "FOGO 011100Z /////KT 9999 SCT012TCU BKN030 28/22 Q////", "FOGR 011100Z /////KT 9000 SCT008 OVC025 26/24 Q////", "FOOG 011100Z 25005KT 9999 SCT010 FEW020CB 28/25 Q1013", "FOOL 011100Z 18008KT 9999 SCT013 BKN040 29/23 Q1013 NOSIG", "FOON 011100Z VRB05KT 9999 BKN011 29/22 Q1014", "FOOR 011100Z /////KT 9999 FEW006 SCT013 27/23 Q////", "FOOT 011100Z 22006KT 9999 SCT010 OVC020 28/24 Q////", "FQBR 011100Z 18008KT 9999 SCT018 29/22 Q1015", "FQCH 011100Z /////KT 9999 SCT020 SCT050 25/19 Q1020", "FQLC 011100Z 12007KT 9999 FEW013 BKN016 FEW022CB BKN070 18/18 Q1021 RMK CB ALL/D", "FQMA 011100Z 11012KT 9999 SCT020 28/21 Q1017 NOSIG", "FQNP 011100Z 20008KT 170V240 9999 BKN020 28/22 Q1015", "FQQL 011100Z 17005KT 130V220 9999 BKN016 BKN070 29/21 Q1014", "FQVL 011100Z /////KT 9999 FEW020 29/24 Q1016", "FQXA 011100Z 15009KT 9999 BKN020 26/21 Q1018", "FSIA 011100Z 19009KT 130V210 9999 SCT022 31/25 Q1008 NOSIG", "FTTA 011100Z 12007KT 9999 FEW040 36/20 Q1011", "FTTC 011100Z 18010KT CAVOK 37/// Q1012", "FTTJ 011100Z 05012KT 010V080 6000 NSC 38/M04 Q1009 NOSIG", "FTTY 011100Z 04010KT CAVOK 31/M08 Q1017", "FVJN 011100Z 12005KT 9999 BKN040 27/15 Q1021 BECMG BKN045TCU", "FVRG 011100Z 26002KT 190V310 9999 BKN045 25/13 Q1022 NOSIG", "FWCL 011100Z 28007KT 9999 -RA SCT009 FEW020TCU BKN058 22/20 Q1018 NOSIG", "FWKI 011100Z 05005KT 5000 RA FEW008 FEW018 BKN018 19/18 Q1020 NOSIG", "FYGF 011100Z 32005KT 9999 FEW030CB SCT035TCU 30/11 Q1020", "FYKM 011100Z AUTO 09004KT //// // ////// 29/18 Q1016", "FYLZ 011100Z AUTO 32004KT //// // ////// 18/13 Q1014", "FYWB 011100Z 29006KT CAVOK 18/12 Q1015", "FYWE 011100Z 28007KT 160V330 CAVOK 29/M08 Q1023", "FYWH 011100Z 26009KT CAVOK 30/M01 Q1022 NOSIG", "FYWW 011100Z AUTO 25006G17KT //// // ////// 30/M07 Q1022", "GABS 011100Z 09012KT 070V130 8000 NSC 36/M07 Q1013 NOSIG", "GAKD 011100Z 18006KT 130V230 8000 NSC 37/02 Q1012", "GAMB 011100Z 08014KT 8000 NSC 39/M05 Q1013", "GBYD 011100Z 23004KT 9000 NSC 30/21 Q1012", "GCFV 011100Z 04012KT 9999 FEW015 22/17 Q1024", "GCGM 011100Z 24008KT 210V270 CAVOK 24/15 Q1023 RMK R09/25004KT 210V280 ARP/24006KT 210V280", "GCHI 011100Z 33015G25KT 300V030 CAVOK 23/15 Q1024", "GCLA 011100Z 02010KT CAVOK 26/08 Q1025", "GCLP 011100Z 36017KT CAVOK 26/07 Q1024 NOSIG", "GCRR 011100Z 01015KT 350V060 CAVOK 25/12 Q1023", "GCTS 011100Z 07027KT CAVOK 26/10 Q1023 WS R07 NOSIG", "GCXO 011100Z 12007KT CAVOK 24/09 Q1027 NOSIG", "GECE 011100Z AUTO 30011KT CAVOK 21/09 Q1024", "GEML 011100Z 30018G31KT 260V330 9999 FEW025 22/11 Q1022", "GFLL 011100Z 27009KT 9999 BKN012 FEW027CB 28/24 Q1012 RMK-CB NE", "GGOV 011100Z 31003KT 250V030 8000 NSC 31/20 Q1012 NOSIG", "GLRB 011100Z 23004KT 9999 BKN018 31/25 Q1013 NOSIG", "GMAD 011100Z 25006KT 200V300 8000 NSC 24/16 Q1020 NOSIG", "GMAG 011100Z 00000KT 6000 FEW010 21/15 Q1021 NOSIG", "GMAT 011100Z 01010KT CAVOK 20/14 Q1022 NOSIG", "GMFB 011100Z 36004KT CAVOK 26/M09 Q1026 NOSIG", "GMFF 011100Z 31007KT CAVOK 22/08 Q1027 NOSIG", "GMFK 011100Z 05003KT CAVOK 28/M10 Q1026 NOSIG", "GMFM 011100Z 32008KT 290V360 CAVOK 21/12 Q1026 NOSIG", "GMFO 011100Z 33016KT CAVOK 26/05 Q1023 NOSIG", "GMMB 011100Z 03008KT 350V070 6000 BKN016 21/16 Q1027 NOSIG", "GMMC 011100Z 06008KT 6000 FEW010 SCT200 20/14 Q1026", "GMMD 011100Z 22005KT CAVOK 26/04 Q1024 NOSIG", "GMME 011100Z 36009KT 330V030 5000 BKN015 21/16 Q1026 NOSIG", "GMMH 011100Z 08017KT 6000 NSC 28/09 Q1019 NOSIG", "GMMI 011100Z 05014KT 8000 NSC 27/07 Q1022 TEMPO 04015G25KT", "GMML 011100Z 03015KT 8000 NSC 23/14 Q1022 NOSIG", "GMMN 011100Z 05011KT 010V090 9999 BKN016 21/16 Q1026 BECMG SCT016", "GMMW 011100Z 32014KT CAVOK 27/08 Q1022 NOSIG", "GMMX 011100Z 04006KT 340V100 CAVOK 26/08 Q1024 NOSIG", "GMMZ 011100Z 08004KT CAVOK 26/M08 Q1025 NOSIG", "GMTA 011100Z 34011KT 300V360 CAVOK 24/13 Q1023 NOSIG", "GMTN 011100Z 26010KT 230V320 CAVOK 24/13 Q1025 NOSIG", "GMTT 011100Z 27007KT 230V300 CAVOK 19/15 Q1026 NOSIG", "GOBD 011100Z 08012KT 4900 DU NSC 36/M03 Q1012 NOSIG", "GOGG 011100Z 20002KT CAVOK 32/23 Q1012", "GOGS 011100Z 22004KT 180V280 CAVOK 27/23 Q1012", "GOOK 011100Z 18004KT CAVOK 31/20 Q1014", "GOOY 011100Z 00000KT 4000 DU NSC 30/12 Q1012", "GOSS 011100Z 04008KT 340V150 8000 NSC 37/M04 Q1012", "GOTK 011100Z 26006KT CAVOK 35/16 Q1011", "GOTT 011100Z 36002KT CAVOK 35/15 Q1011", "GQNO 011100Z 07015KT 4000 BLDU NSC 35/M08 Q1013 NOSIG", "GQPP 011100Z 06013KT 6000 NSC 32/07 Q1016 NOSIG", "GUCY 011100Z 32010KT 9999 FEW015 30/23 Q1012 NOSIG", "GVAC 011100Z 03014KT 4900 HZ NSC 29/14 Q1014 NOSIG", "GVBA 011100Z 02010KT 4900 HZ NSC 28/17 Q1014 NOSIG", "GVNP 011100Z 02014KT CAVOK 31/11 Q1014 NOSIG", "GVSV 011100Z 05022G34KT 9000 NSC 27/18 Q1014 NOSIG", "HAAB 011100Z 15003KT 9999 SCT025 22/11 Q1025 NOSIG", "HABD 011100Z 00000KT 9999 FEW024 SCT025 28/01 Q1021 NOSIG", "HADR 011100Z 14006KT 8000 -TSDZ FEW024CB SCT025 BKN060 22/20 Q1018 NOSIG", "HCMF 011100Z 02008KT 9999 FEW043 31/27 Q1007", "HCMM 011100Z 16010KT 9999 SCT026 31/26 Q1009", "HEAT 011100Z 03010KT CAVOK 21/04 Q1021 NOSIG", "HEAX 011100Z 22006KT CAVOK 22/08 Q1021 NOSIG", "HEBA 011100Z 21007KT CAVOK 22/04 Q1020 NOSIG", "HEBL 011100Z 03007KT CAVOK 23/03 Q1016 NOSIG", "HECA 011100Z 35003KT CAVOK 21/03 Q1020 NOSIG", "HEGN 011100Z 36011KT CAVOK 22/05 Q1018 NOSIG", "HEIS 011100Z 09008KT CAVOK 21/05 Q1021", "HELX 011100Z 31003KT CAVOK 25/01 Q1016 NOSIG", "HEMA 011100Z 35020KT CAVOK 23/11 Q1016 NOSIG", "HEMM 011100Z 25011KT CAVOK 24/03 Q1020 NOSIG", "HEPS 011100Z 36003KT 9999 SCT020 18/09 Q1021 NOSIG", "HESG 011100Z 32013KT CAVOK 24/03 Q1017 NOSIG", "HESH 011100Z 02011KT CAVOK 23/05 Q1018 NOSIG", "HESN 011100Z 01008KT CAVOK 26/03 Q1017 NOSIG", "HESW 011100Z 24006KT CAVOK 22/02 Q1020", "HESX 011100Z 03007KT CAVOK 20/06 Q1019 NOSIG", "HETR 011100Z 29023KT CAVOK 22/13 Q1016", "HKJK 011100Z 10005KT 9999 BKN029 27/12 Q1020 NOSIG", "HKKI 011100Z 23007KT 9999 FEW025CB SCT026 26/19 Q1017", "HKML 011100Z 15014KT 9999 FEW023CB 33/23 Q1009", "HKNW 011100Z 15010KT 9999 BKN030 28/11 Q1021", "HRYR 011100Z VRB04KT 9999 FEW023CB SCT024 23/17 Q1021 NOSIG", "HRZA 011100Z 22004KT 9999 TS FEW023CB BKN025 22/15 Q1021 NOSIG", "HSFS 011100Z 07008KT CAVOK 31/M06 Q1017", "HSNN 011100Z NELL", "HSSK 011130Z 33010KT CAVOK 33/M07 Q1012 NOSIG", "HTAR 011100Z 33015KT 9999 BKN030 FEW034CB 24/17 Q1020 NOSIG", "HTBU 011100Z 00000KT 9999 FEW016 FEW018CB BKN090 23/18 Q1018", "HTDA 011100Z 15006KT 9999 TS FEW022 BKN024 FEW027CB 33/23 Q1011 NOSIG METAR ", "HTDO 011100Z 25008KT 9999 BKN032 FEW034CB 28/18 Q1017 NOSIG", "HTIB 011100Z 00000KT 9999 FEW022 FEW023CB SCT130 26/18 Q1017", "HTIR 011100Z 33010KT 9999 BKN028 FEW030CB BKN090 26/18 Q1019 RERA", "HTKA 011100Z 30010KT 9999 SCT024 FEW025CB 27/21 Q1015 NOSIG", "HTKJ 011100Z 03005KT 9999 FEW032CB SCT033 31/16 Q1015 NOSIG", "HTMG 011100Z 00000KT 9999 BKN028 FEW029CB 32/20 Q1012", "HTMP 011100Z 18003KT 9999 SCT020 FEW022CB 25/19 Q1019", "HTMT 011100Z 13010KT 9999 BKN022 FEW023CB 28/25 Q1012 RETSRA", "HTMU 011100Z 33008KT 9999 SCT024 FEW026CB SCT090 24/19 Q1019", "HTMW 011100Z 30007KT 9999 SCT023 FEW024CB BKN100 25/18 Q1018 NOSIG", "HTSO 011100Z 27003KT 9999 BKN021 FEW022CB BKN080 22/29 Q1019 RERA", "HTSU 011100Z 00000KT 9999 FEW015 BKN070 20/14 Q1024", "HTTB 011100Z 27005KT 9999 BKN022 FEW023CB 26/19 Q1019 NOSIG", "HTZA 011100Z 21010KT 9999 FEW020 FEW021CB 31/25 Q1010 NOSIG", "HUEN 011030Z 17010KT 9999 SCT023 FEW025CB 24/19 Q1019 NOSIG", "K04V 011109Z AUTO 32006KT 10SM CLR M07/M11 A3026 RMK AO2", "K04W 011115Z AUTO 35011G16KT 10SM CLR M03/M12 A2973 RMK AO2", "K05U 011115Z AUTO 02003KT 10SM CLR M03/M07 A3010 RMK A01", "K06D 011115Z AUTO 22008KT 10SM CLR M13/M18 A2990 RMK AO2", "K08D 011115Z AUTO 20008KT 10SM CLR M08/M09 A2984 RMK AO2", "K0A0 011115Z AUTO 33009KT 10SM CLR 03/M15 A3021 RMK AO2", "K0CO 011115Z AUTO 31028G43KT BKN005 OVC011 M13/M15 A3002 RMK AO2 PWINO", "K0E0 011115Z AUTO 00000KT 10SM CLR M06/M11 A3023 RMK AO2 T10591114", "K0F2 011115Z AUTO 10SM CLR 11/M02 A3011 RMK AO2 T01131025", "K0J4 011108Z AUTO 22007KT 8SM BKN008 OVC015 22/19 A3008 RMK AO2 T02220194 $", "K0R0 011115Z AUTO 23006KT 9SM SCT018 BKN022 BKN027 22/21 A3005 RMK AO2", "K0R4 011115Z AUTO 25006KT 10SM 22/21 A3001 RMK AO2 T02240207", "K0S9 011115Z AUTO 00000KT 10SM BKN036 OVC043 03/03 A2983 RMK AO2", "K0V4 011115Z AUTO 18018G29KT 10SM SCT026 BKN090 OVC110 18/15 A2975 RMK AO1", "K0VG 011115Z AUTO 22004KT 10SM OVC070 16/15 A2978 RMK AO2", "K10G 011115Z AUTO 20006KT 10SM CLR 11/09 A2954 RMK AO2", "K12N 011054Z AUTO 20005KT 14/12 A2959 RMK AO1 SLP020 P0006 T01440122", "K13K 011115Z AUTO 28017G25KT 10SM CLR 02/M05 A3006 RMK AO2 T00201051", "K14Y 011115Z AUTO 35010G14KT 10SM CLR M06/M12 A2982 RMK AO2", "K15M 011115Z AUTO VRB04KT 10SM CLR 16/16 A2989 RMK AO2 T01600156 $", "K17J 011115Z AUTO 23006KT 7SM BKN008 BKN019 21/19 A3007 RMK AO2 T02060194", "K18A 011115Z AUTO 21009KT 180V240 10SM SCT019 SCT033 OVC100 19/16 A2998 RMK AO2 LTG DSNT N AND NE T01940162", "K18H 011115Z AUTO 15010KT 5SM HZ FEW018 26/22 A3004 RMK A01", "K19S 011115Z AUTO 29010KT 10SM CLR M02/M06 A3016 RMK AO2 T10231059", "K1A5 011115Z AUTO 06004KT 3SM +RA BKN030 OVC042 16/16 A2991 RMK AO2 P0008 T01640156", "K1A6 011115Z AUTO 25010G14KT 210V270 10SM OVC110 18/12 A2978 RMK AO2 T01800119", "K1A9 011115Z AUTO 20007G14KT 10SM BKN016 OVC046 22/19 A2999 RMK AO2 T02160192", "K1AM 011055Z AUTO 22011KT 10SM BKN100 OVC180 03/M05 A2973 RMK AO2 SLP082 T00311051 $", "K1AW 011055Z AUTO 28005KT 10SM CLR M01/M10 A3002 RMK AO2 SLP196 T10121098 $", "K1BM 011055Z AUTO 25013G18KT 10SM BKN110 03/M05 A2972 RMK AO2 PK WND 23028/0957 SLP080 T00301049 $", "K1BW 011055Z AUTO 28013KT 10SM CLR M01/M08 A3003 RMK AO2 SLP206 T10151076 $", "K1CM 011055Z AUTO 24012KT 10SM OVC100 08/01 A2973 RMK AO2 SLPNO T00780005 $", "K1CN 011110Z AUTO 00000KT 6SM HZ CLR M18/M20 A2990 RMK AO2 SLP170 $", "K1CW 011055Z AUTO 29012KT 10SM CLR M02/M07 A3001 RMK AO2 SLP181 T10181071 $", "K1D1 011115Z AUTO 33018KT 10SM CLR M08/M11 A2990 RMK AO2", "K1DM 011055Z AUTO 22005KT 10SM BKN100 OVC120 00/M04 A2973 RMK AO2 SLPNO T00011045 $", "K1DN 011055Z AUTO 18004KT 10SM CLR M12/M14 A2822 RMK AO2 SLP588 T11231139 $", "K1DW 011055Z AUTO 28008KT 10SM CLR M02/M07 A3002 RMK AO2 SLP205 T10221073 $", "K1EM 011055Z AUTO 22008KT 10SM FEW120 01/M04 A2972 RMK AO2 SLP083 T00081042 $", "K1EN 011055Z AUTO 22010KT 10SM CLR M09/M09 A2963 RMK AO2 SLP079 T10911093 $", "K1EW 011055Z AUTO 12006KT 10SM CLR M03/M09 A3000 RMK AO2 SLP190 T10271090 $", "K1F0 011115Z AUTO 36010KT 10SM CLR 13/M03 A3009 RMK AO2 T01291028", "K1FW 011055Z AUTO 30010KT 10SM CLR M01/M06 A2999 RMK AO2 SLP171 T10121064 $", "K1GM 011055Z AUTO 21023G26KT 10SM FEW190 01/M04 M RMK AO2 PK WND 21026/49 SLPNO T00051042 $", "K1GN 011055Z AUTO 20009KT 10SM CLR M11/M12 A2983 RMK AO2 SLP152 T11131122 $", "K1H2 011115Z AUTO 25024G31KT 10SM CLR 11/03 A2955 RMK AO2 T01050027", "K1HM 011055Z AUTO 28016KT 10SM BKN160 OVC180 01/M04 A2967 RMK AO2 SLP065 T00141039 $", "K1HN 011055Z AUTO 00000KT 10SM CLR M08/M11 A2986 RMK AO2 SLP150 T10851112 $", "K1HW 011055Z AUTO 28010KT 10SM CLR M02/M05 A2999 RMK AO2 SLP184 T10251047 $", "K1IM 011055Z AUTO 23013KT 10SM OVC110 04/M04 A2971 RMK AO2 SLP078 T00351045 $", "K1IN 011055Z AUTO 21004KT 10SM CLR M09/M11 A2982 RMK AO2 SLP142 T10891108 $", "K1IW 011055Z AUTO 27009KT 10SM CLR M03/M06 A3001 RMK AO2 SLP190 T10321060 $", "K1JM 011055Z AUTO 20011KT 10SM OVC110 01/M04 A2968 RMK AO2 SLP071 T00131044 $", "K1JN 011055Z AUTO 22018KT 10SM FEW060 M13/M13 A2981 RMK AO2 SLP141 T11271130 $", "K1JW 011055Z AUTO 27008KT 10SM CLR 01/M08 M RMK AO2 SLPNO T00101078 $", "K1KM 011055Z AUTO 29006KT 10SM BKN120 OVC140 01/M04 A2977 RMK AO2 SLP099 T00131042 $", "K1KN 011055Z AUTO 20019KT 10SM M M08/M08 A2981 RMK AO2 SLP134 T10761083 $", "K1LN 011055Z AUTO 22016KT 10SM CLR M08/M10 A2981 RMK AO2 SLP129 T10841096 $", "K1LW 011055Z AUTO 30016KT 10SM CLR 01/M08 A3000 RMK AO2 SLP183 T00051082 $", "K1M5 011115Z AUTO 20011G16KT 10SM FEW044 SCT050 OVC055 16/13 A2973 RMK A01", "K1MN 011055Z AUTO 20014KT 10SM CLR M09/M11 A2983 RMK AO2 SLP138 T10901106 $", "K1MW 011055Z AUTO 30007KT 10SM CLR M01/M07 A3002 RMK AO2 SLP181 T10151072 $", "K1NN 011055Z AUTO 20012KT 10SM CLR M A2986 RMK AO2 SLPNO ALSTG ESTMD $", "K1NW 011055Z AUTO 31010KT 10SM CLR 03/M08 A3002 RMK AO2 SLP161 T00281083 $", "K1OM 011055Z AUTO 24012KT 10SM OVC220 03/M05 A2972 RMK AO2 SLP083 T00311051 $", "K1ON 011055Z AUTO 18008KT 10SM CLR M17/M19 M RMK AO2 SLPNO T11701194 $", "K1OW 011055Z AUTO 31018KT 10SM CLR 01/M09 A3012 RMK AO2 SLP220 T00051087 $", "K1P1 011115Z AUTO 00000KT 1 1/4SM -SN OVC008 00/00 A2968 RMK AO2 P0003 T00020002", "K1R7 011115Z AUTO 00000KT 10SM BKN014 OVC019 20/20 A3004 RMK AO2 LTG DSNT NE PWINO", "K1R8 011115Z AUTO 22006G12KT 9SM BKN006 OVC013 22/22 A3005 RMK AO2", "K1S3 011130Z AUTO 26003KT 10SM 02/M03 A2984 ", "K1S5 011115Z AUTO 20008KT 10SM SCT080 BKN110 07/00 A2980 RMK AO2 T00700004", "K1U7 011115Z AUTO 00000KT 10SM OVC050 M04/M06 A3005 RMK A01", "K1V4 011054Z AUTO 01/M01 A2963 RMK AO1 SLP042 P0001 T00061006", "K1V6 011115Z AUTO 32008KT 10SM CLR 02/M11 A3009 RMK AO2", "K1YT 011055Z AUTO 22013KT 10SM OVC100 06/M03 A2970 RMK AO2 SLP066 T00621032 $", "K20U 011115Z AUTO 18015KT 10SM BKN070 BKN085 M05/M05 A2984 RMK AO2", "K20V 011115Z AUTO 08006KT 10SM SCT043 SCT050 SCT060 M06/M08 A3016 RMK AO2", "K21D 011115Z AUTO 36011G19KT 10SM SCT047 SCT060 M02/M05 A2966 RMK AO2", "K22N 011115Z AUTO 00000KT 3/4SM -VCTSRA BKN013 OVC022 08/07 A2960 RMK AO2 LTG DSNT SE AND S", "K24A 011105Z AUTO 27004KT 10SM -TSRA SCT020 BKN040 OVC060 16/14 A2992 RMK AO2 LTG DSNT ALQDS P0002 T01560139", "K24J 011115Z AUTO 00000KT 10SM SCT038 BKN049 17/17 A3011 RMK A01", "K28J 011115Z AUTO 24003KT 10SM FEW041 FEW047 15/13 A3014 RMK AO2", "K2A0 011115Z AUTO 28004KT 10SM FEW085 FEW120 15/15 A2980 RMK A01", "K2C8 011115Z AUTO 27005KT 10SM CLR M13/M17 A2995 RMK AO2", "K2D5 011115Z AUTO 31009KT 10SM FEW036 FEW045 SCT060 M13/M16 A2995 RMK AO2", "K2DP 011055Z AUTO 21017G22KT 10SM BKN150 OVC190 19/18 A2995 RMK AO2 SLPNO T01920182 $", "K2G2 011110Z AUTO 21006KT 10SM FEW080 BKN100 12/10 A2956 RMK A01", "K2G4 011115Z AUTO VRB06G15KT 250V320 2SM -RA BR FEW006 SCT010 BKN016 10/09 A2969 RMK AO2 LTG DSNT SE", "K2G9 011115Z AUTO 27014KT 10SM -DZ SCT044 SCT070 OVC110 10/08 A2961 RMK AO2", "K2I0 011115Z AUTO 24021G27KT 10SM CLR 18/04 A2964 RMK AO2 T01810035", "K2IS 011115Z AUTO 00000KT 3SM BR CLR 17/16 A3016 RMK AO2 T01670163", "K2J3 011115Z AUTO 20012G17KT 10SM OVC010 18/17 A3003 RMK AO2 T01830167", "K2J5 011115Z AUTO 14007KT 10SM OVC016 18/16 A3005 RMK AO2 T01840158", "K2M2 011115Z AUTO 22008G14KT 190V250 10SM SCT028 BKN036 OVC060 17/15 A2985 RMK A01", "K2P2 011115Z AUTO 02016G23KT 1 1/4SM -SN OVC003 00/00 A2925 RMK AO2 T10011001", "K2R9 011115Z AUTO 35004KT 4SM HZ SCT003 SCT012 OVC019 A3006 RMK AO2", "K2V5 011115Z AUTO 25008KT 10SM CLR M03/M05 A3008 RMK AO2", "K2V6 011119Z AUTO 25009KT 10SM CLR M03/M07 A3007 RMK AO2", "K2W6 011109Z AUTO 21008G22KT 180V240 10SM BKN024 OVC100 18/15 A2972 RMK AO1", "K2WX 011056Z AUTO 19008KT M06/M07 A2986 RMK AO1 SLP149 T10561072", "K33N 011115Z AUTO 21017G27KT 9SM SCT021 SCT046 BKN110 18/16 A2965 RMK A01", "K33V 011115Z AUTO 17016G22KT 10SM SCT033 OVC043 M02/M09 A3011 RMK AO1", "K35A 011115Z AUTO 22007G20KT 170V250 10SM BKN026 OVC032 19/15 A2995 RMK A02 LTG DSNT NW T01900153", "K36K 011115Z AUTO 29007KT 10SM CLR M03/M04 A3019 RMK AO2", "K38S 011130Z AUTO 18009KT 10SM 01/M02 A2982 ", "K3AU 011115Z AUTO 31011G17KT 10SM CLR 02/M07 A3010 RMK AO2", "K3D2 011115Z AUTO 01017G24KT 1SM -SN 00/00 A2923 RMK AO2 T10031003", "K3F3 011115Z AUTO 00000KT 10SM CLR 15/14 A3007 RMK AO2 T01450140", "K3J7 011115Z AUTO 21008KT 10SM OVC019 18/16 A2998 RMK AO2 LTG DSNT N", "K3K3 011115Z AUTO 00000KT 10SM CLR M04/M06 A3015 RMK AO2", "K3N8 011115Z AUTO 01007KT 10SM CLR M11/M16 A2990 RMK AO2 T11151160", "K3R7 011115Z AUTO 24004KT 10SM BKN009 OVC018 23/23 A3005 RMK AO2 T02260226", "K3S8 011115Z AUTO 13003KT 7SM -RA BKN033 OVC040 06/05 A3004 RMK AO2", "K3T5 011115Z AUTO 00000KT 1/2SM FG CLR 15/15 A3007 RMK AO2 T01470147 $", "K3U3 011130Z AUTO 16008G16KT 10SM M01/M05 A2980 ", "K40B 011116Z AUTO VRB05KT M01/M03 A2971 RMK AO1 SLP081 T10071028 56036", "K40U 011115Z AUTO 27005KT 10SM CLR M08/M10 A3011 RMK AO2 T10791096", "K41U 011115Z AUTO 01003KT 10SM CLR M05/M06 A3015 RMK AO1 T10501056", "K42J 011115Z AUTO 19005KT 10SM SCT028 BKN035 BKN041 18/17 A3013 RMK A01", "K46D 011115Z AUTO 26009KT 10SM CLR M15/M17 A2997 RMK AO2", "K46U 011115Z AUTO 12006KT 10SM BKN030 BKN041 OVC047 M00/M03 A3004 RMK A01", "K48A 011115Z AUTO 20007KT 10SM OVC005 18/18 A3006 RMK AO2 T01840178", "K49A 011115Z AUTO 22011G34KT 190V250 M1/4SM +TSRA OVC003 A2990 RMK AO2 LTG DSNT ALQDS", "K4A6 011115Z AUTO 20006KT 10SM FEW050 BKN070 OVC110 17/17 A2989 RMK AO2", "K4A9 011115Z AUTO 22006KT 10SM SCT075 BKN090 OVC110 16/15 A2989 RMK AO2 LTG DSNT SW T01620146", "K4BM 011115Z AUTO 20010G20KT 10SM CLR M09/M15 A3010 RMK AO2", "K4F2 011115Z AUTO 00000KT 4SM BR CLR 12/12 A3003 RMK AO2 T01200119", "K4I3 011116Z AUTO 19006KT 10SM CLR 11/09 A2954 RMK AO2", "K4M9 011115Z AUTO 27021KT 10SM CLR 17/02 A2978 RMK AO2 PWINO", "K4MR 011055Z AUTO 23007KT 10SM CLR 02/M11 A3014 RMK AO2 SLP165 T00151107 $", "K4O4 011115Z AUTO 32009KT 8SM OVC033 14/M02 A3002 RMK AO2", "K4R5 011115Z AUTO 03012G21KT 10SM BKN110 M03/M10 A2970 RMK AO2 T10311098", "K4S1 011115Z AUTO 28007KT 2SM RA CLR 07/06 A3008 RMK AO2 P0002", "K4S2 011115Z AUTO 30004KT 10SM -RA OVC032 03/02 A2989 RMK AO2", "K4U6 011110Z AUTO 21009KT 10SM M01/M02 A2978 RMK A01 Circle ", "K4V0 011115Z AUTO 00000KT 10SM CLR M06/M06 A3016 RMK AO2 T10561065", "K4V1 011115Z AUTO 23016G21KT 10SM CLR 04/M11 A3011 RMK AO2 T00351112", "K54A 011115Z AUTO 00000KT 10SM CLR 19/18 A3015 RMK AO2", "K54J 011115Z AUTO 21006KT 7SM BKN007 OVC011 22/21 A3008 RMK AO2 T02160205", "K57C 011115Z AUTO 25009G19KT 10SM OVC024 01/M03 A2933 RMK AO2 T00111028", "K5A6 011115Z AUTO 00000KT 10SM 16/15 A2995 RMK AO2 T01600148", "K5C1 011115Z AUTO 00000KT 10SM CLR 08/03 A3013 RMK AO1", "K5H4 011115Z AUTO 24006KT 10SM CLR M19/M28 A2996 RMK AO2", "K5R8 011115Z AUTO 27004KT 7SM SCT008 BKN039 OVC045 22/21 A3005 RMK AO2 T02240212", "K5SM 011115Z AUTO 10SM M12/M13 A3020 RMK AO2", "K5T9 011115Z AUTO 35005KT 10SM OVC080 18/M03 A3005 RMK A01", "K63S 011115Z AUTO 00000KT 7SM FEW020 BKN027 BKN060 02/01 A2971 RMK A01", "K65S 011115Z AUTO 00000KT 9SM UP BKN013 BKN017 OVC022 01/00 A2974 RMK AO2", "K66R 011115Z AUTO 00000KT 7SM OVC025 21/21 A3007 RMK AO2 T02120212", "K6A1 011115Z AUTO 33009G14KT 10SM OVC013 20/18 A3002 RMK AO2 T01950180", "K6A2 011115Z AUTO 23008G19KT 10SM OVC019 19/18 A2998 RMK AO2 LTG DSNT W THRU N", "K6B0 011115Z AUTO 19004KT 10SM RA BKN022 BKN060 OVC085 04/04 A2951 RMK AO2 T00400040 P0001", "K6B9 011115Z AUTO 20010G20KT 170V230 10SM BKN080 12/12 A2940 RMK AO2", "K6I2 011115Z AUTO 20015G23KT 10SM CLR 16/13 A2966 RMK AO2", "K6L4 011115Z AUTO 29009KT 250V310 4SM -RA SCT011 BKN027 OVC080 13/13 A2973 RMK AO2 LTG DSNT E AND SW", "K6P9 011115Z AUTO 31006KT 10SM CLR 13/M08 A3013 RMK AO2 T01251085", "K6R6 011051Z AUTO 11/M09 A3014 RMK AO1 SLP179 T01061094", "K6S0 011115Z AUTO 25012KT 10SM FEW055 SCT065 01/M05 A2982 RMK A01", "K6S2 011115Z AUTO 00000KT 10SM BKN039 OVC055 07/07 A3002 RMK AO2", "K6S8 011110Z AUTO 23009KT 10SM 01/M03 A2985 RMK A01 LAUREL", "K74V 011115Z AUTO 26004KT 10SM M02/M05 A3018 RMK AO2", "K77S 011115Z AUTO 24004KT 10SM FEW011 FEW015 OVC024 04/04 A3002 RMK A01", "K79J 011118Z AUTO 21004KT 8SM BKN008 BKN016 23/21 A3004 RMK AO2 T02280206", "K7BM 011115Z AUTO 26012G40KT 210V310 10SM CLR M03/M12 A3013 RMK AO2", "K7L2 011115Z AUTO 00000KT 10SM CLR M13/M13 A3000 RMK AO2", "K7W4 011115Z AUTO 10SM BKN024 OVC032 18/15 A2971 RMK AO1 T01790150", "K7W6 011110Z AUTO 21017G24KT 10SM CLR A2999 RMK AO2", "K81R 011115Z AUTO 00000KT 10SM CLR 05/01 A3015 RMK AO2 T00460006", "K82C 011115Z AUTO 33005KT 3SM -SN OVC004 01/01 A2935 RMK AO2 T00060006", "K82V 011120Z AUTO 26005KT 10SM M06/M10 A3003 RMK AO2", "K8A0 011115Z AUTO 25010KT 10SM OVC060 16/13 A2993 RMK AO2", "K8A3 011110Z AUTO 23008G14KT 10SM FEW031 BKN039 BKN047 15/13 A2978 RMK A01", "K8B0 011115Z AUTO VRB06G12KT 120V190 10SM OVC008 M01/M01 A2965 RMK AO2", "K8D3 011056Z AUTO 32017KT M08/M13 A2991 RMK AO1 SLP154 T10831133 $", "K8T6 011115Z AUTO 00000KT 7SM OVC011 23/23 A3003 RMK AO2", "K8W2 011115Z AUTO 21009G19KT 10SM SCT035 BKN060 OVC080 17/15 A2964 RMK AO1 T01660146", "K96D 011115Z AUTO 00000KT 10SM CLR M14/M17 A2996 RMK AO2", "K9A5 011115Z AUTO 27009KT 7SM SCT033 SCT050 BKN110 18/16 A2990 RMK AO2 T01760155", "K9L2 011055Z AUTO 33006KT 10SM CLR 02/00 A3013 RMK AO2 SLP203 T00150002", "K9MN 011115Z AUTO 32011G17KT 280V340 10SM OVC011 M02/M03 A2955 RMK AO1 T10161027", "K9S9 011110Z AUTO 24009G15KT 8SM FEW001 FEW017 OVC027 06/05 A2985 RMK AO2 PWINO", "K9V9 011115Z AUTO 29010KT 10SM M08/M11 A3003 RMK AO2 T10781115", "KA39 011115Z AUTO 14004KT 10SM SCT110 05/M02 A3009 RMK AO2", "KAAA 011115Z AUTO 27014G26KT 250V310 10SM SCT038 05/M02 A2953 RMK AO2 T00531016", "KAAF 011053Z AUTO 24005KT 9SM CLR 22/22 A3009 RMK AO2 SLP188 T02170217", "KAAO 011054Z AUTO 31014G22KT 10SM CLR 03/M06 A3008 RMK AO2 PK WND 32027/1034 SLP189 T00281061", "KAAS 011115Z AUTO 22012KT 10SM CLR 15/11 A2974 RMK AO1", "KAAT 011055Z AUTO 19010KT 10SM BKN060 01/M04 A3004 RMK AO2 SLP174 T00111044", "KABE 011110Z 00000KT 3SM VCTS RA BR OVC018 14/13 A2960 RMK AO2 LTG DSNT E AND SE TSE07 P0014 T01390128 $", "KABH 011055Z AUTO 20004KT 10SM CLR 02/M14 A3009 RMK AO2 SLP189 T00221140", "KABI 011052Z 00000KT 10SM CLR 07/M06 A3013 RMK AO2 SLP192 T00671056", "KABQ 011052Z 36008KT 10SM FEW220 SCT250 03/M09 A3023 RMK AO2 SLP210 T00331094", "KABR 011053Z AUTO 33007KT 6SM HZ CLR M09/M14 A2996 RMK AO2 SLP167 T10941144 $", "KABY 011053Z AUTO 22008KT 10SM OVC011 21/19 A3007 RMK AO2 SLP182 T02060189", "KACB 011115Z AUTO 00000KT 10SM OVC014 02/01 A2922 RMK AO2 T00220010", "KACJ 011115Z AUTO 21006KT 9SM OVC009 20/19 A3003 RMK AO2 CIG 008V011 OVC V BKN T01970192 $", "KACK 011119Z 21016KT 1SM -RA BR VV002 09/09 A2973 RMK AO2 P0000 T00940089 RVRNO $", "KACP 011115Z AUTO 00000KT 5SM BR BKN010 OVC016 23/20 A3003 RMK AO2", "KACQ 011115Z AUTO 33012KT 10SM -SN BKN047 OVC050 M01/M02 A2965 RMK AO2", "KACT 011051Z 20004KT 10SM CLR 06/03 A3007 RMK AO2 SLP177 T00610028", "KACV 011053Z AUTO 17010KT 10SM -RA OVC034 09/05 A3013 RMK AO2 RAB16E28B48 SLP209 P0000 T00940050", "KACY 011101Z AUTO 19009KT 9SM BKN023 14/13 A2969 RMK AO2 T01390128", "KACZ 011105Z AUTO 20009G18KT 10SM SCT022 20/17 A2999 RMK AO2 T01990166", "KADC 011117Z AUTO 35010KT 10SM CLR M06/M15 A2984 RMK AO2 TSNO", "KADF 011056Z AUTO 30004KT 10SM CLR 12/04 A2997 RMK AO2 SLP147 T01170044", "KADG 011053Z AUTO 22007KT 10SM CLR 08/04 A2940 RMK AO2 SLP956 T00830039", "KADH 011110Z AUTO 34009KT 10SM CLR 10/M01 A3011 RMK AO2", "KADM 011115Z AUTO 36011KT 10SM SCT040 BKN048 OVC055 11/M02 A3008 RMK AO2", "KADS 011047Z 32012G17KT 10SM SKC 16/M05 A3006", "KADT 011115Z AUTO 24005KT 10SM CLR M03/M05 A3015 RMK AO2 T10321050", "KADU 011115Z AUTO 32021G30KT 10SM OVC017 00/M03 A2976 RMK AO2", "KADW 011119Z AUTO 21015G28KT 10SM TS FEW002 FEW020 SCT036 BKN090 17/17 A2964 RMK AO2 DZE1056RAB1056E19 TSB04 SLP043 $", "KAEG 011115Z AUTO 32005KT 10SM CLR M02/M11 A3023 RMK AO2 T10181107", "KAEJ 011115Z AUTO 25012G21KT 10SM CLR 00/M12 A3014 RMK AO2 T10051125", "KAEL 011115Z AUTO 34013G23KT 5SM -SN OVC017 M03/M03 A2961 RMK AO2", "KAEX 011053Z 28005KT 5SM BR BKN065 22/20 A3002 RMK AO2 SLP168 T02170200 $", "KAFF 011100Z AUTO 36012G22KT 10SM CLR 00/M16 A3005 RMK AO2 WSHFT 1059 SLP172", "KAFJ 011056Z AUTO 20005KT 10SM SCT085 OVC110 12/09 A2960 RMK AO2 RAE41 SLP024 P0001 T01170094", "KAFK 011115Z AUTO 32021G27KT 10SM SCT025 00/M04 A2990 RMK AO2 T00001037", "KAFN 011052Z AUTO VRB04KT 4SM RA BR OVC003 01/00 A2966 RMK AO2 UPB10E14RAB14 SLP057 P0012 T00110000", "KAFO 011110Z AUTO 16010KT 10SM OVC050 M01/M05 A3003 RMK AO2", "KAFP 011109Z AUTO 19008KT 10SM SCT100 19/15 A2992 RMK AO2 T01860150", "KAFW 011053Z 33011KT 10SM BKN250 14/M04 A3007 RMK AO2 SLP174 T01391044", "KAGC 011053Z 18007KT 10SM SCT080 BKN090 OVC120 12/09 A2955 RMK AO2 RAE01B33E48 SLP011 P0000 T01220094", "KAGI 011115Z AUTO 16007KT 7SM CLR 23/22 A3006 RMK AO2 T02310218", "KAGO 011115Z AUTO 22004KT 10SM FEW021 SCT038 BKN044 14/07 A2997 RMK A01", "KAGS 011053Z 19011KT 10SM SCT020 18/16 A2999 RMK AO2 SLP153 T01830156", "KAHN 011051Z AUTO VRB06KT 10SM BKN021 OVC028 19/16 A2995 RMK AO2 SLP136 T01890161", "KAHQ 011115Z AUTO 31017G25KT 10SM M01/M06 A2994 RMK AO2 T10111063", "KAIA 011059Z AUTO 23006KT 3SM BR CLR M11/M11 A2999 RMK AO2 T11061111", "KAID 011115Z AUTO 18011G18KT 10SM CLR 10/07 A2942 RMK AO2 T01010072", "KAIG 011115Z AUTO 36020G25KT 3/4SM SN OVC007 M03/M03 A2935 RMK AO2 P0001 T10271031", "KAIK 011115Z AUTO 21009KT 10SM OVC014 18/16 A3000 RMK AO2 T01820159", "KAIO 011115Z AUTO 32023G31KT 10SM OVC020 M00/M00 A2981 RMK AO2", "KAIT 011115Z AUTO 34011KT 10SM CLR M05/M15 A2979 RMK AO2", "KAIZ 011056Z AUTO 28016G27KT 10SM CLR 03/M06 RMK AO2 PK WND 29027/1052 SLPNO T00331061 $", "KAJG 011115Z AUTO 21017G22KT 10SM CLR 15/01 A2949 RMK AO2 T01500012", "KAJR 011115Z AUTO 20007G14KT 7SM RA OVC018 19/18 A2989 RMK AO2 LTG DSNT S THRU NW T01860181", "KAJZ 011115Z AUTO 04004KT 10SM CLR 01/M06 A3022 RMK AO2 T00051058", "KAKH 011054Z AUTO 20011G18KT 10SM FEW020 BKN080 OVC100 18/14 A2989 RMK AO2 SLP117 T01780144", "KAKO 011053Z AUTO 25012KT 10SM CLR M01/M08 A3005 RMK AO2 SLP190 T10111078", "KAKQ 011054Z AUTO 20009G26KT 10SM FEW025 19/15 A2982 RMK AO2 PK WND 21026/1045 SLP096 T01940150", "KAKR 011054Z AUTO 21008KT 10SM FEW120 12/07 A2950 RMK AO2 SLP989 T01220072", "KALB 011057Z 16009KT 4SM -RA BR FEW007 BKN042 OVC055 08/07 A2955 RMK AO2 PRESFR P0002 T00830067", "KALI 011053Z AUTO 11003KT 1/4SM FG VV002 22/22 A3000 RMK AO2 SLP156 T02220222", "KALK 011056Z AUTO 13004KT 10SM CLR 06/M09 A3015 RMK AO2 SLP150 T00611094", "KALM 011115Z AUTO 02006KT 10SM FEW036 BKN048 03/M16 A3020 RMK AO2", "KALN 011115Z AUTO 26027G44KT 10SM CLR 06/M04 A2966 RMK AO2 T00591040", "KALO 011117Z 32023G34KT 9SM SCT013 OVC018 01/M01 A2947 RMK AO2 PK WND 32034/1107 SNE12 PRESRR P0000 T00111011", "KALS 011052Z AUTO 29004KT 10SM CLR M11/M14 A3023 RMK AO2 SLP250 T11061144", "KALW 011117Z AUTO 22007KT 8SM -RA OVC028 06/04 A2983 RMK AO2 P0003 T00610039", "KAMA 011053Z 06005KT 10SM CLR 03/M09 A3016 RMK AO2 SLP195 T00281094", "KAMG 011053Z AUTO 17004KT 10SM OVC024 17/15 A3008 RMK AO2 SLP183 T01720150", "KAMN 011115Z AUTO 22011G18KT 10SM CLR 07/02 A2932 RMK AO2 T00660015", "KAMW 011053Z AUTO 32024G41KT 10SM OVC017 01/M02 A2961 RMK AO2 PK WND 32041/1053 SNE18 PRESRR SLP030 P0001 T00061022", "KANB 011125Z AUTO 31017G26KT 10SM VCTS BKN016 BKN021 OVC031 18/16 A2996 RMK AO2 PK WND 30026/1124 LTG DSNT ALQDS RAE15 PRESRR P0002 T01830156", "KAND 011056Z AUTO 21014G22KT 10SM FEW032 BKN085 19/16 A2990 RMK AO2 PK WND 22026/1026 SLP119 T01940161", "KANE 011115Z AUTO 34012KT 10SM CLR M02/M08 A2969 RMK AO2", "KANJ 011126Z AUTO 10006G18KT 1/4SM +SN FZFG VV004 M02/M02 A2936 RMK AO2 PK WND 04029/1106 PRESRR P0026 T10171017", "KANK 011110Z AUTO 22012G19KT 10SM CLR 01/M10 A3023 RMK AO1 T00051101", "KANQ 011115Z AUTO 16006KT 10SM CLR 06/04 A2937 RMK AO2", "KANW 011115Z AUTO 31006KT 10SM CLR M07/M10 A3001 RMK AO2 T10751102", "KAOH 011053Z AUTO 18009KT 10SM CLR 11/08 A2945 RMK AO2 SLP972 T01060083 $", "KAOO 011124Z AUTO 28016G28KT 3SM RA BR FEW021 BKN036 OVC055 12/10 A2958 RMK AO2 PK WND 27028/1124 WSHFT 1100 P0009 T01220100", "KAPA 011053Z 12007KT 10SM FEW220 M02/M11 A3004 RMK AO2 SLP182 T10221111", "KAPC 011054Z 00000KT 10SM CLR 05/02 A3023 RMK AO2 SLP228 T00500022", "KAPF 011053Z 08004KT 10SM CLR 21/18 A3013 RMK AO2 SLP201 T02110178", "KAPN 011054Z AUTO 36008KT 10SM OVC009 01/01 A2925 RMK AO2 RAB03E09B28E45UPB42E44SNE28 SLP911 P0007 T00060006", "KAPS 011119Z AUTO 22005KT 7SM SCT040 22/21 A3005 RMK AO2", "KAPY 011115Z AUTO 00000KT 4SM BR OVC015 22/21 A3000 RMK AO2 T02180210 TSNO", "KAQO 011115Z AUTO 27005KT 10SM FEW030 SCT040 SCT046 07/M02 A3013 RMK AO2", "KAQP 011113Z AUTO 02015G22KT 10SM M08/M12 A2988 RMK AO2", "KAQV 011113Z AUTO 00000KT 1/4SM FG VV014 18/17 A3002 RMK AO2 T01830167", "KAQW 011111Z AUTO 3SM +RA FEW018 BKN026 OVC065 A2959 RMK AO2 P0006 TSNO $", "KAQX 011115Z AUTO 18006G11KT 10SM OVC035 18/16 A3004 RMK AO2", "KARA 011053Z 23007KT 8SM BKN013 OVC037 23/21 A3004 RMK AO2 SLP171 T02280211", "KARB 011053Z AUTO 22006KT 10SM CLR 08/01 A2938 RMK AO2 SLP950 T00830011", "KARG 011056Z AUTO 26016G23KT 10SM CLR 17/M03 A2979 RMK AO2 SLP088 T01721028", "KARM 011115Z AUTO 00000KT 2 1/2SM BR OVC012 21/21 A3005 RMK AO2 T02080208 TSNO", "KARR 011114Z AUTO 24007KT 8SM SCT011 BKN021 OVC028 03/02 A2939 RMK AO2 RAE11 P0000 T00280017", "KART 011118Z AUTO 18012G20KT 10SM SCT028 OVC041 11/09 A2928 RMK AO2 RAE17 PRESFR P0000 T01110094", "KARV 011115Z AUTO 01014G23KT M04/M06 A2949 RMK AO2 P0001 T10431065 PWINO", "KARW 011115Z AUTO 21006KT 10SM CLR 20/17 A3008 RMK AO2", "KASD 011053Z AUTO 22004KT 9SM SCT008 SCT018 23/22 A3004 RMK AO2 SLP173 T02280217", "KASE 011053Z AUTO 20007KT 10SM CLR M07/M12 A3018 RMK AO2 SLP220 T10671117", "KASG 011048Z 29007G14KT 10SM CLR 09/M01 A2999", "KASH 011114Z 32006KT 5SM -RA BR OVC003 02/02 A2969 RMK AO2 P0003", "KASJ 011105Z AUTO 20007G18KT 10SM OVC025 19/17 A2988 RMK AO2 T01900170", "KASL 011115Z AUTO 00000KT 1 1/2SM BR CLR 10/10 A3000 RMK AO2 VIS 3/4V5 T01010101 $", "KASN 011115Z AUTO 30020G24KT 10SM VCTS SCT012 BKN021 OVC031 21/19 A2996 RMK AO2 LTG DSNT NE THRU SE T02050191", "KAST 011123Z AUTO 23009G20KT 5SM -RA BKN023 BKN032 OVC049 05/02 A2990 RMK AO2 RAB14 P0001 T00500017", "KASW 011115Z AUTO 13003KT 10SM BKN120 06/02 A2934 RMK AO2 T00650030", "KASX 011053Z AUTO 03015G25KT 10SM FEW030 M03/M09 A2968 RMK AO2 PK WND 02033/1027 SLP061 T10331089", "KATA 011115Z AUTO 25005KT 8SM CLR 13/04 A3001 RMK AO2 SLP061 T01270045 $", "KATL 011052Z 21014G24KT 10SM BKN016 OVC025 21/17 A2994 RMK AO2 PK WND 21026/0954 LTG DSNT N AND NW SLP132 CB DSNT NW-N T02060167 $", "KATP 011115Z AUTO 00000KT 4SM BR FEW017 FEW030 25/23 A3008 RMK A01", "KATS 011115Z AUTO 30009KT 10SM CLR 04/M16 A3020 RMK AO2", "KATT 011051Z AUTO 00000KT 10SM CLR 13/06 A3010 RMK AO2 SLP185 T01330056", "KATW 011045Z 34007KT 6SM -SN BKN005 OVC021 01/00 A2927", "KATY 011053Z AUTO 34013KT 10SM CLR M09/M13 A2988 RMK AO2 SLP142 T10891128 PWINO FZRANO $", "KAUG 011123Z AUTO 04005KT 1/2SM FG VV003 01/01 A2973 RMK AO2 PRESFR T00110006", "KAUH 011115Z AUTO 32017G23KT 10SM CLR M02/M08 A3001 RMK AO2 T10241079", "KAUM 011117Z AUTO 34020G32KT 5SM UP OVC014 M02/M03 A2901 RMK AO2", "KAUN 011115Z AUTO 09006KT 10SM CLR 05/03 A3020 RMK A01", "KAUO 011053Z AUTO 20014KT 10SM OVC012 21/19 A3001 RMK AO2 SLP153 T02060189", "KAUS 011053Z COR 27004KT 10SM SCT250 11/07 A3009 RMK AO2 SLP183 T01060067", "KAUW 011123Z AUTO 35013G33KT 1SM -SN FEW009 SCT013 OVC018 M01/M04 A2938 RMK AO2 PK WND 35033/1120 P0000 T10111044", "KAVC 011115Z AUTO 20012G20KT 10SM OVC021 19/17 A2987 RMK AO2 LTG DSNT NE T01890165", "KAVK 011120Z AUTO 29011KT 10SM CLR 01/M05 A3016 RMK AO2 PWINO", "KAVL 011117Z AUTO 19011G23KT 5SM TSRA BR FEW017 BKN075 OVC110 16/14 A2986 RMK AO2 PK WND 20027/1101 LTG DSNT W AND NW TSB11 P0003 T01610139", "KAVP 011054Z AUTO VRB03KT 5SM RA BR SCT018 BKN027 OVC044 13/12 A2954 RMK AO2 LTG DSNT S RAB10 SLP002 P0006 T01280117", "KAVQ 011115Z AUTO 11008KT 10SM 09/M04 A3006 RMK AO2 T00891043", "KAVX 011051Z AUTO 24005KT 10SM CLR 09/04 A3011 RMK AO2 SLP197 T00890039", "KAWG 011115Z AUTO 27017G26KT 6SM BR BKN017 BKN029 BKN043 02/02 A2950 RMK AO2", "KAWM 011053Z AUTO 22007KT 10SM CLR 17/03 A2984 RMK AO2 SLP103 T01670033", "KAWO 011056Z AUTO 16007KT 10SM -RA CLR 04/03 A2984 RMK AO2 RAB05E25B52 SLP110 P0000 T00440033", "KAXA 011115Z AUTO 33022G31KT 10SM SCT026 BKN030 OVC060 M00/M02 A2965 RMK A01", "KAXH 011115Z AUTO 00000KT M1/4SM FG OVC012 21/20 A3004 RMK AO2 T02100202", "KAXN 011053Z AUTO 35009KT 10SM CLR M06/M13 A2982 RMK AO2 SLP118 T10611128 $", "KAXS 011115Z AUTO 01013KT 10SM CLR 09/M03 A3016 RMK AO2 T00911033", "KAXV 011115Z AUTO 17013G17KT 10SM CLR 10/08 A2944 RMK AO2", "KAXX 011115Z AUTO 28005KT 10SM CLR M02/M11 A3022 RMK AO2 T10201114", "KAYS 011115Z AUTO 21006KT 10SM BKN023 18/18 A3009 RMK AO2 T01830176", "KAZC 011115Z AUTO 00000KT 10SM CLR 00/M02 A3021 RMK AO2", "KAZE 011115Z AUTO 22006KT 10SM OVC013 19/16 A3007 RMK AO2 T01900158", "KAZO 011053Z 19006KT 10SM FEW060 FEW120 07/01 A2936 RMK AO2 SLP944 T00720011", "KBAB 011055Z AUTO 11007KT 10SM BKN050 07/04 A3020 RMK AO2 SLP230 T00680038 $", "KBAC 011115Z AUTO 35006KT 10SM CLR M14/M16 A2995 RMK AO2", "KBAD 011055Z AUTO 24003KT 10SM CLR 13/09 A3000 RMK AO2 SLP162 T01320093", "KBAF 011123Z 35003KT 3SM -RA BR OVC003 03/03 A2964 RMK AO2 P0001 T00280028", "KBAK 011045Z 18012KT 10SM CLR 10/08 A2951", "KBAM 011115Z AUTO 00000KT 10SM CLR 00/M04 A3005 RMK AO1", "KBAN 011052Z AUTO 27007KT 220V300 10SM CLR M03/M17 A3006 RMK AO2 SLP181 T10281167 $", "KBAX 011115Z AUTO 25017G24KT 10SM CLR 08/04 A2927 RMK AO2 T00820038", "KBAZ 011051Z AUTO 01008KT 10SM CLR 14/05 A3006 RMK AO2 SLP173 T01390050", "KBBB 011115Z AUTO 36013KT 10SM CLR M10/M13 A2986 RMK AO2", "KBBD 011115Z AUTO 22005KT 10SM CLR 07/M06 A3013 RMK AO2", "KBBG 011115Z AUTO 28009G18KT 240V310 10SM CLR 08/M04 A2995 RMK AO2", "KBBP 011115Z AUTO 19011G18KT 10SM SCT017 18/17 A2996 RMK AO2", "KBBW 011053Z AUTO 34012KT 10SM CLR M04/M09 A3001 RMK AO2 SLP185 T10391094", "KBCB 011115Z AUTO 21004KT 5SM +RA OVC013 14/14 A2979 RMK AO2 LTG DSNT NE P0006 T01440144", "KBCE 011053Z AUTO 26008KT 10SM CLR M17/M18 A3020 RMK AO2 SLP243 T11671183", "KBCK 011115Z AUTO 01011G18KT 1 1/2SM -SN OVC011 01/M01 A2943 RMK AO2 T00051011", "KBCR 011057Z AUTO VRB06KT 8SM BKN011 BKN018 22/21 A3007 RMK AO2 SLP138 T02170206 $", "KBCT 011053Z 16007KT 10SM CLR 24/20 A3014", "KBDE 011053Z AUTO 32004KT 10SM CLR M11/M18 A2990 RMK AO2 SLP143 T11111183", "KBDG 011115Z AUTO 03008G14KT 10SM M02/M06 A3029 RMK AO1 T10241065", "KBDH 011115Z AUTO 34012KT CLR M03/M10 A2985 RMK AO2 PWINO", "KBDL 011119Z 02003KT 2 1/2SM RA BR OVC006 04/03 A2964 RMK AO2 RAB1058 P0003 T00440033", "KBDN 011115Z AUTO 22011G16KT 7SM -RA BKN013 OVC023 03/01 A2982 RMK AO2", "KBDR 011115Z 20005KT 8SM -RA BKN023 OVC031 09/09 A2964 RMK AO2 RAE1053B12 P0001 T00940089", "KBDU 011115Z AUTO 12003KT 10SM SCT085 03/M11 A3002 RMK AO2", "KBEA 011115Z AUTO 01003KT 4SM BR OVC019 22/21 A3003 RMK AO2 T02180210", "KBEC 011115Z AUTO 31011G15KT 10SM CLR 03/M06 A3010 RMK AO2 T00251060", "KBED 011059Z 36003KT 1/2SM R11/1800V2600FT -RA FG VV002 03/03 A2967 RMK AO2 P0001 T00330028", "KBEH 011053Z AUTO 24004KT 10SM OVC060 08/02 A2934 RMK AO2 SLP936 T00780017 $", "KBFD 011053Z AUTO 22006KT 10SM -RA SCT060 BKN075 OVC095 12/07 A2949 RMK AO2 RAB0957 SLP983 P0001 T01170067", "KBFF 011053Z AUTO 33003KT 10SM CLR M04/M04 A3001 RMK AO2 SLP185 T10391044 $", "KBFI 011053Z 18007KT 10SM FEW020 05/03 A2985 RMK AO2 SLP108 T00500028", "KBFL 011054Z AUTO 00000KT 10SM CLR 07/04 A3018 RMK AO2 SLP218 T00720044", "KBFM 011109Z 22003KT 10SM BKN009 OVC014 23/21 A3007 RMK AO2 CIG 008V012 T02330211", "KBFR 011115Z AUTO 20012G17KT 10SM CLR 13/04 A2949 RMK AO2 LTG DSNT E", "KBGD 011051Z AUTO 00000KT 10SM CLR 05/M06 A3019 RMK AO2 SLP205 T00501056", "KBGE 011115Z AUTO 21009KT 7SM BKN007 21/20 A3007 RMK AO2 T02080199", "KBGF 011115Z AUTO 25006KT 10SM OVC075 17/16 A2986 RMK A01", "KBGM 011053Z 20007G16KT 10SM BKN007 OVC011 11/09 A2948 RMK AO2 RAE25 CIG 005V009 SLP988 P0001 T01060089", "KBGR 011053Z 10007KT 5SM BR OVC008 01/00 A2979 RMK AO2 SNE36 SLP091 P0000 T00110000 $", "KBHB 011056Z AUTO 10007G14KT 6SM -RA BR OVC004 02/02 A2981 RMK AO2 UPB37E56RAB56 SLP097 P0000 T00170017 FZRANO", "KBHC 011115Z AUTO 23003KT 10SM OVC022 17/15 A3008 RMK AO2", "KBHK 011051Z AUTO 15003KT 10SM CLR M04/M06 A2985 RMK AO2 SLP139 T10441056", "KBHM 011120Z 25017G24KT 1 3/4SM +TSRA FEW022 BKN030 OVC045 16/13 A3000 RMK AO2 LTG DSNT ALQDS TSB18 P0003 T01610128 $", "KBID 011056Z AUTO 21015KT 1/4SM -RA FG OVC002 08/08 A2971 RMK AO2 SLP061 P0001 T00830078", "KBIE 011115Z AUTO 31019G30KT 10SM SCT120 01/M05 A2997 RMK AO2 T00051051", "KBIF 011055Z AUTO 00000KT 10SM CLR 08/M18 A3016 RMK AO2 SLP176 T00781181 $", "KBIH 011056Z AUTO 29003KT 10SM CLR M01/M04 A3014 RMK AO2 SLP193 T10111044", "KBIL 011053Z 23009KT 10SM FEW065 OVC080 02/M04 A2983 RMK AO2 SLP120 T00171044", "KBIS 011052Z 00000KT 10SM CLR M14/M17 A2997 RMK AO2 SLP179 I1000 T11441167", "KBIV 011053Z AUTO 24017G26KT 10SM BKN065 06/01 A2936 RMK AO2 PK WND 24026/1027 SLP924 T00610011", "KBIX 011120Z AUTO 26007KT 10SM OVC006 22/21 A3003 RMK AO2 SLP172", "KBJC 011115Z AUTO 00000KT 10SM SCT085 02/M10 A3004 RMK AO2", "KBJI 011115Z AUTO 35005KT 10SM CLR M09/M17 A2987 RMK AO2 T10911167", "KBJJ 011056Z AUTO 20007KT 10SM CLR 10/08 A2952 RMK AO2 SLP996 T01000083", "KBKB 011052Z AUTO 00000KT 6SM BR FEW011 BKN070 22/21 A3001 RMK AO2 SLP188 T02170206", "KBKD 011115Z AUTO 00000KT 10SM CLR 10/M04 A3014 RMK AO2 T00961044", "KBKE 011053Z AUTO 13007KT 10SM OVC100 03/00 A2986 RMK AO2 SLP119 T00330000", "KBKF 011058Z 17007KT 10SM FEW120 M03/M12 A3004 RMK AO2A SLP169 T10261124 10034 21029 50003", "KBKL 011053Z 21016KT 10SM CLR 13/05 A2946 RMK AO2 PK WND 21027/0954 SLP976 T01280050", "KBKN 011115Z AUTO 30009KT CLR 03/M05 A3013 RMK AO2", "KBKS 011115Z AUTO 06005KT 9SM OVC003 23/23 A2999 RMK AO2 SLP117 T02250225 $", "KBKT 011115Z AUTO 22017G26KT 10SM OVC024 18/15 A2978 RMK AO1 T01820151", "KBKV 011053Z 16004KT 10SM CLR 14/14 A3014 RMK AO2 SLP206 T01390139", "KBKW 011058Z AUTO 25013G23KT 7SM -RA FEW009 SCT019 OVC060 14/12 A2975 RMK AO2 WSHFT 1044 P0001 T01440122", "KBKX 011056Z AUTO 34014KT 10SM CLR M08/M11 A2987 RMK AO2 SLP150 T10781111 FZRANO", "KBLF 011113Z AUTO 27010G20KT 3SM +RA BR BKN006 BKN011 OVC028 13/12 A2979 RMK AO2 P0013 T01280122", "KBLI 011053Z AUTO 20007KT 10SM FEW037 BKN060 OVC075 06/03 A2980 RMK AO2 SLP100 T00610033", "KBLM 011118Z AUTO 20010G14KT 10SM OVC008 14/ A2966 RMK AO2", "KBLU 011052Z AUTO 15005KT 10SM FEW011 00/M02 A3016 RMK AO2 SLP217 T00001022", "KBLV 011055Z 30027G40KT 10SM CLR 11/M01 A2960 RMK AO2A PK WND 25040/0955 PRESRR SLP025 T01121006 $", "KBMC 011115Z AUTO 20016KT 10SM SCT095 04/M03 A3007 RMK AO1 T00441035", "KBMG 011053Z 21010G23KT 10SM CLR 13/04 A2947 RMK AO2 SLP975 T01330044 $", "KBMI 011056Z 27020G31KT 10SM BKN016 BKN023 OVC027 05/03 A2946 RMK AO2 PK WND 28035/1008 RAE52 SLP974 P0001 T00500028", "KBML 011052Z AUTO 00000KT 10SM OVC017 01/M01 A2965 RMK AO2 SLP055 T00111011", "KBMQ 011053Z AUTO 01004KT 10SM CLR 09/00 A3012 RMK AO2 SLP187 T00940000 $", "KBMT 011115Z AUTO 00000KT 1/4SM FG OVC003 22/22 A3005 RMK AO2 T02220216", "KBNA 011053Z 21009KT 10SM SCT150 18/11 A2979 RMK AO2 SLP082 T01780106 $", "KBNL 011115Z AUTO 25009KT 10SM BKN025 BKN039 OVC044 19/16 A3003 RMK AO2", "KBNO 011123Z AUTO 20008KT 3SM -SN BR OVC017 01/M01 A2991 RMK AO2 P0002 T00111006", "KBNW 011115Z AUTO 33023G34KT 10SM OVC014 M00/M01 A2967 RMK AO2", "KBOI 011053Z 34005KT 9SM -RA OVC035 06/01 A2997 RMK AO2 RAB49 SLP152 P0000 T00610011", "KBOK 011121Z AUTO 16010G16KT 3/4SM -RA BR OVC003 07/07 A3009 RMK AO2 P0005", "KBOS 011110Z 02003KT 1/4SM R04R/2000V3500FT -RA FG VV002 05/05 A2968 RMK AO2 TWR VIS 3/4 RAB06 P0000 T00500050", "KBOW 011130Z 00000KT 10SM FEW050 16/15 A3015", "KBPC 011115Z AUTO 00000KT 10SM CLR M01/M08 A3019 RMK AO2", "KBPG 011115Z AUTO 00000KT 10SM CLR 04/M13 A3017 RMK AO2 T00451132", "KBPI 011053Z AUTO 08007KT 10SM OVC049 M09/M11 A3003 RMK AO2 SLP195 T10941106", "KBPK 011053Z AUTO 31011G25KT 10SM CLR 12/M03 A2988 RMK AO2 PK WND 33029/1043 SLP110 T01221033", "KBPT 011053Z 23003KT 4SM BR BKN006 BKN020 OVC050 23/22 A3003 RMK AO2 SLP168 T02280222", "KBQK 011115Z AUTO 20010KT 10SM CLR 19/16 A3010 RMK AO2 T01920155", "KBQP 011115Z AUTO 22004KT 10SM CLR 16/15 A3000 RMK AO2 T01640153", "KBQX 011115Z AUTO 17008KT 1 1/2SM BR CLR 23/23 A3003 RMK A01", "KBRD 011053Z AUTO 35011KT 10SM CLR M05/M14 A2978 RMK AO2 SLP103 T10501139", "KBRG 011115Z AUTO 33004KT 10SM CLR 00/M12 A3024 RMK AO2 T10041123", "KBRL 011053Z AUTO 26020G33KT 10SM OVC025 02/M02 A2952 RMK AO2 PK WND 25042/1015 SLP995 T00221022", "KBRO 011053Z 13004KT 6SM BR BKN021 22/22 A2997 RMK AO2 SLP148 T02170217", "KBRY 011115Z AUTO 21008KT 10SM CLR 16/13 A2961 RMK AO2 T01620133 $", "KBTA 011115Z AUTO 30015G21KT 10SM BKN046 M01/M05 A2989 RMK AO2 T10151055", "KBTL 011053Z 23008KT 10SM CLR 06/01 A2937 RMK AO2 SLP945 T00610006 $", "KBTM 011053Z AUTO 00000KT 10SM SCT055 BKN070 M03/M07 A2982 RMK AO2 SLP118 T10281067", "KBTN 011115Z AUTO 14004KT 10SM CLR M15/M17 A2995 RMK AO2", "KBTP 011056Z AUTO 20004KT 10SM BKN095 12/09 A2954 RMK AO2 RAE13 SLP009 P0000 T01170094 TSNO $", "KBTR 011053Z 25006KT 10SM BKN015 BKN021 BKN028 23/22 A3003 RMK AO2 SLP169 T02330217", "KBTV 011123Z 16003KT 4SM -RA BR BKN010 BKN013 OVC019 03/03 A2947 RMK AO2 PRESFR P0005 T00330028", "KBUF 011054Z 22014G23KT 10SM SCT100 BKN110 14/06 A2934 RMK AO2 PK WND 23032/1008 SLP936 T01390056", "KBUR 011053Z 07003KT 10SM CLR 08/04 A3011 RMK AO2 SLP189 T00830044", "KBUU 011115Z AUTO 25010G17KT 10SM OVC028 02/M02 A2934 RMK AO2 T00171024 PWINO", "KBUY 011054Z AUTO 19013G22KT 10SM BKN022 OVC028 19/15 A2985 RMK AO2 SLP103 T01890150", "KBVI 011115Z AUTO 26008KT 10SM BKN110 12/08 A2954 RMK AO2 LTG DSNT SE T01230080", "KBVN 011115Z AUTO 31014G22KT 10SM CLR M04/M09 A2999 RMK AO2 T10411092 PWINO", "KBVO 011053Z AUTO VRB03KT 10SM CLR 06/M05 A3008 RMK AO2 SLP180 T00561050", "KBVS 011115Z AUTO 00000KT 10SM BKN023 OVC028 04/04 A2983 RMK A01", "KBVU 011115Z AUTO 00000KT 10SM CLR 08/M07 A3012 RMK AO2", "KBVX 011056Z AUTO 27010G16KT 10SM CLR 17/M03 A2985 RMK AO2 SLP105 T01671033", "KBVY 011117Z 36004KT 1/4SM -RA FG VV002 04/04 A2967 RMK AO2 RAB09 P0000 T00390039", "KBWD 011115Z AUTO 00000KT 10SM CLR 03/00 A3015 RMK AO1", "KBWG 011053Z AUTO 21012KT 10SM CLR 18/12 A2970 RMK AO2 SLP053 T01780122", "KBWI 011054Z 21019G31KT 10SM BKN021 OVC028 18/15 A2964 RMK AO2 PK WND 19031/1050 RAB03E15B28E38 SLP035 P0001 T01830150", "KBWP 011115Z AUTO 34010KT 10SM CLR M10/M14 A2992 RMK AO2", "KBWW 011115Z AUTO 20011KT 10SM FEW075 M06/M06 A2987 RMK AO2", "KBXA 011115Z AUTO 22006KT 10SM BKN015 BKN019 OVC025 23/21 A3004 RMK AO2 T02330210", "KBXK 011115Z AUTO 35006KT 10SM CLR 07/M01 A3007 RMK A01", "KBYG 011053Z AUTO 25007KT 10SM CLR M03/M09 A2987 RMK AO2 SLP138 T10281094", "KBYI 011053Z AUTO 21013KT 10SM CLR 03/M03 A2998 RMK AO2 SLP154 T00331033", "KBYL 011115Z AUTO 24007KT 10SM FEW110 15/13 A2977 RMK AO1", "KBYS 011055Z AUTO 00000KT 10SM CLR 07/M05 A3009 RMK AO2 SLP183 T00691051 $", "KBYY 011115Z AUTO 00000KT 5SM BR 22/22 A3003 RMK AO2 T02290223", "KBZN 011056Z AUTO 16007KT 10SM BKN090 BKN120 01/M04 A2984 RMK AO2 SLP122 T00061039", "KC09 011115Z AUTO 25009KT 10SM -RA SCT012 BKN040 OVC048 03/03 A2941 RMK AO2 LTG DSNT E T00290029", "KC29 011115Z AUTO 26011G16KT 10SM OVC015 02/00 A2935 RMK AO1 T00170000", "KC35 011115Z AUTO 25006KT 3SM OVC010 00/00 A2934 RMK AO2 T00020002 PWINO", "KC62 011115Z AUTO 15004KT 10SM CLR 05/03 A2937 RMK AO2 T00580032", "KC65 011115Z AUTO 12004KT 10SM FEW075 OVC095 06/04 A2932 RMK A01", "KC75 011115Z AUTO 27017G28KT 230V310 10SM BKN028 OVC038 04/01 A2946 RMK AO2 T00350006 PWINO", "KC83 011115Z AUTO 24006KT 10SM BKN044 OVC050 06/05 A3024 RMK AO2", "KC99 011115Z AUTO 29016G27KT 10SM OVC013 M10/M12 A3002 RMK AO2", "KCAD 011115Z AUTO 23009KT 10SM OVC009 04/03 A2921 RMK AO2 T00370027", "KCAE 011117Z 21010G19KT 10SM BKN014 19/16 A2997 RMK AO2 T01890161", "KCAG 011053Z AUTO 00000KT 10SM OVC070 M04/M07 A3015 RMK AO2 SLP238 T10391067", "KCAK 011051Z 21009KT 10SM BKN120 11/08 A2952 RMK AO2 SLP998 T01110083 $", "KCAO 011055Z AUTO 00000KT 10SM CLR M02/M13 A3016 RMK AO2 SLP198 T10171133", "KCAR 011054Z AUTO 14010G16KT 10SM OVC012 M01/M03 A2981 RMK AO2 SLP104 T10061033", "KCAV 011115Z AUTO 34023G37KT 10SM OVC014 M01/M01 A2963 RMK A01", "KCBE 011105Z AUTO 33005KT 4SM -RA BR SCT030 BKN036 OVC050 08/07 A2965 RMK AO2 T00750070", "KCBF 011115Z AUTO 32017G25KT 10SM OVC050 M01/M06 A2986 RMK AO2", "KCBK 011115Z AUTO 23006KT 10SM CLR M07/M08 A3012 RMK AO2 T10711082", "KCBM 011055Z AUTO 25003KT 10SM FEW110 M A2992 RMK AO2 RAE09 SLPNO ALSTG ESTMD P0002 $", "KCCA 011115Z AUTO 28011G20KT 10SM SCT050 SCT065 BKN080 16/M03 A2990 RMK AO2 TSNO", "KCCB 011115Z AUTO 05003KT 10SM CLR 09/01 A3010 RMK AO2", "KCCO 011115Z AUTO 20005G15KT 10SM BKN015 OVC020 20/18 A2997 RMK AO2 LTG DSNT N AND NW T02000179", "KCCR 011053Z AUTO 15005KT 10SM CLR 05/03 A3025 RMK AO2 SLP228 T00500033", "KCCU 011115Z AUTO 26013G19KT BKN015 OVC021 M09/M12 A3014 RMK AO2 PWINO", "KCCY 011115Z AUTO 34030G38KT 10SM OVC014 M00/M00 A2948 RMK AO2", "KCDA 011115Z AUTO 15003KT 1SM RA 00/00 A2961 RMK AO2 T00010000", "KCDC 011053Z AUTO 14007KT 10SM CLR M01/M07 A3016 RMK AO2 SLP204 T10061072", "KCDD 011115Z AUTO 00000KT 10SM CLR M10/M19 A2989 RMK AO2 TSNO", "KCDI 011115Z AUTO 20006KT 10SM OVC110 12/11 A2959 RMK AO2 LTG DSNT SE T01150109", "KCDJ 011051Z AUTO 28013G30KT 03/M03 A2977 RMK AO1 PK WND 28033/1034 SLP083 T00331033", "KCDR 011053Z AUTO 20004KT 9SM CLR M11/M13 A2999 RMK AO2 SLP209 T11111133 $", "KCDS 011053Z AUTO 01005KT 10SM CLR 06/M07 A3017 RMK AO2 SLP206 T00611072", "KCDW 011053Z 00000KT 8SM OVC020 09/07 A2962 RMK AO2 RAE34 SLP036 P0001 T00940072", "KCEC 011115Z AUTO 17014G24KT 2 1/2SM RA BR BKN009 OVC015 08/07 A3010 RMK AO2 P0002 T00830072", "KCEF 011125Z AUTO 00000KT 4SM -RA BR OVC003 03/03 A2961 RMK AO2 UPE1058RAB1058 PRESFR SLP034", "KCEU 011054Z AUTO VRB06G15KT 10SM FEW022 SCT035 BKN100 19/16 A2989 RMK AO2 SLP115 T01940156", "KCEW 011104Z AUTO 23005KT 9SM BKN012 OVC019 22/22 A3007 RMK AO2 T02220217", "KCEY 011115Z AUTO 21015G21KT 10SM CLR 16/01 A2972 RMK A01", "KCEZ 011053Z AUTO 00000KT 10SM CLR M07/M09 A3024 RMK AO2 SLP238 T10671089", "KCFD 011115Z AUTO 00000KT 10SM CLR 13/13 A3009 RMK AO2 T01320132", "KCFE 011115Z AUTO 35016G21KT 9SM UP BKN055 OVC070 M04/M09 A2974 RMK AO2", "KCFJ 011115Z AUTO 22016G25KT 10SM CLR 10/00 A2939 RMK AO2 T01020002", "KCFO 011115Z AUTO 20007KT 10SM CLR 03/M11 A3005 RMK AO2 T00261112", "KCFS 011115Z AUTO 24011G19KT 10SM CLR 08/01 A2930 RMK AO2 T00810006", "KCFV 011052Z AUTO 32017G32KT 10SM CLR 06/M05 A3003 RMK AO2 PK WND 32032/1049 SLP169 T00561050", "KCGC 011115Z AUTO 00000KT 10SM CLR A3015 RMK AO2", "KCGE 011105Z AUTO 19011KT 160V230 10SM SCT023 SCT031 17/17 A2972 RMK A01", "KCGF 011045Z 23012G19KT 10SM SCT050 12/05 A2947", "KCGI 011053Z AUTO 23014KT 10SM SCT055 14/02 A2966 RMK AO2 SLP039 T01440022", "KCGS 011110Z AUTO 20008KT 150V240 10SM -RA OVC019 17/15 A2966 RMK AO2 T01750153", "KCGZ 011056Z AUTO 04005KT 10SM CLR 06/M01 A3007 RMK AO2 SLP182 T00561006 PNO $", "KCHA 011053Z 15006KT 10SM SCT060 SCT100 BKN120 BKN250 18/15 A2984 RMK AO2 PK WND 26033/0955 RAE25 TSE25 SLP099 CB DSNT SE-S P0010 T01780150", "KCHK 011115Z AUTO 35008KT 10SM CLR 05/M03 A3012 RMK AO2 T00551026", "KCHO 011053Z 20017G24KT 10SM -RA OVC022 17/13 A2968 RMK AO2 PK WND 21028/1016 RAE14B45 SLP048 P0000 T01670133", "KCHS 011056Z 21011G21KT 10SM FEW011 FEW018 SCT055 21/18 A3006 RMK AO2 SLP179 T02060178", "KCIC 011115Z AUTO 13008KT 10SM FEW040 BKN045 OVC090 09/03 A3019 RMK AO1", "KCID 011116Z 29022G32KT 9SM BR OVC011 01/00 A2943 RMK AO2 PK WND 30032/1116 SNE11 P0000 T00110000", "KCIN 011115Z AUTO 32026G32KT 10SM BKN020 OVC026 00/M01 A2974 RMK AO2", "KCIR 011115Z AUTO 27012G17KT 10SM SCT050 16/02 A2969 RMK AO2 T01610017", "KCIU 011119Z AUTO 06011KT 1/4SM +SN FZFG OVC005 M01/M02 A2935 RMK AO2 CIG 003V008 P0000 FZRANO", "KCJR 011115Z AUTO 20009G17KT 10SM -TSRA OVC021 18/15 A2967 RMK AO2 LTG DSNT E T01760147", "KCKB 011053Z AUTO 18006KT 5SM RA BKN055 OVC075 13/10 A2967 RMK AO2 SLP040 P0007 T01330100 $", "KCKC 011116Z AUTO 34014G21KT 10SM CLR M10/M23 A2967 RMK AO2", "KCKF 011115Z AUTO 22008KT 10SM OVC007 20/18 A3006 RMK AO2 T01990181", "KCKI 011055Z AUTO 21006KT 10SM CLR 19/16 A3003 RMK AO2", "KCKM 011115Z AUTO 21009KT 10SM FEW019 SCT024 BKN060 17/08 A2992 RMK A01", "KCKN 011115Z AUTO 35003KT 10SM CLR M15/M17 A2995 RMK AO2", "KCKP 011115Z AUTO 33015G19KT 10SM BKN048 OVC060 M01/M04 A2981 RMK AO2 T10111045", "KCKV 011052Z AUTO 22012G21KT 10SM CLR 18/04 A2971 RMK AO2 SLP056 T01830039 $", "KCKZ 011115Z AUTO 22008KT 180V250 3SM RA OVC015 15/15 A2961 RMK AO2 LTG DSNT N AND NE AND SW", "KCLE 011051Z 21011KT 10SM OVC140 12/05 A2946 RMK AO2 SLP993 T01170050 $", "KCLI 011115Z AUTO 01011KT 4SM -SN BR BKN009 BKN014 OVC022 00/00 A2934 RMK AO2 T00021004", "KCLK 011115Z AUTO 32007KT 10SM CLR 03/M03 A3017 RMK AO2", "KCLL 011059Z AUTO 00000KT 1/4SM FG VV008 14/13 A3006 RMK AO2 T01390133", "KCLM 011053Z AUTO 26009KT 10SM FEW100 04/01 A2983 RMK AO2 RAB0958E09 SLP102 P0000 T00390006", "KCLS 011115Z AUTO 00000KT 10SM FEW023 SCT032 BKN040 05/05 A2989 RMK AO2", "KCLT 011052Z 20013KT 10SM BKN019 18/14 A2990 RMK AO2 SLP133 T01780144", "KCLW 011115Z AUTO 15003KT 10SM CLR 20/16 A3014 RMK AO2", "KCMA 011055Z AUTO 00000KT 10SM CLR 08/07 A3011 RMK AO2 SLP207 T00830067", "KCMD 011115Z AUTO 21009KT 10SM BKN055 OVC070 16/15 A2994 RMK AO2 LTG DSNT SE AND S", "KCMH 011051Z 18009KT 10SM SCT120 12/11 A2955 RMK AO2 SLP005 T01170106 $", "KCMI 011127Z 27022G33KT 10SM -RA SCT023 BKN042 OVC050 07/03 A2948 RMK AO2 PK WND 29045/1054 RAB1054 P0000 T00670028", "KCMR 011115Z AUTO 15005KT 10SM BKN110 M03/M07 A3018 RMK AO2", "KCMX 011053Z AUTO 03015G30KT 10SM CLR M04/M10 A2958 RMK AO2 PK WND 05030/1046 PRESRR SLP029 T10391100 $", "KCMY 011055Z AUTO 01010G15KT 5SM -RA BR SCT006 OVC014 01/01 A2936 RMK AO2 PRESRR SLP952 P0002 T00060005 FZRANO $", "KCNB 011115Z AUTO 28013G19KT 10SM CLR M07/M10 A2990 RMK AO2 T10661102", "KCNC 011115Z AUTO 30024G33KT 10SM BKN015 OVC020 00/M00 A2965 RMK AO2", "KCNI 011115Z AUTO 19009KT 150V210 7SM -TSRA BKN016 OVC022 18/17 A2990 RMK AO2 LTG DSNT ALQDS P0001 T01810172", "KCNK 011055Z AUTO 30014KT 10SM CLR 01/M07 A3003 RMK AO2 PK WND 31027/1016 SLP172 T00111072", "KCNM 011053Z AUTO 31006KT 10SM CLR 06/M16 A3016 RMK AO2 SLP184 T00561156", "KCNO 011053Z AUTO 04003KT 9SM CLR 08/06 A3012 RMK AO2 SLP198 T00780061", "KCNU 011052Z AUTO 30014G26KT 10SM CLR 03/M06 A3002 RMK AO2 PK WND 30031/1031 SLP164 T00331056 PWINO $", "KCNY 011053Z AUTO 00000KT 10SM CLR 02/M04 A3014 RMK AO2 SLP203 T00221044", "KCOD 011056Z AUTO 22011G18KT 10SM CLR 03/M07 A2987 RMK AO2 SLP126 T00281067", "KCOE 011116Z AUTO 18007KT 10SM -RA FEW008 OVC034 02/01 A2975 RMK AO2 FZRANO PNO $", "KCOF 011055Z AUTO 19005KT 9SM CLR 21/19 A3011 RMK AO2 SLP201 T02120189", "KCOM 011115Z AUTO 00000KT 10SM CLR 08/M05 A3014 RMK AO2 T00831054", "KCON 011108Z AUTO 04005KT 3SM RA BR SCT004 OVC010 01/01 A2968 RMK AO2 RAB1056 PRESFR P0002 T00110011", "KCOQ 011115Z AUTO 36009G15KT 10SM CLR M06/M17 A2972 RMK AO2 TSNO", "KCOS 011054Z 06007KT 10SM CLR 01/M14 A3008 RMK AO2 SLP182 T00061144", "KCOT 011118Z AUTO 05006KT 1 3/4SM BR OVC003 22/21 A3004 RMK AO2 T02220206 $", "KCOU 011054Z AUTO 26023G35KT 10SM CLR 03/M05 A2978 RMK AO2 PK WND 25037/1018 SLP084 T00281050", "KCPC 011110Z AUTO 20014G18KT 7SM BKN021 BKN027 20/17 A3003 RMK AO2 T02010166", "KCPK 011115Z AUTO 20018G25KT 10SM OVC027 19/15 A2987 RMK AO2 LTG DSNT N T01850147", "KCPR 011053Z AUTO 22018KT 10SM CLR M02/M06 A2994 RMK AO2 SLP147 T10171061", "KCPS 011053Z AUTO 29020G34KT 10SM CLR 09/M01 A2964 RMK AO2 PK WND 30045/1039 PRESRR SLP036 T00941006", "KCPT 011115Z AUTO 31007KT 10SM CLR 13/M05 A3008 RMK A01", "KCPW 011115Z AUTO 23008KT 10SM BKN110 M12/M15 A3027 RMK AO2", "KCQB 011115Z AUTO 30008KT 10SM CLR 06/M03 A3013 RMK AO2 T00641032", "KCQC 011053Z AUTO 30017KT 10SM CLR M02/M11 A3019 RMK AO2 SLP205 T10171111", "KCQF 011115Z AUTO 13005KT OVC003 21/21 A3006 RMK AO2 PWINO", "KCQM 011116Z AUTO 01003KT 10SM CLR M08/M18 A2983 RMK AO2", "KCQT 011047Z AUTO 00000KT 10SM CLR 10/08 A3013 RMK AO2 SLP201 T01000078", "KCQW 011115Z AUTO 20010KT 10SM CLR 19/16 A2995 RMK AO2 LTG DSNT SW AND NW", "KCQX 011115Z AUTO 24007KT 1/2SM -RA FG VV002 10/10 A2973 RMK AO2 P0001 T01000100 $", "KCRE 011053Z 21013G20KT 9SM OVC033 18/17 A3003 RMK AO1 SLP171 T01830172", "KCRG 011053Z 21006KT 10SM CLR 20/17 A3012 RMK AO2 SLP199 T02000167", "KCRP 011110Z 16004KT 6SM BR OVC004 23/23 A3001 RMK AO2 T02330228", "KCRQ 011053Z AUTO 00000KT 10SM CLR 08/07 A3009 RMK AO2 SLP190 T00830067", "KCRS 011053Z AUTO 25009KT 10SM CLR 10/04 A3005 RMK AO2 SLP173 T01000039", "KCRW 011054Z 19005KT 6SM -RA BR BKN046 OVC065 12/12 A2971 RMK AO2 SLP058 VLY FG P0008 T01220122", "KCRX 011115Z AUTO 22009KT 10SM CLR 17/10 A2987 RMK AO2", "KCSG 011117Z AUTO 22008KT 10SM OVC014 20/19 A3001 RMK AO2 T02000189", "KCSM 011053Z AUTO 33008KT 10SM CLR 03/M03 A3015 RMK AO2 SLP203 T00331033 $", "KCSQ 011115Z AUTO 32029G40KT 10SM BKN017 OVC021 01/M00 A2973 RMK AO2", "KCSV 011053Z AUTO 25009G18KT 10SM SCT100 14/11 A2983 RMK AO2 SLP088 T01390111", "KCTB 011056Z AUTO 23016G25KT 10SM FEW120 01/M06 A2966 RMK AO2 PK WND 23028/1008 SLP059 T00111056", "KCTJ 011115Z AUTO 20007G15KT 160V250 1 1/2SM +VCTSRA OVC014 18/18 A2996 RMK AO2 LTG DSNT ALQS T01820178", "KCTY 011115Z AUTO 00000KT 10SM SCT034 16/15 A3013 RMK AO2", "KCTZ 011105Z AUTO 20008KT 160V240 10SM BKN023 20/19 A2997 RMK AO2 T01970188", "KCUB 011053Z AUTO 18010G16KT 10SM BKN029 18/16 A3000 RMK AO2 SLP155 T01830156", "KCUH 011115Z AUTO 32008KT 10SM CLR 06/M05 A3012 RMK AO2 T00621050", "KCUL 011120Z AUTO 22015G23KT 10SM CLR 16/01 A2955 RMK AO2", "KCUT 011053Z AUTO 24003KT 10SM CLR M06/M08 A2990 RMK AO2 SLP165 T10611078", "KCVC 011115Z AUTO 00000KT 10SM OVC019 18/17 A2995 RMK AO2 LTG DSNT N AND NW", "KCVG 011052Z 18010KT 10SM CLR 10/09 A2954 RMK AO2 SLP001 T01000094", "KCVH 011115Z AUTO 00000KT 10SM CLR 04/03 A3025 RMK A01", "KCVN 011056Z AUTO 33005KT 10SM CLR M01/M12 A3019 RMK AO2 SLP218 T10061122 FZRANO", "KCVO 011056Z AUTO 18010KT 10SM OVC110 04/03 A2999 RMK AO2 RAE25 SLP158 P0001 T00390028", "KCVS 011055Z AUTO 29010KT 10SM CLR 05/M13 A3016 RMK AO2 SLP190 T00471127 $", "KCVX 011115Z AUTO 10014G18KT 5SM BR BKN012 OVC020 02/00 A2923 RMK AO2 T00190000", "KCWA 011120Z 36007G17KT 1SM -SN OVC009 M01/M02 A2939", "KCWC 011115Z AUTO 01010G17KT 10SM CLR 11/M04 A3014 RMK AO2 T01061036", "KCWF 011100Z 25009KT 7SM OVC009 23/21 A3004", "KCWI 011056Z AUTO 25018G28KT 10SM BKN023 OVC028 01/M01 A2941 RMK AO2 PK WND 25031/1043 RAB10E35 SLP964 P0000 T00111011 FZRANO", "KCWN 011055Z AUTO 30004KT 10SM CLR 01/M15 A3005 RMK AO2 SLP088 T00111146 $", "KCWV 011115Z AUTO 00000KT 10SM OVC028 18/16 A3008 RMK AO2 T01820164", "KCXE 011115Z AUTO 19004KT 10SM OVC023 18/16 A2981 RMK AO1 T01820155", "KCXO 011125Z 00000KT 1/4SM FG VV004 17/17 A3007 RMK AO2 T01720172", "KCXP 011115Z AUTO VRB04KT 10SM CLR 02/M07 A3010 RMK AO2", "KCXU 011115Z AUTO 23006KT 7SM BKN005 BKN010 OVC015 21/19 A3008 RMK AO1 T02050190", "KCXW 011115Z AUTO 25010KT 10SM FEW029 OVC045 15/M00 A2992 RMK A01", "KCXY 011056Z 21013G18KT 10SM -RA BKN019 BKN085 OVC100 17/13 A2957 RMK AO2 PK WND 22026/1022 RAB19 SLP014 P0000 T01670128", "KCYD 011115Z AUTO 24007KT 10SM CLR 24/22 A3010 RMK A02 T02430222", "KCYS 011053Z AUTO 27010KT 10SM CLR 01/M10 A3001 RMK AO2 PK WND 28038/1011 SLP167 T00061100", "KCZL 011115Z AUTO 20008G15KT 7SM RA SCT015 BKN050 OVC085 16/15 A2994 RMK AO2", "KCZT 011115Z AUTO 10SM CLR 18/10 A3005 RMK AO2", "KD07 011056Z AUTO 22011KT M09/M11 A2993 RMK AO1 SLP180 T10941111", "KD25 011115Z AUTO 01013G21KT 7SM OVC014 M05/M07 A2953 RMK AO2 T10471070", "KD39 011115Z AUTO 34014KT 10SM CLR M05/M12 A2981 RMK AO2 T10501122", "KD55 011115Z AUTO 00000KT 10SM CLR M17/M17 A2992 RMK AO2", "KD57 011115Z AUTO 19007KT 10SM SCT037 M13/M16 A2990 RMK AO2", "KD60 011115Z AUTO 18006KT 10SM CLR M09/M09 A2983 RMK AO2", "KD73 011115Z AUTO 33007KT 10SM OVC021 19/18 A2995 RMK AO2 LTG DSNT NW T01900180", "KD95 011115Z AUTO 25009G16KT 10SM CLR 10/M01 A2933 RMK AO2 T00961011", "KDAA 011121Z AUTO 17006KT 10SM BKN024 OVC032 17/15 A2964 RMK AO2 LTG DSNT E-SE RAE06 TSE21 SLP040", "KDAB 011053Z 22003KT 9SM CLR 16/16 A3014 RMK AO2 SLP206 T01610156", "KDAG 011050Z AUTO 26007KT 10SM CLR 08/01 A3012 RMK AO2 SLP189 T00830006", "KDAL 011053Z 32015KT 10SM FEW250 17/M05 A3005 RMK SLPNO T01731052", "KDAN 011053Z AUTO 22015G29KT 10SM BKN020 OVC060 19/14 A2980 RMK AO2 PK WND 21029/1052 SLP083 T01890144", "KDAW 011120Z AUTO 36005KT 1SM -RA BR VV004 02/01 A2968 RMK AO2 RAE1052B14 P0001 T00170011", "KDAY 011056Z 18012KT 10SM CLR 12/09 A2950 RMK AO2 SLP989 T01170094 VISNO RWY 6L $", "KDBN 011040Z AUTO 20004KT 10SM OVC007 18/16 A3007 RMK AO2 LTG DSNT N", "KDBQ 011114Z 24019KT 3SM -SN BR BKN006 OVC011 00/M01 A2934 RMK AO2 CIG 005V009 P0000 T00001006 $", "KDCA 011122Z 21014G22KT 10SM SCT025 BKN031 OVC100 18/16 A2966 RMK AO2 LTG DSNT E-S RAE12 TSE1057B1059 P0001 T01780156", "KDCU 011053Z AUTO 23008G15KT 10SM BKN065 OVC095 19/14 A2989 RMK AO2 SLP115 T01940139", "KDCY 011115Z AUTO 22014G19KT 10SM CLR 14/02 A2950 RMK AO2 T01430021", "KDDC 011052Z AUTO 31012KT 10SM CLR M01/M05 A3012 RMK AO2 SLP199 T10061050", "KDDH 011119Z AUTO VRB03KT 3SM -RA FEW013 BKN021 OVC036 09/06 A2953 RMK AO2 T00890056 PNO $", "KDEC 011054Z 29020G35KT 10SM SCT036 BKN044 BKN075 08/03 A2949 RMK AO2 PK WND 29050/1024 SLP986 T00780033", "KDED 011110Z AUTO 14003KT 10SM CLR 15/14 A3015 RMK AO2 T01540144", "KDEH 011115Z AUTO 34018G24KT 5SM -SN BKN008 OVC013 00/00 A2940 RMK AO2", "KDEN 011053Z 23007KT 10SM FEW100 01/M11 A3004 RMK AO2 SLP157 T00061106", "KDEQ 011053Z AUTO 10SM CLR 06/04 A2998 RMK AO2 SLP147 T00610044", "KDET 011053Z 24014G23KT 10SM CLR 12/02 A2938 RMK AO2 PK WND 23026/0954 SLP948 T01170017", "KDEW 011115Z AUTO 17009KT 4SM -SN BR BKN006 OVC011 02/00 A2974 RMK AO2 RAE09SNB09 P0003 T00170000", "KDFI 011053Z AUTO 22006KT 10SM CLR 10/03 A2941 RMK AO2 SLP960 T01000028", "KDFW 011053Z 33016KT 10SM FEW250 17/M04 A3005 RMK AO2 SLP168 T01671039", "KDGW 011053Z AUTO 27014G20KT 10SM CLR 00/M07 A2996 RMK AO2 SLP163 T00001067", "KDHN 011117Z AUTO 20010KT 9SM BKN010 22/19 A3008 RMK AO2 T02170194", "KDHT 011053Z AUTO 07003KT 10SM CLR 02/M09 A3018 RMK AO2 SLP199 T00221094", "KDIJ 011122Z AUTO 14010KT 1 1/4SM -SN BR BKN018 BKN028 OVC039 M02/M03 A3000 RMK AO2 P0000", "KDIK 011056Z AUTO 19011KT 10SM CLR M08/M11 A2984 RMK AO2 SLP140 T10831111", "KDKK 011053Z AUTO 21013KT 10SM OVC120 15/07 A2938 RMK AO2 SLP949 T01500067", "KDKR 011115Z AUTO 00000KT 1/4SM FG 10/10 A3006 RMK AO2", "KDKX 011115Z AUTO 22006KT 10SM SCT036 BKN070 OVC090 15/13 A2981 RMK A01", "KDLF 011055Z AUTO 33006KT 10SM OVC090 13/01 A3007 RMK AO2 SLP174 T01340007 $", "KDLH 011055Z 36009G17KT 9SM BKN120 M06/M16 A2970 RMK AO2 SNB04E20 SLP080 P0000 T10611156", "KDLL 011115Z AUTO 24006KT 2 1/2SM UP OVC008 01/01 A2933 RMK AO2 T00100010", "KDLN 011053Z AUTO 00000KT 10SM OVC065 M03/M06 A2984 RMK AO2 SLP124 T10281061", "KDLO 011115Z AUTO 00000KT 10SM CLR 05/04 A3021 RMK AO2 T00500035", "KDLP 011115Z AUTO 23009KT 10SM CLR 27/22 A2998 RMK A01", "KDLS 011053Z AUTO 30007KT 10SM OVC050 05/03 A2989 RMK AO2 RAE32 SLP124 P0002 T00500028", "KDLZ 011115Z AUTO 19011KT 10SM CLR 10/08 A2952 RMK AO2 LTG DSNT SE", "KDMA 011055Z AUTO 16006KT 10SM CLR 07/M06 A3007 RMK AO2 SLP205 T00741057 $", "KDMH 011054Z AUTO 18/14 A2965 RMK AO1 SLP039 T01830144", "KDMN 011053Z AUTO 31003KT 10SM CLR M01/M14 A3020 RMK AO2 SLP199 T10111144", "KDMO 011053Z AUTO 27014G27KT 10SM BKN036 02/M05 A2985 RMK AO2 PK WND 26032/0956 SLP109 T00221050", "KDMW 011105Z AUTO 20016G27KT 7SM TSRA BKN019 OVC100 17/15 A2960 RMK AO2 LTG DSNT NE THRU S", "KDNA 011115Z AUTO 00000KT 10SM CLR 08/M18 A3019 RMK AO2", "KDNL 011053Z AUTO 20011KT 10SM CLR 18/16 A2999 RMK AO2 SLP152 T01780156", "KDNN 011115Z AUTO 20003KT 4SM -RA BR SCT030 SCT038 BKN070 OVC095 19/17 A2989 RMK AO2 LTG DSNT NE - SW P0000 T01890174", "KDNV 011115Z AUTO 27029G40KT 10SM SCT090 11/04 A2942 RMK AO2 T01100036", "KDOV 011055Z AUTO 20020G28KT 10SM BKN016 17/17 A2966 RMK AO2 PK WND 20031/18 SLP047 T01730173", "KDPA 011125Z 24010KT 10SM FEW009 SCT028 OVC035 03/01 A2938 RMK AO2 RAE22 P0000 T00280006 $", "KDPL 011105Z AUTO 21008KT 170V230 7SM HZ SCT022 19/17 A2998 RMK AO2", "KDQH 011115Z AUTO 21007KT 10SM OVC015 19/15 A3010 RMK AO2 T01860151", "KDRA 011053Z AUTO 00000KT 10SM CLR 03/M07 A3012 RMK AO2 SLP185 T00331067", "KDRI 011115Z AUTO 26003KT 6SM BR CLR 21/21 A3006 RMK AO2 T02110211 $", "KDRM 011115Z AUTO 04005KT 1 1/2SM -SN OVC007 01/00 A2928 RMK AO2 T00060000 P0007", "KDRO 011053Z AUTO 06003KT 10SM CLR M07/M09 A3025 RMK AO2 SLP263 T10671089", "KDRT 011053Z AUTO 00000KT 10SM FEW095 13/04 A3009 RMK AO2 SLP181 T01330039", "KDSF 011120Z AUTO 18007KT 3SM BR CLR 23/22 A3008 RMK A01", "KDSM 011054Z 31021G35KT 9SM -SN OVC016 01/M02 A2964 RMK AO2 PK WND 30039/1017 SLP042 P0000 T00061017 $", "KDSV 011054Z AUTO 13006KT 10SM CLR 14/09 A2938 RMK AO2 RAE0955 SLP958 P0000 T01390089", "KDTA 011115Z AUTO 17014KT 10SM CLR 00/M03 A3013 RMK AO1", "KDTL 011115Z AUTO 31009KT 10SM SCT045 BKN060 M11/M16 A2988 RMK AO2", "KDTN 011053Z AUTO 25005KT 10SM CLR 16/10 A3001 RMK AO2 SLP159 T01560100", "KDTO 011053Z 34008KT 10SM BKN038 12/M02 A3008 RMK AO2 SLP180 T01221017", "KDTS 011105Z 21005KT 6SM BR SCT005 BKN025 OVC045 22/21 A3007 RMK AO2 T02220211", "KDTW 011053Z 22011KT 10SM CLR 09/04 A2939 RMK AO2 SLP954 T00940039 $", "KDUA 011115Z AUTO 34006KT 10SM CLR 12/M03 A3008 RMK AO2", "KDUB 011121Z AUTO 32015G19KT 10SM SCT050 M04/M09 A2991 RMK AO2", "KDUC 011110Z AUTO 36014G19KT 10SM CLR 10/M03 A3013 RMK AO2 T01051031", "KDUG 011056Z AUTO 09004KT 10SM CLR 01/M13 A3014 RMK AO2 SLP179 T00061133 TSNO", "KDUH 011115Z AUTO 20006KT 10SM CLR 10/06 A2941 RMK AO2 T01000055", "KDUJ 011053Z AUTO 24008KT 10SM -RA FEW055 OVC080 12/09 A2951 RMK AO2 PK WND 25035/0956 RAB0958E07B16 PRESFR SLP991 P0004 T01220094 $", "KDUX 011115Z AUTO 13004KT 10SM CLR 00/M10 A3019 RMK AO2 T10011104", "KDVK 011110Z AUTO 23009G15KT 10SM CLR 15/12 A2969 RMK AO2", "KDVL 011056Z AUTO 00000KT 10SM CLR M16/M19 A2995 RMK AO2 SLP187 T11561194 FZRANO", "KDVN 011109Z AUTO 24021G32KT 10SM OVC014 02/M01 A2944 RMK AO2 PK WND 25032/1054 T00171011", "KDVO 011115Z AUTO 35004KT 10SM FEW003 06/06 A3023 RMK AO2", "KDVP 011113Z AUTO 32017G22KT 10SM CLR M06/M09 A2981 RMK AO2 T10651092", "KDVT 011053Z AUTO 00000KT 10SM CLR 11/00 A3006 RMK AO2 SLP168 T01060000", "KDWA 011115Z AUTO 22005KT 10SM SCT042 SCT060 BKN070 07/04 A3022 RMK AO2", "KDWH 011123Z AUTO 00000KT 1/4SM FG OVC021 19/19 A3005 RMK AO2 T01940194", "KDWU 011056Z AUTO 00000KT 10SM SCT100 12/12 A2966 RMK AO2 RAE11 SLP044 P0000 T01220122", "KDWX 011115Z AUTO 16013KT 10SM BKN055 M01/M05 A3014 RMK AO2 T10061055", "KDXR 011053Z 17005KT 7SM -RA FEW017 BKN027 OVC090 11/09 A2963 RMK AO2 RAB24 SLP032 P0001 T01110089", "KDXX 011115Z AUTO 32017G21KT CLR M07/M11 A2991 RMK AO2 PWINO", "KDYB 011115Z AUTO 20005G10KT 8SM SCT050 SCT060 20/19 A3005 RMK AO2", "KDYL 011054Z AUTO 20007KT 10SM -RA OVC017 16/13 A2961 RMK AO2 LTG DSNT NW RAB24 SLP025 P0000 T01560128", "KDYR 011056Z AUTO 24019G25KT 10SM CLR 18/03 A2978 RMK AO2 PK WND 23027/1028 SLP088 T01780033", "KDYS 011055Z AUTO 26008KT 10SM CLR 08/M10 A3011 RMK AO2 SLP175 T00841105", "KDYT 011115Z AUTO 36018G24KT 10SM FEW038 FEW043 BKN060 M03/M12 A2974 RMK AO2", "KDZB 011115Z AUTO 19003KT 10SM CLR 06/02 A3012 RMK AO2 T00630022", "KDZJ 011115Z AUTO 23007KT 190V300 10SM -VCTSRA SCT023 BKN033 OVC120 18/16 A2989 RMK AO2 LTG DSNT E THRU S P0004 T01760164", "KE11 011115Z AUTO 34008KT 10SM CLR 05/M15 A3018 RMK AO2 T00521146", "KE16 011115Z AUTO 00000KT 10SM OVC035 05/04 A3025 RMK AO2", "KE38 011115Z AUTO 23005KT 10SM CLR 05/M09 A3026 RMK AO2 T00461093", "KE41 011115Z AUTO 00000KT 10SM CLR 06/M14 A3017 RMK AO2 T00631139", "KE42 011115Z AUTO 22006KT 10SM CLR M02/M08 A3018 RMK AO2 T10221079", "KEAN 011110Z AUTO 30008G19KT 10SM CLR 03/M07 A3000 RMK AO2 T00261075", "KEAR 011056Z AUTO 30012KT 10SM CLR M03/M09 A3005 RMK AO2 SLP190 T10281089 FZRANO", "KEAT 011055Z AUTO 04004KT 10SM CLR 04/02 A2970 RMK AO2 RAE0956 SLP063 P0000 T00390017", "KEAU 011111Z 01012G23KT 1 1/4SM -SN BR BKN012 OVC018 M01/M03 A2952 RMK AO2 PRESRR P0000 T10111033", "KEBA 011115Z AUTO 21008G15KT 10SM OVC024 19/16 A2995 RMK AO2 T01910163", "KEBG 011115Z AUTO 10003KT 3SM BR OVC007 23/22 A2999 RMK AO2 T02250220", "KEBS 011115Z AUTO 33031G38KT 10SM -DZ OVC015 M00/M01 A2963 RMK AO2", "KECG 011054Z 20016G24KT 10SM CLR 19/15 A2992 RMK AO2 SLP130 T01890150", "KECP 011053Z AUTO 19010KT 9SM OVC006 23/21 A3007 RMK AO1 RAB33E47 CIG 006V012 SLP192 P0000 T02280211", "KECS 011115Z AUTO 00000KT 10SM CLR M07/M07 A2995 RMK AO2", "KECU 011115Z AUTO 07004KT 10SM FEW090 13/M11 A3019 RMK AO2", "KEDC 011055Z AUTO 30003KT 10SM OVC041 14/02 A3008 RMK AO2", "KEDE 011110Z AUTO 25016G22KT 210V330 10SM BKN027 20/18 A2993 RMK AO2 T01980180", "KEDJ 011115Z AUTO 18013KT 10SM SCT060 BKN070 10/10 A2948 RMK A01", "KEDN 011115Z AUTO 22003KT 7SM OVC006 20/20 A3005 RMK AO2 T02010201 PWINO", "KEDU 011115Z AUTO 00000KT 10SM CLR 05/04 A3022 RMK AO1", "KEDW 011055Z AUTO 02003KT 10SM CLR 05/02 A3011 RMK AO2 SLP193 T00460023", "KEED 011056Z AUTO 23005KT 10SM CLR 09/M04 A3009 RMK AO2 SLP176 T00891039", "KEEN 011124Z AUTO 00000KT 1SM UP BR FEW004 BKN012 OVC020 02/02 A2965 RMK AO2 VIS 1/2V2 RAE04UPB04 P0008 FZRANO $", "KEEO 011053Z AUTO 05005KT 10SM FEW060 M03/M06 A3015 RMK AO2 SLP218 T10331061", "KEET 011054Z AUTO 22008G18KT 10SM 22/19 A2994 RMK AO2 LTG DSNT NW RAE24 SLP132 P0000 T02170194 $", "KEFD 011054Z 00000KT 3SM BR BKN016 OVC035 20/20 A3002", "KEFK 011115Z AUTO 15010KT 4SM UP OVC012 01/00 A2957 RMK AO2 T00130003", "KEFT 011115Z AUTO 25017KT 10SM OVC019 01/M02 A2934 RMK AO2 T00091025", "KEGE 011056Z AUTO 07006KT 10SM BKN050 OVC070 M02/M04 A3020 RMK AO2 SLP131 T10171039 FZRANO PNO $", "KEGI 011120Z AUTO 21007KT 10SM FEW008 SCT013 SCT024 BKN041 BKN190 22/21 A3007 RMK AO2 RAB11E20 SLP182 TSNO $", "KEGT 011115Z AUTO 33015KT 10SM CLR 03/M06 A3010 RMK AO2 T00261057", "KEGV 011115Z AUTO 01012G21KT OVC006 M05/M05 A2947 RMK AO2 T10481055 PWINO", "KEHA 011115Z AUTO 27005KT 10SM CLR 00/M10 A3018 RMK AO2 T10021097", "KEHO 011115Z AUTO 20011G17KT 10SM OVC022 18/15 A2987 RMK AO2 T01780150", "KEHR 011056Z AUTO 22014KT 10SM CLR 15/03 A2959 RMK AO2 SLP017 T01500033", "KEIK 011115Z AUTO 26008KT 10SM CLR 05/M12 A3004 RMK AO2 T00491121", "KEKE 011115Z AUTO 17011KT 5SM BR CLR 23/22 A3000 RMK A01", "KEKM 011115Z 00000KT 10SM SCT120 SCT180 06/05 A2934 RMK AO2 T00570052", "KEKN 011051Z AUTO 30016G36KT 6SM RA SCT019 BKN050 OVC070 12/09 A2971 RMK AO2 PK WND 31037/1033 SLP064 P0036 T01220089", "KEKO 011056Z AUTO 00000KT 10SM CLR M02/M06 A3004 RMK AO2 SLP174 T10171056", "KEKQ 011056Z AUTO 22009KT 10SM FEW120 16/13 A2977 RMK AO2 SLP073 P0003 T01610128", "KEKS 011115Z AUTO 18017KT 10SM OVC065 00/M05 A2988 RMK AO2", "KEKX 011115Z AUTO 21014G17KT 10SM BKN055 15/11 A2964 RMK AO2 T01500106", "KEKY 011128Z AUTO 32012G24KT 9SM VCTS -RA FEW013 BKN019 OVC026 18/17 A2998 RMK AO2 LTG DSNT N AND NE TSB17RAB08 P0001", "KELA 011115Z AUTO 36003KT 3/4SM BR BKN003 BKN010 OVC016 21/21 A3006 RMK AO2 T02110206", "KELD 011053Z AUTO 21005KT 10SM CLR 14/12 A2998 RMK AO2 SLP148 T01390122", "KELK 011115Z AUTO 33010KT 10SM CLR 04/M04 A3016 RMK AO2 SLP493 T00441039 $", "KELM 011123Z 24009G20KT 10SM SCT019 SCT032 OVC060 13/11 A2947 RMK AO2 RAB02E18 P0000 T01280106 $", "KELN 011053Z AUTO 30014KT 10SM FEW036 OVC047 04/00 A2973 RMK AO2 RAB12E34 SLP072 P0000 T00390000", "KELO 011115Z AUTO 36006KT 10SM CLR M09/M19 A2979 RMK AO2", "KELP 011051Z 02003KT 10SM CLR 07/M18 A3016 RMK AO2 SLP173 T00721178", "KELY 011053Z AUTO 21013KT 10SM CLR M01/M09 A3010 RMK AO2 SLP182 T10111089 $", "KELZ 011056Z AUTO 24010G21KT 10SM -RA OVC065 13/08 A2949 RMK AO2 RAE12B28 PRESRR SLP990 P0003 T01280083", "KEMM 011115Z AUTO 24006KT 10SM CLR M06/M09 A3004 RMK AO2 TSNO", "KEMP 011053Z AUTO 30017G30KT 10SM CLR 02/M06 A3000 RMK AO2 PK WND 28037/1004 SLP161 T00221056", "KEMV 011115Z AUTO 16011G19KT 10SM BKN025 19/15 A2983 RMK AO2 LTG DSNT N T01900152", "KEND 011055Z AUTO 32012KT 10SM CLR 01/M05 A3010 RMK AO2 SLP194 T00101053", "KENL 011115Z AUTO 30025G33KT 10SM CLR 14/03 A2958 RMK AO2 T01360026", "KENV 011056Z AUTO 05003KT 10SM CLR 01/M06 A3005 RMK AO2 SLP183 T00061061 FZRANO PNO $", "KENW 011053Z AUTO 26015KT 10SM FEW095 BKN120 04/M02 A2933 RMK AO2 SLP932 T00391017", "KEOE 011055Z AUTO 21010G17KT 10SM CLR 17/17 A2997 RMK AO2", "KEOK 011115Z AUTO 25020G30KT 10SM OVC028 03/M02 A2958 RMK A01", "KEPH 011053Z AUTO 18009KT 10SM OVC070 04/02 A2972 RMK AO2 SLP069 T00440022", "KEQA 011115Z AUTO 31016G22KT 10SM CLR 03/M05 A3008 RMK AO2", "KEQY 011053Z AUTO 21013G23KT 10SM BKN022 18/14 A2991 RMK AO2 SLP131 T01830144", "KERI 011051Z 21016G22KT 10SM CLR 13/07 A2942 RMK AO2 SLP961 T01330072", "KERV 011115Z AUTO 00000KT 10SM CLR 08/00 A3014 RMK AO2 T00760004", "KERY 011115Z AUTO 03013G22KT 1/2SM +SN OVC004 M01/M02 A2935 RMK AO2 T10151020 P0001", "KESC 011121Z AUTO 36012G21KT 320V020 1SM -SN BR OVC004 M01/M01 A2930 RMK AO2 P0000 FZRANO", "KESF 011111Z AUTO 00000KT 4SM BR SCT016 BKN024 BKN065 22/21 A3002 RMK AO2 T02170211", "KESN 011050Z 21014G23KT 10SM SCT026 SCT032 18/16 A2973", "KEST 011052Z AUTO 33027G40KT 6SM UP OVC060 M01/M05 A2970 RMK AO2 PK WND 33040/1044 PRESRR SLP071 T10111050 PNO $", "KETB 011115Z AUTO 26009G15KT 10SM OVC024 02/00 A2929 RMK AO2", "KETC 011100Z AUTO 20015G22KT 170V230 7SM HZ OVC024 20/16 A2990 RMK AO2 T01980158", "KETN 011110Z AUTO 33003KT 10SM CLR 03/M04 A3013 RMK AO2 T00281039", "KEUF 011058Z AUTO 19005KT 10SM OVC018 22/19 A3004 RMK AO2 SLP167 T02170194", "KEUG 011054Z AUTO 19008KT 10SM -RA FEW027 OVC036 04/03 A3000 RMK AO2 SLP162 P0008 T00440028", "KEUL 011056Z AUTO 30005KT 10SM -RA BKN030 OVC036 06/02 A2999 RMK AO2 RAB0957 SLP157 P0000 T00610022", "KEVB 011047Z 22004KT 10SM SCT030 17/201 A3014 RMK FIRST", "KEVM 011123Z AUTO 01006G14KT 10SM CLR M07/M17 A2979 RMK AO2", "KEVU 011115Z AUTO 31022G28KT 10SM BKN019 BKN024 OVC032 01/M01 A2983 RMK AO2 T00151016", "KEVV 011054Z 21013KT 10SM CLR 16/03 A2956 RMK AO2 SLP008 T01560028 $", "KEVW 011053Z AUTO 22009KT 10SM CLR M06/M09 A3006 RMK AO2 SLP198 T10611094", "KEWB 011053Z 21010KT 1 3/4SM -RA BR OVC003 08/08 A2970 RMK AO2 RAB53 CIG 003V006 SLP055 P0000 T00830083", "KEWK 011056Z AUTO 31015G23KT 10SM CLR 02/M06 A3007 RMK AO2 SLP184 T00171056 FZRANO", "KEWN 011054Z 21013G23KT 10SM BKN036 20/16 A3000 RMK AO2 SLP160 T02000161", "KEWR 011051Z 18007KT 10SM -RA OVC018 16/12 A2963 RMK AO2 SLP032 P0000 T01610122", "KEXX 011110Z AUTO 20017G22KT 10SM OVC020 18/15 A2985 RMK AO2 T01810147", "KEYE 011053Z AUTO 17006KT 10SM CLR 11/08 A2941 RMK AO2 SLP958 T01110078 $", "KEYF 011110Z AUTO 21017G28KT 10SM OVC019 20/17 A2999 RMK AO2 LTG DSNT NE T02010168", "KEYW 011118Z 12013KT 10SM SCT021 BKN029 26/22 A3012 RMK AO2 T02560222 $", "KEZF 011115Z AUTO 21013G18KT 10SM OVC028 19/15 A2968 RMK AO2 T01860150", "KEZM 011115Z AUTO 23004KT 10SM OVC007 17/17 A3008 RMK AO2", "KEZP 011125Z AUTO 21011KT 6SM BR CLR 23/23 A3005 RMK A01", "KEZZ 011115Z AUTO 30022G31KT 10SM OVC027 02/M04 A2985 RMK AO2 T00171038", "KF00 011115Z AUTO 35005KT 10SM CLR 14/M02 A3008 RMK AO2 T01391023", "KF05 011120Z AUTO 10SM CLR 09/M03 A3015 RMK AO2 T00901035", "KF17 011104Z AUTO 00000KT 1SM BR BKN014 13/13 A3005 RMK AO2", "KF44 011115Z AUTO 00000KT 10SM CLR 07/07 A3004 RMK AO2", "KF46 011115Z AUTO 35011KT 10SM SCT032 16/M03 A3006 RMK AO2 T01601027", "KF70 011115Z AUTO 00000KT 10SM CLR 05/05 A3011 RMK AO2", "KFAF 011055Z AUTO 21016G25KT 10SM SCT026 BKN190 19/16 A2980 RMK AO2 SLP095 T01880155 $", "KFAM 011056Z AUTO 26017G28KT 10SM CLR 13/M02 A2967 RMK AO2 PK WND 28033/1019 SLP054 T01331022", "KFAR 011053Z 34012KT 10SM CLR M11/M15 A2993 RMK AO2 SLP151 T11061150", "KFAT 011053Z 30004KT 10SM FEW200 08/06 A3020 RMK AO2 SLP225 T00780061", "KFAY 011053Z 20018G28KT 10SM BKN017 19/17 A2994 RMK AO2 PK WND 20030/1027 SLP133 T01940167 $", "KFBG 011055Z AUTO 21011G18KT 10SM OVC016 19/17 A2992 RMK AO2 SLP133 T01930171 $", "KFBL 011115Z AUTO 32009KT 5SM -SN BKN041 OVC048 M02/M03 A2965 RMK AO2", "KFCI 011110Z AUTO 19009G18KT 150V220 10SM BKN025 BKN120 18/16 A2976 RMK AO2", "KFCM 011053Z 35017G25KT 10SM FEW075 M04/M07 A2965 RMK AO2 PK WND 35032/1017 PRESRR SLP050 T10391067 $", "KFCS 011055Z AUTO 02003KT 10SM CLR M03/M16 A3006 RMK AO2 SLP206 T10281158 $", "KFDK 011047Z 21014G25KT 7SM -RA SCT024 SCT060 OVC110 17/16 A2960", "KFDR 011053Z AUTO 01014KT 10SM CLR 08/M02 A3010 RMK AO2 SLP182 T00831022", "KFDW 011115Z AUTO 19013G19KT 10SM OVC016 17/15 A2996 RMK AO1", "KFDY 011053Z AUTO 19010KT 10SM CLR 11/08 A2944 RMK AO2 SLP965 T01060083 $", "KFEP 011115Z AUTO 26014G22KT 10SM OVC024 02/00 A2940 RMK AO2 T00171001", "KFET 011115Z AUTO 30019G22KT 10SM CLR M02/M06 A2993 RMK AO2 T10161056", "KFEW 011055Z AUTO M 10SM M M02/ A3002 RMK AO2 SLPNO RVRNO $", "KFFA 011110Z AUTO 20007G15KT 150V250 10SM CLR 18/15 A2994 RMK AO2 T01820148", "KFFC 011053Z AUTO 23007G16KT 180V270 10SM SCT017 BKN023 OVC031 21/17 A2996 RMK AO2 SLP140 T02060172", "KFFL 011115Z AUTO 27020G32KT 10SM SCT018 BKN023 OVC039 02/M00 A2955 RMK A01", "KFFM 011115Z AUTO 35008KT 10SM CLR M11/M14 A2988 RMK AO2", "KFFO 011055Z 18010KT 10SM FEW120 11/09 A2949 RMK AO2A SLP988 T01080094", "KFFT 011053Z AUTO 20006KT 10SM OVC046 13/05 A2961 RMK AO2 SLP022 T01280050", "KFFX 011115Z AUTO 23011G15KT 10SM OVC095 04/00 A2931 RMK AO2 T00430000", "KFFZ 011054Z AUTO 01004KT 10SM CLR 11/01 A3006 RMK AO2 SLP164 T01110011", "KFGN 011115Z AUTO 01003KT 10SM CLR M11/M19 A2993 RMK AO2", "KFGX 011115Z AUTO 20009KT 10SM CLR 11/09 A2963 RMK AO2 T01050087", "KFHB 011115Z AUTO 20009KT 10SM CLR 19/ A3012 RMK AO2", "KFHR 011053Z AUTO VRB04KT 10SM SCT100 04/01 A2982 RMK AO2 SLP098 T00440006", "KFHU 011055Z AUTO 00000KT 10SM CLR 05/M09 A3015 RMK AO2 SLP184 T00511088", "KFIG 011054Z AUTO 27015G26KT 10SM -RA FEW013 SCT041 OVC070 11/08 A2953 RMK AO2 PK WND 25026/1054 RAE08B25 SLP002 P0002 T01110083", "KFIN 011115Z AUTO 19003KT 10SM CLR 17/17 A3014 RMK AO2 T01680166", "KFIT 011118Z AUTO 33003KT 5SM -RA BR OVC005 02/00 A2968 RMK AO2 P0001 T00220000", "KFKA 011115Z AUTO 35022G28KT 3SM VCTS BR OVC012 M01/M02 A2947 RMK AO2 T10081020", "KFKL 011056Z AUTO 23010KT 10SM OVC110 12/08 A2950 RMK AO2 RAE07 SLP992 P0000 T01170083", "KFKN 011115Z AUTO 20011G19KT 10SM OVC026 19/15 A2986 RMK AO2 LTG DSNT N T01900149", "KFKR 011115Z AUTO 20011G16KT 10SM 10/07 A2936 RMK AO2 LTG DSNT E AND NW", "KFKS 011056Z AUTO 18010G20KT 10SM OVC021 04/03 A2920 RMK AO2", "KFLD 011120Z AUTO 34005KT 3SM -RA BR BKN005 OVC013 02/01 A2931 RMK AO2 UPE02RAB02 P0004 T00170006", "KFLG 011057Z AUTO 00000KT 10SM CLR M06/M09 A3019 RMK AO2 SLP208 T10611089", "KFLL 011121Z 15007KT 10SM FEW038 SCT048 BKN060 24/21 A3013 RMK AO2 RAE1054 P0000 T02440211", "KFLO 011053Z 20/17 A2999 RMK AO2 SLP153 T02000167 $", "KFLP 011056Z AUTO 30011G17KT 10SM CLR 13/M01 A2990 RMK AO2 PK WND 27026/0959 SLP120 T01331011", "KFLY 011115Z AUTO 00000KT 10SM CLR M02/M14 A3009 RMK AO2 T10181145", "KFME 011109Z AUTO 23012G17KT 7SM OVC017 16/15 A2968 RMK AO1", "KFMH 011055Z 23014G24KT 1 3/4SM BR OVC004 10/10 A2971", "KFMM 011115Z AUTO 26005G10KT 10SM CLR 01/M07 A3006 RMK AO2", "KFMN 011053Z AUTO 07007KT 10SM CLR M03/M09 A3024 RMK AO2 SLP243 T10331094", "KFMY 011053Z 12004KT 10SM CLR 19/17 A3013 RMK AO2 SLP204 T01940172", "KFNB 011114Z AUTO 30018G29KT 10SM SCT027 BKN046 02/M04 A2991 RMK AO2 PK WND 30030/1101 T00171039", "KFNL 011056Z 22005KT 10SM CLR 03/M09 A3003 RMK AO2 SLP163 T00331094", "KFNT 011053Z 25012G19KT 10SM CLR 09/00 A2933 RMK AO2 PK WND 24026/1037 SLP934 T00890000 $", "KFOA 011115Z AUTO 26021G35KT 10SM CLR 15/00 A2953 RMK AO2", "KFOD 011114Z AUTO 33015G27KT 10SM SCT015 OVC023 00/M03 A2968 RMK AO2 PK WND 34031/1058 PRESRR FZRANO", "KFOE 011053Z 30020G33KT 10SM FEW035 02/M04 A2995 RMK AO2 PK WND 30034/1015 SLP144 T00171044 $", "KFOK 011053Z 22009G18KT 1/2SM FG VV002 09/09 A2971 RMK AO2 SLP060 T00940094", "KFOZ 011113Z AUTO 36005KT 10SM CLR M07/M17 A2990 RMK AO2", "KFPK 011115Z AUTO 23006KT 10SM SCT065 07/00 A2936 RMK AO2 T00680002", "KFPR 011053Z 00000KT 8SM FEW023 18/17 A3015 RMK AO2 SLP208 T01780172", "KFPY 011115Z AUTO 16003KT 10SM BKN050 18/17 A3012 RMK AO2 T01780171", "KFQD 011110Z AUTO 21008G18KT 180V240 10SM OVC022 18/15 A2986 RMK AO2 LTG DSNT W", "KFRG 011112Z 21013G19KT 1SM BR OVC002 11/11 A2966 RMK AO2 SFC VIS 2 1/2 T01110106", "KFRH 011115Z AUTO 23009G15KT 10SM BKN055 13/02 A2953 RMK AO1", "KFRI 011055Z AUTO 27012G22KT 10SM CLR 02/M06 A3003 RMK AO2 SLP169 T00181058 $", "KFRM 011056Z AUTO 33025G29KT 7SM -SN FEW032 OVC045 M01/M03 A2969 RMK AO2 PK WND 33032/1032 PRESRR SLP068 P0000 T10111033 FZRANO", "KFSD 011056Z 32015G23KT 10SM FEW060 SCT240 M04/M10 A2987 RMK AO2 PK WND 33027/1014 SLP134 T10441100 $", "KFSE 011115Z AUTO 01005KT 10SM CLR M13/M18 A2990 RMK AO2", "KFSI 011055Z AUTO 02011KT 10SM CLR 09/M02 A3009 RMK AO2 SLP186 T00861024 FZRANO $", "KFSK 011115Z AUTO 28013G20KT 10SM CLR 02/M06 A3000 RMK AO2 T00241056", "KFSM 011053Z 29014KT 10SM CLR 14/M02 A3000 RMK AO2 SLP153 T01441017", "KFSO 011115Z AUTO 12005KT 4SM UP OVC017 04/03 A2950 RMK AO2 T00360030", "KFST 011053Z AUTO 18007KT 10SM CLR 09/M14 A3017 RMK AO2 SLP184 T00891139", "KFSW 011115Z AUTO 25015G20KT 10SM 03/M02 A2955 RMK AO2", "KFTK 011055Z AUTO 19010KT 10SM CLR 15/09 A2959 RMK AO2 SLP020 T01490086", "KFTN 011115Z AUTO 04008G14KT 10SM SCT047 OVC065 22/19 A3005 RMK A01", "KFTW 011053Z 32016KT 10SM CLR 15/M04 A3006 RMK AO2 SLP174 T01501044", "KFTY 011101Z 19010G17KT 10SM VCTS -RA BKN022 OVC032 20/17 A2991 RMK AO2 LTG DSNT W-NE P0000 T02000172", "KFUL 011053Z AUTO 00000KT 10SM CLR 11/07 A3011 RMK AO2 SLP195 T01060072", "KFVE 011116Z AUTO 14012KT 10SM OVC009 M02/M04 A2976 RMK AO2 T10171044", "KFVX 011115Z AUTO 20012G22KT 10SM OVC025 18/15 A2973 RMK AO2 LTG DSNT E AND NW T01810150", "KFWA 011054Z 16005KT 10SM FEW050 FEW065 08/05 A2940 RMK AO2 SLP954 T00780050", "KFWB 011115Z AUTO 30011G16KT 10SM CLR 06/M03 A2996 RMK AO2", "KFWC 011115Z AUTO 23015G21KT 10SM CLR 14/00 A2952 RMK AO1 T01421001", "KFWN 011119Z AUTO 20003KT 1 3/4SM RA BR OVC015 07/07 A2960 RMK AO2 LTG DSNT SW P0003 T00720067", "KFWS 011115Z AUTO 31013G18KT 10SM CLR 15/M05 A3010 RMK AO2 T01501054", "KFXE 011053Z 14005KT 10SM CLR 25/21 A3014 RMK AO2 SLP207 T02500211", "KFXY 011115Z AUTO 33023G35KT 10SM OVC012 M01/M02 A2962 RMK AO2", "KFYE 011115Z AUTO 21009KT 10SM SCT060 SCT070 16/06 A2984 RMK A01", "KFYG 011115Z AUTO 23019G30KT 200V270 10SM CLR 05/M05 A2974 RMK AO2", "KFYJ 011115Z AUTO 21014G21KT 10SM SCT120 19/15 A2977 RMK AO1 T01870153", "KFYM 011115Z AUTO 23009G14KT 10SM BKN075 17/16 A2989 RMK A01", "KFYV 011053Z 31011G20KT 10SM CLR 10/M04 A3000 RMK AO2 PK WND 29028/0956 SLP153 T01001044", "KFZG 011115Z AUTO 22006KT 4SM OVC004 19/17 A3009 RMK AO2 T01850173", "KFZY 011054Z AUTO VRB05KT FEW043 SCT055 08/08 A2935 RMK AO2 SLP941 T00830078 $", "KGAD 011119Z AUTO 22005KT 10SM -RA BKN065 BKN080 OVC095 14/14 A2995 RMK AO2 LTG DSNT E-SW TSE13 PNO $", "KGAF 011115Z AUTO 31007KT 10SM CLR M13/M16 A2997 RMK AO2", "KGAG 011053Z AUTO 31005KT 10SM CLR 02/M05 A3015 RMK AO2 SLP202 T00171050", "KGAI 011123Z AUTO 21013G21KT 10SM OVC020 17/14 A2963 RMK AO2 LTG DSNT SE TSB1057E12", "KGAO 011115Z AUTO 24003KT 7SM CLR 22/21 A3006 RMK AO2 T02240209", "KGBD 011056Z AUTO 30010KT 10SM CLR 00/M06 A3011 RMK AO2 SLP198 T00001056 FZRANO", "KGBG 011115Z AUTO 24016G22KT 10SM OVC027 02/00 A2950 RMK AO2 T00201005 TSNO", "KGCC 011053Z AUTO 22012KT 10SM CLR M02/M07 A2989 RMK AO2 SLP150 T10171072", "KGCD 011115Z AUTO 18017G27KT 10SM BKN060 OVC070 02/00 A2984 RMK AO2 T00231001", "KGCK 011054Z AUTO 28005KT 10SM CLR M03/M06 A3013 RMK AO2 SLP206 T10331056", "KGCM 011115Z AUTO 32010G18KT 10SM BKN070 08/M04 A3008 RMK AO2", "KGCN 011054Z AUTO 00000KT 10SM CLR M06/M08 A3019 RMK AO2 SLP215 T10561083", "KGCY 011115Z AUTO 21009G15KT 3SM BR BKN004 OVC007 15/15 A2984 RMK A01", "KGDA 011115Z AUTO 24015G23KT 10SM BKN060 17/M02 A2964 RMK AO2 T01691025 PWINO", "KGDB 011115Z AUTO 30011KT 5SM HZ CLR M06/M09 A2987 RMK AO2 T10591089", "KGDJ 011115Z AUTO 34003KT 10SM CLR 08/01 A3009 RMK AO2 T00780013", "KGDV 011056Z AUTO 18009KT 10SM SCT075 BKN090 M03/M04 A2982 RMK AO2 SLP124 T10281039 FZRANO TSNO", "KGED 011054Z AUTO 21018G31KT 10SM -RA BKN020 19/16 A2972 RMK AO2 PK WND 20031/1038 RAE21B28 SLP062 P0000 T01890156", "KGEG 011114Z 18011KT 2SM -SN BR FEW004 BKN013 OVC018 01/00 A2972 RMK AO2 P0001 T00060000", "KGEV 011110Z AUTO 16009G18KT 120V190 2 1/2SM +RA BKN009 BKN017 OVC050 13/12 A2981 RMK AO2 LTG DSNT NE AND SW P0005 T012501", "KGEY 011053Z AUTO 00000KT 10SM BKN100 BKN120 M02/M04 A2991 RMK AO2 SLP152 T10221039", "KGEZ 011053Z AUTO 18015KT 10SM CLR 12/08 A2945 RMK AO2 SLP969 T01220078", "KGFA 011055Z AUTO 21008KT 10SM OVC100 02/M03 A2973 RMK AO2 SLP086 T00221031 $", "KGFK 011053Z 33006KT 10SM CLR M13/M17 A2994 RMK AO2 SLP156 T11331167", "KGFL 011126Z AUTO 29003KT 2 1/2SM -RA BR OVC007 02/01 A2953 RMK AO2 CIG 004V011 P0005 T00220011", "KGGE 011115Z AUTO 22013G18KT 10SM OVC019 20/18 A3006 RMK AO2", "KGGF 011115Z AUTO 28005KT 10SM CLR M04/M05 A3005 RMK AO2", "KGGG 011053Z 21006KT 10SM CLR 14/ A3001 RMK AO2 SLP158 T0144 $", "KGGI 011115Z AUTO 30024G31KT 10SM OVC013 02/00 A2955 RMK AO2 T00160002", "KGGP 011115Z AUTO 19013G21KT 10SM CLR 09/05 A2935 RMK AO2", "KGGW 011053Z AUTO 23003KT 10SM FEW075 M02/M06 A2976 RMK AO2 SLP105 T10171056", "KGHG 011115Z AUTO VRB03KT 5SM -DZ SCT008 SCT026 BKN047 09/08 A2967 RMK AO2 LTG DSNT W", "KGHW 011115Z AUTO 34010KT 10SM CLR M06/M11 A2983 RMK AO2", "KGIC 011115Z AUTO 00000KT 7SM SCT003 BKN040 OVC050 00/00 A2982 RMK AO1", "KGIF 011053Z AUTO 19004KT 10SM CLR 19/17 A3015 RMK AO2 SLP208 T01890172", "KGJT 011053Z AUTO 11009KT 10SM CLR 01/M06 A3017 RMK AO2 SLP206 T00111056", "KGKJ 011053Z AUTO 21009G17KT 10SM BKN120 12/07 A2947 RMK AO2 SLP978 T01170067", "KGKT 011115Z AUTO 22014G20KT 6SM HZ FEW042 BKN055 OVC065 14/12 A2986 RMK A01", "KGKY 011053Z AUTO 29009KT 10SM CLR 16/M06 A3005 RMK AO2 SLP170 T01611061", "KGLD 011053Z AUTO 26009KT 10SM CLR M03/M06 A3008 RMK AO2 SLP190 T10331061", "KGLE 011115Z AUTO 36009KT 10SM CLR 11/M02 A3011 RMK AO2 T01101025", "KGLH 011053Z AUTO 23009KT 10SM CLR 18/13 A2994 RMK AO2 SLP142 T01830133", "KGLR 011121Z AUTO 05006KT 3SM UP BR OVC005 01/01 A2924 RMK AO2 UPB18SNE18 P0001 T00060006 $", "KGLS 011052Z 22006KT 3SM BR SCT005 23/22 A3004 RMK AO2 SLP170 T02280222", "KGLW 011115Z AUTO 21007G18KT 10SM CLR 17/13 A2971 RMK AO2 T01660125", "KGLY 011115Z AUTO 26018G24KT 10SM OVC036 02/M04 A2992 RMK AO2", "KGMJ 011115Z AUTO 30010G16KT 10SM SCT075 06/M04 A3005 RMK AO2", "KGMU 011053Z 21015G21KT 10SM SCT019 BKN035 19/15 A2988 RMK AO2 PK WND 22030/0958 SLP112 T01940150", "KGNA 011056Z AUTO 02009G24KT M05/M19 A2973 RMK AO1 SLP080 T10501189", "KGNB 011115Z AUTO 28008KT 10SM BKN039 BKN047 M05/M08 A3014 RMK AO2 T10521080", "KGNC 011110Z AUTO 35003KT 10SM CLR 07/M12 A3022 RMK AO2 T00721119", "KGNG 011120Z AUTO 00000KT 10SM BKN070 OVC075 03/03 A3000 RMK AO2", "KGNR 011056Z AUTO 13009G17KT M02/M02 A2969 RMK AO1 SLP070 P0001 T10171022", "KGNT 011115Z AUTO 31005KT 10SM CLR M08/M13 A3028 RMK AO2 T10851129", "KGNV 011053Z 00000KT 10SM CLR 18/15 A3016 RMK AO2 SLP210 T01780150", "KGOK 011053Z AUTO 30007KT 10SM CLR 05/M04 A3012 RMK AO2 SLP199 T00501044", "KGON 011056Z 23006KT 2SM BR OVC003 11/08 A2968 RMK AO2 RAE35 SLP051 P0000 T01060083", "KGOO 011115Z AUTO 12003KT 10SM FEW022 SCT027 OVC075 03/01 A3017 RMK A01", "KGOP 011115Z AUTO 10SM CLR A3011 RMK AO2", "KGOV 011111Z AUTO 06005KT 6SM BR OVC005 01/01 A2923 RMK AO2 UPE11 SLP912 $", "KGPC 011115Z AUTO 21014G24KT 10SM CLR 13/04 A2941 RMK AO2 T01300035", "KGPH 011035Z AUTO 29016G26KT 10SM 02/M04 A2984 RMK AO2", "KGPI 011055Z AUTO 20007KT 10SM OVC065 02/M03 A2976 RMK AO2 SLP095 T00171028", "KGPM 011115Z AUTO 31006KT 10SM CLR 17/M07 A3008 RMK AO2 T01731075", "KGPT 011053Z 26005KT 10SM OVC010 23/22 A3004 RMK AO2 CIG 007V014 SLP170 T02330217", "KGPZ 011056Z AUTO 36009KT 10SM CLR M06/M16 A2981 RMK AO2 SLP114 T10611156 FZRANO", "KGRB 011053Z 34009KT 4SM -SN BR BKN010 BKN015 OVC022 01/M01 A2928 RMK AO2 SLP922 P0003 T00061006 $", "KGRD 011056Z AUTO 22013G20KT 10SM SCT080 OVC100 18/15 A2996 RMK AO2 SLP140 T01830150", "KGRF 011055Z AUTO 21007KT 7SM RA FEW014 BKN018 BKN024 OVC044 04/02 A2986 RMK AO2 RAB36 CIG 018V024 SLP117 P0002 T00410021 $", "KGRI 011053Z AUTO 31017KT 10SM CLR M02/M08 A3001 RMK AO2 PK WND 30027/1032 SLP182 T10221083", "KGRK 011055Z AUTO 31005KT 10SM CLR 12/M01 A3009 RMK AO2 SLP182 T01221010", "KGRN 011115Z AUTO 26007KT 10SM CLR M11/M13 A2998 RMK AO2 T11111131", "KGRR 011053Z 23010KT 10SM SCT250 06/01 A2936 RMK AO2 SLP941 T00560006", "KGRY 011115Z AUTO 00000KT 10SM CLR 26/22 A3008 RMK A01", "KGSB 011055Z 22013G20KT 10SM SCT023 BKN180 19/17 A2992 RMK AO2A SLP135 T01930165", "KGSH 011053Z AUTO 15004KT 10SM CLR 07/03 A2935 RMK AO2 SLP939 T00670028 $", "KGSO 011054Z 21018G28KT 10SM BKN023 OVC030 18/14 A2982 RMK AO2 PK WND 22028/1049 SLP092 T01780144", "KGSP 011123Z 21020G28KT 10SM SCT023 BKN033 19/14 A2987 RMK AO2 PK WND 21028/1123 T01940144", "KGTB 011115Z AUTO 14015KT 10SM -RA SCT003 OVC024 06/06 A2928 RMK AO2 RAE1056DZB1056E00RAB00 CIG 003V024 PRESFR SLP920", "KGTF 011053Z 22017KT 10SM OVC100 03/M04 A2972 RMK AO2 SLP081 T00281039", "KGTR 011056Z VRB03KT 10SM SCT045 13/12 A2995 RMK AO2 TSE20RAE30 SLP149 P0029 T01330117", "KGTU 011056Z AUTO 25005KT CLR 09/04 A3011 RMK AO2 SLP193 T00890044 PWINO $", "KGUC 011056Z AUTO 00000KT 10SM CLR M11/M12 A3026 RMK AO2 SLP287 T11061117 FZRANO", "KGUL 011115Z AUTO 17004KT 3SM BR CLR 24/23 A3004 RMK A01", "KGUP 011053Z AUTO 00000KT 10SM CLR M07/M09 A3024 RMK AO2 SLP247 T10671094", "KGUR 011055Z AUTO 28006KT 10SM CLR M01/M07 A2997 RMK AO2 SLP192 T10131068", "KGUS 011108Z AUTO 22013KT 10SM CLR 09/06 A2933 RMK AO2 WSHFT 04 SLP934 $", "KGUY 011053Z AUTO 30005KT 10SM CLR M01/M06 A3016 RMK AO2 SLP202 T10061061", "KGVE 011115Z AUTO 20011G15KT 10SM BKN013 OVC018 16/15 A2967 RMK AO1 T01600147", "KGVL 011120Z AUTO 21007KT 10SM VCTS -RA BKN022 OVC028 19/17 A2992 RMK AO2 LTG DSNT SW-N RAE02B18 P0000 T01890167", "KGVQ 011056Z AUTO 23010G16KT 10SM SCT110 14/08 A2932 RMK AO2 PK WND 24031/1008 SLP928 T01390083", "KGVT 011115Z AUTO 33009KT 10SM CLR 15/M03 A3006 RMK AO2 TSNO T01471028", "KGVW 011115Z AUTO VRB04KT 2SM BR 22/22 A3004 RMK A01", "KGWB 011115Z AUTO 00000KT 10SM CLR 05/03 A2938 RMK AO2", "KGWO 011053Z AUTO 22006KT 10SM CLR 18/14 A2994 RMK AO2 SLP137 T01830144", "KGWR 011115Z AUTO 32011KT 10SM CLR M10/M13 A2994 RMK A01", "KGWW 011115Z AUTO 21013G19KT 10SM BKN023 19/16 A2994 RMK AO2 T01890162", "KGXA 011055Z AUTO 30003KT 10SM FEW210 03/00 A3010 RMK AO2 SLP187 WND DATA ESTMD T00270002", "KGXF 011055Z AUTO 16006KT 7SM CLR 08/M05 A3005 RMK AO2 SLP171 T00751049 FZRANO $", "KGXY 011056Z 00000KT 10SM CLR M01/M07 A3005 RMK AO2 SLP194 T10111072 FZRANO", "KGYB 011115Z AUTO 35006KT 10SM CLR 16/12 A3009 RMK AO2 T01630116", "KGYF 011116Z AUTO 13016KT 10SM CLR A3000 RMK AO2", "KGYH 011047Z 22019G25KT 10SM OVC020 19/16 A2991", "KGYI 011115Z AUTO 36008KT 10SM CLR 13/M01 A3009 RMK AO2 T01251012 TSNO", "KGYL 011115Z 35014G21KT CLR M02/M07 A2973 RMK AO2 T10251073 PWINO", "KGYY 011045Z 27010KT 10SM -RA SCT035 OVC043 07/02 A2935", "KGZH 011053Z AUTO 21008KT 9SM SCT010 BKN016 BKN022 22/20 A3004 RMK AO2 SLP171 T02220200", "KGZL 011115Z AUTO 33013KT 10SM FEW055 12/M03 A3006 RMK AO2", "KGZN 011100Z AUTO 30007KT 10SM CLR 12/M10 A3010 RMK AO2", "KGZS 011115Z AUTO 21006KT 10SM FEW033 BKN043 BKN050 17/17 A2985 RMK A01", "KH71 011115Z AUTO 32011G20KT 10SM CLR 08/M03 A3008 RMK AO2", "KHAE 011115Z AUTO 26022G31KT 10SM BKN033 OVC060 03/M03 A2967 RMK AO2", "KHAF 011115Z AUTO 00000KT 10SM CLR 04/03 A3024 RMK AO2", "KHAI 011115Z AUTO 18004KT 10SM CLR 06/03 A2935 RMK AO2 T00560034", "KHAO 011053Z AUTO VRB03KT 10SM CLR 12/09 A2955 RMK AO2 SLP004 T01170094", "KHBG 011053Z AUTO 21006KT 10SM BKN023 BKN060 23/21 A3003 RMK AO2 RAB05E14 SLP165 P0000 T02280206", "KHBI 011105Z AUTO 20014G22KT 10SM OVC017 18/15 A2990 RMK AO2 T01800150", "KHBR 011053Z AUTO 03007KT 10SM CLR 04/M03 A3015 RMK AO2 SLP203 T00391028", "KHBV 011115Z AUTO 11004KT 1 1/4SM BR OVC002 22/21 A3002 RMK AO2 T02200213", "KHCD 011115Z AUTO 32017G22KT 10SM CLR M03/M08 A2977 RMK AO2 T10261080", "KHCO 011115Z AUTO 00000KT 10SM CLR M13/M16 A2994 RMK AO2", "KHCR 011115Z AUTO 00000KT 10SM SCT048 M06/M08 A3011 RMK AO2", "KHDC 011115Z AUTO 26005KT 10SM SCT012 SCT028 BKN033 23/21 A3003 RMK AO2 T02260211", "KHDE 011115Z AUTO 29007KT 10SM CLR M03/M08 A3005 RMK AO2 T10351081", "KHDL 011115Z AUTO 20013KT 9SM BKN010 OVC013 21/21 A3005 RMK AO2", "KHDN 011056Z AUTO 10007KT 10SM OVC065 M04/M04 A3016 RMK AO2 SLP236 T10391044 FZRANO", "KHDO 011051Z AUTO 01010KT 10SM CLR 12/03 A3008 RMK AO2 SLP172 T01220028", "KHEF 011056Z 20016G23KT 10SM OVC023 18/15 A2966 RMK AO2 LTG DSNT E SLP049 T01780150", "KHEG 011115Z AUTO 19007KT 10SM SCT042 SCT049 18/15 A3015 RMK AO2", "KHEI 011053Z AUTO 16004KT 10SM CLR M06/M08 A2990 RMK AO2 SLP158 T10611083", "KHEQ 011115Z AUTO 28008KT 10SM CLR M03/M05 A3005 RMK AO2", "KHEY 011055Z AUTO 22005KT 9SM OVC006 21/21 A3001 RMK AO2 LTG DSNT N SLP162 T02070205", "KHEZ 011108Z AUTO 24005KT 6SM BR FEW019 SCT026 BKN033 22/21 A3003 RMK AO2", "KHFD 011053Z 00000KT 6SM BR BKN009 OVC022 06/04 A2966 RMK AO2 RAE10 SLP043 P0000 T00560039", "KHFF 011055Z AUTO 24012G20KT 10SM FEW015 19/17 A2992 RMK AO2 SLP132 T01880168", "KHFJ 011115Z AUTO 28014G17KT 10SM CLR 03/M04 A2998 RMK AO2", "KHGR 011053Z 18007KT 10SM FEW065 BKN090 OVC110 14/12 A2957 RMK AO2 RAB01E37 SLP023 P0000 T01440122", "KHHF 011115Z AUTO 00000KT 10SM CLR 03/M04 A3019 RMK AO2 T00291044", "KHHG 011115Z AUTO 16007KT 10SM CLR 08/07 A2935 RMK AO2 T00830065", "KHHR 011053Z AUTO 00000KT 10SM CLR 12/08 A3012 RMK AO2 SLP199 T01170078", "KHHW 011121Z AUTO 35010G15KT 10SM CLR 13/M03 A3005 RMK AO2", "KHIB 011053Z AUTO 36008KT 10SM CLR M07/M21 A2977 RMK AO2 SLP103 T10721206", "KHIE 011120Z AUTO 30004KT 2 1/2SM UP BR BKN026 OVC031 01/M01 A2962 RMK AO2 RAB11E13UPB13 P0002 T00061006", "KHIF 011055Z AUTO 18008KT 10SM CLR M01/M06 A3005 RMK AO2 SLP183 T10071059 $", "KHII 011115Z AUTO 05003KT 10SM CLR 10/M05 A3008 RMK AO2", "KHIO 011053Z 25004KT 10SM BKN033 OVC044 06/04 A2992 RMK AO2 RAB29E52 SLP133 P0000 T00560044", "KHJH 011115Z AUTO 31013G23KT 10SM CLR 00/M07 A3002 RMK AO2 T00001070", "KHJO 011053Z AUTO 32008KT 10SM CLR 08/06 A3021 RMK AO2 SLP231 T00830056", "KHKA 011053Z AUTO A2978 RMK AO2 SLPNO PWINO FZRANO $", "KHKS 011053Z AUTO 19003KT 10SM FEW070 SCT080 16/15 A3001 RMK AO2 LTG DSNT E-SW RAE01 SLP155 P0000 T01610150", "KHKY 011053Z 20018G28KT 10SM OVC021 18/14 A2983 RMK AO2 PK WND 19028/1048 SLP083 T01830144 $", "KHLB 011115Z AUTO 18009KT 10SM BKN034 BKN042 10/08 A2949 RMK A01", "KHLC 011053Z AUTO 28009KT 10SM CLR M02/M06 A3009 RMK AO2 SLP195 T10171061", "KHLG 011053Z AUTO 18008KT 10SM SCT090 BKN120 12/09 A2957 RMK AO2 RAE14 SLP016 P0000 T01220094", "KHLN 011053Z AUTO 33003KT 10SM SCT065 OVC080 00/M03 A2978 RMK AO2 SLP118 T00001033", "KHLR 011055Z AUTO 30004KT 10SM CLR 14/M01 A3009 RMK AO2 SLP181 T01351009", "KHLX 011115Z AUTO 19012G21KT 10SM -RA OVC008 13/13 A2977 RMK AO2 LTG DSNT NE AND SW P0001 T01330125", "KHMP 011115Z AUTO 22009KT 10SM OVC016 20/17 A2999 RMK AO2 LTG DSNT NW T01980171", "KHMT 011115Z AUTO 02004KT 10SM CLR 04/ A3011 RMK AO2 T0038////", "KHMZ 011115Z AUTO 30017G26KT 7SM -RA SCT021 BKN030 OVC046 13/13 A2959 RMK AO2 LTG DSNT SE P0001 T01320129", "KHNB 011056Z AUTO 20013G18KT 10SM CLR 14/06 A2956 RMK AO2 SLP008 T01440056", "KHND 011056Z AUTO 19008KT 10SM CLR 07/M08 A3014 RMK AO2 SLP219 T00671083", "KHNR 011115Z AUTO 32024G30KT 10SM SCT023 OVC035 M01/M02 A2982 RMK A01", "KHNZ 011115Z AUTO 21018G24KT 10SM BKN021 BKN029 17/16 A2984 RMK AO2 T01720157", "KHOB 011115Z AUTO 33008KT 10SM CLR 04/M15 A3017 RMK AO2", "KHOE 011115Z AUTO 18003KT 10SM 16/14 A3010 RMK AO2 T01630144", "KHON 011055Z AUTO 32013KT 10SM CLR M08/M12 A2997 RMK AO2 SNE43 SLP167 P0000 T10831117 $", "KHOP 011055Z AUTO 22018G23KT 10SM CLR 16/05 A2969 RMK AO2 SLP054 T01620052 $", "KHOT 011053Z AUTO 27003KT 10SM CLR 12/00 A2995 RMK AO2 SLP138 T01220000", "KHOU 011112Z 00000KT 1 1/2SMSM BKN022 22/21 A3003 RMK T02170211", "KHPN 011056Z 17007KT 2 1/2SM -DZ BR BKN010 OVC023 11/09 A2962 RMK AO2 RAB11E56DZB56 SLP033 P0001 T01110094", "KHPT 011115Z AUTO 33024G33KT 10SM OVC013 00/M01 A2956 RMK AO2", "KHQG 011115Z AUTO 28007KT 10SM CLR M04/M09 A3016 RMK AO2 T10361089", "KHQG 011115Z AUTO 28007KT 10SM CLR M04/M09 A3016 RMK AO2 T10361089", "KHQM 011106Z AUTO 10SM SCT023 BKN040 OVC070 05/03 A2987 RMK AO2 RAE00 P0000 T00500028 $", "KHQU 011115Z AUTO 19009KT 10SM BKN014 17/16 A2999 RMK AO2 LTG DSNT N T01740157", "KHQZ 011115Z AUTO 33012KT 10SM CLR 15/M04 A3006 RMK AO1 T01531044", "KHRF 011120Z AUTO 19010KT 10SM OVC055 03/M01 A2980 RMK AO2", "KHRI 011053Z AUTO 24011KT 6SM -RA BKN039 OVC049 08/04 A2984 RMK AO2 SLP103 P0003 T00780044", "KHRJ 011105Z AUTO 21012G22KT 10SM OVC017 19/16 A2994 RMK AO2 T01930163", "KHRL 011107Z 13006KT 6SM BR BKN007 OVC021 23/23 A2997 RMK AO2 T02280228", "KHRO 011053Z AUTO 29015G27KT 10SM CLR 11/M04 A2992 RMK AO2 PK WND 32027/1052 SLP120 T01061039", "KHRT 011120Z AUTO 22010KT 8SM BKN007 OVC011 22/21 A3007 RMK AO2 CIG 007V009 SLP184 $", "KHRX 011115Z AUTO 23003KT 7SM CLR 01/M11 A3019 RMK AO2 T00061112", "KHSB 011115Z AUTO 23006G20KT 10SM CLR 16/04 A2959 RMK AO2 T01560041", "KHSD 011115Z AUTO 32007KT 10SM CLR 04/M04 A3015 RMK A01", "KHSE 011051Z AUTO 21015G25KT 7SM CLR 19/17 A3002 RMK AO2 SLP163 T01890167", "KHSG 011110Z AUTO 00000KT 10SM CLR M03/M08 A2988 RMK AO2 T10351081", "KHSI 011053Z AUTO 30015KT 10SM CLR M02/M09 A3003 RMK AO2 PK WND 32026/0958 SLP182 T10221089", "KHSP 011115Z AUTO 23020G34KT 7SM -RA OVC006 13/12 A2974 RMK AO2 LTG DSNT NE P0003 T01320121", "KHST 011055Z 11005KT 10SM FEW019 24/21 A3013 RMK AO2A SLP206 T02360207", "KHSV 011053Z 23007KT 10SM SCT065 OVC090 17/15 A2989 RMK AO2 SLP115 T01670150", "KHTH 011115Z AUTO 12007KT 10SM CLR 03/M07 A3008 RMK A01", "KHTL 011117Z AUTO 00000KT FEW004 BKN011 OVC017 03/03 A2922 RMK AO2 CIG 008V013 T00280028 $", "KHTS 011051Z 19006KT 10SM SCT070 BKN090 OVC110 12/11 A2966 RMK AO2 RAE06 SLP041 P0000 T01220106", "KHUA 011055Z AUTO 23004KT 10SM BKN065 OVC080 16/16 A2988 RMK AO2 LTG DSNT SE AND SW SLP115 T01610158", "KHUF 011053Z 22020G33KT 10SM CLR 14/02 A2942 RMK AO2 PK WND 23033/1052 SLP958 T01440017", "KHUL 011102Z AUTO 13006KT 10SM OVC008 00/M03 A2981 RMK AO2 PRESFR T00001028", "KHUM 011047Z 18005KT 7SM CLR 20/19 A3004", "KHUT 011052Z 31014KT 10SM CLR 02/M06 A3009 RMK AO2 PK WND 34026/0956 SLP182 T00171056", "KHVE 011115Z AUTO 00000KT 10SM CLR 00/M03 A3018 RMK AO2", "KHVN 011053Z 15006KT 5SM BR OVC007 11/09 A2966 RMK AO2 SLP044 T01060094", "KHVR 011053Z AUTO 22014KT 10SM CLR 01/M03 A2970 RMK AO2 SLP076 T00061033", "KHVS 011115Z AUTO 20012G18KT 10SM CLR 18/16 A2997 RMK AO2", "KHWD 011054Z AUTO 06004KT 10SM CLR 06/04 A3024 RMK AO2 SLP251 T00610039", "KHWO 011053Z 15004KT 10SM FEW022 SCT028 BKN040 23/21 A3015 RMK AO2 SLP209 T02330206 $", "KHWV 011111Z AUTO 19012G21KT 3/4SM -RA BR OVC002 10/09 A2969 RMK AO2 RAB02 P0000 T01000089", "KHWY 011115Z AUTO 20012G19KT 10SM TS OVC023 18/16 A2966 RMK AO2 LTG DSNT E T01790160", "KHYA 011108Z 20011KT 1/2SM -RA FG OVC002 09/09 A2970 RMK AO2 P0000 T00940094", "KHYI 011056Z AUTO 35005KT 10SM CLR 12/04 A3009 RMK AO2 SLP182 T01220044", "KHYR 011053Z AUTO 02021G31KT 7SM UP OVC022 M03/M08 A2962 RMK AO2 PK WND 03035/1009 SLP048 P0000 T10331078 $", "KHYS 011056Z AUTO 27011KT 10SM CLR M02/M06 A3011 RMK AO2 SLP204 T10171056 FZRANO $", "KHYW 011115Z AUTO 20006KT 10SM BKN021 20/17 A3004 RMK AO2", "KHYX 011115Z AUTO 23018G23KT 10SM CLR 08/03 A2930 RMK AO2 T00750030", "KHZD 011115Z AUTO 23008G14KT 10SM FEW047 BKN055 OVC065 17/06 A2975 RMK A01", "KHZE 011115Z AUTO 00000KT 10SM BKN038 M16/M16 A2994 RMK AO2", "KHZL 011115Z AUTO 16005KT 10SM -VCTSRA BKN009 OVC055 13/12 A2958 RMK AO2 LTG DSNT SE AND S P0001", "KHZR 011115Z AUTO 25005KT 10SM SCT014 BKN027 OVC033 22/21 A3005 RMK AO2 T02200209", "KHZX 011115Z AUTO 35012KT 10SM CLR M04/M15 A2977 RMK AO2", "KHZY 011053Z AUTO 22014G20KT 10SM CLR 12/07 A2946 RMK AO2 SLP976 T01220067", "KI19 011115Z AUTO 19009G15KT 10SM CLR 11/10 A2951 RMK AO2 LTG DSNT SE", "KI23 011115Z AUTO 18011KT 10SM CLR 10/09 A2955 RMK AO1", "KI35 011030Z AUTO 26009KT 10SM OVC095 17/17 A2975 RMK AO2", "KI63 011115Z AUTO 26019G27KT 10SM BKN033 BKN050 OVC065 02/M04 A2960 RMK AO2 T00231037", "KI67 011115Z AUTO 21006KT 10SM CLR 10/08 A2952 RMK AO1", "KI69 011115Z AUTO 19008KT 10SM CLR 11/09 A2957 RMK AO2 T01130089", "KI74 011115Z AUTO 18009KT 10SM CLR 10/10 A2950 RMK AO2", "KI75 011115Z AUTO 29023G28KT 10SM OVC014 01/M01 A2968 RMK AO2 T00071007", "KIAB 011055Z AUTO 33014KT 10SM CLR 03/M06 A3007 RMK AO2 PK WND 32026/00 SLP186 T00311061 $", "KIAD 011052Z 20024G38KT 10SM BKN021 BKN085 BKN110 BKN140 BKN200 18/14 A2963 RMK AO2 PK WND 20038/1050 RAB18E29 SLP031 P0000 T01780144", "KIAG 011053Z 23021G29KT 10SM OVC120 11/07 A2934 RMK AO2 PK WND 23031/1004 SLP941 T01060067", "KIAH 011053Z 34004KT 4SM BR FEW020 BKN027 BKN065 OVC180 21/21 A3004 RMK AO2 SLP171 T02110211", "KIBM 011115Z AUTO 27012KT 10SM CLR M03/M08 A3003 RMK AO2 T10301077", "KICR 011053Z AUTO 28007KT 10SM CLR M08/M11 A3002 RMK AO2 SLP196 T10781106", "KICT 011053Z 31012KT 10SM CLR 03/M06 A3010 RMK AO2 SLP192 T00281056", "KIDA 011053Z AUTO 19010KT 10SM SCT055 OVC070 03/M03 A2997 RMK AO2 SLP158 T00331033", "KIDI 011115Z AUTO 20006KT 8SM FEW065 BKN075 OVC085 12/10 A2958 RMK A01", "KIDP 011115Z AUTO 32017G20KT 10SM CLR 04/M06 A3007 RMK AO2 T00411056", "KIEN 011052Z AUTO 28003KT 10SM CLR M16/M17 A2999 RMK AO2 SLP211 I1000 T11561172", "KIER 011115Z AUTO 00000KT M1/4SM FG OVC016 17/17 A3003 RMK AO2 T01730173", "KIFA 011115Z AUTO 32027G37KT 10SM OVC013 00/M01 A2958 RMK AO2 T00021006", "KIFP 011115Z AUTO 00000KT 10SM CLR 10/M03 A3010 RMK AO2", "KIGM 011051Z AUTO 09009KT 10SM CLR 05/M02 A3013 RMK AO2 SLP168 T00501022", "KIGQ 011115Z AUTO 28014G24KT 10SM RA BKN018 OVC030 04/03 A2941 RMK AO2 LTG DSNT S P0002 T00420027", "KIIB 011115Z AUTO 31016G25KT 10SM -RA OVC011 01/00 A2945 RMK AO2 T00111000", "KIIY 011115Z AUTO 23008KT 10SM OVC017 19/17 A2998 RMK AO2 T01930167", "KIJD 011102Z AUTO 00000KT 7SM -RA OVC008 07/06 A2966 RMK AO2 RAB1058 P0000 T00670061", "KIJX 011115Z AUTO 27022G30KT 10SM SCT037 OVC065 03/M03 A2961 RMK AO2 T00311033", "KIKG 011115Z AUTO 00000KT 1SM BR OVC003 22/22 A3001 RMK AO2 T02230220", "KIKK 011115Z AUTO 30013G23KT 10SM VCTSRA SCT012 BKN022 OVC038 04/02 A2944 RMK AO2 LTG DSNT E T00440023", "KIKT 011120Z AUTO 21009KT 2 1/2SM BR CLR 23/23 A3008 RMK A01", "KIKV 011115Z AUTO 32018G30KT 10SM OVC017 00/M01 A2965 RMK AO2", "KIKW 011115Z AUTO 23013G21KT 10SM CLR 07/01 A2929 RMK AO2 T00690008", "KILE 011056Z AUTO 28005KT 10SM CLR 09/01 A3009 RMK AO2 SLP182 T00940006", "KILG 011111Z 21014KT 10SM VCTS SCT019 BKN031 BKN110 18/15 A2963 RMK AO2 LTG DSNT W-N RAE1057 P0000 T01830150 $", "KILM 011053Z 21016G23KT 10SM FEW028 BKN036 21/17 A3002 RMK AO2 SLP167 T02110167", "KILN 011054Z AUTO 19010KT 10SM CLR 11/09 A2956 RMK AO2 SLP015 T01110094 $", "KIML 011053Z AUTO 29004KT 10SM CLR M03/M06 A3006 RMK AO2 SLP203 T10331056", "KIMM 011115Z AUTO 00000KT 8SM CLR 17/16 A3014 RMK AO2", "KIMS 011115Z AUTO 17009KT 10SM SCT055 11/10 A2956 RMK AO2", "KIMT 011054Z AUTO 36026G36KT 1/4SM FZFG VV002 M03/M03 A2937 RMK AO2 PK WND 36036/1053 SLP960 T10281033 PWINO FZRANO $", "KIND 011054Z 17010KT 10SM CLR 11/08 A2942 RMK AO2 SLP962 T01060078", "KINF 011115Z AUTO 00000KT 7SM CLR 15/15 A3014 RMK AO2", "KINJ 011115Z AUTO 00000KT 10SM CLR 08/01 A3007 RMK AO2 T00820010", "KINK 011053Z AUTO 01007KT 10SM CLR 04/M16 A3013 RMK AO2 SLP182 T00441161 $", "KINL 011054Z AUTO 04005KT 10SM CLR M08/M18 A2987 RMK AO2 SLP133 T10831178", "KINS 011055Z AUTO 00000KT 10SM CLR 02/M08 A3013 RMK AO2 SLP190 T00201084 $", "KINT 011054Z 20009G23KT 10SM OVC023 19/15 A2982 RMK AO2 SLP092 T01890150", "KINW 011056Z AUTO 00000KT 10SM CLR M01/M08 A3020 RMK AO2 SLP214 T10111083", "KIOB 011115Z AUTO 21007KT 10SM CLR 11/08 A2967 RMK AO2 PWINO", "KIOW 011052Z AUTO 26020G27KT 9SM -RA BKN012 OVC019 02/02 A2946 RMK AO2 PK WND 25031/0956 RAB01E25B49UPB29E39SNB39E49 SLP977 P0000 I1000 T00220017", "KIPJ 011110Z AUTO 21009G14KT 160V240 10SM OVC021 19/15 A2985 RMK AO2 T01870151", "KIPL 011053Z AUTO 26005KT 10SM CLR 07/01 A3007 RMK AO2 SLP181 T00720006", "KIPT 011054Z 10007KT 060V140 7SM -RA BKN012 BKN043 OVC055 11/09 A2952 RMK AO2 RAE00B37 SLP998 P0004 T01110094", "KIRK 011055Z AUTO 26019G38KT 10SM OVC024 02/M03 A2965 RMK AO2 PK WND 27038/1047 SLP047 T00171028", "KIRS 011115Z AUTO 18006KT 10SM CLR 06/05 A2935 RMK AO2 T00600051", "KISM 011118Z 00000KT 10SM FEW002 18/17 A3016 RMK AO2 PNO $", "KISO 011056Z 20016G23KT 10SM BKN022 19/16 A2997", "KISP 011056Z 21014G22KT 1/2SM R06/6000VP6000FT -RA BR OVC002 11/11 A2967 RMK AO2 SFC VIS 2 RAB33 SLP048 P0000 T01060106", "KISQ 011115Z AUTO 02015G20KT 1 1/2SM -SN OVC007 M01/M01 A2932 RMK AO2 T10061011 P0001", "KISW 011120Z AUTO 01021G28KT 5SM -SN SCT011 BKN014 OVC031 01/ A2938 RMK AO2 PK WND 36028/1119 PRESRR P0000 T0006 $", "KITH 011056Z VRB05KT 7SM RA OVC015 11/10 A2949 RMK AO2 RAB00E13B30 SLP989 P0001 T01110100", "KITR 011053Z AUTO 26010KT 10SM CLR M04/M07 A3009 RMK AO2 SLP189 T10391067", "KIUA 011115Z AUTO 25012G17KT 10SM CLR 13/09 A2935 RMK AO2 T01300089", "KIWA 011115Z AUTO 12006KT 10SM CLR 07/01 A3007 RMK AO2 T00670015", "KIWD 011056Z AUTO 02012G24KT 360V060 10SM OVC017 M04/M08 A2962 RMK AO2 PK WND 05026/1038 SLP046 T10441078 FZRANO", "KIWI 011119Z AUTO 09007KT 1 1/4SM -RA BR BKN004 OVC010 03/02 A2973 RMK AO2 RAB09 P0002 T00330022", "KIXA 011110Z AUTO 20018G28KT 10SM BKN023 18/17 A2987 RMK AO2", "KIXD 011053Z 28016G26KT 10SM FEW035 02/M04 A2992 RMK AO2 PK WND 28032/1015 SLP131 T00171044", "KIYA 011115Z AUTO 23007KT 7SM OVC009 23/21 A3005 RMK AO2 T02320205", "KIZA 011115Z AUTO 00000KT 10SM FEW005 03/03 A3016 RMK AO2", "KIZG 011120Z AUTO 33004KT 2 1/2SM UP BR OVC004 00/M01 A2971 RMK AO2 UPB16FZRAB01E16 P0001 I1000 T00001006", "KJAC 011127Z AUTO 21013KT 2 1/2SM -SN BR OVC018 M02/M04 A2997 RMK AO2 P0000 FZRANO", "KJAN 011054Z 18005KT 10SM CLR 17/15 A3001 RMK AO2 LTG DSNT E-SW RAE28 SLP160 P0001 T01670150", "KJAQ 011115Z AUTO 02004KT 10SM CLR 06/05 A3020 RMK AO1 T00560050", "KJAS 011115Z AUTO 00000KT 1/4SM FG OVC001 18/18 A3004 RMK AO2", "KJAU 011110Z AUTO 23008G14KT 10SM FEW110 18/10 A2981 RMK A01", "KJAX 011056Z 20008KT 10SM FEW250 19/16 A3011 RMK AO2 SLP195 T01890161", "KJBR 011053Z AUTO 24012KT 10SM CLR 15/02 A2981 RMK AO2 SLP094 T01500022 $", "KJCA 011115Z AUTO 21010G16KT 180V240 10SM BKN022 BKN028 OVC060 19/17 A2992 RMK AO2 LTG DSNT NE AND W T01920170", "KJCT 011051Z AUTO 10SM CLR 06/M04 A3014 RMK AO2 SLP181 T00561044 $", "KJDD 011035Z AUTO 22005KT 10SM CLR 14/01 A3002 RMK AO2", "KJDN 011048Z AUTO 28004KT 01/M03 A2979 RMK AO1 SLP109 T00061028", "KJEF 011053Z AUTO 27023G33KT 10SM CLR 04/M06 A2982 RMK AO2 PK WND 27035/1029 SLP085 T00441061 $", "KJER 011053Z AUTO 19005KT 10SM CLR 03/M02 A2998 RMK AO2 SLP157 T00331022", "KJES 011115Z AUTO 00000KT 10SM CLR 17/15 A3012 RMK AO2", "KJFK 011054Z 18017KT 1/2SM R04R/P6000FT BR BKN003 OVC025 10/09 A2966 RMK AO2 SFC VIS 6 T01000094", "KJFX 011115Z AUTO VRB03G10KT 10SM VCTS OVC055 15/14 A2995 RMK AO2 LTG DSNT ALQDS", "KJFZ 011115Z AUTO 29009G17KT 10SM -RA BKN005 BKN019 OVC060 A2981 RMK AO2 LTG DSNT NE AND SW P0002", "KJHN 011115Z AUTO 26005KT 10SM CLR M01/M07 A3015 RMK AO2 T10151075", "KJHW 011056Z AUTO 23008KT 10SM OVC110 11/07 A2943 RMK AO2 RAE0957 SLP974 T01110072 PNO $", "KJKA 011115Z AUTO 21007KT 1 1/4SM BR OVC002 22/22 A3007 RMK AO2", "KJKJ 011115Z AUTO 36008KT 10SM CLR M13/M17 A2994 RMK AO2 TSNO", "KJKL 011102Z AUTO 26005KT 10SM BKN016 BKN023 BKN120 16/13 A2970 RMK AO2 T01610128", "KJLN 011053Z 30024G31KT 10SM CLR 04/M06 A3001 RMK AO2 PK WND 28031/1052 SLP159 T00391056", "KJMR 011115Z AUTO 34009KT 10SM CLR M02/M11 A2977 RMK AO2", "KJMS 011056Z AUTO 31007KT 10SM CLR M13/M17 A2993 RMK AO2 SLP164 T11331172", "KJNX 011110Z AUTO 20018G27KT 10SM OVC019 20/16 A2992 RMK AO2 LTG DSNT N", "KJPX 011115Z AUTO 21009G15KT 1/2SM FG OVC003 09/09 A2969 RMK AO2 T00930093 FZRANO", "KJQF 011055Z AUTO 19015G21KT 10SM OVC022 18/15 A2990 RMK AO2 LTG DSNT W", "KJRB 011056Z AUTO VRB04KT 10SM OVC020 13/10 A2965 RMK AO2 RAB00E18 SLP040 P0000 T01280100", "KJRO 011115Z AUTO 20006KT 10SM SCT100 12/10 A2964 RMK AO2", "KJSO 011115Z AUTO 22004KT 10SM CLR 14/06 A3006 RMK AO2 T01400055 TSNO", "KJST 011109Z AUTO 28012G25KT 10SM -RA SCT015 BKN038 OVC060 11/09 A2959 RMK AO2 PK WND 28029/1058 P0000 T01110094", "KJSV 011115Z AUTO 32010KT 10SM CLR 12/M03 A3004 RMK AO2", "KJSY 011115Z AUTO 00000KT 7SM -SN BKN027 OVC031 00/00 A2982 RMK AO2 T00020002 TSNO", "KJTC 011115Z AUTO 21007KT 10SM CLR M03/M14 A3023 RMK AO2", "KJVL 011045Z 25015G21KT 10SM SCT028 BKN045 02/M02 A2935", "KJVW 011115Z AUTO 00000KT OVC070 16/16 A3002 RMK AO2 LTG DSNT SE AND S", "KJVY 011115Z AUTO 00000KT 7SM CLR 09/09 A2953 RMK AO2 PWINO", "KJWG 011115Z AUTO 31008KT 10SM CLR 04/M05 A3018 RMK AO2 T00421054", "KJWN 011115Z AUTO 23014G20KT 10SM OVC060 17/09 A2975 RMK AO2", "KJWY 011115Z AUTO 29005KT 10SM CLR 12/M02 A3010 RMK AO2 T01191018", "KJXN 011056Z 23010G16KT 10SM CLR 08/00 A2937 RMK AO2 SLP945 T00830000", "KJYG 011116Z AUTO 32024G29KT 10SM M02/M05 A2974 RMK AO2", "KJYL 011115Z AUTO 24003KT 10SM BKN030 BKN050 18/16 A3008 RMK AO2 T01800162", "KJYM 011115Z AUTO 19005KT 10SM CLR 06/04 A2938 RMK AO2 T00640035", "KJYR 011115Z AUTO 31019KT 10SM CLR M02/M07 A2999 RMK AO2", "KJZI 011115Z AUTO 21010G16KT 5SM BR BKN008 20/20 A3008 RMK AO2", "KJZP 011115Z AUTO 27006KT 200V310 10SM -RA OVC012 18/18 A2992 RMK AO2 T01810177", "KK62 011115Z AUTO 17010KT 10SM CLR 10/08 A2957 RMK AO2", "KK70 011110Z AUTO 12005G15KT 9SM SCT020 SCT027 25/25 A3012 RMK AO2", "KK82 011115Z AUTO 31010KT 10SM CLR M02/M09 A3007 RMK AO2 T10191090", "KKLS 011056Z AUTO 25005KT SCT012 OVC021 05/03 A2993 RMK AO2 SLP140 P0009 T00500033 PWINO $", "KKNB 011115Z AUTO 36010KT 10SM CLR M00/M03 A3023 RMK A01", "KKY8 011115Z AUTO 20016G23KT 10SM FEW050 FEW060 17/05 A2958 RMK A01", "KL08 011115Z AUTO 00000KT 10SM FEW039 FEW048 05/M01 A3009 RMK AO2", "KL18 011115Z AUTO 04004KT 10SM CLR 08/05 A3010 RMK AO2", "KL35 011115Z AUTO 00000KT 10SM CLR M06/M10 A3016 RMK AO2", "KL52 011115Z AUTO 00000KT 10SM 06/06 A3018 RMK A01", "KLAA 011053Z AUTO 00000KT 10SM CLR M04/M09 A3012 RMK AO2 SLP194 T10441089", "KLAF 011054Z 22007G14KT 10SM CLR 11/04 A2935 RMK AO2 SLP938 T01110039", "KLAL 011050Z 00000KT 10SM SKC 18/17 A3015", "KLAM 011115Z AUTO 00000KT 10SM CLR 00/M12 A3023 RMK AO2 T00021120 $", "KLAN 011053Z 23012KT 10SM CLR 07/M01 A2936 RMK AO2 PK WND 24026/1001 SLP942 T00721011 $", "KLAR 011053Z AUTO 26020G33KT 10SM CLR M02/M11 A3000 RMK AO2 PK WND 25033/1045 SLP157 T10221111 $", "KLAS 011056Z 28003KT 10SM BKN250 08/M06 A3012 RMK AO2 SLP192 T00831061", "KLAW 011053Z AUTO 02008KT 10SM CLR 09/ A3012 RMK AO2 SLP194 T0094 $", "KLAX 011053Z 07003KT 10SM FEW200 09/08 A3012 RMK AO2 SLP197 T00940078 $", "KLBB 011053Z 31006KT 10SM FEW250 03/M13 A3016 RMK AO2 SLP193 T00281133 $", "KLBE 011047Z 24009G16KT 10SM -DZ BKN035 OVC060 14/09 A2961", "KLBF 011053Z AUTO 29007KT 10SM CLR M04/M08 A3004 RMK AO2 SLP196 T10441083", "KLBL 011056Z AUTO 27006KT 10SM CLR M03/M06 A3017 RMK AO2 SLP216 T10281056 FZRANO", "KLBO 011115Z AUTO 28021G28KT 10SM CLR 02/M06 A2988 RMK AO2", "KLBT 011056Z AUTO 20013KT 10SM OVC017 19/17 A2997 RMK AO2 SLP148 T01940172", "KLBX 011053Z AUTO 00000KT 5SM BR OVC007 23/22 A3002 RMK AO2 SLP166 T02330222", "KLCG 011115Z AUTO 31016G24KT 10SM CLR M04/M08 A2993 RMK AO2 T10391083", "KLCH 011053Z 24006KT 5SM BR BKN007 OVC010 22/22 A3004 RMK AO2 SLP179 T02220217", "KLCI 011113Z AUTO 03005KT 1 1/2SM RA OVC008 01/ A2968 RMK AO2 UPE08RAB08 CIG 005V010 P0003 FZRANO", "KLCK 011055Z AUTO 17010KT 10SM CLR 11/10 A2956 RMK AO2 T01130102", "KLCQ 011115Z AUTO 20005KT 10SM SCT050 18/16 A3013 RMK AO2", "KLDM 011115Z AUTO 22012G16KT 10SM SCT009 OVC016 05/01 A2926 RMK AO2 T00460010", "KLEB 011119Z 00000KT 3SM -RA BR BKN001 OVC011 02/01 A2962 RMK AO2 P0006 T00170006", "KLEE 011053Z 19007KT 10SM CLR 19/18 A3014 RMK AO2 SLP206 T01940178", "KLEW 011124Z AUTO 02006KT 3SM UP BR OVC002 01/01 A2971 RMK AO2 P0000 FZRANO", "KLEX 011054Z 17009KT 10SM CLR 12/07 A2964 RMK AO2 SLP034 T01220067", "KLFI 011055Z 17020G28KT 10SM SCT005 BKN022 19/19 A2981 RMK AO2A PK WND 21033/15 RAB26E36 SLP101 P0000 T01890187 $", "KLFK 011126Z AUTO 00000KT 1/4SM FG VV001 14/14 A3006 RMK AO2 T01440139 $", "KLFT 011053Z 24008KT 8SM OVC012 24/22 A3004 RMK AO2 SLP172 T02390222", "KLGA 011051Z 17007KT 10SM -RA SCT025 OVC032 13/10 A2963 RMK AO2 RAE24B44 SLP033 P0000 T01330100", "KLGB 011053Z AUTO 00000KT 10SM CLR 12/08 A3012 RMK AO2 SLP198 T01170078 $", "KLGC 011115Z AUTO 22008KT 10SM OVC016 20/18 A2998 RMK AO2 LTG DSNT N T02040177", "KLGD 011056Z AUTO 18004KT 10SM -RA SCT024 BKN030 OVC042 04/02 A2985 RMK AO2 SLP117 P0001 T00390022", "KLGF 011055Z AUTO 34004KT 10SM FEW210 13/M03 A3004 RMK AO2 SLP172 T01311032 TSNO $", "KLGU 011051Z AUTO 08004KT 6SM BR FEW080 M01/M02 A3006 RMK AO2 SLP188 T10061022", "KLHB 011115Z AUTO 00000KT 1/4SM FG OVC002 10/09 A3009 RMK AO2 T00980093", "KLHM 011115Z AUTO 11003KT 10SM SCT048 04/04 A3021 RMK AO1", "KLHQ 011053Z AUTO 20010KT 10SM BKN110 12/11 A2958 RMK AO2 SLP016 T01220106", "KLHW 011055Z AUTO 18003KT 10SM CLR 18/16 A3005 RMK AO2 SLP179 T01790157 $", "KLHX 011053Z AUTO 00000KT 10SM CLR M03/M11 A3012 RMK AO2 SLP191 T10281111", "KLHZ 011115Z AUTO 20014G20KT 10SM SCT022 SCT029 18/15 A2989 RMK AO2", "KLIC 011055Z AUTO 33003KT 10SM CLR M08/M12 A3008 RMK AO2 SLP189 T10831117", "KLIT 011053Z COR 27007KT 10SM FEW250025 13/02 A2991 RMK AO2 SLP131 T01280022", "KLJF 011115Z AUTO 34015KT 10SM CLR M04/M09 A2977 RMK AO2", "KLKR 011115Z AUTO 20015G22KT 10SM SCT020 BKN080 18/15 A2992 RMK AO2 LTG DSNT NE", "KLKU 011115Z AUTO 20012G18KT 180V240 10SM VCTS OVC025 17/15 A2971 RMK AO2 LTG DSNT NE T01740148", "KLKV 011053Z AUTO 19020G28KT 10SM OVC018 01/M02 A2997 RMK AO2 PK WND 19029/1036 SLP163 T00111017 FZRANO", "KLLJ 011055Z AUTO 05003KT 10SM OVC060 M01/M04 A2987 RMK AO2 SLP117 T10061044", "KLLN 011115Z AUTO 31007KT 10SM FEW042 FEW048 03/M15 A3019 RMK AO2", "KLLQ 011053Z AUTO 24007KT 10SM CLR 18/11 A2995 RMK AO2 SLP138 T01780111", "KLMO 011115Z AUTO 23010G16KT 10SM CLR 07/M11 A3004 RMK AO2 T00691113", "KLMS 011115Z AUTO 23005KT 9SM BKN006 BKN009 OVC095 19/19 A3001 RMK AO2", "KLMT 011053Z AUTO 18010KT 10SM OVC040 04/M02 A2994 RMK AO2 SLP131 T00391017", "KLNA 011115Z AUTO 14005KT 10SM SCT020 BKN026 BKN034 25/22 A3015 RMK AO2 T02510216", "KLNC 011115Z AUTO 33011G16KT 10SM CLR 17/M06 A3007 RMK AO2 T01691060", "KLND 011053Z AUTO 00000KT 10SM CLR M04/M11 A2992 RMK AO2 SLP148 T10441106", "KLNK 011054Z AUTO 31021G30KT 10SM CLR 01/M06 A2995 RMK AO2 PK WND 32031/1027 PRESRR SLP147 T00061061", "KLNL 011115Z AUTO 02016G26KT 2 1/2SM HZ SCT007 OVC017 M04/M07 A2951 RMK AO2 VIS 1 1/4V5 T10431070", "KLNN 011115Z AUTO 23011G18KT 10SM CLR 12/03 A2945 RMK AO1 T01160026", "KLNP 011115Z AUTO 25009KT 10SM -RA SCT065 OVC090 13/12 RMK AO1 TSNO", "KLNQ 011115Z AUTO 21003KT 4SM CLR 22/21 A3007 RMK AO2 T02210207", "KLNR 011108Z AUTO 26004KT 10SM UP OVC014 02/M01 A2936 RMK AO2 UPB02 P0000 T00171011", "KLNS 011053Z 23010KT 10SM BKN025 OVC075 17/13 A2958 RMK AO2 RAE34 SLP016 P0004 T01720133", "KLOL 011053Z AUTO 00000KT 10SM CLR M01/M06 A3008 RMK AO2 SLP188 T10111061", "KLOM 011115Z AUTO 20011KT 10SM -RA OVC014 16/15 A2962 RMK AO2 T01610149", "KLOR 011115Z AUTO 20007KT 10SM OVC007 21/20 A3004 RMK AO2 SLP154", "KLOT 011055Z 26010G16KT 5 -RA BR BKN008 OVC014 02/02 A2943", "KLOU 011053Z AUTO 17009KT 10SM BKN055 12/06 A2958 RMK AO2 SLP015 T01170061", "KLOZ 011053Z AUTO 23009KT 10SM SCT110 16/14 A2974 RMK AO2 SLP062 T01610144 $", "KLPR 011053Z AUTO 23013KT 10SM CLR 11/07 A2948 RMK AO2 SLP981 T01110072", "KLQK 011115Z AUTO 22016G27KT 10SM BKN022 OVC029 19/16 A2988 RMK AO2 LTG DSNT W AND NW T01900159", "KLRD 011057Z COR 05005KT 9SM OVC010 22/20 A3001", "KLRF 011055Z AUTO 27007KT 10SM CLR 11/02 A2987 RMK AO2 SLP116 T01120020", "KLRJ 011115Z AUTO 31015G23KT 10SM CLR M03/M06 A2986 RMK AO2", "KLRO 011115Z AUTO 20010G19KT 5SM BR 21/19 A3007 RMK AO2", "KLRU 011115Z AUTO 32007KT 10SM CLR 08/M14 A3020 RMK AO2 T00751136", "KLRY 011115Z AUTO 30017G25KT 10SM SCT036 02/M04 A2995 RMK AO2", "KLSE 011053Z 36017KT 8SM -SN FEW009 OVC017 02/00 A2940 RMK AO2 PRESRR SLP962 P0003 T00170000", "KLSF 011055Z AUTO 16007KT 10SM CLR 20/19 A2998 RMK AO2 SLP156 T02020185 $", "KLSV 011055Z AUTO 09005KT 10SM CLR 08/M04 A3010 RMK AO2 SLP186 T00771041 $", "KLTS 011055Z AUTO 02016G21KT 10SM CLR 09/M04 A3011 RMK AO2 SLP190 T00881037 $", "KLUA 011115Z AUTO 24006KT 10SM -VCTSRA SCT034 SCT090 BKN110 15/12 A2963 RMK AO2 LTG DSNT E", "KLUD 011115Z AUTO 36007KT 10SM CLR 13/M04 A3009 RMK AO2 T01261045", "KLUF 011055Z AUTO 00000KT 10SM CLR 09/00 A3005 RMK AO2 SLP173 T00920004 $", "KLUG 011115Z AUTO 20007KT 10SM 17/15 A2983 RMK A01", "KLUK 011053Z 19005KT 10SM CLR 10/09 A2957 RMK AO2 SLP011 T01000094", "KLUL 011115Z AUTO 22008KT 10SM SCT016 BKN021 OVC029 22/ A3001 RMK A02 T0217////", "KLUM 011115Z 34014G19KT 3SM BKN009 OVC013 M01/M01 A2956 RMK AO2 T10071015 PWINO", "KLUV 011115Z AUTO 33005KT 10SM CLR 03/M10 A3018 RMK AO2", "KLUX 011115Z AUTO 22014G20KT 10SM BKN021 OVC026 19/16 A2992 RMK AO2 LTG DSNT NE AND NW", "KLVJ 011113Z AUTO 00000KT 1 1/2SM BR OVC020 22/21 A3004 RMK AO2 T02170206 $", "KLVK 011053Z AUTO 00000KT 10SM CLR 05/02 A3024 RMK AO2 SLP239 T00500022", "KLVL 011115Z AUTO 21011G16KT 10SM OVC023 20/16 A2981 RMK AO1 T01960160", "KLVM 011053Z AUTO 22036G45KT 10SM OVC070 03/M05 A2979 RMK AO2 PK WND 22045/1052 SLP099 T00281050", "KLVN 011115Z AUTO 35012G19KT 10SM BKN055 M02/M06 A2966 RMK AO2", "KLVS 011053Z AUTO 08009KT 10SM CLR M01/M13 A3016 RMK AO2 SLP176 T10111133", "KLWA 011115Z AUTO 28010KT 10SM SCT036 BKN044 OVC080 07/01 A2935 RMK AO2 T00660013", "KLWB 011115Z AUTO 00000KT 5SM RA BKN008 BKN019 OVC045 13/12 A2974 RMK AO2 LTG DSNT E P0004 T01300122", "KLWC 011052Z AUTO 30019G30KT 10SM BKN039 03/M04 A2994 RMK AO1 PK WND 30041/1007 SLP139 T00281044 $", "KLWD 011053Z AUTO 31027G41KT 4SM -SN BKN019 OVC027 01/M02 A2969 RMK AO2 PK WND 30046/0955 UPB44E47SNB47 SLP060 P0000 T00111022", "KLWM 011127Z 00000KT 1SM -RA BR VV003 03/03 A2968 RMK AO2 RAB08 P0004 T00330028", "KLWS 011056Z AUTO 00000KT 10SM -RA OVC050 04/03 A2983 RMK AO2 RAB20 SLP107 P0000 T00440028", "KLWT 011054Z AUTO 22012KT 10SM BKN090 OVC110 02/M04 A2976 RMK AO2 SLP090 T00171044", "KLWV 011053Z AUTO 23014KT 10SM CLR 13/02 A2950 RMK AO2 SLP987 T01330022", "KLXL 011115Z AUTO 34007G14KT 10SM CLR M03/M13 A2979 RMK AO2", "KLXN 011115Z AUTO 31007KT 10SM CLR M04/M08 A3005 RMK AO2 T10381083", "KLXT 011053Z AUTO 28017G33KT OVC035 02/M05 A2988 RMK AO2 PK WND 29038/1018 SLP118 T00221050 $", "KLXV 011053Z AUTO 04008KT 10SM OVC040 M07/M13 A3015 RMK AO2 SLP194 T10671128", "KLXY 011115Z AUTO 24007KT 10SM CLR 13/02 A3006 RMK AO2 T01320016", "KLYH 011054Z VRB04KT 8SM -RA BKN022 OVC070 16/14 A2976 RMK AO2 RAB52 SLP075 P0000 T01560139", "KLYO 011115Z AUTO 31009KT 10SM CLR 00/M06 A3010 RMK AO2 T00031062", "KLYV 011115Z AUTO 33015G22KT 10SM CLR M04/M08 A2985 RMK AO2", "KLZU 011119Z 21013G21KT 10SM VCTS -RA OVC019 19/17 A2992 RMK AO2 LTG DSNT W-N TSB13RAB11 P0000", "KLZZ 011115Z AUTO 29005KT 10SM CLR 14/M04 A3009 RMK AO2 T01381039", "KM01 011115Z AUTO 22010KT 10SM CLR 17/04 A2983 RMK AO2 T01710041 $", "KM02 011115Z AUTO 23012G19KT 10SM SCT025 BKN034 OVC041 16/09 A2976 RMK A01", "KM08 011115Z AUTO 21008KT 10SM SCT060 OVC070 17/05 A2984 RMK A01", "KM19 011056Z AUTO 22008KT 10SM BKN050 13/03 A2984 RMK AO2 SLP102 T01280028 PNO $", "KM21 011115Z AUTO 22014G20KT 10SM CLR 17/06 A2966 RMK AO2 T01670059", "KM30 011115Z AUTO 23016G25KT 10SM CLR 17/M02 A2967 RMK AO2 T01741022", "KM40 011115Z AUTO 19007KT 10SM BKN035 15/14 A2996 RMK AO2", "KM54 011110Z AUTO 20012KT 10SM SCT036 BKN041 OVC049 16/14 A2976 RMK A01", "KM75 011115Z AUTO 00000KT 8SM CLR M07/M07 A2974 RMK A01", "KM91 011110Z AUTO 21012G18KT 10SM BKN034 BKN042 OVC049 16/08 A2972 RMK A01", "KMAE 011053Z AUTO 28005KT 7SM CLR 04/03 A3021 RMK AO2 SLP228 T00390033 TSNO", "KMAF 011053Z 34007KT 9SM CLR 04/M13 A3015 RMK AO2 SLP188 T00441128 $", "KMAI 011053Z AUTO 19006KT 10SM CLR 21/20 A3006 RMK AO1 SLP176 T02060200", "KMAN 011115Z AUTO 27004KT 8SM OVC024 06/03 A2998 RMK A01", "KMAO 011115Z AUTO 21012KT 10SM SCT017 18/16 A3000 RMK AO2 LTG DSNT N", "KMAW 011115Z AUTO 25017KT 10SM SCT050 16/01 A2975 RMK AO1", "KMBG 011052Z AUTO 00000KT 10SM CLR M11/M13 A2996 RMK AO2 SLP175 T11061133", "KMBL 011056Z AUTO 24010G18KT 10SM OVC008 04/03 A2924 RMK AO2 SLP904 T00440028", "KMBO 011115Z AUTO 19004KT 10SM FEW028 BKN070 OVC090 17/17 A3001 RMK AO2", "KMBS 011053Z 23014G23KT 10SM CLR 07/01 A2929 RMK AO2 PK WND 24026/1002 SLP920 T00720011", "KMBT 011115Z AUTO 20007KT 10SM BKN034 OVC042 16/14 A2980 RMK A01", "KMBY 011115Z AUTO 26024G31KT 10SM OVC032 02/M04 A2974 RMK AO2", "KMCB 011121Z AUTO 23006KT 6SM BR FEW009 SCT013 BKN019 21/20 A3002 RMK AO2 T02110200", "KMCC 011115Z AUTO 14004KT 10SM BKN045 BKN050 06/05 A3022 RMK AO2", "KMCD 011115Z AUTO 07012G21KT 1/2SM SN OVC003 00/00 A2929 RMK AO2 T00000000 P0002", "KMCE 011053Z AUTO 34007KT 10SM CLR 07/04 A3020 RMK AO2 SLP227 T00720039", "KMCF 011055Z AUTO 18006KT 10SM CLR 21/18 A3010 RMK AO2 SLP196 T02080176 FZRANO $", "KMCI 011053Z 29015G35KT 10SM BKN032 02/M04 A2987 RMK AO2 PK WND 30038/1030 SLP113 T00221044", "KMCJ 011115Z AUTO 33005KT 3SM BR FEW021 BKN026 OVC039 22/22 A3003 RMK A01", "KMCK 011053Z AUTO 28006KT 10SM CLR M02/M06 A3008 RMK AO2 SLP201 T10221056", "KMCN 011053Z AUTO 10SM FEW013 19/18 A3002 RMK AO2 SLP161 T01940178 $", "KMCO 011053Z 00000KT 10SM FEW250 18/16 A3015 RMK AO2 SLP207 T01780161", "KMCW 011053Z AUTO 33029G38KT 10SM OVC014 M01/M03 A2956 RMK AO2 PK WND 33038/1047 SNE0957 PRESRR SLP012 P0000 T10111028", "KMCZ 011100Z AUTO 20016G25KT 10SM OVC024 19/16 A2993 RMK AO2 T01910155", "KMDD 011115Z AUTO 36005KT 10SM CLR 05/M11 A3018 RMK AO2 T00521111", "KMDH 011052Z AUTO 25017G40KT 10SM CLR 17/M02 A2959 RMK AO2 PK WND 23040/1046 SLP016 T01721022", "KMDQ 011115Z AUTO 10SM OVC075 16/15 A2989 RMK A02 LTG DSNT S T01640148", "KMDS 011115Z AUTO 32015KT 10SM CLR M08/M08 A2989 RMK AO2", "KMDT 011056Z COR 22009KT 10SM OVC019 16/13 A2957 RMK AO2 RAE54 SLP012 P0000 T01610128", "KMDW 011120Z 27014G20KT 6SM -RA BKN013 OVC019 03/01 A2940 RMK AO2 P0001 T00330006 $", "KMDZ 011115Z AUTO 01017G22KT 1/4SM OVC004 M03/M03 A2942 RMK AO2 T10271027 PWINO", "KMEB 011103Z AUTO 21013G21KT 10SM SCT016 19/16 A2996 RMK AO2 T01940161", "KMEH 011127Z AUTO 00000KT 10SM OVC001 01/00 A2978 RMK AO2 RAB02E11B20E24SNB11E20 P0001 T00060000", "KMEI 011058Z 23010KT 10SM TS SCT032 BKN050 OVC070 20/18 A3000 RMK AO2 LTG DSNT NE AND E AND SW TSB32 SLP154 P0032 I1000 T02000183", "KMEM 011054Z 22012KT 10SM FEW250 17/06 A2986 RMK AO2 SLP107 T01670056", "KMER 011115Z AUTO 34006KT 10SM CLR 06/06 A3021 RMK AO1", "KMEV 011115Z AUTO 17003KT 10SM FEW039 SCT049 BKN065 M02/M06 A3009 RMK AO2", "KMEZ 011115Z AUTO 29013G18KT 10SM CLR 14/M03 A3000 RMK AO2 T01381029", "KMFD 011052Z 19009KT 10SM CLR 10/08 A2950 RMK AO2 SLP989 T01000083", "KMFE 011123Z 08004KT 4SM BR FEW005 BKN012 BKN017 23/22 A2998 RMK AO2 T02280217", "KMFI 011125Z AUTO 02016G26KT 3SM -SN BR SCT012 BKN017 OVC031 M01/M03 A2941 RMK AO2 PK WND 01026/1123 P0000 T10111028", "KMFR 011053Z AUTO 36005KT 10SM OVC044 06/04 A3000 RMK AO2 RAB17E28 SLP161 P0000 T00610039", "KMFV 011035Z AUTO 21017G35KT 10SM OVC019 17/14 A2982 RMK AO2 T01670135", "KMGC 011115Z AUTO 28009G16KT 5SM -RA BKN033 BKN039 OVC046 05/02 A2938 RMK AO2", "KMGE 011055Z 20008G17KT 10SM -TSRA BKN010CB OVC025 19/16 A2990 RMK AO2A RAB26E37DZB41E45RAB45 SLP119 P0000 T01920164 $", "KMGG 011115Z AUTO 33016G21KT 10SM CLR M03/M09 A2976 RMK AO2 T10261086", "KMGJ 011054Z AUTO 00000KT 7SM -RA BKN018 OVC090 06/05 A2960 RMK AO2 SLP023 P0004 T00610050 $", "KMGM 011103Z 21010KT 10SM SCT018 BKN047 22/19 A3000 RMK AO2 T02220194", "KMGN 011115Z AUTO 08012G16KT 4SM BR OVC005 00/00 A2925 RMK AO2 T00020000", "KMGW 011053Z 18006KT 7SM -RA BKN055 OCV075 13/10 A2963", "KMGY 011053Z AUTO 17009KT 10SM CLR 11/09 A2952 RMK AO2 SLP995 T01110094", "KMHE 011053Z AUTO 32014KT 10SM CLR M06/M11 A2998 RMK AO2 SLP171 T10611106", "KMHK 011052Z 29009G20KT 260V330 10SM CLR 02/M06 A3002 RMK AO2 SLP168 T00171056", "KMHL 011115Z AUTO 27015G27KT 10SM OVC033 02/M03 A2984 RMK AO2", "KMHP 011115Z AUTO 20005KT 10SM OVC022 18/ A3007 RMK AO2 T0180////", "KMHS 011107Z AUTO 11005KT 9SM UP SCT008 BKN030 OVC035 02/00 A3007 RMK AO2 P0000 T00220000", "KMHT 011053Z 32004KT 1/2SM R35/4500V6000FT RA BR OVC002 03/02 A2969 RMK AO2 SFC VIS 1 1/2 RAB05E25B46UPB25E26DZB26E44 SLP070 P0002 T00280017", "KMHV 011120Z AUTO 33005KT 10SM CLR 02/M02 A3012 RMK A01", "KMIA 011053Z 13007KT 10SM SCT024 BKN040 25/21 A3014 RMK AO2 SLP206 T02500211 $", "KMIB 011055Z 21007KT 10SM CLR M14/M17 A2986 RMK AO2A SLP149 T11441168 $", "KMIC 011053Z AUTO 34015G23KT 10SM CLR M03/M08 A2968 RMK AO2 SLP059 T10281078", "KMIE 011053Z 18012G20KT 10SM CLR 12/08 A2942 RMK AO2 SLP957 T01170083", "KMIO 011115Z AUTO 30007KT 10SM FEW033 FEW039 SCT047 05/M05 A3004 RMK AO2", "KMIV 011054Z AUTO 17/15 A2969 RMK AO2 SLP052 T01670150 PWINO $", "KMIW 011053Z AUTO 31022G33KT 9SM OVC015 01/M02 A2952 RMK AO2 PK WND 31038/1043 PRESRR SLP000 T00061017", "KMJD 011115Z AUTO 24005KT 9SM OVC008 22/22 A3004 RMK AO2", "KMJQ 011115Z AUTO 34021G32KT M03/M05 A2975 RMK AO2 PWINO", "KMKC 011054Z 28020G32KT 10SM OVC036 03/M04 A2989 RMK AO2 PK WND 29041/1019 SLP120 T00281044 $", "KMKE 011052Z 27010G25KT 10SM FEW030 BKN110 04/M03 A2930 RMK AO2 PK WND 26031/1038 SLP925 T00391028", "KMKG 011055Z 21011KT 10SM SCT070 BKN110 06/02 A2934 RMK AO2 SLP936 T00560017", "KMKJ 011115Z AUTO 30012KT 5SM +RA SCT017 BKN027 OVC035 13/12 A2981 RMK AO2 LTG DSNT E P0005 T01300123", "KMKL 011053Z AUTO 22008KT 10SM CLR 16/07 A2981 RMK AO2 SLP089 T01560067", "KMKN 011115Z AUTO 29006KT 10SM 15/M07 A3012 RMK AO2 T01531072", "KMKO 011053Z AUTO 32010G21KT 10SM CLR 10/M03 A3009 RMK AO2 SLP184 T01001028", "KMKS 011115Z AUTO 22012KT 10SM CLR 20/17 A3005 RMK AO2", "KMKT 011056Z AUTO 34024G29KT 8SM BKN043 OVC055 M02/M03 A2967 RMK AO2 PK WND 35029/1054 SNE46 SLP060 T10221028 FZRANO PNO $", "KMKY 011056Z AUTO 09003KT 10SM CLR 19/17 A3014 RMK AO2 SLP206 T01890167 TSNO PNO $", "KMLB 011053Z 19005KT 10SM FEW028 BKN033 20/18 A3014 RMK AO2 SLP204 T02000183", "KMLC 011053Z AUTO 34011KT 10SM FEW065 12/M02 A3006 RMK AO2 SLP174 T01221017", "KMLE 011115Z AUTO 31015G21KT 10SM CLR M01/M05 A2992 RMK AO2 T10081053", "KMLF 011052Z AUTO 22013KT 10SM CLR 01/M05 A3013 RMK AO2 SLP192 T00061050", "KMLI 011052Z 25024G32KT 10SM BKN022 OVC028 03/M01 A2943 RMK AO2 PK WND 27043/1041 SLP965 T00281011 $", "KMLJ 011115Z AUTO VRB06G13KT 10SM BKN065 19/18 A2997 RMK AO2", "KMLP 011123Z AUTO VRB03KT 1SM -SN BR SCT003 BKN010 OVC014 M05/M06 A2968 RMK AO2 P0001 T10501061", "KMLS 011053Z AUTO 14008KT 10SM SCT100 M02/M04 A2984 RMK AO2 SLP127 T10221039", "KMLT 011122Z AUTO 10005KT 1 1/2SM -SN BR OVC008 00/M01 A2980 RMK AO2 SNB01 P0000 T00001006", "KMLU 011118Z 20006KT 4SM BR SCT014 17/16 A3000 RMK AO2 T01670156", "KMMH 011115Z AUTO 00000KT 10SM CLR M12/M15 A3015 RMK AO2 T11241155", "KMMI 011115Z AUTO 00000KT 10SM FEW041 FEW065 BKN075 15/15 A2986 RMK A01", "KMMK 011053Z AUTO 00000KT 9SM -RA BKN009 OVC021 06/04 A2966 RMK AO2 RAB50 SLP044 P0000 T00610039", "KMML 011056Z AUTO 31017KT 10SM CLR M07/M09 A2984 RMK AO2 SLP125 T10671094 FZRANO", "KMMT 011055Z AUTO 19009G17KT 10SM FEW180 19/18 A2997 RMK AO2 SLP150 T01860184 $", "KMMU 011035Z AUTO 00000KT 7SM OVC020 08/08 A2963 RMK AO2 P0001", "KMMV 011053Z AUTO 22007KT 10SM -RA OVC041 06/03 A2994 RMK AO2 RAB26 SLP139 P0000 T00560033", "KMNE 011119Z AUTO 19003KT 10SM CLR 13/13 A3001 RMK AO2", "KMNH 011115Z AUTO 20007KT 10SM CLR M02/M13 A3009 RMK AO2", "KMNI 011115Z AUTO 22008G14KT 10SM CLR 18/16 A3003 RMK AO2", "KMNM 011110Z AUTO 1 1/2SM -SN BR OVC007 00/00 A2929 RMK AO2 CIG 004V010 FZRANO PNO $", "KMNN 011053Z AUTO 19011KT CLR 11/08 A2949 RMK AO2 SLP989 T01060083 $", "KMNV 011115Z AUTO VRB05KT 10SM 14/14 A2984 RMK A01", "KMNZ 011115Z AUTO 23007KT 5SM HZ CLR 07/M02 A3012 RMK AO2 T00661022", "KMOB 011119Z 22008KT 7SM FEW014 SCT023 BKN030 23/21 A3006 RMK AO2 T02280206", "KMOD 011053Z AUTO 35006KT 10SM CLR 07/04 A3022 RMK AO2 SLP232 T00670039", "KMOP 011115Z AUTO 23009G18KT 10SM CLR 06/01 A2928 RMK AO2 T00590005", "KMOR 011115Z AUTO 24010KT 9SM FEW007 SCT060 OVC070 15/15 A2980 RMK A01", "KMOT 011054Z AUTO 21006KT 10SM CLR M08/M12 A2988 RMK AO2 SLP146 T10781117", "KMOX 011115Z AUTO 33014KT 10SM M11/M14 A2988 RMK AO2", "KMPO 011053Z AUTO 20009KT 4SM -RA BR OVC002 11/11 A2959 RMK AO2 LTG DSNT S AND SW RAB02 SLP026 P0008 T01060106", "KMPR 011115Z AUTO 30012KT 10SM CLR 01/M06 A3009 RMK AO2 T00091064", "KMPV 011121Z AUTO 00000KT 5SM RA BR OVC012 01/M01 A2960 RMK AO2 P0006 T00111006", "KMPZ 011115Z AUTO 26018G27KT 10SM -RA SCT009 SCT014 OVC023 03/01 A2953 RMK AO2", "KMQB 011115Z AUTO 26025G31KT 10SM OVC029 02/M02 A2956 RMK AO2 T00231019", "KMQI 011110Z AUTO 22020G26KT 10SM CLR 18/15 A2996 RMK AO2 T01790150", "KMQJ 011115Z AUTO 17012G16KT 10SM CLR 09/09 A2943 RMK AO1", "KMQS 011115Z AUTO 20010G18KT 160V260 10SM BKN008 BKN012 OVC022 15/15 A2961 RMK AO2", "KMQW 011115Z AUTO 21010KT 10SM OVC009 18/17 A3007 RMK AO2 T01830168", "KMQY 011056Z AUTO 17005KT 10SM CLR 15/14 A2981 RMK AO2 SLP098 T01500139", "KMRB 011053Z AUTO 18007KT 10SM SCT070 BKN080 OVC110 14/12 A2957 RMK AO2 RAB21E40 SLP013 P0000 T01390122", "KMRC 011110Z AUTO 22009KT 10SM CLR 16/16 A2981 RMK A01", "KMRF 011056Z AUTO 34004KT 10SM CLR 01/M13 A3024 RMK AO2 SLP210 T00111128 FZRANO", "KMRH 011058Z AUTO 20016KT 10SM CLR 19/16 A3002 RMK AO2 SLP165 I1000 T01890161", "KMRJ 011115Z AUTO 25008KT 4SM OVC005 01/00 A2936 RMK AO2 PWINO", "KMRN 011105Z AUTO 19011G21KT 10SM BKN024 BKN046 BKN060 20/15 A2985 RMK AO2 T01990152", "KMRT 011039Z AUTO 19009KT 10SM CLR 11/08 A2953 RMK AO1", "KMRY 011054Z AUTO 13003KT 10SM CLR 06/04 A3023 RMK AO2 SLP249 T00610039", "KMSL 011053Z AUTO 23009KT 10SM CLR 17/15 A2987 RMK AO2 SLP110 T01720150", "KMSN 011053Z 26007G16KT 230V310 10SM BKN019 OVC040 02/M02 A2932 RMK AO2 SLP932 T00171022", "KMSO 011053Z AUTO 00000KT 10SM OVC040 01/M01 A2981 RMK AO2 SLP109 T00111011", "KMSP 011053Z 36021G34KT 10SM FEW047 SCT075 SCT200 M02/M07 A2965 RMK AO2 PK WND 35034/1052 SNE16 PRESRR SLP050 P0001 T10221067 $", "KMSS 011053Z AUTO 05009KT 5SM RA BR OVC003 02/01 A2944 RMK AO2 SLP973 P0008 T00170011", "KMSV 011056Z AUTO 00000KT 1 3/4SM BR OVC003 07/07 A2958 RMK AO2 RAE55 SLP026 P0002 T00720072", "KMSY 011053Z 23005KT 7SM FEW010 OVC050 22/21 A3004 RMK AO2 SLP176 T02170211", "KMTC 011055Z AUTO 22016G21KT 10SM CLR 11/03 A2933 RMK AO2 SLP938 T01050028 $", "KMTH 011053Z AUTO 12007KT 10SM FEW023 FEW035 26/21 A3012 RMK AO2 SLP198 T02560211 $", "KMTJ 011053Z AUTO 13007KT 10SM CLR M02/M07 A3020 RMK AO2 SLP218 T10221072", "KMTK 011115Z AUTO 24008KT 10SM 24/23 A3007 RMK A01", "KMTN 011053Z 18010G21KT 10SM -RA OVC025 18/15 A2966 RMK LTG DSNT S", "KMTO 011053Z AUTO 27032G47KT 10SM FEW070 12/02 A2946 RMK AO2 PK WND 27047/1052 PRESRR SLP974 T01220017", "KMTP 011054Z AUTO 21008G17KT 10/09 A2970 RMK AO1 SLP058 P0002 T01000089", "KMTV 011115Z AUTO 22013G22KT 10SM OVC027 18/14 A2980 RMK AO2 LTG DSNT NE T01800136", "KMTW 011056Z AUTO 30011KT 5SM UP BR OVC006 01/01 A2927 RMK AO2 UPB43 SLP915 P0000 T00110006 FZRANO", "KMUO 011055Z AUTO 08007KT 10SM OVC100 04/03 A2995 RMK AO2 SLP148 T00400034 $", "KMUT 011115Z AUTO 25020G28KT 7SM -RA BKN021 OVC070 02/02 A2949 RMK AO2", "KMVE 011115Z AUTO 32014KT 10SM CLR M08/M09 A2987 RMK AO2", "KMVH 011120Z AUTO 24013G21KT 10SM CLR 02/M06 A2977 RMK AO2 PWINO", "KMVL 011123Z AUTO 15003KT 3SM RA BR SCT010 BKN018 OVC023 02/00 A2955 RMK AO2 PRESFR P0008 T00170000", "KMVN 011056Z AUTO 24021G29KT 10SM CLR 16/M02 A2954 RMK AO2 PK WND 23029/1050 SLP004 T01611017", "KMVY 011126Z 21013G19KT 1SM R24/5000VP6000FT -RA BR OVC002 10/09 A2970 RMK AO2 P0003 T01000094", "KMWA 011115Z AUTO 24015G21KT 10SM CLR 16/M01 A2961 RMK AO2 T01591013", "KMWC 011115Z AUTO 24010G18KT 10SM OVC025 01/M03 A2932 RMK AO2", "KMWH 011052Z AUTO 19009KT 10SM OVC080 07/02 A2974 RMK AO2 SLP074 T00670022", "KMWK 011105Z AUTO 21008G15KT 10SM OVC019 17/14 A2982 RMK AO2 T01670144", "KMWL 011053Z AUTO 32007KT 10SM CLR 06/02 A3008 RMK AO2 SLP180 T00610022", "KMWM 011115Z AUTO 32026G30KT CLR M04/M08 A2976 RMK AO2 PWINO", "KMWN 011054Z 18023G31KT 0SM FG VV000 00/00 RMK", "KMWO 011115Z AUTO 18006KT 10SM CLR 11/10 A2952 RMK AO2 T01070102", "KMWT 011053Z AUTO VRB05KT 10SM CLR 17/M05 A2995 RMK AO2 SLP133 T01721050", "KMXF 011125Z AUTO 20007KT 10SM FEW016 OVC044 22/17 A2997 RMK AO2 SLP150", "KMYF 011053Z AUTO 00000KT 10SM CLR 09/07 A3010 RMK AO2 SLP192 T00890072", "KMYJ 011115Z AUTO 26018G30KT 10SM SCT035 OVC065 01/M03 A2975 RMK AO2", "KMYL 011123Z AUTO 15010KT 1SM -SN BR BKN006 OVC020 M01/M01 A2984 RMK AO2 P0003 T10061011 $", "KMYR 011056Z 19010KT 10SM BKN035 19/19 A3004 RMK AO2 SLP173 T01940189", "KMYV 011053Z AUTO 12005KT 10SM BKN050 06/04 A3022 RMK AO2 SLP235 T00610039", "KMYZ 011115Z AUTO 31013G23KT 10SM SCT120 01/M04 A2998 RMK AO2", "KMZH 011115Z AUTO 36009KT 10SM CLR M04/M15 A2975 RMK AO2", "KN03 011115Z AUTO 21011G18KT 10SM -DZ SCT011 BKN023 OVC070 11/09 A2947 RMK AO2", "KN38 011115Z AUTO 21010KT 1 1/2SM -RA BKN003 BKN015 OVC026 09/09 A2951 RMK AO2 LTG DSNT S VIS 1/2V5", "KN60 011052Z AUTO 14003KT M14/M16 A2991 RMK AO1 SLP163 T11441161", "KN79 011115Z AUTO 20012G20KT 8SM SCT060 BKN075 15/14 A2953 RMK AO2 RAE1055 P0000 T01460140", "KNAK 011054Z AUTO 18009G19KT 160V220 10SM OVC033 18/14 A2967 RMK AO2 RAB26E40 SLP047 P0000 T01780144", "KNBC 011056Z AUTO 21009G16KT 10SM CLR 21/17 A3007 RMK AO2 SLP184 T02060172", "KNBG 011124Z AUTO 22004KT 2 1/2SM BR FEW012 21/21 A3004 RMK AO2 T02110211 $", "KNBT 011100Z AUTO 20016G27KT 1 NO CARRIER RING CONNECT 57600 RDUMTRNKT NKT TTAA00 KNKT 011103 COR METAR ", "KNCA 011056Z AUTO 21011G18KT 10SM CLR 19/17 A3000 RMK AO2 SLP163 T01890167", "KNDZ 011056Z AUTO 22006KT 9SM BKN009 OVC013 22/21 A3006 RMK AO2 CIG 007V011 SLP165 T02220206 $", "KNEL 011100Z AUTO 20010KT OVC016 15/13 A2964 RMK AO2 SLP037 T01500133 PNO $", "KNEW 011053Z AUTO 23007KT 10SM CLR 22/21 A3005 RMK AO2 SLP168 T02220211 $", "KNFE 011056Z AUTO 10SM BKN026 20/15 A2987 RMK AO2 SLP118 T02000150", "KNFG 011127Z AUTO 12005KT 8SM FEW004 04/03 A3012 RMK AO2 T00440033 $", "KNFL 011056Z AUTO 00000KT 10SM CLR 00/M04 A3008 RMK AO2 SLP154 T00001039", "KNFW 011052Z 33012KT 10SM CLR 15/M03 A3008 RMK AO2 PRESRR SLP168 T01501028 TSNO CHINO S VISNO S $", "KNGP 011056Z AUTO 14005KT 4SM BR OVC004 24/23 A3000 RMK AO2 SLP157 T02440228", "KNGU 011059Z 20021G32KT 10SM BKN025 OVC150 20/16 A2985 RMK AO2 PK WND 22038/1025 SLP106 T02000161 $", "KNHK 011127Z 20014G29KT 10SM FEW025 SCT050 OVC110 20/15 A2969 RMK AO2 PK WND 19031/1117 RAB23E27 TSE10 ONCL LTGIC DSNT NW CB DSNT NW T2 SET P0000 T02000150 $", "KNID 011056Z AUTO 21008KT 10SM CLR 05/M04 A3012 RMK AO2 SLP201 T00501039 $", "KNIP 011053Z 20009KT 10SM SCT250 21/16 A3013 RMK AO2 SLP198 T02060161", "KNJK 011056Z AUTO 29006KT 10SM CLR 07/M02 A3009 RMK AO2 SLP204 T00721017 $", "KNJM 011110Z AUTO 21017G26KT 5SM HZ SCT027 OVC037 22/17 A3002 RMK AO2 PK WND 20026/1101 T02170167", "KNJW 011057Z AUTO 25007KT 10SM BKN012 OVC018 19/17 A3000 RMK AO2 RAE13 TSE31 SLP073 P0000 T01940172", "KNKT 011103Z 21015G29KT 10SM BKN029 BKN037 20/18 A3002 RMK AO2 PK WND 20028/1100 T02000183", "KNKX 011055Z 07006KT 10SM CLR 06/06 A3010 RMK AO2 SLP189 T00560056", "KNLC 011056Z AUTO 31011KT 10SM CLR 07/04 A3021 RMK AO2 SLP231 T00720044", "KNMM 011056Z AUTO 24008KT 10SM TS FEW075 BKN110 19/17 A2997 RMK AO2 RAB06E55 SLP157 P0015 T01890172 $", "KNOG 011056Z AUTO 00000KT 1/2SM FG VV002 22/22 A3002 RMK AO2 SLP146 T02220217 TSNO PNO $", "KNOW 011110Z AUTO 24009KT 10SM SCT110 05/02 A2983 RMK AO2 T00500022", "KNOZ 011059Z AUTO 33003KT 10SM CLR 12/00 A3005 RMK AO2 SLP128 T01170000", "KNPA 011122Z AUTO 22005KT 1/2SM FG VV002 22/22 A3006 RMK AO2 T02170217 $", "KNQA 011050Z 23012G18KT 10SM CLR 16/04 A2982", "KNQI 011122Z AUTO 10003KT 3SM BR OVC024 22/ A3001 RMK AO2 T0222 $", "KNQX 011053Z 12011KT 10SM SCT020 BKN035 BKN250 26/22 A3011 RMK AO2 SLP196 T02560222", "KNRB 011052Z AUTO 20007KT 10SM CLR 19/17 A3012 RMK AO2 SLP198 T01940172", "KNRN 011115Z AUTO 29010KT 10SM CLR M01/M05 A3012 RMK AO2", "KNRS 011053Z AUTO 10006KT 10SM CLR 08/07 A3011 RMK AO2 SLP196 T00830067 $", "KNSE 011122Z AUTO 21007KT 7SM BKN010 OVC016 22/21 A3006 RMK AO2 T02170206 $", "KNSI 011053Z AUTO 32013KT 10SM CLR 09/08 A3012 RMK AO2 SLP197 T00940083 PNO $", "KNTD 011055Z AUTO 36005KT CLR 08/07 A3013 RMK AO2 SLP202 T00830072 CHINO S $", "KNTU 011103Z 21022G33KT 10SM BKN027 OVC250 19/16 A2985 RMK AO2 PK WND 22033/1103 T01890156", "KNUC 011056Z AUTO 32010KT CLR 09/ A3014 RMK AO2 SLP204 T0094 $", "KNUI 011128Z AUTO 21019G27KT 10SM VCTS BKN100 18/15 A2969 RMK AO2 PK WND 22027/1127 TSE25 T01830150", "KNUW 011053Z 27014G23KT 10SM BKN024 BKN029 OVC042 06/02 A2983 RMK AO2 SLP106 T00610022 VISNO $", "KNXF 011056Z AUTO VRB03KT 10SM CLR 09/08 A3011 RMK AO2 SLP283 T00940078 PWINO $", "KNXP 011056Z AUTO 00000KT 10SM CLR 06/M03 A3018 RMK AO2 SLP200 T00611033", "KNY0 011056Z AUTO 10004KT 1 3/4SM OVC004 03/02 A2951 RMK AO2 P0021", "KNYC 011051Z AUTO 8SM -RA OVC019 13/10 A2965 RMK AO2 RAB03E19B39 SLP033 P0000 T01280100", "KNYG 011111Z AUTO 20013G26KT 9SM TS FEW027 BKN039 OVC095 18/ A2968 RMK AO2 PK WND 20026/1103 RAE01 TSB05 P0001 T0183 $", "KNYL 011057Z AUTO 15004KT 10SM CLR 11/02 A3005 RMK AO2 SLP175 T01110017 $", "KNZY 011052Z AUTO 27003KT 10SM CLR 10/09 A3011 RMK AO2 SLP194 T01000089 $", "KO05 011115Z AUTO 00000KT 10SM OVC046 M03/M05 A3012 RMK A01", "KO22 011115Z AUTO 00000KT 10SM CLR 03/03 A3019 RMK A01", "KO32 011115Z AUTO 00000KT 10SM CLR 06/06 A3018 RMK AO2 T00560056 $", "KO86 011115Z AUTO 00000KT 4SM BR 04/04 A3011 RMK A01", "KOAJ 011056Z 20016G22KT 10SM SCT029 19/16 A2999 RMK AO2 SLP158 T01940161", "KOAK 011053Z 07003KT 10SM CLR 06/03 A3025 RMK AO2 SLP244 T00560033", "KOAR 011115Z AUTO 00000KT 10SM CLR 04/03 A3023 RMK AO2 PWINO", "KOBE 011115Z AUTO 00000KT 8SM CLR 16/16 A3014 RMK AO2", "KOCF 011051Z 00000KT 10SM CLR 16/14 A3014 RMK AO2 SLP207 T01560139 PNO $", "KOCH 011056Z AUTO 00000KT 1/4SM FG OVC001 13/13 A3005 RMK AO2 SLP179 T01330133 PWINO RVRNO $", "KOCQ 011115Z AUTO 36011G21KT 4SM OVC008 00/00 A2930 RMK AO1 T00000000", "KOCW 011105Z AUTO 20010G19KT 10SM BKN027 19/15 A2996 RMK AO2 T01900151", "KODO 011053Z AUTO 34006KT 10SM CLR 07/M14 A3016 RMK AO2 SLP187 T00721144", "KODX 011053Z AUTO 31015KT 10SM CLR M03/M09 A3000 RMK AO2 PK WND 31026/0956 SLP180 T10331094", "KOEB 011115Z AUTO 20004KT 10SM CLR 07/03 A2936 RMK AO2 T00650028", "KOEL 011115Z AUTO 30008KT 10SM CLR M04/M06 A3011 RMK AO1 T10411065", "KOEO 011115Z AUTO 35009G18KT 10SM CLR M02/M05 A2970 RMK AO2 T10231050", "KOFF 011055Z 32017G28KT 10SM SCT021 BKN028 BKN055 00/M05 A2990 RMK AO2A PK WND 32037/41 PRESRR SLP137 T00011055 PWINO PNO FZRANO TSNO $", "KOFK 011056Z AUTO 31018G27KT 10SM CLR M03/M09 A2993 RMK AO2 PK WND 32034/1002 SLP151 T10331089 $", "KOFP 011119Z AUTO 19018G24KT 10SM BKN030 BKN035 19/16 A2974 RMK AO2 PK WND 19028/1055 T01940156", "KOGA 011115Z AUTO 29006KT 10SM CLR M04/M05 A3005 RMK AO2 T10451049", "KOGB 011053Z AUTO 20011KT 10SM -RA FEW033 18/16 A3003 RMK AO2 SLP168 P0000 T01830161", "KOGD 011053Z AUTO 15009KT 10SM BKN120 02/M05 A3006 RMK AO2 SLP178 T00171050", "KOGS 011115Z AUTO 05005KT 3SM -RA BKN003 OVC015 03/03 A2934 RMK AO2", "KOIC 011115Z AUTO 19008KT 10SM OVC015 11/10 A2950 RMK AO2 T01050096", "KOIN 011115Z AUTO 29004KT 10SM CLR M03/M04 A3014 RMK AO1 T10291045", "KOJA 011115Z AUTO 36006KT 10SM CLR 04/M05 A3017 RMK AO2 T00441051", "KOJC 011053Z AUTO 30015G25KT 10SM FEW035 02/M06 A2989 RMK AO2 PK WND 30033/1038 SLP123 T00171056", "KOKB 011052Z AUTO 00000KT 10SM CLR 07/06 A3010 RMK AO2 SLP194 T00720061", "KOKC 011052Z 34014KT 10SM CLR 08/M04 A3012 RMK AO2 SLP195 T00781039", "KOKK 011056Z AUTO 17016KT 10SM CLR 09/08 A2937 RMK AO2 SLP945 T00940083 PNO $", "KOKM 011115Z AUTO 30008G15KT 290V360 10SM CLR 09/M04 A3010 RMK AO2 T00881038", "KOKV 011115Z AUTO 27004KT 10SM VCTS SCT055 BKN075 OVC110 15/12 A2958 RMK AO2 LTG DSNT E AND SE", "KOKZ 011115Z AUTO 20008KT 160V240 10SM BKN007 OVC014 18/16 A3002 RMK AO2 T01760163", "KOLE 011115Z AUTO 22010G14KT 10SM SCT065 OVC100 10/06 A2943 RMK AO2 LTG DSNT S", "KOLF 011053Z AUTO 00000KT 6SM BR FEW080 M09/M10 A2979 RMK AO2 SLP118 I1000 T10891100", "KOLG 011115Z AUTO 01009G15KT 10SM CLR M03/M11 A2968 RMK AO1", "KOLM 011054Z AUTO 00000KT 10SM FEW021 SCT027 BKN090 04/03 A2988 RMK AO2 RAB0955E25 SLP118 P0000 T00390028 $", "KOLS 011054Z AUTO 00000KT 10SM CLR 03/M07 A3010 RMK AO2 SLP160 T00331072", "KOLU 011056Z AUTO 31019KT 10SM CLR M02/M07 A2996 RMK AO2 PK WND 30029/1035 SLP160 T10221072 FZRANO", "KOLV 011115Z AUTO 24010KT 10SM FEW065 FEW075 16/08 A2987 RMK A01", "KOLY 011115Z AUTO 24007KT 10SM CLR 14/M01 A2952 RMK AO2 T01361008 PWINO", "KOLZ 011115Z AUTO 33021G31KT 3SM BR BKN013 OVC017 01/00 A2942 RMK A01", "KOMA 011052Z 31020G33KT 10SM FEW025 FEW045 OVC055 M01/M05 A2987 RMK AO2 PK WND 32035/1012 PRESRR SLP122 T10061050", "KOMH 011115Z AUTO 19010G14KT 10SM VCTSDZ OVC014 16/15 A2969 RMK AO2 LTG DSNT NE", "KOMK 011053Z AUTO 16008KT 10SM BKN022 OVC028 06/02 A2969 RMK AO2 SLP058 T00610022", "KOMN 011050Z 20003KT 7SM CLR 18/18 A3014 RMK FIRST", "KONA 011115Z AUTO 36013G19KT 10SM SCT017 BKN023 OVC031 00/M01 A2950 RMK AO2", "KONL 011115Z AUTO 31014G19KT 10SM CLR M05/M09 A3000 RMK AO2 T10551095", "KONM 011115Z AUTO 35004KT 10SM CLR 03/M14 A3024 RMK AO2 T00281140", "KONO 011053Z AUTO 21011G19KT 10SM -RA OVC037 08/01 A2997 RMK AO2 RAB24 SLP152 P0000 T00780011", "KONP 011115Z AUTO 24006KT 10SM BKN022 BKN032 OVC050 07/04 A3001 RMK AO2", "KONT 011053Z 04003KT 9SM SCT190 08/05 A3011 RMK AO2 SLP193 T00830050", "KONX 011105Z AUTO 20015G20KT 10SM CLR 19/15 A2990 RMK AO2 T01860146", "KONZ 011115Z AUTO 23005KT 10SM CLR 10/06 A2939 RMK AO2 T00980058", "KOOA 011115Z AUTO 29026G33KT 7SM SCT014 BKN021 OVC029 02/01 A2958 RMK AO2 T00200006", "KOPF 011053Z 14003KT 10SM FEW022 23/20 A3014 RMK AO2 SLP208 T02280200", "KOPL 011115Z AUTO 26004KT 7SM BKN012 BKN018 OVC032 22/21 A3005 RMK AO2 T02220208", "KOPN 011115Z AUTO 23011G19KT 10SM OVC015 20/15 A3001 RMK AO2", "KOQN 011115Z AUTO 21006G18KT 7SM VCTSRA OVC012 16/14 A2961 RMK AO2 P0001 LTG DSNT NE S AND SW", "KOQT 011053Z AUTO 20005KT 10SM -RA FEW055 BKN090 BKN110 15/13 A2980 RMK AO2 SLP088 P0003 T01500128", "KORB 011113Z AUTO 32003KT 10SM CLR M08/M18 A2982 RMK AO2", "KORD 011124Z 23008KT 10SM -RA FEW013 SCT024 OVC046 02/00 A2938 RMK AO2 P0000 T00220000 $", "KORE 011117Z AUTO 32003KT 2 1/2SM RA BR OVC006 02/01 A2966 RMK AO2 P0009 T00220011", "KORF 011119Z 21028G33KT 10SM -RA SCT026 19/16 A2983 RMK AO2 PK WND 21035/1109 P0000 T01890156", "KORG 011115Z AUTO 00000KT 4SM BR SCT007 BKN038 OVC050 24/22 A3006 RMK AO2 T02380222", "KORH 011121Z 05003KT M1/4SM R11/1200V1600FT -RA FG VV002 02/01 A2963 RMK AO2 RAE1056B14UPB10E14 P0000 T00220011", "KORL 011053Z 00000KT 10SM CLR 19/17 A3015 RMK AO2 SLP212 T01890167", "KORS 011115Z AUTO 18006KT 10SM FEW055 SCT110 05/02 A2979 RMK AO2", "KOSA 011115Z AUTO 27008KT 10SM CLR 12/03 A3004 RMK AO2 T01250027", "KOSC 011115Z AUTO 31007KT 10SM BKN006 OVC011 03/03 A2924 RMK AO2 T00260026", "KOSH 011110Z 33006KT 3SM -SN BR BKN005 OVC010 01/00 A2930 RMK AO2 UPB06E10SNB10 P0000 T00110000", "KOSU 011053Z 19009KT 10SM CLR 12/09 A2953 RMK AO2 SLP999 T01220094", "KOTG 011056Z AUTO 33022G28KT 10SM SCT036 M04/M08 A2978 RMK AO2 PK WND 33033/1010 SLP108 T10441078 FZRANO PNO $", "KOTH 011056Z AUTO 17006KT 10SM FEW012 BKN019 OVC044 07/06 A3006 RMK AO2 RAE47 SLP177 P0001 T00670061", "KOTM 011053Z AUTO 28021G35KT 8SM UP FEW016 BKN023 OVC029 02/M01 A2955 RMK AO2 PK WND 29035/1013 RAB21E30UPB30 PRESRR SLP007 P0000 T00171006", "KOUN 011115Z AUTO 34013KT 10SM CLR 08/M04 A3011 RMK AO2 T00791042", "KOVE 011053Z AUTO 11004KT 10SM FEW050 BKN090 09/04 A3022 RMK AO2 SLP234 T00890044", "KOVL 011115Z AUTO 33012KT 10SM CLR M04/M08 A2980 RMK A", "KOVS 011053Z AUTO 23004KT 10SM OVC013 02/M01 A2934 RMK AO2 SNB16E34 SLP939 P0000 T00171006", "KOWA 011113Z AUTO 34015G23KT 4SM -SN SCT017 SCT023 BKN055 M02/M04 A2963 RMK AO2", "KOWB 011056Z 22014KT 10SM CLR 15/06 A2960 RMK AO2 SLP023 T01500056", "KOWD 011053Z 00000KT 1/4SM FG VV002 06/04 A2968 RMK AO2 SLP049 T00560044", "KOWI 011110Z AUTO 30015G27KT 10SM CLR 02/M04 A2996 RMK AO2", "KOWP 011115Z AUTO 31007G14KT 270V330 10SM CLR 08/M03 A3011 RMK AO2 T00821031", "KOWX 011115Z AUTO 18006KT 10SM CLR 09/07 A2944 RMK AO1", "KOXB 011053Z AUTO 22017G28KT 10SM -RA FEW022 SCT100 BKN120 16/14 A2977 RMK AO2 PK WND 22028/1044 RAE13B37 SLP081 P0001 T01610144", "KOXC 011121Z 16008KT 2SM RA BR BKN003 OVC043 09/09 A2961 RMK AO2 PRESFR P0006", "KOXD 011115Z AUTO 18011G15KT 10SM CLR 12/10 A2950 RMK AO2 T01200098", "KOXI 011115Z AUTO 14008KT 10SM SCT070 OVC100 05/05 A2931 RMK AO1", "KOXR 011051Z AUTO 01003KT 10SM CLR 09/08 A3012 RMK AO2 SLP198 T00890078", "KOXV 011115Z AUTO 30021G31KT 10SM BKN013 OVC018 01/M02 A2961 RMK AO2", "KOYM 011115Z AUTO 24004KT 10SM SCT075 OVC095 11/07 A2952 RMK AO2 LTG DSNT SE P0001 PWINO", "KOZA 011115Z AUTO 10SM BKN095 05/M08 A3017 RMK AO2", "KOZR 011105Z AUTO 18007KT 10SM FEW005 SCT190 20/20 A3004 RMK AO2 SLP173", "KOZS 011115Z AUTO 28018G25KT 10SM CLR 02/M06 A2989 RMK AO2", "KOZW 011115Z AUTO 24009KT 10SM CLR 08/01 A2936 RMK AO2 T00780006", "KP08 011115Z AUTO 09005KT 10SM CLR 05/00 A3007 RMK AO2", "KP28 011056Z AUTO 31009KT 03/M05 A3012 RMK AO1 SLP199 T00281050 $", "KP52 011105Z AUTO 29003KT 10SM CLR 05/M03 A3015 RMK AO2", "KP53 011056Z AUTO 02022G33KT M02/M03 A2941 RMK AO1 PK WND 02036/1030 SLP967 P0008 T10221028", "KP58 011055Z AUTO 24013G25KT 10/00 A2922 RMK AO1 PK WND 25026/1005 SLP897 T01000000", "KP59 011051Z AUTO 08027G41KT M03/M07 A2960 RMK AO1 PK WND 09046/0953 PRESRR SLP034 T10281072", "KP60 011056Z AUTO 00000KT M06/M07 A2992 RMK AO1 SLP152 T10561067 $", "KP68 011053Z AUTO 19003KT M01/M07 A3007 RMK AO1 SLP170 T10061067", "KP69 011052Z AUTO 36003KT 04/03 A2989 RMK AO1 SLP130 P0001 T00390028 $", "KP92 011059Z AUTO 00000KT 20/20 A3004 RMK AO1 SLP172 T02000200", "KPAE 011116Z AUTO 18009KT 10SM SCT029 OVC038 04/02 A2983 RMK AO2 T00390022", "KPAH 011053Z 24015G26KT 10SM SCT060 19/M02 A2966 RMK AO2 PK WND 21029/1003 SLP039 T01891022", "KPAM 011055Z 19008KT 10SM SCT009 21/21 A3006 RMK AO2A SLP182 T02140205 $", "KPAN 011115Z AUTO 00000KT 10SM CLR 05/M09 A3017 RMK AO2 PWINO TSNO", "KPBF 011053Z AUTO 23010KT 10SM CLR 16/04 A2991 RMK AO2 SLP128 T01610044", "KPBG 011053Z AUTO 14011KT 3SM -RA BR OVC004 03/02 A2949 RMK AO2 PRESFR SLP988 P0010 T00280017", "KPBH 011115Z AUTO 01018G28KT M04/M05 A2950 RMK AO2 T10401053 PWINO", "KPBI 011053Z 15007KT 10SM SCT020 SCT250 24/21 A3015 RMK AO2 SLP208 T02440206", "KPBX 011115Z AUTO 23005KT 10SM SCT026 BKN036 OVC110 15/15 A2972 RMK AO2 LTG DSNT E T01480148", "KPCD 011115Z AUTO 28023G36KT 10SM CLR 15/02 A2963 RMK AO2 T01450021", "KPCM 011115Z AUTO 10SM CLR 19/17 A3017 RMK AO2", "KPCW 011115Z AUTO 22009KT 10SM CLR 10/10 A2943 RMK AO2", "KPCZ 011115Z AUTO 34008G14KT 4SM -SN SCT007 BKN012 OVC021 01/00 A2934 RMK AO2 T00130002", "KPDC 011115Z AUTO 29008KT 10SM OVC010 02/00 A2935 RMK AO2 T00150000", "KPDK 011101Z 20015G25KT 10SM VCTS BKN021 OVC050 20/17 A2991 RMK AO2 LTG DSNT W-N T02000167", "KPDT 011053Z AUTO 28010G16KT -RA FEW028 OVC038 07/03 A2983 RMK AO2 WSHFT 1001 RAB05E19B36 SLP098 P0001 T00670028", "KPDX 011053Z 20010KT 10SM FEW020 FEW040 OVC080 07/04 A2992 RMK AO2 RAB0957E12 SLP132 P0000 T00720044", "KPEA 011115Z AUTO 30021G30KT 10SM OVC014 01/M02 A2960 RMK AO2 T00071017", "KPEO 011053Z AUTO 19013KT 10SM BKN080 11/09 A2941 RMK AO2 RAB13E24 SLP960 P0000 T01110094", "KPEQ 011115Z AUTO 00000KT 10SM CLR 05/M19 A3017 RMK AO2 T00451190", "KPEX 011115Z AUTO 33009KT 10SM CLR M05/M11 A2980 RMK AO2", "KPEZ 011115Z AUTO 02004KT 7SM BKN009 OVC013 21/20 A3007 RMK AO2 T02110201", "KPGA 011053Z AUTO 00000KT 10SM CLR 03/M04 A3019 RMK AO2 SLP207 T00331039", "KPGD 011053Z AUTO 14005KT 10SM CLR 18/16 A3015 RMK AO2 SLP208 T01780161", "KPGV 011105Z AUTO 22014G22KT 10SM SCT025 20/18 A2993 RMK AO2", "KPHD 011053Z AUTO 21003KT 10SM OVC110 12/08 A2955 RMK AO2 SLP008 T01220083", "KPHF 011054Z AUTO 21019G27KT 10SM OVC024 18/16 A2983 RMK AO2 PK WND 21030/1032 RAB15E26 SLP100 P0000 T01830156", "KPHL 011124Z 21014G23KT 10SM -TSRA SCT018 OVC024CB 17/15 A2963 RMK AO2 RAE1057B13 TSB24 OCNL LTGCG VC SW TS VC SW MOV NE P0000 T01720150", "KPHN 011115Z AUTO 21008G14KT 180V250 10SM CLR 11/01 A2934 RMK AO2", "KPHP 011055Z AUTO 28005KT 10SM CLR M13/M13 A3000 RMK AO2 SLP190 T11281128 $", "KPHT 011115Z AUTO 23014G20KT 10SM FEW028 SCT039 BKN060 15/05 A2974 RMK A01", "KPHX 011051Z 08005KT 10SM FEW160 SCT250 13/01 A3004 RMK AO2 SLP164 T01280006", "KPIA 011054Z 27018G30KT 10SM FEW026 BKN043 OVC070 04/M01 A2949 RMK AO2 PK WND 27034/1040 RAE00 SLP985 P0000 T00441011 $", "KPIB 011056Z AUTO VRB03KT 7SM BKN017 OVC031 22/22 A3003 RMK AO2 SLP165 T02220217", "KPIE 011053Z 15005KT 10SM CLR 20/18 A3013 RMK AO2 SLP204 T02000178", "KPIH 011053Z AUTO 19019G25KT 10SM OVC070 04/M03 A2999 RMK AO2 PK WND 19029/1027 SLP157 T00441033", "KPIL 011053Z AUTO 12005KT 4SM BR OVC017 22/22 A2997 RMK AO2 SLP149 T02220222", "KPIM 011115Z AUTO 22011G19KT 10SM OVC009 20/18 A3000 RMK AO2 T02000176", "KPIR 011053Z AUTO 29006KT 10SM CLR M11/M13 A3001 RMK AO2 UPB00E50SNE00 SLP190 P0000 T11111133 $", "KPIT 011051Z 21007KT 10SM FEW065 BKN120 12/09 A2954 RMK AO2 RAE20 SLP010 P0001 T01220089 $", "KPJC 011115Z AUTO 20005KT 10SM SCT110 11/09 A2954 RMK AO2 LTG DSNT SE", "KPKB 011053Z 19007KT 10SM OVC090 12/11 A2964 RMK AO2 RAE0956 SLP035 P0000 T01220106 $", "KPKD 011053Z AUTO 36010KT 10SM CLR M06/M16 A2983 RMK AO2 SLP120 T10611161", "KPKV 011115Z AUTO 23004KT 4SM BR SCT004 BKN013 OVC018 24/23 A3003 RMK AO2 T02420230", "KPLN 011054Z AUTO 09008KT 9SM BKN007 OVC012 01/00 A2927 RMK AO2 SNE48 CIG 004V009 SLP919 P0008 T00060000", "KPLR 011115Z AUTO 31008G20KT 3SM BR FEW012 BKN018 OVC033 16/15 A2997 RMK A01", "KPLU 011115Z AUTO 00000KT 10SM -DZ FEW014 SCT027 BKN039 05/03 A2987 RMK AO2", "KPMD 011053Z AUTO 00000KT 10SM CLR 04/01 A3013 RMK AO2 SLP200 T00390006", "KPMH 011115Z AUTO 17006KT 10SM SCT090 12/10 A2964 RMK AO2 LTG DSNT E T01170100", "KPMP 011053Z 15010KT 10SM FEW021 FEW028 SCT034 25/21 A3014 RMK AO2 SLP206 T02500206", "KPMU 011115Z AUTO 25008KT 10SM FEW031 SCT055 BKN065 17/08 A2990 RMK AO2", "KPMV 011115Z AUTO 31015G27KT 10SM SCT024 00/M04 A2990 RMK AO2 T10051045", "KPNA 011115Z AUTO 04003KT 10SM SCT043 OVC048 M09/M10 A3005 RMK AO2", "KPNC 011053Z AUTO 30006KT 10SM CLR 04/M05 A3010 RMK AO2 SLP187 T00391050", "KPNE 011054Z 21010G19KT 9SM -RA OVC015 17/14 A2963 RMK AO2 RAB48 SLP034 P0000 T01720144", "KPNM 011115Z AUTO 33013G16KT 10SM CLR M03/M11 A2976 RMK AO2 TSNO", "KPNS 011119Z COR 22009KT 1SM BR OVC003 23/22 A3006 RMK AO2 T02280217", "KPNT 011115Z AUTO 26012KT 10SM SCT021 BKN038 OVC055 04/02 A2945 RMK AO2 LTG DSNT E T00380022", "KPO1 011120Z AUTO 17003KT 9SM OVC075 M03/M04 A2979 RMK AO2", "KPOB 011055Z AUTO 20016G25KT 10SM OVC015 19/16 A2993 RMK AO2 SLP137 T01930161 $", "KPOE 011125Z AUTO 28004KT 6SM BR BKN008 BKN012 21/21 A3003 RMK AO2 SLP169", "KPOF 011053Z AUTO 26017G26KT 10SM CLR 18/M03 A2972 RMK AO2 PK WND 26026/1052 SLP061 T01781028", "KPOU 011053Z AUTO VRB04KT 8SM BKN022 OVC090 11/09 A2958 RMK AO2 RAB05E49 SLP012 P0004 T01110094", "KPOV 011115Z AUTO 23005KT 10SM CLR 10/06 A2950 RMK AO2 T01020059 PWINO", "KPOY 011115Z AUTO 13009KT 10SM OVC070 M02/M07 A2985 RMK AO2", "KPPA 011115Z AUTO 00000KT 10SM 03/M03 A3018 RMK AO2 T00251034", "KPPF 011052Z AUTO 32019G27KT 10SM CLR 04/M06 A3004 RMK AO2 PK WND 32030/1031 SLP170 T00391061", "KPPO 011115Z AUTO 31007KT 10SM -RA OVC050 05/05 A2936 RMK AO2 LTG DSNT SW T00510051", "KPPQ 011115Z AUTO 26027G37KT 10SM OVC060 04/M03 A2965 RMK AO2 T00361030", "KPQI 011056Z AUTO 14010G16KT 10SM OVC011 M01/M02 A2982 RMK AO2 SLP130 T10061022", "KPQL 011106Z AUTO VRB03KT 10SM OVC005 22/22 A3005 RMK AO2 CIG 002V008 T02220217", "KPRB 011122Z AUTO 05003KT 10SM FEW005 03/02 A3020 RMK AO2 T00330017", "KPRC 011053Z AUTO 20003KT 8SM CLR 00/M06 A3016 RMK AO2 SLP185 T00001061", "KPRG 011115Z AUTO 27030G46KT 10SM SCT060 SCT070 12/04 A2946 RMK AO2 T01190036", "KPRN 011125Z AUTO 23009KT 10SM SCT010 BKN046 21/19 A3002 RMK AO2 T02060194", "KPRO 011115Z AUTO 33029G36KT 10SM OVC017 01/M02 A2970 RMK AO2 T00101021", "KPRS 011115Z AUTO 35006KT 10SM CLR 13/M07 A3016 RMK AO2 T01251071", "KPRX 011056Z AUTO 34013KT 10SM CLR 14/M02 A3003 RMK AO2 SLP165 T01441017", "KPSC 011053Z AUTO 23011KT 10SM OVC095 09/03 A2982 RMK AO2 SLP097 T00940028", "KPSF 011126Z AUTO 00000KT 2 1/2SM RA BR BKN004 OVC008 04/03 A2957 RMK AO2 P0012 T00390028", "KPSK 011115Z AUTO 22007KT 4SM +RA OVC013 14/14 A2976 RMK AO2 LTG DSNT E P0007 T01410137", "KPSM 011105Z 34005KT 5/8SM R16/P6000FT -DZ FG OVC001 03/02 A2969 RMK AO2A SLP057", "KPSN 011115Z AUTO 00000KT 7SM BKN035 BKN042 BKN055 08/08 A3004 RMK AO2", "KPSO 011115Z AUTO 10SM CLR M08/M10 A3025 RMK AO2 T10841102", "KPSP 011053Z AUTO 34006KT 10SM CLR 12/02 A3010 RMK AO2 SLP193 T01170017", "KPSX 011124Z AUTO 19003KT 2 1/2SM BR SCT003 BKN025 OVC032 23/23 A3003 RMK AO2 T02280228 $", "KPTB 011115Z AUTO 21004G22KT 10SM BKN023 OVC120 19/15 A2978 RMK AO2 P0001 T01880151", "KPTD 011115Z AUTO 05005KT 9SM -RA OVC026 04/03 A2937 RMK AO2", "KPTK 011053Z 24013G26KT 10SM FEW200 09/M01 A2934 RMK AO2 PK WND 24026/1045 SLP937 T00941011", "KPTN 011128Z AUTO 24004KT 5SM BR BKN008 OVC038 21/21 A3007 RMK AO2 $", "KPTS 011115Z AUTO 30010G17KT 270V330 10SM CLR 03/M05 A3000 RMK AO2 T00301047 PWINO", "KPTT 011115Z AUTO 33010KT 10SM CLR 01/M05 A3011 RMK AO2 T00061055", "KPTV 011056Z AUTO 00000KT 10SM CLR 04/04 A3021 RMK AO2 SLPNO T00440039", "KPTW 011054Z AUTO 20010G19KT 140V230 10SM -RA OVC018 16/13 A2962 RMK AO2 LTG DSNT N RAB27 SLP026 P0000 T01560133", "KPUB 011053Z 15007KT 10SM CLR M02/M14 A3010 RMK AO2 SLP187 T10221144 $", "KPUC 011053Z AUTO 03005KT 10SM CLR M03/M08 A3014 RMK AO2 SLP232 T10331078", "KPUJ 011115Z AUTO 00000KT 4SM +TSRA BKN006 OVC013 18/18 A2992 RMK AO2 LTG DSNT ALQS", "KPUW 011117Z AUTO 18009KT 9SM -RA FEW010 BKN017 OVC030 02/01 A2980 RMK AO2 P0001 T00220011", "KPVB 011115Z AUTO 24011KT 3SM OVC008 00/00 A2936 RMK AO1 T00041005", "KPVC 011111Z AUTO 20011KT 5SM BR BKN008 OVC030 08/08 A2971 RMK AO2", "KPVD 011102Z 19007KT 7SM OVC009 09/09 A2967 RMK AO2 RAE1057 P0001 T00890089", "KPVF 011115Z AUTO 10004KT 10SM CLR 04/02 A3019 RMK AO1", "KPVG 011056Z AUTO 10SM BKN023 BKN028 18/16 A2987 RMK AO2 RAE01 SLP114 P0000 T01830156 $", "KPVJ 011115Z AUTO 33008KT 10SM CLR 09/M02 A3011 RMK AO2 T00941020", "KPVU 011056Z AUTO 11004KT 10SM CLR M01/M04 A3014 RMK AO2 SLP214 T10111039 FZRANO", "KPVW 011115Z AUTO 00000KT 10SM CLR 02/M11 A3018 RMK AO2 T00201115", "KPWA 011053Z AUTO 34009KT 10SM CLR 07/M04 A3013 RMK AO2 SLP198 T00671044", "KPWC 011115Z AUTO 35008G14KT 10SM CLR M05/M14 A2986 RMK AO2", "KPWD 011115Z AUTO 16006KT 7SM OVC075 M08/M08 A2977 RMK AO2", "KPWG 011056Z AUTO 23004KT 10SM CLR 09/02 A3009 RMK AO2 SLP182 T00890022", "KPWK 011120Z AUTO 24011G17KT 10SM FEW016 SCT031 OVC050 04/01 A2939 RMK AO2 RAE12 P0000 T00390006", "KPWM 011113Z 06007KT 1SM -RA BR OVC002 04/03 A2971 RMK AO2 RAB04 P0000 T00390033", "KPWT 011056Z AUTO 19011KT 10SM BKN075 03/03 A2984 RMK AO2 SLP112 T00330028", "KPXE 011115Z AUTO 21009KT 10SM SCT015 19/18 A3003 RMK AO2 T01900183", "KPYM 011119Z AUTO 21006KT 2 1/2SM -RA BR OVC003 09/08 A2967 RMK AO2 RAB10 CIG 003V006 P0003 T00940083", "KPYX 011050Z AUTO 35006KT 10SM CLR A3015 RMK AO2", "KPZQ 011115Z AUTO 06006KT 5SM -SN OVC003 00/M01 A2927 RMK AO2 T10051007", "KQAZ 011055Z AUTO 10014G20KT 9999 CLR 33/M07 A3002 RMK AO2 SLP162 WND DATA ESTMD T03321069", "KQBL 011125Z AUTO VRB05KT 4SM BR FEW006 SCT008 BKN014 BKN018 OVC025 22/22 A3009 RMK AO2 SLP195 WND DATA ESTMD", "KQD3 011055Z AUTO 04009G17KT 010V080 8000 HZ CLR 35/22 A2976 RMK AO2 LTG DSNT SW SLP062 WND DATA ESTMD T03450221", "KQDG 011055Z AUTO 36010KT 9999 CLR 07/01 A3010 RMK AO2 SLP195 T00670014 $", "KQEI 011130Z AUTO 34003KT 9999 FEW130 15/02 A3002 RMK A02 TSNO", "KQEJ 011120Z AUTO 07001KT 9999 CLR 15/M00 A3000 RMK A02 TSNO", "KQEN 011130Z AUTO 02003KT 9999 FEW090 09/02 A3009 RMK A02 TSNO", "KQEP 011130Z AUTO 30001KT 9999 BKN120 18/01 A2999 RMK A02 TSNO", "KQEQ 011130Z AUTO 15003KT 6000 HZ CLR 14/03 A3001 RMK A02 TSNO", "KQER 011120Z AUTO 10002KT 9999 OVC110 19/M00 A2995 RMK A02 TSNO", "KQES 011120Z AUTO 07001KT 6000 HZ CLR 17/00 A3005 RMK A02 TSNO", "KQEV 011120Z AUTO 21001KT 8000 HZ CLR 17/M01 A2993 RMK A02 TSNO", "KQEW 011130Z AUTO 05002KT 9999 CLR 18/M01 A3001 RMK A02 TSNO", "KQEX 011120Z AUTO 05001KT 9999 CLR 18/M02 A2994 RMK A02 TSNO", "KQEY 011120Z AUTO 10002KT 9999 CLR 19/M04 A2968 RMK A02 TSNO", "KQFB 011120Z AUTO 02002KT 9999 CLR 17/01 A3007 RMK A02 TSNO", "KQFT 011120Z AUTO 01001KT 9999 BKN130 19/01 A2996 RMK A02 TSNO", "KQFU 011130Z AUTO 14001KT 9999 CLR 18/01 A3002 RMK A02 TSNO", "KQFV 011130Z AUTO 12003KT 9999 OVC100 15/01 A3003 RMK A02 TSNO", "KQFW 011120Z AUTO 36003KT 9999 BKN110 18/M03 A2983 RMK A02 TSNO", "KQFX 011130Z AUTO 24001KT 9999 SCT120 18/02 A2995 RMK A02 TSNO", "KQHY 011119Z AUTO 23006KT 6SM BR BKN009 OVC019 22/22 A3008 RMK AO2 CIG 009V017 BKN V SCT SLP193", "KQN3 011055Z 11004G15KT 3600 DU CLR 38/M05 A2993 RMK AO2A SLP123 WND DATA ESTMD T03791055", "KQRH 011055Z AUTO 07010G17KT 6000 HZ FEW220 32/24 A2972 RMK AO2 LTG DSNT SW SLP067 WND DATA ESTMD T03200244", "KQTZ 011055Z 27006G15KT 9999 SKC 17/M05 A3008 RMK SLP190", "KQVF 011055Z AUTO 17014G20KT 9999 CLR 32/23 A2981 RMK AO2 SLP097 WND DATA ESTMD T03240232", "KRAC 011053Z AUTO 25011G23KT 10SM BKN095 04/M03 A2933 RMK AO2 PK WND 25026/1000 SLP934 T00391028", "KRAL 011053Z AUTO 04005KT 10SM CLR 08/06 A3011 RMK AO2 SLP186 T00830061", "KRAP 011052Z AUTO 00000KT 4SM BR CLR M12/M12 A2995 RMK AO2 SLP193 I1000 T11221122 $", "KRAS 011115Z AUTO 11005KT 3SM BR SCT003 OVC024 22/22 A3003 RMK AO2 T02220220", "KRAW 011115Z AUTO 28013G21KT 10SM OVC035 01/M05 A2991 RMK AO2", "KRBD 011053Z AUTO 31015G23KT 10SM CLR 17/M06 A3004 RMK AO2 SLP165 T01671056", "KRBG 011109Z AUTO 30007KT 6SM -RA FEW015 OVC028 07/03 A3004 RMK AO2 P0003 T00670033", "KRBL 011054Z AUTO 18010KT 10SM CLR 08/04 A3016 RMK AO2 SLP214 T00780044", "KRBO 011115Z AUTO 12004KT 4SM BR SCT003 SCT021 22/22 A3002 RMK AO2 T02230220", "KRBW 011115Z AUTO 21008KT 10SM CLR 18/17 A3007 RMK AO2", "KRCA 011055Z 00000KT 10SM CLR M08/M10 A2991 RMK AO2A SLP178 T10761096 $", "KRCE 011055Z AUTO 35013KT 10SM -UP SCT055 06/M04 A3014 RMK AO2", "KRCM 011115Z AUTO 27013G23KT 10SM BKN038 02/M05 A2989 RMK AO2", "KRCR 011115Z AUTO 14010KT 10SM FEW055 BKN110 08/06 A2932 RMK AO2 LTG DSNT E AND W", "KRCV 011115Z AUTO 26005KT 10SM CLR M09/M14 A3024 RMK AO2 T10901145", "KRCX 011115Z AUTO 36025G33KT OVC012 M02/M02 A2954 RMK AO2 T10211021 PWINO", "KRCZ 011115Z AUTO 20009G18KT 10SM SCT017 19/16 A2995 RMK AO2 T01850160", "KRDD 011053Z AUTO 20009KT 10SM SCT050 OVC070 10/04 A3015 RMK AO2 SLP207 T01000039", "KRDG 011054Z 24007KT 200V280 5SM -RA OVC018 17/14 A2959 RMK AO2 LTG DSNT NE RAB10E36B42 SLP023 P0003 T01670139", "KRDK 011115Z AUTO 31019G30KT 10SM BKN018 BKN023 OVC028 00/M02 A2986 RMK AO2", "KRDM 011116Z AUTO 23009KT 9SM -RA SCT016 OVC029 04/01 A2983 RMK AO2 P0000 T00390011 $", "KRDR 011055Z AUTO 31004KT 10SM CLR M13/M17 A2993 RMK AO2 SLP158 T11311173 $", "KRDU 011051Z 22017G26KT 10SM BKN020 BKN180 19/16 A2989 RMK AO2 PK WND 21029/1029 SLP117 T01940156 $", "KREG 011115Z AUTO 25003KT 10SM OVC009 23/22 A3004 RMK AO2 T02310222", "KREO 011052Z AUTO 21012KT 05/M06 A2993 RMK AO1 SLP136 T00501061", "KRFD 011115Z 26018G34KT 10SM SCT027 SCT037 OVC050 02/M03 A2939 RMK AO2 PK WND 26034/1109 T00221033 $", "KRFI 011115Z AUTO 00000KT 7SM CLR 11/09 A3005 RMK AO2 T01130086", "KRGA 011115Z AUTO 22011KT 10SM CLR 15/12 A2970 RMK AO2", "KRGK 011115Z AUTO 36010G19KT 2SM -SN BKN011 BKN015 OVC021 M02/M03 A2960 RMK AO2", "KRHI 011053Z AUTO 02012G25KT 1/2SM FZFG VV005 M04/M06 A2942 RMK AO2 PK WND 01027/1013 SLP982 T10441061 PWINO FZRANO $", "KRHP 011116Z AUTO 25011G18KT 7SM -RA BKN015 OVC022 17/16 A2986 RMK AO2 P0003 T01710158", "KRIC 011054Z 20018G26KT 10SM SCT025 BKN150 OVC250 19/15 A2976 RMK AO2 PK WND 19029/1024 SLP081 T01890150", "KRID 011115Z AUTO 18012KT 10SM CLR 08/08 A2949 RMK AO2", "KRIL 011053Z AUTO 00000KT 10SM CLR M01/M05 A3019 RMK AO2 SLP223 T10111050", "KRIV 011055Z AUTO 00000KT 10SM CLR 04/04 A3010 RMK AO2 SLP193 T00380038 VISNO RWY14 $", "KRIW 011053Z AUTO 21007KT 10SM CLR M03/M10 A2993 RMK AO2 SLP151 T10281100", "KRKD 011056Z AUTO 09010KT 5SM BR OVC003 03/03 A2978 RMK AO2 UPE0959RAB0959E32 SLP083 P0000 T00330033", "KRKP 011108Z AUTO VRB03KT 4SM BR OVC004 23/23 A3001 RMK AO2 T02280228", "KRKR 011115Z AUTO 29005KT 10SM CLR 13/M03 A3005 RMK AO2", "KRKS 011054Z AUTO 18007KT 10SM BKN080 M04/M08 A3007 RMK AO2 SLP203 T10391083", "KRKW 011115Z AUTO 26008KT 240V300 10SM FEW100 16/09 A2983 RMK A01", "KRLD 011115Z AUTO 23011G18KT 10SM BKN100 10/03 A2981 RMK AO2 T00950027", "KRME 011053Z 12009KT 10SM -RA BKN021 BKN041 OVC050 06/06 A2946 RMK AO2 RAE17B35 SLP978 P0003 T00610056", "KRMG 011123Z AUTO 19004KT 8SM VCTS -RA BKN090 OVC110 17/13 A2990 RMK AO2 WSHFT 1040 LTG DSNT ALQDS TSE17 P0010 T01670133", "KRMN 011115Z AUTO 19010G14KT 10SM TS BKN025 OVC033 20/18 A2968 RMK AO2 LTG DSNT NE AND E T02020177", "KRMY 011115Z AUTO 00000KT 10SM CLR 06/00 A2935 RMK AO2 T00610000", "KRNC 011115Z AUTO 23006KT 10SM SCT037 SCT110 16/14 A2983 RMK A01", "KRND 011055Z AUTO 33009KT 10SM CLR 13/07 A3006 RMK AO2 SLP173 T01250065", "KRNH 011115Z AUTO 35018G22KT 10SM SCT060 M03/M04 A2964 RMK AO2 T10301040", "KRNM 011123Z AUTO 00000KT 2 1/2SM BR CLR 02/01 A3009 RMK AO2 T00170006 $", "KRNO 011055Z 06004KT 10SM BKN240 02/M04 A3009 RMK AO2 SLP175 T00221044", "KRNP 011115Z AUTO 24012G19KT 10SM CLR 08/M01 A2934 RMK AO2 T00771007", "KRNT 011053Z AUTO 19007KT 10SM FEW019 SCT080 06/03 A2986 RMK AO2 SLP115 T00560028", "KROA 011101Z VRB04KT 8SM RA OVC030 17/14 A2976 RMK AO2 P0001 T01670139", "KROC 011054Z 25014KT 10SM FEW120 13/10 A2933 RMK AO2 SLP935 T01280100", "KROG 011058Z 31014G22KT 10SM CLR 07/M05 A3001 RMK AO2 PK WND 30028/1048 SLP154 T00721050", "KROS 011115Z AUTO 35009G15KT 10SM CLR M01/M10 A2971 RMK AO2 T10101097", "KROW 011051Z AUTO 33004KT 10SM CLR 05/M14 A3017 RMK AO2 SLP182 T00501139", "KROX 011115Z AUTO 00000KT 10SM CLR M09/M17 A2992 RMK AO2", "KRPD 011115Z AUTO 36021G29KT OVC020 M02/M03 A2959 RMK AO2 T10231035 PWINO", "KRPH 011115Z AUTO 01005KT 10SM CLR 09/M05 A3012 RMK AO2 T00861047 $", "KRPJ 011115Z AUTO 27017G21KT 10SM BKN028 BKN032 OVC055 02/00 A2941 RMK AO2 T00181003 TSNO", "KRPX 011101Z AUTO 10SM 01/M06 A2974 RMK Roundup ", "KRQB 011115Z AUTO 23009KT 10SM CLR 04/00 A2928 RMK AO2 T00350000", "KRQE 011053Z AUTO 00000KT 10SM CLR M06/M08 A3024 RMK AO2 SLP221 T10561083", "KRQO 011115Z AUTO 34012KT CLR 04/M04 A3016 RMK AO2 PWINO T00431045", "KRRT 011115Z AUTO 00000KT 10SM CLR M11/M16 A2993 RMK AO2", "KRSL 011053Z AUTO 30010KT 10SM CLR 00/M07 A3007 RMK AO2 SLP188 T00001072", "KRSN 011115Z AUTO 20005KT 10SM CLR 16/16 A3000 RMK AO2 T01590159 $", "KRSP 011125Z AUTO 7SM -RA SCT005 BKN042 OVC070 A2959 RMK AO2 RAE02B22 P0000 $", "KRST 011054Z 35022G33KT 9SM OVC010 M02/M03 A2949 RMK AO2 PK WND 35034/1013 UPB0956E01B20E43SNE0956B01E20 CIG 008V013 PRESRR SLP000 P0000 T10171028 $", "KRSW 011053Z 00000KT 10SM CLR 20/17 A3013 RMK AO2 SLP201 T02000172", "KRTN 011053Z AUTO 05006KT 10SM CLR M03/M13 A3014 RMK AO2 SLP189 T10331133", "KRTS 011115Z AUTO 27006G17KT 10SM CLR 03/M06 A3010 RMK AO2", "KRUE 011053Z AUTO 28012G21KT 10SM BKN060 16/M02 A2991 RMK AO2 SLP123 T01611017", "KRUG 011115Z AUTO 15004KT 10SM CLR M17/M19 A2993 RMK AO2", "KRUQ 011105Z AUTO 20016G21KT 10SM OVC023 18/14 A2986 RMK AO2 T01770142", "KRUT 011056Z AUTO 15013G18KT 10SM -RA BKN017 BKN024 OVC037 03/02 A2956 RMK AO2 SLP012 P0007 T00280022 $", "KRVF 011115Z AUTO 20008KT 10SM OVC055 00/M05 A2987 RMK AO2", "KRVJ 011115Z AUTO 00000KT 10SM OVC024 17/16 A3008 RMK AO2 T01730163", "KRVL 011115Z AUTO 11003KT 2SM BR OVC037 08/08 A2954 RMK AO2", "KRVS 011053Z AUTO 32007KT 290V360 10SM CLR 08/M04 A3008 RMK AO2 PK WND 34026/1011 SLP193 T00831039", "KRWF 011053Z AUTO 31013G22KT 10SM CLR M03/M08 A2978 RMK AO2 PK WND 32026/1030 SLP096 T10331083 $", "KRWI 011114Z AUTO 19016G25KT 10SM SCT022 19/15 A2990 RMK AO2 T01940150", "KRWL 011053Z AUTO 24011G22KT 10SM CLR M03/M08 A3006 RMK AO2 SLP188 T10281078", "KRWV 011115Z AUTO 35004KT 10SM CLR 13/12 A3008 RMK AO2 T01320123", "KRXE 011053Z AUTO 18013G21KT 10SM FEW050 OVC065 01/M03 A2996 RMK AO2 SLP157 T00111033", "KRYM 011055Z AUTO 35011KT 10SM CLR M04/M13 A2977 RMK AO2 SLP100 T10431127 $", "KRYV 011115Z AUTO 25008KT 10SM OVC021 01/M02 A2932 RMK AO2 T00121025", "KRYW 011115Z AUTO 25004KT 10SM CLR 14/M01 A3012 RMK AO2 T01421011", "KRYY 011050Z AUTO 22009KT 5SM TSRA BR SCT020 BKN026 OVC036 19/17 A2993 RMK AO2 LTG DSNT SW-N TSB14E28B39RAB15 SLP125 P0013 T01890172 $", "KRZL 011115Z AUTO 29016G22KT 10SM -TSRA SCT041 SCT065 OVC090 06/03 A2939 RMK AO2 LTG DSNT NW", "KRZN 011115Z AUTO 01013G17KT 10SM CLR M03/M10 A2969 RMK AO2 T10301100", "KRZR 011115Z AUTO 20005KT 10SM BKN085 BKN120 18/18 A2983 RMK A01", "KRZT 011115Z AUTO 18005KT 10SM CLR 11/11 A2960 RMK AO2 PWINO", "KS21 011115Z AUTO 20009KT 3/4SM -SN OVC003 00/M00 A2986 RMK AO2", "KS24 011115Z AUTO 20009KT 10SM FEW075 11/08 A2945 RMK AO2 LTG DSNT SE AND SW", "KS25 011115Z AUTO 17005KT 10SM CLR M04/M05 A2984 RMK AO2", "KS32 011115Z AUTO 34006KT 10SM CLR M16/M17 A2994 RMK AO2 TSNO", "KS33 011115Z AUTO 21010G15KT 7SM RA BKN025 OVC031 A2988 RMK AO2 P0001", "KS34 011055Z AUTO 00000KT 10SM M01/M21 A2981 RMK Plains ", "KS39 011115Z AUTO 22015G23KT 10SM BKN028 OVC034 05/00 A2983 RMK AO2", "KS52 011115Z AUTO 00000KT 10SM OVC027 02/00 A2967 RMK AO2 T00210000", "KS85 011110Z AUTO 06006KT 10SM BKN075 BKN090 M08/M08 A2978 RMK A01 Culbertson ", "KSAA 011115Z AUTO 23015KT 10SM CLR M03/M08 A3007 RMK AO2", "KSAD 011051Z AUTO 13007KT 10SM CLR 03/M09 A3013 RMK AO2 SLP185 T00331089", "KSAF 011053Z AUTO 36009KT 10SM CLR M03/M11 A3022 RMK AO2 SLP212 T10281111", "KSAN 011051Z 28003KT 10SM FEW015 SCT190 10/08 A3013 RMK AO2 SLP201 T01000078", "KSAR 011115Z AUTO 26027G41KT 10SM CLR 14/M01 A2962 RMK AO2 T01381009", "KSAT 011051Z 32005KT 10SM SCT250 13/04 A3009 RMK AO2 SLP173 T01330044", "KSAV 011053Z 21007KT 10SM BKN220 19/16 A3008 RMK AO2 SLP186 T01940156", "KSAW 011047Z 02031G35KT 1/4SM +SN OVC003 M04/M04 A2940", "KSAZ 011115Z AUTO 35009G15KT 10SM CLR M05/M14 A2982 RMK AO2", "KSBA 011053Z AUTO 00000KT 10SM CLR 08/05 A3012 RMK AO2 SLP198 T00780050 $", "KSBD 011120Z AUTO 07004KT 10SM CLR 06/02 A3012 RMK AO2 T00620021", "KSBM 011125Z AUTO 31009KT 2 1/2SM BR SCT007 BKN013 OVC022 02/02 A2929 RMK AO2 RAB06E17UPB17E25 P0000 T00220017", "KSBN 011054Z 20003KT 10SM SCT055 BKN120 06/02 A2935 RMK AO2 SLP939 T00610022", "KSBO 011115Z AUTO 22005KT 10SM OVC013 19/19 A3007 RMK AO2", "KSBP 011056Z 32009KT 10SM CLR 08/06 A3018 RMK AO2 SLP218 T00830056", "KSBS 011115Z AUTO 00000KT 10SM OVC065 M04/M04 A3014 RMK AO1 T10411041", "KSBY 011054Z 20020G31KT 10SM -RA BKN017 BKN120 18/16 A2975 RMK AO2 PK WND 21033/0957 SLP076 P0001 T01830156", "KSCD 011115Z AUTO 22013G18KT 10SM BKN020 OVC026 22/19 A2995 RMK AO2 LTG DSNT N AND NW T02150190", "KSCK 011055Z AUTO 34005KT 10SM CLR 07/03 A3023 RMK AO2 SLP235 T00670033", "KSCR 011105Z AUTO 20012G19KT 10SM BKN020 OVC025 18/17 A2989 RMK AO2 T01840170", "KSCX 011115Z AUTO 20008KT 10SM SCT041 SCT049 BKN110 15/13 A2980 RMK A01", "KSDA 011115Z AUTO 31016G25KT 270V340 10SM OVC024 01/M02 A2987 RMK AO2", "KSDB 011051Z AUTO 31007KT 10SM CLR 06/M06 A3014 RMK AO2 SLP186 T00561056 $", "KSDC 011115Z AUTO 17006KT 10SM CLR 11/08 A2933 RMK AO2", "KSDF 011056Z 19013KT 10SM SCT050 17/07 A2958 RMK AO2 SLP013 T01670067", "KSDL 011053Z AUTO 00000KT 10SM CLR 10/02 A3007 RMK AO2 SLP169 T01000022", "KSDM 011053Z AUTO 13005KT 10SM CLR 06/04 A3009 RMK AO2 SLP189 T00610044", "KSDY 011056Z AUTO 19007KT 10SM CLR M04/M05 A2983 RMK AO2 SLP131 T10391050 FZRANO", "KSEA 011100Z 19011KT 10SM SCT014 BKN022 BKN190 05/03 A2985 RMK AO2 T00500028 $", "KSEE 011115Z AUTO 30004KT 10SM CLR 05/05 A3010 RMK AO2", "KSEF 011115Z AUTO 00000KT 10SM CLR 16/ A3016 RMK AO2 T0165////", "KSEG 011053Z AUTO 00000KT 4SM BR FEW007 BKN024 OVC055 11/10 A2955 RMK AO2 RAE40 TSE01 SLP007 P0002 T01060100", "KSEM 011115Z AUTO 20010G15KT 10SM FEW017 FEW045 OVC085 22/21 A2998 RMK AO2 LTG DSNT N AND W", "KSEP 011115Z AUTO 32004KT 10SM CLR 12/M04 A3011 RMK AO2 T01151043", "KSEQ 011055Z AUTO 05003KT 10SM OVC006 14/12 A3006 RMK AO2 OVC V BKN SLP176 T01380122", "KSET 011054Z AUTO 29030G49KT 10SM CLR 06/M03 A2966 RMK AO2 PK WND 29052/1043 SLP042 T00611033", "KSEZ 011115Z AUTO 04009KT 10SM CLR 06/M06 A3015 RMK AO2", "KSFB 011053Z 20003KT 10SM CLR 19/17 A3015 RMK AO2 SLP207 T01940172", "KSFF 011108Z AUTO 18007KT 7SM -RA OVC014 03/01 A2975 RMK AO2 P0001 T00330011", "KSFM 011113Z AUTO 36005KT 3SM -RA BR OVC002 01/01 A2970 RMK AO2 P0001 FZRANO", "KSFO 011056Z 00000KT 10SM CLR 08/05 A3024 RMK AO2 SLP241 T00780050", "KSFQ 011115Z AUTO 21015G25KT 10SM OVC027 19/16 A2987 RMK AO2 LTG DSNT N T01920159", "KSFZ 011110Z AUTO 12004KT 1/2SM FG OVC003 06/06 A2965 RMK AO2 RAE04 P0000", "KSGF 011052Z 29013G24KT 10SM CLR 03/M06 A2992 RMK AO2 PK WND 28039/1014 SLP129 T00331056", "KSGH 011056Z AUTO 18009KT 10SM CLR 11/11 A2953 RMK AO2 SLP001 T01060106", "KSGJ 011056Z 21005KT 10SM 19/17 A3014 RMK AO2 SLP204 T01890167 $", "KSGR 011123Z 34004KT 2SM BR OVC014 21/21 A3005 RMK AO2 T02060206 $", "KSGT 011056Z AUTO 25013KT 10SM CLR 15/05 A2991 RMK AO2 SLP128 T01500050", "KSGU 011056Z AUTO 18004KT 10SM CLR 04/M01 A3019 RMK AO2 SLP218 T00441006", "KSHD 011115Z AUTO 21012G18KT 10SM -RA SCT075 OVC095 15/13 A2967 RMK AO2 LTG DSNT E T01520131", "KSHL 011115Z AUTO 33021G30KT 10SM FEW037 SCT044 M03/M07 A2979 RMK AO2", "KSHM 011055Z AUTO 00000KT 10SM CLR M01/M15 A3005 RMK AO2 SLP184 T10131152 $", "KSHN 011119Z AUTO 24006KT 7SM RA FEW012 BKN026 OVC070 03/02 A2985 RMK AO2 RAB04 P0002 T00280022", "KSHR 011053Z AUTO 18003KT 10SM CLR M02/M11 A2987 RMK AO2 SLP140 T10171111", "KSHV 011056Z 24008KT 10SM FEW250 14/11 A3000 RMK SLPNO", "KSIF 011105Z AUTO 21011G18KT 10SM BKN025 OVC033 19/15 A2979 RMK AO2 T01850147", "KSIK 011115Z AUTO 24015G22KT 10SM CLR 15/03 A2972 RMK AO2", "KSIY 011053Z AUTO 17016KT 10SM -RA OVC040 07/01 A3000 RMK AO2 RAB13 SLP167 P0000 T00670006", "KSJC 011053Z AUTO 16003KT 10SM CLR 06/02 A3024 RMK AO2 SLP241 T00610022 $", "KSJS 011115Z AUTO 27008G16KT 240V310 10SM SCT042 BKN050 BKN065 15/09 A2972 RMK AO2 T01500086", "KSJT 011051Z AUTO 25006KT 10SM CLR 04/M04 A3015 RMK AO2 SLP200 T00441044", "KSJX 011115Z AUTO 06011G16KT 2SM UP OVC003 01/01 A2929 RMK AO2 T00050005", "KSKA 011115Z AUTO 19009KT 9SM -SN OVC004 00/M01 A2970 RMK AO2 CIG 003 RWY05 SLP071", "KSKF 011055Z AUTO 33008KT 10SM CLR 12/08 A3004 RMK AO2 SLP168 T01240083", "KSKX 011056Z AUTO 00000KT 10SM CLR M07/M12 A3027 RMK AO2 SLP266 T10671122 FZRANO", "KSLB 011115Z AUTO 32023G28KT 10SM BKN048 OVC055 M02/M04 A2977 RMK AO2", "KSLC 011054Z 15008KT 10SM FEW150 BKN200 03/M03 A3007 RMK AO2 SLP176 T00281028", "KSLE 011056Z AUTO 19010KT 10SM BKN037 OVC045 05/03 A2995 RMK AO2 SLP143 T00500033", "KSLG 011056Z AUTO 32013KT 10SM CLR 07/M03 A3003 RMK AO2 PK WND 32026/1005 SLP161 T00721033", "KSLH 011115Z AUTO 05010G15KT 2SM -SN OVC003 00/00 A2928 RMK AO2 VIS 1 1/4V2 1/2", "KSLI 011055Z AUTO 00000KT 10SM CLR 08/07 A3008 RMK AO2 SLP189 T00780072", "KSLK 011051Z AUTO 01003KT 7SM -RA BKN019 OVC060 01/00 A2941 RMK AO2 UPB25E40 SLP973 P0009 T00060000", "KSLN 011053Z AUTO 29016KT 10SM CLR 01/M06 A3008 RMK AO2 SLP186 T00111056", "KSLO 011115Z AUTO 30025G38KT 10SM CLR 12/02 A2957 RMK AO2 T01200020", "KSLR 011115Z AUTO 33010KT 10SM CLR 16/00 A3006 RMK AO2 T01551003", "KSMD 011115Z AUTO 09003KT 10SM CLR 08/04 A2938 RMK A01", "KSME 011115Z AUTO 24011G18KT 10SM CLR 17/16 A2972 RMK AO2", "KSMF 011053Z 11004KT 10SM FEW050 FEW200 08/04 A3021 RMK AO2 SLP229 T00830039", "KSMN 011056Z AUTO 00000KT 10SM OVC065 01/M02 A2988 RMK AO2 SLP816 T00111022 FZRANO", "KSMO 011051Z AUTO 02003KT 10SM CLR 09/06 A3012 RMK AO2 SLP197 T00940061", "KSMP 011122Z AUTO 27007G17KT 230V300 2 1/2SM -SN BR FEW004 BKN011 OVC016 M03/M04 A2970 RMK AO2 VIS 1 3/4V3 P0000 T10281044", "KSMQ 011053Z AUTO 10SM OVC019 15/13 A2960 RMK AO2 RAB02E29 SLP023 P0001 T01500133", "KSMS 011115Z AUTO 19011KT 9SM CLR 19/17 A3001 RMK AO2 LTG DSNT NE", "KSMX 011051Z AUTO 00000KT 10SM CLR 04/04 A3018 RMK AO2 SLP224 T00440039", "KSNA 011053Z AUTO 00000KT 10SM CLR 11/07 A3011 RMK AO2 SLP197 T01060072", "KSNC 011115Z AUTO 19007KT 1/4SM -RA OVC001 10/10 A2966 RMK AO2", "KSNK 011115Z AUTO 14004KT 10SM CLR 08/M15 A3017 RMK AO2 T00781154", "KSNL 011115Z AUTO 34009KT 10SM CLR 07/M06 A3013 RMK AO2 T00731056", "KSNS 011053Z AUTO 30003KT 10SM CLR 07/04 A3022 RMK AO2 SLP243 T00720044", "KSNT 011051Z AUTO 15009G17KT M01/M04 A2989 RMK AO1 SLP103 P0001 T10111039", "KSNY 011053Z AUTO 27008KT 10SM CLR M04/M07 A3001 RMK AO2 SLP192 T10391072", "KSOA 011115Z AUTO 00000KT 10SM 04/M08 A3019 RMK AO2", "KSOP 011056Z AUTO 21013G20KT 10SM OVC016 18/17 A2993 RMK AO2 SLP137 T01830167 TSNO", "KSOW 011115Z AUTO 00000KT 10SM CLR M02/M08 A3021 RMK AO2", "KSPA 011115Z AUTO 21011G21KT 180V250 10SM OVC025 19/15 A2988 RMK AO2 LTG DSNT NW", "KSPB 011053Z AUTO 00000KT 10SM BKN042 BKN050 OVC055 05/03 A2992 RMK AO2 SLP130 T00500033", "KSPD 011056Z AUTO 24004KT M04/M13 A3013 RMK AO1 SLP190 T10441128 $", "KSPF 011115Z AUTO 00000KT 10SM CLR M02/M06 A2990 RMK AO2", "KSPG 011053Z 20006KT 10SM CLR 22/19 A3012 RMK AO2 SLP199 T02170189", "KSPI 011052Z 26017G30KT 10SM CLR 06/M02 A2954 RMK AO2 PK WND 26043/1021 SLP001 T00561017", "KSPK 011115Z AUTO 13010KT 00/M05 A3013 RMK AO2 PWINO", "KSPS 011052Z AUTO 36007KT 10SM CLR 08/M02 A3011 RMK AO2 SLP190 T00781017 $", "KSPW 011053Z AUTO 33025G34KT 8SM UP OVC050 M01/M06 A2974 RMK AO2 PK WND 33035/1030 SLP081 P0000 T10111061", "KSQL 011115Z AUTO 00000KT 8SM CLR 06/04 A3026 RMK AO2", "KSRB 011115Z AUTO 21007KT 10SM BKN036 BKN041 14/14 A2981 RMK AO2", "KSRC 011056Z AUTO 24003KT 10SM CLR 12/02 A2988 RMK AO2 SLP117 T01220017", "KSRE 011115Z AUTO 33010KT 10SM OVC055 09/M04 A3011 RMK AO2", "KSRQ 011053Z 00000KT 10SM CLR 19/16 A3011 RMK AO2 SLP197 T01890161", "KSRR 011115Z AUTO 29007KT 10SM 03/M15 A3026 RMK AO2", "KSSC 011055Z AUTO 19013KT 10SM SCT180 18/16 A2998 RMK AO2 SLP152 T01840158 $", "KSSF 011053Z AUTO 36005KT 10SM CLR 17/ A3005 RMK AO2 SLP165 T0172 $", "KSSI 011053Z AUTO 21007G17KT 10SM CLR 22/16 A3010 RMK AO2 SLP193 T02170161", "KSTC 011053Z AUTO 34010G18KT 10SM CLR M03/M10 A2974 RMK AO2 SLP093 T10331100", "KSTE 011115Z AUTO 36007KT 3SM UP OVC012 01/M01 A2937 RMK AO2 T00071006", "KSTF 011115Z AUTO 18004KT 9SM FEW030 BKN037 24/24 A2995 RMK AO2", "KSTJ 011053Z AUTO 30025G32KT 10SM OVC030 02/M04 A2988 RMK AO2 PK WND 27040/1003 PRESRR SLP119 T00221039", "KSTK 011115Z AUTO 29003KT 10SM CLR M01/M06 A3003 RMK AO2", "KSTL 011051Z 29025G38KT 10SM CLR 08/M03 A2966 RMK AO2 PK WND 28046/1029 PRESRR SLP039 T00781033 $", "KSTP 011053Z 34013G24KT 10SM BKN060 M02/M06 A2966 RMK AO2 PK WND 34033/1041 SNE15 PRESRR SLP048 P0000 T10171061", "KSTS 011053Z 35004KT 9SM CLR 03/02 A3024 RMK AO2 SLP235 T00330022", "KSUA 011047Z 14004KT 6SM BR SCT015 SCT028 21/17 A3016", "KSUE 011056Z AUTO 01016G23KT 1 1/2SM -SN BR OVC004 00/00 A2925 RMK AO2 UPE21SNB21 SLP910 P0000 T00000000 FZRANO", "KSUN 011115Z AUTO 00000KT 10SM SCT029 BKN046 OVC050 00/M01 A2997 RMK AO2", "KSUS 011054Z 26025G41KT 10SM CLR 06/M04 A2968 RMK AO2 PK WND 27042/0955 SLP048 T00611039", "KSUT 011110Z AUTO 21009KT 160V230 7SM SCT028 BKN035 BKN041 19/17 A3005 RMK AO2 T01850167", "KSUU 011055Z AUTO 23005KT 10SM CLR 05/03 A3021 RMK AO2 SLP237 T00540026 $", "KSUW 011115Z AUTO 01009G14KT 10SM CLR M04/M15 A2975 RMK AO2 T10401146", "KSUX 011052Z 31019G31KT 10SM CLR M03/M07 A2987 RMK AO2 PK WND 32035/1033 UPE48 SLP125 P0000 T10331067 $", "KSUZ 011115Z AUTO 00000KT 9SM FEW050 10/06 A2994 RMK A01", "KSVC 011115Z AUTO 34003KT 10SM CLR M01/M12 A3021 RMK AO2 T10141119", "KSVE 011115Z AUTO 03003KT 10SM BKN060 03/M03 A3010 RMK AO2", "KSVH 011105Z AUTO 21012G23KT 170V230 10SM OVC021 19/15 A2984 RMK AO2 T01900150", "KSVN 011105Z AUTO 20006KT 10SM CLR 19/10 A3006 RMK AO2 SLP182 $", "KSWO 011053Z 32008KT 10SM CLR 07/M06 A3010 RMK AO2 SLP188 T00671056", "KSWW 011115Z AUTO 26008KT 10SM CLR 10/M13 A3019 RMK AO2 T00981129", "KSXK 011115Z AUTO 32019G26KT 10SM OVC055 M04/M07 A2984 RMK AO2", "KSXS 011055Z AUTO 23004KT 7SM OVC006 21/20 A3003 RMK AO2 LTG DSNT N OVC V BKN SLP168 T02060204", "KSXT 011056Z AUTO 20011G22KT 1/4SM -SN FG VV002 00/00 A2993 RMK AO2 UPE56SNB29E39B56 SLP152 P0000 T00000000", "KSXU 011115Z AUTO 32003KT 10SM CLR 02/M11 A3017 RMK AO2 T00241108", "KSYF 011115Z AUTO 24007KT 10SM CLR M04/M05 A3009 RMK AO2 T10451055 PWINO", "KSYI 011115Z AUTO 21008KT 10SM CLR 16/13 A2983 RMK A01", "KSYM 011115Z AUTO 19006KT 10SM FEW044 SCT095 11/10 A2967 RMK AO2 P0001", "KSYN 011115Z AUTO 36017KT 3SM -SN SCT014 BKN041 OVC047 M02/M03 A2963 RMK AO2 T10181031", "KSYR 011054Z 19012G23KT 10SM FEW035 BKN050 BKN120 13/09 A2939 RMK AO2 SLP951 T01330094 $", "KSZL 011055Z 28014G23KT 10SM BKN036 02/M05 A2984 RMK AO2A PK WND 27028/29 SLP107 T00191055 $", "KSZT 011115Z AUTO 00000KT 10SM -RA OVC012 01/01 A2975 RMK AO2", "KSZY 011115Z AUTO 22005KT 10SM 16/09 A2985 RMK A01", "KT20 011115Z AUTO 00000KT 1/2SM FG OVC003 20/20 A3007 RMK AO2 T01990199", "KT35 011115Z AUTO 00000KT 10SM CLR 11/06 A3009 RMK AO2 T01080062", "KT41 011115Z AUTO 00000KT M1/4SM FG OVC024 20/20 A3004 RMK AO2 T02000200", "KT69 011115Z AUTO 00000KT 1 3/4SM BR SCT007 BKN021 22/22 A3002 RMK A01", "KT70 011055Z AUTO 35007KT 10SM BKN095 14/M00 A3006 RMK AO2 SLP168 T01411004 $", "KT74 011115Z AUTO 00000KT 10SM CLR 07/05 A3009 RMK AO2 T00720053", "KT78 011115Z AUTO 00000KT 3/4SM BR OVC003 21/21 A3004 RMK AO2", "KT82 011115Z AUTO 34004KT 10SM CLR 07/M01 A3014 RMK AO2 T00661006", "KT89 011115Z AUTO 33003KT 10SM BKN050 BKN060 17/M09 A3011 RMK A01", "KTAD 011054Z AUTO 27006KT 10SM CLR M06/M14 A3013 RMK AO2 SLP193 T10561139", "KTAN 011052Z AUTO A2968 RMK AO2 SLPNO PWINO FZRANO TSNO PNO $", "KTAZ 011115Z AUTO 27022G34KT 10SM CLR 06/M01 A2957 RMK AO2 T00611009 PWINO", "KTBN 011055Z AUTO 28013G19KT 10SM CLR 05/M06 A2982 RMK AO2 PK WND 30030/14 PRESRR SLP097 T00481064", "KTBR 011115Z AUTO 18006KT 10SM BKN027 OVC033 18/15 A3007 RMK AO2 T01750150", "KTCC 011053Z AUTO 31005KT 10SM CLR 00/M11 A3013 RMK AO2 SLP185 T00001106", "KTCL 011127Z AUTO VRB03KT 10SM -RA SCT023 BKN030 OVC042 16/13 A2997 RMK AO2 PK WND 31026/1054 WSHFT 1039 LTG DSNT SW RAE1055B09 P0001 T01560128", "KTCM 011055Z AUTO 21010KT 10SM -RA BKN028 BKN044 OVC085 04/04 A2987 RMK AO2 RAB46 CIG 028V048 CIG 023 RWY34 SLP120 P0000 T00430043 $", "KTCS 011053Z AUTO 32007KT 10SM CLR 05/M14 A3021 RMK AO2 SLP187 T00501144", "KTCY 011115Z AUTO 30005KT 10SM OVC046 06/05 A3023 RMK A01", "KTDF 011105Z AUTO 20012G22KT 10SM SCT021 BKN026 BKN035 17/15 A2985 RMK AO2", "KTDR 011111Z AUTO 19010KT 6SM BR SCT012 BKN018 OVC210 22/21 A3003 RMK AO2 CIG 011V018 BKN V OVC SLP173 $", "KTDZ 011053Z AUTO 20009KT 10SM CLR 11/07 A2943 RMK AO2 SLP965 T01060067 $", "KTEB 011051Z 19005KT 9SM -RA OVC021 13/11 A2961 RMK AO2 RAB25 SLP027 P0003 T01280111", "KTEW 011115Z AUTO 24006KT 10SM CLR 08/M01 A2937 RMK AO2 T00751006", "KTEX 011115Z AUTO 14007KT 10SM CLR M07/M13 A3024 RMK AO2", "KTFP 011035Z AUTO 00000KT 2SM OVC003 23/22 A3001 RMK AO2 T02320224", "KTHA 011115Z AUTO 22005KT 10SM FEW080 FEW095 16/16 A2985 RMK A01", "KTHM 011055Z AUTO 00000KT 10SM M01/M02 A2986 RMK Thompson Falls ", "KTHV 011053Z AUTO 21013G21KT 10SM -RA FEW065 OVC100 17/13 A2958 RMK AO2 RAE0959B43 SLP016 P0000 T01670128", "KTIF 011115Z AUTO 00000KT 10SM CLR M07/M09 A3002 RMK AO2 T10701092", "KTIK 011055Z AUTO 34012KT 10SM CLR 08/M05 A3009 RMK AO2 SLP192 T00761048 $", "KTIP 011115Z AUTO 28024G34KT 10SM SCT015 SCT024 OVC036 07/03 A2946 RMK AO2 T00660032", "KTIW 011115Z 21008KT 10SM SCT014 BKN024 BKN120 04/02 A2987 RMK AO2 RAE11 P0001 T00440022", "KTIX 011050Z 22004KT 7SM CLR 20/19 A3015", "KTKC 011115Z AUTO 32020G27KT 8SM OVC055 M06/M09 A2983 RMK AO2", "KTKI 011053Z 34013KT 10SM OVC034 15/M04 A3005 RMK AO2 SLP176 T01501039", "KTKV 011115Z AUTO 01007G19KT 350V050 OVC004 M03/M04 A2945 RMK AO2 T10301045 PWINO", "KTKX 011115Z AUTO 24011KT 8SM BKN050 OVC075 14/04 A2977 RMK AO2", "KTLH 011110Z 17004KT 6SM BR BKN005 OVC008 19/18 A3009 RMK AO2 T01890183", "KTMA 011115Z AUTO 19006KT 4SM BR OVC002 18/18 A3010 RMK AO2 CIG 002V004 T01770177 $", "KTMB 011053Z 12003KT 10SM FEW021 24/21 A3014 RMK AO2 SLP204 T02390206", "KTMK 011110Z AUTO 06004KT 10SM SCT019 BKN030 OVC060 05/03 A2996 RMK AO2", "KTMT 011115Z AUTO 21005KT 10SM CLR 00/M05 A3009 RMK AO2 T10031052", "KTNB 011115Z AUTO 20003G18KT 5SM RA OVC004 13/13 A2985 RMK AO2 LTG DSNT NE AND SW P0003 T01280128", "KTNU 011115Z AUTO 31023G30KT 10SM OVC014 01/01 A2958 RMK A01", "KTOB 011115Z AUTO 34018G23KT 4SM -SN M03/M03 A2957 RMK AO2", "KTOC 011115Z AUTO 20010KT 10SM RA BKN019 OVC027 19/16 A2990 RMK AO2 LTG DSNT SW T01860161", "KTOI 011117Z AUTO 21008KT 10SM SCT013 BKN021 OVC035 23/19 A3004 RMK AO2 T02280194", "KTOL 011052Z 21007KT 10SM CLR 11/06 A2942 RMK AO2 SLP961 T01060056 $", "KTOP 011053Z AUTO 30016G29KT 10SM FEW038 03/M05 A2996 RMK AO2 PK WND 28029/1044 SLP146 T00281050", "KTOR 011053Z AUTO 29011KT 10SM CLR 00/M07 A2999 RMK AO2 SLP171 T00001072 $", "KTPA 011053Z 17005KT 10SM SCT280 21/17 A3014 RMK AO2 SLP206 T02110172", "KTPF 011115Z AUTO 18007KT 10SM OVC100 21/18 A3015 RMK AO2", "KTPH 011056Z AUTO 01007KT 10SM CLR M02/M04 A3014 RMK AO2 SLP202 T10171039", "KTPL 011051Z AUTO 29003KT CLR 07/07 A3009 RMK AO2 SLP182 T00720072 PWINO RVRNO $", "KTQE 011054Z AUTO 31022G34KT 10SM BKN050 BKN065 M02/M06 A2988 RMK AO2 PK WND 31036/1033 PRESRR SLP122 T10171061", "KTQH 011115Z AUTO 32005KT 10SM CLR 07/M05 A3007 RMK AO2", "KTQK 011115Z AUTO 27008KT 10SM CLR M03/M05 A3014 RMK AO2 T10271054", "KTQV 011115Z AUTO 18013G26KT 150V210 10SM BKN019 OVC029 19/15 A2986 RMK A01", "KTRI 011109Z 24014G27KT 6SM -TSRA BR SCT014 BKN050CB OVC055 17/15 A2980 RMK AO2 PK WND 23027/1109 OCNL LTGICCC VC SW-N TS VC SW-N MOV E P0006 T01670150", "KTRK 011047Z AUTO 17007KT 10SM CLR M01/M06 A3013 RMK AO2 TSNO", "KTRL 011053Z AUTO 00000KT 10SM CLR 08/02 A3004 RMK AO2 SLP170 T00830017", "KTRM 011052Z AUTO 00000KT 10SM CLR 04/M01 A3008 RMK AO2 SLP185 T00391011 $", "KTSP 011115Z AUTO 00000KT 9SM CLR M02/M02 A3017 RMK AO2", "KTTA 011105Z AUTO 20013G17KT 10SM BKN019 18/16 A2990 RMK AO2 T01820160", "KTTD 011053Z AUTO 17008KT 10SM FEW019 SCT050 OVC065 07/04 A2993 RMK AO2 RAE42 SLP135 P0001 T00670039", "KTTF 011115Z AUTO 22007KT 10SM CLR 10/04 A2939 RMK AO2 T00950043", "KTTN 011053Z 21012G18KT 10SM -RA OVC015 16/13 A2962 RMK AO2 RAE0955B52 SLP025 P0000 T01560133 $", "KTTS 011055Z AUTO 00000KT 10SM CLR 17/17 A3012 RMK AO2 VIS 2 RWY15 VIS 5/8 RWY15/33 SLP204 T01710171 $", "KTUL 011053Z 31010KT 10SM SCT100 SCT200 08/M03 A3008 RMK AO2 SLP183 FU SCT100 T00781033", "KTUP 011053Z 20005KT 10SM CLR 17/14 A2990 RMK AO2 SLP123 T01670144", "KTUS 011053Z 15007KT 10SM CLR 08/M04 A3010 RMK AO2 SLP169 T00831044", "KTVC 011053Z 21010G20KT 10SM OVC012 07/04 A2919 RMK AO2 SLP887 T00670039", "KTVF 011056Z AUTO 02006KT 10SM CLR M09/M16 A2993 RMK AO2 SLP153 T10941161 FZRANO", "KTVI 011115Z AUTO 00000KT 4SM BR OVC004 17/17 A3011 RMK AO2", "KTVK 011115Z AUTO 28028G35KT 10SM -RA SCT022 SCT028 BKN034 02/M01 A2964 RMK AO2", "KTVL 011053Z AUTO 20007KT 10SM CLR M01/M10 A3012 RMK AO2 SLP194 T10061100", "KTVR 011053Z AUTO 00000KT 6SM BR FEW031 FEW075 16/15 A3000 RMK AO2 SLP164 T01610150", "KTVY 011115Z AUTO 18019KT 10SM CLR 07/M05 A3006 RMK AO2", "KTWF 011053Z AUTO 20011KT 10SM OVC120 04/M03 A2998 RMK AO2 SLP142 T00441033", "KTWM 011115Z AUTO 36009G15KT 10SM CLR M06/M16 A2972 RMK AO2", "KTWT 011115Z AUTO 23014G21KT 10SM CLR 17/M01 A2961 RMK AO2", "KTXK 011053Z 25010KT 10SM CLR 16/02 A2999", "KTXW 011115Z AUTO 12005KT 7SM BR SCT004 SCT012 OVC020 23/22 A2998 RMK AO2 T02270218", "KTYL 011115Z AUTO 23004KT 10SM CLR M03/M03 A3021 RMK AO2", "KTYQ 011115Z AUTO 18012KT 10SM CLR 10/07 A2940 RMK AO2 T01000074", "KTYR 011053Z AUTO 21007KT 10SM CLR 14/04 A3002 RMK AO2 SLP159 T01440044", "KTYS 011053Z 22012G22KT 9SM RA BKN060 OVC075 15/12 A2981 RMK AO2 PK WND 24027/1006 LTG DSNT E-SW TSE01B26E42 SLP088 TS DSIPTD P0015 T01500122", "KTZR 011115Z 20010KT 10SM CLR 11/10 A2955", "KU42 011115Z AUTO 16016G22KT 10SM CLR 05/M02 A3009 RMK AO1 T00461016", "KU55 011115Z AUTO 16009KT 10SM SCT041 BKN050 M07/M09 A3021 RMK A01", "KU64 011115Z AUTO 00000KT 10SM CLR M06/M09 A3021 RMK AO2 T10611091 $", "KU68 011115Z AUTO 14008KT 10SM SCT090 BKN110 00/M03 A2990 RMK AO2", "KU69 011115Z AUTO 27007KT 10SM CLR M04/M08 A3015 RMK A01", "KUAO 011127Z AUTO 20009KT 9SM -RA SCT020 OVC028 06/04 A2996 RMK AO2 RAB04 P0002 T00560039", "KUBE 011115Z AUTO 36016G21KT M02/M03 A2960 RMK AO2 PWINO", "KUCP 011056Z AUTO 22007KT 10SM SCT110 12/09 A2953 RMK AO2 SLP015 T01170089", "KUCY 011110Z AUTO 24016G23KT 10SM FEW042 SCT055 BKN065 17/01 A2973 RMK A01", "KUDG 011056Z AUTO 20014KT 10SM FEW016 19/17 A2998 RMK AO2 SLP150 T01890172", "KUES 011045Z 25015G25KT 10SM OVC025 00/M03 A2931", "KUGN 011051Z COR 25016G24KT 10SM BKN050 OVC070 03/M01 A2933 RMK AO2 PK WND 23027/1010 SLP933 T00331006", "KUIL 011053Z AUTO 10SM SCT015 BKN025 OVC032 03/02 A2984 RMK AO2 RAE0956 SLP106 P0000 T00280017", "KUIN 011054Z AUTO A2961 RMK AO2 SLPNO PWINO FZRANO $", "KUKF 011105Z AUTO 21009G21KT 10SM OVC022 17/14 A2985 RMK AO2 LTG DSNT SW AND W", "KUKI 011056Z AUTO 00000KT 10SM SCT045 OVC070 04/03 A3023 RMK AO2 SLP235 T00390028", "KUKL 011115Z AUTO 30016G25KT 10SM CLR 01/M06 A3001 RMK AO2 T00111062", "KUKT 011115Z AUTO 23007KT 7SM BKN015 OVC020 15/16 A2961 RMK A01", "KULM 011115Z AUTO 34019G27KT 10SM CLR M03/M08 A2974 RMK AO2", "KULS 011110Z AUTO 27008KT 10SM CLR M03/M07 A3015 RMK AO2", "KUNI 011115Z AUTO 18005KT 10SM BKN100 12/10 A2962 RMK AO2 LTG DSNT E T01160103", "KUNO 011053Z AUTO 27020G35KT 10SM CLR 10/M04 A2983 RMK AO2 PK WND 24038/1001 SLP096 T01001039", "KUNU 011115Z AUTO 25015G19KT 10SM OVC012 01/00 A2932 RMK AO2 T00100000", "KUNV 011053Z 26006KT 7SM RA BKN034 OVC041 09/09 A2953", "KUOX 011115Z AUTO 23008G14KT 10SM CLR 16/08 A2992 RMK AO2", "KUSE 011115Z AUTO 23011KT 10SM CLR 09/05 A2940 RMK AO2", "KUTA 011115Z AUTO 21009KT 10SM CLR 15/09 A2989 RMK AO2 T01480089 $", "KUTS 011102Z AUTO 00000KT 10SM SCT015 17/16 A3006 RMK AO2 T01670156", "KUUU 011102Z AUTO 20007G17KT 3/4SM -RA BR OVC002 09/08 A2967 RMK AO2 P0000 T00890083", "KUUV 011115Z AUTO 28014G24KT 10SM CLR 05/M04 A2979 RMK AO2", "KUVA 011115Z AUTO 02007KT 10SM SCT100 17/M04 A3010 RMK AO2 T01721036", "KUXL 011115Z AUTO 25004KT 5SM HZ OVC005 A3005 RMK AO2", "KUYF 011115Z AUTO 19011KT 10SM CLR 10/09 A2953 RMK AO2", "KUZA 011054Z AUTO 20013KT 10SM BKN020 BKN025 17/15 A2991 RMK AO2 SLP120 T01720150", "KVAD 011055Z AUTO 21007KT 10SM BKN015 17/15 A3008 RMK AO2 BKN V FEW SLP187 T01680148 $", "KVAF 011115Z AUTO 15008KT 4SM BR CLR 24/22 A3005 RMK A01", "KVAY 011054Z AUTO 21010G22KT 160V220 10SM BKN018 OVC029 18/14 A2964 RMK AO2 SLP036 T01780144", "KVBG 011125Z AUTO 02003KT 9SM SCT009 06/06 A3018 RMK AO2 SLP224 TSNO $", "KVBT 011056Z AUTO 30010KT 10SM CLR 07/M04 A3002 RMK AO2 SLP165 T00671039", "KVBW 011115Z AUTO 21011G16KT 10SM SCT027 BKN060 OVC110 15/15 A2964 RMK AO1 T01540150", "KVCB 011053Z AUTO 00000KT 10SM CLR 06/02 A3023 RMK AO2 SLP234 T00560022", "KVCT 011127Z AUTO 36004KT 4SM BR FEW009 BKN013 OVC028 23/23 A3005 RMK AO2 T02330228", "KVCV 011115Z AUTO 17007KT 9SM CLR 03/01 A3016 RMK AO2", "KVDF 011115Z AUTO 00000KT 10SM CLR 17/17 A3016 RMK AO2", "KVDI 011115Z AUTO 20006KT 10SM OVC014 19/16 A3007 RMK AO2", "KVEL 011053Z AUTO 00000KT 10SM CLR M04/M07 A3015 RMK AO2 SLP225 T10441072", "KVER 011115Z AUTO 25016G23KT 10SM OVC036 03/M03 A2982 RMK AO2 T00321034", "KVES 011110Z AUTO 18009G15KT 10SM CLR 10/10 A2946 RMK AO2", "KVGC 011115Z AUTO 16006KT 7SM OVC012 09/09 A2947 RMK AO2", "KVGT 011053Z AUTO 31004KT 10SM CLR 08/M04 A3012 RMK AO2 SLP214 T00781044", "KVHN 011115Z AUTO 27007KT 10SM CLR 04/M19 A3022 RMK AO2 T00431195", "KVIH 011053Z AUTO 26018G35KT 10SM CLR 04/M06 A2980 RMK AO2 PK WND 25038/0956 SLP088 T00391056", "KVIS 011056Z AUTO 32007KT 10SM CLR 07/06 A3021 RMK AO2 SLP239 T00670056", "KVJI 011115Z AUTO 29013G20KT 10SM -RA BKN013 BKN020 OVC050 15/14 A2980 RMK AO2 P0001 T01540139", "KVKS 011115Z AUTO 00000KT 6SM BR BKN070 OVC085 16/16 A3001 RMK A01", "KVKY 011115Z AUTO 22009KT 2 1/2SM BR CLR A3010 RMK A01", "KVLD 011053Z AUTO 18004KT 10SM CLR 17/16 A3010 RMK AO1 SLP199 T01670156", "KVLL 011115Z AUTO 22010G15KT 10SM CLR 11/02 A2938 RMK AO2 T01050015", "KVNC 011115Z AUTO 13005KT 10SM FEW019 SCT024 SCT032 20/19 A3015 RMK AO2", "KVNW 011115Z AUTO 18009KT 10SM CLR 09/07 A2942 RMK AO2", "KVNY 011051Z 00000KT 10SM CLR 09/06 A3010 RMK AO2 SLP189 T00940056", "KVOA 011125Z AUTO 20013KT 3SM BR OVC003 25/23 A3008 RMK A01", "KVOK 011055Z AUTO 34008KT 5SM -SN BR OVC003 00/M00 A2932 RMK AO2 SLP939 P0002 T00011002", "KVPC 011115Z AUTO 28020G28KT 5SM BR FEW014 SCT037 BKN048 19/18 A2994 RMK AO2", "KVPS 011115Z AUTO 22007KT 8SM OVC006 22/21 A3005 RMK AO2 CIG 004V006 CIG 004 RWY20 SLP182 $", "KVPZ 011056Z AUTO 32006KT 10SM BKN050 OVC065 06/03 A2933 RMK AO2 SLP934 T00610028", "KVQQ 011050Z 20006KT 10SM SCT041 BKN047 16/16 A3013", "KVRB 011053Z AUTO 20004KT 10SM CLR 18/17 A3015 RMK AO2 SLP207 T01830167", "KVSF 011113Z AUTO 00000KT 4SM -RA BR FEW007 OVC012 02/01 A2964 RMK AO2 P0003 T00170011", "KVTA 011054Z AUTO 20007KT 10SM SCT110 12/11 A2955 RMK AO2 SLP007 T01220106", "KVTI 011115Z AUTO 30014G25KT 10SM -RA OVC016 03/02 A2945 RMK AO2 T00260015", "KVTN 011052Z AUTO 26005KT 10SM CLR M09/M11 A3002 RMK AO2 SLP204 T10891111", "KVTP 011115Z AUTO 25021G30KT 10SM M07/M13 A3009 RMK AO2", "KVUJ 011105Z AUTO 20015G23KT 10SM SCT022 18/15 A2994 RMK AO2 T01770150", "KVUO 011053Z AUTO 20004KT 10SM BKN060 BKN080 OVC090 07/04 A2994 RMK AO2 SLP139 T00720044", "KVVS 011115Z AUTO 18006KT 10SM -RA OVC070 12/10 A2963 RMK AO2 T01220097", "KVVV 011115Z AUTO 33015G19KT CLR M09/M12 A2990 RMK AO2 PWINO", "KVWU 011115Z AUTO 00000KT 10SM CLR M08/M16 A2990 RMK AO2", "KVYS 011115Z AUTO 26017G28KT 10SM SCT028 BKN035 OVC044 04/00 A2942 RMK AO2 T00381002", "KW22 011115Z AUTO 20007KT 4SM RA FEW035 SCT041 OVC049 11/11 A2972 RMK AO2", "KW29 011105Z AUTO 21011G19KT 10SM TS BKN028 BKN034 BKN110 18/17 A2967 RMK AO2 LTG DSNT NE SW AND W T01810166", "KW40 011105Z AUTO 20018KT 10SM BKN020 19/16 A2996 RMK AO2 T01890161", "KW43 011115Z AUTO 22006KT 10SM CLR M06/M07 A2990 RMK AO2", "KW63 011115Z AUTO 21012G20KT 10SM BKN023 BKN029 OVC110 18/16 A2981 RMK AO1", "KW75 011115Z AUTO 20012G26KT 10SM BKN024 BKN100 BKN120 19/15 A2977 RMK AO1 T01870153", "KW78 011115Z AUTO 21014G24KT 10SM OVC026 19/14 A2979 RMK AO1 T01900143", "KW81 011115Z AUTO 19007G25KT 150V220 10SM OVC022 18/14 A2977 RMK AO1 T01800136", "KW99 011102Z AUTO 20009G14KT 7SM +RA SCT018 BKN047 OVC070 16/16 A2961 RMK AO2 LTG DSNT E P0002", "KWAL 011112Z AUTO 18016KT 10SM -RA SCT021 BKN075 BKN095 16/14 A2980 RMK AO2 P0000 T01610139", "KWBF 011115Z AUTO 21004KT 6SM BR FEW019 OVC060 25/24 A3008 RMK A01", "KWDG 011115Z 31008KT 10SM SKC 04/M05 A3014 RMK FIRST", "KWDR 011115Z AUTO 00000KT 10SM BKN021 BKN050 OVC060 19/16 A2995 RMK AO2 LTG DSNT W THRU N", "KWJF 011056Z AUTO 30003KT 10SM CLR 05/02 A3014 RMK AO2 SLP208 T00500017", "KWLD 011054Z AUTO 33012KT 10SM CLR 03/M05 A3009 RMK AO2 SLP188 T00331050", "KWMC 011056Z AUTO 27006KT 10SM CLR 02/M04 A3005 RMK AO2 SLP172 T00171039", "KWRB 011055Z AUTO 20008KT 10SM SCT021 BKN180 BKN200 19/19 A3002 RMK AO2 SLP166 T01930188", "KWRI 011105Z 22019G23KT 10SM -RA OVC014 16/16 A2964 RMK AO2A RAB05 SLP036 $", "KWRL 011053Z AUTO 00000KT 10SM CLR M07/M07 A2991 RMK AO2 SLP162 T10671072", "KWST 011124Z AUTO 21009G17KT 1/4SM FG VV002 09/09 A2968 RMK AO2 T00940089", "KWVI 011053Z AUTO 33003KT 10SM CLR 04/03 A3023 RMK AO2 SLP238 T00440028", "KWVL 011110Z AUTO 04005KT 5SM UP BR SCT004 00/00 A2973 RMK AO2 P0000 FZRANO", "KWWD 011056Z AUTO 21017G27KT 10SM FEW020 BKN110 17/16 A2971 RMK AO2 PK WND 21027/1049 RAB02E22 SLP063 P0000 T01720156 $", "KWWR 011115Z AUTO 30007KT 10SM CLR 01/M04 A3018 RMK AO2", "KX07 011115Z AUTO 00000KT 1/4SM FG VV002 16/16 A3015 RMK A01", "KX26 011115Z AUTO 00000KT 10SM CLR 18/17 A3015 RMK AO2 TSNO T01760168", "KX60 011115Z AUTO 00000KT 10SM CLR 16/15 A3014 RMK AO2 T01570150", "KXER 011115Z AUTO 20006KT 5SM BR CLR 24/22 A3008 RMK A01", "KXLL 011115Z AUTO 18004KT 7SM -VCTSRA OVC019 15/13 A2961 RMK AO2 LTG DSNT E AND S P0002", "KXMR 011055Z AUTO 21004KT 10SM CLR 22/19 A3012 RMK AO2 SLP203 T02170194 $", "KXNA 011053Z 30007KT 10SM CLR 07/M02 A3000 RMK AO2 SLP152 T00721022", "KXNO 011055Z AUTO 17009KT 10SM BKN031 18/18 A3002 RMK AO2 SLP166 T01800180 $", "KXNX 011115Z AUTO 20006KT 10SM FEW042 BKN050 OVC060 16/14 A2979 RMK A01", "KXSA 011115Z AUTO 19011G18KT 150V210 10SM VCTS SCT024 SCT028 SCT110 19/18 A2973 RMK AO2 LTG DSNT N T01870182", "KXVG 011113Z AUTO 35004KT 10SM CLR M06/M17 A2983 RMK AO2", "KXWA 011051Z AUTO 17013KT 10SM SCT065 M06/M08 A2978 RMK AO2 SLP127 T10611078", "KY19 011115Z AUTO 22005KT 10SM CLR M11/M11 A2995 RMK AO2", "KY23 011115Z AUTO 36014G27KT 7SM OVC018 M01/M03 A2957 RMK AO2 T10121026", "KY31 011115Z AUTO 20003KT 1/4SM FG OVC002 00/00 A2922 RMK AO2 T00040002", "KY49 011115Z AUTO 34006KT 10SM CLR M07/M17 A2986 RMK AO2 T10711166", "KY50 011056Z AUTO 35004KT 10SM -RA OVC006 01/01 A2932 RMK AO2 UPE43RAB25 SLP934 P0001 T00060006 FZRANO $", "KY51 011115Z AUTO 35009KT 1 3/4SM OVC004 00/00 A2934 RMK AO1 T00010001", "KY63 011115Z AUTO 34010KT 10SM CLR M12/M14 A2988 RMK AO2 T11161144", "KY70 011115Z AUTO 23011KT 10SM CLR 06/00 A2935 RMK AO2 T00560000", "KYIP 011053Z 21008KT 10SM CLR 09/02 A2939 RMK AO2 SLP951 T00890022", "KYKM 011053Z AUTO 20003KT 10SM SCT065 OVC110 06/M01 A2976 RMK AO2 SLP082 T00561006", "KYKN 011056Z AUTO 31021G28KT 10SM CLR M06/M08 A2994 RMK AO2 PK WND 31029/1032 SLP167 T10561083 FZRANO", "KYNG 011051Z 22011KT 10SM SCT100 BKN140 12/07 A2950 RMK AO2 SLP991 T01170072", "KZER 011115Z AUTO 19009G16KT 1 1/4SM BR OVC001 11/11 A2958 RMK AO2 LTG DSNT S AND SW", "KZPH 011115Z AUTO 00000KT 10SM CLR 16/15 A3016 RMK A02 T01560152", "KZZV 011053Z AUTO 20008KT 10SM OVC110 13/11 A2959 RMK AO2 SLP017 T01280106", "LATI 011120Z 27011KT 230V300 9999 FEW024CB SCT040 BKN070 18/12 Q1007 NOSIG", "LBBG 011100Z 23015KT 9999 FEW037 20/11 Q1003 NOSIG", "LBGO 011100Z AUTO 06005KT 010V080 9999 OVC130/// 19/07 Q1001 NOSIG", "LBIA 011100Z 35006KT 9999 SCT040 BKN100 BKN200 18/12 Q1002", "LBPD 011100Z AUTO VRB04KT 9999 OVC130/// 15/09 Q1002 NOSIG", "LBPG 011100Z 07004KT 9999 OVC100 14/06 Q1002", "LBPL 011100Z 08004KT 9999 BKN100 19/08 Q1002", "LBSF 011100Z 08007KT 9999 OVC086 15/05 Q1001 TEMPO 5000 SHRA FEW030TCU", "LBWN 011100Z 22007KT 180V250 9999 SCT040 18/08 Q1002 NOSIG", "LCEN 011120Z 00000KT 9999 FEW025TCU SCT030 20/08 Q1017 NOSIG", "LCLK 011100Z 18015KT 9999 FEW020 SCT050 21/12 Q1017 NOSIG", "LCPH 011100Z 26009KT 240V320 9999 FEW025 SCT045 20/12 Q1018 NOSIG", "LCRA 011120Z 26015KT 9999 FEW022 19/11 Q1018 NOSIG", "LDDU 011100Z 28011KT 210V320 9999 FEW036 14/07 Q1006 NOSIG", "LDLO 011100Z 28007KT 9999 FEW015 15/11 Q1006", "LDOS 011100Z 27013KT 6000 -RA BKN010 OVC030 10/09 Q1005", "LDPL 011100Z VRB03KT 9999 FEW018 SCT024 16/10 Q1006 NOSIG", "LDRI 011100Z VRB04KT 9999 FEW036 16/06 Q1006", "LDSB 011100Z 33006KT 220V050 9999 FEW043 12/05 Q1006", "LDSP 011100Z 31010KT 270V340 9999 FEW040 18/07 Q1006 NOSIG", "LDZA 011100Z 24006KT 160V320 9999 FEW035 16/07 Q1005 NOSIG", "LDZD 011100Z 28009KT 250V330 9999 FEW033 16/09 Q1006 NOSIG", "LEAB 011100Z 28013KT 240V310 CAVOK 16/04 Q1022 NOSIG", "LEAG 011100Z AUTO 32014KT 280V020 CAVOK 22/07 Q1024", "LEAL 011100Z 09008KT 070V140 CAVOK 21/08 Q1020 NOSIG", "LEAM 011100Z 23007KT 190V260 CAVOK 21/14 Q1020", "LEAO 011100Z 27010KT 220V320 CAVOK 15/04 Q1023", "LEAS 011100Z 28020KT 9999 FEW030 FEW038TCU BKN045 13/09 Q1023 TEMPO 3000 SHRA", "LEBA 011100Z 23006KT 170V290 CAVOK 20/06 Q1024", "LEBB 011100Z 29009KT 250V320 9999 SCT042 BKN055 14/06 Q1021 TEMPO 3000 SHRA FEW020TCU", "LEBG 011100Z 25014G25KT 9999 FEW024 BKN050 11/04 Q1021", "LEBL 011100Z 19007KT 160V230 9999 FEW040 17/04 Q1016 NOSIG", "LEBR 011100Z AUTO 31010KT 270V350 9999 SCT037 16/05 Q1020", "LEBZ 011100Z 27010KT 230V310 9999 FEW043 19/10 Q1025", "LECH 011100Z AUTO 14008KT 110V170 CAVOK 17/06 Q1019", "LECO 011100Z 32009KT 260V010 9999 SCT025 14/08 Q1024 NOSIG", "LECV 011100Z 18004KT 9999 SCT030 13/04 Q1022", "LEDA 011100Z 27022KT CAVOK 18/03 Q1017", "LEGE 011100Z 07006KT 020V100 9999 FEW015 FEW020TCU SCT030 17/07 Q1016", "LEGR 011100Z 27006KT 210V360 CAVOK 21/04 Q1024", "LEGT 011100Z 28014KT 250V320 9999 FEW045 15/04 Q1022", "LEHC 011100Z 30019KT 260V340 9999 SCT040 14/03 Q1018", "LEIB 011100Z 19004KT 140V270 9999 FEW014 19/11 Q1020 NOSIG", "LEJR 011130Z 33007KT 270V050 CAVOK 23/06 Q1025", "LELC 011100Z 35007KT 310V020 CAVOK 24/06 Q1020 NOSIG", "LELL 011100Z 25005KT 9999 FEW030 18/03 Q1016", "LELN 011100Z 25016KT 220V290 9999 SCT035 11/05 Q1021", "LELO 011100Z AUTO 28016KT 250V320 CAVOK 15/04 Q1020", "LEMD 011100Z 29011KT 260V330 9999 FEW045 15/04 Q1022 NOSIG", "LEMG 011100Z 32012G22KT CAVOK 24/04 Q1023 NOSIG", "LEMH 011100Z 22008KT 190V270 9999 SCT030 BKN045 16/09 Q1019", "LEMI 011100Z 33005KT 290V050 CAVOK 22/05 Q1021", "LEMO 011130Z 35008KT 300V060 CAVOK 21/06 Q1025 NOSIG", "LEPA 011100Z 23008KT 9999 FEW020 SCT026 19/11 Q1019 NOSIG", "LEPP 011100Z 01004KT 330V050 9999 BKN037 11/04 Q1020", "LERI 011100Z 32004KT 280V010 CAVOK 23/04 Q1020 NOSIG", "LERS 011100Z 27018G28KT 9999 SCT040 21/02 Q1016", "LERT 011100Z 27011KT 240V310 CAVOK 20/11 Q1026 NOSIG", "LESA 011100Z 30010KT 280V340 9999 BKN025 12/05 Q1025", "LESB 011100Z AUTO VRB06KT 9999 FEW046/// BKN061/// 20/07 Q1019", "LESO 011112Z 29012G28KT 210V350 3000 RA SCT015 BKN025 11/09 Q1022", "LEST 011100Z 25005KT 190V300 9999 SCT014 BKN030 13/09 Q1024 NOSIG", "LESU 011100Z 29008KT 250V330 9999 SCT071 15/M05 Q1016", "LETL 011100Z AUTO 33018KT CAVOK 14/00 Q1021", "LETO 011100Z 27007KT 220V330 CAVOK 15/03 Q1022 NOSIG", "LETU 011100Z AUTO 34012KT 9999 NSC 16/05 Q1020", "LEVC 011100Z 28006KT 240V350 CAVOK 21/04 Q1019 NOSIG", "LEVD 011100Z 26012KT 230V290 9999 BKN040 12/05 Q1023", "LEVS 011100Z 28014KT 250V320 9999 FEW042 14/04 Q1023", "LEVT 011100Z 32008KT 280V350 9999 FEW020 SCT040 BKN055 11/06 Q1021", "LEVX 011100Z 16003KT 090V220 9999 3000SE FEW003 SCT006 BKN009 13/12 Q1025 NOSIG", "LEXJ 011100Z 31019KT 8000 -RA FEW028 BKN038 12/09 Q1022", "LEZG 011100Z 32016KT 290V350 9999 FEW045 17/05 Q1020", "LEZL 011100Z VRB04KT CAVOK 22/07 Q1025 NOSIG", "LFAC 011100Z AUTO 32015KT 9000 BKN007 OVC012 09/08 Q1003", "LFAQ 011100Z AUTO 28018KT 4400 -RA BR OVC009/// ///TCU 09/09 Q1003 BECMG 28017G27KT 9999 RA OVC008 OVC012CB", "LFAT 011100Z AUTO 31010KT 6000 -RADZ BKN005 BKN010 OVC018 09/08 Q1004 TEMPO 4000 RA BKN011 OVC030TCU", "LFBA 011100Z AUTO 27013KT 9999 FEW048/// SCT060/// ///CB 12/07 Q1017 TEMPO 29020G32KT 4000 SHRA", "LFBC 011100Z AUTO 28018G31KT 250V310 9999 SCT029/// BKN036/// BKN045/// ///TCU 15/08 Q1017", "LFBD 011100Z AUTO 27021KT 9999 BKN033/// BKN040/// BKN048/// ///CB 15/07 Q1016 TEMPO 30025G40KT 1400 TSRA", "LFBE 011100Z AUTO 26017KT 9999 SCT040 BKN049 BKN060 15/07 Q1015 TEMPO 29020G40KT 1200 TSRA BKN015CB", "LFBF 011100Z AUTO 27017KT 9999 BKN044/// BKN052/// BKN092/// //////TCU 14/05 Q1017", "LFBG 011100Z AUTO 26016KT 9999 SCT018/// BKN042/// BKN052/// ///CB 10/07 Q1015", "LFBH 011100Z AUTO 28022KT 9999 SCT022/// BKN031/// BKN050/// ///TCU 11/08 Q1014 TEMPO 27018G36KT 4000 SHRA SCT012 BKN018CB", "LFBI 011100Z AUTO 25013KT 9999 SCT020/// BKN044/// BKN062/// ///TCU 12/08 Q1011 TEMPO 26016G32KT 4000 SHRA BKN018CB", "LFBL 011100Z AUTO 25010KT 220V280 9999 FEW012/// BKN045/// BKN100/// ///CB 08/07 Q1013 TEMPO 29020G40KT 1200 TSRA BKN005 BKN012CB", "LFBM 011100Z AUTO 28015G26KT 220V340 9999 -RA BKN023/// BKN035/// BKN064/// ///CB 11/07 Q1019 TEMPO 2000 TSRA", "LFBO 011100Z AUTO 27018KT 9999 BKN047/// BKN064/// BKN086/// ///TCU 14/05 Q1017 TEMPO 30020G38KT 2000 -TSRA BKN025CB", "LFBP 011100Z AUTO 30016KT 9999 -RA FEW016/// BKN037/// OVC043/// ///CB 09/08 Q1020 TEMPO 28020G38KT 3000 -TSRA", "LFBT 011100Z AUTO 25018G28KT 220V280 6000 2100 R20/1200D FEW035/// BKN082/// //////CB 14/07 Q1019 TEMPO 3000 -TSRA", "LFBU 011100Z AUTO 25010KT 9999 FEW028/// SCT044/// BKN062/// ///TCU 09/07 Q1014 TEMPO 27020G40KT 1200 TSRA BKN010 BKN015CB", "LFBX 011100Z AUTO 25007KT 210V280 8000 FEW020/// SCT072/// //////TCU 12/09 Q1015", "LFBY 011100Z AUTO 26011KT 230V310 9999 // ////// 12/08 Q1020", "LFBZ 011100Z AUTO 27016KT 5000 -RA BR FEW013/// SCT043/// OVC049/// ///CB 11/09 Q1021 TEMPO 30020G40KT 1200 TSRA BKN010 BKN015CB", "LFCK 011100Z AUTO 31013KT 9999 FEW048 13/08 Q1018 TEMPO 28025G40KT 3000 SHRA SCT018CB BKN030", "LFCR 011100Z AUTO 26019KT 9999 BKN028 OVC040 10/05 Q1015 TEMPO 28017G30KT 4000 SHRA BKN013 SCT020CB", "LFGA 011100Z AUTO 21010KT 9999 -RA BKN043/// OVC052/// ///TCU 11/06 Q1006", "LFGJ 011100Z AUTO 24018G29KT 9999 SCT025/// BKN033/// BKN048/// //////CB 13/08 Q1009 TEMPO 2000 TSRA BKN013 SCT025CB", "LFHP 011100Z AUTO 26009KT 220V310 9999 BKN030/// BKN039/// BKN047/// ///TCU 10/03 Q1012", "LFJL 011100Z AUTO 25019KT 9999 -RA OVC015 09/07 Q1004 TEMPO 25015G28KT 4000 SHRA SCT025CB", "LFJR 011100Z AUTO 27012KT 240V310 9999 BKN030/// BKN035/// OVC052/// ///TCU 13/07 Q1010", "LFKB 011100Z AUTO 29019KT 7000 NSC 20/03 Q1008 BECMG 14010KT", "LFKC 011100Z AUTO 23015KT 200V270 9999 FEW052 SCT190 17/05 Q1011 BECMG 21015G28KT", "LFKF 011100Z AUTO 30020G32KT 250V340 CAVOK 18/06 Q1010 NOSIG", "LFKJ 011100Z AUTO 28012KT 260V330 9999 FEW043 18/07 Q1012 NOSIG", "LFKS 011100Z AUTO 23016G29KT 170V270 CAVOK 18/01 Q1008", "LFLB 011100Z AUTO 13010KT 9999 BKN042 BKN048 BKN054 13/08 Q1013 TEMPO VRB15G30KT 2000 TSRAGS BKN035CB", "LFLC 011100Z AUTO 23007KT 9999 FEW020/// BKN037/// BKN046/// ///TCU 11/06 Q1012 TEMPO 27015G25KT 3000 TSRAGS FEW033CB SCT035TCU BKN040", "LFLH 011100Z AUTO 25016KT 9999 FEW030 SCT036 BKN045 12/07 Q1010", "LFLL 011100Z 24004KT 9999 FEW030CB FEW033TCU BKN036 BKN066 13/05 Q1012 TEMPO -SHRA SCT035TCU", "LFLN 011100Z AUTO 26012KT 220V300 9999 BKN027/// BKN052/// BKN066/// //////TCU 13/08 Q1011 TEMPO 30018G35KT 2000 TSRA BKN013 SCT020CB", "LFLP 011100Z AUTO 23004KT 170V320 9999 FEW019 SCT027 BKN034 09/06 Q1013 TEMPO VRB15G30KT 2000 TSRAGS BKN025CB", "LFLS 011100Z AUTO 08006KT 9999 FEW038 OVC047 11/06 Q1013 TEMPO 27015G25KT 1500 TSRAGS BKN020CB", "LFLU 011100Z AUTO 17006KT 140V210 9999 OVC062 15/03 Q1013", "LFLV 011100Z AUTO 26007KT 200V310 9999 FEW030/// BKN056/// BKN150/// ///TCU 13/07 Q1011", "LFLW 011100Z AUTO 26016G29KT 230V300 6000 RA SCT019/// BKN025/// BKN034/// ///CB 07/05 Q1014 TEMPO 1800 +TSRAGS BKN012CB", "LFLX 011100Z AUTO 27015KT 9999 FEW035/// SCT043/// BKN150/// ///CB 13/06 Q1010 TEMPO 24017G30KT 2500 -TSRA", "LFLY 011100Z AUTO VRB02KT 9999 OVC047/// ///TCU 13/06 Q1012 TEMPO VRB15G30KT 2000 TSRAGS SCT030CB BKN035TCU", "LFMC 011100Z AUTO 30019G31KT 9999 ////// 18/02 Q1010", "LFMD 011100Z AUTO 29016G27KT 250V340 CAVOK 20/M02 Q1008 NOSIG", "LFMH 011100Z AUTO 34004KT 270V060 9999 FEW026/// BKN047/// BKN060/// ///TCU 11/07 Q1012", "LFMI 011100Z AUTO 29019KT CAVOK 16/06 Q1014 NOSIG", "LFMK 011100Z AUTO 28020KT 9999 BKN046 BKN052 BKN100 16/04 Q1017 TEMPO 3000 SHRA SCT018CB BKN035 BECMG 28020G30KT", "LFML 011100Z AUTO 28018KT CAVOK 16/07 Q1014 BECMG 31017G27KT", "LFMN 011100Z VRB07G19KT CAVOK 23/M03 Q1006 WS ALL RWY NOSIG", "LFMO 011100Z AUTO 25005KT 210V320 9999 SCT050 BKN070 16/05 Q1014 BECMG 25015G25KT", "LFMP 011100Z AUTO 31014G26KT 270V340 9999 FEW072 18/01 Q1016 NOSIG", "LFMT 011100Z AUTO 29017KT 260V330 9999 FEW047 BKN170 BKN220 16/04 Q1015 BECMG 29015G25KT", "LFMU 011100Z AUTO 29015KT 9999 FEW043 BKN050 OVC060 15/05 Q1016 BECMG 28015G25KT", "LFMV 011100Z AUTO 27009KT 240V300 CAVOK 16/06 Q1014 NOSIG", "LFMY 011100Z AUTO 29012KT 250V320 CAVOK 16/06 Q1014", "LFOA 011100Z AUTO 27016KT 9999 FEW027/// SCT033/// BKN048/// //////TCU 14/07 Q1010 TEMPO 28020G40KT 2000 TSRA SCT010 BKN020CB", "LFOB 011100Z AUTO 28013KT 9999 -RADZ BKN019/// BKN025/// BKN030/// ///TCU 10/08 Q1005 TEMPO 4000 SHRA BKN009 BKN012CB OVC020 BECMG 27015G25KT", "LFOE 011100Z AUTO 29015KT 9999 FEW030 BKN043 OVC050 13/06 Q1007 TEMPO 4000 -SHRA BKN025 BKN030CB BECMG 28015G25KT", "LFOJ 011100Z AUTO 27017KT 9999 FEW028 SCT037 BKN045 13/07 Q1008 TEMPO 29018G28KT 2000 TSRAGS BKN025CB", "LFOK 011100Z AUTO 26023KT 9000 BKN028 BKN034 BKN042 11/06 Q1005 TEMPO 4000 SHRA BKN012TCU OVC020 BECMG 26015G25KT", "LFOP 011100Z AUTO 28016KT 250V310 9999 BKN020 BKN025 BKN032 10/06 Q1006 TEMPO 4000 RA BKN009 OVC020CB BECMG 27015G25KT", "LFOT 011100Z AUTO 27011KT 240V310 9999 SCT035 BKN049 BKN058 13/07 Q1010 TEMPO 25015G27KT 2500 -TSRA SCT030CB", "LFOV 011100Z AUTO 26012KT 230V300 9999 FEW030 SCT060 13/09 Q1010", "LFOZ 011100Z AUTO 27014KT 230V290 9999 BKN032 BKN043 13/06 Q1009", "LFPB 011100Z AUTO 26013KT 240V300 9999 SCT037 BKN045 BKN052 13/05 Q1006 TEMPO 27018G28KT 4000 -SHRA FEW025TCU SCT030", "LFPG 011100Z 28016KT 9999 BKN033 BKN043 12/05 Q1006 TEMPO 25015G25KT", "LFPM 011100Z AUTO 28016KT 9999 BKN038/// BKN047/// OVC054/// //////TCU 13/06 Q1006", "LFPN 011100Z AUTO 29016KT 250V310 9999 SCT037 BKN048 14/06 Q1006 TEMPO 27015G25KT 2500 TSRA SCT025CB", "LFPO 011100Z 27017KT 9999 BKN041 SCT230 14/05 Q1006 NOSIG", "LFPT 011100Z AUTO 29015G29KT 250V320 9999 FEW033 OVC047 13/06 Q1006", "LFPV 011100Z AUTO 27016G27KT 9999 SCT037 BKN047 13/05 Q1006 TEMPO 2000 TSRA BKN020CB", "LFQA 011100Z AUTO 26017KT 9999 -RA BKN023/// BKN032/// BKN040/// ///TCU 11/08 Q1004", "LFQB 011100Z AUTO 26019KT 9999 FEW020 BKN026 BKN032 12/07 Q1007", "LFQG 011100Z AUTO 28015KT 250V340 9999 SCT030/// BKN048/// BKN058/// ///TCU 12/08 Q1010", "LFQQ 011100Z AUTO 28013KT 6000 -DZ BKN007 BKN015 BKN025 09/09 Q1002 TEMPO 4000 RA OVC009 BKN020TCU", "LFRB 011100Z AUTO 29014KT 250V310 9999 BKN024/// BKN029/// BKN047/// ///TCU 11/07 Q1012 TEMPO 2000 TSRA BKN012 BKN020CB BECMG 28015G25KT", "LFRC 011100Z AUTO 29017KT 9999 FEW020 BKN042 BKN200 12/08 Q1007 TEMPO 3000 SHRA BKN012 BKN020CB BECMG 28015G30KT", "LFRD 011100Z AUTO 30016G26KT 270V330 9999 RA BKN024 BKN037 BKN048 11/08 Q1010 TEMPO 2000 TSRA BKN015 BKN020CB", "LFRG 011100Z AUTO 27017KT 9999 FEW015 BKN180 BKN200 12/08 Q1007 TEMPO 3000 SHRA BKN012 BKN020CB BECMG 27015G30KT", "LFRH 011100Z AUTO 28015KT 250V330 9999 FEW025/// SCT056/// BKN084/// //////TCU 12/07 Q1012 TEMPO VRB15G35KT 3000 TSRA BKN019CB", "LFRI 011100Z AUTO 28010KT 9999 FEW011/// BKN042/// BKN048/// //////TCU 09/08 Q1012 TEMPO 27018G32KT 3000 TSRA BKN016CB", "LFRJ 011100Z AUTO 29017G29KT 9999 BKN026 BKN033 BKN046 11/06 Q1011 TEMPO 2000 TSRA BKN010CB", "LFRK 011100Z AUTO 28014KT 9999 -RA SCT025/// BKN047/// BKN070/// //////CB 10/08 Q1007 TEMPO 3000 SHRA BKN012 BKN020CB BECMG 27015G30KT", "LFRL 011100Z AUTO 29019KT 9999 SCT025/// SCT030/// BKN043/// //////TCU 12/07 Q1012", "LFRM 011100Z AUTO 26010KT 220V320 9999 SCT037 BKN049 BKN058 13/06 Q1009 TEMPO 26016G30KT 4000 SHRA BKN018CB", "LFRN 011100Z AUTO 30012KT 270V330 9999 FEW030 BKN058 12/07 Q1010 TEMPO 28020G30KT 2000 TSRA BKN020CB", "LFRO 011100Z AUTO 28018G30KT 250V320 9999 SCT019 BKN030 BKN036 10/07 Q1011", "LFRQ 011100Z AUTO 29019G29KT 9999 -RA BKN023/// BKN030/// BKN040/// //////CB 10/07 Q1013 TEMPO 2000 TSRA", "LFRS 011100Z AUTO 28010KT 9999 -RA FEW026/// BKN043/// OVC050/// //////CB 09/08 Q1012 TEMPO 27020G32KT 3000 TSRA", "LFRT 011100Z AUTO 28017KT 9999 -RA BKN027 BKN038 BKN044 11/07 Q1010", "LFRU 011100Z AUTO 28016KT 250V310 9999 BKN025 BKN036 BKN044 12/07 Q1011", "LFRV 011100Z AUTO 28011KT 250V320 9999 SCT019 BKN096 10/07 Q1011", "LFRZ 011100Z AUTO 27015KT 9999 SCT014/// BKN019/// BKN045/// ///TCU 11/10 Q1012 TEMPO 27020G35KT 3000 TSRA SCT013 BKN018CB", "LFSB 011100Z AUTO 25014KT 210V280 9999 -RA FEW032/// SCT038/// BKN047/// ///CB 10/06 Q1008 TEMPO 24015G30KT 2000 TSRA", "LFSD 011100Z AUTO 24013KT 210V270 9999 FEW025/// SCT032/// BKN043/// ///CB 12/07 Q1009", "LFSG 011100Z AUTO 24018KT 9999 BKN020/// BKN025/// BKN040/// ///TCU 09/07 Q1006", "LFSI 011100Z AUTO 25017KT 9999 FEW022/// SCT041/// BKN049/// ///TCU 11/07 Q1005", "LFSL 011100Z AUTO 26012G22KT 220V300 9999 -RA BKN031/// BKN040/// BKN048/// ///TCU 12/06 Q1014 TEMPO 30020G35KT 1200 TSRA BKN010 BKN015CB", "LFSM 011100Z AUTO 23018KT 9999 4300 SCT022/// BKN028/// BKN076/// ///TCU 11/07 Q1008", "LFSN 011100Z AUTO 24013KT 200V270 9999 -RA FEW021/// SCT028/// BKN044/// ///TCU 10/07 Q1005", "LFSO 011100Z AUTO 25018KT 9000 -RA OVC016/// ///TCU 09/07 Q1005", "LFST 011100Z AUTO 22012KT 9999 -RA BKN035/// BKN052/// OVC064/// ///CB 10/07 Q1005 TEMPO 24015G30KT 4000 SHRA", "LFSX 011100Z AUTO 24014KT 220V280 9999 BKN024/// BKN032/// BKN043/// ///TCU 11/08 Q1008", "LFTH 011100Z AUTO 28017KT 250V310 CAVOK 18/05 Q1012 TEMPO 29025G35KT", "LFTW 011100Z AUTO 28009KT 240V310 CAVOK 15/06 Q1014 NOSIG", "LFVP 011100Z AUTO 27007KT CAVOK 01/M00 Q1019 NOSIG", "LFYR 011100Z AUTO 27011G23KT 190V300 9999 BKN039 OVC049 15/05 Q1010", "LGAD 011120Z 18013KT 9999 FEW018 SCT025 19/14 Q1012", "LGAL 011120Z 21015G25KT 9999 FEW015 18/12 Q1005", "LGAV 011120Z 22017KT 9999 FEW030 21/07 Q1008 NOSIG", "LGBL 011120Z 25015G25KT 9999 FEW030 SCT070 24/10 Q1005", "LGEL 011120Z 17006KT 9999 FEW030 21/09 Q1008", "LGHI 011050Z 20022G33KT 9999 FEW025 19/14 Q1009", "LGIO 011120Z 13010KT 9999 OVC020 14/10 Q1009", "LGIR 011120Z 33008KT 9999 FEW020 22/15 Q1014 NOSIG", "LGKF 011050Z 15008KT 8000 FEW012 SCT018 18/16 Q1011", "LGKL 011120Z 15009KT 9999 SCT025 19/13 Q1013", "LGKO 011120Z 17014KT 9999 FEW020 19/12 Q1015", "LGKP 011120Z 22017KT CAVOK 19/14 Q1015", "LGKR 011120Z 20004KT 9999 SCT015 SCT025 20/15 Q1009 NOSIG", "LGKV 011120Z 22005KT 9999 FEW020 SCT070 18/13 Q1005", "LGKZ 011050Z 22018KT 9999 SCT025 19/03 Q1006", "LGLM 011120Z 17015G26KT 9999 FEW015 18/15 Q1005", "LGMK 011120Z /////KT 9999 FEW015 18/11 Q1012", "LGMT 011120Z 17021G31KT 9999 SCT020 20/14 Q1011", "LGPZ 011120Z 23013KT 9999 FEW018 SCT025 20/14 Q1010", "LGRP 011120Z VRB05KT 9999 SCT018 SCT025 19/13 Q1015 NOSIG", "LGRX 011120Z 19018KT 9999 FEW025 20/13 Q1011", "LGSA 011120Z 31010KT 9999 FEW020 23/10 Q1012", "LGSK 011050Z 13009KT CAVOK 19/10 Q1004", "LGSM 011050Z 16015KT 9999 SCT018 BKN025 18/12 Q1014", "LGSO 011050Z 22020G33KT 9999 SCT014 17/12 Q1011", "LGSR 011120Z 22020KT 9999 FEW025 19/09 Q1013", "LGTS 011120Z 16009KT 9999 FEW025 22/08 Q1003 NOSIG", "LGZA 011050Z 18009KT 9999 SCT016 SCT018 18/15 Q1012", "LHBP 011100Z 32016KT 9999 SCT033 BKN047 13/06 Q1002 NOSIG", "LHDC 011045Z AUTO 24007KT 210V290 9999 FEW022 SCT029 14/08 Q1001 NOSIG", "LHKE 011115Z 29014KT 260V320 9999 SCT033 BKN116 14/06 Q1002 NOSIG RMK BLU", "LHPA 011045Z 32014KT 290V350 9999 BKN037 SCT083 BKN200 15/05 Q1004 NOSIG RMK BLU", "LHPP 011045Z AUTO 27013KT 9999 FEW009 BKN070 11/09 Q1004", "LHPR 011045Z AUTO 30017KT 9999 BKN047 14/04 Q1003 NOSIG", "LHSM 011045Z AUTO 29006KT 220V330 9999 FEW031 BKN076 15/07 Q1004 NOSIG", "LHSN 011115Z 29012KT 240V320 9999 FEW040 SCT083 BKN200 15/06 Q1001 NOSIG RMK BLU", "LIBA 011055Z 33009KT 9999 FEW040 20/09 Q1007 RMK BKN SCT070 BKN200 VIS MIN 9999 WIND THR11 32007KT WIND THR29 /////KT BLU", "LIBC 011050Z 22020G30KT CAVOK 19/11 Q1009", "LIBD 011120Z 01009KT 310V050 9999 SCT040 18/11 Q1007", "LIBF 011107Z 33012KT 9999 FEW040 21/08 Q1007", "LIBG 011050Z 21007KT 170V270 9999 SCT030 21/10 Q1007", "LIBN 011055Z 26014KT 9999 FEW030 FEW035TCU 18/12 Q1008 RMK SCT SCT200 VIS MIN 9999 WIND THR14 26014KT WIND THR32 26015KT BLU", "LIBP 011120Z AUTO 04007KT 010V080 9999 NCD 18/09 Q1007", "LIBQ 011055Z 26016G27KT 220V290 9999 SCT004 06/03 Q1010", "LIBR 011120Z 05004KT 360V080 9999 SCT040 17/10 Q1007", "LIBV 011055Z 26016KT 9999 FEW030 BKN050 18/01 Q1006 RMK BKN BKN250 VIS MIN 9999 WIND THR32 27015KT WIND THR14 27016KT BLU", "LIBY 011055Z ///09KT 9999 FEW018 18/13 Q1008 RMK BKN SCT090 QUK 3 QUL 1 SW VIS MAR 25 KM VIS MAX 25 KM VIS MIN 9999", "LICA 011120Z AUTO 25018KT 9999 NCD 18/14 Q1011", "LICB 011120Z AUTO 27005KT 240V300 9999 NCD 22/10 Q1013", "LICC 011120Z 24017KT CAVOK 25/09 Q1011", "LICD 011120Z AUTO 36011KT 9999 NCD 19/14 Q1015", "LICF 011055Z 01004KT 9999 FEW030 21/M01 Q1011 RMK SCT SCT200 QUK 2 QUL 0 VIS MAR 20 KM MON LIB NC VIS MIN 9999", "LICG 011050Z 31009KT 9999 FEW010 16/14 Q1016", "LICJ 011120Z 24010KT 210V270 CAVOK 18/10 Q1013", "LICR 011120Z AUTO 35014KT 9999 NCD 23/04 Q1012", "LICT 011055Z 26009KT 9999 FEW021 18/16 Q1014 RMK BKN BKN200 VIS MIN 9999 WIND THR13 27007KT BLU", "LICZ 011055Z /////KT 9999 FEW100 20/05 Q1011 RMK BKN BKN200 VIS MIN 9999 WIND THR28 24014KT WIND THR10 25018KT A2987 BLU", "LIEA 011120Z 29010G22KT 260V320 CAVOK 16/10 Q1014", "LIEB 011055Z 32019KT 9999 FEW025 20/02 Q1011 RMK BKN BKN200 QUK 2 QUL 0 VIS MAR 30 KM MON LIB VIS MIN 9999", "LIED 011055Z 31015KT 9999 FEW025 19/06 Q1014 RMK BKN SCT100 VIS MIN 9999 WIND THR35 /////KT WIND THR17 31014KT BLU", "LIEE 011120Z 35015KT CAVOK 20/06 Q1014", "LIEO 011120Z 28022G33KT 9999 FEW040 19/06 Q1012", "LIMA 011050Z 27011KT 220V300 CAVOK 19/M06 Q1006", "LIMC 011120Z VRB02KT CAVOK 19/01 Q1006 NOSIG", "LIME 011120Z 24011KT 9999 FEW045 19/02 Q1005 NOSIG", "LIMF 011120Z 14005KT 090V190 CAVOK 19/M05 Q1005", "LIMG 011050Z 05009KT 020V090 CAVOK 17/10 Q1007", "LIMH 011055Z AUTO 02012G29KT //// M12/M14 Q1006", "LIMJ 011120Z 20003KT 170V230 9999 SCT013 15/11 Q1007", "LIMK 011055Z 02002KT 9999 FEW020 15/M13 Q1005", "LIML 011120Z 26008KT 230V290 CAVOK 19/05 Q1006 NOSIG", "LIMP 011050Z 29006KT 260V330 CAVOK 19/08 Q1005", "LIMS 011055Z 32009KT 280V360 CAVOK 19/M01 Q1005 RMK SKC VIS MIN 9999 WIND THR30 31010KT BLU", "LIMU 011055Z 21004KT CAVOK 14/10 Q1006 RMK FEW FEW080 QUK 2 QUL 1 S VIS MAR 35 KM VIS MIN 9999", "LIMV 011055Z /////KT CAVOK 13/06 Q1007 RMK SKC MON LIB VAL NIL VIS MIN 9999", "LIMW 011120Z AUTO 24018KT 9999 NCD 16/M04 Q1008", "LIMZ 011120Z AUTO 22005KT 180V270 9999 NCD 19/M04 Q1006", "LIPA 011055Z 24001KT 9999 FEW055 SCT070 15/09 Q1005 RMK SCT VIS MIN 9999 WIND THR05 /////KT WIND THR23 /////KT A2970 BLU", "LIPB 011050Z VRB02KT 9999 SCT080 15/04 Q1006", "LIPC 011055Z 08008KT CAVOK 18/11 Q1006 RMK SKC VIS MIN 9999 WIND THR11 09009KT WIND THR29 08008KT BLU", "LIPE 011120Z 28007KT 260V320 CAVOK 19/06 Q1005", "LIPF 011055Z 30006KT CAVOK 21/05 Q1006 RMK SKC VIS MIN 9999", "LIPH 011120Z 21004KT 150V230 CAVOK 17/08 Q1005", "LIPI 011055Z VRB02KT 9999 FEW080 16/07 Q1005 RMK SCT SCT150 VIS MIN 9999 WIND THR06 VRB02KT WIND THR24 VRB03KT BLU", "LIPK 011050Z VRB01KT 9999 FEW030 19/06 Q1006", "LIPL 011055Z 27009KT 9999 SCT040 15/07 Q1005 RMK SCT VIS MIN 9999 WIND THR31 27013KT WIND THR13 26011KT BLU", "LIPO 011120Z AUTO 25015KT 220V280 9999 NCD 18/06 Q1005", "LIPQ 011120Z AUTO VRB03KT 9999 NCD 18/05 Q1005", "LIPR 011120Z 04009KT 9999 VCTS FEW045CB 15/10 Q1006", "LIPS 011055Z /////KT 9999 FEW030 17/09 Q1005 RMK BKN SCT140 VIS MIN 9999 WIND THR26 09002KT WIND THR08 28002KT BLU", "LIPU 011050Z VRB02KT 6000 NSC 17/08 Q1005", "LIPX 011120Z 26005KT 220V310 9999 SCT040 18/04 Q1005", "LIPY 011120Z AUTO 05008KT 9999 NCD 17/11 Q1006", "LIPZ 011120Z 15007KT CAVOK 14/09 Q1005 NOSIG", "LIQC 011055Z 27009KT CAVOK 15/11 Q1011 RMK SCT SCT070 QUK 3 QUL 2 SW VIS MAR 20 KM VIS MIN 9999", "LIQN 011050Z 24008KT 190V280 CAVOK 16/05 Q1009", "LIRA 011120Z 27005KT 190V310 9999 FEW040 17/07 Q1009", "LIRE 011055Z 27011KT 9999 FEW022 17/11 Q1010 RMK BKN SCT200 VIS MIN 9999 WIND THR13 26009KT WIND THR31 /////KT BLU", "LIRF 011120Z 26011KT 230V290 CAVOK 17/09 Q1009 NOSIG", "LIRI 011050Z 24016KT 9999 FEW020 18/12 Q1010", "LIRK 011055Z AUTO /////KT //// ///// Q////", "LIRM 011055Z 22013KT 9999 FEW030 17/08 Q1009 RMK SCT SCT160 VIS MIN 9999 WIND THR06 25015KT BLU", "LIRN 011120Z 26014KT 230V290 9999 FEW040 18/08 Q1010 NOSIG", "LIRP 011115Z 22008KT 190V270 9999 FEW025 16/08 Q1007 NOSIG", "LIRQ 011120Z 25007KT 210V300 9999 SCT040 19/08 Q1007", "LIRS 011055Z 29015KT 9999 FEW025 18/07 Q1008 RMK SCT SCT200 VIS MIN 9999 WIND THR03 31013KT WIND THR21 29012KT BLU", "LIRT 011055Z 29017KT 9999 SCT008 10/M00 Q1009", "LIRU 011050Z 20003KT 130V250 9999 FEW030 19/08 Q1009", "LIRV 011055Z 22007KT 9999 SCT040 16/07 Q1009 RMK BKN SCT200 MON E SE LIB NC VIS MIN 9999 WIND THR04 /////KT BLU", "LIRX 011055Z 36004KT CAVOK 15/07 Q1008 RMK FEW FEW200 VIS MIN 9999 VIS MAR 20 KM", "LIRZ 011120Z AUTO 28007KT 240V320 9999 FEW051/// 17/06 Q1008", "LIVC 011055Z AUTO 30004KT //// 03/M05 Q1009", "LIVD 011055Z AUTO 29005KT 210V330 //// 10/01 Q1007", "LIVE 011055Z 30002KT 9999 BKN050 07/M03 Q1005 RMK BKN VIS MIN 9999", "LIVM 011055Z AUTO /////KT //// ///// Q////", "LIVP 011055Z 23003KT 9999 SCT005 01/M04 Q1005", "LIVR 011055Z 27006KT CAVOK 01/M11 Q1004 RMK BKN BKN060 MON LIB VIS MIN 9999", "LIVT 011055Z AUTO 29003KT //// 14/09 Q1006", "LJCE 011100Z 27007KT 230V300 9999 FEW035 SCT130 16/07 Q1005 RMK BLU", "LJLJ 011100Z VRB01KT 9999 FEW040 SCT100 BKN170 12/07 Q1005 NOSIG", "LJMB 011100Z 32009KT 9999 VCSH FEW050TCU FEW060 BKN110 15/04 Q1004", "LJPZ 011100Z 32006KT 290V350 9999 FEW030 SCT130 15/09 Q1006", "LKCV 011100Z 26013KT 9999 FEW024 BKN040 12/05 Q1001 NOSIG RMK BLU BLU", "LKKB 011100Z 25016KT 9999 SCT036 BKN043 12/04 Q1001 NOSIG", "LKKU 011100Z 19005KT 9999 VCSH FEW036 BKN048 12/07 Q1002", "LKKV 011100Z 23006KT 190V290 9999 -SHRA BKN019 08/04 Q1001", "LKLN 011100Z AUTO 23011KT 200V270 9999 OVC031 10/05 Q1002", "LKMT 011100Z 21012KT 9999 BKN030 11/08 Q1001 NOSIG", "LKNA 011100Z 27016KT 9999 -SHRA BKN035 10/03 Q1002 NOSIG RMK BLU BLU", "LKPD 011100Z 26012KT 9999 OVC047 12/07 Q1001 RMK BLACK", "LKPR 011100Z 25015KT 9999 FEW031 BKN048 11/06 Q1001 NOSIG", "LKTB 011100Z 30009KT 9999 -SHRA BKN041 12/04 Q1002 NOSIG", "LLBG 011120Z 28007KT 240V320 9999 SCT045 20/07 Q1019 NOSIG", "LLER 011050Z 01015KT CAVOK 22/M03 Q1018", "LLHA 011050Z 28008KT 9999 FEW045 19/07 Q1019", "LLIB 011050Z AUTO 16004KT 110V210 9999 SCT046 18/07 Q1019", "LMML 011115Z 31006KT 270V340 CAVOK 24/11 Q1014 NOSIG", "LOAN 011100Z 27010G20KT 9999 BKN040", "LOAV 011100Z 28010G20KT 9999 BKN040 15/06", "LOWG 011120Z 29006KT 240V330 9999 FEW050 SCT070 14/02 Q1004 NOSIG", "LOWI 011120Z 24010KT 200V270 9999 FEW080 BKN090 14/02 Q1004 NOSIG", "LOWK 011120Z VRB02KT 9999 FEW015 12/06 Q1005 NOSIG", "LOWL 011120Z AUTO 27018KT 9999 FEW040 OVC060 13/04 Q1004 TEMPO SHRA", "LOWS 011120Z 16007KT 9999 FEW042 SCT055 BKN070 12/06 Q1004 TEMPO 29015G25KT", "LOWW 011120Z 28017KT 9999 FEW042 SCT046 14/03 Q1003 NOSIG", "LOXZ 011120Z 28012KT 9999 FEW040 SCT060 BKN160 10/02 Q1005 NOSIG", "LPAZ 011100Z 14015KT 9999 FEW006 18/16 Q1024", "LPBJ 011100Z 31009KT 9999 FEW020 BKN038 17/12 Q1027", "LPCS 011100Z 28008KT 230V320 9999 SCT016 19/14 Q1027", "LPFL 011100Z 18016G27KT 150V210 9999 BKN007 17/15 Q1015", "LPFR 011100Z 23010KT 190V250 9999 SCT038 19/12 Q1026", "LPHR 011100Z 14005KT 110V170 9999 FEW005 BKN014 17/16 Q1020", "LPLA 011100Z /////KT 9999 FEW013 18/16 Q1021", "LPMA 011100Z 04012KT 9999 FEW015 SCT030 20/15 Q1028", "LPMR 011100Z 23007KT 200V270 3500 -DZ BR BKN006 BKN013 15/15 Q1025", "LPMT 011100Z 25007KT 220V280 9999 FEW020 SCT026 20/14 Q1026", "LPOV 011100Z 13005KT 110V170 2500 -RADZ BR SCT006 BKN014 14/13 Q1025", "LPPD 011100Z 14009KT 9999 FEW008 BKN015 17/15 Q1024", "LPPR 011100Z 13004KT 060V160 2500 -RADZ BR BKN004 BKN011 13/13 Q1025", "LPPS 011100Z 09013KT 050V140 9999 SCT015 19/15 Q1029", "LPPT 011100Z 31010KT 270V340 9999 FEW020 SCT025 19/13 Q1026", "LQBK 011100Z 20008KT 9999 SCT018 13/10 Q1006 NOSIG", "LQMO 011100Z 01004KT 330V090 9999 SCT050 17/07 Q1004", "LQSA 011100Z 02004KT 360V080 9999 SCT018 BKN035 07/06 Q1007 NOSIG", "LQTZ 011100Z 26006KT 230V290 8000 -RA FEW006 SCT015 BKN035 08/08 Q1006", "LRAR 011100Z 31007KT 9999 SCT016 BKN028 12/09 Q1002", "LRBC 011100Z 17011KT CAVOK 11/07 Q1001", "LRBM 011100Z AUTO 04004KT 010V080 9999 BKN047/// 12/09 Q1001", "LRBS 011100Z 30006KT 250V020 CAVOK 14/08 Q1002 NOSIG", "LRCK 011100Z 19013KT CAVOK 14/10 Q1003 NOSIG", "LRCL 011100Z 07006KT 9999 FEW011 SCT015 OVC029 11/08 Q1001", "LRCV 011100Z 01003KT 9999 -RA FEW045 12/11 Q1001", "LRIA 011100Z 11005KT CAVOK 12/10 Q1001", "LROD 011100Z 21010KT 9999 SCT015 12/09 Q1001", "LROP 011100Z 30008KT CAVOK 14/10 Q1002 NOSIG", "LRSB 011100Z 36006KT 320V030 9999 FEW030 BKN045 BKN075 12/07 Q1001", "LRSM 011100Z 25004KT 210V290 9999 SCT030 14/10 Q1000", "LRSV 011100Z 12005KT 100V160 9999 FEW050 14/10 Q0999", "LRTC 011100Z 13013KT CAVOK 12/07 Q1002", "LRTM 011100Z 07004KT 7000 BKN044 09/08 Q1001", "LRTR 011100Z 25004KT 9999 -RA FEW018 BKN035 11/11 Q1002 NOSIG", "LSGC 011120Z AUTO 24014KT 9999 BKN011 BKN013 BKN015 05/04 Q1008", "LSGG 011120Z 19014KT 9999 FEW015 SCT045 11/05 Q1012 NOSIG", "LSGS 011120Z VRB02KT 9999 SCT050 BKN100 11/04 Q1010", "LSMA 011120Z AUTO 24011G21KT 200V280 9999NDV -SHRA BKN043 BKN05 3 BKN062 11/03 Q1009 RMK", "LSMD 011120Z AUTO 29011KT 260V330 9999NDV -RA FEW023 BKN036 BKN 041 10/05 Q1008 RMK", "LSME 011120Z AUTO 24017KT 9999NDV BKN052 11/02 Q1008 RMK", "LSMM 011120Z AUTO 10005KT 050V140 9999NDV SCT045 BKN062 09/05 Q 1009 RMK", "LSMP 011120Z AUTO 23015G25KT 9999NDV -SHRA BKN027 BKN070 10/06 Q1010 RMK", "LSZA 011120Z 19007KT 9999 FEW080 SCT110 18/02 Q1006", "LSZB 011120Z 22016G29KT 9999 FEW039 SCT049 BKN130 11/03 Q1009 WS ALL RWY", "LSZC 011120Z AUTO 26013KT 9999 BKN050 11/02 Q1009", "LSZG 011120Z 25020G31KT 9999 RA SCT011 SCT014 BKN022 08/07 Q1009", "LSZH 011120Z 25015KT 9999 -DZ FEW022 SCT045 BKN058 09/05 Q1008 TEMPO SHRA", "LSZL 011120Z AUTO 25008KT 9999NDV FEW110 14/05 Q1006 RMK", "LSZR 011120Z 24008KT 190V290 9999 VCSH FEW045 BKN090 10/03 Q1007 RMK H", "LSZS 011120Z VRB04KT 9999 BKN060 05/M08 Q1006 RMK M TL180", "LTAC 011120Z 23009KT 170V250 9999 SCT045 15/00 Q1012 NOSIG", "LTAE 011050Z 17008KT 110V220 9999 SCT040 19/06 Q1012 NOSIG RMK RWY21 VRB06KT", "LTAF 011120Z 20006KT 110V280 9999 FEW035 19/04 Q1016 NOSIG", "LTAG 011120Z 05004KT CAVOK 19/05 Q1016 TEMPO FM1200 19012KT", "LTAI 011120Z 15008KT 9999 FEW030 SCT100 17/05 Q1016 NOSIG", "LTAJ 011120Z VRB06KT CAVOK 15/01 Q1015 NOSIG", "LTAL 011050Z VRB07KT 9999 SCT033 SCT100 13/02 Q1011", "LTAN 011050Z 16008KT 100V190 9999 FEW040 SCT100 15/M01 Q1014 NOSIG", "LTAP 011120Z VRB03KT 9999 SCT040 14/03 Q1013 NOSIG", "LTAR 011050Z 22005KT 130V290 9999 SCT015 BKN030 03/M02 Q1015", "LTAS 011050Z 20006KT 110V230 9999 FEW040 SCT200 22/07 Q1008", "LTAT 011120Z 26007KT 230V300 9999 SCT040 14/M01 Q1015 NOSIG", "LTAU 011120Z VRB05KT 9999 SCT040 12/M01 Q1015 NOSIG", "LTAW 011050Z VRB04KT 9999 SCT040 12/00 Q1015", "LTAY 011050Z 27004KT 200V320 CAVOK 18/05 Q1013 NOSIG", "LTAZ 011120Z 22009KT 170V260 9999 BKN035 15/01 Q1014", "LTBA 011120Z 21008KT CAVOK 17/08 Q1006", "LTBD 011050Z 19009KT 9999 BKN040 BKN090 19/11 Q1014", "LTBF 011050Z 18011KT 9999 FEW035 SCT100 19/08 Q1009 NOSIG", "LTBH 011050Z 23018G28KT 190V250 CAVOK 20/11 Q1005", "LTBJ 011120Z 18019KT 9999 SCT030 BKN100 18/11 Q1012 NOSIG", "LTBL 011112Z 14021G31KT 9999 FEW040 SCT200 20/11 Q1011 NOSIG RMK RWY17 16022G32KT", "LTBO 011050Z 22009KT 170V240 9999 SCT040 BKN200 14/04 Q1014", "LTBQ 011050Z 24006KT 170V310 CAVOK 23/04 Q1007 NOSIG", "LTBR 011120Z 16005KT 9999 FEW040 SCT100 BKN180 21/06 Q1008 NOSIG", "LTBS 011120Z 20010KT 9999 SCT030 BKN120 19/13 Q1016 NOSIG", "LTBU 011120Z 18013KT CAVOK 19/09 Q1006", "LTBY 011050Z 10006KT 060V160 CAVOK 17/05 Q1011", "LTCA 011050Z 33008KT 270V060 9999 FEW035 11/M07 Q1015 NOSIG", "LTCB 011050Z 08007KT CAVOK 12/06 Q1015 NOSIG", "LTCC 011120Z 23008KT 180V280 CAVOK 12/M03 Q1016 NOSIG", "LTCD 011050Z VRB02KT CAVOK 08/M12 Q1015 NOSIG", "LTCE 011120Z 26010KT 240V310 CAVOK 03/M09 Q1013 NOSIG", "LTCF 011050Z 17010KT 9999 FEW040 SCT080 01/M05 Q1011 NOSIG", "LTCG 011120Z 09008KT CAVOK 10/04 Q1016 NOSIG", "LTCI 011050Z 28010KT 9999 FEW030 SCT070 01/M03 Q1016 NOSIG", "LTCJ 011120Z VRB04KT 9999 FEW040 11/M00 Q1016 NOSIG", "LTCK 011050Z 26006KT 210V340 9999 FEW030 05/M06 Q1014", "LTCL 011050Z VRB03KT 9999 SCT040 09/M00 Q1017", "LTCN 011050Z 23010KT 180V250 9999 FEW040 15/M00 Q1015", "LTCO 011050Z 19012KT 9999 SCT040 BKN080 01/M05 Q1012", "LTCP 011050Z 23008KT 200V260 CAVOK 11/M05 Q1016", "LTCR 011050Z 14007KT 110V200 9999 BKN040 12/02 Q1017", "LTCS 011120Z 22008KT 190V280 CAVOK 10/M03 Q1016", "LTCT 011050Z 12005KT 060V230 9999 SCT040 BKN070 09/00 Q1012", "LTCU 011050Z 17009KT 9999 FEW035 09/M04 Q1015", "LTCV 011050Z 15006KT 030V200 9999 SCT040 09/01 Q1017", "LTCW 011050Z 09006KT 360V130 9999 SCT025 BKN080 M02/M07 Q1013", "LTDA 011050Z 22018KT 9999 SCT040 18/08 Q1016 NOSIG", "LTFC 011120Z 23005KT 180V260 9999 FEW035 BKN180 17/04 Q1014", "LTFD 011050Z 23014KT 180V250 9999 BKN035 22/11 Q1009", "LTFE 011120Z 15014KT 9999 SCT035 BKN100 19/09 Q1014 NOSIG", "LTFG 011050Z 22008KT 180V250 9999 SCT025 19/11 Q1018", "LTFH 011050Z 11007KT 080V150 CAVOK 19/05 Q1013 NOSIG", "LTFJ 011120Z 23008KT 210V270 CAVOK 21/06 Q1007 NOSIG", "LTFM 011120Z 21022G32KT CAVOK 19/07 Q1006 NOSIG", "LTFO 011050Z 04012KT CAVOK 10/04 Q1016", "LUKK 011100Z 16009KT CAVOK 15/09 Q1002 NOSIG", "LWOH 011100Z 16009KT 9999 -RA FEW020 BKN033 OVC040 10/07 Q1006", "LWSK 011130Z 25010G20KT 9999 BKN070 20/06 Q1002 TEMPO 27015G30KT", "LXGB 011120Z 27014KT CAVOK 22/11 Q1024 NOSIG RMK BLU BLU", "LYBE 011100Z 34018KT 9999 -RA SCT008 BKN040 10/09 Q1002 NOSIG", "LYBT 011100Z 33016KT 8000 -RA BKN007 BKN040 10/10 Q1002 TEMPO 33020G30KT", "LYKV 011100Z 34007KT 300V020 9999 BKN035 13/11 Q1000 BECMG 33015G25KT", "LYNI 011100Z 17005KT 130V240 9999 FEW017 BKN040 12/10 Q1002 NOSIG", "LYPG 011100Z 21014KT 170V250 9999 FEW027 SCT034 18/06 Q1004 NOSIG", "LYTV 011100Z 16007KT 130V190 9999 FEW040 16/09 Q1006 NOSIG", "LYVR 011100Z AUTO 36010G20KT 9999 -RA BKN005/// BKN015/// OVC056/// 11/11 Q1002 RERA", "LZIB 011100Z 29014KT 9999 -SHRA SCT043 14/04 Q1003 NOSIG", "LZKZ 011100Z VRB02KT 9999 FEW015 13/08 Q1000 NOSIG", "LZPP 011100Z 30010KT 9999 BKN033 14/06 Q1002", "LZTT 011100Z 27015KT 9999 FEW030 SCT063 13/02 Q0999 NOSIG", "LZZI 011100Z 24008KT 9999 -RA FEW017 BKN024 OVC032 09/07 Q1001", "MBPV 011100Z 10005KT 9999 SCT012 24/19 Q1019", "MDCY 011100Z 00000KT FEW016 9999 20/19 Q1018", "MDJB 011100Z 00000KT 9999 FEW016 20/19 Q1020", "MDLR 011100Z 00000KT 9999 FEW016 22/21 Q1018", "MDPC 011100Z 07010KT 9999 SCT019 25/19 Q1020", "MDPP 011100Z 00000KT 9999 SCT016 21/20 Q1019", "MDSD 011100Z 04006KT 9999 FEW017 20/19 Q1020 NOSIG", "MDST 011100Z VRB03KT 9999 FEW016 21/20 Q1020", "MGGT 011100Z 01010KT 9999 BKN015 16/14 Q1021 A3015", "MGHT 011100Z 00000KT 9999 OVC018 12/10", "MGMM 011100Z 00000KT CAVOK 20/19 Q1015 A2997", "MGPB 011100Z 00000KT 9999 FEW016 23/23 Q1012 A2988", "MHLM 011100Z 25004KT 9999 FEW026 22/20 Q1014 A2994 NOSIG", "MHPR 011100Z 35002KT 9999 FEW044 18/14 Q1017 A3005 NOSIG", "MHTG 011100Z 11010KT 9999 SCT032 18/10 Q1019 A3009 NOSIG", "MKJP 011100Z 36003KT 9999 FEW020 SCT034 25/20 Q1017", "MKJS 011100Z 12006KT 9999 FEW024 24/19 Q1017", "MMAA 011043Z 00000KT 5SM SKC 23/20 A2989 RMK HZY", "MMAS 011042Z 28005KT 8SM SCT200 11/M05 A3023 RMK 8/008 HZY", "MMCP 011106Z RTD 12006KT 7SM SKC 22/20 A2997 RMK RTS", "MMCZ 011043Z 00000KT 8SM SKC 23/21 A3001", "MMDO 011102Z RTD 24002KT 6SM SCT200 11/M04 A3027 RMK 8/001 RTS", "MMGL 011043Z 00000KT 8SM SCT300 15/M02 A3016 RMK 8/001", "MMHO 011040Z 00000KT 10SM SKC 10/05 A3005 RMK HZY ISOL CI", "MMLO 011046Z 00000KT 7SM SCT220 14/08 A3027 RMK 8/002 HZY", "MMMD 011041Z 13006KT 6SM SKC 22/21 A3000 RMK HZY", "MMMM 011041Z 00000KT 6SM SKC 11/03 A3022 RMK HZY CI", "MMMX 011044Z 07004KT 10SM BKN250 15/04 A3031 NOSIG RMK 8/002 HZY", "MMMY 011040Z 00000KT 6SM FEW030 20/20 A2998 RMK 8/500 HZY", "MMMZ 011040Z 00000KT 10SM OVC220 16/13 A2989 RMK 8/007 BINOVC", "MMQT 011041Z 00000KT 7SM SCT020 13/05 A3029 RMK 8/500", "MMSD 011045Z 27012KT 10SM SCT250 17/10 A2997 RMK 8/008", "MMSP 011043Z 12004KT 7SM SKC 14/11 A3022 RMK FU", "MMTC 011040Z 01006KT 8SM SCT100 BKN200 23/02 A3010 RMK 8/072 HZY RTS", "MMTG 011045Z 27004KT 5SM SKC 23/18 A2996 RMK FU HZ RTS", "MMTJ 011040Z 11003KT 8SM SKC 08/07 A3013 RMK HZY", "MMTO 011043Z 00000KT 7SM SKC 09/06 A3037 RMK HZY", "MMTP 011041Z 00000KT 8SM SKC 25/25 A2988 RMK HZY", "MMUN 011047Z 11006KT 7SM SCT015 25/23 A3003 RMK 8/100", "MMZC 011040Z E00000KT 10SM SCT100 11/M05 A3026 RMK 8/030", "MNMG 011100Z 13006KT 9999 FEW022 SCT070 23/20 Q1012 A2991 NOSIG", "MPDA 011100Z VRB02KT CAVOK 20/19 Q1010", "MPMG 011100Z AUTO 31007KT //// R01///// // FEW038/// 25/22 Q1011", "MPPA 011100Z 33008KT 9000 FEW020 25/22 Q1010", "MPTO 011100Z 24003KT 9999 SCT018 24/22 Q1010 NOSIG", "MROC 011100Z 11009KT 080V140 CAVOK 20/13 A2998 NOSIG", "MSLP 011050Z 15002KT CAVOK 21/17 Q1011 A2986 NOSIG", "MTPP 011100Z 11012KT 9000 FEW020 25/17 Q1017 A3005", "MUCC 011050Z 09009KT 9000 SCT018 25/22 Q1019", "MUCF 011059Z AUTO 07005KT 020V090 21/20 Q1019", "MUCL 011050Z 10010KT 060V140 9000 SCT020 26/22 Q1018", "MUCM 011050Z 07004KT 7000 VCFG FEW016 21/20 Q1019", "MUCU 011050Z 33005KT 9000 FEW020 22/17 Q1018", "MUGM 011051Z 31005KT 10SM FEW030 FEW050 22/18 A3008 RMK AO2 SLP187 T02220178 $", "MUHA 011050Z 11006KT 080V160 9000 FEW040 SCT090 23/20 Q1019", "MUHG 011050Z 03005KT 8000 FEW020 20/19 Q1019", "MUSC 011050Z 12004KT 9000 FEW030 20/19 Q1020", "MUVR 011050Z 12004KT 9000 FEW030 21/20 Q1020", "MWCR 011100Z 06007KT 9999 FEW018 26/23 Q1017", "MYEM 011100Z AUTO 09013KT //// R33///// // FEW019 24/21 Q1021 A3016", "MYGF 011100Z 15008KT 9999 SCT020 SCT250 24/20 A3016", "MYNN 011100Z 12008KT 9999 FEW020 23/20 A3017", "MZBZ 011100Z 11005KT 9999 FEW016 27/23 A2996 Q1014 NOSIG", "NCAI 011100Z AUTO 02003KT //// ////// 28/25 Q1007", "NCAT 011100Z AUTO 02001KT //// ////// ///// Q////", "NCMG 011100Z AUTO 10002KT //// ////// ///// Q////", "NCMH 011100Z AUTO 12002KT //// ////// ///// Q1008", "NCMK 011100Z AUTO NIL", "NCMR 011100Z AUTO 34002KT //// ////// ///// Q1007", "NCNS 011100Z AUTO 13001KT //// ////// 26/25 Q1008", "NCPK 011100Z AUTO NIL", "NCPL 011100Z AUTO 13001KT //// ////// 26/24 Q1008", "NCPY 011100Z AUTO 09008KT //// ////// 29/25 Q1007", "NCRG 011100Z AUTO 19003KT 9999 NCD 24/24 Q1007", "NCRK 011100Z AUTO 09002KT //// ////// 28/25 Q1007", "NCSW 011100Z AUTO 35001KT //// ////// 27/23 Q1008", "NFFN 011100Z 12005KT 9999 FEW030 26/23 Q1011 NOSIG", "NFNA 011100Z 08004KT 9999 SCT024 27/24 Q1011", "NFTF 011100Z 12006KT 9999 FEW016 25/24 Q1013", "NGFU 011100Z VRB01KT 9999 FEW018TCU SCT020 BKN300 29/26 Q1008", "NGTA 011100Z 02005KT 9999 FEW019 SCT100 BKN300 28/24 Q1010", "NIUE 011100Z AUTO 13006KT 25/24 Q1010", "NLWW 011100Z AUTO VRB03KT 9999 FEW022/// 28/24 Q1009 TEMPO 4000 SHRA BKN014 FEW020TCU", "NSFA 011100Z 17004KT 9999 FEW022 24/24 Q1009", "NSTU 011050Z VRB03KT 10SM SCT021TCU SCT100 25/25 A2979 RMK TCU SE-S-SW AND W SLP088 T02540253 403020254", "NTAA 011100Z 10003KT 060V130 9999 FEW023 27/23 Q1008 NOSIG", "NVVV 011100Z 06002KT 9999 FEW020 24/24 Q1010", "NWWW 011100Z AUTO 00000KT 9999 SCT008/// SCT015/// BKN023/// ///TCU 24/24 Q1010 TEMPO 4000 SHRA BKN009 SCT016CB", "NZAA 011100Z AUTO 03004KT 9999 SCT017/// BKN050/// 19/18 Q1012", "NZCH 011100Z AUTO 01004KT 340V060 9999 NCD 14/10 Q1000", "NZCM 011055Z AUTO 02003KT 9999 CLR M19/M23 A2988 RMK AO2 SLP124 T11931232", "NZWN 011100Z AUTO 34017G27KT 9999 BKN019/// 19/16 Q1007", "OBBI 011100Z 34024KT CAVOK 23/09 Q1013 NOSIG", "OEAB 011100Z 20013KT 9999 SCT018 SCT020 21/11 Q1022 NOSIG", "OEAH 011100Z 35020KT 6000 NSC 26/M02 Q1013 NOSIG", "OEAO 011100Z 34004KT CAVOK 23/M08 Q1017 NOSIG", "OEBA 011100Z 22012KT 9999 SCT030 27/07 Q1017 NOSIG", "OEBH 011100Z 15003KT 9999 FEW030 30/08 Q1013 NOSIG", "OEDF 011100Z 34017KT 3000 BLDU NSC 24/04 Q1014 BECMG 4000", "OEDM 011100Z 06006KT CAVOK 22/M03 Q1016", "OEDR 011100Z 35023KT 8000 NSC 24/05 Q1012", "OEGN 011100Z 26011KT 9000 FEW030 33/25 Q1009 NOSIG", "OEGS 011100Z 03006KT CAVOK 23/02 Q1017", "OEGT 011100Z 27008KT CAVOK 18/M01 Q1018 NOSIG", "OEHL 011100Z 10004KT CAVOK 19/M02 Q1018", "OEJB 011100Z AUTO 01012KT CAVOK 23/04 Q1015 NOSIG", "OEJN 011100Z 28014KT CAVOK 29/15 Q1010 NOSIG", "OEKJ 011100Z 01018KT CAVOK 25/M01 Q1017", "OEKM 011100Z 20016KT 9999 SCT020 23/11 Q1022 NOSIG", "OEMA 011100Z 13009KT CAVOK 25/M05 Q1017 NOSIG", "OEMN 011100Z 30002KT 9999 FEW040 34/12 Q1011", "OENG 011100Z 09008KT 9999 FEW030 32/08 Q1014 NOSIG", "OEPA 011100Z 28004KT 7000 NSC 21/M01 Q1018 TEMPO 5000", "OEPS 011055Z 01014G20KT 9999 CLR 24/M00 A3003 RMK AO2A SLP156 WND DATA ESTMD T02421005", "OERF 011100Z 03006KT 3500 DU NSC 18/M06 Q1018 NOSIG", "OERK 011100Z 36012KT 9999 FEW040 22/M05 Q1017 NOSIG", "OERR 011100Z 24003KT CAVOK 17/M09 Q1018 NOSIG", "OESH 011100Z 36010KT 5000 DU NSC 35/11 Q1011 NOSIG", "OESK 011100Z 27010KT CAVOK 18/M09 Q1020 NOSIG", "OETB 011100Z 09003KT CAVOK 19/M05 Q1017 NOSIG", "OETF 011100Z 34006KT 9999 SCT030 26/02 Q1018 NOSIG", "OETR 011100Z 26004KT CAVOK 14/M05 Q1018 NOSIG", "OEWD 011100Z 08014KT 030V120 4000 BLDU NSC 31/01 Q1012 NOSIG", "OEWJ 011100Z 29014KT CAVOK 26/07 Q1014 NOSIG", "OEYN 011100Z 23014KT CAVOK 30/10 Q1010 NOSIG", "OIAA 011100Z 33023KT CAVOK 22/M03 Q1016", "OIAG 011100Z 34023KT CAVOK 23/M01 Q1015", "OIAH 011100Z 27006KT 9999 FEW040 20/06 Q1014", "OIAI 011052Z 33004KT CAVOK 18/M00 Q1014", "OIAM 011100Z 31014KT CAVOK 22/M00 Q1015", "OIAW 011100Z 31012KT CAVOK 21/M04 Q1015", "OIBA 011100Z 28012KT 5000 HZ NSC 26/21 Q1008", "OIBB 011100Z 33027KT CAVOK 22/07 Q1012 A2990 NOSIG", "OIBH 011100Z 31023KT 9999 FEW030TCU 24/M02 Q1013 A2993", "OIBK 011100Z 30024KT 6000 NSC 26/19 Q1008 NOSIG", "OIBL 011100Z 25012KT 8000 NSC 28/18 Q1007", "OIBP 011100Z 29017KT CAVOK 26/18 Q1008 A2978", "OIBQ 011100Z 33023KT CAVOK 22/08 Q1014", "OIBS 011100Z 29014KT 6000 NSC 26/19 Q1009", "OIBV 011100Z 30023KT 7000 NSC 25/17 Q1008", "OICC 011100Z 29010KT 9999 FEW050 11/M07 Q1015 A2998", "OICI 011100Z 26008KT 9999 FEW045 08/M05 Q1018 A3006", "OICJ 011100Z 07016KT CAVOK 10/M12 Q1014", "OICK 011100Z 29014KT 9999 FEW035 12/M03 Q1015 A2999", "OICM 011100Z 27010KT CAVOK 17/M07 Q1014", "OICS 011100Z 27008KT 9999 SCT040 09/M07 Q1013 A2992", "OIFK 011100Z 07008KT 2000 SA NSC 19/M18 Q1007 A2976", "OIFM 011100Z 24027KT CAVOK 18/M16 Q1011 A2985", "OIFS 011100Z 23019G33KT 9999 FEW040 11/M14 Q1013", "OIGG 011100Z 02004KT 9999 FEW018TCU SCT020 BKN070 10/05 Q1015", "OIGK 011050Z 23010KT 9999 SCT020 BKN070 M02/M07 Q1012", "OIHH 011100Z 24014KT 9999 SCT040 06/M09 Q1012 A2989", "OIHM 011100Z 27016KT 9999 FEW040 08/M10 Q1012", "OIHR 011100Z 24018G35KT 9999 FEW035 11/M16 Q1011", "OIIE 011100Z 27022KT 9999 FEW035CB SCT040 16/M17 Q1009 TEMPO 31022G32KT SHRA", "OIII 011100Z 27018KT 9999 FEW035TCU SCT040 BKN190 11/M16 Q1010 A2983 NOSIG", "OIIK 011100Z 26010KT 9999 SCT040 SCT090 08/M04 Q1011", "OIIP 011100Z 32021KT 9999 FEW030CB SCT040 OVC100 08/M08 Q1010 A2984", "OIKB 011100Z 18008KT 7000 FEW030 30/16 Q1007 A2974 NOSIG", "OIKK 011100Z 27017KT 9999 FEW035TCU SCT040 22/M03 Q1011 A2988", "OIKO 011100Z 20010KT 6000 NSC 31/09 Q1007", "OIKQ 011100Z 24023KT 6000 NSC 27/23 Q1007 NOSIG", "OIMB 011100Z 29014KT 9000 SCT040 23/M05 Q1008 A2978", "OIMC 011050Z 32032KT 7000 SCT035 BKN190 21/08 Q1005", "OIMD 011100Z 23012KT 9999 FEW035 26/02 Q1003", "OIMJ 011100Z 23033KT 4000 SA NSC 19/M18 Q1005", "OIMM 011100Z 28014KT 9999 FEW035CB SCT040 21/11 Q1005 A2970", "OIMN 011100Z 30018KT 9999 FEW007 BKN025 BKN080 09/05 Q1009", "OIMQ 011100Z 25014KT 9999 FEW040 23/M00 Q1007", "OIMS 011100Z 24023KT 9000 FEW030CB SCT035 22/00 Q1006", "OINB 011100Z 10006KT 9999 BKN015 BKN080 12/11 Q1013 RERA", "OINE 011100Z 24004KT 4000 -RA BR FEW020CB SCT025 OVC070 10/09 Q1012", "OING 011100Z 35012KT 1100 R13/1700U RA BR SCT005 SCT015 OVC060 10/10 Q1014 NOSIG", "OINK 011100Z 28006KT 2000 -RA BR BKN010 OVC080 10/09 Q1011 A2985", "OINN 011100Z 34006KT 3000 RA BKN008 FEW020CB OVC070 10/08 Q1014", "OINR 011100Z 31012KT 6000 -RA FEW020CB BKN025 OVC080 07/07 Q1015", "OINZ 011100Z 35010KT 2500 -RA BKN007 FEW020CB OVC080 10/09 Q1014", "OISA 011100Z 24019KT 9999 FEW040 16/M11 Q1013 A2992", "OISF 011100Z 22010KT 9999 FEW040 23/M01 Q1013 A2992", "OISL 011100Z 23010KT CAVOK 30/08 Q1009 NOSIG", "OISR 011100Z 24008KT CAVOK 30/09 Q1010 A2983 NOSIG", "OISS 011100Z 27014KT 9999 SCT035 20/M04 Q1014 A2994", "OISY 011100Z 20019KT 9999 FEW040 14/M05 Q1018", "OITK 011100Z 03006KT 7000 FEW035CB SCT040 OVC090 05/M02 Q1012 A2989", "OITL 011100Z 28004KT 9999 FEW030 FEW040CB 04/M09 Q1011 NOSIG", "OITM 011100Z 30004KT 9999 FEW035 OVC090 05/M07 Q1012", "OITP 011100Z 35004KT 9999 FEW030CB BKN035 BKN080 09/08 Q1013", "OITR 011100Z 12010KT 9999 FEW035CB SCT040 BKN170 06/M05 Q1011 A2986", "OITT 011100Z 22010KT 7000 SCT030TCU SCT180 05/M06 Q1012 A2990", "OITZ 011100Z 26010KT 6000 FEW020CB SCT035 BKN090 03/M02 Q1010 A2984", "OIYY 011100Z 25017KT 9999 FEW035 25/M08 Q1008 NOSIG", "OIZB 011100Z 25008KT 9000 FEW040 34/04 Q1003", "OIZC 011100Z 23012KT CAVOK 30/17 Q1005 A2970", "OIZH 011100Z 28010KT 9999 SCT040 27/M00 Q1009 A2981 NOSIG", "OIZI 011100Z 27018KT 6000 NSC 32/04 Q1008", "OIZJ 011100Z 25010KT 8000 NSC 27/22 Q1006", "OJAI 011100Z 28008KT 5000 HZ SCT030 SCT035 14/04 Q1020 NOSIG", "OJAM 011100Z 30006KT 9999 SCT035 15/02 Q1020 NOSIG", "OJAQ 011100Z 35014KT CAVOK 23/M01 Q1018 NOSIG", "OKAS 011055Z 33020KT 8000 BLDU CLR 22/M05 A3002 RMK AO2A PK WND 34029/02 SLP164 T02161053 FZRANO $", "OKKK 011100Z 36017KT CAVOK 23/M04 Q1016 NOSIG", "OLBA 011100Z 23010KT 200V260 9999 FEW026 18/07 Q1021 NOSIG", "OMAA 011100Z 32015KT 290V350 CAVOK 28/16 Q1009 NOSIG", "OMAD 011100Z 31012KT CAVOK 28/17 Q1009 NOSIG", "OMAL 011100Z 31012KT 280V350 CAVOK 34/01 Q1010 NOSIG", "OMDB 011100Z 29011KT 220V330 CAVOK 28/16 Q1009 NOSIG", "OMDW 011100Z 30013KT CAVOK 28/12 Q1010 NOSIG", "OMFJ 011100Z 08008KT 050V110 7000 NSC 25/19 Q1007 A2976", "OMRK 011100Z 28010KT CAVOK 31/09 Q1009 A2981", "OMSJ 011100Z 26013KT CAVOK 29/12 Q1009 NOSIG", "OOAD 011050Z AUTO 26013KT 230V290 9999 // NCD 35/M04 Q1009 NOSIG", "OODQ 011050Z AUTO 21014KT CAVOK ////// 32/15 Q1009 NOSIG RMK RH36? 0", "OOKB 011050Z 23012KT 190V270 CAVOK 33/M01 Q1008 NOSIG", "OOMS 011050Z 04009KT CAVOK 29/17 Q1007 NOSIG", "OOSA 011050Z 19013KT 9999 BKN025 30/23 Q1009 NOSIG", "OOSH 011050Z AUTO 08010KT //// ////// 32/17 Q1006 RMK 1003", "OPFA 011055Z 31004KT 4000 FU SCT040 BKN100 24/17 Q1008 NOSIG", "OPIS 011100Z 13014KT 6000 SCT040 BKN100 21/12 Q1010 TEMPO 13015G30KT 2000 TSRA FEW030CB", "OPKC 011130Z 23017KT 6000 FEW030 30/11 Q1008 TEMPO 24015G25KT", "OPLA 011125Z 06010KT 4000 FU SCT040 BKN100 20/18 Q1008 TEMPO 34020G35KT 2000 TSRA FEW030CB RMK QFE983 A29.79", "OPMT 011130Z 27004KT 5000 HZ SCT040 27/14 Q1007 NOSIG", "OPNH 011100Z 23008KT 6000 SCT035 34/17 Q1004", "OPPS 011100Z 18006KT 7000 HZ FEW030TCU SCT040 BKN080 22/13 Q100 9", "OPSK 011100Z 18006KT 5000 HZ NSC 34/15 Q1003 NOSIG", "ORBI 011100Z 32011KT 290V350 CAVOK 17/M05 Q1019 NOSIG", "ORMM 011100Z 27020KT CAVOK 23/M04 Q1017 NOSIG", "ORSU 011100Z 23008KT 9999 BKN040 10/00 Q1019", "OSDI 011100Z 25006KT CAVOK 19/M03 Q1017", "OSLK 011100Z 24008KT 9999 FEW026 SCT030 18/07 Q1019", "OTBD 011100Z 33014KT 300V360 CAVOK 27/10 Q1012 NOSIG", "OTBH 011055Z 33024G28KT 9999 FEW250 26/11 Q1011 A2987 RMK AO2A PK WND 34028/09 SLPNO T02630108 RVRNO FZRANO $", "OTHH 011100Z 34021KT CAVOK 27/12 Q1011 NOSIG", "PAAD 011115Z AUTO 21007KT 10SM CLR M25/M27 A2984 RMK AO2 T12461267 PWINO", "PAAK 011117Z AUTO 08014KT 8SM -RA OVC009 02/01 A3013 RMK AO2 CIG 009V013 P0001 FZRANO", "PAAQ 011053Z AUTO 05003KT 10SM CLR M02/M07 A2952 RMK AO2 SLP000 T10221067 TSNO", "PABA 011052Z AUTO 00000KT 10SM CLR M22/M24 A2987 RMK AO2 SLP124 T12221239 FZRANO PNO $", "PABE 011104Z 22007KT 10SM BKN024 M11/M11 A3008 RMK AO2 T11061111", "PABI 011112Z AUTO 24004KT 5SM -SN BKN028 OVC036 M10/M13 A2970 RMK AO2 P0000 T11001128 TSNO", "PABL 011056Z AUTO 18003KT 10SM CLR M19/M21 A2985 RMK AO2 SNE22 SLP110 P0000 T11891206 FZRANO", "PABR 011053Z AUTO 00000KT 6SM BR OVC003 M16/M17 A2978 RMK AO2 VIS 2 NE SLP085 T11561172 TSNO $", "PABT 011053Z 00000KT 10SM CLR M25/M27 A2975 RMK AO2 SLP097 T12501272 PNO", "PABV 011056Z AUTO 20005KT 10SM CLR M03/M08 A2957 RMK AO2 SLP019 T10331083 FZRANO", "PACD 011053Z AUTO 29010KT 10SM OVC030 00/M06 A3024 RMK AO2 SLP241 T00001056 TSNO", "PACM 011113Z AUTO 18018KT OVC028 M03/M05 A2997 RMK AO2 PWINO FZRANO $", "PACV 011053Z 00000KT 10SM CLR M03/M04 A2937 RMK AO2 SLP947 I1001 T10281044", "PADK 011056Z AUTO 10013KT OVC013 03/02 A3001 RMK AO2 SLP162 T00330022 PWINO $", "PADL 011056Z AUTO 29005KT 10SM CLR M05/M09 A2997 RMK AO2 SLP154 T10501094 FZRANO", "PADM 011056Z AUTO 36003KT 10SM OVC024 M13/M14 A3007 RMK AO2 SLP188 T11281139 FZRANO", "PADQ 011053Z 31016G35KT 10SM CLR 01/M08 A2964 RMK AO2 PK WND 30035/1047 SLP037 T00111083", "PADU 011056Z AUTO 17003KT 10SM OVC040 02/M03 A3028 RMK AO2 SLP260 T00221028 FZRANO", "PAED 011055Z 01004KT 10SM FEW045 BKN120 BKN180 M02/M10 A2954 RMK AO2A SLP001 T10161104", "PAEG 011053Z AUTO 00000KT 10SM OVC029 M11/M16 A2965 RMK AO2 SLP056 T11061156 TSNO", "PAEH 011055Z AUTO 35013KT 290V030 10SM -SHSN OVC017 M05/M07 A3014 RMK AO2 SHSNB1049 SLP222 P0000 T10541067", "PAEI 011055Z 18003KT 5SM -SN BR FEW016 OVC039 M10/M13 A2970 RMK AO2A SLP070 T11041126 $", "PAEN 011053Z AUTO 01010KT 10SM SCT080 M02/M10 A2959 RMK AO2 SLP024 T10171100 TSNO", "PAFA 011053Z 33003KT 10SM FEW060 FEW095 SCT190 M10/M16 A2973 RMK AO2 SLP078 T11001161", "PAFB 011055Z 27004KT 10SM FEW030 SCT070 M10/M14 A2972 RMK SLP078 T11031139", "PAFE 011056Z AUTO 10005KT 10SM 02/01 A2951 RMK AO2 SLPNO T00170006 FZRANO", "PAFM 011056Z AUTO 12003KT 8SM -SN OVC006 M13/M14 A2986 RMK AO2 SLP119 P0000 T11281144 FZRANO", "PAFR 011055Z AUTO 00000KT 10SM FEW180 M08/M11 A2956 RMK AO2 SLP020 T10771106 $", "PAFS 011101Z AUTO 23003KT 10SM OVC044 M09/M11 A2981 RMK AO2 SLP107 T10941111 FZRANO", "PAGL 011116Z AUTO 12007KT 1 3/4SM -SN BR BKN003 M13/M14 A2989 RMK AO2 SNB06 P0000 FZRANO", "PAGN 011056Z AUTO 00000KT 10SM OVC036 01/01 A2948 RMK AO2 SLP973 T00110011 FZRANO", "PAGS 011103Z AUTO 14006KT 10SM -RA BKN026 BKN035 OVC055 03/01 A2944 RMK AO2 P0000", "PAGY 011053Z AUTO 05004KT 7SM -RA SCT012 OVC019 02/02 A2940 RMK AO2 UPB11E15 SLP957 P0001 T00220017 TSNO", "PAHL 011056Z AUTO 23003KT 10SM CLR M13/M15 A2983 RMK AO2 SLP107 T11331150 FZRANO", "PAHN 011054Z AUTO 07009KT 9SM UP OVC011 03/01 A2941 RMK AO2 UPB26 SLP961 P0000 T00280011 TSNO", "PAHO 011053Z AUTO 34007KT 10SM OVC080 02/M08 A2960 RMK AO2 SLP024 T00171078 TSNO", "PAHX 011102Z AUTO 22004KT 10SM CLR M11/M12 A2996 RMK AO2 SLP147 T11061122 FZRANO", "PAHY 011109Z AUTO 19006KT 5SM -RA BR BKN029 BKN048 01/00 A2955 RMK AO2 UPB1059E01RAB01 P0001 FZRANO $", "PAIG 011056Z AUTO 30009KT 10SM CLR M06/M08 A2990 RMK AO2 SLP135 T10561083 FZRANO $", "PAIK 011056Z AUTO 21007KT 8SM -SN CLR M14/M15 A2983 RMK AO2 SLP107 P0000 T11391150 FZRANO", "PAIM 011055Z AUTO 00000KT 10SM OVC055 M14/M18 A2971 RMK AO2 SLP095 T11381182", "PAIN 011056Z AUTO 25003KT 10SM BKN040 OVC049 M09/M13 A2968 RMK AO2 SNB30E41 SLP089 P0000 T10941133 FZRANO", "PAIW 011125Z AUTO 18023G27KT 1 1/4SM -SN BR BKN010 OVC020 M04/M05 A2967 RMK AO2 PK WND 17027/1125 CIG 007V012 P0000 FZRANO", "PAJN 011053Z 12012KT 10SM -RA FEW009 SCT016 OVC047 03/02 A2945 RMK AO2 RAB06 SLP971 MOON DMLY VSB P0000 T00280017", "PAJZ 011056Z AUTO 32008KT 9SM CLR M06/M09 A2998 RMK AO2 SLP160 T10611094 FZRANO $", "PAKF 011056Z AUTO 32009KT 10SM OVC032 A3025 RMK AO2 SLPNO FZRANO $", "PAKH 011120Z AUTO 10SM FEW023 SCT029 A2983 RMK AO2 FZRANO TSNO $", "PAKI 011056Z AUTO 10SM OVC029 A3011 RMK AO2 SLPNO FZRANO $", "PAKN 011054Z 30012KT 10SM BKN060 M03/M07 A2992 RMK AO2 SLP132 T10331072 $", "PAKP 011056Z AUTO 00000KT 10SM CLR M23/M25 A2961 RMK AO2 SLP095 T12281250 FZRANO", "PAKT 011119Z AUTO 15004KT 10SM BKN019 02/01 A2955 RMK AO2 T00170011 TSNO", "PAKV 011053Z AUTO 22003KT 10SM CLR M14/M17 A2988 RMK AO2 SLP122 T11441167 TSNO", "PAKW 011053Z AUTO 00000KT 10SM BKN020 02/01 A2952 RMK AO2 SLP996 T00170006 TSNO", "PAKX 011115Z AUTO 24005KT 5SM -SN BKN026 OVC034 M01/M03 A2976 RMK AO2", "PALG 011105Z AUTO 00000KT 10SM SCT009 M13/M15 A3004 RMK AO2 FZRANO", "PALH 011053Z AUTO 34006KT 10SM BKN120 M02/M10 A2957 RMK AO2 SLP013 T10171100 TSNO", "PALU 011055Z AUTO 12004KT 10SM -SN CLR M11/M12 A2975 RMK AO2 SHSNB0948E1000 SLP074 P0000 T11131122", "PAMB 011056Z AUTO 31019G25KT 10SM CLR M04/M10 A2998 RMK AO2 SLP155 T10391100 FZRANO $", "PAMC 011053Z AUTO 26005KT 10SM OVC050 M07/M11 A2984 RMK AO2 SLP112 T10671106 TSNO", "PAMH 011056Z AUTO 00000KT CLR M13/M15 A2977 RMK AO2 SLP090 T11281150 PWINO FZRANO $", "PAMK 011120Z AUTO 20010KT 10SM SCT007 OVC020 M09/M11 A2993 RMK AO2 FZRANO", "PAMM 011056Z AUTO 18005KT 10SM SCT036 03/01 A2957 RMK AO2 SLP106 T00280011 $", "PAMO 011056Z AUTO 18010KT 9SM -SN OVC025 M07/M08 A2998 RMK AO2 SNB49 SLP160 P0000 T10721083 FZRANO", "PAMR 011053Z 36005KT 10SM FEW065 BKN120 M01/M11 A2956 RMK AO2 SLP012 T10111106", "PAMY 011056Z AUTO 22018KT 10SM OVC032 M02/M04 A2984 RMK AO2 SLP105 T10221044 FZRANO", "PANA 011056Z AUTO 24004KT 10SM OVC025 M09/M10 A3009 RMK AO2 SLP189 T10891100 FZRANO TSNO $", "PANC 011053Z 32005KT 10SM OVC110 M02/M08 A2956 RMK AO2 SLP013 T10171083", "PANI 011056Z AUTO 26007KT 10SM CLR M09/M11 A3006 RMK AO2 SLP172 T10891111 FZRANO $", "PANW 011056Z AUTO 31008KT 9SM CLR M07/M11 A2995 RMK AO2 SLP151 T10721106 FZRANO", "PAOH 011056Z AUTO 00000KT 10SM FEW032 BKN055 OVC070 01/01 A2943 RMK AO2 UPB07E14RAB14E33 SLP967 P0000 T00110006 FZRANO", "PAOM 011120Z AUTO 09011KT 3SM -SN BR FEW020 OVC027 M08/M10 A2981 RMK AO2 SNB02 P0000 T10831100 TSNO", "PAOR 011053Z 31009KT 7SM OVC055 M09/M11 A2955 RMK AO2 SLP044 T10891111 PNO", "PAOT 011120Z AUTO 10005KT 1/2SM R09/2600VP6000FT FZFG VV003 M13/M13 A2981 RMK AO2 T11331133 TSNO $", "PAOU 011056Z AUTO 32017KT 10SM OVC028 M02/M06 A3023 RMK AO2 SLP235 T10171061 FZRANO PNO $", "PAPG 011103Z 00000KT 10SM -RA FEW018 BKN030 OVC039 02/01 A2952 RMK AO2 P0000", "PAPH 011056Z AUTO 29022G26KT 10SM OVC023 M03/M06 A3012 RMK AO2 PK WND 29026/1053 SLP200 T10281061 FZRANO", "PAPN 011056Z AUTO 30023G28KT 8SM OVC020 M03/M06 A3002 RMK AO2 PK WND 30028/1049 SLP168 T10331061 FZRANO", "PAPO 011108Z AUTO 13008KT 9SM -SN OVC007 M15/M17 A2975 RMK AO2 P0000 FZRANO", "PAQT 011053Z AUTO 24007KT 1/4SM FZFG VV003 M23/M24 A2985 RMK AO2 SLP108 T12281244 TSNO PNO $", "PARY 011056Z AUTO 19003KT 10SM OVC035 M09/M13 A2979 RMK AO2 SLP105 T10941133 FZRANO", "PASC 011117Z 24008KT 10SM SCT004 M23/M26 A2982 RMK AO2 T12331261", "PASD 011056Z AUTO 33011KT 10SM OVC032 M01/M06 A3020 RMK AO2 SLP229 T10111061 FZRANO PNO $", "PASI 011053Z 09003KT 10SM SCT024 BKN050 02/00 A2946 RMK AO2 RAB04E18 SLP976 P0000 T00220000", "PASK 011056Z AUTO 26007KT 4SM -SN BR OVC007 M11/M12 A2985 RMK AO2 SLP105 P0000 T11111122 FZRANO", "PASL 011124Z AUTO 28005KT 9SM -SN SCT024 OVC036 M04/M07 A2995 RMK AO2 SNB11 P0000 FZRANO", "PASM 011056Z AUTO 19009KT 9SM OVC026 M08/M09 A2999 RMK AO2 SNB32E54 SLP169 P0000 T10781094 FZRANO", "PASN 011053Z AUTO 22006KT 10SM OVC034 00/M06 A3021 RMK AO2 SLP231 T00001056 TSNO $", "PASO 011053Z AUTO 01008KT 10SM OVC075 03/M02 A2959 RMK AO2 SLP021 T00281022 TSNO", "PASV 011123Z AUTO 33011G19KT 1 1/2SM -SN BR OVC004 M06/M07 A2977 RMK AO2 SLP115", "PASX 011056Z AUTO 00000KT 10SM FEW075 M01/M09 A2961 RMK AO2 SLP036 T10061089 FZRANO", "PASY 011055Z 05029G37KT 3SM -RASN OVC006 01/01 A2978 RMK AO2A PK WND 06039/06 SLP088 T00131008 RVRNO PNO FZRANO $", "PATA 011052Z AUTO 00000KT 10SM OVC055 M20/M23 A2980 RMK AO2 SLP098 T12001233 TSNO $", "PATC 011119Z AUTO 19021KT 2SM -SN BKN004 OVC033 M05/M06 A2965 RMK AO2 PK WND 19026/1059 SLP047", "PATK 011053Z AUTO 31003KT 10SM CLR M03/M13 A2959 RMK AO2 SLP026 T10331128 TSNO", "PATL 011108Z AUTO 00000KT 10SM -SHSN FEW020 BKN037 M06/M08 A2984 RMK AO2 SLP124 TSNO $", "PATO 011053Z AUTO 27010G18KT 10SM CLR M01/M08 A2952 RMK AO2 SLP996 T10111083 TSNO", "PATQ 011107Z AUTO 00000KT 1 1/4SM BR OVC003 M17/M18 A2978 RMK AO2 FZRANO TSNO", "PAUN 011056Z AUTO 22014KT 9SM -SN OVC014 M07/M08 A2993 RMK AO2 SNB00 SLP139 P0000 T10671083 FZRANO", "PAVC 011056Z AUTO 33015G27KT 10SM OVC031 M01/M06 A3023 RMK AO2 PK WND 32027/1050 SLP240 T10061056 FZRANO PNO $", "PAVD 011056Z AUTO 04008G17KT 320V100 CLR 03/M11 A2950 RMK AO2 SLP985 T00331106 TSNO $", "PAVL 011120Z AUTO 09007KT 3SM -SN BR OVC008 M13/M15 A2977 RMK AO2 P0000 T11331150 TSNO", "PAWD 011053Z AUTO 33014G23KT 10SM CLR 01/M12 A2950 RMK AO2 PK WND 34031/0954 SLP990 T00111117 TSNO", "PAWI 011053Z AUTO 00000KT 1/4SM UP FZFG VV002 M16/M17 A2977 RMK AO2 SLP081 T11611172 TSNO $", "PAWM 011056Z AUTO 14005KT 6SM -SN BR OVC001 M13/M14 A2986 RMK AO2 SNB19 SLP120 P0000 T11281139 FZRANO", "PAWN 011108Z AUTO 35003KT 10SM BKN002 M23/M25 A2982 RMK AO2 FZRANO", "PAWS 011056Z AUTO 00000KT 10SM CLR M03/M10 A2955 RMK AO2 SLP015 T10281100 FZRANO", "PAYA 011053Z AUTO 01006KT 10SM -RA 02/M01 A2934 RMK AO2 RAB43 SLP935 P0000 T00171006 TSNO $", "PAZK 011056Z AUTO 11003KT 7SM -SN BKN025 M11/M12 A2942 RMK AO2 SLP026 P0000 T11111122 FZRANO", "PFCL 011056Z AUTO 30011KT 10SM CLR M04/M08 A2999 RMK AO2 SLP148 T10441083 FZRANO TSNO", "PFEL 011056Z AUTO VRB05KT 10SM CLR M12/M13 A2986 RMK AO2 SLP114 T11171128 FZRANO", "PFKT 011056Z AUTO 17015KT 10SM -SN OVC025 A2976 RMK AO2 UPB47E55SNE05B30E47B55 SLPNO P0000 FZRANO $", "PFSH 011125Z AUTO 18013KT 9SM -SN SCT002 M13/M14 A2992 RMK AO2 SNB01 P0000 FZRANO", "PFWS 011056Z AUTO 31010KT 10SM BKN060 M03/M07 A2997 RMK AO2 SLP193 T10331072 FZRANO", "PFYU 011056Z AUTO 36003KT 5SM -SN BKN050 OVC070 M13/M16 A2973 RMK AO2 SLP084 P0000 T11281156 FZRANO", "PGSN 011113Z 13007KT 9SM -RA SCT018 BKN050 OVC065 26/24 A2985 RMK AO2 RAB1056 P0002 T02610244 /", "PGUA 011055Z AUTO 13009KT 10SM BKN015 BKN021 26/23 A2984 RMK AO2 BKN015 V SCT CIG 013 RWY24L SLP095 T02570230", "PGUM 011054Z 09006KT 10SM FEW021 FEW034 28/23 A2984 RMK AO2 SLP096 T02780233", "PHBK 011051Z AUTO 10003KT 10SM FEW043 BKN100 22/21 A2994 RMK AO2 SLP142 T02220206 $", "PHHI 011055Z AUTO 34003KT 10SM FEW042 BKN120 20/19 A3000 RMK AO2 RAB12E32DZB32E40 SLP150 P0001 T02020190 $", "PHJR 011053Z AUTO 00000KT 10SM FEW027 BKN041 BKN049 22/19 A2998 RMK AO2 SLP159 T02220194 TSNO", "PHKO 011123Z AUTO 20004KT 10SM BKN027 BKN033 BKN065 25/19 A2994 RMK AO2 T02500194 TSNO", "PHLI 011053Z AUTO VRB03KT 4SM -RA BR OVC010 22/21 A2998 RMK AO2 RAB36 CIG 007V013 SLP150 P0001 T02220206 TSNO", "PHMK 011054Z AUTO 00000KT 10SM CLR 18/17 A2998 RMK AO2 SLP156 T01830167 TSNO", "PHNG 011057Z AUTO 09006KT 10SM FEW027 BKN036 BKN055 A2995 RMK AO2 SLP138", "PHNL 011053Z 03003KT 10SM FEW025 SCT045 BKN140 23/20 A2997 RMK AO2 SLP148 T02330200", "PHNY 011056Z AUTO 07003KT 10SM 19/18 A3002 RMK AO2 SLP147 T01890178 $", "PHOG 011054Z AUTO 13004KT 10SM CLR 20/17 A2996 RMK AO2 SLP150 T02000172 TSNO", "PHSF 011055Z AUTO 10005KT 10SM SCT100 09/06 A3026 RMK AO2 PRESFR SLP138 T00920063 $", "PHTO 011053Z AUTO 00000KT 10SM FEW027 OVC060 22/19 A3000 RMK AO2 SLP157 T02170194 TSNO", "PKMR 011051Z 00000KT 14SM FEW014 BKN045 OVC120 24/23 A2981 RMK SLP098 T02420225", "PKWA 011120Z AUTO 09013KT 10SM CLR 26/23 A2985 RMK AO2 T02570229 TSNO", "PLCH 011100Z 11005KT 9999 FEW020 26/24 Q1006", "PMDY 011056Z AUTO 10SM OVC040 18/10 A2996 RMK AO2 SLP147 T01780100 402060167 TSNO $", "PPIZ 011109Z AUTO 08006KT 1/4SM -SN FZFG OVC002 M17/M19 A2978 RMK AO2 P0000 FZRANO", "PTKK 011050Z VRB05KT 15SM SCT014 SCT120 BKN280 27/24 A2979 RMK SLP089 T02740244", "PTPN 011050Z 32003KT 10SM BKN017TCU BKN130 OVC300 26/24 A2980 RMK TCU ALQDS", "PTRO 011050Z 34003KT 13SM SCT015CB BKN110 BKN290 25/23 A2976 RMK CB W-NW", "PTTP 011055Z 00000KT 13SM -SHRA BKN017TCU OVC120 26/25 A2985 RMK SHRAB16 TCU ALQDS SLP108 T02550250", "PTYA 011051Z VRB03KT 12SM SCT016TCU BKN300 27/26 A2980 RMK TCU S AND NW SLP093 T02730258", "PWAK 011055Z AUTO 07005KT 9SM CLR 23/17 A2992 RMK AO2 SLP138 T02280166", "RCFN 011100Z VRB02KT 9000 -RA FEW010 BKN018 OVC030 21/21 Q1012 NOSIG RMK A2991", "RCKH 011100Z 32005KT 290V030 9999 FEW018 SCT045 BKN080 25/19 Q1010 NOSIG RMK A2984", "RCMQ 011112Z 04001KT 3200 BR FEW010 SCT016 BKN030 19/19 Q1012 BECMG 5000 BR RMK A2989", "RCNN 011100Z 36007KT 9000 FEW010 SCT025 BKN050 21/19 Q1011 RMK A2987", "RCSS 011100Z 09003KT 8000 -DZ FEW006 SCT012 BKN024 18/17 Q1012 NOSIG RMK A2991", "RCTP 011100Z 05007KT 8000 -RA SCT007 BKN012 BKN017 18/17 Q1013 NOSIG RMK A2992", "RJAA 011100Z 07006KT 9999 FEW030 SCT090 13/08 Q1017 BECMG 05006KT RMK 1CU030 3AC090 A3003", "RJAH 011100Z 05004KT 9999 FEW030 SCT060 11/03 Q1017", "RJBB 011100Z VRB02KT CAVOK 17/07 Q1014 BECMG 04012KT", "RJBE 011100Z 07010KT CAVOK 18/03 Q1014", "RJCB 011100Z 01005KT 9999 FEW030 SCT/// 04/M01 Q1018", "RJCC 011100Z 35014KT 9999 FEW012 SCT020 04/02 Q1020 RMK 1ST012 3CU020 A3013", "RJCH 011100Z 33004KT 270V050 9999 FEW030 04/M01 Q1020", "RJCK 011100Z 36012KT 9999 FEW030 SCT/// 03/M00 Q1018", "RJCM 011100Z 01008KT 8000 -SHRASN FEW003 SCT005 BKN007 01/01 Q1020", "RJCO 011100Z 32012KT 9999 FEW015 BKN025 05/03 Q1022", "RJDB 011100Z AUTO 02016KT 9999 NSC 16/12 Q1013", "RJDC 011100Z 01005KT CAVOK 18/07 Q1013", "RJDT 011100Z VRB09KT 9999 FEW015 OVC/// 15/12 Q1015", "RJEC 011111Z 01005KT 9999 -SHRA FEW004 BKN008 BKN015 03/01 Q1020 RMK 1ST004 5ST008 6ST015 A3013", "RJFF 011100Z 05005KT 350V090 CAVOK 18/07 Q1013 BECMG 12004KT RMK A2993", "RJFK 011100Z 11007KT 9999 FEW020 BKN060 BKN150 16/10 Q1013 RMK 1CU020 5SC060 6AC150 A2992", "RJFM 011100Z 03010KT 9999 FEW020 SCT160 BKN180 18/13 Q1013", "RJFO 011100Z 25005KT CAVOK 15/06 Q1013", "RJFR 011100Z 36010KT 9999 FEW030 SCT/// 16/10 Q1013", "RJFS 011100Z 04008KT CAVOK 17/06 Q1012", "RJFT 011100Z 09009KT CAVOK 17/04 Q1012", "RJFU 011100Z 31012KT CAVOK 17/11 Q1012", "RJGG 011100Z 19003KT 9999 FEW030 SCT/// 15/12 Q1014 NOSIG", "RJKA 011100Z AUTO 15006KT 9999 //////TCU 21/19 Q1008", "RJKI 011100Z AUTO 16002KT 9999 NSC 20/19 Q1008", "RJNK 011100Z 03012KT 9999 FEW/// 11/03 Q1016", "RJNS 011100Z VRB02KT 9999 FEW030 BKN/// 14/11 Q1015", "RJNT 011100Z 21007KT 9999 FEW060 10/05 Q1018", "RJOA 011100Z 36003KT 9999 FEW040 BKN/// 16/M02 Q1014", "RJOB 011100Z 34004KT 280V030 9999 FEW040 BKN/// 16/00 Q1014", "RJOC 011100Z 07020KT CAVOK 13/08 Q1016", "RJOH 011100Z 06017KT 9999 FEW008 SCT010 BKN/// 13/08 Q1016", "RJOI 011056Z 36004KT 10SM FEW030 BKN250 17/07 A2993 RMK AO2 SLP134 T01720072", "RJOK 011100Z 36005KT CAVOK 16/09 Q1014", "RJOM 011100Z 18003KT 150V210 9999 FEW040 BKN/// 15/11 Q1013", "RJOO 011100Z 35010KT 320V030 CAVOK 17/00 Q1014 WS R32R RMK A2997", "RJOR 011100Z 06012KT 9999 FEW030 BKN/// 12/07 Q1017", "RJOS 011100Z 07005KT 9999 FEW030 BKN/// 16/08 Q1014", "RJOT 011100Z 14005KT CAVOK 16/M01 Q1014", "RJSA 011100Z 23007KT 9999 FEW040 03/01 Q1020", "RJSF 011100Z 11005KT CAVOK 10/M00 Q1017", "RJSK 011100Z 30009KT CAVOK 06/02 Q1020", "RJSM 011100Z 33005KT 9999 FEW030 06/M01 Q1020", "RJSN 011100Z 01018KT 9999 FEW040 10/05 Q1019", "RJSS 011100Z 08009KT CAVOK 10/07 Q1018", "RJSY 011100Z VRB01KT CAVOK 06/03 Q1020", "RJTT 011100Z 08010KT 9999 BKN040 16/12 Q1016 BECMG FM1130 TL1230 05008KT RMK 7SC040 A3003", "RJTY 011055Z AUTO 14008KT 10SM FEW029 FEW060 16/09 A3004 RMK AO2 SLP176 T01580092 TSNO $", "RKJB 011100Z 26001KT 8000 NSC 14/06 Q1015 NOSIG", "RKJK 011055Z AUTO 33004KT 8SM FEW120 12/00 A2993 RMK AO2 SLP140 T01200001 $", "RKNY 011100Z 16004KT 8000 NSC 12/10 Q1018 NOSIG", "RKPC 011100Z 09010KT 9999 FEW030 17/06 Q1014 NOSIG", "RKPK 011100Z 06009KT 9999 FEW040 SCT200 17/M01 Q1016", "RKSG 011055Z 23003KT 4SM HZ CLR 15/07 A2995 RMK AO2A SLP145 T01480069 $", "RKSI 011100Z 31005KT 7000 NSC 12/04 Q1015 NOSIG", "RKSM 011100Z 03004KT 9999 SKC 19/M01 A2996", "RKSO 011055Z 28003KT 5SM HZ CLR 16/02 A2995 RMK AO2A SLP146 T01630019 $", "RKSS 011100Z 28002KT 7000 NSC 14/03 Q1015 NOSIG", "RKTN 011100Z 10005KT CAVOK 17/00 Q1016", "RKTU 011100Z 27003KT CAVOK 17/01 Q1014", "ROAH 011100Z 30016KT 9999 -RA FEW018 BKN150 21/18 Q1009 RMK 2CU018 7AS150 A2981", "RODE 011059Z AUTO 29011KT FEW019 BKN034 22/19 A2981 RMK AO2 SLP137 T02170189 $", "RODN 011125Z AUTO 28009KT 10SM SCT017 SCT030 21/18 A2980 RMK AO2 SLP097 $", "ROIG 011100Z 36005KT 9999 -SHRA FEW019 SCT032 BKN090 20/18 Q1012", "ROMD 011100Z AUTO 29006KT 250V320 9999 -RA FEW012 SCT100 BKN130 22/20 Q1010", "ROMY 011100Z 01004KT 330V030 9999 BKN019 20/18 Q1011", "RORK 011100Z AUTO 29006KT 9999 FEW013 BKN130 22/20 Q1009", "RORS 011100Z AUTO 35009KT 9999 BKN021 BKN026 BKN130 21/17 Q1011", "RORT 011100Z AUTO 35006KT 9999 FEW022 BKN120 BKN130 21/17 Q1012", "RORY 011100Z AUTO 25012KT 9999 FEW015 SCT080 BKN110 21/19 Q1008", "ROYN 011100Z AUTO 02015KT 9999 -RA FEW013 SCT017 BKN022 21/19 Q1012", "RPLB 011100Z VRB04KT 9999 FEW020 29/25 Q1009 NOSIG RMK A2980", "RPLC 011100Z 18010KT 7000 SCT020 BKN300 31/22 Q1009 NOSIG RMK A2980", "RPLI 011100Z 32002KT 9999 FEW018 28/22 Q1009 NOSIG RMK A2980", "RPLL 011100Z 12008KT 080V200 9999 FEW025 31/20 Q1008 NOSIG RMK A2977", "RPMD 011100Z 36005KT 9999 SCT016 BKN090 27/24 Q1009 RMK A2980 VCSH NW,W,SW", "RPVM 011100Z 11004KT 080V140 9999 FEW020TCU SCT100 28/24 Q1010 NOSIG RMK A2983 TCU N-NE", "RPVP 011100Z 24006KT 5000 TSSHRA FEW017CB SCT019 OVC080 26/24 Q1011 RMK A2985 CB W-SW-S SSE", "SAAR 011100Z 09008KT CAVOK 11/06 Q1022 RMK PP000", "SABE 011100Z 19003KT 140V230 CAVOK 12/07 Q1023 NOSIG RMK PP000", "SACO 011100Z 03007KT CAVOK 12/07 Q1022 NOSIG RMK PP000", "SADF 011100Z 22004KT CAVOK 10/06 Q1023 RMK PP000", "SAEZ 011100Z 26002KT CAVOK 06/05 Q1023 N0SIG RMK PP000", "SAME 011100Z 23003KT CAVOK 08/03 Q1018", "SANT 011100Z 19004KT 7000 SCT004 OVC025 14/14 Q1022 RMK PP000", "SAOC 011100Z 36013KT CAVOK 12/05 Q1020", "SARC 011100Z 14010KT 9999 FEW035 SCT100 19/14 Q1019", "SARE 011100Z 14009KT CAVOK 19/14 Q1019 RMK PP///", "SARF 011100Z 16013KT 9999 OVC020 22/19 Q1017", "SARI 011100Z VRB02KT CAVOK 23/21 Q1016 RMK PP000", "SARL 011100Z 16009KT CAVOK 14/10 Q1021", "SARP 011100Z 14011KT CAVOK 19/13 Q1019", "SASA 011100Z VRB01KT 9999 VCSH FEW004 SCT020 OVC025 18/17 Q1023 RMK PP000", "SASJ 011100Z 18005KT 8000 FEW015 OVC030 18/17 Q1022 RMK PP001", "SAVC 011100Z 31013KT CAVOK 17/04 Q0999 RMK PP000", "SAWE 011100Z 15009KT CAVOK 04/02 Q0992 RMK PP000", "SAWG 011100Z 25010KT CAVOK 05/04 Q0990", "SAWH 011100Z 03006KT CAVOK 07/00 Q0991 RMK PP000", "SAZM 011100Z 27004KT CAVOK 10/08 Q1022 RMK PP///", "SAZN 011100Z 00000KT CAVOK 06/04 Q1015", "SAZS 011100Z 30016KT 9999 SCT036 SCT044 12/07 Q1012 RMK PP///", "SBAF 011100Z 00000KT CAVOK 25/22 Q1012", "SBAN 011100Z 14008KT CAVOK 23/16 Q1020", "SBAR 011100Z VRB02KT 9999 BKN017 FEW025TCU 25/24 Q1013 RESHRA", "SBBE 011100Z 23002KT 9999 FEW010 BKN100 26/23 Q1012", "SBBG 011100Z AUTO 26007KT CAVOK 11/08 Q1021", "SBBH 011100Z 09003KT 9999 FEW030 SCT070 23/18 Q1017", "SBBI 011100Z 23010KT CAVOK 20/17 Q1018", "SBBR 011100Z VRB02KT CAVOK 23/15 Q1019", "SBBU 011100Z 13005KT CAVOK 24/21 Q1016", "SBBV 011100Z 10013KT CAVOK 25/20 Q1014", "SBCA 011100Z 17006KT CAVOK 21/20 Q1019", "SBCB 011100Z 26006KT 9999 SCT020 26/21 Q1012", "SBCC 011100Z 03005KT CAVOK 22/19 Q1015", "SBCF 011100Z 14003KT 9999 FEW020 SCT070 22/16 Q1017", "SBCG 011100Z 14005KT CAVOK 21/20 Q1017", "SBCH 011100Z 20008KT 9999 SCT005 OVC015 19/17 Q1019", "SBCJ 011100Z 09003KT 9999 SCT004 BKN100 21/20 Q1018", "SBCO 011100Z 28010KT CAVOK 15/09 Q1019", "SBCP 011100Z 30002KT CAVOK 25/23 Q1011", "SBCR 011100Z 21002KT CAVOK 26/23 Q1013", "SBCT 011100Z 25006KT CAVOK 19/18 Q1018", "SBCY 011100Z 00000KT CAVOK 25/22 Q1013", "SBDN 011100Z 00000KT CAVOK 23/19 Q1015", "SBEG 011100Z 08001KT 9999 FEW010 BKN100 23/23 Q1012", "SBES 011100Z 24005KT 190V330 9999 FEW020 26/21 Q1012", "SBFI 011100Z 00000KT CAVOK 23/21 Q1016", "SBFL 011100Z 18011KT 140V210 9999 BKN030 21/18 Q1013", "SBFN 011100Z AUTO 18010KT 9999 BKN019 OVC024 26/24 Q1013", "SBFS 011100Z 22004KT 9999 FEW015 SCT060 27/23 Q1011", "SBFZ 011100Z 16003KT 9999 FEW020 BKN080 27/24 Q1012", "SBGL 011100Z 34005KT CAVOK 25/21 Q1012", "SBGO 011100Z 00000KT CAVOK 23/18 Q1018", "SBGR 011100Z 10003KT 070V170 CAVOK 20/18 Q1017", "SBGW 011100Z 18003KT 140V220 2000 BR OVC005 19/19 Q1016", "SBHT 011100Z 12001KT 8000 -RA BKN009 BKN080 24/24 Q1014", "SBIH 011100Z 00000KT 9999 FEW010 SCT080 25/24 Q1013", "SBIL 011100Z 26004KT 9999 FEW020 26/25 Q1014", "SBIP 011100Z AUTO VRB01KT CAVOK 24/15 Q1014", "SBIZ 011100Z 36003KT 9999 SCT010 26/24 Q1014", "SBJP 011100Z 18005KT 9999 FEW022 27/24 Q1013", "SBJR 011100Z 35002KT CAVOK 27/23 Q1011", "SBJU 011100Z 29003KT 9999 FEW020 24/20 Q1017", "SBJV 011100Z 15004KT CAVOK 24/23 Q1013", "SBKG 011100Z 14010KT 9999 SCT020 24/24 Q1016", "SBKP 011100Z 11004KT 8000 NSC 21/18 Q1016", "SBLB 011100Z AUTO 36020KT 9999 NCD 27/24 Q1011 W///S4", "SBLE 011100Z AUTO 09003KT 050V130 9999 OVC028 23/20 Q1017", "SBLO 011100Z 25004KT CAVOK 26/19 Q1016", "SBLS 011100Z 18005KT 9999 FEW030 SCT090 23/15 Q1017", "SBMA 011100Z 00000KT 9999 FEW003 OVC070 25/25 Q1014", "SBME 011100Z 31002KT CAVOK 26/25 Q1011", "SBMG 011100Z 17010KT CAVOK 22/18 Q1016", "SBMK 011100Z 00000KT CAVOK 24/14 Q1017", "SBMN 011100Z 36003KT 320V030 9999 FEW010 BKN080 24/23 Q1012", "SBMO 011100Z 29002KT 9999 FEW020 27/23 Q1014", "SBMQ 011100Z 32004KT 9999 SCT020 BKN080 25/25 Q1013", "SBMT 011100Z 23005KT 5000 BR NSC 20/20 Q1016", "SBNF 011100Z 27003KT 9999 BKN025 23/21 Q1013", "SBNT 011100Z 17007KT 9999 FEW020 SCT100 26/22 Q1012", "SBOI 011100Z VRB01KT 8000 FEW020 23/23 Q1014", "SBPA 011100Z 27011KT CAVOK 15/10 Q1019", "SBPB 011100Z 24004KT 9999 FEW020 BKN100 ///// Q1011", "SBPF 011100Z 20004KT 9999 BKN004 15/12 Q1019", "SBPJ 011100Z 00000KT 9999 -RA FEW010 BKN080 23/22 Q1015", "SBPK 011100Z 27010KT CAVOK 16/10 Q1018", "SBPL 011100Z 16007KT CAVOK 26/21 Q1015", "SBPP 011115Z 09002KT CAVOK 24/21 Q1018", "SBPS 011100Z 25004KT 220V310 9999 SCT022 26/23 Q1013", "SBPV 011100Z 23002KT 9999 -RA SCT003 BKN080 24/23 Q1012", "SBRB 011100Z 00000KT 8000 FEW003 SCT080 22/22 Q1014", "SBRF 011100Z 20005KT 9999 FEW025 28/23 Q1012", "SBRJ 011100Z 34007KT 9999 FEW020 25/21 Q1011", "SBRP 011100Z 00000KT CAVOK 24/20 Q1016", "SBSC 011100Z 01004KT CAVOK 24/22 Q1012", "SBSG 011100Z 22005KT 180V260 9999 FEW020 27/23 Q1013", "SBSJ 011100Z 36003KT 330V050 2000 BR VV003 19/19 Q1016", "SBSL 011100Z 16004KT 9999 VCSH SCT007 BKN015 24/23 Q1013", "SBSM 011100Z VRB02KT CAVOK 14/11 Q1021", "SBSN 011100Z 08011KT 9999 FEW016 SCT073 BKN100 25/24 Q1013", "SBSP 011100Z 33004KT 280V010 4500 BR BKN004 20/19 Q1017", "SBSR 011100Z 00000KT CAVOK 23/20 Q1016", "SBST 011100Z 00000KT 9999 FEW033 25/22 Q1012", "SBSV 011100Z 00000KT 9999 SCT023 29/23 Q1014", "SBTA 011100Z 22003KT 190V250 1500 0500N BR OVC003 18/18 Q1015", "SBTE 011115Z 18004KT 9999 SCT009 BKN015 25/23 Q1012", "SBTF 011115Z 24004KT 9999 -RA FEW005 SCT010 OVC070 25/25 Q1012", "SBTT 011100Z 23003KT 180V260 5000 BR FEW005 BKN090 24/22 Q1013", "SBTU 011100Z AUTO 02004KT //// // FEW002/// SCT020/// OVC023/// 23/23 Q1015", "SBUL 011100Z 11004KT CAVOK 22/17 Q1018", "SBUR 011100Z 04003KT CAVOK 23/18 Q1018", "SBUY 011100Z 33002KT 5000 BR BKN004 BKN070 23/23 Q1012", "SBVH 011100Z 12003KT CAVOK 22/21 Q1015", "SBVT 011100Z 30003KT CAVOK 28/22 Q1012", "SBYS 011100Z VRB02KT 0800 R02/1300D R20/P2000 FG OVC002 19/19 Q1016", "SCAR 011100Z 10003KT 060V120 9999 FEW040 22/15 Q1011", "SCAT 011100Z AUTO 22004KT 9999 OVC017/// 18/16 Q1013", "SCBA 011100Z 27022KT 9999 FEW025 06/05 Q1001 RESHRA", "SCCF 011100Z 10013KT CAVOK 08/05 Q1026", "SCCH 011100Z AUTO 21002KT 9999 ///////// 05/01 Q1013", "SCCI 011100Z 21007KT 9999 FEW012 BKN100 05/03 Q0991 NOSIG", "SCCY 011100Z VRB04KT 9999 -SHRA SCT010 BKN030 07/07 Q1004", "SCDA 011100Z 05003KT 020V110 CAVOK 22/16 Q1011", "SCEL 011100Z 00000KT CAVOK 12/02 Q1013 NOSIG", "SCFT 011100Z AUTO 28004KT 250V310 9999 -RA FEW028/// OVC053/// 09/09 Q1009 RESHRA", "SCHR 011100Z AUTO 30005KT 270V350 9999 SCT027 05/04 Q0996", "SCIC 011100Z AUTO 15004KT //// R/////// // NCD 12/03 Q1012", "SCIE 011100Z 17004KT CAVOK 11/06 Q1014", "SCIP 011100Z 09009KT 9999 SCT025 22/17 Q1018 NOSIG", "SCIR 011100Z 13003KT CAVOK 15/12 Q////", "SCJO 011100Z 08004KT 030V120 9999 BKN040 OVC060 10/09 Q1015", "SCMK 011100Z AUTO 22012KT 190V260 //// // BKN012/// BKN017/// BKN024/// 12/11 Q1009", "SCON 011100Z AUTO 25009KT 210V290 9999 FEW015/// BKN019/// OVC025/// 13/11 Q1011", "SCPD 011100Z AUTO 16003KT 110V190 //// ///////// 13/M02 Q1013", "SCPQ 011100Z AUTO 31008KT 270V030 3500 -RA BKN003 BKN015 OVC026 14/13 Q1011 RERA", "SCQP 011100Z 19003KT 9999 FEW010 SCT050 04/04 Q1016", "SCRG 011100Z 20001KT 9999 SCT130 11/03 Q1014", "SCSE 011100Z 00000KT 4000 BR OVC006 15/15 Q1013", "SCSN 011100Z AUTO VRB01KT 9999 NCD 08/08 Q1012", "SCTE 011100Z 03014KT 9999 SCT020 BKN030 12/11 Q1013 NOSIG", "SCVD 011100Z AUTO VRB02KT //// R35///// BKN020 OVC040 09/08 Q1016", "SCVM 011100Z 00000KT 9999 FEW080 10/07 Q1011", "SECA 011100Z 26002KT 9999 BKN040 17/17 Q1017 RMK A3004", "SECU 011100Z 00000KT 9999 3000N BCFG SCT005 BKN023 11/11 Q1026", "SEGU 011100Z 32005KT 9999 FEW026 SCT100 24/23 Q1009 NOSIG RMK A2981", "SELT 011100Z 35002KT 9999 FEW010 BKN030 07/07 Q1030", "SEMT 011100Z 15004T 9999 SCT020 23/21 Q1010 RMK A2983", "SEQM 011100Z VRB02KT 9999 SCT070 10/09 Q1025 NOSIG RMK A3029", "SESA 011100Z 05004KT CAVOK 25/24 Q1009 RMK A2982", "SESM 011100Z 34007KT 9999 FEW005 BKN040 BKN100 19/17 Q1016 RMK A3002", "SGAS 011130Z 18010KT 9999 SCT015 25/22 Q1016", "SGEN 011130Z 00000KT CAVOK 23/16 Q1019", "SGES 011130Z 18007KT CAVOK 24/22 Q1016", "SKAR 011100Z 00000KT 3000 BR BKN018 SCT090 19/19 Q1016 RMK A3001", "SKBG 011100Z 19004KT 9999 SCT015 BKN070 20/18 Q1015 RMK A2998", "SKBO 011100Z 05004KT 9999 FEW015 SCT070 11/10 Q1026 NOSIG RMK A3032", "SKBQ 011100Z 03005KT CAVOK 25/22 Q1010 NOSIG RMK A2983", "SKCC 011100Z 34006KT 5000 BCFG SCT007 BKN070 23/23 Q1015 RMK A2997", "SKCG 011100Z 09003KT 9999 FEW017 24/22 Q1009 RMK A2979", "SKCL 011100Z VRB02KT 9999 BKN030 SCT080 20/19 Q1015 NOSIG RMK A2999", "SKEJ 011100Z 21006KT 9999 BKN017 SCT100 25/24 Q1009 RMK A2980", "SKIB 011100Z 28003KT 9999 BKN030 20/19 Q1017 RERA RMK A3006", "SKIP 011100Z 00000KT 9999 4000E -DZ BCFG SCT008 BKN016 09/09 Q1028 RMK A3038", "SKLC 011100Z VRB02KT 9999 BKN015 25/24 Q1010 RMK A2983", "SKLT 011100Z VRB02KT 9999 SCT015 24/24 Q1012 RMK A2989", "SKMD 011100Z 04008KT 9000 6000S SCT020 BKN100 20/18 Q1020 RMK HZ A3012", "SKMR 011100Z 18004KT 8000 FEW015 26/24 Q1009 RMK HZ A2981", "SKMZ 011100Z 09004KT 7000 -DZ VCFG BKN015 14/14 Q1025 RMK VCFG/W A3029", "SKNV 011100Z 00000KT 9000 FEW040 BKN100 23/21 Q1012 RMK HZ A2989", "SKPC 011100Z 03006KT 9999 NSC 26/22 Q1011 RMK A2986", "SKPE 011100Z VRB02KT 9999 BKN020 BKN080 19/18 Q1017 RMK A3005", "SKPS 011100Z 00000KT 1000 R20/P2000N R02/P2000N BR OVC005 16/16 Q1020 RMK A3012", "SKPV 011100Z 08014KT 9999 FEW017 26/21 Q1014 RMK A2994", "SKRG 011100Z VRB02KT 7000 VCFG BKN010 SCT070 15/15 Q1025 BECMG FM1200 SCT012 RMK VCFG/S A3027", "SKRH 011100Z 09009KT 9999 FEW030 25/21 Q1012 RMK A2991", "SKSM 011100Z 05003KT 9999 NSC 25/21 Q1010 RMK A2985", "SKSP 011100Z 08010KT 050V130 9999 SCT016 27/21 Q1013 RMK A2993", "SKUI 011100Z 00000KT 8000 FEW008 OVC080 24/24 Q1010 RMK HZ A2983", "SKVP 011100Z 06012KT 9999 FEW015 SCT200 25/19 Q1012 RMK A2991", "SKVV 011100Z 00000KT 8000 SCT020 BKN090 23/21 Q1013 RMK HZ A2993", "SLAL 011100Z 00000KT 9999 SCT007 SCT070 09/09 Q1035", "SLCA 011100Z 00000KT 8000 -RA BKN033 FEW040CB OVC070 19/18 Q1023", "SLCB 011100Z VRB02KT 8000 SCT027 SCT070 BKN200 13/11 Q1030", "SLCP 011100Z 00000KT 9999 NSC 22/22 Q1018", "SLET 011100Z 14028G40KT 0900 +RA BKN012 FEW030CB OVC070 22/21 Q1019", "SLLP 011100Z 09005KT 4000E VCFG FEW002 SCT200 02/01 Q1040", "SLRI 011100Z 00000KT 5000 BR SCT004 BKN080 BKN200 24/23 Q1014", "SLSA 011100Z 00000KT 9999 FEW080 BKN200 24/23 Q1012", "SLSV 011100Z 00000KT 9999 NSC 22/21 Q1014", "SLTR 011100Z 00000KT 1000 BR SCT003 BKN200 24/23 Q1013", "SLVM 011100Z 00000KT 6000 VCSH FEW010 BKN020 OVC070 22/21 Q1020", "SLVR 011105Z 17024G40KT 1800 TSRA BKN013 FEW030CB OVC070 21/21 Q1018", "SMJP 011100Z 00000KT 9999 SCT008 25/23 Q1014 NOSIG", "SMZO 011100Z 00000KT 9999 FEW010 25/23 Q1014 NOSIG", "SOCA 011100Z AUTO 00000KT 9999 SCT024 BKN030 BKN039 23/23 Q1014 TEMPO 3000 SHRA BKN015TCU BECMG 07012KT", "SPHI 011100Z VRB01KT 9999 SCT035 25/21 Q1010 RMK BIRD HAZARD RWY 19/01 PP000", "SPHO 011100Z 14003KT 09V170 9999 FEW010 BKN070 14/08 Q1030 RMK SH S PP000", "SPJC 011100Z 15007KT 9999 FEW020 24/20 Q1011 NOSIG RMK PP000", "SPJR 011100Z 00000KT 9999 SCT025 BKN050 10/09 Q1027 RMK PP000", "SPQT 011100Z 00000KT 9999 FEW003 SCT100 22/22 Q1012 NOSIG RMK BIRD HAZARD RWY 06/24 PP000", "SPQU 011100Z 06005KT 030V100 CAVOK 11/10 Q1025 RMK PP000", "SPRU 011100Z 13008KT 5000 BR SCT050 25/23 Q1010 RMK PP000", "SPSO 011100Z 16003KT 8000 BKN008 22/21 Q1010 RMK BR PP000", "SPST 011100Z 08003KT 5000 -DZ BCFG FEW005 SCT015 OVC070 22/22 Q1015 RMK RA INICIO EN LA NOCHE PP030", "SPTN 011100Z 35002KT CAVOK 20/16 Q1013 RMK PP000", "SPTU 011100Z 32002KT CAVOK 23/22 Q1012 RMK BKN120 PP000", "SPZO 011130Z 11003KT 9999 NSC 07/04 Q1034 NOSIG RMK BIRD HAZARD RWY 10/28", "SUAA 011100Z 18009KT 9999 SCT020 16/10 Q1021", "SUCA 011100Z 20010KT 9999 FEW013 14/11 Q1022", "SULS 011100Z 20012KT 9999 FEW026 BKN030 18/12 Q1019", "SUMU 011100Z 18011KT 9999 BKN033 17/11 Q1020 NOSIG", "SUSO 011100Z VRB02KT CAVOK 11/08 Q1022", "SVBC 011103Z AUTO NIL", "SVBI 011103Z AUTO /////KT NCD 24/24 Q1016", "SVBM 011103Z AUTO 08002KT NCD 20/16 Q1016", "SVBS 011103Z AUTO 10001KT NCD 20/17 Q1016", "SVCB 011103Z AUTO 07005KT NCD 23/21 Q1013", "SVCS 011103Z AUTO 04007KT NCD 20/17 Q1018", "SVFM 011103Z AUTO NIL", "SVGD 011103Z AUTO 03005KT NCD 25/22 Q1013", "SVGU 011103Z AUTO 27002KT NCD 25/21 Q1013", "SVJM 011103Z AUTO 21004KT NCD 24/17 Q1014", "SVLO 011103Z AUTO NIL", "SVMC 011103Z AUTO NIL", "SVMG 011103Z AUTO 10008KT NCD 23/23 Q1015", "SVMI 011103Z AUTO 08006KT NCD 24/19 Q1015", "SVMT 011103Z AUTO NIL", "SVPA 011103Z AUTO NIL", "SVPR 011103Z AUTO 07008KT NCD 22/20 Q1016", "SVSA 011103Z AUTO NIL", "SVSR 011103Z AUTO NIL", "SVVA 011103Z AUTO 01003KT NCD 25/20 Q1015", "SVVL 011103Z AUTO ///01KT NCD ///// Q////", "SYCJ 011100Z VRB02KT 9999 FEW014 22/22 Q1014 NOSIG", "TAPA 011100Z 07012KT 030V110 9999 VCSH BKN018 24/21 Q1019 NOSIG", "TBPB 011100Z 09017KT 9999 SCT016 BKN036 25/22 Q1015 NOSIG", "TDPD 011100Z 11012KT 9999 BKN017 26/21 Q1018", "TFFF 011100Z AUTO 10011KT 9999 BKN028 BKN033 BKN040 26/20 Q1017 TEMPO 4500 SHRA SCT020TCU", "TFFR 011100Z AUTO 08006KT 9999 FEW026 24/21 Q1018 TEMPO 4000 SHRA BKN020TCU", "TIST 011053Z 07015KT 10SM CLR 25/19 A3010 RMK AO2 SLP192 T02500194", "TISX 011053Z AUTO 05009KT 9SM -RA FEW024 BKN070 OVC090 23/22 A3009 RMK AO2 RAB0956 SLP189 P0015 T02280217 $", "TJBQ 011050Z 08016G18KT 10SM BKN029 BKN039 BKN050 24/19 A3013", "TJIG 011055Z 10012G19KT 10SM SCT025 SCT035 BKN060 26/21 A3011", "TJNR 011053Z AUTO 06010G17KT 10SM FEW026 OVC047 26/21 A3012 RMK AO2 SLP200 T02560206", "TJPS 011115Z AUTO 10005KT 10SM FEW047 SCT070 BKN080 23/19 A3010 RMK AO2 TSNO", "TJSJ 011056Z 07015G18KT 10SM SCT029 BKN047 BKN055 24/19 A3011 RMK AO2 SLP196 T02440194", "TKPK 011100Z 06013KT 9999 BKN018 SCT045 24/22 Q1019", "TKPN 011100Z 07015KT 9999 VCSH BKN017 SCT045 25/23 Q1019", "TLPL 011100Z 09021KT 9999 SCT024 27/20 Q1017 NOSIG", "TNCA 011100Z 09016KT 9999 SCT017 26/21 Q1014 NOSIG", "TNCB 011055Z 07013KT 9999 FEW016 26/22 Q1014", "TNCC 011100Z 09013KT 9999 FEW019 25/22 Q1015 NOSIG", "TNCE 011055Z AUTO 06020KT //// // ///////// 24/20 Q1019 RE//", "TNCM 011100Z 05013KT 020V080 9999 SCT016 24/19 Q1020 NOSIG ", "TQPF 011100Z 08011KT 9999 SCT019 24/20 Q1020", "TRPG 011100Z 09017KT 9999 BKN018 24/21 Q1019", "TTCP 011100Z 06005KT 9999 FEW016 25/21 Q1015 NOSIG", "TTPP 011100Z 00000KT 9999 FEW016 25/22 Q1015 NOSIG", "TUPJ 011100Z 07013KT 10SM SCT019 25/20 A3011 RMK Q1019 VIS16KM", "TVSA 011100Z 04016KT 010V090 9999 VCSH BKN014 26/22 Q1016 NOSIG ", "TXKF 011055Z VRB01KT 9999 FEW042 14/11 Q1028 ", "UAAA 011100Z 22004MPS 200V260 9999 NSC 10/M14 Q1021 NOSIG", "UAAH 011100Z 09013MPS CAVOK 07/M14 Q1028 NOSIG RMK QFE733/0978", "UAAT 011100Z 04014MPS 9999 NSC 07/M13 Q1022 NOSIG RMK QFE715/0954", "UACC 011100Z 13007MPS CAVOK 06/M09 Q1034 NOSIG RMK QFE744/0992", "UACK 011100Z 17008MPS CAVOK 07/M07 Q1035 NOSIG RMK QFE752/1003", "UACP 011100Z 14008MPS CAVOK 06/M03 Q1035 NOSIG RMK QFE763/1018", "UADD 011100Z 04011G16MPS 9999 NSC 15/M11 Q1012 NOSIG RMK QFE702/0937", "UAII 011102Z 08010G15MPS CAVOK 20/M05 Q1007 NOSIG RMK QFE720/0960", "UAIT 011100Z 08019MPS CAVOK 17/M14 Q1009 NOSIG RMK QFE732/0976", "UAKD 011100Z 10013MPS CAVOK 13/M16 Q1024 NOSIG RMK QFE734/0979", "UAKK 011100Z 08009MPS CAVOK 04/M10 Q1032 NOSIG RMK QFE726/0968", "UAOO 011100Z 09014G19MPS 5000 BLDU NSC 18/M17 Q1011 TEMPO 08020G25MPS 3000 BLDU RMK QFE747/0996", "UARR 011100Z 09004MPS 9999 -RA SCT046 06/04 Q1018 NOSIG RMK QFE760/1014", "UASK 011100Z 35012MPS 9999 NSC M00/M12 Q1032 NOSIG RMK QFE748/0997", "UASP 011100Z 07006MPS 050V110 CAVOK 01/M15 Q1041 NOSIG RMK QFE770/1026", "UASS 011100Z 03008MPS 360V060 CAVOK 00/M14 Q1038 NOSIG RMK QFE757/1009", "UATE 011100Z 33009MPS 9999 -SHRA BKN013CB OVC025 07/05 Q1008 NOSIG RMK QFE755/1006", "UATG 011100Z 02013G18MPS 9999 FEW033CB 13/03 Q1009 NOSIG RMK QFE758/1011", "UATT 011100Z 11010MPS CAVOK 17/M07 Q1017 NOSIG RMK QFE743/0991", "UAUU 011100Z 10010MPS CAVOK 05/M02 Q1028 NOSIG RMK QFE755/1006", "UBBB 011100Z 32018G28KT 8000 FEW014 BKN030 07/04 Q1015 WS R34 NOSIG", "UBBF 011100Z 08004KT 9999 OVC016 07/04 Q1013 NOSIG RMK MT OBSC", "UBBG 011100Z 31018KT 9999 SCT015 BKN056 09/02 Q1013 NOSIG", "UBBL 011100Z 15010KT 9999 BKN024 10/04 Q1016 NOSIG RMK MT OBSC", "UBBN 011100Z 22004KT 8000 -RA BKN016 OVC080 03/01 Q1012 NOSIG RMK MT OBSC QFE685", "UBBQ 011100Z 18006KT 9999 -DZ OVC019 06/03 Q1014 NOSIG RMK MT OBSC", "UBBY 011100Z 00000KT 9999 SCT007 OVC025 07/04 Q1016 NOSIG RMK MT OBSC", "UBBZ 011100Z 25004KT 140V290 9999 SCT026 BKN050 10/00 Q1013 NOSIG RMK MT OP", "UBEE 011100Z 07003KT 9999 SCT015 BKN036 09/05 Q1015 NOSIG", "UCFL 011100Z 11004MPS 9999 NSC 11/M06 Q1016", "UCFM 011100Z 05016G23MPS 8000 VCDS FEW003 11/M11 Q1014 TEMPO 05020G25MPS", "UCFO 011100Z 36002MPS 310V030 9999 FEW050CB 23/03 Q1005 NOSIG", "UDSG 011100Z 31006KT 260V330 9999 SCT043TCU 05/M05 Q1011 NOSIG", "UDYZ 011100Z 13007KT 9999 BKN033 05/02 Q1012 NOSIG", "UEEE 011100Z 31007MPS 9999 SCT050CB M11/M20 Q1023 R23L/490150 NOSIG RMK QFE758", "UERP 011100Z 21004MPS CAVOK M16/M25 Q1024 NOSIG RMK QFE724", "UERR 011100Z 32004MPS CAVOK M13/M23 Q1032 R07/920445 NOSIG RMK QFE743/0991", "UGAM 011100Z VRB01KT 9999 OVC050 07/M02 Q1015", "UGKO 011100Z 27004KT CAVOK 12/M01 Q1016 NOSIG", "UGMS 011100Z 23006KT 180V280 9999 SCT090 07/M04 Q1012", "UGSB 011100Z 35008KT CAVOK 11/03 Q1016 NOSIG", "UGTB 011100Z 32016KT 9999 BKN043 OVC051 08/M03 Q1014 NOSIG", "UHBB 011100Z 14005MPS 9999 SCT033CB 10/M02 Q1010 R18/090060 NOSIG RMK QFE742/0989", "UHHH 011100Z 05004MPS CAVOK 05/M06 Q1019 R88/090060 NOSIG RMK QFE758/1011", "UHMA 011100Z 29008MPS 9999 DRSN BKN033 M12/M14 Q1002 R01/////// NOSIG RMK MID 30008MPS END R01/32007MPS QFE748/0997", "UHMM 011100Z 28001MPS 9999 SCT010 OVC021 M04/M05 Q1018 RMK QFE748 R28/30002MPS", "UHPP 011100Z 35001MPS 1400 0200N FZFG NSC M02/M02 Q1020 R34L/CLRD65 NOSIG RMK QFE761/1015", "UHSS 011100Z 36007MPS 9999 BKN005 BKN014CB M00/M01 Q1024 R01/70D NOSIG RMK MT OBSC QFE767/1023", "UHWW 011100Z 25003MPS 9999 NSC 04/M07 Q1021 R25L/0///70 NOSIG RMK QFE764", "UIAA 011100Z 30003MPS 9999 NSC M01/M18 Q1017 R29/70D NOSIG RMK QFE704/0939", "UIBB 011100Z 33004MPS 300V010 9999 SCT043CB M09/M17 Q1035 R30/920345 NOSIG RMK QFE732/0976", "UIII 011100Z 32006MPS CAVOK M06/M18 Q1031 R30/910560 NOSIG RMK QFE728/0970", "UIUU 011100Z 34007MPS 9999 SCT043CB M04/M17 Q1026 R08/60D NOSIG RMK QFE724/0965", "ULAA 011100Z 29003MPS 250V330 9999 BKN018 M00/M06 Q1005 R26/910560 NOSIG RMK QFE752/1003", "ULLI 011100Z 04004MPS 360V070 2500 -SN BKN007 OVC021 00/M01 Q1006 R10R/510550 R10L/520540 NOSIG", "ULMM 011100Z 31006MPS 8000 -SHSN DRSN BKN024CB M00/M04 Q1002 R31/490145 TEMPO 0300 +SHSN RMK QFE744", "ULOO 011100Z 06003MPS 020V090 9000 -RA BKN006 OVC030 03/02 Q1002 R01/290050 NOSIG RMK OBST OBSC QFE747", "ULPB 011100Z 03003MPS 350V090 CAVOK 02/M07 Q1006 R19/190055 NOSIG RMK QFE751/1001", "ULWC 011100Z 01004MPS CAVOK 06/M07 Q1004 R03/010060 NOSIG RMK QFE743/0991", "UMBB 011100Z 21002MPS 5000 -SHRA BR OVC015CB 11/07 Q0997 NOSIG", "UMGG 011100Z 15006MPS 9000 BKN042 OVC100 11/09 Q1002 NOSIG", "UMII 011100Z 17003G06MPS 7000 BKN007 06/05 Q1000 TEMPO 2000 RA BR BKN005", "UMIO 011100Z 16004MPS 140V200 8000 BKN005 OVC028 07/06 Q1000 NOSIG RMK QBB160 QFE733/0978", "UMKK 011100Z 36005MPS 5000 -DZ BR OVC003 05/04 Q1001 R06/290095 NOSIG RMK QBB090 OBST OBSC QFE749/0999", "UMMG 011100Z 03003MPS 3100 -RA BR OVC003 08/08 Q0997 NOSIG RMK QBB110", "UMMS 011124Z 12003MPS 2600 -SHRA BR BKN001 BKN023CB 05/05 Q0999 NOSIG RMK QBB050", "UMOO 011100Z 14005MPS 5000 BR OVC005 06/06 Q1001 NOSIG RMK QBB160", "UNAA 011100Z 34005MPS 9999 FEW045CB M08/M16 Q1041 R02/CLRD64 NOSIG RMK QFE758", "UNBB 011100Z 06005MPS CAVOK M04/M17 Q1041 R06/CLRD60 NOSIG RMK QFE758", "UNEE 011100Z 31003MPS 280V360 CAVOK M04/M16 Q1041 R23/CLRD60 NOSIG RMK QFE757", "UNKL 011100Z 14003MPS 9999 SCT049 M07/M16 Q1041 R29/CLRD65 NOSIG RMK QFE754", "UNNT 011100Z 30004MPS CAVOK M03/M12 Q1043 R25/120060 R34/////// NOSIG RMK QFE772/1030", "UNOO 011100Z 14006MPS CAVOK 01/M06 Q1041 R25/CLRD60 NOSIG RMK QFE772", "UNTT 011100Z 30002MPS 270V360 CAVOK M04/M17 Q1042 R21/090060 NOSIG RMK QFE766", "UNWW 011100Z 36003MPS 340V050 CAVOK M04/M17 Q1040 R19/910250 NOSIG RMK QFE752", "UOOO 011100Z 19014MPS 0900 0700NE R19/0700D SN BLSN SCT042 M11/M12 Q1016 R19/450260 NOSIG RMK QFE745/0994", "URKA 011100Z 18010MPS 9999 FEW/// 11/01 Q1013 R22/010070 TEMPO 18010G15MPS RMK QFE755/1007", "URKK 011100Z 19003MPS 160V250 CAVOK 14/00 Q1014 R05R/CLRD70 NOSIG RMK QFE758", "URMG 011100Z 21002MPS 170V260 9999 BKN033 08/00 Q1016 R26/090070 NOSIG RMK QFE747/0997", "URML 011100Z 33008MPS 9999 SCT/// BKN058 09/03 Q1016 R32/190065 NOSIG RMK QFE761/1015", "URMM 011100Z 11007MPS 9999 NSC 12/M05 Q1014 R12/090070 NOSIG RMK QFE732/0977", "URMN 011100Z 09004MPS 9999 FEW/// 11/M01 Q1013 R24/010070 NOSIG RMK QFE723", "URMO 011100Z 08005MPS 9999 SCT/// BKN100 07/00 Q1015 R09/010070 NOSIG RMK QFE717/0957", "URMT 011100Z 15005MPS 110V180 CAVOK 13/M05 Q1014 R07/010070 NOSIG RMK QFE721", "URRP 011100Z 19004MPS 160V220 9999 FEW/// 12/00 Q1015 R23/CLRD70 NOSIG RMK QFE753/1005", "URSS 011100Z 17004MPS 9999 FEW060 10/M00 Q1017 WS ALL RWY R02/010070 R06/010070 NOSIG RMK R06/20004G07MPS QFE761", "URWA 011100Z 01006MPS 340V040 9999 BKN024CB 08/02 Q1015 R27/290055 TEMPO 2000 SHRA BKN007 BKN015CB RMK QFE763/1017", "URWI 011100Z 03003MPS 350V090 9999 SCT/// 12/M05 Q1016 R09/010065 NOSIG", "URWW 011100Z 24005MPS 200V260 CAVOK 12/M02 Q1016 R24/010070 NOSIG", "USCC 011100Z 14009MPS CAVOK 11/M08 Q1024 R09/000060 NOSIG RMK QFE747", "USCM 011100Z 15007MPS 9999 NSC 09/M01 Q1022 R36/090060 NOSIG RMK QFE728", "USDA 011100Z 27003MPS CAVOK M06/M07 Q1004 R22/520247 NOSIG RMK QFE752/1003", "USHH 011100Z 19006MPS CAVOK 04/M04 Q1022 R24/010060 NOSIG", "USNN 011100Z 20008MPS CAVOK 04/M11 Q1030 R21/0///65 NOSIG RMK QFE767", "USPP 011100Z 18006MPS 9999 BKN017CB 06/03 Q1015 R21/290150 TEMPO 15005G16MPS 3500 -SHRA BKN011CB RMK QFE750", "USRR 011100Z 20008MPS 160V220 CAVOK 04/M07 Q1026 R25/CLRD60 NOSIG RMK QFE764", "USSS 011100Z 16011MPS CAVOK 13/M03 Q1019 R08R/010060 TEMPO 17012G20MPS RMK QFE744/0993", "USTR 011100Z 18006G11MPS CAVOK 10/M03 Q1026 R21/090065 R12/////99 TEMPO 17017MPS", "UTAA 011100Z 30014KT 9999 TS FEW033CB BKN033 OVC100 14/08 Q1008 R88/70D NOSIG", "UTAK 011100Z 30016KT 9000 SCT008 OVC016 07/06 Q1012 R16R/29//5 NOSIG", "UTAM 011100Z 30010G20KT 3300 HZ FEW066CB SCT066 OVC100 25/07 Q1003 R88/CLRD70 TEMPO 32020G30KT 0600 DS -TSSHRA", "UTAT 011100Z 13010KT 100V160 CAVOK 25/00 Q1004 R08/CLRD70 NOSIG", "UTAV 011100Z 13008KT CAVOK 30/03 Q1003 R13/CLRD70 NOSIG", "UTDD 011100Z 12003MPS 9999 FEW066CB SCT130 20/10 Q1009 R09/19//60 TEMPO TS RMK QFE689/0918", "UTDK 011100Z VRB01MPS 9999 VCTS SCT066CB 24/10 Q1007 R01/09//70 RMK QFE698/0931", "UTDL 011100Z 09004MPS 9999 FEW060CB 24/09 Q1005 R08/CLRD70 NOSIG RMK QFE715/0954", "UTDT 011100Z 01006MPS 9999 SCT040CB BKN110 23/09 Q1005 R35/CLRD70 RMK QFE715/0953", "UTFF 011100Z 30004KT 260V350 9999 NSC 24/M01 Q1005 R18/CLRD70", "UTFN 011100Z 19006KT 140V210 9999 NSC 25/M01 Q1004 R28/CLRD70 NOSIG", "UTNN 011100Z 08014KT CAVOK 26/M06 Q1005 R15/CLRD60 NOSIG", "UTNU 011100Z 06012KT CAVOK 25/M05 Q1004 R31/CLRD70 NOSIG", "UTO8 M M M 291/-23/-26/1706/M/ SOG 01 2006 42MM", "UTSA 011100Z 23006KT 9999 NSC 28/02 Q1005 R25/CLRD70 NOSIG", "UTSB 011100Z 24006KT 150V290 CAVOK 29/04 Q1003 R01/CLRD70 NOSIG", "UTSK 011100Z 25006KT 210V310 9999 FEW050CB 28/04 Q1004 R16/CLRD70", "UTSS 011100Z 34008KT 300V030 9999 FEW068CB 24/07 Q1005 R27/70D NOSIG", "UTST 011030Z 04010KT 350V080 9999 BKN060TCU 28/09 Q1004 R25/CLRD70 NOSIG", "UTTT 011100Z 36010KT 310V040 9999 FEW053TCU 25/11 Q1005 R08L/CLRD70 NOSIG", "UUBC 011100Z 18004MPS 9999 BKN018 06/03 Q1005 R13/CLRD60 NOSIG RMK QFE735/0981", "UUBP 011100Z 17004MPS 9999 BKN009 07/06 Q1004 R34/////// NOSIG RMK QFE736/0981", "UUBW 011100Z 19002MPS 100V230 9999 SCT028 08/00 Q1005 R30/010060 NOSIG", "UUDD 011100Z 22004MPS 190V250 9999 SCT026 08/00 Q1005 R14R/190050 R14C/290042 NOSIG", "UUDL 011100Z 22003MPS 9999 -RA OVC009 03/03 Q1005 R23/290353 NOSIG RMK QFE746", "UUEE 011100Z 21003MPS 140V260 9999 SCT030 07/00 Q1004 R24L/150051 R24C/150051 NOSIG", "UUMO 011100Z 18003MPS 140V230 CAVOK 08/01 Q1005 R25/CLRD60 NOSIG RMK QFE738/0985", "UUOB 011100Z 18005MPS 9000 BKN016 07/04 Q1009 R11/290060 NOSIG", "UUOK 011100Z 20006MPS 9999 OVC008 07/05 Q1007 R12/290050 NOSIG RMK QFE738/0984", "UUOL 011100Z 21007MPS 9999 OVC016 06/04 Q1009 R15/////// NOSIG", "UUOO 011100Z 22006MPS 9999 OVC018 07/03 Q1010 R12/220150 NOSIG RMK QFE743", "UUWW 011100Z 19005MPS CAVOK 08/00 Q1004 R24/220055 NOSIG", "UUYY 011100Z 19006MPS 9999 SCT023CB OVC043 03/M00 Q1005 R18/29//51 NOSIG RMK QFE746/0994", "UWGG 011100Z 26005MPS 220V290 9999 -SHRA BKN027CB 05/01 Q1008 R18L/190060 NOSIG", "UWKD 011100Z 22005MPS 9999 BKN038 06/M00 Q1012 R29/2/0050 NOSIG RMK QFE748/0997", "UWKE 011100Z 20010MPS 9999 SCT040 10/M01 Q1013 R21/090070 NOSIG RMK QFE743/0991", "UWKS 011100Z 21008MPS 9999 BKN044CB 05/M01 Q1010 R24/010060 NOSIG RMK QFE743", "UWLL 011100Z 23009MPS 200V260 9999 BKN043CB 10/M01 Q1013 R20/090065 NOSIG RMK QFE749/0999", "UWLW 011100Z 23010MPS CAVOK 11/01 Q1013 R20/CLRD60 NOSIG RMK QFE754/1006", "UWOO 011100Z 15005MPS CAVOK 17/M02 Q1017 R08/60D NOSIG RMK QFE752/1003", "UWOR 011100Z 13011G17MPS CAVOK 14/M05 Q1020 R07/CLRD60 NOSIG RMK QFE740/0987", "UWPS 011100Z 23006MPS 9999 SCT020 08/01 Q1011 R20/150060 NOSIG RMK QFE740", "UWSG 011100Z 16007MPS CAVOK 12/04 Q1014 R08/CLRD70 NOSIG RMK QFE758/1011", "UWUU 011100Z 26004MPS 230V300 9999 OVC020 05/04 Q1019 R32L/290148 NOSIG", "UWWW 011100Z 19008MPS CAVOK 10/M02 Q1015 R15/CLRD60 NOSIG RMK QFE750/1000", "VAAH 011100Z 30004KT 6000 SCT025 34/10 Q1006 NOSIG", "VABB 011100Z 32010KT 6000 NSC 29/21 Q1008 NOSIG", "VABO 011100Z 25006KT 6000 SCT020 34/15 Q1007 NOSIG", "VABP 011130Z 31005KT 6000 SCT025 SCT030 30/07 Q1008 NOSIG", "VADU 011100Z 26014KT 6000 FEW020 29/23 Q1009 NOSIG", "VAID 011030Z 28012KT 7000 SCT025 SCT030 32/11 Q1010 NOSIG", "VAJB 011100Z 31009KT 6000 FEW025 SCT030 32/13 Q1008 NOSIG", "VAJJ 011100Z 30010KT 6000 FEW025 29/21 Q1008 NOSIG", "VAJL 011100Z 29007KT 7000 FEW020 34/11 Q1007 NOSIG", "VAKE 011100Z 31007KT 5000 FU SCT020 SCT025 37/12 Q1006 NOSIG", "VAKP 011100Z 26010KT 9000 FEW020 33/10 Q1010", "VANP 011100Z 31005KT 5000 HZ SCT020 SCT100 35/13 Q1007 NOSIG", "VAOZ 011100Z 32007KT 8000 SCT030 31/09 Q1011 NOSIG", "VASD 011100Z 33006KT 6000 NSC 31/06 Q1010 NOSIG", "VASU 011100Z 20008KT 6000 NSC 31/17 Q1008 NOSIG", "VAUD 011100Z 27006KT 6000 SCT030 SCT035 32/07 Q1009 NOSIG", "VCBI 011110Z 25006KT 220V300 9999 SCT016 FEW018CB 31/25 Q1007 NOSIG RMK CB NE/SE", "VCRI 011110Z 16006KT 120V200 9999 FEW018 SCT080 30/26 Q1008 NOSIG", "VDPP 011100Z 15007KT 9999 SCT017 33/21 Q1005", "VDSR 011100Z 19002KT 9999 SCT015 33/22 Q1005", "VDSV 011100Z 23010KT 9999 SCT015 FEW017CB 29/25 Q1007 RMK CB:NE", "VEAT 011100Z 22002KT 4000 BR SCT018 BKN100 26/22 Q1008 NOSIG", "VEBN 011100Z 30005KT 4500 HZ FEW025 29/19 Q1006 NOSIG", "VEBS 011100Z 21007KT 4000 -TSRA SCT016 FEW030CB BKN100 25/25 Q1009 TEMPO 3000 -TSRA", "VECC 011100Z 10004KT 3200 HZ SCT018 BKN100 27/21 Q1006 NOSIG", "VECO 011100Z 09002KT 4000 HZ BKN025 26/20 Q1006 NOSIG", "VEDG 011100Z 12008KT 2800 HZ SCT018 FEW030CB BKN080 26/20 Q1006 TEMPO 1500 TSRA", "VEGT 011100Z 00000KT 3000 BR SCT018 BKN100 28/25 Q1006 NOSIG", "VEGY 011100Z 28003KT 5000 HZ FEW020 SCT100 30/16 Q1006 NOSIG", "VEIM 011100Z 01001KT 5000 BR FEW010 SCT018 BKN100 23/18 Q1010 NOSIG", "VEJH 011100Z 30005KT 6000 FEW020 30/20 Q1007", "VEJR 011100Z 23003KT 5000 -TSRA FEW025 SCT030 FEW035CB OVC080 21/19 Q1009", "VEJS 011100Z 15003KT 5000 HZ SCT100 28/19 Q1006", "VEKI 011100Z 34004KT 5000 HZ SCT100 27/14 Q1006 NOSIG", "VELP 011100Z 34004KT 3000 BR SCT020 SCT020 BKN100 23/19 Q1008 NOSIG", "VELR 011100Z 15003KT 2500 -RA FEW010 SCT016 FEW025CB OVC080 21/20 Q1008", "VEMN 011030Z 09003KT 2000 -RA SCT007 SCT017 FEW025CB OVC090 21/20 Q1008 TEMPO 1500 RA", "VEPT 011100Z 30003KT 5000 HZ FEW100 31/20 Q1005 NOSIG", "VERC 011100Z 19007KT 2500 -TSRA SCT018 FEW030CB BKN100 23/20 Q1010 TEMPO 1500 TSRA", "VERK 011100Z 19504KT 6000 FEW020 29/17 Q1006", "VERP 011100Z 26006KT 6000 NSC 33/14 Q1006 NOSIG", "VERU 011100Z 08004KT 6000 NSW FEW020 SCT100 24/18 Q1006 NOSIG", "VGHS 011100Z 21008KT 3500 HZ SCT012 BKN100 26/19 Q1007 NOSIG", "VHHH 011100Z 09009KT 9999 FEW012 SCT025 22/18 Q1011 NOSIG", "VIAR 011100Z 04012KT 4000 BR SCT030 SCT090 19/17 Q1009 NOSIG", "VIDN 011100Z 05010KT 5000 -RA SCT025 BKN060 19/09 Q1010", "VIDP 011100Z 28004KT 3200 HZ SCT030 FEW035CB BKN100 28/14 Q1008 TEMPO 31015G30KT 1500 TSRA", "VIJP 011100Z 27009KT 5000 HZ FEW040 29/13 Q1009 NOSIG", "VILK 011030Z VRB02KT 5000 HZ SCT020 SCT025 27/20 Q1007 NOSIG", "VIPT 011100Z 14005KT 6000 SCT030 SCT100 25/13 Q1008", "VLLB 011100Z 27004KT 4000 FU SCT020 SCT080 35/20 Q1003 NOSIG", "VLLN 011100Z 14002KT 5000 FU SCT020 28/22 Q1006 NOSIG", "VLVT 011100Z 14004KT 6000 NSC 34/24 Q1004 NOSIG", "VMMC 011100Z 10010KT 9000 FEW012 SCT022 21/19 Q1011 NOSIG", "VNKT 011130Z 06007KT 9999 FEW010 SCT030 BKN100 13/11 Q1014 NOSIG", "VOBG 011100Z 31004KT 9999 SCT012 SCT018 33/15 Q1011 NOSIG", "VOBL 011100Z 03005KT 9999 SCT015 SCT020 32/14 Q1011 NOSIG", "VOBM 011100Z 27011KT 9999 SCT012 SCT018 FEW025CB 32/14 Q1011", "VOBZ 011100Z 09010KT 6000 FEW020 SCT025 FEW030CB 31/24 Q1006 NOSIG", "VOCB 011100Z 19012KT 7000 FEW012 35/18 Q1007 NOSIG", "VOCI 011100Z 29013KT 6000 SCT015 FEW025CB SCT080 33/24 Q1007 NOSIG", "VOCL 011100Z 27009KT 6000 FEW015 30/21 Q1007 NOSIG", "VOCP 011100Z 07013KT 6000 FEW020 FEW030CB 35/18 Q1004 NOSIG", "VOGA 011030Z 29014KT 8000 FEW020 32/18 Q1007 NOSIG", "VOGB 011100Z VRB02KT 9000 FEW015 36/16 Q1008 NOSIG", "VOGO 011030Z 32010G20KT 6000 FEW030 30/22 Q1007 NOSIG", "VOHB 011100Z 28003KT 9999 FEW015 35/06 Q1009", "VOHS 011100Z 27007KT 6000 SCT015 SCT025 34/14 Q1009 NOSIG", "VOHY 011100Z 28004KT 6000 FEW020 SCT025 33/11 Q1009 NOSIG", "VOJV 011100Z 35008KT 6000 FEW015 34/13 Q1009", "VOKN 011100Z 30009KT 8000 FEW012 32/23 Q1007 NOSIG", "VOKU 011100Z 32008KT 6000 FEW020 37/09 Q1006", "VOMD 011100Z 12015KT 7000 FEW020 FEW025CB 38/22 Q1005 NOSIG", "VOML 011100Z 27011KT 9999 FEW015 31/21 Q1007 NOSIG", "VOMM 011100Z 16015KT 8000 FEW020 33/26 Q1006 NOSIG", "VOMY 011100Z VRB02KT 8000 FEW015 SCT020 34/14 Q1010", "VOPC 011100Z 12006KT 6000 FEW020 34/26 Q1007 NOSIG", "VORY 011100Z 18008KT 6000 FEW020 SCT090 32/24 Q1006 NOSIG", "VOTK 011030Z 12010G20KT 6000 FEW020 36/21 Q1006 NOSIG", "VOTP 011100Z 34009KT 6000 TS SCT020 FEW025CB SCT100 30/22 Q1005 NOSIG", "VOTR 011100Z 11008KT 6000 FEW016 SCT020 FEW025CB 33/22 Q1006 NOSIG", "VOTV 011100Z 29007KT 6000 FEW015 FEW025TCU 32/23 Q1006 NOSIG", "VOVZ 011100Z 20006KT 5000 HZ SCT016 FEW022TCU SCT080 30/22 Q1007 NOSIG", "VRMG 011100Z 26007KT 9999 FEW018TCU BKN260 30/26 Q1008 NOSIG", "VRMH 011100Z 33006KT 9999 FEW018 31/25 Q1008", "VRMM 011100Z 34004KT 9999 FEW018 31/26 Q1008 NOSIG", "VTBD 011100Z 16010KT 140V200 9999 FEW020 33/24 Q1006 NOSIG", "VTBS 011100Z 19012KT 9999 FEW020 31/23 Q1006 NOSIG", "VTBU 011100Z 18010KT 9999 FEW020 30/25 Q1007 NOSIG", "VTCC 011100Z 31002KT 2600 FU HZ NSC 35/17 Q1004 NOSIG", "VTCH 011100Z VRB02KT 3500 FU NSC 36/16 Q1004 NOSIG", "VTCL 011100Z 14005KT 110V180 6000 FEW025 35/20 Q1004 NOSIG", "VTCN 011100Z 20006KT 6000 NSC 36/20 Q1003 NOSIG", "VTCP 011100Z 18007KT 150V210 7000 NSC 35/21 Q1004 NOSIG", "VTCT 011100Z VRB02KT 2500 FU NSC 32/18 Q1004 NOSIG", "VTPB 011100Z 06005KT 340V100 7000 FEW030 31/17 Q1005 NOSIG", "VTPH 011100Z 16013KT 140V200 9999 FEW030 30/26 Q1006 NOSIG", "VTPM 011100Z 27007KT 9000 NSC 34/17 Q1006 NOSIG", "VTPO 011100Z 13003KT 7000 NSC 36/20 Q1003 NOSIG", "VTPP 011100Z 14003KT 110V170 6000 NSC 35/24 Q1004 NOSIG", "VTPT 011100Z /////KT 8000 FEW028 38/22 Q1004 NOSIG", "VTSB 011100Z 04007KT 010V070 9999 FEW020 32/22 Q1005 NOSIG", "VTSC 011100Z 08006KT 050V110 9999 FEW022 29/23 Q1007 NOSIG", "VTSE 011100Z 14004KT 100V170 9999 FEW020 30/25 Q1006 NOSIG", "VTSF 011100Z 08004KT 050V130 9999 FEW018 31/25 Q1007 NOSIG", "VTSG 011100Z 21007KT 180V240 9999 FEW030 31/24 Q1006 NOSIG", "VTSM 011100Z 15009KT 9999 FEW020 30/25 Q1007 NOSIG", "VTSP 011100Z 27009KT 240V300 9999 FEW020 30/25 Q1006 NOSIG", "VTSR 011100Z 31003KT 260V360 9999 SCT025 32/24 Q1006 NOSIG", "VTSS 011100Z 06008KT 9999 FEW020 32/20 Q1006 NOSIG", "VTST 011100Z 04006KT 360V070 9999 FEW030 33/19 Q1005 NOSIG", "VTUD 011100Z 16005KT 9000 FEW030 35/17 Q1004 NOSIG", "VTUI 011100Z 34005KT 9999 FEW030CB SCT080 32/20 Q1005 NOSIG", "VTUK 011100Z 15006KT 110V190 9999 FEW035 35/21 Q1005 NOSIG", "VTUL 011100Z 14003KT 100V190 4000 HZ FEW030 35/19 Q1005 NOSIG", "VTUO 011100Z 18005KT 9000 FEW025TCU 34/18 Q1005 NOSIG", "VTUQ 011100Z 17003KT 9999 FEW030 SCT100 30/23 Q1006 NOSIG", "VTUU 011100Z 20005KT 170V230 8000 NSC 35/21 Q1005 NOSIG", "VTUV 011100Z VRB02KT 9000 FEW040 32/23 Q1005 NOSIG", "VTUW 011100Z 12013KT 6000 -TSRA FEW018CB BKN035 25/24 Q1005 RERA NOSIG", "VVCI 011100Z VRB01KT 2100 -DZ BR BKN002 BKN006 OVC010 22/22 Q1007 NOSIG", "VVCR 011100Z 17004KT 9999 FEW015 28/22 Q1009 NOSIG", "VVCT 011100Z 10008KT 9999 FEW015 30/21 Q1007 NOSIG", "VVDN 011100Z 13008KT 090V170 9999 FEW015 27/24 Q1008 NOSIG", "VVNB 011100Z 09003KT 1300 R11R/2000D R11L/1600D DZ BR OVC002 21/21 Q1007 TEMPO 0800 DZ FG", "VVPB 011100Z 07003KT 6000 FEW013 SCT080 27/25 Q1007 NOSIG", "VVPQ 011100Z 20004KT 9999 FEW017 29/23 Q1007 NOSIG", "VVTS 011100Z 17009KT 140V200 9999 FEW020 29/24 Q1008 NOSIG", "VVVD 011100Z 10004KT 5000 BR BKN005 OVC012 21/21 Q1008 NOSIG", "VYMD 011030Z 36008G15KT 5000 HZ BKN018 FEW020CB 31/15 Q1004", "VYNT 011100Z 13005KT 6000 SCT020 FEW025CB SCT120 34/21 Q1004 NOSIG", "VYYY 011100Z 12008KT 7000 FEW025 36/18 Q1005 NOSIG", "WABB 011100Z 03003KT 030V240 9999 SCT018 27/25 Q1009 NOSIG METAR WAAA NIL", "WADD 011100Z 26007KT 9999 BKN016 27/26 Q1008 NOSIG", "WADL 011130Z 00000KT 7000 BKN016 26/24 Q1009 NOSIG", "WAHS 011100Z 23002KT 1700 TSRA FEW013CB 25/24 Q1009 NOSIG RMK CB TO NW AND N", "WAJJ 011100Z 31002KT 9999 FEW013 26/24 Q1008 NOSIG", "WALL 011100Z 20004KT 9999 FEW020 27/24 Q1008 NOSIG", "WAMM 011100Z 11003KT 9000 SCT020 26/25 Q1009 NOSIG", "WAOO 011100Z 17003KT 9999 FEW020 26/24 Q1009 NOSIG", "WAPP 011100Z 35003KT 310V020 9999 SCT019 27/25 Q1008 NOSIG", "WAQQ 011100Z 08003KT 8000 FEW015 OVC150 28/25 Q1008", "WARR 011100Z 28007KT 9999 SCT020 27/23 Q1008 NOSIG", "WATT 011100Z 13003KT 8000 SCT016 26/26 Q1009 NOSIG", "WBGB 011100Z 00000KT 9999 FEW016 28/24 Q1009", "WBGG 011100Z VRB02KT 9999 -TSRA FEW015CB SCT020 23/22 Q1009 RETSRA NOSIG", "WBGR 011100Z VRB02KT 9999 SCT016 28/25 Q1008", "WBGS 011100Z 03003KT 350V060 9999 FEW015CB SCT018 27/25 Q1008", "WBGY 011100Z AUTO 00000KT //// // ////// 29/25 Q1008", "WBKK 011100Z 02003KT 340V070 9999 -RA FEW014 27/24 Q1009 NOSIG", "WBKL 011100Z VRB01KT 9999 FEW015 27/23 Q1009", "WBKS 011100Z VRB01KT 7000 -RA FEW008 SCT035 24/23 Q1009 RETSRA", "WBKT 011100Z VRB01KT 9999 FEW014 27/25 Q1009", "WBKW 011100Z 03005KT 350V060 9999 FEW015CB 27/24 Q1008", "WBSB 011100Z 33003KT 9999 FEW015 SCT140 BKN300 27/26 Q1009 NOSIG", "WIBB 011100Z 15005KT 6000 SCT013 25/25 Q1007 NOSIG", "WIDD 011100Z 03007KT 9999 SCT014 29/25 Q1010 NOSIG", "WIEE 011030Z 35003KT 320V020 9999 FEW020 BKN120 28/25 Q1008 NOSIG", "WIHH 011100Z 24006KT 6000 FEW020 28/24 Q1008 NOSIG METAR ", "WIII 011130Z 26013KT 8000 SCT020 27/24 Q1009 NOSIG", "WILL 011030Z 22005KT 9999 FEW015 28/23 Q1008 NOSIG", "WIMM 011100Z 33004KT 9999 SCT020 31/22 Q1007 NOSIG", "WIOO 011100Z 11003KT 8000 FEW012 28/24 Q1008 NOSIG", "WIPP 011100Z 01004KT 9999 SCT010 27/04 Q1008 NOSIG", "WMAU 011100Z 06004KT 9999 FEW020 28/24 Q1008", "WMBA 011100Z VRB03KT 9999 FEW021 SCT030 30/25 Q1007", "WMKA 011100Z 24008KT 160V300 9999 FEW020 32/23 Q1005", "WMKB 011100Z 30007KT 260V340 9000 FEW020 31/23 Q1005 NOSIG", "WMKC 011100Z 09007KT 050V130 9999 FEW020 29/25 Q1007", "WMKD 011100Z 08006KT 010V130 9999 FEW017CB 29/24 Q1008 BECMG TS", "WMKE 011100Z 08004KT 020V150 9999 FEW014CB SCT020 29/24 Q1007", "WMKI 011100Z VRB04KT 9000 TS FEW017CB SCT025 26/24 Q1007", "WMKJ 011100Z 07003KT 010V120 9999 FEW017CB 25/24 Q1008", "WMKK 011100Z 00000KT 9000 TS VCSH FEW017CB SCT030 28/24 Q1007 NOSIG", "WMKL 011100Z 25005KT 170V320 9999 FEW020 31/24 Q1006", "WMKM 011100Z 02005KT 320V130 9999 TS FEW017CB SCT026 27/23 Q1008", "WMKN 011100Z VRB04KT 9999 FEW018 30/25 Q1007", "WMKP 011100Z 25004KT 210V300 9000 FEW017CB 32/20 Q1006 NOSIG", "WMSA 011100Z 00000KT 9999 FEW017CB 27/23 Q1008", "WSAP 011100Z 02006KT 6000 -TSRA FEW008 FEW014CB SCT015TCU 25/24 Q1009 RESHRA", "WSSL 011100Z 02006KT 350V050 3500 TSRA FEW012 FEW015CB SCT016TCU 25/25 Q1008 RESHRA", "WSSS 011100Z 01008KT 3000 +TSRA FEW010 FEW015CB SCT016TCU 24/24 Q1009 BECMG TL1130 4500 TSRA BECMG FM1130 TL1200 6000 NSW", "YAMB 011100Z AUTO 35004KT 9999 // NCD 17/15 Q1013 RF00.0/000.0", "YBAS 011100Z AUTO 13005KT 9999 // OVC033 18/15 Q1017 RF00.0/004.8", "YBBN 011100Z 21005KT CAVOK 21/15 Q1013", "YBCG 011100Z AUTO 23007KT 9999 // NCD 19/17 Q1013 RF00.0/000.0", "YBCS 011100Z AUTO 29001KT 9999 // NCD 27/24 Q1010 RF00.0/000.0 DL-SW", "YBHM 011100Z AUTO 33016KT 9999 // SCT024 SCT110 SCT125 28/23 Q////", "YBLN 011100Z AUTO 10010KT 9999 // OVC040 OVC056 21/14 Q1015", "YBMA 011100Z AUTO 17009KT 9999 // SCT093 BKN115 28/10 Q1013", "YBRK 011100Z AUTO 13007KT 3200 -SHRA BKN005 BKN009 OVC019 21/20 Q1012", "YBRM 011100Z AUTO 26007KT 9999 // NCD 32/24 Q1008 RF00.0/000.0", "YBSU 011100Z AUTO 29004KT 9999 // SCT115 19/17 Q1012 RF00.0/000.0", "YBTL 011100Z AUTO 01006KT 9999 // OVC025 28/25 Q1009 RF00.0/000.0", "YBWW 011100Z AUTO 18004KT 9999 // NCD 14/11 Q1014 RF00.0/000.0", "YCFS 011100Z AUTO 22004KT 9999 // SCT037 SCT055 BKN074 19/16 Q1014", "YCIN 011100Z AUTO 32005KT 9999 // NCD 30/24 Q1007 RF00.0/000.0", "YFRT 011100Z AUTO 13019KT 9999 // NCD 20/12 Q1017 RF00.0/000.0", "YGEL 011100Z AUTO 18010KT 9999 // NCD 22/18 Q1011 RF00.0/000.0", "YGLA 011100Z AUTO 15004KT 9999 // SCT027 BKN043 OVC058 21/19 Q1012", "YHID 011100Z AUTO 00000KT 9999 // SCT024 28/26 Q1009 RF00.0/000.0", "YLHI 011100Z AUTO 00000KT 9999 // NCD 17/15 Q1014 RF00.0/000.0", "YMAV 011100Z AUTO 19010KT 9999 // OVC058 14/08 Q1021 RF00.0/000.0", "YMHB 011100Z 30009KT 9999 FEW050 BKN240 12/07 Q1017 RF00.0/000.0", "YMLT 011100Z AUTO 35004KT 9999 // NCD 10/05 Q1018 RF00.0/000.0", "YMML 011100Z 16008KT 9999 SCT033 BKN051 13/07 Q1021 RF00.0/000.4", "YPAD 011100Z 15006KT 9999 FEW030 13/07 Q1022", "YPCC 011100Z AUTO 14010KT 9999 // SCT080 28/22 Q1009 RF00.0/000.0", "YPDN 011100Z 02005KT CAVOK 29/25 Q1008", "YPEA 011100Z AUTO 12005KT 9999 // NCD 22/15 Q1012 RF00.0/000.0", "YPGV 011100Z AUTO 12005KT 9999 // NCD 27/24 Q1009 RF00.0/000.0", "YPJT 011100Z AUTO 13007KT 9999 // BKN043 21/16 Q1013 RF00.0/000.0", "YPKG 011100Z AUTO 13009KT 9999 // NCD 17/15 Q1015 RF00.0/000.8", "YPKU 011100Z AUTO 00000KT 9999 // NCD 29/24 Q1007 RF00.0/000.0", "YPLM 011100Z AUTO 30005KT 9999 -RA SCT056 SCT068 OVC083 27/24 Q1010", "YPPD 011100Z AUTO 30009KT 9999 // NCD 30/24 Q1009 RF00.0/000.0", "YPPH 011100Z 12008KT 9999 FEW043 21/15 Q1012", "YPTN 011100Z AUTO 13005KT 9999 // NCD 27/19 Q1008 RF00.0/000.0", "YPWR 011100Z AUTO 15010KT 9999 // NCD 19/03 Q1019 RF00.0/000.0", "YPXM 011100Z AUTO 22004KT //// // NCD 25/23 Q1010 RF00.0////./", "YSCB 011100Z AUTO 11005KT 9999 // NCD 09/07 Q1019 RF00.0/000.0", "YSDU 011100Z AUTO 18005KT 9999 // NCD 14/06 Q1016 RF00.0/000.0", "YSNF 011100Z AUTO 09005KT 9999 // BKN125 21/19 Q1012 RF00.0/001.0", "YSRI 011100Z AUTO 24006KT 9999 // SCT035 OVC065 OVC075 17/13 Q1017", "YSSY 011100Z 23010KT 9999 VCSH FEW025 SCT073 BKN120 18/12 Q1017", "YSTW 011100Z AUTO 34003KT 9999 // NCD 13/09 Q1015 RF00.0/000.0", "YWLM 011100Z AUTO 11007KT 9999 -RA SCT044 SCT051 BKN066 16/14 Q1016 RERA", "ZBAA 011100Z 20003MPS CAVOK 19/06 Q1011 NOSIG", "ZBAD 011100Z 20003MPS CAVOK 16/07 Q1012 NOSIG", "ZBHH 011100Z 14004MPS 8000 NSC 19/M02 Q1004 NOSIG", "ZBSJ 011100Z 14003MPS 7000 SCT046 18/11 Q1011 NOSIG", "ZBTJ 011100Z 15005MPS 8000 NSC 16/05 Q1013 NOSIG", "ZBYN 011100Z 08007MPS 5000 HZ NSC 18/05 Q1008 NOSIG", "ZGGG 011100Z 05003MPS 8000 SCT013 OVC023 21/20 Q1011 NOSIG", "ZGHA 011100Z 13002MPS 110V170 CAVOK 25/13 Q1009 NOSIG", "ZGKL 011100Z 13002MPS 9999 SCT026 OVC046 22/17 Q1009 NOSIG", "ZGNN 011100Z VRB01MPS 3000 BR FEW005 SCT008 OVC026 19/19 Q1008 BECMG TL1200 2500", "ZGOW 011100Z 12003MPS 8000 BKN017 20/17 Q1012 NOSIG", "ZGSZ 011100Z VRB01MPS 5000 BR SCT016 22/19 Q1010 NOSIG", "ZHCC 011100Z 11004MPS 6000 NSC 19/12 Q1010 NOSIG", "ZHHH 011100Z 10002MPS 060V130 CAVOK 24/10 Q1009 NOSIG", "ZJHK 011100Z 14003MPS 110V170 9999 BKN023 26/23 Q1008 NOSIG", "ZJSY 011100Z 13002MPS 100V170 9999 BKN050 27/24 Q1008 NOSIG", "ZLLL 011100Z 03011MPS 3500 SA NSC 18/M07 Q1001 BECMG TL1140 0800 SS", "ZLXY 011100Z 05004MPS CAVOK 21/11 Q1001 NOSIG", "ZMCK 011130Z 34006MPS 0900 R29/1200D SN OVC030 M07/M08 Q1010 NOSIG", "ZMUB 011100Z 35005MPS 6000 3600SE SN OVC030 M07/M10 Q1011 NOSIG", "ZPPP 011100Z 24009MPS 9999 FEW026 20/03 Q1014 NOSIG", "ZSAM 011100Z 12003MPS 060V140 9999 OVC033 19/16 Q1013 NOSIG", "ZSFZ 011100Z 08002MPS 050V130 9999 FEW050 16/12 Q1014 NOSIG", "ZSHC 011100Z 08003MPS 4000 BR NSC 16/13 Q1013 NOSIG", "ZSNB 011100Z VRB01MPS CAVOK 16/10 Q1014 NOSIG", "ZSNJ 011100Z 07003MPS CAVOK 17/11 Q1012 NOSIG", "ZSOF 011100Z 07004MPS CAVOK 19/10 Q1012 NOSIG", "ZSPD 011100Z 09003MPS 030V120 CAVOK 15/09 Q1014 NOSIG", "ZSQD 011100Z 17004MPS CAVOK 13/M04 Q1015 NOSIG", "ZSSS 011100Z 14004MPS CAVOK 19/11 Q1014 NOSIG", "ZUCK 011100Z 09004MPS CAVOK 24/13 Q1002 NOSIG", "ZUGY 011100Z 15004MPS 110V170 9999 FEW026 19/13 Q1008 NOSIG", "ZUTF 011100Z 09002MPS 050V130 CAVOK 23/12 Q1003 NOSIG", "ZUUU 011100Z 01003MPS 300V050 CAVOK 23/12 Q1003 NOSIG", "ZWSH 011100Z 15004MPS 120V180 6000 BKN040 19/M11 Q1007 NOSIG", "ZWWW 011100Z 32006MPS 280V350 CAVOK 06/M21 Q1020 NOSIG", "ZYCC 011100Z 26002MPS CAVOK 17/M08 Q1013 NOSIG", "ZYHB 011100Z 20003MPS 170V230 7000 NSC 16/M01 Q1012 NOSIG", "ZYTL 011100Z 08003MPS 8000 NSC 12/02 Q1015 NOSIG", "ZYTX 011100Z VRB02MPS CAVOK 16/M02 Q1014 NOSIG"]}