station_id, observation_time,raw_text
AGGH,2023-04-04T10:00:00Z,AGGH 041000Z 16002KT 9999 FEW015 SCT300 26/25 Q1009
AYPY,2023-04-04T10:00:00Z,AYPY 041000Z 32010KT 9999 -RASH SCT025 BKN035 25/24 Q1009 RMK/TS AND LTNG IN AREA/SPECI CEASE
BGBW,2023-04-04T09:50:00Z,BGBW 040950Z 06007KT 9999 VCSH FEW084 BKN110 06/M09 Q0993
BGGH,2023-04-04T09:50:00Z,BGGH 040950Z 03014KT 9999 FEW200 M01/M06 Q0994
BGJN,2023-04-04T09:50:00Z,BGJN 040950Z 04003KT 9999 FEW040 M15/M20 Q1010
BGKK,2023-04-04T09:50:00Z,BGKK 040950Z 20003KT 9999 -SN BKN015 M03/M06 Q1000
BGSF,2023-04-04T09:50:00Z,BGSF 040950Z AUTO 02005KT 9999NDV FEW016/// M17/M20 Q1010
BGTL,2023-04-04T09:55:00Z,BGTL 040955Z AUTO 00000KT 9999 CLR M27/M33 A2996 RMK AO2 SLP138 T12711335 TSNO $
BIAR,2023-04-04T10:00:00Z,BIAR 041000Z 15017KT 9999 FEW045 08/03 Q0996
BIBD,2023-04-04T10:00:00Z,BIBD 041000Z 10009G20KT 040V200 9999 DZRA BR FEW015 BKN019 OVC025 07/05 Q0991
BIEG,2023-04-04T10:00:00Z,BIEG 041000Z 17020KT 9999 SCT042 BKN110 08/03 Q1000
BIGR,2023-04-04T10:00:00Z,BIGR 041000Z 16018KT CAVOK 06/02 Q0996
BIIS,2023-04-04T10:00:00Z,BIIS 041000Z VRB05KT 9999 VCSH FEW014 OVC020 07/04 Q0992 RMK ARNARNES 130DGR 11KT
BIKF,2023-04-04T10:00:00Z,BIKF 041000Z 17021KT 5000 -DZRA OVC005 07/07 Q0992
BIRK,2023-04-04T10:00:00Z,BIRK 041000Z 17015KT 9999 -RA BKN011 OVC020 08/06 Q0993
BITN,2023-04-04T10:00:00Z,BITN 041000Z 17015KT 9999 FEW030 SCT060 08/03 Q0999
BIVM,2023-04-04T10:00:00Z,BIVM 041000Z 15021KT 9999 BKN010 07/06 Q0996
BIVO,2023-04-04T10:00:00Z,BIVO 041000Z 26013KT CAVOK 08/03 Q0999
BK12,2023-04-04T09:55:00Z,BK12 040955Z 29007KT 9999 OVC016 00/M01 A2984 RMK AO2 SLP138 WND DATA ESTMD P0003 T10021013
CAHR,2023-04-04T10:00:00Z,CAHR 041000Z AUTO 19007KT 01/M02 RMK AO1 SOG 22 3009 SLP152 T00051015
CBAR,2023-04-04T10:00:00Z,CBAR 041000Z AUTO 12011KT ////SM NCD M24/M27 A3000
CBBC,2023-04-04T10:00:00Z,CBBC 041000Z AUTO 00000KT 1/4SM FG VV002 01/01 A3012 RMK SLP205
CERM,2023-04-04T10:00:00Z,CERM 041000Z AUTO 24001KT M01/M02 RMK AO1 SOG 83 3027 SLP144 T10101023
CMFM,2023-04-04T10:00:00Z,CMFM 041000Z AUTO 34003KT M03/M05 RMK AO1 SOG 124 1024 SLP140 T10291051
CMGB,2023-04-04T10:00:00Z,CMGB 041000Z AUTO 13001KT M01/M02 RMK AO1 SLP168 T10101018 53015
CPBT,2023-04-04T10:00:00Z,CPBT 041000Z AUTO 14002KT M07/M08 RMK AO1 T10741079
CPEH,2023-04-04T10:00:00Z,CPEH 041000Z AUTO 00000KT M06/M07 RMK AO1 T10591071
CPFI,2023-04-04T10:00:00Z,CPFI 041000Z AUTO 36002KT M06/M07 RMK AO1 T10571074
CPIN,2023-04-04T10:00:00Z,CPIN 041000Z AUTO 10008KT ////SM ////// ///// A////
CPIR,2023-04-04T10:00:00Z,CPIR 041000Z AUTO 05005KT M06/M06 RMK AO1 T10571064
CPRO,2023-04-04T10:00:00Z,CPRO 041000Z AUTO 04004KT M14/M15 RMK AO1 T11381148
CPRY,2023-04-04T10:00:00Z,CPRY 041000Z AUTO 06005KT M06/M06 RMK AO1 T10551061
CPST,2023-04-04T10:00:00Z,CPST 041000Z AUTO 18003KT M07/M08 RMK AO1 T10701075
CPSV,2023-04-04T10:00:00Z,CPSV 041000Z AUTO 03004KT M11/M12 RMK AO1 T11091116
CTCK,2023-04-04T10:00:00Z,CTCK 041000Z AUTO 00000KT M02/M03 RMK AO1 SOG 27 3017 SLP173 T10231030
CTNK,2023-04-04T10:00:00Z,CTNK 041000Z AUTO 00000KT M06/M07 RMK AO1 SOG 48 3018 SLP179 T10591066
CTRA,2023-04-04T10:00:00Z,CTRA 041000Z AUTO 08005KT M10/M16 RMK AO1 SOG 33 3001 SLP212 T11021155
CWAF,2023-04-04T10:00:00Z,CWAF 041000Z AUTO 29011KT 02/M02 RMK AO1 T00161019
CWAJ,2023-04-04T10:00:00Z,CWAJ 041000Z AUTO 02006KT RMK AO1 53002
CWAQ,2023-04-04T10:00:00Z,CWAQ 041000Z AUTO 05006KT M09/M11 RMK AO1 SLP195 T10851114 53004
CWAR,2023-04-04T10:00:00Z,CWAR 041000Z AUTO 20014KT M01/M02 RMK AO1 PK WND 21021/0905 SLP206 T10091024 53013
CWAV,2023-04-04T10:00:00Z,CWAV 041000Z AUTO 00000KT M10/M11 RMK AO1 SOG 12 3004 SLP177 T11001112
CWBA,2023-04-04T10:00:00Z,CWBA 041000Z AUTO 02006KT M02/M06 RMK AO1 SOG 56 T10211061
CWBO,2023-04-04T10:00:00Z,CWBO 041000Z AUTO 06002KT M11/M13 RMK AO1 SLP206 T11131127 53003
CWBS,2023-04-04T10:00:00Z,CWBS 041000Z AUTO 30006KT 01/M01 RMK AO1 T00081013
CWBT,2023-04-04T10:00:00Z,CWBT 041000Z AUTO 02001KT M04/M06 RMK AO1 SLP124 T10361055 51009
CWBU,2023-04-04T10:00:00Z,CWBU 041000Z AUTO 20004KT M16/M20 RMK AO1 SOG 27 0003 SLP248 T11561195
CWBV,2023-04-04T10:00:00Z,CWBV 041000Z AUTO 22014KT 02/01 RMK AO1 PK WND 20018/0907 SLP169 T00200010 55003
CWBY,2023-04-04T10:00:00Z,CWBY 041000Z AUTO 08005KT M02/M02 RMK AO1 SOG 30 1004 SLP116 T10201015
CWBZ,2023-04-04T10:00:00Z,CWBZ 041000Z AUTO 00000KT M01/M02 RMK AO1 SLP163 T10091016 51015
CWCF,2023-04-04T10:00:00Z,CWCF 041000Z AUTO 09005KT M16/M21 RMK AO1 SOG 07 1002 SLP250 T11581211
CWCJ,2023-04-04T10:00:00Z,CWCJ 041000Z AUTO 05008G16KT M13/M18 RMK AO1 SOG 73 3020 PK WND 04019/0934 SLP245 T11341180
CWCO,2023-04-04T10:00:00Z,CWCO 041000Z AUTO 00000KT 03/01 RMK AO1 SLP150 T00310006 53012
CWCT,2023-04-04T10:00:00Z,CWCT 041000Z AUTO 17009KT M13/M14 RMK AO1 SOG 24 8001 SLP214 T11281140
CWDA,2023-04-04T10:00:00Z,CWDA 041000Z AUTO 00027KT M01/ RMK AO1 T1013
CWDC,2023-04-04T10:00:00Z,CWDC 041000Z AUTO 07003KT M12/M14 RMK AO1 SOG 66 2006 SLP216 T11211139
CWDJ,2023-04-04T10:00:00Z,CWDJ 041000Z AUTO 12008KT M15/M18 RMK AO1 SOG 08 3005 SLP231 T11451175
CWDK,2023-04-04T10:00:00Z,CWDK 041000Z AUTO 08003KT M07/M08 RMK AO1 SOG 01 6001 SLP179 T10651078
CWDM,2023-04-04T10:00:00Z,CWDM 041000Z AUTO 25003KT M04/M06 RMK AO1 SOG 02 3012 SLP128 T10431060
CWDO,2023-04-04T10:00:00Z,CWDO 041000Z AUTO 23010KT M03/M06 RMK AO1 SLP138 T10291055 52011
CWDQ,2023-04-04T10:00:00Z,CWDQ 041000Z AUTO 33002KT M01/M03 RMK AO1 SOG 52 3030 SLP174 T10071030
CWDV,2023-04-04T10:00:00Z,CWDV 041000Z AUTO 07005KT M14/M18 RMK AO1 SOG 66 0005 SLP225 T11441175
CWDZ,2023-04-04T10:00:00Z,CWDZ 041000Z AUTO 12004KT M07/M09 RMK AO1 SLP200 T10651091 55000
CWEB,2023-04-04T10:00:00Z,CWEB 041000Z AUTO 00035KT 02/01 RMK AO1 1PAST HR 1001 SLP185 P0000 T00240014 50001
CWEF,2023-04-04T10:00:00Z,CWEF 041000Z AUTO 19010KT M00/M02 RMK AO1 SLP143 T10021019 55003
CWEH,2023-04-04T10:00:00Z,CWEH 041000Z AUTO 05007KT M16/M18 RMK AO1 SOG 48 6001 SLP186 T11551179
CWEL,2023-04-04T10:00:00Z,CWEL 041000Z AUTO 25007KT 05/01 RMK AO1 SLP177 T00500010 51009
CWEP,2023-04-04T10:00:00Z,CWEP 041000Z AUTO 18011KT M00/M01 RMK AO1 SOG 13 5001 SLP160 T10021011
CWEQ,2023-04-04T10:00:00Z,CWEQ 041000Z AUTO 20004KT M20/M23 RMK AO1 SOG 40 0002 SLP251 T12021228
CWER,2023-04-04T10:00:00Z,CWER 041000Z AUTO 28007KT RMK AO1
CWEU,2023-04-04T10:00:00Z,CWEU 041000Z 07002KT 15SM SKC M34/M38 A3029 RMK SLP278
CWEW,2023-04-04T10:00:00Z,CWEW 041000Z AUTO 34002KT M03/M04 RMK AO1 SLP171 T10331035 51019
CWEZ,2023-04-04T10:00:00Z,CWEZ 041000Z AUTO 26005KT 05/02 RMK AO1 SLP171 T00480016 51005
CWFD,2023-04-04T10:00:00Z,CWFD 041000Z AUTO ///// ////SM ////// M21/M25 A////
CWFF,2023-04-04T10:00:00Z,CWFF 041000Z AUTO 18005KT M16/M20 RMK AO1 SOG 23 8001 SLP242 T11571201
CWFJ,2023-04-04T10:00:00Z,CWFJ 041000Z AUTO 18002KT M05/M07 RMK AO1 T10471072
CWFQ,2023-04-04T10:00:00Z,CWFQ 041000Z AUTO 01002KT 03/M02 RMK AO1 SLP162 T00261019 51011
CWGB,2023-04-04T10:00:00Z,CWGB 041000Z AUTO 25009KT 05/ RMK AO1 SLP175 T0048 51008
CWGD,2023-04-04T10:00:00Z,CWGD 041000Z AUTO 30001KT 04/03 RMK AO1 4PAST HR 1021 SLP142 P0002 T00350030 50010
CWGH,2023-04-04T10:00:00Z,CWGH 041000Z AUTO 03003KT 04/M00 RMK AO1 SLP160 T00351001 53007
CWGL,2023-04-04T10:00:00Z,CWGL 041000Z AUTO 03005KT 02/M02 RMK AO1 SLP141 T00221024 53016
CWGM,2023-04-04T10:00:00Z,CWGM 041000Z AUTO 00000KT M07/M08 RMK AO1 SLP169 T10691081 53001
CWGR,2023-04-04T10:00:00Z,CWGR 041000Z AUTO 19011G16KT M00/01 RMK AO1 6001 SLP141 T10020005 50005
CWGT,2023-04-04T10:00:00Z,CWGT 041000Z AUTO 31014KT 06/01 RMK AO1 PK WND 34018/0907 SLP181 T00570007 52006
CWGW,2023-04-04T10:00:00Z,CWGW 041000Z AUTO 07003KT M05/M08 RMK AO1 SLP167 T10451075 51005
CWGY,2023-04-04T10:00:00Z,CWGY 041000Z AUTO 30002KT M18/M19 RMK AO1 SOG 24 3002 SLP229 T11771194
CWHI,2023-04-04T10:00:00Z,CWHI 041000Z AUTO 15004KT M06/M06 RMK AO1 T10561063
CWHL,2023-04-04T10:00:00Z,CWHL 041000Z AUTO 07008KT 03/01 RMK AO1 SLP194 T00270010 58003
CWHO,2023-04-04T10:00:00Z,CWHO 041000Z AUTO 00023KT M12/M18 RMK AO1 SLP081 T11221176 53007
CWHP,2023-04-04T10:00:00Z,CWHP 041000Z AUTO 23015KT M00/M01 RMK AO1 PK WND 23018/0921 SLP121 T10041014 51009
CWHQ,2023-04-04T10:00:00Z,CWHQ 041000Z AUTO 29002KT M05/M05 RMK AO1 T10461050
CWHT,2023-04-04T10:00:00Z,CWHT 041000Z AUTO 08002KT M12/M16 RMK AO1 SOG 42 6016 SLP164 T11241155
CWHV,2023-04-04T10:00:00Z,CWHV 041000Z AUTO 27002KT 02/M02 RMK AO1 SLP150 T00181018 53020
CWID,2023-04-04T10:00:00Z,CWID 041000Z AUTO 16001KT M20/M22 RMK AO1 SLP240 T12001215 51004
CWIG,2023-04-04T10:00:00Z,CWIG 041000Z AUTO 24009KT RMK AO1
CWII,2023-04-04T10:00:00Z,CWII 041000Z AUTO 09009KT M11/M18 RMK AO1 SLP222 T11061183 55002
CWIJ,2023-04-04T10:00:00Z,CWIJ 041000Z AUTO 19005KT M25/M28 RMK AO1 SOG 78 6001 SLP235 T12511281
CWIK,2023-04-04T10:00:00Z,CWIK 041000Z AUTO 22002KT M20/M22 RMK AO1 SOG 11 3001 SLP235 T12011215
CWIL,2023-04-04T10:00:00Z,CWIL 041000Z AUTO ///// ////SM ////// M29/M32 A3028
CWIP,2023-04-04T10:00:00Z,CWIP 041000Z AUTO 35003KT M03/M05 RMK AO1 T10331047
CWIS,2023-04-04T10:00:00Z,CWIS 041000Z AUTO 32005KT M04/M06 RMK AO1 SOG 153 1022 SLP142 T10361060
CWIT,2023-04-04T10:00:00Z,CWIT 041000Z AUTO 00000KT M01/M02 RMK AO1 SLP163 T10091022 51011
CWIW,2023-04-04T10:00:00Z,CWIW 041000Z AUTO 02004KT M17/M19 RMK AO1 SOG 17 3005 SLP245 T11721193
CWIZ,2023-04-04T10:00:00Z,CWIZ 041000Z AUTO 32001KT 01/M01 RMK AO1 T00071014
CWJB,2023-04-04T10:00:00Z,CWJB 041000Z AUTO M00/M02 RMK AO1 SOG 73 T10011021
CWJC,2023-04-04T10:00:00Z,CWJC 041000Z AUTO 13006KT M19/M22 RMK AO1 SOG 04 3002 SLP223 T11931215
CWJD,2023-04-04T10:00:00Z,CWJD 041000Z AUTO 03003KT M23/M26 RMK AO1 SOG 54 6005 SLP260 T12321257
CWJH,2023-04-04T10:00:00Z,CWJH 041000Z AUTO 14002KT M13/M20 RMK AO1 SOG 70 1001 SLP234 T11321196
CWJI,2023-04-04T10:00:00Z,CWJI 041000Z AUTO 09007KT M12/M14 RMK AO1 SOG 16 3006 SLP209 T11181140
CWJO,2023-04-04T10:00:00Z,CWJO 041000Z AUTO 28011KT M03/M05 RMK AO1 SLP162 T10271049 53033
CWJR,2023-04-04T10:00:00Z,CWJR 041000Z AUTO 34003KT M01/M06 RMK AO1 SLP147 T10081060 51010
CWJT,2023-04-04T10:00:00Z,CWJT 041000Z AUTO 00000KT M03/M04 RMK AO1 SLP173 T10301038 51024
CWJU,2023-04-04T10:00:00Z,CWJU 041000Z AUTO 19007KT 02/M00 RMK AO1 SLP198 T00191004 58011
CWJV,2023-04-04T10:00:00Z,CWJV 041000Z AUTO 07002KT M01/M04 RMK AO1 SLP158 T10101042 51008
CWJW,2023-04-04T10:00:00Z,CWJW 041000Z AUTO 13002KT M02/M06 RMK AO1 SLP155 T10231062 52008
CWJX,2023-04-04T10:00:00Z,CWJX 041000Z AUTO 02001KT M16/M19 RMK AO1 SOG 34 3004 SLP221 T11571186
CWKG,2023-04-04T10:00:00Z,CWKG 041000Z AUTO 22004KT 01/M00 RMK AO1 SLP173 T00051004 53004
CWKH,2023-04-04T10:00:00Z,CWKH 041000Z AUTO 01/M02 RMK AO1 SLP163 T00081015 51007
CWKM,2023-04-04T10:00:00Z,CWKM 041000Z AUTO 26008KT ////SM OVC014 M14/M16 A2987
CWKO,2023-04-04T10:00:00Z,CWKO 041000Z AUTO 04002KT M11/M12 RMK AO1 SOG 12 3004 SLP194 T11051123
CWKX,2023-04-04T10:00:00Z,CWKX 041000Z AUTO 06005KT M13/M17 RMK AO1 SOG 45 8001 SLP229 T11271167
CWLB,2023-04-04T10:00:00Z,CWLB 041000Z AUTO 17002KT M03/M05 RMK AO1 SOG 21 1005 SLP196 T10321051
CWLC,2023-04-04T10:00:00Z,CWLC 041000Z AUTO 12008KT 03/01 RMK AO1 T00310010
CWLE,2023-04-04T10:00:00Z,CWLE 041000Z AUTO 31001KT M16/M18 RMK AO1 SOG 26 3002 SLP232 T11621181 50002
CWLM,2023-04-04T10:00:00Z,CWLM 041000Z AUTO 26008KT 04/02 RMK AO1 SLP175 T00440019 51006
CWLP,2023-04-04T10:00:00Z,CWLP 041000Z AUTO 33010KT 04/02 RMK AO1 SLP198 T00430015 52003
CWLS,2023-04-04T10:00:00Z,CWLS 041000Z AUTO 17004KT 05/04 RMK AO1 SLP140 T00540040 51012
CWLX,2023-04-04T10:00:00Z,CWLX 041000Z AUTO ///// ////SM ////// M22/M27 A3011
CWLY,2023-04-04T10:00:00Z,CWLY 041000Z AUTO 00000KT 9SM OVC048 00/M02 A3004 RMK SLP180
CWME,2023-04-04T10:00:00Z,CWME 041000Z AUTO 10002KT 02/02 RMK AO1 SLP202 T00190016 51003
CWMJ,2023-04-04T10:00:00Z,CWMJ 041000Z AUTO 02002KT M03/M03 RMK AO1 SOG 35 3014 SLP176 T10291030
CWMM,2023-04-04T10:00:00Z,CWMM 041000Z AUTO 00000KT 03/02 RMK AO1 SLP183 T00320022 51008
CWMQ,2023-04-04T10:00:00Z,CWMQ 041000Z AUTO 19001KT M16/M18 RMK AO1 SOG 02 3006 SLP213 T11601179
CWMT,2023-04-04T10:00:00Z,CWMT 041000Z AUTO 11001KT M25/M27 RMK AO1 SOG 44 1003 SLP229 T12461274
CWNC,2023-04-04T10:00:00Z,CWNC 041000Z AUTO 11003KT 05/02 RMK AO1 SLP151 T00510015 53005
CWND,2023-04-04T10:00:00Z,CWND 041000Z AUTO 10011KT M20/M22 RMK AO1 PK WND 10017/0900 SLP091 T12001222 56021
CWNE,2023-04-04T10:00:00Z,CWNE 041000Z AUTO 22016KT 01/M00 RMK AO1 3010 PK WND 22018/0959 SLP134 T00141002 50009
CWNH,2023-04-04T10:00:00Z,CWNH 041000Z AUTO 35003KT M01/M02 RMK AO1 SOG 62 3022 SLP144 T10101020
CWNK,2023-04-04T10:00:00Z,CWNK 041000Z AUTO 33006KT M08/M13 RMK AO1 SLP208 T10801129 53005
CWNM,2023-04-04T10:00:00Z,CWNM 041000Z AUTO 15002KT M02/M04 RMK AO1 SLP155 T10231035 52009
CWNP,2023-04-04T10:00:00Z,CWNP 041000Z AUTO 04002KT M02/M03 RMK AO1 SOG 11 2008 SLP156 T10221034
CWNQ,2023-04-04T10:00:00Z,CWNQ 041000Z AUTO 09001KT M02/M03 RMK AO1 SLP166 T10241028 51021
CWNZ,2023-04-04T10:00:00Z,CWNZ 041000Z AUTO 01003KT M26/M29 RMK AO1 SOG 77 3023 SLP286 T12581286
CWOB,2023-04-04T10:00:00Z,CWOB 041000Z AUTO 04029G38KT ////SM ////// M19/M21 A////
CWOC,2023-04-04T10:00:00Z,CWOC 041000Z AUTO 25001KT M04/M04 RMK AO1 SOG 58 3012 SLP126 T10371042
CWOD,2023-04-04T10:00:00Z,CWOD 041000Z AUTO 29010KT M04/M05 RMK AO1 SOG 51 3038 SLP179 T10371052
CWOE,2023-04-04T10:00:00Z,CWOE 041000Z AUTO 05008KT M09/M10 RMK AO1 SOG 25 3007 SLP185 T10881102
CWOY,2023-04-04T10:00:00Z,CWOY 041000Z AUTO 11004KT M15/M19 RMK AO1 SLP240 T11541193 53001
CWPD,2023-04-04T10:00:00Z,CWPD 041000Z AUTO 36004KT M04/M05 RMK AO1 SLP137 T10421053 51021
CWPE,2023-04-04T10:00:00Z,CWPE 041000Z AUTO 29003KT 03/02 RMK AO1 SLP164 T00260020 53008
CWPF,2023-04-04T10:15:00Z,CWPF 041015Z AUTO 36003KT 03/01 RMK AO1 SLP176 T00310013 52005
CWPK,2023-04-04T10:00:00Z,CWPK 041000Z AUTO 34003KT M06/M08 RMK AO1 SOG 94 1028 SLP181 T10611079
CWPO,2023-04-04T10:00:00Z,CWPO 041000Z AUTO 02009KT M11/M14 RMK AO1 SOG 46 3003 SLP213 T11101143
CWPR,2023-04-04T10:00:00Z,CWPR 041000Z AUTO 25001KT M03/M05 RMK AO1 SLP173 T10321051 53007
CWPZ,2023-04-04T10:00:00Z,CWPZ 041000Z AUTO 31002KT M10/M11 RMK AO1 SOG 33 1008 SLP202 T11031114
CWQH,2023-04-04T10:00:00Z,CWQH 041000Z AUTO 05001KT M01/M01 RMK AO1 SLP168 T10051014 53016
CWQK,2023-04-04T10:00:00Z,CWQK 041000Z AUTO 25019KT 06/01 RMK AO1 PK WND 26026/0929 SLP173 T00590013 53007
CWQO,2023-04-04T10:00:00Z,CWQO 041000Z AUTO 25009KT 00/M01 RMK AO1 T00001013
CWQP,2023-04-04T10:00:00Z,CWQP 041000Z AUTO 12003KT 04/03 RMK AO1 SLP161 T00420028 53005
CWQR,2023-04-04T10:00:00Z,CWQR 041000Z AUTO 02005KT M02/M04 RMK AO1 T10151042
CWQS,2023-04-04T10:00:00Z,CWQS 041000Z AUTO 10005KT 03/01 RMK AO1 SLP194 T00300007 58011
CWQV,2023-04-04T10:00:00Z,CWQV 041000Z AUTO 28007KT M00/ RMK AO1 T1003
CWRA,2023-04-04T10:00:00Z,CWRA 041000Z AUTO M01/M03 RMK AO1 SLP218 T10061028 53012
CWRJ,2023-04-04T10:00:00Z,CWRJ 041000Z AUTO 00000KT M16/M18 RMK AO1 SOG 03 3002 SLP229 T11601184
CWRK,2023-04-04T10:00:00Z,CWRK 041000Z AUTO 03001KT M04/M04 RMK AO1 SOG 22 3018 SLP174 T10411043
CWRM,2023-04-04T10:00:00Z,CWRM 041000Z AUTO 11003KT M09/M10 RMK AO1 SOG 24 3004 SLP154 T10941101
CWRN,2023-04-04T10:00:00Z,CWRN 041000Z AUTO 20015G21KT 01/01 RMK AO1 PK WND 21024/0941 SLP182 T00140005 55011
CWRO,2023-04-04T10:00:00Z,CWRO 041000Z AUTO 25006KT 03/ RMK AO1 SLP198 T0025 58006
CWRT,2023-04-04T10:00:00Z,CWRT 041000Z AUTO 14002KT M09/M12 RMK AO1 SLP170 T10871116 51002
CWRU,2023-04-04T10:00:00Z,CWRU 041000Z AUTO 36017KT 04/ RMK AO1 PK WND 35021/0918 SLP190 T0038 58003
CWRY,2023-04-04T10:00:00Z,CWRY 041000Z AUTO 02005KT M06/M07 RMK AO1 SOG 08 3004 SLP172 T10561074
CWRZ,2023-04-04T10:00:00Z,CWRZ 041000Z AUTO 23008KT M00/M02 RMK AO1 SLP117 T10021015 53003
CWSA,2023-04-04T10:00:00Z,CWSA 041000Z AUTO 20013KT 7SM SCT076 OVC096 04/02 A3016 RMK SLP216
CWSD,2023-04-04T10:00:00Z,CWSD 041000Z AUTO 22010KT 01/M00 RMK AO1 SOG 02 3013 SLP149 T00101004
CWSF,2023-04-04T10:00:00Z,CWSF 041000Z AUTO 28006KT M00/M02 RMK AO1 SOG 23 2012 SLP112 T10031021
CWSG,2023-04-04T10:00:00Z,CWSG 041000Z AUTO 26015KT M00/M01 RMK AO1 3019 PK WND 25024/0902 SLP125 T10031009 50007
CWSK,2023-04-04T10:00:00Z,CWSK 041000Z AUTO 36002KT 03/02 RMK AO1 SLP180 T00340021 51009
CWSL,2023-04-04T10:00:00Z,CWSL 041000Z AUTO 00000KT M03/M04 RMK AO1 SLP166 T10261041 51009
CWSP,2023-04-04T10:00:00Z,CWSP 041000Z AUTO 29006G16KT 05/02 RMK AO1 SLP178 T00450024 53002
CWSR,2023-04-04T10:00:00Z,CWSR 041000Z AUTO 32002KT M17/M21 RMK AO1 SOG 13 3005 SLP232 T11671207
CWSS,2023-04-04T10:00:00Z,CWSS 041000Z AUTO 00000KT M03/M03 RMK AO1 SLP167 T10281033 53014
CWST,2023-04-04T10:00:00Z,CWST 041000Z AUTO 25002KT 02/00 RMK AO1 SOG 21 1022 SLP138 T00180000
CWTA,2023-04-04T10:00:00Z,CWTA 041000Z AUTO 32003KT 03/M01 RMK AO1 SOG 42 1018 SLP168 T00291010
CWTG,2023-04-04T10:00:00Z,CWTG 041000Z AUTO 02002KT M02/M03 RMK AO1 3016 SLP126 T10211027 50002
CWTN,2023-04-04T10:00:00Z,CWTN 041000Z AUTO 32002KT M02/M02 RMK AO1 SLP149 T10161023 52027
CWTT,2023-04-04T10:00:00Z,CWTT 041000Z AUTO 32001KT M02/M03 RMK AO1 T10201026
CWTY,2023-04-04T10:00:00Z,CWTY 041000Z AUTO 27003KT M01/M02 RMK AO1 SLP170 T10091017 51021
CWUS,2023-04-04T10:00:00Z,CWUS 041000Z AUTO 26003KT 01/M06 RMK AO1 SLP158 T00051063 51007
CWUW,2023-04-04T10:00:00Z,CWUW 041000Z AUTO 08015KT ////SM NCD M20/M26 A2995
CWVF,2023-04-04T10:00:00Z,CWVF 041000Z AUTO 07002KT 06/02 RMK AO1 T00610022
CWVI,2023-04-04T10:00:00Z,CWVI 041000Z AUTO 16009KT M06/M08 RMK AO1 SOG 21 1001 SLP195 T10631075
CWVN,2023-04-04T10:00:00Z,CWVN 041000Z AUTO 05006KT M10/M12 RMK AO1 SOG 20 3006 SLP196 T11001122
CWVP,2023-04-04T10:00:00Z,CWVP 041000Z AUTO 35002KT M13/M14 RMK AO1 SOG 42 3006 SLP174 T11271143
CWVQ,2023-04-04T10:00:00Z,CWVQ 041000Z AUTO 00000KT M01/M02 RMK AO1 SOG 04 1018 SLP170 T10111015
CWVT,2023-04-04T10:00:00Z,CWVT 041000Z AUTO 30002KT M05/M06 RMK AO1 SOG 43 1006 SLP216 T10471055
CWVU,2023-04-04T10:00:00Z,CWVU 041000Z AUTO 21007KT 06/04 RMK AO1 SLP167 T00570041 53007
CWWA,2023-04-04T10:00:00Z,CWWA 041000Z AUTO 03001KT 02/01 RMK AO1 SLP178 T00150006 52007
CWWB,2023-04-04T10:00:00Z,CWWB 041000Z AUTO 01005KT 07/06 RMK AO1 SLP150 T00670064 53018
CWWE,2023-04-04T10:00:00Z,CWWE 041000Z AUTO 21009KT 03/02 RMK AO1 SLP179 T00300021 51007
CWWF,2023-04-04T10:00:00Z,CWWF 041000Z AUTO 09007KT M13/M16 RMK AO1 SOG 22 3005 SLP216 T11311159
CWWK,2023-04-04T10:00:00Z,CWWK 041000Z AUTO 02003KT 04/01 RMK AO1 SLP183 T00350008 51007
CWWL,2023-04-04T10:00:00Z,CWWL 041000Z AUTO 08002KT 04/M00 RMK AO1 SLP198 T00361004 58002
CWWS,2023-04-04T10:00:00Z,CWWS 041000Z AUTO 07010KT M19/M23 RMK AO1 SOG 74 3001 SLP252 T11931231
CWWZ,2023-04-04T10:00:00Z,CWWZ 041000Z AUTO 05002KT 07/06 RMK AO1 8PAST HR 3006 SLP145 P0007 T00660062 50079
CWXA,2023-04-04T10:00:00Z,CWXA 041000Z AUTO 00034KT M13/M14 RMK AO1 SLP198 T11261144 51005
CWXC,2023-04-04T10:00:00Z,CWXC 041000Z AUTO 22001KT M03/M04 RMK AO1 SLP152 T10271044 53030
CWXI,2023-04-04T10:00:00Z,CWXI 041000Z AUTO 24014KT M01/M03 RMK AO1 PK WND 23020/0909 SLP112 T10131034 53014
CWXL,2023-04-04T10:00:00Z,CWXL 041000Z AUTO 10004KT M09/M11 RMK AO1 SLP198 T10941108 53001
CWYJ,2023-04-04T10:00:00Z,CWYJ 041000Z AUTO 25001KT 02/M00 RMK AO1 SLP177 T00161004 51005
CWYL,2023-04-04T10:00:00Z,CWYL 041000Z AUTO 09001KT M11/M13 RMK AO1 SOG 95 1005 SLP159 T11131132
CWYY,2023-04-04T10:00:00Z,CWYY 041000Z AUTO 02003KT 00/M05 RMK AO1 SLP154 T00001049 52006
CWZA,2023-04-04T10:00:00Z,CWZA 041000Z AUTO 16001KT 02/01 RMK AO1 SLP182 T00230008 51009
CWZG,2023-04-04T10:00:00Z,CWZG 041000Z AUTO 01001KT M12/M13 RMK AO1 SOG 22 1006 SLP172 T11221134
CWZL,2023-04-04T10:00:00Z,CWZL 041000Z AUTO 36001KT 03/01 RMK AO1 SLP209 T00280012 58008
CWZN,2023-04-04T10:00:00Z,CWZN 041000Z AUTO 22028KT M01/M01 RMK AO1 PK WND 22036/0935 SLP172 T10091010 58012
CWZO,2023-04-04T10:00:00Z,CWZO 041000Z AUTO 33004KT RMK AO1
CWZQ,2023-04-04T10:00:00Z,CWZQ 041000Z AUTO 18013G18KT 02/M01 RMK AO1 PK WND 18018/0950 SLP162 T00151010 55007
CWZW,2023-04-04T10:00:00Z,CWZW 041000Z AUTO 02002KT M14/M18 RMK AO1 SOG 60 8006 SLP207 T11371175
CWZZ,2023-04-04T10:00:00Z,CWZZ 041000Z AUTO 35013KT ////SM ////// ///// A////
CXAF,2023-04-04T10:00:00Z,CXAF 041000Z AUTO 10004KT M07/M08 RMK AO1 6PAST HR M P0002 T10731083 50006
CXAG,2023-04-04T10:00:00Z,CXAG 041000Z AUTO 14006KT M07/M09 RMK AO1 T10681086
CXAJ,2023-04-04T10:00:00Z,CXAJ 041000Z AUTO 03001KT M07/M07 RMK AO1 SOG 42 T10691071
CXAK,2023-04-04T10:00:00Z,CXAK 041000Z AUTO 20005KT M08/M08 RMK AO1 T10771077
CXAT,2023-04-04T10:00:00Z,CXAT 041000Z AUTO 00000KT M30/M34 RMK AO1 SOG 08 1002 SLP263 T12951338
CXBA,2023-04-04T10:00:00Z,CXBA 041000Z AUTO 16002KT M18/M20 RMK AO1 T11781197
CXBI,2023-04-04T10:00:00Z,CXBI 041000Z AUTO 07004KT 03/M02 RMK AO1 SLP156 T00291016 53010
CXBK,2023-04-04T10:00:00Z,CXBK 041000Z AUTO 10008KT M19/M21 RMK AO1 SOG 27 3004 SLP231 T11881208
CXBO,2023-04-04T10:00:00Z,CXBO 041000Z AUTO 25005KT M00/M02 RMK AO1 T10031020
CXBR,2023-04-04T10:00:00Z,CXBR 041000Z AUTO 30005KT RMK AO1
CXBW,2023-04-04T10:00:00Z,CXBW 041000Z AUTO 36001KT M06/M06 RMK AO1 T10601061
CXCA,2023-04-04T10:00:00Z,CXCA 041000Z AUTO 01002KT M16/M18 RMK AO1 SOG 42 3015 SLP258 T11581180
CXCD,2023-04-04T10:00:00Z,CXCD 041000Z AUTO 03003KT M02/M03 RMK AO1 T10201034
CXCK,2023-04-04T10:00:00Z,CXCK 041000Z AUTO 33001KT M14/M17 RMK AO1 SOG 63 8007 SLP162 T11391170
CXCP,2023-04-04T10:00:00Z,CXCP 041000Z AUTO 10002KT M06/M07 RMK AO1 T10631068
CXCS,2023-04-04T10:00:00Z,CXCS 041000Z AUTO 21002KT M17/M18 RMK AO1 T11661184
CXDB,2023-04-04T10:00:00Z,CXDB 041000Z AUTO 06002KT M10/M12 RMK AO1 T10991116
CXDE,2023-04-04T10:00:00Z,CXDE 041000Z AUTO 06005KT M19/M21 RMK AO1 SOG 27 8003 SLP187 T11941211
CXDI,2023-04-04T10:00:00Z,CXDI 041000Z AUTO 01001KT 07/07 RMK AO1 7PAST HR 3006 SLP142 P0007 T00730069 50100
CXDK,2023-04-04T10:00:00Z,CXDK 041000Z AUTO 00000KT M11/M14 RMK AO1 SOG 37 8001 SLP205 T11131138
CXDW,2023-04-04T10:00:00Z,CXDW 041000Z AUTO 32008KT M10/M14 RMK AO1 SOG 28 3002 SLP210 T10991141
CXEA,2023-04-04T10:00:00Z,CXEA 041000Z AUTO 08007KT M13/M20 RMK AO1 SOG 48 8005 SLP223 T11341200
CXEC,2023-04-04T10:00:00Z,CXEC 041000Z AUTO 12003KT M03/M05 RMK AO1 SLP174 T10261051 52005
CXEG,2023-04-04T10:00:00Z,CXEG 041000Z AUTO 15005KT M05/M07 RMK AO1 SLP177 T10511066 51004
CXET,2023-04-04T10:00:00Z,CXET 041000Z AUTO 00000KT 04/M02 RMK AO1 SLP150 T00371015 53011
CXFM,2023-04-04T10:00:00Z,CXFM 041000Z AUTO 03002KT M08/M09 RMK AO1 T10781091
CXFR,2023-04-04T10:00:00Z,CXFR 041000Z AUTO 02006KT M07/M07 RMK AO1 T10701073
CXGH,2023-04-04T10:00:00Z,CXGH 041000Z AUTO 01009KT M13/M19 RMK AO1 SLP220 T11251189 55005
CXHA,2023-04-04T10:00:00Z,CXHA 041000Z AUTO 07005KT 08/07 RMK AO1 SLP132 T00770067 53003
CXHD,2023-04-04T10:00:00Z,CXHD 041000Z AUTO 16009KT M07/M08 RMK AO1 T10701079
CXHM,2023-04-04T10:00:00Z,CXHM 041000Z AUTO 33001KT 08/07 RMK AO1 0PAST HR 3016 SLP150 P0008 T00790069 50055
CXHP,2023-04-04T10:00:00Z,CXHP 041000Z AUTO 15001KT M08/M09 RMK AO1 T10751090
CXHR,2023-04-04T10:00:00Z,CXHR 041000Z AUTO 19003KT M09/M10 RMK AO1 T10941095
CXIB,2023-04-04T10:00:00Z,CXIB 041000Z AUTO 23003KT 00/M02 RMK AO1 SOG 35 5005 SLP154 T00001015 50002
CXKA,2023-04-04T10:00:00Z,CXKA 041000Z AUTO 33001KT M23/M26 RMK AO1 SOG 84 3025 SLP280 T12341256
CXKE,2023-04-04T10:00:00Z,CXKE 041000Z AUTO 36001KT M02/M03 RMK AO1 SLP169 T10171032 53014
CXKI,2023-04-04T10:00:00Z,CXKI 041000Z AUTO 32003KT M16/M18 RMK AO1 SOG 71 3028 SLP240 T11581183
CXKM,2023-04-04T10:00:00Z,CXKM 041000Z AUTO 14007KT M08/M10 RMK AO1 T10841097
CXKT,2023-04-04T10:00:00Z,CXKT 041000Z AUTO 26004KT 02/M00 RMK AO1 SLP166 T00231004 52011
CXLB,2023-04-04T10:00:00Z,CXLB 041000Z AUTO 22003KT 04/02 RMK AO1 SLP175 T00360018 51006
CXLL,2023-04-04T10:00:00Z,CXLL 041000Z AUTO M17/M20 RMK AO1 SOG 65 8002 SLP225 T11651196
CXMD,2023-04-04T10:00:00Z,CXMD 041000Z AUTO 34007KT M09/M13 RMK AO1 SOG 25 5000 SLP197 T10911132
CXMG,2023-04-04T10:00:00Z,CXMG 041000Z AUTO 01007KT M07/M11 RMK AO1 T10711107
CXMI,2023-04-04T10:00:00Z,CXMI 041000Z AUTO 18007KT 03/02 RMK AO1 SLP174 T00340015 56002
CXMM,2023-04-04T10:00:00Z,CXMM 041000Z AUTO 10001KT M05/M09 RMK AO1 SOG 33 1009 SLP213 T10481094
CXMO,2023-04-04T10:00:00Z,CXMO 041000Z AUTO 19007KT M10/M10 RMK AO1 T11011101
CXMY,2023-04-04T10:00:00Z,CXMY 041000Z AUTO 00/M00 RMK AO1 T00001001 50011
CXNM,2023-04-04T10:00:00Z,CXNM 041000Z AUTO 24016G22KT M02/M02 RMK AO1 SOG 145 PK WND 24022/0950 T10161018
CXNP,2023-04-04T10:00:00Z,CXNP 041000Z AUTO 20009KT 03/00 RMK AO1 SLP155 T00310000 53011
CXOL,2023-04-04T10:00:00Z,CXOL 041000Z AUTO 13003KT M10/M10 RMK AO1 T10951095
CXOX,2023-04-04T10:00:00Z,CXOX 041000Z AUTO 18005KT M13/M20 RMK AO1 SOG 43 1005 SLP227 T11321200
CXOY,2023-04-04T10:00:00Z,CXOY 041000Z AUTO 31001KT M18/M20 RMK AO1 T11791196
CXPA,2023-04-04T10:00:00Z,CXPA 041000Z AUTO 20004KT M08/M09 RMK AO1 T10831094
CXPC,2023-04-04T10:00:00Z,CXPC 041000Z AUTO M00/M02 RMK AO1 SLP169 T10011019 53020
CXPL,2023-04-04T10:00:00Z,CXPL 041000Z AUTO 03004KT M14/M14 RMK AO1 T11441144 50004
CXRB,2023-04-04T10:00:00Z,CXRB 041000Z AUTO 31006KT M32/M35 RMK AO1 SLP262 T13211354 51001
CXRH,2023-04-04T10:00:00Z,CXRH 041000Z AUTO 18003KT M02/M03 RMK AO1 5PAST HR SOG 13 2004 SLP140 P0002 T10211026 50022
CXRL,2023-04-04T10:00:00Z,CXRL 041000Z AUTO 13004KT M05/M06 RMK AO1 T10511055
CXSC,2023-04-04T10:00:00Z,CXSC 041000Z AUTO 08001KT M14/M16 RMK AO1 T11411160
CXSE,2023-04-04T10:00:00Z,CXSE 041000Z AUTO 25003KT M33/M36 RMK AO1 SOG 26 6005 SLP276 T13251360
CXSH,2023-04-04T10:00:00Z,CXSH 041000Z AUTO 30003KT M03/M04 RMK AO1 SLP166 T10261038 51021
CXSL,2023-04-04T10:00:00Z,CXSL 041000Z AUTO 11006KT M07/M08 RMK AO1 T10711076
CXSP,2023-04-04T10:00:00Z,CXSP 041000Z AUTO 12003KT M08/M09 RMK AO1 T10791092
CXTD,2023-04-04T10:00:00Z,CXTD 041000Z AUTO 20016G24KT 02/M00 RMK AO1 SOG 02 5002 PK WND 22024/0952 SLP182 T00181004 50003
CXTH,2023-04-04T10:00:00Z,CXTH 041000Z AUTO 15010KT M06/M07 RMK AO1 T10621071 50004
CXTN,2023-04-04T10:00:00Z,CXTN 041000Z AUTO 22013KT M21/M23 RMK AO1 SOG 41 8001 PK WND 22017/0958 SLP163 T12081233
CXTO,2023-04-04T10:00:00Z,CXTO 041000Z AUTO 08/06 RMK AO1 4PAST HR 3018 SLP149 P0002 T00780058 50004
CXTP,2023-04-04T10:00:00Z,CXTP 041000Z AUTO 24012KT M03/M06 RMK AO1 PK WND 23021/0953 SLP171 T10321063 53015
CXTV,2023-04-04T10:00:00Z,CXTV 041000Z AUTO 11003KT M18/M20 RMK AO1 SOG 44 6017 SLP136 T11751195
CXVM,2023-04-04T10:00:00Z,CXVM 041000Z AUTO 17005KT M08/M08 RMK AO1 T10821083
CXVN,2023-04-04T10:00:00Z,CXVN 041000Z AUTO 35002KT 07/07 RMK AO1 9PAST HR 3013 SLP145 P0007 T00720067 50098
CXVW,2023-04-04T10:00:00Z,CXVW 041000Z AUTO 34002KT M05/M06 RMK AO1 SLP165 T10481055 52008
CXWM,2023-04-04T10:00:00Z,CXWM 041000Z AUTO 00000KT M06/M08 RMK AO1 T10591075
CXWN,2023-04-04T10:00:00Z,CXWN 041000Z AUTO 05003KT M05/M10 RMK AO1 SLP213 T10481102 53008
CXYH,2023-04-04T10:00:00Z,CXYH 041000Z AUTO 34002KT M13/M15 RMK AO1 SLP196 T11301150 58001
CXZC,2023-04-04T10:00:00Z,CXZC 041000Z AUTO 28002KT M28/M31 RMK AO1 SOG 56 3025 SLP289 T12781309
CXZV,2023-04-04T10:00:00Z,CXZV 041000Z AUTO 02003KT M04/M05 RMK AO1 SOG 81 1009 SLP120 T10361051 50002
CYAH,2023-04-04T10:26:00Z,CYAH 041026Z AUTO 28004KT 3SM -SN OVC027 M15/M17 A2997 RMK SLP184
CYAM,2023-04-04T10:00:00Z,CYAM 041000Z 06006KT 15SM FEW016 SCT024 BKN032 BKN074 OVC200 M02/M04 A3008 RMK SC2SC2SC1AC2CS1 SLP197
CYAT,2023-04-04T10:09:00Z,CYAT 041009Z AUTO 29004KT 9SM -SN SCT013 OVC030 M23/M25 A3037 RMK SLP288
CYAW,2023-04-04T10:00:00Z,CYAW 041000Z 21007KT 15SM FEW022 SCT080 BKN240 03/02 A3006 RMK SC1AC3CI3 DENSITY ALT -1334FT SLP181
CYAY,2023-04-04T10:00:00Z,CYAY 041000Z AUTO 23009KT 9SM FEW008 M04/M05 A2988 RMK SLP124
CYBC,2023-04-04T10:00:00Z,CYBC 041000Z AUTO 27006KT 9SM BKN048 M04/M04 A2991 RMK SLP132
CYBG,2023-04-04T10:00:00Z,CYBG 041000Z 28008KT 10SM OVC038 M03/M04 A2999 RMK SC8 DENSITY ALT -1593FT SLP166
CYBK,2023-04-04T10:08:00Z,CYBK 041008Z VRB02KT 15SM FEW016 M27/M30 A3026 RMK SC2 SLP251
CYBQ,2023-04-04T10:00:00Z,CYBQ 041000Z AUTO 18006KT 9SM FEW055 OVC080 M16/M20 A3014 RMK SLP240
CYBR,2023-04-04T10:00:00Z,CYBR 041000Z 05010KT 15SM BKN035 M13/M19 A3008 RMK SC7 SLP226
CYBU,2023-04-04T10:00:00Z,CYBU 041000Z AUTO 18004KT 9SM CLR M15/M20 A3018 RMK SLP254
CYBW,2023-04-04T10:19:00Z,CYBW 041019Z AUTO 24004KT 160V250 1/4SM R35/1600V2200FT +SN VV002 M07/M08 A2989 RMK ICE SLP194
CYBX,2023-04-04T10:00:00Z,CYBX 041000Z 03005KT 15SM FEW050 BKN065 BKN091 M06/M08 A2988 RMK SC2SC3AC2 SLP124
CYCA,2023-04-04T10:00:00Z,CYCA 041000Z AUTO 20007KT 9SM CLR M12/M15 A2979 RMK SLP090
CYCB,2023-04-04T10:00:00Z,CYCB 041000Z 06007KT 9SM IC FEW095 FEW170 M31/M35 A3027 RMK AC1AC1 AC TR SLP257
CYCK,2023-04-04T10:15:00Z,CYCK 041015Z AUTO 05005KT 9SM BKN005 OVC044 07/07 A2992 RMK SLP139
CYCO,2023-04-04T10:00:00Z,CYCO 041000Z 25005KT 15SM IC FEW050 FEW070 M21/M24 A3005 RMK SC1AC1 SLP182
CYCX,2023-04-04T10:00:00Z,CYCX 041000Z 24004KT 15SM FEW050 SCT200 01/00 A2999 RMK SC1CI2 DENSITY ALT -1463FT SLP157
CYCY,2023-04-04T10:00:00Z,CYCY 041000Z AUTO 25007KT 9SM CLR M23/M26 A3020 RMK SLP234
CYDB,2023-04-04T10:00:00Z,CYDB 041000Z AUTO 14010KT 9SM CLR M07/M18 A2977 RMK SLP135
CYDF,2023-04-04T10:19:00Z,CYDF 041019Z VRB02KT 1 1/2SM -SN OVC013 M03/M03 A2997 RMK SN3SC5 SLP152
CYDL,2023-04-04T10:00:00Z,CYDL 041000Z AUTO 05005KT 9SM CLR M13/M17 A3004 RMK SLP214
CYDP,2023-04-04T10:00:00Z,CYDP 041000Z 30019G25KT 15SM FEW120 FEW230 M11/M16 A2975 RMK AC1CI1 TR AC SLP078
CYDQ,2023-04-04T10:23:00Z,CYDQ 041023Z AUTO 33003KT 280V340 6SM BR OVC003 M03/M04 A2998 RMK SLP193
CYEG,2023-04-04T10:00:00Z,CYEG 041000Z 15004KT 15SM FEW060 FEW080 BKN210 M05/M06 A2995 RMK SC1AC1CI3 SLP180
CYEK,2023-04-04T10:00:00Z,CYEK 041000Z AUTO 00000KT 9SM CLR M28/M31 A3030 RMK SLP263
CYEN,2023-04-04T10:00:00Z,CYEN 041000Z AUTO 09011KT 9SM -SN OVC049 M11/M14 A3004 RMK SLP216
CYER,2023-04-04T10:00:00Z,CYER 041000Z AUTO 24004KT 240V300 9SM OVC020 M15/M17 A3041 RMK SLP300
CYET,2023-04-04T10:00:00Z,CYET 041000Z AUTO 00000KT 9SM CLR M06/ A2991 RMK DP MISG SLP168
CYEV,2023-04-04T10:00:00Z,CYEV 041000Z 08009KT 15SM FEW240 M13/M16 A2990 RMK CI1 SLP135
CYFB,2023-04-04T10:00:00Z,CYFB 041000Z 32018KT 30SM DRSN BKN190 M21/M24 A3004 RMK CI5 SLP178
CYFC,2023-04-04T10:00:00Z,CYFC 041000Z AUTO 00000KT 9SM CLR M01/M02 A2999 RMK SLP158
CYFS,2023-04-04T10:00:00Z,CYFS 041000Z 10002KT 15SM FEW250 M16/M19 A3014 RMK CI1 CI TR SLP225
CYFT,2023-04-04T10:00:00Z,CYFT 041000Z VRB03KT 15SM FEW025 M13/M17 A2975 RMK SC1 SLP081
CYGK,2023-04-04T10:00:00Z,CYGK 041000Z 00000KT 15SM BKN083 BKN150 03/01 A3001 RMK AC5AC2 PRESRR SLP167
CYGL,2023-04-04T10:00:00Z,CYGL 041000Z 32006KT 15SM OVC006 M19/M21 A3016 RMK SF8 SLP238
CYGP,2023-04-04T10:00:00Z,CYGP 041000Z 27002KT 10SM BKN070 M04/M04 A2986 RMK AC7 SLP116
CYGR,2023-04-04T10:00:00Z,CYGR 041000Z 20008G18KT 6SM -SN SCT005 OVC012 M00/M01 A2994 RMK SF4SC4 SLP142
CYGT,2023-04-04T10:00:00Z,CYGT 041000Z 36008KT 15SM SCT220 M26/M29 A3024 RMK CI3 SNW CVR/MEDIUM PACK SLP250
CYGV,2023-04-04T10:10:00Z,CYGV 041010Z AUTO 05004KT 9SM -SN OVC007 M04/M05 A2988 RMK SLP123
CYGW,2023-04-04T10:00:00Z,CYGW 041000Z AUTO 27006KT 9SM -SN OVC013 M20/M23 A3025 RMK SLP248
CYGX,2023-04-04T10:00:00Z,CYGX 041000Z 18005KT 15SM SKC M20/M23 A3032 RMK SLP287
CYHD,2023-04-04T10:00:00Z,CYHD 041000Z AUTO 07007KT 9SM CLR M13/M18 A3009 RMK SLP225
CYHE,2023-04-04T10:00:00Z,CYHE 041000Z AUTO 00000KT 9SM OVC060 04/01 A3006 RMK SLP182
CYHK,2023-04-04T10:00:00Z,CYHK 041000Z AUTO 06007KT 7SM CLR M31/M35 A3029 RMK SLP269
CYHM,2023-04-04T10:00:00Z,CYHM 041000Z 34004KT 2 1/2SM -RA BR FEW002 OVC019 07/07 A2994 RMK SF1SC7 SLP146
CYHU,2023-04-04T10:00:00Z,CYHU 041000Z AUTO VRB02KT 9SM CLR M01/M02 A3002 RMK SLP170
CYHY,2023-04-04T10:00:00Z,CYHY 041000Z 00000KT 15SM SCT079 M19/M22 A3020 RMK AC3 SLP248
CYHZ,2023-04-04T10:00:00Z,CYHZ 041000Z 21009KT 15SM FEW078 SCT250 01/01 A3002 RMK AC2CI2 SLP175
CYIN,2023-04-04T10:00:00Z,CYIN 041000Z AUTO 28003KT 9SM CLR M06/M07 A2990 RMK SLP166
CYIO,2023-04-04T10:00:00Z,CYIO 041000Z AUTO 18006KT 9SM CLR M29/M31 A3024 RMK SLP254
CYIV,2023-04-04T10:00:00Z,CYIV 041000Z AUTO 09002KT 9SM CLR M21/M23 A3028 RMK SLP282
CYJT,2023-04-04T10:07:00Z,CYJT 041007Z 21010KT 12SM -SN FEW005 SCT008 OVC018 M01/M02 A2997 RMK SF1SF2SC5 SLP152
CYKA,2023-04-04T10:00:00Z,CYKA 041000Z VRB02KT 40SM SKC M01/M05 A2999 RMK SLP169
CYKF,2023-04-04T10:00:00Z,CYKF 041000Z AUTO 00000KT 1SM -RA BR BKN035 BKN048 OVC060 06/06 A2994 RMK PCPN 2.2MM PAST HR SLP147
CYKJ,2023-04-04T10:00:00Z,CYKJ 041000Z AUTO 19005KT 9SM OVC066 M08/M14 A3002 RMK SLP206
CYKL,2023-04-04T10:00:00Z,CYKL 041000Z AUTO 34003KT 3SM -SN OVC018 M16/M17 A2978 RMK SLP131
CYKP,2023-04-04T10:00:00Z,CYKP 041000Z AUTO 34005KT 9SM CLR M21/M23 A3034 RMK SLP303
CYKY,2023-04-04T10:00:00Z,CYKY 041000Z 04005KT 4SM BR SKC M18/M20 A3004 RMK SLP228
CYLD,2023-04-04T10:00:00Z,CYLD 041000Z 04010KT 15SM -SN OVC033 M12/M15 A3014 RMK SC8 SLP243
CYLH,2023-04-04T10:00:00Z,CYLH 041000Z AUTO 00000KT 9SM CLR M29/M32 A3033 RMK SLP305
CYLL,2023-04-04T10:13:00Z,CYLL 041013Z AUTO 21008KT 9SM OVC060 M09/M11 A3003 RMK SLP221
CYLT,2023-04-04T10:00:00Z,CYLT 041000Z 00000KT 1/4SM FZFG SCT035 M29/M32 A3040 RMK SC3 VIS VRB 1/8-3/8 SLP300
CYLW,2023-04-04T10:00:00Z,CYLW 041000Z AUTO 05003KT 9SM BKN076 M03/M05 A2996 RMK SLP163
CYMA,2023-04-04T10:00:00Z,CYMA 041000Z 03008KT 20SM SCT150 M09/M17 A2989 RMK AS4 SLP164
CYMH,2023-04-04T10:00:00Z,CYMH 041000Z AUTO 23009KT 9SM CLR M07/M12 A2983 RMK SLP104
CYMJ,2023-04-04T10:00:00Z,CYMJ 041000Z 07002KT 10SM -SN FEW040 OVC074 M15/M16 A3007 RMK SC2AC6 FST OBS SLP227
CYMM,2023-04-04T10:00:00Z,CYMM 041000Z AUTO 10002KT 9SM OVC028 M05/M09 A3008 RMK SLP214
CYMO,2023-04-04T10:00:00Z,CYMO 041000Z AUTO 27004KT 9SM CLR M26/M29 A3036 RMK SLP284
CYMT,2023-04-04T10:00:00Z,CYMT 041000Z AUTO 29007KT 9SM CLR M15/M17 A3004 RMK SLP205
CYMX,2023-04-04T10:00:00Z,CYMX 041000Z 00000KT 25SM SCT250 M04/M04 A3002 RMK CI4 SLP173
CYNA,2023-04-04T10:16:00Z,CYNA 041016Z AUTO 04003KT 9SM -SN BKN013 M06/M07 A2990 RMK SLP127
CYNE,2023-04-04T10:00:00Z,CYNE 041000Z AUTO 07003KT 9SM CLR M22/M24 A3025 RMK SLP269
CYNM,2023-04-04T10:00:00Z,CYNM 041000Z AUTO 32006KT 9SM CLR M20/M23 A3018 RMK SLP247
CYOD,2023-04-04T10:00:00Z,CYOD 041000Z 17003KT 6SM -SN OVC025 M06/M07 A3005 RMK SC8 DENSITY ALT -635FT SLP209
CYOJ,2023-04-04T10:00:00Z,CYOJ 041000Z AUTO 35008KT 9SM FEW044 M08/M11 A3008 RMK SLP215
CYOO,2023-04-04T10:00:00Z,CYOO 041000Z AUTO 11005KT 9SM OVC076 06/01 A2995 RMK SLP147
CYOW,2023-04-04T10:00:00Z,CYOW 041000Z 01005KT 15SM SCT220 M00/M02 A3003 RMK CI4 SLP174
CYPA,2023-04-04T10:00:00Z,CYPA 041000Z 09002KT 15SM SCT100 BKN270 M18/M20 A3017 RMK AC3CI2 SLP257
CYPD,2023-04-04T10:00:00Z,CYPD 041000Z AUTO 18004KT 130V250 9SM BKN013 BKN018 BKN045 OVC055 01/M00 A3002 RMK SLP172
CYPE,2023-04-04T10:00:00Z,CYPE 041000Z 35005KT 15SM BKN060 M06/M08 A2999 RMK SC5 SLP188
CYPH,2023-04-04T10:04:00Z,CYPH 041004Z AUTO 32011KT 9SM -SN OVC012 M16/M18 A3022 RMK SLP239
CYPL,2023-04-04T10:00:00Z,CYPL 041000Z AUTO 10004KT 9SM CLR M21/M24 A3025 RMK SLP282
CYPO,2023-04-04T10:25:00Z,CYPO 041025Z AUTO 32005KT 9SM OVC011 M13/M15 A3038 RMK SLP297
CYPQ,2023-04-04T10:00:00Z,CYPQ 041000Z AUTO 05004KT 040V100 9SM OVC076 03/01 A2997 RMK SLP155
CYPR,2023-04-04T10:00:00Z,CYPR 041000Z AUTO 07007KT 9SM CLR 00/M00 A3011 RMK SLP201
CYPX,2023-04-04T10:15:00Z,CYPX 041015Z AUTO 29013KT 2 1/4SM -SN OVC005 M18/M20 A3018 RMK SLP226
CYPY,2023-04-04T10:00:00Z,CYPY 041000Z AUTO VRB02KT 9SM OVC033 M10/M12 A3012 RMK SLP223
CYQA,2023-04-04T10:00:00Z,CYQA 041000Z AUTO 35003KT 340V080 9SM OVC049 M00/M03 A2997 RMK SLP161
CYQB,2023-04-04T10:00:00Z,CYQB 041000Z 22003KT 190V270 30SM FEW025 SCT220 M02/M04 A2998 RMK SC1CI3 SLP158
CYQD,2023-04-04T10:00:00Z,CYQD 041000Z AUTO 00000KT 9SM CLR M22/M24 A3022 RMK SLP265
CYQF,2023-04-04T10:17:00Z,CYQF 041017Z AUTO 17006KT 1SM BR VV003 M08/M09 A2995 RMK ICE INTMT SLP203
CYQG,2023-04-04T10:22:00Z,CYQG 041022Z AUTO 03007KT 6SM BR OVC004 07/07 A2993 RMK SLP142
CYQH,2023-04-04T10:00:00Z,CYQH 041000Z 00000KT 30SM SKC M16/M19 A3002 RMK SLP220
CYQI,2023-04-04T10:00:00Z,CYQI 041000Z 24010KT 10SM OVC085 05/04 A3006 RMK AS8 SLP181
CYQK,2023-04-04T10:00:00Z,CYQK 041000Z 08009KT 20SM FEW040 SCT240 M11/M17 A3009 RMK SC2CI2 PRESRR SLP218
CYQL,2023-04-04T10:00:00Z,CYQL 041000Z AUTO 07006KT 9SM OVC007 M06/M07 A2994 RMK SLP186
CYQM,2023-04-04T10:00:00Z,CYQM 041000Z 29003KT 220V360 15SM SCT053 02/00 A2997 RMK SC4 SLP153
CYQQ,2023-04-04T10:00:00Z,CYQQ 041000Z 32007KT 20SM FEW020 03/M02 A3007 RMK SC1 SLP183
CYQR,2023-04-04T10:00:00Z,CYQR 041000Z 12008KT 15SM FEW080 M14/M18 A3008 RMK AC1 AC TR SLP232
CYQT,2023-04-04T10:00:00Z,CYQT 041000Z 06014G20KT 15SM -SN SCT060 OVC080 M08/M16 A3016 RMK SC4AC4 SLP231
CYQU,2023-04-04T10:00:00Z,CYQU 041000Z 33004KT 25SM SKC M06/M08 A2995 RMK SLP182
CYQV,2023-04-04T10:00:00Z,CYQV 041000Z AUTO 36002KT 9SM CLR M20/M22 A3011 RMK SLP245
CYQX,2023-04-04T10:00:00Z,CYQX 041000Z 24014G19KT 20SM OVC047 M03/M07 A3000 RMK SC8 SLP169
CYQY,2023-04-04T10:00:00Z,CYQY 041000Z 20014G20KT 7SM -SN BKN006 BKN016 OVC043 M00/M01 A3003 RMK NS5SC1SC2 SLP175
CYQZ,2023-04-04T10:00:00Z,CYQZ 041000Z AUTO 00000KT 9SM CLR M06/M07 A3000 RMK SLP186
CYRB,2023-04-04T10:00:00Z,CYRB 041000Z 32008KT 15SM SCT008 M31/M34 A3027 RMK ST4 SLP266
CYRJ,2023-04-04T10:00:00Z,CYRJ 041000Z 31006KT 25SM -SN OVC016 M03/M05 A3001 RMK NS8 PRESRR SLP174
CYRL,2023-04-04T10:00:00Z,CYRL 041000Z 08006KT 15SM SKC M14/M21 A3014 RMK SLP238
CYRQ,2023-04-04T10:26:00Z,CYRQ 041026Z AUTO VRB02KT 9SM CLR M04/M04 A3003 RMK ICE PRESRR SLP174
CYRT,2023-04-04T10:00:00Z,CYRT 041000Z 27007KT 15SM SKC M30/M33 A3025 RMK FROIN SLP252
CYRV,2023-04-04T10:00:00Z,CYRV 041000Z AUTO 00000KT 9SM OVC081 M00/M01 A2996 RMK SLP164
CYSB,2023-04-04T10:00:00Z,CYSB 041000Z 03014KT 15SM OVC015 M04/M07 A3006 RMK SC8 SLP199
CYSC,2023-04-04T10:00:00Z,CYSC 041000Z AUTO 24002KT 9SM CLR M00/M01 A2999 RMK SLP166
CYSF,2023-04-04T10:20:00Z,CYSF 041020Z AUTO 00000KT 6SM -SN OVC044 M09/M10 A3010 RMK SLP217
CYSJ,2023-04-04T10:00:00Z,CYSJ 041000Z 20006KT 10SM FEW015 SCT070 BKN240 M00/M00 A3000 RMK SF1AC3CI4 SF TR SLP165
CYSM,2023-04-04T10:00:00Z,CYSM 041000Z VRB03KT 15SM -SN OVC038 M12/M14 A3013 RMK SC8 SLP223
CYTE,2023-04-04T10:00:00Z,CYTE 041000Z AUTO 26003KT 9SM CLR M19/M22 A3013 RMK SLP210
CYTH,2023-04-04T10:00:00Z,CYTH 041000Z 00000KT 15SM SKC M25/M29 A3026 RMK SLP277
CYTL,2023-04-04T10:22:00Z,CYTL 041022Z AUTO VRB02KT 5SM BR CLR M27/M30 A3035 RMK SLP315
CYTR,2023-04-04T10:00:00Z,CYTR 041000Z 02003KT 15SM OVC085 03/02 A3000 RMK AC8 DENSITY ALT -1087FT SLP161
CYTS,2023-04-04T10:00:00Z,CYTS 041000Z 34003KT 15SM FEW035 M18/M21 A3023 RMK SC2 SLP264
CYTZ,2023-04-04T10:00:00Z,CYTZ 041000Z AUTO 05003KT 8SM -RA OVC009 06/05 A2997 RMK PRESRR PCPN 0.5MM PAST HR SLP152
CYUA,2023-04-04T10:00:00Z,CYUA 041000Z AUTO 33006KT ////SM BKN042 BKN050 OVC060 M12/M15 A2981
CYUL,2023-04-04T10:00:00Z,CYUL 041000Z 26003KT 15SM FEW180 BKN250 01/M01 A3003 RMK AC2CI4 SLP172
CYUS,2023-04-04T10:00:00Z,CYUS 041000Z AUTO 11004KT ////SM //// FEW110 M29/M34 A3030
CYUX,2023-04-04T10:00:00Z,CYUX 041000Z AUTO 35010KT 9SM CLR M29/M32 A3026 RMK SLP249
CYUY,2023-04-04T10:00:00Z,CYUY 041000Z 34004KT 15SM FEW240 M16/M18 A3017 RMK CI2 SLP241
CYVC,2023-04-04T10:00:00Z,CYVC 041000Z 17004KT 15SM SKC M13/M20 A3013 RMK SLP236
CYVL,2023-04-04T10:00:00Z,CYVL 041000Z AUTO 20004KT 9SM CLR M22/M24 A2995 RMK SLP177
CYVM,2023-04-04T10:00:00Z,CYVM 041000Z AUTO 20005KT 9SM CLR M29/M33 A3023 RMK SLP240
CYVO,2023-04-04T10:00:00Z,CYVO 041000Z 36007KT 15SM FEW250 M15/M17 A3012 RMK CI1 SLP229
CYVP,2023-04-04T10:04:00Z,CYVP 041004Z 31009KT 15SM IC FEW010 FEW030 SCT055 SCT080 BKN260 M18/M20 A2999 RMK ST1SC1SC1AS1CI1 SLP163
CYVQ,2023-04-04T10:00:00Z,CYVQ 041000Z 07004KT 30SM FEW030 FEW150 M19/M21 A3003 RMK SC1AC1 SC TR AC TR SLP178
CYVR,2023-04-04T10:00:00Z,CYVR 041000Z 10004KT 20SM FEW047 FEW085 BKN170 BKN200 03/01 A3006 RMK SC1AC1AC4CS1 TCU TOP SW SLP180
CYVT,2023-04-04T10:00:00Z,CYVT 041000Z AUTO 30003KT 9SM -SN OVC027 M05/M06 A3004 RMK SLP203
CYVV,2023-04-04T10:00:00Z,CYVV 041000Z 05008KT 15SM FEW090 OVC120 02/M00 A2996 RMK AC2AS6 SLP155
CYWE,2023-04-04T10:14:00Z,CYWE 041014Z AUTO VRB02KT 9SM -SN OVC004 M20/M23 A3009 RMK ICE MISG SLP234
CYWG,2023-04-04T10:00:00Z,CYWG 041000Z 03004KT 15SM OVC035 M09/M13 A3011 RMK SC8 SLP216
CYWK,2023-04-04T10:00:00Z,CYWK 041000Z 19003KT 15SM SCT035 BKN079 M22/M25 A2976 RMK SC4AC3 SLP129
CYWL,2023-04-04T10:00:00Z,CYWL 041000Z 24003KT 15SM FEW230 M04/M09 A2992 RMK CI1 CI TR SLP174
CYXC,2023-04-04T10:00:00Z,CYXC 041000Z 27004KT 4SM -SN BKN025 OVC075 M01/M03 A2988 RMK SN4SC3AC1 MOON DIMLY VSBL SLP148
CYXE,2023-04-04T10:00:00Z,CYXE 041000Z 04004KT 15SM SCT090 M16/M18 A3010 RMK AC4 SLP238
CYXH,2023-04-04T10:00:00Z,CYXH 041000Z AUTO 06004KT 9SM SCT180 BKN200 M09/M10 A3000 RMK SLP200
CYXJ,2023-04-04T10:00:00Z,CYXJ 041000Z 34012KT 3SM -SN OVC020 M03/M04 A2998 RMK SC8 SLP190
CYXL,2023-04-04T10:00:00Z,CYXL 041000Z 09004KT 040V140 15SM FEW150 M14/M20 A3015 RMK AC1 SLP243
CYXR,2023-04-04T10:00:00Z,CYXR 041000Z AUTO 36009KT 9SM OVC043 M11/M16 A3019 RMK PRESRR SLP241
CYXS,2023-04-04T10:00:00Z,CYXS 041000Z AUTO 19003KT 9SM CLR M07/M10 A2997 RMK SLP188
CYXT,2023-04-04T10:00:00Z,CYXT 041000Z 00000KT 20SM FEW040 M03/M04 A3012 RMK SC1 SC TR SLP212
CYXU,2023-04-04T10:00:00Z,CYXU 041000Z 35004KT 5SM -RA BR BKN018 OVC050 06/06 A2994 RMK ST5NS3 SLP146
CYXX,2023-04-04T10:00:00Z,CYXX 041000Z 01003KT 250V030 15SM OVC046 04/01 A3005 RMK SC8 SLP178
CYXY,2023-04-04T10:00:00Z,CYXY 041000Z 18012KT 15SM SCT200 M09/M15 A2990 RMK CI3 SLP174
CYYB,2023-04-04T10:00:00Z,CYYB 041000Z AUTO 02010G17KT 9SM SCT013 OVC050 M03/M05 A3003 RMK SLP186
CYYC,2023-04-04T10:13:00Z,CYYC 041013Z 18005KT 1/4SM R17R/2400V2600FT/N R29/2400V2800FT/N R17L/2200V2600FT/N FZFG BKN002 M07/M07 A2991 RMK FG7ST1 ST TR SLP184
CYYD,2023-04-04T10:00:00Z,CYYD 041000Z AUTO VRB02KT 9SM CLR M05/M08 A3006 RMK SLP203
CYYE,2023-04-04T10:00:00Z,CYYE 041000Z 00000KT 15SM FEW092 BKN170 BKN220 M10/M13 A3013 RMK AC2AC3CI2 SLP231
CYYF,2023-04-04T10:00:00Z,CYYF 041000Z 00000KT 15SM SCT200 M03/M06 A2998 RMK CI4 SLP166
CYYG,2023-04-04T10:00:00Z,CYYG 041000Z 21009KT 15SM FEW120 FEW210 01/M01 A2997 RMK AC1CI1 AC TR SLP152
CYYH,2023-04-04T10:00:00Z,CYYH 041000Z 02006KT 15SM FEW100 FEW220 M32/M35 A3033 RMK AS1CI1 AS TR CI TR SLP278
CYYJ,2023-04-04T10:00:00Z,CYYJ 041000Z 29009KT 20SM FEW042 SCT054 BKN070 03/02 A3005 RMK CU2SC2AC2 SLP178
CYYL,2023-04-04T10:00:00Z,CYYL 041000Z AUTO 18004KT 9SM CLR M15/M22 A3014 RMK SLP242
CYYN,2023-04-04T10:13:00Z,CYYN 041013Z AUTO 00000KT 6SM -SN CLR M14/M15 A2998 RMK ICE MISG SLP214
CYYQ,2023-04-04T10:00:00Z,CYYQ 041000Z 19007KT 15SM SCT120 M24/M27 A3032 RMK AC4 SLP273
CYYR,2023-04-04T10:00:00Z,CYYR 041000Z 24007KT 15SM FEW030 FEW080 M13/M14 A2984 RMK SC1AC1 FROIN SLP110
CYYT,2023-04-04T10:26:00Z,CYYT 041026Z 27014G20KT 2SM -SN DRSN VV014 M02/M03 A3010 RMK SN8 SLP202
CYYU,2023-04-04T10:00:00Z,CYYU 041000Z 32003KT 15SM SKC M22/M25 A3028 RMK SLP277
CYYW,2023-04-04T10:00:00Z,CYYW 041000Z AUTO 00000KT 9SM CLR M25/M28 A3026 RMK SLP290
CYYY,2023-04-04T10:00:00Z,CYYY 041000Z 24006KT 30SM SCT008 OVC046 M01/M02 A2993 RMK SF4SC4 SLP140
CYYZ,2023-04-04T10:00:00Z,CYYZ 041000Z 14003KT 4SM -RA BR OVC005 07/07 A2996 RMK ST8 SLP149
CYZE,2023-04-04T10:00:00Z,CYZE 041000Z AUTO 04012G24KT 9SM OVC015 M00/M03 A3003 RMK SLP179
CYZF,2023-04-04T10:00:00Z,CYZF 041000Z 04003KT 15SM SCT023 M20/M22 A3017 RMK SC4 SLP242
CYZH,2023-04-04T10:00:00Z,CYZH 041000Z AUTO 09006KT 9SM SCT044 M03/M05 A2998 RMK SLP183
CYZP,2023-04-04T10:00:00Z,CYZP 041000Z AUTO 26005KT 9SM BKN100 OVC120 01/M00 A3012 RMK SLP203
CYZR,2023-04-04T10:00:00Z,CYZR 041000Z AUTO VRB02KT 3SM -RA BR SCT003 SCT012 BKN022 OVC066 05/05 A2994 RMK PCPN 2.2MM PAST HR SLP144
CYZT,2023-04-04T10:00:00Z,CYZT 041000Z 25004KT 15SM BKN034 01/01 A3011 RMK SC5 SLP199
CYZV,2023-04-04T10:00:00Z,CYZV 041000Z 03004KT 20SM -SN FEW003 FEW006 OVC012 M04/M04 A2988 RMK SF1SF1SC8 SF TR SF TR VIS SW 5 SLP124
CYZX,2023-04-04T10:00:00Z,CYZX 041000Z 00000KT 15SM BKN250 02/M00 A3003 RMK CI5 DENSITY ALT -1562FT CIG PDMTLY TRANSPARENT SLP169
CYZY,2023-04-04T10:00:00Z,CYZY 041000Z AUTO 00000KT 9SM CLR M09/M10 A2998 RMK SLP193
CZBF,2023-04-04T10:00:00Z,CZBF 041000Z AUTO VRB02KT 9SM BKN027 BKN041 M04/M04 A2993 RMK PRESRR SLP140
CZCR,2023-04-04T10:00:00Z,CZCR 041000Z AUTO 22002KT M03/M03 RMK AO1 SOG 56 3015 SLP127 T10311032
CZDB,2023-04-04T10:00:00Z,CZDB 041000Z AUTO 18007KT 02/M00 RMK AO1 SLP174 T00191001 53006
CZEL,2023-04-04T10:00:00Z,CZEL 041000Z AUTO 00000KT 04/03 RMK AO1 6PAST HR 3016 SLP150 P0002 T00430034 50011
CZEV,2023-04-04T10:00:00Z,CZEV 041000Z AUTO 09007KT M14/M17 RMK AO1 SOG 47 6017 SLP139 T11411172
CZFS,2023-04-04T10:00:00Z,CZFS 041000Z AUTO 11002KT M16/M19 RMK AO1 SOG 47 8001 SLP224 T11641187 50002
CZHY,2023-04-04T10:00:00Z,CZHY 041000Z AUTO 00000KT M18/M20 RMK AO1 SOG 20 1005 SLP243 T11831202
CZMD,2023-04-04T10:00:00Z,CZMD 041000Z AUTO 05002KT 9SM CLR M25/M28 A3030 RMK SLP296
CZMJ,2023-04-04T10:00:00Z,CZMJ 041000Z AUTO 09003KT M15/M17 RMK AO1 SLP238 T11491167 53003
CZOL,2023-04-04T10:00:00Z,CZOL 041000Z AUTO 15001KT M04/M04 RMK AO1 T10381039
CZPC,2023-04-04T10:00:00Z,CZPC 041000Z AUTO 27004KT 270V360 7SM BKN036 M06/M07 A2989 RMK SLP178
CZSJ,2023-04-04T10:00:00Z,CZSJ 041000Z AUTO 09003KT 9SM CLR M18/M21 A3027 RMK SLP281
CZSM,2023-04-04T10:00:00Z,CZSM 041000Z AUTO 35002KT M12/M15 RMK AO1 SOG 40 1008 SLP224 T11231146
CZSP,2023-04-04T10:00:00Z,CZSP 041000Z AUTO 20009KT M00/M01 RMK AO1 SOG 03 3002 SLP151 T10041014
CZUM,2023-04-04T10:01:00Z,CZUM 041001Z AUTO 34005KT 9SM -SN SCT006 BKN016 BKN029 OVC050 M12/M14 A2977 RMK SLP123
CZVL,2023-04-04T10:15:00Z,CZVL 041015Z AUTO 19004KT 5SM BR SCT076 M07/M07 A2995 RMK SLP187
CZZJ,2023-04-04T10:00:00Z,CZZJ 041000Z AUTO 25001KT M06/M07 RMK AO1 SOG 11 2006 SLP169 T10611073
DAAG,2023-04-04T10:00:00Z,DAAG 041000Z 09005KT 060V140 9999 FEW026 BKN200 18/05 Q1014
DAAS,2023-04-04T10:00:00Z,DAAS 041000Z VRB02KT 9999 FEW026 SCT233 11/M01 Q1014
DAAT,2023-04-04T10:00:00Z,DAAT 041000Z VRB04KT CAVOK 27/// Q1018
DABB,2023-04-04T10:00:00Z,DABB 041000Z 02005KT 340V050 9999 FEW023TCU FEW026CB SCT030 17/09 Q1013
DABC,2023-04-04T10:00:00Z,DABC 041000Z 01004KT 300V080 9999 BKN030 12/04 Q1015
DABS,2023-04-04T10:00:00Z,DABS 041000Z 32005KT 9999 SCT033 SCT200 12/01 Q1014
DAOB,2023-04-04T10:00:00Z,DAOB 041000Z 04004KT CAVOK 14/M07 Q1013
DAOI,2023-04-04T10:00:00Z,DAOI 041000Z 07007KT 030V110 CAVOK 18/00 Q1013
DAON,2023-04-04T10:00:00Z,DAON 041000Z 33003KT CAVOK 18/02 Q1012
DAOO,2023-04-04T10:00:00Z,DAOO 041000Z 02009KT 340V050 CAVOK 19/02 Q1012
DAOR,2023-04-04T09:15:00Z,DAOR 040915Z 11006KT 4000 DU NSC 20/M10 Q1011
DAUA,2023-04-04T10:00:00Z,DAUA 041000Z 12017KT 8000 DRSA NSC 29/M06 Q1008
DAUB,2023-04-04T10:00:00Z,DAUB 041000Z 15005KT 9999 FEW033 18/M01 Q1015
DAUG,2023-04-04T10:00:00Z,DAUG 041000Z 18009KT 150V220 CAVOK 21/M11 Q1014
DAUH,2023-04-04T10:00:00Z,DAUH 041000Z 17005KT 130V220 CAVOK 23/M08 Q1013
DBBB,2023-04-04T10:00:00Z,DBBB 041000Z 27006KT 230V310 9000 FEW012 30/24 Q1008 NOSIG
DFFD,2023-04-04T10:00:00Z,DFFD 041000Z 24007KT 4500 DU 34/18 Q1010 NOSIG
DFOO,2023-04-04T10:00:00Z,DFOO 041000Z 22008KT 190V280 CAVOK 31/17 Q1011
DGAA,2023-04-04T10:00:00Z,DGAA 041000Z 23004KT 200V260 8000 -RA FEW010 26/24 Q1010 NOSIG
DIAP,2023-04-04T10:00:00Z,DIAP 041000Z 19010KT 160V220 9999 SCT013 29/25 Q1010 NOSIG
DIBK,2023-04-04T10:00:00Z,DIBK 041000Z 20006KT 8000 FEW010 28/23 Q1011 NOSIG
DIYO,2023-04-04T10:00:00Z,DIYO 041000Z 18008KT CAVOK 29/22 Q1010 NOSIG
DNAA,2023-04-04T10:00:00Z,DNAA 041000Z 27003KT CAVOK 32/22 Q1011 NOSIG
DNEN,2023-04-04T10:00:00Z,DNEN 041000Z 20010KT 9999 FEW012 29/22 Q1010 NOSIG
DNKN,2023-04-04T10:00:00Z,DNKN 041000Z 09009KT CAVOK 33/M03 Q1013 NOSIG
DNMM,2023-04-04T10:00:00Z,DNMM 041000Z 20006KT 8000 FEW014 32/24 Q1010 NOSIG
DNMN,2023-04-04T10:00:00Z,DNMN 041000Z 24005KT CAVOK 31/22 Q1010
DRRM,2023-04-04T10:00:00Z,DRRM 041000Z 09006KT 020V180 CAVOK 36/M05 Q1011
DRRN,2023-04-04T10:00:00Z,DRRN 041000Z 10010KT CAVOK 38/M14 Q1009 NOSIG
DRRT,2023-04-04T10:00:00Z,DRRT 041000Z 08008KT CAVOK 32/M03 Q1010
DRZA,2023-04-04T10:00:00Z,DRZA 041000Z 12012KT CAVOK 34/M01 Q1012
DRZF,2023-04-04T10:00:00Z,DRZF 041000Z 05008KT CAVOK 37/M11 Q1010
DRZR,2023-04-04T10:00:00Z,DRZR 041000Z 02008KT CAVOK 35/M08 Q1012
DTKA,2023-04-04T10:00:00Z,DTKA 041000Z 27014KT 9999 -RA SCT020 FEW023CB SCT030 14/11 Q1013 NOSIG:CB/N
DTMB,2023-04-04T10:00:00Z,DTMB 041000Z 34010KT 9999 FEW020 18/08 Q1013 NOSIG
DTNH,2023-04-04T10:00:00Z,DTNH 041000Z 30013KT 9999 R27///// FEW026 19/07 Q1012
DTTA,2023-04-04T10:00:00Z,DTTA 041000Z 29009KT 260V320 9999 BKN026 SCT033 17/12 Q1012
DTTB,2023-04-04T10:00:00Z,DTTB 041000Z 29014KT 260V320 9999 SCT016TCU FEW023CB SCT030 18/11 Q1012
DTTD,2023-04-04T10:00:00Z,DTTD 041000Z 09004KT 030V200 CAVOK 18/05 Q1015
DTTF,2023-04-04T10:00:00Z,DTTF 041000Z 02004KT 300V080 CAVOK 16/02 Q1014 NOSIG
DTTG,2023-04-04T10:00:00Z,DTTG 041000Z 29008KT 260V330 9999 FEW020 18/02 Q1014 NOSIG
DTTJ,2023-04-04T10:00:00Z,DTTJ 041000Z 31009KT 280V340 CAVOK 18/05 Q1014 NOSIG
DTTK,2023-04-04T10:00:00Z,DTTK 041000Z 33008KT 250V030 9999 SCT023 19/04 Q1013
DTTL,2023-04-04T10:00:00Z,DTTL 041000Z 31006KT 9999 SCT020 17/11 Q1011
DTTN,2023-04-04T10:00:00Z,DTTN 041000Z /////KT 9999 SCT020 17/07 Q1013
DTTR,2023-04-04T10:00:00Z,DTTR 041000Z 23008KT 200V260 CAVOK 21/M03 Q1016
DTTX,2023-04-04T10:00:00Z,DTTX 041000Z 31008KT 270V360 CAVOK 19/05 Q1013
DTTZ,2023-04-04T10:00:00Z,DTTZ 041000Z VRB03KT CAVOK 20/01 Q1014
DXNG,2023-04-04T10:00:00Z,DXNG 041000Z 21009KT CAVOK 30/19 Q1013
DXXX,2023-04-04T10:00:00Z,DXXX 041000Z 28007KT 250V310 9999 FEW013 28/24 Q1010 NOSIG
EBAW,2023-04-04T10:20:00Z,EBAW 041020Z 06005KT 010V120 CAVOK 07/M04 Q1029 NOSIG
EBBE,2023-04-04T09:25:00Z,EBBE 040925Z 08008KT 9999 FEW200 04/M04 Q1028 BLU BLU
EBBL,2023-04-04T09:55:00Z,EBBL 040955Z 09006KT 9999 FEW200 06/M05 Q1029 BLU BLU
EBBR,2023-04-04T10:20:00Z,EBBR 041020Z 09006KT 010V140 CAVOK 06/M04 Q1029 NOSIG
EBCI,2023-04-04T10:20:00Z,EBCI 041020Z 07010KT 030V100 CAVOK 05/M04 Q1028 NOSIG
EBCV,2023-04-04T09:55:00Z,EBCV 040955Z AUTO 06007KT 9999 SCT200/// 06/M04 Q1028 BLU
EBDT,2023-04-04T09:55:00Z,EBDT 040955Z AUTO 05006KT 9999 NCD 06/M04 Q1029 BLU
EBFN,2023-04-04T09:25:00Z,EBFN 040925Z 10008KT 9999 FEW180 07/M03 Q1029 BLU BLU
EBFS,2023-04-04T09:55:00Z,EBFS 040955Z 04008KT 9999 SCT220 04/M04 Q1027 BLU BLU
EBLB,2023-04-04T09:55:00Z,EBLB 040955Z AUTO 05007KT 9999 NCD 02/M06 Q1025 BLU
EBLG,2023-04-04T10:20:00Z,EBLG 041020Z 06008KT 030V090 CAVOK 05/M03 Q1028 NOSIG
EBOS,2023-04-04T10:20:00Z,EBOS 041020Z 11008KT 080V140 CAVOK 07/M04 Q1029 NOSIG
EDAC,2023-04-04T09:50:00Z,EDAC 040950Z 02006KT 340V060 9999 FEW029 BKN045 03/M03 Q1028
EDAH,2023-04-04T10:20:00Z,EDAH 041020Z 30007KT 260V360 9999 SCT027 06/M01 Q1028
EDBC,2023-04-04T10:20:00Z,EDBC 041020Z 34005KT 310V010 9999 FEW030 SCT035 03/M04 Q1029
EDDB,2023-04-04T10:20:00Z,EDDB 041020Z AUTO 34011KT 320V020 9999 BKN042 04/M05 Q1029 NOSIG
EDDC,2023-04-04T10:20:00Z,EDDC 041020Z AUTO 36009KT 320V050 9999 SCT046 03/M07 Q1027 NOSIG
EDDE,2023-04-04T10:20:00Z,EDDE 041020Z AUTO 03007KT 350V070 9999 OVC034 02/M05 Q1028 NOSIG
EDDF,2023-04-04T10:20:00Z,EDDF 041020Z AUTO 09010KT CAVOK 06/M06 Q1027 NOSIG
EDDG,2023-04-04T10:20:00Z,EDDG 041020Z AUTO 02004KT 320V080 CAVOK 07/M03 Q1029 NOSIG
EDDH,2023-04-04T10:20:00Z,EDDH 041020Z AUTO VRB04KT CAVOK 06/M06 Q1030 NOSIG
EDDK,2023-04-04T10:20:00Z,EDDK 041020Z AUTO 04007KT 360V100 CAVOK 06/M04 Q1028 NOSIG
EDDL,2023-04-04T10:20:00Z,EDDL 041020Z AUTO 06011KT 030V100 9999 ///////// 07/M05 Q1029 NOSIG
EDDM,2023-04-04T10:20:00Z,EDDM 041020Z AUTO 10011KT 050V130 9999 BKN046 02/M08 Q1024 NOSIG
EDDN,2023-04-04T10:20:00Z,EDDN 041020Z AUTO 08006KT 360V160 9999 BKN045 04/M07 Q1026 NOSIG
EDDP,2023-04-04T10:20:00Z,EDDP 041020Z AUTO 06007KT 350V120 9999 SCT038 BKN046 04/M04 Q1028 NOSIG
EDDR,2023-04-04T10:20:00Z,EDDR 041020Z AUTO 07010KT 360V110 CAVOK 05/M05 Q1025 NOSIG
EDDS,2023-04-04T10:20:00Z,EDDS 041020Z AUTO 10008KT 060V150 9999 FEW043 04/M06 Q1024 NOSIG
EDDV,2023-04-04T10:20:00Z,EDDV 041020Z AUTO 07006KT 330V120 9999 FEW040 05/M05 Q1030 NOSIG
EDDW,2023-04-04T10:20:00Z,EDDW 041020Z AUTO VRB04KT CAVOK 06/M04 Q1030 NOSIG
EDFH,2023-04-04T10:20:00Z,EDFH 041020Z 05007KT 340V140 CAVOK 02/M06 Q1025
EDFM,2023-04-04T09:50:00Z,EDFM 040950Z 10006KT 050V180 CAVOK 06/M07 Q1027
EDGS,2023-04-04T10:20:00Z,EDGS 041020Z 08008KT 030V130 CAVOK 01/M07 Q1025
EDHI,2023-04-04T10:20:00Z,EDHI 041020Z VRB04KT CAVOK 06/M04 Q1030
EDHK,2023-04-04T10:20:00Z,EDHK 041020Z 26005KT 190V310 CAVOK 05/M08 Q1030
EDHL,2023-04-04T10:20:00Z,EDHL 041020Z VRB03KT CAVOK 05/M06 Q1030
EDJA,2023-04-04T10:20:00Z,EDJA 041020Z 06013KT 030V100 9999 SCT041 02/M06 Q1022
EDLN,2023-04-04T10:20:00Z,EDLN 041020Z 06006KT 340V100 CAVOK 06/M05 Q1029
EDLP,2023-04-04T10:20:00Z,EDLP 041020Z 04007KT 310V090 CAVOK 05/M07 Q1028
EDLV,2023-04-04T10:20:00Z,EDLV 041020Z 03005KT 320V110 CAVOK 07/M05 Q1029
EDLW,2023-04-04T10:20:00Z,EDLW 041020Z 06008KT 020V100 CAVOK 05/M04 Q1029
EDMA,2023-04-04T10:20:00Z,EDMA 041020Z 05008KT 360V090 9999 BKN046 02/M07 Q1024
EDMO,2023-04-04T10:20:00Z,EDMO 041020Z 04009KT 020V090 9999 BKN043 01/M09 Q1023
EDNY,2023-04-04T10:20:00Z,EDNY 041020Z 06014KT 020V090 CAVOK 05/M05 Q1022
EDQM,2023-04-04T10:20:00Z,EDQM 041020Z 04009KT 9999 OVC031 M00/M06 Q1025
EDSB,2023-04-04T10:20:00Z,EDSB 041020Z 03012KT CAVOK 06/M05 Q1024
EDTL,2023-04-04T10:20:00Z,EDTL 041020Z 01010KT 330V030 CAVOK 07/M04 Q1024
EDTY,2023-04-04T10:20:00Z,EDTY 041020Z 05008KT 360V080 9999 FEW047 04/M06 Q1025
EDVE,2023-04-04T10:20:00Z,EDVE 041020Z 08005KT 020V150 9999 BKN040 05/M06 Q1030
EDVK,2023-04-04T10:20:00Z,EDVK 041020Z VRB04KT 9999 BKN040 04/M06 Q1028
EDXW,2023-04-04T09:50:00Z,EDXW 040950Z 31004KT 270V360 CAVOK 06/M02 Q1030
EEEI,2023-04-04T09:50:00Z,EEEI 040950Z 05013KT CAVOK 01/M08 Q1025 NOSIG
EEKE,2023-04-04T10:20:00Z,EEKE 041020Z 01011KT 340V050 CAVOK 03/M08 Q1024
EEPU,2023-04-04T10:20:00Z,EEPU 041020Z AUTO 03006KT 340V070 9999 FEW042/// 04/M06 Q1023
EETN,2023-04-04T10:20:00Z,EETN 041020Z 02010KT CAVOK 00/M08 Q1024 NOSIG
EETU,2023-04-04T10:20:00Z,EETU 041020Z 35008KT 290V020 9999 BKN024 01/M04 Q1022
EFET,2023-04-04T10:20:00Z,EFET 041020Z AUTO 26008KT 240V300 CAVOK 03/M05 Q1023
EFHA,2023-04-04T10:20:00Z,EFHA 041020Z 02009KT 350V050 CAVOK M00/M14 Q1026
EFHK,2023-04-04T10:20:00Z,EFHK 041020Z 01009KT 340V040 CAVOK 01/M12 Q1025 NOSIG
EFIV,2023-04-04T10:20:00Z,EFIV 041020Z 27008KT 240V300 CAVOK 03/M05 Q1022
EFJO,2023-04-04T10:20:00Z,EFJO 041020Z AUTO 01008KT 330V050 CAVOK M01/M10 Q1025
EFJY,2023-04-04T10:20:00Z,EFJY 041020Z 01008KT 340V040 CAVOK M00/M12 Q1026
EFKE,2023-04-04T10:20:00Z,EFKE 041020Z AUTO 21006KT CAVOK M03/M07 Q1027
EFKI,2023-04-04T10:20:00Z,EFKI 041020Z AUTO 33003KT 290V350 CAVOK M02/M13 Q1027
EFKK,2023-04-04T10:20:00Z,EFKK 041020Z AUTO 15004KT 130V200 CAVOK 02/M11 Q1027
EFKS,2023-04-04T10:20:00Z,EFKS 041020Z AUTO 24008KT 210V280 9999 BKN036 M01/M12 Q1024 REFZRA
EFKT,2023-04-04T10:20:00Z,EFKT 041020Z AUTO 32007KT CAVOK 03/M05 Q1024
EFKU,2023-04-04T10:20:00Z,EFKU 041020Z 01004KT 320V080 CAVOK M01/M13 Q1026
EFLP,2023-04-04T10:20:00Z,EFLP 041020Z AUTO 36009KT 320V030 CAVOK M01/M07 Q1023
EFMA,2023-04-04T10:20:00Z,EFMA 041020Z AUTO 07005KT 010V110 CAVOK 02/M10 Q1028
EFMI,2023-04-04T10:20:00Z,EFMI 041020Z AUTO 36004KT 270V060 CAVOK 01/M09 Q1025
EFOU,2023-04-04T10:20:00Z,EFOU 041020Z AUTO 19003KT 150V240 9999 SCT044 00/M11 Q1028
EFPO,2023-04-04T10:20:00Z,EFPO 041020Z AUTO VRB02KT CAVOK 03/M12 Q1027
EFRO,2023-04-04T10:20:00Z,EFRO 041020Z 21007KT CAVOK M01/M08 Q1025
EFSA,2023-04-04T10:20:00Z,EFSA 041020Z AUTO 04008KT 9999 SCT034 M00/M08 Q1025
EFSI,2023-04-04T10:20:00Z,EFSI 041020Z AUTO 32005KT CAVOK 01/M15 Q1027
EFTP,2023-04-04T10:20:00Z,EFTP 041020Z 01007KT 330V060 CAVOK M00/M13 Q1026
EFTU,2023-04-04T10:20:00Z,EFTU 041020Z AUTO 06007KT 020V100 CAVOK 01/M13 Q1027
EFUT,2023-04-04T10:20:00Z,EFUT 041020Z 01010KT CAVOK 00/M09 Q1024
EFVA,2023-04-04T10:20:00Z,EFVA 041020Z AUTO VRB02KT CAVOK 03/M11 Q1028
EGAA,2023-04-04T10:20:00Z,EGAA 041020Z AUTO 20012G22KT 160V230 9999 SCT021 09/05 Q1022
EGAC,2023-04-04T10:20:00Z,EGAC 041020Z AUTO 19012KT 9999 FEW023 10/06 Q1023
EGAE,2023-04-04T10:20:00Z,EGAE 041020Z 19014G25KT 150V230 9999 FEW022 12/07 Q1020
EGBB,2023-04-04T10:20:00Z,EGBB 041020Z 13008KT CAVOK 09/M00 Q1028
EGBJ,2023-04-04T10:20:00Z,EGBJ 041020Z 00000KT CAVOK 10/01 Q1028
EGCC,2023-04-04T10:20:00Z,EGCC 041020Z AUTO 18005KT 120V220 9999 NCD 09/00 Q1027 NOSIG
EGCK,2023-04-04T10:20:00Z,EGCK 041020Z 19011KT CAVOK 10/03 Q1026
EGDM,2023-04-04T09:50:00Z,EGDM 040950Z 12007KT CAVOK 09/01 Q1027 NOSIG RMK BLU BLU
EGDR,2023-04-04T09:50:00Z,EGDR 040950Z 17009KT 9999 FEW020 SCT025 10/05 Q1026 TEMPO SCT020 RMK BLU TEMPO WHT
EGDY,2023-04-04T09:50:00Z,EGDY 040950Z 16004KT CAVOK 09/02 Q1027 NOSIG RMK BLU BLU
EGEC,2023-04-04T10:20:00Z,EGEC 041020Z 15011KT 9999 SCT024 09/06 Q1022
EGEO,2023-04-04T10:20:00Z,EGEO 041020Z 17014KT 140V200 9999 FEW022 BKN032 09/04 Q1022
EGFF,2023-04-04T10:20:00Z,EGFF 041020Z AUTO 13006KT 9999 NCD 08/02 Q1028
EGGD,2023-04-04T10:20:00Z,EGGD 041020Z AUTO VRB03KT 9999 NCD 09/01 Q1027
EGGP,2023-04-04T10:20:00Z,EGGP 041020Z 13008KT 100V160 CAVOK 09/01 Q1027
EGGW,2023-04-04T10:20:00Z,EGGW 041020Z AUTO 11010KT 090V160 9999 NCD 09/01 Q1027
EGHC,2023-04-04T10:20:00Z,EGHC 041020Z 18011KT 9999 FEW017 10/06 Q1026
EGHE,2023-04-04T10:20:00Z,EGHE 041020Z 18011KT 9999 FEW020 12/08 Q1026
EGHH,2023-04-04T10:20:00Z,EGHH 041020Z 12005KT 060V180 CAVOK 10/00 Q1027
EGHI,2023-04-04T10:20:00Z,EGHI 041020Z 07003KT 360V140 CAVOK 10/M00 Q1028
EGHQ,2023-04-04T10:20:00Z,EGHQ 041020Z 18011KT 9999 BKN022 10/05 Q1027
EGJA,2023-04-04T10:20:00Z,EGJA 041020Z 10012KT CAVOK 09/04 Q1026
EGJB,2023-04-04T10:20:00Z,EGJB 041020Z 09009KT 050V130 CAVOK 10/03 Q1026
EGJJ,2023-04-04T10:20:00Z,EGJJ 041020Z 11012KT CAVOK 10/04 Q1026
EGKA,2023-04-04T10:20:00Z,EGKA 041020Z 12009KT 9999 FEW030 10/04 Q1028
EGKB,2023-04-04T10:20:00Z,EGKB 041020Z 09006KT 050V160 CAVOK 08/M00 Q1028
EGKK,2023-04-04T10:20:00Z,EGKK 041020Z 10007KT 070V140 CAVOK 09/M01 Q1028
EGLC,2023-04-04T10:20:00Z,EGLC 041020Z AUTO 11008KT 070V130 9999 NCD 09/M00 Q1029
EGLF,2023-04-04T10:20:00Z,EGLF 041020Z AUTO 13008KT 040V170 9999 NCD 09/00 Q1027
EGLL,2023-04-04T10:20:00Z,EGLL 041020Z AUTO 11007KT 080V140 9999 NCD 10/M00 Q1028
EGMC,2023-04-04T10:20:00Z,EGMC 041020Z 11008KT 060V140 CAVOK 09/01 Q1029
EGMD,2023-04-04T10:20:00Z,EGMD 041020Z 09010KT CAVOK 09/03 Q1029
EGNH,2023-04-04T10:20:00Z,EGNH 041020Z 18010KT CAVOK 10/01 Q1027
EGNJ,2023-04-04T09:50:00Z,EGNJ 040950Z 21011KT 9999 FEW028 09/02 Q1028
EGNM,2023-04-04T10:20:00Z,EGNM 041020Z 17007KT 120V210 CAVOK 08/M01 Q1027
EGNO,2023-04-04T10:20:00Z,EGNO 041020Z 15008KT 120V180 CAVOK 10/01 Q1026
EGNR,2023-04-04T10:20:00Z,EGNR 041020Z 15010KT CAVOK 09/01 Q1027
EGNS,2023-04-04T10:20:00Z,EGNS 041020Z 18013KT 9999 SCT011 SCT022 10/06 Q1025 NOSIG
EGNT,2023-04-04T10:20:00Z,EGNT 041020Z 18008KT 130V220 CAVOK 09/02 Q1026
EGNV,2023-04-04T10:20:00Z,EGNV 041020Z 17010KT CAVOK 07/00 Q1027
EGNX,2023-04-04T10:20:00Z,EGNX 041020Z 17006KT 130V200 CAVOK 09/M01 Q1028
EGOM,2023-04-04T09:50:00Z,EGOM 040950Z 21010KT CAVOK 08/01 Q1024 RMK BLU
EGOP,2023-04-04T09:50:00Z,EGOP 040950Z AUTO 16010KT 9999 FEW024/// 09/03 Q1027
EGOS,2023-04-04T09:50:00Z,EGOS 040950Z 16007KT CAVOK 07/00 Q1027 NOSIG RMK BLU BLU
EGOV,2023-04-04T09:50:00Z,EGOV 040950Z 17014KT 9999 FEW020 SCT120 BKN150 09/04 Q1026 NOSIG RMK BLU BLU
EGOW,2023-04-04T09:50:00Z,EGOW 040950Z 15008KT CAVOK 09/00 Q1027 RMK BLU
EGPA,2023-04-04T10:20:00Z,EGPA 041020Z 17012KT CAVOK 09/04 Q1020
EGPB,2023-04-04T10:20:00Z,EGPB 041020Z 19013KT 9999 FEW011 09/05 Q1021 NOSIG
EGPC,2023-04-04T10:20:00Z,EGPC 041020Z 18013KT 9999 FEW020 09/02 Q1020
EGPD,2023-04-04T10:20:00Z,EGPD 041020Z AUTO 16012KT 9999 NCD 10/03 Q1022 NOSIG
EGPE,2023-04-04T10:20:00Z,EGPE 041020Z VRB02KT 9999 FEW032 SCT040 10/03 Q1021
EGPF,2023-04-04T10:20:00Z,EGPF 041020Z AUTO 18011KT 9999 NCD 10/04 Q1023
EGPH,2023-04-04T10:20:00Z,EGPH 041020Z 22012KT 9999 FEW030 11/04 Q1024
EGPI,2023-04-04T10:20:00Z,EGPI 041020Z 18014KT 9999 FEW016 SCT034 09/06 Q1021
EGPK,2023-04-04T10:20:00Z,EGPK 041020Z 18014KT 9999 SCT028 11/05 Q1023
EGPL,2023-04-04T10:20:00Z,EGPL 041020Z 18024KT 7000 RA FEW004 SCT006 BKN009 09/07 Q1017
EGPN,2023-04-04T10:20:00Z,EGPN 041020Z VRB01KT 9999 FEW028 09/04 Q1024
EGPO,2023-04-04T10:20:00Z,EGPO 041020Z 19023KT 9999 VCSH SCT009 BKN016 09/06 Q1018
EGPU,2023-04-04T10:20:00Z,EGPU 041020Z 18022KT 9000 -RADZ FEW011 OVC021 08/06 Q1019
EGQA,2023-04-04T09:50:00Z,EGQA 040950Z 15008KT 9999 FEW023 BKN120 09/02 Q1021 RMK BLU
EGQK,2023-04-04T09:50:00Z,EGQK 040950Z AUTO 20008KT 9999 FEW190/// 12/02 Q1021
EGQL,2023-04-04T09:50:00Z,EGQL 040950Z 21007KT 9999 FEW025 10/05 Q1024 RMK BLU
EGQM,2023-04-04T09:50:00Z,EGQM 040950Z AUTO 14008KT 9999 NCD 08/04 Q1026
EGQS,2023-04-04T09:50:00Z,EGQS 040950Z 19010KT CAVOK 11/02 Q1021 NOSIG RMK BLU BLU
EGSC,2023-04-04T10:20:00Z,EGSC 041020Z 15007KT 110V200 CAVOK 10/01 Q1028
EGSH,2023-04-04T10:20:00Z,EGSH 041020Z 14007KT 100V200 CAVOK 10/00 Q1029
EGSS,2023-04-04T10:20:00Z,EGSS 041020Z AUTO 12008KT 090V160 9999 NCD 09/02 Q1028
EGSY,2023-04-04T10:20:00Z,EGSY 041020Z 13004KT 080V210 CAVOK 09/03 Q1028
EGTC,2023-04-04T10:20:00Z,EGTC 041020Z 13007KT 080V200 CAVOK 08/01 Q1028
EGTE,2023-04-04T10:20:00Z,EGTE 041020Z 13007KT 100V160 9999 SCT025 10/05 Q1027
EGTK,2023-04-04T10:20:00Z,EGTK 041020Z VRB04KT CAVOK 09/M01 Q1028
EGUB,2023-04-04T09:50:00Z,EGUB 040950Z 11008KT CAVOK 09/00 Q1027 NOSIG RMK BLU BLU
EGUL,2023-04-04T09:55:00Z,EGUL 040955Z 09008KT 9999 CLR 09/01 A3036 RMK AO2A SLP285 T00910008 $
EGUN,2023-04-04T09:55:00Z,EGUN 040955Z 12006KT 9999 FEW025 09/02 A3037 RMK AO2A SLP288 T00890016 $
EGUW,2023-04-04T09:50:00Z,EGUW 040950Z 12007KT CAVOK 08/M01 Q1028 NOSIG RMK BLU BLU
EGVA,2023-04-04T09:55:00Z,EGVA 040955Z AUTO 18004KT 9999 CLR 08/01 A3033 RMK AO2 SLP276 T00790013 FZRANO $
EGVN,2023-04-04T10:20:00Z,EGVN 041020Z 12005KT CAVOK 09/M00 Q1028 NOSIG
EGVO,2023-04-04T09:50:00Z,EGVO 040950Z 11009KT CAVOK 08/M02 Q1027 NOSIG RMK BLU BLU
EGVP,2023-04-04T09:50:00Z,EGVP 040950Z 12008KT CAVOK 09/M01 Q1027 NOSIG RMK BLU BLU
EGWC,2023-04-04T09:50:00Z,EGWC 040950Z 17005KT CAVOK 08/01 Q1028 RMK BLU
EGWU,2023-04-04T09:50:00Z,EGWU 040950Z 13007KT CAVOK 10/00 Q1028 NOSIG RMK BLU BLU
EGXC,2023-04-04T09:50:00Z,EGXC 040950Z 17007KT CAVOK 09/02 Q1028 NOSIG RMK BLU BLU
EGXE,2023-04-04T09:50:00Z,EGXE 040950Z 15008KT CAVOK 07/01 Q1027 NOSIG RMK BLU BLU
EGXS,2023-04-04T09:50:00Z,EGXS 040950Z 17007KT 9999 SKC 09/01 Q1028 RMK BLU
EGXT,2023-04-04T09:50:00Z,EGXT 040950Z AUTO 13007KT //// VV/// ///// Q////
EGXV,2023-04-04T09:50:00Z,EGXV 040950Z AUTO 20008KT 9999 // NCD 09/01 Q1028
EGXW,2023-04-04T09:50:00Z,EGXW 040950Z 17010KT CAVOK 08/00 Q1028 NOSIG RMK BLU BLU
EGXZ,2023-04-04T09:50:00Z,EGXZ 040950Z AUTO 15009KT 9999 NCD 07/01 Q1028
EGYD,2023-04-04T09:50:00Z,EGYD 040950Z 15009KT CAVOK 08/01 Q1028 NOSIG RMK BLU BLU
EGYE,2023-04-04T09:50:00Z,EGYE 040950Z 16007KT CAVOK ///// Q1028 RMK BLU
EGYH,2023-04-04T09:50:00Z,EGYH 040950Z AUTO 16007KT 9999 NCD 09/02 Q1028
EGYM,2023-04-04T09:50:00Z,EGYM 040950Z 15008KT CAVOK 09/M00 Q1029 NOSIG RMK BLU BLU
EGYP,2023-04-04T09:50:00Z,EGYP 040950Z 36022G35KT 9999 FEW010 09/07 Q1007
EHAK,2023-04-04T09:55:00Z,EHAK 040955Z AUTO 20007KT 160V230 9999 NCD 05/M01 Q1029
EHAM,2023-04-04T10:25:00Z,EHAM 041025Z VRB05KT CAVOK 08/M03 Q1030 NOSIG
EHBK,2023-04-04T10:25:00Z,EHBK 041025Z AUTO 06010KT 030V110 9999 NSC 06/M04 Q1028 NOSIG
EHDL,2023-04-04T10:25:00Z,EHDL 041025Z AUTO VRB07KT 9999 OVC150 07/M03 Q1029 BLU
EHDV,2023-04-04T09:55:00Z,EHDV 040955Z AUTO 21008KT 180V250 9999 NCD 07/// Q1029
EHEH,2023-04-04T09:55:00Z,EHEH 040955Z AUTO 07006KT 010V080 9999 FEW190 07/M05 Q1029 BLU NOSIG
EHFD,2023-04-04T09:55:00Z,EHFD 040955Z AUTO 22003KT 160V300 5000 HZ NSC 06/M00 Q1030
EHFS,2023-04-04T09:55:00Z,EHFS 040955Z AUTO 09010KT 070V140 9999 NSC 07/M02 Q1029
EHGG,2023-04-04T10:25:00Z,EHGG 041025Z AUTO 07006KT 020V150 9999 NSC 07/M04 Q1030 NOSIG
EHGR,2023-04-04T10:25:00Z,EHGR 041025Z AUTO VRB09KT 9999 OVC160 08/M04 Q1029 BLU NOSIG
EHHW,2023-04-04T09:55:00Z,EHHW 040955Z AUTO 14006KT 080V210 //// // NSC 05/M02 Q1030 RE//
EHJA,2023-04-04T09:55:00Z,EHJA 040955Z AUTO 19005KT 9999 NCD 07/01 Q1029
EHJR,2023-04-04T09:55:00Z,EHJR 040955Z AUTO 20003KT //// // ///////// 08/M01 Q1030 RE// W08/H5
EHKD,2023-04-04T09:55:00Z,EHKD 040955Z AUTO 08005KT 040V110 9999 OVC150 08/M04 Q1030 BLU NOSIG
EHKV,2023-04-04T09:55:00Z,EHKV 040955Z AUTO VRB01KT 9999 FEW031 08/01 Q1030
EHLE,2023-04-04T10:25:00Z,EHLE 041025Z AUTO 08005KT 010V140 9999 NCD 08/M03 Q1030 NOSIG
EHLW,2023-04-04T10:25:00Z,EHLW 041025Z AUTO VRB04KT 9999 SCT160 08/M01 Q1030 BLU
EHMG,2023-04-04T09:55:00Z,EHMG 040955Z AUTO VRB02KT 9999 NSC 06/00 Q1030
EHPG,2023-04-04T09:55:00Z,EHPG 040955Z AUTO 10004KT 350V160 9999 NSC 06/M02 Q1029
EHRD,2023-04-04T10:25:00Z,EHRD 041025Z AUTO 10005KT 040V140 9999 NSC 08/M01 Q1029 NOSIG
EHSA,2023-04-04T09:55:00Z,EHSA 040955Z AUTO 09007KT 9999 ///////// 06/M03 Q1029 W07/H6
EHSC,2023-04-04T09:55:00Z,EHSC 040955Z AUTO 11005KT 9999 ///////// 06/M04 Q1031 W09/H5
EHVK,2023-04-04T10:25:00Z,EHVK 041025Z AUTO 07009KT 360V100 9999 OVC160 07/M03 Q1029 BLU NOSIG
EHVL,2023-04-04T10:25:00Z,EHVL 041025Z AUTO 31003KT 270V340 9999 OVC150 08/02 Q1030 BLU
EHWO,2023-04-04T10:25:00Z,EHWO 041025Z AUTO 10007KT 050V170 9999 OVC160 07/M03 Q1029 BLU NOSIG
EICK,2023-04-04T10:00:00Z,EICK 041000Z 17009KT 9999 BKN012 09/07 Q1023 TEMPO SCT012
EIDL,2023-04-04T10:00:00Z,EIDL 041000Z 18022KT 9999 BKN020 10/05 Q1019
EIDW,2023-04-04T10:00:00Z,EIDW 041000Z VRB02KT 9999 FEW012 BKN060 10/04 Q1023 NOSIG
EIKN,2023-04-04T10:00:00Z,EIKN 041000Z 18017KT 9999 SCT013 BKN024 10/07 Q1019 NOSIG
EIKY,2023-04-04T10:00:00Z,EIKY 041000Z 18011KT 150V210 9999 BKN029 11/08 Q1022
EIME,2023-04-04T10:00:00Z,EIME 041000Z 21010KT 9999 FEW018 BKN070 10/04 Q1023
EINN,2023-04-04T10:00:00Z,EINN 041000Z 17015KT 9999 SCT018 BKN022 11/07 Q1022 NOSIG
EISG,2023-04-04T10:00:00Z,EISG 041000Z 16013KT 9999 SCT018 10/06 Q1019
EIWF,2023-04-04T10:00:00Z,EIWF 041000Z 20013KT 9999 BKN018 10/07 Q1025
EKAH,2023-04-04T10:20:00Z,EKAH 041020Z AUTO 29010KT 9999 SCT100/// 08/M05 Q1029
EKBI,2023-04-04T10:20:00Z,EKBI 041020Z AUTO 30005KT 250V350 9999 BKN140/// 07/M02 Q1030
EKCH,2023-04-04T10:20:00Z,EKCH 041020Z AUTO 03004KT 350V100 9999 FEW041/// SCT047/// 06/M01 Q1029 NOSIG
EKEB,2023-04-04T10:20:00Z,EKEB 041020Z AUTO 31004KT 260V360 9999 FEW039/// BKN160/// 07/M01 Q1030
EKKA,2023-04-04T10:20:00Z,EKKA 041020Z AUTO 32008KT 290V350 9999 FEW038/// FEW130/// BKN150/// 07/M04 Q1029 NOSIG
EKOD,2023-04-04T10:20:00Z,EKOD 041020Z 29005KT 250V330 CAVOK 06/M05 Q1030
EKRK,2023-04-04T10:20:00Z,EKRK 041020Z AUTO 34008KT 310V030 9999 NCD 06/M04 Q1029
EKRN,2023-04-04T10:20:00Z,EKRN 041020Z AUTO 33008KT 290V040 9999 NCD 06/M06 Q1027
EKRS,2023-04-04T10:20:00Z,EKRS 041020Z AUTO VRB06KT 9999 FEW045/// 07/M03 Q1029
EKSB,2023-04-04T10:20:00Z,EKSB 041020Z VRB03KT CAVOK 06/M05 Q1030
EKSP,2023-04-04T10:20:00Z,EKSP 041020Z 25003KT CAVOK 06/M04 Q1030 NOSIG RMK FEW140 BKN170
EKVD,2023-04-04T09:50:00Z,EKVD 040950Z 28005KT 230V320 9999 BKN150 06/M02 Q1030
EKVG,2023-04-04T10:20:00Z,EKVG 041020Z AUTO 16012KT 6000 OVC003/// 08/08 Q1013 RMK OVC003/// WIND SKEID 14020KT 100V170
EKVJ,2023-04-04T09:50:00Z,EKVJ 040950Z 27009KT 9999 FEW030 BKN180 06/// Q1030
EKYT,2023-04-04T10:20:00Z,EKYT 041020Z AUTO 31009KT 280V340 9999 NCD 08/01 Q1029
ELLX,2023-04-04T10:20:00Z,ELLX 041020Z 05011KT 030V090 CAVOK 03/M06 Q1025 NOSIG
ENAL,2023-04-04T09:50:00Z,ENAL 040950Z VRB02KT CAVOK 07/01 Q1028
ENAN,2023-04-04T10:20:00Z,ENAN 041020Z 24009KT 200V270 9999 VCSH SCT022 BKN031 03/M01 Q1025
ENAT,2023-04-04T10:20:00Z,ENAT 041020Z 32006KT 9999 SCT023 SCT055 03/M01 Q1022 RMK WIND 700FT 29012KT
ENBL,2023-04-04T10:20:00Z,ENBL 041020Z 20004KT 130V250 CAVOK 07/M04 Q1027
ENBN,2023-04-04T10:20:00Z,ENBN 041020Z 16006KT 100V190 CAVOK 09/01 Q1029
ENBO,2023-04-04T10:20:00Z,ENBO 041020Z 22008KT 9999 FEW010 SCT020 BKN030 05/03 Q1028 NOSIG
ENBR,2023-04-04T10:20:00Z,ENBR 041020Z 19008KT 150V220 9999 FEW025 07/M02 Q1029 NOSIG RMK WIND 1200FT 14015KT
ENBS,2023-04-04T10:20:00Z,ENBS 041020Z 28026KT 9999 NSC 02/M02 Q1017
ENBV,2023-04-04T10:20:00Z,ENBV 041020Z 25021KT 9999 FEW028 BKN050 03/M01 Q1018
ENCN,2023-04-04T10:20:00Z,ENCN 041020Z 20008KT CAVOK 07/M01 Q1029
ENDR,2023-04-04T10:20:00Z,ENDR 041020Z AUTO 21012KT 9999NDV FEW019/// 05/01 Q1028 W///S3
ENDU,2023-04-04T10:20:00Z,ENDU 041020Z VRB03KT 9999 VCSH FEW020 SCT035 BKN045 04/M00 Q1025 NOSIG RMK WIND 1100FT 26009KT WIND 2200FT 26011KT
ENEV,2023-04-04T10:20:00Z,ENEV 041020Z 27005KT 210V320 9999 BKN043 04/01 Q1027 RMK WIND 1400FT 23011KT
ENFB,2023-04-04T10:20:00Z,ENFB 041020Z AUTO 17030KT 9999NDV OVC024/// ///// Q//// W///S4
ENFL,2023-04-04T10:20:00Z,ENFL 041020Z 15008KT CAVOK 08/M02 Q1028
ENGC,2023-04-04T10:20:00Z,ENGC 041020Z 18027KT 9999 BKN025 06/00 Q1025 W06/S5
ENGM,2023-04-04T10:20:00Z,ENGM 041020Z VRB01KT CAVOK 06/M07 Q1029 NOSIG
ENHD,2023-04-04T10:20:00Z,ENHD 041020Z 13006KT 070V190 9999 FEW025 07/M01 Q1029
ENHE,2023-04-04T10:20:00Z,ENHE 041020Z 21019KT 9999 FEW015 BKN045 06/03 Q1026 W///S3
ENHF,2023-04-04T10:20:00Z,ENHF 041020Z 27015KT 9999 VCSH SCT018 BKN025 02/M02 Q1020 RMK WIND 1254FT 29032KT
ENHK,2023-04-04T10:20:00Z,ENHK 041020Z 28020KT 9999 -DZRA BKN011 02/M00 Q1022
ENHM,2023-04-04T10:20:00Z,ENHM 041020Z AUTO 16023KT //// FEW022/// BKN026/// 06/05 Q1025 W08/S/
ENHV,2023-04-04T10:20:00Z,ENHV 041020Z 26018KT 9999 SCT017 BKN027 03/M01 Q1019
ENJS,2023-04-04T09:50:00Z,ENJS 040950Z 17019KT 9999 BKN025 06/02 Q1027 W07/S/
ENKB,2023-04-04T10:20:00Z,ENKB 041020Z 06007KT 050V130 CAVOK 06/M01 Q1028 RMK WIND 745FT 09006KT
ENKR,2023-04-04T10:20:00Z,ENKR 041020Z 23007KT CAVOK 02/M04 Q1020 RMK WIND 731FT 26017KT
ENLA,2023-04-04T10:20:00Z,ENLA 041020Z AUTO 19016KT 9999NDV BKN022/// 06/01 Q1027 W///S3
ENLE,2023-04-04T10:20:00Z,ENLE 041020Z 20013KT 9999 FEW020 05/00 Q1029 W07/S3
ENLK,2023-04-04T10:20:00Z,ENLK 041020Z 15004KT 9999 VCSH FEW030 BKN050 05/03 Q1027
ENMH,2023-04-04T10:20:00Z,ENMH 041020Z 26018KT 9999 -SHRA FEW012 BKN025 03/01 Q1018
ENML,2023-04-04T10:20:00Z,ENML 041020Z VRB02KT CAVOK 10/M01 Q1028
ENMS,2023-04-04T10:20:00Z,ENMS 041020Z AUTO 15007KT 120V170 9999 NCD 06/M02 Q1028 RMK WIND 412FT VRB04KT
ENNA,2023-04-04T10:20:00Z,ENNA 041020Z 28008KT 240V340 9999 SCT028 BKN042 04/M02 Q1022 RMK WIND 1800FT 29026KT
ENNE,2023-04-04T10:20:00Z,ENNE 041020Z 20019KT 9999 SCT010 BKN025 06/04 Q1026 W///S3
ENNM,2023-04-04T10:20:00Z,ENNM 041020Z 06007KT 9999 VCSH SCT012 BKN015 03/02 Q1029
ENNO,2023-04-04T10:20:00Z,ENNO 041020Z 00000KT CAVOK 07/M05 Q1030
ENOA,2023-04-04T10:20:00Z,ENOA 041020Z 17023KT 9999 BKN025 07/01 Q1026 W///S4
ENOL,2023-04-04T10:20:00Z,ENOL 041020Z 09003KT CAVOK 07/M00 Q1029 NOSIG
ENOV,2023-04-04T10:20:00Z,ENOV 041020Z 09003KT CAVOK 07/M03 Q1027 RMK WIND RWY24 VRB02KT WIND 2090FT 16006KT
ENQA,2023-04-04T10:20:00Z,ENQA 041020Z AUTO 17023KT 9999NDV OVC023/// 05/M01 Q1027 W11/S4
ENQC,2023-04-04T10:20:00Z,ENQC 041020Z AUTO 17024KT 9999NDV OVC021/// 05/00 Q1026 W///S4
ENQR,2023-04-04T10:20:00Z,ENQR 041020Z AUTO 16027KT 9999NDV BKN029/// 07/00 Q1024 W08/S4
ENRA,2023-04-04T10:20:00Z,ENRA 041020Z VRB02KT 9999 SCT013 BKN018 04/01 Q1028
ENRM,2023-04-04T10:20:00Z,ENRM 041020Z AUTO 13004KT 9999 -DZRA BKN005/// OVC008/// 05/03 Q1029
ENRO,2023-04-04T09:50:00Z,ENRO 040950Z VRB02KT 9999 BKN044 04/M09 Q1027
ENRS,2023-04-04T10:20:00Z,ENRS 041020Z 21007KT 9999 FEW030 BKN050 06/03 Q1027
ENRY,2023-04-04T10:20:00Z,ENRY 041020Z 33005KT 290V030 CAVOK 07/M04 Q1029 NOSIG
ENSB,2023-04-04T10:20:00Z,ENSB 041020Z 09016KT 9999 DRSN FEW020 M16/M22 Q1024 NOSIG RMK WIND 1400FT 13010KT
ENSD,2023-04-04T10:20:00Z,ENSD 041020Z VRB03KT CAVOK 07/M02 Q1028 RMK WIND RWY26 VRB02KT WIND 1140FT VRB03KT
ENSE,2023-04-04T10:20:00Z,ENSE 041020Z AUTO 18029KT //// BKN028/// 07/01 Q1025 W///S/
ENSF,2023-04-04T10:20:00Z,ENSF 041020Z AUTO 18028KT 9999NDV OVC024/// ///// Q//// W///S4
ENSG,2023-04-04T10:20:00Z,ENSG 041020Z 10004KT 050V140 CAVOK 04/M06 Q1027 RMK WIND 3806FT 09009KT
ENSH,2023-04-04T10:20:00Z,ENSH 041020Z 00000KT 9999 FEW023 BKN050 04/01 Q1027 RMK WIND 0150FT VRB01KT
ENSK,2023-04-04T10:20:00Z,ENSK 041020Z 17005KT 9999 VCSH FEW014 BKN027 03/01 Q1027
ENSL,2023-04-04T10:20:00Z,ENSL 041020Z AUTO 20020KT 9999NDV BKN018/// 07/04 Q1026 W05/S3
ENSO,2023-04-04T10:20:00Z,ENSO 041020Z 15006KT 120V220 9999 FEW040 08/M03 Q1029
ENSR,2023-04-04T10:20:00Z,ENSR 041020Z 28008KT 200V320 9999 FEW017 SCT047 06/M02 Q1023 RMK WIND RWY32 26009KT WIND 1118FT 26018KT
ENSS,2023-04-04T10:20:00Z,ENSS 041020Z 25012KT 9999 NSC 02/M02 Q1019 RMK WIND 0500FT 26018KT
ENST,2023-04-04T10:20:00Z,ENST 041020Z 02005KT 9999 FEW030 05/01 Q1028 RMK WIND 300FT 35005KT
ENTC,2023-04-04T10:20:00Z,ENTC 041020Z 29006KT 9999 VCSH FEW007 SCT017 BKN026 02/M00 Q1025 NOSIG RMK WIND 2600FT 25017G28KT
ENTO,2023-04-04T10:20:00Z,ENTO 041020Z 01007KT 340V040 CAVOK 06/M04 Q1029 NOSIG
ENUG,2023-04-04T10:20:00Z,ENUG 041020Z AUTO 27024KT 230V290 9999NDV FEW017/// SCT027/// BKN043/// 05/00 Q1018 W///S5
ENUN,2023-04-04T10:20:00Z,ENUN 041020Z AUTO 20017KT 9999NDV FEW011/// BKN037/// BKN100/// 07/05 Q1024 W06/S3
ENVA,2023-04-04T10:20:00Z,ENVA 041020Z 06003KT 020V090 CAVOK 09/M02 Q1029 NOSIG RMK WIND 670FT 06005KT
ENVD,2023-04-04T10:20:00Z,ENVD 041020Z 26013KT CAVOK 03/M01 Q1019
ENWV,2023-04-04T10:20:00Z,ENWV 041020Z AUTO 20011KT 130V240 9999NDV NCD 06/M01 Q1029 W///S3
ENZV,2023-04-04T10:20:00Z,ENZV 041020Z 20006KT 150V240 9999 FEW028 08/M00 Q1029
EPBY,2023-04-04T10:00:00Z,EPBY 041000Z 33010KT 9999 SCT041 BKN047 03/M07 Q1026
EPGD,2023-04-04T10:00:00Z,EPGD 041000Z 36010KT 330V040 9999 BKN035 02/M07 Q1024
EPKK,2023-04-04T10:00:00Z,EPKK 041000Z 03009KT 350V050 9999 BKN040 03/M08 Q1022
EPKT,2023-04-04T10:00:00Z,EPKT 041000Z 36009KT 320V040 9999 FEW029 BKN034 02/M07 Q1023
EPLB,2023-04-04T10:00:00Z,EPLB 041000Z 32009KT 9999 FEW040 SCT047 03/M06 Q1021
EPLL,2023-04-04T10:00:00Z,EPLL 041000Z 32007KT 280V020 9999 BKN031 00/M07 Q1024
EPMO,2023-04-04T10:00:00Z,EPMO 041000Z 32008KT 260V360 9999 BKN035 02/M07 Q1023
EPPO,2023-04-04T10:00:00Z,EPPO 041000Z 35009KT 9999 OVC043 02/M07 Q1027
EPRA,2023-04-04T10:00:00Z,EPRA 041000Z 35008KT 9999 BKN035 02/M04 Q1022
EPRZ,2023-04-04T10:00:00Z,EPRZ 041000Z 36011KT 9999 FEW046CB 03/M07 Q1021
EPSC,2023-04-04T10:00:00Z,EPSC 041000Z 31008KT 260V340 9999 SCT031 05/M04 Q1028
EPSY,2023-04-04T10:00:00Z,EPSY 041000Z 36010KT 330V030 9999 BKN025CB 01/M05 Q1023
EPWA,2023-04-04T10:00:00Z,EPWA 041000Z 34009KT 9999 BKN037 02/M06 Q1023 NOSIG
EPWR,2023-04-04T10:00:00Z,EPWR 041000Z 36009KT 330V030 9999 BKN039 01/M08 Q1027
EPZG,2023-04-04T10:00:00Z,EPZG 041000Z 03007KT 340V070 9999 BKN044 04/M07 Q1028
ESCF,2023-04-04T10:20:00Z,ESCF 041020Z 26003KT 9999 SCT044 BKN078 02/M04 Q1028
ESCM,2023-04-04T10:20:00Z,ESCM 041020Z 08004KT CAVOK 02/M04 Q1028
ESDF,2023-04-04T10:20:00Z,ESDF 041020Z 33009KT 300V020 CAVOK 07/M04 Q1026
ESGG,2023-04-04T10:20:00Z,ESGG 041020Z 02004KT 340V090 9999 FEW025 06/M04 Q1027
ESGJ,2023-04-04T10:20:00Z,ESGJ 041020Z 02005KT 360V080 CAVOK 04/M04 Q1027
ESGP,2023-04-04T10:20:00Z,ESGP 041020Z VRB01KT 9999 FEW030 08/M00 Q1028
ESGT,2023-04-04T10:20:00Z,ESGT 041020Z 34006KT 320V020 CAVOK 05/M00 Q1029
ESIA,2023-04-04T10:20:00Z,ESIA 041020Z 34004KT 290V030 CAVOK 04/M04 Q1028
ESIB,2023-04-04T10:20:00Z,ESIB 041020Z 03004KT 350V080 CAVOK 04/00 Q1029
ESKM,2023-04-04T10:20:00Z,ESKM 041020Z AUTO VRB03KT 9999 FEW038/// BKN061/// 06/M03 Q1028
ESKN,2023-04-04T10:20:00Z,ESKN 041020Z 03005KT 350V060 9999 SCT049 BKN070 02/M09 Q1028
ESKS,2023-04-04T10:20:00Z,ESKS 041020Z AUTO 29003KT 9999 NCD 04/M07 Q1027
ESMK,2023-04-04T10:20:00Z,ESMK 041020Z 32008KT 290V350 CAVOK 09/M05 Q1027
ESMQ,2023-04-04T10:20:00Z,ESMQ 041020Z 05012KT CAVOK 05/M05 Q1027
ESMS,2023-04-04T10:20:00Z,ESMS 041020Z 32009KT 280V360 CAVOK 06/M06 Q1028
ESMT,2023-04-04T10:20:00Z,ESMT 041020Z 32007KT 290V010 CAVOK 07/M02 Q1028
ESMX,2023-04-04T10:20:00Z,ESMX 041020Z 34009KT 310V010 CAVOK 07/M06 Q1026
ESND,2023-04-04T10:20:00Z,ESND 041020Z AUTO 25005KT 9999 BKN028/// OVC074/// 04/M02 Q1027
ESNG,2023-04-04T10:20:00Z,ESNG 041020Z AUTO 31008KT 280V340 9999 FEW043/// 06/M04 Q1024
ESNK,2023-04-04T10:20:00Z,ESNK 041020Z AUTO 00000KT 9999 NCD 06/M02 Q1028
ESNL,2023-04-04T10:20:00Z,ESNL 041020Z AUTO 30008KT 9999 NCD 05/M02 Q1026
ESNN,2023-04-04T10:20:00Z,ESNN 041020Z 32005KT 9999 FEW042 07/M02 Q1028
ESNO,2023-04-04T10:20:00Z,ESNO 041020Z AUTO 33004KT 290V010 9999 BKN059/// 06/M02 Q1027
ESNQ,2023-04-04T10:20:00Z,ESNQ 041020Z AUTO 21004KT 9999 NCD 04/M05 Q1023
ESNS,2023-04-04T10:20:00Z,ESNS 041020Z VRB02KT CAVOK 06/M04 Q1026
ESNU,2023-04-04T10:20:00Z,ESNU 041020Z 11005KT CAVOK 04/M03 Q1027
ESNV,2023-04-04T10:20:00Z,ESNV 041020Z AUTO 24003KT 9999 OVC057/// 03/M04 Q1027
ESNX,2023-04-04T10:20:00Z,ESNX 041020Z AUTO 26007KT 9999 BKN040/// 05/M03 Q1025
ESNZ,2023-04-04T10:20:00Z,ESNZ 041020Z 27007KT 9999 FEW025 04/M00 Q1027
ESOE,2023-04-04T10:20:00Z,ESOE 041020Z AUTO VRB03KT 9999 R01///// R19///// OVC045/// 03/M03 Q1028
ESOH,2023-04-04T10:20:00Z,ESOH 041020Z 36005KT 320V030 9999 SCT066 07/M03 Q1028
ESOK,2023-04-04T10:20:00Z,ESOK 041020Z 34003KT 290V020 CAVOK 06/M05 Q1028
ESOW,2023-04-04T10:20:00Z,ESOW 041020Z 36004KT 310V060 CAVOK 04/M04 Q1028
ESPA,2023-04-04T10:20:00Z,ESPA 041020Z 14006KT CAVOK M00/M05 Q1027
ESPE,2023-04-04T10:20:00Z,ESPE 041020Z AUTO 00000KT 9999 NCD 06/M03 Q1026
ESSA,2023-04-04T10:20:00Z,ESSA 041020Z 10007KT 060V120 9999 BKN047 OVC055 02/M08 Q1027 NOSIG
ESSB,2023-04-04T10:20:00Z,ESSB 041020Z VRB02KT 9999 FEW047 03/M07 Q1028
ESSD,2023-04-04T10:20:00Z,ESSD 041020Z 30008KT 9999 OVC040 05/M02 Q1027
ESSL,2023-04-04T10:20:00Z,ESSL 041020Z 00000KT 9999 SCT045 03/M05 Q1028
ESSP,2023-04-04T10:20:00Z,ESSP 041020Z 22002KT CAVOK 03/M06 Q1028
ESST,2023-04-04T10:20:00Z,ESST 041020Z AUTO 30004KT 260V350 9999 NCD 08/M04 Q1028
ESSV,2023-04-04T10:20:00Z,ESSV 041020Z 35012KT 9999 FEW034 02/M03 Q1026
ESTA,2023-04-04T10:20:00Z,ESTA 041020Z 29010KT CAVOK 07/M02 Q1028
ESTL,2023-04-04T10:20:00Z,ESTL 041020Z 29010KT CAVOK 07/M04 Q1028
ESUP,2023-04-04T10:20:00Z,ESUP 041020Z AUTO 22004KT 160V270 9999 NCD 04/M05 Q1025
ESUT,2023-04-04T10:20:00Z,ESUT 041020Z 35004KT 9999 OVC017 02/M01 Q1027
ETAD,2023-04-04T09:55:00Z,ETAD 040955Z AUTO 06011KT 9999 CLR 04/M06 A3027 RMK AO2 SLP253 T00441062
ETAR,2023-04-04T09:55:00Z,ETAR 040955Z 03011KT 9999 CLR 02/M04 A3030 RMK AO2A SLPNO ALSTG ESTMD RVRNO PWINO PNO FZRANO TSNO VISNO RWY26 CHINO RWY26
ETEB,2023-04-04T09:55:00Z,ETEB 040955Z AUTO 06010KT 9999 BKN042 02/M08 A3026 RMK AO2 SLP278 T00161082 $
ETGG,2023-04-04T10:20:00Z,ETGG 041020Z AUTO 29004KT 9999 // ////// 05/M06 Q1030 ///
ETHA,2023-04-04T10:20:00Z,ETHA 041020Z 08014KT 9999 SCT037 00/M09 Q1021 BLU+BLU+ TEMPO BLU
ETHB,2023-04-04T10:20:00Z,ETHB 041020Z 05007KT 9999 FEW042 05/M05 Q1029 BLU+BLU+
ETHC,2023-04-04T10:20:00Z,ETHC 041020Z 01005KT 9999 FEW045 SCT130 05/M08 Q1030 BLU+BLU+
ETHF,2023-04-04T10:20:00Z,ETHF 041020Z 01004KT 9999 FEW040 04/M06 Q1028 BLU+BLU+
ETHL,2023-04-04T10:20:00Z,ETHL 041020Z 06014KT 9999 SCT040 03/M07 Q1022 BLU+BLU+
ETHN,2023-04-04T10:20:00Z,ETHN 041020Z 08007KT 9999 SCT040 03/M07 Q1025 BLU+BLU+
ETHS,2023-04-04T10:20:00Z,ETHS 041020Z 08006KT 9999 FEW052 SCT220 05/M08 Q1029 BLACKBLU+BLU+
ETIC,2023-04-04T09:55:00Z,ETIC 040955Z AUTO 08005KT 9999 BKN030 OVC036 02/M06 A3026 RMK AO2 SLP264 T00171059 $
ETIK,2023-04-04T09:55:00Z,ETIK 040955Z 10007KT 9999 SCT046 03/M06 A3029 RMK AO2A SLP272 T00331056 FZRANO
ETMN,2023-04-04T10:20:00Z,ETMN 041020Z 05008KT 9999 FEW040 BKN130 BKN180 05/M11 Q1030 BLU BLU
ETND,2023-04-04T10:20:00Z,ETND 041020Z 10003KT 9999 FEW040 SCT250 07/M05 Q1030 BLU+
ETNG,2023-04-04T09:50:00Z,ETNG 040950Z 08010KT CAVOK 06/M03 Q1028 NOSIG
ETNH,2023-04-04T10:20:00Z,ETNH 041020Z 14003KT 9999 BKN120 06/M09 Q1030 BLU BLU
ETNL,2023-04-04T10:20:00Z,ETNL 041020Z 35010KT 9999 FEW038 BKN130 05/M04 Q1029 BLU BLU
ETNN,2023-04-04T10:20:00Z,ETNN 041020Z 07007KT 9999 FEW220 05/M06 Q1028 BLU+BLU+
ETNS,2023-04-04T10:20:00Z,ETNS 041020Z 22002KT 9999 BKN110 06/M09 Q1030 BLU BLU
ETNT,2023-04-04T10:20:00Z,ETNT 041020Z 09005KT 9999 FEW030 BKN140 06/M04 Q1030 BLACKBLU
ETNW,2023-04-04T10:20:00Z,ETNW 041020Z 20004KT 9999 FEW040 SCT260 05/M05 Q1029 BLU+BLU+
ETOU,2023-04-04T09:55:00Z,ETOU 040955Z COR AUTO 03005KT 9999 CLR 05/M06 A3034 RMK AO2 SLP281 T00491298 $ COR 1015
ETSB,2023-04-04T10:20:00Z,ETSB 041020Z 09010KT 9999 FEW030 SCT220 02/M06 Q1025 BLU+BLU+
ETSH,2023-04-04T10:20:00Z,ETSH 041020Z 08005KT 9999 FEW038 04/M07 Q1028 BLU+BLU+
ETSI,2023-04-04T10:20:00Z,ETSI 041020Z 08006KT 9999 BKN045 02/M09 Q1024 BLU BLU+ TEMPO BLU
ETSL,2023-04-04T10:20:00Z,ETSL 041020Z 06013KT 9999 SCT040 02/M09 Q1023 BLU+BLU+
ETSN,2023-04-04T10:20:00Z,ETSN 041020Z 09009KT 9999 SCT045 03/M08 Q1024 BLU+BLU+
ETWM,2023-04-04T10:20:00Z,ETWM 041020Z 04005KT 9999 FEW050 06/M08 Q1029 BLU+
EVGA,2023-04-04T10:20:00Z,EVGA 041020Z 02011KT 9999 OVC027 01/M04 Q1021 NOSIG
EVLA,2023-04-04T10:20:00Z,EVLA 041020Z AUTO 33010G22KT 280V010 9999 FEW047/// 03/M07 Q1024
EVRA,2023-04-04T10:20:00Z,EVRA 041020Z 34011KT 9999 FEW027 BKN032 01/M05 Q1022 NOSIG
EVVA,2023-04-04T10:20:00Z,EVVA 041020Z AUTO 36013KT CAVOK 03/M07 Q1024
EYKA,2023-04-04T10:20:00Z,EYKA 041020Z 35006KT 320V030 7000 -SN OVC011 00/M02 Q1021
EYPA,2023-04-04T10:20:00Z,EYPA 041020Z 32006KT 250V020 CAVOK 04/M05 Q1024
EYSA,2023-04-04T10:20:00Z,EYSA 041020Z 01010KT 340V040 9999 FEW021 SCT024 OVC030 00/M04 Q1022 NOSIG
EYVI,2023-04-04T10:20:00Z,EYVI 041020Z 34005KT 3200 -SN BR OVC010 M00/M02 Q1020 TEMPO 1500 SN
FABL,2023-04-04T10:00:00Z,FABL 041000Z 12004KT 060V190 CAVOK 21/06 Q1022 NOSIG
FACT,2023-04-04T10:00:00Z,FACT 041000Z 22005KT 150V290 CAVOK 23/13 Q1019 NOSIG
FAEL,2023-04-04T10:00:00Z,FAEL 041000Z 24006KT 190V290 9999 FEW015 BKN033 22/15 Q1021
FAGG,2023-04-04T10:00:00Z,FAGG 041000Z 17006KT 130V200 9999 FEW035 22/14 Q1020
FAHS,2023-04-04T10:00:00Z,FAHS 041000Z AUTO 16010KT //// // ////// 28/24 Q1019
FAKM,2023-04-04T10:00:00Z,FAKM 041000Z 18006KT CAVOK 23/05 Q1022
FAKN,2023-04-04T10:00:00Z,FAKN 041000Z 08007KT 9999 SCT020 BKN030 22/13 Q1022 NOSIG
FALA,2023-04-04T10:00:00Z,FALA 041000Z VRB04KT 9999 FEW040 23/05 Q1022 NOSIG
FALE,2023-04-04T10:00:00Z,FALE 041000Z 16013KT 9999 FEW040 25/15 Q1018 NOSIG
FALW,2023-04-04T10:00:00Z,FALW 041000Z AUTO 23005KT //// // ////// 25/12 Q1018
FAMM,2023-04-04T10:00:00Z,FAMM 041000Z AUTO 20005KT //// // ////// 26/M01 Q1021
FAOR,2023-04-04T10:00:00Z,FAOR 041000Z VRB03KT 9999 SCT048 22/08 Q1023 NOSIG
FAPE,2023-04-04T10:00:00Z,FAPE 041000Z 22009KT 190V260 CAVOK 24/13 Q1020 NOSIG
FAPN,2023-04-04T10:00:00Z,FAPN 041000Z AUTO 16004KT //// // ////// 27/14 Q1019
FAPP,2023-04-04T10:00:00Z,FAPP 041000Z 05011KT 9999 SCT025 25/14 Q1022 NOSIG
FASI,2023-04-04T10:00:00Z,FASI 041000Z AUTO 03002KT //// // ////// 23/08 Q1026
FAUP,2023-04-04T10:00:00Z,FAUP 041000Z 07004KT CAVOK 27/03 Q1020 NOSIG
FAUT,2023-04-04T10:00:00Z,FAUT 041000Z 20008KT 9999 BKN015 18/11 Q1023
FAVV,2023-04-04T10:00:00Z,FAVV 041000Z AUTO 14004KT //// // ////// 21/10 Q1024
FAWB,2023-04-04T10:00:00Z,FAWB 041000Z AUTO 32002KT //// // ////// 24/13 Q1020
FBKE,2023-04-04T10:00:00Z,FBKE 041000Z 10005KT 060V160 9999 SCT030 29/17 Q1018
FBMN,2023-04-04T10:00:00Z,FBMN 041000Z 33004KT 9999 FEW030 31/16 Q1018
FBPM,2023-04-04T10:00:00Z,FBPM 041000Z VRB07KT 9999 SCT030 31/11 Q1018
FBSK,2023-04-04T10:00:00Z,FBSK 041000Z VRB02KT 9999 FEW030 27/14 Q1018 NOSIG
FDBB,2023-04-04T10:00:00Z,FDBB 041000Z AUTO 19006KT //// // ////// 25/18 Q1017
FDMY,2023-04-04T10:00:00Z,FDMY 041000Z AUTO 23003KT //// // ////// 26/15 Q1029
FDPP,2023-04-04T10:00:00Z,FDPP 041000Z AUTO 18006KT //// // ////// ///// Q1025
FDSK,2023-04-04T10:00:00Z,FDSK 041000Z 17012KT 9999 BKN035 FEW040CB 22/13 Q1020 TEMPO 8000 -TSRA
FDST,2023-04-04T10:00:00Z,FDST 041000Z AUTO 05008KT //// // ////// 21/15 Q1018
FIMP,2023-04-04T10:00:00Z,FIMP 041000Z 15004KT 9999 TS FEW014CB SCT015 SCT250 29/23 Q1013
FJDG,2023-04-04T09:55:00Z,FJDG 040955Z VRB05KT 9999 SCT024 SCT220 30/24 A2976 RMK SLP075 T03000244
FMCZ,2023-04-04T10:00:00Z,FMCZ 041000Z AUTO 06012KT 9999 FEW024/// BKN210/// ///TCU 30/25 Q1011 TEMPO 4000 TSRA SCT015CB
FMEE,2023-04-04T10:00:00Z,FMEE 041000Z AUTO 04005KT 9999 ///CB 31/23 Q1012 BECMG NSC
FMEP,2023-04-04T10:00:00Z,FMEP 041000Z AUTO 14008KT 9999 FEW018/// BKN056/// BKN078/// ///CB 29/24 Q1012 TEMPO SHRA BECMG NSC
FMMI,2023-04-04T10:00:00Z,FMMI 041000Z 08006KT 040V150 9999 BKN020CB 27/18 Q1017 NOSIG
FMMT,2023-04-04T10:00:00Z,FMMT 041000Z 01004KT 300V100 9999 SCT017TCU SCT040 31/23 Q1012 NOSIG
FMNA,2023-04-04T10:00:00Z,FMNA 041000Z 00000KT 9999 SCT020 32/21 Q1010
FMNM,2023-04-04T10:00:00Z,FMNM 041000Z 03005KT 320V120 9999 FEW017CB 33/24 Q1010 NOSIG
FMNN,2023-04-04T10:00:00Z,FMNN 041000Z 02004KT 9999 SCT020 BKN250 31/// Q1010
FMSD,2023-04-04T10:00:00Z,FMSD 041000Z 10015KT 9999 FEW023 30/23 Q1011
FNLU,2023-04-04T10:00:00Z,FNLU 041000Z 29007KT 9999 SCT020 BKN080 29/24 Q1009 NOSIG
FOOG,2023-04-04T10:00:00Z,FOOG 041000Z 19008KT 140V220 9999 SCT011 30/25 Q1009
FQBR,2023-04-04T10:00:00Z,FQBR 041000Z 13006KT 9999 SCT018 30/22 Q1013
FQCH,2023-04-04T10:00:00Z,FQCH 041000Z /////KT 9999 SCT020 27/20 Q1018
FQIN,2023-04-04T10:00:00Z,FQIN 041000Z /////KT 9999 SCT020 30/22 Q1014
FQLC,2023-04-04T10:00:00Z,FQLC 041000Z 10006KT 9999 BKN016 FEW020CB 24/16 Q1020 RMK CB TO W
FQMA,2023-04-04T10:00:00Z,FQMA 041000Z 19015KT 9999 SCT020 28/18 Q1016 NOSIG
FQNC,2023-04-04T10:00:00Z,FQNC 041000Z 19007KT 9999 TS BKN020 FEW025CB SCT100 28/24 Q1012 RMK CB TO N
FQNP,2023-04-04T10:00:00Z,FQNP 041000Z 21006KT 9999 BKN020 28/21 Q1015
FQPB,2023-04-04T10:00:00Z,FQPB 041000Z 15012KT 120V190 9999 FEW020 FEW025CB SCT100 30/25 Q1012 RMK CB TO NE/E/SE/S
FQQL,2023-04-04T10:00:00Z,FQQL 041000Z 18003KT 9999 SCT020 30/21 Q1013
FQVL,2023-04-04T10:00:00Z,FQVL 041000Z /////KT 9999 FEW020 30/23 Q1013
FQXA,2023-04-04T10:00:00Z,FQXA 041000Z 18011KT 9999 BKN020 25/21 Q1017
FSIA,2023-04-04T10:00:00Z,FSIA 041000Z 01005KT 340V040 9999 SCT023 30/23 Q1009 NOSIG
FTTA,2023-04-04T10:00:00Z,FTTA 041000Z 21007KT CAVOK 36/14 Q1009
FTTJ,2023-04-04T10:00:00Z,FTTJ 041000Z 03011KT 360V070 8000 NSC 39/M05 Q1008 NOSIG
FVFA,2023-04-04T10:00:00Z,FVFA 041000Z 10006KT 050V180 CAVOK 30/14 Q1017 NOSIG
FVJN,2023-04-04T10:00:00Z,FVJN 041000Z 14009KT CAVOK 28/12 Q1021 NOSIG
FVKB,2023-04-04T10:00:00Z,FVKB 041000Z 25009KT 9999 FEW045 32/19 Q1016 NOSIG
FVRG,2023-04-04T10:00:00Z,FVRG 041000Z VRB07KT CAVOK 26/10 Q1022 NOSIG
FWCL,2023-04-04T10:00:00Z,FWCL 041000Z 31008KT 9999 SCT025 BKN080 26/18 Q1017 NOSIG
FWKI,2023-04-04T10:00:00Z,FWKI 041000Z 06003KT 9999 BKN028 26/18 Q1018 NOSIG
FXMM,2023-04-04T10:00:00Z,FXMM 041000Z 04004KT 9999 FEW030 19/09 Q1022
FYGF,2023-04-04T10:00:00Z,FYGF 041000Z AUTO 09008KT //// // ////// 28/14 Q1022
FYKM,2023-04-04T10:00:00Z,FYKM 041000Z 07007KT 9999 FEW025 31/15 Q1016
FYLZ,2023-04-04T10:00:00Z,FYLZ 041000Z AUTO 19007G17KT //// // ////// 29/10 Q1011
FYRU,2023-04-04T10:00:00Z,FYRU 041000Z 09012KT 9999 FEW040 ///// Q////
FYWE,2023-04-04T10:00:00Z,FYWE 041000Z 07010KT 9999 SCT050 28/02 Q1024
FYWH,2023-04-04T10:00:00Z,FYWH 041000Z 00000KT 9999 SCT040 26/10 Q1024 NOSIG
FYWW,2023-04-04T10:00:00Z,FYWW 041000Z 08006KT 9999 SCT045 29/04 Q1023
GABS,2023-04-04T10:00:00Z,GABS 041000Z 23007KT 180V280 CAVOK 33/16 Q1011 NOSIG
GAKD,2023-04-04T10:00:00Z,GAKD 041000Z 30006KT 8000 NSC 34/11 Q1009
GAMB,2023-04-04T10:00:00Z,GAMB 041000Z 16004KT 8000 NSC 37/M02 Q1009
GBYD,2023-04-04T10:00:00Z,GBYD 041000Z 23006KT 9000 NSC 28/22 Q1009
GCFV,2023-04-04T10:00:00Z,GCFV 041000Z 01022KT 9999 FEW030 SCT040 22/10 Q1016
GCGM,2023-04-04T10:00:00Z,GCGM 041000Z VRB10G20KT 9999 FEW025 21/12 Q1018 RMK R09/VRB06G17KT ARP/36015G27KT 320V020
GCHI,2023-04-04T10:00:00Z,GCHI 041000Z 01020G30KT 340V040 9999 FEW025 20/13 Q1019
GCLA,2023-04-04T10:00:00Z,GCLA 041000Z 03017KT 350V050 9999 FEW025 SCT030 20/13 Q1020
GCLP,2023-04-04T10:00:00Z,GCLP 041000Z 02024KT 9999 FEW025 SCT040 22/12 Q1017 NOSIG
GCRR,2023-04-04T10:00:00Z,GCRR 041000Z 34020KT 9999 FEW025 BKN045 18/12 Q1017
GCTS,2023-04-04T10:00:00Z,GCTS 041000Z 09017KT 9999 FEW020 BKN035 21/11 Q1017 NOSIG
GCXO,2023-04-04T10:18:00Z,GCXO 041018Z 33025G41KT 8000 -DZ SCT010 BKN018 15/11 Q1018 NOSIG
GECE,2023-04-04T10:00:00Z,GECE 041000Z AUTO 10008KT 050V140 9999 FEW017/// SCT021/// BKN030/// 17/13 Q1012
GEML,2023-04-04T10:00:00Z,GEML 041000Z 08006KT 040V130 9999 SCT016 18/13 Q1012
GGOV,2023-04-04T10:00:00Z,GGOV 041000Z 32004KT 240V040 6000 FEW010 27/22 Q1010 NOSIG
GLRB,2023-04-04T10:00:00Z,GLRB 041000Z 06005KT 9999 FEW014 27/24 Q1011 NOSIG
GMAD,2023-04-04T10:00:00Z,GMAD 041000Z 21006KT 160V250 8000 SCT013 BKN030 20/13 Q1011 NOSIG
GMAG,2023-04-04T10:00:00Z,GMAG 041000Z 35015KT 5000 SCT016 19/06 Q1012 NOSIG
GMAT,2023-04-04T10:00:00Z,GMAT 041000Z 02020KT 6000 BKN016 19/13 Q1013 NOSIG
GMFB,2023-04-04T10:00:00Z,GMFB 041000Z 22002KT 9999 SCT030 22/M10 Q1013 NOSIG
GMFF,2023-04-04T10:00:00Z,GMFF 041000Z 04006KT 360V070 9999 ////// 17/03 Q1011 NOSIG
GMFK,2023-04-04T10:00:00Z,GMFK 041000Z 10008KT CAVOK 21/M10 Q1012 NOSIG
GMFM,2023-04-04T10:00:00Z,GMFM 041000Z 30006KT 250V010 CAVOK 17/06 Q1011 NOSIG
GMFO,2023-04-04T10:00:00Z,GMFO 041000Z VRB04KT CAVOK 20/M02 Q1012 NOSIG
GMMB,2023-04-04T10:00:00Z,GMMB 041000Z AUTO VRB03KT 9999NDV ////// 20/16 Q1012 NOSIG
GMMC,2023-04-04T10:00:00Z,GMMC 041000Z 32010KT 6000 FEW010 BKN016TCU 17/13 Q1011
GMMD,2023-04-04T10:00:00Z,GMMD 041000Z 18007KT CAVOK 16/05 Q1011 NOSIG
GMME,2023-04-04T10:00:00Z,GMME 041000Z 32004KT 250V010 5000 SCT013 SCT016 19/13 Q1010 NOSIG
GMMH,2023-04-04T10:00:00Z,GMMH 041000Z 06022KT 010V080 8000 SCT013 20/15 Q1015 NOSIG
GMMI,2023-04-04T10:00:00Z,GMMI 041000Z 36013KT 340V040 6000 FEW020 BKN030 16/12 Q1013 NOSIG
GMML,2023-04-04T10:00:00Z,GMML 041000Z 02020KT 8000 OVC020 20/17 Q1015 NOSIG
GMMN,2023-04-04T10:00:00Z,GMMN 041000Z 23005KT 140V300 9999 BKN026 18/11 Q1011 NOSIG
GMMW,2023-04-04T10:00:00Z,GMMW 041000Z 04007KT CAVOK 18/09 Q1011 NOSIG
GMMX,2023-04-04T10:00:00Z,GMMX 041000Z VRB03KT 8000 BKN020 17/11 Q1012 NOSIG
GMMZ,2023-04-04T10:00:00Z,GMMZ 041000Z 07006KT 8000 NSC 21/M04 Q1009 NOSIG
GMTA,2023-04-04T10:00:00Z,GMTA 041000Z 35007KT 320V020 CAVOK 18/09 Q1011 NOSIG
GMTN,2023-04-04T10:00:00Z,GMTN 041000Z 09006KT 060V120 9999 SCT020 BKN200 17/13 Q1012 NOSIG
GMTT,2023-04-04T10:00:00Z,GMTT 041000Z 10006KT 070V130 8000 SCT020 SCT100 18/14 Q1011 NOSIG
GOBD,2023-04-04T09:30:00Z,GOBD 040930Z 25006KT 210V280 6000 NSC 25/22 Q1009 NOSIG
GOGG,2023-04-04T10:00:00Z,GOGG 041000Z 24010KT CAVOK 28/23 Q1010
GOGS,2023-04-04T10:00:00Z,GOGS 041000Z 30006KT 9999 SCT013 27/22 Q1010
GOOD,2023-04-04T10:00:00Z,GOOD 041000Z 28004KT CAVOK 28/22 Q1009
GOOG,2023-04-04T10:00:00Z,GOOG 041000Z 08004KT CAVOK 29/18 Q1006
GOOY,2023-04-04T10:00:00Z,GOOY 041000Z 28008KT 8000 BKN005 25/22 Q1009
GOSP,2023-04-04T10:00:00Z,GOSP 041000Z 00000KT CAVOK 30/15 Q1009
GOSS,2023-04-04T10:00:00Z,GOSS 041000Z 04004KT 350V100 CAVOK 29/19 Q1009
GOTK,2023-04-04T10:00:00Z,GOTK 041000Z 22004KT CAVOK 33/08 Q1009
GOTT,2023-04-04T10:00:00Z,GOTT 041000Z 24008KT CAVOK 32/15 Q1009
GQNO,2023-04-04T10:00:00Z,GQNO 041000Z 04016KT 6000 NSC 31/04 Q1009 NOSIG
GUCY,2023-04-04T10:00:00Z,GUCY 041000Z 34006KT 9999 FEW015 SCT110 30/23 Q1010 NOSIG
GVAC,2023-04-04T10:00:00Z,GVAC 041000Z 05017KT 8000 FEW013 BKN080 24/20 Q1012 NOSIG
GVBA,2023-04-04T10:00:00Z,GVBA 041000Z 03011KT 9000 FEW014 BKN090 25/21 Q1012 NOSIG
GVNP,2023-04-04T10:00:00Z,GVNP 041000Z 03013KT 8000 FEW020 25/18 Q1011 NOSIG
GVSV,2023-04-04T10:00:00Z,GVSV 041000Z 05014KT 9000 FEW016 SCT100 25/19 Q1012 NOSIG
HAAB,2023-04-04T10:00:00Z,HAAB 041000Z 11008KT 9999 BKN025 22/11 Q1025 NOSIG
HBBA,2023-04-04T10:00:00Z,HBBA 041000Z 18010KT 9999 FEW025TCU 28/19 Q1013 NOSIG
HCMF,2023-04-04T10:00:00Z,HCMF 041000Z 05019KT 9999 FEW038 29/26 Q1009
HECA,2023-04-04T10:00:00Z,HECA 041000Z 21016KT CAVOK 31/M05 Q1011 NOSIG
HEIS,2023-04-04T10:00:00Z,HEIS 041000Z 10008KT CAVOK 31/09 Q1010
HESW,2023-04-04T10:00:00Z,HESW 041000Z 26019KT 3000 SA NSC 23/M01 Q1014
HETR,2023-04-04T10:00:00Z,HETR 041000Z 25011KT 9999 FEW025 SCT100 28/09 Q1011
HKEL,2023-04-04T10:00:00Z,HKEL 041000Z 15018KT 9999 FEW022CB BKN023 23/11 Q1023
HKJK,2023-04-04T09:30:00Z,HKJK 040930Z 05006KT 9999 SCT020 BKN220 22/14 Q1021 NOSIG
HKKI,2023-04-04T10:00:00Z,HKKI 041000Z VRB03KT 9999 FEW026CB BKN270 27/19 Q1015
HKML,2023-04-04T10:00:00Z,HKML 041000Z 10007KT 9999 FEW023CB BKN024 33/21 Q1010
HKMO,2023-04-04T09:30:00Z,HKMO 040930Z 16007KT 9999 FEW024CB BKN260 30/22 Q1011 NOSIG
HKNW,2023-04-04T10:00:00Z,HKNW 041000Z 06005KT 9999 FEW025 BKN090 23/13 Q1022
HKWJ,2023-04-04T10:00:00Z,HKWJ 041000Z 10003KT 9999 BKN030 31/22 Q1009
HRYR,2023-04-04T10:00:00Z,HRYR 041000Z VRB03KT 9999 SCT025 SCT100 25/16 Q1019 NOSIG
HSDN,2023-04-04T10:00:00Z,HSDN 041000Z 36007KT CAVOK 35/00 Q1012
HSNN,2023-04-04T10:00:00Z,HSNN 041000Z 10011KT CAVOK 36/M06 Q1012
HSOB,2023-04-04T10:00:00Z,HSOB 041000Z 03007KT CAVOK 36/M06 Q1010
HSSK,2023-04-04T10:00:00Z,HSSK 041000Z 01004KT CAVOK 36/M09 Q1010 NOSIG
HTAR,2023-04-04T10:00:00Z,HTAR 041000Z 24005KT 9999 BKN028 FEW030CB 24/17 Q1020 NOSIG
HTBU,2023-04-04T10:00:00Z,HTBU 041000Z 12005KT 9999 FEW022 FEW024CB 26/19 Q1016 NOSIG
HTDA,2023-04-04T10:00:00Z,HTDA 041000Z 03009KT 9999 VCSH FEW025 BKN027 FEW029CB 32/24 Q1011 NOSIG
HTDO,2023-04-04T10:00:00Z,HTDO 041000Z 11006KT 9999 SCT032 27/17 Q1016 NOSIG
HTIB,2023-04-04T10:00:00Z,HTIB 041000Z 18010KT 9999 SCT023 FEW024CB 27/19 Q1015
HTIR,2023-04-04T10:00:00Z,HTIR 041000Z 30011KT 9999 BKN025 FEW028CB 24/19 Q1019
HTKA,2023-04-04T10:00:00Z,HTKA 041000Z 22006KT 9999 FEW023 SCT100 27/20 Q1014 NOSIG
HTKJ,2023-04-04T10:00:00Z,HTKJ 041000Z 09005KT 9999 FEW025CB SCT026 28/18 Q1016 NOSIG
HTMG,2023-04-04T10:00:00Z,HTMG 041000Z 00000KT 9999 BKN026 FEW027CB 29/21 Q1013
HTMP,2023-04-04T10:00:00Z,HTMP 041000Z 09006KT 9999 BKN024 26/20 Q1018
HTMT,2023-04-04T10:00:00Z,HTMT 041000Z 18011KT 9999 SCT022 FEW023CB BKN070 24/23 Q1013 NOSIG
HTMU,2023-04-04T10:00:00Z,HTMU 041000Z 00000KT 9999 FEW026 FEW028CB 27/19 Q1017
HTSO,2023-04-04T10:00:00Z,HTSO 041000Z VRB02KT 9999 BKN021 FEW022CB 27/18 Q1018
HTSU,2023-04-04T10:00:00Z,HTSU 041000Z 09007KT 9999 SCT020 FEW022CB 22/15 Q1023
HTTB,2023-04-04T10:00:00Z,HTTB 041000Z 13010KT 9999 SCT023 FEW024CB 26/18 Q1018 NOSIG
HTZA,2023-04-04T10:00:00Z,HTZA 041000Z 00000KT 9999 BKN014 FEW016CB 29/25 Q1011 NOSIG
HUEN,2023-04-04T10:00:00Z,HUEN 041000Z 18010KT 9999 FEW022 FEW024CB 25/20 Q1016 NOSIG
K04V,2023-04-04T10:09:00Z,K04V 041009Z AUTO 26006KT 10SM SCT044 BKN055 OVC075 01/M06 A2940 RMK AO2
K04W,2023-04-04T10:15:00Z,K04W 041015Z AUTO 05008KT 10SM OVC010 00/M01 A2994 RMK AO2
K05U,2023-04-04T10:15:00Z,K05U 041015Z AUTO 5.75000006G11KT 10SM FEW027 FEW045 BKN075 A2980 RMK A01
K06C,2023-04-04T10:15:00Z,K06C 041015Z AUTO 07007G15KT 10SM BKN005 OVC026 07/07 A2984 RMK AO2 T00700070
K06D,2023-04-04T10:15:00Z,K06D 041015Z AUTO 35011KT 10SM OVC009 M12/M14 A3002 RMK AO2
K08D,2023-04-04T10:15:00Z,K08D 041015Z AUTO 06010KT 10SM BKN026 OVC030 M10/M11 A2998 RMK AO2
K0A0,2023-04-04T10:15:00Z,K0A0 041015Z AUTO 24019KT 10SM CLR 14/M13 A2960 RMK AO2
K0CO,2023-04-04T10:15:00Z,K0CO 041015Z AUTO 18022G30KT 161V221 M11/M12 A2935 RMK AO2 PWINO
K0E0,2023-04-04T10:15:00Z,K0E0 041015Z AUTO 22017G25KT 10SM CLR 08/M15 A2952 RMK AO2 T00801151
K0F2,2023-04-04T10:15:00Z,K0F2 041015Z AUTO 10SM CLR 21/19 A2954 RMK AO2 T02100190
K0J4,2023-04-04T10:21:00Z,K0J4 041021Z AUTO 21004KT 9SM SCT008 BKN013 BKN028 23/21 A2996 RMK AO2 T02280206 $
K0R0,2023-04-04T10:15:00Z,K0R0 041015Z AUTO 14004KT 7SM SCT017 OVC026 22/21 A2991 RMK AO2
K0R4,2023-04-04T10:15:00Z,K0R4 041015Z AUTO 15007KT 10SM 23/21 A2981 RMK AO2 T02250209
K0S9,2023-04-04T10:15:00Z,K0S9 041015Z AUTO 00000KT 10SM BKN029 BKN040 OVC065 M00/M00 A3007 RMK AO2
K0V4,2023-04-04T10:15:00Z,K0V4 041015Z AUTO 16006KT 10SM BKN031 OVC040 13/10 A3002 RMK AO1
K0VG,2023-04-04T10:15:00Z,K0VG 041015Z AUTO 00000KT 10SM OVC018 12/08 A3001 RMK AO2
K10G,2023-04-04T10:15:00Z,K10G 041015Z AUTO 00000KT 10SM BKN028 OVC038 12/05 A2989 RMK AO2
K12N,2023-04-04T09:54:00Z,K12N 040954Z AUTO 00000KT 06/03 A2999 RMK AO1 SLP156 T00560033
K13K,2023-04-04T10:15:00Z,K13K 041015Z AUTO 18021G26KT 10SM CLR 21/18 A2941 RMK AO2 T02120183
K14Y,2023-04-04T10:15:00Z,K14Y 041015Z AUTO 08007KT 7SM OVC007 00/M01 A2990 RMK AO2
K15M,2023-04-04T10:15:00Z,K15M 041015Z AUTO 18005KT 7SM OVC006 19/18 A2988 RMK AO2 T01870184 $
K17J,2023-04-04T10:15:00Z,K17J 041015Z AUTO 00000KT 1/4SM FG OVC003 20/20 A2998 RMK AO2 T02040197
K18A,2023-04-04T10:15:00Z,K18A 041015Z AUTO 00000KT 10SM OVC016 14/11 A3009 RMK AO2 T01360111
K18H,2023-04-04T10:15:00Z,K18H 041015Z AUTO 15031KT 3SM HZ CLR 26/23 A2978 RMK A01
K19S,2023-04-04T10:15:00Z,K19S 041015Z AUTO 22010KT 10SM CLR 14/M14 A2934 RMK AO2 T01401136
K1A5,2023-04-04T10:15:00Z,K1A5 041015Z AUTO 00000KT 10SM OVC031 08/07 A3009 RMK AO2 T00780071
K1A6,2023-04-04T10:15:00Z,K1A6 041015Z AUTO 00000KT 10SM OVC020 14/09 A2999 RMK AO2 T01430094
K1A9,2023-04-04T10:15:00Z,K1A9 041015Z AUTO 00000KT 7SM OVC012 A2995 RMK AO2
K1AM,2023-04-04T09:55:00Z,K1AM 040955Z AUTO 30006KT 9SM -SN OVC010 M06/M08 A2986 RMK AO2 CIG 008V010 SLP151 P0000 T10581076 $
K1AN,2023-04-04T09:55:00Z,K1AN 040955Z AUTO 03008KT 10SM OVC011 M09/M12 A2996 RMK AO2 SNE02 SLP195 P0000 T10921117 $
K1BM,2023-04-04T09:55:00Z,K1BM 040955Z AUTO 03010KT 9SM -SN OVC008 M06/M08 A2985 RMK AO2 SLP147 P0000 T10571077 $
K1BN,2023-04-04T10:19:00Z,K1BN 041019Z AUTO 03009KT 9SM OVC008 M10/M12 A2997 RMK AO2 SNE19 SLP188 $
K1BW,2023-04-04T09:55:00Z,K1BW 040955Z AUTO 05014KT 2 1/4SM -SN BR BKN005 OVC010 M05/M06 A2953 RMK AO2 SLP025 P0000 T10521065 $
K1CM,2023-04-04T09:55:00Z,K1CM 040955Z AUTO 02008KT 9SM -SN OVC007 M01/M02 A2982 RMK AO2 SNB24 SLP116 P0000 T10061016 $
K1CN,2023-04-04T10:12:00Z,K1CN 041012Z AUTO 05010KT 9SM -SN OVC006 M10/M12 A2996 RMK AO2 SNB0957 SLP183 $
K1CW,2023-04-04T09:55:00Z,K1CW 040955Z AUTO 09010KT 4SM -SN BR BKN005 OVC012 M03/M04 A2953 RMK AO2 SNE0854FZRAB0854E0856FZDZB0856E0859FZRAB0859E17SNB17 SLP009 P0000 T10321039 $
K1D1,2023-04-04T10:15:00Z,K1D1 041015Z AUTO 35011KT 1 1/4SM -SN BR OVC002 M05/M05 A2989 RMK AO2
K1DM,2023-04-04T09:55:00Z,K1DM 040955Z AUTO 34007KT 9SM -SN FEW016 OVC028 M05/M08 A2987 RMK AO2 SNB30 SLP150 P0000 T10501084 $
K1DN,2023-04-04T09:55:00Z,K1DN 040955Z AUTO 07009KT 9SM -SN OVC000 M10/M12 A2830 RMK AO2 SNE10SNB30 OVC V BKN SLP616 P0000 T11051120 $
K1DW,2023-04-04T09:55:00Z,K1DW 040955Z AUTO 06015KT 3SM -SN BR BKN006 OVC011 M04/M05 A2950 RMK AO2 FZDZE09PLB09E16SNB16 SLP006 P0000 T10441054 $
K1EM,2023-04-04T09:55:00Z,K1EM 040955Z AUTO 05005KT 7SM -SN OVC012 M05/M07 A2985 RMK AO2 FZDZE05PLB05E19FZRAB19E20SNB20 SLP141 P0000 T10541071 $
K1EN,2023-04-04T09:55:00Z,K1EN 040955Z AUTO 06008KT 9SM -SN FEW008 OVC027 M10/M10 A2972 RMK AO2 SLP112 P0000 T11031105 $
K1EW,2023-04-04T09:55:00Z,K1EW 040955Z AUTO 23018KT 3SM -SN BR OVC005 M05/M06 A2945 RMK AO2 FZDZE01FZRAB01E09PLB09E17SNB17 SLP991 P0000 T10511058 $
K1F0,2023-04-04T10:15:00Z,K1F0 041015Z AUTO 17012G16KT 150V210 10SM CLR 21/19 A2953 RMK AO2 T02150187
K1FW,2023-04-04T09:55:00Z,K1FW 040955Z AUTO 06015G19KT 4SM -FZDZ BR BKN006 OVC011 M04/M04 A2948 RMK AO2 SNE03FZDZB03 CIG 006V008 SLP988 P0000 T10381039 $
K1GM,2023-04-04T09:55:00Z,K1GM 040955Z AUTO 06006KT 9SM -SN BKN022 OVC028 M06/M08 M RMK AO2 SLPNO P0000 T10591079 $
K1GN,2023-04-04T10:00:00Z,K1GN 041000Z AUTO 06009KT 9SM -SN BKN010 OVC033 M10/M12 A2994 RMK AO2 CIG 010V033 BKN V FEW SLP191 $
K1H2,2023-04-04T10:15:00Z,K1H2 041015Z AUTO 10006KT 10SM OVC011 15/13 A2975 RMK AO2 T01470130
K1HM,2023-04-04T09:55:00Z,K1HM 040955Z AUTO 00000KT 9SM -SN FEW013 OVC022 M05/M07 A2985 RMK AO2 SNB32 SLP149 P0000 T10461074 $
K1HN,2023-04-04T10:20:00Z,K1HN 041020Z AUTO 06007KT 9SM -SN SCT022 OVC032 M09/M11 A2998 RMK AO2 SLP195 $
K1HW,2023-04-04T09:55:00Z,K1HW 040955Z AUTO 05014KT 4SM -FZRA BR OVC006 M03/M03 A2948 RMK AO2 SNE01FZDZB01E54FZRAB54 OVC V BKN SLP992 P0000 T10261032 $
K1IM,2023-04-04T09:55:00Z,K1IM 040955Z AUTO 06006KT 9SM -SN OVC018 M04/M07 A2985 RMK AO2 SLP143 P0000 T10441075 $
K1IN,2023-04-04T09:55:00Z,K1IN 040955Z AUTO 08008KT 9SM -SN OVC021 M11/M12 A2997 RMK AO2 OVC V BKN SLP199 P0000 T11081123 $
K1IW,2023-04-04T09:55:00Z,K1IW 040955Z AUTO 06012KT 3SM -FZDZ BR OVC005 M02/M03 A2946 RMK AO2 SNE0856FZDZB0856 OVC V BKN SLP976 P0000 T10241034 $
K1JM,2023-04-04T09:55:00Z,K1JM 040955Z AUTO 05003KT 9SM -SN OVC019 M05/M08 A2986 RMK AO2 SLP147 P0000 T10521080 $
K1JN,2023-04-04T09:55:00Z,K1JN 040955Z AUTO 06007KT 9SM -SN OVC014 M11/M11 A2997 RMK AO2 SLP198 P0000 T11131115 $
K1JW,2023-04-04T09:55:00Z,K1JW 040955Z AUTO 03014KT 4SM -FZDZ BR OVC005 M03/M04 M RMK AO2 SNB20E31FZDZB31 SLPNO P0000 T10301043 $
K1KM,2023-04-04T09:55:00Z,K1KM 040955Z AUTO 01015G19KT 5SM -SN BR OVC014 M06/M07 A2980 RMK AO2 SLP128 P0000 T10581072 $
K1KN,2023-04-04T10:11:00Z,K1KN 041011Z AUTO 05005KT 9SM -SN M M10/M10 A2998 RMK AO2 SNE10SNB11 SLP199 $
K1LN,2023-04-04T10:05:00Z,K1LN 041005Z AUTO 08009KT 9SM -SN BKN018 OVC042 M11/M12 A3001 RMK AO2 CIG 018V042 SLP205 $
K1LW,2023-04-04T09:55:00Z,K1LW 040955Z AUTO 04019KT 3SM -FZDZ BR BKN006 OVC012 M04/M05 A2944 RMK AO2 PK WND 05027/14 SNE0855SNB09E30FZDZB30 CIG 006V012 BKN V SCT SLP986 P0000 T10421046 $
K1M4,2023-04-04T09:56:00Z,K1M4 040956Z AUTO 19007KT 1SM BR OVC003 18/18 A2993 RMK AO2 SLP122 T01830183
K1M5,2023-04-04T10:15:00Z,K1M5 041015Z AUTO 18011KT 7SM OVC005 16/16 A2986 RMK A01
K1MN,2023-04-04T09:55:00Z,K1MN 040955Z AUTO 06007KT 10SM OVC020 M11/M12 A3001 RMK AO2 SLP205 T11111124 $
K1MW,2023-04-04T09:55:00Z,K1MW 040955Z AUTO 04017KT 4SM -FZDZ BR BKN009 OVC013 M02/M03 A2945 RMK AO2 SNB41E51FZDZB51 CIG 009V013 BKN V SCT SLP971 P0000 T10241035 $
K1NN,2023-04-04T09:55:00Z,K1NN 040955Z AUTO 05006KT 9SM -SN OVC023 M A3005 RMK AO2 SLPNO ALSTG ESTMD P0000 $
K1NW,2023-04-04T09:55:00Z,K1NW 040955Z AUTO 05017KT 9SM OVC011 M03/M05 A2944 RMK AO2 PK WND 06028/0857 SLP962 T10331050 $
K1OM,2023-04-04T09:55:00Z,K1OM 040955Z AUTO 14006KT 9SM -SN OVC015 M06/M08 A2986 RMK AO2 SLP146 P0000 T10631081 $
K1ON,2023-04-04T09:55:00Z,K1ON 040955Z AUTO 05011KT 10SM OVC025 M13/M16 M RMK AO2 SNB25E29 SLPNO P0000 T11281157 $
K1OW,2023-04-04T09:55:00Z,K1OW 040955Z AUTO 06018G23KT 5SM -FZRA BR OVC006 M05/M06 A2956 RMK AO2 SNB06E16FZDZB16E20SNB24E33FZDZB33E43FZRAB43 SLP018 P0000 T10511061 $
K1P1,2023-04-04T10:15:00Z,K1P1 041015Z AUTO 00000KT 1SM BR OVC002 02/02 A3003 RMK AO2 T00240024
K1R7,2023-04-04T10:15:00Z,K1R7 041015Z AUTO 00000KT 10SM SCT017 BKN024 OVC028 22/22 A2988 RMK AO2 PWINO
K1R8,2023-04-04T10:15:00Z,K1R8 041015Z AUTO 00000KT 4SM BR SCT009 BKN013 OVC019 22/22 A2992 RMK AO2
K1S3,2023-04-04T10:15:00Z,K1S3 041015Z AUTO 01003KT 10SM M03/M03 A2988 
K1S5,2023-04-04T10:15:00Z,K1S5 041015Z AUTO 05004KT 10SM CLR M04/M07 A3000 RMK AO2 T10411066
K1U7,2023-04-04T10:15:00Z,K1U7 041015Z AUTO 35014KT 2SM BR SCT003 OVC022 M06/M07 A2950 RMK A01
K1V4,2023-04-04T09:54:00Z,K1V4 040954Z AUTO A3002 RMK AO1 SLPNO $
K1V6,2023-04-04T10:15:00Z,K1V6 041015Z AUTO 26007KT 10SM SCT095 11/M08 A2928 RMK AO2
K1YT,2023-04-04T09:55:00Z,K1YT 040955Z AUTO 00000KT 10SM CLR 02/M07 A2993 RMK AO2 SLP145 T00171074 $
K20U,2023-04-04T10:15:00Z,K20U 041015Z AUTO 08008KT 2 1/2SM -UP OVC003 M05/M05 A2989 RMK AO2
K20V,2023-04-04T10:15:00Z,K20V 041015Z AUTO 34006KT 5SM -SN SCT002 BKN013 OVC028 M02/M03 A2935 RMK AO2
K21D,2023-04-04T10:15:00Z,K21D 041015Z AUTO 04010G14KT 10SM OVC080 01/M01 A2986 RMK AO2
K22N,2023-04-04T10:15:00Z,K22N 041015Z AUTO 00000KT 5SM BR CLR 00/00 A3000 RMK AO2
K24A,2023-04-04T10:05:00Z,K24A 041005Z AUTO 00000KT 10SM OVC021 10/05 A3008 RMK AO2 T01030053
K24J,2023-04-04T10:15:00Z,K24J 041015Z AUTO 00000KT 1 1/4SM BR OVC003 17/17 A2999 RMK A01
K27K,2023-04-04T10:15:00Z,K27K 041015Z AUTO 00000KT 10SM OVC018 13/10 A2990 RMK AO1
K28J,2023-04-04T10:15:00Z,K28J 041015Z AUTO 00000KT 9SM FEW033 SCT047 SCT055 12/12 A3001 RMK AO2
K2C8,2023-04-04T10:15:00Z,K2C8 041015Z AUTO 34008KT 10SM FEW021 BKN027 OVC034 M09/M09 A3004 RMK AO2
K2D5,2023-04-04T10:15:00Z,K2D5 041015Z AUTO 02013KT 1 1/2SM BR OVC004 M07/M07 A2992 RMK AO2
K2G2,2023-04-04T10:15:00Z,K2G2 041015Z AUTO 19006KT 10SM FEW041 12/02 A2989 RMK A01
K2G4,2023-04-04T10:15:00Z,K2G4 041015Z AUTO 23011KT 10SM CLR 10/05 A2997 RMK AO2
K2G9,2023-04-04T10:15:00Z,K2G9 041015Z AUTO 22009KT 10SM CLR 09/03 A2995 RMK AO2
K2I0,2023-04-04T10:15:00Z,K2I0 041015Z AUTO 21007KT 10SM BKN011 19/17 A2981 RMK AO2 T01910168
K2IS,2023-04-04T10:15:00Z,K2IS 041015Z AUTO 00000KT 10SM SCT070 21/20 A3001 RMK AO2 T02150205
K2J3,2023-04-04T10:15:00Z,K2J3 041015Z AUTO 00000KT 3/4SM BR OVC003 16/16 A3002 RMK AO2 T01600157
K2J5,2023-04-04T10:15:00Z,K2J5 041015Z AUTO 00000KT 7SM BR OVC007 17/17 A3002 RMK AO2 T01700166
K2J9,2023-04-04T10:15:00Z,K2J9 041015Z AUTO 00000KT 4SM BR OVC003 21/21 A2999 RMK AO2
K2M2,2023-04-04T10:15:00Z,K2M2 041015Z AUTO VRB05KT 2 1/2SM BR OVC003 18/18 A2989 RMK A01
K2P2,2023-04-04T10:15:00Z,K2P2 041015Z AUTO 05009G15KT 10SM OVC009 00/00 A2997 RMK AO2 T00000000
K2R9,2023-04-04T10:15:00Z,K2R9 041015Z AUTO 14009KT 10SM OVC011 23/21 A2965 RMK AO2
K2V5,2023-04-04T10:15:00Z,K2V5 041015Z AUTO 06015G18KT 10SM OVC022 01/M03 A2943 RMK AO2
K2V6,2023-04-04T10:19:00Z,K2V6 041019Z AUTO 07016G20KT 10SM OVC020 00/M05 A2942 RMK AO2
K2W6,2023-04-04T10:09:00Z,K2W6 041009Z AUTO 17003KT 10SM CLR 13/12 A3002 RMK AO1
K2WX,2023-04-04T09:56:00Z,K2WX 040956Z AUTO 07009KT M03/M05 A2979 RMK AO1 SLP115 T10281050
K33N,2023-04-04T10:15:00Z,K33N 041015Z AUTO 19005G13KT 10SM CLR 14/13 A2999 RMK A01
K33V,2023-04-04T10:15:00Z,K33V 041015Z AUTO 31011KT 10SM BKN015 BKN027 OVC032 M05/M08 A2937 RMK AO1
K35A,2023-04-04T10:15:00Z,K35A 041015Z AUTO 00000KT 2 1/2SM BR OVC020 13/13 A3006 RMK A02 T01310130
K36K,2023-04-04T10:10:00Z,K36K 041010Z AUTO 05004KT 10SM FEW033 FEW038 SCT055 05/01 A2935 RMK AO2
K38S,2023-04-04T10:15:00Z,K38S 041015Z AUTO 36008KT 10SM M04/M08 A2983 
K3AU,2023-04-04T10:15:00Z,K3AU 041015Z AUTO 18014G19KT 10SM CLR 20/15 A2939 RMK AO2
K3D2,2023-04-04T10:15:00Z,K3D2 041015Z AUTO 05006G14KT 10SM 00/M01 A2995 RMK AO2 T10031015
K3F3,2023-04-04T10:15:00Z,K3F3 041015Z AUTO 15008KT 10SM OVC019 23/21 A2975 RMK AO2 T02300211
K3J7,2023-04-04T10:15:00Z,K3J7 041015Z AUTO 00000KT 3SM BR OVC002 14/13 A3001 RMK AO2
K3K3,2023-04-04T10:15:00Z,K3K3 041015Z AUTO 02003KT 10SM SCT120 06/M13 A2930 RMK AO2
K3N8,2023-04-04T10:15:00Z,K3N8 041015Z AUTO 06003KT 10SM OVC030 M02/M03 A2997 RMK AO2 T10221027
K3R7,2023-04-04T10:15:00Z,K3R7 041015Z AUTO 17008KT 10SM OVC008 23/23 A2979 RMK AO2 T02270227
K3S8,2023-04-04T10:15:00Z,K3S8 041015Z AUTO 00000KT 10SM BKN034 OVC041 01/M01 A3026 RMK AO2
K3U3,2023-04-04T10:15:00Z,K3U3 041015Z AUTO 35008KT 10SM M06/M08 A2977 
K40B,2023-04-04T10:16:00Z,K40B 041016Z AUTO 00000KT M04/ A2993 RMK AO1 SLP155 T1038 53023
K40U,2023-04-04T10:15:00Z,K40U 041015Z AUTO 34011KT 3/4SM +SN BR OVC007 M06/M07 A2941 RMK AO2 T10581074
K41U,2023-04-04T10:15:00Z,K41U 041015Z AUTO 02005KT 10SM BKN034 BKN065 OVC080 M05/M09 A2959 RMK AO1 T10501094
K42J,2023-04-04T10:15:00Z,K42J 041015Z AUTO 00000KT 10SM BKN010 BKN030 OVC065 15/15 A3001 RMK A01
K46D,2023-04-04T10:15:00Z,K46D 041015Z AUTO 35008KT 7SM BKN001 OVC007 M08/M09 A3000 RMK AO2
K46U,2023-04-04T10:15:00Z,K46U 041015Z AUTO 33004G10KT 7SM FEW001 OVC022 M04/M06 A2951 RMK A01
K48A,2023-04-04T10:15:00Z,K48A 041015Z AUTO 04004KT 2SM BR OVC003 17/ A3001 RMK AO2 T0166////
K49A,2023-04-04T10:15:00Z,K49A 041015Z AUTO 04003KT 10SM OVC007 14/11 A3002 RMK AO2
K4A6,2023-04-04T10:15:00Z,K4A6 041015Z AUTO 00000KT 6SM BR OVC009 15/15 A2996 RMK AO2
K4A9,2023-04-04T10:15:00Z,K4A9 041015Z AUTO 17004KT 10SM OVC007 15/14 A2997 RMK AO2 T01500140
K4BM,2023-04-04T10:15:00Z,K4BM 041015Z AUTO 14009G18KT 110V180 10SM BKN060 BKN070 M06/M10 A2938 RMK AO2
K4M9,2023-04-04T10:15:00Z,K4M9 041015Z AUTO 17009KT 8SM CLR 21/21 A2971 RMK AO2 PWINO
K4MR,2023-04-04T09:55:00Z,K4MR 040955Z AUTO 20013KT 10SM CLR 10/M17 A2948 RMK AO2 SLP908 T01011171 $
K4O4,2023-04-04T10:15:00Z,K4O4 041015Z AUTO 14007KT 7SM BKN019 BKN044 21/21 A2964 RMK AO2
K4R5,2023-04-04T10:15:00Z,K4R5 041015Z AUTO 05009G17KT 7SM -SN OVC010 M01/M03 A3003 RMK AO2 T10121026
K4S1,2023-04-04T10:15:00Z,K4S1 041015Z AUTO 06006KT 7SM CLR 02/01 A3027 RMK AO2
K4S2,2023-04-04T10:15:00Z,K4S2 041015Z AUTO 32006KT 10SM SCT029 BKN035 OVC044 03/00 A3009 RMK AO2
K4U6,2023-04-04T10:10:00Z,K4U6 041010Z AUTO 04012KT 10SM M06/M06 A2992 RMK A01 Circle 
K4V0,2023-04-04T10:15:00Z,K4V0 041015Z AUTO 26011KT 5SM -SN OVC020 M02/M04 A2937 RMK AO2 T10251041
K4V1,2023-04-04T10:15:00Z,K4V1 041015Z AUTO 23031G41KT 10SM CLR 11/M12 A2932 RMK AO2 T01081122
K54A,2023-04-04T10:15:00Z,K54A 041015Z AUTO 09004KT 2 1/2SM BR FEW021 21/21 A3001 RMK AO2
K54J,2023-04-04T10:15:00Z,K54J 041015Z AUTO 20003KT 10SM OVC005 23/21 A2996 RMK AO2 T02250214
K57C,2023-04-04T10:15:00Z,K57C 041015Z AUTO 10010G14KT 10SM OVC004 05/05 A2985 RMK AO2 T00520052
K5A6,2023-04-04T10:15:00Z,K5A6 041015Z AUTO 17006KT 10SM 21/20 A2984 RMK AO2 T02060198
K5C1,2023-04-04T10:15:00Z,K5C1 041015Z AUTO 17011G15KT 10SM OVC011 21/21 A2966 RMK AO1
K5H4,2023-04-04T10:15:00Z,K5H4 041015Z AUTO 01008KT 10SM OVC008 M10/M20 A3002 RMK AO2
K5R8,2023-04-04T10:15:00Z,K5R8 041015Z AUTO 17012G17KT 10SM OVC009 23/21 A2977 RMK AO2 T02280210
K5SM,2023-04-04T10:15:00Z,K5SM 041015Z AUTO 20011G24KT 1SM -SN OVC003 M11/M12 A2938 RMK AO2
K5T9,2023-04-04T10:15:00Z,K5T9 041015Z AUTO 12005KT 9SM CLR 25/21 A2956 RMK A01
K63S,2023-04-04T10:15:00Z,K63S 041015Z AUTO 00000KT 10SM FEW055 FEW070 BKN110 M06/M07 A2993 RMK A01
K65S,2023-04-04T10:15:00Z,K65S 041015Z AUTO 00000KT 10SM FEW070 BKN100 M02/M06 A2990 RMK AO2
K66R,2023-04-04T10:15:00Z,K66R 041015Z AUTO 17005KT 10SM OVC011 23/21 A2968 RMK AO2 T02310211
K6A1,2023-04-04T10:15:00Z,K6A1 041015Z AUTO 00000KT 1/4SM FG OVC001 16/16 A3001 RMK AO2 T01610161
K6A2,2023-04-04T10:15:00Z,K6A2 041015Z AUTO 00000KT 1/2SM OVC001 14/13 A3001 RMK AO2
K6B0,2023-04-04T10:15:00Z,K6B0 041015Z AUTO 00000KT 10SM OVC085 04/04 A3001 RMK AO2 T00420042
K6B9,2023-04-04T10:15:00Z,K6B9 041015Z AUTO 10004KT 8SM -RA SCT030 BKN037 OVC065 07/07 A2997 RMK AO2
K6I2,2023-04-04T10:15:00Z,K6I2 041015Z AUTO 17007KT 10SM OVC011 15/14 A2989 RMK AO2
K6L4,2023-04-04T10:15:00Z,K6L4 041015Z AUTO VRB05KT 10SM BKN038 OVC044 14/07 A2996 RMK AO2
K6P9,2023-04-04T10:15:00Z,K6P9 041015Z AUTO 19009KT 7SM CLR 20/19 A2956 RMK AO2 T02000186
K6R6,2023-04-04T09:51:00Z,K6R6 040951Z AUTO 00000KT 16/03 A2961 RMK AO1 SLP992 T01610028
K6S2,2023-04-04T10:15:00Z,K6S2 041015Z AUTO 00000KT 10SM SCT070 03/03 A3022 RMK AO2
K6S8,2023-04-04T10:10:00Z,K6S8 041010Z AUTO 03015KT 10SM M03/M05 A2982 RMK A01 LAUREL
K74V,2023-04-04T10:15:00Z,K74V 041015Z AUTO 08006KT 2 1/2SM -SN M01/M04 A2940 RMK AO2
K77S,2023-04-04T10:15:00Z,K77S 041015Z AUTO 22008KT 10SM FEW013 SCT017 BKN023 03/03 A3020 RMK A01
K79J,2023-04-04T10:14:00Z,K79J 041014Z AUTO 00000KT 5SM BR SCT007 BKN011 OVC024 23/21 A2993 RMK AO2 T02330211
K7BM,2023-04-04T10:15:00Z,K7BM 041015Z AUTO 26016G23KT 4SM -SN SCT015 BKN025 OVC034 M02/M09 A2934 RMK AO2
K7L2,2023-04-04T10:15:00Z,K7L2 041015Z AUTO 03007G13KT 10SM SCT011 BKN065 OVC075 M09/M09 A2996 RMK AO2
K7W4,2023-04-04T10:15:00Z,K7W4 041015Z AUTO 10SM BKN050 11/08 A3000 RMK AO1 T01120076
K7W6,2023-04-04T10:10:00Z,K7W6 041010Z AUTO 12005KT 10SM OVC100 A3004 RMK AO2
K81R,2023-04-04T10:15:00Z,K81R 041015Z AUTO 17006KT 10SM CLR 22/19 A2960 RMK AO2 T02210189
K82C,2023-04-04T10:15:00Z,K82C 041015Z AUTO 08007KT 10SM BKN075 06/03 A2985 RMK AO2 T00570027
K82V,2023-04-04T10:20:00Z,K82V 041020Z AUTO 04015G20KT 5SM BR M04/M05 A2949 RMK AO2
K8A0,2023-04-04T10:15:00Z,K8A0 041015Z AUTO 17005KT 3/4SM OVC002 15/15 A2996 RMK AO2
K8A3,2023-04-04T10:10:00Z,K8A3 041010Z AUTO 21009KT 10SM OVC011 18/16 A2990 RMK A01
K8B0,2023-04-04T10:15:00Z,K8B0 041015Z AUTO 00000KT 10SM CLR M00/M00 A2997 RMK AO2
K8D3,2023-04-04T09:56:00Z,K8D3 040956Z AUTO 35012KT M05/M07 A2991 RMK AO1 SLP152 T10501067
K8T6,2023-04-04T10:15:00Z,K8T6 041015Z AUTO 15009G15KT 9SM OVC014 23/23 A2962 RMK AO2
K8W2,2023-04-04T10:15:00Z,K8W2 041015Z AUTO 00000KT 10SM CLR 08/07 A2997 RMK AO1 T00780072
K96D,2023-04-04T10:15:00Z,K96D 041015Z AUTO 32008KT 10SM OVC029 M09/M09 A3006 RMK AO2
K9A5,2023-04-04T10:15:00Z,K9A5 041015Z AUTO 00000KT 7SM OVC011 13/13 A3000 RMK AO2 T01330133
K9D7,2023-04-04T10:15:00Z,K9D7 041015Z AUTO 02015KT 7SM FEW013 OVC033 M11/M11 A3003 RMK AO2 TSNO
K9L2,2023-04-04T09:55:00Z,K9L2 040955Z AUTO 28017G22KT 10SM CLR 04/M08 A2999 RMK AO2 PK WND 28029/08 SLP158 T00361081
K9MN,2023-04-04T10:15:00Z,K9MN 041015Z AUTO 04004KT 10SM OVC065 03/M02 A2980 RMK AO1 T00281016
K9V9,2023-04-04T10:15:00Z,K9V9 041015Z AUTO 03014G19KT 7SM -SN OVC009 M03/M03 A2977 RMK AO2 T10271027
KA39,2023-04-04T10:15:00Z,KA39 041015Z AUTO 29013KT 10SM SCT080 BKN110 08/M10 A2988 RMK AO2
KAAA,2023-04-04T10:15:00Z,KAAA 041015Z AUTO 10007KT 10SM SCT012 BKN030 BKN042 13/13 A2970 RMK AO2 LTG DSNT N T01250125
KAAF,2023-04-04T09:53:00Z,KAAF 040953Z AUTO 21009KT 5SM BR OVC003 23/23 A2996 RMK AO2 SLP145 T02280228
KAAO,2023-04-04T09:54:00Z,KAAO 040954Z AUTO 18015G25KT 10SM CLR 21/16 A2938 RMK AO2 PK WND 18027/0919 SLP933 T02060156
KAAS,2023-04-04T10:15:00Z,KAAS 041015Z AUTO 18006KT 10SM OVC010 15/12 A2994 RMK AO1
KAAT,2023-04-04T09:55:00Z,KAAT 040955Z AUTO 25005KT 10SM BKN020 OVC041 M05/M08 A3003 RMK AO2 SLP191 T10501083
KABE,2023-04-04T09:51:00Z,KABE 040951Z 03003KT 10SM CLR 06/04 A2997 RMK AO2 SLP150 T00560039
KABH,2023-04-04T09:55:00Z,KABH 040955Z AUTO 22025G34KT 10SM CLR 10/M14 A2931 RMK AO2 PK WND 22035/0858 SLP870 T01041136
KABI,2023-04-04T09:52:00Z,KABI 040952Z 16010KT 10SM CLR 22/18 A2955 RMK AO2 SLP975 T02220178
KABQ,2023-04-04T09:52:00Z,KABQ 040952Z 22015G27KT 10SM CLR 12/M13 A2952 RMK AO2 PK WND 22035/0926 SLP927 T01171133
KABR,2023-04-04T09:53:00Z,KABR 040953Z AUTO 03015KT 5SM -SN BR OVC004 M06/M07 A2990 RMK AO2 SNB08 SLP143 P0000 T10561067
KABY,2023-04-04T09:53:00Z,KABY 040953Z AUTO 17003KT 4SM BR OVC003 21/20 A2999 RMK AO2 SLP154 T02060200
KACB,2023-04-04T10:15:00Z,KACB 041015Z AUTO 00000KT 10SM BKN120 01/M02 A3001 RMK AO2 T00061019
KACK,2023-04-04T09:53:00Z,KACK 040953Z 24005KT 10SM OVC033 09/07 A3008 RMK AO2 SLP186 T00890072 $
KACP,2023-04-04T10:15:00Z,KACP 041015Z AUTO 17004KT 10SM OVC010 24/21 A2978 RMK AO2
KACQ,2023-04-04T10:15:00Z,KACQ 041015Z AUTO 10SM OVC070 01/M01 A2981 RMK AO2
KACT,2023-04-04T09:51:00Z,KACT 040951Z AUTO 17016KT 8SM OVC013 22/21 A2960 RMK AO2 PK WND 16026/0922 SLP016 T02170206
KACV,2023-04-04T09:53:00Z,KACV 040953Z AUTO 07003KT 10SM CLR 01/M01 A3028 RMK AO2 SLP261 T00061006
KACY,2023-04-04T09:54:00Z,KACY 040954Z 17007KT 10SM CLR 11/10 A3001 RMK AO2 SLP161 T01110100 $
KACZ,2023-04-04T10:05:00Z,KACZ 041005Z AUTO 16003KT 10SM SCT044 OVC055 17/16 A3001 RMK AO2 T01680164
KADC,2023-04-04T10:17:00Z,KADC 041017Z AUTO 04003KT 10SM OVC011 01/00 A2992 RMK AO2 TSNO
KADF,2023-04-04T09:56:00Z,KADF 040956Z AUTO 17003KT 9SM OVC013 20/19 A2972 RMK AO2 SLP060 T02000194
KADG,2023-04-04T09:53:00Z,KADG 040953Z AUTO 10007KT 10SM OVC012 08/06 A2991 RMK AO2 SLP131 T00830061
KADH,2023-04-04T10:10:00Z,KADH 041010Z AUTO 18013G18KT 10SM CLR 21/18 A2954 RMK AO2
KADM,2023-04-04T10:15:00Z,KADM 041015Z AUTO 17008KT 10SM CLR 21/19 A2952 RMK AO2
KADS,2023-04-04T10:15:00Z,KADS 041015Z AUTO 18009G19KT 10SM OVC015 22/20 A2960 RMK AO2 T02190195 FZRANO
KADT,2023-04-04T10:15:00Z,KADT 041015Z AUTO 05011KT 10SM CLR 02/M02 A2945 RMK AO2 T00151023
KADU,2023-04-04T10:15:00Z,KADU 041015Z AUTO 07017G21KT 10SM OVC044 05/01 A2956 RMK AO2
KADW,2023-04-04T09:55:00Z,KADW 040955Z AUTO 19009KT 10SM CLR 13/09 A2995 RMK AO2 SLP148 T01320089 $
KAEG,2023-04-04T10:15:00Z,KAEG 041015Z AUTO 24014G24KT 10SM CLR 08/M11 A2952 RMK AO2 T00751107
KAEJ,2023-04-04T10:15:00Z,KAEJ 041015Z AUTO 13014G34KT 10SM SCT060 BKN070 OVC080 02/M09 A2932 RMK AO2 T00191095
KAEL,2023-04-04T10:15:00Z,KAEL 041015Z AUTO 06008KT 10SM 02/00 A2976 RMK AO2
KAEX,2023-04-04T09:53:00Z,KAEX 040953Z 17007KT 6SM BR OVC016 23/21 A2976 RMK AO2 SLP081 T02280211
KAFF,2023-04-04T10:10:00Z,KAFF 041010Z AUTO 35015KT 10SM BKN011 BKN100 M02/M05 A2934 RMK AO2 BKN011 V SCT SLP896
KAFJ,2023-04-04T09:56:00Z,KAFJ 040956Z AUTO 21004KT 10SM CLR 11/04 A2994 RMK AO2 SLP137 T01110039
KAFK,2023-04-04T10:15:00Z,KAFK 041015Z AUTO 09012G21KT 10SM CLR 07/00 A2948 RMK AO2 T00680000
KAFN,2023-04-04T09:52:00Z,KAFN 040952Z AUTO 00000KT 9SM -RA OVC065 04/03 A3004 RMK AO2 RAB08 SLP182 P0000 T00440028
KAFO,2023-04-04T10:15:00Z,KAFO 041015Z AUTO 30005KT 1 1/4SM SN OVC008 M06/M06 A2948 RMK AO2
KAFP,2023-04-04T10:09:00Z,KAFP 041009Z AUTO 00000KT 10SM OVC013 14/13 A3002 RMK AO2 T01360130
KAFW,2023-04-04T09:53:00Z,KAFW 040953Z 19018G28KT 9SM FEW015 OVC250 22/19 A2954 RMK AO2 PK WND 18028/0950 SLP988 T02220194
KAGC,2023-04-04T09:53:00Z,KAGC 040953Z 19006KT 10SM CLR 12/02 A2991 RMK AO2 SLP127 T01170022
KAGI,2023-04-04T10:15:00Z,KAGI 041015Z AUTO 7SM SCT010 24/22 A2978 RMK AO2 T02400222
KAGO,2023-04-04T10:15:00Z,KAGO 041015Z AUTO 15006KT 6SM BR OVC020 20/19 A2969 RMK A01
KAGS,2023-04-04T10:14:00Z,KAGS 041014Z 00000KT 7SM OVC014 15/15 A3001 RMK AO2 T01500150
KAHN,2023-04-04T09:51:00Z,KAHN 040951Z AUTO 00000KT 10SM OVC011 14/12 A3001 RMK AO2 SLP161 T01390117
KAHQ,2023-04-04T10:15:00Z,KAHQ 041015Z AUTO 06013KT 10SM BKN036 05/00 A2952 RMK AO2 T00511001
KAIA,2023-04-04T10:24:00Z,KAIA 041024Z AUTO 03021G28KT 2 1/2SM -FZRA BR BKN007 BKN012 OVC020 M03/M04 A2957 RMK AO2 PK WND 04029/0957 UPB04E11FZRAB11SNE04 P0000 I1003 T10281044
KAID,2023-04-04T10:15:00Z,KAID 041015Z AUTO 19005KT 10SM CLR 12/09 A2983 RMK AO2 T01150086
KAIG,2023-04-04T10:15:00Z,KAIG 041015Z AUTO 06007KT 10SM CLR M02/M04 A2992 RMK AO2 T10231041
KAIK,2023-04-04T10:15:00Z,KAIK 041015Z AUTO 00000KT 2 1/2SM BR OVC012 14/14 A3002 RMK AO2 VIS 1 1/4V4 T01370136
KAIO,2023-04-04T10:15:00Z,KAIO 041015Z AUTO 07014G21KT 10SM OVC041 06/04 A2953 RMK AO2
KAIT,2023-04-04T10:15:00Z,KAIT 041015Z AUTO 07011G19KT 10SM OVC010 M02/M03 A2994 RMK AO2
KAIZ,2023-04-04T09:56:00Z,KAIZ 040956Z AUTO 14007KT 8SM CLR 19/18 RMK AO2 SLPNO T01890178 $
KAJG,2023-04-04T10:15:00Z,KAJG 041015Z AUTO 14007KT 10SM SCT012 BKN034 15/14 A2976 RMK AO2 LTG DSNT NE T01520141
KAJR,2023-04-04T10:15:00Z,KAJR 041015Z AUTO 00000KT 10SM OVC012 14/10 A3003 RMK AO2 T01410104
KAJZ,2023-04-04T10:15:00Z,KAJZ 041015Z AUTO 22008KT 10SM BKN100 03/M05 A2943 RMK AO2 T00251047
KAKH,2023-04-04T10:22:00Z,KAKH 041022Z AUTO 00000KT 1/4SM FG VV002 13/12 A3002 RMK AO2 T01280122
KAKO,2023-04-04T09:53:00Z,KAKO 040953Z AUTO 07021G27KT 10SM OVC015 M01/M05 A2941 RMK AO2 PK WND 08028/0859 SLP947 T10111050
KAKQ,2023-04-04T09:54:00Z,KAKQ 040954Z AUTO 00000KT 10SM OVC075 15/13 A3001 RMK AO2 SLP162 T01500133
KAKR,2023-04-04T09:54:00Z,KAKR 040954Z AUTO 00000KT 10SM CLR 09/02 A2988 RMK AO2 SLP115 T00890022
KALB,2023-04-04T09:51:00Z,KALB 040951Z 00000KT 10SM -RA BKN048 BKN085 OVC110 08/04 A3004 RMK AO2 RAB0853E24B50 SLP173 P0001 T00780044
KALI,2023-04-04T10:08:00Z,KALI 041008Z AUTO 14008KT 6SM BR FEW014 22/22 A2961 RMK AO2 T02170217 $
KALK,2023-04-04T09:56:00Z,KALK 040956Z AUTO 28015G26KT 10SM CLR 09/M03 A2981 RMK AO2 PK WND 26030/0923 SLP016 T00941033 $
KALM,2023-04-04T10:15:00Z,KALM 041015Z AUTO 16013G20KT 10SM SCT040 BKN048 BKN060 14/M13 A2964 RMK AO2
KALN,2023-04-04T10:15:00Z,KALN 041015Z AUTO 00000KT 7SM OVC011 18/17 A2966 RMK AO2 T01750172
KALO,2023-04-04T09:54:00Z,KALO 040954Z AUTO 08008KT 10SM BKN040 06/02 A2973 RMK AO2 SLP070 T00610022 $
KALS,2023-04-04T09:52:00Z,KALS 040952Z AUTO 22025G36KT 10SM SCT065 03/M07 A2940 RMK AO2 PK WND 22038/0857 SLP890 T00331067
KALW,2023-04-04T10:14:00Z,KALW 041014Z AUTO 18007KT 10SM BKN026 BKN050 OVC090 01/M02 A3000 RMK AO2 T00111017
KAMA,2023-04-04T09:53:00Z,KAMA 040953Z AUTO 21016G29KT 10SM CLR 17/M17 A2947 RMK AO2 PK WND 23030/0929 SLP921 T01721167
KAMG,2023-04-04T09:53:00Z,KAMG 040953Z AUTO 00000KT 1/4SM FG VV002 18/17 A3000 RMK AO2 SLP157 T01780172
KAMN,2023-04-04T10:15:00Z,KAMN 041015Z AUTO 07005KT 10SM RA SCT007 SCT031 OVC080 05/05 A2994 RMK AO2 T00500047
KAMW,2023-04-04T09:53:00Z,KAMW 040953Z AUTO 07010G17KT 10SM OVC050 07/02 A2965 RMK AO2 SLP040 T00670017
KANB,2023-04-04T09:53:00Z,KANB 040953Z AUTO 05006KT 10SM OVC004 16/16 A2996 RMK AO2 SLP142 T01610156
KAND,2023-04-04T09:56:00Z,KAND 040956Z AUTO 08003KT 10SM OVC021 14/12 A3001 RMK AO2 SLP156 T01390122
KANE,2023-04-04T10:15:00Z,KANE 041015Z AUTO 04009KT 10SM OVC080 01/M01 A2987 RMK AO2
KANJ,2023-04-04T09:55:00Z,KANJ 040955Z AUTO 07006KT 10SM BKN024 OVC070 M01/M04 A3007 RMK AO2 SLP187 T10111044
KANK,2023-04-04T10:10:00Z,KANK 041010Z AUTO 25009G21KT 180V280 10SM SCT100 BKN120 04/M09 A2942 RMK AO1 T00411094
KANQ,2023-04-04T10:15:00Z,KANQ 041015Z AUTO 09008KT 7SM OVC006 08/08 A2986 RMK AO2
KANW,2023-04-04T10:15:00Z,KANW 041015Z AUTO 03018G22KT 10SM OVC011 M02/M04 A2964 RMK AO2 T10201041
KAOH,2023-04-04T09:53:00Z,KAOH 040953Z AUTO 04004KT 10SM OVC029 09/06 A2986 RMK AO2 SLP110 T00890061
KAOO,2023-04-04T09:53:00Z,KAOO 040953Z AUTO 20005KT 10SM CLR 09/02 A2993 RMK AO2 SLP132 T00890022
KAPA,2023-04-04T09:53:00Z,KAPA 040953Z 34018KT 8SM -SN BKN006 OVC025 M03/M04 A2941 RMK AO2 PK WND 34029/0924 SNB32 SLP948 P0000 T10281044
KAPC,2023-04-04T09:54:00Z,KAPC 040954Z 00000KT 10SM CLR 04/00 A3019 RMK AO2 SLP213 T00390000
KAPF,2023-04-04T10:22:00Z,KAPF 041022Z 10006KT 10SM SCT023 SCT028 23/21 A2999 RMK AO2 T02280211
KAPG,2023-04-04T09:55:00Z,KAPG 040955Z 00000KT 9SM CLR 07/06 A2997 RMK AO2A SLP152 T00650064 $
KAPN,2023-04-04T09:54:00Z,KAPN 040954Z AUTO 03003KT 10SM CLR M01/M02 A3001 RMK AO2 SLP168 T10111022
KAPS,2023-04-04T10:18:00Z,KAPS 041018Z AUTO 15005KT 10SM BKN017 BKN023 22/21 A2987 RMK AO2
KAPY,2023-04-04T10:15:00Z,KAPY 041015Z AUTO 14008KT 10SM CLR 25/20 A2959 RMK AO2 T02450200 TSNO
KAQO,2023-04-04T10:15:00Z,KAQO 041015Z AUTO 15006KT 9SM FEW020 FEW026 FEW042 22/19 A2961 RMK AO2
KAQP,2023-04-04T10:13:00Z,KAQP 041013Z AUTO 04012KT 1 3/4SM -SN M02/M03 A2988 RMK AO2
KAQV,2023-04-04T09:57:00Z,KAQV 040957Z AUTO VRB03KT 8SM OVC017 22/20 A2973 RMK AO2 SLP064 T02220200
KAQW,2023-04-04T09:52:00Z,KAQW 040952Z AUTO 10SM -RA BKN090 OVC110 A3003 RMK AO2 SLPNO P0000 TSNO $
KAQX,2023-04-04T10:15:00Z,KAQX 041015Z AUTO 00000KT 9SM OVC015 16/16 A3002 RMK AO2
KARA,2023-04-04T09:53:00Z,KARA 040953Z AUTO 19009KT 9SM OVC008 23/22 A2981 RMK AO2 SLP093 T02330217
KARB,2023-04-04T10:03:00Z,KARB 041003Z AUTO 05006KT 10SM OVC005 07/06 A2991 RMK AO2 T00720056
KARG,2023-04-04T09:56:00Z,KARG 040956Z AUTO 18015KT 9SM CLR 19/19 A2970 RMK AO2 SLP056 T01940194
KARM,2023-04-04T10:15:00Z,KARM 041015Z AUTO 16009KT 7SM OVC007 22/22 A2970 RMK AO2 T02230223 TSNO
KARR,2023-04-04T09:52:00Z,KARR 040952Z AUTO 06016G23KT 9SM SCT008 OVC025 07/06 A2980 RMK AO2 LTG DSNT SW RAE27 SLP094 P0000 T00720061
KART,2023-04-04T09:56:00Z,KART 040956Z AUTO 00000KT 10SM OVC070 05/02 A2998 RMK AO2 SLP154 T00500017
KARV,2023-04-04T10:15:00Z,KARV 041015Z AUTO 09005KT 10SM OVC009 M02/M04 A2993 RMK AO2 T10231043
KARW,2023-04-04T10:15:00Z,KARW 041015Z AUTO 00000KT 10SM BKN023 OVC030 18/18 A3002 RMK AO2
KASD,2023-04-04T09:53:00Z,KASD 040953Z AUTO 18005KT 9SM CLR 23/22 A2987 RMK AO2 SLP115 T02330222
KASE,2023-04-04T10:20:00Z,KASE 041020Z AUTO 01007KT 2 1/2SM -SN BR FEW010 BKN018 OVC030 M04/M06 A2936 RMK AO2 P0000 T10441061
KASH,2023-04-04T09:56:00Z,KASH 040956Z AUTO 12003KT 10SM -RA OVC070 07/07 A3005 RMK AO2 SLP181 P0001 T00670067
KASJ,2023-04-04T10:05:00Z,KASJ 041005Z AUTO 00000KT 10SM SCT075 OVC090 15/15 A3002 RMK AO2 T01460146
KASL,2023-04-04T10:15:00Z,KASL 041015Z AUTO 18008KT 10SM CLR 22/20 A2967 RMK AO2 T02200204 $
KASN,2023-04-04T10:15:00Z,KASN 041015Z AUTO 00000KT 10SM OVC010 17/17 A2997 RMK AO2 T01700165
KAST,2023-04-04T09:55:00Z,KAST 040955Z AUTO 15007KT 10SM FEW024 BKN050 OVC060 03/02 A3012 RMK AO2 RAE0857B19E53 SLP200 P0001 T00330017
KASW,2023-04-04T10:15:00Z,KASW 041015Z AUTO 11008KT 10SM OVC024 08/07 A2984 RMK AO2 T00910070
KASX,2023-04-04T09:53:00Z,KASX 040953Z AUTO 07014G24KT 10SM OVC014 M01/M04 A2999 RMK AO2 SLP167 T10111039
KATA,2023-04-04T10:15:00Z,KATA 041015Z AUTO 17006KT 10SM CLR 21/20 A2966 RMK AO2 SLP946 T02080197 $
KATL,2023-04-04T10:00:00Z,KATL 041000Z 07006KT 1/8SM R09R/2600V3000FT FG VV002 14/14 A3001 RMK AO2 SFC VIS 1/2 T01440139 $
KATP,2023-04-04T10:15:00Z,KATP 041015Z AUTO 15014G22KT 3SM HZ CLR 25/22 A2986 RMK A01
KATS,2023-04-04T10:15:00Z,KATS 041015Z AUTO 21019KT 10SM CLR 16/M16 A2956 RMK AO2
KATT,2023-04-04T09:51:00Z,KATT 040951Z AUTO 17007G22KT 8SM OVC013 23/21 A2964 RMK AO2 SLP023 T02330206
KATW,2023-04-04T10:15:00Z,KATW 041015Z AUTO 05014G21KT 10SM OVC006 M01/M02 A2991 RMK AO2
KATY,2023-04-04T10:01:00Z,KATY 041001Z AUTO 03012KT 3SM -SN BR FEW006 SCT013 BKN075 M05/M06 A2980 RMK AO2 PRESFR P0000 T10501056
KAUG,2023-04-04T09:53:00Z,KAUG 040953Z AUTO 00000KT 10SM SCT090 BKN110 04/00 A3003 RMK AO2 SLP171 T00440000
KAUH,2023-04-04T10:15:00Z,KAUH 041015Z AUTO 05013G20KT 10SM CLR 03/M01 A2948 RMK AO2 T00291010
KAUM,2023-04-04T10:17:00Z,KAUM 041017Z AUTO 07007KT 10SM OVC065 03/00 A2976 RMK AO2
KAUN,2023-04-04T10:15:00Z,KAUN 041015Z AUTO 00000KT 10SM CLR 00/M04 A3011 RMK A01
KAUO,2023-04-04T09:59:00Z,KAUO 040959Z AUTO 16003KT 1/2SM FG OVC002 18/18 A2999 RMK AO2
KAUS,2023-04-04T09:53:00Z,KAUS 040953Z 18010KT 7SM BKN015 OVC250 22/21 A2963 RMK AO2 SLP023 T02220211 $
KAUW,2023-04-04T09:54:00Z,KAUW 040954Z AUTO 07009G17KT 10SM CLR 00/M04 A2988 RMK AO2 SLP131 T00001039
KAVC,2023-04-04T10:15:00Z,KAVC 041015Z AUTO 17003KT 10SM BKN009 BKN040 OVC080 15/14 A3007 RMK AO2 T01450142
KAVK,2023-04-04T10:20:00Z,KAVK 041020Z AUTO 17011KT 10SM SCT042 BKN050 BKN060 13/M04 A2938 RMK AO2 PWINO
KAVL,2023-04-04T09:54:00Z,KAVL 040954Z AUTO 00000KT 10SM CLR 06/04 A3003 RMK AO2 SLP164 T00610039
KAVP,2023-04-04T09:54:00Z,KAVP 040954Z 10005KT 10SM FEW110 09/06 A2995 RMK AO2 SLP140 T00890056
KAVQ,2023-04-04T10:15:00Z,KAVQ 041015Z AUTO 29009KT 7SM 09/M11 A2984 RMK AO2 T00911113
KAVX,2023-04-04T10:20:00Z,KAVX 041020Z AUTO 31013G19KT 10SM BKN018 BKN024 07/03 A3005 RMK AO2 T00720033
KAWG,2023-04-04T10:15:00Z,KAWG 041015Z AUTO 08016KT 10SM FEW013 BKN029 BKN065 08/08 A2968 RMK AO2
KAWM,2023-04-04T09:53:00Z,KAWM 040953Z AUTO 19011KT 10SM BKN020 21/19 A2976 RMK AO2 SLP073 T02060189
KAWO,2023-04-04T09:56:00Z,KAWO 040956Z AUTO 17004KT 10SM CLR 02/01 A3009 RMK AO2 SLP194 T00170011 FZRANO
KAXA,2023-04-04T10:15:00Z,KAXA 041015Z AUTO 04010KT 10SM SCT065 00/00 A2968 RMK A01
KAXH,2023-04-04T10:15:00Z,KAXH 041015Z AUTO 16005KT 7SM SCT005 SCT012 23/22 A2971 RMK AO2 T02250217
KAXN,2023-04-04T10:02:00Z,KAXN 041002Z AUTO 35004KT 3SM BR OVC002 M01/M02 A2990 RMK AO2 T10111017
KAXS,2023-04-04T10:15:00Z,KAXS 041015Z AUTO 19012KT 10SM CLR 16/12 A2949 RMK AO2 T01640121
KAXV,2023-04-04T10:15:00Z,KAXV 041015Z AUTO 00000KT 10SM OVC026 11/08 A2986 RMK AO2
KAXX,2023-04-04T10:15:00Z,KAXX 041015Z AUTO 21017G28KT 10SM CLR 04/M13 A2946 RMK AO2 T00361133
KAYS,2023-04-04T10:15:00Z,KAYS 041015Z AUTO 00000KT 3/4SM BR OVC003 17/16 A3001 RMK AO2 T01650160
KAZC,2023-04-04T10:15:00Z,KAZC 041015Z AUTO 30017G20KT 10SM SCT030 SCT035 OVC055 M01/M05 A2968 RMK AO2
KAZE,2023-04-04T10:15:00Z,KAZE 041015Z AUTO 00000KT 1SM BR OVC003 18/18 A3001 RMK AO2 T01780177
KAZO,2023-04-04T09:53:00Z,KAZO 040953Z 06005KT 5SM RA BR OVC007 08/06 A2990 RMK AO2 RAB33 SLP127 P0003 T00780061
KBAB,2023-04-04T09:55:00Z,KBAB 040955Z AUTO 00000KT 10SM CLR 01/M02 A3015 RMK AO2 SLP213 T00101019 $
KBAC,2023-04-04T10:15:00Z,KBAC 041015Z AUTO 01009KT 10SM OVC005 M07/M07 A2995 RMK AO2
KBAD,2023-04-04T10:15:00Z,KBAD 041015Z AUTO 16009KT 10SM SCT026 21/19 A2970 RMK AO2 SLP060
KBAF,2023-04-04T09:53:00Z,KBAF 040953Z AUTO 00000KT 10SM -RA OVC090 06/03 A3003 RMK AO2 RAB46 SLP172 P0000 T00560028
KBAM,2023-04-04T10:15:00Z,KBAM 041015Z AUTO 35004KT 10SM SCT021 BKN039 OVC050 M03/M06 A2988 RMK AO1
KBAN,2023-04-04T09:52:00Z,KBAN 040952Z AUTO 00000KT 10SM OVC047 M11/M17 A2989 RMK AO2 SLP167 T11111172 $ 
KBAX,2023-04-04T10:15:00Z,KBAX 041015Z AUTO 03005KT 10SM SCT060 OVC090 05/03 A2996 RMK AO2 T00450031
KBAZ,2023-04-04T09:51:00Z,KBAZ 040951Z AUTO 18008KT 7SM BKN013 23/21 A2964 RMK AO2 SLP025 T02280211
KBBB,2023-04-04T10:15:00Z,KBBB 041015Z AUTO 03007KT 2 1/2SM -SN OVC010 M02/M03 A2990 RMK AO2
KBBD,2023-04-04T10:15:00Z,KBBD 041015Z AUTO 18007KT 10SM CLR 22/18 A2960 RMK AO2
KBBG,2023-04-04T10:15:00Z,KBBG 041015Z AUTO 17006KT 10SM FEW120 22/19 A2962 RMK AO2
KBBP,2023-04-04T10:15:00Z,KBBP 041015Z AUTO 00000KT 10SM OVC014 14/13 A3002 RMK AO2
KBBW,2023-04-04T10:03:00Z,KBBW 041003Z AUTO 03014G26KT 10SM OVC030 01/M04 A2951 RMK AO2 PK WND 02026/0958 T00111039
KBCB,2023-04-04T10:15:00Z,KBCB 041015Z AUTO 00000KT 10SM CLR 07/07 A3005 RMK AO2 T00700070
KBCE,2023-04-04T10:20:00Z,KBCE 041020Z AUTO 29013KT 7SM -SN SCT006 M11/M13 A2952 RMK AO2 SNB18 P0000 T11061128
KBCK,2023-04-04T10:15:00Z,KBCK 041015Z AUTO 06005KT 10SM CLR 01/M02 A2985 RMK AO2 T00141023
KBCR,2023-04-04T09:57:00Z,KBCR 040957Z AUTO 00000KT 6SM BR SCT013 BKN021 22/21 A2996 RMK AO2 SLP104 T02220211
KBDE,2023-04-04T10:13:00Z,KBDE 041013Z AUTO 08011KT 10SM OVC016 M03/M07 A3001 RMK AO2 T10331072
KBDG,2023-04-04T10:15:00Z,KBDG 041015Z AUTO 23012G17KT 10SM M02/M08 A2957 RMK AO1 T10161078
KBDH,2023-04-04T10:15:00Z,KBDH 041015Z AUTO 04007KT 10SM SCT075 SCT085 01/M02 A2990 RMK AO2
KBDL,2023-04-04T09:51:00Z,KBDL 040951Z 00000KT 10SM SCT100 BKN130 07/03 A3004 RMK AO2 SLP172 T00670033
KBDN,2023-04-04T10:15:00Z,KBDN 041015Z AUTO 20005KT 10SM CLR M04/M08 A3001 RMK AO2
KBDR,2023-04-04T09:52:00Z,KBDR 040952Z AUTO 10004KT 10SM FEW100 06/05 A3003 RMK AO2 SLP167 T00610050
KBDU,2023-04-04T10:15:00Z,KBDU 041015Z AUTO 36013G16KT 10SM -SN BKN008 OVC014 M01/M02 A2946 RMK AO2
KBEA,2023-04-04T10:15:00Z,KBEA 041015Z AUTO 15010KT 10SM OVC010 22/22 A2963 RMK AO2 T02230215
KBEC,2023-04-04T10:15:00Z,KBEC 041015Z AUTO 18014G19KT 10SM CLR 20/16 A2939 RMK AO2 T01960164
KBED,2023-04-04T09:51:00Z,KBED 040951Z AUTO 00000KT 10SM -RA BKN065 BKN080 OVC095 07/04 A3004 RMK AO2 RAB44 SLP187 P0000 T00720044
KBEH,2023-04-04T09:53:00Z,KBEH 040953Z AUTO 08008KT 10SM -RA FEW007 OVC028 08/06 A2986 RMK AO2 RAE12B33 SLP112 P0001 T00780061
KBFD,2023-04-04T09:53:00Z,KBFD 040953Z AUTO 00000KT 10SM BKN065 BKN100 06/02 A2992 RMK AO2 SLP130 T00610022
KBFF,2023-04-04T10:18:00Z,KBFF 041018Z AUTO 04013KT 3SM -SN BKN013 OVC021 M02/ A2958 RMK AO2 P0002 T1017 $
KBFI,2023-04-04T10:13:00Z,KBFI 041013Z 12006KT 10SM FEW016 BKN023 OVC042 04/01 A3009 RMK AO2 T00390011
KBFL,2023-04-04T09:54:00Z,KBFL 040954Z AUTO 02004KT 10SM CLR 05/01 A3013 RMK AO2 SLP201 T00500006
KBFM,2023-04-04T10:22:00Z,KBFM 041022Z 17006KT 3/4SM BR VV002 23/22 A2993 RMK AO2 T02280217
KBFR,2023-04-04T10:15:00Z,KBFR 041015Z AUTO 15006KT 10SM OVC009 15/11 A2981 RMK AO2 LTG DSNT N
KBGD,2023-04-04T09:51:00Z,KBGD 040951Z AUTO 20018G26KT 10SM CLR 20/M17 A2942 RMK AO2 PK WND 20032/0855 SLP915 T02001172 $
KBGE,2023-04-04T10:15:00Z,KBGE 041015Z AUTO 17006KT 2 1/2SM BR OVC003 21/21 A2998 RMK AO2 T02080207
KBGF,2023-04-04T10:15:00Z,KBGF 041015Z AUTO 13009KT 10SM OVC009 16/16 A2993 RMK A01
KBGM,2023-04-04T09:53:00Z,KBGM 040953Z AUTO 07006KT 10SM BKN110 06/03 A2996 RMK AO2 SLP147 T00610033
KBGR,2023-04-04T09:53:00Z,KBGR 040953Z 00000KT 10SM FEW100 BKN200 M02/M03 A3002 RMK AO2 SLP167 T10171033
KBHB,2023-04-04T09:56:00Z,KBHB 040956Z AUTO 00000KT 10SM OVC110 03/02 A3003 RMK AO2 SLP171 T00330022
KBHC,2023-04-04T10:15:00Z,KBHC 041015Z AUTO 00000KT 1/4SM FG OVC003 17/17 A3001 RMK AO2
KBHK,2023-04-04T09:51:00Z,KBHK 040951Z AUTO 11008KT 10SM FEW013 BKN019 OVC026 M03/M06 A2985 RMK AO2 SLP132 T10331056
KBHM,2023-04-04T09:53:00Z,KBHM 040953Z 15004KT 5SM BR BKN007 BKN014 OVC023 19/18 A2996 RMK AO2 SLP138 T01940183
KBID,2023-04-04T10:21:00Z,KBID 041021Z AUTO 20006KT 6SM BR BKN023 07/06 A3007 RMK AO2
KBIE,2023-04-04T10:15:00Z,KBIE 041015Z AUTO 08011G16KT 10SM CLR 07/00 A2945 RMK AO2 T00661005
KBIF,2023-04-04T09:55:00Z,KBIF 040955Z AUTO 23016G22KT 10SM CLR 18/M13 A2964 RMK AO2 PK WND 26030/32 SLP973 T01761133 $
KBIH,2023-04-04T09:56:00Z,KBIH 040956Z AUTO 35013KT 10SM CLR M02/M13 A2996 RMK AO2 SLP144 T10221128
KBIL,2023-04-04T09:53:00Z,KBIL 040953Z 03012KT 10SM SCT060 OVC080 M04/M07 A2981 RMK AO2 SLP120 T10391067
KBIS,2023-04-04T09:52:00Z,KBIS 040952Z 02010KT 10SM OVC012 M09/M12 A2997 RMK AO2 SLP178 T10891122
KBIV,2023-04-04T09:53:00Z,KBIV 040953Z AUTO 08006KT 10SM OVC043 07/06 A2989 RMK AO2 RAE25 SLP126 P0001 T00720061
KBIX,2023-04-04T09:55:00Z,KBIX 040955Z AUTO 17004KT 10SM OVC004 23/22 A2986 RMK AO2 SLP114 T02290222
KBJC,2023-04-04T10:15:00Z,KBJC 041015Z AUTO 36014G19KT 10SM UP OVC007 M02/M03 A2945 RMK AO2
KBJI,2023-04-04T10:15:00Z,KBJI 041015Z AUTO 06004KT 10SM OVC008 M02/M03 A2995 RMK AO2 T10251035
KBJJ,2023-04-04T09:56:00Z,KBJJ 040956Z AUTO 12003KT 10SM OVC037 08/07 A2988 RMK AO2 SLP118 T00780067
KBKB,2023-04-04T09:52:00Z,KBKB 040952Z AUTO VRB03KT 7SM OVC014 23/21 A2973 RMK AO2 SLP093 T02280211
KBKD,2023-04-04T10:15:00Z,KBKD 041015Z AUTO 18009KT 10SM CLR 23/20 A2953 RMK AO2 T02310195
KBKE,2023-04-04T09:53:00Z,KBKE 040953Z AUTO 34010KT 10SM SCT043 BKN050 M02/M05 A2989 RMK AO2 SLP140 T10221050
KBKF,2023-04-04T09:58:00Z,KBKF 040958Z 34018KT 6SM -SN BKN007 OVC012 M02/M05 A2940 RMK AO2A PK WND 32028/0858 SNB35 SLP922 P0000 T10251050
KBKL,2023-04-04T09:53:00Z,KBKL 040953Z 00000KT 10SM FEW045 SCT070 09/06 A2987 RMK AO2 SLP117 T00940056
KBKN,2023-04-04T10:15:00Z,KBKN 041015Z AUTO 17015G20KT 21/19 A2941 RMK AO2
KBKS,2023-04-04T10:15:00Z,KBKS 041015Z AUTO 15011KT 10SM CLR 23/23 A2960 RMK AO2 SLP984 T02310228 $
KBKT,2023-04-04T10:15:00Z,KBKT 041015Z AUTO 21005KT 10SM OVC070 14/10 A3001 RMK AO1 T01430095
KBKV,2023-04-04T10:25:00Z,KBKV 041025Z AUTO 00000KT 1/4SM FG VV008 16/16 A3002 RMK AO2 T01560156 $
KBKW,2023-04-04T09:51:00Z,KBKW 040951Z AUTO 19005KT 10SM CLR 09/05 A3000 RMK AO2 SLP146 T00890050
KBKX,2023-04-04T09:56:00Z,KBKX 040956Z AUTO 03011G20KT 6SM BR OVC003 M03/M04 A2978 RMK AO2 SLP117 T10331039 FZRANO
KBLF,2023-04-04T10:21:00Z,KBLF 041021Z AUTO 25005KT 10SM BKN028 11/05 A3003 RMK AO2 T01060050
KBLI,2023-04-04T09:53:00Z,KBLI 040953Z AUTO 00000KT 10SM FEW026 BKN060 04/03 A3005 RMK AO2 SLP183 T00390028
KBLM,2023-04-04T09:56:00Z,KBLM 040956Z AUTO VRB04KT 10SM CLR 12/ A3002 RMK AO2 SLP165 T0117
KBLU,2023-04-04T09:52:00Z,KBLU 040952Z AUTO VRB05KT 10SM CLR M06/M13 A3000 RMK AO2 SLP191 T10561128
KBLV,2023-04-04T09:55:00Z,KBLV 040955Z 18008KT 9SM BKN015 18/17 A2966 RMK AO2A SLP044 T01820172 $
KBMC,2023-04-04T10:15:00Z,KBMC 041015Z AUTO 00000KT 1 1/4SM BKN007 OVC011 M02/M04 A2964 RMK AO1 T10251042
KBMG,2023-04-04T10:25:00Z,KBMG 041025Z 12005KT 10SM VCTS OVC009 14/12 A2980 RMK AO2 LTG DSNT NE AND E TSB00E22 TS VC NE MOV E T01440117
KBMI,2023-04-04T09:56:00Z,KBMI 040956Z AUTO 02009KT 10SM BKN009 OVC016 11/09 A2975 RMK AO2 LTG DSNT N AND NE SLP068 T01060094
KBML,2023-04-04T09:52:00Z,KBML 040952Z AUTO 00000KT 10SM BKN090 M02/M02 A3000 RMK AO2 SLP173 I1000 T10171022
KBMQ,2023-04-04T09:53:00Z,KBMQ 040953Z AUTO 18010G21KT 8SM CLR 22/20 A2964 RMK AO2 PK WND 18027/0915 SLP014 T02220200
KBMT,2023-04-04T10:15:00Z,KBMT 041015Z AUTO 16007KT 10SM OVC010 23/22 A2974 RMK AO2 T02260221
KBNA,2023-04-04T09:53:00Z,KBNA 040953Z 19008KT 10SM OVC009 19/17 A2988 RMK AO2 SLP113 T01890167
KBNL,2023-04-04T10:15:00Z,KBNL 041015Z AUTO 00000KT 10SM OVC017 16/16 A3003 RMK AO2
KBNO,2023-04-04T09:53:00Z,KBNO 040953Z AUTO 29009KT 10SM OVC041 M03/M09 A2992 RMK AO2 SLP154 T10331089 $
KBNW,2023-04-04T10:15:00Z,KBNW 041015Z AUTO 08019G25KT 10SM OVC047 06/03 A2964 RMK AO2
KBOI,2023-04-04T09:53:00Z,KBOI 040953Z 31011KT 10SM FEW120 M01/M06 A2981 RMK AO2 SLP104 T10061056
KBOK,2023-04-04T09:56:00Z,KBOK 040956Z AUTO 00000KT 10SM CLR 01/01 A3028 RMK AO2 SLP256 T00060006
KBOS,2023-04-04T09:54:00Z,KBOS 040954Z 14004KT 10SM -RA BKN065 OVC100 07/04 A3006 RMK AO2 RAB53 SLP178 P0000 T00720044
KBOW,2023-04-04T10:15:00Z,KBOW 041015Z AUTO 00000KT 10SM CLR 17/16 A3001 RMK AO2
KBPC,2023-04-04T10:15:00Z,KBPC 041015Z AUTO 21009KT 10SM CLR 14/M15 A2942 RMK AO2
KBPG,2023-04-04T10:15:00Z,KBPG 041015Z AUTO 17008KT 10SM CLR 16/M10 A2958 RMK AO2 T01581102
KBPI,2023-04-04T09:53:00Z,KBPI 040953Z AUTO 32003KT 10SM OVC050 M07/M09 A2944 RMK AO2 SLP987 T10721089
KBPK,2023-04-04T09:53:00Z,KBPK 040953Z AUTO 21010KT 9SM -RA CLR 21/18 A2962 RMK AO2 RAB46 SLP020 P0000 T02110183
KBPT,2023-04-04T10:10:00Z,KBPT 041010Z AUTO 16012G19KT 8SM OVC008 23/22 A2974 RMK AO2 CIG 006V012 T02330222
KBQK,2023-04-04T10:15:00Z,KBQK 041015Z AUTO 00000KT 1/2SM FG OVC001 17/16 A3001 RMK AO2 T01660160
KBQP,2023-04-04T10:15:00Z,KBQP 041015Z AUTO 14003KT 7SM BKN006 OVC016 21/21 A2978 RMK AO2 T02140210
KBQX,2023-04-04T10:15:00Z,KBQX 041015Z AUTO 17014KT 2 1/2SM BR CLR 24/23 A2971 RMK A01
KBRD,2023-04-04T09:53:00Z,KBRD 040953Z AUTO 07009G15KT 10SM OVC012 M01/M04 A2991 RMK AO2 SLP145 T10061039
KBRG,2023-04-04T10:15:00Z,KBRG 041015Z AUTO 22020G28KT 10SM CLR 12/M18 A2953 RMK AO2 T01211184
KBRL,2023-04-04T10:01:00Z,KBRL 041001Z AUTO 06016G26KT 10SM BKN024 07/05 A2966 RMK AO2 PK WND 06026/1001 T00720050
KBRO,2023-04-04T10:19:00Z,KBRO 041019Z AUTO 15011KT 9SM BKN012 23/23 A2966 RMK AO2 T02330228
KBRY,2023-04-04T10:15:00Z,KBRY 041015Z AUTO 17005KT 10SM OVC013 16/14 A2985 RMK AO2 T01600142 $
KBTA,2023-04-04T10:15:00Z,KBTA 041015Z AUTO 06018G22KT 10SM OVC040 05/00 A2951 RMK AO2 T00510000
KBTL,2023-04-04T10:19:00Z,KBTL 041019Z AUTO 11009KT 4SM RA BR FEW005 BKN026 OVC032 07/06 A2988 RMK AO2 P0004 T00720061 $
KBTM,2023-04-04T10:10:00Z,KBTM 041010Z AUTO 34007KT 8SM -SN BKN026 OVC042 M05/M10 A2972 RMK AO2 P0000 T10501100
KBTN,2023-04-04T10:15:00Z,KBTN 041015Z AUTO 02013KT 2 1/2SM -SN BR OVC003 M07/M07 A2989 RMK AO2
KBTP,2023-04-04T09:56:00Z,KBTP 040956Z AUTO 22004KT 10SM CLR 11/03 A2991 RMK AO2 SLP131 T01110028 TSNO $
KBTR,2023-04-04T09:53:00Z,KBTR 040953Z 17007KT 10SM FEW015 BKN022 24/22 A2983 RMK AO2 SLP102 T02390217
KBTV,2023-04-04T09:54:00Z,KBTV 040954Z 00000KT 10SM BKN090 03/02 A3001 RMK AO2 SLP164 T00330017
KBUF,2023-04-04T09:54:00Z,KBUF 040954Z 13007KT 10SM -RA OVC070 08/07 A2993 RMK AO2 SLP139 P0005 T00780072 $
KBUR,2023-04-04T09:53:00Z,KBUR 040953Z 34011G17KT 10SM CLR 09/M05 A3003 RMK AO2 SLP164 T00891050
KBUU,2023-04-04T10:15:00Z,KBUU 041015Z AUTO 09010KT 10SM OVC005 06/05 A2986 RMK AO2 T00550051 PWINO
KBUY,2023-04-04T09:54:00Z,KBUY 040954Z AUTO 00000KT 10SM SCT016 BKN045 13/10 A3001 RMK AO2 SLP158 T01280100
KBVI,2023-04-04T10:15:00Z,KBVI 041015Z AUTO 24006KT 10SM CLR 13/02 A2990 RMK AO2 T01270018
KBVO,2023-04-04T09:53:00Z,KBVO 040953Z AUTO 18011G19KT 9SM CLR 23/19 A2947 RMK AO2 SLP966 T02330194
KBVS,2023-04-04T10:15:00Z,KBVS 041015Z AUTO 00000KT 10SM SCT022 BKN033 OVC040 03/03 A3007 RMK A01
KBVU,2023-04-04T10:15:00Z,KBVU 041015Z AUTO 32018KT 10SM CLR 06/M13 A2983 RMK AO2
KBVX,2023-04-04T09:56:00Z,KBVX 040956Z AUTO 12004KT 9SM OVC014 21/20 A2971 RMK AO2 SLP057 T02110200
KBVY,2023-04-04T09:53:00Z,KBVY 040953Z AUTO 00000KT 10SM FEW070 OVC095 06/04 A3005 RMK AO2 RAE53 SLP171 P0000 T00610044 $
KBWD,2023-04-04T10:15:00Z,KBWD 041015Z AUTO 16008KT 10SM CLR 21/19 A2957 RMK AO1
KBWG,2023-04-04T09:53:00Z,KBWG 040953Z AUTO 17008KT 8SM OVC007 17/15 A2986 RMK AO2 SLP107 T01720150
KBWI,2023-04-04T09:54:00Z,KBWI 040954Z 00000KT 10SM CLR 11/08 A2996 RMK AO2 SLP145 T01110078 $
KBWP,2023-04-04T10:15:00Z,KBWP 041015Z AUTO 01012KT 5SM BR BKN007 OVC020 M06/M06 A2992 RMK AO2
KBWW,2023-04-04T10:15:00Z,KBWW 041015Z AUTO 09010KT 5SM BR BKN006 OVC009 M04/M04 A2985 RMK AO2
KBXA,2023-04-04T10:15:00Z,KBXA 041015Z AUTO 20005KT 10SM BKN013 BKN019 OVC023 24/22 A2989 RMK AO2 T02400217
KBXK,2023-04-04T10:15:00Z,KBXK 041015Z AUTO 29013G18KT 6SM HZ FEW021 SCT035 BKN044 08/M11 A2985 RMK A01
KBYG,2023-04-04T10:25:00Z,KBYG 041025Z AUTO 36010KT 1SM -SN BR SCT004 OVC008 M04/M06 A2969 RMK AO2 P0000 T10441056
KBYI,2023-04-04T10:13:00Z,KBYI 041013Z AUTO 26014G28KT 3SM -SN BR BKN012 OVC031 M03/M05 A2965 RMK AO2 PK WND 28028/1003 P0000 T10331050
KBYL,2023-04-04T10:15:00Z,KBYL 041015Z AUTO 14006KT 10SM OVC018 14/10 A2995 RMK AO1
KBYS,2023-04-04T09:55:00Z,KBYS 040955Z 30017G27KT 10SM FEW100 03/M14 A2992 RMK A02A SLPNO WND DATA ESTMD ALSTG DATA ESTMD $
KBYY,2023-04-04T10:15:00Z,KBYY 041015Z AUTO 18013KT 10SM 23/22 A2970 RMK AO2 T02320220
KBZN,2023-04-04T09:56:00Z,KBZN 040956Z AUTO 01012KT 10SM FEW048 OVC065 M02/M06 A2973 RMK AO2 SLP094 T10221061
KC09,2023-04-04T10:15:00Z,KC09 041015Z AUTO 07008KT 10SM 08/07 A2980 RMK AO2 LTG DSNT SW T00800068
KC29,2023-04-04T10:15:00Z,KC29 041015Z AUTO 09008KT 10SM OVC046 07/06 A2984 RMK AO1 T00650055
KC35,2023-04-04T10:15:00Z,KC35 041015Z AUTO 07009KT 10SM SCT007 OVC060 05/05 A2984 RMK AO2 T00480048 PWINO
KC62,2023-04-04T10:15:00Z,KC62 041015Z AUTO 10005KT 7SM OVC006 08/07 A2986 RMK AO2 T00820080
KC65,2023-04-04T10:15:00Z,KC65 041015Z AUTO 06007KT 10SM OVC021 09/07 A2983 RMK A01
KC75,2023-04-04T10:15:00Z,KC75 041015Z AUTO 05010KT 10SM TS OVC018 09/07 A2975 RMK AO2 LTG DSNT SE THRU W T00860065
KC83,2023-04-04T10:15:00Z,KC83 041015Z AUTO 24011KT 10SM CLR 05/01 A3017 RMK AO2
KC99,2023-04-04T10:15:00Z,KC99 041015Z AUTO 33007KT 1/4SM OVC001 M11/M12 A2935 RMK AO2
KCAD,2023-04-04T10:15:00Z,KCAD 041015Z AUTO 06004KT 10SM BKN110 03/M02 A2993 RMK AO2 T00311020
KCAE,2023-04-04T09:56:00Z,KCAE 040956Z 00000KT 4SM BR BKN018 15/14 A3000 RMK AO2 SLP158 T01500144
KCAG,2023-04-04T09:53:00Z,KCAG 040953Z AUTO 00000KT 10SM BKN070 BKN090 OVC110 M04/M07 A2936 RMK AO2 SNB0854E17 SLP950 P0000 T10391067
KCAK,2023-04-04T09:51:00Z,KCAK 040951Z 09004KT 10SM FEW090 FEW250 07/03 A2988 RMK AO2 SLP118 T00720028 $
KCAO,2023-04-04T09:55:00Z,KCAO 040955Z AUTO 20017KT 10SM CLR 11/M17 A2940 RMK AO2 SLP895 T01111172
KCAR,2023-04-04T09:54:00Z,KCAR 040954Z AUTO 23005KT 10SM OVC037 00/M02 A2993 RMK AO2 SLP145 T00001022
KCAV,2023-04-04T10:15:00Z,KCAV 041015Z AUTO 07017KT 10SM OVC060 02/02 A2968 RMK A01
KCBE,2023-04-04T10:05:00Z,KCBE 041005Z AUTO 00000KT 10SM CLR 06/03 A2999 RMK AO2 T00550033
KCBF,2023-04-04T10:15:00Z,KCBF 041015Z AUTO 10SM OVC037 06/M00 A2949 RMK AO2
KCBK,2023-04-04T10:15:00Z,KCBK 041015Z AUTO 04008KT 10SM CLR 00/M04 A2939 RMK AO2 T10021041
KCBM,2023-04-04T09:55:00Z,KCBM 040955Z 19004KT 6SM BR FEW012 BKN019 20/20 A2984 RMK AO2A SLP109 ALSTG/SLP ESTMD $
KCCA,2023-04-04T10:15:00Z,KCCA 041015Z AUTO 00000KT 2 1/2SM BR FEW026 16/16 A2969 RMK AO2 TSNO
KCCB,2023-04-04T10:15:00Z,KCCB 041015Z AUTO 27007KT 10SM CLR 06/M10 A2999 RMK AO2
KCCO,2023-04-04T10:15:00Z,KCCO 041015Z AUTO 00000KT 1/2SM FG OVC003 16/15 A3000 RMK AO2 T01550150
KCCR,2023-04-04T09:53:00Z,KCCR 040953Z AUTO 15003KT 10SM CLR 05/01 A3019 RMK AO2 SLP210 T00500011
KCCU,2023-04-04T10:15:00Z,KCCU 041015Z AUTO 15017G24KT 10SM SCT025 BKN031 BKN041 M05/M12 A2933 RMK AO2
KCCY,2023-04-04T10:15:00Z,KCCY 041015Z AUTO 07011KT 10SM CLR 04/03 A2973 RMK AO2
KCDA,2023-04-04T10:15:00Z,KCDA 041015Z AUTO 00000KT 5SM BR 00/00 A3002 RMK AO2 T10011003
KCDC,2023-04-04T10:25:00Z,KCDC 041025Z AUTO 5SM -SN BR OVC019 M06/M08 A2966 RMK AO2 P0000 T10611078 $
KCDD,2023-04-04T10:15:00Z,KCDD 041015Z AUTO 06004KT 10SM -SN OVC019 M06/M08 A3007 RMK AO2 TSNO
KCDH,2023-04-04T10:15:00Z,KCDH 041015Z AUTO 14007KT 7SM BKN020 BKN026 21/21 A2971 RMK AO2
KCDI,2023-04-04T10:15:00Z,KCDI 041015Z AUTO 00000KT 10SM BKN035 03/03 A2990 RMK AO2 T00280028
KCDJ,2023-04-04T09:51:00Z,KCDJ 040951Z AUTO 07007KT 10/04 A2955 RMK AO1 SLP003 T01000044
KCDN,2023-04-04T10:15:00Z,KCDN 041015Z AUTO 00000KT 10SM BKN023 BKN036 OVC060 14/14 A3002 RMK AO2
KCDR,2023-04-04T10:01:00Z,KCDR 041001Z AUTO 05017G28KT 1SM -SN BR VV016 M03/M06 A2968 RMK AO2 PK WND 04028/0954 P0000 T10331056
KCDS,2023-04-04T09:53:00Z,KCDS 040953Z AUTO 21010KT 10SM CLR 14/M14 A2948 RMK AO2 SLP958 T01391144
KCDW,2023-04-04T09:53:00Z,KCDW 040953Z AUTO 36003KT 10SM CLR 07/04 A3001 RMK AO2 SLP168 T00670039
KCEC,2023-04-04T09:56:00Z,KCEC 040956Z AUTO 09005KT 7SM CLR 02/01 A3029 RMK AO2 SLP257 T00170006
KCEF,2023-04-04T09:55:00Z,KCEF 040955Z AUTO 00000KT 10SM OVC085 05/04 A3002 RMK AO2 RAB18E38 SLP173 P0000 T00530041
KCEU,2023-04-04T09:54:00Z,KCEU 040954Z AUTO 00000KT 10SM BKN019 BKN037 12/11 A3001 RMK AO2 SLP160 T01220106
KCEW,2023-04-04T09:53:00Z,KCEW 040953Z AUTO 19004KT 9SM OVC008 23/23 A2995 RMK AO2 CIG 006V012 SLP139 T02330228
KCEY,2023-04-04T10:15:00Z,KCEY 041015Z AUTO 14007KT 8SM SCT007 17/17 A2980 RMK A01
KCEZ,2023-04-04T09:53:00Z,KCEZ 040953Z AUTO 23010KT 10SM OVC090 M02/M04 A2954 RMK AO2 SLP961 T10171044
KCFD,2023-04-04T10:15:00Z,KCFD 041015Z AUTO 17012G17KT 10SM OVC013 23/22 A2968 RMK AO2 T02300215
KCFE,2023-04-04T10:15:00Z,KCFE 041015Z AUTO 04013KT 10SM BKN009 OVC013 00/M01 A2986 RMK AO2
KCFJ,2023-04-04T10:15:00Z,KCFJ 041015Z AUTO 16008KT 10SM OVC013 13/08 A2979 RMK AO2 LTG DSNT SE T01310084
KCFO,2023-04-04T10:15:00Z,KCFO 041015Z AUTO 01017G22KT 10SM OVC012 00/M04 A2941 RMK AO2 T10011037
KCFS,2023-04-04T10:15:00Z,KCFS 041015Z AUTO 00000KT 10SM RA BKN036 OVC055 06/05 A2995 RMK AO2 T00570045
KCFV,2023-04-04T09:52:00Z,KCFV 040952Z AUTO 19016G28KT 8SM CLR 23/19 A2945 RMK AO2 PK WND 19030/0909 SLP965 T02280189
KCGC,2023-04-04T10:15:00Z,KCGC 041015Z AUTO 00000KT 7SM CLR A3001 RMK AO2
KCGE,2023-04-04T10:05:00Z,KCGE 041005Z AUTO 15004KT 10SM 12/12 A3001 RMK A01
KCGF,2023-04-04T10:15:00Z,KCGF 041015Z AUTO 05004KT 10SM BKN043 OVC070 09/05 A2990 RMK AO2 T00860046
KCGI,2023-04-04T09:53:00Z,KCGI 040953Z AUTO 17006KT 10SM BKN036 OVC047 19/18 A2973 RMK AO2 SLP065 T01940183
KCGS,2023-04-04T10:10:00Z,KCGS 041010Z AUTO 00000KT 10SM CLR 09/07 A2998 RMK AO2 T00910067
KCGZ,2023-04-04T09:56:00Z,KCGZ 040956Z AUTO 28009KT 10SM CLR 09/M11 A2985 RMK AO2 SLP100 T00891106 PNO $
KCHA,2023-04-04T09:53:00Z,KCHA 040953Z 19004KT 9SM OVC013 15/12 A2998 RMK AO2 SLP149 T01500122
KCHK,2023-04-04T10:15:00Z,KCHK 041015Z AUTO 18015G20KT 7SM CLR 21/20 A2944 RMK AO2 T02100196
KCHO,2023-04-04T09:53:00Z,KCHO 040953Z AUTO 20007KT 10SM CLR 13/08 A2997 RMK AO2 SLP145 T01280083
KCHS,2023-04-04T09:56:00Z,KCHS 040956Z 00000KT 10SM OVC030 18/17 A3003 RMK AO2 SLP168 T01780172
KCIC,2023-04-04T10:15:00Z,KCIC 041015Z AUTO 34008KT 10SM CLR 03/M02 A3016 RMK AO1
KCID,2023-04-04T09:52:00Z,KCID 040952Z 08018G24KT 10SM OVC028 08/04 A2970 RMK AO2 SLP058 T00780039
KCIN,2023-04-04T10:15:00Z,KCIN 041015Z AUTO 06014G19KT 10SM BKN045 OVC060 04/01 A2961 RMK AO2
KCIR,2023-04-04T10:15:00Z,KCIR 041015Z AUTO 20005KT 10SM OVC035 20/18 A2975 RMK AO2 T01950180
KCIU,2023-04-04T10:07:00Z,KCIU 041007Z AUTO 05007KT 10SM OVC016 M02/M03 A3007 RMK AO2 FZRANO
KCJR,2023-04-04T10:15:00Z,KCJR 041015Z AUTO 00000KT 10SM CLR 13/08 A2998 RMK AO2 T01270080
KCKB,2023-04-04T09:53:00Z,KCKB 040953Z AUTO 17004KT 10SM CLR 13/04 A2994 RMK AO2 SLP127 T01330044
KCKC,2023-04-04T10:17:00Z,KCKC 041017Z AUTO 03013KT 10SM BKN011 OVC021 M09/M11 A3002 RMK AO2
KCKF,2023-04-04T10:15:00Z,KCKF 041015Z AUTO 06003KT 1/4SM FG OVC002 18/17 A3001 RMK AO2 T01770171
KCKI,2023-04-04T10:15:00Z,KCKI 041015Z AUTO 00000KT 1/4SM FG OVC002 14/13 A3003 RMK AO2
KCKM,2023-04-04T10:15:00Z,KCKM 041015Z AUTO 16011KT 10SM OVC026 21/21 A2978 RMK A01
KCKN,2023-04-04T10:15:00Z,KCKN 041015Z AUTO 04004KT 10SM SCT039 OVC060 M03/M06 A3001 RMK AO2
KCKP,2023-04-04T10:15:00Z,KCKP 041015Z AUTO 05013G20KT 10SM OVC060 02/00 A2966 RMK AO2 T00161005
KCKV,2023-04-04T09:52:00Z,KCKV 040952Z AUTO 15004KT 4SM BR CLR 16/14 A2983 RMK AO2 SLP097 T01610144 $
KCKZ,2023-04-04T10:15:00Z,KCKZ 041015Z AUTO 00000KT 3SM BR CLR 04/04 A3000 RMK AO2
KCLE,2023-04-04T09:51:00Z,KCLE 040951Z 11005KT 10SM BKN040 OVC070 10/03 A2986 RMK AO2 SLP128 T01000033 $
KCLI,2023-04-04T10:15:00Z,KCLI 041015Z AUTO 07011KT 10SM OVC012 M01/M03 A2995 RMK AO2 T10071027
KCLK,2023-04-04T10:15:00Z,KCLK 041015Z AUTO 15004KT 7SM CLR 15/13 A2947 RMK AO2
KCLL,2023-04-04T09:53:00Z,KCLL 040953Z AUTO 17013KT 9SM BKN015 24/21 A2966 RMK AO2 SLP036 T02390211
KCLM,2023-04-04T09:53:00Z,KCLM 040953Z AUTO 24007KT 10SM SCT048 04/M02 A3006 RMK AO2 SLP182 T00391022
KCLS,2023-04-04T10:15:00Z,KCLS 041015Z AUTO 00000KT 10SM FEW042 SCT048 OVC075 02/02 A3011 RMK AO2
KCLT,2023-04-04T09:52:00Z,KCLT 040952Z 00000KT 1 3/4SM R18C/5000VP6000FT BR OVC002 14/13 A3001 RMK AO2 SLP175 T01390133 $
KCLW,2023-04-04T10:15:00Z,KCLW 041015Z AUTO 00000KT 7SM CLR 19/18 A3000 RMK AO2 PWINO
KCMA,2023-04-04T09:55:00Z,KCMA 040955Z AUTO 30003KT 10SM CLR 08/00 A3006 RMK AO2 SLP189 T00830000
KCMD,2023-04-04T10:15:00Z,KCMD 041015Z AUTO 18006KT 3SM BR OVC003 17/17 A2995 RMK AO2
KCMH,2023-04-04T09:51:00Z,KCMH 040951Z 17003KT 10SM OVC050 13/08 A2987 RMK AO2 SLP111 T01280078 $
KCMI,2023-04-04T09:58:00Z,KCMI 040958Z AUTO 15012KT 10SM BKN009 14/12 A2973 RMK AO2 CIG 008V012 T01390122
KCMR,2023-04-04T10:15:00Z,KCMR 041015Z AUTO 25012G19KT 10SM BKN070 M06/M14 A2966 RMK AO2
KCMX,2023-04-04T09:53:00Z,KCMX 040953Z AUTO 07009KT 10SM OVC008 M02/M05 A3004 RMK AO2 SLP186 T10171050
KCMY,2023-04-04T09:55:00Z,KCMY 040955Z AUTO 00000KT 10SM CLR 03/M01 A2982 RMK AO2 SLP105 T00331009 FZRANO $
KCNB,2023-04-04T10:15:00Z,KCNB 041015Z AUTO 35012KT 4SM BR OVC003 M03/M03 A2985 RMK AO2 T10271033
KCNC,2023-04-04T10:15:00Z,KCNC 041015Z AUTO 08018KT 10SM BKN025 OVC032 08/04 A2961 RMK AO2
KCNI,2023-04-04T10:15:00Z,KCNI 041015Z AUTO 14003KT 10SM OVC007 13/10 A3003 RMK AO2 T01350103
KCNK,2023-04-04T09:55:00Z,KCNK 040955Z AUTO 08009KT 10SM CLR 06/00 A2938 RMK AO2 SLP944 T00610000
KCNM,2023-04-04T09:53:00Z,KCNM 040953Z AUTO 23015KT 10SM CLR 19/M17 A2956 RMK AO2 SLP954 T01891172
KCNO,2023-04-04T09:53:00Z,KCNO 040953Z AUTO 28011KT 10SM CLR 08/M07 A3002 RMK AO2 SLP162 T00831072
KCNU,2023-04-04T09:52:00Z,KCNU 040952Z AUTO 18018G27KT 9SM CLR 23/18 A2944 RMK AO2 PK WND 17028/0857 SLP957 T02280183
KCNY,2023-04-04T09:53:00Z,KCNY 040953Z AUTO 25012KT 10SM OVC055 02/M10 A2942 RMK AO2 SLP936 T00171100
KCOD,2023-04-04T09:56:00Z,KCOD 040956Z AUTO 35012KT 2SM -SN BR SCT009 OVC018 M04/M06 A2965 RMK AO2 SLP068 P0000 T10441061 FZRANO
KCOE,2023-04-04T10:18:00Z,KCOE 041018Z AUTO 20003KT 10SM BKN007 OVC013 00/M01 A2992 RMK AO2 CIG 005V010 FZRANO PNO $
KCOF,2023-04-04T09:55:00Z,KCOF 040955Z AUTO 24006KT 10SM CLR 22/20 A2996 RMK AO2 SLP150 T02180201
KCOM,2023-04-04T10:15:00Z,KCOM 041015Z AUTO 17005KT 10SM CLR 22/18 A2957 RMK AO2 T02150175
KCON,2023-04-04T09:51:00Z,KCON 040951Z AUTO 00000KT 10SM BKN060 OVC080 07/01 A3003 RMK AO2 SLP172 T00720011
KCOQ,2023-04-04T10:15:00Z,KCOQ 041015Z AUTO 08014G24KT 10SM OVC008 M02/M04 A2994 RMK AO2 TSNO
KCOS,2023-04-04T09:54:00Z,KCOS 040954Z 32011KT 10SM FEW044 SCT119 02/M06 A2932 RMK AO2 SLP881 T00221056
KCOT,2023-04-04T09:53:00Z,KCOT 040953Z AUTO 13009KT 9SM CLR 24/20 A2960 RMK AO2 SLP012 T02440200
KCOU,2023-04-04T09:54:00Z,KCOU 040954Z AUTO 14008KT 8SM CLR 16/15 A2958 RMK AO2 SLP009 T01610150
KCPC,2023-04-04T10:10:00Z,KCPC 041010Z AUTO 00000KT 10SM BKN004 OVC017 17/16 A3003 RMK AO2 P0001 T01650155
KCPF,2023-04-04T10:15:00Z,KCPF 041015Z AUTO 00000KT 10SM SCT025 SCT034 BKN045 14/08 A2994 RMK AO2
KCPK,2023-04-04T10:15:00Z,KCPK 041015Z AUTO 18003KT 10SM OVC070 16/14 A3002 RMK AO2 T01620143
KCPR,2023-04-04T09:53:00Z,KCPR 040953Z AUTO 07018G27KT 3/4SM R03/P6000FT -SN BR VV008 M06/M07 A2957 RMK AO2 PK WND 06029/0902 SLP049 P0003 T10611072
KCPS,2023-04-04T09:53:00Z,KCPS 040953Z AUTO 17007KT 7SM CLR 18/17 A2964 RMK AO2 SLP035 T01780167
KCPT,2023-04-04T10:15:00Z,KCPT 041015Z AUTO 17013G18KT 7SM FEW011 21/21 A2959 RMK A01
KCPW,2023-04-04T10:15:00Z,KCPW 041015Z AUTO M1/4SM +SN OVC001 M11/M11 A2929 RMK AO2 LTG DSNT SW
KCQB,2023-04-04T10:15:00Z,KCQB 041015Z AUTO 18013G18KT 7SM CLR 22/19 A2949 RMK AO2 T02170194
KCQC,2023-04-04T09:53:00Z,KCQC 040953Z AUTO 23027G38KT 10SM CLR 06/M16 A2953 RMK AO2 PK WND 23041/0941 SLP924 T00611156 $
KCQF,2023-04-04T10:15:00Z,KCQF 041015Z AUTO 12006KT OVC003 22/22 A2992 RMK AO2 PWINO
KCQM,2023-04-04T10:16:00Z,KCQM 041016Z AUTO 07004KT 10SM OVC012 M04/M06 A2999 RMK AO2
KCQT,2023-04-04T09:47:00Z,KCQT 040947Z AUTO 00000KT 10SM CLR 11/M04 A3007 RMK AO2 SLP182 T01061044
KCQW,2023-04-04T10:15:00Z,KCQW 041015Z AUTO 10SM FEW012 BKN029 OVC050 14/13 A3001 RMK AO2
KCQX,2023-04-04T10:20:00Z,KCQX 041020Z AUTO VRB03KT 10SM BKN025 OVC033 09/07 A3008 RMK AO2 T00890072
KCRE,2023-04-04T09:53:00Z,KCRE 040953Z AUTO 20006KT 10SM OVC029 18/17 A3002 RMK AO1 SLP165 T01780167
KCRG,2023-04-04T09:53:00Z,KCRG 040953Z 00000KT 8SM CLR 17/16 A3000 RMK AO2 SLP160 T01670156
KCRP,2023-04-04T09:51:00Z,KCRP 040951Z 17015G28KT 10SM BKN009 BKN013 OVC250 24/22 A2963 RMK AO2 PK WND 16029/0914 SLP032 T02390222
KCRQ,2023-04-04T09:53:00Z,KCRQ 040953Z AUTO 32006KT 10SM CLR 10/M08 A3002 RMK AO2 SLP163 T01001083
KCRS,2023-04-04T10:10:00Z,KCRS 041010Z AUTO 17015KT 7SM BKN015 23/20 A2963 RMK AO2 T02280200
KCRW,2023-04-04T09:54:00Z,KCRW 040954Z 00000KT 10SM SCT042 10/07 A2993 RMK AO2 SLP130 T01000067
KCRX,2023-04-04T10:15:00Z,KCRX 041015Z AUTO 16007KT 6SM BR BKN006 19/19 A2984 RMK AO2
KCSG,2023-04-04T10:20:00Z,KCSG 041020Z AUTO 10004KT 1 1/4SM R06/4000V5500FT BR OVC003 18/18 A2998 RMK AO2 T01780178
KCSM,2023-04-04T09:53:00Z,KCSM 040953Z AUTO 18015KT 10SM CLR 15/13 A2945 RMK AO2 SLP949 T01500128 $
KCSQ,2023-04-04T10:15:00Z,KCSQ 041015Z AUTO 08020G25KT 10SM BKN022 07/03 A2953 RMK AO2
KCSV,2023-04-04T09:53:00Z,KCSV 040953Z AUTO VRB06G16KT 4SM BR OVC004 14/13 A2997 RMK AO2 SLP140 T01390133
KCTB,2023-04-04T09:56:00Z,KCTB 040956Z AUTO 35008KT 10SM CLR M08/M09 A2988 RMK AO2 SLP160 T10831094
KCTJ,2023-04-04T10:15:00Z,KCTJ 041015Z AUTO 00000KT 1/4SM FG BKN004 OVC021 14/14 A3003 RMK AO2 T01400140
KCTY,2023-04-04T10:15:00Z,KCTY 041015Z AUTO 00000KT 7SM BKN002 OVC015 18/18 A3000 RMK AO2
KCTZ,2023-04-04T10:05:00Z,KCTZ 041005Z AUTO 00000KT 7SM SCT034 BKN042 OVC049 16/16 A3002 RMK AO2 T01600160
KCUB,2023-04-04T10:10:00Z,KCUB 041010Z AUTO 00000KT 2SM BR SCT027 15/14 A3003 RMK AO2 T01500144
KCUH,2023-04-04T10:15:00Z,KCUH 041015Z AUTO 19012G19KT 10SM CLR 22/20 A2946 RMK AO2 T02170195
KCUL,2023-04-04T10:20:00Z,KCUL 041020Z AUTO 16007KT 10SM CLR 16/14 A2975 RMK AO2
KCUT,2023-04-04T10:23:00Z,KCUT 041023Z AUTO 05010G20KT 1 1/4SM -SN BR OVC016 M07/M09 A2961 RMK AO2 P0001 T10721089 $
KCVC,2023-04-04T10:15:00Z,KCVC 041015Z AUTO 00000KT 5SM BR OVC004 13/13 A3001 RMK AO2
KCVG,2023-04-04T09:52:00Z,KCVG 040952Z 19007KT 10SM OVC014 14/12 A2985 RMK AO2 SLP103 T01390122
KCVH,2023-04-04T10:15:00Z,KCVH 041015Z AUTO 00000KT 10SM FEW032 05/01 A3020 RMK A01
KCVN,2023-04-04T09:56:00Z,KCVN 040956Z AUTO 21012KT 10SM CLR 11/M17 A2954 RMK AO2 SLP964 T01061172
KCVO,2023-04-04T09:56:00Z,KCVO 040956Z AUTO 21004KT 10SM SCT110 02/01 A3020 RMK AO2 RAE25 SLP228 P0001 T00220011 FZRANO
KCVS,2023-04-04T09:55:00Z,KCVS 040955Z AUTO 21010KT 10SM CLR 09/M18 A2952 RMK AO2 SLP946 T00941177 $
KCVX,2023-04-04T10:15:00Z,KCVX 041015Z AUTO 06006KT 10SM SCT006 00/M01 A3002 RMK AO2 T00021013
KCWA,2023-04-04T10:15:00Z,KCWA 041015Z AUTO 07012G16KT 10SM CLR M01/M03 A2990 RMK AO2
KCWC,2023-04-04T10:15:00Z,KCWC 041015Z AUTO 18009G18KT 10SM CLR 22/20 A2951 RMK AO2 T02230200
KCWF,2023-04-04T10:15:00Z,KCWF 041015Z AUTO 18011KT 7SM OVC007 23/22 A2978 RMK AO2 T02300218
KCWI,2023-04-04T09:56:00Z,KCWI 040956Z AUTO 08013KT 10SM OVC026 07/07 A2976 RMK AO2 LTG DSNT SW TSB13E36 SLP083 T00720067
KCWN,2023-04-04T09:55:00Z,KCWN 040955Z AUTO 35015G22KT 10SM FEW100 02/M06 A2930 RMK AO2 SLP787 T00151061 $
KCWV,2023-04-04T10:15:00Z,KCWV 041015Z AUTO 00000KT 5SM BR BKN007 OVC011 18/17 A3002 RMK AO2 T01780171
KCXE,2023-04-04T10:15:00Z,KCXE 041015Z AUTO 10SM SCT031 OVC039 13/10 A3002 RMK AO1 T01320095
KCXO,2023-04-04T09:53:00Z,KCXO 040953Z AUTO 16009KT 7SM OVC015 23/21 A2970 RMK AO2 SLP052 T02280211
KCXP,2023-04-04T10:15:00Z,KCXP 041015Z AUTO 21004KT 10SM CLR M05/M11 A3001 RMK AO2
KCXU,2023-04-04T10:15:00Z,KCXU 041015Z AUTO 00000KT 2SM OVC003 21/20 A2999 RMK AO1 T02100200
KCXW,2023-04-04T10:10:00Z,KCXW 041010Z AUTO 17011KT 9SM OVC016 22/20 A2968 RMK A01
KCXY,2023-04-04T09:56:00Z,KCXY 040956Z AUTO 00000KT 10SM CLR 07/04 A2995 RMK AO2 SLP144 T00670044
KCYD,2023-04-04T10:15:00Z,KCYD 041015Z AUTO 13012KT 5SM BR CLR 24/23 A2990 RMK A02 T02370229
KCYS,2023-04-04T10:15:00Z,KCYS 041015Z AUTO 04011G19KT 2 1/2SM -SN BR FEW007 OVC032 M07/M08 A2946 RMK AO2 P0001 T10671083
KCZT,2023-04-04T10:15:00Z,KCZT 041015Z AUTO 12009KT 10SM CLR 23/19 A2958 RMK AO2
KD07,2023-04-04T09:56:00Z,KD07 040956Z AUTO 05016KT M03/M04 A2979 RMK AO1 PRESFR SLP119 P0001 T10331044
KD25,2023-04-04T10:15:00Z,KD25 041015Z AUTO 07005G09KT 10SM OVC008 M03/M04 A2994 RMK AO2 T10281045
KD39,2023-04-04T10:15:00Z,KD39 041015Z AUTO 06008KT 10SM OVC008 00/00 A2989 RMK AO2 T00001003
KD55,2023-04-04T10:15:00Z,KD55 041015Z AUTO 02010KT 10SM OVC015 M09/M09 A3001 RMK AO2
KD57,2023-04-04T10:15:00Z,KD57 041015Z AUTO 04010KT 10SM OVC008 M09/M11 A2995 RMK AO2
KD60,2023-04-04T10:15:00Z,KD60 041015Z AUTO 09010KT 6SM BR OVC013 M11/M11 A2999 RMK AO2
KD73,2023-04-04T10:15:00Z,KD73 041015Z AUTO 00000KT 10SM OVC007 14/13 A3003 RMK AO2 T01380133
KD95,2023-04-04T10:15:00Z,KD95 041015Z AUTO 00000KT 10SM RA SCT025 SCT060 OVC070 07/07 A2994 RMK AO2 T00660066 P0015
KDAA,2023-04-04T09:55:00Z,KDAA 040955Z AUTO 15004KT 10SM CLR 13/07 A2995 RMK AO2 SLP145 T01260066
KDAB,2023-04-04T09:53:00Z,KDAB 040953Z 00000KT 10SM FEW200 19/18 A2999 RMK AO2 SLP156 T01940183
KDAG,2023-04-04T09:50:00Z,KDAG 040950Z AUTO 28012KT 10SM CLR 04/M11 A2997 RMK AO2 SLP143 T00391106
KDAL,2023-04-04T09:53:00Z,KDAL 040953Z 18014G23KT 8SM BKN016 OVC250 23/19 A2958 RMK AO2 PK WND 18026/0942 SLP007 T02280194
KDAN,2023-04-04T09:53:00Z,KDAN 040953Z AUTO 00000KT 10SM OVC024 14/10 A3001 RMK AO2 SLP153 T01390100
KDAW,2023-04-04T09:51:00Z,KDAW 040951Z AUTO 00000KT 10SM OVC060 08/01 A3003 RMK AO2 SLP166 T00830006
KDAY,2023-04-04T09:56:00Z,KDAY 040956Z 23007KT 10SM BKN018 BKN055 14/10 A2986 RMK AO2 SLP108 T01390100 VISNO RWY 6L $
KDBN,2023-04-04T10:15:00Z,KDBN 041015Z AUTO 00000KT 1/2SM FG OVC002 17/16 A3004 RMK AO2
KDBQ,2023-04-04T10:15:00Z,KDBQ 041015Z AUTO 06012G18KT 10SM OVC029 07/05 A2976 RMK AO2 T00670050
KDCA,2023-04-04T09:52:00Z,KDCA 040952Z 20006KT 10SM CLR 13/08 A2997 RMK AO2 SLP148 T01330078 $
KDCM,2023-04-04T09:55:00Z,KDCM 040955Z AUTO 00000KT 7SM BKN009 BKN028 13/13 A3002 RMK AO2 LTG DSNT E
KDCU,2023-04-04T09:53:00Z,KDCU 040953Z AUTO 10004KT 6SM HZ OVC007 19/17 A2991 RMK AO2 SLP125 T01940167
KDCY,2023-04-04T10:15:00Z,KDCY 041015Z AUTO 15006KT 10SM OVC012 15/14 A2978 RMK AO2 LTG DSNT NE AND S T01480141
KDDC,2023-04-04T09:52:00Z,KDDC 040952Z AUTO 22019G26KT 10SM CLR 16/M13 A2933 RMK AO2 PK WND 22031/0923 SLP904 T01611128
KDDH,2023-04-04T09:54:00Z,KDDH 040954Z AUTO 14003KT 10SM FEW090 SCT110 06/02 A3002 RMK AO2 RAE32 SLP167 P0000 T00610017 $
KDEC,2023-04-04T10:20:00Z,KDEC 041020Z AUTO 17010KT 5SM BR BKN013 OVC018 14/14 A2971 RMK AO2 T01440139
KDED,2023-04-04T10:10:00Z,KDED 041010Z AUTO 00000KT 10SM CLR 18/17 A3002 RMK AO2 T01800166
KDEH,2023-04-04T10:15:00Z,KDEH 041015Z AUTO 08008KT 10SM OVC055 05/02 A2976 RMK AO2
KDEN,2023-04-04T10:09:00Z,KDEN 041009Z 35016G24KT 10SM -SN OVC009 M02/M04 A2943 RMK AO2 SNB09 P0000 T10171044
KDEQ,2023-04-04T09:53:00Z,KDEQ 040953Z AUTO 9SM BKN017 BKN022 22/19 A2965 RMK AO2 SLP033 T02170194 $
KDET,2023-04-04T09:53:00Z,KDET 040953Z 04008KT 7SM OVC005 08/06 A2993 RMK AO2 SLP136 T00830061
KDEW,2023-04-04T10:16:00Z,KDEW 041016Z AUTO 18005KT 10SM OVC006 M01/M03 A2992 RMK AO2 CIG 005V010 T10111028
KDFI,2023-04-04T10:17:00Z,KDFI 041017Z AUTO 08010G17KT 10SM BKN008 OVC065 09/07 A2987 RMK AO2 T00890067
KDFW,2023-04-04T09:53:00Z,KDFW 040953Z 18018G29KT 10SM BKN014 OVC250 23/20 A2956 RMK AO2 PK WND 19029/0946 SLP000 CIG 013V017 T02280200
KDGW,2023-04-04T10:01:00Z,KDGW 041001Z AUTO 08023G31KT 3SM -SN BR OVC038 M05/M07 A2959 RMK AO2 PK WND 08031/0958 P0000 T10501072
KDHN,2023-04-04T10:24:00Z,KDHN 041024Z AUTO 17003KT 2 1/2SM BR OVC002 22/21 A3000 RMK AO2 T02170211
KDHT,2023-04-04T09:53:00Z,KDHT 040953Z AUTO 21017KT 10SM CLR 13/M14 A2942 RMK AO2 PK WND 22027/0926 SLP907 T01331144
KDIJ,2023-04-04T09:56:00Z,KDIJ 040956Z AUTO 16003KT 10SM OVC005 M07/M08 A2952 RMK AO2 SLP035 T10671078
KDIK,2023-04-04T09:56:00Z,KDIK 040956Z AUTO 06011KT 5SM BR OVC004 M07/M07 A2988 RMK AO2 SLP148 T10671072
KDKK,2023-04-04T09:53:00Z,KDKK 040953Z AUTO 00000KT 10SM BKN060 OVC075 09/07 A2993 RMK AO2 RAE06 SLP136 P0000 T00890072
KDKR,2023-04-04T10:15:00Z,KDKR 041015Z AUTO 15009KT 5SM BR 22/22 A2968 RMK AO2
KDKX,2023-04-04T10:15:00Z,KDKX 041015Z AUTO 00000KT 10SM FEW028 BKN035 OVC041 12/10 A2999 RMK A01
KDLF,2023-04-04T09:55:00Z,KDLF 040955Z AUTO 10012KT 10SM FEW210 23/18 A2955 RMK AO2 SLP992 T02310182 $
KDLH,2023-04-04T09:55:00Z,KDLH 040955Z 09018G29KT 10SM OVC006 M02/M04 A2996 RMK AO2 PK WND 10032/0945 SLP165 T10221044
KDLL,2023-04-04T10:15:00Z,KDLL 041015Z AUTO 08007KT 10SM BKN005 OVC011 06/06 A2984 RMK AO2 T00560055
KDLN,2023-04-04T09:53:00Z,KDLN 040953Z AUTO 03020G28KT 6SM -SN BR OVC048 M04/M06 A2965 RMK AO2 PK WND 03028/0953 SNB38 SLP070 P0000 T10441061
KDLO,2023-04-04T10:15:00Z,KDLO 041015Z AUTO 06003KT 10SM CLR 02/M01 A3014 RMK AO2 T00201012
KDLP,2023-04-04T10:15:00Z,KDLP 041015Z AUTO 16007KT 10SM CLR 23/22 A2979 RMK A01
KDLS,2023-04-04T09:53:00Z,KDLS 040953Z AUTO 27014KT 10SM CLR 04/M01 A3007 RMK AO2 SLP184 T00441011
KDLZ,2023-04-04T10:15:00Z,KDLZ 041015Z AUTO 18005KT 10SM OVC029 10/07 A2988 RMK AO2
KDMA,2023-04-04T09:55:00Z,KDMA 040955Z AUTO 29015G22KT 10SM CLR 09/M11 A2980 RMK AO2 SLP062 T00891111 $
KDMH,2023-04-04T09:54:00Z,KDMH 040954Z AUTO 11/08 A2998 RMK AO1 SLP150 T01110078
KDMN,2023-04-04T09:53:00Z,KDMN 040953Z AUTO 26015G25KT 10SM CLR 14/M12 A2967 RMK AO2 PK WND 26026/0942 SLP979 T01441122
KDMO,2023-04-04T09:53:00Z,KDMO 040953Z AUTO 10006KT 10SM CLR 16/13 A2953 RMK AO2 SLP994 T01560133
KDMW,2023-04-04T10:05:00Z,KDMW 041005Z AUTO 15003KT 10SM CLR 11/08 A2996 RMK AO2
KDNA,2023-04-04T10:15:00Z,KDNA 041015Z AUTO 22008G14KT 10SM CLR 15/M12 A2967 RMK AO2
KDNL,2023-04-04T09:53:00Z,KDNL 040953Z AUTO 34003KT 5SM BR OVC010 16/15 A3002 RMK AO2 CIG 010V014 SLP160 T01610150
KDNN,2023-04-04T10:15:00Z,KDNN 041015Z AUTO 21003KT 10SM OVC011 15/12 A2999 RMK AO2 T01510119
KDNV,2023-04-04T10:15:00Z,KDNV 041015Z AUTO 15009KT 10SM BKN011 OVC015 15/12 A2976 RMK AO2 T01450120
KDOV,2023-04-04T09:55:00Z,KDOV 040955Z AUTO 18011KT 10SM CLR 13/13 A2998 RMK AO2 SLP156 T01330133
KDPA,2023-04-04T09:52:00Z,KDPA 040952Z 07015G22KT 10SM OVC007 08/06 A2982 RMK AO2 LTG DSNT SW RAE27 SLP098 P0001 T00780056
KDPL,2023-04-04T10:05:00Z,KDPL 041005Z AUTO 00000KT 4SM HZ SCT043 BKN050 OVC070 17/ A3002 RMK AO2
KDQH,2023-04-04T10:15:00Z,KDQH 041015Z AUTO 00000KT 1/4SM FG OVC002 19/18 A3002 RMK AO2 T01850180
KDRA,2023-04-04T09:53:00Z,KDRA 040953Z AUTO 30006KT 10SM CLR M01/M11 A2987 RMK AO2 SLP114 T10061106
KDRI,2023-04-04T10:15:00Z,KDRI 041015Z AUTO 19010G19KT 10SM OVC016 24/22 A2977 RMK AO2 CIG 014V019 T02350220 $
KDRM,2023-04-04T10:15:00Z,KDRM 041015Z AUTO 04005KT 10SM OVC013 00/M03 A3006 RMK AO2 T00021030
KDRO,2023-04-04T10:17:00Z,KDRO 041017Z AUTO 28016G21KT 2SM -SN OVC016 M02/M05 A2954 RMK AO2 P0000 T10221050
KDRT,2023-04-04T09:53:00Z,KDRT 040953Z AUTO 10010KT 10SM CLR 26/18 A2956 RMK AO2 SLP996 T02560183
KDSF,2023-04-04T10:20:00Z,KDSF 041020Z AUTO 11010KT 2 1/2SM BR CLR 24/23 A2990 RMK A01
KDSM,2023-04-04T09:54:00Z,KDSM 040954Z 08018G25KT 10SM BKN050 08/02 A2962 RMK AO2 SLP031 T00830017
KDSV,2023-04-04T09:54:00Z,KDSV 040954Z AUTO 00000KT 10SM OVC065 08/07 A2997 RMK AO2 SLP156 T00780067
KDTA,2023-04-04T10:15:00Z,KDTA 041015Z AUTO 26005KT 10SM SCT090 OVC110 M05/M10 A2967 RMK AO1
KDTL,2023-04-04T10:15:00Z,KDTL 041015Z AUTO 31004KT 9SM OVC007 M04/M04 A2995 RMK AO2
KDTN,2023-04-04T09:53:00Z,KDTN 040953Z AUTO 15007KT 10SM BKN027 22/19 A2970 RMK AO2 SLP056 T02220194
KDTO,2023-04-04T09:53:00Z,KDTO 040953Z AUTO 17014KT 10SM CLR 22/19 A2956 RMK AO2 SLP001 T02170194
KDTS,2023-04-04T10:23:00Z,KDTS 041023Z AUTO 17004KT 3/4SM BR VV002 23/22 A2994 RMK AO2 T02280222
KDTW,2023-04-04T09:53:00Z,KDTW 040953Z 04005KT 5SM -RA BR BKN006 OVC014 08/06 A2993 RMK AO2 RAE06B44 SLP137 T00780061 PNO $
KDUA,2023-04-04T10:15:00Z,KDUA 041015Z AUTO 17009KT 10SM CLR 21/17 A2958 RMK AO2
KDUB,2023-04-04T09:20:00Z,KDUB 040920Z AUTO 12009KT 1 1/2SM -SN OVC011 M08/M09 A2950 RMK AO2
KDUC,2023-04-04T10:15:00Z,KDUC 041015Z AUTO 19012G20KT 5SM BR CLR 21/20 A2951 RMK AO2 T02150205
KDUG,2023-04-04T09:56:00Z,KDUG 040956Z AUTO 22006KT 10SM CLR 11/M04 A2979 RMK AO2 SLP030 T01111044 TSNO
KDUH,2023-04-04T10:15:00Z,KDUH 041015Z AUTO 07007KT 10SM OVC004 08/07 A2991 RMK AO2 T00790073
KDUJ,2023-04-04T09:53:00Z,KDUJ 040953Z AUTO 10005KT 10SM CLR 07/01 A2990 RMK AO2 SLP124 T00720006 $
KDUX,2023-04-04T10:15:00Z,KDUX 041015Z AUTO 21014KT 10SM CLR 13/M17 A2944 RMK AO2 T01301175
KDVK,2023-04-04T10:10:00Z,KDVK 041010Z AUTO 20004KT 10SM OVC011 14/11 A2992 RMK AO2
KDVL,2023-04-04T09:56:00Z,KDVL 040956Z AUTO 02005KT 10SM OVC009 M08/M11 A3001 RMK AO2 SLP209 T10831106 FZRANO
KDVN,2023-04-04T10:19:00Z,KDVN 041019Z AUTO 08017G25KT 10SM BKN011 OVC021 08/06 A2975 RMK AO2 LTG DSNT S T00830056
KDVO,2023-04-04T10:15:00Z,KDVO 041015Z AUTO 30011G16KT 10SM CLR 07/M01 A3019 RMK AO2
KDVP,2023-04-04T10:13:00Z,KDVP 041013Z AUTO 04014KT 7SM OVC005 M02/M02 A2975 RMK AO2 T10161022
KDVT,2023-04-04T09:53:00Z,KDVT 040953Z 26013KT 10SM CLR 09/M10 A2980 RMK AO2 SLP076 T00941100
KDWA,2023-04-04T10:15:00Z,KDWA 041015Z AUTO 00000KT 10SM FEW036 FEW043 SCT050 04/00 A3018 RMK AO2
KDWH,2023-04-04T10:13:00Z,KDWH 041013Z AUTO 16005KT 9SM SCT015 23/21 A2969 RMK AO2 T02330211
KDWU,2023-04-04T09:56:00Z,KDWU 040956Z AUTO 00000KT 10SM BKN026 OVC060 10/10 A2992 RMK AO2 SLP130 T01000100
KDWX,2023-04-04T10:15:00Z,KDWX 041015Z AUTO 17013G20KT 10SM OVC090 00/M07 A2935 RMK AO2 T10031075
KDXR,2023-04-04T09:53:00Z,KDXR 040953Z AUTO 00000KT 10SM CLR 04/02 A3003 RMK AO2 SLP168 T00390017
KDXX,2023-04-04T10:15:00Z,KDXX 041015Z AUTO 36012KT 4SM BR OVC004 M02/M03 A2989 RMK AO2
KDYL,2023-04-04T09:54:00Z,KDYL 040954Z AUTO 00000KT 10SM CLR 07/05 A2998 RMK AO2 SLP152 T00670050
KDYR,2023-04-04T09:56:00Z,KDYR 040956Z AUTO 17005KT 10SM CLR 19/ A2978 RMK AO2 SLP089 T0189
KDYS,2023-04-04T09:55:00Z,KDYS 040955Z AUTO 17015KT 10SM CLR 21/14 A2951 RMK AO2 SLP943 T02100137 $
KDYT,2023-04-04T10:15:00Z,KDYT 041015Z AUTO 07021G28KT 10SM OVC014 M00/M02 A3001 RMK AO2
KDZB,2023-04-04T10:15:00Z,KDZB 041015Z AUTO 00000KT 7SM BKN018 23/19 A2962 RMK AO2 T02280190
KDZJ,2023-04-04T10:15:00Z,KDZJ 041015Z AUTO 00000KT 10SM OVC014 13/11 A3004 RMK AO2 T01270107
KE11,2023-04-04T10:15:00Z,KE11 041015Z AUTO 27016G21KT 10SM CLR 19/M17 A2960 RMK AO2 T01941170
KE16,2023-04-04T10:15:00Z,KE16 041015Z AUTO 34008KT 10SM CLR 06/02 A3020 RMK AO2 PWINO PNO
KE38,2023-04-04T10:15:00Z,KE38 041015Z AUTO 23015G19KT 10SM CLR 20/M10 A2976 RMK AO2 T02021097
KE41,2023-04-04T10:15:00Z,KE41 041015Z AUTO 21006KT 10SM CLR 20/11 A2961 RMK AO2 T02010111
KE42,2023-04-04T10:15:00Z,KE42 041015Z AUTO 22016KT 10SM CLR 14/M15 A2940 RMK AO2 T01351149
KEAN,2023-04-04T10:10:00Z,KEAN 041010Z AUTO 07011G17KT 3/4SM SN OVC008 M04/M05 A2956 RMK AO2 T10431053
KEAR,2023-04-04T09:56:00Z,KEAR 040956Z AUTO 05017KT 10SM FEW024 03/M02 A2948 RMK AO2 SLP982 T00281017
KEAT,2023-04-04T09:55:00Z,KEAT 040955Z AUTO 31006KT 10SM CLR 01/M06 A2997 RMK AO2 SLP153 T00061061
KEAU,2023-04-04T09:56:00Z,KEAU 040956Z AUTO 06006KT 10SM CLR 00/M03 A2986 RMK AO2 SLP118 T00001028
KEBA,2023-04-04T10:15:00Z,KEBA 041015Z AUTO 00000KT 10SM OVC016 14/13 A3002 RMK AO2 T01430131
KEBG,2023-04-04T10:15:00Z,KEBG 041015Z AUTO 15014G19KT 7SM BKN012 23/22 A2962 RMK AO2 T02320218
KEBS,2023-04-04T10:15:00Z,KEBS 041015Z AUTO 07015G21KT 10SM OVC060 04/01 A2964 RMK AO2
KECG,2023-04-04T09:54:00Z,KECG 040954Z AUTO 16004KT 10SM OVC075 17/14 A3003 RMK AO2 RAB02E19 SLP167 P0000 T01720144
KECP,2023-04-04T09:53:00Z,KECP 040953Z AUTO 17010KT 9SM OVC003 23/22 A2995 RMK AO1 SLP151 T02330217
KECS,2023-04-04T10:15:00Z,KECS 041015Z AUTO 17004KT 1 1/2SM -SN OVC005 M03/M03 A2968 RMK AO2
KECU,2023-04-04T10:15:00Z,KECU 041015Z AUTO 15015KT 8SM CLR 20/18 A2969 RMK AO2
KEDC,2023-04-04T09:55:00Z,KEDC 040955Z AUTO 19011G16KT 7SM OVC015 23/22 A2963 RMK AO2
KEDE,2023-04-04T10:10:00Z,KEDE 041010Z AUTO 00000KT 10SM SCT023 BKN085 OVC120 18/17 A3004 RMK AO2 T01760172
KEDJ,2023-04-04T10:15:00Z,KEDJ 041015Z AUTO 00000KT 10SM 12/10 A2988 RMK A01
KEDN,2023-04-04T10:15:00Z,KEDN 041015Z AUTO 00000KT 3SM SCT003 BKN009 OVC019 21/21 A2995 RMK AO2 T02100210 PWINO
KEDU,2023-04-04T10:15:00Z,KEDU 041015Z AUTO 00000KT 10SM CLR 04/00 A3017 RMK AO1
KEDW,2023-04-04T09:55:00Z,KEDW 040955Z AUTO 27010KT 10SM CLR 03/M05 A2999 RMK AO2 SLP160 T00251054
KEED,2023-04-04T09:56:00Z,KEED 040956Z AUTO 33012KT 10SM CLR 09/M15 A2988 RMK AO2 SLP105 T00891150 $
KEEN,2023-04-04T09:56:00Z,KEEN 040956Z AUTO 21003KT 10SM -RA SCT070 OVC090 06/03 RMK AO2 RAB38 SLPNO P0000 T00560033 $
KEEO,2023-04-04T09:53:00Z,KEEO 040953Z AUTO VRB03KT 10SM BKN100 BKN120 M04/M06 A2933 RMK AO2 SLP904 T10391061
KEET,2023-04-04T09:53:00Z,KEET 040953Z AUTO 00000KT 4SM BR OVC003 19/19 A2994 RMK AO2 SLP133 T01940189
KEFD,2023-04-04T09:54:00Z,KEFD 040954Z 16010KT 7SM OVC011 24/22 A2971
KEFK,2023-04-04T10:15:00Z,KEFK 041015Z AUTO 22005KT 10SM CLR 00/00 A3001 RMK AO2 T00001005
KEFT,2023-04-04T10:15:00Z,KEFT 041015Z AUTO 08009G15KT 10SM BKN006 OVC041 06/05 A2981 RMK AO2 T00570049
KEGE,2023-04-04T09:56:00Z,KEGE 040956Z AUTO 23009KT 10SM SCT031 OVC048 M01/M04 A2941 RMK AO2 UPB17E30SNE17 SLP906 T10111044 FZRANO PNO $
KEGI,2023-04-04T09:55:00Z,KEGI 040955Z AUTO 18008KT 10SM OVC006 23/22 A2993 RMK AO2 SLP134 T02300216 TSNO $
KEGT,2023-04-04T10:15:00Z,KEGT 041015Z AUTO 18018G24KT 10SM CLR 20/17 A2940 RMK AO2 T02050171
KEGV,2023-04-04T10:15:00Z,KEGV 041015Z AUTO 08010KT 10SM OVC009 M02/M04 A2994 RMK AO2 T10251045
KEHA,2023-04-04T10:15:00Z,KEHA 041015Z AUTO 21016KT 10SM CLR 12/M16 A2939 RMK AO2 T01151158
KEHO,2023-04-04T10:15:00Z,KEHO 041015Z AUTO 00000KT 1/4SM FG OVC002 10/10 A3003 RMK AO2 T00960096
KEHR,2023-04-04T09:56:00Z,KEHR 040956Z AUTO 16006KT 10SM SCT010 BKN047 BKN070 15/14 A2978 RMK AO2 SLP084 T01500144
KEIK,2023-04-04T10:15:00Z,KEIK 041015Z AUTO 01012KT 7SM BKN008 OVC015 M02/M03 A2947 RMK AO2 T10161030
KEKE,2023-04-04T10:15:00Z,KEKE 041015Z AUTO 13017KT 5SM BR CLR 24/23 A2975 RMK A01
KEKM,2023-04-04T10:15:00Z,KEKM 041015Z 08011KT 9SM -RA OVC011 08/08 A2986 RMK AO2 RAB1004 P0000 T00790079
KEKN,2023-04-04T09:51:00Z,KEKN 040951Z AUTO 00000KT 10SM OVC034 07/04 A2999 RMK AO2 SLP156 T00670044
KEKO,2023-04-04T10:25:00Z,KEKO 041025Z AUTO 20008KT 4SM -SN BR FEW010 OVC033 M06/M08 A2978 RMK AO2 P0000 T10561078
KEKQ,2023-04-04T10:09:00Z,KEKQ 041009Z AUTO 17004KT 10SM OVC016 16/13 A2994 RMK AO2
KEKS,2023-04-04T10:15:00Z,KEKS 041015Z AUTO 34019KT 9SM FEW006 SCT029 BKN035 M05/M06 A2969 RMK AO2
KEKX,2023-04-04T10:15:00Z,KEKX 041015Z AUTO 18007KT 10SM OVC009 15/14 A2986 RMK AO2 T01510138
KEKY,2023-04-04T09:56:00Z,KEKY 040956Z AUTO 13004KT 4SM BR OVC004 19/19 A2995 RMK AO2 CIG 002V008 SLP988 T01890189
KELA,2023-04-04T10:15:00Z,KELA 041015Z AUTO 18010KT 10SM OVC012 24/22 A2968 RMK AO2 T02360220
KELD,2023-04-04T09:53:00Z,KELD 040953Z AUTO 16008KT 10SM CLR 21/19 A2973 RMK AO2 SLP062 T02060194
KELK,2023-04-04T10:15:00Z,KELK 041015Z AUTO 19011KT 10SM CLR 12/00 A2945 RMK AO2 SLP267 T01240002 $
KELM,2023-04-04T09:53:00Z,KELM 040953Z 00000KT CLR 06/04 A2996 RMK AO2 SLP147 T00560044 $
KELN,2023-04-04T09:53:00Z,KELN 040953Z AUTO 33014KT 10SM CLR 02/M05 A2995 RMK AO2 SLP149 T00221050 $
KELO,2023-04-04T10:15:00Z,KELO 041015Z AUTO 09007KT 10SM OVC011 M06/M07 A3002 RMK AO2
KELP,2023-04-04T09:51:00Z,KELP 040951Z 21009KT 10SM FEW250 16/M14 A2965 RMK AO2 SLP972 T01611144
KELY,2023-04-04T09:53:00Z,KELY 040953Z AUTO 32011KT 10SM BKN047 OVC055 M08/M14 A2972 RMK AO2 SLP083 T10781139
KELZ,2023-04-04T09:56:00Z,KELZ 040956Z AUTO 13005KT 10SM BKN070 06/03 A2995 RMK AO2 SLP144 T00610033
KEMM,2023-04-04T10:15:00Z,KEMM 041015Z AUTO 25012KT 2SM -SN CLR M07/M08 A2945 RMK AO2 TSNO
KEMP,2023-04-04T09:53:00Z,KEMP 040953Z AUTO 15009KT 9SM CLR 14/11 A2939 RMK AO2 SLP942 T01390106
KEMV,2023-04-04T10:15:00Z,KEMV 041015Z AUTO 00000KT 10SM SCT043 OVC050 15/14 A3003 RMK AO2 T01510136
KEND,2023-04-04T09:55:00Z,KEND 040955Z AUTO 17014KT 10SM CLR 19/18 A2939 RMK AO2 SLP940 T01890177
KENL,2023-04-04T10:15:00Z,KENL 041015Z AUTO 17010KT 10SM CLR 18/18 A2971 RMK AO2 T01820177
KENV,2023-04-04T09:56:00Z,KENV 040956Z AUTO 32026G32KT 10SM CLR M03/M11 A2966 RMK AO2 PK WND 32038/0937 SLP065 T10281106 FZRANO PNO $
KENW,2023-04-04T09:53:00Z,KENW 040953Z AUTO 07010KT 5SM BR OVC003 07/05 A2987 RMK AO2 RAB13E22 SLP118 P0000 T00670050
KEOE,2023-04-04T10:15:00Z,KEOE 041015Z AUTO 00000KT 10SM BKN031 15/13 A3005 RMK AO2
KEOK,2023-04-04T10:15:00Z,KEOK 041015Z AUTO 07014G19KT 10SM OVC022 08/07 A2965 RMK A01
KEPH,2023-04-04T09:53:00Z,KEPH 040953Z AUTO 29013KT 10SM CLR 01/M06 A2993 RMK AO2 SLP142 T00111061
KEQA,2023-04-04T10:15:00Z,KEQA 041015Z AUTO 19016KT 10SM CLR 22/18 A2939 RMK AO2
KEQY,2023-04-04T10:10:00Z,KEQY 041010Z AUTO 22003KT 10SM OVC011 13/12 A3001 RMK AO2 T01330122
KERI,2023-04-04T09:51:00Z,KERI 040951Z 08004KT 10SM BKN080 OVC120 09/06 A2990 RMK AO2 SLP129 T00890061
KERV,2023-04-04T10:15:00Z,KERV 041015Z AUTO 15009G14KT 10SM OVC011 22/20 A2965 RMK AO2 T02180198
KERY,2023-04-04T10:15:00Z,KERY 041015Z AUTO 03006KT 10SM OVC011 M01/M03 A3004 RMK AO2 T10101026
KESC,2023-04-04T10:25:00Z,KESC 041025Z AUTO 04007KT 10SM OVC013 00/M02 A3000 RMK AO2 FZRANO
KESF,2023-04-04T09:53:00Z,KESF 040953Z AUTO 17005KT 8SM OVC020 23/22 A2977 RMK AO2 SLP079 T02330217
KESN,2023-04-04T09:55:00Z,KESN 040955Z 19008KT 10SM CLR 13/13 A3003
KEST,2023-04-04T09:52:00Z,KEST 040952Z AUTO 03016KT 10SM FEW075 01/M02 A2972 RMK AO2 PRESFR SLP073 T00061017
KETB,2023-04-04T10:15:00Z,KETB 041015Z AUTO 05007KT 10SM SCT007 OVC011 02/02 A2990 RMK AO2
KETC,2023-04-04T10:00:00Z,KETC 041000Z AUTO 00000KT 7SM BKN013 BKN019 OVC025 16/16 A3002 RMK AO2 T01620157
KETN,2023-04-04T10:10:00Z,KETN 041010Z AUTO 16009KT 10SM CLR 20/19 A2956 RMK AO2 T02040188
KEUF,2023-04-04T10:08:00Z,KEUF 041008Z AUTO 00000KT 1/2SM FG VV002 21/20 A2998 RMK AO2 T02060200
KEUG,2023-04-04T09:54:00Z,KEUG 040954Z AUTO 23009KT 10SM SCT031 BKN042 OVC110 04/02 A3020 RMK AO2 SLP230 T00390017 $
KEUL,2023-04-04T09:56:00Z,KEUL 040956Z AUTO 28014KT 10SM CLR 00/M05 A2987 RMK AO2 SLP127 T00001050 FZRANO
KEVM,2023-04-04T10:24:00Z,KEVM 041024Z AUTO 10007KT 10SM OVC009 M03/M05 A3001 RMK AO2
KEVU,2023-04-04T10:15:00Z,KEVU 041015Z AUTO 09016G26KT 10SM CLR 08/02 A2947 RMK AO2 T00860026
KEVV,2023-04-04T09:54:00Z,KEVV 040954Z AUTO 15003KT 10SM OVC011 16/14 A2979 RMK AO2 SLP084 T01560139 $
KEVW,2023-04-04T09:53:00Z,KEVW 040953Z AUTO 31013KT 1 1/2SM -SN BR OVC018 M08/M09 A2946 RMK AO2 SLP000 P0001 T10781094
KEWB,2023-04-04T09:53:00Z,KEWB 040953Z AUTO 00000KT 10SM FEW017 03/03 A3005 RMK AO2 SLP178 T00280028 $
KEWK,2023-04-04T09:56:00Z,KEWK 040956Z AUTO 18019KT 10SM CLR 19/14 A2937 RMK AO2 SLP928 T01890139
KEWN,2023-04-04T09:54:00Z,KEWN 040954Z AUTO 00000KT 10SM BKN060 OVC075 18/17 A3003 RMK AO2 SLP168 T01830167
KEWR,2023-04-04T09:51:00Z,KEWR 040951Z 09003KT 10SM FEW020 11/07 A3001 RMK AO2 SLP161 T01060072
KEXX,2023-04-04T10:10:00Z,KEXX 041010Z AUTO 00000KT 10SM OVC015 14/11 A3002 RMK AO2 T01390114
KEYE,2023-04-04T09:53:00Z,KEYE 040953Z AUTO 14004KT 10SM OVC014 14/11 A2980 RMK AO2 SLP086 T01440106
KEYF,2023-04-04T10:10:00Z,KEYF 041010Z AUTO 17003KT 10SM BKN010 BKN019 OVC035 16/16 A3002 RMK AO2 T01630158
KEYW,2023-04-04T10:19:00Z,KEYW 041019Z AUTO 13010KT 10SM BKN021 26/22 RMK AO2 T02610217 $
KEZF,2023-04-04T10:15:00Z,KEZF 041015Z AUTO 18006KT 10SM CLR 12/07 A2998 RMK AO2 T01230070
KEZM,2023-04-04T10:15:00Z,KEZM 041015Z AUTO 00000KT 1/2SM FG OVC003 16/16 A3002 RMK AO2
KEZP,2023-04-04T10:25:00Z,KEZP 041025Z AUTO 18012G21KT 9SM SCT042 24/23 A2978 RMK A01
KEZZ,2023-04-04T10:15:00Z,KEZZ 041015Z AUTO 09014G17KT 10SM SCT037 09/04 A2951 RMK AO2 T00880036
KF00,2023-04-04T10:15:00Z,KF00 041015Z AUTO 18012G19KT 10SM SCT017 21/19 A2959 RMK AO2 T02100191
KF05,2023-04-04T10:20:00Z,KF05 041020Z AUTO 10SM CLR 17/11 A2949 RMK AO2 T01700109
KF17,2023-04-04T10:15:00Z,KF17 041015Z AUTO 17010KT 10SM OVC018 23/21 A2972 RMK AO2
KF44,2023-04-04T10:15:00Z,KF44 041015Z AUTO 18009G16KT 7SM OVC012 22/20 A2963 RMK AO2
KF46,2023-04-04T10:15:00Z,KF46 041015Z AUTO 19013G19KT 10SM BKN014 21/21 A2960 RMK AO2 T02130209
KF70,2023-04-04T10:15:00Z,KF70 041015Z AUTO 23003KT 10SM CLR 03/M08 A3002 RMK AO2
KFAF,2023-04-04T09:55:00Z,KFAF 040955Z 00000KT 10SM OVC080 15/13 A3000 RMK AO2A SLP162 T01480132 $
KFAM,2023-04-04T09:56:00Z,KFAM 040956Z AUTO 18009KT 7SM FEW015 SCT021 OVC028 20/19 A2971 RMK AO2 SLP063 T02000189
KFAR,2023-04-04T10:20:00Z,KFAR 041020Z 35008KT 10SM FEW008 OVC023 M04/M06 A2997 RMK AO2 T10391061
KFAT,2023-04-04T09:53:00Z,KFAT 040953Z 33007KT 10SM FEW200 07/01 A3012 RMK AO2 SLP200 T00670011
KFAY,2023-04-04T09:53:00Z,KFAY 040953Z 16004KT 10SM BKN030 OVC037 16/16 A3000 RMK AO2 SLP153 T01610156
KFBG,2023-04-04T10:15:00Z,KFBG 041015Z AUTO 00000KT 10SM FEW012 BKN021 OVC055 17/16 A2999 RMK AO2 SLP157 $
KFBL,2023-04-04T10:15:00Z,KFBL 041015Z AUTO 02004KT 10SM OVC070 02/M01 A2982 RMK AO2
KFCI,2023-04-04T09:56:00Z,KFCI 040956Z AUTO 15004KT 10SM OVC048 14/14 A3001 RMK AO2 SLP172 T01390139 PNO $
KFCM,2023-04-04T09:53:00Z,KFCM 040953Z AUTO 03008KT 10SM OVC070 00/M03 A2982 RMK AO2 SLP108 T00001028
KFCS,2023-04-04T09:55:00Z,KFCS 040955Z AUTO 33016G23KT 10SM FEW110 02/M05 A2929 RMK AO2 PK WND 34026/32 SLP894 T00221052 $
KFDK,2023-04-04T09:50:00Z,KFDK 040950Z AUTO 00000KT 10SM CLR 07/07 A2996 RMK AO2
KFDR,2023-04-04T09:53:00Z,KFDR 040953Z AUTO 20015KT 9SM CLR 20/17 A2945 RMK AO2 SLP952 T02000167
KFDW,2023-04-04T10:15:00Z,KFDW 041015Z AUTO 00000KT 10SM OVC017 15/15 A3002 RMK AO1
KFDY,2023-04-04T09:53:00Z,KFDY 040953Z AUTO 04008KT 10SM OVC034 09/06 A2986 RMK AO2 SLP109 T00940056
KFEP,2023-04-04T10:15:00Z,KFEP 041015Z AUTO 09011KT 10SM OVC008 07/07 A2982 RMK AO2 LTG DSNT SW T00680067
KFET,2023-04-04T10:15:00Z,KFET 041015Z AUTO 06011G19KT 10SM OVC040 05/00 A2953 RMK AO2 T00501005
KFFA,2023-04-04T10:10:00Z,KFFA 041010Z AUTO 16003KT 10SM SCT047 BKN065 OVC090 17/15 A3003 RMK AO2 T01700153
KFFC,2023-04-04T09:53:00Z,KFFC 040953Z AUTO 00000KT 1/2SM FG VV003 15/15 A3000 RMK AO2 SLP158 T01500150
KFFL,2023-04-04T10:15:00Z,KFFL 041015Z AUTO 08017G23KT 10SM BKN012 OVC035 07/05 A2966 RMK A01
KFFM,2023-04-04T10:15:00Z,KFFM 041015Z AUTO 01005KT 4SM BR BKN004 OVC015 M03/M03 A2991 RMK AO2
KFFO,2023-04-04T10:15:00Z,KFFO 041015Z 00000KT 10SM BKN019 OVC049 14/10 A2983 RMK AO2A CIG 019V049 SLP102
KFFT,2023-04-04T09:53:00Z,KFFT 040953Z AUTO 13004KT 10SM OVC017 15/11 A2987 RMK AO2 SLP111 T01500111
KFFX,2023-04-04T10:15:00Z,KFFX 041015Z AUTO 07006KT 10SM -DZ BKN007 BKN025 OVC065 06/04 A2992 RMK AO2 T00560040
KFFZ,2023-04-04T09:54:00Z,KFFZ 040954Z AUTO 28009KT 8SM FEW075 11/M10 A2981 RMK AO2 SLP078 T01061100
KFGN,2023-04-04T10:15:00Z,KFGN 041015Z AUTO 07009G14KT 10SM CLR M07/M12 A3006 RMK AO2
KFGX,2023-04-04T10:15:00Z,KFGX 041015Z AUTO 21005KT 10SM BKN019 OVC027 14/09 A2992 RMK AO2 T01370088
KFHB,2023-04-04T10:15:00Z,KFHB 041015Z AUTO 00000KT 2 1/2SM BR CLR 16/ A3001 RMK AO2
KFHR,2023-04-04T09:53:00Z,KFHR 040953Z AUTO 26003KT 10SM CLR 01/M01 A3006 RMK AO2 SLP178 T00111006
KFHU,2023-04-04T09:55:00Z,KFHU 040955Z AUTO 28015G22KT 10SM CLR 11/M06 A2979 RMK AO2 PK WND 23030/22 SLP041 T01101059
KFIG,2023-04-04T09:54:00Z,KFIG 040954Z AUTO 04004KT 10SM CLR 06/02 A2992 RMK AO2 SLP132 T00560017
KFIN,2023-04-04T10:15:00Z,KFIN 041015Z AUTO 00000KT 7SM CLR 16/16 A3001 RMK AO2 T01640164
KFIT,2023-04-04T09:52:00Z,KFIT 040952Z AUTO 00000KT 10SM OVC060 07/03 A3005 RMK AO2 RAB0856E23 SLP179 P0000 T00720033
KFKA,2023-04-04T10:15:00Z,KFKA 041015Z AUTO 06005KT 7SM OVC060 03/M01 A2979 RMK AO2 T00281008
KFKL,2023-04-04T09:56:00Z,KFKL 040956Z AUTO 07004KT 10SM OVC100 07/03 A2990 RMK AO2 SLP127 T00720028
KFKN,2023-04-04T10:15:00Z,KFKN 041015Z AUTO 08003KT 5SM BR OVC075 14/14 A3003 RMK AO2 T01430135
KFKR,2023-04-04T10:15:00Z,KFKR 041015Z AUTO 00000KT 10SM 11/11 A2978 RMK AO2
KFKS,2023-04-04T10:15:00Z,KFKS 041015Z AUTO 07006KT 10SM CLR 04/M01 A2995 RMK AO2 T00361008
KFLD,2023-04-04T10:21:00Z,KFLD 041021Z AUTO 05010KT 10SM OVC009 03/01 A2990 RMK AO2 T00330006
KFLG,2023-04-04T09:57:00Z,KFLG 040957Z AUTO 26007KT 8SM -SN FEW022 OVC035 M06/M10 A2965 RMK AO2 SNB07 SLP011 P0000 T10561100
KFLL,2023-04-04T09:53:00Z,KFLL 040953Z AUTO 14008KT 10SM FEW021 26/22 A2997 RMK AO2 SLP150 T02560217 PWINO
KFLO,2023-04-04T10:06:00Z,KFLO 041006Z 00000KT 8SM BKN027 OVC070 14/13 A3003 RMK AO2 T01390133
KFLP,2023-04-04T09:56:00Z,KFLP 040956Z AUTO 19007KT 9SM CLR 22/19 A2963 RMK AO2 SLP024 T02220189
KFLY,2023-04-04T10:15:00Z,KFLY 041015Z AUTO 34014G21KT 10SM CLR M02/M05 A2935 RMK AO2 T10171046
KFME,2023-04-04T10:09:00Z,KFME 041009Z AUTO 00000KT 10SM CLR 06/05 A3000 RMK AO1
KFMH,2023-04-04T09:45:00Z,KFMH 040945Z 20004KT 10SM OVC021 07/07 A3007
KFMM,2023-04-04T10:15:00Z,KFMM 041015Z AUTO 04024KT 10SM OVC015 M02/M03 A2943 RMK AO2
KFMN,2023-04-04T09:53:00Z,KFMN 040953Z AUTO 26012G23KT 10SM FEW065 OVC085 00/M06 A2958 RMK AO2 PK WND 29031/0859 SLP986 T00001056
KFMY,2023-04-04T09:53:00Z,KFMY 040953Z AUTO 11003KT 9SM CLR 21/20 A2998 RMK AO2 SLP154 T02110200
KFNB,2023-04-04T09:53:00Z,KFNB 040953Z AUTO 09013KT 10SM CLR 08/01 A2947 RMK AO2 SLP976 T00780006
KFNL,2023-04-04T10:13:00Z,KFNL 041013Z 03015KT 7SM -SN BKN010 OVC018 M03/M04 A2949 RMK AO2 CIG 007V012 P0000 FZRANO
KFNT,2023-04-04T10:23:00Z,KFNT 041023Z 04005KT 10SM SCT006 BKN017 OVC070 07/06 A2994 RMK AO2 RAE15 P0000 T00670061
KFOA,2023-04-04T10:15:00Z,KFOA 041015Z AUTO 15007KT 10SM OVC015 15/14 A2974 RMK AO2
KFOD,2023-04-04T09:56:00Z,KFOD 040956Z AUTO 06014G18KT 10SM OVC060 03/M01 A2967 RMK AO2 SLP067 T00281006
KFOE,2023-04-04T09:53:00Z,KFOE 040953Z AUTO 10SM CLR 11/03 A2942 RMK AO2 SLP954 T01110028 $
KFOK,2023-04-04T10:23:00Z,KFOK 041023Z AUTO 12003KT 1 1/4SM BR SCT015 03/03 A3007 RMK AO2 T00280028
KFOZ,2023-04-04T10:13:00Z,KFOZ 041013Z AUTO 08008KT 10SM OVC008 M01/M03 A3003 RMK AO2
KFPK,2023-04-04T10:15:00Z,KFPK 041015Z AUTO 07005KT 10SM OVC005 06/05 A2990 RMK AO2 T00600051
KFPR,2023-04-04T09:53:00Z,KFPR 040953Z AUTO 23005KT 9SM -RA SCT029 BKN044 BKN065 23/22 A3000 RMK AO2 RAB45 SLP157 P0000 T02280217
KFPY,2023-04-04T10:15:00Z,KFPY 041015Z AUTO 00000KT 1/2SM FG OVC002 20/20 A3000 RMK AO2 T02000195
KFQD,2023-04-04T10:10:00Z,KFQD 041010Z AUTO 00000KT 10SM OVC007 10/09 A3003 RMK AO2
KFRG,2023-04-04T09:53:00Z,KFRG 040953Z AUTO 00000KT 8SM CLR 07/06 A3003 RMK AO2 SLP168 T00670056
KFRH,2023-04-04T10:15:00Z,KFRH 041015Z AUTO 16004KT 10SM OVC008 15/12 A2981 RMK AO1
KFRI,2023-04-04T09:55:00Z,KFRI 040955Z AUTO 03007KT 10SM CLR 08/01 A2939 RMK AO2 SLP947 T00780010 $
KFRM,2023-04-04T09:56:00Z,KFRM 040956Z AUTO 05009KT 10SM CLR 00/M01 A2976 RMK AO2 PRESFR SLP092 T00001011 FZRANO
KFSD,2023-04-04T09:56:00Z,KFSD 040956Z 05017KT 10SM BKN009 OVC060 00/M03 A2970 RMK AO2 PRESFR SLP071 T00001028
KFSE,2023-04-04T10:15:00Z,KFSE 041015Z AUTO 05005KT 10SM OVC010 M04/M05 A2997 RMK AO2
KFSI,2023-04-04T09:55:00Z,KFSI 040955Z AUTO 19010KT 10SM CLR 20/20 A2946 RMK AO2 SLP965 T02030201 FZRANO $
KFSK,2023-04-04T10:15:00Z,KFSK 041015Z AUTO 19018G23KT 10SM CLR 22/18 A2946 RMK AO2 T02190177
KFSM,2023-04-04T09:53:00Z,KFSM 040953Z AUTO 08004KT 10SM CLR 22/18 A2959 RMK AO2 SLP014 T02220178
KFSO,2023-04-04T10:15:00Z,KFSO 041015Z AUTO 00000KT 10SM CLR 01/00 A3002 RMK AO2 T00090001
KFST,2023-04-04T09:53:00Z,KFST 040953Z AUTO 23009KT 10SM CLR 20/M08 A2962 RMK AO2 SLP979 T02001083 $
KFSW,2023-04-04T10:15:00Z,KFSW 041015Z AUTO 07013G19KT 10SM 08/06 A2965 RMK AO2
KFTK,2023-04-04T10:03:00Z,KFTK 041003Z AUTO 15008KT 10SM OVC010 15/15 A2983 RMK AO2 SLP101
KFTN,2023-04-04T10:15:00Z,KFTN 041015Z AUTO 15008G16KT 9SM CLR 24/20 A2960 RMK A01
KFTW,2023-04-04T10:20:00Z,KFTW 041020Z AUTO 17016G23KT 8SM SCT014 22/21 A2956 RMK AO2 T02170206
KFTY,2023-04-04T09:53:00Z,KFTY 040953Z 04005KT 4SM BR OVC003 13/13 A3000 RMK AO2 SLP156 T01330133
KFUL,2023-04-04T09:53:00Z,KFUL 040953Z AUTO 28009G18KT 10SM CLR 12/M05 A3003 RMK AO2 SLP168 T01221050
KFVE,2023-04-04T10:24:00Z,KFVE 041024Z AUTO 00000KT 10SM SCT021 BKN035 OVC042 00/M03 A2991 RMK AO2 T00001028
KFVX,2023-04-04T10:15:00Z,KFVX 041015Z AUTO 00000KT 10SM CLR 12/10 A3000 RMK AO2 T01200095
KFWA,2023-04-04T09:54:00Z,KFWA 040954Z 08008KT 10SM BKN029 09/07 A2986 RMK AO2 SLP110 T00940067 $
KFWB,2023-04-04T10:15:00Z,KFWB 041015Z AUTO 17008KT 140V200 9SM CLR 21/18 A2960 RMK AO2
KFWC,2023-04-04T10:15:00Z,KFWC 041015Z AUTO 15004KT 10SM CLR 14/13 A2974 RMK AO1 T01410130
KFWN,2023-04-04T09:53:00Z,KFWN 040953Z AUTO 00000KT 10SM CLR 04/03 A3000 RMK AO2 SLP161 T00440033
KFWS,2023-04-04T10:15:00Z,KFWS 041015Z AUTO 16011G16KT 7SM CLR 22/19 A2959 RMK AO2 T02210195
KFXE,2023-04-04T09:53:00Z,KFXE 040953Z 10003KT 10SM FEW020 24/22 A2998 RMK AO2 SLP156 T02390222
KFXY,2023-04-04T10:15:00Z,KFXY 041015Z AUTO 05009G14KT 10SM CLR 01/M01 A2971 RMK AO2
KFYE,2023-04-04T10:10:00Z,KFYE 041010Z AUTO 17007KT 10SM CLR 21/20 A2979 RMK A01
KFYG,2023-04-04T10:15:00Z,KFYG 041015Z AUTO 00000KT 8SM FEW020 FEW060 19/19 A2961 RMK AO2
KFYJ,2023-04-04T10:15:00Z,KFYJ 041015Z AUTO 00000KT 10SM OVC075 15/13 A3002 RMK AO1 T01470128
KFYM,2023-04-04T10:15:00Z,KFYM 041015Z AUTO 16008KT 1 1/2SM BR OVC003 16/16 A2994 RMK A01
KFYV,2023-04-04T09:53:00Z,KFYV 040953Z AUTO 18012G19KT 7SM CLR 23/18 A2959 RMK AO2 SLP003 T02280178
KFZG,2023-04-04T10:15:00Z,KFZG 041015Z AUTO 00000KT 3/4SM OVC003 19/19 A3001 RMK AO2 T01900185
KFZY,2023-04-04T09:54:00Z,KFZY 040954Z AUTO 00000KT -RA OVC039 07/06 A2998 RMK AO2 RAB00 SLP154 P0002 T00670056 $
KGAD,2023-04-04T09:56:00Z,KGAD 040956Z AUTO 05004KT 10SM OVC006 16/16 A2997 RMK AO2 SLP150 T01560156 PNO $
KGAF,2023-04-04T10:15:00Z,KGAF 041015Z AUTO 02008KT 10SM OVC070 M07/M07 A3003 RMK AO2
KGAG,2023-04-04T09:53:00Z,KGAG 040953Z AUTO 20018KT 10SM CLR 17/M15 A2940 RMK AO2 SLP926 T01671150
KGAI,2023-04-04T09:56:00Z,KGAI 040956Z AUTO 14003KT 10SM CLR 12/07 A2997 RMK AO2 SLP163 T01220072
KGAO,2023-04-04T10:15:00Z,KGAO 041015Z AUTO 16006KT 10SM SCT009 25/23 A2987 RMK AO2 T02450225
KGBD,2023-04-04T09:56:00Z,KGBD 040956Z AUTO 00000KT 10SM CLR 06/04 A2934 RMK AO2 SLP927 T00560044
KGBG,2023-04-04T10:15:00Z,KGBG 041015Z AUTO 07013G18KT 10SM BKN015 OVC026 07/07 A2971 RMK AO2 T00720072 TSNO
KGCC,2023-04-04T09:53:00Z,KGCC 040953Z AUTO 06013KT 1SM -SN BR FEW006 OVC011 M03/M04 A2970 RMK AO2 SLP079 P0003 T10331044
KGCD,2023-04-04T10:15:00Z,KGCD 041015Z AUTO 27009KT 10SM -SN SCT035 OVC048 M02/M05 A2994 RMK AO2 T10211054
KGCK,2023-04-04T09:54:00Z,KGCK 040954Z AUTO 12003KT 10SM CLR 04/01 A2932 RMK AO2 SLP911 T00390011
KGCM,2023-04-04T10:15:00Z,KGCM 041015Z AUTO 18014G19KT 7SM FEW022 23/21 A2951 RMK AO2
KGCN,2023-04-04T09:54:00Z,KGCN 040954Z AUTO 24009KT 10SM FEW100 M06/M09 A2961 RMK AO2 SLP001 T10611094
KGCY,2023-04-04T10:15:00Z,KGCY 041015Z AUTO 00000KT 10SM OVC026 13/07 A3000 RMK A01
KGDA,2023-04-04T10:15:00Z,KGDA 041015Z AUTO 18004KT 10SM SCT011 16/16 A2978 RMK AO2 T01630155 PWINO
KGDB,2023-04-04T10:15:00Z,KGDB 041015Z AUTO 36008KT 5SM BR OVC075 00/M01 A2986 RMK AO2 T10021013
KGDJ,2023-04-04T10:15:00Z,KGDJ 041015Z AUTO 16011G17KT 10SM CLR 22/20 A2957 RMK AO2 T02160196
KGDV,2023-04-04T09:56:00Z,KGDV 040956Z AUTO 02011KT 8SM -SN OVC008 M04/M06 A2991 RMK AO2 SNB12E22B48 CIG 006V010 SLP158 P0000 T10441056 FZRANO TSNO
KGED,2023-04-04T09:54:00Z,KGED 040954Z AUTO 17005KT 10SM CLR 13/11 A3002 RMK AO2 SLP164 T01280111
KGEG,2023-04-04T09:53:00Z,KGEG 040953Z 21006KT 1SM R21/P6000FT BR OVC003 M01/M02 A2990 RMK AO2 SFC VIS 3 SLP144 T10111022 $
KGEV,2023-04-04T10:10:00Z,KGEV 041010Z AUTO 22004KT 10SM OVC023 09/07 A3004 RMK AO2 T00920072
KGEY,2023-04-04T09:53:00Z,KGEY 040953Z AUTO 31007KT SCT050 OVC070 12/M03 A2963 RMK AO2 SLP019 T01171033 $
KGEZ,2023-04-04T09:53:00Z,KGEZ 040953Z AUTO 17008KT 10SM BKN018 BKN032 OVC048 15/11 A2982 RMK AO2 SLP093 T01500106
KGFA,2023-04-04T09:55:00Z,KGFA 040955Z AUTO 00000KT 9SM -SN OVC018 M05/M07 A2990 RMK AO2 SLP161 P0000 T10471072 $
KGFK,2023-04-04T09:53:00Z,KGFK 040953Z AUTO 34007KT 10SM OVC018 M06/M07 A3001 RMK AO2 SLP177 T10611072 $
KGFL,2023-04-04T09:53:00Z,KGFL 040953Z AUTO 22006KT 10SM -RA SCT060 BKN075 OVC090 07/03 A3003 RMK AO2 RAB00 SLP171 P0000 T00670028
KGGE,2023-04-04T10:15:00Z,KGGE 041015Z AUTO 21003KT 10SM SCT023 OVC033 17/17 A3004 RMK AO2
KGGF,2023-04-04T10:15:00Z,KGGF 041015Z AUTO 05015KT 10SM OVC025 M00/M03 A2947 RMK AO2
KGGG,2023-04-04T09:53:00Z,KGGG 040953Z AUTO 18014G25KT 10SM BKN020 23/19 A2966 RMK AO2 SLP036 T02280194 $
KGGI,2023-04-04T10:15:00Z,KGGI 041015Z AUTO 07016G21KT 10SM OVC060 09/05 A2967 RMK AO2 T00870047
KGGP,2023-04-04T10:15:00Z,KGGP 041015Z AUTO 08005KT 10SM OVC017 12/09 A2982 RMK AO2
KGGW,2023-04-04T09:53:00Z,KGGW 040953Z AUTO 09009KT 8SM -SN OVC024 M06/M10 A2995 RMK AO2 SNB14E27B46 SLP177 P0000 T10611100
KGHG,2023-04-04T10:15:00Z,KGHG 041015Z AUTO 00000KT 10SM BKN065 BKN080 OVC100 07/05 A3006 RMK AO2
KGHW,2023-04-04T10:15:00Z,KGHW 041015Z AUTO 01006KT 5SM BR OVC004 M01/M02 A2989 RMK AO2
KGIC,2023-04-04T10:15:00Z,KGIC 041015Z AUTO 24004KT 1/2SM OVC012 M02/M02 A2987 RMK AO1
KGIF,2023-04-04T09:53:00Z,KGIF 040953Z AUTO 00000KT 10SM CLR 20/18 A3001 RMK AO2 SLP159 T02000183
KGJT,2023-04-04T09:53:00Z,KGJT 040953Z AUTO 23011KT 10SM BKN055 BKN065 02/M04 A2939 RMK AO2 SLP915 T00221044
KGKJ,2023-04-04T09:53:00Z,KGKJ 040953Z AUTO 03005KT 10SM OVC100 08/04 A2989 RMK AO2 SLP120 T00830039
KGKT,2023-04-04T10:15:00Z,KGKT 041015Z AUTO 00000KT 10SM FEW037 OVC046 10/09 A3000 RMK A01
KGKY,2023-04-04T10:23:00Z,KGKY 041023Z AUTO 16016G26KT 9SM SCT014 23/19 A2957 RMK AO2 PK WND 16027/1009 T02280194
KGLD,2023-04-04T09:53:00Z,KGLD 040953Z AUTO 09010KT 10SM CLR 00/M04 A2937 RMK AO2 SLP929 T00001044
KGLE,2023-04-04T10:15:00Z,KGLE 041015Z AUTO 18006KT 7SM CLR 20/19 A2958 RMK AO2 T02000188
KGLH,2023-04-04T10:19:00Z,KGLH 041019Z AUTO 17009KT 7SM BKN016 BKN025 22/20 A2978 RMK AO2 T02170200
KGLR,2023-04-04T09:53:00Z,KGLR 040953Z AUTO 03005KT 10SM SCT120 00/M03 A2998 RMK AO2 SLP161 T00001028
KGLS,2023-04-04T09:52:00Z,KGLS 040952Z AUTO 16013KT 8SM OVC011 24/22 A2973 RMK AO2 SLP067 T02390222
KGLW,2023-04-04T10:15:00Z,KGLW 041015Z AUTO 18004KT 7SM OVC007 16/15 A2988 RMK AO2 T01570153
KGLY,2023-04-04T10:15:00Z,KGLY 041015Z AUTO 13006KT 8SM CLR 17/16 A2949 RMK AO2
KGMJ,2023-04-04T10:15:00Z,KGMJ 041015Z AUTO 19013G20KT 7SM CLR 23/20 A2952 RMK AO2
KGMU,2023-04-04T09:53:00Z,KGMU 040953Z AUTO 00000KT 10SM BKN023 OVC040 13/08 A3002 RMK AO2 SLP163 T01330083
KGNA,2023-04-04T09:56:00Z,KGNA 040956Z AUTO 06009G23KT M04/M09 A3011 RMK AO1 PK WND 05026/0929 SLP211 T10441089
KGNB,2023-04-04T10:15:00Z,KGNB 041015Z AUTO 28009KT 1/2SM SN OVC005 M03/M04 A2935 RMK AO2 T10341041
KGNC,2023-04-04T10:10:00Z,KGNC 041010Z AUTO 22013KT 10SM CLR 16/M15 A2962 RMK AO2 T01571152
KGNG,2023-04-04T10:20:00Z,KGNG 041020Z AUTO 27017G23KT 10SM BKN055 OVC075 M02/M02 A2969 RMK AO2
KGNR,2023-04-04T09:56:00Z,KGNR 040956Z AUTO VRB03KT 00/M02 A2993 RMK AO1 SLP152 T00001017
KGNT,2023-04-04T10:15:00Z,KGNT 041015Z AUTO 26014G24KT 10SM OVC060 03/M09 A2960 RMK AO2 T00341089
KGOK,2023-04-04T09:53:00Z,KGOK 040953Z AUTO 18014KT 7SM CLR 21/19 A2943 RMK AO2 SLP954 T02110189 $
KGON,2023-04-04T09:56:00Z,KGON 040956Z AUTO 29003KT 10SM CLR 08/06 A3005 RMK AO2 SLP175 T00780056
KGOO,2023-04-04T10:15:00Z,KGOO 041015Z AUTO 00000KT 10SM CLR M02/M07 A3005 RMK A01
KGOP,2023-04-04T10:15:00Z,KGOP 041015Z AUTO 7SM CLR A2961 RMK AO2
KGOV,2023-04-04T09:55:00Z,KGOV 040955Z AUTO 05003KT 10SM BKN110 BKN130 01/M01 A2997 RMK AO2 SLP162 T00101011 $
KGPC,2023-04-04T10:15:00Z,KGPC 041015Z AUTO 14004KT 10SM OVC012 14/11 A2980 RMK AO2 LTG DSNT SE T01380115
KGPH,2023-04-04T10:15:00Z,KGPH 041015Z AUTO 12005KT 10SM SCT037 11/03 A2950 RMK AO2
KGPI,2023-04-04T09:55:00Z,KGPI 040955Z AUTO 01007KT 10SM CLR M03/M08 A2986 RMK AO2 SLP131 T10331078
KGPM,2023-04-04T10:15:00Z,KGPM 041015Z AUTO 18010G16KT 7SM OVC014 22/19 A2959 RMK AO2 T02240190
KGPT,2023-04-04T09:53:00Z,KGPT 040953Z AUTO 16007KT 9SM BKN007 OVC017 24/23 A2988 RMK AO2 SLP117 T02390228
KGPZ,2023-04-04T09:56:00Z,KGPZ 040956Z AUTO 11007KT 10SM OVC009 M02/M04 A2998 RMK AO2 SNB04E14 SLP170 P0000 T10221039 FZRANO
KGRB,2023-04-04T09:53:00Z,KGRB 040953Z AUTO 05021G30KT 10SM OVC008 00/M02 A2994 RMK AO2 PK WND 05030/0948 SLP142 T00001022
KGRD,2023-04-04T09:56:00Z,KGRD 040956Z AUTO 00000KT 5SM BR FEW029 SCT040 13/13 A3003 RMK AO2 SLP167 T01280128 PNO $
KGRF,2023-04-04T09:55:00Z,KGRF 040955Z 13007KT 10SM CLR M00/M02 A3006 RMK AO2A SLP185 T10031017 $
KGRI,2023-04-04T09:53:00Z,KGRI 040953Z AUTO 06015KT 10SM BKN034 03/M02 A2951 RMK AO2 PK WND 06027/0857 SLP997 T00331022
KGRK,2023-04-04T10:05:00Z,KGRK 041005Z AUTO 16017KT 10SM SCT015 BKN210 22/19 A2960 RMK AO2 SLP011
KGRN,2023-04-04T10:15:00Z,KGRN 041015Z AUTO 04017G21KT 7SM UP OVC006 M03/M05 A2964 RMK AO2 T10281046
KGRR,2023-04-04T09:53:00Z,KGRR 040953Z 07012KT 10SM -RA OVC005 06/05 A2989 RMK AO2 SLP127 P0001 T00610050
KGRY,2023-04-04T10:15:00Z,KGRY 041015Z AUTO 18010KT 10SM CLR 24/22 A2986 RMK A01
KGSB,2023-04-04T09:55:00Z,KGSB 040955Z 00000KT 10SM OVC042 17/17 A2999 RMK AO2A RAB17E42 SLP159 P0001 T01680166 $
KGSH,2023-04-04T10:01:00Z,KGSH 041001Z AUTO 07006KT 10SM BKN011 OVC025 09/07 A2985 RMK AO2 T00940072
KGSO,2023-04-04T09:54:00Z,KGSO 040954Z 23005KT 10SM OVC025 14/10 A3001 RMK AO2 SLP156 T01390100
KGSP,2023-04-04T09:53:00Z,KGSP 040953Z 00000KT 10SM FEW027 BKN037 11/08 A3002 RMK AO2 SLP162 T01060083
KGTB,2023-04-04T09:55:00Z,KGTB 040955Z AUTO 15006KT 10SM OVC070 06/M01 A2996 RMK AO2 SLP149 T00561007
KGTF,2023-04-04T09:53:00Z,KGTF 040953Z 36003KT 10SM -SN OVC017 M04/M07 A2989 RMK AO2 SNE0856B52 SLP165 P0000 T10441072
KGTR,2023-04-04T10:06:00Z,KGTR 041006Z AUTO 16007KT 10SM BKN012 BKN024 21/20 A2988 RMK AO2
KGTU,2023-04-04T09:56:00Z,KGTU 040956Z AUTO 18012G19KT OVC014 23/20 A2965 RMK AO2 SLP032 T02280200 PWINO $
KGUC,2023-04-04T09:56:00Z,KGUC 040956Z AUTO 25010KT 10SM FEW050 OVC065 M02/M07 A2940 RMK AO2 SLP927 T10221072 FZRANO
KGUL,2023-04-04T10:20:00Z,KGUL 041020Z AUTO 17010KT 3SM BR SCT012 25/23 A2975 RMK A01
KGUP,2023-04-04T10:12:00Z,KGUP 041012Z AUTO 25012G19KT 1 1/4SM -SN BR FEW008 OVC013 M03/M04 A2962 RMK AO2 P0000 T10331044
KGUR,2023-04-04T10:05:00Z,KGUR 041005Z AUTO 06012KT 4SM -SN BR OVC015 M04/M05 A2958 RMK AO2 CIG 011V015 SLP068
KGUS,2023-04-04T09:55:00Z,KGUS 040955Z AUTO 11005KT 10SM OVC019 12/10 A2979 RMK AO2 OVC V BKN SLP090 T01180095 $
KGUY,2023-04-04T09:53:00Z,KGUY 040953Z AUTO 22019G26KT 10SM CLR 14/M13 A2936 RMK AO2 PK WND 22027/0925 SLP897 T01391133
KGVE,2023-04-04T10:15:00Z,KGVE 041015Z AUTO 00000KT 10SM CLR 08/07 A2999 RMK AO1 T00810069
KGVL,2023-04-04T10:05:00Z,KGVL 041005Z AUTO 00000KT 10SM OVC007 14/10 A3004 RMK AO2 T01390100
KGVQ,2023-04-04T09:56:00Z,KGVQ 040956Z AUTO 14006KT 8SM -RA FEW015 OVC070 07/07 A2994 RMK AO2 SLP143 P0007 T00720067
KGVT,2023-04-04T10:15:00Z,KGVT 041015Z AUTO 17014G19KT 10SM SCT015 21/20 A2960 RMK AO2 TSNO T02120195
KGVW,2023-04-04T10:15:00Z,KGVW 041015Z AUTO 12009KT 3SM BR 23/22 A2974 RMK A01
KGWB,2023-04-04T10:15:00Z,KGWB 041015Z AUTO 10006KT 7SM SCT008 OVC030 08/07 A2987 RMK AO2
KGWO,2023-04-04T09:53:00Z,KGWO 040953Z AUTO 18008KT 10SM SCT030 22/19 A2981 RMK AO2 SLP094 T02220194
KGWR,2023-04-04T10:15:00Z,KGWR 041015Z AUTO 01012KT 1 1/2SM BR OVC003 M07/M07 A2992 RMK A01
KGWW,2023-04-04T10:15:00Z,KGWW 041015Z AUTO 00000KT 10SM BKN038 BKN050 16/16 A3002 RMK AO2 T01610161
KGXA,2023-04-04T09:55:00Z,KGXA 040955Z AUTO 30014KT 10SM CLR 01/M06 A2998 RMK AO2 SLP157 WND DATA ESTMD T00101058
KGXF,2023-04-04T09:55:00Z,KGXF 040955Z AUTO 25007KT 10SM CLR 09/M13 A2987 RMK AO2 SLP108 T00901128 FZRANO $
KGXY,2023-04-04T10:15:00Z,KGXY 041015Z 02015KT 8SM -SN OVC015 M02/M04 A2949 RMK AO2 UPE00SNB00 P0000 FZRANO
KGYB,2023-04-04T10:15:00Z,KGYB 041015Z AUTO 17005KT 7SM OVC011 23/21 A2966 RMK AO2 T02250208
KGYF,2023-04-04T10:15:00Z,KGYF 041015Z AUTO 14024KT 10SM OVC008 24/23 A2970 RMK AO2
KGYH,2023-04-04T09:55:00Z,KGYH 040955Z AUTO 31003KT 10SM OVC021 13/09 A3002 RMK A02 T01290088
KGYI,2023-04-04T10:15:00Z,KGYI 041015Z AUTO 18013G17KT 10SM CLR 21/18 A2957 RMK AO2 T02100181 TSNO
KGYL,2023-04-04T10:15:00Z,KGYL 041015Z AUTO 02005KT 10SM OVC070 01/M02 A2984 RMK AO2 T00061016
KGYY,2023-04-04T09:45:00Z,KGYY 040945Z 06010G30KT 5SM -RA OVC027 07/05 A2984
KGZH,2023-04-04T10:21:00Z,KGZH 041021Z AUTO 00000KT 5SM BR BKN008 BKN020 BKN027 22/20 A2994 RMK AO2 T02170200
KGZN,2023-04-04T10:00:00Z,KGZN 041000Z AUTO 17015KT 7SM FEW034 21/20 A2954 RMK AO2
KGZS,2023-04-04T10:15:00Z,KGZS 041015Z AUTO 15005KT 4SM BR OVC004 18/18 A2990 RMK A01
KH71,2023-04-04T10:10:00Z,KH71 041010Z AUTO 17012G23KT 9SM FEW030 SCT035 23/19 A2950 RMK AO2
KHAE,2023-04-04T10:15:00Z,KHAE 041015Z AUTO 05004KT 10SM OVC016 11/06 A2963 RMK AO2
KHAF,2023-04-04T10:15:00Z,KHAF 041015Z AUTO 35013G23KT 9SM CLR 08/02 A3020 RMK AO2
KHAI,2023-04-04T10:15:00Z,KHAI 041015Z AUTO 07009KT 5SM -RA OVC008 07/07 A2988 RMK AO2 T00700066
KHAO,2023-04-04T09:53:00Z,KHAO 040953Z AUTO 00000KT 10SM OVC018 15/11 A2987 RMK AO2 SLP112 T01500106
KHBG,2023-04-04T09:53:00Z,KHBG 040953Z AUTO 13003KT 7SM SCT065 22/21 A2989 RMK AO2 SLP119 T02170211
KHBI,2023-04-04T10:05:00Z,KHBI 041005Z AUTO 00000KT 10SM SCT012 OVC019 14/10 A3005 RMK AO2 T01390099
KHBR,2023-04-04T09:53:00Z,KHBR 040953Z AUTO 20015KT 8SM CLR 17/14 A2947 RMK AO2 SLP958 T01670144
KHBV,2023-04-04T10:15:00Z,KHBV 041015Z AUTO 17010G16KT 5SM BR SCT009 SCT013 22/21 A2961 RMK AO2 T02220208
KHCD,2023-04-04T10:15:00Z,KHCD 041015Z AUTO 02010KT 10SM OVC070 01/M01 A2987 RMK AO2 T00101012
KHCO,2023-04-04T10:15:00Z,KHCO 041015Z AUTO 03004KT 10SM SCT020 BKN080 M06/M07 A3003 RMK AO2
KHCR,2023-04-04T10:15:00Z,KHCR 041015Z AUTO 27004KT 10SM OVC060 M03/M10 A2949 RMK AO2
KHDC,2023-04-04T10:15:00Z,KHDC 041015Z AUTO 16003KT 7SM BKN015 BKN021 22/22 A2987 RMK AO2 T02180215
KHDE,2023-04-04T10:15:00Z,KHDE 041015Z AUTO 05013KT 10SM CLR 02/M01 A2943 RMK AO2 T00221015
KHDL,2023-04-04T10:15:00Z,KHDL 041015Z AUTO 14004KT 1SM BR OVC004 21/21 A2997 RMK AO2
KHDN,2023-04-04T09:56:00Z,KHDN 040956Z AUTO VRB04KT 10SM FEW070 SCT085 SCT110 M04/M06 A2935 RMK AO2 SNE36 SLP948 P0000 T10441056 FZRANO
KHDO,2023-04-04T09:51:00Z,KHDO 040951Z AUTO 14010KT 10SM OVC014 23/21 A2963 RMK AO2 SLP016 T02330211
KHEF,2023-04-04T09:56:00Z,KHEF 040956Z 19006KT 10SM CLR 13/09 A2997 RMK AO2 SLP153 T01330089
KHEG,2023-04-04T10:15:00Z,KHEG 041015Z AUTO 00000KT 10SM OVC008 16/15 A3003 RMK AO2
KHEI,2023-04-04T09:53:00Z,KHEI 040953Z AUTO 07009KT 7SM OVC006 M04/M05 A2988 RMK AO2 CIG 005V010 SLP143 T10391050
KHEQ,2023-04-04T10:15:00Z,KHEQ 041015Z AUTO 07016G22KT 10SM OVC023 02/M03 A2945 RMK AO2
KHEY,2023-04-04T10:24:00Z,KHEY 041024Z AUTO 00000KT 2 3/4SM BR BKN002 BKN015 21/21 A2993 RMK AO2 VIS 2 3/4V5 CIG 002V012 SLP135
KHEZ,2023-04-04T09:56:00Z,KHEZ 040956Z AUTO 16008KT 10SM OVC020 23/21 A2982 RMK AO2 SLP097 T02330211
KHFD,2023-04-04T09:53:00Z,KHFD 040953Z 00000KT 10SM CLR 06/05 A3004 RMK AO2 SLP171 T00610050
KHFF,2023-04-04T10:25:00Z,KHFF 041025Z AUTO 00000KT 10SM OVC015 15/15 A3000 RMK AO2 SLP161 $
KHFJ,2023-04-04T10:15:00Z,KHFJ 041015Z AUTO 17015G20KT 10SM CLR 21/17 A2955 RMK AO2
KHGR,2023-04-04T09:53:00Z,KHGR 040953Z AUTO 18006KT 10SM CLR 12/07 A2994 RMK AO2 SLP146 T01170067
KHHF,2023-04-04T10:15:00Z,KHHF 041015Z AUTO 26006KT 10SM CLR 14/M14 A2940 RMK AO2 T01441143
KHHR,2023-04-04T09:53:00Z,KHHR 040953Z AUTO 10SM CLR 12/M05 A3007 RMK AO2 SLP181 T01221050
KHHW,2023-04-04T10:17:00Z,KHHW 041017Z AUTO 16009KT 10SM CLR 21/18 A2960 RMK AO2
KHIE,2023-04-04T09:52:00Z,KHIE 040952Z AUTO 00000KT 10SM OVC085 00/M01 A3002 RMK AO2 SLP175 T00001006
KHIF,2023-04-04T09:55:00Z,KHIF 040955Z 01006KT 2 SM -SN BR OVC010 M04/M04 A2959 RMK SLP033 P0000 T10421043
KHII,2023-04-04T10:15:00Z,KHII 041015Z AUTO 36011KT 10SM CLR 10/M17 A2988 RMK AO2
KHIO,2023-04-04T09:53:00Z,KHIO 040953Z AUTO 00000KT 10SM FEW037 OVC065 01/01 A3014 RMK AO2 SLP210 T00110006
KHJH,2023-04-04T10:15:00Z,KHJH 041015Z AUTO 08013G19KT 10SM CLR 06/M01 A2942 RMK AO2 T00611011
KHJO,2023-04-04T09:53:00Z,KHJO 040953Z AUTO 33006KT 10SM CLR 06/01 A3014 RMK AO2 SLP208 T00560006
KHKA,2023-04-04T09:53:00Z,KHKA 040953Z AUTO 17009KT 8SM CLR 19/18 A2975 RMK AO2 SLP071 T01940178 $
KHKS,2023-04-04T09:53:00Z,KHKS 040953Z AUTO 16006KT 7SM SCT035 22/21 A2985 RMK AO2 SLP099 T02170206
KHKY,2023-04-04T09:53:00Z,KHKY 040953Z AUTO 34003KT 10SM BKN011 BKN023 11/09 A3001 RMK AO2 SLP149 T01110089
KHLB,2023-04-04T10:15:00Z,KHLB 041015Z AUTO 17006KT 10SM BKN013 OVC017 13/12 A2984 RMK A01
KHLC,2023-04-04T09:53:00Z,KHLC 040953Z AUTO 04007KT 10SM CLR 03/M03 A2939 RMK AO2 SLP945 T00331033
KHLG,2023-04-04T09:53:00Z,KHLG 040953Z AUTO 19006KT 10SM CLR 13/02 A2991 RMK AO2 SLP127 T01280022
KHLN,2023-04-04T09:53:00Z,KHLN 040953Z AUTO 34011KT 10SM SCT020 BKN060 OVC080 M03/M07 A2984 RMK AO2 SLP145 T10281072
KHLR,2023-04-04T10:00:00Z,KHLR 041000Z AUTO 17014G19KT 9SM SCT015 22/20 A2961 RMK AO2 SLP015
KHLX,2023-04-04T10:15:00Z,KHLX 041015Z AUTO 20005KT 10SM CLR 10/09 A3002 RMK AO2 T00950085
KHMN,2023-04-04T09:55:00Z,KHMN 040955Z AUTO 14014KT 10SM CLR 13/M16 A2966 RMK AO2 SLP982 T01341165 $
KHMP,2023-04-04T10:15:00Z,KHMP 041015Z AUTO 07004KT 1/2SM FG OVC002 15/15 A3004 RMK AO2 T01480146
KHMT,2023-04-04T10:15:00Z,KHMT 041015Z AUTO 10003KT 10SM CLR 02/M07 A3001 RMK AO2 T00181070
KHMZ,2023-04-04T10:15:00Z,KHMZ 041015Z AUTO 00000KT 10SM CLR 02/02 A2994 RMK AO2 T00190016
KHNB,2023-04-04T10:23:00Z,KHNB 041023Z AUTO 15004KT 8SM VCTS -RA OVC009 16/15 A2980 RMK AO2 TSB07RAB23 P0000
KHND,2023-04-04T09:56:00Z,KHND 040956Z AUTO 28007KT 10SM CLR 04/M13 A2985 RMK AO2 SLP129 T00441133
KHNR,2023-04-04T10:15:00Z,KHNR 041015Z AUTO 07014G22KT 10SM OVC040 05/02 A2955 RMK A01
KHNZ,2023-04-04T10:15:00Z,KHNZ 041015Z AUTO 00000KT 10SM SCT030 BKN038 OVC070 13/11 A3002 RMK AO2 T01300112
KHOB,2023-04-04T10:15:00Z,KHOB 041015Z AUTO 20011KT 10SM CLR 12/M19 A2959 RMK AO2
KHOE,2023-04-04T10:15:00Z,KHOE 041015Z AUTO 00000KT 1/4SM FG OVC001 17/16 A3000 RMK AO2 T01750168
KHON,2023-04-04T09:55:00Z,KHON 040955Z AUTO 02014G22KT 10SM OVC008 M02/M04 A2980 RMK AO2 SLP104 T10221044
KHOP,2023-04-04T09:55:00Z,KHOP 040955Z AUTO 17004KT 10SM CLR 16/16 A2981 RMK AO2 SLP095 T01630161
KHOT,2023-04-04T10:19:00Z,KHOT 041019Z AUTO VRB06KT 7SM BKN014 OVC022 21/19 A2971 RMK AO2 T02110189 PNO
KHOU,2023-04-04T09:53:00Z,KHOU 040953Z 16010KT 8SM BKN010 BKN014 BKN250 23/21 A2970 RMK AO2 SLP062 T02330211
KHPN,2023-04-04T09:56:00Z,KHPN 040956Z 00000KT 10SM CLR 07/M01 A3001 RMK AO2 SLP164 T00671006
KHPT,2023-04-04T10:15:00Z,KHPT 041015Z AUTO 06012KT 10SM SCT038 OVC070 02/00 A2968 RMK AO2
KHQG,2023-04-04T10:15:00Z,KHQG 041015Z AUTO 23016KT 10SM CLR 15/M16 A2935 RMK AO2 T01451164
KHQG,2023-04-04T10:15:00Z,KHQG 041015Z AUTO 23016KT 10SM CLR 15/M16 A2935 RMK AO2 T01451164
KHQM,2023-04-04T10:07:00Z,KHQM 041007Z AUTO 00000KT 10SM BKN012 BKN024 OVC034 04/02 A3010 RMK AO2 RAE05 P0000 T00390022
KHQU,2023-04-04T10:15:00Z,KHQU 041015Z AUTO 00000KT 7SM BR OVC008 15/14 A3002 RMK AO2 T01460142
KHQZ,2023-04-04T10:15:00Z,KHQZ 041015Z AUTO 17012KT 10SM OVC013 22/20 A2960 RMK AO1 T02150199
KHRF,2023-04-04T10:20:00Z,KHRF 041020Z AUTO 36006KT 10SM OVC055 M03/M04 A2981 RMK AO2
KHRI,2023-04-04T09:53:00Z,KHRI 040953Z AUTO 22012KT 10SM CLR 03/M02 A3002 RMK AO2 SLP166 T00281017 $
KHRJ,2023-04-04T10:05:00Z,KHRJ 041005Z AUTO 00000KT 10SM OVC018 16/15 A3003 RMK AO2 T01600152
KHRL,2023-04-04T09:52:00Z,KHRL 040952Z AUTO 16012G20KT 8SM FEW014 24/22 A2964 RMK AO2 SLP037 T02390222
KHRO,2023-04-04T09:53:00Z,KHRO 040953Z AUTO 18011G18KT 10SM CLR 22/18 A2963 RMK AO2 SLP016 T02170178
KHRT,2023-04-04T09:55:00Z,KHRT 040955Z 17007KT 10SM BKN003 22/22 A2992 RMK AO2A SLP134 T02220215 $
KHRX,2023-04-04T10:15:00Z,KHRX 041015Z AUTO 24019G23KT 10SM CLR 17/M16 A2950 RMK AO2 T01721165
KHSB,2023-04-04T10:15:00Z,KHSB 041015Z AUTO 00000KT 10SM SCT036 16/16 A2975 RMK AO2 T01620162
KHSD,2023-04-04T10:15:00Z,KHSD 041015Z AUTO 18016G23KT 8SM CLR 21/19 A2944 RMK A01
KHSE,2023-04-04T09:51:00Z,KHSE 040951Z AUTO 16007KT 10SM FEW033 BKN044 OVC095 19/17 A3004 RMK AO2 SLP171 T01890172
KHSG,2023-04-04T10:10:00Z,KHSG 041010Z AUTO 32008KT 3SM -SN SCT023 OVC033 M04/M05 A2961 RMK AO2 T10371050
KHSI,2023-04-04T09:53:00Z,KHSI 040953Z AUTO 06016KT 10SM CLR 04/M01 A2946 RMK AO2 PK WND 07029/0856 SLP977 T00391006
KHSP,2023-04-04T10:15:00Z,KHSP 041015Z AUTO 25010KT 7SM CLR 09/05 A3003 RMK AO2 T00880050
KHST,2023-04-04T09:55:00Z,KHST 040955Z AUTO 00000KT 10SM CLR 22/21 A2998 RMK AO2 SLP156 T02170205
KHSV,2023-04-04T09:53:00Z,KHSV 040953Z 09004KT 10SM OVC006 17/17 A2992 RMK AO2 SLP127 T01720167
KHTH,2023-04-04T10:15:00Z,KHTH 041015Z AUTO 33015G22KT 10SM FEW036 SCT043 OVC050 M01/M13 A2998 RMK A01
KHTL,2023-04-04T09:53:00Z,KHTL 040953Z AUTO 06003KT 10SM OVC120 02/M02 A2996 RMK AO2 SLP153 T00221017 $
KHTS,2023-04-04T09:51:00Z,KHTS 040951Z 20003KT 10SM BKN027 BKN049 14/07 A2991 RMK AO2 SLP123 T01390072
KHUA,2023-04-04T09:55:00Z,KHUA 040955Z AUTO 15005KT 8SM OVC005 17/17 A2992 RMK AO2 SLP129 T01690167
KHUF,2023-04-04T09:53:00Z,KHUF 040953Z 13006KT 10SM OVC014 14/12 A2978 RMK AO2 SLP081 T01440122
KHUL,2023-04-04T09:53:00Z,KHUL 040953Z AUTO 22008KT 10SM SCT048 OVC060 01/M02 A2997 RMK AO2 SLP153 T00061022
KHUM,2023-04-04T10:15:00Z,KHUM 041015Z AUTO 17007KT 7SM OVC010 23/22 A2987 RMK AO2 T02330220
KHUT,2023-04-04T09:52:00Z,KHUT 040952Z AUTO 16007KT 10SM CLR 11/06 A2934 RMK AO2 SLP918 T01060061
KHVE,2023-04-04T10:15:00Z,KHVE 041015Z AUTO 29009KT 10SM SCT100 01/M13 A2952 RMK AO2
KHVN,2023-04-04T09:53:00Z,KHVN 040953Z 11007KT 7SM CLR 06/05 A3003 RMK AO2 SLP168 T00610050
KHVR,2023-04-04T09:53:00Z,KHVR 040953Z AUTO 05010KT 9SM OVC025 M07/M09 A2997 RMK AO2 SLP183 T10671089
KHVS,2023-04-04T10:15:00Z,KHVS 041015Z AUTO 00000KT 10SM FEW043 SCT049 OVC060 14/13 A3001 RMK AO2
KHWD,2023-04-04T09:54:00Z,KHWD 040954Z AUTO 33006KT 10SM CLR 06/01 A3019 RMK AO2 SLP233 T00610006
KHWO,2023-04-04T09:53:00Z,KHWO 040953Z AUTO 00000KT 10SM CLR 23/21 A2999 RMK AO2 SLP156 T02280206 $
KHWV,2023-04-04T09:56:00Z,KHWV 040956Z AUTO 00000KT 10SM CLR 07/06 A3004 RMK AO2 SLP174 T00720056
KHWY,2023-04-04T10:15:00Z,KHWY 041015Z AUTO 19004KT 10SM CLR 14/08 A2997 RMK AO2 T01380082
KHXD,2023-04-04T10:15:00Z,KHXD 041015Z AUTO 00000KT 8SM BKN023 OVC041 20/19 A3004 RMK AO2
KHYA,2023-04-04T09:56:00Z,KHYA 040956Z 15003KT 10SM BKN024 OVC031 07/07 A3006 RMK AO2 SLP181 T00720067
KHYI,2023-04-04T10:23:00Z,KHYI 041023Z AUTO 19006KT 9SM BKN011 22/21 A2966 RMK AO2
KHYR,2023-04-04T09:53:00Z,KHYR 040953Z AUTO 05010KT 10SM OVC008 M01/M03 A2993 RMK AO2 SLP149 T10111033
KHYS,2023-04-04T09:56:00Z,KHYS 040956Z AUTO 06011KT 10SM CLR 03/M02 A2935 RMK AO2 SLP935 T00331022 $
KHYW,2023-04-04T10:15:00Z,KHYW 041015Z AUTO 00000KT 5SM BR CLR 15/15 A3004 RMK AO2
KHYX,2023-04-04T10:15:00Z,KHYX 041015Z AUTO 04004KT 10SM BKN032 OVC065 06/06 A2996 RMK AO2 T00550055
KHZD,2023-04-04T10:15:00Z,KHZD 041015Z AUTO 16005KT 8SM FEW032 SCT038 18/18 A2980 RMK A01
KHZE,2023-04-04T10:15:00Z,KHZE 041015Z AUTO 04007KT 10SM OVC019 M10/M11 A3001 RMK AO2
KHZL,2023-04-04T10:15:00Z,KHZL 041015Z AUTO 00000KT 07/06 A2999 RMK AO2 PWINO
KHZR,2023-04-04T10:15:00Z,KHZR 041015Z AUTO 16006KT 10SM BKN016 22/21 A2984 RMK AO2 T02230212
KHZX,2023-04-04T10:15:00Z,KHZX 041015Z AUTO 08012G19KT 10SM OVC008 M01/M02 A2995 RMK AO2
KHZY,2023-04-04T09:53:00Z,KHZY 040953Z AUTO 07005KT 10SM BKN100 10/04 A2989 RMK AO2 SLP122 T01000044
KI16,2023-04-04T10:15:00Z,KI16 041015Z AUTO 10SM BKN034 OVC039 09/07 A3005 RMK AO2 T00880071
KI19,2023-04-04T10:15:00Z,KI19 041015Z AUTO 21011KT 10SM FEW017 FEW039 OVC048 14/11 A2985 RMK AO2
KI23,2023-04-04T10:15:00Z,KI23 041015Z AUTO 20007KT 10SM BKN018 OVC050 12/10 A2987 RMK AO1
KI35,2023-04-04T09:35:00Z,KI35 040935Z AUTO 00000KT 10SM BKN024 OVC029 15/10 A2997 RMK AO2 T01510101
KI63,2023-04-04T10:15:00Z,KI63 041015Z AUTO 06005KT 10SM OVC017 11/08 A2965 RMK AO2 T01100075
KI67,2023-04-04T10:15:00Z,KI67 041015Z AUTO 21004KT 10SM OVC016 14/11 A2986 RMK AO1
KI68,2023-04-04T10:15:00Z,KI68 041015Z AUTO 20006KT 10SM 14/11 A2987 RMK AO1 T01430110
KI69,2023-04-04T10:15:00Z,KI69 041015Z AUTO 19004KT 10SM OVC015 15/11 A2989 RMK AO2 T01470107
KI74,2023-04-04T10:15:00Z,KI74 041015Z AUTO 00000KT 10SM OVC022 09/08 A2987 RMK AO2
KI75,2023-04-04T10:15:00Z,KI75 041015Z AUTO 08013G20KT 10SM BKN024 BKN034 08/04 A2960 RMK AO2 T00830037
KIAB,2023-04-04T09:55:00Z,KIAB 040955Z AUTO 19017G23KT 10SM CLR 20/16 A2936 RMK AO2 PK WND 19026/15 SLP931 T02010159 $
KIAD,2023-04-04T09:52:00Z,KIAD 040952Z 19006KT 10SM CLR 13/08 A2995 RMK AO2 SLP141 T01330083
KIAG,2023-04-04T10:24:00Z,KIAG 041024Z AUTO 04003KT 4SM -RA BR FEW005 BKN011 OVC016 08/07 A2995 RMK AO2 CIG 009V013 P0001 T00830072
KIAH,2023-04-04T09:53:00Z,KIAH 040953Z 17009KT 7SM BKN015 BKN250 23/22 A2970 RMK AO2 SLP057 BKN015 V SCT T02330217
KIBM,2023-04-04T10:15:00Z,KIBM 041015Z AUTO 05015G22KT 4SM UP OVC004 M04/M05 A2949 RMK AO2 T10421050
KICR,2023-04-04T09:53:00Z,KICR 040953Z AUTO 02015KT 9SM UP OVC011 M02/M04 A2974 RMK AO2 PK WND 04026/0901 SLP086 P0000 I1001 T10171039
KICT,2023-04-04T09:53:00Z,KICT 040953Z 18018G25KT 10SM CLR 20/15 A2937 RMK AO2 SLP930 T02000150
KIDA,2023-04-04T10:22:00Z,KIDA 041022Z AUTO 01007KT 2 1/2SM -SN BR BKN006 BKN014 OVC022 M02/M03 A2956 RMK AO2 P0001 T10171033
KIDI,2023-04-04T10:15:00Z,KIDI 041015Z AUTO 24006KT 10SM CLR 11/03 A2995 RMK A01
KIDP,2023-04-04T10:15:00Z,KIDP 041015Z AUTO 18016G22KT 10SM CLR 22/19 A2946 RMK AO2 T02160189
KIEN,2023-04-04T10:10:00Z,KIEN 041010Z AUTO 04013KT 2SM -SN BR SCT013 BKN025 OVC039 M04/M05 A2969 RMK AO2 P0000 T10391050
KIER,2023-04-04T10:15:00Z,KIER 041015Z AUTO 18006KT 10SM OVC018 23/21 A2975 RMK AO2 T02310214
KIFA,2023-04-04T10:15:00Z,KIFA 041015Z AUTO 06009G15KT 10SM BKN032 OVC070 04/02 A2969 RMK AO2 T00440020
KIFP,2023-04-04T10:15:00Z,KIFP 041015Z AUTO 32013KT 10SM CLR 09/M14 A2987 RMK AO2
KIGM,2023-04-04T09:51:00Z,KIGM 040951Z AUTO 29007KT 10SM CLR 01/M12 A2980 RMK AO2 SLP062 T00111117
KIGQ,2023-04-04T10:15:00Z,KIGQ 041015Z AUTO 05007KT 10SM OVC022 07/07 A2984 RMK AO2 LTG DSNT W T00670067
KIIB,2023-04-04T10:15:00Z,KIIB 041015Z AUTO 08016G24KT 10SM OVC032 07/03 A2974 RMK AO2 T00710033
KIIY,2023-04-04T10:15:00Z,KIIY 041015Z AUTO 00000KT 10SM OVC012 15/14 A3002 RMK AO2 T01460140
KIJD,2023-04-04T09:52:00Z,KIJD 040952Z AUTO 00000KT 10SM SCT090 03/03 A3005 RMK AO2 SLP177 T00330028
KIJX,2023-04-04T10:15:00Z,KIJX 041015Z AUTO 12008KT OVC021 16/16 A2965 RMK AO2 T01620162
KIKG,2023-04-04T10:15:00Z,KIKG 041015Z AUTO 13012KT 10SM CLR 23/21 A2961 RMK AO2 T02250212
KIKK,2023-04-04T10:15:00Z,KIKK 041015Z AUTO 04009KT 10SM OVC018 09/06 A2981 RMK AO2 T00850060
KIKT,2023-04-04T10:20:00Z,KIKT 041020Z AUTO 15011KT 4SM BR CLR 24/24 A2991 RMK A01
KIKV,2023-04-04T10:15:00Z,KIKV 041015Z AUTO 08013G19KT 10SM BKN050 OVC060 08/02 A2964 RMK AO2
KIKW,2023-04-04T10:15:00Z,KIKW 041015Z AUTO 04003KT 10SM RA OVC070 05/03 A2996 RMK AO2 T00450033 P0001
KILE,2023-04-04T09:56:00Z,KILE 040956Z AUTO 17014KT 10SM FEW017 22/21 A2962 RMK AO2 SLP018 T02220206
KILG,2023-04-04T09:51:00Z,KILG 040951Z AUTO 16005KT 10SM CLR 10/08 A2998 RMK AO2 SLP152 T01000083 $
KILM,2023-04-04T10:02:00Z,KILM 041002Z 00000KT 10SM BKN014 OVC021 18/16 A3002 RMK AO2 T01780156
KILN,2023-04-04T09:54:00Z,KILN 040954Z AUTO 20006KT 10SM OVC018 13/10 A2987 RMK AO2 SLP112 T01330100
KIML,2023-04-04T09:53:00Z,KIML 040953Z AUTO 07016G27KT 10SM OVC025 02/M04 A2945 RMK AO2 PK WND 07027/0949 SLP972 T00171039
KIMM,2023-04-04T10:15:00Z,KIMM 041015Z AUTO 00000KT 1/4SM FZFG VV002 A2999 RMK AO2
KIMS,2023-04-04T10:15:00Z,KIMS 041015Z AUTO 15007KT 10SM OVC011 14/12 A2987 RMK AO2
KIMT,2023-04-04T09:54:00Z,KIMT 040954Z AUTO 05010G17KT 10SM OVC010 M01/M03 A2995 RMK AO2 SNB0859E16 SLP154 P0000 T10111033
KIND,2023-04-04T10:03:00Z,KIND 041003Z 15007KT 10SM OVC013 14/11 A2980 RMK AO2 T01390106
KINF,2023-04-04T10:15:00Z,KINF 041015Z AUTO 00000KT 1SM BR OVC004 15/15 A3001 RMK AO2
KINJ,2023-04-04T10:15:00Z,KINJ 041015Z AUTO 17015G20KT 7SM OVC010 22/22 A2961 RMK AO2 T02210221
KINK,2023-04-04T09:53:00Z,KINK 040953Z AUTO 19007KT 10SM CLR 13/M19 A2959 RMK AO2 SLP979 T01281189 $
KINL,2023-04-04T09:54:00Z,KINL 040954Z AUTO 08010KT 6SM -SN OVC015 M06/M09 A3003 RMK AO2 SNE23B47 SLP189 P0000 T10611089
KINS,2023-04-04T09:55:00Z,KINS 040955Z AUTO 25010G21KT 10SM FEW110 02/M13 A2986 RMK AO2 SLP110 T00161133 $
KINT,2023-04-04T10:04:00Z,KINT 041004Z AUTO 00000KT SCT018 13/11 A3003 RMK AO2 T01330106
KINW,2023-04-04T09:56:00Z,KINW 040956Z AUTO 25014KT 10SM CLR 01/M09 A2967 RMK AO2 PK WND 25029/0920 SLP018 T00111094
KIOB,2023-04-04T10:15:00Z,KIOB 041015Z AUTO 00000KT 10SM OVC018 15/10 A2993 RMK AO2 PWINO
KIOW,2023-04-04T09:52:00Z,KIOW 040952Z AUTO 07011G19KT 10SM OVC029 09/04 A2972 RMK AO2 SLP064 T00890044
KIPJ,2023-04-04T10:10:00Z,KIPJ 041010Z AUTO 00000KT 10SM CLR 11/09 A3001 RMK AO2 T01070092
KIPL,2023-04-04T09:53:00Z,KIPL 040953Z AUTO 32009KT 10SM CLR 09/M12 A2995 RMK AO2 SLP142 T00941117
KIPT,2023-04-04T09:54:00Z,KIPT 040954Z AUTO 00000KT 10SM CLR 07/04 A2994 RMK AO2 SLP138 T00670039
KIRK,2023-04-04T09:55:00Z,KIRK 040955Z AUTO 07010G17KT 10SM CLR 08/04 A2961 RMK AO2 SLP029 T00780044
KIRS,2023-04-04T10:15:00Z,KIRS 041015Z AUTO 08007KT 10SM OVC008 07/07 A2986 RMK AO2 T00730071
KISM,2023-04-04T09:56:00Z,KISM 040956Z AUTO 00000KT 10SM CLR 20/18 A3001 RMK AO2 SLP162 T02000183 PNO $
KISO,2023-04-04T10:21:00Z,KISO 041021Z 00000KT 10SM SCT038 BKN044 OVC060 17/17 A3003
KISP,2023-04-04T09:56:00Z,KISP 040956Z 00000KT 10SM FEW250 07/07 A3003 RMK SLP168 T00720067
KISQ,2023-04-04T10:15:00Z,KISQ 041015Z AUTO 04003KT 10SM OVC014 00/M01 A3002 RMK AO2 T10041013
KISW,2023-04-04T09:54:00Z,KISW 040954Z AUTO 09011KT 10SM CLR 00/M02 A2989 RMK AO2 SLP127 T00001022 $
KITH,2023-04-04T09:56:00Z,KITH 040956Z 00000KT 10SM OVC085 06/06 A2998 RMK AO2 SLP154 T00610061
KITR,2023-04-04T09:53:00Z,KITR 040953Z AUTO 08011KT 10SM CLR M01/M04 A2937 RMK AO2 SLP921 T10061044
KIUA,2023-04-04T10:15:00Z,KIUA 041015Z AUTO 14003KT 5SM -RA SCT001 BKN029 OVC060 06/06 A2996 RMK AO2 P0002 T00600057
KIWA,2023-04-04T10:15:00Z,KIWA 041015Z AUTO 26012KT 10SM SCT090 10/M10 A2984 RMK AO2 T01001102
KIWD,2023-04-04T09:56:00Z,KIWD 040956Z AUTO 09012KT 10SM OVC009 M02/M04 A2996 RMK AO2 SLP160 T10221039 FZRANO
KIWI,2023-04-04T09:53:00Z,KIWI 040953Z AUTO 00000KT 10SM OVC080 04/02 A3005 RMK AO2 SLP174 T00440017
KIXA,2023-04-04T10:10:00Z,KIXA 041010Z AUTO 00000KT 10SM SCT029 BKN047 OVC075 13/13 A3002 RMK AO2
KIXD,2023-04-04T09:53:00Z,KIXD 040953Z AUTO 09009KT 10SM CLR 12/04 A2946 RMK AO2 SLP968 T01170044
KIYA,2023-04-04T10:15:00Z,KIYA 041015Z AUTO 16008KT OVC007 23/21 A2981 RMK AO2 T02320210
KIZA,2023-04-04T10:15:00Z,KIZA 041015Z AUTO 29009KT 10SM CLR 04/00 A3012 RMK AO2
KIZG,2023-04-04T09:54:00Z,KIZG 040954Z AUTO 00000KT 10SM OVC070 02/01 A3002 RMK AO2 SLP170 T00170006
KJAC,2023-04-04T09:56:00Z,KJAC 040956Z AUTO 03015KT 10SM BKN050 OVC065 M06/M11 A2949 RMK AO2 SLP021 T10561106 FZRANO
KJAN,2023-04-04T09:54:00Z,KJAN 040954Z AUTO 15007KT 5SM BR BKN036 23/21 A2985 RMK AO2 SLP102 T02280211
KJAQ,2023-04-04T10:15:00Z,KJAQ 041015Z AUTO 11003KT 10SM CLR 02/M05 A3009 RMK AO1 T00221052
KJAS,2023-04-04T10:15:00Z,KJAS 041015Z AUTO 18006G12KT 6SM BR 23/23 A2972 RMK AO2
KJAU,2023-04-04T10:10:00Z,KJAU 041010Z AUTO 04004KT 10SM OVC020 14/10 A3001 RMK A01
KJAX,2023-04-04T10:05:00Z,KJAX 041005Z 00000KT 10SM BKN010 17/16 A3000 RMK AO2 T01670156
KJBR,2023-04-04T09:53:00Z,KJBR 040953Z AUTO 17007KT 6SM BR CLR 19/17 A2974 RMK AO2 SLP066 T01890172 $
KJCA,2023-04-04T10:15:00Z,KJCA 041015Z AUTO 00000KT 10SM OVC012 14/10 A3003 RMK AO2 T01370102
KJCT,2023-04-04T09:51:00Z,KJCT 040951Z AUTO 18010KT 8SM CLR 23/19 A2962 RMK AO2 SLP989 T02280189
KJDD,2023-04-04T10:15:00Z,KJDD 041015Z AUTO 18007KT 140V210 10SM OVC013 22/20 A2963 RMK AO2
KJDN,2023-04-04T09:48:00Z,KJDN 040948Z AUTO 01010KT M04/M07 A2991 RMK AO1 SLP159 T10441072
KJEF,2023-04-04T09:53:00Z,KJEF 040953Z AUTO 10006KT 8SM CLR 20/17 A2957 RMK AO2 SLP000 T02000172 $
KJER,2023-04-04T09:53:00Z,KJER 040953Z AUTO 27019KT 10SM OVC065 M03/M06 A2966 RMK AO2 PK WND 27029/0859 SLP062 T10281061
KJES,2023-04-04T10:15:00Z,KJES 041015Z AUTO 00000KT 10SM OVC003 16/15 A3004 RMK AO2
KJFK,2023-04-04T09:51:00Z,KJFK 040951Z 14004KT 9SM FEW012 07/07 A3003 RMK AO2 SLP167 T00720072
KJFX,2023-04-04T10:15:00Z,KJFX 041015Z AUTO 00000KT 3SM BR OVC004 19/19 A2992 RMK AO2
KJFZ,2023-04-04T10:15:00Z,KJFZ 041015Z AUTO 23007KT 10SM BKN020 OVC034 A3003 RMK AO2
KJHN,2023-04-04T10:15:00Z,KJHN 041015Z AUTO 21018G26KT 10SM CLR 14/M19 A2931 RMK AO2 T01421187
KJHW,2023-04-04T09:56:00Z,KJHW 040956Z AUTO 08005KT 10SM SCT070 BKN090 OVC110 07/06 A2991 RMK AO2 SLP138 T00720056 PNO $
KJKA,2023-04-04T10:15:00Z,KJKA 041015Z AUTO 17005G10KT 2SM BR OVC002 23/23 A2992 RMK AO2
KJKJ,2023-04-04T10:15:00Z,KJKJ 041015Z AUTO 35006KT 10SM BKN007 OVC021 M05/M06 A2998 RMK AO2 TSNO
KJKL,2023-04-04T09:53:00Z,KJKL 040953Z AUTO 21004KT 10SM OVC023 14/07 A2993 RMK AO2 SLP126 T01440072
KJLN,2023-04-04T09:53:00Z,KJLN 040953Z AUTO 18022G31KT 8SM CLR 23/18 A2950 RMK AO2 PK WND 18031/0953 SLP976 T02280178
KJMR,2023-04-04T10:15:00Z,KJMR 041015Z AUTO 05005KT 10SM OVC011 00/M02 A2996 RMK AO2
KJMS,2023-04-04T09:56:00Z,KJMS 040956Z AUTO 36009KT 8SM OVC003 M07/M09 A2994 RMK AO2 SLP163 I1001 T10721089
KJNX,2023-04-04T10:10:00Z,KJNX 041010Z AUTO 00000KT 10SM RA SCT022 BKN030 OVC041 16/16 A3001 RMK AO2
KJOT,2023-04-04T10:15:00Z,KJOT 041015Z AUTO 05011G16KT 10SM OVC023 09/07 A2982 RMK AO2 T00850066
KJPX,2023-04-04T10:15:00Z,KJPX 041015Z AUTO 00000KT 4SM BR SCT021 05/05 A3006 RMK AO2 T00470047 FZRANO
KJQF,2023-04-04T10:15:00Z,KJQF 041015Z AUTO 00000KT 10SM OVC009 15/13 A3004 RMK AO2
KJRB,2023-04-04T09:56:00Z,KJRB 040956Z AUTO 05007KT 10SM CLR 09/07 A3003 RMK AO2 SLP167 T00890067
KJRO,2023-04-04T10:15:00Z,KJRO 041015Z AUTO 00000KT 10SM OVC050 08/06 A2992 RMK AO2
KJSO,2023-04-04T10:15:00Z,KJSO 041015Z AUTO 19011G17KT 7SM OVC015 22/20 A2969 RMK AO2 T02210202 TSNO
KJST,2023-04-04T09:54:00Z,KJST 040954Z AUTO 20009KT 10SM CLR 12/02 A2992 RMK AO2 SLP130 T01170022
KJSV,2023-04-04T10:15:00Z,KJSV 041015Z AUTO 00000KT 9SM CLR 23/20 A2957 RMK AO2
KJSY,2023-04-04T10:15:00Z,KJSY 041015Z AUTO 00000KT 10SM -SN SCT004 SCT007 BKN060 M07/M09 A2988 RMK AO2 T10691091 TSNO
KJTC,2023-04-04T10:15:00Z,KJTC 041015Z AUTO 22024G39KT 10SM CLR 02/M09 A2961 RMK AO2
KJVL,2023-04-04T10:15:00Z,KJVL 041015Z AUTO 10011KT 10SM OVC007 06/06 A2984 RMK AO2
KJVY,2023-04-04T10:15:00Z,KJVY 041015Z AUTO 18006KT 10SM OVC015 16/14 A2984 RMK AO2 LTG DSNT N PWINO
KJWG,2023-04-04T10:15:00Z,KJWG 041015Z AUTO 20013G19KT 10SM CLR 19/16 A2945 RMK AO2 T01930158
KJWN,2023-04-04T10:15:00Z,KJWN 041015Z AUTO 16006KT 10SM OVC011 18/17 A2984 RMK AO2
KJWY,2023-04-04T10:15:00Z,KJWY 041015Z AUTO 17010G19KT 7SM OVC012 22/20 A2962 RMK AO2 T02160198
KJXN,2023-04-04T09:56:00Z,KJXN 040956Z AUTO 06005KT 8SM OVC003 07/06 A2990 RMK AO2 SLP130 T00670061
KJYG,2023-04-04T10:16:00Z,KJYG 041016Z AUTO 01007KT 10SM 00/M01 A2980 RMK AO2
KJYL,2023-04-04T10:15:00Z,KJYL 041015Z AUTO 00000KT 7SM OVC011 18/17 A3003 RMK AO2 T01750169
KJYM,2023-04-04T10:15:00Z,KJYM 041015Z AUTO 09011KT 10SM OVC008 07/06 A2987 RMK AO2 T00680060
KJYO,2023-04-04T10:15:00Z,KJYO 041015Z AUTO 00000KT 10SM CLR 10/07 A2998 RMK AO2
KJYR,2023-04-04T10:15:00Z,KJYR 041015Z AUTO 06014G19KT 10SM 03/M01 A2948 RMK AO2
KJZI,2023-04-04T10:15:00Z,KJZI 041015Z AUTO 00000KT 8SM OVC030 19/19 A3003 RMK AO2
KJZP,2023-04-04T10:15:00Z,KJZP 041015Z AUTO 00000KT 10SM OVC006 13/11 A3005 RMK AO2 T01300105
KK62,2023-04-04T10:15:00Z,KK62 041015Z AUTO 17005KT 10SM OVC015 13/10 A2989 RMK AO2
KK70,2023-04-04T10:15:00Z,KK70 041015Z AUTO 14007KT 10SM FEW021 FEW029 FEW041 25/25 A2997 RMK AO2
KK82,2023-04-04T10:15:00Z,KK82 041015Z AUTO 06014KT 10SM CLR 05/M03 A2939 RMK AO2 T00471028
KK88,2023-04-04T10:15:00Z,KK88 041015Z AUTO 18018G23KT 10SM 21/18 A2945 RMK AO1 T02110180
KKLS,2023-04-04T09:56:00Z,KKLS 040956Z AUTO 16003KT FEW018 BKN023 OVC100 04/02 A3015 RMK AO2 SLP214 T00390017 PWINO $
KKNB,2023-04-04T10:15:00Z,KKNB 041015Z AUTO 34012KT 1/2SM BR BKN002 OVC013 M03/M04 A2968 RMK A01
KKY8,2023-04-04T10:15:00Z,KKY8 041015Z AUTO 15006KT 10SM OVC011 17/17 A2980 RMK A01
KL08,2023-04-04T10:15:00Z,KL08 041015Z AUTO 28018G23KT 10SM FEW042 09/M13 A2996 RMK AO2
KL18,2023-04-04T10:15:00Z,KL18 041015Z AUTO 08003KT 10SM CLR 07/M09 A3003 RMK AO2
KL35,2023-04-04T10:15:00Z,KL35 041015Z AUTO 26012G17KT 10SM CLR M08/M12 A2987 RMK AO2
KL52,2023-04-04T10:15:00Z,KL52 041015Z AUTO 00000KT 10SM 06/01 A3017 RMK A01
KLAA,2023-04-04T09:53:00Z,KLAA 040953Z AUTO 29006KT 10SM CLR 11/M14 A2927 RMK AO2 SLP871 T01111139
KLAF,2023-04-04T09:54:00Z,KLAF 040954Z AUTO 08004KT 10SM SCT022 OVC029 12/11 A2978 RMK AO2 SLP082 T01220106
KLAL,2023-04-04T09:50:00Z,KLAL 040950Z 00000KT 10SM SKC 18/17 A3000
KLAM,2023-04-04T10:15:00Z,KLAM 041015Z AUTO 23023G31KT 10SM CLR 07/M11 A2945 RMK AO2 PK WND 22039/1002 T00671115 $
KLAN,2023-04-04T09:53:00Z,KLAN 040953Z 04003KT 4SM -RA BR OVC006 07/05 A2993 RMK AO2 RAE04B27 SLP140 P0007 T00670050 $
KLAR,2023-04-04T10:19:00Z,KLAR 041019Z AUTO 09020G31KT 3/4SM -SN BR VV010 M09/M11 A2941 RMK AO2 PK WND 09031/1019 P0000 T10891111
KLAS,2023-04-04T09:56:00Z,KLAS 040956Z 25007G19KT 10SM FEW160 05/M13 A2983 RMK AO2 SLP103 T00501133
KLAW,2023-04-04T09:53:00Z,KLAW 040953Z AUTO 18011KT 7SM CLR 21/19 A2948 RMK AO2 SLP969 T02110189
KLAX,2023-04-04T09:53:00Z,KLAX 040953Z 34009KT 10SM FEW050 11/M04 A3007 RMK AO2 SLP179 T01061039
KLBB,2023-04-04T09:53:00Z,KLBB 040953Z 23007KT 10SM BKN250 14/M16 A2955 RMK AO2 SLP959 BKN LYR THN T01391156
KLBE,2023-04-04T10:15:00Z,KLBE 041015Z AUTO 21008KT 10SM CLR 09/04 A2993 RMK AO2
KLBF,2023-04-04T10:05:00Z,KLBF 041005Z AUTO 06016G27KT 10SM OVC029 02/M04 A2949 RMK AO2 PK WND 05027/0957 T00221039
KLBL,2023-04-04T09:56:00Z,KLBL 040956Z AUTO 20007KT 10SM CLR 10/M14 A2937 RMK AO2 SLP922 T01001139
KLBO,2023-04-04T10:15:00Z,KLBO 041015Z AUTO 16014G19KT 7SM CLR 20/18 A2960 RMK AO2
KLBT,2023-04-04T10:17:00Z,KLBT 041017Z AUTO 00000KT 6SM BR FEW007 SCT012 BKN060 15/15 A3002 RMK AO2 T01500150
KLBX,2023-04-04T10:00:00Z,KLBX 041000Z AUTO 17015G20KT 9SM OVC011 23/22 A2970 RMK AO2 T02330217
KLCG,2023-04-04T10:15:00Z,KLCG 041015Z AUTO 05016KT 10SM OVC050 02/M02 A2962 RMK AO2 T00161022
KLCH,2023-04-04T10:05:00Z,KLCH 041005Z AUTO 18010KT 6SM BR BKN007 23/22 A2977 RMK AO2 T02280217
KLCI,2023-04-04T09:56:00Z,KLCI 040956Z AUTO 00000KT 10SM OVC065 04/03 A3003 RMK AO2 SLP171 T00440028 $
KLCK,2023-04-04T09:55:00Z,KLCK 040955Z AUTO 19006KT 10SM OVC048 12/08 A2986 RMK AO2 T01220076
KLCQ,2023-04-04T10:15:00Z,KLCQ 041015Z AUTO 00000KT M1/4SM FG OVC002 17/17 A3000 RMK AO2
KLDM,2023-04-04T10:15:00Z,KLDM 041015Z AUTO 03004KT 10SM OVC019 06/03 A2993 RMK AO2 T00600026
KLEB,2023-04-04T10:09:00Z,KLEB 041009Z 35003KT 10SM SCT007 BKN065 OVC100 06/04 A3003 RMK AO2 T00560039
KLEE,2023-04-04T09:53:00Z,KLEE 040953Z AUTO 00000KT 9SM CLR 19/18 A3000 RMK AO2 SLP159 T01890183
KLEW,2023-04-04T09:56:00Z,KLEW 040956Z AUTO 00000KT 10SM OVC075 02/00 A3003 RMK AO2 SLP180 T00220000 FZRANO
KLEX,2023-04-04T09:54:00Z,KLEX 040954Z 18006KT 10SM OVC016 16/10 A2989 RMK AO2 SLP115 T01560100
KLFI,2023-04-04T09:55:00Z,KLFI 040955Z 00000KT 10SM BKN090 14/14 A3001 RMK AO2A SLP169 T01380136 $
KLFK,2023-04-04T09:53:00Z,KLFK 040953Z AUTO 17009KT 9SM OVC015 24/22 A2970 RMK AO2 SLP051 T02390217
KLFT,2023-04-04T09:53:00Z,KLFT 040953Z AUTO 18008KT 10SM OVC010 24/22 A2981 RMK AO2 CIG 009V015 SLP092 T02440222
KLGA,2023-04-04T09:51:00Z,KLGA 040951Z 07006KT 10SM FEW020 08/05 A3001 RMK AO2 SLP163 T00780050
KLGB,2023-04-04T09:53:00Z,KLGB 040953Z AUTO 31008KT 10SM CLR 12/M05 A3006 RMK AO2 SLP178 T01171050
KLGC,2023-04-04T10:15:00Z,KLGC 041015Z AUTO 00000KT M1/4SM FG OVC002 17/16 A2999 RMK AO2 T01660160
KLGD,2023-04-04T09:56:00Z,KLGD 040956Z AUTO 31009KT 10SM UP OVC024 M01/M02 A2994 RMK AO2 UPB39SNE39 SLP158 P0000 T10061022 FZRANO
KLGF,2023-04-04T09:55:00Z,KLGF 040955Z AUTO 31011KT M M CLR 12/M11 A2990 RMK AO2 SLP125 T01161106 RVRNO PWINO TSNO $
KLGU,2023-04-04T09:51:00Z,KLGU 040951Z AUTO 00000KT 3/4SM -SN BR VV008 M03/M04 A2960 RMK AO2 SNB40 SLP036 P0001 T10331044 $
KLHB,2023-04-04T10:15:00Z,KLHB 041015Z AUTO 15009KT 7SM BKN015 BKN020 23/21 A2965 RMK AO2 T02330210
KLHM,2023-04-04T10:15:00Z,KLHM 041015Z AUTO 04004KT 10SM CLR 00/M01 A3014 RMK AO1
KLHQ,2023-04-04T09:53:00Z,KLHQ 040953Z AUTO 00000KT 10SM OVC046 08/07 A2988 RMK AO2 SLP116 T00830072
KLHW,2023-04-04T10:15:00Z,KLHW 041015Z AUTO 18004KT 10SM SCT010 BKN016 17/17 A2998 RMK AO2 CIG 010V016 BKN V OVC SLP155 $
KLHX,2023-04-04T09:53:00Z,KLHX 040953Z AUTO 24007KT 10SM CLR 04/M12 A2929 RMK AO2 SLP876 T00441122
KLHZ,2023-04-04T10:15:00Z,KLHZ 041015Z AUTO 00000KT 7SM SCT005 BKN050 OVC070 16/15 A3003 RMK AO2
KLIC,2023-04-04T10:23:00Z,KLIC 041023Z AUTO 07013KT 10SM OVC011 02/M02 A2935 RMK AO2 T00171017
KLIT,2023-04-04T10:16:00Z,KLIT 041016Z 22014G21KT 8SM BKN010 21/19 A2971 RMK AO2 T02110189
KLJF,2023-04-04T10:15:00Z,KLJF 041015Z AUTO 03009KT 10SM OVC010 00/M02 A2987 RMK AO2
KLKR,2023-04-04T10:15:00Z,KLKR 041015Z AUTO 00000KT 10SM OVC008 14/13 A3002 RMK AO2
KLKU,2023-04-04T10:15:00Z,KLKU 041015Z AUTO 18004KT 10SM SCT044 12/09 A3000 RMK AO2 T01230088
KLKV,2023-04-04T09:53:00Z,KLKV 040953Z AUTO 23005KT 10SM FEW050 M07/M09 A2999 RMK AO2 SLP195 T10671094 FZRANO
KLLJ,2023-04-04T09:55:00Z,KLLJ 040955Z AUTO 34007KT 10SM SCT050 OVC075 M02/M11 A2965 RMK AO2 SLP052 T10221106
KLLN,2023-04-04T10:15:00Z,KLLN 041015Z AUTO 23014KT 10SM CLR 12/M18 A2956 RMK AO2
KLLQ,2023-04-04T10:01:00Z,KLLQ 041001Z AUTO 19007KT 10SM BKN009 BKN015 OVC022 22/21 A2976 RMK AO2 T02170206
KLMO,2023-04-04T10:15:00Z,KLMO 041015Z AUTO 03008KT 10SM UP SCT010 BKN022 OVC031 00/M03 A2950 RMK AO2 T10051030
KLMS,2023-04-04T10:15:00Z,KLMS 041015Z AUTO 17005KT 5SM BR FEW015 OVC029 21/21 A2991 RMK AO2
KLMT,2023-04-04T09:53:00Z,KLMT 040953Z AUTO 27006KT 10SM FEW030 M04/M08 A3004 RMK AO2 SLP192 T10441083
KLNA,2023-04-04T10:15:00Z,KLNA 041015Z AUTO 00000KT 23/22 A3000 RMK AO2 T02330222 PWINO
KLNC,2023-04-04T10:15:00Z,KLNC 041015Z AUTO 18011KT 10SM BKN015 22/20 A2960 RMK AO2 T02160195
KLND,2023-04-04T10:03:00Z,KLND 041003Z AUTO 35009KT 3/4SM -SN BR VV009 M05/M07 A2954 RMK AO2 P0001 T10501067
KLNK,2023-04-04T09:54:00Z,KLNK 040954Z AUTO 05010KT 10SM CLR 06/01 A2950 RMK AO2 SLP988 T00610006
KLNL,2023-04-04T10:15:00Z,KLNL 041015Z AUTO 07006KT 10SM OVC007 M02/M03 A2997 RMK AO2 T10201033
KLNN,2023-04-04T10:15:00Z,KLNN 041015Z AUTO 29004KT 10SM SCT046 BKN070 OVC110 08/05 A2990 RMK AO1 T00830045
KLNP,2023-04-04T10:15:00Z,KLNP 041015Z AUTO 21005KT BKN014 OVC020 11/08 A3002 RMK AO1
KLNQ,2023-04-04T10:15:00Z,KLNQ 041015Z AUTO 15003KT 7SM CLR 24/23 A2990 RMK AO2 T02420227
KLNR,2023-04-04T09:56:00Z,KLNR 040956Z AUTO 09007KT 10SM BKN050 OVC070 06/04 A2982 RMK AO2 SLP095 T00610039
KLNS,2023-04-04T09:53:00Z,KLNS 040953Z VRB03KT 10SM CLR 09/07 A2996 RMK AO2 SLP144 T00890072
KLOL,2023-04-04T09:53:00Z,KLOL 040953Z AUTO 31012KT 10SM SCT060 BKN090 M02/M09 A2996 RMK AO2 SLP165 T10221094
KLOM,2023-04-04T10:15:00Z,KLOM 041015Z AUTO 00000KT 5SM BR CLR 07/07 A2999 RMK AO2 T00670067
KLOR,2023-04-04T10:20:00Z,KLOR 041020Z AUTO 00000KT 3/4SM BR VV001 21/21 A2995 RMK AO2 SLP124 RVRNO
KLOT,2023-04-04T10:15:00Z,KLOT 041015Z AUTO 06013KT 8SM UP BKN007 OVC021 07/07 A2983 RMK AO2 LTG DSNT SW
KLOU,2023-04-04T09:53:00Z,KLOU 040953Z AUTO 15007KT 10SM OVC014 16/13 A2984 RMK AO2 SLP101 T01560128
KLOZ,2023-04-04T09:53:00Z,KLOZ 040953Z AUTO 14003KT 10SM OVC015 15/11 A2993 RMK AO2 SLP128 T01500106 $
KLPR,2023-04-04T09:53:00Z,KLPR 040953Z AUTO 11004KT 10SM OVC039 09/06 A2988 RMK AO2 SLP117 T00940056
KLQK,2023-04-04T10:15:00Z,KLQK 041015Z AUTO 00000KT 10SM OVC020 13/11 A3001 RMK AO2 T01250111
KLRF,2023-04-04T09:55:00Z,KLRF 040955Z AUTO 19005KT 10SM OVC011 21/20 A2969 RMK AO2 CIG 010 RWY07 SLP054 T02050203
KLRJ,2023-04-04T10:15:00Z,KLRJ 041015Z AUTO 05016KT 10SM OVC055 02/M01 A2964 RMK AO2
KLRO,2023-04-04T10:15:00Z,KLRO 041015Z AUTO 00000KT 2 1/2SM BR OVC030 18/18 A3003 RMK AO2
KLRU,2023-04-04T10:15:00Z,KLRU 041015Z AUTO 26010KT 10SM CLR 13/M13 A2965 RMK AO2 T01291131
KLRY,2023-04-04T10:15:00Z,KLRY 041015Z AUTO 11008KT 10SM CLR 13/08 A2950 RMK AO2
KLSE,2023-04-04T09:53:00Z,KLSE 040953Z AUTO 06005KT 10SM CLR 06/M02 A2982 RMK AO2 SLP099 T00561017
KLSF,2023-04-04T10:20:00Z,KLSF 041020Z AUTO 00000KT 1SM R33/5500VP6000FT BR OVC002 18/18 A2996 RMK AO2 SLP150 $
KLSV,2023-04-04T09:55:00Z,KLSV 040955Z AUTO 31021G26KT 10SM CLR 06/M11 A2981 RMK AO2 PK WND 30026/52 SLP094 T00551111 $
KLTS,2023-04-04T09:55:00Z,KLTS 040955Z AUTO 18009KT 10SM CLR 14/13 A2945 RMK AO2 SLP958 T01430130 $
KLUA,2023-04-04T10:15:00Z,KLUA 041015Z AUTO 22004KT 10SM CLR 06/05 A2998 RMK AO2
KLUD,2023-04-04T10:15:00Z,KLUD 041015Z AUTO 18013G18KT 7SM SCT002 21/19 A2955 RMK AO2 T02110190
KLUF,2023-04-04T09:55:00Z,KLUF 040955Z AUTO 26009KT 10SM CLR 11/M10 A2981 RMK AO2 SLP088 T01071102 $
KLUG,2023-04-04T10:15:00Z,KLUG 041015Z AUTO 19010KT 10SM OVC006 18/18 A2989 RMK A01
KLUK,2023-04-04T09:53:00Z,KLUK 040953Z AUTO 00000KT 10SM OVC019 13/11 A2987 RMK AO2 SLP113 T01330111
KLUL,2023-04-04T10:15:00Z,KLUL 041015Z AUTO 12003KT 3 1/2SM BR SCT017 SCT025 21/ A2990 RMK A02 T0211////
KLUM,2023-04-04T10:15:00Z,KLUM 041015Z 02005KT 10SM BKN080 03/M02 A2986 RMK AO2 T00271018 PWINO
KLUV,2023-04-04T10:15:00Z,KLUV 041015Z AUTO 24012KT 10SM SCT075 BKN090 OVC110 17/M18 A2957 RMK AO2
KLUX,2023-04-04T10:15:00Z,KLUX 041015Z AUTO 00000KT 10SM SCT027 12/12 A3001 RMK AO2
KLVJ,2023-04-04T09:53:00Z,KLVJ 040953Z AUTO 16007KT 8SM BKN011 24/22 A2972 RMK AO2 SLP063 T02390217 $
KLVK,2023-04-04T09:53:00Z,KLVK 040953Z AUTO 23004KT 10SM CLR 04/00 A3018 RMK AO2 SLP218 T00440000
KLVL,2023-04-04T10:15:00Z,KLVL 041015Z AUTO 00000KT 10SM BKN009 OVC042 16/15 A3002 RMK AO1 T01610152
KLVM,2023-04-04T10:05:00Z,KLVM 041005Z AUTO 07015KT 2SM -SN BR OVC014 M04/M06 A2973 RMK AO2 P0000 T10391061
KLVN,2023-04-04T10:15:00Z,KLVN 041015Z AUTO 04005KT 10SM BKN070 01/M03 A2985 RMK AO2
KLVS,2023-04-04T09:53:00Z,KLVS 040953Z AUTO 22021G33KT 10SM CLR 07/M16 A2947 RMK AO2 PK WND 21033/0947 SLP888 T00721156
KLWA,2023-04-04T10:15:00Z,KLWA 041015Z AUTO 07006KT 10SM OVC036 08/07 A2988 RMK AO2 T00760066
KLWB,2023-04-04T10:15:00Z,KLWB 041015Z AUTO 00000KT 10SM CLR 04/03 A3002 RMK AO2 T00400030
KLWC,2023-04-04T09:52:00Z,KLWC 040952Z AUTO 10008KT 9SM SCT033 11/02 A2945 RMK AO1 SLP967 T01110022
KLWD,2023-04-04T10:11:00Z,KLWD 041011Z AUTO 07013G23KT 10SM SCT024 BKN070 07/02 A2954 RMK AO2 PK WND 08026/0959 T00720022
KLWM,2023-04-04T09:54:00Z,KLWM 040954Z AUTO 23004KT 10SM -RA BKN070 OVC090 07/04 A3007 RMK AO2 SLP184 P0002 T00720039
KLWS,2023-04-04T09:56:00Z,KLWS 040956Z AUTO 13004KT 10SM FEW049 BKN065 OVC100 02/M02 A2994 RMK AO2 SNB06E23 SLP149 P0000 T00221017
KLWT,2023-04-04T09:54:00Z,KLWT 040954Z AUTO 36004KT 9SM OVC005 M06/M07 A2985 RMK AO2 SNB41E51 SLP135 P0000 T10561072
KLWV,2023-04-04T09:53:00Z,KLWV 040953Z AUTO 15004KT 10SM OVC013 16/14 A2977 RMK AO2 SLP078 T01560139
KLXL,2023-04-04T10:15:00Z,KLXL 041015Z AUTO 07006KT 10SM OVC009 M01/M02 A2991 RMK AO2
KLXN,2023-04-04T10:15:00Z,KLXN 041015Z AUTO 06018G23KT 10SM OVC024 03/M03 A2947 RMK AO2 T00251033
KLXT,2023-04-04T09:53:00Z,KLXT 040953Z AUTO 08011KT FEW033 11/04 A2948 RMK AO2 SLP979 T01060039 $
KLXV,2023-04-04T10:07:00Z,KLXV 041007Z AUTO 18017KT 3/4SM -SN BR BKN025 OVC048 M06/M08 A2933 RMK AO2 PK WND 17028/0956 SNB0956 P0000 T10561078
KLXY,2023-04-04T10:15:00Z,KLXY 041015Z AUTO 17014G21KT 10SM SCT012 23/21 A2962 RMK AO2 T02250212
KLYH,2023-04-04T10:21:00Z,KLYH 041021Z 22004KT 10SM FEW025 13/11 A3001 RMK AO2 T01330106
KLYO,2023-04-04T10:15:00Z,KLYO 041015Z AUTO 13006KT 10SM CLR 08/05 A2935 RMK AO2 T00790053
KLYV,2023-04-04T10:15:00Z,KLYV 041015Z AUTO 05015G23KT 10SM SCT007 BKN065 OVC085 M01/M02 A2971 RMK AO2
KLZU,2023-04-04T09:56:00Z,KLZU 040956Z AUTO 06003KT 10SM OVC006 13/11 A3002 RMK AO2 SLP172 T01330111
KLZZ,2023-04-04T09:55:00Z,KLZZ 040955Z AUTO 17009G15KT 10SM CLR 22/20 A2958 RMK AO2 T02180195
KM01,2023-04-04T10:15:00Z,KM01 041015Z AUTO 17008KT 10SM SCT020 SCT026 21/20 A2975 RMK AO2 T02120203 $
KM02,2023-04-04T10:15:00Z,KM02 041015Z AUTO 19011KT 8SM BKN029 BKN038 18/17 A2983 RMK A01
KM08,2023-04-04T10:15:00Z,KM08 041015Z AUTO 15006KT 10SM CLR 19/19 A2981 RMK A01
KM19,2023-04-04T09:56:00Z,KM19 040956Z AUTO 17012KT 10SM CLR 19/18 A2972 RMK AO2 SLP061 T01940183 PNO $
KM21,2023-04-04T10:15:00Z,KM21 041015Z AUTO 17005KT 10SM OVC012 18/16 A2981 RMK AO2 T01760162
KM30,2023-04-04T10:15:00Z,KM30 041015Z AUTO 18006KT 10SM OVC036 20/18 A2977 RMK AO2 T01950176
KM40,2023-04-04T10:15:00Z,KM40 041015Z AUTO 17008KT 7SM BKN006 OVC009 21/21 A2989 RMK AO2
KM54,2023-04-04T10:10:00Z,KM54 041010Z AUTO 20008KT 10SM OVC010 18/17 A2986 RMK A01
KM75,2023-04-04T10:15:00Z,KM75 041015Z AUTO 36007KT 10SM OVC025 M08/M09 A2997 RMK A01
KM91,2023-04-04T10:10:00Z,KM91 041010Z AUTO 17007KT 10SM OVC010 17/17 A2983 RMK A01
KMAF,2023-04-04T09:53:00Z,KMAF 040953Z AUTO 21008KT 9SM CLR 17/M13 A2958 RMK AO2 SLP972 T01721133
KMAI,2023-04-04T10:19:00Z,KMAI 041019Z AUTO 16003KT 6SM BR FEW003 BKN008 BKN017 21/21 A2997 RMK AO1 T02110211
KMAN,2023-04-04T10:15:00Z,KMAN 041015Z AUTO 31011KT 10SM OVC095 00/M05 A2986 RMK A01
KMAO,2023-04-04T10:15:00Z,KMAO 041015Z AUTO 00000KT 10SM SCT002 BKN065 15/12 A3003 RMK AO2
KMAW,2023-04-04T10:15:00Z,KMAW 041015Z AUTO 19009KT 10SM CLR 20/18 A2974 RMK AO1
KMBG,2023-04-04T10:22:00Z,KMBG 041022Z AUTO 03011KT 10SM BKN008 OVC030 M05/M08 A2986 RMK AO2 CIG 008V011 T10501078
KMBL,2023-04-04T09:56:00Z,KMBL 040956Z AUTO 08005KT 10SM FEW085 OVC110 04/M01 A2994 RMK AO2 SLP141 T00441006
KMBS,2023-04-04T09:53:00Z,KMBS 040953Z AUTO 04007KT 10SM -RA SCT034 OVC070 05/03 A2996 RMK AO2 SLP145 P0002 T00500033
KMBT,2023-04-04T10:15:00Z,KMBT 041015Z AUTO 19008KT 10SM OVC010 18/17 A2987 RMK A01
KMBY,2023-04-04T10:15:00Z,KMBY 041015Z AUTO 07007KT 10SM CLR 09/04 A2959 RMK AO2
KMCB,2023-04-04T10:23:00Z,KMCB 041023Z AUTO 17005KT 7SM BKN013 BKN018 OVC023 22/21 A2987 RMK AO2 T02170206
KMCC,2023-04-04T10:15:00Z,KMCC 041015Z AUTO 31006KT 10SM CLR 05/M00 A3015 RMK AO2
KMCD,2023-04-04T10:15:00Z,KMCD 041015Z AUTO 05011KT 10SM OVC013 00/00 A3005 RMK AO2 T10031003
KMCE,2023-04-04T09:53:00Z,KMCE 040953Z AUTO 34004KT 10SM CLR 04/01 A3014 RMK AO2 SLP205 T00440011
KMCF,2023-04-04T10:19:00Z,KMCF 041019Z 00000KT 3SM R23/0800V1400FT BR CLR 18/18 A2996 RMK AO2A SLP148 FZRANO $
KMCI,2023-04-04T09:53:00Z,KMCI 040953Z 10011KT 10SM BKN036 10/03 A2947 RMK AO2 SLP974 T01000028
KMCJ,2023-04-04T10:15:00Z,KMCJ 041015Z AUTO 16011G19KT 130V190 5SM BR BKN012 OVC024 23/22 A2969 RMK A01
KMCK,2023-04-04T09:53:00Z,KMCK 040953Z AUTO 05012KT 10SM CLR 02/M03 A2943 RMK AO2 SLP965 T00171028
KMCN,2023-04-04T09:53:00Z,KMCN 040953Z AUTO 00000KT 1/4SM FG VV002 17/17 A3000 RMK AO2 SLP156 T01670167
KMCO,2023-04-04T09:53:00Z,KMCO 040953Z 32003KT 10SM CLR 21/18 A2999 RMK AO2 SLP154 T02060178
KMCW,2023-04-04T09:53:00Z,KMCW 040953Z AUTO 06010KT 10SM CLR 01/M02 A2975 RMK AO2 SLP076 T00111017
KMCZ,2023-04-04T10:05:00Z,KMCZ 041005Z AUTO 18007KT 4SM -RA BR SCT014 BKN031 OVC060 16/16 A3003 RMK AO2 P0002 T01630157
KMDD,2023-04-04T10:15:00Z,KMDD 041015Z AUTO 23008KT 10SM CLR 19/M15 A2958 RMK AO2 T01881154
KMDH,2023-04-04T10:11:00Z,KMDH 041011Z AUTO 19008KT 9SM SCT017 18/17 A2972 RMK AO2 T01830172
KMDQ,2023-04-04T10:15:00Z,KMDQ 041015Z AUTO 4SM -DZ BR OVC006 16/16 A2993 RMK A02 T01650159
KMDS,2023-04-04T10:15:00Z,KMDS 041015Z AUTO 04020KT 6SM BR OVC003 M03/M03 A2973 RMK AO2
KMDT,2023-04-04T09:56:00Z,KMDT 040956Z 00000KT 10SM CLR 07/05 A2995 RMK AO2 SLP142 T00670050
KMDW,2023-04-04T09:53:00Z,KMDW 040953Z COR 07015KT 10SM -RA SCT008 BKN017 OVC029 07/06 A2983 RMK AO2 RAE12B35 SLP103 P0000 T00720056 $
KMDZ,2023-04-04T10:15:00Z,KMDZ 041015Z AUTO 07009KT 10SM CLR M01/M01 A2988 RMK AO2 T10071015 PWINO
KMEB,2023-04-04T09:52:00Z,KMEB 040952Z AUTO 00000KT 10SM OVC070 14/13 A3001 RMK AO2 SLP162 T01440133
KMEH,2023-04-04T10:22:00Z,KMEH 041022Z AUTO VRB03KT 3SM -SN BR OVC001 M03/M04 A2991 RMK AO2 P0000 T10331044
KMEI,2023-04-04T09:58:00Z,KMEI 040958Z AUTO 18005KT 9SM FEW015 BKN037 22/21 A2989 RMK AO2 SLP116 I1000 T02220211
KMEM,2023-04-04T09:54:00Z,KMEM 040954Z 18011KT 8SM BKN021 21/19 A2978 RMK AO2 SLP082 T02110189
KMER,2023-04-04T10:15:00Z,KMER 041015Z AUTO 35004KT 10SM CLR 03/03 A3014 RMK AO1
KMEV,2023-04-04T10:15:00Z,KMEV 041015Z AUTO 00000KT 10SM FEW040 BKN055 M08/M11 A3000 RMK AO2
KMEZ,2023-04-04T10:15:00Z,KMEZ 041015Z AUTO VRB03KT 10SM FEW019 21/19 A2968 RMK AO2 T02100191
KMFD,2023-04-04T09:52:00Z,KMFD 040952Z AUTO 21009KT 10SM OVC031 13/08 A2986 RMK AO2 SLP109 T01330083
KMFE,2023-04-04T09:53:00Z,KMFE 040953Z AUTO 15016G23KT 9SM OVC012 24/22 A2962 RMK AO2 SLP030 T02390217
KMFI,2023-04-04T09:54:00Z,KMFI 040954Z AUTO 09011KT 10SM CLR 00/M03 A2987 RMK AO2 SLP123 T00001028
KMFR,2023-04-04T09:53:00Z,KMFR 040953Z AUTO 30004KT 7SM -SN BKN037 OVC049 03/M02 A3020 RMK AO2 SNB40 SLP233 P0000 T00281017
KMGC,2023-04-04T09:55:00Z,KMGC 040955Z AUTO 07006KT 10SM SCT015 OVC024 07/05 A2984 RMK AO2
KMGE,2023-04-04T09:55:00Z,KMGE 040955Z AUTO 08004KT 7SM OVC002 13/12 A2999 RMK AO2 SLP155 T01290120 $
KMGG,2023-04-04T10:15:00Z,KMGG 041015Z AUTO 02006KT 10SM OVC009 01/M01 A2988 RMK AO2 T00061012
KMGJ,2023-04-04T09:54:00Z,KMGJ 040954Z AUTO 00000KT 10SM CLR 02/02 A3000 RMK AO2 SLP160 T00220017
KMGM,2023-04-04T10:17:00Z,KMGM 041017Z AUTO 00000KT 6SM BR OVC019 19/18 A2995 RMK AO2 T01940183 $
KMGN,2023-04-04T10:15:00Z,KMGN 041015Z AUTO 06006KT 10SM BKN008 00/00 A3002 RMK AO2 T00001006
KMGW,2023-04-04T09:53:00Z,KMGW 040953Z AUTO 19004KT 10SM CLR 13/05 A2994 RMK AO2 SLP135 T01280050
KMGY,2023-04-04T09:53:00Z,KMGY 040953Z AUTO 20006KT 10SM OVC017 14/10 A2985 RMK AO2 SLP104 T01440100
KMHE,2023-04-04T10:14:00Z,KMHE 041014Z AUTO 04019G26KT 5SM -SN OVC010 M01/M04 A2975 RMK AO2 PK WND 03026/1014 SNB04 CIG 007V013 P0000 T10111039
KMHK,2023-04-04T09:52:00Z,KMHK 040952Z AUTO 08008KT 10SM CLR 09/01 A2940 RMK AO2 SLP952 T00940006
KMHL,2023-04-04T10:15:00Z,KMHL 041015Z AUTO 08010KT 10SM CLR 10/07 A2954 RMK AO2
KMHP,2023-04-04T10:15:00Z,KMHP 041015Z AUTO 20003KT 2 1/2SM BR BKN016 BKN022 OVC027 17/ A3001 RMK AO2 T0171////
KMHS,2023-04-04T09:56:00Z,KMHS 040956Z AUTO 34009G18KT 290V040 10SM BKN038 OVC048 M02/M07 A3008 RMK AO2 SLP223 T10171067
KMHT,2023-04-04T09:53:00Z,KMHT 040953Z 19003KT 10SM BKN070 OVC080 08/02 A3003 RMK AO2 SLP185 T00780022
KMHV,2023-04-04T10:20:00Z,KMHV 041020Z AUTO 34012G21KT 10SM BKN047 BKN055 03/M08 A3001 RMK A01
KMIA,2023-04-04T09:53:00Z,KMIA 040953Z 11004KT 10SM FEW025 25/21 A2998 RMK AO2 SLP154 T02500211 $
KMIB,2023-04-04T09:55:00Z,KMIB 040955Z 04008KT 10SM OVC012 M10/M13 A3001 RMK SLP200 T11031131 $
KMIC,2023-04-04T09:53:00Z,KMIC 040953Z AUTO 04007KT 10SM OVC075 01/M02 A2985 RMK AO2 SLP115 T00111017
KMIE,2023-04-04T09:53:00Z,KMIE 040953Z AUTO 12003KT 10SM FEW016 11/08 A2982 RMK AO2 SLP092 T01110083
KMIO,2023-04-04T10:10:00Z,KMIO 041010Z AUTO 16013G19KT 10SM FEW029 SCT035 SCT055 23/19 A2950 RMK AO2
KMIV,2023-04-04T09:54:00Z,KMIV 040954Z AUTO VRB04KT 10SM CLR 12/11 A3000 RMK AO2 SLP156 T01220106
KMIW,2023-04-04T09:53:00Z,KMIW 040953Z AUTO 07016KT 10SM FEW035 BKN060 06/02 A2966 RMK AO2 PRESFR SLP047 T00610017 $
KMJD,2023-04-04T10:15:00Z,KMJD 041015Z AUTO 18005KT 9SM BKN012 OVC017 23/23 A2988 RMK AO2
KMJQ,2023-04-04T10:16:00Z,KMJQ 041016Z AUTO 05016KT 10SM SCT065 00/M01 A2973 RMK AO2
KMKC,2023-04-04T09:54:00Z,KMKC 040954Z 08005KT 10SM SCT039 11/03 A2948 RMK AO2 SLP978 T01110028
KMKE,2023-04-04T09:52:00Z,KMKE 040952Z 03011KT 2SM R01L/3500V4500FT BR OVC002 04/03 A2989 RMK AO2 SLP125 T00440033 $
KMKG,2023-04-04T09:55:00Z,KMKG 040955Z 04005KT 10SM SCT006 OVC055 07/05 A2991 RMK AO2 SLP131 T00720050
KMKJ,2023-04-04T10:15:00Z,KMKJ 041015Z AUTO 00000KT 10SM OVC032 05/02 A3006 RMK AO2 T00450021
KMKL,2023-04-04T09:53:00Z,KMKL 040953Z AUTO 19009KT 9SM CLR 19/18 A2980 RMK AO2 SLP089 T01940183
KMKN,2023-04-04T10:15:00Z,KMKN 041015Z AUTO 17009KT 10SM 21/19 A2957 RMK AO2 T02130193
KMKO,2023-04-04T09:53:00Z,KMKO 040953Z AUTO 17010KT 8SM CLR 23/19 A2955 RMK AO2 SLP998 T02280189
KMKS,2023-04-04T10:15:00Z,KMKS 041015Z AUTO 00000KT 5SM BR SCT027 OVC032 16/16 A3004 RMK AO2
KMKT,2023-04-04T09:56:00Z,KMKT 040956Z AUTO 06006KT 10SM OVC065 02/M02 A2982 RMK AO2 SLP110 T00171022 FZRANO PNO $
KMKY,2023-04-04T09:56:00Z,KMKY 040956Z AUTO 06004KT 10SM FEW023 21/19 A3000 RMK AO2 SLP157 T02060194 TSNO PNO $
KMLB,2023-04-04T09:53:00Z,KMLB 040953Z 21005KT 10SM CLR 21/19 A2999 RMK AO2 SLP154 T02060189
KMLC,2023-04-04T09:53:00Z,KMLC 040953Z AUTO 17008G18KT 140V200 10SM FEW055 FEW080 SCT095 23/19 A2955 RMK AO2 SLP994 T02280189
KMLE,2023-04-04T10:15:00Z,KMLE 041015Z AUTO 09011G17KT 10SM OVC038 07/01 A2951 RMK AO2 T00650005
KMLF,2023-04-04T09:52:00Z,KMLF 040952Z AUTO 34004KT 10SM BKN075 OVC090 M10/M12 A2966 RMK AO2 SLP078 T11001117 $
KMLI,2023-04-04T10:17:00Z,KMLI 041017Z AUTO 09020G24KT 4SM R09/4500VP6000FT +TSRA BR BKN011 OVC016 08/06 A2973 RMK AO2 LTG DSNT E AND SE RAB10 TSB11 P0000 T00830061 $
KMLJ,2023-04-04T10:15:00Z,KMLJ 041015Z AUTO 00000KT 1/2SM BR OVC003 16/16 A3000 RMK AO2
KMLP,2023-04-04T10:12:00Z,KMLP 041012Z AUTO 36003KT 3SM BR OVC001 M06/M08 A2975 RMK AO2 T10611083 $
KMLS,2023-04-04T09:53:00Z,KMLS 040953Z AUTO 05006KT 10SM FEW045 M04/M06 A2988 RMK AO2 SLP141 T10391061
KMLT,2023-04-04T09:53:00Z,KMLT 040953Z AUTO 00000KT 10SM BKN045 M01/M02 A2999 RMK AO2 SLP166 T10061017
KMLU,2023-04-04T09:53:00Z,KMLU 040953Z AUTO VRB05KT 7SM OVC031 23/21 A2978 RMK AO2 SLP081 T02280211
KMMH,2023-04-04T10:15:00Z,KMMH 041015Z AUTO 28008KT 10SM CLR M14/M20 A2991 RMK AO2 T11401198
KMMI,2023-04-04T10:15:00Z,KMMI 041015Z AUTO 00000KT 10SM OVC017 14/13 A3000 RMK A01
KMMK,2023-04-04T09:53:00Z,KMMK 040953Z AUTO 00000KT 8SM CLR 04/03 A3004 RMK AO2 SLP171 T00440028
KMML,2023-04-04T09:56:00Z,KMML 040956Z AUTO 02012KT 7SM OVC004 M02/M02 A2983 RMK AO2 PRESFR SLP117 T10171022 FZRANO
KMMT,2023-04-04T10:10:00Z,KMMT 041010Z AUTO 00000KT 1/2SM FG OVC026 14/14 A3001 RMK AO2 OVC V BKN SLP164 RVRNO $
KMMU,2023-04-04T10:15:00Z,KMMU 041015Z AUTO 00000KT 10SM CLR 03/02 A3002 RMK AO2
KMMV,2023-04-04T09:53:00Z,KMMV 040953Z AUTO 24005KT 10SM OVC100 02/01 A3015 RMK AO2 SLP212 T00220011
KMNE,2023-04-04T09:58:00Z,KMNE 040958Z AUTO 14004KT 10SM OVC025 21/21 A2973 RMK AO2
KMNH,2023-04-04T10:15:00Z,KMNH 041015Z AUTO 32014G21KT 1/4SM FZFG OVC003 M04/M05 A2940 RMK AO2
KMNI,2023-04-04T10:15:00Z,KMNI 041015Z AUTO 00000KT 1 1/2SM BR OVC002 12/12 A3003 RMK AO2 VIS 3/4V4
KMNM,2023-04-04T09:57:00Z,KMNM 040957Z AUTO 10SM OVC010 M01/M02 A2998 RMK AO2 SLP171 T10061017 FZRANO PNO $
KMNN,2023-04-04T09:53:00Z,KMNN 040953Z AUTO 20008KT 10SM OVC035 13/08 A2985 RMK AO2 SLP109 T01280083
KMNV,2023-04-04T10:15:00Z,KMNV 041015Z AUTO 00000KT 10SM 14/12 A2998 RMK A01
KMNZ,2023-04-04T10:15:00Z,KMNZ 041015Z AUTO 18015G21KT 10SM 22/21 A2959 RMK AO2 T02150212
KMOB,2023-04-04T09:56:00Z,KMOB 040956Z AUTO 19006KT 10SM BKN010 OVC015 24/21 A2992 RMK AO2 SLP126 T02390211
KMOD,2023-04-04T09:53:00Z,KMOD 040953Z AUTO 31012KT 10SM CLR 06/00 A3014 RMK AO2 SLP206 T00610000
KMOP,2023-04-04T10:15:00Z,KMOP 041015Z AUTO 00000KT 10SM -RA BKN011 BKN023 OVC065 05/03 A2996 RMK AO2 T00450032 P0009
KMOR,2023-04-04T10:15:00Z,KMOR 041015Z AUTO 00000KT 10SM OVC025 13/11 A2998 RMK A01
KMOT,2023-04-04T09:54:00Z,KMOT 040954Z AUTO 35008KT 10SM OVC011 M09/M13 A3002 RMK AO2 SLP199 T10941128
KMOX,2023-04-04T10:15:00Z,KMOX 041015Z AUTO 01007KT 7SM M03/M03 A2990 RMK AO2
KMPO,2023-04-04T09:53:00Z,KMPO 040953Z AUTO 00000KT 9SM CLR 02/02 A2996 RMK AO2 SLP153 T00220017
KMPR,2023-04-04T10:15:00Z,KMPR 041015Z AUTO 15007KT 10SM CLR 11/08 A2934 RMK AO2 T01150075
KMPV,2023-04-04T09:51:00Z,KMPV 040951Z AUTO 00000KT 10SM CLR 01/00 A3004 RMK AO2 SLP183 T00110000
KMPZ,2023-04-04T10:15:00Z,KMPZ 041015Z AUTO 08013KT 10SM OVC011 07/07 A2969 RMK AO2
KMQB,2023-04-04T10:15:00Z,KMQB 041015Z AUTO 06013KT 10SM OVC025 08/07 A2970 RMK AO2 T00830065
KMQI,2023-04-04T10:10:00Z,KMQI 041010Z AUTO 19005KT 10SM SCT041 SCT060 OVC085 17/15 A3005 RMK AO2 T01680150
KMQJ,2023-04-04T10:15:00Z,KMQJ 041015Z AUTO 16006KT 10SM OVC015 13/11 A2982 RMK AO1
KMQS,2023-04-04T10:15:00Z,KMQS 041015Z AUTO 00000KT 10SM CLR 11/10 A2998 RMK AO2
KMQW,2023-04-04T10:15:00Z,KMQW 041015Z AUTO 00000KT 1/4SM FG OVC002 17/17 A3001 RMK AO2 T01680167
KMQY,2023-04-04T09:56:00Z,KMQY 040956Z AUTO 17004KT 10SM OVC010 18/17 A2989 RMK AO2 SLP126 T01780167
KMRB,2023-04-04T09:53:00Z,KMRB 040953Z AUTO 00000KT 10SM CLR 07/05 A2993 RMK AO2 SLP135 T00670050
KMRC,2023-04-04T10:10:00Z,KMRC 041010Z AUTO 18008G14KT 10SM OVC009 19/19 A2986 RMK A01
KMRF,2023-04-04T09:56:00Z,KMRF 040956Z AUTO 21003KT 10SM CLR 12/M09 A2977 RMK AO2 SLP021 T01171094
KMRJ,2023-04-04T10:15:00Z,KMRJ 041015Z AUTO 10012G16KT 10SM OVC038 06/04 A2982 RMK AO2 PWINO
KMRN,2023-04-04T10:05:00Z,KMRN 041005Z AUTO 00000KT 10SM CLR 09/09 A3005 RMK AO2 T00920088
KMRT,2023-04-04T10:19:00Z,KMRT 041019Z AUTO 00000KT 10SM OVC025 09/07 A2988 RMK AO1
KMRY,2023-04-04T09:54:00Z,KMRY 040954Z AUTO 32006KT 10SM SCT026 08/03 A3021 RMK AO2 SLP242 T00830028
KMSL,2023-04-04T09:53:00Z,KMSL 040953Z AUTO 17006KT 7SM OVC010 20/18 A2987 RMK AO2 SLP111 T02000183
KMSN,2023-04-04T09:53:00Z,KMSN 040953Z AUTO 07005KT 10SM OVC048 06/04 A2985 RMK AO2 SLP112 T00610039
KMSO,2023-04-04T09:53:00Z,KMSO 040953Z AUTO 00000KT 10SM CLR M03/M06 A2984 RMK AO2 SLP134 T10331056
KMSP,2023-04-04T09:53:00Z,KMSP 040953Z 04008KT 10SM OVC070 02/M02 A2985 RMK AO2 SLP114 T00171022
KMSS,2023-04-04T09:53:00Z,KMSS 040953Z AUTO 03003KT 10SM CLR M01/M03 A3003 RMK AO2 SLP172 T10111033
KMSV,2023-04-04T09:56:00Z,KMSV 040956Z AUTO 07006KT 10SM BKN110 07/02 A2999 RMK AO2 SLP158 T00670022
KMSY,2023-04-04T09:53:00Z,KMSY 040953Z 17007KT 8SM BKN016 OVC021 24/22 A2987 RMK AO2 SLP116 T02390222
KMTC,2023-04-04T09:55:00Z,KMTC 040955Z AUTO 03005KT 10SM -DZ OVC006 07/06 A2991 RMK AO2 RAE11DZB11E16RAB16E45DZB45 SLP136 P0002 T00680062 $
KMTH,2023-04-04T09:53:00Z,KMTH 040953Z AUTO 13007KT 10SM SCT023 26/21 A2996 RMK AO2 SLP146 T02610211 $
KMTJ,2023-04-04T09:53:00Z,KMTJ 040953Z AUTO 23011G21KT 10SM CLR 00/M07 A2944 RMK AO2 PK WND 21035/0910 SLP924 T00001072
KMTK,2023-04-04T10:15:00Z,KMTK 041015Z AUTO 15011KT 10SM CLR 24/23 A2988 RMK A01
KMTN,2023-04-04T09:53:00Z,KMTN 040953Z 00000KT 10SM CLR 07/07 A2999 RMK FIRST
KMTO,2023-04-04T10:17:00Z,KMTO 041017Z AUTO 14009KT 2 1/2SM BR BKN004 OVC013 14/13 A2973 RMK AO2 RAE0956 P0000 T01390133
KMTP,2023-04-04T09:54:00Z,KMTP 040954Z AUTO 21003KT 09/07 A3007 RMK AO1 SLP181 T00890072
KMTV,2023-04-04T10:15:00Z,KMTV 041015Z AUTO 00000KT 10SM CLR 09/08 A3004 RMK AO2 T00940081
KMTW,2023-04-04T09:56:00Z,KMTW 040956Z AUTO 03010G17KT 10SM OVC007 01/00 A2994 RMK AO2 SLP141 T00110000 FZRANO
KMUO,2023-04-04T09:55:00Z,KMUO 040955Z AUTO 29024G29KT 10SM CLR M01/M07 A2975 RMK AO2 PK WND 29030/26 SLP086 T10111068 $
KMUT,2023-04-04T10:15:00Z,KMUT 041015Z AUTO 07012KT 10SM OVC012 08/08 A2972 RMK AO2
KMVE,2023-04-04T10:15:00Z,KMVE 041015Z AUTO 01008KT 10SM SCT065 OVC075 M02/M02 A2987 RMK AO2
KMVH,2023-04-04T10:20:00Z,KMVH 041020Z AUTO 04005KT 10SM OVC004 M07/M08 A2983 RMK AO2 PWINO
KMVL,2023-04-04T09:54:00Z,KMVL 040954Z AUTO 00000KT 5SM BR OVC090 00/M02 A3002 RMK AO2 SLP172 T00001017 $
KMVN,2023-04-04T09:56:00Z,KMVN 040956Z AUTO 17006KT 10SM BKN019 17/16 A2973 RMK AO2 SLP068 T01720161
KMVY,2023-04-04T09:53:00Z,KMVY 040953Z AUTO 19004KT 10SM OVC029 08/07 A3007 RMK AO2 SLP183 T00780067
KMWA,2023-04-04T10:15:00Z,KMWA 041015Z AUTO 18007KT 10SM CLR 17/17 A2974 RMK AO2 T01670167
KMWC,2023-04-04T10:15:00Z,KMWC 041015Z AUTO 04011G17KT 10SM OVC005 02/01 A2990 RMK AO2
KMWH,2023-04-04T09:52:00Z,KMWH 040952Z AUTO 27003KT 10SM CLR 00/M04 A2995 RMK AO2 SLP148 T00001044
KMWK,2023-04-04T10:05:00Z,KMWK 041005Z AUTO 00000KT 10SM OVC021 12/11 A3004 RMK AO2 T01230107
KMWL,2023-04-04T09:53:00Z,KMWL 040953Z AUTO 16008KT 9SM FEW014 22/20 A2954 RMK AO2 SLP987 T02170200
KMWM,2023-04-04T10:15:00Z,KMWM 041015Z AUTO 02012KT 10SM CLR M01/M02 A2975 RMK AO2
KMWN,2023-04-04T09:52:00Z,KMWN 040952Z 28046KT 0000 -SN FZFG BLSN VV000 M06/M06 RMK VRY LGT ICG
KMWO,2023-04-04T10:15:00Z,KMWO 041015Z AUTO 19007KT 10SM OVC020 15/10 A2987 RMK AO2 T01460104
KMWT,2023-04-04T09:53:00Z,KMWT 040953Z AUTO VRB04KT 10SM OVC018 22/18 A2967 RMK AO2 SLP034 T02220183 $
KMXF,2023-04-04T10:20:00Z,KMXF 041020Z AUTO 35003KT 6SM BR OVC016 19/18 A2993 RMK AO2 PRESRR SLP137
KMYF,2023-04-04T09:53:00Z,KMYF 040953Z AUTO 34004KT 10SM CLR 09/M08 A3003 RMK AO2 SLP168 T00891078
KMYJ,2023-04-04T10:15:00Z,KMYJ 041015Z AUTO 09005KT 5SM BR CLR 11/11 A2960 RMK AO2
KMYL,2023-04-04T09:51:00Z,KMYL 040951Z AUTO 33007KT 10SM CLR M07/M08 A2973 RMK AO2 SLP105 T10671083
KMYP,2023-04-04T10:15:00Z,KMYP 041015Z AUTO 24046G53KT M1/4SM -SN OVC002 M09/M11 A2940 RMK AO2
KMYR,2023-04-04T09:56:00Z,KMYR 040956Z 21005KT 10SM FEW024 OVC090 18/18 A3003 RMK AO2 SLP169 T01830183
KMYV,2023-04-04T09:53:00Z,KMYV 040953Z AUTO 14006KT 10SM CLR 03/M01 A3016 RMK AO2 SLP218 T00281006 $
KMYZ,2023-04-04T10:15:00Z,KMYZ 041015Z AUTO 10010G14KT 10SM CLR 06/00 A2942 RMK AO2
KMZH,2023-04-04T10:15:00Z,KMZH 041015Z AUTO 07004KT 10SM OVC009 00/M03 A2996 RMK AO2
KMZZ,2023-04-04T10:15:00Z,KMZZ 041015Z AUTO 09005KT 10SM OVC019 11/10 A2983 RMK AO2 T01140097
KN03,2023-04-04T10:15:00Z,KN03 041015Z AUTO 05003KT 7SM OVC085 05/05 A2998 RMK AO2
KN38,2023-04-04T10:15:00Z,KN38 041015Z AUTO 04005KT 10SM CLR 05/03 A2995 RMK AO2
KN60,2023-04-04T09:52:00Z,KN60 040952Z AUTO 04006KT M09/M12 A2999 RMK AO1 SLP188 T10941117
KN79,2023-04-04T10:15:00Z,KN79 041015Z AUTO 00000KT 10SM CLR 07/07 A2994 RMK AO2 T00690069
KNAK,2023-04-04T09:54:00Z,KNAK 040954Z AUTO 15005KT 10SM CLR 12/10 A2997 RMK AO2 SLP152 T01220100
KNBC,2023-04-04T09:56:00Z,KNBC 040956Z AUTO 13003KT 10SM OVC023 19/18 A3002 RMK AO2 SLP166 T01890178
KNBG,2023-04-04T09:55:00Z,KNBG 040955Z AUTO 18007KT 10SM BKN013 24/23 A2987 RMK AO2 SLP113 T02390228 $
KNBT,2023-04-04T10:00:00Z,KNBT 041000Z AUTO 22012G16KT 9SM FEW017 BKN065 OVC095 22/18 A3003 RMK AO2 SLP172 T02170178
KNCA,2023-04-04T09:56:00Z,KNCA 040956Z AUTO 22006KT 9SM -RA OVC060 17/17 A3002 RMK AO2 RAB53 SLP167 P0000 T01720167
KNDZ,2023-04-04T09:56:00Z,KNDZ 040956Z AUTO 18006KT 6SM BR OVC004 23/22 A2993 RMK AO2 CIG 003V008 SLP120 T02330222 $
KNEL,2023-04-04T10:00:00Z,KNEL 041000Z AUTO 18004KT CLR 11/09 A2999 RMK AO2 SLP155 T01060089 $
KNEW,2023-04-04T09:53:00Z,KNEW 040953Z AUTO 17006KT 10SM BKN015 BKN019 23/22 A2988 RMK AO2 SLP110 T02330217
KNFE,2023-04-04T09:56:00Z,KNFE 040956Z AUTO 18005KT 10SM OVC085 17/14 A3002 RMK AO2 SLP169 T01720144
KNFG,2023-04-04T09:52:00Z,KNFG 040952Z AUTO 09005KT 10SM CLR 07/M04 RMK AO2 SLPNO T00721039 $
KNFL,2023-04-04T09:56:00Z,KNFL 040956Z AUTO 30010KT 10SM CLR M02/M08 A2997 RMK AO2 SLP121 T10221078
KNFW,2023-04-04T09:52:00Z,KNFW 040952Z AUTO 18015KT OVC013 22/19 A2956 RMK AO2 SLP996 T02170194 TSNO CHINO S VISNO S $ 
KNGP,2023-04-04T09:56:00Z,KNGP 040956Z AUTO 17018G28KT 6SM HZ OVC006 26/23 A2965 RMK AO2 PK WND 18028/0953 CIG 005V011 SLP040 T02560228
KNGU,2023-04-04T09:59:00Z,KNGU 040959Z 00000KT 10SM SCT090 BKN110 17/16 A3004 RMK AO2 SLP171 T01720156
KNHK,2023-04-04T09:52:00Z,KNHK 040952Z COR 18007KT 10SM SCT090 16/12 A3000 RMK AO2 SLP159 T01560122 $
KNID,2023-04-04T09:56:00Z,KNID 040956Z AUTO 27006KT 10SM CLR 03/M11 A2997 RMK AO2 SLP153 T00281111 $
KNIP,2023-04-04T09:53:00Z,KNIP 040953Z 00000KT 10SM SCT250 19/17 A3001 RMK AO2 SLP157 T01940167
KNJK,2023-04-04T09:56:00Z,KNJK 040956Z AUTO 28010KT 10SM CLR 09/M12 A2997 RMK AO2 PK WND 30026/0857 RAE24 SLP165 P0000 T00891117 $
KNJM,2023-04-04T09:57:00Z,KNJM 040957Z AUTO 24007KT 7SM BKN035 BKN043 OVC075 21/16 A3003 RMK AO2 RAE12 SLP172 P0000 T02060156
KNJW,2023-04-04T10:20:00Z,KNJW 041020Z AUTO 16004KT 6SM BR FEW007 SCT028 OVC034 22/20 A2992 RMK AO2 T02170200 $
KNKT,2023-04-04T09:56:00Z,KNKT 040956Z 00000KT 10SM FEW036 OVC085 18/18 A3003 RMK AO2 RAB23E42 SLP164 P0001 T01780178
KNKX,2023-04-04T09:55:00Z,KNKX 040955Z 34008KT 10SM CLR 08/M07 A3003 RMK AO2 SLP165 T00781072
KNLC,2023-04-04T09:56:00Z,KNLC 040956Z AUTO 27008KT 10SM CLR 03/M01 A3013 RMK AO2 SLP205 T00331006
KNMM,2023-04-04T10:22:00Z,KNMM 041022Z AUTO 13003KT 7SM SCT012 BKN018 BKN035 22/21 A2990 RMK AO2 VIS 2 SOUTH T02170206 $
KNOG,2023-04-04T10:13:00Z,KNOG 041013Z AUTO 14010KT 7SM FEW009 SCT012 22/21 A2962 RMK AO2 T02220211 TSNO PNO $
KNOW,2023-04-04T10:15:00Z,KNOW 041015Z AUTO 00000KT 10SM SCT048 SCT055 03/00 A3007 RMK AO2 T00331005
KNOZ,2023-04-04T09:59:00Z,KNOZ 040959Z AUTO 30009KT 10SM CLR 09/M08 A2993 RMK AO2 SLP087 T00941083 $
KNPA,2023-04-04T10:13:00Z,KNPA 041013Z AUTO 17006KT 3/4SM BR VV002 22/22 A2992 RMK AO2 T02220222 $
KNQI,2023-04-04T09:56:00Z,KNQI 040956Z AUTO 16011KT 10SM CLR 23/23 A2962 RMK AO2 SLP027 T02330233 $
KNQX,2023-04-04T09:57:00Z,KNQX 040957Z 14012KT 10SM SCT023 26/22 A2996 RMK AO2 T02560217
KNRB,2023-04-04T10:22:00Z,KNRB 041022Z 00000KT 1 1/4SM BR FEW010 FEW250 18/18 A3002 RMK AO2 T01830178 $
KNRN,2023-04-04T10:15:00Z,KNRN 041015Z AUTO 06007KT 10SM CLR 02/M02 A2942 RMK AO2
KNRS,2023-04-04T09:53:00Z,KNRS 040953Z AUTO 36009G18KT 10SM CLR 12/M02 A3005 RMK AO2 SLP175 T01171017 $
KNSE,2023-04-04T09:56:00Z,KNSE 040956Z AUTO 18007KT 7SM BKN007 BKN013 OVC019 23/22 A2993 RMK AO2 CIG 004V009 SLP120 T02280217 $
KNSI,2023-04-04T09:53:00Z,KNSI 040953Z AUTO 32025G34KT 10SM CLR 08/03 A3010 RMK AO2 PK WND 32034/0946 SLP188 T00830033
KNTD,2023-04-04T09:55:00Z,KNTD 040955Z AUTO 30014G22KT CLR 09/04 A3007 RMK AO2 SLP184 T00890039 CHINO S $
KNTU,2023-04-04T09:56:00Z,KNTU 040956Z 04003KT 10SM SCT090 OVC110 14/13 A3002 RMK AO2 SLP169 T01390128
KNUC,2023-04-04T09:56:00Z,KNUC 040956Z AUTO 33020G27KT CLR 10/ A3009 RMK AO2 PK WND 33028/0913 SLP186 T0100 $
KNUI,2023-04-04T09:53:00Z,KNUI 040953Z AUTO 16006KT 10SM CLR 14/12 A3000 RMK AO2 SLP157 T01390117 
KNUW,2023-04-04T09:53:00Z,KNUW 040953Z 25012KT 10SM BKN028 BKN036 07/02 A3006 RMK AO2 SLP184 T00670017 VISNO $
KNXF,2023-04-04T09:56:00Z,KNXF 040956Z AUTO 01006KT 10SM CLR 07/M05 A3003 RMK AO2 SLP256 T00721050
KNXP,2023-04-04T09:56:00Z,KNXP 040956Z AUTO A3001 RMK AO2 SLPNO PWINO TSNO $
KNY0,2023-04-04T09:58:00Z,KNY0 040958Z AUTO 00000KT 10SM OVC038 05/04 A3003 RMK AO2
KNYC,2023-04-04T09:51:00Z,KNYC 040951Z AUTO 00000KT 10SM CLR 09/07 A3004 RMK AO2 SLP163 T00890067 $
KNYG,2023-04-04T09:56:00Z,KNYG 040956Z AUTO 19007KT 10SM CLR 14/ A2999 RMK AO2 SLP156 T0139 $
KNYL,2023-04-04T09:57:00Z,KNYL 040957Z AUTO 29007KT 10SM CLR 10/M06 A2993 RMK AO2 SLP134 T01001056 $
KNZY,2023-04-04T09:52:00Z,KNZY 040952Z 33023G31KT 10SM CLR 12/M03 A3003 RMK AO2 PK WND 34031/0948 SLP169 T01221033 $
KO05,2023-04-04T10:10:00Z,KO05 041010Z AUTO 00000KT 10SM SCT041 SCT049 M08/M13 A3003 RMK A01
KO22,2023-04-04T10:15:00Z,KO22 041015Z AUTO 00000KT 10SM CLR M00/M05 A3008 RMK A01
KO32,2023-04-04T10:15:00Z,KO32 041015Z AUTO 00000KT 8SM CLR 04/04 A3011 RMK AO2 T00400039 $
KO69,2023-04-04T10:15:00Z,KO69 041015Z AUTO 29005KT 10SM CLR 02/M00 A3021 RMK A01
KO86,2023-04-04T10:15:00Z,KO86 041015Z AUTO 00000KT 10SM M04/M05 A3013 RMK A01
KOAJ,2023-04-04T09:56:00Z,KOAJ 040956Z AUTO 19004KT 10SM OVC055 17/16 A3003 RMK AO2 SLP169 T01720161
KOAK,2023-04-04T09:53:00Z,KOAK 040953Z 34008KT 10SM FEW220 07/01 A3020 RMK AO2 SLP226 T00670006
KOBE,2023-04-04T10:15:00Z,KOBE 041015Z AUTO 00000KT 10SM FEW023 OVC038 20/20 A3000 RMK AO2
KOCF,2023-04-04T10:05:00Z,KOCF 041005Z AUTO 00000KT 10SM FEW003 16/16 A3001 RMK AO2 PNO $
KOCH,2023-04-04T09:56:00Z,KOCH 040956Z AUTO 16006KT 8SM OVC015 23/23 A2971 RMK AO2 SLP059 T02280228 PWINO
KOCQ,2023-04-04T09:55:00Z,KOCQ 040955Z AUTO 05006KT 030V090 10SM OVC010 00/M01 A2996 RMK AO1 T10051007
KOCW,2023-04-04T10:05:00Z,KOCW 041005Z AUTO 20005KT 5SM -RA BKN008 BKN012 OVC045 17/16 A3004 RMK AO2 P0001 T01720160
KODO,2023-04-04T09:53:00Z,KODO 040953Z AUTO 23007KT 10SM CLR 18/M16 A2960 RMK AO2 SLP976 T01781161
KODX,2023-04-04T09:53:00Z,KODX 040953Z AUTO 02014G27KT 10SM OVC039 02/M03 A2953 RMK AO2 PK WND 03027/0944 SLP008 T00171033
KOEB,2023-04-04T10:15:00Z,KOEB 041015Z AUTO 08009KT 10SM OVC008 08/06 A2987 RMK AO2 T00750061
KOEL,2023-04-04T10:15:00Z,KOEL 041015Z AUTO 06009KT 10SM CLR 01/M05 A2936 RMK AO1 T00071046
KOEO,2023-04-04T10:15:00Z,KOEO 041015Z AUTO 05008G15KT 10SM OVC085 01/00 A2991 RMK AO2 T00070001 PWINO
KOFF,2023-04-04T09:55:00Z,KOFF 040955Z 06016G21KT 10SM OVC038 07/M00 A2953 RMK AO2A SLP005 T00731004 PWINO PNO FZRANO TSNO CHINO RWY31 $
KOFK,2023-04-04T09:56:00Z,KOFK 040956Z AUTO 04011G25KT 10SM OVC044 02/M03 A2958 RMK AO2 SLP021 T00221033
KOFP,2023-04-04T09:54:00Z,KOFP 040954Z AUTO 00000KT 10SM SCT022 OVC050 15/12 A3001 RMK AO2 SLP161 T01500117
KOGA,2023-04-04T10:15:00Z,KOGA 041015Z AUTO 06015KT 10SM OVC023 01/M04 A2950 RMK AO2 T00061036
KOGB,2023-04-04T10:07:00Z,KOGB 041007Z AUTO 00000KT 1SM BR FEW002 OVC020 14/14 A3003 RMK AO2 T01440144
KOGD,2023-04-04T10:10:00Z,KOGD 041010Z AUTO 36006KT 1 1/4SM -SN BR SCT006 OVC012 M02/M04 A2962 RMK AO2 P0000 T10221044
KOGS,2023-04-04T10:15:00Z,KOGS 041015Z AUTO 00000KT 10SM CLR M01/M02 A2999 RMK AO2
KOIC,2023-04-04T10:15:00Z,KOIC 041015Z AUTO 00000KT 7SM OVC090 05/05 A3002 RMK AO2 T00510051
KOIN,2023-04-04T10:15:00Z,KOIN 041015Z AUTO 05009KT 10SM CLR 01/M02 A2944 RMK AO1 T00111020
KOJA,2023-04-04T10:15:00Z,KOJA 041015Z AUTO 20012KT 10SM CLR 18/15 A2945 RMK AO2 T01810152
KOJC,2023-04-04T09:53:00Z,KOJC 040953Z AUTO 09010G19KT 10SM CLR 11/04 A2946 RMK AO2 SLP971 T01110039
KOKB,2023-04-04T09:52:00Z,KOKB 040952Z AUTO VRB04KT 10SM CLR 09/M07 A3003 RMK AO2 SLP169 T00941072
KOKC,2023-04-04T09:52:00Z,KOKC 040952Z 18011KT 8SM FEW005 SCT250 20/19 A2947 RMK AO2 SLP963 T02000189
KOKK,2023-04-04T09:56:00Z,KOKK 040956Z AUTO 10007KT 10SM OVC019 11/10 A2981 RMK AO2 SLP096 T01110100 PNO $
KOKM,2023-04-04T10:15:00Z,KOKM 041015Z AUTO 18016G26KT 10SM CLR 23/19 A2951 RMK AO2 T02270187
KOKV,2023-04-04T10:15:00Z,KOKV 041015Z AUTO 24005KT 10SM CLR 11/07 A2995 RMK AO2
KOKZ,2023-04-04T10:15:00Z,KOKZ 041015Z AUTO 00000KT 1/2SM FG OVC002 16/16 A3001 RMK AO2 T01610157
KOLE,2023-04-04T10:15:00Z,KOLE 041015Z AUTO 08003KT 10SM BKN065 OVC110 05/05 A2993 RMK AO2
KOLF,2023-04-04T09:53:00Z,KOLF 040953Z AUTO 07011KT 10SM OVC029 M07/M11 A2998 RMK AO2 SNE02 SLP185 P0000 T10721106
KOLG,2023-04-04T10:15:00Z,KOLG 041015Z AUTO 06013G19KT 10SM OVC011 M01/M03 A2996 RMK AO1
KOLM,2023-04-04T09:54:00Z,KOLM 040954Z AUTO 19009KT 10SM CLR 02/00 A3008 RMK AO2 SLP188 T00170000
KOLS,2023-04-04T09:54:00Z,KOLS 040954Z AUTO 22009KT 10SM CLR 09/01 A2982 RMK AO2 SLP048 T00940006
KOLU,2023-04-04T09:56:00Z,KOLU 040956Z AUTO 05017KT 10SM OVC037 03/M02 A2954 RMK AO2 PK WND 05027/0911 SLP008 T00331022
KOLV,2023-04-04T10:15:00Z,KOLV 041015Z AUTO 17008KT 10SM SCT020 20/20 A2979 RMK A01
KOLY,2023-04-04T10:15:00Z,KOLY 041015Z AUTO 14005KT 10SM OVC013 16/15 A2975 RMK AO2 T01550148 PWINO
KOLZ,2023-04-04T10:15:00Z,KOLZ 041015Z AUTO 08013KT 10SM FEW034 SCT046 05/03 A2973 RMK A01
KOMA,2023-04-04T09:52:00Z,KOMA 040952Z 07009KT 10SM OVC044 07/01 A2953 RMK AO2 SLP000 T00670006
KOMH,2023-04-04T10:15:00Z,KOMH 041015Z AUTO 20003KT 10SM CLR 08/07 A3000 RMK AO2
KOMK,2023-04-04T09:53:00Z,KOMK 040953Z AUTO 30007KT 10SM CLR M01/M07 A2995 RMK AO2 SLP150 T10061072
KONA,2023-04-04T10:15:00Z,KONA 041015Z AUTO 00000KT 10SM SCT070 02/00 A2983 RMK AO2
KONL,2023-04-04T10:15:00Z,KONL 041015Z AUTO 03017G23KT 10SM BKN011 OVC046 M01/M03 A2962 RMK AO2 T10061029
KONM,2023-04-04T10:15:00Z,KONM 041015Z AUTO 21024G35KT 10SM CLR 13/M14 A2950 RMK AO2 T01321139
KONO,2023-04-04T09:53:00Z,KONO 040953Z AUTO 31014KT 10SM CLR 02/M04 A2990 RMK AO2 SLP136 T00221044
KONP,2023-04-04T10:15:00Z,KONP 041015Z AUTO 28007KT 10SM SCT021 SCT027 OVC048 06/02 A3021 RMK AO2
KONT,2023-04-04T09:53:00Z,KONT 040953Z 30007KT 10SM FEW060 07/M08 A3000 RMK AO2 SLP157 T00721078
KONX,2023-04-04T10:05:00Z,KONX 041005Z AUTO 16003KT 10SM SCT075 OVC095 17/16 A3003 RMK AO2 T01650160
KONZ,2023-04-04T10:15:00Z,KONZ 041015Z AUTO 03005KT 10SM OVC006 08/07 A2992 RMK AO2 T00750070
KOOA,2023-04-04T10:15:00Z,KOOA 041015Z AUTO 09018G21KT 10SM SCT041 09/05 A2966 RMK AO2 T00880050
KOPF,2023-04-04T09:53:00Z,KOPF 040953Z AUTO 14004KT 10SM CLR 23/21 A2999 RMK AO2 SLP155 T02330206
KOPL,2023-04-04T10:15:00Z,KOPL 041015Z AUTO 17009KT 10SM OVC010 23/21 A2980 RMK AO2 T02270210
KOPN,2023-04-04T10:15:00Z,KOPN 041015Z AUTO 00000KT 1/2SM FG OVC003 16/13 A3002 RMK AO2
KOQN,2023-04-04T10:15:00Z,KOQN 041015Z AUTO 00000KT 10SM CLR 08/06 A2999 RMK AO2
KOQT,2023-04-04T09:53:00Z,KOQT 040953Z AUTO 00000KT 10SM OVC022 15/11 A2998 RMK AO2 SLP149 T01500106
KORB,2023-04-04T10:13:00Z,KORB 041013Z AUTO 11005KT 10SM OVC014 M04/M06 A2999 RMK AO2
KORD,2023-04-04T09:51:00Z,KORD 040951Z 05013KT 10SM OVC007 07/05 A2984 RMK AO2 RAB24E37 SLP106 P0000 T00720050
KORE,2023-04-04T09:52:00Z,KORE 040952Z AUTO 31003KT 9SM -RA BKN070 OVC090 04/03 A3006 RMK AO2 SLP184 P0001 T00440033
KORF,2023-04-04T09:51:00Z,KORF 040951Z 00000KT 10SM SCT085 OVC110 16/15 A3002 RMK AO2 SLP165 T01610150 $
KORG,2023-04-04T10:15:00Z,KORG 041015Z AUTO 18010G14KT 5SM BR OVC006 24/23 A2977 RMK AO2 T02410225
KORH,2023-04-04T09:54:00Z,KORH 040954Z 24004KT 10SM SCT055 OVC090 07/03 A3002 RMK AO2 RAB26E36 SLP171 P0000 T00670033
KORK,2023-04-04T10:15:00Z,KORK 041015Z AUTO 19011G17KT 7SM OVC007 20/20 A2970 RMK AO2
KORL,2023-04-04T09:53:00Z,KORL 040953Z AUTO 28003KT 10SM CLR 22/17 A3000 RMK AO2 SLP159 T02220172
KORS,2023-04-04T10:15:00Z,KORS 041015Z AUTO 19003KT 10SM BKN060 BKN070 02/02 A3005 RMK AO2
KOSA,2023-04-04T10:15:00Z,KOSA 041015Z AUTO 15008KT 7SM OVC015 21/20 A2964 RMK AO2 T02090199
KOSC,2023-04-04T10:15:00Z,KOSC 041015Z AUTO 02009KT 10SM CLR 04/00 A2999 RMK AO2 T00360000
KOSH,2023-04-04T09:53:00Z,KOSH 040953Z AUTO 04012KT 10SM BKN008 OVC080 01/M01 A2991 RMK AO2 CIG 006V011 SLP133 T00061011
KOSU,2023-04-04T10:19:00Z,KOSU 041019Z AUTO 00000KT 10SM BKN024 OVC034 11/07 A2988 RMK AO2 T01110072
KOTG,2023-04-04T09:56:00Z,KOTG 040956Z AUTO 04018KT 10SM BKN006 OVC060 M01/M02 A2972 RMK AO2 PRESFR SLP084 T10111017 FZRANO PNO $
KOTH,2023-04-04T10:15:00Z,KOTH 041015Z AUTO 15008KT 10SM -RA BKN021 BKN041 OVC050 03/03 A3026 RMK AO2 RAB00 P0003
KOTM,2023-04-04T09:53:00Z,KOTM 040953Z AUTO 08015G21KT 10SM OVC037 08/04 A2966 RMK AO2 SLP042 T00780039
KOUN,2023-04-04T10:15:00Z,KOUN 041015Z AUTO 16012KT 10SM OVC013 21/19 A2947 RMK AO2 T02100192
KOVE,2023-04-04T09:53:00Z,KOVE 040953Z AUTO 35004KT 10SM CLR 04/M01 A3016 RMK AO2 SLP216 T00391006
KOVL,2023-04-04T10:15:00Z,KOVL 041015Z AUTO 02007KT 10SM OVC070 00/M01 A2986 RMK AO2
KOVS,2023-04-04T09:53:00Z,KOVS 040953Z AUTO 06004KT 10SM FEW050 OVC070 07/04 A2981 RMK AO2 SLP097 T00670039
KOWA,2023-04-04T10:13:00Z,KOWA 041013Z AUTO 05005KT 10SM BKN065 01/M01 A2980 RMK AO2
KOWB,2023-04-04T10:21:00Z,KOWB 041021Z AUTO 16007KT 7SM SCT013 OVC050 16/15 A2980 RMK AO2
KOWD,2023-04-04T09:53:00Z,KOWD 040953Z AUTO 00000KT 10SM OVC100 07/03 A3005 RMK AO2 SLP175 T00670033
KOWI,2023-04-04T10:10:00Z,KOWI 041010Z AUTO 11008KT 10SM SCT028 BKN035 14/11 A2942 RMK AO2
KOWP,2023-04-04T10:15:00Z,KOWP 041015Z AUTO 18008KT 7SM CLR 24/21 A2951 RMK AO2 T02350205
KOWX,2023-04-04T10:15:00Z,KOWX 041015Z AUTO 07009KT 10SM OVC032 09/06 A2990 RMK AO1
KOXB,2023-04-04T09:53:00Z,KOXB 040953Z AUTO 20004KT 10SM BKN080 12/11 A3005 RMK AO2 SLP174 T01170106
KOXC,2023-04-04T09:51:00Z,KOXC 040951Z 08004KT 7SM CLR 04/04 A3002 RMK AO2 SLP181 T00440039
KOXD,2023-04-04T10:15:00Z,KOXD 041015Z AUTO 00000KT 10SM OVC013 16/11 A2986 RMK AO2 T01550107
KOXI,2023-04-04T10:15:00Z,KOXI 041015Z AUTO 08008KT 10SM OVC020 10/08 A2982 RMK AO1
KOXR,2023-04-04T09:51:00Z,KOXR 040951Z AUTO 29011KT 10SM CLR 08/03 A3007 RMK AO2 SLP182 T00780033
KOXV,2023-04-04T10:15:00Z,KOXV 041015Z AUTO 09017G26KT 10SM OVC044 08/03 A2963 RMK AO2
KOYM,2023-04-04T10:15:00Z,KOYM 041015Z AUTO 00000KT 10SM BKN110 07/01 A2995 RMK AO2 PWINO
KOZA,2023-04-04T10:15:00Z,KOZA 041015Z AUTO 18013G25KT 10SM CLR 23/16 A2962 RMK AO2
KOZR,2023-04-04T10:20:00Z,KOZR 041020Z AUTO 13003KT 2 3/4SM BR FEW007 SCT011 21/21 A2995 RMK AO2 VIS 1 1/8V2 3/4 SLP142
KOZS,2023-04-04T10:15:00Z,KOZS 041015Z AUTO 15012KT 7SM CLR 19/17 A2957 RMK AO2
KOZW,2023-04-04T10:15:00Z,KOZW 041015Z AUTO 07003KT 10SM RA BKN006 OVC045 07/06 A2992 RMK AO2 T00650063 P0005
KP08,2023-04-04T10:15:00Z,KP08 041015Z AUTO 24009KT 10SM FEW060 BKN070 09/M10 A2985 RMK AO2
KP28,2023-04-04T09:56:00Z,KP28 040956Z AUTO 16009G15KT 13/M01 A2936 RMK AO1 SLP926 T01331006 $
KP52,2023-04-04T10:15:00Z,KP52 041015Z AUTO 26006KT 10SM SCT080 BKN090 04/M11 A2975 RMK AO2
KP53,2023-04-04T09:56:00Z,KP53 040956Z AUTO 04010KT M01/M03 A3004 RMK AO1 SLP181 T10061028 $
KP58,2023-04-04T09:55:00Z,KP58 040955Z AUTO 33004KT 04/02 A2995 RMK AO1 SLP143 T00390022
KP59,2023-04-04T09:51:00Z,KP59 040951Z AUTO 10009G21KT M02/M05 A3009 RMK AO1 SLP203 T10221050
KP60,2023-04-04T09:56:00Z,KP60 040956Z AUTO M09/M14 A2954 RMK AO1 SLP034 T10941139
KP68,2023-04-04T09:53:00Z,KP68 040953Z AUTO 30010KT M08/M12 A2977 RMK AO1 SLP103 T10781122
KP69,2023-04-04T09:52:00Z,KP69 040952Z AUTO 00000KT 02/00 A2993 RMK AO1 SLP149 P0001 T00170000 $
KP92,2023-04-04T09:59:00Z,KP92 040959Z AUTO 14005KT 22/21 A2982 RMK AO1 SLP097 T02170211
KPAE,2023-04-04T09:53:00Z,KPAE 040953Z AUTO 15005KT 10SM FEW032 BKN070 OVC110 02/01 A3007 RMK AO2 SLP185 T00220006
KPAH,2023-04-04T09:53:00Z,KPAH 040953Z AUTO VRB05KT 10SM SCT038 BKN070 20/17 A2975 RMK AO2 SLP070 T02000172
KPAM,2023-04-04T09:55:00Z,KPAM 040955Z 20011KT 1 7/8SM BR OVC001 22/22 A2995 RMK AO2A SLP145 T02240219 $
KPAN,2023-04-04T10:15:00Z,KPAN 041015Z AUTO 29007KT 9SM CLR 00/M10 A2974 RMK AO2 PWINO TSNO
KPBF,2023-04-04T10:20:00Z,KPBF 041020Z AUTO 19011G21KT 10SM SCT021 22/19 A2974 RMK AO2 T02170189
KPBG,2023-04-04T09:53:00Z,KPBG 040953Z AUTO 00000KT 10SM OVC100 01/M02 A3000 RMK AO2 SLP163 T00111022
KPBH,2023-04-04T10:15:00Z,KPBH 041015Z AUTO 05008KT 10SM BKN011 M02/M04 A2991 RMK AO2 T10201037
KPBI,2023-04-04T09:53:00Z,KPBI 040953Z 00000KT 10SM SCT090 24/21 A2999 RMK AO2 SLP156 T02440211
KPBX,2023-04-04T10:15:00Z,KPBX 041015Z AUTO 16005KT 10SM OVC025 14/07 A2995 RMK AO2 T01410065
KPCD,2023-04-04T10:15:00Z,KPCD 041015Z AUTO 18009KT 10SM OVC013 19/19 A2970 RMK AO2 T01910187
KPCW,2023-04-04T10:15:00Z,KPCW 041015Z AUTO 08014KT 10SM OVC049 08/08 A2988 RMK AO2
KPCZ,2023-04-04T10:15:00Z,KPCZ 041015Z AUTO 06009KT 10SM OVC011 01/M02 A2993 RMK AO2 T00091017
KPDC,2023-04-04T10:15:00Z,KPDC 041015Z AUTO 00000KT 10SM BKN060 06/03 A2979 RMK AO2 T00630027
KPDK,2023-04-04T09:53:00Z,KPDK 040953Z AUTO 00000KT 7SM OVC006 13/12 A3000 RMK AO2 SLP158 T01330122
KPDT,2023-04-04T09:53:00Z,KPDT 040953Z AUTO 25016KT BKN060 OVC075 02/M02 A2998 RMK AO2 SLP156 T00221022
KPDX,2023-04-04T09:53:00Z,KPDX 040953Z 15003KT 10SM BKN037 04/02 A3016 RMK AO2 SLP211 T00440017
KPEA,2023-04-04T10:15:00Z,KPEA 041015Z AUTO 09017G25KT 10SM OVC048 08/04 A2963 RMK AO2 T00800037
KPEO,2023-04-04T10:23:00Z,KPEO 041023Z AUTO 00000KT 1 1/4SM BR FEW001 BKN015 OVC065 07/06 A2998 RMK AO2 T00670061
KPEQ,2023-04-04T10:15:00Z,KPEQ 041015Z AUTO 26010KT 10SM CLR 17/M20 A2960 RMK AO2 T01681197
KPEX,2023-04-04T10:15:00Z,KPEX 041015Z AUTO 06010KT 10SM OVC010 00/M01 A2988 RMK AO2
KPEZ,2023-04-04T10:15:00Z,KPEZ 041015Z AUTO 14003KT 10SM CLR 23/21 A2965 RMK AO2 T02270210
KPGA,2023-04-04T09:53:00Z,KPGA 040953Z AUTO 30006KT 10SM FEW060 FEW120 03/M09 A2960 RMK AO2 SLP990 T00281094
KPGD,2023-04-04T09:53:00Z,KPGD 040953Z 09003KT 7SM MIFG FEW001 18/18 A3001 RMK AO2 SLP159 T01830183 $
KPGV,2023-04-04T10:05:00Z,KPGV 041005Z AUTO 20004KT 10SM SCT007 SCT050 OVC070 17/17 A3002 RMK AO2
KPHD,2023-04-04T09:53:00Z,KPHD 040953Z AUTO 12004KT 10SM BKN041 07/04 A2989 RMK AO2 SLP122 T00670039
KPHF,2023-04-04T09:54:00Z,KPHF 040954Z AUTO 00000KT 10SM OVC090 14/13 A3002 RMK AO2 SLP166 T01390133
KPHL,2023-04-04T09:54:00Z,KPHL 040954Z 20003KT 10SM FEW250 10/09 A2998 RMK AO2 SLP153 T01000094
KPHN,2023-04-04T10:15:00Z,KPHN 041015Z AUTO 00000KT 7SM RA SCT004 OVC012 07/06 A2995 RMK AO2
KPHP,2023-04-04T09:55:00Z,KPHP 040955Z AUTO 06017G23KT 3/4SM -SN BR VV006 M03/M03 A2979 RMK AO2 SLP102 P0007 T10281028 $
KPHT,2023-04-04T10:15:00Z,KPHT 041015Z AUTO 18010KT 8SM FEW007 FEW035 18/18 A2980 RMK A01
KPHX,2023-04-04T09:51:00Z,KPHX 040951Z 25013G19KT 9SM FEW090 OVC250 11/M09 A2980 RMK AO2 SLP082 T01061094
KPIA,2023-04-04T10:02:00Z,KPIA 041002Z 08014KT 10SM BKN014 OVC027 10/09 A2971 RMK AO2 LTG DSNT N AND NW RAE0959 P0000 T01000089
KPIB,2023-04-04T09:56:00Z,KPIB 040956Z AUTO 15004KT 8SM SCT018 BKN026 22/22 A2990 RMK AO2 SLP122 T02170217
KPIE,2023-04-04T09:53:00Z,KPIE 040953Z 00000KT 6SM BR CLR 20/20 A2999 RMK AO2 SLP156 T02000200
KPIH,2023-04-04T10:17:00Z,KPIH 041017Z AUTO 26017KT 1SM R21/5000V6000FT -SN BR FEW008 BKN012 OVC020 M03/M04 A2961 RMK AO2 P0002 T10331044
KPIL,2023-04-04T09:53:00Z,KPIL 040953Z AUTO 15014KT 9SM CLR 24/23 A2966 RMK AO2 SLP041 T02390228
KPIM,2023-04-04T10:15:00Z,KPIM 041015Z AUTO 19004KT 1SM BR OVC003 18/18 A3000 RMK AO2 T01800175
KPIR,2023-04-04T10:18:00Z,KPIR 041018Z AUTO 04019KT 3/4SM -SN BR VV013 M04/M07 A2981 RMK AO2 P0000 T10441067
KPIT,2023-04-04T09:51:00Z,KPIT 040951Z 22005KT 10SM FEW250 13/02 A2990 RMK AO2 SLP129 T01280017
KPJC,2023-04-04T10:15:00Z,KPJC 041015Z AUTO 00000KT 10SM CLR 02/02 A2990 RMK AO2
KPKB,2023-04-04T09:53:00Z,KPKB 040953Z AUTO 17005KT 10SM SCT036 12/05 A2991 RMK AO2 SLP126 T01170050
KPKD,2023-04-04T09:53:00Z,KPKD 040953Z AUTO 05007KT 9SM OVC005 M01/M02 A2991 RMK AO2 SLP147 T10111022
KPKV,2023-04-04T10:15:00Z,KPKV 041015Z AUTO 16009KT 7SM OVC010 24/22 A2967 RMK AO2 T02380224
KPLN,2023-04-04T09:54:00Z,KPLN 040954Z AUTO 00000KT 10SM OVC009 M02/M03 A3004 RMK AO2 CIG 008V014 SLP180 T10171028
KPLR,2023-04-04T10:15:00Z,KPLR 041015Z AUTO 00000KT 10SM OVC007 17/17 A2997 RMK A01
KPLU,2023-04-04T10:15:00Z,KPLU 041015Z AUTO 20004KT 10SM BKN035 OVC060 02/01 A3008 RMK AO2
KPMD,2023-04-04T09:53:00Z,KPMD 040953Z AUTO 32007KT 10SM BKN065 03/M05 A3004 RMK AO2 SLP172 T00281050
KPMH,2023-04-04T10:15:00Z,KPMH 041015Z AUTO 00000KT 10SM BKN025 OVC050 11/07 A2992 RMK AO2 T01050070
KPMP,2023-04-04T09:53:00Z,KPMP 040953Z AUTO 13008KT 10SM FEW022 26/21 A2999 RMK AO2 SLP155 T02560211
KPMU,2023-04-04T10:15:00Z,KPMU 041015Z AUTO 18006KT 10SM FEW015 SCT024 BKN029 20/19 A2980 RMK AO2
KPMV,2023-04-04T10:15:00Z,KPMV 041015Z AUTO 07013G19KT 10SM BKN026 BKN035 07/00 A2948 RMK AO2 T00660000
KPNA,2023-04-04T10:15:00Z,KPNA 041015Z AUTO 32010KT 10SM BKN065 OVC075 M07/M11 A2945 RMK AO2
KPNC,2023-04-04T09:53:00Z,KPNC 040953Z AUTO 18013G22KT 10SM CLR 23/19 A2941 RMK AO2 SLP944 T02280189
KPNE,2023-04-04T09:54:00Z,KPNE 040954Z AUTO 05003KT 10SM CLR 07/06 A3000 RMK AO2 SLP159 T00670056
KPNM,2023-04-04T10:15:00Z,KPNM 041015Z AUTO 04007KT 10SM OVC010 01/M02 A2992 RMK AO2 TSNO
KPNS,2023-04-04T09:53:00Z,KPNS 040953Z AUTO 19007KT 9SM OVC004 24/23 A2992 RMK AO2 SLP133 T02390228
KPNT,2023-04-04T10:15:00Z,KPNT 041015Z AUTO 08016KT 10SM TSRA BKN014 BKN019 OVC036 08/07 A2976 RMK AO2 LTG DSNT ALQDS P0003 T00800065
KPO1,2023-04-04T10:20:00Z,KPO1 041020Z AUTO 08012KT 10SM -SN SCT020 OVC026 M09/M10 A3000 RMK AO2
KPOB,2023-04-04T09:55:00Z,KPOB 040955Z AUTO 00000KT 10SM OVC013 16/15 A3000 RMK AO2 OVC V BKN SLP161 T01580150 TSNO $
KPOE,2023-04-04T09:55:00Z,KPOE 040955Z AUTO 18009KT 10SM OVC016 23/22 A2974 RMK AO2 SLP070 T02290215
KPOF,2023-04-04T09:53:00Z,KPOF 040953Z AUTO 18008KT 10SM CLR 20/18 A2971 RMK AO2 SLP056 T02000178
KPOU,2023-04-04T09:53:00Z,KPOU 040953Z AUTO 00000KT 10SM CLR 04/02 A3001 RMK AO2 SLP160 T00390022
KPOV,2023-04-04T10:15:00Z,KPOV 041015Z AUTO 07006KT 10SM CLR 05/03 A2988 RMK AO2 T00530025 PWINO
KPOY,2023-04-04T10:15:00Z,KPOY 041015Z AUTO 30014KT 10SM SCT022 BKN043 OVC050 M05/M06 A2963 RMK AO2
KPPA,2023-04-04T10:15:00Z,KPPA 041015Z AUTO 21018KT 10SM CLR 14/M10 A2943 RMK AO2 T01381100
KPPF,2023-04-04T09:52:00Z,KPPF 040952Z AUTO 19011G21KT 8SM CLR 22/18 A2947 RMK AO2 PK WND 18026/0916 SLP967 T02220178
KPPO,2023-04-04T10:15:00Z,KPPO 041015Z AUTO 08009KT 10SM OVC023 08/08 A2984 RMK AO2 T00800077
KPPQ,2023-04-04T10:15:00Z,KPPQ 041015Z AUTO 00000KT 10SM OVC017 15/15 A2965 RMK AO2 T01530153
KPQI,2023-04-04T09:56:00Z,KPQI 040956Z AUTO 21006KT 10SM OVC033 M01/M02 A2995 RMK AO2 SLP176 T10061017
KPQL,2023-04-04T09:53:00Z,KPQL 040953Z AUTO 17004KT 9SM BKN006 OVC017 23/22 A2990 RMK AO2 SLP125 T02330222
KPRB,2023-04-04T09:53:00Z,KPRB 040953Z AUTO 31007KT 10SM CLR 03/01 A3016 RMK AO2 SLP212 T00330006
KPRC,2023-04-04T09:53:00Z,KPRC 040953Z AUTO 25010KT 10SM SCT070 BKN090 00/M13 A2973 RMK AO2 SLP032 T00001128
KPRG,2023-04-04T10:15:00Z,KPRG 041015Z AUTO 13007KT 10SM OVC012 14/13 A2977 RMK AO2 LTG DSNT E AND SE T01370131
KPRN,2023-04-04T09:58:00Z,KPRN 040958Z AUTO 18003KT 7SM OVC002 21/21 A2993 RMK AO2 CIG 001V007 SLP080 T02060206
KPRO,2023-04-04T10:15:00Z,KPRO 041015Z AUTO 08013G24KT 10SM OVC048 07/01 A2961 RMK AO2 T00660013
KPRS,2023-04-04T10:15:00Z,KPRS 041015Z AUTO 00000KT 10SM CLR 22/M02 A2968 RMK AO2 T02171016
KPRX,2023-04-04T09:56:00Z,KPRX 040956Z AUTO 16011KT 10SM CLR 21/21 A2961 RMK AO2 SLP021 T02110206
KPSC,2023-04-04T09:53:00Z,KPSC 040953Z AUTO 00000KT 10SM OVC085 02/00 A3000 RMK AO2 SLP162 T00220000
KPSF,2023-04-04T09:54:00Z,KPSF 040954Z AUTO 00000KT 10SM SCT049 BKN090 OVC110 05/03 A3002 RMK AO2 RAE25 SLP159 P0000 T00500028
KPSK,2023-04-04T10:15:00Z,KPSK 041015Z AUTO 00000KT 10SM CLR 07/06 A3002 RMK AO2 T00660060
KPSM,2023-04-04T10:21:00Z,KPSM 041021Z 24003KT 10SM -RA BKN065 OVC080 08/02 A3004 RMK AO2A SLP175
KPSN,2023-04-04T10:15:00Z,KPSN 041015Z AUTO 17008G14KT 6SM BR BKN017 OVC022 22/21 A2964 RMK AO2
KPSO,2023-04-04T10:15:00Z,KPSO 041015Z AUTO 2SM -SN BKN008 OVC011 M01/M02 A2949 RMK AO2 T10121025
KPSP,2023-04-04T09:53:00Z,KPSP 040953Z AUTO 30017G24KT 10SM CLR 12/M11 A2995 RMK AO2 PK WND 32029/0856 SLP141 T01171106
KPSX,2023-04-04T10:09:00Z,KPSX 041009Z AUTO 16012G22KT 8SM OVC010 24/23 A2968 RMK AO2 CIG 007V013 T02390228 $
KPTB,2023-04-04T10:15:00Z,KPTB 041015Z AUTO 00000KT 10SM OVC012 15/14 A3001 RMK AO2 T01500137
KPTD,2023-04-04T10:15:00Z,KPTD 041015Z AUTO 00000KT 10SM FEW050 FEW060 BKN100 M01/M02 A3001 RMK AO2
KPTK,2023-04-04T10:14:00Z,KPTK 041014Z 09004KT 4SM -RA BR SCT006 BKN023 OVC047 06/06 A2991 RMK AO2 P0002 T00610056
KPTN,2023-04-04T09:56:00Z,KPTN 040956Z AUTO 17008KT 10SM OVC008 23/22 A2984 RMK AO2 SLPNO T02330222 $
KPTS,2023-04-04T10:15:00Z,KPTS 041015Z AUTO 18014G20KT 10SM CLR 22/19 A2947 RMK AO2 T02200186 PWINO
KPTT,2023-04-04T10:15:00Z,KPTT 041015Z AUTO 19011KT 10SM CLR 10/M02 A2935 RMK AO2 T01001020
KPTV,2023-04-04T09:56:00Z,KPTV 040956Z AUTO 19007KT 10SM CLR 00/M01 A3014 RMK AO2 SLPNO T00001006 FZRANO
KPUB,2023-04-04T09:53:00Z,KPUB 040953Z AUTO 22022G34KT 10SM CLR 14/M12 A2927 RMK AO2 PK WND 22034/0949 SLP848 T01441122
KPUC,2023-04-04T09:53:00Z,KPUC 040953Z AUTO 29012G26KT 10SM FEW110 M03/M12 A2941 RMK AO2 PK WND 30028/0900 SLP965 T10281117
KPUJ,2023-04-04T10:15:00Z,KPUJ 041015Z AUTO 00000KT 1/4SM FG OVC003 13/13 A3000 RMK AO2
KPUW,2023-04-04T09:53:00Z,KPUW 040953Z AUTO 36003KT 10SM BKN065 OVC090 M01/M02 A2992 RMK AO2 SNE36 SLP156 P0000 T10111017
KPVB,2023-04-04T10:15:00Z,KPVB 041015Z AUTO 09011KT 10SM SCT040 BKN050 06/05 A2980 RMK AO1 T00600045
KPVC,2023-04-04T09:56:00Z,KPVC 040956Z AUTO 18008KT 10SM SCT100 08/06 A3006 RMK AO2 SLP180 T00780061
KPVD,2023-04-04T09:51:00Z,KPVD 040951Z 19003KT 10SM FEW015 BKN160 04/04 A3005 RMK AO2 SLP176 T00440044 $
KPVF,2023-04-04T10:15:00Z,KPVF 041015Z AUTO 08008KT 10SM CLR 00/M08 A3008 RMK AO1
KPVG,2023-04-04T09:56:00Z,KPVG 040956Z AUTO 10SM FEW055 OVC085 15/14 A3003 RMK AO2 SLP171 T01500144 $
KPVJ,2023-04-04T10:15:00Z,KPVJ 041015Z AUTO 17006KT 10SM CLR 21/19 A2950 RMK AO2 T02080190
KPVU,2023-04-04T10:14:00Z,KPVU 041014Z AUTO 31024G30KT 1 1/4SM -SN BR BKN005 OVC011 M03/M04 A2962 RMK AO2 PK WND 31030/1014 P0000
KPVW,2023-04-04T10:15:00Z,KPVW 041015Z AUTO 23012KT 10SM CLR 14/M17 A2953 RMK AO2 T01361167
KPWA,2023-04-04T09:53:00Z,KPWA 040953Z AUTO 18013KT 8SM CLR 21/18 A2946 RMK AO2 SLP958 T02110183
KPWC,2023-04-04T10:15:00Z,KPWC 041015Z AUTO 09009KT 10SM OVC010 M01/M02 A2995 RMK AO2
KPWD,2023-04-04T10:15:00Z,KPWD 041015Z AUTO 06010KT 7SM -SN BKN010 OVC047 M10/M12 A3000 RMK AO2
KPWG,2023-04-04T09:56:00Z,KPWG 040956Z AUTO 18014G22KT 10SM SCT013 22/21 A2961 RMK AO2 SLP019 T02220206
KPWK,2023-04-04T10:04:00Z,KPWK 041004Z AUTO 07010G16KT 10SM SCT007 OVC028 08/06 A2987 RMK AO2 T00780056
KPWM,2023-04-04T09:51:00Z,KPWM 040951Z 00000KT 10SM OVC065 06/01 A3004 RMK AO2 SLP172 T00610011
KPWT,2023-04-04T10:09:00Z,KPWT 041009Z AUTO 00000KT 10SM OVC011 02/02 A3007 RMK AO2 FZRANO
KPXE,2023-04-04T10:15:00Z,KPXE 041015Z AUTO 00000KT 1/4SM FG OVC002 16/ A3001 RMK AO2 T0165////
KPYM,2023-04-04T09:52:00Z,KPYM 040952Z AUTO VRB03KT 10SM FEW100 06/05 A3004 RMK AO2 SLP176 T00610050
KPYX,2023-04-04T10:15:00Z,KPYX 041015Z AUTO 23017KT 10SM CLR 13/M16 A2938 RMK AO2 T01291163
KPZQ,2023-04-04T10:15:00Z,KPZQ 041015Z AUTO 06009KT 10SM OVC009 00/00 A3006 RMK AO2 T00031001
KQAZ,2023-04-04T09:55:00Z,KQAZ 040955Z AUTO 11010KT 080V150 9999 CLR 34/M13 A2989 RMK AO2 SLP117 WND DATA ESTMD T03361127
KQBL,2023-04-04T10:20:00Z,KQBL 041020Z AUTO VRB03KT 7/8SM BR OVC001 23/23 A2995 RMK AO2 VIS 7/8V2 OVC V BKN SLP148 WND DATA ESTMD
KQD3,2023-04-04T09:55:00Z,KQD3 040955Z AUTO 07011G22KT 040V100 9999 FEW026 33/23 A2984 RMK AO2 SLP089 WND DATA ESTMD T03270226
KQDG,2023-04-04T10:14:00Z,KQDG 041014Z AUTO 35011KT 9999 CLR 12/M01 A3016 RMK AO2 WSHFT 13 SLP215 $
KQEI,2023-04-04T10:20:00Z,KQEI 041020Z AUTO 14002KT 9999 OVC100 16/M01 A3004 RMK A02 TSNO
KQEJ,2023-04-04T10:20:00Z,KQEJ 041020Z AUTO 19003KT 9999 OVC100 16/M03 A3003 RMK A02 TSNO
KQEN,2023-04-04T10:20:00Z,KQEN 041020Z AUTO 05001KT 9999 BKN100 11/05 A3009 RMK A02 TSNO
KQEP,2023-04-04T10:20:00Z,KQEP 041020Z AUTO 13004KT 9999 OVC070 20/03 A3005 RMK A02 TSNO
KQEQ,2023-04-04T10:20:00Z,KQEQ 041020Z AUTO 17002KT 9999 BKN085 17/00 A3005 RMK A02 TSNO
KQER,2023-04-04T10:20:00Z,KQER 041020Z AUTO 14002KT 9999 BKN085 18/M02 A3001 RMK A02 TSNO
KQES,2023-04-04T10:10:00Z,KQES 041010Z AUTO 22006KT 9999 CLR 19/06 A3011 RMK A02 TSNO
KQEV,2023-04-04T10:20:00Z,KQEV 041020Z AUTO 18001KT 6000 HZ OVC055 14/12 A3005 RMK A02 TSNO
KQEW,2023-04-04T10:20:00Z,KQEW 041020Z AUTO 18004G12KT 9999 OVC060 17/08 A3009 RMK A02 TSNO
KQEX,2023-04-04T09:50:00Z,KQEX 040950Z AUTO 17005G12KT 9999 CLR 19/08 A3001 RMK A02 TSNO
KQEY,2023-04-04T10:20:00Z,KQEY 041020Z AUTO 07004KT 4800 -SHRA OVC055 13/11 A2979 RMK A02 TSNO
KQFB,2023-04-04T10:20:00Z,KQFB 041020Z AUTO 18002KT 9999 OVC090 18/09 A3016 RMK A02 TSNO
KQFT,2023-04-04T10:20:00Z,KQFT 041020Z AUTO 18003KT 9999 OVC085 18/01 A3001 RMK A02 TSNO
KQFU,2023-04-04T10:20:00Z,KQFU 041020Z AUTO 18001KT 9999 OVC085 18/M03 A3005 RMK A02 TSNO
KQFV,2023-04-04T10:20:00Z,KQFV 041020Z AUTO 12008G14KT 9999 OVC070 18/M01 A3008 RMK A02 TSNO
KQFW,2023-04-04T10:20:00Z,KQFW 041020Z AUTO 05002KT 9999 OVC090 16/M01 A2986 RMK A02 TSNO
KQFX,2023-04-04T10:20:00Z,KQFX 041020Z AUTO 11002KT 9999 OVC070 18/07 A3003 RMK A02 TSNO
KQHY,2023-04-04T10:19:00Z,KQHY 041019Z AUTO 19003KT 2SM BR OVC002 23/22 A2994 RMK AO2 VIS 1 7/8V4 LTG DSNT S SLP145
KQN3,2023-04-04T09:55:00Z,KQN3 040955Z VRB03G11KT 9999 CLR 38/M11 A2981 RMK AO2A SLP082 WND DATA ESTMD T03841108
KQRH,2023-04-04T09:55:00Z,KQRH 040955Z AUTO 06010G20KT 020V110 9999 FEW015 31/24 A2980 RMK AO2 SLP094 WND DATA ESTMD T03140240
KQTB,2023-04-04T09:55:00Z,KQTB 040955Z 31006KT 7SM SKC 00/M14 A2993 RMK SLP141 WND DATA ESTMD
KQTZ,2023-04-04T09:55:00Z,KQTZ 040955Z VRB06KT 9999 SKC 26/10 A3001 RMK SLP166
KQVF,2023-04-04T09:55:00Z,KQVF 040955Z AUTO VRB06G12KT 9999 FEW210 34/21 A2982 RMK AO2 SLP100 WND DATA ESTMD T03360211
KRAC,2023-04-04T10:07:00Z,KRAC 041007Z AUTO 05008KT 5SM BR OVC002 06/04 A2990 RMK AO2 T00560044
KRAL,2023-04-04T09:53:00Z,KRAL 040953Z AUTO 00000KT 10SM CLR 07/M07 A3001 RMK AO2 SLP155 T00671072
KRAP,2023-04-04T10:10:00Z,KRAP 041010Z AUTO 02010KT 1/2SM SN FZFG VV009 M04/M04 A2976 RMK AO2 P0001 T10391044 RVRNO
KRAS,2023-04-04T10:15:00Z,KRAS 041015Z AUTO 16015G18KT 5SM BR OVC007 23/22 A2967 RMK AO2 T02330223
KRAW,2023-04-04T10:15:00Z,KRAW 041015Z AUTO 15007KT 10SM CLR 18/16 A2953 RMK AO2
KRBD,2023-04-04T10:06:00Z,KRBD 041006Z AUTO 19017G24KT 8SM SCT013 22/20 A2957 RMK AO2 T02170200
KRBG,2023-04-04T09:53:00Z,KRBG 040953Z AUTO 15003KT 10SM SCT038 SCT047 BKN060 02/01 A3023 RMK AO2 RAB28E39 SLP240 P0000 T00220006
KRBL,2023-04-04T09:54:00Z,KRBL 040954Z AUTO 31003KT 10SM CLR 04/M03 A3017 RMK AO2 SLP217 T00391028
KRBO,2023-04-04T10:15:00Z,KRBO 041015Z AUTO 16013G20KT 7SM SCT010 24/22 A2963 RMK AO2 T02350224
KRBW,2023-04-04T10:15:00Z,KRBW 041015Z AUTO 13003KT 4SM BR BKN001 OVC019 16/16 A3005 RMK AO2
KRCA,2023-04-04T10:15:00Z,KRCA 041015Z 03007KT 1 3/4SM -SN BR OVC012 M04/M05 A2974 RMK AO2A SLP107 $
KRCE,2023-04-04T10:15:00Z,KRCE 041015Z AUTO 19015KT 6SM BR 20/19 A2946 RMK AO2
KRCM,2023-04-04T10:15:00Z,KRCM 041015Z AUTO 06005KT 10SM CLR 11/07 A2949 RMK AO2
KRCR,2023-04-04T10:15:00Z,KRCR 041015Z AUTO 10008KT 10SM OVC020 10/09 A2983 RMK AO2
KRCV,2023-04-04T10:15:00Z,KRCV 041015Z AUTO 25010KT 7SM -SN SCT013 BKN027 OVC034 M01/M04 A2940 RMK AO2 T10111044
KRCX,2023-04-04T10:15:00Z,KRCX 041015Z AUTO 05009KT 10SM CLR 00/M01 A2991 RMK AO2 T00001007
KRCZ,2023-04-04T10:15:00Z,KRCZ 041015Z AUTO 00000KT 10SM SCT014 BKN018 OVC050 14/12 A3001 RMK AO2 T01400119
KRDD,2023-04-04T09:53:00Z,KRDD 040953Z AUTO 05005KT 10SM CLR 02/M02 A3015 RMK AO2 SLP211 T00171022 $
KRDG,2023-04-04T09:54:00Z,KRDG 040954Z 01003KT 9SM CLR 07/05 A2996 RMK AO2 SLP150 T00720050
KRDK,2023-04-04T10:15:00Z,KRDK 041015Z AUTO 07018G28KT 10SM CLR 08/01 A2949 RMK AO2
KRDM,2023-04-04T09:56:00Z,KRDM 040956Z AUTO 27009KT 10SM CLR M01/M07 A3002 RMK AO2 SLP179 T10111072
KRDR,2023-04-04T10:05:00Z,KRDR 041005Z 01009KT 10SM OVC015 M07/M08 A2999 RMK AO2A SLP178 $
KRDU,2023-04-04T09:51:00Z,KRDU 040951Z 00000KT 10SM FEW012 BKN020 OVC040 16/13 A3002 RMK T01560133
KREG,2023-04-04T10:15:00Z,KREG 041015Z AUTO 21003KT 7SM OVC014 23/22 A2984 RMK AO2 T02300220
KREO,2023-04-04T09:52:00Z,KREO 040952Z AUTO 31014G25KT M02/M08 A2987 RMK AO1 SLP136 T10221083
KRFD,2023-04-04T09:54:00Z,KRFD 040954Z 07005G16KT 10SM OVC008 07/05 A2983 RMK AO2 SLP104 T00670050 $
KRFI,2023-04-04T10:15:00Z,KRFI 041015Z AUTO 17008KT 130V200 10SM OVC015 24/19 A2969 RMK AO2 T02410185
KRGA,2023-04-04T10:15:00Z,KRGA 041015Z AUTO 20008KT 10SM OVC016 16/12 A2992 RMK AO2
KRGK,2023-04-04T10:15:00Z,KRGK 041015Z AUTO 12004KT 10SM OVC075 02/M02 A2982 RMK AO2
KRHI,2023-04-04T10:08:00Z,KRHI 041008Z AUTO 06009G16KT 10SM OVC010 M02/M05 A2993 RMK AO2 T10221050
KRHP,2023-04-04T10:16:00Z,KRHP 041016Z AUTO 00000KT 10SM OVC020 12/09 A3004 RMK AO2 T01200093
KRIC,2023-04-04T09:54:00Z,KRIC 040954Z 17003KT 10SM OVC049 15/13 A3001 RMK AO2 SLP165 T01500128
KRID,2023-04-04T10:15:00Z,KRID 041015Z AUTO 19007KT 10SM OVC014 11/11 A2985 RMK AO2
KRIL,2023-04-04T09:53:00Z,KRIL 040953Z AUTO VRB05KT 10SM OVC080 00/M03 A2939 RMK AO2 SNE0857 SLP919 P0000 T00001033 $
KRIV,2023-04-04T09:55:00Z,KRIV 040955Z AUTO 00000KT 10SM CLR 01/M05 A3000 RMK AO2 SLP161 T00141049
KRIW,2023-04-04T10:19:00Z,KRIW 041019Z AUTO 04013KT 3/4SM -SN BR VV009 M05/M06 A2954 RMK AO2 PRESFR P0002 T10501061
KRKD,2023-04-04T09:56:00Z,KRKD 040956Z AUTO 28004KT 10SM OVC080 05/02 A3004 RMK AO2 SLP172 T00500022
KRKP,2023-04-04T09:53:00Z,KRKP 040953Z AUTO 17010G21KT 5SM BR OVC007 24/23 A2965 RMK AO2 CIG 006V010 SLP042 T02390228
KRKR,2023-04-04T10:15:00Z,KRKR 041015Z AUTO 18010KT 10SM CLR 22/17 A2960 RMK AO2
KRKS,2023-04-04T10:14:00Z,KRKS 041014Z AUTO 05028G40KT 1/2SM SN FZFG BKN012 BKN020 OVC025 M08/M08 A2934 RMK AO2 PK WND 05040/1014 P0000 T10781083
KRKW,2023-04-04T10:15:00Z,KRKW 041015Z AUTO 23007G16KT 2SM BR OVC005 13/13 A2998 RMK A01
KRLD,2023-04-04T10:15:00Z,KRLD 041015Z AUTO 22003KT 10SM CLR 02/M03 A3001 RMK AO2 T00181033
KRME,2023-04-04T09:53:00Z,KRME 040953Z AUTO 10005KT 10SM -RA OVC040 06/05 A3002 RMK AO2 SLP164 P0000 T00560050
KRMG,2023-04-04T09:53:00Z,KRMG 040953Z AUTO 00000KT 10SM OVC010 15/12 A2998 RMK AO2 SLP147 T01500122
KRMN,2023-04-04T10:15:00Z,KRMN 041015Z AUTO 18003KT 10SM CLR 15/09 A2999 RMK AO2 T01540087
KRMY,2023-04-04T10:15:00Z,KRMY 041015Z AUTO 06005KT 10SM DZ OVC005 07/06 A2990 RMK AO2 T00650059 P0001
KRNC,2023-04-04T10:15:00Z,KRNC 041015Z AUTO VRB06KT 10SM OVC011 18/16 A2991 RMK A01
KRND,2023-04-04T09:55:00Z,KRND 040955Z AUTO 17008KT 10SM BKN010 OVC015 22/22 A2962 RMK AO2 SLP021 T02220220
KRNH,2023-04-04T10:15:00Z,KRNH 041015Z AUTO 05007KT 10SM OVC080 01/00 A2987 RMK AO2 T00050003
KRNM,2023-04-04T09:53:00Z,KRNM 040953Z AUTO 32006KT 10SM CLR 03/M06 A3001 RMK AO2 SLP159 T00331056
KRNO,2023-04-04T09:55:00Z,KRNO 040955Z 35006KT 10SM SCT048 BKN070 M03/M09 A3001 RMK AO2 SLP170 T10281089 $
KRNP,2023-04-04T10:15:00Z,KRNP 041015Z AUTO 02004KT 10SM -RA BKN005 OVC009 07/06 A2994 RMK AO2 T00650055
KRNT,2023-04-04T09:53:00Z,KRNT 040953Z AUTO 12005KT 10SM FEW027 BKN039 OVC060 04/01 A3009 RMK AO2 SLP195 T00390011
KROA,2023-04-04T09:54:00Z,KROA 040954Z 00000KT 10SM CLR 12/08 A3002 RMK AO2 SLP160 T01170078
KROC,2023-04-04T09:54:00Z,KROC 040954Z 14006KT 5SM -RA BR OVC070 07/07 A2996 RMK AO2 SLP150 P0009 T00720067
KROG,2023-04-04T09:58:00Z,KROG 040958Z 17013KT 10SM CLR 22/18 A2959 RMK AO2 SLP004 T02170178
KROS,2023-04-04T10:15:00Z,KROS 041015Z AUTO 04007G16KT 10SM OVC010 02/00 A2991 RMK AO2 T00171005
KROW,2023-04-04T09:51:00Z,KROW 040951Z AUTO 23017G25KT 10SM CLR 18/M17 A2951 RMK AO2 SLP926 T01781167
KROX,2023-04-04T10:15:00Z,KROX 041015Z AUTO 07014KT 10SM OVC014 M04/M07 A3002 RMK AO2
KRPD,2023-04-04T10:15:00Z,KRPD 041015Z AUTO 03006KT 10SM CLR M01/M01 A2991 RMK AO2 T10081010
KRPH,2023-04-04T10:15:00Z,KRPH 041015Z AUTO 16008KT 10SM CLR 22/20 A2951 RMK AO2 T02210201 $
KRPJ,2023-04-04T10:15:00Z,KRPJ 041015Z AUTO 07013KT 10SM OVC008 07/07 A2981 RMK AO2 T00670067 TSNO
KRPX,2023-04-04T09:44:00Z,KRPX 040944Z AUTO 10SM M05/M09 A2978 RMK Roundup 
KRQB,2023-04-04T10:15:00Z,KRQB 041015Z AUTO 00000KT 10SM UP BKN046 BKN060 OVC090 04/03 A2994 RMK AO2 T00380025
KRQE,2023-04-04T10:16:00Z,KRQE 041016Z AUTO 26013G18KT 1 3/4SM -SN OVC022 M05/M08 A2960 RMK AO2 P0000 T10501078
KRQO,2023-04-04T10:15:00Z,KRQO 041015Z AUTO 17011KT BKN010 BKN013 19/19 A2948 RMK AO2 PWINO T01930189
KRRT,2023-04-04T10:15:00Z,KRRT 041015Z AUTO 05011KT 10SM -SN OVC014 M06/M08 A3003 RMK AO2
KRSL,2023-04-04T09:53:00Z,KRSL 040953Z AUTO 05010KT 10SM CLR 03/M01 A2933 RMK AO2 SLP928 T00331011
KRSN,2023-04-04T10:15:00Z,KRSN 041015Z AUTO 16008KT 10SM BKN029 22/22 A2975 RMK AO2 CIG 025V031 T02170217 $
KRSP,2023-04-04T09:54:00Z,KRSP 040954Z AUTO 19011G18KT 150V230 10SM CLR A2995 RMK AO2 SLPNO $
KRST,2023-04-04T09:54:00Z,KRST 040954Z 05006KT 10SM OVC060 02/M01 A2979 RMK AO2 SLP099 T00171011
KRSW,2023-04-04T09:53:00Z,KRSW 040953Z 00000KT 10SM CLR 21/19 A2999 RMK AO2 SLP152 T02060194
KRTN,2023-04-04T09:53:00Z,KRTN 040953Z AUTO 24010KT 10SM CLR 05/M14 A2936 RMK AO2 SLP874 T00501139
KRTS,2023-04-04T10:15:00Z,KRTS 041015Z AUTO 33005KT 10SM CLR M05/M12 A3000 RMK AO2
KRUE,2023-04-04T09:53:00Z,KRUE 040953Z AUTO 10SM CLR 22/18 A2965 RMK AO2 SLPNO T02170183 TSNO $
KRUG,2023-04-04T10:15:00Z,KRUG 041015Z AUTO 03004KT 10SM OVC011 M10/M13 A3002 RMK AO2
KRUQ,2023-04-04T10:05:00Z,KRUQ 041005Z AUTO 00000KT 10SM OVC013 13/11 A3002 RMK AO2 T01310114
KRUT,2023-04-04T09:56:00Z,KRUT 040956Z AUTO 13008KT 10SM BKN055 BKN075 OVC095 04/04 A3002 RMK AO2 SLP161 T00440039 $
KRVF,2023-04-04T10:15:00Z,KRVF 041015Z AUTO 01019G25KT 6SM -SN FEW004 BKN075 OVC095 M04/M06 A2971 RMK AO2
KRVJ,2023-04-04T10:15:00Z,KRVJ 041015Z AUTO 00000KT 10SM OVC006 18/ A3002 RMK AO2 T0177////
KRVL,2023-04-04T10:15:00Z,KRVL 041015Z AUTO 00000KT 7SM CLR 05/04 A2993 RMK AO2
KRVS,2023-04-04T10:03:00Z,KRVS 041003Z AUTO 18010G20KT 8SM BKN024 23/19 A2949 RMK AO2 T02280189
KRWF,2023-04-04T09:53:00Z,KRWF 040953Z AUTO 01004KT 10SM OVC070 01/M02 A2986 RMK AO2 SLP121 T00061022
KRWI,2023-04-04T09:53:00Z,KRWI 040953Z AUTO 19004KT 10SM FEW012 OVC065 17/14 A3001 RMK AO2 SLP162 T01670144
KRWL,2023-04-04T09:53:00Z,KRWL 040953Z AUTO 1/4SM SN FZFG VV006 M07/M09 A2940 RMK AO2 PK WND 05043/0858 SLP974 P0001 T10721089
KRWV,2023-04-04T10:15:00Z,KRWV 041015Z AUTO 17011KT 5SM BR SCT013 23/21 A2966 RMK AO2 T02260208
KRXE,2023-04-04T09:53:00Z,KRXE 040953Z AUTO 03005KT 10SM OVC075 M03/M08 A2955 RMK AO2 SLP024 T10281078
KRYM,2023-04-04T09:55:00Z,KRYM 040955Z AUTO 06011KT 10SM OVC010 M01/M03 A2988 RMK AO2 SLP135 T10081029 $
KRYV,2023-04-04T10:15:00Z,KRYV 041015Z AUTO 10009KT 7SM SCT008 SCT018 OVC050 06/05 A2986 RMK AO2 T00560050
KRYW,2023-04-04T10:15:00Z,KRYW 041015Z AUTO 17007G15KT 10SM BKN012 22/20 A2965 RMK AO2 T02160197
KRYY,2023-04-04T09:50:00Z,KRYY 040950Z AUTO 09003KT 9SM OVC004 13/12 A3001 RMK AO2 SLP158 T01280122 $
KRZL,2023-04-04T10:15:00Z,KRZL 041015Z AUTO 06008KT 10SM OVC018 10/07 A2980 RMK AO2
KRZN,2023-04-04T10:15:00Z,KRZN 041015Z AUTO 07007KT 050V110 10SM OVC009 M01/M03 A2993 RMK AO2 T10061028
KRZR,2023-04-04T10:15:00Z,KRZR 041015Z AUTO 00000KT 10SM OVC013 15/13 A2996 RMK A01
KRZT,2023-04-04T10:15:00Z,KRZT 041015Z AUTO 17003KT 10SM OVC050 12/07 A2990 RMK AO2 PWINO
KS21,2023-04-04T10:15:00Z,KS21 041015Z AUTO 22008KT 10SM FEW021 BKN030 OVC041 M04/M09 A3003 RMK AO2
KS24,2023-04-04T10:15:00Z,KS24 041015Z AUTO 05008KT 10SM OVC045 08/06 A2988 RMK AO2
KS25,2023-04-04T10:15:00Z,KS25 041015Z AUTO 08010KT 7SM -SN SCT008 OVC035 M09/M08 A2998 RMK AO2
KS32,2023-04-04T10:15:00Z,KS32 041015Z AUTO 02009KT 10SM OVC005 M07/M07 A2998 RMK AO2 TSNO
KS33,2023-04-04T10:15:00Z,KS33 041015Z AUTO 13005KT 10SM SCT046 A3006 RMK AO2
KS34,2023-04-04T09:55:00Z,KS34 040955Z AUTO 00000KT 10SM M03/M23 A2988 RMK Plains 
KS39,2023-04-04T10:15:00Z,KS39 041015Z AUTO 26007KT 10SM CLR M03/M07 A3001 RMK AO2
KS52,2023-04-04T10:15:00Z,KS52 041015Z AUTO 00000KT 10SM OVC110 M03/M06 A2998 RMK AO2 T10321064
KS71,2023-04-04T10:15:00Z,KS71 041015Z AUTO 00000KT 9SM M08/M10 A3001 
KS85,2023-04-04T10:10:00Z,KS85 041010Z AUTO 05006KT 9SM FEW013 OVC029 M08/M09 A2999 RMK A01 Culbertson 
KSAA,2023-04-04T10:15:00Z,KSAA 041015Z AUTO 00000KT 1/2SM SN OVC002 M05/M05 A2936 RMK AO2
KSAC,2023-04-04T09:53:00Z,KSAC 040953Z AUTO 29006KT 10SM CLR 06/M01 A3016 RMK AO2 SLP212 T00611006
KSAD,2023-04-04T09:51:00Z,KSAD 040951Z AUTO 33014G26KT 10SM BKN035 11/M05 A2970 RMK AO2 PK WND 33029/0904 SLP017 T01061050
KSAF,2023-04-04T09:53:00Z,KSAF 040953Z AUTO 24011KT 10SM CLR 07/M12 A2949 RMK AO2 PK WND 23036/0917 SLP908 T00721122
KSAN,2023-04-04T09:51:00Z,KSAN 040951Z 01010G19KT 10SM CLR 12/M05 A3005 RMK AO2 SLP177 T01221050
KSAR,2023-04-04T10:15:00Z,KSAR 041015Z AUTO 17011G17KT 10SM OVC012 19/18 A2970 RMK AO2 T01900182
KSAT,2023-04-04T10:15:00Z,KSAT 041015Z 15009KT 10SM BKN016 22/21 A2965 RMK AO2 T02220206
KSAV,2023-04-04T09:53:00Z,KSAV 040953Z 00000KT 8SM BKN023 OVC029 18/17 A3002 RMK AO2 SLP164 T01830167
KSAW,2023-04-04T09:58:00Z,KSAW 040958Z AUTO 04009KT 10SM OVC007 M02/M03 A3001 RMK AO2 T10201033
KSAZ,2023-04-04T10:15:00Z,KSAZ 041015Z AUTO 06007KT 10SM OVC010 01/M02 A2992 RMK AO2
KSBA,2023-04-04T09:53:00Z,KSBA 040953Z 29010KT 10SM CLR 08/M01 A3010 RMK AO2 SLP193 T00831006 $
KSBD,2023-04-04T10:20:00Z,KSBD 041020Z AUTO 34012G18KT 10SM CLR 08/M10 A3002 RMK AO2 T00801097
KSBM,2023-04-04T09:53:00Z,KSBM 040953Z AUTO 04011KT 10SM OVC006 03/02 A2991 RMK AO2 RAE01 SLP131 P0000 T00330022
KSBN,2023-04-04T10:18:00Z,KSBN 041018Z 07008KT 10SM BKN012 OVC022 08/06 A2986 RMK AO2 T00830056
KSBO,2023-04-04T10:15:00Z,KSBO 041015Z AUTO 00000KT 3/4SM BR OVC002 A3003 RMK AO2
KSBP,2023-04-04T09:56:00Z,KSBP 040956Z AUTO 18003KT 10SM CLR 04/01 A3017 RMK AO2 SLP217 T00390011
KSBS,2023-04-04T10:15:00Z,KSBS 041015Z AUTO 09004KT 10SM SCT027 SCT034 BKN100 M05/M05 A2934 RMK AO1 T10491049
KSBY,2023-04-04T09:54:00Z,KSBY 040954Z 17004KT 10SM CLR 12/11 A3002 RMK AO2 SLP169 T01220111 $
KSCD,2023-04-04T10:15:00Z,KSCD 041015Z AUTO 00000KT 10SM OVC005 19/18 A2996 RMK AO2 T01860181
KSCK,2023-04-04T09:55:00Z,KSCK 040955Z AUTO 28009KT 10SM CLR 06/01 A3015 RMK AO2 SLP209 T00560011
KSCR,2023-04-04T10:05:00Z,KSCR 041005Z AUTO 00000KT 10SM OVC013 14/14 A3002 RMK AO2 T01360136
KSCX,2023-04-04T10:15:00Z,KSCX 041015Z AUTO 19007KT 10SM OVC011 15/14 A2995 RMK A01
KSDA,2023-04-04T10:15:00Z,KSDA 041015Z AUTO 08014G25KT 10SM FEW025 08/01 A2948 RMK AO2
KSDC,2023-04-04T10:15:00Z,KSDC 041015Z AUTO 00000KT 10SM -RA OVC065 07/05 A2998 RMK AO2 P0001
KSDF,2023-04-04T09:56:00Z,KSDF 040956Z 16007KT 10SM OVC014 17/13 A2984 RMK AO2 SLP101 T01670128
KSDL,2023-04-04T09:53:00Z,KSDL 040953Z AUTO 25007KT 10SM CLR 10/M10 A2982 RMK AO2 SLP080 T01001100
KSDM,2023-04-04T09:53:00Z,KSDM 040953Z AUTO VRB03KT 10SM CLR 07/M06 A3003 RMK AO2 SLP169 T00721061
KSDY,2023-04-04T10:16:00Z,KSDY 041016Z AUTO 04011KT 9SM -SN SCT009 SCT022 OVC028 M07/M08 A2997 RMK AO2 P0000 FZRANO
KSEA,2023-04-04T09:53:00Z,KSEA 040953Z 15006KT 10SM OVC019 03/01 A3008 RMK AO2 SLP193 T00330006
KSEE,2023-04-04T10:15:00Z,KSEE 041015Z AUTO 00000KT 10SM CLR 07/M06 A3003 RMK AO2
KSEF,2023-04-04T10:15:00Z,KSEF 041015Z AUTO 00000KT 10SM CLR 20/20 A3001 RMK AO2 T02030196
KSEG,2023-04-04T10:22:00Z,KSEG 041022Z AUTO 00000KT 1 3/4SM BR CLR 04/03 A2996 RMK AO2 VIS 1V5 T00390033 $
KSEM,2023-04-04T10:15:00Z,KSEM 041015Z AUTO 00000KT 1 1/4SM BR FEW003 SCT009 OVC016 19/19 A2993 RMK AO2
KSEP,2023-04-04T10:15:00Z,KSEP 041015Z AUTO 17008KT 5SM SCT007 SCT050 SCT120 20/19 A2960 RMK AO2 T02030190
KSEQ,2023-04-04T09:55:00Z,KSEQ 040955Z AUTO 17009KT 10SM BKN011 OVC200 22/21 A2962 RMK AO2 SLP026 T02180213
KSET,2023-04-04T09:54:00Z,KSET 040954Z AUTO 10009KT 8SM CLR 16/15 A2963 RMK AO2 SLP028 T01560150
KSEZ,2023-04-04T10:15:00Z,KSEZ 041015Z AUTO 28014G19KT 10SM SCT047 SCT065 BKN085 01/M10 A2972 RMK AO2
KSFB,2023-04-04T09:53:00Z,KSFB 040953Z AUTO 29004KT 10SM CLR 19/18 A2999 RMK AO2 SLP154 T01940178
KSFF,2023-04-04T09:53:00Z,KSFF 040953Z AUTO 23003KT 10SM OVC010 01/M02 A2993 RMK AO2 SLP147 T00061017
KSFM,2023-04-04T09:56:00Z,KSFM 040956Z AUTO 22004KT 10SM OVC060 07/01 A3004 RMK AO2 SLP177 T00720006
KSFO,2023-04-04T09:56:00Z,KSFO 040956Z 28007KT 10SM FEW020 07/01 A3019 RMK AO2 SLP224 T00720011
KSFQ,2023-04-04T10:15:00Z,KSFQ 041015Z AUTO 00000KT 10SM OVC090 16/15 A3003 RMK AO2 T01560145
KSFZ,2023-04-04T09:56:00Z,KSFZ 040956Z AUTO 00000KT 10SM OVC095 04/04 A3004 RMK AO2 SLP175 T00440039
KSGF,2023-04-04T09:52:00Z,KSGF 040952Z 15014KT 8SM CLR 20/18 A2956 RMK AO2 SLP994 T02000178
KSGH,2023-04-04T09:56:00Z,KSGH 040956Z AUTO 25003KT 10SM BKN018 OVC047 13/10 A2986 RMK AO2 PRESRR SLP111 T01330100
KSGJ,2023-04-04T09:56:00Z,KSGJ 040956Z AUTO 00000KT 10SM 18/17 A3002 RMK AO2 SLP164 T01780172 $
KSGR,2023-04-04T10:24:00Z,KSGR 041024Z AUTO 15010KT 10SM FEW009 BKN014 23/22 A2969 RMK AO2 T02280217
KSGS,2023-04-04T10:15:00Z,KSGS 041015Z AUTO 02005KT 10SM OVC070 02/M02 A2984 RMK AO2 T00181017
KSGT,2023-04-04T09:56:00Z,KSGT 040956Z AUTO 17010KT 10SM BKN015 21/19 A2975 RMK AO2 SLP071 T02060189
KSGU,2023-04-04T09:56:00Z,KSGU 040956Z AUTO 28019G27KT 10SM OVC110 03/M06 A2973 RMK AO2 PK WND 27027/0951 SLP066 T00281061
KSHD,2023-04-04T10:15:00Z,KSHD 041015Z AUTO 00000KT 10SM CLR 06/05 A3001 RMK AO2 T00560050
KSHL,2023-04-04T10:15:00Z,KSHL 041015Z AUTO 06020G25KT 10SM OVC060 00/M01 A2967 RMK AO2
KSHM,2023-04-04T09:55:00Z,KSHM 040955Z AUTO 35010KT 10SM CLR 03/M07 A2928 RMK AO2 SLP871 T00271072 $
KSHN,2023-04-04T09:53:00Z,KSHN 040953Z AUTO 00000KT 10SM CLR 01/M01 A3005 RMK AO2 SLP181 T00061006
KSHR,2023-04-04T10:22:00Z,KSHR 041022Z AUTO 03006KT 2SM -SN BR SCT006 OVC025 M02/M04 A2975 RMK AO2 P0000 T10221044
KSHV,2023-04-04T09:56:00Z,KSHV 040956Z 15008KT 10SM BKN027 OVC250 22/19 A2970 RMK SLPNO
KSIF,2023-04-04T10:05:00Z,KSIF 041005Z AUTO 00000KT 10SM BKN024 13/11 A3002 RMK AO2 T01250105
KSIK,2023-04-04T10:15:00Z,KSIK 041015Z AUTO 00000KT 10SM CLR 20/18 A2974 RMK AO2
KSIY,2023-04-04T09:53:00Z,KSIY 040953Z AUTO 00000KT 10SM FEW036 SCT047 OVC055 M01/M05 A3015 RMK AO2 SLP231 T10061050
KSJC,2023-04-04T09:53:00Z,KSJC 040953Z AUTO 27004KT 10SM OVC032 07/03 A3020 RMK AO2 SLP225 T00720028
KSJS,2023-04-04T10:15:00Z,KSJS 041015Z AUTO 18004KT 10SM BKN026 OVC031 15/07 A2995 RMK AO2 T01450072
KSJT,2023-04-04T09:51:00Z,KSJT 040951Z AUTO 19012KT 10SM CLR 24/17 A2955 RMK AO2 PK WND 18026/0911 SLP977 T02440172
KSJX,2023-04-04T10:15:00Z,KSJX 041015Z AUTO 07006KT 10SM OVC009 01/00 A3003 RMK AO2 T00051005
KSKA,2023-04-04T09:58:00Z,KSKA 040958Z 23006KT 10SM OVC002 M02/M04 A2988 RMK AO2A SLP136 T10181037
KSKF,2023-04-04T09:55:00Z,KSKF 040955Z 14006KT 7SM BKN013 OVC220 23/21 A2962 RMK AO2A CIG 012 RWY34 SLP022 T02280205
KSKX,2023-04-04T09:56:00Z,KSKX 040956Z AUTO 26014G21KT 10SM CLR 06/M13 A2946 RMK AO2 PK WND 22029/0909 SLP924 T00611133
KSLB,2023-04-04T10:15:00Z,KSLB 041015Z AUTO 06021G26KT 10SM OVC060 01/M01 A2963 RMK AO2
KSLC,2023-04-04T09:54:00Z,KSLC 040954Z 36012KT 1 1/4SM -SN BR FEW005 FEW009 OVC016 M02/M03 A2962 RMK AO2 TWR VIS 2 1/2 SLP035 P0001 T10171028 $
KSLE,2023-04-04T09:56:00Z,KSLE 040956Z AUTO 16003KT 10SM SCT033 02/01 A3017 RMK AO2 SLP216 T00220006
KSLG,2023-04-04T09:56:00Z,KSLG 040956Z AUTO 18014KT 10SM CLR 22/19 A2958 RMK AO2 SLP001 T02170189
KSLH,2023-04-04T10:15:00Z,KSLH 041015Z AUTO 05008KT 10SM OVC012 01/M00 A3004 RMK AO2
KSLI,2023-04-04T09:55:00Z,KSLI 040955Z AUTO 32010KT 10SM CLR 10/M05 A3003 RMK AO2 SLP172 T01021046
KSLK,2023-04-04T09:51:00Z,KSLK 040951Z AUTO 00000KT 10SM BKN075 M01/M03 A2996 RMK AO2 SLP157 T10111028
KSLN,2023-04-04T09:53:00Z,KSLN 040953Z AUTO 09008KT 10SM CLR 09/02 A2935 RMK AO2 SLP933 T00890022
KSLO,2023-04-04T10:15:00Z,KSLO 041015Z AUTO 17006KT 10SM OVC011 19/18 A2971 RMK AO2 T01880175
KSLR,2023-04-04T10:15:00Z,KSLR 041015Z AUTO 17009KT 10SM CLR 22/20 A2963 RMK AO2 T02150196
KSMD,2023-04-04T10:15:00Z,KSMD 041015Z AUTO 08007KT 8SM OVC025 09/09 A2987 RMK A01
KSME,2023-04-04T10:15:00Z,KSME 041015Z AUTO 00000KT 10SM OVC014 15/14 A2991 RMK AO2
KSMF,2023-04-04T09:53:00Z,KSMF 040953Z 30006KT 10SM CLR 06/M01 A3016 RMK AO2 SLP211 T00561011
KSMN,2023-04-04T09:56:00Z,KSMN 040956Z AUTO 00000KT 10SM OVC110 M01/M04 A2971 RMK AO2 SLP767 T10111044 FZRANO
KSMO,2023-04-04T09:51:00Z,KSMO 040951Z AUTO 34004KT 10SM CLR 10/M06 A3006 RMK AO2 SLP179 T01001061
KSMP,2023-04-04T10:00:00Z,KSMP 041000Z AUTO VRB03KT 1/2SM FZFG VV002 M03/M05 A2992 RMK AO2 T10331050
KSMQ,2023-04-04T09:53:00Z,KSMQ 040953Z AUTO 00000KT 10SM CLR 03/02 A2998 RMK AO2 SLP153 T00330022
KSMS,2023-04-04T10:15:00Z,KSMS 041015Z AUTO 00000KT 1/4SM FG OVC002 13/13 A3003 RMK AO2
KSMX,2023-04-04T09:51:00Z,KSMX 040951Z AUTO 36004KT 10SM BLDU CLR 04/01 A3017 RMK AO2 SLP219 T00440011
KSNA,2023-04-04T09:53:00Z,KSNA 040953Z AUTO 29008KT 250V310 10SM CLR 12/M06 A3004 RMK AO2 SLP172 T01171061
KSNC,2023-04-04T10:15:00Z,KSNC 041015Z AUTO 00000KT 8SM CLR 06/06 A3004 RMK AO2
KSNH,2023-04-04T10:10:00Z,KSNH 041010Z AUTO 17008G15KT 8SM SCT008 SCT037 19/19 A2983 RMK A01
KSNK,2023-04-04T10:15:00Z,KSNK 041015Z AUTO 21006KT 10SM CLR 16/M12 A2957 RMK AO2 T01641124
KSNL,2023-04-04T10:15:00Z,KSNL 041015Z AUTO 17013G16KT 10SM OVC015 21/20 A2950 RMK AO2 T02100199
KSNS,2023-04-04T09:53:00Z,KSNS 040953Z AUTO 00000KT 10SM BLDU CLR 04/02 A3020 RMK AO2 SLP236 T00440017
KSNT,2023-04-04T09:51:00Z,KSNT 040951Z AUTO 31006KT M07/M13 A2964 RMK AO1 SLP036 T10671128
KSNY,2023-04-04T09:53:00Z,KSNY 040953Z AUTO 04016KT 2SM -FZRA BR OVC003 M03/M04 A2948 RMK AO2 UPB02E03FZRAB03 CIG 003V006 SLP987 P0000 I1006 T10281039
KSOA,2023-04-04T10:15:00Z,KSOA 041015Z AUTO 17009G16KT 10SM 23/18 A2965 RMK AO2
KSOP,2023-04-04T09:56:00Z,KSOP 040956Z AUTO 00000KT 10SM 15/14 A3002 RMK AO2 SLP169 T01500139 TSNO PNO $
KSOW,2023-04-04T10:15:00Z,KSOW 041015Z AUTO 20023G29KT 5SM HZ SCT002 BKN043 BKN049 00/M09 A2965 RMK AO2
KSPA,2023-04-04T10:15:00Z,KSPA 041015Z AUTO 00000KT 10SM SCT030 BKN039 11/10 A3002 RMK AO2
KSPB,2023-04-04T09:53:00Z,KSPB 040953Z AUTO 30003KT 10SM SCT049 SCT060 BKN070 01/M01 A3015 RMK AO2 SLP208 T00111006
KSPD,2023-04-04T09:56:00Z,KSPD 040956Z AUTO 21006KT 04/M18 A2935 RMK AO1 SLP888 T00441178 $
KSPF,2023-04-04T10:15:00Z,KSPF 041015Z AUTO 09010KT 3/4SM -SN SCT010 OVC021 M05/M05 A2975 RMK AO2
KSPG,2023-04-04T09:53:00Z,KSPG 040953Z AUTO 11003KT 10SM CLR 23/22 A2997 RMK AO2 SLP149 T02280222
KSPI,2023-04-04T09:52:00Z,KSPI 040952Z AUTO 14011KT 10SM OVC016 17/14 A2967 RMK AO2 SLP045 T01720144
KSPK,2023-04-04T10:15:00Z,KSPK 041015Z AUTO 31019G28KT M03/M04 A2960 RMK AO2 PWINO
KSPS,2023-04-04T09:52:00Z,KSPS 040952Z 19014KT 9SM CLR 22/20 A2948 RMK AO2 SLP969 T02220200 $
KSPW,2023-04-04T09:53:00Z,KSPW 040953Z AUTO 06017KT 10SM FEW060 02/M03 A2971 RMK AO2 PK WND 04026/0935 SLP070 T00171028
KSQI,2023-04-04T10:05:00Z,KSQI 041005Z AUTO 07019KT 10SM FEW008 OVC023 07/07 A2977 RMK AO2 RAE03 P0000
KSQL,2023-04-04T10:15:00Z,KSQL 041015Z AUTO 29005KT 8SM CLR 07/02 A3021 RMK AO2
KSRB,2023-04-04T10:15:00Z,KSRB 041015Z AUTO 17009KT 10SM OVC014 17/15 A2992 RMK AO2
KSRC,2023-04-04T09:56:00Z,KSRC 040956Z AUTO 17003KT 7SM BKN015 19/18 A2973 RMK AO2 SLP064 T01890183
KSRE,2023-04-04T10:15:00Z,KSRE 041015Z AUTO 16007G14KT 10SM OVC017 22/19 A2951 RMK AO2
KSRQ,2023-04-04T09:53:00Z,KSRQ 040953Z AUTO 10003KT 8SM CLR 20/19 A2998 RMK AO2 SLP150 T02000194
KSRR,2023-04-04T10:15:00Z,KSRR 041015Z AUTO 23034G42KT 8SM 09/M15 A2963 RMK AO2
KSSC,2023-04-04T10:12:00Z,KSSC 041012Z 03003KT 3/8SM R04/2200V3000FT FG BKN003 13/12 A3001 RMK AO2A CIG 002 RWY22 SLP163 $
KSSF,2023-04-04T09:53:00Z,KSSF 040953Z AUTO 16005KT 9SM OVC012 23/21 A2963 RMK AO2 SLP020 T02330211
KSSI,2023-04-04T10:23:00Z,KSSI 041023Z AUTO 00000KT 3SM BR SCT001 19/17 A3001 RMK AO2 T01890167
KSTC,2023-04-04T09:53:00Z,KSTC 040953Z AUTO 05007KT 10SM OVC007 00/M02 A2988 RMK AO2 SLP139 T00001017
KSTE,2023-04-04T10:15:00Z,KSTE 041015Z AUTO 08009KT 10SM OVC010 00/M03 A2991 RMK AO2 T00001033
KSTF,2023-04-04T10:15:00Z,KSTF 041015Z AUTO 16003KT 4SM BR FEW026 22/22 A2986 RMK AO2
KSTJ,2023-04-04T09:53:00Z,KSTJ 040953Z AUTO 10010G16KT 10SM CLR 09/02 A2948 RMK AO2 SLP981 T00890022 $
KSTK,2023-04-04T10:15:00Z,KSTK 041015Z AUTO 02011G21KT 10SM SCT009 OVC015 M01/M02 A2947 RMK AO2
KSTL,2023-04-04T09:51:00Z,KSTL 040951Z 17010KT 9SM CLR 19/17 A2964 RMK AO2 SLP026 T01890167 $
KSTP,2023-04-04T09:53:00Z,KSTP 040953Z AUTO VRB06KT 10SM OVC075 02/M02 A2986 RMK AO2 SLP115 T00221022
KSTS,2023-04-04T09:53:00Z,KSTS 040953Z AUTO 33005KT 10SM CLR 04/M01 A3019 RMK AO2 SLP218 T00441006 $
KSUA,2023-04-04T10:15:00Z,KSUA 041015Z AUTO 00000KT 10SM SCT035 22/20 A3002 RMK AO2 T02200197
KSUE,2023-04-04T09:56:00Z,KSUE 040956Z AUTO 06010KT 10SM OVC008 M01/M02 A2996 RMK AO2 PRESFR SLP148 T10061017 FZRANO
KSUN,2023-04-04T10:15:00Z,KSUN 041015Z AUTO 33004KT 10SM CLR M04/M09 A2960 RMK AO2
KSUS,2023-04-04T09:54:00Z,KSUS 040954Z AUTO 00000KT 7SM CLR 17/17 A2962 RMK AO2 SLP023 T01720167
KSUT,2023-04-04T10:10:00Z,KSUT 041010Z AUTO 00000KT 10SM SCT005 OVC009 17/16 A3003 RMK AO2 T01700155
KSUU,2023-04-04T09:55:00Z,KSUU 040955Z AUTO 00000KT 10SM CLR 02/M01 A3015 RMK AO2 SLP216 T00211015 $
KSUW,2023-04-04T10:15:00Z,KSUW 041015Z AUTO 07013KT 10SM OVC014 00/M03 A3001 RMK AO2 T10051030
KSUX,2023-04-04T09:52:00Z,KSUX 040952Z AUTO 05013G20KT 10SM OVC055 02/M02 A2964 RMK AO2 SLP042 T00221022
KSUZ,2023-04-04T10:15:00Z,KSUZ 041015Z AUTO 18009KT 6SM BR BKN007 OVC010 20/20 A2972 RMK A01
KSVC,2023-04-04T10:15:00Z,KSVC 041015Z AUTO 26017G22KT 10SM CLR 11/M08 A2969 RMK AO2 T01081077
KSVE,2023-04-04T10:15:00Z,KSVE 041015Z AUTO 34009G21KT 040V050 10SM CLR M01/M10 A3003 RMK AO2
KSVH,2023-04-04T10:05:00Z,KSVH 041005Z AUTO 00000KT 10SM CLR 11/10 A3002 RMK AO2 T01120103
KSVN,2023-04-04T09:55:00Z,KSVN 040955Z 05003KT 10SM OVC021 18/17 A2999 RMK AO2A SLP159 T01800122 $
KSWF,2023-04-04T09:45:00Z,KSWF 040945Z 00000KT 7SM SKC 05/03 A3000
KSWO,2023-04-04T09:53:00Z,KSWO 040953Z 17014KT 9SM FEW022 23/20 A2944 RMK AO2 SLP953 T02280200 $
KSWW,2023-04-04T10:15:00Z,KSWW 041015Z AUTO 24008KT 10SM CLR 19/M01 A2959 RMK AO2 T01931007
KSXK,2023-04-04T10:15:00Z,KSXK 041015Z AUTO 06018G24KT 10SM OVC055 00/M01 A2965 RMK AO2
KSXS,2023-04-04T09:55:00Z,KSXS 040955Z AUTO 00000KT 9SM OVC002 22/21 A2994 RMK AO2 SLP137 T02150213
KSXU,2023-04-04T10:15:00Z,KSXU 041015Z AUTO 21014G19KT 10SM CLR 13/M16 A2945 RMK AO2 T01331161
KSYF,2023-04-04T10:15:00Z,KSYF 041015Z AUTO 04009KT 10SM CLR M01/M03 A2940 RMK AO2 T10061033 PWINO
KSYI,2023-04-04T10:15:00Z,KSYI 041015Z AUTO 17008KT 10SM OVC007 18/17 A2990 RMK A01
KSYM,2023-04-04T10:15:00Z,KSYM 041015Z AUTO 00000KT 10SM BKN021 OVC025 15/08 A2993 RMK AO2
KSYN,2023-04-04T10:15:00Z,KSYN 041015Z AUTO 02006KT 10SM OVC070 01/M01 A2982 RMK AO2 T00061012
KSYR,2023-04-04T09:54:00Z,KSYR 040954Z 09004KT 4SM -RA BR FEW050 BKN075 OVC085 07/06 A2999 RMK AO2 SLP154 P0002 T00670056
KSZL,2023-04-04T09:55:00Z,KSZL 040955Z 11005KT 10SM CLR 14/13 A2949 RMK AO2A SLP984 T01350133 $
KSZT,2023-04-04T10:15:00Z,KSZT 041015Z AUTO 29003KT 10SM CLR M02/M03 A2991 RMK AO2
KSZY,2023-04-04T10:15:00Z,KSZY 041015Z AUTO 18006KT 10SM 19/18 A2983 RMK A01
KT20,2023-04-04T10:15:00Z,KT20 041015Z AUTO 16009G15KT 10SM OVC011 23/22 A2965 RMK AO2 T02310217
KT35,2023-04-04T10:15:00Z,KT35 041015Z AUTO 17010G15KT 10SM BKN013 BKN018 23/21 A2963 RMK AO2 T02270209
KT41,2023-04-04T10:15:00Z,KT41 041015Z AUTO 16013G18KT 10SM SCT012 23/21 A2972 RMK AO2 T02330215
KT69,2023-04-04T10:15:00Z,KT69 041015Z AUTO 18015KT 7SM FEW012 24/23 A2963 RMK A01
KT70,2023-04-04T09:55:00Z,KT70 040955Z AUTO 10005KT 9SM CLR 24/19 A2957 RMK AO2 SLP997 T02350192 $
KT74,2023-04-04T10:15:00Z,KT74 041015Z AUTO 17010KT 7SM BR OVC012 22/21 A2964 RMK AO2 T02230206
KT78,2023-04-04T10:15:00Z,KT78 041015Z AUTO 17009G14KT 7SM OVC013 23/22 A2971 RMK AO2
KT82,2023-04-04T10:15:00Z,KT82 041015Z AUTO 17007KT 10SM OVC014 21/19 A2965 RMK AO2 T02140189
KT89,2023-04-04T10:15:00Z,KT89 041015Z AUTO 19008KT 10SM CLR 25/M07 A2964 RMK A01
KTAD,2023-04-04T09:54:00Z,KTAD 040954Z AUTO 23022G30KT 10SM CLR 12/M14 A2932 RMK AO2 PK WND 22038/0906 SLP853 T01221144
KTAN,2023-04-04T09:52:00Z,KTAN 040952Z AUTO A3004 RMK AO2 SLPNO PWINO FZRANO TSNO PNO $
KTAZ,2023-04-04T10:15:00Z,KTAZ 041015Z AUTO 14010KT 10SM OVC010 16/13 A2969 RMK AO2 T01550132
KTBN,2023-04-04T09:55:00Z,KTBN 040955Z AUTO 17009KT 10SM CLR 20/19 A2961 RMK AO2 SLP019 T02030193 $
KTBR,2023-04-04T10:15:00Z,KTBR 041015Z AUTO 00000KT 5SM BR OVC011 17/16 A3002 RMK AO2 T01700162
KTCC,2023-04-04T09:53:00Z,KTCC 040953Z AUTO 23012KT 10SM CLR 13/M15 A2942 RMK AO2 SLP908 T01281150 $
KTCL,2023-04-04T10:24:00Z,KTCL 041024Z AUTO VRB05KT 6SM BR FEW011 SCT016 OVC033 22/21 A2992 RMK AO2 T02170206
KTCM,2023-04-04T10:20:00Z,KTCM 041020Z AUTO 19007KT 10SM BKN026 BKN075 01/01 A3008 RMK AO2 CIG 026V080 BKN026 V SCT SLP192 $
KTCS,2023-04-04T09:53:00Z,KTCS 040953Z AUTO 24025G39KT 10SM CLR 14/M11 A2957 RMK AO2 PK WND 24045/0905 SLP939 T01391111
KTCY,2023-04-04T10:15:00Z,KTCY 041015Z AUTO 26010KT 10SM CLR 06/M01 A3016 RMK A01
KTDF,2023-04-04T10:05:00Z,KTDF 041005Z AUTO 00000KT 10SM SCT019 BKN065 11/10 A3003 RMK AO2
KTDR,2023-04-04T10:14:00Z,KTDR 041014Z AUTO 20011KT 7/8SM BR OVC002 23/22 A2992 RMK AO2 VIS 7/8V1 5/8 SLP135 RVRNO $
KTDZ,2023-04-04T09:53:00Z,KTDZ 040953Z AUTO 04005KT 10SM OVC008 09/07 A2991 RMK AO2 CIG 006V012 SLP128 T00940072
KTEB,2023-04-04T09:51:00Z,KTEB 040951Z 00000KT 10SM CLR 08/06 A3000 RMK AO2 SLP160 T00830056
KTEW,2023-04-04T10:15:00Z,KTEW 041015Z AUTO 07004KT 10SM -RA OVC005 06/05 A2991 RMK AO2 T00600050
KTEX,2023-04-04T10:15:00Z,KTEX 041015Z AUTO 27005KT 250V310 7SM -SN SCT017 OVC024 M06/M11 A2944 RMK AO2
KTFP,2023-04-04T09:35:00Z,KTFP 040935Z AUTO 19015G21KT 10SM OVC010 25/23 A2964 RMK AO2 T02460225
KTGI,2023-04-04T10:15:00Z,KTGI 041015Z AUTO 16007KT 10SM OVC100 13/12 A3003 RMK AO1 T01290122
KTHA,2023-04-04T10:15:00Z,KTHA 041015Z AUTO 17009G14KT 2 1/2SM BR OVC005 16/16 A2991 RMK A01
KTHV,2023-04-04T09:53:00Z,KTHV 040953Z AUTO 00000KT 10SM CLR 07/05 A2994 RMK AO2 SLP143 T00670050
KTIF,2023-04-04T10:15:00Z,KTIF 041015Z AUTO 03016G22KT 10SM SCT012 SCT023 OVC039 M02/M04 A2957 RMK AO2 T10171038
KTIK,2023-04-04T10:25:00Z,KTIK 041025Z AUTO 20014KT 10SM SCT015 21/21 A2945 RMK AO2 SLP965 $
KTIP,2023-04-04T10:15:00Z,KTIP 041015Z AUTO 00000KT 10SM BKN011 12/11 A2975 RMK AO2 T01160113
KTIW,2023-04-04T09:53:00Z,KTIW 040953Z 19008KT 10SM OVC019 03/01 A3008 RMK AO2 SLP187 T00330006
KTKC,2023-04-04T10:15:00Z,KTKC 041015Z AUTO 03013KT 6SM BR OVC004 M01/M01 A2979 RMK AO2
KTKI,2023-04-04T10:04:00Z,KTKI 041004Z AUTO 18013KT 10SM BKN017 22/19 A2958 RMK AO2 T02170194 $
KTKV,2023-04-04T10:15:00Z,KTKV 041015Z AUTO 05006KT 10SM OVC011 M01/M04 A2993 RMK AO2 T10141038 PWINO
KTKX,2023-04-04T10:15:00Z,KTKX 041015Z AUTO 18010KT 5SM BR CLR 20/20 A2973 RMK AO2
KTLH,2023-04-04T09:53:00Z,KTLH 040953Z 00000KT 7SM OVC006 22/21 A2997 RMK AO2 CIG 004V009 SLP149 T02220211
KTMA,2023-04-04T10:15:00Z,KTMA 041015Z AUTO 17003KT 1/2SM FG 19/19 A3001 RMK AO2 T01910191 $
KTMB,2023-04-04T09:53:00Z,KTMB 040953Z AUTO 00000KT 10SM CLR 22/21 A2998 RMK AO2 SLP151 T02220211
KTMK,2023-04-04T10:10:00Z,KTMK 041010Z AUTO 14003KT 4SM -RA BKN018 BKN029 OVC034 03/02 A3018 RMK AO2 P0004
KTMT,2023-04-04T10:15:00Z,KTMT 041015Z AUTO 27007KT 10SM SCT024 BKN034 OVC041 M06/M11 A2987 RMK AO2 T10651109
KTNB,2023-04-04T10:15:00Z,KTNB 041015Z AUTO 12003KT 10SM SCT017 BKN030 07/07 A3003 RMK AO2 T00650065 TSNO
KTNU,2023-04-04T10:15:00Z,KTNU 041015Z AUTO 08016KT 10SM BKN050 OVC055 08/04 A2964 RMK A01
KTOB,2023-04-04T10:15:00Z,KTOB 041015Z AUTO 05009KT 10SM OVC065 01/M01 A2978 RMK AO2
KTOC,2023-04-04T10:15:00Z,KTOC 041015Z AUTO 00000KT 10SM OVC018 13/11 A3002 RMK AO2 T01300107
KTOI,2023-04-04T10:23:00Z,KTOI 041023Z AUTO 00000KT 1 1/2SM BR FEW005 SCT012 BKN031 22/20 A2996 RMK AO2 T02170200
KTOL,2023-04-04T09:52:00Z,KTOL 040952Z 06008KT 10SM OVC008 09/07 A2990 RMK AO2 SLP124 T00940072
KTOP,2023-04-04T09:53:00Z,KTOP 040953Z AUTO 08008KT 10SM CLR 11/02 A2943 RMK AO2 SLP961 T01060022
KTOR,2023-04-04T10:14:00Z,KTOR 041014Z AUTO 04012G21KT 4SM -SN BR OVC026 M04/M06 A2957 RMK AO2 P0000 T10391056 $
KTPA,2023-04-04T09:53:00Z,KTPA 040953Z 00000KT 10SM CLR 21/19 A3000 RMK AO2 SLP158 T02110189 $
KTPF,2023-04-04T10:15:00Z,KTPF 041015Z AUTO 08003KT 10SM BKN110 20/20 A3001 RMK AO2
KTPH,2023-04-04T09:56:00Z,KTPH 040956Z AUTO 35016G23KT 10SM SCT025 SCT032 M06/M10 A2986 RMK AO2 SLP127 T10561100
KTPL,2023-04-04T09:51:00Z,KTPL 040951Z AUTO 17020G24KT OVC011 22/21 A2962 RMK AO2 SLP017 T02220211 PWINO RVRNO $
KTQE,2023-04-04T09:54:00Z,KTQE 040954Z AUTO 04013KT 10SM OVC048 05/M02 A2958 RMK AO2 SLP012 T00501017
KTQH,2023-04-04T10:15:00Z,KTQH 041015Z AUTO 17009G15KT 10SM CLR 22/16 A2957 RMK AO2
KTQK,2023-04-04T10:15:00Z,KTQK 041015Z AUTO 05009KT 10SM CLR 01/00 A2934 RMK AO2 T00090000
KTQV,2023-04-04T10:15:00Z,KTQV 041015Z AUTO 17004KT 10SM OVC060 15/12 A3001 RMK A01
KTRI,2023-04-04T09:53:00Z,KTRI 040953Z 00000KT 10SM OVC025 12/08 A3001 RMK AO2 SLP144 T01170083
KTRK,2023-04-04T10:22:00Z,KTRK 041022Z AUTO 00000KT 10SM CLR M14/M16 A2999 RMK AO2 TSNO
KTRL,2023-04-04T09:53:00Z,KTRL 040953Z AUTO 17011KT 8SM CLR 21/19 A2960 RMK AO2 SLP018 T02110189 $
KTRM,2023-04-04T09:52:00Z,KTRM 040952Z AUTO 33010KT 10SM CLR 11/M10 A2996 RMK AO2 SLP145 T01061100
KTSP,2023-04-04T10:15:00Z,KTSP 041015Z AUTO 31020KT 10SM OVC006 M02/M02 A2999 RMK AO2
KTTA,2023-04-04T10:05:00Z,KTTA 041005Z AUTO 00000KT 7SM DZ BKN013 OVC019 14/14 A3002 RMK AO2 T01350135
KTTD,2023-04-04T09:53:00Z,KTTD 040953Z AUTO 12003KT 10SM FEW022 OVC039 04/01 A3016 RMK AO2 RAE11 SLP213 P0000 T00390011
KTTF,2023-04-04T10:15:00Z,KTTF 041015Z AUTO 06005KT 10SM OVC007 08/07 A2991 RMK AO2 T00760067
KTTN,2023-04-04T09:53:00Z,KTTN 040953Z 06003KT 9SM CLR 06/06 A2999 RMK AO2 SLP148 T00610056
KTTS,2023-04-04T09:55:00Z,KTTS 040955Z AUTO 00000KT 10SM CLR 18/18 A2996 RMK AO2 VIS 1 RWY15/33 SLP150 T01830183 $
KTUL,2023-04-04T09:53:00Z,KTUL 040953Z 17019G27KT 8SM FEW022 BKN250 23/20 A2947 RMK AO2 PK WND 17029/0928 SLP970 T02280200
KTUP,2023-04-04T10:15:00Z,KTUP 041015Z AUTO 16007KT 6SM BR FEW005 BKN014 21/18 A2986 RMK AO2 T02060183
KTUS,2023-04-04T09:53:00Z,KTUS 040953Z 34014G22KT 7SM FEW035 OVC050 10/M10 A2984 RMK AO2 SLP071 T01001100
KTVC,2023-04-04T09:53:00Z,KTVC 040953Z AUTO 02007KT 10SM OVC120 03/00 A2998 RMK AO2 SLP154 T00330000
KTVF,2023-04-04T09:56:00Z,KTVF 040956Z AUTO 05008KT 10SM OVC065 M04/M04 A2999 RMK AO2 SLP174 T10441044 FZRANO
KTVI,2023-04-04T10:15:00Z,KTVI 041015Z AUTO 00000KT 1/4SM FG OVC002 20/20 A3001 RMK AO2
KTVK,2023-04-04T10:15:00Z,KTVK 041015Z AUTO 06017KT 10SM OVC021 07/04 A2962 RMK AO2
KTVL,2023-04-04T09:53:00Z,KTVL 040953Z AUTO 16004KT 10SM BKN031 OVC042 M09/M12 A2994 RMK AO2 SLP173 T10891122
KTVR,2023-04-04T09:53:00Z,KTVR 040953Z AUTO 16008KT 5SM BR CLR 22/21 A2981 RMK AO2 SLP099 T02220211
KTVY,2023-04-04T10:15:00Z,KTVY 041015Z AUTO 28009KT 10SM SCT042 OVC049 00/M08 A2966 RMK AO2
KTWF,2023-04-04T10:19:00Z,KTWF 041019Z AUTO 28022G34KT 4SM -SN OVC035 M03/M07 A2967 RMK AO2 PK WND 28034/1010 P0000 T10281067
KTWM,2023-04-04T10:15:00Z,KTWM 041015Z AUTO 06015G21KT 10SM OVC011 M03/M04 A3001 RMK AO2
KTWT,2023-04-04T10:15:00Z,KTWT 041015Z AUTO 14004KT 7SM SCT040 15/13 A2978 RMK AO2
KTXW,2023-04-04T10:15:00Z,KTXW 041015Z AUTO 14013G19KT 10SM SCT010 24/22 A2962 RMK AO2 T02350217
KTYL,2023-04-04T10:15:00Z,KTYL 041015Z AUTO 23020G29KT 10SM FEW026 SCT031 BKN060 02/M10 A2967 RMK AO2
KTYQ,2023-04-04T10:15:00Z,KTYQ 041015Z AUTO 17007KT 10SM BKN050 13/11 A2981 RMK AO2 LTG DSNT S T01270105
KTYR,2023-04-04T09:53:00Z,KTYR 040953Z AUTO 18015G29KT 10SM BKN015 23/19 A2964 RMK AO2 PK WND 17029/0946 SLP029 T02280194
KTYS,2023-04-04T09:53:00Z,KTYS 040953Z 00000KT 10SM BKN028 OVC037 13/09 A2997 RMK AO2 SLP145 T01330089
KTZR,2023-04-04T10:15:00Z,KTZR 041015Z AUTO 00000KT 10SM CLR 09/07 A2988 RMK AO2 T00920069
KU42,2023-04-04T10:15:00Z,KU42 041015Z AUTO 32017G21KT 3/4SM OVC004 M01/M03 A2962 RMK AO1 T10151027
KU55,2023-04-04T10:10:00Z,KU55 041010Z AUTO 34016G25KT 10SM BKN025 OVC032 M08/M11 A2959 RMK A01
KU64,2023-04-04T10:15:00Z,KU64 041015Z AUTO 20011KT 10SM FEW034 SCT046 M05/M10 A2945 RMK AO2 T10481095 $
KU68,2023-04-04T10:15:00Z,KU68 041015Z AUTO 02016KT 10SM OVC100 00/M07 A2967 RMK AO2
KU69,2023-04-04T10:15:00Z,KU69 041015Z AUTO 28014G20KT 10SM FEW004 SCT008 BKN012 M03/M10 A2937 RMK A01
KUAO,2023-04-04T09:53:00Z,KUAO 040953Z AUTO 20004KT 10SM SCT055 03/01 A3017 RMK AO2 SLP215 T00330011
KUBE,2023-04-04T10:15:00Z,KUBE 041015Z AUTO 05009KT 10SM CLR 00/00 A2990 RMK AO2
KUCP,2023-04-04T09:56:00Z,KUCP 040956Z AUTO 00000KT 10SM CLR 05/02 A2990 RMK AO2 SLP141 T00500022
KUCY,2023-04-04T10:15:00Z,KUCY 041015Z AUTO 18009KT 10SM CLR 18/18 A2976 RMK A01
KUDG,2023-04-04T10:12:00Z,KUDG 041012Z AUTO 19003KT 10SM FEW012 OVC028 14/14 A3003 RMK AO2
KUES,2023-04-04T10:15:00Z,KUES 041015Z AUTO 06014G19KT 4SM BR OVC004 03/03 A2989 RMK AO2
KUGN,2023-04-04T09:51:00Z,KUGN 040951Z AUTO 06008KT 7SM OVC002 06/00 A2986 RMK AO2 RAE17 SLP114 P0000 T00560000
KUIL,2023-04-04T09:53:00Z,KUIL 040953Z AUTO 08004KT 10SM FEW024 FEW029 BKN049 02/01 A3006 RMK AO2 SLP182 T00220011
KUIN,2023-04-04T09:54:00Z,KUIN 040954Z AUTO 05012KT 10SM CLR 09/06 A2963 RMK AO2 SLP030 T00940056
KUKF,2023-04-04T10:05:00Z,KUKF 041005Z AUTO 00000KT 10SM CLR 08/08 A3007 RMK AO2
KUKI,2023-04-04T09:56:00Z,KUKI 040956Z AUTO 10SM CLR 04/M01 A3022 RMK AO2 SLP231 T00391011
KUKL,2023-04-04T10:15:00Z,KUKL 041015Z AUTO 16008KT 10SM CLR 16/13 A2942 RMK AO2 T01560133
KUKT,2023-04-04T10:15:00Z,KUKT 041015Z AUTO 00000KT 10SM CLR 04/04 A2999 RMK A01
KULM,2023-04-04T10:15:00Z,KULM 041015Z AUTO 02008KT 10SM OVC070 01/M02 A2983 RMK AO2
KULS,2023-04-04T10:10:00Z,KULS 041010Z AUTO 21010KT 10SM CLR 10/M16 A2930 RMK AO2
KUNI,2023-04-04T10:15:00Z,KUNI 041015Z AUTO 00000KT 10SM BKN050 08/05 A2990 RMK AO2 T00760049
KUNO,2023-04-04T09:53:00Z,KUNO 040953Z AUTO 17007KT 5SM BR BKN007 OVC022 20/19 A2968 RMK AO2 SLP040 T02000189
KUNU,2023-04-04T10:15:00Z,KUNU 041015Z AUTO 06006KT 10SM OVC007 05/05 A2987 RMK AO2 T00500049
KUNV,2023-04-04T09:53:00Z,KUNV 040953Z 00000KT 10SM CLR 08/04 A2993
KUOX,2023-04-04T10:15:00Z,KUOX 041015Z AUTO 18010G16KT 10SM BKN013 21/19 A2984 RMK AO2
KUSE,2023-04-04T10:15:00Z,KUSE 041015Z AUTO 08011KT 10SM BKN010 OVC031 08/08 A2988 RMK AO2
KUTA,2023-04-04T10:15:00Z,KUTA 041015Z AUTO 17009KT 10SM OVC018 21/21 A2977 RMK AO2 CIG 015V021 T02120212 $
KUTS,2023-04-04T09:53:00Z,KUTS 040953Z AUTO 18008G19KT 9SM OVC016 24/21 A2968 RMK AO2 SLP044 T02440211
KUUU,2023-04-04T09:53:00Z,KUUU 040953Z AUTO 00000KT 9SM OVC014 06/06 A3006 RMK AO2 SLP179 T00610061
KUUV,2023-04-04T10:15:00Z,KUUV 041015Z AUTO 18011G17KT 7SM CLR 20/18 A2965 RMK AO2
KUVA,2023-04-04T10:15:00Z,KUVA 041015Z AUTO 10005KT 10SM CLR 23/21 A2963 RMK AO2 T02280207
KUXL,2023-04-04T10:15:00Z,KUXL 041015Z AUTO 16009KT 7SM OVC007 24/23 A2978 RMK AO2 T02350231
KUYF,2023-04-04T10:15:00Z,KUYF 041015Z AUTO 30003KT 10SM BKN021 08/07 A2988 RMK AO2
KUZA,2023-04-04T09:54:00Z,KUZA 040954Z AUTO 31005KT 8SM OVC005 14/13 A3001 RMK AO2 SLP159 T01390133
KVAD,2023-04-04T09:55:00Z,KVAD 040955Z AUTO 18003KT 1/4SM R18/1800V2000FT FG VV001 19/18 A2998 RMK AO2 SLP154 T01900183 $
KVAF,2023-04-04T10:15:00Z,KVAF 041015Z AUTO 14020KT 4SM HZ CLR 25/22 A2974 RMK A01
KVAY,2023-04-04T09:54:00Z,KVAY 040954Z AUTO 00000KT 10SM CLR 06/05 A2999 RMK AO2 SLP155 T00610050
KVBG,2023-04-04T09:55:00Z,KVBG 040955Z AUTO 35012KT 4SM HZ CLR 07/04 A3017 RMK AO2 SLP221 T00710044 TSNO $
KVBT,2023-04-04T09:56:00Z,KVBT 040956Z AUTO 17009G15KT 10SM CLR 22/18 A2960 RMK AO2 SLP010 T02170183
KVBW,2023-04-04T10:15:00Z,KVBW 041015Z AUTO 00000KT 10SM CLR 06/06 A2998 RMK AO1 T00550055
KVCB,2023-04-04T09:53:00Z,KVCB 040953Z AUTO 32006KT 10SM CLR 07/M02 A3017 RMK AO2 SLP215 T00671022
KVCT,2023-04-04T10:16:00Z,KVCT 041016Z AUTO 16012KT 7SM OVC014 23/22 A2967 RMK AO2 T02330222
KVCV,2023-04-04T10:15:00Z,KVCV 041015Z AUTO 28015G21KT 10SM CLR 01/M07 A3001 RMK AO2
KVDF,2023-04-04T10:15:00Z,KVDF 041015Z AUTO 00000KT 1 3/4SM BR VV007 16/16 A3001 RMK AO2 VIS 1V4
KVDI,2023-04-04T10:15:00Z,KVDI 041015Z AUTO 00000KT 1/2SM FG OVC002 18/17 A3002 RMK AO2
KVEL,2023-04-04T10:22:00Z,KVEL 041022Z AUTO 13004KT 3SM -SN BR OVC026 M04/M05 A2938 RMK AO2 P0000 T10441050
KVER,2023-04-04T10:15:00Z,KVER 041015Z AUTO 00000KT 10SM CLR 14/13 A2956 RMK AO2 T01380131
KVES,2023-04-04T10:10:00Z,KVES 041010Z AUTO 09003KT 10SM BKN016 OVC055 09/09 A2985 RMK AO2
KVGC,2023-04-04T10:15:00Z,KVGC 041015Z AUTO 00000KT 5SM SCT031 SCT039 BKN060 05/ A2999 RMK AO2 P0001
KVGT,2023-04-04T09:53:00Z,KVGT 040953Z AUTO 31018G28KT 10SM CLR 06/M13 A2982 RMK AO2 PK WND 31031/0942 SLP117 T00611128
KVHN,2023-04-04T10:15:00Z,KVHN 041015Z AUTO 26007KT 10SM CLR 15/M17 A2972 RMK AO2 T01521175
KVIH,2023-04-04T09:53:00Z,KVIH 040953Z AUTO 16008KT 7SM CLR 20/18 A2962 RMK AO2 SLP021 T02000183
KVIS,2023-04-04T09:56:00Z,KVIS 040956Z AUTO 00000KT 10SM CLR 04/02 A3014 RMK AO2 SLP217 T00440017
KVJI,2023-04-04T10:15:00Z,KVJI 041015Z AUTO 00000KT 10SM OVC024 10/07 A3003 RMK AO2 T01000071
KVKS,2023-04-04T10:15:00Z,KVKS 041015Z AUTO 14004KT 6SM BR FEW025 OVC030 22/22 A2981 RMK A01
KVKY,2023-04-04T10:15:00Z,KVKY 041015Z AUTO 00000KT 4SM HZ CLR A2992 RMK A01
KVLD,2023-04-04T09:53:00Z,KVLD 040953Z AUTO 21004KT 1/4SM FG VV002 20/19 A2999 RMK AO1 SLP162 T02000194 $
KVLL,2023-04-04T10:15:00Z,KVLL 041015Z AUTO 07005KT 10SM DZ OVC005 07/07 A2995 RMK AO2 T00730065
KVNC,2023-04-04T10:15:00Z,KVNC 041015Z AUTO 05006KT 1/2SM FG OVC002 20/20 A3000 RMK AO2
KVNW,2023-04-04T10:15:00Z,KVNW 041015Z AUTO 08006KT 10SM BKN024 OVC055 08/06 A2987 RMK AO2
KVNY,2023-04-04T09:51:00Z,KVNY 040951Z AUTO 35021G28KT 10SM CLR 09/M04 A3004 RMK AO2 PK WND 36028/0950 SLP168 T00941039
KVOA,2023-04-04T10:25:00Z,KVOA 041025Z AUTO 14009G15KT 110V170 4SM BR FEW020 BKN080 24/24 A2992 RMK A01
KVOK,2023-04-04T09:55:00Z,KVOK 040955Z AUTO 05008KT 10SM SCT090 03/M01 A2982 RMK AO2 SLP106 T00331013
KVPC,2023-04-04T10:15:00Z,KVPC 041015Z AUTO VRB04KT 10SM OVC009 14/13 A3001 RMK AO2
KVPS,2023-04-04T10:15:00Z,KVPS 041015Z 19007KT 3SM BR OVC003 23/22 A2991 RMK AO2A VIS 3V8 SLP135 $
KVPZ,2023-04-04T09:56:00Z,KVPZ 040956Z AUTO 04008KT 10SM OVC023 08/06 A2983 RMK AO2 SLP101 T00830061
KVQQ,2023-04-04T10:15:00Z,KVQQ 041015Z AUTO 00000KT 3SM BR BKN009 14/14 A3001 RMK AO2
KVRB,2023-04-04T09:53:00Z,KVRB 040953Z 19005KT 10SM CLR 22/21 A3000 RMK AO2 SLP157 T02220206
KVSF,2023-04-04T09:54:00Z,KVSF 040954Z AUTO 00000KT 10SM OVC050 05/02 A3004 RMK AO2 SLP176 T00500022
KVTA,2023-04-04T09:54:00Z,KVTA 040954Z AUTO 00000KT 10SM OVC050 07/06 A2987 RMK AO2 SLP113 T00720061
KVTI,2023-04-04T10:15:00Z,KVTI 041015Z AUTO 08015G19KT 10SM OVC033 09/05 A2971 RMK AO2 T00900047
KVTN,2023-04-04T10:13:00Z,KVTN 041013Z AUTO 03021G29KT 10SM BKN008 OVC012 M03/M05 A2967 RMK AO2 PK WND 05029/1013 CIG 006V010 T10281050
KVTP,2023-04-04T10:15:00Z,KVTP 041015Z AUTO 24018G31KT 10SM M02/M20 A2936 RMK AO2
KVUJ,2023-04-04T10:05:00Z,KVUJ 041005Z AUTO 00000KT 10SM OVC013 14/11 A3006 RMK AO2 T01380110
KVUO,2023-04-04T09:53:00Z,KVUO 040953Z AUTO 00000KT 10SM BKN034 04/02 A3017 RMK AO2 SLP216 T00390022
KVVS,2023-04-04T10:15:00Z,KVVS 041015Z AUTO 23004KT 10SM CLR 12/05 A2995 RMK AO2 T01250055
KVVV,2023-04-04T10:15:00Z,KVVV 041015Z AUTO 36011KT 1 3/4SM -SN OVC006 M05/M06 A2988 RMK AO2
KVWU,2023-04-04T10:15:00Z,KVWU 041015Z AUTO 06006KT 10SM OVC012 M02/M04 A2999 RMK AO2
KVYS,2023-04-04T10:15:00Z,KVYS 041015Z AUTO 07015KT 10SM OVC007 08/07 A2978 RMK AO2 LTG DSNT SW AND W T00770066
KW22,2023-04-04T10:15:00Z,KW22 041015Z AUTO 16004KT 10SM SCT031 10/06 A2996 RMK AO2
KW29,2023-04-04T10:05:00Z,KW29 041005Z AUTO 17009KT 10SM CLR 14/ A2998 RMK AO2 T0138////
KW31,2023-04-04T10:15:00Z,KW31 041015Z AUTO 19003KT 10SM BKN038 OVC065 13/08 A3000 RMK AO1 T01330083
KW40,2023-04-04T10:05:00Z,KW40 041005Z AUTO 16003KT 10SM BKN039 OVC048 16/16 A3002 RMK AO2 T01640159
KW43,2023-04-04T10:15:00Z,KW43 041015Z AUTO 06007KT 1 1/2SM -SN OVC012 M02/M04 A2972 RMK AO2
KW63,2023-04-04T10:15:00Z,KW63 041015Z AUTO 00000KT 10SM OVC038 14/10 A3001 RMK AO1
KW75,2023-04-04T10:15:00Z,KW75 041015Z AUTO 12004KT 10SM OVC095 14/13 A3003 RMK AO1 T01400127
KW78,2023-04-04T10:15:00Z,KW78 041015Z AUTO 00000KT 10SM SCT027 OVC037 13/09 A3002 RMK AO1 T01250094
KW81,2023-04-04T10:15:00Z,KW81 041015Z AUTO 00000KT 10SM BKN070 14/05 A3000 RMK AO1 T01380052
KW96,2023-04-04T10:15:00Z,KW96 041015Z AUTO 00000KT 10SM SCT017 OVC055 14/13 A3001 RMK AO1 T01430130
KWAL,2023-04-04T09:54:00Z,KWAL 040954Z AUTO 20009KT 10SM OVC090 13/12 A3005 RMK AO2 SLP171 T01330117
KWDG,2023-04-04T10:15:00Z,KWDG 041015Z AUTO 18011KT 7SM CLR 19/18 A2941 RMK AO2
KWDR,2023-04-04T10:15:00Z,KWDR 041015Z AUTO 00000KT 10SM OVC009 13/10 A3004 RMK AO2
KWJF,2023-04-04T09:56:00Z,KWJF 040956Z AUTO 31006KT 10SM SCT055 BKN070 04/M06 A3004 RMK AO2 SLP180 T00441056
KWLD,2023-04-04T09:54:00Z,KWLD 040954Z AUTO 17016G23KT 10SM CLR 22/18 A2942 RMK AO2 PK WND 17030/0855 SLP948 T02170178
KWMC,2023-04-04T09:56:00Z,KWMC 040956Z AUTO 29004KT 10SM SCT036 BKN044 OVC055 M03/M07 A2991 RMK AO2 SLP146 T10281072
KWRB,2023-04-04T09:58:00Z,KWRB 040958Z 00000KT 1/4SM R15/1600V1800FT FG VV000 17/17 A2999 RMK AO2A SLP157
KWRI,2023-04-04T09:55:00Z,KWRI 040955Z AUTO 00000KT 10SM CLR 10/09 A2999 RMK AO2 SLP155 T00950093 $
KWRL,2023-04-04T10:25:00Z,KWRL 041025Z AUTO 33005KT 3SM -SN BR OVC004 M02/M03 A2961 RMK AO2 P0000 T10221028
KWST,2023-04-04T10:21:00Z,KWST 041021Z AUTO 05003KT 9SM BKN012 07/06 A3006 RMK AO2 T00670061
KWVI,2023-04-04T09:53:00Z,KWVI 040953Z AUTO 00000KT 10SM CLR 03/01 A3020 RMK AO2 SLP225 T00330006
KWVL,2023-04-04T09:56:00Z,KWVL 040956Z AUTO 22005KT 10SM CLR 02/00 A3000 RMK AO2 SLP188 T00170000 FZRANO
KWWD,2023-04-04T09:56:00Z,KWWD 040956Z AUTO 19008KT 10SM CLR 12/11 A3003 RMK AO2 SLP170 T01170111 $
KWWR,2023-04-04T10:15:00Z,KWWR 041015Z AUTO 20014KT 10SM CLR 17/M10 A2942 RMK AO2
KX07,2023-04-04T10:15:00Z,KX07 041015Z AUTO 00000KT 10SM BKN050 BKN060 17/17 A3001 RMK A01
KX26,2023-04-04T10:15:00Z,KX26 041015Z AUTO 21003KT 10SM 21/20 A3001 RMK AO2 TSNO T02070196
KX60,2023-04-04T10:15:00Z,KX60 041015Z AUTO 00000KT 2 1/2SM BR OVC002 15/15 A3001 RMK AO2 VIS 1 1/2V5 T01500148
KXER,2023-04-04T10:15:00Z,KXER 041015Z AUTO 16016KT 5SM BR CLR 24/23 A2985 RMK A01
KXLL,2023-04-04T10:15:00Z,KXLL 041015Z AUTO 00000KT 10SM CLR 07/06 A2999 RMK AO2
KXMR,2023-04-04T09:55:00Z,KXMR 040955Z AUTO 27005KT 10SM CLR 21/20 A2996 RMK AO2 SLP148 T02110197 $
KXNA,2023-04-04T09:53:00Z,KXNA 040953Z AUTO 18014KT 10SM CLR 22/18 A2958 RMK AO2 SLP000 T02170178
KXNO,2023-04-04T10:20:00Z,KXNO 041020Z AUTO 00000KT 1/2SM FG CLR 14/14 A3003 RMK AO2 SLP170 RVRNO $
KXNX,2023-04-04T10:15:00Z,KXNX 041015Z AUTO 00000KT 10SM OVC009 16/15 A2991 RMK A01
KXSA,2023-04-04T10:15:00Z,KXSA 041015Z AUTO 00000KT 10SM BKN060 OVC090 14/14 A3002 RMK AO2 T01410141
KXVG,2023-04-04T10:13:00Z,KXVG 041013Z AUTO 08006KT 10SM OVC008 M02/M03 A2994 RMK AO2
KXWA,2023-04-04T09:51:00Z,KXWA 040951Z AUTO 05007KT 6SM -SN BR OVC043 M10/M12 A2996 RMK AO2 SLP196 P0000 T11001117 $
KY19,2023-04-04T10:15:00Z,KY19 041015Z AUTO 02010KT 10SM -SN OVC008 M10/M10 A2996 RMK AO2
KY23,2023-04-04T10:15:00Z,KY23 041015Z AUTO 05004KT 10SM SCT090 01/00 A2990 RMK AO2 T00051005
KY31,2023-04-04T10:15:00Z,KY31 041015Z AUTO 34003KT 10SM BKN120 03/M01 A2997 RMK AO2 T00261010
KY49,2023-04-04T10:15:00Z,KY49 041015Z AUTO 06005KT 10SM OVC005 M02/M02 A2994 RMK AO2 T10161016
KY50,2023-04-04T09:56:00Z,KY50 040956Z AUTO 06008G17KT 10SM BKN012 OVC095 01/M01 A2990 RMK AO2 SLP126 T00111011 FZRANO $
KY51,2023-04-04T10:15:00Z,KY51 041015Z AUTO 09008KT 10SM OVC060 05/01 A2980 RMK AO1 T00500011
KY63,2023-04-04T10:15:00Z,KY63 041015Z AUTO 01006KT 4SM BR OVC004 M03/M03 A2992 RMK AO2 T10291029
KY70,2023-04-04T10:15:00Z,KY70 041015Z AUTO 07007KT 10SM -DZ OVC004 06/06 A2991 RMK AO2 T00600060
KYIP,2023-04-04T09:53:00Z,KYIP 040953Z 04007KT 8SM OVC006 08/06 A2992 RMK AO2 SLP132 T00780061
KYKM,2023-04-04T09:53:00Z,KYKM 040953Z AUTO 27006KT 10SM CLR M02/M07 A2999 RMK AO2 SLP161 T10171072
KYKN,2023-04-04T09:56:00Z,KYKN 040956Z AUTO 03012KT 10SM SCT013 OVC060 01/M02 A2970 RMK AO2 SLP079 T00061017 FZRANO
KYNG,2023-04-04T09:51:00Z,KYNG 040951Z 09004KT 10SM FEW080 SCT250 06/02 A2989 RMK AO2 SLP121 T00610022
KZER,2023-04-04T10:15:00Z,KZER 041015Z AUTO 13007KT 10SM CLR 07/06 A2996 RMK AO2
KZPH,2023-04-04T10:15:00Z,KZPH 041015Z AUTO 00000KT 5SM BR CLR 16/16 A3002 RMK A02 T01610158
KZZV,2023-04-04T09:53:00Z,KZZV 040953Z AUTO 14005KT 10SM BKN033 09/04 A2988 RMK AO2 SLP118 T00890039
LATI,2023-04-04T10:20:00Z,LATI 041020Z 28007KT 250V320 9999 SCT062 OVC140 15/04 Q1003 NOSIG
LBBG,2023-04-04T10:00:00Z,LBBG 041000Z 04008KT 9999 BKN015 13/10 Q1004 NOSIG
LBGO,2023-04-04T10:00:00Z,LBGO 041000Z AUTO 09010KT 9999 -RA SCT013/// OVC015/// 07/07 Q1006 NOSIG
LBIA,2023-04-04T10:00:00Z,LBIA 041000Z 07012KT 8000 -RA BKN009 OVC027 12/11 Q1004
LBPD,2023-04-04T10:00:00Z,LBPD 041000Z AUTO 08008KT 050V110 9999 FEW010/// BKN012/// BKN028/// 13/12 Q1003 NOSIG
LBPG,2023-04-04T10:00:00Z,LBPG 041000Z 11008KT 9999 BKN011 OVC018 12/10 Q1003
LBPL,2023-04-04T10:00:00Z,LBPL 041000Z 04012KT 9999 BKN010 OVC017 05/03 Q1007
LBSF,2023-04-04T10:00:00Z,LBSF 041000Z 27016KT 9999 -RA BKN020 OVC030 04/01 Q1005 TEMPO 5000 RA
LBWB,2023-04-04T10:00:00Z,LBWB 041000Z 05014KT 5000 BR OVC010 10/09 Q1004
LBWN,2023-04-04T10:00:00Z,LBWN 041000Z 08007KT 020V100 9999 SCT012 OVC025 12/09 Q1004 NOSIG
LCEN,2023-04-04T09:50:00Z,LCEN 040950Z 16011KT 130V190 CAVOK 28/07 Q1008 NOSIG RMK NOSIG RWY11 17008KT
LCLK,2023-04-04T10:00:00Z,LCLK 041000Z 10008KT CAVOK 24/15 Q1009 NOSIG
LCPH,2023-04-04T10:00:00Z,LCPH 041000Z 15012KT CAVOK 23/12 Q1008 NOSIG
LCRA,2023-04-04T10:20:00Z,LCRA 041020Z 14007KT CAVOK 24/12 Q1009 NOSIG
LDDU,2023-04-04T10:00:00Z,LDDU 041000Z 05016G26KT 350V120 CAVOK 12/M05 Q1005 WS R11 BECMG 02020G30KT
LDOS,2023-04-04T10:00:00Z,LDOS 041000Z 34017KT CAVOK 04/M04 Q1016
LDPL,2023-04-04T10:00:00Z,LDPL 041000Z 08017KT 030V100 CAVOK 08/M08 Q1015 NOSIG
LDRI,2023-04-04T10:00:00Z,LDRI 041000Z 01014KT 9999 FEW040 07/M11 Q1015
LDSP,2023-04-04T10:00:00Z,LDSP 041000Z 04021KT CAVOK 10/M06 Q1010 TEMPO 05020G30KT
LDZA,2023-04-04T10:00:00Z,LDZA 041000Z 03019KT 340V070 CAVOK 05/M08 Q1019 NOSIG
LDZD,2023-04-04T10:00:00Z,LDZD 041000Z 04022G33KT 010V070 CAVOK 08/M07 Q1012 BECMG 04015KT
LEAB,2023-04-04T10:00:00Z,LEAB 041000Z VRB04KT CAVOK 15/05 Q1014 NOSIG
LEAG,2023-04-04T10:00:00Z,LEAG 041000Z AUTO 08013KT 9999 SCT017 BKN020 BKN024 16/12 Q1012
LEAL,2023-04-04T10:00:00Z,LEAL 041000Z 08007KT 040V150 CAVOK 17/07 Q1014 NOSIG
LEAM,2023-04-04T10:00:00Z,LEAM 041000Z 09011KT CAVOK 20/09 Q1013
LEAO,2023-04-04T10:00:00Z,LEAO 041000Z 08008KT 020V130 CAVOK 16/01 Q1013
LEAS,2023-04-04T10:00:00Z,LEAS 041000Z 09011KT 050V140 9999 SCT020 SCT035 13/08 Q1021 NOSIG
LEBA,2023-04-04T10:00:00Z,LEBA 041000Z VRB04KT CAVOK 19/05 Q1012
LEBB,2023-04-04T10:00:00Z,LEBB 041000Z 35007KT 320V020 9999 BKN042 13/05 Q1022 NOSIG
LEBG,2023-04-04T10:00:00Z,LEBG 041000Z 04013KT 360V070 9999 FEW025 09/M00 Q1019
LEBL,2023-04-04T10:00:00Z,LEBL 041000Z 11010KT 070V140 9999 FEW030 14/06 Q1015 NOSIG
LEBR,2023-04-04T10:00:00Z,LEBR 041000Z AUTO 31014KT 280V340 9999 NCD 14/01 Q1017
LEBT,2023-04-04T10:00:00Z,LEBT 041000Z AUTO 08005KT 360V150 CAVOK 19/02 Q1014
LEBZ,2023-04-04T10:00:00Z,LEBZ 041000Z 07008KT 040V100 CAVOK 20/03 Q1012
LECH,2023-04-04T10:00:00Z,LECH 041000Z AUTO VRB02KT CAVOK 16/M02 Q1014
LECO,2023-04-04T10:00:00Z,LECO 041000Z VRB02KT CAVOK 14/06 Q1019 NOSIG
LECV,2023-04-04T10:00:00Z,LECV 041000Z VRB05KT CAVOK 15/M15 Q1015
LEDA,2023-04-04T10:00:00Z,LEDA 041000Z 22005KT 170V270 CAVOK 11/05 Q1015
LEEC,2023-04-04T10:00:00Z,LEEC 041000Z 02005KT CAVOK 17/06 Q1012
LEGA,2023-04-04T10:00:00Z,LEGA 041000Z VRB02KT CAVOK 17/M01 Q1013
LEGE,2023-04-04T10:00:00Z,LEGE 041000Z 04006KT 350V110 9999 FEW050 15/02 Q1014
LEGR,2023-04-04T10:00:00Z,LEGR 041000Z VRB03KT CAVOK 16/03 Q1013
LEGT,2023-04-04T10:00:00Z,LEGT 041000Z 03012KT 010V070 CAVOK 15/M05 Q1015
LEHC,2023-04-04T10:00:00Z,LEHC 041000Z 27010KT 230V300 CAVOK 12/02 Q1015
LEIB,2023-04-04T10:00:00Z,LEIB 041000Z 22006KT 180V280 9999 FEW020 SCT030 17/09 Q1015 NOSIG
LELC,2023-04-04T10:00:00Z,LELC 041000Z 05005KT 360V100 9999 FEW025 18/12 Q1014 NOSIG
LELL,2023-04-04T10:00:00Z,LELL 041000Z 12008KT 070V160 9999 SCT025 SCT036 15/07 Q1015
LELN,2023-04-04T10:00:00Z,LELN 041000Z 17003KT 120V280 CAVOK 11/M07 Q1018
LELO,2023-04-04T10:00:00Z,LELO 041000Z 28009KT 240V350 CAVOK 13/00 Q1019
LEMD,2023-04-04T10:00:00Z,LEMD 041000Z 04008KT 340V100 CAVOK 15/M07 Q1015 NOSIG
LEMG,2023-04-04T10:00:00Z,LEMG 041000Z 11005KT 9999 FEW010 17/11 Q1013 NOSIG
LEMH,2023-04-04T10:00:00Z,LEMH 041000Z 36006KT 9999 -SHRA VCTS FEW012 FEW026CB BKN030 10/09 Q1015
LEMI,2023-04-04T10:00:00Z,LEMI 041000Z 10003KT 040V150 9999 SCT022 15/09 Q1014
LEPA,2023-04-04T10:00:00Z,LEPA 041000Z 24012KT 210V280 9999 SCT025 SCT030CB 17/10 Q1014 NOSIG
LEPP,2023-04-04T10:00:00Z,LEPP 041000Z 33017KT 9999 FEW032 10/00 Q1019
LERI,2023-04-04T10:00:00Z,LERI 041000Z VRB02KT 9999 FEW025 16/07 Q1014 NOSIG
LERS,2023-04-04T10:00:00Z,LERS 041000Z VRB03KT 9999 FEW030 17/04 Q1014
LERT,2023-04-04T10:00:00Z,LERT 041000Z 13010KT 090V150 CAVOK 17/10 Q1011 NOSIG
LESA,2023-04-04T10:00:00Z,LESA 041000Z 06011KT 030V090 CAVOK 09/01 Q1017
LESB,2023-04-04T10:00:00Z,LESB 041000Z AUTO 22012KT 190V250 9999 FEW027/// SCT041/// BKN047/// 16/09 Q1015
LESO,2023-04-04T10:00:00Z,LESO 041000Z 03004KT 340V090 9999 FEW020 BKN030 11/06 Q1022
LEST,2023-04-04T10:00:00Z,LEST 041000Z 11007KT 070V150 CAVOK 12/05 Q1018 NOSIG
LETL,2023-04-04T10:00:00Z,LETL 041000Z AUTO 33008KT 300V010 CAVOK 10/M01 Q1016
LETO,2023-04-04T10:00:00Z,LETO 041000Z 05014KT 020V080 CAVOK 14/M07 Q1015 NOSIG
LETU,2023-04-04T10:00:00Z,LETU 041000Z AUTO 33014KT 300V360 9999 NCD 14/02 Q1017
LEVC,2023-04-04T10:00:00Z,LEVC 041000Z 09006KT 340V140 9999 FEW020 16/01 Q1014 NOSIG
LEVD,2023-04-04T10:00:00Z,LEVD 041000Z 07015KT 040V100 CAVOK 10/M00 Q1018
LEVS,2023-04-04T10:00:00Z,LEVS 041000Z 06006KT 010V120 CAVOK 14/M05 Q1015
LEVT,2023-04-04T10:00:00Z,LEVT 041000Z 04012KT 010V080 9999 FEW030 10/03 Q1020
LEVX,2023-04-04T10:00:00Z,LEVX 041000Z 18005KT 150V230 CAVOK 13/07 Q1016 NOSIG
LEXJ,2023-04-04T10:00:00Z,LEXJ 041000Z 05006KT 360V120 9999 FEW024 13/07 Q1022
LEZG,2023-04-04T10:00:00Z,LEZG 041000Z 29018KT CAVOK 14/03 Q1016
LEZL,2023-04-04T10:00:00Z,LEZL 041000Z 01005KT 340V050 CAVOK 19/06 Q1012 NOSIG
LFAC,2023-04-04T10:00:00Z,LFAC 041000Z AUTO 11006KT 070V150 CAVOK 08/M01 Q1029
LFAQ,2023-04-04T10:00:00Z,LFAQ 041000Z AUTO 05011KT CAVOK 07/M02 Q1027 NOSIG
LFAT,2023-04-04T10:00:00Z,LFAT 041000Z AUTO 07006KT 360V150 CAVOK 09/M02 Q1028 NOSIG
LFBA,2023-04-04T10:00:00Z,LFBA 041000Z AUTO 29007KT 250V350 CAVOK 10/03 Q1020 NOSIG
LFBC,2023-04-04T10:00:00Z,LFBC 041000Z AUTO 36008KT CAVOK 11/01 Q1021 NOSIG
LFBD,2023-04-04T10:00:00Z,LFBD 041000Z AUTO 03010KT CAVOK 10/01 Q1021 NOSIG
LFBE,2023-04-04T10:00:00Z,LFBE 041000Z AUTO 36007KT 320V050 CAVOK 10/01 Q1020 NOSIG
LFBF,2023-04-04T10:00:00Z,LFBF 041000Z AUTO 30013KT CAVOK 10/04 Q1019
LFBG,2023-04-04T10:00:00Z,LFBG 041000Z AUTO 03013KT 360V070 CAVOK 10/M01 Q1022 NOSIG
LFBH,2023-04-04T10:00:00Z,LFBH 041000Z AUTO 04014KT CAVOK 09/01 Q1023 NOSIG
LFBI,2023-04-04T10:00:00Z,LFBI 041000Z AUTO 03013KT CAVOK 09/00 Q1023 NOSIG
LFBL,2023-04-04T10:00:00Z,LFBL 041000Z AUTO 06014KT 020V080 9999 NCD 08/M03 Q1020 NOSIG
LFBM,2023-04-04T10:00:00Z,LFBM 041000Z AUTO 23004KT 150V310 9999 FEW029 10/03 Q1020 NOSIG
LFBO,2023-04-04T10:00:00Z,LFBO 041000Z AUTO 29013KT 260V330 CAVOK 10/03 Q1019 NOSIG
LFBP,2023-04-04T10:00:00Z,LFBP 041000Z AUTO 29008KT 240V320 9999 BKN016 10/06 Q1020 NOSIG
LFBT,2023-04-04T10:00:00Z,LFBT 041000Z AUTO 29010KT 9999 OVC010 09/06 Q1019 BECMG SCT025
LFBU,2023-04-04T10:00:00Z,LFBU 041000Z AUTO 04016KT CAVOK 09/M01 Q1021 TEMPO 03010G20KT
LFBX,2023-04-04T10:00:00Z,LFBX 041000Z AUTO 35006KT 310V040 CAVOK 10/M01 Q1020
LFBY,2023-04-04T10:00:00Z,LFBY 041000Z AUTO 28005KT 210V340 9999 // ////// 10/03 Q1021
LFBZ,2023-04-04T10:00:00Z,LFBZ 041000Z AUTO 31006KT 280V030 9999 BKN026 10/04 Q1021 NOSIG
LFCK,2023-04-04T10:00:00Z,LFCK 041000Z AUTO 28011KT 9999 BKN025 09/02 Q1019 NOSIG
LFCR,2023-04-04T10:00:00Z,LFCR 041000Z AUTO VRB06KT CAVOK 07/M04 Q1017 TEMPO FEW045TCU
LFGA,2023-04-04T10:00:00Z,LFGA 041000Z AUTO 02010KT 340V040 CAVOK 06/M05 Q1024
LFGJ,2023-04-04T10:00:00Z,LFGJ 041000Z AUTO 02020KT CAVOK 07/M03 Q1020 NOSIG
LFHP,2023-04-04T10:00:00Z,LFHP 041000Z AUTO 28008KT 210V320 9999 SCT023 02/M02 Q1016
LFJL,2023-04-04T10:00:00Z,LFJL 041000Z AUTO 08011KT 040V110 CAVOK 05/M05 Q1025 NOSIG
LFJR,2023-04-04T10:00:00Z,LFJR 041000Z AUTO 04010KT 360V080 CAVOK 09/M02 Q1025
LFKB,2023-04-04T10:00:00Z,LFKB 041000Z AUTO 35008KT 310V030 CAVOK 11/M00 Q1014 NOSIG
LFKC,2023-04-04T10:00:00Z,LFKC 041000Z AUTO 12004KT 090V160 9999 FEW044/// BKN086/// BKN130/// ///TCU 13/M00 Q1012 TEMPO 03015G27KT FEW030CB SCT040 BKN080
LFKF,2023-04-04T10:00:00Z,LFKF 041000Z AUTO 06015G26KT 030V090 9999 BKN054/// BKN082/// ///CB 15/01 Q1011 TEMPO TSRA
LFKJ,2023-04-04T10:00:00Z,LFKJ 041000Z AUTO 03009KT 8000 -RA OVC046/// ///CB 09/08 Q1012 TEMPO VRB15G25KT 4000 TSRA BKN014 SCT030CB BKN060
LFKS,2023-04-04T10:00:00Z,LFKS 041000Z AUTO 03014KT CAVOK 13/M03 Q1013
LFLB,2023-04-04T10:00:00Z,LFLB 041000Z AUTO 01011KT 9999 BKN039 08/M00 Q1018 NOSIG
LFLC,2023-04-04T10:00:00Z,LFLC 041000Z AUTO 36010KT 310V050 CAVOK 06/M01 Q1020 NOSIG
LFLH,2023-04-04T10:00:00Z,LFLH 041000Z AUTO 03013KT 360V070 CAVOK 07/M03 Q1021
LFLL,2023-04-04T10:00:00Z,LFLL 041000Z 34009KT 310V020 9999 FEW026 06/M02 Q1019 NOSIG
LFLN,2023-04-04T10:00:00Z,LFLN 041000Z AUTO 06012KT CAVOK 08/M03 Q1020 NOSIG
LFLP,2023-04-04T10:00:00Z,LFLP 041000Z AUTO 04009KT 360V080 9999 FEW032 06/M00 Q1017 BECMG 02015G27KT
LFLS,2023-04-04T10:00:00Z,LFLS 041000Z AUTO 33009KT 300V020 9999 SCT025 BKN030 06/00 Q1018 NOSIG
LFLU,2023-04-04T10:00:00Z,LFLU 041000Z AUTO 36017KT CAVOK 08/M00 Q1018
LFLV,2023-04-04T10:00:00Z,LFLV 041000Z AUTO 02009KT 340V050 CAVOK 06/M02 Q1021
LFLW,2023-04-04T10:00:00Z,LFLW 041000Z AUTO 29003KT 230V360 CAVOK 07/M01 Q1017 NOSIG
LFLX,2023-04-04T10:00:00Z,LFLX 041000Z AUTO 05014KT CAVOK 07/M01 Q1023 NOSIG
LFLY,2023-04-04T10:00:00Z,LFLY 041000Z AUTO 33013KT CAVOK 07/M00 Q1019 NOSIG
LFMC,2023-04-04T10:00:00Z,LFMC 041000Z AUTO 11006KT 060V150 9999 ////// 14/05 Q1013
LFMD,2023-04-04T10:00:00Z,LFMD 041000Z AUTO 12006KT 080V170 9999 OVC066 14/03 Q1013 TEMPO FEW050CB
LFMH,2023-04-04T10:00:00Z,LFMH 041000Z AUTO 35009KT 310V020 9999 SCT030 05/M02 Q1019
LFMI,2023-04-04T10:00:00Z,LFMI 041000Z AUTO 35011KT 9999 SCT042 BKN066 BKN078 10/00 Q1015 TEMPO SHRA SCT030TCU BKN040
LFMK,2023-04-04T10:00:00Z,LFMK 041000Z AUTO 29014KT 250V310 9999 BKN025 12/05 Q1018 TEMPO 29015G25KT
LFML,2023-04-04T10:00:00Z,LFML 041000Z AUTO 31008KT 9999 FEW039 BKN046 OVC074 11/02 Q1014 TEMPO 4000 SHRA SCT030TCU
LFMN,2023-04-04T10:00:00Z,LFMN 041000Z 11022KT 9999 FEW066 BKN100 14/03 Q1013 NOSIG
LFMO,2023-04-04T10:00:00Z,LFMO 041000Z AUTO 35019KT 9999 OVC056 10/00 Q1015 BECMG 35020G30KT
LFMP,2023-04-04T10:00:00Z,LFMP 041000Z AUTO 30015KT 270V340 9999 FEW047 16/03 Q1015 BECMG 32018G28KT
LFMU,2023-04-04T10:00:00Z,LFMU 041000Z AUTO 32006KT 270V020 CAVOK 14/M02 Q1016 NOSIG
LFMV,2023-04-04T10:00:00Z,LFMV 041000Z AUTO 17005KT 130V220 9999 OVC062 10/01 Q1015 BECMG 35020G30KT
LFMY,2023-04-04T10:00:00Z,LFMY 041000Z AUTO 34011KT 9999 BKN040 OVC047 10/01 Q1015 TEMPO SCT060TCU
LFOA,2023-04-04T10:00:00Z,LFOA 041000Z AUTO 04012KT 010V070 CAVOK 07/M02 Q1023 NOSIG
LFOB,2023-04-04T10:00:00Z,LFOB 041000Z AUTO 05007KT 350V110 CAVOK 07/M01 Q1027 NOSIG
LFOE,2023-04-04T10:00:00Z,LFOE 041000Z AUTO 05009KT 020V080 CAVOK 08/M01 Q1026 NOSIG
LFOH,2023-04-04T10:00:00Z,LFOH 041000Z AUTO 07006KT 020V120 CAVOK 10/M00 Q1027 NOSIG
LFOJ,2023-04-04T10:00:00Z,LFOJ 041000Z AUTO 04016KT CAVOK 08/M01 Q1025 TEMPO 04015G25KT
LFOK,2023-04-04T10:00:00Z,LFOK 041000Z AUTO 05012KT CAVOK 05/M01 Q1026 NOSIG
LFOP,2023-04-04T10:00:00Z,LFOP 041000Z AUTO 04010KT CAVOK 07/M01 Q1026 NOSIG
LFOT,2023-04-04T10:00:00Z,LFOT 041000Z AUTO 04010KT 360V080 CAVOK 08/M02 Q1025 NOSIG
LFOV,2023-04-04T10:00:00Z,LFOV 041000Z AUTO 05011KT 020V100 CAVOK 09/01 Q1025
LFOZ,2023-04-04T10:00:00Z,LFOZ 041000Z AUTO 06012KT 020V090 CAVOK 08/M02 Q1025
LFPB,2023-04-04T10:00:00Z,LFPB 041000Z AUTO 02007KT 310V100 CAVOK 08/M02 Q1027 NOSIG
LFPG,2023-04-04T10:00:00Z,LFPG 041000Z 05010G23KT 360V130 CAVOK 08/M03 Q1026 NOSIG
LFPM,2023-04-04T10:00:00Z,LFPM 041000Z AUTO 03008KT 360V090 CAVOK 08/M01 Q1026
LFPN,2023-04-04T10:00:00Z,LFPN 041000Z AUTO 02011KT 360V060 CAVOK 08/M04 Q1026 NOSIG
LFPO,2023-04-04T10:00:00Z,LFPO 041000Z 07012KT CAVOK 08/M03 Q1026 NOSIG
LFPT,2023-04-04T10:00:00Z,LFPT 041000Z AUTO VRB06KT CAVOK 08/M01 Q1027
LFPV,2023-04-04T10:00:00Z,LFPV 041000Z AUTO 04011KT 350V080 CAVOK 07/M04 Q1026 NOSIG
LFQA,2023-04-04T10:00:00Z,LFQA 041000Z AUTO 06009KT 020V080 CAVOK 06/M02 Q1026
LFQB,2023-04-04T10:00:00Z,LFQB 041000Z AUTO 05011KT 010V090 CAVOK 06/M02 Q1025
LFQG,2023-04-04T10:00:00Z,LFQG 041000Z AUTO 02007KT 340V080 CAVOK 08/M02 Q1022
LFQQ,2023-04-04T10:00:00Z,LFQQ 041000Z AUTO 06009KT 360V120 CAVOK 07/M04 Q1028 NOSIG
LFRB,2023-04-04T10:00:00Z,LFRB 041000Z AUTO 22003KT 190V310 CAVOK 12/01 Q1026 NOSIG
LFRC,2023-04-04T10:00:00Z,LFRC 041000Z AUTO 09008KT CAVOK 10/03 Q1027 NOSIG
LFRD,2023-04-04T10:00:00Z,LFRD 041000Z AUTO 10005KT 050V200 CAVOK 11/02 Q1026 NOSIG
LFRG,2023-04-04T10:00:00Z,LFRG 041000Z AUTO 09009KT 060V120 CAVOK 09/M02 Q1027 NOSIG
LFRH,2023-04-04T10:00:00Z,LFRH 041000Z AUTO 09011KT CAVOK 11/03 Q1025 NOSIG
LFRI,2023-04-04T10:00:00Z,LFRI 041000Z AUTO 05012KT 020V080 CAVOK 09/00 Q1024 NOSIG
LFRJ,2023-04-04T10:00:00Z,LFRJ 041000Z AUTO 11003KT 060V230 CAVOK 12/02 Q1026 NOSIG
LFRK,2023-04-04T10:00:00Z,LFRK 041000Z AUTO 11005KT 030V150 CAVOK 09/M00 Q1027 NOSIG
LFRL,2023-04-04T10:00:00Z,LFRL 041000Z AUTO 01003KT 340V090 CAVOK 12/06 Q1026 NOSIG
LFRM,2023-04-04T10:00:00Z,LFRM 041000Z AUTO 06012KT 020V080 CAVOK 09/M03 Q1026 NOSIG
LFRN,2023-04-04T10:00:00Z,LFRN 041000Z AUTO 07008KT 030V110 CAVOK 11/01 Q1026 NOSIG
LFRO,2023-04-04T10:00:00Z,LFRO 041000Z AUTO 09006KT 050V150 CAVOK 11/03 Q1026
LFRQ,2023-04-04T10:00:00Z,LFRQ 041000Z AUTO 11006KT 070V160 CAVOK 12/03 Q1026 NOSIG
LFRS,2023-04-04T10:00:00Z,LFRS 041000Z AUTO 05013KT 010V070 CAVOK 10/M01 Q1025 NOSIG
LFRT,2023-04-04T10:00:00Z,LFRT 041000Z AUTO 10005KT 060V140 CAVOK 10/01 Q1026
LFRU,2023-04-04T10:00:00Z,LFRU 041000Z AUTO VRB03KT CAVOK 12/04 Q1026
LFRV,2023-04-04T10:00:00Z,LFRV 041000Z AUTO 07007KT 030V100 CAVOK 10/02 Q1025
LFRZ,2023-04-04T10:00:00Z,LFRZ 041000Z AUTO 04010KT 010V070 CAVOK 10/02 Q1025 NOSIG
LFSB,2023-04-04T10:00:00Z,LFSB 041000Z AUTO 35011KT 320V020 CAVOK 06/M03 Q1022 NOSIG
LFSD,2023-04-04T10:00:00Z,LFSD 041000Z AUTO 02013KT 330V040 CAVOK 07/M04 Q1021
LFSG,2023-04-04T10:00:00Z,LFSG 041000Z AUTO 05015KT CAVOK 05/M03 Q1023
LFSI,2023-04-04T10:00:00Z,LFSI 041000Z AUTO 07013KT CAVOK 06/M06 Q1025
LFSL,2023-04-04T10:00:00Z,LFSL 041000Z AUTO 32006KT 280V010 CAVOK 09/M02 Q1019 NOSIG
LFSM,2023-04-04T10:00:00Z,LFSM 041000Z AUTO 06013KT 020V100 CAVOK 06/M04 Q1022
LFSN,2023-04-04T10:00:00Z,LFSN 041000Z AUTO 07013KT 030V100 CAVOK 05/M02 Q1025
LFSO,2023-04-04T10:00:00Z,LFSO 041000Z AUTO 05011KT 030V110 CAVOK 05/M05 Q1024 NOSIG
LFST,2023-04-04T10:00:00Z,LFST 041000Z AUTO 04010KT 010V070 CAVOK 07/M04 Q1025 NOSIG
LFSX,2023-04-04T10:00:00Z,LFSX 041000Z AUTO 25004KT 190V300 CAVOK 07/M02 Q1021
LFTH,2023-04-04T10:00:00Z,LFTH 041000Z AUTO 10011KT 9999 FEW037 BKN060 BKN076 13/09 Q1014 TEMPO 4000 TSRA SCT030CB
LFTW,2023-04-04T10:00:00Z,LFTW 041000Z AUTO 36014G24KT 330V050 CAVOK 12/M00 Q1015 NOSIG
LFVP,2023-04-04T10:00:00Z,LFVP 041000Z AUTO 24015KT 9999 SCT006 SCT012 BKN054 M00/M00 Q1019 TEMPO 0800 SN FG BECMG BKN003
LFYR,2023-04-04T10:00:00Z,LFYR 041000Z AUTO 05011KT 010V090 CAVOK 09/M03 Q1024 NOSIG
LGAD,2023-04-04T10:20:00Z,LGAD 041020Z 35005KT 9999 SCT020 16/10 Q1003
LGAL,2023-04-04T10:20:00Z,LGAL 041020Z 07004KT 9999 FEW025 SCT035 17/08 Q1002
LGAV,2023-04-04T10:20:00Z,LGAV 041020Z 30005KT 230V060 9999 FEW018TCU BKN030 18/09 Q1001 NOSIG
LGBL,2023-04-04T10:20:00Z,LGBL 041020Z 31012KT 9999 FEW012 SCT030 15/09 Q1002
LGEL,2023-04-04T10:20:00Z,LGEL 041020Z 33007KT 9999 FEW018TCU BKN025 15/09 Q1001
LGHI,2023-04-04T09:50:00Z,LGHI 040950Z VRB02KT 6000 -RA FEW008 FEW018TCU BKN025 14/13 Q1001
LGIO,2023-04-04T10:20:00Z,LGIO 041020Z VRB03KT 9999 SCT020 SCT040 12/07 Q1003
LGIR,2023-04-04T10:20:00Z,LGIR 041020Z 18018G28KT 9999 FEW012 SCT025 18/11 Q1003 NOSIG
LGKC,2023-04-04T09:50:00Z,LGKC 040950Z 26014KT 9999 FEW010 SCT018 14/12 Q1002
LGKF,2023-04-04T09:50:00Z,LGKF 040950Z 27006KT 9999 FEW012 FEW018TCU SCT020 15/13 Q1003
LGKL,2023-04-04T10:20:00Z,LGKL 041020Z 13006KT 9999 SCT030 BKN045 17/10 Q1003
LGKO,2023-04-04T10:20:00Z,LGKO 041020Z 19019KT 9999 FEW015 17/12 Q1003
LGKP,2023-04-04T10:20:00Z,LGKP 041020Z 21019KT 9999 SCT020 20/13 Q1005
LGKR,2023-04-04T10:20:00Z,LGKR 041020Z 32006KT 9999 FEW018 SCT030 BKN080 15/10 Q1003 NOSIG
LGKV,2023-04-04T10:20:00Z,LGKV 041020Z 00000KT 7000 RA FEW012 FEW016TCU BKN025 OVC080 12/11 Q1002
LGKZ,2023-04-04T09:50:00Z,LGKZ 040950Z 34012KT 9999 SCT020 BKN070 09/03 Q1003
LGLM,2023-04-04T10:20:00Z,LGLM 041020Z 08006KT 9999 FEW010 BKN025 15/12 Q1001
LGMK,2023-04-04T10:20:00Z,LGMK 041020Z /////KT 9999 FEW012 FEW018TCU SCT020 16/11 Q1001
LGMT,2023-04-04T10:20:00Z,LGMT 041020Z 12007KT 8000 -RA FEW011 FEW018TCU BKN025 14/13 Q1003 RERA
LGNX,2023-04-04T09:50:00Z,LGNX 040950Z 21013KT 9999 FEW018 SCT030 15/13 Q1001
LGPA,2023-04-04T09:50:00Z,LGPA 040950Z 21008KT 9999 FEW018 SCT030 15/12 Q1002
LGPZ,2023-04-04T10:20:00Z,LGPZ 041020Z 26008KT 9999 FEW018 17/10 Q1003
LGRP,2023-04-04T10:20:00Z,LGRP 041020Z 21006KT 160V270 9999 BKN018 21/12 Q1004 NOSIG
LGRX,2023-04-04T10:20:00Z,LGRX 041020Z 28004KT 9999 FEW020 16/09 Q1003
LGSA,2023-04-04T10:20:00Z,LGSA 041020Z 27020G30KT 9999 FEW018 BKN025 17/11 Q1002
LGSK,2023-04-04T10:20:00Z,LGSK 041020Z 29009KT 9999 FEW010 BKN025 14/11 Q1001
LGSM,2023-04-04T09:50:00Z,LGSM 040950Z 18013KT 9999 FEW020TCU SCT025 17/14 Q1002
LGSO,2023-04-04T09:50:00Z,LGSO 040950Z 23012G22KT 9999 FEW016TCU SCT030 17/11 Q1001
LGSR,2023-04-04T10:20:00Z,LGSR 041020Z 20006KT 9999 SCT025 18/07 Q1003
LGTS,2023-04-04T10:20:00Z,LGTS 041020Z 31017KT 9999 FEW020 13/08 Q1002 NOSIG
LGZA,2023-04-04T10:20:00Z,LGZA 041020Z 14006KT 9999 -RA FEW015 FEW018TCU BKN020 15/13 Q1004
LHBP,2023-04-04T10:00:00Z,LHBP 041000Z 03014KT CAVOK 06/M07 Q1017 NOSIG
LHDC,2023-04-04T09:45:00Z,LHDC 040945Z AUTO 01020KT 340V050 CAVOK 04/M02 Q1015 TEMPO 4000 -SN
LHKE,2023-04-04T10:15:00Z,LHKE 041015Z 01014G24KT 350V060 9999 FEW046 SCT070 OVC200 06/M05 Q1016 NOSIG RMK BLU
LHPA,2023-04-04T09:45:00Z,LHPA 040945Z 36017KT 9999 SCT040 SCT053 BKN200 04/M06 Q1019 NOSIG RMK BLU
LHPP,2023-04-04T10:02:00Z,LHPP 041002Z AUTO 36012G23KT CAVOK 06/M05 Q1016
LHPR,2023-04-04T09:45:00Z,LHPR 040945Z AUTO 34020G32KT 300V010 9999 BKN048 05/M06 Q1019 NOSIG
LHSM,2023-04-04T09:45:00Z,LHSM 040945Z AUTO 01018KT 9999 FEW043 05/M05 Q1019 NOSIG
LHSN,2023-04-04T10:15:00Z,LHSN 041015Z 02019KT 9999 SCT033 OVC075 06/M05 Q1015 NOSIG RMK BLU
LIBA,2023-04-04T09:55:00Z,LIBA 040955Z 31016KT 9999 FEW025 SCT040 12/04 Q1009 RMK BKN BKN070 VIS MIN 9999 WIND THR11 31014KT WIND THR29 /////KT BLU
LIBC,2023-04-04T09:50:00Z,LIBC 040950Z 34014KT 9999 SCT040 12/06 Q1007
LIBD,2023-04-04T10:20:00Z,LIBD 041020Z 34006KT 290V020 9999 BKN040 10/04 Q1008
LIBF,2023-04-04T09:50:00Z,LIBF 040950Z 32020KT 9999 FEW025 SCT040 11/04 Q1009
LIBG,2023-04-04T09:50:00Z,LIBG 040950Z 34015KT 9999 SCT035 13/04 Q1007
LIBN,2023-04-04T09:55:00Z,LIBN 040955Z 32014KT 9999 SCT030 SCT035 13/06 Q1005 RMK BKN VIS MIN 9999 WIND THR14 32016KT WIND THR32 33015KT BLU
LIBP,2023-04-04T10:20:00Z,LIBP 041020Z AUTO 05012KT 020V080 9999 OVC049/// 09/01 Q1013
LIBQ,2023-04-04T09:55:00Z,LIBQ 040955Z 08005KT 040V110 0000 FZFG VV/// M01/M01 Q1006 RMK MON INVIS VAL INVIS VIS MIN 0000
LIBR,2023-04-04T10:20:00Z,LIBR 041020Z 34013KT 9999 FEW035 13/02 Q1006
LIBV,2023-04-04T09:55:00Z,LIBV 040955Z 32013KT 7000 -RA SCT010 BKN030 08/06 Q1006 RMK OVC VIS MIN 7000 WIND THR32 33014KT WIND THR14 33012KT WHT
LIBY,2023-04-04T09:55:00Z,LIBY 040955Z /////KT 9999 BKN020 12/07 Q1004 RMK BKN SCT080 QUK 1 QUL 0 VIS MAR 20 KM VIS MIN 9999
LICA,2023-04-04T10:20:00Z,LICA 041020Z AUTO 26011KT 230V290 9999 FEW083/// 17/08 Q1007
LICB,2023-04-04T10:20:00Z,LICB 041020Z AUTO 26009KT 9999 FEW033/// 17/08 Q1008
LICC,2023-04-04T10:20:00Z,LICC 041020Z 06010KT 9999 FEW025TCU SCT070 17/08 Q1008
LICD,2023-04-04T10:20:00Z,LICD 041020Z AUTO 30016KT 270V330 9999 SCT021/// 17/11 Q1012
LICF,2023-04-04T09:55:00Z,LICF 040955Z 32004KT 9999 SCT030TCU SCT035 14/10 Q1007 RMK BKN QUK 1 QUL 0 VIS MAR 20 KM MON CLD CIME ELEV RAPID VIS MIN 9999
LICG,2023-04-04T09:50:00Z,LICG 040950Z 33012KT 9999 FEW020 14/10 Q1011
LICJ,2023-04-04T10:20:00Z,LICJ 041020Z 27010KT 9999 FEW035 15/10 Q1009
LICR,2023-04-04T10:20:00Z,LICR 041020Z AUTO 04005KT 360V080 9999 FEW041/// SCT065/// BKN100/// 16/11 Q1008
LICT,2023-04-04T09:55:00Z,LICT 040955Z 31014KT 9999 SCT020 16/11 Q1009 RMK SCT VIS MIN 9999 WIND THR13 32016KT BLU
LICZ,2023-04-04T09:55:00Z,LICZ 040955Z /////KT 9999 FEW032 SCT100 17/03 Q1006 RMK BKN VIS MIN 9999 WIND THR28 25006KT WIND THR10 23008KT A2972 BLU
LIEA,2023-04-04T10:20:00Z,LIEA 041020Z 20010KT 9999 DZ SCT040 14/11 Q1011
LIEB,2023-04-04T09:55:00Z,LIEB 040955Z 07024G40KT CAVOK 14/07 Q1009 RMK SCT SCT200 QUK 3 QUL 3 NE VIS MAR 30 KM MON LIB VIS MIN 9999
LIED,2023-04-04T09:55:00Z,LIED 040955Z 24003KT 9999 FEW025 17/11 Q1011 RMK SCT VIS MIN 9999 WIND THR35 /////KT WIND THR17 29003KT BLU
LIEE,2023-04-04T10:20:00Z,LIEE 041020Z 22006KT 180V250 9999 FEW035 16/08 Q1012
LIEO,2023-04-04T10:20:00Z,LIEO 041020Z 01006KT 330V050 CAVOK 14/02 Q1013
LIMA,2023-04-04T09:50:00Z,LIMA 040950Z 01005KT 310V050 9999 BKN045 08/M04 Q1016
LIMC,2023-04-04T10:20:00Z,LIMC 041020Z 12006KT 080V190 9999 SCT060 10/M02 Q1016 NOSIG
LIME,2023-04-04T10:20:00Z,LIME 041020Z 24004KT 190V290 9999 FEW045 09/M02 Q1016 NOSIG
LIMF,2023-04-04T10:20:00Z,LIMF 041020Z VRB03G13KT 9999 FEW100 10/M05 Q1015
LIMG,2023-04-04T09:50:00Z,LIMG 040950Z 01009KT 320V070 9999 SCT040 14/M01 Q1014
LIMH,2023-04-04T09:55:00Z,LIMH 040955Z AUTO 05020KT //// M13/M28 Q1007
LIMJ,2023-04-04T10:20:00Z,LIMJ 041020Z 05012KT 010V080 9999 FEW038 14/M04 Q1014
LIMK,2023-04-04T09:55:00Z,LIMK 040955Z 33007KT CAVOK 06/M01 Q1013
LIML,2023-04-04T10:20:00Z,LIML 041020Z 09007KT 360V140 9999 FEW040 10/M02 Q1016 NOSIG
LIMN,2023-04-04T09:55:00Z,LIMN 040955Z 12008KT 9999 FEW040 10/M01 Q1015 RMK FEW VIS MIN 9999 BLU
LIMP,2023-04-04T09:50:00Z,LIMP 040950Z 11010KT 060V160 CAVOK 10/M03 Q1016
LIMS,2023-04-04T09:55:00Z,LIMS 040955Z 12013KT 080V170 CAVOK 10/M02 Q1015 RMK SKC VIS MIN 9999 WIND THR30 10012KT BLU
LIMU,2023-04-04T09:55:00Z,LIMU 040955Z 01015KT 9999 SCT023 14/03 Q1013 RMK SCT QUK 3 QUL 1 E VIS MAR 35 KM VIS MIN 9999
LIMV,2023-04-04T09:55:00Z,LIMV 040955Z /////KT 9999 SCT010 09/M05 Q1013 RMK SCT MON LIB CUF VAL NIL VIS MIN 9999
LIMW,2023-04-04T10:20:00Z,LIMW 041020Z AUTO 10011KT 9999 NCD 11/M01 Q1012
LIMY,2023-04-04T09:55:00Z,LIMY 040955Z 28005KT CAVOK 09/03 Q1013
LIMZ,2023-04-04T10:20:00Z,LIMZ 041020Z AUTO 33007KT 270V010 9999 SCT027/// 10/02 Q1015
LIPA,2023-04-04T09:55:00Z,LIPA 040955Z 22004KT CAVOK 10/M03 Q1016 RMK SKC VIS MIN 9999 WIND THR05 /////KT WIND THR23 /////KT A3000
LIPB,2023-04-04T09:50:00Z,LIPB 040950Z VRB02KT CAVOK 13/M15 Q1014
LIPC,2023-04-04T09:55:00Z,LIPC 040955Z 06014KT 9999 FEW035 09/00 Q1016 RMK FEW VIS MIN 9999 WIND THR11 06014KT WIND THR29 06012KT BLU
LIPE,2023-04-04T10:20:00Z,LIPE 041020Z 05009G20KT 020V110 CAVOK 10/M04 Q1016
LIPF,2023-04-04T09:55:00Z,LIPF 040955Z 06008KT CAVOK 10/M03 Q1016 RMK SKC VIS MIN 9999
LIPH,2023-04-04T10:20:00Z,LIPH 041020Z VRB03KT CAVOK 10/M05 Q1016
LIPI,2023-04-04T09:55:00Z,LIPI 040955Z 09005KT CAVOK 10/M04 Q1016 RMK SKC VIS MIN 9999 WIND THR06 09005KT WIND THR24 11006KT BLU
LIPK,2023-04-04T09:50:00Z,LIPK 040950Z 09010KT 9999 SCT035 10/M02 Q1016
LIPL,2023-04-04T09:55:00Z,LIPL 040955Z 13007KT 9999 FEW030 10/03 Q1015 RMK FEW VIS MIN 9999 WIND THR31 14005KT WIND THR13 10005KT BLU
LIPO,2023-04-04T10:20:00Z,LIPO 041020Z AUTO 16007KT 070V200 9999 NCD 10/M04 Q1016
LIPQ,2023-04-04T10:20:00Z,LIPQ 041020Z AUTO 10012KT 9999 NCD 11/M07 Q1016
LIPR,2023-04-04T10:20:00Z,LIPR 041020Z 05012KT 020V080 9999 BKN045 09/M01 Q1016
LIPS,2023-04-04T09:55:00Z,LIPS 040955Z /////KT CAVOK 09/M05 Q1016 RMK SKC VIS MIN 9999 WIND THR26 03005KT WIND THR08 07005KT BLU
LIPU,2023-04-04T09:50:00Z,LIPU 040950Z 12009KT 090V190 CAVOK 09/M05 Q1016
LIPX,2023-04-04T10:20:00Z,LIPX 041020Z 10004KT 040V170 CAVOK 10/M05 Q1016
LIPY,2023-04-04T10:20:00Z,LIPY 041020Z 04010KT 9999 BKN040 08/02 Q1014
LIPZ,2023-04-04T10:20:00Z,LIPZ 041020Z 08010KT 040V110 CAVOK 09/M05 Q1016 NOSIG
LIQC,2023-04-04T09:55:00Z,LIQC 040955Z 12003KT 9999 OVC040 12/03 Q1009 RMK OVC QUK 2 QUL 1 NE VIS MAR 20 KM VIS MIN 9999
LIQN,2023-04-04T09:50:00Z,LIQN 040950Z 09013G23KT 040V130 CAVOK 12/M03 Q1009
LIQW,2023-04-04T09:55:00Z,LIQW 040955Z 29004KT 9999 FEW040 14/M03 Q1013 RMK FEW VIS MIN 9999 WIND THR14 /////KT BLU
LIRA,2023-04-04T10:20:00Z,LIRA 041020Z VRB05KT 9999 FEW040 SCT050 14/02 Q1009
LIRE,2023-04-04T09:55:00Z,LIRE 040955Z 36005KT 300V060 9999 SCT040 14/04 Q1009 RMK SCT VIS MIN 9999 WIND THR13 03006KT WIND THR31 /////KT BLU
LIRF,2023-04-04T10:20:00Z,LIRF 041020Z 04008KT 330V080 9999 FEW050 16/03 Q1009 NOSIG
LIRG,2023-04-04T09:55:00Z,LIRG 040955Z 25005KT 9999 BKN040 14/01 Q1008 RMK BKN MON NE LIB NC VIS MIN 9999 BLU
LIRH,2023-04-04T09:55:00Z,LIRH 040955Z 09005KT 9999 SCT035 SCT040 11/04 Q1008 RMK BKN MON LIB VAR RAPID VIS MIN 9999 WIND THR16 00000KT BLU
LIRI,2023-04-04T09:50:00Z,LIRI 040950Z 06010KT 020V100 9999 SCT050 14/01 Q1008
LIRK,2023-04-04T09:55:00Z,LIRK 040955Z AUTO /////KT //// ///// Q////
LIRL,2023-04-04T09:55:00Z,LIRL 040955Z 15006KT 9999 SCT020 SCT035 14/10 Q1008 RMK BKN MON LIB NC VIS MIN 9999 WIND THR12 /////KT WIND THR30 17006KT BLU
LIRM,2023-04-04T09:55:00Z,LIRM 040955Z 32007KT 9999 FEW030 BKN060 13/M02 Q1009 RMK BKN VIS MIN 9999 WIND THR06 35009KT BLU
LIRN,2023-04-04T10:20:00Z,LIRN 041020Z 03009KT 350V060 9999 BKN070 13/01 Q1009 NOSIG
LIRP,2023-04-04T09:45:00Z,LIRP 040945Z 10015KT CAVOK 12/M04 Q1012 NOSIG
LIRQ,2023-04-04T10:20:00Z,LIRQ 041020Z 04010KT 350V090 9999 SCT060 11/M04 Q1014
LIRS,2023-04-04T09:55:00Z,LIRS 040955Z 03019KT 9999 FEW040 11/00 Q1011 RMK FEW VIS MIN 9999 WIND THR03 04020KT WIND THR21 04017KT BLU
LIRT,2023-04-04T09:55:00Z,LIRT 040955Z 34005KT 9999 BKN005 02/M04 Q1007
LIRU,2023-04-04T09:50:00Z,LIRU 040950Z 36007KT 310V040 CAVOK 15/02 Q1009
LIRV,2023-04-04T09:55:00Z,LIRV 040955Z 03019KT 9999 FEW050 10/03 Q1009 RMK FEW MON E SE LIB NC VIS MIN 9999 WIND THR04 /////KT BLU
LIRX,2023-04-04T09:55:00Z,LIRX 040955Z 01007KT CAVOK 09/01 Q1010 RMK SKC VIS MIN 9999 VIS MAR 30 KM
LIRZ,2023-04-04T10:20:00Z,LIRZ 041020Z AUTO 05018KT 9999 FEW039/// BKN069/// 08/00 Q1012
LIVC,2023-04-04T09:55:00Z,LIVC 040955Z AUTO /////KT //// M10/M12 Q1007
LIVD,2023-04-04T09:55:00Z,LIVD 040955Z 08009KT 030V110 CAVOK 03/M15 Q1014 RMK SKC VIS MIN 9999
LIVE,2023-04-04T09:55:00Z,LIVE 040955Z 03011G27KT CAVOK 00/M10 Q1012 RMK SKC VIS MIN 9999
LIVF,2023-04-04T09:55:00Z,LIVF 040955Z 04007KT 9999 BKN025 03/M02 Q1010
LIVM,2023-04-04T09:55:00Z,LIVM 040955Z /////KT CAVOK ///// Q//// RMK SKC QUK 3 QUL 2 E VIS MAR 15 KM VIS MIN 9999
LIVO,2023-04-04T09:55:00Z,LIVO 040955Z 04003KT CAVOK 03/M07 Q1015 RMK SKC VIS MIN 9999
LIVP,2023-04-04T09:55:00Z,LIVP 040955Z 36013KT CAVOK M07/M20 Q1008
LIVR,2023-04-04T09:55:00Z,LIVR 040955Z 02005KT CAVOK M03/M23 Q1008 RMK SKC MON LIB VIS MIN 9999
LIVT,2023-04-04T09:55:00Z,LIVT 040955Z 09009G22KT CAVOK 09/M09 Q1016 RMK SKC QUK 2 QUL 0 VIS MAR 20 KM VIS MIN 9999
LJCE,2023-04-04T10:00:00Z,LJCE 041000Z 06015KT CAVOK 05/M10 Q1019 RMK BLU
LJLJ,2023-04-04T10:00:00Z,LJLJ 041000Z 28001KT 9999 FEW060 07/M10 Q1016 NOSIG
LJMB,2023-04-04T10:00:00Z,LJMB 041000Z 36014KT 340V040 CAVOK 05/M09 Q1019
LJPZ,2023-04-04T10:00:00Z,LJPZ 041000Z 06014KT 020V100 CAVOK 09/M08 Q1016
LKCV,2023-04-04T10:00:00Z,LKCV 041000Z 36006KT 330V040 9999 FEW037 BKN046 02/M08 Q1025 NOSIG RMK BLU BLU
LKKB,2023-04-04T10:00:00Z,LKKB 041000Z 34009KT 310V010 9999 BKN040 02/M07 Q1025 NOSIG
LKKU,2023-04-04T10:00:00Z,LKKU 041000Z 36018G26KT 9999 SCT042 03/M08 Q1022
LKKV,2023-04-04T10:00:00Z,LKKV 041000Z 04006KT 350V100 9999 BKN040 00/M09 Q1024
LKLN,2023-04-04T10:00:00Z,LKLN 041000Z AUTO 05006KT 340V090 9999 SCT042 OVC048 02/M08 Q1025
LKMT,2023-04-04T10:00:00Z,LKMT 041000Z 35015KT 9999 BKN042 02/M08 Q1023 TEMPO 01016G26KT
LKNA,2023-04-04T10:00:00Z,LKNA 041000Z 01013KT 9999 SCT041 00/M10 Q1022 NOSIG RMK BLU BLU
LKPD,2023-04-04T10:00:00Z,LKPD 041000Z 03008KT 350V060 9999 BKN040 01/M09 Q1025 RMK BLACK
LKPR,2023-04-04T10:00:00Z,LKPR 041000Z 36010KT 9999 BKN040 02/M07 Q1025 NOSIG
LKTB,2023-04-04T10:00:00Z,LKTB 041000Z 36012KT 320V020 CAVOK 03/M11 Q1023 NOSIG
LKVO,2023-04-04T10:00:00Z,LKVO 041000Z 35006KT 300V060 9999 BKN041 04/M08 Q1025
LLBG,2023-04-04T10:20:00Z,LLBG 041020Z 20008KT CAVOK 32/M01 Q1010 NOSIG
LLER,2023-04-04T09:50:00Z,LLER 040950Z 16007KT 130V200 CAVOK 32/M09 Q1011
LLHA,2023-04-04T09:50:00Z,LLHA 040950Z 14009KT CAVOK 31/04 Q1010
LLIB,2023-04-04T09:50:00Z,LLIB 040950Z AUTO 17005KT 130V210 CAVOK 28/00 Q1012
LMML,2023-04-04T10:15:00Z,LMML 041015Z 30023KT 9999 FEW025 17/07 Q1010 NOSIG
LOAN,2023-04-04T10:00:00Z,LOAN 041000Z 33015G27KT 9999 BKN040
LOAV,2023-04-04T10:00:00Z,LOAV 041000Z 34012G22KT 9999 BKN050 06/M08
LOWG,2023-04-04T10:20:00Z,LOWG 041020Z 34012KT 310V020 9999 FEW060 06/M11 Q1019 NOSIG
LOWI,2023-04-04T10:20:00Z,LOWI 041020Z VRB04KT 9999 FEW050 05/M06 Q1020 NOSIG
LOWK,2023-04-04T10:20:00Z,LOWK 041020Z VRB04KT 9999 FEW060 06/M09 Q1018 TEMPO 03010KT
LOWL,2023-04-04T10:20:00Z,LOWL 041020Z AUTO 05005KT 340V130 9999 BKN050 03/M07 Q1024 NOSIG
LOWS,2023-04-04T10:20:00Z,LOWS 041020Z 05007KT 360V110 9999 FEW045 SCT050 02/M08 Q1023 NOSIG
LOWW,2023-04-04T10:20:00Z,LOWW 041020Z 35018G29KT 320V030 9999 SCT050 04/M08 Q1022 NOSIG
LOXZ,2023-04-04T10:20:00Z,LOXZ 041020Z 06015KT 9999 FEW060 SCT250 03/M12 Q1018 NOSIG
LPAR,2023-04-04T10:00:00Z,LPAR 041000Z 04010KT CAVOK 20/05 Q1012
LPAZ,2023-04-04T10:00:00Z,LPAZ 041000Z 32006KT 290V360 9999 FEW023 BKN027 15/10 Q1030
LPBJ,2023-04-04T10:00:00Z,LPBJ 041000Z 10008KT 070V130 CAVOK 18/08 Q1012
LPCS,2023-04-04T10:00:00Z,LPCS 041000Z 02012KT 9999 FEW016 19/10 Q1012
LPFL,2023-04-04T10:00:00Z,LPFL 041000Z VRB03KT 9999 FEW020 BKN035 16/10 Q1030
LPFR,2023-04-04T10:00:00Z,LPFR 041000Z 09006KT 050V120 9999 SCT030 19/06 Q1011
LPHR,2023-04-04T10:00:00Z,LPHR 041000Z 29008KT 9999 FEW017 SCT030 16/11 Q1030
LPLA,2023-04-04T10:00:00Z,LPLA 041000Z /////KT 9999 FEW028 14/12 Q1030
LPMA,2023-04-04T10:00:00Z,LPMA 041000Z 01011KT 310V050 9999 SCT016 17/11 Q1020
LPMR,2023-04-04T10:00:00Z,LPMR 041000Z 03008KT 350V070 CAVOK 18/08 Q1013
LPMT,2023-04-04T10:00:00Z,LPMT 041000Z 02009KT CAVOK 19/11 Q1012
LPOV,2023-04-04T10:00:00Z,LPOV 041000Z 01005KT CAVOK 19/07 Q1014
LPPD,2023-04-04T10:00:00Z,LPPD 041000Z 01007KT 340V040 9999 FEW025 15/11 Q1030
LPPR,2023-04-04T10:00:00Z,LPPR 041000Z 08007KT 040V120 CAVOK 19/06 Q1015
LPPS,2023-04-04T10:00:00Z,LPPS 041000Z 35021KT 9999 BKN014 SCT030 18/11 Q1020
LPPT,2023-04-04T10:00:00Z,LPPT 041000Z 03012KT CAVOK 19/04 Q1012
LPST,2023-04-04T10:00:00Z,LPST 041000Z 36009KT 340V040 9999 FEW025 17/12 Q1013
LQBK,2023-04-04T10:00:00Z,LQBK 041000Z 30007KT 230V040 9999 -SN FEW035 BKN045 04/M03 Q1018 NOSIG
LQMO,2023-04-04T10:00:00Z,LQMO 041000Z VRB13G31KT 9999 FEW045 09/M06 Q1006
LQSA,2023-04-04T10:00:00Z,LQSA 041000Z 32008KT 300V010 3000 SN FEW010 BKN020 BKN040 M00/M01 Q1014 NOSIG
LQTZ,2023-04-04T10:00:00Z,LQTZ 041000Z 29009KT 2800 -SN BR BKN008 OVC020 01/01 Q1015
LRAR,2023-04-04T10:00:00Z,LRAR 041000Z 36014KT 6000 SN BKN005 OVC007 02/01 Q1012
LRBC,2023-04-04T10:00:00Z,LRBC 041000Z 33018KT 0700 R34/0900U SN BR BKN008 00/M01 Q1015
LRBM,2023-04-04T10:00:00Z,LRBM 041000Z VRB02KT 9999 -RA BKN022 OVC050 05/03 Q1013
LRBS,2023-04-04T10:00:00Z,LRBS 041000Z 06016KT 030V090 9999 -RA BKN013 OVC023 04/02 Q1008 NOSIG
LRCK,2023-04-04T10:00:00Z,LRCK 041000Z 05021KT 9999 SCT013 OVC020 09/07 Q1006 NOSIG
LRCL,2023-04-04T10:00:00Z,LRCL 041000Z 24003KT 210V270 2000 -SN BR OVC003 01/01 Q1012 RESN
LRCV,2023-04-04T10:00:00Z,LRCV 041000Z 10007KT 070V130 8000 -RA BKN010 OVC015 05/04 Q1008
LRIA,2023-04-04T10:00:00Z,LRIA 041000Z 32009KT 1500 SN OVC002 00/00 Q1016
LROD,2023-04-04T10:00:00Z,LROD 041000Z 02020KT 9999 -RA SCT013 BKN027 02/01 Q1013
LROP,2023-04-04T10:00:00Z,LROP 041000Z 06013KT 030V090 9999 -RA SCT014 OVC017 04/04 Q1008 NOSIG
LRSB,2023-04-04T10:00:00Z,LRSB 041000Z 26002KT 1200 R27/1700N -SN BR SCT004 SCT010 OVC013 01/01 Q1010
LRSM,2023-04-04T10:00:00Z,LRSM 041000Z 06012KT 9999 -RA SCT020 BKN030 05/04 Q1014
LRSV,2023-04-04T10:00:00Z,LRSV 041000Z 35011KT 1000 R34/1200U SN BKN005 OVC018 01/00 Q1016
LRTC,2023-04-04T10:00:00Z,LRTC 041000Z 02013KT 9999 SCT010 BKN015 FEW030CB 08/05 Q1009
LRTM,2023-04-04T10:00:00Z,LRTM 041000Z 32003KT 290V350 9999 -RA SCT007 BKN009 OVC024 03/02 Q1011
LRTR,2023-04-04T10:00:00Z,LRTR 041000Z 35017G27KT 5000 RASN BR SCT006 OVC023 01/01 Q1011
LSGC,2023-04-04T10:20:00Z,LSGC 041020Z 06013KT 030V130 CAVOK 03/M10 Q1017
LSGG,2023-04-04T10:20:00Z,LSGG 041020Z 05014KT 010V080 9999 FEW032 05/M04 Q1018 NOSIG
LSGS,2023-04-04T10:20:00Z,LSGS 041020Z 24008KT 200V290 9999 SCT060 07/00 Q1016
LSMA,2023-04-04T10:20:00Z,LSMA 041020Z AUTO 05008KT 020V100 9999NDV FEW029 04/M03 Q1021 R MK
LSMD,2023-04-04T10:20:00Z,LSMD 041020Z AUTO 12011KT 080V150 9999NDV FEW034 04/M05 Q1022 R MK
LSME,2023-04-04T10:20:00Z,LSME 041020Z AUTO 04007KT 010V070 9999NDV BKN031 05/M03 Q1021 R MK
LSMM,2023-04-04T10:20:00Z,LSMM 041020Z AUTO 04017G27KT 350V080 9999NDV NCD 03/M03 Q1019 R MK
LSMP,2023-04-04T10:20:00Z,LSMP 041020Z AUTO 05013KT 010V080 9999NDV NCD 05/M04 Q1019 RMK
LSZA,2023-04-04T10:20:00Z,LSZA 041020Z AUTO 20010KT 9999 NCD 10/M01 Q1015
LSZB,2023-04-04T10:20:00Z,LSZB 041020Z 05008KT CAVOK 05/M04 Q1019
LSZC,2023-04-04T10:20:00Z,LSZC 041020Z AUTO 25004KT 220V300 9999 BKN027 04/M02 Q1021
LSZG,2023-04-04T10:20:00Z,LSZG 041020Z 08018KT CAVOK 05/M05 Q1020
LSZH,2023-04-04T10:20:00Z,LSZH 041020Z 08013KT 040V110 9999 FEW040 05/M05 Q1022 NOSIG
LSZL,2023-04-04T09:50:00Z,LSZL 040950Z 24007KT 9999 FEW050 10/00 Q1015 RMK BLU+
LSZR,2023-04-04T10:20:00Z,LSZR 041020Z AUTO 02006KT 310V080 CAVOK 05/M05 Q1022
LSZS,2023-04-04T10:20:00Z,LSZS 041020Z 06008KT 020V090 CAVOK M00/M14 Q1012 RMK J TL180
LTAC,2023-04-04T09:50:00Z,LTAC 040950Z 16015KT 9999 SCT040 BKN100 18/M01 Q1008 NOSIG RMK RWY21L 16018KT RWY03L 15014KT RWY21R 17019KT
LTAE,2023-04-04T09:50:00Z,LTAE 040950Z 15011KT 100V190 9999 FEW040 SCT120 BKN200 19/01 Q1008 NOSIG RMK RWY21 15010KT 100V180
LTAF,2023-04-04T09:50:00Z,LTAF 040950Z 06006KT 030V100 CAVOK 27/12 Q1009 NOSIG RMK RWY23 VRB04KT SKC
LTAG,2023-04-04T09:50:00Z,LTAG 040950Z 07008KT CAVOK 27/07 Q1009 NOSIG RMK 2AC100
LTAI,2023-04-04T09:50:00Z,LTAI 040950Z 19009KT 9999 SCT030 BKN120 20/12 Q1006 BECMG TL1020 18020G30KT RMK RWY18C 18010KT RWY36R 19010KT RWY18L 19009KT
LTAJ,2023-04-04T09:50:00Z,LTAJ 040950Z 09014KT CAVOK 20/08 Q1015 NOSIG RMK RWY10 09016KT SKC
LTAL,2023-04-04T09:50:00Z,LTAL 040950Z 21019KT 9999 SCT030 BKN100 18/M02 Q1008
LTAN,2023-04-04T09:50:00Z,LTAN 040950Z 16022KT 9999 FEW040 SCT100 21/M02 Q1008
LTAP,2023-04-04T09:50:00Z,LTAP 040950Z VRB01KT 9999 FEW040 BKN180 20/04 Q1008 NOSIG RMK RWY23 17003KT 110V240
LTAR,2023-04-04T09:50:00Z,LTAR 040950Z 19022KT 9999 FEW040 BKN180 15/03 Q1015
LTAS,2023-04-04T09:50:00Z,LTAS 040950Z 02010KT 350V070 9999 FEW040 BKN100 22/07 Q1003
LTAT,2023-04-04T09:50:00Z,LTAT 040950Z 07005KT 9999 SCT040 BKN200 17/08 Q1018 NOSIG RMK RWY03 06005KT 360V120
LTAU,2023-04-04T09:50:00Z,LTAU 040950Z 17021KT 9999 FEW040 BKN100 20/01 Q1010 NOSIG RMK RWY07 13019G29KT 080V160
LTAW,2023-04-04T09:50:00Z,LTAW 040950Z VRB06KT CAVOK 24/03 Q1009
LTAY,2023-04-04T09:50:00Z,LTAY 040950Z 20019G34KT 140V230 9999 -TSRA FEW025CB BKN030 13/04 Q1006 TEMPO 4000 TSRA
LTAZ,2023-04-04T09:50:00Z,LTAZ 040950Z 16016KT 130V190 9999 FEW040 BKN180 23/M02 Q1009 RMK RWY29 19016G29KT 160V220
LTBA,2023-04-04T09:50:00Z,LTBA 040950Z 22006KT CAVOK 12/10 Q1004 RMK RWY23 23005KT
LTBD,2023-04-04T09:50:00Z,LTBD 040950Z 18012KT 9999 SCT035 BKN100 21/08 Q1002
LTBF,2023-04-04T09:50:00Z,LTBF 040950Z 09006KT 050V130 9999 -SHRA SCT003 SCT035 BKN100 12/12 Q1005 RESHRA TEMPO -TSRA
LTBH,2023-04-04T09:50:00Z,LTBH 040950Z 13005KT 9999 -SHRA SCT031 BKN100 16/08 Q1002
LTBJ,2023-04-04T09:50:00Z,LTBJ 040950Z 20010KT 9999 SCT015CB SCT025 BKN090 14/11 Q1002 RETSRA TEMPO 4000 TSRA RMK RWY16 21011KT
LTBL,2023-04-04T09:28:00Z,LTBL 040928Z 12011KT 090V160 9999 -SHRA SCT035 BKN100 17/12 Q1002 NOSIG RMK RWY17 13008KT 070V180
LTBO,2023-04-04T09:50:00Z,LTBO 040950Z 16007KT 130V210 9999 FEW020CB BKN030 BKN090 10/06 Q1007 RETSRA
LTBQ,2023-04-04T10:07:00Z,LTBQ 041007Z 27012KT 9999 -SHRA SCT035 BKN090 15/10 Q1004 NOSIG RMK RWY09 27014KT
LTBR,2023-04-04T09:50:00Z,LTBR 040950Z 18016KT 150V220 9999 -SHRA FEW022CB BKN027 BKN080 14/08 Q1004 TEMPO -TSRA
LTBS,2023-04-04T09:50:00Z,LTBS 040950Z 17020KT 9999 SCT030 BKN100 21/14 Q1005 NOSIG RMK RWY19 17023G33KT 3CU030 5AC100
LTBT,2023-04-04T10:11:00Z,LTBT 041011Z 20004KT 160V240 3000 +TSRA SCT020CB SCT030 13/11 Q1004 RMK RWY13 01001KT
LTBU,2023-04-04T09:50:00Z,LTBU 040950Z 16011KT 9999 FEW030 BKN100 15/09 Q1004 RMK RWY22 /////KT
LTBY,2023-04-04T09:50:00Z,LTBY 040950Z 18016G27KT 140V210 9999 BKN035 19/M00 Q1005
LTCA,2023-04-04T09:50:00Z,LTCA 040950Z 07008KT 020V100 9999 SCT035 BKN200 19/09 Q1018 NOSIG
LTCB,2023-04-04T09:50:00Z,LTCB 040950Z 27005KT CAVOK 14/10 Q1009 NOSIG
LTCC,2023-04-04T09:50:00Z,LTCC 040950Z 09006KT 010V150 9999 FEW040 BKN200 19/11 Q1018 NOSIG RMK RWY16 12005KT 050V170 2CU040 5CI200
LTCD,2023-04-04T09:50:00Z,LTCD 040950Z VRB02KT 9999 FEW045 SCT080 BKN180 16/07 Q1017 NOSIG
LTCE,2023-04-04T09:50:00Z,LTCE 040950Z 22011KT 170V270 9999 FEW040 BKN180 14/01 Q1019 NOSIG RMK RWY08R 21010KT 180V250 RWY26R 22015KT 190V250 RWY08L 23011KT 180V290 2CU040 7CS180
LTCF,2023-04-04T09:50:00Z,LTCF 040950Z 23012KT 9999 SCT040 14/00 Q1019 NOSIG
LTCG,2023-04-04T09:50:00Z,LTCG 040950Z 10014KT CAVOK 17/08 Q1010 NOSIG RMK RWY29 10011KT
LTCI,2023-04-04T09:50:00Z,LTCI 040950Z 30007KT 9999 SCT030 BKN180 11/06 Q1023 NOSIG
LTCJ,2023-04-04T09:50:00Z,LTCJ 040950Z VRB02KT CAVOK 20/09 Q1018 NOSIG RMK RWY20 VRB02KT 3AS100 4CI200
LTCK,2023-04-04T09:50:00Z,LTCK 040950Z VRB03KT 9999 FEW035 BKN180 16/06 Q1019
LTCL,2023-04-04T09:50:00Z,LTCL 040950Z 24003KT 150V300 9999 FEW040 SCT200 20/08 Q1019
LTCM,2023-04-04T09:50:00Z,LTCM 040950Z 15015KT 9000 SCT006 BKN100 14/11 Q1006
LTCN,2023-04-04T09:50:00Z,LTCN 040950Z 13014KT 080V160 9999 SCT035 SCT100 22/09 Q1015
LTCO,2023-04-04T09:50:00Z,LTCO 040950Z 23010KT 200V260 9999 SCT035 BKN070 14/03 Q1020
LTCP,2023-04-04T09:50:00Z,LTCP 040950Z 11009KT 9999 FEW040 SCT100 18/09 Q1017
LTCR,2023-04-04T09:50:00Z,LTCR 040950Z 12003KT 020V190 9999 FEW040 BKN200 21/11 Q1018
LTCS,2023-04-04T09:50:00Z,LTCS 040950Z 16011KT CAVOK 18/08 Q1018 RMK RWY22 13010KT 4CI200
LTCT,2023-04-04T09:50:00Z,LTCT 040950Z VRB07KT 9999 FEW100 BKN180 19/04 Q1017
LTCU,2023-04-04T09:50:00Z,LTCU 040950Z VRB03KT 9999 FEW035 BKN200 17/08 Q1020
LTCV,2023-04-04T09:50:00Z,LTCV 040950Z 03004KT 340V090 CAVOK 20/12 Q1018
LTCW,2023-04-04T09:50:00Z,LTCW 040950Z VRB05KT 9999 FEW030 BKN180 14/M01 Q1021
LTDA,2023-04-04T09:50:00Z,LTDA 040950Z 07011KT CAVOK 25/11 Q1012 NOSIG
LTFA,2023-04-04T09:31:00Z,LTFA 040931Z 12012G22KT 9999 -SHRA SCT035 BKN100 16/12 Q1002 RMK RWY17 11010KT 090V150
LTFB,2023-04-04T09:50:00Z,LTFB 040950Z 17012KT 140V200 9999 SHRA FEW028CB BKN030 17/10 Q1002
LTFC,2023-04-04T09:50:00Z,LTFC 040950Z 17023G36KT 140V200 9999 BKN035 17/04 Q1005 RMK RWY23 16025G37KT
LTFD,2023-04-04T09:50:00Z,LTFD 040950Z VRB04KT 8000 -SHRA SCT030 BKN090 14/10 Q1003
LTFE,2023-04-04T09:50:00Z,LTFE 040950Z 17014KT 9999 FEW020CB SCT035 BKN100 19/10 Q1004 NOSIG RMK RWY10 21014KT
LTFG,2023-04-04T09:50:00Z,LTFG 040950Z 15014KT 110V190 9999 FEW030 SCT100 28/06 Q1007
LTFH,2023-04-04T09:50:00Z,LTFH 040950Z 10006KT 070V140 9999 SCT030 BKN100 21/13 Q1007 NOSIG
LTFJ,2023-04-04T09:50:00Z,LTFJ 040950Z 20004KT 140V240 9999 SCT035 BKN100 13/11 Q1004 NOSIG RMK RWY24 21004KT 170V230
LTFK,2023-04-04T09:50:00Z,LTFK 040950Z 14008KT 9000 -SHRA SCT025 BKN100 16/12 Q1003
LTFM,2023-04-04T09:50:00Z,LTFM 040950Z 29005KT 220V350 9999 SCT030 BKN080 15/09 Q1004 NOSIG RMK RWY17L 03006KT RWY34L 22004KT 170V300 RWY16R VRB02KT RWY36 VRB02KT RWY18 03004KT 340V070
LTFO,2023-04-04T09:50:00Z,LTFO 040950Z 05014KT CAVOK 15/09 Q1010
LUKK,2023-04-04T10:00:00Z,LUKK 041000Z 02013KT 9999 -RA OVC008 05/04 Q1013 NOSIG
LWOH,2023-04-04T10:00:00Z,LWOH 041000Z 35008KT 9999 BKN035 09/00 Q1004
LXGB,2023-04-04T09:50:00Z,LXGB 040950Z 07012KT 9999 FEW018 SCT120 OVC140 17/13 Q1012 NOSIG
LYBE,2023-04-04T10:00:00Z,LYBE 041000Z 29013KT 1300 R12L/P2000N R30R/1500D SN BKN003 OVC020 M00/M00 Q1014 TEMPO 0800
LYBT,2023-04-04T10:00:00Z,LYBT 041000Z 30013KT 2000 SN BKN005 OVC020 00/00 Q1014 NOSIG
LYKV,2023-04-04T10:00:00Z,LYKV 041000Z 29009KT 250V350 3000 -SN BR SCT008 BKN013 OVC030 01/01 Q1014 RESN NOSIG
LYNI,2023-04-04T10:00:00Z,LYNI 041000Z 31017G27KT 9999 SCT007 BKN013 OVC043 01/00 Q1011 NOSIG
LYPG,2023-04-04T10:00:00Z,LYPG 041000Z 36016KT 9999 FEW050 BKN080 11/M06 Q1006 NOSIG
LYTV,2023-04-04T10:00:00Z,LYTV 041000Z 35009KT 310V060 CAVOK 13/M05 Q1005 NOSIG
LYVR,2023-04-04T10:00:00Z,LYVR 041000Z 35009KT 320V020 9999 -RA BKN006 03/03 Q1012 NOSIG
LZIB,2023-04-04T10:00:00Z,LZIB 041000Z 34022KT 9999 FEW044 05/M07 Q1021 NOSIG
LZKZ,2023-04-04T10:00:00Z,LZKZ 041000Z 01029G41KT 9999 FEW048 03/M08 Q1017 NOSIG
LZPP,2023-04-04T10:00:00Z,LZPP 041000Z 33022KT 9999 FEW045 05/M05 Q1020
LZTT,2023-04-04T10:00:00Z,LZTT 041000Z 04026KT 9999 SCT016 M01/M08 Q1016 NOSIG
LZZI,2023-04-04T10:00:00Z,LZZI 041000Z 04013KT 330V060 9999 BKN047 02/M08 Q1020
MBPV,2023-04-04T10:00:00Z,MBPV 041000Z 11004KT 9999 SCT012 24/19 Q1015
MDPC,2023-04-04T10:00:00Z,MDPC 041000Z 08012KT 9999 SCT018 25/20 Q1015
MDSD,2023-04-04T10:00:00Z,MDSD 041000Z 03004KT 9999 FEW016 21/19 Q1015
MDST,2023-04-04T10:00:00Z,MDST 041000Z 00000KT 9999 SCT016 20/20 Q1015
MGGT,2023-04-04T10:00:00Z,MGGT 041000Z 36004KT 8000 BKN012 17/15 Q1018 A3006 BR
MGHT,2023-04-04T10:00:00Z,MGHT 041000Z 00000KT 9999 BKN018 14/10
MGMM,2023-04-04T10:00:00Z,MGMM 041000Z 00000KT CAVOK 21/20 Q1011 A2985
MGPB,2023-04-04T10:00:00Z,MGPB 041000Z 00000KT 9999 BKN016 24/23 Q1007 A2974
MHLM,2023-04-04T10:00:00Z,MHLM 041000Z 23004KT 9999 FEW026 23/21 Q1009 A2980 NOSIG
MHPR,2023-04-04T10:00:00Z,MHPR 041000Z 12004KT 9999 FEW050 19/16 Q1014 A2996 NOSIG
MHTG,2023-04-04T10:00:00Z,MHTG 041000Z 26004KT 9999 FEW032 17/12 Q1016 A3000 NOSIG
MMAA,2023-04-04T09:41:00Z,MMAA 040941Z 00000KT 6SM SKC 25/21 A2981 RMK HZY ISOL CI
MMAS,2023-04-04T09:52:00Z,MMAS 040952Z 14006KT 10SM SKC 14/M02 A3011
MMCZ,2023-04-04T09:43:00Z,MMCZ 040943Z 00000KT 7SM FEW015 24/22 A2993 RMK 8/100
MMGL,2023-04-04T09:40:00Z,MMGL 040940Z 00000KT 10SM SKC 16/M02 A3007
MMHO,2023-04-04T09:40:00Z,MMHO 040940Z 2700U-Q 10SM SKC 14/08 A2984 RMK HZY
MMLO,2023-04-04T09:40:00Z,MMLO 040940Z 00000KT 8SM SKC 14/05 A3016
MMMD,2023-04-04T09:40:00Z,MMMD 040940Z 14009KT 6SM SKC 23/21 A2985 RMK HZY
MMMM,2023-04-04T10:04:00Z,MMMM 041004Z RTD 19003KT 6SM SKC 13/06 A3012 RMK HZY
MMMX,2023-04-04T09:49:00Z,MMMX 040949Z 04004KT 9SM BKN220 17/06 A3019 NOSIG RMK 8/002 HZY
MMMY,2023-04-04T09:42:00Z,MMMY 040942Z 00000KT 6SM BKN250 23/20 A2962 RMK 8/008
MMMZ,2023-04-04T09:40:00Z,MMMZ 040940Z 00000KT 10SM OVC240 17/15 A2983 RMK 8/007
MMQT,2023-04-04T09:40:00Z,MMQT 040940Z 28008KT 7SM SCT020 15/06 A3016 RMK 8/500
MMSP,2023-04-04T09:42:00Z,MMSP 040942Z 22004KT 8SM SKC 17/M02 A3006 RMK SC
MMTJ,2023-04-04T09:40:00Z,MMTJ 040940Z 34007KT 7SM SKC 09/M05 A3006
MMTO,2023-04-04T09:41:00Z,MMTO 040941Z 00000KT 9SM SKC 08/03 A3027
MMTP,2023-04-04T09:41:00Z,MMTP 040941Z 00000KT 10SM SCT070 24/24 A2980 RMK 8/030
MMUN,2023-04-04T09:41:00Z,MMUN 040941Z 12007KT 7SM SCT015 26/22 A2989 RMK 8/500
MMVA,2023-04-04T10:00:00Z,MMVA 041000Z 08007KT 6SM SKC 23/19 A2975 RMK HZY RTS
MMZC,2023-04-04T09:40:00Z,MMZC 040940Z E18010KT 10SM SCT120 15/M02 A3014 RMK 8/020
MNMG,2023-04-04T10:00:00Z,MNMG 041000Z 14004KT 9999 FEW022 22/19 Q1009 A2981 NOSIG
MPTO,2023-04-04T10:00:00Z,MPTO 041000Z AUTO 19002KT CAVOK 23/22 Q1008
MROC,2023-04-04T10:00:00Z,MROC 041000Z 11015KT 9999 FEW035 22/17 A2989 NOSIG
MSLP,2023-04-04T09:50:00Z,MSLP 040950Z 07004KT CAVOK 22/16 Q1008 A2978 NOSIG
MTPP,2023-04-04T09:59:00Z,MTPP 040959Z AUTO /////KT //// ////// ///// Q//// A//// NOSIG
MUCC,2023-04-04T09:50:00Z,MUCC 040950Z 11004KT 9000 SCT020 23/21 Q1014
MUCF,2023-04-04T09:59:00Z,MUCF 040959Z AUTO 06004KT 22/19 Q1015
MUCL,2023-04-04T09:50:00Z,MUCL 040950Z AUTO 11010KT 26/22 Q1013
MUCM,2023-04-04T09:50:00Z,MUCM 040950Z 04006KT 8000 NSC 20/19 Q1015
MUCU,2023-04-04T09:50:00Z,MUCU 040950Z 01004KT 9000 FEW020 23/20 Q1014
MUGM,2023-04-04T09:51:00Z,MUGM 040951Z 32005KT 10SM CLR 23/20 A2995 RMK AO2 SLP142 T02280200 $
MUHA,2023-04-04T09:50:00Z,MUHA 040950Z 09004KT 9000 SKC 23/20 Q1014
MUHG,2023-04-04T09:50:00Z,MUHG 040950Z 07005KT 7000 VCFG NSC 22/21 Q1014
MUSC,2023-04-04T09:50:00Z,MUSC 040950Z 12003KT 9000 SKC 20/19 Q1015
MUVR,2023-04-04T09:50:00Z,MUVR 040950Z 14003KT 9000 FEW030 21/20 Q1015
MYCB,2023-04-04T10:00:00Z,MYCB 041000Z AUTO 08003KT //// R09///// // FEW025 19/19 A3002
MYEM,2023-04-04T10:00:00Z,MYEM 041000Z AUTO 10007KT 080V140 9999 FEW021 24/20 Q1016 A3001
MYGF,2023-04-04T10:00:00Z,MYGF 041000Z AUTO 12003KT //// R06///// // FEW019/// 23/20 A3000
MYSM,2023-04-04T10:00:00Z,MYSM 041000Z AUTO 09005KT 9999 FEW025/// 22/20 A3003
NCAI,2023-04-04T10:00:00Z,NCAI 041000Z AUTO 18003KT //// ////// 28/24 Q1010
NCAT,2023-04-04T10:00:00Z,NCAT 041000Z AUTO 14002KT //// ////// ///// Q////
NCMG,2023-04-04T10:00:00Z,NCMG 041000Z AUTO 11005KT //// ////// ///// Q////
NCMH,2023-04-04T10:00:00Z,NCMH 041000Z AUTO 09002KT //// ////// ///// Q1010
NCMK,2023-04-04T10:00:00Z,NCMK 041000Z AUTO NIL
NCMR,2023-04-04T10:00:00Z,NCMR 041000Z AUTO 14002KT //// ////// ///// Q1009
NCNS,2023-04-04T10:00:00Z,NCNS 041000Z AUTO 05002KT //// ////// 28/24 Q1010
NCPK,2023-04-04T10:00:00Z,NCPK 041000Z AUTO NIL
NCPL,2023-04-04T10:00:00Z,NCPL 041000Z AUTO 10003KT //// ////// 27/22 Q1011
NCPY,2023-04-04T10:00:00Z,NCPY 041000Z AUTO 06009KT //// ////// 29/24 Q1010
NCRG,2023-04-04T10:00:00Z,NCRG 041000Z AUTO 11007KT 080V140 9999 NCD 25/21 Q1011
NCRK,2023-04-04T10:00:00Z,NCRK 041000Z AUTO 09002KT //// ////// 28/24 Q1009
NCSW,2023-04-04T10:00:00Z,NCSW 041000Z AUTO 07001KT //// ////// 28/25 Q1010
NFFN,2023-04-04T10:00:00Z,NFFN 041000Z 13005KT 9999 FEW028 26/23 Q1012 NOSIG
NFNA,2023-04-04T10:00:00Z,NFNA 041000Z 00000KT 9999 FEW027 SCT050 25/23 Q1012
NFTF,2023-04-04T10:00:00Z,NFTF 041000Z 15006KT 9999 FEW016 25/22 Q1013
NGFU,2023-04-04T10:00:00Z,NGFU 041000Z 09006KT 9999 FEW018TCU SCT020 BKN110 29/26 Q1009
NGTA,2023-04-04T10:00:00Z,NGTA 041000Z 09010KT 9999 VCSH FEW018TCU BKN040 27/26 Q1008 RMK RR 0.8MM
NIUE,2023-04-04T10:00:00Z,NIUE 041000Z AUTO 12003KT 24/23 Q1011
NLWW,2023-04-04T10:00:00Z,NLWW 041000Z AUTO 10006KT 060V150 9999 BKN021/// BKN030/// 27/24 Q1010 TEMPO SHRA FEW025TCU
NSFA,2023-04-04T10:00:00Z,NSFA 041000Z 00000KT 9999 FEW027 25/24 Q1010
NSTU,2023-04-04T09:50:00Z,NSTU 040950Z 00000KT 10SM FEW019 26/25 A2982 RMK SLP100 T02600254
NTAA,2023-04-04T10:00:00Z,NTAA 041000Z AUTO 08003KT 9999 FEW072 27/23 Q1011 NOSIG
NVVV,2023-04-04T10:00:00Z,NVVV 041000Z 25001KT 9999 FEW020 25/24 Q1012
NWWW,2023-04-04T10:00:00Z,NWWW 041000Z AUTO 33005KT CAVOK 28/21 Q1012 TEMPO 3000 +SHRA FEW020CB
NZAA,2023-04-04T10:00:00Z,NZAA 041000Z AUTO 12002KT 9999 NCD 15/12 Q1020
NZCH,2023-04-04T10:00:00Z,NZCH 041000Z AUTO 05006KT 9999 NCD 10/09 Q1017
NZCM,2023-04-04T09:55:00Z,NZCM 040955Z AUTO 33004KT 9999 CLR M19/M24 A2964 RMK AO2 SLP044 T11931239
NZWN,2023-04-04T10:00:00Z,NZWN 041000Z AUTO 02007KT 9999 NCD 13/11 Q1019
OBBI,2023-04-04T10:00:00Z,OBBI 041000Z 32016KT CAVOK 24/11 Q1014 NOSIG
OEAB,2023-04-04T10:00:00Z,OEAB 041000Z 20011G22KT 9999 FEW018 SCT020 22/08 Q1024 NOSIG
OEAH,2023-04-04T10:00:00Z,OEAH 041000Z 31017KT CAVOK 29/M06 Q1014 NOSIG
OEAO,2023-04-04T10:00:00Z,OEAO 041000Z 15014KT CAVOK 31/M06 Q1015 NOSIG
OEBA,2023-04-04T10:00:00Z,OEBA 041000Z 20006KT 9999 FEW030 27/02 Q1019 NOSIG
OEBH,2023-04-04T10:00:00Z,OEBH 041000Z 06006KT CAVOK 28/09 Q1016 NOSIG
OEDF,2023-04-04T10:00:00Z,OEDF 041000Z 31015KT CAVOK 29/03 Q1014 NOSIG
OEDM,2023-04-04T10:00:00Z,OEDM 041000Z 01006KT CAVOK 28/M10 Q1017
OEDR,2023-04-04T10:00:00Z,OEDR 041000Z 28015G25KT CAVOK 29/02 Q1012 NOSIG
OEGN,2023-04-04T10:00:00Z,OEGN 041000Z 25010KT 9999 FEW030 34/23 Q1011 NOSIG
OEGS,2023-04-04T10:00:00Z,OEGS 041000Z 13007KT CAVOK 28/M06 Q1017
OEGT,2023-04-04T10:00:00Z,OEGT 041000Z 14012KT CAVOK 30/M07 Q1013 NOSIG
OEHL,2023-04-04T10:00:00Z,OEHL 041000Z 15010KT CAVOK 27/M01 Q1019
OEJB,2023-04-04T10:00:00Z,OEJB 041000Z AUTO 01015KT CAVOK 28/09 Q1014 NOSIG
OEJN,2023-04-04T10:00:00Z,OEJN 041000Z 26007KT 9999 BKN040 33/09 Q1009 NOSIG
OEKJ,2023-04-04T10:00:00Z,OEKJ 041000Z 32003KT CAVOK 29/M07 Q1019
OEKM,2023-04-04T10:00:00Z,OEKM 041000Z 24011G21KT 9999 SCT022 23/03 Q1023 NOSIG
OEMA,2023-04-04T10:00:00Z,OEMA 041000Z 13020KT 7000 NSC 32/M05 Q1015 NOSIG
OEMN,2023-04-04T10:00:00Z,OEMN 041000Z 27006KT 9999 FEW040 SCT200 34/11 Q1012
OENG,2023-04-04T10:00:00Z,OENG 041000Z 08006KT 8000 NSC 26/03 Q1019 NOSIG
OEPA,2023-04-04T10:00:00Z,OEPA 041000Z 36004KT CAVOK 28/05 Q1017 NOSIG
OEPS,2023-04-04T09:55:00Z,OEPS 040955Z 00000KT 9999 CLR 28/M05 A3010 RMK AO2A SLP179 WND DATA ESTMD T02811055
OERF,2023-04-04T10:00:00Z,OERF 041000Z 11007KT CAVOK 28/M07 Q1017 NOSIG
OERK,2023-04-04T10:00:00Z,OERK 041000Z 05004KT CAVOK 28/00 Q1018 NOSIG
OERR,2023-04-04T10:00:00Z,OERR 041000Z 16011KT CAVOK 28/M09 Q1017 NOSIG
OESH,2023-04-04T10:00:00Z,OESH 041000Z 08009KT 9999 SCT040 30/05 Q1016 NOSIG
OESK,2023-04-04T10:00:00Z,OESK 041000Z 16013KT CAVOK 30/M06 Q1019 NOSIG
OETB,2023-04-04T10:00:00Z,OETB 041000Z 27008KT CAVOK 30/M05 Q1013 NOSIG
OETF,2023-04-04T10:00:00Z,OETF 041000Z 22014KT 9999 SCT030 SCT080 27/M01 Q1019 NOSIG
OETR,2023-04-04T10:00:00Z,OETR 041000Z 16016KT CAVOK 27/M08 Q1016 NOSIG
OEWD,2023-04-04T10:00:00Z,OEWD 041000Z 10008KT CAVOK 28/M09 Q1016
OEWJ,2023-04-04T10:00:00Z,OEWJ 041000Z 29013KT CAVOK 28/18 Q1011 NOSIG
OEYN,2023-04-04T10:00:00Z,OEYN 041000Z 22011KT CAVOK 30/20 Q1009 NOSIG
OIAA,2023-04-04T10:00:00Z,OIAA 041000Z 30012KT CAVOK 28/08 Q1013
OIAG,2023-04-04T10:00:00Z,OIAG 041000Z 29008KT CAVOK 27/08 Q1013
OIAH,2023-04-04T10:00:00Z,OIAH 041000Z 31010KT CAVOK 24/06 Q1014
OIAI,2023-04-04T10:00:00Z,OIAI 041000Z 36004KT CAVOK 24/08 Q1012
OIAM,2023-04-04T10:00:00Z,OIAM 041000Z 27008KT CAVOK 26/12 Q1013
OIAW,2023-04-04T10:00:00Z,OIAW 041000Z 29006KT CAVOK 28/09 Q1012
OIBA,2023-04-04T10:00:00Z,OIBA 041000Z 27012KT CAVOK 26/16 Q1010
OIBB,2023-04-04T10:00:00Z,OIBB 041000Z 29016KT CAVOK 22/14 Q1012 A2991 NOSIG
OIBH,2023-04-04T10:00:00Z,OIBH 041000Z 26017KT CAVOK 23/14 Q1013 A2992
OIBK,2023-04-04T10:00:00Z,OIBK 041000Z 29016KT CAVOK 26/14 Q1011 NOSIG
OIBL,2023-04-04T10:00:00Z,OIBL 041000Z 21008KT CAVOK 26/17 Q1011
OIBP,2023-04-04T10:00:00Z,OIBP 041000Z 29017KT CAVOK 25/16 Q1010 A2984
OIBQ,2023-04-04T10:00:00Z,OIBQ 041000Z 31014KT CAVOK 22/15 Q1013
OIBS,2023-04-04T10:00:00Z,OIBS 041000Z 28010KT CAVOK 25/11 Q1011
OIBV,2023-04-04T10:00:00Z,OIBV 041000Z 29021KT CAVOK 25/14 Q1010
OICC,2023-04-04T10:00:00Z,OICC 041000Z 18008KT 9999 FEW045 18/01 Q1019 A3012
OICI,2023-04-04T10:00:00Z,OICI 041000Z 28006KT CAVOK 21/03 Q1020 A3013
OICJ,2023-04-04T10:00:00Z,OICJ 041000Z 00000KT CAVOK 20/04 Q1019
OICK,2023-04-04T10:00:00Z,OICK 041000Z 26004KT CAVOK 20/04 Q1017
OICM,2023-04-04T10:00:00Z,OICM 041000Z 33008KT CAVOK 29/06 Q1011
OICS,2023-04-04T10:00:00Z,OICS 041000Z 05004KT 9999 FEW040 19/M03 Q1018 A3009
OIFK,2023-04-04T10:00:00Z,OIFK 041000Z 00000KT CAVOK 24/M05 Q1016 A3000
OIFM,2023-04-04T10:00:00Z,OIFM 041000Z 31012KT 9999 FEW035 19/M05 Q1019 A3009
OIFS,2023-04-04T10:00:00Z,OIFS 041000Z 29004KT 9999 SCT040 16/M06 Q1020
OIGG,2023-04-04T10:00:00Z,OIGG 041000Z 33006KT 9999 FEW025 20/09 Q1018
OIGK,2023-04-04T09:50:00Z,OIGK 040950Z 26008KT 9999 SCT035TCU 13/M02 Q1021
OIHH,2023-04-04T10:00:00Z,OIHH 041000Z 04006G17KT 9999 SCT040 16/M00 Q1019 A3011
OIHM,2023-04-04T10:00:00Z,OIHM 041000Z 24004KT 9999 FEW040 16/M03 Q1019
OIHR,2023-04-04T10:00:00Z,OIHR 041000Z 27010KT 9999 FEW035 16/M02 Q1019
OIIE,2023-04-04T10:00:00Z,OIIE 041000Z 31012KT 9999 FEW040 22/M05 Q1015
OIII,2023-04-04T10:00:00Z,OIII 041000Z 26004KT 9999 FEW040 19/M06 Q1016 A3002 NOSIG
OIIK,2023-04-04T10:00:00Z,OIIK 041000Z 35006KT 9999 SCT040 19/02 Q1018
OIIP,2023-04-04T10:00:00Z,OIIP 041000Z 29012KT 9999 FEW035 19/M03 Q1015 A2999
OIKB,2023-04-04T10:00:00Z,OIKB 041000Z 22012KT 7000 NSC 27/13 Q1010 A2984 NOSIG
OIKK,2023-04-04T10:00:00Z,OIKK 041000Z 33016KT 9999 FEW040 21/M08 Q1015 A2999
OIKO,2023-04-04T10:00:00Z,OIKO 041000Z 23008KT 6000 FEW030 27/16 Q1010
OIKQ,2023-04-04T10:00:00Z,OIKQ 041000Z 22014KT 7000 FEW020 25/19 Q1010 NOSIG
OIMB,2023-04-04T10:00:00Z,OIMB 041000Z 34008KT 9999 FEW040 SCT100 BKN200 19/M11 Q1015 A2998
OIMC,2023-04-04T09:50:00Z,OIMC 040950Z 00000KT 9999 SCT006 SCT035 16/08 Q1018
OIMD,2023-04-04T10:00:00Z,OIMD 041000Z 30021KT 9999 FEW030 BKN160 19/M04 Q1013
OIMJ,2023-04-04T10:00:00Z,OIMJ 041000Z 16006KT 9999 FEW030 16/M09 Q1016
OIMM,2023-04-04T10:00:00Z,OIMM 041000Z 13012KT 9999 SCT035 BKN190 16/04 Q1015 A2999
OIMN,2023-04-04T10:00:00Z,OIMN 041000Z 29018KT 9999 FEW025 12/M01 Q1017
OIMQ,2023-04-04T10:00:00Z,OIMQ 041000Z 27006KT 9999 SCT040 18/M05 Q1016
OIMS,2023-04-04T10:00:00Z,OIMS 041000Z 25023KT 9999 FEW035 17/M07 Q1018
OIMT,2023-04-04T10:00:00Z,OIMT 041000Z AUTO 28002KT //// // ////// 24/M03 Q1014
OINB,2023-04-04T10:00:00Z,OINB 041000Z 09006KT CAVOK 16/11 Q1018
OINE,2023-04-04T10:00:00Z,OINE 041000Z 20008KT 8000 FEW030 SCT200 18/06 Q1017
OING,2023-04-04T10:00:00Z,OING 041000Z 00000KT 9999 FEW030 20/10 Q1019 NOSIG
OINK,2023-04-04T10:00:00Z,OINK 041000Z 26008KT 9999 FEW025 20/06 Q1016 A3002
OINN,2023-04-04T10:00:00Z,OINN 041000Z 04010KT 9999 FEW025TCU SCT090 16/12 Q1018
OINR,2023-04-04T10:00:00Z,OINR 041000Z 10008KT 9999 FEW033TCU 16/12 Q1017
OINZ,2023-04-04T10:00:00Z,OINZ 041000Z 34014KT CAVOK 20/10 Q1018
OISA,2023-04-04T10:00:00Z,OISA 041000Z 04006KT CAVOK 16/M08 Q1018 A3008
OISF,2023-04-04T10:00:00Z,OISF 041000Z 15006KT CAVOK 24/M04 Q1015 A2997
OISL,2023-04-04T10:00:00Z,OISL 041000Z 24008KT CAVOK 27/02 Q1011 A2985 NOSIG
OISR,2023-04-04T10:00:00Z,OISR 041000Z 31004KT CAVOK 28/07 Q1012 A2989 NOSIG
OISS,2023-04-04T10:00:00Z,OISS 041000Z 15008KT CAVOK 22/M01 Q1015 A2999
OISY,2023-04-04T10:00:00Z,OISY 041000Z 31008KT CAVOK 18/M07 Q1020
OITK,2023-04-04T10:00:00Z,OITK 041000Z 18004KT 9999 FEW035TCU BKN180 20/03 Q1018 A3006
OITL,2023-04-04T10:00:00Z,OITL 041000Z 07012KT 9999 FEW030TCU SCT040CB 15/05 Q1017 NOSIG
OITM,2023-04-04T10:00:00Z,OITM 041000Z 26006KT 9999 FEW035 BKN190 18/00 Q1018
OITP,2023-04-04T10:00:00Z,OITP 041000Z 10008KT 9999 FEW035 19/11 Q1015
OITR,2023-04-04T10:00:00Z,OITR 041000Z 09006KT 9999 FEW035 BKN170 18/01 Q1018 A3007
OITT,2023-04-04T10:00:00Z,OITT 041000Z 27006KT 9999 SCT030TCU SCT180 18/M00 Q1019 A3011
OITU,2023-04-04T10:00:00Z,OITU 041000Z 00000KT 9999 FEW035 BKN170 19/04 Q1018 A3007
OITZ,2023-04-04T10:00:00Z,OITZ 041000Z 30006KT 9999 SCT035 15/M01 Q1018 A3009
OIYY,2023-04-04T10:00:00Z,OIYY 041000Z 08004KT 9999 FEW040 22/M04 Q1017
OIZB,2023-04-04T10:00:00Z,OIZB 041000Z 24006KT CAVOK 30/M08 Q1011
OIZC,2023-04-04T10:00:00Z,OIZC 041000Z 22020KT CAVOK 28/15 Q1007 A2976
OIZH,2023-04-04T10:00:00Z,OIZH 041000Z 05012KT 9999 FEW040 24/M07 Q1013 A2994 NOSIG
OIZI,2023-04-04T10:00:00Z,OIZI 041000Z 27008KT CAVOK 31/02 Q1010
OIZJ,2023-04-04T10:00:00Z,OIZJ 041000Z 29016KT 8000 NSC 26/19 Q1008
OJAI,2023-04-04T10:00:00Z,OJAI 041000Z 22004KT 6000 NSC 27/M02 Q1015 NOSIG
OJAM,2023-04-04T10:00:00Z,OJAM 041000Z 15004KT 7000 NSC 27/00 Q1015 NOSIG
OJAQ,2023-04-04T10:00:00Z,OJAQ 041000Z 22004KT CAVOK 33/M03 Q1010 NOSIG
OKAS,2023-04-04T09:55:00Z,OKAS 040955Z 30014G21KT 9999 CLR 29/04 A2997 RMK AO2A SLP146 T02870035 FZRANO $
OKKK,2023-04-04T10:00:00Z,OKKK 041000Z 34013KT CAVOK 29/05 Q1014 NOSIG
OLBA,2023-04-04T10:00:00Z,OLBA 041000Z 24007KT 180V310 CAVOK 26/14 Q1011 NOSIG
OMAA,2023-04-04T10:00:00Z,OMAA 041000Z 29017KT CAVOK 26/12 Q1013 NOSIG
OMAD,2023-04-04T10:00:00Z,OMAD 041000Z 30016KT 280V340 CAVOK 27/11 Q1013 NOSIG
OMAL,2023-04-04T10:00:00Z,OMAL 041000Z 28012KT 250V320 CAVOK 28/10 Q1013 NOSIG
OMDB,2023-04-04T10:00:00Z,OMDB 041000Z 28015KT 250V310 CAVOK 26/13 Q1012 NOSIG
OMDW,2023-04-04T10:00:00Z,OMDW 041000Z 28017KT CAVOK 26/12 Q1013 NOSIG
OMFJ,2023-04-04T10:00:00Z,OMFJ 041000Z 26011KT CAVOK 29/08 Q1010 A2984
OMRK,2023-04-04T10:00:00Z,OMRK 041000Z 26012KT 230V300 9999 FEW040 28/12 Q1012 A2989
OMSJ,2023-04-04T10:00:00Z,OMSJ 041000Z 26015KT CAVOK 26/12 Q1012 NOSIG
OOAD,2023-04-04T09:50:00Z,OOAD 040950Z AUTO 33012KT 9999 // NCD 34/M09 Q1011 NOSIG
OODQ,2023-04-04T09:50:00Z,OODQ 040950Z AUTO 32010KT 9999 FEW034 SCT060 BKN120 32/02 Q1011 NOSIG RMK RH15? 0
OOKB,2023-04-04T09:50:00Z,OOKB 040950Z 34012KT 310V030 CAVOK 28/13 Q1010 NOSIG
OOMS,2023-04-04T09:50:00Z,OOMS 040950Z 33011KT CAVOK 27/16 Q1010 NOSIG
OOSA,2023-04-04T09:50:00Z,OOSA 040950Z 15010KT 120V190 CAVOK 30/22 Q1012 NOSIG
OOSH,2023-04-04T09:50:00Z,OOSH 040950Z AUTO 06012KT //// ////// 29/13 Q1009 RMK 1006
OPIS,2023-04-04T10:00:00Z,OPIS 041000Z 13004KT 7000 FEW040 25/09 Q1012 NOSIG
OPLA,2023-04-04T10:25:00Z,OPLA 041025Z 32010KT 7000 FEW040 28/13 Q1011 NOSIG RMK QFE985 A29.86
OPMT,2023-04-04T10:00:00Z,OPMT 041000Z 00000KT 7000 HZ SCT100 27/15 Q1010 NOSIG
OPNH,2023-04-04T10:00:00Z,OPNH 041000Z 36004KT 6000 NSC 33/19 Q1009
OPPS,2023-04-04T10:00:00Z,OPPS 041000Z 18004KT 6000 HZ SCT040 25/13 Q1012
OPSK,2023-04-04T10:00:00Z,OPSK 041000Z 09010KT 4000 HZ NSC 32/16 Q1008 NOSIG
OPST,2023-04-04T10:00:00Z,OPST 041000Z 27010KT 6000 FEW040 27/13 Q1012 NSOIG 43%
ORBI,2023-04-04T10:00:00Z,ORBI 041000Z 31008KT 260V010 CAVOK 26/09 Q1016
ORER,2023-04-04T10:00:00Z,ORER 041000Z 33005KT 9000 FEW030 21/11 Q1019
ORMM,2023-04-04T10:00:00Z,ORMM 041000Z 27018KT CAVOK 30/07 Q1013 NOSIG
ORNI,2023-04-04T10:00:00Z,ORNI 041000Z 29004KT 8000 NSC 27/07 Q1016
ORSU,2023-04-04T10:00:00Z,ORSU 041000Z 24003KT 9999 FEW040 SCT200 22/08 Q1019
OSAP,2023-04-04T10:00:00Z,OSAP 041000Z 07006KT CAVOK 23/10 Q1015
OSDI,2023-04-04T10:00:00Z,OSDI 041000Z 00000KT CAVOK 28/M04 Q1014
OSKL,2023-04-04T10:00:00Z,OSKL 041000Z 14004KT 8000 FEW026 SCT100 22/10 Q1017
OSLK,2023-04-04T10:00:00Z,OSLK 041000Z 24006KT CAVOK 30/09 Q1010
OTBD,2023-04-04T10:00:00Z,OTBD 041000Z 32013G23KT 290V350 CAVOK 28/06 Q1013 NOSIG
OTBH,2023-04-04T09:55:00Z,OTBH 040955Z 31020KT 9999 CLR 28/06 A2992 Q1013 RMK AO2A PK WND 32029/31 SLP133 T02810056 FZRANO $
OTHH,2023-04-04T10:00:00Z,OTHH 041000Z 32021KT CAVOK 28/05 Q1013 NOSIG
PAAD,2023-04-04T10:15:00Z,PAAD 041015Z AUTO 29006KT 7SM BKN011 OVC024 M20/M22 A2990 RMK AO2 T11981217 PWINO
PAAK,2023-04-04T10:14:00Z,PAAK 041014Z AUTO 28013G20KT 1 3/4SM -RA BR SCT006 BKN010 OVC025 03/03 A2988 RMK AO2 RAB09 CIG 009V013 P0000 $
PAAQ,2023-04-04T09:53:00Z,PAAQ 040953Z AUTO 35009KT 10SM OVC075 01/M08 A2990 RMK AO2 SLP128 T00111083 TSNO
PABA,2023-04-04T09:52:00Z,PABA 040952Z AUTO 36006KT 4SM -SN BR OVC047 M17/M19 A2990 RMK AO2 SLP132 T11721189 FZRANO PNO $
PABE,2023-04-04T10:14:00Z,PABE 041014Z 20011KT 3/4SM BR VV003 00/00 A2968 RMK AO2 T00000000 RVRNO
PABI,2023-04-04T09:53:00Z,PABI 040953Z AUTO 00000KT 10SM FEW120 M03/M12 A2976 RMK AO2 SLP105 T10331117 TSNO $
PABL,2023-04-04T09:56:00Z,PABL 040956Z AUTO 32012KT 10SM BKN080 M18/M21 A2993 RMK AO2 SLP138 T11831211 FZRANO
PABR,2023-04-04T10:25:00Z,PABR 041025Z AUTO 25010KT 5SM -SN OVC036 M19/M22 A2985 RMK AO2 SNB06 P0000 T11941222 TSNO $
PABT,2023-04-04T09:53:00Z,PABT 040953Z 35003KT 3SM -SN BR OVC065 M09/M11 A2974 RMK AO2 SLP089 T10891111 PNO
PABV,2023-04-04T09:56:00Z,PABV 040956Z AUTO 00000KT 10SM BKN070 OVC095 M01/M07 A2992 RMK AO2 SLP140 T10111067 FZRANO
PACD,2023-04-04T09:53:00Z,PACD 040953Z AUTO 00000KT 10SM FEW026 OVC050 02/01 A2979 RMK AO2 SLP089 T00170006 TSNO $
PACM,2023-04-04T09:56:00Z,PACM 040956Z AUTO 32006KT FEW010 OVC015 M09/M11 A2983 RMK AO2 SLP096 T10941111 PWINO FZRANO $
PACV,2023-04-04T09:53:00Z,PACV 040953Z VRB06KT 10SM OVC075 02/M07 A3000 RMK AO2 SLP160 T00221072 $
PACZ,2023-04-04T10:18:00Z,PACZ 041018Z AUTO 04021G27KT 3/4SM -FZRA BR BKN004 BKN042 M11/M13 A2972 RMK AO2 SLP078
PADK,2023-04-04T10:04:00Z,PADK 041004Z AUTO 27007KT BKN025 OVC041 02/01 A2991 RMK AO2 PWINO FZRANO $
PADL,2023-04-04T09:56:00Z,PADL 040956Z AUTO 20004KT 8SM OVC003 01/01 A2980 RMK AO2 SLP095 T00060006 FZRANO
PADM,2023-04-04T09:56:00Z,PADM 040956Z AUTO 36010KT 6SM -SN BR SCT037 OVC045 M04/M06 A2973 RMK AO2 SLP075 P0000 T10441056 FZRANO
PADQ,2023-04-04T10:00:00Z,PADQ 041000Z AUTO 32006KT 10SM BKN015 OVC019 02/01 A2985 RMK AO2 T00220011 TSNO
PADU,2023-04-04T09:56:00Z,PADU 040956Z AUTO 20003KT 10SM -RA SCT023 BKN031 OVC047 04/01 A2982 RMK AO2 SLP104 P0001 T00390011
PAED,2023-04-04T09:55:00Z,PAED 040955Z 35008KT 10SM SCT046 BKN060M OVC080 M01/M07 A2989
PAEG,2023-04-04T09:53:00Z,PAEG 040953Z AUTO 12006KT 10SM OVC110 M01/M14 A2978 RMK AO2 SLP094 T10111139 TSNO
PAEH,2023-04-04T09:55:00Z,PAEH 040955Z AUTO 01018G21KT 010V160 10SM DZ OVC005 02/02 A2973 RMK AO2 DZB0955 SLP074 P0000 T00150020
PAEI,2023-04-04T09:55:00Z,PAEI 040955Z AUTO 14006KT 10SM SCT100 OVC130 M06/M11 A2975 RMK AO2 SLP085 T10611112 $
PAEN,2023-04-04T09:53:00Z,PAEN 040953Z AUTO 35004KT 10SM OVC050 M02/M04 A2992 RMK AO2 SLP133 T10221044 TSNO
PAFA,2023-04-04T09:53:00Z,PAFA 040953Z 00000KT 10SM BKN110 BKN150 M07/M11 A2976 RMK AO2 SLP088 T10721106
PAFB,2023-04-04T09:55:00Z,PAFB 040955Z AUTO 08005KT 10SM FEW075 OVC110 M07/M10 A2976 RMK AO2 SLP090 T10661100
PAFE,2023-04-04T09:56:00Z,PAFE 040956Z AUTO 06004KT 10SM CLR M03/M03 A3012 RMK AO2 SLP213 T10281033 FZRANO
PAFM,2023-04-04T09:56:00Z,PAFM 040956Z AUTO 30003KT 8SM -SN SCT017 BKN032 OVC085 M17/M18 A2986 RMK AO2 SLP123 P0000 T11671183 FZRANO
PAFR,2023-04-04T09:55:00Z,PAFR 040955Z AUTO 33004KT 10SM OVC055 M01/M07 A2989 RMK AO2 SLP131 T10131072 $
PAFS,2023-04-04T10:01:00Z,PAFS 041001Z AUTO 00000KT 4SM -SN BR FEW012 OVC037 M03/M04 A2973 RMK AO2 SLP076 P0000 T10331044 FZRANO
PAGK,2023-04-04T09:53:00Z,PAGK 040953Z AUTO 23004KT 10SM OVC100 M03/M12 A2988 RMK AO2 SLP152 T10331122 TSNO $
PAGL,2023-04-04T09:56:00Z,PAGL 040956Z AUTO 33008KT 10SM FEW075 M14/M17 A2984 RMK AO2 SLP101 T11441172 FZRANO
PAGN,2023-04-04T09:56:00Z,PAGN 040956Z AUTO VRB04KT 10SM CLR 00/M03 A3011 RMK AO2 SLP186 T00001028 FZRANO
PAGS,2023-04-04T09:56:00Z,PAGS 040956Z AUTO 35003KT 10SM CLR M03/M05 A3010 RMK AO2 SLP194 T10331050 FZRANO
PAGY,2023-04-04T09:53:00Z,PAGY 040953Z AUTO 00000KT 10SM CLR M02/M07 A3011 RMK AO2 SLP197 T10171072 TSNO
PAHL,2023-04-04T09:56:00Z,PAHL 040956Z AUTO 00000KT 3SM -SN BR OVC034 M10/M12 A2978 RMK AO2 SLP092 P0000 T11001117 FZRANO
PAHN,2023-04-04T09:54:00Z,PAHN 040954Z AUTO 00000KT 10SM CLR M02/M06 A3010 RMK AO2 SLP197 T10221061 TSNO
PAHO,2023-04-04T09:53:00Z,PAHO 040953Z AUTO 00000KT 10SM OVC055 01/M01 A2990 RMK AO2 SLP127 T00111011 TSNO
PAHX,2023-04-04T10:02:00Z,PAHX 041002Z AUTO 01007KT 8SM -SN OVC027 M06/M07 A2972 RMK AO2 SLP067 P0000 T10611072 FZRANO
PAHY,2023-04-04T09:56:00Z,PAHY 040956Z AUTO 00000KT 9SM CLR M01/M01 A3011 RMK AO2 SLP192 T10061011 FZRANO $
PAIG,2023-04-04T09:56:00Z,PAIG 040956Z AUTO 00000KT 10SM OVC020 01/M01 A2983 RMK AO2 SLP112 T00111006 FZRANO $
PAIK,2023-04-04T09:56:00Z,PAIK 040956Z AUTO 35009KT 10SM CLR M21/M23 A2991 RMK AO2 SLP135 T12061228 FZRANO
PAIN,2023-04-04T09:56:00Z,PAIN 040956Z AUTO 13008G15KT 100V160 10SM SCT080 OVC100 M04/M10 A2978 RMK AO2 SLP114 T10391100 FZRANO
PAIW,2023-04-04T10:16:00Z,PAIW 041016Z AUTO 07024KT 1 3/4SM -SN BR BKN009 OVC015 M21/M23 A3005 RMK AO2 WSHFT 1001 P0000 FZRANO
PAJC,2023-04-04T10:12:00Z,PAJC 041012Z AUTO 00000KT 10SM SCT010 BKN030 OVC035 02/02 A2985 RMK AO2 FZRANO PNO $
PAJN,2023-04-04T09:53:00Z,PAJN 040953Z 00000KT 10SM FEW170 M03/M05 A3011 RMK AO2 SLP197 T10331050
PAJZ,2023-04-04T10:12:00Z,PAJZ 041012Z AUTO 19017KT 3SM BR OVC004 00/00 A2982 RMK AO2 FZRANO $
PAKF,2023-04-04T10:12:00Z,PAKF 041012Z AUTO 17003KT 10SM SCT026 OVC060 A2981 RMK AO2 FZRANO $
PAKH,2023-04-04T09:56:00Z,PAKH 040956Z AUTO 10SM BKN009 OVC021 A2987 RMK AO2 SLPNO FZRANO TSNO $
PAKI,2023-04-04T10:23:00Z,PAKI 041023Z AUTO 4SM -SN OVC003 A2966 RMK AO2 RAB01E07 P0000 FZRANO $
PAKN,2023-04-04T10:20:00Z,PAKN 041020Z 19006KT 5SM -SN BR FEW004 BKN015 OVC027 01/01 A2982 RMK AO2 SNB07 P0000 T00110006
PAKP,2023-04-04T10:13:00Z,PAKP 041013Z AUTO 04007KT 2SM -SN BKN024 OVC031 M16/M19 A2962 RMK AO2 P0000 FZRANO
PAKT,2023-04-04T09:53:00Z,PAKT 040953Z AUTO 13004KT 10SM CLR 00/M02 A3012 RMK AO2 SLP201 T00001017 TSNO
PAKV,2023-04-04T10:18:00Z,PAKV 041018Z AUTO 00000KT 2 1/2SM -SN BR OVC039 M08/M10 A2978 RMK AO2 P0000 T10831100 TSNO
PAKX,2023-04-04T10:15:00Z,PAKX 041015Z AUTO 04003KT 10SM OVC039 00/M02 A2983 RMK AO2
PALG,2023-04-04T10:06:00Z,PALG 041006Z AUTO 08005KT 3SM -SN BR OVC007 M02/M02 A2968 RMK AO2 CIG 004V010 P0000 FZRANO
PALH,2023-04-04T09:53:00Z,PALH 040953Z AUTO 00000KT 10SM OVC049 M01/M06 A2991 RMK AO2 SLP131 T10111056 TSNO
PALU,2023-04-04T09:55:00Z,PALU 040955Z AUTO 29011KT 10SM CLR M20/M22 A3004 RMK AO2 SLP173 T11981224
PAMB,2023-04-04T09:56:00Z,PAMB 040956Z AUTO 21007KT 6SM BR FEW014 SCT019 OVC037 00/00 A2980 RMK AO2 SLP094 T00000000 FZRANO $
PAMC,2023-04-04T10:17:00Z,PAMC 041017Z AUTO 00000KT 1 3/4SM -SN BR BKN016 OVC022 M05/M06 A2972 RMK AO2 P0000 T10501061 TSNO $
PAMD,2023-04-04T09:51:00Z,PAMD 040951Z AUTO 09017G24KT 10SM -RA BKN007 OVC029 02/ A2990 RMK AO2 CIG 005V012 SLP114 P0000 T0017 FZRANO $
PAMH,2023-04-04T09:56:00Z,PAMH 040956Z AUTO 00000KT OVC045 M04/M09 A2973 RMK AO2 SLP073 T10441094 PWINO FZRANO $
PAMK,2023-04-04T09:56:00Z,PAMK 040956Z AUTO 03020KT 10SM OVC016 M11/M12 A2979 RMK AO2 SLP089 T11061122 FZRANO
PAMM,2023-04-04T09:56:00Z,PAMM 040956Z AUTO 00000KT 10SM CLR 02/M01 A3013 RMK AO2 SLP298 T00221006 FZRANO $
PAMO,2023-04-04T09:56:00Z,PAMO 040956Z AUTO 34008KT 3SM -SN BR SCT026 OVC035 M08/M09 A2973 RMK AO2 SLP076 P0000 T10781089 FZRANO
PAMR,2023-04-04T09:53:00Z,PAMR 040953Z 01003KT 10SM OVC060 00/M07 A2991 RMK AO2 SLP129 T00001067
PAMY,2023-04-04T09:56:00Z,PAMY 040956Z AUTO 36016KT 4SM -SN BR BKN006 OVC022 M06/M07 A2949 RMK AO2 SLP987 P0000 T10611067 FZRANO
PANA,2023-04-04T10:04:00Z,PANA 041004Z AUTO 20009KT 1/2SM FG OVC002 00/00 A2968 RMK AO2 FZRANO TSNO $
PANC,2023-04-04T09:53:00Z,PANC 040953Z 34004KT 10SM SCT050 OVC070 M01/M06 A2990 RMK AO2 SLP128 T10061056 $
PANI,2023-04-04T10:23:00Z,PANI 041023Z AUTO 00000KT 2SM -SN BR OVC004 M03/M04 A2974 RMK AO2 P0000 FZRANO $
PANV,2023-04-04T10:11:00Z,PANV 041011Z AUTO 03007KT 9SM -SN OVC028 M07/ A2969 RMK AO2 P0000 FZRANO TSNO
PANW,2023-04-04T09:56:00Z,PANW 040956Z AUTO 21011KT 1/2SM FG OVC004 00/00 A2980 RMK AO2 RAB08E35UPB26E49SNE08 SLP099 P0000 T00000000 FZRANO
PAOH,2023-04-04T09:56:00Z,PAOH 040956Z AUTO 09005KT 10SM CLR M03/M04 A3009 RMK AO2 SLP191 T10281044 FZRANO
PAOM,2023-04-04T09:53:00Z,PAOM 040953Z AUTO 35010KT 10SM CLR M17/M19 A2986 RMK AO2 SLP113 T11671194 TSNO
PAOR,2023-04-04T09:53:00Z,PAOR 040953Z 10005KT 10SM OVC100 M06/M14 A2979 RMK AO2 SLP125 T10611139 PNO
PAOT,2023-04-04T09:53:00Z,PAOT 040953Z 32005KT 10SM CLR M24/M26 A2994 RMK AO2 SLP137 T12441261 $
PAOU,2023-04-04T09:56:00Z,PAOU 040956Z AUTO 09006KT 10SM OVC022 02/01 A2982 RMK AO2 UPE33 SLP097 T00170011 FZRANO PNO $
PAPB,2023-04-04T10:00:00Z,PAPB 041000Z AUTO 28006KT 7SM UP FEW004 BKN015 OVC039 03/02 A2969 RMK AO2 P0000 T00280017 TSNO $
PAPG,2023-04-04T09:56:00Z,PAPG 040956Z AUTO 25003KT 10SM CLR M02/M03 A3012 RMK AO2 SLP204 T10221028 FZRANO
PAPH,2023-04-04T09:56:00Z,PAPH 040956Z AUTO 15006KT 10SM OVC028 02/01 A2985 RMK AO2 SLP108 T00170011 FZRANO
PAPN,2023-04-04T10:24:00Z,PAPN 041024Z AUTO 12005KT 3SM UP BR FEW003 BKN031 OVC050 01/01 A2984 RMK AO2 P0000 FZRANO
PAPO,2023-04-04T09:56:00Z,PAPO 040956Z AUTO 29007KT 10SM FEW008 M26/M28 A3006 RMK AO2 SNB08E38 SLP178 P0000 T12611283 FZRANO
PAQT,2023-04-04T10:08:00Z,PAQT 041008Z AUTO 26008KT 6SM BR OVC030 M23/M25 A2995 RMK AO2 SNE0954 T12281250 TSNO PNO
PARY,2023-04-04T09:56:00Z,PARY 040956Z AUTO 07005KT 2 1/2SM -SN BR OVC024 M07/M09 A2970 RMK AO2 SLP074 P0001 T10721089 FZRANO
PASC,2023-04-04T10:20:00Z,PASC 041020Z 31006KT 1 3/4SM -SN OVC036 M20/M23 A2991 RMK AO2 T12001228
PASD,2023-04-04T09:56:00Z,PASD 040956Z AUTO 19008KT 10SM BKN020 BKN025 OVC034 04/01 A2985 RMK AO2 RAE49 SLP109 T00390011 PNO $
PASI,2023-04-04T09:53:00Z,PASI 040953Z 09004KT 10SM CLR 01/M03 A3005 RMK AO2 SLP176 T00111028
PASK,2023-04-04T09:56:00Z,PASK 040956Z AUTO 24007KT 10SM CLR M27/M29 A2990 RMK AO2 SLP123 T12671289 FZRANO
PASL,2023-04-04T10:12:00Z,PASL 041012Z AUTO VRB05KT 9SM UP OVC009 00/00 A2975 RMK AO2 UPB11SNE11 CIG 006V014 P0000 FZRANO
PASM,2023-04-04T10:22:00Z,PASM 041022Z AUTO 01006KT 4SM -SN BR SCT022 OVC029 M06/M06 A2973 RMK AO2 P0000 FZRANO
PASN,2023-04-04T10:08:00Z,PASN 041008Z AUTO 00000KT 5SM BR OVC014 01/01 A2970 RMK AO2 T00060006 TSNO $
PASO,2023-04-04T09:53:00Z,PASO 040953Z AUTO 00000KT 10SM OVC050 01/01 A2991 RMK AO2 SLP127 T00060006 TSNO
PASV,2023-04-04T09:55:00Z,PASV 040955Z AUTO 18012KT 6SM -SN OVC022 M01/M03 A2972 RMK AO2 SNB0838 SLP087 P0001 T10121032
PASX,2023-04-04T09:56:00Z,PASX 040956Z AUTO 25004KT 10SM OVC055 M02/M04 A2993 RMK AO2 SLP144 T10171039 FZRANO
PASY,2023-04-04T09:55:00Z,PASY 040955Z 22009KT 7SM OVC015 01/M02 A2998 RMK AO2A SLP154 T00131019 RVRNO PNO FZRANO $
PATA,2023-04-04T10:17:00Z,PATA 041017Z AUTO 10003KT 1 3/4SM -SN BR BKN026 OVC041 M05/M07 A2974 RMK AO2 T10501067 TSNO
PATC,2023-04-04T10:20:00Z,PATC 041020Z AUTO 04016KT 1 1/4SM -SN BR BKN010 M22/M25 A2997 RMK AO2 SLP163
PATG,2023-04-04T09:56:00Z,PATG 040956Z AUTO 17005KT 2 1/2SM -SN BR BKN003 OVC009 00/00 A2978 RMK AO2 UPB0857E00SNE0857B00 SLP084 P0002 T00000000 FZRANO
PATK,2023-04-04T09:53:00Z,PATK 040953Z AUTO 36004KT 7SM -SN OVC044 M02/M06 A2993 RMK AO2 SLP140 P0000 T10221056 TSNO
PATL,2023-04-04T10:24:00Z,PATL 041024Z AUTO 00000KT 4SM -SN OVC022 M06/M06 A2971 RMK AO2 SLP080 TSNO $
PATO,2023-04-04T09:53:00Z,PATO 040953Z AUTO 12008G22KT 080V150 2 1/2SM -SN OVC039 01/M02 A2997 RMK AO2 SLP149 P0000 T00061022 TSNO
PATQ,2023-04-04T09:56:00Z,PATQ 040956Z AUTO 24013KT 9SM -SN OVC015 M24/M27 A2989 RMK AO2 SLP129 P0000 T12441267 FZRANO TSNO
PAUN,2023-04-04T10:16:00Z,PAUN 041016Z AUTO 33010KT 4SM UP BR BKN023 OVC030 M09/M11 A2977 RMK AO2 P0000 FZRANO
PAVC,2023-04-04T09:56:00Z,PAVC 040956Z AUTO 25010G18KT 10SM BKN014 OVC042 03/02 A2983 RMK AO2 SLP102 T00330017
PAVD,2023-04-04T09:56:00Z,PAVD 040956Z AUTO 07005KT OVC060 M01/M07 A3009 RMK AO2 SLP186 T10111067 FZRANO TSNO $
PAVL,2023-04-04T09:53:00Z,PAVL 040953Z AUTO 33007KT 10SM CLR M27/M29 A2999 RMK AO2 SLP155 I1000 T12671289 TSNO
PAWD,2023-04-04T09:53:00Z,PAWD 040953Z AUTO 00000KT 10SM OVC055 M01/M03 A2994 RMK AO2 SLP138 T10061033 TSNO
PAWI,2023-04-04T09:53:00Z,PAWI 040953Z AUTO 24009KT 10SM OVC022 M19/M22 A2987 RMK AO2 UPB11E34 SLP115 T11891217 TSNO $
PAWM,2023-04-04T09:56:00Z,PAWM 040956Z AUTO 35014KT 10SM CLR M15/M18 A2983 RMK AO2 SLP109 T11501183 FZRANO
PAWN,2023-04-04T09:56:00Z,PAWN 040956Z AUTO 35006KT 9SM -SN CLR M24/M27 A2997 RMK AO2 SNB49 SLP163 P0000 T12441272 FZRANO
PAWS,2023-04-04T09:56:00Z,PAWS 040956Z AUTO 06005KT 10SM OVC070 01/M08 A2991 RMK AO2 SLP136 T00111083 FZRANO
PAYA,2023-04-04T09:53:00Z,PAYA 040953Z AUTO 06003KT 10SM SCT120 M01/M08 A3004 RMK AO2 SLP173 T10111078 TSNO $
PAZK,2023-04-04T09:56:00Z,PAZK 040956Z AUTO 00000KT 10SM OVC060 M09/M13 A2976 RMK AO2 SLP145 T10891133 FZRANO
PFCL,2023-04-04T09:56:00Z,PFCL 040956Z AUTO 19012KT 10SM FEW003 OVC039 00/00 A2981 RMK AO2 SLP086 T00000000 FZRANO TSNO
PFEL,2023-04-04T09:56:00Z,PFEL 040956Z AUTO 01009KT 10SM BKN055 OVC070 M13/M16 A2982 RMK AO2 SLP103 T11281161 FZRANO
PFKT,2023-04-04T10:25:00Z,PFKT 041025Z AUTO 02030G38KT 1 1/2SM -SN CLR A2994 RMK AO2 PK WND 03039/1004 VIS 1 1/4V2 1/2 P0000 FZRANO $
PFSH,2023-04-04T09:56:00Z,PFSH 040956Z AUTO 01022KT 5SM BR SCT070 BKN090 M14/M16 A2982 RMK AO2 PK WND 01026/0951 SLP099 T11441161 FZRANO
PFWS,2023-04-04T09:56:00Z,PFWS 040956Z AUTO 20008KT 5SM BR OVC004 01/00 A2985 RMK AO2 UPE26RAB09E18 CIG 002V007 SLP151 P0000 T00060000 FZRANO
PFYU,2023-04-04T09:56:00Z,PFYU 040956Z AUTO 00000KT 10SM FEW048 OVC060 M07/M12 A2978 RMK AO2 SLP098 T10671122 FZRANO
PGSN,2023-04-04T09:54:00Z,PGSN 040954Z 33005KT 10SM FEW020 SCT026 27/24 A2977 RMK AO2 SLP101 T02720244 $
PGUA,2023-04-04T09:55:00Z,PGUA 040955Z AUTO 29006KT 10SM CLR 25/22 A2979 RMK AO2 SLP078 T02540217 $
PGUM,2023-04-04T09:54:00Z,PGUM 040954Z 36004KT 10SM CLR 27/22 A2979 RMK AO2 SLP078 T02670222
PHBK,2023-04-04T09:51:00Z,PHBK 040951Z AUTO 07004KT 10SM SCT050 21/18 A3009 RMK AO2 SLP192 T02110178 402780189
PHHI,2023-04-04T09:55:00Z,PHHI 040955Z AUTO 08004KT 10SM FEW031 20/17 A3012 RMK AO2 DZB36E38RAB38E48 SLP191 P0000 T02030169 402610175 $
PHJR,2023-04-04T09:53:00Z,PHJR 040953Z AUTO 36005KT 10SM CLR 21/17 A3010 RMK AO2 SLP200 T02110172 402940189 TSNO
PHKO,2023-04-04T09:53:00Z,PHKO 040953Z AUTO 07004KT 10SM FEW021 FEW100 23/19 A3007 RMK AO2 SLP181 T02280194 402780206 TSNO
PHLI,2023-04-04T09:53:00Z,PHLI 040953Z AUTO 06011KT 10SM BKN021 OVC028 23/21 A3013 RMK AO2 SLP199 T02330206 402670200 TSNO
PHMK,2023-04-04T09:54:00Z,PHMK 040954Z AUTO 04008KT 10SM CLR 22/18 A3009 RMK AO2 SLP189 T02170178 402890211 TSNO
PHNG,2023-04-04T10:11:00Z,PHNG 041011Z AUTO 08007G17KT 10SM SCT024 BKN041 A3007 RMK AO2
PHNL,2023-04-04T09:53:00Z,PHNL 040953Z 09009KT 10SM FEW025 SCT035 24/19 A3009 RMK AO2 SLP189 VCSH NE-E T02390189 402940211
PHNY,2023-04-04T09:56:00Z,PHNY 040956Z AUTO 09005KT 10SM 19/17 A3013 RMK AO2 SLP184 T01890172 402500183 $
PHOG,2023-04-04T09:54:00Z,PHOG 040954Z AUTO 10005KT 10SM CLR 22/17 A3007 RMK AO2 SLP188 T02170172 402940200 TSNO
PHSF,2023-04-04T09:55:00Z,PHSF 040955Z AUTO 00000KT 10SM SCT060 BKN080 10/08 A3038 RMK AO2 SLP188 T01000084 401760089 $
PHTO,2023-04-04T10:05:00Z,PHTO 041005Z AUTO 26006KT 5SM -RA BR OVC028 20/18 A3013 RMK AO2 P0002 T02000183 TSNO
PKMR,2023-04-04T09:52:00Z,PKMR 040952Z 07005KT 15SM FEW015 SCT300 28/24 A2978 RMK SLP088 T02830244
PKWA,2023-04-04T10:20:00Z,PKWA 041020Z AUTO 08014KT 10SM SCT016 SCT027 BKN055 28/25 A2982 RMK AO2 T02770245 TSNO
PLCH,2023-04-04T10:00:00Z,PLCH 041000Z 08004KT 9999 FEW020 27/25 Q1010
PMDY,2023-04-04T09:56:00Z,PMDY 040956Z AUTO 10SM CLR 21/18 A3025 RMK AO2 SLP245 T02060183 TSNO $
PPIZ,2023-04-04T09:56:00Z,PPIZ 040956Z AUTO 25009KT 10SM CLR M24/M26 A2998 RMK AO2 SNB29E48 SLP156 P0000 T12441261 FZRANO
PTKK,2023-04-04T09:54:00Z,PTKK 040954Z 00000KT 15SM FEW014 SCT120 OVC280 27/26 A2979 RMK SLP089 T02720259
PTRO,2023-04-04T09:50:00Z,PTRO 040950Z 04003KT 12SM SCT015 BKN110 OVC290 26/23 A2976 
PTTP,2023-04-04T09:51:00Z,PTTP 040951Z 00000KT 15SM SCT018 OVC300 26/25 A2981 RMK SLP095 T02610248
PTYA,2023-04-04T09:51:00Z,PTYA 040951Z VRB03KT 12SM FEW016 SCT130 OVC300 27/23 A2976 RMK SLP079 T02720233
PWAK,2023-04-04T09:55:00Z,PWAK 040955Z AUTO 12007KT 10SM SCT060 26/23 A2993 RMK AO2 SLP141 T02570231 $
RCFN,2023-04-04T10:00:00Z,RCFN 041000Z 30004KT 9999 FEW020 SCT045 23/18 Q1013 NOSIG RMK A2994
RCKH,2023-04-04T10:00:00Z,RCKH 041000Z 28008KT 260V340 9999 FEW020 26/19 Q1008 NOSIG RMK A2978
RCMQ,2023-04-04T10:00:00Z,RCMQ 041000Z 34004KT 9999 FEW008 SCT200 22/18 Q1010 NOSIG RMK A2983
RCNN,2023-04-04T10:00:00Z,RCNN 041000Z 32005KT 9999 FEW012 SCT021 25/19 Q1009 NOSIG RMK A2981
RCSS,2023-04-04T10:00:00Z,RCSS 041000Z 11007KT 9999 FEW025 SCT060 25/16 Q1010 NOSIG RMK A2983
RCTP,2023-04-04T10:00:00Z,RCTP 041000Z 33003KT 9999 FEW012 SCT050 24/21 Q1010 NOSIG RMK A2983
RJAA,2023-04-04T10:00:00Z,RJAA 041000Z 15004KT CAVOK 12/07 Q1023 NOSIG RMK A3023
RJAH,2023-04-04T10:00:00Z,RJAH 041000Z 11003KT 9999 FEW020 BKN/// 13/05 Q1023
RJBB,2023-04-04T10:00:00Z,RJBB 041000Z 22011KT 9999 FEW030 BKN/// 16/12 Q1023 NOSIG
RJBD,2023-04-04T10:00:00Z,RJBD 041000Z 14007KT 9999 FEW025 SCT050 15/09 Q1024
RJBE,2023-04-04T10:00:00Z,RJBE 041000Z 27007KT CAVOK 16/12 Q1023
RJCB,2023-04-04T10:00:00Z,RJCB 041000Z VRB01KT CAVOK 11/06 Q1016
RJCC,2023-04-04T10:00:00Z,RJCC 041000Z 16002KT 9999 FEW030 SCT120 BKN/// 08/01 Q1019 RMK 1SC030 4AC120 A3012
RJCH,2023-04-04T10:00:00Z,RJCH 041000Z 28008KT 250V320 CAVOK 11/00 Q1021
RJCK,2023-04-04T10:00:00Z,RJCK 041000Z VRB02KT CAVOK 05/03 Q1016
RJCM,2023-04-04T10:00:00Z,RJCM 041000Z 06003KT CAVOK 09/M00 Q1016
RJCO,2023-04-04T10:00:00Z,RJCO 041000Z VRB01KT 9999 FEW030 BKN200 10/03 Q1021
RJDB,2023-04-04T10:00:00Z,RJDB 041000Z AUTO 02004KT 9999 NSC 17/13 Q1018
RJDC,2023-04-04T10:00:00Z,RJDC 041000Z 11011KT 9999 FEW030 SCT180 BKN/// 16/12 Q1019
RJDT,2023-04-04T10:00:00Z,RJDT 041000Z 10007KT 9999 FEW015 SCT110 BKN130 16/13 Q1018
RJEC,2023-04-04T10:00:00Z,RJEC 041000Z 12003KT 090V160 CAVOK 07/01 Q1018
RJFE,2023-04-04T10:00:00Z,RJFE 041000Z 16013KT 9999 -RA FEW020 SCT090 OVC120 18/13 Q1018
RJFF,2023-04-04T10:00:00Z,RJFF 041000Z 10003KT 050V140 CAVOK 20/09 Q1018 NOSIG RMK A3008
RJFK,2023-04-04T10:00:00Z,RJFK 041000Z 13009KT 090V150 9999 FEW020 SCT030 BKN060 16/11 Q1021 RMK 1CU020 4CU030 6SC060 A3016
RJFM,2023-04-04T10:00:00Z,RJFM 041000Z 13015KT 9999 VCSH FEW020 SCT030 BKN060 19/12 Q1021
RJFO,2023-04-04T10:00:00Z,RJFO 041000Z 15015KT 9999 FEW035 BKN/// 17/13 Q1021
RJFR,2023-04-04T10:00:00Z,RJFR 041000Z 12006KT 9999 FEW040 SCT060 BKN/// 17/12 Q1019
RJFS,2023-04-04T10:00:00Z,RJFS 041000Z 15005KT 9999 FEW045 BKN170 BKN190 19/11 Q1018
RJFT,2023-04-04T10:00:00Z,RJFT 041000Z 12011KT 9999 FEW040 SCT060 BKN/// 19/07 Q1019
RJFU,2023-04-04T10:00:00Z,RJFU 041000Z 13006KT 9999 FEW050 SCT070 BKN160 19/13 Q1018
RJGG,2023-04-04T10:00:00Z,RJGG 041000Z 15012KT 9999 FEW030 BKN/// 16/11 Q1023 NOSIG
RJKA,2023-04-04T10:00:00Z,RJKA 041000Z 12017KT 9999 FEW030 SCT040 BKN060 20/14 Q1018
RJKI,2023-04-04T10:00:00Z,RJKI 041000Z AUTO 12010KT 090V150 9999 FEW031 SCT035 OVC050 20/13 Q1018
RJNK,2023-04-04T10:00:00Z,RJNK 041000Z 36004KT 9999 SCT/// 13/09 Q1022
RJNS,2023-04-04T10:00:00Z,RJNS 041000Z 23005KT 9999 FEW030 BKN/// 14/06 Q1024
RJNT,2023-04-04T10:00:00Z,RJNT 041000Z 01004KT CAVOK 13/06 Q1023
RJNW,2023-04-04T10:00:00Z,RJNW 041000Z 00000KT CAVOK 09/00 Q1023
RJOA,2023-04-04T10:00:00Z,RJOA 041000Z VRB02KT 9999 FEW030 BKN/// 15/07 Q1022
RJOB,2023-04-04T10:00:00Z,RJOB 041000Z 14003KT 9999 FEW035 BKN/// 15/05 Q1022
RJOC,2023-04-04T10:00:00Z,RJOC 041000Z 07006KT CAVOK 16/11 Q1021
RJOF,2023-04-04T09:36:00Z,RJOF 040936Z 12015G25KT 9999 FEW030 SCT060 BKN180 17/11 Q1020 RMK 1CU030 3AC060 5AC180 A3014
RJOH,2023-04-04T10:00:00Z,RJOH 041000Z 10003KT 9999 FEW180 BKN210 13/10 Q1021
RJOI,2023-04-04T09:56:00Z,RJOI 040956Z 18006KT 10SM FEW030 SCT060 BKN200 18/10 A3018 RMK AO2 SLP218 T01780100
RJOK,2023-04-04T10:00:00Z,RJOK 041000Z 15008KT 9999 FEW035 BKN/// 18/10 Q1023
RJOM,2023-04-04T10:00:00Z,RJOM 041000Z VRB02KT 9999 FEW040 BKN050 BKN070 17/11 Q1022
RJOO,2023-04-04T10:00:00Z,RJOO 041000Z 25006KT 190V300 9999 FEW040 SCT/// 18/09 Q1022 RMK 1CU040 A3020
RJOR,2023-04-04T10:00:00Z,RJOR 041000Z VRB02KT CAVOK 13/11 Q1022
RJOS,2023-04-04T10:00:00Z,RJOS 041000Z 16016KT 9999 FEW030 BKN/// 17/11 Q1022
RJOT,2023-04-04T10:00:00Z,RJOT 041000Z VRB01KT 9999 FEW035 SCT060 BKN/// 15/07 Q1022
RJOW,2023-04-04T10:00:00Z,RJOW 041000Z 14004KT 9999 FEW030 BKN180 18/05 Q1020
RJOY,2023-04-04T10:00:00Z,RJOY 041000Z 33004KT 9999 FEW030 SCT070 BKN/// 17/10 Q1022
RJSA,2023-04-04T10:00:00Z,RJSA 041000Z 20006KT CAVOK 05/M02 Q1023
RJSC,2023-04-04T10:00:00Z,RJSC 041000Z 07004KT 030V120 CAVOK 14/01 Q1022
RJSF,2023-04-04T10:00:00Z,RJSF 041000Z 14005KT 9999 FEW040 BKN/// 13/04 Q1023
RJSI,2023-04-04T10:00:00Z,RJSI 041000Z 27006KT 200V320 CAVOK 14/03 Q1022
RJSK,2023-04-04T10:00:00Z,RJSK 041000Z 29005KT CAVOK 09/06 Q1024
RJSM,2023-04-04T10:00:00Z,RJSM 041000Z 20004KT 150V220 9999 FEW150 BKN/// 13/M02 Q1022
RJSN,2023-04-04T10:00:00Z,RJSN 041000Z 02008KT CAVOK 12/07 Q1023
RJSR,2023-04-04T10:00:00Z,RJSR 041000Z 25004KT 200V270 CAVOK 09/06 Q1024
RJSS,2023-04-04T10:00:00Z,RJSS 041000Z 20004KT CAVOK 13/07 Q1023
RJSY,2023-04-04T10:00:00Z,RJSY 041000Z 16001KT CAVOK 09/07 Q1024
RJTT,2023-04-04T10:00:00Z,RJTT 041000Z 21010KT CAVOK 16/05 Q1023 NOSIG RMK A3023
RJTY,2023-04-04T09:55:00Z,RJTY 040955Z AUTO 21006KT 10SM CLR 14/01 A3024 RMK AO2 SLP245 T01440013 TSNO $
RKJB,2023-04-04T10:00:00Z,RKJB 041000Z 14011KT 6000 -RA BKN035 OVC070 15/13 Q1015 NOSIG
RKJK,2023-04-04T09:55:00Z,RKJK 040955Z AUTO 09008KT 10SM -RA BR OVC070 14/14 A3001 RMK AO2 SLP167 P0003 T01390137 $
RKNN,2023-04-04T09:26:00Z,RKNN 040926Z 28005KT 9999 OVC150 14/09 A3010 RMK CIG150
RKNW,2023-04-04T09:15:00Z,RKNW 040915Z 22003KT 9999 FEW030 BKN100 19/00 A3002 RMK CIG100
RKNY,2023-04-04T10:00:00Z,RKNY 041000Z 34005KT 9999 FEW015 SCT050 OVC120 12/11 Q1018 NOSIG
RKPC,2023-04-04T10:00:00Z,RKPC 041000Z 05008KT 9999 -RA BKN030 OVC080 18/12 Q1013 WS R07 R25 NOSIG
RKPK,2023-04-04T10:00:00Z,RKPK 041000Z 33001KT CAVOK 18/10 Q1019
RKSF,2023-04-04T09:59:00Z,RKSF 040959Z 13003KT 9999 -RA BKN050 OVC100 21/M00 A3000 RMK CIG050
RKSG,2023-04-04T09:55:00Z,RKSG 040955Z 20011KT 10SM -RA BKN055 BKN070 16/15 A3005 RMK AO2A SLP179 P0000 T01580152 $
RKSI,2023-04-04T10:00:00Z,RKSI 041000Z 22017KT 8000 -RA FEW045 BKN060 13/10 Q1017 NOSIG
RKSM,2023-04-04T10:00:00Z,RKSM 041000Z 20012KT 9999 -RA BKN050 OVC080 20/03 A3003
RKSO,2023-04-04T09:54:00Z,RKSO 040954Z 24008KT 6SM -RA BR OVC065 16/15 A3005 RMK RAB0837 SLP180 P0002 T01550152 $
RKSS,2023-04-04T10:00:00Z,RKSS 041000Z 23015KT 180V260 9999 -RA SCT045 OVC080 18/05 Q1017 NOSIG
RKTB,2023-04-04T09:14:00Z,RKTB 040914Z 22009KT 9999 -RA OVC050 13/11 A3006 RMK CIG050
RKTN,2023-04-04T10:00:00Z,RKTN 041000Z 16004KT 9999 -RA BKN050 BKN100 19/08 Q1018
RKTU,2023-04-04T10:00:00Z,RKTU 041000Z 23006KT 9999 -RA NSC 15/11 Q1018
RKTY,2023-04-04T10:14:00Z,RKTY 041014Z 21005KT 9999 -RA BKN070 OVC100 19/07 A3007 RMK CIG070
ROAH,2023-04-04T10:00:00Z,ROAH 041000Z 12015KT 9999 FEW038 22/12 Q1016 RMK 1CU038 A3000
RODE,2023-04-04T09:59:00Z,RODE 040959Z AUTO 11010KT OVC047 20/12 A3003 RMK AO2 SLP208 T02000122 $
RODN,2023-04-04T09:55:00Z,RODN 040955Z AUTO 10011G15KT 10SM CLR 21/13 A2998 RMK AO2 SLP159 T02070129 $
ROIG,2023-04-04T10:00:00Z,ROIG 041000Z 13010KT 100V160 9999 FEW033 BKN050 23/17 Q1013
ROMD,2023-04-04T10:00:00Z,ROMD 041000Z AUTO VRB09G20KT 9999 FEW038 20/13 Q1018
ROMY,2023-04-04T10:00:00Z,ROMY 041000Z 12011KT 9999 SCT034 21/15 Q1014
RORK,2023-04-04T10:00:00Z,RORK 041000Z AUTO 09024KT 9000 FEW038 SCT050 21/14 Q1017
RORS,2023-04-04T10:00:00Z,RORS 041000Z 13012KT 9999 FEW035 22/15 Q1014
RORT,2023-04-04T10:00:00Z,RORT 041000Z AUTO 13007KT 100V170 9999 FEW034 SCT037 BKN046 23/16 Q1014
RORY,2023-04-04T10:00:00Z,RORY 041000Z AUTO 12017KT 9999 FEW036 SCT038 21/13 Q1016
ROTM,2023-04-04T09:56:00Z,ROTM 040956Z 10014G21KT 9999 BKN039 21/14 A3002 RMK SLP154 WND WRNG XWND ADV T02060139
ROYN,2023-04-04T10:00:00Z,ROYN 041000Z AUTO 16014KT 9999 FEW031 SCT042 23/17 Q1012
RPLB,2023-04-04T10:00:00Z,RPLB 041000Z 05006KT 020V080 9999 VCSH BKN020 30/23 Q1008 NOSIG RMK A2977 VCSH NW
RPLC,2023-04-04T10:00:00Z,RPLC 041000Z 18012KT 8000 SCT020 BKN100 30/23 Q1009 NOSIG RMK A2980
RPLI,2023-04-04T10:00:00Z,RPLI 041000Z 32003KT 260V360 9999 FEW018 29/24 Q1008 NOSIG RMK A2977
RPLL,2023-04-04T10:00:00Z,RPLL 041000Z 11009KT 070V150 9999 FEW025 SCT100 28/22 Q1008 NOSIG RMK A2977
RPMD,2023-04-04T10:00:00Z,RPMD 041000Z 18006KT 9999 FEW016 SCT090 BKN250 28/23 Q1008 RMK A2977
RPMZ,2023-04-04T10:00:00Z,RPMZ 041000Z VRB02KT 9999 FEW017 BKN300 28/25 Q1008 RMK A2977
RPVM,2023-04-04T10:00:00Z,RPVM 041000Z 03010KT 9999 FEW018CB BKN250 30/24 Q1009 NOSIG RMK A2980 CB NE/SW
RPVP,2023-04-04T10:00:00Z,RPVP 041000Z 12004KT 9999 FEW019 SCT250 30/23 Q1008 RMK A2977
SAAR,2023-04-04T10:09:00Z,SAAR 041009Z 19005KT 0600 R20/0700D FG SCT001 BKN003 13/13 Q1016
SABE,2023-04-04T10:00:00Z,SABE 041000Z 18003KT 130V240 8000 NSC 17/16 Q1017 NOSIG RMK PP000
SACO,2023-04-04T10:00:00Z,SACO 041000Z 22004KT 7000 -DZ BKN005 BKN007 18/17 Q1017 TEMPO 5000 DZ RMK PP999
SADF,2023-04-04T10:15:00Z,SADF 041015Z 18003KT 1300 R05/P2000N BR NSC 16/15 Q1016
SAEZ,2023-04-04T10:00:00Z,SAEZ 041000Z 18003KT 0800 R11/1000 FG OVC002 15/15 Q1017 NOSIG
SAME,2023-04-04T10:00:00Z,SAME 041000Z 23003KT CAVOK 18/11 Q1016
SANE,2023-04-04T10:20:00Z,SANE 041020Z 17011KT 5000 DZ SCT005 OVC010 19/19 Q1014
SANT,2023-04-04T10:09:00Z,SANT 041009Z 22011KT 4000 RADZ BKN003 BKN015 OVC040 20/19 Q1013
SAOC,2023-04-04T10:15:00Z,SAOC 041015Z 00000KT 0800 FG FEW035 SCT200 15/14 Q1017
SARC,2023-04-04T10:00:00Z,SARC 041000Z 16010KT CAVOK 22/15 Q1011
SARE,2023-04-04T10:00:00Z,SARE 041000Z 15010KT CAVOK 22/15 Q1011 RMK PP///
SARF,2023-04-04T10:00:00Z,SARF 041000Z 14004KT CAVOK 23/21 Q1010
SARI,2023-04-04T10:00:00Z,SARI 041000Z 09004KT CAVOK 19/18 Q1013 RMK PP000
SARL,2023-04-04T10:00:00Z,SARL 041000Z 20004KT 8000 -RA FEW015 OVC040 19/17 Q1013
SARP,2023-04-04T10:00:00Z,SARP 041000Z 14005KT CAVOK 20/16 Q1012
SASA,2023-04-04T10:00:00Z,SASA 041000Z 28004KT 200V330 8000 VCSH FEW007 BKN040 FEW050CB 18/17 Q1015 RETS RMK PP000 CB TO OBS N E
SASJ,2023-04-04T10:00:00Z,SASJ 041000Z 16011KT 9000 -TSRA BKN011 OVC035 FEW046CB 20/18 Q1013
SAVC,2023-04-04T10:00:00Z,SAVC 041000Z 33005KT CAVOK 15/03 Q1012 RMK PP000
SAWE,2023-04-04T10:00:00Z,SAWE 041000Z 32008KT 9999 FEW048 02/M00 Q1003 RMK PP000
SAWG,2023-04-04T10:00:00Z,SAWG 041000Z 32005KT 9999 FEW025 SCT100 06/02 Q1005
SAWH,2023-04-04T10:00:00Z,SAWH 041000Z 36006KT 310V020 CAVOK 08/M04 Q0999 RMK PP000
SAZB,2023-04-04T10:05:00Z,SAZB 041005Z 03004KT 360V060 0800 R17///// BCFG NSC 10/09 Q1019
SAZM,2023-04-04T10:00:00Z,SAZM 041000Z 14006KT 8000 BKN019 16/16 Q1018 RMK PP///
SAZN,2023-04-04T10:00:00Z,SAZN 041000Z 00000KT CAVOK 08/07 Q1016
SAZR,2023-04-04T10:17:00Z,SAZR 041017Z VRB00KT 0050 R19/0225 FG NSC 12/12 Q1018 RMK PP000
SAZS,2023-04-04T10:00:00Z,SAZS 041000Z 13003KT CAVOK 00/M05 Q1018 RMK PP///
SBAF,2023-04-04T10:00:00Z,SBAF 041000Z 31002KT 9999 FEW020 BKN060 21/21 Q1015
SBAN,2023-04-04T10:00:00Z,SBAN 041000Z 07005KT 9999 FEW004 SCT100 17/16 Q1018
SBAR,2023-04-04T10:00:00Z,SBAR 041000Z 23007KT 4000 -RA SCT005 BKN015 24/23 Q1012
SBBE,2023-04-04T10:00:00Z,SBBE 041000Z 12002KT 9999 FEW009 BKN040 24/23 Q1011
SBBG,2023-04-04T10:23:00Z,SBBG 041023Z AUTO 11004KT CAVOK ///// Q////
SBBH,2023-04-04T10:00:00Z,SBBH 041000Z 10003KT CAVOK 20/16 Q1018
SBBI,2023-04-04T10:00:00Z,SBBI 041000Z 06002KT 2500 BR BCFG OVC002 15/14 Q1018
SBBR,2023-04-04T10:00:00Z,SBBR 041000Z 19003KT 9999 FEW030 BKN100 18/16 Q1018
SBBU,2023-04-04T10:00:00Z,SBBU 041000Z 16004KT 5000 BR NSC 20/18 Q1016
SBBV,2023-04-04T10:00:00Z,SBBV 041000Z 09006KT CAVOK 24/18 Q1010
SBCB,2023-04-04T10:00:00Z,SBCB 041000Z 06004KT 9999 FEW020 22/21 Q1015
SBCF,2023-04-04T10:00:00Z,SBCF 041000Z 12004KT CAVOK 19/17 Q1018
SBCG,2023-04-04T10:00:00Z,SBCG 041000Z 06012KT CAVOK 23/19 Q1013
SBCH,2023-04-04T10:00:00Z,SBCH 041000Z 05005KT CAVOK 18/17 Q1015
SBCJ,2023-04-04T10:15:00Z,SBCJ 041015Z 19003KT CAVOK 21/19 Q1015
SBCO,2023-04-04T10:00:00Z,SBCO 041000Z 35002KT 4900 BR FEW015 SCT070 17/17 Q1012
SBCP,2023-04-04T10:00:00Z,SBCP 041000Z 00000KT CAVOK 22/21 Q1015
SBCT,2023-04-04T10:00:00Z,SBCT 041000Z VRB02KT 2500 BR BCFG OVC002 15/14 Q1019
SBCY,2023-04-04T10:00:00Z,SBCY 041000Z 28006KT CAVOK 22/21 Q1012
SBDN,2023-04-04T10:00:00Z,SBDN 041000Z 13003KT CAVOK 20/17 Q1014
SBEG,2023-04-04T10:00:00Z,SBEG 041000Z VRB02KT 9999 FEW003 SCT060 BKN100 24/23 Q1010
SBES,2023-04-04T10:00:00Z,SBES 041000Z VRB01KT 9999 FEW045 20/20 Q1015
SBFI,2023-04-04T10:00:00Z,SBFI 041000Z 11006KT CAVOK 21/19 Q1013
SBFL,2023-04-04T10:00:00Z,SBFL 041000Z 34005KT CAVOK 22/20 Q1013
SBFN,2023-04-04T10:02:00Z,SBFN 041002Z AUTO 14004KT 100V170 CAVOK 28/25 Q1011
SBFS,2023-04-04T10:00:00Z,SBFS 041000Z 29004KT 9999 FEW020 BKN070 22/20 Q1015
SBFZ,2023-04-04T10:00:00Z,SBFZ 041000Z 19004KT 9999 FEW005 SCT090 24/24 Q1011
SBGL,2023-04-04T10:00:00Z,SBGL 041000Z 34002KT 9999 FEW010 BKN060 22/20 Q1015
SBGO,2023-04-04T10:00:00Z,SBGO 041000Z 13004KT CAVOK 19/18 Q1016
SBGR,2023-04-04T10:00:00Z,SBGR 041000Z 09004KT 9999 BKN007 18/17 Q1018
SBGW,2023-04-04T10:00:00Z,SBGW 041000Z VRB02KT 4000 BR BKN011 19/18 Q1017
SBHT,2023-04-04T10:00:00Z,SBHT 041000Z 08001KT 9999 BCFG FEW010 BKN080 24/24 Q1011
SBIL,2023-04-04T10:00:00Z,SBIL 041000Z 24007KT 9999 FEW020 FEW023TCU 25/24 Q1013
SBIP,2023-04-04T10:00:00Z,SBIP 041000Z AUTO 00000KT 9999 FEW038 23/19 Q1016
SBIZ,2023-04-04T10:00:00Z,SBIZ 041000Z 09003KT 9999 SCT015 25/23 Q1012
SBJP,2023-04-04T10:00:00Z,SBJP 041000Z 18007KT 9999 SCT022 25/23 Q1011
SBJR,2023-04-04T10:00:00Z,SBJR 041000Z 35003KT 9999 FEW030 SCT050 23/21 Q1014
SBJU,2023-04-04T10:00:00Z,SBJU 041000Z 08008KT 9999 FEW018 22/22 Q1016
SBJV,2023-04-04T10:00:00Z,SBJV 041000Z 33001KT CAVOK 18/17 Q1014
SBKG,2023-04-04T10:00:00Z,SBKG 041000Z 25003KT 9999 BKN015 23/23 Q1014
SBKP,2023-04-04T10:14:00Z,SBKP 041014Z 12006KT 3000 BR BKN003 18/17 Q1017
SBLB,2023-04-04T10:00:00Z,SBLB 041000Z AUTO 12014KT 9999 FEW063 26/18 Q1015 W///S5
SBLE,2023-04-04T10:00:00Z,SBLE 041000Z AUTO 00000KT CAVOK 22/20 Q1016
SBLO,2023-04-04T10:00:00Z,SBLO 041000Z 10004KT CAVOK 19/19 Q1016
SBLS,2023-04-04T10:00:00Z,SBLS 041000Z 15007KT CAVOK 19/16 Q1018
SBMA,2023-04-04T10:00:00Z,SBMA 041000Z 16003KT CAVOK 24/24 Q1011
SBME,2023-04-04T10:00:00Z,SBME 041000Z 35002KT CAVOK 20/20 Q1015
SBMG,2023-04-04T10:00:00Z,SBMG 041000Z 05008KT CAVOK 22/17 Q1013
SBMK,2023-04-04T10:00:00Z,SBMK 041000Z 12004KT 9999 SCT030 22/17 Q1017
SBMN,2023-04-04T10:00:00Z,SBMN 041000Z 02004KT 9999 FEW010 BKN100 25/23 Q1010
SBMO,2023-04-04T10:00:00Z,SBMO 041000Z 33004KT 9999 VCSH FEW009 SCT015 FEW023TCU BKN025 24/23 Q1012
SBMQ,2023-04-04T10:00:00Z,SBMQ 041000Z 34002KT 9999 SCT019 SCT100 24/24 Q1011
SBMT,2023-04-04T10:00:00Z,SBMT 041000Z 05003KT 8000 SCT011 BKN013 19/18 Q1018
SBNF,2023-04-04T10:00:00Z,SBNF 041000Z 28005KT 9999 SCT030 18/18 Q1014
SBNT,2023-04-04T10:00:00Z,SBNT 041000Z 20006KT 9999 FEW023 SCT100 26/23 Q1010
SBOI,2023-04-04T10:00:00Z,SBOI 041000Z VRB01KT 3000 BR FEW023 21/21 Q1011
SBPA,2023-04-04T10:00:00Z,SBPA 041000Z VRB02KT 9000 NSC 19/18 Q1012
SBPB,2023-04-04T10:15:00Z,SBPB 041015Z 28003KT 9999 FEW016 SCT070 ///// Q1010
SBPF,2023-04-04T10:00:00Z,SBPF 041000Z 05004KT CAVOK 14/12 Q1015
SBPJ,2023-04-04T10:00:00Z,SBPJ 041000Z 11003KT 9999 FEW025 BKN100 22/22 Q1013
SBPK,2023-04-04T10:15:00Z,SBPK 041015Z 25005KT 8000 NSC 19/18 Q1014
SBPL,2023-04-04T10:00:00Z,SBPL 041000Z 18008KT 9999 FEW020 25/21 Q1014
SBPS,2023-04-04T10:00:00Z,SBPS 041000Z 25007KT 9999 FEW020 BKN100 23/22 Q1014
SBPV,2023-04-04T10:00:00Z,SBPV 041000Z 28001KT 9999 SCT030 SCT100 24/23 Q1009
SBRB,2023-04-04T10:00:00Z,SBRB 041000Z 01003KT 9999 FEW004 23/23 Q1009
SBRF,2023-04-04T10:00:00Z,SBRF 041000Z 24004KT 190V300 9999 SCT023 26/23 Q1011
SBRJ,2023-04-04T10:00:00Z,SBRJ 041000Z 01005KT 9999 FEW030 SCT050 23/20 Q1014
SBRP,2023-04-04T10:00:00Z,SBRP 041000Z 11003KT 8000 SCT002 18/18 Q1016
SBSC,2023-04-04T10:00:00Z,SBSC 041000Z 02005KT CAVOK 21/20 Q1015
SBSG,2023-04-04T10:00:00Z,SBSG 041000Z 25004KT 210V290 9999 FEW020 25/24 Q1011
SBSJ,2023-04-04T10:00:00Z,SBSJ 041000Z 06003KT 020V150 8000 BKN009 19/17 Q1017
SBSL,2023-04-04T10:00:00Z,SBSL 041000Z 16005KT CAVOK 25/24 Q1011
SBSM,2023-04-04T10:00:00Z,SBSM 041000Z VRB02KT CAVOK 14/14 Q1013
SBSN,2023-04-04T10:00:00Z,SBSN 041000Z 17003KT CAVOK 24/23 Q1010
SBSP,2023-04-04T10:00:00Z,SBSP 041000Z 06004KT 030V110 9000 BKN010 19/17 Q1018
SBSR,2023-04-04T10:00:00Z,SBSR 041000Z 07005KT 9999 FEW040 20/17 Q1015
SBSV,2023-04-04T10:13:00Z,SBSV 041013Z 13009KT 4000 -RA BKN010 BKN015 FEW025TCU 24/23 Q1013 RESHRA
SBTA,2023-04-04T10:00:00Z,SBTA 041000Z 24003KT 190V280 9999 OVC011 18/17 Q1016
SBTE,2023-04-04T10:00:00Z,SBTE 041000Z 00000KT 9999 FEW006 SCT010 OVC070 23/23 Q1010
SBTU,2023-04-04T10:06:00Z,SBTU 041006Z AUTO 20005KT //// // BKN003/// OVC010/// 23/23 Q1013
SBUL,2023-04-04T10:00:00Z,SBUL 041000Z 09004KT CAVOK 18/16 Q1018
SBUR,2023-04-04T10:00:00Z,SBUR 041000Z 05006KT CAVOK 20/15 Q1017
SBVT,2023-04-04T10:00:00Z,SBVT 041000Z 35002KT 9999 VCSH BKN030 22/21 Q1015
SBYS,2023-04-04T10:00:00Z,SBYS 041000Z 20002KT 5000 BR NSC 18/18 Q1017
SCAP,2023-04-04T10:00:00Z,SCAP 041000Z AUTO VRB02KT 9999 ////// 04/02 Q1020
SCAR,2023-04-04T10:00:00Z,SCAR 041000Z 09005KT CAVOK 22/16 Q1008
SCAT,2023-04-04T10:19:00Z,SCAT 041019Z AUTO 35003KT 320V020 5000 BR BKN008/// OVC011/// 16/16 Q1011
SCBA,2023-04-04T10:22:00Z,SCBA 041022Z AUTO 30009KT 9999 BKN011/// BKN034/// OVC056/// 10/09 Q1010
SCCF,2023-04-04T10:00:00Z,SCCF 041000Z 10010KT 9999 BKN070 12/09 Q1023
SCCH,2023-04-04T10:00:00Z,SCCH 041000Z AUTO 23005KT 9999 ///////// 07/05 Q1013
SCCI,2023-04-04T10:00:00Z,SCCI 041000Z 34012KT 9999 FEW040 04/M01 Q1001 NOSIG
SCCY,2023-04-04T10:00:00Z,SCCY 041000Z 03006KT 350V070 9999 -SHRA SCT025 OVC033 11/09 Q1011
SCDA,2023-04-04T10:00:00Z,SCDA 041000Z 19008KT CAVOK 21/17 Q1008
SCEL,2023-04-04T10:00:00Z,SCEL 041000Z VRB01KT CAVOK 13/06 Q1012 NOSIG
SCFA,2023-04-04T10:00:00Z,SCFA 041000Z 16002KT CAVOK 19/17 Q1010 NOSIG
SCHR,2023-04-04T10:00:00Z,SCHR 041000Z AUTO 30005KT 270V340 0750 // FEW001 07/06 Q1006
SCIC,2023-04-04T10:00:00Z,SCIC 041000Z AUTO 18008KT //// R/////// // NCD 10/05 Q1012
SCIE,2023-04-04T10:00:00Z,SCIE 041000Z VRB02KT CAVOK 07/06 Q1013
SCIP,2023-04-04T10:00:00Z,SCIP 041000Z 30011KT 9999 BKN015 24/23 Q1013 NOSIG
SCJO,2023-04-04T10:10:00Z,SCJO 041010Z AUTO 00000KT 0700 FG ///////// 02/02 Q1017
SCMK,2023-04-04T10:00:00Z,SCMK 041000Z AUTO 34013KT //// // OVC014/// 11/11 Q1014
SCON,2023-04-04T10:00:00Z,SCON 041000Z AUTO 02005KT 340V060 9999 FEW059/// SCT099/// BKN200/// 12/11 Q1016
SCPD,2023-04-04T10:00:00Z,SCPD 041000Z AUTO 00000KT //// ///////// 11/05 Q1012
SCPQ,2023-04-04T10:00:00Z,SCPQ 041000Z AUTO 35006KT 330V030 9999 OVC008 11/10 Q1016
SCQP,2023-04-04T10:00:00Z,SCQP 041000Z VRB02KT 0700 R01/0800 FG VV002 03/03 Q1015
SCSE,2023-04-04T10:00:00Z,SCSE 041000Z AUTO 07004KT 1600 BR VV002 14/14 Q1011
SCTE,2023-04-04T10:00:00Z,SCTE 041000Z 00000KT CAVOK 03/02 Q1017 NOSIG
SCTN,2023-04-04T10:00:00Z,SCTN 041000Z AUTO 04005KT 360V060 CAVOK 08/07 Q1016
SCVD,2023-04-04T10:00:00Z,SCVD 041000Z AUTO VRB02KT 1100 R35///// FG BKN001 OVC003 01/01 Q1016
SCVM,2023-04-04T10:00:00Z,SCVM 041000Z 00000KT CAVOK 10/08 Q1011
SEGU,2023-04-04T09:15:00Z,SEGU 040915Z 19007KT 4000 +RA SCT005 BKN016 OVC090 25/24 Q1008 NOSIG RMK A2977
SEMT,2023-04-04T10:00:00Z,SEMT 041000Z 15003KT TS SCT023 BKN100 26/23 Q1008 RMQ A2978 CB A W
SEQM,2023-04-04T10:00:00Z,SEQM 041000Z 16003KT 9999 FEW005 SCT023 BKN080 11/11 Q1024 NOSIG RMK A3024
SGAS,2023-04-04T10:00:00Z,SGAS 041000Z VRB03KT CAVOK 24/21 Q1010
SGEN,2023-04-04T10:00:00Z,SGEN 041000Z 07003KT CAVOK 22/13 Q1011
SGES,2023-04-04T10:00:00Z,SGES 041000Z 15003KT 2000 BR NSC 21/20 Q1012
SKBO,2023-04-04T10:00:00Z,SKBO 041000Z 07004KT 9999 BKN025 12/08 Q1025 NOSIG RMK A3027
SKBQ,2023-04-04T10:00:00Z,SKBQ 041000Z 03005KT 9999 FEW015 26/22 Q1006 NOSIG RMK A2973
SKCC,2023-04-04T10:00:00Z,SKCC 041000Z VRB02KT 5000 BCFG BKN007 BKN050 23/23 Q1012 RMK A2989
SKCG,2023-04-04T10:00:00Z,SKCG 041000Z VRB02KT 9999 FEW015 SCT070 25/23 Q1006 RMK A2971
SKCL,2023-04-04T10:00:00Z,SKCL 041000Z 00000KT 9999 SCT025CB BKN100 20/19 Q1012 NOSIG RMK CB/NE/E A2989
SKLT,2023-04-04T10:00:00Z,SKLT 041000Z 00000KT 9999 SCT007 BKN080 23/23 Q1008 RMK A2979
SKPE,2023-04-04T10:00:00Z,SKPE 041000Z VRB02KT 9000 SCT015 SCT080 19/18 Q1014 RMK HZ A2995
SKRG,2023-04-04T10:00:00Z,SKRG 041000Z VRB02KT 8000 VCFG BKN007 SCT080 15/15 Q1022 NOSIG RMK A3021
SKSP,2023-04-04T10:00:00Z,SKSP 041000Z 06012KT 9999 FEW017 26/22 Q1011 RMK A2985
SLAL,2023-04-04T10:00:00Z,SLAL 041000Z 36005KT 9999 4000N VCFG SCT010 SCT070 09/09 Q1027
SLCA,2023-04-04T10:00:00Z,SLCA 041000Z 36003KT 9999 BIFG NSC 19/18 Q1012
SLCB,2023-04-04T10:00:00Z,SLCB 041000Z 16004KT 110V220 9999 SCT030 FEW033CB BKN070 BKN200 16/11 Q1022
SLCO,2023-04-04T10:00:00Z,SLCO 041000Z 00000KT 4000 BR FEW003 SCT080 24/23 Q1008
SLCP,2023-04-04T10:00:00Z,SLCP 041000Z 00000KT 9999 SCT008 BKN200 21/21 Q1013
SLET,2023-04-04T10:00:00Z,SLET 041000Z 34010KT 8000 VCSH BKN008 BKN013 FEW030CB 23/23 Q1010
SLGM,2023-04-04T10:00:00Z,SLGM 041000Z 00000KT 9999 FEW020 SCT080 BKN200 23/22 Q1008
SLJV,2023-04-04T10:00:00Z,SLJV 041000Z 36005KT 4000 BR NSC 21/20 Q1010
SLLP,2023-04-04T10:00:00Z,SLLP 041000Z VRB02KT 4000E VCFG FEW002 SCT012 BKN200 05/04 Q1034
SLRI,2023-04-04T10:00:00Z,SLRI 041000Z 00000KT 9999 SCT008 BKN080 23/23 Q1010
SLSA,2023-04-04T10:00:00Z,SLSA 041000Z 33006KT 9999 SCT015 FEW023CB SCT080 BKN200 24/24 Q1008
SLTJ,2023-04-04T10:00:00Z,SLTJ 041000Z 00000KT 9999 FEW025 SCT070 16/15 Q1016
SLTR,2023-04-04T10:00:00Z,SLTR 041000Z 00000KT 9999 FEW008 BKN080 24/24 Q1009
SLUY,2023-04-04T10:00:00Z,SLUY 041000Z 02008KT 9999 FEW010 01/M04 Q1031
SLVM,2023-04-04T10:00:00Z,SLVM 041000Z 00000KT 9999 NSC 20/20 Q1007
SLVR,2023-04-04T10:00:00Z,SLVR 041000Z 02009KT 9999 SCT008 BKN013 FEW027CB 23/23 Q1010
SMJP,2023-04-04T10:00:00Z,SMJP 041000Z VRB02KT 6000 NSC 22/21 Q1011 NOSIG
SMZO,2023-04-04T10:00:00Z,SMZO 041000Z 00000KT 9999 FEW012 24/23 Q1011 NOSIG
SOCA,2023-04-04T10:00:00Z,SOCA 041000Z AUTO 00000KT CAVOK 22/22 Q1011 TEMPO 3000 SHRA BKN015TCU
SPHI,2023-04-04T10:00:00Z,SPHI 041000Z 07004KT 9999 SCT035 BKN100 25/24 Q1007 RMK BIRD HAZARD RWY 19/01 PP000
SPHO,2023-04-04T10:00:00Z,SPHO 041000Z 24004KT 200V270 6000 RA FEW007 OVC070 12/11 Q1025 RMK RA EN LA NOCHE PP055
SPJC,2023-04-04T10:00:00Z,SPJC 041000Z 16008KT 9999 SCT007 24/22 Q1008 NOSIG RMK PP000
SPJR,2023-04-04T10:00:00Z,SPJR 041000Z 05002KT 9999 VCSH SCT023 BKN050 10/10 Q1025 RMK RA EN LA NOCHE PP044
SPQT,2023-04-04T10:00:00Z,SPQT 041000Z VRB01KT 9999 SCT003 BKN100 24/23 Q1009 NOSIG RMK PP000
SPRU,2023-04-04T10:00:00Z,SPRU 041000Z 14007KT 9000 BKN150 25/22 Q1007 RMK PP000
SPSO,2023-04-04T10:00:00Z,SPSO 041000Z 08003KT 7000 NSC 21/20 Q1008 RMK BR PP000
SPUR,2023-04-04T10:00:00Z,SPUR 041000Z 02003KT 9999 BKN010 SCT020 24/23 Q1009 RMK PP000
SUAA,2023-04-04T10:00:00Z,SUAA 041000Z 23002KT 9999 BKN010 OVC070 17/16 Q1016
SUCA,2023-04-04T10:00:00Z,SUCA 041000Z 15007KT 9999 BKN015 OVC070 19/17 Q1016
SUDU,2023-04-04T10:25:00Z,SUDU 041025Z 18004KT 8000 NSC 16/15 Q1016
SULS,2023-04-04T10:00:00Z,SULS 041000Z 31003KT 9999 FEW017 BKN030 18/16 Q1016
SUMU,2023-04-04T10:00:00Z,SUMU 041000Z 00000KT 9999 SCT020 OVC060 18/17 Q1016 NOSIG
SUSO,2023-04-04T10:00:00Z,SUSO 041000Z 18004KT 9000 FEW008 BKN083 BKN200 16/16 Q1014
SVBC,2023-04-04T10:03:00Z,SVBC 041003Z AUTO 15001KT NCD 24/22 Q1012
SVBI,2023-04-04T10:03:00Z,SVBI 041003Z AUTO /////KT NCD 25/21 Q1013
SVBM,2023-04-04T10:03:00Z,SVBM 041003Z AUTO 07008KT NCD 21/17 Q1013
SVBS,2023-04-04T10:03:00Z,SVBS 041003Z AUTO 11001KT NCD 23/19 Q1013
SVCB,2023-04-04T10:03:00Z,SVCB 041003Z AUTO 09004KT NCD 23/20 Q1011
SVCS,2023-04-04T10:03:00Z,SVCS 041003Z AUTO 36005KT NCD 19/17 Q1015
SVFM,2023-04-04T10:03:00Z,SVFM 041003Z AUTO NIL
SVGD,2023-04-04T10:03:00Z,SVGD 041003Z AUTO 31001KT NCD 23/21 Q1010
SVGU,2023-04-04T10:03:00Z,SVGU 041003Z AUTO 27002KT NCD 29/22 Q1011
SVJM,2023-04-04T10:03:00Z,SVJM 041003Z AUTO 06001KT NCD 20/18 Q1011
SVLO,2023-04-04T10:03:00Z,SVLO 041003Z AUTO NIL
SVMC,2023-04-04T10:03:00Z,SVMC 041003Z AUTO 02006KT NCD 26/20 Q1008
SVMG,2023-04-04T10:03:00Z,SVMG 041003Z AUTO 11012KT NCD 29/24 Q1012
SVMI,2023-04-04T10:03:00Z,SVMI 041003Z AUTO 08005KT NCD 23/19 Q1012
SVMT,2023-04-04T10:03:00Z,SVMT 041003Z AUTO 02004KT NCD 23/23 Q1012
SVPA,2023-04-04T10:03:00Z,SVPA 041003Z AUTO NIL
SVPR,2023-04-04T10:03:00Z,SVPR 041003Z AUTO 08002KT NCD 21/19 Q1013
SVSA,2023-04-04T10:03:00Z,SVSA 041003Z AUTO NIL
SVSR,2023-04-04T10:03:00Z,SVSR 041003Z AUTO NIL
SVVA,2023-04-04T10:03:00Z,SVVA 041003Z AUTO 05004KT NCD 26/19 Q1012
SVVL,2023-04-04T10:03:00Z,SVVL 041003Z AUTO ///01KT NCD ///// Q////
SYCJ,2023-04-04T10:00:00Z,SYCJ 041000Z 00000KT 9000 FEW015 BKN080 22/22 Q1011 NOSIG
TAPA,2023-04-04T10:00:00Z,TAPA 041000Z 09010KT 050V120 9999 SCT020 25/20 Q1015 NOSIG
TBPB,2023-04-04T10:00:00Z,TBPB 041000Z 11017KT 9999 SCT018 26/20 Q1013 NOSIG
TDPD,2023-04-04T10:00:00Z,TDPD 041000Z 12008KT 9999 FEW015 BKN017 24/21 Q1015
TFFF,2023-04-04T10:00:00Z,TFFF 041000Z AUTO 12007KT 9999 FEW028 24/20 Q1014
TGPY,2023-04-04T10:00:00Z,TGPY 041000Z 09012KT 9999 VCSH FEW018 BKN035 25/22 Q1013 NOSIG RMK VCSH-NE
TIST,2023-04-04T09:53:00Z,TIST 040953Z AUTO 10009KT 10SM CLR 25/21 A2999 RMK AO2 SLP156 T02500206
TISX,2023-04-04T09:53:00Z,TISX 040953Z AUTO 07007KT 10SM CLR 23/19 A3000 RMK AO2 SLP156 T02330194
TJNR,2023-04-04T10:12:00Z,TJNR 041012Z AUTO 08005KT 10SM FEW024 SCT029 25/21 A3002 RMK AO2 T02500206 $
TJPS,2023-04-04T10:15:00Z,TJPS 041015Z AUTO 07004KT 10SM 21/17 A2998 RMK AO2 TSNO
TJSJ,2023-04-04T09:56:00Z,TJSJ 040956Z 11003KT 10SM SCT024 SCT035 SCT060 23/20 A3000 RMK AO2 RAB54E56 SLP157 P0000 T02330200 $
TKPK,2023-04-04T10:00:00Z,TKPK 041000Z 06011KT 9999 FEW018 24/20 Q1016
TNCA,2023-04-04T10:00:00Z,TNCA 041000Z 09015KT 9999 SCT018 26/22 Q1011 NOSIG
TNCB,2023-04-04T09:55:00Z,TNCB 040955Z AUTO 09014KT 070V130 9999 FEW034/// 26/21 Q1011
TNCC,2023-04-04T10:00:00Z,TNCC 041000Z 10014KT 9999 FEW020 26/22 Q1012 NOSIG
TNCE,2023-04-04T09:55:00Z,TNCE 040955Z AUTO 07013KT //// // ///////// 25/20 Q1015 RE//
TNCM,2023-04-04T10:00:00Z,TNCM 041000Z 06007KT 040V100 9999 -SHRA BKN016 25/21 Q1017 NOSIG 
TRPG,2023-04-04T10:00:00Z,TRPG 041000Z 10017KT 9999 BKN019 24/21 Q1016
TTCP,2023-04-04T10:00:00Z,TTCP 041000Z 08011KT 9999 FEW016 26/22 Q1012 NOSIG
TTPP,2023-04-04T10:00:00Z,TTPP 041000Z 00000KT 7000 FEW016 24/21 Q1012 NOSIG
TVSA,2023-04-04T10:00:00Z,TVSA 041000Z 04009KT 010V070 9999 SCT018 25/20 Q1013 NOSIG 
TXKF,2023-04-04T09:55:00Z,TXKF 040955Z 03004KT 9999 FEW037 BKN240 17/13 Q1021 
UAAA,2023-04-04T10:00:00Z,UAAA 041000Z 25005MPS 210V280 9999 BKN200 19/M06 Q1015 NOSIG
UAAH,2023-04-04T10:00:00Z,UAAH 041000Z 09010MPS CAVOK 17/M14 Q1020 NOSIG RMK QFE728/0970
UAAT,2023-04-04T10:00:00Z,UAAT 041000Z 02003MPS 320V070 9999 NSC 19/M07 Q1015 NOSIG RMK QFE710/0947
UACC,2023-04-04T10:00:00Z,UACC 041000Z 14006MPS CAVOK 17/M05 Q1025 NOSIG RMK QFE737/0983
UACK,2023-04-04T10:00:00Z,UACK 041000Z 19004MPS 160V220 CAVOK 17/M04 Q1027 NOSIG RMK QFE746/0995
UACP,2023-04-04T10:00:00Z,UACP 041000Z 14005MPS CAVOK 14/00 Q1027 NOSIG RMK QFE758/1010
UADD,2023-04-04T10:00:00Z,UADD 041000Z 36004MPS 330V030 9999 SCT050CB OVC100 16/06 Q1016 NOSIG RMK QFE704/0939
UAII,2023-04-04T10:00:00Z,UAII 041000Z 33003MPS 290V030 CAVOK 19/06 Q1016 NOSIG RMK QFE726/0969
UAIT,2023-04-04T10:00:00Z,UAIT 041000Z VRB01MPS CAVOK 18/04 Q1016 NOSIG RMK QFE735/0980
UAKD,2023-04-04T10:00:00Z,UAKD 041000Z 11010MPS CAVOK 17/M17 Q1018 NOSIG RMK QFE730/0973
UAKK,2023-04-04T10:00:00Z,UAKK 041000Z 08006MPS CAVOK 18/M09 Q1024 NOSIG RMK QFE720/0961
UAOO,2023-04-04T10:00:00Z,UAOO 041000Z 22003MPS 170V260 9999 SCT040 19/06 Q1015 NOSIG RMK QFE750/1000
UARR,2023-04-04T10:00:00Z,UARR 041000Z 06004MPS 360V100 CAVOK 20/M04 Q1017 NOSIG RMK QFE759/1013
UASK,2023-04-04T10:00:00Z,UASK 041000Z 36004MPS 9999 NSC 12/M07 Q1029 NOSIG RMK QFE746/0995
UASP,2023-04-04T10:00:00Z,UASP 041000Z 16003MPS 120V210 CAVOK 14/M13 Q1030 NOSIG RMK QFE761/1014
UASS,2023-04-04T10:00:00Z,UASS 041000Z 08003MPS 040V110 CAVOK 12/M12 Q1030 NOSIG RMK QFE751/1002
UATE,2023-04-04T10:00:00Z,UATE 041000Z 28004MPS 240V330 CAVOK 12/05 Q1019 NOSIG RMK QFE762/1017
UATG,2023-04-04T10:00:00Z,UATG 041000Z 35006MPS 280V040 CAVOK 20/00 Q1015 NOSIG RMK QFE763/1018
UATT,2023-04-04T10:00:00Z,UATT 041000Z 12009MPS CAVOK 18/M08 Q1017 TEMPO 09012MPS RMK QFE743/0990
UAUU,2023-04-04T10:00:00Z,UAUU 041000Z 12006MPS CAVOK 14/M01 Q1023 NOSIG RMK QFE751/1001
UBBB,2023-04-04T10:00:00Z,UBBB 041000Z 17008KT 9999 FEW024 15/10 Q1019 NOSIG
UBBF,2023-04-04T10:00:00Z,UBBF 041000Z 07010KT 9999 NSC 20/08 Q1017 NOSIG RMK MT OP
UBBG,2023-04-04T10:00:00Z,UBBG 041000Z 06008KT 040V100 9999 FEW100 18/09 Q1017 NOSIG
UBBL,2023-04-04T10:00:00Z,UBBL 041000Z 13010KT 9999 NSC 18/12 Q1019 NOSIG RMK MT OP
UBBN,2023-04-04T10:00:00Z,UBBN 041000Z 18004KT 9999 FEW040 SCT100 20/03 Q1017 NOSIG RMK MT OP QFE687
UBBQ,2023-04-04T10:00:00Z,UBBQ 041000Z VRB02KT 9999 NSC 17/08 Q1017 NOSIG RMK MT OP
UBBY,2023-04-04T10:00:00Z,UBBY 041000Z 29004KT 9999 FEW050 19/08 Q1019 NOSIG RMK MT OP
UBBZ,2023-04-04T10:00:00Z,UBBZ 041000Z 02006KT 320V090 9999 NSC 21/07 Q1017 NOSIG RMK MT OP
UBEE,2023-04-04T10:00:00Z,UBEE 041000Z 15004KT CAVOK 20/09 Q1017 NOSIG
UCFL,2023-04-04T10:00:00Z,UCFL 041000Z 14003MPS 110V170 9999 SCT033 10/M04 Q1017
UCFM,2023-04-04T10:00:00Z,UCFM 041000Z 28005MPS 240V340 9999 FEW066CB 19/02 Q1016 TEMPO 27007G12MPS
UCFO,2023-04-04T10:00:00Z,UCFO 041000Z 31003MPS 260V360 9999 FEW050CB 17/08 Q1015 NOSIG
UDSG,2023-04-04T10:00:00Z,UDSG 041000Z 21011KT 9999 FEW049 15/01 Q1019 NOSIG
UDYZ,2023-04-04T10:00:00Z,UDYZ 041000Z 07004KT 010V170 9999 NSC 20/M00 Q1017 NOSIG
UEEE,2023-04-04T10:00:00Z,UEEE 041000Z 21003MPS 5000 -SHSN BKN020CB M07/M08 Q0996 R23L/490239 NOSIG RMK QFE738
UERP,2023-04-04T10:00:00Z,UERP 041000Z 31006G11MPS 9999 DRSN BKN100 M18/M25 Q1005 R35/890350 NOSIG RMK QFE710
UERR,2023-04-04T10:00:00Z,UERR 041000Z 26012G17MPS 3000 -SHSN DRSN BKN004 OVC020CB M08/M11 Q0998 R25/590430 NOSIG RMK QBB140 QFE718/0958
UGAM,2023-04-04T10:00:00Z,UGAM 041000Z 05002KT 9999 SCT052 22/02 Q1014
UGKO,2023-04-04T10:00:00Z,UGKO 041000Z 10010KT 070V130 CAVOK 24/08 Q1011 NOSIG
UGMS,2023-04-04T10:00:00Z,UGMS 041000Z 36003KT 9999 SCT100 15/M02 Q1019
UGSB,2023-04-04T10:00:00Z,UGSB 041000Z 01008KT CAVOK 23/08 Q1011 NOSIG
UGTB,2023-04-04T10:00:00Z,UGTB 041000Z 18004KT 100V240 CAVOK 20/06 Q1016 NOSIG
UHBB,2023-04-04T10:00:00Z,UHBB 041000Z 24003MPS CAVOK 03/M14 Q1016 R36/090060 NOSIG RMK QFE744/0993
UHHH,2023-04-04T10:00:00Z,UHHH 041000Z 28008MPS CAVOK 05/M12 Q1017 R88/090060 NOSIG RMK QFE756/1009
UHMA,2023-04-04T10:00:00Z,UHMA 041000Z 17002MPS CAVOK M23/M25 Q1019 R01/////// NOSIG RMK MID 18002MPS END R01/16002MPS QFE760/1014
UHMM,2023-04-04T10:00:00Z,UHMM 041000Z 10010MPS 9000 -SHSN DRSN OVC023CB M05/M08 Q1005 RMK QFE739 R28/13007G12MPS
UHPP,2023-04-04T10:00:00Z,UHPP 041000Z 15001MPS 9999 BKN015 00/M02 Q1010 R34L/CLRD65 NOSIG RMK QFE754/1006
UHSS,2023-04-04T10:00:00Z,UHSS 041000Z 15005MPS 9999 NSC 05/01 Q1013 R19/70D NOSIG RMK QFE758/1011
UHWW,2023-04-04T10:00:00Z,UHWW 041000Z 03002MPS 9999 NSC 13/M08 Q1019 R25L/0///70 NOSIG RMK QFE763
UIAA,2023-04-04T10:00:00Z,UIAA 041000Z 27010MPS 9999 NSC 03/M17 Q1017 R29/70D NOSIG RMK QFE704/0938
UIBB,2023-04-04T10:00:00Z,UIBB 041000Z 25006MPS 2500 -SHSN OVC029CB M01/M03 Q1017 R30/290140 NOSIG RMK QFE720/0960
UIII,2023-04-04T10:00:00Z,UIII 041000Z 06002MPS CAVOK 07/M10 Q1020 R30/CLRD60 NOSIG RMK QFE720/0960
UIUU,2023-04-04T10:00:00Z,UIUU 041000Z 25006MPS 9999 NSC 06/M15 Q1021 R26/CLRD60 NOSIG RMK QFE721/0961
ULAA,2023-04-04T10:00:00Z,ULAA 041000Z VRB01MPS 9999 SCT033 02/M10 Q1025 R08/910560 NOSIG RMK QFE768/1024
ULLI,2023-04-04T10:00:00Z,ULLI 041000Z 35003MPS 310V020 9999 OVC017 01/M03 Q1022 R88/510550 NOSIG
ULMM,2023-04-04T10:00:00Z,ULMM 041000Z 25005MPS 9999 BKN025 00/M06 Q1021 R31/150060 NOSIG RMK QFE759
ULOO,2023-04-04T10:00:00Z,ULOO 041000Z 01003MPS 340V040 5000 -SN BKN013 OVC026 01/M02 Q1020 R01/090050 NOSIG RMK QFE761
ULPB,2023-04-04T10:00:00Z,ULPB 041000Z 03003MPS 010V070 9000 -SN BKN010 BKN025 M00/M02 Q1023 R01/290250 NOSIG RMK QBB310 QFE763/1017
ULWC,2023-04-04T10:00:00Z,ULWC 041000Z 01003MPS 9999 BKN004 OVC013CB 03/03 Q1018 R21/290164 NOSIG RMK QBB130 QFE753/1005
UMBB,2023-04-04T10:00:00Z,UMBB 041000Z 32005G08MPS 7000 OVC032 00/M04 Q1021 NOSIG
UMGG,2023-04-04T10:00:00Z,UMGG 041000Z 30005MPS 9999 OVC008CB 02/01 Q1017 NOSIG
UMII,2023-04-04T10:21:00Z,UMII 041021Z 34003MPS 2300 -SNRA OVC008 00/M01 Q1016 TEMPO 1500 SNRA BKN005
UMIO,2023-04-04T10:00:00Z,UMIO 041000Z 36002MPS 9000 -SHSNRA BKN009 OVC028CB 01/M01 Q1017 NOSIG RMK QFE745/0994
UMKK,2023-04-04T10:00:00Z,UMKK 041000Z 36007MPS 9999 SCT040 03/M05 Q1024 R06/95D NOSIG RMK QFE767/1023
UMMG,2023-04-04T10:00:00Z,UMMG 041000Z 33004MPS 9999 OVC028 M01/M05 Q1022 NOSIG
UMMS,2023-04-04T10:00:00Z,UMMS 041000Z 33004MPS 9999 BKN013 00/M02 Q1018 NOSIG
UMOO,2023-04-04T10:00:00Z,UMOO 041000Z 32003MPS 7000 BKN009 OVC/// 01/M01 Q1018 NOSIG
UNAA,2023-04-04T10:00:00Z,UNAA 041000Z 24009MPS CAVOK 10/M16 Q1025 R20/CLRD67 NOSIG RMK QFE746
UNBB,2023-04-04T10:00:00Z,UNBB 041000Z 23005MPS CAVOK 09/M08 Q1030 R24/CLRD60 NOSIG RMK QFE750
UNEE,2023-04-04T10:00:00Z,UNEE 041000Z 26005MPS CAVOK 07/M05 Q1025 R23/CLRD60 NOSIG RMK QFE746
UNKL,2023-04-04T10:00:00Z,UNKL 041000Z 26007MPS 9999 SCT045CB 03/M04 Q1022 R29/CLRD65 NOSIG RMK QFE741
UNNT,2023-04-04T10:00:00Z,UNNT 041000Z 25007MPS CAVOK 10/M04 Q1028 R25/120060 R34/////// NOSIG RMK QFE761/1015
UNOO,2023-04-04T10:00:00Z,UNOO 041000Z 19004MPS CAVOK 13/M06 Q1029 R25/CLRD60 NOSIG RMK QFE764
UNTT,2023-04-04T10:00:00Z,UNTT 041000Z 36007MPS 9999 BKN045 05/M03 Q1027 R21/090060 NOSIG RMK QFE755
UNWW,2023-04-04T10:00:00Z,UNWW 041000Z 23008MPS CAVOK 09/M10 Q1028 R19/09//55 NOSIG RMK QFE744
UOOO,2023-04-04T10:00:00Z,UOOO 041000Z 18005MPS 9999 DRSN BKN016 M19/M21 Q1017 R19/420559 NOSIG RMK QFE747/0996
URKA,2023-04-04T10:00:00Z,URKA 041000Z 15005MPS 100V200 CAVOK 20/08 Q1012 R04/010070 NOSIG RMK QFE755/1006
URKK,2023-04-04T10:00:00Z,URKK 041000Z 09006MPS 060V120 CAVOK 20/09 Q1013 R05R/CLRD70 NOSIG RMK QFE757
URMG,2023-04-04T10:00:00Z,URMG 041000Z 09006MPS CAVOK 18/07 Q1016 R08/090070 NOSIG RMK QFE747/0997
URML,2023-04-04T10:00:00Z,URML 041000Z 14004MPS 110V170 9999 SCT003 09/08 Q1019 R14/01//70 NOSIG RMK QBB110 MT OBSC QFE764/1019
URMM,2023-04-04T10:00:00Z,URMM 041000Z 10007MPS 9999 NSC 19/04 Q1015 R12/090070 NOSIG RMK QFE733/0978
URMN,2023-04-04T10:00:00Z,URMN 041000Z 10003MPS 9999 NSC 19/05 Q1014 R24/010070 NOSIG RMK QFE724
URMO,2023-04-04T10:00:00Z,URMO 041000Z 06005MPS 030V110 9999 NSC 19/02 Q1016 R09/010070 NOSIG RMK QFE718/0957
URMT,2023-04-04T10:00:00Z,URMT 041000Z 11007MPS CAVOK 19/06 Q1015 R07/010070 NOSIG RMK QFE721
URRP,2023-04-04T10:00:00Z,URRP 041000Z 23003MPS 190V280 9999 SCT020 14/08 Q1016 R23/CLRD70 NOSIG RMK QFE754/1006
URSS,2023-04-04T10:00:00Z,URSS 041000Z 13004MPS 9999 NSC 20/06 Q1012 R06/010070 R02/////// NOSIG RMK R02/15004MPS QFE758
URWA,2023-04-04T10:00:00Z,URWA 041000Z 15003MPS 110V190 CAVOK 18/07 Q1018 R27/010070 NOSIG RMK QFE765/1020
URWI,2023-04-04T10:00:00Z,URWI 041000Z 20004MPS 150V270 9999 FEW/// 19/06 Q1017 R09/010065 NOSIG
URWW,2023-04-04T10:00:00Z,URWW 041000Z 23006MPS 200V260 9999 BKN044 18/07 Q1017 R24/010070 NOSIG
USCC,2023-04-04T10:00:00Z,USCC 041000Z 13004MPS CAVOK 17/M07 Q1024 R09/000060 NOSIG RMK QFE747
USCM,2023-04-04T10:00:00Z,USCM 041000Z 09004MPS 9999 NSC 15/M01 Q1022 R36/090060 NOSIG RMK QFE728
USDA,2023-04-04T10:00:00Z,USDA 041000Z 25013MPS 0800 0700NW R22/0700D +SHSN BLSN BKN030CB M03/M04 Q1014 R22/450252 NOSIG RMK QFE760/1013
USHH,2023-04-04T10:00:00Z,USHH 041000Z 05005MPS CAVOK M05/M11 Q1036 R06/010060 NOSIG
USNN,2023-04-04T10:00:00Z,USNN 041000Z 04003MPS CAVOK M03/M17 Q1038 R03/0///65 NOSIG RMK QFE774
USPP,2023-04-04T10:00:00Z,USPP 041000Z 12006MPS 080V150 CAVOK 14/M01 Q1022 R03/090060 TEMPO 12004G15MPS RMK QFE756
USRR,2023-04-04T10:00:00Z,USRR 041000Z 08003MPS 050V110 CAVOK M05/M15 Q1038 R07/CLRD60 NOSIG RMK QFE773
USSS,2023-04-04T10:00:00Z,USSS 041000Z 09004MPS 050V120 CAVOK 15/M03 Q1024 R26L/010060 NOSIG RMK QFE747/0996
USTR,2023-04-04T10:00:00Z,USTR 041000Z 06005MPS 040V100 CAVOK 14/M01 Q1027 R03/090065 R12/////99 NOSIG
UTAA,2023-04-04T10:00:00Z,UTAA 041000Z 30006KT 230V360 9999 BKN050 17/03 Q1017 R88/70D NOSIG
UTAK,2023-04-04T10:00:00Z,UTAK 041000Z 25008KT 9999 BKN045 14/05 Q1019 R16R/CLRD70 NOSIG
UTAM,2023-04-04T10:00:00Z,UTAM 041000Z 33008KT 9999 BKN030 14/05 Q1020 R88/CLRD70 NOSIG
UTAT,2023-04-04T10:00:00Z,UTAT 041000Z 32012KT 6000 -SHRA SCT020CB OVC042 11/08 Q1015 R26/29//55 NOSIG
UTAV,2023-04-04T10:00:00Z,UTAV 041000Z 18004KT 9999 SCT050CB BKN100 09/08 Q1019 R31/29//55 NOSIG
UTDD,2023-04-04T10:00:00Z,UTDD 041000Z VRB02MPS 9999 FEW066CB SCT066 19/09 Q1016 R09/D NOSIG RMK QFE693/0925
UTDK,2023-04-04T10:00:00Z,UTDK 041000Z VRB02MPS 9999 FEW070 21/09 Q1015 R01/09//70 RMK QFE704/0939
UTDL,2023-04-04T10:00:00Z,UTDL 041000Z 08005MPS 9999 FEW053 19/08 Q1015 R08/CLRD70 NOSIG RMK QFE722/0963
UTDT,2023-04-04T10:00:00Z,UTDT 041000Z 35004MPS 310V040 9999 FEW040CB SCT100 22/12 Q1014 R35/CLRD70 RMK QFE721/0961
UTFF,2023-04-04T10:00:00Z,UTFF 041000Z 36004KT 9999 BKN047CB 17/08 Q1015 R18/CLRD70
UTFN,2023-04-04T10:00:00Z,UTFN 041000Z 12002KT 9999 OVC040CB 17/08 Q1015 R28/CLRD70 NOSIG
UTNN,2023-04-04T10:00:00Z,UTNN 041000Z 25006KT 9999 FEW050CB 10/08 Q1016 R33/290050 NOSIG
UTNU,2023-04-04T10:00:00Z,UTNU 041000Z 11004KT 9999 OVC025CB 12/04 Q1015 R31/CLRD70 NOSIG
UTO8,2023-04-04T10:08:08Z,UTO8 M M M 285/-34/-37/0000/M/M 2001 60MM
UTSA,2023-04-04T10:00:00Z,UTSA 041000Z 25016KT 9999 BKN021 11/06 Q1018 R25/CLRD70 NOSIG
UTSB,2023-04-04T10:00:00Z,UTSB 041000Z 16006KT 120V200 9999 -SHRA BKN049CB 09/08 Q1018 R01/290055 NOSIG
UTSK,2023-04-04T10:00:00Z,UTSK 041000Z 30022KT CAVOK 15/06 Q1017 R16/CLRD70
UTSS,2023-04-04T10:00:00Z,UTSS 041000Z 31008KT 270V040 9999 -TSRA BKN048CB 16/08 Q1014 R27/CLRD70 NOSIG
UTST,2023-04-04T10:00:00Z,UTST 041000Z 05004KT CAVOK 24/07 Q1013 R25/CLRD70 NOSIG
UTTT,2023-04-04T10:00:00Z,UTTT 041000Z 34006KT 290V020 9999 FEW050CB 20/08 Q1014 R08L/CLRD70 NOSIG
UUBC,2023-04-04T10:00:00Z,UUBC 041000Z 34003MPS 300V030 9999 BKN017 14/05 Q1014 R31/CLRD60 NOSIG RMK QBB070 QFE744/0992
UUBP,2023-04-04T10:00:00Z,UUBP 041000Z 35002MPS 300V020 9999 BKN010 10/05 Q1015 R34/////// NOSIG RMK QFE744/0992
UUBW,2023-04-04T10:00:00Z,UUBW 041000Z 17002MPS 130V240 CAVOK 15/04 Q1014 R30/110055 NOSIG
UUDD,2023-04-04T10:00:00Z,UUDD 041000Z 17004MPS 140V200 9999 SCT041 14/03 Q1014 R88/CLRD60 NOSIG
UUDL,2023-04-04T10:00:00Z,UUDL 041000Z 02003MPS CAVOK 08/03 Q1016 R23/010060 NOSIG RMK QFE754
UUEE,2023-04-04T10:00:00Z,UUEE 041000Z 35003MPS 320V040 CAVOK 11/06 Q1015 R06C/CLRD62 NOSIG
UUMO,2023-04-04T10:00:00Z,UUMO 041000Z 12002MPS 070V170 CAVOK 13/04 Q1015 R07/290050 NOSIG RMK QFE746/0995
UUOB,2023-04-04T10:00:00Z,UUOB 041000Z 22002MPS 170V260 8000 BKN031 12/06 Q1014 R29/010070 NOSIG
UUOK,2023-04-04T10:00:00Z,UUOK 041000Z 03002MPS 9999 BKN049 14/05 Q1013 R30/090060 NOSIG RMK QFE741/0988
UUOL,2023-04-04T10:00:00Z,UUOL 041000Z AUTO 12002MPS 9999 ///032 11/09 Q1014
UUOO,2023-04-04T10:00:00Z,UUOO 041000Z 22003MPS 9999 BKN015 11/08 Q1014 R12/290155 NOSIG RMK QFE746
UUWW,2023-04-04T10:00:00Z,UUWW 041000Z 20002MPS 160V270 9999 FEW037 13/04 Q1015 R06/120060 NOSIG
UUYY,2023-04-04T10:00:00Z,UUYY 041000Z 03004MPS CAVOK 05/M02 Q1023 R36/CLRD61 NOSIG RMK QFE758/1011
UWGG,2023-04-04T10:00:00Z,UWGG 041000Z 15004MPS 110V210 CAVOK 17/01 Q1014 R18L/090070 NOSIG
UWKD,2023-04-04T10:00:00Z,UWKD 041000Z 17005MPS 130V190 CAVOK 16/M03 Q1018 R11/70D NOSIG RMK QFE753/1004
UWKE,2023-04-04T10:00:00Z,UWKE 041000Z 14004MPS 110V210 CAVOK 17/M02 Q1019 R21/090070 NOSIG RMK QFE747/0997
UWKS,2023-04-04T10:00:00Z,UWKS 041000Z 18005MPS CAVOK 17/00 Q1017 R06/010060 NOSIG RMK QFE747
UWLL,2023-04-04T10:00:00Z,UWLL 041000Z 12005MPS CAVOK 14/01 Q1017 R20/090065 NOSIG RMK QFE752/1003
UWLW,2023-04-04T10:00:00Z,UWLW 041000Z 15006MPS CAVOK 18/04 Q1017 R20/CLRD60 NOSIG RMK QFE757/1010
UWOO,2023-04-04T10:00:00Z,UWOO 041000Z 11007MPS CAVOK 19/M03 Q1019 R08/60D NOSIG RMK QFE753/1005
UWOR,2023-04-04T10:00:00Z,UWOR 041000Z 10009MPS CAVOK 18/M05 Q1018 R07/CLRD60 NOSIG RMK QFE739/0985
UWPS,2023-04-04T10:00:00Z,UWPS 041000Z 19004MPS CAVOK 17/01 Q1015 R20/CLRD60 NOSIG RMK QFE744
UWSG,2023-04-04T10:00:00Z,UWSG 041000Z 12005MPS 090V160 9999 FEW050CB 18/05 Q1016 R08/CLRD70 NOSIG RMK QFE759/1013
UWUU,2023-04-04T10:00:00Z,UWUU 041000Z 09003MPS 010V170 CAVOK 18/M05 Q1020 R14R/0///60 NOSIG
UWWW,2023-04-04T10:00:00Z,UWWW 041000Z 19003MPS 160V220 7000 SCT026 17/01 Q1018 R15/CLRD60 NOSIG RMK QFE752/1002
VAAH,2023-04-04T10:00:00Z,VAAH 041000Z 31005KT 6000 FEW020 34/15 Q1008 NOSIG
VAAU,2023-04-04T10:00:00Z,VAAU 041000Z 27004KT 6000 FEW020 SCT025 36/10 Q1010 NOSIG
VABB,2023-04-04T10:00:00Z,VABB 041000Z 28011G21KT 5000 HZ FEW020 30/23 Q1009 NOSIG
VABO,2023-04-04T10:00:00Z,VABO 041000Z 28009KT 6000 FEW020 35/15 Q1008 NOSIG
VAID,2023-04-04T10:00:00Z,VAID 041000Z 28013KT 6000 FEW020 SCT025 34/09 Q1011 NOSIG
VAJB,2023-04-04T10:00:00Z,VAJB 041000Z 31012KT 6000 SCT025 SCT030 35/11 Q1009 NOSIG
VAJJ,2023-04-04T10:00:00Z,VAJJ 041000Z 30012KT 5000 HZ NSC 29/23 Q1009 NOSIG
VAJL,2023-04-04T10:00:00Z,VAJL 041000Z 30009KT 7000 FEW025 37/11 Q1008 NOSIG
VAKP,2023-04-04T10:00:00Z,VAKP 041000Z 24010KT 9000 NSC 36/05 Q1011
VAKS,2023-04-04T10:00:00Z,VAKS 041000Z 29012KT 6000 FEW025 35/17 Q1009
VANP,2023-04-04T10:00:00Z,VANP 041000Z 24005KT 5000 HZ SCT020 SCT025 37/11 Q1008 NOSIG
VAOZ,2023-04-04T09:30:00Z,VAOZ 040930Z 24010KT 9999 FEW040 36/07 Q1012 NOSIG
VASD,2023-04-04T10:00:00Z,VASD 041000Z 34005KT 6000 FEW020 35/03 Q1011 NOSIG
VASU,2023-04-04T10:00:00Z,VASU 041000Z 33008KT 6000 NSC 35/20 Q1009 NOSIG
VAUD,2023-04-04T10:00:00Z,VAUD 041000Z 25011KT 6000 FEW030 SCT035 34/04 Q1010 NOSIG
VCBI,2023-04-04T10:10:00Z,VCBI 041010Z 25011KT 210V280 9999 FEW014 BKN016 FEW018CB 30/25 Q1009 NOSIG RMK CB E/SE/S
VCRI,2023-04-04T10:10:00Z,VCRI 041010Z 28006KT 250V310 5000 TS FEW018 SCT019CB BKN080 27/27 Q1009 NOSIG RMK W/OH
VDPP,2023-04-04T10:00:00Z,VDPP 041000Z 13006KT 100V180 9999 FEW017 36/22 Q1003
VDSR,2023-04-04T10:00:00Z,VDSR 041000Z VRB02KT 9999 SCT017 36/21 Q1003
VDSV,2023-04-04T10:00:00Z,VDSV 041000Z 26010KT 230V290 9999 SCT015 31/23 Q1005
VEAT,2023-04-04T10:00:00Z,VEAT 041000Z 22006KT 5000 HZ FEW020 FEW030CB BKN100 33/24 Q1006 NOSIG
VEBI,2023-04-04T10:00:00Z,VEBI 041000Z 32008KT 5000 HZ SCT020 25/16 Q1009 NOSIG
VEBN,2023-04-04T10:00:00Z,VEBN 041000Z 29008KT 5000 HZ FEW020 SCT025 36/14 Q1005 NOSIG
VEBS,2023-04-04T10:00:00Z,VEBS 041000Z 20011KT 4000 HZ SCT018 FEW030CB BKN100 31/29 Q1007 TEMPO 3000 -TSRA
VECC,2023-04-04T10:00:00Z,VECC 041000Z 17011KT 5000 HZ SCT018 SCT025 34/26 Q1005 NOSIG
VECO,2023-04-04T10:00:00Z,VECO 041000Z 14004KT 4500 HZ SCT025 29/20 Q1005 NOSIG
VEDG,2023-04-04T10:00:00Z,VEDG 041000Z 22006KT 7000 FEW090 36/11 Q1005 NOSIG
VEDO,2023-04-04T10:00:00Z,VEDO 041000Z 25007KT 6000 SCT020 SCT025 34/09 Q1006 NOSIG
VEGT,2023-04-04T10:00:00Z,VEGT 041000Z 02004KT 5000 HZ SCT018 SCT100 29/25 Q1006 NOSIG
VEGY,2023-04-04T10:00:00Z,VEGY 041000Z 33008KT 7000 SCT020 37/06 Q1004 NOSIG
VEHO,2023-04-04T10:00:00Z,VEHO 041000Z 05005KT 5000 BR SCT020 BKN100 21/17 Q1008 NOSIG
VEIM,2023-04-04T10:00:00Z,VEIM 041000Z 24001KT 7000 SCT018 25/20 Q1011 NOSIG
VEJH,2023-04-04T10:00:00Z,VEJH 041000Z 24003KT 5000 HZ SCT020 SCT100 37/16 Q1005
VEJR,2023-04-04T10:00:00Z,VEJR 041000Z 25008KT 6000 FEW025 SCT030 33/19 Q1009
VEJS,2023-04-04T10:00:00Z,VEJS 041000Z 26005KT 5000 HZ FEW020 SCT025 37/13 Q1004
VEKI,2023-04-04T10:00:00Z,VEKI 041000Z 30010G20KT 5000 HZ FEW025 35/08 Q1005 NOSIG
VELR,2023-04-04T10:00:00Z,VELR 041000Z 06005KT 5000 BR FEW010 SCT016 OVC080 20/18 Q1009
VEMN,2023-04-04T10:00:00Z,VEMN 041000Z 11008KT 2500 -RA SCT008 SCT018 FEW025CB OVC090 17/17 Q1009 NOSIG
VEPT,2023-04-04T10:00:00Z,VEPT 041000Z 30004KT 6000 SCT018 SCT100 38/13 Q1004 NOSIG
VERB,2023-04-04T10:00:00Z,VERB 041000Z 31006KT 5000 HZ FEW030 33/14 Q1006
VERC,2023-04-04T10:00:00Z,VERC 041000Z 23006KT 6000 SCT020 SCT10 33/14 Q1009 NOSIG
VERK,2023-04-04T10:00:00Z,VERK 041000Z 25011KT 5000 SCT020 37/13 Q1005
VERP,2023-04-04T10:00:00Z,VERP 041000Z 270013KT 5000 HZ SCT025 36/14 Q1006 NOSIG
VERU,2023-04-04T10:00:00Z,VERU 041000Z 17004KT 6000 NSW FEW020 26/18 Q1005 NOSIG
VGHS,2023-04-04T10:00:00Z,VGHS 041000Z 23006KT 4000 HZ FEW015 SCT100 33/20 Q1005 NOSIG
VHHH,2023-04-04T10:00:00Z,VHHH 041000Z 19011KT 9999 FEW010 SCT020 25/22 Q1007 NOSIG
VIAR,2023-04-04T10:00:00Z,VIAR 041000Z 29009KT 6000 NSC 28/15 Q1011 NOSIG
VIDN,2023-04-04T10:00:00Z,VIDN 041000Z 28004KT 6000 SCT030 27/09 Q1010
VIDP,2023-04-04T10:00:00Z,VIDP 041000Z 29008KT 6000 NSC 30/11 Q1009 NOSIG
VIJP,2023-04-04T10:00:00Z,VIJP 041000Z 30005KT 7000 FEW100 31/16 Q1011 NOSIG
VILK,2023-04-04T10:00:00Z,VILK 041000Z VRB02KT 5000 HZ FEW020 SCT100 30/17 Q1007 NOSIG
VIPT,2023-04-04T10:00:00Z,VIPT 041000Z 28008KT 6000 FEW030 29/10 Q1008
VLLB,2023-04-04T10:00:00Z,VLLB 041000Z 22006KT 4000 FU FEW027 FEW060 36/23 Q1000 NOSIG
VLLN,2023-04-04T10:00:00Z,VLLN 041000Z 18006KT 9999 SCT020 SCT100 37/19 Q1005 NOSIG
VLPS,2023-04-04T10:00:00Z,VLPS 041000Z 09002KT 9999 FEW030 36/21 Q1004 NOSIG
VLSK,2023-04-04T10:00:00Z,VLSK 041000Z 18006KT 9999 SCT020 SCT100 37/19 Q1005 NOSIG
VLVT,2023-04-04T10:00:00Z,VLVT 041000Z 24006KT 8000 SCT020 38/19 Q1001 NOSIG
VMMC,2023-04-04T10:00:00Z,VMMC 041000Z 19005KT 150V230 6000 FEW005 SCT020 24/23 Q1006 NOSIG
VNKT,2023-04-04T10:00:00Z,VNKT 041000Z 30011KT 9999 FEW015 FEW025TCU SCT030 24/07 Q1013 NOSIG
VOBG,2023-04-04T10:00:00Z,VOBG 041000Z 21011KT 8000 SCT012 BKN080 29/19 Q1014 NOSIG
VOBL,2023-04-04T10:00:00Z,VOBL 041000Z 23008KT 8000 SCT012 SCT080 31/16 Q1013 NOSIG
VOBM,2023-04-04T10:00:00Z,VOBM 041000Z 27008KT CAVOK 35/13 Q1013
VOBZ,2023-04-04T10:00:00Z,VOBZ 041000Z 20006KT 6000 FEW020 SCT025 35/24 Q1006 NOSIG
VOCB,2023-04-04T10:00:00Z,VOCB 041000Z 02010KT 6000 SCT012 FEW025CB SCT080 33/21 Q1010 NOSIG
VOCI,2023-04-04T10:00:00Z,VOCI 041000Z 27008KT 5000 HZ SCT015 34/22 Q1008 NOSIG
VOCL,2023-04-04T10:00:00Z,VOCL 041000Z 34003KT 6000 SCT012 BKN080 27/17 Q1009 NOSIG
VOCP,2023-04-04T10:00:00Z,VOCP 041000Z 09011KT 6000 FEW020 37/14 Q1006 NOSIG
VOGA,2023-04-04T10:00:00Z,VOGA 041000Z 26011KT 7000 NSC 30/21 Q1009 NOSIG
VOGB,2023-04-04T10:00:00Z,VOGB 041000Z 30003KT 9000 FEW015 37/16 Q1009 NOSIG
VOGO,2023-04-04T09:30:00Z,VOGO 040930Z 28010KT 6000 NSC 30/21 Q1009 NOSIG
VOHB,2023-04-04T10:00:00Z,VOHB 041000Z 26007KT 9999 FEW015 35/12 Q1011
VOHS,2023-04-04T10:00:00Z,VOHS 041000Z 22008KT 6000 SCT015 SCT025 36/10 Q1010 NOSIG
VOHY,2023-04-04T10:00:00Z,VOHY 041000Z 32007KT 6000 FEW020 SCT025 36/9 Q1010 NOSIG
VOJV,2023-04-04T10:00:00Z,VOJV 041000Z 02008KT 8000 FEW020 36/10 Q1010
VOKN,2023-04-04T10:00:00Z,VOKN 041000Z 31006KT 6000 SCT012 FEW025TCU BKN080 29/23 Q1009 NOSIG
VOKU,2023-04-04T10:00:00Z,VOKU 041000Z 15007KT 5000 HZ SCT018 37/14 Q1007
VOMD,2023-04-04T10:00:00Z,VOMD 041000Z 16005KT 6000 SCT020 FEW025CB SCT080 28/22 Q1008 NOSIG
VOML,2023-04-04T10:00:00Z,VOML 041000Z 25008KT 9999 FEW015 32/21 Q1009 NOSIG
VOMM,2023-04-04T10:00:00Z,VOMM 041000Z 16014KT 7000 SCT020 34/24 Q1007 NOSIG
VOMY,2023-04-04T10:00:00Z,VOMY 041000Z 21004KT 6000 SCT015 BKN100 25/19 Q1014
VOPC,2023-04-04T10:00:00Z,VOPC 041000Z 11006KT 7000 FEW015 FEW025 34/26 Q1009 NOSIG
VORY,2023-04-04T10:00:00Z,VORY 041000Z 21013KT 6000 SCT020 35/24 Q1007 NOSIG
VOSR,2023-04-04T10:00:00Z,VOSR 041000Z 28007KT 5000 HZ FEW030 30/22 Q1009 NOSIG
VOTK,2023-04-04T10:00:00Z,VOTK 041000Z 17010G20KT 6000 FEW020 36/22 Q1008 NOSIG
VOTP,2023-04-04T10:00:00Z,VOTP 041000Z 21008KT 6000 SCT020 35/18 Q1007 NOSIG
VOTR,2023-04-04T10:00:00Z,VOTR 041000Z 14007G17KT 6000 FEW016 SCT020 FEW025CB 32/21 Q1008 NOSIG
VOTV,2023-04-04T10:00:00Z,VOTV 041000Z 27005KT 4000 -TSRA SCT012 FEW025CB BKN080 30/24 Q1009 NOSIG
VOVZ,2023-04-04T10:00:00Z,VOVZ 041000Z 21010KT 6000 FEW018 31/25 Q1007 NOSIG
VRMG,2023-04-04T10:00:00Z,VRMG 041000Z 34005KT 9999 FEW018TCU BKN260 30/25 Q1008 NOSIG
VRMH,2023-04-04T10:00:00Z,VRMH 041000Z 04010KT 9999 FEW018TCU BKN260 30/25 Q1009
VRMM,2023-04-04T10:00:00Z,VRMM 041000Z 36008KT 9999 FEW018 BKN130 32/25 Q1008 NOSIG
VTBD,2023-04-04T10:00:00Z,VTBD 041000Z VRB05KT 9999 FEW020 38/16 Q1003 NOSIG
VTBO,2023-04-04T10:00:00Z,VTBO 041000Z 21015KT 8000 FEW020 32/23 Q1006
VTBS,2023-04-04T10:00:00Z,VTBS 041000Z 19010KT 9000 FEW030 34/20 Q1004 NOSIG
VTBU,2023-04-04T10:00:00Z,VTBU 041000Z 18010KT 9000 FEW020 31/25 Q1005 NOSIG
VTCC,2023-04-04T10:00:00Z,VTCC 041000Z 36005KT 320V040 9000 FEW035 36/14 Q1004 NOSIG
VTCH,2023-04-04T10:00:00Z,VTCH 041000Z 00000KT 9000 BKN025 37/11 Q1004 NOSIG
VTCL,2023-04-04T10:00:00Z,VTCL 041000Z 34006KT 280V070 9999 FEW025 39/13 Q1003 NOSIG
VTCN,2023-04-04T10:00:00Z,VTCN 041000Z 28003KT 230V360 9000 NSC 38/13 Q1002 NOSIG
VTCP,2023-04-04T10:00:00Z,VTCP 041000Z 20009KT 160V240 8000 FEW045 38/15 Q1002 NOSIG
VTCT,2023-04-04T10:00:00Z,VTCT 041000Z 00000KT 7000 FEW040 34/17 Q1004 NOSIG
VTPB,2023-04-04T10:00:00Z,VTPB 041000Z 23004KT 180V290 9000 FEW030 39/12 Q1002 NOSIG
VTPH,2023-04-04T10:00:00Z,VTPH 041000Z 16010KT 6000 FEW030 31/24 Q1004 NOSIG
VTPM,2023-04-04T10:00:00Z,VTPM 041000Z 26008KT 9999 FEW040 34/14 Q1005 NOSIG
VTPO,2023-04-04T10:00:00Z,VTPO 041000Z 13005KT 9999 FEW030 38/14 Q1002 NOSIG
VTPP,2023-04-04T10:00:00Z,VTPP 041000Z 16006KT 7000 NSC 37/15 Q1002 NOSIG
VTPT,2023-04-04T10:00:00Z,VTPT 041000Z /////KT 9999 FEW026 37/17 Q1003 NOSIG
VTSB,2023-04-04T10:00:00Z,VTSB 041000Z 04005KT 9999 VCSH FEW018TCU 34/24 Q1004 NOSIG
VTSC,2023-04-04T10:00:00Z,VTSC 041000Z 03008KT 360V060 9999 FEW022 30/25 Q1006 NOSIG
VTSE,2023-04-04T10:00:00Z,VTSE 041000Z 12006KT 090V150 9999 FEW020 32/25 Q1005 NOSIG
VTSF,2023-04-04T10:00:00Z,VTSF 041000Z 02007KT 350V060 9999 FEW018 33/26 Q1005 NOSIG
VTSG,2023-04-04T10:00:00Z,VTSG 041000Z 21010KT 180V250 9999 FEW030 33/23 Q1005 NOSIG
VTSM,2023-04-04T10:00:00Z,VTSM 041000Z 31005KT 9999 FEW020 33/24 Q1006 NOSIG
VTSP,2023-04-04T10:00:00Z,VTSP 041000Z 31010KT 280V350 9999 FEW020 31/23 Q1006 NOSIG
VTSR,2023-04-04T10:00:00Z,VTSR 041000Z 35008KT 9999 FEW025 32/21 Q1007 NOSIG
VTSS,2023-04-04T10:00:00Z,VTSS 041000Z 11014G24KT 5000 TSRA FEW018CB SCT020 OVC090 25/22 Q1005 TEMPO TL1015 1000 +TSRA
VTST,2023-04-04T10:00:00Z,VTST 041000Z 25007KT 230V290 9999 -RA SCT030 33/24 Q1005 NOSIG
VTSY,2023-04-04T10:00:00Z,VTSY 041000Z 23008KT 9999 FEW035 30/23 Q1007 NOSIG
VTUD,2023-04-04T10:00:00Z,VTUD 041000Z 24005KT 180V310 9000 FEW035 39/14 Q1002 NOSIG
VTUI,2023-04-04T10:00:00Z,VTUI 041000Z 24006KT 210V290 9999 FEW040 37/11 Q1002 NOSIG
VTUK,2023-04-04T10:00:00Z,VTUK 041000Z 18008KT 160V220 9999 FEW030 37/17 Q1003 NOSIG
VTUL,2023-04-04T10:00:00Z,VTUL 041000Z VRB08G19KT 7000 NSC 38/12 Q1003 NOSIG
VTUO,2023-04-04T10:00:00Z,VTUO 041000Z 23005KT 200V280 9000 FEW040 37/13 Q1003 NOSIG
VTUQ,2023-04-04T10:00:00Z,VTUQ 041000Z 25003KT 190V300 8000 FEW040 37/17 Q1003 NOSIG
VTUU,2023-04-04T10:00:00Z,VTUU 041000Z 26007KT 210V300 9000 NSC 37/22 Q1003 NOSIG
VTUV,2023-04-04T10:00:00Z,VTUV 041000Z 24007KT 180V270 8000 FEW030 37/19 Q1003 NOSIG
VTUW,2023-04-04T10:00:00Z,VTUW 041000Z 24004KT 8000 FEW035 37/16 Q1002 NOSIG
VVCI,2023-04-04T10:00:00Z,VVCI 041000Z 12006KT 8000 SCT009 BKN012 26/24 Q1001 NOSIG
VVCR,2023-04-04T10:00:00Z,VVCR 041000Z 16010KT 9999 FEW015 30/24 Q1007 NOSIG
VVCT,2023-04-04T10:00:00Z,VVCT 041000Z 21007KT 180V240 8000 SCT015 FEW017CB 27/22 Q1006 NOSIG
VVDN,2023-04-04T10:00:00Z,VVDN 041000Z 09007KT 040V120 9999 FEW015 28/24 Q1004 NOSIG
VVNB,2023-04-04T10:00:00Z,VVNB 041000Z 10009KT 7000 SCT020 OVC027 28/24 Q1001 NOSIG
VVPB,2023-04-04T10:00:00Z,VVPB 041000Z 11004KT 9999 FEW015 31/25 Q1003 NOSIG
VVPQ,2023-04-04T10:00:00Z,VVPQ 041000Z 24007KT 9999 SCT015 31/23 Q1006 NOSIG
VVTS,2023-04-04T10:00:00Z,VVTS 041000Z 18012KT 9999 SCT017 SCT050 31/25 Q1006 NOSIG
VVVD,2023-04-04T10:00:00Z,VVVD 041000Z 17003KT 150V220 9999 BKN016 BKN022 26/24 Q1003 NOSIG
VYMD,2023-04-04T09:30:00Z,VYMD 040930Z 04009KT 7000 FEW025 36/14 Q1006 NOSIG
VYNT,2023-04-04T10:00:00Z,VYNT 041000Z 26007KT 7000 SCT020 FEW025CB 36/18 Q1005 NOSIG
VYYY,2023-04-04T10:00:00Z,VYYY 041000Z 25007KT 7000 FEW020 35/24 Q1005 NOSIG
WAAA,2023-04-04T10:00:00Z,WAAA 041000Z 09004KT 060V120 9000 -RA FEW017CB SCT018 25/22 Q1009 NOSIG RMK CB IN APCH
WABB,2023-04-04T10:00:00Z,WABB 041000Z VRB02KT 8000 SCT018 27/26 Q1008 NOSIG
WADD,2023-04-04T10:00:00Z,WADD 041000Z 25007KT 9999 FEW016 28/26 Q1008 NOSIG
WAHS,2023-04-04T10:00:00Z,WAHS 041000Z 34004KT 8000 SCT014 29/24 Q1007 NOSIG
WAJJ,2023-04-04T10:00:00Z,WAJJ 041000Z 00000KT 9999 SCT011 24/22 Q1007 NOSIG
WALL,2023-04-04T10:00:00Z,WALL 041000Z 21003KT 9999 FEW020 28/24 Q1007 NOSIG
WAMM,2023-04-04T10:00:00Z,WAMM 041000Z VRB03KT 3000 -RA FEW018CB BKN019 25/24 Q1010 NOSIG RMK CB IN APCH
WAOO,2023-04-04T10:00:00Z,WAOO 041000Z 16002KT 9999 SCT017 26/24 Q1007 NOSIG
WAPP,2023-04-04T10:00:00Z,WAPP 041000Z 28003KT 9999 FEW017 28/25 Q1007 NOSIG
WAQQ,2023-04-04T10:00:00Z,WAQQ 041000Z 09004KT 9999 FEW015 BKN100 30/24 Q1008 NOSIG
WARR,2023-04-04T10:00:00Z,WARR 041000Z 15005KT 9999 FEW020 28/25 Q1007 NOSIG
WATT,2023-04-04T10:00:00Z,WATT 041000Z 09002KT 9999 SCT016 26/26 Q1009 NOSIG
WBGB,2023-04-04T10:00:00Z,WBGB 041000Z VRB02KT 9999 SCT016 29/25 Q1007
WBGG,2023-04-04T10:00:00Z,WBGG 041000Z VRB03KT 9999 FEW020 32/22 Q1006 NOSIG
WBGR,2023-04-04T10:00:00Z,WBGR 041000Z VRB02KT 9999 SCT016 29/23 Q1007
WBGS,2023-04-04T10:00:00Z,WBGS 041000Z 16003KT 110V220 9999 SCT018 30/25 Q1006
WBGY,2023-04-04T10:00:00Z,WBGY 041000Z 00000KT 9999 SCT020 30/26 Q1007
WBKK,2023-04-04T10:00:00Z,WBKK 041000Z 00000KT 9999 FEW014 28/24 Q1008 NOSIG
WBKL,2023-04-04T10:00:00Z,WBKL 041000Z 00000KT 9999 FEW014 27/24 Q1008
WBKS,2023-04-04T10:00:00Z,WBKS 041000Z 06004KT 020V100 9999 FEW015 FEW017CB 29/24 Q1009
WBKT,2023-04-04T10:00:00Z,WBKT 041000Z VRB03KT 9999 FEW014 29/25 Q1008
WBKW,2023-04-04T10:00:00Z,WBKW 041000Z 05003KT 9999 -RA FEW015CB SCT027 24/23 Q1008
WBSB,2023-04-04T10:00:00Z,WBSB 041000Z 34003KT 9999 TS FEW015 FEW016CB SCT140 BKN280 28/26 Q1008 NOSIG
WIBB,2023-04-04T10:00:00Z,WIBB 041000Z 30009KT 9999 FEW012 33/21 Q1004 NOSIG
WIDD,2023-04-04T10:00:00Z,WIDD 041000Z 25007KT 9999 SCT014 32/21 Q1007 NOSIG
WIDN,2023-04-04T10:00:00Z,WIDN 041000Z 21004KT 9999 SCT017 31/25 Q1007 NOSIG
WIEE,2023-04-04T10:00:00Z,WIEE 041000Z 27004KT 250V320 9999 SCT020 30/24 Q1007 NOSIG
WIHH,2023-04-04T10:00:00Z,WIHH 041000Z 26007KT 6000 SCT016 31/21 Q1006 NOSIG METAR 
WILL,2023-04-04T10:00:00Z,WILL 041000Z 00000KT 8000 -TSRA FEW013CB SCT014 25/24 Q1008
WIMM,2023-04-04T10:00:00Z,WIMM 041000Z 34010KT 9999 SCT018 31/24 Q1006 NOSIG
WIOO,2023-04-04T10:00:00Z,WIOO 041000Z 25008KT 9999 FEW013 30/24 Q1007 NOSIG
WIPP,2023-04-04T10:00:00Z,WIPP 041000Z 03005KT 9999 BKN010 32/24 Q1006 NOSIG
WMAU,2023-04-04T10:00:00Z,WMAU 041000Z 08008KT 050V130 9999 FEW020 30/25 Q1006
WMBA,2023-04-04T10:00:00Z,WMBA 041000Z 30005KT 250V040 9999 FEW017CB 30/25 Q1006
WMKA,2023-04-04T10:00:00Z,WMKA 041000Z VRB10KT 9999 FEW017CB SCT020 30/25 Q1006
WMKB,2023-04-04T10:00:00Z,WMKB 041000Z 29010KT 250V340 8000 FEW017CB 30/25 Q1006 NOSIG
WMKC,2023-04-04T10:00:00Z,WMKC 041000Z 04009KT 010V070 9999 FEW017CB 31/25 Q1006
WMKD,2023-04-04T10:00:00Z,WMKD 041000Z VRB01KT 9999 FEW025 27/24 Q1007 NOSIG
WMKE,2023-04-04T10:00:00Z,WMKE 041000Z VRB02KT 9999 FEW014CB SCT017 30/25 Q1007
WMKI,2023-04-04T10:00:00Z,WMKI 041000Z 21008KT 150V260 9000 TS FEW017CB SCT026 30/25 Q1006
WMKJ,2023-04-04T10:00:00Z,WMKJ 041000Z VRB04KT 9999 FEW017CB 32/24 Q1005
WMKK,2023-04-04T10:00:00Z,WMKK 041000Z 27007KT 210V330 9999 FEW018 33/22 Q1005 NOSIG
WMKL,2023-04-04T10:00:00Z,WMKL 041000Z VRB07KT 9999 FEW020 31/24 Q1006
WMKM,2023-04-04T10:00:00Z,WMKM 041000Z VRB07KT 9999 FEW022 31/25 Q1006
WMKN,2023-04-04T10:00:00Z,WMKN 041000Z 03006KT 350V110 9999 TS FEW017CB 31/25 Q1006
WMKP,2023-04-04T10:00:00Z,WMKP 041000Z VRB03KT 9000 FEW017CB 31/25 Q1006 NOSIG
WMSA,2023-04-04T10:00:00Z,WMSA 041000Z 28010KT 9999 FEW024 32/24 Q1006
WSAP,2023-04-04T10:00:00Z,WSAP 041000Z 25003KT 9999 VCSH FEW018TCU BKN300 33/21 Q1006
WSSL,2023-04-04T10:00:00Z,WSSL 041000Z 24006KT 210V290 9999 FEW020 32/21 Q1006
WSSS,2023-04-04T10:00:00Z,WSSS 041000Z 27004KT 200V350 9999 FEW016 FEW018TCU SCT060 33/23 Q1006 NOSIG
YAMB,2023-04-04T10:00:00Z,YAMB 041000Z AUTO 00000KT 9999 // NCD 20/18 Q1012 RF00.0/000.2
YBAS,2023-04-04T10:00:00Z,YBAS 041000Z AUTO 11007KT 9999 // OVC120 28/12 Q1012 RF00.0/000.0
YBBN,2023-04-04T10:00:00Z,YBBN 041000Z 23002KT 9999 FEW020 21/18 Q1013
YBCG,2023-04-04T10:00:00Z,YBCG 041000Z AUTO 19004KT 9999 // NCD 20/18 Q1013 RF00.0/000.0
YBCS,2023-04-04T10:00:00Z,YBCS 041000Z AUTO 06003KT 9999 // NCD 28/24 Q1010 RF00.0/000.0
YBHM,2023-04-04T10:00:00Z,YBHM 041000Z AUTO /////KT 9999 // SCT021 BKN070 27/// Q1012
YBLN,2023-04-04T10:00:00Z,YBLN 041000Z AUTO 19011KT 9999 // SCT061 19/09 Q1014 RF00.0/000.0
YBMA,2023-04-04T10:00:00Z,YBMA 041000Z AUTO 17004KT 9999 // NCD 23/09 Q1012 RF00.0/000.0
YBRK,2023-04-04T10:00:00Z,YBRK 041000Z AUTO 00000KT 9999 // NCD 22/19 Q1012 RF00.0/000.0
YBRM,2023-04-04T10:17:00Z,YBRM 041017Z AUTO 29007KT 6000 // NCD 29/25 Q1008 RF00/0/000/0
YBSU,2023-04-04T10:00:00Z,YBSU 041000Z AUTO 24005KT 9999 // NCD 21/19 Q1013 RF00.0/000.0
YBTL,2023-04-04T10:00:00Z,YBTL 041000Z AUTO 06007KT 9999 // BKN018 28/24 Q1011 RF00.0/000.0
YBWW,2023-04-04T10:00:00Z,YBWW 041000Z AUTO 20002KT 9999 // NCD 16/12 Q1014 RF00.0/000.0
YCFS,2023-04-04T10:00:00Z,YCFS 041000Z AUTO 22011KT 9999 // SCT018 BKN027 BKN036 20/17 Q1014
YCIN,2023-04-04T10:00:00Z,YCIN 041000Z AUTO 33004KT 9999 // NCD 30/23 Q1007 RF00.0/000.0
YFRT,2023-04-04T10:00:00Z,YFRT 041000Z AUTO 08015KT 9999 // SCT072 SCT082 22/20 Q1006
YGEL,2023-04-04T10:00:00Z,YGEL 041000Z AUTO 18016KT 9999 // NCD 22/14 Q1013 RF00.0/000.0
YGLA,2023-04-04T10:00:00Z,YGLA 041000Z AUTO 00000KT 9999 // NCD 23/20 Q1012 RF00.0/000.0
YHID,2023-04-04T10:00:00Z,YHID 041000Z AUTO 18005KT 9999 // NCD 27/26 Q1007 RF00.0/002.8
YLHI,2023-04-04T10:21:00Z,YLHI 041021Z AUTO 06027KT 5000 -RA BKN026 BKN036 OVC045 21/19 Q1013
YMAV,2023-04-04T10:00:00Z,YMAV 041000Z AUTO 16005KT 9999 // OVC012 16/14 Q1019 RF00.0/000.0
YMHB,2023-04-04T10:00:00Z,YMHB 041000Z 35006KT 9999 FEW055 13/10 Q1017
YMLT,2023-04-04T10:00:00Z,YMLT 041000Z AUTO 03004KT 320V090 9999 // SCT055 12/09 Q1017
YMML,2023-04-04T10:16:00Z,YMML 041016Z AUTO 20008KT 9999 // BKN016 16/14 Q1019 RF00/0/000/0
YPAD,2023-04-04T10:00:00Z,YPAD 041000Z 12008KT CAVOK 21/07 Q1015
YPCC,2023-04-04T10:00:00Z,YPCC 041000Z AUTO 15007KT 9999 // SCT024 BKN028 BKN035 27/23 Q1008
YPDN,2023-04-04T10:00:00Z,YPDN 041000Z 30006KT CAVOK 27/21 Q1008 DL-SE/DL-S DISTANT LIGHTNING TO S
YPEA,2023-04-04T10:00:00Z,YPEA 041000Z AUTO 19014KT 9999 // NCD 21/09 Q1013 RF00.0/000.0
YPGV,2023-04-04T10:00:00Z,YPGV 041000Z AUTO 15004KT 9999 // NCD 28/24 Q1009 RF00.0/000.0
YPJT,2023-04-04T10:00:00Z,YPJT 041000Z AUTO 21013KT 9999 // NCD 21/10 Q1014 RF00.0/000.0
YPKG,2023-04-04T10:00:00Z,YPKG 041000Z AUTO 25004KT 9999 // NCD 22/12 Q1010 RF00.0/000.0
YPKU,2023-04-04T10:25:00Z,YPKU 041025Z AUTO 20005KT 9999 VCTS -SHRA BKN061 OVC120 29/23 Q1008 RETS
YPLM,2023-04-04T10:00:00Z,YPLM 041000Z AUTO 01005KT 9999 // SCT059 29/22 Q1009 RF00.0/000.0
YPPD,2023-04-04T10:00:00Z,YPPD 041000Z AUTO 31012KT 9999 // NCD 30/25 Q1008 RF00.0/000.0
YPPH,2023-04-04T10:00:00Z,YPPH 041000Z 21017KT 9999 FEW048 21/11 Q1013
YPTN,2023-04-04T10:00:00Z,YPTN 041000Z AUTO 11006KT 9999 // NCD 31/20 Q1008 RF00.0/000.0
YPWR,2023-04-04T10:00:00Z,YPWR 041000Z AUTO 08010KT 9999 // NCD 25/01 Q1014 RF00.0/000.0
YPXM,2023-04-04T10:00:00Z,YPXM 041000Z AUTO 00000KT 9999 // NCD 26/22 Q1010 RF00.0/000.0
YSCB,2023-04-04T10:00:00Z,YSCB 041000Z AUTO 13005KT 090V160 9999 // OVC089 16/15 Q1019
YSDU,2023-04-04T10:00:00Z,YSDU 041000Z AUTO 15007KT 9999 // NCD 18/12 Q1016 RF00.0/000.0
YSNF,2023-04-04T10:00:00Z,YSNF 041000Z AUTO 09015KT 9999 // BKN022 OVC029 20/16 Q1018
YSRI,2023-04-04T10:00:00Z,YSRI 041000Z AUTO 27003KT 9999 // SCT031 OVC056 18/18 Q1018
YSSY,2023-04-04T10:00:00Z,YSSY 041000Z 11006KT 9999 FEW025 BKN280 21/14 Q1017 RF00.0/000.0
YSTW,2023-04-04T10:00:00Z,YSTW 041000Z AUTO 16008KT 9999 // NCD 17/13 Q1016 RF00.0/000.2
YWLM,2023-04-04T10:00:00Z,YWLM 041000Z 31003KT 9999 FEW024 SCT033 17/16 Q1017 RF00.0////./
ZBAA,2023-04-04T10:00:00Z,ZBAA 041000Z 35004MPS 9999 -RA FEW013 OVC033 07/06 Q1018 NOSIG
ZBAD,2023-04-04T10:00:00Z,ZBAD 041000Z 01009MPS 9999 -RA FEW010 OVC030 08/06 Q1016 NOSIG
ZBHH,2023-04-04T10:00:00Z,ZBHH 041000Z 04005MPS 9999 SCT040 07/01 Q1017 NOSIG
ZBSJ,2023-04-04T10:00:00Z,ZBSJ 041000Z 02003MPS 350V050 9999 -RA SCT010 OVC040 08/07 Q1017 NOSIG
ZBTJ,2023-04-04T10:00:00Z,ZBTJ 041000Z 01010MPS 8000 -RA BKN010 OVC026 06/05 Q1015 NOSIG
ZBYN,2023-04-04T10:00:00Z,ZBYN 041000Z 09004MPS 9999 -RA BKN030 08/01 Q1015 NOSIG
ZGGG,2023-04-04T10:00:00Z,ZGGG 041000Z 13003MPS 110V170 9000 OVC046 25/24 Q1005 NOSIG
ZGHA,2023-04-04T10:00:00Z,ZGHA 041000Z 32004MPS 290V350 3800 SHRA BR BKN005 OVC040 15/14 Q1008 BECMG TL1020 -SHRA
ZGKL,2023-04-04T10:00:00Z,ZGKL 041000Z 18006MPS 8000 FEW036 SCT066 27/22 Q1001 NOSIG
ZGNN,2023-04-04T10:00:00Z,ZGNN 041000Z 14005MPS 110V170 9999 SCT033 28/24 Q1001 NOSIG
ZGOW,2023-04-04T10:00:00Z,ZGOW 041000Z 16002MPS 110V230 9999 FEW015 SCT019 OVC036 24/21 Q1009 NOSIG
ZGSZ,2023-04-04T10:00:00Z,ZGSZ 041000Z 16006MPS 9999 FEW020 24/22 Q1006 NOSIG
ZHCC,2023-04-04T10:00:00Z,ZHCC 041000Z 02006MPS 350V050 9999 OVC040 10/04 Q1013 NOSIG
ZHHH,2023-04-04T10:00:00Z,ZHHH 041000Z 03004MPS 350V050 9999 BKN023 13/11 Q1010 NOSIG
ZJHK,2023-04-04T10:00:00Z,ZJHK 041000Z 16005MPS 130V190 CAVOK 31/24 Q1002 NOSIG
ZJSY,2023-04-04T10:00:00Z,ZJSY 041000Z 12003MPS 080V190 9999 SCT023 SCT033 28/24 Q1005 NOSIG
ZLLL,2023-04-04T10:00:00Z,ZLLL 041000Z 04006MPS 9999 BKN026 OVC040 04/M04 Q1016 NOSIG
ZLXY,2023-04-04T10:00:00Z,ZLXY 041000Z 28002MPS 9999 FEW060 12/07 Q1014 NOSIG
ZMUB,2023-04-04T10:00:00Z,ZMUB 041000Z 29003MPS 260V330 CAVOK M01/M16 Q1023 NOSIG RMK QFE659.1 28
ZPPP,2023-04-04T10:00:00Z,ZPPP 041000Z 24010MPS 9999 FEW030 21/02 Q1012 NOSIG
ZSAM,2023-04-04T10:00:00Z,ZSAM 041000Z 22003MPS 200V270 9999 SCT023 OVC040 23/19 Q1009 NOSIG
ZSFZ,2023-04-04T10:00:00Z,ZSFZ 041000Z 22003MPS 190V260 6000 NSC 21/17 Q1009 NOSIG
ZSHC,2023-04-04T10:00:00Z,ZSHC 041000Z 27002MPS 240V300 8000 -RA BKN020 19/18 Q1007 BECMG TL1130 BKN010 BKN020
ZSNB,2023-04-04T10:00:00Z,ZSNB 041000Z 19006MPS 9999 BKN023 20/18 Q1007 NOSIG
ZSNJ,2023-04-04T10:00:00Z,ZSNJ 041000Z 30003MPS 7000 BKN015 OVC026 14/14 Q1008 NOSIG
ZSOF,2023-04-04T10:00:00Z,ZSOF 041000Z 30006MPS 5000 BR BKN009 12/11 Q1009 NOSIG
ZSPD,2023-04-04T10:00:00Z,ZSPD 041000Z 17008MPS 9000 -SHRA BKN010 18/17 Q1007 BECMG TL1030 BKN009
ZSQD,2023-04-04T10:00:00Z,ZSQD 041000Z 19004MPS 5000 BR BKN003 OVC023 12/12 Q1002 NOSIG
ZSSS,2023-04-04T10:00:00Z,ZSSS 041000Z 18004MPS 9999 BKN012 19/17 Q1007 NOSIG
ZUCK,2023-04-04T10:00:00Z,ZUCK 041000Z 08004MPS CAVOK 23/11 Q1004 NOSIG
ZUGY,2023-04-04T10:00:00Z,ZUGY 041000Z 03003MPS 360V060 9999 FEW040 27/08 Q1004 NOSIG
ZUTF,2023-04-04T10:00:00Z,ZUTF 041000Z VRB01MPS CAVOK 25/06 Q1003 NOSIG
ZUUU,2023-04-04T10:00:00Z,ZUUU 041000Z 36003MPS 330V030 CAVOK 23/08 Q1004 NOSIG
ZWSH,2023-04-04T10:00:00Z,ZWSH 041000Z 10005MPS 060V130 0700 R08/1000N DU FEW040 12/M16 Q1022 NOSIG
ZWWW,2023-04-04T10:00:00Z,ZWWW 041000Z 04003MPS 340V090 CAVOK 07/M20 Q1030 NOSIG
ZYCC,2023-04-04T10:00:00Z,ZYCC 041000Z VRB01MPS CAVOK 07/M13 Q1022 NOSIG
ZYHB,2023-04-04T10:00:00Z,ZYHB 041000Z 28003MPS 240V300 CAVOK 07/M13 Q1023 NOSIG
ZYTL,2023-04-04T10:00:00Z,ZYTL 041000Z 08009G14MPS 2500 -RA BR SCT010 OVC033 08/07 Q1011 BECMG TL1030 RA BR
ZYTX,2023-04-04T10:00:00Z,ZYTX 041000Z 03004MPS 6000 -RA FEW016 OVC040 09/M00 Q1020 NOSIG
