station_id,raw_text
AGGA,TAF AGGA 241710Z 2418/2518 36010KT 9999 SCT018 BKN030 PROB40 INTER 2418/2500 5000 TSSH BKN016 FEW017CB
AGGC,TAF AGGC 241710Z 2418/2518 32008KT 9999 SCT018
AGGH,TAF AGGH 241710Z 2418/2518 36010KT 9999 SCT018 T 23 26 31 32 Q 1007 1009 1009 1007
AGGK,TAF AGGK 241710Z 2418/2518 34015KT 9999 SCT018 BKN030 PROB40 INTER 2418/2500 5000 TSSH BKN016 FEW017CB
AGGL,TAF AGGL 241710Z 2418/2518 36017KT 9999 -SHRA SCT017 BKN028 INTER 2418/2503 5000 TSSH BKN016 SCT017CB
AGGM,TAF AGGM 241710Z 2418/2518 27008KT 9999 SCT018 Q 1007 1009 1009 1007
AGGN,TAF AGGN 241710Z 2418/2518 27008KT 9999 SCT018 Q 1007 1009 1009 1007
AGGR,TAF AGGR 241710Z 2418/2518 27012KT 9999 SCT018
AYPY,TAF AYPY 241601Z 2418/2518 VRB03KT 9999 SCT040 FM242200 10007KT 9999 SCT018 SCT140 FM250001 22010KT 9999 SCT020 FM250500 19015KT 9999 -SHRA SCT018 BKN030 PROB30 2506/2509 5000 TSRA BKN010 FEW018CB PROB30 2419/2421 VRB03KT 0600 FG
BGBW,TAF AMD BGBW 241822Z 2418/2503 VRB04KT 9999 SCT030 BKN090 TEMPO 2418/2503 BKN030
BGSF,TAF AMD BGSF 241804Z 2418/2502 04006KT 8000 SCT012 BKN020 TEMPO 2418/2502 4000 -SN BR BKN010
BGTL,TAF BGTL 241900Z 2419/2601 VRB06KT 9999 FEW030 FEW070 SCT100 QNH2953INS BECMG 2507/2508 09010G15KT 9999 SCT020 BKN030 610304 QNH2960INS TEMPO 2513/2516 09015G25KT 510006 BECMG 2520/2521 11009KT 9999 FEW015 SCT020 BKN030 QNH2965INS TXM06/2518Z TNM13/2500Z
BIHN,TAF BIHN 241310Z 2414/2420 08012KT 9999 SCT018 BKN028 TEMPO 2414/2420 4500 DZRA BR BKN010 OVC020
BKPR,TAF BKPR 241730Z 2418/2518 VRB03KT CAVOK BECMG 2503/2505 2000 BR PROB40 2504/2507 0300 FG BKN003 BECMG 2507/2509 CAVOK
CBBC,TAF CBBC 241840Z 2419/2505 29010G25KT P6SM BKN040 OVC080 TEMPO 2419/2505 5SM -SHRA BR BKN020 RMK FCST BASED ON AUTO OBS. NXT FCST BY 250100Z
CWSA,TAF CWSA 241940Z 2420/2424 06010KT P6SM SCT008 OVC025 TEMPO 2420/2424 5SM -SHRA BR BKN008 OVC025 PROB30 2420/2424 BKN003 RMK FCST BASED ON AUTO OBS. NXT FCST BY 250800Z
CYAB,TAF CYAB 241840Z 2419/2422 22010KT 4SM -SN FEW010 BKN020 TEMPO 2419/2422 P6SM NSW SCT020 BKN060 RMK NXT FCST BY 251300Z
CYAH,TAF CYAH 241740Z 2418/2421 19008KT P6SM FEW050 RMK FCST BASED ON AUTO OBS. NXT FCST BY 251100Z
CYAM,TAF CYAM 241940Z 2420/2508 11008KT P6SM FEW050 BKN160 TEMPO 2420/2422 BKN050 BKN160 FM242200 11010KT P6SM FEW120 BKN180 RMK NXT FCST BY 250200Z
CYAS,TAF CYAS 241340Z 2414/2421 30015G25KT P6SM FEW020 SCT050 BECMG 2417/2419 33008KT RMK NXT FCST BY 251400Z
CYAW,TAF AMD CYAW 241752Z 2418/2506 08008KT P6SM SCT012 OVC025 TEMPO 2418/2501 3SM -SHRA -DZ BR BKN008 OVC015 BECMG 2501/2503 1/4SM -DZ FG VV002 RMK NXT FCST BY 250000Z
CYAY,TAF CYAY 241940Z 2420/2508 24015KT P6SM BKN100 BECMG 2420/2422 FEW100 FM250600 06005KT P6SM FEW004 SCT050 RMK FCST BASED ON AUTO OBS. NXT FCST BY 250200Z
CYAZ,TAF CYAZ 241840Z 2419/2501 30015G30KT P6SM BKN030 TEMPO 2419/2501 3SM -SHRA BR OVC020 RMK NXT FCST BY 251500Z
CYBB,TAF CYBB 241840Z 2419/2424 23015G25KT 6SM -SN FEW008 BKN015 TEMPO 2419/2424 P6SM NSW SCT015 BKN060 RMK NXT FCST BY 251400Z
CYBC,TAF CYBC 241940Z 2420/2508 09005KT P6SM BKN160 FM250400 06005KT P6SM BKN080 OVC120 RMK FCST BASED ON AUTO OBS. NXT FCST BY 250200Z
CYBG,TAF CYBG 241740Z 2418/2518 08005KT P6SM SCT180 BKN240 FM250200 12005KT P6SM BKN030 BKN180 PROB30 2505/2511 1SM BR FM251100 VRB03KT P6SM BKN020 FM251600 09005KT P6SM BKN040 RMK NXT FCST BY 242100Z
CYBK,TAF CYBK 241740Z 2418/2506 22012G22KT P6SM BKN050 BKN100 TEMPO 2418/2506 5SM -SN BKN030 BKN080 BECMG 2422/2424 17008KT RMK NXT FCST BY 250000Z
CYBL,TAF CYBL 241840Z 2419/2504 VRB03KT P6SM SCT012 BKN050 OVC100 TEMPO 2419/2424 P6SM -SHRA BKN012 OVC040 FM250000 VRB03KT P6SM FEW020 BKN060 RMK NXT FCST BY 250100Z
CYBR,TAF CYBR 241741Z 2418/2506 33015G25KT 6SM -SHRA OVC015 TEMPO 2419/2424 3SM -SHRASN BR OVC008 PROB30 2419/2424 4SM -FZRA FM250000 30015G25KT P6SM -SN OVC015 TEMPO 2500/2504 5SM -SN OVC008 FM250400 29012G22KT P6SM OVC015 TEMPO 2504/2506 5SM -SN PROB30 2504/2506 5SM -FZDZ BR RMK NXT FCST BY 250000Z
CYBW,TAF CYBW 241743Z 2418/2504 VRB03KT P6SM SCT100 BKN240 TEMPO 2418/2423 BKN080 BECMG 2418/2420 28008KT FM242300 30012KT P6SM SCT060 RMK FCST BASED ON AUTO OBS. NXT FCST BY 250000Z
CYBX,TAF CYBX 241940Z 2420/2508 25010KT P6SM FEW100 FM250600 06005KT P6SM FEW003 RMK NXT FCST BY 250200Z
CYCA,TAF CYCA 241940Z 2420/2508 05010KT P6SM SKC BECMG 2422/2424 22005KT SCT120 RMK FCST BASED ON AUTO OBS. NXT FCST BY 250200Z
CYCB,TAF CYCB 241840Z 2419/2507 02005KT P6SM FEW005 BKN025 TEMPO 2419/2507 5SM IC SCT005 BKN012 BECMG 2420/2422 05010KT RMK NXT FCST BY 250100Z
CYCD,TAF CYCD 241740Z 2418/2504 VRB03KT 3SM BR BKN005 OVC012 BECMG 2418/2420 P6SM NSW FEW006 SCT012 BKN025 FM242000 23007KT P6SM SCT030 TEMPO 2420/2504 P6SM -SHRA BKN030 RMK NXT FCST BY 250000Z
CYCG,TAF CYCG 241840Z 2419/2504 18008KT P6SM BKN040 TEMPO 2419/2504 P6SM -SHRA FEW020 BKN030 RMK NXT FCST BY 250100Z
CYCO,TAF AMD CYCO 241849Z 2419/2507 25012KT P6SM -SN BKN025 TEMPO 2419/2507 2SM -SN BKN012 OVC025 RMK NXT FCST BY 250100Z
CYCX,TAF CYCX 241440Z 2415/2503 VRB03KT P6SM FEW060 BKN110 BKN160 TEMPO 2415/2421 6SM -SHRA BR BKN060 FM242100 05005KT P6SM -RA BKN030 TEMPO 2421/2503 4SM -SHRA BR BKN008 PROB40 2421/2503 2SM -SHRA BR BKN003 RMK NXT FCST BY 242100Z
CYCY,TAF CYCY 241840Z 2419/2507 27010KT P6SM SCT050 TEMPO 2419/2420 BKN050 RMK FCST BASED ON AUTO OBS. NXT FCST BY 250100Z
CYDA,TAF CYDA 241540Z 2416/2423 VRB03KT P6SM SCT040 TEMPO 2416/2421 BKN040 FM242100 25005KT P6SM BKN040 RMK NXT FCST BY 251600Z
CYDB,TAF CYDB 241740Z 2418/2506 30008KT P6SM FEW030 SCT050 OVC100 TEMPO 2418/2506 5SM -SHSN SCT030 OVC050 RMK NXT FCST BY 250000Z
CYDF,TAF CYDF 241940Z 2420/2508 21005KT P6SM BKN200 BECMG 2500/2502 VRB03KT RMK NXT FCST BY 250200Z
CYDL,TAF CYDL 241740Z 2418/2424 35006KT P6SM -SN BKN040 OVC120 TEMPO 2418/2424 2SM -SN VV015 RMK FCST BASED ON AUTO OBS. NXT FCST BY 251300Z
CYDN,TAF CYDN 241741Z 2418/2506 34015G25KT P6SM -RA SCT008 OVC015 TEMPO 2418/2424 2SM -RASN BR OVC008 PROB30 2418/2424 3SM -FZRA BR FM250000 30012G22KT P6SM -SN SCT015 OVC025 TEMPO 2500/2506 5SM -SN OVC015 RMK FCST BASED ON AUTO OBS. NXT FCST BY 250000Z
CYDP,TAF CYDP 241940Z 2420/2423 30015KT P6SM SCT060 BKN220 RMK NXT FCST BY 251000Z
CYDQ,TAF CYDQ 241840Z 2419/2505 VRB03KT P6SM BKN060 TEMPO 2419/2503 6SM -SHSNRA OVC030 FM250300 36006KT 5SM -SNRA BR SCT012 OVC030 TEMPO 2503/2505 2SM -SHSN OVC008 RMK FCST BASED ON AUTO OBS. NXT FCST BY 250100Z
CYED,TAF CYED 241740Z 2418/2506 17008KT P6SM FEW015 OVC080 TEMPO 2418/2502 6SM -SHRASN BR FEW003 OVC015 FM250200 VRB03KT P6SM OVC008 RMK NXT FCST BY 250000Z
CYEG,TAF AMD CYEG 241809Z 2418/2518 16008KT P6SM FEW012 BKN070 OVC160 TEMPO 2418/2422 2SM -SN BKN012 OVC040 FM242200 VRB03KT P6SM FEW012 BKN070 OVC160 TEMPO 2422/2501 P6SM -RASN BKN012 OVC040 FM250100 VRB03KT P6SM BKN030 OVC120 FM250800 20005KT P6SM BKN030 BKN080 TEMPO 2508/2517 3SM -SHSN BKN020 OVC040 FM251700 31015G25KT P6SM FEW030 SCT080 RMK NXT FCST BY 242100Z
CYEK,TAF AMD CYEK 241918Z 2419/2506 08010KT P6SM BKN030 BKN160 TEMPO 2419/2424 5SM -SN BKN020 OVC160 BECMG 2419/2421 06015KT FM250000 07020KT P6SM SCT012 OVC030 TEMPO 2500/2503 3SM -SN OVC012 FM250300 04020G30KT 3SM -SN OVC012 PROB30 2503/2506 1SM -SHSN BLSN VV008 RMK NXT FCST BY 250000Z
CYEN,TAF CYEN 241741Z 2418/2424 32025G35KT P6SM -RASN OVC010 TEMPO 2418/2420 2SM -FZRA -SN BR FM242000 31022G32KT P6SM -SN OVC012 TEMPO 2420/2424 4SM -SN OVC008 BECMG 2422/2424 30015G25KT RMK FCST BASED ON AUTO OBS. NXT FCST BY 251200Z
CYEU,TAF CYEU 241740Z 2418/2502 35008KT P6SM FEW060 RMK ADVISORY OFFSITE. NXT FCST BY 250000Z
CYEV,TAF CYEV 241840Z 2419/2507 08005KT P6SM FEW050 FM242200 06005KT P6SM SCT030 TEMPO 2422/2507 BKN030 RMK NXT FCST BY 250100Z
CYFB,TAF CYFB 241740Z 2418/2518 31020KT P6SM OVC030 TEMPO 2418/2503 P6SM -SN OVC020 BECMG 2420/2422 32015KT FM250300 32010KT P6SM SCT030 TEMPO 2503/2510 BKN030 BECMG 2508/2510 01008KT FM251000 01008KT P6SM SCT030 BKN160 BECMG 2512/2514 10015G25KT FM251600 10020G30KT P6SM SCT020 OVC060 TEMPO 2516/2518 4SM -SHSN OVC020 RMK NXT FCST BY 250000Z
CYFC,TAF CYFC 241740Z 2418/2506 VRB03KT P6SM SCT020 OVC080 TEMPO 2418/2420 5SM -SHRA BR BKN020 OVC080 FM242000 VRB03KT P6SM -RA SCT008 OVC025 TEMPO 2420/2424 5SM -RA BR BKN008 OVC025 PROB40 2422/2424 2SM -SHRA BR OVC005 FM250000 05005KT 3SM -RA BR OVC005 TEMPO 2500/2506 6SM -RA BR OVC010 PROB30 2500/2506 3/4SM -RA BR OVC002 RMK FCST BASED ON AUTO OBS. NXT FCST BY 250000Z
CYFS,TAF CYFS 241740Z 2418/2506 34008KT 3/4SM -SN BR BKN009 OVC025 TEMPO 2418/2422 6SM -SN SCT009 OVC030 FM242200 33008KT P6SM SCT012 OVC030 TEMPO 2422/2506 5SM -SHSN OVC012 RMK NXT FCST BY 250000Z
CYGH,TAF CYGH 241740Z 2418/2423 VRB03KT P6SM -SN SCT012 OVC060 TEMPO 2418/2423 5SM -SN BKN012 OVC040 RMK NXT FCST BY 251400Z
CYGK,TAF CYGK 241940Z 2420/2503 VRB03KT P6SM FEW120 FEW240 RMK NXT FCST BY 251200Z
CYGL,TAF CYGL 241740Z 2418/2518 15010KT P6SM FEW050 BKN200 FM242300 17012G22KT P6SM BKN070 FM250300 18015KT P6SM -SHRA BKN040 OVC080 FM250900 17015KT P6SM SCT080 BKN140 BECMG 2516/2518 19018G28KT RMK NXT FCST BY 250000Z
CYGP,TAF CYGP 241940Z 2420/2508 VRB03KT P6SM OVC140 FM250600 VRB03KT P6SM BKN080 OVC120 RMK NXT FCST BY 250200Z
CYGQ,TAF CYGQ 241940Z 2420/2508 17018G28KT P6SM OVC015 TEMPO 2420/2505 5SM -RA BR OVC008 BECMG 2501/2503 18012G22KT FM250500 19008KT 4SM -RA BR SCT005 OVC010 PROB30 2505/2508 2SM RA BR OVC005 RMK FCST BASED ON AUTO OBS. NXT FCST BY 250200Z
CYGR,TAF CYGR 241940Z 2420/2502 VRB03KT P6SM SCT140 OVC240 BECMG 2420/2422 19008KT FM250000 19008KT P6SM BKN160 RMK NXT FCST BY 251100Z
CYGT,TAF CYGT 241840Z 2419/2422 29020G30KT P6SM SCT020 BKN040 RMK NXT FCST BY 251200Z
CYGV,TAF CYGV 241940Z 2420/2508 08005KT P6SM BKN240 FM250000 02005KT P6SM FEW003 SCT240 PROB30 2506/2508 2SM BR RMK FCST BASED ON AUTO OBS. NXT FCST BY 250200Z
CYGW,TAF CYGW 241740Z 2418/2506 11012G22KT P6SM BKN060 BECMG 2418/2420 13012KT FM242300 15012G22KT P6SM -SHRA SCT030 OVC060 RMK FCST BASED ON AUTO OBS. NXT FCST BY 250000Z
CYGX,TAF CYGX 241840Z 2419/2507 06015G30KT 3SM -SN OVC020 TEMPO 2419/2503 1SM -SN PROB30 2419/2424 2SM -FZRA -SN BR FM250300 02015G30KT 6SM -SN OVC025 TEMPO 2503/2507 2SM -SN OVC020 RMK NXT FCST BY 250100Z
CYHA,TAF CYHA 241340Z 2414/2421 33015G25KT P6SM OVC030 TEMPO 2414/2421 5SM -SHSN OVC020 BECMG 2417/2419 30012KT RMK NXT FCST BY 251400Z
CYHD,TAF CYHD 241940Z 2420/2508 17020G30KT P6SM SCT020 BKN030 TEMPO 2420/2508 BKN020 OVC030 BECMG 2500/2502 21015G25KT RMK FCST BASED ON AUTO OBS. NXT FCST BY 250200Z
CYHI,TAF CYHI 241840Z 2419/2424 04008KT P6SM -SN OVC015 TEMPO 2419/2424 P6SM NSW SCT015 OVC030 RMK NXT FCST BY 251600Z
CYHK,TAF CYHK 241740Z 2418/2506 25010KT 5SM -SN BR FEW006 BKN008 OVC030 TEMPO 2418/2506 P6SM -SN SCT008 BKN030 RMK NXT FCST BY 250000Z
CYHM,TAF CYHM 241740Z 2418/2518 12008KT P6SM FEW250 BECMG 2422/2424 05006KT FM251200 VRB03KT P6SM SCT220 BECMG 2516/2518 18010KT RMK NXT FCST BY 250000Z
CYHU,TAF CYHU 241741Z 2418/2518 06005KT P6SM SCT040 SCT100 FM250200 05005KT P6SM FEW020 SCT040 FM250800 VRB03KT P6SM FEW006 OVC020 PROB30 2508/2514 3/4SM BR SCT003 OVC020 FM251400 17010KT P6SM SCT012 OVC030 RMK FCST BASED ON AUTO OBS. NXT FCST BY 250000Z
CYHY,TAF AMD CYHY 241912Z 2419/2506 09008KT P6SM -SN SCT007 OVC020 TEMPO 2419/2424 1SM -SHSN BR OVC007 FM250000 11006KT 2 1/2SM -SN OVC005 TEMPO 2500/2506 P6SM -SN SCT005 BKN030 RMK NXT FCST BY 250000Z
CYHZ,TAF CYHZ 241740Z 2418/2518 12005KT P6SM SCT012 OVC040 TEMPO 2418/2421 5SM -SHRA BR BKN012 OVC040 PROB40 2418/2421 OVC004 FM242100 10008KT 2SM -DZ -RA BR OVC004 PROB30 2421/2504 1/2SM -DZ FG OVC002 FM250400 14008KT 1/2SM -DZ FG VV002 FM251400 18008KT 1SM BR OVC003 FM251600 18008KT 4SM BR OVC005 RMK NXT FCST BY 242100Z
CYIK,TAF CYIK 241340Z 2414/2421 28015G25KT P6SM OVC030 TEMPO 2414/2421 3SM -SHSN OVC020 BECMG 2416/2418 24010KT RMK NXT FCST BY 251400Z
CYIO,TAF CYIO 241840Z 2419/2507 25015KT 3SM -SN BKN015 OVC030 TEMPO 2419/2507 P6SM -SN SCT015 OVC030 PROB40 2419/2507 2SM -SN BR RMK NXT FCST BY 250100Z
CYIV,TAF CYIV 241840Z 2419/2507 07012G22KT 6SM -RA SCT008 OVC012 TEMPO 2419/2504 2 1/2SM -RA BR OVC008 BECMG 2422/2424 32012G22KT FM250400 29012G22KT 6SM -RA SCT008 OVC012 TEMPO 2504/2507 1 1/2SM -RASN BR OVC008 RMK FCST BASED ON AUTO OBS. NXT FCST BY 250100Z
CYJT,TAF CYJT 241740Z 2418/2518 24005KT P6SM BKN220 BECMG 2422/2424 07005KT FM251500 24010KT P6SM SCT120 RMK NXT FCST BY 250000Z
CYKA,TAF CYKA 241840Z 2419/2507 10010KT P6SM FEW060 SCT140 BECMG 2420/2421 26012G22KT FM242100 26012G22KT P6SM BKN080 BECMG 2501/2503 12008KT RMK NXT FCST BY 250100Z
CYKF,TAF CYKF 241940Z 2420/2508 15010KT P6SM SKC BECMG 2500/2502 11006KT RMK FCST BASED ON AUTO OBS. NXT FCST BY 250200Z
CYKG,TAF CYKG 241340Z 2414/2421 28015G25KT P6SM BKN030 TEMPO 2414/2421 P6SM -SHSN BKN020 BECMG 2419/2421 28008KT RMK NXT FCST BY 251400Z
CYKJ,TAF CYKJ 241840Z 2419/2424 07008KT P6SM SCT010 RMK FCST BASED ON AUTO OBS. NXT FCST BY 251000Z
CYKL,TAF CYKL 241940Z 2420/2508 13005KT P6SM BKN060 FM250300 14005KT P6SM SCT006 BKN015 OVC040 PROB30 2503/2508 2SM BR BKN006 OVC015 RMK FCST BASED ON AUTO OBS. NXT FCST BY 250200Z
CYKQ,TAF CYKQ 241441Z 2415/2421 16010G20KT P6SM SCT070 SCT240 FM242000 17012KT P6SM FEW050 BKN080 TEMPO 2420/2421 P6SM -SHRA BKN050 OVC080 RMK NXT FCST BY 251500Z
CYLD,TAF CYLD 241940Z 2420/2501 17012G22KT P6SM FEW050 BKN220 BECMG 2421/2423 17010KT RMK NXT FCST BY 251200Z
CYLL,TAF CYLL 241740Z 2418/2506 15012KT P6SM SCT260 FM242200 14012KT P6SM SCT060 BKN120 TEMPO 2422/2502 BKN060 OVC120 FM250200 13005KT P6SM SCT012 BKN040 OVC080 TEMPO 2502/2506 5SM -SHSN BKN012 OVC040 RMK NXT FCST BY 250000Z
CYLT,TAF CYLT 241740Z 2418/2506 VRB03KT P6SM BKN005 OVC012 TEMPO 2418/2506 SCT005 BKN012 RMK NXT FCST BY 250000Z
CYLW,TAF CYLW 241840Z 2419/2507 19005KT P6SM SCT040 BKN080 TEMPO 2419/2422 P6SM -SHRA BKN040 FM242200 21010KT P6SM BKN080 TEMPO 2422/2507 P6SM -SHRA RMK FCST BASED ON AUTO OBS. NXT FCST BY 250100Z
CYMA,TAF CYMA 241740Z 2418/2506 VRB03KT P6SM SCT040 BKN120 FM242100 36005KT P6SM SCT040 OVC080 TEMPO 2421/2506 P6SM -SN OVC040 RMK NXT FCST BY 250000Z
CYMH,TAF CYMH 241940Z 2420/2503 07005KT P6SM SKC BECMG 2500/2502 25005KT RMK FCST BASED ON AUTO OBS. NXT FCST BY 250900Z
CYMJ,TAF AMD CYMJ 241530Z 2415/2503 32020G30KT P6SM OVC010 TEMPO 2415/2418 5SM BR OVC009 FM241800 32015G25KT P6SM OVC020 TEMPO 2418/2503 6SM -SN OVC012 BECMG 2421/2423 30010G20KT RMK NXT FCST BY 241800Z
CYMM,TAF CYMM 241840Z 2419/2507 12015KT P6SM SCT012 OVC050 TEMPO 2419/2422 BKN008 OVC050 FM242200 12010KT P6SM FEW020 BKN050 OVC140 TEMPO 2422/2503 P6SM -SHRA BKN020 OVC040 FM250300 12006KT P6SM BKN030 OVC060 TEMPO 2503/2507 2SM -SHSN OVC015 RMK FCST BASED ON AUTO OBS. NXT FCST BY 250100Z
CYMO,TAF CYMO 241741Z 2418/2506 16012G22KT P6SM FEW050 BKN100 BKN220 TEMPO 2418/2501 P6SM -SHRA BKN050 OVC100 BECMG 2422/2424 17012KT FM250100 18012KT P6SM BKN120 RMK FCST BASED ON AUTO OBS. NXT FCST BY 250000Z
CYMT,TAF CYMT 241741Z 2418/2424 18008KT P6SM SKC RMK FCST BASED ON AUTO OBS. NXT FCST BY 251200Z
CYMX,TAF CYMX 241740Z 2418/2518 09005KT P6SM BKN030 BKN100 FM242000 10008KT P6SM SCT030 SCT100 FM250200 03005KT P6SM FEW020 SCT040 FM250800 04005KT P6SM FEW006 OVC020 PROB30 2508/2514 3/4SM BR SCT003 OVC020 FM251400 05005KT P6SM SCT012 OVC030 RMK NXT FCST BY 250000Z
CYNA,TAF CYNA 241940Z 2420/2508 12008KT P6SM BKN240 FM250000 VRB03KT P6SM SCT003 BKN240 PROB30 2500/2508 1SM BR BKN003 RMK FCST BASED ON AUTO OBS. AUTO OBS REP NON-REPRESENTATIVE PCPN. NXT FCST BY 250200Z
CYND,TAF CYND 241740Z 2418/2501 08005KT P6SM SKC RMK NXT FCST BY 251300Z
CYNE,TAF CYNE 241840Z 2419/2507 03012G22KT 4SM -RA BR SCT008 OVC015 TEMPO 2419/2424 1SM -RASN BR OVC008 PROB40 2419/2424 2SM -FZRA BR FM250000 35012G22KT 4SM -RASN OVC015 TEMPO 2500/2504 1SM -SN OVC008 FM250400 33010KT 6SM -SN SCT015 OVC025 TEMPO 2504/2507 2SM -SN OVC015 RMK FCST BASED ON AUTO OBS. NXT FCST BY 250100Z
CYOC,TAF CYOC 241440Z 2415/2501 05005KT P6SM FEW005 BKN030 OVC060 TEMPO 2415/2420 3SM -SN SCT005 OVC030 FM242000 04005KT P6SM BKN030 RMK NXT FCST BY 241900Z
CYOD,TAF CYOD 241740Z 2418/2518 12005KT 2SM BR OVC003 BECMG 2418/2421 P6SM NSW BKN150 FM242100 12005KT P6SM BKN150 FM250100 12005KT P6SM -SN BKN030 OVC100 FM251200 12005KT P6SM -SN BKN008 FM251700 24005KT P6SM BKN010 RMK NXT FCST BY 242100Z
CYOJ,TAF CYOJ 241840Z 2419/2507 10005KT 1SM -SN BR OVC005 TEMPO 2419/2423 P6SM -SN OVC010 FM242300 09008KT P6SM OVC008 TEMPO 2423/2507 SCT008 OVC015 PROB30 2423/2507 1SM -SHSN RMK NXT FCST BY 250100Z
CYOO,TAF CYOO 241940Z 2420/2508 13008KT P6SM SKC BECMG 2423/2501 06006KT RMK FCST BASED ON AUTO OBS. NXT FCST BY 250200Z
CYOW,TAF CYOW 241741Z 2418/2518 07008KT P6SM SKC FM250400 07005KT P6SM FEW030 FM250800 07005KT P6SM FEW004 OVC015 PROB30 2509/2514 1SM BR BKN004 FM251400 12008KT P6SM SCT015 BKN025 RMK NXT FCST BY 242100Z
CYOY,TAF CYOY 241740Z 2418/2506 VRB03KT P6SM SCT040 BKN100 FM242100 VRB03KT P6SM SCT020 BKN030 TEMPO 2421/2503 BKN020 OVC030 FM250300 VRB03KT P6SM BKN010 TEMPO 2503/2506 6SM -RA BR BKN008 RMK NXT FCST BY 250000Z
CYPA,TAF CYPA 241840Z 2419/2507 36008KT P6SM FEW012 BKN040 BKN120 FM242200 36008KT P6SM SCT020 BKN040 TEMPO 2422/2507 BKN020 BKN040 RMK NXT FCST BY 250100Z
CYPC,TAF CYPC 241840Z 2419/2423 26015KT P6SM -SN BKN012 OVC025 TEMPO 2419/2423 2SM -SN BR OVC008 BECMG 2420/2422 30012KT RMK NXT FCST BY 251500Z
CYPE,TAF CYPE 241840Z 2419/2507 VRB03KT P6SM BKN060 TEMPO 2419/2422 SCT060 BKN240 FM242200 33006KT P6SM BKN030 TEMPO 2422/2507 BKN020 RMK NXT FCST BY 250100Z
CYPG,TAF AMD CYPG 241759Z 2418/2506 32020G30KT P6SM -RA SCT006 OVC015 TEMPO 2418/2420 3SM -SHRA BR BKN006 OVC015 FM242000 31020G30KT P6SM SCT006 OVC015 TEMPO 2420/2502 3SM -RASN BR BKN006 OVC015 BECMG 2421/2423 30015G30KT FM250200 28010G20KT 3SM -SN OVC015 RMK NXT FCST BY 250000Z
CYPH,TAF CYPH 241740Z 2418/2506 08018G28KT P6SM FEW025 BKN100 BECMG 2422/2424 09022G32KT FM250300 09020G30KT 5SM -RA BR BKN012 OVC040 PROB30 2503/2505 3SM -FZRA BR OVC007 FM250500 10020G30KT 3SM -RA BR BKN003 OVC012 RMK FCST BASED ON AUTO OBS. NXT FCST BY 250000Z
CYPL,TAF CYPL 241942Z 2420/2508 16012G22KT P6SM OVC004 TEMPO 2420/2423 5SM -SHRA BR PROB30 2421/2423 VRB15G25KT 2SM TSRA BR OVC005CB FM242300 20015G25KT P6SM BKN025 TEMPO 2423/2508 BKN020 RMK FCST BASED ON AUTO OBS. NXT FCST BY 250200Z
CYPQ,TAF CYPQ 241940Z 2420/2502 12006KT P6SM SKC RMK FCST BASED ON AUTO OBS. NXT FCST BY 251000Z
CYPR,TAF CYPR 241840Z 2419/2507 30010G20KT P6SM SCT040 TEMPO 2419/2507 P6SM -SHRA SCT020 BKN040 RMK FCST BASED ON AUTO OBS. NXT FCST BY 250100Z
CYPX,TAF CYPX 241740Z 2418/2506 16008KT P6SM BKN030 TEMPO 2418/2424 SCT030 BKN120 BECMG 2419/2421 09015KT FM250000 08020G30KT P6SM SCT020 BKN080 TEMPO 2500/2505 5SM -SHSN BKN020 BECMG 2500/2502 08025G35KT FM250500 08030G40KT 5SM -SN BR VV020 PROB30 2505/2506 2SM -PL -SN BLSN OVC008 RMK FCST BASED ON AUTO OBS. NXT FCST BY 250000Z
CYPY,TAF CYPY 241740Z 2418/2506 13008KT P6SM OVC050 FM242100 12008KT P6SM SCT030 TEMPO 2421/2506 BKN030 RMK FCST BASED ON AUTO OBS. NXT FCST BY 250000Z
CYQA,TAF CYQA 241940Z 2420/2502 16008KT P6SM SKC RMK FCST BASED ON AUTO OBS. NXT FCST BY 251200Z
CYQB,TAF CYQB 241741Z 2418/2518 07010KT P6SM FEW020 BKN050 TEMPO 2419/2422 6SM -SHRA BR BKN020 OVC050 FM242200 07010KT P6SM OVC025 TEMPO 2422/2504 OVC020 FM250400 06006KT 6SM BR SCT004 OVC010 FM250600 06006KT 3SM -DZ BR BKN004 OVC010 FM251400 06006KT P6SM FEW004 OVC020 RMK NXT FCST BY 250000Z
CYQD,TAF CYQD 241840Z 2419/2507 36015G30KT 3SM -SN SCT007 OVC015 TEMPO 2419/2422 1SM -SN BKN007 OVC015 FM242200 33015G25KT 6SM -SN SCT012 OVC025 TEMPO 2422/2504 2SM -SN OVC012 FM250400 31012G22KT P6SM SCT012 OVC025 TEMPO 2504/2507 5SM -SN BKN012 OVC025 RMK FCST BASED ON AUTO OBS. NXT FCST BY 250100Z
CYQF,TAF CYQF 241740Z 2418/2506 16007KT P6SM BKN080 TEMPO 2418/2423 5SM -SN OVC060 FM242300 34005KT P6SM BKN100 TEMPO 2423/2506 BKN060 RMK FCST BASED ON AUTO OBS. NXT FCST BY 250000Z
CYQG,TAF CYQG 241740Z 2418/2518 16010G20KT P6SM FEW250 FM250000 16008KT P6SM BKN220 BECMG 2516/2518 17008G18KT RMK FCST BASED ON AUTO OBS. NXT FCST BY 250000Z
CYQH,TAF CYQH 241740Z 2418/2506 10012KT P6SM SCT020 OVC050 TEMPO 2418/2503 5SM -SN OVC020 FM250300 10006KT 3SM -SN OVC020 RMK NXT FCST BY 250000Z
CYQI,TAF CYQI 241740Z 2418/2506 11012KT 2SM -DZ -SHRA BR OVC004 TEMPO 2418/2424 6SM BR SCT004 OVC010 PROB30 2418/2424 1/2SM -DZ FG VV002 FM250000 11008KT 1SM -DZ BR OVC003 PROB40 2500/2506 1/2SM -DZ FG VV002 RMK NXT FCST BY 250000Z
CYQK,TAF CYQK 241340Z 2414/2502 15015G25KT P6SM SCT008 OVC040 TEMPO 2414/2417 4SM -SHRA BR BKN007 OVC015 PROB30 2414/2417 2SM TSRA BR BKN005CB OVC012 FM241700 19020G35KT P6SM SCT012 OVC025 TEMPO 2417/2423 P6SM -SHRA BKN008 OVC012 FM242300 20020G35KT P6SM OVC015 TEMPO 2423/2502 5SM -RA -DZ BR OVC008 RMK NXT FCST BY 242000Z
CYQL,TAF CYQL 241744Z 2418/2506 23015G25KT P6SM FEW120 BKN260 BECMG 2420/2422 26018G28KT FM250300 26018G28KT P6SM BKN080 BKN160 RMK NXT FCST BY 250000Z
CYQM,TAF CYQM 241740Z 2418/2518 12005KT P6SM SCT020 OVC080 TEMPO 2418/2424 P6SM -SHRA OVC020 FM250000 14008KT P6SM -RA SCT006 OVC025 TEMPO 2500/2503 4SM -RA BR BKN006 OVC025 FM250300 16008KT 2SM -DZ -RA BR OVC004 PROB30 2503/2506 1/2SM -DZ FG VV002 FM250600 15008KT 1SM -RA BR OVC004 PROB40 2506/2512 1/2SM -DZ FG VV002 FM251200 17005KT 6SM BR SCT004 OVC010 FM251600 21008KT P6SM SCT010 OVC025 RMK NXT FCST BY 250000Z
CYQQ,TAF CYQQ 241740Z 2418/2518 VRB03KT P6SM BKN012 TEMPO 2418/2420 SCT012 BKN060 FM242000 VRB03KT P6SM SCT015 BKN060 TEMPO 2420/2504 P6SM -SHRA BKN012 BKN040 BECMG 2420/2422 35006KT FM250400 VRB03KT P6SM SCT012 BKN030 BKN150 TEMPO 2504/2514 P6SM -SHRA OVC012 BECMG 2511/2513 15010G20KT FM251400 14020G30KT P6SM -SHRA SCT012 BKN025 TEMPO 2514/2518 5SM -SHRA BR OVC012 RMK NXT FCST BY 250000Z
CYQR,TAF CYQR 241741Z 2418/2518 33020G30KT P6SM OVC010 TEMPO 2418/2424 5SM -SN OVC008 FM250000 30010KT P6SM SCT010 BKN025 TEMPO 2500/2508 BKN010 BKN025 PROB30 2504/2508 5SM -FZDZ -SN BR FM250800 VRB03KT 6SM BR SCT006 BKN050 BKN100 TEMPO 2508/2515 2SM -SN BR OVC006 PROB30 2508/2515 1/2SM FZFG VV002 FM251500 27008KT P6SM SCT004 OVC008 TEMPO 2515/2518 4SM BR OVC004 RMK NXT FCST BY 250000Z
CYQT,TAF CYQT 241940Z 2420/2508 17012KT P6SM FEW008 SCT015 OVC030 TEMPO 2420/2504 5SM -SHRA BR SCT008 OVC015 BECMG 2500/2502 22010KT FM250400 22008KT 4SM -RA BR SCT006 BKN015 OVC030 PROB30 2504/2508 2SM SHRA BR BKN006 OVC015 RMK NXT FCST BY 250200Z
CYQU,TAF CYQU 241840Z 2419/2507 VRB03KT P6SM SCT040 BKN080 TEMPO 2419/2503 BKN040 BKN080 FM250300 35005KT P6SM -RASN BKN040 OVC080 TEMPO 2503/2507 2SM -SN OVC015 RMK NXT FCST BY 250100Z
CYQV,TAF CYQV 241741Z 2418/2506 33020G30KT P6SM -RASN SCT015 OVC040 TEMPO 2418/2420 3SM -FZRA -SN BR OVC015 FM242000 32018G28KT 6SM -SN OVC015 TEMPO 2420/2424 2SM -SN OVC008 FM250000 30015G25KT P6SM OVC015 TEMPO 2500/2506 5SM -SN OVC008 BECMG 2504/2506 29010KT RMK FCST BASED ON AUTO OBS. NXT FCST BY 250000Z
CYQW,TAF CYQW 241747Z 2418/2506 28005KT P6SM BKN004 TEMPO 2418/2422 SCT006 FM242200 32006KT P6SM SCT040 TEMPO 2422/2501 BKN040 FM250100 VRB03KT P6SM FEW040 BKN120 TEMPO 2501/2506 BKN040 BKN090 RMK FCST BASED ON AUTO OBS. NXT FCST BY 250000Z
CYQX,TAF CYQX 241740Z 2418/2518 33015KT P6SM FEW030 BKN200 BECMG 2420/2422 VRB03KT FM250600 20005KT P6SM FEW003 SCT240 FM251400 27010KT P6SM SKC RMK NXT FCST BY 250000Z
CYQY,TAF CYQY 241740Z 2418/2506 VRB03KT P6SM FEW030 BKN120 BECMG 2418/2420 18008KT FM250200 21008KT P6SM -SHRA SCT030 OVC060 RMK NXT FCST BY 250000Z
CYQZ,TAF CYQZ 241840Z 2419/2506 13010KT P6SM -RA SCT040 BKN080 TEMPO 2419/2503 5SM -SHRA BR OVC040 BECMG 2423/2501 30008KT FM250300 33008KT P6SM BKN050 RMK FCST BASED ON AUTO OBS. NXT FCST BY 250100Z
CYRA,TAF CYRA 241840Z 2419/2424 34010KT P6SM SCT015 BKN050 TEMPO 2419/2424 5SM -SN BKN015 OVC050 BECMG 2420/2422 02008KT RMK NXT FCST BY 251600Z
CYRB,TAF CYRB 241740Z 2418/2518 07006KT 3SM IC BR OVC005 TEMPO 2418/2422 P6SM NSW SCT005 BKN020 FM242200 05012KT P6SM SCT005 BKN020 TEMPO 2422/2510 SCT020 BKN060 PROB40 2422/2510 3SM IC BR BKN005 FM251000 01015KT P6SM FEW005 SCT020 BKN060 RMK NXT FCST BY 250000Z
CYRJ,TAF CYRJ 241940Z 2420/2502 VRB03KT P6SM FEW100 BKN240 RMK NXT FCST BY 251200Z
CYRL,TAF CYRL 241942Z 2420/2502 19010KT P6SM SCT008 OVC025 TEMPO 2420/2421 VRB15G25KT 3SM TSRA BR BKN008 OVC015CB FM242015 20015G25KT P6SM OVC015 TEMPO 2420/2502 BKN025 RMK NXT FCST BY 251100Z
CYRQ,TAF CYRQ 241940Z 2420/2508 08006KT P6SM SCT025 TEMPO 2420/2424 BKN020 FM250000 VRB03KT P6SM SCT020 TEMPO 2500/2508 BKN020 PROB30 2506/2508 2SM BR RMK FCST BASED ON AUTO OBS. NXT FCST BY 250200Z
CYRT,TAF CYRT 241740Z 2418/2506 20005KT P6SM FEW015 BKN040 BECMG 2419/2421 08012KT FM242100 08012KT P6SM SCT015 BKN040 BKN200 TEMPO 2421/2506 P6SM -SN BKN015 BKN040 BECMG 2500/2502 05018KT RMK NXT FCST BY 250000Z
CYSB,TAF CYSB 241940Z 2420/2508 18012KT P6SM SCT240 RMK NXT FCST BY 250200Z
CYSF,TAF CYSF 241740Z 2418/2506 11006KT P6SM FEW040 RMK FCST BASED ON AUTO OBS. NXT FCST BY 250000Z
CYSJ,TAF CYSJ 241740Z 2418/2506 11008KT P6SM SCT008 OVC025 TEMPO 2418/2421 5SM -SHRA BR BKN008 OVC012 PROB40 2418/2421 2SM -SHRA BR OVC005 FM242100 07008KT P6SM -RA SCT005 OVC010 TEMPO 2421/2424 2SM -RA BR OVC005 PROB30 2421/2424 3/4SM -RA BR OVC002 FM250000 11008KT 1SM -RA BR OVC003 PROB30 2503/2506 1/4SM -DZ FG VV001 RMK NXT FCST BY 250000Z
CYSM,TAF AMD CYSM 241830Z 2418/2506 VRB03KT 2SM BR OVC003 TEMPO 2418/2421 6SM -RASN SCT003 OVC010 BECMG 2419/2421 12008KT FM242100 12008KT P6SM SCT015 BKN040 TEMPO 2421/2503 5SM -RASN BKN015 FM250300 11005KT P6SM SCT012 OVC030 TEMPO 2503/2506 2SM -SHSN BR OVC012 RMK NXT FCST BY 250000Z
CYSN,TAF CYSN 241940Z 2420/2501 VRB03KT P6SM SKC RMK NXT FCST BY 251300Z
CYSP,TAF AMD CYSP 241817Z 2418/2421 18015G30KT P6SM OVC040 TEMPO 2418/2421 6SM -SHRA BR OVC020 RMK NXT FCST BY 251400Z
CYSY,TAF CYSY 241840Z 2419/2423 02012KT P6SM SCT025 TEMPO 2419/2423 BKN020 RMK NXT FCST BY 251500Z
CYTE,TAF CYTE 241840Z 2419/2507 28012G22KT P6SM OVC030 TEMPO 2419/2501 P6SM -SN OVC020 BECMG 2419/2421 28010KT FM250100 28010KT P6SM BKN030 BKN200 TEMPO 2501/2507 P6SM -SN BKN020 BKN160 BECMG 2501/2503 08008KT RMK NXT FCST BY 250100Z
CYTH,TAF CYTH 241840Z 2419/2507 03018G28KT 6SM -RASN SCT010 OVC025 TEMPO 2419/2420 1SM -FZRA -PL BR OVC010 FM242000 02015G25KT 4SM -SN SCT010 OVC025 TEMPO 2420/2503 1SM -SN OVC010 FM250300 35015G25KT P6SM -SN SCT012 OVC025 TEMPO 2503/2507 2SM -SN BKN012 OVC025 RMK NXT FCST BY 250100Z
CYTL,TAF CYTL 241940Z 2420/2508 13012KT WS010/16040KT 2SM -RA -DZ BR OVC003 TEMPO 2420/2502 6SM BR OVC010 PROB30 2420/2502 2SM TSRA BR BKN002 OVC010CB FM250200 20012G22KT 6SM BR BKN007 OVC012 RMK FCST BASED ON AUTO OBS. NXT FCST BY 250200Z
CYTQ,TAF CYTQ 241340Z 2414/2421 33008KT P6SM BKN015 OVC200 TEMPO 2414/2418 SCT015 BKN200 FM241800 01006KT P6SM FEW015 BKN150 BECMG 2419/2421 06007KT RMK NXT FCST BY 251400Z
CYTR,TAF CYTR 241740Z 2418/2518 VRB03KT P6SM FEW150 BECMG 2418/2420 12005KT BECMG 2422/2424 09005KT FM250500 12005KT P6SM SCT020 TEMPO 2507/2512 5SM BR BKN020 PROB30 2507/2512 1SM BR OVC008 FM251200 15008KT P6SM BKN015 FM251400 17008KT P6SM SCT015 BKN025 RMK NXT FCST BY 250000Z
CYTS,TAF CYTS 241940Z 2420/2508 16012G22KT P6SM BKN070 BKN120 FM242300 16012KT P6SM BKN120 RMK NXT FCST BY 250200Z
CYTZ,TAF CYTZ 241940Z 2420/2520 07008KT P6SM SKC PROB30 2509/2512 2SM BR SCT010 FM251200 06008KT P6SM BKN010 FM251600 07012KT P6SM FEW025 SCT240 RMK FCST BASED ON AUTO OBS. NXT FCST BY 250200Z
CYUB,TAF CYUB 241840Z 2419/2505 20005KT P6SM SCT012 BKN025 TEMPO 2419/2505 5SM -SN BR BKN012 RMK NXT FCST BY 250100Z
CYUL,TAF CYUL 241740Z 2418/2518 13005KT P6SM BKN025 FM241900 09008KT P6SM SCT025 SCT100 FM250200 06006KT P6SM FEW020 SCT040 FM250800 09005KT P6SM OVC020 PROB30 2509/2513 1SM BR SCT004 OVC020 FM251400 10005KT P6SM SCT012 OVC030 BECMG 2514/2516 15010KT RMK NXT FCST BY 242100Z
CYUT,TAF CYUT 241840Z 2419/2422 26015G25KT P6SM SCT015 TEMPO 2419/2420 BKN015 FM242000 26012KT P6SM SCT030 TEMPO 2420/2422 BKN030 RMK NXT FCST BY 251400Z
CYUX,TAF CYUX 241840Z 2419/2507 27012G22KT P6SM FEW005 BKN040 TEMPO 2419/2422 P6SM -SN FEW005 BKN020 FM242200 25012KT P6SM SCT020 BKN060 RMK NXT FCST BY 250100Z
CYUY,TAF CYUY 241741Z 2418/2506 16010G20KT P6SM SCT100 FM242300 15010KT P6SM FEW100 SCT240 FM250400 17010KT P6SM BKN100 BKN240 RMK NXT FCST BY 250000Z
CYVC,TAF CYVC 241840Z 2419/2507 02008KT P6SM SCT020 BKN060 TEMPO 2419/2507 BKN020 BKN060 RMK NXT FCST BY 250100Z
CYVM,TAF CYVM 241840Z 2419/2507 VRB03KT P6SM FEW010 FEW060 BECMG 2419/2421 21007KT RMK NXT FCST BY 250100Z
CYVO,TAF CYVO 241740Z 2418/2506 16010G20KT P6SM FEW240 FM242300 16010KT P6SM FEW100 SCT240 RMK NXT FCST BY 250000Z
CYVP,TAF CYVP 241740Z 2418/2506 33008KT P6SM -SHSNRA BKN020 OVC160 TEMPO 2418/2424 P6SM NSW SCT020 BKN160 BECMG 2419/2421 05006KT FM250000 07010KT P6SM SCT020 BKN100 RMK NXT FCST BY 250000Z
CYVQ,TAF CYVQ 241740Z 2418/2506 VRB03KT 4SM -SN OVC007 TEMPO 2418/2422 P6SM -SN SCT008 OVC015 FM242200 27005KT P6SM SCT008 OVC030 TEMPO 2422/2506 5SM -SN BKN008 OVC015 RMK NXT FCST BY 250000Z
CYVR,TAF CYVR 241740Z 2418/2524 08010KT P6SM SCT012 BKN025 TEMPO 2418/2420 5SM -SHRA BR BKN008 OVC020 FM242000 VRB03KT P6SM BKN030 TEMPO 2420/2423 P6SM -SHRA BKN020 FM242300 28012KT P6SM BKN040 TEMPO 2423/2507 P6SM -SHRA BKN030 FM250700 26006KT P6SM BKN030 TEMPO 2507/2515 5SM -SHRA BR BKN020 BECMG 2512/2514 16010KT FM251500 12018G28KT P6SM -RA SCT008 BKN030 TEMPO 2515/2524 2SM RA BR BKN008 RMK NXT FCST BY 242100Z
CYVT,TAF CYVT 241342Z 2414/2502 15004KT P6SM OVC015 TEMPO 2414/2420 SCT015 FM242000 08008KT P6SM SCT060 BKN160 TEMPO 2420/2502 FEW020 BKN060 RMK FCST BASED ON AUTO OBS. NXT FCST BY 242100Z
CYVV,TAF CYVV 241940Z 2420/2423 18010KT P6SM SKC RMK NXT FCST BY 251100Z
CYWA,TAF CYWA 241740Z 2418/2518 11005KT P6SM FEW140 FM250600 12005KT P6SM SCT020 FM251000 12005KT 5SM BR OVC008 PROB30 2510/2513 1/2SM FG OVC002 FM251300 12005KT P6SM OVC008 FM251700 12005KT P6SM BKN015 RMK NXT FCST BY 250000Z
CYWE,TAF CYWE 241840Z 2419/2501 03005KT P6SM SCT020 BKN040 OVC080 TEMPO 2419/2501 5SM -SN BKN020 OVC040 BECMG 2420/2422 05008KT RMK FCST BASED ON AUTO OBS. NXT FCST BY 251300Z
CYWG,TAF AMD CYWG 241913Z 2419/2518 25010KT P6SM -RA SCT006 OVC015 TEMPO 2419/2502 4SM -SHRA BR OVC006 BECMG 2419/2420 29020G30KT FM250200 29015G25KT P6SM -RASN OVC010 TEMPO 2502/2506 4SM -RASN BR OVC006 FM250600 28012G22KT 6SM -SN OVC010 TEMPO 2506/2510 2SM -SN OVC006 FM251000 26012KT P6SM SCT010 BKN025 TEMPO 2510/2518 5SM -SN BKN010 BKN025 RMK NXT FCST BY 250000Z
CYWH,TAF CYWH 241410Z 2414/2502 VRB03KT P6SM -RA FEW008 SCT020 OVC040 TEMPO 2414/2416 5SM -RA BR SCT008 OVC020 PROB30 2414/2416 2SM -RA BR OVC008 FM241600 24015G25KT P6SM SCT030 TEMPO 2416/2502 P6SM -SHRA BKN030 RMK NXT FCST BY 242100Z
CYWJ,TAF CYWJ 241740Z 2418/2423 VRB03KT P6SM SCT012 BKN060 TEMPO 2418/2423 P6SM -SN BKN012 OVC040 RMK NXT FCST BY 251400Z
CYWK,TAF CYWK 241940Z 2420/2508 21008KT P6SM FEW050 SCT220 FM250600 VRB03KT P6SM FEW200 PROB30 2506/2508 1SM BR SCT003 RMK NXT FCST BY 250200Z
CYWL,TAF CYWL 241840Z 2419/2507 12008KT P6SM SCT040 BKN080 TEMPO 2419/2503 P6SM -SHRA BKN040 BECMG 2423/2501 30008KT FM250300 33008KT P6SM BKN050 RMK NXT FCST BY 250100Z
CYXC,TAF CYXC 241840Z 2419/2507 14008KT P6SM SCT040 BKN080 TEMPO 2419/2507 P6SM -RA FEW020 BKN040 BECMG 2422/2424 19010KT RMK NXT FCST BY 250100Z
CYXE,TAF CYXE 241741Z 2418/2518 32010KT P6SM SCT012 BKN025 OVC040 TEMPO 2418/2424 BKN012 OVC025 FM250000 34005KT P6SM BKN030 BKN140 FM250600 VRB03KT P6SM SCT020 BKN040 OVC100 TEMPO 2506/2509 5SM -SN BKN020 OVC040 FM250900 30006KT P6SM -SN SCT008 SCT020 OVC040 TEMPO 2509/2518 2SM -SN BKN008 BKN020 OVC040 RMK NXT FCST BY 250000Z
CYXH,TAF CYXH 241746Z 2418/2506 20012KT P6SM FEW080 BECMG 2419/2421 24015G25KT FM250300 25012G22KT P6SM SCT080 TEMPO 2503/2506 BKN060 RMK NXT FCST BY 250000Z
CYXJ,TAF AMD CYXJ 241843Z 2419/2507 VRB03KT P6SM SCT006 OVC040 TEMPO 2419/2503 5SM -SHSNRA BR BKN006 OVC040 FM250300 34006KT 5SM -SN SCT008 OVC020 TEMPO 2503/2507 2SM -SN OVC008 RMK NXT FCST BY 250100Z
CYXL,TAF CYXL 241940Z 2420/2508 18015G25KT P6SM SCT020 BKN040 TEMPO 2420/2508 BKN020 OVC040 BECMG 2501/2503 22010G20KT RMK NXT FCST BY 250200Z
CYXP,TAF CYXP 241840Z 2419/2422 26017G27KT P6SM BKN040 TEMPO 2419/2422 P6SM -SN BKN020 RMK NXT FCST BY 251300Z
CYXR,TAF CYXR 241740Z 2418/2424 14010G20KT P6SM FEW100 FEW250 BECMG 2419/2421 14010KT RMK FCST BASED ON AUTO OBS. NXT FCST BY 251200Z
CYXS,TAF CYXS 241840Z 2419/2507 18012G22KT P6SM -RA SCT040 BKN080 TEMPO 2419/2503 5SM -SHRA BR OVC040 FM250300 22012KT P6SM BKN050 RMK FCST BASED ON AUTO OBS. NXT FCST BY 250100Z
CYXT,TAF CYXT 241840Z 2419/2507 19012KT P6SM SCT015 BKN040 TEMPO 2419/2507 5SM -SHRA BR BKN015 OVC040 RMK NXT FCST BY 250100Z
CYXU,TAF CYXU 241740Z 2418/2518 15010KT P6SM FEW240 BECMG 2500/2502 12008KT FM251200 15010KT P6SM BKN240 BECMG 2514/2516 16010G20KT RMK NXT FCST BY 250000Z
CYXX,TAF CYXX 241740Z 2418/2518 01005KT P6SM SCT012 OVC025 TEMPO 2418/2421 4SM -SHRA BR BKN008 BECMG 2418/2420 21010KT FM242100 21010KT P6SM SCT020 BKN030 TEMPO 2421/2506 5SM -SHRA BR FEW008 BKN020 FM250600 19008KT P6SM SCT008 BKN030 TEMPO 2506/2518 2SM -SHRA BR BKN008 RMK NXT FCST BY 250000Z
CYXY,TAF CYXY 241740Z 2418/2506 35008KT 3SM -SN SCT008 OVC020 TEMPO 2418/2421 1SM -SN OVC008 FM242100 34008KT P6SM -SN OVC030 TEMPO 2421/2506 3SM -SN OVC012 RMK NXT FCST BY 250000Z
CYXZ,TAF CYXZ 241940Z 2420/2424 18012G22KT P6SM BKN030 TEMPO 2420/2422 BKN020 FM242200 18012G22KT P6SM SCT040 BKN140 TEMPO 2422/2424 BKN040 RMK NXT FCST BY 251300Z
CYYB,TAF CYYB 241940Z 2420/2508 18010KT P6SM FEW240 RMK NXT FCST BY 250200Z
CYYC,TAF CYYC 241743Z 2418/2518 VRB03KT P6SM SCT100 BKN240 TEMPO 2418/2423 BKN080 BECMG 2418/2420 28008KT FM242300 30012KT P6SM SCT060 FM251200 30008KT P6SM BKN080 BKN160 FM251700 28006KT P6SM FEW080 SCT200 RMK NXT FCST BY 242100Z
CYYD,TAF CYYD 241840Z 2419/2506 VRB03KT P6SM SCT025 BKN070 TEMPO 2419/2422 P6SM -SHRA OVC025 FM242200 32010G20KT P6SM SCT030 BKN120 BECMG 2502/2504 VRB03KT RMK NXT FCST BY 250100Z
CYYE,TAF CYYE 241840Z 2419/2507 34008KT 6SM -SN BKN015 OVC025 TEMPO 2419/2507 2SM -SN OVC008 RMK NXT FCST BY 250100Z
CYYF,TAF CYYF 241840Z 2419/2507 18015G25KT P6SM FEW050 SCT080 TEMPO 2419/2507 SCT050 BKN080 BECMG 2422/2424 19010KT RMK NXT FCST BY 250100Z
CYYG,TAF CYYG 241740Z 2418/2506 17008KT P6SM SCT040 OVC100 TEMPO 2418/2424 P6SM -SHRA OVC040 FM250000 16008KT P6SM -RA SCT006 OVC025 TEMPO 2500/2503 5SM -RA BR OVC006 FM250300 17005KT 4SM -RA BR OVC006 RMK NXT FCST BY 250000Z
CYYH,TAF CYYH 241740Z 2418/2506 30007KT P6SM SCT008 BKN015 TEMPO 2418/2506 4SM -SN BR FEW006 BKN008 OVC015 BECMG 2418/2420 03005KT RMK NXT FCST BY 250000Z
CYYJ,TAF CYYJ 241740Z 2418/2518 VRB03KT P6SM SCT030 TEMPO 2418/2422 P6SM -SHRA BKN030 FM242200 24012G22KT P6SM FEW030 BECMG 2502/2504 26007KT FM251200 16010KT P6SM SCT015 BKN030 OVC050 TEMPO 2515/2518 5SM -RA BR BKN015 OVC030 RMK NXT FCST BY 250000Z
CYYL,TAF CYYL 241840Z 2419/2507 04012G22KT 3SM -SN SCT008 OVC025 TEMPO 2419/2504 1SM -SN BKN008 OVC025 FM250400 02012G22KT P6SM -SN SCT008 OVC025 TEMPO 2504/2507 2SM -SN BKN008 OVC025 RMK FCST BASED ON AUTO OBS. NXT FCST BY 250100Z
CYYN,TAF CYYN 241748Z 2418/2506 25006KT 1/2SM FZFG VV002 TEMPO 2418/2420 3SM BR BKN005 FM242000 20010KT P6SM BKN008 TEMPO 2420/2422 2SM BR BKN004 FM242200 24008KT P6SM SCT008 RMK FCST BASED ON AUTO OBS. NXT FCST BY 250000Z
CYYQ,TAF CYYQ 241741Z 2418/2518 08015G25KT 6SM -SN SCT005 SCT012 OVC030 TEMPO 2418/2422 1SM -SHSN BKN005 OVC030 FM242200 06025G40KT 1SM -SN OVC010 TEMPO 2422/2518 1/2SM SHSN BLSN VV005 BECMG 2510/2512 02025G40KT RMK NXT FCST BY 250000Z
CYYR,TAF CYYR 241740Z 2418/2518 23005KT P6SM BKN100 BKN250 FM250000 VRB03KT P6SM BKN040 BKN250 FM250600 VRB03KT P6SM BKN020 OVC040 FM251200 20005KT P6SM BKN010 OVC020 RMK NXT FCST BY 250000Z
CYYT,TAF CYYT 241740Z 2418/2518 33015KT P6SM FEW020 BKN220 FM250600 27008KT P6SM FEW006 BKN220 FM251400 28015KT P6SM SKC RMK NXT FCST BY 250000Z
CYYU,TAF CYYU 241940Z 2420/2508 16012G22KT P6SM BKN080 BKN120 FM242200 17012KT P6SM BKN120 RMK NXT FCST BY 250200Z
CYYY,TAF CYYY 241940Z 2420/2508 VRB03KT P6SM BKN180 FM250000 14005KT P6SM BKN080 OVC120 FM250600 13005KT P6SM SCT020 OVC080 RMK NXT FCST BY 250200Z
CYYZ,TAF CYYZ 241740Z 2418/2524 13007KT P6SM FEW250 FM250300 06005KT P6SM BKN250 PROB30 2509/2512 2SM BR FM251300 09006KT P6SM BKN007 FM251600 15008KT P6SM BKN240 BECMG 2522/2524 07005KT RMK NXT FCST BY 242100Z
CYZE,TAF CYZE 241940Z 2420/2422 16012G22KT P6SM SCT160 RMK FCST BASED ON AUTO OBS. NXT FCST BY 251000Z
CYZF,TAF CYZF 241740Z 2418/2518 05008KT P6SM BKN030 TEMPO 2418/2501 5SM -SN BKN012 OVC030 FM250100 05008KT 6SM -SN SCT008 OVC025 TEMPO 2501/2508 2SM -SN OVC008 PROB30 2501/2508 1SM -SHSN OVC006 FM250800 03008KT P6SM SCT012 OVC030 TEMPO 2508/2518 5SM -SN OVC012 RMK NXT FCST BY 250000Z
CYZG,TAF CYZG 241340Z 2414/2421 25015KT P6SM -SN SCT012 BKN040 TEMPO 2414/2421 3SM -SHSN BKN012 OVC040 BECMG 2417/2419 25010KT RMK NXT FCST BY 251400Z
CYZH,TAF AMD CYZH 241910Z 2419/2507 10010KT P6SM SCT012 BKN080 TEMPO 2419/2502 BKN012 OVC080 FM250200 11007KT P6SM BKN030 OVC060 TEMPO 2502/2507 4SM -SN BR OVC015 RMK FCST BASED ON AUTO OBS. NXT FCST BY 250100Z
CYZP,TAF CYZP 241840Z 2419/2507 28015G25KT P6SM SCT040 TEMPO 2419/2504 P6SM -SHRA BKN040 FM250400 20012KT P6SM -RA OVC030 TEMPO 2504/2507 3SM -RA BR SCT006 OVC012 RMK FCST BASED ON AUTO OBS. NXT FCST BY 250100Z
CYZR,TAF CYZR 241940Z 2420/2502 18012KT P6SM SKC RMK FCST BASED ON AUTO OBS. NXT FCST BY 250800Z
CYZS,TAF CYZS 241840Z 2419/2507 29008KT P6SM OVC025 TEMPO 2419/2421 P6SM -SN OVC020 FM242100 32008KT P6SM SCT020 SCT220 BECMG 2421/2423 01008KT RMK NXT FCST BY 250100Z
CYZT,TAF CYZT 241840Z 2419/2507 28012G22KT P6SM BKN050 OVC100 TEMPO 2419/2422 4SM -SHRA BR BKN020 OVC040 FM242200 28012KT P6SM BKN040 TEMPO 2422/2502 P6SM -SHRA BKN020 FM250200 VRB03KT P6SM BKN030 TEMPO 2502/2507 BKN020 RMK NXT FCST BY 250100Z
CYZU,TAF CYZU 241840Z 2419/2423 VRB03KT P6SM BKN020 BKN050 TEMPO 2419/2421 5SM -SHSN BR BKN005 OVC050 FM242100 32005KT P6SM BKN025 OVC050 TEMPO 2421/2423 P6SM -SHRASN BKN020 RMK NXT FCST BY 251400Z
CYZV,TAF CYZV 241740Z 2418/2518 14008KT P6SM BKN240 FM250300 VRB03KT P6SM SCT010 BKN240 PROB30 2506/2512 1SM BR FM251200 VRB03KT P6SM SCT020 BKN040 FM251600 18005KT P6SM BKN020 OVC040 RMK NXT FCST BY 250000Z
CYZW,TAF CYZW 241740Z 2418/2424 08006KT P6SM -SN OVC030 TEMPO 2418/2424 3SM -SN OVC020 RMK NXT FCST BY 251800Z
CYZX,TAF CYZX 241741Z 2418/2518 06005KT P6SM SCT015 OVC025 TEMPO 2418/2422 5SM -SHRA -DZ BR OVC012 FM242200 10005KT 6SM -DZ BR OVC010 TEMPO 2422/2503 2SM -DZ BR OVC006 FM250300 VRB03KT 2SM -SHRA -DZ BR OVC006 TEMPO 2503/2512 1/2SM -DZ FG VV002 FM251200 VRB03KT 2SM -DZ BR OVC006 BECMG 2512/2514 P6SM NSW BKN012 RMK NXT FCST BY 250000Z
CYZY,TAF CYZY 241840Z 2419/2507 13008KT P6SM -RA SCT015 OVC030 TEMPO 2419/2504 3SM -RASN BR SCT008 OVC015 FM250400 22008KT P6SM SCT012 OVC030 TEMPO 2504/2507 3SM -SNRA BR OVC012 RMK FCST BASED ON AUTO OBS. NXT FCST BY 250100Z
CZBF,TAF CZBF 241940Z 2420/2503 VRB03KT P6SM SCT080 BKN160 FM250000 20005KT P6SM SCT040 OVC080 TEMPO 2500/2503 P6SM -SHRA BKN040 OVC080 RMK FCST BASED ON AUTO OBS. NXT FCST BY 250900Z
CZFA,TAF CZFA 241740Z 2418/2422 VRB03KT P6SM BKN030 OVC100 TEMPO 2418/2422 5SM -SHSN BKN015 OVC030 RMK NXT FCST BY 251600Z
CZFM,TAF CZFM 241840Z 2419/2423 VRB03KT P6SM -SN SCT005 BKN030 TEMPO 2419/2423 2SM -SN BKN005 OVC020 RMK NXT FCST BY 251500Z
CZMD,TAF AMD CZMD 241816Z 2418/2422 07012KT 4SM -SHRA BR OVC004 TEMPO 2418/2420 6SM TSRA BR OVC010CB FM242000 09012KT 4SM -SHRA BR OVC004 TEMPO 2420/2422 6SM BR OVC010 PROB30 2420/2422 2SM TSRA BR BKN003 OVC010CB RMK FCST BASED ON AUTO OBS. NXT FCST BY 251000Z
CZMT,TAF CZMT 241840Z 2419/2501 30010G20KT P6SM SCT030 TEMPO 2419/2501 P6SM -SHRA BKN030 RMK NXT FCST BY 251500Z
CZSJ,TAF AMD CZSJ 241725Z 2417/2422 08010G20KT P6SM -SHRA OVC008 TEMPO 2417/2419 2SM TSRA BKN004CB OVC008 FM241900 10012KT 6SM BR OVC008 TEMPO 2419/2422 4SM -SHRA BR OVC004 PROB30 2419/2422 2SM TSRA BR BKN003 OVC010CB RMK FCST BASED ON AUTO OBS. NXT FCST BY 251000Z
CZUM,TAF CZUM 241940Z 2420/2508 07005KT P6SM SCT040 BKN070 FM250600 10005KT P6SM SCT006 BKN015 OVC040 PROB30 2506/2508 2SM BR BKN006 OVC015 RMK FCST BASED ON AUTO OBS. NXT FCST BY 250200Z
CZVL,TAF AMD CZVL 241804Z 2418/2506 16007KT P6SM FEW012 BKN070 OVC160 TEMPO 2418/2422 2SM -SN BKN012 OVC040 FM242200 VRB03KT P6SM FEW012 BKN070 OVC160 TEMPO 2422/2501 P6SM -RASN BKN012 OVC040 FM250100 VRB03KT P6SM BKN030 OVC120 RMK FCST BASED ON AUTO OBS. NXT FCST BY 250000Z
DAAE,TAF DAAE 241700Z 2418/2518 24008KT CAVOK TEMPO 2412/2418 30012KT
DAAG,TAF DAAG 241700Z 2418/2518 04005KT CAVOK
DAAJ,TAF DAAJ 241700Z 2418/2518 12006KT CAVOK
DAAS,TAF DAAS 241700Z 2418/2518 27008KT CAVOK
DAAT,TAF DAAT 241700Z 2418/2518 12006KT CAVOK PROB30 TEMPO 2506/2512 10015G25KT
DAAV,TAF DAAV 241700Z 2418/2518 26008KT CAVOK
DABB,TAF DABB 241700Z 2418/2518 06008KT CAVOK PROB30 TEMPO 2509/2518 33012KT
DABC,TAF DABC 241700Z 2418/2518 30008KT CAVOK
DABS,TAF DABS 241700Z 2418/2518 25008KT CAVOK
DABT,TAF DABT 241700Z 2418/2518 26008KT CAVOK
DAOB,TAF DAOB 241700Z 2418/2518 20008KT CAVOK
DAOI,TAF DAOI 241700Z 2418/2518 VRB02KT CAVOK BECMG 2508/2510 19010KT
DAON,TAF DAON 241700Z 2418/2518 VRB02KT 8000 NSC PROB30 TEMPO 2502/2507 3000 BR SCT010 BECMG 2508/2511 23012KT CAVOK
DAOO,TAF DAOO 241700Z 2418/2518 34010KT CAVOK BECMG 2420/2423 VRB02KT BECMG 2503/2506 18012KT
DAUA,TAF DAUA 241700Z 2418/2518 32008KT CAVOK BECMG 2420/2422 04012KT
DAUB,TAF DAUB 241700Z 2418/2518 22008KT CAVOK
DAUG,TAF DAUG 241700Z 2418/2518 VRB02KT CAVOK
DAUH,TAF DAUH 241700Z 2418/2518 10006KT CAVOK
DAUI,TAF DAUI 241700Z 2418/2518 06006KT CAVOK PROB30 2420/2503 06016KT
DAUZ,TAF DAUZ 241700Z 2418/2518 10008KT CAVOK
DBBB,TAF DBBB 241700Z 2418/2524 23010KT 9999 FEW013 TEMPO 2421/2504 4000 TSRA BKN009 FEW020CB PROB30 2422/2502 08015G25KT PROB40 TEMPO 2504/2507 VRB02KT 4000 BR
DFFD,TAF DFFD 241700Z 2418/2524 08010KT 8000 NSC TEMPO 2506/2510 3500 HZ
DFOO,TAF DFOO 241700Z 2418/2518 VRB08KT CAVOK
DGAA,TAF DGAA 241700Z 2418/2524 21010KT 9999 SCT014 TEMPO 2418/2422 TS FEW030CB BECMG 2500/2502 27010KT CAVOK BECMG 2506/2508 BKN012
DIAP,TAF DIAP 241749Z 2418/2524 23011KT 8000 FEW015 FEW020CB PROB30 TEMPO 2418/2421 TS FEW015 FEW020CB PROB30 TEMPO 2421/2502 4000 TSRA SCT011 FEW020CB PROB30 TEMPO 2504/2508 2000 BR PROB30 TEMPO 2513/2518 SCT013 FEW020CB PROB30 TEMPO 2518/2524 TS SCT013 FEW020CB
DIBK,TAF DIBK 241756Z 2418/2518 06006KT 8000 SCT016 PROB30 TEMPO 2418/2423 TS SCT011 FEW020CB PROB30 TEMPO 2504/2508 2000 BR FEW005 BKN010 PROB30 TEMPO 2515/2518 SCT016 FEW020CB
DIYO,TAF DIYO 241752Z 2418/2518 32004KT 8000 SCT015TCU PROB30 TEMPO 2418/2424 TS FEW011 FEW020CB PROB30 TEMPO 2503/2508 2000 BR BKN010 PROB30 TEMPO 2515/2518 SCT013 FEW020CB
DNAA,TAF DNAA 232300Z 2400/2506 10002KT CAVOK BECMG 2406/2408 04010KT TEMPO 2409/2415 21005KT SCT013
DNAK,TAF DNAK 241700Z 2418/2524 VRB02KT 9999 SCT010 TEMPO 2418/2422 TS SCT010 FEW020CB BECMG 2508/2510 25010KT BKN013 TEMPO 2512/2517 SCT013 FEW020CB BECMG 2517/2519 VRB02KT SCT010 TEMPO 2518/2523 TS SCT010 FEW020CB
DNBE,TAF DNBE 241700Z 2418/2524 VRB02KT 8000 SCT010 TEMPO 2418/2421 TS SCT010 FEW020CB TEMPO 2506/2508 3000 BR PROB30 2506/2507 1500 BECMG 2508/2510 21010KT BKN012 FEW020CB BECMG 2516/2518 VRB02KT SCT010 TEMPO 2518/2524 5000 -TSRA BKN008 FEW018CB
DNIB,TAF DNIB 241700Z 2418/2524 VRB02KT 9999 SCT011 TEMPO 2418/2424 5000 -TSRA BKN008 FEW018CB BECMG 2508/2510 24010KT BKN013 TEMPO 2513/2518 SCT013 FEW020CB BECMG 2518/2520 VRB02KT SCT011 TEMPO 2519/2524 TS SCT011 FEW020CB
DNIL,TAF DNIL 232300Z 2400/2506 18004KT CAVOK TEMPO 2410/2415 24010KT SCT013
DNJO,TAF DNJO 232300Z 2400/2506 06002KT CAVOK BECMG 2412/2414 12010KT
DNKA,TAF DNKA 232300Z 2400/2506 06007KT CAVOK PROB30 TEMPO 2405/2410 5000 HZ TEMPO 2412/2416 12010KT
DNKN,TAF DNKN 241700Z 2418/2524 04005KT CAVOK TEMPO 2509/2514 5000 HZ NSC
DNMA,TAF DNMA 241700Z 2418/2524 06007KT CAVOK TEMPO 2505/2512 5000 HZ NSC
DNMM,TAF DNMM 241700Z 2418/2524 VRB02KT 9999 SCT011 TEMPO 2418/2424 TS SCT011 FEW020CB PROB30 2419/2424 5000 -TSRA BKN008 FEW018CB BECMG 2508/2510 23010KT BKN013 TEMPO 2512/2517 BKN013 FEW020CB BECMG 2517/2519 VRB02KT SCT011 TEMPO 2519/2524 TS SCT011 FEW020CB
DNSO,TAF DNSO 241700Z 2418/2524 09007KT 5000 HZ NSC TEMPO 2421/2506 7000 NSW
DNSU,TAF DNSU 241700Z 2418/2524 VRB02KT 8000 SCT010 TEMPO 2418/2421 TS SCT010 FEW019CB TEMPO 2505/2508 2500 BR PROB30 2506/2507 1500 BECMG 2508/2510 20010KT BKN012 FEW020CB BECMG 2516/2518 VRB02KT SCT010 TEMPO 2518/2524 5000 -TSRA BKN008 FEW018CB
DNYO,TAF DNYO 241700Z 2418/2524 11005KT 9999 TS FEW012 FEW018CB BECMG 2422/2424 CAVOK
DRRN,TAF DRRN 241700Z 2418/2524 10010KT 8000 NSC TEMPO 2418/2420 4000 DU BECMG 2504/2506 3500 DU TEMPO 2508/2512 10025KT 2500 BLDU BECMG 2520/2522 6000 NSW
DRZA,TAF COR DRZA 241700Z 2418/2518 10020KT 6000 NSC BECMG 2419/2421 08008KT TEMPO 2508/2512 10025KT 3000 BLDU
DRZR,TAF DRZR 241700Z 2418/2518 04008KT 8000 NSC TEMPO 2500/2502 2500 DU BECMG 2504/2506 0500 DU TEMPO 2508/2512 10020KT 1000 BLDU BECMG 2512/2514 2000 DU
DTKA,TAF DTKA 241800Z 2419/2504 33002KT CAVOK
DTMB,TAF DTMB 241700Z 2418/2518 VRB02KT CAVOK
DTNH,TAF DTNH 241700Z 2418/2518 VRB02KT CAVOK
DTTA,TAF DTTA 241700Z 2418/2518 02004KT CAVOK
DTTB,TAF DTTB 241800Z 2419/2504 34010KT CAVOK
DTTF,TAF DTTF 241800Z 2419/2504 23005KT 8000 NSC
DTTG,TAF DTTG 241800Z 2419/2504 23008KT CAVOK
DTTJ,TAF DTTJ 241700Z 2418/2518 12008KT CAVOK BECMG 2506/2508 22010KT
DTTR,TAF DTTR 241800Z 2419/2504 VRB02KT CAVOK
DTTX,TAF DTTX 241700Z 2418/2518 18010KT CAVOK
DTTZ,TAF DTTZ 241700Z 2418/2518 27005KT CAVOK BECMG 2509/2511 27010KT
DXNG,TAF DXNG 241100Z 2412/2512 VRB05KT 9999 FEW008 PROB30 TEMPO 2415/2419 TS BKN006 FEW016CB
DXXX,TAF DXXX 241700Z 2418/2524 20010KT 9999 FEW012 PROB30 TEMPO 2418/2421 TS BKN010 FEW020CB BECMG 2421/2423 VRB05KT PROB30 TEMPO 2500/2506 4000 TSRA BKN010 FEW020CB BECMG 2508/2510 20010KT
EBAW,TAF EBAW 241710Z 2418/2503 23008KT 9999 SCT025 PROB40 TEMPO 2418/2421 23020G30KT 4000 SHRA BKN025CB PROB30 TEMPO 2418/2420 2500 TSRA 
EBBE,TAF EBBE 241541Z 2419/2507 22010KT 9999 FEW020 SCT030 TEMPO 2419/2422 22015G25KT 5000 SHRA SCT020TCU PROB30 TEMPO 2419/2422 22020G30KT 2000 TSRA SCT008 BKN010CB BECMG 2420/2422 8000 FEW010 SCT015 BECMG 2501/2503 7000 FEW007 SCT010
EBBL,TAF EBBL 241141Z 2413/2422 22015G25KT 9999 SCT030 TEMPO 2413/2417 22017G28KT TEMPO 2413/2419 22019G32KT 4000 SHRA FEW010 SCT020TCU PROB30 TEMPO 2413/2419 22020G35KT 2000 -TSRA SCT008 SCT012CB
EBBR,TAF EBBR 241710Z 2418/2524 23008KT 9999 SCT025 PROB40 TEMPO 2418/2421 23020G30KT 4000 SHRA BKN025CB PROB30 TEMPO 2418/2420 2500 TSRA 
EBCI,TAF EBCI 241444Z 2418/2521 23008KT 9999 SCT020 PROB40 TEMPO 2418/2421 23020G30KT 4000 SHRA BKN020CB 
EBCV,TAF EBCV 241620Z 2419/2507 23012KT 9999 BKN020 TEMPO 2419/2421 4000 SHRA SCT015TCU PROB30 TEMPO 2419/2421 23015G30KT 2000 -TSRA SCT007 SCT012CB BECMG 2421/2423 23010KT 9999 BKN014 TEMPO 2503/2507 4000 BR BKN008 PROB30 2503/2507 2000 -DZ BR BKN005 BY EBWM
EBFN,TAF EBFN 241541Z 2419/2507 21007KT 9999 SCT017 BKN020 TEMPO 2419/2507 22012G22KT 4000 SHRA BKN014TCU BKN017
EBFS,TAF EBFS 241541Z 2419/2507 22012KT 9999 SCT020 BKN030 TEMPO 2419/2423 22012G22KT 4000 -SHRA BKN015TCU BKN025 TEMPO 2419/2423 22015G25KT 3000 SHRA FEW007 BKN012TCU BKN020 PROB30 TEMPO 2419/2422 22020G30KT 2000 TSRA SCT005 BKN010CB BKN015 BECMG 2500/2502 SCT005 BKN007
EBLG,TAF EBLG 241444Z 2418/2521 23008KT 9999 SCT020 PROB40 TEMPO 2418/2421 23020G30KT 4000 SHRA BKN020CB 
EBOS,TAF EBOS 241444Z 2418/2521 23008KT 9999 SCT025 PROB40 TEMPO 2418/2507 23020G30KT 4000 SHRA BKN025CB PROB30 TEMPO 2418/2503 2500 TSRA 
EDAC,TAF EDAC 241700Z 2418/2503 20009KT CAVOK
EDAH,TAF EDAH 241400Z 2415/2424 22007KT CAVOK
EDDB,TAF EDDB 241700Z 2418/2518 21007KT CAVOK BECMG 2506/2509 25012KT BECMG 2513/2516 24007KT
EDDC,TAF EDDC 241700Z 2418/2518 20008KT CAVOK BECMG 2506/2509 26010KT BECMG 2514/2517 22004KT
EDDE,TAF EDDE 241700Z 2418/2518 22011KT 9999 SCT040 BECMG 2508/2510 25015G25KT BECMG 2512/2514 24010KT
EDDF,TAF EDDF 241700Z 2418/2524 22008KT CAVOK PROB30 TEMPO 2418/2421 SHRA BKN030CB BECMG 2518/2521 05003KT
EDDG,TAF EDDG 241700Z 2418/2518 21008KT 9999 BKN030 TEMPO 2418/2422 SHRA BKN020CB PROB30 TEMPO 2422/2504 SHRA BKN015CB TEMPO 2504/2509 BKN012 BECMG 2507/2510 23013KT BECMG 2513/2516 18004KT
EDDH,TAF EDDH 241700Z 2418/2524 22011KT 9999 FEW035 PROB30 TEMPO 2501/2508 SHRA SCT020CB PROB40 TEMPO 2501/2510 BKN008 PROB30 TEMPO 2510/2515 24015G25KT BECMG 2516/2518 22005KT
EDDK,TAF EDDK 241700Z 2418/2524 19006KT 9999 SCT035 PROB30 TEMPO 2418/2503 SHRA SCT025CB BECMG 2507/2510 25008KT BECMG 2514/2517 14004KT
EDDL,TAF EDDL 241700Z 2418/2524 22010KT 9999 BKN030 TEMPO 2418/2422 SHRA SCT020CB PROB30 TEMPO 2422/2503 SHRA SCT020CB BECMG 2514/2517 16004KT BECMG 2519/2522 15009KT
EDDM,TAF EDDM 241700Z 2418/2524 22006KT 9999 FEW020 BECMG 2515/2517 VRB02KT BECMG 2521/2523 4000 BCFG TEMPO 2523/2524 0700 FG
EDDN,TAF EDDN 241700Z 2418/2518 18006KT 9999 FEW020 PROB30 TEMPO 2419/2422 SHRA BKN040TCU BECMG 2507/2509 25008KT BECMG 2516/2518 11004KT
EDDP,TAF EDDP 241700Z 2418/2518 21010KT 9999 SCT040 BECMG 2508/2510 25015G25KT BECMG 2512/2514 25010KT
EDDR,TAF EDDR 241700Z 2418/2518 22007KT 9999 SCT040 TEMPO 2418/2422 SHRA BKN025CB PROB30 TEMPO 2418/2420 22015G25KT 4000 TSRA PROB30 TEMPO 2502/2508 4000 BR BKN006 BECMG 2515/2518 10003KT
EDDS,TAF AMD EDDS 241807Z 2418/2518 20003KT 9999 SCT045 TEMPO 2418/2421 SHRA BKN025CB PROB30 TEMPO 2418/2419 TSRA TEMPO 2508/2516 23008KT
EDDV,TAF EDDV 241700Z 2418/2518 22008KT 9999 FEW040 PROB30 TEMPO 2418/2508 SHRA SCT025CB PROB30 TEMPO 2501/2509 BKN013 PROB30 TEMPO 2510/2514 26015G25KT
EDDW,TAF EDDW 241700Z 2418/2518 22009KT 9999 FEW035 PROB30 TEMPO 2423/2507 SHRA SCT020CB PROB30 TEMPO 2501/2509 BKN008 PROB30 TEMPO 2510/2514 24015G25KT BECMG 2516/2518 20004KT
EDFH,TAF EDFH 241700Z 2418/2518 24008KT 9999 SCT030 TEMPO 2418/2422 SHRA BKN020CB PROB30 TEMPO 2501/2508 4000 BR BKN005 BECMG 2515/2518 18005KT
EDFM,TAF EDFM 241700Z 2418/2421 19005KT 9999 FEW035 TEMPO 2418/2421 SHRA BKN020CB PROB30 TEMPO 2418/2420 22015G30KT 4000 TSRA
EDGS,TAF EDGS 241700Z 2418/2503 22011KT 9999 SCT025 TEMPO 2418/2422 SHRA BKN010CB BECMG 2422/2501 BKN008 PROB30 TEMPO 2422/2503 4000 SHRA BKN004CB
EDHI,TAF EDHI 241700Z 2418/2421 22008KT 9999 FEW035
EDHL,TAF EDHL 241700Z 2418/2421 21006KT 9999 FEW035
EDJA,TAF EDJA 241700Z 2418/2503 22010KT CAVOK BECMG 2419/2421 22005KT
EDLN,TAF EDLN 241700Z 2418/2503 22008KT 9999 BKN030 TEMPO 2418/2422 SHRA SCT020CB PROB30 TEMPO 2422/2503 SHRA SCT015CB
EDLP,TAF EDLP 241700Z 2418/2518 22011KT 9999 SCT035 PROB30 TEMPO 2418/2505 SHRA SCT020CB BECMG 2513/2516 24006KT BECMG 2516/2518 18006KT
EDLW,TAF EDLW 241700Z 2418/2518 21011KT 9999 BKN030 TEMPO 2418/2422 SHRA BKN020CB PROB30 TEMPO 2422/2504 SHRA BKN015CB BECMG 2514/2517 18006KT
EDMA,TAF EDMA 241700Z 2418/2503 22006KT CAVOK
EDMO,TAF EDMO 241700Z 2418/2503 20010KT CAVOK BECMG 2419/2421 20005KT
EDNY,TAF EDNY 241700Z 2418/2518 VRB03KT 9999 FEW020 BECMG 2508/2510 23006KT BECMG 2515/2517 VRB02KT
EDQM,TAF EDQM 241700Z 2418/2503 22007KT 9000 SCT012 BKN015 BECMG 2418/2420 BKN010
EDSB,TAF EDSB 241700Z 2418/2518 20008KT 9999 BKN030 TEMPO 2418/2422 SHRA BKN025CB PROB30 TEMPO 2418/2420 22015G25KT 3000 TSRA BECMG 2515/2517 VRB03KT
EDTL,TAF EDTL 241700Z 2418/2424 20010KT 9999 FEW045 TEMPO 2418/2422 SHRA BKN020CB PROB30 TEMPO 2418/2420 22015G30KT 4000 TSRA BECMG 2419/2421 20005KT
EDTY,TAF EDTY 241700Z 2418/2503 20005KT CAVOK PROB40 TEMPO 2418/2422 SHRA SCT014CB
EDVE,TAF EDVE 241700Z 2418/2421 23006KT 9999 FEW040 PROB30 TEMPO 2418/2421 SHRA SCT025CB
EDVK,TAF EDVK 241700Z 2418/2503 22008KT 9999 SCT045 TEMPO 2418/2422 SHRA BKN020CB PROB30 TEMPO 2418/2420 22015G30KT 4000 TSRA
EDXW,TAF EDXW 241400Z 2415/2421 22020KT 9999 SCT020 TEMPO 2415/2421 4500 SHRA BKN012CB PROB30 TEMPO 2415/2418 23025G35KT
EEEI,TAF EEEI 241730Z 2418/2518 11007KT 9999 BKN040 BECMG 2502/2504 BKN015 TEMPO 2506/2514 4000 RA SCT005 BKN008 SCT020TCU TEMPO 2514/2518 1500 BR BKN002 OVC010 BECMG 2515/2517 17005KT
EEKE,TAF EEKE 241400Z 2415/2421 10010KT 9999 BKN008 BKN030 TEMPO 2415/2418 BKN006 OVC012 BECMG 2416/2418 16015KT TEMPO 2418/2421 3000 SHRA BR BKN004 BKN015CB
EETN,TAF EETN 241730Z 2418/2518 11006KT CAVOK BECMG 2500/2502 BKN014 OVC030 TEMPO 2504/2513 5000 SHRA BKN008 SCT015CB BECMG 2513/2515 17010KT 4000 RADZ BR BKN004 OVC010 TEMPO 2515/2518 0700 FG OVC002
EFHK,TAF EFHK 241728Z 2418/2518 06003KT CAVOK BECMG 2507/2509 12010KT BECMG 2511/2513 BKN010 BECMG 2513/2515 6000 -RADZ BKN005 TEMPO 2516/2518 2500 -DZ BKN003
EFJY,TAF EFJY 241728Z 2418/2518 33001KT CAVOK PROB30 2503/2507 4000 BR BECMG 2506/2508 12010KT PROB30 2507/2511 BKN006
EFKK,TAF EFKK 241724Z 2418/2421 15003KT CAVOK
EFKU,TAF EFKU 241728Z 2418/2518 27003KT CAVOK PROB40 2504/2507 1500 BR BKN002 BECMG 2508/2510 12010KT
EFLP,TAF EFLP 241728Z 2418/2421 17001KT CAVOK
EFMA,TAF EFMA 241728Z 2418/2503 10004KT CAVOK BECMG 2423/2501 BKN011 BECMG 2501/2503 6000 -RA BKN009
EFOU,TAF EFOU 241724Z 2418/2518 15003KT CAVOK PROB40 2418/2504 2000 BCFG
EFRO,TAF EFRO 241724Z 2418/2518 22003KT CAVOK PROB30 2503/2507 2000 BR PROB30 2507/2518 4000 -SN BKN008
EFSI,TAF EFSI 241728Z 2418/2503 13004KT CAVOK
EFTP,TAF EFTP 241728Z 2418/2518 07002KT CAVOK BECMG 2513/2515 BKN012 BECMG 2515/2517 5000 -RADZ BKN005
EFTU,TAF EFTU 241728Z 2418/2518 09004KT CAVOK BECMG 2508/2510 BKN010 BECMG 2510/2512 5000 -RADZ BKN004 TEMPO 2512/2518 3500 -DZ PROB30 TEMPO 2513/2515 2800 BKN004 FEW040CB
EFVA,TAF EFVA 241724Z 2418/2518 13003KT CAVOK
EGAA,TAF EGAA 241653Z 2418/2518 22010KT 9999 FEW020 SCT025 PROB40 TEMPO 2418/2420 7000 SHRA BECMG 2421/2423 BKN012 TEMPO 2422/2509 BKN009 BECMG 2506/2509 16006KT BECMG 2508/2511 FEW040
EGAC,TAF EGAC 241657Z 2418/2421 22009KT 9999 SCT025 PROB40 TEMPO 2418/2420 7000 SHRA
EGAE,TAF EGAE 241657Z 2418/2421 22011KT 9999 SCT014 PROB40 TEMPO 2418/2421 7000 SHRA
EGBB,TAF EGBB 241653Z 2418/2518 22010KT 9999 SCT030 PROB40 TEMPO 2500/2509 5000 BR BKN008 BECMG 2506/2509 16006KT PROB30 TEMPO 2509/2512 BKN010 PROB30 TEMPO 2512/2516 8000 -SHRA
EGCC,TAF EGCC 241658Z 2418/2524 21005KT 9999 SCT030 PROB30 TEMPO 2418/2424 6000 SHRA BECMG 2506/2509 15010KT TEMPO 2520/2524 14015G25KT PROB30 TEMPO 2522/2524 6000 RA BKN012
EGCK,TAF EGCK 241701Z 2418/2503 22014KT 9999 FEW015 SCT025 PROB30 TEMPO 2418/2420 23017G27KT 4000 +SHRA BKN012
EGCN,TAF EGCN 241658Z 2418/2518 22014KT 9999 SCT040 BECMG 2503/2506 18004KT
EGDY,TAF EGDY 241633Z 2418/2503 22005KT 9999 FEW020 PROB40 TEMPO 2418/2424 7000 -SHRA FEW014 SCT020TCU
EGFF,TAF EGFF 241702Z 2418/2518 24012KT 9999 FEW020 PROB30 TEMPO 2418/2424 24015G25KT 4000 +SHRA BKN012CB PROB30 TEMPO 2500/2504 BKN012 BECMG 2503/2506 16008KT PROB30 TEMPO 2516/2518 7000 RA
EGGD,TAF EGGD 241702Z 2418/2518 24012KT 9999 SCT012 PROB30 TEMPO 2418/2421 24015G25KT 4000 +SHRA BKN010CB BECMG 2500/2503 18008KT PROB30 TEMPO 2503/2509 8000 BKN004 PROB30 TEMPO 2509/2512 BKN008
EGGP,TAF AMD EGGP 241939Z 2419/2518 15008KT 9999 SCT030 PROB30 TEMPO 2419/2423 6000 SHRA
EGGW,TAF EGGW 241703Z 2418/2518 23012KT 9999 FEW025 PROB30 TEMPO 2504/2508 0500 FG BKN001 PROB30 TEMPO 2508/2510 3000 BR BKN003 BECMG 2514/2517 15008KT
EGHH,TAF EGHH 241654Z 2418/2424 24009KT 9999 FEW030 PROB30 TEMPO 2418/2424 6000 SHRA
EGHI,TAF EGHI 241654Z 2418/2422 23009KT 9999 FEW030 PROB30 TEMPO 2418/2422 6000 SHRA
EGHQ,TAF EGHQ 241654Z 2418/2503 22010KT 9999 SCT020 PROB30 TEMPO 2418/2424 6000 SHRA BKN014 BECMG 2500/2503 16007KT
EGJA,TAF EGJA 241405Z 2415/2500 24018KT 9999 FEW008 SCT012 PROB40 TEMPO 2415/2421 25020G30KT PROB40 TEMPO 2415/2500 7000 SHRA BKN012CB PROB30 TEMPO 2418/2421 4000 +SHRA BKN010CB
EGJB,TAF EGJB 241658Z 2418/2503 24017KT 9999 FEW010 PROB40 TEMPO 2418/2421 25020G30KT PROB40 TEMPO 2418/2500 7000 SHRA BKN012CB PROB30 TEMPO 2418/2420 4000 +SHRA BKN010CB
EGJJ,TAF EGJJ 241658Z 2418/2503 24017KT 9999 FEW010 FEW012CB TEMPO 2418/2421 25020G30KT PROB40 TEMPO 2418/2500 7000 SHRA BKN014CB PROB30 TEMPO 2418/2421 4000 +SHRA BKN010CB
EGKB,TAF EGKB 241653Z 2418/2422 23009KT 9999 SCT045
EGKK,TAF EGKK 241652Z 2418/2524 23008KT 9999 SCT035 PROB30 TEMPO 2500/2514 8000 SHRA PROB30 TEMPO 2503/2509 4000 BR PROB30 TEMPO 2519/2524 9000 -RA BECMG 2521/2524 16010KT
EGLC,TAF EGLC 241653Z 2418/2421 23008KT 9999 SCT025
EGLF,TAF EGLF 241653Z 2418/2503 23007KT 9999 SCT020
EGLL,TAF EGLL 241703Z 2418/2524 22007KT 9999 SCT030 PROB40 TEMPO 2418/2419 8000 SHRA TEMPO 2502/2508 8000 BKN005 PROB30 TEMPO 2506/2508 4000 BR BECMG 2514/2517 14010KT PROB40 TEMPO 2521/2524 6000 -RADZ BKN014
EGMC,TAF EGMC 241653Z 2418/2503 23008KT CAVOK
EGMD,TAF EGMD 241653Z 2418/2503 24013KT 9999 SCT020 TEMPO 2418/2503 24015G26KT PROB30 TEMPO 2418/2503 4000 +SHRA BKN014 BKN020CB
EGNH,TAF EGNH 241701Z 2418/2420 25012KT 9999 FEW010 SCT030 PROB30 TEMPO 2418/2420 26015G25KT 4000 +SHRA BKN010
EGNJ,TAF EGNJ 241701Z 2418/2503 22012KT 9999 FEW020 PROB30 TEMPO 2418/2419 23015G25KT 6000 SHRA
EGNM,TAF EGNM 241658Z 2418/2518 23012KT 9999 FEW012 SCT030 PROB30 TEMPO 2418/2503 24015G25KT 6000 SHRA BKN012 BECMG 2506/2509 17006KT
EGNR,TAF EGNR 241701Z 2418/2420 22008KT 9999 SCT030 PROB30 TEMPO 2418/2420 6000 SHRA BKN014
EGNS,TAF EGNS 241700Z 2418/2421 22010KT 9999 FEW010 BKN025 PROB30 TEMPO 2418/2421 8000 SHRA BKN010
EGNT,TAF EGNT 241658Z 2418/2518 27010KT 9999 SCT030 PROB30 TEMPO 2418/2424 6000 SHRA BECMG 2421/2424 20005KT
EGNV,TAF EGNV 241701Z 2418/2421 22011KT 9999 SCT030 PROB30 TEMPO 2418/2421 6000 SHRA
EGNX,TAF EGNX 241653Z 2418/2518 22010KT 9999 SCT025 PROB40 TEMPO 2500/2510 5000 BR BKN008 PROB30 TEMPO 2512/2516 8000 -SHRA BECMG 2515/2518 16008KT
EGOS,TAF EGOS 241639Z 2418/2424 22012KT 9999 FEW020 PROB30 TEMPO 2418/2422 -SHRA SCT020
EGOV,TAF AMD EGOV 241411Z 2415/2420 23015KT 9999 FEW012 SCT040 TEMPO 2415/2420 7000 SHRA SCT012TCU PROB30 TEMPO 2415/2418 4000 SHRA PROB30 TEMPO 2418/2420 23017G27KT 4000 +SHRA SCT010CB
EGPA,TAF AMD EGPA 241902Z 2419/2503 20005KT 9999 FEW003 BKN030 PROB40 TEMPO 2419/2421 BKN009
EGPB,TAF AMD EGPB 241810Z 2418/2503 14010KT 9999 BKN004 TEMPO 2418/2503 4000 BR -RADZ PROB30 TEMPO 2418/2503 1200 DZ BKN001
EGPC,TAF EGPC 241656Z 2418/2503 21005KT 9999 FEW020
EGPD,TAF EGPD 241657Z 2418/2518 24006KT 9999 FEW025 PROB30 TEMPO 2420/2424 7000 SHRA BECMG 2513/2516 18010KT
EGPE,TAF EGPE 241656Z 2418/2503 25005KT 9999 FEW010 PROB30 TEMPO 2500/2503 7000 SHRA
EGPF,TAF EGPF 241657Z 2418/2518 22009KT 9999 FEW015 BKN020 TEMPO 2418/2424 7000 -SHRA BKN012 PROB30 TEMPO 2504/2512 BKN014 BECMG 2515/2518 12010KT
EGPH,TAF EGPH 241657Z 2418/2518 24008KT 9999 FEW015 SCT020 PROB30 TEMPO 2418/2421 7000 SHRA BKN012 PROB30 TEMPO 2421/2507 BKN014 BECMG 2515/2518 15010KT
EGPK,TAF EGPK 241657Z 2418/2518 21009KT 9999 FEW018 SCT030 PROB30 TEMPO 2418/2506 BKN012 PROB30 TEMPO 2418/2424 7000 -SHRA BECMG 2515/2518 15010KT
EGPN,TAF EGPN 241652Z 2418/2503 25009KT 9999 FEW020 BKN040 PROB30 TEMPO 2418/2421 5000 -SHRA BKN014
EGPO,TAF EGPO 241656Z 2418/2503 20009KT 9999 FEW010 SCT020 TEMPO 2418/2503 7000 -SHRA BKN010 PROB30 TEMPO 2418/2420 4000 SHRA BKN006
EGQL,TAF EGQL 241627Z 2418/2503 25012KT 9999 SCT040 PROB40 TEMPO 2418/2422 6000 SHRA SCT018 PROB30 TEMPO 2418/2503 SCT014
EGSH,TAF EGSH 241659Z 2418/2503 22007KT 9999 SCT035
EGSS,TAF EGSS 241703Z 2418/2524 23012KT 9999 FEW025 PROB30 TEMPO 2504/2509 7000 BKN003 BECMG 2514/2517 15008KT PROB30 TEMPO 2523/2524 7000 -RA
EGSY,TAF EGSY 241654Z 2418/2503 23010KT 9999 SCT020 TEMPO 2418/2503 6000 SHRA PROB30 TEMPO 2500/2503 BKN010
EGTE,TAF EGTE 241654Z 2418/2503 21010KT 9999 FEW040 PROB30 TEMPO 2418/2424 6000 SHRA BECMG 2500/2503 15006KT
EGTK,TAF EGTK 241651Z 2418/2422 22007KT 9999 SCT045
EGUL,TAF AMD EGUL 241940Z 2419/2519 22012G18KT 9999 SCT050 QNH2962INS BECMG 2502/2503 23009KT 6000 BR FEW008 SCT025 QNH2979INS BECMG 2508/2509 21009KT 9999 NSW BKN015 QNH2987INS BECMG 2511/2512 21009KT 9999 BKN020 QNH2981INS TX17/2513Z TN10/2505Z LAST NO AMDS AFT 2419 NEXT 2405
EGUN,TAF EGUN 241200Z 2412/2518 23012G18KT 9999 SCT025 BKN035 QNH2958INS TEMPO 2412/2418 23012G20KT BECMG 2417/2418 23010G15KT 9999 SCT040 QNH2964INS BECMG 2421/2422 22009KT 9999 FEW025 WS015/26030KT QNH2972INS BECMG 2502/2503 23006KT 6000 BR SCT040 WS015/25030KT QNH2977INS BECMG 2504/2505 21006KT 3200 BR BCFG SCT060 WS015/25025KT QNH2980INS BECMG 2509/2510 21010KT 6000 BR FEW080 QNH2986INS BECMG 2511/2512 21012KT 9999 NSW FEW030 SCT110 QNH2982INS BECMG 2515/2516 17009KT 9999 SCT020 QNH2979INS TX17/2512Z TN09/2506Z
EGUW,TAF EGUW 241633Z 2418/2424 23012KT 9999 SCT030 PROB30 TEMPO 2418/2419 6000 SHRA SCT024TCU
EGVA,TAF AMD EGVA 241735Z 2417/2518 22012KT 9999 SCT020 BKN050 QNH2978INS BECMG 2423/2424 22009KT 8000 BR BKN006 OVC013 510063 QNH2978INS BECMG 2508/2509 18006KT 8000 BR OVC004 QNH2984INS BECMG 2513/2514 19010G15KT 9999 NSW BKN021 OVC028 510063 QNH2974INS TX16/2512Z TN09/2507Z LAST NO AMDS AFT 2418 NEXT 2504
EGVP,TAF EGVP 241616Z 2418/2422 23010KT 9999 FEW025
EGWU,TAF EGWU 241641Z 2418/2512 22007KT 9999 FEW030 PROB30 TEMPO 2503/2507 SCT008 PROB30 TEMPO 2507/2510 SCT015
EHAM,TAF EHAM 241713Z 2418/2524 22012KT 9999 FEW020 TEMPO 2422/2503 6000 SHRA SCT015CB BKN018 PROB30 TEMPO 2508/2515 7000 -SHRA FEW018TCU BKN025 BECMG 2516/2519 17005KT
EHBK,TAF EHBK 241702Z 2418/2524 23013KT 9999 BKN030 TEMPO 2418/2423 24015G25KT 4000 SHRA TSRA SCT020CB PROB40 TEMPO 2423/2508 6000 SHRA BKN012 FEW018CB BECMG 2515/2518 15005KT
EHEH,TAF EHEH 241706Z 2418/2524 21010KT 9999 FEW040 SCT050 TEMPO 2418/2420 25020G32KT 3500 SHRA TSRA FEW015 SCT020CB BKN025 PROB30 TEMPO 2420/2505 26018G30KT 3500 SHRA SCT008 SCT012CB BKN018 BECMG 2506/2509 SCT008 BKN012 BECMG 2510/2512 SCT015 BECMG 2512/2515 SCT025 BECMG 2516/2519 14007KT
EHGG,TAF EHGG 241704Z 2418/2524 22012KT 9999 BKN025 PROB40 TEMPO 2500/2505 6000 SHRA SCT008 BKN012 SCT016CB PROB40 TEMPO 2512/2516 7000 -SHRA SCT012 FEW020TCU BECMG 2516/2519 19005KT PROB40 2522/2524 4500 BR MIFG
EHGR,TAF EHGR 241534Z 2417/2505 23010KT 9999 FEW030 SCT045 TEMPO 2417/2419 25020G32KT 3500 SHRA TSRA FEW015 SCT020CB BKN025 PROB40 TEMPO 2422/2505 26018G30KT 3500 SHRA TSRA SCT008 SCT012CB BKN018
EHKD,TAF EHKD 241540Z 2417/2505 23015KT 9999 FEW016 PROB30 TEMPO 2422/2503 25018G30KT 3500 SHRA TSRA SCT012 SCT015CB BKN020
EHLE,TAF EHLE 241713Z 2418/2524 22012KT 9999 SCT020 TEMPO 2422/2503 6000 SHRA SCT015CB BKN018 PROB30 TEMPO 2508/2515 7000 -SHRA FEW018TCU BKN025 BECMG 2516/2519 17005KT
EHLW,TAF EHLW 241546Z 2417/2505 22012KT 9999 FEW016 PROB30 TEMPO 2421/2503 25018G30KT 3500 SHRA TSRA SCT012 SCT015CB BKN020
EHRD,TAF EHRD 241713Z 2418/2524 22012KT 9999 SCT020 TEMPO 2422/2503 6000 SHRA SCT015CB BKN018 PROB30 TEMPO 2508/2515 7000 -SHRA FEW018TCU BKN025 BECMG 2516/2519 17005KT
EHVK,TAF EHVK 241243Z 2413/2501 22017G25KT 9999 SCT045 TEMPO 2413/2418 23020G34KT 4500 SHRA FEW015 SCT025CB BKN030 PROB30 TEMPO 2414/2418 3000 TSRA +SHRA SCT010 SCT020CB BKN030 BECMG 2415/2417 22008KT
EHWO,TAF EHWO 240833Z 2409/2421 22015G25KT 9999 SCT030 TEMPO 2409/2417 23017G30KT 4500 SHRA SCT015 SCT025CB BKN030 PROB30 TEMPO 2413/2417 3000 TSRA SCT010 SCT020CB BKN030 BECMG 2415/2417 21008KT
EICK,TAF EICK 241700Z 2418/2518 23012KT 9999 FEW020 BKN040 BECMG 2419/2421 20007KT PROB40 TEMPO 2421/2509 -SHRA BKN012 PROB30 TEMPO 2421/2509 3000 BR BKN008 BECMG 2506/2508 17012KT BECMG 2508/2510 16015G25KT TEMPO 2509/2513 4000 -SHRA BKN006 SCT020CB BECMG 2513/2515 4000 -RA BKN005 TEMPO 2515/2518 15020G35KT 1500 RA BKN002 SCT018CB
EIDL,TAF EIDL 241700Z 2418/2503 23013KT 9999 FEW012 BKN040 TEMPO 2418/2503 7000 -SHRA BKN008 SCT020CB PROB30 TEMPO 2418/2424 4000 SHRA BECMG 2500/2502 19010KT
EIDW,TAF EIDW 241700Z 2418/2518 24009KT 9999 FEW020 BECMG 2501/2503 21007KT BECMG 2503/2505 16007KT BECMG 2510/2512 15012KT TEMPO 2516/2518 14016G26KT -RA BKN010 TEMPO 2517/2518 4000 RA BKN005
EIKN,TAF EIKN 241700Z 2418/2518 22008KT 9999 SCT020 BKN030 TEMPO 2418/2422 -SHRA BKN008 FEW020CB PROB30 TEMPO 2418/2422 4000 BECMG 2422/2424 17009KT PROB40 TEMPO 2422/2509 3000 -SHRA BR BKN005 PROB30 TEMPO 2502/2509 0500 FG BKN001 BECMG 2509/2511 14012KT PROB40 TEMPO 2509/2518 -SHRA BKN012 FEW020CB
EIKY,TAF EIKY 241700Z 2418/2503 22010KT 9999 SCT015 BKN020 TEMPO 2418/2421 -SHRA BKN010 SCT018CB PROB30 TEMPO 2418/2420 4000 SHRA BECMG 2419/2421 19008KT
EIME,TAF EIME 241700Z 2418/2503 22012KT 9999 FEW020 BKN040
EINN,TAF EINN 241700Z 2418/2518 22013KT 9999 SCT015 BKN040 PROB30 TEMPO 2418/2509 -SHRA BKN012 BECMG 2419/2421 19008KT BECMG 2423/2501 15010KT TEMPO 2508/2510 12010KT TEMPO 2509/2515 -SHRA FEW020CB BECMG 2514/2516 12010KT BECMG 2515/2517 -RA BKN012 TEMPO 2516/2518 4000 RA BKN008 SCT018CB
EISG,TAF EISG 241700Z 2418/2503 20008KT 9999 SCT020 BKN030 TEMPO 2418/2503 -SHRA SCT020CB PROB30 TEMPO 2418/2503 4000 BKN010 BECMG 2500/2502 16010KT
EIWF,TAF EIWF 241700Z 2418/2503 24010KT 9999 FEW012 SCT020 BECMG 2501/2503 21010KT PROB30 TEMPO 2501/2503 -SHRA BKN012
EKAH,TAF AMD EKAH 241852Z 2418/2518 18010KT 9999 FEW005 SCT025 TEMPO 2418/2423 20015G28KT 3000 SHRA BKN008 SCT020CB TEMPO 2423/2506 BKN008 FEW020CB TEMPO 2506/2517 BKN012 FEW020CB BECMG 2510/2512 25010KT
EKBI,TAF EKBI 241711Z 2418/2518 22012KT 9999 BKN020 TEMPO 2418/2422 22018G32KT 4000 SHRA BKN008 SCT020CB TEMPO 2422/2508 4000 SHRA BKN008 SCT020CB TEMPO 2508/2514 BKN012 SCT020CB
EKCH,TAF EKCH 241711Z 2418/2518 19012KT 9999 BKN030 TEMPO 2418/2510 22015G25KT SHRA BKN012 SCT020CB BECMG 2510/2512 25013KT TEMPO 2510/2518 FEW020CB
EKEB,TAF AMD EKEB 241624Z 2416/2421 17015KT 9999 BKN020 TEMPO 2416/2419 22018G32KT 3000 SHRA BKN007 BKN020CB FM241900 24018KT 9999 SCT020 TEMPO 2419/2421 24020G30KT BKN012 SCT020CB
EKGC,TAF EKGC 241423Z 2415/2421 24025KT 9999 SCT025 TEMPO 2415/2419 26028G40KT 3000 SHRA BKN004 BKN020CB
EKHD,TAF AMD EKHD 241903Z 2419/2421 25030KT 9999 SCT025 TEMPO 2419/2421 SHRA BKN006 SCT020CB
EKKA,TAF EKKA 241700Z 2418/2518 20010KT 9999 BKN030 TEMPO 2418/2424 23022G32KT 4000 SHRA BKN008 BKN020CB TEMPO 2500/2506 4000 SHRA BKN008 FEW020CB TEMPO 2506/2514 6000 -SHRA BKN012 FEW020CB
EKRK,TAF EKRK 241712Z 2418/2503 20010KT 9999 BKN040 TEMPO 2418/2421 4000 SHRA BKN010 SCT020CB TEMPO 2421/2503 22015G25KT 4000 SHRA BKN010 SCT020CB
EKRN,TAF EKRN 241700Z 2418/2503 20012KT 9999 FEW005 SCT020 TEMPO 2418/2424 20012G25KT 3000 SHRA SCT030CB TEMPO 2500/2503 BKN010
EKSB,TAF EKSB 241712Z 2418/2422 20012KT 9999 SCT020 TEMPO 2418/2422 22015G28KT SHRA BKN012 SCT020CB
EKSP,TAF EKSP 241700Z 2418/2518 21015KT 9999 SCT025 BKN050 TEMPO 2418/2422 21018G32KT 4000 SHRA BKN008 SCT020CB TEMPO 2422/2506 25012G25KT 4000 SHRA BKN008 SCT020CB TEMPO 2506/2514 24012G22KT 6000 -SHRA BKN012 SCT020CB
EKVG,TAF EKVG 241402Z 2415/2421 10010KT 9999 SCT017 BKN030 TEMPO 2415/2421 09015G25KT 4000 RADZ BKN010
EKYT,TAF EKYT 241700Z 2418/2518 17012KT 9999 SCT010 BKN020 TEMPO 2418/2423 4000 SHRA BKN008 BKN020CB BECMG 2420/2423 23015KT TEMPO 2423/2503 23018G32KT 4000 SHRA BKN008 FEW020CB TEMPO 2503/2514 6000 -SHRA BKN012 SCT020CB
ELLX,TAF ELLX 241700Z 2418/2524 22010KT 9999 SCT030 TEMPO 2418/2421 23015G30KT 4000 SHRA -TSRA BKN020CB BECMG 2500/2502 BKN008 BECMG 2507/2510 SCT020
ENAL,TAF ENAL 241400Z 2415/2422 05007KT CAVOK
ENAN,TAF ENAN 2418/2518 10008KT 9999 SCT030
ENAT,TAF ENAT 241400Z 2415/2421 VRB05KT 9999 -SHRA FEW010 BKN030 TEMPO 2415/2418 BKN012
ENBN,TAF ENBN 241700Z 2418/2503 11010KT CAVOK TEMPO 2418/2423 11015G25KT
ENBO,TAF ENBO 2418/2518 09015KT CAVOK
ENBR,TAF ENBR 2418/2518 07005KT 9999 FEW025 BKN070 TEMPO 2505/2509 RA BECMG 2507/2509 4000 -RADZ BKN008 BECMG 2512/2514 23010KT PROB30 2512/2518 0400 FG VV002
ENBS,TAF AMD ENBS 241926Z 2419/2423 21009KT 9999 BKN030
ENBV,TAF ENBV 241400Z 2415/2422 36008KT 9999 BKN040 TEMPO 2415/2422 20010KT
ENCN,TAF ENCN 241400Z 2415/2422 05015KT 7000 -RA SCT005 BKN010 TEMPO 2415/2422 3000 SHRA BR OVC004 SCT025CB
ENDU,TAF ENDU 2418/2518 VRB03KT CAVOK PROB30 TEMPO 2418/2503 1200 PRFG
ENEV,TAF ENEV 2418/2518 04005KT CAVOK
ENFL,TAF ENFL 241700Z 2418/2503 09010KT 9999 FEW050 SCT150
ENGC,TAF ENGC 2418/2518 13017KT 9999 -SHRA FEW025 BKN040 TEMPO 2506/2517 4000 SHRA BKN008 SCT020CB BECMG 2511/2514 23010KT PROB40 2512/2517 0300 FG VV002
ENGM,TAF ENGM 2418/2518 02008KT 8000 -RA SCT004 BKN010 TEMPO 2418/2510 3000 RADZ BR OVC004 BECMG 2510/2512 SCT010 BKN015
ENHD,TAF ENHD 241100Z 2412/2420 09010KT 9999 -RA FEW006 BKN040 TEMPO 2412/2415 10015G25KT
ENHE,TAF ENHE 241700Z 2418/2503 08024KT 9999 SCT025 BECMG 2423/2502 08014KT
ENHF,TAF ENHF 241700Z 2418/2503 25009KT 9999 FEW010 BKN030 TEMPO 2418/2420 4000 SHSNRA BKN008 FEW015TCU BECMG 2420/2423 19010KT
ENHV,TAF AMD ENHV 241925Z 2419/2423 26009KT 9999 SCT025 BKN040
ENKB,TAF ENKB 241400Z 2415/2421 10007KT CAVOK
ENKR,TAF ENKR 241700Z 2418/2503 25008KT CAVOK
ENLE,TAF ENLE 241700Z 2418/2503 25025KT 9999 BKN008 BECMG 2418/2419 SCT015 BKN030
ENML,TAF ENML 241400Z 2415/2422 07006KT CAVOK
ENMS,TAF ENMS 241400Z 2415/2422 VRB03KT CAVOK
ENNA,TAF ENNA 2418/2518 18008KT 9999 FEW010 BKN030 TEMPO 2512/2518 18018KT
ENOA,ENOA 2418/2518 10020KT 9999 -RA BKN030 BECMG 2500/2503 BKN012 TEMPO 2503/2516 4000 SHRA BKN006 SCT018CB BECMG 2503/2506 16012KT BECMG 2508/2511 25012KT PROB40 2511/2517 0300 FG VV002
ENOL,TAF ENOL 2418/2518 13015KT CAVOK PROB40 TEMPO 2418/2507 14015G25KT BECMG 2515/2517 24008KT
ENOV,TAF ENOV 241400Z 2415/2422 VRB03KT CAVOK
ENRA,TAF ENRA 241400Z 2415/2421 08008KT CAVOK
ENRM,TAF ENRM 241400Z 2417/2422 10010KT CAVOK
ENRY,TAF ENRY 2418/2518 04007KT 9000 -RA SCT004 BKN010 TEMPO 2418/2512 3000 SHRA BR OVC004 FEW025CB BECMG 2514/2516 SCT010 BKN020
ENSB,TAF ENSB 2418/2518 28009KT 9999 -SHSN FEW010 BKN030 TEMPO 2418/2506 4000 -SHSN VV012 TEMPO 2418/2424 DRSN
ENSD,TAF ENSD 241400Z 2415/2421 VRB04KT 9999 FEW001 PROB30 2415/2418 1500 BCFG
ENSH,TAF ENSH 241400Z 2415/2421 05009KT 9999 FEW025
ENSK,TAF ENSK 241400Z 2415/2421 05007KT CAVOK
ENSR,TAF ENSR 241100Z 2412/2420 30008KT 9999 FEW015 BKN035 TEMPO 2412/2418 4000 SHRASN BKN012 SCT020CB
ENTC,TAF AMD ENTC 241941Z 2419/2518 19005KT 9999 FEW009 SCT040 PROB30 TEMPO 2419/2506 BKN008
ENTO,TAF ENTO 2418/2518 01010KT 7000 -RA SCT002 OVC005 TEMPO 2418/2510 2000 SHRA BR OVC002 FEW025CB BECMG 2511/2513 VRB05KT SCT010 BKN020
ENVA,TAF ENVA 2418/2518 13010KT CAVOK TEMPO 2418/2510 15015G25KT
ENVD,TAF ENVD 241400Z 2415/2423 32009KT 9999 FEW020
ENZV,TAF ENZV 2418/2518 08008KT 9999 -RA FEW040 BKN050 TEMPO 2418/2503 SHRA SCT030CB BKN050 BECMG 2503/2506 BKN010 TEMPO 2503/2515 3000 SHRA BR BKN006 SCT018CB BECMG 2509/2512 24010KT
EPBY,TAF EPBY 241730Z 2418/2518 23006KT CAVOK TEMPO 2418/2506 4000 SHRA BR BKN030CB BECMG 2507/2509 27012KT SCT035 PROB40 TEMPO 2510/2518 -SHRA SCT030CB
EPCE,TAF EPCE 241700Z 2418/2503 21007KT 9999 SCT007 BKN030 TEMPO 2418/2503 5000 BR BKN005 PROB30 TEMPO 2421/2501 4000 -SHRA BR BKN005 BKN020TCU
EPDA,TAF EPDA 241700Z 2418/2503 20010KT CAVOK PROB30 TEMPO 2422/2503 5000 SHRA BKN020CB
EPDE,TAF EPDE 241700Z 2418/2503 20006KT 8000 NSC BECMG 2500/2502 6000 SCT010 OVC100 FM250230 5000 RA BKN012 BKN040 OVC100
EPGD,TAF EPGD 241730Z 2418/2518 22007KT 9999 BKN005 TEMPO 2418/2501 3000 BR BKN004 PROB40 TEMPO 2418/2501 0500 FG OVC001 TEMPO 2501/2507 2000 -SHRA BR BKN009CB BECMG 2507/2509 SCT014 PROB40 TEMPO 2507/2515 -SHRA BKN014CB
EPIR,TAF EPIR 241100Z 2412/2421 21010KT CAVOK PROB30 TEMPO 2415/2418 5000 MIFG BR
EPKK,TAF EPKK 241730Z 2418/2518 23007KT CAVOK TEMPO 2421/2505 4000 SHRA BKN007 BKN013CB PROB30 TEMPO 2423/2507 2500 -RA BR BKN004 TEMPO 2510/2518 4000 SHRA BKN013 BKN020CB PROB30 TEMPO 2512/2515 27015G25KT TSRA
EPKS,TAF EPKS 241700Z 2418/2503 21008KT CAVOK PROB30 TEMPO 2418/2421 -SHRA BKN030CB
EPKT,TAF EPKT 241730Z 2418/2518 21007KT CAVOK TEMPO 2419/2504 4000 SHRA BKN007 BKN013CB PROB30 TEMPO 2422/2506 2500 -RA BR BKN004 TEMPO 2510/2518 4000 SHRA BKN013 BKN020CB PROB30 TEMPO 2512/2515 27015G25KT TSRA
EPLB,TAF EPLB 241730Z 2418/2518 20003KT CAVOK TEMPO 2418/2502 2000 BR PROB40 2419/2502 0500 FG BKN001 PROB40 TEMPO 2502/2504 3000 SHRA BR BKN020CB TEMPO 2504/2512 3000 SHRA BR BKN005 BKN010CB TEMPO 2512/2518 -SHRA BKN018CB
EPLK,TAF EPLK 241700Z 2418/2503 21004KT CAVOK TEMPO 2421/2503 6000 SHRA BKN030CB
EPLL,TAF EPLL 241730Z 2418/2518 19003KT CAVOK TEMPO 2419/2507 3000 SHRA BR BKN020CB PROB40 TEMPO 2422/2507 BKN005 BKN010 BECMG 2506/2509 27010KT PROB40 TEMPO 2509/2518 -SHRA BKN018CB
EPLY,TAF EPLY 241700Z 2418/2503 21006KT CAVOK PROB30 TEMPO 2421/2503 5000 -SHRA BR BKN020CB
EPMB,TAF EPMB 241700Z 2418/2503 15006KT 9999 SCT100 PROB30 2418/2503 5000 BR
EPMI,TAF EPMI 241700Z 2418/2503 20006KT CAVOK PROB30 TEMPO 2418/2503 5000 SHRA BR BKN005 BKN030CB
EPMM,TAF EPMM 241700Z 2418/2503 21004KT 5000 MIFG BR NSC PROB30 2419/2424 1500 BR BKN005 BECMG 2423/2502 1000 RA BR BKN003 OVC012
EPOK,TAF EPOK 241700Z 2418/2503 17010KT 9999 SCT008 BKN012 BECMG 2418/2421 23010KT SCT030
EPPO,TAF EPPO 241730Z 2418/2518 23006KT CAVOK TEMPO 2418/2420 SHRA BKN033CB TEMPO 2507/2516 SHRA BKN020CB
EPPR,TAF EPPR 241100Z 2412/2424 18005KT 5000 BR BKN007
EPPW,TAF EPPW 241700Z 2418/2503 20008KT CAVOK PROB30 TEMPO 2418/2422 5000 -SHRA BKN030CB
EPRA,TAF EPRA 241700Z 2418/2503 23004KT 8000 NSC BECMG 2500/2502 5000 BR BKN005
EPRZ,TAF EPRZ 241730Z 2418/2518 21007KT CAVOK TEMPO 2501/2507 4000 SHRA BKN007 BKN013CB BECMG 2503/2506 27010KT PROB40 TEMPO 2503/2508 2500 -RA BR BKN004 TEMPO 2514/2518 4000 SHRA BKN013 BKN020CB PROB30 TEMPO 2514/2517 28015G25KT TSRA
EPSN,TAF EPSN 241700Z 2418/2503 20008KT CAVOK BECMG 2419/2422 6000 SCT013
EPSY,TAF AMD EPSY 241900Z 2419/2503 16006KT 4000 BR BKN006 TEMPO 2419/2422 0800 FG BKN003 TEMPO 2419/2421 0400 FG OVC001 PROB40 TEMPO 2421/2503 2000 RA BR BKN003
EPTM,TAF EPTM 241700Z 2418/2503 20006KT CAVOK PROB30 TEMPO 2421/2503 5000 -SHRA BR BKN015CB
EPWA,TAF EPWA 241730Z 2418/2518 19005KT CAVOK PROB40 2418/2421 2000 BR TEMPO 2421/2509 3000 SHRA BR BKN020CB PROB40 TEMPO 2500/2509 BKN005 BKN010 BECMG 2508/2511 27010KT PROB40 TEMPO 2509/2518 -SHRA BKN018CB
EPWR,TAF EPWR 241730Z 2418/2518 22008KT CAVOK TEMPO 2418/2503 4000 SHRA BKN033CB TEMPO 2509/2518 SHRA BKN026CB
EPZG,TAF EPZG 241730Z 2418/2503 20008KT CAVOK
ESGG,TAF ESGG 241730Z 2418/2518 16010KT 9999 BKN006 TEMPO 2418/2506 3000 SHRA SCT010 BKN025CB BECMG 2421/2424 22010KT 2000 BR BKN003 BECMG 2506/2508 BKN020 PROB40 2508/2518 SHRA BKN010 SCT020CB
ESGJ,TAF ESGJ 241730Z 2418/2501 16008KT 2500 -DZ BR BKN003 TEMPO 2418/2422 8000 BKN005 PROB40 2422/2501 6000 SHRA BR SCT005 BKN020CB
ESGP,TAF ESGP 241730Z 2418/2421 17008KT 9999 FEW010 BKN030 PROB40 2418/2421 4000 SHRA BR BKN009 BKN030CB
ESKN,TAF ESKN 241730Z 2418/2518 11012KT 9999 RA BKN007 TEMPO 2418/2422 2000 -RADZ BR BKN003 SCT040CB BECMG 2422/2424 4000 BR OVC003 TEMPO 2423/2507 1400 -RADZ BKN006 BECMG 2507/2509 8000 NSW SCT008 BKN015 TEMPO 2509/2518 SHRA BKN020TCU
ESMS,TAF ESMS 241712Z 2418/2518 20010KT 9999 BKN040 TEMPO 2418/2424 22015G25KT 4000 SHRA BKN012 SCT020CB BECMG 2500/2503 3000 BR BKN007 TEMPO 2503/2511 5000 BKN010 BECMG 2511/2513 26012KT 9999 NSW BKN020 TEMPO 2513/2518 SHRA FEW020CB
ESMX,TAF ESMX 241730Z 2418/2501 17005KT 2000 BR BKN002 TEMPO 2418/2421 6000 BKN005 PROB40 2421/2501 6000 SHRA SCT005 BKN020CB
ESNG,TAF ESNG 241730Z 2418/2421 VRB02KT CAVOK
ESNN,TAF ESNN 241730Z 2418/2501 33004KT 9999 BKN040 PROB40 2418/2424 BKN012
ESNQ,TAF ESNQ 241730Z 2418/2423 VRB03KT CAVOK
ESNS,TAF ESNS 241730Z 2418/2422 VRB02KT CAVOK
ESNU,TAF ESNU 241730Z 2418/2503 VRB02KT 9999 SCT015 PROB40 2419/2424 DZ BKN013
ESNX,TAF ESNX 241730Z 2418/2420 13003KT 9999 BKN035 BECMG 2419/2420 2500 -SN VV012
ESNZ,TAF ESNZ 241730Z 2418/2422 15010KT 9999 BKN010 TEMPO 2418/2422 BKN006
ESOE,TAF ESOE 241730Z 2418/2501 08010KT 9999 RA OVC005 TEMPO 2418/2501 2000 -RADZ BR BKN003
ESPA,TAF ESPA 241730Z 2418/2422 VRB02KT CAVOK
ESSA,TAF ESSA 241730Z 2418/2518 11008KT 8000 -RA BKN010 PROB40 2418/2421 3000 RADZ BR BKN005 TEMPO 2421/2501 2500 -RADZ BR BKN004 BECMG 2501/2503 1400 BR OVC003 PROB40 2503/2509 5000 -RADZ BKN006 BECMG 2509/2511 7000 -RADZ SCT005 BKN015 TEMPO 2514/2518 4000 SHRA BKN010 SCT020TCU
ESSB,TAF ESSB 241730Z 2418/2421 10007KT 7000 -DZ BKN008 PROB40 2418/2421 2500 RADZ BR BKN004
ESSL,TAF ESSL 241930Z 2420/2423 10010KT 9999 BKN007 PROB40 2420/2423 2000 -RADZ BR BKN004
ESSV,TAF ESSV 241730Z 2418/2420 12012KT 5000 -RA OVC003 PROB40 2418/2420 2000 DZ BR BKN007
ESTA,TAF ESTA 241710Z 2418/2423 16010KT 9999 SCT030 TEMPO 2418/2423 4000 SHRA BKN012 SCT030CB
ETAD,TAF AMD ETAD 241844Z 2418/2518 22010KT 9999 SCT030 QNH2987INS BECMG 2421/2422 23010KT 9999 BKN020 QNH2990INS BECMG 2503/2504 24008KT 3200 BR BKN008 QNH2995INS TEMPO 2504/2509 2400 BR BKN005 BECMG 2512/2513 22010G15KT 9999 NSW FEW015 BKN020 OVC050 QNH3000INS TX17/2514Z TN12/2503Z
ETAR,TAF ETAR 241800Z 2418/2524 22009KT 9999 SCT030 BKN040 QNH2990INS BECMG 2422/2423 22009KT 9999 BKN020 QNH2995INS BECMG 2501/2502 24009KT 9999 BKN015 QNH2999INS TEMPO 2506/2508 BKN009 BECMG 2510/2511 23009KT 9999 BKN025 QNH3007INS BECMG 2515/2516 22006KT 9999 SCT030 QNH3000INS TX17/2515Z TN12/2505Z
ETEB,TAF ETEB 241500Z 2415/2521 21010G15KT 9999 FEW020 BKN070 QNH2997INS BECMG 2421/2422 22009KT 9999 SCT015 BKN070 QNH3003INS BECMG 2508/2509 23010G15KT 9999 SCT015 BKN025 QNH3012INS BECMG 2513/2514 25009KT 9999 SCT040 QNH3009INS TX15/2515Z TN10/2505Z LAST NO AMDS AFT 2422 NEXT 2507
ETHA,TAF ETHA 241320Z 2414/2423 24010KT 9999 RA FEW010 BKN060 BECMG 2415/2417 25010KT 9999 NSW SCT100 BKN240
ETHB,TAF ETHB 241908Z 2420/2505 22012KT 9999 NSW SCT040 TEMPO 2420/2505 23015G25KT 4000 SHRA FEW015 BKN020CB
ETHC,TAF ETHC 241322Z 2414/2423 22015G25KT 9999 NSW SCT030 BKN040 PROB30 2414/2417 24015G28KT 5000 SHRA BKN030CB BECMG 2417/2419 22008KT 9999 NSW BKN040
ETHF,TAF ETHF 241320Z 2414/2423 20012KT 9999 NSW SCT030 BKN280 TEMPO 2417/2420 22015G25KT 8000 -SHRA SCT015 BKN025TCU
ETHL,TAF ETHL 241642Z 2417/2502 23010KT 9999 NSW FEW010 SCT060 BKN090 TEMPO 2420/2422 23007KT 7000 -RA SCT008 BKN150
ETHN,TAF ETHN 241300Z 2414/2423 20010KT 9999 NSW SCT040 BKN090 TEMPO 2414/2417 23015G25KT 5000 SHRA BKN015CB
ETHS,TAF ETHS 241315Z 2414/2423 23010KT 9999 NSW BKN040 TEMPO 2414/2417 23015G29KT 9000 -SHRA SCT020 BKN030
ETIC,TAF ETIC 241800Z 2418/2524 VRB06KT 9999 VCSH SCT015 BKN045 QNH2996INS BECMG 2504/2505 VRB06KT 3200 BR OVC010 QNH3003INS BECMG 2508/2509 26009KT 9999 NSW BKN035 QNH3009INS BECMG 2510/2511 25012KT 9999 SCT010 OVC020 510052 QNH3010INS BECMG 2521/2522 VRB06KT 8000 BR FEW010 SCT020 QNH3012INS TX14/2513Z TN08/2518Z
ETIK,TAF ETIK 241400Z 2414/2520 19009KT 9999 SCT050 BKN100 QNH2993INS BECMG 2502/2503 23009KT 6000 BR BKN020 QNH3002INS BECMG 2505/2506 23009KT 9999 NSW BKN015 QNH3006INS BECMG 2509/2510 25012KT 9999 SCT020 BKN030 QNH3010INS TX16/2512Z TN12/2503Z
ETMN,TAF AMD ETMN 241745Z 2417/2502 22015KT 9999 NSW SCT020 BKN035 TEMPO 2417/2421 23015G28KT 4000 SHRA SCT015 BKN020CB BY ETGG
ETNG,TAF ETNG 241700Z 2418/2509 23010G20KT 9999 BKN035 TEMPO 2418/2421 5000 SHRA SCT022TCU BKN030 PROB30 TEMPO 2418/2421 24015G27KT 3500 TSRA BKN018CB PROB30 TEMPO 2421/2506 7000 -SHRA BKN015
ETNH,TAF ETNH 241310Z 2414/2423 20012G22KT 9999 NSW BKN040 TEMPO 2414/2423 22015G25KT 5000 SHRA BKN020CB BY ETGL
ETNL,TAF ETNL 241616Z 2417/2505 22010G20KT 9999 NSW BKN070 PROB30 2417/2423 24015G25KT 5000 SHRA BKN020CB BY ETGL
ETNN,TAF ETNN 241302Z 2414/2423 20008G18KT 9999 NSW BKN040 TEMPO 2414/2417 22012G25KT 9999 NSW BKN030 BKN280 PROB30 2414/2420 24015G30KT 3000 SHRA BKN030CB BY ETGL
ETNS,TAF ETNS 241310Z 2414/2423 20015G25KT 9999 NSW BKN040 TEMPO 2414/2423 22015G30KT 5000 SHRA BKN020CB BY ETGL
ETNW,TAF ETNW 241603Z 2417/2517 23010KT 9999 NSW FEW030 SCT250 TEMPO 2417/2423 24018KT 4000 SHRA BKN020CB PROB30 2417/2423 25022KT 3000 TSRA BKN010CB PROB30 2423/2508 24015KT 4000 SHRA BKN020CB BECMG 2423/2501 22010KT 9999 NSW BKN030 BECMG 2506/2508 25010G20KT 9999 NSW SCT040 BY ETGL
ETOU,TAF ETOU 241200Z 2412/2518 23010G15KT 9999 SCT045 510006 QNH2986INS BECMG 2417/2418 22009KT 9999 SCT030 BKN040 QNH2990INS TEMPO 2419/2501 8000 -RA BECMG 2502/2503 VRB06KT 8000 BR SCT010 BKN015 QNH3000INS BECMG 2509/2511 VRB06KT 9999 NSW SCT020 BKN030 QNH3005INS TX18/2412Z TN12/2504Z
ETSB,TAF ETSB 241318Z 2414/2423 22015G25KT 9999 NSW BKN025 TEMPO 2414/2420 21020G30KT 4000 -SHRA BKN010 PROB30 2416/2418 VRB15G30KT 2000 TSRA BKN004 BKN010CB BY ETGL
ETSH,TAF ETSH 241301Z 2414/2423 21010KT 9999 NSW BKN120 BKN180 BY ETGL
ETSI,TAF ETSI 241311Z 2414/2423 21005KT 9999 NSW FEW010 BKN130 TEMPO 2414/2415 23010KT 6000 SHRA SCT015 BKN030TCU BKN110
ETSL,TAF ETSL 241318Z 2414/2423 18010KT 8000 -RA FEW030 BKN060 TEMPO 2414/2416 VRB15G25KT 4000 SHRA BKN040CB BECMG 2416/2418 21006KT 9999 NSW SCT060 BKN150 BY ETGL
ETSN,TAF ETSN 241915Z 2420/2505 19005KT 9999 NSW SCT050 SCT150 TEMPO 2423/2505 23003KT 3000 BCFG FEW050 SCT220 PROB30 2502/2505 VRB02KT 0500 FG SCT001 BY ETGL
EVLA,TAF EVLA 241705Z 2418/2518 13007KT 9999 OVC005 TEMPO 2418/2422 4000 RA BR BKN004 OVC012 TEMPO 2422/2508 0700 FG BKN001 BECMG 2508/2510 BKN020
EVRA,TAF EVRA 241701Z 2418/2518 13007KT 9999 OVC015 TEMPO 2418/2423 3000 RA BR BKN007 OVC013 TEMPO 2423/2515 2000 BR BKN002 OVC010 PROB40 TEMPO 2503/2509 0700 FG BKN001
EYKA,TAF EYKA 241701Z 2418/2518 VRB04KT 5000 BR OVC010 TEMPO 2418/2420 BKN005 OVC015 BECMG 2420/2421 OVC005 TEMPO 2421/2503 3000 BKN002 TEMPO 2503/2507 1500 SHRA BKN002 BKN015CB BECMG 2508/2510 8000 NSW BKN010 BECMG 2510/2512 BKN015 TEMPO 2515/2518 3000 SHRA SCT005 BKN018CB
EYPA,TAF EYPA 241701Z 2418/2518 14008KT 5000 BR OVC005 TEMPO 2418/2424 3000 OVC002 TEMPO 2500/2506 1500 DZ OVC002 BECMG 2506/2507 24010KT 8000 NSW SCT010 BKN015 TEMPO 2515/2518 5000 BR BKN005
EYSA,TAF EYSA 241701Z 2418/2503 VRB05KT 5000 BR OVC005 TEMPO 2418/2422 1500 DZ OVC002 BECMG 2422/2424 3000 TEMPO 2500/2503 1500 OVC002
EYVI,TAF EYVI 241702Z 2418/2518 VRB05KT 5000 BR OVC005 TEMPO 2418/2421 1500 DZ BKN002 BKN015 BECMG 2421/2422 3000 TEMPO 2422/2505 1500 OVC002 BECMG 2505/2506 6000 NSW TEMPO 2506/2510 3000 SHRA BKN002 BKN015CB TEMPO 2515/2518 1500 SHRA BKN002 BKN015CB
FABL,TAF FABL 241600Z 2418/2518 36005KT CAVOK TX29/2512Z TN13/2504Z PROB30 TEMPO 2418/2422 -TSRA FEW030CB BECMG 2420/2422 07010KT BECMG 2500/2502 01010KT BECMG 2512/2514 30015KT
FACT,TAF FACT 241600Z 2418/2524 19010KT 9999 SCT020 TX22/2512Z TN14/2504Z PROB30 TEMPO 2418/2422 BKN010 FM251200 18018KT 9999 FEW035 PROB30 TEMPO 2517/2520 BKN010
FAGG,TAF FAGG 241600Z 2418/2518 12008KT 9999 BKN008 TX20/2512Z TN15/2504Z PROB40 TEMPO 2418/2503 1500 BCFG BKN003 FM250700 22015KT 9999 FEW008 BKN018 PROB40 TEMPO 2508/2512 3000 DZ BKN008 BECMG 2516/2518 20005KT
FALA,TAF FALA 241600Z 2418/2518 VRB03KT CAVOK TX30/2512Z TN15/2504Z PROB40 TEMPO 2418/2424 5000 TSRA FEW030CB PROB30 TEMPO 2503/2506 5000 BR BKN009 BECMG 2507/2509 31012KT FM251100 31012KT 9999 SCT040 BECMG 2515/2517 VRB03KT CAVOK
FALE,TAF FALE 241600Z 2418/2524 VRB03KT 9999 SCT015 TX29/2512Z TN19/2503Z TEMPO 2418/2424 5000 TSRA BKN010 FEW030CB FM250800 06012KT CAVOK PROB30 TEMPO 2515/2520 5000 TSRA BKN015 FEW030CB
FAOR,TAF FAOR 241600Z 2418/2524 VRB03KT CAVOK TX27/2513Z TN14/2504Z PROB40 TEMPO 2418/2422 -TSRA FEW030CB PROB30 TEMPO 2503/2506 5000 BR BKN006 BECMG 2505/2507 31015KT FM251100 31015KT 9999 SCT045 PROB30 TEMPO 2512/2518 TS FEW045CB FM251600 23009KT CAVOK
FAPE,TAF FAPE 241600Z 2418/2518 11010KT 9999 FEW012 TX22/2512Z TN17/2503Z BECMG 2419/2421 BKN008 TEMPO 2421/2504 2000 BR BKN004 BECMG 2422/2424 25008KT PROB40 TEMPO 2504/2508 4000 -RA BKN005 BECMG 2509/2511 23017KT BKN030 BECMG 2513/2515 SCT030
FAPM,TAF FAPM 240900Z 2410/2421 VRB02KT 9999 SCT035 TX26/2412Z TN17/2421Z BECMG 2410/2412 13010KT TEMPO 2412/2418 5000 TSRA BKN015 FEW035CB
FAUP,TAF FAUP 241600Z 2418/2518 27010KT CAVOK TX33/2513Z TN16/2504Z
FBKE,FBKE 241200Z 2415/2424 VRB03KT CAVOK
FBMN,FBMN 241600Z 2418/2518 08005KT CAVOK BECMG 2511/2513 FEW035CB
FBPM,FBPM 241600Z 2418/2518 VRB03KT CAVOK BECMG 2504/2506 07010KT BECMG 2510/2512 FEW025CB
FBSK,TAF COR FBSK 241735Z 2418/2524 12006KT 9999 FEW035CB BECMG 2500/2502 CAVOK BECMG 2511/2513 FEW035CB
FCBB,TAF FCBB 241700Z 2418/2524 24006KT 8000 SCT016 BECMG 2423/2501 SCT010 FEW026CB PROB30 TEMPO 2501/2506 -TSRA BECMG 2506/2508 SCT016
FCPP,TAF FCPP 241700Z 2418/2518 19008KT 8000 SCT010 BKN023 FEW028CB TEMPO 2418/2419 VRB15G30KT TS TEMPO 2419/2421 2600 TSRA BKN006 OVC020 SCT026CB TEMPO 2421/2502 -TSRA BECMG 2504/2506 FEW010 BKN020
FEFF,TAF FEFF 241100Z 2412/2518 VRB03KT 9999 SCT023 FEW040CB TEMPO 2414/2418 VRB15KT 4000 TSRA BECMG 2418/2419 BKN010 BECMG 2420/2422 CAVOK
FGBT,TAF FGBT 241700Z 2418/2518 24008KT 9999 SCT010 PROB40 TEMPO 2505/2510 TS BKN008 FEW018CB PROB40 TEMPO 2513/2518 3000 TSRA BKN008 FEW018CB
FGSL,TAF FGSL 241700Z 2418/2524 25008KT 9999 SCT010 PROB40 TEMPO 2420/2422 TS BKN010 FEW018CB PROB30 TEMPO 2504/2509 4000 TSRADZ BKN008 FEW018CB TEMPO 2511/2516 3000 TSRA BKN010 FEW018CB
FIMP,TAF COR FIMP 241710Z 2418/2600 07005KT 9999 SCT016 BKN050 PROB30 TEMPO 2418/2503 VRB02KT
FIMR,TAF FIMR 241715Z 2418/2512 09014G25KT 9999 SCT018 TEMPO 2419/2512 7000 -SHRA BKN015
FJDG,TAF AMD FJDG 241701Z 2417/2523 14015KT 9999 SCT028 BKN230 QNH2984INS TEMPO 2417/2423 9000 BR TX33/2509Z TN26/2500Z FOR MIL USE ONLY
FKKD,TAF COR FKKD 241700Z 2418/2524 VRB03KT 9999 TS BKN016 FEW020CB BECMG 2418/2420 BKN013 FEW016CB TEMPO 2419/2423 4000 TSRA BECMG 2422/2424 NSW BECMG 2508/2510 BKN016 FEW020CB TEMPO 2514/2518 TS
FKYS,TAF COR FKYS 241700Z 2418/2518 VRB03KT 9999 TS BKN013 FEW016CB BECMG 2420/2422 NSW BKN006 TEMPO 2504/2507 2000 BR BECMG 2508/2510 BKN016 TEMPO 2516/2518 TS BKN016 FEW020CB
FMCH,FMCH 241100Z 2412/2518 12015KT 9999 FEW020 BECMG 2415/2417 10003KT BECMG 2504/2506 14014KT
FMCZ,FMCZ 241700Z 2418/2518 08010KT 9999 BKN021 TEMPO 2423/2502 4500 SHRA
FMEE,TAF FMEE 241700Z 2418/2524 15006KT 9999 SCT025 BKN045 TEMPO 2418/2503 4000 SHRA SCT021TCU BECMG 2503/2505 09010KT BECMG 2516/2518 15008KT
FMEP,TAF FMEP 241100Z 2412/2421 20006KT 9999 SCT040
FMMI,TAF AMD FMMI 241740Z 2418/2524 18010KT 9999 SCT017CB PROB30 TEMPO 2418/2420 4500 RA BECMG 2419/2421 08004KT FEW017 SCT020 PROB30 2500/2505 2000 BR BECMG 2508/2510 BKN020CB PROB40 TEMPO 2511/2522 VRB15G25KT 4000 TSRA
FMMS,TAF FMMS 241700Z 2418/2518 08010KT 9999 SCT017 SCT033 BECMG 2421/2424 34005KT BECMG 2506/2508 06012KT
FMMT,TAF FMMT 241700Z 2418/2518 04010KT 9999 SCT017CB BECMG 2420/2422 34005KT SCT017 BECMG 2504/2506 04010KT
FMNA,TAF FMNA 241700Z 2418/2518 14010KT 9999 FEW020
FMNM,TAF FMNM 241700Z 2418/2518 30012KT 9999 FEW020 BECMG 2420/2422 VRB02KT SCT020CB PROB30 TEMPO 2500/2506 4500 TSRA BECMG 2506/2508 32012KT FEW020
FMNN,TAF FMNN 241700Z 2418/2518 22002KT 9999 SCT020 SCT040 PROB40 TEMPO 2420/2504 4500 SHRA BECMG 2508/2510 30010KT
FMSD,TAF FMSD 241700Z 2418/2518 24010KT 9999 SCT017CB SCT033 PROB30 TEMPO 2418/2420 4500 TSRA BECMG 2420/2422 00000KT SCT017 SCT033 PROB30 TEMPO 2500/2505 4500 SHRA BECMG 2504/2506 12010KT BECMG 2515/2517 06006KT
FMST,TAF FMST 241700Z 2418/2518 16008KT 9999 FEW020 FEW020 BECMG 2508/2510 24012KT
FNBG,TAF FNBG 241055Z 2412/2424 28012KT 9999 BKN022 PROB30 TEMPO 2416/2420 FEW020 FEW022TCU
FNCA,TAF FNCA 241055Z 2412/2424 20006KT 8000 BKN015 PROB30 TEMPO 2412/2416 3000 TSRA BKN010 FEW020CB
FNCT,TAF FNCT 241055Z 2412/2424 27011KT 9999 BKN020 PROB30 TEMPO 2417/2421 SCT018 FEW022TCU
FNDU,TAF FNDU 241055Z 2412/2424 VRB03KT 9999 FEW018 BECMG 2413/2415 SCT020 FEW025CB PROB30 TEMPO 2416/2420 5000 DZ BECMG 2422/2424 4000 RA
FNGI,TAF FNGI 241055Z 2412/2424 VRB03KT CAVOK BECMG 2412/2414 9999 SCT025 BECMG 2422/2424 33011KT
FNHU,TAF FNHU 241055Z 2412/2424 VRB03KT 9999 BKN015 PROB40 TEMPO 2412/2418 4000 TSRA FEW016CB BECMG 2422/2424 FEW010
FNKU,TAF FNKU 241055Z 2412/2424 VRB03KT 9999 FEW022 PROB40 TEMPO 2413/2417 4000 -TSRA SCT025 FEW030CB BECMG 2419/2421 FEW012 BKN025
FNLU,TAF FNLU 241700Z 2418/2524 23012KT 9999 SCT020 PROB30 TEMPO 1004/1009 5000 DZ OVC018
FNMA,TAF FNMA 241055Z 2412/2424 VRB02KT 9999 BKN016 PROB30 TEMPO 2412/2416 5000 DZ PROB40 TEMPO 2416/2421 2000 TS SHRA BKN006 FEW020CB
FNME,TAF FNME 241055Z 2412/2424 08008KT 9999 FEW025 PROB30 TEMPO 2414/2418 5000 -RA SCT025 FEW030CB BECMG 2419/2421 SCT015
FNMO,TAF FNMO 241055Z 2412/2424 25011KT 9999 FEW010 BKN025
FNSA,TAF FNSA 241055Z 2412/2424 36005KT 9999 BKN030 PROB30 TEMPO 2413/2417 4000 -RA BKN025 FEW030CB BECMG 2421/2423 19010KT
FNSO,TAF FNSO 241055Z 2412/2424 20009KT 6000 DZ SCT010 FEW022CB BKN035 PROB40 TEMPO 2412/2416 4000 TSRA BECMG 2417/2419 9000 OVC010
FNUB,TAF FNUB 241055Z 2412/2424 VRB03KT 9999 BKN030 PROB40 TEMPO 2412/2416 3000 TS SHRA BKN030 FEW035CB TEMPO 2418/2422 4000 -RA
FNUE,TAF FNUE 241055Z 2412/2424 VRB03KT 9999 SCT035 PROB40 TEMPO 2414/2419 35008KT 3000 RA SCT030 FEW035CB
FOOG,TAF FOOG 241700Z 2418/2518 21012KT 9999 SCT011 FEW020CB TEMPO 2420/2422 TS TEMPO 2423/2506 4000 TSRA BKN008 FEW018CB
FOOL,TAF FOOL 241700Z 2418/2524 25006KT 9999 SCT011 FEW020CB TEMPO 2419/2421 TS TEMPO 2422/2504 4000 TSRA BKN008 FEW018CB
FPST,TAF FPST 232200Z 2400/2506 27002KT 9999 FEW020CB SCT040 BECMG 2403/2405 18010KT BKN033 TEMPO 2406/2410 TS FEW017CB
FQBR,TAF FQBR 241600Z 2418/2524 10017KT 9999 BKN018 TX32/2513Z TN23/2503Z BECMG 2503/2505 01010KT BECMG 2514/2516 08015KT
FQCH,TAF FQCH 241600Z 2418/2518 19009KT 9999 SCT015 FEW020CB TX32/2513Z TN19/2503Z BECMG 2421/2423 13004KT PROB30 TEMPO 2500/2506 3000 BR SCT015 BECMG 2505/2507 VRB03KT BECMG 2512/2514 07010KT
FQIN,TAF FQIN 241600Z 2418/2518 04010KT 9999 FEW020 TX31/2513Z TN23/2503Z BECMG 2503/2505 34005KT PROB30 TEMPO 2506/2512 5000 DZ SCT015 BECMG 2512/2514 08014KT
FQLC,TAF FQLC 241600Z 2418/2518 23007KT 9999 SCT016 TX31/2513Z TN13/2503Z BECMG 2500/2502 02008KT BECMG 2506/2508 10015KT BECMG 2512/2514 24007KT
FQMA,TAF FQMA 241600Z 2418/2524 15015KT 2000 TSRA BKN015 OVC025 FEW030CB TX32/2513Z TN21/2503Z BECMG 2500/2502 VRB03KT BECMG 2510/2512 35012KT BECMG 2516/2518 06010G20KT
FQNC,TAF FQNC 241600Z 2418/2524 03012KT 9999 FEW020 SCT100 TX35/2513Z TN19/2503Z BECMG 2500/2502 32010KT BECMG 2506/2508 07015KT BECMG 2513/2515 08012G22KT
FQNP,TAF FQNP 241600Z 2418/2518 06015KT 9999 FEW020 TX35/2513Z TN19/2503Z BECMG 2506/2508 36008KT BECMG 2512/2514 08010G20KT
FQPB,TAF FQPB 241600Z 2418/2518 05012KT 9999 FEW020 TX30/2513Z TN23/2503Z BECMG 2511/2513 35015KT
FQQL,TAF FQQL 241600Z 2418/2518 10018KT CAVOK TX33/2513Z TN24/2503Z BECMG 2422/2500 03006KT BECMG 2513/2515 10015G25KT
FQTT,TAF FQTT 241600Z 2418/2518 15010KT 9000 FEW020 TX41/2513Z TN26/2503Z BECMG 2512/2514 22010KT
FQVL,TAF FQVL 241600Z 2418/2518 07009KT 9999 FEW020 TX30/2513Z TN25/2503Z PROB40 TEMPO 2502/2507 5000 DZ SCT015 BECMG 2506/2508 36005KT BECMG 2513/2515 08010KT
FQXA,TAF FQXA 241600Z 2418/2518 09009KT 9999 BKN020 FEW025CB TX33/2513Z TN21/2503Z PROB30 TEMPO 2418/2424 5000 TSRA SCT015 BKN015 FEW020CB BECMG 2506/2508 34008KT BECMG 2515/2517 11010KT
FSIA,TAF FSIA 241702Z 2418/2518 13010KT 9999 SCT021
FTTJ,TAF FTTJ 241700Z 2418/2524 VRB04KT 8000 NSC TEMPO 2508/2513 04012KT
FWCL,TAF FWCL 240900Z 2412/2518 11006KT 9999 SCT025 BECMG 2418/2420 09007KT CAVOK BECMG 2512/2514 04006KT 9999 SCT020
FWKI,TAF FWKI 241400Z 2418/2524 10014KT CAVOK BECMG 2508/2510 9999 FEW040 FM251300 09008KT CAVOK
FYGF,TAF FYGF 241700Z 2418/2503 28003KT 9999 FEW035CB SCT040 PROB30 TEMPO 2419/2421 -TSRA
FYKM,TAF FYKM 241700Z 2418/2503 27006KT 9999 SCT040 BECMG 2419/2421 CAVOK
FYLZ,TAF FYLZ 241700Z 2418/2503 19004KT CAVOK
FYRU,TAF FYRU 241700Z 2418/2503 35007KT 9999 FEW035CB SCT040TCU PROB30 TEMPO 2419/2422 -TSRA
FYWB,TAF FYWB 241600Z 2418/2518 29007KT CAVOK BECMG 2419/2421 29005KT BKN012 BECMG 2500/2501 06004KT OVC008
FYWE,TAF FYWE 241700Z 2418/2503 00000KT 9999 SCT050 BECMG 2420/2422 22010KT NSC
FYWH,TAF FYWH 241600Z 2418/2518 31003KT 9999 FEW035CB SCT045 PROB30 TEMPO 2418/2419 -TSRA BECMG 2419/2421 21010KT NSC
FZAA,TAF FZAA 241100Z 2412/2518 09018KT 2000 TSRASQ SCT012 FEW026CB FM 241600 30010KT 6000 SCT018 BECMG 2419/2421 18004KT PROB30 TEMPO 2422/2503 4000 TSRA SCT014 FEW026CB BECMG 2511/2513 34010KT SCT020 FEW030CB
FZNA,TAF FZNA 240500Z 2406/2512 09006KT 8000 SCT016 BECMG 2409/2411 23010KT SCT018 FEW022CB PROB30 TEMPO 2412/2417 TS BECMG 2418/2420 05004KT SCT014 BECMG 2508/2510 18010KT SCT016 FEW020CB
FZQA,TAF FZQA 240500Z 2406/2512 36005KT 7000 SCT014 BECMG 2410/2412 25010KT SCT022 FEW028CB PROB30 TEMPO 2413/2417 TS BECMG 2420/2422 VRB03KT NSC
GABS,TAF GABS 241700Z 2418/2524 36006KT 9999 FEW020 TEMPO 2418/2420 TS SCT020 FEW033CB PROB40 TEMPO 2506/2510 4000 HZ
GAGO,TAF GAGO 241700Z 2418/2518 08010G20KT 6000 NSC TEMPO 2506/2512 4000 DU
GBYD,TAF GBYD 241700Z 2418/2524 02008KT 9999 SCT012
GCFV,TAF GCFV 241400Z 2415/2515 06006KT 9999 FEW020 TX25/2514Z TN21/2506Z PROB30 TEMPO 2417/2424 34010KT
GCGM,TAF GCGM 241400Z 2415/2515 23009KT 9999 FEW020 TX24/2514Z TN21/2506Z
GCHI,TAF GCHI 241400Z 2415/2515 34010KT 9999 SCT030 TX25/2514Z TN21/2506Z
GCLA,TAF GCLA 241400Z 2415/2515 VRB05KT 9999 SCT030 TX25/2514Z TN20/2506Z
GCLP,TAF GCLP 241400Z 2415/2515 07007KT 9999 FEW025 TX25/2514Z TN20/2506Z BECMG 2418/2421 36011KT
GCRR,TAF GCRR 241400Z 2415/2515 11008KT 9999 FEW020 TX24/2514Z TN20/2506Z BECMG 2417/2420 34012KT
GCTS,TAF AMD GCTS 241557Z 2415/2515 16006KT 9999 BKN030 TX26/2514Z TN21/2506Z PROB40 TEMPO 2415/2418 27010KT BECMG 2419/2422 05010KT PROB40 TEMPO 2422/2504 32004KT
GCXO,TAF AMD GCXO 241642Z 2416/2515 31007KT 9999 FEW015 TX23/2514Z TN16/2506Z PROB40 TEMPO 2416/2419 BKN012 PROB30 TEMPO 2419/2509 BKN008
GECE,TAF GECE 241400Z 2415/2515 12005KT 9999 FEW020 TX25/2513Z TN18/2507Z PROB30 TEMPO 2422/2510 4000 BR BKN010
GEML,TAF GEML 241700Z 2418/2518 07005KT 9999 FEW012 TX31/2514Z TN22/2507Z PROB40 TEMPO 2500/2510 3000 BR BKN008
GFLL,TAF GFLL 241700Z 2418/2524 30006KT 9999 BKN013 TEMPO 2500/2506 VRB03KT 5000 BR BKN008 BECMG 2513/2515 06005KT 9999 SCT013 TEMPO 2519/2523 27006KT 8000 -TSRA BKN010 FEW026CB
GGOV,TAF GGOV 241700Z 2418/2518 VRB05KT 8000 SCT012 TEMPO 2516/2518 4000 TSRA BKN010 FEW015CB
GLRB,TAF GLRB 240500Z 2406/2506 22009KT 9999 BKN016 BECMG 2407/2409 08003KT 7000 -TSRA BKN010 FEW020CB TEMPO 2412/2416 22010KT 9999 BKN016 FEW025CB
GMAD,TAF GMAD 241700Z 2418/2524 18008KT CAVOK
GMAG,TAF GMAG 241700Z 2418/2524 12014KT 8000 NSC
GMFF,TAF GMFF 241700Z 2418/2524 10005KT CAVOK
GMFK,TAF GMFK 241700Z 2418/2524 18004KT CAVOK
GMFM,TAF GMFM 241700Z 2418/2524 33009KT CAVOK TEMPO 2420/2510 18008KT
GMFO,TAF GMFO 241700Z 2418/2524 15006KT CAVOK PROB30 TEMPO 2423/2512 19016KT
GMME,TAF GMME 241700Z 2418/2524 14006KT 6000 NSC BECMG 2508/2512 32010KT SCT013 BKN015
GMMH,TAF GMMH 241700Z 2418/2524 01015KT CAVOK PROB30 2500/2508 3000 BR OVC006
GMMI,TAF GMMI 241700Z 2418/2524 30005KT 8000 NSC
GMML,TAF GMML 241700Z 2418/2524 35011KT CAVOK PROB30 2502/2506 4000 BR
GMMN,TAF GMMN 241700Z 2418/2524 34010KT CAVOK BECMG 2421/2424 12006KT BECMG 2511/2514 36010KT
GMMW,TAF GMMW 241700Z 2418/2524 06008KT CAVOK PROB30 2500/2506 4000 BR
GMMX,TAF GMMX 241700Z 2418/2524 24006KT CAVOK TEMPO 2418/2423 34016KT
GMMZ,TAF GMMZ 241700Z 2418/2524 16007KT 9999 FEW030 SCT100
GMTA,TAF GMTA 241700Z 2418/2524 VRB02KT 9999 FEW010 BKN200 BECMG 2418/2420 FEW030
GMTT,TAF GMTT 241700Z 2418/2524 07006KT CAVOK
GOBD,TAF GOBD 241700Z 2418/2524 22010KT 9999 SCT015
GOGS,TAF GOGS 241700Z 2418/2518 VRB03KT 9999 SCT013
GOOY,TAF GOOY 241700Z 2418/2524 20010KT 9999 SCT013
GOSS,TAF GOSS 241700Z 2418/2518 30010KT CAVOK
GQNO,TAF GQNO 241700Z 2418/2524 30012KT 8000 NSC PROB30 TEMPO 2500/2506 4000 BR BKN010
GQPP,TAF GQPP 241700Z 2418/2518 34014KT 2500 BR BKN006 PROB40 TEMPO 2421/2506 0800 FG BECMG 2509/2511 6000 NSW FEW006
GUCY,TAF COR GUCY 240500Z 2406/2512 28006KT 9999 SCT015 SCT110 BECMG 2406/2410 07004KT SCT015 FEW023CB PROB30 TEMPO 2502/2507 08012KT 5000 -TSRA BKN012 FEW023CB BKN100
GVAC,TAF GVAC 241700Z 2418/2524 05008KT 9999 SCT014
GVBA,TAF GVBA 241100Z 2412/2518 06010KT 9999 SCT014 TEMPO 2412/2418 BKN014
GVNP,TAF GVNP 241700Z 2418/2524 03008KT 9999 FEW016
GVSV,TAF GVSV 241700Z 2418/2524 06012KT 9999 FEW020
HAAB,TAF HAAB 241500Z 2418/2524 17007KT 9999 SCT030 SCT090 BECMG 2418/2420 09006KT SCT025 BKN080
HADR,TAF HADR 241500Z 2418/2524 06007KT 9999 SCT030 BKN090 TEMPO 2418/2420 18006KT 9000-RA SCT020 BKN030
HBBA,TAF HBBA 241700Z 2418/2524 00000KT CAVOK BECMG2502/2504 36003KT 9999 FEW025 BECMG2507/2509 18010KT BECMG2517/2519 00000KT CAVOK
HCMM,TAF HCMM 241100Z 2412/2518 16010KT 9999 SCT024 BECMG 2501/2503 BKN018 BECMG 2506/2509 FEW024
HDAM,TAF HDAM 241700Z 2418/2518 10010KT 9999 SCT023 SCT133 BECMG 2500/2506 14010KT 9999 SCT023 FEW133 BECMG 2506/2512 08010KT SCT023 SCT133
HEAL,TAF HEAL 241700Z 2418/2524 35010KT 9999 FEW020
HEAR,TAF HEAR 241700Z 2418/2524 34011KT 9999 BKN020 PROB30 TEMPO 2418/2424 6000 RA
HEAT,TAF HEAT 241700Z 2418/2524 34014KT 9999 SCT030
HEAX,TAF HEAX 241700Z 2418/2524 34008KT 9999 FEW020
HEBA,TAF HEBA 241700Z 2418/2524 34009KT 9999 FEW020
HEBL,TAF HEBL 241700Z 2418/2524 32010KT CAVOK
HECA,TAF COR HECA 241701Z 2418/2524 02012KT 9999 SCT025 TEMPO 2511/2521 6000 RA BKN025 TEMPO 2512/2518 TSRA SCT020CB
HEGN,TAF HEGN 241700Z 2418/2524 36015KT CAVOK
HELX,TAF HELX 241700Z 2418/2524 30008KT CAVOK
HEMA,TAF HEMA 241700Z 2418/2524 36008G20KT CAVOK
HEMM,TAF HEMM 241700Z 2418/2524 35010KT 9999 FEW020
HEOW,TAF HEOW 241700Z 2418/2524 36015KT 6000 NSC
HEPS,TAF HEPS 241700Z 2418/2524 35012KT 9999 SCT025 BKN030 TEMPO 2506/2524 6000 RA BKN025 TEMPO 2510/2524 4000 TSRA SCT020CB
HESC,TAF HESC 241700Z 2418/2524 01013KT 9999 SCT020
HESG,TAF HESG 241700Z 2418/2524 32012KT CAVOK
HESH,TAF HESH 241700Z 2418/2524 03016KT CAVOK
HESN,TAF HESN 241700Z 2418/2524 35010KT CAVOK
HETB,TAF HETB 241700Z 2418/2524 35014KT 9999 SCT020
HETR,TAF HETR 241700Z 2418/2524 28010G24KT CAVOK
HKEL,TAF HKEL 241100Z 2412/2518 13010KT 9999 FEW024CB SCT025 BECMG 2420/2423 CAVOK BECMG 2503/2507 9999 SCT024 BECMG 2510/2514 FEW023CB SCT024
HKJK,TAF HKJK 241100Z 2412/2518 08010KT 9999 SCT027 BECMG 2420/2423 BKN017 BECMG 2508/2511 SCT027
HKKI,TAF HKKI 241700Z 2418/2524 24010KT 9999 FEW022CB SCT023 BECMG 2503/2507 21010KT FEW025CB SCT026 TEMPO 2513/2517 FEW024CB BECMG 2520/2523 CAVOK
HKML,TAF HKML 241700Z 2418/2518 16010KT 9999 FEW022 BECMG 2500/2503 00000KT FEW019 BECMG 2509/2512 15010KT SCT025
HKMO,TAF HKMO 241700Z 2418/2524 15010KT 9999 FEW022 BECMG 2500/2503 24005KT FEW020 BKN080 BECMG 2509/2512 15010KT SCT026 BECMG 2521/2524 25005KT FEW020
HKNW,TAF HKNW 240500Z 2406/2506 09010KT 9999 BKN018 BECMG 2408/2411 BKN026 BECMG 2420/2423 VRB04KT SCT020
HLGD,TAF HLGD 240500Z 2406/2506 20010KT 8000 FEW030 BECMG 2412/2414 35010KT BECMG 2420/2422 VRB02KT BECMG 2503/2505 23010KT
HLGT,TAF HLGT 240500Z 2406/2506 VRB02KT CAVOK BECMG 2414/2416 08010KT BECMG 2421/2423 VRB02KT
HLKF,TAF HLKF 240500Z 2406/2506 35012KT CAVOK BECMG 2421/2423 VRB02KT BECMG 2503/2505 36010KT
HLLB,TAF HLLB 240500Z 2406/2506 35012KT 8000 SCT020
HLLM,TAF HLLM 240500Z 2406/2506 17010KT 8000 FEW030 BECMG 2408/2410 VRB02KT BECMG 2502/2504 16010KT
HLLQ,TAF HLLQ 240500Z 2406/2506 34012KT 8000 SCT023 BECMG 2420/2422 VRB02KT TEMPO 2500/2506 4000 BR
HLLS,TAF HLLS 240500Z 2406/2506 VRB02KT 8000 CAVOK BECMG 2412/2414 03010KT BECMG 2420/2422 VRB02KT
HLMS,TAF HLMS 240500Z 2406/2506 18010KT 8000 FEW030 BECMG 2412/2414 36010KT BECMG 2418/2420 VRB02KT
HLON,TAF HLON 240500Z 2406/2506 VRB02KT CAVOK
HLTD,TAF HLTD 240500Z 2406/2506 VRB02KT CAVOK
HLTQ,TAF HLTQ 240500Z 2406/2506 35012KT 8000 SCT030
HLUB,TAF HLUB 240500Z 2406/2506 VRB02KT CAVOK BECMG 2412/2414 06010KT BECMG 2421/2423 VRB02KT BECMG 2503/2505 03010KT
HRYR,HRYR 241700Z 2418/2524 02008KT 9999 SCT025 BECMG 2520/2523 30006KT BECMG 2508/2510 09008KT BECMG 2514/2517 02010G20KT FEW023CB SCT025 BECMG 2520/2523 27006KT SCT026
HRZA,HRZA 241100Z 2412/2518 17006KT 9999 SCT025 TEMPO 2413/2417 25008KT TS FEW023CB BKN025 BECMG 2421/2423 32005KT SCT025 BECMG 2502/2504 30004KT 9000 BECMG 2506/2508 06004KT 9999 BKN025 TEMPO 2511/2515 13010KT -TSRA FEW023CB BKN025
HSSJ,TAF HSSJ 240500Z 2406/2512 05005KT 9999 FEW040 SCT140 BECMG 2408/2410 13005KT 9999 SCT040 BKN140 TEMPO 2410/2416 18005G15KT 6000 TSRA FEW045CB BKN090
HTAR,HTAR 241700Z 2418/2518 09015KT 9999 NSC BECMG 2500/2502 SCT020
HTDA,TAF HTDA 241700Z 2418/2524 11010KT 9999 SCT013 BECMG 2506/2509 BKN022
HTDO,HTDO 241700Z 2418/2518 09015KT 050V140 9999 FEW026
HTKJ,TAF HTKJ 241100Z 2412/2512 09015KT 9999 SCT038
HTMW,HTMW 241700Z 2418/2518 00000KT 9999 FEW021 FEW022CB BECMG 2504/2506 12010KT BECMG 2511/2513 33010KT
HTTB,HTTB 241700Z 2418/2518 10010KT 9999 FEW025
HTZA,HTZA 241700Z 2418/2518 12005KT 9999 FEW016 BECMG 2502/2504 22010KT SCT018 BKN070 BECMG 2510/2512 12015KT
HUEN,TAF HUEN 241700Z 2418/2524 35008KT CAVOK TEMPO 2501/2504 VRB08KT 9999 FEW020 FEW022CB BECMG 2509/2517 16010KT 
HUSO,TAF HUSO 241050Z 2412/2512 16006KT 9999 FEW021 FEW023CB FM 241500 23005KT FEW020 FEW022CB BECMG 2502/2506 02004KT CAVOK BECMG 2508/2512 09007KT FEW021 FEW023CB
KABE,KABE 241918Z 2419/2518 04008KT 6SM BR OVC010 TEMPO 2419/2423 4SM -DZ BR OVC008 FM242300 04005KT 6SM BR OVC006 TEMPO 2500/2503 4SM -RA BR OVC004 FM250300 VRB03KT 2SM -DZ BR OVC004 FM251400 VRB03KT 6SM BR OVC006 FM251600 09005KT P6SM OVC008
KABI,KABI 241741Z 2418/2518 18007KT P6SM BKN090 FM242000 24015G24KT P6SM BKN120 FM242300 28023G32KT P6SM BKN250
KABQ,KABQ 241722Z 2418/2518 30020G30KT P6SM SCT040 BKN060 FM242000 32025G35KT P6SM SCT070 FM250200 33012G22KT P6SM FEW090 FM250600 34007KT P6SM SKC
KABR,KABR 241720Z 2418/2518 25022G32KT P6SM OVC029 FM242300 28017G27KT P6SM BKN023 FM250400 28010G19KT P6SM OVC017 FM251100 26006KT P6SM FEW090
KABY,KABY 241723Z 2418/2518 12006KT P6SM FEW250 FM250100 VRB03KT P6SM FEW200 FM251600 16008KT P6SM FEW040
KACK,KACK 241720Z 2418/2518 12007KT 1SM BR VCSH OVC003 FM241900 12007KT 1/2SM FG VCSH OVC003 FM242300 12007KT 1 1/2SM BR OVC003 FM251300 09007KT 4SM BR BKN008
KACT,KACT 241737Z 2418/2518 31010KT 6SM -SHRA OVC015 FM242100 22008KT P6SM VCTS BKN015CB FM250000 16012KT P6SM BKN040 FM250300 22010KT P6SM VCTS BKN035CB FM250600 29017KT P6SM VCSH SCT070 FM250900 29020G30KT P6SM SCT040
KACV,KACV 241741Z 2418/2518 15004KT P6SM VCSH OVC030 FM242000 18006KT 6SM -RA OVC020 FM250300 VRB02KT 4SM BR OVC010 FM250500 VRB01KT 1SM BR OVC015 FM251200 08003KT P6SM BKN100
KACY,KACY 241910Z 2419/2518 03008KT 5SM BR OVC005 TEMPO 2419/2422 2SM -DZ BR OVC003 FM242200 03005KT 3SM BR OVC003 TEMPO 2500/2503 1SM -RA BR OVC003 FM250300 VRB03KT 2SM -DZ BR OVC003 FM251400 10005KT 6SM BR OVC005
KADF,KADF 241724Z 2418/2518 16011G19KT P6SM VCSH SCT025 BKN050 FM242300 17009KT 6SM -TSRA BR SCT009 OVC025CB FM250800 21009G17KT 6SM -RA BR OVC010 FM251200 23008KT 6SM -RA BR OVC007
KADW,TAF KADW 241700Z 2417/2523 36006KT 9999 SCT008 OVC015 QNH3009INS BECMG 2502/2503 35005KT 9000 BR BKN008 OVC015 QNH3007INS BECMG 2505/2506 31006KT 8000 BR OVC005 QNH3005INS BECMG 2515/2516 29005KT 9999 NSW SCT005 BKN010 QNH3001INS BECMG 2518/2519 12005KT 9999 SCT010 BKN020 QNH2996INS TX18/2517Z TN14/2510Z
KAEG,KAEG 241722Z 2418/2518 30023G33KT P6SM BKN060 FM242000 31027G37KT P6SM SCT070 FM250200 31018G28KT P6SM FEW090 FM250700 31009KT P6SM SKC
KAEX,KAEX 241735Z 2418/2518 15013G21KT 5SM FU SCT060 FM241900 16015G22KT P6SM SCT050 BKN200 FM250400 17011G25KT P6SM BKN045 PROB30 2508/2509 4SM -SHRA BR BKN025 FM251000 21011G26KT P6SM SHRA VCTS BKN025CB FM251100 26012G23KT P6SM SHRA VCTS BKN025CB PROB30 2512/2514 4SM -SHRA BR OVC015 FM251400 28012G22KT P6SM SCT060 SCT250
KAFF,TAF KAFF 241905Z 2419/2601 18009KT 9999 SCT070 QNH2982INS WND 35009KT AFT 2420 BECMG 2421/2422 36010G17KT 9999 FEW080 520006 QNH2980INS BECMG 2501/2502 34009KT 9999 FEW140 QNH2984INS BECMG 2509/2510 27009KT 9999 FEW160 530254 QNH2993INS ROTOR CONDS EXIST BECMG 2516/2517 18010G15KT 9999 SKC 520006 QNH2998INS BECMG 2519/2520 17010G18KT 9999 FEW050 510005 QNH2996INS SHSN OMTNS WEST BECMG 2520/2521 17012G20KT 9999 VCSH SCT045 BKN140 520005 QNH2994INS BECMG 2600/2601 34010KT 9999 VCSH SCT045 BKN110 510203 QNH2996INS TX08/2420Z TNM06/2512Z LAST NO AMDS AFT 2500 NEXT 2511
KAFW,KAFW 241737Z 2418/2518 31010KT 6SM -SHRA VCTS BKN035 OVC060CB FM242100 23015KT P6SM BKN017 FM250100 22011KT 6SM -SHRA VCTS BKN025CB FM250300 27015KT P6SM VCSH BKN050 FM250700 27018G28KT P6SM BKN025 FM251200 31022G32KT P6SM BKN050
KAGC,KAGC 241720Z 2418/2518 14002KT P6SM SKC
KAGS,KAGS 241737Z 2418/2518 VRB03KT P6SM FEW250 FM251000 00000KT 4SM BR FEW250 FM251400 00000KT P6SM SKC
KAHN,KAHN 241730Z 2418/2518 11003KT P6SM BKN200 FM250000 VRB03KT P6SM SCT150 BKN200 FM251500 15006KT P6SM SCT035
KAIA,KAIA 241720Z 2418/2518 30025G40KT P6SM SCT150 FM242200 30020G30KT P6SM BKN100 FM250100 30012KT P6SM SCT250
KALB,KALB 241811Z 2418/2518 33003KT 3SM -DZ BR OVC015 TEMPO 2418/2422 1/2SM SHRA OVC008 FM242200 VRB03KT 3SM BR VCSH OVC008 FM251400 14005KT 5SM -SHRA OVC015
KALI,KALI 241739Z 2418/2518 18018G26KT P6SM SCT035 FM250500 32018G26KT 6SM TSRA SCT045CB WS020/34045KT FM250800 32014G20KT P6SM SCT045 WS020/34045KT FM251200 34011KT P6SM SCT045 WS020/34045KT FM251500 36015G20KT P6SM FEW090
KALO,KALO 241740Z 2418/2518 21011KT 5SM -RA OVC025 FM242100 25013KT 3SM -RA BR OVC012 FM242300 30010KT 2SM -RA BR OVC010 FM250400 30006KT P6SM VCSH OVC024
KALS,KALS 241730Z 2418/2518 34012G22KT P6SM BKN080 BKN120 FM250200 35010KT P6SM FEW120 FM250500 VRB06KT P6SM SKC
KALW,KALW 241857Z 2419/2518 18010G20KT P6SM -RA BKN040 OVC060 FM250200 20008G15KT P6SM VCSH SCT040 BKN060 FM251200 20007G13KT P6SM SCT070 BKN110
KAMA,KAMA 241740Z 2418/2518 03015KT 6SM SHRA BR OVC015 FM242000 36018G27KT 6SM SHRA BR OVC010 TEMPO 2420/2424 3/4SM SHRA BR OVC001 FM250300 33014KT P6SM BKN070
KANB,KANB 241721Z 2418/2518 15007KT P6SM FEW250 FM250200 15005KT P6SM SCT180 FM251100 10006KT P6SM BKN060 FM251700 16012G22KT P6SM BKN050
KAND,KAND 241729Z 2418/2518 16004KT P6SM FEW250 FM250100 00000KT P6SM FEW250 FM251500 16005KT P6SM SCT250
KAOO,KAOO 241728Z 2418/2518 06004KT P6SM SKC FM250500 00000KT 6SM BR OVC008 FM250800 00000KT 2SM BR OVC005 FM251330 13003KT 6SM BR BKN020
KAPA,KAPA 241730Z 2418/2518 32010G18KT P6SM FEW070 FM242000 01010KT P6SM SCT080 FM250200 20007KT P6SM BKN200 FM251600 26007KT P6SM SCT200
KAPC,KAPC 241736Z 2418/2518 VRB03KT P6SM SKC FM241900 21008KT P6SM SKC FM250400 VRB04KT P6SM SCT250 FM251100 VRB03KT P6SM BKN010
KAPF,KAPF 241720Z 2418/2518 06007KT P6SM FEW040 SCT060 FM242000 33007KT P6SM SCT040 BKN060 FM250100 VRB04KT P6SM FEW040 FM251500 06010KT P6SM SCT035
KAPN,KAPN 241733Z 2418/2518 17010G21KT P6SM SCT250 FM242300 17009G19KT P6SM BKN250 WS020/18035KT FM250600 17008KT P6SM BKN250 WS020/20040KT FM251300 18009G18KT P6SM BKN080
KARA,KARA 241735Z 2418/2518 16015G23KT P6SM BKN070 FM250000 15011G18KT P6SM BKN100 FM250800 18010G20KT P6SM VCSH SCT040 BKN060 PROB30 2510/2512 4SM -SHRA BR BKN025 FM251200 23012G26KT P6SM SHRA VCTS BKN015CB OVC035 FM251300 26011G23KT P6SM SHRA BKN045 PROB30 2513/2515 4SM -SHRA BR BKN025 FM251500 29015G25KT P6SM SCT060
KART,KART 241736Z 2418/2518 08004KT P6SM FEW025 FEW250 FM242300 VRB03KT P6SM SCT045 FM250500 09003KT P6SM SCT025 OVC040 FM250900 VRB03KT P6SM BKN025 FM251100 VRB03KT P6SM BKN020 FM251600 18008KT P6SM SCT025
KASD,KASD 241754Z 2418/2518 16010G17KT P6SM FEW035 FM251400 19008KT 6SM BR BKN025 FM251600 22011G19KT 6SM BR VCTS BKN030CB
KASE,KASE 241903Z 2419/2518 33009G18KT P6SM BKN050 OVC060 FM250100 27008KT P6SM SCT200 FM250200 22005KT P6SM SCT250
KASN,KASN 241721Z 2418/2518 19008KT P6SM FEW250 FM250200 15005KT P6SM SCT180 FM250700 12006KT P6SM BKN060 FM251700 16012G22KT P6SM VCSH BKN040
KAST,KAST 241738Z 2418/2518 22011KT P6SM -SHRA SCT025 BKN040 OVC060 FM250000 29007KT P6SM -SHRA SCT025 BKN050 FM250800 22005KT P6SM VCSH SCT025 BKN050 FM251600 20006KT 5SM -SHRA BR OVC050
KATL,KATL 241934Z 2420/2524 14006KT P6SM BKN200 FM250000 12003KT P6SM SCT150 BKN200 FM251500 14009KT P6SM SCT040 SCT150 FM252300 15010KT P6SM SHRA BKN050
KATW,KATW 241737Z 2418/2518 18013G23KT P6SM BKN120 FM250000 18014G24KT P6SM SHRA OVC080 WS020/19045KT FM250400 18014KT P6SM -SHRA OVC045 WS020/20050KT FM250900 24009KT P6SM -SHRA OVC021 FM251300 25005KT P6SM OVC028 FM251700 27006KT P6SM -SHRA OVC035
KATY,KATY 241720Z 2418/2518 25024G37KT P6SM OVC024 FM250000 27014G25KT P6SM SCT035 FM250300 28011G19KT P6SM BKN026 FM251200 28007KT P6SM FEW017
KAUG,KAUG 241724Z 2418/2518 03005KT 1SM -DZ BR OVC003 FM250300 VRB02KT 3/4SM -DZ BR OVC001 FM251600 19003KT 1 1/2SM -DZ BR OVC003
KAUS,KAUS 241720Z 2418/2524 18012KT P6SM VCSH BKN020 FM242100 17010KT P6SM VCTS BKN035CB FM250200 VRB15G25KT 4SM TSRA BR BKN060CB FM250430 31015G25KT P6SM FEW080 FM251500 33012KT P6SM SKC FM252100 35007KT P6SM SKC
KAUW,KAUW 241737Z 2418/2518 17014G24KT P6SM SCT015 BKN090 FM242100 18010G20KT P6SM -SHRA OVC040 FM250200 21007KT 4SM -SHRA OVC013 FM250500 26006KT 4SM SHRA OVC015 FM250900 27006KT P6SM OVC019 FM251400 28006KT P6SM BKN050
KAVL,KAVL 241729Z 2418/2518 VRB04KT P6SM FEW250 FM250400 00000KT P6SM SCT240 FM251500 17006KT P6SM SCT240
KAVP,KAVP 241743Z 2418/2518 06004KT 5SM BR OVC007 FM250200 09004KT 2SM BR BKN003 FM251600 14006KT 2SM BR BKN007
KAXN,KAXN 241725Z 2418/2518 24020G30KT P6SM OVC022 FM242100 26019G30KT P6SM SCT022 BKN080 FM250000 25013G22KT P6SM SCT025 SCT150 FM250800 27009KT P6SM BKN020 FM251300 29008KT P6SM SCT020
KAZO,KAZO 241739Z 2418/2518 18012G22KT P6SM BKN250 FM250100 16008KT P6SM BKN200 WS020/20040KT FM251200 17006KT P6SM BKN120
KBAB,TAF KBAB 241900Z 2419/2601 VRB06KT 9999 SKC QNH3012INS WND 19009KT AFT 2421 BECMG 2502/2503 12006KT 9999 BKN080 QNH3012INS BECMG 2513/2514 VRB06KT 9999 SCT080 SCT150 QNH3001INS WND 33009KT AFT 2518 TX22/2423Z TN11/2515Z
KBAD,TAF KBAD 241200Z 2412/2518 16012G20KT 9999 BKN020 OVC060 QNH2994INS TEMPO 2412/2414 15012G20KT BKN015 OVC060 BECMG 2415/2416 16015G25KT 9999 BKN025 QNH2978INS BECMG 2422/2423 17012G22KT 9999 VCSH OVC035 QNH2968INS TEMPO 2508/2510 23030G40KT 4800 TSRA OVC015CB BECMG 2511/2512 25012G22KT 9999 NSW BKN060 QNH2973INS TX26/2421Z TN14/2512Z
KBAF,KBAF 241720Z 2418/2518 01005KT 4SM BR VCSH OVC008 FM250400 01003KT 1 1/2SM -RA BR OVC003 FM251300 00000KT 4SM BR VCSH OVC008
KBAM,KBAM 241811Z 2418/2518 VRB05KT P6SM FEW250 FM241900 22009G15KT P6SM SCT050 BKN070 FM250300 21006KT P6SM VCSH SCT035 BKN050 FM250900 24006KT 6SM -SHRASN BR SCT020 BKN035
KBBD,KBBD 241741Z 2418/2518 07005KT P6SM OVC040 FM250000 28020G30KT P6SM BKN250
KBBG,KBBG 241725Z 2418/2518 17014G28KT P6SM VCSH OVC022 TEMPO 2418/2422 P6SM -RA OVC015 FM250200 15006KT 2SM SHRA OVC022 FM250900 09008KT 4SM SHRA BR OVC009 FM251200 29008KT 6SM SHRA BR OVC011
KBCB,KBCB 241725Z 2418/2518 00000KT P6SM SKC FM251000 00000KT 1SM BR SCT250 FM251200 00000KT 3SM BR SCT250 FM251300 00000KT P6SM SCT250
KBCE,KBCE 241720Z 2418/2518 33010KT P6SM SKC AMD NOT SKED
KBDL,KBDL 241720Z 2418/2524 01005KT 3SM -RA OVC008 FM250700 02003KT 1SM -RA BR OVC003 FM251200 00000KT 2SM BR VCSH OVC003 FM251600 07003KT 6SM BR VCSH OVC008 FM252100 10003KT P6SM VCSH BKN015
KBDN,KBDN 241840Z 2419/2518 22022G32KT P6SM VCSH BKN050 OVC060 FM242200 22007KT P6SM -RA SCT035 OVC050 FM250800 21006KT P6SM SCT050 BKN080
KBDR,KBDR 241941Z 2420/2518 04008KT 6SM -SHRA BR OVC008 FM250000 04005KT 2SM -SHRA BR OVC005 FM251300 14007KT 3SM BR OVC008
KBED,KBED 241720Z 2418/2518 01003KT 2SM -RA VCTS OVC003CB FM242200 03003KT 3/4SM BR VCSH OVC003 FM250600 00000KT 1/2SM FG OVC003 FM251100 00000KT 3SM BR OVC008
KBFD,KBFD 241728Z 2418/2518 00000KT P6SM SKC FM250400 00000KT 5SM BR OVC008 FM250800 00000KT 3/4SM BR OVC005 FM251330 13003KT 6SM BR BKN020
KBFF,KBFF 241720Z 2418/2518 30023G35KT P6SM SCT250 FM250100 30010KT P6SM FEW250
KBFI,KBFI 241744Z 2418/2518 16006KT 6SM -SHRA BR OVC015 FM242200 18009G17KT P6SM VCSH BKN040 TEMPO 2422/2502 -SHRA OVC030 FM250600 17008KT P6SM BKN045
KBFL,KBFL 241720Z 2418/2518 VRB03KT P6SM SKC
KBFM,KBFM 241728Z 2418/2518 12004KT P6SM FEW030 BKN040 OVC045 FM250300 13005KT P6SM SCT250 FM251200 16012G20KT P6SM VCTS BKN050CB PROB30 2512/2513 5SM -RA OVC045
KBGM,KBGM 241743Z 2418/2518 11003KT P6SM BKN015 TEMPO 2418/2420 OVC004 FM250300 10003KT P6SM BKN004 FM251600 15007KT P6SM BKN015
KBGR,KBGR 241720Z 2418/2518 04005KT 2SM -SHRA BR OVC004 FM250000 VRB02KT 1 1/2SM -DZ BR OVC003 FM251500 16004KT 2SM BR OVC005
KBHB,KBHB 241720Z 2418/2518 08006KT 2SM -SHRA BR OVC003 FM250000 VRB02KT 1/2SM -DZ FG OVC003
KBHM,KBHM 241845Z 2419/2518 17007G14KT P6SM FEW250 FM250200 15006KT P6SM SCT180 FM250700 15007KT P6SM BKN060 FM251600 16012G22KT P6SM VCSH BKN040
KBIF,TAF KBIF 241633Z 2416/2520 19015G35KT 4800 SHRA OVC040 QNH2982INS BECMG 2417/2418 28025G40KT 9999 NSW BKN050 BKN100 QNH2990INS TEMPO 2418/2503 28040G50KT BECMG 2502/2503 27010G20KT 9999 SKC QNH3005INS BECMG 2507/2508 VRB08KT 9999 SKC QNH3011INS TX16/2421Z TN04/2512Z
KBIH,KBIH 241720Z 2418/2518 33008KT P6SM SKC FM242300 16009G16KT P6SM FEW250 FM250500 VRB06KT P6SM FEW250 FM251200 33006KT P6SM FEW250
KBIL,KBIL 241722Z 2418/2518 29021G29KT P6SM FEW180 FM250400 27012KT P6SM FEW110 SCT250
KBIS,KBIS 241733Z 2418/2518 29020G30KT 6SM -RAPL BR OVC017 FM242000 29020G30KT 3SM -RASN BR OVC015 FM242300 29018G28KT 6SM BR VCSH OVC015 FM250200 30012KT P6SM OVC015 FM250500 28008KT P6SM SCT020
KBIX,TAF KBIX 241800Z 2418/2524 15010G15KT 9999 SCT026 QNH3001INS BECMG 2420/2421 15010G18KT 9999 BKN020 QNH2989INS BECMG 2508/2509 18009KT 8000 -SHRA OVC010 QNH2987INS TEMPO 2513/2521 23020G25KT 8000 -TSRA SCT010CB OVC018 BECMG 2520/2521 19012KT 9000 BR OVC016 QNH2976INS BECMG 2523/2524 22009KT 8000 -SHRA FEW009 QNH2979INS TX29/2419Z TN22/2423Z
KBJC,KBJC 241730Z 2418/2518 29012G20KT P6SM SCT080 FM250100 29015G25KT P6SM BKN200 FM251400 29012G20KT P6SM SCT200
KBJI,KBJI 241731Z 2418/2518 20020G30KT P6SM BKN020 FM242100 27016G27KT P6SM BKN028 FM250100 23009KT P6SM BKN027 FM250400 25007KT P6SM BKN019 FM251700 27009KT P6SM SCT050
KBKE,KBKE 241858Z 2419/2518 16011KT P6SM -RA OVC035 TEMPO 2419/2422 3SM -SN BR BKN025 FM242200 09008KT P6SM -RA OVC020 FM250500 32006KT P6SM SCT025 OVC050 FM251500 VRB05KT P6SM BKN050
KBKF,TAF KBKF 241700Z 2417/2523 31010G15KT 9999 SKC 520073 QNH2986INS BECMG 2504/2505 VRB06KT 9999 SKC 510073 QNH2991INS TX14/2521Z TN00/2513Z
KBKW,KBKW 241732Z 2418/2518 VRB05KT P6SM FEW250 FM242300 13004KT P6SM FEW250
KBLF,KBLF 241725Z 2418/2518 VRB03KT P6SM SKC
KBLH,KBLH 241720Z 2418/2518 36015G25KT P6SM SKC FM250000 36009KT P6SM FEW250 FM250200 33006KT P6SM FEW250
KBLI,KBLI 241744Z 2418/2518 18010G20KT P6SM BKN020 OVC030 FM250200 17012KT 4SM -SHRA OVC035 FM250600 18008KT P6SM OVC030
KBLV,TAF AMD KBLV 241618Z 2416/2522 18012G25KT 9999 SCT030 BKN200 510003 QNH2977INS TEMPO 2418/2421 18025G35KT BKN030 BECMG 2421/2422 16012KT 9999 BKN030 BKN200 QNH2968INS BECMG 2504/2505 16010G15KT 8000 -TSRA OVC020CB QNH2960INS BECMG 2509/2510 15012KT 9999 NSW BKN020 OVC150 QNH2950INS BECMG 2515/2516 18015G25KT 6000 TSRA OVC020CB QNH2939INS WND 150V270 BECMG 2521/2522 27012KT 9999 NSW SCT030 OVC100 QNH2940INS TX24/2420Z TN18/2506Z
KBMG,KBMG 241725Z 2418/2518 18011G22KT P6SM SCT240 FM242000 17011G22KT P6SM SCT250 FM242300 15009KT P6SM BKN250
KBMI,KBMI 241739Z 2418/2518 18019G29KT P6SM FEW060 BKN240 FM250400 19017G28KT P6SM OVC200 WS020/18045KT FM250800 19015G27KT P6SM VCSH OVC080 FM250900 19012G24KT P6SM SHRA OVC050 FM251200 18012G20KT 6SM SHRA BR OVC025
KBNA,KBNA 241721Z 2418/2518 19012KT P6SM FEW170 BKN250 FM250900 17007KT P6SM SCT250 FM251500 17013G27KT P6SM VCSH OVC090 FM251700 17016G31KT 6SM -SHRA OVC060
KBNO,KBNO 241725Z 2418/2518 VRB05KT P6SM -SHRASN OVC040 FM242100 24008KT P6SM -RA OVC040 FM250200 27012KT P6SM -SHRA BKN040 FM250600 24008KT P6SM SCT050 BKN200
KBOI,KBOI 241725Z 2418/2518 13006KT P6SM BKN120 FM242200 13008KT P6SM -SHRA BKN060 FM250100 12005KT P6SM -RA OVC025 TEMPO 2503/2506 BKN015 FM250600 32008KT P6SM BKN025 FM251200 32006KT P6SM BKN040
KBOS,KBOS 241720Z 2418/2524 02005KT 3SM -RA VCTS OVC003CB FM242100 04004KT 3/4SM BR OVC003 FM251000 06003KT 1 1/2SM BR OVC003 FM251600 09004KT 4SM BR BKN008
KBPI,KBPI 241722Z 2418/2518 32014G23KT P6SM FEW040 SCT070 TEMPO 2418/2422 30020G30KT FM250100 34008KT P6SM SCT050 BKN080 FM250700 18008KT P6SM VCSH SCT030 BKN050 FM251600 30011KT P6SM SCT050 BKN070
KBPK,KBPK 241842Z 2419/2518 21010G17KT P6SM VCSH SCT020 BKN035 FM242000 17013G20KT 6SM -SHRA BR OVC015 FM250600 26007KT 4SM -SHRA BR OVC007 FM251200 34010KT 2SM -RA BR OVC004 FM251600 33009KT 4SM -SHRA BR OVC007
KBPT,KBPT 241735Z 2418/2518 16017G24KT P6SM BKN060 BKN250 FM250400 18011G23KT P6SM FEW060 SCT200 PROB30 2507/2508 4SM TSRA BR BKN020CB FM250800 20012G28KT P6SM +SHRA VCTS BKN015CB OVC080 FM250900 28015G27KT P6SM +SHRA VCTS BKN015CB OVC045 PROB30 2510/2512 4SM TSRA BR OVC025CB FM251200 29014G25KT P6SM VCSH FEW025 BKN080 FM251400 30011G22KT P6SM SKC
KBRD,KBRD 241726Z 2418/2518 21017G36KT P6SM SCT025 FM242100 22017G26KT P6SM BKN250 FM250200 25010G20KT P6SM BKN250 FM250600 24008KT P6SM SCT023 FM251200 27007KT P6SM BKN017
KBRL,KBRL 241734Z 2418/2518 18012G20KT P6SM OVC060 FM242200 18014KT 6SM -RA BR OVC040 FM250000 19012KT 4SM RA BR OVC020 FM250300 21008KT 4SM RA BR OVC020 FM250500 27007KT 5SM RA BR OVC012
KBRO,KBRO 241723Z 2418/2518 17022G32KT P6SM BKN040 FM242300 17018G24KT P6SM BKN050 FM250200 16009KT P6SM SCT050 FM250900 31012G20KT 6SM TSRA BKN035CB PROB30 2509/2512 P6SM -SHRA OVC050 FM251200 33013G20KT P6SM OVC025 PROB30 2512/2513 P6SM -RA OVC050 FM251300 33013G20KT P6SM OVC050
KBTL,KBTL 241739Z 2418/2518 18013G24KT P6SM BKN250 FM250100 16010KT P6SM BKN200 WS020/20040KT FM251200 17008KT P6SM BKN120
KBTM,KBTM 241720Z 2418/2518 30005KT P6SM OVC100 FM241900 25014G18KT P6SM BKN080 FM250000 25008KT P6SM VCSH BKN060
KBTR,KBTR 241754Z 2418/2518 16014KT P6SM BKN080 FM250600 12009KT P6SM VCSH OVC040 FM251300 21009KT 5SM SHRA BR VCTS BKN030CB
KBTV,KBTV 241727Z 2418/2518 35004KT P6SM BKN040 FM250000 VRB03KT P6SM BKN035 FM250600 00000KT 6SM BR BKN028 FM251100 14004KT 5SM BR OVC015 FM251400 17006KT P6SM BKN035
KBUF,KBUF 241736Z 2418/2518 02004KT P6SM FEW250 FM250100 08005KT P6SM FEW250 FM250600 16004KT P6SM SCT140 FM251400 18007KT P6SM SCT250
KBUR,KBUR 241721Z 2418/2518 08003KT P6SM SKC FM242100 18005KT P6SM SKC FM250500 VRB03KT P6SM SKC
KBVI,KBVI 241720Z 2418/2518 14003KT P6SM SKC FM251600 16003KT P6SM SCT220
KBVO,KBVO 241926Z 2419/2518 36012KT 6SM -SHRA BR SCT015 OVC035 TEMPO 2420/2424 BKN012 FM250000 36010KT P6SM VCSH BKN012 TEMPO 2504/2508 4SM -SHRA BR OVC009 FM250800 36010G20KT 6SM -SHRA BR OVC015 PROB30 2508/2513 2SM SHRA BR OVC007 FM251400 33012G23KT P6SM VCSH OVC035
KBWG,KBWG 241747Z 2418/2518 19012G18KT P6SM SCT250 FM242100 17011KT P6SM BKN250 FM250000 16006KT P6SM BKN250 FM250900 16007KT P6SM BKN250 WS020/20039KT FM251300 16011G20KT P6SM BKN110 FM251600 17017G30KT P6SM BKN070
KBWI,KBWI 241727Z 2418/2524 34005KT 6SM -DZ BR FEW009 OVC012 FM250200 00000KT 5SM BR OVC003 FM250600 00000KT 1SM BR OVC003 FM251400 00000KT 5SM BR BKN008 FM251700 12003KT P6SM BKN025 FM252200 13005KT P6SM BKN120
KBYI,KBYI 241731Z 2418/2518 26017G27KT P6SM SCT150 FM250300 24015G25KT P6SM VCSH SCT040 BKN060 FM250600 25013G23KT P6SM -RA BKN015 OVC035 FM251100 22018G28KT P6SM VCSH SCT015 BKN050
KBZN,KBZN 241739Z 2418/2524 VRB05KT P6SM FEW200 FM242100 25011G16KT P6SM SCT120 BKN200 FM250000 23013G21KT P6SM VCSH SCT035 BKN070 FM250800 27009KT P6SM SCT060 BKN090
KCAE,KCAE 241737Z 2418/2518 VRB03KT P6SM FEW150
KCAK,KCAK 241720Z 2418/2518 17005KT P6SM FEW250
KCAR,KCAR 241907Z 2419/2518 15004KT P6SM -SHRA SCT040 OVC100 FM250000 VRB03KT P6SM -SHRA OVC040 FM250300 VRB02KT 5SM -SHRA OVC012 FM250600 VRB02KT 3SM -SHRA BR OVC007 FM250900 VRB02KT 3SM BR VCSH OVC004 FM251500 18004KT 3SM BR OVC005
KCBM,TAF AMD KCBM 241827Z 2418/2523 16010G18KT 9999 SCT040 BKN050 BKN220 510006 QNH2997INS BECMG 2422/2423 16009KT 9999 BKN030 BKN200 510006 QNH2996INS BECMG 2502/2503 16009KT 9999 BKN030 BKN200 WS020/16036KT 510006 QNH2990INS BECMG 2508/2509 16009KT 9999 BKN010 BKN100 OVC300 WS020/16040KT 621806 510006 QNH2987INS BECMG 2511/2512 16009KT 9999 VCSH OVC010 540006 QNH2984INS BECMG 2513/2514 16010G15KT 8000 -RA OVC010 540006 QNH2975INS BECMG 2517/2518 18018G30KT 4800 SHRA OVC010 540009 540909 541806 QNH2974INS TEMPO 2518/2521 18025G35KT 4800 TSRA OVC010CB BECMG 2521/2522 24010G15KT 9999 NSW BKN020 OVC030 540009 540909 541806 QNH2976INS BECMG 2522/2523 28009KT 9999 FEW030 540009 540909 541806 QNH2980INS TX26/2418Z TN19/2504Z
KCDC,KCDC 241720Z 2418/2518 02010KT P6SM SKC FM250200 VRB05KT P6SM SKC
KCDR,KCDR 241914Z 2419/2518 31020G35KT 4SM -SHSN SCT008 OVC020 TEMPO 2419/2422 1SM -SHSN BKN010 FM242300 30015G25KT P6SM SCT090 FM250100 28010KT P6SM FEW250
KCDS,KCDS 241749Z 2418/2518 08011KT P6SM BKN020 TEMPO 2421/2501 4SM SHRA FM250100 36021KT 6SM BR OVC020 TEMPO 2501/2503 4SM -SHRA BR OVC010
KCEC,KCEC 241741Z 2418/2518 16010KT 4SM -RA OVC025 WS020/27025KT TEMPO 2421/2424 2SM -RA BR BKN015 FM250000 VRB05KT 2SM -RA BR OVC012 FM250300 02006KT 3SM BR VCSH SCT015 FM251000 02006KT 6SM BR FEW001
KCEF,TAF KCEF 241810Z 2418/2524 03009KT 4000 BR BKN007 OVC012 510055 QNH3019INS TEMPO 2418/2423 2400 SHRA BR OVC005 BECMG 2423/2424 03006KT 2400 BR VCSH OVC005 510055 QNH3017INS BECMG 2503/2504 VRB06KT 1600 BR OVC008 QNH3018INS BECMG 2505/2506 VRB06KT 0800 FG OVC002 QNH3017INS BECMG 2513/2514 VRB06KT 4800 BR SCT006 BKN010 QNH3010INS BECMG 2516/2517 12009KT 9999 NSW SCT007 BKN010 OVC025 QNH3013INS TX15/2421Z TN12/2510Z
KCGI,KCGI 241720Z 2418/2518 18016G24KT P6SM BKN050 FM250000 16011KT P6SM BKN080 FM250600 16012G25KT P6SM BKN050 FM251100 16013G24KT P6SM VCSH OVC040 FM251500 15015G26KT 6SM SHRA BR OVC025
KCHA,KCHA 241726Z 2418/2518 16005KT P6SM SCT250 FM251600 16010G20KT P6SM SCT080
KCHO,KCHO 241727Z 2418/2518 18004KT P6SM SCT250 FM250600 00000KT 5SM BR BKN150 FM251000 00000KT 1 1/2SM BR SCT003 FM251200 00000KT 5SM BR SCT035 FM251600 15003KT P6SM SCT150
KCHS,KCHS 241726Z 2418/2518 36006KT P6SM FEW250 FM242300 VRB03KT P6SM FEW250 FM250700 00000KT 5SM BR FEW250 FM251300 VRB06KT P6SM FEW250
KCID,KCID 241734Z 2418/2518 18014G22KT P6SM OVC040 FM242000 17011KT 6SM -RA BR OVC035 FM242200 20009KT 1 1/2SM RA BR OVC020 FM242300 28009KT 2SM RA BR OVC015 FM250500 30010KT 4SM -RA BR OVC013 FM250900 31005KT P6SM BKN040
KCIU,KCIU 241733Z 2418/2518 15012G23KT P6SM BKN140 FM250000 14008G14KT P6SM OVC240 WS020/19035KT FM251300 17010G16KT P6SM BKN080
KCKB,KCKB 241732Z 2418/2518 VRB03KT P6SM SKC FM251600 19004KT P6SM FEW230
KCKV,KCKV 241721Z 2418/2518 20013G19KT P6SM SKC FM242200 16010G15KT P6SM SCT250 FM250000 15006KT P6SM SCT250 FM251500 16014G28KT 6SM -SHRA OVC060
KCLE,KCLE 241720Z 2418/2524 17008KT P6SM BKN250
KCLL,KCLL 241740Z 2418/2518 17014G26KT P6SM SHRA OVC040 FM250000 17012G23KT P6SM VCTS BKN025CB FM250300 20014G25KT P6SM VCTS BKN015CB PROB30 2503/2506 VRB20G35KT 3SM TSRA FM250600 29015G25KT P6SM -SHRA VCTS BKN025CB FM250800 29013G28KT P6SM VCSH SCT060 FM251200 30015G22KT P6SM SKC
KCLM,KCLM 241744Z 2418/2518 27012G25KT P6SM VCSH SCT050 TEMPO 2420/2424 -SHRA OVC035 FM250400 27012G25KT P6SM BKN050 FM251000 26009KT P6SM BKN040 FM251700 26003KT P6SM -RA OVC050
KCLT,KCLT 241729Z 2418/2524 VRB03KT P6SM FEW250 FM250100 00000KT P6SM FEW250 FM251600 17007KT P6SM SCT250
KCMA,KCMA 241721Z 2418/2518 07021G28KT P6SM SKC FM242200 24008KT P6SM SKC FM250300 VRB03KT P6SM SKC FM251000 07005KT P6SM SKC
KCMH,KCMH 241729Z 2418/2518 16008KT P6SM SCT250 FM250000 14004KT P6SM BKN250 FM251600 16010KT P6SM SCT250
KCMI,KCMI 241739Z 2418/2518 18019G29KT P6SM FEW060 BKN240 FM250500 19017G28KT P6SM OVC200 WS020/18040KT FM251000 19014G24KT P6SM VCSH OVC070 FM251300 18012G20KT 6SM SHRA BR OVC025 FM251500 16012G21KT 4SM +SHRA BR OVC010
KCMX,KCMX 241931Z 2420/2518 18016KT P6SM BKN017 FM250000 17010KT P6SM VCSH OVC014 FM250200 20008KT P6SM VCSH OVC012 FM250500 27007KT 3SM SHRA BR OVC011 FM250600 28008KT 4SM -SHRA BR OVC008 FM251000 26009KT 5SM BR OVC011 PROB30 2510/2512 -SHRA
KCNM,KCNM 241720Z 2418/2518 28015G25KT P6SM SCT100 BKN250 TEMPO 2418/2420 SHRA FM242000 29035G45KT P6SM BKN100 FM250000 28013G21KT P6SM SCT100 BKN250 FM250500 25007KT P6SM FEW250
KCNU,KCNU 241733Z 2418/2518 32014G20KT 4SM -RA SCT008 OVC015 TEMPO 2418/2422 2SM RA OVC008 FM242300 35009KT P6SM VCSH SCT009 BKN015 FM250600 34013KT P6SM VCSH SCT015 BKN030 FM251400 34014G21KT P6SM OVC080
KCNY,KCNY 241729Z 2418/2518 30006KT P6SM SKC FM250200 32003KT P6SM SKC
KCOD,KCOD 241722Z 2418/2518 26014G22KT P6SM FEW120 FM242000 26020G30KT P6SM FEW100 SCT150 FM250400 26014G25KT P6SM SCT100 BKN150 FM251000 26012G18KT P6SM SCT060 BKN100 FM251300 25010KT P6SM SCT080 BKN120 FM251600 28013G22KT P6SM FEW080 SCT120
KCOE,KCOE 241720Z 2418/2518 20012KT 4SM -RA BR BKN021 OVC050 FM242300 20006KT 5SM BR BKN018 FM251500 21005KT P6SM BKN015 BKN250
KCOF,TAF KCOF 241800Z 2418/2524 05012KT 9999 FEW040 SCT100 QNH2998INS BECMG 2510/2511 34010KT 9999 SKC QNH2994INS TX28/2419Z TN22/2510Z
KCON,KCON 241724Z 2418/2518 VRB03KT 3SM -RA BR OVC007 FM250300 VRB02KT 1 1/2SM -DZ BR OVC002
KCOS,KCOS 241918Z 2419/2518 20008KT P6SM SCT070 BKN250 FM242100 34015G25KT P6SM SCT250 FM250100 34007KT P6SM SKC FM251700 19008KT P6SM SKC
KCOT,KCOT 241739Z 2418/2518 20010G16KT P6SM SCT040 FM250200 33013G22KT 4SM TSRA SCT018CB WS020/33048KT FM250500 32014G23KT P6SM SCT060 WS020/33048KT FM251200 33011G18KT P6SM FEW100
KCOU,KCOU 241720Z 2418/2518 17013G24KT P6SM VCSH BKN040 FM242100 17014G24KT 5SM SHRA BR OVC025 FM250100 20010KT 4SM +SHRA BR OVC015 FM250600 27006KT 4SM +SHRA BR OVC007 FM251100 36011KT 4SM SHRA BR OVC007
KCPR,KCPR 241722Z 2418/2518 27017G28KT P6SM FEW060 SCT100 FM242300 25014G22KT P6SM FEW120 FM250400 22012G20KT P6SM FEW100 SCT150 FM251100 24013G22KT P6SM SCT080 BKN120 FM251600 26016G28KT P6SM FEW100 SCT150
KCPS,KCPS 241720Z 2418/2518 17015G26KT P6SM BKN070 BKN250 FM250600 16005KT 5SM SHRA BR OVC025 FM250900 14005KT 4SM +SHRA BR OVC017 FM251200 12007KT 4SM +SHRA BR OVC011
KCRE,KCRE 241736Z 2418/2518 36005KT P6SM FEW070 TEMPO 2510/2513 4SM BR
KCRG,KCRG 241720Z 2418/2518 05009G15KT P6SM FEW025 SCT250 TEMPO 2418/2422 BKN020 FM250200 00000KT P6SM FEW250
KCRP,KCRP 241739Z 2418/2518 17022G30KT P6SM SCT035 FM250300 19018G25KT P6SM VCTS BKN035CB FM250600 29015G23KT 4SM TSRA BKN025CB WS020/34045KT FM250900 33013KT P6SM SCT250 WS020/34045KT FM251500 36018KT P6SM FEW080
KCRQ,KCRQ 241720Z 2418/2518 07005KT P6SM SKC FM242000 26008KT P6SM SKC FM250100 VRB04KT P6SM SKC FM250600 06004KT P6SM SKC
KCRW,KCRW 241732Z 2418/2518 VRB04KT P6SM FEW200 FM250900 00000KT P6SM VCFG FEW250 FM251230 VRB03KT P6SM FEW250 FM251600 17004KT P6SM SCT240
KCSG,KCSG 241730Z 2418/2518 15006KT P6SM BKN200 FM250000 09003KT P6SM SCT150 BKN200 FM251500 15008KT P6SM SCT040
KCSM,KCSM 241720Z 2418/2518 01012G19KT P6SM SCT015 BKN025 TEMPO 2418/2420 BKN015 OVC025 FM242000 05010KT P6SM BKN050 FM242300 06014KT 5SM -RA OVC020 FM250200 36020G28KT P6SM -RA OVC020 FM250700 33020G28KT P6SM OVC025 FM251200 31012KT P6SM SKC
KCSV,KCSV 241721Z 2418/2518 16008KT P6SM SKC FM242300 VRB03KT P6SM SCT250 FM251300 17007KT P6SM SCT240 FM251700 17014G27KT P6SM BKN180
KCTB,KCTB 241739Z 2418/2518 25018G35KT P6SM BKN110 FM250700 27013G23KT P6SM SCT150 FM251700 27016G33KT P6SM SCT120
KCUB,KCUB 241737Z 2418/2518 VRB03KT P6SM FEW150
KCVG,KCVG 241729Z 2418/2524 17010KT P6SM BKN250 FM250000 16005KT P6SM BKN250 FM251600 17011G17KT P6SM SCT120 SCT250 FM252200 16014G22KT P6SM VCSH BKN060 BKN120
KCVS,TAF KCVS 241800Z 2418/2524 33012KT 9999 VCSH FEW020 BKN045 QNH2978INS BECMG 2422/2423 35012G22KT 8000 -RA SCT015 BKN030 QNH2987INS BECMG 2501/2502 VRB06KT 9999 NSW FEW080 QNH3000INS BECMG 2512/2513 VRB06KT 9999 FEW120 QNH3003INS TX10/2510Z TN03/2508Z
KCWA,KCWA 241737Z 2418/2518 17014G25KT P6SM SCT015 BKN090 FM242100 18012G22KT P6SM -SHRA OVC040 FM250200 21007KT 4SM -SHRA OVC013 FM250500 26006KT 4SM SHRA OVC015 FM250900 27006KT P6SM OVC019 FM251400 28006KT P6SM BKN050
KCXO,KCXO 241740Z 2418/2518 16012G21KT P6SM VCSH BKN045 FM250300 20011G24KT P6SM VCTS BKN020CB PROB30 2505/2508 VRB20G35KT 4SM TSRA BKN025CB OVC040 FM250900 29008KT P6SM VCSH SCT070 FM251500 32013G28KT P6SM SKC
KCXP,KCXP 241741Z 2418/2518 VRB04KT P6SM SCT250 FM250600 25005KT P6SM SCT060 BKN200 FM251200 00000KT P6SM SCT250
KCYS,KCYS 241720Z 2418/2518 31020G30KT P6SM FEW250 FM242100 28025G35KT P6SM FEW250 FM251400 28015G25KT P6SM SCT250
KDAA,TAF AMD KDAA 241624Z 2416/2518 VRB06KT 9999 SCT010 BKN015 BKN025 QNH3012INS TEMPO 2416/2418 BKN010 BECMG 2417/2418 VRB06KT 9999 SCT010 OVC015 QNH3009INS BECMG 2501/2502 VRB06KT 8000 BR BKN007 OVC015 QNH3006INS BECMG 2508/2509 31006KT 6000 BR VCSH BKN005 OVC010 QNH3005INS TX18/2419Z TN13/2510Z
KDAB,KDAB 241732Z 2418/2518 03009KT P6SM SCT030 BKN050 FM250000 VRB02KT P6SM FEW030 FM251500 35006KT P6SM FEW030
KDAG,KDAG 241720Z 2418/2518 04008KT P6SM SKC FM242300 VRB06KT P6SM SKC FM250500 26008KT P6SM SKC
KDAL,KDAL 241737Z 2418/2518 31010KT 6SM -SHRA VCTS BKN035 OVC050CB FM242100 23015KT P6SM BKN017 FM250100 22011KT 6SM -SHRA VCTS BKN025CB FM250300 27015KT P6SM VCSH BKN050 FM250700 27018G28KT P6SM BKN025 FM251200 31022G32KT P6SM BKN050
KDAN,KDAN 241725Z 2418/2518 VRB02KT P6SM SKC FM250700 00000KT 3SM BR FEW250 FM250900 00000KT 1SM BR SCT070 FM251100 00000KT P6SM SCT070
KDAY,KDAY 241729Z 2418/2518 17011KT P6SM BKN250 FM250000 17007KT P6SM SCT120 BKN250 FM251600 17012G20KT P6SM FEW120 SCT250
KDBQ,KDBQ 241734Z 2418/2518 17015G23KT P6SM OVC050 FM242200 19013G21KT 6SM -RA BR OVC035 FM250000 22011KT 3SM RA BR OVC018 FM250500 28009KT 4SM RA BR OVC012 FM251100 32005KT 6SM BR BKN024
KDCA,KDCA 241727Z 2418/2524 35005KT P6SM OVC015 FM250300 VRB03KT 4SM BR BKN005 FM250500 VRB03KT 1 1/2SM -DZ BR SCT002 BKN005 FM251100 00000KT 3/4SM BR OVC003 FM251400 VRB03KT 6SM BR BKN008 OVC015 FM251700 15004KT P6SM BKN020 FM252100 13005KT P6SM BKN120
KDDC,KDDC 241720Z 2418/2518 36020G30KT P6SM SCT150 FM250200 34012KT P6SM SCT200
KDEC,KDEC 241739Z 2418/2518 18018G28KT P6SM FEW070 BKN250 FM242300 17015G26KT P6SM BKN240 FM250400 18014G26KT P6SM VCSH OVC070 WS020/19045KT FM250900 18010G21KT 5SM SHRA BR OVC035 FM251100 18010G21KT 4SM +SHRA BR OVC010
KDEN,KDEN 241730Z 2418/2524 01009KT P6SM SCT080 FM250200 27009KT P6SM BKN200 FM250500 23009KT P6SM BKN200 FM251500 27007KT P6SM SCT200 FM251700 33012KT P6SM SCT200
KDET,KDET 241720Z 2418/2518 16011G21KT P6SM SCT250 FM242300 15006KT P6SM SCT150 BKN200 FM251600 17010KT P6SM BKN200
KDFW,KDFW 241737Z 2418/2524 32010KT 5SM -SHRA VCTS BKN035 OVC050CB FM242100 23015KT P6SM BKN017 FM250100 22011KT 6SM -SHRA VCTS BKN025CB FM250300 27015KT P6SM VCSH BKN050 FM250700 27018G28KT P6SM BKN025 FM251200 31022G32KT P6SM BKN050 FM252100 32015G25KT P6SM SKC
KDHN,KDHN 241723Z 2418/2518 16008KT P6SM FEW050 FEW150 FM250100 16006KT P6SM FEW050 SCT150 FM251200 18010KT P6SM SCT030 FM251700 17010G18KT P6SM VCSH BKN060
KDHT,KDHT 241740Z 2418/2518 03018KT 6SM -SHRA BR OVC030 FM242100 02020G29KT 6SM BR BKN050 FM250100 29008KT P6SM BKN170
KDIJ,KDIJ 241731Z 2418/2518 18011KT P6SM SCT035 SCT080 FM250100 18012G22KT P6SM VCSH SCT040 OVC060 FM250400 19011G21KT P6SM -RASN BKN010 OVC030 FM250900 20015G25KT 3SM -SN OVC010 FM251500 21015KT P6SM VCSH SCT010 OVC020 AMD LTD TO CLD VIS AND WIND
KDIK,KDIK 241856Z 2419/2518 30030G38KT 5SM -SN BR OVC014 FM242000 30029G39KT P6SM OVC018 FM242300 30020G30KT P6SM SCT020 FM250200 26010KT P6SM SCT030 FM251200 27015G23KT P6SM SCT040
KDLF,TAF KDLF 241900Z 2419/2601 12012KT 9999 FEW025 QNH2967INS BECMG 2420/2421 27012G20KT 9999 FEW080 QNH2964INS TEMPO 2500/2506 33030G45KT BECMG 2505/2506 33020G30KT 9999 SKC 530103 QNH2965INS BECMG 2508/2509 33015G25KT 9999 SKC 520103 QNH2997INS BECMG 2513/2514 32012G20KT 9999 SKC QNH2998INS BECMG 2515/2516 VRB06KT 9999 SKC QNH3008INS TX30/2422Z TN12/2512Z
KDLH,KDLH 241751Z 2418/2518 22021G35KT P6SM BKN025 OVC035 FM242200 22015G30KT P6SM VCSH BKN050 FM250500 24009G16KT P6SM BKN080 FM251300 26008G15KT P6SM SCT022
KDLS,KDLS 241839Z 2419/2518 VRB05KT 6SM -RA BR OVC035 TEMPO 2419/2421 P6SM -RA FM242100 30010G20KT P6SM -RA BKN040 OVC060 FM250300 29010G20KT P6SM VCSH SCT050 OVC070 FM251000 30009KT P6SM SCT060 BKN090
KDMA,TAF KDMA 241403Z 2414/2520 30012G18KT 9999 SCT070 520009 520909 QNH3001INS BECMG 2423/2424 30009KT 9999 SKC QNH3009INS BECMG 2502/2503 11009KT 9999 SKC QNH3011INS TX22/2422Z TN09/2512Z
KDMN,KDMN 241736Z 2418/2518 28028G38KT P6SM SKC FM250000 28010G20KT P6SM SKC FM250200 26005KT P6SM SKC
KDNL,KDNL 241737Z 2418/2518 VRB04KT P6SM FEW250
KDOV,TAF KDOV 241600Z 2416/2522 35009KT 6000 -DZ BR OVC005 QNH3007INS TEMPO 2416/2419 OVC006 BECMG 2513/2514 VRB06KT 8000 BR OVC008 QNH2997INS TX17/2418Z TN13/2510Z
KDPA,KDPA 241731Z 2418/2518 18015G25KT P6SM FEW050 BKN200 FM242100 17020G32KT P6SM FEW050 BKN200 FM250400 19015G24KT P6SM SCT050 OVC120 FM250900 17010KT 6SM -SHRA BKN020 OVC050 FM251400 16009KT 4SM -RA BR OVC010 FM251700 14008KT 3SM -RA BR OVC008
KDRO,KDRO 241920Z 2419/2518 33021G30KT P6SM FEW100 FM242200 28017G24KT P6SM FEW070 FM250300 30009KT P6SM FEW250 FM250600 VRB04KT P6SM SKC
KDRT,KDRT 241720Z 2418/2518 15010KT P6SM FEW090 FM242300 32020G30KT P6SM SKC FM251200 31010KT P6SM SKC
KDSM,KDSM 241740Z 2418/2518 30010KT P6SM -RA OVC025 FM242100 30009KT 4SM -RA BR OVC025 FM242300 32008KT 3SM -RA BR OVC010 FM250200 31005KT P6SM -RA OVC024 FM250900 33007KT P6SM SCT025
KDTW,KDTW 241720Z 2418/2524 16011G21KT P6SM SCT250 FM242300 15006KT P6SM SCT150 BKN200 FM251600 17010KT P6SM BKN200
KDUJ,KDUJ 241720Z 2418/2518 10003KT P6SM SKC FM250900 12003KT P6SM BKN004 FM251700 15007KT P6SM SCT170
KDVL,KDVL 241731Z 2418/2518 31020G30KT P6SM VCSH OVC010 FM250000 31015G25KT P6SM OVC012 FM251100 27011KT P6SM BKN013
KDVT,KDVT 241720Z 2418/2518 36007KT P6SM SKC FM242100 33004KT P6SM SKC FM242300 27005KT P6SM SKC FM250400 VRB04KT P6SM FEW250
KDYS,TAF AMD KDYS 241920Z 2419/2522 19010G15KT 9999 BKN090 QNH2965INS BECMG 2422/2423 28015G25KT 9000 -SHRA BKN060 QNH2966INS TEMPO 2423/2502 VRB25G35KT 8000 -TSRA BKN060CB BECMG 2503/2504 31015G25KT 9999 NSW SCT100 QNH2998INS BECMG 2510/2511 31012G18KT 9999 FEW100 QNH2995INS TX25/2420Z TN09/2513Z
KEAR,KEAR 241720Z 2418/2518 31015G22KT P6SM SCT110 BKN200 FM242200 32014KT P6SM FEW250 FM250000 31008KT P6SM FEW250
KEAT,KEAT 241720Z 2418/2518 29007KT P6SM BKN050 FM242000 30010G20KT P6SM VCSH SCT020 BKN080 FM250300 27011KT P6SM SCT060 SCT150
KEAU,KEAU 241725Z 2418/2518 20015G27KT P6SM OVC035 FM241900 21010KT P6SM -SHRA OVC045 FM242300 22007KT 6SM -SHRA BR OVC027 FM250100 24006KT 5SM -SHRA BR OVC018 FM250600 25004KT P6SM OVC029 FM251100 27004KT P6SM SCT200
KECG,TAF COR KECG 241758Z 2418/2518 33003KT P6SM OVC009 FM241900 34008KT P6SM BKN015 FM250900 VRB03KT 6SM BR OVC007 FM251400 36005KT P6SM OVC020
KECP,KECP 241723Z 2418/2518 15007KT P6SM SCT040 FM250200 13003KT P6SM FEW040 SCT150 FM250800 14006KT P6SM SCT025 FM251500 17010KT P6SM VCSH SCT040
KEDW,TAF KEDW 241300Z 2413/2519 VRB06KT 9999 SKC QNH3008INS TX19/2422Z TN03/2413Z
KEED,KEED 241720Z 2418/2518 02013G22KT P6SM SKC FM250300 30007KT P6SM SKC
KEET,KEET 241721Z 2418/2518 14007KT P6SM FEW250 FM250200 14005KT P6SM SCT180 FM250700 15006KT P6SM BKN060 FM251500 15008G18KT P6SM VCSH BKN040
KEFD,TAF AMD KEFD 241517Z 2415/2518 17010G20KT 9999 FEW035 BKN060 510053 QNH2977INS BECMG 2421/2422 17012KT 9999 BKN030 OVC050 510203 QNH2976INS BECMG 2507/2508 31012KT 8000 -SHRA BKN020 510104 QNH2977INS TEMPO 2509/2512 32015G25KT 8000 -TSRA SCT065 BKN070CB BECMG 2514/2515 33012G18KT 9999 NSW SKC 510303 QNH2987INS TX28/2417Z TN18/2512Z
KEFK,KEFK 241727Z 2418/2518 VRB03KT P6SM BKN035 FM250300 VRB03KT P6SM BKN028 FM250900 00000KT 5SM BR OVC015 FM251400 17004KT P6SM SCT020 BKN035
KEGE,KEGE 241729Z 2418/2518 28005KT P6SM BKN080 BKN100 TEMPO 2419/2423 BKN060 BKN080 FM250100 23009KT P6SM SCT120 FM250600 09002KT P6SM SCT250
KEGI,TAF KEGI 241700Z 2417/2523 15009KT 9999 FEW030 SCT100 QNH3003INS BECMG 2501/2502 14009KT 9999 SCT020 BKN040 QNH2994INS BECMG 2515/2516 16015G20KT 8000 -SHRA BKN020 QNH2987INS BECMG 2517/2518 18015G22KT 8000 -SHRA VCTS BKN020CB QNH2985INS TX28/2418Z TN11/2510Z
KEKN,KEKN 241732Z 2418/2518 VRB03KT P6SM SKC FM250900 00000KT 6SM BR FEW200 FM251230 00000KT P6SM FEW200
KEKO,KEKO 241811Z 2418/2518 VRB05KT P6SM FEW250 FM241830 24012G19KT P6SM SCT050 BKN070 FM250400 24007KT P6SM VCSH SCT035 BKN050 FM251000 24007KT 5SM -SHSNRA BR SCT015 BKN030
KEKS,KEKS 241739Z 2418/2518 18011G16KT P6SM FEW200 FM242200 17015G28KT P6SM SCT100 BKN200 FM250000 16019G29KT P6SM VCSH SCT030 BKN060 TEMPO 2500/2504 4SM -SN BR BKN030 FM250500 17011KT P6SM VCSH SCT050 BKN080
KELD,KELD 241739Z 2418/2518 16015G25KT P6SM BKN060 FM250100 16012G20KT P6SM SCT025 BKN060 FM250600 16012G20KT P6SM VCTS BKN025CB FM250900 VRB15G25KT 3SM TSRA BR OVC020CB FM251200 23008KT P6SM BKN025 FM251600 26013G22KT P6SM BKN025
KELM,KELM 241743Z 2418/2518 VRB04KT P6SM SCT025 TEMPO 2418/2420 BKN025 FM242000 VRB03KT P6SM SCT035 FM250300 00000KT P6SM BKN007 FM251200 00000KT 4SM BR BKN003 FM251600 16004KT P6SM BKN015
KELP,KELP 241736Z 2418/2518 29025G35KT P6SM FEW030 SCT050 FM250100 28018G28KT P6SM SKC FM250400 30010KT P6SM SKC
KELY,KELY 241811Z 2418/2518 18008KT P6SM FEW250 FM241830 33008KT P6SM FEW120 SCT250 FM250200 18010KT P6SM SCT050 BKN250
KEND,TAF KEND 241800Z 2418/2524 33010G20KT 9000 -DZ BKN008 OVC080 641009 651906 QNH2971INS BECMG 2500/2501 34015G25KT 8000 RA OVC012 641009 651906 QNH2980INS BECMG 2509/2510 35012KT 9999 NSW BKN050 QNH2983INS TX17/2518Z TN06/2511Z
KENV,KENV 241720Z 2418/2518 14007KT P6SM SKC FM250300 VRB05KT P6SM FEW060 BKN080
KENW,KENW 241745Z 2418/2518 16013KT P6SM BKN250 FM250200 18012KT P6SM BKN050 WS020/19050KT FM250900 18009KT P6SM VCSH OVC070 FM251100 20007KT 6SM -SHRA BR BKN050 FM251300 20006KT 6SM SHRA BR OVC025 FM251400 20006KT 6SM SHRA BR OVC011 FM251500 19005KT 6SM SHRA BR OVC009
KERI,KERI 241720Z 2418/2518 13005KT P6SM SKC FM250500 16008KT P6SM SCT250
KEUG,KEUG 241855Z 2419/2518 18011G18KT 6SM -RA BR BKN018 OVC025 TEMPO 2419/2421 2SM RA BR OVC008 FM242100 20009KT 6SM -RA BR SCT012 BKN022 OVC035 FM250000 21006KT P6SM -SHRA SCT017 BKN035 OVC050 FM250600 19006KT P6SM VCSH SCT035 BKN050 FM251000 18004KT 6SM BR VCSH BKN028 OVC050
KEUL,KEUL 241725Z 2418/2518 14006KT P6SM BKN120 FM242200 14006KT P6SM -SHRA BKN060 FM242300 13005KT 5SM -RA BR OVC040 FM250500 30006KT P6SM BKN050 AMD NOT SKED
KEVV,KEVV 241720Z 2418/2518 18012G21KT P6SM SCT250 FM250000 16009KT P6SM BKN250 FM251500 16014G25KT P6SM BKN050
KEVW,KEVW 241720Z 2418/2518 26016G25KT P6SM FEW050 FM250000 24010G20KT P6SM FEW050 SCT070 FM250300 24010KT P6SM FEW040 SCT070 BKN080 FM251200 25009KT P6SM VCSH SCT020 BKN040 OVC050
KEWN,KEWN 241720Z 2418/2518 35005KT P6SM SCT015 FM250800 00000KT 5SM BR SKC FM250900 00000KT 3SM BR FEW003 TEMPO 2509/2512 1SM BR SCT003 FM251300 VRB03KT P6SM SKC
KEWR,KEWR 241941Z 2420/2524 02008KT 5SM -DZ BR OVC006 FM250100 VRB03KT 2SM -SHRA BR OVC003 FM251000 VRB04KT 2SM BR OVC004 FM251500 14005KT 5SM BR OVC006 FM252000 09007KT 6SM BR BKN007 TEMPO 2520/2523 OVC010
KEYW,KEYW 241755Z 2418/2518 05009KT P6SM FEW035
KFAF,TAF KFAF 241800Z 2418/2524 35009KT 9999 OVC019 QNH3004INS BECMG 2506/2507 31006KT 9000 BR OVC011 QNH3002INS BECMG 2511/2512 VRB06KT 9999 NSW OVC012 QNH3007INS BECMG 2520/2521 VRB06KT 9999 BKN011 OVC018 QNH2994INS TX18/2418Z TN14/2511Z
KFAR,KFAR 241731Z 2418/2518 21022G35KT P6SM BKN025 FM250000 30017G26KT P6SM OVC025 FM250200 26012G22KT P6SM BKN019 FM251000 28009KT P6SM BKN021 FM251500 25009KT P6SM FEW060
KFAT,KFAT 241720Z 2418/2518 VRB05KT P6SM SKC
KFAY,KFAY 241740Z 2418/2518 35004KT P6SM FEW025 FM250800 00000KT 4SM BR FEW020 FM251100 00000KT 1/2SM FG BKN005 FM251300 03003KT 5SM BR BKN008 FM251400 04003KT P6SM SCT020
KFBG,TAF KFBG 241819Z 2418/2523 01004KT 9999 SKC QNH3011INS BECMG 2508/2509 12004KT 9999 OVC005 QNH3008INS BECMG 2514/2515 04004KT 9999 SCT010 QNH3011INS BECMG 2519/2520 18008KT 9999 FEW010 QNH3011INS TX24/2421Z TN10/2511Z
KFCS,TAF KFCS 241300Z 2413/2519 27010KT 9999 BKN220 QNH2978INS BECMG 2418/2419 14010KT 9999 BKN200 QNH2982INS BECMG 2422/2423 03010KT 9999 FEW090 QNH2986INS TX10/2421Z TNM03/2511Z
KFDY,KFDY 241720Z 2418/2518 17012KT P6SM FEW250 FM250000 15005KT P6SM SCT250
KFFO,TAF KFFO 241900Z 2419/2601 18009KT 9999 FEW040 FEW180 QNH3000INS TEMPO 2419/2422 17010G15KT BECMG 2423/2424 18009KT 9999 SCT040 BKN180 510101 QNH2989INS BECMG 2514/2515 17010G15KT 9999 BKN035 OVC080 520102 QNH2971INS TEMPO 2517/2521 16015G20KT BECMG 2523/2524 15012KT 9000 -SHRA BKN030 OVC070 520102 QNH2970INS TX26/2519Z TN11/2512Z
KFHU,TAF KFHU 241400Z 2414/2520 29010G16KT 9999 BKN035 530009 530904 QNH3001INS TEMPO 2414/2416 30018G28KT BECMG 2415/2416 30010G16KT 9999 FEW035 530009 530904 QNH3009INS TEMPO 2416/2421 32015G22KT BECMG 2420/2421 33012KT 9999 SKC QNH3009INS BECMG 2508/2509 14009KT 9999 SKC QNH3010INS TX15/2421Z TN02/2511Z
KFKL,KFKL 241720Z 2418/2518 14004KT P6SM SKC FM251600 16006KT P6SM SCT190
KFLG,KFLG 241720Z 2418/2518 05012G22KT P6SM SKC FM250200 VRB03KT P6SM SKC
KFLL,KFLL 241720Z 2418/2524 07010KT P6SM SCT040 SCT060 FM250100 06007KT P6SM FEW035 FM251500 06011KT P6SM FEW030 SCT050
KFLO,KFLO 241736Z 2418/2518 VRB03KT P6SM FEW080 FM242300 00000KT P6SM SKC FM250700 00000KT 1 1/2SM BR FEW200 FM250800 00000KT 1/2SM FG FEW150 FM251300 00000KT P6SM FEW080
KFMH,KFMH 241720Z 2418/2518 05005KT 1SM -RA BR OVC003 FM250200 11004KT 3/4SM BR BKN003 FM251400 10004KT 3SM BR BKN008
KFMN,KFMN 241722Z 2418/2518 29027G37KT P6SM FEW080 FM250200 29012G22KT P6SM SKC FM250600 28009KT P6SM SKC FM251200 08005KT P6SM SKC
KFMY,KFMY 241720Z 2418/2518 07007KT P6SM SCT030 SCT250 FM250100 08004KT P6SM SKC
KFNT,KFNT 241720Z 2418/2518 16012G22KT P6SM BKN250 FM242300 16007KT P6SM SCT150 BKN200 FM251600 17010KT P6SM BKN200
KFOD,KFOD 241740Z 2418/2518 28010KT P6SM -RA SCT030 OVC070 FM242100 30007KT P6SM -SHRA SCT025 OVC035 FM250100 28006KT P6SM SCT035 OVC060 FM250800 30005KT P6SM FEW250
KFOE,KFOE 241737Z 2418/2518 33010KT 6SM SHRA BR OVC050 FM241900 34010KT 3SM -RA BR OVC010 FM242300 34007KT 6SM SHRA BR OVC010 FM250000 34005KT P6SM VCSH SCT030 BKN050 FM251300 33011KT P6SM SCT200
KFPR,KFPR 241732Z 2418/2518 05008KT P6SM VCSH SCT040 FM250000 VRB04KT P6SM SCT035 FM251500 02008KT P6SM FEW030
KFRI,TAF AMD KFRI 241617Z 2416/2518 31009KT 8000 -SHRA FEW025 OVC070 QNH2978INS BECMG 2417/2418 32012G18KT 6000 SHRA BKN025 OVC050 QNH2977INS BECMG 2422/2423 35006KT 9999 NSW OVC070 QNH2975INS BECMG 2505/2506 35009KT 9999 BKN100 QNH2980INS BECMG 2511/2512 32010G20KT 9999 SCT200 QNH2988INS TX10/2417Z TN06/2512Z AMD 1620
KFSD,KFSD 241726Z 2418/2518 27017G26KT P6SM BKN150 FM242300 27012G17KT P6SM SCT200 FM250000 28009KT P6SM FEW250 FM251500 30007KT P6SM SKC
KFSM,KFSM 241733Z 2418/2518 16012G22KT 6SM SHRA BR OVC025 TEMPO 2421/2424 1SM +SHRA BR OVC007 FM250000 VRB05KT 6SM -SHRA BR OVC025 TEMPO 2500/2504 4SM SHRA BR OVC009 FM250400 25006KT 6SM -SHRA BR BKN025 PROB30 2506/2512 2SM +SHRA BR OVC008 FM251400 29012G22KT 6SM -SHRA BR OVC018 PROB30 2514/2518 4SM SHRA BR OVC008
KFST,KFST 241941Z 2420/2518 30035G45KT P6SM FEW100 SCT250 FM250200 28017G26KT P6SM FEW100 SCT250 FM250600 26011KT P6SM SKC
KFTK,TAF KFTK 241900Z 2419/2601 18010G15KT 9999 BKN250 QNH2998INS BECMG 2422/2423 15008KT 9999 BKN250 WS020/19040KT QNH2985INS BECMG 2514/2515 17014G22KT 4800 -SHRA BKN030 BKN140 OVC200 QNH2978INS TX26/2419Z TN14/2511Z LAST NO AMDS AFT 2503 NEXT 2511
KFTW,KFTW 241737Z 2418/2518 31010KT 6SM -SHRA VCTS BKN035 OVC050CB FM242100 23015KT P6SM BKN017 FM250100 22011KT 6SM -SHRA VCTS BKN025CB FM250300 27015KT P6SM VCSH BKN050 FM250700 27018G28KT P6SM BKN025 FM251200 31022G32KT P6SM BKN050
KFTY,KFTY 241730Z 2418/2518 14005KT P6SM BKN200 FM250000 13003KT P6SM SCT150 BKN200 FM251500 15008KT P6SM SCT035
KFVE,KFVE 241720Z 2418/2518 15005KT P6SM VCSH SCT050 OVC100 FM242200 13005KT P6SM -SHRA OVC050 FM250300 12005KT 5SM -SHRA BR OVC015 FM250600 13004KT 3SM BR VCSH OVC006 FM251400 17006KT 5SM BR OVC006
KFWA,KFWA 241720Z 2418/2518 18012G21KT P6SM FEW050 BKN250 FM250000 15008KT P6SM BKN200 WS020/20035KT FM251000 17010KT P6SM BKN150
KFXE,KFXE 241720Z 2418/2518 06010KT P6SM SCT040 SCT060 FM250100 VRB05KT P6SM FEW035 FM251500 06010KT P6SM SCT035
KFYV,KFYV 241733Z 2418/2518 17010G20KT 4SM -SHRA BR OVC015 TEMPO 2421/2424 2SM +SHRA BR OVC007 FM250000 36012G20KT P6SM VCSH BKN012 PROB30 2504/2510 4SM -SHRA BR OVC007 FM251100 34012G20KT 6SM -SHRA BR OVC015 PROB30 2511/2515 2SM SHRA BR OVC007
KGBD,KGBD 241733Z 2418/2518 35014G20KT P6SM BKN080 FM242300 34009KT P6SM BKN150 FM251500 32014G20KT P6SM SKC
KGCC,KGCC 241720Z 2418/2518 32020G30KT P6SM FEW100 FM242300 27013KT P6SM SCT100
KGCK,KGCK 241720Z 2418/2518 01020G30KT P6SM SCT150 FM250000 36012KT P6SM SCT200
KGCN,KGCN 241720Z 2418/2518 02008KT P6SM SKC FM250200 VRB03KT P6SM SKC
KGDV,KGDV 241727Z 2418/2518 30021G33KT P6SM OVC013 FM242100 28013KT P6SM BKN015 FM250000 VRB06KT P6SM FEW180 FM250600 21008KT P6SM SCT080 WS020/27040KT FM250900 26012KT P6SM BKN100 WS020/27040KT FM251500 29014G24KT P6SM OVC025
KGEG,KGEG 241720Z 2418/2518 19011KT 3SM -RA BR BKN014 OVC025 FM242100 21009KT P6SM VCSH SCT014 OVC050 FM250100 23012KT P6SM OVC100 FM251500 21009KT P6SM BKN015 BKN025
KGFA,TAF KGFA 241200Z 2412/2518 22010KT 9999 FEW020 QNH2985INS BECMG 2414/2415 22010G20KT 9999 SKC QNH2970INS TEMPO 2418/2422 22012KT FEW070 SCT100 BECMG 2420/2422 22012G20KT 9999 SCT060 OVC080 540404 QNH2967INS TEMPO 2501/2503 22015G25KT FEW060 SCT080 550406 BECMG 2502/2503 22015G25KT 9999 SKC 580404 QNH2968INS TEMPO 2509/2512 FEW100 SCT120 550404 BECMG 2511/2512 21012KT 9999 SCT100 BKN120 540404 QNH2975INS TEMPO 2516/2518 24015G25KT SCT080 OVC090 550402 TX04/2423Z TNM04/2510Z
KGFK,KGFK 241731Z 2418/2518 21027G43KT P6SM VCSH BKN020 FM242000 23022G30KT P6SM VCSH OVC017 FM250000 30019G27KT P6SM OVC018 FM250900 28009KT P6SM BKN021 FM251700 23010KT P6SM SCT060
KGFL,KGFL 241727Z 2418/2518 03003KT P6SM OVC025 TEMPO 2418/2422 4SM -SHRA BR OVC015 FM242200 VRB03KT P6SM OVC020 FM250200 VRB03KT 5SM BR VCSH OVC010 FM251500 VRB03KT 5SM -SHRA OVC020
KGGG,KGGG 241739Z 2418/2518 17016G26KT P6SM VCSH SCT030 OVC040 FM242100 17015G25KT 6SM -TSRA BR BKN030CB FM250100 17013G22KT P6SM VCTS BKN023CB FM250600 VRB15G25KT 3SM TSRA BR OVC020CB FM250800 26013G22KT P6SM BKN025 FM251500 30016G27KT P6SM BKN035
KGGW,KGGW 241727Z 2418/2518 30016G23KT P6SM BKN011 FM242100 27011KT P6SM SCT015 BKN060 FM242300 VRB06KT P6SM BKN100 FM250900 29009KT P6SM OVC050 FM251500 30008KT P6SM OVC025
KGJT,KGJT 241729Z 2418/2518 28004KT P6SM FEW060 SCT150 FM242100 30007KT P6SM FEW110 FM250300 09004KT P6SM FEW250 FM250800 10007KT P6SM FEW250 FM251500 13008KT P6SM OVC100
KGKY,KGKY 241737Z 2418/2518 30010KT 6SM -SHRA VCTS BKN035 OVC060CB FM242100 23015KT P6SM BKN017 FM250100 22011KT 6SM -SHRA VCTS BKN025CB FM250300 27015KT P6SM VCSH BKN050 FM250700 27018G28KT P6SM BKN025 FM251200 31022G32KT P6SM BKN050
KGLD,KGLD 241720Z 2418/2518 34025G35KT P6SM SCT250 FM250000 36012KT P6SM FEW250 FM250100 29008KT P6SM SKC
KGLH,KGLH 241720Z 2418/2518 18015G25KT P6SM FEW050 FM250200 17014KT P6SM SCT040 BKN100 FM250900 17015G25KT P6SM VCSH BKN025 OVC040 FM251200 20015G25KT 6SM TSRA BR BKN025CB OVC040 FM251500 22016G30KT P6SM SCT040
KGLS,KGLS 241740Z 2418/2518 17016KT P6SM BKN050 FM250700 25018G29KT P6SM VCTS BKN040CB FM250800 30020G31KT 3SM SHRA BR VCTS OVC025CB PROB30 2509/2512 VRB25G40KT 3SM TSRA BKN015CB FM251200 31018G28KT P6SM VCSH SCT090
KGMU,KGMU 241729Z 2418/2518 18004KT P6SM FEW250 FM250100 00000KT P6SM FEW250 FM251500 17005KT P6SM SCT250
KGNV,KGNV 241720Z 2418/2518 05007KT P6SM FEW035 SCT250 FM250200 00000KT P6SM FEW250 FM250900 00000KT 3SM BR FEW250 FM251300 11004KT P6SM SKC
KGON,KGON 241941Z 2420/2518 04006KT 3SM -SHRA BR OVC005 FM250000 10006KT 4SM -SHRA BR OVC003 FM250400 07005KT 2SM -DZ BR OVC003 FM251200 13007KT 2SM BR OVC005
KGPI,KGPI 241720Z 2418/2518 18010G16KT P6SM -RA OVC050 FM242100 20009G12KT P6SM VCSH OVC035 FM250200 20007KT P6SM VCSH BKN040
KGPT,KGPT 241754Z 2418/2518 13010KT P6SM SCT025 BKN035 FM250300 13010KT P6SM VCSH BKN050 FM250800 15010G19KT 6SM SHRA BR BKN030 FM251400 19010KT P6SM SCT100
KGRB,KGRB 241737Z 2418/2518 17014G24KT P6SM BKN120 FM242300 16013G23KT P6SM OVC090 WS020/19040KT FM250400 18014KT P6SM -SHRA OVC045 WS020/20050KT FM250900 23007KT P6SM -SHRA OVC035 FM251300 25005KT P6SM OVC028 FM251700 27004KT P6SM -SHRA OVC045
KGRF,TAF KGRF 241300Z 2413/2519 15012KT 9000 -SHRA BKN020 OVC030 610604 QNH2990INS BECMG 2418/2419 19010G20KT 9999 NSW SCT020 BKN055 620553 QNH2998INS BECMG 2501/2502 18010KT 9999 BKN150 QNH3011INS BECMG 2508/2509 20008KT 9999 BKN040 620503 QNH3018INS BECMG 2512/2513 18008KT 9999 BKN020 OVC040 620454 QNH3013INS TX14/2421Z TN08/2413Z
KGRI,KGRI 241720Z 2418/2518 30014G21KT P6SM SCT110 BKN220 FM242300 31011KT P6SM FEW250 FM250500 30007KT P6SM FEW250
KGRK,TAF AMD KGRK 241901Z 2419/2522 02012KT 9999 BKN015 QNH2968INS BECMG 2420/2421 13012KT 9999 OVC035 QNH2964INS BECMG 2423/2424 17012KT 9999 VCTS OVC040CB QNH2962INS TEMPO 2500/2503 VRB15G25KT 4800 -TSRA BKN015CB BECMG 2504/2505 29012G18KT 9999 NSW SKC QNH2978INS BECMG 2514/2515 32015G25KT 9999 SKC QNH2991INS TX22/2421Z TN12/2513Z
KGRR,KGRR 241739Z 2418/2518 17015G25KT P6SM BKN250 FM250100 15011KT P6SM BKN200 WS020/20040KT FM251200 17008KT P6SM BKN120
KGSB,TAF AMD KGSB 241430Z 2414/2518 35006KT 9999 SCT012 QNH3014INS BECMG 2501/2502 01006KT 4800 BR BKN005 QNH2988INS BECMG 2514/2515 36006KT 9999 NSW SCT020 QNH2983INS TX22/2420Z TN17/2414Z
KGSO,KGSO 241740Z 2418/2518 VRB03KT P6SM FEW250
KGSP,KGSP 241729Z 2418/2518 18004KT P6SM FEW250 FM250200 00000KT P6SM FEW250 FM251500 17004KT P6SM SCT250
KGTB,TAF KGTB 241700Z 2417/2523 VRB06KT 9999 FEW030 SCT120 QNH3015INS BECMG 2506/2507 VRB06KT 9999 BKN006 OVC014 QNH3014INS BECMG 2514/2515 17008KT 9999 OVC012 QNH3018INS BECMG 2517/2518 19008KT 9999 OVC020 QNH3014INS TX20/2517Z TN12/2505Z
KGTF,KGTF 241739Z 2418/2518 23016G27KT P6SM SCT150 FM250900 22011G18KT P6SM SCT200 FM251700 24015G28KT P6SM SCT140
KGTR,KGTR 241720Z 2418/2518 16012G20KT P6SM FEW040 FM242300 15012KT P6SM FEW035 SCT100 FM251300 16015G25KT P6SM VCSH BKN025 OVC050 FM251600 18015G25KT P6SM TSRA SCT025CB BKN040
KGUC,KGUC 241920Z 2419/2518 35007G15KT P6SM SCT060 FM242000 31011G18KT P6SM SCT060 FM250200 32007KT P6SM SKC FM250600 27003KT P6SM SKC
KGUP,KGUP 241722Z 2418/2518 32020G30KT P6SM FEW070 FM250100 30011KT P6SM SKC FM250400 VRB04KT P6SM SKC
KGUR,TAF KGUR 241256Z 2413/2519 29009KT 9999 SKC 530053 QNH2985INS TEMPO 2415/2418 30025G35KT 9999 SKC 560023 BECMG 2500/2501 29015KT 9999 SKC 530055 QNH2988INS BECMG 2515/2516 28020G25KT 9999 FEW095 SCT130 BKN190 560103 QNH2996INS TX10/2518Z TNM03/2413Z
KGUS,TAF KGUS 241300Z 2413/2519 16009KT 9999 FEW130 SCT200 QNH3005INS BECMG 2416/2417 19015G20KT 9999 BKN200 QNH2995INS BECMG 2422/2423 17009KT 9999 BKN200 QNH2980INS BECMG 2515/2516 16015G20KT 9999 FEW023 BKN030 OVC045 QNH2967INS TX22/2419Z TN14/2510Z
KGUY,KGUY 241740Z 2418/2518 03018KT P6SM VCSH OVC060 FM250200 32010KT P6SM BKN200 FM251200 27009KT P6SM SKC
KGWO,KGWO 241720Z 2418/2518 18015G25KT P6SM FEW050 FM250000 16014KT P6SM FEW035 SCT100 FM251000 17015G25KT P6SM VCSH BKN025 OVC040 FM251300 19015G25KT 6SM TSRA BR BKN025CB OVC040 FM251600 20015G25KT P6SM BKN035
KGYY,KGYY 241731Z 2418/2518 17014G23KT P6SM BKN200 FM242100 17019G31KT P6SM BKN200 FM250400 18015G24KT P6SM SCT050 OVC120 FM251300 17010KT 6SM -SHRA BKN020 OVC050 FM251700 16009KT 4SM -RA BR OVC010
KHBG,KHBG 241720Z 2418/2518 17011KT P6SM SCT050 FM251300 18012G20KT P6SM VCSH BKN025 OVC050
KHCR,KHCR 241720Z 2418/2518 24009KT P6SM FEW050 SCT060 FM250000 VRB03KT P6SM SCT060 BKN080 FM251300 VRB03KT 1SM -SN FEW010 SCT015 OVC025 FM251600 VRB03KT P6SM VCSH FEW020 SCT025 OVC030
KHDC,KHDC 241754Z 2418/2518 14015KT P6SM FEW250 FM250400 14006KT 6SM BR VCSH BKN035 FM251200 19008KT P6SM BKN035 FM251500 22009KT 5SM SHRA BR VCTS BKN030CB
KHDN,KHDN 241916Z 2419/2518 27014G20KT P6SM SCT025 OVC050 TEMPO 2419/2423 BKN025 BKN040 FM250100 25010KT P6SM SCT250 FM250300 14005KT P6SM FEW250 FM251200 10005KT P6SM OVC100
KHIB,KHIB 241726Z 2418/2518 20015G25KT P6SM VCSH BKN080 FM242200 21014G26KT P6SM BKN080 FM250500 23007G16KT P6SM SCT050 FM251100 26006KT P6SM BKN015
KHIE,KHIE 241724Z 2418/2518 VRB03KT P6SM VCSH OVC060 FM242100 11003KT P6SM OVC025 FM250200 00000KT 4SM BR OVC004 FM251600 13005KT 6SM BR OVC015
KHIF,TAF KHIF 241300Z 2413/2519 20009KT 9999 FEW030 SCT050 BKN100 QNH3010INS BECMG 2417/2418 24010KT 9999 FEW080 SCT150 QNH3018INS BECMG 2503/2504 16010KT 9999 FEW040 BKN080 620806 QNH3022INS TEMPO 2513/2516 9000 -RASN FEW015 BKN030 620309 TX08/2422Z TN00/2413Z
KHIO,KHIO 241851Z 2419/2518 18006KT 6SM -SHRA BR BKN015 OVC027 TEMPO 2419/2421 2SM RA BR OVC008 FM250000 27006KT P6SM -SHRA SCT015 BKN035 OVC050 FM250600 VRB03KT P6SM VCSH SCT028 BKN050 FM251100 20003KT 6SM BR BKN028 OVC050
KHKS,KHKS 241720Z 2418/2518 17012G20KT P6SM FEW045 FM250900 17014G22KT P6SM VCSH SCT015 BKN025 FM251500 19015G25KT P6SM TSRA BKN025CB OVC050
KHKY,KHKY 241729Z 2418/2518 VRB03KT P6SM FEW250 FM250100 00000KT P6SM FEW250 FM251700 17004KT P6SM SCT250
KHLG,KHLG 241720Z 2418/2518 14002KT P6SM SKC
KHLN,KHLN 241739Z 2418/2518 18009KT P6SM SCT120 BKN250 FM242000 25009KT P6SM SCT080 BKN110 FM250000 24011G18KT P6SM VCSH SCT050 BKN080 FM250500 25010G23KT P6SM SCT070 BKN120 FM251100 23008KT P6SM SCT120
KHMN,TAF AMD KHMN 241855Z 2418/2523 30015G25KT 9999 SCT060 SCT120 QNH2980INS TEMPO 2418/2423 32030G40KT 520004 530406 BECMG 2500/2501 34009KT 9999 FEW170 QNH3004INS BECMG 2504/2505 VRB06KT 9999 SKC QNH3015INS BECMG 2517/2518 34010G15KT 9999 SKC QNH3004INS TX15/2422Z TN01/2512Z
KHNB,KHNB 241745Z 2418/2518 18013G19KT P6SM BKN250 FM242300 15009KT P6SM BKN250 FM250500 16008KT P6SM BKN250 WS020/20037KT FM251200 15012KT P6SM BKN070 FM251600 15015G25KT P6SM BKN050
KHND,KHND 241720Z 2418/2518 01008KT P6SM SKC FM250200 18007KT P6SM SKC
KHOB,KHOB 241720Z 2418/2518 28020G30KT P6SM SCT100 BKN250 TEMPO 2418/2420 SHRA FM242100 27030G40KT P6SM BKN100 FM250000 30015G23KT P6SM SCT100 BKN250 FM250500 28008KT P6SM FEW250
KHON,KHON 241726Z 2418/2518 27020G28KT P6SM BKN040 FM250100 29011G18KT P6SM SCT030 FM250500 29008KT P6SM SCT022 FM250700 29007KT P6SM SCT080
KHOP,TAF KHOP 241600Z 2416/2522 19012G22KT 9999 FEW180 510007 QNH2996INS BECMG 2505/2506 15010KT 9999 SCT080 WS015/19037KT QNH2987INS BECMG 2512/2513 16015G25KT 8000 -SHRA BKN030 510007 QNH2963INS TEMPO 2517/2521 20025G30KT 4800 -TSRA BKN010CB BECMG 2521/2522 16015G25KT 9999 NSW BKN030 510007 QNH2963INS TX24/2421Z TN16/2509Z
KHOT,KHOT 241724Z 2418/2518 17012G20KT P6SM VCSH SCT020 BKN050 FM242300 17009KT 6SM -SHRA BR SCT009 OVC025 FM250800 20009G17KT 6SM -RA BR OVC010 FM251200 22009KT 6SM -RA BR OVC007
KHOU,KHOU 241740Z 2418/2518 16014G24KT P6SM VCSH SCT030 BKN040 OVC080 FM250600 24011G25KT P6SM VCTS BKN035CB PROB30 2507/2510 VRB20G35KT 4SM TSRA BKN025CB FM251100 30011G24KT P6SM VCSH BKN035 WS020/32045KT FM251400 31015G21KT P6SM FEW250
KHPN,KHPN 241941Z 2420/2518 06007KT 1 1/2SM -DZ BR OVC003 FM242300 VRB04KT 1SM -SHRA BR OVC003 FM250300 VRB03KT 1/2SM -SHRA FG OVC003 FM251000 VRB04KT 2SM BR OVC004 FM251400 14005KT 2SM BR OVC004 AMD NOT SKED
KHQM,KHQM 241744Z 2418/2518 26010KT P6SM VCSH SCT025 BKN035 TEMPO 2422/2502 -SHRA OVC030 FM250300 27010KT P6SM BKN040 FM251700 17009KT 4SM -RA BR OVC050
KHRL,KHRL 241723Z 2418/2518 18020G32KT P6SM BKN040 FM242300 16015G24KT P6SM BKN050 FM250200 17012G19KT P6SM SCT050 FM250900 34014G21KT P6SM TS BKN035CB PROB30 2509/2512 P6SM -RA OVC070 FM251200 34012KT P6SM OVC050 FM251500 35017G24KT P6SM BKN250
KHRO,KHRO 241724Z 2418/2518 16014G22KT P6SM VCSH BKN015 OVC025 TEMPO 2418/2422 -SHRA OVC010 FM242200 17013G20KT 6SM -SHRA BR OVC010 FM250600 26007KT 4SM -SHRA BR OVC007 FM251200 34010KT 2SM -RA BR OVC004 FM251600 33009KT 4SM -SHRA BR OVC007
KHRT,TAF KHRT 241800Z 2418/2524 14008KT 9999 FEW030 SCT250 QNH3001INS BECMG 2510/2511 16010KT 8000 -SHRA BKN030 QNH2994INS TEMPO 2516/2518 18012G22KT 3200 +SHRA OVC025 BECMG 2520/2521 19008KT 9999 NSW SCT030 SCT250 QNH2998INS TEMPO 2523/2524 18011G21KT TX27/2518Z TN18/2511Z
KHST,TAF KHST 241900Z 2419/2601 06012KT 9999 SCT025 BKN055 QNH2996INS BECMG 2423/2424 05006KT 9999 FEW025 SCT055 QNH2997INS BECMG 2514/2515 04006KT 9999 FEW020 SCT065 QNH2992INS TX29/2419Z TN19/2510Z
KHSV,KHSV 241720Z 2418/2518 18010G16KT P6SM SKC FM250000 15005KT P6SM FEW250 FM251400 15012G20KT P6SM VCSH BKN040
KHTS,KHTS 241732Z 2418/2518 VRB04KT P6SM FEW250 FM251400 17004KT P6SM FEW250
KHUA,TAF KHUA 241200Z 2412/2518 VRB06KT 9999 SKC QNH3011INS BECMG 2417/2418 17010G15KT 9999 FEW270 QNH3001INS BECMG 2420/2421 VRB06KT 9999 FEW240 QNH2993INS BECMG 2503/2504 14009KT 9999 BKN040 520203 QNH2983INS TX22/2420Z TN10/2412Z
KHUF,KHUF 241725Z 2418/2518 18014G23KT P6SM SCT230 FM242200 16011G21KT P6SM BKN250 FM251100 15009KT P6SM VCSH BKN110 WS020/20040KT FM251400 16012G24KT P6SM VCSH BKN060
KHUL,KHUL 241720Z 2418/2518 VRB03KT P6SM -SHRA SCT035 OVC070 FM242100 VRB03KT 5SM -SHRA OVC020 FM250000 VRB03KT 5SM -SHRA BR OVC007 FM250400 VRB02KT 2SM -SHRA BR OVC003 FM251600 18004KT 2SM BR OVC005
KHUM,KHUM 241754Z 2418/2518 14011KT P6SM BKN070 FM250700 18006KT P6SM VCSH BKN030 FM251500 22012G20KT 5SM SHRA BR VCTS BKN025CB
KHUT,KHUT 241733Z 2418/2518 35013G19KT P6SM BKN080 FM242300 35008KT P6SM BKN100 FM251500 33014G21KT P6SM SKC
KHVR,KHVR 241740Z 2418/2518 24012G19KT P6SM FEW250 FM242000 23016G28KT P6SM FEW110 SCT200 FM250100 24017G27KT P6SM SCT060 BKN090 FM250700 23011G18KT P6SM SCT080 BKN120 AMD NOT SKED
KHYA,KHYA 241720Z 2418/2518 05005KT 1SM -RA BR OVC003 FM241900 05005KT 3/4SM -RA BR OVC003 FM250000 10004KT 3/4SM BR OVC003
KHYR,KHYR 241726Z 2418/2518 20015G32KT P6SM VCSH BKN025 FM242300 23009G21KT 4SM -SHRA BKN025 FM250400 23006KT P6SM BKN035 FM250900 24004KT P6SM SCT150 FM251500 25006G15KT P6SM SCT040
KHYS,KHYS 241720Z 2418/2518 35015G25KT P6SM SCT150 FM250300 33012KT P6SM SCT200
KIAB,TAF KIAB 241800Z 2418/2524 35010G18KT 8000 -RA BKN008 OVC020 540507 QNH2973INS BECMG 2419/2420 35010G18KT 9999 NSW FEW015 BKN030 OVC080 540507 QNH2971INS BECMG 2500/2501 36009KT 9999 FEW030 OVC080 540708 QNH2971INS BECMG 2511/2512 34010G18KT 9999 SCT120 BKN200 QNH2977INS BECMG 2515/2516 33015G28KT 9999 FEW250 QNH2982INS BECMG 2522/2523 36009KT 9999 SKC QNH2980INS TX12/2420Z TN05/2512Z
KIAD,KIAD 241727Z 2418/2524 34008KT P6SM BKN020 BKN070 FM250400 VRB03KT 4SM BR BKN008 FM250600 VRB03KT 1 1/2SM -DZ BR SCT002 BKN006 FM251400 13004KT 6SM BR BKN008 OVC015 FM251800 14003KT P6SM BKN035 FM252200 13005KT P6SM BKN130
KIAG,KIAG 241736Z 2418/2518 03004KT P6SM SKC FM242300 06005KT P6SM FEW250 FM250600 17004KT P6SM BKN250 FM251400 18007KT P6SM SCT250
KIAH,KIAH 241740Z 2418/2524 17015G24KT P6SM VCSH SCT025 OVC080 FM250500 20011G21KT P6SM VCTS BKN020CB PROB30 2506/2509 VRB20G30KT 5SM TSRA FM251000 30010G20KT P6SM VCSH BKN060 FM251200 30012KT P6SM SCT030 BKN250 FM251400 32013G27KT P6SM SKC
KICT,KICT 241808Z 2418/2518 35012G20KT P6SM BKN009 FM241930 35013G20KT P6SM SCT015 BKN080 FM242300 35011KT P6SM BKN080 FM251200 33013G20KT P6SM SKC
KIDA,KIDA 241731Z 2418/2518 22015KT P6SM BKN010 OVC030 FM242000 22015G25KT P6SM SCT010 SCT040 FM250300 21014G24KT P6SM VCSH SCT040 OVC060 FM250700 21013G23KT P6SM -RASN BKN010 OVC015 FM251100 21018G28KT P6SM VCSH SCT015 OVC025
KIFP,KIFP 241720Z 2418/2518 01018G26KT P6SM SKC FM250100 02010KT P6SM SKC
KILG,KILG 241911Z 2419/2518 03008KT 5SM BR OVC007 TEMPO 2419/2422 2SM -DZ BR OVC005 FM242200 02005KT 5SM BR OVC005 TEMPO 2500/2503 4SM -RA BR OVC004 FM250300 VRB03KT 2SM -DZ BR OVC004 FM251400 VRB03KT 6SM BR OVC006
KILM,KILM 241736Z 2418/2518 36006KT P6SM FEW080 FM242200 VRB04KT P6SM SKC FM251200 VRB03KT 3SM BR SCT035 FM251400 36004KT P6SM SCT050
KILN,KILN 241729Z 2418/2518 17011KT P6SM BKN250 FM250000 17004KT P6SM SCT120 BKN250 FM251600 17012G20KT P6SM SCT250
KIND,KIND 241725Z 2418/2524 18012G21KT P6SM BKN240 FM242200 16012G20KT P6SM BKN250 FM250000 15009KT P6SM BKN240 FM251600 16012G21KT P6SM BKN090 FM252300 17010KT 6SM SHRA BR OVC030
KINK,KINK 241819Z 2418/2518 28022G32KT P6SM FEW100 BKN200 FM242000 29034G44KT 6SM BLDU BKN100 FM250100 32016G24KT P6SM SCT100 BKN250 FM250500 28009KT P6SM FEW250
KINL,KINL 241726Z 2418/2518 19016G34KT P6SM BKN030 FM250000 22013G26KT P6SM BKN030 FM250400 23010G21KT P6SM BKN023 FM250800 25008G17KT P6SM VCSH BKN012 FM251700 26009G17KT P6SM BKN035
KINS,TAF KINS 2413/2519 35006KT 9999 FEW110 QNH3008INS BECMG 2417/2418 02009KT 9999 SKC QNH3018INS BECMG 2501/2502 22006KT 9999 SKC QNH3018INS TX16/2421Z TN04/2414Z
KINT,KINT 241740Z 2418/2518 VRB03KT P6SM FEW250
KINW,KINW 241720Z 2418/2518 33012G18KT P6SM SKC FM250100 26007KT P6SM SKC FM251100 14005KT P6SM SKC
KIPL,KIPL 241720Z 2418/2518 01009KT P6SM SKC FM250100 26005KT P6SM SKC FM251500 21003KT P6SM SKC
KIPT,KIPT 241728Z 2418/2518 12004KT P6SM OVC018 FM250200 00000KT 6SM BR OVC008 FM250500 00000KT 3SM BR OVC005 FM251330 13003KT 6SM BR BKN015
KISM,KISM 241732Z 2418/2518 06006KT P6SM SCT045 FM250000 07005KT P6SM SCT040 FM250600 02002KT P6SM SKC FM251500 05004KT P6SM FEW030
KISO,KISO 241720Z 2418/2518 35006KT P6SM FEW050 FM250500 00000KT 3SM BR SKC FM250700 00000KT 1SM BR BKN250 TEMPO 2509/2512 1/4SM FG BKN003 FM251300 VRB03KT P6SM SKC AMD LTD TO CLD VIS AND WIND
KISP,KISP 241941Z 2420/2518 06007KT 2SM -SHRA BR OVC005 FM250800 13004KT 2SM -DZ BR OVC004 FM251000 13005KT 2SM BR OVC007
KITH,KITH 241743Z 2418/2518 VRB03KT P6SM SCT035 FM250300 VRB03KT P6SM BKN025 FM250700 VRB03KT P6SM BKN015 FM251100 13004KT P6SM BKN007 FM251600 15007KT P6SM BKN015
KIWA,KIWA 241720Z 2418/2518 32006KT P6SM SKC FM242300 28005KT P6SM FEW250 FM250500 11005KT P6SM FEW250
KIWD,KIWD 241723Z 2418/2518 19016G25KT P6SM BKN023 FM242100 20012G22KT P6SM VCSH BKN045 FM250000 22008KT P6SM VCSH OVC045 FM250200 22007KT 5SM SHRA BR OVC012 FM250300 23006KT 3SM SHRA BR OVC008 FM250600 25007KT P6SM OVC012 PROB30 2506/2509 5SM -SHRA BR
KIXD,KIXD 241737Z 2418/2518 34006KT 5SM -SHRA SCT015 BKN025 TEMPO 2418/2420 2SM -RA BKN015 FM242000 34005KT 6SM -SHRA SCT015 BKN025 FM250000 33007KT P6SM SCT015 BKN025 FM250400 35010KT P6SM OVC080
KJAC,KJAC 241722Z 2418/2518 20010G16KT P6SM FEW045 SCT080 FM241900 23014G22KT P6SM SCT050 BKN080 FM250300 22016G24KT P6SM VCSH SCT025 OVC040 FM250800 22014G22KT 2SM -SN SCT010 OVC015 FM251300 20010KT P6SM VCSH SCT018 OVC030 FM251700 23012G18KT P6SM SCT030 BKN050
KJAN,KJAN 241720Z 2418/2518 17012G20KT P6SM FEW045 FM250900 17014G22KT P6SM VCSH SCT015 BKN025 FM251500 19015G25KT P6SM TSRA BKN025CB OVC050
KJAX,KJAX 241720Z 2418/2518 07008KT P6SM FEW040 SCT250 FM250200 00000KT P6SM FEW250 FM250900 00000KT 6SM BR FEW250 FM251300 01005KT P6SM FEW250
KJBR,KJBR 241720Z 2418/2518 19019G27KT P6SM SCT050 BKN250 FM250100 16011G17KT P6SM FEW050 OVC120 FM250600 17015G23KT P6SM BKN050 WS020/18045KT FM250900 17018G26KT 6SM BR VCSH SCT025 BKN035 WS020/18045KT FM251500 21012G19KT P6SM -SHRA VCTS OVC025CB
KJCT,KJCT 241741Z 2418/2518 22005KT P6SM SCT030 FM242100 26012G17KT P6SM BKN250 FM250100 28018G26KT P6SM BKN250
KJEF,KJEF 241720Z 2418/2518 17012G22KT P6SM VCSH BKN040 FM242100 17012G22KT 5SM SHRA BR OVC025 FM250100 20010KT 4SM +SHRA BR OVC015 FM250600 27006KT 4SM +SHRA BR OVC009 FM251100 36011KT 4SM SHRA BR OVC009
KJER,KJER 241725Z 2418/2518 25012G22KT P6SM BKN120 FM250100 22010KT P6SM VCSH BKN060 FM250600 24012G22KT P6SM -RA BKN025 FM251200 24012G22KT P6SM BKN035
KJFK,KJFK 241941Z 2420/2524 03010KT 6SM -DZ BR OVC007 FM250000 06005KT 2SM -SHRA BR OVC004 FM251000 14005KT 2SM BR OVC005 FM251900 10008KT 6SM BR BKN007 TEMPO 2519/2523 OVC015
KJHW,KJHW 241736Z 2418/2518 VRB03KT P6SM SKC FM250100 14004KT P6SM FEW250 FM250800 15006KT P6SM SCT200 FM251300 16007KT P6SM SCT200 FM251500 17009KT P6SM SCT250
KJKA,KJKA 241728Z 2418/2518 13012G19KT P6SM SCT026 SCT045 FM250300 13005KT P6SM SCT250 FM251200 16012G20KT P6SM SCT050 FM251400 15012G20KT P6SM VCTS BKN045CB PROB30 2514/2515 5SM -RA OVC045
KJKL,KJKL 241739Z 2418/2518 00000KT P6SM FEW250 FM242100 00000KT P6SM BKN250 FM250200 00000KT P6SM SCT200 FM251500 18006G13KT P6SM SCT200
KJLN,KJLN 241858Z 2419/2518 17015G25KT 5SM SHRA BR OVC011 FM242000 33012G30KT 3SM +SHRA BR OVC011 TEMPO 2421/2422 1SM +SHRA BR OVC007 FM242200 34009KT 2SM SHRA OVC007 FM251100 36013G21KT 5SM SHRA BR OVC007
KJMS,KJMS 241733Z 2418/2518 27020G33KT P6SM OVC015 FM250000 29017G27KT 4SM -RASN BR OVC010 FM250300 29011KT 6SM BR OVC010 FM251000 25009KT P6SM SCT020 FM251500 26012KT P6SM SCT040
KJST,KJST 241728Z 2418/2518 VRB05KT P6SM SKC FM250600 00000KT 6SM BR OVC008 FM251330 13003KT 6SM BR BKN020 AMD NOT SKED
KJVL,KJVL 241908Z 2419/2518 17014G21KT P6SM SCT060 OVC250 FM250200 19013KT P6SM BKN050 WS020/20050KT TEMPO 2504/2507 5SM -SHRA BKN035 FM250700 19011G23KT 6SM -SHRA BR OVC030 WS020/20050KT FM250900 20009KT 6SM -SHRA BR OVC019 FM251200 VRB04KT 6SM -SHRA BR OVC015 FM251700 35007KT 5SM -SHRA BR OVC019
KJXN,KJXN 241739Z 2418/2518 17012G22KT P6SM BKN250 FM242300 16008KT P6SM BKN200
KJZI,KJZI 241726Z 2418/2518 36006KT P6SM FEW250 FM242100 VRB03KT P6SM FEW250 FM250700 00000KT 5SM BR FEW250 FM251300 VRB06KT P6SM FEW250
KLAF,KLAF 241725Z 2418/2518 18014G25KT P6SM SCT250 FM242200 16013G22KT P6SM BKN240 FM250600 18009KT P6SM BKN250 WS020/20040KT FM250900 16008KT P6SM BKN250 WS020/21035KT FM251500 16012G21KT P6SM VCSH BKN070
KLAL,KLAL 241720Z 2418/2518 06006KT P6SM SCT025 SCT250 FM250100 10004KT P6SM SCT250
KLAN,KLAN 241739Z 2418/2518 17013G24KT P6SM BKN250 FM242300 16009KT P6SM BKN200
KLAR,KLAR 241720Z 2418/2518 28015G25KT P6SM BKN050 FM250100 26020G30KT P6SM SKC
KLAS,KLAS 241720Z 2418/2524 01009KT P6SM SKC FM242300 13005KT P6SM SKC FM250300 22005KT P6SM SKC FM251200 VRB05KT P6SM SKC FM251800 07005KT P6SM FEW250
KLAW,KLAW 241720Z 2418/2518 35011KT P6SM VCSH BKN045 BKN090 FM241900 05010KT P6SM BKN050 OVC100 FM250000 02010KT 5SM -RA BKN025 FM250600 36018G28KT P6SM VCSH OVC015 FM251500 31011KT P6SM SKC
KLAX,KLAX 241721Z 2418/2524 27008KT P6SM SKC FM242000 27012KT P6SM SKC FM250300 27006KT P6SM SKC FM250600 VRB03KT P6SM SKC FM251100 08006KT P6SM SKC FM252000 26012KT P6SM SKC
KLBB,KLBB 241735Z 2418/2518 23023KT P6SM VCSH SCT030 FM242000 30015KT P6SM OVC030 TEMPO 2420/2424 4SM -SHRA BR OVC020 FM250500 32016KT P6SM FEW250
KLBE,KLBE 241720Z 2418/2518 28003KT P6SM SKC
KLBF,KLBF 241722Z 2418/2518 29023G35KT P6SM FEW250 FM242200 32019G24KT P6SM FEW250 FM250100 31010KT P6SM FEW250 FM250300 30004KT P6SM SCT250
KLBL,KLBL 241934Z 2420/2518 36015G25KT P6SM BKN060 FM250300 34012KT P6SM SCT200
KLBT,KLBT 241736Z 2418/2518 VRB04KT P6SM SKC FM251000 00000KT 3SM BR SCT100 FM251300 00000KT P6SM SCT080 AMD NOT SKED
KLBX,KLBX 241740Z 2418/2518 18015G25KT P6SM VCSH BKN040 OVC070 FM250700 22010G25KT P6SM VCTS BKN035CB PROB30 2508/2511 VRB20G35KT 4SM TSRA OVC025CB FM251200 31010G25KT P6SM VCSH SCT100 FM251400 32012G20KT P6SM SKC
KLCH,KLCH 241735Z 2418/2518 16017G23KT P6SM SCT080 FM242200 17016G22KT P6SM BKN070 BKN200 FM250600 18012G22KT P6SM FEW060 SCT200 PROB30 2508/2510 4SM TSRA BR BKN025CB FM251000 27016G26KT P6SM +SHRA VCTS BKN015CB OVC045 FM251100 29016G27KT P6SM +SHRA VCTS BKN015CB OVC050 FM251200 28017G25KT P6SM VCSH SCT025 BKN050 PROB30 2512/2514 4SM TSRA BR OVC025CB FM251400 30014G23KT P6SM SKC
KLCK,KLCK 241729Z 2418/2518 16008KT P6SM SCT250 FM250000 14004KT P6SM BKN250 FM251600 16010KT P6SM SCT250
KLEB,KLEB 241724Z 2418/2518 VRB02KT 6SM -DZ BR OVC008 FM242100 00000KT 5SM -DZ BR OVC015 FM250000 00000KT 2SM -DZ BR OVC005
KLEE,KLEE 241732Z 2418/2518 04007KT P6SM SCT040 BKN060 FM250000 07006KT P6SM SCT050 FM250600 05002KT P6SM SKC FM251500 13004KT P6SM FEW030
KLEX,KLEX 241739Z 2418/2518 17008KT P6SM BKN250 FM250000 15005KT P6SM BKN250 FM250600 17006KT P6SM SCT250 FM251100 16007KT P6SM SCT250 FM251500 17014G21KT P6SM BKN250
KLFI,TAF KLFI 241700Z 2417/2523 32010KT 9999 OVC010 QNH3005INS BECMG 2500/2501 34009KT 9999 OVC008 QNH3005INS BECMG 2505/2506 30006KT 6000 BR OVC006 QNH3003INS BECMG 2516/2517 VRB06KT 9999 NSW BKN011 QNH2997INS TX18/2517Z TN14/2509Z
KLFK,KLFK 241739Z 2418/2518 14011G20KT P6SM VCSH FEW020 BKN070 FM242200 16014G22KT P6SM VCSH BKN040 FM250500 16011KT P6SM VCTS BKN025CB TEMPO 2506/2509 VRB20G30KT 2SM TSRA BR OVC025CB FM250900 27010KT P6SM BKN070 FM251500 31013G22KT P6SM SCT025
KLFT,KLFT 241735Z 2418/2518 16014G21KT P6SM BKN070 FM250200 15010G23KT P6SM BKN080 FM250700 17009KT P6SM VCSH SCT040 BKN060 PROB30 2510/2512 4SM -SHRA BR BKN025 FM251200 24013G27KT P6SM SHRA VCTS BKN015CB OVC030 FM251300 27013G25KT P6SM -SHRA BKN040 PROB30 2513/2515 4SM -SHRA BR BKN025 FM251500 29015G25KT P6SM SCT060
KLGA,KLGA 241941Z 2420/2524 04012KT 1SM -DZ BR OVC005 FM250000 06005KT 2SM -SHRA BR OVC004 FM251000 VRB04KT 2SM BR OVC005 FM251500 14007KT 6SM BR BKN007 FM252000 10007KT 6SM BR BKN007 TEMPO 2520/2523 OVC015
KLGB,KLGB 241721Z 2418/2518 04005KT P6SM SKC FM242000 21006KT P6SM SKC FM250000 28010KT P6SM SKC FM250500 VRB03KT P6SM SKC FM251000 00000KT P6SM SKC
KLGU,KLGU 241720Z 2418/2518 VRB04KT P6SM FEW060 FEW200 FM250300 VRB04KT P6SM SCT050 BKN070 FM250900 VRB04KT 6SM -RASN BR SCT015 BKN025 OVC040 FM251500 VRB04KT P6SM VCSH FEW030 SCT040 BKN080
KLIT,KLIT 241724Z 2418/2518 21012G21KT P6SM VCSH SCT020 OVC060 FM242100 17014G22KT P6SM VCSH SCT030 OVC070 FM250000 16013G19KT P6SM -SHRA SCT030 OVC050 FM250400 18013G20KT P6SM -SHRA SCT010 OVC025 FM250900 16012KT 6SM -RA BR OVC020 TEMPO 2512/2515 OVC007 FM251500 22015KT 6SM -RA BR OVC010
KLLQ,KLLQ 241724Z 2418/2518 16014G21KT P6SM BKN050 OVC100 FM250000 16014G20KT P6SM VCSH SCT050 OVC100 FM250500 18013G20KT P6SM -SHRA SCT010 OVC025 FM251200 20013KT 6SM -RA BR OVC015 FM251700 23016KT P6SM -SHRA OVC020
KLMT,KLMT 241737Z 2418/2518 17007KT P6SM -RA BKN040 OVC070 FM242100 20007KT P6SM -RA BKN020 OVC050 FM250000 25007KT P6SM -RA BKN025 OVC050 FM250400 27003KT P6SM FEW025 BKN050
KLND,KLND 241722Z 2418/2518 34007KT P6SM FEW080 FM242200 VRB06KT P6SM FEW080 SCT150 FM250500 VRB06KT P6SM SCT080 BKN120 TEMPO 2510/2514 15009KT SCT050 BKN080 FM251700 32008KT P6SM FEW100 SCT150
KLNK,KLNK 241720Z 2418/2518 34009KT P6SM -RA BKN060 FM242100 31007KT P6SM SCT250
KLNS,KLNS 241728Z 2418/2518 03006KT 3SM BR OVC007 FM250500 00000KT 1SM BR OVC003 FM251330 13003KT 4SM BR OVC009
KLOZ,KLOZ 241739Z 2418/2518 18006KT P6SM SCT250 FM250000 VRB03KT P6SM BKN250 FM250200 00000KT P6SM SCT200 FM251400 17008G15KT P6SM SCT200
KLRD,KLRD 241739Z 2418/2518 18012KT P6SM SCT200 FM242000 17009KT P6SM SCT060 FM250300 34016G23KT 5SM TSRA BKN035CB FM250600 35019G26KT P6SM SCT035 WS020/33048KT FM251400 34015G20KT P6SM FEW080
KLRF,TAF KLRF 241500Z 2415/2521 18012KT 9999 BKN040 OVC090 QNH2985INS BECMG 2418/2419 19015G25KT 9999 SCT025 BKN040 OVC080 QNH2973INS BECMG 2423/2424 19010KT 9999 SCT040 BKN110 QNH2968INS BECMG 2507/2508 20010KT 8000 -SHRA OVC020 QNH2960INS BECMG 2513/2514 21012KT 4800 SHRA BKN015 OVC030 QNH2964INS BECMG 2515/2516 25020G30KT 9999 NSW BKN030 OVC060 QNH2966INS TX27/2421Z TN15/2515Z
KLRU,KLRU 241736Z 2418/2518 29028G38KT P6SM SCT070 FM250000 29010G20KT P6SM SKC FM250300 30009KT P6SM SKC
KLSE,KLSE 241722Z 2418/2518 17007KT P6SM -SHRA SCT050 OVC100 FM242000 21009KT 5SM -SHRA OVC025 FM250100 25005KT 3SM -SHRA OVC015 FM250400 29006KT 5SM -SHRA OVC015 FM250600 29006KT P6SM OVC040 FM251000 25006KT P6SM OVC100
KLSF,TAF KLSF 241300Z 2413/2519 VRB06KT 9999 SKC QNH3003INS BECMG 2508/2509 12007KT 4800 BR FEW250 QNH3000INS TEMPO 2509/2512 0800 FG FEW000 BECMG 2513/2514 15008KT 9999 NSW SCT035 SCT050 QNH2995INS WND 18010G15KT AFT 17 TX29/2422Z TN08/2413Z
KLSV,TAF AMD KLSV 241758Z 2417/2521 01012G18KT 9999 SKC QNH3023INS BECMG 2422/2423 04010G15KT 9999 FEW250 QNH3023INS BECMG 2510/2511 VRB06KT 9999 FEW250 QNH3017INS TX20/2423Z TN07/2514Z
KLTS,TAF AMD KLTS 241840Z 2418/2523 03012G18KT 9999 BKN025 QNH2959INS BECMG 2422/2423 06015G25KT 8000 -SHRA BKN020 620703 510022 QNH2965INS TEMPO 2423/2501 35025G35KT 4800 TSRAGR BKN015CB BECMG 2500/2501 35025G35KT 9000 -RA SCT015 BKN025 510003 QNH2967INS TEMPO 2502/2506 35035G45KT BKN015 540003 BECMG 2508/2509 35010G15KT 9999 NSW SCT050 510052 QNH2989INS BECMG 2514/2515 32015G25KT 9999 SKC 510052 QNH2988INS TX21/2421Z TN07/2512Z
KLUF,TAF KLUF 241200Z 2412/2518 33012KT 9999 SKC QNH2996INS TEMPO 2415/2417 02012G18KT BECMG 2418/2419 VRB06KT 9999 SKC QNH3006INS TX23/2423Z TN11/2413Z
KLUK,KLUK 241729Z 2418/2518 17008KT P6SM BKN250 FM250000 16003KT P6SM BKN250 FM250800 00000KT 2SM BR BKN250 FM251100 16003KT P6SM BKN250 FM251600 17010G16KT P6SM SCT120 SCT250
KLVK,KLVK 241738Z 2418/2518 VRB03KT P6SM SKC FM242000 26007KT P6SM SKC FM250300 VRB03KT P6SM SKC FM251000 VRB02KT P6SM FEW025 SCT200 FM251500 VRB05KT P6SM SCT015
KLVM,KLVM 241722Z 2418/2518 27023G30KT P6SM SKC FM250100 22034G47KT P6SM VCSH BKN110 FM251100 23015KT P6SM VCSH BKN070
KLVS,KLVS 241722Z 2418/2518 28010KT P6SM SCT015 OVC025 TEMPO 2418/2422 2SM -SN OVC010 FM250200 27009KT P6SM SCT080 FM250600 VRB06KT P6SM SKC
KLWB,KLWB 241725Z 2418/2518 00000KT P6SM SKC FM251000 00000KT 1SM BR BKN250 FM251200 00000KT 3SM BR BKN150 FM251300 00000KT P6SM BKN150
KLWS,KLWS 241720Z 2418/2518 14007KT P6SM -RA SCT019 OVC060 FM242200 22008KT 4SM -SHRA BKN025 OVC040 FM250100 24009G14KT P6SM SCT030 BKN090 FM250600 22010KT P6SM OVC050
KLWT,KLWT 241739Z 2418/2518 24011G18KT P6SM FEW250 FM250000 27013G25KT P6SM SCT070 BKN120 FM250700 25011G18KT P6SM BKN200 FM251700 28012G22KT P6SM SCT090 BKN150
KLYH,KLYH 241725Z 2418/2518 00000KT P6SM SKC TEMPO 2509/2511 2SM BR FM251100 00000KT P6SM SCT150
KMAF,KMAF 241910Z 2419/2518 27035G45KT 6SM BLDU SCT060 BKN100 FM250100 31018G28KT P6SM SCT100 BKN250 FM250600 28010KT P6SM FEW250
KMBG,KMBG 241720Z 2418/2518 28018G31KT P6SM VCSH OVC027 FM250000 30015G26KT P6SM VCSH OVC017 FM250300 30012G19KT P6SM SCT021 FM251200 20005KT P6SM FEW250
KMBL,KMBL 241733Z 2418/2518 17010G22KT P6SM BKN250 FM242300 16009G23KT P6SM OVC250 WS020/18040KT FM250500 17010G20KT P6SM OVC250 WS020/20045KT FM251300 17009G17KT P6SM OVC060 FM251700 18009G16KT P6SM OVC035
KMBS,KMBS 241720Z 2418/2518 16012G22KT P6SM SCT120 BKN250 FM242300 16009KT P6SM SCT150 BKN200 FM251600 17010KT P6SM SCT045 BKN200
KMCB,KMCB 241754Z 2418/2518 17011KT P6SM SKC FM250600 13008KT P6SM VCSH BKN040 FM251200 18008KT 6SM BR BKN020 FM251400 18010KT 5SM SHRA BR VCTS OVC020CB
KMCC,KMCC 241720Z 2418/2518 33007KT P6SM SCT250 FM250000 17007KT P6SM BKN250
KMCE,KMCE 241720Z 2418/2518 VRB03KT P6SM SKC
KMCF,TAF KMCF 241700Z 2417/2523 06009KT 9999 FEW080 QNH3004INS BECMG 2500/2501 03009KT 9999 FEW040 SCT060 QNH3004INS TX28/2419Z TN18/2511Z
KMCI,KMCI 241737Z 2418/2518 34006KT 5SM -SHRA SCT015 BKN025 TEMPO 2418/2420 2SM -RA BKN015 FM242000 34005KT 6SM -SHRA SCT015 BKN025 FM250000 33007KT P6SM SCT015 BKN025 FM250400 35010KT P6SM OVC080
KMCK,KMCK 241720Z 2418/2518 32025G35KT P6SM SCT250 FM250000 33012KT P6SM FEW250 FM250100 29007KT P6SM SKC
KMCN,KMCN 241730Z 2418/2518 12005KT P6SM BKN200 FM250000 VRB03KT P6SM SCT150 BKN200 FM251600 15007KT P6SM FEW045
KMCO,KMCO 241732Z 2418/2524 04010KT P6SM SCT040 FM250000 06008KT P6SM FEW060 FM250600 01002KT P6SM SKC FM251500 36006KT P6SM SCT030 FM252100 03008KT P6SM SCT040
KMCW,KMCW 241740Z 2418/2518 26012KT P6SM -RA SCT025 OVC035 FM242300 30008KT 5SM -RA BR OVC025 FM250200 28006KT P6SM -RA OVC040 FM251000 29010KT P6SM FEW250
KMDT,KMDT 241728Z 2418/2518 03004KT P6SM OVC012 FM250200 00000KT 5SM BR OVC008 FM250500 00000KT 1SM BR OVC003 FM251330 13003KT 4SM BR OVC009
KMDW,KMDW 241731Z 2418/2524 18015G25KT P6SM FEW050 BKN200 FM242100 17020G32KT P6SM FEW050 BKN200 FM250500 19015G25KT P6SM SCT050 OVC120 FM251000 17010KT 6SM -SHRA BKN020 OVC050 FM251500 16009KT 4SM -RA BR OVC010 FM251800 08008KT 3SM -RA BR OVC008 TEMPO 2520/2524 2SM RA BR OVC005
KMEI,KMEI 241720Z 2418/2518 16011KT P6SM SCT040 FM251200 18014G22KT P6SM VCSH BKN025 OVC050
KMEM,KMEM 241720Z 2418/2524 18015G23KT P6SM SCT045 BKN250 FM250000 16012G19KT P6SM FEW045 BKN200 FM250600 17015G23KT P6SM BKN050 BKN100 WS020/19040KT FM251000 16019G27KT P6SM VCSH SCT025 BKN035 WS020/18045KT FM251300 18017G24KT 6SM -SHRA VCTS BKN020CB FM251800 19016G22KT P6SM VCTS OVC020CB
KMER,KMER 241720Z 2418/2518 VRB04KT P6SM SKC
KMEV,KMEV 241741Z 2418/2518 VRB04KT P6SM SCT250 FM250600 12004KT P6SM SCT060 BKN200 FM251200 00000KT P6SM SCT250
KMFD,KMFD 241720Z 2418/2518 16008KT P6SM SCT250
KMFE,KMFE 241723Z 2418/2518 16015G25KT P6SM SCT035 BKN050 FM242200 14014G21KT P6SM SCT050 SCT250 FM250500 15011G19KT P6SM TS BKN040CB OVC250 PROB30 2505/2509 P6SM -SHRA OVC100 FM250900 35015G22KT P6SM OVC050
KMFR,KMFR 241928Z 2419/2518 VRB03KT 2SM -RA SCT006 OVC025 FM242000 VRB03KT P6SM -RA BKN025 OVC035 FM250700 VRB03KT P6SM BKN035 FM251100 00000KT 5SM BR FEW002 BKN035
KMGE,TAF KMGE 241300Z 2413/2519 10005KT 9999 BKN250 QNH3017INS BECMG 2414/2415 12008KT 9999 FEW050 BKN250 QNH3007INS BECMG 2515/2516 15010G15KT 9999 SCT040 BKN120 OVC250 QNH2990INS TX25/2420Z TN10/2512Z
KMGM,KMGM 241721Z 2418/2518 12008KT P6SM FEW250 FM250200 14006KT P6SM SCT150 FM251300 14007G14KT P6SM BKN050 FM251700 16012G22KT P6SM VCSH BKN040
KMGW,KMGW 241720Z 2418/2518 14002KT P6SM SKC
KMHK,KMHK 241737Z 2418/2518 35007KT 6SM SHRA BR OVC050 FM241900 34006KT 5SM -RA BR OVC015 FM242200 34005KT P6SM VCSH SCT030 BKN050 FM251300 34010KT P6SM FEW250
KMHR,KMHR 241720Z 2418/2518 VRB05KT P6SM SCT250 FM250100 15007KT P6SM BKN250
KMHT,KMHT 241745Z 2418/2518 VRB04KT 3SM -RA BR OVC003 TEMPO 2418/2419 TSRA BKN003CB FM250000 00000KT 1SM -DZ BR OVC003 FM251600 VRB02KT 2SM -DZ BR OVC003
KMIA,KMIA 241720Z 2418/2524 07010KT P6SM SCT040 SCT060 FM250100 VRB05KT P6SM SCT035 FM251500 06011KT P6SM FEW030 SCT050
KMIB,TAF AMD KMIB 241904Z 2419/2523 32025G35KT 4800 -SN BKN010 OVC020 600109 510003 QNH2940INS BECMG 2423/2424 29012KT 9999 NSW BKN010 OVC020 600205 QNH2957INS BECMG 2508/2509 VRB06KT 4800 BR SCT005 BKN010 600304 QNH2959INS BECMG 2514/2515 28010G20KT 9999 NSW SCT005 OVC010 QNH2962INS TX01/2419Z TNM03/2511Z
KMIV,KMIV 241910Z 2419/2518 03007KT 5SM BR OVC005 TEMPO 2419/2422 3SM -DZ BR OVC003 FM242200 02005KT 2SM BR OVC003 TEMPO 2500/2503 1SM -RA BR OVC003 FM250300 VRB02KT 2SM -DZ BR OVC003 FM251400 VRB03KT 6SM BR OVC005
KMKC,KMKC 241737Z 2418/2518 34006KT 5SM -SHRA SCT015 BKN025 TEMPO 2418/2420 2SM -RA BKN015 FM242000 34005KT 6SM -SHRA SCT015 BKN025 FM250000 33007KT P6SM SCT015 BKN025 FM250400 35010KT P6SM OVC080
KMKE,KMKE 241911Z 2419/2524 17013KT P6SM FEW070 BKN250 FM250200 19013KT P6SM BKN060 WS020/19050KT FM250900 19011KT P6SM VCSH OVC070 FM251100 20008KT 6SM -SHRA BR BKN050 FM251400 21005KT 6SM -SHRA BR OVC014 FM252200 01007KT 3SM SHRA BR OVC009
KMKG,KMKG 241739Z 2418/2518 17013G25KT P6SM SCT100 BKN250 FM250100 17013G24KT P6SM BKN200 WS020/20045KT FM251100 18010KT P6SM BKN120 FM251500 18006KT P6SM VCSH BKN050
KMKL,KMKL 241720Z 2418/2518 18012G20KT P6SM FEW045 BKN250 FM250000 16009KT P6SM BKN200 FM250800 17012G18KT P6SM BKN050 OVC100 WS020/19040KT FM251700 17017G24KT P6SM -SHRA VCTS OVC025CB
KMKT,KMKT 241725Z 2418/2518 24014G22KT P6SM OVC050 FM242300 24010KT P6SM OVC090 FM250200 25007KT P6SM BKN120 FM250800 27005KT P6SM FEW240 FM251500 30008KT P6SM FEW060
KMLB,KMLB 241732Z 2418/2518 05011KT P6SM SCT035 FM250000 05004KT P6SM SCT035 FM251500 02007KT P6SM FEW030
KMLC,KMLC 241933Z 2420/2518 35010KT 6SM -SHRA BR OVC035 TEMPO 2421/2424 4SM SHRA BR BKN015 FM250000 35010KT P6SM VCSH BKN012 FM250600 34015G28KT 6SM -SHRA BR OVC015 PROB30 2506/2512 2SM SHRA BR OVC007 FM251400 32015KT 6SM -SHRA BR OVC008
KMLI,KMLI 241734Z 2418/2518 17015KT P6SM OVC100 FM242300 18014KT 6SM -RA BR OVC040 FM250200 23010KT 4SM RA BR OVC020 FM250900 31007KT 6SM -RA BR OVC012 FM251600 36007KT 4SM RA OVC022
KMLS,KMLS 241722Z 2418/2518 31016KT P6SM OVC017 FM250000 27006KT P6SM FEW250
KMLU,KMLU 241739Z 2418/2518 17012G20KT P6SM SCT050 BKN070 FM250300 17001KT P6SM BKN040 FM250600 17011KT P6SM BKN025 FM251000 VRB15G25KT 3SM TSRA BR OVC020CB FM251300 23010KT P6SM SCT025 BKN060 FM251700 27015G25KT P6SM SCT035
KMMH,KMMH 241741Z 2418/2518 29006KT P6SM SCT250 FM241900 14006KT P6SM SKC FM242100 29011KT P6SM SKC FM250200 VRB05KT P6SM SKC
KMMT,TAF KMMT 241500Z 2415/2521 VRB06KT 9999 SKC QNH2997INS TX20/2421Z TN09/2512Z
KMOB,KMOB 241744Z 2418/2518 14012G20KT P6SM FEW020 SCT040 BKN060 FM250300 13005KT P6SM SCT250 FM251200 15012G20KT P6SM VCTS BKN050CB PROB30 2512/2513 5SM -RA OVC045
KMOD,KMOD 241720Z 2418/2518 32007KT P6SM SCT250 FM250200 14005KT P6SM SCT250
KMOT,KMOT 241932Z 2420/2518 29025G35KT 5SM -SN BR OVC015 FM242100 29025G35KT 6SM BR VCSH OVC015 FM250100 29014G24KT P6SM OVC015 FM250600 24009KT P6SM BKN025 FM251500 25010G20KT P6SM BKN015
KMPV,KMPV 241727Z 2418/2518 00000KT P6SM OVC018 FM242000 VRB03KT P6SM BKN025 FM250200 00000KT 5SM BR OVC015 FM250700 00000KT 3SM BR OVC008 FM251400 17005KT P6SM BKN018
KMQY,KMQY 241721Z 2418/2518 19007G15KT P6SM SKC FM250000 16006KT P6SM SCT250 FM251600 17015G30KT P6SM VCSH OVC080
KMRB,KMRB 241727Z 2418/2518 04004KT P6SM FEW020 FM242100 03003KT P6SM BKN025 FM250900 00000KT 2SM BR OVC003 FM251200 00000KT 1SM BR OVC003 FM251400 00000KT 3SM BR OVC003 FM251700 12003KT P6SM SCT030
KMRY,KMRY 241739Z 2418/2518 VRB04KT P6SM SKC FM242000 29007KT P6SM SKC FM250200 VRB04KT P6SM SKC FM250900 VRB03KT P6SM BKN010 FM251300 VRB05KT P6SM OVC006
KMSL,KMSL 241720Z 2418/2518 18011G18KT P6SM SKC FM242300 15006KT P6SM SCT250 FM251200 15012G20KT P6SM VCSH OVC040
KMSN,KMSN 241745Z 2418/2518 18015G23KT P6SM SCT050 BKN240 FM250200 19012KT P6SM BKN050 WS020/20050KT TEMPO 2503/2505 5SM SHRA BKN035 FM250500 19012G22KT 6SM SHRA BR OVC030 WS020/20045KT FM250800 22009KT 6SM -SHRA BR OVC012 FM251200 VRB03KT P6SM OVC019 FM251700 33005KT P6SM OVC035
KMSO,KMSO 241720Z 2418/2518 19005KT P6SM OVC080 FM242000 25011G14KT P6SM VCSH SCT035 OVC050 FM250200 29007KT P6SM -RA BKN040
KMSP,KMSP 241725Z 2418/2524 24014G23KT P6SM OVC050 FM241900 24014G22KT P6SM -SHRA OVC040 FM242300 25010KT P6SM OVC060 FM250500 26006KT P6SM BKN120 FM251600 29007KT P6SM FEW110
KMSS,KMSS 241727Z 2418/2518 06005KT P6SM FEW150 FM250300 07003KT P6SM SCT070 FM250700 07003KT P6SM BKN025 FM251400 VRB03KT P6SM SCT025 BKN040
KMSY,KMSY 241754Z 2418/2524 15011G22KT P6SM FEW070 SCT250 FM250600 12008KT P6SM VCSH BKN035 FM251300 16009KT 5SM BR VCTS BKN030CB FM251800 24012G20KT 5SM BR VCTS BKN030CB FM252200 27010KT P6SM SKC
KMTC,TAF KMTC 241900Z 2419/2601 15009KT 9999 SKC 510063 QNH3001INS BECMG 2501/2502 15009KT 9999 SCT200 QNH3002INS TX23/2421Z TN11/2511Z
KMTH,KMTH 241755Z 2418/2518 04009KT P6SM FEW035
KMTJ,KMTJ 241859Z 2419/2518 33011KT P6SM BKN045 OVC070 FM250300 14008KT P6SM FEW250 FM251200 15004KT P6SM SCT250
KMTN,KMTN 241727Z 2418/2518 34003KT 6SM -DZ BR OVC012 FM250200 00000KT 5SM BR OVC003 FM250600 00000KT 1SM BR OVC003 FM251400 00000KT 5SM BR BKN008 FM251700 12003KT P6SM BKN120
KMTW,KMTW 241737Z 2418/2518 17016G28KT P6SM BKN120 FM242200 17016G29KT P6SM OVC120 WS020/19045KT FM250700 18013KT P6SM -SHRA OVC040 WS020/21050KT FM251100 21006KT P6SM -SHRA OVC040 FM251400 23007KT P6SM OVC030 FM251600 25006KT P6SM -SHRA OVC023
KMUI,TAF KMUI 241900Z 2419/2601 36006KT 8000 BR OVC010 QNH3010INS BECMG 2421/2422 35006KT 8000 BR OVC004 QNH3006INS BECMG 2511/2512 09006KT 4800 BR OVC006 QNH3004INS BECMG 2515/2516 12006KT 9000 BR OVC010 QNH2999INS TX18/2519Z TN13/2511Z
KMUO,TAF KMUO 241800Z 2418/2524 12009KT 9999 FEW080 SCT120 BKN160 QNH3008INS BECMG 2422/2423 12009KT 9999 VCSH FEW060 BKN080 610802 QNH3003INS BECMG 2501/2502 12009KT 9000 -SHRA SCT040 BKN060 610604 QNH3003INS BECMG 2504/2505 31009KT 9000 -SHRA OVC030 610307 QNH3004INS BECMG 2507/2508 31012KT 9999 NSW SCT080 BKN100 QNH3009INS BECMG 2510/2511 31009KT 9999 FEW060 SCT090 QNH3013INS TX11/2423Z TN01/2513Z
KMVN,KMVN 241720Z 2418/2518 18015G24KT P6SM BKN050 FM250000 16009KT P6SM BKN050 FM251100 16011G21KT P6SM VCSH OVC040 FM251500 15013G23KT 6SM SHRA BR OVC025
KMWH,KMWH 241720Z 2418/2518 17010G17KT P6SM VCSH SCT030 BKN050 OVC120 FM242300 23012G20KT P6SM SCT030 BKN050 FM250300 25011G16KT P6SM SCT050 BKN120 FM251200 22008KT P6SM BKN250
KMXF,TAF KMXF 241900Z 2419/2601 VRB06KT 9999 SKC QNH2998INS BECMG 2507/2508 VRB06KT 9999 BKN040 QNH2997INS BECMG 2514/2515 17010G20KT 9999 SCT040 QNH2978INS BECMG 2517/2518 21015G25KT 6000 -SHRA SCT040 QNH2974INS TEMPO 2523/2601 21025G35KT 4800 TSRA BKN030CB TX28/2420Z TN15/2511Z LAST NO AMDS AFT 2503 NEXT 2511
KMYL,KMYL 241905Z 2419/2518 18010KT 3SM -SN BR OVC025 TEMPO 2420/2424 2SM -SN BR OVC015 FM250400 VRB05KT 5SM -SN BR OVC015 FM250800 VRB04KT P6SM VCSH OVC035
KMYR,KMYR 241736Z 2418/2518 36005KT P6SM FEW035 FM242100 VRB04KT P6SM SKC TEMPO 2510/2513 4SM BR FM251500 02004KT P6SM FEW200
KNBC,TAF KNBC 2415/2515 35009KT 9999 FEW100 QNH3006INS BECMG 2419/2421 VRB06KT 9999 FEW100 QNH3000INS TEMPO 2509/2512 3200 BR T26/2418Z T11/2511Z
KNBG,TAF KNBG 2415/2515 14010KT 9999 FEW030 SCT060 BKN250 QNH2993INS TEMPO 2417/2423 15010G18KT 9999 BKN035 BKN065 BKN250 BECMG 2423/2501 16007KT 9999 BKN030 BKN060 BKN250 QNH2990INS BECMG 2507/2509 18006KT 4800 BR VCSH BKN010 BKN030CB OVC120 QNH2987INS BECMG 2513/2515 18017G28KT 9999 VCSH SCT015CB BKN030 BKN150 OVC250 QNH2985INS T28/2421Z T23/2512Z FN20039
KNCA,TAF KNCA 2415/2515 36008KT 9999 OVC008 QNH3009INS BECMG 2419/2421 02006KT 9999 BKN015 QNH3006INS FM250600 06004KT 9999 OVC006 QNH3003INS T24/2421Z T12/2509Z
KNEW,KNEW 241757Z 2418/2518 15012G18KT P6SM SCT250 FM250400 17012KT P6SM VCSH BKN030 FM251700 23014KT P6SM VCTS BKN030CB
KNFG,TAF AMD KNFG 2416/2515 04008G18KT 9999 SKC 520009 520902 QNH3009INS BECMG 2419/2421 22008KT 9999 SKC 50000 QNH3011INS BECMG 2503/2505 VRB05KT 9999 SKC QNH3008INS T22/2419Z T12/2511Z AMD 1600
KNFL,TAF KNFL 2415/2515 VRB06KT 9999 FEW080 SCT180 QNH3018INS FM242300 22007KT 9999 FEW080 SCT180 QNH3015INS FM250300 VRB06KT SCT080 SCT180 QNH3016INS T16/2422Z T01/2512Z FS30003
KNFW,TAF AMD KNFW 2417/2515 16017G24KT 18014G24KT 4800 RA BR VCTS QNH2974INS TEMPO 2418/2420 VRB25G35KT 1600 TSRA BR OVC025CB BECMG 2420/2422 23015G24KT 9999 VCSH OVC015 QNH2964INS FM250100 22011G18KT 6000 -SHRA VCTS BKN015CB QNH2965INS FM250500 31018G30KT 9999 FEW035 QNH2984INS T17/2518Z T12/2512Z AMD 1747 FN20048
KNGP,TAF KNGP 2415/2515 17020G30KT 9999 SCT025 SCT050 BKN300 510008 QNH2972INS TEMPO 2415/2418 17018G26KT SCT025 BKN045 BKN300 FM242000 16026G34KT 9999 FEW025 FEW060 BKN300 510008 QNH2967INS FM250100 17022G30KT 9999 SCT018 BKN300 510005 QNH2970INS FM250400 18020G28KT 9999 BKN015 BKN080 OVC300 510005 QNH2974INS FM250700 33030G40KT 8000 -SHRA VCTS SCT008 BKN016CB OVC080 510005 QNH2977INS TEMPO 2507/2509 33035G45KT 2400 +TSRA BR BKN008 OVC016CB FM250900 34019G28KT 9999 VCSH FEW018 BKN080 BKN300 510005 QNH2985INS TEMPO 2509/2513 8000 -SHRA FM251300 35020G30KT 9999 SCT080 BKN300 510005 QNH2996INS T32/2420Z T19/2512Z FN20044
KNGU,TAF KNGU 2415/2515 34011KT 9999 OVC008 QNH3007INS FM241800 VRB06KT 9999 SCT010 BKN020 QNH3004INS TEMPO 2421/2503 6000 BR BKN006 FM250600 VRB05KT 6000 BR BKN008 OVC020 QNH3002INS TEMPO 2506/2512 4800 BR BKN004 OVC010 T18/2419Z T14/2501Z FN20079
KNHK,TAF KNHK 2415/2515 32009KT 9999 BKN012 OVC018 QNH3008INS BECMG 2422/2500 VRB03KT 9999 OVC008 QNH3008INS T18/2419Z T13/2510Z FN20065
KNID,TAF KNID 2415/2515 VRB05KT 9999 SKC QNH3018INS BECMG 2419/2421 12006KT 9999 FEW250 QNH3016INS BECMG 2501/2503 22006KT 9999 SKC QNH3014INS T21/2422Z T03/2514Z
KNIP,TAF KNIP 2415/2515 03008KT 9999 SCT250 QNH3011INS FM241800 06008KT 9999 FEW035 SCT250 QNH3005INS FM250100 VRB04KT 9999 FEW250 QNH3000INS T27/2420Z T16/2511Z FN20016
KNJK,TAF KNJK 2415/2515 35007KT 9999 SKC QNH3015INS BECMG 2415/2417 01012G18KT 9999 SKC QNH3012INS FM242000 36009KT 9999 SKC QNH3009INS BECMG 2423/2501 27007KT 9999 SKC QNH3010INS T26/2422Z T11/2513Z FS30130
KNKT,TAF KNKT 2415/2515 33009KT 9999 OVC007 QNH3005INS FM242100 35009KT 9999 FEW007 SCT015 QNH3006INS BECMG 2423/2501 VRB06KT 9999 FEW020 QNH3003INS T22/2419Z T14/2411Z
KNKX,TAF KNKX 2415/2515 VRB05KT 9999 SKC QNH3008INS BECMG 2417/2419 32010KT 9999 SKC QNH3007INS FM250300 VRB05KT 9999 SKC QNH3006INS T23/2421Z T09/2512Z
KNLC,TAF KNLC 2415/2515 VRB06KT 9999 FEW260 QNH3015INS BECMG 2416/2417 34007KT 9999 FEW240 QNH3010INS TEMPO 2418/2423 VRB04KT FM250300 VRB06KT 9999 FEW180 QNH3013INS T23/2423Z T07/2513Z FS30067
KNMM,TAF KNMM 2415/2515 14009KT 9999 FEW035 SCT200 QNH3005INS TEMPO 2420/2501 17010G16KT BKN030 BKN200 FM250100 16006KT 9999 FEW030 SCT120 BKN200 QNH3002INS FM250600 16009KT 9999 VCSH BKN030 BKN120 BKN200 QNH3001INS TEMPO 2509/2515 18012G20KT 6000 SHRA BR BKN015 OVC030 T25/2421Z T16/2510Z FN20088
KNPA,TAF KNPA 2415/2515 14012KT 9999 SCT050 SCT250 QNH2990INS TEMPO 2415/2417 09012KT FM250900 14012KT 9999 VCSH SCT015 BKN040 QNH2990INS TEMPO 2512/2514 8000 RA BKN015 T26/2420Z T18/2509Z FN20033
KNQI,TAF KNQI 2415/2515 17020G27KT 9999 VCSH SCT025 BKN040 BKN250 510006 QNH2974INS TEMPO 2415/2419 18022G31KT -RA BKN025 OVC045 BECMG 2419/2421 16019G27KT 9999 NSW SCT040 SCT250 510005 QNH2966INS BECMG 2502/2504 22014G22KT 9999 VCTS FEW025CB SCT080 SCT250 500000 QNH2973INS TEMPO 2506/2509 31018G28KT 6000 -TSRA BR BKN025CB BKN250 FM250900 32014G22KT 9999 BKN055 BKN250 WS020/34040KT 530153 QNH2984INS 33/2420Z T17/2512Z FN20042
KNQX,TAF KNQX 2415/2515 04010KT 9999 FEW035 FEW250 QNH2997INS T29/2419Z T25/2511Z FN20027
KNRB,TAF KNRB 2415/2515 02010G15KT 9999 FEW030 FEW250 QNH3005INS FM250100 VRB04KT 9999 SKC QNH3009INS T26/2419Z T19/2511Z FN20022
KNSE,TAF KNSE 2415/2515 11006KT 9999 SCT035 SCT250 QNH3008INS BECMG 2418/2420 16008KT 9999 SCT035 BKN050 BKN250 QNH2998INS FM250200 14006KT 9999 SCT010 BKN040 BKN250 QNH2996INS BECMG 2506/2508 14006KT 9999 BKN025 BKN070 QNH2991INS FM251200 14006KT 9999 OVC040 QNH2994INS T27/2419Z T16/2511Z FN20095
KNTD,TAF KNTD 2415/2515 06018G28KT 9999 SKC 530007 QNH3006INS FM241830 04014G20KT 9999 SKC 520006 QNH3008INS TEMPO 2419/2422 17012KT BECMG 2422/2500 29010G15KT 9999 SKC 510005 QNH3007INS FM250400 VRB05KT 9999 SKC 500000 QNH3009INS T26/2420Z T14/2513Z FS30029
KNTU,TAF KNTU 2415/2515 33010KT 9999 OVC010 QNH3008INS TEMPO 2415/2421 6000 BR BKN005 OVC010 FM242100 31008KT 9999 BKN012 OVC020 QNH3006INS TEMPO 2421/2503 4000 BR BKN005 OVC012 FM250300 VRB06KT 8000 BR BKN005 OVC010 QNH3003INS TEMPO 2509/2515 3200 BR OVC003 T17/2419Z T13/2509Z FN20008
KNUC,TAF KNUC 2415/2515 03009KT 9999 SKC QNH3007INS FM242200 33012KT 9999 SKC QNH3008INS FM250900 31009KT 9999 SKC QNH3006INS T20/2422Z T16/2511Z FS30171
KNUW,TAF KNUW 2415/2515 16020G35KT 9999 VCSH FEW009 SCT015 BKN035 OVC055 630509 631409 530003 550309 551209 552108 532909 QNH2986INS BECMG 2415/2417 24020G35KT 9999 VCSH FEW010 SCT020 BKN035 OVC055 630509 631409 530003 550309 551209 552108 532909 QNH2989INS TEMPO 2418/2500 26008G20KT 9000 RA BR FEW009 SCT015 BKN025 OVC040 FM250000 27020G35KT 9999 VCSH SCT025 SCT040 BKN055 BKN080 630509 631409 530005 550509 551409 552306 532909 QNH2995INS TEMPO 2500/2506 26008G20KT 9000 RA BR SCT015 SCT020 BKN050 OVC060 FM250700 27008G20KT 9999 VCSH FEW009 SCT015 BKN035 OVC055 630509 631409 530102 550309 551209 552108 532909 QNH3006INS TEMPO 2507/2513 24008G15KT 9000 RA BR SCT009 SCT015 BKN025 OVC030 T13/2423Z T10/2512Z FS30028
KNXP,TAF KNXP 2415/2515 35010KT 9999 SKC QNH3017INS FM250300 27005KT 9999 SKC QNH3018INS FM251430 VRB05KT 9999 SKC QNH3019INS T19/2423Z T07/2514Z
KNYG,TAF KNYG 2415/2515 33006KT 9000 HZ OVC015 QNH3005INS TEMPO 2509/2513 6000 RA BR OVC004 T18/2421Z T14/2512Z
KNYL,TAF KNYL 2415/2515 35010KT 9999 SKC 522009 522909 523801 QNH3006INS TEMPO 2415/2421 36015G25KT BECMG 2501/2503 VRB06KT 9999 SKC 500000 QNH3006INS T24/2422Z T12/2513Z
KNZY,TAF KNZY 2415/2515 07004KT 9999 SKC QNH3004INS FM242000 29010KT 9999 SKC QNH3004INS FM242300 32010KT 9999 SKC QNH3005INS TEMPO 2423/2504 32012G17KT FM250400 35004KT 9999 SKC QNH3004INS T23/2421Z T14/2514Z FS30139
KOAJ,KOAJ 241720Z 2418/2518 35005KT P6SM SCT050 FM250700 00000KT 3SM BR SKC FM250900 00000KT 1SM BR SCT003 TEMPO 2509/2512 1/4SM FG BKN003 FM251300 VRB03KT P6SM SKC AMD LTD TO CLD VIS AND WIND
KOAK,KOAK 241736Z 2418/2524 VRB05KT P6SM SKC FM242000 28010KT P6SM SKC FM250400 VRB05KT P6SM FEW200 FM250800 28005KT P6SM SCT010 BKN200 FM251000 VRB04KT P6SM FEW012 FEW200 FM252200 28010KT P6SM FEW200
KOFF,TAF KOFF 241800Z 2418/2524 29009KT 8000 -SHRA OVC090 QNH2976INS BECMG 2421/2422 VRB06KT 9999 NSW OVC090 QNH2970INS BECMG 2501/2502 VRB06KT 9999 SCT100 QNH2972INS BECMG 2507/2508 VRB06KT 9999 SKC QNH2975INS BECMG 2517/2518 33009KT 9999 SKC QNH2977INS TX13/2518Z TN03/2512Z
KOFK,KOFK 241720Z 2418/2518 30013KT P6SM OVC200 FM250200 28006KT P6SM SKC FM251500 31009G17KT P6SM SKC
KOGB,KOGB 241737Z 2418/2518 VRB04KT P6SM FEW250 FM250600 00000KT 4SM BR FEW250 FM251100 00000KT 1/2SM FG SKC FM251400 VRB03KT P6SM SKC
KOGD,KOGD 241720Z 2418/2518 25007KT P6SM FEW080 FM250000 17011KT P6SM FEW060 BKN080 FM251100 17008KT P6SM VCSH FEW020 SCT030 OVC040
KOKC,KOKC 241720Z 2418/2518 02014G22KT P6SM -RA SCT009 BKN025 OVC070 TEMPO 2418/2419 BKN009 OVC025 FM241900 01013KT P6SM OVC015 FM250300 01014G20KT 4SM RA OVC015 FM250900 36014G24KT P6SM VCSH OVC015 FM251300 32011G18KT P6SM SCT080
KOLF,KOLF 241727Z 2418/2518 30018G27KT P6SM BKN035 FM242100 29010KT P6SM BKN035 FM250000 VRB04KT P6SM SCT100 FM250900 27009KT P6SM BKN050 WS020/28040KT FM251500 28010KT P6SM OVC030 WS020/28040KT
KOLM,KOLM 241744Z 2418/2518 21012KT P6SM VCSH OVC009 FM242100 23010G18KT P6SM VCSH SCT015 BKN035 TEMPO 2422/2502 -SHRA OVC025 FM251300 21005KT 6SM BR OVC015
KOLS,KOLS 241730Z 2418/2518 33010G17KT P6SM SKC FM242100 33008KT P6SM SKC FM250200 07005KT P6SM SKC FM250500 VRB04KT P6SM SKC
KOMA,KOMA 241720Z 2418/2518 34009KT P6SM -RA BKN050 OVC090 FM242200 30006KT P6SM SCT250
KONP,KONP 241737Z 2418/2518 21011G20KT P6SM -SHRA SCT008 BKN016 OVC025 FM242300 26008KT P6SM -SHRA SCT015 BKN030 OVC050 FM250700 15004KT P6SM VCSH SCT025 BKN050 FM251300 15003KT 6SM BR VCSH SCT008 OVC030 AMD NOT SKED
KONT,KONT 241720Z 2418/2524 05010KT P6SM SKC FM242200 27008KT P6SM SKC FM250300 VRB04KT P6SM SKC FM252000 26007KT P6SM SKC
KOPF,KOPF 241720Z 2418/2518 05010KT P6SM SCT040 SCT060 FM250100 VRB05KT P6SM SCT035 FM251500 06010KT P6SM SCT035
KORD,KORD 241731Z 2418/2524 18015G25KT P6SM FEW050 BKN200 FM242100 17020G32KT P6SM FEW050 BKN200 FM250500 19015G25KT P6SM SCT050 OVC120 FM251000 17010KT 6SM -SHRA BKN020 OVC050 FM251500 16009KT 4SM -RA BR OVC010 FM251800 08008KT 3SM -RA BR OVC008 TEMPO 2520/2524 2SM RA BR OVC005
KORF,KORF 241758Z 2418/2518 36008KT P6SM OVC011 FM242000 01006KT P6SM OVC015 FM250700 36003KT 6SM BR OVC007 FM251500 03004KT P6SM OVC015
KORH,KORH 241720Z 2418/2518 04005KT 1/4SM -RA FG OVC003 FM250400 04004KT 1/2SM FG VCSH OVC003 FM251000 06003KT 1SM BR VCSH OVC003
KOTH,KOTH 241926Z 2419/2518 24018G30KT 5SM RA BR OVC015 FM242100 25009G16KT P6SM -SHRA BKN025 OVC035 FM250100 29004KT P6SM -SHRA BKN035 OVC050 FM250300 13004KT P6SM VCSH OVC035
KOTM,KOTM 241740Z 2418/2518 19011KT P6SM VCSH OVC035 FM241900 21011KT 4SM -RA BR OVC019 FM242200 29011G19KT 1 1/2SM -RA BR OVC008 FM250500 33008KT P6SM VCSH OVC016 FM250800 33009KT P6SM BKN060
KOUN,KOUN 241720Z 2418/2518 02014G22KT P6SM -RA SCT009 BKN025 OVC070 TEMPO 2418/2419 BKN009 OVC025 FM241900 01013KT P6SM OVC015 FM250300 01014G20KT 4SM RA OVC015 FM250900 36014G24KT P6SM VCSH OVC015 FM251300 32011G18KT P6SM SCT080
KOWB,KOWB 241720Z 2418/2518 18014G22KT P6SM SCT250 FM250000 15009KT P6SM BKN250 FM251600 16015G29KT P6SM BKN050
KOXR,KOXR 241905Z 2419/2518 08011KT P6SM SKC FM242200 27010KT P6SM SKC FM250300 VRB03KT P6SM SKC FM251000 04005KT P6SM SKC
KOZR,TAF KOZR 241600Z 2416/2522 16008KT 9999 FEW050 SCT250 QNH2996INS BECMG 2423/2424 VRB06KT 9999 FEW030 SCT250 QNH2994INS BECMG 2512/2513 12007KT 9999 SCT060 BKN200 QNH2988INS BECMG 2516/2517 16010G15KT 9999 VCSH SCT020 BKN050 BKN250 QNH2980INS TX28/2420Z TN12/2511Z
KPAE,KPAE 241744Z 2418/2518 20011G20KT 6SM -SHRA OVC010 FM242100 28009KT P6SM -SHRA OVC030 FM250500 26007KT P6SM BKN035 FM250800 21007KT P6SM BKN035
KPAH,KPAH 241720Z 2418/2518 18013G21KT P6SM SCT050 FM250000 16009KT P6SM BKN080 FM250700 17010G22KT P6SM BKN050 FM251400 16013G26KT P6SM VCSH OVC040 FM251700 16012G26KT 6SM SHRA BR OVC025
KPAM,TAF KPAM 241900Z 2419/2601 17009KT 9999 FEW020 SCT200 QNH3001INS BECMG 2515/2516 21009KT 9999 BKN030 QNH2997INS BECMG 2521/2522 21012G18KT 9999 BKN020 QNH2988INS TX27/2419Z TN18/2511Z
KPBF,KPBF 241724Z 2418/2518 17014G21KT P6SM BKN050 OVC100 FM242100 17015G22KT P6SM VCSH SCT050 OVC120 FM250000 16014G20KT P6SM VCSH SCT050 OVC100 FM250400 18013G20KT P6SM -SHRA SCT010 OVC025 FM251200 20013KT 6SM -RA BR OVC015 FM251600 21016KT P6SM -SHRA OVC020
KPBG,KPBG 241727Z 2418/2518 VRB03KT P6SM BKN035 FM250600 VRB03KT P6SM BKN025 FM251400 15004KT P6SM SCT028 BKN040
KPBI,KPBI 241720Z 2418/2518 06011KT P6SM SCT040 BKN060 FM250100 VRB05KT P6SM FEW035 FM251500 06010KT P6SM SCT035
KPDK,KPDK 241730Z 2418/2518 14005KT P6SM BKN200 FM250000 13003KT P6SM SCT150 BKN200 FM251500 14007KT P6SM SCT030
KPDT,KPDT 241720Z 2418/2518 20008G15KT P6SM -RA BKN050 OVC070 FM242100 24010G20KT P6SM -RA BKN035 OVC050 FM250200 25015G25KT P6SM VCSH SCT050 BKN070 FM250800 23010G20KT P6SM SCT080 BKN120
KPDX,KPDX 241737Z 2418/2518 20007KT P6SM -SHRA BKN015 OVC030 FM242000 19010KT P6SM -SHRA SCT011 BKN025 OVC040 FM250000 24006KT P6SM -SHRA SCT015 BKN040 OVC050 FM250800 VRB04KT P6SM VCSH SCT035 BKN050 FM251300 VRB03KT P6SM BKN030 OVC050
KPEQ,KPEQ 241838Z 2419/2518 28032G42KT 6SM BLDU BKN100 FM250100 28018G27KT P6SM FEW100 SCT250 FM250500 27008KT P6SM SKC
KPGA,KPGA 241720Z 2418/2518 30010KT P6SM SKC FM250100 VRB06KT P6SM SKC
KPGD,KPGD 241720Z 2418/2518 07008KT P6SM SCT030 SCT250 FM250100 08004KT P6SM SKC
KPGV,KPGV 241720Z 2418/2518 34005KT P6SM FEW040 FM250500 00000KT 3SM BR SKC FM250700 00000KT 1SM BR SCT003 TEMPO 2509/2512 1/4SM FG BKN003 FM251300 VRB03KT P6SM SKC AMD LTD TO CLD VIS AND WIND
KPHF,KPHF 241758Z 2418/2518 01004KT P6SM OVC016 FM250700 00000KT 2SM BR OVC004 FM250900 00000KT 1/2SM FG OVC003 FM251500 04004KT P6SM OVC020
KPHL,KPHL 241911Z 2419/2524 04010KT P6SM OVC008 TEMPO 2419/2422 4SM -DZ BR OVC005 FM242200 02005KT 6SM BR OVC006 TEMPO 2500/2503 4SM -RA BR OVC004 FM250300 VRB03KT 2SM -DZ BR OVC004 FM251400 VRB03KT 6SM BR OVC006 FM251600 09005KT P6SM OVC008 FM251800 12005KT P6SM SCT008 OVC012 FM252300 VRB03KT P6SM OVC008
KPHX,KPHX 241720Z 2418/2524 32006KT P6SM SKC FM250100 25005KT P6SM FEW250 FM250600 09005KT P6SM SKC FM252200 28005KT P6SM SKC
KPIA,KPIA 241739Z 2418/2518 18017G26KT P6SM FEW070 BKN170 FM250400 19014G27KT P6SM VCSH OVC050 WS020/18045KT FM250700 20011G25KT 5SM SHRA BR OVC030 FM250900 20010G22KT 5SM SHRA BR OVC010
KPIB,KPIB 241720Z 2418/2518 17011KT P6SM SCT050 FM251300 18012G20KT P6SM VCSH BKN025 OVC050
KPIE,KPIE 241720Z 2418/2518 07005KT P6SM FEW250 FM242000 34007KT P6SM SCT030 SCT250 FM250100 10005KT P6SM SCT250
KPIH,KPIH 241731Z 2418/2518 24018G28KT P6SM SCT025 SCT050 FM250200 19022G32KT P6SM VCSH SCT040 OVC060 FM250600 22018G28KT P6SM -RASN BKN015 OVC025 FM251100 23015G25KT P6SM VCSH SCT015 OVC040 FM251400 23018G28KT P6SM SCT025 SCT080
KPIR,KPIR 241720Z 2418/2518 29027G36KT P6SM OVC035 FM242000 29023G34KT P6SM BKN027 FM250200 29013G21KT P6SM BKN035 FM250400 28009KT P6SM SCT060
KPIT,KPIT 241720Z 2418/2524 13003KT P6SM SKC
KPKB,KPKB 241732Z 2418/2518 VRB04KT P6SM SKC FM251500 18004KT P6SM SCT240
KPLN,KPLN 241733Z 2418/2518 17009G17KT P6SM BKN100 FM242300 16008G17KT P6SM BKN250 WS020/18040KT FM250300 17008KT P6SM OVC250 WS020/20040KT FM251300 18009G18KT P6SM BKN080
KPMD,KPMD 241721Z 2418/2518 08015KT P6SM SKC FM250200 21006KT P6SM SKC FM250900 VRB03KT P6SM SKC
KPNA,KPNA 241722Z 2418/2518 31018G30KT P6SM FEW040 SCT070 FM250100 32008KT P6SM SCT050 BKN080 FM250700 12007KT P6SM VCSH SCT030 BKN050 FM251600 29010KT P6SM VCSH SCT040 BKN060
KPNC,KPNC 241720Z 2418/2518 01013G20KT 4SM -RA BR BKN007 OVC015 FM242000 02012G18KT P6SM OVC025 FM250600 36018G24KT P6SM -RA OVC025 FM251400 32011G18KT P6SM SCT190
KPNE,KPNE 241730Z 2418/2518 03008KT P6SM OVC008 TEMPO 2418/2422 4SM -DZ BR OVC005 FM242200 02005KT 5SM BR OVC005 TEMPO 2500/2503 4SM -RA BR OVC004 FM250300 VRB03KT 2SM -DZ BR OVC004 FM251400 VRB03KT 6SM BR OVC006 FM251600 09005KT P6SM OVC008
KPNS,KPNS 241728Z 2418/2518 12011G17KT P6SM SKC FM250300 13005KT P6SM SCT250 FM251200 15010G20KT P6SM SCT050 FM251400 15012G20KT P6SM VCTS BKN045CB PROB30 2514/2515 5SM -RA OVC045
KPOB,TAF KPOB 241700Z 2417/2523 04008KT 9999 SCT030 QNH3007INS BECMG 2422/2423 05004KT 9999 SKC QNH3004INS BECMG 2511/2512 07002KT 6000 BR SKC QNH3008INS BECMG 2513/2514 05007KT 9999 NSW SKC QNH2994INS TX24/2420Z TN09/2511Z LAST NO AMDS AFT 2422 NEXT 2517
KPOE,TAF KPOE 241500Z 2415/2521 13012KT 8000 BR FEW015 QNH2997INS BECMG 2416/2417 14012KT 9000 BR SCT022 QNH2995INS BECMG 2417/2418 15012G18KT 9999 NSW BKN022 QNH2994INS BECMG 2418/2419 16015G20KT 9000 -SHRA SCT030 QNH2989INS BECMG 2420/2421 18020G30KT 9000 -SHRA FEW029 510073 QNH2983INS BECMG 2422/2423 17009KT 9999 NSW BKN029 510062 QNH2974INS BECMG 2510/2511 23009KT 8000 -SHRA FEW006 510063 QNH2977INS TEMPO 2510/2511 VRB25G35KT 8000 -TSRA FEW006CB OVC013 BECMG 2511/2512 27009KT 9000 SHRA FEW013 510063 QNH2981INS BECMG 2512/2513 28009KT 9000 BR SCT014 510063 QNH2984INS BECMG 2515/2516 29015G20KT 9999 NSW SKC QNH2989INS TX25/2421Z TN17/2515Z
KPOU,KPOU 241813Z 2418/2518 34003KT 4SM BR VCSH OVC006 TEMPO 2418/2422 2SM -DZ BR OVC006 FM242200 00000KT 2SM BR VCSH OVC006 FM250900 VRB03KT 3SM -SHRA BR OVC008
KPQI,KPQI 241720Z 2418/2518 14004KT P6SM -SHRA SCT035 OVC090 FM242300 VRB02KT P6SM -SHRA OVC035 FM250100 VRB02KT 5SM -SHRA BR OVC015 FM250600 VRB02KT 3SM -DZ BR OVC004 FM251500 17004KT 3SM BR OVC007
KPRB,KPRB 241721Z 2418/2518 00000KT P6SM SKC FM242300 12008KT P6SM SKC FM250500 VRB03KT P6SM SKC FM251000 00000KT P6SM SKC
KPRC,KPRC 241720Z 2418/2518 02012KT P6SM SKC FM242000 35009KT P6SM SKC FM250100 21006KT P6SM SKC
KPSC,KPSC 241720Z 2418/2518 18010KT P6SM -RA SCT060 OVC080 FM242200 23010G20KT P6SM VCSH SCT050 BKN070 FM251000 23010KT P6SM SCT080 BKN130
KPSF,KPSF 241727Z 2418/2518 VRB03KT 3SM SHRA BR OVC012 TEMPO 2418/2422 2SM -SHRA BR OVC008 FM250200 VRB03KT 2SM -SHRA BR OVC005 FM251200 14005KT 4SM -SHRA BR OVC008
KPSM,KPSM 241841Z 2419/2518 01005KT 2SM -RA VCTS OVC005CB FM241915 01005KT 2SM -SHRA BR OVC005 FM250300 VRB02KT 1SM -DZ BR OVC002
KPSP,KPSP 241720Z 2418/2518 10007KT P6SM SKC FM250100 33005KT P6SM SKC
KPTK,KPTK 241720Z 2418/2518 16011G20KT P6SM SCT250 FM242300 16006KT P6SM SCT150 BKN200 FM251600 17010KT P6SM BKN200
KPUB,KPUB 241914Z 2419/2518 10008KT P6SM SCT100 FM242000 05009KT P6SM SCT050 BKN120 FM250000 04006KT P6SM SKC FM250400 30006KT P6SM SKC
KPUW,KPUW 241827Z 2418/2518 23008G15KT 3SM -RASN SCT008 BKN026 OVC060 TEMPO 2418/2420 1 1/2SM -SN BR OVC008 FM242300 24010G18KT 4SM BR OVC015 FM251000 24011G19KT P6SM BKN100 FM251500 25010G17KT P6SM BKN050
KPVD,KPVD 241734Z 2418/2518 03005KT 3SM BR VCSH OVC003 TEMPO 2418/2420 TSRA OVC008CB FM250000 04004KT 1 1/2SM BR VCSH OVC003 FM250500 00000KT 1/2SM FG OVC003 FM251400 07003KT 4SM BR OVC003 FM251700 10004KT P6SM BKN008
KPVU,KPVU 241720Z 2418/2518 30007KT P6SM FEW050 SCT070 FM250000 VRB05KT P6SM FEW070 BKN100 FM251300 VRB05KT P6SM VCSH FEW020 SCT030 OVC050
KPVW,KPVW 241735Z 2418/2518 22020KT P6SM VCSH SCT045 FM241900 28015KT P6SM BKN035 FM242000 32018KT 6SM SHRA BR OVC030 FM242300 34022KT 6SM BR BKN020 TEMPO 2423/2503 4SM SHRA BR OVC009
KPWM,KPWM 241811Z 2418/2518 VRB04KT 2SM -SHRA VCTS OVC003CB FM241900 VRB03KT 2SM -DZ BR OVC003 FM250100 VRB02KT 1SM -DZ BR OVC004 FM251600 02005KT 3SM -DZ BR OVC003
KPWT,KPWT 241744Z 2418/2518 20012G18KT 6SM -SHRA BKN005 FM242100 22014G22KT P6SM VCSH BKN025 TEMPO 2422/2502 -SHRA OVC025 FM250500 19010KT P6SM BKN030
KRAP,KRAP 241900Z 2419/2518 31012G22KT P6SM BKN035 TEMPO 2419/2420 3SM -SN BKN020 FM242000 32015KT P6SM BKN050 FM250000 33013KT P6SM SCT100
KRBG,KRBG 241737Z 2418/2518 15003KT 5SM -RA BR OVC015 FM242300 29008KT P6SM -RA SCT015 OVC025 FM250300 VRB03KT P6SM SCT025 OVC035 FM250800 00000KT 1SM BR OVC003
KRBL,KRBL 241720Z 2418/2518 34008KT P6SM SCT250 FM242300 17006KT P6SM OVC200 FM250500 33008KT P6SM BKN200
KRCA,TAF KRCA 241845Z 2419/2601 31015G30KT 9999 FEW015 OVC025 610459 QNH2972INS TEMPO 2419/2421 31020G36KT 3200 -RASN BECMG 2421/2422 29008KT 9999 SCT060 SCT120 QNH2975INS BECMG 2516/2517 33015G25KT 9999 FEW030 SCT100 SCT150 QNH2991INS TX06/2423Z TNM01/2512Z
KRDD,KRDD 241720Z 2418/2518 33005KT P6SM SCT250 FM242100 VRB05KT P6SM OVC100 FM250500 34005KT P6SM BKN200 AMD NOT SKED
KRDG,KRDG 241909Z 2419/2518 04006KT 6SM BR OVC006 TEMPO 2419/2423 3SM -DZ BR OVC005 FM242300 VRB03KT 5SM BR OVC005 TEMPO 2500/2503 3SM -RA BR OVC004 FM250300 00000KT 2SM -DZ BR OVC004 FM251400 VRB03KT 6SM BR OVC006 FM251600 12005KT P6SM OVC008
KRDM,KRDM 241720Z 2418/2518 17008KT P6SM VCSH BKN050 OVC070 FM242100 29010KT P6SM -RA SCT040 OVC060 FM250900 19005KT P6SM SCT060 BKN090
KRDR,TAF AMD KRDR 241922Z 2419/2524 23020G25KT 9999 OVC015 QNH2932INS BECMG 2502/2503 27012KT 9999 BKN012 OVC019 QNH2957INS BECMG 2520/2521 24012G18KT 9999 FEW040 SCT060 QNH2969INS BECMG 2523/2524 28009KT 9999 SCT021 BKN028 QNH2975INS TX10/2419Z TNM01/2512Z
KRDU,KRDU 241740Z 2418/2518 35004KT P6SM FEW250 TEMPO 2509/2512 3SM BR
KRFD,KRFD 241731Z 2418/2518 18015G24KT P6SM SCT060 BKN200 FM242100 17020G32KT P6SM FEW050 BKN200 FM250400 20015G24KT 6SM -SHRA SCT050 OVC120 FM250800 24010KT 6SM -SHRA BKN020 OVC050 FM251300 33006KT 4SM -RA BR OVC010 FM251700 36007KT 3SM -RA BR OVC008
KRHI,KRHI 241737Z 2418/2518 18013G23KT P6SM OVC020 FM250000 19009G21KT P6SM -SHRA OVC017 FM250400 24006KT 4SM SHRA OVC008 FM251000 25005KT P6SM BKN011 FM251500 26006KT P6SM SCT060
KRIC,KRIC 241758Z 2418/2518 33003KT P6SM BKN026 TEMPO 2418/2422 SCT025 FM250400 00000KT P6SM BKN015 FM250500 00000KT 6SM BR OVC005 FM250700 00000KT 1/2SM FG OVC003
KRIL,KRIL 241919Z 2419/2518 VRB03KT P6SM VCSH FEW060 OVC080 FM242030 28006KT P6SM BKN060 FM250200 17004KT P6SM FEW250
KRIV,TAF KRIV 241200Z 2412/2518 35009KT 9999 SKC 510003 520307 QNH3005INS WND 320V020 TEMPO 2412/2415 01010G15KT BECMG 2416/2417 04009KT 9999 SKC 510005 520505 QNH3011INS WND 360V080 TEMPO 2417/2421 02012G18KT BECMG 2501/2502 34009KT 9999 SKC QNH3013INS BECMG 2503/2504 VRB04KT 9999 SKC QNH3008INS TX24/2422Z TN09/2413Z
KRIW,KRIW 241722Z 2418/2518 VRB06KT P6SM FEW080 TEMPO 2418/2422 31012G18KT FM242200 30014G22KT P6SM FEW100 FM250400 28010KT P6SM SCT080 BKN120 FM251700 31013KT P6SM FEW080 SCT120
KRKD,KRKD 241724Z 2418/2518 07006KT 5SM -DZ BR BKN003 OVC007 FM250600 08005KT 1/2SM -DZ FG OVC001 AMD NOT SKED
KRKS,KRKS 241722Z 2418/2518 28024G36KT P6SM SCT100 FM250200 26018G30KT P6SM FEW080 SCT120 FM250500 23010KT P6SM SCT080 BKN120 FM251200 26013G22KT P6SM SCT040 BKN060 FM251400 27015G25KT 4SM -SHSN SCT015 OVC025
KRME,KRME 241743Z 2418/2518 VRB03KT P6SM BKN040 TEMPO 2418/2420 BKN025 FM250500 VRB03KT P6SM SCT015 FM250900 VRB03KT P6SM BKN008 FM251600 13006KT P6SM BKN015
KRND,TAF KRND 241600Z 2416/2522 17012G18KT 9999 BKN015 OVC022 QNH2976INS TEMPO 2416/2418 SCT015 OVC025 BECMG 2417/2418 19012G18KT 9999 FEW025 BKN040 BKN250 QNH2966INS BECMG 2423/2424 17009KT 9999 BKN040 QNH2969INS BECMG 2502/2503 27015G20KT 9000 -SHRA SCT025 OVC040 QNH2975INS TEMPO 2503/2506 31020G35KT 9000 -TSRA SCT025CB OVC040 BECMG 2505/2506 33015G25KT 9999 NSW SCT040 QNH2987INS TEMPO 2511/2515 35025G40KT BECMG 2514/2515 35015G22KT 9999 SKC QNH2992INS TX30/2420Z TN12/2511Z LAST NO AMDS AFT 2500 NEXT 2510
KRNH,KRNH 241725Z 2418/2518 23016G23KT P6SM OVC035 FM241900 24013G22KT P6SM -SHRA OVC040 FM250000 24008KT P6SM OVC050 FM250500 24005KT P6SM BKN070 FM250900 26004KT P6SM SCT240 FM251500 28007KT P6SM SCT070
KRNO,KRNO 241741Z 2418/2518 13003KT P6SM SCT220 FM250000 31009KT P6SM FEW070 SCT250 FM250600 29005KT P6SM SCT070 BKN250 FM250900 00000KT P6SM FEW100 SCT250
KROA,KROA 241725Z 2418/2518 00000KT P6SM SKC
KROC,KROC 241736Z 2418/2518 08004KT P6SM FEW250 FM242100 05005KT P6SM FEW250 FM250300 13005KT P6SM FEW100 FM251300 17004KT P6SM SCT045 FM251500 17007KT P6SM SCT050
KROG,KROG 241733Z 2418/2518 17012G22KT 4SM -SHRA BR OVC015 TEMPO 2421/2424 2SM +SHRA BR OVC007 FM250000 36012G20KT P6SM VCSH BKN012 PROB30 2504/2510 4SM -SHRA BR OVC005 FM251100 34012G20KT 6SM -SHRA BR OVC012 PROB30 2511/2515 2SM SHRA BR OVC007
KROW,KROW 241722Z 2418/2518 32014G22KT P6SM VCSH BKN040 OVC060 FM242000 32025G35KT P6SM VCSH SCT060 BKN080 FM250200 34011KT P6SM SCT090 FM250600 27007KT P6SM SKC
KRSL,KRSL 241733Z 2418/2518 35015G21KT P6SM BKN100 FM242300 33009KT P6SM BKN150 FM251500 32014G20KT P6SM SKC
KRST,KRST 241722Z 2418/2518 24013KT 6SM -SHRA OVC022 FM242300 27008KT 4SM -SHRA OVC015 FM250400 26007KT P6SM OVC035 FM250600 26009KT P6SM BKN100 FM251600 32009KT P6SM BKN050
KRSW,KRSW 241720Z 2418/2518 07008KT P6SM SCT030 SCT250 FM250100 08004KT P6SM SKC
KRUT,KRUT 241727Z 2418/2518 13008KT P6SM VCSH BKN035 FM242000 13005KT P6SM BKN035 FM250100 13004KT P6SM OVC025 FM250400 13004KT 5SM BR OVC015 FM251300 14006KT P6SM BKN025
KRVS,KRVS 241931Z 2420/2518 32012KT 6SM -SHRA BR SCT008 OVC025 TEMPO 2420/2424 4SM SHRA BKN012 FM250000 36010KT P6SM VCSH BKN012 TEMPO 2504/2508 4SM -SHRA BR OVC007 FM250800 36012G25KT 6SM -SHRA BR OVC015 PROB30 2508/2513 2SM SHRA BR OVC007 FM251400 32012KT 6SM -SHRA BR OVC015
KRWF,KRWF 241725Z 2418/2518 23016G27KT P6SM BKN210 FM242200 25014G22KT P6SM BKN220 FM250100 25009KT P6SM BKN240 FM250500 25006KT P6SM FEW210 FM251000 27007KT P6SM SCT050 FM251600 30009KT P6SM FEW190
KRWI,KRWI 241740Z 2418/2518 36004KT P6SM FEW025 FM250300 00000KT 3SM BR SCT020 FM250700 00000KT 1 1/2SM BR BKN006 BKN020 FM250900 00000KT 1/2SM FG OVC003 FM251300 VRB02KT 6SM BR BKN007 FM251430 02003KT P6SM BKN015 FM251600 03004KT P6SM SCT020
KRWL,KRWL 241720Z 2418/2518 25015G25KT P6SM BKN035 FM242000 26020G30KT P6SM FEW150 FM250100 25025G35KT P6SM FEW250
KRYY,KRYY 241730Z 2418/2518 14005KT P6SM BKN200 FM250000 13003KT P6SM SCT150 BKN200 FM251400 14008KT P6SM SCT035
KSAC,KSAC 241720Z 2418/2518 31008KT P6SM SCT250 FM250000 18005KT P6SM BKN250
KSAF,KSAF 241722Z 2418/2518 34017G27KT P6SM SCT040 BKN080 TEMPO 2418/2420 2SM -SN OVC025 FM250100 32010KT P6SM FEW080 FM250300 35008KT P6SM SKC FM251000 36015G21KT P6SM SKC
KSAN,KSAN 241720Z 2418/2524 VRB04KT P6SM SKC FM242000 29010KT P6SM SKC FM250200 VRB04KT P6SM SKC FM251900 28008KT P6SM SKC
KSAT,KSAT 241720Z 2418/2524 19012KT P6SM BKN025 FM241900 18010KT P6SM BKN035 FM250200 VRB15G25KT 4SM TSRA BR BKN060CB FM250430 32015G25KT P6SM FEW080 FM251500 34011KT P6SM SKC FM252100 30007KT P6SM SKC
KSAV,KSAV 241726Z 2418/2518 02005KT P6SM FEW250 FM242300 12003KT P6SM FEW250 FM250800 00000KT 5SM BR FEW250 FM251300 VRB06KT P6SM FEW250
KSAW,KSAW 241723Z 2418/2518 18013G25KT P6SM SCT024 WS020/18045KT FM250500 18013G22KT P6SM OVC040 WS020/19050KT PROB30 2505/2507 -SHRA BKN025 FM250800 19013KT P6SM -SHRA OVC019 WS020/20050KT FM251200 18005KT P6SM -SHRA OVC012 FM251600 15005KT P6SM -SHRA OVC014 FM251700 13005KT P6SM -SHRA OVC027
KSBA,KSBA 241721Z 2418/2518 19005KT P6SM SKC FM242000 24006KT P6SM SKC FM250200 VRB03KT P6SM SKC FM251000 00000KT P6SM SKC AMD NOT SKED
KSBD,KSBD 241720Z 2418/2518 VRB04KT P6SM SKC FM242200 34009KT P6SM SKC FM250300 VRB04KT P6SM SKC
KSBM,KSBM 241745Z 2418/2518 15011G21KT P6SM BKN250 FM250200 17013KT P6SM BKN050 WS020/20050KT FM250900 18009KT P6SM VCSH BKN045 FM251100 20006KT 6SM -SHRA BR OVC040 FM251300 22005KT 6SM -SHRA BR OVC028 FM251500 25007KT 6SM -SHRA BR OVC018
KSBN,KSBN 241720Z 2418/2518 17014G23KT P6SM SCT050 BKN250 FM250000 16010KT P6SM BKN200 WS020/20040KT FM251000 17012KT P6SM SCT070 OVC150
KSBP,KSBP 241721Z 2418/2518 00000KT P6SM SKC FM242000 30008KT P6SM SKC FM250400 VRB03KT P6SM SKC FM251000 00000KT P6SM SKC
KSBY,KSBY 241758Z 2418/2518 30007KT 4SM BR OVC006 FM250000 VRB02KT 1/2SM FG BKN003 FM251500 00000KT 5SM BR OVC010
KSCK,KSCK 241720Z 2418/2518 30008KT P6SM SCT250 FM250200 16006KT P6SM SCT250
KSDF,KSDF 241739Z 2418/2524 18010KT P6SM BKN250 FM242300 15006KT P6SM BKN250 FM251200 15007KT P6SM SCT240 FM251400 16011G21KT P6SM BKN120 FM252000 15012G23KT P6SM BKN070 PROB30 2520/2524 4SM -SHRA BR OVC025
KSDL,KSDL 241720Z 2418/2518 31005KT P6SM SKC FM242300 26004KT P6SM SKC FM250300 VRB04KT P6SM FEW250
KSDY,KSDY 241727Z 2418/2518 30020G34KT P6SM OVC013 FM242100 30013KT P6SM OVC015 FM250000 VRB06KT P6SM BKN100 FM251200 28012KT P6SM OVC030
KSEA,KSEA 241744Z 2418/2524 17007KT 6SM -SHRA BR OVC012 FM242200 21012G20KT P6SM VCSH BKN035 TEMPO 2422/2502 -SHRA OVC030 FM250500 21009KT P6SM VCSH OVC030 FM251700 19009KT P6SM OVC035
KSEZ,KSEZ 241720Z 2418/2518 03008KT P6SM SKC
KSFB,KSFB 241732Z 2418/2518 05008KT P6SM SCT045 BKN060 FM250000 06006KT P6SM FEW060 FM250600 35002KT P6SM SKC FM251500 03005KT P6SM SCT030
KSFF,KSFF 241720Z 2418/2518 19011KT P6SM -RA BKN025 OVC060 TEMPO 2418/2420 3SM -RA BR OVC019 FM242100 22008KT P6SM SCT019 OVC060 FM250100 19009KT P6SM OVC100 FM251500 22005KT P6SM BKN015 BKN025
KSFO,KSFO 241736Z 2418/2524 VRB04KT P6SM SKC FM242000 28015KT P6SM SKC FM250800 28010KT P6SM SCT010 BKN200 FM251200 28010KT P6SM BKN012 FM251800 29012KT P6SM FEW010 SCT200 FM252100 30018G23KT P6SM SCT200
KSGF,KSGF 241725Z 2418/2518 17017G26KT 3SM SHRA BR OVC018 FM250000 18009KT 1 1/2SM BR OVC022 TEMPO 2500/2503 1SM +SHRA BR OVC007 FM250500 04005KT 3SM +SHRA BR OVC013 FM250800 01011KT 2SM SHRA BR OVC006
KSGJ,KSGJ 241720Z 2418/2518 05010KT P6SM FEW250 FM250200 VRB03KT P6SM FEW250
KSGR,KSGR 241740Z 2418/2518 16013G23KT P6SM VCSH SCT030 BKN040 OVC080 FM250500 24011G25KT P6SM VCTS BKN035CB PROB30 2506/2509 VRB20G35KT 4SM TSRA BKN025CB FM251000 30011G24KT P6SM VCSH BKN035 WS020/32045KT FM251400 33015G22KT P6SM SKC
KSGU,KSGU 241720Z 2418/2518 VRB05KT P6SM SKC FM250200 13004KT P6SM SKC
KSHR,KSHR 241722Z 2418/2518 31018G28KT P6SM SKC FM242300 VRB05KT P6SM FEW250
KSHV,KSHV 241739Z 2418/2518 16013G22KT P6SM VCSH FEW025 BKN050 BKN150 FM242200 17013G20KT P6SM VCSH BKN040 FM250400 17013KT P6SM VCTS BKN020CB FM250600 VRB20G30KT 2SM TSRA BR OVC025CB FM251000 24012KT P6SM BKN070 FM251500 28015G25KT P6SM BKN035
KSJC,KSJC 241737Z 2418/2518 VRB03KT P6SM SKC FM242100 32009KT P6SM SKC FM250300 VRB04KT P6SM SKC FM251200 VRB03KT P6SM SCT015 SCT200
KSJS,KSJS 241739Z 2418/2518 VRB03KT P6SM FEW250 FM242200 00000KT P6SM BKN250 FM250300 00000KT P6SM SCT200 FM251500 15005KT P6SM SCT600
KSJT,KSJT 241741Z 2418/2518 20008KT P6SM BKN080 FM242000 23018G27KT P6SM BKN120 FM242300 27027G35KT P6SM BKN250
KSKA,TAF KSKA 241900Z 2419/2601 20012G20KT 9000 -RA BKN006 OVC015 WS020/22030KT 620409 QNH2985INS BECMG 2420/2421 23012G18KT 9999 VCSH FEW007 SCT015 BKN050 610509 QNH2984INS BECMG 2500/2501 23009KT 9999 NSW SCT050 BKN080 620804 QNH2984INS BECMG 2512/2514 20007KT 1200 BR OVC004 620404 QNH3003INS BECMG 2517/2518 20012KT 9999 NSW BKN035 620404 QNH2992INS TX06/2519Z TN01/2511Z
KSKF,TAF KSKF 241800Z 2418/2524 15012G20KT 9999 SCT020 BKN050 BKN200 QNH2975INS BECMG 2421/2422 20010KT 9999 SCT030 BKN080 QNH2966INS BECMG 2503/2504 30010KT 9000 -SHRA VCTS BKN030CB BKN100 QNH2980INS TEMPO 2504/2506 VRB15G25KT 4800 -TSRA BKN025CB BKN100 BECMG 2507/2508 32012KT 9999 NSW SCT030 SCT100 QNH2984INS BECMG 2518/2519 VRB06KT 9999 SCT060 QNH2992INS BECMG 2521/2522 19006KT 9999 SKC QNH2995INS TX31/2422Z TN15/2513Z
KSLC,KSLC 241720Z 2418/2524 31006KT P6SM FEW050 SCT070 FM242100 24006KT P6SM FEW080 SCT100 FM250000 14007KT P6SM FEW060 BKN080 FM251200 15006KT P6SM VCSH FEW020 SCT030 OVC040 FM251800 32006KT P6SM SCT040 BKN080
KSLE,KSLE 241737Z 2418/2518 18012G20KT 3SM -RA BR BKN015 OVC030 FM242000 19011KT P6SM -RA SCT015 BKN018 OVC040 FM250000 21006KT P6SM -SHRA SCT018 BKN035 OVC050 FM250900 VRB03KT 6SM BR VCSH BKN027 OVC050
KSLI,TAF KSLI 241300Z 2413/2519 VRB06KT 9999 SKC WS020/4028KT QNH3000INS BECMG 2414/2415 VRB06KT 9999 SKC QNH3005INS TX22/2500Z TN12/2515Z
KSLK,KSLK 241727Z 2418/2518 VRB03KT P6SM FEW028 SCT040 TEMPO 2418/2420 BKN028 FM250200 00000KT P6SM BKN028 FM251000 00000KT 5SM BR OVC015 FM251400 VRB03KT 6SM BR SCT025 BKN040
KSLN,KSLN 241733Z 2418/2518 33011KT P6SM -RA SCT040 OVC090 FM241900 34012G18KT P6SM BKN090 FM242300 34009KT P6SM BKN150 FM251500 33014G20KT P6SM SKC
KSME,KSME 241739Z 2418/2518 VRB05KT P6SM SCT250 FM250000 VRB03KT P6SM BKN250 FM250200 00000KT P6SM SCT200 FM251400 17010G18KT P6SM SCT200
KSMF,KSMF 241720Z 2418/2518 33009KT P6SM SCT250 FM242300 17007KT P6SM BKN250
KSMN,KSMN 241720Z 2418/2518 VRB03KT P6SM BKN100 FM242100 24010G15KT P6SM VCSH OVC080 FM250200 24007KT P6SM VCSH OVC070
KSMO,KSMO 241721Z 2418/2518 13004KT P6SM SKC FM242100 24008KT P6SM SKC FM250300 VRB03KT P6SM SKC FM251000 05005KT P6SM SKC
KSMX,KSMX 241721Z 2418/2518 00000KT P6SM SKC FM242100 30010KT P6SM SKC FM250400 VRB03KT P6SM SKC FM250900 00000KT P6SM SKC
KSNA,KSNA 241720Z 2418/2518 05011G18KT P6SM SKC FM242100 23008KT P6SM SKC FM250200 VRB04KT P6SM SKC
KSNS,KSNS 241740Z 2418/2518 14007KT P6SM SKC FM242100 29010KT P6SM SKC FM250300 VRB05KT P6SM SKC FM251000 VRB05KT P6SM FEW010 FM251600 13005KT P6SM BKN015
KSNY,KSNY 241720Z 2418/2518 32025G35KT P6SM FEW250 FM250100 29012KT P6SM FEW250
KSOA,KSOA 241741Z 2418/2518 22008KT P6SM SCT050 FM242100 28011G17KT P6SM SCT250 FM250100 29018G26KT P6SM BKN250
KSPI,KSPI 241739Z 2418/2518 18017G28KT P6SM FEW070 BKN200 FM242300 17015G28KT P6SM BKN100 FM250400 18014G26KT P6SM VCSH OVC070 WS020/19045KT FM250800 18010G21KT 5SM SHRA BR OVC035 FM251000 18010G21KT 4SM +SHRA BR OVC010
KSPS,KSPS 241720Z 2418/2518 03014G20KT P6SM BKN045 OVC060 FM250000 07010KT 4SM RA BKN025 FM250700 31022G30KT P6SM OVC020 FM251300 30012G18KT P6SM SKC
KSRQ,KSRQ 241720Z 2418/2518 08007KT P6SM FEW250 FM242000 32008KT P6SM SCT030 SCT250 FM250100 09004KT P6SM SKC
KSSC,TAF KSSC 241500Z 2415/2521 04006KT 9999 FEW220 QNH3022INS BECMG 2417/2418 34006KT 9999 SCT200 QNH3019INS BECMG 2420/2421 VRB06KT 9999 FEW200 QNH3008INS TEMPO 2511/2513 1600 BR BKN001 BECMG 2516/2517 14006KT 9999 SCT020 QNH3004INS TX24/2420Z TN12/2511Z
KSSF,KSSF 241723Z 2418/2518 19011KT P6SM BKN025 FM241830 19011KT P6SM BKN035 FM250200 VRB15G25KT 4SM TSRA BR BKN060CB FM250430 32012G22KT P6SM FEW080 FM251200 34010KT P6SM SKC
KSSI,KSSI 241720Z 2418/2518 08009KT P6SM FEW250 FM250100 13003KT P6SM FEW250 FM251000 00000KT 6SM BR FEW250 FM251300 11005KT P6SM SKC
KSTC,KSTC 241725Z 2418/2518 22014G26KT P6SM BKN220 FM242100 24015G27KT P6SM BKN210 FM250000 24009KT P6SM BKN190 FM250400 26005KT P6SM SCT220 FM251500 29007KT P6SM SCT028
KSTJ,KSTJ 241737Z 2418/2518 34006KT 6SM -SHRA SCT015 BKN025 TEMPO 2418/2420 3SM -RA BKN015 FM242000 34005KT 6SM -SHRA SCT015 BKN025 FM242300 33007KT P6SM SCT015 BKN025 FM250400 35010KT P6SM OVC080
KSTL,KSTL 241720Z 2418/2524 16015G25KT P6SM SCT060 BKN250 FM250600 16008KT 5SM SHRA BR OVC025 FM250900 14007KT 4SM +SHRA BR OVC017 FM251200 12008KT 4SM +SHRA BR OVC011 FM252200 33008KT 6SM -SHRA BR OVC015
KSTS,KSTS 241736Z 2418/2518 30010KT P6SM SKC FM250200 26006KT P6SM FEW250 FM250900 VRB03KT P6SM SCT010 BKN200 FM251200 00000KT 4SM BR BKN006
KSUA,KSUA 241732Z 2418/2518 06010KT P6SM VCSH BKN030 FM250000 VRB04KT P6SM SCT035 FM251500 03008KT P6SM FEW030 AMD NOT SKED
KSUN,KSUN 241731Z 2418/2524 16007KT P6SM FEW120 FM242300 19011KT P6SM VCSH SCT050 OVC070 FM250200 VRB06KT 4SM -SN OVC020 FM250800 32005KT P6SM SCT020 FM251600 23011KT P6SM FEW020 SCT180
KSUS,KSUS 241720Z 2418/2518 18012G22KT P6SM SCT060 BKN250 FM250600 16005KT 5SM SHRA BR OVC025 FM250900 14005KT 4SM +SHRA BR OVC015 FM251200 12006KT 4SM +SHRA BR OVC011
KSUU,TAF KSUU 241900Z 2419/2601 35009KT 9999 SKC QNH3016INS BECMG 2422/2423 23010G15KT 9999 FEW080 QNH3012INS BECMG 2505/2506 23015G25KT 9999 BKN250 QNH3006INS TX27/2423Z TN07/2513Z
KSUX,KSUX 241726Z 2418/2518 29013G19KT P6SM OVC200 FM242300 29009KT P6SM SCT250 FM251400 31007KT P6SM SKC
KSVN,TAF KSVN 241145Z 2412/2518 VRB06KT 9999 FEW250 QNH3001INS TX25/2418Z TN11/2412Z
KSWF,KSWF 241941Z 2420/2524 06007KT 2SM -DZ BR OVC005 FM242200 VRB03KT 2SM -DZ BR OVC005 FM250000 VRB02KT 3SM -SHRA BR OVC004 FM250600 VRB02KT 1SM -SHRA BR OVC005 FM251500 VRB04KT 5SM -DZ BR BKN006 FM251800 12005KT 6SM BR BKN007 AMD NOT SKED
KSWO,KSWO 241720Z 2418/2518 34012G21KT 4SM -RA BR BKN008 BKN045 FM242200 03012KT P6SM OVC015 FM250600 36018G24KT P6SM -RA OVC025 FM251200 32010G15KT P6SM BKN035
KSYM,KSYM 241739Z 2418/2518 VRB04KT P6SM SCT250 FM242100 00000KT P6SM BKN250 FM250100 00000KT P6SM SCT200 FM251500 18007G15KT P6SM SCT250
KSYR,KSYR 241743Z 2418/2518 09005KT P6SM SCT070 BKN110 FM250900 VRB03KT P6SM BKN025 FM251600 15007KT P6SM SCT025
KSZL,TAF KSZL 241900Z 2419/2601 34012KT 6000 -RA BKN007 OVC020 651109 QNH2964INS TEMPO 2419/2422 18015G25KT 3200 TSRA OVC010CB BECMG 2421/2422 35012KT 6000 -RA BKN010 651109 QNH2975INS BECMG 2502/2503 30009KT 9999 NSW OVC008 QNH2974INS BECMG 2507/2508 36012KT 8000 -RA BKN010 OVC020 620909 QNH2974INS BECMG 2510/2511 36012KT 6000 -RA SCT010 OVC030 621009 QNH2975INS BECMG 2515/2516 01015G25KT 9999 NSW FEW020 BKN040 620905 QNH2971INS BECMG 2522/2523 35012KT 9999 SCT040 QNH2979INS TX19/2419Z TN08/2511Z
KTBN,TAF KTBN 241300Z 2413/2519 16009KT 9999 SCT035 QNH2986INS BECMG 2414/2415 18015G25KT 9999 SCT020 QNH2976INS BECMG 2423/2424 16009KT 9999 VCSH SCT020 OVC030 QNH2975INS BECMG 2502/2503 18012G18KT 9000 -RA OVC019 QNH2977INS BECMG 2505/2506 VRB06KT 4800 RA OVC004 QNH2966INS BECMG 2514/2515 03010G15KT 2400 RA OVC004 QNH2954INS BECMG 2517/2518 34020G25KT 6000 RA OVC004 QNH2956INS TX20/2420Z TN09/2517Z
KTCC,KTCC 241722Z 2418/2518 03013G21KT P6SM FEW020 OVC030 TEMPO 2418/2422 4SM -RA BR OVC018 FM250200 26008KT P6SM FEW060 SCT100 FM250900 27007KT P6SM SKC
KTCL,KTCL 241721Z 2418/2518 17007G14KT P6SM FEW250 FM242300 16008KT P6SM SCT150 FM250300 14007KT P6SM BKN090 FM251400 15012G22KT P6SM BKN040 PROB30 2514/2518 4SM TSRA BR OVC020CB
KTCM,TAF KTCM 241300Z 2413/2519 19006KT 6000 -RA BR SCT008 BKN025 OVC035 620809 510204 QNH3089INS TEMPO 2413/2416 BKN015 BECMG 2417/2418 21010G15KT 9000 -SHRA BKN015 610609 510105 QNH2994INS BECMG 2420/2421 22012G22KT 9999 VCSH SCT040 BKN060 610609 510009 QNH2997INS BECMG 2501/2502 21012G18KT 9999 NSW FEW100 QNH3004INS TX13/2421Z TN08/2413Z
KTCS,KTCS 241736Z 2418/2518 33025G35KT P6SM SKC FM250000 32010G20KT P6SM SKC FM250300 31010KT P6SM SKC
KTEB,KTEB 241941Z 2420/2524 06007KT 2SM -DZ BR OVC003 FM250100 VRB03KT 2SM -SHRA BR OVC003 FM251000 VRB04KT 2SM BR OVC004 FM251500 14005KT 5SM BR OVC006 FM252100 09007KT 6SM BR BKN007 TEMPO 2521/2523 OVC010
KTEX,KTEX 241919Z 2419/2518 01003KT P6SM VCSH SCT029 SCT035 BKN045 FM242200 28007KT P6SM VCSH FEW030 BKN050 FM250300 18002KT P6SM SCT100
KTIK,TAF AMD KTIK 241845Z 2418/2523 36012G17KT 9999 SCT010 OVC050 QNH2970INS TEMPO 2418/2420 OVC008 BECMG 2419/2420 36012G17KT 9999 BKN050 OVC095 QNH2975INS BECMG 2502/2503 34010G15KT 8000 -RA OVC010 QNH2978INS BECMG 2505/2506 01012G18KT 8000 -RA SCT002 OVC010 QNH2981INS BECMG 2506/2507 34010G15KT 9000 -RA OVC010 QNH2983INS BECMG 2510/2511 32009KT 9999 NSW FEW025 SCT040 OVC055 QNH2990INS BECMG 2515/2516 31015G20KT 9999 BKN100 QNH2999INS BECMG 2522/2523 VRB06KT 9999 SKC 510042 QNH3000INS TX13/2418Z TN07/2513Z
KTIX,KTIX 241732Z 2418/2518 06009KT P6SM SCT035 FM250000 VRB03KT P6SM SCT030 FM251500 36006KT P6SM FEW030
KTLH,KTLH 241723Z 2418/2518 15007KT P6SM FEW250 FM250000 VRB03KT P6SM SCT150 FM251500 17010KT P6SM SCT050
KTMB,KTMB 241720Z 2418/2518 07010KT P6SM SCT040 SCT060 FM250100 VRB04KT P6SM SCT035 FM251500 06010KT P6SM SCT035
KTOI,KTOI 241721Z 2418/2518 13007KT P6SM FEW250 FM250200 15006KT P6SM SCT100 FM251300 15007G14KT P6SM BKN050 FM251700 17012G22KT P6SM VCSH BKN040
KTOL,KTOL 241720Z 2418/2518 19012KT P6SM FEW250 FM250000 16005KT P6SM SCT250
KTOP,KTOP 241737Z 2418/2518 32008KT 6SM SHRA BR OVC050 FM242000 34008KT 3SM -RA BR OVC012 FM242300 34006KT 6SM SHRA BR OVC012 FM250000 33005KT P6SM VCSH SCT030 BKN050 FM251300 33010KT P6SM SCT200
KTPA,KTPA 241720Z 2418/2524 06005KT P6SM FEW250 FM242000 33007KT P6SM SCT030 SCT250 FM250100 09004KT P6SM SCT250 FM251800 24007KT P6SM SCT250
KTPH,KTPH 241811Z 2418/2518 35010KT P6SM FEW250 FM242000 32012G19KT P6SM SCT250 FM250300 01008KT P6SM BKN250
KTRI,KTRI 241726Z 2418/2518 25004KT P6SM FEW250 FM251700 18005KT P6SM BKN250
KTRK,KTRK 241741Z 2418/2518 VRB03KT P6SM SCT250 FM242100 26006KT P6SM FEW050 FM250200 18003KT P6SM SCT050 BKN180 FM251200 00000KT P6SM SCT250
KTRM,KTRM 241720Z 2418/2518 31011KT P6SM SKC FM250100 VRB05KT P6SM SKC
KTTD,KTTD 241737Z 2418/2518 VRB04KT 5SM -RA BR BKN015 OVC030 FM242100 22005KT P6SM -SHRA SCT012 BKN025 OVC040 FM250100 VRB03KT P6SM -SHRA SCT015 BKN035 OVC050 FM251000 VRB02KT P6SM VCSH SCT025 BKN050
KTTN,KTTN 241909Z 2419/2518 04007KT P6SM OVC008 TEMPO 2419/2422 4SM -DZ BR OVC005 FM242200 04005KT 6SM BR OVC006 TEMPO 2500/2503 4SM -RA BR OVC004 FM250300 VRB03KT 2SM -DZ BR OVC004 FM251400 VRB03KT 6SM BR OVC006 FM251600 08005KT P6SM OVC008
KTUL,KTUL 241930Z 2419/2518 35012KT 6SM -SHRA BR SCT008 OVC025 TEMPO 2420/2424 4SM SHRA BKN009 FM250000 36010KT P6SM VCSH BKN012 TEMPO 2505/2508 4SM -SHRA BR OVC007 FM250800 36015G28KT 6SM -SHRA BR OVC015 PROB30 2508/2513 2SM SHRA BR OVC007
KTUP,KTUP 241720Z 2418/2518 17011G18KT P6SM FEW050 SCT250 FM250000 15009KT P6SM FEW050 BKN200 FM250800 16012KT P6SM BKN050 OVC120 WS020/18040KT FM251100 19015G21KT P6SM OVC050 WS020/18040KT FM251600 19020G27KT P6SM -SHRA VCTS OVC025CB
KTUS,KTUS 241730Z 2418/2518 34012G18KT P6SM SKC FM242100 34009KT P6SM SKC FM250300 23005KT P6SM SKC FM250700 15007KT P6SM SKC
KTVC,KTVC 241733Z 2418/2518 18012G24KT P6SM BKN250 FM250000 17009G20KT P6SM BKN250 WS020/18040KT FM251300 17011G17KT P6SM BKN070
KTVF,KTVF 241731Z 2418/2518 20030G39KT P6SM OVC015 FM242000 22025G35KT P6SM BKN016 FM250000 28018G28KT P6SM OVC016 FM250600 27010KT P6SM OVC020
KTVL,KTVL 241741Z 2418/2518 07005KT P6SM SKC FM250000 18004KT P6SM SCT050 BKN180 FM251200 00000KT P6SM SCT250
KTWF,KTWF 241725Z 2418/2518 26015G25KT P6SM BKN120 FM250300 23012G20KT P6SM VCSH BKN060 FM250600 26015G25KT P6SM -RA BKN025 FM251200 23015G25KT P6SM BKN035
KTXK,KTXK 241739Z 2418/2518 17015G25KT P6SM VCSH OVC080 FM242100 18015G25KT P6SM VCSH BKN040 FM242300 18011KT 5SM -TSRA BR BKN035CB FM250200 17011KT 5SM -TSRA BR SCT015 BKN020CB FM251000 23012G20KT P6SM BKN070 FM251500 29015G25KT P6SM BKN015
KTYR,KTYR 241739Z 2418/2518 16016G27KT P6SM VCSH BKN025 OVC060 FM242100 17015G25KT 6SM -TSRA BR BKN030CB FM250100 17013KT 5SM -TSRA BR BKN023CB FM250700 25013G22KT P6SM BKN070 FM251000 24013G22KT P6SM BKN025 FM251500 30017G27KT P6SM BKN035
KTYS,KTYS 241726Z 2418/2518 25005KT P6SM FEW250 FM251600 18006KT P6SM SCT250
KUAO,KUAO 241737Z 2418/2518 19012G20KT 4SM -RA BR BKN012 OVC025 FM242200 20008KT P6SM -SHRA SCT012 BKN025 OVC040 FM250400 20003KT P6SM -SHRA SCT015 BKN035 OVC050 FM250900 VRB03KT 6SM BR VCSH SCT015 BKN027 OVC050
KUES,KUES 241745Z 2418/2518 17014G22KT P6SM BKN250 FM250200 18013KT P6SM BKN050 WS020/20050KT FM251000 19008KT 6SM -SHRA BR OVC035 FM251100 21007KT 6SM -SHRA BR OVC028 FM251300 VRB04KT 6SM -SHRA BR OVC011 FM251400 23005KT 6SM -SHRA BR OVC009 FM251700 32005KT 5SM -SHRA BR OVC011
KUIN,KUIN 241720Z 2418/2518 17015G26KT P6SM BKN060 BKN250 FM250200 18011KT 5SM SHRA BR OVC025 FM250400 20009KT 4SM +SHRA BR OVC012 FM250800 32005KT 4SM +SHRA BR OVC007 FM251500 36011KT 4SM +SHRA BR OVC007
KUKI,KUKI 241741Z 2418/2518 32006KT P6SM OVC100 FM250900 VRB02KT P6SM OVC025
KUNV,KUNV 241728Z 2418/2518 06004KT P6SM SCT025 FM250000 06004KT P6SM BKN018 FM250400 00000KT 6SM BR OVC008 FM250700 00000KT 2SM BR OVC005 FM251330 13003KT 6SM BR BKN020
KUTS,KUTS 241740Z 2418/2518 17011G22KT P6SM VCSH OVC050 FM250300 18012G25KT P6SM VCTS BKN020CB PROB30 2504/2508 VRB25G35KT 5SM TSRA FM250900 28009KT P6SM VCSH SCT060 FM251500 32015G29KT P6SM SKC
KVAD,TAF KVAD 241600Z 2416/2522 07006KT 9999 SKC QNH3010INS TEMPO 2510/2514 1600 BR BKN002 TX25/2420Z TN11/2510Z
KVBG,TAF KVBG 241408Z 2414/2520 VRB06KT 9999 SKC QNH3011INS BECMG 2516/2517 33006KT 9999 SCT250 QNH3005INS TX20/2421Z TN06/2414Z
KVCT,KVCT 241739Z 2418/2518 17022G30KT P6SM VCSH OVC030 FM242200 17018G26KT P6SM SCT035 FM250500 23015G22KT 4SM TSRA BKN025CB WS020/33045KT FM250900 31011KT P6SM SCT090 WS020/33045KT FM251500 34018G25KT P6SM FEW030
KVEL,KVEL 241729Z 2418/2518 15005KT P6SM FEW130 FM242000 17009KT P6SM SCT130 FM250100 25005KT P6SM SCT250
KVGT,KVGT 241720Z 2418/2518 34011G20KT P6SM SKC FM242000 36009KT P6SM SKC FM242300 13005KT P6SM SKC FM250300 31006KT P6SM SKC
KVIS,KVIS 241720Z 2418/2518 VRB04KT P6SM SKC
KVLD,KVLD 241723Z 2418/2518 12006KT P6SM SKC FM250000 00000KT P6SM FEW200 FM251000 00000KT 3SM BR FEW004 FM251200 16007KT P6SM FEW040
KVNY,KVNY 241721Z 2418/2518 07005KT P6SM SKC FM242200 35008KT P6SM SKC FM250300 VRB03KT P6SM SKC
KVOK,TAF KVOK 241700Z 2417/2523 17012KT 9000 -SHRA SCT020 BKN022 510062 QNH2966INS BECMG 2503/2504 VRB06KT 8000 RA OVC006 510063 QNH2963INS BECMG 2510/2511 31009KT 8000 BR FEW006 BKN013 OVC020 510063 QNH2967INS BECMG 2515/2516 31009KT 9999 NSW FEW028 BKN040 QNH2968INS TX21/2419Z TN08/2517Z
KVPS,TAF KVPS 241700Z 2417/2523 14009KT 9999 FEW120 QNH3010INS BECMG 2501/2502 20009KT 9999 BKN040 QNH3000INS BECMG 2515/2516 18010G20KT 9999 SCT020 QNH2994INS TEMPO 2516/2518 9000 -SHRA VCTS BKN020CB BECMG 2519/2520 19009KT 9999 BKN040 QNH2987INS TX27/2418Z TN13/2512Z
KVQQ,KVQQ 241720Z 2418/2518 07007KT P6SM SCT040 SCT250 FM250100 00000KT P6SM FEW250 FM250400 00000KT 3SM BR FEW002 FEW250 FM250600 00000KT 1/2SM FG BKN002 FM251200 11004KT P6SM FEW250
KVRB,KVRB 241732Z 2418/2518 05014G19KT P6SM SCT030 FM250000 05004KT P6SM SCT035 FM251500 02008KT P6SM FEW030
KVTN,KVTN 241722Z 2418/2518 30021G35KT P6SM SCT080 FM242300 29016G24KT P6SM BKN080 FM250100 27010KT P6SM BKN150 FM250500 26005KT P6SM BKN250
KWJF,KWJF 241721Z 2418/2518 07008KT P6SM SKC FM250000 28008KT P6SM SKC FM250700 VRB03KT P6SM SKC
KWMC,KWMC 241811Z 2418/2518 VRB05KT P6SM FEW250 FM241900 20010G16KT P6SM SCT050 BKN070 FM250300 21007KT P6SM VCSH SCT035 BKN050 FM250900 24007KT 6SM -SHRASN BR SCT020 BKN035 AMD NOT SKED
KWRB,TAF KWRB 241600Z 2416/2522 VRB06KT 9999 FEW250 QNH2996INS BECMG 2521/2522 20012KT 9999 SCT200 QNH2987INS TX26/2420Z TN08/2511Z
KWRI,TAF KWRI 241800Z 2418/2524 01007KT 3200 BR OVC004 QNH3010INS TEMPO 2418/2421 03005KT 1600 BR OVC002 BECMG 2505/2506 03005KT 3200 BR OVC008 QNH3003INS TEMPO 2506/2510 09004KT 0800 FG OVC004 BECMG 2511/2512 12005KT 3200 -SHRA BR OVC004 QNH2994INS TX17/2419Z TN14/2511Z
KWRL,KWRL 241722Z 2418/2518 18008KT P6SM FEW020 FM250100 10007KT P6SM FEW040 SCT120 FM250500 VRB06KT P6SM SCT080 BKN120 FM251700 33008KT P6SM FEW080 SCT150
KWWR,KWWR 241720Z 2418/2518 02013G21KT P6SM SCT015 BKN045 TEMPO 2418/2420 BKN015 BKN045 FM242000 02012G18KT P6SM BKN040 OVC100 TEMPO 2502/2506 -SHRA FM250700 34010G17KT P6SM BKN080 FM251000 31009G15KT P6SM SCT140
KXNA,KXNA 241733Z 2418/2518 17012G22KT 4SM -SHRA BR OVC015 TEMPO 2421/2424 2SM +SHRA BR OVC007 FM250000 36012G20KT P6SM VCSH BKN012 PROB30 2504/2510 4SM -SHRA BR OVC005 FM251100 34012G20KT 6SM -SHRA BR OVC012 PROB30 2511/2515 2SM SHRA BR OVC007
KXWA,KXWA 241733Z 2418/2518 32025G35KT 5SM -SN BR OVC008 FM242000 31023G33KT 6SM BR OVC012 FM242300 30018G27KT P6SM BKN020 FM250200 24009KT P6SM SCT025 FM251200 26012KT P6SM SCT060 FM251500 28015KT P6SM SCT025
KYIP,KYIP 241720Z 2418/2518 16011G21KT P6SM SCT250 FM242300 15006KT P6SM SCT150 BKN200 FM251600 17010KT P6SM BKN200
KYKM,KYKM 241720Z 2418/2518 25005KT P6SM SCT060 OVC100 FM242200 27008G18KT P6SM VCSH SCT050 OVC070 FM250900 29007KT P6SM SCT070 BKN100
KYNG,KYNG 241720Z 2418/2518 17006KT P6SM FEW250
KZZV,KZZV 241720Z 2418/2518 15003KT P6SM SKC FM250100 00000KT P6SM BKN250 FM251600 17004KT P6SM BKN250
LATI,TAF LATI 241700Z 2418/2518 VRB05KT CAVOK TX28/2513Z TN11/2504Z
LBBG,TAF LBBG 241700Z 2418/2518 06010KT CAVOK BECMG 2420/2422 VRB04KT TEMPO 2501/2505 3000 BR SCT007
LBGO,TAF LBGO 241700Z 2418/2518 VRB04KT CAVOK TEMPO 2501/2506 3000 BR SCT005 PROB30 2502/2505 0600 BCFG SCT002 BECMG 2510/2512 30010KT SCT060
LBPD,TAF LBPD 241700Z 2418/2518 VRB04KT CAVOK TEMPO 2502/2505 5000 BR
LBSF,TAF LBSF 241700Z 2418/2518 VRB04KT CAVOK TEMPO 2502/2505 3000 BR SCT010 BECMG 2511/2512 29010KT BECMG 2517/2518 VRB04KT
LBWN,TAF LBWN 241700Z 2418/2518 VRB04KT CAVOK BECMG 2423/2501 3000 BR SCT015 PROB40 TEMPO 2502/2505 0500 BCFG SCT003 BKN010 BECMG 2506/2508 CAVOK
LCEN,TAF LCEN 241640Z 2418/2518 29012KT CAVOK
LCLK,TAF LCLK 241730Z 2418/2518 33008KT 9999 FEW030 BECMG 2507/2510 03013KT BECMG 2516/2518 33008KT
LCPH,TAF LCPH 241730Z 2418/2518 02007KT 9999 FEW030 BECMG 2507/2511 30010KT BECMG 2516/2518 02007KT
LDDU,TAF LDDU 241725Z 2418/2518 09006KT CAVOK TX23/2512Z TN14/2505Z PROB40 2511/2518 29008KT
LDOS,TAF LDOS 241725Z 2418/2518 32005KT CAVOK TX22/2512Z TN11/2504Z PROB40 2422/2504 29008KT PROB30 TEMPO 2504/2507 4000 BR PROB30 TEMPO 2513/2518 02012KT RA
LDPL,TAF LDPL 241725Z 2418/2518 13006KT 9999 SCT010 TX21/2513Z TN17/2422Z PROB40 TEMPO 2418/2509 BKN008 PROB30 TEMPO 2509/2513 BKN010 FEW020CB
LDRI,TAF LDRI 241725Z 2418/2518 14006KT 9999 FEW015 BKN035 TX21/2512Z TN17/2422Z PROB30 TEMPO 2508/2513 TSRA SCT010 FEW020CB BKN030
LDSB,TAF LDSB 241211Z 2413/2512 14009KT CAVOK TX23/2414Z TN16/2504Z
LDSP,TAF LDSP 241725Z 2418/2518 35005KT CAVOK TX23/2512Z TN15/2505Z PROB30 TEMPO 2512/2515 22008KT
LDZA,TAF LDZA 241725Z 2418/2518 24007KT 9999 SCT030 TX21/2511Z TN13/2517Z BECMG 2507/2510 04008KT PROB30 TEMPO 2508/2512 SHRA SCT015 FEW055TCU PROB30 TEMPO 2512/2516 RA BECMG 2514/2516 05004KT PROB30 TEMPO 2517/2518 4000 BR BKN008
LDZD,TAF LDZD 241725Z 2418/2518 13006KT 9999 FEW010 TX23/2512Z TN13/2503Z PROB30 TEMPO 2419/2505 3000 BR
LEAB,TAF LEAB 241700Z 2418/2518 VRB05KT CAVOK TX27/2515Z TN11/2506Z BECMG 2502/2503 12006KT BECMG 2510/2511 24012KT PROB40 TEMPO 2513/2518 24015G26KT
LEAG,TAF LEAG 241400Z 2415/2515 09006KT 9999 FEW020 TX26/2513Z TN17/2507Z PROB30 TEMPO 2420/2509 4000 BR BKN010
LEAL,TAF LEAL 241700Z 2418/2518 VRB03KT 9999 FEW020 TX29/2512Z TN18/2505Z PROB40 TEMPO 2418/2424 3000 BR
LEAM,TAF LEAM 241700Z 2418/2518 VRB02KT 9999 FEW015 TX28/2513Z TN19/2507Z PROB30 TEMPO 2421/2507 3000 BR BKN005 PROB30 TEMPO 2511/2516 20010KT 2000 BR BKN003
LEAO,TAF LEAO 241400Z 2415/2515 VRB05KT 9999 FEW040 TX26/2515Z TN10/2506Z TEMPO 2422/2506 15008KT BECMG 2509/2510 24012KT PROB40 TEMPO 2512/2515 24015G27KT
LEAS,TAF LEAS 241400Z 2415/2515 23008KT 9999 FEW030 TX23/2514Z TN13/2506Z PROB30 TEMPO 2415/2416 03010KT PROB40 TEMPO 2511/2515 23015G25KT
LEBA,TAF LEBA 241400Z 2415/2515 VRB02KT CAVOK TX28/2515Z TN13/2507Z
LEBB,TAF LEBB 241700Z 2418/2518 14008KT 9999 FEW030 TX28/2513Z TN16/2506Z TEMPO 2511/2518 22015G28KT
LEBG,TAF LEBG 241400Z 2415/2515 20012KT 9999 SCT025 BKN030 TX21/2515Z TN09/2506Z PROB40 TEMPO 2415/2417 20015G25KT BECMG 2509/2510 22025KT PROB40 TEMPO 2510/2515 22024G43KT PROB30 TEMPO 2512/2515 RADZ BKN012
LEBL,TAF LEBL 241700Z 2418/2518 22010KT 9999 FEW020 TX25/2512Z TN17/2505Z TEMPO 2420/2422 VRB04KT BECMG 2422/2424 33008KT PROB40 TEMPO 2506/2508 33015G25KT BECMG 2510/2512 14007KT TEMPO 2514/2518 18007KT
LEBR,TAF LEBR 241400Z 2415/2515 20009KT CAVOK TX26/2514Z TN16/2507Z PROB30 TEMPO 2415/2417 20015G25KT BECMG 2420/2423 11010KT TEMPO 2504/2515 13015G28KT
LEBZ,TAF LEBZ 241400Z 2415/2515 08004KT 9999 FEW040 TX25/2515Z TN14/2507Z
LECO,TAF LECO 241400Z 2415/2515 20009KT 9999 SCT035 TX19/2514Z TN13/2505Z TEMPO 2415/2420 3000 RA BKN010 TEMPO 2415/2420 SCT030TCU TEMPO 2500/2515 RA PROB30 TEMPO 2500/2515 3000 RA BKN010 PROB40 TEMPO 2418/2508 14010KT TEMPO 2508/2515 17015G28KT
LECV,TAF LECV 241700Z 2418/2518 34007KT 9999 SCT030 TX19/2515Z TN10/2506Z BECMG 2419/2420 02006KT BECMG 2509/2510 24010KT PROB40 TEMPO 2513/2518 24012G25KT
LEEC,TAF LEEC 240800Z 2409/2509 03005KT CAVOK TX27/2415Z TN15/2507Z
LEGA,TAF LEGA 241100Z 2412/2512 18012KT CAVOK TX30/2414Z TN20/2507Z BECMG 2420/2422 VRB02KT BECMG 2509/2511 18012KT
LEGE,TAF LEGE 241700Z 2418/2518 VRB03KT 9999 FEW020 TX27/2513Z TN15/2505Z PROB40 TEMPO 2418/2422 4000 BR BECMG 2510/2512 18010KT
LEGR,TAF LEGR 241700Z 2418/2518 22010KT CAVOK TX33/2515Z TN17/2507Z BECMG 2418/2420 VRB02KT BECMG 2510/2512 19010KT
LEGT,TAF LEGT 241700Z 2418/2518 34006KT 9999 SCT025 TX24/2515Z TN12/2506Z BECMG 2419/2420 02006KT BECMG 2509/2510 24010KT PROB40 TEMPO 2513/2518 24012G23KT
LEHC,TAF AMD LEHC 241557Z 2415/2515 34005KT 9999 FEW050 TX24/2513Z TN15/2505Z BECMG 2417/2420 06010KT BECMG 2508/2511 12010KT
LEIB,TAF LEIB 241400Z 2415/2515 22010KT 9999 FEW010 TX26/2512Z TN17/2505Z BECMG 2419/2422 VRB03KT PROB40 TEMPO 2418/2506 2000 BR
LEJR,TAF LEJR 241400Z 2415/2515 22004KT CAVOK TX31/2514Z TN15/2507Z PROB30 TEMPO 2504/2509 3000 BR BKN010
LELC,TAF LELC 241700Z 2418/2518 21010KT CAVOK TX27/2513Z TN16/2507Z BECMG 2420/2422 34004KT BECMG 2510/2512 13010KT
LELL,TAF LELL 241400Z 2415/2515 29010KT 9999 FEW020 TX26/2513Z TN15/2505Z BECMG 2415/2418 VRB03KT
LELN,TAF LELN 241400Z 2415/2515 21012KT 9999 BKN020 TX17/2515Z TN06/2506Z PROB40 TEMPO 2415/2418 3000 DZRA BR BCFG BKN007 TEMPO 2421/2506 15009KT BKN005 BECMG 2508/2509 20020KT TEMPO 2509/2515 3000 RADZ BKN008 BKN012 PROB40 TEMPO 2510/2515 20024G35KT
LELO,TAF LELO 241400Z 2415/2515 VRB05KT 9999 FEW040 SCT050 TX27/2515Z TN11/2506Z BECMG 2500/2502 12010KT PROB40 TEMPO 2510/2515 12015G25KT
LEMD,TAF LEMD 241700Z 2418/2524 34006KT 9999 SCT040 TX24/2515Z TN13/2506Z BECMG 2419/2420 02006KT BECMG 2509/2510 24010KT PROB40 TEMPO 2513/2518 24012G23KT BECMG 2518/2519 VRB05KT
LEMG,TAF LEMG 241700Z 2418/2518 13008KT CAVOK TX27/2513Z TN19/2507Z BECMG 2419/2421 VRB02KT BECMG 2423/2501 29006KT PROB30 TEMPO 2420/2506 4000 BR BKN006 BECMG 2509/2511 13006KT
LEMH,TAF LEMH 241400Z 2415/2515 23010KT 9999 FEW010 TX26/2512Z TN19/2505Z PROB40 TEMPO 2418/2508 3000 BR BECMG 2506/2509 17005KT
LEMO,TAF LEMO 241400Z 2415/2515 06004KT CAVOK TX30/2515Z TN15/2506Z
LEPA,TAF LEPA 241700Z 2418/2518 VRB04KT 9999 FEW020 TX31/2512Z TN15/2505Z PROB40 TEMPO 2422/2507 3000 BR BKN010 BECMG 2511/2513 22008KT BECMG 2516/2518 VRB04KT
LEPP,TAF LEPP 241400Z 2415/2515 19009KT CAVOK TX25/2514Z TN13/2504Z PROB30 TEMPO 2415/2417 18015G25KT TEMPO 2507/2515 18015G25KT TEMPO 2512/2515 18025G40KT
LERI,TAF LERI 241700Z 2418/2518 VRB02KT CAVOK TX31/2514Z TN15/2507Z
LERL,TAF LERL 241400Z 2415/2515 25006KT 9999 FEW040 TX26/2515Z TN11/2506Z TEMPO 2422/2506 15008KT BECMG 2509/2510 24012KT PROB40 TEMPO 2512/2515 24015G27KT
LERS,TAF LERS 241400Z 2415/2515 VRB03KT 9999 FEW020 TX26/2512Z TN15/2505Z TEMPO 2415/2416 22010KT BECMG 2508/2511 14010KT
LERT,TAF LERT 241400Z 2415/2515 28004KT CAVOK TX26/2513Z TN18/2507Z PROB30 TEMPO 2503/2509 3000 BR BKN006
LESA,TAF LESA 241400Z 2415/2515 23012KT 9999 SCT050 TX20/2515Z TN10/2506Z PROB40 TEMPO 2415/2418 4000 DZRA BR BKN009 BKN014 PROB40 TEMPO 2506/2515 3000 RADZ BKN008 BKN012 BECMG 2509/2510 20020KT PROB40 TEMPO 2509/2515 20024G35KT PROB30 TEMPO 2512/2515 FEW030CB
LESO,TAF LESO 241700Z 2418/2518 17005KT CAVOK TX28/2514Z TN17/2505Z PROB40 TEMPO 2505/2517 17015G28KT
LEST,TAF LEST 241700Z 2418/2518 18009KT 9999 SCT015 BKN025 TX16/2512Z TN12/2504Z PROB40 TEMPO 2418/2518 3000 RA BR BKN005 BKN010 PROB40 TEMPO 2422/2509 0800 BCFG BKN002 BKN005 TEMPO 2508/2518 19018G29KT
LESU,TAF LESU 241400Z 2415/2515 VRB02KT 9999 SCT050 TX24/2513Z TN10/2505Z
LETO,TAF LETO 241700Z 2418/2518 VRB05KT 9999 SCT040 TX24/2515Z TN12/2506Z BECMG 2419/2420 02006KT BECMG 2509/2510 24010KT PROB40 TEMPO 2513/2518 24012G23KT
LEVC,TAF LEVC 241700Z 2418/2518 VRB03KT 9999 FEW020 TX27/2513Z TN16/2505Z
LEVD,TAF LEVD 241400Z 2415/2515 22012KT 9999 BKN030 TX20/2515Z TN09/2506Z PROB30 TEMPO 2509/2515 4000 DZRA BR BKN008 BKN014 BECMG 2509/2510 24020KT PROB40 TEMPO 2510/2515 24022G35KT PROB30 TEMPO 2512/2515 FEW030CB
LEVS,TAF LEVS 241700Z 2418/2518 VRB05KT 9999 SCT025 TX23/2515Z TN12/2506Z BECMG 2419/2420 02006KT BECMG 2509/2510 24010KT PROB40 TEMPO 2513/2518 24012G23KT
LEVT,TAF LEVT 241700Z 2418/2518 21009KT 9999 FEW050 TX26/2514Z TN13/2506Z TEMPO 2510/2518 22015G25KT PROB40 TEMPO 2514/2517 22020G35KT
LEVX,TAF LEVX 241700Z 2418/2518 18009KT 9999 SCT010 BKN020 TX18/2514Z TN14/2506Z TEMPO 2418/2518 3000 RA BR BKN005 BKN010 PROB40 TEMPO 2421/2512 0800 BCFG BKN002 BKN005 PROB40 TEMPO 2506/2512 3000 TS SHRA BKN010 SCT030TCU SCT035CB TEMPO 2505/2518 18018G28KT
LEXJ,TAF LEXJ 241400Z 2415/2515 21009KT CAVOK TX26/2512Z TN19/2505Z PROB30 TEMPO 2415/2419 05010KT PROB40 TEMPO 2420/2508 22015G25KT TEMPO 2511/2515 22015G25KT
LEZG,TAF LEZG 241700Z 2418/2518 32010KT 9999 FEW070 TX28/2513Z TN16/2505Z BECMG 2418/2421 VRB03KT BECMG 2503/2505 11010KT TEMPO 2513/2518 11015G25KT
LEZL,TAF LEZL 241400Z 2415/2515 06005KT CAVOK TX28/2515Z TN15/2507Z PROB30 TEMPO 2504/2510 4000 BR BKN010
LFAQ,TAF LFAQ 241400Z 2415/2424 22012KT 9999 FEW030 PROB40 TEMPO 2415/2418 22015G25KT 3000 SHRA SCT016 BKN025CB BKN035 PROB30 TEMPO 2415/2418 1200 TSGR
LFAT,TAF AMD LFAT 241423Z 2415/2424 22005KT 9999 BKN025 TEMPO 2415/2421 22017G27KT 2000 SHRA SCT016 BKN020CB BKN030 PROB40 2415/2417 1200 TSGR
LFBA,TAF LFBA 241400Z 2415/2424 27010KT CAVOK TEMPO 2415/2417 FEW040TCU BECMG 2417/2419 VRB03KT
LFBC,TAF LFBC 241400Z 2415/2515 24012KT CAVOK BECMG 2509/2511 14012KT
LFBD,TAF LFBD 241700Z 2418/2524 26005KT CAVOK TX26/2514Z TN12/2505Z BECMG 2419/2421 11007KT PROB40 TEMPO 2510/2516 15012KT BKN090TCU BECMG 2516/2518 24005KT
LFBE,TAF LFBE 241100Z 2412/2512 29005KT CAVOK BECMG 2419/2421 06005KT BECMG 2508/2510 16013KT
LFBG,TAF LFBG 241400Z 2415/2515 26012KT CAVOK BECMG 2418/2420 20004KT BECMG 2508/2510 13010KT
LFBH,TAF LFBH 241700Z 2418/2518 24016KT 9999 FEW020 BKN080 BECMG 2421/2423 20006KT TEMPO 2502/2506 4500 BR PROB30 TEMPO 2502/2505 0600 FG VV/// BECMG 2505/2507 12010KT CAVOK TEMPO 2516/2518 SHRA SCT060TCU
LFBI,TAF LFBI 241700Z 2418/2518 24012KT 9999 FEW035 SCT045 BKN050 BECMG 2500/2502 17004KT TEMPO 2502/2506 4500 BR PROB30 TEMPO 2502/2505 0400 FG VV/// BECMG 2508/2510 CAVOK TEMPO 2517/2518 SHRA SCT075TCU
LFBL,TAF LFBL 241700Z 2418/2518 25005KT CAVOK BECMG 2504/2506 07010KT TEMPO 2509/2518 14015KT -SHRA BKN060TCU
LFBM,TAF LFBM 241400Z 2415/2515 27010G20KT CAVOK BECMG 2417/2419 09005KT
LFBO,TAF LFBO 241700Z 2418/2524 VRB03KT CAVOK BECMG 2506/2508 14012KT TEMPO 2510/2520 14015G25KT
LFBP,TAF LFBP 241700Z 2418/2518 VRB03KT CAVOK BECMG 2507/2509 12008KT BECMG 2513/2515 24013KT
LFBT,TAF LFBT 241700Z 2418/2518 VRB04KT CAVOK TEMPO 2510/2518 20012KT
LFBU,TAF LFBU 241700Z 2418/2518 26006KT CAVOK BECMG 2503/2505 12010KT PROB40 TEMPO 2515/2518 4500 SHRA SCT070TCU
LFBZ,TAF LFBZ 241700Z 2418/2518 VRB03KT CAVOK TEMPO 2509/2511 07015G30KT TEMPO 2515/2517 20015G40KT -SHRA SCT070TCU
LFCK,TAF LFCK 241700Z 2418/2503 VRB03KT CAVOK BECMG 2500/2502 12010KT
LFCR,TAF LFCR 241700Z 2418/2518 VRB03KT CAVOK BECMG 2508/2510 14010KT
LFGJ,TAF LFGJ 241400Z 2415/2424 21010KT 9999 FEW040 BKN090 TEMPO 2415/2419 FEW035CB PROB40 TEMPO 2415/2419 4000 SHRA SCT030CB PROB30 TEMPO 2415/2419 VRB15G25KT TSRA
LFJL,TAF LFJL 241700Z 2418/2518 22010KT 9999 FEW040 SCT050 PROB40 TEMPO 2418/2421 4000 SHRA SCT030CB PROB40 TEMPO 2418/2420 24015G25KT TSRA PROB40 TEMPO 2505/2510 BKN008 BECMG 2513/2516 12005KT
LFKB,TAF LFKB 241400Z 2415/2515 06005KT 9999 BKN017 TX24/2512Z TN17/2505Z BECMG 2417/2419 24004KT PROB30 TEMPO 2422/2508 4000 BR BKN009 BECMG 2507/2509 09005KT
LFKC,TAF LFKC 241400Z 2415/2515 22010KT CAVOK TX27/2512Z TN16/2505Z TEMPO 2415/2418 21017G27KT BECMG 2419/2421 19006KT BECMG 2508/2509 22010KT
LFKF,TAF LFKF 241400Z 2415/2515 24007KT CAVOK BECMG 2418/2420 04005KT BECMG 2508/2509 24010KT
LFKJ,TAF LFKJ 241400Z 2415/2515 24005KT CAVOK BECMG 2418/2420 06004KT BECMG 2509/2510 24007KT
LFKS,TAF LFKS 241400Z 2415/2515 01006KT CAVOK TEMPO 2504/2506 BKN014
LFLB,TAF AMD LFLB 241620Z 2416/2515 18008KT 9999 BKN060 PROB40 TEMPO 2416/2419 VRB15G25KT 2000 TSRA BKN035CB PROB30 TEMPO 2419/2424 BKN050 FEW060CB BECMG 2500/2502 VRB02KT PROB40 TEMPO 2502/2509 3000 BR
LFLC,TAF LFLC 241700Z 2418/2518 22007KT CAVOK PROB30 TEMPO 2418/2420 -SHRA FEW045CB SCT050TCU
LFLL,TAF LFLL 241700Z 2418/2524 14004KT CAVOK TEMPO 2500/2509 3000 BR PROB40 TEMPO 2501/2509 0400 FG VV/// BECMG 2512/2514 16010KT TEMPO 2520/2524 17020G30KT
LFLN,TAF LFLN 241700Z 2418/2503 VRB04KT CAVOK PROB30 TEMPO 2418/2419 FEW050TCU
LFLP,TAF AMD LFLP 241622Z 2416/2515 VRB05KT 9999 BKN070 PROB40 TEMPO 2416/2420 VRB15G25KT 3000 TSRA BKN040CB PROB30 TEMPO 2420/2424 SCT060CB PROB40 TEMPO 2502/2508 3000 BR
LFLS,TAF AMD LFLS 241612Z 2416/2515 VRB03KT CAVOK PROB40 TEMPO 2416/2418 SCT040CB PROB40 TEMPO 2422/2507 3000 BR
LFLW,TAF LFLW 241400Z 2415/2424 30007KT 9999 SCT050 BECMG 2416/2418 VRB02KT
LFLX,TAF LFLX 241700Z 2418/2524 21007KT 9999 SCT030 PROB40 TEMPO 2502/2508 3000 BR PROB30 TEMPO 2504/2507 0500 FG VV/// BECMG 2511/2514 11010KT TEMPO 2520/2523 20015G25KT 4000 SHRA SCT070CB PROB30 TEMPO 2520/2522 22020G40KT 2000 TSRA
LFLY,TAF LFLY 241700Z 2418/2518 VRB02KT CAVOK TEMPO 2501/2509 3000 BR PROB40 TEMPO 2503/2509 0500 FG VV/// BECMG 2512/2514 17010KT
LFMD,TAF LFMD 241400Z 2415/2515 VRB03KT 9999 FEW008 BKN155 TEMPO 2415/2503 BKN008 TEMPO 2512/2515 18010KT PROB30 2514/2515 BKN008
LFMI,TAF LFMI 241400Z 2415/2515 15010KT 9999 FEW020 TX26/2512Z TN15/2504Z BECMG 2417/2419 VRB03KT TEMPO 2420/2502 BKN008 BECMG 2511/2513 18010KT CAVOK
LFMK,TAF LFMK 241400Z 2415/2515 VRB03KT CAVOK BECMG 2502/2504 09010KT BKN010 PROB30 TEMPO 2502/2505 4000 BR OVC005 BECMG 2508/2510 09018KT BKN020 BECMG 2511/2513 SCT025
LFML,TAF LFML 241400Z 2415/2521 14012KT 9999 FEW020 TX26/2512Z TN17/2505Z BECMG 2418/2420 VRB03KT TEMPO 2420/2501 FEW008 BKN014 BECMG 2511/2513 17010KT CAVOK
LFMN,TAF AMD LFMN 241800Z 2418/2521 VRB03KT 9999 FEW020 BKN240 PROB40 TEMPO 2418/2421 3000 BR BECMG 2419/2421 34010KT BECMG 2509/2511 14006KT TEMPO 2514/2521 BKN009
LFMO,TAF LFMO 241400Z 2415/2515 18008KT CAVOK TX24/2514Z TN13/2505Z TEMPO 2415/2418 FEW030TCU PROB30 TEMPO 2502/2506 4000 BR
LFMP,TAF LFMP 241400Z 2415/2515 05010KT CAVOK BECMG 2417/2419 24005KT PROB30 TEMPO 2423/2509 4000 BR BKN004 BECMG 2505/2507 05010KT TEMPO 2509/2510 BKN010
LFMT,TAF LFMT 241400Z 2415/2515 14012KT 9999 FEW020 BECMG 2419/2421 02004KT PROB30 TEMPO 2422/2507 4000 BR BKN004 BECMG 2511/2512 14010KT TEMPO 2513/2515 BKN010
LFMU,TAF LFMU 241400Z 2415/2515 04007KT 9999 FEW030 PROB30 TEMPO 2500/2507 4000 BR BKN004 BKN130 TEMPO 2507/2509 BKN014 BECMG 2509/2511 14010KT 
LFMV,TAF LFMV 241400Z 2415/2515 16010KT 9999 FEW020 BECMG 2418/2420 VRB03KT PROB30 TEMPO 2422/2504 BKN008
LFMY,TAF LFMY 241400Z 2415/2515 17010KT CAVOK TX26/2513Z TN15/2504Z BECMG 2415/2417 09005KT BKN012 TEMPO 2418/2502 SCT012
LFOA,TAF LFOA 241400Z 2415/2515 25015KT 9999 FEW045 TX20/2415Z TN09/2506Z TEMPO 2415/2418 22015G30KT 4000 SHRA BKN030CB PROB40 TEMPO 2415/2417 27020G40KT 2000 TSRA SCT010 BKN030CB BECMG 2422/2424 19007KT TEMPO 2500/2508 3000 BR PROB30 TEMPO 2504/2507 0800 FG BECMG 2511/2513 12010KT
LFOB,TAF LFOB 241700Z 2418/2518 22012KT 9999 SCT025 PROB30 TEMPO 2418/2423 2000 SHRA BKN013CB PROB40 2505/2510 BKN007 BECMG 2513/2516 13008KT
LFOE,TAF LFOE 241400Z 2415/2515 21015G25KT 9999 BKN025 TEMPO 2415/2418 4000 SHRA SCT015 BKN020CB PROB40 TEMPO 2415/2417 3000 TSRAGS BECMG 2418/2421 22010G20KT TEMPO 2503/2507 BKN010 BECMG 2509/2512 16010KT
LFOH,TAF AMD LFOH 241533Z 2415/2512 22017KT 9999 BKN030 TEMPO 2415/2419 22015G25KT 3000 SHRA SCT016 BKN020CB BKN030 PROB40 TEMPO 2415/2417 1200 TSGR PROB40 TEMPO 2419/2423 2000 SHRA SCT012 BKN016CB BKN020 TEMPO 2423/2506 BKN009 BKN014
LFOJ,TAF LFOJ 241400Z 2415/2515 22012KT CAVOK TX21/2515Z TN14/2505Z TEMPO 2415/2418 21015G25KT 4000 SHRA SCT030CB PROB30 TEMPO 2415/2417 2000 TSRA SCT025CB BECMG 2423/2501 SCT012 SCT025 PROB30 TEMPO 2504/2508 3000 BR BKN007 BECMG 2508/2510 12008KT BECMG 2510/2512 CAVOK
LFOK,TAF LFOK 241700Z 2418/2518 22012KT 9999 SCT030 PROB30 TEMPO 2418/2420 20017G27KT 3000 SHRA BKN030CB PROB30 TEMPO 2505/2510 BKN007 BECMG 2512/2515 12007KT
LFOP,TAF LFOP 241700Z 2418/2518 22015KT 9999 SCT025 TEMPO 2418/2420 22015G25KT 2000 SHRA BKN013CB PROB30 TEMPO 2418/2420 1200 TSGR TEMPO 2423/2510 BKN013
LFOT,TAF LFOT 241700Z 2418/2518 21008KT 9999 SCT040 PROB40 TEMPO 2422/2503 BKN014 TEMPO 2503/2510 3000 BR BKN004 PROB40 TEMPO 2504/2508 0500 FG VV/// BECMG 2510/2512 12010KT
LFPB,TAF LFPB 241700Z 2418/2518 23015KT 9999 SCT025 PROB40 TEMPO 2418/2419 SCT030CB PROB30 TEMPO 2501/2505 BKN013 PROB40 TEMPO 2505/2508 4000 BR BKN006 BECMG 2511/2513 17005KT
LFPG,TAF LFPG 241700Z 2418/2524 23015KT 9999 SCT025 TX19/2514Z TN12/2506Z PROB40 TEMPO 2418/2419 SCT030CB PROB30 TEMPO 2501/2505 BKN013 PROB40 TEMPO 2505/2508 4000 BR BKN006 BECMG 2511/2513 17005KT
LFPN,TAF LFPN 241700Z 2418/2503 23010KT 9999 SCT030 PROB30 TEMPO 2421/2503 BKN013
LFPO,TAF LFPO 241700Z 2418/2524 22015G25KT 9999 SCT030TCU BECMG 2419/2421 23010KT SCT025 PROB30 TEMPO 2502/2508 BKN008 BECMG 2510/2512 16006KT PROB30 TEMPO 2519/2522 -SHRA SCT070TCU
LFPV,TAF LFPV 241400Z 2415/2515 22010KT 9999 FEW020 SCT150 OVC200 TX18/2415Z TN13/2506Z TEMPO 2415/2418 22015G25KT 4500 -SHRA SCT015 BKN030CB BECMG 2500/2504 BKN014 BECMG 2504/2508 SCT025
LFQQ,TAF LFQQ 241700Z 2418/2524 22012KT 9999 SCT025 TEMPO 2418/2502 22017G27KT 2000 SHRA BKN013CB PROB30 TEMPO 2418/2424 1200 TSRAGS TEMPO 2503/2511 BKN013 BECMG 2514/2516 13007KT
LFRB,TAF AMD LFRB 241924Z 2419/2524 18010KT 9999 BKN018 PROB40 TEMPO 2419/2422 4000 SHRA BKN009 BKN015TCU PROB40 TEMPO 2500/2508 -RA BKN008 TEMPO 2508/2511 4000 RA BKN008 BECMG 2512/2514 17015G25KT PROB30 TEMPO 2516/2520 -RA BKN012 TEMPO 2520/2524 4000 RA BKN008
LFRC,TAF LFRC 241400Z 2415/2424 23015G25KT 9999 SCT020 TEMPO 2415/2418 23015G30KT 3000 SHRA BKN010 BKN020CB TEMPO 2418/2423 4000 SHRA BKN012TCU BECMG 2420/2423 22012KT
LFRD,TAF LFRD 241700Z 2418/2518 20012KT 9999 BKN020 TEMPO 2500/2508 3000 BR BKN005 BECMG 2510/2512 15010KT PROB30 TEMPO 2514/2518 15015G25KT
LFRG,TAF LFRG 241400Z 2415/2424 22015G25KT 9999 SCT020 TEMPO 2415/2418 22015G30KT TEMPO 2415/2421 3000 SHRA BKN012 BKN020CB PROB40 TEMPO 2415/2418 2000 TSRA BECMG 2418/2420 21010KT
LFRH,TAF LFRH 241700Z 2418/2518 23012G22KT 9999 BKN012 BKN020 TEMPO 2418/2421 SHRA BKN012 OVC020TCU BECMG 2422/2424 23010KT TEMPO 2504/2507 SHRA BKN008 OVC012 BECMG 2508/2510 13010G20KT CAVOK BECMG 2515/2517 -RA SCT020 OVC050
LFRI,TAF LFRI 241700Z 2418/2518 24014KT 9999 BKN025 BKN035 OVC040 BECMG 2420/2422 20004KT TEMPO 2503/2508 4500 BR PROB40 TEMPO 2503/2508 0400 FG VV/// BECMG 2508/2510 12010KT CAVOK TEMPO 2516/2518 SHRA SCT055TCU BECMG 2515/2517 18010KT
LFRK,TAF LFRK 241400Z 2415/2424 22015G25KT 9999 SCT020 TEMPO 2415/2418 22020G30KT TEMPO 2415/2421 3000 SHRA BKN012 BKN020CB PROB40 TEMPO 2415/2418 2000 TSRA BECMG 2418/2420 21010KT
LFRM,TAF LFRM 241700Z 2418/2518 20008KT 9999 FEW030 TEMPO 2418/2420 4000 SHRA BKN025CB TEMPO 2502/2510 4500 BR BKN004 BKN025 BECMG 2511/2513 12010KT CAVOK TEMPO 2516/2518 SHRA SCT065TCU
LFRN,TAF LFRN 241700Z 2418/2518 20010KT 9999 BKN020 BECMG 2500/2502 VRB05KT TEMPO 2500/2507 3000 BR BKN005 BECMG 2510/2512 12010KT
LFRQ,TAF LFRQ 241700Z 2418/2518 24012KT 9999 BKN020 PROB40 TEMPO 2418/2422 4000 SHRA BKN012TCU TEMPO 2500/2508 BKN005 TEMPO 2508/2510 BKN010 BECMG 2504/2506 18010KT BECMG 2510/2512 13015G25KT
LFRS,TAF AMD LFRS 241835Z 2418/2524 21012KT 9999 BKN020 BKN035 BKN055 TEMPO 2418/2421 4500 SHRA BKN030CB BECMG 2500/2502 15006KT TEMPO 2502/2508 4500 BR PROB30 TEMPO 2504/2507 0500 FG VV/// BECMG 2508/2510 CAVOK TEMPO 2514/2520 SHRA FEW065TCU BECMG 2516/2518 22010KT
LFRZ,TAF LFRZ 241700Z 2418/2518 25012KT 9999 BKN017 BKN025 OVC130 TEMPO 2418/2421 4500 SHRA BKN025CB BECMG 2502/2504 18008KT TEMPO 2504/2508 4500 BR BKN004 BKN014 BECMG 2508/2510 11010KT CAVOK BECMG 2512/2514 17010KT TEMPO 2514/2518 SHRA SCT045TCU
LFSB,TAF LFSB 241700Z 2418/2518 16005KT CAVOK PROB30 TEMPO 2418/2421 VRB10G20KT SHRA FEW050CB BKN080
LFSL,TAF LFSL 241400Z 2415/2424 24005KT CAVOK
LFSO,TAF LFSO 241400Z 2415/2515 22010KT 9999 BKN040 PROB30 TEMPO 2415/2419 23015G25KT -TSRA SCT050CB PROB30 TEMPO 2506/2510 BKN013
LFST,TAF LFST 241700Z 2418/2518 18007KT 9999 SCT050 BKN090 TEMPO 2418/2421 SHRA FEW045CB PROB40 TEMPO 2418/2420 VRB15G25KT 2000 TSRA SCT030CB
LFSX,TAF LFSX 241400Z 2415/2515 21010KT CAVOK TEMPO 2415/2421 4000 SHRA SCT050TCU PROB30 TEMPO 2415/2420 VRB10G20KT 2000 TSRA BKN030CB BECMG 2418/2420 12010KT PROB30 TEMPO 2503/2509 2000 BR SCT003
LFTH,TAF AMD LFTH 241933Z 2415/2515 VRB03KT 9999 SCT015 OVC250 TEMPO 2419/2421 3000 BR BKN004 BKN011 BECMG 2421/2422 BKN010 OVC140 TEMPO 2500/2504 5000 BECMG 2505/2506 35005KT CAVOK
LFTW,TAF LFTW 241400Z 2415/2515 16010KT 9999 FEW020 BECMG 2418/2420 VRB03KT PROB30 TEMPO 2421/2501 BKN008
LFVP,TAF LFVP 241700Z 2418/2503 VRB05KT CAVOK
LGAD,TAF LGAD 241700Z 2418/2503 VRB03KT 9999 FEW020 PROB40 TEMPO 2501/2503 3000 BR SCT008
LGAL,TAF LGAL 241700Z 2418/2503 VRB05KT 9999 FEW018 PROB30 2500/2503 5000 BR SCT006
LGAV,TAF LGAV 241700Z 2418/2518 VRB05KT 9999 FEW020
LGBL,TAF LGBL 241700Z 2418/2503 27008KT 9999 FEW025
LGEL,TAF LGEL 241700Z 2418/2518 VRB05KT 9999 FEW020 PROB30 2500/2505 5000 BR SCT008 BECMG 2510/2512 16010KT
LGHI,TAF LGHI 241700Z 2418/2503 01012KT 9999 FEW020
LGIO,TAF LGIO 241700Z 2418/2503 VRB03KT 9999 FEW025
LGIR,TAF LGIR 241700Z 2418/2518 33010KT 9999 FEW020 TEMPO 2421/2504 18010KT
LGKC,TAF LGKC 241700Z 2418/2503 30008KT 9999 FEW015 PROB30 2422/2503 5000 BR SCT008
LGKF,TAF LGKF 241700Z 2418/2503 32007KT 9999 FEW016 PROB30 2422/2503 5000 BR SCT008
LGKL,TAF LGKL 241700Z 2418/2503 VRB03KT 9999 FEW025
LGKO,TAF LGKO 241700Z 2418/2518 35014KT 9999 FEW020 TEMPO 2421/2423 34014G24KT
LGKP,TAF LGKP 241700Z 2418/2503 32018KT 9999 FEW018
LGKR,TAF LGKR 241700Z 2418/2518 VRB05KT 9999 FEW020 PROB40 2421/2506 4000 BR SCT008
LGKV,TAF LGKV 241700Z 2418/2518 VRB03KT 9999 FEW008 BECMG 2500/2502 SCT010 PROB40 2500/2508 3000 BR SCT008 PROB30 2502/2507 0300 FG BKN002 BECMG 2508/2510 FEW030
LGLM,TAF LGLM 241700Z 2418/2503 VRB03KT 9999 FEW020 PROB40 TEMPO 2501/2503 3000 BR SCT008 PROB40 TEMPO 2502/2503 0500 FG BKN006
LGLR,TAF LGLR 241700Z 2418/2503 VRB03KT 9999 FEW025
LGMK,TAF LGMK 241700Z 2418/2503 01015KT 9999 FEW016
LGMT,TAF LGMT 241700Z 2418/2503 35008KT 9999 FEW020
LGPZ,TAF LGPZ 241700Z 2418/2518 VRB05KT 9999 FEW020 PROB40 2421/2506 3000 BR SCT006
LGRP,TAF LGRP 241700Z 2418/2518 VRB05KT 9999 FEW020
LGRX,TAF LGRX 241700Z 2418/2503 VRB03KT 9999 FEW020 PROB40 TEMPO 2501/2503 3000 BR SCT008 PROB40 TEMPO 2502/2503 0500 FG BKN006
LGSA,TAF LGSA 241700Z 2418/2518 VRB05KT 9999 FEW020 PROB30 2500/2505 5000 BR SCT006
LGSK,TAF LGSK 241700Z 2418/2503 VRB03KT 9000 FEW018 PROB40 2420/2503 5000 BR SCT006
LGSM,TAF LGSM 241700Z 2418/2503 34012KT 9999 FEW020 TEMPO 2418/2421 36012G22KT
LGSR,TAF LGSR 241700Z 2418/2518 35015KT 9999 FEW020
LGST,TAF LGST 241700Z 2418/2503 29015KT 9999 FEW025 TEMPO 2418/2421 29015G25KT
LGSY,TAF LGSY 241700Z 2418/2503 VRB03KT 9999 FEW020 PROB40 TEMPO 2501/2503 3000 BR SCT008 PROB40 TEMPO 2502/2503 0500 FG BKN006
LGTG,TAF LGTG 241700Z 2418/2503 VRB03KT 9999 FEW025
LGTL,TAF LGTL 241700Z 2418/2503 01008KT 9999 FEW020
LGTS,TAF LGTS 241700Z 2418/2518 VRB03KT 9999 FEW030 BECMG 2500/2502 FEW008 SCT025 PROB40 2500/2506 5000 BR SCT008 SCT025 PROB30 2502/2506 0500 FG BKN002 BECMG 2507/2509 FEW030
LGZA,TAF LGZA 241700Z 2418/2503 VRB05KT 9999 FEW016 PROB40 2422/2503 4000 BR SCT008
LHBP,TAF LHBP 241715Z 2418/2518 VRB03KT 7000 BKN015 TEMPO 2419/2502 2000 SHRA BR BKN007 SCT020CB BKN030 BECMG 2501/2504 33004KT TEMPO 2502/2507 2000 BR OVC004 BECMG 2507/2509 29008KT 9999 SCT010 BECMG 2509/2511 FEW025 BECMG 2513/2515 CAVOK
LHDC,TAF LHDC 241715Z 2418/2503 VRB03KT CAVOK BECMG 2418/2421 SCT040 BKN080 PROB40 TEMPO 2422/2503 4000 RA SHRA BKN015 OVC070
LHKE,TAF LHKE 241715Z 2418/2503 33005KT 3000 BR NSC BECMG 2418/2421 04005KT 1500 BR MIFG NSC PROB30 2420/2423 0300 FG OVC002
LHPA,TAF LHPA 241715Z 2418/2518 VRB03KT 9999 SCT025 BKN200 TEMPO 2418/2423 1500 SHRA RA BR BKN002 BKN030TCU OVC083 BECMG 2423/2501 0600 FG BKN002 PROB40 TEMPO 2501/2507 0150 FG -DZ VV001 BECMG 2509/2512 31007KT 9999 NSW SCT010 SCT083 BECMG 2512/2515 23005KT CAVOK
LHPP,TAF LHPP 241415Z 2415/2424 26010KT CAVOK BECMG 2415/2418 24005KT
LHPR,TAF LHPR 241715Z 2418/2503 VRB03KT 6000 SCT030 BKN080 TEMPO 2418/2424 3000 -RA SHRA BKN015 OVC070 PROB40 TEMPO 2418/2424 2000 SHRA BKN010 BKN015CB TEMPO 2500/2503 1500 BCFG BKN005 OVC020
LHSM,TAF LHSM 241115Z 2412/2421 VRB03KT CAVOK BECMG 2413/2416 23007KT
LHSN,TAF LHSN 241715Z 2418/2503 VRB03KT 8000 SCT020 SCT200 BECMG 2418/2420 5000 BR NSC BECMG 2420/2422 2500 MIFG BR BECMG 2422/2424 0800 FG TEMPO 2423/2502 0350 FG BKN002 PROB30 TEMPO 2501/2503 29006KT 1500 -RA -SHRA BR BKN005 OVC020
LIBA,TAF LIBA 241700Z 2418/2503 21006KT CAVOK BECMG 2421/2423 VRB03KT 5000 BR SCT010
LIBC,TAF LIBC 240612Z 2406/2506 VRB05KT CAVOK BECMG 2410/2412 22012KT BECMG 2416/2418 VRB05KT
LIBD,TAF AMD LIBD 241831Z 2418/2518 VRB05KT CAVOK TEMPO 2418/2421 0600 FG BECMG 2419/2421 20010KT BECMG 2506/2508 VRB05KT
LIBF,TAF LIBF 241700Z 2418/2518 23010KT CAVOK BECMG 2418/2420 VRB05KT PROB40 TEMPO 2500/2506 2000 BR
LIBG,TAF LIBG 241400Z 2415/2424 VRB05KT CAVOK
LIBN,TAF LIBN 241700Z 2418/2503 20005KT CAVOK BECMG 2418/2420 4000 BR FEW005 BECMG 2420/2422 1500 BR SCT005 BECMG 2422/2500 0800 FG BKN002
LIBP,TAF LIBP 241700Z 2418/2518 VRB05KT CAVOK TEMPO 2418/2502 3000 BR
LIBR,TAF LIBR 241700Z 2418/2518 19010KT CAVOK BECMG 2418/2420 VRB05KT TEMPO 2420/2506 2000 BR
LIBV,TAF LIBV 241700Z 2418/2503 18010KT CAVOK TEMPO 2418/2421 5000 BR NSC BECMG 2419/2421 30008KT
LICA,TAF LICA 241700Z 2418/2518 VRB05KT 9999 SCT020 BECMG 2508/2510 26012KT BECMG 2516/2518 VRB05KT
LICB,TAF LICB 241700Z 2418/2518 VRB05KT CAVOK BECMG 2510/2512 26010KT BECMG 2515/2517 VRB04KT
LICC,TAF LICC 241700Z 2418/2518 26006KT CAVOK BECMG 2510/2512 10010KT BECMG 2516/2518 VRB04KT
LICD,TAF LICD 241700Z 2418/2518 23012KT CAVOK BECMG 2516/2518 VRB05KT
LICG,TAF LICG 241400Z 2415/2424 18016KT CAVOK
LICJ,TAF LICJ 241700Z 2418/2518 19006KT CAVOK BECMG 2510/2512 05010KT BECMG 2516/2518 VRB05KT
LICR,TAF LICR 241700Z 2418/2518 36015KT CAVOK TEMPO 2510/2515 36015G25KT
LICT,TAF LICT 241700Z 2418/2503 15010KT CAVOK
LICZ,TAF LICZ 241700Z 2418/2518 27013KT CAVOK TEMPO 2419/2503 VRB05KT
LIEA,TAF LIEA 241700Z 2418/2518 20013KT CAVOK
LIED,TAF LIED 241700Z 2418/2503 VRB05KT CAVOK
LIEE,TAF LIEE 241700Z 2418/2518 34005KT CAVOK TEMPO 2512/2517 16010KT
LIEO,TAF LIEO 241700Z 2418/2518 24008KT CAVOK BECMG 2510/2512 07010KT BECMG 2515/2517 VRB04KT
LIMC,TAF LIMC 241700Z 2418/2524 VRB05KT 3000 BR SCT020 BKN030 TEMPO 2418/2422 RA SCT010 BECMG 2508/2510 6000 BECMG 2516/2518 3000 BR
LIME,TAF LIME 241700Z 2418/2518 VRB05KT 8000 BKN030 TEMPO 2418/2503 4000 SHRA
LIMF,TAF LIMF 241700Z 2418/2518 VRB04KT 3000 BR SCT012 BKN025 BECMG 2508/2510 8000 SCT020
LIMJ,TAF LIMJ 241700Z 2418/2518 13012KT 9999 SCT025 TEMPO 2418/2506 4000 SHRA SCT010
LIML,TAF LIML 241700Z 2418/2518 VRB05KT 6000 BKN020 TEMPO 2418/2504 4000 RA BR
LIMN,TAF LIMN 241400Z 2415/2424 VRB03KT 6000 SCT010 SCT040 TEMPO 2415/2418 2500 BR
LIMP,TAF LIMP 241700Z 2418/2518 VRB05KT 3000 BR SCT015 PROB40 TEMPO 2500/2507 0800 FG BKN005 BECMG 2509/2511 7000
LIMS,TAF LIMS 241400Z 2415/2424 24010KT 9999 SCT040 BECMG 2419/2424 3000 SCT010
LIMW,TAF LIMW 241400Z 2415/2424 VRB05KT 8000 SCT040 BKN080 TEMPO 2415/2418 TSRA
LIPA,TAF LIPA 241400Z 2415/2424 21005KT 8000 SCT010 BKN025
LIPB,TAF LIPB 241700Z 2418/2518 VRB05KT 9999 BKN050 TEMPO 2418/2424 4000 SHRA
LIPC,TAF LIPC 241400Z 2415/2424 20005KT CAVOK
LIPE,TAF LIPE 241700Z 2418/2518 20012KT 6000 SCT020 BECMG 2508/2510 34007KT
LIPH,TAF LIPH 241700Z 2418/2518 VRB06KT 6000 BKN020 BECMG 2420/2422 3000 BR TEMPO 2500/2506 0300 FG OVC001 BECMG 2506/2508 6000
LIPI,TAF LIPI 241100Z 2412/2421 16010KT 8000 SCT020 BKN040 TEMPO 2415/2421 4000 RA BR SCT010 BKN020
LIPK,TAF LIPK 241700Z 2418/2518 VRB05KT CAVOK BECMG 2506/2508 26010KT
LIPL,TAF LIPL 241700Z 2418/2503 09005KT 6000 SCT070 BECMG 2422/2424 3500 BR SCT025
LIPO,TAF LIPO 241700Z 2418/2518 06010KT 8000 SCT020 BECMG 2420/2422 VRB05KT TEMPO 2500/2506 RA BECMG 2508/2510 26010KT BECMG 2516/2518 VRB05KT
LIPQ,TAF LIPQ 241700Z 2418/2518 16010KT 8000 BKN020 TEMPO 2500/2512 4000 TSRA BECMG 2504/2506 08012KT
LIPR,TAF LIPR 241700Z 2418/2518 19014KT CAVOK BECMG 2508/2510 VRB05KT
LIPS,TAF LIPS 241700Z 2418/2503 05004KT 5000 BR SCT030 SCT060 TEMPO 2418/2420 8000 SCT035 BKN070 TEMPO 2500/2503 RA BKN025
LIPX,TAF LIPX 241700Z 2418/2518 VRB05KT 8000 SCT060 TEMPO 2500/2506 RA BECMG 2509/2511 26010KT
LIPY,TAF LIPY 241700Z 2418/2518 17007KT CAVOK
LIPZ,TAF LIPZ 241700Z 2418/2524 18008KT 6000 SCT020 BECMG 2419/2421 2000 BR BKN010 TEMPO 2422/2506 0600 FG OVC002 BECMG 2506/2509 04010KT 6000 SCT030
LIQW,TAF LIQW 241100Z 2412/2421 15010KT 9999 BKN030
LIRA,TAF LIRA 241700Z 2418/2518 12006KT 9999 FEW030 BECMG 2509/2511 18010KT BECMG 2516/2518 VRB04KT
LIRE,TAF LIRE 241700Z 2418/2503 15006KT 9999 FEW015 SCT025 PROB40 TEMPO 2500/2503 5000 BR
LIRF,TAF LIRF 241700Z 2418/2524 11008KT 9999 SCT020 BECMG 2509/2511 17013KT BECMG 2518/2520 VRB05KT
LIRG,TAF LIRG 241400Z 2415/2424 18007KT 9999 FEW050
LIRH,TAF LIRH 241400Z 2415/2424 VRB03KT CAVOK BECMG 2419/2421 5000 BR FEW003
LIRL,TAF LIRL 241400Z 2415/2424 17008KT 9999 SCT030
LIRM,TAF LIRM 241700Z 2418/2503 VRB03KT 8000 SCT020 BECMG 2420/2422 4000 BR TEMPO 2423/2503 1200 MIFG BR SCT005
LIRN,TAF LIRN 241700Z 2418/2518 VRB05KT 9000 FEW020
LIRP,TAF LIRP 241700Z 2418/2518 17010KT 9999 BKN040 TEMPO 2423/2503 09004KT 5000 BR SCT010
LIRQ,TAF LIRQ 241700Z 2418/2518 VRB05KT 9999 SCT050 TEMPO 2422/2505 3000 BR TEMPO 2512/2516 RA
LIRS,TAF LIRS 241700Z 2418/2503 15007KT 7000 FEW010 SCT015
LIRU,TAF LIRU 241400Z 2415/2424 18010KT 9999 FEW040 BECMG 2416/2418 VRB05KT
LIRV,TAF LIRV 241400Z 2415/2424 18012KT 9999 SCT030
LJCE,TAF LJCE 241700Z 2418/2503 23004KT CAVOK PROB30 TEMPO 2502/2503 0500 FG
LJLJ,TAF LJLJ 241700Z 2418/2518 28003KT 9999 FEW033 BKN050 TEMPO 2418/2506 SHRA SCT030TCU BKN050 PROB30 TEMPO 2421/2506 32010G20KT 5000 TSRA SCT030CB BKN045 PROB30 TEMPO 2506/2512 BKN015 BKN060 BECMG 2506/2508 RA BECMG 2510/2512 NSW
LJMB,TAF LJMB 241700Z 2418/2518 VRB02KT 9999 FEW040 TEMPO 2421/2506 SHRA SCT033TCU BKN050 PROB30 TEMPO 2500/2504 5000 TSRA SCT030TCU BKN050 BECMG 2504/2506 RA PROB30 TEMPO 2506/2512 BKN010 BECMG 2509/2511 NSW
LJPZ,TAF LJPZ 241700Z 2418/2503 14005KT CAVOK
LKCV,TAF LKCV 241700Z 2418/2518 18006KT CAVOK PROB30 TEMPO 2418/2502 6000 SHRA BKN022 BECMG 2506/2508 24010KT
LKKB,TAF LKKB 241700Z 2418/2518 20008KT CAVOK PROB30 TEMPO 2423/2505 23012KT 8000 SHRA BKN025 BECMG 2507/2509 26010KT TEMPO 2510/2516 27015KT
LKKV,TAF LKKV 241700Z 2418/2600 25006KT 9999 SCT025 TEMPO 2418/2518 7000 SHRA BKN012 PROB30 TEMPO 2418/2422 3000 TSRA SCT012CB
LKMT,TAF LKMT 241700Z 2418/2600 23014KT 9999 SCT035 TEMPO 2418/2500 24016G26KT 7000 SHRA BKN025 PROB30 TEMPO 2418/2500 4000 TSRA SCT020CB
LKNA,TAF LKNA 241700Z 2418/2518 27010KT 6000 RA SCT010 BKN030 BECMG 2419/2421 20008KT CAVOK PROB40 TEMPO 2419/2500 0400 FG TEMPO 2512/2515 9999 SCT025
LKPD,TAF LKPD 241700Z 2418/2518 24004KT CAVOK PROB30 TEMPO 2418/2420 7000 RA BKN020 BECMG 2504/2506 26008KT PROB30 TEMPO 2510/2518 28014KT 6000 SHRA BKN025TCU
LKPR,TAF LKPR 241700Z 2418/2600 21010KT 9999 SCT035 TEMPO 2418/2500 24014G26KT 8000 SHRA BKN025 PROB30 TEMPO 2418/2500 4000 TSRA SCT025CB TEMPO 2510/2514 8000 SHRA BKN025 PROB30 TEMPO 2510/2514 SCT025TCU
LKTB,TAF LKTB 241700Z 2418/2600 24006KT 7000 BKN012 TEMPO 2418/2421 4000 RA BKN006 PROB30 TEMPO 2418/2421 2000 -TSRA BR SCT012CB BECMG 2421/2422 1200 BR BKN003 TEMPO 2422/2509 0700 RA FG BKN002 PROB30 TEMPO 2422/2508 0300 FG VV001 BECMG 2509/2511 4000 BR BKN006 BECMG 2511/2513 7000 BKN012 TEMPO 2513/2600 9999 SCT025
LLBG,TAF LLBG 241702Z 2418/2518 VRB04KT 9999 FEW025 BECMG 2507/2509 02008KT CAVOK PROB30 2510/2515 34018KT TX31/2511Z TN17/2504Z
LLER,TAF LLER 241701Z 2418/2518 01016KT CAVOK BECMG 2419/2421 36010KT BECMG 2507/2510 18012KT PROB30 TEMPO 2510/2515 7000 SHRA SCT070TCU BKN100 BECMG 2515/2517 VRB04KT TX31/2512Z TN20/2504Z
LLHA,TAF LLHA 241704Z 2418/2518 01006KT CAVOK BECMG 2422/2424 11008KT FM251200 36018KT CAVOK TEMPO 2512/2514 36020G30KT BECMG 2514/2516 03008KT TX30/2511Z TN18/2504Z
LLHZ,TAF LLHZ 241703Z 2418/2518 VRB03KT 9999 FEW025 BECMG 2507/2509 02008KT CAVOK PROB40 2510/2516 35018G28KT TX31/2510Z TN19/2504Z
LLIB,TAF LLIB 241102Z 2412/2512 07007KT CAVOK BECMG 2416/2420 VRB03KT BECMG 2506/2508 28006KT TX27/2412Z TN14/2504Z
LMML,TAF LMML 241100Z 2412/2512 25009KT 9999 FEW020
LOWG,TAF AMD LOWG 241834Z 2418/2518 VRB05KT 9999 FEW050 TX19/2513Z TN12/2505Z TEMPO 2418/2421 34012KT 3000 SHRA +SHRA TEMPO 2421/2506 RA PROB30 TEMPO 2500/2508 0300 BCFG VV002
LOWI,TAF LOWI 241715Z 2418/2518 VRB03KT 9999 FEW007 SCT015 BKN060 TX18/2514Z TN10/2507Z TEMPO 2418/2424 SHRA BKN012 TEMPO 2500/2507 BKN008
LOWK,TAF AMD LOWK 241836Z 2418/2518 VRB04KT 9999 FEW040 SCT070 TX18/2513Z TN12/2504Z TEMPO 2418/2420 33012KT 2000 SHRA +SHRA PROB30 TEMPO 2418/2420 FEW040CB BKN050 TEMPO 2420/2509 0700 RA BKN007
LOWL,TAF AMD LOWL 241721Z 2418/2518 25005KT 9999 -RA FEW025 BKN060 TX17/2514Z TN11/2501Z FM242000 VRB05KT 9999 NSW BKN080 PROB40 2422/2506 1200 BCFG BKN003 BECMG 2506/2508 27010KT CAVOK
LOWS,TAF LOWS 241715Z 2418/2518 15005KT 9999 FEW020 BKN040 TX18/2513Z TN10/2505Z TEMPO 2418/2420 -SHRA BECMG 2509/2511 34005KT BECMG 2516/2518 15005KT
LOWW,TAF LOWW 241715Z 2418/2524 VRB04KT 9999 SCT050 TX20/2513Z TN09/2524Z TEMPO 2418/2422 32008KT SHRA BKN012 BKN030 FEW030CB PROB30 TEMPO 2500/2506 1200 BCFG FM250600 30009KT CAVOK BECMG 2518/2520 VRB04KT
LOXA,TAF COR LOXA 241115Z 2412/2421 VRB03KT 9999 FEW060 BKN250 TEMPO 2412/2414 06006KT FEW050 SCT130 BKN220 TEMPO 2415/2421 24008KT SHRA FEW040TCU BKN050
LOXN,TAF LOXN 241115Z 2412/2421 VRB05KT 9999 SCT090 BKN300 TEMPO 2418/2421 -SHRA BKN070 PROB40 TEMPO 2418/2421 SHRA FEW045TCU BKN050
LOXT,TAF LOXT 241115Z 2412/2421 04005KT 9999 BKN080 TEMPO 2417/2421 -SHRA
LOXZ,TAF LOXZ 241115Z 2412/2421 VRB03KT 9999 FEW050 SCT200 BKN300 TEMPO 2417/2420 8000 SHRA SCT040TCU BKN050
LPAR,TAF LPAR 241405Z 2415/2424 17005KT 9999 SCT025
LPAZ,TAF LPAZ 241700Z 2418/2524 33015KT 9999 SCT025 TEMPO 2418/2511 FEW018 BKN035 BECMG 2500/2502 27010KT BECMG 2504/2506 27017KT BECMG 2511/2513 24017KT 5000 -RADZ BR SCT006 BKN012 BECMG 2513/2515 30015KT FEW018 SCT035
LPCS,TAF LPCS 241400Z 2415/2424 16010KT 9999 FEW012 SCT030 BECMG 2421/2424 SCT008 BKN015
LPFR,TAF LPFR 241700Z 2418/2518 10010KT 9999 FEW015 SCT025 BECMG 2419/2421 01005KT CAVOK BECMG 2500/2502 VRB02KT BECMG 2510/2512 21008KT
LPHR,TAF LPHR 241400Z 2415/2424 33010KT 9999 FEW020 BKN045
LPLA,TAF LPLA 241709Z 2418/2518 29010KT 9999 FEW015 BKN030 PROB30 TEMPO 2418/2422 7000 -SHRA SCT010 BKN014 TEMPO 2504/2508 6000 -RA SCT010 BKN018 BECMG 2505/2508 33012KT SCT025 TEMPO 2505/2518 33015G28KT
LPMA,TAF LPMA 241700Z 2418/2518 21013KT 9999 SCT015 SCT060 PROB30 TEMPO 2418/2510 6000 -RA SCT008 BKN013 BECMG 2500/2503 23008KT BECMG 2509/2512 21013KT PROB30 TEMPO 2512/2518 21018G28KT
LPPD,TAF LPPD 241700Z 2418/2518 34010KT 9999 SCT020 TEMPO 2418/2507 FEW015 BKN035 BECMG 2500/2502 27015KT BECMG 2507/2509 6000 -RA SCT008 BKN015 BECMG 2509/2512 29013KT FEW020 SCT030
LPPR,TAF LPPR 241700Z 2418/2518 18013KT 9999 SCT012 SCT030 BECMG 2419/2421 12007KT BECMG 2503/2505 17015KT 6000 -RA SCT006 BKN012 TEMPO 2505/2509 17018G30KT 3000 RADZ BR SCT002 BKN004 BECMG 2509/2512 20017KT 9999 NSW SCT012 BKN030 TEMPO 2512/2518 6000 -RA SCT008 BKN015
LPPS,TAF LPPS 241700Z 2418/2524 21015KT 9999 SCT015 SCT030 PROB30 TEMPO 2418/2509 5000 -RADZ BR SCT006 BKN012 BECMG 2419/2421 21010KT BECMG 2504/2506 VRB05KT BECMG 2510/2512 21013KT
LPPT,TAF LPPT 241700Z 2418/2524 19008KT 9999 FEW015 SCT035 BECMG 2421/2424 SCT008 BKN015 TEMPO 2500/2509 5000 RADZ BR SCT004 BKN008 BECMG 2509/2512 22013KT SCT020 BECMG 2522/2524 19005KT SCT006 BKN012
LPST,TAF LPST 241404Z 2415/2424 17012KT 9999 FEW008 SCT015 BECMG 2420/2423 6000 SCT004 BKN008 TEMPO 2422/2424 1500 SHRA BR BKN004 FEW020TCU
LQBK,TAF LQBK 241700Z 2418/2518 22005KT CAVOK TX21/2513Z TN10/2504Z PROB40 TEMPO 2421/2507 4000 BR PROB30 TEMPO 2503/2506 2000 BCFG PROB30 TEMPO 2514/2518 SHRA FEW040TCU SCT045
LQMO,TAF LQMO 241700Z 2418/2518 22005KT CAVOK TX26/2514Z TN10/2505Z PROB30 TEMPO 2503/2507 3000 BR
LQSA,TAF LQSA 241700Z 2418/2518 VRB02KT CAVOK TX25/2514Z TN07/2505Z PROB30 TEMPO 2504/2507 1200 BCFG BKN003
LQTZ,TAF LQTZ 241700Z 2418/2518 VRB02KT CAVOK TX23/2514Z TN08/2505Z PROB40 2500/2508 3000 BR PROB30 2503/2507 0200 FG BKN001
LRAR,TAF LRAR 241700Z 2418/2503 VRB04KT CAVOK
LRBC,TAF LRBC 241700Z 2418/2503 VRB04KT CAVOK BECMG 2422/2500 3000 BR BKN010 PROB40 TEMPO 2500/2503 0800 FG BKN010
LRBM,TAF LRBM 241400Z 2415/2500 10008KT CAVOK TEMPO 2417/2422 5000 -SHRA SCT040CB
LRBO,TAF LRBO 241700Z 2418/2518 22006KT 9999 SKC BECMG 2509/2511 23018KT SCT100
LRBS,TAF LRBS 241700Z 2418/2518 VRB04KT CAVOK BECMG 2507/2509 24012KT BECMG 2515/2517 VRB04KT
LRCK,TAF LRCK 241700Z 2418/2518 13007KT CAVOK BECMG 2420/2422 3000 BR PROB30 TEMPO 2422/2503 0800 FG BECMG 2505/2507 21010KT 9999 NSW
LRCL,TAF LRCL 241700Z 2418/2503 VRB04KT CAVOK BECMG 2420/2422 5000 BR PROB30 TEMPO 2423/2503 1500 BR BKN005
LRCT,TAF LRCT 241700Z 2418/2518 20005KT 9999 SCT200 BECMG 2423/2501 VRB03KT 1000 BR SCT015 BECMG 2506/2508 33007KT 9999 SCT060 BKN150
LRCV,TAF LRCV 241700Z 2418/2503 VRB04KT CAVOK
LRFT,TAF LRFT 241700Z 2418/2518 VRB02KT 9999 SCT200 PROB30 TEMPO 2502/2506 5000 BR BECMG 2506/2508 20012KT SCT100 BKN200
LRIA,TAF LRIA 241700Z 2418/2503 VRB04KT CAVOK TEMPO 2423/2503 3000 BR BKN010
LROD,TAF LROD 241700Z 2418/2503 20010KT 9999 SCT035 BECMG 2418/2420 VRB04KT
LROP,TAF LROP 241700Z 2418/2518 VRB04KT CAVOK BECMG 2507/2509 24012KT BECMG 2515/2517 VRB04KT
LRSB,TAF LRSB 241700Z 2418/2518 VRB04KT CAVOK PROB30 TEMPO 2423/2506 3000 BR BECMG 2509/2511 31012KT TEMPO 2514/2518 SCT040CB
LRSM,TAF LRSM 241400Z 2415/2500 14010KT CAVOK TEMPO 2416/2421 5000 -SHRA SCT040CB BECMG 2422/2500 5000 BR
LRSV,TAF LRSV 241700Z 2418/2503 VRB04KT CAVOK BECMG 2422/2500 3000 -RA BR BKN015 OVC030 PROB30 TEMPO 2501/2503 -SHRA BKN010 SCT030CB BKN040
LRTC,TAF LRTC 241400Z 2415/2500 14010KT CAVOK BECMG 2416/2418 5000 BR BECMG 2418/2420 1500 BR BECMG 2420/2422 VRB04KT 0600 FG BKN002
LRTM,TAF LRTM 241400Z 2415/2500 VRB04KT CAVOK BECMG 2421/2423 5000 BR
LRTR,TAF LRTR 241700Z 2418/2518 VRB04KT CAVOK
LRTZ,TAF LRTZ 241700Z 2418/2518 20006KT 9999 SCT200 PROB30 TEMPO 2502/2506 5000 BR BECMG 2506/2508 14010KT BKN200
LSGC,TAF LSGC 241425Z 2415/2424 22008KT 9999 BKN030 TEMPO 2417/2421 TSRA SCT030CB
LSGG,TAF LSGG 241725Z 2418/2524 22004KT 9999 FEW020 SCT060 TX18/2515Z TN10/2505Z PROB30 TEMPO 2419/2421 TSRA SCT030CB BECMG 2422/2424 4500 BR BKN010 BECMG 2509/2511 9999 FEW030
LSGS,TAF LSGS 241425Z 2415/2424 VRB02KT 9999 FEW030 BKN070 PROB40 TEMPO 2415/2420 SHRA SCT060TCU
LSZA,TAF LSZA 241425Z 2415/2424 VRB02KT 6000 FEW015 BKN020 TEMPO 2415/2423 3000 +SHRA SCT010TCU BKN012 PROB40 TEMPO 2416/2420 2000 TSRA SCT015CB
LSZB,TAF LSZB 241425Z 2415/2424 13005KT 6000 SCT065 BKN070 TEMPO 2415/2417 SHRA SCT050TCU PROB30 TEMPO 2415/2417 4000 TSRA FEW040CB PROB30 2419/2424 4000 BR
LSZC,TAF AMD LSZC 241654Z 2416/2424 17007KT 9999 SCT100 SCT120 TEMPO 2416/2424 SHRA FEW040TCU PROB30 2416/2418 4500 TSRA FEW040CB
LSZG,TAF AMD LSZG 241854Z 2418/2424 35002KT 5000 SCT070TCU PROB40 2418/2420 SHRA
LSZH,TAF LSZH 241725Z 2418/2524 20004KT CAVOK TX19/2514Z TN10/2505Z TEMPO 2422/2508 9999 SCT060 PROB40 2502/2508 4000 MIFG PROB30 2503/2508 0800 PRFG BKN002 BECMG 2508/2510 CAVOK BECMG 2522/2524 BKN080
LSZL,TAF LSZL 241725Z 2418/2503 28003KT 7000 SCT043 SCT047 TEMPO 2418/2424 4500 SHRA FEW040TCU TEMPO 2418/2421 TSRA SCT040CB
LSZR,TAF LSZR 241425Z 2415/2424 19005KT 9999 SCT060 BKN080 TEMPO 2415/2421 SHRA SCT040TCU
LSZS,TAF AMD LSZS 241656Z 2416/2424 03011KT 9999 BKN029 TX07/2415Z TEMPO 2416/2421 SHRA BKN014 FEW030TCU PROB30 TEMPO 2416/2418 TSRA FEW030CB
LTAB,TAF LTAB 241640Z 2418/2503 VRB02KT CAVOK
LTAC,TAF LTAC 241640Z 2418/2518 VRB02KT CAVOK BECMG 2506/2509 FEW040
LTAD,TAF LTAD 241640Z 2418/2503 VRB02KT CAVOK
LTAE,TAF LTAE 241640Z 2418/2503 35006KT CAVOK
LTAF,TAF LTAF 241640Z 2418/2518 VRB02KT CAVOK
LTAG,TAF LTAG 241640Z 2418/2518 VRB02KT CAVOK BECMG 2420/2422 01012KT BECMG 2507/2509 VRB02KT
LTAH,TAF LTAH 241340Z 2415/2424 VRB02KT CAVOK
LTAI,TAF LTAI 241640Z 2418/2518 34009KT CAVOK BECMG 2509/2511 18010KT BECMG 2515/2518 34009KT
LTAJ,TAF LTAJ 241640Z 2418/2518 VRB02KT CAVOK
LTAL,TAF LTAL 241340Z 2415/2424 30009KT 9999 SCT030 BKN100
LTAN,TAF LTAN 241640Z 2418/2503 34008KT CAVOK
LTAO,TAF LTAO 241640Z 2418/2503 21008KT CAVOK
LTAP,TAF LTAP 241640Z 2418/2518 03012KT 9999 FEW040 BECMG 2418/2421 VRB02KT CAVOK BECMG 2422/2502 SCT015 PROB30 2503/2507 1200 BCFG BKN005
LTAR,TAF LTAR 241640Z 2418/2503 35008KT CAVOK PROB30 TEMPO 2421/2501 2500 BR SCT010
LTAS,TAF LTAS 241340Z 2415/2424 VRB02KT CAVOK
LTAT,TAF LTAT 241640Z 2418/2518 21009KT CAVOK
LTAU,TAF LTAU 241640Z 2418/2518 02006KT CAVOK
LTAV,TAF LTAV 241340Z 2415/2424 VRB02KT CAVOK
LTAW,TAF LTAW 241340Z 2415/2424 VRB02KT 9999 SCT040
LTAY,TAF LTAY 241640Z 2418/2503 VRB02KT CAVOK
LTAZ,TAF LTAZ 241640Z 2418/2518 VRB02KT CAVOK
LTBA,TAF LTBA 241640Z 2418/2518 VRB02KT CAVOK PROB30 2501/2505 1800 BCFG
LTBD,TAF LTBD 241340Z 2415/2424 VRB02KT CAVOK
LTBF,TAF LTBF 241640Z 2418/2503 VRB02KT CAVOK
LTBG,TAF LTBG 241640Z 2418/2503 01007KT CAVOK
LTBH,TAF LTBH 241640Z 2418/2503 04007KT CAVOK
LTBI,TAF LTBI 241640Z 2418/2503 VRB02KT CAVOK
LTBJ,TAF LTBJ 241640Z 2418/2518 35009KT CAVOK TEMPO 2509/2513 35015G25KT
LTBK,TAF LTBK 241340Z 2415/2424 33012KT CAVOK BECMG 2419/2423 VRB02KT
LTBL,TAF LTBL 241640Z 2418/2503 VRB02KT CAVOK
LTBN,TAF LTBN 241340Z 2415/2424 VRB02KT CAVOK
LTBO,TAF LTBO 241640Z 2418/2503 VRB02KT CAVOK TEMPO 2418/2421 06013G25KT
LTBP,TAF LTBP 241340Z 2415/2424 VRB02KT CAVOK
LTBQ,TAF LTBQ 241640Z 2418/2503 VRB02KT CAVOK
LTBR,TAF LTBR 241640Z 2418/2518 VRB02KT CAVOK PROB40 2502/2506 3500 BR
LTBS,TAF LTBS 241640Z 2418/2518 VRB02KT CAVOK BECMG 2507/2509 21012KT FEW030 BECMG 2516/2518 VRB02KT CAVOK
LTBT,TAF LTBT 241340Z 2415/2424 35009KT CAVOK
LTBU,TAF LTBU 241640Z 2418/2518 VRB02KT CAVOK PROB30 2500/2504 1200 BCFG BECMG 2507/2510 17012KT
LTBV,TAF LTBV 241340Z 2415/2424 VRB02KT CAVOK
LTBX,TAF LTBX 241340Z 2415/2424 VRB02KT CAVOK
LTBY,TAF LTBY 241640Z 2418/2503 VRB02KT CAVOK
LTBZ,TAF LTBZ 241640Z 2418/2503 VRB02KT CAVOK
LTCA,TAF LTCA 241640Z 2418/2503 26007KT CAVOK
LTCB,TAF LTCB 241640Z 2418/2503 25009KT 9999 BKN035 TEMPO 2418/2421 -SHRA SCT012 BKN028
LTCC,TAF LTCC 241640Z 2418/2518 VRB02KT CAVOK
LTCD,TAF LTCD 241640Z 2418/2503 27012KT CAVOK BECMG 2419/2421 VRB02KT
LTCE,TAF LTCE 241640Z 2418/2518 VRB02KT CAVOK
LTCF,TAF LTCF 241640Z 2418/2503 VRB02KT 9999 SCT035 BECMG 2418/2420 CAVOK
LTCG,TAF LTCG 241640Z 2418/2518 21008KT 9999 BKN035 TEMPO 2418/2421 -SHRA SCT012 BKN028
LTCI,TAF LTCI 241640Z 2418/2503 09009KT 9999 FEW040
LTCJ,TAF LTCJ 241640Z 2418/2518 VRB02KT CAVOK BECMG 2422/2424 1200 BCFG TEMPO 2500/2504 0600 FG BKN008 BECMG 2504/2506 2000 BR BECMG 2507/2509 CAVOK
LTCK,TAF LTCK 241340Z 2415/2424 27008KT 9999 FEW035 BECMG 2420/2421 CAVOK
LTCL,TAF LTCL 241340Z 2415/2424 VRB02KT CAVOK BECMG 2420/2422 4000 BR
LTCM,TAF LTCM 241340Z 2415/2424 30009KT 9999 SCT015
LTCN,TAF LTCN 241640Z 2418/2503 VRB02KT CAVOK
LTCO,TAF LTCO 241340Z 2415/2424 VRB02KT 9999 SCT070 BECMG 2416/2418 CAVOK
LTCP,TAF LTCP 241340Z 2415/2424 21008KT CAVOK BECMG 2415/2417 35012KT
LTCR,TAF LTCR 241340Z 2415/2424 35012KT CAVOK
LTCS,TAF LTCS 241640Z 2418/2518 VRB02KT CAVOK BECMG 2423/2501 03012KT BECMG 2507/2509 VRB02KT
LTCT,TAF LTCT 241640Z 2418/2503 27007KT 9999 SCT100 BECMG 2418/2420 CAVOK
LTCU,TAF LTCU 241340Z 2415/2424 VRB02KT CAVOK
LTCV,TAF LTCV 241640Z 2418/2518 28008KT CAVOK
LTCW,TAF LTCW 241640Z 2418/2503 VRB02KT 9999 FEW040 BECMG 2420/2422 CAVOK
LTDA,TAF LTDA 241640Z 2418/2503 VRB02KT CAVOK
LTFA,TAF LTFA 241340Z 2415/2424 32009KT CAVOK
LTFB,TAF LTFB 241340Z 2415/2424 VRB02KT CAVOK TEMPO 2415/2418 02013KT
LTFC,TAF LTFC 241640Z 2418/2518 VRB02KT CAVOK
LTFD,TAF LTFD 241640Z 2418/2503 VRB02KT CAVOK
LTFE,TAF LTFE 241640Z 2418/2518 VRB02KT CAVOK BECMG 2509/2511 26012KT BECMG 2514/2517 VRB02KT
LTFG,TAF LTFG 241640Z 2418/2503 04008KT CAVOK
LTFH,TAF LTFH 241640Z 2418/2503 VRB02KT 9999 SCT033 BECMG 2421/2424 CAVOK
LTFJ,TAF LTFJ 241640Z 2418/2518 VRB02KT CAVOK PROB30 TEMPO 2501/2505 3500 BR FEW010 TEMPO 2510/2514 FEW040
LTFK,TAF LTFK 241340Z 2415/2424 01007KT CAVOK
LTFM,TAF LTFM 241640Z 2418/2524 19008KT CAVOK
LTFO,TAF LTFO 241640Z 2418/2503 21008KT 9999 -SHRA BKN033 TEMPO 2418/2421 25015G25KT 3500 TSRA BKN015 FEW020CB BKN028 PROB40 TEMPO 2421/2424 3500 SHRA SCT012 BKN028
LUKK,TAF LUKK 241720Z 2418/2518 18006KT CAVOK TEMPO 2423/2506 2400 BR PROB40 TEMPO 2501/2506 0500 FG TEMPO 2515/2518 SCT045CB
LWOH,TAF LWOH 241715Z 2418/2518 VRB02KT CAVOK
LWSK,TAF LWSK 241715Z 2418/2518 VRB02KT CAVOK
LXGB,TAF LXGB 241622Z 2418/2422 08007KT CAVOK PROB40 2418/2422 VRB03KT 7000 HZ PROB30 TEMPO 2418/2422 SCT004
LYBE,TAF LYBE 241700Z 2418/2518 25005KT CAVOK TX23/2512Z TN12/2505Z TEMPO 2503/2506 3000 BR BECMG 2510/2512 33010KT BECMG 2516/2518 03005KT
LYNI,TAF LYNI 241700Z 2418/2518 10005KT CAVOK TX25/2513Z TN08/2505Z TEMPO 2503/2506 3000 BR BECMG 2516/2518 33010KT
LYPG,TAF LYPG 241700Z 2418/2518 36005KT CAVOK TX26/2513Z TN10/2505Z
LYTV,TAF LYTV 241700Z 2418/2518 VRB02KT CAVOK TX25/2513Z TN09/2505Z PROB40 TEMPO 2504/2507 2000 BR
LZIB,TAF LZIB 241715Z 2418/2518 30006KT 9999 SCT008 SCT025 TEMPO 2418/2500 2500 -RA BR BKN008 OVC018 PROB30 TEMPO 2418/2421 29012KT SHRA SCT008 SCT035TCU
LZKZ,TAF LZKZ 241715Z 2418/2518 VRB02KT 9999 SCT010 BKN020 TEMPO 2418/2510 2500 BR BKN008 TEMPO 2501/2506 RA BR
LZPP,TAF AMD LZPP 241815Z 2418/2503 VRB02KT 6000 SCT010 BKN025 TEMPO 2418/2503 4000 BR BKN014 PROB40 TEMPO 2419/2501 01008KT 1500 -RA BR BKN008 OVC020
LZTT,TAF LZTT 241715Z 2418/2518 VRB02KT 9999 BKN022 TEMPO 2500/2506 2500 RA BR BKN008 OVC020 BECMG 2501/2503 26006KT TEMPO 2508/2518 27014KT
LZZI,TAF AMD LZZI 241832Z 2418/2503 VRB02KT 6000 SCT008 BKN016 TEMPO 2418/2503 3500 BR BKN013 PROB40 TEMPO 2418/2501 1500 RA BR BKN009
MBGT,MBGT 241630Z 2418/2518 36004KT 9000 TSRA FEW015CB BKN020 BKN080 FM250000 04005KT 9999 VCSH VCTS FEW018CB SCT018 BKN120 BECMG 2506/2508 VRB04KT
MBPV,MBPV 241630Z 2418/2518 36004KT 9000 SHRA VCTS FEW015CB BKN020 BKN060 FM250000 04005KT 9999 VCSH VCTS FEW018CB SCT018 BKN100 BECMG 2506/2508 VRB04KT
MDBH,TAF MDBH 241600Z 2418/2518 13014KT 9999 FEW020CB FEW023 BKN300 PROB30 2504/2507 8000 RA FEW016CB SCT018 SCT070
MDLR,TAF MDLR 241600Z 2418/2518 14006KT 9999 SCT018 BKN300 PROB40 2512/2518 6000 TSRA FEW016CB BKN016 BKN070
MDPC,TAF MDPC 241600Z 2418/2518 08010KT 9999 FEW025 BKN300 PROB30 2418/2500 8000 -TSRA FEW016CB BKN018 SCT070
MDPP,TAF MDPP 241600Z 2418/2518 09008KT 9999 SCT020 SCT300 BECMG 2501/2503 00000KT
MDSD,TAF MDSD 240400Z 2406/2506 00000KT 9999 FEW018CB FEW018 PROB30 2408/2414 7000 -TSRA FEW014CB SCT016
MDST,TAF MDST 241600Z 2418/2518 08006KT 9999 SCT018 SCT300 PROB30 2418/2500 7000 -TSRA FEW016CB SCT018 SCT070
MHLC,TAF MHLC 241610Z 2418/2518 04006KT 9999 SCT026 TX30/2419Z TN22/2512Z TEMPO 2422/2501 5000 RA SCT026TCU FEW028CB
MHLM,TAF MHLM 241610Z 2418/2518 03006KT 9999 SCT032TCU TX32/2420Z TN23/2512Z FM250600 VRB04KT FEW028
MHPR,TAF MHPR 241700Z 2418/2518 36006KT 9999 SCT042 TX30/2420Z TN20/2409Z FM242100 SCT044TCU FEW046CB FM250200 VRB05KT 9999 SCT044
MHRO,TAF MHRO 241610Z 2418/2518 08013KT 9999 FEW020 TX30/2419Z TN26/2512Z
MHTG,TAF MHTG 241610Z 2418/2518 18004KT 9999 SCT034TCU TX28/2421Z TN17/2512Z FM250900 VRB02KT BKN026
MKJP,TAF MKJP 241715Z 2418/2518 18010KT 9999 FEW022 TEMPO 2419/2424 5000 TSRA BKN020CB BECMG 2502/2504 36005KT BECMG 2516/2518 16012KT
MKJS,TAF MKJS 241715Z 2418/2518 07014KT 9999 FEW022 PROB40 TEMPO 2419/2424 TSRA SCT018 SCT020CB BECMG 2405/2407 VRB02KT BECMG 2515/2517 07015KT
MMAA,TAF MMAA 241615Z 2418/2524 26010KT 6SM HZ SCT008 BKN010 OVC070 TX30/2421Z TN24/2512Z TEMPO 2422/2502 SCT020CB VC TS FM250200 29005KT P6SM SCT020 BKN250 FM251700 24010KT P6SM SCT020 BKN250
MMAS,TAF MMAS 241636Z 2418/2518 16010KT P6SM BKN015 FM241900 20015KT P6SM SKC FM250300 00000KT P6SM SKC FM251200 20010KT 5SM HZ SCT020 FM251500 23010KT P6SM SCT030
MMBT,TAF MMBT 241626Z 2418/2518 16010KT P6SM SCT030 FM242000 20010KT P6SM BKN030 FM250300 00000KT P6SM SCT020
MMCE,TAF MMCE 241707Z 2418/2518 13015KT P6SM SKC FM242200 04012KT P6SM SKC FM250300 12010KT P6SM SKC FM251200 12020KT P6SM SCT015
MMCL,TAF MMCL 241638Z 2418/2518 24010KT P6SM SCT020 PROB40 2423/2503 SCT020CB VC TS FM250300 03005KT P6SM BKN020 BKN250 FM251700 24010KT P6SM SCT020 BKN250
MMCM,TAF MMCM 241707Z 2418/2518 12015KT P6SM SCT020 FM251200 12010KT P6SM BKN015
MMCN,TAF MMCN 241642Z 2418/2518 32015KT P6SM BKN030 FM242100 28015KT P6SM SKC FM250600 34010KT P6SM SKC
MMCP,TAF MMCP 241707Z 2418/2518 12015KT P6SM BKN025 FM242100 34015KT P6SM SCT030 FM250300 12010KT P6SM SKC FM251200 12015KT P6SM SCT025
MMCS,TAF MMCS 241659Z 2418/2518 27015G25KT P6SM -RA SCT020 BKN050 OVC070 FM242100 33015G25KT 5SM HZ SCT050 BKN070 BECMG 2503/2504 27005KT FM251700 26005KT P6SM SKC
MMCU,TAF MMCU 241659Z 2418/2518 33015G25KT P6SM SKC BECMG 2503/2504 03005KT FM251700 07010KT P6SM SKC
MMCV,TAF MMCV 241720Z 2418/2518 14015G25KT P6SM SCT030 FM250000 14010KT P6SM SCT025 FM250600 00000KT 5SM HZ BKN030 TEMPO 2508/2512 4SM TSRA BKN025CB FM251200 34030KT P6SM BKN030 FM251600 34020KT P6SM BKN070
MMCZ,TAF MMCZ 241649Z 2418/2524 10010KT P6SM SCT015 PROB40 2423/2503 5SM TSRA BKN015CB FM250300 13010KT P6SM SCT015 FM251700 13005KT P6SM SCT015 BKN250 BECMG 2520/2521 04010KT PROB40 2521/2524 5SM TSRA BKN015CB
MMDO,TAF MMDO 241642Z 2418/2518 23015KT P6SM SCT025 FM242100 24020KT P6SM SKC FM250300 20010KT P6SM SKC FM251200 00000KT 5SM HZ BKN015 TEMPO 2512/2515 1SM BR BKN003 FM251500 00000KT P6SM SKC
MMEP,TAF MMEP 241636Z 2418/2518 00000KT P6SM SCT020 TEMPO 2420/2424 BKN020 FM251000 00000KT 2SM BR BKN010 TEMPO 2512/2515 1/2SM FG VV002 FM251500 00000KT P6SM SCT015
MMGL,TAF MMGL 241628Z 2418/2524 29010KT P6SM SCT015 BKN250 TX26/2421Z TN16/2512Z FM250400 00000KT 4SM HZ SCT015 BKN040 TEMPO 2510/2514 3SM BR FM251400 29005KT P6SM SCT015 BKN250 BECMG 2520/2521 29010KT
MMGM,TAF MMGM 241642Z 2418/2518 28010KT P6SM BKN020 FM242100 24015KT P6SM SKC FM250300 34010KT P6SM SKC
MMHO,TAF MMHO 241638Z 2418/2518 27010KT P6SM SKC BECMG 2503/2504 36005KT FM251700 27010KT P6SM SKC
MMIA,TAF MMIA 241636Z 2418/2518 24012KT P6SM SCT020 FM242100 24015KT P6SM BKN020 FM250300 00000KT P6SM SCT100
MMIO,TAF MMIO 241659Z 2418/2518 18010KT P6SM BKN200 BECMG 2503/2504 34005KT TEMPO 2510/2514 3SM BR HZ FM251400 34005KT P6SM SCT020 BKN250
MMLM,TAF MMLM 241642Z 2418/2518 28020KT P6SM SKC FM250300 34010KT P6SM SCT020
MMLO,TAF MMLO 241636Z 2418/2518 22010KT P6SM SCT030 FM242100 23015KT P6SM BKN030 FM250300 00000KT P6SM SKC FM251200 00000KT 5SM HZ SCT020
MMLP,TAF MMLP 241638Z 2418/2518 21010KT P6SM SCT030 BKN200 BECMG 2503/2504 34005KT FM251700 02010KT P6SM SCT020 BKN250
MMLT,TAF MMLT 241642Z 2418/2518 34015KT P6SM SCT040 FM250600 03012KT P6SM SKC
MMMA,TAF MMMA 241720Z 2418/2518 16020G30KT P6SM BKN025 FM250000 14012KT P6SM SCT030 FM250600 23010KT P6SM BKN020 TEMPO 2509/2512 4SM TSRA BKN020CB FM251300 34020G30KT P6SM BKN030
MMMD,TAF MMMD 241649Z 2418/2524 13010KT P6SM SCT015 TX30/2420Z TN20/2512Z TEMPO 2422/2502 BKN020 FM250200 13010KT P6SM SCT020 BKN250 TEMPO 2510/2514 3SM BR BKN020 FM251700 07010KT P6SM SCT020 BKN250 PROB40 2520/2524 BKN020CB VC TS
MMML,TAF MMML 241638Z 2418/2518 36010KT P6SM SKC BECMG 2503/2504 34005KT FM251700 13010KT P6SM SKC
MMMM,TAF MMMM 241628Z 2418/2524 13005KT P6SM SCT015 SCT025 TEMPO 2422/2502 BKN025 FM250200 00000KT 5SM HZ SCT010 BKN020 TEMPO 2510/2514 3SM BR FM251400 19005KT P6SM SCT020 BKN250 PROB40 2520/2524 SCT020CB VC TS
MMMT,TAF MMMT 241707Z 2418/2518 35012KT P6SM SCT020 BKN200 FM251200 00000KT 5SM HZ BKN020 FM251600 00000KT P6SM SCT020
MMMX,TAF MMMX 241615Z 2418/2524 33010KT 4SM HZ SCT020 BKN200 TX26/2421Z TN16/2512Z TEMPO 2423/2503 SCT020CB VC TS FM250300 33005KT P6SM SCT020 BKN250 TEMPO 2510/2514 3SM BR HZ FM251800 05010KT P6SM SCT020 BKN250 PROB40 2520/2524 SCT020CB VC TS
MMMY,TAF MMMY 241659Z 2418/2524 13010KT P6SM BKN100 TX28/2421Z TN20/2512Z BECMG 2504/2505 33005KT TEMPO 2510/2514 3SM BR VV005 FM251400 13005KT P6SM SCT020 BKN250
MMMZ,TAF MMMZ 241638Z 2418/2524 26010KT P6SM SCT020 BKN250 TX32/2421Z TN22/2512Z BECMG 2504/2505 01005KT FM251700 28010KT P6SM SCT020 BKN250
MMNL,TAF MMNL 241720Z 2418/2518 16015KT P6SM SCT030 FM250100 04010KT P6SM BKN030 PROB40 2502/2505 4SM TSRA BKN020CB FM250900 34020KT P6SM SCT030 BKN250 FM251500 34025KT P6SM SCT040 BKN080
MMOX,TAF MMOX 241626Z 2418/2518 12010KT P6SM SCT030 FM250300 00000KT P6SM SKC FM251200 00000KT 4SM HZ BKN025 FM251500 00000KT P6SM SCT025
MMPB,TAF MMPB 241626Z 2418/2518 14010KT 5SM HZ SCT020 FM242100 14015KT P6SM SCT030 FM250300 00000KT P6SM SKC TEMPO 2512/2516 3SM BR BKN010
MMPN,TAF MMPN 241636Z 2418/2518 18010KT P6SM SCT030 TEMPO 2420/2424 SCT025 BKN030 FM250100 00000KT P6SM BKN250
MMPR,TAF MMPR 241628Z 2418/2524 02005KT P6SM SCT030CB TX32/2420Z TN24/2512Z TEMPO 2418/2422 5SM TSRA BKN020CB FM242200 24010KT P6SM SCT020 BKN090 BECMG 2504/2505 04005KT PROB40 2513/2517 5SM -TSRA BKN020CB FM251800 33005KT P6SM SCT020 BKN250
MMPS,TAF MMPS 241626Z 2418/2518 00000KT P6SM SCT030 FM242100 24015KT P6SM BKN025 FM250300 06010KT P6SM SCT100
MMQT,TAF MMQT 241636Z 2418/2518 25012KT P6SM BKN020 FM250100 00000KT P6SM SKC FM251200 00000KT 3SM BR BKN015 TEMPO 2512/2515 1SM BR BKN005 FM251600 20010KT P6SM SCT020
MMRX,TAF MMRX 241720Z 2418/2518 17015G25KT P6SM SCT030 FM250000 12010KT P6SM SCT020 FM250600 30010KT P6SM BKN025 TEMPO 2506/2510 3SM TSRA BKN015CB FM251000 34020KT P6SM BKN040 FM251200 34020G30KT P6SM BKN050
MMSD,TAF MMSD 241642Z 2418/2518 34012KT P6SM SCT040 FM242100 14015KT P6SM SKC FM250300 34012KT P6SM SKC
MMSP,TAF MMSP 241628Z 2418/2524 26010KT P6SM SCT025 TX27/2421Z TN12/2512Z BECMG 2504/2505 26005KT TEMPO 2510/2514 3SM BR FM251800 09005KT P6SM SCT020 BKN250 PROB40 2520/2524 SCT020CB VC TS
MMTC,TAF MMTC 241659Z 2418/2518 33010KT P6SM SCT015 BKN200 TEMPO 2422/2502 33015G25KT 3SM BLDU FM250400 33005KT P6SM BKN200 FM251700 07005KT P6SM BKN250
MMTG,TAF MMTG 241649Z 2418/2518 13010KT P6SM SCT015 TEMPO 2423/2503 5SM TSRA BKN015CB FM250300 00000KT 5SM HZ BKN015 BKN250 TEMPO 2510/2514 1SM BR OVC010 FM251400 13010KT 6SM HZ SCT020 BKN250
MMTJ,TAF MMTJ 241638Z 2418/2524 29005KT P6SM SKC TX19/2421Z TN11/2512Z BECMG 2503/2504 00000KT TEMPO 2510/2514 3SM BR FM251800 26010KT P6SM SKC
MMTM,TAF MMTM 241615Z 2418/2518 13015KT P6SM SCT015 BKN060 TEMPO 2422/2502 BKN015 FM250200 13005KT P6SM BKN015 BKN250 TEMPO 2513/2517 2SM -TSRA-RA OVC015CB FM251700 02030KT 6SM -RA BKN015 OVC060
MMTO,TAF MMTO 241615Z 2418/2524 29005KT 4SM HZ SCT020 BKN200 TX24/2421Z TN11/2512Z BECMG 2420/2421 SCT015CB TEMPO 2423/2503 5SM TSRA BKN020CB FM250300 00000KT 4SM HZ SCT020 BKN070 BECMG 2507/2508 3SM BR HZ TEMPO 2511/2515 1/2SM FG VV005 FM251500 07005KT 4SM HZ SCT020 BKN250 PROB40 2520/2524 SCT015CB VC TS
MMTP,TAF MMTP 241649Z 2418/2524 27010KT P6SM SCT030 SCT080 TEMPO 2422/2502 4SM TSRA BKN020CB FM250500 03005KT P6SM SCT020 BKN250 FM251700 26010KT P6SM SCT020 BKN250 PROB40 2520/2524 5SM TSRA BKN020CB
MMUN,TAF MMUN 241649Z 2418/2524 05010KT P6SM BKN015 TX33/2421Z TN20/2512Z TEMPO 2500/2504 5SM TSRA BKN015CB FM250400 13005KT P6SM SCT015 BKN080 FM251700 13010KT P6SM SCT015 PROB40 2520/2524 BKN020CB VC TS
MMVA,TAF MMVA 241707Z 2418/2518 06012KT P6SM SCT020 FM251200 00000KT 3SM BR BKN010 FM251600 12010KT P6SM SCT015
MMVR,TAF MMVR 241615Z 2418/2518 15010KT 5SM HZ SCT030 BKN070 TX30/2421Z TN17/2512Z TEMPO 2422/2502 BKN030 FM250600 19005KT P6SM BKN020 TEMPO 2510/2514 1SM BR VV005 FM251400 34020KT 3SM -RA BKN015 OVC050
MMZC,TAF MMZC 241628Z 2418/2524 26015KT P6SM SCT015 BKN200 TX22/2421Z TN12/2512Z TEMPO 2422/2502 26015G25KT FM250400 03005KT P6SM BKN250 FM251700 26015KT P6SM BKN250
MMZH,TAF MMZH 241626Z 2418/2518 24010KT P6SM SCT020 FM250600 00000KT P6SM SCT100
MMZO,TAF MMZO 241628Z 2418/2518 24010KT P6SM SCT020 BECMG 2504/2505 34005KT TEMPO 2513/2517 BKN020 FM251700 24010KT P6SM SCT020 BKN250
MNMG,TAF MNMG 241518Z 2418/2518 08008KT 9999 FEW024 BECMG 2502/2505 VRB04KT 6000 VCRA/DZ SCT020CB SCT070 TEMPO 2513/2517 VRB10KT 8000 VCRA SCT022TCU SCT080
MNPC,TAF MNPC 241515Z 2418/2518 04006KT 6000 VCRA BKN016TCU FM250400 VRB04KT 8000 HZ FEW018 BECMG 2512/2515 36006KT 7000 VCRA BKN017
MPTO,TAF COR MPTO 241700Z 2418/2524 29006KT 9999 SCT018 SCT090 TEMPO 2418/2422 18010KT 7000 TSRA SCT014CB BKN080 TEMPO 2423/2503 8000 RA SCT016 BKN080 TEMPO 2506/2510 VRB02KT
MRLB,MRLB 241700Z 2418/2518 28005KT 9999 SCT030 TX32/2419Z TN21/2511Z PROB30 TEMPO 2420/2424 TSRA FEW020CB TEMPO 2508/2514 VRB02KT 3000 BR BKN005 
MRLM,MRLM 241700Z 2418/2518 04005KT 9999 FEW020 BKN100 TX31/2419Z TN22/2511Z TEMPO 2418/2420 DZ FEW015CB BECMG 2500/2503 26005KT TEMPO 2508/2514 RA FEW020TCU BECMG 2515/2518 04005KT 
MROC,MROC 241700Z 2418/2518 25009KT 9999 SCT030 BKN200 TX27/2419Z TN18/2510Z TEMPO 2420/2424 5000 TSRA SCT015CB TEMPO 2500/2506 VRB02KT 3000 DZ BR BKN005 BECMG 2506/2508 08005KT BECMG 2514/2516 25008KT 
MRPV,TAF MRPV 241700Z 2418/2518 29008KT 9999 FEW045 BKN120 TX28/2518Z TN18/2510Z TEMPO 2419/2422 5000 TSRA SCT010CB TEMPO 2422/2424 BCFG BKN010 BECMG 2502/2504 09008KT BECMG 2515/2518 29006KT
MSLP,TAF MSLP 241525Z 2418/2518 23007KT 9999 SCT027 FEW037CB TX32/2418Z TN23/2512Z FM250000 VRB03KT 9999 FEW020 FEW037CB FM250600 06003KT 9999 FEW023 SCT065 FM251200 07003KT 9999 FEW030
MSSS,TAF MSSS 241525Z 2418/2518 18004KT 9999 SCT027 FEW037CB TX29/2418Z TN22/2512Z FM250000 33004KT 9999 FEW023 FEW040CB FM250500 36004KT 9999 FEW023 SCT060 FM251200 35003KT CAVOK
MTCH,TAF MTCH 241800Z 2418/2518 02009KT 9000 SCT028CB BKN070 PROB40 TEMPO 2421/2503 4000 +TSRA SCT022CB BKN040 BECMG 2506/2510 VRB02KT 9000 NSW FEW020
MTPP,TAF MTPP 241800Z 2418/2518 VRB02KT 9999 SCT028CB PROB30 TEMPO 2422/2506 4500 +TSRA SCT022CB BKN030 BECMG 2507/2510 14005KT 7000 NSW FEW016
MUCC,MUCC 241700Z 2418/2518 04012KT 9000 SCT020 BECMG 2502/2504 VRB03KT BECMG 2515/2517 05010KT
MUCF,MUCF 241700Z 2418/2506 07009KT 9000 SCT020
MUCL,MUCL 241700Z 2418/2506 06010KT 9000 SCT020 BECMG 2500/2502 VRB03KT
MUCM,TAF MUCM 241700Z 2418/2518 04010KT 9000 SCT020 TEMPO 2418/2424 VRB10KT 5000 TSRA SCT018CB BKN020 BECMG 2502/2504 VRB03KT BECMG 2515/2517 05010KT
MUCU,TAF MUCU 241700Z 2418/2518 14010KT 9000 SCT020 TEMPO 2418/2424 VRB10KT 5000 TSRA SCT018CB BKN020 BECMG 2502/2504 VRB03KT BECMG 2515/2517 15010KT
MUGM,TAF MUGM 2415/2515 34006KT 9999 FEW030 SCT180 QNH2990INS BECMG 2416/2418 14008KT 9999 FEW030 FEW080 SCT250 QNH2987INS BECMG 2500/2502 33006KT 9999 FEW030 FEW250 QNH2988INS T31/2417Z T23/2510Z FN20097
MUHA,TAF MUHA 241700Z 2418/2518 05011KT 9000 SCT030 BECMG 2501/2503 VRB03KT FEW030
MUHG,TAF MUHG 241700Z 2418/2518 04010KT 9000 SCT020 TEMPO 2418/2424 VRB10KT 5000 TSRA SCT018CB BKN020 BECMG 2502/2504 VRB03KT BECMG 2515/2517 05010KT
MUSC,MUSC 241700Z 2418/2518 07010KT 9000 SCT020 TEMPO 2418/2424 VRB10KT 5000 TSRA FEW018CB BKN020 BECMG 2502/2504 VRB03KT FEW020 BECMG 2515/2517 07010KT SCT020
MUVR,TAF MUVR 241700Z 2418/2518 05011KT 9000 SCT020 BECMG 2502/2504 VRB03KT FEW020 BECMG 2515/2517 06010KT SCT020
MWCB,TAF MWCB 241700Z 2418/2518 07010KT 9999 FEW018
MWCR,TAF MWCR 241700Z 2418/2518 07010KT 9999 FEW018 PROB30 TEMPO 2421/2424 9000 SHRA SCT016
MYGF,MYGF 241630Z 2418/2518 03010KT 9999 FEW030
MYNN,MYNN 241630Z 2418/2518 04010KT 9999 SCT025 TEMPO 2502/2508 00000KT CAVOK
MZBZ,TAF MZBZ 241525Z 2418/2518 11007KT 9999 SCT023
NCRG,TAF AMD NCRG 241925Z 2419/2518 34015KT 9000 -RA SCT014 BKN050 TEMPO 2419/2502 34015G30KT 3000 +TSRA FEW008 BKN016 BKN018CB TEMPO 2502/2506 5000 SHRA BKN108 BECMG 2501/2503 20012KT
NFFN,TAF NFFN 241708Z 2418/2518 14009KT 9999 FEW030 SCT100 TEMPO 2418/2502 5000 SHRA BKN018 TEMPO 2502/2518 3000 TSRA BKN016 FEW018CB
NFNA,TAF NFNA 241710Z 2418/2518 10005KT 9999 -SHRA SCT020 BKN045 BKN100 TEMPO 2418/2502 5000 RA SCT016 BKN018 OVC060 TEMPO 2502/2518 3000 +TSRA BKN015 FEW018CB
NFTF,TAF NFTF 241711Z 2418/2518 15010KT 9999 FEW014 SCT100 PROB40 TEMPO 2418/2506 15015G25KT
NFTV,TAF NFTV 241713Z 2418/2518 15010KT 9999 FEW018 SCT040 PROB40 TEMPO 2418/2506 15015G25KT
NGFU,TAF NGFU 241725Z 2418/2518 06008KT 9999 FEW018
NGTA,TAF NGTA 241713Z 2418/2518 07009KT 9999 FEW020
NIUE,TAF NIUE 241724Z 2418/2518 20010KT 9999 SCT018 BKN100
NLWF,TAF NLWF 241700Z 2418/2518 13012KT 9999 BKN020 TEMPO 2418/2518 3000 SHRA BKN014 FEW018CB PROB40 TEMPO 2418/2518 1500 TSRA BKN010 SCT016CB 
NLWW,TAF AMD NLWW 241803Z 2418/2518 12008KT 9999 BKN020 PROB40 TEMPO 2418/2518 4000 SHRA BKN014 FEW020CB PROB30 TEMPO 2506/2518 2000 TSRA BKN010 SCT016CB
NSFA,TAF NSFA 241721Z 2418/2518 23006KT 9999 -RA FEW023 BKN100 PROB40 TEMPO 2418/2512 5000 TSRA BKN016 FEW018CB BECMG 2420/2422 17010KT
NSTU,NSTU 241918Z 2419/2518 27013KT 6SM -SHRA BR BKN015 OVC100 TEMPO 2419/2421 2SM SHRA BR FM242100 17011KT P6SM VCSH SCT020 BKN035 BKN050 FM250300 12011KT P6SM SCT020 BKN045
NTAA,TAF AMD NTAA 241843Z 2418/2524 05020G30KT 9999 FEW023 BKN250 TEMPO 2500/2520 02025G38KT 2000 SHRA FEW011 SCT017TCU BKN040 PROB30 TEMPO 2520/2524 4000 SHRA SCT020 BKN040
NVSC,TAF NVSC 241700Z 2418/2518 04005KT 9999 SCT020 BKN040 INTER 2418/2424 9000 -SHRA BKN018 OVC100
NVSG,TAF NVSG 241700Z 2418/2518 06007KT 9999 SCT020 BKN040 INTER 2418/2424 9000 -SHRA BKN018
NVSL,TAF NVSL 241700Z 2418/2518 09009KT 9999 SCT020 BKN040 INTER 2418/2424 8000 SHRA BKN018 OVC090
NVSP,TAF NVSP 241700Z 2418/2518 09008KT 9999 SCT020 BKN040 INTER 2418/2424 9000 -SHRA BKN018 OVC090
NVSS,TAF NVSS 241700Z 2418/2518 09005KT 9999 SCT020 BKN040 INTER 2418/2424 9000 -SHRA BKN018
NVVA,TAF NVVA 241700Z 2418/2518 09010KT 9999 SCT020 BKN040 INTER 2418/2424 7000 -RA FEW010 BKN018 OVC090
NVVV,TAF NVVV 241700Z 2418/2518 09008KT 9999 SCT020 BKN040 INTER 2418/2424 8000 SHRA BKN018 OVC090
NVVW,TAF NVVW 241700Z 2418/2518 09012KT 9999 SCT020 BKN040 INTER 2418/2424 7000 -RA FEW010 BKN018 OVC090
NWWD,TAF NWWD 241700Z 2418/2518 08010KT 9999 FEW040 TEMPO 2503/2509 2000 TSRA BKN010 SCT016CB
NWWE,TAF NWWE 241700Z 2418/2518 08012KT 9999 BKN020 PROB40 TEMPO 2418/2512 4000 SHRA BKN014 FEW018TCU
NWWK,TAF NWWK 241700Z 2418/2518 VRB02KT 9999 SCT030 TEMPO 2418/2424 4000 SHRA FEW020CB TEMPO 2500/2509 2000 TSRA BKN010 SCT016CB BECMG 2423/2501 20010KT
NWWL,TAF NWWL 241700Z 2418/2518 10012KT 9999 BKN020 SCT080 PROB40 TEMPO 2418/2424 4000 SHRA BKN014 TEMPO 2500/2518 3000 SHRA BKN014 FEW018TCU 
NWWM,TAF NWWM 241700Z 2418/2518 08014KT 9999 SCT035 PROB30 TEMPO 2506/2515 4000 SHRA FEW020TCU
NWWR,TAF NWWR 241700Z 2418/2518 08010KT 9999 BKN020 SCT080 PROB40 TEMPO 2418/2506 SHRA PROB40 TEMPO 2506/2518 4000 SHRA BKN014 FEW018TCU
NWWU,TAF NWWU 241700Z 2418/2518 11014KT 9999 BKN020 BKN040 PROB40 TEMPO 2418/2518 3000 SHRA BKN014 FEW018CB
NWWW,TAF NWWW 241700Z 2418/2518 VRB02KT 9999 FEW030 BECMG 2422/2424 06012KT PROB40 TEMPO 2506/2512 4000 SHRA FEW020TCU
NZAA,TAF NZAA 241726Z 2418/2600 16005KT 9999 FEW020 BECMG 2421/2423 05010KT
NZCH,TAF NZCH 241726Z 2418/2600 24005KT 9999 SCT025 BECMG 2422/2500 03012KT BECMG 2512/2514 VRB02KT BECMG 2518/2520 30010KT
NZFX,TAF AMD NZFX 241501Z 2415/2515 05012KT 9999 BKN040 BKN065 OVC150 QNH2942INS GRID22012KT BECMG 2423/2501 06015KT 9999 DRSN SCT060 BKN100 BKN180 QNH2948INS GRID23015KT 
NZSP,TAF NZSP 241455Z 2415/2515 35008KT 8000 IC SCT005 QNH2852INS ALL WINDS GRID TEMPO 2417/2420 3200 IC BKN005 BKN040 BECMG 2419/2421 35013KT 0800 IC BLSN OVC005 QNH2866INS 
NZWD,TAF NZWD 241457Z 2415/2515 07012KT 9999 BKN040 OVC065 QNH2941INS GRID24012KT BECMG 2423/2501 08015KT 9999 DRSN SCT060 BKN100 BKN180 QNH2948INS GRID25015KT 
NZWN,TAF NZWN 241726Z 2418/2600 16015KT 9999 SCT025 BECMG 2506/2508 36005KT BECMG 2516/2518 34015KT BECMG 2522/2600 34020G30KT
OBBI,TAF OBBI 241700Z 2418/2600 VRB05KT CAVOK
OEAB,TAF OEAB 241100Z 2412/2518 21012KT 9999 FEW020 PROB40 TEMPO 2412/2418 FEW020CB BECMG 2418/2420 VRB03KT CAVOK BECMG 2506/2508 19010KT
OEAH,TAF OEAH 241000Z 2412/2518 02008KT CAVOK BECMG 2418/2420 VRB03KT BECMG 2506/2508 34005KT
OEAO,TAF OEAO 241100Z 2412/2518 30010KT CAVOK BECMG 2417/2419 VRB03KT BECMG 2508/2510 19010KT
OEBA,TAF OEBA 241100Z 2412/2518 24012KT 9999 FEW030 PROB40 TEMPO 2412/2418 FEW020CB BECMG 2418/2420 VRB03KT CAVOK BECMG 2506/2508 17010KT
OEBH,TAF OEBH 241100Z 2412/2518 13011KT CAVOK BECMG 2418/2420 18006KT BECMG 2506/2508 15010KT
OEDF,TAF OEDF 241500Z 2418/2524 21005KT CAVOK TEMPO 2500/2506 5000 BR NSC BECMG 2509/2511 06008KT
OEDM,TAF OEDM 240400Z 2405/2421 18012KT CAVOK
OEDR,TAF OEDR 241000Z 2412/2518 07008KT CAVOK BECMG 2418/2420 VRB03KT TEMPO 2500/2505 5000 BR NSC BECMG 2504/2506 24006KT
OEGN,TAF OEGN 241100Z 2412/2518 24012KT 9999 SCT030 TEMPO 2412/2420 TS FEW035CB BECMG 2416/2418 09008KT BECMG 2420/2422 VRB03KT 7000 FEW030 BECMG 2506/2508 23012KT
OEGS,TAF OEGS 241100Z 2412/2518 20008KT CAVOK BECMG 2418/2420 VRB03KT BECMG 2506/2508 18008KT
OEGT,TAF OEGT 241100Z 2412/2518 30008KT 9999 FEW030 BECMG 2422/2500 13012KT 7000 BKN030
OEHL,TAF OEHL 241100Z 2412/2518 24011KT CAVOK BECMG 2418/2420 26005KT BECMG 2506/2508 19012KT
OEJN,TAF OEJN 241700Z 2418/2524 03004KT 7000 FEW040 BECMG 2506/2508 30010KT CAVOK BECMG 2516/2518 03005KT 7000 FEW040
OEKJ,TAF OEKJ 241100Z 2412/2518 VRB03KT CAVOK BECMG 2418/2420 19008KT
OEKM,TAF OEKM 241100Z 2412/2518 21012KT 9999 FEW020 PROB40 TEMPO 2412/2418 FEW020CB BECMG 2418/2420 VRB03KT CAVOK BECMG 2506/2508 19010KT
OEMA,TAF OEMA 241700Z 2418/2524 VRB03KT 9999 FEW040 BECMG 2508/2510 14006KT 9999 SCT040 BECMG 2515/2517 27006KT
OENG,TAF OENG 241100Z 2412/2518 07010KT CAVOK BECMG 2418/2420 VRB03KT BECMG 2506/2508 13008KT
OEPA,TAF OEPA 241000Z 2412/2518 22006KT CAVOK BECMG 2418/2420 16008KT BECMG 2502/2504 28008KT
OEPS,TAF OEPS 240900Z 2409/2515 21009KT 9999 SKC QNH3010INS BECMG 2413/2414 VRB06KT 9999 SKC QNH3004INS BECMG 2511/2512 20009KT 9999 SKC QNH3003INS TX36/2411Z TN19/2502Z
OERF,TAF OERF 241100Z 2412/2518 35010KT CAVOK BECMG 2418/2420 01005KT BECMG 2506/2508 07010KT
OERK,TAF OERK 241700Z 2418/2524 21006KT CAVOK BECMG 2512/2514 11006KT BECMG 2518/2520 18006KT
OERR,TAF AMD OERR 241300Z 2413/2518 05018KT 7000 FEW040 TEMPO 2413/2418 2500 BLDU BECMG 2418/2420 04008KT 9999 FEW040 BECMG 2506/2508 09014KT 
OESH,TAF OESH 241100Z 2412/2518 09012KT CAVOK BECMG 2420/2422 11005KT BECMG 2506/2508 07012KT
OESK,TAF OESK 241100Z 2412/2518 07010KT 9999 FEW040 BECMG 2506/2508 09015KT SCT040
OETB,TAF OETB 241100Z 2412/2518 VRB03KT 9999 FEW040 BECMG 2422/2500 18010KT SCT040 BKN090
OETF,TAF OETF 241100Z 2412/2518 28012KT 9999 FEW030 PROB30 TEMPO 2412/2418 FEW030CB BECMG 2418/2420 VRB03KT 7000 NSC BECMG 2506/2508 17010KT CAVOK
OETR,TAF OETR 241100Z 2412/2518 11014KT 9999 FEW030 BECMG 2420/2422 09015KT SCT040 SCT090
OEWD,TAF OEWD 241100Z 2412/2518 10012KT CAVOK BECMG 2420/2422 11005KT BECMG 2508/2510 14012KT
OEWJ,TAF OEWJ 241100Z 2412/2518 34014KT CAVOK BECMG 2418/2420 02005KT BECMG 2506/2508 33011KT 9999 FEW040
OEYN,TAF OEYN 241100Z 2412/2518 28018KT 7000 NSC PROB30 TEMPO 2412/2415 4000 BLDU BECMG 2415/2417 28008KT CAVOK BECMG 2420/2422 VRB03KT BECMG 2508/2510 28015KT 9999 FEW040
OIAA,TAF OIAA 241730Z 2418/2524 15006KT 7000 NSC BECMG 2521/2422 3000 BR TEMPO 2422/2505 0300 FG OVC001 BECMG 2507/2509 7000 TEMPO 2521/2524 3000 HZ
OIAW,TAF OIAW 241730Z 2418/2524 14006KT 6000 NSC BECMG 2421/2423 5000 HZ TEMPO 2501/2507 3000 HZ BECMG 2508/2510 7000 BECMG 2521/2523 5000 HZ
OIBB,TAF OIBB 241710Z 2418/2503 28008KT 7000 NSC BECMG 2420/2422 4000 HZ TEMPO 2421/2424 3000 BR/HZ TEMPO 2500/2503 1500 BR
OIBK,TAF OIBK 241730Z 2418/2524 28008KT 8000 NSC TEMPO 2422/2506 5000 HZ/BR
OIBP,TAF OIBP 241710Z 2418/2503 32006KT 7000 NSC BECMG 2423/2501 4000 HZ TEMPO 2501/2503 2000 HZ
OICC,TAF OICC 241710Z 2418/2503 32008KT 8000 FEW030CB SCT035 BKN100 TEMPO 2418/2422 27018KT 3000 TSRA SCT030CB SCT035 BKN100 BECMG 2422/2424 FEW030 SCT100
OIFM,TAF OIFM 241730Z 2418/2524 28006KT CAVOK
OIGG,TAF OIGG 241710Z 2418/2503 21008KT 7000 SCT015 BKN100 TEMPO 2418/2421 3000 RA DZ BR BKN008 FEW015CB OVC080 BECMG 2421/2423 3000 BR BKN020 TEMPO 2421/2424 34010KT 2000 BR BKN015 TEMPO 2500/2503 1500 BR
OIIE,TAF OIIE 241730Z 2418/2524 30014KT 8000 FEW040 SCT100 TEMPO 2418/2422 30020G30KT SHRA FEW030CB SCT035 BKN090 TEMPO 2506/2513 30025KT
OIII,TAF OIII 241730Z 2418/2524 29012KT 8000 FEW040 SCT100 TEMPO 2418/2422 30020G30KT 5000 TSSHRA SCT030CB SCT035 BKN090 TEMPO 2506/2513 30024KT
OIIP,TAF OIIP 241710Z 2418/2503 31020KT 6000 SCT030 FEW035CB BKN100 PROB30 TEMPO 2418/2423 33028KT 2000 SHRA SA BECMG 2423/2501 31010KT SCT040 SCT100 TEMPO 2501/2503 3000 HZ/BR
OIKB,TAF OIKB 241730Z 2418/2524 35006KT 5000 HZ NSC TEMPO 2422/2505 3000 BR/HZ PROB40 1500 BR BECMG 2506/2507 16006KT TEMPO 2508/2515 23012KT
OIKK,TAF OIKK 241730Z 2418/2524 12006KT 8000 NSC
OIMM,TAF OIMM 241730Z 2418/2524 17008KT 8000 NSC BECMG 2507/2508 FEW035 SCT100 TEMPO 2508/2514 32020G33KT 3000 TSSHRA/SA SCT030CB SCT035 BKN090 TEMPO 2520/2524 4000 DZ BKN010 OVC060
OING,TAF OING 241710Z 2418/2503 26008KT 8000 SCT030 BKN090 TEMPO 2418/2422 25018KT 3000 TS/SHRA BR BKN010 SCT025CB OVC080 BECMG 2422/2424 3000 RA BR SCT020 FEW025CB OVC080 TEMPO 2500/2503 24016KT 1000 TSRA BR SCT020 SCT025CB OVC080
OINZ,TAF OINZ 241710Z 2418/2503 23008KT 7000 FEW025CB SCT030 BKN080 TEMPO 2418/2422 25016KT 2000 RA/SHRA BR BKN010 FEW020CB OVC080 BECMG 2422/2424 3000 RA DZ BR SCT015 FEW020CB BKN030 OVC080 TEMPO 2500/2503 1500 TS/SHRA BR SCT020CB BKN030 OVC080
OISS,TAF OISS 241730Z 2418/2524 30006KT 8000 NSC
OITL,TAF OITL 241710Z 2418/2503 08008KT 6000 FEW030 BECMG 2418/2420 2000 BR SCT015 TEMPO 2421/2424 0800 FG BKN004 TEMPO 2500/2503 0100 FG VV002
OITR,TAF OITR 241730Z 2418/2524 28006KT 8000 FEW040
OITT,TAF OITT 241730Z 2418/2524 06008KT 8000 FEW035 SCT100
OIYY,TAF OIYY 241710Z 2418/2503 01008KT 8000 NSC
OIZH,TAF OIZH 241730Z 2418/2524 20006KT 8000 NSC TEMPO 2508/2515 04014KT
OJAI,TAF OJAI 241650Z 2418/2524 VRB02KT 5000 HZ FEW030 PROB30 2503/2505 3000 BR BECOMG 2506/2508 14018KT -RA SCT040TCU SCT035 PROB40 TEMPO 2509/2524 15022KT 3000 TSRA BLDU FEW030CB SCT035 BKN080
OJAM,TAF OJAM 241650Z 2418/2524 VRB02KT 5000 HZ FEW030 PROB30 2503/2505 4000 BR BECOMG 2506/2508 13016KT -RA SCT040TCU SCT035 PROB40 TEMPO 2509/2524 14020KT 3000 TSRA FEW030CB SCT035 BKN080
OJAQ,TAF OJAQ 241650Z 2418/2524 36010KT CAVOK BECOMG 2512/2514 19012KT 6000 SCT045 PROB40 2512/2524 18020KT TSRA BLDU FEW040CB
OKAS,TAF OKAS 240000Z 2400/2506 22009KT 9999 SKC QNH2995INS BECMG 2410/2411 VRB06KT 9999 SKC QNH2986INS BECMG 2417/2418 18012KT 9999 SKC QNH2999INS BECMG 2500/2501 26009KT 9999 SKC QNH2988INS TX40/2412Z TN23/2402Z
OKBK,TAF OKBK 241700Z 2418/2524 18010KT 7000 NSC TEMPO 2420/2518 VRB03KT BECMG 2518/1520 33010KT
OLBA,TAF OLBA 241600Z 2418/2524 04008KT 8000 SCT030 BECMG 2421/2423 12004KT 9999 FEW030 BECMG 2506/2509 36012KT 8000 NSC
OMAA,TAF OMAA 241700Z 2418/2600 36008KT 8000 NSC BECMG 2418/2420 06006KT BECMG 2500/2502 12005KT PROB30 2501/2504 3000 HZ BECMG 2508/2510 32012KT BECMG 2518/2520 08006KT
OMAD,TAF OMAD 241700Z 2418/2600 36006KT 8000 NSC BECMG 2418/2420 06005KT BECMG 2500/2502 12005KT PROB30 2501/2504 4000 HZ BECMG 2508/2510 32010KT BECMG 2518/2520 08005KT
OMAL,TAF OMAL 241700Z 2418/2600 36008KT CAVOK BECMG 2418/2420 06006KT BECMG 2509/2511 30008KT BECMG 2518/2520 06006KT
OMDB,TAF OMDB 241700Z 2418/2600 12005KT CAVOK PROB30 2500/2504 4000 HZ BECMG 2507/2509 32012KT BECMG 2515/2517 12005KT PROB30 2523/2600 4000 HZ
OMDW,TAF OMDW 241700Z 2418/2600 12005KT CAVOK PROB30 2500/2505 3000 HZ BECMG 2508/2510 33014KT BECMG 2516/2518 12005KT PROB30 2523/2600 4000 HZ
OMFJ,TAF OMFJ 241700Z 2418/2600 29008KT 7000 NSC BECMG 2506/2508 09008KT BECMG 2514/2516 VRB03KT BECMG 2519/2521 29008KT
OMRK,TAF OMRK 241700Z 2418/2600 VRB02KT CAVOK PROB30 2500/2504 3000 HZ BECMG 2507/2509 33010KT BECMG 2514/2516 VRB02KT PROB30 2523/2600 4000 HZ
OMSJ,TAF OMSJ 241700Z 2418/2600 12005KT CAVOK PROB30 2500/2505 3000 HZ BECMG 2507/2509 32012KT BECMG 2515/2517 12005KT PROB30 2523/2600 4000 HZ
OODQ,TAF OODQ 241700Z 2418/2518 19006KT 8000 NSC PROB30 TEMPO 2421/2504 VRB02KT 4000 BR SCT010 BECMG 2507/2509 10010KT
OOMS,TAF OOMS 241700Z 2418/2524 22007KT 8000 NSC BECMG 2506/2508 05010KT BECMG 2515/2517 VRB02KT BECMG 2518/2520 20010KT
OOSA,TAF OOSA 241740Z 2418/2600 VRB03KT 9999 FEW025 BECMG 2508/2509 17010KT BECMG 2514/2515 VRB03KT
OOSH,TAF OOSH 241700Z 2418/2524 VRB02KT 8000 NSC BECMG 2507/2509 06010KT BECMG 2515/2517 VRB02KT
OPBW,TAF OPBW 241545Z 2418/2512 18008KT 4000 FU NSC TN17/2501Z TX34/2510Z PROB30 TEMPO 2501/2505 00000KT 1500 BR NSC
OPDG,TAF OPDG 241545Z 2418/2512 13010KT 4000 FU NSC TN17/2501Z TX33/2510Z
OPFA,TAF OPFA 241550Z 2418/2512 VRB02KT 4000 FU NSC TX31/2509Z TN16/2501Z TEMPO 2500/2504 00000KT 1500 BR NSC FM250600 31004KT 5000 HZ NSC
OPGD,TAF OPGD 241540Z 2418/2518 VRB03KT 2500 BR NSC TEMPO 2423/2503 00000KT 0800 FG NSC FM250600 23010KT 5000 HZ NSC
OPIS,TAF OPIS 241530Z 2418/2524 24006KT 6000 FEW040 TEMPO 2500/2503 33006KT 5000 FU FEW040 BECMG 2503/2507 27008KT 6000 FEW040 TEMPO 2515/2521 09006KT
OPKC,TAF OPKC 241540Z 2418/2524 26005KT 6000 NSC TEMPO 2423/2503 VRB03KT 4000 FU NSC FM250600 26008KT 6000 NSC
OPLA,TAF OPLA 241545Z 2418/2524 VRB02KT 4000 FU NSC TX31/2510Z TN16/2501Z BECMG 2422/2424 00000KT 3000 FU NSC TEMPO 2501/2504 1500 BR BECMG 2506/2508 29005KT 4000 HZ NSC
OPMT,TAF OPMT 241550Z 2418/2512 23005KT 4000 FU NSC TN18/2501Z TX32/2510Z PROB30 TEMPO 2501/2505 00000KT 2000 FU NSC
OPNH,TAF OPNH 241540Z 2418/2524 18005KT 4000 FU NSC TEMPO 2423/2503 VRB03KT 3000 FU NSC FM250600 23008KT 5000 HZ NSC
OPPS,TAF OPPS 241540Z 2418/2524 31006KT 4000 FU FEW100 TEMPO 2418/2422 31008G18KT 4000 FU FEW080 SCT120 BECMG 2503/2505 05006KT 5000 HZ FEW100
OPRK,TAF OPRK 241545Z 2418/2512 23010KT 4000 FU NSC TN17/2501Z TX36/2510Z
OPSK,TAF OPSK 241540Z 2418/2518 33008KT 5000 HZ NSC TEMPO 2423/2503 VRB03KT 3000 FU NSC FM250600 26008KT 5000 HZ NSC
OPST,TAF OPST 241550Z 2418/2524 31006KT 4000 FU NSC TX30/2510Z TN15/2501Z MPO 2500/2504 05004KT 1500 BR
ORBI,TAF ORBI 241700Z 2418/2518 32008KT 8000 NSC
ORER,TAF ORER 241700Z 2418/2518 34006KT 8000 NSC BECMG 2508/2510 28008KT
ORMM,TAF ORMM 241600Z 2418/2518 16006KT CAVOK BECMG 2422/2424 24006KT BECMG 2509/2511 29006KT
ORNI,TAF ORNI 241700Z 2418/2518 34010KT 7000 NSC
ORSU,TAF ORSU 241700Z 2418/2518 32005KT 8000 NSC PROB30 2423/2504 3000 BR NSC BECMG 2508/2510 9999 FEW045
OSAP,OSAP 241700Z 2418/2518 VRB03KT CAVOK BECMG 2510/2512 09008KT CAVOK
OSDI,OSDI 241700Z 2418/2524 17010KT 9999 FEW030 SCT100 TEMPO 2420/2510 VRB03KT CAVOK
OSLK,OSLK 241700Z 2418/2518 08005KT CAVOK TEMPO 2508/2518 31012KT 9999 FEW030
OTBD,TAF OTBD 241705Z 2418/2524 VRB03KT CAVOK PROB40 TEMPO 2418/2420 35004KT TEMPO 2500/2507 24003KT PROB30 TEMPO 0501/2504 5000 HZ NSC BECMG 2507/2509 11008KT TEMPO 2515/2521 05005KT
OTBH,TAF OTBH 240800Z 2408/2514 VRB06KT 9999 SKC QNH2995INS BECMG 2410/2411 11009KT 9999 SKC QNH2990INS BECMG 2417/2418 04009KT 9999 SKC QNH2992INS TX37/2412Z TN20/2503Z
OTHH,TAF OTHH 241705Z 2418/2524 VRB03KT CAVOK TEMPO 2500/2507 24003KT PROB30 TEMPO 25012504 5000 HZ NSC BECMG 2507/2509 12008KT TEMPO 2515/2521 06005KT
PAAQ,PAAQ 241727Z 2418/2518 35005KT P6SM SCT200
PABE,PABE 241733Z 2418/2518 28010KT P6SM VCFG FEW001 FM242300 VRB06KT P6SM FEW050 SCT100 BKN200 FM251400 10010KT 4SM -SN OVC030
PABI,TAF AMD PABI 241435Z 2414/2520 VRB06KT 9999 BKN008 OVC025 510043 QNH2984INS BECMG 2418/2419 VRB06KT 9999 SCT150 510043 QNH2967INS TXM03/2500Z TNM09/2415Z
PABR,PABR 241728Z 2418/2518 11024G33KT 6SM -SN BLSN BR OVC006 TEMPO 2418/2422 1 1/2SM -SN BLSN BR FM242200 11019KT 2SM -SN BR BKN004 OVC010 FM250300 13016KT 6SM -SN BR OVC012 FM251000 13017KT 1 1/2SM -SN BR OVC010
PABT,PABT 241728Z 2418/2518 36005KT 6SM -SN BR BKN020 OVC030 FM242200 35004KT P6SM SCT015 BKN050 FM251000 35002KT P6SM OVC025
PACD,PACD 241727Z 2418/2518 22008KT 6SM -RA SCT025 OVC040 TEMPO 2418/2421 BKN025 FM242100 21015G25KT 4SM -RA BR OVC015 FM250300 23020G30KT P6SM -RA OVC025 FM250600 21025G35KT P6SM BKN035 FM251200 19030G40KT 5SM -RA BR OVC025
PACV,PACV 241727Z 2418/2518 VRB05KT P6SM SKC
PADL,PADL 241733Z 2418/2518 VRB06KT P6SM SKC FM242300 VRB06KT P6SM FEW030 SCT100 BKN200 FM251200 10010KT 4SM -SN OVC030
PADQ,PADQ 241912Z 2419/2518 28015G25KT P6SM SCT050 TEMPO 2419/2423 5SM -RA BR OVC025 FM250400 28007KT P6SM FEW050 FM251500 26005KT P6SM VCSH SCT050 OVC100 FM251700 24005KT 6SM -RA BR SCT015 BKN030
PADU,PADU 241727Z 2418/2518 24007KT P6SM -RA BKN025 OVC035 TEMPO 2418/2422 24012G20KT SCT025 BKN040 FM242200 22015G25KT P6SM VCSH SCT025 BKN040 FM250600 21020G30KT P6SM BKN040 FM251000 21020G30KT 4SM -RA BR OVC025
PAED,TAF PAED 241300Z 2413/2519 03006KT 9999 BKN200 QNH2972INS TX01/2500Z TNM07/2414Z
PAEI,TAF PAEI 241400Z 2414/2520 VRB03KT 0800 FZFG OVC002 620029 QNH2995INS BECMG 2419/2420 VRB03KT 9999 NSW BKN030 QNH2992INS BECMG 2422/2423 VRB03KT 9999 BKN025 620255 QNH2997INS BECMG 2504/2505 VRB03KT 4800 BR OVC010 620107 QNH3000INS TEMPO 2512/2515 0800 FZFG BECMG 2514/2515 VRB03KT 9999 NSW SCT025 QNH3007INS TXM01/2423Z TNM08/2513Z
PAEN,PAEN 241727Z 2418/2518 05006KT P6SM BKN200 FM251700 04004KT P6SM SCT050 BKN100
PAFA,PAFA 241728Z 2418/2524 04005KT P6SM FEW012 BKN060 FM250600 VRB03KT P6SM SCT060 BKN100 FM251200 VRB03KT P6SM BKN015 FM252000 05004KT P6SM SCT015 BKN250
PAFB,TAF AMD PAFB 241737Z 2417/2520 VRB04KT 0800 FZFG SCT000 SCT060 QNH2985INS TEMPO 2414/2420 0400 FZFG VV001 620001 BECMG 2420/2421 VRB04KT 9999 NSW SKC QNH2985INS TEMPO 2512/2518 VRB04KT 0800 FZFG VV001 620001 TXM02/2500Z TNM15/2417Z
PAGA,PAGA 241728Z 2418/2518 10004KT P6SM OVC011 FM250000 15005KT P6SM -SN BKN015 OVC025 AMD LTD TO CLD VIS WX
PAGK,PAGK 241727Z 2418/2518 34003KT P6SM SKC
PAGS,PAGS 241730Z 2418/2518 32003KT P6SM BKN100 AMD LTD TO CLD VIS AND WIND
PAGY,PAGY 241730Z 2418/2518 02011KT P6SM OVC060 AMD LTD TO CLD VIS AND WIND
PAHN,PAHN 241730Z 2418/2518 31010KT P6SM OVC060 AMD LTD TO CLD VIS AND WIND
PAHO,PAHO 241727Z 2418/2518 VRB06KT P6SM BKN100 FM251700 06003KT P6SM VCSH SCT050 BKN080
PAIL,PAIL 241733Z 2418/2518 03010KT 6SM -SNRA BR FEW010 OVC025 FM250300 29006KT P6SM SCT025 FM250600 VRB05KT P6SM SKC FM251200 05006KT P6SM SCT100 BKN200
PAJN,PAJN 241730Z 2418/2518 VRB05KT P6SM OVC100
PAKN,PAKN 241843Z 2419/2518 20010KT 6SM BR OVC003 TEMPO 2419/2422 SCT003 FM250300 31006KT P6SM SCT200 FM250900 15005KT P6SM FEW050 BKN100 OVC200 FM251200 13009KT 3SM -SN BR FEW010 BKN030 OVC050 FM251500 14008KT 5SM -SN BR OVC025
PAKT,PAKT 241730Z 2418/2518 31007KT P6SM BKN040 FM250300 14010KT 5SM -RA BR FEW010 BKN020 OVC035
PAKW,PAKW 241730Z 2418/2518 VRB06KT P6SM VCSH BKN035 BKN070 WS020/31035KT FM250600 VRB04KT 5SM -RA BR FEW010 BKN025 OVC040 AMD LTD TO CLD VIS AND WIND
PANC,PANC 241727Z 2418/2524 35006KT P6SM SCT200
PAOM,PAOM 241728Z 2418/2518 30006KT P6SM VCSH SCT025 OVC050 TEMPO 2418/2422 6SM -SHSN BR BKN025 FM242200 26005KT P6SM VCSH SCT015 BKN040 FM250400 13006KT P6SM VCSH SCT015 BKN040 OVC100 FM251100 07012KT P6SM VCSH BKN025 OVC040
PAOR,PAOR 241728Z 2418/2518 VRB03KT P6SM OVC040 FM251000 VRB03KT P6SM VCFG OVC015 FM251500 VRB03KT P6SM VCFG OVC007
PAOT,PAOT 241728Z 2418/2518 13010KT 1 1/2SM -SHSN BR OVC007 TEMPO 2418/2421 1SM -SHSN BR OVC004 FM242200 17008KT 3SM -SHSN BR SCT007 OVC013 FM250000 20010KT 4SM -SHSN BR SCT007 OVC015 FM250600 15008KT 6SM -SHSN BR SCT007 OVC015
PAPG,PAPG 241730Z 2418/2518 VRB04KT P6SM BKN070 FM250730 VRB02KT 6SM -RA BR SCT025 OVC050
PAQT,PAQT 241728Z 2418/2518 09010KT P6SM VCFG SCT004 FM250800 10014KT 2SM BR OVC005
PASC,PASC 241728Z 2418/2518 11011KT 1 1/2SM -SN BR OVC003 TEMPO 2418/2422 1/2SM FZFG FM250200 11011KT P6SM VCFG OVC007 FM251000 12014KT 2SM -SN BR OVC005
PASD,PASD 241727Z 2418/2518 30008KT P6SM OVC045 FM242200 22006KT 6SM -RA OVC015 FM250100 20008KT 4SM -RA BR OVC007 FM250600 22015G25KT P6SM OVC007 FM251400 20025G35KT 4SM -RA BR OVC007
PASI,PASI 241730Z 2418/2518 VRB06KT P6SM SCT025 BKN035 FM250900 VRB04KT P6SM -SHRA SCT035 OVC050
PASN,PASN 241727Z 2418/2518 15015KT P6SM -RA SCT015 BKN025 TEMPO 2418/2422 2SM -RA BR BKN007 FM242200 17015G25KT 2SM -RA BR SCT003 OVC007 FM250300 20025G35KT 1 1/2SM -RA BR SCT003 OVC007 FM251400 24030G40KT 3SM -RA BR SCT007 OVC015
PASY,TAF AMD PASY 241855Z 2418/2520 20012G18KT 1600 RA OVC002 510203 QNH2967INS TEMPO 2418/2420 0600 FG BECMG 2423/2424 29012KT 8000 BR OVC005 510053 QNH2952INS BECMG 2503/2504 30025KT 9999 NSW SCT020 BKN035 510063 QNH2958INS BECMG 2504/2505 30020G30KT 9999 OVC010 520005 QNH2961INS BECMG 2514/2515 27030G40KT 9999 FEW050 520005 QNH2986INS TX10/2504Z TN05/2418Z
PATA,PATA 241728Z 2418/2518 04004KT P6SM FEW024 FM242000 09006KT P6SM SCT035 BKN080 FM251200 07006KT P6SM BKN025
PATK,PATK 241727Z 2418/2518 VRB06KT P6SM SCT200
PAUN,PAUN 241728Z 2418/2518 08009KT 3SM -SHSN BR OVC025 FM242200 VRB05KT 4SM -SHSN BR SCT015 OVC025 FM250400 VRB05KT P6SM SCT025 BKN040 BKN100 FM251000 10012KT P6SM VCSH FEW025 BKN040 OVC100
PAVD,PAVD 241727Z 2418/2518 09009KT P6SM SKC FM242200 09010G18KT P6SM SKC
PAWG,PAWG 241730Z 2418/2518 VRB03KT P6SM FEW010 SCT030 BKN050 TEMPO 2418/2421 BKN025 BKN050 FM242100 VRB05KT P6SM BKN050 FM250900 10010KT P6SM -RA BKN025 OVC050
PAYA,PAYA 241730Z 2418/2518 06002KT P6SM SKC AMD LTD TO CLD VIS AND WIND
PGRO,PGRO 240540Z 2406/2506 11013KT P6SM VCSH SCT016 SCT050
PGSN,PGSN 241739Z 2418/2518 11011KT P6SM VCSH FEW020 SCT060
PGUA,TAF PGUA 241800Z 2418/2524 11007KT 9999 VCSH SCT018 SCT060 QNH2978INS TEMPO 2418/2508 12012G18KT 6000 -SHRA BKN018 TX30/2502Z TN24/2418Z
PGUM,PGUM 241739Z 2418/2524 11011KT P6SM VCSH FEW020 SCT050
PGWT,PGWT 240540Z 2406/2506 11013KT P6SM VCSH SCT018 SCT060
PHHI,TAF PHHI 241500Z 2415/2521 08008KT 9999 SCT025 BKN040 QNH2998INS TEMPO 2415/2422 11010G15KT 8000 -SHRA SCT010 BKN020 TEMPO 2422/2502 09012G18KT BECMG 2506/2507 VRB06KT 9000 -SHRA SCT015 BKN025 QNH3000INS TX28/2423Z TN22/2415Z
PHJH,PHJH 241734Z 2418/2518 05012KT P6SM FEW030 FEW060 FM242000 06015G25KT P6SM SCT030 SCT060 FM251000 05012KT P6SM VCSH SCT040 BKN060
PHJR,PHJR 241734Z 2418/2518 05006KT P6SM VCSH FEW025 SCT050 FM241900 09010G18KT P6SM FEW030 SCT050 FM250500 07007KT P6SM SCT035
PHKO,PHKO 241734Z 2418/2518 10007KT P6SM FEW060 FM242000 21010KT P6SM FEW030 SCT060 FM250300 15008KT P6SM SCT035 BKN050 FM250900 12006KT P6SM FEW035 SCT050
PHLI,PHLI 241734Z 2418/2518 07013KT 6SM -SHRA BKN030 OVC070 FM241900 05017KT P6SM SCT025 SCT035 BKN050 FM250900 06014KT P6SM VCSH BKN025 BKN045
PHMK,PHMK 241734Z 2418/2518 05010KT P6SM FEW060 FM242100 04018G26KT P6SM SCT040 FM250600 06013G19KT P6SM VCSH FEW030 SCT040 FM251000 05010KT P6SM VCSH SCT035 BKN060
PHNG,TAF PHNG 2415/2515 07010G18KT 9999 SCT025 SCT040 QNH2998INS TEMPO 2415/2421 08010KT 8000 -SHRA BKN025 OVC040 T28/2423Z T25/2516Z
PHNL,PHNL 241734Z 2418/2524 06011KT P6SM VCSH SCT025 SCT045 BKN070 FM242000 07016G24KT P6SM SCT025 SCT045 FM250700 06011KT P6SM SCT025 BKN045 FM251200 06015G23KT P6SM SCT025
PHNY,PHNY 241734Z 2418/2518 VRB06KT P6SM SCT025 FM250000 05012G22KT P6SM SCT025 BKN040 TEMPO 2500/2502 BKN025 FM250600 04009KT P6SM SCT025 SCT045
PHOG,PHOG 241734Z 2418/2518 05012KT P6SM FEW030 FEW060 FM242000 06019G29KT P6SM SCT030 SCT060 FM251000 05012KT P6SM VCSH SCT040 SCT060
PHTO,PHTO 241734Z 2418/2518 25007KT P6SM FEW030 SCT050 FM242000 11008KT P6SM SCT035 BKN050 FM250200 VRB06KT P6SM VCSH SCT025 BKN035 BKN050 FM251000 23004KT 6SM -SHRA BKN025 OVC050 FM251500 23004KT P6SM VCSH SCT025 BKN035 OVC050
PKMJ,PKMJ 241739Z 2418/2518 08010KT P6SM VCSH FEW015 SCT050
PKWA,PKWA 241739Z 2418/2518 07010KT P6SM VCSH SCT020 SCT050
PLCH,TAF PLCH 241723Z 2418/2518 11010KT 9999 FEW019 SCT040
PMDY,PMDY 241734Z 2418/2518 06012KT P6SM VCSH SCT015 SCT035 BKN045 FM242100 05016KT P6SM VCSH SCT025 BKN035 FM250900 05011KT P6SM SCT025 SCT035 BKN050
PTKK,PTKK 241739Z 2418/2518 12008KT P6SM VCSH SCT014 SCT060 BKN120
PTPN,PTPN 240321Z 2403/2424 14008KT P6SM VCSH BKN018 BKN120 TEMPO 2403/2407 VRB15KT 2SM +SHRA OVC017 FM240700 11008KT P6SM VCSH SCT016 BKN120
PTRO,PTRO 241739Z 2418/2518 23008KT P6SM VCSH BKN012 OVC120 TEMPO 2418/2422 26018G24KT 2SM +SHRA OVC010 FM242200 25011KT 6SM -RA VCSH BKN012 OVC120 TEMPO 2422/2502 24016G22KT 2SM +SHRA OVC010
PTSA,PTSA 240540Z 2406/2506 15008KT P6SM VCSH SCT018
PTYA,PTYA 241739Z 2418/2518 16006KT 6SM -RA VCSH BKN015 OVC120 TEMPO 2420/2424 VRB14G20KT 2SM +SHRA OVC015 FM250000 VRB05KT 6SM -RA VCSH BKN015 OVC120
PWAK,TAF PWAK 241400Z 2414/2520 07015G20KT 9999 SCT020 BKN030 QNH2998INS BECMG 2420/2421 07020G25KT 9999 SKC QNH3002INS TX30/2501Z TN27/2512Z FOR MIL USE ONLY
RCFN,TAF RCFN 241700Z 2418/2518 36008KT 9999 FEW020 TEMPO 2503/2509 03013G23KT
RCKH,TAF RCKH 241700Z 2418/2524 06005KT 9999 FEW015 BKN032 BECMG 2500/2502 28005KT BECMG 2510/2512 36005KT TEMPO 2518/2524 07005KT
RCMQ,TAF RCMQ 241700Z 2418/2518 01008KT 9999 FEW012 SCT100 TX26/2505Z TN19/2421Z BECMG 2502/2505 02015KT FEW010 SCT030 BKN050 TEMPO 2506/2511 FEW012 SCT080 BECMG 2512/2515 01008KT
RCNN,TAF RCNN 241700Z 2418/2518 03004KT 9999 FEW012 BKN080 TX29/2505Z TN21/2421Z BECMG 2421/2424 FEW012 SCT025 BKN050 BECMG 2501/2504 33008KT FEW012 SCT030 BKN080 BECMG 2505/2508 27010KT FEW012 SCT025 BKN050 BECMG 2509/2511 35006KT FEW012 BKN060 BECMG 2512/2515 03004KT FEW012 SCT080
RCSS,TAF RCSS 241700Z 2418/2518 09012KT 9999 FEW020 BKN040 TEMPO 2418/2424 11007KT BECMG 2512/2514 10005KT
RCTP,TAF RCTP 241700Z 2418/2524 06015KT 9999 FEW015 SCT050 BECMG 2500/2502 04022G32KT BECMG 2510/2512 07012KT
RJAA,TAF RJAA 241705Z 2418/2600 34014KT 9999 -RA FEW020 BKN030
RJAH,TAF RJAH 241705Z 2418/2600 36012KT 9999 FEW030
RJBB,TAF RJBB 241706Z 2418/2600 03012KT 9999 -SHRA FEW015 BKN045
RJCB,TAF RJCB 241706Z 2418/2600 35006KT 9999 FEW015
RJCC,TAF RJCC 241705Z 2418/2600 34010KT 9999 FEW015
RJCH,TAF RJCH 241709Z 2418/2600 05006KT 9999 FEW030
RJCK,TAF RJCK 241711Z 2418/2600 34006KT 9999 FEW020 SCT040
RJCM,TAF RJCM 241712Z 2418/2600 20004KT 9999 FEW020 BKN040 BECMG 2422/2500 02008KT BECMG 2506/2509 20005KT
RJEC,TAF RJEC 241708Z 2418/2600 33008KT 9999 FEW006 SCT015 TEMPO 2418/2423 3000 BR FEW003 BKN006 BECMG 2506/2509 17005KT
RJFF,TAF RJFF 241705Z 2418/2600 01013KT 8000 -SHRA FEW008 SCT015 BKN020 TEMPO 2418/2421 01015G25KT 4000 -SHRA BR BECMG 2512/2515 14006KT
RJFK,TAF RJFK 241708Z 2418/2600 36007KT 9999 FEW030
RJFM,TAF RJFM 241707Z 2418/2600 27010KT 9999 FEW030 BECMG 2422/2500 02016KT BECMG 2515/2518 32010KT BECMG 2521/2600 01013KT
RJFO,TAF RJFO 241705Z 2418/2600 34013KT 9999 FEW025 SCT040 TEMPO 2418/2421 32015G25KT
RJFR,TAF RJFR 241706Z 2418/2600 01010KT 9999 FEW030 BKN045 TEMPO 2418/2421 32015G25KT 3000 TSRA BR FEW010 SCT020 FEW025CB BKN030
RJFS,TAF RJFS 241706Z 2418/2600 34008KT 9999 FEW030 SCT050 BECMG 2419/2421 02014KT
RJFT,TAF RJFT 241705Z 2418/2600 03012KT 9999 FEW020 SCT040
RJFU,TAF RJFU 241707Z 2418/2600 01016KT 9999 FEW020 SCT030 BECMG 2515/2518 06009KT
RJGG,TAF RJGG 241705Z 2418/2600 03006KT 8000 -SHRA FEW015 BKN030 TEMPO 2419/2423 -TSRA FEW010 BKN020 FEW020CB BECMG 2506/2509 34016KT
RJNK,TAF RJNK 241706Z 2418/2600 05012KT 9999 FEW030 SCT060
RJNS,TAF RJNS 241706Z 2418/2600 03006KT 9999 FEW030 BKN060 BECMG 2506/2509 32005KT
RJNT,TAF RJNT 241705Z 2418/2600 20004KT 9999 FEW030 BECMG 2422/2500 01016KT BECMG 2509/2512 20004KT
RJOA,TAF RJOA 241705Z 2418/2600 34014KT 9999 FEW020 BKN045 BECMG 2502/2504 01012KT BECMG 2509/2512 33005KT
RJOB,TAF RJOB 241707Z 2418/2600 01010KT 9999 FEW020 SCT040 BECMG 2512/2515 32004KT
RJOC,TAF RJOC 241705Z 2418/2600 04017KT 7000 -SHRA FEW008 SCT020 BKN035 TEMPO 2418/2502 3000 TSRA BR FEW008 SCT015 FEW020CB BKN025 BECMG 2515/2518 17005KT
RJOH,TAF RJOH 241706Z 2418/2600 03018KT 7000 -SHRA FEW010 SCT020 BKN030 TEMPO 2418/2421 3000 TSRA BR FEW008 SCT015 FEW020CB BKN025 TEMPO 2421/2502 02020G32KT 3000 TSRA BR FEW008 SCT015 FEW020CB BKN025 TEMPO 2502/2506 03020G32KT BECMG 2515/2518 18005KT
RJOI,TAF RJOI 2415/2515 30009KT 9999 FEW010 SCT030 BKN050 510009 QNH2996INS TEMPO 2415/2421 36012G20KT -SHRA FM242100 01010KT 9999 FEW010 SCT030 BKN050 510009 QNH3006INS TEMPO 2421/2503 01012G22KT FM250300 01010KT 9999 FEW010 SCT030 BKN050 510009 QNH3011INS TEMPO 2503/2509 01012G24KT -SHRA FM250900 01012KT 9999 FEW010 510009 QNH3010INS TEMPO 2509/2515 01014G24KT T10/2421Z T20/2506Z
RJOK,TAF RJOK 241705Z 2418/2600 36014KT 9999 FEW025 SCT050 TEMPO 2423/2506 36019G29KT
RJOM,TAF RJOM 241705Z 2418/2600 36016KT 9999 FEW020 BKN040 BECMG 2515/2518 06007KT
RJOO,TAF RJOO 241706Z 2418/2600 33007KT 9999 FEW020 BKN040
RJOT,TAF RJOT 241706Z 2418/2600 22005KT 9999 FEW020 BKN035 BECMG 2501/2503 36007KT
RJSA,TAF RJSA 241705Z 2418/2600 21004KT 9999 FEW020 BECMG 2422/2500 04010KT BECMG 2509/2512 21004KT
RJSF,TAF RJSF 241707Z 2418/2600 36013KT 9999 FEW020
RJSI,TAF RJSI 241713Z 2418/2600 36004KT 9999 FEW020 BKN050 BECMG 2500/2502 36015KT
RJSK,TAF RJSK 241705Z 2418/2600 13004KT 9999 FEW020 SCT040 TEMPO 2418/2422 1500 BR FEW001 BKN003 BECMG 2422/2500 32005KT BECMG 2509/2512 13004KT
RJSN,TAF RJSN 241705Z 2418/2600 14006KT 9999 FEW030 BECMG 2500/2502 02012KT BECMG 2512/2515 14004KT
RJSS,TAF RJSS 241713Z 2418/2600 34004KT 9999 FEW020 BECMG 2500/2502 02013KT BECMG 2512/2515 34010KT
RJTT,TAF RJTT 241705Z 2418/2600 36018KT 9999 FEW030 BKN060
RJTY,TAF RJTY 241300Z 2413/2519 VRB06KT 8000 -SHRA FEW008 SCT010 BKN030 QNH3000INS TEMPO 2417/2421 6000 -SHRA BR FEW006 BKN015 BECMG 2500/2501 35009KT 9999 NSW FEW010 SCT020 BKN040 QNH3011INS BECMG 2503/2504 01012KT 9999 SCT050 QNH3012INS TEMPO 2504/2507 03012G18KT TX14/2505Z TN09/2419Z LAST NO AMDS AFT 2413 NEXT 2421
RKJB,TAF RKJB 241700Z 2418/2524 11006KT CAVOK TN04/2421Z TX17/2504Z TN06/2521Z BECMG 2504/2505 35008KT BECMG 2511/2512 11006KT
RKJK,TAF RKJK 241600Z 2416/2522 13006KT 9999 SKC QNH3025INS BECMG 2423/2424 06007KT 9999 SKC QNH3035INS WND 13007KT AFT 2512Z TX16/2506Z TN04/2422Z
RKNY,TAF RKNY 241700Z 2418/2524 23006KT 6000 FEW010 BKN030 OVC070 TN07/2421Z TX13/2506Z TN07/2521Z BECMG 2501/2503 05006KT BECMG 2508/2510 23006KT SCT040 BECMG 2518/2519 29006KT TEMPO 2522/2524 23006KT CAVOK
RKPC,TAF RKPC 241700Z 2418/2524 03011KT CAVOK TN10/2420Z TX16/2505Z TN13/2518Z BECMG 2501/2502 06015G25KT BECMG 2509/2510 09011KT 9999 SCT030 BECMG 2516/2517 FEW010 BKN030
RKPK,TAF RKPK 241700Z 2418/2524 03010KT 9999 SCT030 TN08/2421Z TX18/2506Z TEMPO 2503/2512 BKN030
RKSG,TAF RKSG 241900Z 2419/2601 VRB06KT 9999 SKC QNH3031INS TX14/2506Z TN03/2422Z
RKSI,TAF RKSI 241700Z 2418/2524 06007KT CAVOK TN07/2421Z TX15/2505Z TN09/2521Z BECMG 2500/2502 12006KT TEMPO 2505/2510 31007KT BECMG 2510/2512 06007KT BECMG 2513/2515 14006KT
RKSM,TAF RKSM 241700Z 2418/2524 03006KT 9999 SCT040 TN04/2421Z TX16/2506Z
RKSO,TAF RKSO 241300Z 2413/2519 VRB06KT 9999 SCT070 QNH3025INS BECMG 2501/2502 07012KT 9999 SKC QNH3030INS BECMG 2507/2508 VRB06KT 9999 FEW050 QNH3035INS TX17/2505Z TN03/2422Z
RKSS,TAF RKSS 241700Z 2418/2524 34006KT CAVOK TN03/2421Z TX16/2505Z TN05/2522Z BECMG 2419/2420 07005KT BECMG 2506/2508 34005KT BECMG 2515/2517 10005KT
RKTN,TAF RKTN 241700Z 2418/2524 06006KT 9999 SCT030 TN06/2421Z TX16/2506Z
RKTU,TAF RKTU 241700Z 2418/2524 06008KT CAVOK TN00/2421Z TX16/2506Z
ROAH,TAF ROAH 241705Z 2418/2600 02020KT 9999 FEW025 SCT040
RODN,TAF RODN 241600Z 2416/2522 01012KT 9999 SCT030 QNH3004INS TEMPO 2501/2506 02015G28KT BECMG 2505/2506 03010G18KT 9999 BKN030 QNH3009INS BECMG 2514/2515 36010KT 9999 BKN030 QNH3009INS TX26/2504Z TN21/2418Z
ROIG,TAF ROIG 241706Z 2418/2600 03017KT 9999 FEW025 BKN035
ROTM,TAF ROTM 2415/2515 01010KT 9999 SCT040 510005 511403 QNH2999INS BECMG 2420/2422 02008KT 9999 SCT040 510005 511403 QNH3000INS TEMPO 2501/2507 02010G15KT BKN040 FM251000 05010KT 9999 BKN040 510005 511403 QNH3001INS T20/2415Z T25/2503Z
RPLB,TAF RPLB 241700Z 2418/2518 05004KT 9999 FEW020 TX33/2506Z TN25/2421Z TEMPO 2418/2424 06006KT FEW018CB FEW020 SCT080 BKN300
RPLC,TAF RPLC 241700Z 2418/2524 34008KT 9999 FEW020 BKN300 TX35/2506Z TN25/2421Z TEMPO 2418/2424 29006KT SCT020 BKN100
RPLI,TAF RPLI 241700Z 2418/2518 02010KT 9999 FEW018 SCT100 BKN280 TEMPO 2418/2424 FEW017CB SCT018 BKN100 BECMG 2500/2502 04016KT
RPLL,TAF RPLL 241700Z 2418/2524 08006KT 9999 FEW025 SCT100 TX33/2506Z TN26/2421Z TEMPO 2418/2423 VRB02KT FEW025 TEMPO 2506/2512 06012KT -SHRA FEW020CB SCT023 BKN100
RPMD,TAF RPMD 241700Z 2418/2518 35005KT 9999 FEW016 SCT090 BKN260 TEMPO 2418/2423 VRB03KT 6000 -SHRA FEW015CB SCT016 OVC080
RPMR,TAF RPMR 241700Z 2418/2518 02007KT 9999 FEW018 SCT080 BKN250 TEMPO 2418/2424 32004KT -SHRA FEW017CB SCT018 BKN080
RPMZ,TAF RPMZ 241700Z 2418/2518 27006KT 9999 FEW017 SCT090 BKN300 TEMPO 2418/2424 30004KT -SHRA FEW016CB SCT017 BKN090
RPVD,TAF RPVD 241700Z 2418/2518 02006KT 9999 FEW015 SCT070 BKN220 TEMPO 2418/2424 32004KT -SHRA FEW014CB SCT015 OVC070
RPVM,TAF RPVM 241700Z 2418/2524 02006KT 9999 FEW020 BKN300 TEMPO 2418/2424 30009KT 8000 TSRA FEW018CB OVC090 TEMPO 2500/2506 04010KT -SHRA FEW018CB BKN250
RPVP,TAF RPVP 241700Z 2418/2518 03006KT 9999 FEW019 SCT080 BKN240 TEMPO 2418/2424 27004KT FEW017CB FEW019 SCT080
SAAR,TAF SAAR 241700Z 2418/2518 09010KT CAVOK TX32/2518Z TN17/2510Z BECMG 2423/2501 02010KT
SABE,TAF SABE 241700Z 2418/2518 09010KT CAVOK TX25/2518Z TN17/2510Z BECMG 2507/2509 02010KT SCT050 BECMG 2514/2516 09010KT
SACO,TAF SACO 241700Z 2418/2518 05015G25KT 9999 FEW035 TX32/2518Z TN16/2510Z BECMG 2423/2502 36010KT CAVOK BECMG 2512/2515 02020KT
SADF,TAF SADF 241700Z 2418/2518 09015KT CAVOK TX26/2518Z TN15/2509Z BECMG 2505/2507 02010KT BECMG 2509/2511 02015G25KT
SAEZ,TAF SAEZ 241700Z 2418/2518 07015KT 9999 SCT030 TX27/2518Z TN15/2509Z BECMG 2500/2503 02010KT CAVOK BECMG 2509/2512 02015KT
SAME,TAF SAME 241700Z 2418/2518 14005KT CAVOK TX30/2420Z TN15/2510Z BECMG 2500/2502 18005KT 9999 FEW040 FEW050CB
SANR,TAF SANR 241700Z 2418/2518 23010KT CAVOK TX31/2518Z TN20/2510Z BECMG 2419/2421 07010KT
SANT,TAF SANT 241700Z 2418/2518 02010KT 6000 NSC TX32/2518Z TN19/2510Z BECMG 2423/2502 02005KT
SARE,TAF SARE 241700Z 2418/2518 08010KT CAVOK TX32/2419Z TN18/2510Z
SARF,TAF SARF 241700Z 2418/2518 09010KT CAVOK TX32/2419Z TN17/2510Z
SARI,TAF SARI 241700Z 2418/2518 VRB03KT CAVOK TX31/2419Z TN15/2510Z
SARP,TAF SARP 241700Z 2418/2518 09005KT CAVOK TX30/2419Z TN16/2510Z
SASA,TAF SASA 241700Z 2418/2518 02010KT 9999 FEW035 TX29/2518Z TN14/2510Z BECMG 2423/2502 27005KT CAVOK BECMG 2515/2518 05015KT
SASJ,TAF SASJ 241700Z 2418/2518 05010KT 9999 FEW050 TX32/2518Z TN18/2510Z TEMPO 2419/2421 05015KT BECMG 2423/2502 29005KT
SAVC,TAF SAVC 241700Z 2418/2518 29015G30KT CAVOK TX22/2418Z TN13/2512Z BECMG 2423/2501 27020KT BECMG 2508/2510 VRB05KT BECMG 2514/2516 09015KT
SAWE,TAF SAWE 241700Z 2418/2518 28020KT 9999 BKN040 TX13/2418Z TN00/2508Z TEMPO 2419/2424 9000 -RA BKN030 BECMG 2504/2506 27010KT CAVOK BECMG 2514/2516 36010KT SCT040 BKN060
SAWG,TAF SAWG 241700Z 2418/2518 28015KT 9000 -RA SCT030TCU BKN035 TX16/2419Z TN01/2509Z BECMG 2500/2502 25020G30KT 9999 SCT030 BECMG 2506/2509 VRB03KT CAVOK BECMG 2514/2516 02020KT
SAWH,TAF SAWH 241700Z 2418/2518 25010KT 9999 SCT045 TX10/2518Z TN02/2509Z TEMPO 2423/2503 6000 SHRA SCT030 BKN050 FEW050TCU BECMG 2510/2512 VRB03KT 9999 BKN030
SAZM,TAF SAZM 241700Z 2418/2518 05018KT CAVOK TX22/2516Z TN10/2509Z BECMG 2502/2504 34010KT 3000 BR BKN004 TEMPO 2507/2510 34005KT 0500 FG OVC002 BECMG 2512/2513 9999 BKN015 BECMG 2515/2517 05015KT 9999 SCT035
SAZN,TAF SAZN 241700Z 2418/2518 26010KT CAVOK TX27/2518Z TN12/2509Z BECMG 2507/2509 VRB05KT
SAZS,TAF SAZS 241700Z 2418/2518 30020G35KT 9999 SCT050 TX18/2518Z TN06/2509Z BECMG 2500/2502 VRB05KT BKN050
SBAF,TAF SBAF 241500Z 2418/2506 12005KT 9999 FEW030 SCT040 TX25/2418Z TN20/2506Z PROB40 TEMPO 2418/2422 8000 TSRA BKN030 FEW035CB RMK PEC
SBAN,TAF SBAN 241500Z 2418/2506 09005KT 9999 SCT030 FEW035TCU TX25/2418Z TN18/2506Z PROB40 TEMPO 2418/2422 8000 TSRA BKN035 FEW040CB BECMG 2500/2501 CAVOK RMK PEC
SBAR,TAF SBAR 241500Z 2418/2518 06012KT 9999 SCT020 TN24/2509Z TX29/2516Z PROB40 TEMPO 2423/2503 5000 RA BKN020 RMK PGX
SBAT,TAF SBAT 241500Z 2418/2506 12005KT 9999 FEW020 FEW025TCU TX35/2419Z TN25/2506Z RMK PGY
SBBE,TAF SBBE 241500Z 2418/2518 34010KT 9999 SCT025 FEW035TCU TN24/2508Z TX32/2515Z BECMG 2421/2423 11010KT BECMG 2500/2502 07005KT CAVOK BECMG 2510/2512 SCT015 BECMG 2515/2517 35010KT SCT030 FEW035TCU RMK PGY
SBBI,TAF SBBI 241500Z 2418/2506 10005KT 9999 SCT030 TX19/2418Z TN13/2506Z BECMG 2424/2502 8000 BKN005 BECMG 2503/2504 BKN001 RMK PEC
SBBR,TAF SBBR 241630Z 2418/2518 09010KT 9999 BKN015 TX24/2418Z TN18/2509Z PROB30 2418/2422 7000 TSRA BKN015 FEW035CB BECMG 2422/2424 08005KT BKN010 BECMG 2502/2504 CAVOK BECMG 2511/2513 04007KT SCT030 RMK PGQ
SBBU,TAF SBBU 241630Z 2418/2506 15010KT CAVOK TX31/2418Z TN20/2505Z TEMPO 2418/2422 22007KT TEMPO 2422/2504 14014KT RMK PGD
SBBV,TAF SBBV 241500Z 2418/2518 10010KT 9999 SCT020 FEW025TCU TN26/2508Z TX34/2517Z TEMPO 2423/2502 6000 TS SCT020 FEW030CB BECMG 2503/2505 25005KT FEW020 BECMG 2510/2512 12005KT SCT030 BECMG 2514/2516 12010KT SCT020 FEW025TCU RMK PGY
SBBW,TAF SBBW 241630Z 2418/2506 25005KT 9999 SCT025 TX35/2418Z TN25/2505Z PROB30 2418/2422 8000 TSRA BKN020 FEW025CB BECMG 2500/2502 00000KT CAVOK RMK PGQ
SBCB,TAF SBCB 241500Z 2418/2506 08015KT 9999 FEW025 TX26/2419Z TN22/2505Z PROB30 TEMPO 2420/2422 TS SCT025 FEW030CB BECMG 2422/2424 06006KT RMK PGX
SBCF,TAF SBCF 241630Z 2418/2518 09010KT 9999 BKN040 TX26/2418Z TN18/2509Z PROB30 2418/2421 35005KT 7000 TSRA BKN030 FEW040CB BECMG 2422/2424 13005KT FEW030 BECMG 2512/2514 35005KT SCT025 RMK PGQ
SBCG,TAF SBCG 241630Z 2418/2518 20005KT 9999 SCT040 TX33/2418Z TN21/2509Z BECMG 2420/2422 CAVOK BECMG 2500/2502 10007KT BECMG 2513/2515 FEW030 RMK PGQ
SBCJ,TAF SBCJ 241500Z 2418/2506 35005KT 4000 FU FEW030 TX30/2419Z TN24/2506Z RMK PGY
SBCO,TAF SBCO 241500Z 2418/2506 12005KT 9999 BKN030 TX21/2418Z TN13/2506Z BECMG 2420/2421 FEW025 RMK PEC
SBCP,TAF SBCP 241500Z 2418/2506 15012KT 9999 SCT025 TX28/2419Z TN22/2505Z PROB40 2419/2421 7000 TS SCT025 FEW030CB BECMG 2422/2424 05005KT RMK PGX
SBCR,TAF SBCR 241630Z 2418/2518 05005KT 9999 FEW040 TX34/2418Z TN22/2509Z BECMG 2421/2423 27003KT CAVOK RMK PGQ
SBCT,TAF SBCT 241500Z 2418/2518 10005KT 9999 SCT018 TX24/2418Z TN13/2507Z BECMG 2422/2424 BKN006 PROB40 2508/2512 4000 BR BECMG 2512/2514 9999 FEW015 RMK PEC
SBCY,TAF SBCY 241500Z 2418/2518 15005KT 9999 SCT030 FEW035TCU TN25/2509Z TX33/2517Z BECMG 2500/2502 20005KT BECMG 2510/2512 31005KT BECMG 2515/2517 26005KT RMK PGY
SBDN,TAF SBDN 241630Z 2418/2506 13005KT CAVOK TX30/2418Z TN21/2505Z TEMPO 2422/2504 15012KT RMK PGD
SBEG,TAF SBEG 241500Z 2418/2518 07010KT 9999 SCT025 TN24/2508Z TX32/2517Z BECMG 2500/2502 06005KT BECMG 2504/2506 33005KT TEMPO 2506/2511 6000 TS SCT020 FEW030CB BECMG 2512/2514 30005KT FEW020 BECMG 2516/2518 07010KT SCT025 RMK PGY
SBFI,TAF SBFI 241500Z 2418/2518 15003KT CAVOK TN16/2507Z TX23/2517Z RMK PEC
SBFL,TAF SBFL 241500Z 2418/2518 18006KT 9999 BKN030 TN22/2507Z TX24/2517Z BECMG 2500/2502 FEW030 BECMG 2510/2512 09005KT SCT040 RMK PEC
SBFN,TAF SBFN 241500Z 2418/2506 12015KT 9999 SCT020 TX30/2419Z TN26/2505Z RMK PGX
SBFZ,TAF SBFZ 241500Z 2418/2518 10013KT 9999 SCT025 TN26/2509Z TX30/2517Z RMK PGX
SBGL,TAF SBGL 241500Z 2418/2524 15015KT 9999 FEW025 TN21/2509Z TX29/2516Z PROB40 TEMPO 2419/2422 7000 TS SCT025 FEW030CB BECMG 2422/2424 07007KT BECMG 2514/2516 15015KT RMK PGX
SBGO,TAF SBGO 241630Z 2418/2518 24005KT 9999 SCT035 TX29/2418Z TN20/2509Z PROB30 2418/2422 15015KT 8000 TSRA SCT035 FEW045CB BECMG 2423/2501 14003KT CAVOK BECMG 2511/2513 07005KT SCT035 RMK PGQ
SBGR,TAF SBGR 241630Z 2418/2524 08005KT 9999 SCT023 TX25/2418Z TN15/2509Z PROB30 TEMPO 2419/2421 14010G20KT 5000 TS BR BKN012 FEW030CB BECMG 2421/2423 14010KT BKN011 BECMG 2423/2501 11005KT BECMG 2501/2503 BKN009 BECMG 2503/2505 08005KT PROB40 2507/2511 4500 BR BKN008 BECMG 2512/2514 SCT023 BECMG 2514/2516 14010KT PROB30 2519/2523 14010G20KT 6000 BKN015 FEW030TCU RMK PGD
SBGW,TAF SBGW 241500Z 2418/2506 30005KT 9999 SCT030 TX25/2418Z TN18/2506Z PROB40 TEMPO 2420/2423 7000 TSRA BKN035 FEW045CB BECMG 2503/2504 4000 BR RMK PEC
SBIH,TAF SBIH 241500Z 2418/2506 06005KT 9999 SCT020 TX34/2419Z TN25/2506Z TEMPO 2419/2423 6000 TS BKN017 FEW030CB RMK PGY
SBIL,TAF SBIL 241630Z 2418/2506 06005KT 9999 SCT017 TX26/2418Z TN25/2505Z PROB30 2418/2424 SHRA BKN018 FEW025TCU RMK PGQ
SBIZ,TAF SBIZ 241500Z 2418/2506 07005KT 9999 SCT030 TX37/2419Z TN26/2506Z BECMG 2503/2505 02005KT CAVOK RMK PGY
SBJP,TAF SBJP 241500Z 2418/2518 09012KT 9999 SCT020 TN24/2508Z TX30/2516Z RMK PGX
SBJV,TAF SBJV 241500Z 2418/2506 12005KT 9999 BKN025 TX23/2418Z TN19/2506Z TEMPO 2418/2500 7000 RA BKN010 RMK PEC
SBKG,TAF SBKG 241500Z 2418/2506 09012KT 9999 SCT020 TX30/2419Z TN23/2505Z RMK PGX
SBKP,TAF SBKP 241630Z 2418/2518 11010KT 9999 FEW030 TX30/2418Z TN16/2509Z PROB30 TEMPO 2418/2421 26005KT FEW040TCU TEMPO 2421/2424 14013G23KT CAVOK BECMG 2510/2512 11008KT BECMG 2516/2518 14012KT RMK PGD
SBLO,TAF SBLO 241630Z 2418/2506 11005KT CAVOK TX29/2418Z TN20/2505Z PROB30 2418/2424 16006KT SCT035 RMK PGD
SBME,TAF SBME 241500Z 2418/2506 14012KT 9999 FEW025 TX26/2419Z TN21/2505Z PROB40 2420/2422 TS SCT025 FEW030CB BECMG 2422/2424 35005KT RMK PGX
SBMN,TAF SBMN 241500Z 2418/2506 09005KT 9999 SCT020 TX30/2418Z TN24/2506Z BECMG 2418/2420 FEW030 FEW035TCU RMK PEC
SBMO,TAF SBMO 241500Z 2418/2518 05012KT 9999 SCT020 TN23/2509Z TX30/2516Z PROB40 TEMPO 2510/2513 5000 RA BKN020 RMK PGX
SBMQ,TAF SBMQ 241500Z 2418/2518 08015KT 9999 SCT030 FEW035TCU TN26/2508Z TX34/2518Z BECMG 2500/2502 11006KT BECMG 2507/2509 30005KT BECMG 2512/2514 08010KT SCT030 RMK PGY
SBNF,TAF SBNF 241500Z 2418/2518 13003KT 9999 SCT030 BKN045 TN18/2507Z TX23/2517Z BECMG 2500/2502 18008KT SCT020 RMK PEC
SBNT,TAF SBNT 241500Z 2418/2506 10013KT 9999 SCT025 TX29/2419Z TN24/2505Z PROB30 TEMPO 2420/2422 5000 RA BKN025 RMK PGX
SBPA,TAF SBPA 241500Z 2418/2518 14007KT 9999 SCT030 TN15/2506Z TX26/2517Z PROB30 2508/2510 2000 BR BKN008 BECMG 2512/2513 CAVOK RMK PEC
SBPJ,TAF SBPJ 241500Z 2418/2518 29010KT 9999 SCT025 TX33/2419Z TN24/2509Z TEMPO 2418/2422 5000 TSRA SCT030 FEW035CB BECMG 2500/2502 10010KT TEMPO 2508/2514 5000 TSRA BKN020 FEW025CB RMK PGX
SBPK,TAF SBPK 241500Z 2418/2518 09005KT 9999 SCT030 TN14/2503Z TX22/2517Z BECMG 2500/2502 BKN015 PROB40 2509/2512 4000 BR RMK PEC
SBPL,TAF SBPL 241500Z 2418/2518 16010KT 9999 FEW030 TX35/2419Z TN24/2509Z RMK PGX
SBPP,TAF SBPP 241630Z 2418/2518 10005KT CAVOK TX31/2418Z TN17/2509Z BECMG 2510/2512 04009KT RMK PGD
SBPS,TAF SBPS 241500Z 2418/2518 07012KT 6000 BKN020 TN22/2509Z TX25/2516Z TEMPO 2418/2421 3000 RA BR BKN015 PROB40 2508/2512 4000 BR RMK PGX
SBPV,TAF SBPV 241500Z 2418/2518 21005KT 9999 SCT030 FEW035TCU TN25/2508Z TX32/2517Z BECMG 2502/2504 00000KT BECMG 2516/2518 SCT030 FEW035TCU RMK PGY
SBRB,TAF SBRB 241500Z 2418/2506 06005KT 9999 SCT035 TX30/2419Z TN24/2506Z TEMPO 2419/2423 28005KT 5000 TSRA BKN017 FEW030CB BECMG 2500/2502 32005KT SCT010 RMK PGY
SBRF,TAF SBRF 241500Z 2418/2518 09012KT 9999 SCT025 TN25/2508Z TX29/2516Z PROB40 TEMPO 2503/2508 5000 RA BKN020 RMK PGX
SBRJ,TAF SBRJ 241500Z 2418/2506 18012KT 9999 FEW025 TX26/2419Z TN22/2505Z PROB30 TEMPO 2419/2422 7000 TS SCT025 FEW030CB BECMG 2422/2424 01005KT RMK PGX
SBRP,TAF SBRP 241630Z 2418/2506 24007KT 9999 SCT040 TX33/2418Z TN20/2505Z BECMG 2420/2422 14005KT CAVOK RMK PGQ
SBSC,TAF SBSC 241500Z 2418/2506 13005KT 9999 BKN035 TX25/2418Z TN21/2506Z PROB40 TEMPO 2418/2422 8000 TSRA BKN030 FEW035CB RMK PEC
SBSG,TAF SBSG 241500Z 2418/2518 13013KT 9999 SCT025 TN25/2508Z TX30/2516Z PROB30 TEMPO 2503/2508 6000 BKN020 RMK PGX
SBSJ,TAF SBSJ 241630Z 2418/2506 03004KT 9999 SCT025 TX27/2418Z TN17/2505Z PROB30 TEMPO 2418/2422 14010G20KT 7000 TSRA BKN015 FEW030CB BECMG 2422/2424 13006KT RMK PGD
SBSL,TAF SBSL 241500Z 2418/2518 05013KT 9999 SCT025 TN26/2509Z TX32/2517Z PROB30 TEMPO 2514/2516 6000 BKN020 RMK PGX
SBSM,TAF SBSM 241500Z 2418/2506 10005KT 9999 FEW030 TX22/2418Z TN13/2506Z BECMG 2500/2502 SCT030 RMK PEC
SBSN,TAF SBSN 241500Z 2418/2518 09010KT 9999 FEW020 TN25/2508Z TX31/2517Z BECMG 2421/2423 18005KT BECMG 2500/2502 11005KT BECMG 2507/2509 08015KT TEMPO 2512/2518 29010KT SCT020 FEW025TCU RMK PGY
SBSP,TAF SBSP 241630Z 2418/2506 07004KT 9999 SCT023 TX25/2418Z TN16/2505Z PROB30 TEMPO 2419/2421 14010G20KT 5000 TS BR BKN008 FEW030CB BECMG 2421/2423 14010KT BKN009 BECMG 2423/2501 11005KT SCT015 RMK PGD
SBSV,TAF SBSV 241630Z 2418/2518 07010KT 9999 SCT020 TN25/2509Z TX29/2516Z TEMPO 2507/2512 06013KT SHRA BKN018 FEW023TCU BECMG 2512/2514 06013KT RMK PGQ
SBTE,TAF SBTE 241500Z 2418/2506 33008KT 9999 FEW030 TX36/2419Z TN27/2505Z RMK PGX
SBTT,TAF SBTT 241500Z 2418/2518 03005KT 9999 SCT020 TN23/2508Z TX27/2517Z TEMPO 2419/2421 TS BKN017 FEW030CB BECMG 2510/2512 23005KT BECMG 2515/2517 03005KT BKN017 RMK PGY
SBUG,TAF SBUG 241500Z 2418/2506 09007KT CAVOK TX26/2418Z TN15/2505Z RMK PEC
SBUL,TAF SBUL 241630Z 2418/2506 02010KT 9999 SCT035 TX28/2418Z TN20/2505Z PROB30 2418/2421 SHRA SCT035 FEW045TCU BECMG 2421/2423 08007KT FEW040 BECMG 2503/2505 03005KT SCT006 RMK PGQ
SBUR,TAF SBUR 241630Z 2418/2506 36010KT 9999 SCT045 TX30/2418Z TN20/2505Z PROB30 2418/2421 23005KT SHRA SCT035 FEW045TCU BECMG 2421/2423 04005KT FEW045 RMK PGQ
SBVH,TAF SBVH 241500Z 2418/2506 13005KT 9999 SCT020 TX29/2419Z TN20/2506Z TEMPO 2418/2423 6000 TS BKN017 FEW030CB RMK PGY
SBVT,TAF SBVT 241500Z 2418/2518 06013KT 6000 BKN020 TN21/2509Z TX26/2516Z TEMPO 2418/2424 3000 TSRA BKN020 FEW025CB BECMG 2500/2502 35005KT BECMG 2510/2512 17007KT 9999 SCT025 PROB40 TEMPO 2516/2518 7000 TS SCT025 FEW030CB RMK PGX
SBYS,TAF SBYS 241500Z 2418/2506 18005KT 9999 FEW045 TX27/2418Z TN15/2506Z BECMG 2500/2502 CAVOK RMK PEC
SCAR,TAF SCAR 241604Z 2418/2518 22012KT CAVOK TX18/2418Z TN16/2510Z BECMG 2500/2502 20004KT OVC020 BECMG 2515/2517 23010KT CAVOK
SCAT,TAF COR SCAT 241633Z 2418/2518 30010KT 9999 FEW020 TX18/2418Z TN11/2510Z BECMG 2422/2424 24004KT OVC015 BECMG 2506/2508 36004KT OVC008 TEMPO 2510/2513 5000 -DZ SCT005 OVC007 BECMG 2514/2516 31008KT OVC018 BECMG 2517/2518 26007KT FEW030
SCBA,TAF SCBA 241614Z 2418/2518 30025KT 9999 FEW040 TX14/2418Z TN03/2508Z TEMPO 2419/2421 30027G38KT BECMG 2500/2502 30010KT BKN040 BECMG 2514/2516 30021KT FEW040
SCCF,TAF COR SCCF 241800Z 2418/2518 28023KT CAVOK TX25/2418Z TN05/2510Z BECMG 2500/2502 26010KT BECMG 2503/2505 11017KT BECMG 2513/2514 09007KT BECMG 2516/2518 27020KT
SCCI,TAF SCCI 241620Z 2418/2518 29021G31KT 9999 SCT025 BKN100 TN02/2511Z TX11/2418Z TEMPO 2418/2502 SHRA SCT022 BKN070 BECMG 2500/2502 26011G24KT BECMG 2502/2504 CAVOK
SCCY,TAF SCCY 241044Z 2412/2424 30007KT 9999 BKN035 TN10/2412Z TX13/2418Z 
SCDA,TAF SCDA 241604Z 2418/2518 23014KT CAVOK TX18/2418Z TN15/2510Z BECMG 2423/2501 OVC020 BECMG 2502/2504 19008KT BECMG 2508/2510 12004KT BECMG 2513/2515 28006KT FEW025
SCEL,TAF SCEL 241600Z 2418/2518 18005KT CAVOK TX27/2419Z TN08/2510Z BECMG 2418/2420 19014KT BECMG 2502/2504 15004KT BECMG 2511/2513 18005KT
SCFA,TAF COR SCFA 241613Z 2418/2518 20014KT 9999 SCT013 TX17/2418Z TN14/2510Z BECMG 2422/2424 19004KT OVC015 BECMG 2504/2506 36004KT BECMG 2514/2516 20008KT FEW020
SCIE,TAF SCIE 241600Z 2418/2518 28008KT 9999 SCT020 BKN025 TX16/2419Z TN09/2510Z BECMG 2503/2505 20004KT SCT015 BKN020 TEMPO 2503/2512 VRB02KT 3000 BR SCT005 BKN008 BECMG 2516/2518 30010KT BKN025 BKN050
SCIP,TAF SCIP 241617Z 2418/2518 18004KT 9999 SCT025 SCT035 TX23/2420Z TN17/2512Z TEMPO 2418/2422 5000 -SHRA SCT020 BKN030 BECMG 2512/2514 12010KT
SCJO,TAF SCJO 241020Z 2412/2424 01007KT 9999 BKN030 TN11/2412Z TX16/2419Z BECMG 2414/2416 FEW030 BKN100
SCNT,TAF SCNT 241620Z 2418/2506 28021G31KT 9999 SCT030 BKN200 TN03/2506Z TX13/2418Z BECMG 2418/2420 SHRA SCT020 BKN035
SCQP,TAF SCQP 241612Z 2418/2518 26008KT 9999 SCT050 TX18/2418Z TN08/2510Z BECMG 2504/2506 VRB02KT 0600 FG OVC002 BECMG 2512/2514 2000 BR OVC008 BECMG 2515/2517 28008KT 9999 NSW SCT030
SCSE,TAF SCSE 241600Z 2418/2518 30012KT 9999 SCT015 TX17/2419Z TN10/2510Z TEMPO 2419/2422 CAVOK BECMG 2501/2503 30004KT BECMG 2502/2504 VRB02KT BKN005 OVC008 BECMG 2513/2515 29006KT SCT010 BKN015
SCTE,TAF SCTE 241613Z 2418/2518 35008KT 9999 SCT035 BKN070 TX16/2418Z TN10/2509Z TEMPO 2519/2521 7000 -SHRA
SCVM,TAF SCVM 241600Z 2418/2518 33010KT CAVOK TX19/2419Z TN08/2510Z TEMPO 2418/2500 24012KT BECMG 2501/2503 15004KT BECMG 2508/2510 VRB02KT 3000 BR OVC008 TEMPO 2511/2513 0800 FG OVC002 BECMG 2513/2515 29005KT 9999 SCT008 BKN015
SEGU,SEGU 241850Z 2419/2518 16007KT 9999 BKN020 BKN100 BECMG 2422/2424 22008KT BECMG 2504/2506 SCT010 BKN023 BKN090 BECMG 2513/2515 SCT026 BKN100 TX27/2420Z TN22/2510Z
SELT,SELT 241850Z 2419/2518 18015KT 9999 SCT030 BKN100 TEMPO 2419/2422 TSRA FEW023CB BKN030 BECMG 2423/2501 19004KT SCT015 BKN026 BECMG 2512/2514 SCT030 BKN100 TX18/2419Z TN07/2511Z
SEMT,SEMT 241850Z 2419/2518 22008KT 9999 OVC020 TX24/2420Z TN21/2510Z
SEQM,SEQM 241850Z 2419/2518 36012KT 9999 SCT023 SCT100 TEMPO 2419/2422 FEW023TCU BKN026 BECMG 2422/2424 03005KT FEW010 BKN023 BKN100 BECMG 2504/2506 VRB03KT 6000 BCFG BKN005 BECMG 2511/2513 9999 SCT026 SCT100 TX23/2419Z TN12/2511Z
SGAS,TAF SGAS 241520Z 2418/2518 07008KT CAVOK TX34/2419Z TN18/2510Z
SGCO,TAF SGCO 241520Z 2418/2518 07010KT CAVOK TX34/2419Z TN19/2510Z
SGEN,TAF SGEN 241520Z 2418/2518 07006KT CAVOK TX30/2419Z TN17/2510Z
SGES,TAF SGES 241520Z 2418/2518 12008KT CAVOK TX33/2419Z TN17/2510Z
SKAR,TAF SKAR 241630Z 2418/2518 VRB02KT 9999 SCT015TCU TEMPO 2421/2501 5000 TSRA SCT013CB BKN080 BECMG 2501/2503 DZ BKN015 BECMG 2506/2508 3000 BR BKN010 PROB40 2510/2512 0800 FG BKN004 BECMG 2516/2517 9999 NSW BKN015 TX25/2419Z TN19/2511Z
SKBG,TAF SKBG 241630Z 2418/2518 30005KT 9999 SCT010 TEMPO 2421/2423 TSRA BKN012CB BECMG 2502/2504 VRB02KT TEMPO 2509/2513 5000 DZ BCFG BKN010 TX25/2418Z TN18/2510Z
SKBO,TAF SKBO 241630Z 2418/2518 30004KT 9999 BKN020 TEMPO 2418/2420 DZRA TEMPO 2421/2423 DZRA SCT017CB BECMG 2502/2504 VRB02KT TEMPO 2509/2513 5000 BCFG SCT010 TX20/2419Z TN10/2510Z
SKBQ,TAF SKBQ 241630Z 2418/2518 22003KT 9999 SCT015 TEMPO 2418/2422 TSRA SCT015TCU PROB40 TEMPO 2409/2412 2000 BR BKN007 TEMPO 2415/2418 TSRA SCT012 FEW018CB TX31/2418Z TN24/2510Z
SKCC,TAF SKCC 241630Z 2418/2518 33006KT 9999 SCT018 TEMPO 2521/2523 RA SCT015TCU BECMG 2502/2504 VRB02KT TEMPO 2509/2513 5000 BCFG SCT010 TX32/2418Z TN22/2510Z
SKCG,TAF SKCG 241630Z 2418/2518 15009KT 9999 FEW017 BECMG 2419/2421 24008KT TEMPO 2421/2423 DZ SCT017CB BECMG 2502/2504 VRB02KT TEMPO 2509/2513 DZRA SCT015TCU TX30/2419Z TN24/2510Z
SKCL,TAF SKCL 241630Z 2418/2518 VRB03KT 9999 SCT020TCU TEMPO 2420/2423 32010KT TSRA SCT017CB BKN080 BECMG 2423/2501 SCT017 TEMPO 2506/2509 DZ BKN017 BECMG 2510/2512 3000 BR BKN010 BECMG 2515/2517 9999 NSW SCT017 TX27/2419Z TN19/2511Z
SKLT,TAF SKLT 241630Z 2418/2518 24004KT 9999 BKN015 TEMPO 2423/2503 TSRA SCT015CB BECMG 2502/2504 VRB02KT TEMPO 2509/2513 DZ BKN010 TX32/2419Z TN23/2510Z
SKPE,TAF SKPE 241630Z 2418/2518 VRB02KT 9999 BKN015 TEMPO 2420/2424 DZ BKN015 BKN070 TEMPO 2502/2506 DZRA BECMG 2509/2511 2000 BR BKN007 PROB40 2510/2512 0800 FG BECMG 2516/2517 9999 NSW BKN015 TX25/2419 TN18/2511Z
SKRG,TAF SKRG 241630Z 2418/2518 12010KT 9999 SCT020TCU BKN080 TEMPO 2419/2422 5000 TSRA BKN015CB BECMG 2500/2502 VRB02KT BKN015 TEMPO 2502/2506 DZRA BKN010 TEMPO 2508/2513 4000 BCFG BKN005 BECMG 2514/2516 10010KT TX22/2419Z TN13/2511Z
SKSM,TAF SKSM 241030Z 2412/2512 16007KT 9999 SCT020 TEMPO 2416/2420 TSRA SCT018CB TEMPO 2420/2423 RA SCT016CB TX34/2419Z TN24/2509Z
SKSP,TAF SKSP 241630Z 2418/2518 07009KT 9999 FEW018 TEMPO 2419/2421 DZ SCT015TCU TX32/2419Z TN27/2509Z
SLCB,TAF SLCB 241600Z 2418/2518 24010KT 9999 FEW036 TX30/2419Z TN14/2511Z TEMPO 2420/2422 06012KT FEW040CB BECMG 2423/2501 13010KT FEW033 SCT070 BECMG 2502/2504 00000KT
SLLP,TAF SLLP 241600Z 2418/2518 14010KT 9999 FEW020 TX19/2419Z TN02/2510Z BECMG 2424/2504 08005KT 3000E BCFG BECMG 2512/2515 13010KT
SLTJ,TAF SLTJ 241600Z 2418/2518 13010KT 9999 FEW040 TX34/2419Z TN13/2511Z TEMPO 2420/2422 FEW043CB BECMG 2423/2501 00000KT
SLVR,TAF SLVR 241620Z 2418/2518 36012KT 9999 FEW023 TX34/2419Z TN21/2509Z BECMG 2422/2424 34008KT SCT070 BECMG 2515/2517 34015KT BKN080
SMJP,TAF SMJP 241600Z 2418/2518 11006KT 9999 SCT012 TX34/2517Z TN23/2509Z TEMPO 2418/2421 5000 SHRA FEW015CB SCT020 TEMPO 2418/2419 TS
SOCA,TAF SOCA 241600Z 2418/2518 08010KT CAVOK BECMG 2422/2424 VRB02KT BECMG 2513/2515 06008KT PROB40 TEMPO 2513/2518 3000 SHRA SCT015CB BKN020TCU
SPHI,TAF SPHI 241710Z 2418/2518 18015KT 9999 SCT030 TX22/2419Z TN15/2511Z BECMG 2506/2508 18005KT BKN014 TEMPO 2511/2513 OVC009 BECMG 2515/2517 17015KT SCT014
SPJC,TAF SPJC 241700Z 2418/2518 22010KT 9999 FEW016 BKN022 TX20/2419Z TN15/2511Z BECMG 2420/2422 CAVOK BECMG 2502/2505 17006KT OVC011 BECMG 2512/2415 OVC015
SPME,TAF AMD SPME 241900Z 2419/2518 31005KT 9999 SCT020 TX25/2419Z TN19/2511Z BECMG 2508/2510 BKN012
SPQT,TAF SPQT 232300Z 2400/2424 VRB02KT 9999 SCT010 SCT100 TX31/2419Z TN22/2411Z TEMPO 2401/2405 4000 DZRA BKN008 BKN080 TEMPO 2408/2412 1000 BCFG BKN003 BKN100 BECMG 2413/2416 02005KT BKN020 SCT100 TEMPO 2419/2423 06015KT 3000 SHRA BKN010 FEW025CB BKN080
SPQU,TAF SPQU 241700Z 2418/2518 25011KT CAVOK TX21/2517Z TN07/2510Z BECMG 2500/2502 04005KT BECMG 2514/2516 25011KT
SPRU,TAF AMD SPRU 241900Z 2419/2518 17010KT 8000 SCT020 TX18/2419Z TN15/2511Z FM250500 14005KT 6000 OVC012 BECMG 2515/2517 BKN015
SPSO,TAF SPSO 241700Z 2418/2518 29008KT CAVOK TX22/2419Z TN13/2511Z TEMPO 2420/2423 22017KT BECMG 2501/2503 12004KT 6000 NSC TEMPO 2510/2513 3000 BR BKN010 BECMG 2515/2517 33007KT CAVOK
SPTN,TAF SPTN 241700Z 2418/2518 22010KT CAVOK TX21/2418Z TN11/2510Z FM250000 25004KT 8000 OVC020 BECMG 2504/2507 4000 BR OVC010 BECMG 2510/2512 9999 NSW OVC018 FM251530 22010KT CAVOK
SPYL,TAF SPYL 241710Z 2418/2518 18015KT CAVOK TX24/2419Z TN14/2511Z
SPZO,TAF SPZO 241700Z 2418/2518 VRB04KT 9999 SCT050 SCT100 TX25/2419Z TN03/2511Z TEMPO 2418/2422 29012KT
SUAA,TAF SUAA 241730Z 2418/2518 13008KT 9999 SCT026 TX25/2518Z TN11/2509Z BECMG 2423/2501 04010KT TEMPO 2503/2511 0800 BCFG BKN005
SUCA,TAF SUCA 241730Z 2418/2518 14010KT 9999 FEW017 TX24/2518Z TN12/2509Z BECMG 2500/2502 02012KT
SUDU,TAF SUDU 241730Z 2418/2518 04008KT 9999 SCT020 TX28/2518Z TN14/2509Z TEMPO 2503/2511 3000 BR BKN008 TEMPO 2504/2511 0800 FG BKN004
SULS,TAF SULS 241730Z 2418/2518 10010KT 9999 SCT020 TX23/2518Z TN12/2509Z BECMG 2423/2501 04008KT TEMPO 2503/2511 2000 BR BKN008 TEMPO 2504/2511 0800 BCFG BKN004
SUMU,TAF SUMU 241730Z 2418/2518 12008KT 9999 SCT026 TX25/2518Z TN11/2509Z BECMG 2423/2501 04010KT TEMPO 2503/2511 0800 BCFG BKN005
SURV,TAF SURV 241730Z 2418/2518 10008KT 9999 SCT020 TX27/2518Z TN13/2509Z TEMPO 2503/2511 2000 BR BKN005 TEMPO 2504/2511 0800 FG BKN003
SUSO,TAF SUSO 241730Z 2418/2518 06008KT CAVOK TX29/2518Z TN14/2509Z TEMPO 2503/2511 0800 BCFG NSC
SVBC,TAF SVBC 241600Z 2418/2518 12003KT 9000 DZ SCT010 TX32/2318Z TN23/2406Z BECMG 2401/2421 15004KT 9000 SCT010 SCT070
SVJC,TAF SVJC 241600Z 2400/2500 07003KT 9999 SCT013 TX32/2319Z TN24/2408Z BECMG 2419/2423 09001KT 9000 DZ SCT080 BKN020
SVMC,TAF SVMC 241600Z 2418/2518 08002KT 9000 DZ SCT013 TX33/2319Z TN23/2408Z TEMPO 2419/2421 13002KT 9000 -DZ SCT013 SCT080
SVMG,TAF SVMG 241600Z 2400/2500 07010KT 9999 FEW010 TX33/2318Z TN24/2408Z TEMPO 2419/2423 05002KT 9000 -DZ SCT010 BKN080
SVMI,TAF SVMI 241600Z 2418/2518 11002KT 9999 BKN016 TX32/2318Z TN22/2407Z TEMPO 2418/2423 08003KT 9999 SCT020 BKN080
SVPR,TAF SVPR 241600Z 2400/2500 02005KT 9000 DZ SCT013 TX32/2319Z TN24/2408Z BECMG 2418/2422 08006KT 9000 DZ SCT013 SCT060
SVSA,TAF SVSA 241600Z 2400/2500 06004KT 9000 SCT020 TX30/2319Z TN20/2407Z TEMPO 2418/2423 05003KT 9000 -DZ SCT020 SCT090
SYCJ,TAF SYCJ 241700Z 2418/2518 VRB08KT 9999 FEW018CB BKN020 BECMG 2500/2503 04006KT 9999 FEW015CB BKN017 BKN036 BECMG 2509/2511 3000 +TSRA SCT012CB OVC032
SYEB,TAF SYEB 241100Z 2412/2423 11008KT 9999 SCT019 PROB30 TEMPO 2417/2420 5000 SHRA BKN017
SYEC,TAF SYEC 241700Z 2418/2518 09008KT 9999 FEW018CB BKN020 BECMG 2500/2503 08008KT 9999 SCT017 BKN038 BKN090 BECMG 2510/2512 VRB08KT 3000 +TSRA SCT013CB BKN034 OVC070
SYKA,TAF SYKA 241100Z 2412/2423 07008KT 9999 FEW016
SYKM,TAF SYKM 241100Z 2412/2423 07008KT 9999 FEW017 TEMPO 2418/2423 5000 TS SHRA FEW016CB SCT017
SYLT,TAF SYLT 241100Z 2412/2423 08010KT 9999 FEW020
SYMB,TAF SYMB 241100Z 2412/2423 09006KT 9999 SCT018 TEMPO 2416/2422 5000 SHRA BKN032
TAPA,TAF TAPA 241700Z 2418/2518 09010KT 9999 SCT020 PROB40 TEMPO 2502/2518 SHRA
TBPB,TAF TBPB 241700Z 2418/2518 11009KT 9999 SCT018 PROB30 TEMPO 2512/2518 SHRA BKN014
TDPD,TAF TDPD 241700Z 2418/2518 11008KT 9999 SCT018 PROB30 TEMPO 2513/2518 SHRA BKN014
TFFF,TAF TFFF 241700Z 2418/2518 11010KT 9999 SCT025 SCT030 PROB40 TEMPO 2418/2421 4000 SHRA SCT015CB SCT020TCU BKN040 PROB30 TEMPO 2418/2420 1200 TSRA SCT010 BKN015CB TEMPO 2503/2518 4000 SHRA SCT010 SCT015CB BKN018TCU PROB30 TEMPO 2503/2506 1200 TSRA BKN015CB PROB30 TEMPO 2515/2518 1200 TSRA BKN015CB
TFFR,TAF TFFR 241700Z 2418/2518 07008KT 9999 SCT025 PROB30 TEMPO 2418/2503 4000 SHRA SCT018TCU BKN025 TEMPO 2503/2518 2000 SHRA SCT015CB SCT018TCU PROB30 TEMPO 2515/2518 1400 TSRA BKN015CB
TGPY,TGPY 241600Z 2418/2518 10014KT 9999 FEW020 BECMG 2500/2502 FEW015CB SCT020 PROB30 TEMPO 2508/2512 5000 SHRA FEW012CB BKN017 BKN036
TIST,TIST 241722Z 2418/2518 13012KT P6SM FEW025 SCT050 FM242200 09005KT P6SM FEW025 FM251300 10011KT P6SM SCT030 FM251500 11015KT P6SM VCSH SCT022 BKN030
TISX,TISX 241722Z 2418/2518 11012KT P6SM FEW030 SCT050 FM242200 06004KT P6SM FEW025 FM251300 09011KT P6SM SCT030 FM251500 09015KT P6SM VCSH SCT025 BKN030
TJBQ,TJBQ 241722Z 2418/2518 06015KT P6SM VCTS SCT022 SCT030CB BKN040 TEMPO 2419/2421 3SM TSRA BKN022CB BKN030 OVC040 FM242300 14004KT P6SM SCT080 FM251300 07011KT P6SM SKC FM251700 04015KT P6SM VCSH SCT025 BKN030 BKN050 AMD NOT SKED 2502/2511
TJPS,TJPS 241722Z 2418/2518 15010KT P6SM FEW030 SCT060 FM242300 VRB03KT P6SM FEW060 FM251300 14009KT P6SM SCT035 FM251700 16015KT P6SM VCSH SCT025 SCT035 BKN050 AMD NOT SKED
TJSJ,TJSJ 241722Z 2418/2518 06014KT P6SM FEW035 SCT050 FM242300 14003KT P6SM FEW024 SCT035 FM251300 07013KT P6SM SCT035 FM251600 07015KT P6SM VCSH SCT025 BKN030 BKN050
TKPK,TAF TKPK 241700Z 2418/2518 09015KT 9999 SCT020 PROB40 TEMPO 2506/2518 SHRA
TKPN,TAF TKPN 241700Z 2418/2518 09010KT 9999 SCT020 PROB40 TEMPO 2506/2518 SHRA
TNCA,TAF TNCA 241715Z 2418/2518 10016KT 9999 SCT020 TEMPO 2500/2512 6000 SHRA BKN015 PROB40 TEMPO 2504/2512 09010G22KT 3000 TSRA SCT012CB
TNCB,TAF TNCB 241713Z 2418/2524 09010KT 9999 SCT020 PROB30 TEMPO 2418/2422 6000 SHRA SCT020CB TEMPO 2506/2518 5000 SHRA TSRA SCT018CB BKN030
TNCC,TAF TNCC 241715Z 2418/2518 12011KT 9999 SCT020 TEMPO 2500/2518 6000 SHRA BKN015 PROB40 TEMPO 2504/2512 10010G22KT 3000 TSRA SCT012CB
TNCM,TNCM 241629Z 2418/2518 10007KT 9999 SCT018 PROB30 TEMPO 2508/2518 SHRA BKN016 
TQPF,TAF TQPF 241700Z 2418/2518 09014KT 9999 SCT020 PROB40 TEMPO 2509/2518 SHRA
TRPG,TAF TRPG 241700Z 2418/2518 09016KT 9999 SCT020 PROB40 TEMPO 2502/2518 SHRA
TTCP,TAF COR TTCP 241600Z 2418/2518 10008KT 9999 SCT020 BECMG 2500/2502 07003KT FEW016 BECMG 2512/2514 09010KT SCT022 TEMPO 2514/2518 5000 SHRA FEW012CB BKN016
TTPP,TAF COR TTPP 241600Z 2418/2518 12005KT 9999 VCSH FEW012CB SCT018 BECMG 2500/2502 00000KT SCT016 BECMG 2512/2514 08005KT SCT020 TEMPO 2514/2518 5000 SHRA FEW012CB BKN016 PROB30 TEMPO 2515/2518 VRB05G15KT 5000 TSRA SCT012CB BKN015
TUPJ,TAF TUPJ 241700Z 2418/2518 09015KT 9999 SCT020 PROB40 TEMPO 2512/2518 SHRA
TVSA,TAF TVSA 241700Z 2418/2518 09004KT 9999 SCT018 PROB30 TEMPO 2514/2518 SHRA BKN014
TXKF,TAF TXKF 241735Z 2418/2518 04015KT 9999 VCSH SCT010 BKN020 TEMPO 2418/2512 6000 -SHRA SCT008 BKN014 PROB40 TEMPO 2418/2509 07015G25KT 3000 SHRA SCT008CB BKN012 PROB30 TEMPO 2418/2509 VRB20G30KT 1600 TSRA BKN008CB BKN010 BECMG 2420/2424 09018KT BECMG 2501/2504 14015KT BECMG 2505/2509 19015KT PROB30 TEMPO 2509/2518 19018G28KT 6000 -SHRA SCT008 BKN014 
UAAA,TAF UAAA 241712Z 2418/2518 23003MPS 9999 BKN011 OVC020CB TX09/2510Z TN03/2501Z TEMPO 2420/2502 28003G08MPS 5000 -SHRA BR TEMPO 2502/2510 35003G08MPS 3100 -SHRA BR BKN006 OVC015CB FM251200 04003MPS 5000 BR FU SCT030CB BKN100 TEMPO 2512/2518 08003MPS 2500
UAAH,TAF UAAH 241101Z 2412/2421 09005MPS CAVOK
UAAT,TAF UAAT 241100Z 2412/2421 04005G10MPS 9999 SCT050 TEMPO 2412/2415 01005G10MPS FEW011 TEMPO 2415/2421 3100 BR SCT008
UACC,TAF UACC 241703Z 2418/2518 19004MPS 9999 SCT020 BKN100 TX08/2509Z TNM07/2423Z TEMPO 2420/2503 18003MPS 3100 BR SCT011 TEMPO 2506/2512 20008MPS TEMPO 2512/2518 17003MPS
UACK,TAF UACK 241106Z 2412/2421 23007MPS 9999 SCT040 TEMPO 2412/2418 22006G11MPS
UADD,TAF UADD 241700Z 2418/2503 26004MPS 3100 BR BKN011 OVC020
UAII,TAF UAII 241702Z 2418/2518 26003G08MPS 3500 BR FU SCT011 BKN025CB TX15/2510Z TN05/2501Z TEMPO 2418/2503 16003MPS 0400 -SHRA FG BKN002 OVC015CB BECMG 2503/2505 6000 NSW SCT033CB TEMPO 2508/2518 22005G11MPS 3100 -SHRA BR BKN011 OVC020CB
UAIT,TAF UAIT 241700Z 2418/2503 08003G08MPS 9999 SCT040 TEMPO 2418/2503 11006G11MPS
UAKD,TAF UAKD 241108Z 2412/2421 10005MPS CAVOK
UAKK,TAF UAKK 241702Z 2418/2518 VRB02MPS 9999 SCT030 BKN100 TX08/2509Z TNM14/2424Z BECMG 2420/2422 3100 BR SCT011 TEMPO 2420/2503 0300 FZFG VV002 FM250300 17005MPS 9999 SCT030
UAOO,TAF UAOO 241700Z 2418/2503 18003MPS 9999 SCT040 TEMPO 2421/2503 3100 BR BKN006
UARR,TAF UARR 241701Z 2418/2503 18006MPS 3100 -SHRA BR BKN011 BKN033CB TEMPO 2421/2503 VRB02MPS 1500 BKN005 BKN020CB
UASK,TAF UASK 241700Z 2418/2503 VRB01MPS 3100 BR FU FEW006 TEMPO 2418/2424 0200 FZFG VV002 TEMPO 2500/2503 0200 FZFG VV001
UASP,TAF UASP 241700Z 2418/2503 17003G08MPS CAVOK TEMPO 2418/2424 3100 BR FU BKN011
UASS,TAF UASS 241100Z 2412/2421 18003MPS 9999 SCT050 SCT100 TEMPO 2412/2418 VRB02MPS 3100 FU
UATE,TAF UATE 241700Z 2418/2518 27003G08MPS 9999 SCT011 BKN033CB TX14/2509Z TN08/2502Z TEMPO 2418/2500 VRB02MPS 1000 -TSRA BR BKN005 BKN015CB BECMG 2500/2502 30010G16MPS TEMPO 2500/2512 -SHRA
UATG,TAF UATG 241702Z 2418/2518 15005MPS 9999 BKN030CB TX12/2510Z TN04/2503Z FM242100 23007MPS 3100 -SHRA BR BKN011 BKN020CB TEMPO 2500/2508 27008G13MPS 1500 BKN005 BKN015CB BECMG 2508/2509 30009G14MPS 9999 NSW
UATT,TAF UATT 241703Z 2418/2518 17003MPS 9999 SCT040 TX09/2512Z TN01/2418Z TEMPO 2420/2503 3100 BR SCT011 TEMPO 2503/2510 18003G08MPS SCT015 BKN033CB FM251000 22008MPS 3100 -SHRA BKN011 BKN020CB TEMPO 2512/2518 32008MPS 2000 SHRA BR OVC005 BKN020CB
UAUU,TAF UAUU 241701Z 2418/2503 15005G10MPS 9999 SCT030 TEMPO 2418/2503 3100 BR
UBBB,TAF UBBB 241650Z 2418/2518 32012KT 9999 FEW030CB SCT030 TX16/2510Z TN14/2502Z TEMPO 2418/2424 35018G28KT SCT012 TEMPO 2500/2510 35014KT -SHRA FEW008 BKN030CB BECMG 2510/2512 VRB04KT TEMPO 2511/2518 31005KT -SHRA FEW010 SCT040CB BKN040
UBBF,TAF UBBF 241350Z 2415/2424 26006KT 9999 SCT025 BKN100 TEMPO 2415/2418 VRB04KT FEW040CB TEMPO 2418/2424 28005KT 6000 SCT012
UBBG,TAF UBBG 241700Z 2418/2518 28012KT 9999 FEW040 BKN080 TX19/2512Z TN08/2502Z BECMG 2502/2504 32008KT TEMPO 2504/2508 VRB04KT BECMG 2509/2510 08010KT
UBBL,TAF UBBL 241658Z 2418/2518 VRB04KT 9999 BKN060 TX18/2412Z TN07/2502Z TEMPO 2420/2505 3000 BR SCT010 BECMG 2506/2508 11008KT TEMPO 2508/2514 15010KT SCT017
UBBN,TAF UBBN 241649Z 2418/2518 VRB04KT 8000 SCT040 BKN100 TX17/2512Z TN06/2503Z TEMPO 2418/2423 33008KT 5000 BR SCT030CB OVC080 TEMPO 2500/2506 VRB02KT 1200 BR BCFG OVC015 BECMG 2507/2509 13006KT 7000 NSW
UBBQ,TAF UBBQ 241654Z 2418/2518 VRB04KT 9999 SCT060 TX19/2510Z TN07/2501Z TEMPO 2500/2505 4000 BR SCT006 BECMG 2506/2508 23008KT SCT025
UBBY,TAF UBBY 241700Z 2418/2503 08008KT 9999 SCT030 BKN080
UBEE,TAF UBEE 241700Z 2418/2503 28008KT CAVOK
UCFL,TAF UCFL 241648Z 2418/2518 32003G08MPS 9999 BKN025CB TEMPO 2418/2424 03003G08MPS 1000 SHRASN SCT005 BKN015CB TEMPO 2500/2504 26003G08MPS 3000 -SHRASN BKN015CB BECMG 2504/2506 15003G08MPS
UCFM,TAF COR UCFM 241700Z 2418/2518 07003G08MPS 3000 BR OVC030CB TEMPO 2418/2502 35003G08MPS 0400 SHRA FZFG BKN002 OVC015CB TEMPO 2502/2506 1500 BR FU BKN005 OVC015CB FM250600 32003G08MPS 6000 BKN050CB TEMPO 2506/2512 2000 BR FU SCT007 BKN030CB
UCFO,TAF UCFO 241651Z 2418/2518 32003G08MPS 1000 BR FU BKN004 OVC020CB TEMPO 2418/2424 27006G11MPS 0100 SHRA FG VV001 TEMPO 2500/2505 27003G08MPS 0500 FG VV002 BECMG 2505/2506 27003G08MPS 2000 BR
UDSG,TAF UDSG 241700Z 2418/2518 03006KT 9999 SCT040 TEMPO 2418/2421 VRB16KT FEW030CB
UDYZ,TAF UDYZ 241700Z 2418/2518 04006KT 9999 FEW040
UEEE,TAF AMD UEEE 241842Z 2418/2524 29011G18MPS 2100 -SHSN BLSN SCT007 BKN020CB TEMPO 2418/2503 0300 +SHSN BLSN VV002
UERP,TAF UERP 241700Z 2418/2518 27007G13MPS 4000 -SHSN DRSN SCT007 BKN015CB TEMPO 2418/2424 2000 SHSN BLSN VV005 FM250300 25003G08MPS 9999 SCT020
UERR,TAF UERR 241700Z 2418/2518 26009G15MPS 9999 BKN015CB TEMPO 2503/2509 2000 SHSN BLSN VV007 BECMG 2509/2510 26005G10MPS
UGKO,TAF UGKO 241700Z 2418/2518 25006KT 9000 SCT030 OVC060 TX17/2511Z TN10/2503Z TEMPO 2420/2502 3000 SHRA SCT012 BKN021CB BECMG 2511/2513 CAVOK
UGSB,TAF COR UGSB 241700Z 2418/2518 14007KT 9999 -SHRA BKN030CB TX19/2512Z TN13/2503Z TEMPO 2418/2503 21018KT 3500 TSRA SCT012 BKN022CB PROB40 TEMPO 2503/2507 VRB10KT TSRA BECMG 2507/2508 35007KT SCT100
UGTB,TAF UGTB 241700Z 2418/2518 30022KT CAVOK TX18/2511Z TN09/2502Z BECMG 2512/2515 31012KT SCT055
UHBB,TAF UHBB 241700Z 2418/2518 18003G08MPS CAVOK
UHHH,TAF UHHH 241646Z 2418/2524 23007MPS CAVOK TEMPO 2422/2506 25007G12MPS
UHMA,TAF UHMA 241647Z 2418/2518 02003MPS 9999 FEW033 TEMPO 2418/2518 33008MPS 5000 BR SCT003 BKN015
UHMM,TAF UHMM 241656Z 2418/2524 01003G08MPS 9999 NSC BECMG 2507/2509 5000 -SHSN BKN020CB
UHPP,TAF UHPP 241650Z 2418/2524 35003G08MPS 9999 SCT050 TEMPO 2500/2508 28005G15MPS
UHSS,TAF UHSS 241650Z 2418/2524 VRB01MPS 9999 BKN030CB BECMG 2422/2424 20003MPS
UHWW,TAF UHWW 241655Z 2418/2518 VRB01MPS 9999 NSC BECMG 2501/2504 20003G08MPS
UIAA,TAF UIAA 241700Z 2418/2518 31008G14MPS 9999 SCT040CB TEMPO 2418/2503 25003G08MPS 3100 -SHSN BKN014CB TEMPO 2503/2518 31003G08MPS
UIBB,TAF UIBB 241700Z 2418/2518 22005G10MPS 9999 SCT017CB
UIII,TAF UIII 241700Z 2418/2518 30006MPS CAVOK BECMG 2501/2503 VRB01MPS
UIUU,TAF UIUU 241700Z 2418/2518 35007G13MPS 9999 BKN040CB TEMPO 2418/2424 29003G08MPS 1900 SHSN BKN014CB BECMG 2510/2512 28003G08MPS
ULAA,TAF ULAA 241700Z 2418/2518 32003MPS 6000 BKN016 TEMPO 2418/2504 29003G10MPS 0300 -SHSN FZFG FEW002 BKN011CB FM250400 27003G09MPS 9999 BKN017
ULLI,TAF ULLI 241656Z 2418/2518 18003MPS 8000 BKN016 TEMPO 2418/2421 24005MPS TEMPO 2421/2506 0400 FZFG BKN003 TEMPO 2512/2516 14003G08MPS TEMPO 2516/2518 14003G08MPS 4000 -SHRA BKN010CB
ULMM,TAF ULMM 241651Z 2418/2518 25003MPS 6000 SCT016 BECMG 2421/2422 0900 FZFG VV003 TEMPO 2422/2506 0300 FZFG VV001 BECMG 2506/2507 9999 NSW SCT016
ULOO,TAF ULOO 241652Z 2418/2503 VRB01MPS 6000 SCT030 TEMPO 2418/2503 0500 FG VV003
ULPB,TAF ULPB 241654Z 2418/2503 24003MPS 6000 BKN020 PROB40 TEMPO 2418/2503 0500 FG VV003
ULWC,TAF ULWC 241700Z 2418/2503 28003MPS 6000 BKN016 TEMPO 2418/2424 0700 FZFG BKN002
UMBB,TAF UMBB 241104Z 2412/2421 VRB02MPS 3000 BR BKN005 TEMPO 2413/2421 16003MPS 5000 -SHRA BR SCT007 BKN013CB
UMGG,TAF UMGG 241700Z 2418/2518 VRB02MPS 2000 BR BKN005 TEMPO 2418/2424 16003MPS 1200 BKN004 TEMPO 2500/2507 13003MPS 0300 FG VV002 BECMG 2507/2509 13007MPS 4000 BKN006
UMII,TAF UMII 241707Z 2418/2503 14003MPS 6000 BKN015 TEMPO 2418/2503 VRB02MPS 2000 BR BKN005
UMKK,TAF AMD UMKK 241834Z 2418/2518 19003G08MPS 1400 BR BCFG BKN004 TEMPO 2418/2507 0300 -SHRA FG VV001 BECMG 2506/2507 24005G10MPS BECMG 2507/2509 9999 NSW FEW010 BKN016CB TEMPO 2509/2513 BKN005 BKN010CB
UMMG,TAF UMMG 241115Z 2412/2421 17003MPS 6000 BKN007 TEMPO 2412/2414 16003G08MPS 4000 -SHRA BR SCT005 BKN011CB TEMPO 2414/2421 19004G09MPS 5000 -SHRA BR BKN011CB
UMMS,TAF UMMS 241711Z 2418/2518 13005MPS 4000 BR BKN004 TEMPO 2418/2509 VRB02MPS 0200 -SHRA FG BKN002 BKN015CB FM250900 15005MPS 5000 -RA BR BKN007 TEMPO 2509/2515 1500 SHRA BKN005 BKN015CB FM251500 24006MPS 6000 BKN005 TEMPO 2515/2518 3000 -SHRA BR BKN015CB
UMOO,TAF UMOO 241102Z 2412/2421 VRB02MPS 8000 BKN015 TEMPO 2412/2418 29005MPS BKN010 TEMPO 2418/2421 15005MPS 2000 BR BKN005
UNAA,TAF UNAA 241652Z 2418/2518 20003MPS 6000 NSC TEMPO 2423/2502 0300 FZFG FM250300 16003G08MPS CAVOK
UNBB,TAF UNBB 241700Z 2418/2518 18003G08MPS 9999 SCT040 TEMPO 2421/2503 0150 FZFG SCT002
UNEE,TAF UNEE 241700Z 2418/2518 18003G08MPS 8000 SCT039 TEMPO 2505/2510 23003G09MPS
UNKL,TAF UNKL 241645Z 2418/2518 22003G08MPS 9999 BKN016CB TEMPO 2418/2424 1500 SHSN
UNNT,TAF UNNT 241700Z 2418/2518 18005G12MPS 9999 SCT040
UNOO,TAF UNOO 241650Z 2418/2518 17003G08MPS 9999 NSC BECMG 2503/2505 19006G12MPS BECMG 2510/2512 BKN030CB
UNTT,TAF UNTT 241700Z 2418/2503 24007G15MPS 9999 BKN040CB TEMPO 2418/2503 20005G10MPS
UNWW,TAF UNWW 241700Z 2418/2518 16003G08MPS 8000 SCT040 TEMPO 2420/2502 0300 FZFG BKN002
UOOO,TAF UOOO 241659Z 2418/2518 22009G16MPS 2200 -SHSN BLSN SCT007 BKN016CB TEMPO 2418/2502 1000 SHSN BLSN BKN004 BKN014CB BECMG 2422/2424 28006G12MPS FM250200 22003MPS 6000 OVC004 TEMPO 2502/2506 0500 FZFG VV002 BECMG 2506/2508 OVC011 BECMG 2513/2515 BKN016
URKA,TAF URKA 241649Z 2418/2518 25003MPS 6000 SCT016 TEMPO 2421/2506 0200 FG SCT002 FM250800 22003G08MPS 9999 SCT020CB TEMPO 2508/2518 -SHRA BKN016CB
URKK,TAF URKK 241650Z 2418/2518 24003G08MPS 9999 SCT020 TEMPO 2418/2508 2000 BR SCT007 BKN020 BECMG 2508/2510 28003G08MPS
URMG,TAF URMG 241700Z 2418/2503 30003G08MPS 9999 BKN030 TEMPO 2418/2503 31005G13MPS 6000 -SHRA BKN016 BKN030CB
URML,TAF URML 241700Z 2418/2503 30005G13MPS 9999 BKN017 TEMPO 2418/2420 27003G10MPS BKN017CB TEMPO 2420/2502 32008G14MPS 6000 -SHRA SCT011 BKN016CB
URMM,TAF URMM 241700Z 2418/2518 28007G14MPS 9999 BKN025 TX15/2512Z TN06/2503Z TEMPO 2418/2421 6000 -SHRA BKN016 BKN025CB BECMG 2513/2515 26003G08MPS
URMN,TAF URMN 241700Z 2418/2503 23003G08MPS 9999 SCT030CB TEMPO 2418/2503 35006G13MPS 6000 -SHRA SCT016 BKN020CB
URMO,TAF URMO 241400Z 2415/2424 12003G08MPS 9999 BKN030 TEMPO 2415/2424 6000 -SHRA BKN016 BKN030CB
URMT,TAF URMT 241700Z 2418/2503 30008G14MPS 9999 SCT016 BKN020CB
URRP,TAF URRP 241657Z 2418/2518 28003G10MPS 6000 SCT016 TEMPO 2418/2512 34003G12MPS TEMPO 2512/2518 22003G08MPS -SHRA SCT020CB
URSS,TAF URSS 241656Z 2418/2518 04004G09MPS 9999 BKN030CB OVC100 TEMPO 2418/2421 VRB08G13MPS 2100 -TSRA BKN006 BKN020CB OVC100 FM242300 04007MPS 9999 SCT030 BKN100 BECMG 2507/2509 28004G09MPS BECMG 2515/2517 05004G09MPS
URWA,TAF URWA 241659Z 2418/2503 26007G14MPS 9999 FEW005 BKN016 BKN020CB TEMPO 2418/2424 2000 SHRA FEW003 BKN010 BKN020CB BECMG 2420/2421 29009G16MPS
URWI,TAF URWI 241058Z 2412/2421 26008G14MPS 6000 -SHRA SCT016 BKN020CB TEMPO 2412/2418 28012G20MPS PROB40 TEMPO 2412/2418 -TSRA
URWW,TAF AMD URWW 241756Z 2418/2503 30006G11MPS 0300 FG BKN002 BKN020CB TEMPO 2418/2503 27007G13MPS 6000 -SHRA BKN005 BKN020CB
USCC,TAF USCC 241700Z 2418/2518 21003G13MPS 6000 BKN016 TEMPO 2418/2512 25008G18MPS 3100 -SNRA BKN007 FM251200 34003G12MPS 8000 BKN016CB TEMPO 2512/2518 -SHRASN BKN020CB
USCM,TAF USCM 241700Z 2418/2503 18003G13MPS 6000 BKN016CB TEMPO 2418/2503 18008G18MPS 3100 -SHSNRA BKN007CB
USDA,TAF USDA 241058Z 2412/2421 03002G08MPS 6000 -SN FEW005 BKN016 TEMPO 2412/2418 1400 SHSN FEW003 BKN011CB BECMG 2418/2420 01006G11MPS
USHH,TAF USHH 241653Z 2418/2518 21007G14MPS 6000 -SN SCT005 BKN016 TEMPO 2418/2510 20009G17MPS 0900 +SHSN BKN003 OVC016CB FM251000 27007G14MPS 9999 BKN016 TEMPO 2510/2518 29009G16MPS 5000 -SHSNRA SCT004 BKN016CB
USNN,TAF USNN 241645Z 2418/2518 22006G14MPS 9999 SCT016 OVC020 TEMPO 2418/2502 -SHSN FEW006 BKN016CB BECMG 2502/2503 6000 -SHSN BKN016CB TEMPO 2503/2512 20008G17MPS
USPP,TAF USPP 241655Z 2418/2518 22006G14MPS 8000 -RASN BKN016 TEMPO 2418/2421 28005G16MPS 2000 SHRASN BKN011 BKN016CB BECMG 2421/2422 29004G11MPS BECMG 2422/2423 9999 NSW
USRR,TAF USRR 241655Z 2418/2518 22007G14MPS 9999 SCT008 BKN016CB TEMPO 2418/2421 5000 -SHSN SCT005 BKN016CB BECMG 2421/2423 22008G18MPS 4000 -SHSNRA TEMPO 2423/2512 0800 +SHSN VV003
USSS,TAF USSS 241654Z 2418/2518 22005G15MPS 6000 -SHSNRA BKN016CB TEMPO 2418/2503 1600 SHSN BKN007 BKN011CB FM250500 28003G12MPS 9999 BKN020CB
USTR,TAF USTR 241659Z 2418/2518 22006G14MPS 3100 -SHSNRA BKN007 BKN016CB TEMPO 2420/2503 1000 SHSNRA VV003 FM250600 25005G11MPS 9999 BKN020CB TEMPO 2506/2512 3100 -SHRA BKN011CB BECMG 2514/2515 33003G08MPS
UTAA,TAF UTAA 241651Z 2418/2518 18010KT 6000 SCT020 BECMG 2423/2501 26016KT BKN008 SCT040CB TEMPO 2502/2506 5000 -SHRA BKN007 TEMPO 2514/2518 30016G26KT 3000 SHRA SCT010
UTDD,TAF UTDD 241800Z 2419/2507 VRB02MPS 6000 SCT030CB BKN060 TEMPO 2419/2504 3100 -SHRA BR
UTDK,TAF UTDK 241800Z 2419/2504 VRB02MPS 6000 SCT020 BKN040CB TEMPO 2416/2504 03006MPS 3100 -TSRA BR
UTDL,TAF UTDL 241800Z 2419/2507 24005MPS 1100 BR SCT005 BKN060CB TEMPO 2419/2422 VRB02MPS 0500 FG VV002 BECMG 2423/2501 08006MPS
UTDT,TAF UTDT 241800Z 2419/2504 VRB02MPS 6000 SCT017 BKN030CB TEMPO 2419/2501 3100 -SHRA BR
UTFF,TAF UTFF 241800Z 2419/2504 14010KT 3500 BR BKN050CB TEMPO 2419/2504 VRB04KT 1500 -SHRA BR OVC030CB
UTFN,TAF UTFN 241700Z 2418/2518 33010KT 4000 BR OVC050CB TEMPO 2418/2424 VRB02KT 0800 -SHRA FG OVC005CB
UTNN,TAF UTNN 241700Z 2418/2518 08006KT CAVOK TEMPO 2504/2514 14012G22KT SCT040 BKN100
UTNU,TAF UTNU 241700Z 2418/2518 09006G16KT CAVOK TEMPO 2503/2513 14012G22KT SCT050CB BKN100
UTSA,TAF UTSA 241701Z 2418/2518 VRB03KT 7000 NSC TEMPO 2418/2505 07010KT 3000 BR FU SCT007
UTSB,TAF UTSB 241700Z 2418/2518 VRB03KT 7000 FEW033 TEMPO 2418/2505 12010KT 3000 BR SCT007
UTSK,TAF UTSK 241800Z 2419/2504 VRB04KT 5000 BR SCT015 TEMPO 2419/2424 0700 FG VV002
UTSS,TAF UTSS 241700Z 2418/2518 12010KT 5000 BR SCT008 BKN050CB TEMPO 2418/2424 0700 FG OVC002
UTST,TAF UTST 241700Z 2418/2518 VRB06KT 6000 SCT060CB BKN100 TEMPO 2418/2504 04010G20KT
UTTT,TAF UTTT 241700Z 2418/2518 32010KT 7000 SCT010 BKN040CB TEMPO 2418/2424 VRB02KT 2100 -SHRA BR BKN003 OVC020CB
UUBC,TAF UUBC 241648Z 2418/2503 VRB01MPS 9999 SCT040 PROB40 TEMPO 2501/2503 0500 FG VV003
UUBP,TAF UUBP 241348Z 2415/2424 25003MPS 9999 BKN020
UUBW,TAF UUBW 241652Z 2418/2518 30003MPS 9000 SCT030 TX05/2512Z TNM02/2504Z PROB40 TEMPO 2421/2507 0300 FZFG TEMPO 2512/2518 13005MPS
UUDD,TAF UUDD 241652Z 2418/2524 30003MPS 9999 SCT020 TX05/2512Z TNM02/2503Z PROB40 TEMPO 2421/2507 0300 FZFG PROB40 TEMPO 2515/2524 0300 FG VV002 BECMG 2518/2520 14005MPS
UUDL,TAF UUDL 241653Z 2418/2518 28003MPS 8000 BKN030 TX05/2512Z TN00/2503Z PROB40 TEMPO 2418/2506 0300 FG VV002
UUEE,TAF UUEE 241655Z 2418/2518 28003MPS 8000 SCT016 TX04/2512Z TNM02/2503Z PROB40 TEMPO 2421/2506 0300 FZFG OVC002 BECMG 2514/2516 14005MPS
UUMO,TAF UUMO 241645Z 2418/2503 28003MPS 9000 SCT030 TEMPO 2421/2503 1000 BR OVC006
UUOB,TAF UUOB 241659Z 2418/2503 25003MPS 6000 BKN020 TEMPO 2421/2503 0400 FG VV002
UUOK,TAF UUOK 241648Z 2418/2503 VRB01MPS 9999 SCT040 PROB40 TEMPO 2501/2503 0500 FG VV003
UUOL,TAF UUOL 241700Z 2418/2503 32003MPS 9999 BKN030
UUOO,TAF UUOO 241700Z 2418/2503 30003MPS 9999 BKN030
UUWW,TAF UUWW 241652Z 2418/2518 27003MPS 9000 SCT016 TX05/2512Z TNM02/2503Z PROB40 TEMPO 2420/2506 0300 FZFG OVC002
UUYY,TAF UUYY 241700Z 2418/2518 28003G10MPS 6000 -SHSN BKN011 BKN017CB TEMPO 2418/2508 0500 +SHSN FZRA FZFG BKN004 BKN016CB BECMG 2504/2506 32003G10MPS BECMG 2508/2510 FEW011 BKN017CB
UWGG,TAF UWGG 241655Z 2418/2518 28003G08MPS 8000 BKN016 TX04/2512Z TNM00/2503Z
UWKD,TAF UWKD 241700Z 2418/2518 32005G10MPS 9999 BKN016 TX04/2512Z TN00/2503Z TEMPO 2418/2503 2000 BR BKN005
UWKE,TAF AMD UWKE 241905Z 2419/2518 31006G13MPS 6000 -RA OVC007 TEMPO 2419/2421 27007G14MPS 0700 +SHRA BKN003 BKN016CB FM242100 31005G13MPS 9999 BKN011 TEMPO 2421/2506 27003G10MPS 6000 -SHRASN BKN005 BKN020CB TEMPO 2506/2515 -SHSNRA SCT020CB
UWKS,TAF UWKS 241639Z 2418/2503 31005G10MPS 9999 BKN016 TX02/2418Z TN00/2421Z
UWLL,TAF UWLL 241653Z 2418/2518 25003G09MPS 6000 -RA BKN007 TX02/2512Z TNM01/2503Z TEMPO 2418/2503 30008G14MPS 0300 FG OVC002
UWLW,TAF UWLW 241658Z 2418/2518 32003MPS 6000 -RA OVC016 TX06/2418Z TN00/2503Z TEMPO 2418/2505 27005G10MPS 2100 BR OVC005
UWOO,TAF UWOO 241644Z 2418/2518 20003G10MPS 6000 BKN016 TX05/2510Z TN01/2501Z TEMPO 2421/2511 23006G12MPS 1500 -SHRA BR BKN005 BKN010CB BECMG 2511/2512 34006G12MPS TEMPO 2512/2518 36007G14MPS -SHRA BKN010CB
UWOR,TAF UWOR 241645Z 2418/2503 20005G10MPS 6000 BKN016CB TX02/2503Z TN00/2423Z TEMPO 2418/2503 22006G12MPS -SHRA
UWPS,TAF UWPS 241650Z 2418/2503 33003G08MPS 8000 BKN013 TX05/2418Z TNM00/2503Z TEMPO 2418/2502 BKN008
UWSG,TAF AMD UWSG 241851Z 2419/2503 30003G08MPS 2100 -RA BR BKN007 BKN020 TX07/2420Z TN04/2501Z TEMPO 2419/2503 34003G08MPS 0300 -RA FG VV002
UWUU,TAF UWUU 241656Z 2418/2518 18008G14MPS 4500 -RA OVC010 TX04/2504Z TN02/2518Z TEMPO 2418/2503 21009G16MPS 2100 -SHRA BKN006CB FM250300 30007G13MPS 9999 BKN020CB TEMPO 2503/2506 34007G12MPS 3100 -SHRASN SCT005 BKN010CB
UWWW,TAF UWWW 241650Z 2418/2518 24006G13MPS 6000 -RA BKN007 TX05/2418Z TN02/2518Z TEMPO 2418/2505 1000 RA BR OVC002 BECMG 2422/2424 34008G14MPS BECMG 2505/2507 BKN016
VAAH,TAF VAAH 241700Z 2418/2503 02005KT 4000 HZ FU NSC BECMG 2501/2503 2000 BR HZ
VAAU,TAF VAAU 241700Z 2418/2524 00000KT 3000 HZ SCT020 BECMG 2503/2505 34006KT 5000 HZ FEW020 BECMG 2515/2517 00000KT 3000 HZ FEW020 SCT100
VABB,TAF VABB 241700Z 2418/2503 VRB03KT 3000 FU HZ FEW020 BECMG 2422/2424 05005KT 2500 HZ SCT020 SCT100 
VABO,TAF VABO 241700Z 2418/2503 VRB03KT 5000 HZ NSC BECMG 2501/2503 36005KT 2000 HZ
VABP,TAF VABP 241700Z 2418/2524 30008KT 4000 HZ NSC BECMG 2501/2503 3000 HZ BECMG 2404/2406 5000 HZ BECMG 2406/2408 6000 BECMG 2515/2517 5000 HZ
VABV,TAF VABV 241700Z 2418/2503 25005KT 4000 HZ FU NSC BECMG 2420/2422 27005KT BECMG 2501/2503 VRB03KT 2000 HZ
VADU,TAF VADU 241700Z 2418/2503 32005KT 5000 HZ NSC BECMG 2501/2503 34005KT 4000 BR HZ
VAID,TAF VAID 241700Z 2418/2524 30008KT 4000 HZ NSC BECMG 2501/2503 3000 HZ BECMG 2404/2406 5000 HZ BECMG 2406/2408 6000 BECMG 2515/2517 5000 HZ
VAJB,TAF VAJB 241700Z 2418/2503 29008KT 4000 HZ NSC BECMG 2501/2503 3000 HZ
VAJM,TAF VAJM 241700Z 2418/2503 VRB03KT 6000 NSC BECMG 2420/2422 32005KT BECMG 2501/2503 36005KT 3000 BR HZ
VAKE,TAF VAKE 241400Z 2415/2424 25006KT 4000 FU NSC BECMG 2420/2422 32005KT BECMG 2422/2424 3000 HZ
VAKP,TAF VAKP 241100Z 2412/2421 27005KT 5000 FU SCT020 BECMG 2417/2419 05005KT 3000 FU
VANP,TAF VANP 241700Z 2418/2503 33004KT 3000 HZ SCT090 BECMG 2501/2203 01004KT 3000 BR/HZ FEW020 SCT090 
VAOZ,TAF VAOZ 241400Z 2415/2503 32005KT 6000 NSC TEMPO 2417/2419 5000 HZ TEMPO 2500/2503 VRB02KT 3000 BR
VAPO,TAF VAPO 241700Z 2418/2600 05005KT 6000 SKC TEMPO 2423/2503 VRB02KT 4000 BR FEW250 TEMPO 2522/2600 VRB02KT 5000 BR
VAPR,TAF VAPR 241700Z 2418/2503 36005KT 5000 HZ FU NSC BECMG 2501/2503 09005KT 3000 HZ FU
VARK,TAF VARK 241700Z 2418/2503 32005KT 6000 NSC BECMG 2420/2422 34005KT BECMG 2501/2503 30005KT 4000 HZ
VASL,TAF VASL 241100Z 2412/2421 35007KT 5000 FU SCT020 BECMG 2415/2417 02005KT 3000 FU
VASU,TAF VASU 241700Z 2418/2503 35005KT 6000 NSC BECMG 2420/2422 4000 BR HZ BECMG 2501/2503 VRB03KT 1500 BR HZ
VAUD,TAF VAUD 241700Z 2418/2524 32005KT 3000 HZ FU NSC BECMG 2504/2506 29005KT 5000 HZ FU NSC BECMG 2513/2515 32006KT 3000 HZ FU NSC
VCBI,TAF VCBI 241700Z 2418/2524 24006KT 9999 SCT016 TX29/2507Z TN24/2500Z PROB30 TEMPO 2418/2503 2512/2515 7000 -TSRA/SHRA FEW012 BKN015 FEW020CB
VCRI,TAF VCRI 241700Z 2418/2524 26010KT 9999 FEW018 SCT080 TX32/2507Z TN24/2500Z BECMG 2503/2505 25010G20KT PROB30 TEMPO 2508/2514 7000 -TSRA/SHRA SCT016 FEW018CB BKN080
VDPP,TAF VDPP 241700Z 2418/2512 05005KT 9999 SCT017 TEMPO 2406/2511 SCT015 FEW017CB
VDSR,TAF VDSR 241700Z 2418/2512 04007KT 9999 SCT017 TEMPO 2506/2511 SCT015 FEW017CB
VDSV,TAF VDSV 241700Z 2418/2512 05007KT 9999 SCT017 TEMPO 2506/2511 SCT015 FEW017CB
VEAT,TAF VEAT 241700Z 2418/2503 05015G25KT 2000 -RA BR FEW008 SCT015 FEW025CB OVC090 TEMPO 2418/2420 0800 RA
VEBD,TAF VEBD 241100Z 2412/2518 12010KT 6000 FEW030 SCT050 BKN100 TEMPO 2500/2502 4000 BR TEMPO 2504/2506 3000 RABR SCT015 SCT025 BKN080
VEBN,TAF VEBN 241700Z 2418/2503 25004KT 2500 BR NSC BECMG 2421/2423 00000KT 1500 BR
VEBS,TAF VEBS 241700Z 2418/2524 28004KT 3500 HZ SCT018 BKN100 BECMG 2422/2424 07003KT 2000 BR SCT020 SCT100 BECMG 2503/2505 24005KT 4000 HZ FEW020 SCT100 TEMPO 2508/2512 23008KT 2000 -TSRA BKN016 FEW030CB BKN090 BECMG 2520/2522 24003KT 2500 BR SCT020
VECC,TAF VECC 241700Z 2418/2524 30010KT 3200 -RA HZ SCT018 BKN100 BECMG 2500/2502 2400 -RA BR BECMG 2503/2505 3500 HZ SCT018 SCT100 BECMG 2522/2524 2400 BR
VEDG,TAF VEDG 241700Z 2418/2524 35008KT 3500 HZ SCT018 SCT100 BECMG 2422/2424 2200 BR BECMG 2503/2505 27008KT 3500 HZ BECMG 2507/2509 5000 HZ BECMG 2515/2517 3200 HZ SCT020 BECMG 2520/2522 00000KT 2000 BR
VEGT,TAF VEGT 241700Z 2418/2524 05010KT 2500 -RA BR FEW008 SCT015 FEW025CB OVC090 TEMPO 2418/2420 04012G20KT 1500 RA BECMG 2504/2506 05010KT 3000 -RA FEW010 SCT018 BKN090 BECMG 2508/2510 05005KT 5000 BR HZ SCT018 BKN100 BECMG 2513/2515 
VEGY,TAF VEGY 241400Z 2415/2424 00000KT 4000 HZ FEW020 SCT100 BECMG 2417/2419 2500 BR
VEIM,TAF VEIM 241700Z 2418/2503 09010KT 2500 -RA BR FEW008 SCT015 FEW025CB OVC090 TEMPO 2422/2424 04015KT 1500 RA
VEJH,TAF VEJH 241100Z 2412/2421 31004KT 4000 HZ SCT100 BECMG 2415/2417 00000KT 3000 HZ FEW100
VEJS,TAF VEJS 241100Z 2412/2421 27005KT 3500 -RA HZ SCT018 FEW030CB BKN100 BECMG 2413/2415 00000KT 2500 -RA BR SCT018 BKN100
VEKO,TAF VEKO 241700Z 2418/2503 29008KT 4000 HZ NSC BECMG 2501/2503 3000 HZ
VEMN,TAF VEMN 241700Z 2418/2503 09008KT 2000 -RA BR FEW008 SCT015 FEW025CB OVC090
VEPT,TAF VEPT 241700Z 2418/2524 00000KT 2000 BR FEW018 SCT100 BECMG 2500/2502 00000KT 1500 BR BECMG 2505/2507 29004KT 3500 HZ SCT100 BECMG 2508/2510 00000KT 5000 HZ FEW020 BECMG 2518/2520 00000KT 3000 BR NSC 
VERC,TAF VERC 241700Z 2418/2524 34006KT 3500 BR FEW020 SCT100 BECMG 2500/2502 34006KT 2000 BR BECMG 2504/2506 3500 HZ BECMG 2507/2509 5000 HZ FEW020 BECMG 2518/2520 00000KT 3000 BR NSC 
VERP,TAF VERP 241700Z 2418/2503 32004KT 3000 HZ SCT090
VETZ,TAF VETZ 241530Z 2418/2506 07010KT 5000 TSRABR SCT010 SCT020 FEW030CB OVC080 TEMPO 2501/2503 3000 -TSRABR SCT010 SCT020 BKN080 FEW030CB
VGEG,TAF VGEG 241100Z 2412/2518 16015KT 4000 HZ SCT014 BKN100 TEMPO 2420/2508 14030KT 1200 RA/TSRA BKN007 FEW025CB OVC080 BECMG 2508/2510 16012KT 4000 HZ SCT015 BKN100 TEMPO 2512/2518 15020KT 1500 RA/TSRA BKN007 FEW025CB OVC090
VGHS,TAF VGHS 241700Z 2418/2524 02020G30KT 2200 RA/HZ BKN007 OVC080 TEMPO 2418/2502 06030G40KT 2000 RA/TSRA BKN007 FEW025CB OVC090 BECMG 2504/2506 16012KT 3000 HZ SCT012 BKN100
VHHH,TAF VHHH 241700Z 2418/2524 08015KT 9999 FEW030 TX28/2506Z TN22/2422Z TN22/2522Z TEMPO 2418/2421 08020G30KT
VIAG,TAF VIAG 241700Z 2418/2600 VRB02KT 2000 BR NSC BECMG 2420/2421 1500 BR BECMG 2504/2505 33008KT 3000 HZ BECMG 2507/2508 5000 HZ BECMG 2512/2513 VRB02KT 3000 HZ BECMG 2518/2520 1500 BR
VICG,TAF VICG 241700Z 2418/2600 VRB02KT 6000 NSC TEMPO 2500/2503 4000 BR BECMG 2504/2506 32005KT 6000 TEMPO 2512/2515 5000 HZ TEMPO 2523/2600 5000 BR
VIDN,TAF VIDN 241100Z 2412/2421 03005KT 4000 HZ BR FEW030 BECMG 2418/2420 VRB02KT 2500 BR 
VIJP,TAF VIJP 241700Z 2418/2503 VRB03KT 3000 HZ FU NSC
VILH,TAF VILH 240930Z 2418/2512 VRB02KT 6000 FEW070 TEMPO 2420/2500 SCT070 BECMG 2504/2506 29005KT TEMPO 2509/2511 SCT070
VILK,TAF VILK 241700Z 2418/2503 00000KT 3000 BR NSC BECMG 2420/2422 1500 BR
VIPT,TAF VIPT 241100Z 2412/2421 32005KT 4000 BR NSC 
VISR,TAF VISR 241530Z 2418/2506 VRB02KT 4000 FU FEW025 TEMPO 2500/2504 1500 BR BECMG 2504/2506 3000 HZ
VLLB,TAF VLLB 241700Z 2418/2518 09004KT 3000 BR SCT020 BKN060
VLLN,TAF VLLN 241700Z 2418/2518 27004KT 2000 BR SCT020 BKN100
VLPS,TAF VLPS 241700Z 2418/2518 22004KT 4000 BR SCT020 SCT200
VLSK,TAF VLSK 241700Z 2418/2518 34004KT 3000 BR SCT020 BKN100
VLVT,TAF VLVT 241700Z 2418/2518 22004KT 4000 BR SCT020 SCT200
VMMC,TAF VMMC 241700Z 2418/2524 08017KT 9999 FEW040
VNKT,TAF VNKT 241700Z 2418/2518 14003KT 7000 FEW015 BECMG 2500/2502 00000KT 6000 FEW010 SCT030 PROB30 2501/2503 4000 BR BECMG 2504/2505 12003KT 7000 FEW020 SCT100 BECMG 2508/2509 27008KT 9999 FEW025 SCT100 BECMG 2513/2514 21003KT 8000 FEW015
VOAR,TAF VOAR 232300Z 2400/2506 VRB02KT 4500 BR FEW020 BKN100 BECMG 2401/2403 03008KT 6000 BECMG 2412/2414 VRB02KT 4500 HZ/BR BECMG 2501/2503 04010KT 6000
VOBG,TAF VOBG 241700Z 2418/2503 32010KT 6000 NSC BECMG 2422/2423 3000 BR SCT008 TEMPO 2500/2503 1500 BR SCT006
VOBL,TAF VOBL 241700Z 2418/2524 32010KT 6000 NSC BECMG 2422/2423 3000 BR SCT008 TEMPO 2500/2503 1500 BR SCT006 BECMG 2504/2505 6000 FEW012
VOBM,TAF VOBM 241700Z 2418/2503 05010KT 6000 FEW015 TEMPO 2500/2503 3000 BR SCT008
VOCB,TAF VOCB 241700Z 2418/2524 VRB02KT 3000 BR FEW015 SCT080 TEMPO 2500/2503 1500 BR BECMG 2503/2504 07005KT 5000 BR BECMG 2506/2507 6000 BECMG 2512/2513 20005KT 5000 BR BECMG 2518/2519 VRB02KT 3000 BR
VOCI,TAF VOCI 241700Z 2418/2524 00000KT 3500 BR FEW015 SCT080 TEMPO 2422/2502 2500 RA BR SCT015 FEW025CB BKN080 BECMG 2503/2504 25005KT 4500 HZ SCT015 SCT080 TEMPO 2509/2514 25010G20KT 3000 TS TSRA SCT015 FEW025CB BKN080 BECMG 2514/2515 09005KT 3500 HZ -RA SCT015 SCT080
VOCL,TAF VOCL 241700Z 2418/2524 VRB02KT 4500 HZ FEW012 SCT080 TEMPO 2422/2502 2500 RA BR SCT015 FEW025CB BKN080 BECMG 2503/2504 25005KT 4500 HZ SCT015 SCT080 TEMPO 2509/2514 25010G20KT 3000 TS TSRA SCT015 FEW025CB BKN080 BECMG 2514/2515 00000KT 3500 HZ -RA SCT015 SCT080
VOGO,TAF VOGO 241700Z 2418/2503 07006KT 6000 NSC TEMPO 2500/2504 VRB02KT 3000 BR FEW008 SCT020
VOHB,TAF VOHB 241700Z 2418/2524 05010KT 6000 FEW015 TEMPO 2500/2503 3000 BR SCT008
VOHS,TAF VOHS 241700Z 2418/2524 35005KT 5000 BR FEW020 TEMPO 2423/2503 VRB03KT 3000 BR SCT010 BECMG 2504/2506 04010KT 6000 FEW020 BECMG 2515/2517 07006KT 5000 HZ FEW020 BECMG 2522/2524 VRB03KT 3000 BR NSC
VOHY,TAF VOHY 241100Z 2412/2421 34010KT 6000 FEW020 BECMG 2414/2416 07006KT 5000 HZ NSC 
VOKN,TAF VOKN 241700Z 2418/2524 12005KT 3500 BR FEW012 SCT080 TEMPO 2422/2502 2000 RA BR SCT010 FEW025CB BKN080 BECMG 2503/2505 4500 HZ SCT015 SCT080 TEMPO 2509/2514 25010G20KT 3000 TS TSRA SCT015 FEW025CB BKN080 BECMG 2514/2515 09005KT 3500 HZ -RA SCT015 SCT080 TEMPO 2522/2524 2000 RA BR SCT010 FEW025CB BKN080
VOLT,TAF VOLT 241100Z 2412/2421 35007KT 5000 FU SCT020 BECMG 2415/2417 02005KT 3000 FU
VOMD,TAF VOMD 241700Z 2418/2524 VRB02KT 4000 BR FEW020 SCT100 TEMPO 2500/2503 3000 BR BECMG 2506/2507 05005KT 6000 BECMG 2515/2516 VRB02KT 5000 HZ
VOML,TAF VOML 241700Z 2418/2524 09005KT 6000 SCT012 BECMG 2422/2423 3000 BR SCT005 TEMPO 2500/2503 0800 FG SCT001 BECMG 2504/2505 25010KT 6000 SCT012 BECMG 2515/2516 09005KT
VOMM,TAF COR VOMM 241700Z 2418/2524 VRB02KT 1500 FU/BR FEW020 SCT100 TEMPO 2421/2503 0500 FU BECMG 2503/2504 34005KT 3000 BR BECMG 2506/2507 6000 BECMG 2512/2513 05005KT 5000 BR BECMG 2518/2519 VRB02KT 3000 BR
VOND,TAF VOND 241100Z 2412/2421 34010KT 5000 FU SCT020 BECMG 2416/2418 VRB03KT 3000 FU
VOPB,TAF VOPB 241500Z 2418/2503 VRB02KT 5000 BR SCT014 BKN080 TEMPO 2500/2502 23008G17KT 3000 RA SCT010 SCT018 FEW022TCU OVC080
VOSR,TAF VOSR 241100Z 2412/2421 27005KT 5000 FU SCT020 BECMG 2417/2419 05005KT 3000 FU
VOTR,TAF VOTR 241700Z 2418/2524 VRB02KT 3000 BR FEW018 SCT100 TEMPO 2500/2503 1500 FU/BR BECMG 2503/2504 05005KT 5000 HZ BECMG 2506/2507 6000 BECMG 2518/2519 VRB02KT 5000 HZ
VOTV,TAF VOTV 241700Z 2418/2524 00000KT 3500 HZ FEW015 SCT080 TEMPO 2422/2502 2500 RA BR SCT015 FEW025CB BKN080 BECMG 2502/2503 25010KT 5000 HZ SCT015 SCT080 TEMPO 2509/2514 25010G20KT 3000 TS TSRA SCT015 FEW025CB BKN080 BECMG 2514/2515 VRB02KT 3500 HZ -RA SCT015 SCT080
VRMG,TAF VRMG 241700Z 2418/2524 24007KT 9999 FEW018 TEMPO 2418/2424 FEW018CB
VRMH,TAF VRMH 241700Z 2418/2524 25010KT 9999 FEW018TCU TEMPO 2418/2424 4000 TSRA FEW017CB
VRMM,TAF VRMM 241700Z 2418/2524 25012KT 9999 FEW018TCU TEMPO 2418/2424 4000 SHRA FEW017CB
VTBD,TAF VTBD 241700Z 2418/2524 30005KT 9999 FEW020 BECMG 2500/2502 03005KT BECMG 2512/2514 32005KT
VTBO,TAF VTBO 241700Z 2418/2518 03005KT 9000 FEW020 BECMG 2507/2509 23005KT
VTBS,TAF VTBS 241700Z 2418/2524 32005KT 9000 FEW020 BECMG 2500/2502 03005KT BECMG 2512/2514 32005KT
VTBU,TAF VTBU 241700Z 2418/2518 01004KT 2000 BR FEW020 BECMG 2501/2503 17007KT 5000 HZ BECMG 2513/2515 01004KT
VTCC,TAF VTCC 241700Z 2418/2524 25005KT 9999 FEW035 BECMG 2421/2423 36005KT BECMG 2504/2506 16005KT BECMG 2510/2512 25005KT BECMG 2520/2522 36005KT
VTCH,TAF VTCH 241700Z 2418/2518 16005KT 9999 FEW025 BECMG 2421/2423 00000KT 0800 FG BECMG 2500/2502 24005KT 9999 NSW
VTCL,TAF VTCL 241700Z 2418/2518 36005KT 9999 FEW025 BECMG 2505/2507 20005KT BECMG 2509/2511 13005KT
VTCN,TAF VTCN 241700Z 2418/2518 02005KT 9999 FEW025 BECMG 2504/2506 16005KT
VTCP,TAF VTCP 241700Z 2418/2518 06005KT 9999 FEW035 BECMG 2422/2424 00000KT 2000 BR BECMG 2501/2503 01005KT 9999 NSW BECMG 2505/2507 22005KT BECMG 2510/2512 16005KT
VTCT,TAF VTCT 241700Z 2418/2524 26005KT 9999 FEW035 BECMG 2422/2424 03005KT BECMG 2504/2506 16005KT BECMG 2510/2512 29005KT BECMG 2521/2523 36005KT
VTPB,TAF VTPB 241700Z 2418/2518 35005KT 9999 FEW030
VTPH,TAF VTPH 241700Z 2418/2518 00000KT 9000 FEW020 BECMG 2503/2505 04008KT BECMG 2515/2517 00000KT
VTPM,TAF VTPM 241700Z 2418/2518 06005KT 9999 FEW040
VTPO,TAF VTPO 241700Z 2418/2518 24005KT 9999 FEW025
VTPP,TAF VTPP 241700Z 2418/2518 26005KT 9999 FEW030
VTSB,TAF VTSB 241700Z 2418/2518 00000KT 8000 FEW020 BECMG 2420/2422 1500 BR BKN005 BECMG 2501/2503 05005KT 9999 NSW FEW020 TEMPO 2506/2513 VRB15G25KT 4000 TSRA FEW016CB SCT018 BKN100 BECMG 2513/2515 00000KT
VTSC,TAF VTSC 241700Z 2418/2518 33005KT 9999 FEW020 BKN100 TEMPO 2418/2503 4000 RA TEMPO 2505/2514 VRB15G25KT 4000 TSRA FEW016CB SCT018 BKN100
VTSE,TAF VTSE 241700Z 2418/2518 00000KT 8000 FEW020 SCT100 BECMG 2503/2505 16008KT TEMPO 2505/2513 VRB15G25KT 4000 TSRA FEW016CB SCT018 BKN100 BECMG 2513/2515 00000KT
VTSF,TAF VTSF 241700Z 2418/2518 00000KT 9999 FEW020 TEMPO 2418/2503 4000 RA BECMG 2503/2505 06006KT TEMPO 2506/2514 VRB15G25KT 4000 TSRA FEW016CB SCT018 BKN100 BECMG 2514/2516 00000KT
VTSG,TAF VTSG 241700Z 2418/2518 00000KT 9999 FEW020 BECMG 2422/2424 0800 FG BECMG 2500/2502 24006KT 9999 NSW TEMPO 2506/2512 24015G25KT 3000 TSRA FEW018CB SCT020 BKN100
VTSM,TAF VTSM 241700Z 2418/2518 00000KT 9999 FEW020 PROB40 TEMPO 2420/2502 4000 RA BECMG 2503/2505 33008KT TEMPO 2506/2513 VRB15G25KT 4000 TSRA FEW016CB SCT018 BKN100 BECMG 2513/2515 00000KT
VTSP,TAF VTSP 241700Z 2418/2524 00000KT 9999 FEW020 BECMG 2502/2504 28007KT TEMPO 2508/2516 28015G25KT 3000 TSRA FEW018CB SCT020 BKN100
VTSR,TAF VTSR 241700Z 2418/2518 00000KT 9999 FEW020 BECMG 2504/2506 24006KT BECMG 2510/2512 00000KT
VTSS,TAF VTSS 241700Z 2418/2518 00000KT 9999 FEW020 BKN100 TEMPO 2418/2503 4000 RA BECMG 2503/2505 06006KT TEMPO 2505/2513 VRB15G25KT 4000 TSRA FEW016CB SCT018 BKN100
VTST,TAF VTST 241700Z 2418/2518 00000KT 9999 FEW020 BECMG 2422/2424 3000 BR BECMG 2500/2502 9999 NSW BECMG 2504/2506 33006KT TEMPO 2506/2512 33015G25KT 3000 TSRA FEW018CB SCT020 BKN100
VTUD,TAF VTUD 241700Z 2418/2518 09005KT 8000 NSC
VTUI,TAF VTUI 241700Z 2418/2518 08005KT 8000 NSC
VTUK,TAF VTUK 241700Z 2418/2518 06005KT 8000 NSC
VTUL,TAF VTUL 241700Z 2418/2518 09005KT 6000 NSC
VTUO,TAF VTUO 241700Z 2418/2518 07006KT CAVOK
VTUQ,TAF VTUQ 241700Z 2418/2518 04006KT 9999 FEW040
VTUU,TAF VTUU 241700Z 2418/2518 04007KT CAVOK
VTUV,TAF VTUV 241700Z 2418/2518 06006KT 9999 FEW040
VTUW,TAF VTUW 241700Z 2418/2518 08005KT 8000 NSC
VVNB,TAF VVNB 241700Z 2418/2518 15005KT 6000 FEW025 BECMG 2420/2422 3500 BR BECMG 2501/2502 6000 NSW TEMPO 2504/2509 4000 -RA BR SCT012 BKN030
VVTS,TAF VVTS 241700Z 2418/2524 VRB03KT 9999 SCT017 SCT050 TEMPO 2418/2421 5000 TSRA SCT015 FEW017CB BKN040 BECMG 2421/2423 3000 BR BECMG 2500/2501 35010KT 9999 NSW TEMPO 2508/2514 35015G25KT 3000 TSRA SCT013 SCT015CB BKN040
VYMD,TAF VYMD 240500Z 2406/2506 14005KT 7000 BKN020 FEW025CB BKN100 TEMPO 2406/2412 17007KT 7000 BKN017 FEW020CB BKN100
VYNT,TAF VYNT 241700Z 2418/2518 18010KT 7000 BKN020 FEW023CB BKN110 TEMPO 2418/2424 14010KT 4000 DZ BKN018 FEW020CB BKN100
VYYY,TAF VYYY 241700Z 2418/2518 14005KT 7000 BKN017 FEW020CB BKN100 TEMPO 2418/2424 14007KT 5000 -TSRA BKN014 FEW017CB BKN090
WAAA,TAF WAAA 241700Z 2418/2524 09004KT 8000 SCT018 BECMG 2501/2503 29010KT
WABB,TAF WABB 241700Z 2418/2600 08005KT 9999 SCT018 PROB30 TEMPO 2418/2422 5000 RA TEMPO 2500/2503 5000 RA
WADD,TAF WADD 241700Z 2418/2518 29010KT 9999 SCT016 TEMPO 2508/2512 5000 TSRA FEW014CB BKN014
WADL,TAF WADL 240500Z 2406/2506 23010KT 8000 BKN016 TEMPO 2406/2409 FEW015CB
WAHQ,TAF WAHQ 241100Z 2412/2512 21008KT 7000 SCT015 TEMPO 2413/2415 VRB10KT 3000 -TSRA BKN012 FEW016CB BECMG 2416/2417 00000KT 5000 HZ SCT014
WALL,TAF WALL 240500Z 2406/2512 21006KT 9999 FEW020 TEMPO 2407/2410 FEW015CB
WAMM,TAF WAMM 240500Z 2406/2512 25010KT 9999 SCT019 TEMPO 2407/2410 5000 RA FEW017CB BECMG 2411/2412 VRB03KT
WAOO,TAF WAOO 240500Z 2406/2506 26008KT 9999 SCT017 TEMPO 2406/2410 6000 RA
WAPP,TAF WAPP 240500Z 2406/2506 34008KT 9999 SCT018
WARR,TAF WARR 241700Z 2418/2518 26005KT 3000 BR FEW020 PROB30 TEMPO 2418/2421 4000 RA SCT018CB BECMG 2501/2503 08010KT 9999 NSW BECMG 2512/2514 25005KT
WATT,TAF COR WATT 240500Z 2406/2506 23005KT 9999 BKN017 BECMG 2410/2412 10005KT
WBGB,TAF WBGB 241700Z 2418/2518 VRB03KT 9999 FEW016 TEMPO 2508/2512 5000 TSRA FEW015CB
WBGG,TAF WBGG 241700Z 2418/2518 VRB03KT 9999 FEW020 TEMPO 2508/2512 4000 TSRA FEW015CB
WBGR,TAF WBGR 241700Z 2418/2518 VRB03KT 9999 SCT014 TEMPO 2508/2512 4000 TSRA FEW015CB
WBGS,TAF WBGS 241700Z 2418/2518 13005KT 9999 SCT016 TEMPO 2418/2422 5000 RA SCT014 TEMPO 2508/2512 5000 TSRA FEW015CB
WBKK,TAF WBKK 241700Z 2418/2518 11005KT 9999 FEW014 BECMG 2500/2502 22005KT PROB30 TEMPO 2506/2510 5000 TSRA FEW017CB
WBKL,TAF WBKL 241700Z 2418/2518 VRB03KT 9999 FEW015 TEMPO 2418/2424 3000 +TSRA FEW010 FEW017CB SCT030
WBKS,TAF AMD WBKS 241802Z 2418/2518 22005KT 9999 FEW016 BECMG 2500/2502 36005KT PROB40 TEMPO 2510/2514 5000 TSRA FEW010 FEW016CB SCT040
WBKW,TAF WBKW 241700Z 2418/2518 VRB03KT 9999 FEW016
WBSB,TAF WBSB 241650Z 2418/2600 14005KT 9999 SCT014 FEW015CB TEMPO 2418/2422 8000 -RA BECMG 2503/2505 29009KT SCT015 FEW016CB TEMPO 2506/2510 5000 TSRA
WIDD,TAF WIDD 240500Z 2406/2506 31007KT 9000 SCT014
WIEE,TAF WIEE 240500Z 2406/2506 27005KT 9999 FEW020
WIHH,TAF WIHH 241700Z 2418/2518 27005KT 5000 HZ FEW020 BECMG 2504/2506 18006KT 6000 SCT020
WIII,TAF WIII 241700Z 2418/2524 26005KT 6000 SCT020 TEMPO 2420/2424 4000 -TSRA FEW014CB BECMG 2323/2401 27010KT
WIMM,TAF WIMM 240500Z 2406/2506 02008KT 9999 SCT018 BECMG 2410/2412 VRB05KT 5000 HZ TEMPO 2412/2416 -TSRA FEW016CB
WIPP,TAF WIPP 241700Z 2418/2518 21005KT 9999 SCT010 TEMPO 2418/2422 5000 RA BKN010
WMAP,TAF WMAP 241700Z 2418/2518 VRB02KT 8000 FEW024 PROB40 TEMPO 2418/2422 5000 TSRA FEW008 FEW017CB TEMPO 2514/2518 3000 +TSRA FEW008 FEW017CB
WMBT,TAF WMBT 241700Z 2418/2518 VRB03KT 9999 SCT024 TEMPO 2418/2423 VRB07G20KT 4000 TSRA FEW017CB SCT024
WMKA,TAF WMKA 241700Z 2418/2518 VRB02KT 9999 FEW025 PROB30 TEMPO 2419/2424 5000 RA FEW017CB BECMG 2505/2507 29008KT FEW020 TEMPO 2507/2512 5000 TSRA FEW017CB
WMKB,TAF WMKB 241700Z 2418/2518 35006KT 9000 FEW024 TEMPO 2418/2422 7000 TSRA FEW017CB BECMG 2504/2506 33005KT 9999 FEW020
WMKC,TAF WMKC 241700Z 2418/2518 VRB03KT 9999 FEW020 TEMPO 2423/2503 7000 -TSRA FEW008 FEW017CB
WMKE,TAF WMKE 241700Z 2418/2518 VRB03KT 9999 FEW017 TEMPO 2418/2500 7000 -TSRA FEW008 FEW014CB
WMKI,TAF WMKI 241700Z 2418/2518 VRB02KT 8000 FEW010 BECMG 2420/2422 05005KT 9999 FEW020 TEMPO 2508/2512 6000 TSRA FEW017CB
WMKJ,TAF WMKJ 241700Z 2418/2518 VRB02KT 8000 FEW022 TEMPO 2508/2511 02006KT 5000 TSRA FEW016CB SCT018 TEMPO 2514/2518 3000 +TSRA FEW008 FEW016CB
WMKK,TAF WMKK 241700Z 2418/2600 VRB02KT 8000 FEW030 PROB30 TEMPO 2510/2513 34006KT 5000 TSRA FEW017CB SCT018 PROB40 TEMPO 2520/2523 VRB02KT 5000 TSRA FEW008 FEW017CB
WMKL,TAF AMD WMKL 241615Z 2418/2518 VRB02KT 9999 FEW026 TEMPO 2419/2424 6000 RA FEW010 TEMPO 2505/2510 5000 +RA FEW017CB
WMKM,TAF WMKM 241700Z 2418/2518 VRB02KT 8000 FEW028 PROB40 TEMPO 2422/2502 3000 +TSRA FEW008 FEW017CB TEMPO 2507/2510 35006KT 5000 TSRA FEW017CB SCT020 TEMPO 2513/2516 4000 TSRA FEW008 FEW017CB
WMKN,TAF WMKN 241700Z 2418/2518 VRB03KT 9999 FEW022 TEMPO 2418/2500 7000 -TSRA FEW008 FEW017CB
WMKP,TAF WMKP 241700Z 2418/2518 VRB02KT 8000 FEW025 PROB30 TEMPO 2419/2500 6000 TSRA FEW010 SCT025 BECMG 2504/2506 22007KT FEW020 TEMPO 2507/2513 5000 TSRA FEW017CB
WMPA,TAF WMPA 240500Z 2406/2506 VRB02KT 9999 FEW017CB SCT022 TEMPO 2409/2414 29007KT 6000 RA FEW010 FEW017CB
WMSA,TAF WMSA 241700Z 2418/2518 VRB02KT 8000 FEW026 TEMPO 2508/2513 34006KT 4000 TSRA FEW017CB SCT018
WSAP,TAF WSAP 241700Z 2418/2600 32007KT 9999 FEW015 BKN020 TEMPO 2505/2509 3000 TSRA FEW012CB BKN015
WSSL,TAF WSSL 241700Z 2418/2600 32007KT 9999 FEW015 BKN020 TEMPO 2505/2509 3000 TSRA FEW012CB BKN015
WSSS,TAF WSSS 241700Z 2418/2600 32007KT 9999 FEW015 BKN020 TEMPO 2505/2509 3000 TSRA FEW012CB BKN015
YBAS,TAF YBAS 241704Z 2418/2518 07013KT CAVOK FM242300 02018KT CAVOK FM250400 30014KT CAVOK FM250600 16010KT CAVOK FM251100 05010KT CAVOK FM251600 33005KT CAVOK PROB40 TEMPO 2506/2510 VRB25G45KT 4000 TSRA BKN090CB
YBBN,TAF AMD YBBN 241929Z 2419/2600 25005KT 9999 -SHRA SCT030 FM250000 02014KT 9999 -SHRA FEW030 FM251000 35008KT 9999 NSW FEW030 FM251600 26005KT CAVOK PROB30 TEMPO 2421/2510 VRB20G35KT 2000 TSRA BKN010 SCT035CB
YBCS,TAF YBCS 241714Z 2418/2518 31005KT 9999 SCT015 SCT022 FM242200 32010KT 9999 SCT022 BECMG 2500/2501 01014KT 9999 SCT025 FM250900 32005KT 9999 SCT020
YBRK,TAF YBRK 241709Z 2418/2518 36004KT 9999 SCT016 FM242200 34014KT 9999 SCT020 FM250200 32012KT 9999 SCT040 FM251000 VRB04KT 9999 SCT008 TEMPO 2418/2422 9999 BKN006 TEMPO 2514/2518 9999 BKN006 PROB30 TEMPO 2418/2508 VRB20G40KT 1000 TSRA BKN010 SCT040CB PROB30 2516/2518 0500 FG BKN001
YBRM,TAF YBRM 241723Z 2418/2518 26010KT 9999 SCT015 FM250000 26013KT CAVOK FM251000 27008KT CAVOK
YBTL,TAF YBTL 241720Z 2418/2518 36010KT 9999 SCT015 FM242200 34014KT 9999 SCT025 FM250200 01016KT 9999 SCT025 FM250800 36010KT 9999 SCT015 TEMPO 2418/2422 9999 BKN012
YBWW,TAF AMD YBWW 241808Z 2418/2518 36006KT 9999 SCT015 FM242300 35015G25KT 9999 SCT020 FM250200 30012KT 9999 SCT040 FM251000 17006KT 9999 FEW040 TEMPO 2418/2422 VRB20G40KT 1000 TSRA BKN010 SCT040CB PROB30 TEMPO 2422/2506 VRB20G40KT 1000 TSRA BKN010 SCT040CB
YCIN,TAF YCIN 241837Z 2420/2508 25006KT 9999 SCT015 FM242300 27010KT CAVOK FM250400 30013KT CAVOK
YFRT,TAF YFRT 241904Z 2420/2508 11015G25KT 9999 -SHRA SCT018 FM242300 09016G26KT 9999 -SHRA NSC FM250300 13012KT CAVOK FM250700 17018G28KT CAVOK TEMPO 2420/2503 VRB25G40KT 7000 -TSRA SCT120CB
YMAV,TAF AMD YMAV 241828Z 2418/2518 07005KT 9999 -RA SCT014 BKN040 BECMG 2419/2420 VRB03KT 9999 -DZ BKN008 FM242300 18006KT 9999 NSW SCT008 BKN012 FM250100 18008KT 9999 -SHRA SCT030 FM250300 15010KT 9999 -SHRA SCT035 BECMG 2512/2513 23005KT 9999 NSW SCT005 BKN015 TEMPO 2418/2423 3000 DZ BKN003 INTER 2503/2506 5000 SHRA BKN015 SCT035TCU
YMHB,TAF AMD YMHB 241910Z 2419/2518 10010KT 8000 -RA FEW008 BKN017 FM250300 13010KT 8000 -RA BKN008 FM251500 15015G25KT 7000 -RA BKN007 INTER 2500/2506 4000 RA BKN005 PROB30 2419/2421 2000 BR
YMML,TAF AMD YMML 241927Z 2419/2600 29005KT 5000 -DZ FEW002 BKN005 FM242100 29005KT 9999 -DZ FEW002 BKN005 FM250000 29007KT 9999 NSW SCT010 SCT030 FM250200 24008KT 9999 -SHRA SCT035 FM251100 30005KT 9999 NSW SCT040 FM251400 24007KT 9999 -DZ BKN015 TEMPO 2419/2500 3000 DZ BKN002 INTER 2502/2508 5000 SHRA BKN015 SCT040TCU
YPAD,TAF YPAD 241713Z 2418/2600 25007KT 8000 -DZ SCT005 BKN010 FM241900 25008KT 8000 -DZ BKN006 OVC010 FM250100 26008KT 9999 -DZ BKN012 FM250300 26010KT 9999 -DZ SCT015 BKN025 FM250800 23010KT 9999 -DZ BKN010 TEMPO 2418/2501 3000 DZ BKN005 TEMPO 2509/2600 4000 DZ BKN008
YPCC,TAF YPCC 241723Z 2418/2518 13014KT 9999 SCT025
YPDN,TAF YPDN 241703Z 2418/2600 30010KT 9999 SCT020 FM250000 30014KT 9999 FEW035 FM251000 30008KT 9999 SCT015
YPEA,TAF AMD YPEA 241644Z 2418/2512 17005KT 9999 FEW020 FM250100 20010KT 9999 -SHRA BKN030 FM250300 23015G25KT 9999 -SHRA BKN040 FM250700 23015G25KT 9999 NSW SCT040 FM251100 21010KT 9999 SCT030 INTER 2502/2506 5000 SHRA SCT018 PROB30 2420/2423 2000 BR
YPGV,TAF YPGV 241832Z 2420/2508 36010KT 9999 SCT020 FM250200 01012KT CAVOK
YPKU,TAF YPKU 241841Z 2420/2508 VRB03KT CAVOK FM242300 21010KT CAVOK FM250600 32010KT CAVOK
YPLM,TAF YPLM 241723Z 2418/2518 18017KT CAVOK BECMG 2508/2509 22020KT CAVOK FM251400 18017KT CAVOK
YPPD,TAF YPPD 241723Z 2418/2518 24012KT CAVOK FM242300 17012KT CAVOK FM250400 30018KT CAVOK FM251000 29014KT CAVOK FM251400 25010KT CAVOK
YPPH,TAF YPPH 241702Z 2418/2600 18007KT 9999 SCT018 BECMG 2500/2501 20013KT 9999 -SHRA BKN030 FM250400 24015G25KT 9999 NSW BKN040 FM251100 20010KT 9999 SCT030 FM251700 VRB03KT 9999 FEW025
YPTN,TAF YPTN 241704Z 2418/2518 32010KT CAVOK
YPXM,TAF AMD YPXM 241727Z 2418/2518 14010KT 9999 -SHRA BKN005 FM250000 15012KT 9999 NSW BKN016 TEMPO 2418/2423 0500 +SHRA OVC002
YSCB,TAF YSCB 241717Z 2418/2518 10005KT 9999 -DZ BKN014 BECMG 2423/2500 32014KT 9999 -SHRA SCT040 FM251000 30008KT 9999 -SHRA BKN025 PROB30 2418/2422 2000 BR
YSDU,TAF YSDU 241716Z 2418/2512 10006KT 9999 -SHRA SCT030 FM242300 30012KT 9999 -SHRA SCT030 FM250800 29010KT 9999 NSW NSC PROB30 2418/2422 0300 FG PROB30 TEMPO 2500/2507 VRB20G30KT 2000 TSRA BKN012 SCT030CB
YSNF,TAF YSNF 241708Z 2418/2518 07013KT 9999 -SHRA SCT020 FM250300 06014KT 9999 -SHRA BKN025 FM250700 04013KT 9999 -SHRA SCT015 BKN020
YSRI,TAF AMD YSRI 241649Z 2417/2518 VRB03KT 9999 SCT005 BKN030 BECMG 2419/2421 VRB03KT 9999 SCT010 FM242200 36005KT 9999 FEW035 FM250200 36008KT CAVOK INTER 2501/2510 4000 SHRA BKN012 PROB30 2417/2422 0300 FG BKN002 PROB30 TEMPO 2502/2510 VRB25G45KT 2000 TSRAGR BKN010 SCT060CB
YSSY,TAF AMD YSSY 241719Z 2418/2600 32007KT 9999 -DZ BKN008 FM242100 33010KT 9999 NSW SCT020 FM250100 02012KT 9999 SCT045 FM251100 29008KT CAVOK TEMPO 2418/2419 4000 DZ BKN004 INTER 2503/2511 4000 SHRA SCT015 PROB30 TEMPO 2503/2511 VRB25G45KT 2000 TSRAGR BKN010 SCT045CB
YWLM,TAF AMD YWLM 241916Z 2419/2518 30007KT 9999 SCT005 FM242100 34008KT 9999 SCT008 FM250000 03008KT 9999 BKN015 FM250200 06008KT 9999 SCT045 FM251100 30008KT CAVOK INTER 2503/2510 4000 SHRA BKN012 PROB30 TEMPO 2503/2510 VRB25G45KT 2000 TSRAGR BKN010 SCT045CB
ZBAA,TAF ZBAA 241501Z 2418/2518 18004MPS 6000 NSC TX21/2507Z TN03/2421Z
ZBAD,TAF ZBAD 241500Z 2418/2518 21004MPS 3000 BR NSC TX21/2507Z TN04/2421Z
ZBHH,TAF ZBHH 241502Z 2418/2518 06004MPS CAVOK TX18/2507Z TN00/2422Z
ZBSJ,TAF ZBSJ 241500Z 2418/2518 09003MPS 4000 BR NSC TX24/2507Z TN07/2421Z
ZBTJ,TAF ZBTJ 241506Z 2418/2518 23004MPS 3000 HZ NSC TX22/2506Z TN10/2421Z
ZBYN,TAF ZBYN 241500Z 2418/2518 21003MPS 5000 HZ NSC TX15/2507Z TN05/2422Z
ZGGG,TAF ZGGG 241508Z 2418/2518 10003MPS CAVOK TX32/2507Z TN22/2422Z
ZGHA,TAF ZGHA 241502Z 2418/2518 35004MPS 6000 SCT050 TX28/2507Z TN16/2422Z
ZGKL,TAF ZGKL 241505Z 2418/2518 05003MPS CAVOK TX34/2507Z TN15/2422Z
ZGNN,TAF ZGNN 241505Z 2418/2518 12003MPS 7000 FEW036 TX31/2507Z TN21/2422Z
ZGOW,TAF ZGOW 241502Z 2418/2518 12003MPS 5000 BR SCT050 TX29/2506Z TN19/2422Z
ZGSZ,TAF ZGSZ 241501Z 2418/2518 11005MPS 9000 FEW050 TX28/2506Z TN22/2422Z TEMPO 2504/2510 18004MPS
ZHCC,TAF ZHCC 241505Z 2418/2518 15003MPS 5000 HZ NSC TX21/2507Z TN10/2422Z BECMG 2422/2423 2500 BR BECMG 2501/2502 4000 HZ
ZHHH,TAF ZHHH 241504Z 2418/2518 10003MPS 5000 BR NSC TX20/2507Z TN15/2422Z
ZJHK,TAF ZJHK 241504Z 2418/2518 08004MPS 6000 BKN020 TX28/2506Z TN21/2421Z TEMPO 2418/2424 2000 SHRA BKN008 BKN020 FEW023CB
ZJSY,TAF ZJSY 241502Z 2418/2518 09005MPS 9999 SCT020 BKN050 TX30/2506Z TN22/2421Z TEMPO 2418/2424 SHRA SCT016 FEW025CB BKN040
ZKPY,TAF ZKPY 240430Z 2406/2506 35005MPS CAVOK TX14/2406Z TN01/2421Z BECMG 2504/2506 19003MPS
ZKWS,TAF ZKWS 240430Z 2406/2506 03004MPS 9999 SCT040 TX13/2406Z TN06/2421Z TEMPO 2408/2424 OVC030
ZLLL,TAF ZLLL 241507Z 2418/2518 33003MPS 6000 NSC TX17/2508Z TN04/2423Z TEMPO 2506/2512 35008G13MPS -TSRA FEW033CB SCT040
ZLXY,TAF ZLXY 241509Z 2418/2518 06004MPS 3000 HZ NSC TX17/2507Z TN10/2422Z TEMPO 2507/2513 -RA
ZMCK,TAF ZMCK 241635Z 2418/2524 31005MPS 9999 SCT033 BKN100 TNM02/2422Z TX02/2507Z TEMPO 2420/2504 6000 SNRA SCT030 BKN080 BECMG 2501/2504 33008MPS BECMG 2511/2513 VRB02MPS SCT100
ZMUB,TAF ZMUB 241636Z 2418/2524 VRB02MPS 9999 SCT033 BKN100 TNM04/2422Z TX01/2507Z TEMPO 2419/2504 6000 SNRA SCT030 BKN080 BECMG 2502/2504 34007MPS BECMG 2510/2512 VRB02MPS SCT100
ZPPP,TAF ZPPP 241512Z 2418/2518 22004MPS 9999 SCT023 BKN040 TX20/2508Z TN13/2423Z
ZSAM,TAF ZSAM 241505Z 2418/2518 05007G12MPS 8000 SCT030 TX25/2506Z TN19/2421Z
ZSFZ,TAF ZSFZ 241512Z 2418/2518 04009MPS 8000 SCT030 TX24/2506Z TN19/2422Z
ZSHC,TAF ZSHC 241502Z 2418/2518 09004MPS 3000 BR NSC TX21/2506Z TN14/2421Z
ZSJN,TAF ZSJN 241514Z 2418/2518 23003MPS 3500 HZ NSC TX23/2506Z TN08/2421Z
ZSNB,TAF ZSNB 241505Z 2418/2518 04004MPS 6000 SCT030 TX21/2506Z TN12/2421Z
ZSNJ,TAF ZSNJ 241506Z 2418/2518 10003MPS 3000 BR NSC TX22/2506Z TN10/2422Z
ZSOF,TAF ZSOF 241501Z 2418/2518 12003MPS 5000 HZ NSC TX22/2507Z TN12/2422Z
ZSPD,TAF ZSPD 241513Z 2418/2518 04004MPS 6000 BKN020 TX20/2506Z TN14/2420Z
ZSQD,TAF ZSQD 241502Z 2418/2518 18003MPS 3500 BR NSC TX21/2506Z TN09/2421Z BECMG 2420/2421 2000 BECMG 2423/2424 6000
ZSSS,TAF ZSSS 241513Z 2418/2518 04004MPS 6000 SCT020 TX20/2506Z TN15/2420Z
ZUCK,TAF ZUCK 241503Z 2418/2518 03004MPS 5000 BR SCT050 TX22/2508Z TN16/2421Z
ZUGY,TAF ZUGY 241506Z 2418/2518 02003MPS 6000 BKN033 TX27/2507Z TN12/2422Z BECMG 2502/2503 18005MPS
ZUUU,TAF AMD ZUUU 241801Z 2418/2518 02003MPS 2700 -RA BR FEW010 SCT030 TX19/2507Z TN16/2423Z BECMG 2422/2423 3500
ZWSH,TAF ZWSH 241505Z 2418/2518 32005MPS 6000 BKN040 TX17/2509Z TN08/2500Z TEMPO 2421/2424 -RA BECMG 2504/2505 14004MPS BECMG 2514/2515 32005MPS
ZWWW,TAF ZWWW 241504Z 2418/2518 18004MPS CAVOK TX09/2509Z TN02/2423Z BECMG 2502/2503 36004MPS BECMG 2512/2513 18004MPS
ZYCC,TAF ZYCC 241503Z 2418/2518 17006G12MPS 6000 FEW030 TX13/2506Z TNM01/2420Z
ZYHB,TAF ZYHB 241503Z 2418/2518 18003MPS 6000 SCT030 TX13/2506Z TNM03/2421Z
ZYTL,TAF ZYTL 241508Z 2418/2518 18004MPS 5000 BR FEW033 TX18/2506Z TN04/2421Z
ZYTX,TAF ZYTX 241503Z 2418/2518 14004MPS 6000 NSC TX18/2506Z TN02/2421Z BECMG 2501/2502 20005MPS
