{
  "taf1" : [
    "EPWA 311730Z 3118/0118 02010KT CAVOK PROB40 TEMPO 0108/0115 02017G27KT",
    "EPLL 311730Z 3118/0118 02010KT CAVOK PROB40 TEMPO 0108/0115 02015G25KT",
    "EPWA 311730Z 3118/0118 02010KT CAVOK PROB40 TEMPO 0108/0115 02017G27KT",
    "EPLL 311730Z 3118/0118 02010KT CAVOK PROB40 TEMPO 0108/0115 02015G25KT",
    "EPKT 311730Z 3118/0118 34010KT 9999 BKN020 TEMPO 3118/3124 4000 RA BR BKN004 BKN012 TEMPO 0106/0118 01015G25KT",
    "EPWR 311730Z 3118/0118 02010KT CAVOK TEMPO 0109/0118 03016G28KT",
    "EPPO 311730Z 3118/0118 03011KT CAVOK TEMPO 0109/0116 04015G27KT",
    "EPGD 311730Z 3118/0118 02013KT CAVOK TEMPO 0109/0117 03015G28KT",
    "EPKK 311730Z 3118/0118 35010KT 9999 BKN040 TEMPO 3118/3121 4000 RA SCT006 BKN012 TEMPO 0100/0105 VRB02KT 3000 BR",
    "EPRZ 311730Z 3118/0118 01007KT 9999 OVC013 TEMPO 3118/3120 4000 RA BR BKN008 BECMG 0103/0106 CAVOK",
    "LKPR 311700Z 3118/0200 34008KT 9999 SCT036 BECMG 3118/3120 CAVOK TEMPO 0110/0117 01012G22KT 9999 SCT040",
    "EPSC 311730Z 3118/0118 01012KT CAVOK PROB40 TEMPO 0110/0115 03015G25KT",
    "EPBY 311730Z 3118/0118 03010KT CAVOK BECMG 0110/0112 05014KT BKN030",
    "EPMO 311730Z 3118/0118 02010KT CAVOK PROB40 TEMPO 0108/0115 02017G27KT"],

  "taf2": [
    "EPLB 311730Z 3118/0103 03007KT CAVOK",
    "EPAZ 311730Z 3118/0101 01007KT 9999 OVC013 TEMPO 3118/3120 4000 RA BR BKN008",
    "LKPR 311700Z 3118/0200 34008KT 9999 SCT036 BECMG 3118/3120 CAVOK TEMPO 0110/0117 01012G22KT 9999 SCT040"],

  "taf3" : [
    "EPWA 011130Z 0112/0212 36012KT CAVOK TEMPO 0212/0218 01015G25KT SCT040TCU BECMG 0303/0305 -RA BKN014 PROB40 TEMPO 0303/0312 -SHRA BKN009 BKN025CB",
    "EPLL 021130Z 0212/0312 36010KT CAVOK PROB40 TEMPO 0212/0217 02015G25KT",
    "EPWA 021130Z 0212/0312 36012KT CAVOK TEMPO 0212/0218 01015G25KT SCT040TCU BECMG 0303/0305 -RA BKN014 PROB40 TEMPO 0303/0312 -SHRA BKN009 BKN025CB",
    "EPLL 021130Z 0212/0312 36010KT CAVOK PROB40 TEMPO 0212/0217 02015G25KT",
    "EPKT 021130Z 0212/0312 36010KT 9999 BKN045 TEMPO 0212/0217 36015G25KT SHRA BKN040CB BECMG 0219/0222 30004KT PROB40 0301/0304 3000 BR BECMG 0308/0311 36010KT TEMPO 0310/0312 36015G25KT SCT040CB",
    "EPWR 021130Z 0212/0312 34012KT CAVOK TEMPO 0212/0220 31015G25KT SHRA BKN025CB BECMG 0220/0222 VRB03KT TEMPO 0222/0306 3000 BR BKN009",
    "EPPO 021130Z 0212/0312 33010KT CAVOK TEMPO 0212/0218 SHRA BKN025CB BECMG 0218/0220 07005KT",
    "EPGD 021130Z 0212/0312 06010KT CAVOK BECMG 0218/0221 VRB03KT BECMG 0308/0310 06010KT",
    "EPLB 021130Z 0212/0221 35012KT 9999 BKN040 TEMPO 0212/0218 01015G25KT PROB40 TEMPO 0212/0218 VRB15G31KT -SHRA BKN035CB",
    "EPKK 021130Z 0212/0312 33010KT 9999 BKN045 TEMPO 0212/0217 36015G25KT SHRA BKN040CB BECMG 0219/0222 27004KT PROB40 0301/0304 3000 BR BECMG 0308/0311 33010KT TEMPO 0310/0312 33015G25KT SCT040CB",
    "EPRZ 021130Z 0212/0312 33010KT 9999 BKN040 TEMPO 0212/0217 36017G27KT SHRA BKN033CB BECMG 0219/0222 27005KT TEMPO 0302/0308 4000 RA BR BKN013 BECMG 0308/0310 33010KT TEMPO 0308/0311 33015G25KT SCT040CB",
    "LKPR 021100Z 0212/0318 35011KT CAVOK TEMPO 0212/0221 02012G24KT 9000 -SHRA SCT030TCU PROB30 TEMPO 0216/0220 5000 TSRA SCT027CB TEMPO 0310/0318 7000 SHRA SCT030CB",
    "EPSC 021130Z 0212/0312 31010KT CAVOK PROB40 TEMPO 0212/0218 34015G25KT SCT040CB BECMG 0219/0222 07006KT",
    "EPBY 021130Z 0212/0312 35008KT CAVOK PROB30 TEMPO 0212/0217 -SHRA BKN030CB",
    "EPMO 021130Z 0212/0312 36012KT CAVOK TEMPO 0212/0218 01015G28KT SCT040TCU TEMPO 0305/0312 -SHRA BKN009 BKN025CB"],

  "taf4" : [
    "REMARK: only taf is being used by other programs",
    "EPKT 291130Z 2912/3012 33007KT 9999 TSRA RA SCT005 PROB40 TEMPO 2912/2914 TSRA SN SNRA FEW010 SCT035TCU BECMG 3006/3008 27010G50KT 1600"],

  "taf5" : [
    "EPWA 170530Z 0706/0806 VRB02KT CAVOK BECMG 0708/0711 27010KT BECMG 0718/0720 VRB02KT PROB40 0802/0806 3000 BR"],

  "taf" : [
    "TO DO - CAVOK in BECMG is canceling only visibility but not clouds, fix this to cancelwind also",
    "LKPR 311700Z 3118/0200 34008KT  9999 SHRA SCT036 BECMG 3118/3120 CAVOK TEMPO 0110/0117 01012G22KT 9999 SCT040",
    "EPWA 170530Z 0706/0806 VRB02KT CAVOK BECMG 0708/0711 27010KT BECMG 0718/0720 VRB02KT PROB40 0802/0806 3000 BR"],


  "taf6" : [
    "TO DO - print - end range of threat when BECMG cancels warning or severe",
    "ESGG 190530Z 1906/2006 17005KT 0200 FG VV001 PROB40 1906/1907 3000 BR BKN005 BECMG 1909/1911 9999 NSW SCT020 PROB40 1909/1912 BKN004 BECMG 1922/1924 0300 FG VV002"],

  "taf7" : [
    "TO DO - VRB02KTS twice in line",
    "EPWA 260530Z 2606/2706 10010KT 9999 SCT050 PROB40 TEMPO 2606/2609 -SHRA SCT012 BKN035CB TEMPO 2608/2614 11015G27KT BECMG 2614/2616 VRB02KT -RA SCT007 BKN014 TEMPO 2614/2620 3000 TSRA BKN005 BKN012CB TEMPO 2620/2703 3000 RA BR BKN003 BECMG 2622/2624 28010KT BECMG 2703/2706 08015KT TEMPO 2703/2706 08020G32KT 4000 SHRA BKN005 BKN010CB"]

}