["TAF EPWA 101130Z 1012/1112 16012KT CAVOK PROB40 TEMPO 1012/1015 16015G25KT BECMG 1103/1106 25007KT TEMPO 1103/1107 -RA BKN014 BECMG 1107/1110 31010KT", "TAF EPLL 101130Z 1012/1112 16012KT CAVOK PROB40 TEMPO 1012/1015 16015G25KT BECMG 1100/1103 25007KT PROB40 TEMPO 1102/1107 -RA BKN014 BECMG 1107/1110 31010KT", "\u001b[91mTEST- no such station\u001b[00m"]