["TAF EPWA 011130Z 0112/0212 17009KT 9999 BKN020 PROB40 TEMPO 0112/0113 BKN013 BECMG 0118/0121 27010KT TEMPO 0118/0121 SHRA BKN005 BKN010CB BECMG 0121/0124 BKN012 TEMPO 0121/0206 4000 -RA BR BKN004 BKN008 TEMPO 0206/0209 27015G25KT SHRA BKN008CB BECMG 0208/0211 BKN020 TEMPO 0209/0212 27015G28KT SHRA BKN014CB", "TAF EPLL 011130Z 0112/0212 16008KT 9999 SCT025 BECMG 0117/0119 26010KT TEMPO 0117/0120 -SHRA BKN008 BKN014CB BECMG 0119/0121 BKN012 TEMPO 0120/0208 -RA BKN004 BKN008 PROB40 TEMPO 0203/0212 27015G28KT BECMG 0208/0211 BKN020 TEMPO 0208/0212 SHRA BKN014CB", "TAF EPKT 011130Z 0112/0212 20006KT 9999 BKN030 BECMG 0114/0117 26010KT TEMPO 0117/0212 -SHRA BKN013 BKN025CB PROB30 TEMPO 0117/0209 27015G25KT 4000 SHRA BKN007 BKN013CB", "TAF EPWR 011130Z 0112/0212 16006KT CAVOK BECMG 0112/0114 22010KT TEMPO 0114/0124 24015G25KT 4000 SHRA BKN012 BKN020CB BECMG 0118/0121 27010KT TEMPO 0200/0208 27015G30KT BKN009 TEMPO 0208/0212 27015G25KT 4000 SHRA BKN020CB", "TAF EPPO 011130Z 0112/0212 20010KT CAVOK TEMPO 0112/0206 24016G30KT 4000 SHRA BKN008 BKN020CB BECMG 0118/0121 27010KT TEMPO 0206/0208 BKN008 TEMPO 0208/0212 27015G25KT 4000 SHRA BKN020CB", "TAF EPGD 011130Z 0112/0212 19012KT CAVOK BECMG 0117/0119 -RA SCT006 BKN012 TEMPO 0117/0204 4000 -SHRA BR BKN004 BKN012CB BECMG 0202/0204 27012KT -RA BKN016 TEMPO 0204/0212 27015G28KT 4000 SHRA BKN006 BKN012CB"]