["TAF BIKF 241925Z 2421/2521 21036G46KT 7000 -RADZ BKN006 OVC012 TX11/2421Z TN05/2521Z TEMPO 2421/2423 1000 RADZ BR OVC003 BECMG 2423/2501 27046G57KT 9999 NSW SCT020 BKN035 BECMG 2508/2510 33030G40KT BECMG 2510/2512 35020G30KT BECMG 2513/2515 34015KT BECMG 2517/2519 28005KT", "TAF BIEG 241934Z 2421/2521 21020G30KT 9999 SCT035 BKN055 TX16/2421Z TN04/2518Z BECMG 2421/2423 22030G40KT BECMG 2505/2507 29032G42KT TEMPO 2507/2519 32042G52KT RA BKN015 OVC030", "TAF EGPD 241654Z 2418/2518 32010KT 9999 FEW025 BECMG 2418/2421 22005KT BECMG 2509/2512 24015KT TEMPO 2515/2517 6000 RA PROB40 TEMPO 2515/2518 24018G28KT", "TAF EGPF 241654Z 2418/2518 32007KT 9999 FEW030 PROB30 2502/2506 8000 BECMG 2506/2509 26012KT TEMPO 2506/2518 BKN014 PROB30 TEMPO 2510/2512 28015G25KT 8000 -RA BKN009 TEMPO 2512/2518 26018G30KT 7000 -RA BKN008 PROB40 TEMPO 2515/2518 4000 RA", "TAF EGPK 241654Z 2418/2518 30012KT 9999 FEW030 BECMG 2418/2421 11005KT PROB30 TEMPO 2506/2510 BKN014 BECMG 2509/2512 24015KT TEMPO 2510/2518 BKN009 TEMPO 2513/2518 25020G32KT 7000 -RA", "TAF ENZV 2418/2518 34012KT 9999 FEW030 PROB30 TEMPO 2502/2506 2500 BR BKN010 BECMG 2504/2506 VRB05KT BECMG 2512/2515 17012KT BECMG 2515/2517 4000 BKN012", "TAF ENBR 2418/2518 34008KT 9999 FEW030 PROB30 2500/2508 1500 BCFG BECMG 2506/2509 17012KT TEMPO 2512/2518 17015G28KT BECMG 2514/2516 4000 RADZ BKN010"]