["TAF EPWA 012030Z 0121/0221 25010KT 9999 BKN030 BECMG 0121/0124 BKN012 BKN018 TEMPO 0121/0206 4000 -RA BR BKN004 BKN008 TEMPO 0206/0209 27015G25KT -SHRA BKN012CB BECMG 0208/0211 BKN020 TEMPO 0209/0221 27015G28KT SHRA BKN014CB", "TAF EPLL 011730Z 0118/0218 14004KT 9999 OVC020 TEMPO 0118/0121 -SHRA BKN008 BKN012CB BECMG 0119/0122 26010KT BKN012 TEMPO 0121/0208 4500 -RA BR BKN003 BKN008 PROB40 TEMPO 0203/0208 27015G28KT BECMG 0208/0211 BKN020 TEMPO 0208/0218 27017G28KT SHRA BKN014CB", "TEST- no such station"]