["EGGW 282255Z 2822/2918 32008KT 5000 BR BKN002 TEMPO 2822/2912 0300 FG DZ BKN000 PROB30 TEMPO 2907/2912 SHSN PROB30 TEMPO 2912/2918 SHRA BECMG 2915/2918 9999 NSW BKN007", "EGSS 290128Z 2902/3006 33007KT 9999 BKN007 BECMG 2902/2905 SCT012 PROB30 TEMPO 2905/2910 0300 FG VV/// TEMPO 2910/2919 3000 SHRA BKN003 PROB30 TEMPO 2919/3006 3000 BR BKN003", "EGBB 282322Z 2900/2924 32005KT 9999 SCT008 TEMPO 2900/2908 6000 BKN008 TEMPO 2908/2913 6000 SHRA BKN012 PROB40 TEMPO 2908/2913 3000 SHRASN -SN BKN006 BECMG 2913/2916 SCT012 BKN020 TEMPO 2913/2920 BKN012 PROB30 TEMPO 2916/2924 7000", "EGCN 290205Z 2902/2924 31006KT 9999 SCT020 BECMG 2902/2905 BKN010 TEMPO 2902/2914 4000 SHRA -SHRASN BKN005 PROB30 TEMPO 2902/2909 0800 SHSN BKN002 BECMG 2912/2915 SCT015", "EGCC 282256Z 2900/3006 31005KT 9999 FEW014 BECMG 2900/2903 8000 BKN010 TEMPO 2900/2904 3000 BR PROB40 TEMPO 2900/2904 0300 FG FZFG VV/// TEMPO 2904/2912 2000 -SHRA -SHRASN BKN005 PROB30 TEMPO 2904/2910 0800 SHSN BKN002 BECMG 2911/2914 9999 FEW015 BECMG 2915/2918 8000 TEMPO 2918/3001 4000 BR TEMPO 3001/3006 3000 SHRA -SHRASN BKN008", "EGNX 282322Z 2900/2924 30006KT 9999 SCT010 TEMPO 2900/2907 7000 BKN008 TEMPO 2907/2912 6000 SHRA BKN012 PROB40 TEMPO 2907/2912 3000 SHRASN -SN BKN006 BECMG 2912/2915 SCT012 BKN020 TEMPO 2912/2917 BKN012", "EGGP 282256Z 2900/2924 VRB03KT 9999 SCT020 BECMG 2900/2903 35010KT PROB30 TEMPO 2900/2904 0300 FG FZFG VV/// TEMPO 2904/2912 6000 SHRA BKN005 PROB30 TEMPO 2904/2910 2000 -SHRASN BKN004 PROB30 TEMPO 2922/2924 6000 SHRA BKN014"]